CYXE;2005-01-01 00:00;METAR CYXE 010000Z 06008KT 5SM -SN BKN025 OVC090 M18/M23 A3044 RMK SC6AC2 SLP360=

CYXE;2005-01-01 01:00;METAR CYXE 010100Z 07008KT 5SM -SN BKN040 OVC080 M19/M22 A3044 RMK SC6AC2 SLP362=

CYXE;2005-01-01 02:00;METAR CYXE 010200Z 07010KT 5SM -SN OVC040 M19/M23 A3043 RMK SC8 SLP359=

CYXE;2005-01-01 03:00;METAR CYXE 010300Z 09007KT 5SM -SN OVC050 M18/M23 A3046 RMK SC8 SLP370=

CYXE;2005-01-01 03:38;SPECI CYXE 010338Z 07005KT 10SM SCT050 RMK SC2 IC=

CYXE;2005-01-01 04:00;METAR CYXE 010400Z 06006KT 6SM IC FEW040 M20/M23 A3048 RMK SC1 SLP374=

CYXE;2005-01-01 04:48;SPECI CYXE 010448Z 05005KT 10SM -SN FEW020 BKN080 RMK SC1AC5=

CYXE;2005-01-01 05:00;METAR CYXE 010500Z 07005KT 10SM -SN FEW020 BKN080 M20/M24 A3049 RMK SC1AC6 SLP378=

CYXE;2005-01-01 06:00;METAR CYXE 010600Z 06008KT 15SM -SN FEW050 SCT090 BKN200 M19/M23 A3048 RMK SC2AC2CI2 SLP378=

CYXE;2005-01-01 07:00;METAR CYXE 010700Z 07007KT 15SM -SN SCT060 OVC200 M19/M23 A3047 RMK SC3CI5 SLP373=

CYXE;2005-01-01 08:00;METAR CYXE 010800Z 07007KT 15SM -SN SCT040 OVC200 M18/M22 A3047 RMK SC4CI4 SLP373=

CYXE;2005-01-01 08:16;SPECI CYXE 010816Z 07008KT 15SM FEW040 BKN110 OVC200 RMK SC2AC3CI3 IC=

CYXE;2005-01-01 09:00;METAR CYXE 010900Z 06008KT 15SM SCT080 SCT110 OVC200 M18/M22 A3048 RMK AC3AC1CI4 IC SLP375=

CYXE;2005-01-01 10:00;METAR CYXE 011000Z 06009KT 15SM -SN BKN055 OVC200 M18/M22 A3047 RMK SC6CI2 SLP371=

CYXE;2005-01-01 11:00;METAR CYXE 011100Z 07013KT 15SM -SN OVC065 M18/M23 A3045 RMK SC8 SLP365=

CYXE;2005-01-01 12:00;METAR CYXE 011200Z 08013KT 15SM -SN BKN070 OVC200 M18/M23 A3046 RMK AC6CI2 SLP368=

CYXE;2005-01-01 13:00;METAR CYXE 011300Z 08008KT 3SM -SN OVC025 M18/M22 A3047 RMK SN6SC2 SLP370=

CYXE;2005-01-01 13:25;SPECI CYXE 011325Z 09010KT 2SM -SN VV020 RMK SN8=

CYXE;2005-01-01 13:51;SPECI CYXE 011351Z 08011KT 4SM -SN OVC065 RMK SN5SC3=

CYXE;2005-01-01 14:00;METAR CYXE 011400Z 08011KT 3SM -SN OVC065 M18/M22 A3046 RMK SN5SC2 SLP369=

CYXE;2005-01-01 15:00;METAR CYXE 011500Z 08010KT 3SM -SN OVC022 M18/M22 A3046 RMK SC8 SLP369=

CYXE;2005-01-01 16:00;METAR CYXE 011600Z 08011KT 2SM -SN OVC020 M18/M22 A3045 RMK SC8 SLP365=

CYXE;2005-01-01 17:00;METAR CYXE 011700Z 07012KT 2SM -SN BKN026 OVC057 M18/M22 A3045 RMK SC6SC2 SLP365=

CYXE;2005-01-01 18:00;METAR CYXE 011800Z 07010KT 2SM -SN BKN033 OVC064 M18/M22 A3043 RMK SC6SC2 SLP361=

CYXE;2005-01-01 19:00;METAR CYXE 011900Z 08011KT 1 1/2SM -SN OVC025 M17/M21 A3041 RMK SC8 SLP352=

CYXE;2005-01-01 20:00;METAR CYXE 012000Z 06011KT 1 1/2SM -SN OVC031 M18/M22 A3037 RMK SC8 SLP341=

CYXE;2005-01-01 21:00;METAR CYXE 012100Z 06012KT 1 1/2SM -SN OVC022 M18/M22 A3036 RMK SC8 SLP333=

CYXE;2005-01-01 22:00;METAR CYXE 012200Z 06012KT 1 1/2SM -SN DRSN OVC020 M18/M22 A3035 RMK SC8 SLP332=

CYXE;2005-01-01 23:00;METAR CYXE 012300Z 05012KT 1 1/2SM -SN DRSN OVC027 M19/M23 A3034 RMK SC8 SLP328=

CYXE;2005-01-01 23:40;SPECI CYXE 012340Z 05010KT 3SM -SN DRSN OVC045 RMK SC8=

CYXE;2005-01-02 00:00;METAR CYXE 020000Z 05011KT 4SM -SN DRSN OVC030 M19/M23 A3034 RMK SC8 /S01/ SLP327=

CYXE;2005-01-02 01:00;METAR CYXE 020100Z 04010KT 3SM -SN DRSN OVC024 M20/M24 A3034 RMK SC8 SLP327=

CYXE;2005-01-02 01:12;SPECI CYXE 020112Z 04010KT 1 1/2SM -SN DRSN OVC019 RMK SC8=

CYXE;2005-01-02 02:00;METAR CYXE 020200Z 05012KT 1 1/2SM -SN DRSN OVC017 M20/M24 A3032 RMK SC8 SLP322=

CYXE;2005-01-02 03:00;METAR CYXE 020300Z 04012KT 2SM -SN DRSN OVC031 M21/M25 A3032 RMK SC8 SLP322=

CYXE;2005-01-02 03:33;SPECI CYXE 020333Z 04011KT 5SM -SN DRSN OVC035 RMK SC8=

CYXE;2005-01-02 04:00;METAR CYXE 020400Z 05011KT 4SM -SN DRSN OVC030 M21/M25 A3031 RMK SC8 /S01/ SLP319=

CYXE;2005-01-02 05:00;METAR CYXE 020500Z 05010KT 5SM -SN DRSN OVC025 M21/M25 A3030 RMK SC8 SLP317=

CYXE;2005-01-02 05:09;SPECI CYXE 020509Z 04011KT 2SM -SN DRSN OVC025 RMK SC8=

CYXE;2005-01-02 05:43;SPECI CYXE 020543Z 05010KT 4SM -SN DRSN OVC019 RMK SC8=

CYXE;2005-01-02 06:00;METAR CYXE 020600Z 06009KT 2SM -SN DRSN OVC019 M21/M25 A3030 RMK SC8 SLP316=

CYXE;2005-01-02 06:24;SPECI CYXE 020624Z 04008KT 4SM -SN DRSN OVC025 RMK SC8=

CYXE;2005-01-02 07:00;METAR CYXE 020700Z 04007KT 2SM -SN DRSN VV016 M21/M25 A3029 RMK SN8 SLP313=

CYXE;2005-01-02 08:00;METAR CYXE 020800Z 03006KT 2SM -SN VV015 M21/M25 A3028 RMK SN8 SLP308=

CYXE;2005-01-02 09:00;METAR CYXE 020900Z 36006KT 2SM -SN VV015 M21/M25 A3028 RMK SN8 /S01/ SLP307=

CYXE;2005-01-02 10:19;SPECI CYXE 021019Z 36005KT 3SM -SN BKN020 RMK SC7=

CYXE;2005-01-02 12:00;METAR CYXE 021200Z 29004KT 3SM -SN BKN030 M21/M25 A3028 RMK SC7 /S02/ SLP310=

CYXE;2005-01-02 13:00;METAR CYXE 021300Z 30004KT 6SM -SN OVC040 M21/M25 A3029 RMK SC7 SLP311=

CYXE;2005-01-02 14:00;METAR CYXE 021400Z 28004KT 8SM -SN OVC038 M21/M24 A3028 RMK SC6 SLP309=

CYXE;2005-01-02 15:00;METAR CYXE 021500Z 25004KT 3SM -SN OVC032 M20/M24 A3027 RMK SC6 SLP308=

CYXE;2005-01-02 16:00;METAR CYXE 021600Z 25006KT 10SM -SN FEW018 BKN068 BKN250 M22/M26 A3029 RMK SF2AC1CI0 SLP312=

CYXE;2005-01-02 16:20;SPECI CYXE 021620Z 24006KT 15SM FEW030 SCT068 BKN250 RMK SF1AC1CI1=

CYXE;2005-01-02 17:00;METAR CYXE 021700Z 24006KT 15SM FEW032 SCT075 BKN250 M23/M27 A3030 RMK SF1AC2CI2 SLP315=

CYXE;2005-01-02 18:00;METAR CYXE 021800Z 24006KT 10SM -SN FEW020 BKN060 OVC250 M20/M25 A3028 RMK SF2SC3CI2 SLP311=

CYXE;2005-01-02 18:36;SPECI CYXE 021836Z 25006KT 3SM -SN BKN013 OVC060 RMK ST5SC3=

CYXE;2005-01-02 19:00;METAR CYXE 021900Z 23006KT 3SM -SN SCT011 BKN060 OVC250 M19/M24 A3027 RMK ST3SC2CS2 SLP308=

CYXE;2005-01-02 19:42;SPECI CYXE 021942Z 25007KT 12SM FEW033 FEW078 OVC250 RMK SC1AC2CS2=

CYXE;2005-01-02 20:00;METAR CYXE 022000Z 25008KT 15SM FEW033 SCT078 OVC250 M18/M23 A3027 RMK SC1AC2CS1 SLP307=

CYXE;2005-01-02 21:00;METAR CYXE 022100Z 23007KT 15SM FEW023 FEW078 BKN250 M19/M24 A3026 RMK SC1AC1CS1 SLP301=

CYXE;2005-01-02 22:00;METAR CYXE 022200Z 22007KT 15SM FEW250 M20/M25 A3026 RMK CI1 SLP301=

CYXE;2005-01-02 23:00;METAR CYXE 022300Z 23008KT 15SM FEW250 M21/M26 A3026 RMK CI1 SLP304=

CYXE;2005-01-03 00:00;METAR CYXE 030000Z 21009KT 15SM FEW250 M23/M27 A3026 RMK CI1 SLP306=

CYXE;2005-01-03 01:00;METAR CYXE 030100Z 22008KT 15SM FEW090 M24/M28 A3026 RMK AC1 SLP306=

CYXE;2005-01-03 02:00;METAR CYXE 030200Z 22008KT 15SM BKN090 M24/M28 A3026 RMK AC5 SLP305=

CYXE;2005-01-03 03:00;METAR CYXE 030300Z 23008KT 15SM BKN090 M23/M27 A3026 RMK AC7 SLP307=

CYXE;2005-01-03 04:00;METAR CYXE 030400Z 23009KT 15SM OVC080 M22/M26 A3025 RMK AC8 SLP302=

CYXE;2005-01-03 05:00;METAR CYXE 030500Z 22011KT 15SM OVC080 M22/M26 A3025 RMK AC8 SLP301=

CYXE;2005-01-03 06:00;METAR CYXE 030600Z 21011KT 15SM OVC080 M22/M26 A3024 RMK AC8 SLP297=

CYXE;2005-01-03 07:00;METAR CYXE 030700Z 22006KT 15SM BKN070 M23/M27 A3023 RMK AC6 SLP295=

CYXE;2005-01-03 08:00;METAR CYXE 030800Z 19009KT 15SM BKN050 M23/M28 A3021 RMK SC3 SLP288=

CYXE;2005-01-03 09:00;METAR CYXE 030900Z 21010KT 15SM SCT050 M25/M29 A3021 RMK SC2 SLP288=

CYXE;2005-01-03 10:00;METAR CYXE 031000Z 24007KT 15SM FEW080 M27/M31 A3022 RMK AC2 SLP290=

CYXE;2005-01-03 11:00;METAR CYXE 031100Z 25008KT 15SM BKN050 M28/M33 A3021 RMK SC3 SLP289=

CYXE;2005-01-03 12:00;METAR CYXE 031200Z 27009KT 15SM FEW050 M28/M32 A3022 RMK SC2 SLP297=

CYXE;2005-01-03 13:00;METAR CYXE 031300Z 28009KT 15SM FEW050 M28/M33 A3023 RMK SC2 SLP301=

CYXE;2005-01-03 13:38;SPECI CYXE 031338Z 27007KT 15SM -SN BKN045 RMK SC7=

CYXE;2005-01-03 14:00;METAR CYXE 031400Z 27008KT 15SM -SN BKN042 M25/M29 A3026 RMK SC7 SLP309=

CYXE;2005-01-03 15:00;METAR CYXE 031500Z 26007KT 15SM -SN OVC034 M23/M27 A3027 RMK SC8 SLP310=

CYXE;2005-01-03 15:22;SPECI CYXE 031522Z 28008KT 15SM OVC032 RMK SC8=

CYXE;2005-01-03 16:00;METAR CYXE 031600Z 29009KT 15SM OVC030 M21/M25 A3030 RMK SC8 SLP320=

CYXE;2005-01-03 17:00;METAR CYXE 031700Z 29009KT 15SM BKN034 M20/M25 A3032 RMK SC7 SLP328=

CYXE;2005-01-03 18:00;METAR CYXE 031800Z 30012KT 15SM OVC032 M19/M24 A3034 RMK SC8 SLP330=

CYXE;2005-01-03 19:00;METAR CYXE 031900Z 30011KT 15SM FEW019 BKN029 M19/M24 A3034 RMK SF2SC6 SLP330=

CYXE;2005-01-03 20:00;METAR CYXE 032000Z 30010KT 15SM OVC030 M19/M24 A3034 RMK SC7 SLP332=

CYXE;2005-01-03 21:00;METAR CYXE 032100Z 30010KT 15SM OVC030 M19/M24 A3034 RMK SC6 SLP334=

CYXE;2005-01-03 22:00;METAR CYXE 032200Z 31009KT 15SM FEW016 FEW030 BKN094 M20/M25 A3036 RMK SC2SC1AC1 SLP340=

CYXE;2005-01-03 23:00;METAR CYXE 032300Z 30010KT 15SM FEW030 FEW094 SCT220 M21/M26 A3038 RMK SC1AC1CI0 SLP346=

CYXE;2005-01-04 00:00;METAR CYXE 040000Z 30010KT 15SM FEW030 FEW220 M22/M27 A3041 RMK SC1CI1 SLP363=

CYXE;2005-01-04 01:00;METAR CYXE 040100Z 30008KT 15SM FEW030 M24/M29 A3043 RMK SC1 SLP369=

CYXE;2005-01-04 02:00;METAR CYXE 040200Z 30008KT 15SM SKC M27/M32 A3045 RMK SLP376=

CYXE;2005-01-04 03:00;METAR CYXE 040300Z 28007KT 15SM SKC M27/M31 A3048 RMK SLP384=

CYXE;2005-01-04 04:00;METAR CYXE 040400Z 29009KT 15SM SKC M28/M32 A3049 RMK SLP389=

CYXE;2005-01-04 05:00;METAR CYXE 040500Z 30008KT 15SM SKC M28/M32 A3051 RMK SLP396=

CYXE;2005-01-04 06:00;METAR CYXE 040600Z 30008KT 15SM SKC M29/M34 A3053 RMK SLP403=

CYXE;2005-01-04 07:00;METAR CYXE 040700Z 28006KT 15SM SKC M31/M35 A3054 RMK SLP406=

CYXE;2005-01-04 08:00;METAR CYXE 040800Z 30006KT 15SM SKC M31/M35 A3055 RMK SLP407=

CYXE;2005-01-04 09:00;METAR CYXE 040900Z 29007KT 15SM SKC M32/M36 A3056 RMK SLP413=

CYXE;2005-01-04 10:00;METAR CYXE 041000Z 28006KT 15SM SKC M32/M36 A3057 RMK SLP417=

CYXE;2005-01-04 11:00;METAR CYXE 041100Z 30006KT 15SM SKC M33/M37 A3058 RMK SLP420=

CYXE;2005-01-04 12:00;METAR CYXE 041200Z 27004KT 15SM SKC M34/M38 A3058 RMK SLP425=

CYXE;2005-01-04 13:00;METAR CYXE 041300Z 25004KT 15SM SKC M34/M38 A3061 RMK SLP433=

CYXE;2005-01-04 15:00;METAR CYXE 041500Z 21004KT 15SM SKC M32/M36 A3065 RMK SLP449=

CYXE;2005-01-04 16:00;METAR CYXE 041600Z 21006KT 15SM SKC M33/M36 A3066 RMK SLP453=

CYXE;2005-01-04 17:00;METAR CYXE 041700Z 23004KT 15SM SKC M31/M35 A3067 RMK SLP456=

CYXE;2005-01-04 18:00;METAR CYXE 041800Z 24005KT 15SM SKC M30/M34 A3067 RMK SLP457=

CYXE;2005-01-04 20:00;METAR CYXE 042000Z 23005KT 15SM SKC M27/M30 A3064 RMK SLP448=

CYXE;2005-01-04 21:00;METAR CYXE 042100Z 24005KT 15SM SKC M26/M30 A3063 RMK SLP443=

CYXE;2005-01-04 22:00;METAR CYXE 042200Z 24006KT 15SM SKC M26/M30 A3062 RMK SLP440=

CYXE;2005-01-04 22:30;SPECI CYXE 042230Z 24007KT 15SM FEW005 RMK SF1 SF S-W-N=

CYXE;2005-01-04 23:00;METAR CYXE 042300Z 22007KT 15SM FEW004 M28/M33 A3061 RMK SF1 SF TR SLP437=

CYXE;2005-01-05 00:00;METAR CYXE 050000Z 21009KT 15SM FEW004 M27/M31 A3061 RMK SF1 SLP438=

CYXE;2005-01-05 01:00;METAR CYXE 050100Z 21008KT 15SM FEW003 M28/M32 A3060 RMK SF1 SLP435=

CYXE;2005-01-05 01:50;SPECI CYXE 050150Z 20006KT 15SM BKN003 RMK SF5=

CYXE;2005-01-05 02:00;METAR CYXE 050200Z 19006KT 15SM OVC003 M28/M33 A3061 RMK SF6 SLP438=

CYXE;2005-01-05 02:04;SPECI CYXE 050204Z 19006KT 8SM OVC002 RMK SF6 BR=

CYXE;2005-01-05 02:43;SPECI CYXE 050243Z 20008KT 15SM SCT002 RMK SF2=

CYXE;2005-01-05 03:00;METAR CYXE 050300Z 20007KT 15SM SCT003 M29/M33 A3060 RMK SF2 SLP434=

CYXE;2005-01-05 04:00;METAR CYXE 050400Z 21007KT 15SM FEW003 M29/M33 A3057 RMK SF1 SLP425=

CYXE;2005-01-05 05:00;METAR CYXE 050500Z 19006KT 15SM FEW003 M30/M34 A3056 RMK SF1 VSBY E 4 BR SF OVR CITY SLP423=

CYXE;2005-01-05 06:00;METAR CYXE 050600Z 19006KT 15SM FEW002 M31/M35 A3054 RMK ST2 SLP413=

CYXE;2005-01-05 07:00;METAR CYXE 050700Z 18005KT 15SM FEW002 M32/M36 A3050 RMK ST1 SLP402=

CYXE;2005-01-05 08:00;METAR CYXE 050800Z 19008KT 15SM FEW003 M31/M36 A3046 RMK ST1 SLP388=

CYXE;2005-01-05 09:00;METAR CYXE 050900Z 20008KT 12SM FEW050 M31/M35 A3043 RMK ST1 SLP375=

CYXE;2005-01-05 10:00;METAR CYXE 051000Z 21008KT 15SM SKC M32/M36 A3043 RMK SLP372=

CYXE;2005-01-05 11:00;METAR CYXE 051100Z 19006KT 12SM SKC M31/M35 A3041 RMK SLP366=

CYXE;2005-01-05 12:00;METAR CYXE 051200Z 19010KT 10SM SKC M31/M36 A3034 RMK PRESFR SLP345=

CYXE;2005-01-05 14:00;METAR CYXE 051400Z 19009KT 10SM SKC M30/M34 A3032 RMK SLP337=

CYXE;2005-01-05 15:00;METAR CYXE 051500Z 19009KT 3SM BR FEW220 M30/M34 A3029 RMK CI1 SLP328=

CYXE;2005-01-05 16:00;METAR CYXE 051600Z 19009KT 4SM BR FEW220 M30/M34 A3027 RMK CI1 IC SLP320=

CYXE;2005-01-05 17:00;METAR CYXE 051700Z 21009KT 8SM FEW220 M27/M31 A3025 RMK CI1 IC SLP314=

CYXE;2005-01-05 18:00;METAR CYXE 051800Z 20008KT 15SM FEW220 M26/M30 A3021 RMK CI0 IC SLP297=

CYXE;2005-01-05 19:00;METAR CYXE 051900Z 20009KT 15SM SKC M23/M27 A3016 RMK SLP281=

CYXE;2005-01-05 20:00;METAR CYXE 052000Z 22010KT 15SM SKC M20/M24 A3012 RMK SLP268=

CYXE;2005-01-05 21:00;METAR CYXE 052100Z 22012KT 15SM SKC M19/M24 A3007 RMK SLP245=

CYXE;2005-01-05 22:00;METAR CYXE 052200Z 22011KT 15SM FEW220 M18/M24 A3004 RMK CI1 SLP235=

CYXE;2005-01-05 23:00;METAR CYXE 052300Z 20009KT 15SM SKC M19/M25 A2998 RMK SLP215=

CYXE;2005-01-06 00:00;METAR CYXE 060000Z 21007KT 15SM SKC M20/M25 A2994 RMK SLP200=

CYXE;2005-01-06 01:00;METAR CYXE 060100Z 19010KT 15SM SKC M19/M24 A2987 RMK SLP178=

CYXE;2005-01-06 02:00;METAR CYXE 060200Z 20008KT 15SM SKC M20/M25 A2983 RMK SLP164=

CYXE;2005-01-06 03:00;METAR CYXE 060300Z 19009KT 15SM SKC M20/M24 A2977 RMK SLP140=

CYXE;2005-01-06 04:00;METAR CYXE 060400Z 19010KT 15SM SKC M20/M24 A2972 RMK SLP125=

CYXE;2005-01-06 05:00;METAR CYXE 060500Z 19010KT 15SM SKC M20/M24 A2966 RMK SLP106=

CYXE;2005-01-06 06:00;METAR CYXE 060600Z 19011KT 15SM SKC M19/M24 A2962 RMK SLP087=

CYXE;2005-01-06 07:00;METAR CYXE 060700Z 20011KT 15SM SKC M18/M23 A2958 RMK SLP073=

CYXE;2005-01-06 08:00;METAR CYXE 060800Z 19009KT 15SM SKC M19/M23 A2953 RMK SLP056=

CYXE;2005-01-06 10:00;METAR CYXE 061000Z 21012KT 15SM FEW120 M17/M21 A2943 RMK AC2 SLP014=

CYXE;2005-01-06 11:00;METAR CYXE 061100Z 21013KT 15SM FEW120 M16/M21 A2939 RMK AC1 SLP002=

CYXE;2005-01-06 12:00;METAR CYXE 061200Z 22013KT 15SM FEW120 M16/M21 A2937 RMK AC1 SLP992=

CYXE;2005-01-06 14:00;METAR CYXE 061400Z 23009KT 15SM FEW120 M16/M21 A2934 RMK AC1 SLP985=

CYXE;2005-01-06 15:00;METAR CYXE 061500Z 23008KT 15SM SCT120 M16/M21 A2935 RMK AC4 SLP985=

CYXE;2005-01-06 16:00;METAR CYXE 061600Z 26007KT 15SM BKN008 BKN013 M14/M18 A2936 RMK SF5SC2 SLP988=

CYXE;2005-01-06 16:27;SPECI CYXE 061627Z 30009KT 15SM OVC011 RMK SF8=

CYXE;2005-01-06 17:00;METAR CYXE 061700Z 31010KT 15SM BKN013 OVC054 M12/M15 A2939 RMK SF5SC3 SLP998=

CYXE;2005-01-06 17:45;SPECI CYXE 061745Z 30009KT 15SM BKN009 OVC054 RMK SF6SC2=

CYXE;2005-01-06 18:00;METAR CYXE 061800Z 31009KT 15SM OVC009 M11/M14 A2942 RMK SF8 SLP007=

CYXE;2005-01-06 18:10;SPECI CYXE 061810Z 30008KT 15SM OVC012 RMK SF8=

CYXE;2005-01-06 18:49;SPECI CYXE 061849Z 31009KT 15SM SCT012 OVC022 RMK SF3SC5=

CYXE;2005-01-06 19:00;METAR CYXE 061900Z 31008KT 15SM SCT012 BKN024 M10/M13 A2945 RMK SF4SC3 SLP015=

CYXE;2005-01-06 20:00;METAR CYXE 062000Z 35016KT 15SM OVC019 M08/M12 A2947 RMK SC8 SLP024=

CYXE;2005-01-06 20:44;SPECI CYXE 062044Z 36019G26KT 15SM DRSN OVC013 RMK SC8=

CYXE;2005-01-06 21:00;METAR CYXE 062100Z 36021G26KT 15SM DRSN BKN013 OVC092 M09/M12 A2951 RMK SC6AC2 SLP034=

CYXE;2005-01-06 21:12;SPECI CYXE 062112Z 36017G24KT 15SM DRSN SCT013 OVC092 RMK SC3AC5=

CYXE;2005-01-06 21:47;SPECI CYXE 062147Z 01016KT 15SM -SN DRSN SCT023 BKN084 RMK SC3AC4=

CYXE;2005-01-06 22:00;METAR CYXE 062200Z 01014KT 15SM -SN DRSN SCT020 OVC085 M09/M12 A2955 RMK SC4AC3 SLP048=

CYXE;2005-01-06 23:00;METAR CYXE 062300Z 01019G24KT 15SM -SN DRSN OVC020 M09/M13 A2961 RMK SC8 SLP066=

CYXE;2005-01-06 23:25;SPECI CYXE 062325Z 01017KT 15SM DRSN OVC030 RMK SC7=

CYXE;2005-01-07 00:00;METAR CYXE 070000Z 36009KT 15SM SCT030 BKN120 BKN230 M11/M15 A2965 RMK SC3AC2CI1 SLP084=

CYXE;2005-01-07 01:00;METAR CYXE 070100Z 36011KT 15SM BKN023 OVC100 M12/M14 A2969 RMK SC6AC2 SLP096=

CYXE;2005-01-07 02:00;METAR CYXE 070200Z 02015KT 15SM DRSN BKN027 OVC100 M10/M14 A2972 RMK SC6AC2 SLP108=

CYXE;2005-01-07 02:41;SPECI CYXE 070241Z 01012G17KT 15SM -SN DRSN OVC025 RMK SC8=

CYXE;2005-01-07 03:00;METAR CYXE 070300Z 01012KT 15SM -SN DRSN OVC025 M10/M13 A2977 RMK SC8 SLP123=

CYXE;2005-01-07 04:26;SPECI CYXE 070426Z 01013KT 1 1/4SM -SN DRSN VV008 RMK SN8=

CYXE;2005-01-07 04:36;SPECI CYXE 070436Z 36013KT 3/4SM R09/P6000FT/N -SN DRSN VV007 RMK SN8=

CYXE;2005-01-07 04:42;SPECI CYXE 070442Z 36013KT 2 1/2SM -SN DRSN OVC010 RMK SN3SC5=

CYXE;2005-01-07 05:00;METAR CYXE 070500Z 36019KT 2 1/2SM -SN DRSN OVC015 M11/M13 A2983 RMK SN3SC5 SLP145=

CYXE;2005-01-07 05:14;SPECI CYXE 070514Z 01015G20KT 4SM -SN DRSN OVC015 RMK SN2SC6=

CYXE;2005-01-07 05:33;SPECI CYXE 070533Z 01015G20KT 3SM -SN DRSN OVC015 RMK SN3SC5=

CYXE;2005-01-07 05:50;SPECI CYXE 070550Z 01015KT 12SM -SN DRSN BKN015 OVC085 RMK SC5AC3=

CYXE;2005-01-07 06:00;METAR CYXE 070600Z 01016G21KT 12SM -SN DRSN OVC014 M12/M14 A2987 RMK SC8 SLP158=

CYXE;2005-01-07 06:33;SPECI CYXE 070633Z 01016KT 12SM -SN DRSN SCT015 OVC050 RMK SC3SC5=

CYXE;2005-01-07 07:00;METAR CYXE 070700Z 03016G21KT 10SM -SN DRSN SCT015 OVC065 M12/M15 A2990 RMK SC3SC5 SLP168=

CYXE;2005-01-07 07:47;SPECI CYXE 070747Z 02011KT 2SM -SN DRSN BKN016 OVC050 RMK SN3SC3SC2=

CYXE;2005-01-07 08:00;METAR CYXE 070800Z 02009G15KT 2SM -SN DRSN BKN016 OVC045 M13/M15 A2993 RMK SN3SC3SC2 SLP177=

CYXE;2005-01-07 09:00;METAR CYXE 070900Z 36009KT 8SM -SN OVC018 M13/M16 A2996 RMK SC8 SLP187=

CYXE;2005-01-07 10:00;METAR CYXE 071000Z 35009KT 6SM -SN OVC022 M14/M16 A2999 RMK SC8 SLP196=

CYXE;2005-01-07 11:00;METAR CYXE 071100Z 36008KT 12SM -SN OVC018 M14/M16 A3000 RMK SC8 SLP201=

CYXE;2005-01-07 12:00;METAR CYXE 071200Z 36006KT 15SM -SN SCT010 OVC022 M15/M17 A3002 RMK SC3SC5 SLP210=

CYXE;2005-01-07 14:00;METAR CYXE 071400Z 35004KT 15SM -SN OVC017 M14/M16 A3006 RMK SC8 SLP222=

CYXE;2005-01-07 14:21;SPECI CYXE 071421Z 34002KT 15SM -SN SCT009 OVC017 RMK SC3SC5=

CYXE;2005-01-07 15:00;METAR CYXE 071500Z 28002KT 4SM -SN BKN008 OVC017 M14/M16 A3006 RMK SC5SC3 SLP222=

CYXE;2005-01-07 15:09;SPECI CYXE 071509Z 29004KT 4SM -SN BKN005 OVC017 RMK SF6SC2=

CYXE;2005-01-07 15:39;SPECI CYXE 071539Z 30004KT 6SM -SN FEW005 BKN017 OVC200 RMK SF2SC5CI1=

CYXE;2005-01-07 16:00;METAR CYXE 071600Z 30003KT 10SM -SN SCT007 BKN020 M15/M16 A3008 RMK SF3SC3 SLP228=

CYXE;2005-01-07 17:00;METAR CYXE 071700Z 31005KT 15SM -SN BKN020 M15/M17 A3009 RMK SC6 SLP231=

CYXE;2005-01-07 17:25;SPECI CYXE 071725Z 32004KT 15SM -SN FEW007 BKN020 RMK SF2SC4=

CYXE;2005-01-07 18:00;METAR CYXE 071800Z 29004KT 15SM FEW007 BKN022 M14/M16 A3009 RMK SF1SC6 SLP235=

CYXE;2005-01-07 19:00;METAR CYXE 071900Z 30003KT 15SM OVC020 M14/M16 A3009 RMK SC7 SLP234=

CYXE;2005-01-07 20:00;METAR CYXE 072000Z 25005KT 15SM -SN OVC013 M14/M16 A3007 RMK SC8 SLP228=

CYXE;2005-01-07 20:30;SPECI CYXE 072030Z 31004KT 15SM -SN OVC015 RMK SC8=

CYXE;2005-01-07 21:00;METAR CYXE 072100Z 32006KT 15SM -SN BKN017 BKN220 M14/M17 A3006 RMK SC7CI1 SLP225=

CYXE;2005-01-07 22:00;METAR CYXE 072200Z 34002KT 15SM -SN BKN015 OVC220 M14/M17 A3005 RMK SC6CI1 SLP222=

CYXE;2005-01-07 23:00;METAR CYXE 072300Z 00000KT 15SM -SN OVC015 M15/M17 A3005 RMK SC7 SLP221=

CYXE;2005-01-08 00:00;METAR CYXE 080000Z 20003KT 15SM -SN OVC015 M15/M17 A3007 RMK SC8 SLP228=

CYXE;2005-01-08 01:00;METAR CYXE 080100Z 23004KT 15SM -SN OVC015 M15/M17 A3006 RMK SC8 SLP225=

CYXE;2005-01-08 01:38;SPECI CYXE 080138Z 19002KT 15SM OVC015 RMK SC8=

CYXE;2005-01-08 02:00;METAR CYXE 080200Z 00000KT 15SM OVC015 M15/M17 A3003 RMK SC8 SLP218=

CYXE;2005-01-08 03:00;METAR CYXE 080300Z 18002KT 15SM OVC015 M15/M17 A3003 RMK SC8 SLP217=

CYXE;2005-01-08 04:00;METAR CYXE 080400Z 00000KT 15SM OVC015 M15/M17 A3003 RMK SC8 SLP215=

CYXE;2005-01-08 05:00;METAR CYXE 080500Z 05002KT 15SM OVC015 M15/M17 A3002 RMK SC8 SLP212=

CYXE;2005-01-08 05:38;SPECI CYXE 080538Z 15002KT 12SM -SN OVC015 RMK SC8=

CYXE;2005-01-08 05:50;SPECI CYXE 080550Z 17005KT 3SM -SN OVC015 RMK SC8=

CYXE;2005-01-08 06:00;METAR CYXE 080600Z 16005KT 4SM -SN OVC010 M15/M17 A3002 RMK SC8 SLP213=

CYXE;2005-01-08 06:32;SPECI CYXE 080632Z 16006KT 3SM -SN OVC007 RMK SN2SF6=

CYXE;2005-01-08 06:47;SPECI CYXE 080647Z 16005KT 3SM -SN FEW008 OVC021 RMK SF2SC6=

CYXE;2005-01-08 07:00;METAR CYXE 080700Z 16005KT 2SM -SN OVC007 M15/M17 A3002 RMK SN2SF6 TOWER OBS SLP211=

CYXE;2005-01-08 08:00;METAR CYXE 080800Z 15004KT 3SM -SN OVC008 M15/M17 A3000 RMK SF8 TOWER OBS SLP205=

CYXE;2005-01-08 08:48;SPECI CYXE 080848Z 15003KT 1 1/2SM -SN VV009 RMK SN8 TOWER OBS=

CYXE;2005-01-08 09:00;METAR CYXE 080900Z 15004KT 3SM -SN OVC059 M15/M17 A3000 RMK SN4SC4 SLP204=

CYXE;2005-01-08 09:20;SPECI CYXE 080920Z 16004KT 1 1/2SM -SN OVC020 RMK SN6SC2 TOWER OBS=

CYXE;2005-01-08 09:44;SPECI CYXE 080944Z 15005KT 3SM -SN OVC026 RMK SN2SC6=

CYXE;2005-01-08 10:00;METAR CYXE 081000Z 14004KT 4SM -SN OVC026 M15/M17 A3001 RMK SC8 SLP207=

CYXE;2005-01-08 10:16;SPECI CYXE 081016Z 14004KT 2SM -SN OVC022 RMK SN2SC6 TOWER OBS=

CYXE;2005-01-08 11:00;METAR CYXE 081100Z 11005KT 3SM -SN OVC022 M15/M17 A2998 RMK SN2SC6 SLP197=

CYXE;2005-01-08 11:46;SPECI CYXE 081146Z 12006KT 2SM -SN OVC016 RMK SN4SC4 TOWER OBS=

CYXE;2005-01-08 12:00;METAR CYXE 081200Z 11006KT 3SM -SN OVC016 M15/M17 A2997 RMK SN2SC6 SLP194=

CYXE;2005-01-08 13:00;METAR CYXE 081300Z 10007KT 3SM -SN OVC022 M15/M17 A2996 RMK SN2SC6 SLP191=

CYXE;2005-01-08 13:13;SPECI CYXE 081313Z 10007KT 2SM -SN OVC018 RMK SN5SC3=

CYXE;2005-01-08 13:51;SPECI CYXE 081351Z 11007KT 1 1/2SM -SN OVC016 RMK SN5SC3=

CYXE;2005-01-08 14:00;METAR CYXE 081400Z 11008KT 1 1/2SM -SN OVC015 M15/M17 A2996 RMK SN5SC3 SLP192=

CYXE;2005-01-08 14:24;SPECI CYXE 081424Z 11006KT 2SM -SN VV020 RMK SN8=

CYXE;2005-01-08 15:00;METAR CYXE 081500Z 11006KT 2SM -SN VV020 M15/M17 A2997 RMK SN8 SLP196=

CYXE;2005-01-08 16:00;METAR CYXE 081600Z 11006KT 2SM -SN VV015 M15/M17 A2997 RMK SN8 SLP196=

CYXE;2005-01-08 16:47;SPECI CYXE 081647Z 12008KT 1SM R09/P6000FT/D -SN VV015 RMK SN8=

CYXE;2005-01-08 17:00;METAR CYXE 081700Z 12007KT 1SM R09/P6000FT/U -SN VV015 M15/M17 A2997 RMK SN8 SLP195=

CYXE;2005-01-08 18:00;METAR CYXE 081800Z 09009KT 1 1/2SM -SN VV015 M15/M17 A2995 RMK SN8 SLP188=

CYXE;2005-01-08 18:46;SPECI CYXE 081846Z 09009KT 4SM -SN BKN020 BKN050 OVC200 RMK SC5SC2CI2=

CYXE;2005-01-08 19:00;METAR CYXE 081900Z 09008KT 4SM -SN BKN020 OVC140 M15/M17 A2991 RMK SC5AC2 SLP177=

CYXE;2005-01-08 19:28;SPECI CYXE 081928Z 10006KT 15SM BKN020 OVC075 RMK SC6AS2=

CYXE;2005-01-08 19:52;SPECI CYXE 081952Z 10005KT 3/4SM R09/P6000FT/N -SN VV010 RMK SN8=

CYXE;2005-01-08 20:00;METAR CYXE 082000Z 10006KT 1 1/4SM -SN VV008 M15/M17 A2994 RMK SN8 SLP185=

CYXE;2005-01-08 20:45;SPECI CYXE 082045Z 10007KT 2SM -SN VV010 RMK SN8=

CYXE;2005-01-08 21:00;METAR CYXE 082100Z 09008KT 1SM R09/P6000FT/N -SN VV015 M14/M17 A2993 RMK SN8 VSBY VRBL 5/8-11/2 SLP180=

CYXE;2005-01-08 22:00;METAR CYXE 082200Z 08006KT 1 1/2SM -SN VV015 M14/M16 A2993 RMK SN8 VIS VRB 1-2 SLP182=

CYXE;2005-01-08 22:09;SPECI CYXE 082209Z 07004KT 3SM -SN OVC024 RMK SC8=

CYXE;2005-01-08 22:37;SPECI CYXE 082237Z 07006KT 2SM -SN OVC020 RMK SN1SC7=

CYXE;2005-01-08 23:00;METAR CYXE 082300Z 07006KT 2SM -SN OVC020 M14/M16 A2994 RMK SN1SC7 /S02/ SLP185=

CYXE;2005-01-08 23:25;SPECI CYXE 082325Z 06007KT 3SM -SN OVC020 RMK SC8=

CYXE;2005-01-09 00:00;METAR CYXE 090000Z 05006KT 3SM -SN BKN025 M15/M17 A2995 RMK SC6 /S03/ SLP187=

CYXE;2005-01-09 01:00;METAR CYXE 090100Z 03007KT 10SM -SN BKN030 M16/M18 A2996 RMK SC7 SLP193=

CYXE;2005-01-09 02:00;METAR CYXE 090200Z 03007KT 10SM -SN SCT030 OVC070 M15/M17 A2998 RMK SC3AC5 SLP199=

CYXE;2005-01-09 03:00;METAR CYXE 090300Z 01006KT 4SM -SN BKN030 OVC070 M16/M18 A3000 RMK SC6AC2 SLP206=

CYXE;2005-01-09 04:00;METAR CYXE 090400Z 01007KT 4SM -SN OVC025 M16/M18 A3000 RMK SC8 SLP206=

CYXE;2005-01-09 04:34;SPECI CYXE 090434Z 01006KT 2SM -SN VV015 RMK SN8=

CYXE;2005-01-09 04:48;SPECI CYXE 090448Z 01006KT 3SM -SN OVC020 RMK SN1SC7=

CYXE;2005-01-09 05:00;METAR CYXE 090500Z 01006KT 4SM -SN OVC025 M16/M19 A3000 RMK SC8 SLP207=

CYXE;2005-01-09 06:00;METAR CYXE 090600Z 34006KT 3SM -SN OVC022 M17/M20 A3002 RMK SC8 SLP213=

CYXE;2005-01-09 06:08;SPECI CYXE 090608Z 34007KT 2SM -SN OVC024 RMK SN3SC5 TOWER OBS=

CYXE;2005-01-09 06:29;SPECI CYXE 090629Z 34008KT 4SM -SN OVC022 RMK SC8=

CYXE;2005-01-09 07:00;METAR CYXE 090700Z 34008KT 6SM -SN OVC017 M17/M20 A3002 RMK SC8 SLP215=

CYXE;2005-01-09 08:00;METAR CYXE 090800Z 32009KT 6SM -SN BKN024 M19/M23 A3003 RMK SC5 SLP219=

CYXE;2005-01-09 09:00;METAR CYXE 090900Z 31008KT 10SM -SN FEW019 M20/M24 A3007 RMK SC2 SLP232=

CYXE;2005-01-09 09:28;SPECI CYXE 090928Z 31009KT 15SM FEW009 RMK SC1 IC=

CYXE;2005-01-09 10:00;METAR CYXE 091000Z 29007KT 15SM SKC M23/M27 A3010 RMK IC SLP242=

CYXE;2005-01-09 10:43;SPECI CYXE 091043Z 33010KT 15SM -SN FEW110 RMK AC2=

CYXE;2005-01-09 11:00;METAR CYXE 091100Z 34009KT 15SM -SN FEW110 M25/M29 A3011 RMK AC2 SLP247=

CYXE;2005-01-09 11:25;SPECI CYXE 091125Z 36010KT 15SM SKC RMK IC=

CYXE;2005-01-09 12:00;METAR CYXE 091200Z 35011KT 15SM SKC M22/M26 A3012 RMK SLP253=

CYXE;2005-01-09 13:00;METAR CYXE 091300Z 32009KT 15SM BKN220 M24/M28 A3014 RMK CI3 SLP260=

CYXE;2005-01-09 14:00;METAR CYXE 091400Z 33007KT 15SM BKN220 M24/M28 A3016 RMK CI3 SLP265=

CYXE;2005-01-09 15:00;METAR CYXE 091500Z 34005KT 15SM SCT220 M25/M27 A3018 RMK CI2 SLP276=

CYXE;2005-01-09 16:00;METAR CYXE 091600Z 36004KT 15SM SCT220 M26/M31 A3021 RMK CI2 SLP283=

CYXE;2005-01-09 17:00;METAR CYXE 091700Z 30006KT 15SM FEW220 M26/M31 A3022 RMK CI1 SLP287=

CYXE;2005-01-09 18:00;METAR CYXE 091800Z 25005KT 15SM SCT220 M26/M30 A3023 RMK CI2 SLP293=

CYXE;2005-01-09 19:00;METAR CYXE 091900Z 31006KT 15SM BKN220 M25/M30 A3022 RMK CI2 SLP291=

CYXE;2005-01-09 20:00;METAR CYXE 092000Z 27005KT 15SM SCT220 M24/M29 A3021 RMK CI2 SLP287=

CYXE;2005-01-09 21:00;METAR CYXE 092100Z 29004KT 15SM SKC M23/M29 A3021 RMK SLP286=

CYXE;2005-01-09 22:00;METAR CYXE 092200Z 25003KT 15SM SKC M24/M30 A3020 RMK SLP283=

CYXE;2005-01-09 23:00;METAR CYXE 092300Z 21009KT 15SM SKC M27/M33 A3020 RMK SLP283=

CYXE;2005-01-10 00:00;METAR CYXE 100000Z 22005KT 15SM SKC M28/M32 A3018 RMK SLP283=

CYXE;2005-01-10 01:00;METAR CYXE 100100Z 21004KT 15SM SKC M28/M32 A3017 RMK SLP278=

CYXE;2005-01-10 02:00;METAR CYXE 100200Z 22008KT 15SM SKC M28/M32 A3016 RMK SLP276=

CYXE;2005-01-10 03:00;METAR CYXE 100300Z 22006KT 15SM SKC M28/M32 A3015 RMK SLP275=

CYXE;2005-01-10 04:00;METAR CYXE 100400Z 22006KT 15SM SKC M30/M34 A3015 RMK SLP274=

CYXE;2005-01-10 05:00;METAR CYXE 100500Z 21007KT 15SM SKC M29/M34 A3013 RMK SLP269=

CYXE;2005-01-10 06:00;METAR CYXE 100600Z 18007KT 15SM BKN003 M30/M35 A3012 RMK SF2 IC SLP266=

CYXE;2005-01-10 06:06;SPECI CYXE 100606Z 18006KT 15SM FEW003 RMK SF1 IC=

CYXE;2005-01-10 07:00;METAR CYXE 100700Z 19008KT 15SM FEW003 M30/M34 A3010 RMK SF1 SLP258=

CYXE;2005-01-10 08:00;METAR CYXE 100800Z 18007KT 15SM FEW003 M30/M34 A3007 RMK SF1 SF OVR CITY SLP248=

CYXE;2005-01-10 08:13;SPECI CYXE 100813Z 19009KT 8SM BKN003 RMK SF2 VSBY N-E 3BR=

CYXE;2005-01-10 09:00;METAR CYXE 100900Z 20010KT 4SM BR OVC003 M29/M33 A3006 RMK SF4 VSBY N-E 2 SLP242=

CYXE;2005-01-10 09:10;SPECI CYXE 100910Z 20009KT 4SM BR OVC003 RMK SF6 VSBY N-E 11/2=

CYXE;2005-01-10 09:48;SPECI CYXE 100948Z 20007KT 1 1/2SM BR OVC003 RMK SF8 TOWER OBS=

CYXE;2005-01-10 10:00;METAR CYXE 101000Z 20008KT 1SM R09/P6000FT/N BR OVC003 M28/M32 A3005 RMK SF8 VSBY E 1 TOWER OBS SLP239=

CYXE;2005-01-10 10:12;SPECI CYXE 101012Z 19005KT 3/4SM R09/P6000FT/N BR OVC003 RMK FG4SF4 TOWER OBS=

CYXE;2005-01-10 10:28;SPECI CYXE 101028Z 20005KT 1/2SM R09/P6000FT/D FZFG VV002 RMK FG8 FROIN TOWER OBS=

CYXE;2005-01-10 10:39;SPECI CYXE 101039Z 20005KT 3/8SM R09/P6000FT/D FZFG VV002 RMK FG8 FROIN TOWER OBS=

CYXE;2005-01-10 11:00;METAR CYXE 101100Z 20007KT 3/8SM R09/4000VP6000FT/D FZFG VV001 M27/M31 A3002 RMK FG8 FROIN TOWER OBS SLP228=

CYXE;2005-01-10 11:23;SPECI CYXE 101123Z 21006KT 1/2SM R09/3500V5500FT/D FZFG VV001 RMK FG8 FROIN TOWER OBS=

CYXE;2005-01-10 12:00;METAR CYXE 101200Z 23003KT 3/4SM R09/3500V5500FT/D BR SKC M28/M31 A2999 RMK FG6 VSBY N-SE 11/2 FROIN TOWER OBS SLP223=

CYXE;2005-01-10 12:21;SPECI CYXE 101221Z 25004KT 1 1/2SM R09/3500FT/U BR OVC001 RMK FG3SF3 VSBY SW-N 3/4 FROIN TOWER OBS=

CYXE;2005-01-10 12:50;SPECI CYXE 101250Z 23004KT 1/4SM R09/2400FT/N FZFG SKC RMK FG5=

CYXE;2005-01-10 13:00;METAR CYXE 101300Z 23005KT 3/8SM R09/2400FT/N FZFG SKC M30/M34 A2997 RMK FG4 FROIN SLP214=

CYXE;2005-01-10 13:26;SPECI CYXE 101326Z 26004KT 1/2SM R09/4000VP6000FT/U FZFG SKC RMK FG4 FROIN=

CYXE;2005-01-10 13:39;SPECI CYXE 101339Z 22005KT 1 1/2SM BR BKN002 RMK FG3SF1 FROIN=

CYXE;2005-01-10 13:46;SPECI CYXE 101346Z 22005KT 3SM BR BKN004 RMK SF3 FROIN=

CYXE;2005-01-10 14:00;METAR CYXE 101400Z 23005KT 5SM BR SCT004 M31/M34 A2995 RMK SF2 FROIN SLP208=

CYXE;2005-01-10 15:00;METAR CYXE 101500Z 21008KT 6SM BR FEW002 FEW200 M30/M34 A2993 RMK SF1CI0 SLP201=

CYXE;2005-01-10 16:00;METAR CYXE 101600Z 22009KT 10SM FEW002 SCT200 M29/M32 A2992 RMK SF2CI0 IC SLP198=

CYXE;2005-01-10 17:00;METAR CYXE 101700Z 23008KT 12SM FEW002 BKN220 M28/M32 A2991 RMK SF1CI2 IC SLP195=

CYXE;2005-01-10 18:00;METAR CYXE 101800Z 24010KT 6SM BR FEW002 SCT220 M27/M31 A2990 RMK SF1CI1 IC SLP190=

CYXE;2005-01-10 19:00;METAR CYXE 101900Z 25009KT 6SM BR FEW220 M27/M30 A2989 RMK CI0 IC SLP188=

CYXE;2005-01-10 20:00;METAR CYXE 102000Z 23008KT 12SM SCT200 M25/M29 A2989 RMK CI2 IC SLP186=

CYXE;2005-01-10 21:00;METAR CYXE 102100Z 25008KT 12SM BKN020 BKN075 M24/M28 A2990 RMK SC6AC2 IC SLP187=

CYXE;2005-01-10 22:00;METAR CYXE 102200Z 28010KT 10SM -SN OVC020 M21/M24 A2991 RMK SC8 SLP191=

CYXE;2005-01-10 22:33;SPECI CYXE 102233Z 28008KT 8SM -SN OVC014 RMK SC8=

CYXE;2005-01-10 23:00;METAR CYXE 102300Z 28008KT 15SM -SN OVC015 M21/M24 A2994 RMK SC8 SLP199=

CYXE;2005-01-11 00:00;METAR CYXE 110000Z 25007KT 15SM -SN BKN015 M21/M24 A2994 RMK SC7 SLP197=

CYXE;2005-01-11 00:13;SPECI CYXE 110013Z 24008KT 15SM BKN015 RMK SC6=

CYXE;2005-01-11 01:00;METAR CYXE 110100Z 25007KT 15SM FEW020 M24/M28 A2997 RMK SC2 SLP207=

CYXE;2005-01-11 02:00;METAR CYXE 110200Z 23006KT 15SM BKN018 M24/M28 A2996 RMK SC7 SLP205=

CYXE;2005-01-11 03:00;METAR CYXE 110300Z 25004KT 15SM FEW015 M23/M26 A2995 RMK SC2 SLP206=

CYXE;2005-01-11 04:00;METAR CYXE 110400Z 21006KT 15SM SKC M24/M28 A2994 RMK SLP202=

CYXE;2005-01-11 05:00;METAR CYXE 110500Z 21004KT 15SM SKC M24/M27 A2994 RMK SLP201=

CYXE;2005-01-11 05:42;SPECI CYXE 110542Z 23003KT 15SM FEW002 RMK SF1=

CYXE;2005-01-11 06:00;METAR CYXE 110600Z 18003KT 15SM FEW002 OVC017 M26/M30 A2993 RMK SF1SC5 IC SF OVR CITY SLP198=

CYXE;2005-01-11 07:00;METAR CYXE 110700Z 18005KT 15SM FEW002 FEW017 M27/M31 A2991 RMK SF1SC1 IC SLP191=

CYXE;2005-01-11 08:00;METAR CYXE 110800Z 13002KT 15SM FEW002 M26/M30 A2986 RMK SF1 IC SF TR SLP176=

CYXE;2005-01-11 09:00;METAR CYXE 110900Z 18006KT 15SM BKN002 M26/M29 A2984 RMK SF2 IC SLP166=

CYXE;2005-01-11 10:00;METAR CYXE 111000Z 09002KT 15SM FEW002 M28/M31 A2984 RMK SF1 IC SLP165=

CYXE;2005-01-11 10:09;SPECI CYXE 111009Z 14004KT 15SM OVC003 RMK SF6 IC=

CYXE;2005-01-11 10:49;SPECI CYXE 111049Z 06003KT 3SM BR OVC002 RMK SF8 IC FROIN CIG LWR W TOWER OBS=

CYXE;2005-01-11 11:00;METAR CYXE 111100Z 06002KT 4SM BR OVC002 M25/M29 A2982 RMK SF8 IC FROIN CIG LWR W TOWER OBS SLP160=

CYXE;2005-01-11 11:09;SPECI CYXE 111109Z 08004KT 4SM BR OVC004 RMK SF8 IC FROIN TOWER OBS=

CYXE;2005-01-11 12:02;SPECI CYXE 111202Z 14006KT 8SM SCT003 RMK SF4 IC FROIN=

CYXE;2005-01-11 14:00;METAR CYXE 111400Z 12006KT 6SM IC BKN070 M24/M28 A2970 RMK AC4 FROIN SLP115=

CYXE;2005-01-11 15:00;METAR CYXE 111500Z 09009KT 6SM IC BKN065 M22/M26 A2969 RMK SC6 SLP111=

CYXE;2005-01-11 15:38;SPECI CYXE 111538Z 10008KT 15SM BKN060 RMK SC6=

CYXE;2005-01-11 16:00;METAR CYXE 111600Z 10008KT 12SM BKN060 M21/M25 A2968 RMK SC6 SLP107=

CYXE;2005-01-11 17:00;METAR CYXE 111700Z 10002KT 15SM FEW060 SCT250 M20/M23 A2967 RMK SC1CI0 SLP103=

CYXE;2005-01-11 17:19;SPECI CYXE 111719Z 11004KT 10SM FEW060 BKN250 RMK SC1CI1 IC=

CYXE;2005-01-11 18:00;METAR CYXE 111800Z 12007KT 10SM BKN250 M19/M22 A2964 RMK CI2 SLP093=

CYXE;2005-01-11 19:00;METAR CYXE 111900Z 10007KT 15SM BKN250 M19/M22 A2962 RMK CI2 IC SLP087=

CYXE;2005-01-11 20:00;METAR CYXE 112000Z 08003KT 15SM BKN250 M19/M22 A2961 RMK CI2 SLP083=

CYXE;2005-01-11 21:00;METAR CYXE 112100Z 07004KT 15SM BKN250 M19/M22 A2959 RMK CI2 SLP076=

CYXE;2005-01-11 22:00;METAR CYXE 112200Z 04005KT 15SM BKN250 M20/M23 A2959 RMK CI5 SLP075=

CYXE;2005-01-11 23:00;METAR CYXE 112300Z 05006KT 15SM BKN250 M21/M24 A2960 RMK CI4 SLP079=

CYXE;2005-01-12 00:00;METAR CYXE 120000Z 04006KT 15SM BKN250 M23/M27 A2961 RMK CI4 SLP085=

CYXE;2005-01-12 01:00;METAR CYXE 120100Z 06006KT 15SM BKN250 M22/M26 A2961 RMK CI5 SLP083=

CYXE;2005-01-12 02:00;METAR CYXE 120200Z 07004KT 15SM BKN250 M22/M26 A2961 RMK CI5 SLP084=

CYXE;2005-01-12 03:00;METAR CYXE 120300Z 06004KT 15SM OVC200 M23/M26 A2959 RMK CI6 SLP075=

CYXE;2005-01-12 04:00;METAR CYXE 120400Z 05006KT 15SM BKN200 M23/M27 A2959 RMK CI3 SLP074=

CYXE;2005-01-12 05:00;METAR CYXE 120500Z 06008KT 15SM BKN200 M23/M27 A2958 RMK CI6 SLP071=

CYXE;2005-01-12 06:00;METAR CYXE 120600Z 06009KT 15SM OVC160 M22/M26 A2957 RMK CS7 IC SLP066=

CYXE;2005-01-12 07:00;METAR CYXE 120700Z 06010KT 15SM OVC061 M22/M26 A2956 RMK SC8 IC SLP063=

CYXE;2005-01-12 08:00;METAR CYXE 120800Z 07012KT 15SM OVC061 M22/M26 A2953 RMK SC8 IC SLP052=

CYXE;2005-01-12 08:17;SPECI CYXE 120817Z 07011KT 15SM OVC054 RMK SC8=

CYXE;2005-01-12 09:00;METAR CYXE 120900Z 08011KT 15SM OVC051 M22/M26 A2951 RMK SC8 SLP045=

CYXE;2005-01-12 09:24;SPECI CYXE 120924Z 07011KT 15SM OVC042 RMK SC8 IC=

CYXE;2005-01-12 10:00;METAR CYXE 121000Z 07009KT 15SM BKN057 M22/M26 A2952 RMK SC6 IC SLP047=

CYXE;2005-01-12 11:00;METAR CYXE 121100Z 06013KT 15SM FEW057 M22/M26 A2951 RMK SC2 IC SLP044=

CYXE;2005-01-12 12:00;METAR CYXE 121200Z 06008KT 15SM FEW057 M23/M27 A2953 RMK SC2 IC SLP056=

CYXE;2005-01-12 12:27;SPECI CYXE 121227Z 04007KT 15SM SCT009 BKN057 RMK SF2SC1 IC=

CYXE;2005-01-12 13:00;METAR CYXE 121300Z 02013KT 15SM BKN016 OVC060 M21/M26 A2957 RMK SC5SC3 IC SLP067=

CYXE;2005-01-12 13:05;SPECI CYXE 121305Z 01012KT 15SM BKN014 OVC060 RMK SC5SC3 IC=

CYXE;2005-01-12 13:32;SPECI CYXE 121332Z 01013KT 15SM -SN OVC010 RMK SC8 RGD CIG=

CYXE;2005-01-12 14:00;METAR CYXE 121400Z 01012G17KT 2SM -SN BLSN VV010 M21/M25 A2962 RMK SN8 SLP085=

CYXE;2005-01-12 14:03;SPECI CYXE 121403Z 36014KT 1 1/2SM -SN BLSN VV010 RMK SN8=

CYXE;2005-01-12 14:13;SPECI CYXE 121413Z 01014KT 1SM R09/P6000FT/U -SN BLSN VV007 RMK SN8=

CYXE;2005-01-12 14:32;SPECI CYXE 121432Z 01014KT 1 1/2SM -SN DRSN VV008 RMK SN8=

CYXE;2005-01-12 15:36;SPECI CYXE 121536Z 01013KT 1SM R09/6000FT/D -SN DRSN VV010 RMK SN8=

CYXE;2005-01-12 16:00;METAR CYXE 121600Z 01011KT 1 1/4SM -SN DRSN OVC015 M21/M25 A2970 RMK SN1SC7 SLP111=

CYXE;2005-01-12 16:12;SPECI CYXE 121612Z 36011KT 1 1/2SM -SN DRSN OVC015 RMK SN1SC7=

CYXE;2005-01-12 16:49;SPECI CYXE 121649Z 01012KT 3SM -SN DRSN SCT015 BKN060 RMK SC3SC4=

CYXE;2005-01-12 17:00;METAR CYXE 121700Z 36012KT 3SM -SN DRSN SCT015 OVC060 M21/M26 A2972 RMK SC3SC4 SLP116=

CYXE;2005-01-12 17:21;SPECI CYXE 121721Z 32010G15KT 12SM DRSN FEW020 BKN070 RMK SC2AC2=

CYXE;2005-01-12 18:00;METAR CYXE 121800Z 34008KT 15SM DRSN BKN030 M22/M27 A2978 RMK SC3 SLP142=

CYXE;2005-01-12 19:00;METAR CYXE 121900Z 32013KT 15SM DRSN SCT030 BKN120 M22/M28 A2982 RMK SC2AC1 SLP153=

CYXE;2005-01-12 19:33;SPECI CYXE 121933Z 32023KT 2SM R09/2400VP6000FT/D -SN BLSN OVC025 RMK SN2SC6=

CYXE;2005-01-12 19:36;SPECI CYXE 121936Z 31018G27KT 1 1/2SM R09/2400VP6000FT/D BLSN OVC025 RMK SN3SC5=

CYXE;2005-01-12 19:47;SPECI CYXE 121947Z 31021KT 3SM BLSN FEW030 RMK SC2=

CYXE;2005-01-12 20:00;METAR CYXE 122000Z 31020G25KT 2 1/2SM BLSN FEW030 M23/M29 A2982 RMK SC1 SLP155=

CYXE;2005-01-12 20:26;SPECI CYXE 122026Z 31017KT 4SM BLSN SKC=

CYXE;2005-01-12 21:00;METAR CYXE 122100Z 32019KT 6SM BLSN SKC M24/M29 A2985 RMK SLP164=

CYXE;2005-01-12 22:00;METAR CYXE 122200Z 31014KT 12SM DRSN SKC M24/M30 A2990 REBLSN RMK SLP181=

CYXE;2005-01-12 23:00;METAR CYXE 122300Z 32014G19KT 12SM DRSN FEW030 M25/M31 A2995 RMK SC1 SLP197=

CYXE;2005-01-13 00:00;METAR CYXE 130000Z 32015KT 15SM DRSN SKC M26/M32 A2998 RMK SLP212=

CYXE;2005-01-13 01:00;METAR CYXE 130100Z 32016KT 10SM DRSN SKC M26/M31 A3001 RMK IC SLP221=

CYXE;2005-01-13 02:00;METAR CYXE 130200Z 32016KT 15SM DRSN SKC M26/M31 A3004 RMK IC SLP231=

CYXE;2005-01-13 03:00;METAR CYXE 130300Z 31013G19KT 15SM DRSN SKC M26/M32 A3007 RMK IC SLP243=

CYXE;2005-01-13 03:31;SPECI CYXE 130331Z 31013KT 15SM DRSN SKC=

CYXE;2005-01-13 04:00;METAR CYXE 130400Z 30012KT 15SM DRSN SKC M28/M33 A3011 RMK SLP254=

CYXE;2005-01-13 05:00;METAR CYXE 130500Z 31014KT 15SM SKC M28/M34 A3014 RMK SLP264=

CYXE;2005-01-13 06:00;METAR CYXE 130600Z 30014KT 15SM SKC M29/M35 A3018 RMK SLP282=

CYXE;2005-01-13 07:00;METAR CYXE 130700Z 31015KT 15SM SKC M29/M35 A3021 RMK SLP292=

CYXE;2005-01-13 08:00;METAR CYXE 130800Z 31014KT 15SM SKC M30/M36 A3024 RMK SLP301=

CYXE;2005-01-13 09:00;METAR CYXE 130900Z 31013KT 15SM SKC M30/M35 A3026 RMK SLP314=

CYXE;2005-01-13 10:00;METAR CYXE 131000Z 30011KT 15SM SKC M32/M36 A3029 RMK SLP321=

CYXE;2005-01-13 11:00;METAR CYXE 131100Z 31009KT 15SM SKC M33/M37 A3030 RMK SLP326=

CYXE;2005-01-13 12:00;METAR CYXE 131200Z 31010KT 15SM SKC M33/M38 A3032 RMK SLP336=

CYXE;2005-01-13 13:00;METAR CYXE 131300Z 28008KT 15SM SKC M33/M37 A3034 RMK SLP345=

CYXE;2005-01-13 14:00;METAR CYXE 131400Z 27003KT 15SM SKC M35/M39 A3036 RMK SLP349=

CYXE;2005-01-13 15:00;METAR CYXE 131500Z 28013KT 15SM SKC M34/M39 A3036 RMK SLP353=

CYXE;2005-01-13 16:00;METAR CYXE 131600Z 29008KT 15SM SKC M35/M39 A3039 RMK SLP363=

CYXE;2005-01-13 17:00;METAR CYXE 131700Z 25006KT 15SM SKC M34/M39 A3042 RMK SLP371=

CYXE;2005-01-13 18:00;METAR CYXE 131800Z 23009KT 15SM SKC M32/M37 A3041 RMK SLP371=

CYXE;2005-01-13 19:00;METAR CYXE 131900Z 22011KT 15SM SKC M31/M36 A3039 RMK SLP363=

CYXE;2005-01-13 20:00;METAR CYXE 132000Z 23010KT 15SM SKC M30/M35 A3037 RMK SLP357=

CYXE;2005-01-13 21:00;METAR CYXE 132100Z 23008KT 15SM SKC M29/M35 A3035 RMK SLP350=

CYXE;2005-01-13 22:00;METAR CYXE 132200Z 22009KT 15SM SKC M29/M35 A3035 RMK SLP348=

CYXE;2005-01-13 23:00;METAR CYXE 132300Z 22010KT 15SM SKC M30/M34 A3035 RMK SLP350=

CYXE;2005-01-14 00:00;METAR CYXE 140000Z 22009KT 15SM SKC M32/M37 A3034 RMK SLP349=

CYXE;2005-01-14 01:00;METAR CYXE 140100Z 22008KT 15SM SKC M34/M38 A3034 RMK SLP347=

CYXE;2005-01-14 02:00;METAR CYXE 140200Z 25009KT 15SM SKC M34/M38 A3033 RMK SLP346=

CYXE;2005-01-14 03:00;METAR CYXE 140300Z 25006KT 15SM SKC M34/M39 A3034 RMK SLP352=

CYXE;2005-01-14 04:00;METAR CYXE 140400Z 25008KT 15SM SKC M35/M40 A3034 RMK SLP351=

CYXE;2005-01-14 05:00;METAR CYXE 140500Z 24009KT 15SM SKC M36/M40 A3034 RMK SLP351=

CYXE;2005-01-14 06:00;METAR CYXE 140600Z 25007KT 15SM SKC M35/M39 A3034 RMK SLP353=

CYXE;2005-01-14 07:00;METAR CYXE 140700Z 26009KT 15SM SKC M37/M41 A3035 RMK SLP354=

CYXE;2005-01-14 08:00;METAR CYXE 140800Z 26009KT 15SM SKC M37/M41 A3034 RMK SLP353=

CYXE;2005-01-14 09:00;METAR CYXE 140900Z 24008KT 15SM SKC M38/M41 A3035 RMK SLP355=

CYXE;2005-01-14 11:00;METAR CYXE 141100Z 25007KT 15SM SKC M38/M43 A3039 RMK SLP365=

CYXE;2005-01-14 12:00;METAR CYXE 141200Z 25007KT 15SM SKC M39/M43 A3041 RMK SLP378=

CYXE;2005-01-14 13:00;METAR CYXE 141300Z 26008KT 15SM SKC M38/M42 A3042 RMK IC SLP382=

CYXE;2005-01-14 14:00;METAR CYXE 141400Z 25009KT 15SM SKC M39/M43 A3043 RMK IC SLP386=

CYXE;2005-01-14 15:00;METAR CYXE 141500Z 24008KT 8SM SKC M39/M43 A3044 RMK IC SLP389=

CYXE;2005-01-14 16:00;METAR CYXE 141600Z 25011KT 12SM SKC M37/M42 A3045 RMK IC SLP392=

CYXE;2005-01-14 16:38;SPECI CYXE 141638Z 25010KT 15SM SKC=

CYXE;2005-01-14 17:00;METAR CYXE 141700Z 23010KT 15SM SKC M35/M39 A3046 RMK SLP396=

CYXE;2005-01-14 18:00;METAR CYXE 141800Z 25011KT 15SM FEW200 M32/M37 A3046 RMK CI1 SLP391=

CYXE;2005-01-14 19:00;METAR CYXE 141900Z 25009KT 15SM FEW200 M30/M35 A3043 RMK CI1 SLP383=

CYXE;2005-01-14 20:00;METAR CYXE 142000Z 28016KT 15SM SKC M28/M34 A3041 RMK SLP377=

CYXE;2005-01-14 21:00;METAR CYXE 142100Z 27014KT 15SM FEW200 M28/M34 A3039 RMK CI1 SLP368=

CYXE;2005-01-14 22:00;METAR CYXE 142200Z 27014KT 15SM FEW100 M26/M33 A3039 RMK AC2 SLP367=

CYXE;2005-01-14 23:00;METAR CYXE 142300Z 27013KT 15SM FEW220 M26/M33 A3038 RMK CI1 SLP363=

CYXE;2005-01-15 00:00;METAR CYXE 150000Z 26011KT 15SM FEW220 M26/M33 A3039 RMK CI1 SLP366=

CYXE;2005-01-15 01:00;METAR CYXE 150100Z 26012KT 15SM FEW064 M26/M33 A3039 RMK SC1 SLP365=

CYXE;2005-01-15 02:00;METAR CYXE 150200Z 26011KT 15SM FEW064 M28/M34 A3038 RMK SC1 SLP364=

CYXE;2005-01-15 03:00;METAR CYXE 150300Z 26011KT 15SM FEW077 M28/M35 A3038 RMK AC1 SLP364=

CYXE;2005-01-15 04:00;METAR CYXE 150400Z 26013KT 15SM SKC M28/M35 A3038 RMK SLP365=

CYXE;2005-01-15 05:00;METAR CYXE 150500Z 27010KT 15SM SKC M28/M34 A3039 RMK SLP367=

CYXE;2005-01-15 06:00;METAR CYXE 150600Z 25009KT 15SM SKC M29/M35 A3041 RMK SLP369=

CYXE;2005-01-15 07:00;METAR CYXE 150700Z 26008KT 15SM SKC M30/M36 A3041 RMK SLP370=

CYXE;2005-01-15 08:00;METAR CYXE 150800Z 25009KT 15SM SKC M31/M36 A3040 RMK SLP367=

CYXE;2005-01-15 09:00;METAR CYXE 150900Z 26009KT 15SM SKC M31/M36 A3041 RMK SLP368=

CYXE;2005-01-15 10:00;METAR CYXE 151000Z 24009KT 15SM SKC M32/M37 A3041 RMK SLP369=

CYXE;2005-01-15 11:00;METAR CYXE 151100Z 24010KT 15SM SKC M33/M38 A3042 RMK SLP370=

CYXE;2005-01-15 12:00;METAR CYXE 151200Z 24009KT 15SM SKC M33/M38 A3042 RMK SLP371=

CYXE;2005-01-15 13:00;METAR CYXE 151300Z 24009KT 15SM SKC M33/M37 A3042 RMK SLP371=

CYXE;2005-01-15 14:00;METAR CYXE 151400Z 25010KT 15SM SKC M32/M37 A3042 RMK SLP373=

CYXE;2005-01-15 15:00;METAR CYXE 151500Z 25008KT 15SM SKC M32/M38 A3043 RMK SLP375=

CYXE;2005-01-15 16:00;METAR CYXE 151600Z 23007KT 15SM SKC M31/M37 A3045 RMK SLP383=

CYXE;2005-01-15 17:00;METAR CYXE 151700Z 23007KT 15SM SKC M31/M37 A3047 RMK SLP390=

CYXE;2005-01-15 18:00;METAR CYXE 151800Z 24007KT 15SM SKC M28/M35 A3049 RMK SLP396=

CYXE;2005-01-15 19:00;METAR CYXE 151900Z 25005KT 15SM SKC M26/M34 A3049 RMK SLP396=

CYXE;2005-01-15 20:00;METAR CYXE 152000Z 28009KT 15SM SKC M25/M32 A3049 RMK SLP396=

CYXE;2005-01-15 21:00;METAR CYXE 152100Z 27009KT 15SM SKC M24/M31 A3050 RMK SLP396=

CYXE;2005-01-15 22:00;METAR CYXE 152200Z 25006KT 15SM SKC M25/M32 A3052 RMK SLP402=

CYXE;2005-01-15 23:00;METAR CYXE 152300Z 30006KT 15SM SKC M26/M33 A3054 RMK SLP409=

CYXE;2005-01-16 00:00;METAR CYXE 160000Z 24007KT 15SM SKC M29/M34 A3055 RMK SLP418=

CYXE;2005-01-16 01:00;METAR CYXE 160100Z 26007KT 15SM SKC M32/M37 A3057 RMK SLP424=

CYXE;2005-01-16 02:00;METAR CYXE 160200Z 25008KT 15SM SKC M32/M37 A3057 RMK SLP426=

CYXE;2005-01-16 03:00;METAR CYXE 160300Z 24005KT 15SM SKC M33/M38 A3057 RMK SLP429=

CYXE;2005-01-16 04:00;METAR CYXE 160400Z 25006KT 15SM SKC M32/M37 A3058 RMK SLP431=

CYXE;2005-01-16 05:00;METAR CYXE 160500Z 24007KT 15SM SKC M34/M39 A3058 RMK SLP431=

CYXE;2005-01-16 06:00;METAR CYXE 160600Z 26005KT 15SM SKC M34/M38 A3057 RMK SLP426=

CYXE;2005-01-16 07:00;METAR CYXE 160700Z 20006KT 15SM SKC M32/M36 A3057 RMK SLP427=

CYXE;2005-01-16 08:00;METAR CYXE 160800Z 18004KT 15SM SKC M33/M37 A3056 RMK SLP423=

CYXE;2005-01-16 09:00;METAR CYXE 160900Z 19005KT 15SM SKC M33/M38 A3055 RMK SLP414=

CYXE;2005-01-16 10:00;METAR CYXE 161000Z 19005KT 15SM SKC M33/M38 A3055 RMK SF OVR CITY SLP416=

CYXE;2005-01-16 10:49;SPECI CYXE 161049Z 21005KT 15SM FEW004 RMK SF1 TR SF=

CYXE;2005-01-16 11:00;METAR CYXE 161100Z 19006KT 15SM FEW004 M34/M38 A3053 RMK SF1 SLP410=

CYXE;2005-01-16 12:00;METAR CYXE 161200Z 21005KT 15SM FEW005 M35/M39 A3053 RMK SF1 SLP415=

CYXE;2005-01-16 13:00;METAR CYXE 161300Z 20006KT 15SM SKC M34/M38 A3052 RMK SLP412=

CYXE;2005-01-16 13:42;SPECI CYXE 161342Z 19004KT 15SM BKN003 RMK SF5=

CYXE;2005-01-16 13:50;SPECI CYXE 161350Z 18003KT 15SM SCT003 RMK SF2=

CYXE;2005-01-16 14:00;METAR CYXE 161400Z 18004KT 10SM BKN002 M34/M38 A3050 RMK ST3 SLP405=

CYXE;2005-01-16 15:00;METAR CYXE 161500Z 19006KT 15SM FEW003 FEW200 M34/M38 A3051 RMK ST1CI1 SLP408=

CYXE;2005-01-16 16:00;METAR CYXE 161600Z 20007KT 15SM BKN003 BKN090 M33/M37 A3051 RMK ST2AC1 SLP408=

CYXE;2005-01-16 17:00;METAR CYXE 161700Z 17005KT 15SM FEW004 FEW090 FEW200 M30/M35 A3052 RMK ST1AC1CI1 SLP412=

CYXE;2005-01-16 18:00;METAR CYXE 161800Z 21002KT 15SM FEW004 FEW200 M29/M33 A3052 RMK ST1CI1 SLP408=

CYXE;2005-01-16 19:00;METAR CYXE 161900Z 00000KT 15SM FEW004 FEW200 M28/M32 A3050 RMK ST1CI1 SLP401=

CYXE;2005-01-16 20:00;METAR CYXE 162000Z 03003KT 15SM SCT200 M27/M32 A3048 RMK CI2 SLP394=

CYXE;2005-01-16 21:00;METAR CYXE 162100Z 04003KT 15SM SCT200 M26/M31 A3047 RMK CI2 SLP387=

CYXE;2005-01-16 22:00;METAR CYXE 162200Z 12005KT 15SM OVC220 M25/M31 A3047 RMK CI2 SLP388=

CYXE;2005-01-16 23:00;METAR CYXE 162300Z 11005KT 15SM OVC220 M25/M31 A3047 RMK CI3 SLP389=

CYXE;2005-01-17 00:00;METAR CYXE 170000Z 11009KT 15SM OVC220 M25/M31 A3047 RMK CI3 SLP391=

CYXE;2005-01-17 01:00;METAR CYXE 170100Z 10008KT 15SM OVC220 M26/M31 A3046 RMK CI2 SLP386=

CYXE;2005-01-17 02:00;METAR CYXE 170200Z 12007KT 15SM BKN220 M26/M32 A3045 RMK CI2 SLP385=

CYXE;2005-01-17 03:00;METAR CYXE 170300Z 11007KT 15SM BKN220 M26/M32 A3044 RMK CI2 SLP380=

CYXE;2005-01-17 04:00;METAR CYXE 170400Z 11006KT 15SM OVC220 M26/M32 A3043 RMK CI4 SLP378=

CYXE;2005-01-17 05:00;METAR CYXE 170500Z 12007KT 15SM OVC220 M25/M31 A3042 RMK CI5 SLP374=

CYXE;2005-01-17 06:00;METAR CYXE 170600Z 12007KT 15SM BKN220 M24/M31 A3041 RMK CI4 SLP364=

CYXE;2005-01-17 07:00;METAR CYXE 170700Z 12008KT 15SM BKN220 M24/M30 A3039 RMK CI3 SLP357=

CYXE;2005-01-17 08:00;METAR CYXE 170800Z 13009KT 15SM SCT220 M24/M30 A3035 RMK CI2 SLP346=

CYXE;2005-01-17 09:00;METAR CYXE 170900Z 12008KT 15SM SCT220 M24/M31 A3034 RMK CI1 SLP337=

CYXE;2005-01-17 10:00;METAR CYXE 171000Z 12007KT 15SM FEW120 SCT220 M24/M31 A3034 RMK AC2CI0 SLP335=

CYXE;2005-01-17 11:00;METAR CYXE 171100Z 13008KT 15SM FEW120 BKN220 M23/M30 A3029 RMK AC2CI1 SLP319=

CYXE;2005-01-17 12:00;METAR CYXE 171200Z 14011KT 15SM SCT220 M22/M29 A3025 RMK CI0 SLP304=

CYXE;2005-01-17 13:00;METAR CYXE 171300Z 15004KT 15SM BKN025 M22/M29 A3025 RMK SC3 SLP303=

CYXE;2005-01-17 14:00;METAR CYXE 171400Z 16003KT 15SM OVC019 M21/M26 A3023 RMK SC8 SLP297=

CYXE;2005-01-17 15:00;METAR CYXE 171500Z 15007KT 15SM OVC019 M18/M23 A3021 RMK SC8 SLP288=

CYXE;2005-01-17 16:00;METAR CYXE 171600Z 16011G17KT 15SM BKN011 OVC220 M17/M22 A3013 RMK SC6CI2 PRESFR SLP262=

CYXE;2005-01-17 16:25;SPECI CYXE 171625Z 17013KT 15SM FEW014 OVC220 RMK SC2CI2=

CYXE;2005-01-17 17:00;METAR CYXE 171700Z 17011KT 15SM FEW014 FEW150 OVC220 M16/M21 A3012 RMK SC1AC2CI2 SLP258=

CYXE;2005-01-17 17:46;SPECI CYXE 171746Z 18013G18KT 15SM FEW005 SCT150 OVC220 RMK SF1AC2CI2=

CYXE;2005-01-17 18:00;METAR CYXE 171800Z 18014KT 15SM FEW007 SCT150 OVC220 M15/M19 A3009 RMK SF1AC2CI2 SLP243=

CYXE;2005-01-17 19:00;METAR CYXE 171900Z 18012KT 15SM OVC220 M14/M18 A3004 RMK CI4 SLP227=

CYXE;2005-01-17 20:00;METAR CYXE 172000Z 18012KT 15SM OVC220 M12/M17 A3001 RMK CI6 SLP216=

CYXE;2005-01-17 21:00;METAR CYXE 172100Z 17011KT 15SM BKN090 OVC220 M12/M16 A2994 RMK AC5CI2 PRESFR SLP188=

CYXE;2005-01-17 22:00;METAR CYXE 172200Z 17009KT 15SM SCT093 OVC250 M11/M15 A2989 RMK AC4CI3 SLP174=

CYXE;2005-01-17 23:00;METAR CYXE 172300Z 17013KT 15SM SCT100 BKN250 M10/M14 A2981 RMK AC3CI4 SLP147=

CYXE;2005-01-18 00:00;METAR CYXE 180000Z 18007KT 15SM SCT100 BKN250 M09/M12 A2981 RMK AC3CI3 SLP143=

CYXE;2005-01-18 01:00;METAR CYXE 180100Z 16012KT 15SM SCT100 BKN250 M09/M12 A2972 RMK AC3CI3 PRESFR SLP114=

CYXE;2005-01-18 02:00;METAR CYXE 180200Z 17010G15KT 15SM FEW100 FEW250 M09/M12 A2967 RMK AC1CI0 SLP097=

CYXE;2005-01-18 03:00;METAR CYXE 180300Z 17014KT 15SM FEW250 M08/M11 A2958 RMK CI0 PRESFR SLP059=

CYXE;2005-01-18 04:00;METAR CYXE 180400Z 18012KT 15SM SCT250 M06/M09 A2955 RMK CI0 SLP047=

CYXE;2005-01-18 05:00;METAR CYXE 180500Z 18010KT 15SM SCT250 M05/M08 A2947 RMK CI0 SLP024=

CYXE;2005-01-18 06:00;METAR CYXE 180600Z 19008KT 15SM OVC120 M05/M08 A2947 RMK AS8 SLP018=

CYXE;2005-01-18 07:00;METAR CYXE 180700Z 24006KT 15SM OVC100 M05/M07 A2948 RMK AS8 SLP021=

CYXE;2005-01-18 08:00;METAR CYXE 180800Z 26007KT 15SM OVC080 M05/M07 A2948 RMK AS8 SLP020=

CYXE;2005-01-18 08:19;SPECI CYXE 180819Z 26009KT 15SM -FZRA OVC050 RMK SC8=

CYXE;2005-01-18 09:00;METAR CYXE 180900Z 31012KT 10SM -FZRA OVC032 M04/M06 A2951 RMK SC8 SLP028=

CYXE;2005-01-18 10:00;METAR CYXE 181000Z 31016KT 6SM -FZRA OVC032 M02/M04 A2953 RMK SC8 SLP033=

CYXE;2005-01-18 10:20;SPECI CYXE 181020Z 32016KT 6SM FZRA OVC026 RMK SC8=

CYXE;2005-01-18 10:29;SPECI CYXE 181029Z 32016KT 6SM -FZRA OVC026 RMK SC8=

CYXE;2005-01-18 11:00;METAR CYXE 181100Z 32016KT 8SM -FZRA OVC031 M02/M04 A2955 RMK SC8 SLP041=

CYXE;2005-01-18 12:00;METAR CYXE 181200Z 32012KT 15SM -FZRA BKN031 OVC080 M03/M05 A2959 RMK SC6AC2 SLP051=

CYXE;2005-01-18 12:06;SPECI CYXE 181206Z 31014KT 15SM BKN031 OVC080 REFZRA RMK SC6AC2=

CYXE;2005-01-18 12:12;SPECI CYXE 181212Z 32016KT 15SM -FZRA OVC031 RMK SC8=

CYXE;2005-01-18 13:00;METAR CYXE 181300Z 31010KT 15SM -FZRA OVC040 M05/M07 A2962 RMK SC8 SLP062=

CYXE;2005-01-18 13:17;SPECI CYXE 181317Z 32011KT 15SM -SN OVC050 REFZRA RMK SC8=

CYXE;2005-01-18 13:49;SPECI CYXE 181349Z 31012KT 15SM BKN048 OVC080 REFZRA RMK SC5AC3=

CYXE;2005-01-18 14:00;METAR CYXE 181400Z 32011KT 15SM SCT048 OVC060 M06/M08 A2966 RMK SC4SC4 REFZRA SLP074=

CYXE;2005-01-18 15:00;METAR CYXE 181500Z 33007KT 15SM BKN016 OVC036 M06/M08 A2974 RMK SC7SC1 PRESRR SLP104=

CYXE;2005-01-18 15:19;SPECI CYXE 181519Z 33008KT 15SM BKN014 OVC036 RMK SC6SC2=

CYXE;2005-01-18 16:00;METAR CYXE 181600Z 32014KT 15SM BKN018 BKN036 BKN077 OVC220 M06/M09 A2979 RMK SC5SC1AC1CI1 SLP121=

CYXE;2005-01-18 16:47;SPECI CYXE 181647Z 31008G16KT 15SM BKN013 OVC050 RMK SC6SC2=

CYXE;2005-01-18 17:00;METAR CYXE 181700Z 32011KT 15SM BKN013 OVC050 M07/M09 A2984 RMK SC6SC2 SLP137=

CYXE;2005-01-18 18:00;METAR CYXE 181800Z 31009G19KT 15SM OVC013 M08/M10 A2988 RMK SC8 SLP152=

CYXE;2005-01-18 19:00;METAR CYXE 181900Z 33016KT 15SM BKN013 M08/M11 A2991 RMK SC6 SLP164=

CYXE;2005-01-18 19:12;SPECI CYXE 181912Z 32012G17KT 15SM SCT015 BKN110 RMK SC3AC1=

CYXE;2005-01-18 20:00;METAR CYXE 182000Z 32010KT 15SM SCT015 BKN074 M08/M11 A2993 RMK SC2AC2 SLP170=

CYXE;2005-01-18 21:00;METAR CYXE 182100Z 31010KT 15SM FEW017 BKN074 M08/M11 A2997 RMK SC2AC2 SLP183=

CYXE;2005-01-18 22:00;METAR CYXE 182200Z 31012KT 15SM FEW017 FEW074 BKN250 M09/M12 A3001 RMK SC1AC1CI1 SLP197=

CYXE;2005-01-18 23:00;METAR CYXE 182300Z 30007KT 15SM FEW074 BKN250 M10/M14 A3004 RMK AC1CI1 SLP206=

CYXE;2005-01-19 00:00;METAR CYXE 190000Z 31005KT 15SM FEW250 M13/M15 A3007 RMK CI1 SLP220=

CYXE;2005-01-19 01:00;METAR CYXE 190100Z 01004KT 15SM SKC M15/M16 A3009 RMK SLP226=

CYXE;2005-01-19 02:00;METAR CYXE 190200Z 03007KT 15SM SKC M16/M18 A3010 RMK SLP231=

CYXE;2005-01-19 03:00;METAR CYXE 190300Z 07004KT 15SM SKC M16/M18 A3012 RMK SLP240=

CYXE;2005-01-19 04:00;METAR CYXE 190400Z 08006KT 15SM SKC M16/M18 A3011 RMK SLP238=

CYXE;2005-01-19 05:00;METAR CYXE 190500Z 00000KT 15SM SCT250 M16/M18 A3014 RMK CI0 SLP248=

CYXE;2005-01-19 06:00;METAR CYXE 190600Z 08005KT 15SM FEW100 OVC250 M16/M18 A3013 RMK AC2CI6 SLP247=

CYXE;2005-01-19 07:00;METAR CYXE 190700Z 08004KT 15SM SCT100 OVC250 M16/M18 A3013 RMK AC3CI5 SLP247=

CYXE;2005-01-19 08:00;METAR CYXE 190800Z 10006KT 15SM BKN090 OVC250 M15/M17 A3009 RMK AC6CI2 SLP234=

CYXE;2005-01-19 09:00;METAR CYXE 190900Z 10008KT 15SM OVC070 M15/M17 A3007 RMK AC8 SLP226=

CYXE;2005-01-19 09:17;SPECI CYXE 190917Z 10011KT 15SM -SN OVC060 RMK SC8=

CYXE;2005-01-19 10:00;METAR CYXE 191000Z 10013KT 12SM -SN OVC050 M15/M17 A3003 RMK SC8 SLP213=

CYXE;2005-01-19 11:00;METAR CYXE 191100Z 12010KT 12SM -SN OVC030 M14/M17 A3003 RMK SC8 SLP214=

CYXE;2005-01-19 11:16;SPECI CYXE 191116Z 10010KT 2SM -SN OVC030 RMK SC8=

CYXE;2005-01-19 12:00;METAR CYXE 191200Z 09013KT 3SM -SN OVC025 M14/M17 A2999 RMK SC8 SLP201=

CYXE;2005-01-19 13:00;METAR CYXE 191300Z 10012KT 3SM -SN -FZDZ OVC025 M14/M16 A2997 RMK SC8 SLP194=

CYXE;2005-01-19 13:37;SPECI CYXE 191337Z 10014KT 2SM -SN -FZDZ OVC025 RMK SC8=

CYXE;2005-01-19 14:00;METAR CYXE 191400Z 11014KT 3SM -SN -FZDZ OVC023 M14/M16 A2997 RMK SC8 SLP194=

CYXE;2005-01-19 14:30;SPECI CYXE 191430Z 11012KT 6SM -SN FEW013 OVC023 RMK SC2SC6=

CYXE;2005-01-19 15:00;METAR CYXE 191500Z 09011KT 10SM -SN OVC019 M14/M16 A2997 REFZDZ RMK SC8 SLP196=

CYXE;2005-01-19 15:47;SPECI CYXE 191547Z 09011KT 4SM -SN -FZDZ OVC015 RMK ST8=

CYXE;2005-01-19 16:00;METAR CYXE 191600Z 10010KT 4SM -SN -FZDZ OVC015 M14/M16 A2999 RMK ST8 SLP201=

CYXE;2005-01-19 16:19;SPECI CYXE 191619Z 10011KT 2SM -SN -FZDZ BR OVC012 RMK ST8=

CYXE;2005-01-19 16:32;SPECI CYXE 191632Z 09012KT 1 1/2SM -SN -FZDZ BR OVC014 RMK ST8=

CYXE;2005-01-19 16:50;SPECI CYXE 191650Z 09012KT 1SM R09/P6000FT/N -SN -FZDZ BR OVC014 RMK SN3ST5=

CYXE;2005-01-19 17:00;METAR CYXE 191700Z 09010KT 1SM R09/P6000FT/N -SN -FZDZ BR FEW002 OVC014 M14/M16 A2997 RMK SN3SF1ST4 SLP196=

CYXE;2005-01-19 17:38;SPECI CYXE 191738Z 10010KT 1 1/2SM -SN -FZDZ BR OVC014 RMK SN2ST6=

CYXE;2005-01-19 18:00;METAR CYXE 191800Z 09010KT 1 1/2SM -SN -FZDZ BR FEW006 OVC014 M14/M16 A2997 RMK SN2SF1ST6 SLP195=

CYXE;2005-01-19 19:00;METAR CYXE 191900Z 09009KT 1 1/2SM -SN -FZDZ OVC014 M14/M16 A2995 RMK SN2ST6 SLP190=

CYXE;2005-01-19 19:25;SPECI CYXE 191925Z 09006KT 2SM -SN OVC012 RMK ST8=

CYXE;2005-01-19 20:00;METAR CYXE 192000Z 12003KT 1 1/2SM -SN OVC012 M13/M15 A2995 REFZDZ RMK ST8 SLP191=

CYXE;2005-01-19 20:16;SPECI CYXE 192016Z 10006KT 2SM -SN OVC010 RMK ST8=

CYXE;2005-01-19 20:27;SPECI CYXE 192027Z 12007KT 2SM -SN OVC009 RMK ST8=

CYXE;2005-01-19 20:45;SPECI CYXE 192045Z 12006KT 4SM -SN OVC009 RMK ST8=

CYXE;2005-01-19 21:00;METAR CYXE 192100Z 12004KT 4SM -SN OVC009 M13/M15 A2993 RMK ST8 SLP180=

CYXE;2005-01-19 21:06;SPECI CYXE 192106Z 09004KT 4SM -SN OVC010 RMK ST8=

CYXE;2005-01-19 21:48;SPECI CYXE 192148Z 04009KT 2SM -SN OVC012 RMK ST8=

CYXE;2005-01-19 22:00;METAR CYXE 192200Z 04009KT 2SM -SN OVC012 M13/M15 A2995 RMK ST8 SLP188=

CYXE;2005-01-19 22:33;SPECI CYXE 192233Z 06008KT 1SM R09/P6000FT/N -SN OVC012 RMK ST8=

CYXE;2005-01-19 22:56;SPECI CYXE 192256Z 08005KT 4SM -SN OVC008 RMK ST8=

CYXE;2005-01-19 23:00;METAR CYXE 192300Z 07004KT 4SM -SN OVC010 M13/M15 A2996 RMK ST8 SLP190=

CYXE;2005-01-19 23:41;SPECI CYXE 192341Z 05005KT 6SM -SN SCT005 OVC010 RMK SF3ST5=

CYXE;2005-01-19 23:51;SPECI CYXE 192351Z 05007KT 10SM SCT005 OVC010 RMK SF3ST5=

CYXE;2005-01-20 00:00;METAR CYXE 200000Z 04007KT 10SM SCT005 OVC010 M14/M15 A2995 RMK ST4SC4 SLP189=

CYXE;2005-01-20 01:00;METAR CYXE 200100Z 06008KT 10SM OVC008 M15/M16 A2995 RMK ST8 SLP188=

CYXE;2005-01-20 02:00;METAR CYXE 200200Z 06006KT 12SM OVC009 M15/M17 A2996 RMK ST6 SLP190=

CYXE;2005-01-20 03:00;METAR CYXE 200300Z 06006KT 10SM SCT009 OVC017 M14/M16 A2995 RMK ST4SC4 SLP189=

CYXE;2005-01-20 04:00;METAR CYXE 200400Z 05007KT 10SM SCT009 OVC015 M14/M16 A2995 RMK ST4SC4 SLP189=

CYXE;2005-01-20 04:18;SPECI CYXE 200418Z 04011KT 10SM -SN OVC009 RMK ST8=

CYXE;2005-01-20 04:55;SPECI CYXE 200455Z 04010KT 2SM -SN VV006 RMK SN8=

CYXE;2005-01-20 05:00;METAR CYXE 200500Z 04010KT 1 1/2SM -SN VV006 M16/M18 A2997 RMK SN8 SLP193=

CYXE;2005-01-20 05:24;SPECI CYXE 200524Z 05008KT 1SM R09/P6000FT/D -SN VV006 RMK SN8=

CYXE;2005-01-20 05:51;SPECI CYXE 200551Z 05010KT 3/4SM R09/P6000FT/D -SN VV006 RMK SN8=

CYXE;2005-01-20 06:00;METAR CYXE 200600Z 05010KT 3/4SM R09/P6000FT/D -SN VV006 M16/M18 A2996 RMK SN8 SLP194=

CYXE;2005-01-20 07:00;METAR CYXE 200700Z 05011KT 2SM -SN OVC009 M16/M18 A2996 RMK SN3SC5 SLP193=

CYXE;2005-01-20 07:25;SPECI CYXE 200725Z 04013KT 4SM -SN OVC022 RMK SN2SC6=

CYXE;2005-01-20 08:00;METAR CYXE 200800Z 05010KT 4SM -SN OVC022 M16/M17 A2998 RMK SC8 /S01/ SLP198=

CYXE;2005-01-20 08:09;SPECI CYXE 200809Z 05010KT 2SM -SN OVC022 RMK SN2SC6=

CYXE;2005-01-20 09:00;METAR CYXE 200900Z 04011KT 2SM -SN OVC026 M16/M17 A2999 RMK SN2SC6 SLP201=

CYXE;2005-01-20 10:00;METAR CYXE 201000Z 06010KT 4SM -SN OVC020 M15/M17 A3001 RMK SC8 SLP207=

CYXE;2005-01-20 11:00;METAR CYXE 201100Z 06012KT 6SM -SN OVC020 M15/M17 A3002 RMK SC8 SLP211=

CYXE;2005-01-20 12:00;METAR CYXE 201200Z 06010KT 8SM -SN OVC020 M15/M17 A3004 RMK SC8 SLP219=

CYXE;2005-01-20 13:00;METAR CYXE 201300Z 07011KT 8SM -SN OVC021 M16/M18 A3007 RMK SC8 /S01/ SLP228=

CYXE;2005-01-20 14:00;METAR CYXE 201400Z 06010KT 8SM -SN FEW011 OVC021 M16/M18 A3009 RMK SF2SC6 SLP236=

CYXE;2005-01-20 15:00;METAR CYXE 201500Z 06009KT 10SM -SN OVC017 M16/M18 A3009 RMK SC8 SLP239=

CYXE;2005-01-20 15:42;SPECI CYXE 201542Z 09009KT 8SM -SN OVC012 RMK SC8=

CYXE;2005-01-20 16:00;METAR CYXE 201600Z 06008KT 8SM -SN FEW009 OVC012 M17/M19 A3012 RMK SF2SC6 SLP246=

CYXE;2005-01-20 17:00;METAR CYXE 201700Z 10007KT 8SM -SN OVC015 M16/M18 A3012 RMK SC8 SLP248=

CYXE;2005-01-20 18:00;METAR CYXE 201800Z 12006KT 10SM -SN OVC009 M16/M18 A3013 RMK ST8 SLP251=

CYXE;2005-01-20 19:00;METAR CYXE 201900Z 12005KT 10SM -SN OVC011 M16/M18 A3011 RMK ST8 SLP246=

CYXE;2005-01-20 20:00;METAR CYXE 202000Z 10005KT 10SM -SN OVC010 M16/M18 A3010 RMK ST8 SLP242=

CYXE;2005-01-20 20:51;SPECI CYXE 202051Z 10007KT 12SM OVC010 RMK ST8=

CYXE;2005-01-20 21:00;METAR CYXE 202100Z 10006KT 12SM OVC010 M15/M18 A3008 RMK ST8 SLP232=

CYXE;2005-01-20 22:00;METAR CYXE 202200Z 09005KT 12SM OVC012 M15/M17 A3007 RMK ST8 SLP229=

CYXE;2005-01-20 22:53;SPECI CYXE 202253Z 10006KT 15SM OVC009 RMK ST8=

CYXE;2005-01-20 23:00;METAR CYXE 202300Z 09005KT 10SM OVC009 M15/M17 A3006 RMK ST8 BR SLP227=

CYXE;2005-01-21 00:00;METAR CYXE 210000Z 12006KT 8SM -SN OVC009 M15/M17 A3005 RMK ST8 SLP225=

CYXE;2005-01-21 01:00;METAR CYXE 210100Z 12006KT 8SM -SN OVC007 M15/M17 A3003 RMK ST8 SLP216=

CYXE;2005-01-21 02:00;METAR CYXE 210200Z 09008KT 12SM -SN OVC007 M15/M16 A3000 RMK ST8 SLP208=

CYXE;2005-01-21 03:00;METAR CYXE 210300Z 09008KT 8SM -SN OVC008 M14/M16 A2998 RMK SF8 SLP198=

CYXE;2005-01-21 03:20;SPECI CYXE 210320Z 10007KT 2SM -SN VV005 RMK SN8=

CYXE;2005-01-21 04:00;METAR CYXE 210400Z 11005KT 2SM -SN VV008 M14/M16 A2997 RMK SN8 SLP195=

CYXE;2005-01-21 05:00;METAR CYXE 210500Z 12004KT 1 1/2SM -SN VV008 M14/M15 A2996 RMK SN8 SLP193=

CYXE;2005-01-21 05:47;SPECI CYXE 210547Z 09007KT 2SM -SN VV008 RMK SN8=

CYXE;2005-01-21 06:00;METAR CYXE 210600Z 08007KT 1 1/2SM -SN VV008 M13/M15 A2995 RMK SN8 SLP187=

CYXE;2005-01-21 07:00;METAR CYXE 210700Z 04006KT 1SM R09/P6000FT/N -SN VV005 M13/M15 A2996 RMK SN8 /S01/ SLP190=

CYXE;2005-01-21 07:16;SPECI CYXE 210716Z 03009KT 1/2SM R09/P6000FT/N SN VV004 RMK SN8=

CYXE;2005-01-21 07:40;SPECI CYXE 210740Z 03011KT 1 1/2SM -SN VV006 RESN RMK SN8=

CYXE;2005-01-21 08:00;METAR CYXE 210800Z 03014KT 1 1/2SM -SN VV006 M14/M16 A2996 RESN RMK SN8 SLP191=

CYXE;2005-01-21 08:15;SPECI CYXE 210815Z 03013KT 1/2SM R09/3000VP6000FT/D SN VV004 RMK SN8=

CYXE;2005-01-21 09:00;METAR CYXE 210900Z 03014KT 3/4SM R09/4000FT/N -SN DRSN VV007 M15/M17 A2998 RESN RMK SN8 SLP200=

CYXE;2005-01-21 09:44;SPECI CYXE 210944Z 02015G20KT 3/8SM R09/2000VP6000FT/D SN DRSN VV003 RMK SN8=

CYXE;2005-01-21 10:00;METAR CYXE 211000Z 02017KT 1SM R09/P6000FT/N -SN DRSN VV005 M15/M17 A3001 RESN RMK SN8 SLP210=

CYXE;2005-01-21 10:12;SPECI CYXE 211012Z 02016KT 2 1/2SM -SN DRSN VV008 RMK SN8=

CYXE;2005-01-21 11:00;METAR CYXE 211100Z 01016KT 2 1/2SM -SN DRSN OVC016 M15/M17 A3005 RMK SN5SC3 SLP222=

CYXE;2005-01-21 11:37;SPECI CYXE 211137Z 36020KT 4SM -SN DRSN OVC014 RMK SC8=

CYXE;2005-01-21 12:00;METAR CYXE 211200Z 36020KT 6SM -SN DRSN OVC014 M15/M17 A3010 RMK SC8 SLP241=

CYXE;2005-01-21 13:31;SPECI CYXE 211331Z 36019G25KT 4SM -SN BLSN BKN024 RMK SC6=

CYXE;2005-01-21 13:50;SPECI CYXE 211350Z 36016KT 10SM DRSN SCT030 RMK SC3=

CYXE;2005-01-21 14:00;METAR CYXE 211400Z 36017KT 10SM DRSN FEW030 M19/M22 A3021 RMK SC2 PRESRR SLP276=

CYXE;2005-01-21 15:00;METAR CYXE 211500Z 35016G22KT 10SM DRSN FEW250 M21/M27 A3028 RMK CI1 PRESRR SLP307=

CYXE;2005-01-21 16:00;METAR CYXE 211600Z 34015KT 15SM DRSN SKC M23/M28 A3034 RMK PRESRR SLP327=

CYXE;2005-01-21 17:00;METAR CYXE 211700Z 32016KT 15SM SKC M23/M29 A3039 RMK SLP341=

CYXE;2005-01-21 18:00;METAR CYXE 211800Z 33016KT 15SM SKC M23/M28 A3043 RMK SLP357=

CYXE;2005-01-21 19:00;METAR CYXE 211900Z 33015KT 15SM DRSN SKC M22/M28 A3046 RMK SLP367=

CYXE;2005-01-21 20:00;METAR CYXE 212000Z 33015KT 15SM DRSN SKC M22/M28 A3047 RMK SLP372=

CYXE;2005-01-21 21:00;METAR CYXE 212100Z 32017KT 15SM DRSN SKC M22/M28 A3050 RMK SLP382=

CYXE;2005-01-21 22:00;METAR CYXE 212200Z 32011KT 15SM SKC M23/M28 A3054 RMK SLP395=

CYXE;2005-01-21 23:00;METAR CYXE 212300Z 32007KT 15SM FEW240 M24/M29 A3057 RMK CI1 SLP406=

CYXE;2005-01-22 00:00;METAR CYXE 220000Z 34007KT 15SM FEW240 M27/M32 A3058 RMK CI1 SLP416=

CYXE;2005-01-22 01:00;METAR CYXE 220100Z 32006KT 15SM FEW240 M28/M33 A3061 RMK CI1 SLP423=

CYXE;2005-01-22 02:00;METAR CYXE 220200Z 30006KT 15SM SKC M30/M35 A3064 RMK SLP433=

CYXE;2005-01-22 03:00;METAR CYXE 220300Z 31004KT 15SM SKC M30/M34 A3065 RMK SLP445=

CYXE;2005-01-22 04:00;METAR CYXE 220400Z 00000KT 15SM SKC M32/M36 A3063 RMK SLP439=

CYXE;2005-01-22 05:00;METAR CYXE 220500Z 00000KT 15SM SKC M30/M35 A3063 RMK SLP438=

CYXE;2005-01-22 06:00;METAR CYXE 220600Z 18003KT 15SM SKC M32/M36 A3064 RMK SLP444=

CYXE;2005-01-22 07:00;METAR CYXE 220700Z 19005KT 15SM FEW003 SCT250 M31/M35 A3065 RMK ST1CI1 SLP446=

CYXE;2005-01-22 07:35;SPECI CYXE 220735Z 19005KT 15SM BKN003 RMK ST4=

CYXE;2005-01-22 08:00;METAR CYXE 220800Z 19004KT 15SM BKN003 M30/M35 A3064 RMK ST4 SLP443=

CYXE;2005-01-22 09:00;METAR CYXE 220900Z 17002KT 15SM FEW003 BKN250 M31/M35 A3061 RMK ST1CI1 SLP432=

CYXE;2005-01-22 10:00;METAR CYXE 221000Z 13005KT 15SM BKN250 M29/M33 A3054 RMK CI2 PRESFR SLP410=

CYXE;2005-01-22 11:00;METAR CYXE 221100Z 16007KT 15SM BKN250 M25/M30 A3052 RMK CI2 SLP403=

CYXE;2005-01-22 12:00;METAR CYXE 221200Z 17008KT 15SM OVC220 M25/M30 A3050 RMK CI6 SLP395=

CYXE;2005-01-22 13:00;METAR CYXE 221300Z 15009KT 15SM OVC200 M24/M29 A3043 RMK CS8 PRESFR SLP373=

CYXE;2005-01-22 14:00;METAR CYXE 221400Z 16006KT 15SM OVC200 M24/M28 A3040 RMK CS8 SLP362=

CYXE;2005-01-22 15:00;METAR CYXE 221500Z 16012KT 15SM OVC200 M21/M26 A3034 RMK CS8 SLP340=

CYXE;2005-01-22 16:00;METAR CYXE 221600Z 16015G20KT 15SM DRSN OVC150 M19/M25 A3028 RMK AS8 PRESFR SLP318=

CYXE;2005-01-22 17:00;METAR CYXE 221700Z 16018KT 15SM DRSN OVC150 M17/M24 A3023 RMK AS8 SLP302=

CYXE;2005-01-22 18:00;METAR CYXE 221800Z 17022G28KT 10SM DRSN OVC070 M16/M22 A3017 RMK AS8 SLP279=

CYXE;2005-01-22 19:00;METAR CYXE 221900Z 18017G25KT 10SM DRSN OVC068 M15/M22 A3012 RMK AS8 SLP260=

CYXE;2005-01-22 20:00;METAR CYXE 222000Z 17014G20KT 15SM DRSN OVC072 M14/M20 A3008 RMK AS8 SLP249=

CYXE;2005-01-22 21:00;METAR CYXE 222100Z 17015KT 15SM DRSN BKN072 OVC250 M13/M18 A3001 RMK AC6CS1 PRESFR SLP218=

CYXE;2005-01-22 22:00;METAR CYXE 222200Z 18013G18KT 15SM DRSN BKN090 OVC250 M12/M17 A2998 RMK AC6CI1 SLP208=

CYXE;2005-01-22 23:00;METAR CYXE 222300Z 17012KT 15SM FEW090 SCT250 M12/M17 A2993 RMK AC1CI1 SLP192=

CYXE;2005-01-23 00:00;METAR CYXE 230000Z 17012KT 15SM SCT250 M12/M17 A2990 RMK CI2 SLP177=

CYXE;2005-01-23 01:00;METAR CYXE 230100Z 18009KT 15SM SCT250 M12/M16 A2989 RMK CI2 SLP173=

CYXE;2005-01-23 02:00;METAR CYXE 230200Z 19007KT 15SM FEW250 M12/M16 A2987 RMK CI1 SLP168=

CYXE;2005-01-23 03:00;METAR CYXE 230300Z 18004KT 15SM FEW250 M12/M16 A2984 RMK CI1 SLP154=

CYXE;2005-01-23 04:00;METAR CYXE 230400Z 19007KT 15SM FEW250 M12/M15 A2983 RMK CI1 SLP149=

CYXE;2005-01-23 05:00;METAR CYXE 230500Z 19007KT 15SM FEW250 M13/M15 A2982 RMK CI0 SLP146=

CYXE;2005-01-23 06:00;METAR CYXE 230600Z 00000KT 15SM FEW110 FEW250 M14/M17 A2982 RMK AC1CI0 SLP144=

CYXE;2005-01-23 07:00;METAR CYXE 230700Z 22006KT 15SM SCT220 M16/M18 A2982 RMK CI0 SLP143=

CYXE;2005-01-23 08:00;METAR CYXE 230800Z 22005KT 15SM FEW220 M15/M18 A2980 RMK CI1 SLP137=

CYXE;2005-01-23 09:00;METAR CYXE 230900Z 25004KT 15SM FEW220 M15/M18 A2981 RMK CI0 SLP138=

CYXE;2005-01-23 10:00;METAR CYXE 231000Z 23006KT 15SM FEW110 SCT220 M15/M18 A2980 RMK AC2CI1 SLP135=

CYXE;2005-01-23 11:00;METAR CYXE 231100Z 00000KT 15SM BKN110 BKN220 M14/M15 A2979 RMK AC4CI1 SLP132=

CYXE;2005-01-23 12:00;METAR CYXE 231200Z 21004KT 15SM FEW110 OVC220 M13/M15 A2977 RMK AC2CS2 SLP124=

CYXE;2005-01-23 12:30;SPECI CYXE 231230Z 22007KT 15SM FEW008 OVC220 RMK SF1CS5=

CYXE;2005-01-23 13:00;METAR CYXE 231300Z 21006KT 15SM FEW008 OVC220 M13/M15 A2975 RMK SF1CS6 SF OVR CITY SLP118=

CYXE;2005-01-23 14:00;METAR CYXE 231400Z 20007KT 15SM FEW008 OVC220 M12/M13 A2973 RMK SF1CS6 SLP112=

CYXE;2005-01-23 15:00;METAR CYXE 231500Z 18004KT 15SM FEW120 BKN220 M12/M14 A2974 RMK AC1CI3 SLP113=

CYXE;2005-01-23 16:00;METAR CYXE 231600Z 20007KT 15SM BKN110 BKN220 M10/M12 A2973 RMK AC6CI1 SLP111=

CYXE;2005-01-23 17:00;METAR CYXE 231700Z 21006KT 15SM BKN100 OVC220 M08/M10 A2974 RMK AC6CI1 SLP113=

CYXE;2005-01-23 18:00;METAR CYXE 231800Z 24010KT 15SM BKN100 BKN240 M05/M07 A2973 RMK AC6CI1 SLP107=

CYXE;2005-01-23 19:00;METAR CYXE 231900Z 23012KT 15SM SCT110 BKN240 M04/M07 A2972 RMK AC2CI2 SLP101=

CYXE;2005-01-23 20:00;METAR CYXE 232000Z 24011KT 12SM BKN100 OVC240 M03/M05 A2972 RMK AC6CI1 BR SLP104=

CYXE;2005-01-23 20:31;SPECI CYXE 232031Z 24010KT 12SM -RA SCT050 OVC095 RMK SC3AC4 BR=

CYXE;2005-01-23 20:46;SPECI CYXE 232046Z 23009KT 12SM SCT050 OVC080 RMK SC4AS3 BR=

CYXE;2005-01-23 21:00;METAR CYXE 232100Z 23009KT 15SM FEW050 OVC080 M01/M04 A2972 RMK SC2AC5 SLP100=

CYXE;2005-01-23 22:00;METAR CYXE 232200Z 23007KT 15SM BKN080 M00/M02 A2973 RMK AC7 SLP104=

CYXE;2005-01-23 23:00;METAR CYXE 232300Z 24008KT 15SM FEW080 BKN220 M01/M03 A2974 RMK AC1CI2 SLP108=

CYXE;2005-01-24 00:00;METAR CYXE 240000Z 27004KT 15SM BKN220 M02/M03 A2977 RMK CI2 SLP117=

CYXE;2005-01-24 01:00;METAR CYXE 240100Z 00000KT 15SM BKN220 M04/M06 A2977 RMK CI2 SLP118=

CYXE;2005-01-24 02:00;METAR CYXE 240200Z 26007KT 15SM FEW080 BKN220 M05/M07 A2979 RMK AC1CI1 SLP123=

CYXE;2005-01-24 03:00;METAR CYXE 240300Z 30003KT 15SM BKN220 M05/M07 A2981 RMK CI1 SLP133=

CYXE;2005-01-24 04:00;METAR CYXE 240400Z 32004KT 15SM FEW080 BKN220 M05/M06 A2981 RMK AC1CI2 SLP133=

CYXE;2005-01-24 05:00;METAR CYXE 240500Z 18003KT 15SM SCT080 OVC220 M09/M10 A2983 RMK AC3CI2 SLP139=

CYXE;2005-01-24 06:00;METAR CYXE 240600Z 22007KT 15SM FEW100 OVC220 M07/M09 A2985 RMK AC2CI3 SLP143=

CYXE;2005-01-24 07:00;METAR CYXE 240700Z 20004KT 15SM SCT110 OVC220 M06/M07 A2986 RMK AC3CI2 SLP146=

CYXE;2005-01-24 07:36;SPECI CYXE 240736Z 23003KT 4SM R09/1600V6000FT/D BCFG FEW008 BKN110 OVC220 RMK SF1AC5CI1=

CYXE;2005-01-24 09:00;METAR CYXE 240900Z 07003KT 4SM R09/2400VP6000FT/D BR FEW008 SCT110 BKN220 M07/M08 A2987 RMK SF1AC2CI2 VSBY SW-NW 2 SLP146=

CYXE;2005-01-24 10:00;METAR CYXE 241000Z 17003KT 4SM BR OVC062 M07/M09 A2988 RMK SC7 SLP149=

CYXE;2005-01-24 10:35;SPECI CYXE 241035Z 14004KT 4SM BR FEW008 OVC062 RMK SF1SC6=

CYXE;2005-01-24 11:00;METAR CYXE 241100Z 11003KT 4SM BR FEW008 OVC067 M06/M07 A2986 RMK SF1AC6 SLP145=

CYXE;2005-01-24 12:00;METAR CYXE 241200Z 07007KT 15SM FEW008 SCT067 BKN220 M07/M08 A2984 RMK SF1AC2CI2 SLP136=

CYXE;2005-01-24 12:27;SPECI CYXE 241227Z 15005KT 2SM BR BKN004 OVC067 RMK SF5AC3=

CYXE;2005-01-24 12:37;SPECI CYXE 241237Z 16005KT 2SM BR OVC003 RMK SF8=

CYXE;2005-01-24 12:48;SPECI CYXE 241248Z 15008KT 2SM BR OVC002 RMK FG1SF7=

CYXE;2005-01-24 13:00;METAR CYXE 241300Z 15007KT 1 1/2SM BR OVC002 M03/M04 A2983 RMK FG2SF6 VSBY SE 3 SLP134=

CYXE;2005-01-24 13:13;SPECI CYXE 241313Z 16009KT 3SM BR OVC002 RMK SF8=

CYXE;2005-01-24 13:36;SPECI CYXE 241336Z 15007KT 4SM BR FEW002 OVC095 RMK SF2AC6=

CYXE;2005-01-24 14:00;METAR CYXE 241400Z 17004KT 6SM BR OVC095 M03/M04 A2982 RMK AC8 SLP131=

CYXE;2005-01-24 15:00;METAR CYXE 241500Z 14005KT 6SM BR OVC090 M03/M04 A2980 RMK AC8 SLP121=

CYXE;2005-01-24 16:00;METAR CYXE 241600Z 13005KT 7SM OVC095 M02/M03 A2977 RMK AC8 SLP113=

CYXE;2005-01-24 17:00;METAR CYXE 241700Z 14005KT 8SM BKN095 M02/M03 A2973 RMK AC7 SLP100=

CYXE;2005-01-24 18:00;METAR CYXE 241800Z 16008KT 10SM BKN090 M00/M02 A2971 RMK AC7 SLP091=

CYXE;2005-01-24 20:00;METAR CYXE 242000Z 19009KT 10SM BKN100 01/M01 A2963 RMK AC6 SLP066=

CYXE;2005-01-24 21:00;METAR CYXE 242100Z 18005KT 10SM BKN090 01/M02 A2961 RMK AC6 SLP057=

CYXE;2005-01-24 22:00;METAR CYXE 242200Z 20007KT 15SM SCT090 BKN220 01/M01 A2959 RMK AC4CI2 SLP051=

CYXE;2005-01-24 23:00;METAR CYXE 242300Z 21006KT 15SM BKN095 BKN220 00/M02 A2959 RMK AC6CI2 SLP049=

CYXE;2005-01-25 00:00;METAR CYXE 250000Z 22007KT 15SM FEW090 BKN220 M01/M02 A2958 RMK AC2CI3 SLP046=

CYXE;2005-01-25 01:00;METAR CYXE 250100Z 25006KT 10SM FEW090 BKN220 M02/M03 A2959 RMK AC1CI4 SLP048=

CYXE;2005-01-25 02:00;METAR CYXE 250200Z 23003KT 15SM BKN220 M04/M05 A2959 RMK CI3 SLP049=

CYXE;2005-01-25 03:00;METAR CYXE 250300Z 26009KT 8SM SCT220 M05/M06 A2960 RMK CI1 SLP054=

CYXE;2005-01-25 04:00;METAR CYXE 250400Z 31007KT 10SM SCT100 M03/M04 A2960 RMK AC3 SLP054=

CYXE;2005-01-25 05:00;METAR CYXE 250500Z 30013KT 10SM FEW100 M02/M04 A2963 RMK AC2 SLP062=

CYXE;2005-01-25 06:00;METAR CYXE 250600Z 23010KT 15SM SCT110 M03/M05 A2965 RMK AC3 SLP068=

CYXE;2005-01-25 07:00;METAR CYXE 250700Z 26011KT 15SM FEW110 M01/M04 A2965 RMK AC1 SLP069=

CYXE;2005-01-25 08:00;METAR CYXE 250800Z 30021KT 15SM SKC 04/M01 A2966 RMK SLP070=

CYXE;2005-01-25 09:00;METAR CYXE 250900Z 30017KT 15SM SKC 04/M01 A2969 RMK SLP077=

CYXE;2005-01-25 10:00;METAR CYXE 251000Z 30021KT 15SM SKC 04/M01 A2972 RMK SLP088=

CYXE;2005-01-25 11:00;METAR CYXE 251100Z 31017KT 15SM SKC 03/M01 A2974 RMK SLP093=

CYXE;2005-01-25 12:00;METAR CYXE 251200Z 29017KT 15SM FEW110 02/M02 A2978 RMK AC2 SLP111=

CYXE;2005-01-25 13:00;METAR CYXE 251300Z 32020KT 15SM BKN030 02/M01 A2982 RMK SC7 SLP124=

CYXE;2005-01-25 13:48;SPECI CYXE 251348Z 35017KT 4SM -RASN OVC016 RMK SC8=

CYXE;2005-01-25 13:52;SPECI CYXE 251352Z 36014G19KT 4SM -RASN OVC013 RMK SC8=

CYXE;2005-01-25 14:00;METAR CYXE 251400Z 36013KT 10SM -SN OVC013 01/M01 A2988 RMK SC8 SLP142=

CYXE;2005-01-25 14:19;SPECI CYXE 251419Z 35019KT 15SM OVC013 RMK SC8=

CYXE;2005-01-25 15:00;METAR CYXE 251500Z 01011KT 15SM OVC022 M01/M04 A2992 RMK SC8 SLP161=

CYXE;2005-01-25 16:00;METAR CYXE 251600Z 03014KT 15SM OVC018 M02/M05 A2995 RMK SC8 SLP173=

CYXE;2005-01-25 17:00;METAR CYXE 251700Z 03017KT 15SM OVC018 M05/M09 A3000 RMK SC8 SLP188=

CYXE;2005-01-25 18:00;METAR CYXE 251800Z 04011KT 15SM OVC018 M07/M10 A3005 RMK SC8 SLP210=

CYXE;2005-01-25 19:00;METAR CYXE 251900Z 03015KT 15SM BKN027 OVC090 M08/M12 A3006 RMK SC7AC1 SLP212=

CYXE;2005-01-25 20:00;METAR CYXE 252000Z 02009KT 15SM OVC027 M08/M12 A3008 RMK SC8 SLP221=

CYXE;2005-01-25 21:00;METAR CYXE 252100Z 03011KT 15SM OVC025 M09/M13 A3010 RMK SC8 SLP225=

CYXE;2005-01-25 22:00;METAR CYXE 252200Z 03011KT 15SM OVC025 M09/M14 A3012 RMK SC8 SLP229=

CYXE;2005-01-25 23:00;METAR CYXE 252300Z 08009KT 15SM OVC025 M11/M14 A3014 RMK SC8 SLP237=

CYXE;2005-01-26 00:00;METAR CYXE 260000Z 08006KT 15SM OVC023 M11/M14 A3017 RMK SC8 SLP250=

CYXE;2005-01-26 01:00;METAR CYXE 260100Z 09008KT 15SM OVC023 M12/M15 A3019 RMK SC8 SLP257=

CYXE;2005-01-26 01:08;SPECI CYXE 260108Z 09007KT 15SM -SN OVC023 RMK SC8=

CYXE;2005-01-26 02:00;METAR CYXE 260200Z 09010KT 15SM -SN OVC018 M12/M16 A3020 RMK SC8 SLP261=

CYXE;2005-01-26 04:00;METAR CYXE 260400Z 07006KT 6SM -SN OVC020 M13/M15 A3022 RMK SC8 SLP271=

CYXE;2005-01-26 05:00;METAR CYXE 260500Z 06003KT 6SM -SN OVC017 M13/M15 A3023 RMK SC8 SLP273=

CYXE;2005-01-26 06:39;SPECI CYXE 260639Z 12006KT 8SM -SN OVC012 RMK SC8=

CYXE;2005-01-26 08:00;METAR CYXE 260800Z 12005KT 15SM -SN OVC010 M14/M16 A3024 RMK SC8 SLP281=

CYXE;2005-01-26 08:10;SPECI CYXE 260810Z 12005KT 15SM -SN OVC008 RMK SF8=

CYXE;2005-01-26 08:32;SPECI CYXE 260832Z 12005KT 15SM OVC010 RMK SC8=

CYXE;2005-01-26 09:00;METAR CYXE 260900Z 14007KT 15SM OVC010 M14/M16 A3023 RMK SC8 SLP280=

CYXE;2005-01-26 09:33;SPECI CYXE 260933Z 13002KT 12SM -SN OVC010 RMK SC8=

CYXE;2005-01-26 10:00;METAR CYXE 261000Z 15003KT 10SM -SN OVC012 M14/M16 A3024 RMK SC8 SLP282=

CYXE;2005-01-26 10:33;SPECI CYXE 261033Z 15005KT 15SM -SN SCT012 OVC030 RMK SC3SC5=

CYXE;2005-01-26 11:00;METAR CYXE 261100Z 13003KT 15SM -SN FEW012 OVC025 M14/M16 A3024 RMK SC2SC6 SLP283=

CYXE;2005-01-26 11:52;SPECI CYXE 261152Z 11004KT 15SM BKN008 OVC025 RMK SF6SC2 IC=

CYXE;2005-01-26 12:00;METAR CYXE 261200Z 10005KT 15SM OVC009 M14/M16 A3024 RMK SF8 IC SLP285=

CYXE;2005-01-26 12:15;SPECI CYXE 261215Z 10006KT 15SM OVC012 RMK SC8 IC=

CYXE;2005-01-26 13:00;METAR CYXE 261300Z 11006KT 12SM OVC014 M14/M16 A3024 RMK SC8 IC SLP284=

CYXE;2005-01-26 14:00;METAR CYXE 261400Z 13004KT 15SM OVC012 M13/M15 A3024 RMK SC8 SLP284=

CYXE;2005-01-26 15:00;METAR CYXE 261500Z 14006KT 15SM OVC012 M13/M15 A3023 RMK SC8 SLP282=

CYXE;2005-01-26 15:23;SPECI CYXE 261523Z 15007KT 5SM -SN OVC011 RMK SC8=

CYXE;2005-01-26 15:42;SPECI CYXE 261542Z 14007KT 12SM OVC011 RMK SC8=

CYXE;2005-01-26 16:00;METAR CYXE 261600Z 14006KT 15SM OVC011 M13/M15 A3023 RMK SC8 SLP283=

CYXE;2005-01-26 17:00;METAR CYXE 261700Z 15007KT 15SM OVC013 M12/M14 A3023 RMK SC8 SLP283=

CYXE;2005-01-26 17:13;SPECI CYXE 261713Z 16007KT 15SM OVC015 RMK SC8=

CYXE;2005-01-26 18:00;METAR CYXE 261800Z 17007KT 15SM BKN017 OVC027 M11/M14 A3022 RMK SC7SC1 SLP278=

CYXE;2005-01-26 19:00;METAR CYXE 261900Z 17007KT 15SM OVC023 M10/M13 A3021 RMK SC8 SLP273=

CYXE;2005-01-26 20:00;METAR CYXE 262000Z 17007KT 15SM OVC023 M09/M12 A3019 RMK SC8 SLP267=

CYXE;2005-01-26 20:52;SPECI CYXE 262052Z 18006KT 15SM -SN OVC021 RMK SC8=

CYXE;2005-01-26 21:00;METAR CYXE 262100Z 18006KT 15SM -SN OVC021 M08/M11 A3018 RMK SC8 SLP262=

CYXE;2005-01-26 21:27;SPECI CYXE 262127Z 18006KT 15SM OVC021 RMK SC8=

CYXE;2005-01-26 22:00;METAR CYXE 262200Z 17006KT 15SM OVC021 M08/M11 A3015 RMK SC8 SLP254=

CYXE;2005-01-26 23:00;METAR CYXE 262300Z 16006KT 15SM OVC018 M07/M10 A3014 RMK SC8 SLP249=

CYXE;2005-01-27 00:00;METAR CYXE 270000Z 15005KT 15SM OVC018 M08/M10 A3013 RMK SC8 SLP244=

CYXE;2005-01-27 01:00;METAR CYXE 270100Z 15007KT 15SM OVC018 M08/M10 A3012 RMK SC8 SLP241=

CYXE;2005-01-27 02:00;METAR CYXE 270200Z 14006KT 15SM OVC018 M08/M11 A3010 RMK SC8 SLP236=

CYXE;2005-01-27 04:00;METAR CYXE 270400Z 14010KT 15SM FEW020 FEW080 M11/M13 A3006 RMK SC1AC2 SLP221=

CYXE;2005-01-27 05:05;SPECI CYXE 270505Z 16008KT 15SM BKN009 RMK ST5=

CYXE;2005-01-27 05:16;SPECI CYXE 270516Z 15009KT 12SM BKN005 RMK ST7=

CYXE;2005-01-27 06:00;METAR CYXE 270600Z 14008KT 15SM OVC005 M10/M11 A3001 RMK ST8 SLP203=

CYXE;2005-01-27 07:00;METAR CYXE 270700Z 15009KT 15SM OVC006 M10/M12 A2999 RMK ST8 SLP195=

CYXE;2005-01-27 08:00;METAR CYXE 270800Z 14006KT 15SM BKN008 M12/M14 A2996 RMK ST5 SLP188=

CYXE;2005-01-27 08:21;SPECI CYXE 270821Z 14007KT 15SM FEW008 RMK ST2=

CYXE;2005-01-27 09:00;METAR CYXE 270900Z 14005KT 15SM SKC M13/M15 A2994 RMK SLP180=

CYXE;2005-01-27 10:00;METAR CYXE 271000Z 16006KT 15SM SKC M12/M13 A2992 RMK SLP172=

CYXE;2005-01-27 11:00;METAR CYXE 271100Z 16004KT 15SM SKC M12/M14 A2989 RMK SLP164=

CYXE;2005-01-27 12:00;METAR CYXE 271200Z 15005KT 15SM SKC M11/M13 A2987 RMK SLP153=

CYXE;2005-01-27 13:00;METAR CYXE 271300Z 15005KT 15SM SKC M12/M13 A2986 RMK SLP149=

CYXE;2005-01-27 15:00;METAR CYXE 271500Z 16010KT 15SM SCT250 M12/M13 A2981 RMK CI0 SLP136=

CYXE;2005-01-27 16:00;METAR CYXE 271600Z 16006KT 15SM SCT250 M11/M13 A2981 RMK CI0 SLP135=

CYXE;2005-01-27 17:00;METAR CYXE 271700Z 18006KT 15SM FEW250 M09/M11 A2980 RMK CI0 SLP131=

CYXE;2005-01-27 18:00;METAR CYXE 271800Z 18010KT 15SM FEW250 M08/M10 A2978 RMK CI0 SLP122=

CYXE;2005-01-27 19:00;METAR CYXE 271900Z 18008KT 15SM BKN250 M06/M09 A2976 RMK CI1 SLP114=

CYXE;2005-01-27 20:00;METAR CYXE 272000Z 17008KT 15SM BKN250 M05/M08 A2973 RMK CI2 SLP107=

CYXE;2005-01-27 21:00;METAR CYXE 272100Z 18006KT 15SM OVC250 M04/M08 A2972 RMK CI2 SLP102=

CYXE;2005-01-27 22:00;METAR CYXE 272200Z 18007KT 15SM OVC250 M04/M08 A2971 RMK CS4 SLP099=

CYXE;2005-01-27 23:00;METAR CYXE 272300Z 17006KT 15SM OVC250 M05/M08 A2970 RMK CS4 SLP095=

CYXE;2005-01-28 00:00;METAR CYXE 280000Z 18006KT 15SM OVC250 M05/M08 A2969 RMK CS4 SLP091=

CYXE;2005-01-28 01:00;METAR CYXE 280100Z 17007KT 15SM OVC250 M05/M07 A2968 RMK CS4 SLP087=

CYXE;2005-01-28 02:00;METAR CYXE 280200Z 19003KT 15SM OVC250 M05/M07 A2968 RMK CS5 SLP087=

CYXE;2005-01-28 03:00;METAR CYXE 280300Z 21005KT 15SM OVC250 M06/M07 A2968 RMK CS6 SLP087=

CYXE;2005-01-28 04:00;METAR CYXE 280400Z 22003KT 15SM BKN120 OVC250 M06/M07 A2967 RMK AC5CS3 SLP085=

CYXE;2005-01-28 05:00;METAR CYXE 280500Z 27004KT 15SM FEW010 SCT120 OVC250 M06/M08 A2969 RMK ST1AC3CS4 SLP091=

CYXE;2005-01-28 06:00;METAR CYXE 280600Z 28007KT 15SM SCT100 OVC220 M07/M08 A2971 RMK AC3CS5 SLP096=

CYXE;2005-01-28 07:49;SPECI CYXE 280749Z 32006KT 15SM -SN FEW069 OVC220 RMK AC2CS2=

CYXE;2005-01-28 08:00;METAR CYXE 280800Z 32005KT 15SM -SN SCT069 OVC220 M06/M08 A2974 RMK AC4CS2 SLP105=

CYXE;2005-01-28 08:47;SPECI CYXE 280847Z 31010KT 15SM SCT060 OVC220 RMK SC4CS1=

CYXE;2005-01-28 09:00;METAR CYXE 280900Z 31010KT 15SM FEW021 SCT054 OVC220 M07/M09 A2979 RMK SF2SC2CS2 SLP120=

CYXE;2005-01-28 10:00;METAR CYXE 281000Z 32005KT 15SM FEW017 SCT061 OVC220 M08/M10 A2981 RMK SF2SC2CS1 SLP129=

CYXE;2005-01-28 11:00;METAR CYXE 281100Z 32008KT 15SM BKN015 M08/M09 A2985 RMK SC6 SLP139=

CYXE;2005-01-28 11:21;SPECI CYXE 281121Z 32008KT 15SM OVC013 RMK SC7=

CYXE;2005-01-28 12:00;METAR CYXE 281200Z 33010KT 15SM SCT013 M07/M09 A2988 RMK SC2 SLP152=

CYXE;2005-01-28 13:00;METAR CYXE 281300Z 35006KT 15SM OVC013 M07/M09 A2990 RMK SC6 SLP161=

CYXE;2005-01-28 14:00;METAR CYXE 281400Z 01005KT 15SM OVC013 M07/M08 A2994 RMK SC8 SLP171=

CYXE;2005-01-28 14:44;SPECI CYXE 281444Z 36008KT 15SM OVC009 RMK ST8=

CYXE;2005-01-28 15:00;METAR CYXE 281500Z 36007KT 15SM OVC009 M06/M08 A2997 RMK ST8 SLP182=

CYXE;2005-01-28 15:41;SPECI CYXE 281541Z 35007KT 15SM OVC010 RMK ST8=

CYXE;2005-01-28 16:00;METAR CYXE 281600Z 35006KT 15SM OVC010 M06/M07 A3000 RMK ST8 SLP193=

CYXE;2005-01-28 16:13;SPECI CYXE 281613Z 35004KT 15SM -SG OVC010 RMK ST8=

CYXE;2005-01-28 17:00;METAR CYXE 281700Z 01005KT 15SM -SG OVC012 M05/M07 A3002 RMK ST8 SLP199=

CYXE;2005-01-28 18:00;METAR CYXE 281800Z 02008KT 15SM -SG OVC010 M06/M08 A3005 RMK ST8 SLP211=

CYXE;2005-01-28 19:00;METAR CYXE 281900Z 03008KT 15SM -SG OVC012 M07/M10 A3008 RMK ST8 SLP219=

CYXE;2005-01-28 20:00;METAR CYXE 282000Z 05007KT 15SM -SG OVC012 M08/M11 A3009 RMK ST8 SLP223=

CYXE;2005-01-28 21:00;METAR CYXE 282100Z 05007KT 15SM -SG OVC012 M09/M11 A3010 RMK ST8 SLP231=

CYXE;2005-01-28 21:05;SPECI CYXE 282105Z 04008KT 15SM OVC012 RMK ST8=

CYXE;2005-01-28 22:00;METAR CYXE 282200Z 04007KT 12SM OVC012 M10/M13 A3012 RMK ST8 SLP238=

CYXE;2005-01-28 23:00;METAR CYXE 282300Z 05010KT 10SM OVC012 M11/M14 A3015 RMK ST8 SLP246=

CYXE;2005-01-29 00:00;METAR CYXE 290000Z 05008KT 15SM OVC009 M11/M15 A3017 RMK ST8 SLP257=

CYXE;2005-01-29 01:00;METAR CYXE 290100Z 05007KT 15SM OVC008 M12/M16 A3018 RMK ST8 SLP261=

CYXE;2005-01-29 02:00;METAR CYXE 290200Z 07007KT 15SM SCT008 OVC040 M13/M16 A3019 RMK ST3SC5 SLP264=

CYXE;2005-01-29 03:00;METAR CYXE 290300Z 08007KT 15SM FEW010 BKN080 M13/M16 A3021 RMK ST1AC6 SLP269=

CYXE;2005-01-29 04:00;METAR CYXE 290400Z 07006KT 15SM BKN080 M14/M16 A3020 RMK AC5 SLP268=

CYXE;2005-01-29 05:00;METAR CYXE 290500Z 08003KT 15SM FEW010 BKN080 M15/M17 A3022 RMK ST1AC5 SLP273=

CYXE;2005-01-29 06:00;METAR CYXE 290600Z 11005KT 15SM FEW010 BKN090 M13/M15 A3021 RMK SF1AC5 SLP270=

CYXE;2005-01-29 06:50;SPECI CYXE 290650Z 12006KT 15SM SCT009 OVC095 RMK ST3AC5=

CYXE;2005-01-29 07:00;METAR CYXE 290700Z 11005KT 15SM SCT009 OVC095 M12/M14 A3021 RMK ST3AC5 SLP269=

CYXE;2005-01-29 07:21;SPECI CYXE 290721Z 12006KT 15SM BKN006 OVC095 RMK ST5AC3=

CYXE;2005-01-29 07:37;SPECI CYXE 290737Z 13007KT 15SM BKN005 OVC095 RMK ST6AC2=

CYXE;2005-01-29 08:00;METAR CYXE 290800Z 12005KT 15SM OVC004 M12/M13 A3019 RMK ST8 SLP265=

CYXE;2005-01-29 08:30;SPECI CYXE 290830Z 12004KT 6SM BR OVC003 RMK ST8=

CYXE;2005-01-29 08:38;SPECI CYXE 290838Z 12005KT 3SM BR OVC002 RMK ST8=

CYXE;2005-01-29 09:00;METAR CYXE 290900Z 13005KT 3SM BR OVC002 M11/M12 A3019 RMK ST8 SLP263=

CYXE;2005-01-29 09:48;SPECI CYXE 290948Z 11007KT 5SM BR OVC003 RMK ST8=

CYXE;2005-01-29 10:00;METAR CYXE 291000Z 11007KT 6SM BR OVC003 M10/M11 A3017 RMK ST8 SLP259=

CYXE;2005-01-29 11:00;METAR CYXE 291100Z 14009KT 6SM BR OVC002 M09/M10 A3016 RMK ST8 SLP253=

CYXE;2005-01-29 11:24;SPECI CYXE 291124Z 13009KT 5SM BR OVC003 RMK ST8=

CYXE;2005-01-29 12:00;METAR CYXE 291200Z 14009KT 6SM BR OVC003 M09/M10 A3013 RMK ST8 SLP245=

CYXE;2005-01-29 12:15;SPECI CYXE 291215Z 13008KT 10SM OVC004 RMK ST8 F=

CYXE;2005-01-29 13:00;METAR CYXE 291300Z 12005KT 10SM OVC009 M10/M11 A3013 RMK ST8 F SLP243=

CYXE;2005-01-29 14:00;METAR CYXE 291400Z 13007KT 10SM OVC009 M09/M10 A3011 RMK ST8 SLP236=

CYXE;2005-01-29 14:24;SPECI CYXE 291424Z 15008KT 10SM FEW008 BKN200 RMK ST2CI2=

CYXE;2005-01-29 15:00;METAR CYXE 291500Z 15009KT 10SM FEW010 BKN200 M09/M10 A3009 RMK ST1CI2 SLP231=

CYXE;2005-01-29 16:00;METAR CYXE 291600Z 16009KT 15SM FEW020 SCT200 M08/M09 A3008 RMK SC1CI2 SLP226=

CYXE;2005-01-29 17:00;METAR CYXE 291700Z 17009KT 15SM FEW220 M07/M10 A3007 RMK CI1 SLP225=

CYXE;2005-01-29 18:00;METAR CYXE 291800Z 17012KT 15SM FEW220 M06/M09 A3007 RMK CI1 SLP221=

CYXE;2005-01-29 19:00;METAR CYXE 291900Z 18011G16KT 15SM FEW100 M05/M08 A3003 RMK AC1 SLP210=

CYXE;2005-01-29 20:00;METAR CYXE 292000Z 17010KT 15SM FEW100 M04/M07 A3000 RMK AC1 SLP201=

CYXE;2005-01-29 21:00;METAR CYXE 292100Z 18009KT 15SM FEW100 M03/M06 A2998 RMK AC1 SLP189=

CYXE;2005-01-29 22:00;METAR CYXE 292200Z 18013KT 15SM FEW220 M03/M06 A2996 RMK CI1 SLP181=

CYXE;2005-01-29 23:00;METAR CYXE 292300Z 18012KT 15SM SCT220 M03/M06 A2995 RMK CI1 SLP179=

CYXE;2005-01-30 00:00;METAR CYXE 300000Z 18011KT 15SM FEW010 BKN220 M04/M06 A2994 RMK SC1CI2 SLP172=

CYXE;2005-01-30 00:47;SPECI CYXE 300047Z 18009KT 15SM OVC014 RMK SC8=

CYXE;2005-01-30 01:00;METAR CYXE 300100Z 19010KT 15SM OVC014 M04/M06 A2993 RMK SC8 SLP169=

CYXE;2005-01-30 01:26;SPECI CYXE 300126Z 22009KT 15SM OVC009 RMK SF8=

CYXE;2005-01-30 02:00;METAR CYXE 300200Z 24008KT 15SM OVC006 M04/M05 A2993 RMK SF8 SLP169=

CYXE;2005-01-30 03:00;METAR CYXE 300300Z 27010KT 8SM OVC005 M04/M05 A2992 RMK SF8 SLP168=

CYXE;2005-01-30 04:00;METAR CYXE 300400Z 24009KT 15SM OVC005 M04/M05 A2991 RMK SF8 SLP164=

CYXE;2005-01-30 04:02;SPECI CYXE 300402Z 25011KT 15SM OVC004 RMK SF8=

CYXE;2005-01-30 04:31;SPECI CYXE 300431Z 23010KT 6SM BR OVC003 RMK SF8=

CYXE;2005-01-30 05:00;METAR CYXE 300500Z 24011KT 3SM BR OVC003 M04/M05 A2990 RMK SF8 SLP159=

CYXE;2005-01-30 05:04;SPECI CYXE 300504Z 23010KT 2SM BR OVC002 RMK SF8 TOWER OBS=

CYXE;2005-01-30 05:14;SPECI CYXE 300514Z 22011KT 1 1/2SM BR OVC002 RMK FG2SF6 TOWER OBS=

CYXE;2005-01-30 05:23;SPECI CYXE 300523Z 23011KT 1SM R09/P6000FT/N BR OVC002 RMK FG4SF4 TOWER OBS=

CYXE;2005-01-30 05:25;SPECI CYXE 300525Z 23009KT 3/4SM R09/P6000FT/D BR OVC002 RMK FG6SF2 TOWER OBS=

CYXE;2005-01-30 05:36;SPECI CYXE 300536Z 23011KT 1/2SM R09/P6000FT/D FZFG VV001 RMK FG8 TOWER OBS=

CYXE;2005-01-30 05:47;SPECI CYXE 300547Z 24012KT 1/8SM R09/3000VP6000FT/D FZFG VV001 RMK FG8 TOWER OBS=

CYXE;2005-01-30 06:00;METAR CYXE 300600Z 24011KT 1/4SM R09/2200V4000FT/D FZFG VV001 M04/M05 A2989 RMK FG8 SLP155=

CYXE;2005-01-30 07:00;METAR CYXE 300700Z 24011KT 1/4SM R09/2000V2800FT/D FZFG VV001 M05/M06 A2989 RMK FG8 SLP154=

CYXE;2005-01-30 08:00;METAR CYXE 300800Z 22011KT 1/4SM R09/1400V2000FT/D FZFG VV001 M06/M07 A2986 RMK FG8 SLP146=

CYXE;2005-01-30 09:00;METAR CYXE 300900Z 22005KT 1/4SM R09/1600FT/N FZFG VV001 M07/M07 A2987 RMK FG8 SLP147=

CYXE;2005-01-30 10:00;METAR CYXE 301000Z 23005KT 1/4SM R09/1400V2200FT/U FZFG VV001 M08/M09 A2987 RMK FG8 SLP148=

CYXE;2005-01-30 11:00;METAR CYXE 301100Z 22006KT 1/2SM R09/2600FT/N FZFG SKC M08/M10 A2987 RMK FG7 SLP148=

CYXE;2005-01-30 11:06;SPECI CYXE 301106Z 23004KT 3/8SM R09/1400V3000FT/D FZFG SKC RMK FG7 VIS VRBL 1/4 - 1/2=

CYXE;2005-01-30 11:33;SPECI CYXE 301133Z 27005KT 1/4SM R09/2000FT/N FZFG VV001 RMK FG8=

CYXE;2005-01-30 12:00;METAR CYXE 301200Z 24003KT 1/4SM R09/P6000FT/U FZFG VV001 M10/M12 A2988 RMK FG8 SLP155=

CYXE;2005-01-30 12:31;SPECI CYXE 301231Z 20004KT 1SM R09/P6000FT/D BR FEW005 BKN090 RMK SF2AC2=

CYXE;2005-01-30 13:00;METAR CYXE 301300Z 23004KT 3SM BR SCT100 M11/M13 A2989 RMK AC2 SLP158=

CYXE;2005-01-30 14:00;METAR CYXE 301400Z 22005KT 8SM OVC080 M10/M11 A2990 RMK AC8 SLP161=

CYXE;2005-01-30 15:00;METAR CYXE 301500Z 26003KT 8SM OVC080 M09/M11 A2992 RMK AS8 SLP167=

CYXE;2005-01-30 16:00;METAR CYXE 301600Z 26003KT 8SM FEW040 FEW080 BKN200 M10/M12 A2995 RMK SC1AC1CI2 SLP176=

CYXE;2005-01-30 17:00;METAR CYXE 301700Z 29004KT 10SM BKN060 M07/M08 A2998 RMK SC7 SLP185=

CYXE;2005-01-30 18:00;METAR CYXE 301800Z 31004KT 12SM BKN060 M05/M06 A3000 RMK SC7 SLP191=

CYXE;2005-01-30 19:00;METAR CYXE 301900Z 30004KT 15SM BKN040 M04/M05 A3000 RMK SC7 SLP193=

CYXE;2005-01-30 20:00;METAR CYXE 302000Z 31009KT 15SM BKN030 M04/M05 A3001 RMK SC7 SLP196=

CYXE;2005-01-30 21:00;METAR CYXE 302100Z 30004KT 15SM BKN050 M03/M05 A3002 RMK SC7 SLP200=

CYXE;2005-01-30 22:00;METAR CYXE 302200Z 29005KT 15SM FEW011 BKN066 OVC220 M04/M05 A3006 RMK SC1AC4CI2 SLP212=

CYXE;2005-01-30 23:00;METAR CYXE 302300Z 32008KT 15SM FEW013 BKN057 OVC220 M03/M05 A3008 RMK SC1SC4CI1 SLP219=

CYXE;2005-01-31 00:00;METAR CYXE 310000Z 33009KT 15SM SCT059 OVC220 M08/M09 A3010 RMK SC2CI2 SLP233=

CYXE;2005-01-31 00:45;SPECI CYXE 310045Z 33006KT 15SM BKN013 RMK SC7=

CYXE;2005-01-31 01:00;METAR CYXE 310100Z 31006KT 15SM BKN011 M07/M09 A3013 RMK SC7 RGD BASE SLP242=

CYXE;2005-01-31 01:14;SPECI CYXE 310114Z 32007KT 3SM BR OVC006 RMK SF8=

CYXE;2005-01-31 01:38;SPECI CYXE 310138Z 30006KT 1/2SM R09/2600VP6000FT/D FZFG OVC005 RMK FG5SF3=

CYXE;2005-01-31 01:49;SPECI CYXE 310149Z 30004KT 1/2SM R09/2000V2600FT/N FZFG VV006 RMK FG8=

CYXE;2005-01-31 02:00;METAR CYXE 310200Z 31004KT 1/2SM R09/3000FT/U FZFG VV006 M05/M06 A3014 RMK FG8 SLP244=

CYXE;2005-01-31 02:17;SPECI CYXE 310217Z 32004KT 1/2SM R09/3500FT/D FZFG VV005 RMK FG8=

CYXE;2005-01-31 02:27;SPECI CYXE 310227Z 30002KT 1/2SM R09/3000FT/N FZFG VV001 RMK FG8=

CYXE;2005-01-31 03:00;METAR CYXE 310300Z 27003KT 1/2SM R09/4000V5500FT/D FZFG VV001 M05/M06 A3015 RMK FG8 FROIN SLP248=

CYXE;2005-01-31 03:34;SPECI CYXE 310334Z 28003KT 3/8SM R09/P6000FT/U FZFG VV001 RMK FG8 FROIN=

CYXE;2005-01-31 04:00;METAR CYXE 310400Z 29004KT 3/8SM R09/4500FT/N FZFG VV002 M04/M05 A3015 RMK FG8 FROIN SLP246=

CYXE;2005-01-31 04:10;SPECI CYXE 310410Z 26003KT 1/2SM R09/6000FT/U FZFG VV002 RMK FG8 FROIN=

CYXE;2005-01-31 04:20;SPECI CYXE 310420Z 25004KT 1/2SM R09/P6000FT/U FZFG VV001 RMK FG8 FROIN=

CYXE;2005-01-31 04:45;SPECI CYXE 310445Z 19005KT 3/8SM R09/3500FT/N FZFG VV001 RMK FG8 FROIN=

CYXE;2005-01-31 05:00;METAR CYXE 310500Z 18006KT 3/8SM R09/3500FT/N FZFG VV001 M04/M05 A3014 RMK FG8 FROIN TOWER OBS SLP245=

CYXE;2005-01-31 05:15;SPECI CYXE 310515Z 17006KT 3/4SM R09/5000FT/U BR VV001 RMK FG8 FROIN TOWER OBS=

CYXE;2005-01-31 05:45;SPECI CYXE 310545Z 18006KT 1/2SM R09/P6000FT/D -FZDZ FZFG VV001 RMK FG8 FROIN TOWER OBS=

CYXE;2005-01-31 06:00;METAR CYXE 310600Z 18007KT 1/2SM R09/P6000FT/N -FZDZ FZFG VV002 M04/M05 A3014 RMK FG8 SLP241=

CYXE;2005-01-31 06:41;SPECI CYXE 310641Z 19006KT 1/2SM R09/5000FT/D FZFG VV002 REFZDZ RMK FG8=

CYXE;2005-01-31 07:00;METAR CYXE 310700Z 18007KT 1/2SM R09/4000FT/N FZFG VV002 M04/M05 A3014 REFZDZ RMK FG8 SLP239=

CYXE;2005-01-31 07:31;SPECI CYXE 310731Z 17008KT 1SM R09/P6000FT/U BR OVC006 RMK ST8=

CYXE;2005-01-31 08:00;METAR CYXE 310800Z 17008KT 1 1/2SM BR OVC002 M04/M05 A3012 RMK ST8 SLP233=

CYXE;2005-01-31 08:06;SPECI CYXE 310806Z 18007KT 2SM BR OVC002 RMK ST8=

CYXE;2005-01-31 09:00;METAR CYXE 310900Z 18006KT 3SM BR SCT002 OVC006 M04/M05 A3010 RMK SF3ST5 SLP225=

CYXE;2005-01-31 09:08;SPECI CYXE 310908Z 18008KT 3SM BR OVC004 RMK ST8=

CYXE;2005-01-31 09:27;SPECI CYXE 310927Z 18006KT 2SM BR OVC002 RMK ST8=

CYXE;2005-01-31 10:00;METAR CYXE 311000Z 18006KT 3SM BR OVC002 M03/M04 A3008 RMK ST8 SLP218=

CYXE;2005-01-31 11:00;METAR CYXE 311100Z 17007KT 2SM BR OVC002 M02/M03 A3006 RMK ST8 SLP212=

CYXE;2005-01-31 11:37;SPECI CYXE 311137Z 17011KT 1 1/2SM BR OVC002 RMK ST8=

CYXE;2005-01-31 11:45;SPECI CYXE 311145Z 17011KT 1SM R09/P6000FT/D BR OVC002 RMK ST8=

CYXE;2005-01-31 11:50;SPECI CYXE 311150Z 17012KT 3/4SM R09/P6000FT/D BR VV002 RMK FG8=

CYXE;2005-01-31 12:00;METAR CYXE 311200Z 18014KT 1/2SM R09/P6000FT/D FZFG VV002 M02/M03 A3002 RMK FG8 SLP200=

CYXE;2005-01-31 13:00;METAR CYXE 311300Z 17009G15KT 3/4SM R09/P6000FT/D BR VV002 M02/M03 A3001 RMK FG8 SLP196=

CYXE;2005-01-31 13:13;SPECI CYXE 311313Z 17012KT 1SM R09/P6000FT/N BR VV002 RMK FG8=

CYXE;2005-01-31 13:36;SPECI CYXE 311336Z 17010KT 2SM BR OVC002 RMK ST7=

CYXE;2005-01-31 14:00;METAR CYXE 311400Z 17012KT 3SM BR OVC002 M02/M03 A2997 RMK ST8 SLP184=

CYXE;2005-01-31 14:26;SPECI CYXE 311426Z 17011KT 10SM FEW002 BKN100 RMK SF2AC3=

CYXE;2005-01-31 15:00;METAR CYXE 311500Z 17011KT 12SM FEW003 BKN100 M03/M04 A2995 RMK SF1AC5 SLP173=

CYXE;2005-01-31 16:00;METAR CYXE 311600Z 17013KT 15SM BKN100 M03/M04 A2992 RMK AC6 SLP164=

CYXE;2005-01-31 17:00;METAR CYXE 311700Z 18014KT 15SM OVC090 M02/M04 A2988 RMK AC7 SLP151=

CYXE;2005-01-31 18:00;METAR CYXE 311800Z 18016KT 15SM SCT090 OVC220 M01/M04 A2984 RMK AC3CS4 SLP135=

CYXE;2005-01-31 19:00;METAR CYXE 311900Z 18013KT 15SM FEW090 OVC220 M00/M04 A2981 RMK AC2CS5 SLP123=

CYXE;2005-01-31 20:00;METAR CYXE 312000Z 19011G16KT 15SM FEW090 OVC200 02/M03 A2977 RMK AC2CS5 SLP111=

CYXE;2005-01-31 21:00;METAR CYXE 312100Z 19016KT 15SM BKN090 OVC200 02/M02 A2972 RMK AS6CS2 SLP091=

CYXE;2005-01-31 22:00;METAR CYXE 312200Z 20012KT 15SM BKN110 OVC200 03/M01 A2972 RMK AS6CI2 SLP091=

CYXE;2005-01-31 23:00;METAR CYXE 312300Z 21012KT 15SM OVC110 04/M01 A2972 RMK AC7 SLP092=

CYXE;2005-02-01 00:00;METAR CYXE 010000Z 22012KT 15SM BKN110 OVC200 02/M01 A2972 RMK AC6CI1 SLP089=

CYXE;2005-02-01 01:00;METAR CYXE 010100Z 22009KT 15SM BKN110 01/M01 A2972 RMK AC7 SLP089=

CYXE;2005-02-01 02:00;METAR CYXE 010200Z 23009KT 15SM OVC110 00/M02 A2973 RMK AC8 SLP093=

CYXE;2005-02-01 03:00;METAR CYXE 010300Z 24011KT 15SM OVC110 M00/M02 A2975 RMK AC8 SLP101=

CYXE;2005-02-01 04:00;METAR CYXE 010400Z 28008KT 15SM FEW088 M00/M03 A2977 RMK AC2 SLP108=

CYXE;2005-02-01 05:00;METAR CYXE 010500Z 26007KT 15SM SCT220 M02/M04 A2977 RMK CI1 SLP110=

CYXE;2005-02-01 06:00;METAR CYXE 010600Z 29016KT 15SM FEW100 BKN220 04/M03 A2981 RMK AC2CI0 SLP119=

CYXE;2005-02-01 07:00;METAR CYXE 010700Z 28013KT 15SM FEW100 BKN250 02/M03 A2984 RMK AC2CI1 SLP128=

CYXE;2005-02-01 08:00;METAR CYXE 010800Z 27014KT 15SM FEW100 SCT250 00/M04 A2986 RMK AC1CI0 SLP136=

CYXE;2005-02-01 09:00;METAR CYXE 010900Z 26011KT 15SM SCT250 M02/M05 A2990 RMK CI0 SLP151=

CYXE;2005-02-01 10:00;METAR CYXE 011000Z 27011KT 15SM SCT250 M04/M07 A2992 RMK CI0 SLP157=

CYXE;2005-02-01 11:00;METAR CYXE 011100Z 25010KT 15SM SCT250 M05/M07 A2993 RMK CI0 SLP160=

CYXE;2005-02-01 12:00;METAR CYXE 011200Z 26012KT 15SM SCT250 M06/M09 A2995 RMK CI0 SLP173=

CYXE;2005-02-01 13:00;METAR CYXE 011300Z 25009KT 15SM FEW250 M07/M10 A2996 RMK CI0 SLP174=

CYXE;2005-02-01 14:00;METAR CYXE 011400Z 24013KT 15SM SCT250 M07/M09 A2997 RMK CI0 SLP179=

CYXE;2005-02-01 15:00;METAR CYXE 011500Z 23010KT 15SM BKN140 M07/M10 A2997 RMK AC4 SLP182=

CYXE;2005-02-01 16:00;METAR CYXE 011600Z 23008KT 15SM BKN140 M05/M08 A2998 RMK AC6 SLP184=

CYXE;2005-02-01 17:00;METAR CYXE 011700Z 19006KT 15SM BKN093 BKN220 M02/M07 A2996 RMK AC6CI2 SLP178=

CYXE;2005-02-01 18:00;METAR CYXE 011800Z 19006KT 15SM BKN110 BKN220 M01/M06 A2996 RMK AC3CI4 SLP172=

CYXE;2005-02-01 19:00;METAR CYXE 011900Z 24017KT 15SM SCT081 BKN094 M01/M05 A2997 RMK AC3AC3 SLP174=

CYXE;2005-02-01 20:00;METAR CYXE 012000Z 24012KT 15SM FEW085 M00/M04 A2996 RMK AC1 SLP172=

CYXE;2005-02-01 21:00;METAR CYXE 012100Z 24010KT 15SM FEW085 FEW220 01/M04 A2996 RMK AC1CI1 SLP173=

CYXE;2005-02-01 22:00;METAR CYXE 012200Z 23013KT 15SM FEW085 FEW220 01/M04 A2997 RMK AC1CI0 SLP176=

CYXE;2005-02-01 23:00;METAR CYXE 012300Z 23011KT 15SM FEW250 M00/M04 A2999 RMK CI0 SLP184=

CYXE;2005-02-02 00:00;METAR CYXE 020000Z 23009KT 15SM FEW250 M02/M05 A3000 RMK CI0 SLP192=

CYXE;2005-02-02 01:00;METAR CYXE 020100Z 24010KT 15SM SKC M03/M06 A2999 RMK SLP189=

CYXE;2005-02-02 02:00;METAR CYXE 020200Z 25009KT 15SM SKC M04/M07 A2998 RMK SLP185=

CYXE;2005-02-02 03:00;METAR CYXE 020300Z 23009KT 15SM SKC M06/M08 A2998 RMK SLP186=

CYXE;2005-02-02 04:00;METAR CYXE 020400Z 21010KT 15SM SKC M03/M06 A2996 RMK SLP181=

CYXE;2005-02-02 05:00;METAR CYXE 020500Z 18007KT 15SM SKC M04/M07 A2992 RMK SLP169=

CYXE;2005-02-02 06:00;METAR CYXE 020600Z 19008KT 15SM SKC M03/M07 A2990 RMK SLP154=

CYXE;2005-02-02 07:00;METAR CYXE 020700Z 19011KT 15SM SKC M03/M07 A2986 RMK SLP141=

CYXE;2005-02-02 08:00;METAR CYXE 020800Z 18012KT 15SM SKC M03/M07 A2980 RMK SLP123=

CYXE;2005-02-02 09:00;METAR CYXE 020900Z 19011KT 15SM FEW250 M02/M06 A2977 RMK CI0 SLP106=

CYXE;2005-02-02 10:00;METAR CYXE 021000Z 19010KT 15SM BKN250 M02/M06 A2973 RMK CI1 SLP095=

CYXE;2005-02-02 11:00;METAR CYXE 021100Z 22011KT 15SM BKN250 M02/M06 A2971 RMK CI1 SLP089=

CYXE;2005-02-02 12:00;METAR CYXE 021200Z 23011KT 15SM BKN250 M02/M06 A2971 RMK CI1 SLP088=

CYXE;2005-02-02 13:00;METAR CYXE 021300Z 22011KT 15SM SCT250 M03/M06 A2970 RMK CI1 SLP085=

CYXE;2005-02-02 14:00;METAR CYXE 021400Z 22009KT 15SM SCT110 BKN220 M02/M05 A2970 RMK AC2CI2 SLP085=

CYXE;2005-02-02 15:00;METAR CYXE 021500Z 23009KT 15SM SCT110 BKN220 M01/M04 A2969 RMK AC3CI2 SLP084=

CYXE;2005-02-02 16:00;METAR CYXE 021600Z 22010KT 15SM BKN110 OVC220 00/M03 A2972 RMK AC6CI1 SLP092=

CYXE;2005-02-02 18:00;METAR CYXE 021800Z 24008KT 15SM BKN110 BKN220 04/M01 A2976 RMK AC4CI2 SLP104=

CYXE;2005-02-02 19:00;METAR CYXE 021900Z 25010KT 15SM FEW090 BKN140 BKN220 04/M01 A2977 RMK AC2AC2CI1 SLP106=

CYXE;2005-02-02 20:00;METAR CYXE 022000Z 29012KT 15SM FEW090 BKN140 BKN220 06/M01 A2979 RMK AC2AC2CI1 SLP114=

CYXE;2005-02-02 21:00;METAR CYXE 022100Z 30010KT 15SM FEW090 BKN150 OVC220 05/M00 A2981 RMK AC1AC4CI1 SLP121=

CYXE;2005-02-02 22:00;METAR CYXE 022200Z 31012KT 15SM FEW024 FEW090 BKN220 06/M00 A2983 RMK CU1AC2CI2 SLP127=

CYXE;2005-02-02 23:00;METAR CYXE 022300Z 29011KT 15SM FEW100 BKN250 05/M01 A2988 RMK AC2CI2 SLP143=

CYXE;2005-02-03 00:00;METAR CYXE 030000Z 31014KT 15SM FEW100 SCT250 05/M00 A2990 RMK AC1CI0 SLP152=

CYXE;2005-02-03 01:00;METAR CYXE 030100Z 27009KT 15SM FEW100 FEW250 03/M01 A2995 RMK AC1CI0 SLP165=

CYXE;2005-02-03 02:00;METAR CYXE 030200Z 30011KT 15SM SKC 02/M01 A2997 RMK SLP174=

CYXE;2005-02-03 03:00;METAR CYXE 030300Z 21006KT 15SM SKC 01/M02 A3001 RMK SLP190=

CYXE;2005-02-03 04:00;METAR CYXE 030400Z 27009KT 15SM SKC 02/M02 A3003 RMK SLP198=

CYXE;2005-02-03 05:00;METAR CYXE 030500Z 25006KT 15SM SKC 01/M01 A3005 RMK SLP204=

CYXE;2005-02-03 06:00;METAR CYXE 030600Z 02008KT 15SM SCT100 M01/M04 A3006 RMK AC3 SLP206=

CYXE;2005-02-03 07:00;METAR CYXE 030700Z 02009KT 15SM BKN100 M02/M05 A3008 RMK AC7 SLP213=

CYXE;2005-02-03 08:00;METAR CYXE 030800Z 04010KT 15SM BKN100 M05/M07 A3010 RMK AC5 SLP218=

CYXE;2005-02-03 09:00;METAR CYXE 030900Z 05010KT 15SM SCT100 M05/M08 A3007 RMK AC2 SLP210=

CYXE;2005-02-03 10:00;METAR CYXE 031000Z 10006KT 15SM FEW100 M06/M09 A3006 RMK AC1 SLP206=

CYXE;2005-02-03 11:00;METAR CYXE 031100Z 09008KT 15SM BKN250 M07/M10 A3003 RMK CI2 SLP197=

CYXE;2005-02-03 12:00;METAR CYXE 031200Z 08008KT 15SM BKN250 M07/M10 A3000 RMK CI2 SLP189=

CYXE;2005-02-03 13:00;METAR CYXE 031300Z 11014KT 15SM OVC250 M05/M08 A2996 RMK CI4 SLP174=

CYXE;2005-02-03 14:00;METAR CYXE 031400Z 13011KT 15SM OVC250 M06/M08 A2993 RMK CI3 SLP165=

CYXE;2005-02-03 15:00;METAR CYXE 031500Z 12009KT 15SM OVC250 M07/M10 A2990 RMK CI4 SLP154=

CYXE;2005-02-03 16:00;METAR CYXE 031600Z 13007KT 15SM FEW100 BKN250 M06/M09 A2986 RMK AC1CI3 SLP143=

CYXE;2005-02-03 17:00;METAR CYXE 031700Z 12002KT 15SM FEW110 OVC250 M05/M07 A2984 RMK AC2CI3 SLP137=

CYXE;2005-02-03 18:00;METAR CYXE 031800Z 19005KT 15SM FEW110 OVC250 M03/M06 A2982 RMK AC2CI4 SLP127=

CYXE;2005-02-03 19:00;METAR CYXE 031900Z 23004KT 15SM FEW110 OVC250 M03/M06 A2979 RMK AC2CI5 SLP117=

CYXE;2005-02-03 20:00;METAR CYXE 032000Z 23008KT 15SM SCT100 OVC250 M03/M06 A2978 RMK AC3CI3 SLP115=

CYXE;2005-02-03 21:00;METAR CYXE 032100Z 25004KT 15SM FEW087 OVC250 M04/M06 A2977 RMK AC2CI5 SLP114=

CYXE;2005-02-03 22:00;METAR CYXE 032200Z 24003KT 15SM FEW093 OVC250 M03/M06 A2977 RMK AC2CI4 SLP111=

CYXE;2005-02-03 23:00;METAR CYXE 032300Z 24004KT 15SM FEW093 OVC250 M04/M07 A2979 RMK AC2CI4 SLP119=

CYXE;2005-02-04 00:00;METAR CYXE 040000Z 00000KT 15SM FEW100 OVC250 M06/M08 A2980 RMK AC2CS6 SLP125=

CYXE;2005-02-04 01:00;METAR CYXE 040100Z 00000KT 15SM SCT100 BKN250 M06/M08 A2982 RMK AC3CI3 SLP132=

CYXE;2005-02-04 02:00;METAR CYXE 040200Z 22002KT 15SM SCT100 BKN250 M05/M07 A2985 RMK AC3CI3 SLP140=

CYXE;2005-02-04 03:00;METAR CYXE 040300Z 22006KT 15SM SCT100 BKN250 M04/M07 A2987 RMK AC3CI3 SLP148=

CYXE;2005-02-04 04:00;METAR CYXE 040400Z 27004KT 15SM BKN090 OVC250 M03/M06 A2990 RMK AC6CI2 SLP157=

CYXE;2005-02-04 04:38;SPECI CYXE 040438Z 36008KT 15SM -SN OVC066 RMK SC8=

CYXE;2005-02-04 05:00;METAR CYXE 040500Z 03015KT 15SM -SN OVC065 M03/M07 A2996 RMK SC8 PRESRR SLP179=

CYXE;2005-02-04 06:00;METAR CYXE 040600Z 05017KT 15SM BKN060 M06/M10 A2999 RMK SC7 SLP190=

CYXE;2005-02-04 06:30;SPECI CYXE 040630Z 03014KT 15SM -SN BKN060 RMK SC7=

CYXE;2005-02-04 07:00;METAR CYXE 040700Z 02014G20KT 15SM -SN OVC055 M08/M11 A3004 RMK SC8 SLP206=

CYXE;2005-02-04 07:33;SPECI CYXE 040733Z 01017G22KT 15SM OVC050 RMK SC8=

CYXE;2005-02-04 08:00;METAR CYXE 040800Z 01015KT 15SM OVC050 M10/M13 A3005 RMK SC8 SLP209=

CYXE;2005-02-04 09:00;METAR CYXE 040900Z 03015KT 15SM OVC055 M12/M14 A3007 RMK SC8 SLP221=

CYXE;2005-02-04 10:00;METAR CYXE 041000Z 03011G16KT 15SM SCT030 OVC065 M12/M15 A3011 RMK SC3SC5 SLP232=

CYXE;2005-02-04 11:00;METAR CYXE 041100Z 04013KT 15SM FEW009 SCT015 OVC055 M13/M15 A3012 RMK ST2SC2SC4 SLP236=

CYXE;2005-02-04 12:00;METAR CYXE 041200Z 06015KT 15SM FEW009 SCT015 OVC055 M14/M17 A3015 RMK ST1SC2SC5 SLP251=

CYXE;2005-02-04 13:00;METAR CYXE 041300Z 05017KT 15SM SCT020 OVC050 M15/M18 A3017 RMK SC3SC5 SLP256=

CYXE;2005-02-04 13:39;SPECI CYXE 041339Z 05016KT 12SM -SN SCT020 OVC037 RMK SC3SC5=

CYXE;2005-02-04 14:00;METAR CYXE 041400Z 06016KT 15SM -SN OVC023 M16/M19 A3018 RMK SC8 SLP261=

CYXE;2005-02-04 14:30;SPECI CYXE 041430Z 05015KT 3SM -SN DRSN OVC016 RMK SC8=

CYXE;2005-02-04 14:37;SPECI CYXE 041437Z 06013G18KT 2 1/2SM -SN DRSN OVC016 RMK SC8=

CYXE;2005-02-04 14:45;SPECI CYXE 041445Z 06016KT 2SM -SN DRSN OVC014 RMK SC8=

CYXE;2005-02-04 14:52;SPECI CYXE 041452Z 06015KT 1SM R09/P6000FT/U -SN DRSN VV008 RMK SN8=

CYXE;2005-02-04 15:00;METAR CYXE 041500Z 06017KT 1SM R09/P6000FT/D -SN DRSN VV007 M17/M19 A3018 RMK SN8 SLP261=

CYXE;2005-02-04 15:06;SPECI CYXE 041506Z 06016KT 3/4SM R09/P6000FT/D -SN DRSN VV006 RMK SN8=

CYXE;2005-02-04 16:00;METAR CYXE 041600Z 05012KT 3/4SM R09/P6000FT/U -SN DRSN VV006 M16/M18 A3018 RMK SN8 SLP262=

CYXE;2005-02-04 17:00;METAR CYXE 041700Z 07014KT 3/4SM R09/5000FT/U -SN DRSN VV006 M16/M18 A3016 RMK SN8 SLP254=

CYXE;2005-02-04 18:00;METAR CYXE 041800Z 07017KT 3/4SM R09/5500FT/D -SN DRSN VV005 M17/M19 A3015 RMK SN8 /SO1/ SLP253=

CYXE;2005-02-04 19:00;METAR CYXE 041900Z 06015KT 3/4SM R09/4000V6000FT/D -SN DRSN VV005 M17/M19 A3012 RMK SN8 /S01/ SLP243=

CYXE;2005-02-04 20:00;METAR CYXE 042000Z 07017KT 3/4SM R09/P6000FT/D -SN DRSN VV005 M17/M20 A3007 RMK SN8 SLP228=

CYXE;2005-02-04 21:00;METAR CYXE 042100Z 08013KT 3/4SM R09/5500FT/U -SN DRSN VV005 M17/M21 A3005 RMK SN8 /S02/ SLP223=

CYXE;2005-02-04 21:18;SPECI CYXE 042118Z 07014KT 5/8SM R09/4500FT/N -SN DRSN VV004 RMK SN8=

CYXE;2005-02-04 22:00;METAR CYXE 042200Z 07013KT 5/8SM R09/5500FT/U -SN DRSN VV005 M17/M20 A3004 RMK SN8 /S03/ SLP219=

CYXE;2005-02-04 23:00;METAR CYXE 042300Z 06016KT 5/8SM R09/6000FT/N -SN DRSN VV005 M17/M20 A3002 RMK SN8 SLP211=

CYXE;2005-02-05 00:00;METAR CYXE 050000Z 06016KT 1/2SM R09/P6000FT/U SN DRSN VV005 M17/M20 A3001 RMK SN8 /S04/ SLP210=

CYXE;2005-02-05 01:00;METAR CYXE 050100Z 06018KT 3/4SM R09/P6000FT/U -SN VV006 M17/M20 A2998 RMK SN8 SLP200=

CYXE;2005-02-05 01:32;SPECI CYXE 050132Z 06021KT 1 1/2SM -SN VV012 RMK SN8=

CYXE;2005-02-05 02:00;METAR CYXE 050200Z 06018KT 2SM -SN DRSN OVC014 M17/M20 A2996 RMK SN6SC2 SLP195=

CYXE;2005-02-05 02:32;SPECI CYXE 050232Z 07015KT 1SM R09/P6000FT/D -SN VV007 RMK SN8 VSBY=

CYXE;2005-02-05 04:00;METAR CYXE 050400Z 07017KT 1 1/2SM -SN DRSN OVC016 M17/M20 A2993 RMK SN6SC2 /S02/ SLP185=

CYXE;2005-02-05 05:00;METAR CYXE 050500Z 08015KT 1SM R09/P6000FT/D -SN DRSN VV007 M16/M19 A2993 RMK SN8 SLP183=

CYXE;2005-02-05 05:39;SPECI CYXE 050539Z 07018KT 4SM -SN DRSN OVC007 RMK SN6ST2=

CYXE;2005-02-05 06:00;METAR CYXE 050600Z 07017KT 4SM -SN OVC044 M16/M20 A2992 RMK SN3SC5 SLP181=

CYXE;2005-02-05 06:23;SPECI CYXE 050623Z 08018KT 1SM R09/P6000FT/D -SN DRSN OVC044 RMK SN6SC2=

CYXE;2005-02-05 07:00;METAR CYXE 050700Z 07017G22KT 1 1/2SM -SN DRSN OVC040 M16/M20 A2989 RMK SN6SC2 SLP171=

CYXE;2005-02-05 07:30;SPECI CYXE 050730Z 07013G18KT 5/8SM R09/5000FT/D -SN DRSN VV003 RMK SN8=

CYXE;2005-02-05 08:33;SPECI CYXE 050833Z 06016KT 1/2SM R09/4500FT/U SN DRSN VV002 RMK SN8=

CYXE;2005-02-05 09:00;METAR CYXE 050900Z 07018G24KT 1/2SM R09/3500FT/U SN DRSN VV003 M17/M20 A2987 RMK SN8 /S02/ SLP164=

CYXE;2005-02-05 09:14;SPECI CYXE 050914Z 07019G24KT 3/4SM R09/5000FT/U -SN DRSN VV005 RESN RMK SN8=

CYXE;2005-02-05 10:00;METAR CYXE 051000Z 07016G21KT 3/4SM R09/P6000FT/D -SN DRSN VV007 M17/M20 A2989 RESN RMK SN8 /S03/ SLP169=

CYXE;2005-02-05 10:13;SPECI CYXE 051013Z 07016KT 1SM R09/P6000FT/U -SN DRSN OVC040 RMK SN6SC2=

CYXE;2005-02-05 11:00;METAR CYXE 051100Z 06014KT 1 1/2SM -SN DRSN OVC040 M17/M21 A2991 RMK SN5SC3 /S04/ SLP177=

CYXE;2005-02-05 12:00;METAR CYXE 051200Z 05017KT 1SM R09/P6000FT/D -SN OVC040 M18/M22 A2990 RMK SN6SC2 /S05/ SLP176=

CYXE;2005-02-05 12:26;SPECI CYXE 051226Z 05019KT 1 1/2SM -SN DRSN OVC030 RMK SN6SC2=

CYXE;2005-02-05 13:00;METAR CYXE 051300Z 05017KT 6SM -SN DRSN OVC040 M19/M22 A2993 RMK SC8 SLP185=

CYXE;2005-02-05 14:00;METAR CYXE 051400Z 05015KT 3SM -SN DRSN OVC030 M19/M23 A2995 RMK SN2SC6 SLP190=

CYXE;2005-02-05 14:06;SPECI CYXE 051406Z 04014KT 1 1/2SM -SN DRSN VV011 RMK SN8=

CYXE;2005-02-05 15:00;METAR CYXE 051500Z 05015KT 1 1/2SM -SN DRSN VV011 M19/M23 A2995 RMK SN8 SLP194=

CYXE;2005-02-05 15:26;SPECI CYXE 051526Z 05014KT 2 1/2SM -SN DRSN OVC016 RMK SC8=

CYXE;2005-02-05 15:38;SPECI CYXE 051538Z 04016KT 4SM -SN DRSN SCT016 OVC030 RMK SC4SC4=

CYXE;2005-02-05 16:00;METAR CYXE 051600Z 05017KT 4SM -SN DRSN OVC030 M19/M23 A2996 RMK SC8 SLP196=

CYXE;2005-02-05 16:47;SPECI CYXE 051647Z 05016KT 2 1/2SM -SN DRSN OVC033 RMK SC8=

CYXE;2005-02-05 17:00;METAR CYXE 051700Z 04014KT 2SM -SN DRSN OVC026 M19/M23 A2996 RMK SC8 /S01/ SLP196=

CYXE;2005-02-05 18:00;METAR CYXE 051800Z 05016KT 2SM -SN DRSN OVC017 M19/M23 A2998 RMK SC8 SLP202=

CYXE;2005-02-05 19:00;METAR CYXE 051900Z 04013G19KT 2 1/2SM -SN DRSN OVC024 M19/M23 A2998 RMK SC8 SLP203=

CYXE;2005-02-05 20:00;METAR CYXE 052000Z 03017KT 2SM -SN DRSN OVC027 M19/M23 A2999 RMK SC8 SLP204=

CYXE;2005-02-05 21:00;METAR CYXE 052100Z 04013KT 2 1/2SM -SN DRSN OVC017 M19/M23 A3000 RMK SC8 SLP209=

CYXE;2005-02-05 22:00;METAR CYXE 052200Z 03010KT 2SM -SN DRSN BKN014 OVC056 M19/M23 A3001 RMK ST6SC2 SLP214=

CYXE;2005-02-05 23:00;METAR CYXE 052300Z 02011KT 2SM -SN DRSN VV012 M19/M22 A3003 RMK SN8 SLP219=

CYXE;2005-02-06 00:00;METAR CYXE 060000Z 01009KT 3/4SM R09/P6000FT/D -SN DRSN VV005 M18/M22 A3004 RMK SN8 SLP226=

CYXE;2005-02-06 01:00;METAR CYXE 060100Z 01007KT 3/4SM R09/P6000FT/U -SN DRSN VV004 M18/M21 A3006 RMK SN8 SLP232=

CYXE;2005-02-06 01:36;SPECI CYXE 060136Z 02011KT 3/4SM R09/P6000FT/D -SN DRSN VV003 RMK SN8=

CYXE;2005-02-06 02:23;SPECI CYXE 060223Z 04012KT 3/4SM R09/4500FT/N -SN DRSN VV004 RMK SN8=

CYXE;2005-02-06 02:52;SPECI CYXE 060252Z 02010KT 1SM R09/5000FT/U -SN DRSN VV008 RMK SN8=

CYXE;2005-02-06 03:00;METAR CYXE 060300Z 01013KT 1SM R09/5500FT/U -SN DRSN VV008 M18/M21 A3009 RMK SN8 SLP240=

CYXE;2005-02-06 03:41;SPECI CYXE 060341Z 01015KT 1SM R09/6000FT/N -SN DRSN VV011 RMK SN8=

CYXE;2005-02-06 04:00;METAR CYXE 060400Z 01016KT 1SM R09/P6000FT/N -SN DRSN VV015 M18/M21 A3011 RMK SN8 SLP246=

CYXE;2005-02-06 05:00;METAR CYXE 060500Z 01015KT 1SM R09/5000FT/D -SN DRSN VV013 M18/M21 A3012 RMK SN8 SLP252=

CYXE;2005-02-06 06:00;METAR CYXE 060600Z 01015KT 1SM R09/P6000FT/N -SN DRSN OVC019 M18/M21 A3014 RMK SN6SC2 SLP258=

CYXE;2005-02-06 06:26;SPECI CYXE 060626Z 01015KT 2SM -SN DRSN OVC027 RMK SN4SC4=

CYXE;2005-02-06 08:00;METAR CYXE 060800Z 02015KT 2SM -SN DRSN OVC038 M18/M22 A3018 RMK SN2SC6 SLP271=

CYXE;2005-02-06 09:00;METAR CYXE 060900Z 01014KT 2SM -SN DRSN OVC032 M18/M22 A3021 RMK SN2SC6 SLP281=

CYXE;2005-02-06 10:00;METAR CYXE 061000Z 01015KT 6SM -SN DRSN OVC032 M19/M23 A3023 RMK SC8 SLP289=

CYXE;2005-02-06 10:36;SPECI CYXE 061036Z 03015KT 15SM DRSN OVC046 RMK SC8=

CYXE;2005-02-06 11:00;METAR CYXE 061100Z 03016KT 15SM OVC046 M19/M24 A3023 RMK SC8 SLP290=

CYXE;2005-02-06 12:00;METAR CYXE 061200Z 04011KT 15SM OVC070 M19/M25 A3026 RMK AC8 SLP302=

CYXE;2005-02-06 13:00;METAR CYXE 061300Z 03008KT 15SM BKN070 M20/M26 A3029 RMK AC7 SLP309=

CYXE;2005-02-06 14:00;METAR CYXE 061400Z 01006KT 15SM BKN080 M23/M29 A3032 RMK AC6 SLP320=

CYXE;2005-02-06 15:00;METAR CYXE 061500Z 03009KT 15SM BKN250 M22/M28 A3034 RMK CS7 SLP328=

CYXE;2005-02-06 16:00;METAR CYXE 061600Z 01005KT 15SM OVC250 M22/M28 A3036 RMK CS8 SLP337=

CYXE;2005-02-06 17:00;METAR CYXE 061700Z 34002KT 15SM FEW093 OVC250 M22/M27 A3039 RMK AC2CS6 SLP346=

CYXE;2005-02-06 18:00;METAR CYXE 061800Z 02004KT 15SM SCT090 OVC250 M21/M27 A3040 RMK AC3CS2 SLP350=

CYXE;2005-02-06 19:00;METAR CYXE 061900Z 04006KT 15SM FEW090 OVC250 M21/M28 A3041 RMK AC2CS3 SLP353=

CYXE;2005-02-06 20:00;METAR CYXE 062000Z 05005KT 15SM SCT084 OVC250 M21/M28 A3041 RMK AC2CS3 SLP354=

CYXE;2005-02-06 21:00;METAR CYXE 062100Z 04004KT 15SM FEW084 OVC250 M20/M27 A3041 RMK AC2CS6 SLP354=

CYXE;2005-02-06 22:00;METAR CYXE 062200Z 09003KT 15SM OVC250 M20/M27 A3043 RMK CS7 SLP358=

CYXE;2005-02-06 23:00;METAR CYXE 062300Z 06004KT 15SM OVC250 M20/M27 A3043 RMK CS7 SLP361=

CYXE;2005-02-07 00:00;METAR CYXE 070000Z 08003KT 15SM R09/4500VP6000FT/U BKN250 M21/M26 A3045 RMK CI6 SLP367=

CYXE;2005-02-07 01:00;METAR CYXE 070100Z 11003KT 15SM BKN250 M21/M27 A3045 RMK CI6 SLP368=

CYXE;2005-02-07 02:00;METAR CYXE 070200Z 13004KT 15SM BKN250 M21/M27 A3044 RMK CI5 SLP365=

CYXE;2005-02-07 03:00;METAR CYXE 070300Z 14003KT 15SM BKN250 M22/M28 A3044 RMK CI6 SLP367=

CYXE;2005-02-07 04:00;METAR CYXE 070400Z 18003KT 15SM OVC250 M23/M28 A3044 RMK CI6 SLP369=

CYXE;2005-02-07 05:00;METAR CYXE 070500Z 23003KT 15SM OVC120 M24/M29 A3045 RMK AS6 SLP371=

CYXE;2005-02-07 06:00;METAR CYXE 070600Z 18002KT 15SM FEW087 M24/M29 A3045 RMK AC2 SLP372=

CYXE;2005-02-07 07:00;METAR CYXE 070700Z 19002KT 15SM SKC M25/M29 A3045 RMK SLP373=

CYXE;2005-02-07 08:00;METAR CYXE 070800Z 14005KT 15SM SKC M25/M28 A3044 RMK SLP370=

CYXE;2005-02-07 10:00;METAR CYXE 071000Z 16008KT 15SM SKC M25/M29 A3042 RMK SLP364=

CYXE;2005-02-07 11:00;METAR CYXE 071100Z 18006KT 15SM SKC M25/M30 A3042 RMK SLP362=

CYXE;2005-02-07 13:00;METAR CYXE 071300Z 17008KT 15SM OVC140 M25/M30 A3039 RMK AS7 SLP353=

CYXE;2005-02-07 14:00;METAR CYXE 071400Z 16005KT 15SM OVC220 M25/M30 A3039 RMK CI6 SLP351=

CYXE;2005-02-07 15:00;METAR CYXE 071500Z 20005KT 15SM SCT082 OVC250 M23/M29 A3039 RMK AC2CS6 SLP349=

CYXE;2005-02-07 16:00;METAR CYXE 071600Z 17007KT 15SM FEW090 OVC250 M23/M28 A3039 RMK AC2CI5 SLP349=

CYXE;2005-02-07 17:00;METAR CYXE 071700Z 17012KT 15SM SCT073 OVC250 M21/M26 A3038 RMK AC2CS4 SLP346=

CYXE;2005-02-07 18:00;METAR CYXE 071800Z 18012KT 15SM FEW065 OVC250 M19/M24 A3036 RMK AC2CS3 SLP339=

CYXE;2005-02-07 19:00;METAR CYXE 071900Z 17013KT 15SM FEW065 SCT250 M17/M23 A3033 RMK AC1CI1 SLP330=

CYXE;2005-02-07 20:00;METAR CYXE 072000Z 17008KT 15SM FEW092 FEW250 M16/M22 A3032 RMK AC1CI1 SLP325=

CYXE;2005-02-07 21:00;METAR CYXE 072100Z 17013KT 15SM FEW083 SCT250 M15/M22 A3029 RMK AC1CI1 SLP314=

CYXE;2005-02-07 22:00;METAR CYXE 072200Z 19009KT 15SM SCT090 M15/M22 A3027 RMK AC3 SLP309=

CYXE;2005-02-07 23:00;METAR CYXE 072300Z 18011KT 15SM BKN085 M16/M21 A3026 RMK AC6 SLP306=

CYXE;2005-02-08 00:00;METAR CYXE 080000Z 17013KT 15SM BKN080 M15/M20 A3025 RMK AC6 SLP298=

CYXE;2005-02-08 01:00;METAR CYXE 080100Z 17013KT 15SM BKN075 M16/M21 A3025 RMK AC6 SLP298=

CYXE;2005-02-08 02:00;METAR CYXE 080200Z 17013KT 15SM BKN080 M16/M21 A3023 RMK AC6 SLP293=

CYXE;2005-02-08 03:00;METAR CYXE 080300Z 17014KT 15SM FEW080 M17/M22 A3022 RMK AC2 SLP288=

CYXE;2005-02-08 04:00;METAR CYXE 080400Z 17009KT 15SM SKC M19/M23 A3021 RMK SLP285=

CYXE;2005-02-08 05:00;METAR CYXE 080500Z 17009KT 15SM FEW080 M19/M23 A3019 RMK AC2 SLP279=

CYXE;2005-02-08 06:00;METAR CYXE 080600Z 17011G16KT 15SM SKC M19/M23 A3017 RMK SLP269=

CYXE;2005-02-08 07:00;METAR CYXE 080700Z 17013KT 15SM SKC M19/M23 A3015 RMK SLP262=

CYXE;2005-02-08 08:00;METAR CYXE 080800Z 17012KT 15SM SKC M19/M23 A3013 RMK SLP257=

CYXE;2005-02-08 09:00;METAR CYXE 080900Z 18011KT 15SM SKC M19/M23 A3012 RMK SLP251=

CYXE;2005-02-08 10:00;METAR CYXE 081000Z 17013KT 15SM SKC M19/M24 A3010 RMK SLP243=

CYXE;2005-02-08 12:00;METAR CYXE 081200Z 18009KT 15SM FEW220 M21/M25 A3007 RMK CI0 SLP233=

CYXE;2005-02-08 13:00;METAR CYXE 081300Z 19009KT 15SM FEW220 M21/M25 A3007 RMK CI0 SLP233=

CYXE;2005-02-08 14:00;METAR CYXE 081400Z 18010KT 15SM SCT220 M21/M25 A3004 RMK CI0 SLP226=

CYXE;2005-02-08 15:00;METAR CYXE 081500Z 19008KT 15SM BKN220 M20/M24 A3004 RMK CI2 SLP225=

CYXE;2005-02-08 16:00;METAR CYXE 081600Z 18007KT 15SM BKN220 M20/M24 A3003 RMK CI3 SLP220=

CYXE;2005-02-08 17:00;METAR CYXE 081700Z 19007KT 15SM BKN240 M19/M23 A3003 RMK CI2 SLP223=

CYXE;2005-02-08 18:00;METAR CYXE 081800Z 19008KT 15SM BKN240 M17/M23 A3002 RMK CI2 SLP217=

CYXE;2005-02-08 19:00;METAR CYXE 081900Z 20009KT 15SM BKN240 M15/M20 A2999 RMK CI2 SLP209=

CYXE;2005-02-08 20:00;METAR CYXE 082000Z 20008KT 15SM SCT110 BKN240 M13/M19 A2998 RMK AC3CI2 SLP205=

CYXE;2005-02-08 21:00;METAR CYXE 082100Z 21005KT 15SM FEW083 BKN240 M12/M18 A2997 RMK AC2CI2 SLP196=

CYXE;2005-02-08 22:00;METAR CYXE 082200Z 24010KT 15SM BKN080 BKN240 M12/M17 A2997 RMK AC5CI2 SLP197=

CYXE;2005-02-08 23:00;METAR CYXE 082300Z 24007KT 15SM FEW080 BKN240 M14/M19 A2998 RMK AC2CI2 SLP200=

CYXE;2005-02-09 00:00;METAR CYXE 090000Z 23006KT 15SM BKN090 BKN240 M17/M20 A2999 RMK AC5CI1 SLP207=

CYXE;2005-02-09 01:00;METAR CYXE 090100Z 23006KT 15SM FEW090 SCT240 M18/M21 A3000 RMK AC1CI0 SLP210=

CYXE;2005-02-09 02:00;METAR CYXE 090200Z 25006KT 15SM FEW090 M21/M24 A3000 RMK AC2 SLP211=

CYXE;2005-02-09 03:00;METAR CYXE 090300Z 25008KT 15SM SKC M21/M25 A3000 RMK SLP213=

CYXE;2005-02-09 04:00;METAR CYXE 090400Z 25007KT 15SM SKC M23/M26 A3000 RMK SLP214=

CYXE;2005-02-09 05:00;METAR CYXE 090500Z 24008KT 15SM FEW060 M24/M28 A3000 RMK SC1 SLP213=

CYXE;2005-02-09 06:00;METAR CYXE 090600Z 22006KT 15SM BKN056 M22/M25 A2999 RMK SC5 SLP210=

CYXE;2005-02-09 07:00;METAR CYXE 090700Z 22005KT 15SM OVC054 M17/M19 A3000 RMK SC8 SLP211=

CYXE;2005-02-09 08:00;METAR CYXE 090800Z 19005KT 15SM OVC054 M16/M18 A2998 RMK SC8 SLP205=

CYXE;2005-02-09 09:00;METAR CYXE 090900Z 18006KT 15SM OVC054 M15/M17 A2997 RMK SC8 SLP192=

CYXE;2005-02-09 10:00;METAR CYXE 091000Z 20008KT 15SM OVC062 M13/M15 A2996 RMK SC8 SLP189=

CYXE;2005-02-09 11:00;METAR CYXE 091100Z 20006KT 15SM -SN OVC068 M12/M13 A2996 RMK AC8 SLP189=

CYXE;2005-02-09 12:00;METAR CYXE 091200Z 22004KT 15SM -SN OVC063 M11/M13 A2996 RMK SC8 SLP191=

CYXE;2005-02-09 13:00;METAR CYXE 091300Z 20008KT 15SM -SN OVC066 M09/M11 A2995 RMK AC7 SLP187=

CYXE;2005-02-09 14:00;METAR CYXE 091400Z 23009KT 15SM FEW025 BKN065 M09/M11 A2994 RMK SC2SC2 SLP183=

CYXE;2005-02-09 15:00;METAR CYXE 091500Z 23010KT 15SM FEW060 M10/M12 A2995 RMK SC1 SLP189=

CYXE;2005-02-09 16:00;METAR CYXE 091600Z 23007KT 15SM SKC M09/M12 A2995 RMK SLP190=

CYXE;2005-02-09 17:00;METAR CYXE 091700Z 23011KT 15SM SKC M08/M11 A2995 RMK SLP190=

CYXE;2005-02-09 18:00;METAR CYXE 091800Z 23010KT 15SM FEW250 M08/M11 A2995 RMK CI1 SLP190=

CYXE;2005-02-09 19:00;METAR CYXE 091900Z 22011KT 15SM FEW250 M07/M11 A2994 RMK CI1 SLP186=

CYXE;2005-02-09 20:00;METAR CYXE 092000Z 22011KT 15SM SKC M06/M10 A2993 RMK SLP182=

CYXE;2005-02-09 21:00;METAR CYXE 092100Z 21011KT 15SM FEW250 M05/M10 A2990 RMK CI1 SLP166=

CYXE;2005-02-09 22:00;METAR CYXE 092200Z 20008KT 15SM SCT250 M05/M10 A2990 RMK CI1 SLP163=

CYXE;2005-02-09 23:00;METAR CYXE 092300Z 21010KT 15SM BKN250 M05/M10 A2990 RMK CI1 SLP163=

CYXE;2005-02-10 00:00;METAR CYXE 100000Z 21010KT 15SM BKN250 M06/M10 A2989 RMK CI2 SLP157=

CYXE;2005-02-10 01:00;METAR CYXE 100100Z 21009KT 15SM OVC250 M06/M10 A2988 RMK CI2 SLP155=

CYXE;2005-02-10 02:00;METAR CYXE 100200Z 21009KT 15SM OVC250 M08/M11 A2986 RMK CI2 SLP150=

CYXE;2005-02-10 03:00;METAR CYXE 100300Z 24007KT 15SM FEW100 BKN250 M11/M12 A2986 RMK AC2CI0 SLP153=

CYXE;2005-02-10 04:00;METAR CYXE 100400Z 23007KT 15SM SCT100 OVC250 M12/M14 A2985 RMK AC2CI2 SLP149=

CYXE;2005-02-10 05:00;METAR CYXE 100500Z 23008KT 15SM BKN095 OVC250 M10/M12 A2984 RMK AC5CI3 SLP144=

CYXE;2005-02-10 06:00;METAR CYXE 100600Z 22007KT 15SM OVC067 M07/M10 A2983 RMK AC8 SLP139=

CYXE;2005-02-10 07:00;METAR CYXE 100700Z 23007KT 15SM OVC051 M07/M10 A2984 RMK SC8 SLP141=

CYXE;2005-02-10 08:00;METAR CYXE 100800Z 23008KT 15SM FEW063 M10/M12 A2985 RMK SC2 SLP143=

CYXE;2005-02-10 09:00;METAR CYXE 100900Z 26012KT 15SM SKC M12/M13 A2986 RMK SLP147=

CYXE;2005-02-10 10:00;METAR CYXE 101000Z 25009KT 15SM SKC M12/M14 A2985 RMK SLP146=

CYXE;2005-02-10 11:00;METAR CYXE 101100Z 25009KT 15SM SKC M14/M16 A2987 RMK SLP152=

CYXE;2005-02-10 12:00;METAR CYXE 101200Z 27010KT 15SM SKC M11/M14 A2989 RMK SLP158=

CYXE;2005-02-10 13:00;METAR CYXE 101300Z 26007KT 15SM SKC M11/M13 A2990 RMK SLP161=

CYXE;2005-02-10 14:00;METAR CYXE 101400Z 26009KT 15SM SKC M13/M14 A2991 RMK SLP166=

CYXE;2005-02-10 15:00;METAR CYXE 101500Z 26005KT 15SM FEW250 M11/M13 A2993 RMK CI0 SLP176=

CYXE;2005-02-10 16:00;METAR CYXE 101600Z 26011KT 15SM BKN250 M11/M13 A2994 RMK CI0 SLP179=

CYXE;2005-02-10 17:00;METAR CYXE 101700Z 25012KT 15SM BKN250 M08/M11 A2996 RMK CI1 SLP185=

CYXE;2005-02-10 18:00;METAR CYXE 101800Z 26011KT 15SM BKN250 M06/M10 A2996 RMK CI2 SLP180=

CYXE;2005-02-10 19:00;METAR CYXE 101900Z 24009KT 15SM BKN250 M05/M09 A2995 RMK CI2 SLP176=

CYXE;2005-02-10 20:00;METAR CYXE 102000Z 23012KT 15SM BKN250 M05/M09 A2994 RMK CI2 SLP175=

CYXE;2005-02-10 21:00;METAR CYXE 102100Z 23012KT 15SM BKN250 M04/M08 A2993 RMK CI2 SLP171=

CYXE;2005-02-10 22:00;METAR CYXE 102200Z 23013KT 15SM BKN250 M04/M08 A2991 RMK CI7 SLP167=

CYXE;2005-02-10 23:00;METAR CYXE 102300Z 24013KT 15SM FEW080 BKN250 M04/M08 A2991 RMK AC1CI6 SLP165=

CYXE;2005-02-11 00:00;METAR CYXE 110000Z 22012KT 15SM FEW080 BKN250 M05/M09 A2990 RMK AC2CI5 SLP163=

CYXE;2005-02-11 01:00;METAR CYXE 110100Z 23011KT 15SM BKN070 M05/M08 A2988 RMK AC7 SLP156=

CYXE;2005-02-11 02:00;METAR CYXE 110200Z 22011KT 15SM FEW070 BKN250 M06/M09 A2986 RMK AC2CI2 SLP150=

CYXE;2005-02-11 03:00;METAR CYXE 110300Z 23012KT 15SM BKN250 M06/M09 A2984 RMK CI5 SLP141=

CYXE;2005-02-11 04:00;METAR CYXE 110400Z 25010KT 15SM BKN250 M05/M09 A2983 RMK CI6 SLP140=

CYXE;2005-02-11 05:00;METAR CYXE 110500Z 24008KT 15SM BKN250 M06/M09 A2981 RMK CI6 SLP132=

CYXE;2005-02-11 06:00;METAR CYXE 110600Z 26006KT 15SM OVC250 M05/M08 A2980 RMK CI8 SLP124=

CYXE;2005-02-11 07:00;METAR CYXE 110700Z 23010KT 15SM FEW250 M06/M09 A2980 RMK CI2 SLP124=

CYXE;2005-02-11 08:00;METAR CYXE 110800Z 23011KT 15SM FEW250 M05/M08 A2981 RMK CI2 SLP128=

CYXE;2005-02-11 09:00;METAR CYXE 110900Z 22009KT 15SM SKC M07/M10 A2979 RMK SLP120=

CYXE;2005-02-11 10:00;METAR CYXE 111000Z 21008KT 15SM SKC M06/M09 A2979 RMK SLP119=

CYXE;2005-02-11 11:00;METAR CYXE 111100Z 21010KT 15SM SKC M05/M09 A2977 RMK SLP114=

CYXE;2005-02-11 12:00;METAR CYXE 111200Z 22009KT 15SM SKC M07/M10 A2977 RMK SLP113=

CYXE;2005-02-11 13:00;METAR CYXE 111300Z 23010KT 15SM SCT250 M08/M11 A2977 RMK CI0 SLP116=

CYXE;2005-02-11 14:00;METAR CYXE 111400Z 23009KT 15SM BKN250 M08/M11 A2977 RMK CI1 SLP116=

CYXE;2005-02-11 15:00;METAR CYXE 111500Z 20009KT 15SM OVC250 M07/M10 A2977 RMK CI2 SLP115=

CYXE;2005-02-11 16:00;METAR CYXE 111600Z 21008KT 15SM FEW100 OVC250 M06/M09 A2978 RMK AC2CI5 SLP119=

CYXE;2005-02-11 17:00;METAR CYXE 111700Z 22008KT 15SM OVC250 M05/M09 A2980 RMK CI5 SLP124=

CYXE;2005-02-11 18:00;METAR CYXE 111800Z 22010KT 15SM OVC250 M04/M07 A2981 RMK CI4 SLP125=

CYXE;2005-02-11 19:00;METAR CYXE 111900Z 22007KT 15SM BKN250 M02/M06 A2979 RMK CI2 SLP119=

CYXE;2005-02-11 20:00;METAR CYXE 112000Z 22009KT 15SM BKN250 M02/M06 A2980 RMK CI1 SLP123=

CYXE;2005-02-11 21:00;METAR CYXE 112100Z 22011KT 15SM BKN250 M02/M06 A2979 RMK CI2 SLP118=

CYXE;2005-02-11 22:00;METAR CYXE 112200Z 22011KT 15SM BKN250 M01/M06 A2979 RMK CI5 SLP118=

CYXE;2005-02-11 23:00;METAR CYXE 112300Z 22006KT 15SM BKN250 M02/M07 A2979 RMK CI6 SLP119=

CYXE;2005-02-12 00:00;METAR CYXE 120000Z 21011KT 15SM BKN250 M01/M06 A2978 RMK CI4 SLP117=

CYXE;2005-02-12 01:00;METAR CYXE 120100Z 21009KT 15SM BKN250 M03/M06 A2978 RMK CI2 SLP115=

CYXE;2005-02-12 02:00;METAR CYXE 120200Z 23009KT 15SM SCT250 M05/M08 A2977 RMK CI1 SLP112=

CYXE;2005-02-12 03:00;METAR CYXE 120300Z 21009KT 15SM SCT250 M06/M09 A2977 RMK CI2 SLP117=

CYXE;2005-02-12 04:00;METAR CYXE 120400Z 22005KT 15SM SCT250 M07/M10 A2976 RMK CI2 SLP113=

CYXE;2005-02-12 05:00;METAR CYXE 120500Z 21009KT 15SM FEW005 SCT250 M06/M08 A2976 RMK ST1CI1 SLP113=

CYXE;2005-02-12 06:00;METAR CYXE 120600Z 18007KT 15SM FEW005 FEW250 M06/M08 A2974 RMK ST1CI0 SLP102=

CYXE;2005-02-12 07:00;METAR CYXE 120700Z 16006KT 15SM SKC M07/M09 A2972 RMK SLP095=

CYXE;2005-02-12 08:00;METAR CYXE 120800Z 19006KT 15SM SKC M08/M10 A2969 RMK SLP088=

CYXE;2005-02-12 09:00;METAR CYXE 120900Z 15006KT 15SM SKC M07/M10 A2968 RMK SLP082=

CYXE;2005-02-12 10:00;METAR CYXE 121000Z 14007KT 15SM SKC M08/M10 A2966 RMK SLP075=

CYXE;2005-02-12 11:00;METAR CYXE 121100Z 17005KT 15SM SKC M07/M10 A2964 RMK SLP069=

CYXE;2005-02-12 12:00;METAR CYXE 121200Z 18005KT 15SM SKC M08/M10 A2962 RMK SLP061=

CYXE;2005-02-12 13:00;METAR CYXE 121300Z 16005KT 15SM SKC M09/M12 A2959 RMK SLP052=

CYXE;2005-02-12 14:00;METAR CYXE 121400Z 17007KT 15SM BKN250 M08/M12 A2958 RMK CI1 SLP047=

CYXE;2005-02-12 15:00;METAR CYXE 121500Z 15008KT 15SM BKN250 M07/M11 A2955 RMK CI2 SLP040=

CYXE;2005-02-12 16:00;METAR CYXE 121600Z 15008KT 15SM OVC250 M05/M11 A2953 RMK CI3 SLP033=

CYXE;2005-02-12 17:00;METAR CYXE 121700Z 16006KT 15SM OVC250 M03/M10 A2951 RMK CI3 SLP028=

CYXE;2005-02-12 18:00;METAR CYXE 121800Z 16008KT 15SM OVC250 M01/M08 A2949 RMK CI5 SLP014=

CYXE;2005-02-12 19:00;METAR CYXE 121900Z 18008KT 15SM FEW120 OVC250 01/M07 A2946 RMK AC2CI5 SLP005=

CYXE;2005-02-12 20:00;METAR CYXE 122000Z 18012KT 15SM FEW120 OVC250 02/M06 A2943 RMK AC2CI6 SLP996=

CYXE;2005-02-12 21:00;METAR CYXE 122100Z 18010KT 15SM FEW100 OVC250 01/M06 A2941 RMK AC2CS6 SLP985=

CYXE;2005-02-12 22:00;METAR CYXE 122200Z 20005KT 15SM SCT100 OVC200 01/M05 A2941 RMK AC3CS5 SLP985=

CYXE;2005-02-12 23:00;METAR CYXE 122300Z 20008KT 15SM BKN090 OVC200 01/M04 A2939 RMK AC5CS3 SLP981=

CYXE;2005-02-13 00:00;METAR CYXE 130000Z 23010KT 15SM SCT090 OVC200 M01/M05 A2940 RMK AC3CS5 SLP984=

CYXE;2005-02-13 01:00;METAR CYXE 130100Z 25008KT 15SM SCT100 OVC200 M02/M05 A2940 RMK AC3CS5 SLP986=

CYXE;2005-02-13 02:00;METAR CYXE 130200Z 27008KT 15SM BKN100 OVC200 M03/M06 A2941 RMK AC6CS2 SLP988=

CYXE;2005-02-13 03:00;METAR CYXE 130300Z 25005KT 15SM OVC100 M04/M07 A2942 RMK AS8 SLP993=

CYXE;2005-02-13 04:00;METAR CYXE 130400Z 25008KT 15SM BKN100 OVC200 M05/M08 A2941 RMK AS6CS2 SLP991=

CYXE;2005-02-13 05:00;METAR CYXE 130500Z 27011KT 15SM FEW100 BKN200 M04/M08 A2942 RMK AC2CI2 SLP995=

CYXE;2005-02-13 06:00;METAR CYXE 130600Z 24003KT 15SM FEW100 BKN200 M07/M10 A2945 RMK AC2CI2 SLP001=

CYXE;2005-02-13 07:00;METAR CYXE 130700Z 29010KT 15SM FEW100 SCT200 M07/M11 A2946 RMK AC1CI2 SLP004=

CYXE;2005-02-13 08:00;METAR CYXE 130800Z 27008KT 15SM SCT200 M07/M11 A2946 RMK CI2 SLP004=

CYXE;2005-02-13 09:00;METAR CYXE 130900Z 30010KT 15SM FEW200 M07/M11 A2948 RMK CI1 SLP012=

CYXE;2005-02-13 10:00;METAR CYXE 131000Z 28008KT 15SM FEW200 M09/M12 A2949 RMK CI1 SLP015=

CYXE;2005-02-13 11:00;METAR CYXE 131100Z 28009KT 15SM SKC M08/M11 A2950 RMK SLP019=

CYXE;2005-02-13 12:00;METAR CYXE 131200Z 23006KT 15SM SKC M09/M11 A2950 RMK SLP022=

CYXE;2005-02-13 13:00;METAR CYXE 131300Z 22006KT 15SM FEW220 M11/M13 A2952 RMK CI1 SLP026=

CYXE;2005-02-13 14:00;METAR CYXE 131400Z 22007KT 10SM BKN100 M11/M13 A2953 RMK AC5 SLP029=

CYXE;2005-02-13 15:00;METAR CYXE 131500Z 18005KT 15SM FEW100 BKN200 M09/M12 A2954 RMK AC2CI4 SLP036=

CYXE;2005-02-13 16:00;METAR CYXE 131600Z 18003KT 15SM SCT100 BKN200 M08/M11 A2953 RMK AC4CI3 SLP034=

CYXE;2005-02-13 17:00;METAR CYXE 131700Z 24005KT 15SM BKN100 BKN200 M05/M09 A2955 RMK AC5CI1 SLP039=

CYXE;2005-02-13 18:00;METAR CYXE 131800Z 00000KT 15SM BKN100 M04/M09 A2955 RMK AC7 SLP039=

CYXE;2005-02-13 19:00;METAR CYXE 131900Z 22008KT 15SM BKN090 M03/M07 A2956 RMK AC7 SLP041=

CYXE;2005-02-13 20:00;METAR CYXE 132000Z 31006KT 15SM BKN090 M02/M07 A2955 RMK AC7 SLP038=

CYXE;2005-02-13 21:00;METAR CYXE 132100Z 31009KT 15SM -SN BKN085 M01/M04 A2958 RMK AC7 SLP045=

CYXE;2005-02-13 21:50;SPECI CYXE 132150Z 32014KT 2SM -SN OVC060 RMK SN3SC5=

CYXE;2005-02-13 22:00;METAR CYXE 132200Z 32012KT 3SM -SN OVC045 M01/M02 A2959 RMK SC8 SLP048=

CYXE;2005-02-13 22:16;SPECI CYXE 132216Z 31011KT 2SM -SN OVC042 RMK SN4SC4=

CYXE;2005-02-13 22:23;SPECI CYXE 132223Z 31012KT 1SM R09/P6000FT/N -SN VV008 RMK SN8=

CYXE;2005-02-13 22:28;SPECI CYXE 132228Z 31010KT 1/2SM R09/4500VP6000FT/D SN VV004 RMK SN8=

CYXE;2005-02-13 22:36;SPECI CYXE 132236Z 31010KT 3/8SM R09/3500V5000FT/D SN VV002 RMK SN8=

CYXE;2005-02-13 22:45;SPECI CYXE 132245Z 34009KT 3/4SM R09/4000VP6000FT/U -SN VV002 RMK SN8=

CYXE;2005-02-13 22:50;SPECI CYXE 132250Z 35008KT 1SM R09/4500VP6000FT/U -SN BKN012 OVC050 RMK SN4SF1SC3=

CYXE;2005-02-13 22:53;SPECI CYXE 132253Z 36008KT 4SM -SN SCT002 OVC044 RMK SN2SF2SC5=

CYXE;2005-02-13 23:17;SPECI CYXE 132317Z 31010KT 15SM FEW009 SCT016 BKN044 OVC074 RMK SF1SC4SC2AC2=

CYXE;2005-02-14 00:00;METAR CYXE 140000Z 29009KT 15SM BKN076 BKN200 M02/M04 A2962 RMK AC5CI1 SLP063=

CYXE;2005-02-14 01:00;METAR CYXE 140100Z 29008KT 15SM FEW097 BKN220 M04/M06 A2964 RMK AC2CI2 SLP068=

CYXE;2005-02-14 02:00;METAR CYXE 140200Z 30010KT 15SM SCT220 M06/M09 A2966 RMK CI2 SLP075=

CYXE;2005-02-14 03:00;METAR CYXE 140300Z 30010KT 15SM BKN220 M04/M08 A2967 RMK CI2 SLP082=

CYXE;2005-02-14 04:00;METAR CYXE 140400Z 30012KT 15SM BKN048 M05/M08 A2969 RMK SC6 SLP087=

CYXE;2005-02-14 05:00;METAR CYXE 140500Z 31012KT 15SM BKN048 M06/M09 A2970 RMK SC6 SLP092=

CYXE;2005-02-14 06:00;METAR CYXE 140600Z 34010KT 15SM FEW045 M10/M12 A2973 RMK SC2 SLP102=

CYXE;2005-02-14 07:00;METAR CYXE 140700Z 30007KT 15SM SKC M13/M14 A2976 RMK SLP113=

CYXE;2005-02-14 08:00;METAR CYXE 140800Z 29009KT 15SM FEW045 M15/M16 A2979 RMK SC1 SLP123=

CYXE;2005-02-14 09:00;METAR CYXE 140900Z 32009KT 15SM SKC M17/M19 A2981 RMK SLP133=

CYXE;2005-02-14 10:00;METAR CYXE 141000Z 32007KT 15SM SKC M20/M21 A2983 RMK SLP138=

CYXE;2005-02-14 11:00;METAR CYXE 141100Z 31010KT 15SM FEW250 M17/M20 A2985 RMK CI0 SLP145=

CYXE;2005-02-14 12:00;METAR CYXE 141200Z 31008KT 15SM FEW250 M18/M21 A2986 RMK CI1 SLP153=

CYXE;2005-02-14 14:00;METAR CYXE 141400Z 32009KT 15SM BKN250 M18/M20 A2989 RMK CI2 SLP162=

CYXE;2005-02-14 15:00;METAR CYXE 141500Z 30005KT 15SM FEW100 SCT250 M19/M21 A2991 RMK AC1CI1 SLP171=

CYXE;2005-02-14 16:00;METAR CYXE 141600Z 28006KT 15SM BKN250 M18/M20 A2993 RMK CI2 SLP177=

CYXE;2005-02-14 17:00;METAR CYXE 141700Z 19003KT 15SM BKN250 M16/M20 A2994 RMK CI3 SLP180=

CYXE;2005-02-14 18:00;METAR CYXE 141800Z 24005KT 15SM BKN250 M15/M19 A2995 RMK CI2 SLP184=

CYXE;2005-02-14 19:00;METAR CYXE 141900Z 23007KT 15SM BKN250 M14/M18 A2995 RMK CI4 SLP183=

CYXE;2005-02-14 20:00;METAR CYXE 142000Z 22007KT 15SM BKN250 M13/M17 A2993 RMK CS4 SLP178=

CYXE;2005-02-14 21:00;METAR CYXE 142100Z 22006KT 15SM SCT250 M11/M16 A2991 RMK CI2 SLP174=

CYXE;2005-02-14 22:00;METAR CYXE 142200Z 22007KT 15SM FEW100 SCT250 M11/M16 A2990 RMK AC2CI1 SLP171=

CYXE;2005-02-14 23:00;METAR CYXE 142300Z 23010KT 15SM FEW066 SCT250 M11/M15 A2990 RMK AC2CI1 SLP169=

CYXE;2005-02-15 00:00;METAR CYXE 150000Z 22011KT 15SM FEW053 SCT250 M11/M15 A2989 RMK SC2CI1 SLP168=

CYXE;2005-02-15 01:00;METAR CYXE 150100Z 26004KT 15SM FEW061 SCT250 M13/M15 A2991 RMK SC2CI0 SLP174=

CYXE;2005-02-15 02:00;METAR CYXE 150200Z 23010KT 15SM SKC M16/M18 A2991 RMK SLP175=

CYXE;2005-02-15 04:00;METAR CYXE 150400Z 24010KT 15SM FEW063 OVC250 M14/M16 A2991 RMK SC2CS2 SLP180=

CYXE;2005-02-15 04:18;SPECI CYXE 150418Z 25009KT 6SM -SN BKN054 OVC250 RMK SC4CS2=

CYXE;2005-02-15 04:27;SPECI CYXE 150427Z 25009KT 1 1/2SM -SN OVC054 RMK SN4SC4=

CYXE;2005-02-15 04:46;SPECI CYXE 150446Z 23008KT 3/4SM R09/P6000FT/D -SN VV005 RMK SN8 TOWER OBS=

CYXE;2005-02-15 05:00;METAR CYXE 150500Z 23009KT 1 1/2SM -SN OVC017 M11/M13 A2992 RMK SN6SC2 TOWER OBS SLP183=

CYXE;2005-02-15 05:20;SPECI CYXE 150520Z 23008KT 3SM -SN OVC022 RMK SC8=

CYXE;2005-02-15 05:27;SPECI CYXE 150527Z 23007KT 1 1/2SM -SN OVC022 RMK SN6SC2 TOWER OBS=

CYXE;2005-02-15 05:41;SPECI CYXE 150541Z 23008KT 1SM R09/P6000FT/D -SN OVC022 RMK SN6SC2 TOWER OBS=

CYXE;2005-02-15 06:00;METAR CYXE 150600Z 26007KT 2SM -SN OVC022 M10/M11 A2993 RMK SN6SC2 SLP177=

CYXE;2005-02-15 06:10;SPECI CYXE 150610Z 29008KT 4SM -SN OVC022 RMK SC8=

CYXE;2005-02-15 06:18;SPECI CYXE 150618Z 31012KT 15SM -SN BKN022 BKN070 RMK SC5AC1=

CYXE;2005-02-15 07:00;METAR CYXE 150700Z 30014KT 15SM -SN OVC035 M11/M13 A2995 RMK SC8 SLP184=

CYXE;2005-02-15 08:00;METAR CYXE 150800Z 32013KT 4SM -SN OVC015 M12/M14 A2995 RMK SN6SC2 SLP185=

CYXE;2005-02-15 08:09;SPECI CYXE 150809Z 31013KT 1 1/2SM -SN VV009 RMK SN8=

CYXE;2005-02-15 08:41;SPECI CYXE 150841Z 30014KT 6SM -SN BKN012 OVC065 RMK SC6SC2=

CYXE;2005-02-15 09:00;METAR CYXE 150900Z 31014KT 6SM -SN DRSN SCT015 OVC040 M13/M15 A2996 RMK SC3SC5 SLP187=

CYXE;2005-02-15 10:00;METAR CYXE 151000Z 36013KT 3SM -SN DRSN OVC012 M13/M15 A2997 RMK SN5SC3 SLP191=

CYXE;2005-02-15 10:15;SPECI CYXE 151015Z 36010KT 1SM R09/P6000FT/D -SN DRSN VV005 RMK SN8=

CYXE;2005-02-15 10:36;SPECI CYXE 151036Z 36014KT 3SM -SN DRSN VV015 RMK SN8=

CYXE;2005-02-15 11:00;METAR CYXE 151100Z 36013KT 2 1/2SM -SN DRSN VV015 M14/M16 A3000 RMK SN8 SLP200=

CYXE;2005-02-15 12:00;METAR CYXE 151200Z 35010KT 2 1/2SM -SN VV015 M14/M16 A3002 RMK SN8 SLP210=

CYXE;2005-02-15 12:15;SPECI CYXE 151215Z 36010KT 4SM -SN OVC015 RMK SN5SC3=

CYXE;2005-02-15 13:00;METAR CYXE 151300Z 34009KT 15SM -SN BKN025 BKN065 M16/M18 A3004 RMK SC5SC2 SLP217=

CYXE;2005-02-15 14:00;METAR CYXE 151400Z 26005KT 15SM FEW030 M18/M19 A3007 RMK SC2 SLP224=

CYXE;2005-02-15 14:37;SPECI CYXE 151437Z 29006KT 15SM BKN010 RMK SC5=

CYXE;2005-02-15 15:00;METAR CYXE 151500Z 29010KT 15SM BKN020 M18/M20 A3008 RMK SC6 SLP235=

CYXE;2005-02-15 16:00;METAR CYXE 151600Z 30013KT 15SM FEW020 BKN070 M17/M20 A3009 RMK SC1AC6 SLP241=

CYXE;2005-02-15 16:47;SPECI CYXE 151647Z 29011KT 15SM SCT080 RMK AC2=

CYXE;2005-02-15 17:00;METAR CYXE 151700Z 28008KT 15SM FEW080 M17/M20 A3010 RMK AC2 SLP243=

CYXE;2005-02-15 18:00;METAR CYXE 151800Z 28008KT 15SM BKN030 BKN090 M16/M21 A3011 RMK SC5AC1 SLP242=

CYXE;2005-02-15 19:00;METAR CYXE 151900Z 28010KT 15SM SCT020 SCT090 M15/M20 A3011 RMK SC3AC0 SLP240=

CYXE;2005-02-15 20:00;METAR CYXE 152000Z 30011KT 15SM SCT020 M14/M19 A3010 RMK SC2 SLP239=

CYXE;2005-02-15 21:00;METAR CYXE 152100Z 28009KT 15SM FEW020 SCT120 M14/M18 A3009 RMK SC2CI0 SLP236=

CYXE;2005-02-15 22:00;METAR CYXE 152200Z 30010KT 15SM FEW020 FEW120 BKN220 M14/M18 A3010 RMK SC2AC1CI1 SLP238=

CYXE;2005-02-15 23:00;METAR CYXE 152300Z 31015KT 15SM -SN DRSN BKN086 OVC220 M14/M18 A3011 RMK AC5CI1 SLP241=

CYXE;2005-02-15 23:26;SPECI CYXE 152326Z 30013KT 15SM DRSN BKN086 BKN220 RMK AC3CI2=

CYXE;2005-02-16 00:00;METAR CYXE 160000Z 29010KT 15SM FEW080 SCT220 M15/M20 A3012 RMK AC2CI0 SLP246=

CYXE;2005-02-16 01:00;METAR CYXE 160100Z 30009KT 15SM FEW092 FEW220 M17/M21 A3013 RMK AC1CI0 SLP250=

CYXE;2005-02-16 02:00;METAR CYXE 160200Z 29010KT 15SM SKC M19/M23 A3014 RMK SLP254=

CYXE;2005-02-16 03:00;METAR CYXE 160300Z 29009KT 15SM SKC M21/M24 A3015 RMK SLP265=

CYXE;2005-02-16 04:00;METAR CYXE 160400Z 28007KT 15SM BKN050 M20/M23 A3017 RMK SC7 SLP271=

CYXE;2005-02-16 05:00;METAR CYXE 160500Z 26007KT 15SM BKN031 OVC047 M18/M22 A3017 RMK SC6SC2 SLP272=

CYXE;2005-02-16 05:06;SPECI CYXE 160506Z 26008KT 15SM -SN BKN028 OVC047 RMK SC6SC2=

CYXE;2005-02-16 06:00;METAR CYXE 160600Z 24005KT 15SM -SN OVC032 M17/M20 A3017 RMK SC8 SLP268=

CYXE;2005-02-16 07:00;METAR CYXE 160700Z 23006KT 15SM -SN BKN045 M17/M21 A3017 RMK SC7 SLP267=

CYXE;2005-02-16 07:14;SPECI CYXE 160714Z 25005KT 15SM OVC049 RMK SC8=

CYXE;2005-02-16 09:00;METAR CYXE 160900Z 23007KT 15SM BKN050 M20/M23 A3015 RMK SC6 SLP261=

CYXE;2005-02-16 10:00;METAR CYXE 161000Z 25008KT 15SM BKN050 M19/M23 A3014 RMK SC7 SLP258=

CYXE;2005-02-16 11:00;METAR CYXE 161100Z 25006KT 15SM BKN050 M20/M23 A3014 RMK SC6 SLP256=

CYXE;2005-02-16 12:00;METAR CYXE 161200Z 25006KT 15SM BKN047 M18/M22 A3013 RMK SC7 SLP253=

CYXE;2005-02-16 13:00;METAR CYXE 161300Z 25004KT 15SM BKN050 M17/M21 A3012 RMK SC7 SLP251=

CYXE;2005-02-16 14:00;METAR CYXE 161400Z 25006KT 15SM BKN060 M17/M21 A3012 RMK SC6 SLP249=

CYXE;2005-02-16 15:00;METAR CYXE 161500Z 25007KT 15SM BKN060 M17/M21 A3011 RMK SC6 SLP249=

CYXE;2005-02-16 16:00;METAR CYXE 161600Z 26006KT 15SM BKN060 M16/M20 A3011 RMK SC5 SLP248=

CYXE;2005-02-16 17:00;METAR CYXE 161700Z 27005KT 15SM BKN060 BKN220 M15/M20 A3011 RMK SC4CI1 SLP248=

CYXE;2005-02-16 18:00;METAR CYXE 161800Z 21006KT 15SM SCT060 M13/M19 A3011 RMK SC2 SLP242=

CYXE;2005-02-16 19:00;METAR CYXE 161900Z 21006KT 15SM FEW060 FEW230 M12/M18 A3009 RMK SC1CI1 SLP238=

CYXE;2005-02-16 20:00;METAR CYXE 162000Z 00000KT 15SM FEW220 M11/M16 A3008 RMK CI1 SLP233=

CYXE;2005-02-16 21:00;METAR CYXE 162100Z 26003KT 15SM FEW220 M08/M15 A3006 RMK CI1 SLP224=

CYXE;2005-02-16 22:00;METAR CYXE 162200Z 26002KT 15SM BKN220 M08/M15 A3005 RMK CI2 SLP222=

CYXE;2005-02-16 23:00;METAR CYXE 162300Z 23007KT 15SM BKN250 M12/M15 A3005 RMK CI4 SLP222=

CYXE;2005-02-17 00:00;METAR CYXE 170000Z 21004KT 15SM FEW100 OVC250 M13/M15 A3005 RMK AC2CS4 SLP222=

CYXE;2005-02-17 01:00;METAR CYXE 170100Z 25008KT 15SM FEW100 OVC250 M15/M17 A3006 RMK AC2CS2 SLP226=

CYXE;2005-02-17 02:00;METAR CYXE 170200Z 25006KT 15SM OVC250 M15/M17 A3006 RMK CS5 SLP227=

CYXE;2005-02-17 03:00;METAR CYXE 170300Z 10003KT 15SM OVC250 M15/M17 A3007 RMK CS5 SLP231=

CYXE;2005-02-17 04:00;METAR CYXE 170400Z 22004KT 15SM BKN250 M16/M18 A3009 RMK CS2 SLP237=

CYXE;2005-02-17 05:00;METAR CYXE 170500Z 27002KT 15SM BKN250 M16/M17 A3011 RMK CS2 SLP243=

CYXE;2005-02-17 06:00;METAR CYXE 170600Z 06004KT 15SM FEW120 BKN250 M17/M19 A3010 RMK AC2CI2 SLP241=

CYXE;2005-02-17 07:00;METAR CYXE 170700Z 05006KT 15SM BKN100 OVC250 M17/M19 A3012 RMK AC5CI1 SLP245=

CYXE;2005-02-17 08:00;METAR CYXE 170800Z 07005KT 15SM SCT090 BKN250 M17/M19 A3013 RMK AC4CI1 SLP251=

CYXE;2005-02-17 09:00;METAR CYXE 170900Z 06005KT 15SM FEW090 BKN250 M19/M21 A3015 RMK AC1CI2 SLP257=

CYXE;2005-02-17 10:00;METAR CYXE 171000Z 08005KT 15SM OVC250 M20/M21 A3016 RMK CI3 SLP260=

CYXE;2005-02-17 11:00;METAR CYXE 171100Z 08006KT 15SM OVC250 M20/M22 A3018 RMK CI2 SLP266=

CYXE;2005-02-17 12:00;METAR CYXE 171200Z 12005KT 15SM BKN090 OVC250 M18/M19 A3021 RMK AC6CI2 SLP279=

CYXE;2005-02-17 13:00;METAR CYXE 171300Z 11007KT 15SM SCT080 OVC250 M17/M19 A3022 RMK AC3CI1 SLP281=

CYXE;2005-02-17 14:00;METAR CYXE 171400Z 12005KT 15SM OVC063 M18/M19 A3022 RMK SC7 SLP281=

CYXE;2005-02-17 15:00;METAR CYXE 171500Z 14003KT 15SM BKN059 OVC140 M17/M18 A3023 RMK SC6AC2 SLP285=

CYXE;2005-02-17 16:00;METAR CYXE 171600Z 17005KT 15SM BKN050 OVC140 M16/M18 A3022 RMK SC6AS2 SLP284=

CYXE;2005-02-17 17:00;METAR CYXE 171700Z 17005KT 4SM -SN BKN044 OVC095 M15/M17 A3023 RMK SC7AC1 SLP287=

CYXE;2005-02-17 18:00;METAR CYXE 171800Z 18007KT 3SM -SN SCT035 OVC220 M14/M16 A3022 RMK SC4CI2 SLP283=

CYXE;2005-02-17 18:16;SPECI CYXE 171816Z 18006KT 15SM FEW039 BKN220 RMK SC2CI2 IC=

CYXE;2005-02-17 18:41;SPECI CYXE 171841Z 18008KT 3SM -SN OVC031 RMK SC6=

CYXE;2005-02-17 19:00;METAR CYXE 171900Z 18010KT 6SM -SN BKN031 M12/M15 A3021 RMK SC6 SLP277=

CYXE;2005-02-17 20:00;METAR CYXE 172000Z 19009KT 4SM -SN FEW027 BKN036 OVC077 M10/M13 A3018 RMK SC2SC4AC1 SLP268=

CYXE;2005-02-17 20:22;SPECI CYXE 172022Z 20010KT 2SM -SN OVC027 RMK SC8=

CYXE;2005-02-17 20:44;SPECI CYXE 172044Z 18009KT 5SM -SN OVC024 RMK SC7=

CYXE;2005-02-17 21:00;METAR CYXE 172100Z 19010KT 8SM -SN OVC024 M10/M12 A3016 RMK SC7 SLP260=

CYXE;2005-02-17 22:00;METAR CYXE 172200Z 19009KT 4SM -SN BKN010 OVC045 M09/M11 A3014 RMK SC4SC4 VIS N 2 SLP254=

CYXE;2005-02-17 23:00;METAR CYXE 172300Z 21006KT 2SM -SN OVC016 M08/M10 A3013 RMK SC8 SLP252=

CYXE;2005-02-18 00:00;METAR CYXE 180000Z 22006KT 4SM -SN SCT016 OVC030 M07/M09 A3012 RMK SC4SC4 SLP246=

CYXE;2005-02-18 01:00;METAR CYXE 180100Z 30010KT 15SM -SN BKN025 BKN093 M07/M08 A3014 RMK SC5AC2 SLP250=

CYXE;2005-02-18 01:29;SPECI CYXE 180129Z 31011KT 12SM BKN025 BKN093 RMK SC5AC2=

CYXE;2005-02-18 02:00;METAR CYXE 180200Z 30011KT 12SM OVC025 M07/M09 A3015 RMK SC8 SLP254=

CYXE;2005-02-18 02:20;SPECI CYXE 180220Z 30011KT 10SM -SN OVC028 RMK SC8=

CYXE;2005-02-18 03:00;METAR CYXE 180300Z 31011KT 10SM -SN OVC032 M07/M09 A3015 RMK SC8 SLP254=

CYXE;2005-02-18 04:00;METAR CYXE 180400Z 33017KT 10SM -SN OVC025 M07/M10 A3017 RMK SC8 SLP258=

CYXE;2005-02-18 04:38;SPECI CYXE 180438Z 33013KT 12SM BKN027 RMK SC6=

CYXE;2005-02-18 05:00;METAR CYXE 180500Z 32014KT 15SM BKN027 M09/M12 A3018 RMK SC6 SLP263=

CYXE;2005-02-18 06:00;METAR CYXE 180600Z 34012KT 15SM BKN028 M10/M13 A3020 RMK SC7 SLP270=

CYXE;2005-02-18 07:00;METAR CYXE 180700Z 32007KT 15SM OVC028 M11/M14 A3021 RMK SC8 SLP275=

CYXE;2005-02-18 07:06;SPECI CYXE 180706Z 35006KT 15SM -SN OVC026 RMK SC8=

CYXE;2005-02-18 08:00;METAR CYXE 180800Z 33007KT 15SM -SN BKN026 M11/M14 A3022 RMK SC7 SLP277=

CYXE;2005-02-18 08:12;SPECI CYXE 180812Z 32010KT 15SM BKN026 RMK SC7=

CYXE;2005-02-18 09:00;METAR CYXE 180900Z 34006KT 15SM SCT025 M13/M16 A3024 RMK SC2 SLP282=

CYXE;2005-02-18 10:00;METAR CYXE 181000Z 33009KT 15SM SKC M18/M19 A3024 RMK SLP282=

CYXE;2005-02-18 11:00;METAR CYXE 181100Z 29004KT 15SM SKC M21/M23 A3024 RMK SLP283=

CYXE;2005-02-18 12:00;METAR CYXE 181200Z 32005KT 15SM SKC M20/M22 A3024 RMK SLP286=

CYXE;2005-02-18 13:00;METAR CYXE 181300Z 30006KT 15SM SKC M21/M22 A3025 RMK SLP289=

CYXE;2005-02-18 14:00;METAR CYXE 181400Z 33007KT 15SM FEW220 M22/M23 A3024 RMK CI0 SLP288=

CYXE;2005-02-18 15:00;METAR CYXE 181500Z 24006KT 15SM FEW220 M24/M27 A3026 RMK CI1 SLP294=

CYXE;2005-02-18 16:00;METAR CYXE 181600Z 27003KT 15SM FEW220 M22/M25 A3025 RMK CI1 SLP292=

CYXE;2005-02-18 17:00;METAR CYXE 181700Z 00000KT 15SM SCT220 M20/M23 A3026 RMK CI1 SLP294=

CYXE;2005-02-18 18:00;METAR CYXE 181800Z 00000KT 15SM BKN220 M17/M21 A3025 RMK CI2 SLP288=

CYXE;2005-02-18 19:00;METAR CYXE 181900Z 07002KT 15SM OVC220 M15/M20 A3022 RMK CI2 SLP281=

CYXE;2005-02-18 20:00;METAR CYXE 182000Z 06005KT 15SM OVC220 M13/M17 A3021 RMK CI2 SLP275=

CYXE;2005-02-18 21:00;METAR CYXE 182100Z 25005KT 15SM BKN220 M13/M17 A3019 RMK CI2 SLP267=

CYXE;2005-02-18 22:00;METAR CYXE 182200Z 33002KT 15SM FEW220 M14/M19 A3017 RMK CI1 SLP261=

CYXE;2005-02-18 23:00;METAR CYXE 182300Z 12007KT 15SM FEW220 M14/M18 A3017 RMK CI1 SLP260=

CYXE;2005-02-19 00:00;METAR CYXE 190000Z 12006KT 15SM BKN220 M15/M19 A3015 RMK CI2 SLP261=

CYXE;2005-02-19 01:00;METAR CYXE 190100Z 12006KT 15SM BKN220 M17/M20 A3014 RMK CI2 SLP258=

CYXE;2005-02-19 02:00;METAR CYXE 190200Z 12007KT 15SM BKN220 M17/M20 A3013 RMK CI2 SLP256=

CYXE;2005-02-19 03:00;METAR CYXE 190300Z 11007KT 15SM SCT220 M17/M20 A3012 RMK CI1 SLP256=

CYXE;2005-02-19 04:00;METAR CYXE 190400Z 13007KT 15SM FEW220 M18/M21 A3013 RMK CI1 SLP257=

CYXE;2005-02-19 05:00;METAR CYXE 190500Z 12009KT 15SM FEW220 M18/M21 A3013 RMK CI1 SLP259=

CYXE;2005-02-19 06:00;METAR CYXE 190600Z 12007KT 15SM FEW220 M18/M21 A3013 RMK CI1 SLP255=

CYXE;2005-02-19 06:26;SPECI CYXE 190626Z 12006KT 15SM FEW250 RMK CI1 IC=

CYXE;2005-02-19 07:00;METAR CYXE 190700Z 11006KT 15SM FEW250 M18/M22 A3012 RMK CI1 IC SLP252=

CYXE;2005-02-19 08:00;METAR CYXE 190800Z 09008KT 15SM SCT250 M20/M23 A3011 RMK CI2 IC SLP248=

CYXE;2005-02-19 09:00;METAR CYXE 190900Z 08007KT 3SM IC FEW100 BKN250 M20/M23 A3010 RMK AC1CI1 SLP242=

CYXE;2005-02-19 10:00;METAR CYXE 191000Z 11003KT 12SM SCT250 M23/M26 A3010 RMK CI2 IC SLP241=

CYXE;2005-02-19 11:00;METAR CYXE 191100Z 11007KT 12SM SCT250 M20/M23 A3008 RMK CI2 IC SLP236=

CYXE;2005-02-19 12:00;METAR CYXE 191200Z 09007KT 3SM IC SCT250 M23/M27 A3008 RMK CI2 SLP240=

CYXE;2005-02-19 13:00;METAR CYXE 191300Z 05008KT 12SM FEW100 SCT250 M24/M28 A3008 RMK AC1CI1 IC SLP241=

CYXE;2005-02-19 13:47;SPECI CYXE 191347Z 07008KT 15SM BKN100 RMK AC6=

CYXE;2005-02-19 14:00;METAR CYXE 191400Z 08008KT 15SM BKN100 M21/M25 A3007 RMK AC6 SLP237=

CYXE;2005-02-19 15:00;METAR CYXE 191500Z 11007KT 10SM BKN096 BKN250 M18/M21 A3007 RMK AC3CI1 SLP234=

CYXE;2005-02-19 16:00;METAR CYXE 191600Z 12005KT 10SM SCT097 BKN250 M18/M21 A3008 RMK AC2CI2 SLP236=

CYXE;2005-02-19 17:00;METAR CYXE 191700Z 12009KT 15SM SCT093 BKN250 M17/M21 A3007 RMK AC2CI1 SLP234=

CYXE;2005-02-19 18:00;METAR CYXE 191800Z 12008KT 15SM BKN099 BKN250 M17/M21 A3007 RMK AC3CI1 SLP233=

CYXE;2005-02-19 19:00;METAR CYXE 191900Z 12008KT 15SM FEW096 BKN250 M16/M20 A3006 RMK AC1CI2 SLP229=

CYXE;2005-02-19 20:00;METAR CYXE 192000Z 11008KT 15SM FEW098 BKN250 M15/M19 A3004 RMK AC1CI3 SLP225=

CYXE;2005-02-19 21:00;METAR CYXE 192100Z 11009KT 15SM FEW065 SCT098 BKN250 M14/M19 A3003 RMK SC2AC2CI2 SLP217=

CYXE;2005-02-19 22:00;METAR CYXE 192200Z 09013KT 15SM BKN063 OVC250 M14/M18 A3001 RMK SC6CI1 SLP212=

CYXE;2005-02-19 23:00;METAR CYXE 192300Z 12013KT 15SM BKN063 OVC250 M13/M18 A3000 RMK SC6CI2 SLP208=

CYXE;2005-02-20 00:00;METAR CYXE 200000Z 11009KT 15SM OVC063 M13/M18 A2999 RMK SC8 SLP206=

CYXE;2005-02-20 01:00;METAR CYXE 200100Z 09009KT 15SM OVC065 M14/M18 A3000 RMK SC8 SLP210=

CYXE;2005-02-20 02:00;METAR CYXE 200200Z 11007KT 15SM OVC065 M14/M18 A3001 RMK SC8 SLP212=

CYXE;2005-02-20 03:00;METAR CYXE 200300Z 11007KT 15SM OVC060 M14/M18 A2999 RMK SC8 SLP205=

CYXE;2005-02-20 04:00;METAR CYXE 200400Z 12008KT 15SM OVC060 M15/M19 A2999 RMK SC8 SLP203=

CYXE;2005-02-20 05:00;METAR CYXE 200500Z 13008KT 15SM OVC062 M15/M19 A2997 RMK SC8 SLP198=

CYXE;2005-02-20 06:00;METAR CYXE 200600Z 11005KT 15SM OVC055 M14/M19 A2997 RMK SC8 SLP196=

CYXE;2005-02-20 07:00;METAR CYXE 200700Z 14002KT 15SM OVC055 M14/M18 A2996 RMK SC8 SLP193=

CYXE;2005-02-20 08:00;METAR CYXE 200800Z 09003KT 15SM -SN OVC060 M14/M18 A2995 RMK SC8 SLP191=

CYXE;2005-02-20 09:00;METAR CYXE 200900Z 04003KT 10SM -SN OVC048 M16/M19 A2995 RMK SC7 SLP189=

CYXE;2005-02-20 10:00;METAR CYXE 201000Z 05004KT 15SM SCT050 BKN250 M17/M20 A2994 RMK SC3CI1 SLP184=

CYXE;2005-02-20 11:00;METAR CYXE 201100Z 08002KT 15SM FEW040 BKN095 M19/M22 A2993 RMK SC1AC6 SLP181=

CYXE;2005-02-20 12:00;METAR CYXE 201200Z 30003KT 15SM FEW040 BKN090 M21/M24 A2993 RMK SC1AC4 SLP185=

CYXE;2005-02-20 13:00;METAR CYXE 201300Z 29005KT 15SM FEW090 M22/M25 A2993 RMK AC2 SLP184=

CYXE;2005-02-20 14:00;METAR CYXE 201400Z 27005KT 15SM FEW090 M23/M26 A2992 RMK AC1 SLP182=

CYXE;2005-02-20 15:00;METAR CYXE 201500Z 27006KT 15SM SKC M23/M26 A2993 RMK SLP186=

CYXE;2005-02-20 16:00;METAR CYXE 201600Z 24007KT 15SM SKC M23/M26 A2993 RMK SLP187=

CYXE;2005-02-20 17:00;METAR CYXE 201700Z 24006KT 15SM SKC M20/M23 A2993 RMK SLP186=

CYXE;2005-02-20 18:00;METAR CYXE 201800Z 23008KT 15SM FEW250 M18/M21 A2992 RMK CI0 SLP181=

CYXE;2005-02-20 19:00;METAR CYXE 201900Z 22009KT 15SM SCT250 M16/M20 A2991 RMK CI1 SLP176=

CYXE;2005-02-20 20:00;METAR CYXE 202000Z 22009KT 15SM BKN250 M15/M19 A2989 RMK CI2 SLP171=

CYXE;2005-02-20 21:00;METAR CYXE 202100Z 24014KT 15SM BKN250 M14/M18 A2989 RMK CI2 SLP169=

CYXE;2005-02-20 22:00;METAR CYXE 202200Z 23012KT 15SM R09/P0600FT BKN250 M13/M17 A2989 RMK CI4 SLP167=

CYXE;2005-02-20 23:00;METAR CYXE 202300Z 24010KT 15SM BKN250 M13/M17 A2989 RMK CI2 SLP168=

CYXE;2005-02-21 00:00;METAR CYXE 210000Z 23010KT 15SM BKN250 M14/M18 A2988 RMK CI2 SLP167=

CYXE;2005-02-21 01:00;METAR CYXE 210100Z 22010KT 15SM SCT250 M16/M20 A2988 RMK CI1 SLP168=

CYXE;2005-02-21 02:00;METAR CYXE 210200Z 23008KT 15SM SCT250 M18/M21 A2989 RMK CI1 SLP169=

CYXE;2005-02-21 03:00;METAR CYXE 210300Z 24009KT 15SM BKN080 OVC250 M16/M19 A2989 RMK AC4CI2 SLP173=

CYXE;2005-02-21 04:00;METAR CYXE 210400Z 23007KT 15SM SCT075 BKN250 M16/M19 A2990 RMK AC2CI2 SLP176=

CYXE;2005-02-21 05:00;METAR CYXE 210500Z 24007KT 15SM BKN075 OVC250 M16/M19 A2990 RMK AC6CI2 SLP177=

CYXE;2005-02-21 06:00;METAR CYXE 210600Z 24009KT 15SM FEW073 OVC250 M16/M19 A2991 RMK AC2CS2 SLP177=

CYXE;2005-02-21 07:00;METAR CYXE 210700Z 25006KT 15SM FEW095 OVC240 M18/M21 A2992 RMK AC2CS1 SLP180=

CYXE;2005-02-21 08:00;METAR CYXE 210800Z 24003KT 15SM SCT074 OVC240 M17/M20 A2993 RMK AC3CS2 SLP183=

CYXE;2005-02-21 08:32;SPECI CYXE 210832Z 22003KT 6SM -SN OVC069 RMK AS6=

CYXE;2005-02-21 09:00;METAR CYXE 210900Z 22002KT 4SM -SN OVC058 M16/M19 A2994 RMK SC7 SLP186=

CYXE;2005-02-21 10:00;METAR CYXE 211000Z 35002KT 4SM -SN OVC037 M16/M18 A2995 RMK SC7 SLP188=

CYXE;2005-02-21 10:46;SPECI CYXE 211046Z 00000KT 2SM -SN OVC019 RMK SN3SC5 TOWER OBS=

CYXE;2005-02-21 11:00;METAR CYXE 211100Z 00000KT 2SM -SN OVC019 M15/M17 A2995 RMK SN3SC4 TOWER OBS SLP188=

CYXE;2005-02-21 11:10;SPECI CYXE 211110Z 00000KT 4SM -SN OVC019 RMK SC7=

CYXE;2005-02-21 12:00;METAR CYXE 211200Z 32002KT 3SM -SN OVC022 M15/M18 A2996 RMK SC8 SLP190=

CYXE;2005-02-21 12:09;SPECI CYXE 211209Z 32003KT 2SM -SN OVC018 RMK SN3SC5 TOWER OBS=

CYXE;2005-02-21 13:00;METAR CYXE 211300Z 34002KT 4SM -SN OVC027 M15/M17 A2997 RMK SN2SC6 SLP195=

CYXE;2005-02-21 14:00;METAR CYXE 211400Z 00000KT 2SM -SN BKN024 OVC082 M14/M17 A2999 RMK SC5AS2 SLP199=

CYXE;2005-02-21 15:00;METAR CYXE 211500Z 01004KT 6SM -SN BKN024 OVC083 M17/M20 A3000 RMK SC5AS1 SLP209=

CYXE;2005-02-21 16:00;METAR CYXE 211600Z 18002KT 6SM -SN BKN030 OVC085 M15/M18 A3002 RMK SC5AS1 SLP215=

CYXE;2005-02-21 17:00;METAR CYXE 211700Z 31003KT 12SM FEW027 SCT082 OVC250 M14/M16 A3003 RMK SC2AS2CI1 SLP218=

CYXE;2005-02-21 18:00;METAR CYXE 211800Z 29004KT 15SM BKN021 BKN081 OVC250 M13/M15 A3005 RMK SC5AC2CI0 SLP221=

CYXE;2005-02-21 19:00;METAR CYXE 211900Z 27002KT 15SM BKN036 OVC081 M10/M13 A3006 RMK SC6AS2 SLP224=

CYXE;2005-02-23 00:00;METAR CYXE 230000Z 12006KT 15SM SCT240 M11/M15 A3017 RMK CI1 SLP266=

CYXE;2005-02-23 01:00;METAR CYXE 230100Z 10006KT 10SM SCT240 M13/M15 A3017 RMK CI1 BR SLP267=

CYXE;2005-02-23 02:00;METAR CYXE 230200Z 12004KT 10SM SCT240 M13/M15 A3018 RMK CI2 BR SLP270=

CYXE;2005-02-23 03:00;METAR CYXE 230300Z 14007KT 10SM SCT240 M14/M16 A3018 RMK CI1 BR SLP272=

CYXE;2005-02-23 04:00;METAR CYXE 230400Z 13005KT 10SM BKN070 OVC240 M14/M15 A3020 RMK AC6CI0 BR SLP278=

CYXE;2005-02-23 05:00;METAR CYXE 230500Z 15005KT 10SM BKN064 OVC240 M16/M17 A3020 RMK SC6CI0 BR SLP277=

CYXE;2005-02-23 06:24;SPECI CYXE 230624Z 00000KT 10SM FEW007 FEW073 RMK SF1AC1 BR=

CYXE;2005-02-23 07:00;METAR CYXE 230700Z 23005KT 10SM FEW075 M18/M19 A3021 RMK AC1 BR SLP278=

CYXE;2005-02-23 08:30;SPECI CYXE 230830Z 19005KT 10SM FEW007 FEW050 BKN240 RMK SF1SC2CI1 BR=

CYXE;2005-02-23 09:00;METAR CYXE 230900Z 16005KT 10SM FEW007 BKN240 M17/M19 A3021 RMK SF1CI2 BR SLP277=

CYXE;2005-02-23 09:26;SPECI CYXE 230926Z 16004KT 10SM BKN003 OVC230 RMK SF6CI2 BR=

CYXE;2005-02-23 09:35;SPECI CYXE 230935Z 19004KT 6SM BR OVC002 RMK SF8=

CYXE;2005-02-23 10:00;METAR CYXE 231000Z 19006KT 3SM BR OVC002 M16/M17 A3020 RMK SF8 SLP272=

CYXE;2005-02-23 10:15;SPECI CYXE 231015Z 20006KT 1SM R09/P6000FT/N BR OVC002 RMK FG4SF4 TOWER OBS=

CYXE;2005-02-23 10:20;SPECI CYXE 231020Z 19007KT 3/4SM R09/P6000FT/N BR VV002 RMK FG8 TOWER OBS=

CYXE;2005-02-23 10:40;SPECI CYXE 231040Z 21007KT 1 1/2SM BR OVC002 RMK FG5SF3 TOWER OBS=

CYXE;2005-02-23 11:00;METAR CYXE 231100Z 20004KT 1 1/2SM BR BKN002 OVC061 M16/M17 A3020 RMK FG2SF4SC2 FROIN TOWER OBS SLP273=

CYXE;2005-02-23 11:10;SPECI CYXE 231110Z 21004KT 2SM BR SCT003 OVC059 RMK SF3SC4 FROIN TOWER OBS=

CYXE;2005-02-23 11:30;SPECI CYXE 231130Z 20005KT 4SM BR FEW002 OVC059 RMK SF2SC5 FROIN=

CYXE;2005-02-23 12:00;METAR CYXE 231200Z 21009KT 4SM BR BKN003 BKN059 OVC240 M18/M19 A3018 RMK SF3SC2CI1 FROIN SLP267=

CYXE;2005-02-23 12:08;SPECI CYXE 231208Z 22009KT 4SM BR OVC002 RMK SF7 FROIN=

CYXE;2005-02-23 12:50;SPECI CYXE 231250Z 18004KT 4SM BR SCT002 RMK SF4 FROIN=

CYXE;2005-02-23 13:00;METAR CYXE 231300Z 19005KT 3SM BR BKN002 BKN240 M18/M19 A3019 RMK SF3CI1 FROIN SLP271=

CYXE;2005-02-23 14:00;METAR CYXE 231400Z 21005KT 6SM BR FEW002 FEW080 BKN240 M18/M19 A3017 RMK SF1AC1CI3 FROIN SLP266=

CYXE;2005-02-23 16:00;METAR CYXE 231600Z 19007KT 12SM BKN110 BKN220 M16/M17 A3017 RMK AC2CI3 BR SLP266=

CYXE;2005-02-23 17:00;METAR CYXE 231700Z 19007KT 15SM FEW120 BKN220 M14/M15 A3016 RMK AC2CI2 SLP262=

CYXE;2005-02-23 18:00;METAR CYXE 231800Z 23007KT 15SM FEW120 BKN240 M12/M14 A3016 RMK AC2CI2 SLP259=

CYXE;2005-02-23 19:00;METAR CYXE 231900Z 22007KT 15SM BKN240 M11/M13 A3014 RMK CI3 SLP252=

CYXE;2005-02-23 20:00;METAR CYXE 232000Z 24006KT 15SM FEW090 BKN240 M10/M13 A3013 RMK AC1CI3 SLP251=

CYXE;2005-02-23 21:00;METAR CYXE 232100Z 23003KT 15SM BKN240 M09/M13 A3013 RMK CI6 SLP248=

CYXE;2005-02-23 22:00;METAR CYXE 232200Z 00000KT 15SM OVC240 M07/M13 A3013 RMK CI6 SLP247=

CYXE;2005-02-23 23:00;METAR CYXE 232300Z 23002KT 15SM SCT120 OVC240 M09/M13 A3012 RMK AC3CI3 SLP244=

CYXE;2005-02-24 00:00;METAR CYXE 240000Z 00000KT 15SM BKN120 OVC240 M09/M13 A3011 RMK AC5CI1 SLP243=

CYXE;2005-02-24 01:00;METAR CYXE 240100Z 00000KT 15SM BKN120 OVC240 M09/M12 A3011 RMK AC6CI2 SLP241=

CYXE;2005-02-24 02:00;METAR CYXE 240200Z 24003KT 15SM BKN120 BKN240 M10/M13 A3010 RMK AC6CI0 SLP239=

CYXE;2005-02-24 03:00;METAR CYXE 240300Z 28003KT 15SM BKN120 BKN240 M10/M13 A3009 RMK AC6CI0 SLP236=

CYXE;2005-02-24 04:00;METAR CYXE 240400Z 28002KT 15SM BKN120 BKN240 M11/M13 A3008 RMK AC6CI0 SLP232=

CYXE;2005-02-24 05:00;METAR CYXE 240500Z 26002KT 15SM BKN090 BKN240 M11/M13 A3007 RMK AC6CI0 SLP227=

CYXE;2005-02-24 07:00;METAR CYXE 240700Z 16002KT 15SM OVC110 M11/M13 A3003 RMK AC6 SLP211=

CYXE;2005-02-24 08:00;METAR CYXE 240800Z 07004KT 15SM FEW220 M13/M14 A3002 RMK CI1 SLP208=

CYXE;2005-02-24 09:00;METAR CYXE 240900Z 20003KT 10SM FEW220 M17/M18 A3001 RMK CI0 BR SLP205=

CYXE;2005-02-24 10:00;METAR CYXE 241000Z 14005KT 6SM BR FEW220 M15/M17 A2997 RMK CI0 SLP194=

CYXE;2005-02-24 11:00;METAR CYXE 241100Z 15005KT 6SM BR SKC M14/M15 A2995 RMK SLP187=

CYXE;2005-02-24 12:00;METAR CYXE 241200Z 20005KT 4SM BR SKC M14/M15 A2995 RMK SLP182=

CYXE;2005-02-24 13:00;METAR CYXE 241300Z 17005KT 4SM BR FEW004 M15/M16 A2993 RMK SF1 SLP178=

CYXE;2005-02-24 14:00;METAR CYXE 241400Z 19007KT 15SM FEW220 M15/M16 A2992 RMK CI1 SLP173=

CYXE;2005-02-24 15:00;METAR CYXE 241500Z 21007KT 8SM BKN220 M16/M17 A2991 RMK CI3 BR SLP174=

CYXE;2005-02-24 16:00;METAR CYXE 241600Z 24007KT 12SM SCT220 M15/M16 A2992 RMK CI1 BR SLP175=

CYXE;2005-02-24 17:00;METAR CYXE 241700Z 24009KT 12SM SCT220 M12/M14 A2991 RMK CI1 BR SLP174=

CYXE;2005-02-24 18:00;METAR CYXE 241800Z 25004KT 15SM FEW220 M10/M12 A2992 RMK CI1 SLP174=

CYXE;2005-02-24 19:00;METAR CYXE 241900Z 29010KT 15SM FEW240 M06/M11 A2992 RMK CI1 SLP173=

CYXE;2005-02-24 20:00;METAR CYXE 242000Z 29008KT 15SM FEW240 M05/M10 A2992 RMK CI0 SLP172=

CYXE;2005-02-24 21:00;METAR CYXE 242100Z 28011KT 15SM FEW240 M04/M09 A2992 RMK CI1 SLP173=

CYXE;2005-02-24 22:00;METAR CYXE 242200Z 31009KT 15SM FEW240 M04/M09 A2994 RMK CI0 SLP178=

CYXE;2005-02-24 23:00;METAR CYXE 242300Z 30009KT 15SM FEW240 M04/M09 A2995 RMK CI0 SLP181=

CYXE;2005-02-25 00:00;METAR CYXE 250000Z 30008KT 15SM FEW240 M06/M11 A2995 RMK CI0 SLP183=

CYXE;2005-02-25 01:00;METAR CYXE 250100Z 31010KT 15SM SCT240 M06/M12 A2996 RMK CI1 SLP186=

CYXE;2005-02-25 02:00;METAR CYXE 250200Z 30002KT 15SM SCT240 M10/M13 A2999 RMK CI1 SLP195=

CYXE;2005-02-25 03:00;METAR CYXE 250300Z 00000KT 15SM SCT240 M09/M13 A3001 RMK CI0 SLP205=

CYXE;2005-02-25 04:00;METAR CYXE 250400Z 23003KT 15SM FEW240 M10/M13 A3001 RMK CI1 SLP207=

CYXE;2005-02-25 05:00;METAR CYXE 250500Z 23006KT 15SM FEW240 M13/M15 A3003 RMK CI0 SLP212=

CYXE;2005-02-25 06:00;METAR CYXE 250600Z 25004KT 15SM SKC M13/M15 A3003 RMK SLP212=

CYXE;2005-02-25 07:00;METAR CYXE 250700Z 22002KT 15SM SKC M14/M15 A3004 RMK SLP215=

CYXE;2005-02-25 08:00;METAR CYXE 250800Z 08005KT 15SM SKC M16/M17 A3005 RMK SLP218=

CYXE;2005-02-25 09:00;METAR CYXE 250900Z 16002KT 15SM SKC M15/M17 A3006 RMK SLP219=

CYXE;2005-02-25 10:00;METAR CYXE 251000Z 09005KT 15SM SKC M19/M20 A3007 RMK SLP221=

CYXE;2005-02-25 11:00;METAR CYXE 251100Z 00000KT 15SM SKC M18/M19 A3006 RMK SLP220=

CYXE;2005-02-25 12:00;METAR CYXE 251200Z 10004KT 10SM SKC M18/M19 A3007 RMK K SLP226=

CYXE;2005-02-25 13:00;METAR CYXE 251300Z 11005KT 15SM SKC M16/M17 A3007 RMK SLP227=

CYXE;2005-02-25 14:00;METAR CYXE 251400Z 09006KT 5SM BR SKC M18/M20 A3007 RMK SLP226=

CYXE;2005-02-25 15:00;METAR CYXE 251500Z 09003KT 6SM BR SKC M18/M19 A3007 RMK SLP227=

CYXE;2005-02-25 16:00;METAR CYXE 251600Z 10004KT 6SM BR SKC M16/M17 A3008 RMK SLP230=

CYXE;2005-02-25 17:00;METAR CYXE 251700Z 12005KT 10SM FEW250 M12/M13 A3007 RMK CI0 BR SLP227=

CYXE;2005-02-25 18:00;METAR CYXE 251800Z 22002KT 12SM FEW250 M09/M13 A3005 RMK CI0 BR SLP219=

CYXE;2005-02-25 19:00;METAR CYXE 251900Z 00000KT 12SM FEW250 M09/M12 A3004 RMK CI0 BR SLP215=

CYXE;2005-02-25 20:00;METAR CYXE 252000Z 11005KT 15SM SCT250 M08/M12 A3003 RMK CI0 SLP210=

CYXE;2005-02-25 21:00;METAR CYXE 252100Z 12006KT 10SM BKN250 M08/M12 A3000 RMK CI1 BR SLP203=

CYXE;2005-02-25 22:00;METAR CYXE 252200Z 12007KT 6SM BR FEW250 M08/M12 A3000 RMK CI1 SLP201=

CYXE;2005-02-25 23:00;METAR CYXE 252300Z 11008KT 6SM BR SCT250 M08/M12 A2999 RMK CI1 SLP197=

CYXE;2005-02-26 00:00;METAR CYXE 260000Z 12009KT 8SM FEW250 M09/M12 A2997 RMK CI1 SLP195=

CYXE;2005-02-26 01:00;METAR CYXE 260100Z 11010KT 8SM FEW250 M12/M13 A2997 RMK CI1 SLP194=

CYXE;2005-02-26 02:00;METAR CYXE 260200Z 14005KT 8SM FEW250 M13/M15 A2998 RMK CI1 SLP196=

CYXE;2005-02-26 03:00;METAR CYXE 260300Z 13006KT 12SM BKN250 M13/M15 A2995 RMK CI2 SLP191=

CYXE;2005-02-26 04:00;METAR CYXE 260400Z 15007KT 12SM BKN250 M13/M14 A2992 RMK CI4 SLP181=

CYXE;2005-02-26 05:00;METAR CYXE 260500Z 16004KT 15SM OVC180 M13/M15 A2993 RMK AS7 SLP183=

CYXE;2005-02-26 06:00;METAR CYXE 260600Z 00000KT 15SM OVC180 M13/M15 A2995 RMK AS5 SLP182=

CYXE;2005-02-26 07:00;METAR CYXE 260700Z 12003KT 15SM OVC180 M12/M14 A2992 RMK AS6 SLP175=

CYXE;2005-02-26 08:00;METAR CYXE 260800Z 01002KT 15SM OVC170 M13/M14 A2992 RMK AS6 SLP175=

CYXE;2005-02-26 09:00;METAR CYXE 260900Z 32006KT 15SM OVC160 M13/M14 A2993 RMK AS6 SLP174=

CYXE;2005-02-26 10:00;METAR CYXE 261000Z 35002KT 15SM OVC096 M12/M14 A2991 RMK AS6 SLP170=

CYXE;2005-02-26 11:00;METAR CYXE 261100Z 14004KT 15SM OVC055 M11/M13 A2989 RMK SC8 SLP162=

CYXE;2005-02-26 12:00;METAR CYXE 261200Z 28010KT 15SM OVC051 M11/M13 A2992 RMK SC8 SLP173=

CYXE;2005-02-26 13:00;METAR CYXE 261300Z 22004KT 15SM FEW039 OVC088 M12/M13 A2991 RMK SC2AS3 SLP169=

CYXE;2005-02-26 14:00;METAR CYXE 261400Z 24006KT 10SM SCT090 BKN250 M13/M15 A2992 RMK AC2CI0 BR SLP171=

CYXE;2005-02-26 15:00;METAR CYXE 261500Z 22006KT 10SM FEW250 M14/M15 A2993 RMK CI0 BR SLP179=

CYXE;2005-02-26 16:00;METAR CYXE 261600Z 27008KT 10SM SKC M12/M14 A2994 RMK BR SLP182=

CYXE;2005-02-26 17:00;METAR CYXE 261700Z 30008KT 15SM SKC M09/M12 A2995 RMK SLP185=

CYXE;2005-02-26 18:00;METAR CYXE 261800Z 30008KT 15SM SKC M07/M10 A2996 RMK SLP187=

CYXE;2005-02-26 19:00;METAR CYXE 261900Z 30012KT 15SM SKC M05/M09 A2997 RMK SLP190=

CYXE;2005-02-26 20:00;METAR CYXE 262000Z 30011KT 15SM SKC M04/M08 A2997 RMK SLP189=

CYXE;2005-02-26 21:00;METAR CYXE 262100Z 31012KT 15SM SKC M03/M07 A2997 RMK SLP186=

CYXE;2005-02-26 22:00;METAR CYXE 262200Z 32008KT 15SM FEW250 M03/M07 A2999 RMK CI1 SLP192=

CYXE;2005-02-27 00:00;METAR CYXE 270000Z 32008KT 15SM BKN250 M04/M08 A3002 RMK CI4 SLP201=

CYXE;2005-02-27 01:00;METAR CYXE 270100Z 33007KT 15SM FEW250 M07/M10 A3003 RMK CI1 SLP204=

CYXE;2005-02-27 02:00;METAR CYXE 270200Z 34006KT 15SM SKC M11/M13 A3005 RMK SLP212=

CYXE;2005-02-27 03:00;METAR CYXE 270300Z 30006KT 15SM SKC M11/M13 A3006 RMK SLP224=

CYXE;2005-02-27 04:00;METAR CYXE 270400Z 30009KT 15SM SKC M12/M13 A3007 RMK SLP227=

CYXE;2005-02-27 05:00;METAR CYXE 270500Z 32009KT 15SM SKC M12/M13 A3008 RMK SLP231=

CYXE;2005-02-27 06:00;METAR CYXE 270600Z 31006KT 15SM SKC M13/M14 A3009 RMK SLP230=

CYXE;2005-02-27 06:46;SPECI CYXE 270646Z 00000KT 1SM R09/P6000FT/N BR SKC=

CYXE;2005-02-27 07:00;METAR CYXE 270700Z 00000KT 3/4SM R09/1200V4000FT/D BR SKC M16/M17 A3010 RMK SLP234=

CYXE;2005-02-27 08:00;METAR CYXE 270800Z 00000KT 3/4SM R09/1800V2800FT/U BR SKC M14/M15 A3011 RMK SLP235=

CYXE;2005-02-27 09:00;METAR CYXE 270900Z 30002KT 1/4SM R09/0800V1100FT/N FZFG SKC M17/M18 A3012 RMK SLP239=

CYXE;2005-02-27 10:00;METAR CYXE 271000Z 32005KT 1/4SM R09/1200FT/N FZFG SKC M17/M18 A3012 RMK FG2 SLP240=

CYXE;2005-02-27 10:34;SPECI CYXE 271034Z 32003KT 0SM R09/1600V2200FT/N FZFG SKC RMK FG3=

CYXE;2005-02-27 11:00;METAR CYXE 271100Z 36003KT 0SM R09/2000FT/D FZFG SKC M18/M19 A3014 RMK FG4 SLP247=

CYXE;2005-02-27 11:37;SPECI CYXE 271137Z 01002KT 1/2SM R09/1400FT/N FZFG SKC RMK FG2=

CYXE;2005-02-27 11:45;SPECI CYXE 271145Z 03005KT 2SM R09/1200V6000FT/U BR SKC RMK FG2=

CYXE;2005-02-27 11:54;SPECI CYXE 271154Z 03005KT 6SM R09/4500VP6000FT/U BR SKC=

CYXE;2005-02-27 12:00;METAR CYXE 271200Z 04006KT 10SM SKC M17/M18 A3016 RMK BR SLP254=

CYXE;2005-02-27 13:00;METAR CYXE 271300Z 05004KT 15SM SKC M16/M17 A3017 RMK SLP258=

CYXE;2005-02-27 14:00;METAR CYXE 271400Z 06004KT 3SM R09/4000VP6000FT/D BR SKC M16/M17 A3018 RMK SLP262=

CYXE;2005-02-27 15:00;METAR CYXE 271500Z 00000KT 10SM FEW250 M16/M17 A3021 RMK CI0 BR SLP275=

CYXE;2005-02-27 16:00;METAR CYXE 271600Z 00000KT 10SM R09/0900V2000FT/U BKN016 M14/M15 A3022 RMK SC6 BR SLP281=

CYXE;2005-02-27 16:38;SPECI CYXE 271638Z 00000KT 10SM -SG OVC016 RMK SC7 BR=

CYXE;2005-02-27 17:00;METAR CYXE 271700Z 00000KT 12SM OVC016 M12/M14 A3024 RMK SC8 BR SLP285=

CYXE;2005-02-27 17:10;SPECI CYXE 271710Z 26002KT 10SM OVC014 RMK SC8 BR=

CYXE;2005-02-27 18:00;METAR CYXE 271800Z 26002KT 15SM -SG OVC014 M11/M13 A3024 RMK SC8 SLP284=

CYXE;2005-02-27 19:00;METAR CYXE 271900Z 34002KT 15SM -SG OVC014 M09/M10 A3025 RMK SC8 SLP286=

CYXE;2005-02-27 20:00;METAR CYXE 272000Z 00000KT 15SM -SG OVC014 M07/M08 A3024 RMK SC7 SLP285=

CYXE;2005-02-27 20:29;SPECI CYXE 272029Z 00000KT 15SM OVC014 RMK SC7=

CYXE;2005-02-27 21:00;METAR CYXE 272100Z 35004KT 15SM OVC014 M07/M09 A3024 RMK SC8 SLP286=

CYXE;2005-02-27 22:00;METAR CYXE 272200Z 25002KT 15SM BKN014 M07/M10 A3024 RMK SC6 SLP284=

CYXE;2005-02-27 23:00;METAR CYXE 272300Z 00000KT 15SM BKN014 M07/M10 A3024 RMK SC7 SLP286=

CYXE;2005-02-28 00:00;METAR CYXE 280000Z 34003KT 15SM FEW014 BKN200 M08/M11 A3024 RMK SC2CI2 SLP284=

CYXE;2005-02-28 01:00;METAR CYXE 280100Z 02002KT 15SM BKN015 M09/M11 A3024 RMK SC7 SLP285=

CYXE;2005-02-28 02:00;METAR CYXE 280200Z 29004KT 15SM OVC011 M10/M11 A3025 RMK SC8 SLP286=

CYXE;2005-02-28 03:00;METAR CYXE 280300Z 21002KT 15SM OVC011 M09/M11 A3024 RMK SC8 SLP286=

CYXE;2005-02-28 03:47;SPECI CYXE 280347Z 21003KT 15SM OVC009 RMK ST8=

CYXE;2005-02-28 04:00;METAR CYXE 280400Z 22004KT 15SM OVC009 M09/M11 A3024 RMK ST8 SLP286=

CYXE;2005-02-28 05:00;METAR CYXE 280500Z 19004KT 15SM OVC007 M09/M11 A3024 RMK ST8 SLP284=

CYXE;2005-02-28 05:09;SPECI CYXE 280509Z 00000KT 15SM OVC006 RMK ST8=

CYXE;2005-02-28 06:00;METAR CYXE 280600Z 20002KT 15SM OVC008 M09/M11 A3022 RMK ST8 SLP275=

CYXE;2005-02-28 06:33;SPECI CYXE 280633Z 21004KT 15SM OVC004 RMK ST8=

CYXE;2005-02-28 07:00;METAR CYXE 280700Z 21005KT 15SM OVC005 M09/M11 A3021 RMK ST8 SLP272=

CYXE;2005-02-28 07:20;SPECI CYXE 280720Z 20004KT 15SM OVC004 RMK ST8=

CYXE;2005-02-28 08:00;METAR CYXE 280800Z 19005KT 10SM OVC004 M09/M11 A3020 RMK ST8 BR SLP269=

CYXE;2005-02-28 09:00;METAR CYXE 280900Z 19006KT 15SM OVC004 M09/M11 A3019 RMK ST8 SLP263=

CYXE;2005-02-28 09:49;SPECI CYXE 280949Z 21008KT 3SM BR OVC002 RMK FG3ST5=

CYXE;2005-02-28 10:00;METAR CYXE 281000Z 21008KT 5SM BR OVC002 M10/M12 A3018 RMK ST8 SLP259=

CYXE;2005-02-28 10:26;SPECI CYXE 281026Z 20007KT 1/2SM R09/3000FT/N FZFG VV001 RMK FG8=

CYXE;2005-02-28 11:00;METAR CYXE 281100Z 20006KT 1/2SM R09/P6000FT/U FZFG VV001 M10/M12 A3017 RMK FG8 SLP254=

CYXE;2005-02-28 11:17;SPECI CYXE 281117Z 18003KT 5/8SM R09/P6000FT/U BR VV001 RMK FG8 VSBY NE-SE 11/2=

CYXE;2005-02-28 11:32;SPECI CYXE 281132Z 19004KT 3SM BR OVC001 RMK FG4ST4 VSBY SW-NW 3/4=

CYXE;2005-02-28 11:49;SPECI CYXE 281149Z 16003KT 4SM BR OVC002 RMK ST8 VSBY W 11/2=

CYXE;2005-02-28 12:00;METAR CYXE 281200Z 15002KT 4SM BR OVC002 M10/M12 A3017 RMK ST8 SLP254=

CYXE;2005-02-28 12:21;SPECI CYXE 281221Z 18003KT 6SM BR OVC003 RMK ST8=

CYXE;2005-02-28 13:00;METAR CYXE 281300Z 18006KT 8SM OVC003 M10/M12 A3014 RMK ST7 BR SLP247=

CYXE;2005-02-28 13:52;SPECI CYXE 281352Z 17004KT 8SM SCT004 OVC085 RMK ST3AC5 BR=

CYXE;2005-02-28 14:00;METAR CYXE 281400Z 17005KT 6SM BR FEW004 BKN085 M10/M12 A3013 RMK ST2AC6 SLP242=

CYXE;2005-02-28 15:00;METAR CYXE 281500Z 19004KT 10SM BKN085 M10/M11 A3011 RMK AC7 SLP237=

CYXE;2005-02-28 16:00;METAR CYXE 281600Z 17006KT 12SM BKN095 M09/M11 A3009 RMK AC7 SLP231=

CYXE;2005-02-28 17:00;METAR CYXE 281700Z 19005KT 15SM BKN095 M09/M10 A3008 RMK AC5 SLP226=

CYXE;2005-02-28 18:00;METAR CYXE 281800Z 19005KT 15SM FEW095 M08/M09 A3007 RMK AC2 SLP222=

CYXE;2005-02-28 19:00;METAR CYXE 281900Z 19005KT 15SM FEW100 M06/M10 A3004 RMK AC1 SLP213=

CYXE;2005-02-28 20:00;METAR CYXE 282000Z 22004KT 15SM FEW100 M05/M09 A3003 RMK AC1 SLP207=

CYXE;2005-02-28 21:00;METAR CYXE 282100Z 25002KT 15SM SKC M04/M09 A3001 RMK SLP197=

CYXE;2005-02-28 22:00;METAR CYXE 282200Z 00000KT 15SM SKC M05/M09 A2999 RMK SLP192=

CYXE;2005-02-28 23:00;METAR CYXE 282300Z 33002KT 15SM SKC M06/M09 A2998 RMK SLP189=

CYXE;2005-03-01 00:00;METAR CYXE 010000Z 00000KT 15SM SKC M06/M09 A2997 RMK SLP186=

CYXE;2005-03-01 01:00;METAR CYXE 010100Z 16005KT 15SM SKC M07/M10 A2995 RMK SLP181=

CYXE;2005-03-01 02:00;METAR CYXE 010200Z 16004KT 15SM SKC M08/M10 A2994 RMK SLP177=

CYXE;2005-03-01 03:00;METAR CYXE 010300Z 16005KT 15SM SKC M10/M11 A2992 RMK SLP172=

CYXE;2005-03-01 05:00;METAR CYXE 010500Z 14003KT 15SM SKC M11/M12 A2992 RMK SLP170=

CYXE;2005-03-01 06:00;METAR CYXE 010600Z 16002KT 12SM SKC M12/M13 A2991 RMK SLP167=

CYXE;2005-03-01 07:00;METAR CYXE 010700Z 14002KT 12SM SKC M13/M14 A2989 RMK SLP162=

CYXE;2005-03-01 08:00;METAR CYXE 010800Z 00000KT 12SM SKC M14/M15 A2988 RMK SLP159=

CYXE;2005-03-01 09:00;METAR CYXE 010900Z 08005KT 12SM SKC M16/M17 A2989 RMK SLP160=

CYXE;2005-03-01 10:00;METAR CYXE 011000Z 08006KT 12SM FEW200 M16/M18 A2987 RMK CI0 SLP155=

CYXE;2005-03-01 11:00;METAR CYXE 011100Z 11005KT 15SM FEW200 M16/M17 A2985 RMK CI0 SLP149=

CYXE;2005-03-01 12:00;METAR CYXE 011200Z 08006KT 12SM FEW220 M17/M18 A2985 RMK CI1 SLP148=

CYXE;2005-03-01 13:00;METAR CYXE 011300Z 00000KT 12SM FEW220 M18/M20 A2985 RMK CI1 SLP149=

CYXE;2005-03-01 14:00;METAR CYXE 011400Z 28002KT 4SM BR BKN220 M19/M20 A2985 RMK CI2 SLP149=

CYXE;2005-03-01 15:00;METAR CYXE 011500Z 00000KT 4SM BR BKN220 M18/M19 A2985 RMK CI3 SLP151=

CYXE;2005-03-01 16:00;METAR CYXE 011600Z 07007KT 6SM BR BKN220 M14/M15 A2986 RMK CI3 SLP154=

CYXE;2005-03-01 17:00;METAR CYXE 011700Z 07005KT 6SM BR BKN220 M13/M15 A2986 RMK CI3 SLP156=

CYXE;2005-03-01 18:00;METAR CYXE 011800Z 03006KT 8SM BKN250 M11/M13 A2986 RMK CI3 BR SLP154=

CYXE;2005-03-01 19:00;METAR CYXE 011900Z 03008KT 8SM BKN250 M10/M13 A2987 RMK CI2 BR SLP157=

CYXE;2005-03-01 20:00;METAR CYXE 012000Z 05006KT 10SM BKN250 M08/M12 A2986 RMK CI3 BR SLP154=

CYXE;2005-03-01 21:00;METAR CYXE 012100Z 06005KT 12SM BKN250 M07/M11 A2986 RMK CI3 SLP152=

CYXE;2005-03-01 23:00;METAR CYXE 012300Z 06003KT 15SM BKN250 M07/M10 A2987 RMK CI3 SLP155=

CYXE;2005-03-02 00:00;METAR CYXE 020000Z 10006KT 15SM BKN250 M07/M11 A2988 RMK CI2 SLP159=

CYXE;2005-03-02 01:00;METAR CYXE 020100Z 10006KT 15SM BKN250 M08/M11 A2989 RMK CI2 SLP163=

CYXE;2005-03-02 02:00;METAR CYXE 020200Z 07003KT 15SM SCT250 M10/M12 A2989 RMK CI2 SLP164=

CYXE;2005-03-02 03:00;METAR CYXE 020300Z 09004KT 15SM SKC M11/M12 A2989 RMK SLP168=

CYXE;2005-03-02 04:00;METAR CYXE 020400Z 10004KT 15SM FEW010 M11/M12 A2990 RMK SF1 SLP170=

CYXE;2005-03-02 05:00;METAR CYXE 020500Z 13004KT 10SM FEW010 M12/M13 A2991 RMK SF1 BR SLP175=

CYXE;2005-03-02 06:00;METAR CYXE 020600Z 10006KT 12SM FEW010 M14/M15 A2990 RMK SF1 BR SLP168=

CYXE;2005-03-02 07:00;METAR CYXE 020700Z 14004KT 12SM FEW010 M13/M15 A2990 RMK SF1 BR SLP167=

CYXE;2005-03-02 08:00;METAR CYXE 020800Z 19003KT 12SM SKC M14/M15 A2991 RMK SLP170=

CYXE;2005-03-02 09:00;METAR CYXE 020900Z 18005KT 10SM FEW010 M18/M19 A2991 RMK SF1 BR SLP171=

CYXE;2005-03-02 10:00;METAR CYXE 021000Z 19004KT 10SM FEW010 M16/M18 A2991 RMK SF1 BR SLP171=

CYXE;2005-03-02 10:47;SPECI CYXE 021047Z 24007KT 3SM BR BKN002 RMK ST5=

CYXE;2005-03-02 10:56;SPECI CYXE 021056Z 23007KT 3SM BR SCT002 RMK SF2=

CYXE;2005-03-02 11:00;METAR CYXE 021100Z 23005KT 3SM BR BKN002 M18/M20 A2993 RMK SF3 SLP178=

CYXE;2005-03-02 11:19;SPECI CYXE 021119Z 20003KT 2 1/2SM R09/2800VP6000FT/D BR BKN001 RMK ST6 VSBY LWR SW-NW 1=

CYXE;2005-03-02 11:40;SPECI CYXE 021140Z 18003KT 1 1/2SM R09/2000VP6000FT/U BR OVC001 RMK ST6 VSBY LWR SW-NW 3/4=

CYXE;2005-03-02 11:46;SPECI CYXE 021146Z 15003KT 3/4SM R09/P6000FT/U BR VV001 RMK FG8=

CYXE;2005-03-02 12:00;METAR CYXE 021200Z 16003KT 1SM R09/P6000FT/N BR VV001 M19/M19 A2991 RMK FG8 VSBY SW-NW 1/2 SLP173=

CYXE;2005-03-02 12:21;SPECI CYXE 021221Z 21005KT 2SM BR OVC002 RMK ST8 VSBY W 3/4=

CYXE;2005-03-02 12:51;SPECI CYXE 021251Z 20003KT 1SM R09/P6000FT/N BR OVC002 RMK ST8=

CYXE;2005-03-02 13:00;METAR CYXE 021300Z 19003KT 3/4SM R09/4500VP6000FT/D BR OVC002 M19/M20 A2992 RMK ST8 SLP176=

CYXE;2005-03-02 13:28;SPECI CYXE 021328Z 14003KT 3/4SM R09/P6000FT/D BR VV001 RMK FG8=

CYXE;2005-03-02 13:50;SPECI CYXE 021350Z 18003KT 2SM BR BKN001 OVC200 RMK ST3CI3=

CYXE;2005-03-02 14:00;METAR CYXE 021400Z 19003KT 2SM BR BKN001 OVC200 M18/M19 A2992 RMK ST5CI2 SLP175=

CYXE;2005-03-02 14:16;SPECI CYXE 021416Z 18004KT 1 1/2SM BR BKN001 OVC200 RMK ST3CI3 VSBY=

CYXE;2005-03-02 15:00;METAR CYXE 021500Z 18003KT 1 1/2SM BR OVC002 M17/M18 A2992 RMK ST7 VSBY=

CYXE;2005-03-02 16:00;METAR CYXE 021600Z 21003KT 3SM BR SCT002 M16/M17 A2993 RMK ST3 SLP180=

CYXE;2005-03-02 17:00;METAR CYXE 021700Z 20004KT 4SM BR FEW003 M15/M15 A2992 RMK ST1 SLP178=

CYXE;2005-03-02 18:00;METAR CYXE 021800Z 21003KT 6SM BR SKC M12/M13 A2993 RMK SLP179=

CYXE;2005-03-02 19:00;METAR CYXE 021900Z 18002KT 8SM SKC M10/M11 A2993 RMK BR SLP178=

CYXE;2005-03-02 20:00;METAR CYXE 022000Z 16006KT 10SM SKC M08/M11 A2989 RMK BR SLP167=

CYXE;2005-03-02 21:00;METAR CYXE 022100Z 19003KT 15SM SKC M06/M10 A2990 RMK SLP166=

CYXE;2005-03-02 22:00;METAR CYXE 022200Z 18003KT 15SM FEW220 M04/M09 A2990 RMK CI1 SLP166=

CYXE;2005-03-02 23:00;METAR CYXE 022300Z 20003KT 15SM SCT220 M04/M08 A2989 RMK CI1 SLP164=

CYXE;2005-03-03 00:00;METAR CYXE 030000Z 19005KT 15SM FEW220 M04/M09 A2989 RMK CI1 SLP163=

CYXE;2005-03-03 01:00;METAR CYXE 030100Z 18005KT 15SM SCT220 M06/M09 A2989 RMK CI1 SLP164=

CYXE;2005-03-03 02:00;METAR CYXE 030200Z 18006KT 15SM FEW220 M08/M10 A2989 RMK CI1 SLP162=

CYXE;2005-03-03 03:00;METAR CYXE 030300Z 21007KT 15SM SKC M10/M12 A2989 RMK SLP167=

CYXE;2005-03-03 04:00;METAR CYXE 030400Z 19006KT 8SM SKC M08/M10 A2989 RMK BR SLP166=

CYXE;2005-03-03 05:00;METAR CYXE 030500Z 18006KT 6SM BR FEW010 M10/M11 A2989 RMK SF1 SLP167=

CYXE;2005-03-03 06:00;METAR CYXE 030600Z 21004KT 6SM BR FEW010 FEW250 M10/M11 A2989 RMK SF1CI0 SLP162=

CYXE;2005-03-03 06:44;SPECI CYXE 030644Z 19006KT 6SM BR SCT006 RMK SF1=

CYXE;2005-03-03 07:00;METAR CYXE 030700Z 19008KT 6SM BR SCT006 M10/M11 A2988 RMK SF1 SLP159=

CYXE;2005-03-03 08:00;METAR CYXE 030800Z 21007KT 5SM BR SKC M10/M11 A2988 RMK SLP160=

CYXE;2005-03-03 09:00;METAR CYXE 030900Z 23007KT 5SM BR SKC M11/M12 A2988 RMK SLP155=

CYXE;2005-03-03 10:00;METAR CYXE 031000Z 22009KT 5SM BR SKC M11/M13 A2987 RMK SLP153=

CYXE;2005-03-03 11:00;METAR CYXE 031100Z 22005KT 5SM BR SCT250 M12/M13 A2987 RMK CI1 SLP152=

CYXE;2005-03-03 12:00;METAR CYXE 031200Z 22007KT 6SM BR BKN250 M12/M13 A2988 RMK CI2 SLP155=

CYXE;2005-03-03 13:00;METAR CYXE 031300Z 22007KT 8SM OVC250 M11/M13 A2988 RMK CI2 BR SLP154=

CYXE;2005-03-03 14:00;METAR CYXE 031400Z 22007KT 3SM BR OVC250 M10/M12 A2988 RMK CI6 SLP154=

CYXE;2005-03-03 15:00;METAR CYXE 031500Z 23007KT 3SM BR OVC250 M10/M12 A2989 RMK CI5 SLP160=

CYXE;2005-03-03 16:00;METAR CYXE 031600Z 22008KT 4SM BR OVC250 M08/M10 A2988 RMK CI4 SLP158=

CYXE;2005-03-03 17:00;METAR CYXE 031700Z 24007KT 4SM BR OVC250 M05/M08 A2989 RMK CI4 SLP161=

CYXE;2005-03-03 18:00;METAR CYXE 031800Z 24007KT 5SM BR FEW140 OVC250 M03/M06 A2989 RMK AC1CI5 SLP157=

CYXE;2005-03-03 19:00;METAR CYXE 031900Z 26008KT 5SM BR FEW140 OVC250 M00/M04 A2989 RMK AC2CI2 SLP155=

CYXE;2005-03-03 20:00;METAR CYXE 032000Z 29008KT 15SM FEW093 OVC250 02/M03 A2989 RMK AC2CI2 SLP155=

CYXE;2005-03-03 21:00;METAR CYXE 032100Z 29006KT 15SM FEW093 OVC250 02/M02 A2987 RMK AC2CI3 SLP148=

CYXE;2005-03-03 22:00;METAR CYXE 032200Z 29008KT 15SM FEW093 BKN250 02/M02 A2988 RMK AC1CI3 SLP149=

CYXE;2005-03-03 23:00;METAR CYXE 032300Z 29012KT 15SM BKN250 03/M02 A2988 RMK CI6 SLP151=

CYXE;2005-03-04 00:00;METAR CYXE 040000Z 31013KT 15SM FEW093 BKN250 02/M02 A2989 RMK AC1CI2 SLP155=

CYXE;2005-03-04 01:00;METAR CYXE 040100Z 30011KT 15SM FEW093 BKN250 02/M02 A2990 RMK AC1CI1 SLP158=

CYXE;2005-03-04 02:00;METAR CYXE 040200Z 31011KT 15SM FEW250 00/M03 A2992 RMK CI1 SLP163=

CYXE;2005-03-04 03:00;METAR CYXE 040300Z 31009KT 15SM SKC M01/M04 A2993 RMK SLP169=

CYXE;2005-03-04 04:00;METAR CYXE 040400Z 31009KT 15SM SKC M02/M05 A2993 RMK SLP170=

CYXE;2005-03-04 05:00;METAR CYXE 040500Z 31008KT 15SM SKC M03/M05 A2994 RMK SLP172=

CYXE;2005-03-04 06:00;METAR CYXE 040600Z 32013KT 15SM FEW250 M03/M05 A2995 RMK CI0 SLP171=

CYXE;2005-03-04 07:00;METAR CYXE 040700Z 32011KT 15SM SCT250 M04/M05 A2996 RMK CI0 SLP175=

CYXE;2005-03-04 08:00;METAR CYXE 040800Z 31008KT 15SM FEW250 M05/M06 A2997 RMK CI0 SLP179=

CYXE;2005-03-04 09:00;METAR CYXE 040900Z 27005KT 10SM BKN250 M08/M09 A2998 RMK CI1 BR SLP181=

CYXE;2005-03-04 10:00;METAR CYXE 041000Z 29007KT 8SM BKN250 M07/M08 A2998 RMK CI2 BR SLP182=

CYXE;2005-03-04 11:00;METAR CYXE 041100Z 29005KT 6SM BR BKN250 M07/M08 A2999 RMK CI1 SLP185=

CYXE;2005-03-04 12:00;METAR CYXE 041200Z 19004KT 4SM BR BKN250 M08/M09 A3000 RMK CI2 SLP189=

CYXE;2005-03-04 13:00;METAR CYXE 041300Z 23007KT 3SM R09/2200VP6000FT/D BR SCT250 M10/M11 A3001 RMK CI1 SLP194=

CYXE;2005-03-04 13:35;SPECI CYXE 041335Z 24006KT 3/4SM R09/3000VP6000FT/U BR SCT250 RMK CI1 VIS N-SE 5=

CYXE;2005-03-04 14:00;METAR CYXE 041400Z 22004KT 1/2SM R09/P6000FT/N FZFG OVC250 M11/M12 A3001 RMK FG2CI2 SLP194=

CYXE;2005-03-04 14:10;SPECI CYXE 041410Z 22006KT 3/4SM R09/P6000FT/N BR OVC250 RMK FG2CI2=

CYXE;2005-03-04 14:17;SPECI CYXE 041417Z 22005KT 1 1/2SM BR OVC250 RMK FG1CI2 VSBY 3/4 NW-NE=

CYXE;2005-03-04 15:00;METAR CYXE 041500Z 22005KT 3SM BR FEW008 BKN250 M10/M12 A3002 RMK SF1CI3 SF TR SLP200=

CYXE;2005-03-04 18:00;METAR CYXE 041800Z 22004KT 8SM FEW010 BKN250 M01/M05 A3002 RMK SF1CI2 BR SF TR W SLP195=

CYXE;2005-03-04 19:00;METAR CYXE 041900Z 22007KT 15SM SCT250 M00/M04 A3001 RMK CI2 SLP192=

CYXE;2005-03-04 20:00;METAR CYXE 042000Z 21007KT 15SM SCT250 02/M03 A2999 RMK CI2 SLP188=

CYXE;2005-03-04 21:00;METAR CYXE 042100Z 21006KT 15SM BKN250 03/M03 A2998 RMK CI2 SLP183=

CYXE;2005-03-04 22:00;METAR CYXE 042200Z 23007KT 15SM BKN250 03/M01 A2998 RMK CI1 SLP183=

CYXE;2005-03-04 23:00;METAR CYXE 042300Z 22007KT 15SM BKN250 02/M02 A2997 RMK CI1 SLP180=

CYXE;2005-03-05 00:00;METAR CYXE 050000Z 18005KT 15SM SCT250 03/M02 A2995 RMK CI0 SLP172=

CYXE;2005-03-05 01:00;METAR CYXE 050100Z 17006KT 15SM FEW250 02/M02 A2993 RMK CI0 SLP165=

CYXE;2005-03-05 02:00;METAR CYXE 050200Z 16006KT 15SM SKC 00/M03 A2992 RMK SLP162=

CYXE;2005-03-05 03:00;METAR CYXE 050300Z 18007KT 15SM SKC M00/M03 A2989 RMK SLP156=

CYXE;2005-03-05 04:00;METAR CYXE 050400Z 17009KT 15SM SKC M01/M03 A2987 RMK SLP148=

CYXE;2005-03-05 05:00;METAR CYXE 050500Z 19008KT 15SM SKC 00/M03 A2986 RMK SLP145=

CYXE;2005-03-05 06:00;METAR CYXE 050600Z 25006KT 15SM SKC M05/M06 A2986 RMK SLP141=

CYXE;2005-03-05 07:00;METAR CYXE 050700Z 25008KT 10SM SKC M06/M07 A2986 RMK BR SLP141=

CYXE;2005-03-05 08:00;METAR CYXE 050800Z 26010KT 10SM SKC M07/M09 A2985 RMK BR SLP139=

CYXE;2005-03-05 09:00;METAR CYXE 050900Z 27010KT 10SM SKC M07/M09 A2986 RMK BR SLP140=

CYXE;2005-03-05 10:00;METAR CYXE 051000Z 27006KT 10SM SKC M08/M10 A2987 RMK BR SLP145=

CYXE;2005-03-05 11:00;METAR CYXE 051100Z 26008KT 10SM SKC M08/M10 A2988 RMK BR SLP148=

CYXE;2005-03-05 12:00;METAR CYXE 051200Z 30008KT 12SM SKC M08/M10 A2989 RMK BR SLP150=

CYXE;2005-03-05 13:00;METAR CYXE 051300Z 29009KT 15SM FEW250 M06/M07 A2990 RMK CI0 SLP156=

CYXE;2005-03-05 14:00;METAR CYXE 051400Z 22008KT 10SM BKN250 M09/M10 A2991 RMK CI2 BR SLP157=

CYXE;2005-03-05 15:00;METAR CYXE 051500Z 22008KT 10SM BKN250 M08/M10 A2991 RMK CI2 BR SLP161=

CYXE;2005-03-05 16:00;METAR CYXE 051600Z 22007KT 10SM BKN250 M04/M08 A2991 RMK CI2 BR SLP160=

CYXE;2005-03-05 17:00;METAR CYXE 051700Z 21008KT 15SM SCT250 M02/M06 A2990 RMK CI2 SLP156=

CYXE;2005-03-05 18:00;METAR CYXE 051800Z 22011KT 15SM SCT250 M01/M04 A2991 RMK CI2 SLP158=

CYXE;2005-03-05 19:00;METAR CYXE 051900Z 23011KT 15SM FEW094 BKN250 01/M03 A2990 RMK AC1CI2 SLP155=

CYXE;2005-03-05 20:00;METAR CYXE 052000Z 22009KT 15SM FEW094 OVC250 02/M02 A2986 RMK AC2CI3 SLP144=

CYXE;2005-03-05 21:00;METAR CYXE 052100Z 22009KT 15SM SCT090 OVC250 03/M02 A2983 RMK AS2CI3 SLP131=

CYXE;2005-03-05 22:00;METAR CYXE 052200Z 23011KT 15SM FEW090 OVC250 03/M02 A2980 RMK AC1CI2 SLP121=

CYXE;2005-03-05 23:00;METAR CYXE 052300Z 24011KT 15SM OVC250 02/M01 A2979 RMK CI2 SLP118=

CYXE;2005-03-06 00:00;METAR CYXE 060000Z 25009KT 15SM FEW090 OVC250 02/M02 A2978 RMK AC1CI2 SLP114=

CYXE;2005-03-06 01:00;METAR CYXE 060100Z 23006KT 15SM SCT090 OVC250 M00/M02 A2975 RMK AC3CI1 SLP104=

CYXE;2005-03-06 02:00;METAR CYXE 060200Z 21007KT 15SM SCT100 OVC250 01/M02 A2973 RMK AC4CI2 SLP098=

CYXE;2005-03-06 03:00;METAR CYXE 060300Z 20007KT 15SM BKN100 OVC250 02/M01 A2971 RMK AS6CI2 SLP091=

CYXE;2005-03-06 04:00;METAR CYXE 060400Z 20006KT 15SM OVC071 02/M01 A2968 RMK AC8 SLP080=

CYXE;2005-03-06 05:00;METAR CYXE 060500Z 21006KT 15SM OVC069 01/M01 A2966 RMK AC8 SLP074=

CYXE;2005-03-06 06:00;METAR CYXE 060600Z 23005KT 15SM -RA OVC045 01/M01 A2963 RMK SC8 SLP060=

CYXE;2005-03-06 07:00;METAR CYXE 060700Z 21005KT 15SM -RA OVC040 01/M00 A2961 RMK SC8 SLP051=

CYXE;2005-03-06 08:00;METAR CYXE 060800Z 10003KT 15SM -RA OVC046 01/M00 A2957 RMK SC8 SLP038=

CYXE;2005-03-06 09:00;METAR CYXE 060900Z 32004KT 15SM -RA OVC046 01/M00 A2956 RMK SC8 SLP033=

CYXE;2005-03-06 10:00;METAR CYXE 061000Z 27012G20KT 8SM -RA SCT008 OVC037 01/00 A2957 RMK CF3SC5 SLP037=

CYXE;2005-03-06 11:00;METAR CYXE 061100Z 31013KT 12SM -RA BKN017 OVC028 02/00 A2957 RMK SC5SC3 SLP035=

CYXE;2005-03-06 12:00;METAR CYXE 061200Z 33008KT 15SM -RA FEW015 OVC028 01/00 A2955 RMK SC2SC6 SLP031=

CYXE;2005-03-06 13:00;METAR CYXE 061300Z 30007KT 8SM -RA OVC020 01/01 A2955 RMK SC8 SLP030=

CYXE;2005-03-06 13:47;SPECI CYXE 061347Z 33007KT 2SM -RA BR OVC027 RMK SC8=

CYXE;2005-03-06 14:00;METAR CYXE 061400Z 32006KT 2SM R09/6000FT/N -RA BR OVC027 01/00 A2956 RMK SC8 SLP032=

CYXE;2005-03-06 15:00;METAR CYXE 061500Z 31009KT 2SM R09/5500FT/N -RA BR OVC018 01/00 A2958 RMK SC8 SLP040=

CYXE;2005-03-06 16:00;METAR CYXE 061600Z 33009KT 3SM -RA BR OVC012 01/01 A2962 RMK SC8 SLP052=

CYXE;2005-03-06 16:24;SPECI CYXE 061624Z 36009KT 6SM -RA BR OVC005 RMK ST8=

CYXE;2005-03-06 17:00;METAR CYXE 061700Z 36007KT 6SM -RA BR OVC005 01/01 A2966 RMK ST8 SLP066=

CYXE;2005-03-06 17:18;SPECI CYXE 061718Z 36007KT 8SM -RA OVC016 RMK SC8=

CYXE;2005-03-06 17:28;SPECI CYXE 061728Z 01007KT 8SM -RA BKN007 OVC016 RMK ST5SC3=

CYXE;2005-03-06 18:00;METAR CYXE 061800Z 02005KT 8SM -RA SCT005 BKN019 OVC093 01/01 A2969 RMK SF3SC3AC2 SLP078=

CYXE;2005-03-06 19:00;METAR CYXE 061900Z 01006KT 10SM -RA BKN005 OVC046 01/00 A2972 RMK ST5SC3 SLP088=

CYXE;2005-03-06 19:24;SPECI CYXE 061924Z 04007KT 10SM BKN004 OVC044 RMK SF5SC3=

CYXE;2005-03-06 20:00;METAR CYXE 062000Z 05008KT 10SM BKN004 OVC045 01/M00 A2976 RMK SF5SC3 SLP099=

CYXE;2005-03-06 21:00;METAR CYXE 062100Z 05004KT 12SM BKN005 OVC045 01/M01 A2978 RMK SF5SC3 SLP111=

CYXE;2005-03-06 22:00;METAR CYXE 062200Z 06007KT 10SM OVC006 M00/M02 A2983 RMK SF8 SLP125=

CYXE;2005-03-06 22:08;SPECI CYXE 062208Z 05009KT 4SM -SHSN OVC006 RMK SF8=

CYXE;2005-03-06 22:11;SPECI CYXE 062211Z 06010KT 1 1/2SM -SHSN OVC006 RMK SN3SF5=

CYXE;2005-03-06 22:26;SPECI CYXE 062226Z 06008KT 12SM BKN006 OVC035 RMK SF7SC1=

CYXE;2005-03-06 23:00;METAR CYXE 062300Z 06005KT 3SM -SHPL OVC006 M01/M03 A2987 RMK SF8 SLP139=

CYXE;2005-03-06 23:03;SPECI CYXE 062303Z 07005KT 2SM -SHSN OVC006 RMK SN3SF5=

CYXE;2005-03-06 23:23;SPECI CYXE 062323Z 09003KT 3SM R09/4000VP6000FT/U -RA BR OVC005 RMK SF8=

CYXE;2005-03-06 23:50;SPECI CYXE 062350Z 00000KT 15SM FEW005 BKN020 OVC060 RMK SF2SC4SC1=

CYXE;2005-03-07 00:00;METAR CYXE 070000Z 00000KT 12SM FEW025 BKN045 BKN110 BKN250 M01/M02 A2989 RMK SC2SC2AC1CI1 BR SLP147=

CYXE;2005-03-07 01:00;METAR CYXE 070100Z 09002KT 10SM BKN018 OVC050 M01/M02 A2991 RMK SC6SC2 BR SLP155=

CYXE;2005-03-07 02:00;METAR CYXE 070200Z 23002KT 12SM BKN025 BKN075 M01/M02 A2993 RMK SC5AC2 BR SLP162=

CYXE;2005-03-07 03:00;METAR CYXE 070300Z 25003KT 8SM SCT050 M02/M03 A2995 RMK SC2 BR SLP170=

CYXE;2005-03-07 03:40;SPECI CYXE 070340Z 28003KT 1SM R09/2400VP6000FT/D BR FEW060 RMK FG2SC1=

CYXE;2005-03-07 04:00;METAR CYXE 070400Z 33005KT 3SM R09/3000VP6000FT/D BR FEW060 M02/M03 A2997 RMK FG1SC1 SLP175=

CYXE;2005-03-07 06:00;METAR CYXE 070600Z 02006KT 15SM FEW070 M05/M07 A2999 RMK AC2 SLP186=

CYXE;2005-03-07 07:00;METAR CYXE 070700Z 34006KT 15SM BKN075 M05/M07 A3001 RMK AC5 SLP190=

CYXE;2005-03-07 08:00;METAR CYXE 070800Z 33004KT 15SM FEW075 M05/M07 A3002 RMK AC2 SLP193=

CYXE;2005-03-07 09:00;METAR CYXE 070900Z 33005KT 15SM FEW075 M06/M07 A3002 RMK AC2 SLP196=

CYXE;2005-03-07 10:00;METAR CYXE 071000Z 30005KT 15SM BKN022 M06/M08 A3003 RMK SC7 SLP198=

CYXE;2005-03-07 11:00;METAR CYXE 071100Z 27002KT 15SM FEW022 M07/M08 A3002 RMK SC2 SLP196=

CYXE;2005-03-07 12:00;METAR CYXE 071200Z 31005KT 2SM R09/2200VP6000FT/D BR MIFG FEW020 M09/M10 A3002 RMK SC2 SLP200=

CYXE;2005-03-07 12:07;SPECI CYXE 071207Z 32005KT 1/2SM R09/1600V2800FT/N FZFG SCT020 RMK FG2SC2=

CYXE;2005-03-07 12:27;SPECI CYXE 071227Z 34004KT 2SM R09/2400V4500FT/D BR BKN021 RMK SC6=

CYXE;2005-03-07 12:32;SPECI CYXE 071232Z 36003KT 4SM R09/2400VP6000FT/U BR FEW001 BKN021 RMK ST1SC6=

CYXE;2005-03-07 13:00;METAR CYXE 071300Z 36003KT 6SM BR BKN018 M08/M10 A3003 RMK SC7 SLP202=

CYXE;2005-03-07 14:00;METAR CYXE 071400Z 04003KT 10SM OVC015 M07/M08 A3002 RMK SC8 SLP200=

CYXE;2005-03-07 15:00;METAR CYXE 071500Z 00000KT 15SM BKN015 M06/M07 A3003 RMK SC6 SLP201=

CYXE;2005-03-07 16:00;METAR CYXE 071600Z 06007KT 15SM BKN019 M05/M06 A3003 RMK SC6 SLP201=

CYXE;2005-03-07 17:00;METAR CYXE 071700Z 08005KT 15SM SCT019 OVC047 M04/M07 A3001 RMK SF4SC4 SLP194=

CYXE;2005-03-07 18:00;METAR CYXE 071800Z 09004KT 15SM SCT010 OVC017 M03/M06 A2999 RMK SF3SC5 SLP190=

CYXE;2005-03-07 20:00;METAR CYXE 072000Z 13004KT 15SM OVC013 M03/M06 A2997 RMK SC8 SLP181=

CYXE;2005-03-07 21:00;METAR CYXE 072100Z 18004KT 15SM OVC015 M02/M06 A2993 RMK SC8 SLP168=

CYXE;2005-03-07 22:00;METAR CYXE 072200Z 19005KT 15SM OVC015 M02/M05 A2991 RMK SC8 SLP162=

CYXE;2005-03-07 23:00;METAR CYXE 072300Z 13005KT 15SM OVC015 M02/M05 A2989 RMK SC7 SLP154=

CYXE;2005-03-07 23:41;SPECI CYXE 072341Z 15004KT 15SM OVC013 RMK SC8=

CYXE;2005-03-08 00:00;METAR CYXE 080000Z 14007KT 15SM OVC013 M02/M05 A2988 RMK SC8 SLP151=

CYXE;2005-03-08 01:00;METAR CYXE 080100Z 13007KT 15SM OVC011 M03/M06 A2989 RMK SC8 SLP155=

CYXE;2005-03-08 02:00;METAR CYXE 080200Z 11007KT 15SM OVC010 M04/M06 A2990 RMK SC8 SLP158=

CYXE;2005-03-08 03:00;METAR CYXE 080300Z 13005KT 15SM OVC010 M04/M06 A2990 RMK SC8 SLP158=

CYXE;2005-03-08 03:41;SPECI CYXE 080341Z 12006KT 15SM OVC009 RMK SC8=

CYXE;2005-03-08 04:00;METAR CYXE 080400Z 12005KT 15SM OVC008 M04/M07 A2990 RMK SF8 SLP157=

CYXE;2005-03-08 05:00;METAR CYXE 080500Z 13006KT 15SM OVC009 M04/M07 A2989 RMK SF8 SLP154=

CYXE;2005-03-08 05:21;SPECI CYXE 080521Z 13004KT 15SM SCT010 OVC085 RMK SC4AC4=

CYXE;2005-03-08 05:51;SPECI CYXE 080551Z 14004KT 15SM BKN009 OVC060 RMK SF6SC2=

CYXE;2005-03-08 06:00;METAR CYXE 080600Z 14005KT 15SM BKN010 OVC060 M05/M07 A2988 RMK SF6SC2 SLP151=

CYXE;2005-03-08 07:00;METAR CYXE 080700Z 17005KT 15SM SCT010 OVC060 M04/M06 A2987 RMK ST3SC5 SLP147=

CYXE;2005-03-08 07:21;SPECI CYXE 080721Z 18007KT 8SM -SN BKN009 OVC060 RMK ST6SC2=

CYXE;2005-03-08 08:00;METAR CYXE 080800Z 18007KT 4SM -SN BKN009 OVC050 M03/M05 A2985 RMK ST5SC3 SLP139=

CYXE;2005-03-08 09:00;METAR CYXE 080900Z 17009KT 8SM -SN OVC015 M02/M04 A2983 RMK SC8 SLP129=

CYXE;2005-03-08 10:00;METAR CYXE 081000Z 16008KT 2SM -SN OVC011 M02/M03 A2981 RMK SN3SC5 SLP122=

CYXE;2005-03-08 10:27;SPECI CYXE 081027Z 16009KT 4SM -SN OVC006 RMK SC8=

CYXE;2005-03-08 11:00;METAR CYXE 081100Z 17008KT 4SM -SN OVC005 M02/M03 A2979 RMK SC8 SLP118=

CYXE;2005-03-08 11:28;SPECI CYXE 081128Z 18005KT 2SM -SN OVC005 RMK SN2SC6=

CYXE;2005-03-08 12:00;METAR CYXE 081200Z 21002KT 2SM -SN OVC004 M01/M02 A2980 RMK SN2SC6 SLP118=

CYXE;2005-03-08 13:00;METAR CYXE 081300Z 31012KT 3SM -SN BKN006 OVC017 M00/M01 A2981 RMK SF5SC3 SLP122=

CYXE;2005-03-08 13:18;SPECI CYXE 081318Z 32015KT 1SM R09/P6000FT/D -SN VV010 RMK SN8=

CYXE;2005-03-08 14:00;METAR CYXE 081400Z 33014KT 1 1/2SM -SN SCT007 OVC014 M01/M02 A2984 RMK SF3SC5 SLP133=

CYXE;2005-03-08 14:45;SPECI CYXE 081445Z 35007KT 4SM -SN SCT007 OVC025 RMK SF3SC5=

CYXE;2005-03-08 15:00;METAR CYXE 081500Z 35011KT 4SM -SN FEW007 OVC023 M02/M04 A2987 RMK SF2SC6 SLP147=

CYXE;2005-03-08 15:31;SPECI CYXE 081531Z 01012KT 10SM OVC021 RMK SC8=

CYXE;2005-03-08 15:50;SPECI CYXE 081550Z 01010KT 4SM -SN SCT006 OVC021 RMK SF3SC5=

CYXE;2005-03-08 16:00;METAR CYXE 081600Z 01008KT 6SM -SN SCT006 OVC021 M03/M05 A2992 RMK SF3SC5 SLP162=

CYXE;2005-03-08 16:26;SPECI CYXE 081626Z 03007KT 10SM OVC029 RMK SC8=

CYXE;2005-03-08 17:00;METAR CYXE 081700Z 35005KT 10SM OVC031 M03/M05 A2995 RMK SC8 SLP171=

CYXE;2005-03-08 18:00;METAR CYXE 081800Z 33005KT 10SM SCT010 OVC031 M02/M05 A2997 RMK SF3SC5 SLP180=

CYXE;2005-03-08 19:00;METAR CYXE 081900Z 32006KT 10SM OVC029 M01/M04 A2999 RMK SC8 SLP185=

CYXE;2005-03-08 20:00;METAR CYXE 082000Z 29004KT 15SM BKN016 OVC028 M00/M03 A3001 RMK SC6SC2 SLP192=

CYXE;2005-03-08 21:00;METAR CYXE 082100Z 25003KT 15SM FEW016 OVC038 00/M03 A3000 RMK SC2SC6 SLP187=

CYXE;2005-03-08 22:00;METAR CYXE 082200Z 25005KT 15SM FEW015 OVC022 01/M02 A3000 RMK SC2SC6 SLP188=

CYXE;2005-03-08 23:00;METAR CYXE 082300Z 27007KT 15SM FEW020 BKN042 OVC250 02/M02 A3001 RMK SC1SC6CI1 SLP189=

CYXE;2005-03-09 00:00;METAR CYXE 090000Z 29012KT 15SM FEW042 SCT250 01/M03 A3001 RMK SC1CI2 SLP189=

CYXE;2005-03-09 01:00;METAR CYXE 090100Z 28008KT 15SM BKN250 M01/M04 A3000 RMK CI3 SLP186=

CYXE;2005-03-09 02:00;METAR CYXE 090200Z 26006KT 15SM SCT250 M03/M05 A2999 RMK CI2 SLP182=

CYXE;2005-03-09 03:00;METAR CYXE 090300Z 19005KT 15SM BKN100 BKN250 M03/M05 A2999 RMK AC5CI1 SLP184=

CYXE;2005-03-09 04:00;METAR CYXE 090400Z 22006KT 15SM BKN110 OVC250 M02/M04 A2997 RMK AC6CI2 SLP180=

CYXE;2005-03-09 05:00;METAR CYXE 090500Z 20005KT 15SM BKN110 OVC250 M01/M03 A2996 RMK AC6CI2 SLP175=

CYXE;2005-03-09 06:00;METAR CYXE 090600Z 19006KT 15SM OVC100 M01/M03 A2994 RMK AC8 SLP166=

CYXE;2005-03-09 07:00;METAR CYXE 090700Z 18007KT 15SM OVC090 M01/M03 A2991 RMK AC8 SLP158=

CYXE;2005-03-09 08:00;METAR CYXE 090800Z 18008KT 15SM BKN100 M01/M03 A2989 RMK AC7 SLP152=

CYXE;2005-03-09 09:00;METAR CYXE 090900Z 19008KT 15SM OVC070 M01/M02 A2988 RMK AC8 SLP144=

CYXE;2005-03-09 10:00;METAR CYXE 091000Z 18006KT 15SM OVC070 M00/M02 A2985 RMK AC8 SLP134=

CYXE;2005-03-09 11:00;METAR CYXE 091100Z 18008KT 15SM OVC065 01/M02 A2982 RMK SC8 SLP125=

CYXE;2005-03-09 12:00;METAR CYXE 091200Z 18008KT 15SM OVC060 01/M02 A2978 RMK SC8 SLP111=

CYXE;2005-03-09 13:00;METAR CYXE 091300Z 18011KT 15SM BKN056 01/M03 A2972 RMK SC7 SLP092=

CYXE;2005-03-09 14:00;METAR CYXE 091400Z 19012KT 15SM BKN056 OVC220 01/M02 A2969 RMK SC6CI1 SLP082=

CYXE;2005-03-09 15:00;METAR CYXE 091500Z 22008KT 15SM BKN074 BKN220 00/M02 A2969 RMK AC6CI1 SLP083=

CYXE;2005-03-09 16:00;METAR CYXE 091600Z 23013KT 15SM SCT085 BKN250 02/M01 A2969 RMK AC4CI2 SLP082=

CYXE;2005-03-09 17:00;METAR CYXE 091700Z 24010KT 15SM FEW085 BKN250 01/M01 A2968 RMK AC2CI1 SLP078=

CYXE;2005-03-09 18:00;METAR CYXE 091800Z 24012KT 15SM FEW085 BKN250 03/M01 A2967 RMK AC2CI1 SLP070=

CYXE;2005-03-09 19:00;METAR CYXE 091900Z 28015KT 15SM FEW085 BKN250 06/M01 A2965 RMK AC1CI1 SLP066=

CYXE;2005-03-09 20:00;METAR CYXE 092000Z 29022KT 15SM FEW093 FEW250 06/M01 A2963 RMK AC2CI0 SLP057=

CYXE;2005-03-09 21:00;METAR CYXE 092100Z 30022G29KT 15SM FEW093 FEW250 05/M01 A2962 RMK AC1CI0 SLP052=

CYXE;2005-03-09 22:00;METAR CYXE 092200Z 30026G34KT 15SM FEW095 FEW250 05/M01 A2962 RMK AC1CI1 SLP053=

CYXE;2005-03-09 23:00;METAR CYXE 092300Z 31023G33KT 15SM SCT100 SCT250 05/M01 A2965 RMK AC3CI0 SLP063=

CYXE;2005-03-10 00:00;METAR CYXE 100000Z 30023G32KT 15SM BKN060 BKN250 04/M01 A2968 RMK SC6CI1 SLP071=

CYXE;2005-03-10 01:00;METAR CYXE 100100Z 31021G28KT 15SM BKN060 BKN250 04/M01 A2971 RMK SC6CI1 SLP081=

CYXE;2005-03-10 02:00;METAR CYXE 100200Z 31021G27KT 15SM BKN055 BKN250 04/M01 A2976 RMK SC6CI1 SLP099=

CYXE;2005-03-10 03:00;METAR CYXE 100300Z 33012KT 15SM FEW050 03/M01 A2981 RMK SC2 PRESRR SLP121=

CYXE;2005-03-10 04:00;METAR CYXE 100400Z 32016KT 15SM BKN055 02/M00 A2984 RMK SC6 SLP130=

CYXE;2005-03-10 05:00;METAR CYXE 100500Z 32014KT 15SM BKN052 02/M00 A2987 RMK SC6 SLP140=

CYXE;2005-03-10 05:43;SPECI CYXE 100543Z 32013KT 15SM -RA BKN025 OVC095 RMK SC5AC3=

CYXE;2005-03-10 06:00;METAR CYXE 100600Z 34014KT 10SM -RA OVC017 02/M00 A2991 RMK SC8 SLP152=

CYXE;2005-03-10 06:27;SPECI CYXE 100627Z 32015KT 15SM SCT013 RMK SC3=

CYXE;2005-03-10 07:00;METAR CYXE 100700Z 31014G19KT 15SM FEW019 02/M00 A2992 RMK SC2 SLP154=

CYXE;2005-03-10 08:00;METAR CYXE 100800Z 31010G15KT 15SM BKN030 01/M01 A2995 RMK SC6 SLP163=

CYXE;2005-03-10 09:00;METAR CYXE 100900Z 31011KT 15SM BKN031 02/M01 A2997 RMK SC7 SLP171=

CYXE;2005-03-10 10:00;METAR CYXE 101000Z 31011KT 15SM BKN029 01/M02 A2999 RMK SC6 SLP178=

CYXE;2005-03-10 11:00;METAR CYXE 101100Z 30013KT 15SM SCT046 00/M02 A3000 RMK SC4 SLP181=

CYXE;2005-03-10 12:00;METAR CYXE 101200Z 31013KT 15SM FEW046 00/M03 A3002 RMK SC2 SLP190=

CYXE;2005-03-10 13:00;METAR CYXE 101300Z 30012KT 15SM SCT046 M00/M03 A3003 RMK SC3 SLP194=

CYXE;2005-03-10 14:00;METAR CYXE 101400Z 32016KT 15SM BKN025 00/M03 A3007 RMK SC7 SLP207=

CYXE;2005-03-10 15:00;METAR CYXE 101500Z 32014G20KT 15SM BKN030 00/M02 A3009 RMK SC7 SLP217=

CYXE;2005-03-10 17:00;METAR CYXE 101700Z 33012KT 15SM FEW012 BKN026 01/M03 A3012 RMK SF1SC6 SLP227=

CYXE;2005-03-10 18:00;METAR CYXE 101800Z 35012KT 15SM BKN030 02/M03 A3013 RMK SC6 SLP227=

CYXE;2005-03-10 19:00;METAR CYXE 101900Z 35007KT 15SM FEW040 FEW250 02/M03 A3013 RMK SC2CI0 SLP227=

CYXE;2005-03-10 20:00;METAR CYXE 102000Z 32012KT 15SM BKN027 02/M03 A3013 RMK SC5 SLP228=

CYXE;2005-03-10 21:00;METAR CYXE 102100Z 30012KT 15SM SCT027 BKN150 02/M03 A3012 RMK SC3AC2 SLP224=

CYXE;2005-03-10 22:00;METAR CYXE 102200Z 30010KT 15SM FEW027 BKN150 02/M02 A3010 RMK SC1AC4 SLP219=

CYXE;2005-03-10 23:00;METAR CYXE 102300Z 30010KT 15SM SCT190 01/M02 A3008 RMK CC3 SLP214=

CYXE;2005-03-11 00:00;METAR CYXE 110000Z 30005KT 15SM FEW190 01/M03 A3007 RMK CC1 SLP210=

CYXE;2005-03-11 01:00;METAR CYXE 110100Z 31007KT 15SM FEW140 SCT190 00/M03 A3007 RMK AC1CI2 SLP209=

CYXE;2005-03-11 02:00;METAR CYXE 110200Z 25004KT 15SM BKN092 M01/M03 A3005 RMK AC4 SLP204=

CYXE;2005-03-11 03:00;METAR CYXE 110300Z 27006KT 15SM OVC092 M00/M03 A3003 RMK AC8 SLP198=

CYXE;2005-03-11 04:00;METAR CYXE 110400Z 23007KT 15SM OVC087 M01/M03 A2999 RMK AC8 SLP185=

CYXE;2005-03-11 05:00;METAR CYXE 110500Z 24009KT 15SM BKN190 M02/M04 A2997 RMK CI1 SLP176=

CYXE;2005-03-11 06:00;METAR CYXE 110600Z 25007KT 15SM BKN150 M01/M03 A2993 RMK AC6 SLP161=

CYXE;2005-03-11 07:00;METAR CYXE 110700Z 25010KT 15SM OVC096 M00/M03 A2991 RMK AC8 SLP156=

CYXE;2005-03-11 08:00;METAR CYXE 110800Z 23009KT 15SM OVC069 00/M02 A2985 RMK AC8 SLP137=

CYXE;2005-03-11 09:00;METAR CYXE 110900Z 24009KT 15SM OVC068 00/M02 A2982 RMK AC8 SLP123=

CYXE;2005-03-11 10:00;METAR CYXE 111000Z 26008KT 15SM OVC083 01/M01 A2977 RMK AC8 SLP108=

CYXE;2005-03-11 11:00;METAR CYXE 111100Z 27008KT 15SM OVC076 01/M01 A2975 RMK AC8 SLP099=

CYXE;2005-03-11 12:00;METAR CYXE 111200Z 29008KT 15SM OVC047 01/M01 A2972 RMK SC8 SLP090=

CYXE;2005-03-11 12:48;SPECI CYXE 111248Z 30009KT 15SM -SHRA OVC041 RMK SC8=

CYXE;2005-03-11 13:00;METAR CYXE 111300Z 31010KT 15SM -SHRA OVC041 02/M02 A2973 RMK SC8 SLP093=

CYXE;2005-03-11 13:19;SPECI CYXE 111319Z 31007KT 15SM OVC041 RMK SC8=

CYXE;2005-03-11 14:00;METAR CYXE 111400Z 36008KT 15SM BKN055 OVC110 01/M01 A2972 RMK SC6AC2 SLP089=

CYXE;2005-03-11 15:00;METAR CYXE 111500Z 05013KT 15SM BKN007 OVC060 M01/M03 A2972 RMK SF6SC2 SLP089=

CYXE;2005-03-11 15:20;SPECI CYXE 111520Z 05013KT 15SM FEW009 BKN060 OVC120 RMK SF2SC5AC1=

CYXE;2005-03-11 16:00;METAR CYXE 111600Z 06016KT 15SM OVC050 M03/M06 A2974 RMK SC8 SLP097=

CYXE;2005-03-11 17:00;METAR CYXE 111700Z 09012KT 15SM BKN050 OVC075 M03/M05 A2972 RMK SC6AC2 SLP090=

CYXE;2005-03-11 17:40;SPECI CYXE 111740Z 09015KT 15SM BKN010 BKN045 OVC075 RMK SF5SC2AC1=

CYXE;2005-03-11 18:00;METAR CYXE 111800Z 11015KT 15SM SCT010 BKN045 OVC072 M05/M09 A2972 RMK SF3SC4AC1 SLP096=

CYXE;2005-03-11 19:00;METAR CYXE 111900Z 11014KT 15SM BKN052 OVC070 M06/M10 A2972 RMK SC6AC2 SLP094=

CYXE;2005-03-11 20:00;METAR CYXE 112000Z 10014KT 15SM FEW018 BKN052 OVC070 M06/M10 A2971 RMK SC2SC4AC2 SLP090=

CYXE;2005-03-11 21:00;METAR CYXE 112100Z 10013KT 15SM BKN016 OVC070 M06/M10 A2967 RMK SC6AC2 SLP075=

CYXE;2005-03-11 22:00;METAR CYXE 112200Z 11012KT 15SM BKN013 OVC070 M07/M10 A2964 RMK SC7AC1 SLP068=

CYXE;2005-03-11 23:00;METAR CYXE 112300Z 11008KT 15SM OVC011 M06/M09 A2964 RMK SC8 SLP066=

CYXE;2005-03-11 23:46;SPECI CYXE 112346Z 13008KT 15SM SCT013 OVC070 RMK SC4AC3=

CYXE;2005-03-12 00:00;METAR CYXE 120000Z 12008KT 15SM SCT013 OVC070 M06/M09 A2962 RMK SC4AC4 SLP057=

CYXE;2005-03-12 01:00;METAR CYXE 120100Z 11009KT 15SM FEW060 OVC075 M06/M09 A2959 RMK SC2AC6 SLP049=

CYXE;2005-03-12 02:00;METAR CYXE 120200Z 10005KT 15SM SCT015 OVC050 M06/M09 A2959 RMK SC3SC5 SLP050=

CYXE;2005-03-12 02:35;SPECI CYXE 120235Z 11005KT 15SM -PL BKN014 OVC050 RMK SC5SC3=

CYXE;2005-03-12 02:48;SPECI CYXE 120248Z 10004KT 15SM SCT014 BKN050 OVC080 RMK SC3SC3AC2=

CYXE;2005-03-12 03:00;METAR CYXE 120300Z 08006KT 15SM SCT014 BKN045 OVC080 M06/M09 A2958 RMK SC3SC2AC2 SLP047=

CYXE;2005-03-12 03:12;SPECI CYXE 120312Z 04008KT 15SM -PL FEW015 BKN045 OVC080 RMK SC2SC5AC2=

CYXE;2005-03-12 04:00;METAR CYXE 120400Z 04007KT 15SM FEW015 OVC025 M07/M09 A2960 RMK SC2SC6 SLP053=

CYXE;2005-03-12 04:09;SPECI CYXE 120409Z 03006KT 10SM -SN OVC022 RMK SC8=

CYXE;2005-03-12 05:22;SPECI CYXE 120522Z 04004KT 15SM SCT015 OVC040 RMK SC3SC5=

CYXE;2005-03-12 06:00;METAR CYXE 120600Z 34003KT 15SM OVC024 M09/M12 A2967 RMK SC8 SLP081=

CYXE;2005-03-12 07:00;METAR CYXE 120700Z 32007KT 15SM OVC020 M08/M11 A2966 RMK SC8 SLP079=

CYXE;2005-03-12 08:00;METAR CYXE 120800Z 03012KT 15SM BKN015 M10/M13 A2972 RMK SC6 SLP097=

CYXE;2005-03-12 08:49;SPECI CYXE 120849Z 03012KT 4SM -SN OVC015 RMK SC8=

CYXE;2005-03-12 09:00;METAR CYXE 120900Z 03012KT 2SM -SN OVC015 M12/M15 A2976 RMK SC8 TOWER OBS SLP116=

CYXE;2005-03-12 09:11;SPECI CYXE 120911Z 02011KT 3SM -SN OVC015 RMK SC8=

CYXE;2005-03-12 10:00;METAR CYXE 121000Z 03011KT 6SM -SN BKN022 M13/M16 A2980 RMK SC6 SLP127=

CYXE;2005-03-12 10:20;SPECI CYXE 121020Z 04010KT 15SM BKN022 RMK SC5=

CYXE;2005-03-12 11:00;METAR CYXE 121100Z 05010KT 15SM SCT020 M14/M16 A2981 RMK SC3 SLP132=

CYXE;2005-03-12 12:00;METAR CYXE 121200Z 04007KT 15SM FEW045 M14/M16 A2984 RMK SC2 SLP144=

CYXE;2005-03-12 12:41;SPECI CYXE 121241Z 03008KT 3SM -SN OVC028 RMK SC8=

CYXE;2005-03-12 13:00;METAR CYXE 121300Z 04006KT 1 1/2SM -SN OVC013 M13/M16 A2987 RMK SN3SC5 SLP154=

CYXE;2005-03-12 13:07;SPECI CYXE 121307Z 03004KT 5/8SM R09/P6000FT/D -SN VV009 RMK SN8=

CYXE;2005-03-12 13:32;SPECI CYXE 121332Z 05006KT 1 1/2SM -SN VV015 RMK SN8=

CYXE;2005-03-12 13:51;SPECI CYXE 121351Z 03004KT 2SM -SN OVC018 RMK SC6=

CYXE;2005-03-12 14:00;METAR CYXE 121400Z 03004KT 6SM -SN BKN018 OVC110 M13/M16 A2989 RMK SC5AC2 SLP161=

CYXE;2005-03-12 15:00;METAR CYXE 121500Z 32002KT 3SM -SN OVC022 M13/M15 A2990 RMK SN2SC6 SLP166=

CYXE;2005-03-12 15:11;SPECI CYXE 121511Z 29003KT 1 1/2SM -SN VV020 RMK SN8=

CYXE;2005-03-12 15:43;SPECI CYXE 121543Z 00000KT 1 1/4SM -SN VV008 RMK SN8=

CYXE;2005-03-12 16:00;METAR CYXE 121600Z 00000KT 1 1/4SM -SN VV008 M12/M15 A2992 RMK SN8 SLP170=

CYXE;2005-03-12 16:33;SPECI CYXE 121633Z 29002KT 6SM -SN BKN015 OVC055 RMK SC7SC1=

CYXE;2005-03-12 17:00;METAR CYXE 121700Z 34002KT 3SM -SN BKN020 OVC050 M12/M15 A2993 RMK SN2SC4SC2 SLP175=

CYXE;2005-03-12 17:06;SPECI CYXE 121706Z 33003KT 1 1/2SM -SN VV015 RMK SN8=

CYXE;2005-03-12 17:31;SPECI CYXE 121731Z 35004KT 4SM -SN BKN015 OVC070 RMK SN2SC5AC1=

CYXE;2005-03-12 18:00;METAR CYXE 121800Z 35005KT 4SM -SN SCT020 OVC040 M11/M14 A2994 RMK SC3SC3 SLP178=

CYXE;2005-03-12 18:38;SPECI CYXE 121838Z 02007KT 15SM FEW030 BKN110 RMK SC2AC3=

CYXE;2005-03-12 19:00;METAR CYXE 121900Z 01008KT 10SM -SN BKN028 OVC090 M10/M13 A2995 RMK SC5AC2 SLP182=

CYXE;2005-03-12 19:47;SPECI CYXE 121947Z 36008KT 15SM FEW030 OVC092 RMK SC2AC6=

CYXE;2005-03-12 20:00;METAR CYXE 122000Z 35007KT 15SM SCT030 OVC085 M10/M13 A2995 RMK SC3AC4 SLP183=

CYXE;2005-03-12 21:00;METAR CYXE 122100Z 35009KT 15SM BKN033 OVC070 M09/M13 A2996 RMK SC6AC2 SLP187=

CYXE;2005-03-12 21:37;SPECI CYXE 122137Z 35012KT 8SM -SN BKN040 OVC093 RMK SC7AC1=

CYXE;2005-03-12 22:00;METAR CYXE 122200Z 34011KT 8SM -SN OVC040 M09/M13 A2998 RMK SC8 SLP191=

CYXE;2005-03-13 00:00;METAR CYXE 130000Z 34017KT 10SM -SN DRSN BKN050 OVC090 M09/M13 A3000 RMK SC6AC2 SLP201=

CYXE;2005-03-13 00:16;SPECI CYXE 130016Z 32017KT 15SM DRSN FEW050 SCT090 OVC250 RMK SC1AC2CI4=

CYXE;2005-03-13 01:00;METAR CYXE 130100Z 33016KT 15SM DRSN FEW050 OVC250 M10/M13 A3002 RMK SC2CI6 SLP208=

CYXE;2005-03-13 02:00;METAR CYXE 130200Z 32012KT 15SM BKN250 M10/M13 A3003 RMK CI5 SLP212=

CYXE;2005-03-13 03:00;METAR CYXE 130300Z 34010KT 15SM FEW250 M12/M15 A3004 RMK CI0 SLP217=

CYXE;2005-03-13 04:00;METAR CYXE 130400Z 32013KT 15SM SKC M13/M16 A3005 RMK SLP218=

CYXE;2005-03-13 05:00;METAR CYXE 130500Z 32012KT 15SM FEW050 M13/M16 A3006 RMK SC1 SLP222=

CYXE;2005-03-13 06:00;METAR CYXE 130600Z 32012KT 15SM SKC M14/M17 A3006 RMK SLP222=

CYXE;2005-03-13 07:00;METAR CYXE 130700Z 32011KT 15SM SKC M15/M17 A3006 RMK SLP223=

CYXE;2005-03-13 08:00;METAR CYXE 130800Z 32009KT 15SM SKC M15/M18 A3007 RMK SLP225=

CYXE;2005-03-13 09:00;METAR CYXE 130900Z 32011KT 15SM SKC M16/M19 A3007 RMK SLP226=

CYXE;2005-03-13 10:00;METAR CYXE 131000Z 30008KT 15SM SKC M16/M19 A3007 RMK SLP226=

CYXE;2005-03-13 11:00;METAR CYXE 131100Z 30008KT 15SM BKN081 M17/M19 A3008 RMK AC3 SLP230=

CYXE;2005-03-13 12:00;METAR CYXE 131200Z 31011KT 15SM OVC067 M14/M17 A3009 RMK AC8 SLP234=

CYXE;2005-03-13 13:00;METAR CYXE 131300Z 31009KT 15SM BKN077 M13/M17 A3010 RMK AC6 SLP237=

CYXE;2005-03-13 14:00;METAR CYXE 131400Z 32012KT 15SM BKN077 M12/M17 A3010 RMK AC6 SLP236=

CYXE;2005-03-13 15:00;METAR CYXE 131500Z 32014KT 15SM BKN070 M12/M16 A3011 RMK AC6 SLP239=

CYXE;2005-03-13 16:00;METAR CYXE 131600Z 34013G18KT 15SM BKN065 M11/M17 A3013 RMK SC6 SLP245=

CYXE;2005-03-13 17:00;METAR CYXE 131700Z 34012KT 15SM BKN058 M10/M18 A3013 RMK SC7 SLP245=

CYXE;2005-03-13 18:00;METAR CYXE 131800Z 32013KT 15SM BKN060 M09/M16 A3013 RMK SC6 SLP247=

CYXE;2005-03-13 19:00;METAR CYXE 131900Z 33014KT 15SM SCT060 M09/M18 A3014 RMK SC2 SLP248=

CYXE;2005-03-13 20:00;METAR CYXE 132000Z 32015KT 15SM FEW060 SCT250 M08/M16 A3013 RMK SC1CI0 SLP246=

CYXE;2005-03-13 21:00;METAR CYXE 132100Z 32013G20KT 15SM SCT250 M08/M16 A3014 RMK CI1 SLP249=

CYXE;2005-03-13 22:00;METAR CYXE 132200Z 33015G20KT 15SM SCT250 M07/M15 A3013 RMK CI1 SLP247=

CYXE;2005-03-13 23:00;METAR CYXE 132300Z 32014KT 15SM FEW025 FEW050 SCT250 M07/M14 A3013 RMK CU1SC1CI1 SLP246=

CYXE;2005-03-14 00:00;METAR CYXE 140000Z 31010KT 15SM FEW025 FEW050 SCT250 M07/M14 A3013 RMK CU1SC1CI1 SLP246=

CYXE;2005-03-14 01:00;METAR CYXE 140100Z 33006KT 15SM SCT080 SCT250 M10/M14 A3014 RMK AC3CI1 SLP248=

CYXE;2005-03-14 02:00;METAR CYXE 140200Z 31006KT 15SM FEW080 SCT250 M11/M16 A3014 RMK AC2CI1 SLP249=

CYXE;2005-03-14 03:00;METAR CYXE 140300Z 29006KT 15SM FEW080 SCT250 M12/M16 A3015 RMK AC2CI1 SLP253=

CYXE;2005-03-14 04:00;METAR CYXE 140400Z 31005KT 15SM FEW030 SCT080 BKN250 M12/M16 A3016 RMK SC2AC2CI1 SLP255=

CYXE;2005-03-14 04:48;SPECI CYXE 140448Z 01005KT 15SM BKN024 BKN250 RMK SC5CI1=

CYXE;2005-03-14 05:00;METAR CYXE 140500Z 36004KT 15SM SCT024 SCT080 BKN250 M12/M15 A3016 RMK SC3AC1CI0 SLP256=

CYXE;2005-03-14 06:00;METAR CYXE 140600Z 30002KT 15SM BKN061 M13/M15 A3017 RMK SC4 SLP257=

CYXE;2005-03-14 07:00;METAR CYXE 140700Z 28002KT 15SM OVC029 M11/M14 A3016 RMK SC8 SLP255=

CYXE;2005-03-14 08:00;METAR CYXE 140800Z 28002KT 15SM OVC023 M10/M14 A3016 RMK SC8 SLP255=

CYXE;2005-03-14 08:19;SPECI CYXE 140819Z 25002KT 15SM -SN OVC027 RMK SC8=

CYXE;2005-03-14 10:00;METAR CYXE 141000Z 24002KT 10SM -SN OVC031 M09/M13 A3014 RMK SC8 SLP247=

CYXE;2005-03-14 11:00;METAR CYXE 141100Z 21005KT 8SM -SN OVC029 M09/M13 A3013 RMK SC8 SLP242=

CYXE;2005-03-14 12:00;METAR CYXE 141200Z 19003KT 15SM -SN OVC019 M09/M12 A3012 RMK SC8 SLP238=

CYXE;2005-03-14 13:00;METAR CYXE 141300Z 19003KT 15SM -SN OVC058 M09/M12 A3011 RMK SC8 SLP233=

CYXE;2005-03-14 14:00;METAR CYXE 141400Z 23005KT 15SM -SN BKN023 OVC060 M09/M11 A3010 RMK SC6SC2 SLP231=

CYXE;2005-03-14 15:00;METAR CYXE 141500Z 27005KT 10SM -SN BKN015 OVC055 M07/M10 A3008 RMK SC6SC2 SLP228=

CYXE;2005-03-14 16:00;METAR CYXE 141600Z 23007KT 15SM SCT020 OVC060 M06/M09 A3006 RMK SC4SC4 SLP219=

CYXE;2005-03-14 17:00;METAR CYXE 141700Z 24007KT 15SM BKN055 BKN090 M04/M07 A3003 RMK SC5AC1 SLP210=

CYXE;2005-03-14 18:00;METAR CYXE 141800Z 28008KT 15SM FEW020 SCT060 OVC250 M02/M07 A2999 RMK CU2SC2CI4 SLP194=

CYXE;2005-03-14 19:00;METAR CYXE 141900Z 28014KT 15SM FEW020 BKN052 OVC250 M01/M07 A2997 RMK CU2SC3CI2 SLP185=

CYXE;2005-03-14 20:00;METAR CYXE 142000Z 29011KT 15SM VCSH SCT025 OVC050 M01/M06 A2993 RMK CU4SC3 SLP172=

CYXE;2005-03-14 20:40;SPECI CYXE 142040Z 27011KT 2SM -SHSN DRSN BKN025 OVC050 RMK CU6SC2=

CYXE;2005-03-14 21:00;METAR CYXE 142100Z 29014KT 1 1/2SM -SHSN OVC025 M02/M04 A2990 RMK SC8 CU EMBDD SLP161=

CYXE;2005-03-14 21:07;SPECI CYXE 142107Z 30012KT 2SM R09/4500VP6000FT/U -SHSN OVC025 RMK SC8 CU EMBDD=

CYXE;2005-03-14 21:20;SPECI CYXE 142120Z 30011KT 1SM R09/2000VP6000FT/D -SHSN VV015 RMK SN8 CU EMBD=

CYXE;2005-03-14 21:23;SPECI CYXE 142123Z 31011KT 1/2SM R09/1400VP6000FT/D SHSN VV008 RMK SN8 CU EMBD=

CYXE;2005-03-14 22:00;METAR CYXE 142200Z 02019G25KT 1SM R09/P6000FT/D -SHSN DRSN OVC015TCU M04/M06 A2991 RESN REBLSN RMK SN5TCU3 SLP164=

CYXE;2005-03-14 22:09;SPECI CYXE 142209Z 03015G21KT 5SM -SN DRSN SCT006 BKN038 RMK SF4SC3=

CYXE;2005-03-14 22:22;SPECI CYXE 142222Z 04016KT 12SM FEW006 SCT035 BKN070 RMK SF2SC2AC4=

CYXE;2005-03-14 23:00;METAR CYXE 142300Z 02017KT 15SM FEW030 BKN095 M05/M08 A2992 RMK SC2AC5 SLP167=

CYXE;2005-03-15 00:00;METAR CYXE 150000Z 01016KT 15SM SCT020 BKN090 M05/M07 A2995 RMK SC3AC2 SLP176=

CYXE;2005-03-15 01:00;METAR CYXE 150100Z 01016KT 15SM FEW020 SCT090 M06/M11 A2996 RMK SC2AC2 SLP180=

CYXE;2005-03-15 02:00;METAR CYXE 150200Z 01013KT 15SM FEW025 BKN080 M08/M13 A2998 RMK SC2AC4 SLP188=

CYXE;2005-03-15 03:00;METAR CYXE 150300Z 01014G19KT 15SM BKN048 M08/M13 A2999 RMK SC6 SLP194=

CYXE;2005-03-15 04:00;METAR CYXE 150400Z 02017KT 15SM OVC044 M08/M14 A3001 RMK SC8 SLP200=

CYXE;2005-03-15 05:00;METAR CYXE 150500Z 05007KT 15SM OVC040 M09/M13 A3003 RMK SC8 SLP205=

CYXE;2005-03-15 06:00;METAR CYXE 150600Z 03005KT 15SM OVC023 M10/M14 A3004 RMK SC7 SLP209=

CYXE;2005-03-15 07:00;METAR CYXE 150700Z 05010KT 15SM OVC035 M11/M16 A3004 RMK SC8 SLP209=

CYXE;2005-03-15 08:00;METAR CYXE 150800Z 04005KT 15SM OVC038 M12/M16 A3006 RMK SC8 SLP213=

CYXE;2005-03-15 09:00;METAR CYXE 150900Z 36005KT 15SM OVC040 M13/M16 A3006 RMK SC8 SLP215=

CYXE;2005-03-15 10:00;METAR CYXE 151000Z 36004KT 15SM OVC038 M13/M16 A3005 RMK SC8 SLP214=

CYXE;2005-03-15 11:00;METAR CYXE 151100Z 36003KT 15SM OVC038 M13/M16 A3005 RMK SC8 SLP214=

CYXE;2005-03-15 12:00;METAR CYXE 151200Z 29002KT 15SM OVC036 M13/M16 A3006 RMK SC8 SLP217=

CYXE;2005-03-15 13:00;METAR CYXE 151300Z 36004KT 15SM OVC036 M12/M15 A3007 RMK SC8 SLP221=

CYXE;2005-03-15 13:41;SPECI CYXE 151341Z 01005KT 15SM -SN FEW015 OVC035 RMK SC2SC6=

CYXE;2005-03-15 14:00;METAR CYXE 151400Z 01006KT 15SM -SN FEW016 OVC035 M13/M16 A3008 RMK SC2SC5 SLP224=

CYXE;2005-03-15 15:00;METAR CYXE 151500Z 03008KT 15SM FEW015 OVC034 M13/M17 A3009 RMK SC2SC6 SLP231=

CYXE;2005-03-15 15:05;SPECI CYXE 151505Z 04008KT 15SM FEW015 OVC034 RMK SC1SC6=

CYXE;2005-03-15 16:00;METAR CYXE 151600Z 03004KT 15SM FEW030 M13/M17 A3010 RMK SC2 SLP233=

CYXE;2005-03-15 17:00;METAR CYXE 151700Z 03004KT 15SM FEW030 M13/M18 A3010 RMK SC1 SLP233=

CYXE;2005-03-15 18:00;METAR CYXE 151800Z 36002KT 15SM FEW030 M12/M18 A3009 RMK SC1 SLP232=

CYXE;2005-03-15 19:00;METAR CYXE 151900Z 01002KT 15SM FEW030 M12/M17 A3009 RMK SC2 SLP232=

CYXE;2005-03-15 20:00;METAR CYXE 152000Z 32002KT 15SM FEW030 M11/M17 A3009 RMK SC2 SLP233=

CYXE;2005-03-15 21:00;METAR CYXE 152100Z 00000KT 15SM FEW030 SCT250 M09/M17 A3009 RMK SC1CI0 SLP231=

CYXE;2005-03-15 22:00;METAR CYXE 152200Z 00000KT 15SM FEW030 FEW250 M10/M17 A3008 RMK CU1CI1 SLP228=

CYXE;2005-03-15 23:00;METAR CYXE 152300Z 07006KT 15SM FEW030 BKN220 M10/M15 A3008 RMK CU1CI2 SLP229=

CYXE;2005-03-16 00:00;METAR CYXE 160000Z 11005KT 15SM FEW030 FEW090 BKN220 M11/M16 A3008 RMK CU1AC1CI2 SLP229=

CYXE;2005-03-16 01:00;METAR CYXE 160100Z 12007KT 15SM FEW090 FEW250 M12/M17 A3008 RMK AC1CI1 SLP229=

CYXE;2005-03-16 02:00;METAR CYXE 160200Z 13008KT 15SM FEW030 SCT090 M13/M18 A3008 RMK SC2AC2 SLP230=

CYXE;2005-03-16 03:00;METAR CYXE 160300Z 14009KT 15SM FEW022 FEW090 M14/M18 A3009 RMK SC2AC1 SLP234=

CYXE;2005-03-16 04:00;METAR CYXE 160400Z 13007KT 15SM FEW090 M14/M19 A3008 RMK AC1 SLP233=

CYXE;2005-03-16 06:00;METAR CYXE 160600Z 13008KT 15SM BKN030 M15/M19 A3007 RMK SC6 SLP229=

CYXE;2005-03-16 07:00;METAR CYXE 160700Z 14006KT 15SM FEW030 M15/M19 A3006 RMK SC2 SLP226=

CYXE;2005-03-16 08:00;METAR CYXE 160800Z 14007KT 15SM FEW120 M16/M20 A3006 RMK AC1 SLP225=

CYXE;2005-03-16 09:00;METAR CYXE 160900Z 12004KT 15SM FEW120 SCT250 M17/M20 A3006 RMK AC1CI1 SLP224=

CYXE;2005-03-16 10:00;METAR CYXE 161000Z 12005KT 15SM SKC M17/M21 A3005 RMK SLP222=

CYXE;2005-03-16 11:00;METAR CYXE 161100Z 11006KT 15SM FEW250 M17/M21 A3005 RMK CI1 SLP221=

CYXE;2005-03-16 12:00;METAR CYXE 161200Z 11008KT 15SM FEW095 SCT250 M17/M21 A3004 RMK AC2CI2 SLP219=

CYXE;2005-03-16 13:00;METAR CYXE 161300Z 09009KT 15SM SCT095 BKN250 M17/M21 A3005 RMK AC2CI2 SLP221=

CYXE;2005-03-16 14:00;METAR CYXE 161400Z 09009KT 15SM SCT090 BKN250 M16/M20 A3003 RMK AC3CI1 SLP217=

CYXE;2005-03-16 15:00;METAR CYXE 161500Z 11013KT 15SM SCT080 BKN250 M15/M20 A3003 RMK AC3CI1 SLP215=

CYXE;2005-03-16 16:00;METAR CYXE 161600Z 11013KT 15SM FEW080 BKN250 M14/M19 A3003 RMK AC2CI5 SLP217=

CYXE;2005-03-16 17:00;METAR CYXE 161700Z 12011G16KT 15SM SCT060 OVC250 M14/M19 A3003 RMK SC3CS4 SLP214=

CYXE;2005-03-16 18:00;METAR CYXE 161800Z 12013KT 15SM SCT060 OVC180 M13/M18 A3002 RMK SC3AS4 SLP210=

CYXE;2005-03-16 19:00;METAR CYXE 161900Z 12015KT 15SM SCT060 OVC120 M12/M16 A3000 RMK SC3AS5 SLP206=

CYXE;2005-03-16 19:36;SPECI CYXE 161936Z 13014KT 8SM -SN OVC040 RMK SC8=

CYXE;2005-03-16 20:00;METAR CYXE 162000Z 12015G21KT 12SM OVC040 M10/M15 A3000 RMK SC8 SLP204=

CYXE;2005-03-16 20:39;SPECI CYXE 162039Z 12018KT 3SM -SN OVC040 RMK SC8=

CYXE;2005-03-16 20:47;SPECI CYXE 162047Z 12015G22KT 1 1/2SM -SN DRSN OVC040 RMK SN3SC5=

CYXE;2005-03-16 21:00;METAR CYXE 162100Z 11015G20KT 1SM R09/P6000FT/N -SN DRSN OVC025 M10/M13 A2999 RMK SN5SC3 SLP199=

CYXE;2005-03-16 22:00;METAR CYXE 162200Z 11018G24KT 1 1/2SM -SN DRSN OVC018 M09/M12 A2997 RMK SN3SC5 SLP193=

CYXE;2005-03-16 22:27;SPECI CYXE 162227Z 11017G25KT 1SM R09/P6000FT/N -SN DRSN OVC018 RMK SN4SC4=

CYXE;2005-03-16 22:40;SPECI CYXE 162240Z 11018KT 3SM -SN DRSN BKN020 OVC046 RMK SC3ST5=

CYXE;2005-03-16 23:00;METAR CYXE 162300Z 10021KT 3SM -SN DRSN OVC027 M09/M12 A2995 RMK SC8 SLP188=

CYXE;2005-03-16 23:19;SPECI CYXE 162319Z 10021KT 2SM -SN DRSN OVC013 RMK SN3SC5=

CYXE;2005-03-16 23:28;SPECI CYXE 162328Z 11020G25KT 3SM -SN DRSN OVC013 RMK SN2SC6=

CYXE;2005-03-17 00:00;METAR CYXE 170000Z 10021KT 3SM -SN DRSN OVC036 M09/M12 A2995 RMK SC8 SLP184=

CYXE;2005-03-17 00:41;SPECI CYXE 170041Z 10020G26KT 1 1/2SM -SN DRSN OVC030 RMK SN3SC5=

CYXE;2005-03-17 00:50;SPECI CYXE 170050Z 10021KT 1SM R09/P6000FT/D -SN DRSN OVC030 RMK SN6SC2=

CYXE;2005-03-17 01:00;METAR CYXE 170100Z 10020G25KT 1SM R09/P6000FT/U -SN BLSN OVC030 M09/M12 A2994 RMK SN6SC2 SLP183=

CYXE;2005-03-17 01:23;SPECI CYXE 170123Z 10018G24KT 2SM -SN BLSN OVC030 RMK SN3SC5=

CYXE;2005-03-17 02:00;METAR CYXE 170200Z 10018KT 3SM -SN BLSN OVC030 M09/M12 A2995 RMK SN2SC6 SLP185=

CYXE;2005-03-17 02:40;SPECI CYXE 170240Z 10017KT 1 1/2SM -SN BLSN OVC019 RMK SN4SC4=

CYXE;2005-03-17 03:37;SPECI CYXE 170337Z 10015KT 3SM -SN DRSN OVC021 RMK SN3SC5=

CYXE;2005-03-17 04:00;METAR CYXE 170400Z 10014G19KT 4SM -SN DRSN OVC024 M10/M12 A2994 RMK SC8 SLP180=

CYXE;2005-03-17 04:40;SPECI CYXE 170440Z 11016G21KT 1 1/2SM -SN BLSN VV020 RMK SN8=

CYXE;2005-03-17 05:00;METAR CYXE 170500Z 11016KT 2SM -SN DRSN VV020 M10/M12 A2993 RMK SN8 TOWER OBS SLP177=

CYXE;2005-03-17 05:09;SPECI CYXE 170509Z 11016KT 3SM -SN DRSN OVC020 RMK SN5SC3=

CYXE;2005-03-17 06:00;METAR CYXE 170600Z 12015G20KT 3SM -SN DRSN OVC022 M10/M12 A2992 RMK SN4SC4 SLP174=

CYXE;2005-03-17 07:00;METAR CYXE 170700Z 11018G24KT 3SM -SN DRSN OVC025 M09/M12 A2990 RMK SN4SC4 SLP168=

CYXE;2005-03-17 08:00;METAR CYXE 170800Z 10017G22KT 4SM -SN DRSN OVC030 M10/M12 A2990 RMK SN3SC5 SLP167=

CYXE;2005-03-17 09:00;METAR CYXE 170900Z 10019KT 15SM -SN DRSN OVC038 M09/M12 A2989 RMK SC8 SLP162=

CYXE;2005-03-17 09:32;SPECI CYXE 170932Z 10016G22KT 15SM DRSN OVC040 RMK SC8=

CYXE;2005-03-17 10:00;METAR CYXE 171000Z 10018G24KT 15SM DRSN OVC044 M10/M13 A2989 RMK SC8 SLP160=

CYXE;2005-03-17 10:23;SPECI CYXE 171023Z 11021G26KT 8SM -SN DRSN OVC044 RMK SC8=

CYXE;2005-03-17 11:00;METAR CYXE 171100Z 11021G26KT 15SM -SN DRSN OVC040 M10/M13 A2989 RMK SC8 SLP161=

CYXE;2005-03-17 12:00;METAR CYXE 171200Z 11021G26KT 10SM -SN DRSN OVC040 M11/M14 A2990 RMK SC8 SLP163=

CYXE;2005-03-17 13:00;METAR CYXE 171300Z 11018G24KT 15SM -SN DRSN OVC043 M11/M14 A2991 RMK SC8 SLP168=

CYXE;2005-03-17 14:00;METAR CYXE 171400Z 11015KT 10SM -SN DRSN OVC041 M11/M14 A2994 RMK SC8 SLP176=

CYXE;2005-03-17 15:00;METAR CYXE 171500Z 11015KT 5SM -SN OVC043 M11/M14 A2995 RMK SC8 SLP181=

CYXE;2005-03-17 16:00;METAR CYXE 171600Z 10016KT 6SM -SN DRSN BKN045 OVC210 M10/M13 A2995 RMK SC6CI2 SLP182=

CYXE;2005-03-17 16:43;SPECI CYXE 171643Z 10018KT 15SM DRSN SCT045 OVC210 RMK SC3CI4=

CYXE;2005-03-17 17:00;METAR CYXE 171700Z 10016G21KT 15SM DRSN FEW050 OVC210 M09/M13 A2996 RMK SC2CI2 SLP185=

CYXE;2005-03-17 18:00;METAR CYXE 171800Z 10017G22KT 12SM FEW015 FEW045 BKN200 M08/M12 A2997 RMK CF1SC2CI3 SLP186=

CYXE;2005-03-17 19:00;METAR CYXE 171900Z 10015KT 15SM FEW050 OVC200 M07/M12 A2997 RMK SC1CI5 SLP187=

CYXE;2005-03-17 20:00;METAR CYXE 172000Z 10018KT 15SM FEW050 BKN200 M07/M11 A2997 RMK SC1CI3 SLP187=

CYXE;2005-03-17 21:00;METAR CYXE 172100Z 09019KT 15SM FEW025 OVC180 M06/M11 A2997 RMK SC2AS5 SLP187=

CYXE;2005-03-17 21:30;SPECI CYXE 172130Z 09018KT 5SM -SN DRSN FEW025 OVC120 RMK SC2AS6=

CYXE;2005-03-17 21:42;SPECI CYXE 172142Z 10017KT 1 1/2SM -SN DRSN SCT025 OVC100 RMK SN2SC2AS4=

CYXE;2005-03-17 22:00;METAR CYXE 172200Z 09018KT 1 1/2SM -SN DRSN SCT029 OVC072 M06/M10 A2999 RMK SN3SC1AS4 SLP191=

CYXE;2005-03-17 22:26;SPECI CYXE 172226Z 09018KT 2SM -SN DRSN BKN029 OVC072 RMK SN2SC2AS3=

CYXE;2005-03-17 23:00;METAR CYXE 172300Z 10017KT 2SM -SN DRSN OVC033 M06/M09 A2999 RMK SN2ST6 SLP194=

CYXE;2005-03-17 23:29;SPECI CYXE 172329Z 09017KT 1SM R09/P6000FT/N -SN DRSN OVC033 RMK SN4ST4=

CYXE;2005-03-18 00:00;METAR CYXE 180000Z 09017KT 1 1/2SM -SN DRSN SCT020 OVC033 M07/M08 A3001 RMK SN2CF1SC5 SLP201=

CYXE;2005-03-18 00:21;SPECI CYXE 180021Z 10016KT 1SM R09/P6000FT/N -SN DRSN OVC022 RMK SN4SC4=

CYXE;2005-03-18 01:00;METAR CYXE 180100Z 10014KT 1 1/2SM -SN DRSN OVC022 M06/M08 A3002 RMK SN3SC5 SLP204=

CYXE;2005-03-18 01:17;SPECI CYXE 180117Z 10015KT 3SM -SN DRSN BKN022 OVC063 RMK SC5SC3=

CYXE;2005-03-18 01:38;SPECI CYXE 180138Z 10015KT 1SM R09/P6000FT/U -SN DRSN OVC031 RMK SN5SC3=

CYXE;2005-03-18 02:00;METAR CYXE 180200Z 10017KT 3SM -SN DRSN OVC031 M06/M08 A3003 RMK SC8 SLP206=

CYXE;2005-03-18 02:13;SPECI CYXE 180213Z 10015G20KT 2SM -SN DRSN OVC023 RMK SN2SC6=

CYXE;2005-03-18 03:00;METAR CYXE 180300Z 11014KT 2SM -SN DRSN OVC023 M06/M08 A3003 RMK SN2SC6 SLP206=

CYXE;2005-03-18 04:00;METAR CYXE 180400Z 12017KT 3SM -SN DRSN BKN031 OVC066 M06/M08 A3003 RMK SN2SC3AC2 SLP206=

CYXE;2005-03-18 05:00;METAR CYXE 180500Z 11015KT 3SM -SN DRSN FEW012 OVC034 M06/M08 A3003 RMK SC2SC6 SLP207=

CYXE;2005-03-18 06:00;METAR CYXE 180600Z 12016KT 6SM -SN DRSN FEW012 OVC045 M06/M09 A3003 RMK SC2SC6 SLP205=

CYXE;2005-03-18 06:32;SPECI CYXE 180632Z 12016G21KT 3SM -SN DRSN OVC040 RMK SN4SC4=

CYXE;2005-03-18 07:00;METAR CYXE 180700Z 12015KT 2SM -SN DRSN OVC036 M07/M09 A3003 RMK SN6SC2 SLP206=

CYXE;2005-03-18 07:41;SPECI CYXE 180741Z 13013KT 1 1/2SM -SN DRSN VV025 RMK SN8=

CYXE;2005-03-18 08:00;METAR CYXE 180800Z 13012G19KT 1 1/2SM -SN DRSN VV025 M07/M09 A3003 RMK SN8 SLP204=

CYXE;2005-03-18 08:38;SPECI CYXE 180838Z 13014KT 6SM -SN DRSN FEW010 OVC030 RMK SF2SC6=

CYXE;2005-03-18 09:00;METAR CYXE 180900Z 13012G18KT 6SM -SN DRSN FEW012 OVC035 M07/M09 A3003 RMK SF2SC6 SLP204=

CYXE;2005-03-18 09:32;SPECI CYXE 180932Z 13013G19KT 2 1/2SM -SN DRSN OVC015 RMK SN4SC4=

CYXE;2005-03-18 10:00;METAR CYXE 181000Z 13014KT 4SM -SN DRSN FEW012 OVC022 M07/M09 A3003 RMK SF2SC6 SLP203=

CYXE;2005-03-18 11:00;METAR CYXE 181100Z 13015G20KT 3SM -SN DRSN OVC030 M07/M09 A3002 RMK SN4SC4 SLP202=

CYXE;2005-03-18 13:00;METAR CYXE 181300Z 13015KT 3SM -SN DRSN OVC030 M08/M10 A3003 RMK SN3SC5 SLP207=

CYXE;2005-03-18 14:00;METAR CYXE 181400Z 13015G20KT 4SM -SN DRSN OVC050 M08/M10 A3004 RMK SC8 SLP208=

CYXE;2005-03-18 15:00;METAR CYXE 181500Z 13015G20KT 10SM -SN DRSN FEW015 OVC040 M08/M10 A3005 RMK SC2SC6 SLP211=

CYXE;2005-03-18 16:00;METAR CYXE 181600Z 13012G19KT 4SM -SN DRSN FEW024 OVC040 M08/M10 A3005 RMK SC2SC6 SLP213=

CYXE;2005-03-18 17:00;METAR CYXE 181700Z 12015KT 6SM -SN DRSN FEW012 OVC035 M07/M10 A3006 RMK SC2SC6 SLP214=

CYXE;2005-03-18 18:00;METAR CYXE 181800Z 12014G19KT 2SM -SN DRSN SCT014 OVC030 M07/M10 A3006 RMK SN2SC2SC4 SLP215=

CYXE;2005-03-18 18:22;SPECI CYXE 181822Z 12013G19KT 1SM R09/P6000FT/D -SN DRSN BKN013 OVC030 RMK SN3SC2SC2=

CYXE;2005-03-18 19:00;METAR CYXE 181900Z 13017KT 3SM -SN DRSN SCT013 OVC030 M06/M09 A3006 RMK SC4SC4 SLP216=

CYXE;2005-03-18 19:10;SPECI CYXE 181910Z 13016KT 2SM -SN DRSN BKN013 OVC030 RMK SC5SC3 VSBY=

CYXE;2005-03-18 20:00;METAR CYXE 182000Z 12019KT 2SM -SN DRSN BKN013 OVC045 M05/M08 A3006 RMK SC5SC3 VSBY VRBL 1 - 3 SLP216=

CYXE;2005-03-18 21:00;METAR CYXE 182100Z 12014G20KT 2SM -SN DRSN BKN011 OVC042 M05/M08 A3006 RMK SC5SC3 VSBY VRBL 1 - 3 SLP214=

CYXE;2005-03-18 22:00;METAR CYXE 182200Z 11014KT 5SM -SN DRSN BKN011 OVC049 M05/M08 A3007 RMK SC6SC2 SLP216=

CYXE;2005-03-18 22:18;SPECI CYXE 182218Z 11013G18KT 2SM -SN DRSN OVC011 RMK SF8=

CYXE;2005-03-18 22:24;SPECI CYXE 182224Z 11015KT 1 1/2SM -SN DRSN OVC011 RMK SN2SF6=

CYXE;2005-03-18 23:00;METAR CYXE 182300Z 11014G21KT 3SM -SN DRSN BKN011 OVC030 M05/M08 A3007 RMK SF5SC3 SLP218=

CYXE;2005-03-18 23:20;SPECI CYXE 182320Z 11015G21KT 4SM -SN DRSN SCT011 BKN048 OVC067 RMK SF3SC2AC1=

CYXE;2005-03-19 00:00;METAR CYXE 190000Z 10015KT 3SM -SN DRSN BKN013 OVC030 M06/M09 A3008 RMK SF6SC2 SLP223=

CYXE;2005-03-19 01:00;METAR CYXE 190100Z 10016KT 1 1/2SM -SN DRSN SCT013 OVC027 M06/M09 A3009 RMK SN2SF2SC4 SLP226=

CYXE;2005-03-19 01:06;SPECI CYXE 190106Z 10015G20KT 1SM R09/P6000FT/N -SN DRSN OVC022 RMK SN5SC3=

CYXE;2005-03-19 01:21;SPECI CYXE 190121Z 10015G20KT 1 1/2SM -SN BLSN OVC022 RMK SN3SC5=

CYXE;2005-03-19 01:31;SPECI CYXE 190131Z 10015KT 2SM -SN DRSN OVC022 RMK SN2SC6=

CYXE;2005-03-19 02:00;METAR CYXE 190200Z 10014KT 2SM -SN DRSN OVC022 M07/M09 A3010 RMK SN2SC6 SLP229=

CYXE;2005-03-19 02:16;SPECI CYXE 190216Z 11014KT 1 1/2SM -SN DRSN OVC022 RMK SN3SC4=

CYXE;2005-03-19 03:00;METAR CYXE 190300Z 11016KT 4SM -SN DRSN FEW012 BKN027 OVC071 M07/M09 A3011 RMK SF1SC6AC1 SLP234=

CYXE;2005-03-19 04:00;METAR CYXE 190400Z 11015G20KT 1 1/2SM -SN DRSN OVC023 M07/M10 A3012 RMK SN5SC3 SLP238=

CYXE;2005-03-19 04:18;SPECI CYXE 190418Z 11016KT 2SM -SN DRSN OVC025 RMK SN3SC4=

CYXE;2005-03-19 04:26;SPECI CYXE 190426Z 11015G20KT 3SM -SN DRSN OVC025 RMK SC7=

CYXE;2005-03-19 05:00;METAR CYXE 190500Z 11016KT 3SM -SN DRSN OVC031 M08/M10 A3013 RMK SC8 SLP240=

CYXE;2005-03-19 06:00;METAR CYXE 190600Z 11014KT 4SM -SN DRSN OVC035 M08/M10 A3013 RMK SN2SC6 SLP242=

CYXE;2005-03-19 07:00;METAR CYXE 190700Z 11012G17KT 8SM -SN DRSN OVC040 M08/M11 A3013 RMK SC8 SLP241=

CYXE;2005-03-19 08:00;METAR CYXE 190800Z 11014KT 10SM -SN DRSN OVC030 M09/M11 A3013 RMK SC8 SLP242=

CYXE;2005-03-19 08:32;SPECI CYXE 190832Z 11012KT 2SM -SN DRSN OVC022 RMK SN3SC5=

CYXE;2005-03-19 09:00;METAR CYXE 190900Z 11013KT 2SM -SN DRSN OVC020 M08/M11 A3013 RMK SN4SC4 SLP241=

CYXE;2005-03-19 10:00;METAR CYXE 191000Z 10014KT 2SM -SN DRSN OVC020 M09/M11 A3013 RMK SN4SC4 SLP240=

CYXE;2005-03-19 10:34;SPECI CYXE 191034Z 10014KT 5SM -SN DRSN OVC020 RMK SC8=

CYXE;2005-03-19 11:00;METAR CYXE 191100Z 10011G16KT 4SM -SN DRSN OVC020 M09/M11 A3013 RMK SN2SC6 SLP239=

CYXE;2005-03-19 12:00;METAR CYXE 191200Z 08007KT 8SM -SN OVC020 M10/M12 A3013 RMK SC8 SLP242=

CYXE;2005-03-19 13:00;METAR CYXE 191300Z 09010KT 15SM -SN BKN024 BKN140 OVC250 M10/M12 A3014 RMK SC6AC1CI1 SLP245=

CYXE;2005-03-19 13:48;SPECI CYXE 191348Z 09011KT 15SM BKN025 BKN140 OVC250 RMK SC5AC1CI1=

CYXE;2005-03-19 14:00;METAR CYXE 191400Z 09010KT 15SM FEW028 BKN041 OVC220 M11/M13 A3015 RMK SC2SC4CI2 SLP246=

CYXE;2005-03-19 14:24;SPECI CYXE 191424Z 10012KT 15SM -SN FEW028 OVC041 RMK SC1SC6=

CYXE;2005-03-19 15:00;METAR CYXE 191500Z 10013KT 15SM -SN FEW032 BKN095 BKN220 M10/M12 A3015 RMK SC2AC2CI2 SLP250=

CYXE;2005-03-19 16:00;METAR CYXE 191600Z 11010KT 15SM BKN024 OVC035 M09/M12 A3016 RMK SC6SC1 SLP252=

CYXE;2005-03-19 17:00;METAR CYXE 191700Z 10011KT 15SM OVC026 M08/M12 A3016 RMK SC7 SLP252=

CYXE;2005-03-19 18:00;METAR CYXE 191800Z 10011KT 15SM BKN025 M08/M11 A3016 RMK SC7 SLP250=

CYXE;2005-03-19 19:00;METAR CYXE 191900Z 11011KT 15SM FEW029 BKN110 OVC220 M07/M11 A3015 RMK SC2AC2CI2 SLP248=

CYXE;2005-03-19 20:00;METAR CYXE 192000Z 10011KT 15SM FEW029 BKN220 M07/M11 A3015 RMK SC1CI2 SLP247=

CYXE;2005-03-19 21:00;METAR CYXE 192100Z 10011KT 15SM FEW019 SCT097 BKN220 M07/M11 A3014 RMK SC2AC2CI1 SLP244=

CYXE;2005-03-19 22:00;METAR CYXE 192200Z 10015KT 15SM FEW020 BKN250 M07/M11 A3013 RMK CU1CI3 SLP241=

CYXE;2005-03-19 23:00;METAR CYXE 192300Z 10014KT 15SM FEW020 BKN250 M07/M11 A3013 RMK CU1CI2 SLP242=

CYXE;2005-03-20 00:00;METAR CYXE 200000Z 10011KT 15SM FEW250 M08/M12 A3013 RMK CI1 SLP242=

CYXE;2005-03-20 01:00;METAR CYXE 200100Z 09010KT 15SM FEW250 M09/M12 A3013 RMK CI1 SLP241=

CYXE;2005-03-20 02:00;METAR CYXE 200200Z 08008KT 15SM FEW250 M11/M13 A3013 RMK CI1 SLP242=

CYXE;2005-03-20 03:00;METAR CYXE 200300Z 07008KT 15SM FEW035 SCT250 M12/M14 A3013 RMK SC2CI1 SLP246=

CYXE;2005-03-20 04:00;METAR CYXE 200400Z 07007KT 15SM FEW035 SCT250 M14/M16 A3012 RMK SC1CI1 SLP243=

CYXE;2005-03-20 05:00;METAR CYXE 200500Z 08007KT 15SM SKC M14/M16 A3012 RMK SLP242=

CYXE;2005-03-20 06:00;METAR CYXE 200600Z 08007KT 15SM FEW250 M15/M17 A3011 RMK CI1 SLP238=

CYXE;2005-03-20 07:00;METAR CYXE 200700Z 07007KT 15SM SCT250 M14/M15 A3010 RMK CI2 SLP236=

CYXE;2005-03-20 08:00;METAR CYXE 200800Z 06008KT 15SM FEW035 BKN250 M15/M16 A3009 RMK SC1CS2 SLP233=

CYXE;2005-03-20 09:00;METAR CYXE 200900Z 06006KT 15SM FEW150 BKN250 M15/M16 A3009 RMK AC2CS2 SLP230=

CYXE;2005-03-20 10:00;METAR CYXE 201000Z 08008KT 15SM FEW038 SCT250 M13/M15 A3007 RMK SC1CI2 SLP225=

CYXE;2005-03-20 10:35;SPECI CYXE 201035Z 06006KT 15SM BKN014 BKN250 RMK SC5CI2=

CYXE;2005-03-20 11:00;METAR CYXE 201100Z 06009KT 15SM SCT014 BKN250 M13/M15 A3006 RMK SC2CI2 SLP220=

CYXE;2005-03-20 12:00;METAR CYXE 201200Z 07011KT 15SM FEW015 BKN250 M15/M17 A3005 RMK SC2CI2 SLP217=

CYXE;2005-03-20 13:00;METAR CYXE 201300Z 05009KT 15SM BKN028 OVC250 M14/M16 A3004 RMK SC6CI1 SLP215=

CYXE;2005-03-20 14:00;METAR CYXE 201400Z 07010KT 15SM BKN035 OVC250 M12/M13 A3003 RMK SC6CI1 SLP212=

CYXE;2005-03-20 15:00;METAR CYXE 201500Z 10014KT 15SM BKN033 OVC086 M09/M11 A3002 RMK SC6AC2 SLP205=

CYXE;2005-03-20 16:00;METAR CYXE 201600Z 09013KT 15SM BKN038 OVC086 M08/M11 A3003 RMK SC4AC4 SLP208=

CYXE;2005-03-20 17:00;METAR CYXE 201700Z 10014KT 15SM BKN031 OVC086 M07/M10 A3003 RMK SC5AC3 SLP208=

CYXE;2005-03-20 18:00;METAR CYXE 201800Z 09017KT 15SM BKN045 OVC078 M06/M09 A3001 RMK SC6AC2 SLP203=

CYXE;2005-03-20 19:00;METAR CYXE 201900Z 10018KT 15SM SCT043 OVC075 M05/M08 A3002 RMK SC3AC5 SLP205=

CYXE;2005-03-20 20:00;METAR CYXE 202000Z 09019KT 15SM BKN047 OVC073 M04/M07 A3000 RMK SC6AC2 SLP201=

CYXE;2005-03-20 21:00;METAR CYXE 202100Z 10016G22KT 15SM OVC051 M04/M07 A3001 RMK SC8 SLP200=

CYXE;2005-03-20 22:00;METAR CYXE 202200Z 10019G24KT 15SM FEW029 OVC047 M04/M08 A3002 RMK SC2SC6 SLP203=

CYXE;2005-03-20 23:00;METAR CYXE 202300Z 10016G25KT 15SM OVC045 M04/M07 A3002 RMK SC8 SLP204=

CYXE;2005-03-21 00:00;METAR CYXE 210000Z 09018G24KT 15SM -SN OVC045 M04/M07 A3002 RMK SC8 SLP204=

CYXE;2005-03-21 00:51;SPECI CYXE 210051Z 10020KT 15SM OVC058 RMK SC8=

CYXE;2005-03-21 01:00;METAR CYXE 210100Z 10017G24KT 15SM OVC058 M05/M07 A3002 RMK SC8 SLP204=

CYXE;2005-03-21 02:00;METAR CYXE 210200Z 10018KT 15SM OVC057 M04/M07 A3002 RMK SC8 SLP206=

CYXE;2005-03-21 03:00;METAR CYXE 210300Z 10015G20KT 15SM OVC047 M04/M07 A3005 RMK SC8 SLP211=

CYXE;2005-03-21 03:12;SPECI CYXE 210312Z 10016KT 15SM -SN OVC043 RMK SC8=

CYXE;2005-03-21 03:33;SPECI CYXE 210333Z 10018KT 2SM -SN DRSN OVC018 RMK SC8=

CYXE;2005-03-21 03:46;SPECI CYXE 210346Z 10017KT 1SM R09/P6000FT/D -SN DRSN VV014 RMK SN8=

CYXE;2005-03-21 04:00;METAR CYXE 210400Z 10016G21KT 1SM R09/P6000FT/N -SN DRSN VV014 M05/M07 A3005 RMK SN8 SLP213=

CYXE;2005-03-21 05:00;METAR CYXE 210500Z 10016KT 1SM R09/P6000FT/D -SN DRSN VV016 M05/M07 A3006 RMK SN8 SLP216=

CYXE;2005-03-21 05:17;SPECI CYXE 210517Z 10015KT 1 1/2SM -SN DRSN OVC016 RMK SN2SC6=

CYXE;2005-03-21 05:38;SPECI CYXE 210538Z 10016G21KT 2 1/2SM -SN DRSN OVC018 RMK SC8=

CYXE;2005-03-21 06:00;METAR CYXE 210600Z 10018KT 3SM -SN DRSN OVC037 M05/M07 A3006 RMK SC8 SLP213=

CYXE;2005-03-21 07:00;METAR CYXE 210700Z 10019KT 5SM -SN DRSN OVC032 M05/M07 A3005 RMK SC8 SLP211=

CYXE;2005-03-21 08:00;METAR CYXE 210800Z 11017G26KT 2SM -SN DRSN OVC019 M05/M07 A3006 RMK SN2SC6 SLP212=

CYXE;2005-03-21 09:00;METAR CYXE 210900Z 11019G24KT 2 1/2SM -SN DRSN OVC032 M05/M07 A3005 RMK SN3SC5 SLP209=

CYXE;2005-03-21 10:00;METAR CYXE 211000Z 12019G25KT 4SM -SN DRSN OVC017 M05/M07 A3004 RMK SC8 SLP207=

CYXE;2005-03-21 11:00;METAR CYXE 211100Z 11019G26KT 4SM -SN DRSN OVC016 M05/M07 A3004 RMK SC8 SLP207=

CYXE;2005-03-21 12:00;METAR CYXE 211200Z 12018G24KT 2 1/2SM -SN DRSN OVC015 M06/M08 A3005 RMK SN2SC6 /S01/ SLP210=

CYXE;2005-03-21 13:00;METAR CYXE 211300Z 12017G24KT 1 1/2SM -SN DRSN OVC015 M06/M08 A3006 RMK SN3SC5 SLP213=

CYXE;2005-03-21 14:00;METAR CYXE 211400Z 11020KT 1 1/2SM -SN DRSN VV013 M06/M08 A3007 RMK SN8 SLP216=

CYXE;2005-03-21 14:06;SPECI CYXE 211406Z 12017G22KT 1SM R09/P6000FT/N -SN DRSN VV010 RMK SN8=

CYXE;2005-03-21 14:45;SPECI CYXE 211445Z 11019G24KT 2SM -SN DRSN OVC038 RMK SN1SC7=

CYXE;2005-03-21 15:00;METAR CYXE 211500Z 11019KT 2 1/2SM -SN DRSN OVC038 M06/M08 A3008 RMK SC8 SLP221=

CYXE;2005-03-21 15:23;SPECI CYXE 211523Z 11019KT 1 1/2SM -SN DRSN VV013 RMK SN8=

CYXE;2005-03-21 16:00;METAR CYXE 211600Z 11018KT 1 1/2SM -SN DRSN VV013 M06/M08 A3009 RMK SN8 SLP224=

CYXE;2005-03-21 16:49;SPECI CYXE 211649Z 11016KT 3SM -SN DRSN OVC044 RMK SC8=

CYXE;2005-03-21 17:00;METAR CYXE 211700Z 11018KT 3SM -SN DRSN OVC037 M05/M08 A3010 RMK SC8 /S02/ SLP226=

CYXE;2005-03-21 18:00;METAR CYXE 211800Z 10017G24KT 4SM -SN DRSN FEW008 OVC043 M05/M08 A3009 RMK SF1SC7 SLP225=

CYXE;2005-03-21 18:14;SPECI CYXE 211814Z 10019G24KT 2 1/2SM -SN DRSN BKN009 OVC043 RMK SF5SC3=

CYXE;2005-03-21 18:34;SPECI CYXE 211834Z 10019KT 1 1/2SM -SN DRSN VV010 RMK SN8=

CYXE;2005-03-21 18:53;SPECI CYXE 211853Z 10018G24KT 1SM R09/P6000FT/D -SN DRSN VV008 RMK SN8=

CYXE;2005-03-21 19:00;METAR CYXE 211900Z 10018G24KT 1SM R09/P6000FT/D -SN DRSN VV007 M05/M07 A3009 RMK SN8 SLP225=

CYXE;2005-03-21 19:29;SPECI CYXE 211929Z 10020KT 3/4SM R09/6000FT/N -SN DRSN VV005 RMK SN8=

CYXE;2005-03-21 20:00;METAR CYXE 212000Z 10019KT 3/4SM R09/P6000FT/U -SN DRSN VV005 M05/M07 A3010 RMK SN8 SLP227=

CYXE;2005-03-21 21:00;METAR CYXE 212100Z 10017G22KT 1SM R09/P6000FT/D -SN DRSN VV008 M04/M07 A3009 RMK SN8 SLP224=

CYXE;2005-03-21 21:48;SPECI CYXE 212148Z 10020KT 1 1/4SM -SN DRSN VV010 RMK SN8=

CYXE;2005-03-21 22:00;METAR CYXE 212200Z 09018G25KT 1SM R09/P6000FT/N -SN BLSN VV010 M05/M07 A3010 RMK SN8 SLP225=

CYXE;2005-03-21 22:36;SPECI CYXE 212236Z 10021G27KT 1 1/2SM -SN BLSN OVC010 RMK SN6SF2=

CYXE;2005-03-21 23:16;SPECI CYXE 212316Z 10019KT 2SM -SN DRSN OVC016 RMK SN2SC6=

CYXE;2005-03-21 23:46;SPECI CYXE 212346Z 10017G22KT 1 1/2SM -SN DRSN VV016 RMK SN8=

CYXE;2005-03-22 00:00;METAR CYXE 220000Z 10017KT 2SM -SN DRSN OVC016 M05/M07 A3010 RMK SN3SF5 SLP228=

CYXE;2005-03-22 00:14;SPECI CYXE 220014Z 10019KT 3SM -SN DRSN OVC016 RMK SF8=

CYXE;2005-03-22 01:00;METAR CYXE 220100Z 10017KT 4SM -SN DRSN OVC041 M05/M07 A3011 RMK SC8 SLP230=

CYXE;2005-03-22 02:00;METAR CYXE 220200Z 10016G22KT 5SM -SN DRSN OVC043 M05/M07 A3012 RMK SC8 SLP232=

CYXE;2005-03-22 02:30;SPECI CYXE 220230Z 10016KT 2SM -SN DRSN OVC045 RMK SN5SC3=

CYXE;2005-03-22 02:38;SPECI CYXE 220238Z 10016KT 1 1/2SM -SN DRSN OVC045 RMK SN6SC2=

CYXE;2005-03-22 03:00;METAR CYXE 220300Z 10017KT 2SM -SN DRSN OVC020 M05/M07 A3012 RMK SN6SC2 SLP233=

CYXE;2005-03-22 03:10;SPECI CYXE 220310Z 10016KT 3SM -SN DRSN BKN020 OVC080 RMK SN2SC5AC2=

CYXE;2005-03-22 04:00;METAR CYXE 220400Z 10017KT 3SM -SN DRSN OVC016 M05/M08 A3011 RMK SN2SC6 SLP231=

CYXE;2005-03-22 04:19;SPECI CYXE 220419Z 10017G22KT 2SM -SN DRSN OVC014 RMK SN5SC3=

CYXE;2005-03-22 04:44;SPECI CYXE 220444Z 10017G24KT 3SM -SN DRSN OVC016 RMK SN5SC3=

CYXE;2005-03-22 05:00;METAR CYXE 220500Z 11016KT 2SM -SN DRSN OVC018 M05/M08 A3010 RMK SN5SC3 TOWER OBS SLP228=

CYXE;2005-03-22 05:15;SPECI CYXE 220515Z 11017KT 3SM -SN DRSN OVC025 RMK SN3SC5=

CYXE;2005-03-22 05:35;SPECI CYXE 220535Z 11015KT 2SM -SN DRSN OVC022 RMK SN5SC3=

CYXE;2005-03-22 05:51;SPECI CYXE 220551Z 11017G22KT 1 1/2SM -SN DRSN OVC022 RMK SN6SC2 TOWER OBS=

CYXE;2005-03-22 07:00;METAR CYXE 220700Z 11016KT 2 1/2SM -SN DRSN OVC020 M05/M08 A3008 RMK SN2SC6 SLP221=

CYXE;2005-03-22 09:00;METAR CYXE 220900Z 11013G18KT 10SM -SN DRSN SCT012 OVC025 M06/M08 A3005 RMK SC3SC5 SLP211=

CYXE;2005-03-22 10:00;METAR CYXE 221000Z 10014KT 12SM -SN FEW012 OVC040 M06/M08 A3004 RMK SC2SC6 SLP207=

CYXE;2005-03-22 11:00;METAR CYXE 221100Z 10014KT 15SM -SN SCT010 OVC030 M06/M08 A3003 RMK SC3SC5 SLP203=

CYXE;2005-03-22 11:30;SPECI CYXE 221130Z 10015KT 15SM SCT010 OVC040 RMK SC3SC5=

CYXE;2005-03-22 12:00;METAR CYXE 221200Z 11011G16KT 15SM SCT010 OVC040 M06/M08 A3003 RMK SC3SC5 /S01/ SLP202=

CYXE;2005-03-22 12:27;SPECI CYXE 221227Z 11011KT 15SM BKN016 OVC040 RMK SC6SC2=

CYXE;2005-03-22 13:00;METAR CYXE 221300Z 11013KT 15SM OVC016 M06/M08 A3001 RMK SC8 SLP198=

CYXE;2005-03-22 13:42;SPECI CYXE 221342Z 11010G15KT 12SM -SN OVC014 RMK SC8=

CYXE;2005-03-22 14:00;METAR CYXE 221400Z 11011KT 15SM -SN BKN014 OVC039 M06/M08 A3000 RMK SC6SC2 SLP195=

CYXE;2005-03-22 15:00;METAR CYXE 221500Z 12011KT 15SM -SN OVC010 M06/M08 A3000 RMK ST8 -SN INTMT SLP193=

CYXE;2005-03-22 16:00;METAR CYXE 221600Z 12011KT 15SM DRSN OVC009 M05/M08 A2999 RMK ST8 SLP191=

CYXE;2005-03-22 17:00;METAR CYXE 221700Z 11010KT 15SM OVC009 M05/M08 A2999 RMK ST8 SLP191=

CYXE;2005-03-22 18:00;METAR CYXE 221800Z 11013KT 15SM OVC009 M05/M07 A2999 RMK ST8 SLP188=

CYXE;2005-03-22 18:27;SPECI CYXE 221827Z 11010KT 6SM -FZDZ OVC009 RMK ST8=

CYXE;2005-03-22 19:00;METAR CYXE 221900Z 12009KT 6SM -FZDZ OVC008 M04/M06 A2997 RMK ST8 SLP183=

CYXE;2005-03-22 19:15;SPECI CYXE 221915Z 12010KT 5SM BR OVC007 REFZDZ RMK ST8=

CYXE;2005-03-22 20:00;METAR CYXE 222000Z 11010KT 7SM OVC007 M04/M06 A2996 REFZDZ RMK ST8 BR SLP181=

CYXE;2005-03-22 21:00;METAR CYXE 222100Z 11010KT 15SM BKN009 OVC023 M03/M05 A2996 RMK ST6SC2 SLP177=

CYXE;2005-03-22 21:31;SPECI CYXE 222131Z 11008KT 15SM SCT009 OVC023 RMK ST4SC4=

CYXE;2005-03-22 22:00;METAR CYXE 222200Z 09008KT 15SM FEW009 OVC020 M02/M05 A2995 RMK SF2SC6 SLP176=

CYXE;2005-03-22 23:00;METAR CYXE 222300Z 09009KT 10SM OVC015 M03/M05 A2995 RMK SC8 BR SLP176=

CYXE;2005-03-22 23:32;SPECI CYXE 222332Z 09009KT 8SM -FZDZ OVC015 RMK SC8 BR=

CYXE;2005-03-23 00:00;METAR CYXE 230000Z 08007KT 8SM -FZDZ OVC013 M03/M05 A2995 RMK SC8 BR SLP173=

CYXE;2005-03-23 00:21;SPECI CYXE 230021Z 08008KT 10SM OVC012 REFZDZ RMK SC8 BR=

CYXE;2005-03-23 01:00;METAR CYXE 230100Z 08007KT 10SM OVC012 M03/M04 A2994 RMK SF8 BR SLP172=

CYXE;2005-03-23 02:00;METAR CYXE 230200Z 06009KT 6SM -SG OVC012 M03/M04 A2995 RMK SF8 BR SLP173=

CYXE;2005-03-23 02:47;SPECI CYXE 230247Z 06009KT 10SM OVC012 RMK SF8 BR=

CYXE;2005-03-23 03:00;METAR CYXE 230300Z 07009KT 8SM OVC012 M03/M05 A2995 RMK SF8 BR SLP174=

CYXE;2005-03-23 03:27;SPECI CYXE 230327Z 04010KT 8SM OVC006 RMK SF8 BR=

CYXE;2005-03-23 04:00;METAR CYXE 230400Z 05011KT 8SM OVC012 M04/M05 A2995 RMK SF8 BR SLP176=

CYXE;2005-03-23 04:30;SPECI CYXE 230430Z 05012KT 8SM SCT005 OVC010 RMK SF3SF5 BR=

CYXE;2005-03-23 04:49;SPECI CYXE 230449Z 04010KT 8SM BKN005 OVC010 RMK SF6SF2 BR=

CYXE;2005-03-23 05:00;METAR CYXE 230500Z 04011KT 8SM OVC005 M04/M06 A2996 RMK ST8 BR SLP179=

CYXE;2005-03-23 05:18;SPECI CYXE 230518Z 05011KT 8SM OVC004 RMK ST8 BR=

CYXE;2005-03-23 06:00;METAR CYXE 230600Z 01012KT 6SM BR OVC004 M05/M06 A2998 RMK ST8 SLP185=

CYXE;2005-03-23 06:42;SPECI CYXE 230642Z 03013KT 8SM -SN OVC004 RMK ST8=

CYXE;2005-03-23 07:00;METAR CYXE 230700Z 03012KT 7SM -SN OVC004 M05/M07 A2998 RMK ST8 SLP186=

CYXE;2005-03-23 07:50;SPECI CYXE 230750Z 04013KT 6SM -SN BR OVC003 RMK ST8=

CYXE;2005-03-23 08:00;METAR CYXE 230800Z 04013KT 5SM -SN BR OVC003 M05/M07 A2999 RMK ST8 SLP189=

CYXE;2005-03-23 08:19;SPECI CYXE 230819Z 03012KT 2 1/2SM BR OVC002 RMK ST8=

CYXE;2005-03-23 08:49;SPECI CYXE 230849Z 04012KT 2SM -FZDZ BR OVC002 RMK ST8=

CYXE;2005-03-23 09:00;METAR CYXE 230900Z 03012KT 2SM -SN -FZDZ BR OVC002 M05/M06 A3000 RMK ST8 SLP191=

CYXE;2005-03-23 09:28;SPECI CYXE 230928Z 04012KT 3SM -SN -FZDZ BR OVC003 RMK ST8=

CYXE;2005-03-23 09:38;SPECI CYXE 230938Z 04012KT 3SM -SN BR OVC003 REFZDZ RMK ST8=

CYXE;2005-03-23 10:00;METAR CYXE 231000Z 03012KT 8SM -SN OVC005 M05/M07 A3000 REFZDZ RMK ST8 SLP191=

CYXE;2005-03-23 11:00;METAR CYXE 231100Z 03014KT 8SM -SN OVC006 M06/M07 A3001 RMK ST8 SLP194=

CYXE;2005-03-23 11:07;SPECI CYXE 231107Z 03011KT 8SM -SN BKN008 OVC018 RMK ST6SC2=

CYXE;2005-03-23 11:25;SPECI CYXE 231125Z 04010KT 8SM -SN SCT010 OVC020 RMK ST4SC4=

CYXE;2005-03-23 12:00;METAR CYXE 231200Z 03010KT 8SM -SN SCT008 OVC022 M06/M08 A3003 RMK ST4SC4 SLP201=

CYXE;2005-03-23 12:08;SPECI CYXE 231208Z 02009KT 8SM -SN BKN008 OVC025 RMK ST6SC2=

CYXE;2005-03-23 13:00;METAR CYXE 231300Z 04012KT 15SM -SN BKN010 OVC030 M06/M08 A3004 RMK ST6SC2 SLP206=

CYXE;2005-03-23 13:31;SPECI CYXE 231331Z 03011KT 15SM -SN FEW010 BKN037 OVC080 RMK ST2SC5AC2=

CYXE;2005-03-23 14:00;METAR CYXE 231400Z 03009KT 8SM -SN FEW012 OVC037 M07/M09 A3006 RMK ST2SC6 SLP211=

CYXE;2005-03-23 14:41;SPECI CYXE 231441Z 02011KT 15SM FEW012 SCT037 RMK ST1SC3=

CYXE;2005-03-23 15:00;METAR CYXE 231500Z 01010KT 15SM FEW012 SCT037 M08/M10 A3007 RMK ST1SC2 SLP218=

CYXE;2005-03-23 16:00;METAR CYXE 231600Z 02014KT 15SM BKN037 M07/M10 A3009 RMK SC6 SLP223=

CYXE;2005-03-23 16:20;SPECI CYXE 231620Z 02013KT 15SM BKN010 OVC037 RMK SF5SC3=

CYXE;2005-03-23 17:00;METAR CYXE 231700Z 03011KT 15SM BKN010 OVC039 M07/M10 A3011 RMK SF5SC3 SLP229=

CYXE;2005-03-23 17:40;SPECI CYXE 231740Z 03010KT 15SM FEW012 BKN250 RMK SC2CI1=

CYXE;2005-03-23 18:00;METAR CYXE 231800Z 03011KT 15SM FEW012 SCT250 M07/M09 A3012 RMK CF2CI1 SLP233=

CYXE;2005-03-23 19:00;METAR CYXE 231900Z 04012KT 15SM FEW012 SCT250 M06/M09 A3011 RMK SF2CI0 SLP232=

CYXE;2005-03-23 19:14;SPECI CYXE 231914Z 03011KT 10SM -SN BKN009 BKN250 RMK SF5CI0=

CYXE;2005-03-23 19:40;SPECI CYXE 231940Z 03011KT 5SM -SN SCT009 BKN017 RMK SF4SC2=

CYXE;2005-03-23 20:00;METAR CYXE 232000Z 03009KT 8SM -SN BKN014 M05/M08 A3011 RMK SC6 SLP232=

CYXE;2005-03-23 20:50;SPECI CYXE 232050Z 04011KT 15SM BKN016 BKN250 RMK SC5CI0=

CYXE;2005-03-23 21:00;METAR CYXE 232100Z 05010KT 15SM SCT016 BKN250 M05/M09 A3012 RMK SC4CI0 SLP235=

CYXE;2005-03-23 22:00;METAR CYXE 232200Z 04007KT 15SM FEW020 SCT250 M05/M10 A3014 RMK SC2CI1 SLP239=

CYXE;2005-03-23 22:47;SPECI CYXE 232247Z 34004KT 15SM BKN014 BKN250 RMK SC6CI1=

CYXE;2005-03-23 23:00;METAR CYXE 232300Z 35008KT 15SM BKN017 OVC250 M05/M08 A3015 RMK SC6CI1 SLP244=

CYXE;2005-03-23 23:13;SPECI CYXE 232313Z 34006KT 10SM -SN BKN017 OVC250 RMK SC6CI1=

CYXE;2005-03-24 00:00;METAR CYXE 240000Z 35007KT 15SM -SN FEW025 BKN250 M06/M08 A3015 RMK SC2CI2 SLP246=

CYXE;2005-03-24 00:30;SPECI CYXE 240030Z 36007KT 15SM FEW025 BKN230 RMK SC1CI2=

CYXE;2005-03-24 01:00;METAR CYXE 240100Z 36008KT 15SM FEW020 SCT230 M08/M11 A3015 RMK SC1CI2 SLP246=

CYXE;2005-03-24 02:00;METAR CYXE 240200Z 36006KT 15SM FEW230 M11/M12 A3016 RMK CI1 SLP249=

CYXE;2005-03-24 03:00;METAR CYXE 240300Z 32007KT 15SM FEW230 M14/M16 A3019 RMK CI1 SLP266=

CYXE;2005-03-24 04:00;METAR CYXE 240400Z 36009KT 15SM FEW230 M15/M17 A3022 RMK CI1 SLP275=

CYXE;2005-03-24 05:00;METAR CYXE 240500Z 35011KT 15SM SKC M13/M15 A3023 RMK SLP279=

CYXE;2005-03-24 06:00;METAR CYXE 240600Z 33009KT 15SM SKC M16/M18 A3025 RMK SLP286=

CYXE;2005-03-24 07:00;METAR CYXE 240700Z 34009KT 15SM SKC M18/M19 A3026 RMK SLP289=

CYXE;2005-03-24 08:00;METAR CYXE 240800Z 00000KT 15SM SKC M18/M20 A3027 RMK SLP294=

CYXE;2005-03-24 09:00;METAR CYXE 240900Z 31005KT 15SM SKC M20/M21 A3028 RMK SLP298=

CYXE;2005-03-24 10:00;METAR CYXE 241000Z 30004KT 15SM SKC M19/M20 A3029 RMK SLP301=

CYXE;2005-03-24 11:00;METAR CYXE 241100Z 30005KT 15SM SKC M20/M21 A3030 RMK SLP304=

CYXE;2005-03-24 12:00;METAR CYXE 241200Z 32008KT 15SM SKC M21/M23 A3031 RMK SLP311=

CYXE;2005-03-24 13:00;METAR CYXE 241300Z 30005KT 15SM FEW250 M20/M21 A3032 RMK CI1 SLP315=

CYXE;2005-03-24 14:00;METAR CYXE 241400Z 30005KT 15SM FEW250 M20/M21 A3033 RMK CI1 SLP318=

CYXE;2005-03-24 15:00;METAR CYXE 241500Z 29002KT 15SM SCT250 M19/M21 A3034 RMK CI1 SLP326=

CYXE;2005-03-24 16:00;METAR CYXE 241600Z 28003KT 15SM SCT250 M16/M18 A3035 RMK CI1 SLP328=

CYXE;2005-03-24 17:00;METAR CYXE 241700Z 26004KT 15SM SCT250 M13/M15 A3036 RMK CI1 SLP332=

CYXE;2005-03-24 18:00;METAR CYXE 241800Z 27004KT 15SM SCT250 M11/M15 A3036 RMK CI1 SLP329=

CYXE;2005-03-24 19:00;METAR CYXE 241900Z 25005KT 15SM BKN250 M09/M14 A3035 RMK CI1 SLP324=

CYXE;2005-03-24 20:00;METAR CYXE 242000Z 24007KT 15SM SCT250 M08/M12 A3034 RMK CI1 SLP322=

CYXE;2005-03-24 21:00;METAR CYXE 242100Z 24011KT 15SM SCT250 M08/M13 A3033 RMK CI0 SLP319=

CYXE;2005-03-24 22:00;METAR CYXE 242200Z 25007KT 15SM SCT250 M07/M13 A3032 RMK CI0 SLP314=

CYXE;2005-03-24 23:00;METAR CYXE 242300Z 23010KT 15SM FEW250 M07/M12 A3030 RMK CI0 SLP307=

CYXE;2005-03-25 00:00;METAR CYXE 250000Z 23008KT 15SM FEW250 M09/M13 A3028 RMK CI0 SLP303=

CYXE;2005-03-25 01:00;METAR CYXE 250100Z 22008KT 15SM FEW250 M11/M14 A3027 RMK CI0 SLP298=

CYXE;2005-03-25 02:00;METAR CYXE 250200Z 22008KT 15SM FEW250 M13/M15 A3026 RMK CI1 SLP294=

CYXE;2005-03-25 03:00;METAR CYXE 250300Z 22008KT 15SM FEW250 M14/M15 A3025 RMK CI1 SLP293=

CYXE;2005-03-25 04:00;METAR CYXE 250400Z 21006KT 15SM SKC M12/M14 A3024 RMK SLP290=

CYXE;2005-03-25 05:00;METAR CYXE 250500Z 21006KT 15SM SKC M14/M15 A3023 RMK SLP288=

CYXE;2005-03-25 06:00;METAR CYXE 250600Z 19006KT 15SM SKC M14/M15 A3022 RMK SLP277=

CYXE;2005-03-25 07:00;METAR CYXE 250700Z 19008KT 15SM SKC M15/M16 A3021 RMK SLP273=

CYXE;2005-03-25 08:00;METAR CYXE 250800Z 19007KT 15SM SKC M14/M16 A3018 RMK SLP266=

CYXE;2005-03-25 09:00;METAR CYXE 250900Z 19007KT 15SM SKC M15/M16 A3017 RMK SLP258=

CYXE;2005-03-25 10:00;METAR CYXE 251000Z 19006KT 15SM SKC M16/M17 A3015 RMK SLP253=

CYXE;2005-03-25 11:00;METAR CYXE 251100Z 18006KT 15SM SKC M16/M18 A3014 RMK SLP249=

CYXE;2005-03-25 12:00;METAR CYXE 251200Z 18005KT 15SM SKC M17/M18 A3012 RMK SLP243=

CYXE;2005-03-25 13:00;METAR CYXE 251300Z 19004KT 15SM SKC M17/M19 A3010 RMK SLP236=

CYXE;2005-03-25 14:00;METAR CYXE 251400Z 19003KT 15SM FEW250 M17/M18 A3008 RMK CI1 SLP231=

CYXE;2005-03-25 15:00;METAR CYXE 251500Z 20003KT 15SM FEW250 M15/M17 A3007 RMK CI1 SLP229=

CYXE;2005-03-25 16:00;METAR CYXE 251600Z 20004KT 15SM SKC M13/M15 A3006 RMK SLP224=

CYXE;2005-03-25 17:00;METAR CYXE 251700Z 21005KT 15SM SKC M10/M14 A3004 RMK SLP218=

CYXE;2005-03-25 18:00;METAR CYXE 251800Z 22007KT 15SM SKC M08/M12 A3002 RMK SLP208=

CYXE;2005-03-25 19:00;METAR CYXE 251900Z 24006KT 15SM FEW250 M07/M11 A3000 RMK CI1 SLP201=

CYXE;2005-03-25 20:00;METAR CYXE 252000Z 23006KT 15SM SKC M05/M10 A2998 RMK SLP194=

CYXE;2005-03-25 21:00;METAR CYXE 252100Z 22007KT 15SM SKC M04/M09 A2996 RMK SLP184=

CYXE;2005-03-25 22:00;METAR CYXE 252200Z 25005KT 15SM SKC M03/M08 A2995 RMK SLP180=

CYXE;2005-03-25 23:00;METAR CYXE 252300Z 24007KT 15SM FEW250 M04/M08 A2993 RMK CI0 SLP175=

CYXE;2005-03-26 00:00;METAR CYXE 260000Z 23006KT 15SM FEW250 M05/M09 A2992 RMK CI0 SLP171=

CYXE;2005-03-26 01:00;METAR CYXE 260100Z 23007KT 15SM SCT250 M06/M10 A2990 RMK CI0 SLP167=

CYXE;2005-03-26 02:00;METAR CYXE 260200Z 23006KT 15SM FEW250 M08/M10 A2990 RMK CI0 SLP166=

CYXE;2005-03-26 03:00;METAR CYXE 260300Z 23005KT 15SM FEW250 M09/M11 A2989 RMK CI0 SLP165=

CYXE;2005-03-26 04:00;METAR CYXE 260400Z 25006KT 15SM SCT250 M11/M12 A2989 RMK CI1 SLP164=

CYXE;2005-03-26 05:00;METAR CYXE 260500Z 23009KT 15SM BKN250 M12/M14 A2989 RMK CI1 SLP163=

CYXE;2005-03-26 06:00;METAR CYXE 260600Z 23009KT 15SM SCT250 M13/M15 A2988 RMK CI1 SLP159=

CYXE;2005-03-26 07:00;METAR CYXE 260700Z 23008KT 15SM SCT250 M14/M15 A2988 RMK CI1 SLP158=

CYXE;2005-03-26 08:00;METAR CYXE 260800Z 24009KT 15SM BKN250 M13/M15 A2988 RMK CI2 SLP159=

CYXE;2005-03-26 09:00;METAR CYXE 260900Z 24007KT 15SM BKN250 M14/M16 A2988 RMK CS3 SLP157=

CYXE;2005-03-26 10:00;METAR CYXE 261000Z 23005KT 10SM BKN250 M14/M15 A2989 RMK CI3 SLP158=

CYXE;2005-03-26 11:00;METAR CYXE 261100Z 24007KT 10SM BKN250 M16/M17 A2988 RMK CI2 SLP157=

CYXE;2005-03-26 12:00;METAR CYXE 261200Z 22006KT 15SM BKN250 M14/M16 A2989 RMK CI2 SLP161=

CYXE;2005-03-26 14:00;METAR CYXE 261400Z 23006KT 5SM R09/4500VP6000FT/U BR FEW250 M15/M16 A2992 RMK CI1 SLP170=

CYXE;2005-03-26 15:00;METAR CYXE 261500Z 21005KT 8SM FEW250 M12/M13 A2992 RMK CI1 BR SLP173=

CYXE;2005-03-26 16:00;METAR CYXE 261600Z 22006KT 8SM SCT250 M09/M10 A2990 RMK CI1 BR SLP167=

CYXE;2005-03-26 17:00;METAR CYXE 261700Z 22005KT 12SM FEW250 M07/M08 A2991 RMK CI1 SLP168=

CYXE;2005-03-26 18:00;METAR CYXE 261800Z 23006KT 10SM FEW250 M04/M08 A2990 RMK CI1 BR SLP162=

CYXE;2005-03-26 19:00;METAR CYXE 261900Z 18006KT 12SM SCT250 M02/M08 A2987 RMK CI1 SLP154=

CYXE;2005-03-26 20:00;METAR CYXE 262000Z 18006KT 15SM BKN250 M01/M07 A2985 RMK CI2 SLP147=

CYXE;2005-03-26 21:00;METAR CYXE 262100Z 18008KT 15SM BKN250 01/M05 A2981 RMK CI2 SLP131=

CYXE;2005-03-26 22:00;METAR CYXE 262200Z 18007KT 15SM OVC250 02/M05 A2979 RMK CI2 SLP124=

CYXE;2005-03-26 23:00;METAR CYXE 262300Z 15008KT 15SM FEW120 OVC250 02/M05 A2975 RMK AS2CS6 SLP109=

CYXE;2005-03-27 00:00;METAR CYXE 270000Z 15011KT 15SM BKN120 OVC250 01/M05 A2972 RMK AS6CS2 SLP099=

CYXE;2005-03-27 01:00;METAR CYXE 270100Z 14014KT 15SM OVC120 01/M04 A2964 RMK AS8 PRESFR SLP074=

CYXE;2005-03-27 02:00;METAR CYXE 270200Z 14012KT 15SM OVC120 01/M03 A2961 RMK AS8 SLP062=

CYXE;2005-03-27 03:00;METAR CYXE 270300Z 16010KT 15SM SCT070 OVC120 02/M03 A2957 RMK AC3AS5 SLP045=

CYXE;2005-03-27 03:51;SPECI CYXE 270351Z 18014KT 15SM -RA BKN037 OVC080 RMK SC6AC2=

CYXE;2005-03-27 04:00;METAR CYXE 270400Z 18014KT 15SM -RA BKN037 OVC080 03/M02 A2952 RMK SC6AC2 SLP029=

CYXE;2005-03-27 04:19;SPECI CYXE 270419Z 17015KT 15SM BKN031 OVC080 RMK SC6AC2=

CYXE;2005-03-27 05:00;METAR CYXE 270500Z 16014KT 15SM FEW030 OVC065 03/M02 A2945 RMK SC2SC6 PRESFR SLP007=

CYXE;2005-03-27 06:00;METAR CYXE 270600Z 18011KT 15SM FEW100 BKN250 03/M01 A2943 RMK AC1CI2 SLP990=

CYXE;2005-03-27 07:00;METAR CYXE 270700Z 18014KT 15SM FEW100 BKN250 02/M02 A2937 RMK AC2CI2 SLP973=

CYXE;2005-03-27 08:00;METAR CYXE 270800Z 19008KT 15SM BKN100 01/M03 A2937 RMK AC2 SLP970=

CYXE;2005-03-27 09:00;METAR CYXE 270900Z 23008KT 15SM FEW100 M02/M04 A2936 RMK AC1 SLP966=

CYXE;2005-03-27 10:00;METAR CYXE 271000Z 24009KT 15SM SKC M05/M06 A2937 RMK SLP971=

CYXE;2005-03-27 11:00;METAR CYXE 271100Z 27008KT 15SM FEW100 M05/M07 A2938 RMK AC1 SLP975=

CYXE;2005-03-27 12:00;METAR CYXE 271200Z 26010KT 15SM FEW100 M07/M08 A2942 RMK AC1 SLP990=

CYXE;2005-03-27 13:00;METAR CYXE 271300Z 29007KT 15SM FEW100 M08/M10 A2944 RMK AC1 SLP995=

CYXE;2005-03-27 14:00;METAR CYXE 271400Z 32008KT 15SM FEW250 M08/M09 A2946 RMK CI1 SLP001=

CYXE;2005-03-27 15:00;METAR CYXE 271500Z 25005KT 15SM SCT220 M06/M08 A2948 RMK CI2 SLP010=

CYXE;2005-03-27 16:00;METAR CYXE 271600Z 29008KT 15SM BKN240 M04/M06 A2950 RMK CI2 SLP017=

CYXE;2005-03-27 17:00;METAR CYXE 271700Z 31007KT 15SM BKN250 M02/M04 A2950 RMK CI2 SLP016=

CYXE;2005-03-27 18:00;METAR CYXE 271800Z 29004KT 15SM BKN250 M00/M03 A2951 RMK CI2 SLP018=

CYXE;2005-03-27 19:00;METAR CYXE 271900Z 33003KT 15SM BKN250 00/M03 A2953 RMK CI4 SLP024=

CYXE;2005-03-27 20:00;METAR CYXE 272000Z 00000KT 15SM BKN220 01/M03 A2954 RMK CI6 SLP026=

CYXE;2005-03-27 21:00;METAR CYXE 272100Z 05002KT 10SM FEW090 BKN240 02/M03 A2952 RMK AC2CI4 BR SLP022=

CYXE;2005-03-27 22:00;METAR CYXE 272200Z 07006KT 10SM FEW090 BKN240 01/M03 A2952 RMK AC2CI5 SLP021=

CYXE;2005-03-27 23:00;METAR CYXE 272300Z 05005KT 15SM BKN240 00/M02 A2952 RMK CI6 SLP020=

CYXE;2005-03-28 00:00;METAR CYXE 280000Z 06007KT 10SM OVC240 00/M02 A2950 RMK CS7 SLP019=

CYXE;2005-03-28 01:00;METAR CYXE 280100Z 08008KT 10SM OVC240 M00/M02 A2949 RMK CS7 SLP016=

CYXE;2005-03-28 02:00;METAR CYXE 280200Z 08008KT 10SM OVC240 M00/M02 A2947 RMK CI6 SLP010=

CYXE;2005-03-28 03:00;METAR CYXE 280300Z 08005KT 10SM BKN240 M02/M03 A2948 RMK CI2 SLP014=

CYXE;2005-03-28 04:00;METAR CYXE 280400Z 06007KT 6SM BR BKN240 M02/M04 A2947 RMK CI1 SLP011=

CYXE;2005-03-28 05:00;METAR CYXE 280500Z 10009KT 8SM FEW100 OVC250 M01/M02 A2946 RMK AC1CI4 BR SLP007=

CYXE;2005-03-28 06:00;METAR CYXE 280600Z 09008KT 7SM FEW100 OVC250 M01/M03 A2945 RMK AC2CI5 BR SLP998=

CYXE;2005-03-28 07:00;METAR CYXE 280700Z 06009KT 7SM SCT100 OVC250 M02/M03 A2943 RMK AC3CI4 BR SLP992=

CYXE;2005-03-28 08:00;METAR CYXE 280800Z 09011KT 7SM SCT068 BKN090 OVC250 M00/M02 A2940 RMK AC3AC2CI2 BR SLP983=

CYXE;2005-03-28 09:00;METAR CYXE 280900Z 10010KT 10SM SCT062 OVC082 01/M02 A2938 RMK SC4AC4 SLP973=

CYXE;2005-03-28 10:00;METAR CYXE 281000Z 13009KT 15SM SCT056 OVC086 02/M01 A2936 RMK SC4AC4 SLP966=

CYXE;2005-03-28 11:00;METAR CYXE 281100Z 14019KT 15SM FEW038 SCT058 SCT082 03/M01 A2933 RMK SC2SC1AC1 SLP957=

CYXE;2005-03-28 12:00;METAR CYXE 281200Z 13016KT 15SM FEW060 03/M00 A2933 RMK SC1 SLP954=

CYXE;2005-03-28 13:00;METAR CYXE 281300Z 13016G21KT 15SM FEW060 FEW080 02/M00 A2933 RMK SC1AC1 SLP953=

CYXE;2005-03-28 14:00;METAR CYXE 281400Z 12013G18KT 15SM FEW080 02/M00 A2932 RMK AC1 SLP951=

CYXE;2005-03-28 14:26;SPECI CYXE 281426Z 12013KT 15SM FEW008 FEW080 RMK SF1AC1=

CYXE;2005-03-28 15:00;METAR CYXE 281500Z 13014KT 15SM FEW008 SCT080 02/M00 A2930 RMK SF1AC2 SLP946=

CYXE;2005-03-28 16:00;METAR CYXE 281600Z 12013KT 15SM SCT010 BKN070 02/00 A2928 RMK SF2AC4 SLP941=

CYXE;2005-03-28 17:00;METAR CYXE 281700Z 12015KT 15SM SCT012 BKN090 03/M00 A2928 RMK SF2AC3 SLP939=

CYXE;2005-03-28 18:00;METAR CYXE 281800Z 12010G18KT 15SM FEW015 BKN100 03/00 A2928 RMK SC1AC4 SLP938=

CYXE;2005-03-28 19:00;METAR CYXE 281900Z 12012KT 15SM FEW015 BKN100 03/00 A2927 RMK SC1AC5 SLP935=

CYXE;2005-03-28 20:00;METAR CYXE 282000Z 12012KT 15SM OVC090 03/00 A2925 RMK AC7 SLP929=

CYXE;2005-03-28 21:00;METAR CYXE 282100Z 12013KT 15SM BKN090 03/00 A2924 RMK AC7 SLP922=

CYXE;2005-03-28 22:00;METAR CYXE 282200Z 12011KT 15SM OVC090 03/00 A2924 RMK AC8 SLP922=

CYXE;2005-03-28 23:00;METAR CYXE 282300Z 12012KT 15SM OVC090 03/M00 A2924 RMK AC8 SLP924=

CYXE;2005-03-28 23:48;SPECI CYXE 282348Z 13011KT 10SM -RA OVC090 RMK AC8=

CYXE;2005-03-29 00:00;METAR CYXE 290000Z 12008KT 8SM -RA OVC090 02/00 A2924 RMK AC8 SLP923=

CYXE;2005-03-29 01:00;METAR CYXE 290100Z 11008G15KT 7SM -RA BKN042 OVC090 02/00 A2923 RMK SC5AC3 SLP920=

CYXE;2005-03-29 02:00;METAR CYXE 290200Z 20006KT 8SM -RA SCT009 OVC038 02/00 A2927 RMK SF4SC4 SLP930=

CYXE;2005-03-29 02:11;SPECI CYXE 290211Z 19004KT 8SM -RA BKN009 OVC038 RMK SF6SC2=

CYXE;2005-03-29 03:00;METAR CYXE 290300Z 10012KT 8SM -RA SCT009 OVC034 01/00 A2922 RMK SF3SC5 SLP916=

CYXE;2005-03-29 04:00;METAR CYXE 290400Z 14007KT 10SM SCT050 01/00 A2922 RMK SC3 SLP917=

CYXE;2005-03-29 04:15;SPECI CYXE 290415Z 18005KT 8SM SCT006 RMK ST4=

CYXE;2005-03-29 04:22;SPECI CYXE 290422Z 22007KT 8SM BKN005 RMK ST7=

CYXE;2005-03-29 05:00;METAR CYXE 290500Z 19003KT 7SM OVC005 01/00 A2925 RMK ST8 SLP925=

CYXE;2005-03-29 06:00;METAR CYXE 290600Z 09003KT 5SM BR OVC005 01/00 A2925 RMK ST8 SLP925=

CYXE;2005-03-29 07:00;METAR CYXE 290700Z 08002KT 2SM BR OVC003 01/00 A2925 RMK ST8 SLP926=

CYXE;2005-03-29 07:31;SPECI CYXE 290731Z 10002KT 1/2SM R09/P6000FT/D FG OVC003 RMK ST8=

CYXE;2005-03-29 08:00;METAR CYXE 290800Z 00000KT 1/4SM R09/1600VP6000FT/D FG VV001 01/00 A2923 RMK FG8 SLP920=

CYXE;2005-03-29 08:46;SPECI CYXE 290846Z 23005KT 0SM R09/1000FT/N FG VV000 RMK FG8=

CYXE;2005-03-29 09:00;METAR CYXE 290900Z 24004KT 0SM R09/1000FT/N FG VV000 00/00 A2926 RMK FG8 SLP929=

CYXE;2005-03-29 10:00;METAR CYXE 291000Z 27004KT 0SM R09/1400FT/N FG VV000 00/00 A2925 RMK FG8 SLP927=

CYXE;2005-03-29 10:50;SPECI CYXE 291050Z 28005KT 1/8SM R09/3000FT/N FG VV001 RMK FG8=

CYXE;2005-03-29 11:00;METAR CYXE 291100Z 26003KT 1/4SM R09/2800FT/N FG VV001 00/00 A2927 RMK FG8 SLP933=

CYXE;2005-03-29 12:00;METAR CYXE 291200Z 23004KT 1/4SM R09/2600FT/U FG VV001 00/00 A2929 RMK FG8 SLP941=

CYXE;2005-03-29 12:12;SPECI CYXE 291212Z 25004KT 1/2SM R09/2800V4500FT/U FG VV001 RMK FG8=

CYXE;2005-03-29 12:36;SPECI CYXE 291236Z 27005KT 3/4SM R09/P6000FT/U BR OVC002 RMK ST8=

CYXE;2005-03-29 13:00;METAR CYXE 291300Z 31004KT 1SM R09/P6000FT/D BR OVC002 00/00 A2930 RMK ST8 SLP943=

CYXE;2005-03-29 13:30;SPECI CYXE 291330Z 34004KT 1 1/2SM BR SCT002 OVC008 RMK SF3ST5=

CYXE;2005-03-29 14:00;METAR CYXE 291400Z 31005KT 2 1/2SM BR OVC006 00/00 A2930 RMK ST8 SLP943=

CYXE;2005-03-29 14:41;SPECI CYXE 291441Z 30005KT 4SM BR OVC007 RMK ST8=

CYXE;2005-03-29 15:00;METAR CYXE 291500Z 31005KT 5SM BR OVC006 01/00 A2930 RMK ST8 SLP944=

CYXE;2005-03-29 16:00;METAR CYXE 291600Z 28004KT 8SM OVC006 01/00 A2931 RMK ST8 BR SLP948=

CYXE;2005-03-29 17:00;METAR CYXE 291700Z 27006KT 12SM OVC006 01/00 A2933 RMK ST8 BR SLP953=

CYXE;2005-03-29 18:00;METAR CYXE 291800Z 31004KT 15SM OVC006 01/M00 A2934 RMK ST8 SLP957=

CYXE;2005-03-29 19:00;METAR CYXE 291900Z 30004KT 12SM OVC006 01/00 A2934 RMK ST8 SLP958=

CYXE;2005-03-29 20:00;METAR CYXE 292000Z 29006KT 12SM OVC007 01/M00 A2935 RMK ST8 SLP960=

CYXE;2005-03-29 21:00;METAR CYXE 292100Z 29006KT 15SM OVC008 01/M00 A2936 RMK ST8 SLP964=

CYXE;2005-03-29 22:00;METAR CYXE 292200Z 30007KT 10SM OVC006 01/M00 A2937 RMK ST8 SLP969=

CYXE;2005-03-29 23:00;METAR CYXE 292300Z 30008KT 12SM OVC007 01/M00 A2938 RMK ST8 SLP973=

CYXE;2005-03-30 00:00;METAR CYXE 300000Z 31006KT 15SM OVC008 01/M01 A2940 RMK ST8 SLP980=

CYXE;2005-03-30 01:00;METAR CYXE 300100Z 31008KT 15SM OVC007 01/M01 A2942 RMK ST8 SLP987=

CYXE;2005-03-30 02:00;METAR CYXE 300200Z 31009KT 15SM OVC009 01/M01 A2945 RMK ST8 SLP994=

CYXE;2005-03-30 02:32;SPECI CYXE 300232Z 31004KT 12SM OVC010 RMK ST8=

CYXE;2005-03-30 03:00;METAR CYXE 300300Z 32006KT 15SM OVC010 01/M00 A2946 RMK ST8 SLP001=

CYXE;2005-03-30 04:00;METAR CYXE 300400Z 32008KT 12SM OVC008 01/M00 A2947 RMK ST8 SLP004=

CYXE;2005-03-30 05:00;METAR CYXE 300500Z 30007KT 12SM OVC007 01/M01 A2949 RMK ST8 SLP009=

CYXE;2005-03-30 05:10;SPECI CYXE 300510Z 30007KT 10SM OVC006 RMK ST8=

CYXE;2005-03-30 07:00;METAR CYXE 300700Z 30007KT 10SM OVC009 01/M01 A2951 RMK ST8 SLP018=

CYXE;2005-03-30 08:00;METAR CYXE 300800Z 27005KT 8SM OVC008 01/M01 A2953 RMK ST8 SLP022=

CYXE;2005-03-30 09:00;METAR CYXE 300900Z 26007KT 8SM OVC006 01/M01 A2954 RMK ST8 SLP027=

CYXE;2005-03-30 10:00;METAR CYXE 301000Z 24008KT 10SM OVC005 00/M01 A2954 RMK ST8 SLP028=

CYXE;2005-03-30 11:24;SPECI CYXE 301124Z 24013KT 1/2SM R09/1400VP6000FT/D FZFG VV001 RMK FG8=

CYXE;2005-03-30 11:34;SPECI CYXE 301134Z 24012KT 1/4SM R09/1600FT/N FZFG VV001 RMK FG8=

CYXE;2005-03-30 11:40;SPECI CYXE 301140Z 24011KT 1/8SM R09/1600V2200FT/N FZFG VV001 RMK FG8=

CYXE;2005-03-30 11:46;SPECI CYXE 301146Z 24011KT 1/4SM R09/1600V2200FT/N FZFG VV001 RMK FG8=

CYXE;2005-03-30 12:00;METAR CYXE 301200Z 24010G15KT 1/4SM R09/1600V2800FT/D FZFG VV001 M01/M01 A2958 RMK FG8 SLP040=

CYXE;2005-03-30 12:52;SPECI CYXE 301252Z 23010KT 1/2SM R09/1400V2400FT/N FZFG VV001 RMK FG8=

CYXE;2005-03-30 13:00;METAR CYXE 301300Z 23010KT 1/2SM R09/2400FT/N FZFG VV001 M01/M02 A2959 RMK FG8 SLP046=

CYXE;2005-03-30 13:37;SPECI CYXE 301337Z 21007KT 2SM R09/2600VP6000FT/U BR SCT002 RMK ST3=

CYXE;2005-03-30 14:00;METAR CYXE 301400Z 22010KT 3SM BR FEW002 M02/M02 A2962 RMK SF1 SLP053=

CYXE;2005-03-30 15:00;METAR CYXE 301500Z 25008KT 8SM FEW250 M01/M02 A2963 RMK CI1 BR SLP058=

CYXE;2005-03-30 16:00;METAR CYXE 301600Z 29010KT 15SM FEW250 01/M02 A2965 RMK CI1 SLP065=

CYXE;2005-03-30 17:00;METAR CYXE 301700Z 29009KT 15SM FEW250 02/M02 A2967 RMK CI1 SLP072=

CYXE;2005-03-30 18:00;METAR CYXE 301800Z 27008KT 15SM FEW250 03/M02 A2969 RMK CI0 SLP079=

CYXE;2005-03-30 19:00;METAR CYXE 301900Z 25005KT 15SM FEW250 05/M01 A2971 RMK CI1 SLP085=

CYXE;2005-03-30 20:00;METAR CYXE 302000Z 24005KT 15SM FEW250 05/00 A2972 RMK CI1 SLP088=

CYXE;2005-03-30 21:00;METAR CYXE 302100Z 23008KT 15SM SCT250 05/00 A2974 RMK CI1 SLP093=

CYXE;2005-03-30 22:00;METAR CYXE 302200Z 24007KT 15SM SCT250 05/M00 A2976 RMK CI2 SLP098=

CYXE;2005-03-30 23:00;METAR CYXE 302300Z 26008KT 15SM FEW250 05/M00 A2977 RMK CI1 SLP102=

CYXE;2005-03-31 00:00;METAR CYXE 310000Z 25009KT 15SM FEW250 05/M00 A2979 RMK CI1 SLP112=

CYXE;2005-03-31 01:00;METAR CYXE 310100Z 26010KT 15SM FEW250 03/M00 A2981 RMK CI1 SLP118=

CYXE;2005-03-31 02:00;METAR CYXE 310200Z 28011KT 15SM FEW250 02/M02 A2984 RMK CI1 SLP127=

CYXE;2005-03-31 03:00;METAR CYXE 310300Z 28012KT 15SM SCT250 02/M02 A2987 RMK CI2 SLP140=

CYXE;2005-03-31 04:00;METAR CYXE 310400Z 28011KT 15SM BKN250 01/M04 A2989 RMK CI2 SLP147=

CYXE;2005-03-31 05:00;METAR CYXE 310500Z 27009KT 15SM BKN250 01/M05 A2992 RMK CI1 SLP155=

CYXE;2005-03-31 06:00;METAR CYXE 310600Z 28011KT 15SM FEW250 M00/M05 A2994 RMK CI1 SLP164=

CYXE;2005-03-31 07:00;METAR CYXE 310700Z 29014KT 15SM FEW250 00/M05 A2996 RMK CI0 SLP171=

CYXE;2005-03-31 08:00;METAR CYXE 310800Z 26009KT 15SM SKC M01/M05 A2999 RMK SLP179=

CYXE;2005-03-31 09:00;METAR CYXE 310900Z 26010KT 15SM SKC M02/M05 A3000 RMK SLP185=

CYXE;2005-03-31 10:00;METAR CYXE 311000Z 28013KT 15SM BKN051 M01/M05 A3003 RMK SC4 SLP192=

CYXE;2005-03-31 10:47;SPECI CYXE 311047Z 30015KT 15SM -SN OVC047 RMK SC7=

CYXE;2005-03-31 11:00;METAR CYXE 311100Z 30016KT 15SM -SN BKN047 M00/M05 A3005 RMK SC5 SLP200=

CYXE;2005-03-31 11:34;SPECI CYXE 311134Z 30013KT 15SM BKN047 RMK SC5=

CYXE;2005-03-31 12:00;METAR CYXE 311200Z 30013KT 15SM BKN047 M00/M04 A3008 RMK SC3 SLP209=

CYXE;2005-03-31 13:00;METAR CYXE 311300Z 30009KT 15SM SCT052 M02/M04 A3011 RMK SC3 SLP221=

CYXE;2005-03-31 14:00;METAR CYXE 311400Z 30010KT 15SM FEW065 M01/M04 A3014 RMK SC1 SLP230=

CYXE;2005-03-31 15:00;METAR CYXE 311500Z 30012KT 15SM FEW065 01/M04 A3015 RMK SC1 SLP237=

CYXE;2005-03-31 16:00;METAR CYXE 311600Z 30012G18KT 15SM FEW070 01/M04 A3017 RMK AC1 SLP241=

CYXE;2005-03-31 17:00;METAR CYXE 311700Z 30010KT 15SM SKC 02/M05 A3017 RMK SLP244=

CYXE;2005-03-31 18:00;METAR CYXE 311800Z 28008KT 15SM SKC 03/M04 A3018 RMK SLP245=

CYXE;2005-03-31 19:00;METAR CYXE 311900Z 23005KT 15SM SKC 04/M02 A3017 RMK SLP242=

CYXE;2005-03-31 20:00;METAR CYXE 312000Z 25009KT 15SM SKC 05/M04 A3016 RMK SLP238=

CYXE;2005-03-31 21:00;METAR CYXE 312100Z 24008KT 15SM FEW250 05/M02 A3015 RMK CI1 SLP234=

CYXE;2005-03-31 22:00;METAR CYXE 312200Z 24009KT 15SM FEW120 05/M02 A3014 RMK AC2 SLP231=

CYXE;2005-03-31 23:00;METAR CYXE 312300Z 27009KT 15SM SKC 06/M03 A3013 RMK SLP230=

CYXE;2005-04-01 00:00;METAR CYXE 010000Z 27009KT 15SM SKC 05/M03 A3013 RMK SLP227=

CYXE;2005-04-01 01:00;METAR CYXE 010100Z 24004KT 15SM SKC 03/M02 A3013 RMK SLP227=

CYXE;2005-04-01 02:00;METAR CYXE 010200Z 24006KT 15SM SKC 01/M03 A3012 RMK SLP224=

CYXE;2005-04-01 03:00;METAR CYXE 010300Z 22006KT 15SM SKC 00/M03 A3012 RMK SLP225=

CYXE;2005-04-01 04:00;METAR CYXE 010400Z 21004KT 15SM SKC 01/M03 A3011 RMK SLP222=

CYXE;2005-04-01 05:00;METAR CYXE 010500Z 18007KT 15SM SKC 00/M04 A3010 RMK SLP220=

CYXE;2005-04-01 06:00;METAR CYXE 010600Z 18006KT 15SM SKC M01/M04 A3009 RMK SLP216=

CYXE;2005-04-01 07:00;METAR CYXE 010700Z 18006KT 15SM SKC M00/M05 A3008 RMK SLP213=

CYXE;2005-04-01 08:00;METAR CYXE 010800Z 18008KT 15SM SKC M01/M05 A3008 RMK SLP211=

CYXE;2005-04-01 09:00;METAR CYXE 010900Z 17006KT 15SM SKC M01/M05 A3006 RMK SLP203=

CYXE;2005-04-01 10:00;METAR CYXE 011000Z 17006KT 15SM SKC M01/M06 A3004 RMK SLP197=

CYXE;2005-04-01 11:00;METAR CYXE 011100Z 15009KT 15SM FEW280 00/M06 A3001 RMK CI0 SLP187=

CYXE;2005-04-01 12:00;METAR CYXE 011200Z 14011KT 15SM SCT280 02/M07 A2997 RMK CI2 SLP172=

CYXE;2005-04-01 13:00;METAR CYXE 011300Z 15010KT 15SM BKN280 01/M07 A2995 RMK CI2 SLP165=

CYXE;2005-04-01 14:00;METAR CYXE 011400Z 16008KT 15SM FEW250 01/M06 A2993 RMK CI1 SLP159=

CYXE;2005-04-01 15:00;METAR CYXE 011500Z 17010KT 15SM BKN250 03/M04 A2990 RMK CI2 SLP150=

CYXE;2005-04-01 16:00;METAR CYXE 011600Z 18013KT 15SM BKN250 04/M03 A2988 RMK CI4 SLP142=

CYXE;2005-04-01 17:00;METAR CYXE 011700Z 16010KT 15SM FEW090 BKN250 06/M02 A2985 RMK AC1CI4 SLP134=

CYXE;2005-04-01 18:00;METAR CYXE 011800Z 16014KT 15SM FEW090 BKN250 07/M02 A2980 RMK AC1CI3 SLP114=

CYXE;2005-04-01 19:00;METAR CYXE 011900Z 16017KT 15SM FEW090 OVC250 07/M01 A2976 RMK AC1CI6 SLP099=

CYXE;2005-04-01 20:00;METAR CYXE 012000Z 17017KT 15SM FEW090 OVC250 08/M00 A2972 RMK AC1CI6 SLP088=

CYXE;2005-04-01 21:00;METAR CYXE 012100Z 17011G16KT 15SM FEW090 OVC250 09/01 A2968 RMK AC2CS5 SLP073=

CYXE;2005-04-01 22:00;METAR CYXE 012200Z 16013KT 15SM FEW090 OVC250 09/01 A2965 RMK AC2CS6 SLP061=

CYXE;2005-04-01 23:00;METAR CYXE 012300Z 17010KT 15SM SCT089 OVC250 09/02 A2961 RMK AC3CS5 SLP049=

CYXE;2005-04-02 00:00;METAR CYXE 020000Z 16009KT 15SM FEW089 OVC250 09/02 A2957 RMK AC2CS6 SLP032=

CYXE;2005-04-02 01:00;METAR CYXE 020100Z 17010KT 15SM OVC250 09/02 A2953 RMK CI4 SLP020=

CYXE;2005-04-02 02:00;METAR CYXE 020200Z 17010KT 15SM OVC250 07/02 A2950 RMK CI3 SLP010=

CYXE;2005-04-02 03:00;METAR CYXE 020300Z 20011KT 15SM OVC250 08/02 A2949 RMK CI3 SLP004=

CYXE;2005-04-02 04:00;METAR CYXE 020400Z 23013KT 15SM OVC250 07/01 A2948 RMK CI3 SLP000=

CYXE;2005-04-02 05:00;METAR CYXE 020500Z 22012KT 15SM OVC250 06/00 A2947 RMK CI4 SLP999=

CYXE;2005-04-02 07:00;METAR CYXE 020700Z 23016KT 15SM BKN250 05/M00 A2946 RMK CI2 SLP993=

CYXE;2005-04-02 08:00;METAR CYXE 020800Z 26010KT 15SM SCT250 04/M00 A2948 RMK CI1 SLP999=

CYXE;2005-04-02 09:00;METAR CYXE 020900Z 26014KT 15SM FEW250 04/M01 A2947 RMK CI0 SLP998=

CYXE;2005-04-02 10:00;METAR CYXE 021000Z 29015KT 15SM FEW250 04/01 A2950 RMK CI0 SLP008=

CYXE;2005-04-02 11:00;METAR CYXE 021100Z 29015KT 15SM FEW100 03/M00 A2956 RMK AC2 SLP025=

CYXE;2005-04-02 12:00;METAR CYXE 021200Z 30014KT 15SM SCT063 BKN100 03/M01 A2959 RMK SC3AC2 SLP040=

CYXE;2005-04-02 13:00;METAR CYXE 021300Z 30013G18KT 15SM OVC075 03/M01 A2964 RMK AC7 SLP054=

CYXE;2005-04-02 14:00;METAR CYXE 021400Z 30015KT 15SM BKN090 03/M02 A2970 RMK AC7 VIRGA SLP074=

CYXE;2005-04-02 15:00;METAR CYXE 021500Z 29013KT 15SM BKN095 03/M03 A2973 RMK AC6 SLP088=

CYXE;2005-04-02 16:00;METAR CYXE 021600Z 30015KT 15SM FEW100 04/M03 A2976 RMK AC1 SLP096=

CYXE;2005-04-02 17:00;METAR CYXE 021700Z 29011KT 15SM SKC 05/M03 A2979 RMK SLP105=

CYXE;2005-04-02 19:00;METAR CYXE 021900Z 29010KT 15SM SKC 07/M03 A2981 RMK SLP115=

CYXE;2005-04-02 20:00;METAR CYXE 022000Z 26013KT 15SM FEW250 07/M02 A2981 RMK CI1 SLP115=

CYXE;2005-04-02 21:00;METAR CYXE 022100Z 28015KT 15SM FEW250 08/M02 A2982 RMK CI1 SLP116=

CYXE;2005-04-02 22:00;METAR CYXE 022200Z 28012KT 15SM BKN280 08/M03 A2982 RMK CI1 SLP116=

CYXE;2005-04-02 23:00;METAR CYXE 022300Z 23010KT 15SM FEW120 BKN280 08/M01 A2982 RMK AC1CI1 SLP116=

CYXE;2005-04-03 00:00;METAR CYXE 030000Z 22006KT 15SM FEW120 FEW280 07/M01 A2981 RMK AC1CI0 SLP115=

CYXE;2005-04-03 01:00;METAR CYXE 030100Z 22006KT 15SM FEW120 06/M01 A2981 RMK AC1 SLP113=

CYXE;2005-04-03 02:00;METAR CYXE 030200Z 19003KT 15SM FEW120 05/M03 A2980 RMK AC1 SLP112=

CYXE;2005-04-03 03:00;METAR CYXE 030300Z 18003KT 15SM FEW120 04/M04 A2981 RMK AC1 SLP115=

CYXE;2005-04-03 04:00;METAR CYXE 030400Z 17005KT 15SM FEW120 03/M04 A2981 RMK AC2 SLP115=

CYXE;2005-04-03 05:00;METAR CYXE 030500Z 15004KT 15SM FEW100 02/M04 A2981 RMK AC2 SLP116=

CYXE;2005-04-03 06:00;METAR CYXE 030600Z 14004KT 15SM SKC 01/M04 A2980 RMK SLP114=

CYXE;2005-04-03 07:00;METAR CYXE 030700Z 13003KT 15SM SKC 00/M04 A2980 RMK SLP114=

CYXE;2005-04-03 08:00;METAR CYXE 030800Z 13004KT 15SM SKC 01/M05 A2980 RMK SLP113=

CYXE;2005-04-03 09:00;METAR CYXE 030900Z 11002KT 15SM SKC 01/M05 A2979 RMK SLP110=

CYXE;2005-04-03 10:00;METAR CYXE 031000Z 09003KT 15SM SKC M01/M05 A2979 RMK SLP110=

CYXE;2005-04-03 11:00;METAR CYXE 031100Z 10003KT 15SM SKC M02/M05 A2979 RMK SLP110=

CYXE;2005-04-03 12:00;METAR CYXE 031200Z 05005KT 15SM SCT250 M02/M05 A2979 RMK CI0 SLP111=

CYXE;2005-04-03 13:00;METAR CYXE 031300Z 09004KT 15SM BKN250 M03/M05 A2979 RMK CI0 SLP112=

CYXE;2005-04-03 14:00;METAR CYXE 031400Z 08003KT 15SM FEW250 M01/M03 A2979 RMK CI1 SLP111=

CYXE;2005-04-03 16:00;METAR CYXE 031600Z 12004KT 15SM SCT250 06/M02 A2979 RMK CI2 SLP110=

CYXE;2005-04-03 17:00;METAR CYXE 031700Z 10005KT 15SM BKN250 07/M01 A2979 RMK CI2 SLP111=

CYXE;2005-04-03 18:00;METAR CYXE 031800Z 08008KT 15SM FEW250 08/M01 A2979 RMK CI1 SLP107=

CYXE;2005-04-03 19:00;METAR CYXE 031900Z 08009KT 15SM FEW250 10/M01 A2978 RMK CI1 SLP104=

CYXE;2005-04-03 20:00;METAR CYXE 032000Z 12009KT 15SM FEW250 10/M01 A2977 RMK CI1 SLP100=

CYXE;2005-04-03 22:00;METAR CYXE 032200Z 11011KT 15SM FEW250 11/M04 A2975 RMK CI1 SLP092=

CYXE;2005-04-03 23:00;METAR CYXE 032300Z 09011KT 15SM BKN280 10/M01 A2974 RMK CI1 SLP089=

CYXE;2005-04-04 00:00;METAR CYXE 040000Z 10013KT 15SM BKN280 10/M02 A2974 RMK CI1 SLP091=

CYXE;2005-04-04 01:00;METAR CYXE 040100Z 09009KT 15SM FEW080 BKN280 07/M00 A2973 RMK AC1CI1 SLP090=

CYXE;2005-04-04 02:00;METAR CYXE 040200Z 07007KT 15SM FEW080 OVC280 04/00 A2973 RMK AC1CI1 SLP089=

CYXE;2005-04-04 03:00;METAR CYXE 040300Z 07008KT 15SM SCT280 03/01 A2973 RMK CI1 SLP089=

CYXE;2005-04-04 04:00;METAR CYXE 040400Z 06006KT 15SM FEW098 01/M00 A2972 RMK AC2 SLP087=

CYXE;2005-04-04 05:00;METAR CYXE 040500Z 06006KT 15SM BKN086 M01/M02 A2972 RMK AC4 SLP085=

CYXE;2005-04-04 06:00;METAR CYXE 040600Z 07005KT 15SM FEW080 BKN250 M00/M01 A2972 RMK AC2CI0 SLP084=

CYXE;2005-04-04 07:00;METAR CYXE 040700Z 07005KT 15SM SCT090 BKN250 00/M02 A2971 RMK AC3CI0 SLP082=

CYXE;2005-04-04 08:00;METAR CYXE 040800Z 06006KT 15SM BKN070 BKN250 01/M01 A2971 RMK AC6CI0 SLP082=

CYXE;2005-04-04 09:00;METAR CYXE 040900Z 07008KT 15SM SCT070 00/M02 A2970 RMK AC3 SLP076=

CYXE;2005-04-04 10:00;METAR CYXE 041000Z 08008KT 15SM BKN070 OVC250 00/M02 A2969 RMK AC7CI0 SLP074=

CYXE;2005-04-04 11:00;METAR CYXE 041100Z 08008KT 15SM BKN070 OVC250 01/M02 A2969 RMK AC7CI0 SLP072=

CYXE;2005-04-04 12:00;METAR CYXE 041200Z 08007KT 15SM SCT070 OVC250 01/M01 A2968 RMK AC3CI3 SLP070=

CYXE;2005-04-04 13:00;METAR CYXE 041300Z 05007KT 15SM SCT090 OVC250 02/M01 A2968 RMK AC3CI3 SLP069=

CYXE;2005-04-04 14:00;METAR CYXE 041400Z 09007KT 15SM SCT092 BKN250 03/00 A2969 RMK AC3CI2 SLP072=

CYXE;2005-04-04 15:00;METAR CYXE 041500Z 09013KT 15SM SCT078 OVC250 05/00 A2970 RMK AC4CI3 SLP078=

CYXE;2005-04-04 16:00;METAR CYXE 041600Z 12015KT 15SM BKN074 OVC250 06/00 A2971 RMK AC6CI2 SLP081=

CYXE;2005-04-04 17:00;METAR CYXE 041700Z 13010G18KT 15SM BKN070 OVC250 07/01 A2972 RMK AC6CI2 SLP085=

CYXE;2005-04-04 18:00;METAR CYXE 041800Z 11011KT 15SM OVC070 07/01 A2972 RMK AC8 SLP086=

CYXE;2005-04-04 19:00;METAR CYXE 041900Z 10007KT 15SM OVC067 08/01 A2973 RMK AC8 SLP089=

CYXE;2005-04-04 19:34;SPECI CYXE 041934Z 12009KT 15SM -RA OVC060 RMK SC8=

CYXE;2005-04-04 20:00;METAR CYXE 042000Z 10010KT 15SM -RA SCT023 OVC060 07/02 A2974 RMK SC3SC5 SLP091=

CYXE;2005-04-04 21:00;METAR CYXE 042100Z 08009KT 15SM -RA BKN021 OVC060 06/03 A2975 RMK SC6SC2 SLP095=

CYXE;2005-04-04 22:00;METAR CYXE 042200Z 09012KT 15SM -RA FEW021 OVC057 07/03 A2975 RMK SF2SC6 SLP095=

CYXE;2005-04-04 23:00;METAR CYXE 042300Z 08011KT 15SM -RA BKN041 OVC070 06/04 A2975 RMK SC6AC2 SLP095=

CYXE;2005-04-05 00:00;METAR CYXE 050000Z 08013G18KT 15SM -RA BKN051 06/03 A2976 RMK SC7 SLP098=

CYXE;2005-04-05 01:00;METAR CYXE 050100Z 11008KT 15SM -RA BKN057 06/03 A2978 RMK SC7 SLP106=

CYXE;2005-04-05 01:46;SPECI CYXE 050146Z 09010KT 15SM BKN057 RMK SC7=

CYXE;2005-04-05 02:00;METAR CYXE 050200Z 11008KT 15SM BKN057 06/03 A2980 RMK SC7 SLP112=

CYXE;2005-04-05 03:00;METAR CYXE 050300Z 09008KT 15SM BKN057 06/02 A2982 RMK SC7 SLP119=

CYXE;2005-04-05 04:00;METAR CYXE 050400Z 09009KT 15SM BKN057 06/01 A2984 RMK SC5 SLP125=

CYXE;2005-04-05 06:00;METAR CYXE 050600Z 10008KT 15SM BKN050 OVC090 06/M00 A2989 RMK SC6AC1 SLP140=

CYXE;2005-04-05 07:00;METAR CYXE 050700Z 11011KT 15SM OVC050 05/M01 A2990 RMK SC8 SLP144=

CYXE;2005-04-05 08:00;METAR CYXE 050800Z 12010KT 15SM BKN052 OVC095 05/M01 A2991 RMK SC6AC2 SLP148=

CYXE;2005-04-05 09:00;METAR CYXE 050900Z 10005KT 15SM SCT058 OVC095 03/M02 A2993 RMK SC4AC3 SLP157=

CYXE;2005-04-05 10:00;METAR CYXE 051000Z 12006KT 15SM BKN058 BKN095 03/M02 A2995 RMK SC5AC1 SLP163=

CYXE;2005-04-05 11:00;METAR CYXE 051100Z 13004KT 15SM BKN055 OVC080 03/M02 A2997 RMK SC6AC2 SLP170=

CYXE;2005-04-05 12:00;METAR CYXE 051200Z 14005KT 15SM FEW065 BKN090 02/M02 A2999 RMK SC2AC4 SLP177=

CYXE;2005-04-05 13:00;METAR CYXE 051300Z 15005KT 15SM BKN055 BKN095 02/M02 A3001 RMK SC5AC2 SLP183=

CYXE;2005-04-05 14:00;METAR CYXE 051400Z 16004KT 15SM BKN056 BKN095 03/M01 A3003 RMK SC5AC2 SLP190=

CYXE;2005-04-05 15:00;METAR CYXE 051500Z 18004KT 15SM BKN058 04/M00 A3005 RMK SC7 SLP197=

CYXE;2005-04-05 16:00;METAR CYXE 051600Z 20008KT 15SM BKN058 BKN250 06/00 A3006 RMK SC5CI1 SLP200=

CYXE;2005-04-05 17:00;METAR CYXE 051700Z 21011KT 15SM BKN054 BKN250 08/02 A3007 RMK SC5CI1 SLP204=

CYXE;2005-04-05 18:00;METAR CYXE 051800Z 22008KT 15SM SCT052 BKN250 10/03 A3008 RMK SC4CI2 SLP202=

CYXE;2005-04-05 19:00;METAR CYXE 051900Z 24009KT 15SM SCT057 SCT084 BKN250 11/03 A3008 RMK SC2AC1CI2 SLP203=

CYXE;2005-04-05 20:00;METAR CYXE 052000Z 25010KT 15SM FEW046 SCT057 BKN074 11/04 A3009 RMK CU1SC2AC2 SLP207=

CYXE;2005-04-05 21:00;METAR CYXE 052100Z 23009KT 15SM SCT057 BKN073 12/04 A3009 RMK SC3AC2 SLP209=

CYXE;2005-04-05 22:00;METAR CYXE 052200Z 23011KT 15SM FEW038 SCT073 12/05 A3009 RMK SC2AC2 TCU EMBDD SLP209=

CYXE;2005-04-05 23:00;METAR CYXE 052300Z 28011KT 15SM FEW040 13/02 A3010 RMK SC2 SLP210=

CYXE;2005-04-06 00:00;METAR CYXE 060000Z 31009KT 15SM SCT040 SCT280 12/03 A3011 RMK SC2CI1 SHWRS SE SLP215=

CYXE;2005-04-06 01:00;METAR CYXE 060100Z 26004KT 15SM FEW040 SCT280 09/05 A3011 RMK SC2CI0 SLP214=

CYXE;2005-04-06 02:00;METAR CYXE 060200Z 22005KT 15SM FEW040 SCT280 07/04 A3012 RMK SC1CI0 SLP219=

CYXE;2005-04-06 03:00;METAR CYXE 060300Z 24005KT 15SM FEW086 06/04 A3014 RMK AC1 SLP228=

CYXE;2005-04-06 04:00;METAR CYXE 060400Z 26007KT 15SM BKN090 04/03 A3017 RMK AC4 SLP237=

CYXE;2005-04-06 05:00;METAR CYXE 060500Z 24002KT 15SM SCT090 03/01 A3015 RMK AC3 SLP230=

CYXE;2005-04-06 06:00;METAR CYXE 060600Z 25004KT 15SM FEW090 FEW250 02/01 A3016 RMK AC1CI1 SLP233=

CYXE;2005-04-06 07:00;METAR CYXE 060700Z 24005KT 15SM FEW090 BKN250 02/01 A3016 RMK AC1CI2 SLP233=

CYXE;2005-04-06 08:00;METAR CYXE 060800Z 25002KT 15SM SCT250 01/01 A3016 RMK CI1 SLP233=

CYXE;2005-04-06 09:00;METAR CYXE 060900Z 23004KT 15SM FEW250 01/00 A3017 RMK CI1 SLP235=

CYXE;2005-04-06 10:00;METAR CYXE 061000Z 17003KT 8SM FEW003 00/M00 A3018 RMK ST1 SLP239=

CYXE;2005-04-06 11:00;METAR CYXE 061100Z 18004KT 8SM MIFG FEW004 M00/M01 A3019 RMK ST1 SLP242=

CYXE;2005-04-06 11:34;SPECI CYXE 061134Z 18004KT 2SM R09/2600VP6000FT/U BR SCT004 RMK FG2ST2 VSBY S 1/2 FG=

CYXE;2005-04-06 11:47;SPECI CYXE 061147Z 17004KT 1/2SM R09/3500VP6000FT/U FZFG SCT005 RMK FG3ST1 VSBY N 1=

CYXE;2005-04-06 12:00;METAR CYXE 061200Z 17004KT 1/2SM R09/2000V3000FT/D FZFG SKC M01/M02 A3019 RMK FG2 SLP243=

CYXE;2005-04-06 12:37;SPECI CYXE 061237Z 18005KT 1 1/2SM R09/2000VP6000FT/D BR FEW250 RMK CI1=

CYXE;2005-04-06 13:00;METAR CYXE 061300Z 18004KT 2SM R09/1400FT/N BR FEW250 M01/M01 A3018 RMK CI1 SLP242=

CYXE;2005-04-06 13:15;SPECI CYXE 061315Z 19004KT 4SM R09/2200V3000FT/U BR FEW250 RMK CI1=

CYXE;2005-04-06 14:00;METAR CYXE 061400Z 17003KT 15SM SCT280 02/01 A3018 RMK CI1 SLP242=

CYXE;2005-04-06 15:00;METAR CYXE 061500Z 18004KT 15SM BKN290 05/03 A3017 RMK CI1 SLP237=

CYXE;2005-04-06 16:00;METAR CYXE 061600Z 18006KT 15SM FEW150 OVC290 09/03 A3017 RMK AC1CI3 SLP238=

CYXE;2005-04-06 17:00;METAR CYXE 061700Z 18008KT 15SM OVC290 12/04 A3016 RMK CI2 SLP235=

CYXE;2005-04-06 18:00;METAR CYXE 061800Z 18006KT 15SM OVC300 14/01 A3014 RMK CI2 SLP224=

CYXE;2005-04-06 19:00;METAR CYXE 061900Z 20008KT 15SM OVC300 15/M03 A3012 RMK CS2 SLP216=

CYXE;2005-04-06 20:00;METAR CYXE 062000Z 20010KT 15SM SCT220 OVC300 16/M02 A3009 RMK CI2CI2 SLP208=

CYXE;2005-04-06 21:00;METAR CYXE 062100Z 21006KT 15SM FEW220 OVC300 16/M01 A3008 RMK CI2CI2 SLP202=

CYXE;2005-04-06 22:00;METAR CYXE 062200Z 24005KT 15SM FEW088 OVC300 15/01 A3005 RMK AC2CI1 SLP193=

CYXE;2005-04-06 23:00;METAR CYXE 062300Z 21006KT 15SM BKN300 16/00 A3003 RMK CI2 SLP186=

CYXE;2005-04-07 00:00;METAR CYXE 070000Z 22009KT 15SM BKN300 16/01 A3002 RMK CI2 SLP182=

CYXE;2005-04-07 01:00;METAR CYXE 070100Z 23005KT 15SM OVC280 13/04 A3001 RMK CI4 SLP181=

CYXE;2005-04-07 02:00;METAR CYXE 070200Z 00000KT 15SM FEW100 OVC260 11/02 A3000 RMK AC2CI4 SLP176=

CYXE;2005-04-07 03:00;METAR CYXE 070300Z 07003KT 15SM FEW100 BKN250 09/03 A3000 RMK AC2CI4 SLP177=

CYXE;2005-04-07 04:00;METAR CYXE 070400Z 10005KT 15SM FEW100 SCT250 07/03 A2998 RMK AC1CI1 SLP170=

CYXE;2005-04-07 05:00;METAR CYXE 070500Z 12006KT 15SM FEW100 SCT250 08/01 A2996 RMK AC1CI2 SLP165=

CYXE;2005-04-07 07:00;METAR CYXE 070700Z 19003KT 15SM FEW100 BKN250 07/01 A2995 RMK AC1CI2 SLP154=

CYXE;2005-04-07 08:00;METAR CYXE 070800Z 15004KT 15SM SCT250 06/01 A2993 RMK CI2 SLP149=

CYXE;2005-04-07 09:00;METAR CYXE 070900Z 18005KT 15SM SCT250 05/01 A2991 RMK CI1 SLP144=

CYXE;2005-04-07 10:00;METAR CYXE 071000Z 16002KT 15SM SCT250 03/01 A2991 RMK CI1 SLP142=

CYXE;2005-04-07 11:00;METAR CYXE 071100Z 16005KT 15SM FEW005 SCT250 03/00 A2990 RMK ST1CI1 SLP139=

CYXE;2005-04-07 12:00;METAR CYXE 071200Z 15002KT 15SM BKN250 02/M00 A2989 RMK CI2 SLP137=

CYXE;2005-04-07 13:00;METAR CYXE 071300Z 14003KT 15SM SCT250 02/M00 A2988 RMK CI1 SLP135=

CYXE;2005-04-07 14:00;METAR CYXE 071400Z 10003KT 15SM BKN250 05/02 A2987 RMK CI1 SLP132=

CYXE;2005-04-07 15:00;METAR CYXE 071500Z 10004KT 15SM BKN280 09/02 A2986 RMK CI1 SLP125=

CYXE;2005-04-07 16:00;METAR CYXE 071600Z 11007KT 15SM BKN300 13/03 A2983 RMK CI1 SLP117=

CYXE;2005-04-07 17:00;METAR CYXE 071700Z 12010KT 15SM BKN300 16/03 A2980 RMK CI2 SLP108=

CYXE;2005-04-07 18:00;METAR CYXE 071800Z 12011KT 15SM BKN300 18/04 A2977 RMK CI2 SLP093=

CYXE;2005-04-07 19:00;METAR CYXE 071900Z 13012KT 15SM BKN300 20/05 A2974 RMK CI2 SLP082=

CYXE;2005-04-07 20:00;METAR CYXE 072000Z 12013G18KT 15SM BKN300 22/06 A2970 RMK CI2 SLP069=

CYXE;2005-04-07 21:00;METAR CYXE 072100Z 14016KT 15SM BKN300 23/05 A2967 RMK CI2 SLP056=

CYXE;2005-04-07 22:00;METAR CYXE 072200Z 13012G17KT 15SM BKN300 23/06 A2964 RMK CI6 SLP046=

CYXE;2005-04-07 23:00;METAR CYXE 072300Z 14019KT 15SM FEW090 BKN300 23/04 A2962 RMK AC1CI5 SLP039=

CYXE;2005-04-08 00:00;METAR CYXE 080000Z 13014KT 15SM FEW120 BKN300 22/06 A2959 RMK AC1CI5 SLP030=

CYXE;2005-04-08 07:00;METAR CYXE 080700Z 13012KT 15SM OVC250 12/05 A2941 RMK CI7 SLP966=

CYXE;2005-04-08 08:00;METAR CYXE 080800Z 13010KT 15SM OVC250 11/04 A2938 RMK CI7 SLP957=

CYXE;2005-04-08 10:00;METAR CYXE 081000Z 13010KT 15SM BKN250 10/04 A2933 RMK CI2 SLP936=

CYXE;2005-04-08 11:00;METAR CYXE 081100Z 14008KT 15SM BKN250 09/03 A2932 RMK CI3 SLP932=

CYXE;2005-04-08 12:00;METAR CYXE 081200Z 13010KT 15SM BKN250 08/03 A2931 RMK CI3 SLP932=

CYXE;2005-04-08 13:00;METAR CYXE 081300Z 12010KT 15SM BKN250 07/03 A2930 RMK CI2 SLP929=

CYXE;2005-04-08 14:00;METAR CYXE 081400Z 12009KT 15SM FEW280 09/03 A2929 RMK CI1 SLP926=

CYXE;2005-04-08 15:00;METAR CYXE 081500Z 14008KT 15SM BKN300 11/03 A2928 RMK CI1 SLP924=

CYXE;2005-04-08 16:00;METAR CYXE 081600Z 17009KT 15SM SCT300 13/04 A2928 RMK CI1 SLP921=

CYXE;2005-04-08 17:00;METAR CYXE 081700Z 14007KT 15SM BKN300 17/05 A2926 RMK CI1 SLP915=

CYXE;2005-04-08 18:00;METAR CYXE 081800Z 14007KT 15SM BKN300 19/04 A2924 RMK CI1 SLP908=

CYXE;2005-04-08 19:00;METAR CYXE 081900Z 14008KT 15SM BKN300 21/05 A2924 RMK CI1 SLP907=

CYXE;2005-04-08 20:00;METAR CYXE 082000Z 16008KT 15SM BKN300 22/05 A2923 RMK CI2 SLP902=

CYXE;2005-04-08 21:00;METAR CYXE 082100Z 18009KT 15SM OVC300 23/06 A2923 RMK CI4 SLP902=

CYXE;2005-04-08 22:00;METAR CYXE 082200Z 17011KT 15SM BKN300 23/05 A2923 RMK CI2 SLP903=

CYXE;2005-04-08 23:00;METAR CYXE 082300Z 21008KT 15SM BKN300 24/06 A2924 RMK CI3 SLP906=

CYXE;2005-04-09 00:00;METAR CYXE 090000Z 25007KT 15SM FEW120 BKN300 23/07 A2925 RMK AC1CI3 SLP909=

CYXE;2005-04-09 01:00;METAR CYXE 090100Z 00000KT 15SM SCT095 OVC280 21/08 A2926 RMK AC3CI3 SLP913=

CYXE;2005-04-09 02:00;METAR CYXE 090200Z 00000KT 15SM SCT100 OVC280 18/07 A2927 RMK AC3CI4 SLP915=

CYXE;2005-04-09 03:00;METAR CYXE 090300Z 03004KT 15SM FEW100 BKN280 15/08 A2928 RMK AC2CI3 SLP922=

CYXE;2005-04-09 04:00;METAR CYXE 090400Z 08004KT 15SM FEW100 BKN250 14/08 A2928 RMK AC1CI2 SLP924=

CYXE;2005-04-09 05:00;METAR CYXE 090500Z 00000KT 15SM SCT110 BKN250 12/08 A2929 RMK AC3CI2 SLP928=

CYXE;2005-04-09 06:00;METAR CYXE 090600Z 31011KT 15SM OVC110 13/07 A2931 RMK AC8 SLP929=

CYXE;2005-04-09 07:00;METAR CYXE 090700Z 31014KT 15SM OVC110 12/08 A2932 RMK AC8 SLP932=

CYXE;2005-04-09 08:00;METAR CYXE 090800Z 31014KT 15SM OVC110 11/07 A2933 RMK AC8 SLP937=

CYXE;2005-04-09 09:00;METAR CYXE 090900Z 31016KT 15SM OVC110 10/06 A2932 RMK AC8 SLP935=

CYXE;2005-04-09 10:00;METAR CYXE 091000Z 32018KT 15SM OVC110 09/06 A2932 RMK AC8 SLP934=

CYXE;2005-04-09 11:00;METAR CYXE 091100Z 33020KT 15SM OVC110 09/05 A2933 RMK AC8 SLP937=

CYXE;2005-04-09 12:00;METAR CYXE 091200Z 34019KT 15SM OVC110 08/05 A2933 RMK AC8 SLP937=

CYXE;2005-04-09 13:00;METAR CYXE 091300Z 34013KT 15SM FEW110 OVC220 08/05 A2937 RMK AC2CI5 SLP949=

CYXE;2005-04-09 14:00;METAR CYXE 091400Z 36014KT 15SM SCT100 OVC220 09/05 A2938 RMK AC3CI4 SLP954=

CYXE;2005-04-09 15:00;METAR CYXE 091500Z 34015KT 15SM FEW090 OVC220 10/06 A2936 RMK AC2CI5 SLP950=

CYXE;2005-04-09 16:00;METAR CYXE 091600Z 36019G26KT 15SM FEW095 OVC220 11/05 A2937 RMK AC2CS6 SLP955=

CYXE;2005-04-09 17:00;METAR CYXE 091700Z 35019G25KT 15SM SCT095 OVC240 12/06 A2937 RMK AC2CI3 SLP954=

CYXE;2005-04-09 18:00;METAR CYXE 091800Z 36021KT 15SM FEW040 SCT092 OVC240 12/05 A2938 RMK SC1AC2CS4 SLP958=

CYXE;2005-04-09 19:00;METAR CYXE 091900Z 36022G28KT 15SM SCT028 SCT100 OVC240 13/06 A2937 RMK SC3AC1CI2 SLP956=

CYXE;2005-04-09 20:00;METAR CYXE 092000Z 36025G30KT 15SM FEW035 BKN250 14/05 A2938 RMK SC2CI2 SLP957=

CYXE;2005-04-09 21:00;METAR CYXE 092100Z 36026G31KT 15SM SCT035 SCT095 BKN250 14/05 A2939 RMK SC3AC1CI2 SLP963=

CYXE;2005-04-09 22:00;METAR CYXE 092200Z 36022G28KT 15SM BKN040 OVC100 13/05 A2941 RMK SC5AC2 SLP971=

CYXE;2005-04-09 23:00;METAR CYXE 092300Z 35025G30KT 15SM BKN042 OVC100 12/05 A2942 RMK SC6AC1 SLP973=

CYXE;2005-04-10 00:00;METAR CYXE 100000Z 35024G29KT 15SM FEW030 OVC050 10/04 A2945 RMK SC1SC7 SLP987=

CYXE;2005-04-10 01:00;METAR CYXE 100100Z 35021G28KT 15SM -RA FEW030 OVC050 08/04 A2947 RMK SC1SC7 SLP992=

CYXE;2005-04-10 01:31;SPECI CYXE 100131Z 35025G32KT 15SM FEW030 OVC050 RMK SC1SC7=

CYXE;2005-04-10 02:00;METAR CYXE 100200Z 35026G31KT 15SM FEW030 OVC050 07/03 A2948 RMK SC1SC7 SLP995=

CYXE;2005-04-10 03:00;METAR CYXE 100300Z 36024G29KT 15SM -RA FEW020 OVC040 06/04 A2951 RMK SC1SC7 SLP008=

CYXE;2005-04-10 03:15;SPECI CYXE 100315Z 35020G28KT 15SM FEW020 BKN040 RMK SC1SC6=

CYXE;2005-04-10 04:00;METAR CYXE 100400Z 36021KT 15SM FEW015 SCT040 OVC080 06/03 A2953 RMK SC1SC3AC4 SLP014=

CYXE;2005-04-10 05:00;METAR CYXE 100500Z 35019G26KT 15SM FEW015 OVC043 06/03 A2953 RMK SC1SC7 SLP015=

CYXE;2005-04-10 05:04;SPECI CYXE 100504Z 35017G24KT 15SM -RA FEW015 OVC040 RMK SC1SC7=

CYXE;2005-04-10 05:34;SPECI CYXE 100534Z 34019KT 5SM RA FEW015 OVC034 RMK SC2SC6=

CYXE;2005-04-10 06:00;METAR CYXE 100600Z 34019KT 6SM -RA SCT010 OVC023 05/03 A2954 RERA RMK SF3SC5 SLP019=

CYXE;2005-04-10 06:24;SPECI CYXE 100624Z 34023KT 15SM FEW010 BKN023 OVC055 RMK SF2SC5SC2=

CYXE;2005-04-10 07:00;METAR CYXE 100700Z 34024G30KT 15SM BKN016 OVC032 04/04 A2954 RMK SF6SC2 SLP017=

CYXE;2005-04-10 08:00;METAR CYXE 100800Z 34021G29KT 15SM BKN015 OVC034 04/03 A2955 RMK SF6SC2 SLP021=

CYXE;2005-04-10 08:31;SPECI CYXE 100831Z 35025G32KT 15SM -DZ BKN013 OVC034 RMK SF6SC2=

CYXE;2005-04-10 09:00;METAR CYXE 100900Z 35023G29KT 15SM -DZ BKN013 OVC034 04/03 A2956 RMK SF7SC1 SLP024=

CYXE;2005-04-10 10:00;METAR CYXE 101000Z 35027G33KT 15SM -RA OVC013 04/02 A2956 RMK SF8 SLP025=

CYXE;2005-04-10 11:00;METAR CYXE 101100Z 34024G29KT 15SM -RA OVC013 04/02 A2959 RMK SF8 SLP033=

CYXE;2005-04-10 11:16;SPECI CYXE 101116Z 34025KT 15SM -RA BKN015 OVC036 RMK SF6SC2=

CYXE;2005-04-10 12:00;METAR CYXE 101200Z 34024G31KT 15SM -RA BKN015 OVC036 04/02 A2959 RMK SF6SC2 SLP038=

CYXE;2005-04-10 12:05;SPECI CYXE 101205Z 34026KT 15SM -DZ BKN012 OVC036 RMK SF6SC2=

CYXE;2005-04-10 12:25;SPECI CYXE 101225Z 34023G34KT 15SM -RA OVC012 RMK SF8=

CYXE;2005-04-10 13:00;METAR CYXE 101300Z 34023G29KT 15SM OVC010 03/02 A2961 RMK SF8 SLP044=

CYXE;2005-04-10 13:10;SPECI CYXE 101310Z 34019G30KT 15SM -RA OVC010 RMK SF8=

CYXE;2005-04-10 13:16;SPECI CYXE 101316Z 34019G24KT 12SM -RA OVC009 RMK SF8=

CYXE;2005-04-10 14:00;METAR CYXE 101400Z 35023G31KT 12SM -RA OVC009 03/02 A2963 RMK SF8 SLP052=

CYXE;2005-04-10 14:28;SPECI CYXE 101428Z 35022G27KT 2 1/2SM -RA BR OVC009 RMK SF8=

CYXE;2005-04-10 15:00;METAR CYXE 101500Z 34016G22KT 6SM -RA BR OVC010 01/00 A2965 RMK SF8 SLP061=

CYXE;2005-04-10 15:21;SPECI CYXE 101521Z 34017G22KT 2SM RASHGS BR OVC010 RMK SF8=

CYXE;2005-04-10 15:40;SPECI CYXE 101540Z 33016G21KT 2SM -RA BR OVC008 RMK SF8=

CYXE;2005-04-10 16:00;METAR CYXE 101600Z 33017KT 2SM -RA BR OVC010 01/01 A2968 RMK SF8 SLP069=

CYXE;2005-04-10 16:37;SPECI CYXE 101637Z 34018KT 1 1/2SM -SHGS BR OVC012 RMK SF8=

CYXE;2005-04-10 17:00;METAR CYXE 101700Z 33016KT 1SM R09/P6000FT/D -SHGS BR OVC008 01/01 A2969 RMK SF8 SLP074=

CYXE;2005-04-10 18:00;METAR CYXE 101800Z 32014KT 3SM -RASN BR BKN004 OVC015 01/00 A2972 RMK SF6SF2 SLP087=

CYXE;2005-04-10 18:29;SPECI CYXE 101829Z 31014G19KT 2SM -RASN BR OVC004 RMK SF8=

CYXE;2005-04-10 19:00;METAR CYXE 101900Z 31015G21KT 2SM -RASN BR OVC008 01/00 A2975 RMK SF8 SLP095=

CYXE;2005-04-10 19:23;SPECI CYXE 101923Z 31017KT 1 1/2SM -DZ BR OVC008 RMK SF8=

CYXE;2005-04-10 20:00;METAR CYXE 102000Z 31016G21KT 1 1/2SM -DZ BR OVC006 01/01 A2978 RMK SF8 SLP105=

CYXE;2005-04-10 21:00;METAR CYXE 102100Z 32017KT 1 1/2SM -DZ BR OVC005 01/01 A2980 RMK SF8 SLP115=

CYXE;2005-04-10 21:38;SPECI CYXE 102138Z 32020G25KT 4SM -DZ BR OVC005 RMK SF8=

CYXE;2005-04-10 22:00;METAR CYXE 102200Z 32022KT 5SM -RA BR OVC006 02/01 A2982 RMK ST8 CIG RAG SLP121=

CYXE;2005-04-10 22:53;SPECI CYXE 102253Z 32018KT 5SM -DZ BR OVC008 RMK ST8=

CYXE;2005-04-10 23:00;METAR CYXE 102300Z 32017G22KT 5SM -DZ BR OVC009 02/01 A2985 RMK ST8 SLP131=

CYXE;2005-04-10 23:13;SPECI CYXE 102313Z 32019G24KT 10SM SCT009 OVC019 RMK ST4SC4=

CYXE;2005-04-11 00:00;METAR CYXE 110000Z 31017KT 15SM BKN019 OVC030 03/01 A2988 RMK SC7SC1 SLP141=

CYXE;2005-04-11 01:00;METAR CYXE 110100Z 32016KT 15SM FEW025 BKN060 03/01 A2988 RMK SC2SC5 SLP142=

CYXE;2005-04-11 02:00;METAR CYXE 110200Z 33010KT 15SM FEW060 BKN090 02/00 A2991 RMK SC2AC3 SLP152=

CYXE;2005-04-11 03:00;METAR CYXE 110300Z 34011KT 15SM FEW025 SCT090 01/M01 A2993 RMK SC1AC1 SLP159=

CYXE;2005-04-11 04:00;METAR CYXE 110400Z 32007KT 15SM SKC 01/M01 A2994 RMK SLP164=

CYXE;2005-04-11 05:00;METAR CYXE 110500Z 28008KT 15SM FEW250 M00/M02 A2995 RMK CI0 SLP166=

CYXE;2005-04-11 06:00;METAR CYXE 110600Z 29006KT 15SM FEW250 M00/M02 A2996 RMK CI1 SLP171=

CYXE;2005-04-11 07:00;METAR CYXE 110700Z 30006KT 15SM SKC M01/M03 A2997 RMK SLP174=

CYXE;2005-04-11 08:00;METAR CYXE 110800Z 28006KT 15SM SCT250 M01/M03 A2997 RMK CI2 SLP174=

CYXE;2005-04-11 09:00;METAR CYXE 110900Z 27006KT 15SM SCT250 M01/M03 A2997 RMK CI1 SLP175=

CYXE;2005-04-11 10:00;METAR CYXE 111000Z 27006KT 15SM FEW250 M02/M04 A2997 RMK CI1 SLP177=

CYXE;2005-04-11 11:00;METAR CYXE 111100Z 20003KT 15SM FEW250 M03/M04 A2999 RMK CI1 SLP181=

CYXE;2005-04-11 12:00;METAR CYXE 111200Z 20004KT 15SM FEW250 M02/M03 A2998 RMK CI1 SLP177=

CYXE;2005-04-11 13:00;METAR CYXE 111300Z 18003KT 15SM FEW250 M02/M03 A2998 RMK CI1 SLP177=

CYXE;2005-04-11 14:00;METAR CYXE 111400Z 22005KT 15SM SKC 01/M01 A2997 RMK SLP174=

CYXE;2005-04-11 15:00;METAR CYXE 111500Z 00000KT 15SM SKC 02/M00 A2997 RMK SLP174=

CYXE;2005-04-11 16:00;METAR CYXE 111600Z 09003KT 15SM FEW120 05/01 A2998 RMK AC1 SLP176=

CYXE;2005-04-11 17:00;METAR CYXE 111700Z 09004KT 15SM SKC 06/01 A2997 RMK SLP174=

CYXE;2005-04-11 18:00;METAR CYXE 111800Z 04004KT 15SM FEW030 08/00 A2996 RMK CU1 SLP168=

CYXE;2005-04-11 19:00;METAR CYXE 111900Z 05005KT 15SM FEW030 10/M02 A2995 RMK CU1 SLP163=

CYXE;2005-04-11 20:00;METAR CYXE 112000Z 05006KT 15SM FEW030 10/M03 A2993 RMK CU1 SLP158=

CYXE;2005-04-11 21:00;METAR CYXE 112100Z 03010KT 15SM FEW030 11/M01 A2992 RMK CU1 SLP153=

CYXE;2005-04-11 22:00;METAR CYXE 112200Z 04006KT 15SM SKC 11/M03 A2991 RMK SLP149=

CYXE;2005-04-11 23:00;METAR CYXE 112300Z 03008KT 15SM SKC 12/M02 A2990 RMK SLP146=

CYXE;2005-04-12 00:00;METAR CYXE 120000Z 02007KT 15SM SKC 11/M04 A2990 RMK SLP145=

CYXE;2005-04-12 01:00;METAR CYXE 120100Z 05005KT 15SM SKC 11/M02 A2991 RMK SLP148=

CYXE;2005-04-12 02:00;METAR CYXE 120200Z 08008KT 15SM FEW250 07/M02 A2993 RMK CI1 SLP154=

CYXE;2005-04-12 03:00;METAR CYXE 120300Z 09007KT 15SM FEW250 04/M01 A2994 RMK CI1 SLP161=

CYXE;2005-04-12 04:00;METAR CYXE 120400Z 13008KT 15SM SKC 05/01 A2993 RMK SLP159=

CYXE;2005-04-12 05:00;METAR CYXE 120500Z 12005KT 15SM SKC 03/M00 A2992 RMK SLP156=

CYXE;2005-04-12 06:00;METAR CYXE 120600Z 13003KT 15SM SKC 02/M01 A2994 RMK SLP160=

CYXE;2005-04-12 07:00;METAR CYXE 120700Z 13003KT 15SM SKC 01/M01 A2995 RMK SLP164=

CYXE;2005-04-12 08:00;METAR CYXE 120800Z 07006KT 15SM FEW033 M00/M02 A2996 RMK SC1 SLP166=

CYXE;2005-04-12 09:00;METAR CYXE 120900Z 05004KT 15SM BKN034 01/00 A2997 RMK SC6 SLP169=

CYXE;2005-04-12 10:00;METAR CYXE 121000Z 06005KT 15SM BKN028 02/01 A2998 RMK SC6 SLP170=

CYXE;2005-04-12 11:00;METAR CYXE 121100Z 07007KT 15SM OVC026 03/01 A2998 RMK SC8 SLP171=

CYXE;2005-04-12 12:00;METAR CYXE 121200Z 07004KT 15SM OVC024 03/00 A2998 RMK SC8 SLP171=

CYXE;2005-04-12 13:00;METAR CYXE 121300Z 10005KT 15SM OVC022 03/M00 A2999 RMK SC8 SLP172=

CYXE;2005-04-12 14:00;METAR CYXE 121400Z 09005KT 15SM OVC020 03/00 A2999 RMK SC8 SLP173=

CYXE;2005-04-12 15:00;METAR CYXE 121500Z 07010KT 15SM BKN011 OVC020 03/01 A3000 RMK SC6SC2 SLP181=

CYXE;2005-04-12 15:18;SPECI CYXE 121518Z 07011KT 15SM BKN008 OVC020 RMK SC6SC2=

CYXE;2005-04-12 16:00;METAR CYXE 121600Z 08011KT 15SM BKN008 OVC017 03/01 A3001 RMK SC6SC2 SLP184=

CYXE;2005-04-12 16:32;SPECI CYXE 121632Z 08010KT 15SM SCT010 OVC020 RMK SC4SC4=

CYXE;2005-04-12 17:00;METAR CYXE 121700Z 09009KT 15SM BKN010 OVC020 05/01 A3001 RMK SC5SC3 SLP184=

CYXE;2005-04-12 18:00;METAR CYXE 121800Z 09008KT 15SM BKN012 OVC025 04/01 A3001 RMK SC6SC2 SLP187=

CYXE;2005-04-12 19:00;METAR CYXE 121900Z 11004KT 15SM BKN016 OVC025 05/00 A3001 RMK SC7SC1 SLP186=

CYXE;2005-04-12 20:00;METAR CYXE 122000Z 08008KT 15SM OVC020 06/00 A3001 RMK SC8 SLP186=

CYXE;2005-04-12 21:00;METAR CYXE 122100Z 07009KT 15SM OVC020 06/01 A3000 RMK SC8 SLP183=

CYXE;2005-04-12 22:00;METAR CYXE 122200Z 10010KT 15SM OVC020 06/01 A3000 RMK SC8 SLP181=

CYXE;2005-04-12 23:00;METAR CYXE 122300Z 11009KT 15SM OVC022 06/01 A3000 RMK SC8 SLP181=

CYXE;2005-04-13 00:00;METAR CYXE 130000Z 10009KT 15SM OVC022 06/01 A3001 RMK SC8 SLP185=

CYXE;2005-04-13 01:00;METAR CYXE 130100Z 11008KT 15SM OVC022 06/01 A3002 RMK SC8 SLP187=

CYXE;2005-04-13 02:00;METAR CYXE 130200Z 08010KT 15SM OVC020 05/01 A3003 RMK SC8 SLP192=

CYXE;2005-04-13 03:00;METAR CYXE 130300Z 09013KT 15SM OVC020 04/01 A3006 RMK SC8 SLP201=

CYXE;2005-04-13 04:00;METAR CYXE 130400Z 08012KT 15SM OVC017 03/01 A3006 RMK SC8 SLP201=

CYXE;2005-04-13 05:00;METAR CYXE 130500Z 07012KT 15SM SCT015 SCT090 BKN250 02/01 A3006 RMK SC3AC1CI0 SLP201=

CYXE;2005-04-13 05:27;SPECI CYXE 130527Z 07010KT 15SM BKN017 BKN090 BKN250 RMK SC5AC1CI0=

CYXE;2005-04-13 06:00;METAR CYXE 130600Z 08009KT 15SM SCT017 01/00 A3007 RMK SF2 SLP206=

CYXE;2005-04-13 07:00;METAR CYXE 130700Z 08008KT 15SM SKC 01/M01 A3008 RMK SLP208=

CYXE;2005-04-13 08:00;METAR CYXE 130800Z 09013KT 15SM SCT007 01/00 A3007 RMK ST3 SLP207=

CYXE;2005-04-13 09:00;METAR CYXE 130900Z 10011KT 15SM FEW007 02/01 A3008 RMK SF1 SLP210=

CYXE;2005-04-13 10:00;METAR CYXE 131000Z 10012KT 15SM FEW007 02/01 A3008 RMK SF1 SLP209=

CYXE;2005-04-13 11:00;METAR CYXE 131100Z 11011G16KT 15SM BKN008 03/01 A3008 RMK ST3 SLP207=

CYXE;2005-04-13 11:09;SPECI CYXE 131109Z 11012KT 15SM BKN007 RMK ST6=

CYXE;2005-04-13 11:37;SPECI CYXE 131137Z 12017G24KT 15SM BKN006 BKN120 RMK SF6AC1=

CYXE;2005-04-13 12:00;METAR CYXE 131200Z 12016G22KT 15SM OVC007 02/01 A3005 RMK SC8 SLP199=

CYXE;2005-04-13 12:29;SPECI CYXE 131229Z 13014G19KT 15SM FEW008 SCT100 RMK SF2AC2=

CYXE;2005-04-13 13:00;METAR CYXE 131300Z 13016G25KT 15SM FEW008 FEW100 03/01 A3004 RMK SF1AC1 SLP196=

CYXE;2005-04-13 14:00;METAR CYXE 131400Z 13014G24KT 15SM FEW008 SCT090 04/02 A3005 RMK SF1AC2 SLP198=

CYXE;2005-04-13 14:35;SPECI CYXE 131435Z 13013G18KT 15SM BKN008 BKN090 RMK SF3AC1=

CYXE;2005-04-13 15:00;METAR CYXE 131500Z 13014G20KT 15SM BKN007 05/03 A3006 RMK SF4 SLP200=

CYXE;2005-04-13 15:15;SPECI CYXE 131515Z 13015KT 15SM SCT008 RMK SF2=

CYXE;2005-04-13 16:00;METAR CYXE 131600Z 13014KT 15SM FEW250 08/04 A3006 RMK CI1 SLP200=

CYXE;2005-04-13 17:00;METAR CYXE 131700Z 12014KT 15SM FEW250 10/05 A3005 RMK CI1 SLP199=

CYXE;2005-04-13 18:00;METAR CYXE 131800Z 11016G21KT 15SM FEW250 12/05 A3003 RMK CI1 SLP190=

CYXE;2005-04-13 19:00;METAR CYXE 131900Z 12015KT 15SM FEW250 13/05 A3002 RMK CI1 SLP184=

CYXE;2005-04-13 20:00;METAR CYXE 132000Z 12015G20KT 15SM SCT250 15/05 A3000 RMK CI1 SLP179=

CYXE;2005-04-13 21:00;METAR CYXE 132100Z 13018KT 15SM BKN250 16/06 A2998 RMK CI1 SLP169=

CYXE;2005-04-13 22:00;METAR CYXE 132200Z 11018KT 15SM BKN250 16/07 A2996 RMK CI2 SLP162=

CYXE;2005-04-13 23:00;METAR CYXE 132300Z 12020G25KT 15SM BKN250 16/05 A2995 RMK CI2 SLP158=

CYXE;2005-04-14 00:00;METAR CYXE 140000Z 12019G24KT 15SM FEW035 SCT250 15/06 A2995 RMK CU1CI1 SLP158=

CYXE;2005-04-14 01:00;METAR CYXE 140100Z 12020KT 15SM FEW025 FEW250 12/06 A2995 RMK SC1CI1 SLP157=

CYXE;2005-04-14 02:00;METAR CYXE 140200Z 13017KT 15SM BKN025 10/05 A2994 RMK SC5 SLP156=

CYXE;2005-04-14 03:00;METAR CYXE 140300Z 14011KT 15SM FEW023 09/05 A2994 RMK SC2 SLP156=

CYXE;2005-04-14 04:00;METAR CYXE 140400Z 13014G20KT 15SM SCT025 09/05 A2993 RMK SC3 SLP152=

CYXE;2005-04-14 05:00;METAR CYXE 140500Z 13010G15KT 15SM FEW025 09/05 A2990 RMK SC2 SLP144=

CYXE;2005-04-14 06:00;METAR CYXE 140600Z 13014G19KT 15SM SCT024 09/05 A2988 RMK SC4 SLP132=

CYXE;2005-04-14 07:00;METAR CYXE 140700Z 12015KT 15SM FEW024 09/05 A2986 RMK SC2 SLP125=

CYXE;2005-04-14 08:00;METAR CYXE 140800Z 12013KT 15SM SCT025 08/05 A2983 RMK SC2 SLP115=

CYXE;2005-04-14 09:00;METAR CYXE 140900Z 10013KT 15SM SCT025 08/05 A2980 RMK SC2 SLP102=

CYXE;2005-04-14 10:00;METAR CYXE 141000Z 09012KT 15SM FEW025 08/05 A2975 RMK SF1 SLP088=

CYXE;2005-04-14 11:00;METAR CYXE 141100Z 08010KT 15SM FEW025 07/05 A2972 RMK ST1 SLP079=

CYXE;2005-04-14 12:00;METAR CYXE 141200Z 08010KT 10SM BKN017 OVC140 06/05 A2970 RMK SC6AC2 F SLP069=

CYXE;2005-04-14 13:00;METAR CYXE 141300Z 09012KT 10SM OVC017 08/06 A2967 RMK SC8 F SLP061=

CYXE;2005-04-14 14:00;METAR CYXE 141400Z 10013KT 10SM OVC014 09/06 A2963 RMK SC8 SLP048=

CYXE;2005-04-14 14:37;SPECI CYXE 141437Z 11016KT 10SM OVC016 RMK SC8=

CYXE;2005-04-14 15:00;METAR CYXE 141500Z 12014G20KT 15SM OVC016 10/07 A2960 RMK SC8 SLP036=

CYXE;2005-04-14 16:00;METAR CYXE 141600Z 13018KT 15SM BKN016 12/07 A2957 RMK SC7 SLP026=

CYXE;2005-04-14 17:00;METAR CYXE 141700Z 13013KT 15SM OVC025 13/07 A2953 RMK SC8 SLP014=

CYXE;2005-04-14 18:00;METAR CYXE 141800Z 16009KT 15SM OVC030 14/07 A2950 RMK SC8 SLP999=

CYXE;2005-04-14 19:00;METAR CYXE 141900Z 14014KT 15SM OVC033 15/07 A2948 RMK SC8 SLP994=

CYXE;2005-04-14 20:00;METAR CYXE 142000Z 14009G16KT 15SM BKN035 BKN250 16/07 A2946 RMK SC6CI0 SLP988=

CYXE;2005-04-14 21:00;METAR CYXE 142100Z 14013KT 15SM OVC035 16/07 A2944 RMK SC8 SLP978=

CYXE;2005-04-14 22:00;METAR CYXE 142200Z 11008KT 15SM BKN046 17/07 A2940 RMK SC7 SLP965=

CYXE;2005-04-14 23:00;METAR CYXE 142300Z 21005KT 15SM SCT030 BKN050 18/07 A2937 RMK SC3SC4 SLP955=

CYXE;2005-04-15 00:00;METAR CYXE 150000Z 20008G15KT 15SM SCT030TCU BKN050 16/07 A2935 RMK TCU4SC3 SHWRS W S SE SLP948=

CYXE;2005-04-15 00:11;SPECI CYXE 150011Z 17009KT 12SM -SHRA BKN024TCU BKN050 RMK TCU5SC2=

CYXE;2005-04-15 00:29;SPECI CYXE 150029Z 18020G31KT 15SM VCSH BKN025TCU BKN080 RMK TCU5AC2 SHWRS SW - NW=

CYXE;2005-04-15 01:00;METAR CYXE 150100Z 21019G26KT 15SM SCT025 12/06 A2934 RMK SC3 TCU/SHWRS W - NW SLP946=

CYXE;2005-04-15 02:00;METAR CYXE 150200Z 20014KT 15SM FEW020 BKN050 10/03 A2932 RMK SC1SC6 SLP939=

CYXE;2005-04-15 03:00;METAR CYXE 150300Z 20012KT 15SM BKN032 09/03 A2930 RMK SC7 SLP936=

CYXE;2005-04-15 04:00;METAR CYXE 150400Z 23010KT 15SM BKN019 BKN045 07/03 A2929 RMK SC5SC2 SLP933=

CYXE;2005-04-15 04:17;SPECI CYXE 150417Z 27015G21KT 15SM -RA BKN009 OVC030 RMK ST6SC2=

CYXE;2005-04-15 04:50;SPECI CYXE 150450Z 26019G30KT 3SM -SN OVC007 RMK ST8=

CYXE;2005-04-15 05:00;METAR CYXE 150500Z 27022G27KT 2 1/2SM -SN OVC006 01/00 A2932 RMK SN2ST6 FROPA 0430 SLP941=

CYXE;2005-04-15 05:03;SPECI CYXE 150503Z 26018G27KT 1SM R09/P6000FT/D -SN VV005 RMK SN8=

CYXE;2005-04-15 05:14;SPECI CYXE 150514Z 26019G26KT 1/2SM R09/3500VP6000FT/D SN VV003 RMK SN8=

CYXE;2005-04-15 05:28;SPECI CYXE 150528Z 25020KT 1SM R09/5000FT/U -SN OVC002 RMK SN4ST4=

CYXE;2005-04-15 05:40;SPECI CYXE 150540Z 26024G29KT 1SM R09/P6000FT/N -SN OVC004 RMK SN3ST5=

CYXE;2005-04-15 06:00;METAR CYXE 150600Z 26025G30KT 1 1/4SM -SN OVC004 00/M01 A2937 RMK SN4ST4 SLP960=

CYXE;2005-04-15 06:20;SPECI CYXE 150620Z 27027G36KT 2SM -SN OVC005 RMK SN4ST4=

CYXE;2005-04-15 07:00;METAR CYXE 150700Z 27025G35KT 2SM -SN OVC005 01/M00 A2944 RMK SN4ST4 SLP983=

CYXE;2005-04-15 07:19;SPECI CYXE 150719Z 26024G31KT 5SM -SN OVC005 RMK ST8=

CYXE;2005-04-15 08:00;METAR CYXE 150800Z 26025G33KT 5SM -SN OVC009 01/M00 A2949 RMK ST8 SLP999=

CYXE;2005-04-15 08:38;SPECI CYXE 150838Z 27030G38KT 8SM -RA OVC009 RMK ST8=

CYXE;2005-04-15 09:00;METAR CYXE 150900Z 26028G38KT 10SM -RASN OVC012 01/00 A2953 RMK SF8 SLP014=

CYXE;2005-04-15 09:48;SPECI CYXE 150948Z 26028G45KT 12SM -RA OVC017 RMK SF8=

CYXE;2005-04-15 10:00;METAR CYXE 151000Z 26033G45KT 15SM -RA OVC020 02/M00 A2957 RMK SC8 SLP026=

CYXE;2005-04-15 10:51;SPECI CYXE 151051Z 26027G33KT 15SM OVC035 RMK SC8=

CYXE;2005-04-15 11:00;METAR CYXE 151100Z 26028G33KT 15SM OVC035 03/M01 A2961 RMK SC8 SLP041=

CYXE;2005-04-15 12:00;METAR CYXE 151200Z 26030G45KT 15SM FEW035 OVC075 04/M01 A2964 RMK SC1AC7 SLP050=

CYXE;2005-04-15 13:00;METAR CYXE 151300Z 27029G37KT 15SM FEW040 BKN100 04/M01 A2966 RMK SC1AC6 SLP057=

CYXE;2005-04-15 14:00;METAR CYXE 151400Z 26031G38KT 15SM FEW040 BKN100 05/M02 A2968 RMK SC1AC5 SLP064=

CYXE;2005-04-15 15:00;METAR CYXE 151500Z 27031G39KT 15SM FEW040 BKN250 06/M02 A2971 RMK SC1CI3 SLP076=

CYXE;2005-04-15 16:00;METAR CYXE 151600Z 27028G39KT 15SM FEW040 SCT250 07/M01 A2974 RMK SC1CI1 SLP087=

CYXE;2005-04-15 17:00;METAR CYXE 151700Z 27029G39KT 15SM FEW030 SCT250 08/M02 A2976 RMK SC1CI1 SLP094=

CYXE;2005-04-15 18:00;METAR CYXE 151800Z 28029G39KT 15SM FEW030 FEW250 10/M03 A2979 RMK SC1CI1 SLP108=

CYXE;2005-04-15 19:00;METAR CYXE 151900Z 27030G39KT 15SM FEW030 FEW250 10/M06 A2980 RMK SC1CI1 SLP111=

CYXE;2005-04-15 20:00;METAR CYXE 152000Z 27031G40KT 15SM FEW030 FEW250 11/M06 A2982 RMK CU1CI1 SLP118=

CYXE;2005-04-15 21:00;METAR CYXE 152100Z 28036G45KT 15SM FEW030 FEW250 11/M07 A2983 RMK CU1CI0 SLP120=

CYXE;2005-04-15 22:00;METAR CYXE 152200Z 28028G42KT 15SM FEW050 12/M07 A2985 RMK CU2 SLP125=

CYXE;2005-04-15 23:00;METAR CYXE 152300Z 29029G35KT 15SM SCT082 12/M06 A2986 RMK CU3 SLP131=

CYXE;2005-04-16 00:00;METAR CYXE 160000Z 28024G29KT 15SM FEW082 11/M07 A2989 RMK CU2 SLP138=

CYXE;2005-04-16 01:00;METAR CYXE 160100Z 30018KT 15SM FEW082 FEW250 10/M05 A2990 RMK CU1CI1 SLP144=

CYXE;2005-04-16 02:00;METAR CYXE 160200Z 31009KT 15SM FEW250 08/M02 A2993 RMK CI1 SLP153=

CYXE;2005-04-16 03:00;METAR CYXE 160300Z 31006KT 15SM FEW040 FEW250 04/M02 A2996 RMK SC1CI0 SLP166=

CYXE;2005-04-16 04:00;METAR CYXE 160400Z 29006KT 15SM SKC 04/M01 A2998 RMK SLP171=

CYXE;2005-04-16 05:00;METAR CYXE 160500Z 24006KT 15SM SKC 01/M02 A3000 RMK SLP178=

CYXE;2005-04-16 06:00;METAR CYXE 160600Z 30003KT 15SM SKC 01/M02 A3000 RMK SLP180=

CYXE;2005-04-16 07:00;METAR CYXE 160700Z 24006KT 15SM SKC 01/M02 A3002 RMK SLP186=

CYXE;2005-04-16 08:00;METAR CYXE 160800Z 22005KT 15SM SKC 01/M03 A3003 RMK SLP190=

CYXE;2005-04-16 09:00;METAR CYXE 160900Z 21005KT 15SM SKC M01/M03 A3004 RMK SLP195=

CYXE;2005-04-16 10:00;METAR CYXE 161000Z 19002KT 15SM SKC M01/M03 A3005 RMK SLP197=

CYXE;2005-04-16 11:00;METAR CYXE 161100Z 18002KT 15SM SKC M01/M03 A3006 RMK SLP201=

CYXE;2005-04-16 12:00;METAR CYXE 161200Z 16003KT 15SM FEW250 M02/M04 A3007 RMK CI0 SLP204=

CYXE;2005-04-16 13:00;METAR CYXE 161300Z 14004KT 15SM BKN250 M00/M04 A3008 RMK CI2 SLP206=

CYXE;2005-04-16 14:00;METAR CYXE 161400Z 10005KT 15SM BKN250 04/M02 A3008 RMK CI1 SLP207=

CYXE;2005-04-16 15:00;METAR CYXE 161500Z 12007KT 15SM BKN250 08/M03 A3008 RMK CI1 SLP205=

CYXE;2005-04-16 16:00;METAR CYXE 161600Z 12011G17KT 15SM SCT250 10/M04 A3006 RMK CI1 SLP201=

CYXE;2005-04-16 17:00;METAR CYXE 161700Z 13013G19KT 15SM BKN250 11/M04 A3005 RMK CI2 SLP197=

CYXE;2005-04-16 18:00;METAR CYXE 161800Z 13017KT 15SM BKN250 13/M04 A3003 RMK CI4 SLP186=

CYXE;2005-04-16 19:00;METAR CYXE 161900Z 15011G20KT 15SM BKN250 14/M03 A3001 RMK CI6 SLP180=

CYXE;2005-04-16 20:00;METAR CYXE 162000Z 16014KT 15SM BKN250 15/M02 A2998 RMK CI6 SLP170=

CYXE;2005-04-16 21:00;METAR CYXE 162100Z 16018KT 15SM FEW090 BKN250 15/M02 A2995 RMK AC2CI6 SLP159=

CYXE;2005-04-16 22:00;METAR CYXE 162200Z 15019G24KT 15SM FEW110 OVC250 17/M02 A2992 RMK AC2CI3 SLP149=

CYXE;2005-04-16 23:00;METAR CYXE 162300Z 17014G19KT 15SM FEW095 OVC250 17/M01 A2990 RMK AC2CI3 SLP142=

CYXE;2005-04-17 00:00;METAR CYXE 170000Z 16015KT 15SM FEW095 OVC250 17/M02 A2987 RMK AC2CI3 SLP131=

CYXE;2005-04-17 01:00;METAR CYXE 170100Z 15014KT 15SM FEW087 BKN250 16/M01 A2984 RMK AC2CI2 SLP121=

CYXE;2005-04-17 02:00;METAR CYXE 170200Z 14015KT 15SM FEW087 OVC250 15/M02 A2980 RMK AC2CI3 SLP108=

CYXE;2005-04-17 03:00;METAR CYXE 170300Z 14014KT 15SM BKN110 OVC250 14/M02 A2978 RMK AC6CI2 SLP099=

CYXE;2005-04-17 05:00;METAR CYXE 170500Z 16016KT 15SM OVC110 14/M02 A2974 RMK AS8 SLP086=

CYXE;2005-04-17 06:00;METAR CYXE 170600Z 16013G18KT 15SM OVC110 14/M02 A2972 RMK AS8 SLP075=

CYXE;2005-04-17 07:00;METAR CYXE 170700Z 16011KT 15SM BKN110 12/M02 A2971 RMK AC6 SLP070=

CYXE;2005-04-17 08:00;METAR CYXE 170800Z 15010KT 15SM OVC110 11/M01 A2968 RMK AC7 SLP063=

CYXE;2005-04-17 09:00;METAR CYXE 170900Z 16011KT 15SM OVC110 11/M01 A2966 RMK AC8 SLP053=

CYXE;2005-04-17 10:00;METAR CYXE 171000Z 19009KT 15SM OVC110 11/M01 A2966 RMK AC8 SLP054=

CYXE;2005-04-17 11:00;METAR CYXE 171100Z 19006KT 15SM OVC110 09/M00 A2966 RMK AC7 SLP052=

CYXE;2005-04-17 12:00;METAR CYXE 171200Z 20010KT 15SM BKN088 OVC240 09/00 A2965 RMK AC5CI2 SLP050=

CYXE;2005-04-17 13:00;METAR CYXE 171300Z 20011KT 15SM FEW090 SCT240 09/01 A2965 RMK AC1CI2 SLP051=

CYXE;2005-04-17 14:00;METAR CYXE 171400Z 21010KT 15SM BKN250 11/02 A2965 RMK CI4 SLP050=

CYXE;2005-04-17 15:00;METAR CYXE 171500Z 27009KT 15SM FEW100 BKN250 15/04 A2962 RMK AC1CI6 SLP038=

CYXE;2005-04-17 16:00;METAR CYXE 171600Z 32009KT 15SM FEW100 BKN250 15/03 A2962 RMK AC1CI6 SLP039=

CYXE;2005-04-17 17:00;METAR CYXE 171700Z 29007KT 15SM FEW090 OVC220 15/04 A2963 RMK AC2CI6 SLP040=

CYXE;2005-04-17 18:00;METAR CYXE 171800Z 28008KT 15SM FEW090 BKN220 16/04 A2964 RMK AC1CI5 SLP045=

CYXE;2005-04-17 19:00;METAR CYXE 171900Z 30006KT 15SM FEW090 BKN280 18/05 A2963 RMK AC1CI3 SLP043=

CYXE;2005-04-17 20:00;METAR CYXE 172000Z 30011KT 15SM FEW090 BKN300 18/05 A2963 RMK AC2CI4 SLP043=

CYXE;2005-04-17 21:00;METAR CYXE 172100Z 32011KT 15SM BKN110 OVC300 17/05 A2963 RMK AC6CI2 SLP042=

CYXE;2005-04-17 22:00;METAR CYXE 172200Z 32018KT 15SM BKN110 OVC300 16/02 A2963 RMK AC5CI3 SLP043=

CYXE;2005-04-17 23:00;METAR CYXE 172300Z 32011G17KT 15SM BKN097 OVC250 15/01 A2965 RMK AS6CI2 SLP049=

CYXE;2005-04-18 00:00;METAR CYXE 180000Z 32013KT 15SM FEW080 OVC094 14/M00 A2966 RMK AC1AS7 SLP056=

CYXE;2005-04-18 01:00;METAR CYXE 180100Z 31011KT 15SM OVC076 13/M00 A2968 RMK AS8 SLP061=

CYXE;2005-04-18 02:00;METAR CYXE 180200Z 32008KT 15SM BKN088 OVC250 12/M01 A2968 RMK AC6CI2 SLP064=

CYXE;2005-04-18 04:00;METAR CYXE 180400Z 32008KT 15SM OVC110 10/01 A2972 RMK AC8 SLP074=

CYXE;2005-04-18 05:00;METAR CYXE 180500Z 31007KT 15SM OVC110 08/01 A2973 RMK AC8 SLP077=

CYXE;2005-04-18 06:00;METAR CYXE 180600Z 30006KT 15SM BKN110 OVC250 07/01 A2975 RMK AC6CI1 SLP085=

CYXE;2005-04-18 07:00;METAR CYXE 180700Z 34005KT 15SM FEW100 BKN250 05/00 A2974 RMK AC2CI2 SLP083=

CYXE;2005-04-18 08:00;METAR CYXE 180800Z 30005KT 15SM FEW100 OVC250 04/M01 A2977 RMK AC2CI5 SLP093=

CYXE;2005-04-18 09:00;METAR CYXE 180900Z 31007KT 15SM FEW100 SCT250 03/M01 A2977 RMK AC1CI1 SLP094=

CYXE;2005-04-18 10:00;METAR CYXE 181000Z 32009KT 15SM SCT250 03/M01 A2979 RMK CI1 SLP101=

CYXE;2005-04-18 11:00;METAR CYXE 181100Z 30002KT 15SM BKN250 02/M02 A2981 RMK CI1 SLP108=

CYXE;2005-04-18 12:00;METAR CYXE 181200Z 31008KT 15SM FEW100 SCT250 02/M01 A2982 RMK AC1CI1 SLP116=

CYXE;2005-04-18 13:00;METAR CYXE 181300Z 33010KT 15SM SCT250 03/M02 A2986 RMK CI2 SLP126=

CYXE;2005-04-18 14:00;METAR CYXE 181400Z 03010KT 15SM FEW100 SCT250 07/M02 A2989 RMK AC1CI2 SLP137=

CYXE;2005-04-18 15:00;METAR CYXE 181500Z 01013KT 15SM FEW100 SCT250 09/M03 A2991 RMK AC1CI2 SLP142=

CYXE;2005-04-18 16:00;METAR CYXE 181600Z 36014KT 15SM FEW093 BKN250 10/M02 A2993 RMK AC1CI2 SLP150=

CYXE;2005-04-18 17:00;METAR CYXE 181700Z 33006KT 15SM FEW093 BKN250 11/M02 A2995 RMK AC1CI5 SLP157=

CYXE;2005-04-18 18:00;METAR CYXE 181800Z 33010G15KT 15SM BKN250 13/M02 A2996 RMK CI5 SLP161=

CYXE;2005-04-18 19:00;METAR CYXE 181900Z 30012KT 15SM FEW096 BKN250 12/M02 A2997 RMK AC2CI4 SLP164=

CYXE;2005-04-18 20:00;METAR CYXE 182000Z 32012G17KT 15SM FEW096 BKN250 13/M02 A2996 RMK AC1CI3 SLP162=

CYXE;2005-04-18 21:00;METAR CYXE 182100Z 31013G18KT 15SM BKN250 14/M01 A2996 RMK CI2 SLP163=

CYXE;2005-04-18 22:00;METAR CYXE 182200Z 35009G18KT 15SM BKN300 14/M02 A2998 RMK CI2 SLP168=

CYXE;2005-04-18 23:00;METAR CYXE 182300Z 36011KT 15SM FEW056 SCT300 14/M01 A2999 RMK CU1CI1 SLP171=

CYXE;2005-04-19 00:00;METAR CYXE 190000Z 02014KT 15SM FEW063 BKN300 13/M01 A3001 RMK CU1CI1 SLP182=

CYXE;2005-04-19 01:00;METAR CYXE 190100Z 02009KT 15SM FEW063 BKN300 12/M01 A3003 RMK CU1CI2 SLP186=

CYXE;2005-04-19 02:00;METAR CYXE 190200Z 01006KT 15SM FEW095 BKN300 10/M00 A3005 RMK AC1CI2 SLP194=

CYXE;2005-04-19 03:00;METAR CYXE 190300Z 03008KT 15SM BKN300 06/M00 A3008 RMK CI2 SLP205=

CYXE;2005-04-19 04:00;METAR CYXE 190400Z 03008KT 15SM FEW300 04/M00 A3010 RMK CI1 SLP212=

CYXE;2005-04-19 05:00;METAR CYXE 190500Z 03008KT 15SM FEW300 03/M01 A3012 RMK CI0 SLP218=

CYXE;2005-04-19 06:00;METAR CYXE 190600Z 03009KT 15SM SKC 02/M02 A3013 RMK SLP221=

CYXE;2005-04-19 07:00;METAR CYXE 190700Z 02005KT 15SM SKC 01/M03 A3015 RMK SLP229=

CYXE;2005-04-19 08:00;METAR CYXE 190800Z 03006KT 15SM SCT250 00/M03 A3016 RMK CI1 SLP231=

CYXE;2005-04-19 09:00;METAR CYXE 190900Z 05002KT 15SM FEW250 M01/M03 A3018 RMK CI0 SLP240=

CYXE;2005-04-19 10:00;METAR CYXE 191000Z 30003KT 15SM SCT250 M02/M04 A3019 RMK CI0 SLP242=

CYXE;2005-04-19 11:00;METAR CYXE 191100Z 00000KT 15SM SCT250 M01/M02 A3021 RMK CI0 SLP249=

CYXE;2005-04-19 12:00;METAR CYXE 191200Z 33006KT 15SM FEW250 M04/M05 A3022 RMK CI1 SLP257=

CYXE;2005-04-19 13:00;METAR CYXE 191300Z 33003KT 15SM FEW250 M01/M03 A3024 RMK CI0 SLP262=

CYXE;2005-04-19 14:00;METAR CYXE 191400Z 05002KT 15SM FEW250 03/M00 A3026 RMK CI0 SLP267=

CYXE;2005-04-19 15:00;METAR CYXE 191500Z 00000KT 15SM FEW250 06/M02 A3026 RMK CI1 SLP269=

CYXE;2005-04-19 16:00;METAR CYXE 191600Z 00000KT 15SM FEW250 07/M03 A3028 RMK CI0 SLP273=

CYXE;2005-04-19 17:00;METAR CYXE 191700Z 33003KT 15SM FEW250 08/M03 A3028 RMK CI0 SLP273=

CYXE;2005-04-19 18:00;METAR CYXE 191800Z 03004KT 15SM FEW250 09/M04 A3026 RMK CI0 SLP270=

CYXE;2005-04-19 19:00;METAR CYXE 191900Z 04007KT 15SM FEW060 11/M03 A3025 RMK CU1 SLP265=

CYXE;2005-04-19 20:00;METAR CYXE 192000Z 10003KT 15SM FEW060 12/M03 A3024 RMK CU1 SLP261=

CYXE;2005-04-19 21:00;METAR CYXE 192100Z 09005KT 15SM FEW060 12/M04 A3023 RMK CU1 SLP257=

CYXE;2005-04-19 22:00;METAR CYXE 192200Z 02004KT 15SM FEW060 13/M03 A3021 RMK CU1 SLP252=

CYXE;2005-04-19 23:00;METAR CYXE 192300Z 20005KT 15SM FEW060 13/M03 A3021 RMK CF1 SLP251=

CYXE;2005-04-20 00:00;METAR CYXE 200000Z 32004KT 15SM SKC 13/M03 A3020 RMK SLP248=

CYXE;2005-04-20 01:00;METAR CYXE 200100Z 00000KT 15SM SKC 13/M04 A3019 RMK SLP245=

CYXE;2005-04-20 02:00;METAR CYXE 200200Z 22004KT 15SM SKC 10/M02 A3019 RMK SLP247=

CYXE;2005-04-20 03:00;METAR CYXE 200300Z 17005KT 15SM SKC 09/M01 A3019 RMK SLP243=

CYXE;2005-04-20 04:00;METAR CYXE 200400Z 17006KT 15SM SKC 07/M02 A3019 RMK SLP242=

CYXE;2005-04-20 05:00;METAR CYXE 200500Z 18005KT 15SM SKC 06/M02 A3019 RMK SLP241=

CYXE;2005-04-20 06:00;METAR CYXE 200600Z 18006KT 15SM SKC 05/M03 A3020 RMK SLP244=

CYXE;2005-04-20 07:00;METAR CYXE 200700Z 18007KT 15SM SKC 03/M03 A3020 RMK SLP245=

CYXE;2005-04-20 08:00;METAR CYXE 200800Z 18009KT 15SM SKC 05/M02 A3019 RMK SLP242=

CYXE;2005-04-20 09:00;METAR CYXE 200900Z 19008KT 15SM SKC 04/M03 A3018 RMK SLP238=

CYXE;2005-04-20 10:00;METAR CYXE 201000Z 21008KT 15SM SKC 04/M03 A3018 RMK SLP237=

CYXE;2005-04-20 11:00;METAR CYXE 201100Z 21006KT 15SM FEW250 02/M03 A3017 RMK CI0 SLP236=

CYXE;2005-04-20 12:00;METAR CYXE 201200Z 22005KT 15SM FEW250 M00/M03 A3018 RMK CI0 SLP239=

CYXE;2005-04-20 13:00;METAR CYXE 201300Z 21006KT 15SM FEW250 01/M03 A3018 RMK CI0 SLP241=

CYXE;2005-04-20 14:00;METAR CYXE 201400Z 21008KT 15SM FEW250 05/M02 A3018 RMK CI0 SLP240=

CYXE;2005-04-20 15:00;METAR CYXE 201500Z 22011KT 15SM FEW250 08/M02 A3017 RMK CI0 SLP235=

CYXE;2005-04-20 16:00;METAR CYXE 201600Z 22013KT 15SM FEW250 12/M02 A3017 RMK CI0 SLP234=

CYXE;2005-04-20 17:00;METAR CYXE 201700Z 22013KT 15SM FEW250 14/M01 A3017 RMK CI0 SLP233=

CYXE;2005-04-20 18:00;METAR CYXE 201800Z 23013KT 15SM BKN250 16/M02 A3016 RMK CI1 SLP227=

CYXE;2005-04-20 19:00;METAR CYXE 201900Z 23009G16KT 15SM SCT250 16/M03 A3014 RMK CI0 SLP220=

CYXE;2005-04-20 20:00;METAR CYXE 202000Z 25009G15KT 15SM SCT250 18/M02 A3012 RMK CI0 SLP216=

CYXE;2005-04-20 21:00;METAR CYXE 202100Z 26012KT 15SM SCT250 17/M03 A3012 RMK CI0 SLP213=

CYXE;2005-04-20 22:00;METAR CYXE 202200Z 25010G16KT 15SM FEW300 18/M03 A3010 RMK CI1 SLP207=

CYXE;2005-04-20 23:00;METAR CYXE 202300Z 23008G17KT 15SM SCT300 19/M02 A3008 RMK CI1 SLP203=

CYXE;2005-04-21 00:00;METAR CYXE 210000Z 25008KT 15SM SCT300 19/M02 A3007 RMK CI1 SLP200=

CYXE;2005-04-21 01:00;METAR CYXE 210100Z 26006KT 15SM BKN300 17/M01 A3007 RMK CI1 SLP199=

CYXE;2005-04-21 02:00;METAR CYXE 210200Z 24005KT 15SM SCT300 14/02 A3007 RMK CI1 SLP198=

CYXE;2005-04-21 03:00;METAR CYXE 210300Z 21007KT 15SM SCT300 10/01 A3008 RMK CI1 SLP201=

CYXE;2005-04-21 04:00;METAR CYXE 210400Z 22008KT 15SM SCT300 09/01 A3009 RMK CI1 SLP205=

CYXE;2005-04-21 05:00;METAR CYXE 210500Z 23006KT 15SM FEW300 08/01 A3009 RMK CI1 SLP205=

CYXE;2005-04-21 06:00;METAR CYXE 210600Z 24007KT 15SM BKN250 07/01 A3009 RMK CI2 SLP204=

CYXE;2005-04-21 07:00;METAR CYXE 210700Z 23008KT 15SM BKN250 05/01 A3010 RMK CI2 SLP206=

CYXE;2005-04-21 08:00;METAR CYXE 210800Z 28005KT 15SM BKN250 04/01 A3011 RMK CI1 SLP209=

CYXE;2005-04-21 09:00;METAR CYXE 210900Z 25007KT 15SM SCT250 05/01 A3010 RMK CI1 SLP208=

CYXE;2005-04-21 10:00;METAR CYXE 211000Z 34007KT 15SM SCT250 04/01 A3012 RMK CI1 SLP214=

CYXE;2005-04-21 11:00;METAR CYXE 211100Z 05011KT 15SM FEW250 07/02 A3014 RMK CI1 SLP219=

CYXE;2005-04-21 12:00;METAR CYXE 211200Z 04010KT 15SM FEW250 05/01 A3017 RMK CI1 SLP230=

CYXE;2005-04-21 13:00;METAR CYXE 211300Z 03010G15KT 15SM SKC 07/01 A3021 RMK SLP241=

CYXE;2005-04-21 14:00;METAR CYXE 211400Z 04015KT 15SM SKC 10/01 A3022 RMK SLP247=

CYXE;2005-04-21 15:00;METAR CYXE 211500Z 05013KT 15SM SKC 12/01 A3025 RMK SLP257=

CYXE;2005-04-21 16:00;METAR CYXE 211600Z 03016KT 15SM SKC 13/M00 A3026 RMK SLP261=

CYXE;2005-04-21 17:00;METAR CYXE 211700Z 03015KT 15SM SKC 14/M01 A3028 RMK SLP269=

CYXE;2005-04-21 18:00;METAR CYXE 211800Z 02012G17KT 15SM SKC 15/M02 A3030 RMK SLP274=

CYXE;2005-04-21 19:00;METAR CYXE 211900Z 03011G18KT 15SM SKC 15/M02 A3030 RMK SLP277=

CYXE;2005-04-21 20:00;METAR CYXE 212000Z 03011G17KT 15SM FEW300 16/M03 A3030 RMK CI0 SLP276=

CYXE;2005-04-21 21:00;METAR CYXE 212100Z 04016KT 15SM FEW300 17/M04 A3030 RMK CI0 SLP277=

CYXE;2005-04-21 22:00;METAR CYXE 212200Z 03016G24KT 15SM FEW300 17/M04 A3030 RMK CI0 SLP276=

CYXE;2005-04-21 23:00;METAR CYXE 212300Z 04015G21KT 15SM FEW300 17/M05 A3031 RMK CI0 SLP279=

CYXE;2005-04-22 00:00;METAR CYXE 220000Z 04017KT 15SM FEW300 16/M04 A3033 RMK CI1 SLP285=

CYXE;2005-04-22 01:00;METAR CYXE 220100Z 05013KT 15SM FEW300 15/M03 A3034 RMK CI1 SLP291=

CYXE;2005-04-22 02:00;METAR CYXE 220200Z 05010KT 15SM FEW300 12/M02 A3036 RMK CI0 SLP295=

CYXE;2005-04-22 03:00;METAR CYXE 220300Z 06007KT 15SM SKC 08/M01 A3038 RMK SLP303=

CYXE;2005-04-22 04:00;METAR CYXE 220400Z 08010KT 15SM SKC 08/M01 A3039 RMK SLP309=

CYXE;2005-04-22 05:00;METAR CYXE 220500Z 10010KT 15SM SKC 07/00 A3042 RMK SLP317=

CYXE;2005-04-22 06:00;METAR CYXE 220600Z 11005KT 15SM SKC 05/M01 A3044 RMK SLP324=

CYXE;2005-04-22 07:00;METAR CYXE 220700Z 09008KT 15SM SKC 03/M01 A3045 RMK SLP327=

CYXE;2005-04-22 08:00;METAR CYXE 220800Z 10007KT 15SM SKC 01/M02 A3045 RMK SLP327=

CYXE;2005-04-22 09:00;METAR CYXE 220900Z 12006KT 15SM SKC 02/M02 A3046 RMK SLP331=

CYXE;2005-04-22 10:00;METAR CYXE 221000Z 12006KT 15SM SKC 01/M02 A3046 RMK SLP333=

CYXE;2005-04-22 11:00;METAR CYXE 221100Z 14004KT 15SM SKC 00/M02 A3048 RMK SLP339=

CYXE;2005-04-22 12:00;METAR CYXE 221200Z 12005KT 15SM SKC M01/M03 A3048 RMK SLP341=

CYXE;2005-04-22 13:00;METAR CYXE 221300Z 13003KT 15SM SKC 01/M01 A3048 RMK SLP341=

CYXE;2005-04-22 14:00;METAR CYXE 221400Z 18010KT 15SM SKC 03/M00 A3048 RMK SLP341=

CYXE;2005-04-22 15:00;METAR CYXE 221500Z 18011KT 15SM SKC 06/00 A3046 RMK SLP336=

CYXE;2005-04-22 16:00;METAR CYXE 221600Z 20010KT 15SM SKC 09/01 A3045 RMK SLP332=

CYXE;2005-04-22 17:00;METAR CYXE 221700Z 17009KT 15SM SKC 10/00 A3044 RMK SLP328=

CYXE;2005-04-22 18:00;METAR CYXE 221800Z 17008G15KT 15SM SKC 11/M00 A3042 RMK SLP320=

CYXE;2005-04-22 19:00;METAR CYXE 221900Z 16009KT 15SM SKC 14/M01 A3039 RMK SLP312=

CYXE;2005-04-22 20:00;METAR CYXE 222000Z 19012G17KT 15SM SKC 14/M02 A3037 RMK SLP303=

CYXE;2005-04-22 21:00;METAR CYXE 222100Z 15012G17KT 15SM SKC 15/M04 A3034 RMK SLP290=

CYXE;2005-04-22 22:00;METAR CYXE 222200Z 19010G15KT 15SM SKC 16/M04 A3031 RMK SLP281=

CYXE;2005-04-22 23:00;METAR CYXE 222300Z 17011KT 15SM FEW250 16/M05 A3028 RMK CI1 SLP271=

CYXE;2005-04-23 00:00;METAR CYXE 230000Z 15009G15KT 15SM FEW250 16/M06 A3027 RMK CI1 SLP268=

CYXE;2005-04-23 01:00;METAR CYXE 230100Z 17009KT 15SM FEW250 15/M05 A3025 RMK CI1 SLP261=

CYXE;2005-04-23 02:00;METAR CYXE 230200Z 16008KT 15SM FEW250 13/M05 A3023 RMK CI0 SLP257=

CYXE;2005-04-23 04:00;METAR CYXE 230400Z 15011KT 15SM SKC 11/M04 A3022 RMK SLP251=

CYXE;2005-04-23 05:00;METAR CYXE 230500Z 16012KT 15SM FEW250 09/M03 A3021 RMK CI0 SLP248=

CYXE;2005-04-23 06:00;METAR CYXE 230600Z 16010KT 15SM BKN250 08/M04 A3021 RMK CI2 SLP247=

CYXE;2005-04-23 07:00;METAR CYXE 230700Z 16010KT 15SM BKN250 07/M04 A3021 RMK CI2 SLP247=

CYXE;2005-04-23 08:00;METAR CYXE 230800Z 16009KT 15SM BKN250 07/M05 A3020 RMK CI2 SLP243=

CYXE;2005-04-23 09:00;METAR CYXE 230900Z 18011KT 15SM BKN250 07/M05 A3019 RMK CI1 SLP237=

CYXE;2005-04-23 10:00;METAR CYXE 231000Z 19006KT 15SM SCT250 06/M04 A3019 RMK CI1 SLP237=

CYXE;2005-04-23 11:00;METAR CYXE 231100Z 18004KT 15SM SCT250 04/M03 A3019 RMK CI1 SLP238=

CYXE;2005-04-23 12:00;METAR CYXE 231200Z 19005KT 15SM BKN250 03/M04 A3019 RMK CI2 SLP239=

CYXE;2005-04-23 13:00;METAR CYXE 231300Z 19009KT 15SM BKN250 04/M03 A3019 RMK CI2 SLP238=

CYXE;2005-04-23 14:00;METAR CYXE 231400Z 20010KT 15SM BKN300 06/M03 A3017 RMK CI1 SLP234=

CYXE;2005-04-23 15:00;METAR CYXE 231500Z 20010KT 15SM BKN300 10/M01 A3017 RMK CI1 SLP230=

CYXE;2005-04-23 16:00;METAR CYXE 231600Z 21011KT 15SM BKN300 14/00 A3015 RMK CI1 SLP226=

CYXE;2005-04-23 17:00;METAR CYXE 231700Z 23009KT 15SM FEW098 BKN300 17/01 A3013 RMK AC1CI1 SLP220=

CYXE;2005-04-23 18:00;METAR CYXE 231800Z 22011G16KT 15SM BKN300 18/M00 A3012 RMK CI1 SLP212=

CYXE;2005-04-23 19:00;METAR CYXE 231900Z 21013KT 15SM SCT300 19/M01 A3010 RMK CI1 SLP205=

CYXE;2005-04-23 20:00;METAR CYXE 232000Z 21013KT 15SM FEW300 21/M01 A3008 RMK CI1 SLP199=

CYXE;2005-04-23 21:00;METAR CYXE 232100Z 23013KT 15SM FEW300 21/M01 A3006 RMK CI0 SLP191=

CYXE;2005-04-23 22:00;METAR CYXE 232200Z 23012KT 15SM FEW300 21/M01 A3004 RMK CI1 SLP183=

CYXE;2005-04-23 23:00;METAR CYXE 232300Z 25006KT 15SM FEW110 FEW300 21/M01 A3002 RMK AC1CI1 SLP178=

CYXE;2005-04-24 00:00;METAR CYXE 240000Z 25006KT 15SM FEW110 FEW300 21/M02 A3001 RMK AC1CI1 SLP176=

CYXE;2005-04-24 01:00;METAR CYXE 240100Z 25007KT 15SM BKN110 BKN300 20/M01 A3000 RMK AC5CI1 SLP171=

CYXE;2005-04-24 02:00;METAR CYXE 240200Z 23008KT 15SM SCT110 BKN280 15/02 A2999 RMK AC2CI2 SLP168=

CYXE;2005-04-24 03:00;METAR CYXE 240300Z 22008KT 15SM BKN100 BKN280 13/01 A2999 RMK AC5CI0 SLP168=

CYXE;2005-04-24 04:00;METAR CYXE 240400Z 01011KT 15SM SCT110 SCT280 13/04 A3002 RMK AC2CI1 SLP177=

CYXE;2005-04-24 05:00;METAR CYXE 240500Z 03011KT 15SM FEW110 FEW280 11/04 A3002 RMK AC1CI0 SLP178=

CYXE;2005-04-24 06:00;METAR CYXE 240600Z 03008KT 15SM FEW110 10/05 A3003 RMK AC1 SLP178=

CYXE;2005-04-24 07:00;METAR CYXE 240700Z 02010KT 15SM SCT087 10/04 A3004 RMK AC3 SLP183=

CYXE;2005-04-24 08:00;METAR CYXE 240800Z 02011KT 15SM BKN087 09/02 A3004 RMK AC5 SLP182=

CYXE;2005-04-24 09:00;METAR CYXE 240900Z 35007KT 15SM SCT096 06/01 A3003 RMK AC3 SLP182=

CYXE;2005-04-24 10:00;METAR CYXE 241000Z 33006KT 15SM FEW096 SCT250 04/01 A3003 RMK AC2CI1 SLP180=

CYXE;2005-04-24 11:00;METAR CYXE 241100Z 36009KT 15SM SCT250 04/01 A3003 RMK CI2 SLP181=

CYXE;2005-04-24 12:00;METAR CYXE 241200Z 01012KT 15SM SCT250 04/00 A3004 RMK CI2 SLP186=

CYXE;2005-04-24 13:00;METAR CYXE 241300Z 02009KT 15SM BKN250 06/01 A3005 RMK CI2 SLP189=

CYXE;2005-04-24 14:00;METAR CYXE 241400Z 05016KT 15SM BKN250 07/01 A3007 RMK CI2 SLP195=

CYXE;2005-04-24 15:00;METAR CYXE 241500Z 05014KT 15SM BKN250 08/01 A3008 RMK CI2 SLP199=

CYXE;2005-04-24 16:00;METAR CYXE 241600Z 03012KT 15SM FEW025 FEW280 09/03 A3008 RMK CU1CI1 SLP200=

CYXE;2005-04-24 17:00;METAR CYXE 241700Z 03012KT 15SM FEW280 10/03 A3008 RMK CI1 SLP202=

CYXE;2005-04-24 18:00;METAR CYXE 241800Z 04008KT 15SM FEW280 12/M00 A3007 RMK CI1 SLP196=

CYXE;2005-04-24 19:00;METAR CYXE 241900Z 01009G17KT 15SM FEW280 13/M02 A3005 RMK CI1 SLP190=

CYXE;2005-04-24 20:00;METAR CYXE 242000Z 02009G16KT 15SM SKC 14/M04 A3004 RMK SLP187=

CYXE;2005-04-24 21:00;METAR CYXE 242100Z 03009G15KT 15SM SKC 16/M03 A3003 RMK SLP182=

CYXE;2005-04-24 22:00;METAR CYXE 242200Z 01007KT 15SM SKC 15/M05 A3001 RMK SLP176=

CYXE;2005-04-24 23:00;METAR CYXE 242300Z 01012KT 15SM SKC 15/M05 A3000 RMK SLP174=

CYXE;2005-04-25 00:00;METAR CYXE 250000Z 01006KT 15SM SKC 15/M06 A2999 RMK SLP171=

CYXE;2005-04-25 01:00;METAR CYXE 250100Z 02008KT 15SM SKC 15/M06 A2998 RMK SLP166=

CYXE;2005-04-25 02:00;METAR CYXE 250200Z 01004KT 15SM SKC 12/M04 A2997 RMK SLP164=

CYXE;2005-04-25 03:00;METAR CYXE 250300Z 35005KT 15SM SKC 10/M03 A2997 RMK SLP166=

CYXE;2005-04-25 04:00;METAR CYXE 250400Z 36009KT 15SM SKC 06/M02 A2998 RMK SLP168=

CYXE;2005-04-25 05:00;METAR CYXE 250500Z 36010KT 15SM SKC 05/M01 A2999 RMK SLP170=

CYXE;2005-04-25 06:00;METAR CYXE 250600Z 34008KT 15SM SKC 04/M02 A2999 RMK SLP173=

CYXE;2005-04-25 07:00;METAR CYXE 250700Z 34010KT 15SM SKC 04/M02 A2999 RMK SLP172=

CYXE;2005-04-25 08:00;METAR CYXE 250800Z 34008KT 15SM SKC 03/M02 A2999 RMK SLP172=

CYXE;2005-04-25 09:00;METAR CYXE 250900Z 32009KT 15SM SKC 01/M02 A2999 RMK SLP171=

CYXE;2005-04-25 10:00;METAR CYXE 251000Z 34009KT 15SM SKC 01/M03 A2999 RMK SLP172=

CYXE;2005-04-25 11:00;METAR CYXE 251100Z 34007KT 15SM FEW100 FEW250 M00/M03 A2999 RMK AC1CI1 SLP173=

CYXE;2005-04-25 12:00;METAR CYXE 251200Z 36009KT 15SM FEW100 FEW250 01/M02 A3001 RMK AC1CI0 SLP179=

CYXE;2005-04-25 13:00;METAR CYXE 251300Z 03009KT 15SM FEW100 SCT250 04/M02 A3002 RMK AC1CI1 SLP181=

CYXE;2005-04-25 14:00;METAR CYXE 251400Z 04012KT 15SM SCT100 SCT250 04/M02 A3003 RMK AC2CI0 SLP185=

CYXE;2005-04-25 15:00;METAR CYXE 251500Z 04011KT 15SM FEW100 07/M01 A3004 RMK AC1 SLP190=

CYXE;2005-04-25 16:00;METAR CYXE 251600Z 02008KT 15SM FEW100 08/M01 A3004 RMK AC1 SLP191=

CYXE;2005-04-25 17:00;METAR CYXE 251700Z 35011KT 15SM FEW100 09/M02 A3004 RMK AC2 SLP189=

CYXE;2005-04-25 18:00;METAR CYXE 251800Z 35014KT 15SM SCT100 BKN250 10/M03 A3002 RMK AC4CI0 SLP185=

CYXE;2005-04-25 22:00;METAR CYXE 252200Z 36009G16KT 15SM FEW120 13/M04 A2997 RMK AC1 SLP169=

CYXE;2005-04-25 23:00;METAR CYXE 252300Z 01007KT 15SM BKN095 12/M04 A2996 RMK AC6 SLP164=

CYXE;2005-04-26 00:00;METAR CYXE 260000Z 02012KT 15SM BKN080 13/M05 A2995 RMK AC6 SLP161=

CYXE;2005-04-26 01:00;METAR CYXE 260100Z 04011KT 15SM BKN080 12/M05 A2995 RMK AC6 SLP159=

CYXE;2005-04-26 02:00;METAR CYXE 260200Z 02009G20KT 15SM VCSH BKN040 OVC080 10/M03 A2996 RMK SC5AC2 SLP164=

CYXE;2005-04-26 02:07;SPECI CYXE 260207Z 02012G27KT 15SM -SHRA BKN030 OVC080 RMK SC6AC2=

CYXE;2005-04-26 02:27;SPECI CYXE 260227Z 04009G15KT 15SM VCSH BKN030 OVC080 RMK SC6AC2=

CYXE;2005-04-26 03:00;METAR CYXE 260300Z 04008KT 15SM SCT030 OVC090 10/M03 A2995 RMK SC4AC4 SLP160=

CYXE;2005-04-26 04:00;METAR CYXE 260400Z 05008KT 15SM SCT040 OVC080 09/M02 A2995 RMK SC3AC5 SLP160=

CYXE;2005-04-26 05:00;METAR CYXE 260500Z 02009KT 15SM FEW040 OVC070 07/M00 A2996 RMK SC2AC6 SLP161=

CYXE;2005-04-26 06:00;METAR CYXE 260600Z 35008KT 15SM BKN061 OVC084 06/00 A2997 RMK SC5AC3 SLP166=

CYXE;2005-04-26 07:00;METAR CYXE 260700Z 03010KT 15SM BKN061 OVC110 06/M01 A2998 RMK SC5AC3 SLP168=

CYXE;2005-04-26 08:00;METAR CYXE 260800Z 04007KT 15SM OVC063 05/M02 A2999 RMK SC7 SLP171=

CYXE;2005-04-26 09:00;METAR CYXE 260900Z 36007KT 15SM SCT065 01/M03 A2998 RMK SC3 SLP172=

CYXE;2005-04-26 10:00;METAR CYXE 261000Z 35008KT 15SM FEW065 SCT110 01/M02 A3000 RMK SC2AC2 SLP178=

CYXE;2005-04-26 11:00;METAR CYXE 261100Z 36010KT 15SM FEW065 FEW110 SCT250 02/M02 A3001 RMK SC1AC2CI1 SLP180=

CYXE;2005-04-26 12:00;METAR CYXE 261200Z 35009KT 15SM FEW065 FEW110 FEW250 01/M02 A3002 RMK SC1AC2CI0 FU N-SE SLP183=

CYXE;2005-04-26 13:00;METAR CYXE 261300Z 35010KT 15SM FEW110 SCT250 02/M01 A3003 RMK AC1CI1 SLP187=

CYXE;2005-04-26 14:00;METAR CYXE 261400Z 36013KT 15SM FEW120 FEW250 04/M01 A3004 RMK AC1CI1 SLP191=

CYXE;2005-04-26 16:00;METAR CYXE 261600Z 36019KT 15SM BKN030 BKN110 06/M03 A3005 RMK SC6AC1 SLP195=

CYXE;2005-04-26 17:00;METAR CYXE 261700Z 01019G24KT 15SM SCT035 BKN080 BKN250 08/M04 A3005 RMK SC3AC2CI1 SLP195=

CYXE;2005-04-26 18:00;METAR CYXE 261800Z 35017G24KT 15SM BKN045 BKN065 BKN250 08/M04 A3004 RMK SC5SC2CI1 SLP191=

CYXE;2005-04-26 19:00;METAR CYXE 261900Z 36014G19KT 15SM OVC045 07/M04 A3003 RMK SC8 VIRGA SW SLP186=

CYXE;2005-04-26 20:00;METAR CYXE 262000Z 36013G22KT 15SM OVC035 08/M03 A3001 RMK SC8 VIRGA SE SLP182=

CYXE;2005-04-26 21:00;METAR CYXE 262100Z 35015G25KT 15SM BKN050 08/M05 A3001 RMK SC7 SLP184=

CYXE;2005-04-26 22:00;METAR CYXE 262200Z 01022G27KT 15SM SCT050 BKN250 07/M05 A3001 RMK SC3CI0 SLP185=

CYXE;2005-04-26 23:00;METAR CYXE 262300Z 03022G28KT 15SM SCT080 BKN250 05/M05 A3003 RMK AC3CI3 SLP191=

CYXE;2005-04-27 00:00;METAR CYXE 270000Z 01022G32KT 15SM FEW040 SCT080 BKN250 04/M06 A3006 RMK SC2AC2CI2 SLP203=

CYXE;2005-04-27 01:00;METAR CYXE 270100Z 36025G30KT 15SM SCT040 BKN070 OVC250 01/M08 A3007 RMK SC4AC2CI1 SLP208=

CYXE;2005-04-27 02:00;METAR CYXE 270200Z 01024KT 15SM BKN040 OVC070 01/M09 A3008 RMK SC6AC2 SLP212=

CYXE;2005-04-27 03:00;METAR CYXE 270300Z 36019KT 15SM BKN040 OVC080 M00/M08 A3009 RMK SC5AC2 SLP215=

CYXE;2005-04-27 04:00;METAR CYXE 270400Z 36014G20KT 15SM BKN040 OVC090 M00/M07 A3011 RMK SC5AC3 SLP220=

CYXE;2005-04-27 04:34;SPECI CYXE 270434Z 35015KT 15SM -SN OVC040 RMK SC8=

CYXE;2005-04-27 05:00;METAR CYXE 270500Z 36019G30KT 8SM -SN SCT025 OVC045 M01/M07 A3011 RMK SC3SC5 SLP221=

CYXE;2005-04-27 05:24;SPECI CYXE 270524Z 35017KT 15SM BKN027 OVC045 RMK SC6SC2=

CYXE;2005-04-27 06:00;METAR CYXE 270600Z 36018G24KT 15SM OVC052 M01/M07 A3012 RMK SC8 SLP221=

CYXE;2005-04-27 06:06;SPECI CYXE 270606Z 34017KT 8SM -SN FEW020 OVC052 RMK SC2SC6=

CYXE;2005-04-27 06:39;SPECI CYXE 270639Z 35014KT 15SM SCT030 OVC056 RMK SC3SC5=

CYXE;2005-04-27 07:00;METAR CYXE 270700Z 35011G19KT 15SM SCT027 OVC056 M01/M06 A3012 RMK SC3SC5 SLP221=

CYXE;2005-04-27 07:23;SPECI CYXE 270723Z 35014G20KT 15SM -SHSN BKN027 OVC056 RMK SC6SC2=

CYXE;2005-04-27 08:00;METAR CYXE 270800Z 35013G21KT 15SM -SHSN OVC025 M02/M07 A3011 RMK SC8 SLP219=

CYXE;2005-04-27 09:00;METAR CYXE 270900Z 36018G32KT 15SM VCSH SCT015 OVC025 M03/M07 A3011 RMK SC3SC5 SHSN SE SLP221=

CYXE;2005-04-27 09:45;SPECI CYXE 270945Z 36016KT 10SM -SHSN SCT025 OVC044 RMK SC4SC4=

CYXE;2005-04-27 10:00;METAR CYXE 271000Z 35014G19KT 4SM -SHSN BKN023 OVC044 M03/M07 A3012 RMK SC6SC2 SLP224=

CYXE;2005-04-27 11:00;METAR CYXE 271100Z 36017KT 15SM BKN024 OVC054 M03/M08 A3012 RMK SC6SC2 SLP225=

CYXE;2005-04-27 11:23;SPECI CYXE 271123Z 36016G24KT 15SM -SHSN BKN029 OVC044 RMK SC6SC2=

CYXE;2005-04-27 12:00;METAR CYXE 271200Z 35016G22KT 15SM -SHSN OVC024 M03/M08 A3012 RMK SC8 SLP229=

CYXE;2005-04-27 13:00;METAR CYXE 271300Z 36016KT 15SM -SHSN OVC024 M03/M08 A3013 RMK SC8 SLP230=

CYXE;2005-04-27 14:00;METAR CYXE 271400Z 36018KT 15SM -SHSN OVC024 M02/M08 A3013 RMK SC8 SLP230=

CYXE;2005-04-27 15:00;METAR CYXE 271500Z 34020G29KT 15SM -SN OVC028 M02/M08 A3012 RMK SC8 SLP227=

CYXE;2005-04-27 15:23;SPECI CYXE 271523Z 35019G26KT 15SM OVC030 RMK SC8=

CYXE;2005-04-27 16:00;METAR CYXE 271600Z 35019G24KT 15SM OVC030 M01/M08 A3012 RMK SC8 SLP227=

CYXE;2005-04-27 16:37;SPECI CYXE 271637Z 36020KT 15SM -SN OVC030 RMK SC8=

CYXE;2005-04-27 17:00;METAR CYXE 271700Z 36019KT 15SM -SN OVC030 M01/M07 A3011 RMK SC8 SLP225=

CYXE;2005-04-27 18:00;METAR CYXE 271800Z 34019G24KT 15SM -SN OVC028 M01/M07 A3010 RMK SC8 SLP221=

CYXE;2005-04-27 18:24;SPECI CYXE 271824Z 34019KT 15SM OVC026 RMK SC8=

CYXE;2005-04-27 19:00;METAR CYXE 271900Z 32020KT 15SM BKN028 OVC250 00/M08 A3009 RMK SC7CI0 SLP217=

CYXE;2005-04-27 20:00;METAR CYXE 272000Z 33020G27KT 15SM BKN032 OVC250 01/M08 A3007 RMK SC7CI0 SLP212=

CYXE;2005-04-27 21:00;METAR CYXE 272100Z 34021KT 15SM BKN036 OVC250 02/M08 A3006 RMK SC6CI0 SLP207=

CYXE;2005-04-27 22:00;METAR CYXE 272200Z 33020G25KT 15SM BKN040 BKN250 03/M08 A3004 RMK SC6CI1 SLP202=

CYXE;2005-04-27 23:00;METAR CYXE 272300Z 33017G27KT 15SM BKN042 BKN250 03/M08 A3004 RMK SC6CI0 SLP200=

CYXE;2005-04-28 00:00;METAR CYXE 280000Z 34019G24KT 15SM BKN045 03/M08 A3003 RMK SC7 SLP198=

CYXE;2005-04-28 01:00;METAR CYXE 280100Z 35020G25KT 15SM BKN045 BKN250 02/M08 A3004 RMK SC6CI0 SLP199=

CYXE;2005-04-28 02:00;METAR CYXE 280200Z 35019G24KT 15SM BKN045 BKN250 01/M09 A3005 RMK SC6CI0 SLP203=

CYXE;2005-04-28 03:00;METAR CYXE 280300Z 33018G24KT 15SM BKN042 00/M09 A3006 RMK SC7 SLP208=

CYXE;2005-04-28 04:00;METAR CYXE 280400Z 36013KT 15SM OVC042 M00/M09 A3006 RMK SC7 SLP209=

CYXE;2005-04-28 05:00;METAR CYXE 280500Z 35016G21KT 15SM OVC040 M01/M10 A3006 RMK SC8 SLP208=

CYXE;2005-04-28 06:00;METAR CYXE 280600Z 34013KT 15SM OVC040 M01/M10 A3006 RMK SC8 SLP208=

CYXE;2005-04-28 07:00;METAR CYXE 280700Z 34012KT 15SM OVC038 M01/M10 A3006 RMK SC8 SLP207=

CYXE;2005-04-28 08:00;METAR CYXE 280800Z 35012KT 15SM OVC038 M02/M10 A3005 RMK SC8 SLP206=

CYXE;2005-04-28 09:00;METAR CYXE 280900Z 35013KT 15SM OVC038 M02/M10 A3004 RMK SC8 SLP200=

CYXE;2005-04-28 10:00;METAR CYXE 281000Z 33015G21KT 15SM OVC037 M03/M10 A3003 RMK SC8 SLP198=

CYXE;2005-04-28 12:00;METAR CYXE 281200Z 32013KT 15SM FEW045 BKN220 M05/M10 A3003 RMK SC2CI2 SLP196=

CYXE;2005-04-28 13:00;METAR CYXE 281300Z 31011G16KT 15SM FEW045 BKN220 M04/M09 A3003 RMK SC1CI2 SLP196=

CYXE;2005-04-28 14:00;METAR CYXE 281400Z 32019G24KT 15SM SCT050 BKN250 M02/M11 A3002 RMK SC2CI1 SLP193=

CYXE;2005-04-28 15:00;METAR CYXE 281500Z 33018G24KT 15SM BKN033 BKN250 M01/M11 A3000 RMK SC6CI0 SLP188=

CYXE;2005-04-28 16:00;METAR CYXE 281600Z 33015G21KT 15SM BKN031 OVC250 M02/M11 A2999 RMK SC7CI0 SLP185=

CYXE;2005-04-28 17:00;METAR CYXE 281700Z 32018KT 15SM OVC029 M01/M11 A2999 RMK SC7 SLP183=

CYXE;2005-04-28 17:39;SPECI CYXE 281739Z 32014G20KT 15SM -SHSN OVC033 RMK SC8=

CYXE;2005-04-28 18:00;METAR CYXE 281800Z 32016G21KT 15SM VCSH BKN033 OVC070 M00/M10 A2998 RMK SC6AC2 SLP180=

CYXE;2005-04-28 19:00;METAR CYXE 281900Z 32018KT 15SM VCSH OVC035 M00/M10 A2997 RMK SC8 SLP176=

CYXE;2005-04-28 20:00;METAR CYXE 282000Z 34016KT 15SM VCSH BKN031 OVC060 M00/M09 A2997 RMK SC7SC1 SLP177=

CYXE;2005-04-28 20:38;SPECI CYXE 282038Z 31015KT 15SM -SHSN BKN025 OVC045 RMK SC6SC2=

CYXE;2005-04-28 21:00;METAR CYXE 282100Z 32014G20KT 4SM -SHSN BKN033 OVC060 M00/M05 A2997 RMK SC6SC2 SLP176=

CYXE;2005-04-28 22:00;METAR CYXE 282200Z 33017G24KT 6SM -SN BKN022 BKN070 01/M06 A2996 RMK SC6AC1 SLP173=

CYXE;2005-04-28 22:49;SPECI CYXE 282249Z 33017KT 2SM -SN BKN017 OVC040 RMK SC6SC2=

CYXE;2005-04-28 23:00;METAR CYXE 282300Z 33015G20KT 5SM -SN BKN017 BKN050 M00/M05 A2996 RMK SC6SC1 SLP173=

CYXE;2005-04-28 23:19;SPECI CYXE 282319Z 33012G19KT 1 1/2SM -SN BKN015 OVC050 RMK SN2SC6SC1=

CYXE;2005-04-28 23:46;SPECI CYXE 282346Z 34013KT 1SM R09/P6000FT/U -SN OVC015 RMK SN3SC5=

CYXE;2005-04-29 00:00;METAR CYXE 290000Z 34014KT 1SM R09/P6000FT/N -SN OVC015 M01/M04 A2996 RMK SN3SC5 SLP177=

CYXE;2005-04-29 01:00;METAR CYXE 290100Z 35011G17KT 1SM R09/P6000FT/N -SN BKN015 OVC080 M01/M04 A2997 RMK SN2SC4AC2 SLP180=

CYXE;2005-04-29 02:00;METAR CYXE 290200Z 33012KT 1 1/2SM -SN BKN015 OVC080 M02/M04 A2998 RMK SC6AC2 SLP181=

CYXE;2005-04-29 02:23;SPECI CYXE 290223Z 34010KT 3SM -SN BKN015 OVC060 RMK SC5SC3=

CYXE;2005-04-29 03:00;METAR CYXE 290300Z 32009KT 4SM -SN BKN015 OVC080 M02/M04 A2999 RMK SC6AC2 SLP183=

CYXE;2005-04-29 04:00;METAR CYXE 290400Z 33008KT 10SM -SN OVC027 M02/M05 A2999 RMK SC8 SLP184=

CYXE;2005-04-29 05:00;METAR CYXE 290500Z 33009KT 6SM -SN OVC025 M02/M05 A2999 RMK SC8 SLP185=

CYXE;2005-04-29 06:00;METAR CYXE 290600Z 32007KT 15SM -SN OVC030 M03/M05 A2999 RMK SC8 SLP185=

CYXE;2005-04-29 06:44;SPECI CYXE 290644Z 33008KT 15SM FEW007 OVC022 RMK SF1SC7=

CYXE;2005-04-29 07:00;METAR CYXE 290700Z 34010KT 15SM OVC024 M02/M06 A2999 RMK SC8 SLP184=

CYXE;2005-04-29 08:00;METAR CYXE 290800Z 31010KT 15SM OVC035 M02/M07 A2997 RMK SC8 SLP179=

CYXE;2005-04-29 09:00;METAR CYXE 290900Z 27008KT 15SM FEW035 SCT090 M04/M08 A2996 RMK SC2AC1 SLP176=

CYXE;2005-04-29 10:00;METAR CYXE 291000Z 29012KT 15SM FEW045 FEW080 M04/M08 A2995 RMK SC1AC1 SLP173=

CYXE;2005-04-29 11:00;METAR CYXE 291100Z 30009KT 15SM SCT035 BKN085 M03/M07 A2995 RMK SC3AC3 SLP173=

CYXE;2005-04-29 12:00;METAR CYXE 291200Z 32011KT 15SM BKN025 OVC080 M03/M07 A2995 RMK SC6AC2 SLP173=

CYXE;2005-04-29 12:45;SPECI CYXE 291245Z 35012KT 3SM -SN OVC020 RMK SN2SC6=

CYXE;2005-04-29 13:00;METAR CYXE 291300Z 35010KT 2SM -SN OVC020 M04/M07 A2996 RMK SN2SC6 SLP176=

CYXE;2005-04-29 13:48;SPECI CYXE 291348Z 33010KT 5SM -SN OVC020 RMK SC8=

CYXE;2005-04-29 14:00;METAR CYXE 291400Z 32012KT 5SM -SN BKN020 OVC050 M04/M07 A2996 RMK SC6SC2 SLP176=

CYXE;2005-04-29 14:28;SPECI CYXE 291428Z 32012G19KT 15SM SCT015 BKN050 BKN250 RMK SC3SC2CI2=

CYXE;2005-04-29 15:00;METAR CYXE 291500Z 31014G21KT 15SM VCSH SCT020 BKN250 M03/M09 A2997 RMK CU4CI2 SLP178=

CYXE;2005-04-29 15:04;SPECI CYXE 291504Z 32015KT 10SM -SHSN BKN020 OVC250 RMK CU5CI2=

CYXE;2005-04-29 16:00;METAR CYXE 291600Z 29015KT 5SM -SHSN BKN020 OVC050 M03/M07 A2996 RMK CU6SC2 SLP175=

CYXE;2005-04-29 17:00;METAR CYXE 291700Z 31015G20KT 8SM -SHSN BKN025 BKN060 OVC250 M02/M07 A2996 RMK CU5SC2CI0 SLP175=

CYXE;2005-04-29 18:00;METAR CYXE 291800Z 32018KT 5SM -SHSN BKN025 OVC060 M02/M07 A2995 RMK CU7SC1 SLP173=

CYXE;2005-04-29 18:19;SPECI CYXE 291819Z 30014G19KT 2SM -SHSNGS OVC025 RMK SN1SC7=

CYXE;2005-04-29 18:24;SPECI CYXE 291824Z 31011G18KT 3SM -SHSN BKN025 BKN060 OVC250 RMK CU6SC2CI1=

CYXE;2005-04-29 19:00;METAR CYXE 291900Z 32015G20KT 5SM -SHSN BKN030 BKN060 OVC250 M01/M05 A2995 RMK CU6SC1CI2 SLP173=

CYXE;2005-04-29 20:00;METAR CYXE 292000Z 33016KT 10SM -SN SCT030 OVC065 M01/M07 A2996 RMK SC4SC4 SLP174=

CYXE;2005-04-29 21:00;METAR CYXE 292100Z 34014G19KT 10SM -SN BKN020 OVC050 M00/M06 A2997 RMK SC6SC2 SLP177=

CYXE;2005-04-29 22:00;METAR CYXE 292200Z 34015KT 12SM -SN OVC028 M01/M08 A2997 RMK SC8 SLP178=

CYXE;2005-04-29 22:33;SPECI CYXE 292233Z 34017KT 12SM BKN030 OVC050 RMK SC6SC2=

CYXE;2005-04-29 23:00;METAR CYXE 292300Z 32013G18KT 6SM -SN BKN018 OVC050 M00/M07 A2998 RMK SC5SC3 SLP181=

CYXE;2005-04-29 23:37;SPECI CYXE 292337Z 34014KT 1SM R09/P6000FT/N -SN BKN015 OVC050 RMK SN3SC3SC2=

CYXE;2005-04-30 00:00;METAR CYXE 300000Z 33015KT 2 1/2SM -SN FEW008 BKN030 OVC050 M02/M05 A3000 RMK SF2SC4SC2 SLP188=

CYXE;2005-04-30 00:29;SPECI CYXE 300029Z 35013KT 5SM -SN BKN017 OVC050 RMK SC6SC2=

CYXE;2005-04-30 01:00;METAR CYXE 300100Z 35011G17KT 4SM -SN BKN015 OVC060 M02/M06 A3001 RMK SC5SC3 SLP192=

CYXE;2005-04-30 01:18;SPECI CYXE 300118Z 01011G17KT 2SM -SN OVC020 RMK SC8=

CYXE;2005-04-30 02:00;METAR CYXE 300200Z 01012KT 5SM -SN FEW010 BKN020 OVC060 M03/M07 A3003 RMK SF2SC4SC2 SLP197=

CYXE;2005-04-30 03:00;METAR CYXE 300300Z 36013KT 15SM -SN FEW020 OVC029 M03/M07 A3005 RMK SC2SC6 SLP206=

CYXE;2005-04-30 04:00;METAR CYXE 300400Z 36011KT 12SM -SN FEW010 OVC037 M04/M07 A3006 RMK SC2SC6 SLP211=

CYXE;2005-04-30 05:00;METAR CYXE 300500Z 35012KT 7SM -SN FEW010 OVC032 M04/M07 A3008 RMK SC2SC6 SLP215=

CYXE;2005-04-30 06:00;METAR CYXE 300600Z 35011KT 8SM -SN OVC037 M05/M07 A3008 RMK SC6 SLP219=

CYXE;2005-04-30 07:00;METAR CYXE 300700Z 34008KT 15SM -SN BKN037 M05/M07 A3010 RMK SC6 SLP223=

CYXE;2005-04-30 08:00;METAR CYXE 300800Z 33011KT 5SM -SN OVC038 M05/M07 A3011 RMK SC8 SLP227=

CYXE;2005-04-30 09:00;METAR CYXE 300900Z 34013KT 3SM -SN OVC035 M05/M07 A3012 RMK SN2SC6 SLP230=

CYXE;2005-04-30 10:00;METAR CYXE 301000Z 34009KT 10SM -SN BKN040 OVC080 M05/M08 A3014 RMK SC6AC2 SLP236=

CYXE;2005-04-30 10:36;SPECI CYXE 301036Z 35011KT 12SM -SN FEW018 BKN030 OVC080 RMK SC2SC2AC2=

CYXE;2005-04-30 11:00;METAR CYXE 301100Z 36011KT 15SM -SN BKN022 OVC080 M05/M07 A3015 RMK SC6AC2 SLP240=

CYXE;2005-04-30 11:45;SPECI CYXE 301145Z 35011KT 1 1/2SM -SN VV012 RMK SN8=

CYXE;2005-04-30 12:00;METAR CYXE 301200Z 35012KT 2SM -SN OVC015 M04/M07 A3017 RMK SN5SC3 SLP247=

CYXE;2005-04-30 12:20;SPECI CYXE 301220Z 35012KT 8SM -SN BKN015 OVC050 RMK SC5SC3=

CYXE;2005-04-30 13:00;METAR CYXE 301300Z 35014KT 8SM -SN FEW025 BKN035 OVC080 M04/M07 A3019 RMK SC2SC6AC1 SLP254=

CYXE;2005-04-30 13:49;SPECI CYXE 301349Z 35015KT 15SM FEW017 SCT040 OVC085 RMK SC2SC2AC2=

CYXE;2005-04-30 14:00;METAR CYXE 301400Z 35014KT 5SM -SN BKN017 BKN120 M04/M07 A3021 RMK SC5AC1 SLP261=

CYXE;2005-04-30 15:00;METAR CYXE 301500Z 35014KT 8SM -SN BKN017 OVC100 M03/M07 A3022 RMK SC7AC1 SLP266=

CYXE;2005-04-30 16:00;METAR CYXE 301600Z 34013G18KT 8SM -SN OVC017 M02/M07 A3023 RMK SC8 SLP269=

CYXE;2005-04-30 17:00;METAR CYXE 301700Z 35016KT 10SM -SN OVC019 M02/M06 A3024 RMK SC8 SLP273=

CYXE;2005-04-30 17:39;SPECI CYXE 301739Z 36011G16KT 15SM OVC023 RMK SC8=

CYXE;2005-04-30 18:00;METAR CYXE 301800Z 36014KT 15SM OVC023 M00/M06 A3025 RMK SC8 SLP273=

CYXE;2005-04-30 19:00;METAR CYXE 301900Z 34014KT 15SM OVC024 00/M06 A3026 RMK SC8 SLP276=

CYXE;2005-04-30 20:00;METAR CYXE 302000Z 34012KT 15SM OVC026 01/M07 A3027 RMK SC8 SLP280=

CYXE;2005-04-30 21:00;METAR CYXE 302100Z 35013KT 15SM OVC030 01/M06 A3028 RMK SC8 SLP284=

CYXE;2005-04-30 22:00;METAR CYXE 302200Z 36016KT 15SM OVC030 01/M07 A3029 RMK SC8 SLP288=

CYXE;2005-04-30 23:00;METAR CYXE 302300Z 35013KT 15SM BKN032 01/M07 A3029 RMK SC6 SLP288=

CYXE;2005-04-30 23:50;SPECI CYXE 302350Z 35011G16KT 15SM -SHSN BKN036 RMK SC7=

CYXE;2005-05-01 00:00;METAR CYXE 010000Z 36013KT 15SM -SHSN BKN036 01/M07 A3029 RMK SC7 SLP287=

CYXE;2005-05-01 01:00;METAR CYXE 010100Z 35011KT 15SM FEW025 OVC036 02/M08 A3030 RMK SC2SC6 SLP289=

CYXE;2005-05-01 02:00;METAR CYXE 010200Z 36011G17KT 15SM BKN039 OVC048 01/M07 A3030 RMK SC5SC2 SLP292=

CYXE;2005-05-01 03:00;METAR CYXE 010300Z 36014G19KT 15SM OVC045 00/M07 A3032 RMK SC8 SLP299=

CYXE;2005-05-01 04:00;METAR CYXE 010400Z 36013KT 15SM OVC042 M00/M06 A3034 RMK SC8 SLP304=

CYXE;2005-05-01 05:00;METAR CYXE 010500Z 01015KT 15SM SCT043 OVC074 M00/M06 A3034 RMK SC4AC4 SLP306=

CYXE;2005-05-01 06:00;METAR CYXE 010600Z 35009KT 15SM FEW045 OVC072 M01/M06 A3034 RMK SC2AC6 SLP305=

CYXE;2005-05-01 07:00;METAR CYXE 010700Z 33011KT 15SM OVC050 M01/M06 A3034 RMK SC8 SLP305=

CYXE;2005-05-01 08:00;METAR CYXE 010800Z 32009KT 15SM OVC045 M01/M06 A3034 RMK SC8 SLP304=

CYXE;2005-05-01 09:00;METAR CYXE 010900Z 32010KT 15SM OVC035 M01/M06 A3035 RMK SC8 SLP306=

CYXE;2005-05-01 10:00;METAR CYXE 011000Z 35014KT 15SM OVC033 M00/M07 A3035 RMK SC8 SLP308=

CYXE;2005-05-01 10:50;SPECI CYXE 011050Z 36015KT 15SM -SN OVC035 RMK SC8=

CYXE;2005-05-01 11:00;METAR CYXE 011100Z 35015KT 15SM -SN OVC035 M01/M07 A3036 RMK SC8 SLP311=

CYXE;2005-05-01 11:16;SPECI CYXE 011116Z 35012G18KT 15SM OVC035 RMK SC8=

CYXE;2005-05-01 12:00;METAR CYXE 011200Z 36014KT 15SM OVC032 M01/M07 A3038 RMK SC8 SLP316=

CYXE;2005-05-01 13:00;METAR CYXE 011300Z 01009KT 15SM BKN025 BKN055 M01/M06 A3039 RMK SC6SC1 SLP321=

CYXE;2005-05-01 14:00;METAR CYXE 011400Z 36014KT 15SM BKN024 M01/M07 A3040 RMK SC7 SLP324=

CYXE;2005-05-01 15:00;METAR CYXE 011500Z 34013KT 15SM BKN026 M00/M08 A3041 RMK SC7 SLP326=

CYXE;2005-05-01 16:00;METAR CYXE 011600Z 36016KT 15SM SCT030 01/M08 A3040 RMK SC4 SLP325=

CYXE;2005-05-01 17:00;METAR CYXE 011700Z 33015KT 15SM BKN036 03/M08 A3039 RMK CU5 SLP321=

CYXE;2005-05-01 18:00;METAR CYXE 011800Z 35011G17KT 15SM SCT040 04/M07 A3039 RMK CU4 SLP317=

CYXE;2005-05-01 19:00;METAR CYXE 011900Z 33014G20KT 15SM FEW045 04/M09 A3037 RMK CU2 SLP312=

CYXE;2005-05-01 20:00;METAR CYXE 012000Z 33013KT 15SM SCT050 05/M08 A3037 RMK CU4 SLP311=

CYXE;2005-05-01 21:00;METAR CYXE 012100Z 35012G20KT 15SM FEW050 06/M08 A3037 RMK CU2 SLP309=

CYXE;2005-05-01 22:00;METAR CYXE 012200Z 36012G21KT 15SM FEW057 06/M11 A3036 RMK CU2 SLP306=

CYXE;2005-05-01 23:00;METAR CYXE 012300Z 34015KT 15SM FEW057 06/M14 A3035 RMK CU1 SLP304=

CYXE;2005-05-02 00:00;METAR CYXE 020000Z 36013G18KT 15SM FEW057 FEW220 06/M15 A3035 RMK CU1CI1 SLP304=

CYXE;2005-05-02 01:00;METAR CYXE 020100Z 01013KT 15SM FEW057 FEW220 05/M17 A3034 RMK CU1CI1 SLP302=

CYXE;2005-05-02 02:00;METAR CYXE 020200Z 02012KT 15SM FEW050 FEW220 03/M15 A3035 RMK CU1CI1 SLP303=

CYXE;2005-05-02 03:00;METAR CYXE 020300Z 36008KT 15SM FEW050 FEW220 M02/M14 A3035 RMK SC1CI1 SLP308=

CYXE;2005-05-02 04:00;METAR CYXE 020400Z 36008KT 15SM FEW050 FEW220 M04/M12 A3036 RMK SC1CI1 SLP310=

CYXE;2005-05-02 05:00;METAR CYXE 020500Z 01009KT 15SM SKC M05/M12 A3036 RMK SLP310=

CYXE;2005-05-02 06:00;METAR CYXE 020600Z 02007KT 15SM SKC M05/M12 A3036 RMK SLP311=

CYXE;2005-05-02 07:00;METAR CYXE 020700Z 01005KT 15SM SKC M06/M12 A3037 RMK SLP312=

CYXE;2005-05-02 08:00;METAR CYXE 020800Z 31004KT 15SM SKC M06/M11 A3037 RMK SLP313=

CYXE;2005-05-02 09:00;METAR CYXE 020900Z 32003KT 15SM SKC M07/M11 A3037 RMK SLP314=

CYXE;2005-05-02 10:00;METAR CYXE 021000Z 32005KT 15SM SKC M07/M11 A3037 RMK SLP314=

CYXE;2005-05-02 11:00;METAR CYXE 021100Z 32005KT 15SM SCT250 M08/M11 A3037 RMK CI1 SLP314=

CYXE;2005-05-02 12:00;METAR CYXE 021200Z 30002KT 15SM FEW250 M08/M10 A3037 RMK CI1 SLP313=

CYXE;2005-05-02 13:00;METAR CYXE 021300Z 36003KT 15SM FEW250 M05/M09 A3037 RMK CI1 SLP315=

CYXE;2005-05-02 14:00;METAR CYXE 021400Z 03002KT 15SM FEW250 M02/M11 A3037 RMK CI1 SLP315=

CYXE;2005-05-02 15:00;METAR CYXE 021500Z 32003KT 15SM FEW250 01/M14 A3037 RMK CI0 SLP312=

CYXE;2005-05-02 16:00;METAR CYXE 021600Z 28006KT 15SM FEW250 03/M15 A3036 RMK CI1 SLP309=

CYXE;2005-05-02 17:00;METAR CYXE 021700Z 02004KT 15SM FEW250 04/M15 A3034 RMK CI1 SLP305=

CYXE;2005-05-02 18:00;METAR CYXE 021800Z 03004KT 15SM FEW250 04/M15 A3033 RMK CI1 SLP298=

CYXE;2005-05-02 19:00;METAR CYXE 021900Z 29004KT 15SM SKC 06/M15 A3030 RMK SLP291=

CYXE;2005-05-02 20:00;METAR CYXE 022000Z 29006KT 15SM SKC 07/M14 A3029 RMK SLP285=

CYXE;2005-05-02 21:00;METAR CYXE 022100Z 32003KT 15SM SKC 07/M15 A3027 RMK SLP278=

CYXE;2005-05-02 22:00;METAR CYXE 022200Z 30006KT 15SM SKC 08/M15 A3025 RMK SLP271=

CYXE;2005-05-02 23:00;METAR CYXE 022300Z 30004KT 15SM SKC 08/M15 A3023 RMK SLP265=

CYXE;2005-05-03 00:00;METAR CYXE 030000Z 30006KT 15SM SKC 08/M16 A3021 RMK SLP257=

CYXE;2005-05-03 01:00;METAR CYXE 030100Z 31004KT 15SM SKC 08/M15 A3019 RMK SLP250=

CYXE;2005-05-03 02:00;METAR CYXE 030200Z 30005KT 15SM SKC 06/M14 A3017 RMK SLP246=

CYXE;2005-05-03 03:00;METAR CYXE 030300Z 28005KT 15SM SKC 04/M12 A3017 RMK SLP241=

CYXE;2005-05-03 04:00;METAR CYXE 030400Z 27005KT 15SM SKC 02/M06 A3017 RMK SLP240=

CYXE;2005-05-03 05:00;METAR CYXE 030500Z 25006KT 15SM SKC 00/M08 A3016 RMK SLP238=

CYXE;2005-05-03 06:00;METAR CYXE 030600Z 24006KT 15SM SKC M00/M08 A3015 RMK SLP235=

CYXE;2005-05-03 07:00;METAR CYXE 030700Z 23005KT 15SM SKC M01/M07 A3014 RMK SLP232=

CYXE;2005-05-03 08:00;METAR CYXE 030800Z 22002KT 15SM SKC M03/M09 A3013 RMK SLP230=

CYXE;2005-05-03 10:00;METAR CYXE 031000Z 18002KT 15SM SKC M03/M10 A3012 RMK SLP225=

CYXE;2005-05-03 11:00;METAR CYXE 031100Z 21004KT 15SM SKC M04/M10 A3011 RMK SLP222=

CYXE;2005-05-03 12:00;METAR CYXE 031200Z 21005KT 15SM SKC M04/M10 A3010 RMK SLP218=

CYXE;2005-05-03 13:00;METAR CYXE 031300Z 19003KT 15SM SKC M02/M08 A3009 RMK SLP216=

CYXE;2005-05-03 14:00;METAR CYXE 031400Z 22006KT 15SM SKC 02/M10 A3008 RMK SLP213=

CYXE;2005-05-03 15:00;METAR CYXE 031500Z 23006KT 15SM SKC 06/M09 A3007 RMK SLP205=

CYXE;2005-05-03 16:00;METAR CYXE 031600Z 24009KT 15SM SKC 09/M09 A3006 RMK SLP200=

CYXE;2005-05-03 17:00;METAR CYXE 031700Z 25009KT 15SM SKC 11/M08 A3003 RMK SLP193=

CYXE;2005-05-03 18:00;METAR CYXE 031800Z 29005KT 15SM SKC 11/M08 A3001 RMK SLP183=

CYXE;2005-05-03 19:00;METAR CYXE 031900Z 23006KT 15SM SKC 13/M08 A2999 RMK SLP175=

CYXE;2005-05-03 20:00;METAR CYXE 032000Z 24007KT 15SM FEW300 13/M08 A2996 RMK CI1 SLP167=

CYXE;2005-05-03 21:00;METAR CYXE 032100Z 26008G15KT 15SM SCT300 14/M07 A2994 RMK CI1 SLP160=

CYXE;2005-05-03 22:00;METAR CYXE 032200Z 24006KT 15SM BKN300 14/M07 A2991 RMK CI4 SLP151=

CYXE;2005-05-03 23:00;METAR CYXE 032300Z 16003KT 15SM SCT300 15/M08 A2990 RMK CI2 SLP145=

CYXE;2005-05-04 00:00;METAR CYXE 040000Z 22004KT 15SM BKN300 14/M09 A2988 RMK CI3 SLP138=

CYXE;2005-05-04 01:00;METAR CYXE 040100Z 24003KT 15SM FEW120 BKN280 14/M09 A2986 RMK AC2CI3 SLP133=

CYXE;2005-05-04 02:00;METAR CYXE 040200Z 00000KT 15SM BKN090 OVC280 13/M08 A2986 RMK AC5CI2 SLP131=

CYXE;2005-05-04 03:00;METAR CYXE 040300Z 07002KT 15SM SCT090 BKN120 OVC250 12/M08 A2986 RMK AS2AC2CI2 SLP125=

CYXE;2005-05-04 04:00;METAR CYXE 040400Z 10005KT 15SM FEW090 FEW120 SCT250 08/M04 A2985 RMK AS1AC2CI1 SLP123=

CYXE;2005-05-04 05:00;METAR CYXE 040500Z 09006KT 15SM FEW120 SCT250 06/M04 A2984 RMK AC1CI1 SLP120=

CYXE;2005-05-04 06:00;METAR CYXE 040600Z 12006KT 15SM BKN120 07/M05 A2983 RMK AC3 SLP116=

CYXE;2005-05-04 07:00;METAR CYXE 040700Z 14006KT 15SM BKN085 07/M05 A2984 RMK AC6 SLP119=

CYXE;2005-05-04 08:00;METAR CYXE 040800Z 08008KT 15SM BKN068 07/M04 A2982 RMK AC7 SLP113=

CYXE;2005-05-04 09:00;METAR CYXE 040900Z 14005KT 15SM BKN076 07/M05 A2981 RMK AC6 SLP108=

CYXE;2005-05-04 10:00;METAR CYXE 041000Z 08008KT 15SM BKN088 06/M05 A2980 RMK AC6 SLP106=

CYXE;2005-05-04 11:00;METAR CYXE 041100Z 08005KT 15SM OVC086 07/M05 A2980 RMK AC7 SLP104=

CYXE;2005-05-04 12:00;METAR CYXE 041200Z 12003KT 15SM BKN074 08/M05 A2980 RMK AC7 SLP103=

CYXE;2005-05-04 13:00;METAR CYXE 041300Z 00000KT 15SM SCT077 BKN300 08/M04 A2980 RMK AC2CI1 SLP103=

CYXE;2005-05-04 15:00;METAR CYXE 041500Z 17007KT 15SM FEW090 BKN250 12/M03 A2979 RMK AC1CI2 SLP101=

CYXE;2005-05-04 16:00;METAR CYXE 041600Z 20006KT 15SM FEW090 BKN250 14/M03 A2980 RMK AC1CI2 SLP102=

CYXE;2005-05-04 17:00;METAR CYXE 041700Z 23007KT 15SM FEW110 FEW250 16/M01 A2980 RMK AC1CI0 SLP103=

CYXE;2005-05-04 18:00;METAR CYXE 041800Z 00000KT 15SM FEW070 FEW250 16/M02 A2980 RMK CU1CI1 SLP104=

CYXE;2005-05-04 19:00;METAR CYXE 041900Z 34004KT 15SM FEW070 17/M01 A2980 RMK CU1 SLP102=

CYXE;2005-05-04 20:00;METAR CYXE 042000Z 33011KT 15SM FEW080 18/M02 A2979 RMK CU2 SLP101=

CYXE;2005-05-05 00:00;METAR CYXE 050000Z 02014KT 15SM BKN082 15/M03 A2989 RMK AC5 SLP135=

CYXE;2005-05-05 01:00;METAR CYXE 050100Z 03016KT 15SM SCT082 OVC250 16/M02 A2990 RMK AC4CI0 SLP139=

CYXE;2005-05-05 02:00;METAR CYXE 050200Z 35007KT 15SM SCT096 BKN250 13/M02 A2992 RMK AC3CI0 SLP145=

CYXE;2005-05-05 03:00;METAR CYXE 050300Z 34006KT 15SM FEW096 SCT250 09/M01 A2994 RMK AC2CI0 SLP153=

CYXE;2005-05-05 04:00;METAR CYXE 050400Z 34005KT 15SM FEW096 08/M00 A2996 RMK AC1 SLP159=

CYXE;2005-05-05 05:00;METAR CYXE 050500Z 33003KT 15SM SKC 05/02 A2998 RMK SLP164=

CYXE;2005-05-05 06:00;METAR CYXE 050600Z 00000KT 15SM SKC 06/M01 A2999 RMK SLP168=

CYXE;2005-05-05 07:00;METAR CYXE 050700Z 22005KT 15SM SKC 07/M02 A2999 RMK SLP170=

CYXE;2005-05-05 08:00;METAR CYXE 050800Z 23006KT 15SM SKC 04/00 A2999 RMK SLP171=

CYXE;2005-05-05 09:00;METAR CYXE 050900Z 25007KT 15SM SKC 03/M01 A3000 RMK SLP174=

CYXE;2005-05-05 10:00;METAR CYXE 051000Z 25005KT 15SM SKC 02/M01 A3002 RMK SLP178=

CYXE;2005-05-05 11:00;METAR CYXE 051100Z 22005KT 15SM SKC 02/M02 A3003 RMK SLP181=

CYXE;2005-05-05 12:00;METAR CYXE 051200Z 22006KT 15SM SKC 01/M02 A3004 RMK SLP189=

CYXE;2005-05-05 13:00;METAR CYXE 051300Z 22006KT 15SM SKC 05/M01 A3004 RMK SLP191=

CYXE;2005-05-05 14:00;METAR CYXE 051400Z 24009KT 15SM SKC 10/01 A3005 RMK SLP193=

CYXE;2005-05-05 15:00;METAR CYXE 051500Z 23009KT 15SM FEW250 13/02 A3005 RMK CI0 SLP189=

CYXE;2005-05-05 16:00;METAR CYXE 051600Z 23012KT 15SM FEW250 16/00 A3004 RMK CI0 SLP187=

CYXE;2005-05-05 17:00;METAR CYXE 051700Z 23009KT 15SM FEW080 FEW250 17/M03 A3003 RMK CU1CI0 SLP185=

CYXE;2005-05-05 18:00;METAR CYXE 051800Z 26004KT 15SM FEW088 SCT250 18/M04 A3003 RMK CU1CI1 SLP181=

CYXE;2005-05-05 19:00;METAR CYXE 051900Z 19011G17KT 15SM FEW091 BKN250 18/M05 A3001 RMK CU1CI1 SLP175=

CYXE;2005-05-05 20:00;METAR CYXE 052000Z 14010G17KT 15SM FEW093 BKN250 19/M05 A2999 RMK CU1CI2 SLP170=

CYXE;2005-05-05 21:00;METAR CYXE 052100Z 21008G15KT 15SM FEW093 BKN250 19/M05 A2998 RMK CU1CI2 SLP166=

CYXE;2005-05-05 22:00;METAR CYXE 052200Z 15006KT 15SM FEW090 FEW250 19/M05 A2997 RMK CU1CI1 SLP161=

CYXE;2005-05-05 23:00;METAR CYXE 052300Z 20013G18KT 15SM FEW090 FEW250 20/M05 A2996 RMK CU1CI1 SLP158=

CYXE;2005-05-06 00:00;METAR CYXE 060000Z 20011G17KT 15SM FEW250 19/M06 A2995 RMK CI2 SLP156=

CYXE;2005-05-06 01:00;METAR CYXE 060100Z 19011KT 15SM FEW250 18/M06 A2993 RMK CI1 SLP151=

CYXE;2005-05-06 02:00;METAR CYXE 060200Z 19008KT 15SM BKN250 17/M06 A2993 RMK CI2 COTRA SLP150=

CYXE;2005-05-06 03:00;METAR CYXE 060300Z 17007KT 15SM SCT250 13/M05 A2993 RMK CI1 SLP145=

CYXE;2005-05-06 04:00;METAR CYXE 060400Z 16010KT 15SM BKN250 13/M05 A2992 RMK CI2 SLP143=

CYXE;2005-05-06 05:00;METAR CYXE 060500Z 15012KT 15SM SCT250 13/M05 A2991 RMK CI1 SLP140=

CYXE;2005-05-06 06:00;METAR CYXE 060600Z 16012KT 15SM FEW250 12/M05 A2990 RMK CI1 SLP134=

CYXE;2005-05-06 08:00;METAR CYXE 060800Z 15013G18KT 15SM SKC 11/M05 A2989 RMK SLP129=

CYXE;2005-05-06 09:00;METAR CYXE 060900Z 16011KT 15SM SKC 10/M06 A2987 RMK SLP125=

CYXE;2005-05-06 10:00;METAR CYXE 061000Z 16012KT 15SM SKC 10/M06 A2986 RMK SLP122=

CYXE;2005-05-06 11:00;METAR CYXE 061100Z 14010KT 15SM SCT300 09/M07 A2985 RMK CI2 SLP118=

CYXE;2005-05-06 12:00;METAR CYXE 061200Z 15013KT 15SM BKN300 10/M07 A2984 RMK CS4 SLP113=

CYXE;2005-05-06 13:00;METAR CYXE 061300Z 15012G17KT 15SM SCT130 OVC300 12/M06 A2983 RMK AC2CS5 SLP109=

CYXE;2005-05-06 14:00;METAR CYXE 061400Z 16013G20KT 15SM SCT095 OVC300 13/M05 A2982 RMK AC2CS5 SLP107=

CYXE;2005-05-06 15:00;METAR CYXE 061500Z 17020G27KT 15SM SCT085 OVC300 15/M05 A2980 RMK AC3CS3 SLP102=

CYXE;2005-05-06 16:00;METAR CYXE 061600Z 16022G30KT 15SM SCT090 OVC300 16/M05 A2979 RMK AC4CS3 SLP097=

CYXE;2005-05-06 17:00;METAR CYXE 061700Z 17021G27KT 15SM BKN095 OVC300 18/M04 A2977 RMK AC5CS2 SLP093=

CYXE;2005-05-06 18:00;METAR CYXE 061800Z 17024G29KT 15SM FEW095 OVC300 18/M01 A2976 RMK AC2CI5 SLP085=

CYXE;2005-05-06 19:00;METAR CYXE 061900Z 17024G29KT 15SM FEW100 OVC300 17/M00 A2976 RMK AC2CS6 SLP086=

CYXE;2005-05-06 19:27;SPECI CYXE 061927Z 18024G33KT 15SM -SHRA BKN100 OVC300 RMK AC5CS3 CVCTV CLD EMBDD=

CYXE;2005-05-06 20:00;METAR CYXE 062000Z 17017G25KT 10SM -SHRA FEW020 BKN055 OVC100 11/06 A2977 RMK SC2SC4AC2 SLP090=

CYXE;2005-05-06 21:00;METAR CYXE 062100Z 15013G20KT 8SM -RA SCT020 OVC068 10/08 A2977 RMK SC3AC5 SLP094=

CYXE;2005-05-06 22:00;METAR CYXE 062200Z 13017G24KT 8SM -RA BKN020 OVC050 11/07 A2974 RMK SC6SC2 SLP084=

CYXE;2005-05-06 23:00;METAR CYXE 062300Z 12016KT 8SM -RA FEW020 OVC060 11/07 A2972 RMK SC2SC6 SLP077=

CYXE;2005-05-06 23:15;SPECI CYXE 062315Z 12020KT 12SM FEW020 OVC060 RMK SC2SC6=

CYXE;2005-05-06 23:34;SPECI CYXE 062334Z 12018G27KT 8SM -RA FEW020 OVC060 RMK SC2SC6=

CYXE;2005-05-07 00:00;METAR CYXE 070000Z 12016G25KT 6SM -RA SCT020 OVC060 10/07 A2971 RMK SC4SC4 SLP075=

CYXE;2005-05-07 01:00;METAR CYXE 070100Z 10018KT 12SM FEW020 OVC060 11/06 A2968 RMK SC2SC6 SLP065=

CYXE;2005-05-07 02:00;METAR CYXE 070200Z 09016KT 15SM BKN060 10/06 A2967 RMK SC7 SLP060=

CYXE;2005-05-07 03:00;METAR CYXE 070300Z 10016KT 15SM OVC060 11/05 A2966 RMK SC8 SLP055=

CYXE;2005-05-07 04:00;METAR CYXE 070400Z 10013KT 15SM OVC080 11/05 A2966 RMK AC8 SLP055=

CYXE;2005-05-07 05:00;METAR CYXE 070500Z 09011KT 15SM OVC080 11/05 A2966 RMK AC8 SLP055=

CYXE;2005-05-07 06:00;METAR CYXE 070600Z 09010KT 15SM OVC085 10/05 A2965 RMK AC8 SLP049=

CYXE;2005-05-07 07:00;METAR CYXE 070700Z 09010KT 15SM BKN087 10/04 A2964 RMK AC7 SLP046=

CYXE;2005-05-07 08:00;METAR CYXE 070800Z 06010KT 15SM OVC085 10/05 A2964 RMK AC8 SLP045=

CYXE;2005-05-07 09:00;METAR CYXE 070900Z 06010KT 15SM SCT083 08/04 A2963 RMK AC3 SLP048=

CYXE;2005-05-07 10:00;METAR CYXE 071000Z 06009KT 15SM SCT083 07/04 A2962 RMK AC3 SLP046=

CYXE;2005-05-07 11:00;METAR CYXE 071100Z 04010KT 15SM FEW083 BKN250 06/04 A2963 RMK AC2CI1 SLP050=

CYXE;2005-05-07 12:00;METAR CYXE 071200Z 06011KT 15SM FEW083 BKN250 06/04 A2964 RMK AC1CI2 SLP052=

CYXE;2005-05-07 13:00;METAR CYXE 071300Z 05012KT 15SM SCT250 08/05 A2965 RMK CI2 SLP055=

CYXE;2005-05-07 14:00;METAR CYXE 071400Z 05012KT 15SM FEW250 10/05 A2967 RMK CI1 SLP062=

CYXE;2005-05-07 15:00;METAR CYXE 071500Z 04016KT 15SM FEW250 11/05 A2968 RMK CI1 SLP061=

CYXE;2005-05-07 16:00;METAR CYXE 071600Z 05016KT 15SM FEW120 SCT250 12/05 A2969 RMK AC1CI1 SLP065=

CYXE;2005-05-07 17:00;METAR CYXE 071700Z 04018G24KT 15SM FEW120 SCT250 14/05 A2968 RMK AC1CI0 SLP064=

CYXE;2005-05-07 18:00;METAR CYXE 071800Z 04019G24KT 15SM FEW040 SCT100 BKN250 16/05 A2970 RMK CF1AC2CI0 SLP067=

CYXE;2005-05-07 19:00;METAR CYXE 071900Z 03020G25KT 15SM FEW040 BKN075 BKN250 16/05 A2970 RMK CU1AC5CI1 SLP069=

CYXE;2005-05-07 20:00;METAR CYXE 072000Z 03018G26KT 15SM FEW040 BKN065 OVC090 15/06 A2973 RMK CU2SC6AC1 SLP077=

CYXE;2005-05-07 21:00;METAR CYXE 072100Z 03018G29KT 15SM FEW040 BKN060 OVC085 14/05 A2975 RMK CU1SC6AC2 SLP085=

CYXE;2005-05-07 22:00;METAR CYXE 072200Z 04022KT 15SM FEW030 OVC048 15/05 A2976 RMK SC2SC6 SLP090=

CYXE;2005-05-07 23:00;METAR CYXE 072300Z 04019G25KT 15SM FEW040 BKN060 15/05 A2978 RMK CU2SC5 SLP095=

CYXE;2005-05-08 00:00;METAR CYXE 080000Z 03017KT 15SM BKN038 BKN060 14/05 A2978 RMK SC5SC2 SLP100=

CYXE;2005-05-08 01:00;METAR CYXE 080100Z 03017KT 15SM BKN035 OVC080 13/06 A2980 RMK SC6AC2 SLP104=

CYXE;2005-05-08 02:00;METAR CYXE 080200Z 03013G18KT 15SM OVC040 13/05 A2983 RMK SC8 SLP114=

CYXE;2005-05-08 03:00;METAR CYXE 080300Z 02012KT 15SM OVC043 12/05 A2986 RMK SC8 SLP122=

CYXE;2005-05-08 04:00;METAR CYXE 080400Z 02011KT 15SM OVC045 11/04 A2988 RMK SC8 SLP130=

CYXE;2005-05-08 05:00;METAR CYXE 080500Z 01011KT 15SM OVC050 10/04 A2989 RMK SC8 SLP134=

CYXE;2005-05-08 06:00;METAR CYXE 080600Z 36014KT 15SM SCT061 08/04 A2990 RMK SC3 SLP137=

CYXE;2005-05-08 07:00;METAR CYXE 080700Z 01012KT 15SM BKN056 07/04 A2992 RMK SC6 SLP143=

CYXE;2005-05-08 08:00;METAR CYXE 080800Z 02014KT 15SM OVC056 07/04 A2992 RMK SC8 SLP144=

CYXE;2005-05-08 09:00;METAR CYXE 080900Z 02013KT 15SM OVC054 07/04 A2994 RMK SC8 SLP152=

CYXE;2005-05-08 10:00;METAR CYXE 081000Z 02010KT 15SM OVC054 07/04 A2996 RMK SC8 SLP158=

CYXE;2005-05-08 11:00;METAR CYXE 081100Z 03013KT 15SM OVC048 06/03 A2997 RMK SC8 SLP161=

CYXE;2005-05-08 12:00;METAR CYXE 081200Z 03013KT 15SM OVC058 06/03 A2999 RMK SC7 SLP170=

CYXE;2005-05-08 13:00;METAR CYXE 081300Z 03013KT 15SM OVC054 06/03 A3001 RMK SC7 SLP176=

CYXE;2005-05-08 14:00;METAR CYXE 081400Z 03014KT 15SM BKN060 OVC250 07/03 A3002 RMK SC7CI0 SLP180=

CYXE;2005-05-08 15:00;METAR CYXE 081500Z 03013KT 15SM BKN063 BKN250 09/04 A3003 RMK SC6CI0 SLP182=

CYXE;2005-05-08 16:00;METAR CYXE 081600Z 03008KT 15SM SCT065 SCT250 12/05 A3003 RMK SC2CI0 SLP184=

CYXE;2005-05-08 17:00;METAR CYXE 081700Z 05011G16KT 15SM FEW040 FEW080 SCT250 14/04 A3003 RMK CU1AC1CI0 SLP185=

CYXE;2005-05-08 18:00;METAR CYXE 081800Z 06012G17KT 15SM SCT045 SCT280 15/04 A3003 RMK CU3CI0 SLP182=

CYXE;2005-05-08 19:00;METAR CYXE 081900Z 04011G18KT 15SM BKN055 BKN280 15/02 A3002 RMK CU6CI0 SLP180=

CYXE;2005-05-08 20:00;METAR CYXE 082000Z 07013KT 15SM BKN058 17/02 A3001 RMK CU6 SLP177=

CYXE;2005-05-08 21:00;METAR CYXE 082100Z 36011KT 15SM BKN060 17/02 A3001 RMK CU6 SLP174=

CYXE;2005-05-08 22:00;METAR CYXE 082200Z 05013KT 15SM SCT060 17/01 A3000 RMK CU4 SLP171=

CYXE;2005-05-08 23:00;METAR CYXE 082300Z 04011KT 15SM BKN065 17/01 A3000 RMK CU5 SLP171=

CYXE;2005-05-09 00:00;METAR CYXE 090000Z 04006KT 15SM BKN065 17/01 A2999 RMK CU5 SLP168=

CYXE;2005-05-09 01:00;METAR CYXE 090100Z 35003KT 15SM SCT060 16/01 A2998 RMK CU4 SLP164=

CYXE;2005-05-09 02:00;METAR CYXE 090200Z 04005KT 15SM SCT060 BKN250 14/02 A2997 RMK CU3CI1 SLP163=

CYXE;2005-05-09 03:00;METAR CYXE 090300Z 04002KT 15SM SCT070 13/01 A2998 RMK AC4 SLP165=

CYXE;2005-05-09 04:00;METAR CYXE 090400Z 05004KT 15SM SCT070 09/01 A2999 RMK AC4 SLP167=

CYXE;2005-05-09 05:00;METAR CYXE 090500Z 07005KT 15SM SCT070 08/01 A2998 RMK AC3 SLP165=

CYXE;2005-05-09 06:00;METAR CYXE 090600Z 07004KT 15SM FEW070 06/M01 A2998 RMK AC2 SLP166=

CYXE;2005-05-09 07:00;METAR CYXE 090700Z 05005KT 15SM FEW070 03/M02 A2997 RMK AC1 SLP163=

CYXE;2005-05-09 08:00;METAR CYXE 090800Z 06005KT 15SM SKC 03/M02 A2996 RMK SLP161=

CYXE;2005-05-09 09:00;METAR CYXE 090900Z 06004KT 15SM SKC 04/M01 A2996 RMK SLP161=

CYXE;2005-05-09 10:00;METAR CYXE 091000Z 06005KT 15SM FEW250 02/M02 A2996 RMK CI1 SLP161=

CYXE;2005-05-09 11:00;METAR CYXE 091100Z 11003KT 15SM FEW060 FEW250 03/M01 A2995 RMK SC1CI1 SLP158=

CYXE;2005-05-09 12:00;METAR CYXE 091200Z 09005KT 15SM FEW060 FEW250 03/M01 A2994 RMK SC1CI0 SLP154=

CYXE;2005-05-09 13:00;METAR CYXE 091300Z 10002KT 15SM FEW060 07/02 A2993 RMK SC1 SLP151=

CYXE;2005-05-09 14:00;METAR CYXE 091400Z 00000KT 15SM FEW250 11/04 A2992 RMK CI0 SLP148=

CYXE;2005-05-09 15:00;METAR CYXE 091500Z 27003KT 15SM FEW250 14/04 A2991 RMK CI0 SLP139=

CYXE;2005-05-09 16:00;METAR CYXE 091600Z 36002KT 15SM FEW060 SCT250 16/01 A2990 RMK CF1CI0 SLP135=

CYXE;2005-05-09 17:00;METAR CYXE 091700Z 06008KT 15SM FEW060 BKN250 17/M03 A2989 RMK SC1CI0 SLP133=

CYXE;2005-05-09 18:00;METAR CYXE 091800Z 36010KT 15SM FEW060 SCT250 18/M03 A2988 RMK SC1CI1 SLP129=

CYXE;2005-05-09 19:00;METAR CYXE 091900Z 06009KT 15SM FEW080 OVC250 18/M03 A2986 RMK AC1CI2 SLP125=

CYXE;2005-05-09 20:00;METAR CYXE 092000Z 07009G15KT 15SM FEW070 OVC250 19/M03 A2985 RMK AC1CI2 SLP121=

CYXE;2005-05-09 21:00;METAR CYXE 092100Z 04004KT 15SM FEW080 SCT250 19/M02 A2984 RMK AC2CI0 SLP118=

CYXE;2005-05-09 22:00;METAR CYXE 092200Z 04005KT 15SM SCT090 SCT300 18/M02 A2983 RMK AC3CI0 SLP114=

CYXE;2005-05-09 23:00;METAR CYXE 092300Z 32003KT 15SM SCT091 SCT300 19/M02 A2982 RMK AC3CI0 SLP110=

CYXE;2005-05-10 00:00;METAR CYXE 100000Z 36012KT 15SM BKN089 BKN300 18/M01 A2982 RMK AC6CI1 SLP112=

CYXE;2005-05-10 01:00;METAR CYXE 100100Z 36013KT 15SM BKN089 BKN300 17/00 A2982 RMK AC6CI1 SLP113=

CYXE;2005-05-10 02:00;METAR CYXE 100200Z 36006KT 15SM BKN097 BKN300 15/02 A2984 RMK AC6CI1 SLP117=

CYXE;2005-05-10 03:00;METAR CYXE 100300Z 01014KT 15SM BKN092 BKN300 15/01 A2986 RMK AC6CI1 SLP120=

CYXE;2005-05-10 04:00;METAR CYXE 100400Z 01019KT 15SM OVC092 14/02 A2989 RMK AC8 SLP129=

CYXE;2005-05-10 05:00;METAR CYXE 100500Z 03019KT 15SM BKN079 13/01 A2991 RMK AC7 SLP136=

CYXE;2005-05-10 06:00;METAR CYXE 100600Z 02022G28KT 15SM OVC075 10/01 A2995 RMK AC8 SLP150=

CYXE;2005-05-10 07:00;METAR CYXE 100700Z 03021G26KT 15SM OVC055 08/02 A2999 RMK SC8 SLP165=

CYXE;2005-05-10 07:06;SPECI CYXE 100706Z 03019G25KT 15SM -SHRA OVC040 RMK SC8=

CYXE;2005-05-10 07:49;SPECI CYXE 100749Z 03021G26KT 15SM OVC040 RMK SC8=

CYXE;2005-05-10 08:00;METAR CYXE 100800Z 04023G29KT 15SM OVC040 06/00 A3001 RMK SC8 SLP172=

CYXE;2005-05-10 09:00;METAR CYXE 100900Z 03019G24KT 15SM BKN065 04/M02 A3004 RMK SC5 SLP186=

CYXE;2005-05-10 10:00;METAR CYXE 101000Z 03019G24KT 15SM FEW060 SCT250 01/M03 A3009 RMK SC2CI0 SLP201=

CYXE;2005-05-10 11:00;METAR CYXE 101100Z 03015KT 15SM FEW050 SCT250 M00/M06 A3012 RMK SC2CI0 SLP213=

CYXE;2005-05-10 12:00;METAR CYXE 101200Z 04016KT 15SM FEW050 M01/M07 A3015 RMK SC1 SLP227=

CYXE;2005-05-10 13:00;METAR CYXE 101300Z 05016KT 15SM FEW050 M01/M07 A3019 RMK SC1 SLP240=

CYXE;2005-05-10 14:00;METAR CYXE 101400Z 04019KT 15SM FEW050 M00/M08 A3021 RMK SC1 SLP247=

CYXE;2005-05-10 15:00;METAR CYXE 101500Z 04019G24KT 15SM SKC 01/M10 A3024 RMK SLP259=

CYXE;2005-05-10 16:00;METAR CYXE 101600Z 04016G21KT 15SM FEW250 02/M09 A3026 RMK CI0 SLP264=

CYXE;2005-05-10 17:00;METAR CYXE 101700Z 04017KT 15SM FEW250 03/M09 A3027 RMK CI0 SLP269=

CYXE;2005-05-10 18:00;METAR CYXE 101800Z 03016KT 15SM FEW250 05/M10 A3028 RMK CI0 SLP272=

CYXE;2005-05-10 20:00;METAR CYXE 102000Z 04013G20KT 15SM FEW250 07/M12 A3030 RMK CI0 SLP279=

CYXE;2005-05-10 21:00;METAR CYXE 102100Z 03009G19KT 15SM FEW250 06/M12 A3031 RMK CI0 SLP286=

CYXE;2005-05-10 22:00;METAR CYXE 102200Z 05011G16KT 15SM FEW250 07/M12 A3031 RMK CI0 SLP288=

CYXE;2005-05-10 23:00;METAR CYXE 102300Z 03011G17KT 15SM FEW250 07/M13 A3032 RMK CI0 SLP291=

CYXE;2005-05-11 00:00;METAR CYXE 110000Z 03011KT 15SM FEW250 07/M12 A3033 RMK CI0 SLP295=

CYXE;2005-05-11 01:00;METAR CYXE 110100Z 05008G15KT 15SM FEW250 06/M12 A3034 RMK CI0 SLP300=

CYXE;2005-05-11 02:00;METAR CYXE 110200Z 06010KT 15SM SKC 05/M12 A3036 RMK SLP306=

CYXE;2005-05-11 03:00;METAR CYXE 110300Z 05008KT 15SM SKC 00/M12 A3038 RMK SLP317=

CYXE;2005-05-11 04:00;METAR CYXE 110400Z 07009KT 15SM SKC M01/M11 A3041 RMK SLP326=

CYXE;2005-05-11 05:00;METAR CYXE 110500Z 10007KT 15SM SKC M02/M11 A3042 RMK SLP330=

CYXE;2005-05-11 06:00;METAR CYXE 110600Z 13008KT 15SM SKC M01/M11 A3043 RMK SLP332=

CYXE;2005-05-11 07:00;METAR CYXE 110700Z 14011KT 15SM SKC M01/M12 A3044 RMK SLP335=

CYXE;2005-05-11 08:00;METAR CYXE 110800Z 13009KT 15SM SKC M02/M11 A3045 RMK SLP337=

CYXE;2005-05-11 09:00;METAR CYXE 110900Z 13009KT 15SM SKC M03/M12 A3045 RMK SLP337=

CYXE;2005-05-11 10:00;METAR CYXE 111000Z 14008KT 15SM SKC M04/M11 A3045 RMK SLP337=

CYXE;2005-05-11 11:00;METAR CYXE 111100Z 12006KT 15SM SKC M04/M11 A3044 RMK SLP335=

CYXE;2005-05-11 12:00;METAR CYXE 111200Z 14009KT 15SM SKC M03/M10 A3044 RMK SLP335=

CYXE;2005-05-11 13:00;METAR CYXE 111300Z 14010KT 15SM SKC M01/M09 A3046 RMK SLP342=

CYXE;2005-05-11 14:00;METAR CYXE 111400Z 15011KT 15SM SKC 01/M09 A3047 RMK SLP344=

CYXE;2005-05-11 15:00;METAR CYXE 111500Z 17015KT 15SM SKC 03/M09 A3047 RMK SLP344=

CYXE;2005-05-11 16:00;METAR CYXE 111600Z 15013KT 15SM FEW250 05/M09 A3046 RMK CI0 SLP342=

CYXE;2005-05-11 17:00;METAR CYXE 111700Z 18010G16KT 15SM FEW250 06/M09 A3045 RMK CI0 SLP340=

CYXE;2005-05-11 18:00;METAR CYXE 111800Z 19011G17KT 15SM FEW250 08/M10 A3044 RMK CI0 SLP333=

CYXE;2005-05-11 19:00;METAR CYXE 111900Z 18014KT 15SM FEW250 08/M10 A3042 RMK CI0 SLP325=

CYXE;2005-05-11 20:00;METAR CYXE 112000Z 15012G17KT 15SM FEW250 10/M10 A3039 RMK CI0 SLP316=

CYXE;2005-05-11 21:00;METAR CYXE 112100Z 19011G18KT 15SM FEW250 11/M11 A3037 RMK CI0 SLP307=

CYXE;2005-05-11 22:00;METAR CYXE 112200Z 19010G17KT 15SM FEW250 11/M10 A3034 RMK CI0 SLP297=

CYXE;2005-05-11 23:00;METAR CYXE 112300Z 19010G16KT 15SM SKC 12/M11 A3031 RMK SLP290=

CYXE;2005-05-12 00:00;METAR CYXE 120000Z 19010G15KT 15SM SKC 12/M11 A3030 RMK SLP282=

CYXE;2005-05-12 01:00;METAR CYXE 120100Z 19013KT 15SM FEW250 11/M12 A3028 RMK CI0 SLP276=

CYXE;2005-05-12 02:00;METAR CYXE 120200Z 18012KT 15SM FEW250 11/M12 A3026 RMK CI1 SLP272=

CYXE;2005-05-12 03:00;METAR CYXE 120300Z 17007KT 15SM FEW250 07/M10 A3026 RMK CI1 SLP270=

CYXE;2005-05-12 04:00;METAR CYXE 120400Z 16010KT 15SM FEW250 08/M10 A3026 RMK CI0 SLP268=

CYXE;2005-05-12 05:00;METAR CYXE 120500Z 17010KT 15SM SKC 06/M10 A3025 RMK SLP265=

CYXE;2005-05-12 06:00;METAR CYXE 120600Z 17010KT 15SM SKC 05/M10 A3024 RMK SLP262=

CYXE;2005-05-12 07:00;METAR CYXE 120700Z 18013G18KT 15SM SKC 05/M11 A3025 RMK SLP263=

CYXE;2005-05-12 08:00;METAR CYXE 120800Z 18011G16KT 15SM SKC 04/M09 A3025 RMK SLP263=

CYXE;2005-05-12 09:00;METAR CYXE 120900Z 18014G19KT 15SM SKC 03/M08 A3024 RMK SLP261=

CYXE;2005-05-12 10:00;METAR CYXE 121000Z 19010KT 15SM SKC 02/M08 A3023 RMK SLP258=

CYXE;2005-05-12 11:00;METAR CYXE 121100Z 18010KT 15SM FEW250 01/M07 A3022 RMK CI1 SLP254=

CYXE;2005-05-12 12:00;METAR CYXE 121200Z 17010KT 15SM BKN250 M00/M07 A3021 RMK CI1 SLP251=

CYXE;2005-05-12 13:00;METAR CYXE 121300Z 18011KT 15SM BKN250 02/M06 A3020 RMK CI2 SLP247=

CYXE;2005-05-12 14:00;METAR CYXE 121400Z 19012KT 15SM BKN250 05/M06 A3017 RMK CI1 SLP236=

CYXE;2005-05-12 15:00;METAR CYXE 121500Z 19013KT 15SM BKN250 07/M06 A3015 RMK CI2 SLP229=

CYXE;2005-05-12 16:00;METAR CYXE 121600Z 19012KT 15SM BKN250 09/M04 A3014 RMK CI2 SLP225=

CYXE;2005-05-12 17:00;METAR CYXE 121700Z 20010G16KT 15SM FEW070 BKN250 11/M03 A3012 RMK AC1CI2 SLP219=

CYXE;2005-05-12 18:00;METAR CYXE 121800Z 20011KT 15SM FEW086 BKN250 13/M03 A3010 RMK AC1CI2 SLP211=

CYXE;2005-05-12 19:00;METAR CYXE 121900Z 20012KT 15SM BKN250 15/M04 A3007 RMK CI2 SLP200=

CYXE;2005-05-12 20:00;METAR CYXE 122000Z 17007G15KT 15SM BKN250 16/M03 A3004 RMK CI3 SLP190=

CYXE;2005-05-12 21:00;METAR CYXE 122100Z 16012KT 15SM BKN250 16/M02 A3002 RMK CI4 SLP181=

CYXE;2005-05-12 22:00;METAR CYXE 122200Z 19013KT 15SM BKN250 17/M02 A2999 RMK CI4 SLP171=

CYXE;2005-05-12 23:00;METAR CYXE 122300Z 19014KT 15SM BKN250 17/M03 A2996 RMK CI4 SLP162=

CYXE;2005-05-13 00:00;METAR CYXE 130000Z 19016KT 15SM BKN250 16/M04 A2995 RMK CI4 SLP157=

CYXE;2005-05-13 01:00;METAR CYXE 130100Z 19015G20KT 15SM BKN300 15/M05 A2993 RMK CI3 SLP153=

CYXE;2005-05-13 02:00;METAR CYXE 130200Z 18012G19KT 15SM BKN300 13/M06 A2992 RMK CI2 SLP148=

CYXE;2005-05-13 03:00;METAR CYXE 130300Z 19014KT 15SM BKN300 12/M07 A2991 RMK CI4 SLP144=

CYXE;2005-05-13 04:00;METAR CYXE 130400Z 19012KT 15SM SCT300 10/M07 A2989 RMK CI2 SLP138=

CYXE;2005-05-13 05:00;METAR CYXE 130500Z 19014KT 15SM FEW300 09/M07 A2988 RMK CI1 SLP133=

CYXE;2005-05-13 06:00;METAR CYXE 130600Z 21012KT 15SM FEW100 SCT300 07/M06 A2987 RMK AC2CI0 SLP128=

CYXE;2005-05-13 07:00;METAR CYXE 130700Z 21012KT 15SM FEW100 SCT250 06/M06 A2985 RMK AC2CI0 SLP123=

CYXE;2005-05-13 08:00;METAR CYXE 130800Z 21010KT 15SM BKN095 06/M06 A2983 RMK AC3 SLP115=

CYXE;2005-05-13 09:00;METAR CYXE 130900Z 22009KT 15SM BKN095 06/M04 A2982 RMK AC6 SLP110=

CYXE;2005-05-13 10:00;METAR CYXE 131000Z 23007KT 15SM BKN080 07/M03 A2981 RMK AC6 SLP106=

CYXE;2005-05-13 10:06;SPECI CYXE 131006Z 24007KT 15SM -SHRA BKN050 RMK SC6=

CYXE;2005-05-13 10:25;SPECI CYXE 131025Z 23006KT 15SM VCSH BKN045 BKN090 RMK SC5AC2=

CYXE;2005-05-13 11:00;METAR CYXE 131100Z 31007KT 15SM BKN045 OVC090 06/00 A2983 RMK SC5AC2 SLP113=

CYXE;2005-05-13 11:54;SPECI CYXE 131154Z 36019G24KT 10SM -SHRA BKN022 OVC050 RMK SC6SC2=

CYXE;2005-05-13 12:00;METAR CYXE 131200Z 35015G26KT 8SM -SHRA BKN022 OVC060 07/05 A2987 RMK SC5SC3 SLP127=

CYXE;2005-05-13 12:22;SPECI CYXE 131222Z 01021G28KT 15SM VCSH FEW020 SCT040 BKN080 RMK SC2SC2AC3=

CYXE;2005-05-13 13:00;METAR CYXE 131300Z 01024G29KT 15SM FEW020 SCT040 OVC090 04/02 A2988 RMK SC2SC2AC3 SLP132=

CYXE;2005-05-13 13:31;SPECI CYXE 131331Z 36021G28KT 15SM -RA FEW015 OVC040 RMK SC2SC6=

CYXE;2005-05-13 14:00;METAR CYXE 131400Z 36023G29KT 15SM -RA FEW010 BKN015 OVC040 03/01 A2993 RMK SC2SC6SC1 SLP146=

CYXE;2005-05-13 14:18;SPECI CYXE 131418Z 01024G30KT 15SM BKN015 BKN070 RMK SC6AC1=

CYXE;2005-05-13 15:00;METAR CYXE 131500Z 01024G29KT 15SM BKN021 04/M02 A2995 RMK SC7 SLP161=

CYXE;2005-05-13 16:00;METAR CYXE 131600Z 35021G26KT 15SM OVC029 05/M02 A2999 RMK SC8 SLP171=

CYXE;2005-05-13 17:00;METAR CYXE 131700Z 36025KT 15SM OVC027 05/M04 A3003 RMK SC8 SLP184=

CYXE;2005-05-13 18:00;METAR CYXE 131800Z 36018G25KT 15SM BKN033 05/M04 A3004 RMK SC7 SLP193=

CYXE;2005-05-13 19:00;METAR CYXE 131900Z 01022G27KT 15SM BKN037 06/M04 A3006 RMK SC7 SLP198=

CYXE;2005-05-13 20:00;METAR CYXE 132000Z 35019G30KT 15SM BKN040 06/M04 A3008 RMK SC7 SLP205=

CYXE;2005-05-13 21:00;METAR CYXE 132100Z 35017KT 15SM BKN044 07/M05 A3010 RMK SC7 SLP211=

CYXE;2005-05-13 22:00;METAR CYXE 132200Z 36019G24KT 15SM BKN046 07/M05 A3010 RMK SC7 SLP213=

CYXE;2005-05-13 23:00;METAR CYXE 132300Z 01015G22KT 15SM BKN046 07/M04 A3012 RMK SC5 SLP217=

CYXE;2005-05-14 00:00;METAR CYXE 140000Z 01016G22KT 15SM FEW052 07/M05 A3012 RMK SC2 SLP220=

CYXE;2005-05-14 01:00;METAR CYXE 140100Z 36017KT 15SM FEW052 07/M06 A3014 RMK SC1 SLP224=

CYXE;2005-05-14 02:00;METAR CYXE 140200Z 36012KT 15SM SKC 07/M05 A3015 RMK SLP229=

CYXE;2005-05-14 03:00;METAR CYXE 140300Z 35008KT 15SM SKC 03/M06 A3017 RMK SLP238=

CYXE;2005-05-14 04:00;METAR CYXE 140400Z 36005KT 15SM SKC 02/M06 A3019 RMK SLP245=

CYXE;2005-05-14 05:00;METAR CYXE 140500Z 06007KT 15SM SKC M01/M07 A3021 RMK SLP252=

CYXE;2005-05-14 06:00;METAR CYXE 140600Z 06005KT 15SM SKC M02/M07 A3023 RMK SLP263=

CYXE;2005-05-14 07:00;METAR CYXE 140700Z 07004KT 15SM SKC M01/M07 A3025 RMK SLP268=

CYXE;2005-05-14 08:00;METAR CYXE 140800Z 08005KT 15SM SKC M03/M07 A3025 RMK SLP270=

CYXE;2005-05-14 09:00;METAR CYXE 140900Z 08004KT 15SM SKC M04/M07 A3026 RMK SLP274=

CYXE;2005-05-14 10:00;METAR CYXE 141000Z 09005KT 15SM SKC M05/M07 A3027 RMK SLP277=

CYXE;2005-05-14 11:00;METAR CYXE 141100Z 12002KT 15SM SKC M04/M07 A3028 RMK SLP279=

CYXE;2005-05-14 12:00;METAR CYXE 141200Z 12004KT 15SM SKC M04/M07 A3028 RMK SLP279=

CYXE;2005-05-14 13:00;METAR CYXE 141300Z 19004KT 15SM SKC M01/M05 A3028 RMK SLP280=

CYXE;2005-05-14 14:00;METAR CYXE 141400Z 16007KT 15SM SKC 01/M05 A3028 RMK SLP279=

CYXE;2005-05-14 15:00;METAR CYXE 141500Z 17005KT 15SM SKC 03/M05 A3027 RMK SLP274=

CYXE;2005-05-14 16:00;METAR CYXE 141600Z 13005KT 15SM SKC 05/M06 A3025 RMK SLP269=

CYXE;2005-05-14 17:00;METAR CYXE 141700Z 14005KT 15SM SKC 07/M06 A3023 RMK SLP263=

CYXE;2005-05-14 18:00;METAR CYXE 141800Z 16006KT 15SM SKC 09/M08 A3020 RMK SLP251=

CYXE;2005-05-14 19:00;METAR CYXE 141900Z 21008KT 15SM SKC 10/M08 A3018 RMK SLP245=

CYXE;2005-05-14 20:00;METAR CYXE 142000Z 18005KT 15SM SKC 11/M08 A3017 RMK SLP239=

CYXE;2005-05-14 21:00;METAR CYXE 142100Z 12006KT 15SM SKC 13/M07 A3013 RMK SLP227=

CYXE;2005-05-14 22:00;METAR CYXE 142200Z 13006KT 15SM SKC 14/M08 A3011 RMK SLP218=

CYXE;2005-05-14 23:00;METAR CYXE 142300Z 18009KT 15SM SKC 15/M09 A3008 RMK SLP208=

CYXE;2005-05-15 00:00;METAR CYXE 150000Z 15010G15KT 15SM SKC 14/M09 A3005 RMK SLP197=

CYXE;2005-05-15 01:00;METAR CYXE 150100Z 16009KT 15SM FEW300 14/M09 A3003 RMK CI2 SLP189=

CYXE;2005-05-15 02:00;METAR CYXE 150200Z 16007KT 15SM SKC 13/M09 A3001 RMK SLP185=

CYXE;2005-05-15 03:00;METAR CYXE 150300Z 14009KT 15SM FEW300 11/M08 A3000 RMK CI1 SLP178=

CYXE;2005-05-15 04:00;METAR CYXE 150400Z 13010KT 15SM SKC 09/M09 A2999 RMK SLP174=

CYXE;2005-05-15 06:00;METAR CYXE 150600Z 14012KT 15SM FEW100 BKN250 08/M08 A2998 RMK AC1CI2 SLP168=

CYXE;2005-05-15 07:00;METAR CYXE 150700Z 13010KT 15SM FEW100 BKN250 07/M07 A2996 RMK AC1CI3 SLP164=

CYXE;2005-05-15 08:00;METAR CYXE 150800Z 12009KT 15SM FEW100 BKN250 06/M06 A2995 RMK AC1CI3 SLP159=

CYXE;2005-05-15 09:00;METAR CYXE 150900Z 12009KT 15SM BKN250 06/M06 A2992 RMK CI5 SLP149=

CYXE;2005-05-15 10:00;METAR CYXE 151000Z 13009KT 15SM BKN250 05/M05 A2990 RMK CI4 SLP142=

CYXE;2005-05-15 11:00;METAR CYXE 151100Z 13006KT 15SM FEW100 BKN250 04/M05 A2990 RMK AC2CI2 SLP141=

CYXE;2005-05-15 12:00;METAR CYXE 151200Z 13008KT 15SM FEW100 FEW250 04/M04 A2990 RMK AC1CI1 SLP139=

CYXE;2005-05-15 13:00;METAR CYXE 151300Z 14007KT 15SM FEW100 FEW250 06/M03 A2989 RMK AC1CI1 SLP138=

CYXE;2005-05-15 14:00;METAR CYXE 151400Z 14010KT 15SM FEW040 BKN094 OVC250 09/M02 A2988 RMK SC1AC4CI2 SLP135=

CYXE;2005-05-15 15:00;METAR CYXE 151500Z 14009KT 15SM FEW040 BKN094 BKN250 11/M01 A2986 RMK CU1AC3CI2 SLP125=

CYXE;2005-05-15 16:00;METAR CYXE 151600Z 13008KT 15SM FEW062 BKN094 OVC250 16/01 A2985 RMK SC2AC2CI2 ACC ASCTD SLP120=

CYXE;2005-05-15 17:00;METAR CYXE 151700Z 16012G17KT 15SM FEW060 FEW095 BKN250 18/02 A2983 RMK SC2AC1CI2 SLP115=

CYXE;2005-05-15 18:00;METAR CYXE 151800Z 17012KT 15SM SCT120 OVC250 16/00 A2983 RMK AC2CI2 ACC ASCTD SLP113=

CYXE;2005-05-15 19:00;METAR CYXE 151900Z 15011G20KT 15SM FEW090 SCT120 OVC250 18/01 A2981 RMK AC1AC2CI2 ACC ASCTD SLP106=

CYXE;2005-05-15 20:00;METAR CYXE 152000Z 15015G21KT 15SM FEW096 BKN250 19/00 A2980 RMK AC2CI2 SLP104=

CYXE;2005-05-15 21:00;METAR CYXE 152100Z 16015KT 15SM FEW087 BKN250 18/02 A2980 RMK AC2CI2 ACC ASCTD SLP102=

CYXE;2005-05-15 22:00;METAR CYXE 152200Z 16012G18KT 15SM FEW095 FEW250 18/04 A2978 RMK AC1CI1 SLP097=

CYXE;2005-05-15 23:00;METAR CYXE 152300Z 14013G18KT 15SM FEW250 18/04 A2977 RMK CI2 SLP092=

CYXE;2005-05-16 00:00;METAR CYXE 160000Z 14014G19KT 15SM BKN250 18/04 A2975 RMK CI4 SLP086=

CYXE;2005-05-16 01:00;METAR CYXE 160100Z 14015KT 15SM BKN250 17/02 A2975 RMK CI3 SLP087=

CYXE;2005-05-16 02:00;METAR CYXE 160200Z 14013KT 15SM BKN250 15/02 A2975 RMK CI5 SLP087=

CYXE;2005-05-16 03:00;METAR CYXE 160300Z 14011KT 15SM FEW120 BKN250 13/01 A2975 RMK AC1CI4 SLP084=

CYXE;2005-05-16 04:00;METAR CYXE 160400Z 13012KT 15SM BKN250 13/01 A2974 RMK CI2 SLP083=

CYXE;2005-05-16 05:00;METAR CYXE 160500Z 13011KT 15SM SCT250 11/01 A2973 RMK CI2 SLP078=

CYXE;2005-05-16 06:00;METAR CYXE 160600Z 13013KT 15SM SCT250 11/01 A2971 RMK CI2 SLP070=

CYXE;2005-05-16 07:00;METAR CYXE 160700Z 13010G16KT 15SM FEW250 10/01 A2971 RMK CI1 SLP069=

CYXE;2005-05-16 09:00;METAR CYXE 160900Z 13012G17KT 15SM SCT250 08/01 A2968 RMK CI2 SLP062=

CYXE;2005-05-16 10:00;METAR CYXE 161000Z 13011KT 15SM SCT250 07/00 A2967 RMK CI1 SLP057=

CYXE;2005-05-16 11:00;METAR CYXE 161100Z 12013KT 15SM FEW250 07/00 A2965 RMK CI1 SLP052=

CYXE;2005-05-16 13:00;METAR CYXE 161300Z 13014G19KT 15SM BKN080 BKN250 08/01 A2963 RMK ACC5CI1 SLP045=

CYXE;2005-05-16 14:00;METAR CYXE 161400Z 13018KT 15SM FEW081 BKN250 10/02 A2962 RMK ACC2CI2 SLP042=

CYXE;2005-05-16 15:00;METAR CYXE 161500Z 13014G19KT 15SM SCT082 OVC250 14/04 A2960 RMK ACC3CI2 SLP034=

CYXE;2005-05-16 16:00;METAR CYXE 161600Z 13011G16KT 15SM BKN084 BKN250 16/05 A2959 RMK ACC5CI0 VIRGA E SLP031=

CYXE;2005-05-16 17:00;METAR CYXE 161700Z 13018KT 15SM FEW078 SCT250 18/06 A2957 RMK ACC2CI1 SLP024=

CYXE;2005-05-16 18:00;METAR CYXE 161800Z 14017G22KT 15SM FEW085 SCT250 19/07 A2955 RMK ACC2CI1 SLP015=

CYXE;2005-05-16 19:00;METAR CYXE 161900Z 13019G25KT 15SM FEW085 BKN250 21/08 A2953 RMK ACC2CI2 SLP007=

CYXE;2005-05-16 20:00;METAR CYXE 162000Z 14019G27KT 15SM FEW091 OVC250 22/08 A2951 RMK ACC2CI2 SLP000=

CYXE;2005-05-16 21:00;METAR CYXE 162100Z 13017G25KT 15SM SCT095 OVC250 24/09 A2949 RMK ACC3CI3 SLP993=

CYXE;2005-05-16 22:00;METAR CYXE 162200Z 13014G27KT 15SM SCT085 OVC250 24/08 A2948 RMK ACC3CI3 SLP990=

CYXE;2005-05-16 23:00;METAR CYXE 162300Z 14016G24KT 15SM FEW090 BKN250 24/08 A2947 RMK ACC2CI2 SLP985=

CYXE;2005-05-17 00:00;METAR CYXE 170000Z 13019G26KT 15SM FEW100 SCT180 OVC250 24/08 A2946 RMK AC2AC1CI2 ACC ASOCTD SLP983=

CYXE;2005-05-17 01:00;METAR CYXE 170100Z 14017G22KT 15SM SCT092 OVC250 23/07 A2946 RMK AC3CI4 SLP983=

CYXE;2005-05-17 02:00;METAR CYXE 170200Z 13017G22KT 15SM SCT095 OVC250 22/07 A2947 RMK AC4CI4 SHWRS W SLP986=

CYXE;2005-05-17 03:00;METAR CYXE 170300Z 13015G20KT 15SM BKN110 OVC250 20/06 A2948 RMK AC5CI3 SLP987=

CYXE;2005-05-17 04:00;METAR CYXE 170400Z 13017KT 15SM BKN110 OVC250 19/06 A2949 RMK AC5CI2 SLP992=

CYXE;2005-05-17 05:00;METAR CYXE 170500Z 13016KT 15SM BKN110 BKN250 17/06 A2949 RMK AC5CI2 SLP992=

CYXE;2005-05-17 06:00;METAR CYXE 170600Z 14016G21KT 15SM BKN110 16/06 A2949 RMK AC6 SLP991=

CYXE;2005-05-17 07:00;METAR CYXE 170700Z 14013KT 15SM SCT100 OVC250 15/06 A2950 RMK AC3CI3 SLP992=

CYXE;2005-05-17 08:00;METAR CYXE 170800Z 14015KT 15SM SCT100 OVC250 14/05 A2949 RMK AC3CI4 SLP991=

CYXE;2005-05-17 09:00;METAR CYXE 170900Z 14014G21KT 15SM FEW100 OVC250 13/05 A2948 RMK AC2CI5 SLP986=

CYXE;2005-05-17 10:00;METAR CYXE 171000Z 13016G21KT 15SM FEW100 OVC250 12/05 A2948 RMK AC2CI5 SLP986=

CYXE;2005-05-17 11:00;METAR CYXE 171100Z 13017G22KT 15SM FEW120 OVC250 12/05 A2946 RMK AC2CI5 SLP981=

CYXE;2005-05-17 12:00;METAR CYXE 171200Z 13014G20KT 15SM FEW120 OVC200 12/05 A2946 RMK AC2CI6 SLP981=

CYXE;2005-05-17 13:00;METAR CYXE 171300Z 13015G20KT 15SM SCT120 OVC180 12/05 A2947 RMK AC4AS4 SLP982=

CYXE;2005-05-17 14:00;METAR CYXE 171400Z 13018KT 15SM SCT054 OVC120 12/06 A2946 RMK SC4AC4 SLP981=

CYXE;2005-05-17 15:00;METAR CYXE 171500Z 12015KT 15SM BKN046 OVC120 13/06 A2946 RMK SC6AS2 SLP979=

CYXE;2005-05-17 16:00;METAR CYXE 171600Z 12017KT 15SM FEW048 SCT072 OVC120 15/08 A2945 RMK SC2AC2AS4 SLP977=

CYXE;2005-05-17 17:00;METAR CYXE 171700Z 12020G26KT 15SM SCT070 OVC098 17/08 A2944 RMK AC3AS5 SLP975=

CYXE;2005-05-17 18:00;METAR CYXE 171800Z 12018G31KT 15SM FEW059 BKN067 OVC098 18/10 A2944 RMK SC2AC3AS2 SLP974=

CYXE;2005-05-17 19:00;METAR CYXE 171900Z 12023G28KT 15SM -SHRA SCT052 SCT067 OVC099 19/10 A2945 RMK SC3AC1AS4 SLP977=

CYXE;2005-05-17 20:00;METAR CYXE 172000Z 13017G22KT 15SM -RA FEW023 SCT043 BKN077 OVC090 18/11 A2945 RMK SC2SC2AC3AS2 SLP978=

CYXE;2005-05-17 21:00;METAR CYXE 172100Z 14013KT 3SM RA BR BKN020 OVC040 16/13 A2946 RMK SC6SC2 SLP985=

CYXE;2005-05-17 21:52;SPECI CYXE 172152Z 10008KT 6SM -RA SCT020 BKN040 OVC090 RERA RMK SC3SC3AC2=

CYXE;2005-05-17 22:00;METAR CYXE 172200Z 10009KT 10SM -RA SCT020 BKN040 OVC090 16/13 A2946 RERA RMK SC3SC3AC2 SLP983=

CYXE;2005-05-17 22:06;SPECI CYXE 172206Z 12009KT 4SM RA BR SCT015 OVC040 RMK SC4SC4=

CYXE;2005-05-17 22:30;SPECI CYXE 172230Z 13013KT 6SM -RA SCT015 OVC060 RERA RMK SC3SC5=

CYXE;2005-05-17 23:00;METAR CYXE 172300Z 14017G24KT 4SM -RA SCT020 OVC060 15/13 A2948 RERA RMK SC3SC5 SLP990=

CYXE;2005-05-18 00:00;METAR CYXE 180000Z 11015G22KT 5SM -RA BR SCT020 OVC070 14/13 A2947 RMK SC4AC4 /R7/ SLP990=

CYXE;2005-05-18 00:36;SPECI CYXE 180036Z 12015KT 10SM BKN025 OVC070 RMK SC6AC2 BR=

CYXE;2005-05-18 01:00;METAR CYXE 180100Z 11014G19KT 8SM OVC029 15/13 A2947 RMK SC8 BR SLP989=

CYXE;2005-05-18 02:00;METAR CYXE 180200Z 12015KT 12SM OVC025 15/12 A2948 RMK SC8 BR SLP992=

CYXE;2005-05-18 03:00;METAR CYXE 180300Z 11015G21KT 8SM BKN013 OVC025 14/12 A2948 RMK SC6SC2 BR SLP992=

CYXE;2005-05-18 03:09;SPECI CYXE 180309Z 11016KT 6SM -DZ BR BKN009 OVC020 RMK ST6SC2=

CYXE;2005-05-18 03:31;SPECI CYXE 180331Z 11014G19KT 4SM -RA BR BKN008 OVC020 RMK ST6SC2=

CYXE;2005-05-18 04:00;METAR CYXE 180400Z 12011G16KT 6SM -RA BR BKN009 OVC025 14/13 A2948 RMK ST6SC2 SLP992=

CYXE;2005-05-18 04:10;SPECI CYXE 180410Z 12014KT 8SM -RA BKN010 OVC025 RMK ST6SC2 BR=

CYXE;2005-05-18 05:00;METAR CYXE 180500Z 12014KT 6SM -RA BR OVC009 14/12 A2947 RMK ST8 SLP989=

CYXE;2005-05-18 05:36;SPECI CYXE 180536Z 12013KT 2SM -RA BR BKN005 OVC020 RMK ST6SC2=

CYXE;2005-05-18 06:00;METAR CYXE 180600Z 12012KT 2SM -RA BR BKN005 OVC021 14/13 A2946 RMK SF6SC2 SLP982=

CYXE;2005-05-18 06:16;SPECI CYXE 180616Z 11013KT 1 1/2SM -DZ BR OVC004 RMK SF8=

CYXE;2005-05-18 06:36;SPECI CYXE 180636Z 12013KT 1 1/2SM -RA BR OVC004 RMK SF8 TOWER OBS=

CYXE;2005-05-18 07:00;METAR CYXE 180700Z 12012G17KT 1 1/2SM -DZ BR OVC004 14/13 A2946 RMK SF8 TOWER OBS SLP980=

CYXE;2005-05-18 07:25;SPECI CYXE 180725Z 12011G18KT 2SM -DZ BR OVC005 RMK SF8 TOWER OBS=

CYXE;2005-05-18 08:00;METAR CYXE 180800Z 12011G17KT 1 1/2SM -RA BR OVC004 14/13 A2945 RMK SF8 TOWER OBS SLP979=

CYXE;2005-05-18 08:10;SPECI CYXE 180810Z 12012KT 2SM -RA BR BKN005 OVC019 RMK SF6SC2 TOWER OBS=

CYXE;2005-05-18 08:43;SPECI CYXE 180843Z 12012G17KT 1 1/2SM -RA BR OVC005 RMK SF8 TOWER OBS=

CYXE;2005-05-18 09:00;METAR CYXE 180900Z 12012KT 3SM -RA BR BKN005 OVC014 13/12 A2945 RMK SF6SC2 TOWER OBS SLP978=

CYXE;2005-05-18 09:43;SPECI CYXE 180943Z 12011KT 3SM -RA BR BKN006 OVC015 RMK SF6SC2 TOWER OBS=

CYXE;2005-05-18 10:00;METAR CYXE 181000Z 12010KT 4SM -RA BR BKN006 OVC019 13/12 A2944 RMK SF7SC1 TOWER OBS SLP977=

CYXE;2005-05-18 10:05;SPECI CYXE 181005Z 12011KT 4SM -RA BR BKN005 OVC016 RMK SF7SC1 TOWER OBS=

CYXE;2005-05-18 10:47;SPECI CYXE 181047Z 12012G17KT 3SM -RA BR OVC006 RMK SF8 TOWER OBS=

CYXE;2005-05-18 11:05;SPECI CYXE 181105Z 12011KT 1 1/2SM -RA BCFG OVC005 RMK SF8 VIS SW 3/4 TOWER OBS=

CYXE;2005-05-18 11:14;SPECI CYXE 181114Z 12012KT 1SM R09/P6000FT/D -RA BR OVC005 RMK FG2SF6 TOWER OBS=

CYXE;2005-05-18 11:21;SPECI CYXE 181121Z 12012KT 1 1/2SM -RA BR OVC004 RMK SF8 VIS SW 3/4 TOWER OBS=

CYXE;2005-05-18 11:37;SPECI CYXE 181137Z 13012KT 2SM -RA BR OVC005 RMK SF8 TOWER OBS=

CYXE;2005-05-18 12:00;METAR CYXE 181200Z 13010KT 1 1/2SM -RA BR BKN006 OVC014 13/12 A2945 RMK SF6SC2 SLP980=

CYXE;2005-05-18 12:29;SPECI CYXE 181229Z 13010KT 2SM -RA BR OVC004 RMK SF8=

CYXE;2005-05-18 13:00;METAR CYXE 181300Z 13008KT 2SM -RA BR OVC004 13/12 A2944 RMK SF8 SLP977=

CYXE;2005-05-18 13:21;SPECI CYXE 181321Z 13006KT 3SM -RA BR OVC004 RMK SF8=

CYXE;2005-05-18 14:00;METAR CYXE 181400Z 13006KT 2 1/2SM -RA BR OVC004 13/12 A2943 RMK SF8 SLP976=

CYXE;2005-05-18 14:41;SPECI CYXE 181441Z 13006KT 3SM -RA BR OVC004 RMK SF8=

CYXE;2005-05-18 15:00;METAR CYXE 181500Z 14007KT 4SM -RA BR OVC004 13/13 A2942 RMK SF8 -RA INTMT SLP972=

CYXE;2005-05-18 16:00;METAR CYXE 181600Z 20006KT 4SM -RA BR OVC003 14/13 A2944 RMK SF8 SLP977=

CYXE;2005-05-18 17:00;METAR CYXE 181700Z 21007KT 5SM -RA BR OVC004 13/12 A2944 RMK SF8 SLP978=

CYXE;2005-05-18 17:21;SPECI CYXE 181721Z 22008KT 7SM -RA OVC005 RMK SF8=

CYXE;2005-05-18 18:00;METAR CYXE 181800Z 22008KT 8SM -RA BKN007 OVC092 13/12 A2946 RMK SF6AC2 SLP983=

CYXE;2005-05-18 20:00;METAR CYXE 182000Z 25009KT 10SM -RA BKN007 OVC016 13/12 A2947 RMK SF6SC2 -RA INTMT SLP989=

CYXE;2005-05-18 21:00;METAR CYXE 182100Z 29010KT 10SM -RA BKN009 OVC027 14/12 A2948 RMK SF6SC2 -RA INTMT SLP992=

CYXE;2005-05-18 21:46;SPECI CYXE 182146Z 31006KT 15SM BKN011 OVC025 RMK SF6SC2=

CYXE;2005-05-18 22:00;METAR CYXE 182200Z 31005KT 15SM BKN011 OVC025 14/12 A2949 RMK SF5SC3 SLP995=

CYXE;2005-05-18 23:00;METAR CYXE 182300Z 30007KT 15SM BKN014 OVC025 14/12 A2950 RMK SC5SC3 SLP998=

CYXE;2005-05-18 23:16;SPECI CYXE 182316Z 29007KT 15SM SCT015 OVC023 RMK SC3SC5=

CYXE;2005-05-19 00:00;METAR CYXE 190000Z 30006KT 15SM FEW015 OVC023 14/12 A2951 RMK SC2SC6 SLP002=

CYXE;2005-05-19 01:00;METAR CYXE 190100Z 30005KT 15SM FEW015 SCT030 BKN250 15/11 A2952 RMK SF1SC2CI2 SLP005=

CYXE;2005-05-19 02:00;METAR CYXE 190200Z 31003KT 15SM FEW030 BKN250 14/11 A2953 RMK SC1CI2 SLP009=

CYXE;2005-05-19 03:00;METAR CYXE 190300Z 00000KT 12SM BKN250 12/11 A2955 RMK CI2 SHALLOW BR PTCHS SLP017=

CYXE;2005-05-19 04:00;METAR CYXE 190400Z 00000KT 12SM MIFG SCT250 11/11 A2956 RMK CI1 SLP020=

CYXE;2005-05-19 05:00;METAR CYXE 190500Z 00000KT 15SM R09/3500VP6000FT/D MIFG BKN250 11/10 A2957 RMK CI1 SLP024=

CYXE;2005-05-19 06:00;METAR CYXE 190600Z 12004KT 15SM R09/3500VP6000FT/U MIFG FEW250 10/09 A2958 RMK CI0 SLP028=

CYXE;2005-05-19 07:00;METAR CYXE 190700Z 12005KT 15SM MIFG SKC 08/08 A2958 RMK SLP027=

CYXE;2005-05-19 08:00;METAR CYXE 190800Z 14006KT 15SM SKC 08/08 A2959 RMK SLP031=

CYXE;2005-05-19 09:00;METAR CYXE 190900Z 09006KT 4SM R09/1400V2400FT/N BCFG FEW100 07/06 A2959 RMK AC1 SLP033=

CYXE;2005-05-19 10:00;METAR CYXE 191000Z 15005KT 4SM R09/0900V3000FT/U BCFG FEW100 08/08 A2960 RMK AC1 SLP037=

CYXE;2005-05-19 11:00;METAR CYXE 191100Z 13004KT 4SM BR FEW100 FEW220 07/06 A2960 RMK AC1CI0 SLP036=

CYXE;2005-05-19 12:00;METAR CYXE 191200Z 13005KT 15SM FEW100 FEW220 08/07 A2959 RMK AC1CI1 SLP033=

CYXE;2005-05-19 13:00;METAR CYXE 191300Z 15004KT 15SM FEW100 FEW220 12/09 A2959 RMK AC1CI1 SLP032=

CYXE;2005-05-19 14:00;METAR CYXE 191400Z 17008KT 15SM FEW095 SCT220 15/09 A2959 RMK AC1CI2 SLP031=

CYXE;2005-05-19 15:00;METAR CYXE 191500Z 18011KT 15SM BKN250 16/08 A2958 RMK CI2 SLP024=

CYXE;2005-05-19 16:00;METAR CYXE 191600Z 21009KT 15SM FEW120 BKN270 17/09 A2958 RMK AC2CI2 SLP026=

CYXE;2005-05-19 17:00;METAR CYXE 191700Z 21013KT 15SM BKN120 BKN300 19/10 A2958 RMK AC3CI2 SLP024=

CYXE;2005-05-19 18:00;METAR CYXE 191800Z 21016KT 15SM FEW044 BKN091 BKN300 19/08 A2957 RMK CU1AC2CI2 SLP020=

CYXE;2005-05-19 19:00;METAR CYXE 191900Z 22013G19KT 15SM FEW040 BKN091 BKN300 20/10 A2958 RMK CU1AC2CI4 SLP025=

CYXE;2005-05-19 20:00;METAR CYXE 192000Z 22020KT 15SM FEW044TCU BKN100 BKN300 20/08 A2958 RMK TCU1AC3CI4 SLP024=

CYXE;2005-05-19 21:00;METAR CYXE 192100Z 22022KT 15SM FEW048 SCT093 22/09 A2958 RMK CU1AC2 TCU ASOCTD SLP023=

CYXE;2005-05-19 22:00;METAR CYXE 192200Z 22018KT 15SM FEW060 FEW090 22/07 A2956 RMK CU1AC1 SLP019=

CYXE;2005-05-19 23:00;METAR CYXE 192300Z 19015G21KT 15SM SCT060TCU 22/07 A2955 RMK TCU4 SLP013=

CYXE;2005-05-20 00:00;METAR CYXE 200000Z 22015KT 15SM VCSH BKN070TCU 24/06 A2953 RMK TCU6 SLP006=

CYXE;2005-05-20 01:00;METAR CYXE 200100Z 24012G20KT 15SM SCT070TCU 22/05 A2953 RMK TCU4 SLP006=

CYXE;2005-05-20 02:00;METAR CYXE 200200Z 22015KT 15SM VCSH BKN080CB BKN250 20/02 A2954 RMK CB5CI2 LTGIC S SLP009=

CYXE;2005-05-20 02:10;SPECI CYXE 200210Z 22014KT 15SM TS VCSH BKN080CB BKN250 RMK CB5CI2 LTGICCG S-SE=

CYXE;2005-05-20 02:37;SPECI CYXE 200237Z 23022G29KT 15SM -TSRA BKN080CB BKN250 RMK CB6CI1=

CYXE;2005-05-20 03:00;METAR CYXE 200300Z 22029G40KT 15SM -SHRA BKN070CB BKN250 18/04 A2955 RETS RMK CB5CI2 SLP013=

CYXE;2005-05-20 03:15;SPECI CYXE 200315Z 20015G28KT 15SM SCT080CB SCT120 BKN250 RMK CB3AC1CI2=

CYXE;2005-05-20 04:00;METAR CYXE 200400Z 31009KT 15SM FEW080 SCT120 BKN250 15/06 A2960 RMK ACC2AC2CI2 SLP029=

CYXE;2005-05-20 05:00;METAR CYXE 200500Z 31006KT 15SM SCT090 BKN250 13/07 A2961 RMK ACC3CI2 SLP032=

CYXE;2005-05-20 06:00;METAR CYXE 200600Z 30010KT 15SM BKN091 BKN250 14/07 A2966 RMK AC5CI0=

CYXE;2005-05-20 07:00;METAR CYXE 200700Z 23005KT 15SM SCT061 OVC091 11/07 A2966 RMK SC4AC3 SLP049=

CYXE;2005-05-20 08:00;METAR CYXE 200800Z 21007KT 15SM FEW091 10/06 A2966 RMK AC2 SLP050=

CYXE;2005-05-20 10:00;METAR CYXE 201000Z 24008KT 15SM FEW099 BKN220 09/07 A2972 RMK AC2CI1 SLP072=

CYXE;2005-05-20 11:00;METAR CYXE 201100Z 24008KT 15SM FEW099 SCT220 08/06 A2974 RMK AC1CI1 SLP079=

CYXE;2005-05-20 12:00;METAR CYXE 201200Z 25008KT 15SM FEW099 FEW220 08/06 A2976 RMK AC1CI1 SLP084=

CYXE;2005-05-20 13:00;METAR CYXE 201300Z 26006KT 15SM FEW220 11/07 A2977 RMK CI1 SLP086=

CYXE;2005-05-20 14:00;METAR CYXE 201400Z 28007KT 15SM FEW220 14/07 A2978 RMK CI1 SLP092=

CYXE;2005-05-20 15:00;METAR CYXE 201500Z 29008KT 15SM FEW250 15/08 A2980 RMK CI1 SLP098=

CYXE;2005-05-20 16:00;METAR CYXE 201600Z 27007KT 15SM SKC 17/08 A2982 RMK SLP103=

CYXE;2005-05-20 17:00;METAR CYXE 201700Z 26007KT 15SM FEW041 FEW300 19/08 A2981 RMK CU1CI1 SLP102=

CYXE;2005-05-20 19:00;METAR CYXE 201900Z 25007G15KT 15SM FEW055 20/07 A2980 RMK CU2 SLP098=

CYXE;2005-05-20 20:00;METAR CYXE 202000Z 23013KT 15SM SCT060 21/06 A2980 RMK CU3 SLP097=

CYXE;2005-05-20 21:00;METAR CYXE 202100Z 29008KT 15SM SCT070 22/06 A2979 RMK CU3 SLP095=

CYXE;2005-05-20 22:00;METAR CYXE 202200Z 23010KT 15SM SCT075 BKN300 23/06 A2977 RMK CU3CI0 SLP091=

CYXE;2005-05-20 23:00;METAR CYXE 202300Z 21009KT 15SM FEW075 BKN300 22/04 A2976 RMK CU2CI2 SLP087=

CYXE;2005-05-21 00:00;METAR CYXE 210000Z 22006KT 15SM FEW085 BKN300 22/04 A2975 RMK CU1CI2 SLP083=

CYXE;2005-05-21 01:00;METAR CYXE 210100Z 23003KT 15SM FEW090 OVC300 22/02 A2974 RMK CU1CS5 SLP080=

CYXE;2005-05-21 02:00;METAR CYXE 210200Z 14004KT 15SM OVC300 20/05 A2973 RMK CS7 SLP077=

CYXE;2005-05-21 03:00;METAR CYXE 210300Z 14005KT 15SM BKN300 19/04 A2973 RMK CS3 SLP075=

CYXE;2005-05-21 04:00;METAR CYXE 210400Z 14006KT 15SM FEW300 17/04 A2973 RMK CI1 SLP074=

CYXE;2005-05-21 05:00;METAR CYXE 210500Z 13006KT 15SM BKN300 15/04 A2971 RMK CI2 SLP068=

CYXE;2005-05-21 06:00;METAR CYXE 210600Z 12007KT 15SM BKN300 14/05 A2969 RMK CI2 SLP060=

CYXE;2005-05-21 09:00;METAR CYXE 210900Z 00000KT 15SM SCT070 OVC300 15/05 A2967 RMK AS4CS4 SLP050=

CYXE;2005-05-21 13:44;SPECI CYXE 211344Z 07006KT 15SM -RA OVC064 RMK SC8=

CYXE;2005-05-21 15:00;METAR CYXE 211500Z 26012KT 15SM -RA OVC037 12/09 A2958 RMK SC8 SLP025=

CYXE;2005-05-21 16:00;METAR CYXE 211600Z 27011KT 3SM -RA BR OVC021 11/09 A2959 RMK SC8 SLP029=

CYXE;2005-05-21 17:00;METAR CYXE 211700Z 30015KT 4SM -RA BR SCT013 OVC052 12/10 A2958 RMK SC4SC4 SLP024=

CYXE;2005-05-21 17:21;SPECI CYXE 211721Z 31017G25KT 10SM -RA FEW008 BKN015 OVC054 RMK SF1SC4SC3=

CYXE;2005-05-21 18:00;METAR CYXE 211800Z 31019G24KT 15SM -RA FEW008 BKN064 OVC076 13/10 A2956 RMK SF1SC6AC2 SLP020=

CYXE;2005-05-21 19:00;METAR CYXE 211900Z 32018KT 15SM FEW015 OVC062 13/10 A2958 RMK SC1SC7 SLP024=

CYXE;2005-05-21 20:00;METAR CYXE 212000Z 32020G25KT 15SM -RA SCT026 OVC064 13/10 A2961 RMK SC3SC5 SLP034=

CYXE;2005-05-21 21:00;METAR CYXE 212100Z 32019G26KT 6SM -RA BR SCT031 OVC051 12/10 A2965 RMK SC4SC4 SLP050=

CYXE;2005-05-21 22:00;METAR CYXE 212200Z 32023G28KT 8SM -RA FEW013 OVC021 12/10 A2969 RMK SC2SC6 SLP063=

CYXE;2005-05-21 23:00;METAR CYXE 212300Z 32018G25KT 8SM -RA FEW012 SCT025 OVC050 11/10 A2974 RMK SC2SC2NS5 SLP078=

CYXE;2005-05-22 00:00;METAR CYXE 220000Z 31017G24KT 15SM -RA FEW012 OVC050 11/10 A2977 RMK SC2NS6 SLP090=

CYXE;2005-05-22 00:12;SPECI CYXE 220012Z 32017G24KT 15SM FEW012 OVC070 RMK SC2AS6=

CYXE;2005-05-22 01:00;METAR CYXE 220100Z 32020KT 15SM FEW070 BKN120 12/09 A2979 RMK AC1AS5 SLP098=

CYXE;2005-05-22 02:00;METAR CYXE 220200Z 31014KT 15SM FEW080 FEW120 12/08 A2980 RMK AC1CI1 SLP102=

CYXE;2005-05-22 03:00;METAR CYXE 220300Z 30010KT 15SM FEW080 FEW120 11/07 A2982 RMK AC2AC1 SLP111=

CYXE;2005-05-22 04:00;METAR CYXE 220400Z 29009KT 15SM BKN090 11/08 A2985 RMK AC7 SLP120=

CYXE;2005-05-22 05:00;METAR CYXE 220500Z 26006KT 15SM BKN070 10/07 A2986 RMK AC6 SLP124=

CYXE;2005-05-22 06:00;METAR CYXE 220600Z 26005KT 15SM BKN070 09/07 A2986 RMK AC6 SLP125=

CYXE;2005-05-22 07:00;METAR CYXE 220700Z 26007KT 15SM SCT093 10/08 A2986 RMK AC2 SLP125=

CYXE;2005-05-22 09:00;METAR CYXE 220900Z 22007KT 15SM FEW096 06/05 A2986 RMK AC1 SLP127=

CYXE;2005-05-22 10:00;METAR CYXE 221000Z 22006KT 15SM FEW096 07/06 A2986 RMK AC1 SLP128=

CYXE;2005-05-22 11:00;METAR CYXE 221100Z 23008KT 15SM FEW100 05/04 A2987 RMK AC1 MIFG SLP129=

CYXE;2005-05-22 12:00;METAR CYXE 221200Z 22006KT 15SM FEW100 06/05 A2987 RMK AC1 SLP131=

CYXE;2005-05-22 13:00;METAR CYXE 221300Z 25004KT 15SM SKC 09/07 A2987 RMK SLP132=

CYXE;2005-05-22 14:00;METAR CYXE 221400Z 24003KT 15SM FEW250 11/07 A2987 RMK CI0 SLP130=

CYXE;2005-05-22 15:00;METAR CYXE 221500Z 25004KT 15SM FEW250 14/08 A2986 RMK CI1 SLP124=

CYXE;2005-05-22 16:00;METAR CYXE 221600Z 23004KT 15SM FEW250 17/09 A2986 RMK CI1 SLP122=

CYXE;2005-05-22 17:00;METAR CYXE 221700Z 23006KT 15SM FEW045 FEW110 BKN250 19/07 A2985 RMK CU1AC1CI2 SLP119=

CYXE;2005-05-22 18:00;METAR CYXE 221800Z 25009KT 15SM FEW052 BKN110 BKN250 20/07 A2983 RMK CU1AC5CI1 SLP111=

CYXE;2005-05-22 19:00;METAR CYXE 221900Z 24005KT 15SM FEW068 BKN098 BKN250 21/04 A2982 RMK CU1AC3CI1 SLP106=

CYXE;2005-05-22 20:00;METAR CYXE 222000Z 23003KT 15SM FEW068 BKN098 OVC250 20/03 A2980 RMK CU1AC4CI1 SLP099=

CYXE;2005-05-22 21:00;METAR CYXE 222100Z 18008KT 15SM FEW076 BKN090 BKN250 21/02 A2978 RMK CU2AC4CI1 SLP093=

CYXE;2005-05-22 22:00;METAR CYXE 222200Z 20008KT 15SM FEW080 BKN100 BKN250 21/02 A2977 RMK CU2AC3CI1 SLP091=

CYXE;2005-05-22 23:00;METAR CYXE 222300Z 18007KT 15SM BKN090 BKN120 21/03 A2976 RMK CU5AC2 SLP086=

CYXE;2005-05-23 00:00;METAR CYXE 230000Z 21009KT 15SM FEW090 FEW120 22/04 A2972 RMK CU2AC1 SLP075=

CYXE;2005-05-23 01:00;METAR CYXE 230100Z 16010KT 15SM BKN090 20/04 A2970 RMK ACC7 VIRGA SLP067=

CYXE;2005-05-23 02:00;METAR CYXE 230200Z 14008KT 15SM BKN095 19/04 A2968 RMK ACC6 SLP061=

CYXE;2005-05-23 03:00;METAR CYXE 230300Z 13010KT 15SM SCT100 19/05 A2967 RMK ACC4 SLP052=

CYXE;2005-05-23 04:00;METAR CYXE 230400Z 13009KT 15SM FEW095 17/05 A2966 RMK ACC2 OCNL LTNG DSTNT S SLP049=

CYXE;2005-05-23 05:00;METAR CYXE 230500Z 16015KT 15SM FEW050 BKN100 17/06 A2965 RMK SC2AC3 SLP046=

CYXE;2005-05-23 06:00;METAR CYXE 230600Z 17016KT 15SM SCT050 17/06 A2962 RMK SC4 SLP034=

CYXE;2005-05-23 07:00;METAR CYXE 230700Z 16013KT 15SM FEW050 BKN110 16/07 A2960 RMK SC2AC2 SLP027=

CYXE;2005-05-23 08:00;METAR CYXE 230800Z 18012KT 15SM FEW050 OVC120 15/07 A2959 RMK SC2AS6 SLP025=

CYXE;2005-05-23 09:00;METAR CYXE 230900Z 19009KT 15SM BKN120 13/04 A2957 RMK AS4 SLP019=

CYXE;2005-05-23 10:00;METAR CYXE 231000Z 20012KT 15SM FEW050 BKN120 13/03 A2958 RMK SC1AS3 SLP022=

CYXE;2005-05-23 11:00;METAR CYXE 231100Z 22015KT 15SM SCT050 BKN100 BKN300 11/04 A2960 RMK SC3AC1CI1 SLP027=

CYXE;2005-05-23 12:00;METAR CYXE 231200Z 24011KT 15SM BKN091 11/06 A2960 RMK AC5 VIRGA N+S SLP030=

CYXE;2005-05-23 13:00;METAR CYXE 231300Z 27014G19KT 15SM BKN097 BKN220 11/07 A2963 RMK AC4CI2 VIRGA S SLP038=

CYXE;2005-05-23 14:00;METAR CYXE 231400Z 28016KT 15SM SCT080 BKN220 12/07 A2966 RMK ACC4CI2 SLP047=

CYXE;2005-05-23 15:00;METAR CYXE 231500Z 29015KT 15SM FEW080 SCT220 13/07 A2967 RMK ACC1CI2 SLP054=

CYXE;2005-05-23 16:00;METAR CYXE 231600Z 30019KT 15SM FEW030 FEW080 SCT220 15/07 A2968 RMK CU1AC1CI1 SLP058=

CYXE;2005-05-23 17:00;METAR CYXE 231700Z 29020G25KT 15SM SCT040 SCT220 17/07 A2968 RMK CU3CI1 SLP057=

CYXE;2005-05-23 18:00;METAR CYXE 231800Z 28016KT 15SM BKN043 BKN220 17/07 A2969 RMK CU6CI0 SLP059=

CYXE;2005-05-23 19:00;METAR CYXE 231900Z 25019G24KT 15SM BKN050 BKN220 18/06 A2969 RMK CU5CI0 SLP060=

CYXE;2005-05-23 20:00;METAR CYXE 232000Z 27019G29KT 15SM SCT055TCU BKN220 17/04 A2970 RMK TCU4CI0 SLP061=

CYXE;2005-05-23 21:00;METAR CYXE 232100Z 27019G25KT 15SM BKN060TCU BKN270 19/05 A2970 RMK TCU5CI0 SLP063=

CYXE;2005-05-23 22:00;METAR CYXE 232200Z 27020G28KT 15SM SCT060 18/04 A2970 RMK CU4 SLP064=

CYXE;2005-05-23 23:00;METAR CYXE 232300Z 27024KT 15SM SCT060 18/04 A2969 RMK CU4 CB DSTNT SE SLP062=

CYXE;2005-05-24 00:00;METAR CYXE 240000Z 27019G28KT 15SM FEW060 FEW250 16/05 A2970 RMK CU2CI1 CB DSTNT S SLP066=

CYXE;2005-05-24 01:00;METAR CYXE 240100Z 26022G27KT 15SM FEW060 SCT250 14/04 A2970 RMK CU1CI2 SHWRS SE SLP067=

CYXE;2005-05-24 02:00;METAR CYXE 240200Z 27019G24KT 15SM FEW020 SCT040 BKN055 11/05 A2972 RMK SC2SC2SC4 SLP073=

CYXE;2005-05-24 02:40;SPECI CYXE 240240Z 24020G26KT 12SM -RA BKN030 BKN070 RMK SC6AC2=

CYXE;2005-05-24 03:00;METAR CYXE 240300Z 24021KT 12SM -RA BKN028 OVC070 10/06 A2972 RMK SC6AC2 SLP074=

CYXE;2005-05-24 03:23;SPECI CYXE 240323Z 24016KT 15SM OVC025 RMK SC8=

CYXE;2005-05-24 04:00;METAR CYXE 240400Z 24020KT 15SM -RA OVC019 10/07 A2970 RMK SC8 SLP068=

CYXE;2005-05-24 04:42;SPECI CYXE 240442Z 25020G25KT 15SM BKN014 OVC040 RMK SC6SC2=

CYXE;2005-05-24 05:00;METAR CYXE 240500Z 25017KT 15SM BKN014 OVC040 10/08 A2969 RMK SC5SC3 SLP067=

CYXE;2005-05-24 05:07;SPECI CYXE 240507Z 25015KT 15SM SCT012 OVC040 RMK SC3SC5=

CYXE;2005-05-24 05:50;SPECI CYXE 240550Z 25016KT 10SM -RA BKN015 OVC040 RMK SC6SC2=

CYXE;2005-05-24 06:00;METAR CYXE 240600Z 25014G20KT 10SM -RA SCT015 OVC036 10/09 A2971 RMK SC4SC4 SLP069=

CYXE;2005-05-24 07:00;METAR CYXE 240700Z 25012KT 15SM -RA BKN015 OVC046 10/09 A2971 RMK SC6SC2 SLP069=

CYXE;2005-05-24 08:00;METAR CYXE 240800Z 26012KT 15SM -RA BKN012 OVC042 09/09 A2971 RMK SC6SC2 SLP070=

CYXE;2005-05-24 08:34;SPECI CYXE 240834Z 26013KT 10SM -RA BKN008 OVC042 RMK SC6SC2=

CYXE;2005-05-24 09:00;METAR CYXE 240900Z 27012KT 10SM -RA BKN009 OVC041 09/08 A2971 RMK SC6SC2 SLP071=

CYXE;2005-05-24 10:00;METAR CYXE 241000Z 28012G18KT 10SM -RA OVC008 09/08 A2972 RMK SC8 SLP075=

CYXE;2005-05-24 10:39;SPECI CYXE 241039Z 28012KT 6SM -DZ OVC009 RMK ST8=

CYXE;2005-05-24 11:00;METAR CYXE 241100Z 28016KT 6SM -DZ OVC009 09/08 A2974 RMK ST8 SLP079=

CYXE;2005-05-24 11:27;SPECI CYXE 241127Z 28012G17KT 2 1/2SM -DZ OVC007 RMK ST8=

CYXE;2005-05-24 11:38;SPECI CYXE 241138Z 29014G19KT 4SM -DZ OVC006 RMK ST8=

CYXE;2005-05-24 12:00;METAR CYXE 241200Z 31016KT 2SM -RA BR OVC007 09/08 A2976 RMK ST8 SLP087=

CYXE;2005-05-24 12:42;SPECI CYXE 241242Z 31014G19KT 6SM -RA OVC013 RMK SC8=

CYXE;2005-05-24 13:00;METAR CYXE 241300Z 31014G19KT 15SM -RA BKN015 OVC090 09/07 A2978 RMK SC6AC1 -RA INTMT SLP094=

CYXE;2005-05-24 14:00;METAR CYXE 241400Z 31016G21KT 15SM -DZ SCT015 OVC050 09/07 A2980 RMK SC4SC3 -DZ INTMT SLP101=

CYXE;2005-05-24 14:28;SPECI CYXE 241428Z 31015G21KT 15SM SCT015 BKN050 OVC300 RMK SC3SC2CI2=

CYXE;2005-05-24 15:00;METAR CYXE 241500Z 31014KT 15SM BKN016 OVC040 10/07 A2983 RMK SC7SC1 SLP115=

CYXE;2005-05-24 16:00;METAR CYXE 241600Z 31016G22KT 15SM BKN014 OVC035 10/07 A2984 RMK SC6SC2 SLP119=

CYXE;2005-05-24 16:09;SPECI CYXE 241609Z 31015G21KT 15SM -SHRA BKN014 OVC035 RMK SC6SC2=

CYXE;2005-05-24 16:50;SPECI CYXE 241650Z 30021KT 15SM VCSH BKN014 BKN050 RMK SC6SC2=

CYXE;2005-05-24 17:00;METAR CYXE 241700Z 29020G25KT 15SM VCSH BKN014 BKN045 11/07 A2985 RMK SC6SC2 SLP122=

CYXE;2005-05-24 17:25;SPECI CYXE 241725Z 30017KT 15SM BKN020 BKN045 RMK SC5SC2=

CYXE;2005-05-24 18:00;METAR CYXE 241800Z 30018G24KT 15SM BKN025 BKN050 11/06 A2986 RMK SC6SC2 SLP126=

CYXE;2005-05-24 19:00;METAR CYXE 241900Z 30018G26KT 15SM BKN020 BKN050 12/06 A2987 RMK SC6SC2 SLP129=

CYXE;2005-05-24 20:00;METAR CYXE 242000Z 30021G26KT 15SM BKN025 BKN045 12/06 A2988 RMK SC6SC2 SLP131=

CYXE;2005-05-24 21:00;METAR CYXE 242100Z 30019G24KT 15SM BKN030 BKN050 13/06 A2989 RMK SC6SC2 SLP134=

CYXE;2005-05-24 22:00;METAR CYXE 242200Z 30018G25KT 15SM BKN030 BKN050 12/05 A2991 RMK SC6SC2 SLP142=

CYXE;2005-05-24 23:00;METAR CYXE 242300Z 31020G27KT 15SM SCT032 BKN220 14/06 A2992 RMK SC4CI1 SLP143=

CYXE;2005-05-25 00:00;METAR CYXE 250000Z 30017G24KT 15SM FEW015 SCT032 SCT097 BKN220 13/06 A2993 RMK SC1SC2AC1CI0 SLP147=

CYXE;2005-05-25 01:00;METAR CYXE 250100Z 30014G19KT 15SM SCT038 SCT055 BKN097 BKN220 12/06 A2994 RMK SC3SC1AC2CI0 SLP152=

CYXE;2005-05-25 02:00;METAR CYXE 250200Z 32011G17KT 15SM SCT033 SCT061 BKN097 BKN220 11/05 A2996 RMK SC3SC1AC1CI0 SLP157=

CYXE;2005-05-25 03:00;METAR CYXE 250300Z 31011KT 15SM FEW033 SCT064 BKN097 BKN220 11/05 A2997 RMK SC1SC3AC1CI0 SLP162=

CYXE;2005-05-25 04:00;METAR CYXE 250400Z 31008KT 15SM FEW057 BKN067 BKN092 10/04 A2999 RMK SC2AC3AC1 SLP168=

CYXE;2005-05-25 05:00;METAR CYXE 250500Z 31011KT 15SM SCT045 OVC076 09/04 A3000 RMK SC3AC4 SLP172=

CYXE;2005-05-25 06:00;METAR CYXE 250600Z 31010G15KT 15SM SCT037 OVC071 09/03 A3001 RMK SC3AC5 SLP179=

CYXE;2005-05-25 07:00;METAR CYXE 250700Z 28005KT 15SM SCT040 BKN074 06/03 A3002 RMK SC3AC4 SLP181=

CYXE;2005-05-25 08:00;METAR CYXE 250800Z 29007KT 15SM OVC042 08/04 A3002 RMK SC8 SLP181=

CYXE;2005-05-25 09:00;METAR CYXE 250900Z 29007KT 14SM BKN037 OVC083 07/04 A3002 RMK SC6AC2 SLP181=

CYXE;2005-05-25 10:00;METAR CYXE 251000Z 29008KT 15SM SCT036 OVC075 08/04 A3002 RMK SC4AC4 SLP181=

CYXE;2005-05-25 11:00;METAR CYXE 251100Z 27007KT 15SM SCT024 BKN040 OVC075 08/05 A3003 RMK SC3SC4AC1 SLP184=

CYXE;2005-05-25 12:00;METAR CYXE 251200Z 29010KT 15SM BKN022 08/05 A3004 RMK SC7 SLP188=

CYXE;2005-05-25 13:00;METAR CYXE 251300Z 35007KT 15SM BKN018 08/05 A3006 RMK SC7 SLP192=

CYXE;2005-05-25 14:00;METAR CYXE 251400Z 31007KT 15SM BKN016 08/05 A3006 RMK SC7 SLP193=

CYXE;2005-05-25 15:00;METAR CYXE 251500Z 30013KT 15SM OVC016 09/05 A3006 RMK SC8 SLP195=

CYXE;2005-05-25 16:00;METAR CYXE 251600Z 30016KT 15SM OVC021 09/04 A3006 RMK SC8 SLP196=

CYXE;2005-05-25 17:00;METAR CYXE 251700Z 31018G24KT 15SM BKN023 OVC050 10/04 A3006 RMK SC6SC2 SLP194=

CYXE;2005-05-25 18:00;METAR CYXE 251800Z 31017G22KT 15SM BKN025 OVC080 10/04 A3006 RMK SC7AC1 SLP194=

CYXE;2005-05-25 19:00;METAR CYXE 251900Z 30016G22KT 15SM BKN030 OVC070 12/04 A3004 RMK SC5AC3 SLP190=

CYXE;2005-05-25 20:00;METAR CYXE 252000Z 30021G26KT 15SM VCSH BKN035 BKN070 13/04 A3003 RMK CU5AC2 SLP185=

CYXE;2005-05-25 21:00;METAR CYXE 252100Z 31015KT 15SM -SHRA BKN040 OVC070 12/03 A3003 RMK CU7AC1 SLP184=

CYXE;2005-05-25 22:00;METAR CYXE 252200Z 32011KT 15SM -SHRA BKN039 OVC063 10/06 A3004 RMK SC7SC1 SLP189=

CYXE;2005-05-25 23:00;METAR CYXE 252300Z 32014KT 8SM -RA FEW013 BKN033 OVC057 09/06 A3004 RMK SC2SC5SC2 SLP189=

CYXE;2005-05-26 00:00;METAR CYXE 260000Z 32014KT 15SM -SHRA FEW022 OVC034 09/07 A3004 RMK SC2SC6 SLP191=

CYXE;2005-05-26 00:29;SPECI CYXE 260029Z 35012G17KT 15SM BKN020 OVC049 RMK SC6SC2=

CYXE;2005-05-26 01:00;METAR CYXE 260100Z 32019KT 15SM BKN023 OVC050 09/04 A3005 RMK SC7SC1 SLP194=

CYXE;2005-05-26 02:00;METAR CYXE 260200Z 34016KT 15SM BKN027 BKN048 07/03 A3007 RMK SC6SC2 SLP199=

CYXE;2005-05-26 03:00;METAR CYXE 260300Z 34013G19KT 15SM BKN031 OVC076 07/02 A3008 RMK SC5AC3 SLP204=

CYXE;2005-05-26 04:00;METAR CYXE 260400Z 34012KT 15SM BKN030 07/02 A3009 RMK SC7 SLP208=

CYXE;2005-05-26 05:00;METAR CYXE 260500Z 33009KT 15SM BKN028 07/02 A3010 RMK SC7 SLP209=

CYXE;2005-05-26 06:00;METAR CYXE 260600Z 31009KT 15SM OVC028 06/02 A3009 RMK SC8 SLP208=

CYXE;2005-05-26 07:00;METAR CYXE 260700Z 31010KT 15SM SCT040 BKN090 06/02 A3010 RMK SC4AC3 SLP209=

CYXE;2005-05-26 08:00;METAR CYXE 260800Z 31011KT 15SM OVC025 06/02 A3010 RMK SC8 SLP210=

CYXE;2005-05-26 09:00;METAR CYXE 260900Z 31011KT 15SM OVC021 06/02 A3010 RMK SC8 SLP210=

CYXE;2005-05-26 10:00;METAR CYXE 261000Z 33011KT 15SM OVC019 06/02 A3011 RMK SC8 SLP212=

CYXE;2005-05-26 11:00;METAR CYXE 261100Z 32012KT 15SM BKN017 OVC055 06/02 A3011 RMK SC6SC2 SLP213=

CYXE;2005-05-26 12:00;METAR CYXE 261200Z 32009KT 15SM BKN017 OVC042 05/02 A3012 RMK SC6SC2 SLP219=

CYXE;2005-05-26 13:00;METAR CYXE 261300Z 32013G18KT 15SM BKN018 OVC040 06/02 A3012 RMK SC6SC2 SLP219=

CYXE;2005-05-26 14:00;METAR CYXE 261400Z 33014G20KT 15SM -DZ BKN016 OVC040 06/03 A3012 RMK SC5SC3 SLP219=

CYXE;2005-05-26 15:00;METAR CYXE 261500Z 34016G21KT 15SM -DZ OVC014 07/03 A3013 RMK SC8 SLP223=

CYXE;2005-05-26 15:08;SPECI CYXE 261508Z 33016KT 15SM OVC014 RMK SC8=

CYXE;2005-05-26 16:00;METAR CYXE 261600Z 34017KT 15SM OVC016 08/03 A3013 RMK SC8 SLP222=

CYXE;2005-05-26 17:00;METAR CYXE 261700Z 32018G24KT 15SM OVC018 08/03 A3013 RMK SC8 SLP222=

CYXE;2005-05-26 18:00;METAR CYXE 261800Z 32018G25KT 15SM BKN022 09/03 A3011 RMK SC7 SLP214=

CYXE;2005-05-26 19:00;METAR CYXE 261900Z 31012G18KT 15SM OVC031 10/03 A3009 RMK SC8 SLP209=

CYXE;2005-05-26 20:00;METAR CYXE 262000Z 32017G28KT 15SM BKN033 11/04 A3008 RMK SC7 SLP204=

CYXE;2005-05-26 21:00;METAR CYXE 262100Z 32023G30KT 15SM BKN031 11/04 A3008 RMK SC7 SLP203=

CYXE;2005-05-26 22:00;METAR CYXE 262200Z 34018KT 15SM BKN031 11/04 A3008 RMK SC7 SLP204=

CYXE;2005-05-26 23:00;METAR CYXE 262300Z 34016G25KT 15SM BKN031 BKN049 11/03 A3008 RMK SC6SC1 SLP203=

CYXE;2005-05-27 00:00;METAR CYXE 270000Z 34021KT 15SM BKN038 BKN094 11/03 A3008 RMK SC5AC1 SLP201=

CYXE;2005-05-27 01:00;METAR CYXE 270100Z 35016G22KT 15SM BKN040 BKN094 BKN250 11/02 A3008 RMK SC5AC1CI0 SLP203=

CYXE;2005-05-27 02:00;METAR CYXE 270200Z 36015G21KT 15SM BKN038 BKN077 10/03 A3009 RMK SC6AC1 SLP205=

CYXE;2005-05-27 03:00;METAR CYXE 270300Z 36013G19KT 15SM BKN035 10/03 A3008 RMK SC7 SLP205=

CYXE;2005-05-27 04:00;METAR CYXE 270400Z 35013G18KT 15SM BKN035 09/02 A3008 RMK SC7 SLP205=

CYXE;2005-05-27 05:00;METAR CYXE 270500Z 33013KT 15SM BKN044 09/02 A3008 RMK SC7 SLP202=

CYXE;2005-05-27 06:00;METAR CYXE 270600Z 32012G17KT 15SM SCT030 BKN045 08/03 A3006 RMK SC4SC3 SLP197=

CYXE;2005-05-27 07:00;METAR CYXE 270700Z 34014G21KT 15SM BKN026 OVC050 08/03 A3005 RMK SC7SC1 SLP194=

CYXE;2005-05-27 08:00;METAR CYXE 270800Z 36016G22KT 15SM SCT025 OVC055 07/03 A3005 RMK SC3SC5 SLP194=

CYXE;2005-05-27 09:00;METAR CYXE 270900Z 35017KT 15SM BKN021 OVC050 07/03 A3005 RMK SC7SC1 SLP193=

CYXE;2005-05-27 10:00;METAR CYXE 271000Z 35013G18KT 15SM OVC025 07/03 A3005 RMK SC7 SLP192=

CYXE;2005-05-27 11:00;METAR CYXE 271100Z 34013KT 15SM BKN025 07/02 A3005 RMK SC7 SLP191=

CYXE;2005-05-27 12:00;METAR CYXE 271200Z 34012KT 15SM BKN025 07/02 A3004 RMK SC6 SLP190=

CYXE;2005-05-27 13:00;METAR CYXE 271300Z 32015G20KT 15SM FEW025 08/03 A3004 RMK SC1 SLP188=

CYXE;2005-05-27 14:00;METAR CYXE 271400Z 33019G26KT 15SM FEW025 10/03 A3003 RMK CU1 SLP184=

CYXE;2005-05-27 15:00;METAR CYXE 271500Z 34023G28KT 15SM FEW030 11/03 A3001 RMK CU1 SLP178=

CYXE;2005-05-27 16:00;METAR CYXE 271600Z 34024G29KT 15SM SCT040 12/03 A2999 RMK CU3 SLP171=

CYXE;2005-05-27 17:00;METAR CYXE 271700Z 34029KT 15SM SCT040 13/02 A2997 RMK CU3 SLP165=

CYXE;2005-05-27 18:00;METAR CYXE 271800Z 33023G31KT 15SM SCT045 15/03 A2996 RMK CU3 SLP157=

CYXE;2005-05-27 19:00;METAR CYXE 271900Z 35023G30KT 15SM SCT050 SCT200 16/03 A2995 RMK CU3CI1 SLP153=

CYXE;2005-05-27 20:00;METAR CYXE 272000Z 33026KT 15SM SCT050 SCT200 16/03 A2993 RMK CU3CI1 SLP148=

CYXE;2005-05-27 21:00;METAR CYXE 272100Z 34017G26KT 15SM SCT050 17/04 A2992 RMK CU4 SLP143=

CYXE;2005-05-27 22:00;METAR CYXE 272200Z 33022G27KT 15SM BKN059 15/02 A2991 RMK SC6 SLP141=

CYXE;2005-05-27 23:00;METAR CYXE 272300Z 34019G28KT 15SM BKN059 BKN280 16/03 A2991 RMK SC6CI1 SLP140=

CYXE;2005-05-28 00:00;METAR CYXE 280000Z 36016G21KT 15SM BKN059 BKN280 15/03 A2990 RMK SC6CI1 SLP138=

CYXE;2005-05-28 01:00;METAR CYXE 280100Z 36016G22KT 15SM FEW059 BKN280 15/03 A2990 RMK SC2CI1 SLP137=

CYXE;2005-05-28 02:00;METAR CYXE 280200Z 01017G25KT 15SM SCT061 SCT093 BKN280 13/02 A2990 RMK SC2AC1CI0 SLP140=

CYXE;2005-05-28 03:00;METAR CYXE 280300Z 01024G30KT 15SM BKN054 12/02 A2992 RMK SC7 SLP144=

CYXE;2005-05-28 03:31;SPECI CYXE 280331Z 03015G22KT 15SM -RA BKN054 RMK SC7=

CYXE;2005-05-28 04:00;METAR CYXE 280400Z 02015G20KT 15SM -RA BKN046 09/05 A2994 RMK SC7 SLP150=

CYXE;2005-05-28 05:00;METAR CYXE 280500Z 01009KT 15SM -RA OVC044 08/06 A2994 RMK SC8 SLP150=

CYXE;2005-05-28 06:00;METAR CYXE 280600Z 04010G20KT 10SM -RA BKN011 OVC050 07/05 A2994 RMK SC6SC2 SLP151=

CYXE;2005-05-28 06:17;SPECI CYXE 280617Z 06010KT 10SM -RA SCT004 BKN015 OVC050 RMK SF3SC4SC1=

CYXE;2005-05-28 07:00;METAR CYXE 280700Z 04010KT 15SM -RA SCT006 OVC010 06/04 A2994 RMK SF4SC4 SLP153=

CYXE;2005-05-28 07:34;SPECI CYXE 280734Z 04008KT 15SM SCT006 OVC014 RMK SF3SC5=

CYXE;2005-05-28 08:00;METAR CYXE 280800Z 04008KT 15SM -RA FEW006 OVC012 06/04 A2995 RMK SF2SC6 SLP154=

CYXE;2005-05-28 08:47;SPECI CYXE 280847Z 04010KT 15SM SCT012 OVC025 RMK SC3SC5=

CYXE;2005-05-28 09:00;METAR CYXE 280900Z 03009KT 15SM FEW014 BKN025 OVC040 05/03 A2995 RMK SF1SC4SC3 SLP156=

CYXE;2005-05-28 10:00;METAR CYXE 281000Z 03009KT 15SM FEW015 OVC027 05/03 A2996 RMK SC2SC6 SLP160=

CYXE;2005-05-28 11:00;METAR CYXE 281100Z 02009KT 15SM FEW020 OVC030 05/03 A2997 RMK SC2SC6 SLP163=

CYXE;2005-05-28 12:00;METAR CYXE 281200Z 02010KT 15SM BKN013 OVC030 05/03 A2998 RMK SC7SC1 SLP167=

CYXE;2005-05-28 12:13;SPECI CYXE 281213Z 02008KT 15SM -DZ OVC013 RMK SC8=

CYXE;2005-05-28 13:00;METAR CYXE 281300Z 02010KT 15SM -DZ OVC011 05/03 A2999 RMK SC8 SLP172=

CYXE;2005-05-28 14:00;METAR CYXE 281400Z 04011KT 15SM OVC013 05/03 A3001 RMK SC8 SLP177=

CYXE;2005-05-28 15:00;METAR CYXE 281500Z 04009KT 15SM OVC013 06/04 A3002 RMK SC8 SLP182=

CYXE;2005-05-28 16:00;METAR CYXE 281600Z 02010KT 15SM OVC015 07/04 A3003 RMK SC8 SLP186=

CYXE;2005-05-28 17:00;METAR CYXE 281700Z 02009KT 15SM OVC015 07/04 A3004 RMK SC8 SLP189=

CYXE;2005-05-28 18:00;METAR CYXE 281800Z 03006KT 15SM OVC017 09/04 A3004 RMK SC8 SLP192=

CYXE;2005-05-28 19:00;METAR CYXE 281900Z 04009KT 15SM OVC019 10/05 A3005 RMK SC8 SLP194=

CYXE;2005-05-28 20:00;METAR CYXE 282000Z 03007KT 15SM OVC023 11/05 A3006 RMK SC8 SLP197=

CYXE;2005-05-28 21:00;METAR CYXE 282100Z 03009KT 15SM BKN027 12/05 A3007 RMK SC7 SLP198=

CYXE;2005-05-28 22:00;METAR CYXE 282200Z 06009KT 15SM BKN027 12/06 A3008 RMK SC7 SLP201=

CYXE;2005-05-28 23:00;METAR CYXE 282300Z 06006KT 15SM BKN033 13/06 A3008 RMK SC6 SLP203=

CYXE;2005-05-29 00:00;METAR CYXE 290000Z 07010KT 15SM SCT040 13/05 A3008 RMK CU4 SLP203=

CYXE;2005-05-29 01:00;METAR CYXE 290100Z 08011KT 15SM FEW040 SCT089 13/05 A3009 RMK CU2AC1 SLP205=

CYXE;2005-05-29 02:00;METAR CYXE 290200Z 08009KT 15SM FEW039 FEW090 13/05 A3009 RMK CU1AC1 SLP206=

CYXE;2005-05-29 03:00;METAR CYXE 290300Z 08007KT 15SM FEW039 FEW090 09/05 A3011 RMK CU1AC1 SLP214=

CYXE;2005-05-29 04:00;METAR CYXE 290400Z 08006KT 15SM FEW040 07/04 A3013 RMK SC1 SLP220=

CYXE;2005-05-29 05:00;METAR CYXE 290500Z 09005KT 15SM FEW040 06/04 A3014 RMK SC1 SLP225=

CYXE;2005-05-29 06:00;METAR CYXE 290600Z 08004KT 15SM FEW030 05/03 A3015 RMK SC1 SLP229=

CYXE;2005-05-29 07:00;METAR CYXE 290700Z 05002KT 15SM SKC 05/03 A3016 RMK SLP233=

CYXE;2005-05-29 08:00;METAR CYXE 290800Z 05003KT 15SM SKC 03/02 A3018 RMK SLP238=

CYXE;2005-05-29 10:00;METAR CYXE 291000Z 08002KT 15SM OVC016 05/05 A3019 RMK SC7 SLP244=

CYXE;2005-05-29 11:00;METAR CYXE 291100Z 09003KT 15SM BKN022 06/05 A3020 RMK SC7 SLP247=

CYXE;2005-05-29 12:00;METAR CYXE 291200Z 13004KT 15SM BKN024 OVC220 07/06 A3021 RMK SC7CI0 SLP245=

CYXE;2005-05-29 13:00;METAR CYXE 291300Z 23003KT 15SM BKN029 07/06 A3022 RMK SC7 SLP251=

CYXE;2005-05-29 14:00;METAR CYXE 291400Z 00000KT 15SM BKN008 OVC030 08/06 A3023 RMK SC6SC2 SLP254=

CYXE;2005-05-29 14:42;SPECI CYXE 291442Z 00000KT 15SM BKN010 BKN030 RMK SC6SC2=

CYXE;2005-05-29 15:00;METAR CYXE 291500Z 07002KT 15SM BKN010 BKN030 10/06 A3024 RMK SC6SC2 SLP257=

CYXE;2005-05-29 16:00;METAR CYXE 291600Z 07003KT 15SM BKN014 10/06 A3024 RMK SC7 SLP258=

CYXE;2005-05-29 16:47;SPECI CYXE 291647Z 04003KT 15SM BKN016 RMK SC7=

CYXE;2005-05-29 17:00;METAR CYXE 291700Z 02003KT 15SM BKN018 12/07 A3023 RMK SC5 SLP253=

CYXE;2005-05-29 18:00;METAR CYXE 291800Z 07006KT 15SM BKN025 13/07 A3023 RMK SC7 SLP254=

CYXE;2005-05-29 19:00;METAR CYXE 291900Z 06003KT 15SM BKN027 13/06 A3022 RMK SC5 SLP250=

CYXE;2005-05-29 20:00;METAR CYXE 292000Z 02003KT 15SM SCT030 15/07 A3020 RMK CU3 SLP244=

CYXE;2005-05-29 21:00;METAR CYXE 292100Z 00000KT 15SM SCT040 16/07 A3019 RMK CU3 SLP241=

CYXE;2005-05-29 22:00;METAR CYXE 292200Z 09002KT 15SM SCT040 17/07 A3018 RMK CU4 SLP237=

CYXE;2005-05-29 23:00;METAR CYXE 292300Z 03002KT 15SM BKN047 18/07 A3017 RMK SC6 SLP233=

CYXE;2005-05-30 00:00;METAR CYXE 300000Z 00000KT 15SM BKN049 17/06 A3016 RMK SC6 SLP225=

CYXE;2005-05-30 01:00;METAR CYXE 300100Z 06003KT 15SM BKN051 17/07 A3014 RMK SC5 SLP221=

CYXE;2005-05-30 02:00;METAR CYXE 300200Z 09009KT 15SM FEW051 16/08 A3015 RMK SC2 SLP222=

CYXE;2005-05-30 03:00;METAR CYXE 300300Z 11008KT 15SM FEW051 15/08 A3014 RMK SC1 SLP220=

CYXE;2005-05-30 04:00;METAR CYXE 300400Z 11008KT 15SM FEW050 13/08 A3015 RMK SC1 MIFG 12NE SLP222=

CYXE;2005-05-30 05:00;METAR CYXE 300500Z 13006KT 15SM SKC 11/07 A3015 RMK SLP223=

CYXE;2005-05-30 06:00;METAR CYXE 300600Z 16006KT 15SM SKC 10/07 A3015 RMK SLP224=

CYXE;2005-05-30 07:00;METAR CYXE 300700Z 15006KT 15SM SKC 09/06 A3015 RMK SLP224=

CYXE;2005-05-30 08:00;METAR CYXE 300800Z 16007KT 15SM SKC 09/07 A3015 RMK SLP223=

CYXE;2005-05-30 09:00;METAR CYXE 300900Z 15004KT 15SM SCT040 08/06 A3015 RMK SC3 SLP223=

CYXE;2005-05-30 10:00;METAR CYXE 301000Z 15003KT 15SM SCT040 08/06 A3015 RMK SC3 SLP223=

CYXE;2005-05-30 11:00;METAR CYXE 301100Z 15004KT 15SM BKN043 07/06 A3015 RMK SC5 SLP224=

CYXE;2005-05-30 13:00;METAR CYXE 301300Z 18006KT 15SM BKN047 11/08 A3016 RMK SC7 SLP226=

CYXE;2005-05-30 14:00;METAR CYXE 301400Z 17007KT 15SM BKN053 12/08 A3016 RMK SC5 SLP225=

CYXE;2005-05-30 15:00;METAR CYXE 301500Z 21005KT 15SM FEW055 15/07 A3016 RMK SC2 SLP223=

CYXE;2005-05-30 16:00;METAR CYXE 301600Z 24003KT 15SM FEW036 FEW056 SCT110 16/07 A3014 RMK CU1SC1AC1 SLP218=

CYXE;2005-05-30 17:00;METAR CYXE 301700Z 14005KT 15SM SCT043 17/07 A3013 RMK CU3 SLP214=

CYXE;2005-05-30 18:00;METAR CYXE 301800Z 16007KT 15SM SCT045 SCT058 19/07 A3012 RMK CU3SC1 SLP210=

CYXE;2005-05-30 19:00;METAR CYXE 301900Z 18007KT 15SM BKN057 BKN085 18/06 A3011 RMK SC5AC1 SLP207=

CYXE;2005-05-30 20:00;METAR CYXE 302000Z 16007KT 15SM SCT057 20/07 A3010 RMK CU4 SLP204=

CYXE;2005-05-30 21:00;METAR CYXE 302100Z 17006KT 15SM SCT057 20/08 A3008 RMK CU3 SLP198=

CYXE;2005-05-30 22:00;METAR CYXE 302200Z 15011KT 15SM FEW060 20/07 A3007 RMK CU2 SLP192=

CYXE;2005-05-30 23:00;METAR CYXE 302300Z 22006KT 15SM FEW060 21/06 A3005 RMK CU2 SLP186=

CYXE;2005-05-31 00:00;METAR CYXE 310000Z 15005KT 15SM FEW060 20/06 A3004 RMK CU2 SLP181=

CYXE;2005-05-31 01:00;METAR CYXE 310100Z 17006KT 15SM FEW060 20/07 A3003 RMK CU1 SLP177=

CYXE;2005-05-31 02:00;METAR CYXE 310200Z 15006KT 15SM SKC 19/06 A3002 RMK SLP176=

CYXE;2005-05-31 03:00;METAR CYXE 310300Z 16006KT 15SM SKC 16/06 A3002 RMK SLP173=

CYXE;2005-05-31 04:00;METAR CYXE 310400Z 16006KT 15SM SKC 15/06 A3002 RMK SLP173=

CYXE;2005-05-31 05:00;METAR CYXE 310500Z 16008KT 15SM SKC 14/06 A3002 RMK SLP175=

CYXE;2005-05-31 06:00;METAR CYXE 310600Z 16007KT 15SM SKC 13/06 A3002 RMK SLP173=

CYXE;2005-05-31 07:00;METAR CYXE 310700Z 17007KT 15SM SKC 11/06 A3001 RMK SLP172=

CYXE;2005-05-31 08:00;METAR CYXE 310800Z 18006KT 15SM SKC 09/06 A3001 RMK SLP171=

CYXE;2005-05-31 09:00;METAR CYXE 310900Z 18005KT 15SM SKC 10/06 A3000 RMK SLP170=

CYXE;2005-05-31 10:00;METAR CYXE 311000Z 18006KT 15SM FEW250 09/06 A3001 RMK CI1 SLP171=

CYXE;2005-05-31 11:00;METAR CYXE 311100Z 18005KT 15SM FEW250 08/06 A3000 RMK CI1 SLP170=

CYXE;2005-05-31 12:00;METAR CYXE 311200Z 18007KT 15SM FEW250 08/06 A3001 RMK CI1 SLP172=

CYXE;2005-05-31 13:00;METAR CYXE 311300Z 18007KT 15SM FEW250 11/06 A3001 RMK CI1 SLP172=

CYXE;2005-05-31 14:00;METAR CYXE 311400Z 18005KT 15SM SCT250 14/07 A3000 RMK CI1 SLP168=

CYXE;2005-05-31 15:00;METAR CYXE 311500Z 17002KT 15SM BKN250 16/07 A2999 RMK CI2 SLP163=

CYXE;2005-05-31 16:00;METAR CYXE 311600Z 00000KT 15SM BKN250 19/07 A2998 RMK CI2 SLP159=

CYXE;2005-05-31 17:00;METAR CYXE 311700Z 20006KT 15SM FEW093 BKN250 21/07 A2996 RMK CU1CI2 SLP155=

CYXE;2005-05-31 18:00;METAR CYXE 311800Z 17007KT 15SM FEW095 OVC250 21/07 A2995 RMK CU2CI2 SLP148=

CYXE;2005-05-31 19:00;METAR CYXE 311900Z 17008KT 15SM FEW100 OVC250 22/07 A2993 RMK CU2CI2 SLP143=

CYXE;2005-05-31 20:00;METAR CYXE 312000Z 20010G16KT 15SM SCT075 OVC240 23/05 A2992 RMK CU3CI2 SLP138=

CYXE;2005-05-31 21:00;METAR CYXE 312100Z 16006KT 15SM BKN075 OVC240 22/07 A2990 RMK CU5CI2 SLP134=

CYXE;2005-05-31 22:00;METAR CYXE 312200Z 16006KT 15SM FEW055 BKN075 OVC240 21/07 A2989 RMK CU2AC3CI1 SLP130=

CYXE;2005-05-31 23:00;METAR CYXE 312300Z 14006KT 15SM FEW055 BKN095 OVC250 21/07 A2987 RMK CU2AC3CI2 TCU ASOCTD SLP124=

CYXE;2005-06-01 00:00;METAR CYXE 010000Z 14011KT 15SM FEW055 BKN075 OVC250 21/08 A2986 RMK CU2AC4CI1 SLP121=

CYXE;2005-06-01 01:00;METAR CYXE 010100Z 16007KT 15SM FEW055 BKN095 OVC250 20/07 A2985 RMK CU1AC6CI1 SLP118=

CYXE;2005-06-01 02:00;METAR CYXE 010200Z 13005KT 15SM FEW055 BKN082 OVC250 20/09 A2984 RMK CU1AC5CI1 TCU ASOCTD E SLP115=

CYXE;2005-06-01 03:00;METAR CYXE 010300Z 17005KT 15SM SCT090 OVC250 18/09 A2983 RMK AC2CI2 SLP108=

CYXE;2005-06-01 04:00;METAR CYXE 010400Z 14005KT 15SM BKN072 OVC250 17/09 A2984 RMK AC6CI1 SLP110=

CYXE;2005-06-01 05:00;METAR CYXE 010500Z 15006KT 15SM FEW075 SCT250 15/09 A2983 RMK AC2CI1 SLP107=

CYXE;2005-06-01 06:00;METAR CYXE 010600Z 13004KT 15SM FEW070 BKN250 15/09 A2982 RMK AC2CI2 SLP102=

CYXE;2005-06-01 07:00;METAR CYXE 010700Z 00000KT 15SM SCT070 BKN100 14/09 A2981 RMK AC4AC2 SLP100=

CYXE;2005-06-01 08:00;METAR CYXE 010800Z 16004KT 15SM BKN075 OVC100 14/10 A2981 RMK AC6AC2 SLP100=

CYXE;2005-06-01 09:00;METAR CYXE 010900Z 16003KT 15SM FEW070 OVC100 14/10 A2980 RMK AC1AC7 SLP097=

CYXE;2005-06-01 10:00;METAR CYXE 011000Z 00000KT 15SM FEW070 OVC100 13/09 A2978 RMK AC1AC7 SLP091=

CYXE;2005-06-01 11:00;METAR CYXE 011100Z 11007KT 15SM BKN070 OVC090 12/10 A2979 RMK ACC6AC2 SHWRS NE-SE-SW SLP092=

CYXE;2005-06-01 11:45;SPECI CYXE 011145Z 12007KT 10SM -SHRA BKN032TCU OVC070 RMK TCU6AC2=

CYXE;2005-06-01 12:00;METAR CYXE 011200Z 11009KT 10SM -SHRA BKN032TCU OVC070 13/11 A2979 RMK TCU6AC2 HVY SHWR N SLP095=

CYXE;2005-06-01 13:00;METAR CYXE 011300Z 07005KT 6SM -RA SCT027 OVC042 13/11 A2978 RMK SC3SC5 SLP091=

CYXE;2005-06-01 13:38;SPECI CYXE 011338Z 05003KT 12SM FEW025 SCT040 OVC080 RMK SC2SC2AC4=

CYXE;2005-06-01 14:00;METAR CYXE 011400Z 04005KT 15SM FEW050 OVC080 14/12 A2976 RMK SC2AC6 SLP084=

CYXE;2005-06-01 14:33;SPECI CYXE 011433Z 04005KT 15SM -SHRA SCT074 OVC094 RMK AC3AC5=

CYXE;2005-06-01 15:00;METAR CYXE 011500Z 08005KT 15SM -SHRA FEW010 BKN072 OVC095 15/12 A2975 RMK CF1AC5AS3 SLP080=

CYXE;2005-06-01 16:00;METAR CYXE 011600Z 09009KT 4SM -SHRA BR FEW010 BKN019 OVC040 14/12 A2975 RMK CF1SC6SC2 SLP079=

CYXE;2005-06-01 16:31;SPECI CYXE 011631Z 07009KT 15SM FEW019 BKN040 OVC080 RMK SC2SC3AC2=

CYXE;2005-06-01 17:00;METAR CYXE 011700Z 07010KT 15SM -SHRA SCT012 BKN017 OVC040 14/12 A2974 RMK SC3SC3SC2 SLP076=

CYXE;2005-06-01 17:13;SPECI CYXE 011713Z 06010KT 15SM -SHRA BKN012 OVC040 RMK SC7SC1 RGD CIG=

CYXE;2005-06-01 17:49;SPECI CYXE 011749Z 07009KT 5SM -SHRA BR BKN009 OVC036 RMK SC5SC3 RGD CIG=

CYXE;2005-06-01 18:00;METAR CYXE 011800Z 07012KT 15SM -SHRA SCT010 OVC017 14/12 A2973 RMK SC3SC5 SLP076=

CYXE;2005-06-01 19:00;METAR CYXE 011900Z 07010KT 15SM -SHRA SCT014 BKN028 OVC050 14/13 A2971 RMK SC3SC3SC2 SLP069=

CYXE;2005-06-01 19:19;SPECI CYXE 011919Z 05009KT 15SM BKN012 OVC027 RMK SC6SC2 RGD CIG=

CYXE;2005-06-01 19:46;SPECI CYXE 011946Z 05010KT 15SM -SHRA BKN010 BKN019 OVC036 RMK SC5SC1SC2 RGD CIG=

CYXE;2005-06-01 20:00;METAR CYXE 012000Z 05011KT 15SM -RA SCT010 BKN022 OVC031 14/12 A2969 RMK SC3SC4SC1 RGD CIG SLP065=

CYXE;2005-06-01 21:00;METAR CYXE 012100Z 05010KT 6SM -SHRA BR BKN013 OVC042 15/13 A2968 RMK SC5SC3 RGD CIG SLP058=

CYXE;2005-06-01 21:29;SPECI CYXE 012129Z 06009KT 6SM -RA BR BKN009 OVC035 RMK SF5SC2=

CYXE;2005-06-01 22:00;METAR CYXE 012200Z 05014KT 12SM -SHRA BKN009 BKN050 BKN250 15/13 A2967 RMK SF5SC2CI0 SLP056=

CYXE;2005-06-01 22:12;SPECI CYXE 012212Z 05015KT 15SM FEW009 FEW065 BKN110 BKN250 RMK SF2SC1AC2CI1 TCU EMBDD=

CYXE;2005-06-01 23:00;METAR CYXE 012300Z 04012KT 15SM BKN012 BKN085 BKN250 16/13 A2965 RMK CU6AC1CI1 TCU EMBDD SHWRS E-SE SLP051=

CYXE;2005-06-01 23:51;SPECI CYXE 012351Z 05013KT 15SM BKN015TCU BKN100 BKN250 RMK TCU6AC1CI1 SHWRS E-SW W=

CYXE;2005-06-02 00:00;METAR CYXE 020000Z 06014KT 15SM BKN016TCU BKN100 BKN250 16/12 A2964 RMK TCU6AC1CI1 SHWRS E-SW W SLP046=

CYXE;2005-06-02 01:00;METAR CYXE 020100Z 09009KT 15SM FEW030TCU SCT060 BKN250 14/10 A2964 RMK TCU2SC1CI1 CB TOP EMBDD W SLP044=

CYXE;2005-06-02 02:00;METAR CYXE 020200Z 08007KT 15SM FEW030TCU SCT085 BKN230 14/10 A2964 RMK TCU2AC1CI3 SHWRS W-NW SLP044=

CYXE;2005-06-02 03:00;METAR CYXE 020300Z 04008KT 15SM FEW040TCU SCT090 BKN230 13/10 A2963 RMK TCU1AC2CI4 SLP042=

CYXE;2005-06-02 04:00;METAR CYXE 020400Z 03008KT 15SM SCT075 BKN230 13/11 A2963 RMK AC3CI3 SLP041=

CYXE;2005-06-02 05:00;METAR CYXE 020500Z 03007KT 15SM BKN060 OVC230 12/11 A2960 RMK SC6CI2 SLP033=

CYXE;2005-06-02 05:21;SPECI CYXE 020521Z 03008KT 15SM FEW007 BKN060 OVC230 RMK SF1SC6CI2=

CYXE;2005-06-02 06:00;METAR CYXE 020600Z 03008KT 15SM FEW007 OVC047 12/11 A2959 RMK SF1SC7 SLP028=

CYXE;2005-06-02 06:34;SPECI CYXE 020634Z 03009KT 15SM FEW007 BKN013 OVC047 RMK SF1SF6SC2=

CYXE;2005-06-02 06:48;SPECI CYXE 020648Z 04011KT 15SM -SHRA BKN006 OVC047 RMK SF6SC2=

CYXE;2005-06-02 07:00;METAR CYXE 020700Z 04011KT 6SM -SHRA BR BKN005 OVC015 12/11 A2958 RMK SF6SC2 SLP027=

CYXE;2005-06-02 07:11;SPECI CYXE 020711Z 05008KT 6SM -SHRA BR SCT005 OVC042 RMK SF3SC5=

CYXE;2005-06-02 07:38;SPECI CYXE 020738Z 04009KT 6SM -RA BR BKN006 OVC030 RMK SF6SC2=

CYXE;2005-06-02 08:00;METAR CYXE 020800Z 04010KT 15SM -SHRA BKN008 OVC021 12/11 A2956 RMK SF7SC1 SLP021=

CYXE;2005-06-02 08:16;SPECI CYXE 020816Z 05011KT 15SM OVC006 RMK SF8=

CYXE;2005-06-02 09:00;METAR CYXE 020900Z 05009KT 15SM SCT007 BKN014 BKN041 12/11 A2954 RMK SF4SC2SC1 SLP013=

CYXE;2005-06-02 10:00;METAR CYXE 021000Z 04006KT 15SM SCT007 11/10 A2952 RMK SF4 SLP006=

CYXE;2005-06-02 10:11;SPECI CYXE 021011Z 03007KT 15SM OVC006 RMK SF6=

CYXE;2005-06-02 11:00;METAR CYXE 021100Z 35006KT 2SM -RA BR OVC006 12/11 A2950 RMK SF8 VIS SE 4 SLP000=

CYXE;2005-06-02 11:27;SPECI CYXE 021127Z 35007KT 1 1/2SM RA BR OVC005 RMK FG2SF6 TOWER OBS=

CYXE;2005-06-02 11:35;SPECI CYXE 021135Z 34007KT 1 1/2SM RA BR OVC004 RMK FG2SF6 TOWER OBS=

CYXE;2005-06-02 12:00;METAR CYXE 021200Z 36012KT 2SM -RA BR OVC005 13/12 A2946 RERA RMK SF8 SLP983=

CYXE;2005-06-02 12:15;SPECI CYXE 021215Z 36013KT 3SM -RA BR BKN006 OVC010 RMK SF6SC2=

CYXE;2005-06-02 13:00;METAR CYXE 021300Z 35010KT 3SM -RA BR BKN008 OVC020 13/12 A2942 RMK SF6SC2 SLP970=

CYXE;2005-06-02 13:16;SPECI CYXE 021316Z 34010KT 3SM -RA BR OVC005 RMK SF8=

CYXE;2005-06-02 13:41;SPECI CYXE 021341Z 36012G18KT 2SM -RA BR OVC006 RMK SF8=

CYXE;2005-06-02 13:49;SPECI CYXE 021349Z 01015KT 4SM -RA BR OVC007 RMK SF8=

CYXE;2005-06-02 14:00;METAR CYXE 021400Z 01019KT 4SM -RA BR BKN007 OVC021 13/12 A2937 RMK SF6SC2 SLP953=

CYXE;2005-06-02 15:00;METAR CYXE 021500Z 02014G20KT 6SM -RA BR OVC008 13/12 A2934 RMK SF8 SLP945=

CYXE;2005-06-02 16:00;METAR CYXE 021600Z 07016G24KT 10SM -RA BKN006 OVC020 14/13 A2933 RMK SF6SC2 SLP941=

CYXE;2005-06-02 16:36;SPECI CYXE 021636Z 07023G29KT 15SM BKN006 OVC018 RMK SF5SC3=

CYXE;2005-06-02 17:00;METAR CYXE 021700Z 06023G30KT 15SM SCT006 OVC016 14/13 A2932 RMK SF3SC5 SLP938=

CYXE;2005-06-02 17:11;SPECI CYXE 021711Z 07026KT 15SM FEW006 OVC014 RMK SF2SC6=

CYXE;2005-06-02 18:00;METAR CYXE 021800Z 08030KT 15SM FEW006 BKN012 15/13 A2933 RMK SF2SC6 SLP940=

CYXE;2005-06-02 19:00;METAR CYXE 021900Z 10018KT 15SM FEW006 BKN019 16/12 A2938 RMK SF2SC6 SLP957=

CYXE;2005-06-02 20:00;METAR CYXE 022000Z 11016G22KT 15SM BKN020 BKN083 18/13 A2942 RMK SC5AC2 SLP968=

CYXE;2005-06-02 21:42;SPECI CYXE 022142Z 05014G22KT 15SM SCT007 BKN023 BKN089 RMK SF3SC2AC1=

CYXE;2005-06-02 21:52;SPECI CYXE 022152Z 06013G22KT 15SM -SHRA SCT007 BKN025CB OVC090 RMK SF4CB3AC1=

CYXE;2005-06-02 22:00;METAR CYXE 022200Z 06011G17KT 15SM -SHRA SCT008 BKN030CB OVC090 15/13 A2946 RMK SF3CB4AC1 SLP981=

CYXE;2005-06-02 23:00;METAR CYXE 022300Z 06010KT 15SM VCSH FEW009 BKN025TCU OVC090 15/14 A2947 RMK SF2TCU4AC1 SLP986=

CYXE;2005-06-03 00:00;METAR CYXE 030000Z 06013KT 15SM FEW020 SCT050TCU BKN080 16/13 A2947 RMK SC2TCU2AC3 SLP988=

CYXE;2005-06-03 01:00;METAR CYXE 030100Z 07008KT 15SM SCT015TCU BKN060 BKN080 16/13 A2948 RMK TCU3SC3AC1 SLP989=

CYXE;2005-06-03 01:40;SPECI CYXE 030140Z 05018KT 15SM -SHRA FEW010 BKN020TCU OVC060 RMK SF2TCU5SC2=

CYXE;2005-06-03 02:00;METAR CYXE 030200Z 05014KT 15SM -SHRA FEW010 BKN020 OVC040 14/13 A2950 RMK SF2SC5SC1 TCU ASOCTD SLP997=

CYXE;2005-06-03 03:00;METAR CYXE 030300Z 04016KT 15SM -RA BKN008 OVC040 13/12 A2951 RMK SC6SC2 SLP002=

CYXE;2005-06-03 04:00;METAR CYXE 030400Z 04017KT 12SM -RA BKN007 OVC025 13/11 A2953 RMK SC7SC1 SLP008=

CYXE;2005-06-03 05:00;METAR CYXE 030500Z 04010KT 10SM -RA BKN005 OVC015 12/11 A2953 RMK ST7SC1 SLP008=

CYXE;2005-06-03 06:00;METAR CYXE 030600Z 04010KT 10SM -RA OVC005 12/11 A2953 RMK SF8 SLP008=

CYXE;2005-06-03 07:00;METAR CYXE 030700Z 05009KT 15SM -RA OVC005 12/11 A2953 RMK SF8 SLP009=

CYXE;2005-06-03 07:14;SPECI CYXE 030714Z 05010KT 15SM OVC005 RMK SF8=

CYXE;2005-06-03 07:46;SPECI CYXE 030746Z 06005KT 15SM SCT004 BKN055 RMK SF3SC2=

CYXE;2005-06-03 08:00;METAR CYXE 030800Z 05005KT 5SM BR FEW004 SCT055 12/11 A2954 RMK SF1SC2 SLP010=

CYXE;2005-06-03 09:00;METAR CYXE 030900Z 04006KT 6SM BR FEW004 FEW051 SCT098 10/10 A2954 RMK SF1SC2AC2 SLP011=

CYXE;2005-06-03 10:00;METAR CYXE 031000Z 04010KT 15SM BKN004 OVC058 12/11 A2955 RMK SF3SC4 SLP014=

CYXE;2005-06-03 10:26;SPECI CYXE 031026Z 06012KT 15SM BKN006 OVC058 RMK SF5SC3=

CYXE;2005-06-03 10:36;SPECI CYXE 031036Z 06012KT 15SM SCT006 OVC058 RMK SF2SC6=

CYXE;2005-06-03 10:48;SPECI CYXE 031048Z 05012KT 15SM BKN006 OVC045 RMK SF5SC3=

CYXE;2005-06-03 11:00;METAR CYXE 031100Z 06013KT 15SM BKN006 OVC043 12/11 A2956 RMK SF3SC5 SLP019=

CYXE;2005-06-03 11:36;SPECI CYXE 031136Z 06012KT 15SM BKN005 OVC041 RMK SF5SC3=

CYXE;2005-06-03 12:00;METAR CYXE 031200Z 07014KT 15SM BKN005 OVC045 13/12 A2959 RMK SF6SC2 SLP027=

CYXE;2005-06-03 12:30;SPECI CYXE 031230Z 07014KT 15SM BKN006 BKN045 OVC055 RMK SF3SC3SC2=

CYXE;2005-06-03 13:00;METAR CYXE 031300Z 06013KT 15SM BKN006 OVC045 14/12 A2959 RMK SF6SC2 SLP027=

CYXE;2005-06-03 14:00;METAR CYXE 031400Z 06013KT 15SM BKN007 OVC045 14/13 A2960 RMK SF6SC1 SLP031=

CYXE;2005-06-03 15:00;METAR CYXE 031500Z 07014KT 15SM OVC009 14/12 A2961 RMK SC8 SLP035=

CYXE;2005-06-03 16:00;METAR CYXE 031600Z 06014G20KT 15SM OVC011 15/13 A2961 RMK SC8 SLP037=

CYXE;2005-06-03 17:00;METAR CYXE 031700Z 08018KT 15SM OVC013 16/13 A2962 RMK SC8 SLP040=

CYXE;2005-06-03 17:25;SPECI CYXE 031725Z 06016KT 15SM BKN015 BKN100 RMK SC6AC1=

CYXE;2005-06-03 18:00;METAR CYXE 031800Z 06014KT 15SM BKN017 17/13 A2963 RMK SC7 SLP040=

CYXE;2005-06-03 19:00;METAR CYXE 031900Z 04019KT 15SM SCT014 BKN042 BKN100 17/14 A2963 RMK SF3SC2AC2 SLP040=

CYXE;2005-06-03 19:30;SPECI CYXE 031930Z 04020KT 15SM -RA SCT013 BKN055 RMK SF3SC4=

CYXE;2005-06-03 20:00;METAR CYXE 032000Z 04022KT 15SM -RA SCT009 OVC049 16/14 A2963 RMK SF4SC4 SLP041=

CYXE;2005-06-03 20:18;SPECI CYXE 032018Z 04020G26KT 15SM BKN009 OVC047 RMK SF6SC2=

CYXE;2005-06-03 21:00;METAR CYXE 032100Z 05020G25KT 15SM BKN012 16/13 A2963 RMK SC7 SLP044=

CYXE;2005-06-03 21:31;SPECI CYXE 032131Z 04021G26KT 15SM OVC007 RMK SC8=

CYXE;2005-06-03 22:00;METAR CYXE 032200Z 04017G25KT 15SM OVC008 15/12 A2966 RMK SC8 SLP053=

CYXE;2005-06-03 23:00;METAR CYXE 032300Z 04018KT 15SM OVC008 14/12 A2968 RMK SC8 SLP058=

CYXE;2005-06-04 00:00;METAR CYXE 040000Z 05016G22KT 15SM OVC007 13/11 A2969 RMK SC8 SLP063=

CYXE;2005-06-04 00:29;SPECI CYXE 040029Z 04014G20KT 15SM OVC004 RMK ST8=

CYXE;2005-06-04 01:00;METAR CYXE 040100Z 04016KT 6SM BR OVC003 12/11 A2969 RMK ST8 SLP064=

CYXE;2005-06-04 01:21;SPECI CYXE 040121Z 03015G20KT 15SM OVC005 RMK ST8=

CYXE;2005-06-04 02:00;METAR CYXE 040200Z 05015KT 15SM OVC008 12/11 A2969 RMK ST8 SLP064=

CYXE;2005-06-04 02:26;SPECI CYXE 040226Z 04014KT 6SM BR OVC005 RMK ST8=

CYXE;2005-06-04 03:00;METAR CYXE 040300Z 06013KT 15SM OVC006 12/11 A2970 RMK ST8 SLP066=

CYXE;2005-06-04 04:00;METAR CYXE 040400Z 05012KT 15SM OVC007 12/10 A2971 RMK ST8 SLP070=

CYXE;2005-06-04 05:00;METAR CYXE 040500Z 06014KT 6SM BR OVC005 12/11 A2973 RMK ST8 SLP076=

CYXE;2005-06-04 05:15;SPECI CYXE 040515Z 05014KT 5SM -DZ BR OVC004 RMK ST8=

CYXE;2005-06-04 05:38;SPECI CYXE 040538Z 05015KT 3SM -DZ BR OVC003 RMK ST8=

CYXE;2005-06-04 06:00;METAR CYXE 040600Z 05011KT 2SM -DZ BR OVC002 11/10 A2974 RMK SF8 SLP080=

CYXE;2005-06-04 06:19;SPECI CYXE 040619Z 05013KT 2SM -DZ BR OVC003 RMK SF8 TOWER OBS=

CYXE;2005-06-04 06:29;SPECI CYXE 040629Z 05012KT 2SM -DZ BR OVC002 RMK SF8 TOWER OBS=

CYXE;2005-06-04 07:00;METAR CYXE 040700Z 04011KT 2SM -DZ BR OVC002 10/09 A2975 RMK SF8 TOWER OBS SLP083=

CYXE;2005-06-04 07:12;SPECI CYXE 040712Z 04011KT 1 1/2SM -DZ BR OVC002 RMK FG2SF6 TOWER OBS=

CYXE;2005-06-04 08:06;SPECI CYXE 040806Z 05011KT 3SM -DZ BR OVC003 RMK SF8 TOWER OBS=

CYXE;2005-06-04 08:21;SPECI CYXE 040821Z 04011KT 4SM BR OVC004 RMK SF8 TOWER OBS=

CYXE;2005-06-04 08:34;SPECI CYXE 040834Z 04011KT 2SM -DZ BR OVC003 RMK SF8 TOWER OBS=

CYXE;2005-06-04 09:00;METAR CYXE 040900Z 04010KT 2SM -DZ BR OVC003 10/09 A2975 RMK SF8 TOWER OBS SLP085=

CYXE;2005-06-04 10:00;METAR CYXE 041000Z 04009KT 1 1/2SM -DZ BR OVC002 09/09 A2975 RMK FG2SF6 TOWER OBS SLP085=

CYXE;2005-06-04 10:22;SPECI CYXE 041022Z 04014KT 1SM R09/P6000FT/N -DZ BR OVC002 RMK FG3SF5 TOWER OBS=

CYXE;2005-06-04 10:30;SPECI CYXE 041030Z 05013KT 3/4SM R09/5500FT/D -DZ BR VV001 RMK FG8 TOWER OBS=

CYXE;2005-06-04 10:42;SPECI CYXE 041042Z 05012KT 3/8SM R09/6000FT/U -DZ FG VV001 RMK FG8 TOWER OBS=

CYXE;2005-06-04 10:50;SPECI CYXE 041050Z 05011G17KT 1/2SM R09/P6000FT/U FG VV001 RMK FG8 TOWER OBS=

CYXE;2005-06-04 11:00;METAR CYXE 041100Z 05012KT 1SM R09/P6000FT/U -DZ BR OVC002 09/08 A2975 RMK FG5SF3 TOWER OBS SLP086=

CYXE;2005-06-04 11:38;SPECI CYXE 041138Z 04014KT 1SM R09/P6000FT/N -DZ BR OVC003 RMK FG4SF4 TOWER OBS=

CYXE;2005-06-04 12:00;METAR CYXE 041200Z 05016KT 1SM R09/P6000FT/D -DZ BR OVC003 09/08 A2977 RMK FG4SF4 ROOF OBS SLP094=

CYXE;2005-06-04 12:30;SPECI CYXE 041230Z 05014KT 1 1/2SM -DZ BR OVC003 RMK SF8=

CYXE;2005-06-04 13:00;METAR CYXE 041300Z 05011G17KT 3SM BR OVC004 09/08 A2978 RMK SF8 SLP097=

CYXE;2005-06-04 13:20;SPECI CYXE 041320Z 05013KT 4SM BR OVC003 RMK SF8=

CYXE;2005-06-04 13:46;SPECI CYXE 041346Z 05013KT 4SM -DZ BR OVC004 RMK SF8=

CYXE;2005-06-04 14:00;METAR CYXE 041400Z 05013KT 6SM -DZ BR OVC005 09/08 A2979 RMK ST8 SLP100=

CYXE;2005-06-04 14:21;SPECI CYXE 041421Z 04013KT 10SM OVC003 RMK ST8=

CYXE;2005-06-04 15:00;METAR CYXE 041500Z 05010G15KT 15SM OVC004 09/08 A2980 RMK ST8 SLP103=

CYXE;2005-06-04 16:00;METAR CYXE 041600Z 06009KT 15SM OVC008 10/08 A2981 RMK ST8 SLP106=

CYXE;2005-06-04 17:00;METAR CYXE 041700Z 06010KT 15SM OVC009 11/08 A2981 RMK ST8 SLP106=

CYXE;2005-06-04 18:00;METAR CYXE 041800Z 06009KT 15SM OVC010 11/09 A2981 RMK SC8 SLP109=

CYXE;2005-06-04 19:00;METAR CYXE 041900Z 05009KT 15SM BKN010 OVC084 12/09 A2982 RMK SC7AC1 SLP110=

CYXE;2005-06-04 20:00;METAR CYXE 042000Z 04009KT 15SM OVC012 12/09 A2982 RMK SC8 SLP110=

CYXE;2005-06-04 21:00;METAR CYXE 042100Z 04008KT 15SM OVC014 13/09 A2981 RMK SC8 SLP109=

CYXE;2005-06-04 22:00;METAR CYXE 042200Z 05011KT 15SM BKN016 14/10 A2981 RMK SC7 SLP109=

CYXE;2005-06-04 23:00;METAR CYXE 042300Z 03010KT 15SM BKN016 OVC090 13/09 A2981 RMK SC7AC1 SLP107=

CYXE;2005-06-05 00:00;METAR CYXE 050000Z 03012KT 15SM OVC018 12/09 A2981 RMK SC8 SLP109=

CYXE;2005-06-05 01:00;METAR CYXE 050100Z 05008KT 15SM OVC016 12/08 A2982 RMK SC8 SLP111=

CYXE;2005-06-05 02:00;METAR CYXE 050200Z 04008KT 15SM OVC016 11/08 A2983 RMK SC8 SLP114=

CYXE;2005-06-05 02:29;SPECI CYXE 050229Z 06008KT 15SM OVC014 RMK SC8=

CYXE;2005-06-05 03:00;METAR CYXE 050300Z 05008KT 15SM OVC014 11/08 A2982 RMK SC8 SLP114=

CYXE;2005-06-05 04:00;METAR CYXE 050400Z 03004KT 15SM OVC017 10/08 A2983 RMK SC8 SLP116=

CYXE;2005-06-05 05:00;METAR CYXE 050500Z 05006KT 15SM OVC013 11/08 A2983 RMK SC8 SLP115=

CYXE;2005-06-05 06:00;METAR CYXE 050600Z 08005KT 15SM BKN014 OVC039 10/08 A2982 RMK SC5SC3 SLP113=

CYXE;2005-06-05 07:00;METAR CYXE 050700Z 05005KT 15SM OVC030 10/08 A2982 RMK SC8 SLP111=

CYXE;2005-06-05 08:00;METAR CYXE 050800Z 04005KT 15SM FEW012 OVC032 10/08 A2981 RMK SF1SC7 SLP110=

CYXE;2005-06-05 08:28;SPECI CYXE 050828Z 05005KT 15SM SCT008 OVC036 RMK SF3SC5=

CYXE;2005-06-05 09:00;METAR CYXE 050900Z 04004KT 15SM FEW008 OVC036 09/08 A2981 RMK SF2SC6 SLP108=

CYXE;2005-06-05 10:00;METAR CYXE 051000Z 05005KT 15SM SCT006 OVC038 09/08 A2981 RMK SF4SC4 SLP107=

CYXE;2005-06-05 10:15;SPECI CYXE 051015Z 05005KT 10SM BKN006 OVC038 RMK ST6SC2 BR=

CYXE;2005-06-05 11:00;METAR CYXE 051100Z 04006KT 6SM BR BKN006 OVC041 09/08 A2982 RMK ST6SC2 SLP110=

CYXE;2005-06-05 12:00;METAR CYXE 051200Z 06005KT 6SM BR BKN007 OVC017 09/07 A2983 RMK ST7SC1 SLP114=

CYXE;2005-06-05 13:00;METAR CYXE 051300Z 06004KT 10SM OVC007 09/08 A2982 RMK ST8 BR SLP113=

CYXE;2005-06-05 14:00;METAR CYXE 051400Z 08005KT 12SM OVC007 09/08 A2981 RMK SF8 BR SLP110=

CYXE;2005-06-05 15:00;METAR CYXE 051500Z 07004KT 12SM OVC009 10/08 A2980 RMK SF8 BR SLP106=

CYXE;2005-06-05 15:12;SPECI CYXE 051512Z 05003KT 15SM OVC012 RMK SF8=

CYXE;2005-06-05 16:00;METAR CYXE 051600Z 01004KT 15SM OVC014 11/08 A2979 RMK SF8 SLP102=

CYXE;2005-06-05 16:39;SPECI CYXE 051639Z 06004KT 15SM OVC016 RMK SC8=

CYXE;2005-06-05 17:00;METAR CYXE 051700Z 03002KT 15SM OVC016 11/07 A2980 RMK SC8 SLP105=

CYXE;2005-06-05 18:00;METAR CYXE 051800Z 05005KT 15SM OVC018 12/08 A2979 RMK SC8 SLP102=

CYXE;2005-06-05 19:00;METAR CYXE 051900Z 02002KT 15SM OVC020 13/08 A2979 RMK SC8 SLP101=

CYXE;2005-06-05 20:00;METAR CYXE 052000Z 36004KT 15SM OVC022 13/08 A2979 RMK SC8 SLP102=

CYXE;2005-06-05 21:00;METAR CYXE 052100Z 34002KT 15SM BKN022 OVC055 13/08 A2978 RMK SC7SC1 SLP098=

CYXE;2005-06-05 22:00;METAR CYXE 052200Z 02006KT 15SM OVC022 13/09 A2978 RMK SC8 SLP096=

CYXE;2005-06-05 23:00;METAR CYXE 052300Z 03003KT 15SM SCT025 OVC047 14/08 A2977 RMK SC4SC4 SLP095=

CYXE;2005-06-06 00:00;METAR CYXE 060000Z 05004KT 15SM BKN025 OVC045 14/09 A2977 RMK SC6SC2 SLP093=

CYXE;2005-06-06 01:00;METAR CYXE 060100Z 01008KT 15SM BKN023 OVC040 13/09 A2977 RMK SC6SC2 SLP094=

CYXE;2005-06-06 02:00;METAR CYXE 060200Z 03008KT 15SM BKN025 12/09 A2977 RMK SC7 SLP093=

CYXE;2005-06-06 03:00;METAR CYXE 060300Z 04007KT 15SM BKN030 12/09 A2977 RMK SC7 SLP093=

CYXE;2005-06-06 04:00;METAR CYXE 060400Z 03004KT 15SM BKN040 11/09 A2978 RMK SC7 SLP096=

CYXE;2005-06-06 05:00;METAR CYXE 060500Z 04005KT 15SM BKN030 10/08 A2977 RMK SC7 SLP094=

CYXE;2005-06-06 06:00;METAR CYXE 060600Z 05004KT 15SM SCT031 09/07 A2977 RMK SC3 SLP096=

CYXE;2005-06-06 07:00;METAR CYXE 060700Z 05004KT 15SM BKN033 09/08 A2978 RMK SC6 SLP098=

CYXE;2005-06-06 08:00;METAR CYXE 060800Z 06005KT 15SM OVC021 10/09 A2978 RMK SC8 SLP099=

CYXE;2005-06-06 09:00;METAR CYXE 060900Z 06006KT 15SM OVC023 10/09 A2979 RMK SC8 SLP099=

CYXE;2005-06-06 10:00;METAR CYXE 061000Z 06005KT 15SM OVC025 10/09 A2979 RMK SC8 SLP100=

CYXE;2005-06-06 11:00;METAR CYXE 061100Z 07006KT 15SM OVC025 10/09 A2980 RMK SC8 SLP103=

CYXE;2005-06-06 12:00;METAR CYXE 061200Z 06006KT 15SM OVC029 10/09 A2980 RMK SC8 SLP104=

CYXE;2005-06-06 13:00;METAR CYXE 061300Z 05007KT 15SM BKN029 OVC096 11/09 A2981 RMK SC6AC2 SLP106=

CYXE;2005-06-06 14:00;METAR CYXE 061400Z 09007KT 15SM FEW010 OVC029 11/09 A2982 RMK SF1SC7 SLP109=

CYXE;2005-06-06 15:00;METAR CYXE 061500Z 07008KT 15SM FEW010 OVC029 12/08 A2982 RMK SF1SC7 SLP109=

CYXE;2005-06-06 16:00;METAR CYXE 061600Z 08006KT 15SM FEW010 SCT019 OVC031 13/09 A2981 RMK SF1SC2SC5 SLP108=

CYXE;2005-06-06 17:00;METAR CYXE 061700Z 05007KT 15SM BKN025 OVC085 14/08 A2982 RMK SC7AC1 SLP110=

CYXE;2005-06-06 18:00;METAR CYXE 061800Z 06008KT 15SM BKN025 OVC085 15/09 A2981 RMK SC6AC2 SLP108=

CYXE;2005-06-06 19:00;METAR CYXE 061900Z 07008KT 15SM BKN030 OVC060 15/09 A2982 RMK SC6SC2 SLP110=

CYXE;2005-06-06 20:00;METAR CYXE 062000Z 07007KT 15SM BKN033 OVC250 16/08 A2981 RMK SC6CI1 CU ASOCTD SLP107=

CYXE;2005-06-06 21:00;METAR CYXE 062100Z 06011KT 15SM BKN037 BKN085 OVC250 17/09 A2981 RMK SC6AC1CI1 CU ASOCTD SLP105=

CYXE;2005-06-06 22:00;METAR CYXE 062200Z 05016KT 15SM BKN030 OVC090 16/09 A2980 RMK SC7AC1 SLP102=

CYXE;2005-06-06 23:00;METAR CYXE 062300Z 05012G17KT 15SM SCT030 OVC040 15/09 A2981 RMK SC3SC5 SLP106=

CYXE;2005-06-07 00:00;METAR CYXE 070000Z 06017KT 15SM SCT030 OVC040 14/09 A2981 RMK SC3SC5 SLP106=

CYXE;2005-06-07 01:00;METAR CYXE 070100Z 06014KT 15SM BKN024 OVC040 14/09 A2982 RMK SC6SC2 SLP109=

CYXE;2005-06-07 02:00;METAR CYXE 070200Z 06011G17KT 15SM OVC024 14/09 A2983 RMK SC8 SLP112=

CYXE;2005-06-07 03:00;METAR CYXE 070300Z 06012KT 15SM OVC024 13/09 A2984 RMK SC8 SLP115=

CYXE;2005-06-07 04:00;METAR CYXE 070400Z 08017KT 15SM OVC021 13/09 A2985 RMK SC8 SLP120=

CYXE;2005-06-07 05:00;METAR CYXE 070500Z 07012G18KT 15SM OVC026 12/09 A2986 RMK SC8 SLP121=

CYXE;2005-06-07 06:00;METAR CYXE 070600Z 07020KT 15SM OVC018 12/08 A2984 RMK SC8 SLP114=

CYXE;2005-06-07 07:00;METAR CYXE 070700Z 06018KT 15SM SCT014 OVC039 11/08 A2983 RMK SF4SC4 SLP112=

CYXE;2005-06-07 07:12;SPECI CYXE 070712Z 07016G21KT 15SM BKN014 OVC039 RMK ST6SC2=

CYXE;2005-06-07 08:00;METAR CYXE 070800Z 08018KT 15SM BKN012 OVC036 11/08 A2983 RMK ST6SC2 SLP111=

CYXE;2005-06-07 09:00;METAR CYXE 070900Z 08019G24KT 15SM OVC010 10/08 A2982 RMK ST8 SLP109=

CYXE;2005-06-07 10:00;METAR CYXE 071000Z 07019KT 15SM OVC010 10/08 A2980 RMK ST8 SLP102=

CYXE;2005-06-07 11:00;METAR CYXE 071100Z 07015G21KT 15SM OVC012 10/07 A2982 RMK SC8 SLP107=

CYXE;2005-06-07 12:00;METAR CYXE 071200Z 08017KT 15SM OVC012 09/06 A2983 RMK SC8 SLP115=

CYXE;2005-06-07 13:00;METAR CYXE 071300Z 08016G21KT 15SM OVC010 09/06 A2984 RMK SC8 SLP117=

CYXE;2005-06-07 14:00;METAR CYXE 071400Z 09018G27KT 15SM OVC014 09/06 A2984 RMK SC8 SLP117=

CYXE;2005-06-07 15:00;METAR CYXE 071500Z 08020KT 15SM OVC012 09/06 A2984 RMK SC8 SLP118=

CYXE;2005-06-07 16:00;METAR CYXE 071600Z 08019G24KT 15SM OVC014 09/05 A2983 RMK SC8 SLP116=

CYXE;2005-06-07 16:33;SPECI CYXE 071633Z 08015G24KT 15SM OVC016 RMK SC8=

CYXE;2005-06-07 17:00;METAR CYXE 071700Z 09017G25KT 15SM OVC016 09/05 A2983 RMK SC8 SLP115=

CYXE;2005-06-07 18:00;METAR CYXE 071800Z 09017G24KT 12SM OVC015 09/06 A2984 RMK SC8 SLP118=

CYXE;2005-06-07 18:41;SPECI CYXE 071841Z 09014KT 8SM -DZ OVC014 RMK ST8 BR=

CYXE;2005-06-07 19:00;METAR CYXE 071900Z 09016KT 4SM -DZ BR BKN010 OVC015 09/07 A2986 RMK ST6SC2 SLP123=

CYXE;2005-06-07 19:08;SPECI CYXE 071908Z 09013KT 4SM -DZ BR BKN007 OVC015 RMK ST6SC2=

CYXE;2005-06-07 20:00;METAR CYXE 072000Z 09013G19KT 3SM -DZ BR BKN007 OVC020 08/07 A2986 RMK ST7SC1 SLP126=

CYXE;2005-06-07 20:26;SPECI CYXE 072026Z 09014KT 3SM -RA BR BKN006 OVC015 RMK ST6SC2=

CYXE;2005-06-07 21:00;METAR CYXE 072100Z 08012KT 4SM -RA BR BKN005 OVC011 08/08 A2987 RMK ST7SC1 SLP129=

CYXE;2005-06-07 21:49;SPECI CYXE 072149Z 09014G21KT 8SM -RA BKN009 OVC035 RMK ST6SC2 BR=

CYXE;2005-06-07 22:00;METAR CYXE 072200Z 09015KT 3SM -RA BR BKN009 OVC035 09/07 A2988 RMK SF6SC2 SLP132=

CYXE;2005-06-07 22:38;SPECI CYXE 072238Z 09016G22KT 3SM -RA BR SCT008 OVC018 RMK SF3SC5=

CYXE;2005-06-07 23:00;METAR CYXE 072300Z 09014KT 4SM -RA BR SCT008 OVC030 08/07 A2989 RMK SF3SC5 SLP136=

CYXE;2005-06-07 23:08;SPECI CYXE 072308Z 09014KT 4SM -RA BR BKN013 OVC025 RMK SF6SC2=

CYXE;2005-06-08 00:00;METAR CYXE 080000Z 10012KT 7SM -RA BKN010 OVC040 08/07 A2989 RMK SF5SC3 SLP136=

CYXE;2005-06-08 01:00;METAR CYXE 080100Z 09011KT 8SM -RA OVC013 09/08 A2988 RMK SF8 SLP134=

CYXE;2005-06-08 02:00;METAR CYXE 080200Z 09012KT 15SM -RA BKN012 OVC030 08/07 A2988 RMK SC7SC1 SLP133=

CYXE;2005-06-08 02:14;SPECI CYXE 080214Z 09011KT 15SM BKN012 OVC025 RMK SC7SC1=

CYXE;2005-06-08 03:00;METAR CYXE 080300Z 10011KT 15SM BKN017 OVC030 08/07 A2988 RMK SC5SC3 SLP134=

CYXE;2005-06-08 04:00;METAR CYXE 080400Z 06008KT 15SM FEW012 SCT030 07/06 A2985 RMK SC2SC2 SLP125=

CYXE;2005-06-08 04:40;SPECI CYXE 080440Z 11010KT 15SM SCT015 BKN030 RMK SC3SC4=

CYXE;2005-06-08 05:00;METAR CYXE 080500Z 08009KT 15SM SCT014 OVC030 07/06 A2988 RMK SC3SC5 SLP135=

CYXE;2005-06-08 05:14;SPECI CYXE 080514Z 10009KT 15SM BKN012 OVC030 RMK SC6SC2=

CYXE;2005-06-08 05:37;SPECI CYXE 080537Z 10007KT 7SM -DZ BKN008 OVC030 RMK ST7SC1=

CYXE;2005-06-08 06:00;METAR CYXE 080600Z 09006KT 6SM -DZ BKN007 OVC030 08/07 A2989 RMK ST7SC1 SLP137=

CYXE;2005-06-08 07:00;METAR CYXE 080700Z 08006KT 10SM -DZ BKN006 OVC030 07/07 A2986 RMK SF6SC2 SLP129=

CYXE;2005-06-08 08:00;METAR CYXE 080800Z 06008KT 15SM OVC009 08/07 A2984 RMK SF8 SLP123=

CYXE;2005-06-08 09:00;METAR CYXE 080900Z 06009KT 15SM SCT004 OVC022 07/07 A2984 RMK SF4SC4 SLP120=

CYXE;2005-06-08 09:11;SPECI CYXE 080911Z 06007KT 10SM -DZ BKN005 OVC020 RMK SF6SC2=

CYXE;2005-06-08 09:26;SPECI CYXE 080926Z 06007KT 10SM -DZ OVC006 RMK ST8=

CYXE;2005-06-08 09:44;SPECI CYXE 080944Z 05006KT 10SM OVC005 RMK ST8=

CYXE;2005-06-08 10:00;METAR CYXE 081000Z 04006KT 6SM BR OVC005 08/07 A2982 RMK ST8 SLP115=

CYXE;2005-06-08 10:15;SPECI CYXE 081015Z 05008KT 3SM -DZ BR OVC005 RMK ST8=

CYXE;2005-06-08 10:34;SPECI CYXE 081034Z 05007KT 2SM -DZ BR OVC005 RMK ST8=

CYXE;2005-06-08 10:49;SPECI CYXE 081049Z 05008KT 2SM -DZ BR OVC003 RMK ST8=

CYXE;2005-06-08 11:00;METAR CYXE 081100Z 05010KT 3SM -DZ BR SCT003 OVC008 07/07 A2982 RMK SF4ST4 SLP116=

CYXE;2005-06-08 11:24;SPECI CYXE 081124Z 05010KT 3SM -DZ BR BKN005 OVC010 RMK ST6ST2=

CYXE;2005-06-08 11:34;SPECI CYXE 081134Z 05009KT 2SM -DZ BR OVC003 RMK ST8=

CYXE;2005-06-08 11:42;SPECI CYXE 081142Z 06008KT 1 1/2SM BR OVC003 RMK ST8=

CYXE;2005-06-08 12:00;METAR CYXE 081200Z 06010KT 1 1/2SM -DZ BR OVC002 07/07 A2982 RMK ST8 SLP115=

CYXE;2005-06-08 12:22;SPECI CYXE 081222Z 06009KT 2SM -DZ BR OVC003 RMK ST8=

CYXE;2005-06-08 12:32;SPECI CYXE 081232Z 06009KT 6SM BR OVC004 RMK ST8=

CYXE;2005-06-08 12:42;SPECI CYXE 081242Z 06010KT 10SM OVC006 RMK ST8=

CYXE;2005-06-08 13:00;METAR CYXE 081300Z 05011KT 8SM OVC005 08/07 A2981 RMK ST8 CIG RGD SLP113=

CYXE;2005-06-08 13:29;SPECI CYXE 081329Z 05009KT 4SM BR OVC003 RMK ST8=

CYXE;2005-06-08 13:43;SPECI CYXE 081343Z 06012KT 6SM BR OVC004 RMK ST8 CIG RGD=

CYXE;2005-06-08 14:00;METAR CYXE 081400Z 07010KT 10SM OVC005 08/07 A2981 RMK ST8 BR SLP110=

CYXE;2005-06-08 15:00;METAR CYXE 081500Z 06010KT 10SM BKN005 OVC025 08/07 A2980 RMK ST6SC2 BR SLP107=

CYXE;2005-06-08 15:24;SPECI CYXE 081524Z 06011KT 5SM -DZ BR BKN007 OVC025 RMK ST6SC2=

CYXE;2005-06-08 16:00;METAR CYXE 081600Z 06008KT 10SM -DZ BKN005 OVC020 08/08 A2979 RMK ST6SC2 BR SLP105=

CYXE;2005-06-08 16:08;SPECI CYXE 081608Z 07009KT 15SM BKN005 OVC020 RMK ST6SC2=

CYXE;2005-06-08 16:33;SPECI CYXE 081633Z 07008KT 15SM BKN008 OVC025 RMK ST6SC2=

CYXE;2005-06-08 17:00;METAR CYXE 081700Z 05010KT 8SM -DZ BKN008 OVC025 09/08 A2979 RMK ST6SC2 SLP103=

CYXE;2005-06-08 17:38;SPECI CYXE 081738Z 05014KT 15SM BKN007 OVC025 RMK ST6SC2=

CYXE;2005-06-08 18:00;METAR CYXE 081800Z 05011KT 15SM BKN009 OVC025 10/08 A2978 RMK ST6SC2 SLP100=

CYXE;2005-06-08 18:49;SPECI CYXE 081849Z 05009KT 15SM BKN012 OVC025 RMK ST6SC2=

CYXE;2005-06-08 19:00;METAR CYXE 081900Z 03010KT 15SM BKN012 OVC025 10/08 A2978 RMK SC6SC2 SLP101=

CYXE;2005-06-08 20:00;METAR CYXE 082000Z 03011KT 15SM BKN015 OVC030 10/08 A2978 RMK SC6SC2 SLP100=

CYXE;2005-06-08 21:00;METAR CYXE 082100Z 05009KT 15SM SCT015 OVC025 11/08 A2978 RMK SC4SC4 SLP100=

CYXE;2005-06-08 22:00;METAR CYXE 082200Z 05007KT 15SM FEW016 SCT028 OVC058 12/08 A2978 RMK CU1SC3SC5 SLP099=

CYXE;2005-06-08 23:00;METAR CYXE 082300Z 01008KT 15SM BKN032 BKN058 OVC200 12/08 A2977 RMK SC5SC2CI1 SLP097=

CYXE;2005-06-09 00:00;METAR CYXE 090000Z 01006KT 15SM SCT027 BKN036 BKN058 OVC089 12/08 A2977 RMK SC3SC2SC2AC1 SLP093=

CYXE;2005-06-09 01:00;METAR CYXE 090100Z 33006KT 15SM BKN037 OVC063 12/09 A2976 RMK SC6SC2 SLP092=

CYXE;2005-06-09 02:00;METAR CYXE 090200Z 30006KT 15SM BKN039 OVC110 11/09 A2975 RMK SC6AC1 SLP089=

CYXE;2005-06-09 03:00;METAR CYXE 090300Z 32006KT 15SM SCT050 BKN069 OVC200 11/09 A2976 RMK SC4AC3CI1 SLP093=

CYXE;2005-06-09 04:00;METAR CYXE 090400Z 32005KT 15SM BKN069 BKN090 OVC200 10/08 A2977 RMK AC5AC2CI1 SLP097=

CYXE;2005-06-09 05:00;METAR CYXE 090500Z 30004KT 15SM BKN071 BKN200 10/08 A2977 RMK AC6CI1 SLP095=

CYXE;2005-06-09 06:00;METAR CYXE 090600Z 30004KT 15SM BKN073 OVC200 10/08 A2977 RMK AC6CI1 SLP096=

CYXE;2005-06-09 07:00;METAR CYXE 090700Z 30007KT 15SM BKN095 BKN200 09/08 A2977 RMK AC6CI1 SLP096=

CYXE;2005-06-09 08:00;METAR CYXE 090800Z 30006KT 15SM OVC100 08/07 A2978 RMK AC8 SLP099=

CYXE;2005-06-09 09:00;METAR CYXE 090900Z 30006KT 15SM BKN120 BKN250 08/07 A2978 RMK AC6CI2 SLP100=

CYXE;2005-06-09 10:00;METAR CYXE 091000Z 30005KT 15SM BKN110 BKN250 08/07 A2978 RMK AC6CI2 SLP100=

CYXE;2005-06-09 11:00;METAR CYXE 091100Z 28005KT 12SM BKN110 OVC250 07/06 A2978 RMK AC6CI2 BR SLP100=

CYXE;2005-06-09 12:00;METAR CYXE 091200Z 25003KT 12SM BKN100 OVC250 08/07 A2979 RMK AC6CI2 BR SLP101=

CYXE;2005-06-09 13:00;METAR CYXE 091300Z 29005KT 15SM BKN090 OVC250 09/08 A2978 RMK AC6CI1 SLP100=

CYXE;2005-06-09 14:00;METAR CYXE 091400Z 29004KT 15SM BKN090 BKN250 11/08 A2979 RMK AC5CI1 SLP103=

CYXE;2005-06-09 15:00;METAR CYXE 091500Z 28004KT 15SM SCT090 BKN250 13/08 A2981 RMK AC3CI2 SLP105=

CYXE;2005-06-09 16:00;METAR CYXE 091600Z 26004KT 15SM FEW020 FEW050 SCT090 BKN250 14/09 A2981 RMK CU1SC1AC2CI2 SLP105=

CYXE;2005-06-09 17:00;METAR CYXE 091700Z 19004KT 15SM FEW030 FEW090 BKN250 15/08 A2980 RMK CU2AC1CI2 SLP103=

CYXE;2005-06-09 18:00;METAR CYXE 091800Z 30002KT 15SM SCT035 BKN100 BKN300 16/08 A2980 RMK CU3AC2CI1 SLP102=

CYXE;2005-06-09 19:00;METAR CYXE 091900Z 25005KT 15SM SCT040 BKN120 BKN300 16/08 A2979 RMK CU3AC2CI1 SLP100=

CYXE;2005-06-09 20:00;METAR CYXE 092000Z 19003KT 15SM SCT040 BKN120 BKN300 17/07 A2978 RMK CU3AC2CI2 SLP096=

CYXE;2005-06-09 21:00;METAR CYXE 092100Z 22002KT 15SM SCT045 BKN120 BKN300 17/06 A2977 RMK CU3AC2CI2 SLP092=

CYXE;2005-06-09 22:00;METAR CYXE 092200Z 24009KT 15SM SCT041 BKN060 BKN120 OVC270 18/09 A2977 RMK CU3SC2AC2CI0 SLP092=

CYXE;2005-06-09 23:00;METAR CYXE 092300Z 22007KT 15SM SCT046 BKN120 BKN270 18/07 A2976 RMK CU3AC1CI0 SLP089=

CYXE;2005-06-10 00:00;METAR CYXE 100000Z 27005KT 15SM FEW050 SCT061 BKN120 BKN270 17/07 A2976 RMK CU2SC1AC1CI0 SLP088=

CYXE;2005-06-10 01:00;METAR CYXE 100100Z 25005KT 15SM FEW047 SCT055TCU BKN120 BKN270 18/08 A2976 RMK CU2TCU2AC1CI0 TCU E SLP089=

CYXE;2005-06-10 02:00;METAR CYXE 100200Z 25002KT 15SM FEW048 SCT054CB BKN120 BKN270 17/07 A2976 RMK CU1CB2AC2CI0 CB SHRA E SLP088=

CYXE;2005-06-10 02:42;SPECI CYXE 100242Z 15005KT 15SM -SHRA BKN044 BKN079 BKN270 RMK SC5AC2CI1 CVCTV CLD EMBDD=

CYXE;2005-06-10 03:00;METAR CYXE 100300Z 13005KT 15SM -SHRA BKN046 BKN079 BKN270 15/09 A2976 RMK SC5AC2CI0 CVCTV CLD EMBDD SLP087=

CYXE;2005-06-10 03:36;SPECI CYXE 100336Z 16003KT 15SM BKN046 BKN058 BKN080 RMK SC5SC1AC1 CVCTV CLD EMBDD=

CYXE;2005-06-10 04:00;METAR CYXE 100400Z 17003KT 15SM SCT051 BKN069 14/09 A2977 RMK SC4AC3 CVCTV CLD EMBDD SLP089=

CYXE;2005-06-10 05:00;METAR CYXE 100500Z 20003KT 15SM SCT072 13/09 A2976 RMK AC4 SLP087=

CYXE;2005-06-10 06:00;METAR CYXE 100600Z 18005KT 15SM BKN080 12/09 A2975 RMK AC6 SLP085=

CYXE;2005-06-10 07:00;METAR CYXE 100700Z 21005KT 15SM FEW085 11/08 A2974 RMK AC2 SLP081=

CYXE;2005-06-10 08:00;METAR CYXE 100800Z 27005KT 15SM SCT080 09/07 A2974 RMK AC3 SLP081=

CYXE;2005-06-10 09:00;METAR CYXE 100900Z 19005KT 15SM SCT088 09/08 A2973 RMK AC3 SLP077=

CYXE;2005-06-10 10:00;METAR CYXE 101000Z 08002KT 15SM FEW090 SCT220 08/07 A2972 RMK AC2CI1 SLP073=

CYXE;2005-06-10 11:00;METAR CYXE 101100Z 11003KT 15SM FEW090 SCT220 08/07 A2970 RMK AC2CI1 SLP069=

CYXE;2005-06-10 12:00;METAR CYXE 101200Z 15003KT 15SM FEW090 SCT240 08/07 A2971 RMK AC2CI1 SLP070=

CYXE;2005-06-10 13:00;METAR CYXE 101300Z 34005KT 15SM BKN097 BKN250 09/08 A2972 RMK AC6CI1 SLP073=

CYXE;2005-06-10 14:00;METAR CYXE 101400Z 33002KT 15SM BKN100 BKN300 11/09 A2972 RMK AC5CI0 SLP073=

CYXE;2005-06-10 15:00;METAR CYXE 101500Z 02002KT 15SM SCT100 SCT300 14/10 A2971 RMK AC2CI1 SLP069=

CYXE;2005-06-10 16:00;METAR CYXE 101600Z 07002KT 15SM FEW030TCU SCT300 16/09 A2970 RMK TCU2CI1 SLP066=

CYXE;2005-06-10 17:00;METAR CYXE 101700Z 05002KT 15SM BKN033TCU BKN300 19/10 A2969 RMK TCU5CI0 VIRGA SLP062=

CYXE;2005-06-10 18:00;METAR CYXE 101800Z 01003KT 15SM SCT040TCU BKN060 BKN300 17/10 A2968 RMK TCU3SC2CI1 SLP059=

CYXE;2005-06-10 19:00;METAR CYXE 101900Z 06002KT 15SM FEW040TCU BKN070 BKN300 18/09 A2967 RMK TCU2AC3CI1 SLP056=

CYXE;2005-06-10 20:00;METAR CYXE 102000Z 18003KT 15SM FEW040TCU SCT090 BKN300 20/09 A2967 RMK TCU2AC1CI2 SLP054=

CYXE;2005-06-10 21:00;METAR CYXE 102100Z 14009KT 15SM FEW040TCU FEW090 BKN300 20/10 A2966 RMK TCU2AC1CI2 SLP051=

CYXE;2005-06-10 22:00;METAR CYXE 102200Z 17007KT 15SM FEW040TCU BKN110 BKN270 19/10 A2965 RMK TCU2AC1CI2 SLP049=

CYXE;2005-06-10 23:00;METAR CYXE 102300Z 17009KT 15SM FEW040TCU SCT092 BKN270 20/10 A2965 RMK TCU2AC1CI1 VIRGA SLP048=

CYXE;2005-06-11 01:00;METAR CYXE 110100Z 23007KT 15SM FEW040 FEW097 BKN270 19/09 A2965 RMK CU1AC2CI1 TCU ASCTD SLP049=

CYXE;2005-06-11 02:00;METAR CYXE 110200Z 20007KT 15SM FEW040 FEW110 SCT270 19/09 A2965 RMK CU1AC2CI1 SLP050=

CYXE;2005-06-11 04:00;METAR CYXE 110400Z 20006KT 15SM FEW110 FEW270 15/09 A2968 RMK AC2CI0 SLP056=

CYXE;2005-06-11 05:00;METAR CYXE 110500Z 21006KT 15SM FEW110 FEW270 12/08 A2968 RMK AC1CI1 SLP057=

CYXE;2005-06-11 06:00;METAR CYXE 110600Z 19004KT 15SM FEW270 12/08 A2968 RMK CI0 SLP058=

CYXE;2005-06-11 07:00;METAR CYXE 110700Z 19005KT 15SM FEW300 12/08 A2968 RMK CI0 SLP059=

CYXE;2005-06-11 08:00;METAR CYXE 110800Z 25002KT 15SM FEW300 09/07 A2969 RMK CI0 SLP061=

CYXE;2005-06-11 09:00;METAR CYXE 110900Z 21004KT 15SM FEW300 10/08 A2968 RMK CI1 SLP060=

CYXE;2005-06-11 10:00;METAR CYXE 111000Z 19003KT 15SM FEW300 09/08 A2969 RMK CI1 SLP061=

CYXE;2005-06-11 11:00;METAR CYXE 111100Z 19004KT 15SM FEW300 09/07 A2969 RMK CI1 SLP061=

CYXE;2005-06-11 12:00;METAR CYXE 111200Z 21004KT 15SM SKC 10/08 A2969 RMK SLP062=

CYXE;2005-06-11 13:00;METAR CYXE 111300Z 22003KT 15SM SKC 12/09 A2971 RMK SLP068=

CYXE;2005-06-11 14:00;METAR CYXE 111400Z 19003KT 15SM SKC 15/11 A2971 RMK SLP067=

CYXE;2005-06-11 15:00;METAR CYXE 111500Z 11003KT 15SM SKC 18/11 A2971 RMK SLP066=

CYXE;2005-06-11 16:00;METAR CYXE 111600Z 18005KT 15SM FEW120 21/11 A2971 RMK AC1 SLP064=

CYXE;2005-06-11 17:00;METAR CYXE 111700Z 11002KT 15SM FEW050 21/09 A2970 RMK CU1 SLP062=

CYXE;2005-06-11 18:00;METAR CYXE 111800Z 10007KT 15SM FEW050 22/08 A2970 RMK CU1 SLP062=

CYXE;2005-06-11 19:00;METAR CYXE 111900Z 11007KT 15SM FEW050 23/08 A2969 RMK CU1 SLP060=

CYXE;2005-06-11 20:00;METAR CYXE 112000Z 13008KT 15SM FEW060 24/07 A2968 RMK CU2 SLP057=

CYXE;2005-06-11 21:00;METAR CYXE 112100Z 16010KT 15SM SCT060 24/08 A2968 RMK CU3 SLP057=

CYXE;2005-06-11 22:00;METAR CYXE 112200Z 16007KT 15SM SCT075 24/08 A2967 RMK CU3 SLP052=

CYXE;2005-06-11 23:00;METAR CYXE 112300Z 13008KT 15SM SCT075 24/08 A2967 RMK CU3 SLP052=

CYXE;2005-06-12 00:00;METAR CYXE 120000Z 16008KT 15SM SCT075 24/08 A2966 RMK CU3 SLP049=

CYXE;2005-06-12 01:00;METAR CYXE 120100Z 14009G15KT 15SM FEW075 23/08 A2967 RMK CU2 SLP052=

CYXE;2005-06-12 02:00;METAR CYXE 120200Z 14007KT 15SM FEW075 22/08 A2967 RMK CU1 SLP053=

CYXE;2005-06-12 03:00;METAR CYXE 120300Z 13005KT 15SM FEW075 19/09 A2968 RMK AC1 SLP056=

CYXE;2005-06-12 04:00;METAR CYXE 120400Z 11009KT 15SM FEW075 18/09 A2971 RMK AC1 SLP063=

CYXE;2005-06-12 05:00;METAR CYXE 120500Z 13007KT 15SM SCT073 16/10 A2971 RMK AC2 SLP064=

CYXE;2005-06-12 06:00;METAR CYXE 120600Z 11008KT 15SM SCT080 15/10 A2970 RMK AC2 SLP060=

CYXE;2005-06-12 07:00;METAR CYXE 120700Z 13006KT 15SM FEW080 15/09 A2970 RMK AC1 SLP060=

CYXE;2005-06-12 08:00;METAR CYXE 120800Z 13006KT 15SM FEW080 14/09 A2970 RMK AC1 SLP062=

CYXE;2005-06-12 09:00;METAR CYXE 120900Z 09004KT 15SM FEW080 12/08 A2970 RMK AC2 SLP063=

CYXE;2005-06-12 10:00;METAR CYXE 121000Z 06006KT 15SM FEW080 BKN300 10/08 A2971 RMK ACC1CI1 SLP064=

CYXE;2005-06-12 11:00;METAR CYXE 121100Z 07004KT 15SM FEW080 BKN300 10/08 A2971 RMK ACC1CI2 SLP066=

CYXE;2005-06-12 12:00;METAR CYXE 121200Z 06005KT 15SM FEW080 BKN300 12/10 A2972 RMK ACC1CI2 SLP070=

CYXE;2005-06-12 13:00;METAR CYXE 121300Z 10007KT 15SM FEW080 BKN300 16/12 A2973 RMK ACC1CI2 SLP073=

CYXE;2005-06-12 14:00;METAR CYXE 121400Z 12005KT 15SM BKN300 17/12 A2974 RMK CI3 SLP075=

CYXE;2005-06-12 15:00;METAR CYXE 121500Z 14008KT 15SM FEW090 BKN300 20/12 A2976 RMK ACC2CI2 SLP079=

CYXE;2005-06-12 16:00;METAR CYXE 121600Z 16008KT 15SM FEW090 BKN300 21/12 A2977 RMK ACC2CI2 SLP082=

CYXE;2005-06-12 17:00;METAR CYXE 121700Z 15007KT 15SM FEW040 FEW090 SCT300 22/12 A2977 RMK CU1ACC2CI2 SLP085=

CYXE;2005-06-12 18:00;METAR CYXE 121800Z 14009KT 15SM SCT050 24/11 A2978 RMK CU3 SLP088=

CYXE;2005-06-12 19:00;METAR CYXE 121900Z 08009G17KT 15SM BKN050 23/12 A2978 RMK CU5 FEW TCU SLP089=

CYXE;2005-06-12 19:22;SPECI CYXE 121922Z 09013KT 15SM -SHRA BKN050TCU RMK TCU6=

CYXE;2005-06-12 20:00;METAR CYXE 122000Z 14006KT 15SM BKN050TCU 22/13 A2978 RMK TCU6 SHWRS E SLP087=

CYXE;2005-06-12 20:28;SPECI CYXE 122028Z 15013KT 12SM -SHRA BKN050TCU RMK TCU6=

CYXE;2005-06-12 20:37;SPECI CYXE 122037Z 14015G21KT 10SM -TSRA BKN050TCU RMK TCU7 CB ASCTD=

CYXE;2005-06-12 21:00;METAR CYXE 122100Z 14004KT 10SM -SHRA BKN050TCU 18/14 A2980 RETSRA RMK TCU6 CB ASCTD SLP100=

CYXE;2005-06-12 21:19;SPECI CYXE 122119Z 12002KT 15SM BKN050TCU BKN120 BKN250 RMK TCU5AC1CI1 CB SHWR NW MOVG NW=

CYXE;2005-06-12 22:00;METAR CYXE 122200Z 09006KT 15SM FEW050 BKN100 BKN250 23/13 A2979 RMK CU2AC2CI1 CB SHWR NW SLP097=

CYXE;2005-06-12 23:00;METAR CYXE 122300Z 10012KT 15SM FEW068 SCT100 BKN300 22/11 A2980 RMK CU2AC2CI0 SLP099=

CYXE;2005-06-13 00:00;METAR CYXE 130000Z 10007KT 15SM FEW068 SCT100 BKN300 22/10 A2980 RMK CU2AC2CI1 SLP098=

CYXE;2005-06-13 01:00;METAR CYXE 130100Z 10016KT 15SM FEW066 FEW100 BKN300 22/11 A2982 RMK CU1AC1CI1 SLP104=

CYXE;2005-06-13 02:00;METAR CYXE 130200Z 09009KT 15SM FEW070 FEW110 BKN300 20/10 A2985 RMK CU1AC1CI1 SLP112=

CYXE;2005-06-13 03:00;METAR CYXE 130300Z 08009KT 15SM FEW070 FEW110 BKN300 19/08 A2986 RMK CU1AC1CI1 SLP116=

CYXE;2005-06-13 04:00;METAR CYXE 130400Z 08010KT 15SM FEW300 17/08 A2988 RMK CI1 SLP123=

CYXE;2005-06-13 05:00;METAR CYXE 130500Z 06008KT 15SM FEW300 15/07 A2989 RMK CI1 SLP125=

CYXE;2005-06-13 06:00;METAR CYXE 130600Z 07009KT 15SM BKN300 13/08 A2990 RMK CI2 SLP128=

CYXE;2005-06-13 07:00;METAR CYXE 130700Z 08008KT 15SM SCT100 OVC300 13/05 A2991 RMK AC2CI1 SLP132=

CYXE;2005-06-13 08:00;METAR CYXE 130800Z 05008KT 15SM SCT080 OVC300 11/06 A2991 RMK AC2CI1 SLP132=

CYXE;2005-06-13 09:00;METAR CYXE 130900Z 05008KT 15SM SCT080 BKN300 10/06 A2991 RMK AC2CI1 SLP137=

CYXE;2005-06-13 10:00;METAR CYXE 131000Z 05005KT 15SM SCT080 BKN300 11/08 A2991 RMK ACC2CI1 SLP138=

CYXE;2005-06-13 11:00;METAR CYXE 131100Z 09006KT 15SM SCT080 BKN300 11/09 A2992 RMK ACC2CI1 SLP140=

CYXE;2005-06-13 12:00;METAR CYXE 131200Z 11007KT 15SM FEW080 OVC300 14/11 A2993 RMK AC1CI2 SLP140=

CYXE;2005-06-13 13:00;METAR CYXE 131300Z 11008KT 15SM FEW090 OVC300 15/11 A2993 RMK ACC1CI2 SLP142=

CYXE;2005-06-13 14:00;METAR CYXE 131400Z 12010KT 15SM FEW091 OVC270 16/11 A2993 RMK ACC1CI2 SLP140=

CYXE;2005-06-13 15:00;METAR CYXE 131500Z 13008KT 15SM BKN300 20/13 A2992 RMK CI3 SLP136=

CYXE;2005-06-13 16:00;METAR CYXE 131600Z 14011KT 15SM FEW100 BKN300 20/12 A2992 RMK AC1CI6 SLP137=

CYXE;2005-06-13 17:00;METAR CYXE 131700Z 12008G15KT 15SM FEW035 FEW100 OVC300 22/13 A2992 RMK CU1AC1CS5 SLP136=

CYXE;2005-06-13 18:00;METAR CYXE 131800Z 14012G18KT 15SM SCT043 OVC300 23/13 A2991 RMK CU3CI2 SLP133=

CYXE;2005-06-13 19:00;METAR CYXE 131900Z 14015KT 15SM FEW045 BKN300 23/11 A2990 RMK CU1CI3 SLP130=

CYXE;2005-06-13 20:00;METAR CYXE 132000Z 11013G19KT 15SM SCT050 BKN300 23/11 A2988 RMK CU3CI1 SLP124=

CYXE;2005-06-13 21:00;METAR CYXE 132100Z 16012G19KT 15SM SCT050 BKN300 24/11 A2987 RMK CU3CI1 SLP122=

CYXE;2005-06-13 22:00;METAR CYXE 132200Z 14012G18KT 15SM BKN059 BKN300 23/10 A2986 RMK CU5CI1 SLP118=

CYXE;2005-06-13 23:00;METAR CYXE 132300Z 14014KT 15SM SCT063 BKN300 23/10 A2985 RMK CU4CI1 SLP114=

CYXE;2005-06-14 00:00;METAR CYXE 140000Z 14014G19KT 15SM SCT063 BKN300 23/11 A2984 RMK CU3CI1 SLP108=

CYXE;2005-06-14 01:00;METAR CYXE 140100Z 28010KT 15SM BKN047 OVC300 20/13 A2984 RMK SC6CI2 SHWRS N SLP109=

CYXE;2005-06-14 01:11;SPECI CYXE 140111Z 26010KT 15SM -RA SCT025 BKN047 OVC300 RMK SF3SC3CI2=

CYXE;2005-06-14 01:54;SPECI CYXE 140154Z 28010KT 10SM -RA FEW004 BKN023 OVC078 RMK SF2SC4AC2=

CYXE;2005-06-14 02:00;METAR CYXE 140200Z 28009KT 6SM -RA BR FEW004 BKN023 OVC078 17/14 A2984 RMK SF2SC4AC2 SLP110=

CYXE;2005-06-14 02:35;SPECI CYXE 140235Z 28006KT 15SM FEW023 OVC048 RMK SF2SC6=

CYXE;2005-06-14 03:00;METAR CYXE 140300Z 26006KT 15SM BKN031 OVC079 16/14 A2985 RMK SC6AC2 SHWRS W SLP112=

CYXE;2005-06-14 03:38;SPECI CYXE 140338Z 26006KT 10SM -RA BKN039 OVC079 RMK SC6AC2=

CYXE;2005-06-14 04:00;METAR CYXE 140400Z 00000KT 6SM -RA FEW007 BKN039 OVC079 15/14 A2987 RMK SF2SC5AC2 SLP121=

CYXE;2005-06-14 04:44;SPECI CYXE 140444Z 22004KT 15SM BKN020 OVC080 RMK SC6AC2=

CYXE;2005-06-14 05:00;METAR CYXE 140500Z 22006KT 6SM -RA BR BKN020 OVC080 15/14 A2987 RMK SC7AC1 SLP121=

CYXE;2005-06-14 05:16;SPECI CYXE 140516Z 16006KT 6SM -RA BR OVC007 RMK ST8=

CYXE;2005-06-14 05:51;SPECI CYXE 140551Z 21006KT 6SM -RA BR FEW009 OVC020 RMK SF2SC6=

CYXE;2005-06-14 06:00;METAR CYXE 140600Z 15003KT 8SM RA FEW007 OVC020 14/14 A2987 RMK SF2SC6 SLP120=

CYXE;2005-06-14 07:00;METAR CYXE 140700Z 13003KT 10SM -RA SCT006 OVC035 14/13 A2986 RMK SF3SC5 SLP115=

CYXE;2005-06-14 08:00;METAR CYXE 140800Z 14003KT 8SM -RA FEW006 OVC026 14/13 A2986 RMK SF2SC6 SLP115=

CYXE;2005-06-14 09:00;METAR CYXE 140900Z 17005KT 12SM -RA BKN006 OVC020 14/13 A2985 RMK SF6SC2 SLP113=

CYXE;2005-06-14 10:00;METAR CYXE 141000Z 17004KT 12SM -RA BKN005 OVC017 13/13 A2984 RMK SF6SC2 SLP109=

CYXE;2005-06-14 10:47;SPECI CYXE 141047Z 17003KT 8SM -RA BKN004 OVC030 RMK SF6SC2=

CYXE;2005-06-14 11:00;METAR CYXE 141100Z 16004KT 8SM -RA BKN005 OVC030 13/13 A2984 RMK SF6SC2 SLP110=

CYXE;2005-06-14 11:24;SPECI CYXE 141124Z 14004KT 12SM SCT009 OVC060 RMK CF3SC5=

CYXE;2005-06-14 12:00;METAR CYXE 141200Z 07002KT 12SM FEW005 SCT020 OVC065 13/12 A2984 RMK SF1CU2SC5 SLP111=

CYXE;2005-06-14 12:24;SPECI CYXE 141224Z 10005KT 12SM -SHRA FEW004 SCT027 OVC050 RMK CF1CU3SC4 TCU EMBDD=

CYXE;2005-06-14 13:00;METAR CYXE 141300Z 12007KT 12SM -SHRA FEW004 OVC030 13/13 A2985 RMK CF2SC6 TCU EMBDD VSBY N 3 BR SLP114=

CYXE;2005-06-14 13:17;SPECI CYXE 141317Z 13009KT 12SM VCSH FEW004 BKN015 BKN050 RMK CF2SC5SC1 TCU EMBDD SHWRS N=

CYXE;2005-06-14 14:00;METAR CYXE 141400Z 14006KT 15SM FEW004 BKN031 14/13 A2986 RMK CF2SC6 SLP116=

CYXE;2005-06-14 14:17;SPECI CYXE 141417Z 16006KT 15SM -SHRA FEW004 BKN033 RMK CU2SC6=

CYXE;2005-06-14 15:00;METAR CYXE 141500Z 16006KT 15SM FEW004 BKN035 BKN074 BKN220 14/12 A2986 RMK CU2SC3AC1CI1 TCU EMBDD SW SLP122=

CYXE;2005-06-14 16:00;METAR CYXE 141600Z 15008KT 15SM FEW012 SCT035 SCT090 BKN220 15/12 A2986 RMK CU2SC1AC1CI2 TCU ASCTD W SLP122=

CYXE;2005-06-14 17:00;METAR CYXE 141700Z 15007KT 15SM FEW012 FEW025 SCT090 BKN220 17/12 A2986 RMK CU1CU2AC1CI1 TCU ASCTD W SLP119=

CYXE;2005-06-14 19:00;METAR CYXE 141900Z 16006KT 15SM SCT037 SCT051CB 20/11 A2986 RMK CU4CB1 CB SW SLP119=

CYXE;2005-06-14 20:00;METAR CYXE 142000Z 20007KT 15SM SCT041 21/12 A2986 RMK CU3 SLP118=

CYXE;2005-06-14 21:00;METAR CYXE 142100Z 21006KT 15SM FEW041 21/06 A2986 RMK CU2 SLP119=

CYXE;2005-06-14 22:00;METAR CYXE 142200Z 22002KT 15SM FEW055 22/08 A2986 RMK CU2 TCU ASOCTD SLP116=

CYXE;2005-06-14 23:00;METAR CYXE 142300Z 27005KT 15SM FEW055 21/12 A2986 RMK CU2 TCU ASOCTD SLP117=

CYXE;2005-06-15 00:00;METAR CYXE 150000Z 22003KT 15SM FEW050 FEW250 22/11 A2986 RMK CU2CI1 TCU ASOCTD SLP117=

CYXE;2005-06-15 01:00;METAR CYXE 150100Z 00000KT 15SM FEW050 SCT250 21/11 A2986 RMK CU1CI2 SLP116=

CYXE;2005-06-15 02:00;METAR CYXE 150200Z 22003KT 15SM FEW055 BKN250 20/12 A2986 RMK CU1CI3 SLP117=

CYXE;2005-06-15 03:00;METAR CYXE 150300Z 16005KT 15SM FEW055 SCT250 18/11 A2986 RMK CU1CI2 SLP121=

CYXE;2005-06-15 04:00;METAR CYXE 150400Z 15004KT 15SM SCT250 17/10 A2987 RMK CI2 SLP122=

CYXE;2005-06-15 05:00;METAR CYXE 150500Z 18005KT 15SM SCT250 16/12 A2988 RMK CI2 SLP126=

CYXE;2005-06-15 06:00;METAR CYXE 150600Z 17005KT 15SM BKN250 15/11 A2988 RMK CI2 SLP125=

CYXE;2005-06-15 07:00;METAR CYXE 150700Z 14006KT 15SM BKN250 13/10 A2987 RMK CI4 SLP122=

CYXE;2005-06-15 08:00;METAR CYXE 150800Z 14004KT 15SM BKN250 13/10 A2987 RMK CI2 SLP122=

CYXE;2005-06-15 09:00;METAR CYXE 150900Z 13006KT 15SM FEW100 BKN250 13/10 A2986 RMK AC2CI2 SLP118=

CYXE;2005-06-15 10:00;METAR CYXE 151000Z 15011KT 15SM FEW100 BKN250 14/11 A2985 RMK AC2CI4 SLP114=

CYXE;2005-06-15 11:00;METAR CYXE 151100Z 14009KT 15SM FEW100 BKN250 15/11 A2984 RMK AC2CI4 SLP111=

CYXE;2005-06-15 12:00;METAR CYXE 151200Z 14010KT 15SM FEW060 FEW100 BKN220 15/11 A2983 RMK SC2AC1CI5 SLP106=

CYXE;2005-06-15 13:00;METAR CYXE 151300Z 15008KT 15SM BKN087 BKN220 16/11 A2983 RMK AC6CI1 SLP106=

CYXE;2005-06-15 14:00;METAR CYXE 151400Z 14009KT 15SM SCT090 BKN220 17/12 A2982 RMK AC3CI4 SLP104=

CYXE;2005-06-15 15:00;METAR CYXE 151500Z 16010KT 15SM BKN110 OVC220 17/11 A2983 RMK AC6CI2 SLP108=

CYXE;2005-06-15 15:34;SPECI CYXE 151534Z 16007KT 15SM -SHRA BKN047 OVC069 RMK SC5AC3=

CYXE;2005-06-15 16:00;METAR CYXE 151600Z 18011G16KT 15SM -RA FEW016 BKN052 OVC099 16/13 A2985 RMK SC2SC4AC2 SLP113=

CYXE;2005-06-15 16:40;SPECI CYXE 151640Z 16007KT 15SM SCT023 BKN030 OVC110 RMK SC3SC3AC2=

CYXE;2005-06-15 17:00;METAR CYXE 151700Z 14012KT 15SM -SHRA FEW035 BKN059 OVC097 18/13 A2983 RMK SC2SC4AC2 SLP106=

CYXE;2005-06-15 18:00;METAR CYXE 151800Z 17013KT 15SM -SHRA FEW018 BKN029 OVC063 18/14 A2984 RMK CF1SC5SC3 SLP111=

CYXE;2005-06-15 19:00;METAR CYXE 151900Z 16010G17KT 8SM -SHRA FEW026 BKN061 OVC088 16/13 A2985 RMK SC2SC4AC2 SLP113=

CYXE;2005-06-15 20:00;METAR CYXE 152000Z 17009KT 15SM -SHRA BKN022 OVC073 16/14 A2983 RMK SC6AC2 SLP109=

CYXE;2005-06-15 21:00;METAR CYXE 152100Z 16013KT 15SM -SHRA BKN044 OVC073 17/13 A2981 RMK SC5AC3 SLP105=

CYXE;2005-06-15 21:18;SPECI CYXE 152118Z 17013KT 15SM BKN044 OVC078 RMK SC6AC2=

CYXE;2005-06-15 23:00;METAR CYXE 152300Z 19009KT 15SM FEW020 BKN067 BKN095 18/13 A2981 RMK CU1AC6AC1 SHWRS N SLP105=

CYXE;2005-06-15 23:19;SPECI CYXE 152319Z 20010KT 15SM -SHRA FEW020 BKN055 BKN095 RMK CU1SC5AC2=

CYXE;2005-06-15 23:40;SPECI CYXE 152340Z 19008KT 15SM FEW020 BKN055 BKN095 RMK CU1SC6AC1 SHWRS N-NE ACC EMBDD=

CYXE;2005-06-16 00:00;METAR CYXE 160000Z 19009KT 15SM FEW020 BKN055 BKN100 18/14 A2980 RMK CU1SC5AC2 SHWR NE SLP098=

CYXE;2005-06-16 01:00;METAR CYXE 160100Z 21006KT 15SM FEW025 FEW055 SCT090 18/12 A2980 RMK CU1SC2AC2 TCU/ACC EMBDD E SLP098=

CYXE;2005-06-16 02:00;METAR CYXE 160200Z 19008KT 15SM FEW050CB 19/13 A2978 RMK CB1 CB NE-SE SLP092=

CYXE;2005-06-16 03:00;METAR CYXE 160300Z 19006KT 15SM FEW070 18/13 A2978 RMK AC1 CB TPS DSNT E SLP090=

CYXE;2005-06-16 04:00;METAR CYXE 160400Z 19008KT 15SM FEW040 17/12 A2979 RMK SC1 CB TPS DSNT E SLP094=

CYXE;2005-06-16 04:43;SPECI CYXE 160443Z 30012G29KT 15SM FEW045CB SCT090 RMK CB2AC1 LTGCC E=

CYXE;2005-06-16 05:00;METAR CYXE 160500Z 31014G24KT 15SM FEW045 FEW090 13/08 A2986 RMK SC1AC1 LTGIC DSNT E CB ASOCTD SLP115=

CYXE;2005-06-16 06:00;METAR CYXE 160600Z 31003KT 15SM FEW090 10/08 A2986 RMK AC1 SLP120=

CYXE;2005-06-16 07:00;METAR CYXE 160700Z 19004KT 15SM FEW090 09/07 A2986 RMK AC1 SLP122=

CYXE;2005-06-16 09:00;METAR CYXE 160900Z 24007KT 15SM FEW090 08/07 A2991 RMK AC1 SLP142=

CYXE;2005-06-16 10:00;METAR CYXE 161000Z 23007KT 8SM FEW250 07/06 A2993 RMK CI1 BR SLP147=

CYXE;2005-06-16 11:00;METAR CYXE 161100Z 23006KT 12SM FEW120 FEW250 07/06 A2995 RMK AC1CI0 SLP152=

CYXE;2005-06-16 12:00;METAR CYXE 161200Z 25005KT 15SM FEW250 09/07 A2996 RMK CI1 SLP155=

CYXE;2005-06-16 13:00;METAR CYXE 161300Z 25007KT 15SM FEW250 10/08 A2997 RMK CI1 SLP158=

CYXE;2005-06-16 14:00;METAR CYXE 161400Z 29005KT 15SM FEW012 BKN250 12/09 A2998 RMK CF1CI2 SLP163=

CYXE;2005-06-16 15:00;METAR CYXE 161500Z 28004KT 15SM BKN250 14/10 A2999 RMK CI2 SLP163=

CYXE;2005-06-16 16:00;METAR CYXE 161600Z 32004KT 15SM FEW024 BKN250 16/10 A2998 RMK CF1CI2 SLP161=

CYXE;2005-06-16 17:00;METAR CYXE 161700Z 31003KT 15SM FEW032 OVC250 17/09 A2997 RMK CU1CI3 SLP158=

CYXE;2005-06-16 18:00;METAR CYXE 161800Z 26004KT 15SM FEW034 OVC250 17/09 A2997 RMK CU1CI3 SLP160=

CYXE;2005-06-16 19:00;METAR CYXE 161900Z 05002KT 15SM FEW036 OVC250 18/09 A2996 RMK CU1CI3 SLP157=

CYXE;2005-06-16 20:00;METAR CYXE 162000Z 03004KT 15SM FEW040 FEW099 BKN250 19/10 A2995 RMK CU1AC1CI2 SLP152=

CYXE;2005-06-16 21:00;METAR CYXE 162100Z 30003KT 15SM FEW040 FEW091 BKN250 20/09 A2994 RMK CU1AC1CI2 SLP148=

CYXE;2005-06-16 22:00;METAR CYXE 162200Z 25003KT 15SM FEW050 FEW110 BKN250 21/09 A2992 RMK CU1AC2CI2 SLP143=

CYXE;2005-06-16 23:00;METAR CYXE 162300Z 21002KT 15SM FEW050 SCT120 OVC250 21/08 A2992 RMK CU1AC2CI3 SLP142=

CYXE;2005-06-17 00:00;METAR CYXE 170000Z 01003KT 15SM FEW050 BKN100 BKN120 OVC250 20/10 A2990 RMK CU1AC5AC1CI2 SLP136=

CYXE;2005-06-17 01:00;METAR CYXE 170100Z 36003KT 15SM FEW050 BKN100 OVC250 19/12 A2991 RMK CU1AC6CI1 SHWRS SW SLP138=

CYXE;2005-06-17 02:00;METAR CYXE 170200Z 34003KT 15SM BKN085 OVC250 18/12 A2990 RMK AC6CI1 SHWRS SW SLP134=

CYXE;2005-06-17 03:00;METAR CYXE 170300Z 03004KT 15SM VCSH BKN077 OVC250 17/13 A2989 RMK AC6CI1 SLP128=

CYXE;2005-06-17 04:00;METAR CYXE 170400Z 05005KT 15SM BKN048 OVC080 16/13 A2989 RMK SC6AC2 VIRGA SLP129=

CYXE;2005-06-17 05:00;METAR CYXE 170500Z 05007KT 15SM SCT050 BKN085 15/11 A2987 RMK SC3AC4 SLP124=

CYXE;2005-06-17 06:00;METAR CYXE 170600Z 06006KT 15SM FEW050 BKN099 OVC250 15/11 A2988 RMK SC2AC4CI2 SLP124=

CYXE;2005-06-17 07:00;METAR CYXE 170700Z 09006KT 15SM BKN095 OVC250 14/12 A2988 RMK AC6CI2 SLP124=

CYXE;2005-06-17 08:00;METAR CYXE 170800Z 05006KT 15SM SCT071 SCT250 14/11 A2986 RMK AC4CI1 SLP118=

CYXE;2005-06-17 09:00;METAR CYXE 170900Z 11008KT 15SM BKN074 OVC250 16/11 A2985 RMK AC5CI2 SLP112=

CYXE;2005-06-17 10:00;METAR CYXE 171000Z 10009KT 15SM TS SCT040CB BKN074 OVC250 16/10 A2983 RMK CB3AC3CI1 LTGCCCG NE-SE SLP108=

CYXE;2005-06-17 10:38;SPECI CYXE 171038Z 10013KT 15SM -SHRA FEW040CB BKN071 OVC250 RMK CB2AC6CI0=

CYXE;2005-06-17 12:00;METAR CYXE 171200Z 08010KT 15SM -SHRA FEW018 SCT061 BKN095 OVC250 13/11 A2982 RMK SC2SC2AC2CI2 SLP105=

CYXE;2005-06-17 13:00;METAR CYXE 171300Z 07011G16KT 15SM -SHRA FEW021 SCT050 BKN082 OVC250 14/12 A2979 RMK CU2SC2AC3CI2 SLP096=

CYXE;2005-06-17 13:36;SPECI CYXE 171336Z 07014KT 15SM FEW037 BKN090 OVC200 RMK SC2AC3CI2 SHRA NE CVCTV CLD EMBDD=

CYXE;2005-06-17 14:00;METAR CYXE 171400Z 07014KT 15SM SCT049 BKN060CB OVC200 15/12 A2977 RMK SC3CB2CI2 CB SHRA NE SLP088=

CYXE;2005-06-17 15:00;METAR CYXE 171500Z 07016KT 15SM SCT044 BKN085 OVC250 16/12 A2976 RMK SC3AC2CI2 SLP085=

CYXE;2005-06-17 16:00;METAR CYXE 171600Z 08014G19KT 15SM SCT028 BKN075 OVC250 16/12 A2975 RMK SC3AC2CI2 SLP082=

CYXE;2005-06-17 17:00;METAR CYXE 171700Z 06020KT 15SM SCT018 SCT075 BKN250 18/13 A2972 RMK SC2AC2CI1 SLP072=

CYXE;2005-06-17 18:00;METAR CYXE 171800Z 07016KT 15SM SCT018 BKN080 OVC250 17/13 A2972 RMK SC4AC2CI2 SLP072=

CYXE;2005-06-17 19:00;METAR CYXE 171900Z 07014KT 15SM BKN016 OVC250 17/14 A2974 RMK SC6CI2 SLP077=

CYXE;2005-06-17 20:00;METAR CYXE 172000Z 04015KT 15SM BKN014 18/14 A2972 RMK SC6 SLP070=

CYXE;2005-06-17 21:00;METAR CYXE 172100Z 05015G20KT 15SM BKN014 OVC077 18/14 A2971 RMK SC5AC3 SLP065=

CYXE;2005-06-17 21:27;SPECI CYXE 172127Z 05017KT 15SM -RA BKN014 OVC077 RMK SC5AC3=

CYXE;2005-06-17 22:00;METAR CYXE 172200Z 05016KT 15SM -SHRA BKN014 OVC070 18/15 A2968 RMK SC6AC2 SLP058=

CYXE;2005-06-17 22:39;SPECI CYXE 172239Z 06020G25KT 15SM VCSH BKN012 BKN050 OVC090 RMK SC5SC2AC2=

CYXE;2005-06-17 23:00;METAR CYXE 172300Z 06016G25KT 15SM VCSH BKN012 OVC050 17/15 A2967 RMK SC6SC2 SLP053=

CYXE;2005-06-18 00:00;METAR CYXE 180000Z 05023KT 15SM BKN007 OVC060 16/14 A2963 RMK SF7SC1 SLP041=

CYXE;2005-06-18 01:00;METAR CYXE 180100Z 06019G24KT 15SM OVC007 16/14 A2962 RMK SF8 SLP039=

CYXE;2005-06-18 02:00;METAR CYXE 180200Z 06018G26KT 15SM OVC005 16/14 A2963 RMK SF8 SLP040=

CYXE;2005-06-18 02:50;SPECI CYXE 180250Z 05022G29KT 12SM -SHRA OVC005 RMK SF8=

CYXE;2005-06-18 03:00;METAR CYXE 180300Z 05025G31KT 8SM -TSRA OVC005 15/14 A2958 RMK SF8 CB EMBDD LTGIC OVRHD SLP024=

CYXE;2005-06-18 03:16;SPECI CYXE 180316Z 07021G27KT 8SM -SHRA OVC005CB RMK CB8 LTGICCG OVRHD=

CYXE;2005-06-18 03:21;SPECI CYXE 180321Z 05015G26KT 3SM +TSRA OVC005CB RMK CB8 LTGICCG +TS=

CYXE;2005-06-18 03:36;SPECI CYXE 180336Z 05023G32KT 10SM TSRA BKN005 OVC014CB RMK SF5CB3 LTGIC=

CYXE;2005-06-18 03:44;SPECI CYXE 180344Z 05024KT 12SM -TSRA BKN005 OVC045CB RERA RMK SF5CB3 LTGIC=

CYXE;2005-06-18 04:00;METAR CYXE 180400Z 05021G29KT 12SM -TSRA BKN005 OVC045CB 14/14 A2958 RMK SF5CB3 LTGIC SLP023=

CYXE;2005-06-18 04:42;SPECI CYXE 180442Z 04023G28KT 6SM +TSRA OVC006CB RMK CB8 LTGIC=

CYXE;2005-06-18 05:00;METAR CYXE 180500Z 04023G31KT 8SM +TSRA OVC004CB 14/13 A2957 RMK CB8 LTCICCCCG ALL QUADS SLP019=

CYXE;2005-06-18 05:45;SPECI CYXE 180545Z 04024G33KT 8SM TSRA OVC005CB RMK CB8 LTGICCCCG ALL QUADS=

CYXE;2005-06-18 06:00;METAR CYXE 180600Z 03031G36KT 6SM TSRA OVC006CB 14/13 A2950 RMK CB8 LTGICCCCG ALQDS PRESFR SLP995=

CYXE;2005-06-18 06:33;SPECI CYXE 180633Z 04021G30KT 4SM +TSRA OVC005 RMK SF8 LTGICCC ALQDS CB EMBDD ALQDS=

CYXE;2005-06-18 06:49;SPECI CYXE 180649Z 05022G32KT 2SM +TSRA OVC006 RMK SF8 LTGIC ALQDS CB EMBDD ALQDS=

CYXE;2005-06-18 07:00;METAR CYXE 180700Z 05023G31KT 4SM TSRA OVC005 14/13 A2949 RMK SF8 LTGIC NE CB EMBDD SLP991=

CYXE;2005-06-18 07:43;SPECI CYXE 180743Z 04018KT 3SM +RA BR OVC006 RMK SF8=

CYXE;2005-06-18 08:00;METAR CYXE 180800Z 04016KT 4SM RA BR OVC005 14/13 A2954 RETS RMK SF8 SLP007=

CYXE;2005-06-18 08:34;SPECI CYXE 180834Z 06027G34KT 4SM RA BR OVC006 RMK SF8=

CYXE;2005-06-18 09:00;METAR CYXE 180900Z 06029G38KT 8SM -RA OVC004 14/13 A2942 RERA RMK SF8 PRESFR SLP967=

CYXE;2005-06-18 09:27;SPECI CYXE 180927Z 06024G37KT 15SM BKN006 OVC024 RMK SF7SC1=

CYXE;2005-06-18 09:43;SPECI CYXE 180943Z 04013G22KT 15SM OVC009 RMK SF8=

CYXE;2005-06-18 10:00;METAR CYXE 181000Z 03012KT 15SM OVC010 14/13 A2950 RMK SF8 PRESRR SLP994=

CYXE;2005-06-18 11:00;METAR CYXE 181100Z 01006KT 15SM OVC009 14/13 A2955 RMK SF8 SLP008=

CYXE;2005-06-18 12:00;METAR CYXE 181200Z 01012KT 15SM OVC009 14/13 A2952 RMK SF8 SLP005=

CYXE;2005-06-18 13:00;METAR CYXE 181300Z 01012KT 15SM OVC007 14/13 A2954 RMK SF8 SLP009=

CYXE;2005-06-18 13:43;SPECI CYXE 181343Z 02011KT 3SM -DZ BR OVC004 RMK SF8=

CYXE;2005-06-18 14:00;METAR CYXE 181400Z 02010KT 2SM -DZ BR OVC004 14/13 A2956 RMK SF8 SLP018=

CYXE;2005-06-18 14:40;SPECI CYXE 181440Z 03010KT 1SM R09/P6000FT/N -DZ BR OVC004 RMK ST8=

CYXE;2005-06-18 15:00;METAR CYXE 181500Z 02010KT 2SM -DZ BR OVC003 15/14 A2957 RMK ST8 SLP020=

CYXE;2005-06-18 16:00;METAR CYXE 181600Z 02013KT 2SM -DZ BR OVC004 15/14 A2957 RMK ST8 SLP020=

CYXE;2005-06-18 16:18;SPECI CYXE 181618Z 03009KT 3SM -DZ BR OVC004 RMK ST8 VSBY VRBL 2-4=

CYXE;2005-06-18 17:00;METAR CYXE 181700Z 03011KT 10SM -DZ OVC006 15/14 A2957 RMK ST8 SLP021=

CYXE;2005-06-18 17:37;SPECI CYXE 181737Z 03007KT 15SM OVC007 RMK ST8=

CYXE;2005-06-18 18:00;METAR CYXE 181800Z 03007KT 15SM OVC007 16/14 A2960 RMK ST8 SLP032=

CYXE;2005-06-18 18:20;SPECI CYXE 181820Z 02007KT 10SM -DZ OVC007 RMK ST8=

CYXE;2005-06-18 19:00;METAR CYXE 181900Z 06004KT 10SM -DZ OVC005 16/15 A2962 RMK ST8 SLP036=

CYXE;2005-06-18 19:17;SPECI CYXE 181917Z 03004KT 2SM -DZ OVC005 RMK ST8=

CYXE;2005-06-18 19:24;SPECI CYXE 181924Z 02004KT 2SM -DZ BR BKN005 OVC015 RMK ST7SC1 VSBY=

CYXE;2005-06-18 20:00;METAR CYXE 182000Z 07003KT 2SM -DZ BR OVC005 17/15 A2963 RMK ST8 VSBY=

CYXE;2005-06-18 20:13;SPECI CYXE 182013Z 02002KT 10SM -DZ OVC007 RMK ST8=

CYXE;2005-06-18 20:49;SPECI CYXE 182049Z 03004KT 15SM BKN009 RMK ST6=

CYXE;2005-06-18 21:00;METAR CYXE 182100Z 04003KT 15SM BKN010 19/15 A2961 RMK ST6 SLP033=

CYXE;2005-06-18 22:00;METAR CYXE 182200Z 14002KT 15SM FEW015 OVC027 19/15 A2962 RMK SF2SC5 CU EMBD SLP035=

CYXE;2005-06-18 23:00;METAR CYXE 182300Z 22004KT 15SM SCT020 SCT110 20/15 A2961 RMK CU3AC1 SLP034=

CYXE;2005-06-19 00:00;METAR CYXE 190000Z 00000KT 15SM SCT025 SCT110 21/15 A2961 RMK CU3AC1 TCU EMBD SLP031=

CYXE;2005-06-19 01:00;METAR CYXE 190100Z 17006KT 15SM BKN030 BKN100 21/15 A2960 RMK CU5AC1 TCU ASOCTD SLP029=

CYXE;2005-06-19 02:00;METAR CYXE 190200Z 18005KT 15SM FEW040 SCT095 20/15 A2961 RMK CU2AC2 TCU ASOCTD SLP030=

CYXE;2005-06-19 03:00;METAR CYXE 190300Z 22008KT 15SM FEW040TCU FEW080 18/13 A2962 RMK TCU1AC2 CB EMBD N SLP036=

CYXE;2005-06-19 04:00;METAR CYXE 190400Z 21009KT 15SM FEW040CB 18/11 A2963 RMK CB1 LTGIC NW SLP038=

CYXE;2005-06-19 05:00;METAR CYXE 190500Z 21012KT 15SM FEW040CB FEW100 17/11 A2963 RMK CB1AC1 LTGIC NW-NE SLP041=

CYXE;2005-06-19 06:00;METAR CYXE 190600Z 22009KT 15SM FEW040CB FEW100 15/11 A2965 RMK CB1AC1 CB LTGIC DIS NW-NE SLP047=

CYXE;2005-06-19 07:00;METAR CYXE 190700Z 22007KT 15SM FEW100 13/11 A2965 RMK AC1 SLP047=

CYXE;2005-06-19 08:00;METAR CYXE 190800Z 22009KT 15SM FEW100 13/11 A2964 RMK AC1 SLP046=

CYXE;2005-06-19 09:00;METAR CYXE 190900Z 23016KT 15SM FEW100 13/10 A2963 RMK AC1 SLP040=

CYXE;2005-06-19 10:00;METAR CYXE 191000Z 23018G24KT 15SM FEW100 FEW230 13/10 A2963 RMK AC1CI1 SLP041=

CYXE;2005-06-19 10:17;SPECI CYXE 191017Z 23019G25KT 15SM FEW006 FEW100 SCT230 RMK SF2AC1CI0=

CYXE;2005-06-19 11:00;METAR CYXE 191100Z 24018G24KT 15SM SCT020 SCT230 13/10 A2965 RMK SC3CI0 RGD BASE SLP047=

CYXE;2005-06-19 12:00;METAR CYXE 191200Z 26017G26KT 15SM OVC016 13/11 A2968 RMK SC7 RDG CIG SLP056=

CYXE;2005-06-19 13:00;METAR CYXE 191300Z 26013G18KT 15SM FEW012 BKN029 OVC069 13/11 A2971 RMK SF2SC5AC2 SLP065=

CYXE;2005-06-19 14:00;METAR CYXE 191400Z 26016KT 15SM BKN016 OVC032 14/11 A2974 RMK SC6SC2 RGD CIG SLP074=

CYXE;2005-06-19 15:00;METAR CYXE 191500Z 25016KT 15SM BKN018 OVC032 14/11 A2976 RMK SC6SC2 SLP085=

CYXE;2005-06-19 16:00;METAR CYXE 191600Z 26019KT 15SM OVC027 14/11 A2979 RMK SC8 CIG RGD SLP094=

CYXE;2005-06-19 17:00;METAR CYXE 191700Z 26016G21KT 15SM BKN023 OVC068 15/10 A2981 RMK SC6AC2 CIG RGD SLP099=

CYXE;2005-06-19 18:00;METAR CYXE 191800Z 27017G22KT 15SM BKN025 OVC068 15/10 A2982 RMK SC6AC2 CIG RGD SLP107=

CYXE;2005-06-19 19:00;METAR CYXE 191900Z 27016G22KT 15SM BKN027 16/11 A2983 RMK SC6 SLP110=

CYXE;2005-06-19 20:00;METAR CYXE 192000Z 26017G22KT 15SM BKN035 18/11 A2984 RMK SC6 SLP114=

CYXE;2005-06-19 21:00;METAR CYXE 192100Z 27018KT 15SM BKN039 18/09 A2986 RMK SC6 SLP118=

CYXE;2005-06-19 22:00;METAR CYXE 192200Z 27012G18KT 15SM SCT045 BKN060 18/11 A2986 RMK CU4SC2 SLP119=

CYXE;2005-06-19 23:00;METAR CYXE 192300Z 27012G18KT 15SM SCT045 BKN060 18/10 A2987 RMK CU3SC3 SLP122=

CYXE;2005-06-20 00:00;METAR CYXE 200000Z 28014G19KT 15SM FEW045 18/10 A2987 RMK CU2 SLP124=

CYXE;2005-06-20 01:00;METAR CYXE 200100Z 30011KT 15SM FEW050 18/10 A2989 RMK CU1 SLP129=

CYXE;2005-06-20 02:00;METAR CYXE 200200Z 30008KT 15SM FEW050 17/11 A2990 RMK CU1 SLP133=

CYXE;2005-06-20 03:00;METAR CYXE 200300Z 27006KT 15SM SKC 15/11 A2992 RMK SLP140=

CYXE;2005-06-20 04:00;METAR CYXE 200400Z 25006KT 15SM FEW080 12/10 A2994 RMK AC1 SLP147=

CYXE;2005-06-20 05:00;METAR CYXE 200500Z 25006KT 15SM FEW080 11/09 A2995 RMK AC1 SLP152=

CYXE;2005-06-20 06:00;METAR CYXE 200600Z 23005KT 15SM FEW080 10/09 A2996 RMK AC1 SLP156=

CYXE;2005-06-20 07:00;METAR CYXE 200700Z 20005KT 15SM SKC 11/09 A2995 RMK SLP153=

CYXE;2005-06-20 08:00;METAR CYXE 200800Z 22008KT 15SM SKC 10/08 A2995 RMK SLP155=

CYXE;2005-06-20 09:00;METAR CYXE 200900Z 22007KT 15SM SKC 10/08 A2995 RMK SLP154=

CYXE;2005-06-20 10:00;METAR CYXE 201000Z 29008G19KT 15SM SKC 10/08 A2999 RMK SLP165=

CYXE;2005-06-20 11:00;METAR CYXE 201100Z 29004KT 15SM SKC 09/07 A2999 RMK SLP167=

CYXE;2005-06-20 12:00;METAR CYXE 201200Z 29004KT 15SM SKC 10/08 A3002 RMK SLP175=

CYXE;2005-06-20 13:00;METAR CYXE 201300Z 35006KT 15SM SCT300 12/10 A3005 RMK CI0 SLP185=

CYXE;2005-06-20 14:00;METAR CYXE 201400Z 02013KT 15SM BKN300 15/10 A3008 RMK CI2 SLP195=

CYXE;2005-06-20 15:00;METAR CYXE 201500Z 04011KT 15SM FEW022 BKN300 15/10 A3009 RMK CF1CI2 SLP199=

CYXE;2005-06-20 16:00;METAR CYXE 201600Z 05009KT 15SM FEW030 FEW300 16/09 A3011 RMK CU1CI1 SLP205=

CYXE;2005-06-20 17:00;METAR CYXE 201700Z 06008KT 15SM FEW300 17/09 A3012 RMK CI1 SLP208=

CYXE;2005-06-20 18:00;METAR CYXE 201800Z 03006KT 15SM FEW095 FEW300 17/08 A3012 RMK ACC1CI1 SLP210=

CYXE;2005-06-20 19:00;METAR CYXE 201900Z 08007KT 15SM FEW095 FEW300 18/08 A3012 RMK ACC1CI1 SLP212=

CYXE;2005-06-20 20:00;METAR CYXE 202000Z 03006KT 15SM FEW095 SCT300 19/08 A3012 RMK AC1CI2 SLP210=

CYXE;2005-06-20 21:00;METAR CYXE 202100Z 07007KT 15SM FEW095 FEW300 20/09 A3011 RMK ACC1CI1 SLP206=

CYXE;2005-06-20 22:00;METAR CYXE 202200Z 04008KT 15SM SCT300 20/08 A3012 RMK CI2 SLP207=

CYXE;2005-06-20 23:00;METAR CYXE 202300Z 05007KT 15SM SCT300 19/08 A3012 RMK CI2 SLP209=

CYXE;2005-06-21 00:00;METAR CYXE 210000Z 04005KT 15SM FEW300 19/08 A3012 RMK CI1 SLP209=

CYXE;2005-06-21 01:00;METAR CYXE 210100Z 05005KT 15SM FEW300 19/07 A3012 RMK CI1 SLP208=

CYXE;2005-06-21 02:00;METAR CYXE 210200Z 05005KT 15SM BKN250 17/09 A3011 RMK CI2 SLP207=

CYXE;2005-06-21 03:00;METAR CYXE 210300Z 05007KT 15SM SCT250 14/08 A3012 RMK CI2 SLP208=

CYXE;2005-06-21 04:00;METAR CYXE 210400Z 06008KT 15SM FEW250 13/09 A3012 RMK CI1 SLP211=

CYXE;2005-06-21 05:00;METAR CYXE 210500Z 07007KT 15SM FEW250 12/09 A3013 RMK CI1 SLP213=

CYXE;2005-06-21 06:00;METAR CYXE 210600Z 08006KT 15SM FEW250 11/08 A3014 RMK CI1 SLP218=

CYXE;2005-06-21 07:00;METAR CYXE 210700Z 10007KT 15SM FEW250 11/08 A3014 RMK CI1 SLP218=

CYXE;2005-06-21 08:00;METAR CYXE 210800Z 08006KT 15SM SKC 10/07 A3014 RMK SLP216=

CYXE;2005-06-21 09:00;METAR CYXE 210900Z 07006KT 15SM FEW088 09/07 A3013 RMK AC1 SLP214=

CYXE;2005-06-21 10:00;METAR CYXE 211000Z 09006KT 15SM BKN080 09/07 A3013 RMK AC2 SLP215=

CYXE;2005-06-21 11:00;METAR CYXE 211100Z 10008KT 15SM BKN075 12/06 A3013 RMK AC2 SLP214=

CYXE;2005-06-21 12:00;METAR CYXE 211200Z 09007KT 15SM SCT073 12/07 A3013 RMK AC1 SLP213=

CYXE;2005-06-21 13:00;METAR CYXE 211300Z 10008KT 15SM FEW073 14/07 A3012 RMK AC1 SLP210=

CYXE;2005-06-21 14:00;METAR CYXE 211400Z 10011KT 15SM FEW080 FEW280 17/08 A3012 RMK ACC1CI1 SLP207=

CYXE;2005-06-21 15:00;METAR CYXE 211500Z 10009KT 15SM FEW080 FEW280 19/10 A3011 RMK ACC1CI1 TR CLD SLP204=

CYXE;2005-06-21 16:00;METAR CYXE 211600Z 12007KT 15SM FEW080 FEW280 21/10 A3009 RMK ACC1CI1 TR CLD SLP199=

CYXE;2005-06-21 17:00;METAR CYXE 211700Z 11009KT 15SM FEW280 22/12 A3007 RMK CI1 TR CI SLP192=

CYXE;2005-06-21 18:00;METAR CYXE 211800Z 14008KT 15SM SKC 24/14 A3006 RMK SLP186=

CYXE;2005-06-21 19:00;METAR CYXE 211900Z 13008KT 15SM SKC 24/13 A3004 RMK SLP181=

CYXE;2005-06-21 20:00;METAR CYXE 212000Z 13009KT 15SM FEW140 25/14 A3002 RMK AC1 SLP173=

CYXE;2005-06-21 21:00;METAR CYXE 212100Z 12006KT 15SM FEW120 26/15 A3000 RMK ACC1 SLP164=

CYXE;2005-06-21 22:00;METAR CYXE 212200Z 14009KT 15SM FEW090 27/15 A2997 RMK ACC1 SLP154=

CYXE;2005-06-21 23:00;METAR CYXE 212300Z 16007KT 15SM FEW090 27/15 A2994 RMK ACC1 SLP145=

CYXE;2005-06-22 00:00;METAR CYXE 220000Z 13008KT 15SM SKC 27/16 A2991 RMK SLP131=

CYXE;2005-06-22 01:00;METAR CYXE 220100Z 14008KT 15SM FEW300 27/16 A2988 RMK CI1 SLP123=

CYXE;2005-06-22 02:00;METAR CYXE 220200Z 15008KT 15SM FEW090 FEW250 26/16 A2987 RMK ACC1CI2 SLP118=

CYXE;2005-06-22 03:00;METAR CYXE 220300Z 13009KT 15SM FEW090 BKN250 24/16 A2985 RMK ACC1CI3 SLP110=

CYXE;2005-06-22 04:00;METAR CYXE 220400Z 14010KT 15SM FEW060 SCT090 BKN250 24/16 A2983 RMK CU1ACC2CI1 SLP104=

CYXE;2005-06-22 05:00;METAR CYXE 220500Z 15012G17KT 15SM SCT060 BKN090 BKN250 24/15 A2980 RMK CU3ACC3CI1 CB LTGICCCCG SW-NW MOVG NE SLP092=

CYXE;2005-06-22 05:15;SPECI CYXE 220515Z 14015KT 15SM TS FEW060CB BKN090 BKN250 RMK CB2ACC4CI1 LTGICCCCG SW-NW MOVG NE=

CYXE;2005-06-22 06:00;METAR CYXE 220600Z 14013G19KT 15SM TS FEW062CB BKN089 OVC270 24/14 A2976 RMK CB2AC4CI2 LTGICCCCG W-E SLP076=

CYXE;2005-06-22 06:39;SPECI CYXE 220639Z 18011G17KT 15SM -TSRA SCT064CB OVC090 RMK CB4AC4=

CYXE;2005-06-22 07:50;SPECI CYXE 220750Z 22037G46KT 3SM TSRA OVC019CB RMK CB8=

CYXE;2005-06-22 08:12;SPECI CYXE 220812Z 27010G30KT 15SM R09/3500VP6000FT/U -TSRA OVC019CB RMK CB8 LTG ALQDS=

CYXE;2005-06-22 09:00;METAR CYXE 220900Z 11006KT 15SM -TSRA OVC019 17/16 A2979 RMK SC8 CB EMBDD LTG ALQDS SLP087=

CYXE;2005-06-22 10:00;METAR CYXE 221000Z 13014KT 15SM -SHRA FEW019 SCT043 BKN300 18/16 A2968 RMK SF2SC2CI0 CB EMBDD LTG S PRESFR SLP052=

CYXE;2005-06-22 10:21;SPECI CYXE 221021Z 13011KT 15SM FEW043 SCT120 BKN300 RMK SC2AC2CI3=

CYXE;2005-06-22 11:00;METAR CYXE 221100Z 10006KT 15SM FEW043 SCT120 BKN300 17/15 A2967 RMK SC1AC2CI1 SLP048=

CYXE;2005-06-22 12:00;METAR CYXE 221200Z 03005KT 15SM FEW043 SCT120 BKN300 16/14 A2967 RMK SC1AC2CI1 SLP047=

CYXE;2005-06-22 13:00;METAR CYXE 221300Z 21005KT 15SM SCT120 BKN300 18/16 A2967 RMK AC2CI1 SLP046=

CYXE;2005-06-22 14:00;METAR CYXE 221400Z 17007KT 15SM FEW120 FEW300 20/16 A2964 RMK AC1CI1 SLP037=

CYXE;2005-06-22 15:00;METAR CYXE 221500Z 25005KT 15SM FEW300 22/18 A2967 RMK CI1 TR CI SLP047=

CYXE;2005-06-22 16:00;METAR CYXE 221600Z 00000KT 15SM SKC 23/18 A2968 RMK SLP048=

CYXE;2005-06-22 17:00;METAR CYXE 221700Z 23006KT 15SM FEW020 24/19 A2966 RMK CF1 TR CF SLP044=

CYXE;2005-06-22 18:00;METAR CYXE 221800Z 22005KT 15SM SKC 26/20 A2965 RMK SLP036=

CYXE;2005-06-22 19:00;METAR CYXE 221900Z 22003KT 15SM SKC 28/20 A2963 RMK SLP029=

CYXE;2005-06-22 20:00;METAR CYXE 222000Z 21008KT 15SM SKC 29/21 A2961 RMK SLP024=

CYXE;2005-06-22 21:00;METAR CYXE 222100Z 22012KT 15SM FEW035 30/21 A2959 RMK CF1 TR CF SLP018=

CYXE;2005-06-22 22:00;METAR CYXE 222200Z 25016G21KT 15SM FEW050 30/18 A2959 RMK CU1 SLP018=

CYXE;2005-06-22 23:00;METAR CYXE 222300Z 24012KT 15SM FEW045 FEW300 30/18 A2958 RMK CU1CI1 SLP015=

CYXE;2005-06-23 00:00;METAR CYXE 230000Z 24012KT 15SM FEW050 SCT300 28/16 A2957 RMK CU1CI2 SLP014=

CYXE;2005-06-23 01:00;METAR CYXE 230100Z 24010KT 15SM BKN300 26/16 A2957 RMK CI2 SLP012=

CYXE;2005-06-23 02:00;METAR CYXE 230200Z 24010KT 15SM FEW300 25/16 A2957 RMK CI1 SLP012=

CYXE;2005-06-23 03:00;METAR CYXE 230300Z 23009KT 15SM FEW300 22/15 A2957 RMK CI1 SLP012=

CYXE;2005-06-23 04:00;METAR CYXE 230400Z 21008KT 15SM SCT300 21/13 A2956 RMK CI2 SLP010=

CYXE;2005-06-23 05:00;METAR CYXE 230500Z 24006KT 15SM FEW300 18/14 A2956 RMK CI1 SLP009=

CYXE;2005-06-23 06:00;METAR CYXE 230600Z 19007KT 15SM FEW300 19/13 A2956 RMK CI0 SLP008=

CYXE;2005-06-23 07:00;METAR CYXE 230700Z 23003KT 15SM FEW300 17/13 A2955 RMK CI0 SLP007=

CYXE;2005-06-23 08:00;METAR CYXE 230800Z 19007KT 15SM FEW120 SCT260 18/13 A2955 RMK AC1CI2 SLP004=

CYXE;2005-06-23 09:00;METAR CYXE 230900Z 28005KT 15SM SCT120 BKN260 16/14 A2953 RMK AC2CI2 SLP999=

CYXE;2005-06-23 10:00;METAR CYXE 231000Z 25004KT 15SM BKN110 BKN260 15/14 A2952 RMK AC5CI1 SLP995=

CYXE;2005-06-23 11:00;METAR CYXE 231100Z 31014KT 15SM BKN100 OVC250 16/14 A2956 RMK AC6CI1 SLP008=

CYXE;2005-06-23 12:00;METAR CYXE 231200Z 28007KT 15SM BKN100 OVC250 15/13 A2957 RMK AC6CI2 VIRGA SLP013=

CYXE;2005-06-23 13:00;METAR CYXE 231300Z 29012G17KT 15SM FEW015 BKN110 BKN250 14/12 A2959 RMK SC1AC5CI1 SLP019=

CYXE;2005-06-23 13:31;SPECI CYXE 231331Z 29017G24KT 15SM OVC013 RMK SC8=

CYXE;2005-06-23 14:00;METAR CYXE 231400Z 30018KT 15SM OVC013 14/12 A2961 RMK SC7 SLP026=

CYXE;2005-06-23 14:48;SPECI CYXE 231448Z 30014G21KT 15SM BKN015 BKN100 RMK SC6AC1=

CYXE;2005-06-23 15:00;METAR CYXE 231500Z 29019G24KT 15SM BKN017 BKN060 16/12 A2962 RMK SC6SC1 SLP034=

CYXE;2005-06-23 16:00;METAR CYXE 231600Z 30015G25KT 15SM BKN020 BKN060 15/11 A2963 RMK SC6SC1 SLP036=

CYXE;2005-06-23 17:00;METAR CYXE 231700Z 29015G24KT 15SM BKN025 BKN045 16/11 A2964 RMK SC6SC2 SLP040=

CYXE;2005-06-23 17:17;SPECI CYXE 231717Z 29020G29KT 15SM -SHRA BKN028 OVC050 RMK SC6SC2 TCU EMBD=

CYXE;2005-06-23 17:34;SPECI CYXE 231734Z 29018G24KT 15SM BKN028 OVC055 RMK SC6SC2=

CYXE;2005-06-23 18:00;METAR CYXE 231800Z 27021G26KT 15SM -SHRA BKN030 OVC055 16/11 A2966 RMK SC6SC2 SLP049=

CYXE;2005-06-23 18:52;SPECI CYXE 231852Z 28019G26KT 15SM SCT025 BKN050 RMK SC4SC3=

CYXE;2005-06-23 20:00;METAR CYXE 232000Z 28021G27KT 15SM BKN030 BKN060 17/10 A2969 RMK CU5SC1 SLP059=

CYXE;2005-06-23 21:00;METAR CYXE 232100Z 28020G26KT 15SM VCSH BKN032TCU 14/09 A2972 RMK TCU6 SLP070=

CYXE;2005-06-23 22:00;METAR CYXE 232200Z 28021G29KT 15SM BKN036 BKN077 15/08 A2971 RMK SC5AC2 TCU EMBDD SLP069=

CYXE;2005-06-23 23:00;METAR CYXE 232300Z 28020G28KT 15SM BKN041 BKN055 16/09 A2971 RMK SC5SC2 TCU EMBDD SLP068=

CYXE;2005-06-24 00:00;METAR CYXE 240000Z 29018G31KT 15SM BKN041 BKN051 BKN070 15/07 A2972 RMK SC5SC1AC2 TCU EMBDD SLP072=

CYXE;2005-06-24 01:00;METAR CYXE 240100Z 28022G27KT 15SM BKN041 BKN061 BKN090 15/07 A2974 RMK SC5SC2AC1 TCU EMBDD SLP078=

CYXE;2005-06-24 02:00;METAR CYXE 240200Z 29018G28KT 15SM FEW046 SCT060 BKN090 14/06 A2975 RMK CU2SC2AC1 SLP081=

CYXE;2005-06-24 04:00;METAR CYXE 240400Z 30015G21KT 15SM FEW040 BKN047 BKN091 13/05 A2976 RMK CU1SC4AC2 SLP085=

CYXE;2005-06-24 05:00;METAR CYXE 240500Z 27010G15KT 15SM FEW054 SCT091 SCT220 11/06 A2976 RMK SC2AC1CI0 SLP087=

CYXE;2005-06-24 07:00;METAR CYXE 240700Z 30017G30KT 15SM FEW025 FEW090 10/05 A2980 RMK SC2AC1 SLP100=

CYXE;2005-06-24 08:00;METAR CYXE 240800Z 29014G19KT 15SM FEW035 09/05 A2982 RMK SC1 SLP109=

CYXE;2005-06-24 09:00;METAR CYXE 240900Z 28014KT 15SM SCT025 SCT090 08/05 A2983 RMK SC3AC1 SLP115=

CYXE;2005-06-24 10:00;METAR CYXE 241000Z 28013G19KT 15SM SCT025 SCT100 08/05 A2985 RMK SC3AC1 SLP119=

CYXE;2005-06-24 11:00;METAR CYXE 241100Z 30015KT 15SM FEW025 SCT045 SCT100 07/03 A2987 RMK SC1SC2AC1 SHWRS W SLP126=

CYXE;2005-06-24 12:00;METAR CYXE 241200Z 30015G20KT 15SM FEW020 SCT035 SCT100 08/04 A2988 RMK SC1SC2AC1 SLP132=

CYXE;2005-06-24 13:00;METAR CYXE 241300Z 31013KT 15SM FEW020 FEW045 FEW100 08/04 A2991 RMK SC1SC1AC1 SLP142=

CYXE;2005-06-24 14:00;METAR CYXE 241400Z 32019G24KT 15SM BKN021 BKN050 08/03 A2994 RMK SC6SC1 SLP150=

CYXE;2005-06-24 15:00;METAR CYXE 241500Z 30014KT 15SM BKN022 08/03 A2997 RMK SC7 SLP161=

CYXE;2005-06-24 16:00;METAR CYXE 241600Z 33018KT 15SM BKN024 09/03 A2999 RMK SC6 SLP167=

CYXE;2005-06-24 17:00;METAR CYXE 241700Z 34016KT 15SM BKN026 10/04 A3001 RMK SC7 SLP174=

CYXE;2005-06-24 18:00;METAR CYXE 241800Z 34011KT 15SM BKN028 11/04 A3002 RMK SC6 SLP180=

CYXE;2005-06-24 19:00;METAR CYXE 241900Z 36010KT 15SM BKN030 12/05 A3003 RMK SC6 SLP182=

CYXE;2005-06-24 20:00;METAR CYXE 242000Z 02010KT 15SM BKN032 12/04 A3003 RMK SC6 SLP184=

CYXE;2005-06-24 21:00;METAR CYXE 242100Z 01008G15KT 15SM BKN038 13/05 A3004 RMK SC6 SLP187=

CYXE;2005-06-24 22:00;METAR CYXE 242200Z 01006KT 15SM BKN038 14/04 A3004 RMK SC5 SLP187=

CYXE;2005-06-24 23:00;METAR CYXE 242300Z 05009KT 15SM SCT038 14/05 A3003 RMK SC4 SLP185=

CYXE;2005-06-25 00:00;METAR CYXE 250000Z 06006KT 15SM SCT041 14/05 A3003 RMK SC3 SLP184=

CYXE;2005-06-25 01:00;METAR CYXE 250100Z 08003KT 15SM SCT041 SCT210 14/05 A3003 RMK SC3CI0 SLP184=

CYXE;2005-06-25 02:00;METAR CYXE 250200Z 13005KT 15SM FEW043 SCT210 13/05 A3003 RMK SC1CI1 SLP184=

CYXE;2005-06-25 03:00;METAR CYXE 250300Z 13005KT 15SM FEW210 11/05 A3003 RMK CI1 SLP185=

CYXE;2005-06-25 04:00;METAR CYXE 250400Z 12007KT 15SM FEW210 10/05 A3003 RMK CI1 SLP185=

CYXE;2005-06-25 05:00;METAR CYXE 250500Z 12005KT 15SM SCT210 09/05 A3004 RMK CI2 SLP188=

CYXE;2005-06-25 06:00;METAR CYXE 250600Z 13006KT 15SM SCT210 09/05 A3003 RMK CI2 SLP183=

CYXE;2005-06-25 07:00;METAR CYXE 250700Z 13006KT 15SM FEW110 SCT210 08/05 A3002 RMK AC1CI2 SLP182=

CYXE;2005-06-25 08:00;METAR CYXE 250800Z 15006KT 15SM FEW110 BKN210 08/05 A3003 RMK AC2CI2 SLP184=

CYXE;2005-06-25 09:00;METAR CYXE 250900Z 14005KT 15SM SCT120 BKN210 08/05 A3001 RMK AC2CI2 SLP178=

CYXE;2005-06-25 10:00;METAR CYXE 251000Z 13006KT 15SM FEW090 SCT240 07/05 A3001 RMK AC1CI2 SLP176=

CYXE;2005-06-25 11:00;METAR CYXE 251100Z 12006KT 15SM FEW080 BKN240 06/05 A3000 RMK AC2CI2 ACC ASOCTD SLP175=

CYXE;2005-06-25 12:00;METAR CYXE 251200Z 11006KT 15SM BKN075 BKN110 BKN240 08/06 A2999 RMK AC5AC1CI1 ACC/TCU EMBD SLP171=

CYXE;2005-06-25 13:00;METAR CYXE 251300Z 13004KT 15SM BKN070 BKN240 10/06 A3000 RMK AC5CI2 ACC/TCU ASOCTD SHWRS SW SLP174=

CYXE;2005-06-25 14:00;METAR CYXE 251400Z 12007KT 15SM VCSH BKN070 BKN250 10/06 A2998 RMK ACC5CI1 SLP166=

CYXE;2005-06-25 15:00;METAR CYXE 251500Z 14009KT 15SM VCSH BKN080 BKN250 12/07 A2998 RMK ACC6CI1 SLP164=

CYXE;2005-06-25 16:00;METAR CYXE 251600Z 13009KT 15SM BKN080 BKN250 12/07 A2996 RMK ACC6CI1 VIRGA SLP158=

CYXE;2005-06-25 17:00;METAR CYXE 251700Z 11011KT 15SM BKN080 BKN250 14/08 A2994 RMK AC5CI1 SLP152=

CYXE;2005-06-25 18:00;METAR CYXE 251800Z 10015KT 15SM SCT090 BKN300 17/09 A2991 RMK AC2CI2 SLP141=

CYXE;2005-06-25 19:00;METAR CYXE 251900Z 12014KT 15SM SCT100 BKN300 19/10 A2989 RMK ACC3CI2 SLP134=

CYXE;2005-06-25 20:00;METAR CYXE 252000Z 11015KT 15SM FEW100 BKN300 19/10 A2985 RMK AC2CS3 SLP121=

CYXE;2005-06-25 21:00;METAR CYXE 252100Z 12017KT 15SM FEW100 OVC300 19/10 A2984 RMK AC1CS7 SLP116=

CYXE;2005-06-25 22:00;METAR CYXE 252200Z 14014KT 15SM SCT100 OVC300 19/11 A2984 RMK AC4CS4 SLP116=

CYXE;2005-06-25 23:00;METAR CYXE 252300Z 12010KT 15SM SCT091 OVC300 18/11 A2982 RMK AC3CS5 SLP110=

CYXE;2005-06-25 23:37;SPECI CYXE 252337Z 12010KT 15SM -RA SCT043 OVC091 RMK SC4AC4=

CYXE;2005-06-26 00:00;METAR CYXE 260000Z 14011G16KT 10SM -RA OVC035 17/13 A2981 RMK SC8 SLP107=

CYXE;2005-06-26 01:00;METAR CYXE 260100Z 13004KT 10SM -RA OVC019 OVC076 15/14 A2979 RMK SC6AC2 SLP100=

CYXE;2005-06-26 01:36;SPECI CYXE 260136Z 09009KT 15SM BKN019 OVC090 RMK SC6AC2=

CYXE;2005-06-26 02:00;METAR CYXE 260200Z 09009KT 15SM FEW019 OVC079 15/13 A2977 RMK SC2AC6 SLP091=

CYXE;2005-06-26 03:00;METAR CYXE 260300Z 08008KT 15SM FEW019 OVC064 15/13 A2975 RMK SF2SC6 SLP085=

CYXE;2005-06-26 03:48;SPECI CYXE 260348Z 05004KT 15SM -RA BKN014 OVC067 RMK SC5AC3=

CYXE;2005-06-26 04:00;METAR CYXE 260400Z 04004KT 10SM -RA BKN014 OVC067 15/13 A2977 RMK SC6AC2 SLP092=

CYXE;2005-06-26 05:00;METAR CYXE 260500Z 05007KT 15SM SCT016 BKN057 14/13 A2976 RMK SC4SC2 SLP087=

CYXE;2005-06-26 05:20;SPECI CYXE 260520Z 04009KT 15SM FEW016 BKN057 RMK SF2SC5=

CYXE;2005-06-26 06:00;METAR CYXE 260600Z 05009KT 15SM FEW015 BKN055 14/13 A2974 RMK SF2SC6 SLP078=

CYXE;2005-06-26 07:00;METAR CYXE 260700Z 05010KT 15SM BKN018 OVC045 14/12 A2973 RMK SC6SC2 SLP076=

CYXE;2005-06-26 08:00;METAR CYXE 260800Z 05011KT 10SM OVC012 14/12 A2972 RMK SC8 BR SLP072=

CYXE;2005-06-26 08:49;SPECI CYXE 260849Z 06008KT 10SM BKN007 OVC012 RMK ST6SC2 BR=

CYXE;2005-06-26 09:00;METAR CYXE 260900Z 05011KT 10SM SCT006 OVC012 13/12 A2972 RMK ST4SC4 BR SLP069=

CYXE;2005-06-26 09:18;SPECI CYXE 260918Z 05010KT 6SM -DZ OVC005 RMK ST8=

CYXE;2005-06-26 10:00;METAR CYXE 261000Z 04008KT 5SM BR OVC004 13/12 A2971 RMK ST8 SLP068=

CYXE;2005-06-26 11:00;METAR CYXE 261100Z 05008KT 6SM BR OVC004 13/12 A2972 RMK ST8 SLP069=

CYXE;2005-06-26 11:30;SPECI CYXE 261130Z 05007KT 3SM -DZ BR OVC004 RMK ST8=

CYXE;2005-06-26 11:36;SPECI CYXE 261136Z 05007KT 2SM -DZ BR OVC003 RMK ST8=

CYXE;2005-06-26 12:00;METAR CYXE 261200Z 04007KT 2 1/2SM -DZ BR OVC003 13/12 A2972 RMK ST8 SLP073=

CYXE;2005-06-26 12:30;SPECI CYXE 261230Z 04007KT 4SM -DZ BR OVC003 RMK ST8=

CYXE;2005-06-26 13:00;METAR CYXE 261300Z 03008KT 4SM -DZ OVC003 13/12 A2974 RMK ST8 SLP079=

CYXE;2005-06-26 13:47;SPECI CYXE 261347Z 05009KT 10SM BKN004 OVC009 RMK ST7SC1=

CYXE;2005-06-26 14:00;METAR CYXE 261400Z 04009KT 4SM -RA BR OVC004 13/12 A2976 RMK SF8 SLP084=

CYXE;2005-06-26 14:18;SPECI CYXE 261418Z 05008KT 5SM BR OVC004 RMK SF8=

CYXE;2005-06-26 15:00;METAR CYXE 261500Z 05006KT 10SM OVC004 13/12 A2978 RMK SF8 SLP093=

CYXE;2005-06-26 16:00;METAR CYXE 261600Z 02009KT 8SM OVC006 13/12 A2978 RMK SF8 SLP093=

CYXE;2005-06-26 17:00;METAR CYXE 261700Z 03008KT 4SM BR OVC005 13/12 A2980 RMK SF8 SLP099=

CYXE;2005-06-26 17:14;SPECI CYXE 261714Z 03013KT 1 1/2SM -DZ BR OVC004 RMK SF8=

CYXE;2005-06-26 17:50;SPECI CYXE 261750Z 04011KT 5SM BR BKN007 OVC015 RMK SF7SC1=

CYXE;2005-06-26 18:00;METAR CYXE 261800Z 05010KT 5SM BR BKN008 OVC015 13/12 A2983 RMK SF7SC1 SLP111=

CYXE;2005-06-26 19:00;METAR CYXE 261900Z 05010KT 6SM BR BKN008 OVC015 13/11 A2985 RMK SF7SC1 SLP118=

CYXE;2005-06-26 19:17;SPECI CYXE 261917Z 04011KT 6SM -DZ BR BKN009 OVC015 RMK SF7SC1=

CYXE;2005-06-26 19:50;SPECI CYXE 261950Z 04010KT 10SM BKN013 OVC040 RMK SC6SC2=

CYXE;2005-06-26 20:00;METAR CYXE 262000Z 04011KT 10SM BKN013 OVC040 14/11 A2986 RMK SC6SC2 SLP123=

CYXE;2005-06-26 21:00;METAR CYXE 262100Z 05010G16KT 15SM SCT020 BKN040 16/11 A2986 RMK SC3SC3 SLP119=

CYXE;2005-06-26 22:00;METAR CYXE 262200Z 02007KT 15SM BKN026 17/11 A2987 RMK CU6 SLP123=

CYXE;2005-06-26 23:00;METAR CYXE 262300Z 01011KT 15SM BKN030 17/11 A2986 RMK SC6 SLP121=

CYXE;2005-06-27 00:00;METAR CYXE 270000Z 05008KT 15SM BKN031 17/11 A2989 RMK SC7 SLP131=

CYXE;2005-06-27 01:00;METAR CYXE 270100Z 03004KT 15SM BKN043 OVC086 16/11 A2989 RMK SC6AC2 SLP129=

CYXE;2005-06-27 02:00;METAR CYXE 270200Z 01008KT 15SM BKN029 15/11 A2988 RMK SC7 SLP128=

CYXE;2005-06-27 03:00;METAR CYXE 270300Z 01006KT 15SM BKN047 15/11 A2990 RMK SC7 SLP137=

CYXE;2005-06-27 04:00;METAR CYXE 270400Z 02005KT 15SM BKN062 14/12 A2992 RMK SC7 SLP142=

CYXE;2005-06-27 05:00;METAR CYXE 270500Z 36005KT 15SM BKN068 12/11 A2992 RMK AC3 SLP143=

CYXE;2005-06-27 06:00;METAR CYXE 270600Z 01005KT 15SM SCT070 10/09 A2991 RMK AC2 SLP143=

CYXE;2005-06-27 07:00;METAR CYXE 270700Z 02004KT 15SM FEW070 09/08 A2992 RMK AC1 SLP146=

CYXE;2005-06-27 08:00;METAR CYXE 270800Z 08004KT 15SM FEW070 09/08 A2993 RMK AC1 SLP149=

CYXE;2005-06-27 09:00;METAR CYXE 270900Z 09002KT 15SM FEW070 09/09 A2995 RMK AC1 BR PTCHS SLP154=

CYXE;2005-06-27 09:45;SPECI CYXE 270945Z 04003KT 10SM R09/2400FT/N FEW070 RMK AC2 VIS W-NE 1/2 FG BNK=

CYXE;2005-06-27 10:00;METAR CYXE 271000Z 03003KT 1/2SM R09/1800V5000FT/D FG FEW070 08/08 A2996 RMK AC2 VIS E-S 10 SLP158=

CYXE;2005-06-27 11:00;METAR CYXE 271100Z 04003KT 1/2SM R09/1000V2000FT/U FG FEW070 SCT300 07/07 A2998 RMK AC1CI0 VIS E-S 10 SLP163=

CYXE;2005-06-27 12:00;METAR CYXE 271200Z 00000KT 1/2SM R09/1000V4500FT/D FG FEW070 SCT300 07/07 A2999 RMK AC1CI0 VIS E-S 15 SLP169=

CYXE;2005-06-27 12:14;SPECI CYXE 271214Z 00000KT 3/4SM R09/1100FT/U BR FEW070 SCT300 RMK AC1CI1=

CYXE;2005-06-27 12:27;SPECI CYXE 271227Z 00000KT 1SM R09/0800V3500FT/U BR FEW070 SCT300 RMK AC1CI1=

CYXE;2005-06-27 12:35;SPECI CYXE 271235Z 35002KT 10SM R09/3000V6000FT/D FEW070 SCT300 RMK AC1CI1 VIS W-N 1 BR=

CYXE;2005-06-27 13:00;METAR CYXE 271300Z 31002KT 10SM FEW002 FEW300 10/09 A3000 RMK SF1CI1 BR SLP172=

CYXE;2005-06-27 14:00;METAR CYXE 271400Z 17002KT 15SM FEW060 13/11 A3001 RMK SC1 SLP175=

CYXE;2005-06-27 15:00;METAR CYXE 271500Z 10004KT 15SM FEW025 FEW060 FEW300 16/10 A3001 RMK CU1SC1CI1 SLP171=

CYXE;2005-06-27 16:00;METAR CYXE 271600Z 06003KT 15SM FEW030 FEW300 17/10 A3001 RMK CU1CI1 SLP172=

CYXE;2005-06-27 17:00;METAR CYXE 271700Z 12007KT 15SM SCT030 18/10 A3002 RMK CU3 SLP174=

CYXE;2005-06-27 18:00;METAR CYXE 271800Z 06007KT 15SM SCT040 18/09 A3002 RMK CU4 SLP177=

CYXE;2005-06-27 19:00;METAR CYXE 271900Z 10008KT 15SM SCT045 20/10 A3002 RMK CU4 SLP176=

CYXE;2005-06-27 20:00;METAR CYXE 272000Z 09005KT 15SM SCT050 20/09 A3002 RMK CU4 SLP176=

CYXE;2005-06-27 21:00;METAR CYXE 272100Z 09009KT 15SM SCT050 19/10 A3002 RMK CU4 SLP177=

CYXE;2005-06-27 22:00;METAR CYXE 272200Z 12004KT 15SM SCT050 20/09 A3002 RMK CU4 SLP176=

CYXE;2005-06-27 23:00;METAR CYXE 272300Z 06007KT 15SM SCT053 BKN300 20/09 A3001 RMK CU3CI1 SLP173=

CYXE;2005-06-28 00:00;METAR CYXE 280000Z 12008KT 15SM SCT055 BKN300 20/09 A3001 RMK CU3CI1 SLP173=

CYXE;2005-06-28 01:00;METAR CYXE 280100Z 10008KT 15SM FEW055 BKN300 19/09 A3001 RMK CU2CI1 SLP174=

CYXE;2005-06-28 02:00;METAR CYXE 280200Z 11008G15KT 15SM FEW055 BKN300 18/08 A3001 RMK SC2CI0 SLP174=

CYXE;2005-06-28 03:00;METAR CYXE 280300Z 11007KT 15SM FEW055 BKN300 16/09 A3002 RMK SC1CI0 SLP172=

CYXE;2005-06-28 04:00;METAR CYXE 280400Z 09005KT 15SM FEW300 13/09 A3003 RMK CI1 SLP175=

CYXE;2005-06-28 05:00;METAR CYXE 280500Z 06004KT 15SM FEW300 12/09 A3004 RMK CI1 SLP180=

CYXE;2005-06-28 06:00;METAR CYXE 280600Z 13005KT 15SM FEW300 12/09 A3005 RMK CI1 SLP184=

CYXE;2005-06-28 07:00;METAR CYXE 280700Z 13005KT 15SM FEW300 12/09 A3004 RMK CI1 SLP183=

CYXE;2005-06-28 08:00;METAR CYXE 280800Z 12003KT 15SM SCT300 10/08 A3005 RMK CI1 SLP184=

CYXE;2005-06-28 09:00;METAR CYXE 280900Z 08004KT 15SM BKN300 09/08 A3003 RMK CI2 SLP180=

CYXE;2005-06-28 10:00;METAR CYXE 281000Z 05007KT 15SM BKN300 08/07 A3002 RMK CI2 SLP177=

CYXE;2005-06-28 11:00;METAR CYXE 281100Z 07006KT 15SM BKN300 08/07 A3001 RMK CI2 SLP174=

CYXE;2005-06-28 12:00;METAR CYXE 281200Z 07005KT 15SM OVC300 10/08 A3002 RMK CI3 SLP176=

CYXE;2005-06-28 13:00;METAR CYXE 281300Z 09007KT 15SM OVC300 12/10 A3002 RMK CS6 SLP174=

CYXE;2005-06-28 14:00;METAR CYXE 281400Z 10008KT 15SM OVC250 14/10 A3002 RMK CS7 SLP174=

CYXE;2005-06-28 15:00;METAR CYXE 281500Z 10013KT 15SM FEW090 OVC250 16/10 A3002 RMK AC1CS6 SLP172=

CYXE;2005-06-28 16:00;METAR CYXE 281600Z 11013G18KT 15SM FEW035 SCT090 OVC250 17/08 A3003 RMK CU1AC2CS4 SLP175=

CYXE;2005-06-28 17:00;METAR CYXE 281700Z 10014KT 15SM FEW035 BKN090 OVC220 17/09 A3002 RMK CU2AC3CS3 SLP172=

CYXE;2005-06-28 18:00;METAR CYXE 281800Z 11013G18KT 15SM FEW035 BKN090 OVC150 16/09 A3000 RMK CU2AC4AS2 SLP169=

CYXE;2005-06-28 19:00;METAR CYXE 281900Z 12018KT 15SM SCT032 OVC070 16/09 A2999 RMK CU4AS4 SLP164=

CYXE;2005-06-28 20:00;METAR CYXE 282000Z 13018G26KT 10SM -RA BKN034 OVC070 16/08 A2999 RMK SC5AS3 SLP165=

CYXE;2005-06-28 21:00;METAR CYXE 282100Z 13013KT 6SM -RA BKN030 OVC065 12/09 A2999 RMK SC5SC3 SLP170=

CYXE;2005-06-28 22:00;METAR CYXE 282200Z 09013KT 6SM -RA FEW015 OVC052 12/10 A2998 RMK SC2SC6 SLP165=

CYXE;2005-06-28 23:00;METAR CYXE 282300Z 08009KT 5SM -RA BKN020 OVC060 12/10 A2996 RMK SC6SC2 SLP161=

CYXE;2005-06-29 00:00;METAR CYXE 290000Z 06008KT 4SM -RA OVC024 12/11 A2996 RMK SC8 SLP160=

CYXE;2005-06-29 01:00;METAR CYXE 290100Z 08010KT 4SM -RA BR BKN020 OVC050 13/12 A2995 RMK SC6SC2 SLP157=

CYXE;2005-06-29 01:48;SPECI CYXE 290148Z 09010KT 2SM -DZ BR OVC020 RMK SC8=

CYXE;2005-06-29 02:00;METAR CYXE 290200Z 08012KT 2SM -DZ BR OVC020 12/11 A2995 RMK SC8 SLP155=

CYXE;2005-06-29 02:11;SPECI CYXE 290211Z 07013KT 6SM -DZ BR OVC025 RMK SC8=

CYXE;2005-06-29 02:48;SPECI CYXE 290248Z 06016KT 2 1/2SM -DZ BR OVC025 RMK SC8=

CYXE;2005-06-29 03:00;METAR CYXE 290300Z 06014KT 2SM -DZ BR OVC023 12/11 A2993 RMK SC8 SLP146=

CYXE;2005-06-29 03:43;SPECI CYXE 290343Z 07012KT 2SM -DZ BR OVC015 RMK SC8=

CYXE;2005-06-29 04:00;METAR CYXE 290400Z 06011KT 6SM -DZ BR OVC007 13/12 A2994 RMK SF8 SLP149=

CYXE;2005-06-29 04:41;SPECI CYXE 290441Z 07010KT 15SM -DZ OVC007 13/ RMK SF8=

CYXE;2005-06-29 05:00;METAR CYXE 290500Z 06010KT 15SM -DZ OVC007 13/12 A2992 RMK SF8 SLP143=

CYXE;2005-06-29 05:09;SPECI CYXE 290509Z 07012KT 15SM SCT007 OVC012 13/ RMK SF4SC4=

CYXE;2005-06-29 05:50;SPECI CYXE 290550Z 07011KT 15SM FEW007 OVC020 13/ RMK SF2SC6=

CYXE;2005-06-29 06:00;METAR CYXE 290600Z 06010KT 15SM FEW008 OVC021 13/12 A2991 RMK SF2SC6 SLP139=

CYXE;2005-06-29 07:00;METAR CYXE 290700Z 07012KT 15SM OVC021 13/12 A2990 RMK SC8 SLP134=

CYXE;2005-06-29 08:00;METAR CYXE 290800Z 06010KT 10SM -RA OVC021 13/12 A2989 RMK SC8 SLP132=

CYXE;2005-06-29 08:39;SPECI CYXE 290839Z 06008KT 10SM -RA SCT006 OVC016 13/ RMK ST3SC5=

CYXE;2005-06-29 08:53;SPECI CYXE 290853Z 06009KT 8SM -DZ FEW006 OVC016 13/ RMK ST2SC6=

CYXE;2005-06-29 09:00;METAR CYXE 290900Z 06009KT 8SM -DZ FEW006 OVC016 13/12 A2987 RMK ST2SC6 SLP128=

CYXE;2005-06-29 09:11;SPECI CYXE 290911Z 06009KT 3SM -RA BR FEW006 OVC013 13/ RMK ST2SC6=

CYXE;2005-06-29 10:00;METAR CYXE 291000Z 06011KT 4SM RA BR SCT003 OVC010 13/12 A2987 RMK ST3SC5 SLP127=

CYXE;2005-06-29 10:16;SPECI CYXE 291016Z 06009KT 3SM -RA BR SCT005 OVC009 RERA RMK ST3SC5=

CYXE;2005-06-29 10:38;SPECI CYXE 291038Z 06010KT 3SM RA BR SCT005 OVC019 RMK ST4SC4=

CYXE;2005-06-29 11:00;METAR CYXE 291100Z 06011KT 4SM RA BR SCT005 OVC018 13/12 A2986 RMK ST3SC5 SLP124=

CYXE;2005-06-29 11:18;SPECI CYXE 291118Z 05009KT 8SM -RA SCT006 OVC012 13/ RMK ST4SC4=

CYXE;2005-06-29 11:37;SPECI CYXE 291137Z 05010KT 4SM -RA BR BKN005 OVC012 12/ RERA RMK ST6SC2=

CYXE;2005-06-29 13:00;METAR CYXE 291300Z 05009KT 3SM +RA BR BKN004 OVC014 12/11 A2986 RMK ST6SC2 SLP125=

CYXE;2005-06-29 13:26;SPECI CYXE 291326Z 05012KT 3SM RA BR SCT004 OVC010 12/ RMK ST3SC5=

CYXE;2005-06-29 14:00;METAR CYXE 291400Z 05011KT 1 1/2SM RA BR BKN004 OVC010 12/11 A2986 RERA RMK SF6SC2 /R16/ SLP124=

CYXE;2005-06-29 15:00;METAR CYXE 291500Z 05012KT 2SM RA BR OVC005 12/12 A2987 RMK SF8 SLP127=

CYXE;2005-06-29 15:21;SPECI CYXE 291521Z 05012KT 2SM RA BR OVC004 12/ RMK SF8=

CYXE;2005-06-29 16:00;METAR CYXE 291600Z 05011KT 2SM RA BR OVC004 13/12 A2987 RERA RMK SF8 /R27/ SLP127=

CYXE;2005-06-29 17:00;METAR CYXE 291700Z 06013KT 2SM RA BR BKN004 OVC020 13/12 A2987 RMK SF6SC2 SLP127=

CYXE;2005-06-29 18:00;METAR CYXE 291800Z 06013KT 4SM -RA BR BKN007 OVC021 13/12 A2987 RERA RMK SF6SC2 /R33/ SLP126=

CYXE;2005-06-29 18:25;SPECI CYXE 291825Z 05010G15KT 5SM -RA BR OVC005 13/ RMK SF8=

CYXE;2005-06-29 19:00;METAR CYXE 291900Z 05012KT 7SM -RA OVC006 14/13 A2988 RMK SF8 SLP128=

CYXE;2005-06-29 20:00;METAR CYXE 292000Z 05013KT 10SM -RA OVC009 14/13 A2988 RMK SF8 SLP129=

CYXE;2005-06-29 20:23;SPECI CYXE 292023Z 05011KT 12SM -RA OVC010 RMK SF8=

CYXE;2005-06-29 21:00;METAR CYXE 292100Z 03011KT 12SM -RA BKN012 OVC025 14/13 A2989 RMK SC6SC2 SLP132=

CYXE;2005-06-29 22:00;METAR CYXE 292200Z 02010KT 12SM -RA BKN012 OVC030 14/13 A2990 RMK SC7SC1 SLP134=

CYXE;2005-06-29 23:00;METAR CYXE 292300Z 03012KT 12SM -RA BKN016 OVC030 15/13 A2990 RMK SC6SC2 SLP137=

CYXE;2005-06-30 00:00;METAR CYXE 300000Z 02011KT 12SM -RA SCT010 OVC035 15/13 A2990 RMK SF4SC4 SLP137=

CYXE;2005-06-30 01:00;METAR CYXE 300100Z 01010KT 15SM FEW010 OVC042 15/13 A2990 RMK SF2SC6 SLP137=

CYXE;2005-06-30 02:00;METAR CYXE 300200Z 36005KT 15SM OVC038 14/13 A2991 RMK SC8 SLP138=

CYXE;2005-06-30 03:00;METAR CYXE 300300Z 32006KT 15SM BKN040 14/13 A2991 RMK SC6 SLP138=

CYXE;2005-06-30 04:00;METAR CYXE 300400Z 32005KT 15SM BKN046 14/13 A2992 RMK SC6 SLP142=

CYXE;2005-06-30 05:00;METAR CYXE 300500Z 31005KT 15SM BKN054 14/13 A2993 RMK SC6 SLP145=

CYXE;2005-06-30 06:00;METAR CYXE 300600Z 31006KT 15SM BKN065 13/12 A2993 RMK SC7 SLP147=

CYXE;2005-06-30 07:00;METAR CYXE 300700Z 31007KT 15SM BKN065 11/11 A2993 RMK SC7 SLP146=

CYXE;2005-06-30 08:00;METAR CYXE 300800Z 31007KT 15SM FEW070 11/10 A2993 RMK AC2 SLP147=

CYXE;2005-06-30 09:00;METAR CYXE 300900Z 31007KT 15SM FEW070 10/09 A2993 RMK AC1 SLP147=

CYXE;2005-06-30 10:00;METAR CYXE 301000Z 30007KT 15SM FEW070 10/09 A2993 RMK AC1 SLP147=

CYXE;2005-06-30 11:00;METAR CYXE 301100Z 28005KT 15SM FEW250 08/07 A2993 RMK CI1 SLP148=

CYXE;2005-06-30 12:00;METAR CYXE 301200Z 25005KT 15SM FEW150 09/08 A2994 RMK AC1 SLP152=

CYXE;2005-06-30 13:00;METAR CYXE 301300Z 27004KT 15SM SKC 11/10 A2995 RMK SLP153=

CYXE;2005-06-30 14:00;METAR CYXE 301400Z 27004KT 15SM FEW030 FEW220 14/11 A2995 RMK CU1CI0 SLP154=

CYXE;2005-06-30 15:00;METAR CYXE 301500Z 23004KT 15SM FEW100 FEW220 16/13 A2994 RMK AC1CI0 ACC ASCTD SLP146=

CYXE;2005-06-30 16:00;METAR CYXE 301600Z 26006KT 15SM FEW100 SCT220 18/13 A2993 RMK AC1CI1 SLP145=

CYXE;2005-06-30 17:00;METAR CYXE 301700Z 23008KT 15SM FEW060 BKN220 20/14 A2992 RMK CU1CI1 TCU ASCTD SLP142=

CYXE;2005-06-30 18:00;METAR CYXE 301800Z 22009KT 15SM FEW044TCU BKN220 21/15 A2992 RMK TCU2CI1 SLP137=

CYXE;2005-06-30 19:00;METAR CYXE 301900Z 27005KT 15SM SCT034TCU BKN220 22/14 A2991 RMK TCU3CI1 SLP136=

CYXE;2005-06-30 20:00;METAR CYXE 302000Z 28006KT 15SM SCT043TCU BKN069 BKN220 22/14 A2990 RMK TCU4AC1CI1 SHRA SSE SLP132=

CYXE;2005-06-30 21:00;METAR CYXE 302100Z 27008KT 15SM SCT047TCU BKN088 BKN220 21/14 A2990 RMK TCU4AC2CI1 SHRA S SLP134=

CYXE;2005-06-30 23:00;METAR CYXE 302300Z 23006KT 15SM FEW050TCU BKN092 OVC220 20/14 A2988 RMK TCU2AC5CI1 CB ASOCTD N-E SLP127=

CYXE;2005-07-01 00:00;METAR CYXE 010000Z 22005KT 15SM FEW050TCU BKN097 BKN220 20/15 A2987 RMK TCU1AC4CI2 CB EMBD N-E SHRA W SLP123=

CYXE;2005-07-01 01:00;METAR CYXE 010100Z 22006KT 15SM FEW050TCU SCT095 BKN220 20/15 A2986 RMK TCU1AC3CI2 CB EMBD N-E SHRA NW SLP122=

CYXE;2005-07-01 02:00;METAR CYXE 010200Z 22006KT 15SM FEW095 BKN250 19/15 A2986 RMK AC2CI2 SLP120=

CYXE;2005-07-01 03:00;METAR CYXE 010300Z 20007KT 15SM FEW085 BKN240 18/13 A2985 RMK AC2CI3 SLP114=

CYXE;2005-07-01 04:00;METAR CYXE 010400Z 19006KT 15SM FEW070 OVC240 17/12 A2985 RMK AC1CI4 SLP114=

CYXE;2005-07-01 05:00;METAR CYXE 010500Z 18007KT 15SM FEW070 BKN240 15/12 A2984 RMK AC1CI3 SLP111=

CYXE;2005-07-01 06:00;METAR CYXE 010600Z 17006KT 15SM FEW070 BKN240 15/12 A2983 RMK AC2CI5=

CYXE;2005-07-01 07:00;METAR CYXE 010700Z 17006KT 15SM FEW070 OVC240 14/12 A2981 RMK AC2CI6=

CYXE;2005-07-01 08:00;METAR CYXE 010800Z 16005KT 15SM FEW050CB FEW070 BKN240 14/11 A2979 RMK CB1AC2CI3 LTNG S SLP092=

CYXE;2005-07-01 09:00;METAR CYXE 010900Z 16006KT 15SM FEW050CB FEW070 BKN240 14/11 A2977 RMK CB1AC2CI3 LTNG SE-SW-W SLP088=

CYXE;2005-07-01 10:00;METAR CYXE 011000Z 15007KT 15SM FEW050CB FEW080 BKN240 15/11 A2975 RMK CB1AC2CI3 LTNG S-SW SLP079=

CYXE;2005-07-01 11:00;METAR CYXE 011100Z 28005KT 15SM FEW010 BKN054 BKN240 14/11 A2977 RMK CF1SC5CI2 CB EMBD LTNG SE-SW-NW PRESRR SLP087=

CYXE;2005-07-01 11:12;SPECI CYXE 011112Z 27008KT 15SM TS FEW010 BKN054CB BKN240 RMK CF1CB5CI2=

CYXE;2005-07-01 11:24;SPECI CYXE 011124Z 26003KT 12SM -TSRA FEW010 BKN054CB RMK CF1CB6 LTNG SW-NW=

CYXE;2005-07-01 13:00;METAR CYXE 011300Z 14010KT 15SM BKN050 BKN250 14/13 A2970 RERA RMK SC6CI2 CB EMBD +SHRA N-E PRESFR SLP065=

CYXE;2005-07-01 14:00;METAR CYXE 011400Z 14008KT 15SM BKN076 BKN250 15/14 A2969 RMK AC6CI1 ACC ASCTD SHRA N SLP060=

CYXE;2005-07-01 15:00;METAR CYXE 011500Z 16009KT 15SM BKN076 BKN250 16/15 A2969 RMK AC5CI1 SLP058=

CYXE;2005-07-01 16:00;METAR CYXE 011600Z 23002KT 15SM SCT018 BKN080 BKN250 18/14 A2970 RMK SC3AC1CI1 SLP061=

CYXE;2005-07-01 17:00;METAR CYXE 011700Z 25004KT 15SM BKN022 OVC250 20/15 A2970 RMK SC5CI2 SLP061=

CYXE;2005-07-01 18:00;METAR CYXE 011800Z 00000KT 15SM SCT027 BKN250 21/14 A2969 RMK CU3CI1 SLP058=

CYXE;2005-07-01 19:00;METAR CYXE 011900Z 01003KT 15SM SCT027 BKN250 22/15 A2968 RMK CU3CI1 SLP054=

CYXE;2005-07-01 20:00;METAR CYXE 012000Z 32003KT 15SM SCT029 BKN250 22/15 A2968 RMK CU3CI1 SLP054=

CYXE;2005-07-01 21:00;METAR CYXE 012100Z 01005KT 15SM FEW035 BKN250 22/16 A2966 RMK CU2CI1 SLP049=

CYXE;2005-07-01 22:00;METAR CYXE 012200Z 00000KT 15SM FEW040 BKN250 23/15 A2965 RMK CU2CI1 TCU ASOCTD SLP046=

CYXE;2005-07-01 23:00;METAR CYXE 012300Z 26002KT 15SM SCT045 BKN100 BKN250 23/16 A2964 RMK CU4AC1CI1 TCU ASOCTD SLP041=

CYXE;2005-07-02 00:00;METAR CYXE 020000Z 28006KT 15SM FEW045 BKN250 22/17 A2963 RMK CU2CI1 TCU ASOCTD SLP037=

CYXE;2005-07-02 01:00;METAR CYXE 020100Z 25004KT 15SM FEW045 SCT140 BKN250 22/17 A2962 RMK CU1AC2CI2 CB TOP N CB/SHRA W SLP034=

CYXE;2005-07-02 02:00;METAR CYXE 020200Z 23003KT 15SM FEW055CB BKN100 BKN250 21/18 A2961 RMK CB2AC3CI2 LTGCG SW SHRA SW-NW SLP032=

CYXE;2005-07-02 03:00;METAR CYXE 020300Z 28004KT 15SM SCT050CB BKN100 OVC250 20/17 A2962 RMK CB3AC2CI2 LTGCGIC SHRA SW-NW SLP035=

CYXE;2005-07-02 03:47;SPECI CYXE 020347Z 29029G37KT 15SM TS BKN040CB OVC100 18/ RMK CB6AC2 LTGICCGCC S-NW=

CYXE;2005-07-02 03:53;SPECI CYXE 020353Z 30021G37KT 15SM -TSRA OVC035CB 16/ RMK CB8 LTGICCGCC=

CYXE;2005-07-02 04:00;METAR CYXE 020400Z 31017G33KT 2SM +TSRA OVC025CB 15/12 A2967 RMK CB8 LTGICCCCG SLP051=

CYXE;2005-07-02 04:12;SPECI CYXE 020412Z 32013KT 10SM -TSRA BKN025CB BKN090 BKN250 14/ RMK CB6AC2CI0 LTG HVY SHRA MVG E=

CYXE;2005-07-02 04:22;SPECI CYXE 020422Z 33009G15KT 15SM TS BKN025CB BKN090 BKN250 14/ RERA RMK CB5AC2CI1 LTGICCG SHRA N-SE=

CYXE;2005-07-02 05:00;METAR CYXE 020500Z 21002KT 15SM TS SCT025CB BKN070 BKN250 13/12 A2965 RERA RMK CB3AC2CI1 LTGICCG SHRA E CB DSNT SW SLP044=

CYXE;2005-07-02 05:10;SPECI CYXE 020510Z 00000KT 15SM FEW025CB BKN070 BKN250 13/ RMK CB2AC3CI1 LTGICCG SHRA E=

CYXE;2005-07-02 06:00;METAR CYXE 020600Z 24002KT 15SM FEW025CB FEW090 BKN250 12/11 A2964 RETS RMK CB1AC2CI2 LTNG E SLP042=

CYXE;2005-07-02 07:00;METAR CYXE 020700Z 26006KT 15SM FEW030CB FEW090 SCT250 11/11 A2964 RMK CB1AC1CI1 LTNG SE SLP042=

CYXE;2005-07-02 08:00;METAR CYXE 020800Z 23006KT 15SM FEW090 BKN250 11/11 A2964 RMK AC2CI1 SLP044=

CYXE;2005-07-02 09:00;METAR CYXE 020900Z 24006KT 15SM FEW090 SCT250 11/10 A2965 RMK AC1CI1 SLP046=

CYXE;2005-07-02 10:00;METAR CYXE 021000Z 25005KT 15SM FEW250 11/10 A2964 RMK CI1 SLP042=

CYXE;2005-07-02 11:00;METAR CYXE 021100Z 27006KT 15SM FEW120 BKN250 10/09 A2963 RMK AC1CI2 SLP040=

CYXE;2005-07-02 12:00;METAR CYXE 021200Z 24004KT 15SM SCT250 11/10 A2963 RMK CI1 SLP041=

CYXE;2005-07-02 13:00;METAR CYXE 021300Z 29005KT 15SM FEW250 13/12 A2964 RMK CI1 SLP042=

CYXE;2005-07-02 14:00;METAR CYXE 021400Z 27005KT 15SM FEW120 FEW250 15/13 A2964 RMK AC1CI1 ACC ASOCTD SLP042=

CYXE;2005-07-02 15:00;METAR CYXE 021500Z 30006KT 15SM FEW120 SCT250 17/14 A2963 RMK ACC1CI2 SLP036=

CYXE;2005-07-02 16:00;METAR CYXE 021600Z 27006KT 15SM FEW020 FEW120 BKN250 18/14 A2962 RMK CU1ACC1CI2 SLP034=

CYXE;2005-07-02 17:00;METAR CYXE 021700Z 30007KT 15SM FEW024 FEW040CB FEW097 BKN250 19/13 A2962 RMK CU1CB1AC1CI2 CB DIST N SLP033=

CYXE;2005-07-02 18:00;METAR CYXE 021800Z 30008KT 15SM FEW030 BKN300 20/13 A2961 RMK CU1CI2 SLP033=

CYXE;2005-07-02 19:00;METAR CYXE 021900Z 29009KT 15SM FEW030 FEW045CB BKN300 21/14 A2960 RMK CU2CB1CI2 TCU ASOCTD CB DIST N SLP029=

CYXE;2005-07-02 21:00;METAR CYXE 022100Z 28007KT 15SM FEW044 BKN300 22/14 A2955 RMK CU2CI2 CB NE SLP012=

CYXE;2005-07-02 22:00;METAR CYXE 022200Z 27005KT 15SM BKN045TCU BKN120 BKN300 21/13 A2955 RMK TCU5AC1CI1 SLP013=

CYXE;2005-07-02 23:00;METAR CYXE 022300Z 29010KT 15SM BKN045TCU BKN080 BKN300 22/13 A2955 RMK TCU6AC1CI1 CB EMBD ALL QUADS SLP010=

CYXE;2005-07-03 00:00;METAR CYXE 030000Z 25011KT 15SM SCT045CB BKN100 BKN300 18/14 A2955 RMK CB3AC2CI1 SHRA SW E-SE SLP013=

CYXE;2005-07-03 01:00;METAR CYXE 030100Z 25009KT 15SM FEW050TCU BKN085 BKN300 18/14 A2955 RMK TCU2AC3CI1 CB EMBD SHRA N-SE-SW SLP014=

CYXE;2005-07-03 02:00;METAR CYXE 030200Z 28013G19KT 15SM FEW050CB BKN070 OVC250 17/12 A2955 RMK CB2AC3CI2 SHRA ALL QUADS SLP014=

CYXE;2005-07-03 03:00;METAR CYXE 030300Z 29008KT 15SM SCT060 BKN100 OVC250 15/12 A2955 RMK SC3AC2CI2 CB EMBD N-E-S SLP013=

CYXE;2005-07-03 04:00;METAR CYXE 030400Z 33002KT 15SM FEW060 BKN110 BKN250 14/12 A2957 RMK SC2AC2CI2 CB EMBD E-SE SLP018=

CYXE;2005-07-03 05:00;METAR CYXE 030500Z 26005KT 15SM FEW075 FEW110 SCT250 14/11 A2957 RMK AC2AC1CI1 SLP019=

CYXE;2005-07-03 07:00;METAR CYXE 030700Z 21005KT 15SM BKN078 13/12 A2956 RMK AC6 SLP015=

CYXE;2005-07-03 08:00;METAR CYXE 030800Z 22008KT 15SM BKN090 13/12 A2954 RMK AC6 SLP009=

CYXE;2005-07-03 09:00;METAR CYXE 030900Z 24006KT 15SM FEW034 SCT097 12/11 A2954 RMK SC1AC2 SLP009=

CYXE;2005-07-03 10:00;METAR CYXE 031000Z 27008KT 15SM FEW041 SCT093 BKN230 11/11 A2954 RMK SC1AC2CI0 SLP008=

CYXE;2005-07-03 11:00;METAR CYXE 031100Z 29007KT 15SM FEW035 FEW040CB BKN088 BKN230 11/11 A2955 RMK SC1CB2AC2CI2 CB NW-N ACC ASOCTD SLP010=

CYXE;2005-07-03 11:40;SPECI CYXE 031140Z 30006KT 15SM -DZ BKN012 BKN040CB OVC068 RMK SF5CB1AC2 CB W ACC ASOCTD=

CYXE;2005-07-03 12:00;METAR CYXE 031200Z 30006KT 15SM BKN012 BKN025 OVC068 14/13 A2956 RMK SF6SC2AC1 SLP015=

CYXE;2005-07-03 13:00;METAR CYXE 031300Z 31006KT 4SM R09/4500VP6000FT/D SHRA BR OVC005 14/13 A2957 RMK SF8 SLP019=

CYXE;2005-07-03 13:24;SPECI CYXE 031324Z 31010KT 6SM -SHRA BR OVC006 14/ RERA RMK SF8=

CYXE;2005-07-03 13:50;SPECI CYXE 031350Z 33008KT 8SM -SHRA OVC005 14/ RMK SF8=

CYXE;2005-07-03 14:00;METAR CYXE 031400Z 31011KT 8SM -SHRA OVC006 14/14 A2959 RERA RMK SF8 SLP024=

CYXE;2005-07-03 15:00;METAR CYXE 031500Z 32010KT 8SM -SHRA BKN007 OVC040 15/14 A2960 RMK SF6SC2 SLP032=

CYXE;2005-07-03 16:00;METAR CYXE 031600Z 32011KT 12SM -SHRA BKN007 OVC046 15/14 A2962 RMK SF5SC3 SLP037=

CYXE;2005-07-03 16:15;SPECI CYXE 031615Z 33012KT 10SM R09/2200VP6000FT/D -SHRA BKN007 OVC046 15/ RMK SF6SC2 VSBY W 2SHRA=

CYXE;2005-07-03 16:37;SPECI CYXE 031637Z 36011KT 15SM -SHRA SCT007 BKN054 15/ RMK SF4SC3=

CYXE;2005-07-03 17:00;METAR CYXE 031700Z 01008KT 15SM -SHRA FEW007 BKN034 OVC086 16/14 A2964 RMK SF2SC4AC2 SLP043=

CYXE;2005-07-03 17:40;SPECI CYXE 031740Z 02011KT 15SM BKN018 BKN057 18/ RMK SC5SC2=

CYXE;2005-07-03 18:00;METAR CYXE 031800Z 01009KT 15SM BKN018 BKN059 BKN300 17/14 A2966 RMK CU5SC2CI0 SLP051=

CYXE;2005-07-03 18:24;SPECI CYXE 031824Z 36011KT 15SM BKN014 BKN083 17/ RMK CU5AC2=

CYXE;2005-07-03 19:00;METAR CYXE 031900Z 34013KT 15SM TS BKN021 OVC063 19/14 A2968 RMK CU6SC2 CB EMBD SLP057=

CYXE;2005-07-03 19:11;SPECI CYXE 031911Z 35012G19KT 10SM -TSRA BKN014 OVC063 RMK CU6SC2 CB EMBD=

CYXE;2005-07-03 20:00;METAR CYXE 032000Z 30011G17KT 10SM -TSRA BKN017 OVC075 16/14 A2970 RMK CU6AC2 CB EMBD SLP065=

CYXE;2005-07-03 21:00;METAR CYXE 032100Z 34010KT 6SM -TSRA BKN019 OVC070 14/13 A2975 RMK SC6AC2 CB EMBD SLP083=

CYXE;2005-07-03 22:00;METAR CYXE 032200Z 32009KT 3SM SHRA BKN020CB OVC060 14/13 A2977 RETS RMK CB5SC3 SLP091=

CYXE;2005-07-03 23:00;METAR CYXE 032300Z 32013KT 12SM -SHRA SCT020 BKN060CB OVC100 15/14 A2978 RERA RMK SC3CB2AS2 SLP095=

CYXE;2005-07-03 23:47;SPECI CYXE 032347Z 31009KT 15SM FEW025 BKN070 OVC100 15/ RMK SC2ACC5AS2=

CYXE;2005-07-04 01:00;METAR CYXE 040100Z 30006KT 15SM BKN070 OVC100 15/14 A2983 RMK ACC6AS2 SLP110=

CYXE;2005-07-04 02:00;METAR CYXE 040200Z 30009KT 15SM SCT060 BKN100 OVC300 15/14 A2985 RMK SC3ACC3CI2 SLP115=

CYXE;2005-07-04 03:00;METAR CYXE 040300Z 29006KT 15SM FEW060 BKN080 OVC300 14/12 A2986 RMK SC1ACC5CI2 SLP122=

CYXE;2005-07-04 04:00;METAR CYXE 040400Z 31004KT 15SM BKN080 OVC300 13/12 A2988 RMK ACC5CI2 SLP128=

CYXE;2005-07-04 05:00;METAR CYXE 040500Z 30006KT 15SM BKN080 OVC300 12/11 A2990 RMK AC5CI2 SLP132=

CYXE;2005-07-04 06:00;METAR CYXE 040600Z 24003KT 15SM OVC062 12/11 A2991 RMK SC7 SLP138=

CYXE;2005-07-04 07:00;METAR CYXE 040700Z 21003KT 15SM SCT044 OVC074 12/12 A2993 RMK SC3AC5 SLP144=

CYXE;2005-07-04 08:00;METAR CYXE 040800Z 27003KT 15SM OVC031 13/12 A2995 RMK SC8 SLP149=

CYXE;2005-07-04 09:00;METAR CYXE 040900Z 00000KT 15SM BKN033 BKN060 13/12 A2995 RMK SC5SC2 SLP151=

CYXE;2005-07-04 10:00;METAR CYXE 041000Z 24003KT 15SM BKN037 BKN073 OVC230 13/12 A2996 RMK SC5AC2CI1 SLP155=

CYXE;2005-07-04 11:00;METAR CYXE 041100Z 23003KT 15SM FEW049 BKN083 OVC230 12/12 A2996 RMK SC1AC6CI1 SLP157=

CYXE;2005-07-04 12:00;METAR CYXE 041200Z 19005KT 15SM FEW050 BKN088 OVC230 13/12 A2998 RMK SC2AC5CI1 TCU EMBD WNW SLP161=

CYXE;2005-07-04 13:00;METAR CYXE 041300Z 21003KT 15SM FEW050CB BKN080 OVC230 13/13 A2999 RMK CB1AC6CI1 CB NW ACC ASOCTD SLP165=

CYXE;2005-07-04 14:00;METAR CYXE 041400Z 23002KT 15SM FEW050 BKN078 14/13 A3000 RMK SC2AC5 ACC ASOCTD SLP170=

CYXE;2005-07-04 15:00;METAR CYXE 041500Z 17003KT 15SM SCT078 BKN300 16/13 A3000 RMK AC3CI1 SLP170=

CYXE;2005-07-04 16:00;METAR CYXE 041600Z 18004KT 15SM FEW086 BKN300 18/14 A3001 RMK AC2CI2 SLP172=

CYXE;2005-07-04 17:00;METAR CYXE 041700Z 26004KT 15SM FEW026TCU FEW089 SCT300 19/13 A3001 RMK TCU1AC2CI1 SLP173=

CYXE;2005-07-04 18:00;METAR CYXE 041800Z 23005KT 15SM FEW030 SCT100 21/14 A3001 RMK CU2AC2 TCU ASOCTD SLP170=

CYXE;2005-07-04 19:00;METAR CYXE 041900Z 21003KT 15SM FEW030 SCT100 21/13 A3000 RMK CU2AC2 TCU ASOCTD SLP167=

CYXE;2005-07-04 20:00;METAR CYXE 042000Z 23005KT 15SM FEW040 SCT100 SCT300 22/15 A3000 RMK CU2AC1CI0 TCU ASOCTD SLP166=

CYXE;2005-07-04 21:00;METAR CYXE 042100Z 22007KT 15SM SCT042TCU SCT300 23/13 A2999 RMK TCU3CI0 CLD BLDG N SLP161=

CYXE;2005-07-04 22:00;METAR CYXE 042200Z 21008KT 15SM SCT040CB 23/13 A2998 RMK CB3 CB N SLP157=

CYXE;2005-07-04 23:00;METAR CYXE 042300Z 22005KT 15SM FEW040CB 23/14 A2997 RMK CB2 CB N SLP156=

CYXE;2005-07-05 01:00;METAR CYXE 050100Z 10009KT 15SM FEW040CB BKN300 21/13 A2997 RMK CB2CI2 SLP153=

CYXE;2005-07-05 02:00;METAR CYXE 050200Z 09015G20KT 15SM FEW060CB SCT090 17/11 A2999 RMK CB2AC1 SLP162=

CYXE;2005-07-05 03:00;METAR CYXE 050300Z 11013G20KT 15SM FEW060CB FEW090 16/11 A2999 RMK CB1ACC1 CB E SLP164=

CYXE;2005-07-05 04:00;METAR CYXE 050400Z 13007KT 15SM FEW090 15/11 A2999 RMK ACC2 CB TOPS E SLP164=

CYXE;2005-07-05 05:00;METAR CYXE 050500Z 13007KT 15SM SCT090 15/10 A2998 RMK ACC4 SLP159=

CYXE;2005-07-05 06:00;METAR CYXE 050600Z 14008KT 15SM FEW100 14/10 A2998 RMK AC2 LTNG DIST E SLP158=

CYXE;2005-07-05 07:00;METAR CYXE 050700Z 14010KT 15SM FEW100 14/10 A2997 RMK AC1 LTNG DIST E SLP155=

CYXE;2005-07-05 08:00;METAR CYXE 050800Z 15008KT 15SM SKC 14/11 A2996 RMK SLP153=

CYXE;2005-07-05 09:00;METAR CYXE 050900Z 13005KT 15SM FEW100 FEW230 12/11 A2996 RMK AC1CI0 SLP151=

CYXE;2005-07-05 10:00;METAR CYXE 051000Z 13005KT 15SM FEW040 FEW100 FEW230 12/11 A2995 RMK SC1AC1CI0 SLP149=

CYXE;2005-07-05 11:00;METAR CYXE 051100Z 13003KT 15SM FEW040 FEW050CB FEW100 SCT230 12/11 A2995 RMK SC1CB1AC1CI1 CB E SLP147=

CYXE;2005-07-05 12:00;METAR CYXE 051200Z 14004KT 15SM FEW040TCU FEW100 FEW230 13/11 A2994 RMK TCU1AC1CI1 TCU E SLP144=

CYXE;2005-07-05 13:00;METAR CYXE 051300Z 14004KT 15SM FEW230 16/13 A2994 RMK CI1 SLP143=

CYXE;2005-07-05 14:00;METAR CYXE 051400Z 18006KT 15SM SKC 17/14 A2994 RMK SLP144=

CYXE;2005-07-05 15:00;METAR CYXE 051500Z 17005KT 15SM SKC 19/15 A2994 RMK SLP143=

CYXE;2005-07-05 16:00;METAR CYXE 051600Z 15004KT 15SM SKC 21/15 A2993 RMK SLP142=

CYXE;2005-07-05 17:00;METAR CYXE 051700Z 15004KT 15SM FEW330 23/16 A2993 RMK CI0 SLP141=

CYXE;2005-07-05 18:00;METAR CYXE 051800Z 16007KT 15SM BKN330 24/16 A2992 RMK CI1 SLP136=

CYXE;2005-07-05 19:00;METAR CYXE 051900Z 20005KT 15SM BKN330 26/16 A2991 RMK CI2 SLP132=

CYXE;2005-07-05 20:00;METAR CYXE 052000Z 22005KT 15SM FEW040 BKN330 26/16 A2990 RMK CU1CI1 SLP129=

CYXE;2005-07-05 21:00;METAR CYXE 052100Z 25005KT 15SM FEW060 BKN330 26/16 A2989 RMK CU1CI2 SLP124=

CYXE;2005-07-05 22:00;METAR CYXE 052200Z 22005KT 15SM FEW060 BKN330 26/16 A2988 RMK CU1CI2 SLP122=

CYXE;2005-07-05 23:00;METAR CYXE 052300Z 16008KT 15SM FEW060 BKN330 26/14 A2987 RMK CU1CI2 SLP118=

CYXE;2005-07-06 00:00;METAR CYXE 060000Z 16008KT 15SM FEW060 FEW300 26/14 A2985 RMK CU1CI1 SLP112=

CYXE;2005-07-06 01:00;METAR CYXE 060100Z 19005KT 15SM FEW300 25/15 A2984 RMK CI0 SLP109=

CYXE;2005-07-06 02:00;METAR CYXE 060200Z 19006KT 15SM FEW300 23/14 A2983 RMK CI0 SLP106=

CYXE;2005-07-06 03:00;METAR CYXE 060300Z 16006KT 15SM SCT300 21/14 A2982 RMK CI0 SLP101=

CYXE;2005-07-06 04:00;METAR CYXE 060400Z 15007KT 15SM FEW300 20/14 A2981 RMK CI0 SLP099=

CYXE;2005-07-06 05:00;METAR CYXE 060500Z 15007KT 15SM FEW300 20/14 A2981 RMK CI0 SLP097=

CYXE;2005-07-06 06:00;METAR CYXE 060600Z 15009KT 15SM SKC 20/14 A2980 RMK SLP091=

CYXE;2005-07-06 07:00;METAR CYXE 060700Z 15008KT 15SM SKC 19/14 A2979 RMK SLP087=

CYXE;2005-07-06 08:00;METAR CYXE 060800Z 15007KT 15SM SKC 18/14 A2977 RMK SLP081=

CYXE;2005-07-06 09:00;METAR CYXE 060900Z 15006KT 15SM FEW300 17/14 A2975 RMK CI0 SLP074=

CYXE;2005-07-06 10:00;METAR CYXE 061000Z 14006KT 15SM FEW300 16/13 A2972 RMK CI0 SLP065=

CYXE;2005-07-06 11:00;METAR CYXE 061100Z 15006KT 15SM SCT300 15/13 A2972 RMK CI0 SLP064=

CYXE;2005-07-06 12:00;METAR CYXE 061200Z 15006KT 15SM SCT330 16/13 A2971 RMK CI0 SLP061=

CYXE;2005-07-06 13:00;METAR CYXE 061300Z 19006KT 15SM SCT330 18/14 A2970 RMK CI0 SLP060=

CYXE;2005-07-06 14:00;METAR CYXE 061400Z 19008KT 15SM SCT330 20/15 A2969 RMK CI1 SLP056=

CYXE;2005-07-06 15:00;METAR CYXE 061500Z 19008KT 15SM BKN330 22/16 A2968 RMK CI2 SLP051=

CYXE;2005-07-06 16:00;METAR CYXE 061600Z 18007KT 15SM BKN330 24/17 A2967 RMK CI2 SLP046=

CYXE;2005-07-06 17:00;METAR CYXE 061700Z 16007KT 15SM BKN330 26/17 A2965 RMK CI4 SLP040=

CYXE;2005-07-06 18:00;METAR CYXE 061800Z 20006KT 15SM BKN300 26/19 A2963 RMK CI5 SLP034=

CYXE;2005-07-06 19:00;METAR CYXE 061900Z 18012KT 15SM OVC280 26/17 A2963 RMK CI7 SLP031=

CYXE;2005-07-06 20:00;METAR CYXE 062000Z 19009KT 15SM FEW100 BKN280 26/19 A2962 RMK AC2CI5 SLP029=

CYXE;2005-07-06 21:00;METAR CYXE 062100Z 19012KT 15SM FEW095 BKN280 27/18 A2961 RMK AC1CI6 SLP026=

CYXE;2005-07-06 22:00;METAR CYXE 062200Z 20012KT 15SM BKN280 28/18 A2960 RMK CI5 SLP024=

CYXE;2005-07-06 23:00;METAR CYXE 062300Z 18013G18KT 15SM BKN300 29/18 A2958 RMK CI3 SLP017=

CYXE;2005-07-07 00:00;METAR CYXE 070000Z 19012KT 15SM BKN300 28/17 A2958 RMK CI2 SLP015=

CYXE;2005-07-07 01:00;METAR CYXE 070100Z 19012KT 15SM BKN300 28/18 A2956 RMK CI2 SLP011=

CYXE;2005-07-07 03:00;METAR CYXE 070300Z 20011KT 15SM BKN300 24/15 A2956 RMK CI5 SLP009=

CYXE;2005-07-07 04:00;METAR CYXE 070400Z 20010KT 15SM FEW100 BKN300 23/15 A2957 RMK ACC1CI3 SLP010=

CYXE;2005-07-07 05:00;METAR CYXE 070500Z 20010KT 15SM FEW100 BKN300 22/16 A2957 RMK AC1CI3 SLP010=

CYXE;2005-07-07 06:00;METAR CYXE 070600Z 20010KT 15SM FEW100 BKN300 21/15 A2957 RMK AC1CI2 SLP012=

CYXE;2005-07-07 07:00;METAR CYXE 070700Z 21008KT 15SM SCT300 20/14 A2958 RMK CI2 SLP014=

CYXE;2005-07-07 08:00;METAR CYXE 070800Z 20010KT 15SM FEW050CB SCT300 20/14 A2957 RMK CB1CI2 LGTNG DSTNT N SLP011=

CYXE;2005-07-07 09:00;METAR CYXE 070900Z 24008KT 15SM FEW050CB SCT110 BKN300 19/15 A2958 RMK CB1AC2CI0 LGTIC DSTNT N SLP015=

CYXE;2005-07-07 10:00;METAR CYXE 071000Z 22007KT 15SM FEW050CB SCT110 BKN300 16/14 A2958 RMK CB1AC2CI0 SLP014=

CYXE;2005-07-07 11:00;METAR CYXE 071100Z 28008KT 15SM FEW110 BKN300 16/14 A2959 RMK AC2CI0 CB TOP DSTNT N SLP020=

CYXE;2005-07-07 12:00;METAR CYXE 071200Z 28009KT 15SM SCT110 BKN300 16/14 A2962 RMK AC2CI1 SLP031=

CYXE;2005-07-07 13:00;METAR CYXE 071300Z 30011KT 15SM SCT110 BKN300 17/14 A2965 RMK AC2CI1 SLP039=

CYXE;2005-07-07 14:00;METAR CYXE 071400Z 29011KT 15SM FEW110 BKN300 17/14 A2968 RMK AC1CI2 SLP048=

CYXE;2005-07-07 15:00;METAR CYXE 071500Z 30009KT 15SM FEW015 FEW095 BKN300 18/15 A2970 RMK CU1ACC1CI2 TR CU/ACC SLP057=

CYXE;2005-07-07 16:00;METAR CYXE 071600Z 32009G15KT 15SM FEW015 BKN300 19/15 A2971 RMK CF1CI4 SLP061=

CYXE;2005-07-07 17:00;METAR CYXE 071700Z 32014KT 15SM FEW020 BKN300 20/15 A2972 RMK CU1CI5 SLP066=

CYXE;2005-07-07 18:00;METAR CYXE 071800Z 32009G15KT 15SM FEW025 FEW300 21/15 A2974 RMK CU1CI1 SLP072=

CYXE;2005-07-07 19:00;METAR CYXE 071900Z 29011G17KT 15SM FEW030 FEW300 22/14 A2976 RMK CU1CI1 SLP078=

CYXE;2005-07-07 20:00;METAR CYXE 072000Z 28012KT 15SM FEW035 SCT300 22/13 A2976 RMK CU1CI2 SLP077=

CYXE;2005-07-07 21:00;METAR CYXE 072100Z 29009KT 15SM FEW035 BKN280 22/14 A2976 RMK CU1CI5 SLP078=

CYXE;2005-07-07 22:00;METAR CYXE 072200Z 27011KT 15SM FEW037 OVC280 23/14 A2976 RMK CU2CI2 SLP080=

CYXE;2005-07-07 23:00;METAR CYXE 072300Z 27011KT 15SM FEW058 OVC280 21/13 A2977 RMK CU2CI2 SLP083=

CYXE;2005-07-08 00:00;METAR CYXE 080000Z 26011KT 15SM FEW061 FEW069 BKN280 22/13 A2978 RMK CU2AC1CI1 SLP087=

CYXE;2005-07-08 01:00;METAR CYXE 080100Z 26008KT 15SM FEW061 FEW082 BKN280 21/13 A2978 RMK CU1AC2CI1 TCU ASOCTD SLP087=

CYXE;2005-07-08 02:00;METAR CYXE 080200Z 28003KT 15SM FEW063 FEW082 SCT280 21/15 A2978 RMK CU1AC2CI1 SLP088=

CYXE;2005-07-08 03:00;METAR CYXE 080300Z 25003KT 15SM BKN087 BKN280 19/15 A2979 RMK AC5CI1 SHRA S ACC EMBD SLP091=

CYXE;2005-07-08 04:00;METAR CYXE 080400Z 24002KT 15SM -SHRA FEW063 BKN083 BKN280 18/14 A2980 RMK CU1AC5CI1 SLP095=

CYXE;2005-07-08 04:15;SPECI CYXE 080415Z 28003KT 15SM FEW063 SCT083 SCT280 19/ RMK CU1AC3CI0 ACC ASOCTD SHRA W + NE=

CYXE;2005-07-08 05:00;METAR CYXE 080500Z 25005KT 15SM BKN073 17/13 A2980 RMK AC7 ACC ASOCTD VIRGA W SLP095=

CYXE;2005-07-08 06:00;METAR CYXE 080600Z 30004KT 15SM SCT071 16/12 A2980 RMK AC3 SLP095=

CYXE;2005-07-08 07:00;METAR CYXE 080700Z 19007KT 15SM SCT098 15/11 A2980 RMK AC3 SLP095=

CYXE;2005-07-08 08:00;METAR CYXE 080800Z 20004KT 15SM FEW100 13/11 A2981 RMK AC2 SLP099=

CYXE;2005-07-08 09:00;METAR CYXE 080900Z 19006KT 15SM FEW100 14/11 A2982 RMK AC1 SLP102=

CYXE;2005-07-08 10:00;METAR CYXE 081000Z 20002KT 15SM SCT300 13/11 A2983 RMK CI2 SLP106=

CYXE;2005-07-08 11:00;METAR CYXE 081100Z 26002KT 15SM BKN300 12/11 A2985 RMK CI1 SLP112=

CYXE;2005-07-08 12:00;METAR CYXE 081200Z 06002KT 15SM BKN300 12/10 A2984 RMK CI1 SLP109=

CYXE;2005-07-08 13:00;METAR CYXE 081300Z 07003KT 15SM BKN300 15/13 A2983 RMK CI1 SLP108=

CYXE;2005-07-08 14:00;METAR CYXE 081400Z 14004KT 15SM FEW300 19/13 A2982 RMK CI1 SLP104=

CYXE;2005-07-08 15:00;METAR CYXE 081500Z 17006KT 15SM BKN300 21/15 A2981 RMK CI4 SLP096=

CYXE;2005-07-08 16:00;METAR CYXE 081600Z 19009KT 15SM BKN300 23/17 A2980 RMK CI4 SLP093=

CYXE;2005-07-08 17:00;METAR CYXE 081700Z 18009KT 15SM FEW030 SCT300 25/17 A2977 RMK CU1CI2 SLP086=

CYXE;2005-07-08 18:00;METAR CYXE 081800Z 16013KT 15SM FEW035 BKN300 26/17 A2975 RMK CU1CI2 SLP075=

CYXE;2005-07-08 19:00;METAR CYXE 081900Z 19015KT 15SM FEW040 BKN300 27/18 A2972 RMK CU2CI1 SLP066=

CYXE;2005-07-08 20:00;METAR CYXE 082000Z 18016KT 15SM FEW045 SCT300 27/16 A2970 RMK CU1CI1 SLP059=

CYXE;2005-07-08 21:00;METAR CYXE 082100Z 21013KT 15SM FEW050 FEW300 28/15 A2969 RMK CU1CI0 SLP055=

CYXE;2005-07-08 22:00;METAR CYXE 082200Z 22010KT 15SM FEW052 FEW300 28/16 A2968 RMK CU1CI0 TCU ASOCTD SLP051=

CYXE;2005-07-08 23:00;METAR CYXE 082300Z 22009KT 15SM FEW052 28/15 A2966 RMK CU1 SLP047=

CYXE;2005-07-09 00:00;METAR CYXE 090000Z 22008KT 15SM FEW044TCU FEW050CB 27/16 A2965 RMK TCU1CB1 CB E SLP044=

CYXE;2005-07-09 01:00;METAR CYXE 090100Z 23005KT 15SM FEW044TCU FEW050CB 27/19 A2964 RMK TCU1CB1 CB DIST E SLP041=

CYXE;2005-07-09 02:00;METAR CYXE 090200Z 19005KT 15SM SKC 26/16 A2964 RMK SLP039=

CYXE;2005-07-09 03:00;METAR CYXE 090300Z 16006KT 15SM FEW100 24/16 A2963 RMK AC1 SLP031=

CYXE;2005-07-09 04:00;METAR CYXE 090400Z 16005KT 15SM FEW100 FEW230 23/17 A2963 RMK AC1CI1 SLP031=

CYXE;2005-07-09 05:00;METAR CYXE 090500Z 00000KT 15SM FEW100 FEW230 20/16 A2962 RMK AC1CI1 SLP030=

CYXE;2005-07-09 06:00;METAR CYXE 090600Z 12004KT 15SM FEW100 20/16 A2961 RMK AC1 SLP027=

CYXE;2005-07-09 07:00;METAR CYXE 090700Z 01004KT 15SM SKC 17/15 A2960 RMK SLP023=

CYXE;2005-07-09 08:00;METAR CYXE 090800Z 06006KT 15SM SKC 18/16 A2960 RMK SLP023=

CYXE;2005-07-09 09:00;METAR CYXE 090900Z 06003KT 15SM FEW120 17/16 A2959 RMK AC1 SLP021=

CYXE;2005-07-09 10:00;METAR CYXE 091000Z 12005KT 15SM SCT110 BKN250 17/15 A2957 RMK AC2CI2 SLP012=

CYXE;2005-07-09 11:00;METAR CYXE 091100Z 17005KT 15SM BKN095 BKN230 20/18 A2956 RMK AC5CI2 LTGICCG SW CB EMBD SLP009=

CYXE;2005-07-09 11:52;SPECI CYXE 091152Z 19005KT 15SM -SHRA FEW020CB BKN095 OVC230 RMK CB2AC5CI1 LTGCG W=

CYXE;2005-07-09 12:00;METAR CYXE 091200Z 20008KT 15SM -SHRA FEW015CB BKN100 OVC250 20/19 A2960 RMK CB2AC5CI1 LTGCG W SLP020=

CYXE;2005-07-09 12:26;SPECI CYXE 091226Z 21002KT 15SM VCSH FEW015CB BKN070 BKN250 20/ RMK CB2AC4CI1 LTGCG NW=

CYXE;2005-07-09 13:00;METAR CYXE 091300Z 14006KT 15SM SCT050 SCT100 BKN250 21/19 A2958 RMK SC3AC1CI0 CVCTV CLD EMBDD SHRA W-NW SLP014=

CYXE;2005-07-09 13:52;SPECI CYXE 091352Z 20006KT 15SM TS BKN050CB BKN300 RMK CB5CI0 LTGCG=

CYXE;2005-07-09 14:00;METAR CYXE 091400Z 19005KT 15SM -TSRA BKN050CB BKN300 23/19 A2960 RMK CB5CI1 LTGCG SLP020=

CYXE;2005-07-09 14:17;SPECI CYXE 091417Z 29004KT 15SM FEW050CB SCT090 BKN300 RETS RMK CB2ACC2CI0 CB N=

CYXE;2005-07-09 15:00;METAR CYXE 091500Z 14002KT 15SM FEW050CB SCT090 BKN300 24/19 A2956 RETS RMK CB1ACC2CI0 SLP008=

CYXE;2005-07-09 16:00;METAR CYXE 091600Z 12008KT 15SM FEW090 FEW300 27/18 A2954 RMK ACC2CI0 SLP999=

CYXE;2005-07-09 17:00;METAR CYXE 091700Z 28008KT 15SM BKN090 BKN300 26/21 A2955 RMK ACC5CI1 SLP004=

CYXE;2005-07-09 18:00;METAR CYXE 091800Z 28011KT 15SM SCT095 BKN300 27/19 A2957 RMK ACC3CI0 SLP012=

CYXE;2005-07-09 19:00;METAR CYXE 091900Z 31014G21KT 15SM FEW100 BKN300 26/18 A2959 RMK ACC2CI1 SLP016=

CYXE;2005-07-09 20:00;METAR CYXE 092000Z 30012KT 15SM FEW100 BKN300 24/18 A2962 RMK AC1CI2 CB TOPS N SLP026=

CYXE;2005-07-09 21:00;METAR CYXE 092100Z 32014KT 15SM SCT300 25/17 A2963 RMK CI2 SLP034=

CYXE;2005-07-09 22:00;METAR CYXE 092200Z 31013G18KT 15SM FEW030 SCT300 24/17 A2965 RMK CF1CI2 SLP041=

CYXE;2005-07-09 23:00;METAR CYXE 092300Z 31012KT 15SM FEW040 SCT300 23/16 A2966 RMK CU2CI1 TCU ASOCTD SLP045=

CYXE;2005-07-10 00:00;METAR CYXE 100000Z 30010KT 15SM FEW040 FEW110 BKN300 23/14 A2967 RMK CU1AC1CI2 SLP048=

CYXE;2005-07-10 01:00;METAR CYXE 100100Z 30010KT 15SM FEW110 BKN280 21/15 A2968 RMK AC1CI2 ACC ASOCTD SLP049=

CYXE;2005-07-10 02:00;METAR CYXE 100200Z 29007KT 15SM FEW086 BKN280 19/14 A2973 RMK AC2CI2 ACC ASOCTD SLP066=

CYXE;2005-07-10 03:00;METAR CYXE 100300Z 32005KT 15SM FEW086 BKN280 17/14 A2972 RMK ACC2CI2 VIRGA SLP065=

CYXE;2005-07-10 04:00;METAR CYXE 100400Z 26004KT 15SM -SHRA FEW036 BKN058 OVC080 16/15 A2976 RMK SC2SC3AC2 SLP078=

CYXE;2005-07-10 05:00;METAR CYXE 100500Z 29005KT 15SM -SHRA BKN024 OVC058 17/15 A2974 RMK SC6SC2 SLP071=

CYXE;2005-07-10 05:30;SPECI CYXE 100530Z 32003KT 15SM FEW024 OVC051 16/ RMK SC2SC6=

CYXE;2005-07-10 06:00;METAR CYXE 100600Z 33006KT 15SM BKN050 15/14 A2970 RMK SC5 LTGICCG E SLP058=

CYXE;2005-07-10 07:00;METAR CYXE 100700Z 27004KT 15SM SCT050 BKN100 16/14 A2972 RMK SC3AC2 SLP066=

CYXE;2005-07-10 08:00;METAR CYXE 100800Z 24006KT 15SM FEW100 15/14 A2973 RMK AC1 SLP067=

CYXE;2005-07-10 09:00;METAR CYXE 100900Z 25005KT 15SM BKN110 BKN250 14/13 A2974 RMK AC5CI2 SLP074=

CYXE;2005-07-10 10:00;METAR CYXE 101000Z 24004KT 15SM FEW050 SCT110 BKN250 14/13 A2977 RMK SC1AC2CI4 SLP083=

CYXE;2005-07-10 11:00;METAR CYXE 101100Z 19002KT 15SM SCT070 BKN120 BKN250 15/13 A2979 RMK AC3AC3CI1 SLP091=

CYXE;2005-07-10 12:00;METAR CYXE 101200Z 26003KT 15SM FEW070 FEW110 BKN250 13/12 A2978 RMK AC2AC1CI1 SLP091=

CYXE;2005-07-10 13:00;METAR CYXE 101300Z 29003KT 15SM FEW070 FEW250 16/14 A2978 RMK AC1CI1 SLP090=

CYXE;2005-07-10 14:00;METAR CYXE 101400Z 32005KT 15SM FEW080 FEW300 18/14 A2980 RMK ACC1CI1 SLP096=

CYXE;2005-07-10 15:00;METAR CYXE 101500Z 00000KT 15SM FEW080 SCT300 20/14 A2981 RMK ACC1CI2 SLP101=

CYXE;2005-07-10 16:00;METAR CYXE 101600Z 00000KT 15SM FEW030TCU BKN300 22/13 A2983 RMK TCU1CI4 SLP105=

CYXE;2005-07-10 17:00;METAR CYXE 101700Z 28002KT 15SM FEW040TCU BKN300 22/12 A2983 RMK TCU1CI5 SLP107=

CYXE;2005-07-10 18:00;METAR CYXE 101800Z 32005KT 15SM FEW040TCU BKN300 23/15 A2983 RMK TCU1CI2 SLP104=

CYXE;2005-07-10 19:00;METAR CYXE 101900Z 28005KT 15SM FEW040TCU BKN300 23/13 A2983 RMK TCU1CI2 SLP106=

CYXE;2005-07-10 20:00;METAR CYXE 102000Z 27002KT 15SM FEW050TCU BKN300 24/12 A2983 RMK TCU2CI2 SLP106=

CYXE;2005-07-10 21:00;METAR CYXE 102100Z 24002KT 15SM SCT070TCU BKN300 24/13 A2983 RMK TCU3CI1 SLP105=

CYXE;2005-07-10 22:00;METAR CYXE 102200Z 29003KT 15SM SCT080TCU BKN300 25/14 A2983 RMK TCU3CI2 SLP105=

CYXE;2005-07-10 23:00;METAR CYXE 102300Z 14004KT 15SM -SHRA SCT055TCU BKN081 BKN300 23/14 A2983 RMK TCU3AC2CI1 SLP104=

CYXE;2005-07-10 23:50;SPECI CYXE 102350Z 10007KT 15SM SCT059TCU SCT075 BKN300 22/ RMK TCU3AC1CI1 SHRA N=

CYXE;2005-07-11 00:00;METAR CYXE 110000Z 10007KT 15SM SCT061TCU SCT075 BKN300 23/15 A2982 RMK TCU3AC1CI1 SHRA N SLP103=

CYXE;2005-07-11 01:00;METAR CYXE 110100Z 10007KT 15SM SCT065TCU BKN280 23/15 A2982 RMK TCU3CI0 SLP102=

CYXE;2005-07-11 02:00;METAR CYXE 110200Z 19007KT 15SM FEW068CB FEW094 SCT280 22/13 A2982 RMK CB2ACC1CI0 CB NW-NE SLP103=

CYXE;2005-07-11 03:00;METAR CYXE 110300Z 18005KT 15SM FEW075TCU FEW080CB SCT280 20/13 A2982 RMK TCU1CB2CI0 CB NW-N SLP102=

CYXE;2005-07-11 04:00;METAR CYXE 110400Z 17004KT 15SM FEW079TCU SCT280 19/13 A2982 RMK TCU2CI0 SLP102=

CYXE;2005-07-11 05:00;METAR CYXE 110500Z 28003KT 15SM FEW071TCU FEW075CB SCT280 15/13 A2984 RMK TCU1CB1CI0 CB + LTNG N SLP106=

CYXE;2005-07-11 06:00;METAR CYXE 110600Z 04007KT 15SM FEW070TCU FEW280 15/13 A2984 RMK TCU1CI0 SLP110=

CYXE;2005-07-11 08:00;METAR CYXE 110800Z 07006KT 15SM FEW090 14/12 A2986 RMK AC2 SLP114=

CYXE;2005-07-11 09:00;METAR CYXE 110900Z 01005KT 15SM BKN100 13/12 A2986 RMK AC5 SLP116=

CYXE;2005-07-11 10:00;METAR CYXE 111000Z 09005KT 15SM BKN100 12/12 A2986 RMK AC5 SLP118=

CYXE;2005-07-11 11:00;METAR CYXE 111100Z 00000KT 15SM BKN100 13/12 A2987 RMK AC6 SLP120=

CYXE;2005-07-11 12:00;METAR CYXE 111200Z 35005KT 15SM BKN100 14/13 A2989 RMK AC6 ACC ASOCTD SLP126=

CYXE;2005-07-11 13:00;METAR CYXE 111300Z 03004KT 15SM SCT100 BKN140 16/14 A2990 RMK AC3AC3 SHRA N ACC ASOCTD SLP128=

CYXE;2005-07-11 14:00;METAR CYXE 111400Z 34005KT 15SM FEW100 17/15 A2990 RMK ACC2 SLP130=

CYXE;2005-07-11 15:00;METAR CYXE 111500Z 33006KT 15SM FEW100 19/14 A2991 RMK ACC1 CB TOP N SLP133=

CYXE;2005-07-11 16:00;METAR CYXE 111600Z 35009KT 15SM FEW100 20/14 A2992 RMK ACC1 CB TOP N SLP137=

CYXE;2005-07-11 17:00;METAR CYXE 111700Z 32009KT 15SM FEW030 FEW100 21/14 A2994 RMK CF1ACC1 SLP141=

CYXE;2005-07-11 18:00;METAR CYXE 111800Z 33003KT 15SM FEW030 22/15 A2994 RMK CU1 SLP144=

CYXE;2005-07-11 19:00;METAR CYXE 111900Z 36004KT 15SM FEW030 23/15 A2994 RMK CU1 SLP144=

CYXE;2005-07-11 20:00;METAR CYXE 112000Z 34007KT 15SM FEW035TCU 23/15 A2995 RMK TCU1 SLP147=

CYXE;2005-07-11 21:00;METAR CYXE 112100Z 32002KT 15SM FEW050TCU 24/13 A2995 RMK TCU2 SLP147=

CYXE;2005-07-11 22:00;METAR CYXE 112200Z 28002KT 15SM FEW050TCU FEW055CB SCT110 SCT230 25/13 A2995 RMK TCU2CB1AC1CI0 CB + SHRA SW SLP148=

CYXE;2005-07-11 23:00;METAR CYXE 112300Z 34003KT 15SM FEW058TCU SCT065CB SCT110 BKN230 23/15 A2995 RMK TCU2CB2AC1CI0 CB SSW + W SHRA SSW SLP148=

CYXE;2005-07-12 00:00;METAR CYXE 120000Z 35005KT 15SM FEW050TCU SCT058CB BKN096 BKN230 22/16 A2996 RMK TCU1CB3ACC2CI1 CB S+ SW SHRA S+SW SLP151=

CYXE;2005-07-12 01:00;METAR CYXE 120100Z 30005KT 15SM VCSH FEW050TCU SCT058CB BKN094 BKN230 22/16 A2997 RMK TCU1CB2AC2CI1 CB + SHRA ENE-SE SLP153=

CYXE;2005-07-12 02:00;METAR CYXE 120200Z 18006KT 15SM FEW058CB BKN086 BKN230 19/15 A2998 RMK CB1AC5CI1 CB NE-E SHRA NE SLP156=

CYXE;2005-07-12 03:00;METAR CYXE 120300Z 14002KT 15SM FEW058CB SCT082 BKN230 20/15 A2998 RMK CB1AC3CI0 CB NE SLP155=

CYXE;2005-07-12 04:00;METAR CYXE 120400Z 00000KT 15SM FEW058TCU FEW082 FEW230 18/15 A2999 RMK TCU1AC1CI0 TCU NE SLP159=

CYXE;2005-07-12 05:00;METAR CYXE 120500Z 21003KT 15SM FEW085 FEW230 16/15 A2999 RMK AC1CI1 SLP161=

CYXE;2005-07-12 06:00;METAR CYXE 120600Z 00000KT 15SM FEW230 15/14 A3000 RMK CI1 SLP163=

CYXE;2005-07-12 07:00;METAR CYXE 120700Z 00000KT 15SM SKC 15/15 A3000 RMK BR PTCHS SLP164=

CYXE;2005-07-12 08:00;METAR CYXE 120800Z 00000KT 15SM R09/2600VP6000FT/U SKC 13/12 A3001 RMK BR PTCHS SLP168=

CYXE;2005-07-12 09:00;METAR CYXE 120900Z 00000KT 15SM SKC 13/13 A3001 RMK BR PTCHS SLP167=

CYXE;2005-07-12 10:00;METAR CYXE 121000Z 02002KT 15SM FEW100 13/12 A3001 RMK AC1 BR PTCHS SLP168=

CYXE;2005-07-12 11:00;METAR CYXE 121100Z 05002KT 4SM R09/0700V1800FT/N BR FEW100 12/12 A3002 RMK AC1 FG BNK W HALF RWY 09/27 SLP170=

CYXE;2005-07-12 11:14;SPECI CYXE 121114Z 06004KT 15SM R09/2200VP6000FT/D FEW100 12/ RMK ACC1 BR PTCHS=

CYXE;2005-07-12 12:00;METAR CYXE 121200Z 05002KT 15SM FEW100 13/12 A3003 RMK ACC1 BR PTCHS SLP175=

CYXE;2005-07-12 13:00;METAR CYXE 121300Z 00000KT 15SM FEW100 16/14 A3004 RMK ACC1 SLP180=

CYXE;2005-07-12 14:00;METAR CYXE 121400Z 07006KT 15SM FEW100 18/14 A3004 RMK ACC1 SLP179=

CYXE;2005-07-12 15:00;METAR CYXE 121500Z 10005KT 15SM FEW100 21/14 A3003 RMK ACC2 SLP174=

CYXE;2005-07-12 16:00;METAR CYXE 121600Z 14005KT 15SM SKC 23/15 A3003 RMK SLP173=

CYXE;2005-07-12 17:00;METAR CYXE 121700Z 21007KT 15SM SKC 24/16 A3003 RMK SLP171=

CYXE;2005-07-12 18:00;METAR CYXE 121800Z 21006KT 15SM FEW120 25/16 A3003 RMK ACC1 SLP171=

CYXE;2005-07-12 19:00;METAR CYXE 121900Z 26003KT 15SM FEW045 FEW100 26/15 A3002 RMK CU1ACC1 SLP168=

CYXE;2005-07-12 20:00;METAR CYXE 122000Z 23003KT 15SM FEW050 27/14 A3001 RMK CU1 SLP166=

CYXE;2005-07-12 21:00;METAR CYXE 122100Z 23006KT 15SM FEW050 28/14 A3000 RMK CU1 SLP162=

CYXE;2005-07-12 22:00;METAR CYXE 122200Z 18006KT 15SM SCT050 28/16 A2999 RMK CU3 SLP160=

CYXE;2005-07-12 23:00;METAR CYXE 122300Z 18004KT 15SM SCT052 29/16 A2999 RMK CU4 SLP157=

CYXE;2005-07-13 00:00;METAR CYXE 130000Z 16008KT 15SM FEW055 FEW140 28/15 A2997 RMK CU1AC1 SLP151=

CYXE;2005-07-13 01:00;METAR CYXE 130100Z 23005KT 15SM FEW120 28/17 A2996 RMK AC1 SLP148=

CYXE;2005-07-13 02:00;METAR CYXE 130200Z 17003KT 15SM FEW110 27/16 A2995 RMK ACC1 SLP144=

CYXE;2005-07-13 03:00;METAR CYXE 130300Z 15005KT 15SM BKN100 25/15 A2994 RMK AC6 ACC ASOCTD SLP138=

CYXE;2005-07-13 04:00;METAR CYXE 130400Z 12005KT 15SM BKN100 24/16 A2994 RMK AC6 SLP138=

CYXE;2005-07-13 05:00;METAR CYXE 130500Z 13005KT 15SM SCT075 23/18 A2993 RMK AC4 SHRA NW SLP135=

CYXE;2005-07-13 05:27;SPECI CYXE 130527Z 13008KT 15SM FEW075CB 22/ RMK CB2 LTGICCG NW-N=

CYXE;2005-07-13 06:00;METAR CYXE 130600Z 12008KT 15SM SCT075CB 22/17 A2992 RMK CB3 LTGICCG=

CYXE;2005-07-13 07:00;METAR CYXE 130700Z 09008KT 15SM FEW080 20/16 A2991 RMK AC1 CB + LTNG=

CYXE;2005-07-13 08:00;METAR CYXE 130800Z 03008KT 15SM SCT100 18/16 A2990 RMK AC3 SLP123=

CYXE;2005-07-13 09:00;METAR CYXE 130900Z 07008KT 15SM SCT100 18/16 A2987 RMK AC3 SLP116=

CYXE;2005-07-13 10:00;METAR CYXE 131000Z 08007KT 15SM FEW100 17/15 A2986 RMK AC2 SLP110=

CYXE;2005-07-13 11:00;METAR CYXE 131100Z 07007KT 15SM FEW100 SCT300 16/15 A2984 RMK AC1CI0 SLP106=

CYXE;2005-07-13 12:00;METAR CYXE 131200Z 14002KT 15SM FEW100 SCT300 17/15 A2983 RMK AC1CI0 SLP103=

CYXE;2005-07-13 13:00;METAR CYXE 131300Z 36002KT 15SM FEW100 SCT300 18/16 A2983 RMK ACC1CI0 SLP102=

CYXE;2005-07-13 14:00;METAR CYXE 131400Z 00000KT 15SM FEW100 FEW300 21/17 A2982 RMK ACC1CI1 SLP099=

CYXE;2005-07-13 15:00;METAR CYXE 131500Z 28004KT 15SM FEW100 21/17 A2982 RMK ACC1 SLP098=

CYXE;2005-07-13 16:00;METAR CYXE 131600Z 02002KT 15SM FEW100 FEW300 23/17 A2981 RMK ACC1CI1 SLP095=

CYXE;2005-07-13 17:00;METAR CYXE 131700Z 00000KT 15SM FEW100 FEW150 SCT300 25/18 A2981 RMK ACC1AC2CI1 SLP093=

CYXE;2005-07-13 18:00;METAR CYXE 131800Z 22002KT 15SM FEW100 BKN300 27/19 A2980 RMK ACC2CI2 SLP088=

CYXE;2005-07-13 19:00;METAR CYXE 131900Z 19003KT 15SM SCT100 BKN300 28/18 A2979 RMK ACC4CI1 SLP086=

CYXE;2005-07-13 20:00;METAR CYXE 132000Z 22005KT 15SM BKN100 29/20 A2977 RMK ACC6 SLP081=

CYXE;2005-07-13 21:00;METAR CYXE 132100Z 22006KT 15SM FEW040 BKN095 28/19 A2976 RMK CU1ACC6 SLP076=

CYXE;2005-07-13 22:00;METAR CYXE 132200Z 24006KT 15SM FEW040 BKN086 28/19 A2975 RMK CU1ACC4 VIRGA SLP075=

CYXE;2005-07-13 23:00;METAR CYXE 132300Z 25004KT 15SM FEW040 BKN090 28/20 A2973 RMK CU1ACC4 VIRGA SLP068=

CYXE;2005-07-14 00:00;METAR CYXE 140000Z 22008KT 15SM FEW040 BKN097 27/20 A2972 RMK CU1ACC5 VIRGA SLP064=

CYXE;2005-07-14 01:00;METAR CYXE 140100Z 22008KT 15SM SCT094 BKN300 25/18 A2968 RMK ACC3CI2 SLP053=

CYXE;2005-07-14 02:00;METAR CYXE 140200Z 21012G17KT 15SM SCT100 BKN300 25/16 A2965 RMK ACC2CI2 CB TOPS N SLP041=

CYXE;2005-07-14 03:00;METAR CYXE 140300Z 26014KT 15SM FEW100 SCT300 23/18 A2969 RMK AC1CI2 CB TOPS N SLP055=

CYXE;2005-07-14 04:00;METAR CYXE 140400Z 31015KT 15SM FEW100 19/15 A2972 RMK AC2 CB TOP DSTNT E SLP065=

CYXE;2005-07-14 05:00;METAR CYXE 140500Z 29024G29KT 15SM FEW049 FEW100 17/13 A2981 RMK SC1AC1 PRESRR SLP091=

CYXE;2005-07-14 06:00;METAR CYXE 140600Z 30020G26KT 15SM FEW070 15/11 A2979 RMK AC2 SLP089=

CYXE;2005-07-14 07:00;METAR CYXE 140700Z 31012KT 15SM FEW080 15/11 A2979 RMK AC1 SLP089=

CYXE;2005-07-14 08:00;METAR CYXE 140800Z 29012G17KT 15SM SCT080 14/11 A2983 RMK AC3 SLP101=

CYXE;2005-07-14 09:00;METAR CYXE 140900Z 28010KT 15SM BKN065 14/11 A2986 RMK SC6 SLP111=

CYXE;2005-07-14 10:00;METAR CYXE 141000Z 25006KT 15SM FEW070 12/11 A2986 RMK ACC2 SLP114=

CYXE;2005-07-14 11:00;METAR CYXE 141100Z 25006KT 15SM FEW070 12/11 A2988 RMK ACC1 SLP118=

CYXE;2005-07-14 12:00;METAR CYXE 141200Z 27007KT 15SM FEW070 12/10 A2990 RMK ACC2 CB TOP DIST W SLP129=

CYXE;2005-07-14 13:00;METAR CYXE 141300Z 27009KT 15SM SCT070 15/11 A2990 RMK ACC4 SLP129=

CYXE;2005-07-14 14:00;METAR CYXE 141400Z 28013KT 15SM FEW120 SCT300 17/12 A2993 RMK AC2CI1 SLP137=

CYXE;2005-07-14 15:00;METAR CYXE 141500Z 28013G19KT 15SM FEW120 BKN300 19/13 A2994 RMK AC1CI2 SLP139=

CYXE;2005-07-14 16:00;METAR CYXE 141600Z 28015KT 15SM BKN300 19/13 A2994 RMK CI3 SLP140=

CYXE;2005-07-14 17:00;METAR CYXE 141700Z 27014KT 15SM FEW035 FEW300 21/12 A2994 RMK CU1CI1 SLP140=

CYXE;2005-07-14 18:00;METAR CYXE 141800Z 27021G27KT 15SM FEW045 22/10 A2995 RMK CU2 SLP146=

CYXE;2005-07-14 19:00;METAR CYXE 141900Z 27021G26KT 15SM FEW045 22/11 A2995 RMK CU2 SLP147=

CYXE;2005-07-14 20:00;METAR CYXE 142000Z 30019G30KT 15SM FEW050 23/11 A2995 RMK CU1 SLP146=

CYXE;2005-07-14 21:00;METAR CYXE 142100Z 27019G28KT 15SM FEW050 23/10 A2995 RMK CU1 SLP147=

CYXE;2005-07-14 22:00;METAR CYXE 142200Z 27017G24KT 15SM FEW050 23/11 A2995 RMK CU1 SLP147=

CYXE;2005-07-14 23:00;METAR CYXE 142300Z 27013G24KT 15SM FEW052 23/11 A2994 RMK CU1 SLP144=

CYXE;2005-07-15 00:00;METAR CYXE 150000Z 30016KT 15SM FEW069 23/10 A2994 RMK CU1 SLP145=

CYXE;2005-07-15 01:00;METAR CYXE 150100Z 30011G17KT 15SM FEW065 22/11 A2995 RMK CU1 SLP146=

CYXE;2005-07-15 02:00;METAR CYXE 150200Z 29009KT 15SM SKC 21/11 A2995 RMK SLP148=

CYXE;2005-07-15 03:00;METAR CYXE 150300Z 27007KT 15SM FEW300 18/10 A2996 RMK CI1 SLP150=

CYXE;2005-07-15 04:00;METAR CYXE 150400Z 23008KT 15SM SKC 14/11 A2997 RMK SLP153=

CYXE;2005-07-15 05:00;METAR CYXE 150500Z 25007KT 15SM SKC 13/11 A2997 RMK SLP152=

CYXE;2005-07-15 06:00;METAR CYXE 150600Z 25008KT 15SM SKC 12/10 A2997 RMK SLP154=

CYXE;2005-07-15 07:00;METAR CYXE 150700Z 24007KT 15SM SKC 11/10 A2997 RMK SLP156=

CYXE;2005-07-15 08:00;METAR CYXE 150800Z 24008KT 15SM SKC 11/09 A2998 RMK SLP157=

CYXE;2005-07-15 09:00;METAR CYXE 150900Z 24007KT 15SM SKC 11/09 A2997 RMK SLP156=

CYXE;2005-07-15 10:00;METAR CYXE 151000Z 23007KT 15SM SKC 10/08 A2998 RMK SLP157=

CYXE;2005-07-15 11:00;METAR CYXE 151100Z 22008KT 15SM FEW300 09/08 A2998 RMK CI1 SLP158=

CYXE;2005-07-15 12:00;METAR CYXE 151200Z 24004KT 15SM SCT300 10/08 A2998 RMK CI1 SLP160=

CYXE;2005-07-15 13:00;METAR CYXE 151300Z 19005KT 15SM SCT300 13/11 A2999 RMK CI2 SLP162=

CYXE;2005-07-15 14:00;METAR CYXE 151400Z 23004KT 15SM BKN300 17/11 A2998 RMK CI2 SLP160=

CYXE;2005-07-15 15:00;METAR CYXE 151500Z 22003KT 15SM BKN300 19/12 A2997 RMK CI2 SLP155=

CYXE;2005-07-15 16:00;METAR CYXE 151600Z 24004KT 15SM BKN300 21/12 A2995 RMK CI2 SLP149=

CYXE;2005-07-15 17:00;METAR CYXE 151700Z 22004KT 15SM BKN095 OVC300 23/12 A2994 RMK AS5CI1 SLP144=

CYXE;2005-07-15 18:00;METAR CYXE 151800Z 20006KT 15SM BKN095 OVC300 23/11 A2993 RMK AS6CI1 SLP140=

CYXE;2005-07-15 19:00;METAR CYXE 151900Z 21005KT 15SM SCT095 BKN300 25/13 A2991 RMK AS2CI1 SLP135=

CYXE;2005-07-15 20:00;METAR CYXE 152000Z 21003KT 15SM FEW095 BKN300 25/12 A2989 RMK AC2CI2 SLP129=

CYXE;2005-07-15 21:00;METAR CYXE 152100Z 16003KT 15SM BKN110 OVC300 26/09 A2988 RMK AS4CI3 SLP124=

CYXE;2005-07-15 22:00;METAR CYXE 152200Z 13007KT 15SM BKN095 OVC300 25/11 A2986 RMK AS5CI3 SLP117=

CYXE;2005-07-15 23:00;METAR CYXE 152300Z 13007KT 15SM BKN110 OVC300 24/11 A2985 RMK AC5CI2 SLP112=

CYXE;2005-07-16 00:00;METAR CYXE 160000Z 13009KT 15SM SCT090 OVC300 23/11 A2984 RMK AC4CI3 SLP110=

CYXE;2005-07-16 01:00;METAR CYXE 160100Z 13007KT 15SM BKN088 OVC300 22/11 A2982 RMK AS5CI2 SLP104=

CYXE;2005-07-16 02:00;METAR CYXE 160200Z 13010KT 15SM SCT090 BKN300 22/12 A2980 RMK AC2CI3 SLP099=

CYXE;2005-07-16 03:00;METAR CYXE 160300Z 11010KT 15SM SCT110 OVC300 21/12 A2977 RMK AC2CI2 SLP082=

CYXE;2005-07-16 04:00;METAR CYXE 160400Z 12009KT 15SM SCT110 OVC300 20/12 A2974 RMK AC2CI2 SLP075=

CYXE;2005-07-16 05:00;METAR CYXE 160500Z 12011KT 15SM FEW110 OVC300 20/11 A2972 RMK AC2CI2 SLP067=

CYXE;2005-07-16 06:00;METAR CYXE 160600Z 12011KT 15SM FEW110 OVC300 20/11 A2970 RMK AC2CI4 SLP057=

CYXE;2005-07-16 07:00;METAR CYXE 160700Z 12011G16KT 15SM FEW110 OVC300 20/11 A2967 RMK AC2CI6 SLP048=

CYXE;2005-07-16 08:00;METAR CYXE 160800Z 11012G17KT 15SM FEW110 OVC300 20/12 A2963 RMK AC2CI6 SLP036=

CYXE;2005-07-16 09:00;METAR CYXE 160900Z 11008KT 15SM FEW110 OVC300 19/13 A2961 RMK AC2CI6 SLP025=

CYXE;2005-07-16 10:00;METAR CYXE 161000Z 10010KT 15SM BKN110 OVC300 19/13 A2957 RMK AC6CI2 SLP014=

CYXE;2005-07-16 11:00;METAR CYXE 161100Z 10010KT 15SM SCT110 OVC300 18/14 A2954 RMK AC4CI4 SLP003=

CYXE;2005-07-16 12:00;METAR CYXE 161200Z 12009KT 15SM BKN100 BKN300 18/14 A2952 RMK AC6CI2 SLP998=

CYXE;2005-07-16 13:00;METAR CYXE 161300Z 10007KT 15SM BKN100 OVC250 17/14 A2950 RMK AC7CI1 SLP989=

CYXE;2005-07-16 14:00;METAR CYXE 161400Z 17004KT 15SM BKN094 BKN240 18/15 A2950 RMK AC6CI1 SLP990=

CYXE;2005-07-16 15:00;METAR CYXE 161500Z 23010KT 15SM SCT094 BKN120 BKN240 18/15 A2950 RMK AC3AS3CI1 CB TOP DIST NW SLP991=

CYXE;2005-07-16 16:00;METAR CYXE 161600Z 27010KT 15SM FEW012 SCT089 BKN240 19/16 A2949 RMK SC1AC2CI2 SLP988=

CYXE;2005-07-16 17:00;METAR CYXE 161700Z 29012KT 15SM SCT021 SCT089 BKN240 21/16 A2950 RMK SC3AC1CI1 SLP990=

CYXE;2005-07-16 18:00;METAR CYXE 161800Z 29012KT 15SM OVC023 20/16 A2952 RMK SC8 SLP997=

CYXE;2005-07-16 19:00;METAR CYXE 161900Z 29012KT 15SM BKN023 BKN090 21/16 A2952 RMK SC6AC1 SLP999=

CYXE;2005-07-16 20:00;METAR CYXE 162000Z 30013KT 15SM BKN029 BKN094 OVC200 22/16 A2954 RMK SC6AC1CI0 SLP003=

CYXE;2005-07-16 21:00;METAR CYXE 162100Z 30014KT 15SM BKN033 OVC220 21/15 A2956 RMK SC6CI1 SLP010=

CYXE;2005-07-16 22:00;METAR CYXE 162200Z 30018G25KT 15SM BKN032 BKN085 BKN220 20/15 A2959 RMK SC5AC2CI0 CU ASOCTD SLP019=

CYXE;2005-07-16 23:00;METAR CYXE 162300Z 31016KT 15SM FEW020 SCT035 BKN085 BKN220 20/14 A2959 RMK CU1SC3AC1CI2 SLP022=

CYXE;2005-07-17 00:00;METAR CYXE 170000Z 32019KT 15SM BKN020 BKN220 18/14 A2961 RMK CU5CI2 SLP030=

CYXE;2005-07-17 01:00;METAR CYXE 170100Z 31010KT 15SM BKN016 OVC040 17/13 A2964 RMK SC6SC2 SLP040=

CYXE;2005-07-17 02:00;METAR CYXE 170200Z 32011G17KT 15SM OVC018 16/13 A2965 RMK SC8 SLP045=

CYXE;2005-07-17 03:00;METAR CYXE 170300Z 33012G17KT 15SM FEW012 BKN020 OVC070 16/12 A2967 RMK SF1SC6AC1 SLP052=

CYXE;2005-07-17 04:00;METAR CYXE 170400Z 29005KT 15SM FEW020 BKN040 BKN100 15/12 A2969 RMK SC2SC5AC1 SLP060=

CYXE;2005-07-17 05:00;METAR CYXE 170500Z 30009KT 15SM BKN050 BKN070 15/12 A2970 RMK SC6AC2 SLP061=

CYXE;2005-07-17 06:00;METAR CYXE 170600Z 29013KT 15SM FEW012 BKN078 14/13 A2970 RMK SF1AC7 SLP061=

CYXE;2005-07-17 07:00;METAR CYXE 170700Z 29010KT 15SM FEW012 BKN085 14/13 A2968 RMK SF1AC3 SLP057=

CYXE;2005-07-17 07:45;SPECI CYXE 170745Z 30010KT 15SM SCT009 BKN084 14/ RMK SF3AC2=

CYXE;2005-07-17 07:51;SPECI CYXE 170751Z 30012KT 15SM BKN009 OVC084 14/ RMK ST5AC3=

CYXE;2005-07-17 08:00;METAR CYXE 170800Z 30009G15KT 15SM BKN008 OVC084 14/13 A2969 RMK ST6AC2 SLP058=

CYXE;2005-07-17 08:36;SPECI CYXE 170836Z 29009KT 15SM FEW007 SCT093 14/ RMK SF2AC1=

CYXE;2005-07-17 09:00;METAR CYXE 170900Z 30010KT 15SM FEW007 BKN072 14/13 A2968 RMK SF2AC2 SLP054=

CYXE;2005-07-17 10:00;METAR CYXE 171000Z 30009KT 15SM FEW007 BKN072 14/12 A2967 RMK CF1AC2 SLP053=

CYXE;2005-07-17 11:00;METAR CYXE 171100Z 30008KT 15SM SCT041 BKN069 14/12 A2967 RMK SC3AC3 SLP053=

CYXE;2005-07-17 12:00;METAR CYXE 171200Z 30011G16KT 15SM FEW049 BKN090 15/13 A2968 RMK SC2AC5 SLP055=

CYXE;2005-07-17 13:00;METAR CYXE 171300Z 31016KT 15SM -RA FEW028 OVC080 15/13 A2968 RMK SC2AC6 SLP055=

CYXE;2005-07-17 13:19;SPECI CYXE 171319Z 31014G20KT 15SM BKN018 OVC071 15/ RMK SC6AC2=

CYXE;2005-07-17 14:00;METAR CYXE 171400Z 31014KT 15SM -DZ FEW012 OVC015 15/13 A2969 RMK CF1SC8 SLP059=

CYXE;2005-07-17 15:00;METAR CYXE 171500Z 31016KT 15SM -RA BKN022 OVC042 15/13 A2969 RMK SC6SC2 SLP061=

CYXE;2005-07-17 15:18;SPECI CYXE 171518Z 32020KT 10SM -RA BKN009 OVC042 15/ RMK SF6SC2=

CYXE;2005-07-17 15:39;SPECI CYXE 171539Z 32017G22KT 1 1/2SM -RA BR OVC009 15/ RMK SF8=

CYXE;2005-07-17 15:50;SPECI CYXE 171550Z 31014G21KT 4SM -RA BR BKN009 OVC042 15/ RMK SF6SC2=

CYXE;2005-07-17 16:00;METAR CYXE 171600Z 31016KT 10SM -SHRA BKN012 OVC019 16/14 A2970 RMK SF6SC2 SLP065=

CYXE;2005-07-17 16:24;SPECI CYXE 171624Z 32018KT 15SM BKN013 OVC039 16/ RMK SC6SC2 RAG CIG=

CYXE;2005-07-17 17:00;METAR CYXE 171700Z 32018KT 15SM -SHRA SCT013 OVC027 16/13 A2972 RMK SC3SC5 SLP069=

CYXE;2005-07-17 18:00;METAR CYXE 171800Z 34019KT 15SM -SHRA BKN019 OVC093 16/13 A2975 RMK SC7AC1 SLP083=

CYXE;2005-07-17 18:36;SPECI CYXE 171836Z 35018G26KT 15SM SCT030 OVC059 18/ RMK SC4SC3=

CYXE;2005-07-17 19:00;METAR CYXE 171900Z 34020G28KT 15SM SCT032 BKN080 18/13 A2976 RMK SC3AC3 SLP085=

CYXE;2005-07-17 20:00;METAR CYXE 172000Z 34018G30KT 15SM SCT038 SCT076 BKN230 20/13 A2977 RMK SC3AC1CI1 SLP088=

CYXE;2005-07-17 21:00;METAR CYXE 172100Z 34021G26KT 15SM SCT046 BKN081 BKN230 20/12 A2978 RMK SC4AC2CI1 SLP091=

CYXE;2005-07-17 22:00;METAR CYXE 172200Z 33023G30KT 15SM BKN052 BKN250 21/11 A2979 RMK CU5CI1 SLP092=

CYXE;2005-07-17 23:00;METAR CYXE 172300Z 34022G27KT 15SM BKN055 BKN090 BKN250 22/12 A2980 RMK CU6AC1CI0 SLP095=

CYXE;2005-07-18 00:00;METAR CYXE 180000Z 33020G28KT 15SM SCT058 22/10 A2980 RMK CU4 SLP097=

CYXE;2005-07-18 01:00;METAR CYXE 180100Z 33014G19KT 15SM SCT060 21/11 A2982 RMK CU3 SLP103=

CYXE;2005-07-18 02:00;METAR CYXE 180200Z 36007KT 15SM FEW065 FEW250 19/12 A2984 RMK SC2CI1 SLP108=

CYXE;2005-07-18 03:00;METAR CYXE 180300Z 36007KT 15SM SCT065 SCT250 16/12 A2985 RMK SC3CI1 SLP115=

CYXE;2005-07-18 04:00;METAR CYXE 180400Z 31006KT 15SM FEW055 FEW120 13/11 A2986 RMK SC2AC1 SLP118=

CYXE;2005-07-18 05:00;METAR CYXE 180500Z 33003KT 15SM FEW120 13/10 A2987 RMK AC1 SLP123=

CYXE;2005-07-18 06:00;METAR CYXE 180600Z 03005KT 15SM SKC 13/10 A2987 RMK SLP124=

CYXE;2005-07-18 07:00;METAR CYXE 180700Z 00000KT 15SM SKC 13/10 A2987 RMK SLP124=

CYXE;2005-07-18 08:00;METAR CYXE 180800Z 24002KT 15SM SKC 10/09 A2987 RMK SLP123=

CYXE;2005-07-18 09:00;METAR CYXE 180900Z 22004KT 15SM SKC 10/09 A2987 RMK SLP123=

CYXE;2005-07-18 10:00;METAR CYXE 181000Z 21004KT 15SM MIFG FEW220 10/10 A2986 RMK CI0 TOWER OBS SLP120=

CYXE;2005-07-18 11:00;METAR CYXE 181100Z 19003KT 10SM BCFG FEW100 FEW220 10/10 A2986 RMK AC1CI0 TOWER OBS SLP120=

CYXE;2005-07-18 12:00;METAR CYXE 181200Z 19004KT 6SM BR FEW220 10/09 A2986 RMK CI0 VIS W 2 SLP117=

CYXE;2005-07-18 13:00;METAR CYXE 181300Z 19004KT 15SM SKC 13/12 A2985 RMK SLP115=

CYXE;2005-07-18 14:00;METAR CYXE 181400Z 18006KT 15SM SKC 15/13 A2984 RMK SLP112=

CYXE;2005-07-18 15:00;METAR CYXE 181500Z 18007KT 15SM FEW300 18/14 A2982 RMK CI0 SLP104=

CYXE;2005-07-18 16:00;METAR CYXE 181600Z 21006KT 15SM FEW300 20/15 A2981 RMK CI0 SLP099=

CYXE;2005-07-18 17:00;METAR CYXE 181700Z 23009KT 15SM FEW030 FEW300 23/15 A2979 RMK CU1CI0 SLP094=

CYXE;2005-07-18 18:00;METAR CYXE 181800Z 24007KT 15SM SCT041 SCT300 24/14 A2977 RMK CU3CI0 SLP086=

CYXE;2005-07-18 19:00;METAR CYXE 181900Z 23009KT 15SM SCT045 SCT300 25/14 A2975 RMK CU3CI1 SLP080=

CYXE;2005-07-18 20:00;METAR CYXE 182000Z 23011KT 15SM FEW053 BKN300 26/14 A2973 RMK CU2CI1 SLP074=

CYXE;2005-07-18 21:00;METAR CYXE 182100Z 21012KT 15SM FEW061 SCT300 26/13 A2970 RMK CU2CI0 SLP063=

CYXE;2005-07-18 22:00;METAR CYXE 182200Z 20011KT 15SM SCT065 26/13 A2967 RMK CU3 SLP052=

CYXE;2005-07-18 23:00;METAR CYXE 182300Z 22011KT 15SM FEW070 SCT300 26/12 A2963 RMK CU2CI1 SLP041=

CYXE;2005-07-19 00:00;METAR CYXE 190000Z 20010KT 15SM FEW070 FEW300 26/12 A2961 RMK CU1CI1 SLP032=

CYXE;2005-07-19 01:00;METAR CYXE 190100Z 19012KT 15SM FEW100 FEW300 26/13 A2959 RMK AC1CI1 SLP024=

CYXE;2005-07-19 02:00;METAR CYXE 190200Z 18010G16KT 15SM FEW110 FEW300 25/13 A2956 RMK AC1CI1 SLP014=

CYXE;2005-07-19 03:00;METAR CYXE 190300Z 18010KT 15SM FEW110 FEW250 23/13 A2953 RMK AC1CI1 SLP002=

CYXE;2005-07-19 04:00;METAR CYXE 190400Z 31014G25KT 15SM VCSH FEW050CB BKN070 BKN250 19/15 A2957 RMK CB1AC6CI1 LTGCG NE SLP014=

CYXE;2005-07-19 05:00;METAR CYXE 190500Z 33016G22KT 15SM FEW050 BKN090 18/14 A2958 RMK SC2AC4 SLP018=

CYXE;2005-07-19 06:00;METAR CYXE 190600Z 35005KT 15SM SCT089 15/12 A2959 RMK AC4 SLP024=

CYXE;2005-07-19 07:00;METAR CYXE 190700Z 32006KT 15SM FEW040CB SCT089 13/11 A2960 RMK CB2AC1 CB + LTGCG NW-N SLP026=

CYXE;2005-07-19 08:00;METAR CYXE 190800Z 27006KT 15SM FEW040CB BKN120 12/10 A2958 RMK CB2AC3 CB + LTNG W + N SLP020=

CYXE;2005-07-19 08:11;SPECI CYXE 190811Z 28007KT 15SM -SHRA FEW040CB BKN089 RMK CB2AC4 CB + LTNG SW + N=

CYXE;2005-07-19 09:00;METAR CYXE 190900Z 33012KT 15SM -SHRA BKN044 13/12 A2960 RMK SC7 SLP027=

CYXE;2005-07-19 10:00;METAR CYXE 191000Z 25007KT 15SM +SHRA OVC028 13/11 A2965 RMK SC8 SLP041=

CYXE;2005-07-19 10:50;SPECI CYXE 191050Z 24007KT 15SM OVC023 12/ RERA RMK SC7 CVCTV CLD EMBD SHRA E=

CYXE;2005-07-19 11:00;METAR CYXE 191100Z 25007KT 15SM BKN023 OVC039 12/11 A2965 RERA RMK SC6SC2 CVCTV CLD EMBD SHRA E SLP042=

CYXE;2005-07-19 12:00;METAR CYXE 191200Z 24008KT 15SM SCT023 BKN090 12/11 A2963 RMK SC3AC3 CVCTV CLD EMBD SHRA E SLP037=

CYXE;2005-07-19 13:00;METAR CYXE 191300Z 26007KT 15SM FEW023 BKN100 BKN140 13/11 A2963 RMK SC2AC2AC2 SLP035=

CYXE;2005-07-19 14:00;METAR CYXE 191400Z 26010KT 15SM BKN140 BKN300 14/12 A2965 RMK AC5CI1 SLP043=

CYXE;2005-07-19 15:00;METAR CYXE 191500Z 27007KT 15SM BKN140 BKN300 14/12 A2965 RMK AC5CI1 SLP043=

CYXE;2005-07-19 16:00;METAR CYXE 191600Z 27009KT 15SM BKN095 16/12 A2964 RMK AC4 SLP042=

CYXE;2005-07-19 17:00;METAR CYXE 191700Z 27012KT 15SM FEW025 BKN082 17/12 A2965 RMK CF1AC4 SLP045=

CYXE;2005-07-19 18:00;METAR CYXE 191800Z 27011KT 15SM FEW030 BKN090 17/11 A2966 RMK CU1AC2 SLP051=

CYXE;2005-07-19 19:00;METAR CYXE 191900Z 27016KT 15SM FEW036 SCT083 20/11 A2965 RMK CU2AC1 SLP048=

CYXE;2005-07-19 20:00;METAR CYXE 192000Z 28019G24KT 15SM FEW055 SCT100 22/10 A2965 RMK CU2AC1 SLP048=

CYXE;2005-07-19 21:00;METAR CYXE 192100Z 30015G21KT 15SM SCT059 20/09 A2966 RMK CU4 SLP050=

CYXE;2005-07-19 22:00;METAR CYXE 192200Z 27018G24KT 15SM SCT061 BKN250 22/08 A2968 RMK CU4CI1 SLP054=

CYXE;2005-07-19 23:00;METAR CYXE 192300Z 28019G25KT 15SM SCT070 BKN120 22/08 A2968 RMK CU4AC1 SLP056=

CYXE;2005-07-20 00:00;METAR CYXE 200000Z 30017G22KT 15SM SCT070 21/08 A2969 RMK CU3 SLP061=

CYXE;2005-07-20 01:00;METAR CYXE 200100Z 31015G21KT 15SM FEW070 20/09 A2972 RMK CU2 SLP069=

CYXE;2005-07-20 02:00;METAR CYXE 200200Z 30013KT 15SM FEW070 19/09 A2974 RMK CU2 SLP076=

CYXE;2005-07-20 03:00;METAR CYXE 200300Z 30007KT 15SM FEW065 15/09 A2976 RMK SC1 SLP087=

CYXE;2005-07-20 04:00;METAR CYXE 200400Z 29007KT 15SM SCT055 13/10 A2979 RMK SC3 SLP096=

CYXE;2005-07-20 05:00;METAR CYXE 200500Z 33007KT 15SM FEW050 10/08 A2982 RMK SC1 SLP105=

CYXE;2005-07-20 06:00;METAR CYXE 200600Z 31005KT 15SM FEW050 09/07 A2984 RMK SC1 SLP116=

CYXE;2005-07-20 07:00;METAR CYXE 200700Z 29005KT 15SM FEW050 08/07 A2987 RMK SC1 SLP125=

CYXE;2005-07-20 08:00;METAR CYXE 200800Z 31005KT 15SM FEW050 07/06 A2990 RMK SC1 SLP134=

CYXE;2005-07-20 09:00;METAR CYXE 200900Z 32007KT 15SM FEW050 06/05 A2992 RMK SC1 SLP144=

CYXE;2005-07-20 10:00;METAR CYXE 201000Z 31006KT 15SM FEW100 05/04 A2995 RMK AC1 SLP154=

CYXE;2005-07-20 11:00;METAR CYXE 201100Z 32007KT 15SM MIFG FEW100 04/04 A2997 RMK AC1 SLP158=

CYXE;2005-07-20 12:00;METAR CYXE 201200Z 27006KT 15SM FEW100 05/04 A2999 RMK AC1 SLP166=

CYXE;2005-07-20 13:00;METAR CYXE 201300Z 29004KT 15SM FEW100 09/08 A3001 RMK AC1 SLP172=

CYXE;2005-07-20 14:00;METAR CYXE 201400Z 27003KT 15SM FEW100 11/09 A3003 RMK AC1 SLP179=

CYXE;2005-07-20 15:00;METAR CYXE 201500Z 22004KT 15SM FEW100 14/09 A3004 RMK AC1 SLP182=

CYXE;2005-07-20 16:00;METAR CYXE 201600Z 16004KT 15SM FEW100 16/05 A3003 RMK AC1 SLP180=

CYXE;2005-07-20 17:00;METAR CYXE 201700Z 21005KT 15SM FEW100 18/06 A3003 RMK AC1 SLP180=

CYXE;2005-07-20 18:00;METAR CYXE 201800Z 19004KT 15SM FEW100 19/05 A3003 RMK AC1 SLP178=

CYXE;2005-07-20 19:00;METAR CYXE 201900Z 22006KT 15SM FEW100 20/06 A3002 RMK AC1 SLP176=

CYXE;2005-07-20 20:00;METAR CYXE 202000Z 18005KT 15SM BKN097 20/05 A3001 RMK AC4 SLP174=

CYXE;2005-07-20 21:00;METAR CYXE 202100Z 24005KT 15SM BKN099 20/06 A3001 RMK AC7 SLP173=

CYXE;2005-07-20 22:00;METAR CYXE 202200Z 24005KT 15SM BKN100 19/09 A3000 RMK AC7 SLP170=

CYXE;2005-07-20 23:00;METAR CYXE 202300Z 25004KT 15SM BKN100 18/10 A3000 RMK AC7 SLP172=

CYXE;2005-07-20 23:52;SPECI CYXE 202352Z 31003KT 15SM -SHRA SCT042 BKN089 17/ RMK SC3AC4 ACC EMBD=

CYXE;2005-07-21 00:00;METAR CYXE 210000Z 32003KT 15SM -SHRA SCT025 BKN090 17/12 A2999 RMK SC4AC3 CVCTV CLD EMBD SLP171=

CYXE;2005-07-21 01:00;METAR CYXE 210100Z 35003KT 15SM -SHRA BKN025 BKN090 16/12 A3000 RMK SC5AC2 CVCTV CLD EMBD SLP174=

CYXE;2005-07-21 02:00;METAR CYXE 210200Z 03007KT 15SM -SHRA BKN025 BKN089 15/13 A3001 RMK SC6AC2 CVCTV CLD EMBD SLP177=

CYXE;2005-07-21 03:00;METAR CYXE 210300Z 07007KT 15SM -SHRA BKN031 BKN078 14/12 A3000 RMK SC5AC2 CB EMBD LTGCG W SLP171=

CYXE;2005-07-21 03:19;SPECI CYXE 210319Z 05004KT 15SM -TSRA SCT060CB BKN070 14/ RMK CB3AC4 LTGCG W-NW=

CYXE;2005-07-21 04:00;METAR CYXE 210400Z 04004KT 15SM -TSRA BKN028CB OVC070 13/11 A3006 RMK CB6AC2 LTGICCG SLP189=

CYXE;2005-07-21 04:40;SPECI CYXE 210440Z 14007KT 15SM -SHRA BKN023 13/ RETS RMK SC7=

CYXE;2005-07-21 05:00;METAR CYXE 210500Z 15004KT 15SM BKN023 13/11 A3002 RETS RMK SC7 SLP176=

CYXE;2005-07-21 05:05;SPECI CYXE 210505Z 00000KT 15SM -SHRA OVC023 13/ RMK SC8 CB EMBD LTGIC S=

CYXE;2005-07-21 05:18;SPECI CYXE 210518Z 15004KT 15SM -SHRA OVC034 13/ RMK SC8 CB EMBD LTGICCG S-W=

CYXE;2005-07-21 05:24;SPECI CYXE 210524Z 17009KT 10SM TSRA OVC034CB 13/ RMK CB8 LTGICCG=

CYXE;2005-07-21 06:00;METAR CYXE 210600Z 18008KT 10SM TSRA OVC023CB 13/12 A3003 RMK CB8 LTGICCG SLP179=

CYXE;2005-07-21 07:00;METAR CYXE 210700Z 18005KT 15SM -TSRA BKN027 13/12 A3003 RMK SC7 CB EMBD LTG E-W SLP179=

CYXE;2005-07-21 07:22;SPECI CYXE 210722Z 17006KT 15SM TS BKN030 RMK SC6 CB EMBD LTG E-SW=

CYXE;2005-07-21 07:41;SPECI CYXE 210741Z 19005KT 15SM BKN040 RMK SC6 RETS LTG S-SW=

CYXE;2005-07-21 08:00;METAR CYXE 210800Z 17004KT 15SM FEW040 BKN084 13/12 A3004 RMK SC2AC3 RETS LTG DSTNT S SLP181=

CYXE;2005-07-21 09:00;METAR CYXE 210900Z 09004KT 15SM FEW040 BKN097 12/12 A3003 RMK SC2AC3 SLP178=

CYXE;2005-07-21 10:00;METAR CYXE 211000Z 02004KT 15SM FEW040 BKN100 11/10 A3005 RMK SC2AC3 SLP184=

CYXE;2005-07-21 11:00;METAR CYXE 211100Z 36005KT 15SM BKN100 10/10 A3006 RMK AC6 PRFG SLP187=

CYXE;2005-07-21 12:00;METAR CYXE 211200Z 07002KT 15SM BKN100 11/10 A3008 RMK AC6 BCFG SLP195=

CYXE;2005-07-21 13:00;METAR CYXE 211300Z 10002KT 15SM BKN094 14/13 A3008 RMK AC4 SLP198=

CYXE;2005-07-21 13:22;SPECI CYXE 211322Z 02003KT 15SM FEW003 SCT094 13/ RMK SF1AC2=

CYXE;2005-07-21 14:00;METAR CYXE 211400Z 04002KT 15SM FEW004 FEW110 14/13 A3009 RMK SF1AC1 SLP199=

CYXE;2005-07-21 15:00;METAR CYXE 211500Z 28003KT 15SM FEW006 SCT110 16/13 A3011 RMK CF2AC1 SLP206=

CYXE;2005-07-21 16:00;METAR CYXE 211600Z 34003KT 15SM BKN017 17/13 A3012 RMK CU6 SLP208=

CYXE;2005-07-21 17:00;METAR CYXE 211700Z 32005KT 15SM BKN020 BKN110 18/13 A3013 RMK CU6AC1 SLP213=

CYXE;2005-07-21 18:00;METAR CYXE 211800Z 33003KT 15SM SCT025 SCT110 19/13 A3014 RMK CU3AC1 SLP215=

CYXE;2005-07-21 19:00;METAR CYXE 211900Z 30004KT 15SM FEW030 FEW100 21/13 A3015 RMK CU2AC1 TCU ASOCTD N SLP217=

CYXE;2005-07-21 20:00;METAR CYXE 212000Z 30005KT 15SM FEW035 21/12 A3015 RMK CU2 TCU ASOCTD SLP217=

CYXE;2005-07-21 21:00;METAR CYXE 212100Z 30004KT 15SM SCT050 22/11 A3015 RMK CU3 TCU ASOCTD SLP218=

CYXE;2005-07-21 22:00;METAR CYXE 212200Z 30005KT 15SM FEW050 23/13 A3015 RMK CU2 FEW TCU SLP216=

CYXE;2005-07-21 23:00;METAR CYXE 212300Z 31005KT 15SM FEW050 23/11 A3014 RMK CU2 TCU N SLP214=

CYXE;2005-07-22 00:00;METAR CYXE 220000Z 32007KT 15SM FEW050 22/12 A3013 RMK CU2 TCU N SLP212=

CYXE;2005-07-22 01:00;METAR CYXE 220100Z 32003KT 15SM FEW050 22/13 A3013 RMK CU2 TCU NE SLP211=

CYXE;2005-07-22 02:00;METAR CYXE 220200Z 03007KT 15SM SCT060 20/13 A3013 RMK SC3 SLP212=

CYXE;2005-07-22 03:00;METAR CYXE 220300Z 05005KT 15SM FEW060 17/14 A3014 RMK SC2 SLP213=

CYXE;2005-07-22 04:00;METAR CYXE 220400Z 06004KT 15SM FEW060 14/13 A3016 RMK SC1 SLP219=

CYXE;2005-07-22 05:00;METAR CYXE 220500Z 04003KT 15SM FEW060 14/13 A3016 RMK SC1 SLP220=

CYXE;2005-07-22 06:00;METAR CYXE 220600Z 08004KT 15SM FEW060 14/13 A3016 RMK SC1 SLP221=

CYXE;2005-07-22 07:00;METAR CYXE 220700Z 07004KT 15SM SKC 13/12 A3016 RMK SLP221=

CYXE;2005-07-22 08:00;METAR CYXE 220800Z 08004KT 15SM SKC 12/11 A3016 RMK SLP220=

CYXE;2005-07-22 09:00;METAR CYXE 220900Z 10003KT 15SM SKC 12/11 A3016 RMK SLP220=

CYXE;2005-07-22 10:00;METAR CYXE 221000Z 12002KT 15SM FEW070 11/10 A3015 RMK AC1 SLP217=

CYXE;2005-07-22 11:00;METAR CYXE 221100Z 17005KT 15SM FEW067 SCT300 11/11 A3015 RMK AC1CI1 SLP217=

CYXE;2005-07-22 12:00;METAR CYXE 221200Z 17003KT 15SM FEW067 SCT300 13/11 A3015 RMK AC1CI1 SLP215=

CYXE;2005-07-22 13:00;METAR CYXE 221300Z 17004KT 15SM SCT300 15/13 A3014 RMK CI1 SLP212=

CYXE;2005-07-22 14:00;METAR CYXE 221400Z 17007KT 15SM FEW300 17/13 A3013 RMK CI1 SLP211=

CYXE;2005-07-22 15:00;METAR CYXE 221500Z 17007KT 15SM FEW120 FEW300 20/14 A3012 RMK ACC1CI1 SLP204=

CYXE;2005-07-22 16:00;METAR CYXE 221600Z 18010KT 15SM BKN300 21/13 A3011 RMK CI3 SLP202=

CYXE;2005-07-22 17:00;METAR CYXE 221700Z 17008KT 15SM BKN300 23/14 A3010 RMK CI3 SLP198=

CYXE;2005-07-22 18:00;METAR CYXE 221800Z 17008KT 15SM FEW040 BKN300 23/14 A3007 RMK CU1CI6 SLP189=

CYXE;2005-07-22 19:00;METAR CYXE 221900Z 15006G15KT 15SM FEW040 BKN120 OVC300 24/13 A3005 RMK CU1AC5CI2 SLP181=

CYXE;2005-07-22 20:00;METAR CYXE 222000Z 15009KT 15SM FEW040 BKN110 OVC300 24/14 A3003 RMK CU1AC6CI2 SLP175=

CYXE;2005-07-22 21:00;METAR CYXE 222100Z 13010G17KT 15SM BKN110 OVC300 24/14 A3000 RMK AC5CI2 SLP165=

CYXE;2005-07-22 22:00;METAR CYXE 222200Z 13015KT 15SM BKN081 OVC300 24/13 A2998 RMK AC5CI2 SLP157=

CYXE;2005-07-22 23:00;METAR CYXE 222300Z 13011KT 15SM SCT110 OVC200 24/13 A2996 RMK AC4CI4 SLP153=

CYXE;2005-07-23 00:00;METAR CYXE 230000Z 14013KT 15SM BKN098 OVC200 24/13 A2995 RMK AC5CI3 SLP146=

CYXE;2005-07-23 01:00;METAR CYXE 230100Z 12010G17KT 15SM SCT098 OVC200 23/13 A2992 RMK AC3CI3 SLP137=

CYXE;2005-07-23 02:00;METAR CYXE 230200Z 14009KT 15SM BKN088 OVC200 22/14 A2990 RMK AC5CI2 SLP130=

CYXE;2005-07-23 03:00;METAR CYXE 230300Z 13011KT 15SM SCT093 OVC220 21/13 A2987 RMK AC3CI5 SLP116=

CYXE;2005-07-23 04:00;METAR CYXE 230400Z 13016KT 15SM SCT096 BKN120 OVC220 21/13 A2986 RMK AC3AC3CI2 SLP112=

CYXE;2005-07-23 04:42;SPECI CYXE 230442Z 13015G22KT 15SM -SHRA BKN073 OVC120 20/ RMK AC5AC3=

CYXE;2005-07-23 05:00;METAR CYXE 230500Z 13015G24KT 15SM -SHRA BKN073 OVC120 20/13 A2980 RMK AC6AC2 SLP093=

CYXE;2005-07-23 05:19;SPECI CYXE 230519Z 13017G26KT 15SM BKN073 OVC120 20/ RMK AC6AC2=

CYXE;2005-07-23 06:00;METAR CYXE 230600Z 14011G17KT 15SM VCSH SCT080 OVC120 20/14 A2978 RMK AC4AC4 SLP086=

CYXE;2005-07-23 07:00;METAR CYXE 230700Z 14011KT 15SM VCSH BKN080 OVC120 19/14 A2977 RMK AC5AC3 SLP082=

CYXE;2005-07-23 07:35;SPECI CYXE 230735Z 13008KT 15SM VCSH FEW020 BKN070 18/ RMK SC2ACC6=

CYXE;2005-07-23 08:00;METAR CYXE 230800Z 12008KT 15SM FEW020 BKN070 18/15 A2971 RMK SC2AC5=

CYXE;2005-07-23 09:00;METAR CYXE 230900Z 12007KT 15SM SCT080 17/15 A2968 RMK AC2 SLP052=

CYXE;2005-07-23 10:00;METAR CYXE 231000Z 12007KT 15SM BKN100 17/14 A2966 RMK AC6 SLP045=

CYXE;2005-07-23 11:00;METAR CYXE 231100Z 14007KT 15SM BKN100 17/15 A2963 RMK ACC5 CB + LTNG=

CYXE;2005-07-23 12:00;METAR CYXE 231200Z 16009KT 15SM BKN100 17/15 A2960 RMK ACC6 CB + LTNG=

CYXE;2005-07-23 13:00;METAR CYXE 231300Z 17011KT 15SM BKN100 19/16 A2958 RMK ACC6 SLP017=

CYXE;2005-07-23 14:00;METAR CYXE 231400Z 19007KT 15SM FEW100 20/17 A2957 RMK AC2 ACC ASOCTD SLP014=

CYXE;2005-07-23 15:00;METAR CYXE 231500Z 24019KT 15SM FEW100 21/16 A2957 RMK ACC1 SLP013=

CYXE;2005-07-23 16:00;METAR CYXE 231600Z 24020G27KT 15SM FEW025 22/15 A2957 RMK SC1 SLP012=

CYXE;2005-07-23 17:00;METAR CYXE 231700Z 26021G31KT 15SM BKN030 21/14 A2959 RMK SC5 CU ASOCTD SLP020=

CYXE;2005-07-23 18:00;METAR CYXE 231800Z 26020G29KT 15SM BKN030 21/14 A2961 RMK CU7 SLP029=

CYXE;2005-07-23 19:00;METAR CYXE 231900Z 27023G28KT 15SM BKN040 22/13 A2962 RMK CU7 SLP033=

CYXE;2005-07-23 20:00;METAR CYXE 232000Z 28021G26KT 15SM BKN045 23/13 A2963 RMK CU7 SLP034=

CYXE;2005-07-23 21:00;METAR CYXE 232100Z 28026G32KT 15SM SCT050 24/12 A2964 RMK CU4 SLP037=

CYXE;2005-07-23 22:00;METAR CYXE 232200Z 29031G36KT 15SM BKN060 24/11 A2967 RMK CU5 SLP046=

CYXE;2005-07-23 23:00;METAR CYXE 232300Z 29027G35KT 15SM SCT056 23/11 A2969 RMK CU3 SLP055=

CYXE;2005-07-24 00:00;METAR CYXE 240000Z 28030G37KT 15SM FEW054 23/11 A2971 RMK CU2 SLP064=

CYXE;2005-07-24 01:00;METAR CYXE 240100Z 29022G28KT 15SM FEW057 22/10 A2973 RMK CU2 SLP071=

CYXE;2005-07-24 02:00;METAR CYXE 240200Z 29020G29KT 15SM FEW057 FEW220 20/10 A2976 RMK CU1CI1 SLP079=

CYXE;2005-07-24 03:00;METAR CYXE 240300Z 30018KT 15SM FEW057 FEW100 19/10 A2977 RMK CU1AC1 SLP085=

CYXE;2005-07-24 04:00;METAR CYXE 240400Z 30012KT 15SM FEW057 FEW100 16/10 A2980 RMK CU1AC1 SLP093=

CYXE;2005-07-24 05:00;METAR CYXE 240500Z 28011KT 15SM FEW100 15/10 A2981 RMK AC1 SLP097=

CYXE;2005-07-24 06:00;METAR CYXE 240600Z 28011G17KT 15SM FEW100 15/10 A2982 RMK AC1 SLP105=

CYXE;2005-07-24 07:00;METAR CYXE 240700Z 30017G25KT 15SM SKC 14/09 A2984 RMK SLP111=

CYXE;2005-07-24 08:00;METAR CYXE 240800Z 31021G28KT 15SM SKC 12/07 A2986 RMK SLP115=

CYXE;2005-07-24 09:00;METAR CYXE 240900Z 30014KT 15SM FEW018 10/07 A2989 RMK SC1 SLP127=

CYXE;2005-07-24 10:00;METAR CYXE 241000Z 30015G21KT 15SM OVC020 10/07 A2990 RMK SC8 SLP132=

CYXE;2005-07-24 11:00;METAR CYXE 241100Z 30010KT 15SM SCT025 10/06 A2991 RMK SC4 SLP135=

CYXE;2005-07-24 11:30;SPECI CYXE 241130Z 29012KT 15SM BKN024 10/ RMK SC7=

CYXE;2005-07-24 12:00;METAR CYXE 241200Z 29013G19KT 15SM OVC024 10/06 A2994 RMK SC7 SLP145=

CYXE;2005-07-24 13:00;METAR CYXE 241300Z 28014G20KT 15SM FEW025 11/06 A2997 RMK SC1 SLP155=

CYXE;2005-07-24 14:00;METAR CYXE 241400Z 30015G20KT 15SM BKN024 11/06 A2998 RMK SC6 SLP159=

CYXE;2005-07-24 15:00;METAR CYXE 241500Z 30014G20KT 15SM SCT025 12/07 A2998 RMK SC3 SLP159=

CYXE;2005-07-24 16:00;METAR CYXE 241600Z 30014G20KT 15SM FEW025 13/07 A2998 RMK SC2 SLP161=

CYXE;2005-07-24 17:00;METAR CYXE 241700Z 30015KT 15SM FEW025 FEW060 14/07 A2999 RMK SC1SC2 SLP162=

CYXE;2005-07-24 18:00;METAR CYXE 241800Z 32014KT 15SM FEW030 SCT090 16/08 A2999 RMK SC2AC2 SLP166=

CYXE;2005-07-24 19:00;METAR CYXE 241900Z 31011G19KT 15SM SCT030 BKN080 16/08 A2999 RMK SC3AC2 SLP166=

CYXE;2005-07-24 20:00;METAR CYXE 242000Z 32015KT 15SM SCT030 BKN080 15/07 A3000 RMK SC3AC3 SLP167=

CYXE;2005-07-24 21:00;METAR CYXE 242100Z 31015KT 15SM BKN032 BKN085 15/07 A3001 RMK SC5AC2 SLP175=

CYXE;2005-07-24 21:47;SPECI CYXE 242147Z 32010G16KT 15SM VCSH SCT035 BKN085 13/ RMK SC3AC4=

CYXE;2005-07-24 22:00;METAR CYXE 242200Z 32010KT 15SM SCT038 BKN087 14/07 A3003 RMK SC3AC4 SLP180=

CYXE;2005-07-24 22:16;SPECI CYXE 242216Z 33011G16KT 15SM -SHRA SCT032 BKN087 13/ RMK SC4AC3=

CYXE;2005-07-24 23:00;METAR CYXE 242300Z 33013G18KT 15SM BKN034 BKN089 14/06 A3003 RMK SC5AC2 SLP180=

CYXE;2005-07-25 00:00;METAR CYXE 250000Z 31009G15KT 15SM BKN034 BKN087 14/07 A3004 RMK SC6AC1 SLP185=

CYXE;2005-07-25 01:00;METAR CYXE 250100Z 30010KT 15SM SCT035 BKN120 13/06 A3004 RMK SC4AC2 CU EMBD SLP186=

CYXE;2005-07-25 02:00;METAR CYXE 250200Z 31007KT 15SM FEW049 FEW080 SCT230 13/07 A3005 RMK SC2AC1CI0 SLP187=

CYXE;2005-07-25 03:00;METAR CYXE 250300Z 27004KT 15SM FEW049 FEW080 FEW230 10/07 A3005 RMK SC1AC1CI0 SLP190=

CYXE;2005-07-25 04:00;METAR CYXE 250400Z 29005KT 15SM FEW049 FEW080 09/06 A3006 RMK SC1AC1 SLP192=

CYXE;2005-07-25 05:00;METAR CYXE 250500Z 28007KT 15SM FEW080 07/05 A3006 RMK AC1 SLP194=

CYXE;2005-07-25 06:00;METAR CYXE 250600Z 27007KT 15SM SKC 06/05 A3008 RMK SLP199=

CYXE;2005-07-25 07:00;METAR CYXE 250700Z 27007KT 15SM SKC 05/04 A3009 RMK SLP202=

CYXE;2005-07-25 08:00;METAR CYXE 250800Z 27008KT 15SM SKC 06/05 A3009 RMK SLP204=

CYXE;2005-07-25 09:00;METAR CYXE 250900Z 26006KT 15SM SKC 05/04 A3010 RMK SLP209=

CYXE;2005-07-25 10:00;METAR CYXE 251000Z 26006KT 15SM FEW200 04/03 A3010 RMK CI1 SLP207=

CYXE;2005-07-25 11:00;METAR CYXE 251100Z 28006KT 15SM FEW120 03/03 A3010 RMK AC1 SLP209=

CYXE;2005-07-25 12:00;METAR CYXE 251200Z 30005KT 15SM SKC 04/03 A3012 RMK SLP215=

CYXE;2005-07-25 13:00;METAR CYXE 251300Z 31009KT 15SM FEW120 08/07 A3013 RMK AC1 SLP219=

CYXE;2005-07-25 14:00;METAR CYXE 251400Z 32009KT 15SM FEW008 FEW120 10/08 A3014 RMK CF1AC0 SLP222=

CYXE;2005-07-25 15:00;METAR CYXE 251500Z 32008KT 15SM FEW012 FEW120 12/08 A3015 RMK CF1AC1 SLP224=

CYXE;2005-07-25 16:00;METAR CYXE 251600Z 35008KT 15SM BKN018 13/08 A3016 RMK SC6 SLP226=

CYXE;2005-07-25 17:00;METAR CYXE 251700Z 35005KT 15SM BKN026 13/07 A3016 RMK SC6 SLP228=

CYXE;2005-07-25 18:00;METAR CYXE 251800Z 34003KT 15SM BKN028 14/07 A3017 RMK SC6 SLP231=

CYXE;2005-07-25 19:00;METAR CYXE 251900Z 33007KT 15SM BKN043 16/08 A3017 RMK SC6 SLP232=

CYXE;2005-07-25 20:00;METAR CYXE 252000Z 31006KT 15SM BKN040 15/08 A3017 RMK SC5 SLP232=

CYXE;2005-07-25 21:00;METAR CYXE 252100Z 32008KT 15SM BKN040 17/08 A3017 RMK CU5 SLP229=

CYXE;2005-07-25 22:00;METAR CYXE 252200Z 35009KT 15SM SCT045 18/08 A3016 RMK CU4 SLP226=

CYXE;2005-07-25 23:00;METAR CYXE 252300Z 33006KT 15SM SCT045 18/07 A3015 RMK CU3 SLP225=

CYXE;2005-07-26 00:00;METAR CYXE 260000Z 32006KT 15SM FEW050 18/07 A3014 RMK CU2 SLP222=

CYXE;2005-07-26 01:00;METAR CYXE 260100Z 34002KT 15SM FEW050 17/06 A3013 RMK SC2 SLP219=

CYXE;2005-07-26 02:00;METAR CYXE 260200Z 04002KT 15SM SKC 17/07 A3013 RMK SLP219=

CYXE;2005-07-26 03:00;METAR CYXE 260300Z 00000KT 15SM SKC 15/06 A3013 RMK SLP216=

CYXE;2005-07-26 04:00;METAR CYXE 260400Z 19002KT 15SM FEW300 13/06 A3014 RMK CI1 SLP218=

CYXE;2005-07-26 05:00;METAR CYXE 260500Z 22005KT 15SM FEW300 10/09 A3014 RMK CI1 SLP219=

CYXE;2005-07-26 06:00;METAR CYXE 260600Z 21005KT 15SM SKC 09/08 A3015 RMK SLP222=

CYXE;2005-07-26 07:00;METAR CYXE 260700Z 20007KT 15SM SKC 09/07 A3014 RMK SLP221=

CYXE;2005-07-26 08:00;METAR CYXE 260800Z 19005KT 15SM SKC 09/07 A3013 RMK SLP216=

CYXE;2005-07-26 09:00;METAR CYXE 260900Z 21004KT 15SM SKC 08/06 A3012 RMK SLP213=

CYXE;2005-07-26 10:00;METAR CYXE 261000Z 22005KT 15SM FEW300 06/05 A3012 RMK CI1 SLP213=

CYXE;2005-07-26 11:00;METAR CYXE 261100Z 20007KT 15SM FEW100 BKN300 07/06 A3011 RMK AC2CI0 SLP209=

CYXE;2005-07-26 12:00;METAR CYXE 261200Z 23004KT 15SM BKN069 BKN300 07/06 A3011 RMK AC5CI0 SLP209=

CYXE;2005-07-26 13:00;METAR CYXE 261300Z 00000KT 15SM BKN050 BKN300 09/07 A3010 RMK SC6CI0 VIRGA SLP206=

CYXE;2005-07-26 14:00;METAR CYXE 261400Z 24004KT 15SM BKN070 BKN300 11/09 A3011 RMK ACC6CI1 VIRGA SLP208=

CYXE;2005-07-26 15:00;METAR CYXE 261500Z 25002KT 15SM SCT070 BKN300 13/10 A3011 RMK ACC4CI1 SLP207=

CYXE;2005-07-26 16:00;METAR CYXE 261600Z 31002KT 15SM SCT070 BKN300 15/10 A3012 RMK ACC3CI1 SLP210=

CYXE;2005-07-26 17:00;METAR CYXE 261700Z 33004KT 15SM FEW030 FEW070 BKN300 18/11 A3012 RMK CU1AC2CI2 SLP209=

CYXE;2005-07-26 18:00;METAR CYXE 261800Z 31007KT 15SM BKN040TCU BKN080 20/11 A3011 RMK TCU5AC1 SLP205=

CYXE;2005-07-26 19:00;METAR CYXE 261900Z 35010G15KT 15SM SCT050TCU BKN090 20/10 A3010 RMK TCU3AC1 SLP203=

CYXE;2005-07-26 20:00;METAR CYXE 262000Z 32010G15KT 15SM BKN050TCU BKN080 BKN300 19/08 A3010 RMK TCU5AC1CI0 CB S-SW MOVG E SLP202=

CYXE;2005-07-26 20:21;SPECI CYXE 262021Z 31010KT 15SM -SHRA BKN050CB BKN080 OVC300 17/ RMK CB6AC1CI1 CB SE-SW MOVG E=

CYXE;2005-07-26 21:00;METAR CYXE 262100Z 33005KT 15SM -SHRA SCT040 BKN080 BKN300 15/13 A3011 RERA RMK SC3AC2CI1 CB E SLP211=

CYXE;2005-07-26 21:11;SPECI CYXE 262111Z 36006KT 15SM FEW040TCU BKN080 BKN300 16/ RMK TCU2AC3CI0 CB DIST E=

CYXE;2005-07-26 22:00;METAR CYXE 262200Z 03008KT 15SM FEW018 SCT035TCU SCT072 BKN300 16/11 A3011 RMK SC2TCU2AC1CI0 CB TOP E SLP210=

CYXE;2005-07-26 23:00;METAR CYXE 262300Z 35009KT 15SM FEW030TCU SCT050 SCT068 BKN300 17/11 A3010 RMK TCU2SC2AC1CI1 SLP206=

CYXE;2005-07-27 00:00;METAR CYXE 270000Z 34009KT 15SM SCT040 BKN300 17/10 A3009 RMK CU3CI1 TCU ASOCTD SLP202=

CYXE;2005-07-27 01:00;METAR CYXE 270100Z 33009KT 15SM FEW042 BKN300 17/10 A3008 RMK CU2CI1 SLP200=

CYXE;2005-07-27 02:00;METAR CYXE 270200Z 31003KT 15SM FEW047 OVC280 15/11 A3008 RMK CU1CI4 SLP198=

CYXE;2005-07-27 03:00;METAR CYXE 270300Z 26004KT 15SM FEW044 SCT062 OVC280 14/12 A3008 RMK SC2SC1CI3 SLP197=

CYXE;2005-07-27 04:00;METAR CYXE 270400Z 36002KT 15SM FEW055 OVC280 14/10 A3008 RMK SC2CI3 SLP199=

CYXE;2005-07-27 05:00;METAR CYXE 270500Z 34005KT 15SM FEW055 OVC280 11/10 A3008 RMK SC2CI6 SLP198=

CYXE;2005-07-27 06:00;METAR CYXE 270600Z 04005KT 15SM FEW050 OVC280 11/09 A3008 RMK SC1CI6 SLP193=

CYXE;2005-07-27 07:00;METAR CYXE 270700Z 06005KT 15SM FEW100 OVC280 11/10 A3008 RMK AC1CS6 SLP193=

CYXE;2005-07-27 08:00;METAR CYXE 270800Z 08004KT 15SM SCT080 OVC280 11/10 A3007 RMK AC3CS4 SLP192=

CYXE;2005-07-27 08:49;SPECI CYXE 270849Z 08004KT 15SM -SHRA FEW040 BKN060 OVC280 11/ RMK SC2SC5CI2=

CYXE;2005-07-27 09:00;METAR CYXE 270900Z 08004KT 15SM -SHRA FEW040 OVC060 11/09 A3008 RMK SC2SC6 SLP196=

CYXE;2005-07-27 09:13;SPECI CYXE 270913Z 10002KT 15SM VCSH FEW045 BKN060 OVC280 11/ RMK SC1SC6CI2=

CYXE;2005-07-27 10:00;METAR CYXE 271000Z 17002KT 15SM SCT060 BKN090 BKN280 11/10 A3008 RMK SC3AC2CI2 SLP196=

CYXE;2005-07-27 11:00;METAR CYXE 271100Z 16004KT 15SM FEW045 BKN060 BKN280 12/10 A3007 RMK SC1SC6CI1 SLP193=

CYXE;2005-07-27 12:00;METAR CYXE 271200Z 14003KT 15SM BKN080 OVC280 12/09 A3006 RMK AC6CI2 SLP188=

CYXE;2005-07-27 13:00;METAR CYXE 271300Z 14004KT 15SM BKN090 BKN280 12/10 A3005 RMK AC5CI2 SLP187=

CYXE;2005-07-27 14:00;METAR CYXE 271400Z 18004KT 15SM BKN090 14/11 A3005 RMK AC7 SLP185=

CYXE;2005-07-27 15:00;METAR CYXE 271500Z 00000KT 15SM FEW015 OVC080 14/11 A3006 RMK CU1AC7 -SHRA NW SLP191=

CYXE;2005-07-27 15:31;SPECI CYXE 271531Z 00000KT 15SM -RA FEW015 OVC075 RMK CU1AC7=

CYXE;2005-07-27 16:00;METAR CYXE 271600Z 36002KT 12SM -RA FEW010 OVC060 14/12 A3007 RMK CU1SC7 SLP192=

CYXE;2005-07-27 16:36;SPECI CYXE 271636Z 33002KT 12SM -RA FEW010 BKN029 OVC060 RMK CU2SC3SC3=

CYXE;2005-07-27 17:00;METAR CYXE 271700Z 28002KT 8SM -RA FEW010 SCT035 OVC050 14/12 A3007 RMK CU2SC2SC4 SLP192=

CYXE;2005-07-27 17:49;SPECI CYXE 271749Z 29004KT 10SM -RA BKN013 OVC030 15/ RMK CU6SC2=

CYXE;2005-07-27 18:00;METAR CYXE 271800Z 36003KT 10SM -RA BKN013 OVC030 15/12 A3005 RMK CU6SC2 SLP189=

CYXE;2005-07-27 19:00;METAR CYXE 271900Z 27002KT 15SM -RA BKN019 16/11 A3005 RMK CU7 SLP187=

CYXE;2005-07-27 19:27;SPECI CYXE 271927Z 34003KT 15SM BKN017 OVC035 16/ RMK CU6SC2=

CYXE;2005-07-27 20:00;METAR CYXE 272000Z 29003KT 15SM BKN017 BKN040 16/12 A3004 RMK CU5SC2 SLP186=

CYXE;2005-07-27 21:00;METAR CYXE 272100Z 02009KT 10SM -SHRA BKN020TCU OVC040 14/12 A3005 RMK TCU6SC2 SLP189=

CYXE;2005-07-27 21:10;SPECI CYXE 272110Z 03009KT 3SM -SHRA BKN014TCU OVC030 14/ RMK TCU6SC2=

CYXE;2005-07-27 21:25;SPECI CYXE 272125Z 03009KT 12SM VCSH SCT012 BKN040TCU 15/ RMK CU3TCU4 -SHRA NE-SE-S=

CYXE;2005-07-27 22:00;METAR CYXE 272200Z 02008KT 15SM SCT017 BKN030TCU 16/12 A3006 RMK SF3TCU2 SLP190=

CYXE;2005-07-27 23:00;METAR CYXE 272300Z 02006KT 15SM BKN021 16/11 A3006 RMK CU6 TCU ASOCTD SLP192=

CYXE;2005-07-28 00:00;METAR CYXE 280000Z 04009KT 15SM SCT028 SCT068 16/10 A3006 RMK CU3AC1 SLP189=

CYXE;2005-07-28 01:00;METAR CYXE 280100Z 05007KT 15SM FEW034 FEW066 FEW300 16/09 A3006 RMK CU1AC1CI0 SLP189=

CYXE;2005-07-28 02:00;METAR CYXE 280200Z 04005KT 15SM FEW034 FEW300 15/09 A3007 RMK CU1CI0 SLP192=

CYXE;2005-07-28 03:00;METAR CYXE 280300Z 06005KT 15SM BKN300 12/08 A3007 RMK CI2 SLP193=

CYXE;2005-07-28 04:00;METAR CYXE 280400Z 07002KT 15SM BKN300 12/09 A3008 RMK CI2 SLP196=

CYXE;2005-07-28 05:00;METAR CYXE 280500Z 00000KT 15SM SCT300 10/08 A3008 RMK CI1 SLP199=

CYXE;2005-07-28 06:00;METAR CYXE 280600Z 00000KT 15SM SCT300 09/08 A3009 RMK CI1 SLP203=

CYXE;2005-07-28 07:00;METAR CYXE 280700Z 24002KT 10SM R09/3500VP6000FT/D MIFG SCT300 07/07 A3009 RMK CI1 SLP203=

CYXE;2005-07-28 08:00;METAR CYXE 280800Z 25003KT 6SM R09/2000VP6000FT/D MIFG SCT300 07/06 A3009 RMK CI1 SLP202=

CYXE;2005-07-28 09:00;METAR CYXE 280900Z 00000KT 10SM R09/1800VP6000FT/D MIFG SCT300 06/06 A3008 RMK CI1 SLP201=

CYXE;2005-07-28 09:20;SPECI CYXE 280920Z 29002KT 2SM R09/2000VP6000FT/D BR SCT300 06/ RMK CI1=

CYXE;2005-07-28 10:00;METAR CYXE 281000Z 30003KT 1SM R09/2400V4000FT/N BR BKN300 04/04 A3008 RMK CI1 SLP203=

CYXE;2005-07-28 10:10;SPECI CYXE 281010Z 30002KT 1/2SM R09/2000FT/N FG BKN300 05/ RMK CI1=

CYXE;2005-07-28 10:30;SPECI CYXE 281030Z 35002KT 1SM R09/3000VP6000FT/D BR SCT100 BKN300 05/ RMK AC2CI1=

CYXE;2005-07-28 11:00;METAR CYXE 281100Z 00000KT 2SM R09/3500VP6000FT/D BR BKN100 BKN300 04/04 A3008 RMK AC5CI0 SLP202=

CYXE;2005-07-28 11:17;SPECI CYXE 281117Z 05002KT 6SM R09/4500VP6000FT/D BR BKN100 BKN300 06/ RMK AC5CI0=

CYXE;2005-07-28 12:00;METAR CYXE 281200Z 08002KT 8SM SCT100 BKN300 07/06 A3009 RMK AC3CI2 BR SLP204=

CYXE;2005-07-28 13:00;METAR CYXE 281300Z 07003KT 15SM BKN120 BKN300 10/09 A3009 RMK AC4CI2 SLP204=

CYXE;2005-07-28 14:00;METAR CYXE 281400Z 12003KT 15SM BKN120 11/10 A3010 RMK AC7 SLP207=

CYXE;2005-07-28 15:00;METAR CYXE 281500Z 22003KT 15SM BKN100 12/10 A3011 RMK AC7 VIS 6 SE-SW-W FG BANK SE-SW-W MOVG NE SLP210=

CYXE;2005-07-28 16:00;METAR CYXE 281600Z 16004KT 15SM OVC095 13/09 A3009 RMK AC8 -SHRA SW SLP204=

CYXE;2005-07-28 17:00;METAR CYXE 281700Z 12005KT 15SM OVC090 14/09 A3008 RMK AC8 -SHRA SW SLP201=

CYXE;2005-07-28 18:00;METAR CYXE 281800Z 14005KT 12SM -SHRA OVC080 14/10 A3009 RMK AC8 ACC EMBD SLP202=

CYXE;2005-07-28 19:00;METAR CYXE 281900Z 13004KT 12SM -RA FEW050 OVC080 14/10 A3009 RMK SC2AC6 SLP202=

CYXE;2005-07-28 19:33;SPECI CYXE 281933Z 12006KT 15SM FEW015 OVC060 RMK CU1SC7=

CYXE;2005-07-28 20:00;METAR CYXE 282000Z 13007KT 15SM VCSH FEW015 OVC060 14/09 A3008 RMK CU1SC7 -SHRA NW SLP198=

CYXE;2005-07-28 21:00;METAR CYXE 282100Z 12007KT 15SM BKN075 16/09 A3007 RMK AC7 -SHRA N SLP197=

CYXE;2005-07-28 22:00;METAR CYXE 282200Z 14010G16KT 15SM SCT080 OVC330 17/08 A3004 RMK AC3CS2 SLP188=

CYXE;2005-07-28 23:00;METAR CYXE 282300Z 15010G15KT 15SM SCT085 OVC330 18/08 A3003 RMK AC3CS2 SLP185=

CYXE;2005-07-29 00:00;METAR CYXE 290000Z 14011KT 15SM FEW091 OVC330 18/10 A3002 RMK AC2CS3 SLP178=

CYXE;2005-07-29 01:00;METAR CYXE 290100Z 15008G15KT 15SM FEW090 OVC330 18/08 A3000 RMK AC2CS6 SLP173=

CYXE;2005-07-29 02:00;METAR CYXE 290200Z 12008KT 15SM FEW090 OVC330 17/08 A2999 RMK AC2CS6 SLP168=

CYXE;2005-07-29 03:00;METAR CYXE 290300Z 09009KT 15SM FEW100 BKN330 15/10 A2997 RMK AC2CS2 SLP160=

CYXE;2005-07-29 04:00;METAR CYXE 290400Z 12011KT 15SM BKN330 14/09 A2996 RMK CS3 SLP156=

CYXE;2005-07-29 05:00;METAR CYXE 290500Z 12010KT 15SM BKN330 15/08 A2996 RMK CS2 SLP157=

CYXE;2005-07-29 06:00;METAR CYXE 290600Z 13007KT 15SM FEW040CB SCT080 OVC330 14/09 A2996 RMK CB1AC3CS2 CB + LTNG SW SLP156=

CYXE;2005-07-29 07:00;METAR CYXE 290700Z 16004KT 15SM -SHRA SCT030CB BKN080 OVC300 13/10 A2999 RMK CB3AC4CI1 CB + LTNG S-SW SLP164=

CYXE;2005-07-29 07:13;SPECI CYXE 290713Z 20006KT 15SM -TSRA BKN030CB OVC080 13/ RMK CB5AC3 LTGICCG S-W=

CYXE;2005-07-29 08:00;METAR CYXE 290800Z 19008KT 15SM -TSRA BKN030CB OVC070 12/11 A2995 RMK CB5AC3 LTGICCG SE-S SLP153=

CYXE;2005-07-29 08:10;SPECI CYXE 290810Z 18012KT 15SM -SHRA BKN030CB OVC070 12/ RETS RMK CB5AC3 LTNG SE=

CYXE;2005-07-29 08:42;SPECI CYXE 290842Z 00000KT 15SM -SHRA BKN009 OVC070 12/ RETS RMK ST5ACC3=

CYXE;2005-07-29 09:00;METAR CYXE 290900Z 17009KT 15SM -SHRA FEW007 SCT025 OVC080 13/12 A2992 RETS RMK ST2SC2ACC5 SLP140=

CYXE;2005-07-29 09:51;SPECI CYXE 290951Z 18009G15KT 15SM BKN030 OVC070 14/ RMK SC5AC2=

CYXE;2005-07-29 10:49;SPECI CYXE 291049Z 17005KT 15SM SCT040 BKN070 14/ RMK SC3AC3=

CYXE;2005-07-29 11:00;METAR CYXE 291100Z 16005KT 15SM SCT040 BKN070 14/13 A2990 RMK SC3AC3 SLP136=

CYXE;2005-07-29 12:00;METAR CYXE 291200Z 10005KT 15SM SCT070 BKN300 13/12 A2990 RMK ACC2CI1 SLP135=

CYXE;2005-07-29 13:00;METAR CYXE 291300Z 15003KT 15SM SCT100 BKN300 16/13 A2991 RMK AC2CI1 SLP138=

CYXE;2005-07-29 14:00;METAR CYXE 291400Z 16011KT 15SM FEW014 FEW100 16/13 A2992 RMK CF1AC1 SLP139=

CYXE;2005-07-29 15:00;METAR CYXE 291500Z 16007KT 15SM FEW017 FEW100 17/14 A2992 RMK CF2AC1 SLP138=

CYXE;2005-07-29 16:00;METAR CYXE 291600Z 22006KT 15SM BKN019 18/14 A2993 RMK SC7 SLP142=

CYXE;2005-07-29 17:00;METAR CYXE 291700Z 19004KT 15SM BKN017 18/14 A2992 RMK SC7 SLP138=

CYXE;2005-07-29 18:00;METAR CYXE 291800Z 21003KT 15SM BKN019 20/15 A2992 RMK SC6 SLP137=

CYXE;2005-07-29 19:00;METAR CYXE 291900Z 00000KT 15SM BKN024 21/15 A2990 RMK CU5 SLP133=

CYXE;2005-07-29 20:00;METAR CYXE 292000Z 19004KT 15SM FEW026 22/15 A2990 RMK CU2 SLP133=

CYXE;2005-07-29 21:00;METAR CYXE 292100Z 30002KT 15SM FEW030 23/15 A2990 RMK CU2 SLP131=

CYXE;2005-07-29 22:00;METAR CYXE 292200Z 26003KT 15SM FEW036 24/15 A2990 RMK CU2 SLP131=

CYXE;2005-07-29 23:00;METAR CYXE 292300Z 36004KT 15SM FEW040 24/14 A2988 RMK CU1 SLP125=

CYXE;2005-07-30 00:00;METAR CYXE 300000Z 21002KT 15SM FEW040 24/14 A2988 RMK CU1 SLP124=

CYXE;2005-07-30 01:00;METAR CYXE 300100Z 28002KT 15SM FEW250 25/15 A2988 RMK CI1 SLP122=

CYXE;2005-07-30 02:00;METAR CYXE 300200Z 30002KT 15SM FEW250 24/16 A2988 RMK CI1 SLP123=

CYXE;2005-07-30 03:00;METAR CYXE 300300Z 04002KT 15SM SCT250 20/15 A2989 RMK CI2 SLP127=

CYXE;2005-07-30 04:00;METAR CYXE 300400Z 11004KT 15SM FEW110 BKN250 19/14 A2989 RMK AC2CI3 SLP126=

CYXE;2005-07-30 05:00;METAR CYXE 300500Z 13005KT 15SM SCT110 BKN250 18/15 A2988 RMK AC3CI3 SLP124=

CYXE;2005-07-30 06:00;METAR CYXE 300600Z 14004KT 15SM FEW110 OVC250 18/15 A2988 RMK AC2CI5 SLP124=

CYXE;2005-07-30 07:00;METAR CYXE 300700Z 14005KT 15SM FEW110 OVC250 17/15 A2988 RMK AC2CI5 SLP124=

CYXE;2005-07-30 08:00;METAR CYXE 300800Z 13004KT 15SM FEW050CB BKN090 OVC250 17/15 A2989 RMK CB2AC5CI2 LTNG S-W SLP125=

CYXE;2005-07-30 08:21;SPECI CYXE 300821Z 27009KT 10SM -TSRA SCT050CB OVC070 16/ RMK CB4AC4 LTGCG SE-S-W=

CYXE;2005-07-30 09:00;METAR CYXE 300900Z 25007KT 8SM +TSRA OVC040CB 17/16 A2998 RMK CB8 LTGCGIC ALQDS SLP154=

CYXE;2005-07-30 10:00;METAR CYXE 301000Z 06011KT 10SM TSRA OVC040CB 17/16 A2990 RERA RMK CB8 LTGCGIC W E PRESFR SLP129=

CYXE;2005-07-30 10:45;SPECI CYXE 301045Z 31006G16KT 10SM +SHRA FEW009 OVC027CB RETS RMK CF2CB6=

CYXE;2005-07-30 11:00;METAR CYXE 301100Z 04013KT 10SM SHRA FEW009 BKN030TCU BKN090 16/15 A2984 RETSRA RMK CF2TCU4AC2 PRESFR SLP111=

CYXE;2005-07-30 11:26;SPECI CYXE 301126Z 12005KT 15SM FEW008 BKN035TCU BKN090 16/ RERA RMK CF1TCU4AC2 SHRA NE SW=

CYXE;2005-07-30 12:00;METAR CYXE 301200Z 32005KT 15SM FEW008 SCT035TCU BKN090 15/15 A2990 RERA RMK CF1TCU2AC3 SHRA NE-SE-S /R10/ SLP129=

CYXE;2005-07-30 13:00;METAR CYXE 301300Z 30006KT 15SM FEW090 16/15 A2991 RMK AC1 SLP133=

CYXE;2005-07-30 14:00;METAR CYXE 301400Z 30004KT 15SM FEW090 17/16 A2993 RMK AC1 SLP138=

CYXE;2005-07-30 15:00;METAR CYXE 301500Z 30005KT 15SM FEW090 20/16 A2995 RMK AC1 SLP146=

CYXE;2005-07-30 16:00;METAR CYXE 301600Z 30004KT 15SM FEW230 21/16 A2997 RMK CI1 SLP153=

CYXE;2005-07-30 17:00;METAR CYXE 301700Z 26002KT 15SM FEW230 22/16 A2998 RMK CI1 SLP155=

CYXE;2005-07-30 18:00;METAR CYXE 301800Z 28002KT 15SM FEW032 FEW230 24/16 A2998 RMK CU1CI0 SLP154=

CYXE;2005-07-30 19:00;METAR CYXE 301900Z 30005KT 15SM FEW035 FEW230 25/16 A2999 RMK CU1CI1 SLP156=

CYXE;2005-07-30 20:00;METAR CYXE 302000Z 30006KT 15SM FEW045 BKN230 26/17 A2999 RMK CU2CI2 SLP157=

CYXE;2005-07-30 21:00;METAR CYXE 302100Z 31006KT 15SM FEW050 BKN230 26/16 A2999 RMK CU2CI2 SLP157=

CYXE;2005-07-30 22:00;METAR CYXE 302200Z 27006KT 15SM FEW050 BKN250 27/15 A2998 RMK CU2CI2 SLP154=

CYXE;2005-07-30 23:00;METAR CYXE 302300Z 30005KT 15SM FEW050 BKN250 27/13 A2998 RMK CU1CI2 SLP155=

CYXE;2005-07-31 00:00;METAR CYXE 310000Z 32003KT 15SM BKN250 27/15 A2999 RMK CI2 SLP156=

CYXE;2005-07-31 01:00;METAR CYXE 310100Z 30003KT 15SM BKN250 26/15 A2998 RMK CI2 SLP155=

CYXE;2005-07-31 02:00;METAR CYXE 310200Z 28002KT 15SM BKN250 24/18 A2999 RMK CI5 SLP157=

CYXE;2005-07-31 03:00;METAR CYXE 310300Z 21003KT 15SM FEW200 BKN250 21/16 A3000 RMK CI2CI3 SLP162=

CYXE;2005-07-31 04:00;METAR CYXE 310400Z 19003KT 15SM BKN250 21/15 A3001 RMK CI4 SLP164=

CYXE;2005-07-31 05:00;METAR CYXE 310500Z 18005KT 15SM BKN250 20/15 A3001 RMK CI4 SLP164=

CYXE;2005-07-31 06:00;METAR CYXE 310600Z 16004KT 15SM SCT250 18/15 A3000 RMK CI2 SLP163=

CYXE;2005-07-31 07:00;METAR CYXE 310700Z 17005KT 15SM SCT250 17/14 A3001 RMK CI2 SLP164=

CYXE;2005-07-31 08:00;METAR CYXE 310800Z 17004KT 15SM FEW250 17/15 A3001 RMK CI1 SLP164=

CYXE;2005-07-31 09:00;METAR CYXE 310900Z 16004KT 15SM FEW250 16/14 A3000 RMK CI1 SLP161=

CYXE;2005-07-31 10:00;METAR CYXE 311000Z 16004KT 15SM FEW250 16/14 A3000 RMK CI1 SLP162=

CYXE;2005-07-31 11:00;METAR CYXE 311100Z 14005KT 15SM FEW250 16/13 A2999 RMK CI1 SLP159=

CYXE;2005-07-31 12:00;METAR CYXE 311200Z 16006KT 15SM FEW250 16/14 A2999 RMK CI1 SLP156=

CYXE;2005-07-31 13:00;METAR CYXE 311300Z 16008KT 15SM FEW250 18/15 A2998 RMK CI1 SLP155=

CYXE;2005-07-31 14:00;METAR CYXE 311400Z 16006KT 15SM BKN250 21/16 A2998 RMK CI1 SLP154=

CYXE;2005-07-31 15:00;METAR CYXE 311500Z 16007KT 15SM BKN250 23/17 A2996 RMK CI1 SLP147=

CYXE;2005-07-31 16:00;METAR CYXE 311600Z 17013KT 15SM BKN250 25/16 A2995 RMK CI2 SLP141=

CYXE;2005-07-31 17:00;METAR CYXE 311700Z 17011KT 15SM BKN250 26/17 A2993 RMK CI3 SLP136=

CYXE;2005-07-31 18:00;METAR CYXE 311800Z 18011KT 15SM BKN250 27/17 A2991 RMK CI3 SLP129=

CYXE;2005-07-31 19:00;METAR CYXE 311900Z 20010G16KT 15SM BKN250 29/19 A2990 RMK CI3 SLP125=

CYXE;2005-07-31 20:00;METAR CYXE 312000Z 20011KT 15SM FEW096 BKN250 29/18 A2989 RMK AC1CI2 SLP123=

CYXE;2005-07-31 21:00;METAR CYXE 312100Z 20007KT 15SM FEW096 BKN250 31/18 A2988 RMK AC1CI2 SLP118=

CYXE;2005-07-31 22:00;METAR CYXE 312200Z 18006KT 15SM BKN250 31/18 A2987 RMK CI5 SLP113=

CYXE;2005-07-31 23:00;METAR CYXE 312300Z 22005KT 15SM BKN250 31/19 A2986 RMK CI5 SLP110=

CYXE;2005-08-01 00:00;METAR CYXE 010000Z 21007KT 15SM BKN250 31/17 A2985 RMK CI4 SLP107=

CYXE;2005-08-01 01:00;METAR CYXE 010100Z 21005KT 15SM SCT250 30/16 A2984 RMK CI2 SLP103=

CYXE;2005-08-01 02:00;METAR CYXE 010200Z 20005KT 15SM FEW250 29/17 A2984 RMK CI1 SLP103=

CYXE;2005-08-01 03:00;METAR CYXE 010300Z 30007KT 15SM FEW250 23/18 A2985 RMK CI1 SLP108=

CYXE;2005-08-01 04:00;METAR CYXE 010400Z 31007KT 15SM FEW250 20/16 A2986 RMK CI1 SLP112=

CYXE;2005-08-01 05:00;METAR CYXE 010500Z 31007KT 15SM FEW250 19/16 A2987 RMK CI1 SLP113=

CYXE;2005-08-01 06:00;METAR CYXE 010600Z 28004KT 15SM SKC 17/15 A2987 RMK SLP117=

CYXE;2005-08-01 07:00;METAR CYXE 010700Z 31006KT 15SM SKC 16/14 A2988 RMK SLP120=

CYXE;2005-08-01 08:00;METAR CYXE 010800Z 31003KT 15SM SKC 15/14 A2988 RMK SLP118=

CYXE;2005-08-01 09:00;METAR CYXE 010900Z 34006KT 15SM SKC 14/13 A2988 RMK SLP118=

CYXE;2005-08-01 10:00;METAR CYXE 011000Z 00000KT 15SM SKC 14/14 A2989 RMK SLP121=

CYXE;2005-08-01 11:00;METAR CYXE 011100Z 21003KT 15SM PRFG SKC 13/13 A2989 RMK VIS NW 1/2 FG SLP121=

CYXE;2005-08-01 13:00;METAR CYXE 011300Z 05002KT 15SM FEW100 17/16 A2990 RMK AC1 SLP126=

CYXE;2005-08-01 14:00;METAR CYXE 011400Z 07008KT 15SM FEW100 FEW250 20/17 A2988 RMK AC1CI1 ACC ASOCTD SLP120=

CYXE;2005-08-01 15:00;METAR CYXE 011500Z 07005KT 15SM FEW100 SCT250 23/18 A2987 RMK AC1CI0 SLP116=

CYXE;2005-08-01 16:00;METAR CYXE 011600Z 12005KT 15SM FEW100 SCT250 26/19 A2986 RMK AC2CI0 ACC ASOCTD SLP113=

CYXE;2005-08-01 17:00;METAR CYXE 011700Z 13007KT 15SM FEW100 BKN250 28/19 A2985 RMK ACC1CI3 SLP108=

CYXE;2005-08-01 18:00;METAR CYXE 011800Z 11006KT 15SM FEW100 OVC250 30/19 A2984 RMK AC2CI2 ACC ASOCTD SLP103=

CYXE;2005-08-01 19:00;METAR CYXE 011900Z 15008KT 15SM SCT110 OVC250 30/18 A2982 RMK AC4CI4 ACC ASOCTD VIRGA SLP099=

CYXE;2005-08-01 20:00;METAR CYXE 012000Z 12008KT 15SM SCT110 OVC250 31/19 A2982 RMK AC4CI3 SLP099=

CYXE;2005-08-01 21:00;METAR CYXE 012100Z 13007KT 15SM SCT110 OVC250 31/19 A2982 RMK AC4CI2 ACC ASOCTD VIRGA SLP098=

CYXE;2005-08-01 22:00;METAR CYXE 012200Z 14009KT 15SM BKN110 OVC250 29/19 A2982 RMK AC6CI2 ACC ASOCTD VIRGA SLP097=

CYXE;2005-08-01 23:00;METAR CYXE 012300Z 06010KT 15SM SCT110 BKN250 28/19 A2977 RMK AC4CI2 ACC ASOCTD SHRA NW SLP081=

CYXE;2005-08-02 00:00;METAR CYXE 020000Z 12006KT 15SM BKN110 BKN250 28/18 A2976 RMK AC5CI2 CB EMBD SHRA S-SW ACC ASOCTD SLP080=

CYXE;2005-08-02 00:46;SPECI CYXE 020046Z 12004KT 15SM TS FEW040CB BKN095 OVC250 RMK CB2AC4CI2 SHRA SE-SW=

CYXE;2005-08-02 01:00;METAR CYXE 020100Z 22025G32KT 15SM TS VCSH BKN045CB BKN090 OVC250 25/17 A2986 RMK CB6AC1CI1 LTGICCCCG SLP112=

CYXE;2005-08-02 01:02;SPECI CYXE 020102Z 21022G32KT 10SM -TSRA BKN045CB OVC090 23/ RMK CB7AC1 LTGICCCCG=

CYXE;2005-08-02 02:00;METAR CYXE 020200Z 00000KT 12SM -TSRA OVC025CB 20/17 A2984 RMK CB8 LTGICCCCG SLP106=

CYXE;2005-08-02 02:31;SPECI CYXE 020231Z 09015KT 15SM -SHRA BKN025CB OVC250 19/ RETS RMK CB6CI1=

CYXE;2005-08-02 02:51;SPECI CYXE 020251Z 10013KT 15SM BKN025CB BKN040 BKN100 BKN250 19/ RETS RMK CB5SC2AC1CI0=

CYXE;2005-08-02 04:00;METAR CYXE 020400Z 14014KT 15SM TS BKN035CB BKN090 BKN250 20/15 A2974 RMK CB5AC1CI1 LTGICCCCG NE-SE SLP072=

CYXE;2005-08-02 04:44;SPECI CYXE 020444Z 12014KT 15SM SCT035CB BKN100 BKN250 RETS RMK CB4AC2CI1 LTGICCG N-E SSE=

CYXE;2005-08-02 05:00;METAR CYXE 020500Z 12011KT 15SM FEW035CB SCT100 22/15 A2972 RETS RMK CB2AC1 LTGICCG N-E-SE SLP067=

CYXE;2005-08-02 06:00;METAR CYXE 020600Z 13008KT 15SM FEW035CB FEW100 21/15 A2972 RMK CB1AC1 LTGIC DIST N SLP062=

CYXE;2005-08-02 07:00;METAR CYXE 020700Z 13010KT 15SM SKC 21/14 A2970 RMK SLP055=

CYXE;2005-08-02 08:00;METAR CYXE 020800Z 13008KT 15SM SKC 20/15 A2969 RMK SLP051=

CYXE;2005-08-02 09:00;METAR CYXE 020900Z 15007KT 15SM SKC 19/15 A2968 RMK SLP048=

CYXE;2005-08-02 10:00;METAR CYXE 021000Z 17005KT 15SM FEW100 18/15 A2968 RMK AC1 SLP046=

CYXE;2005-08-02 11:00;METAR CYXE 021100Z 18004KT 15SM FEW110 BKN240 17/15 A2967 RMK AC2CI2 SLP045=

CYXE;2005-08-02 12:00;METAR CYXE 021200Z 18007KT 15SM FEW110 BKN240 17/15 A2966 RMK AC2CI2 ACC ASOCTD SLP042=

CYXE;2005-08-02 13:00;METAR CYXE 021300Z 21006KT 15SM FEW095 BKN240 18/15 A2967 RMK AC2CI1 SLP045=

CYXE;2005-08-02 14:00;METAR CYXE 021400Z 25010KT 15SM SCT240 19/15 A2968 RMK CI2 SLP051=

CYXE;2005-08-02 15:00;METAR CYXE 021500Z 30016KT 15SM FEW030 BKN300 19/15 A2971 RMK CU2CI2 SLP065=

CYXE;2005-08-02 16:00;METAR CYXE 021600Z 31016KT 15SM FEW018 BKN300 22/16 A2973 RMK CU2CI2 SLP070=

CYXE;2005-08-02 17:00;METAR CYXE 021700Z 30015G20KT 15SM FEW018 BKN300 22/15 A2977 RMK CU1CI1 SLP084=

CYXE;2005-08-02 18:00;METAR CYXE 021800Z 31018KT 15SM FEW120 BKN300 23/14 A2977 RMK AC2CI1 SLP082=

CYXE;2005-08-02 19:00;METAR CYXE 021900Z 29016KT 15SM FEW030 SCT092 BKN300 24/15 A2981 RMK CU1AC1CI1 SLP093=

CYXE;2005-08-02 20:00;METAR CYXE 022000Z 30016G22KT 15SM FEW040 FEW092 BKN300 25/13 A2982 RMK CU1AC1CI0 SLP097=

CYXE;2005-08-02 21:00;METAR CYXE 022100Z 31015KT 15SM FEW040 FEW092 BKN300 26/10 A2984 RMK CU1AC1CI0 SLP106=

CYXE;2005-08-02 22:00;METAR CYXE 022200Z 32014KT 15SM FEW100 BKN300 24/10 A2986 RMK AC1CI1 SLP111=

CYXE;2005-08-02 23:00;METAR CYXE 022300Z 32014G21KT 15SM SCT300 25/07 A2987 RMK CI1 SLP115=

CYXE;2005-08-03 00:00;METAR CYXE 030000Z 30011G16KT 15SM FEW300 24/07 A2988 RMK CI1 SLP120=

CYXE;2005-08-03 01:00;METAR CYXE 030100Z 30006KT 15SM FEW090 FEW300 24/07 A2988 RMK AC1CI0 SLP119=

CYXE;2005-08-03 02:00;METAR CYXE 030200Z 28005KT 15SM FEW090 BKN300 20/10 A2989 RMK ACC2CI1 SLP124=

CYXE;2005-08-03 03:00;METAR CYXE 030300Z 30008KT 15SM BKN080 BKN300 18/09 A2992 RMK ACC3CI1 SLP137=

CYXE;2005-08-03 04:00;METAR CYXE 030400Z 28008KT 15SM BKN090 BKN300 18/09 A2995 RMK ACC6CI0 SLP145=

CYXE;2005-08-03 05:00;METAR CYXE 030500Z 27007KT 15SM BKN090 BKN300 16/09 A2995 RMK ACC6CI0 SLP145=

CYXE;2005-08-03 06:00;METAR CYXE 030600Z 29009KT 15SM BKN084 15/08 A2996 RMK AC5 SLP149=

CYXE;2005-08-03 07:00;METAR CYXE 030700Z 27007KT 15SM FEW084 12/08 A2998 RMK AC1 SLP155=

CYXE;2005-08-03 08:00;METAR CYXE 030800Z 25007KT 15SM SCT250 10/08 A2998 RMK CI1 SLP156=

CYXE;2005-08-03 09:00;METAR CYXE 030900Z 23007KT 15SM FEW250 10/08 A2999 RMK CI1 SLP161=

CYXE;2005-08-03 10:00;METAR CYXE 031000Z 23006KT 15SM FEW250 09/07 A3000 RMK CI0 SLP165=

CYXE;2005-08-03 11:00;METAR CYXE 031100Z 25008KT 15SM SCT250 09/08 A3000 RMK CI2 SLP166=

CYXE;2005-08-03 12:00;METAR CYXE 031200Z 26009KT 15SM SCT250 09/08 A3001 RMK CI2 SLP170=

CYXE;2005-08-03 13:00;METAR CYXE 031300Z 25010KT 15SM SCT250 12/08 A3003 RMK CI1 SLP174=

CYXE;2005-08-03 14:00;METAR CYXE 031400Z 26013KT 15SM FEW250 14/09 A3003 RMK CI1 SLP174=

CYXE;2005-08-03 15:00;METAR CYXE 031500Z 28019KT 15SM FEW032 FEW300 16/09 A3003 RMK CU1CI0 SLP175=

CYXE;2005-08-03 16:00;METAR CYXE 031600Z 29021KT 15SM FEW032 FEW300 18/09 A3003 RMK CU1CI0 SLP175=

CYXE;2005-08-03 17:00;METAR CYXE 031700Z 31017G24KT 15SM FEW032 FEW300 19/08 A3003 RMK CU1CI0 SLP175=

CYXE;2005-08-03 18:00;METAR CYXE 031800Z 30021G26KT 15SM FEW050 21/08 A3002 RMK CU2 SLP173=

CYXE;2005-08-03 19:00;METAR CYXE 031900Z 30019G25KT 15SM SCT055 22/09 A3002 RMK CU3 SLP172=

CYXE;2005-08-03 20:00;METAR CYXE 032000Z 29017G24KT 15SM SCT058 21/08 A3001 RMK CU3 SLP170=

CYXE;2005-08-03 21:00;METAR CYXE 032100Z 29022G27KT 15SM SCT063 23/07 A3001 RMK CU3 SLP169=

CYXE;2005-08-03 22:00;METAR CYXE 032200Z 30019G28KT 15SM FEW070 22/07 A3001 RMK CU2 SLP171=

CYXE;2005-08-03 23:00;METAR CYXE 032300Z 31017G24KT 15SM SCT070 23/06 A3002 RMK CU3 SLP173=

CYXE;2005-08-04 00:00;METAR CYXE 040000Z 31018KT 15SM FEW070 22/07 A3003 RMK CU2 SLP176=

CYXE;2005-08-04 01:00;METAR CYXE 040100Z 30017KT 15SM FEW070 21/06 A3003 RMK AC2 SLP179=

CYXE;2005-08-04 02:00;METAR CYXE 040200Z 32013G19KT 15SM FEW070 FEW300 19/06 A3006 RMK AC1CI0 SLP186=

CYXE;2005-08-04 03:00;METAR CYXE 040300Z 30008KT 15SM FEW080 FEW300 16/07 A3008 RMK AC1CI0 SLP192=

CYXE;2005-08-04 04:00;METAR CYXE 040400Z 29007KT 15SM FEW080 FEW300 11/08 A3010 RMK AC1CI0 SLP199=

CYXE;2005-08-04 05:00;METAR CYXE 040500Z 27007KT 15SM FEW080 FEW300 10/08 A3011 RMK AC1CI0 SLP202=

CYXE;2005-08-04 06:00;METAR CYXE 040600Z 27008KT 15SM SKC 10/07 A3011 RMK SLP206=

CYXE;2005-08-04 07:00;METAR CYXE 040700Z 27008KT 15SM SKC 09/07 A3012 RMK SLP209=

CYXE;2005-08-04 08:00;METAR CYXE 040800Z 26007KT 15SM SKC 08/07 A3013 RMK SLP213=

CYXE;2005-08-04 09:00;METAR CYXE 040900Z 26006KT 15SM SKC 07/06 A3015 RMK SLP218=

CYXE;2005-08-04 10:00;METAR CYXE 041000Z 27007KT 15SM SKC 08/06 A3016 RMK SLP221=

CYXE;2005-08-04 11:00;METAR CYXE 041100Z 27006KT 15SM FEW250 07/05 A3017 RMK CI0 SLP225=

CYXE;2005-08-04 12:00;METAR CYXE 041200Z 25008KT 15SM FEW250 06/05 A3018 RMK CI0 SLP232=

CYXE;2005-08-04 13:00;METAR CYXE 041300Z 27006KT 15SM FEW250 09/07 A3020 RMK CI0 SLP236=

CYXE;2005-08-04 14:00;METAR CYXE 041400Z 27005KT 15SM FEW250 13/09 A3020 RMK CI0 SLP237=

CYXE;2005-08-04 15:00;METAR CYXE 041500Z 28008KT 15SM SKC 17/09 A3021 RMK SLP239=

CYXE;2005-08-04 16:00;METAR CYXE 041600Z 25005KT 15SM SKC 19/10 A3021 RMK SLP237=

CYXE;2005-08-04 17:00;METAR CYXE 041700Z 25007KT 15SM SKC 22/10 A3021 RMK SLP238=

CYXE;2005-08-04 18:00;METAR CYXE 041800Z 28010G15KT 15SM SCT330 24/08 A3019 RMK CI0 SLP232=

CYXE;2005-08-04 19:00;METAR CYXE 041900Z 27010G16KT 15SM FEW330 24/08 A3017 RMK CI1 SLP226=

CYXE;2005-08-04 20:00;METAR CYXE 042000Z 27010G19KT 15SM FEW330 26/08 A3016 RMK CI1 SLP221=

CYXE;2005-08-04 21:00;METAR CYXE 042100Z 27010KT 15SM SCT330 26/09 A3014 RMK CI1 SLP215=

CYXE;2005-08-04 22:00;METAR CYXE 042200Z 24010KT 15SM BKN330 24/09 A3013 RMK CI2 SLP211=

CYXE;2005-08-04 23:00;METAR CYXE 042300Z 24011G19KT 15SM BKN330 25/09 A3011 RMK CI2 SLP203=

CYXE;2005-08-05 00:00;METAR CYXE 050000Z 23007KT 15SM BKN330 25/10 A3009 RMK CI1 SLP197=

CYXE;2005-08-05 01:00;METAR CYXE 050100Z 22006KT 15SM BKN330 23/12 A3007 RMK CI2 SLP191=

CYXE;2005-08-05 02:00;METAR CYXE 050200Z 19005KT 15SM BKN330 22/11 A3005 RMK CI2 SLP185=

CYXE;2005-08-05 03:00;METAR CYXE 050300Z 16006KT 15SM BKN330 20/10 A3003 RMK CI1 SLP176=

CYXE;2005-08-05 04:00;METAR CYXE 050400Z 16007KT 15SM BKN330 18/10 A3003 RMK CI1 SLP175=

CYXE;2005-08-05 05:00;METAR CYXE 050500Z 16006KT 15SM BKN330 17/08 A3001 RMK CI1 SLP169=

CYXE;2005-08-05 06:00;METAR CYXE 050600Z 17008KT 15SM FEW330 17/08 A3000 RMK CI1 SLP161=

CYXE;2005-08-05 07:00;METAR CYXE 050700Z 17008KT 15SM SKC 17/08 A2998 RMK SLP154=

CYXE;2005-08-05 08:00;METAR CYXE 050800Z 17009KT 15SM SKC 16/07 A2996 RMK SLP148=

CYXE;2005-08-05 09:00;METAR CYXE 050900Z 18011KT 15SM SKC 17/06 A2993 RMK SLP138=

CYXE;2005-08-05 10:00;METAR CYXE 051000Z 19010G15KT 15SM SCT320 15/07 A2993 RMK CI2 SLP136=

CYXE;2005-08-05 11:00;METAR CYXE 051100Z 24007KT 15SM FEW320 12/07 A2992 RMK CI1 SLP135=

CYXE;2005-08-05 12:00;METAR CYXE 051200Z 22007KT 15SM FEW320 10/07 A2993 RMK CI1 SLP140=

CYXE;2005-08-05 13:00;METAR CYXE 051300Z 22005KT 15SM BKN330 12/09 A2993 RMK CI1 SLP140=

CYXE;2005-08-05 14:00;METAR CYXE 051400Z 22005KT 15SM BKN330 16/10 A2993 RMK CI2 SLP141=

CYXE;2005-08-05 15:00;METAR CYXE 051500Z 28005KT 15SM BKN330 18/11 A2993 RMK CI2 SLP140=

CYXE;2005-08-05 16:00;METAR CYXE 051600Z 27003KT 15SM BKN330 21/13 A2993 RMK CI2 SLP140=

CYXE;2005-08-05 17:00;METAR CYXE 051700Z 01006KT 15SM BKN330 23/13 A2993 RMK CI4 SLP138=

CYXE;2005-08-05 18:00;METAR CYXE 051800Z 05005KT 15SM BKN330 26/13 A2992 RMK CI6 SLP132=

CYXE;2005-08-05 19:00;METAR CYXE 051900Z 05004KT 15SM BKN330 26/12 A2991 RMK CI5 SLP131=

CYXE;2005-08-05 20:00;METAR CYXE 052000Z 00000KT 15SM BKN330 28/12 A2991 RMK CI3 SLP129=

CYXE;2005-08-05 21:00;METAR CYXE 052100Z 00000KT 15SM BKN330 29/10 A2990 RMK CI2 SLP123=

CYXE;2005-08-05 22:00;METAR CYXE 052200Z 00000KT 15SM FEW300 30/11 A2989 RMK CI1 SLP120=

CYXE;2005-08-05 23:00;METAR CYXE 052300Z 27002KT 15SM FEW300 30/10 A2988 RMK CI1 SLP117=

CYXE;2005-08-06 00:00;METAR CYXE 060000Z 23004KT 15SM FEW300 29/11 A2987 RMK CI1 SLP120=

CYXE;2005-08-06 01:00;METAR CYXE 060100Z 23006KT 15SM FEW300 27/15 A2987 RMK CI1 SLP119=

CYXE;2005-08-06 02:00;METAR CYXE 060200Z 22006KT 15SM BKN300 23/15 A2986 RMK CI2 SLP117=

CYXE;2005-08-06 03:00;METAR CYXE 060300Z 22007KT 15SM BKN300 20/15 A2987 RMK CI3 SLP119=

CYXE;2005-08-06 04:00;METAR CYXE 060400Z 22008KT 15SM BKN300 18/13 A2988 RMK CI3 SLP122=

CYXE;2005-08-06 05:00;METAR CYXE 060500Z 22008KT 15SM BKN300 17/12 A2988 RMK CI3 SLP122=

CYXE;2005-08-06 06:00;METAR CYXE 060600Z 23008KT 15SM FEW300 16/11 A2988 RMK CI1 SLP121=

CYXE;2005-08-06 07:00;METAR CYXE 060700Z 29007KT 15SM SKC 14/11 A2991 RMK SLP129=

CYXE;2005-08-06 08:00;METAR CYXE 060800Z 32008KT 15SM SKC 14/11 A2992 RMK SLP133=

CYXE;2005-08-06 09:00;METAR CYXE 060900Z 32007KT 15SM SKC 14/11 A2993 RMK SLP138=

CYXE;2005-08-06 10:00;METAR CYXE 061000Z 25003KT 15SM SKC 11/10 A2995 RMK SLP142=

CYXE;2005-08-06 11:00;METAR CYXE 061100Z 23004KT 15SM SCT330 11/10 A2996 RMK CI1 SLP146=

CYXE;2005-08-06 12:00;METAR CYXE 061200Z 26005KT 15SM FEW120 BKN330 11/10 A2997 RMK AC1CI1 SLP151=

CYXE;2005-08-06 13:00;METAR CYXE 061300Z 28004KT 15SM FEW120 BKN330 14/12 A2999 RMK AC1CI1 SLP159=

CYXE;2005-08-06 14:00;METAR CYXE 061400Z 31007KT 15SM FEW120 BKN300 17/13 A3000 RMK AC1CI1 SLP162=

CYXE;2005-08-06 15:00;METAR CYXE 061500Z 30005KT 15SM FEW120 SCT300 20/13 A3000 RMK AC1CI1 SLP164=

CYXE;2005-08-06 16:00;METAR CYXE 061600Z 02003KT 15SM FEW120 FEW300 22/13 A3000 RMK AC1CI0 SLP163=

CYXE;2005-08-06 17:00;METAR CYXE 061700Z 25002KT 15SM FEW140 FEW300 24/13 A3000 RMK AC1CI0 SLP163=

CYXE;2005-08-06 18:00;METAR CYXE 061800Z 28002KT 15SM SCT079 BKN300 25/12 A3000 RMK AC2CI1 SLP161=

CYXE;2005-08-06 19:00;METAR CYXE 061900Z 24004KT 15SM BKN110 BKN300 26/10 A2999 RMK AC2CI0 SLP158=

CYXE;2005-08-06 20:00;METAR CYXE 062000Z 01003KT 15SM FEW300 26/10 A2998 RMK CI1 SLP155=

CYXE;2005-08-06 21:00;METAR CYXE 062100Z 00000KT 15SM SKC 27/11 A2997 RMK SLP151=

CYXE;2005-08-06 22:00;METAR CYXE 062200Z 00000KT 15SM SKC 28/11 A2996 RMK SLP147=

CYXE;2005-08-06 23:00;METAR CYXE 062300Z 36004KT 15SM SKC 27/10 A2995 RMK SLP144=

CYXE;2005-08-07 00:00;METAR CYXE 070000Z 03002KT 15SM SKC 27/11 A2994 RMK SLP142=

CYXE;2005-08-07 01:00;METAR CYXE 070100Z 02004KT 15SM SKC 26/11 A2992 RMK SLP137=

CYXE;2005-08-07 02:00;METAR CYXE 070200Z 03003KT 15SM FEW300 24/13 A2991 RMK CI1 SLP134=

CYXE;2005-08-07 03:00;METAR CYXE 070300Z 09005KT 15SM FEW300 21/13 A2991 RMK CI1 SLP132=

CYXE;2005-08-07 04:00;METAR CYXE 070400Z 08004KT 15SM FEW300 20/12 A2991 RMK CI1 SLP132=

CYXE;2005-08-07 05:00;METAR CYXE 070500Z 07007KT 15SM FEW300 16/11 A2991 RMK CI1 SLP130=

CYXE;2005-08-07 06:00;METAR CYXE 070600Z 12003KT 15SM SKC 17/12 A2990 RMK SLP127=

CYXE;2005-08-07 07:00;METAR CYXE 070700Z 08002KT 15SM SKC 16/11 A2989 RMK SLP124=

CYXE;2005-08-07 08:00;METAR CYXE 070800Z 06005KT 15SM SKC 13/11 A2988 RMK SLP120=

CYXE;2005-08-07 09:00;METAR CYXE 070900Z 06005KT 15SM SKC 13/11 A2986 RMK SLP116=

CYXE;2005-08-07 10:00;METAR CYXE 071000Z 01007KT 15SM SKC 12/11 A2985 RMK SLP112=

CYXE;2005-08-07 11:00;METAR CYXE 071100Z 02006KT 15SM FEW100 12/10 A2985 RMK AC1 SLP111=

CYXE;2005-08-07 12:00;METAR CYXE 071200Z 03006KT 15SM FEW100 12/10 A2984 RMK AC1 SLP109=

CYXE;2005-08-07 13:00;METAR CYXE 071300Z 04006KT 15SM FEW100 15/12 A2983 RMK AC1 SLP105=

CYXE;2005-08-07 14:00;METAR CYXE 071400Z 07005KT 15SM FEW100 18/13 A2982 RMK AC1 SLP101=

CYXE;2005-08-07 15:00;METAR CYXE 071500Z 10003KT 15SM FEW100 21/13 A2982 RMK AC1 SLP098=

CYXE;2005-08-07 16:00;METAR CYXE 071600Z 03007KT 15SM FEW100 23/14 A2982 RMK ACC1 SLP098=

CYXE;2005-08-07 17:00;METAR CYXE 071700Z 02010KT 15SM BKN100 26/14 A2982 RMK ACC5 SLP100=

CYXE;2005-08-07 18:00;METAR CYXE 071800Z 02011KT 15SM BKN090 25/13 A2983 RMK ACC5 SLP103=

CYXE;2005-08-07 19:00;METAR CYXE 071900Z 01012KT 15SM FEW090 26/14 A2982 RMK ACC2 SLP100=

CYXE;2005-08-07 20:00;METAR CYXE 072000Z 03008KT 15SM FEW100 27/13 A2983 RMK ACC2 SLP102=

CYXE;2005-08-07 21:00;METAR CYXE 072100Z 36007G15KT 15SM FEW100 27/13 A2983 RMK ACC1 SLP105=

CYXE;2005-08-07 22:00;METAR CYXE 072200Z 31007KT 15SM FEW060 28/13 A2983 RMK CU2 SLP103=

CYXE;2005-08-07 23:00;METAR CYXE 072300Z 34015G20KT 15SM FEW060 27/14 A2983 RMK CU1 SLP105=

CYXE;2005-08-08 00:00;METAR CYXE 080000Z 33019G25KT 15SM FEW060 25/11 A2985 RMK CU1 SLP111=

CYXE;2005-08-08 01:00;METAR CYXE 080100Z 31013G18KT 15SM SKC 23/08 A2986 RMK SLP117=

CYXE;2005-08-08 02:00;METAR CYXE 080200Z 31008KT 15SM FEW100 21/08 A2989 RMK AC1 SLP124=

CYXE;2005-08-08 03:00;METAR CYXE 080300Z 30006KT 15SM FEW100 16/10 A2990 RMK AC1 SLP131=

CYXE;2005-08-08 04:00;METAR CYXE 080400Z 28008KT 15SM FEW100 14/10 A2992 RMK AC1 SLP135=

CYXE;2005-08-08 05:00;METAR CYXE 080500Z 31007KT 15SM FEW100 14/10 A2993 RMK AC1 SLP138=

CYXE;2005-08-08 06:00;METAR CYXE 080600Z 30007KT 15SM SKC 11/09 A2994 RMK SLP144=

CYXE;2005-08-08 07:00;METAR CYXE 080700Z 29007KT 15SM FEW100 11/09 A2996 RMK AC1 SLP150=

CYXE;2005-08-08 08:00;METAR CYXE 080800Z 26003KT 15SM SCT100 11/09 A2996 RMK AC2 SLP151=

CYXE;2005-08-08 09:00;METAR CYXE 080900Z 25006KT 15SM SCT100 10/08 A2997 RMK AC2 SLP153=

CYXE;2005-08-08 10:00;METAR CYXE 081000Z 27007KT 15SM FEW100 10/08 A2998 RMK AC2 SLP156=

CYXE;2005-08-08 11:00;METAR CYXE 081100Z 27008KT 15SM BKN100 09/08 A3000 RMK AC2 SLP164=

CYXE;2005-08-08 12:00;METAR CYXE 081200Z 30006KT 15SM BKN100 09/08 A3000 RMK AC3 SLP167=

CYXE;2005-08-08 13:00;METAR CYXE 081300Z 34004KT 15SM BKN100 12/10 A2999 RMK AC6 SLP163=

CYXE;2005-08-08 14:00;METAR CYXE 081400Z 32006KT 15SM BKN100 14/10 A3001 RMK AC7 SLP168=

CYXE;2005-08-08 15:00;METAR CYXE 081500Z 30004KT 15SM SCT087 BKN100 14/11 A3001 RMK AC3AC4 SLP172=

CYXE;2005-08-08 16:00;METAR CYXE 081600Z 05002KT 15SM BKN094 17/11 A3001 RMK AC6 SLP170=

CYXE;2005-08-08 17:00;METAR CYXE 081700Z 30005KT 15SM FEW085 BKN100 18/10 A3002 RMK AC2AC5 SLP175=

CYXE;2005-08-08 18:00;METAR CYXE 081800Z 28006KT 15SM FEW040 FEW085 BKN100 19/10 A3002 RMK CU1AC2AC4 SLP176=

CYXE;2005-08-08 19:00;METAR CYXE 081900Z 30005KT 15SM FEW040 BKN100 19/09 A3001 RMK CU2AC5 SLP173=

CYXE;2005-08-08 20:00;METAR CYXE 082000Z 26005KT 15SM FEW040 SCT093 20/10 A3000 RMK CU2AC2 SLP170=

CYXE;2005-08-08 21:00;METAR CYXE 082100Z 29008KT 15SM FEW048 SCT095 21/08 A2999 RMK CU2AC2 SLP166=

CYXE;2005-08-08 22:00;METAR CYXE 082200Z 30013KT 15SM FEW057 BKN063 BKN070 21/09 A2999 RMK CU2SC2AC2 SLP163=

CYXE;2005-08-08 23:00;METAR CYXE 082300Z 29009KT 15SM FEW057 SCT064 BKN110 21/09 A2998 RMK CU1SC2AC2 SLP162=

CYXE;2005-08-09 00:00;METAR CYXE 090000Z 29011KT 15SM FEW057 BKN110 21/08 A2999 RMK CU2AC2 TCU ASOCTD SLP163=

CYXE;2005-08-09 01:00;METAR CYXE 090100Z 30011KT 15SM FEW057 BKN110 20/08 A2999 RMK CU2AC3 TCU ASOCTD SLP166=

CYXE;2005-08-09 02:00;METAR CYXE 090200Z 29004KT 15SM FEW050 BKN090 18/10 A3000 RMK CU2AC4 VIRGA ACC ASOCTD SLP168=

CYXE;2005-08-09 03:00;METAR CYXE 090300Z 33011KT 15SM FEW045 BKN079 16/10 A3003 RMK CU2AC4 VIRGA SLP178=

CYXE;2005-08-09 04:00;METAR CYXE 090400Z 32003KT 15SM FEW045 FEW063 FEW080 SCT230 12/09 A3005 RMK CU1SC1AC1CI0 SLP184=

CYXE;2005-08-09 05:00;METAR CYXE 090500Z 31007KT 15SM FEW053 10/08 A3007 RMK SC1 SLP190=

CYXE;2005-08-09 06:00;METAR CYXE 090600Z 31007KT 15SM SKC 10/09 A3008 RMK SLP196=

CYXE;2005-08-09 07:00;METAR CYXE 090700Z 30005KT 15SM SKC 08/07 A3008 RMK SLP197=

CYXE;2005-08-09 08:00;METAR CYXE 090800Z 30006KT 15SM SKC 06/06 A3009 RMK SLP200=

CYXE;2005-08-09 09:00;METAR CYXE 090900Z 28007KT 15SM SKC 07/06 A3011 RMK SLP206=

CYXE;2005-08-09 10:00;METAR CYXE 091000Z 26006KT 15SM SKC 05/05 A3011 RMK PRFG SLP207=

CYXE;2005-08-09 10:22;SPECI CYXE 091022Z 25005KT 1SM R09/2000VP6000FT/U BR SKC=

CYXE;2005-08-09 10:36;SPECI CYXE 091036Z 25005KT 1/2SM R09/3000VP6000FT/D FG SKC=

CYXE;2005-08-09 10:46;SPECI CYXE 091046Z 27005KT 1/4SM R09/2200V4000FT/U FG SKC=

CYXE;2005-08-09 11:00;METAR CYXE 091100Z 25005KT 1/4SM R09/1200V1800FT/N FG SKC 05/05 A3011 RMK SLP208=

CYXE;2005-08-09 11:39;SPECI CYXE 091139Z 26005KT 1/2SM R09/2000VP6000FT/U FG SKC=

CYXE;2005-08-09 12:00;METAR CYXE 091200Z 26004KT 1/2SM R09/P6000FT/D FG SKC 04/04 A3012 RMK SLP213=

CYXE;2005-08-09 12:14;SPECI CYXE 091214Z 27006KT 3SM BR SKC=

CYXE;2005-08-09 13:00;METAR CYXE 091300Z 25006KT 15SM SKC 07/06 A3013 RMK SLP214=

CYXE;2005-08-09 14:00;METAR CYXE 091400Z 28004KT 15SM FEW300 10/10 A3013 RMK CI1 SLP216=

CYXE;2005-08-09 15:00;METAR CYXE 091500Z 28006KT 15SM FEW300 13/10 A3013 RMK CI0 SLP213=

CYXE;2005-08-09 16:00;METAR CYXE 091600Z 29007KT 15SM FEW030 17/09 A3013 RMK CU1 SLP213=

CYXE;2005-08-09 17:00;METAR CYXE 091700Z 24004KT 15SM FEW045 19/07 A3013 RMK CU1 SLP212=

CYXE;2005-08-09 18:00;METAR CYXE 091800Z 22004KT 15SM FEW050 19/07 A3012 RMK CU2 SLP208=

CYXE;2005-08-09 19:00;METAR CYXE 091900Z 26008KT 15SM SCT055 20/07 A3010 RMK CU3 SLP203=

CYXE;2005-08-09 20:00;METAR CYXE 092000Z 28010KT 15SM SCT060 SCT300 21/06 A3010 RMK CU3CI0 SLP202=

CYXE;2005-08-09 21:00;METAR CYXE 092100Z 29009KT 15SM FEW070 FEW300 22/04 A3008 RMK CU2CI0 SLP198=

CYXE;2005-08-09 22:00;METAR CYXE 092200Z 32008G17KT 15SM FEW087 SCT300 23/04 A3008 RMK CU2CI1 SLP197=

CYXE;2005-08-09 23:00;METAR CYXE 092300Z 28008G15KT 15SM SCT080 BKN300 22/04 A3007 RMK CU3CI1 SLP192=

CYXE;2005-08-10 00:00;METAR CYXE 100000Z 30011KT 15SM FEW076 SCT091 BKN300 22/05 A3006 RMK CU2AC1CI0 SLP192=

CYXE;2005-08-10 01:00;METAR CYXE 100100Z 30009KT 15SM BKN084 BKN095 20/06 A3006 RMK AC5AC1 SLP192=

CYXE;2005-08-10 02:00;METAR CYXE 100200Z 01008KT 15SM FEW075 BKN082 18/09 A3008 RMK AC2AC6 SLP198=

CYXE;2005-08-10 03:00;METAR CYXE 100300Z 01007KT 15SM FEW068 BKN078 16/10 A3010 RMK AC2AC5 SLP201=

CYXE;2005-08-10 04:00;METAR CYXE 100400Z 03013KT 15SM FEW078 BKN092 14/08 A3014 RMK AC2AC3 SLP214=

CYXE;2005-08-10 05:00;METAR CYXE 100500Z 03007KT 15SM SCT083 11/08 A3016 RMK AC4 SLP220=

CYXE;2005-08-10 06:00;METAR CYXE 100600Z 02007KT 15SM FEW080 10/07 A3017 RMK AC1 SLP225=

CYXE;2005-08-10 07:00;METAR CYXE 100700Z 36007KT 15SM SCT035 09/07 A3017 RMK SC3 SLP227=

CYXE;2005-08-10 08:00;METAR CYXE 100800Z 36007KT 15SM FEW035 BKN060 08/07 A3018 RMK SC2SC3 SLP230=

CYXE;2005-08-10 09:00;METAR CYXE 100900Z 36006KT 15SM FEW060 06/04 A3019 RMK SC2 SLP234=

CYXE;2005-08-10 10:00;METAR CYXE 101000Z 00000KT 15SM SKC 06/05 A3019 RMK AURORA SLP235=

CYXE;2005-08-10 11:00;METAR CYXE 101100Z 03006KT 15SM SKC 04/02 A3019 RMK SLP233=

CYXE;2005-08-10 12:00;METAR CYXE 101200Z 00000KT 15SM FEW120 03/02 A3021 RMK AC1 SLP241=

CYXE;2005-08-10 13:00;METAR CYXE 101300Z 36003KT 15SM FEW120 SCT250 07/04 A3021 RMK AC1CI1 SLP243=

CYXE;2005-08-10 14:00;METAR CYXE 101400Z 04005KT 15SM FEW120 BKN250 10/06 A3020 RMK AC1CI2 SLP240=

CYXE;2005-08-10 15:00;METAR CYXE 101500Z 03009KT 15SM FEW120 BKN250 13/06 A3021 RMK AC1CI2 SLP240=

CYXE;2005-08-10 16:00;METAR CYXE 101600Z 06004KT 15SM FEW035 BKN300 14/06 A3021 RMK CU2CI1 SLP241=

CYXE;2005-08-10 17:00;METAR CYXE 101700Z 07003KT 15SM FEW035 BKN300 14/04 A3020 RMK SC2CI2 SLP238=

CYXE;2005-08-10 18:00;METAR CYXE 101800Z 01005KT 15SM FEW040 BKN300 16/05 A3020 RMK SC2CI5 SLP238=

CYXE;2005-08-10 19:00;METAR CYXE 101900Z 02007KT 15SM FEW040 BKN120 OVC300 16/05 A3018 RMK SC1AC4CI2 SLP233=

CYXE;2005-08-10 20:00;METAR CYXE 102000Z 33007KT 15SM FEW040 BKN120 BKN300 17/05 A3017 RMK SC1AC3CI2 SLP229=

CYXE;2005-08-10 21:00;METAR CYXE 102100Z 36004KT 15SM FEW050 SCT120 BKN300 16/05 A3017 RMK SC2AC2CI2 SLP229=

CYXE;2005-08-10 22:00;METAR CYXE 102200Z 26002KT 15SM FEW050 FEW120 BKN300 17/05 A3016 RMK SC2AC1CI3 SLP228=

CYXE;2005-08-10 23:00;METAR CYXE 102300Z 24006KT 15SM FEW050 BKN120 OVC280 17/05 A3014 RMK SC1AC2CI2 SLP221=

CYXE;2005-08-11 00:00;METAR CYXE 110000Z 26004KT 15SM FEW050 BKN091 BKN280 17/05 A3012 RMK SC1AC5CI2 SLP215=

CYXE;2005-08-11 01:00;METAR CYXE 110100Z 27004KT 15SM FEW057 SCT091 BKN110 17/05 A3010 RMK SC2AC2AC2 SLP209=

CYXE;2005-08-11 02:00;METAR CYXE 110200Z 24006KT 15SM OVC086 15/08 A3010 RMK AC7 SLP209=

CYXE;2005-08-11 03:00;METAR CYXE 110300Z 25005KT 15SM BKN078 14/08 A3011 RMK AC7 SLP206=

CYXE;2005-08-11 04:00;METAR CYXE 110400Z 27004KT 15SM BKN076 13/08 A3011 RMK AC6 SLP206=

CYXE;2005-08-11 05:00;METAR CYXE 110500Z 27006KT 15SM FEW080 09/06 A3010 RMK AC2 SLP204=

CYXE;2005-08-11 06:00;METAR CYXE 110600Z 29006KT 15SM BKN085 10/06 A3009 RMK AC3 SLP202=

CYXE;2005-08-11 07:00;METAR CYXE 110700Z 27006KT 15SM BKN085 10/07 A3009 RMK AC5 SLP201=

CYXE;2005-08-11 08:00;METAR CYXE 110800Z 28005KT 15SM OVC075 10/06 A3007 RMK AC7 SLP194=

CYXE;2005-08-11 09:00;METAR CYXE 110900Z 25006KT 15SM BKN073 10/06 A3005 RMK AC6 SLP189=

CYXE;2005-08-11 10:00;METAR CYXE 111000Z 25007KT 15SM FEW070 08/05 A3003 RMK AC2 SLP182=

CYXE;2005-08-11 11:00;METAR CYXE 111100Z 24007KT 15SM FEW070 06/05 A3002 RMK AC2 SLP177=

CYXE;2005-08-11 12:00;METAR CYXE 111200Z 25006KT 15SM FEW070 06/05 A2999 RMK AC2 SLP170=

CYXE;2005-08-11 13:00;METAR CYXE 111300Z 23006KT 15SM BKN080 07/06 A2997 RMK AC5 SLP163=

CYXE;2005-08-11 14:00;METAR CYXE 111400Z 24010KT 15SM BKN090 09/07 A2995 RMK AC6 SLP157=

CYXE;2005-08-11 15:00;METAR CYXE 111500Z 23011KT 15SM BKN090 11/08 A2992 RMK AC7 SLP142=

CYXE;2005-08-11 15:36;SPECI CYXE 111536Z 25010KT 12SM -RA SCT060 BKN090 12/ RMK SC3AC4=

CYXE;2005-08-11 16:00;METAR CYXE 111600Z 24009KT 12SM -RA FEW030 SCT060 OVC090 12/09 A2990 RMK SC2SC2AC4 SLP138=

CYXE;2005-08-11 17:00;METAR CYXE 111700Z 24011KT 8SM -RA BKN030 OVC090 11/10 A2988 RMK SC5AC3 SLP131=

CYXE;2005-08-11 17:48;SPECI CYXE 111748Z 25012KT 15SM BKN030 OVC090 12/ RMK SC7AC1=

CYXE;2005-08-11 18:00;METAR CYXE 111800Z 26011G16KT 4SM -RA BR OVC030 12/10 A2987 RMK SC8 SLP128=

CYXE;2005-08-11 18:11;SPECI CYXE 111811Z 26013G18KT 2SM -RA BR SCT009 OVC025 12/ RMK SC3SC5=

CYXE;2005-08-11 18:21;SPECI CYXE 111821Z 26016KT 2SM -RA BR BKN008 OVC025 12/ RMK SF6SC2=

CYXE;2005-08-11 19:00;METAR CYXE 111900Z 26011KT 12SM SCT008 OVC014 12/11 A2986 RMK SF3SC5 SLP124=

CYXE;2005-08-11 19:35;SPECI CYXE 111935Z 27011KT 15SM FEW014 BKN030 15/ RMK CF2SC2=

CYXE;2005-08-11 20:00;METAR CYXE 112000Z 28012G18KT 15SM BKN018 16/11 A2983 RMK CU6 SLP116=

CYXE;2005-08-11 20:45;SPECI CYXE 112045Z 29031KT 10SM -SHRA BKN028TCU 15/ RMK TCU7 CB ASCTD=

CYXE;2005-08-11 21:00;METAR CYXE 112100Z 34018G36KT 4SM SHRA BKN025TCU BKN070 11/09 A2984 RMK TCU6AC1 CB ASCTD SLP119=

CYXE;2005-08-11 21:30;SPECI CYXE 112130Z 32013KT 15SM FEW025 BKN060 13/ RERA RMK CU2SC6=

CYXE;2005-08-11 22:00;METAR CYXE 112200Z 31012KT 15SM FEW025 BKN060 14/11 A2985 RERA RMK CU2SC4 SLP121=

CYXE;2005-08-11 23:00;METAR CYXE 112300Z 32017G24KT 15SM SCT026 BKN120 16/09 A2985 RMK CU3AC1 TCU EMBD -SHRA W SLP121=

CYXE;2005-08-12 00:00;METAR CYXE 120000Z 31012G22KT 15SM FEW040TCU SCT120 15/11 A2986 RMK TCU2AC1 CB TOP S SLP125=

CYXE;2005-08-12 01:00;METAR CYXE 120100Z 30013G19KT 15SM SCT053TCU 16/09 A2986 RMK TCU4 VIRGA SLP127=

CYXE;2005-08-12 02:00;METAR CYXE 120200Z 01010G17KT 15SM BKN043 14/07 A2989 RMK SC5 SLP135=

CYXE;2005-08-12 03:00;METAR CYXE 120300Z 31006KT 15SM FEW054 10/08 A2991 RMK SC2 VIRGA W SLP143=

CYXE;2005-08-12 04:00;METAR CYXE 120400Z 30009KT 15SM FEW054 10/07 A2993 RMK SC1 SLP148=

CYXE;2005-08-12 05:00;METAR CYXE 120500Z 30011KT 15SM SKC 09/07 A2993 RMK SLP150=

CYXE;2005-08-12 06:00;METAR CYXE 120600Z 29011KT 15SM SCT080 09/07 A2994 RMK AC3 SLP152=

CYXE;2005-08-12 07:00;METAR CYXE 120700Z 29010KT 15SM FEW060 08/07 A2995 RMK SC2 SLP155=

CYXE;2005-08-12 08:00;METAR CYXE 120800Z 29009KT 15SM SCT060 08/07 A2995 RMK SC3 SLP157=

CYXE;2005-08-12 09:00;METAR CYXE 120900Z 29010KT 15SM BKN055 08/07 A2995 RMK SC4 SLP156=

CYXE;2005-08-12 10:00;METAR CYXE 121000Z 30011KT 15SM FEW025 BKN055 08/07 A2995 RMK SC1SC4 SLP157=

CYXE;2005-08-12 11:00;METAR CYXE 121100Z 29010KT 15SM BKN035 08/07 A2996 RMK SC3 SLP160=

CYXE;2005-08-12 12:00;METAR CYXE 121200Z 30011KT 15SM SCT035 BKN050 09/07 A2998 RMK SC3SC2 SLP165=

CYXE;2005-08-12 13:00;METAR CYXE 121300Z 30016KT 15SM FEW030 BKN050 10/08 A2999 RMK SC2SC2 SLP166=

CYXE;2005-08-12 14:00;METAR CYXE 121400Z 31014KT 15SM SCT014 BKN035 11/08 A3001 RMK SF3SC4 SLP173=

CYXE;2005-08-12 15:00;METAR CYXE 121500Z 31014KT 8SM -RA BKN013 BKN035 11/09 A3003 RMK SF6SC2 SLP184=

CYXE;2005-08-12 16:00;METAR CYXE 121600Z 33010G15KT 8SM -RA BKN013 OVC035 11/09 A3005 RMK SF5SC3 SLP189=

CYXE;2005-08-12 16:26;SPECI CYXE 121626Z 34014KT 8SM -RA BKN009 OVC030 11/ RMK SF6SC2=

CYXE;2005-08-12 17:00;METAR CYXE 121700Z 34013KT 15SM -RA SCT009 BKN014 OVC030 11/10 A3006 RMK SF3SC2SC2 -RA INTMT SLP193=

CYXE;2005-08-12 18:00;METAR CYXE 121800Z 36016G22KT 12SM FEW009 BKN020 BKN060 12/09 A3008 RMK SF1SC5SC2 SLP202=

CYXE;2005-08-12 19:00;METAR CYXE 121900Z 34013G18KT 15SM BKN023 BKN040 13/08 A3009 RMK CU5SC2 SLP205=

CYXE;2005-08-12 20:00;METAR CYXE 122000Z 01017G22KT 15SM FEW025 BKN040 14/06 A3010 RMK CU1SC6 SLP208=

CYXE;2005-08-12 21:00;METAR CYXE 122100Z 34012G19KT 15SM FEW030 BKN040 16/06 A3011 RMK CU2SC5 SLP210=

CYXE;2005-08-12 22:00;METAR CYXE 122200Z 34012KT 15SM BKN044 17/06 A3012 RMK SC6 SLP211=

CYXE;2005-08-12 23:00;METAR CYXE 122300Z 36010KT 15SM BKN049 16/06 A3012 RMK SC6 SLP213=

CYXE;2005-08-13 00:00;METAR CYXE 130000Z 33011KT 15SM BKN050 16/06 A3012 RMK SC6 SLP214=

CYXE;2005-08-13 01:00;METAR CYXE 130100Z 36009KT 15SM SCT048 15/07 A3013 RMK SC3 SLP217=

CYXE;2005-08-13 02:00;METAR CYXE 130200Z 32006KT 15SM FEW048 FEW076 12/07 A3015 RMK SC2AC1 SLP221=

CYXE;2005-08-13 03:00;METAR CYXE 130300Z 30006KT 15SM FEW048 FEW076 10/07 A3016 RMK SC2AC1 SLP229=

CYXE;2005-08-13 04:00;METAR CYXE 130400Z 29007KT 15SM BKN069 10/07 A3018 RMK AC5 SLP234=

CYXE;2005-08-13 05:00;METAR CYXE 130500Z 30007KT 15SM FEW069 07/06 A3018 RMK AC2 SLP235=

CYXE;2005-08-13 06:00;METAR CYXE 130600Z 31007KT 15SM FEW050 07/06 A3018 RMK SC2 SLP236=

CYXE;2005-08-13 07:00;METAR CYXE 130700Z 31008KT 15SM FEW050 07/06 A3018 RMK SC1 SLP235=

CYXE;2005-08-13 08:00;METAR CYXE 130800Z 29007KT 15SM SKC 05/04 A3017 RMK SLP233=

CYXE;2005-08-13 09:00;METAR CYXE 130900Z 28007KT 15SM SKC 04/03 A3016 RMK SLP229=

CYXE;2005-08-13 10:00;METAR CYXE 131000Z 27006KT 15SM FEW050 03/02 A3016 RMK SC1 SLP227=

CYXE;2005-08-13 10:26;SPECI CYXE 131026Z 26007KT 15SM FEW050 SCT250 02/ RMK SC1CI0=

CYXE;2005-08-13 11:00;METAR CYXE 131100Z 24006KT 15SM BKN250 02/02 A3016 RMK CI2 SLP228=

CYXE;2005-08-13 12:00;METAR CYXE 131200Z 26006KT 15SM FEW070 BKN250 03/03 A3015 RMK AC1CI2 SLP227=

CYXE;2005-08-13 13:00;METAR CYXE 131300Z 23005KT 15SM FEW090 BKN250 04/04 A3015 RMK AC2CI4 SLP226=

CYXE;2005-08-13 14:00;METAR CYXE 131400Z 23005KT 15SM BKN080 BKN200 07/06 A3014 RMK AC5CI2 SLP224=

CYXE;2005-08-13 15:00;METAR CYXE 131500Z 26006KT 15SM BKN080 10/07 A3013 RMK AC7 SLP220=

CYXE;2005-08-13 16:00;METAR CYXE 131600Z 25010KT 15SM FEW080 14/07 A3011 RMK AC2 SLP213=

CYXE;2005-08-13 17:00;METAR CYXE 131700Z 28011KT 15SM FEW045 SCT080 16/06 A3009 RMK CU2AC2 SLP205=

CYXE;2005-08-13 18:00;METAR CYXE 131800Z 27014KT 15SM BKN050 17/05 A3007 RMK CU5 SLP194=

CYXE;2005-08-13 19:00;METAR CYXE 131900Z 26013G18KT 15SM SCT055 BKN070 18/04 A3004 RMK CU4AC3 SLP187=

CYXE;2005-08-13 20:00;METAR CYXE 132000Z 26015KT 15SM SCT060 BKN080 BKN200 18/04 A3002 RMK CU4AC1CI1 SLP178=

CYXE;2005-08-13 21:00;METAR CYXE 132100Z 27012G18KT 15SM BKN060 BKN080 19/04 A2999 RMK CU5AC2 SLP170=

CYXE;2005-08-13 22:00;METAR CYXE 132200Z 26012G17KT 15SM BKN067 OVC300 20/05 A2996 RMK CU5CI2 SLP160=

CYXE;2005-08-13 23:00;METAR CYXE 132300Z 27011G19KT 15SM SCT070 OVC300 20/04 A2994 RMK CU4CI3 SLP151=

CYXE;2005-08-14 00:00;METAR CYXE 140000Z 26009KT 15SM SCT073 OVC300 19/06 A2991 RMK AC4CI3 SLP143=

CYXE;2005-08-14 01:00;METAR CYXE 140100Z 24009KT 15SM OVC081 18/06 A2989 RMK AC8 SLP134=

CYXE;2005-08-14 02:00;METAR CYXE 140200Z 23008KT 15SM OVC077 16/07 A2988 RMK AC8 SLP131=

CYXE;2005-08-14 03:00;METAR CYXE 140300Z 02009KT 15SM OVC075 15/08 A2989 RMK AC8 SLP133=

CYXE;2005-08-14 03:32;SPECI CYXE 140332Z 03003KT 15SM -RA OVC071 RMK AC8=

CYXE;2005-08-14 04:00;METAR CYXE 140400Z 00000KT 15SM -RA OVC071 13/11 A2989 RMK AC8 SLP133=

CYXE;2005-08-14 05:00;METAR CYXE 140500Z 27004KT 10SM -RA FEW017 OVC032 12/11 A2990 RMK SF2SC6 SLP135=

CYXE;2005-08-14 05:49;SPECI CYXE 140549Z 27005KT 15SM BKN026 OVC096 RMK SC5AC3=

CYXE;2005-08-14 06:00;METAR CYXE 140600Z 27006KT 12SM -RA OVC028 12/11 A2989 RMK SC8 SLP132=

CYXE;2005-08-14 06:24;SPECI CYXE 140624Z 29006KT 15SM OVC026 12/ RMK SC8=

CYXE;2005-08-14 07:00;METAR CYXE 140700Z 30006KT 15SM BKN028 OVC060 12/11 A2990 RMK SC5SC3 SLP134=

CYXE;2005-08-14 08:00;METAR CYXE 140800Z 30007KT 15SM FEW030 OVC070 12/11 A2990 RMK SC2AC6 SLP135=

CYXE;2005-08-14 09:00;METAR CYXE 140900Z 29006KT 15SM SCT007 BKN040 OVC070 12/11 A2990 RMK SF3SC3AC2 SLP135=

CYXE;2005-08-14 10:00;METAR CYXE 141000Z 29007KT 15SM BKN008 OVC044 12/11 A2992 RMK ST6SC2 SLP139=

CYXE;2005-08-14 10:46;SPECI CYXE 141046Z 30008KT 15SM FEW009 BKN030 12/ RMK SF2SC5=

CYXE;2005-08-14 11:00;METAR CYXE 141100Z 30009KT 15SM FEW009 SCT030 11/10 A2992 RMK SF1SC3 SLP141=

CYXE;2005-08-14 12:00;METAR CYXE 141200Z 27005KT 8SM BKN030 BKN300 10/10 A2994 RMK SC6CI1 SLP146=

CYXE;2005-08-14 13:00;METAR CYXE 141300Z 29008KT 8SM BKN008 10/10 A2995 RMK SC7 SLP151=

CYXE;2005-08-14 14:00;METAR CYXE 141400Z 30007KT 15SM BKN007 BKN230 11/10 A2996 RMK SF6CI1 SLP153=

CYXE;2005-08-14 15:00;METAR CYXE 141500Z 30009KT 15SM BKN010 BKN230 12/11 A2997 RMK SF5CI1 SLP159=

CYXE;2005-08-14 15:07;SPECI CYXE 141507Z 30010KT 15SM SCT010 BKN230 RMK SC4CI1=

CYXE;2005-08-14 16:00;METAR CYXE 141600Z 29007KT 15SM FEW016 SCT095 BKN230 15/10 A2995 RMK SC2AC2CI0 SLP152=

CYXE;2005-08-14 17:00;METAR CYXE 141700Z 29007KT 15SM FEW025 BKN077 OVC230 16/09 A2995 RMK SC2AC4CI1 SLP154=

CYXE;2005-08-14 18:00;METAR CYXE 141800Z 25011KT 15SM SCT031 BKN069 17/09 A2995 RMK SC3AC4 SLP153=

CYXE;2005-08-14 19:00;METAR CYXE 141900Z 28012KT 15SM SCT053 BKN076 BKN230 18/09 A2995 RMK SC4AC2CI1 SLP151=

CYXE;2005-08-14 20:00;METAR CYXE 142000Z 26011KT 15SM SCT042 BKN056 BKN078 18/10 A2994 RMK SC4SC2AC2 TCU EMBD SLP148=

CYXE;2005-08-14 20:44;SPECI CYXE 142044Z 30012G24KT 15SM -SHRA FEW029 BKN051 BKN073 RMK SC2SC4AC2=

CYXE;2005-08-14 21:00;METAR CYXE 142100Z 30008KT 15SM -SHRA SCT038 BKN061 BKN073 18/11 A2994 RMK SC3SC2AC2 TCU EMBD SLP146=

CYXE;2005-08-14 21:27;SPECI CYXE 142127Z 32016KT 15SM SCT044 BKN053 BKN076 RMK SC3SC2AC1 TCU EMBD=

CYXE;2005-08-14 22:00;METAR CYXE 142200Z 31014G20KT 15SM FEW045TCU SCT075 20/10 A2994 RMK TCU2AC1 CB EMBD E SLP146=

CYXE;2005-08-14 23:00;METAR CYXE 142300Z 28015G20KT 15SM SCT045 SCT100 20/09 A2993 RMK CU3AC1 SLP145=

CYXE;2005-08-15 00:00;METAR CYXE 150000Z 28015G22KT 15SM SCT050 SCT100 SCT250 20/09 A2994 RMK CU3AC1CI1 SLP145=

CYXE;2005-08-15 01:00;METAR CYXE 150100Z 30010G16KT 15SM FEW060 SCT100 SCT250 19/08 A2994 RMK CU2AC1CI1 SLP145=

CYXE;2005-08-15 02:00;METAR CYXE 150200Z 05005KT 15SM BKN058 BKN100 BKN250 15/10 A2996 RMK SC6AC1CI1 CU ASOCTD SLP152=

CYXE;2005-08-15 03:00;METAR CYXE 150300Z 04003KT 15SM FEW055 FEW100 SCT250 12/10 A2998 RMK SC2AC1CI1 SLP165=

CYXE;2005-08-15 04:00;METAR CYXE 150400Z 00000KT 15SM FEW055 FEW100 SCT250 11/10 A2999 RMK SC1AC1CI1 SLP169=

CYXE;2005-08-15 05:00;METAR CYXE 150500Z 33003KT 15SM FEW100 FEW250 10/09 A3001 RMK AC1CI0 SLP175=

CYXE;2005-08-15 06:00;METAR CYXE 150600Z 33006KT 15SM SCT027 09/08 A3003 RMK CU3 SLP181=

CYXE;2005-08-15 07:00;METAR CYXE 150700Z 34007KT 15SM FEW030 FEW080 08/07 A3004 RMK SC1AC1 SLP184=

CYXE;2005-08-15 08:00;METAR CYXE 150800Z 36006KT 15SM FEW080 06/05 A3005 RMK AC1 SLP187=

CYXE;2005-08-15 09:00;METAR CYXE 150900Z 34004KT 15SM FEW080 05/04 A3007 RMK AC1 SLP196=

CYXE;2005-08-15 10:00;METAR CYXE 151000Z 36005KT 15SM BKN075 06/05 A3007 RMK AC5 SLP196=

CYXE;2005-08-15 11:00;METAR CYXE 151100Z 28003KT 15SM BKN075 06/05 A3009 RMK AC7 SLP203=

CYXE;2005-08-15 12:00;METAR CYXE 151200Z 24003KT 15SM BKN080 06/05 A3009 RMK AC6 SLP202=

CYXE;2005-08-15 13:00;METAR CYXE 151300Z 28004KT 15SM BKN070 07/06 A3011 RMK AC7 SLP208=

CYXE;2005-08-15 14:00;METAR CYXE 151400Z 32006KT 15SM BKN070 OVC091 09/07 A3012 RMK AC6AC2 SHRA W SLP211=

CYXE;2005-08-15 14:08;SPECI CYXE 151408Z 34006KT 15SM -SHRA BKN070 OVC093 RMK AC6AC2=

CYXE;2005-08-15 15:00;METAR CYXE 151500Z 31004KT 15SM -SHRA BKN022 OVC082 09/07 A3012 RMK SC5AC3 SLP215=

CYXE;2005-08-15 16:00;METAR CYXE 151600Z 30005KT 15SM -SHRA BKN017 BKN071 10/08 A3013 RMK SC5AC2 SLP218=

CYXE;2005-08-15 16:44;SPECI CYXE 151644Z 32008KT 15SM FEW017 BKN056 OVC082 12/ RMK SC2SC3AC2=

CYXE;2005-08-15 17:00;METAR CYXE 151700Z 33009KT 15SM FEW017 BKN056 BKN082 12/07 A3013 RMK SC1SC4AC2 SLP219=

CYXE;2005-08-15 18:00;METAR CYXE 151800Z 31009KT 15SM FEW025 BKN078 OVC210 13/06 A3013 RMK CU1AC5CI2 SLP218=

CYXE;2005-08-15 19:00;METAR CYXE 151900Z 32007KT 15SM FEW025 BKN110 BKN210 14/06 A3013 RMK CU1AC6CI1 SLP218=

CYXE;2005-08-15 20:00;METAR CYXE 152000Z 31008KT 15SM FEW035 BKN110 OVC210 15/05 A3014 RMK CU1AC6CI2 SLP220=

CYXE;2005-08-15 21:00;METAR CYXE 152100Z 27007KT 15SM FEW040 BKN110 OVC210 15/05 A3014 RMK SC1AC4CI2 SLP223=

CYXE;2005-08-15 22:00;METAR CYXE 152200Z 30008KT 15SM FEW040 BKN090 BKN210 16/05 A3015 RMK SC1AC4CI2 SLP224=

CYXE;2005-08-15 23:00;METAR CYXE 152300Z 31009KT 15SM FEW040 BKN080 BKN210 15/05 A3015 RMK SC1AC6CI2 SLP225=

CYXE;2005-08-16 00:00;METAR CYXE 160000Z 31008KT 15SM FEW040 BKN080 BKN210 16/05 A3015 RMK SC1AC6CI2 SLP224=

CYXE;2005-08-16 01:00;METAR CYXE 160100Z 31007KT 15SM SCT085 BKN110 BKN210 15/05 A3015 RMK AC3AC2CI2 SLP225=

CYXE;2005-08-16 02:00;METAR CYXE 160200Z 31005KT 15SM SCT085 SCT110 BKN210 13/06 A3015 RMK AC2AC2CI3 SLP225=

CYXE;2005-08-16 03:00;METAR CYXE 160300Z 01004KT 15SM BKN090 BKN210 10/07 A3017 RMK AC4CI2 SLP232=

CYXE;2005-08-16 04:00;METAR CYXE 160400Z 36005KT 15SM BKN085 BKN240 10/06 A3018 RMK AC5CI2 SLP235=

CYXE;2005-08-16 05:00;METAR CYXE 160500Z 04003KT 15SM BKN085 BKN240 10/06 A3017 RMK AC5CI2 SLP234=

CYXE;2005-08-16 06:00;METAR CYXE 160600Z 06004KT 15SM BKN085 08/06 A3019 RMK AC6 SLP238=

CYXE;2005-08-16 07:00;METAR CYXE 160700Z 05004KT 15SM OVC080 09/06 A3019 RMK AC8 SLP238=

CYXE;2005-08-16 08:00;METAR CYXE 160800Z 07004KT 15SM OVC075 09/07 A3019 RMK AC8 SLP238=

CYXE;2005-08-16 09:00;METAR CYXE 160900Z 03003KT 15SM -RA OVC075 09/07 A3020 RMK AC8 SLP239=

CYXE;2005-08-16 10:00;METAR CYXE 161000Z 00000KT 15SM -RA OVC070 09/08 A3020 RMK AC8 SLP241=

CYXE;2005-08-16 10:50;SPECI CYXE 161050Z 00000KT 15SM OVC065 09/ RMK SC8=

CYXE;2005-08-16 11:00;METAR CYXE 161100Z 05002KT 15SM OVC065 09/08 A3020 RMK SC8 SLP239=

CYXE;2005-08-16 12:00;METAR CYXE 161200Z 05003KT 15SM BKN065 09/08 A3020 RMK SC7 SLP239=

CYXE;2005-08-16 13:00;METAR CYXE 161300Z 07003KT 15SM OVC061 09/08 A3020 RMK SC8 SLP239=

CYXE;2005-08-16 14:00;METAR CYXE 161400Z 08005KT 15SM OVC056 10/08 A3018 RMK SC8 SLP233=

CYXE;2005-08-16 15:00;METAR CYXE 161500Z 08005KT 15SM OVC054 11/08 A3017 RMK SC8 SLP232=

CYXE;2005-08-16 16:00;METAR CYXE 161600Z 09007KT 15SM OVC048 12/08 A3016 RMK SC8 SLP229=

CYXE;2005-08-16 17:00;METAR CYXE 161700Z 11006KT 15SM -RA OVC046 12/08 A3016 RMK SC8 SLP227=

CYXE;2005-08-16 18:00;METAR CYXE 161800Z 09003KT 15SM -RA OVC046 11/09 A3017 RMK SC8 SLP232=

CYXE;2005-08-16 19:00;METAR CYXE 161900Z 06007KT 10SM -RA OVC029 11/09 A3015 RMK SC8 SLP225=

CYXE;2005-08-16 20:00;METAR CYXE 162000Z 05006KT 15SM FEW012 OVC031 11/10 A3014 RMK SF1SC7 SLP223=

CYXE;2005-08-16 21:00;METAR CYXE 162100Z 06009KT 15SM FEW012 BKN051 OVC091 11/10 A3012 RMK SF1SC6AC1 SLP214=

CYXE;2005-08-16 22:00;METAR CYXE 162200Z 06012KT 15SM FEW012 BKN053 OVC090 11/10 A3011 RMK SF2SC6AC1 SLP211=

CYXE;2005-08-16 22:19;SPECI CYXE 162219Z 07013KT 15SM BKN008 BKN053 OVC090 11/ RMK SF5SC2AC1=

CYXE;2005-08-16 23:00;METAR CYXE 162300Z 07014KT 15SM FEW009 BKN065 OVC100 11/09 A3008 RMK SF2SC4AC2 SLP204=

CYXE;2005-08-17 00:00;METAR CYXE 170000Z 07013KT 15SM FEW008 BKN060 OVC100 11/09 A3007 RMK SF1SC6AC2 SLP197=

CYXE;2005-08-17 00:22;SPECI CYXE 170022Z 07012KT 15SM -SHRA SCT025 BKN060 OVC095 11/ RMK SC3SC4AC1=

CYXE;2005-08-17 01:00;METAR CYXE 170100Z 07011KT 12SM -SHRA BKN030 OVC095 10/09 A3006 RMK SC6AC2 SLP193=

CYXE;2005-08-17 02:00;METAR CYXE 170200Z 06010KT 15SM -SHRA BKN030 OVC085 10/09 A3004 RMK SC6AC2 SLP188=

CYXE;2005-08-17 02:13;SPECI CYXE 170213Z 07012KT 15SM BKN040 OVC085 10/ RMK SC6AC2=

CYXE;2005-08-17 03:00;METAR CYXE 170300Z 08010KT 15SM BKN052 OVC100 10/09 A3003 RMK SC6AC2 SLP184=

CYXE;2005-08-17 03:16;SPECI CYXE 170316Z 08010KT 15SM -SHRA BKN050 OVC100 10/ RMK SC6AC2=

CYXE;2005-08-17 04:00;METAR CYXE 170400Z 06009KT 15SM BKN045 OVC100 10/09 A3000 RMK SC5AC3 SLP175=

CYXE;2005-08-17 05:00;METAR CYXE 170500Z 04008KT 15SM BKN075 OVC095 10/09 A3000 RMK AC6AC2 LTGIC DSNT S SLP173=

CYXE;2005-08-17 07:00;METAR CYXE 170700Z 07009KT 15SM OVC060 11/09 A2995 RMK SC8 SLP157=

CYXE;2005-08-17 07:34;SPECI CYXE 170734Z 04006KT 12SM -SHRA OVC055 11/ RMK SC8 TCU EMBD=

CYXE;2005-08-17 08:00;METAR CYXE 170800Z 05009KT 15SM -SHRA OVC055 11/09 A2993 RMK SC8 TCU EMBD SLP150=

CYXE;2005-08-17 08:40;SPECI CYXE 170840Z 06009KT 15SM OVC055 10/ RMK SC8 LTNG DIST SE=

CYXE;2005-08-17 09:00;METAR CYXE 170900Z 09010KT 15SM OVC055 11/10 A2991 RMK SC8 LTNG DIST SE SLP141=

CYXE;2005-08-17 10:00;METAR CYXE 171000Z 06008KT 15SM -SHRA OVC055 11/10 A2990 RMK SC8 TCU EMBD SLP140=

CYXE;2005-08-17 10:32;SPECI CYXE 171032Z 07009KT 15SM -SHRA BKN016 OVC055 10/ RMK SC5SC3 TCU EMBD=

CYXE;2005-08-17 10:54;SPECI CYXE 171054Z 07008KT 15SM OVC016 11/ RMK SC8=

CYXE;2005-08-17 11:00;METAR CYXE 171100Z 07006KT 15SM OVC016 10/10 A2989 RMK SC8 SLP136=

CYXE;2005-08-17 11:06;SPECI CYXE 171106Z 07003KT 15SM -SHRA OVC016 11/ RMK SC8 TCU EMBD=

CYXE;2005-08-17 11:46;SPECI CYXE 171146Z 06011KT 7SM -SHRA OVC012 10/ RERA RMK SC8 TCU EMBD=

CYXE;2005-08-17 12:00;METAR CYXE 171200Z 07010KT 8SM -SHRA FEW006 BKN012 OVC060 10/09 A2986 RERA RMK SF1SC6SC2 TCU EMBD SLP125=

CYXE;2005-08-17 12:32;SPECI CYXE 171232Z 09010KT 3SM -SHRA BR BKN005 OVC020 10/ RMK SF5SC3 TCU EMBDD=

CYXE;2005-08-17 13:00;METAR CYXE 171300Z 08009KT 5SM -SHRA BR BKN005 OVC050 10/10 A2985 RMK SF6SC2 TCU EMBD SLP121=

CYXE;2005-08-17 13:30;SPECI CYXE 171330Z 08007KT 12SM OVC006 10/ RMK SF8=

CYXE;2005-08-17 14:00;METAR CYXE 171400Z 09009KT 12SM OVC006 11/10 A2984 RMK SF8 SLP118=

CYXE;2005-08-17 14:45;SPECI CYXE 171445Z 08010KT 15SM OVC005 RMK ST8=

CYXE;2005-08-17 15:00;METAR CYXE 171500Z 08009KT 15SM OVC005 11/11 A2982 RMK ST8 SLP111=

CYXE;2005-08-17 16:00;METAR CYXE 171600Z 10009KT 15SM OVC006 12/11 A2981 RMK ST8 SLP109=

CYXE;2005-08-17 17:00;METAR CYXE 171700Z 12010G15KT 15SM OVC006 12/11 A2981 RMK ST8 SLP107=

CYXE;2005-08-17 17:32;SPECI CYXE 171732Z 12011KT 10SM -RA OVC005 RMK ST8=

CYXE;2005-08-17 18:00;METAR CYXE 171800Z 11010KT 10SM -DZ OVC005 12/11 A2978 RMK ST8 SLP096=

CYXE;2005-08-17 19:00;METAR CYXE 171900Z 11008KT 10SM -DZ OVC007 13/12 A2977 RMK ST8 SLP092=

CYXE;2005-08-17 20:00;METAR CYXE 172000Z 11008KT 10SM -DZ OVC008 13/12 A2976 RMK ST8 SLP090=

CYXE;2005-08-17 21:00;METAR CYXE 172100Z 07007KT 10SM -SHRA OVC010 14/13 A2975 RMK SC8 SLP084=

CYXE;2005-08-17 22:00;METAR CYXE 172200Z 08002KT 10SM -SHRA BKN006 OVC010 14/13 A2975 RMK ST5SC3 SLP084=

CYXE;2005-08-17 22:35;SPECI CYXE 172235Z 10004KT 10SM -RA SCT006 OVC014 14/ RMK ST3SC5=

CYXE;2005-08-17 23:00;METAR CYXE 172300Z 09002KT 6SM RA BR FEW010 OVC019 14/13 A2974 RMK SC2SC6 SLP081=

CYXE;2005-08-18 00:00;METAR CYXE 180000Z 10002KT 6SM -RA BR OVC020 15/14 A2973 RERA RMK SC8 SLP080=

CYXE;2005-08-18 01:00;METAR CYXE 180100Z 09002KT 8SM -RA SCT020 OVC080 15/14 A2971 RMK SC3AC5 SLP073=

CYXE;2005-08-18 01:40;SPECI CYXE 180140Z 27003KT 5SM BR SCT004 OVC020 15/ RMK ST3SC5=

CYXE;2005-08-18 02:00;METAR CYXE 180200Z 27004KT 5SM BR FEW005 SCT010 OVC022 15/14 A2971 RMK ST2SC2SC4 SLP072=

CYXE;2005-08-18 03:00;METAR CYXE 180300Z 25004KT 5SM BR FEW006 OVC016 14/14 A2973 RMK ST1SC7 SLP078=

CYXE;2005-08-18 03:50;SPECI CYXE 180350Z 28009G15KT 10SM -DZ SCT004 OVC020 13/ RMK ST3SC5=

CYXE;2005-08-18 04:00;METAR CYXE 180400Z 28009G15KT 6SM -DZ SCT004 OVC020 13/13 A2973 RMK ST4SC4 SLP079=

CYXE;2005-08-18 05:00;METAR CYXE 180500Z 26005KT 10SM FEW005 OVC017 13/12 A2973 RMK ST2SC6 BR SLP079=

CYXE;2005-08-18 06:00;METAR CYXE 180600Z 26007KT 15SM OVC025 12/11 A2974 RMK SC8 SLP083=

CYXE;2005-08-18 06:11;SPECI CYXE 180611Z 26008KT 15SM FEW005 OVC027 12/ RMK SF1SC7=

CYXE;2005-08-18 07:00;METAR CYXE 180700Z 26009KT 15SM -DZ FEW005 BKN013 OVC035 12/11 A2974 RMK SF1SC5SC2 SLP084=

CYXE;2005-08-18 07:41;SPECI CYXE 180741Z 27009KT 15SM -DZ OVC006 11/ RMK SF8=

CYXE;2005-08-18 08:00;METAR CYXE 180800Z 30012KT 15SM -DZ BKN006 OVC010 11/10 A2973 RMK SF5SC3 SLP081=

CYXE;2005-08-18 08:17;SPECI CYXE 180817Z 29012KT 15SM OVC008 11/ RMK SF8=

CYXE;2005-08-18 09:00;METAR CYXE 180900Z 28013G21KT 15SM OVC012 10/09 A2976 RMK SC8 RGD CIG SLP088=

CYXE;2005-08-18 10:00;METAR CYXE 181000Z 29012KT 15SM OVC014 09/08 A2976 RMK SC8 RGD CIG SLP089=

CYXE;2005-08-18 11:00;METAR CYXE 181100Z 27009KT 15SM OVC016 09/07 A2977 RMK SC8 RGD CIG SLP093=

CYXE;2005-08-18 12:00;METAR CYXE 181200Z 27008KT 15SM OVC020 09/07 A2977 RMK SC8 SLP094=

CYXE;2005-08-18 13:00;METAR CYXE 181300Z 29012KT 15SM OVC018 09/07 A2978 RMK SC8 SLP097=

CYXE;2005-08-18 13:33;SPECI CYXE 181333Z 26008KT 15SM OVC014 09/ RMK SC8=

CYXE;2005-08-18 14:00;METAR CYXE 181400Z 27012KT 15SM BKN018 10/07 A2979 RMK SC6 SLP100=

CYXE;2005-08-18 15:00;METAR CYXE 181500Z 27017KT 15SM FEW018 10/06 A2979 RMK CU2 SLP100=

CYXE;2005-08-18 16:00;METAR CYXE 181600Z 26016KT 15SM SCT021 11/06 A2979 RMK CU3 SLP099=

CYXE;2005-08-18 17:00;METAR CYXE 181700Z 28020KT 15SM SCT025 13/06 A2979 RMK SC3 SLP098=

CYXE;2005-08-18 18:00;METAR CYXE 181800Z 27013G21KT 15SM SCT031 14/06 A2978 RMK SC3 SLP096=

CYXE;2005-08-18 19:00;METAR CYXE 181900Z 28016KT 15SM SCT034 15/07 A2978 RMK SC3 SLP095=

CYXE;2005-08-18 20:00;METAR CYXE 182000Z 28015KT 15SM BKN039 16/07 A2978 RMK SC6 SLP095=

CYXE;2005-08-18 21:00;METAR CYXE 182100Z 28012G19KT 15SM BKN045 16/05 A2978 RMK SC6 SLP094=

CYXE;2005-08-18 22:00;METAR CYXE 182200Z 27014G22KT 15SM BKN053 BKN080 17/05 A2977 RMK SC6AC1 SLP092=

CYXE;2005-08-18 23:00;METAR CYXE 182300Z 26010G16KT 15SM BKN050 16/05 A2977 RMK SC6 SLP093=

CYXE;2005-08-19 00:00;METAR CYXE 190000Z 26012KT 15SM BKN050 16/05 A2977 RMK SC6 SLP091=

CYXE;2005-08-19 01:00;METAR CYXE 190100Z 25010KT 15SM FEW060 15/04 A2977 RMK SC2 SLP092=

CYXE;2005-08-19 02:00;METAR CYXE 190200Z 22007KT 15SM FEW060 11/05 A2977 RMK SC2 SLP091=

CYXE;2005-08-19 03:00;METAR CYXE 190300Z 22009KT 15SM BKN050 BKN250 11/06 A2977 RMK SC5CI1 TCU EMBD SLP095=

CYXE;2005-08-19 04:00;METAR CYXE 190400Z 25006KT 15SM BKN050 BKN250 09/06 A2977 RMK SC2CI2 SLP096=

CYXE;2005-08-19 05:00;METAR CYXE 190500Z 23007KT 15SM SCT090 BKN250 08/06 A2977 RMK AC3CI1 SLP095=

CYXE;2005-08-19 06:00;METAR CYXE 190600Z 22007KT 15SM -SHRA OVC054 09/07 A2977 RMK SC8 SLP093=

CYXE;2005-08-19 06:34;SPECI CYXE 190634Z 21006KT 15SM BKN032 OVC082 09/ RMK SC6AC2=

CYXE;2005-08-19 07:00;METAR CYXE 190700Z 21007KT 15SM BKN032 OVC056 09/08 A2977 RMK SC7SC1 SLP092=

CYXE;2005-08-19 08:00;METAR CYXE 190800Z 22006KT 15SM BKN045 OVC068 09/07 A2976 RMK SC6AC2 SLP090=

CYXE;2005-08-19 09:00;METAR CYXE 190900Z 21006KT 15SM OVC045 08/07 A2975 RMK SC8 SLP087=

CYXE;2005-08-19 09:25;SPECI CYXE 190925Z 21006KT 15SM BKN014 OVC053 08/ RMK SC6SC2=

CYXE;2005-08-19 09:42;SPECI CYXE 190942Z 22006KT 15SM -DZ OVC009 08/ RMK SF8=

CYXE;2005-08-19 10:00;METAR CYXE 191000Z 22005KT 6SM -DZ OVC006 08/08 A2975 RMK SF8 SLP087=

CYXE;2005-08-19 10:29;SPECI CYXE 191029Z 21006KT 4SM -SHRA BR OVC008 09/ RMK SF8=

CYXE;2005-08-19 11:00;METAR CYXE 191100Z 22006KT 6SM -SHRA BR BKN007 OVC027 09/08 A2975 RMK SF7SC1 SLP085=

CYXE;2005-08-19 11:29;SPECI CYXE 191129Z 22005KT 8SM BKN013 BKN027 09/ RMK SF6SC2 BR=

CYXE;2005-08-19 12:00;METAR CYXE 191200Z 22004KT 15SM BKN009 BKN048 08/08 A2975 RMK SF6SC1 SLP087=

CYXE;2005-08-19 12:12;SPECI CYXE 191212Z 22003KT 6SM BR FEW004 BKN010 BKN070 08/ RMK SF1SF5AC2=

CYXE;2005-08-19 13:00;METAR CYXE 191300Z 21004KT 8SM BKN010 BKN021 BKN050 09/08 A2976 RMK SF6SC1SC1 BR SLP090=

CYXE;2005-08-19 13:19;SPECI CYXE 191319Z 25004KT 10SM OVC009 09/ RMK SF7=

CYXE;2005-08-19 14:00;METAR CYXE 191400Z 30007KT 10SM OVC005 10/09 A2978 RMK SF8 SLP097=

CYXE;2005-08-19 15:00;METAR CYXE 191500Z 32004KT 15SM SCT005 BKN018 11/09 A2979 RMK SF4SC3 SLP102=

CYXE;2005-08-19 16:00;METAR CYXE 191600Z 29010KT 15SM SCT009 BKN016 11/08 A2981 RMK SF4SC2 SLP107=

CYXE;2005-08-19 17:00;METAR CYXE 191700Z 30008KT 15SM SCT017 BKN059 13/08 A2982 RMK SF3SC2 SLP110=

CYXE;2005-08-19 18:00;METAR CYXE 191800Z 31010G15KT 15SM SCT026 15/08 A2982 RMK CU4 SLP110=

CYXE;2005-08-19 19:00;METAR CYXE 191900Z 30009KT 15SM SCT033 16/07 A2982 RMK CU4 SLP111=

CYXE;2005-08-19 20:00;METAR CYXE 192000Z 32013KT 15SM SCT042 17/06 A2983 RMK CU4 SLP114=

CYXE;2005-08-19 21:00;METAR CYXE 192100Z 31010G15KT 15SM SCT046 18/06 A2984 RMK CU4 SLP115=

CYXE;2005-08-19 22:00;METAR CYXE 192200Z 30010KT 15SM SCT048 18/06 A2984 RMK CU4 SLP116=

CYXE;2005-08-19 23:00;METAR CYXE 192300Z 32014KT 15SM SCT055 18/06 A2985 RMK CU3 SLP117=

CYXE;2005-08-20 00:00;METAR CYXE 200000Z 30011KT 15SM SCT052 18/08 A2986 RMK CU3 SLP122=

CYXE;2005-08-20 01:00;METAR CYXE 200100Z 30009KT 15SM FEW050 18/08 A2987 RMK CU2 SLP124=

CYXE;2005-08-20 02:00;METAR CYXE 200200Z 29009KT 15SM SCT042 16/08 A2989 RMK SC4 SLP130=

CYXE;2005-08-20 03:00;METAR CYXE 200300Z 30006KT 15SM SCT044 14/09 A2991 RMK CU3 SLP140=

CYXE;2005-08-20 04:00;METAR CYXE 200400Z 29008KT 15SM FEW040 11/08 A2992 RMK SC1 SLP144=

CYXE;2005-08-20 05:00;METAR CYXE 200500Z 31008KT 15SM SKC 11/09 A2993 RMK SLP146=

CYXE;2005-08-20 06:00;METAR CYXE 200600Z 31007KT 15SM SKC 09/08 A2994 RMK SLP152=

CYXE;2005-08-20 07:00;METAR CYXE 200700Z 29007KT 15SM SKC 08/07 A2995 RMK SLP156=

CYXE;2005-08-20 08:00;METAR CYXE 200800Z 30005KT 15SM SKC 08/07 A2996 RMK SLP159=

CYXE;2005-08-20 09:00;METAR CYXE 200900Z 31003KT 15SM SKC 07/06 A2998 RMK SLP163=

CYXE;2005-08-20 10:00;METAR CYXE 201000Z 32005KT 15SM BCFG SKC 06/05 A2999 RMK SLP169=

CYXE;2005-08-20 11:00;METAR CYXE 201100Z 01003KT 15SM BCFG SKC 05/04 A3001 RMK SLP173=

CYXE;2005-08-20 12:00;METAR CYXE 201200Z 24005KT 8SM R09/3000VP6000FT/D PRFG SKC 04/03 A3003 RMK VSBY W 1/2 FG SLP182=

CYXE;2005-08-20 12:40;SPECI CYXE 201240Z 26002KT 5SM R09/3000VP6000FT/U PRFG SKC 04/ RMK FG1 VSBY S-NW 1/2 FG=

CYXE;2005-08-20 13:00;METAR CYXE 201300Z 00000KT 10SM BCFG SKC 05/05 A3004 RMK SLP185=

CYXE;2005-08-20 14:00;METAR CYXE 201400Z 24003KT 15SM FEW002 09/08 A3006 RMK ST1 SLP191=

CYXE;2005-08-20 15:00;METAR CYXE 201500Z 20003KT 15SM FEW010 FEW250 12/10 A3007 RMK SC1CI1 SLP194=

CYXE;2005-08-20 16:00;METAR CYXE 201600Z 03003KT 15SM FEW017 SCT250 15/10 A3008 RMK SC2CI1 SLP196=

CYXE;2005-08-20 17:00;METAR CYXE 201700Z 09002KT 15SM FEW020 BKN250 16/10 A3008 RMK SC2CI0 SLP196=

CYXE;2005-08-20 18:00;METAR CYXE 201800Z 33003KT 15SM BKN030 BKN250 18/10 A3008 RMK CU5CI0 SLP195=

CYXE;2005-08-20 19:00;METAR CYXE 201900Z 17002KT 15SM BKN035 BKN250 17/10 A3008 RMK CU6CI1 SLP197=

CYXE;2005-08-20 20:00;METAR CYXE 202000Z 04003KT 15SM SCT040 BKN250 18/09 A3008 RMK CU3CI1 SLP197=

CYXE;2005-08-20 21:00;METAR CYXE 202100Z 07002KT 15SM FEW040 OVC250 19/09 A3008 RMK CU2CI2 SLP196=

CYXE;2005-08-20 22:00;METAR CYXE 202200Z 08005KT 15SM FEW090 OVC250 19/10 A3007 RMK AC2CI6 SLP193=

CYXE;2005-08-20 23:00;METAR CYXE 202300Z 09007KT 15SM FEW040 BKN110 BKN250 21/10 A3007 RMK CU1AC2CI2 SLP194=

CYXE;2005-08-21 00:00;METAR CYXE 210000Z 18002KT 15SM SCT110 BKN250 20/10 A3007 RMK AC2CI2 SLP195=

CYXE;2005-08-21 01:00;METAR CYXE 210100Z 12005KT 15SM BKN110 OVC250 19/10 A3006 RMK AC5CI2 SLP193=

CYXE;2005-08-21 02:00;METAR CYXE 210200Z 07005KT 15SM BKN110 OVC250 16/11 A3008 RMK AC5CI2 SLP198=

CYXE;2005-08-21 03:00;METAR CYXE 210300Z 10009KT 15SM FEW110 BKN250 15/09 A3009 RMK AC2CI2 SLP201=

CYXE;2005-08-21 04:00;METAR CYXE 210400Z 11011KT 15SM SCT110 BKN250 14/09 A3009 RMK AC2CI2 SLP202=

CYXE;2005-08-21 05:00;METAR CYXE 210500Z 12012KT 15SM SCT110 BKN250 13/09 A3010 RMK AC2CI0 SLP203=

CYXE;2005-08-21 06:00;METAR CYXE 210600Z 12011G17KT 15SM SCT110 BKN250 12/09 A3010 RMK AC2CI0 SLP203=

CYXE;2005-08-21 07:00;METAR CYXE 210700Z 13012KT 15SM FEW110 BKN250 11/08 A3012 RMK AC1CI0 SLP208=

CYXE;2005-08-21 08:00;METAR CYXE 210800Z 13010G15KT 15SM BKN250 11/08 A3012 RMK CS0 SLP209=

CYXE;2005-08-21 09:00;METAR CYXE 210900Z 13009KT 15SM BKN250 11/08 A3012 RMK CS1 SLP209=

CYXE;2005-08-21 10:00;METAR CYXE 211000Z 12009KT 15SM BKN250 10/08 A3012 RMK CS1 SLP209=

CYXE;2005-08-21 11:00;METAR CYXE 211100Z 13010KT 15SM BKN250 10/08 A3011 RMK CS1 SLP207=

CYXE;2005-08-21 12:00;METAR CYXE 211200Z 13010KT 15SM BKN250 09/08 A3011 RMK CS1 SLP206=

CYXE;2005-08-21 13:00;METAR CYXE 211300Z 12010KT 15SM BKN250 10/08 A3011 RMK CI1 SLP205=

CYXE;2005-08-21 14:00;METAR CYXE 211400Z 13009G15KT 15SM BKN250 12/09 A3010 RMK CI1 SLP204=

CYXE;2005-08-21 15:00;METAR CYXE 211500Z 12012KT 15SM FEW250 14/10 A3011 RMK CI1 SLP205=

CYXE;2005-08-21 16:00;METAR CYXE 211600Z 13012KT 15SM FEW250 17/11 A3011 RMK CI0 SLP206=

CYXE;2005-08-21 17:00;METAR CYXE 211700Z 12012G18KT 15SM SKC 19/11 A3008 RMK SLP198=

CYXE;2005-08-21 18:00;METAR CYXE 211800Z 14012G17KT 15SM SKC 21/12 A3007 RMK SLP191=

CYXE;2005-08-21 19:00;METAR CYXE 211900Z 15013KT 15SM SKC 23/12 A3006 RMK SLP188=

CYXE;2005-08-21 20:00;METAR CYXE 212000Z 12010G18KT 15SM SKC 24/12 A3004 RMK SLP180=

CYXE;2005-08-21 21:00;METAR CYXE 212100Z 12012G17KT 15SM SKC 25/12 A3002 RMK SLP171=

CYXE;2005-08-21 22:00;METAR CYXE 212200Z 14011G18KT 15SM SKC 26/12 A3000 RMK SLP164=

CYXE;2005-08-21 23:00;METAR CYXE 212300Z 14012KT 15SM SKC 26/12 A2997 RMK SLP156=

CYXE;2005-08-22 00:00;METAR CYXE 220000Z 14012KT 15SM SKC 27/13 A2995 RMK SLP148=

CYXE;2005-08-22 01:00;METAR CYXE 220100Z 12010G16KT 15SM SKC 25/13 A2993 RMK SLP140=

CYXE;2005-08-22 02:00;METAR CYXE 220200Z 13011KT 15SM SKC 24/12 A2991 RMK SLP135=

CYXE;2005-08-22 03:00;METAR CYXE 220300Z 12014KT 15SM SKC 22/12 A2990 RMK SLP129=

CYXE;2005-08-22 04:00;METAR CYXE 220400Z 13015G20KT 15SM SKC 21/12 A2988 RMK SLP125=

CYXE;2005-08-22 05:00;METAR CYXE 220500Z 13014KT 15SM SKC 19/12 A2986 RMK SLP118=

CYXE;2005-08-22 06:00;METAR CYXE 220600Z 14014G21KT 15SM SKC 18/12 A2984 RMK SLP109=

CYXE;2005-08-22 07:00;METAR CYXE 220700Z 15012KT 15SM SKC 18/12 A2982 RMK SLP103=

CYXE;2005-08-22 08:00;METAR CYXE 220800Z 16010KT 15SM SKC 17/12 A2981 RMK SLP100=

CYXE;2005-08-22 09:00;METAR CYXE 220900Z 17010KT 15SM SKC 17/11 A2980 RMK SLP091=

CYXE;2005-08-22 10:00;METAR CYXE 221000Z 17009KT 15SM SKC 16/11 A2977 RMK SLP084=

CYXE;2005-08-22 11:00;METAR CYXE 221100Z 16008KT 15SM SKC 16/11 A2977 RMK SLP081=

CYXE;2005-08-22 12:00;METAR CYXE 221200Z 18007KT 15SM SKC 15/11 A2977 RMK SLP082=

CYXE;2005-08-22 13:00;METAR CYXE 221300Z 19007KT 15SM SKC 15/11 A2978 RMK SLP085=

CYXE;2005-08-22 14:00;METAR CYXE 221400Z 21006KT 15SM SKC 16/11 A2979 RMK SLP090=

CYXE;2005-08-22 15:00;METAR CYXE 221500Z 29005KT 15SM SKC 18/11 A2980 RMK SLP092=

CYXE;2005-08-22 16:00;METAR CYXE 221600Z 36008KT 15SM SKC 20/12 A2983 RMK SLP102=

CYXE;2005-08-22 17:00;METAR CYXE 221700Z 36013KT 15SM FEW330 22/14 A2985 RMK CI0 SLP108=

CYXE;2005-08-22 18:00;METAR CYXE 221800Z 01013G18KT 15SM FEW330 24/14 A2985 RMK CI1 SLP111=

CYXE;2005-08-22 19:00;METAR CYXE 221900Z 02011G18KT 15SM SCT330 26/13 A2986 RMK CI1 SLP112=

CYXE;2005-08-22 20:00;METAR CYXE 222000Z 01011G18KT 15SM SCT330 26/13 A2986 RMK CI1 SLP115=

CYXE;2005-08-22 21:00;METAR CYXE 222100Z 36013KT 15SM SCT330 27/12 A2987 RMK CI1 SLP116=

CYXE;2005-08-22 22:00;METAR CYXE 222200Z 35011G17KT 15SM SCT330 27/11 A2986 RMK CI1 SLP114=

CYXE;2005-08-22 23:00;METAR CYXE 222300Z 36008G15KT 15SM FEW300 26/13 A2986 RMK CI1 SLP113=

CYXE;2005-08-23 00:00;METAR CYXE 230000Z 35009KT 15SM FEW170 FEW280 25/12 A2987 RMK AC1CI1 SLP117=

CYXE;2005-08-23 01:00;METAR CYXE 230100Z 36007KT 15SM FEW150 BKN250 21/11 A2987 RMK AC1CI3 SLP118=

CYXE;2005-08-23 02:00;METAR CYXE 230200Z 32007KT 15SM FEW110 OVC220 20/11 A2988 RMK AC2CI3 SLP120=

CYXE;2005-08-23 03:00;METAR CYXE 230300Z 32006KT 15SM SCT110 OVC220 16/12 A2989 RMK AC3CI3 ACC ASOCTD SLP126=

CYXE;2005-08-23 04:00;METAR CYXE 230400Z 33006KT 15SM BKN110 OVC220 17/11 A2989 RMK AC6CI2 SLP128=

CYXE;2005-08-23 05:00;METAR CYXE 230500Z 33010KT 15SM OVC110 16/11 A2991 RMK AC8 SLP135=

CYXE;2005-08-23 06:00;METAR CYXE 230600Z 06011KT 15SM OVC110 17/09 A2988 RMK AC8 SLP120=

CYXE;2005-08-23 07:00;METAR CYXE 230700Z 04008KT 15SM VCSH SCT050 OVC100 16/09 A2987 RMK SC4AC4 SLP119=

CYXE;2005-08-23 08:00;METAR CYXE 230800Z 06009KT 15SM VCSH FEW050 SCT085 OVC110 16/10 A2988 RMK SC2AC2AC4 SLP122=

CYXE;2005-08-23 09:00;METAR CYXE 230900Z 05006KT 15SM SCT085 OVC110 15/11 A2989 RMK AC3AC5 SLP124=

CYXE;2005-08-23 09:34;SPECI CYXE 230934Z 00000KT 12SM -SHRA BKN040 OVC100 15/ RMK SC6AC2=

CYXE;2005-08-23 10:00;METAR CYXE 231000Z 33002KT 12SM -SHRA OVC030 14/12 A2989 RMK SC8 SLP124=

CYXE;2005-08-23 11:00;METAR CYXE 231100Z 35005KT 15SM -SHRA OVC045 13/12 A2987 RMK SC8 SLP118=

CYXE;2005-08-23 11:08;SPECI CYXE 231108Z 33003KT 15SM BKN045 OVC100 13/ RMK SC5AC3=

CYXE;2005-08-23 12:00;METAR CYXE 231200Z 03004KT 15SM FEW040 OVC100 13/12 A2987 RMK SC2AC6 SLP118=

CYXE;2005-08-23 12:45;SPECI CYXE 231245Z 02003KT 15SM -SHRA FEW040 OVC100 13/ RMK SC2AC6=

CYXE;2005-08-23 13:00;METAR CYXE 231300Z 01010KT 15SM -RA SCT035 OVC100 13/12 A2985 RMK SC3AC5 SLP111=

CYXE;2005-08-23 13:27;SPECI CYXE 231327Z 05005KT 15SM FEW035 OVC095 14/ RMK SC2AC6=

CYXE;2005-08-23 13:45;SPECI CYXE 231345Z 07002KT 15SM -SHRA BKN035 OVC095 14/ RMK SC5AC3=

CYXE;2005-08-23 14:00;METAR CYXE 231400Z 03005KT 15SM -SHRA OVC036 14/12 A2986 RMK SC8 SLP116=

CYXE;2005-08-23 15:00;METAR CYXE 231500Z 04010KT 15SM -SHRA OVC023 14/12 A2983 RERA RMK SC8 SLP111=

CYXE;2005-08-23 16:00;METAR CYXE 231600Z 04007KT 15SM -RA OVC032 13/12 A2987 RMK SC8 SLP122=

CYXE;2005-08-23 17:00;METAR CYXE 231700Z 06011KT 10SM -RA BKN035 OVC070 13/12 A2984 RMK SC7AC1 SLP114=

CYXE;2005-08-23 18:00;METAR CYXE 231800Z 07014KT 10SM -RA FEW015 SCT035 OVC070 14/13 A2980 RERA RMK SC1SC3AC4 SLP098=

CYXE;2005-08-23 18:38;SPECI CYXE 231838Z 05010KT 15SM FEW015 OVC080 RMK SC2AC6=

CYXE;2005-08-23 19:00;METAR CYXE 231900Z 06013KT 15SM FEW020 BKN080 OVC250 15/14 A2977 RMK SC1AC5CI2 SLP089=

CYXE;2005-08-23 20:00;METAR CYXE 232000Z 05016KT 15SM FEW015 BKN070 OVC250 15/14 A2977 RMK SC2AC4CI2 SLP088=

CYXE;2005-08-23 20:08;SPECI CYXE 232008Z 05015KT 15SM BKN008 OVC070 15/ RMK ST5AC3=

CYXE;2005-08-23 20:35;SPECI CYXE 232035Z 05012G17KT 15SM SCT008 BKN065 OVC090 15/ RMK ST3SC3AC2=

CYXE;2005-08-23 21:00;METAR CYXE 232100Z 05014KT 15SM FEW008 BKN065 OVC090 15/14 A2977 RMK ST2SC4AC2 SLP089=

CYXE;2005-08-23 22:00;METAR CYXE 232200Z 05017KT 15SM FEW008 BKN068 OVC250 15/13 A2976 RMK ST2AC5CI2 SLP086=

CYXE;2005-08-23 22:39;SPECI CYXE 232239Z 06016KT 15SM BKN010 OVC065 15/ RMK SF5SC3=

CYXE;2005-08-23 23:00;METAR CYXE 232300Z 06012G18KT 15SM BKN010 OVC065 15/12 A2976 RMK SF6SC2 SLP085=

CYXE;2005-08-24 00:00;METAR CYXE 240000Z 05013KT 15SM OVC010 15/12 A2974 RMK SF8 SLP081=

CYXE;2005-08-24 00:09;SPECI CYXE 240009Z 05014G19KT 15SM OVC009 14/ RMK SF8=

CYXE;2005-08-24 01:00;METAR CYXE 240100Z 04013KT 15SM OVC008 14/12 A2973 RMK SF8 SLP076=

CYXE;2005-08-24 02:00;METAR CYXE 240200Z 04015KT 6SM BR OVC006 14/12 A2973 RMK SF8 SLP076=

CYXE;2005-08-24 03:00;METAR CYXE 240300Z 04011KT 6SM BR OVC006 14/12 A2973 RMK SF8 SLP078=

CYXE;2005-08-24 03:12;SPECI CYXE 240312Z 04014KT 6SM BR OVC005 14/ RMK SF8=

CYXE;2005-08-24 04:00;METAR CYXE 240400Z 03015KT 6SM BR OVC005 13/12 A2973 RMK SF8 SLP077=

CYXE;2005-08-24 04:32;SPECI CYXE 240432Z 04010G18KT 6SM BR OVC004 13/ RMK SF8=

CYXE;2005-08-24 05:00;METAR CYXE 240500Z 04011G16KT 6SM BR OVC004 13/12 A2970 RMK SF8 SLP068=

CYXE;2005-08-24 06:00;METAR CYXE 240600Z 03011KT 10SM OVC004 13/12 A2971 RMK SF8 BR SLP069=

CYXE;2005-08-24 07:00;METAR CYXE 240700Z 03011KT 10SM OVC004 13/12 A2971 RMK SF8 BR SLP069=

CYXE;2005-08-24 08:00;METAR CYXE 240800Z 04011G16KT 15SM OVC005 13/12 A2968 RMK SF8 SLP061=

CYXE;2005-08-24 08:42;SPECI CYXE 240842Z 04012KT 6SM -DZ OVC004 13/ RMK SF8=

CYXE;2005-08-24 09:00;METAR CYXE 240900Z 04012G17KT 6SM -DZ OVC004 13/12 A2967 RMK SF8 SLP055=

CYXE;2005-08-24 09:42;SPECI CYXE 240942Z 04011KT 3SM -DZ BR OVC002 RMK SF8=

CYXE;2005-08-24 09:52;SPECI CYXE 240952Z 04012KT 2SM -DZ BR OVC002 RMK FG2SF6=

CYXE;2005-08-24 10:00;METAR CYXE 241000Z 03010G16KT 2SM -DZ BR OVC002 13/12 A2965 RMK FG2SF6 SLP050=

CYXE;2005-08-24 10:32;SPECI CYXE 241032Z 03012KT 3/4SM R09/P6000FT/D -DZ BR OVC002 RMK FG3SF5=

CYXE;2005-08-24 11:00;METAR CYXE 241100Z 04010KT 1/2SM R09/P6000FT/N -DZ FG VV002 13/12 A2964 RMK FG8 SLP046=

CYXE;2005-08-24 11:24;SPECI CYXE 241124Z 04010KT 1/2SM R09/P6000FT/D -DZ FG VV001 13/ RMK FG8=

CYXE;2005-08-24 12:00;METAR CYXE 241200Z 04009KT 3/4SM R09/P6000FT/U -DZ BR VV001 13/13 A2963 RMK FG8 SLP044=

CYXE;2005-08-24 12:30;SPECI CYXE 241230Z 04010KT 1SM R09/P6000FT/U -DZ BR OVC002 13/ RMK FG2SF6=

CYXE;2005-08-24 13:00;METAR CYXE 241300Z 04013KT 1 1/4SM -RA BR OVC002 13/13 A2961 RMK FG2SF6 SLP037=

CYXE;2005-08-24 13:31;SPECI CYXE 241331Z 03010KT 2SM -RA BR OVC002 RMK SF8=

CYXE;2005-08-24 14:00;METAR CYXE 241400Z 03007KT 2SM -RA BR OVC003 13/13 A2961 RMK ST8 SLP035=

CYXE;2005-08-24 14:36;SPECI CYXE 241436Z 05011KT 5SM -DZ BR OVC004 13/ RERA RMK ST8=

CYXE;2005-08-24 14:47;SPECI CYXE 241447Z 05013KT 5SM -RA BR BKN004 OVC015 13/ RERA RMK ST7SC1=

CYXE;2005-08-24 15:00;METAR CYXE 241500Z 05009G15KT 5SM -RA BR OVC004 13/13 A2959 RERA RMK ST8 SLP031=

CYXE;2005-08-24 15:46;SPECI CYXE 241546Z 06010KT 2SM -RA BR OVC003 13/ RMK ST8=

CYXE;2005-08-24 16:00;METAR CYXE 241600Z 06008KT 1 1/2SM -RA BR OVC003 13/13 A2960 RMK ST8 SLP032=

CYXE;2005-08-24 16:16;SPECI CYXE 241616Z 07006KT 1SM R09/4000V5500FT/U -DZ BR OVC002 14/ RMK ST8=

CYXE;2005-08-24 16:31;SPECI CYXE 241631Z 07006KT 1 1/2SM R09/5500FT/U -DZ BR OVC003 14/ RMK ST8=

CYXE;2005-08-24 17:00;METAR CYXE 241700Z 07005KT 3SM -DZ BR OVC004 15/14 A2958 RMK ST8 SLP026=

CYXE;2005-08-24 18:00;METAR CYXE 241800Z 17003KT 8SM -DZ OVC006 15/14 A2959 RMK ST8 /R10/ SLP027=

CYXE;2005-08-24 18:19;SPECI CYXE 241819Z 17008KT 15SM OVC006 15/ RMK ST8=

CYXE;2005-08-24 19:00;METAR CYXE 241900Z 20005KT 15SM BKN008 OVC015 15/14 A2958 RMK ST7SC1 SLP026=

CYXE;2005-08-24 19:22;SPECI CYXE 241922Z 20004KT 15SM SCT008 OVC012 16/ RMK ST3SC5=

CYXE;2005-08-24 20:00;METAR CYXE 242000Z 22007KT 15SM BKN012 OVC020 15/14 A2959 RMK SC7SC1 SLP027=

CYXE;2005-08-24 21:00;METAR CYXE 242100Z 22010KT 15SM OVC014 16/14 A2959 RMK SC8 SLP030=

CYXE;2005-08-24 22:00;METAR CYXE 242200Z 21009KT 15SM BKN014 BKN043 16/14 A2961 RMK SC6SC2 SLP034=

CYXE;2005-08-24 22:34;SPECI CYXE 242234Z 23013KT 15SM SCT015 BKN023 BKN220 17/ RMK SC4SC2CI1=

CYXE;2005-08-24 23:00;METAR CYXE 242300Z 22011G16KT 15SM SCT018 SCT023 BKN043 18/13 A2961 RMK SC3SC1SC2 SLP034=

CYXE;2005-08-25 00:00;METAR CYXE 250000Z 23006KT 15SM SCT027 BKN051 BKN220 19/12 A2961 RMK CU3SC2CI1 SLP034=

CYXE;2005-08-25 01:00;METAR CYXE 250100Z 23003KT 15SM SCT036 BKN110 BKN220 18/12 A2961 RMK CU4AC2CI0 TCU ASOCTD SLP032=

CYXE;2005-08-25 02:00;METAR CYXE 250200Z 14006KT 15SM BKN038 BKN075 17/11 A2962 RMK SC6AC2 TCU EMBDD ACC ASOCTD SLP037=

CYXE;2005-08-25 03:00;METAR CYXE 250300Z 00000KT 15SM FEW049 SCT055CB SCT110 BKN220 15/10 A2961 RMK SC2CB1AC1CI0 CB SW SLP036=

CYXE;2005-08-25 04:00;METAR CYXE 250400Z 10003KT 15SM SCT062 13/09 A2960 RMK SC3 SLP032=

CYXE;2005-08-25 05:00;METAR CYXE 250500Z 11004KT 15SM FEW070 BKN081 13/10 A2959 RMK AC2AC5 SLP029=

CYXE;2005-08-25 06:00;METAR CYXE 250600Z 05002KT 15SM FEW070 OVC095 11/10 A2958 RMK AC2AC5 SLP027=

CYXE;2005-08-25 07:00;METAR CYXE 250700Z 21003KT 15SM -SHRA OVC065 12/10 A2957 RMK SC8 SLP022=

CYXE;2005-08-25 07:29;SPECI CYXE 250729Z 19006KT 15SM OVC065 12/ RMK SC8=

CYXE;2005-08-25 08:00;METAR CYXE 250800Z 21007KT 15SM BKN055 OVC090 12/10 A2957 RMK SC6AC2 SLP023=

CYXE;2005-08-25 08:09;SPECI CYXE 250809Z 21007KT 15SM -SHRA BKN053 OVC075 12/ RMK SC6AC2=

CYXE;2005-08-25 09:00;METAR CYXE 250900Z 21004KT 8SM -RA OVC030 11/10 A2958 RMK SC8 SLP025=

CYXE;2005-08-25 09:12;SPECI CYXE 250912Z 21004KT 6SM RA FEW008 OVC028 11/ RMK SF1SC7=

CYXE;2005-08-25 10:00;METAR CYXE 251000Z 18004KT 6SM RA FEW008 OVC025 11/10 A2956 RMK SF1SC7 SLP021=

CYXE;2005-08-25 10:39;SPECI CYXE 251039Z 23005KT 12SM -RA BKN003 OVC080 11/ RMK SF6AC2=

CYXE;2005-08-25 11:00;METAR CYXE 251100Z 20005KT 12SM -RA BKN003 OVC020 11/10 A2956 RERA RMK SF6SC2 SLP021=

CYXE;2005-08-25 11:34;SPECI CYXE 251134Z 19004KT 15SM -RA SCT004 BKN025 OVC060 11/ RMK SF3SC3SC2=

CYXE;2005-08-25 12:00;METAR CYXE 251200Z 21003KT 15SM -RA BKN006 OVC030 11/10 A2956 RMK SF6SC2 SLP019=

CYXE;2005-08-25 12:16;SPECI CYXE 251216Z 20003KT 1SM R09/5500FT/D RA BKN005 OVC015 11/ RMK SF7SC1=

CYXE;2005-08-25 12:43;SPECI CYXE 251243Z 31003KT 15SM -RA BKN003 OVC040 11/ RERA RMK SF7SC1=

CYXE;2005-08-25 13:00;METAR CYXE 251300Z 31004KT 15SM BKN005 OVC025 11/11 A2955 RERA RMK SF7SC1 SLP016=

CYXE;2005-08-25 14:00;METAR CYXE 251400Z 33007KT 15SM BKN005 OVC025 12/11 A2955 RMK SF7SC1 SLP016=

CYXE;2005-08-25 15:00;METAR CYXE 251500Z 36007KT 15SM BKN006 OVC080 12/11 A2957 RMK SF7AC1 SLP023=

CYXE;2005-08-25 16:00;METAR CYXE 251600Z 02009KT 15SM BKN006 OVC025 12/11 A2960 RMK SF7SC1 SLP031=

CYXE;2005-08-25 17:00;METAR CYXE 251700Z 01007KT 15SM -SHRA SCT008 BKN015 BKN030 12/11 A2963 RMK SF3CU2SC2 SLP040=

CYXE;2005-08-25 17:18;SPECI CYXE 251718Z 01009KT 15SM VCSH FEW008 BKN015 BKN045 13/ RMK SF2CU3SC2=

CYXE;2005-08-25 18:00;METAR CYXE 251800Z 35013KT 15SM VCSH BKN012 BKN040 13/11 A2964 RMK CU5SC2 SLP049=

CYXE;2005-08-25 18:31;SPECI CYXE 251831Z 36009KT 15SM SCT015 BKN050 15/ RMK CU3SC4=

CYXE;2005-08-25 19:00;METAR CYXE 251900Z 36011KT 15SM SCT020 BKN050 15/11 A2965 RMK CU3SC3 SLP051=

CYXE;2005-08-25 20:00;METAR CYXE 252000Z 32013KT 15SM BKN022 BKN050 16/11 A2966 RMK CU5SC2 SLP054=

CYXE;2005-08-25 21:00;METAR CYXE 252100Z 33013KT 15SM VCSH BKN020TCU OVC060 16/12 A2968 RMK TCU5SC3 SLP058=

CYXE;2005-08-25 22:00;METAR CYXE 252200Z 30014KT 15SM SCT040CB BKN078 BKN220 16/13 A2968 RMK CB3AC2CI1 CB S-W SHRA DIST S SLP060=

CYXE;2005-08-25 23:00;METAR CYXE 252300Z 28007KT 15SM -SHRA SCT027 BKN040CB BKN095 16/13 A2970 RMK SC3CB2AC2 CB SE + N SLP065=

CYXE;2005-08-25 23:17;SPECI CYXE 252317Z 30011G18KT 15SM -SHRA BKN014 BKN054CB BKN077 RMK SC5CB1AC2 RGD CIG CB N=

CYXE;2005-08-25 23:42;SPECI CYXE 252342Z 29018KT 15SM -RA FEW014 SCT029 BKN054CB BKN093 17/ RMK SC2SC1CB2AC2 CB N=

CYXE;2005-08-26 00:00;METAR CYXE 260000Z 30019G26KT 15SM BKN021 BKN037CB BKN092 16/13 A2972 RMK SC5CB1AC2 CB N SLP076=

CYXE;2005-08-26 01:00;METAR CYXE 260100Z 30013G18KT 15SM SCT025 BKN055 BKN094 14/12 A2974 RMK SC3SC2AC2 SLP080=

CYXE;2005-08-26 01:48;SPECI CYXE 260148Z 29011G18KT 15SM BKN012 BKN049 BKN087 13/ RMK SF5SC2AC1=

CYXE;2005-08-26 02:00;METAR CYXE 260200Z 30013KT 15SM BKN012 BKN049 BKN087 13/11 A2975 RMK SF5SC1AC1 SLP085=

CYXE;2005-08-26 03:00;METAR CYXE 260300Z 28010G15KT 15SM FEW012 BKN029 OVC053 13/11 A2977 RMK SF2SC5SC1 SLP094=

CYXE;2005-08-26 04:00;METAR CYXE 260400Z 30010KT 15SM FEW029 FEW053 12/11 A2977 RMK SC1SC2 SLP094=

CYXE;2005-08-26 04:15;SPECI CYXE 260415Z 30010KT 15SM BKN009 BKN053 12/ RMK SF2SC2=

CYXE;2005-08-26 04:18;SPECI CYXE 260418Z 30010KT 15SM OVC009 12/ RMK SF6=

CYXE;2005-08-26 05:00;METAR CYXE 260500Z 30011KT 15SM OVC008 12/11 A2978 RMK SF8 SLP095=

CYXE;2005-08-26 06:00;METAR CYXE 260600Z 29010KT 15SM OVC007 12/11 A2978 RMK ST8 SLP095=

CYXE;2005-08-26 07:00;METAR CYXE 260700Z 30009KT 15SM BKN013 OVC035 12/11 A2978 RMK SC6SC2 SLP095=

CYXE;2005-08-26 08:00;METAR CYXE 260800Z 30007KT 15SM BKN013 OVC045 12/11 A2978 RMK SC6SC2 SLP095=

CYXE;2005-08-26 09:00;METAR CYXE 260900Z 30007KT 15SM BKN013 OVC045 12/11 A2977 RMK SC6SC2 SLP092=

CYXE;2005-08-26 10:00;METAR CYXE 261000Z 30008KT 15SM BKN010 OVC030 12/11 A2977 RMK SC6SC2 SLP092=

CYXE;2005-08-26 11:00;METAR CYXE 261100Z 29009KT 15SM BKN010 OVC030 12/11 A2978 RMK SC6SC2 SLP095=

CYXE;2005-08-26 12:00;METAR CYXE 261200Z 30008KT 15SM BKN010 OVC030 12/11 A2979 RMK ST7SC1 SLP098=

CYXE;2005-08-26 13:00;METAR CYXE 261300Z 29007KT 15SM BKN012 OVC035 12/11 A2980 RMK SC7SC1 SLP101=

CYXE;2005-08-26 14:00;METAR CYXE 261400Z 30008KT 15SM FEW005 OVC029 13/11 A2981 RMK SF1SC7 SLP103=

CYXE;2005-08-26 15:00;METAR CYXE 261500Z 31010KT 10SM FEW005 SCT013 OVC022 13/11 A2981 RMK SF1SC3SC4 TCU EMBD -SHRA SE SLP107=

CYXE;2005-08-26 15:35;SPECI CYXE 261535Z 31010G15KT 8SM -SHRA FEW005 BKN012 OVC024TCU RMK SF1SC6TCU2=

CYXE;2005-08-26 16:00;METAR CYXE 261600Z 30013KT 10SM VCSH BKN012 OVC025 14/11 A2981 RMK SC6SC2 TCU EMBD -SHRA N SE SLP105=

CYXE;2005-08-26 17:00;METAR CYXE 261700Z 31012KT 10SM FEW010 OVC020 14/11 A2981 RMK CF2SC6 SLP105=

CYXE;2005-08-26 18:00;METAR CYXE 261800Z 33012KT 10SM FEW010 OVC019 15/11 A2981 RMK CF1SC7 SLP104=

CYXE;2005-08-26 19:00;METAR CYXE 261900Z 31010G16KT 10SM BKN021 OVC040 16/11 A2981 RMK SC6SC2 SLP105=

CYXE;2005-08-26 20:00;METAR CYXE 262000Z 33011KT 10SM BKN023 17/12 A2981 RMK SC7 SLP104=

CYXE;2005-08-26 21:00;METAR CYXE 262100Z 35009KT 15SM OVC027 17/12 A2981 RMK SC8 SLP103=

CYXE;2005-08-26 22:00;METAR CYXE 262200Z 35012G17KT 15SM BKN029 19/12 A2980 RMK CU5 SLP101=

CYXE;2005-08-26 23:00;METAR CYXE 262300Z 36009KT 15SM SCT031 BKN050 19/12 A2981 RMK SC4SC2 SLP103=

CYXE;2005-08-27 00:00;METAR CYXE 270000Z 02007KT 15SM SCT036 BKN047 18/12 A2982 RMK SC4SC2 SLP105=

CYXE;2005-08-27 01:00;METAR CYXE 270100Z 05006KT 15SM BKN046 BKN220 17/13 A2983 RMK SC6CI1 SLP109=

CYXE;2005-08-27 02:00;METAR CYXE 270200Z 05004KT 15SM FEW050 SCT220 15/12 A2984 RMK SC2CI1 SLP111=

CYXE;2005-08-27 03:00;METAR CYXE 270300Z 09002KT 15SM FEW220 14/12 A2985 RMK CI1 SLP117=

CYXE;2005-08-27 04:00;METAR CYXE 270400Z 08002KT 15SM FEW220 12/11 A2985 RMK CI0 SLP117=

CYXE;2005-08-27 05:00;METAR CYXE 270500Z 21002KT 15SM MIFG FEW008 11/11 A2985 RMK SF1 SF TR OVR CITY SLP119=

CYXE;2005-08-27 06:00;METAR CYXE 270600Z 24002KT 5SM R09/2000V3500FT/N BR SKC 10/10 A2986 RMK SLP121=

CYXE;2005-08-27 06:19;SPECI CYXE 270619Z 26002KT 1SM R09/1600V3000FT/U BR SKC 09/=

CYXE;2005-08-27 06:47;SPECI CYXE 270647Z 25003KT 3/4SM R09/2200FT/N BR SKC 10/=

CYXE;2005-08-27 07:00;METAR CYXE 270700Z 25003KT 1/2SM R09/1400V2200FT/N FG SKC 10/10 A2986 RMK SLP121=

CYXE;2005-08-27 08:00;METAR CYXE 270800Z 26004KT 1/2SM R09/2000V4000FT/N FG SKC 08/08 A2986 RMK SLP122=

CYXE;2005-08-27 09:00;METAR CYXE 270900Z 27003KT 1/2SM R09/1600VP6000FT/U FG FEW010 08/08 A2986 RMK SF1 SLP122=

CYXE;2005-08-27 09:20;SPECI CYXE 270920Z 25005KT 3/4SM R09/2000VP6000FT/N BR FEW004 07/ RMK SF2=

CYXE;2005-08-27 10:00;METAR CYXE 271000Z 26005KT 3/4SM R09/2200VP6000FT/U BR FEW004 08/07 A2986 RMK SF2 SLP123=

CYXE;2005-08-27 10:12;SPECI CYXE 271012Z 23003KT 1SM R09/2800VP6000FT/U BR FEW003 07/ RMK SF2=

CYXE;2005-08-27 11:00;METAR CYXE 271100Z 18002KT 1SM R09/1400V2800FT/D BR FEW003 07/06 A2986 RMK SF1 SLP124=

CYXE;2005-08-27 11:26;SPECI CYXE 271126Z 19002KT 10SM R09/2000V6000FT/N PRFG SKC 08/ RMK VIS W-N 1=

CYXE;2005-08-27 12:00;METAR CYXE 271200Z 21004KT 10SM R09/2200VP6000FT/D PRFG FEW300 08/08 A2986 RMK CI0 VIS W-N 1 SLP124=

CYXE;2005-08-27 13:00;METAR CYXE 271300Z 21005KT 10SM FEW300 07/07 A2987 RMK CI0 BR SLP127=

CYXE;2005-08-27 14:00;METAR CYXE 271400Z 22003KT 10SM SCT300 11/10 A2988 RMK CI1 SLP129=

CYXE;2005-08-27 15:00;METAR CYXE 271500Z 25004KT 15SM FEW300 13/12 A2989 RMK CI1 SLP132=

CYXE;2005-08-27 16:00;METAR CYXE 271600Z 26002KT 15SM FEW300 16/12 A2989 RMK CI1 SLP132=

CYXE;2005-08-27 17:00;METAR CYXE 271700Z 29006KT 15SM SKC 21/11 A2989 RMK SLP133=

CYXE;2005-08-27 18:00;METAR CYXE 271800Z 27007KT 15SM SKC 23/10 A2989 RMK SLP129=

CYXE;2005-08-27 19:00;METAR CYXE 271900Z 29010KT 15SM SKC 24/11 A2988 RMK SLP125=

CYXE;2005-08-27 20:00;METAR CYXE 272000Z 29009G17KT 15SM SKC 25/11 A2987 RMK SLP122=

CYXE;2005-08-27 21:00;METAR CYXE 272100Z 29011KT 15SM SKC 26/12 A2986 RMK SLP118=

CYXE;2005-08-27 22:00;METAR CYXE 272200Z 30008G15KT 15SM SKC 26/12 A2986 RMK SLP117=

CYXE;2005-08-27 23:00;METAR CYXE 272300Z 32007KT 15SM SKC 26/12 A2985 RMK SLP115=

CYXE;2005-08-28 00:00;METAR CYXE 280000Z 31008KT 15SM SKC 26/11 A2985 RMK SLP115=

CYXE;2005-08-28 01:00;METAR CYXE 280100Z 31005KT 15SM SKC 23/13 A2986 RMK SLP116=

CYXE;2005-08-28 02:00;METAR CYXE 280200Z 30004KT 15SM SKC 21/13 A2986 RMK SLP118=

CYXE;2005-08-28 03:00;METAR CYXE 280300Z 30006KT 15SM SKC 17/12 A2987 RMK SLP125=

CYXE;2005-08-28 04:00;METAR CYXE 280400Z 29005KT 15SM SKC 15/12 A2988 RMK SLP128=

CYXE;2005-08-28 05:00;METAR CYXE 280500Z 31005KT 15SM SKC 14/11 A2989 RMK SLP129=

CYXE;2005-08-28 06:00;METAR CYXE 280600Z 31007KT 15SM SKC 13/11 A2990 RMK SLP129=

CYXE;2005-08-28 07:00;METAR CYXE 280700Z 33006KT 15SM SKC 12/10 A2990 RMK SLP130=

CYXE;2005-08-28 08:00;METAR CYXE 280800Z 00000KT 15SM SKC 12/11 A2990 RMK SLP129=

CYXE;2005-08-28 09:00;METAR CYXE 280900Z 00000KT 15SM SKC 11/10 A2990 RMK SLP129=

CYXE;2005-08-28 10:00;METAR CYXE 281000Z 35002KT 15SM SKC 09/08 A2990 RMK SLP130=

CYXE;2005-08-28 11:00;METAR CYXE 281100Z 26004KT 15SM SKC 09/08 A2991 RMK SLP133=

CYXE;2005-08-28 12:00;METAR CYXE 281200Z 25003KT 15SM SKC 08/08 A2991 RMK BR PTCHS SLP136=

CYXE;2005-08-28 13:00;METAR CYXE 281300Z 00000KT 15SM SKC 09/09 A2992 RMK BR PTCHS SLP139=

CYXE;2005-08-28 14:00;METAR CYXE 281400Z 25002KT 15SM SKC 13/12 A2993 RMK SLP142=

CYXE;2005-08-28 15:00;METAR CYXE 281500Z 18003KT 15SM SKC 17/13 A2993 RMK SLP141=

CYXE;2005-08-28 16:00;METAR CYXE 281600Z 18003KT 15SM SKC 20/14 A2993 RMK SLP141=

CYXE;2005-08-28 17:00;METAR CYXE 281700Z 17006KT 15SM SKC 23/13 A2992 RMK SLP138=

CYXE;2005-08-28 18:00;METAR CYXE 281800Z 14004KT 15SM SKC 25/13 A2992 RMK SLP135=

CYXE;2005-08-28 19:00;METAR CYXE 281900Z 18005KT 15SM SKC 26/12 A2991 RMK SLP133=

CYXE;2005-08-28 20:00;METAR CYXE 282000Z 12004KT 15SM SKC 27/10 A2990 RMK SLP128=

CYXE;2005-08-28 21:00;METAR CYXE 282100Z 15004KT 15SM SKC 27/12 A2989 RMK SLP125=

CYXE;2005-08-28 22:00;METAR CYXE 282200Z 13005KT 15SM SKC 28/11 A2988 RMK SLP121=

CYXE;2005-08-28 23:00;METAR CYXE 282300Z 13007KT 15SM SKC 28/11 A2987 RMK SLP118=

CYXE;2005-08-29 00:00;METAR CYXE 290000Z 13004KT 15SM SKC 27/11 A2986 RMK SLP116=

CYXE;2005-08-29 01:00;METAR CYXE 290100Z 14008KT 15SM SKC 25/11 A2985 RMK SLP114=

CYXE;2005-08-29 02:00;METAR CYXE 290200Z 12008KT 15SM FEW250 22/11 A2985 RMK CI1 SLP113=

CYXE;2005-08-29 03:00;METAR CYXE 290300Z 12009KT 15SM FEW250 21/11 A2985 RMK CI1 SLP112=

CYXE;2005-08-29 04:00;METAR CYXE 290400Z 13011KT 15SM SKC 20/10 A2985 RMK SLP111=

CYXE;2005-08-29 05:00;METAR CYXE 290500Z 13008G15KT 15SM SKC 19/10 A2985 RMK SLP112=

CYXE;2005-08-29 06:00;METAR CYXE 290600Z 14010KT 15SM SKC 18/10 A2984 RMK SLP107=

CYXE;2005-08-29 07:00;METAR CYXE 290700Z 14008KT 15SM SKC 18/10 A2984 RMK SLP107=

CYXE;2005-08-29 08:00;METAR CYXE 290800Z 15010KT 15SM SKC 17/10 A2983 RMK SLP104=

CYXE;2005-08-29 09:00;METAR CYXE 290900Z 14009KT 15SM SKC 16/10 A2982 RMK SLP100=

CYXE;2005-08-29 10:00;METAR CYXE 291000Z 13012KT 15SM SKC 15/11 A2980 RMK SLP093=

CYXE;2005-08-29 11:00;METAR CYXE 291100Z 13012G17KT 15SM FEW300 15/11 A2979 RMK CI1 SLP088=

CYXE;2005-08-29 12:00;METAR CYXE 291200Z 14008KT 15SM SKC 14/11 A2978 RMK SLP087=

CYXE;2005-08-29 13:00;METAR CYXE 291300Z 14008KT 15SM SKC 14/11 A2978 RMK SLP087=

CYXE;2005-08-29 14:00;METAR CYXE 291400Z 14008KT 15SM FEW280 16/12 A2977 RMK CI1 SLP085=

CYXE;2005-08-29 15:00;METAR CYXE 291500Z 14007KT 15SM SKC 18/12 A2977 RMK SLP083=

CYXE;2005-08-29 16:00;METAR CYXE 291600Z 14008KT 15SM SKC 21/13 A2976 RMK SLP081=

CYXE;2005-08-29 17:00;METAR CYXE 291700Z 15008KT 15SM SKC 24/14 A2975 RMK SLP077=

CYXE;2005-08-29 18:00;METAR CYXE 291800Z 15010G15KT 15SM FEW280 27/13 A2972 RMK CI1 SLP065=

CYXE;2005-08-29 19:00;METAR CYXE 291900Z 14013G18KT 15SM FEW280 29/13 A2970 RMK CI1 SLP056=

CYXE;2005-08-29 20:00;METAR CYXE 292000Z 15014G19KT 15SM SCT280 30/12 A2968 RMK CI2 SLP051=

CYXE;2005-08-29 21:00;METAR CYXE 292100Z 14018KT 15SM BKN280 30/13 A2966 RMK CI5 SLP044=

CYXE;2005-08-29 22:00;METAR CYXE 292200Z 14012KT 15SM FEW095 BKN280 29/13 A2965 RMK AC2CI5 SLP039=

CYXE;2005-08-29 23:00;METAR CYXE 292300Z 13014G21KT 15SM BKN280 29/12 A2963 RMK CI6 SLP032=

CYXE;2005-08-30 00:00;METAR CYXE 300000Z 13018G25KT 15SM OVC280 29/11 A2961 RMK CI6 SLP027=

CYXE;2005-08-30 01:00;METAR CYXE 300100Z 14019G27KT 15SM OVC280 28/10 A2960 RMK CI5 SLP023=

CYXE;2005-08-30 02:00;METAR CYXE 300200Z 13017G25KT 15SM FEW220 OVC280 26/11 A2959 RMK CI2CI4 SLP022=

CYXE;2005-08-30 03:00;METAR CYXE 300300Z 14018G25KT 15SM OVC280 25/11 A2961 RMK CI6 SLP027=

CYXE;2005-08-30 04:00;METAR CYXE 300400Z 14021G26KT 15SM OVC280 24/11 A2960 RMK CI6 SLP023=

CYXE;2005-08-30 06:00;METAR CYXE 300600Z 16017G22KT 15SM BKN250 23/11 A2961 RMK CI6 SLP024=

CYXE;2005-08-30 07:00;METAR CYXE 300700Z 16011KT 15SM BKN250 21/12 A2965 RMK CI6 SLP038=

CYXE;2005-08-30 08:00;METAR CYXE 300800Z 23010KT 15SM BKN250 20/12 A2968 RMK CI6 SLP047=

CYXE;2005-08-30 09:00;METAR CYXE 300900Z 32012G17KT 15SM BKN250 15/11 A2971 RMK CI5 SLP060=

CYXE;2005-08-30 10:00;METAR CYXE 301000Z 31011KT 15SM BKN250 13/11 A2971 RMK CI2 SLP061=

CYXE;2005-08-30 11:00;METAR CYXE 301100Z 07004KT 15SM BKN250 11/10 A2969 RMK CI3 SLP054=

CYXE;2005-08-30 12:00;METAR CYXE 301200Z 27007KT 15SM SCT100 BKN250 11/09 A2972 RMK AC4CI1 SLP067=

CYXE;2005-08-30 13:00;METAR CYXE 301300Z 29019G24KT 15SM FEW025 BKN100 BKN250 12/10 A2977 RMK SC1AC5CI1 SLP083=

CYXE;2005-08-30 14:00;METAR CYXE 301400Z 30017KT 15SM SCT012 SCT092 OVC250 12/09 A2975 RMK SF2AC2CI2 SLP077=

CYXE;2005-08-30 15:00;METAR CYXE 301500Z 30015G20KT 15SM SCT092 OVC250 13/10 A2977 RMK AC3CI2 SLP083=

CYXE;2005-08-30 16:00;METAR CYXE 301600Z 29016KT 15SM FEW012 BKN110 OVC250 14/09 A2979 RMK SF1AC4CI2 SLP091=

CYXE;2005-08-30 17:00;METAR CYXE 301700Z 30013G24KT 15SM BKN018 OVC110 13/08 A2982 RMK SC6AC2 SLP102=

CYXE;2005-08-30 18:00;METAR CYXE 301800Z 31016KT 15SM FEW020 BKN110 OVC250 13/08 A2983 RMK SC2AC3CI2 SLP106=

CYXE;2005-08-30 19:00;METAR CYXE 301900Z 32015G24KT 15SM FEW020 BKN086 OVC250 12/08 A2983 RMK SC1AC6CI1 SLP106=

CYXE;2005-08-30 20:00;METAR CYXE 302000Z 32016KT 15SM -SHRA FEW020 BKN086 OVC250 11/08 A2985 RMK SC1AC6CI1 SLP112=

CYXE;2005-08-30 21:00;METAR CYXE 302100Z 33009G15KT 15SM -SHRA FEW020 BKN064 OVC082 11/08 A2987 RMK SC1SC4AC3 SLP125=

CYXE;2005-08-30 21:48;SPECI CYXE 302148Z 29007KT 15SM -SHRA BKN009 OVC021 10/ RMK SF6SC2=

CYXE;2005-08-30 22:00;METAR CYXE 302200Z 30009KT 12SM -SHRA BKN009 OVC020 10/09 A2989 RMK SF7SC1 SLP133=

CYXE;2005-08-30 22:43;SPECI CYXE 302243Z 31010KT 12SM -SHRA BKN012 OVC025 RMK SF6SC2=

CYXE;2005-08-30 23:00;METAR CYXE 302300Z 32013KT 15SM -SHRA FEW010 SCT020 OVC085 10/09 A2988 RMK SF2SC2AC4 SLP128=

CYXE;2005-08-30 23:16;SPECI CYXE 302316Z 32011KT 15SM -SHRA BKN015 OVC080 10/ RMK SF6AC2=

CYXE;2005-08-30 23:41;SPECI CYXE 302341Z 35008KT 15SM BKN009 OVC030 10/ RMK SF7SC1=

CYXE;2005-08-31 00:00;METAR CYXE 310000Z 36010KT 15SM -SHRA BKN010 BKN030 OVC085 10/09 A2989 RMK SF5SC1AC2 SLP135=

CYXE;2005-08-31 00:21;SPECI CYXE 310021Z 01009KT 15SM -SHRA FEW010 BKN030 OVC085 10/ RMK SF1SC4AC3=

CYXE;2005-08-31 01:00;METAR CYXE 310100Z 33009KT 12SM -SHRA FEW008 BKN025 OVC080 09/08 A2987 RMK SF1SC6AC2 SLP131=

CYXE;2005-08-31 02:00;METAR CYXE 310200Z 01004KT 15SM -SHRA BKN020 OVC085 09/08 A2988 RMK SC7AC1 SLP133=

CYXE;2005-08-31 03:00;METAR CYXE 310300Z 32004KT 15SM -SHRA FEW008 OVC020 09/09 A2990 RMK SF1SC7 LTGIC E CB EMBD SLP137=

CYXE;2005-08-31 04:00;METAR CYXE 310400Z 35005KT 15SM -SHRA FEW008 BKN040 OVC065 09/09 A2989 RMK SF1SC4SC3 SLP133=

CYXE;2005-08-31 04:28;SPECI CYXE 310428Z 36006KT 15SM BKN040 OVC075 09/ RMK SC5AC3=

CYXE;2005-08-31 04:50;SPECI CYXE 310450Z 31003KT 15SM BKN007 OVC040 09/ RMK SF6SC2=

CYXE;2005-08-31 05:00;METAR CYXE 310500Z 00000KT 15SM BKN007 OVC040 09/09 A2990 RMK SF6SC2 SLP137=

CYXE;2005-08-31 05:40;SPECI CYXE 310540Z 31003KT 15SM SCT007 OVC100 09/ RMK SF3AC5=

CYXE;2005-08-31 06:00;METAR CYXE 310600Z 31005KT 15SM FEW007 OVC100 09/09 A2989 RMK SF1AC7 SLP134=

CYXE;2005-08-31 07:00;METAR CYXE 310700Z 31007KT 15SM FEW005 OVC100 09/09 A2986 RMK ST1AC7 SLP126=

CYXE;2005-08-31 08:00;METAR CYXE 310800Z 31007KT 15SM SCT002 OVC100 09/09 A2986 RMK SF4AC4 SLP127=

CYXE;2005-08-31 08:05;SPECI CYXE 310805Z 31006KT 15SM BKN002 OVC100 09/ RMK SF6AC2=

CYXE;2005-08-31 08:29;SPECI CYXE 310829Z 31005KT 15SM SCT002 OVC100 09/ RMK SF3AC5=

CYXE;2005-08-31 09:00;METAR CYXE 310900Z 31007KT 15SM FEW003 OVC100 09/09 A2987 RMK SF1AC7 SLP130=

CYXE;2005-08-31 10:00;METAR CYXE 311000Z 32007KT 15SM FEW008 OVC100 09/08 A2987 RMK ST1AC7 SLP129=

CYXE;2005-08-31 11:00;METAR CYXE 311100Z 31006KT 15SM SCT035 OVC100 09/08 A2988 RMK SC3AC5 SLP133=

CYXE;2005-08-31 12:00;METAR CYXE 311200Z 33006KT 15SM FEW040 BKN100 08/08 A2988 RMK SC1AC6 SLP133=

CYXE;2005-08-31 13:00;METAR CYXE 311300Z 29004KT 15SM BKN100 08/07 A2989 RMK AC7 SLP136=

CYXE;2005-08-31 14:00;METAR CYXE 311400Z 31006KT 15SM BKN110 BKN200 08/08 A2989 RMK AC6CI1 SLP138=

CYXE;2005-08-31 15:00;METAR CYXE 311500Z 32008KT 15SM SCT093 OVC200 10/09 A2989 RMK AC4CI3 SLP137=

CYXE;2005-08-31 16:00;METAR CYXE 311600Z 35011KT 15SM SCT093 OVC220 11/08 A2989 RMK AC3CI4 SLP137=

CYXE;2005-08-31 17:00;METAR CYXE 311700Z 35011KT 15SM FEW091 BKN220 12/08 A2988 RMK AC2CI4 SLP134=

CYXE;2005-08-31 18:00;METAR CYXE 311800Z 34008KT 15SM FEW023 SCT095 BKN220 13/09 A2988 RMK CU1AC2CI3 SLP131=

CYXE;2005-08-31 19:00;METAR CYXE 311900Z 32010G15KT 15SM FEW027 BKN095 BKN220 15/10 A2987 RMK CU1AC4CI2 SLP127=

CYXE;2005-08-31 20:00;METAR CYXE 312000Z 32016KT 15SM FEW030 BKN100 BKN220 16/10 A2986 RMK CU2AC3CI2 SLP124=

CYXE;2005-08-31 21:00;METAR CYXE 312100Z 32018G24KT 15SM FEW044 SCT094 OVC220 18/10 A2985 RMK CU2AC2CI2 SLP118=

CYXE;2005-08-31 22:00;METAR CYXE 312200Z 31014G24KT 15SM BKN045 BKN095 BKN220 19/10 A2985 RMK CU5AC1CI1 SLP118=

CYXE;2005-08-31 23:00;METAR CYXE 312300Z 34013KT 15SM SCT050 BKN095 BKN220 17/09 A2986 RMK CU3AC2CI2 SLP121=

CYXE;2005-09-01 00:00;METAR CYXE 010000Z 01012KT 15SM BKN060 BKN240 16/09 A2988 RMK SC5CI2 SLP131=

CYXE;2005-09-01 01:00;METAR CYXE 010100Z 36011KT 15SM FEW070 BKN240 16/08 A2990 RMK AC1CI2 SLP136=

CYXE;2005-09-01 02:00;METAR CYXE 010200Z 35008KT 15SM FEW070 SCT220 12/08 A2991 RMK AC1CI1 SLP139=

CYXE;2005-09-01 03:00;METAR CYXE 010300Z 31006KT 15SM FEW070 FEW220 10/07 A2992 RMK AC1CI0 SLP146=

CYXE;2005-09-01 04:00;METAR CYXE 010400Z 32007KT 15SM SKC 09/07 A2992 RMK SLP148=

CYXE;2005-09-01 05:00;METAR CYXE 010500Z 31005KT 15SM FEW090 07/06 A2994 RMK AC1 SLP153=

CYXE;2005-09-01 06:00;METAR CYXE 010600Z 29005KT 15SM SCT063 07/06 A2994 RMK SC3 SLP153=

CYXE;2005-09-01 07:00;METAR CYXE 010700Z 28005KT 15SM SKC 07/05 A2994 RMK SLP154=

CYXE;2005-09-01 08:00;METAR CYXE 010800Z 00000KT 15SM SKC 06/05 A2995 RMK SLP156=

CYXE;2005-09-01 09:00;METAR CYXE 010900Z 24002KT 15SM SKC 07/06 A2995 RMK SLP155=

CYXE;2005-09-01 10:00;METAR CYXE 011000Z 23004KT 15SM SKC 05/05 A2996 RMK SLP157=

CYXE;2005-09-01 10:41;SPECI CYXE 011041Z 22003KT 10SM MIFG FEW008 06/ RMK SF1 SF TR OVR CITY=

CYXE;2005-09-01 11:00;METAR CYXE 011100Z 23003KT 10SM MIFG FEW008 05/05 A2997 RMK SF1 SF TR OVR CITY SLP160=

CYXE;2005-09-01 11:27;SPECI CYXE 011127Z 27004KT 4SM R09/1800VP6000FT/D PRFG FEW008 FEW110 03/ RMK SF1AC1 VIS S-NW 1=

CYXE;2005-09-01 12:00;METAR CYXE 011200Z 26004KT 4SM BR FEW004 FEW100 FEW220 03/03 A2998 RMK SF1AC1CI0 VIS W 11/2 SF TR SLP168=

CYXE;2005-09-01 13:00;METAR CYXE 011300Z 28008KT 15SM FEW100 05/05 A2999 RMK AC1 SLP169=

CYXE;2005-09-01 14:00;METAR CYXE 011400Z 29006KT 15SM SCT100 09/08 A3000 RMK AC2 SLP173=

CYXE;2005-09-01 15:00;METAR CYXE 011500Z 28007KT 15SM BKN094 10/08 A3001 RMK AC5 SLP177=

CYXE;2005-09-01 16:00;METAR CYXE 011600Z 32006KT 15SM BKN100 15/10 A3002 RMK AC4 SLP180=

CYXE;2005-09-01 17:00;METAR CYXE 011700Z 31004KT 15SM BKN110 16/10 A3002 RMK AC3 SLP181=

CYXE;2005-09-01 18:00;METAR CYXE 011800Z 32008KT 15SM BKN110 18/09 A3002 RMK AC5 SLP178=

CYXE;2005-09-01 19:00;METAR CYXE 011900Z 30007KT 15SM FEW044 BKN110 19/08 A3002 RMK CU1AC3 SLP176=

CYXE;2005-09-01 20:00;METAR CYXE 012000Z 35005KT 15SM FEW048 BKN096 20/07 A3001 RMK CU1AC3 SLP175=

CYXE;2005-09-01 21:00;METAR CYXE 012100Z 27003KT 15SM FEW048 SCT096 21/09 A3001 RMK CU1AC1 SLP173=

CYXE;2005-09-01 22:00;METAR CYXE 012200Z 30007KT 15SM FEW050 SCT095 21/08 A3000 RMK CU2AC2 SLP171=

CYXE;2005-09-01 23:00;METAR CYXE 012300Z 35009KT 15SM FEW055 SCT095 21/07 A3001 RMK CU2AC2 SLP172=

CYXE;2005-09-02 00:00;METAR CYXE 020000Z 02002KT 15SM FEW055 FEW100 21/07 A3001 RMK CU1AC1 SLP176=

CYXE;2005-09-02 01:00;METAR CYXE 020100Z 23004KT 15SM FEW100 20/08 A3002 RMK AC1 SLP178=

CYXE;2005-09-02 02:00;METAR CYXE 020200Z 20004KT 15SM FEW100 FEW250 16/08 A3002 RMK AC1CI1 SLP179=

CYXE;2005-09-02 03:00;METAR CYXE 020300Z 20005KT 15SM FEW250 15/07 A3003 RMK CI1 SLP180=

CYXE;2005-09-02 04:00;METAR CYXE 020400Z 14004KT 15SM SKC 14/08 A3003 RMK SLP180=

CYXE;2005-09-02 05:00;METAR CYXE 020500Z 00000KT 15SM SKC 11/07 A3004 RMK SLP183=

CYXE;2005-09-02 06:00;METAR CYXE 020600Z 13003KT 15SM SKC 11/07 A3004 RMK SLP183=

CYXE;2005-09-02 07:00;METAR CYXE 020700Z 18003KT 15SM FEW110 10/07 A3004 RMK AC1 SLP184=

CYXE;2005-09-02 08:00;METAR CYXE 020800Z 17004KT 15SM FEW085 10/07 A3005 RMK AC2 SLP186=

CYXE;2005-09-02 09:00;METAR CYXE 020900Z 16004KT 15SM FEW089 10/07 A3005 RMK AC2 SLP185=

CYXE;2005-09-02 10:00;METAR CYXE 021000Z 13005KT 15SM FEW089 10/07 A3005 RMK AC2 SLP185=

CYXE;2005-09-02 11:00;METAR CYXE 021100Z 15003KT 15SM FEW086 10/06 A3004 RMK AC2 SLP182=

CYXE;2005-09-02 12:00;METAR CYXE 021200Z 11006KT 15SM FEW090 BKN220 09/06 A3004 RMK AC1CI1 SLP181=

CYXE;2005-09-02 13:00;METAR CYXE 021300Z 12007KT 15SM FEW090 BKN220 10/07 A3003 RMK AC1CI1 SLP178=

CYXE;2005-09-02 14:00;METAR CYXE 021400Z 14011KT 15SM FEW090 BKN220 14/09 A3002 RMK AC1CI2 SLP175=

CYXE;2005-09-02 15:00;METAR CYXE 021500Z 14015G20KT 15SM FEW090 BKN250 17/09 A3000 RMK AC1CI0 SLP167=

CYXE;2005-09-02 16:00;METAR CYXE 021600Z 15016KT 15SM BKN250 18/09 A2999 RMK CI2 SLP163=

CYXE;2005-09-02 17:00;METAR CYXE 021700Z 15014KT 15SM BKN250 22/10 A2998 RMK CI2 SLP159=

CYXE;2005-09-02 18:00;METAR CYXE 021800Z 16012KT 15SM SCT280 23/10 A2997 RMK CI1 SLP155=

CYXE;2005-09-02 19:00;METAR CYXE 021900Z 15015KT 15SM SCT300 24/10 A2995 RMK CI1 SLP151=

CYXE;2005-09-02 20:00;METAR CYXE 022000Z 15010G17KT 15SM BKN300 25/11 A2994 RMK CI2 SLP145=

CYXE;2005-09-02 21:00;METAR CYXE 022100Z 16013KT 15SM BKN300 25/11 A2992 RMK CI2 SLP138=

CYXE;2005-09-02 22:00;METAR CYXE 022200Z 15014KT 15SM BKN300 25/12 A2991 RMK CI2 SLP134=

CYXE;2005-09-02 23:00;METAR CYXE 022300Z 16013KT 15SM BKN300 25/11 A2989 RMK CI2 SLP129=

CYXE;2005-09-03 00:00;METAR CYXE 030000Z 15007KT 15SM FEW120 BKN300 24/12 A2989 RMK AC1CI2 SLP127=

CYXE;2005-09-03 01:00;METAR CYXE 030100Z 13008KT 15SM FEW270 23/12 A2988 RMK CI1 SLP124=

CYXE;2005-09-03 04:00;METAR CYXE 030400Z 13012G17KT 15SM SKC 19/11 A2986 RMK SLP115=

CYXE;2005-09-03 05:00;METAR CYXE 030500Z 13011KT 15SM SCT250 17/11 A2985 RMK CI0 SLP112=

CYXE;2005-09-03 06:00;METAR CYXE 030600Z 14012KT 15SM SCT250 17/11 A2982 RMK CI0 SLP102=

CYXE;2005-09-03 07:00;METAR CYXE 030700Z 13008KT 15SM SKC 15/11 A2981 RMK SLP099=

CYXE;2005-09-03 08:00;METAR CYXE 030800Z 12005KT 15SM SKC 14/10 A2981 RMK SLP097=

CYXE;2005-09-03 09:00;METAR CYXE 030900Z 11004KT 15SM FEW250 12/09 A2979 RMK CI0 SLP092=

CYXE;2005-09-03 10:00;METAR CYXE 031000Z 16006KT 15SM FEW250 12/09 A2979 RMK CI0 SLP091=

CYXE;2005-09-03 11:00;METAR CYXE 031100Z 16005KT 15SM FEW110 SCT250 12/09 A2979 RMK AC1CI0 SLP092=

CYXE;2005-09-03 12:00;METAR CYXE 031200Z 16005KT 15SM FEW090 BKN140 OVC250 12/09 A2978 RMK AC1AC3CI2 SLP088=

CYXE;2005-09-03 13:00;METAR CYXE 031300Z 17005KT 15SM FEW090 SCT140 BKN250 12/10 A2980 RMK AC1AC3CI2 VIRGA W SLP094=

CYXE;2005-09-03 14:00;METAR CYXE 031400Z 17008KT 15SM SCT120 BKN280 14/11 A2978 RMK AC4CI1 SLP090=

CYXE;2005-09-03 15:00;METAR CYXE 031500Z 16009KT 15SM SCT094 BKN280 16/11 A2977 RMK AC3CI1 SLP087=

CYXE;2005-09-03 16:00;METAR CYXE 031600Z 14003KT 15SM BKN096 BKN300 19/12 A2976 RMK AC5CI1 SLP082=

CYXE;2005-09-03 17:00;METAR CYXE 031700Z 14007KT 15SM SCT088 BKN300 21/12 A2975 RMK AC3CI1 SLP079=

CYXE;2005-09-03 18:00;METAR CYXE 031800Z 18006KT 15SM SCT088 SCT300 23/13 A2977 RMK AC3CI0 SLP083=

CYXE;2005-09-03 19:00;METAR CYXE 031900Z 17006KT 15SM FEW088 BKN140 24/14 A2976 RMK AC1AC2 SLP081=

CYXE;2005-09-03 20:00;METAR CYXE 032000Z 13006KT 15SM FEW094 BKN300 26/13 A2974 RMK AC1CI1 SLP073=

CYXE;2005-09-03 21:00;METAR CYXE 032100Z 18008KT 15SM FEW094 BKN300 28/13 A2972 RMK AC1CI2 SLP065=

CYXE;2005-09-03 22:00;METAR CYXE 032200Z 22004KT 15SM FEW090 FEW300 29/13 A2970 RMK ACC1CI2 SLP061=

CYXE;2005-09-03 23:00;METAR CYXE 032300Z 17002KT 15SM FEW100 SCT300 29/12 A2969 RMK ACC1CI2 SLP057=

CYXE;2005-09-04 00:00;METAR CYXE 040000Z 00000KT 15SM FEW100 BKN300 28/15 A2968 RMK AC1CI3 SLP054=

CYXE;2005-09-04 01:00;METAR CYXE 040100Z 03004KT 15SM BKN300 24/15 A2968 RMK CI5 SLP051=

CYXE;2005-09-04 02:00;METAR CYXE 040200Z 13006KT 15SM OVC300 22/14 A2968 RMK CI5 SLP051=

CYXE;2005-09-04 03:00;METAR CYXE 040300Z 18005KT 15SM BKN300 20/14 A2968 RMK CI4 SLP056=

CYXE;2005-09-04 04:00;METAR CYXE 040400Z 24006KT 15SM BKN300 16/11 A2969 RMK CI3 SLP058=

CYXE;2005-09-04 05:00;METAR CYXE 040500Z 25008KT 15SM BKN300 15/10 A2969 RMK CI3 SLP057=

CYXE;2005-09-04 06:00;METAR CYXE 040600Z 21009KT 15SM BKN300 13/10 A2969 RMK CI2 SLP059=

CYXE;2005-09-04 08:00;METAR CYXE 040800Z 31010KT 15SM SCT300 15/11 A2973 RMK CI2 SLP071=

CYXE;2005-09-04 09:00;METAR CYXE 040900Z 31013G19KT 15SM FEW300 15/11 A2976 RMK CI1 SLP078=

CYXE;2005-09-04 10:00;METAR CYXE 041000Z 32006KT 15SM FEW300 13/11 A2979 RMK CI1 SLP089=

CYXE;2005-09-04 11:00;METAR CYXE 041100Z 34006KT 15SM FEW300 11/09 A2982 RMK CI1 SLP097=

CYXE;2005-09-04 12:00;METAR CYXE 041200Z 00000KT 15SM FEW100 BKN300 11/10 A2984 RMK AC1CI3 SLP109=

CYXE;2005-09-04 13:00;METAR CYXE 041300Z 30008KT 15SM FEW100 BKN300 10/09 A2987 RMK AC1CI3 SLP117=

CYXE;2005-09-04 14:00;METAR CYXE 041400Z 31007KT 15SM FEW100 BKN300 11/10 A2990 RMK AC1CI4 SLP126=

CYXE;2005-09-04 15:00;METAR CYXE 041500Z 33007KT 15SM SCT095 BKN300 13/11 A2992 RMK AC2CI4 SLP138=

CYXE;2005-09-04 16:00;METAR CYXE 041600Z 36009KT 15SM FEW090 BKN300 15/11 A2992 RMK AC1CI4 SLP140=

CYXE;2005-09-04 17:00;METAR CYXE 041700Z 01010KT 15SM FEW088 BKN300 17/11 A2993 RMK AC2CI2 SLP142=

CYXE;2005-09-04 18:00;METAR CYXE 041800Z 01007KT 15SM FEW090 SCT300 19/11 A2993 RMK AC1CI2 SLP142=

CYXE;2005-09-04 19:00;METAR CYXE 041900Z 34006KT 15SM FEW300 21/11 A2992 RMK CI1 SLP140=

CYXE;2005-09-04 20:00;METAR CYXE 042000Z 36007KT 15SM FEW300 21/10 A2991 RMK CI1 SLP137=

CYXE;2005-09-04 21:00;METAR CYXE 042100Z 02005KT 15SM FEW300 22/10 A2991 RMK CI1 SLP132=

CYXE;2005-09-04 22:00;METAR CYXE 042200Z 03007KT 15SM FEW300 22/10 A2990 RMK CI1 SLP130=

CYXE;2005-09-04 23:00;METAR CYXE 042300Z 06006KT 15SM SCT300 22/09 A2990 RMK CI2 SLP128=

CYXE;2005-09-05 00:00;METAR CYXE 050000Z 04006KT 15SM BKN300 19/10 A2990 RMK CI3 SLP134=

CYXE;2005-09-05 01:00;METAR CYXE 050100Z 07006KT 15SM BKN300 19/10 A2990 RMK CI2 SLP134=

CYXE;2005-09-05 02:00;METAR CYXE 050200Z 06006KT 15SM SCT300 15/09 A2991 RMK CI2 SLP138=

CYXE;2005-09-05 03:00;METAR CYXE 050300Z 05007KT 15SM FEW300 14/09 A2993 RMK CI2 SLP145=

CYXE;2005-09-05 04:00;METAR CYXE 050400Z 06008KT 15SM FEW300 11/08 A2992 RMK CI2 SLP144=

CYXE;2005-09-05 05:00;METAR CYXE 050500Z 06008KT 15SM FEW300 11/07 A2991 RMK CI2 SLP140=

CYXE;2005-09-05 06:00;METAR CYXE 050600Z 06006KT 15SM SCT100 BKN300 11/08 A2990 RMK AC4CI0 SLP132=

CYXE;2005-09-05 07:00;METAR CYXE 050700Z 05009KT 15SM BKN100 13/08 A2987 RMK AC7 LTG DSTNT SW SLP125=

CYXE;2005-09-05 08:00;METAR CYXE 050800Z 11005KT 15SM OVC100 13/08 A2989 RMK AC8 LTG DSTNT S SLP130=

CYXE;2005-09-05 08:12;SPECI CYXE 050812Z 10009KT 15SM -SHRA BKN062 OVC100 14/ RMK SC5AC3 LTG DSTNT SE=

CYXE;2005-09-05 09:43;SPECI CYXE 050943Z 19008G16KT 10SM -TSRA OVC038 RMK SC8 LTGICCC SE-SW CB ASOCTD=

CYXE;2005-09-05 10:00;METAR CYXE 051000Z 21002KT 6SM -TSRA FEW018CB OVC038 13/11 A2991 RMK CB2SC6 LTGCG E SLP133=

CYXE;2005-09-05 11:00;METAR CYXE 051100Z 08009KT 10SM -TSRA FEW020CB OVC040 13/12 A2987 RMK CB2SC6 LTGCG SLP119=

CYXE;2005-09-05 12:00;METAR CYXE 051200Z 11006KT 10SM -TSRA OVC029 13/12 A2986 RMK SC8 CB ASOCTD LTG W SLP117=

CYXE;2005-09-05 13:00;METAR CYXE 051300Z 10007KT 10SM -TSRA BKN010 OVC091 13/12 A2987 RMK SC7AC1 CB EMBD LTGIC SLP121=

CYXE;2005-09-05 14:00;METAR CYXE 051400Z 30007KT 8SM -SHRA FEW007 SCT035 OVC060 13/12 A2989 RMK SF2SC2SC4 SLP129=

CYXE;2005-09-05 14:40;SPECI CYXE 051440Z 01007KT 15SM FEW005 FEW025 OVC060 12/ RMK SF1SC1SC6=

CYXE;2005-09-05 15:00;METAR CYXE 051500Z 05006KT 15SM FEW008 SCT050 OVC075 12/12 A2988 RMK SF2SC2AC4 SLP129=

CYXE;2005-09-05 15:51;SPECI CYXE 051551Z 35007KT 15SM -SHRA FEW006 OVC050 12/ RMK SF1SC7=

CYXE;2005-09-05 16:00;METAR CYXE 051600Z 36007KT 15SM -SHRA FEW006 SCT030 OVC060 12/12 A2987 RMK SF1SC2SC5 SLP127=

CYXE;2005-09-05 16:17;SPECI CYXE 051617Z 35005KT 15SM FEW006 FEW035 OVC065 13/ RMK SF1SC2SC6=

CYXE;2005-09-05 17:00;METAR CYXE 051700Z 08005KT 15SM FEW010 OVC050 13/12 A2988 RMK SF1SC8 SLP130=

CYXE;2005-09-05 18:00;METAR CYXE 051800Z 06005KT 15SM FEW010 SCT065 OVC090 14/13 A2988 RMK CF1SC2AC5 SLP130=

CYXE;2005-09-05 18:35;SPECI CYXE 051835Z 30005KT 15SM BKN008 OVC065 14/ RMK SC6SC2=

CYXE;2005-09-05 19:00;METAR CYXE 051900Z 30010KT 15SM BKN003 OVC040 13/12 A2989 RMK SF7SC1 SLP132=

CYXE;2005-09-05 19:09;SPECI CYXE 051909Z 30010KT 12SM -SHRA OVC003 13/ RMK SF8=

CYXE;2005-09-05 19:21;SPECI CYXE 051921Z 30010G20KT 6SM SHRA OVC003 12/ RMK SF8=

CYXE;2005-09-05 19:29;SPECI CYXE 051929Z 31006KT 12SM -SHRA SCT003 OVC015 13/ RERA RMK SF4SC4=

CYXE;2005-09-05 19:48;SPECI CYXE 051948Z 29008KT 10SM SHRA BKN003 OVC018 12/ RMK SF6SC2=

CYXE;2005-09-05 20:00;METAR CYXE 052000Z 29009KT 12SM -SHRA BKN003 OVC015 13/12 A2989 RERA RMK SF6SC2 SLP133=

CYXE;2005-09-05 20:46;SPECI CYXE 052046Z 30012KT 15SM BKN008 OVC015 12/ RMK SF5SC3=

CYXE;2005-09-05 21:00;METAR CYXE 052100Z 30013KT 15SM OVC010 13/12 A2990 RMK SF8 SLP135=

CYXE;2005-09-05 22:00;METAR CYXE 052200Z 30016KT 15SM SCT013 BKN040 14/11 A2992 RMK SC4SC2 SLP143=

CYXE;2005-09-05 23:00;METAR CYXE 052300Z 30014KT 15SM BKN020 BKN040 13/10 A2995 RMK SC6SC2 SLP150=

CYXE;2005-09-06 00:00;METAR CYXE 060000Z 30016KT 15SM FEW020 BKN040 13/08 A2996 RMK SC2SC4 SLP158=

CYXE;2005-09-06 01:00;METAR CYXE 060100Z 30012KT 15SM FEW020 BKN040 13/09 A2998 RMK SC1SC5 SLP163=

CYXE;2005-09-06 02:00;METAR CYXE 060200Z 30010KT 15SM BKN022 12/09 A2999 RMK SC7 SLP168=

CYXE;2005-09-06 03:00;METAR CYXE 060300Z 30012KT 15SM BKN024 11/09 A3002 RMK SC6 SLP177=

CYXE;2005-09-06 04:00;METAR CYXE 060400Z 29009KT 15SM SCT040 09/08 A3003 RMK SC3 SLP183=

CYXE;2005-09-06 05:00;METAR CYXE 060500Z 28007KT 15SM FEW040 07/06 A3005 RMK SC1 SLP187=

CYXE;2005-09-06 06:00;METAR CYXE 060600Z 29008KT 15SM FEW040 07/06 A3006 RMK SC1 SLP194=

CYXE;2005-09-06 07:00;METAR CYXE 060700Z 27008KT 15SM SKC 06/05 A3008 RMK SLP201=

CYXE;2005-09-06 08:00;METAR CYXE 060800Z 28006KT 15SM SKC 05/04 A3009 RMK SLP203=

CYXE;2005-09-06 09:00;METAR CYXE 060900Z 26007KT 15SM SKC 04/03 A3009 RMK SLP208=

CYXE;2005-09-06 10:00;METAR CYXE 061000Z 26008KT 15SM SKC 04/04 A3010 RMK SLP209=

CYXE;2005-09-06 11:00;METAR CYXE 061100Z 25008KT 15SM SKC 04/03 A3011 RMK SLP213=

CYXE;2005-09-06 12:00;METAR CYXE 061200Z 24006KT 15SM SKC 03/03 A3012 RMK SLP216=

CYXE;2005-09-06 13:00;METAR CYXE 061300Z 24006KT 15SM SKC 04/03 A3013 RMK SLP222=

CYXE;2005-09-06 14:00;METAR CYXE 061400Z 24006KT 15SM SKC 07/06 A3015 RMK SLP228=

CYXE;2005-09-06 15:00;METAR CYXE 061500Z 26005KT 15SM FEW030 10/07 A3017 RMK SC1 SLP230=

CYXE;2005-09-06 16:00;METAR CYXE 061600Z 25007KT 15SM FEW030 13/08 A3017 RMK SC1 SLP232=

CYXE;2005-09-06 17:00;METAR CYXE 061700Z 24007KT 15SM FEW040 15/09 A3017 RMK SC1 SLP233=

CYXE;2005-09-06 18:00;METAR CYXE 061800Z 25011KT 15SM FEW040 17/08 A3017 RMK SC1 SLP230=

CYXE;2005-09-06 19:00;METAR CYXE 061900Z 26011G17KT 15SM FEW040 19/08 A3016 RMK CU2 SLP227=

CYXE;2005-09-06 20:00;METAR CYXE 062000Z 30008G15KT 15SM VCSH BKN055TCU 18/07 A3016 RMK TCU5 SLP227=

CYXE;2005-09-06 21:00;METAR CYXE 062100Z 27008KT 15SM SCT060TCU 19/07 A3016 RMK TCU4 SLP225=

CYXE;2005-09-06 22:00;METAR CYXE 062200Z 30008KT 15SM BKN070TCU 18/07 A3015 RMK TCU5 VIRGA SLP224=

CYXE;2005-09-06 23:00;METAR CYXE 062300Z 31010KT 15SM FEW070 20/07 A3015 RMK CU2 SLP224=

CYXE;2005-09-07 00:00;METAR CYXE 070000Z 31007KT 15SM FEW070 19/07 A3015 RMK CU1 SLP225=

CYXE;2005-09-07 01:00;METAR CYXE 070100Z 30002KT 15SM FEW070 18/07 A3015 RMK CU1 SLP225=

CYXE;2005-09-07 02:00;METAR CYXE 070200Z 18003KT 15SM SKC 15/07 A3016 RMK SLP226=

CYXE;2005-09-07 03:00;METAR CYXE 070300Z 17004KT 15SM SKC 14/07 A3017 RMK SLP229=

CYXE;2005-09-07 04:00;METAR CYXE 070400Z 16005KT 15SM SKC 12/07 A3017 RMK SLP229=

CYXE;2005-09-07 05:00;METAR CYXE 070500Z 16005KT 15SM SKC 11/06 A3017 RMK SLP230=

CYXE;2005-09-07 06:00;METAR CYXE 070600Z 16005KT 15SM SKC 09/05 A3017 RMK SLP229=

CYXE;2005-09-07 07:00;METAR CYXE 070700Z 16005KT 15SM SKC 08/05 A3017 RMK SLP229=

CYXE;2005-09-07 08:00;METAR CYXE 070800Z 15005KT 15SM SKC 08/04 A3017 RMK SLP228=

CYXE;2005-09-07 09:00;METAR CYXE 070900Z 16004KT 15SM SKC 07/04 A3016 RMK SLP225=

CYXE;2005-09-07 10:00;METAR CYXE 071000Z 17004KT 15SM SCT098 08/04 A3015 RMK AC3 SLP223=

CYXE;2005-09-07 11:00;METAR CYXE 071100Z 19007KT 15SM BKN098 09/04 A3014 RMK AC6 SLP219=

CYXE;2005-09-07 12:00;METAR CYXE 071200Z 19008KT 15SM SCT100 09/04 A3013 RMK AC2 SLP214=

CYXE;2005-09-07 13:00;METAR CYXE 071300Z 18008KT 15SM FEW100 08/04 A3012 RMK AC1 SLP212=

CYXE;2005-09-07 14:00;METAR CYXE 071400Z 18008KT 15SM FEW300 11/05 A3012 RMK CI0 SLP212=

CYXE;2005-09-07 15:00;METAR CYXE 071500Z 18009KT 15SM FEW300 14/06 A3012 RMK CI0 SLP209=

CYXE;2005-09-07 16:00;METAR CYXE 071600Z 19010KT 15SM FEW300 17/06 A3011 RMK CI0 SLP206=

CYXE;2005-09-07 17:00;METAR CYXE 071700Z 20014KT 15SM FEW300 19/06 A3009 RMK CI0 SLP202=

CYXE;2005-09-07 18:00;METAR CYXE 071800Z 20014G19KT 15SM SCT300 22/06 A3008 RMK CI1 SLP194=

CYXE;2005-09-07 19:00;METAR CYXE 071900Z 20014G19KT 15SM FEW300 24/06 A3006 RMK CI1 SLP187=

CYXE;2005-09-07 20:00;METAR CYXE 072000Z 20012G22KT 15SM FEW300 25/05 A3004 RMK CI1 SLP181=

CYXE;2005-09-07 21:00;METAR CYXE 072100Z 20014G22KT 15SM FEW300 25/05 A3001 RMK CI1 SLP170=

CYXE;2005-09-07 22:00;METAR CYXE 072200Z 18014KT 15SM FEW120 FEW300 25/05 A2999 RMK AC1CI0 SLP163=

CYXE;2005-09-07 23:00;METAR CYXE 072300Z 20008G15KT 15SM FEW120 SCT300 25/05 A2996 RMK AC2CI1 SLP155=

CYXE;2005-09-08 00:00;METAR CYXE 080000Z 15006KT 15SM FEW110 OVC280 21/09 A2994 RMK AC2CI2 SLP148=

CYXE;2005-09-08 01:00;METAR CYXE 080100Z 14008KT 15SM FEW110 OVC280 21/08 A2992 RMK AC2CI3 ACC ASOCTD SLP141=

CYXE;2005-09-08 02:00;METAR CYXE 080200Z 14009KT 15SM FEW110 BKN280 20/07 A2990 RMK AC2CI2 SLP136=

CYXE;2005-09-08 03:00;METAR CYXE 080300Z 14011G16KT 15SM FEW110 SCT140 BKN280 19/07 A2990 RMK AC1AC2CI2 SLP130=

CYXE;2005-09-08 04:00;METAR CYXE 080400Z 15011KT 15SM FEW110 SCT250 18/06 A2988 RMK AC2CI2 SLP124=

CYXE;2005-09-08 05:00;METAR CYXE 080500Z 16009KT 15SM SCT250 16/06 A2986 RMK CI2 SLP118=

CYXE;2005-09-08 07:00;METAR CYXE 080700Z 18010KT 15SM BKN100 BKN250 16/08 A2982 RMK AC5CI1 LTGIC DIST N-NE SLP103=

CYXE;2005-09-08 08:00;METAR CYXE 080800Z 19009KT 15SM SCT110 BKN250 14/08 A2982 RMK AC2CI2 SLP101=

CYXE;2005-09-08 10:00;METAR CYXE 081000Z 21007KT 15SM SKC 11/06 A2980 RMK SLP095=

CYXE;2005-09-08 11:00;METAR CYXE 081100Z 22006KT 15SM SKC 08/06 A2980 RMK SLP095=

CYXE;2005-09-08 12:00;METAR CYXE 081200Z 22007KT 15SM FEW120 SCT250 08/06 A2980 RMK AC1CI1 SLP100=

CYXE;2005-09-08 13:00;METAR CYXE 081300Z 22008KT 15SM FEW120 BKN250 08/06 A2981 RMK AC1CI2 SLP102=

CYXE;2005-09-08 14:00;METAR CYXE 081400Z 23008KT 15SM BKN250 10/07 A2981 RMK CI2 SLP104=

CYXE;2005-09-08 15:00;METAR CYXE 081500Z 23007KT 15SM BKN300 13/08 A2981 RMK CI2 SLP103=

CYXE;2005-09-08 16:00;METAR CYXE 081600Z 25006KT 15SM OVC300 16/09 A2981 RMK CI2 SLP101=

CYXE;2005-09-08 17:00;METAR CYXE 081700Z 26006KT 15SM BKN300 19/10 A2981 RMK CI3 SLP100=

CYXE;2005-09-08 18:00;METAR CYXE 081800Z 27004KT 15SM BKN300 21/10 A2979 RMK CI3 SLP092=

CYXE;2005-09-08 19:00;METAR CYXE 081900Z 27005KT 15SM BKN300 22/09 A2977 RMK CI5 SLP087=

CYXE;2005-09-08 20:00;METAR CYXE 082000Z 24004KT 15SM BKN300 24/07 A2977 RMK CI2 SLP084=

CYXE;2005-09-08 21:00;METAR CYXE 082100Z 28003KT 15SM BKN300 24/09 A2975 RMK CI2 SLP077=

CYXE;2005-09-08 22:00;METAR CYXE 082200Z 14006KT 15SM FEW300 25/09 A2973 RMK CI1 SLP071=

CYXE;2005-09-08 23:00;METAR CYXE 082300Z 09005KT 15SM FEW120 FEW300 24/09 A2971 RMK AC1CI2 SLP065=

CYXE;2005-09-09 00:00;METAR CYXE 090000Z 10003KT 15SM FEW120 SCT300 24/09 A2969 RMK AC1CI2 SLP061=

CYXE;2005-09-09 01:00;METAR CYXE 090100Z 08008KT 15SM FEW110 BKN280 19/10 A2968 RMK AC2CI2 SLP056=

CYXE;2005-09-09 02:00;METAR CYXE 090200Z 07008KT 15SM FEW110 BKN280 15/10 A2967 RMK AC2CI2 SLP055=

CYXE;2005-09-09 03:00;METAR CYXE 090300Z 08008KT 15SM FEW110 BKN250 16/08 A2967 RMK AC2CI2 SLP055=

CYXE;2005-09-09 04:00;METAR CYXE 090400Z 06009KT 15SM FEW110 FEW250 14/09 A2966 RMK AC1CI1 SLP053=

CYXE;2005-09-09 05:00;METAR CYXE 090500Z 07007KT 15SM FEW110 SCT250 14/09 A2965 RMK AC2CI0 SLP049=

CYXE;2005-09-09 06:00;METAR CYXE 090600Z 05006KT 15SM FEW110 FEW250 11/08 A2963 RMK AC1CI1 SLP038=

CYXE;2005-09-09 07:00;METAR CYXE 090700Z 06007KT 15SM FEW250 10/08 A2961 RMK CI1 SLP034=

CYXE;2005-09-09 08:00;METAR CYXE 090800Z 06006KT 15SM FEW250 09/07 A2960 RMK CI1 SLP031=

CYXE;2005-09-09 09:00;METAR CYXE 090900Z 05005KT 15SM FEW250 09/07 A2960 RMK CI1 SLP029=

CYXE;2005-09-09 10:00;METAR CYXE 091000Z 36004KT 15SM SKC 07/06 A2960 RMK SLP029=

CYXE;2005-09-09 11:00;METAR CYXE 091100Z 01008KT 15SM SKC 07/06 A2961 RMK SLP031=

CYXE;2005-09-09 12:00;METAR CYXE 091200Z 03006KT 15SM FEW120 FEW250 06/05 A2960 RMK AC1CI1 SLP031=

CYXE;2005-09-09 13:00;METAR CYXE 091300Z 04007KT 15SM FEW120 FEW250 07/05 A2959 RMK AC1CI1 SLP026=

CYXE;2005-09-09 14:00;METAR CYXE 091400Z 11003KT 15SM SCT250 09/07 A2960 RMK CI1 SLP031=

CYXE;2005-09-09 15:00;METAR CYXE 091500Z 04006KT 15SM BKN250 12/08 A2960 RMK CI2 SLP033=

CYXE;2005-09-09 16:00;METAR CYXE 091600Z 05007KT 15SM BKN250 15/10 A2959 RMK CI2 SLP030=

CYXE;2005-09-09 17:00;METAR CYXE 091700Z 04010KT 15SM BKN250 17/11 A2958 RMK CI3 SLP027=

CYXE;2005-09-09 18:00;METAR CYXE 091800Z 05010KT 15SM BKN250 19/12 A2956 RMK CI3 SLP018=

CYXE;2005-09-09 19:00;METAR CYXE 091900Z 05009KT 15SM FEW120 BKN250 21/13 A2956 RMK AC2CI2 SLP016=

CYXE;2005-09-09 20:00;METAR CYXE 092000Z 05009KT 15SM FEW120 BKN250 24/13 A2955 RMK AC2CI3 SLP012=

CYXE;2005-09-09 21:00;METAR CYXE 092100Z 03011KT 15SM FEW100 BKN250 24/14 A2955 RMK ACC2CI2 SLP010=

CYXE;2005-09-09 22:00;METAR CYXE 092200Z 04012KT 15SM SCT086 OVC250 24/14 A2954 RMK ACC3CI2 SLP009=

CYXE;2005-09-09 23:00;METAR CYXE 092300Z 02009KT 15SM SCT095 OVC250 23/14 A2957 RMK AC4CI2 ACC ASOCTD SLP018=

CYXE;2005-09-10 00:00;METAR CYXE 100000Z 02010G15KT 15SM SCT095 OVC250 22/15 A2957 RMK AC3CI2 ACC ASOCTD SLP022=

CYXE;2005-09-10 01:00;METAR CYXE 100100Z 03013KT 15SM SCT110 BKN240 21/14 A2957 RMK AC4CI2 ACC ASOCTD SLP023=

CYXE;2005-09-10 02:00;METAR CYXE 100200Z 05014KT 15SM SCT110 OVC240 20/14 A2958 RMK AC3CI2 SLP026=

CYXE;2005-09-10 03:00;METAR CYXE 100300Z 03014KT 15SM SCT110 OVC200 19/14 A2960 RMK AC3CI4 SLP032=

CYXE;2005-09-10 04:00;METAR CYXE 100400Z 04012G17KT 15SM FEW110 BKN200 19/14 A2960 RMK AC2CI3 SLP030=

CYXE;2005-09-10 05:00;METAR CYXE 100500Z 04011KT 15SM SCT110 BKN200 18/14 A2962 RMK AC3CI2 CB EMBD LTGICCCCG NNE-E SLP038=

CYXE;2005-09-10 05:26;SPECI CYXE 100526Z 36013G18KT 15SM -SHRA SCT015 BKN110 BKN200 17/ RMK SC3AC3CI1 CB EMBD LTGICCCCG NE-E=

CYXE;2005-09-10 05:46;SPECI CYXE 100546Z 01016KT 15SM OVC015 17/ RMK SC8 LTGIC NE=

CYXE;2005-09-10 06:00;METAR CYXE 100600Z 36013G18KT 15SM OVC015 17/12 A2960 RMK SC8 CB EMBD SLP029=

CYXE;2005-09-10 07:00;METAR CYXE 100700Z 36012G17KT 15SM OVC017 16/11 A2967 RMK SC8 CB EMBD LTGCG S PRESRR SLP049=

CYXE;2005-09-10 07:41;SPECI CYXE 100741Z 03020G26KT 15SM -SHRA SCT017 OVC065 15/ RMK SC3SC5 CB ASOCTD=

CYXE;2005-09-10 08:00;METAR CYXE 100800Z 04022G30KT 15SM -SHRA FEW015 BKN030 OVC065 15/12 A2959 RMK SC2SC4SC2 CB + LTNG E PRESFR SLP024=

CYXE;2005-09-10 08:08;SPECI CYXE 100808Z 04015G25KT 15SM FEW015 OVC030 15/ RMK SC1SC7 CB + LTNG DIST E=

CYXE;2005-09-10 09:00;METAR CYXE 100900Z 02017G22KT 15SM BKN019 OVC035 15/11 A2963 RMK SC5SC3 SLP035=

CYXE;2005-09-10 10:00;METAR CYXE 101000Z 04017G24KT 15SM BKN015 OVC040 15/11 A2960 RMK SC6SC2 SLP028=

CYXE;2005-09-10 11:00;METAR CYXE 101100Z 03016KT 15SM BKN013 OVC050 16/12 A2964 RMK SC6SC2 SLP041=

CYXE;2005-09-10 12:00;METAR CYXE 101200Z 02013KT 15SM BKN017 OVC050 15/12 A2965 RMK SC7SC1 SLP044=

CYXE;2005-09-10 13:00;METAR CYXE 101300Z 03015KT 15SM BKN015 OVC050 15/11 A2968 RMK SC6SC2 SLP053=

CYXE;2005-09-10 13:28;SPECI CYXE 101328Z 03015KT 15SM -SHRA SCT015 OVC031 14/ RMK SC4SC4=

CYXE;2005-09-10 14:00;METAR CYXE 101400Z 02017KT 15SM -SHRA BKN015 OVC031 13/11 A2966 RMK SC5SC3 SLP047=

CYXE;2005-09-10 14:21;SPECI CYXE 101421Z 03014KT 15SM BKN015 OVC061 13/ RMK SC6SC2=

CYXE;2005-09-10 15:00;METAR CYXE 101500Z 03016KT 15SM OVC015 14/10 A2966 RMK SC8 SLP050=

CYXE;2005-09-10 15:40;SPECI CYXE 101540Z 03017KT 15SM OVC013 14/ RMK SC8=

CYXE;2005-09-10 16:00;METAR CYXE 101600Z 04018G24KT 15SM OVC015 15/10 A2966 RMK SC8 SLP049=

CYXE;2005-09-10 16:12;SPECI CYXE 101612Z 03021G26KT 15SM OVC013 15/ RMK SF8=

CYXE;2005-09-10 17:00;METAR CYXE 101700Z 03016G21KT 15SM -SHRA OVC015 15/11 A2967 RMK SC8 RAG CIG SLP051=

CYXE;2005-09-10 18:00;METAR CYXE 101800Z 03019G25KT 15SM -DZ OVC017 14/11 A2963 RMK SC8 SLP041=

CYXE;2005-09-10 18:31;SPECI CYXE 101831Z 04020G27KT 15SM -SHRA OVC017 14/ RMK SC8=

CYXE;2005-09-10 19:00;METAR CYXE 101900Z 04017G24KT 10SM SHRA BKN019 OVC120 14/12 A2964 RMK SC7AC1 SLP044=

CYXE;2005-09-10 20:00;METAR CYXE 102000Z 04020G25KT 4SM RA BR FEW013 OVC017 13/12 A2963 RMK SF2SC6 SLP041=

CYXE;2005-09-10 20:44;SPECI CYXE 102044Z 03023G31KT 6SM -RA BR BKN010 OVC055 12/ RERA RMK SF6SC2=

CYXE;2005-09-10 21:00;METAR CYXE 102100Z 03023G31KT 10SM -RA OVC010 12/11 A2960 RERA RMK SF8 SLP034=

CYXE;2005-09-10 21:50;SPECI CYXE 102150Z 03024G36KT 10SM -RA OVC009 12/ RMK SF8=

CYXE;2005-09-10 22:00;METAR CYXE 102200Z 02027G36KT 10SM -RA OVC009 12/11 A2960 RMK SF8 SLP032=

CYXE;2005-09-10 23:00;METAR CYXE 102300Z 03027G33KT 10SM -RA OVC010 11/10 A2959 RMK SF8 SLP030=

CYXE;2005-09-10 23:28;SPECI CYXE 102328Z 03023G33KT 3SM -RA BR OVC009 RMK SF8=

CYXE;2005-09-10 23:53;SPECI CYXE 102353Z 03022KT 2SM RA BR OVC008 11/ RMK SF8=

CYXE;2005-09-11 00:00;METAR CYXE 110000Z 03022G31KT 2SM RA BR OVC008 11/10 A2961 RMK SF8 SLP036=

CYXE;2005-09-11 00:09;SPECI CYXE 110009Z 03023G34KT 1SM R09/P6000FT/D TSRA BR OVC008 11/ RMK SF8 CB EMBD LTGIC=

CYXE;2005-09-11 04:00;METAR CYXE 110400Z 03027G33KT 10SM -RA BKN010 OVC042 11/10 A2958 RMK SF6SC2 SLP026=

CYXE;2005-09-11 05:00;METAR CYXE 110500Z 04030G36KT 10SM -RA OVC009 11/10 A2956 RMK SF8 SLP022=

CYXE;2005-09-11 06:00;METAR CYXE 110600Z 04022G29KT 5SM RA OVC010 11/10 A2958 RMK ST8 /R30/ SLP027=

CYXE;2005-09-11 06:46;SPECI CYXE 110646Z 04021G26KT 3SM +RA OVC008 11/ RMK ST8=

CYXE;2005-09-11 07:00;METAR CYXE 110700Z 04018G25KT 3SM +RA OVC008 11/10 A2960 RMK ST8 SLP035=

CYXE;2005-09-11 08:00;METAR CYXE 110800Z 04013KT 10SM -RA BKN006 OVC050 11/10 A2962 RERA RMK ST6SC2 /R19/ SLP039=

CYXE;2005-09-11 08:48;SPECI CYXE 110848Z 09006KT 2SM -RA OVC006 11/ RMK ST8=

CYXE;2005-09-11 09:00;METAR CYXE 110900Z 07005KT 2SM RA OVC006 11/10 A2965 RMK ST8 SLP053=

CYXE;2005-09-11 09:21;SPECI CYXE 110921Z 05003KT 3SM -RA OVC006 11/ RERA RMK ST8=

CYXE;2005-09-11 10:00;METAR CYXE 111000Z 35005KT 3SM -RA SCT006 OVC012 11/10 A2966 RERA RMK ST3SC5 SLP055=

CYXE;2005-09-11 11:00;METAR CYXE 111100Z 01007KT 3SM -RA BKN004 OVC018 11/10 A2965 RMK ST5SC3 SLP052=

CYXE;2005-09-11 11:09;SPECI CYXE 111109Z 02009KT 4SM -DZ BKN004 OVC018 11/ RMK ST5SC3=

CYXE;2005-09-11 11:24;SPECI CYXE 111124Z 01008KT 4SM -DZ BR FEW004 OVC010 11/ RMK SF2ST6=

CYXE;2005-09-11 12:00;METAR CYXE 111200Z 03011KT 3SM -DZ BR BKN004 OVC015 11/10 A2964 RMK SF5SC3 /R29/ SLP051=

CYXE;2005-09-11 13:00;METAR CYXE 111300Z 03011G17KT 3SM -DZ BR BKN006 OVC020 11/10 A2964 RMK SF6SC2 SLP050=

CYXE;2005-09-11 14:00;METAR CYXE 111400Z 04010G15KT 7SM -DZ OVC006 10/10 A2964 RMK ST8 SLP049=

CYXE;2005-09-11 14:28;SPECI CYXE 111428Z 05015KT 4SM -DZ BR OVC005 11/ RMK SF8=

CYXE;2005-09-11 15:00;METAR CYXE 111500Z 07007KT 2SM -RA BR OVC004 11/10 A2964 RMK SF8 SLP050=

CYXE;2005-09-11 16:00;METAR CYXE 111600Z 06007KT 1 1/2SM -RA BR OVC006 11/11 A2964 RMK SF8 SLP050=

CYXE;2005-09-11 16:24;SPECI CYXE 111624Z 07005KT 3SM -DZ BR OVC004 12/ RMK SF8=

CYXE;2005-09-11 17:19;SPECI CYXE 111719Z 08005KT 8SM BKN006 BKN024 13/ RMK SF6SC1=

CYXE;2005-09-11 18:00;METAR CYXE 111800Z 19009KT 15SM SCT006 BKN013 BKN030 13/12 A2961 RMK SF3SC3SC1 SLP039=

CYXE;2005-09-11 18:48;SPECI CYXE 111848Z 18012KT 7SM -RA SCT007 OVC020 12/ RMK SF4SC4=

CYXE;2005-09-11 19:00;METAR CYXE 111900Z 17010G15KT 12SM -RA SCT007 BKN020 BKN040 12/12 A2961 RMK SF3SC3SC1 SLP039=

CYXE;2005-09-11 19:45;SPECI CYXE 111945Z 18015KT 15SM FEW008 BKN024 12/ RMK CF2SC4=

CYXE;2005-09-11 20:00;METAR CYXE 112000Z 19012G17KT 15SM FEW010 BKN040 15/12 A2960 RMK CF2SC3 SLP034=

CYXE;2005-09-11 21:00;METAR CYXE 112100Z 17010G15KT 15SM BKN020 BKN050 14/10 A2958 RMK SC6SC2 SLP027=

CYXE;2005-09-11 21:03;SPECI CYXE 112103Z 17013KT 10SM -SHRA BKN020 14/ RMK SC7 TCU EMBD=

CYXE;2005-09-11 21:28;SPECI CYXE 112128Z 20012G18KT 15SM BKN021 14/ RMK SC7=

CYXE;2005-09-11 22:00;METAR CYXE 112200Z 21014G21KT 15SM BKN027 14/08 A2957 RMK SC7 SLP023=

CYXE;2005-09-11 23:00;METAR CYXE 112300Z 21015KT 15SM FEW025 BKN034 14/09 A2955 RMK SF2SC6 SLP018=

CYXE;2005-09-11 23:47;SPECI CYXE 112347Z 20013KT 10SM -SHRA OVC021 12/ RMK SC8=

CYXE;2005-09-12 00:00;METAR CYXE 120000Z 20012KT 12SM -SHRA BKN017 12/10 A2954 RMK SC7 SLP014=

CYXE;2005-09-12 01:00;METAR CYXE 120100Z 27013G18KT 10SM -RA SCT007 OVC037 11/10 A2956 RMK SF3SC5 SLP021=

CYXE;2005-09-12 01:17;SPECI CYXE 120117Z 27016KT 2SM -RA BR OVC005 10/ RMK ST8=

CYXE;2005-09-12 02:00;METAR CYXE 120200Z 27014G20KT 3SM -RA BR OVC007 10/09 A2960 RMK ST8 SLP034=

CYXE;2005-09-12 03:00;METAR CYXE 120300Z 26016KT 3SM -RA BR OVC006 09/09 A2964 RMK ST8 SLP051=

CYXE;2005-09-12 04:00;METAR CYXE 120400Z 26019KT 3SM -RA BR OVC006 09/08 A2966 RMK ST8 SLP058=

CYXE;2005-09-12 05:00;METAR CYXE 120500Z 26017G25KT 6SM -RA OVC008 09/08 A2969 RMK ST8 SLP066=

CYXE;2005-09-12 05:34;SPECI CYXE 120534Z 27017G25KT 10SM -RA OVC012 09/ RMK ST8=

CYXE;2005-09-12 06:00;METAR CYXE 120600Z 27017G24KT 10SM -RA OVC012 09/08 A2971 RMK SC8 SLP073=

CYXE;2005-09-12 06:34;SPECI CYXE 120634Z 27015G20KT 15SM OVC012 09/ RMK SC8=

CYXE;2005-09-12 07:00;METAR CYXE 120700Z 27016KT 15SM BKN014 OVC035 09/08 A2973 RMK SC7SC1 SLP080=

CYXE;2005-09-12 08:00;METAR CYXE 120800Z 28013G19KT 15SM OVC014 09/08 A2975 RMK SC8 SLP087=

CYXE;2005-09-12 09:00;METAR CYXE 120900Z 29014KT 15SM OVC014 09/07 A2977 RMK SC8 SLP095=

CYXE;2005-09-12 10:00;METAR CYXE 121000Z 26008KT 15SM FEW015 OVC040 08/07 A2980 RMK SC2SC5 SLP104=

CYXE;2005-09-12 11:00;METAR CYXE 121100Z 25010KT 15SM OVC038 08/07 A2983 RMK SC7 SLP114=

CYXE;2005-09-12 12:00;METAR CYXE 121200Z 27007KT 15SM SCT040 07/06 A2984 RMK SC2 SLP118=

CYXE;2005-09-12 13:00;METAR CYXE 121300Z 27005KT 15SM FEW040 SCT250 06/05 A2984 RMK SC2CI1 SLP120=

CYXE;2005-09-12 14:00;METAR CYXE 121400Z 28006KT 15SM FEW040 BKN250 08/07 A2985 RMK SC1CI2 SLP122=

CYXE;2005-09-12 15:00;METAR CYXE 121500Z 30012KT 15SM FEW012 FEW040 FEW250 10/07 A2986 RMK CU1SC1CI1 SLP126=

CYXE;2005-09-12 16:00;METAR CYXE 121600Z 31009KT 15SM FEW020 FEW250 11/07 A2986 RMK CU1CI1 SLP128=

CYXE;2005-09-12 17:00;METAR CYXE 121700Z 30010KT 15SM BKN026 11/07 A2986 RMK CU5 SLP125=

CYXE;2005-09-12 18:00;METAR CYXE 121800Z 30010G15KT 15SM BKN034 BKN150 11/05 A2986 RMK CU6AC1 SLP126=

CYXE;2005-09-12 19:00;METAR CYXE 121900Z 25008G15KT 15SM SCT040 BKN250 13/05 A2986 RMK CU4CI1 SLP126=

CYXE;2005-09-12 20:00;METAR CYXE 122000Z 27010G16KT 15SM FEW040 SCT250 14/06 A2984 RMK CU2CI2 SLP120=

CYXE;2005-09-12 21:00;METAR CYXE 122100Z 27014KT 15SM FEW040 FEW250 15/06 A2983 RMK CU1CI2 SLP114=

CYXE;2005-09-12 22:00;METAR CYXE 122200Z 30010G16KT 15SM FEW045 SCT120 16/07 A2982 RMK CU1AC2 SLP111=

CYXE;2005-09-12 23:00;METAR CYXE 122300Z 29009KT 15SM FEW050 BKN120 BKN300 14/07 A2982 RMK CU2AC2CI0 SLP111=

CYXE;2005-09-13 00:00;METAR CYXE 130000Z 31013G18KT 15SM BKN045 13/08 A2983 RMK SC7 SLP116=

CYXE;2005-09-13 01:00;METAR CYXE 130100Z 31008KT 15SM BKN064 12/08 A2984 RMK SC7 SLP120=

CYXE;2005-09-13 02:00;METAR CYXE 130200Z 30008KT 15SM BKN064 12/07 A2985 RMK SC7 SLP123=

CYXE;2005-09-13 03:00;METAR CYXE 130300Z 29006KT 15SM BKN060 11/07 A2987 RMK SC6 SLP128=

CYXE;2005-09-13 04:00;METAR CYXE 130400Z 28006KT 15SM BKN056 10/07 A2987 RMK SC7 SLP128=

CYXE;2005-09-13 05:00;METAR CYXE 130500Z 27006KT 15SM BKN058 07/06 A2987 RMK SC3 SLP129=

CYXE;2005-09-13 06:00;METAR CYXE 130600Z 25006KT 15SM FEW060 06/04 A2987 RMK SC2 SLP130=

CYXE;2005-09-13 07:00;METAR CYXE 130700Z 26006KT 15SM FEW060 05/04 A2986 RMK SC1 SLP129=

CYXE;2005-09-13 08:00;METAR CYXE 130800Z 27008KT 15SM FEW060 05/03 A2986 RMK SC1 SLP129=

CYXE;2005-09-13 09:00;METAR CYXE 130900Z 28008KT 15SM SCT060 05/03 A2986 RMK SC3 SLP126=

CYXE;2005-09-13 10:00;METAR CYXE 131000Z 28009KT 15SM FEW060 04/03 A2986 RMK SC2 SLP125=

CYXE;2005-09-13 11:00;METAR CYXE 131100Z 29009KT 15SM FEW060 05/03 A2986 RMK SC1 SLP128=

CYXE;2005-09-13 12:00;METAR CYXE 131200Z 27007KT 15SM FEW060 04/03 A2987 RMK SC1 SLP132=

CYXE;2005-09-13 13:00;METAR CYXE 131300Z 28007KT 15SM FEW060 03/02 A2988 RMK SC1 SLP134=

CYXE;2005-09-13 14:00;METAR CYXE 131400Z 29011KT 15SM FEW030 05/04 A2988 RMK SC2 SLP135=

CYXE;2005-09-13 15:00;METAR CYXE 131500Z 30009KT 15SM BKN034 07/05 A2988 RMK SC2 SLP135=

CYXE;2005-09-13 16:00;METAR CYXE 131600Z 29011KT 15SM FEW012 FEW034 BKN080 09/05 A2988 RMK CU1SC1AC2 SLP135=

CYXE;2005-09-13 17:00;METAR CYXE 131700Z 30008KT 15SM BKN025 BKN074 10/05 A2988 RMK SC5AC2 SLP134=

CYXE;2005-09-13 18:00;METAR CYXE 131800Z 31010KT 15SM BKN025 10/05 A2988 RMK SC7 SLP134=

CYXE;2005-09-13 19:00;METAR CYXE 131900Z 32011KT 15SM BKN031 12/06 A2986 RMK SC7 SLP130=

CYXE;2005-09-13 20:00;METAR CYXE 132000Z 31009G15KT 15SM BKN033 12/05 A2986 RMK SC6 SLP127=

CYXE;2005-09-13 21:00;METAR CYXE 132100Z 29012KT 15SM BKN040 BKN066 12/04 A2984 RMK SC5AC2 SLP121=

CYXE;2005-09-13 22:00;METAR CYXE 132200Z 32009KT 15SM BKN040 BKN065 13/05 A2984 RMK SC6AC1 CU ASOCTD SLP121=

CYXE;2005-09-13 23:00;METAR CYXE 132300Z 34007KT 15SM BKN045 BKN220 13/04 A2983 RMK SC5CI1 CU ASOCTD SLP118=

CYXE;2005-09-14 00:00;METAR CYXE 140000Z 34010KT 15SM FEW045 SCT160 BKN250 11/04 A2983 RMK SC1AC2CI1 SLP117=

CYXE;2005-09-14 01:00;METAR CYXE 140100Z 35004KT 15SM FEW045 SCT160 BKN250 10/04 A2982 RMK SC1AC1CI2 SLP115=

CYXE;2005-09-14 02:00;METAR CYXE 140200Z 05004KT 15SM FEW120 BKN250 08/04 A2983 RMK AC1CI4 SLP117=

CYXE;2005-09-14 03:00;METAR CYXE 140300Z 09003KT 15SM FEW110 BKN250 08/04 A2983 RMK AC1CI3 SLP117=

CYXE;2005-09-14 04:00;METAR CYXE 140400Z 06005KT 15SM BKN060 BKN090 OVC250 08/05 A2983 RMK SC5AC2CI1 SLP118=

CYXE;2005-09-14 05:00;METAR CYXE 140500Z 10006KT 15SM BKN055 OVC090 08/04 A2982 RMK SC6AC2 SLP116=

CYXE;2005-09-14 05:41;SPECI CYXE 140541Z 12006KT 15SM -SHRA BKN057 OVC090 08/ RMK SC6AC2=

CYXE;2005-09-14 06:00;METAR CYXE 140600Z 12005KT 15SM BKN055 07/04 A2981 RMK SC7 SLP111=

CYXE;2005-09-14 07:00;METAR CYXE 140700Z 12007KT 15SM BKN055 08/04 A2980 RMK SC7 SLP108=

CYXE;2005-09-14 08:00;METAR CYXE 140800Z 13006KT 15SM -RA OVC050 08/04 A2980 RMK SC8 SLP107=

CYXE;2005-09-14 09:00;METAR CYXE 140900Z 12006KT 15SM -RA OVC043 07/05 A2979 RMK SC8 SLP102=

CYXE;2005-09-14 10:00;METAR CYXE 141000Z 11009KT 15SM -RA OVC043 07/05 A2977 RMK SC8 SLP096=

CYXE;2005-09-14 11:00;METAR CYXE 141100Z 10010KT 15SM -RA OVC050 07/05 A2977 RMK SC8 SLP094=

CYXE;2005-09-14 12:00;METAR CYXE 141200Z 11012KT 15SM -RA OVC055 07/05 A2974 RMK SC8 SLP087=

CYXE;2005-09-14 13:00;METAR CYXE 141300Z 10012KT 15SM -RA OVC060 07/05 A2974 RMK SC8 SLP085=

CYXE;2005-09-14 14:00;METAR CYXE 141400Z 10011KT 15SM -SHRA BKN063 07/05 A2973 RMK SC7 SLP084=

CYXE;2005-09-14 15:00;METAR CYXE 141500Z 08009KT 15SM -SHRA BKN059 BKN090 08/06 A2976 RMK SC6AC1 SLP094=

CYXE;2005-09-14 16:00;METAR CYXE 141600Z 09011KT 15SM -SHRA FEW021 BKN038 OVC064 09/07 A2976 RMK CF1SC6SC1 SLP094=

CYXE;2005-09-14 17:00;METAR CYXE 141700Z 10011KT 15SM BKN013 OVC064 09/06 A2977 RMK SC6SC2 SLP096=

CYXE;2005-09-14 17:33;SPECI CYXE 141733Z 11010KT 15SM BKN015 BKN057 10/ RMK SC6SC1=

CYXE;2005-09-14 18:00;METAR CYXE 141800Z 11012KT 15SM BKN015 BKN048 10/06 A2976 RMK SC6SC1 SLP094=

CYXE;2005-09-14 19:00;METAR CYXE 141900Z 09008KT 15SM BKN019 OVC045 11/07 A2977 RMK SC6SC2 SLP096=

CYXE;2005-09-14 20:00;METAR CYXE 142000Z 05008KT 15SM OVC019 11/08 A2978 RMK SC8 SLP101=

CYXE;2005-09-14 21:00;METAR CYXE 142100Z 05010KT 15SM BKN026 OVC048 11/07 A2980 RMK SC6SC2 SLP105=

CYXE;2005-09-14 22:00;METAR CYXE 142200Z 06009KT 15SM BKN025 BKN050 OVC120 11/07 A2980 RMK SC5SC2AC1 SLP106=

CYXE;2005-09-14 23:00;METAR CYXE 142300Z 05009KT 15SM FEW025 BKN045 BKN100 11/07 A2981 RMK SC1SC4AC2 SLP111=

CYXE;2005-09-15 00:00;METAR CYXE 150000Z 03007KT 15SM BKN020 OVC065 10/07 A2983 RMK SC6SC1 SLP116=

CYXE;2005-09-15 00:37;SPECI CYXE 150037Z 06007KT 15SM -SHRA SCT025 BKN055 BKN090 09/ RMK SC3SC3AC1=

CYXE;2005-09-15 00:52;SPECI CYXE 150052Z 05007KT 15SM VCSH FEW030 SCT055 BKN092 09/ RMK SC2SC2AC4=

CYXE;2005-09-15 01:00;METAR CYXE 150100Z 05009KT 15SM VCSH FEW025 FEW055 BKN092 BKN220 09/07 A2982 RMK SC2SC1AC3CI2 SLP114=

CYXE;2005-09-15 02:00;METAR CYXE 150200Z 04007KT 15SM BKN035 OVC090 08/07 A2984 RMK SC6AC2 SLP121=

CYXE;2005-09-15 03:00;METAR CYXE 150300Z 04008KT 15SM -SHRA BKN030 OVC075 08/07 A2986 RMK SC7AC1 SLP130=

CYXE;2005-09-15 04:00;METAR CYXE 150400Z 05008KT 15SM -SHRA OVC030 08/07 A2987 RMK SC8 SLP131=

CYXE;2005-09-15 04:25;SPECI CYXE 150425Z 05008KT 15SM BKN025 OVC085 08/ RMK SC5AC3=

CYXE;2005-09-15 05:00;METAR CYXE 150500Z 03008KT 15SM BKN007 BKN015 OVC080 07/07 A2988 RMK SF6SC2AC1 SLP136=

CYXE;2005-09-15 06:00;METAR CYXE 150600Z 04010KT 15SM OVC006 07/06 A2990 RMK ST8 SLP140=

CYXE;2005-09-15 06:07;SPECI CYXE 150607Z 03009KT 12SM OVC002 07/ RMK ST8=

CYXE;2005-09-15 06:34;SPECI CYXE 150634Z 04011KT 15SM OVC004 06/ RMK ST8=

CYXE;2005-09-15 07:00;METAR CYXE 150700Z 04010KT 12SM OVC003 06/06 A2992 RMK ST8 SLP148=

CYXE;2005-09-15 08:00;METAR CYXE 150800Z 04008KT 12SM OVC003 06/06 A2994 RMK ST8 SLP153=

CYXE;2005-09-15 09:00;METAR CYXE 150900Z 04008KT 12SM OVC005 06/05 A2995 RMK ST8 SLP160=

CYXE;2005-09-15 10:00;METAR CYXE 151000Z 05009KT 12SM OVC003 06/05 A2996 RMK ST8 SLP163=

CYXE;2005-09-15 11:00;METAR CYXE 151100Z 03007KT 12SM OVC003 06/05 A2998 RMK ST8 SLP167=

CYXE;2005-09-15 12:00;METAR CYXE 151200Z 03006KT 12SM OVC004 06/05 A2999 RMK ST8 SLP175=

CYXE;2005-09-15 12:46;SPECI CYXE 151246Z 05007KT 10SM OVC006 06/ RMK ST8=

CYXE;2005-09-15 13:00;METAR CYXE 151300Z 04006KT 10SM OVC007 06/05 A3001 RMK SC8 SLP180=

CYXE;2005-09-15 14:00;METAR CYXE 151400Z 04006KT 15SM OVC007 06/05 A3003 RMK SC8 RAG CIG SLP185=

CYXE;2005-09-15 15:00;METAR CYXE 151500Z 05007KT 15SM BKN008 OVC018 06/05 A3003 RMK SF6SC2 SLP189=

CYXE;2005-09-15 16:00;METAR CYXE 151600Z 04005KT 15SM OVC010 07/05 A3004 RMK SC8 SLP192=

CYXE;2005-09-15 17:00;METAR CYXE 151700Z 04006KT 15SM OVC012 08/05 A3004 RMK SC8 SLP191=

CYXE;2005-09-15 17:40;SPECI CYXE 151740Z 07006KT 15SM BKN016 OVC044 08/ RMK SC6SC1=

CYXE;2005-09-15 18:00;METAR CYXE 151800Z 08004KT 15SM BKN016 OVC044 08/05 A3004 RMK SC6SC2 SLP192=

CYXE;2005-09-15 19:00;METAR CYXE 151900Z 08003KT 15SM BKN022 OVC044 10/05 A3003 RMK SC6SC2 SLP189=

CYXE;2005-09-15 20:00;METAR CYXE 152000Z 10002KT 15SM BKN026 OVC041 10/04 A3003 RMK SC6SC2 SLP187=

CYXE;2005-09-15 21:00;METAR CYXE 152100Z 06004KT 15SM OVC031 10/04 A3003 RMK SC8 SLP185=

CYXE;2005-09-15 22:00;METAR CYXE 152200Z 09003KT 15SM OVC033 10/04 A3002 RMK SC8 SLP183=

CYXE;2005-09-15 23:00;METAR CYXE 152300Z 07005KT 15SM OVC033 10/04 A3002 RMK SC8 SLP183=

CYXE;2005-09-16 00:00;METAR CYXE 160000Z 08005KT 15SM OVC033 10/04 A3002 RMK SC8 SLP184=

CYXE;2005-09-16 01:00;METAR CYXE 160100Z 09006KT 15SM OVC033 09/04 A3003 RMK SC8 SLP185=

CYXE;2005-09-16 02:00;METAR CYXE 160200Z 09006KT 15SM OVC035 09/05 A3003 RMK SC8 SLP188=

CYXE;2005-09-16 03:00;METAR CYXE 160300Z 09006KT 15SM OVC037 09/04 A3003 RMK SC8 SLP189=

CYXE;2005-09-16 04:00;METAR CYXE 160400Z 10008KT 15SM OVC037 09/05 A3003 RMK SC8 SLP188=

CYXE;2005-09-16 05:00;METAR CYXE 160500Z 10008KT 15SM BKN037 OVC095 09/05 A3003 RMK SC6AC2 SLP187=

CYXE;2005-09-16 06:00;METAR CYXE 160600Z 09004KT 15SM FEW027 OVC037 08/05 A3003 RMK SC2SC6 SLP188=

CYXE;2005-09-16 07:00;METAR CYXE 160700Z 08004KT 15SM OVC037 08/06 A3004 RMK SC8 SLP189=

CYXE;2005-09-16 08:00;METAR CYXE 160800Z 09005KT 15SM OVC029 08/06 A3004 RMK SC8 SLP190=

CYXE;2005-09-16 09:00;METAR CYXE 160900Z 10005KT 15SM OVC033 08/06 A3003 RMK SC8 SLP187=

CYXE;2005-09-16 10:00;METAR CYXE 161000Z 12004KT 15SM OVC035 08/06 A3004 RMK SC8 SLP188=

CYXE;2005-09-16 11:00;METAR CYXE 161100Z 11006KT 15SM OVC037 08/06 A3004 RMK SC8 SLP188=

CYXE;2005-09-16 12:00;METAR CYXE 161200Z 10002KT 15SM BKN037 OVC061 08/06 A3004 RMK SC7SC1 SLP190=

CYXE;2005-09-16 14:00;METAR CYXE 161400Z 05004KT 15SM SCT037 BKN054 08/06 A3004 RMK SC3SC2 SLP189=

CYXE;2005-09-16 15:00;METAR CYXE 161500Z 04005KT 15SM FEW012 OVC052 09/06 A3006 RMK SF1SC7 SLP195=

CYXE;2005-09-16 16:00;METAR CYXE 161600Z 07005KT 15SM SCT014 OVC052 10/07 A3005 RMK SF4SC4 SLP194=

CYXE;2005-09-16 17:00;METAR CYXE 161700Z 09003KT 15SM BKN015 OVC081 10/07 A3005 RMK SC6AC2 SLP194=

CYXE;2005-09-16 18:00;METAR CYXE 161800Z 06006KT 15SM BKN021 OVC081 11/06 A3005 RMK SC6AC2 SLP192=

CYXE;2005-09-16 19:00;METAR CYXE 161900Z 07004KT 15SM BKN022 OVC080 11/06 A3004 RMK SC7AC1 SLP190=

CYXE;2005-09-16 21:00;METAR CYXE 162100Z 11004KT 15SM BKN024 OVC046 12/07 A3002 RMK SC5SC3 SLP182=

CYXE;2005-09-16 22:00;METAR CYXE 162200Z 08006KT 15SM BKN024 BKN080 12/07 A3002 RMK SC5AC2 SLP181=

CYXE;2005-09-16 23:00;METAR CYXE 162300Z 07006KT 15SM SCT025 BKN040 12/07 A3003 RMK SC4SC3 SLP183=

CYXE;2005-09-17 00:00;METAR CYXE 170000Z 05007KT 15SM FEW025 OVC045 11/07 A3003 RMK SC2SC5 SLP183=

CYXE;2005-09-17 01:00;METAR CYXE 170100Z 08006KT 15SM FEW025 OVC038 11/07 A3003 RMK SC1SC6 SLP183=

CYXE;2005-09-17 02:00;METAR CYXE 170200Z 07005KT 15SM OVC052 10/07 A3003 RMK SC8 SLP186=

CYXE;2005-09-17 03:00;METAR CYXE 170300Z 08007KT 15SM OVC052 10/07 A3003 RMK SC8 SLP186=

CYXE;2005-09-17 04:00;METAR CYXE 170400Z 07007KT 15SM BKN052 09/07 A3003 RMK SC7 SLP186=

CYXE;2005-09-17 05:00;METAR CYXE 170500Z 10005KT 15SM BKN054 09/07 A3003 RMK SC7 SLP184=

CYXE;2005-09-17 05:50;SPECI CYXE 170550Z 28005KT 15SM BKN010 OVC061 08/ RMK SF5SC3=

CYXE;2005-09-17 06:00;METAR CYXE 170600Z 28006KT 15SM BKN010 OVC061 08/07 A3003 RMK SF6SC2 SLP183=

CYXE;2005-09-17 06:24;SPECI CYXE 170624Z 32004KT 15SM SCT010 OVC065 08/ RMK SF4SC4=

CYXE;2005-09-17 07:00;METAR CYXE 170700Z 02005KT 15SM FEW010 BKN065 07/06 A3001 RMK SF1SC6 SLP178=

CYXE;2005-09-17 08:00;METAR CYXE 170800Z 13004KT 15SM FEW010 BKN065 06/05 A3000 RMK SF1SC6 SLP175=

CYXE;2005-09-17 09:00;METAR CYXE 170900Z 00000KT 15SM FEW010 OVC063 07/06 A3001 RMK SF1SC8 SLP177=

CYXE;2005-09-17 10:00;METAR CYXE 171000Z 23003KT 15SM FEW010 SCT038 OVC060 07/07 A3001 RMK SF1SC2SC5 SLP177=

CYXE;2005-09-17 11:00;METAR CYXE 171100Z 01002KT 15SM FEW010 SCT044 BKN060 06/06 A3000 RMK SF1SC2SC4 SLP174=

CYXE;2005-09-17 12:00;METAR CYXE 171200Z 01002KT 15SM BKN037 07/06 A3000 RMK SC7 SLP175=

CYXE;2005-09-17 14:00;METAR CYXE 171400Z 18003KT 6SM BR FEW003 FEW010 OVC063 07/07 A3000 RMK SF1SC1SC6 SLP176=

CYXE;2005-09-17 14:50;SPECI CYXE 171450Z 23005KT 10SM BKN003 OVC036 07/ RMK SF5SC3=

CYXE;2005-09-17 15:00;METAR CYXE 171500Z 22004KT 10SM BKN003 OVC036 07/07 A3001 RMK SF5SC3 SLP178=

CYXE;2005-09-17 15:31;SPECI CYXE 171531Z 17004KT 15SM FEW003 SCT036 OVC060 08/ RMK SF2SC2SC4=

CYXE;2005-09-17 16:00;METAR CYXE 171600Z 19004KT 15SM FEW003 SCT036 BKN063 10/08 A2999 RMK SF1SC3SC3 SLP174=

CYXE;2005-09-17 17:00;METAR CYXE 171700Z 21006KT 15SM FEW003 BKN063 11/08 A2999 RMK SF1SC6 SLP173=

CYXE;2005-09-17 18:00;METAR CYXE 171800Z 20007KT 15SM SCT022 OVC064 12/08 A2999 RMK SC4SC4 SLP169=

CYXE;2005-09-17 19:00;METAR CYXE 171900Z 23007KT 15SM SCT027 OVC063 13/07 A2998 RMK SC4SC4 SLP167=

CYXE;2005-09-17 20:00;METAR CYXE 172000Z 22010KT 15SM FEW030 BKN057 15/07 A2997 RMK SC2SC2 SLP163=

CYXE;2005-09-17 21:00;METAR CYXE 172100Z 25009KT 15SM BKN039 BKN070 15/07 A2995 RMK SC5AC2 SLP156=

CYXE;2005-09-17 22:00;METAR CYXE 172200Z 24008KT 15SM BKN043 BKN250 16/07 A2994 RMK CU5CI0 SLP152=

CYXE;2005-09-17 23:00;METAR CYXE 172300Z 25010KT 15SM FEW050 BKN250 15/06 A2993 RMK CU2CI0 SLP150=

CYXE;2005-09-18 00:00;METAR CYXE 180000Z 25008KT 15SM FEW050 SCT250 16/06 A2993 RMK CU2CI0 SLP148=

CYXE;2005-09-18 01:00;METAR CYXE 180100Z 22004KT 15SM FEW050 SCT250 14/06 A2993 RMK SC1CI0 SLP148=

CYXE;2005-09-18 02:00;METAR CYXE 180200Z 19004KT 15SM FEW050 FEW250 11/07 A2993 RMK SC1CI0 SLP148=

CYXE;2005-09-18 03:00;METAR CYXE 180300Z 21007KT 15SM FEW080 10/06 A2994 RMK AC2 SLP155=

CYXE;2005-09-18 04:00;METAR CYXE 180400Z 21006KT 15SM BKN070 10/06 A2994 RMK AC6 SLP155=

CYXE;2005-09-18 05:00;METAR CYXE 180500Z 21003KT 15SM BKN060 11/06 A2994 RMK SC7 SLP156=

CYXE;2005-09-18 06:00;METAR CYXE 180600Z 20006KT 15SM BKN059 10/06 A2994 RMK SC6 SLP153=

CYXE;2005-09-18 07:00;METAR CYXE 180700Z 22006KT 15SM SCT059 08/05 A2994 RMK SC4 SLP152=

CYXE;2005-09-18 08:00;METAR CYXE 180800Z 21006KT 15SM FEW072 07/05 A2994 RMK AC2 SLP151=

CYXE;2005-09-18 09:00;METAR CYXE 180900Z 22007KT 15SM FEW086 06/04 A2993 RMK AC1 SLP149=

CYXE;2005-09-18 10:00;METAR CYXE 181000Z 22007KT 15SM FEW090 06/04 A2993 RMK AC1 SLP148=

CYXE;2005-09-18 11:00;METAR CYXE 181100Z 22007KT 15SM FEW090 06/05 A2992 RMK AC1 SLP147=

CYXE;2005-09-18 12:00;METAR CYXE 181200Z 21006KT 15SM FEW050 FEW082 05/04 A2993 RMK SC1AC2 SLP148=

CYXE;2005-09-18 13:00;METAR CYXE 181300Z 20006KT 15SM FEW075 SCT220 06/04 A2993 RMK AC2CI0 SLP150=

CYXE;2005-09-18 14:00;METAR CYXE 181400Z 21007KT 15SM FEW075 07/05 A2994 RMK AC1 SLP152=

CYXE;2005-09-18 15:00;METAR CYXE 181500Z 21008KT 15SM FEW060 10/07 A2994 RMK SC1 SLP152=

CYXE;2005-09-18 16:00;METAR CYXE 181600Z 22010KT 15SM SKC 13/07 A2994 RMK SLP152=

CYXE;2005-09-18 17:00;METAR CYXE 181700Z 23012KT 15SM SKC 16/08 A2993 RMK SLP150=

CYXE;2005-09-18 18:00;METAR CYXE 181800Z 24013KT 15SM SKC 18/08 A2991 RMK SLP140=

CYXE;2005-09-18 19:00;METAR CYXE 181900Z 21014KT 15SM FEW056 19/05 A2990 RMK CU1 SLP136=

CYXE;2005-09-18 20:00;METAR CYXE 182000Z 22013KT 15SM FEW064 FEW300 20/04 A2989 RMK CU1CI1 SLP131=

CYXE;2005-09-18 21:00;METAR CYXE 182100Z 23008KT 15SM FEW060 SCT300 19/05 A2987 RMK CU1CI1 SLP126=

CYXE;2005-09-18 22:00;METAR CYXE 182200Z 22008KT 15SM FEW060 SCT300 20/06 A2985 RMK CU1CI1 SLP120=

CYXE;2005-09-18 23:00;METAR CYXE 182300Z 23009KT 15SM FEW060 FEW300 20/05 A2984 RMK SC1CI0 SLP116=

CYXE;2005-09-19 00:00;METAR CYXE 190000Z 24008KT 15SM FEW060 FEW300 19/06 A2983 RMK SC1CI1 SLP114=

CYXE;2005-09-19 01:00;METAR CYXE 190100Z 21006KT 15SM FEW060 BKN300 16/07 A2983 RMK SC1CI1 SLP112=

CYXE;2005-09-19 02:00;METAR CYXE 190200Z 19006KT 15SM BKN300 14/07 A2982 RMK CI2 SLP111=

CYXE;2005-09-19 03:00;METAR CYXE 190300Z 18006KT 15SM BKN300 12/07 A2982 RMK CI2 SLP111=

CYXE;2005-09-19 04:00;METAR CYXE 190400Z 18006KT 15SM BKN300 12/07 A2981 RMK CI2 SLP109=

CYXE;2005-09-19 05:00;METAR CYXE 190500Z 17006KT 15SM BKN300 10/06 A2980 RMK CI2 SLP105=

CYXE;2005-09-19 06:00;METAR CYXE 190600Z 17007KT 15SM BKN300 10/06 A2979 RMK CI2 SLP097=

CYXE;2005-09-19 07:00;METAR CYXE 190700Z 16006KT 15SM SCT300 09/06 A2978 RMK CI1 SLP094=

CYXE;2005-09-19 08:00;METAR CYXE 190800Z 19005KT 15SM FEW300 09/08 A2977 RMK CI1 SLP092=

CYXE;2005-09-19 09:00;METAR CYXE 190900Z 19005KT 15SM SKC 09/08 A2977 RMK SLP088=

CYXE;2005-09-19 10:00;METAR CYXE 191000Z 18007KT 15SM SKC 09/08 A2975 RMK SLP082=

CYXE;2005-09-19 11:00;METAR CYXE 191100Z 19005KT 15SM SKC 08/07 A2974 RMK SLP080=

CYXE;2005-09-19 12:00;METAR CYXE 191200Z 20007KT 15SM SKC 07/06 A2974 RMK SLP081=

CYXE;2005-09-19 13:00;METAR CYXE 191300Z 20007KT 15SM FEW300 07/05 A2975 RMK CI1 SLP084=

CYXE;2005-09-19 14:00;METAR CYXE 191400Z 21007KT 15SM FEW300 07/06 A2975 RMK CI1 SLP083=

CYXE;2005-09-19 15:00;METAR CYXE 191500Z 21008KT 15SM FEW300 09/06 A2974 RMK CI1 SLP084=

CYXE;2005-09-19 16:00;METAR CYXE 191600Z 19007KT 15SM FEW300 12/07 A2973 RMK CI1 SLP081=

CYXE;2005-09-19 17:00;METAR CYXE 191700Z 19007KT 15SM SCT300 14/09 A2972 RMK CI2 SLP077=

CYXE;2005-09-19 18:00;METAR CYXE 191800Z 21009KT 15SM BKN300 18/10 A2970 RMK CI3 SLP068=

CYXE;2005-09-19 19:00;METAR CYXE 191900Z 20010KT 15SM FEW096 BKN270 19/09 A2969 RMK AC1CI3 SLP063=

CYXE;2005-09-19 20:00;METAR CYXE 192000Z 22014KT 15SM BKN270 20/08 A2968 RMK CI2 SLP061=

CYXE;2005-09-19 21:00;METAR CYXE 192100Z 23011G16KT 15SM FEW050 FEW270 22/08 A2968 RMK CU1CI1 SLP057=

CYXE;2005-09-19 22:00;METAR CYXE 192200Z 26013KT 15SM FEW070 FEW100 22/05 A2967 RMK CU1AC1 SLP054=

CYXE;2005-09-19 23:00;METAR CYXE 192300Z 26012G17KT 15SM FEW080 SCT120 22/07 A2967 RMK CU2AC1 SLP055=

CYXE;2005-09-20 00:00;METAR CYXE 200000Z 32016KT 15SM FEW080 FEW120 BKN250 18/07 A2969 RMK CU2AC1CI2 SLP066=

CYXE;2005-09-20 01:00;METAR CYXE 200100Z 30010KT 15SM FEW070 FEW120 15/06 A2973 RMK CU1AC1 SLP078=

CYXE;2005-09-20 02:00;METAR CYXE 200200Z 29009KT 15SM FEW120 12/06 A2977 RMK AC1 SLP092=

CYXE;2005-09-20 03:00;METAR CYXE 200300Z 29008KT 15SM FEW120 09/05 A2981 RMK AC1 SLP109=

CYXE;2005-09-20 04:00;METAR CYXE 200400Z 26006KT 15SM FEW120 07/04 A2983 RMK AC1 SLP115=

CYXE;2005-09-20 05:00;METAR CYXE 200500Z 25009KT 15SM FEW120 06/04 A2985 RMK AC1 SLP121=

CYXE;2005-09-20 06:00;METAR CYXE 200600Z 24007KT 15SM SCT120 06/04 A2986 RMK AC3 SLP124=

CYXE;2005-09-20 07:00;METAR CYXE 200700Z 23007KT 15SM FEW120 06/04 A2987 RMK AC1 SLP128=

CYXE;2005-09-20 08:00;METAR CYXE 200800Z 23008KT 15SM SCT120 05/03 A2988 RMK AC2 SLP131=

CYXE;2005-09-20 09:00;METAR CYXE 200900Z 23008KT 15SM BKN120 06/04 A2990 RMK AC3 SLP134=

CYXE;2005-09-20 10:00;METAR CYXE 201000Z 24007KT 15SM BKN120 06/04 A2991 RMK AC3 SLP137=

CYXE;2005-09-20 11:00;METAR CYXE 201100Z 23008KT 15SM BKN120 05/03 A2992 RMK AC4 SLP141=

CYXE;2005-09-20 12:00;METAR CYXE 201200Z 23009KT 15SM FEW120 04/02 A2993 RMK AC1 SLP147=

CYXE;2005-09-20 13:00;METAR CYXE 201300Z 23008KT 15SM FEW120 04/02 A2994 RMK AC1 SLP152=

CYXE;2005-09-20 14:00;METAR CYXE 201400Z 24007KT 15SM SKC 07/04 A2995 RMK SLP155=

CYXE;2005-09-20 15:00;METAR CYXE 201500Z 25009KT 15SM FEW080 09/05 A2996 RMK AC1 SLP161=

CYXE;2005-09-20 16:00;METAR CYXE 201600Z 31006KT 15SM FEW030 FEW120 12/05 A2996 RMK CU1AC1 SLP162=

CYXE;2005-09-20 17:00;METAR CYXE 201700Z 29006KT 15SM FEW120 14/05 A2996 RMK AC1 SLP162=

CYXE;2005-09-20 18:00;METAR CYXE 201800Z 30005KT 15SM FEW120 16/05 A2995 RMK AC1 SLP157=

CYXE;2005-09-20 19:00;METAR CYXE 201900Z 28008KT 15SM FEW120 17/04 A2994 RMK AC1 SLP153=

CYXE;2005-09-20 20:00;METAR CYXE 202000Z 30008KT 15SM FEW060 FEW120 BKN280 18/04 A2993 RMK CU1AC2CI1 SLP149=

CYXE;2005-09-20 21:00;METAR CYXE 202100Z 30012KT 15SM FEW055 BKN080 BKN280 17/03 A2993 RMK CU1AC6CI1 SLP147=

CYXE;2005-09-20 22:00;METAR CYXE 202200Z 31009KT 15SM FEW050 BKN080 BKN140 16/03 A2992 RMK CU1AC6AC2 SLP145=

CYXE;2005-09-20 23:00;METAR CYXE 202300Z 30010KT 15SM FEW050 SCT080 BKN150 16/03 A2993 RMK CU1AC3AC3 SLP147=

CYXE;2005-09-21 00:00;METAR CYXE 210000Z 28007KT 15SM FEW050 SCT080 BKN150 14/04 A2993 RMK CU1AC3AC3 SLP152=

CYXE;2005-09-21 01:00;METAR CYXE 210100Z 28007KT 15SM BKN080 BKN150 12/04 A2994 RMK AC5AC2 VIRGA SLP154=

CYXE;2005-09-21 02:00;METAR CYXE 210200Z 27007KT 15SM SCT080 BKN150 10/04 A2995 RMK AC3AC2 SLP158=

CYXE;2005-09-21 03:00;METAR CYXE 210300Z 27006KT 15SM FEW080 SCT150 09/03 A2996 RMK AC1AC2 SLP160=

CYXE;2005-09-21 04:00;METAR CYXE 210400Z 26007KT 15SM FEW080 06/02 A2997 RMK AC1 SLP163=

CYXE;2005-09-21 05:00;METAR CYXE 210500Z 29008KT 15SM FEW080 05/02 A2997 RMK AC1 SLP163=

CYXE;2005-09-21 06:00;METAR CYXE 210600Z 27007KT 15SM SKC 04/01 A2998 RMK SLP166=

CYXE;2005-09-21 07:00;METAR CYXE 210700Z 25008KT 15SM SKC 03/01 A2998 RMK SLP168=

CYXE;2005-09-21 08:00;METAR CYXE 210800Z 26008KT 15SM SKC 02/00 A2999 RMK SLP170=

CYXE;2005-09-21 09:00;METAR CYXE 210900Z 24008KT 15SM SKC 02/01 A3000 RMK SLP174=

CYXE;2005-09-21 10:00;METAR CYXE 211000Z 28009KT 15SM SKC 03/01 A3000 RMK SLP174=

CYXE;2005-09-21 11:00;METAR CYXE 211100Z 29007KT 15SM SKC 02/00 A3001 RMK SLP177=

CYXE;2005-09-21 11:40;SPECI CYXE 211140Z 27005KT 15SM SKC 01/=

CYXE;2005-09-21 12:00;METAR CYXE 211200Z 25006KT 15SM SKC 01/M01 A3002 RMK SLP184=

CYXE;2005-09-21 13:00;METAR CYXE 211300Z 25005KT 15SM SKC 00/M01 A3004 RMK SLP189=

CYXE;2005-09-21 14:00;METAR CYXE 211400Z 26004KT 15SM SKC 02/01 A3005 RMK SLP192=

CYXE;2005-09-21 15:00;METAR CYXE 211500Z 30010KT 15SM SKC 07/03 A3006 RMK SLP197=

CYXE;2005-09-21 16:00;METAR CYXE 211600Z 28008KT 15SM SKC 10/04 A3007 RMK SLP200=

CYXE;2005-09-21 17:00;METAR CYXE 211700Z 31008KT 15SM SKC 12/05 A3008 RMK SLP202=

CYXE;2005-09-21 18:00;METAR CYXE 211800Z 32013KT 15SM FEW040 14/05 A3008 RMK CU1 SLP202=

CYXE;2005-09-21 19:00;METAR CYXE 211900Z 31012KT 15SM FEW040 15/04 A3008 RMK CU2 TCU ASOCTD SLP201=

CYXE;2005-09-21 20:00;METAR CYXE 212000Z 32014G22KT 15SM SCT050 16/04 A3006 RMK CU3 SLP197=

CYXE;2005-09-21 21:00;METAR CYXE 212100Z 32012G18KT 15SM BKN060 16/03 A3005 RMK CU6 TCU ASOCTD SLP193=

CYXE;2005-09-21 22:00;METAR CYXE 212200Z 31011G17KT 15SM FEW060 16/02 A3006 RMK CU2 TCU N SLP194=

CYXE;2005-09-21 23:00;METAR CYXE 212300Z 32008KT 15SM FEW060 15/03 A3006 RMK CU2 SLP195=

CYXE;2005-09-22 00:00;METAR CYXE 220000Z 32010KT 15SM FEW060 14/02 A3006 RMK CU1 SLP197=

CYXE;2005-09-22 01:00;METAR CYXE 220100Z 31005KT 15SM FEW060 11/02 A3007 RMK CU1 SLP200=

CYXE;2005-09-22 02:00;METAR CYXE 220200Z 06003KT 15SM FEW060 10/02 A3008 RMK SC1 SLP205=

CYXE;2005-09-22 03:00;METAR CYXE 220300Z 06003KT 15SM FEW060 07/01 A3010 RMK SC1 SLP213=

CYXE;2005-09-22 04:00;METAR CYXE 220400Z 03003KT 15SM FEW060 06/03 A3011 RMK SC1 SLP214=

CYXE;2005-09-22 05:00;METAR CYXE 220500Z 20004KT 15SM FEW080 04/02 A3011 RMK AC1 SLP215=

CYXE;2005-09-22 06:00;METAR CYXE 220600Z 22002KT 15SM SKC 04/02 A3011 RMK SLP213=

CYXE;2005-09-22 07:00;METAR CYXE 220700Z 00000KT 15SM SKC 02/00 A3011 RMK SLP211=

CYXE;2005-09-22 08:00;METAR CYXE 220800Z 10002KT 15SM SKC 03/01 A3011 RMK SLP211=

CYXE;2005-09-22 09:00;METAR CYXE 220900Z 02003KT 15SM SKC 02/01 A3011 RMK SLP212=

CYXE;2005-09-22 10:00;METAR CYXE 221000Z 20004KT 15SM SKC 01/00 A3011 RMK SLP213=

CYXE;2005-09-22 11:00;METAR CYXE 221100Z 19004KT 15SM SKC 01/00 A3011 RMK SLP212=

CYXE;2005-09-22 12:00;METAR CYXE 221200Z 20005KT 15SM SKC M00/M01 A3012 RMK SLP217=

CYXE;2005-09-22 13:00;METAR CYXE 221300Z 17002KT 15SM BCFG FEW100 M01/M02 A3012 RMK AC1 SLP219=

CYXE;2005-09-22 14:00;METAR CYXE 221400Z 22002KT 15SM SKC M00/M02 A3012 RMK SLP220=

CYXE;2005-09-22 15:00;METAR CYXE 221500Z 24003KT 15SM FEW250 04/02 A3012 RMK CI0 SLP222=

CYXE;2005-09-22 16:00;METAR CYXE 221600Z 28002KT 15SM FEW250 08/04 A3012 RMK CI0 SLP221=

CYXE;2005-09-22 17:00;METAR CYXE 221700Z 00000KT 15SM FEW250 10/05 A3011 RMK CI0 SLP217=

CYXE;2005-09-22 18:00;METAR CYXE 221800Z 12003KT 12SM FEW250 14/05 A3010 RMK CI0 SLP208=

CYXE;2005-09-22 19:00;METAR CYXE 221900Z 10004KT 15SM FEW050 FEW250 15/03 A3008 RMK CF1CI1 SLP203=

CYXE;2005-09-22 20:00;METAR CYXE 222000Z 00000KT 15SM FEW050 BKN250 16/01 A3006 RMK CU1CI2 SLP195=

CYXE;2005-09-22 21:00;METAR CYXE 222100Z 09004KT 15SM FEW050 FEW100 BKN250 16/01 A3003 RMK CU1AC1CI2 SLP185=

CYXE;2005-09-22 22:00;METAR CYXE 222200Z 15003KT 15SM FEW084 FEW093 BKN250 16/01 A3001 RMK AC1AC2CI2 SLP179=

CYXE;2005-09-22 23:00;METAR CYXE 222300Z 06008KT 15SM FEW084 SCT093 OVC220 15/02 A2999 RMK AC2AC2CI4 SLP171=

CYXE;2005-09-23 00:00;METAR CYXE 230000Z 06007KT 15SM BKN077 BKN096 OVC220 13/03 A2998 RMK AC6AC2CI1 SLP171=

CYXE;2005-09-23 00:46;SPECI CYXE 230046Z 07008KT 15SM -SHRA OVC042 13/ RMK SC8=

CYXE;2005-09-23 01:00;METAR CYXE 230100Z 05014G19KT 8SM -SHRA OVC042 13/04 A2998 RMK SC8 RAG CIG SLP171=

CYXE;2005-09-23 02:00;METAR CYXE 230200Z 00000KT 12SM -RA OVC037 10/07 A2998 RMK SC8 SLP172=

CYXE;2005-09-23 03:00;METAR CYXE 230300Z 00000KT 15SM -RA OVC041 09/07 A3000 RERA RMK SC8 SLP177=

CYXE;2005-09-23 04:00;METAR CYXE 230400Z 10008KT 15SM -RA OVC031 09/07 A2998 RMK SC8 SLP171=

CYXE;2005-09-23 05:00;METAR CYXE 230500Z 10012G17KT 6SM RA OVC023 08/07 A2995 RMK SC8 SLP162=

CYXE;2005-09-23 06:00;METAR CYXE 230600Z 08010KT 10SM -RA OVC040 08/07 A2994 RERA RMK SC8 SLP153=

CYXE;2005-09-23 07:00;METAR CYXE 230700Z 06016KT 15SM SCT040 BKN083 08/07 A2988 RMK SC4AC3 PRESFR SLP133=

CYXE;2005-09-23 08:00;METAR CYXE 230800Z 03011KT 15SM FEW015 OVC050 08/07 A2988 RMK SF2SC6 SLP132=

CYXE;2005-09-23 09:00;METAR CYXE 230900Z 05009G16KT 15SM SCT018 OVC055 08/07 A2986 RMK SC3SC5 SLP125=

CYXE;2005-09-23 10:00;METAR CYXE 231000Z 01011KT 15SM BKN016 BKN050 08/07 A2986 RMK SC6SC2 SLP122=

CYXE;2005-09-23 11:00;METAR CYXE 231100Z 35013KT 15SM BKN007 BKN015 OVC050 08/06 A2985 RMK SF5SC2SC1 SLP121=

CYXE;2005-09-23 12:00;METAR CYXE 231200Z 34013KT 15SM BKN005 OVC015 07/06 A2987 RMK SF6SC2 SLP128=

CYXE;2005-09-23 12:53;SPECI CYXE 231253Z 33013G18KT 15SM -RA OVC007 06/ RMK SF8=

CYXE;2005-09-23 13:00;METAR CYXE 231300Z 33016KT 10SM -RA BKN008 OVC017 06/05 A2988 RMK SF6SC2 SLP133=

CYXE;2005-09-23 13:44;SPECI CYXE 231344Z 33011KT 15SM BKN007 OVC020 RMK SF5SC3=

CYXE;2005-09-23 14:00;METAR CYXE 231400Z 33011KT 15SM -DZ BKN007 OVC023 06/05 A2990 RMK ST5SC3 SLP139=

CYXE;2005-09-23 14:18;SPECI CYXE 231418Z 31010G15KT 15SM BKN008 OVC025 06/ RMK ST6SC2=

CYXE;2005-09-23 15:00;METAR CYXE 231500Z 32010KT 15SM OVC008 07/06 A2992 RMK ST8 SLP149=

CYXE;2005-09-23 15:41;SPECI CYXE 231541Z 34013KT 15SM BKN011 BKN030 07/ RMK SC6SC1=

CYXE;2005-09-23 16:00;METAR CYXE 231600Z 32010G16KT 15SM BKN012 OVC030 07/05 A2994 RMK SC5SC2 SLP155=

CYXE;2005-09-23 16:25;SPECI CYXE 231625Z 34012G19KT 15SM SCT012 BKN030 07/ RMK SC3SC2=

CYXE;2005-09-23 17:00;METAR CYXE 231700Z 32015KT 15SM BKN015 BKN040 08/05 A2995 RMK SC6SC2 SLP158=

CYXE;2005-09-23 18:00;METAR CYXE 231800Z 32009KT 15SM BKN016 BKN040 09/06 A2995 RMK SC6SC1 SLP159=

CYXE;2005-09-23 19:00;METAR CYXE 231900Z 31012G17KT 15SM BKN020 BKN040 11/06 A2995 RMK SC5SC1 SLP160=

CYXE;2005-09-23 20:00;METAR CYXE 232000Z 30014G19KT 15SM SCT025 BKN250 12/06 A2994 RMK CU3CI1 SLP156=

CYXE;2005-09-23 21:00;METAR CYXE 232100Z 29011KT 15SM FEW030 BKN250 12/04 A2994 RMK CU2CI1 SLP153=

CYXE;2005-09-23 22:00;METAR CYXE 232200Z 29013KT 15SM FEW040 BKN250 12/04 A2993 RMK CU2CI2 SLP151=

CYXE;2005-09-23 23:00;METAR CYXE 232300Z 30013KT 15SM FEW044 BKN250 12/03 A2994 RMK CU2CI2 TCU ASOCTD N SLP152=

CYXE;2005-09-24 00:00;METAR CYXE 240000Z 30012KT 15SM FEW061 BKN250 12/02 A2995 RMK CU2CI2 TCU ASOCTD N SLP156=

CYXE;2005-09-24 01:00;METAR CYXE 240100Z 29008KT 15SM FEW061 FEW095 SCT240 08/02 A2995 RMK CU1AC1CI1 TCU ASOCTD N SLP157=

CYXE;2005-09-24 02:00;METAR CYXE 240200Z 28007KT 15SM FEW095 FEW240 05/02 A2996 RMK AC1CI1 SLP161=

CYXE;2005-09-24 03:00;METAR CYXE 240300Z 26008KT 15SM SKC 04/01 A2997 RMK SLP170=

CYXE;2005-09-24 04:00;METAR CYXE 240400Z 26008KT 15SM SKC 03/01 A2998 RMK SLP173=

CYXE;2005-09-24 04:43;SPECI CYXE 240443Z 26006KT 15SM SKC 02/=

CYXE;2005-09-24 05:00;METAR CYXE 240500Z 26007KT 15SM SKC 02/01 A2999 RMK SLP174=

CYXE;2005-09-24 05:15;SPECI CYXE 240515Z 26008KT 15SM SKC 01/=

CYXE;2005-09-24 06:00;METAR CYXE 240600Z 26006KT 15SM SKC 01/M00 A2999 RMK SLP176=

CYXE;2005-09-24 07:00;METAR CYXE 240700Z 24006KT 15SM SKC 01/M01 A2999 RMK SLP178=

CYXE;2005-09-24 08:00;METAR CYXE 240800Z 25007KT 15SM SKC 01/M01 A3000 RMK SLP181=

CYXE;2005-09-24 09:00;METAR CYXE 240900Z 24007KT 15SM SKC 00/M01 A3002 RMK SLP184=

CYXE;2005-09-24 10:00;METAR CYXE 241000Z 24008KT 15SM SKC M00/M01 A3002 RMK SLP184=

CYXE;2005-09-24 11:00;METAR CYXE 241100Z 23005KT 15SM SKC M01/M02 A3002 RMK SLP184=

CYXE;2005-09-24 12:00;METAR CYXE 241200Z 20005KT 15SM FEW250 M01/M02 A3003 RMK CI1 SLP188=

CYXE;2005-09-24 13:00;METAR CYXE 241300Z 22007KT 15SM FEW120 FEW250 M01/M02 A3003 RMK AC1CI1 SLP189=

CYXE;2005-09-24 14:00;METAR CYXE 241400Z 23005KT 15SM SCT250 01/M01 A3003 RMK CI1 SLP189=

CYXE;2005-09-24 15:00;METAR CYXE 241500Z 25006KT 15SM BKN250 05/03 A3004 RMK CI2 SLP194=

CYXE;2005-09-24 16:00;METAR CYXE 241600Z 25006KT 15SM BKN250 09/04 A3004 RMK CI2 SLP196=

CYXE;2005-09-24 17:00;METAR CYXE 241700Z 25006KT 15SM FEW089 BKN250 11/03 A3004 RMK AC1CI2 SLP196=

CYXE;2005-09-24 18:00;METAR CYXE 241800Z 25006KT 15SM FEW030 FEW091 SCT250 13/04 A3003 RMK CU1AC2CI1 SLP187=

CYXE;2005-09-24 19:00;METAR CYXE 241900Z 27010G25KT 15SM FEW044 FEW091 SCT250 15/03 A3002 RMK CU2AC1CI1 SLP183=

CYXE;2005-09-24 20:00;METAR CYXE 242000Z 26016KT 15SM SCT073 16/02 A3000 RMK CU3 SLP178=

CYXE;2005-09-24 21:00;METAR CYXE 242100Z 27012G19KT 15SM BKN071 BKN091 15/01 A2999 RMK CU6AC1 SLP175=

CYXE;2005-09-24 22:00;METAR CYXE 242200Z 26016G21KT 15SM BKN070 15/01 A2999 RMK CU6 SLP173=

CYXE;2005-09-24 23:00;METAR CYXE 242300Z 26015KT 15SM BKN075 16/01 A2999 RMK AC6 SLP172=

CYXE;2005-09-25 00:00;METAR CYXE 250000Z 26009KT 15SM SCT080 14/01 A2999 RMK AC4 SLP173=

CYXE;2005-09-25 01:00;METAR CYXE 250100Z 24008KT 15SM SCT080 09/01 A2999 RMK AC4 SLP173=

CYXE;2005-09-25 02:00;METAR CYXE 250200Z 23007KT 15SM FEW080 06/01 A2999 RMK AC1 SLP173=

CYXE;2005-09-25 03:00;METAR CYXE 250300Z 22009KT 15SM FEW080 07/01 A2998 RMK AC1 SLP172=

CYXE;2005-09-25 04:00;METAR CYXE 250400Z 23008KT 15SM SKC 04/00 A2998 RMK SLP173=

CYXE;2005-09-25 05:00;METAR CYXE 250500Z 22008KT 15SM SKC 04/00 A2998 RMK SLP172=

CYXE;2005-09-25 06:00;METAR CYXE 250600Z 22007KT 15SM SKC 03/M00 A2997 RMK SLP166=

CYXE;2005-09-25 06:47;SPECI CYXE 250647Z 22008KT 15SM SKC 02/=

CYXE;2005-09-25 07:00;METAR CYXE 250700Z 21008KT 15SM SKC 02/M00 A2995 RMK SLP161=

CYXE;2005-09-25 08:00;METAR CYXE 250800Z 21006KT 15SM SKC 03/M01 A2995 RMK SLP159=

CYXE;2005-09-25 09:00;METAR CYXE 250900Z 22008KT 15SM BKN250 03/M01 A2994 RMK CI2 SLP155=

CYXE;2005-09-25 11:00;METAR CYXE 251100Z 22008KT 15SM OVC250 04/01 A2991 RMK CS5 SLP145=

CYXE;2005-09-25 12:00;METAR CYXE 251200Z 22007KT 15SM FEW120 OVC250 04/02 A2990 RMK AC2CS4 SLP142=

CYXE;2005-09-25 13:00;METAR CYXE 251300Z 21006KT 15SM SCT120 BKN250 04/02 A2990 RMK AC4CI2 SLP141=

CYXE;2005-09-25 14:00;METAR CYXE 251400Z 19009KT 15SM FEW120 FEW250 04/02 A2989 RMK AC1CI1 SLP137=

CYXE;2005-09-25 15:00;METAR CYXE 251500Z 22014KT 15SM FEW120 BKN250 07/03 A2988 RMK AC1CI4 SLP136=

CYXE;2005-09-25 16:00;METAR CYXE 251600Z 21016KT 15SM BKN090 BKN250 08/04 A2986 RMK AC6CI1 SLP129=

CYXE;2005-09-25 17:00;METAR CYXE 251700Z 22015KT 15SM BKN090 BKN250 10/04 A2985 RMK AC6CI1 SLP126=

CYXE;2005-09-25 18:00;METAR CYXE 251800Z 24015KT 15SM SCT090 BKN250 12/04 A2982 RMK AC4CI3 SLP116=

CYXE;2005-09-25 19:00;METAR CYXE 251900Z 23016KT 15SM FEW080 BKN250 13/04 A2980 RMK AC1CS5 SLP107=

CYXE;2005-09-25 20:00;METAR CYXE 252000Z 25014KT 15SM FEW250 15/05 A2977 RMK CI2 SLP099=

CYXE;2005-09-25 21:00;METAR CYXE 252100Z 26015KT 15SM FEW040 FEW250 17/06 A2977 RMK CU1CI1 SLP095=

CYXE;2005-09-25 22:00;METAR CYXE 252200Z 26012G19KT 15SM FEW044 FEW280 17/06 A2976 RMK CU1CI0 SLP091=

CYXE;2005-09-25 23:00;METAR CYXE 252300Z 27010G17KT 15SM FEW044 SCT300 17/06 A2975 RMK CU1CI1 SLP090=

CYXE;2005-09-26 00:00;METAR CYXE 260000Z 25006KT 15SM SCT300 16/06 A2975 RMK CI1 SLP089=

CYXE;2005-09-26 01:00;METAR CYXE 260100Z 24007KT 15SM BKN300 12/05 A2976 RMK CI2 SLP090=

CYXE;2005-09-26 02:00;METAR CYXE 260200Z 23008KT 15SM SCT300 08/04 A2978 RMK CI2 SLP097=

CYXE;2005-09-26 03:00;METAR CYXE 260300Z 22009KT 15SM FEW082 SCT300 09/05 A2978 RMK AC1CI1 SLP101=

CYXE;2005-09-26 04:00;METAR CYXE 260400Z 24010KT 15SM FEW082 09/05 A2978 RMK AC1 SLP102=

CYXE;2005-09-26 05:00;METAR CYXE 260500Z 25007KT 15SM SKC 06/04 A2980 RMK SLP106=

CYXE;2005-09-26 06:00;METAR CYXE 260600Z 23008KT 15SM SCT080 06/04 A2981 RMK AC3 SLP108=

CYXE;2005-09-26 07:00;METAR CYXE 260700Z 26007KT 15SM BKN095 07/05 A2982 RMK AC7 SLP112=

CYXE;2005-09-26 08:00;METAR CYXE 260800Z 27005KT 15SM BKN075 07/05 A2984 RMK AC7 SLP118=

CYXE;2005-09-26 09:00;METAR CYXE 260900Z 30008KT 15SM BKN100 08/05 A2985 RMK AC6 SLP120=

CYXE;2005-09-26 10:00;METAR CYXE 261000Z 31007KT 15SM FEW100 SCT250 06/04 A2987 RMK AC1CI0 SLP125=

CYXE;2005-09-26 11:00;METAR CYXE 261100Z 27006KT 15SM SCT250 05/03 A2989 RMK CI1 SLP132=

CYXE;2005-09-26 12:00;METAR CYXE 261200Z 26006KT 15SM BKN250 04/02 A2990 RMK CI2 SLP141=

CYXE;2005-09-26 13:00;METAR CYXE 261300Z 23006KT 15SM BKN250 03/02 A2992 RMK CI3 SLP146=

CYXE;2005-09-26 14:00;METAR CYXE 261400Z 24007KT 15SM FEW100 BKN250 04/03 A2992 RMK AC2CI1 SLP145=

CYXE;2005-09-26 15:00;METAR CYXE 261500Z 25007KT 15SM FEW100 SCT250 09/05 A2992 RMK AC1CI1 SLP149=

CYXE;2005-09-26 16:00;METAR CYXE 261600Z 31004KT 15SM FEW100 BKN250 12/05 A2991 RMK AC1CI2 SLP144=

CYXE;2005-09-26 17:00;METAR CYXE 261700Z 24003KT 15SM BKN095 13/04 A2990 RMK AC7 SLP140=

CYXE;2005-09-26 18:00;METAR CYXE 261800Z 23008KT 15SM BKN090 BKN250 15/05 A2989 RMK AC5CI2 SLP135=

CYXE;2005-09-26 19:00;METAR CYXE 261900Z 23008KT 15SM BKN100 BKN250 15/04 A2988 RMK AC6CI1 SLP134=

CYXE;2005-09-26 20:00;METAR CYXE 262000Z 19005KT 15SM SCT100 BKN250 16/04 A2985 RMK AC4CI2 SLP124=

CYXE;2005-09-26 21:00;METAR CYXE 262100Z 13002KT 15SM FEW100 SCT250 17/05 A2983 RMK AC1CI1 SLP111=

CYXE;2005-09-26 22:00;METAR CYXE 262200Z 13005KT 15SM FEW100 FEW250 17/04 A2980 RMK AC1CI1 SLP103=

CYXE;2005-09-26 23:00;METAR CYXE 262300Z 09007KT 15SM FEW100 FEW280 17/05 A2977 RMK AC1CI1 SLP094=

CYXE;2005-09-27 00:00;METAR CYXE 270000Z 09008KT 15SM BKN097 BKN280 14/04 A2976 RMK AC5CI1 SLP091=

CYXE;2005-09-27 01:00;METAR CYXE 270100Z 10010KT 15SM FEW097 BKN280 13/03 A2971 RMK AC2CI1 SLP075=

CYXE;2005-09-27 02:00;METAR CYXE 270200Z 05009KT 15SM BKN094 11/04 A2970 RMK AC5 SLP074=

CYXE;2005-09-27 03:00;METAR CYXE 270300Z 11008KT 15SM BKN094 12/03 A2968 RMK AC4 SLP065=

CYXE;2005-09-27 04:00;METAR CYXE 270400Z 13011G16KT 15SM FEW094 12/02 A2966 RMK AC1 SLP058=

CYXE;2005-09-27 05:00;METAR CYXE 270500Z 11006KT 15SM SKC 10/02 A2965 RMK SLP054=

CYXE;2005-09-27 06:00;METAR CYXE 270600Z 08005KT 15SM FEW090 08/02 A2965 RMK AC2 SLP053=

CYXE;2005-09-27 07:00;METAR CYXE 270700Z 35014KT 15SM OVC090 08/03 A2972 RMK AC7 SLP076=

CYXE;2005-09-27 07:23;SPECI CYXE 270723Z 35014G21KT 12SM -SHRA BKN050 OVC090 08/ RMK SC5ACC3=

CYXE;2005-09-27 08:00;METAR CYXE 270800Z 03023G28KT 12SM -SHRA BKN046 OVC090 08/04 A2971 RMK SC6ACC2 SLP071=

CYXE;2005-09-27 09:00;METAR CYXE 270900Z 02021G27KT 10SM SHRA BKN020 OVC050 07/05 A2975 RMK SC5SC3 SLP086=

CYXE;2005-09-27 09:15;SPECI CYXE 270915Z 03023G29KT 15SM BKN021 BKN050 06/ RERA RMK SC5SC1=

CYXE;2005-09-27 10:00;METAR CYXE 271000Z 01017G24KT 15SM BKN017 BKN050 06/04 A2979 RERA RMK SC6SC1 SLP100=

CYXE;2005-09-27 11:00;METAR CYXE 271100Z 01014KT 15SM BKN015 OVC050 05/04 A2986 RMK SC6SC2 SLP122=

CYXE;2005-09-27 12:00;METAR CYXE 271200Z 01015KT 15SM FEW015 OVC049 05/03 A2991 RMK SC1SC7 SLP143=

CYXE;2005-09-27 13:00;METAR CYXE 271300Z 34011KT 15SM FEW020 OVC036 05/03 A2995 RMK SC2SC6 SLP158=

CYXE;2005-09-27 14:00;METAR CYXE 271400Z 33009KT 15SM SCT043 05/03 A2998 RMK SC4 SLP166=

CYXE;2005-09-27 15:00;METAR CYXE 271500Z 34013KT 15SM FEW043 FEW062 SCT240 06/03 A3001 RMK SC1SC1CI1 SLP178=

CYXE;2005-09-27 16:00;METAR CYXE 271600Z 31009KT 15SM FEW012 BKN045 BKN240 07/04 A3003 RMK CU2SC4CI1 SLP187=

CYXE;2005-09-27 17:00;METAR CYXE 271700Z 33012KT 15SM BKN018 09/05 A3004 RMK CU5 SLP190=

CYXE;2005-09-27 18:00;METAR CYXE 271800Z 33013KT 15SM BKN027 10/04 A3005 RMK CU5 SLP192=

CYXE;2005-09-27 19:00;METAR CYXE 271900Z 31011KT 15SM BKN036 11/04 A3005 RMK CU5 SLP193=

CYXE;2005-09-27 19:53;SPECI CYXE 271953Z 35012G17KT 15SM -SHRA BKN027 09/ RMK CU7 FEW TCU=

CYXE;2005-09-27 20:00;METAR CYXE 272000Z 34014KT 15SM -SHRA BKN027 09/03 A3007 RMK CU7 FEW TCU SLP197=

CYXE;2005-09-27 20:07;SPECI CYXE 272007Z 34015KT 15SM VCSH BKN027 09/ RMK CU6 TCU -SHRA E=

CYXE;2005-09-27 21:00;METAR CYXE 272100Z 35015KT 15SM SCT030 09/01 A3009 RMK CU4 SLP208=

CYXE;2005-09-27 22:00;METAR CYXE 272200Z 35014KT 15SM BKN042 09/01 A3011 RMK SC6 SLP215=

CYXE;2005-09-27 23:00;METAR CYXE 272300Z 33015KT 15SM BKN043 08/M00 A3013 RMK SC7 SLP220=

CYXE;2005-09-28 00:00;METAR CYXE 280000Z 36014KT 15SM BKN050 07/M00 A3016 RMK SC6 SLP232=

CYXE;2005-09-28 01:00;METAR CYXE 280100Z 36008KT 15SM BKN048 05/M01 A3018 RMK SC6 SLP240=

CYXE;2005-09-28 02:00;METAR CYXE 280200Z 35007KT 15SM FEW048 01/M02 A3020 RMK SC2 SLP246=

CYXE;2005-09-28 03:00;METAR CYXE 280300Z 33007KT 15SM SKC M00/M02 A3021 RMK SLP255=

CYXE;2005-09-28 04:00;METAR CYXE 280400Z 34008KT 15SM SKC 00/M02 A3023 RMK SLP261=

CYXE;2005-09-28 05:00;METAR CYXE 280500Z 32008KT 15SM SKC M01/M03 A3025 RMK SLP266=

CYXE;2005-09-28 06:00;METAR CYXE 280600Z 32007KT 15SM SKC M01/M03 A3025 RMK SLP266=

CYXE;2005-09-28 07:00;METAR CYXE 280700Z 26005KT 15SM SKC M02/M04 A3026 RMK SLP267=

CYXE;2005-09-28 08:00;METAR CYXE 280800Z 23005KT 15SM SKC M03/M04 A3026 RMK SLP267=

CYXE;2005-09-28 09:00;METAR CYXE 280900Z 23006KT 15SM SKC M04/M04 A3026 RMK SLP270=

CYXE;2005-09-28 10:00;METAR CYXE 281000Z 23006KT 15SM SKC M04/M04 A3026 RMK SLP270=

CYXE;2005-09-28 11:00;METAR CYXE 281100Z 21006KT 15SM SKC M03/M04 A3025 RMK SLP269=

CYXE;2005-09-28 12:00;METAR CYXE 281200Z 20005KT 10SM SKC M03/M04 A3024 RMK SLP267=

CYXE;2005-09-28 13:00;METAR CYXE 281300Z 19006KT 15SM SKC M03/M05 A3024 RMK SLP267=

CYXE;2005-09-28 14:00;METAR CYXE 281400Z 20006KT 15SM FEW250 M01/M04 A3023 RMK CI1 SLP263=

CYXE;2005-09-28 15:00;METAR CYXE 281500Z 22007KT 15SM FEW250 01/M02 A3022 RMK CI0 SLP262=

CYXE;2005-09-28 16:00;METAR CYXE 281600Z 20007KT 15SM BKN250 05/00 A3021 RMK CI2 SLP257=

CYXE;2005-09-28 17:00;METAR CYXE 281700Z 20008KT 15SM OVC250 08/01 A3018 RMK CI2 SLP248=

CYXE;2005-09-28 18:00;METAR CYXE 281800Z 22010KT 15SM SCT250 11/01 A3015 RMK CI1 SLP230=

CYXE;2005-09-28 19:00;METAR CYXE 281900Z 22011G17KT 15SM FEW044 SCT250 13/01 A3011 RMK CU1CI1 SLP219=

CYXE;2005-09-28 20:00;METAR CYXE 282000Z 24011G16KT 15SM FEW059 FEW110 BKN250 14/00 A3008 RMK CU1AC1CI1 SLP207=

CYXE;2005-09-28 21:00;METAR CYXE 282100Z 19014KT 15SM FEW110 BKN250 13/M01 A3002 RMK AC1CI2 SLP188=

CYXE;2005-09-28 22:00;METAR CYXE 282200Z 21010KT 15SM SCT083 OVC250 13/M01 A2999 RMK AS3CI3 SLP177=

CYXE;2005-09-28 23:00;METAR CYXE 282300Z 19008KT 15SM BKN100 OVC250 13/M01 A2994 RMK AS6CI2 SLP162=

CYXE;2005-09-29 00:00;METAR CYXE 290000Z 15006KT 15SM SCT120 OVC250 12/00 A2990 RMK AC4CS3 SLP148=

CYXE;2005-09-29 01:00;METAR CYXE 290100Z 14008KT 15SM FEW090 SCT120 OVC250 11/00 A2985 RMK AC2AC2CI4 SLP130=

CYXE;2005-09-29 02:00;METAR CYXE 290200Z 15009KT 15SM FEW120 BKN250 10/00 A2981 RMK AC2CI3 SLP116=

CYXE;2005-09-29 03:00;METAR CYXE 290300Z 14009KT 15SM FEW120 BKN250 10/00 A2975 RMK AC2CI3 PRESFR SLP094=

CYXE;2005-09-29 04:00;METAR CYXE 290400Z 15008KT 15SM SCT110 OVC250 10/01 A2970 RMK AC3CI4 SLP078=

CYXE;2005-09-29 05:00;METAR CYXE 290500Z 17012KT 15SM SCT110 OVC250 10/02 A2963 RMK AC4CI4 PRESFR SLP056=

CYXE;2005-09-29 06:00;METAR CYXE 290600Z 17009KT 15SM SCT110 BKN250 10/02 A2959 RMK AC3CI3 SLP031=

CYXE;2005-09-29 07:00;METAR CYXE 290700Z 20008KT 15SM FEW100 OVC250 09/02 A2956 RMK AC2CI5 SLP022=

CYXE;2005-09-29 08:00;METAR CYXE 290800Z 21006KT 15SM FEW100 OVC250 08/03 A2954 RMK AC2CI6 SLP017=

CYXE;2005-09-29 09:00;METAR CYXE 290900Z 26008KT 15SM OVC250 08/03 A2953 RMK CI8 SLP011=

CYXE;2005-09-29 10:00;METAR CYXE 291000Z 27008KT 15SM OVC250 06/02 A2954 RMK CI8 SLP016=

CYXE;2005-09-29 11:00;METAR CYXE 291100Z 30009KT 15SM OVC250 08/03 A2955 RMK CI8 SLP019=

CYXE;2005-09-29 12:00;METAR CYXE 291200Z 30011KT 15SM OVC250 09/03 A2956 RMK CI7 SLP023=

CYXE;2005-09-29 13:00;METAR CYXE 291300Z 26005KT 15SM FEW120 BKN200 05/02 A2957 RMK AC2CI5 SLP027=

CYXE;2005-09-29 14:00;METAR CYXE 291400Z 26006KT 15SM BKN120 BKN200 06/03 A2957 RMK AC5CI2 SLP027=

CYXE;2005-09-29 15:00;METAR CYXE 291500Z 27008KT 15SM BKN120 BKN200 09/04 A2959 RMK AC5CI2 SLP034=

CYXE;2005-09-29 16:00;METAR CYXE 291600Z 27009KT 15SM BKN088 OVC210 12/05 A2960 RMK AC4CI3 SLP036=

CYXE;2005-09-29 17:00;METAR CYXE 291700Z 27006KT 15SM FEW088 BKN120 OVC210 13/05 A2960 RMK AC2AC4CI1 SLP036=

CYXE;2005-09-29 18:00;METAR CYXE 291800Z 26009KT 15SM BKN094 BKN210 14/05 A2959 RMK AC4CI2 SLP033=

CYXE;2005-09-29 19:00;METAR CYXE 291900Z 25009KT 15SM FEW120 BKN210 16/06 A2958 RMK AC2CI2 SLP029=

CYXE;2005-09-29 20:00;METAR CYXE 292000Z 26011G16KT 15SM FEW120 BKN240 18/06 A2955 RMK AC1CI2 SLP020=

CYXE;2005-09-29 21:00;METAR CYXE 292100Z 27009G16KT 15SM BKN120 BKN240 17/05 A2955 RMK AC6CI2 SLP018=

CYXE;2005-09-29 22:00;METAR CYXE 292200Z 26007KT 15SM FEW120 BKN240 18/06 A2953 RMK AC2CI2 SLP011=

CYXE;2005-09-29 23:00;METAR CYXE 292300Z 25008KT 15SM SCT120 BKN240 17/05 A2952 RMK AC3CI3 SLP008=

CYXE;2005-09-30 00:00;METAR CYXE 300000Z 26004KT 15SM FEW080 BKN095 BKN240 15/05 A2953 RMK AC2AC2CI2 SLP010=

CYXE;2005-09-30 01:00;METAR CYXE 300100Z 34003KT 15SM SCT095 OVC250 12/05 A2950 RMK AC2CI4 SLP001=

CYXE;2005-09-30 02:00;METAR CYXE 300200Z 05003KT 15SM FEW100 BKN250 12/04 A2949 RMK AC2CI2 SLP997=

CYXE;2005-09-30 03:00;METAR CYXE 300300Z 10003KT 15SM BKN090 OVC250 11/04 A2946 RMK AC5CI2 SLP989=

CYXE;2005-09-30 04:00;METAR CYXE 300400Z 11003KT 15SM BKN080 OVC250 10/05 A2944 RMK AC6CI2 SLP982=

CYXE;2005-09-30 05:00;METAR CYXE 300500Z 08004KT 15SM BKN078 OVC250 11/06 A2942 RMK AC6CI2 SLP976=

CYXE;2005-09-30 06:00;METAR CYXE 300600Z 13007KT 15SM OVC075 11/05 A2939 RMK AC8 SLP962=

CYXE;2005-09-30 08:00;METAR CYXE 300800Z 04010KT 15SM OVC080 10/05 A2937 RMK AC8 SLP956=

CYXE;2005-09-30 09:00;METAR CYXE 300900Z 05010KT 15SM SCT080 09/04 A2936 RMK AC4 SLP949=

CYXE;2005-09-30 10:00;METAR CYXE 301000Z 05011KT 15SM FEW080 09/05 A2937 RMK AC2 SLP952=

CYXE;2005-09-30 11:00;METAR CYXE 301100Z 05008KT 15SM BKN100 09/05 A2937 RMK AC7 SLP955=

CYXE;2005-09-30 12:00;METAR CYXE 301200Z 01007KT 15SM BKN100 07/05 A2940 RMK AC7 SLP968=

CYXE;2005-09-30 13:00;METAR CYXE 301300Z 36014KT 15SM -RA BKN090 09/05 A2944 RMK AC7 SLP979=

CYXE;2005-09-30 13:37;SPECI CYXE 301337Z 01008KT 15SM FEW040 SCT090 08/ RMK SC2AC2=

CYXE;2005-09-30 14:00;METAR CYXE 301400Z 03007KT 15SM SCT057 SCT076 BKN240 07/05 A2945 RMK SC3AC1CI1 SLP983=

CYXE;2005-09-30 15:00;METAR CYXE 301500Z 36007KT 15SM FEW057 BKN072 BKN240 11/07 A2949 RMK SC2AC3CI1 SLP998=

CYXE;2005-09-30 16:00;METAR CYXE 301600Z 33010KT 15SM FEW070 BKN250 10/06 A2951 RMK AC2CI1 SLP006=

CYXE;2005-09-30 17:00;METAR CYXE 301700Z 33006KT 15SM SCT070 BKN250 13/07 A2954 RMK AC2CI1 SLP015=

CYXE;2005-09-30 18:00;METAR CYXE 301800Z 31007KT 15SM FEW030 FEW092 SCT280 14/07 A2956 RMK CU1AC1CI1 SLP020=

CYXE;2005-09-30 19:00;METAR CYXE 301900Z 29011G19KT 15SM FEW040 SCT091 BKN250 15/07 A2959 RMK CU2AC2CI1 SLP028=

CYXE;2005-09-30 20:00;METAR CYXE 302000Z 30012G18KT 15SM FEW046 SCT095 BKN250 15/06 A2959 RMK CU2AC2CI2 SLP029=

CYXE;2005-09-30 21:00;METAR CYXE 302100Z 28015KT 15SM FEW048 BKN093 BKN250 15/05 A2959 RMK CU2AC2CI1 SLP030=

CYXE;2005-09-30 22:00;METAR CYXE 302200Z 30017KT 15SM FEW050 FEW100 SCT250 16/04 A2960 RMK CU1AC1CI2 SLP033=

CYXE;2005-09-30 23:00;METAR CYXE 302300Z 30012G17KT 15SM FEW050 FEW120 BKN250 15/03 A2962 RMK CU1AC1CI2 SLP040=

CYXE;2005-10-01 00:00;METAR CYXE 010000Z 29007KT 15SM FEW060 FEW090 BKN250 13/03 A2963 RMK SC1AC1CI4 SLP048=

CYXE;2005-10-01 01:00;METAR CYXE 010100Z 29006KT 15SM FEW090 OVC250 10/02 A2964 RMK AC1CI4 SLP052=

CYXE;2005-10-01 02:00;METAR CYXE 010200Z 26007KT 15SM FEW090 SCT250 08/02 A2967 RMK AC1CI3 SLP060=

CYXE;2005-10-01 03:00;METAR CYXE 010300Z 28005KT 15SM SCT250 06/02 A2968 RMK CI3 SLP065=

CYXE;2005-10-01 04:00;METAR CYXE 010400Z 25007KT 15SM BKN250 06/02 A2969 RMK CI5 SLP069=

CYXE;2005-10-01 05:00;METAR CYXE 010500Z 24006KT 15SM FEW100 OVC250 06/02 A2969 RMK AC2CI6 SLP068=

CYXE;2005-10-01 06:00;METAR CYXE 010600Z 24002KT 15SM OVC200 05/02 A2968 RMK CI8 SLP066=

CYXE;2005-10-01 07:00;METAR CYXE 010700Z 00000KT 15SM OVC140 05/03 A2969 RMK AC8 SLP069=

CYXE;2005-10-01 08:00;METAR CYXE 010800Z 14003KT 15SM OVC140 06/03 A2970 RMK AC8 SLP071=

CYXE;2005-10-01 09:00;METAR CYXE 010900Z 17002KT 15SM OVC093 07/02 A2971 RMK AC8 SLP072=

CYXE;2005-10-01 10:00;METAR CYXE 011000Z 14003KT 15SM SCT093 OVC200 06/04 A2970 RMK AC4CI4 SLP069=

CYXE;2005-10-01 11:00;METAR CYXE 011100Z 07005KT 15SM OVC072 06/04 A2969 RMK AC8 SLP067=

CYXE;2005-10-01 12:00;METAR CYXE 011200Z 07006KT 15SM OVC084 06/04 A2968 RMK AC8 SLP065=

CYXE;2005-10-01 13:00;METAR CYXE 011300Z 05003KT 15SM SCT081 OVC120 06/04 A2967 RMK AC3AC5 SLP060=

CYXE;2005-10-01 13:46;SPECI CYXE 011346Z 11003KT 15SM -RA OVC047 08/ RMK SC8=

CYXE;2005-10-01 14:00;METAR CYXE 011400Z 12005KT 15SM -RA FEW028 OVC047 08/04 A2967 RMK SF2SC6 SLP062=

CYXE;2005-10-01 15:00;METAR CYXE 011500Z 10005KT 10SM -RA OVC030 08/04 A2966 RMK SC8 SLP060=

CYXE;2005-10-01 16:00;METAR CYXE 011600Z 09005KT 10SM -RA OVC030 09/06 A2965 RMK SC8 SLP059=

CYXE;2005-10-01 17:00;METAR CYXE 011700Z 11009KT 10SM -RA OVC022 09/07 A2964 RMK SC8 SLP055=

CYXE;2005-10-01 18:00;METAR CYXE 011800Z 10012G17KT 10SM -RA BKN018 OVC048 09/08 A2960 RMK SC7SC1 SLP042=

CYXE;2005-10-01 18:52;SPECI CYXE 011852Z 10013G18KT 6SM -RA FEW009 OVC025 09/ RMK SF2SC6=

CYXE;2005-10-01 19:00;METAR CYXE 011900Z 10013KT 6SM -RA BKN008 OVC025 09/08 A2958 RMK SF5SC3 SLP034=

CYXE;2005-10-01 19:33;SPECI CYXE 011933Z 10020G25KT 15SM FEW008 BKN029 OVC050 09/ RMK SF2SC4SC2=

CYXE;2005-10-01 20:00;METAR CYXE 012000Z 10021KT 15SM SCT014 OVC036 08/07 A2954 RMK SC3SC5 SLP020=

CYXE;2005-10-01 20:30;SPECI CYXE 012030Z 09013G19KT 15SM -RA FEW014 OVC038 08/ RMK SF2SC6=

CYXE;2005-10-01 21:00;METAR CYXE 012100Z 11009KT 15SM -RA BKN016 OVC040 08/07 A2954 RMK SC6SC2 SLP020=

CYXE;2005-10-01 21:21;SPECI CYXE 012121Z 10012KT 15SM OVC016 08/ RMK SC8=

CYXE;2005-10-01 22:00;METAR CYXE 012200Z 10012KT 15SM BKN016 OVC035 09/07 A2954 RMK SC7SC1 SLP019=

CYXE;2005-10-01 22:36;SPECI CYXE 012236Z 09013KT 15SM OVC012 10/ RMK SC8=

CYXE;2005-10-01 23:00;METAR CYXE 012300Z 09013KT 15SM OVC012 10/08 A2952 RMK SC8 SLP014=

CYXE;2005-10-02 00:00;METAR CYXE 020000Z 09011KT 15SM BKN012 OVC035 09/07 A2952 RMK SC6SC2 SLP011=

CYXE;2005-10-02 01:00;METAR CYXE 020100Z 10013G18KT 15SM FEW015 SCT080 OVC250 09/07 A2950 RMK SC1AC2CI3 SLP005=

CYXE;2005-10-02 02:00;METAR CYXE 020200Z 10009KT 15SM SCT045 SCT090 OVC250 09/07 A2951 RMK SC3AC1CI2 SLP009=

CYXE;2005-10-02 03:00;METAR CYXE 020300Z 11011KT 15SM SCT035 OVC065 09/07 A2950 RMK SC3SC5 SLP006=

CYXE;2005-10-02 04:00;METAR CYXE 020400Z 13011KT 15SM FEW025 BKN035 OVC090 09/07 A2950 RMK SC1SC5AC2 SLP006=

CYXE;2005-10-02 04:42;SPECI CYXE 020442Z 20006KT 15SM BKN014 OVC090 09/ RMK SC6AC2=

CYXE;2005-10-02 05:00;METAR CYXE 020500Z 16008KT 15SM BKN014 OVC120 09/07 A2951 RMK SC5AC3 SLP008=

CYXE;2005-10-02 05:25;SPECI CYXE 020525Z 20007KT 15SM OVC009 09/ RMK ST8=

CYXE;2005-10-02 06:00;METAR CYXE 020600Z 25012KT 15SM FEW008 OVC120 07/05 A2954 RMK SF2AC6 SLP018=

CYXE;2005-10-02 06:48;SPECI CYXE 020648Z 23008KT 15SM BKN013 OVC020 06/ RMK SC6SC2=

CYXE;2005-10-02 07:00;METAR CYXE 020700Z 24011KT 15SM OVC013 06/05 A2956 RMK SC8 SLP024=

CYXE;2005-10-02 08:00;METAR CYXE 020800Z 25009KT 15SM BKN013 OVC110 06/03 A2956 RMK SC5AC3 SLP026=

CYXE;2005-10-02 09:00;METAR CYXE 020900Z 27013KT 15SM BKN017 OVC110 05/02 A2957 RMK SC6AC2 SLP030=

CYXE;2005-10-02 10:00;METAR CYXE 021000Z 27011KT 15SM OVC015 04/02 A2958 RMK SC8 SLP032=

CYXE;2005-10-02 11:00;METAR CYXE 021100Z 26009KT 15SM OVC017 04/02 A2959 RMK SC8 SLP038=

CYXE;2005-10-02 12:00;METAR CYXE 021200Z 26010KT 15SM OVC015 04/01 A2961 RMK SC8 SLP043=

CYXE;2005-10-02 13:00;METAR CYXE 021300Z 28012G17KT 15SM OVC015 04/01 A2962 RMK SC8 SLP046=

CYXE;2005-10-02 14:00;METAR CYXE 021400Z 25008KT 15SM OVC017 04/01 A2965 RMK SC8 SLP057=

CYXE;2005-10-02 15:00;METAR CYXE 021500Z 26013KT 15SM BKN019 OVC053 04/00 A2965 RMK SC6SC2 SLP058=

CYXE;2005-10-02 16:00;METAR CYXE 021600Z 27013G18KT 15SM OVC021 04/M00 A2965 RMK SC8 SLP059=

CYXE;2005-10-02 17:00;METAR CYXE 021700Z 27015G20KT 15SM OVC025 05/00 A2966 RMK SC8 SLP062=

CYXE;2005-10-02 18:00;METAR CYXE 021800Z 28015KT 15SM OVC023 05/00 A2968 RMK SC8 SLP070=

CYXE;2005-10-02 19:00;METAR CYXE 021900Z 27018KT 15SM BKN027 07/00 A2969 RMK SC7 SLP073=

CYXE;2005-10-02 20:00;METAR CYXE 022000Z 27016G25KT 15SM BKN029 06/00 A2971 RMK SC7 SLP077=

CYXE;2005-10-02 21:00;METAR CYXE 022100Z 28018G24KT 15SM BKN029 06/M00 A2973 RMK SC7 SLP086=

CYXE;2005-10-02 22:00;METAR CYXE 022200Z 28017G22KT 15SM BKN031 06/M01 A2976 RMK SC7 SLP095=

CYXE;2005-10-02 23:00;METAR CYXE 022300Z 29017G22KT 15SM OVC031 06/M01 A2979 RMK SC8 SLP105=

CYXE;2005-10-03 00:00;METAR CYXE 030000Z 30012G17KT 15SM OVC033 05/M01 A2982 RMK SC8 SLP120=

CYXE;2005-10-03 01:00;METAR CYXE 030100Z 30011G19KT 15SM OVC033 05/M01 A2985 RMK SC8 SLP128=

CYXE;2005-10-03 02:00;METAR CYXE 030200Z 30012G17KT 15SM OVC033 04/M01 A2987 RMK SC8 SLP136=

CYXE;2005-10-03 03:00;METAR CYXE 030300Z 30010G15KT 15SM OVC033 04/M02 A2990 RMK SC8 SLP145=

CYXE;2005-10-03 04:00;METAR CYXE 030400Z 30013KT 15SM OVC033 04/M02 A2991 RMK SC7 SLP151=

CYXE;2005-10-03 05:00;METAR CYXE 030500Z 30012KT 15SM BKN033 04/M02 A2994 RMK SC7 SLP158=

CYXE;2005-10-03 05:42;SPECI CYXE 030542Z 30011G18KT 15SM FEW033 02/ RMK SC2=

CYXE;2005-10-03 06:00;METAR CYXE 030600Z 30007KT 15SM FEW031 01/M03 A2995 RMK SC2 SLP166=

CYXE;2005-10-03 07:00;METAR CYXE 030700Z 28008KT 15SM SKC M01/M03 A2998 RMK SLP173=

CYXE;2005-10-03 08:00;METAR CYXE 030800Z 30009KT 15SM SKC M01/M04 A2998 RMK SLP174=

CYXE;2005-10-03 09:00;METAR CYXE 030900Z 23007KT 15SM SKC M02/M05 A3002 RMK SLP189=

CYXE;2005-10-03 10:00;METAR CYXE 031000Z 26008KT 15SM FEW034 M03/M05 A3006 RMK SC1 SLP202=

CYXE;2005-10-03 11:00;METAR CYXE 031100Z 28008KT 15SM SKC M03/M05 A3006 RMK SLP203=

CYXE;2005-10-03 12:00;METAR CYXE 031200Z 31007KT 15SM FEW250 M02/M04 A3008 RMK CI1 SLP210=

CYXE;2005-10-03 13:00;METAR CYXE 031300Z 31005KT 15SM FEW030 BKN250 M03/M05 A3011 RMK SC2CI2 SLP221=

CYXE;2005-10-03 14:00;METAR CYXE 031400Z 34005KT 15SM BKN023 M02/M04 A3012 RMK SC6 SLP224=

CYXE;2005-10-03 15:00;METAR CYXE 031500Z 02012KT 15SM FEW023 BKN250 M01/M04 A3017 RMK CF2CI1 SLP241=

CYXE;2005-10-03 16:00;METAR CYXE 031600Z 02010KT 15SM SCT023 BKN250 00/M05 A3020 RMK SC4CI0 SLP253=

CYXE;2005-10-03 17:00;METAR CYXE 031700Z 36009KT 15SM FEW024 BKN250 01/M05 A3021 RMK SC2CI1 SLP256=

CYXE;2005-10-03 18:00;METAR CYXE 031800Z 03005KT 15SM FEW025 BKN250 02/M05 A3021 RMK SF2CI2 SLP257=

CYXE;2005-10-03 19:00;METAR CYXE 031900Z 03007KT 15SM FEW025 SCT086 BKN250 03/M06 A3023 RMK SF1AS2CI1 SLP262=

CYXE;2005-10-03 20:00;METAR CYXE 032000Z 04008KT 15SM FEW086 BKN250 04/M05 A3022 RMK AS2CI1 SLP261=

CYXE;2005-10-03 21:00;METAR CYXE 032100Z 05007KT 15SM SCT090 BKN250 05/M05 A3023 RMK AS3CI1 SLP265=

CYXE;2005-10-03 22:00;METAR CYXE 032200Z 07006KT 15SM BKN250 05/M05 A3024 RMK CI5 SLP268=

CYXE;2005-10-03 23:00;METAR CYXE 032300Z 03009KT 15SM BKN250 06/M04 A3026 RMK CI2 SLP272=

CYXE;2005-10-04 00:00;METAR CYXE 040000Z 05005KT 15SM BKN250 03/M04 A3028 RMK CI2 SLP281=

CYXE;2005-10-04 00:26;SPECI CYXE 040026Z 04006KT 15SM BKN250 02/ RMK CI1=

CYXE;2005-10-04 01:00;METAR CYXE 040100Z 05004KT 15SM BKN250 01/M04 A3030 RMK CI1 SLP288=

CYXE;2005-10-04 02:00;METAR CYXE 040200Z 07005KT 15SM SCT250 00/M04 A3032 RMK CI1 SLP294=

CYXE;2005-10-04 03:00;METAR CYXE 040300Z 06006KT 15SM FEW250 M02/M05 A3034 RMK CI0 SLP303=

CYXE;2005-10-04 04:00;METAR CYXE 040400Z 05005KT 15SM SKC M04/M06 A3036 RMK SLP310=

CYXE;2005-10-04 05:00;METAR CYXE 040500Z 05007KT 15SM SKC M04/M06 A3037 RMK SLP314=

CYXE;2005-10-04 06:00;METAR CYXE 040600Z 06006KT 15SM SKC M04/M06 A3038 RMK SLP319=

CYXE;2005-10-04 07:00;METAR CYXE 040700Z 05005KT 15SM SKC M05/M07 A3039 RMK SLP320=

CYXE;2005-10-04 08:00;METAR CYXE 040800Z 05005KT 15SM SKC M05/M07 A3039 RMK SLP322=

CYXE;2005-10-04 09:00;METAR CYXE 040900Z 06004KT 15SM SKC M06/M07 A3040 RMK SLP324=

CYXE;2005-10-04 10:00;METAR CYXE 041000Z 05005KT 15SM SKC M06/M07 A3041 RMK SLP327=

CYXE;2005-10-04 11:00;METAR CYXE 041100Z 05006KT 15SM SKC M06/M08 A3043 RMK SLP334=

CYXE;2005-10-04 12:00;METAR CYXE 041200Z 08005KT 15SM SKC M06/M08 A3046 RMK SLP346=

CYXE;2005-10-04 13:00;METAR CYXE 041300Z 05005KT 15SM FEW250 M07/M09 A3046 RMK CI1 SLP346=

CYXE;2005-10-04 14:00;METAR CYXE 041400Z 04005KT 15SM SCT250 M06/M07 A3047 RMK CI1 SLP349=

CYXE;2005-10-04 15:00;METAR CYXE 041500Z 05004KT 15SM SCT250 M02/M04 A3048 RMK CI1 SLP354=

CYXE;2005-10-04 16:00;METAR CYXE 041600Z 11006KT 15SM BKN250 02/M01 A3048 RMK CI2 SLP355=

CYXE;2005-10-04 17:00;METAR CYXE 041700Z 07005KT 15SM FEW020 BKN250 04/M01 A3048 RMK CU2CI1 SLP352=

CYXE;2005-10-04 18:00;METAR CYXE 041800Z 11007KT 15SM BKN025 BKN250 04/M02 A3048 RMK SC6CI0 CU ASOCTD SLP352=

CYXE;2005-10-04 19:00;METAR CYXE 041900Z 09007KT 15SM BKN025 BKN120 BKN250 06/M02 A3048 RMK SC5AC1CI0 CU ASOCTD SLP350=

CYXE;2005-10-04 20:00;METAR CYXE 042000Z 06007KT 15SM FEW030 FEW100 BKN250 06/M03 A3047 RMK SC1AC1CI2 SLP346=

CYXE;2005-10-04 21:00;METAR CYXE 042100Z 05008KT 15SM FEW030 FEW100 BKN250 07/M02 A3044 RMK SC1AC1CI2 SLP336=

CYXE;2005-10-04 22:00;METAR CYXE 042200Z 06008KT 15SM FEW040 BKN250 07/M03 A3045 RMK CU1CI2 SLP340=

CYXE;2005-10-04 23:00;METAR CYXE 042300Z 06010KT 15SM FEW040 FEW250 07/M03 A3044 RMK SC1CI1 SLP337=

CYXE;2005-10-05 00:00;METAR CYXE 050000Z 07008KT 15SM SCT250 05/M03 A3046 RMK CI1 SLP344=

CYXE;2005-10-05 01:00;METAR CYXE 050100Z 04007KT 15SM BKN250 00/M04 A3045 RMK CI1 SLP342=

CYXE;2005-10-05 02:00;METAR CYXE 050200Z 06006KT 15SM BKN250 M00/M04 A3047 RMK CI2 SLP347=

CYXE;2005-10-05 03:00;METAR CYXE 050300Z 05008KT 15SM BKN250 M02/M05 A3048 RMK CI3 SLP352=

CYXE;2005-10-05 04:00;METAR CYXE 050400Z 06006KT 15SM BKN250 M02/M05 A3050 RMK CI4 SLP359=

CYXE;2005-10-05 05:00;METAR CYXE 050500Z 06005KT 15SM BKN250 M03/M05 A3049 RMK CI5 SLP358=

CYXE;2005-10-05 06:00;METAR CYXE 050600Z 05005KT 15SM BKN250 M04/M06 A3050 RMK CI6 SLP359=

CYXE;2005-10-05 07:00;METAR CYXE 050700Z 04008KT 15SM FEW250 M05/M07 A3050 RMK CI1 SLP357=

CYXE;2005-10-05 08:00;METAR CYXE 050800Z 05007KT 15SM SKC M05/M06 A3049 RMK SLP355=

CYXE;2005-10-05 09:00;METAR CYXE 050900Z 07005KT 15SM SKC M04/M06 A3051 RMK SLP359=

CYXE;2005-10-05 10:00;METAR CYXE 051000Z 05005KT 15SM SKC M05/M06 A3051 RMK SLP359=

CYXE;2005-10-05 11:00;METAR CYXE 051100Z 03005KT 15SM SKC M06/M08 A3051 RMK SLP360=

CYXE;2005-10-05 12:00;METAR CYXE 051200Z 03005KT 15SM SKC M07/M08 A3051 RMK SLP361=

CYXE;2005-10-05 13:00;METAR CYXE 051300Z 03004KT 15SM FEW025 M06/M07 A3050 RMK SC1 SLP360=

CYXE;2005-10-05 14:00;METAR CYXE 051400Z 05004KT 15SM FEW250 M07/M08 A3052 RMK CI1 SLP364=

CYXE;2005-10-05 15:00;METAR CYXE 051500Z 07006KT 15SM SCT250 M02/M04 A3052 RMK CI1 SLP366=

CYXE;2005-10-05 16:00;METAR CYXE 051600Z 06006KT 15SM FEW250 01/M01 A3052 RMK CI1 SLP366=

CYXE;2005-10-05 17:00;METAR CYXE 051700Z 08007KT 15SM FEW020 FEW250 04/M01 A3052 RMK CF1CI1 SLP368=

CYXE;2005-10-05 18:00;METAR CYXE 051800Z 07006KT 15SM FEW250 05/M01 A3051 RMK CI1 SLP361=

CYXE;2005-10-05 19:00;METAR CYXE 051900Z 12006KT 15SM FEW250 07/M03 A3050 RMK CI1 SLP358=

CYXE;2005-10-05 20:00;METAR CYXE 052000Z 14004KT 15SM FEW250 07/M03 A3049 RMK CI1 SLP354=

CYXE;2005-10-05 21:00;METAR CYXE 052100Z 10006KT 15SM FEW250 08/M03 A3048 RMK CI1 SLP349=

CYXE;2005-10-05 22:00;METAR CYXE 052200Z 12006KT 15SM SKC 08/M03 A3047 RMK SLP346=

CYXE;2005-10-05 23:00;METAR CYXE 052300Z 11005KT 15SM SKC 08/M03 A3046 RMK SLP343=

CYXE;2005-10-06 00:00;METAR CYXE 060000Z 13005KT 15SM SKC 06/M03 A3045 RMK SLP342=

CYXE;2005-10-06 01:00;METAR CYXE 060100Z 13007KT 15SM SKC 03/M03 A3043 RMK SLP335=

CYXE;2005-10-06 02:00;METAR CYXE 060200Z 13006KT 15SM SKC 02/M03 A3042 RMK SLP332=

CYXE;2005-10-06 03:00;METAR CYXE 060300Z 13007KT 15SM SKC 01/M04 A3041 RMK SLP329=

CYXE;2005-10-06 04:00;METAR CYXE 060400Z 13008KT 15SM SKC 01/M03 A3040 RMK SLP326=

CYXE;2005-10-06 05:00;METAR CYXE 060500Z 15010KT 15SM SCT250 01/M03 A3039 RMK CI2 SLP323=

CYXE;2005-10-06 06:00;METAR CYXE 060600Z 15008KT 15SM BKN250 00/M03 A3039 RMK CI2 SLP316=

CYXE;2005-10-06 07:00;METAR CYXE 060700Z 15011KT 15SM FEW250 01/M03 A3037 RMK CI2 SLP310=

CYXE;2005-10-06 08:00;METAR CYXE 060800Z 14010KT 15SM SKC 00/M03 A3036 RMK SLP307=

CYXE;2005-10-06 09:00;METAR CYXE 060900Z 14010KT 15SM SKC 00/M04 A3035 RMK SLP301=

CYXE;2005-10-06 10:00;METAR CYXE 061000Z 14012KT 15SM FEW250 M00/M04 A3032 RMK CI0 SLP293=

CYXE;2005-10-06 11:00;METAR CYXE 061100Z 14011KT 15SM SCT250 M01/M04 A3030 RMK CI1 SLP284=

CYXE;2005-10-06 12:00;METAR CYXE 061200Z 14010G15KT 15SM FEW250 M01/M04 A3028 RMK CI1 SLP278=

CYXE;2005-10-06 13:00;METAR CYXE 061300Z 14009KT 15SM BKN250 M02/M04 A3026 RMK CI2 SLP271=

CYXE;2005-10-06 14:00;METAR CYXE 061400Z 13011KT 15SM BKN120 BKN250 M01/M04 A3023 RMK AC6CI1 SLP264=

CYXE;2005-10-06 15:00;METAR CYXE 061500Z 14012G17KT 15SM BKN120 BKN250 M00/M04 A3022 RMK AC6CI1 SLP262=

CYXE;2005-10-06 16:00;METAR CYXE 061600Z 15016KT 15SM FEW120 02/M04 A3020 RMK AC2 SLP256=

CYXE;2005-10-06 17:00;METAR CYXE 061700Z 14012KT 15SM FEW140 06/M03 A3017 RMK AC1 SLP246=

CYXE;2005-10-06 18:00;METAR CYXE 061800Z 15014G24KT 15SM FEW140 09/M02 A3013 RMK AC1 SLP225=

CYXE;2005-10-06 19:00;METAR CYXE 061900Z 16017G24KT 15SM FEW140 FEW250 10/M02 A3010 RMK AC1CI1 SLP214=

CYXE;2005-10-06 20:00;METAR CYXE 062000Z 15020G26KT 15SM FEW250 11/M02 A3006 RMK CI1 SLP203=

CYXE;2005-10-06 21:00;METAR CYXE 062100Z 16013G26KT 15SM BKN250 12/M01 A3003 RMK CI2 SLP187=

CYXE;2005-10-06 22:00;METAR CYXE 062200Z 14016G24KT 15SM BKN250 11/M01 A2999 RMK CI4 SLP177=

CYXE;2005-10-06 23:00;METAR CYXE 062300Z 15011G18KT 15SM BKN250 11/M01 A2997 RMK CS6 SLP168=

CYXE;2005-10-07 00:00;METAR CYXE 070000Z 16015KT 15SM BKN220 11/M02 A2993 RMK CS7 SLP155=

CYXE;2005-10-07 01:00;METAR CYXE 070100Z 15013KT 15SM BKN220 11/M02 A2990 RMK CI6 SLP148=

CYXE;2005-10-07 02:00;METAR CYXE 070200Z 15011KT 15SM BKN220 10/M02 A2988 RMK CI7 SLP140=

CYXE;2005-10-07 03:00;METAR CYXE 070300Z 16013KT 15SM SCT120 BKN220 10/M03 A2986 RMK AC3CI4 SLP133=

CYXE;2005-10-07 04:00;METAR CYXE 070400Z 16017KT 15SM SCT120 BKN220 09/M03 A2984 RMK AC4CI3 SLP125=

CYXE;2005-10-07 05:00;METAR CYXE 070500Z 16015KT 15SM FEW120 BKN220 08/M03 A2981 RMK AC2CI2 SLP118=

CYXE;2005-10-07 06:00;METAR CYXE NIL=

CYXE;2005-10-07 07:00;METAR CYXE 070700Z 16015G20KT 15SM BKN088 OVC220 08/M02 A2977 RMK AC6CI2 SLP097=

CYXE;2005-10-07 08:00;METAR CYXE 070800Z 17015G24KT 15SM BKN100 OVC220 07/M01 A2975 RMK AC6CI2 SLP090=

CYXE;2005-10-07 09:00;METAR CYXE 070900Z 16012G19KT 15SM OVC098 06/M01 A2972 RMK AC8 SLP077=

CYXE;2005-10-07 10:00;METAR CYXE 071000Z 16009G15KT 15SM -SHRA BKN050 OVC090 06/M00 A2969 RMK SC6AC2 SLP069=

CYXE;2005-10-07 11:00;METAR CYXE 071100Z 15010G18KT 15SM -SHRA OVC050 05/01 A2966 RMK SC8 SLP060=

CYXE;2005-10-07 12:00;METAR CYXE 071200Z 16011G16KT 15SM -SHRA BKN065 OVC095 06/01 A2963 RMK SC6AC2 SLP050=

CYXE;2005-10-07 12:10;SPECI CYXE 071210Z 16009G16KT 15SM BKN065 OVC095 06/ RMK SC5AC3=

CYXE;2005-10-07 13:00;METAR CYXE 071300Z 16012G19KT 15SM FEW065 OVC100 05/00 A2961 RMK SC2AC6 SLP042=

CYXE;2005-10-07 14:00;METAR CYXE 071400Z 18014G19KT 15SM FEW083 OVC100 05/01 A2959 RMK AC2AC6 SLP037=

CYXE;2005-10-07 14:42;SPECI CYXE 071442Z 17014G19KT 15SM -SHRA BKN075 OVC100 05/ RMK ACC6AC2=

CYXE;2005-10-07 15:00;METAR CYXE 071500Z 17014KT 15SM -SHRA OVC075 05/02 A2958 RMK ACC8 SLP033=

CYXE;2005-10-07 16:00;METAR CYXE 071600Z 17013KT 15SM -SHRA FEW055 OVC090 06/02 A2956 RMK SC2ACC6 SLP027=

CYXE;2005-10-07 16:28;SPECI CYXE 071628Z 17014KT 15SM VCSH FEW060 OVC080 07/ RMK SC1AC7=

CYXE;2005-10-07 17:00;METAR CYXE 071700Z 17010G16KT 15SM FEW060 OVC080 08/03 A2955 RMK SC1AC6 SLP022=

CYXE;2005-10-07 18:00;METAR CYXE 071800Z 17009G16KT 15SM BKN080 09/03 A2953 RMK AC6 SLP013=

CYXE;2005-10-07 19:00;METAR CYXE 071900Z 18012KT 15SM BKN100 11/04 A2951 RMK AC6 SLP009=

CYXE;2005-10-07 20:00;METAR CYXE 072000Z 18007KT 15SM FEW040 BKN090 16/06 A2948 RMK SC1AC5 SLP999=

CYXE;2005-10-07 21:00;METAR CYXE 072100Z 24006KT 15SM VCSH FEW050 BKN060 15/05 A2947 RMK SC1SC6 SLP991=

CYXE;2005-10-07 22:00;METAR CYXE 072200Z 25011KT 15SM BKN090 15/05 A2947 RMK AC7 SLP992=

CYXE;2005-10-07 23:00;METAR CYXE 072300Z 26010KT 15SM BKN090 16/05 A2948 RMK AC7 SLP995=

CYXE;2005-10-08 00:00;METAR CYXE 080000Z 30010KT 15SM BKN100 13/06 A2951 RMK AC7 SLP006=

CYXE;2005-10-08 01:00;METAR CYXE 080100Z 30006KT 15SM BKN090 10/05 A2953 RMK AC7 SLP013=

CYXE;2005-10-08 02:00;METAR CYXE 080200Z 29005KT 15SM SCT090 10/05 A2955 RMK AC4 SLP018=

CYXE;2005-10-08 03:00;METAR CYXE 080300Z 30007KT 15SM FEW090 05/03 A2956 RMK AC2 SLP028=

CYXE;2005-10-08 04:00;METAR CYXE 080400Z 28006KT 15SM FEW090 04/03 A2958 RMK AC1 SLP034=

CYXE;2005-10-08 05:00;METAR CYXE 080500Z 27005KT 15SM FEW090 04/03 A2958 RMK AC1 SLP035=

CYXE;2005-10-08 06:00;METAR CYXE 080600Z 23006KT 15SM FEW090 01/01 A2960 RMK AC1 SLP042=

CYXE;2005-10-08 07:00;METAR CYXE 080700Z 22007KT 15SM FEW090 02/01 A2962 RMK AC1 SLP048=

CYXE;2005-10-08 08:00;METAR CYXE 080800Z 24007KT 15SM FEW110 01/00 A2963 RMK AC1 SLP051=

CYXE;2005-10-08 09:00;METAR CYXE 080900Z 25008KT 15SM BKN050 01/01 A2964 RMK SC5 SLP051=

CYXE;2005-10-08 10:00;METAR CYXE 081000Z 24007KT 15SM FEW015 SCT045 OVC100 01/00 A2965 RMK SC2SC2AC3 SLP055=

CYXE;2005-10-08 10:18;SPECI CYXE 081018Z 24007KT 15SM BKN015 OVC050 02/ RMK SC6SC2=

CYXE;2005-10-08 11:00;METAR CYXE 081100Z 25006KT 15SM BKN017 OVC050 05/04 A2967 RMK SC6SC2 SLP060=

CYXE;2005-10-08 12:00;METAR CYXE 081200Z 26009KT 15SM SCT020 BKN100 04/03 A2969 RMK SC4AC2 SLP071=

CYXE;2005-10-08 12:44;SPECI CYXE 081244Z 24007KT 15SM BKN025 BKN100 01/ RMK SC5AC1=

CYXE;2005-10-08 15:00;METAR CYXE 081500Z 26008KT 15SM FEW250 05/03 A2975 RMK CI0 SLP093=

CYXE;2005-10-08 16:00;METAR CYXE 081600Z 25007KT 15SM SCT250 07/04 A2976 RMK CI1 SLP098=

CYXE;2005-10-08 17:00;METAR CYXE 081700Z 29010KT 15SM SCT250 10/04 A2977 RMK CI1 SLP101=

CYXE;2005-10-08 18:00;METAR CYXE 081800Z 29009KT 15SM SCT250 12/03 A2977 RMK CI1 SLP100=

CYXE;2005-10-08 19:00;METAR CYXE 081900Z 28008KT 15SM SCT250 14/02 A2977 RMK CI1 SLP100=

CYXE;2005-10-08 20:00;METAR CYXE 082000Z 32010KT 15SM FEW050 FEW250 15/01 A2977 RMK CF1CI0 SLP099=

CYXE;2005-10-08 21:00;METAR CYXE 082100Z 31008KT 15SM FEW070 FEW250 16/01 A2977 RMK CU1CI1 SLP097=

CYXE;2005-10-08 22:00;METAR CYXE 082200Z 28011KT 15SM FEW076 SCT280 16/M01 A2977 RMK CU2CI1 SLP097=

CYXE;2005-10-08 23:00;METAR CYXE 082300Z 28005KT 15SM FEW085 BKN300 14/M00 A2977 RMK CU1CI2 SLP098=

CYXE;2005-10-09 00:00;METAR CYXE 090000Z 26004KT 15SM FEW090 BKN300 13/M00 A2979 RMK CU1CI3 SLP104=

CYXE;2005-10-09 01:00;METAR CYXE 090100Z 24005KT 15SM BKN300 09/00 A2981 RMK CI3 SLP112=

CYXE;2005-10-09 02:00;METAR CYXE 090200Z 22005KT 15SM SCT300 08/M00 A2983 RMK CI2 SLP118=

CYXE;2005-10-09 03:00;METAR CYXE 090300Z 23005KT 15SM SCT300 07/M01 A2985 RMK CI1 SLP128=

CYXE;2005-10-09 04:00;METAR CYXE 090400Z 23005KT 15SM FEW300 05/M01 A2986 RMK CI1 SLP129=

CYXE;2005-10-09 05:00;METAR CYXE 090500Z 21004KT 15SM FEW300 04/M01 A2987 RMK CI0 SLP134=

CYXE;2005-10-09 06:00;METAR CYXE 090600Z 16002KT 15SM FEW300 02/M02 A2988 RMK CI0 SLP137=

CYXE;2005-10-09 07:00;METAR CYXE 090700Z 21004KT 15SM FEW300 03/M01 A2989 RMK CI1 SLP139=

CYXE;2005-10-09 08:00;METAR CYXE 090800Z 16003KT 15SM FEW250 02/M01 A2990 RMK CI1 SLP143=

CYXE;2005-10-09 09:00;METAR CYXE 090900Z 19005KT 15SM BKN250 03/M00 A2991 RMK CI2 SLP145=

CYXE;2005-10-09 10:00;METAR CYXE 091000Z 19005KT 15SM BKN250 02/M00 A2994 RMK CI3 SLP152=

CYXE;2005-10-09 11:00;METAR CYXE 091100Z 27003KT 15SM BKN250 M00/M02 A2995 RMK CI4 SLP157=

CYXE;2005-10-09 12:00;METAR CYXE 091200Z 20003KT 15SM BKN250 01/M01 A2997 RMK CI2 SLP166=

CYXE;2005-10-09 13:00;METAR CYXE 091300Z 22004KT 15SM FEW100 OVC250 01/M01 A2998 RMK AC1CI4 SLP169=

CYXE;2005-10-09 14:00;METAR CYXE 091400Z 24004KT 15SM FEW100 BKN250 M00/M02 A2999 RMK AC1CI4 SLP173=

CYXE;2005-10-09 15:00;METAR CYXE 091500Z 25003KT 15SM FEW100 BKN250 02/M00 A3003 RMK AC1CI4 SLP190=

CYXE;2005-10-09 16:00;METAR CYXE 091600Z 33003KT 15SM FEW100 BKN250 05/02 A3006 RMK AC1CI5 SLP200=

CYXE;2005-10-09 17:00;METAR CYXE 091700Z 31004KT 15SM FEW090 BKN300 10/03 A3007 RMK AC1CI4 SLP204=

CYXE;2005-10-09 18:00;METAR CYXE 091800Z 29003KT 15SM BKN300 14/03 A3008 RMK CI2 SLP202=

CYXE;2005-10-09 19:00;METAR CYXE 091900Z 03002KT 15SM FEW060 SCT300 14/02 A3008 RMK CU1CI1 SLP205=

CYXE;2005-10-09 20:00;METAR CYXE 092000Z 30005KT 15SM FEW060 SCT300 15/02 A3009 RMK CU1CI1 SLP208=

CYXE;2005-10-09 21:00;METAR CYXE 092100Z 28003KT 15SM FEW060 FEW300 16/01 A3010 RMK CU1CI1 SLP208=

CYXE;2005-10-09 22:00;METAR CYXE 092200Z 25003KT 15SM FEW060 16/00 A3011 RMK CU2 SLP212=

CYXE;2005-10-09 23:00;METAR CYXE 092300Z 01004KT 15SM FEW072 15/01 A3012 RMK CU2 SLP216=

CYXE;2005-10-10 00:00;METAR CYXE 100000Z 08002KT 15SM FEW072 14/01 A3013 RMK CU1 SLP222=

CYXE;2005-10-10 01:00;METAR CYXE 100100Z 16003KT 15SM FEW070 10/00 A3016 RMK CU1 SLP232=

CYXE;2005-10-10 02:00;METAR CYXE 100200Z 18005KT 15SM SKC 09/00 A3017 RMK SLP235=

CYXE;2005-10-10 03:00;METAR CYXE 100300Z 19005KT 15SM SKC 08/M00 A3019 RMK SLP244=

CYXE;2005-10-10 04:00;METAR CYXE 100400Z 17007KT 15SM SKC 06/M00 A3019 RMK SLP244=

CYXE;2005-10-10 05:00;METAR CYXE 100500Z 18005KT 15SM SKC 06/M01 A3020 RMK SLP247=

CYXE;2005-10-10 06:00;METAR CYXE 100600Z 19006KT 15SM SKC 05/M01 A3021 RMK SLP245=

CYXE;2005-10-10 06:33;SPECI CYXE 100633Z 22003KT 15SM SKC 02/=

CYXE;2005-10-10 07:00;METAR CYXE 100700Z 17005KT 15SM SKC 03/M01 A3021 RMK SLP248=

CYXE;2005-10-10 08:00;METAR CYXE 100800Z 18004KT 15SM SKC 03/M01 A3021 RMK SLP247=

CYXE;2005-10-10 09:00;METAR CYXE 100900Z 18005KT 15SM SKC 03/M01 A3021 RMK SLP246=

CYXE;2005-10-10 10:00;METAR CYXE 101000Z 21004KT 15SM SKC 02/M01 A3021 RMK SLP248=

CYXE;2005-10-10 11:00;METAR CYXE 101100Z 16005KT 15SM SKC 01/M02 A3021 RMK SLP247=

CYXE;2005-10-10 12:00;METAR CYXE 101200Z 19003KT 15SM SKC 01/M02 A3021 RMK SLP250=

CYXE;2005-10-10 13:00;METAR CYXE 101300Z 17007KT 15SM SKC 01/M02 A3020 RMK SLP246=

CYXE;2005-10-10 14:00;METAR CYXE 101400Z 17009KT 15SM FEW250 03/M01 A3020 RMK CI1 SLP245=

CYXE;2005-10-10 15:00;METAR CYXE 101500Z 18010KT 15SM FEW250 06/M01 A3020 RMK CI1 SLP245=

CYXE;2005-10-10 16:00;METAR CYXE 101600Z 18012KT 15SM FEW250 10/00 A3019 RMK CI2 SLP242=

CYXE;2005-10-10 17:00;METAR CYXE 101700Z 18014G21KT 15SM BKN250 13/M00 A3017 RMK CI3 SLP237=

CYXE;2005-10-10 18:00;METAR CYXE 101800Z 18016G25KT 15SM BKN250 15/00 A3015 RMK CI2 SLP226=

CYXE;2005-10-10 19:00;METAR CYXE 101900Z 18018G27KT 15SM FEW250 16/M01 A3013 RMK CI2 SLP219=

CYXE;2005-10-10 20:00;METAR CYXE 102000Z 19013G26KT 15SM FEW250 16/M01 A3011 RMK CI1 SLP212=

CYXE;2005-10-10 21:00;METAR CYXE 102100Z 18018G27KT 15SM FEW250 16/M02 A3008 RMK CI1 SLP200=

CYXE;2005-10-10 22:00;METAR CYXE 102200Z 18015KT 15SM FEW250 16/M01 A3005 RMK CI1 SLP192=

CYXE;2005-10-10 23:00;METAR CYXE 102300Z 18016G24KT 15SM FEW250 15/M01 A3002 RMK CI1 SLP183=

CYXE;2005-10-11 00:00;METAR CYXE 110000Z 17014KT 15SM FEW250 13/M00 A3001 RMK CI1 SLP180=

CYXE;2005-10-11 01:00;METAR CYXE 110100Z 16011KT 15SM FEW250 11/M00 A2999 RMK CI1 SLP174=

CYXE;2005-10-11 02:00;METAR CYXE 110200Z 16013KT 15SM SKC 10/00 A2997 RMK SLP169=

CYXE;2005-10-11 03:00;METAR CYXE 110300Z 16010KT 15SM SKC 08/01 A2996 RMK SLP163=

CYXE;2005-10-11 04:00;METAR CYXE 110400Z 16010KT 15SM SKC 07/02 A2994 RMK SLP158=

CYXE;2005-10-11 05:00;METAR CYXE 110500Z 17012KT 15SM SKC 07/03 A2992 RMK SLP150=

CYXE;2005-10-11 06:00;METAR CYXE 110600Z 17013KT 15SM SKC 07/03 A2989 RMK SLP135=

CYXE;2005-10-11 07:00;METAR CYXE 110700Z 17012KT 15SM SKC 06/02 A2986 RMK SLP125=

CYXE;2005-10-11 08:00;METAR CYXE 110800Z 17012G19KT 15SM SKC 06/02 A2984 RMK SLP120=

CYXE;2005-10-11 09:00;METAR CYXE 110900Z 17015KT 15SM SKC 06/02 A2983 RMK SLP113=

CYXE;2005-10-11 10:00;METAR CYXE 111000Z 17016KT 15SM SKC 05/02 A2979 RMK SLP101=

CYXE;2005-10-11 11:00;METAR CYXE 111100Z 17014G20KT 15SM SKC 05/02 A2978 RMK SLP097=

CYXE;2005-10-11 12:00;METAR CYXE 111200Z 17014G19KT 15SM SKC 04/02 A2978 RMK SLP099=

CYXE;2005-10-11 13:00;METAR CYXE 111300Z 18011KT 15SM SCT300 04/02 A2978 RMK CI1 SLP101=

CYXE;2005-10-11 14:00;METAR CYXE 111400Z 17009KT 15SM FEW250 04/02 A2977 RMK CI2 SLP098=

CYXE;2005-10-11 15:00;METAR CYXE 111500Z 19006KT 15SM FEW120 FEW250 05/02 A2979 RMK AC1CI2 SLP105=

CYXE;2005-10-11 16:00;METAR CYXE 111600Z 21007KT 15SM FEW120 SCT250 07/03 A2979 RMK AC2CI1 SLP107=

CYXE;2005-10-11 17:00;METAR CYXE 111700Z 26005KT 15SM FEW120 FEW250 09/03 A2981 RMK AC2CI1 SLP112=

CYXE;2005-10-11 18:00;METAR CYXE 111800Z 34006KT 15SM FEW120 SCT250 11/03 A2982 RMK AC2CI1 SLP113=

CYXE;2005-10-11 19:00;METAR CYXE 111900Z 33009KT 15SM FEW120 SCT250 12/04 A2984 RMK AC1CI1 SLP120=

CYXE;2005-10-11 20:00;METAR CYXE 112000Z 01007KT 15SM BKN250 13/03 A2986 RMK CI3 SLP125=

CYXE;2005-10-11 21:00;METAR CYXE 112100Z 35005KT 15SM BKN250 14/04 A2987 RMK CI3 SLP131=

CYXE;2005-10-11 22:00;METAR CYXE 112200Z 36007KT 15SM BKN250 15/04 A2990 RMK CI2 SLP138=

CYXE;2005-10-11 23:00;METAR CYXE 112300Z 03004KT 15SM BKN250 14/04 A2991 RMK CI1 SLP144=

CYXE;2005-10-12 00:00;METAR CYXE 120000Z 00000KT 15SM SCT250 12/03 A2994 RMK CI1 SLP156=

CYXE;2005-10-12 01:00;METAR CYXE 120100Z 25004KT 15SM BKN250 11/03 A2996 RMK CI1 SLP162=

CYXE;2005-10-12 02:00;METAR CYXE 120200Z 32009KT 15SM SCT250 07/02 A2999 RMK CI1 SLP172=

CYXE;2005-10-12 03:00;METAR CYXE 120300Z 30010KT 15SM FEW250 04/01 A3001 RMK CI1 SLP185=

CYXE;2005-10-12 04:00;METAR CYXE 120400Z 31009KT 15SM FEW250 05/01 A3003 RMK CI1 SLP192=

CYXE;2005-10-12 05:00;METAR CYXE 120500Z 31008KT 15SM FEW250 03/M00 A3004 RMK CI1 SLP195=

CYXE;2005-10-12 06:00;METAR CYXE 120600Z 31007KT 15SM FEW250 02/M01 A3005 RMK CI1 SLP197=

CYXE;2005-10-12 07:00;METAR CYXE 120700Z 31008KT 15SM SKC 02/M01 A3006 RMK SLP200=

CYXE;2005-10-12 08:00;METAR CYXE 120800Z 31008KT 15SM SKC 01/M02 A3008 RMK SLP205=

CYXE;2005-10-12 09:00;METAR CYXE 120900Z 31008KT 15SM SKC 00/M02 A3009 RMK SLP207=

CYXE;2005-10-12 10:00;METAR CYXE 121000Z 30003KT 15SM SKC M01/M03 A3010 RMK SLP212=

CYXE;2005-10-12 11:00;METAR CYXE 121100Z 30002KT 15SM SKC M01/M04 A3011 RMK SLP213=

CYXE;2005-10-12 12:00;METAR CYXE 121200Z 25003KT 15SM SKC M02/M04 A3012 RMK SLP219=

CYXE;2005-10-12 13:00;METAR CYXE 121300Z 27003KT 15SM FEW250 M02/M03 A3012 RMK CI0 SLP220=

CYXE;2005-10-12 14:00;METAR CYXE 121400Z 29003KT 15SM FEW250 M03/M04 A3012 RMK CI0 SLP222=

CYXE;2005-10-12 15:00;METAR CYXE 121500Z 26002KT 15SM FEW250 01/M02 A3013 RMK CI1 SLP227=

CYXE;2005-10-12 16:00;METAR CYXE 121600Z 27006KT 15SM FEW250 05/00 A3016 RMK CI1 SLP236=

CYXE;2005-10-12 17:00;METAR CYXE 121700Z 19002KT 15SM FEW250 10/01 A3013 RMK CI1 SLP229=

CYXE;2005-10-12 18:00;METAR CYXE 121800Z 17003KT 15SM FEW250 12/04 A3012 RMK CI1 SLP217=

CYXE;2005-10-12 19:00;METAR CYXE 121900Z 19004KT 15SM SCT250 14/05 A3009 RMK CI2 SLP209=

CYXE;2005-10-12 20:00;METAR CYXE 122000Z 17004KT 15SM BKN250 14/03 A3007 RMK CI3 SLP201=

CYXE;2005-10-12 21:00;METAR CYXE 122100Z 18005KT 15SM BKN250 15/03 A3004 RMK CI3 SLP191=

CYXE;2005-10-12 22:00;METAR CYXE 122200Z 16004KT 15SM BKN250 14/03 A3003 RMK CI4 SLP186=

CYXE;2005-10-13 00:00;METAR CYXE 130000Z 13006KT 15SM FEW096 BKN280 11/01 A3000 RMK AC2CI2 SLP181=

CYXE;2005-10-13 02:00;METAR CYXE 130200Z 13008KT 15SM SCT280 08/01 A2996 RMK CI1 SLP168=

CYXE;2005-10-13 03:00;METAR CYXE 130300Z 14009KT 15SM FEW280 08/01 A2994 RMK CI1 SLP160=

CYXE;2005-10-13 04:00;METAR CYXE 130400Z 15010G15KT 15SM FEW280 09/02 A2992 RMK CI1 SLP153=

CYXE;2005-10-13 05:00;METAR CYXE 130500Z 16010KT 15SM SCT280 07/01 A2990 RMK CI2 SLP149=

CYXE;2005-10-13 06:00;METAR CYXE 130600Z 16016KT 15SM BKN250 09/01 A2986 RMK CI5 SLP124=

CYXE;2005-10-13 07:00;METAR CYXE 130700Z 15011KT 15SM BKN250 07/02 A2983 RMK CI6 SLP115=

CYXE;2005-10-13 08:00;METAR CYXE 130800Z 16009KT 15SM BKN250 07/02 A2980 RMK CI6 SLP106=

CYXE;2005-10-13 09:00;METAR CYXE 130900Z 14009KT 15SM FEW090 BKN250 08/01 A2975 RMK AC1CI6 SLP085=

CYXE;2005-10-13 11:00;METAR CYXE 131100Z 17010G15KT 15SM OVC250 08/M00 A2967 RMK CI7 SLP061=

CYXE;2005-10-13 12:00;METAR CYXE 131200Z 19012KT 15SM BKN250 07/00 A2966 RMK CI3 SLP057=

CYXE;2005-10-13 13:00;METAR CYXE 131300Z 19010G16KT 15SM SCT110 BKN200 07/01 A2963 RMK AC3CI4 SLP049=

CYXE;2005-10-13 14:00;METAR CYXE 131400Z 20007KT 15SM BKN098 BKN200 08/01 A2961 RMK AC6CI1 SLP043=

CYXE;2005-10-13 15:00;METAR CYXE 131500Z 21008KT 15SM SCT099 OVC200 08/02 A2961 RMK AC4CI3 SLP041=

CYXE;2005-10-13 16:00;METAR CYXE 131600Z 22007KT 15SM BKN099 BKN200 09/01 A2959 RMK AC6CI1 SLP037=

CYXE;2005-10-13 17:00;METAR CYXE 131700Z 24009KT 15SM SCT099 BKN220 12/02 A2959 RMK AC2CI1 SLP034=

CYXE;2005-10-13 18:00;METAR CYXE 131800Z 26010KT 15SM SCT086 BKN220 14/03 A2958 RMK AC2CI2 SLP029=

CYXE;2005-10-13 19:00;METAR CYXE 131900Z 27011KT 15SM SCT110 BKN220 16/04 A2958 RMK AC2CI2 SLP029=

CYXE;2005-10-13 20:00;METAR CYXE 132000Z 28013KT 15SM FEW110 SCT220 17/03 A2958 RMK AC2CI1 SLP028=

CYXE;2005-10-13 21:00;METAR CYXE 132100Z 30012G17KT 15SM FEW110 FEW220 17/03 A2959 RMK ACC1CI1 SLP031=

CYXE;2005-10-13 22:00;METAR CYXE 132200Z 30013KT 15SM FEW110 16/03 A2961 RMK AC2 ACC ASOCTD SLP038=

CYXE;2005-10-13 23:00;METAR CYXE 132300Z 31014G20KT 15SM FEW095 14/03 A2966 RMK AC2 SLP052=

CYXE;2005-10-14 00:00;METAR CYXE 140000Z 31015KT 15SM SCT100 12/02 A2968 RMK AC3 SHWRS NW-N SLP066=

CYXE;2005-10-14 01:00;METAR CYXE 140100Z 29013KT 15SM SCT090 BKN220 11/03 A2971 RMK AC4CI1 SLP074=

CYXE;2005-10-14 02:00;METAR CYXE 140200Z 28011KT 15SM BKN100 BKN220 10/04 A2973 RMK AC6CI1 SLP081=

CYXE;2005-10-14 03:00;METAR CYXE 140300Z 28012KT 15SM SCT110 09/04 A2977 RMK AC3 SLP096=

CYXE;2005-10-14 04:00;METAR CYXE 140400Z 27008KT 15SM FEW110 06/03 A2979 RMK AC2 SLP104=

CYXE;2005-10-14 05:00;METAR CYXE 140500Z 29010KT 15SM SKC 06/03 A2982 RMK SLP112=

CYXE;2005-10-14 06:00;METAR CYXE 140600Z 29011KT 15SM SKC 06/03 A2984 RMK SLP119=

CYXE;2005-10-14 07:00;METAR CYXE 140700Z 27008KT 15SM SKC 02/01 A2986 RMK SLP125=

CYXE;2005-10-14 08:00;METAR CYXE 140800Z 25008KT 15SM SKC 02/01 A2989 RMK SLP134=

CYXE;2005-10-14 09:00;METAR CYXE 140900Z 25007KT 15SM SKC 02/01 A2991 RMK SLP145=

CYXE;2005-10-14 10:00;METAR CYXE 141000Z 23008KT 15SM SKC 01/M00 A2993 RMK SLP151=

CYXE;2005-10-14 11:00;METAR CYXE 141100Z 24009KT 15SM SKC 02/00 A2996 RMK SLP160=

CYXE;2005-10-14 12:00;METAR CYXE 141200Z 24008KT 15SM SKC 00/M01 A2998 RMK SLP171=

CYXE;2005-10-14 13:00;METAR CYXE 141300Z 24008KT 15SM SKC M00/M02 A3001 RMK SLP180=

CYXE;2005-10-14 14:00;METAR CYXE 141400Z 24009KT 15SM SKC 01/M01 A3003 RMK SLP187=

CYXE;2005-10-14 15:00;METAR CYXE 141500Z 26008KT 15SM SKC 03/01 A3005 RMK SLP195=

CYXE;2005-10-14 16:00;METAR CYXE 141600Z 29013KT 15SM FEW240 07/02 A3007 RMK CI1 SLP203=

CYXE;2005-10-14 17:00;METAR CYXE 141700Z 29014KT 15SM FEW240 10/01 A3008 RMK CI1 SLP206=

CYXE;2005-10-14 18:00;METAR CYXE 141800Z 30011G19KT 15SM FEW240 12/00 A3010 RMK CI1 SLP208=

CYXE;2005-10-14 19:00;METAR CYXE 141900Z 29015KT 15SM FEW240 13/00 A3010 RMK CI1 SLP209=

CYXE;2005-10-14 20:00;METAR CYXE 142000Z 30017KT 15SM FEW240 14/M01 A3009 RMK CI1 SLP207=

CYXE;2005-10-14 21:00;METAR CYXE 142100Z 30013KT 15SM FEW240 14/M02 A3010 RMK CI1 SLP209=

CYXE;2005-10-14 22:00;METAR CYXE 142200Z 31009KT 15SM FEW240 14/M02 A3010 RMK CI1 SLP211=

CYXE;2005-10-14 23:00;METAR CYXE 142300Z 31007KT 15SM FEW120 FEW240 13/M01 A3010 RMK AC1CI1 SLP211=

CYXE;2005-10-15 00:00;METAR CYXE 150000Z 34005KT 8SM MIFG FEW120 10/M02 A3009 RMK AC1 SLP212=

CYXE;2005-10-15 01:00;METAR CYXE 150100Z 03003KT 15SM FEW120 08/M02 A3010 RMK AC1 SLP213=

CYXE;2005-10-15 02:00;METAR CYXE 150200Z 09002KT 15SM SKC 07/M02 A3009 RMK SLP210=

CYXE;2005-10-15 03:00;METAR CYXE 150300Z 14004KT 15SM SKC 06/M02 A3009 RMK SLP212=

CYXE;2005-10-15 04:00;METAR CYXE 150400Z 16005KT 15SM BKN110 04/M02 A3010 RMK AC6 SLP214=

CYXE;2005-10-15 05:00;METAR CYXE 150500Z 12004KT 15SM FEW110 03/M02 A3009 RMK AC1 SLP211=

CYXE;2005-10-15 06:00;METAR CYXE 150600Z 11005KT 15SM FEW110 04/M02 A3008 RMK AC1 SLP206=

CYXE;2005-10-15 07:00;METAR CYXE 150700Z 13007KT 15SM SCT110 04/M02 A3008 RMK AC2 SLP205=

CYXE;2005-10-15 08:00;METAR CYXE 150800Z 12008KT 15SM BKN250 04/M02 A3007 RMK CI2 SLP201=

CYXE;2005-10-15 09:00;METAR CYXE 150900Z 12008KT 15SM BKN250 05/M02 A3006 RMK CI2 SLP194=

CYXE;2005-10-15 10:00;METAR CYXE 151000Z 12007KT 15SM OVC250 06/M02 A3004 RMK CI2 SLP189=

CYXE;2005-10-15 11:00;METAR CYXE 151100Z 13010KT 15SM BKN250 05/M03 A3002 RMK CI2 SLP183=

CYXE;2005-10-15 12:00;METAR CYXE 151200Z 13009KT 15SM BKN250 06/M03 A3001 RMK CI2 SLP180=

CYXE;2005-10-15 13:00;METAR CYXE 151300Z 13011KT 15SM BKN250 04/M02 A2999 RMK CI1 SLP174=

CYXE;2005-10-15 14:00;METAR CYXE 151400Z 12013KT 15SM BKN250 05/M02 A2997 RMK CI2 SLP168=

CYXE;2005-10-15 15:00;METAR CYXE 151500Z 13014KT 15SM BKN250 07/M02 A2995 RMK CI2 SLP159=

CYXE;2005-10-15 16:00;METAR CYXE 151600Z 14016G21KT 15SM BKN250 09/M02 A2993 RMK CI2 SLP154=

CYXE;2005-10-15 17:00;METAR CYXE 151700Z 14016G21KT 15SM OVC250 12/M01 A2990 RMK CI3 SLP144=

CYXE;2005-10-15 18:00;METAR CYXE 151800Z 13019G26KT 15SM FEW097 OVC250 15/M00 A2988 RMK AC1CI2 SLP132=

CYXE;2005-10-15 19:00;METAR CYXE 151900Z 14020G27KT 15SM FEW097 OVC250 16/00 A2983 RMK AC1CI3 SLP118=

CYXE;2005-10-15 20:00;METAR CYXE 152000Z 15020G33KT 15SM OVC250 18/01 A2979 RMK CI3 SLP105=

CYXE;2005-10-15 21:00;METAR CYXE 152100Z 14023G31KT 15SM OVC250 18/01 A2977 RMK CI3 SLP092=

CYXE;2005-10-15 22:00;METAR CYXE 152200Z 14021G28KT 15SM OVC250 18/01 A2975 RMK CI4 SLP086=

CYXE;2005-10-15 23:00;METAR CYXE 152300Z 15017G27KT 15SM OVC250 17/01 A2973 RMK CI6 SLP081=

CYXE;2005-10-16 00:00;METAR CYXE 160000Z 15015G20KT 15SM OVC250 16/01 A2972 RMK CI5 SLP079=

CYXE;2005-10-16 01:00;METAR CYXE 160100Z 14015G21KT 15SM OVC250 14/01 A2970 RMK CI4 SLP071=

CYXE;2005-10-16 02:00;METAR CYXE 160200Z 15016G24KT 15SM OVC250 14/01 A2969 RMK CI4 SLP068=

CYXE;2005-10-16 03:00;METAR CYXE 160300Z 15015G22KT 15SM OVC250 14/01 A2969 RMK CI4 SLP069=

CYXE;2005-10-16 04:00;METAR CYXE 160400Z 16018G26KT 15SM OVC250 13/01 A2965 RMK CS4 SLP056=

CYXE;2005-10-16 05:00;METAR CYXE 160500Z 16018G25KT 15SM OVC250 13/01 A2963 RMK CI6 SLP047=

CYXE;2005-10-16 06:00;METAR CYXE 160600Z 17018G26KT 15SM OVC250 13/02 A2961 RMK CI6 SLP034=

CYXE;2005-10-16 07:00;METAR CYXE 160700Z 17015G21KT 15SM OVC250 12/02 A2958 RMK CI6 SLP025=

CYXE;2005-10-16 08:00;METAR CYXE 160800Z 17013G19KT 15SM FEW130 OVC250 11/02 A2955 RMK AC2CI3 SLP017=

CYXE;2005-10-16 09:00;METAR CYXE 160900Z 19013KT 15SM SCT130 BKN250 10/02 A2955 RMK AC3CI2 SLP013=

CYXE;2005-10-16 10:00;METAR CYXE 161000Z 21012KT 15SM FEW130 BKN250 10/02 A2954 RMK AC2CI2 SLP012=

CYXE;2005-10-16 11:00;METAR CYXE 161100Z 24014KT 15SM SCT130 OVC250 11/03 A2955 RMK AC3CI3 SLP015=

CYXE;2005-10-16 12:00;METAR CYXE 161200Z 25010KT 15SM FEW130 SCT250 08/04 A2958 RMK AC1CI1 SLP028=

CYXE;2005-10-16 13:00;METAR CYXE 161300Z 26010KT 15SM FEW130 SCT250 05/03 A2959 RMK AC2CI1 SLP030=

CYXE;2005-10-16 14:00;METAR CYXE 161400Z 24007KT 15SM FEW120 BKN250 03/02 A2960 RMK AC2CI2 SLP033=

CYXE;2005-10-16 15:00;METAR CYXE 161500Z 29011KT 15SM BKN093 OVC250 08/03 A2963 RMK AC6CI2 SLP045=

CYXE;2005-10-16 16:00;METAR CYXE 161600Z 31010KT 15SM BKN095 OVC220 09/03 A2963 RMK AC6CI2 SLP048=

CYXE;2005-10-16 17:00;METAR CYXE 161700Z 31018KT 15SM FEW050 BKN100 OVC220 09/02 A2965 RMK SC2AC6CI1 VIRGA W SLP053=

CYXE;2005-10-16 18:00;METAR CYXE 161800Z 31011G16KT 15SM SCT045 OVC080 09/01 A2967 RMK SC3AS5 SLP059=

CYXE;2005-10-16 19:00;METAR CYXE 161900Z 28012KT 15SM VCSH FEW025 OVC060 08/02 A2969 RMK SC2SC6 SLP066=

CYXE;2005-10-16 19:13;SPECI CYXE 161913Z 29009KT 15SM -SHRA BKN025 OVC050 07/ RMK SC6SC2=

CYXE;2005-10-16 20:00;METAR CYXE 162000Z 30008KT 15SM -SHRA BKN025 OVC090 07/04 A2967 RMK SC6AS2 SLP060=

CYXE;2005-10-16 20:17;SPECI CYXE 162017Z 30009KT 15SM SCT025 BKN060 OVC080 08/ RMK SC3SC2AS2=

CYXE;2005-10-16 21:00;METAR CYXE 162100Z 30012KT 15SM BKN055 BKN090 OVC240 08/01 A2968 RMK SC5AS2CI1 SLP064=

CYXE;2005-10-16 22:00;METAR CYXE 162200Z 28010KT 15SM BKN050 OVC090 08/02 A2968 RMK SC7AC1 SLP067=

CYXE;2005-10-16 23:00;METAR CYXE 162300Z 30011G16KT 15SM FEW050 BKN080 08/00 A2970 RMK SC1AC6 SLP071=

CYXE;2005-10-17 00:00;METAR CYXE 170000Z 29010KT 15SM BKN080 08/00 A2971 RMK AC6 SLP077=

CYXE;2005-10-17 01:00;METAR CYXE 170100Z 29009KT 15SM FEW080 04/M01 A2973 RMK AC2 SLP083=

CYXE;2005-10-17 01:30;SPECI CYXE 170130Z 29007KT 15SM FEW080 01/ RMK AC1=

CYXE;2005-10-17 02:00;METAR CYXE 170200Z 28007KT 15SM SKC 01/M02 A2975 RMK SLP090=

CYXE;2005-10-17 03:00;METAR CYXE 170300Z 26008KT 15SM FEW080 M01/M03 A2975 RMK AC1 SLP097=

CYXE;2005-10-17 04:00;METAR CYXE 170400Z 26007KT 15SM BKN250 M01/M02 A2976 RMK CI2 SLP098=

CYXE;2005-10-17 05:00;METAR CYXE 170500Z 26006KT 15SM FEW120 BKN250 M01/M02 A2976 RMK AC2CI1 SLP098=

CYXE;2005-10-17 06:00;METAR CYXE 170600Z 24007KT 15SM FEW120 SCT250 M00/M01 A2976 RMK AC1CI1 SLP097=

CYXE;2005-10-17 07:00;METAR CYXE 170700Z 23006KT 15SM FEW250 M02/M03 A2976 RMK CI1 SLP097=

CYXE;2005-10-17 08:00;METAR CYXE 170800Z 21006KT 15SM FEW250 M02/M03 A2975 RMK CI0 SLP096=

CYXE;2005-10-17 09:00;METAR CYXE 170900Z 19004KT 15SM FEW110 FEW250 M01/M02 A2974 RMK AC1CI1 SLP093=

CYXE;2005-10-17 10:00;METAR CYXE 171000Z 22004KT 15SM FEW110 BKN250 M02/M03 A2974 RMK AC1CI1 SLP092=

CYXE;2005-10-17 12:00;METAR CYXE 171200Z 19006KT 15SM OVC250 M00/M01 A2972 RMK CI8 SLP086=

CYXE;2005-10-17 13:00;METAR CYXE 171300Z 18005KT 15SM BKN094 OVC250 00/M01 A2971 RMK AC6CI1 SLP082=

CYXE;2005-10-17 14:00;METAR CYXE 171400Z 14003KT 15SM BKN110 OVC250 00/M01 A2970 RMK AC6CI1 SLP079=

CYXE;2005-10-17 15:00;METAR CYXE 171500Z 14004KT 15SM BKN090 OVC250 03/01 A2970 RMK AC6CI1 SLP081=

CYXE;2005-10-17 16:00;METAR CYXE 171600Z 17004KT 15SM OVC071 04/02 A2970 RMK AC7 SLP083=

CYXE;2005-10-17 17:00;METAR CYXE 171700Z 16008KT 15SM BKN057 BKN081 06/03 A2968 RMK SC6AC2 SLP077=

CYXE;2005-10-17 18:00;METAR CYXE 171800Z 14006KT 15SM SCT060 BKN095 09/03 A2967 RMK SC3AC2 SLP067=

CYXE;2005-10-17 19:00;METAR CYXE 171900Z 16004KT 15SM FEW060 SCT280 10/03 A2967 RMK SC1CI1 SLP066=

CYXE;2005-10-17 20:00;METAR CYXE 172000Z 20004KT 15SM FEW060 SCT280 12/05 A2966 RMK SC1CI1 SLP064=

CYXE;2005-10-17 21:00;METAR CYXE 172100Z 17002KT 15SM FEW060 SCT280 13/04 A2965 RMK SC1CI1 SLP060=

CYXE;2005-10-17 22:00;METAR CYXE 172200Z 24004KT 15SM FEW060 BKN280 13/04 A2966 RMK SC1CI2 SLP061=

CYXE;2005-10-17 23:00;METAR CYXE 172300Z 21002KT 15SM FEW060 BKN280 11/04 A2966 RMK SC1CI5 SLP063=

CYXE;2005-10-18 00:00;METAR CYXE 180000Z 22005KT 15SM FEW090 BKN280 09/03 A2968 RMK AC1CI6 SLP072=

CYXE;2005-10-18 01:00;METAR CYXE 180100Z 21004KT 15SM FEW100 OVC280 08/03 A2969 RMK AC1CS6 SLP074=

CYXE;2005-10-18 02:00;METAR CYXE 180200Z 23007KT 15SM FEW100 OVC280 06/02 A2970 RMK AC2CS6 SLP077=

CYXE;2005-10-18 03:00;METAR CYXE 180300Z 26006KT 15SM SCT100 OVC280 05/02 A2970 RMK AC2CS6 SLP080=

CYXE;2005-10-18 04:00;METAR CYXE 180400Z 27004KT 15SM FEW100 OVC280 05/02 A2970 RMK AC1CS6 SLP079=

CYXE;2005-10-18 05:00;METAR CYXE 180500Z 26003KT 15SM FEW100 OVC280 04/02 A2971 RMK AC1CS6 SLP081=

CYXE;2005-10-18 06:00;METAR CYXE 180600Z 23007KT 15SM OVC110 04/02 A2971 RMK AS7 SLP079=

CYXE;2005-10-18 07:00;METAR CYXE 180700Z 00000KT 15SM FEW030 OVC100 04/02 A2972 RMK SC1AS7 SLP083=

CYXE;2005-10-18 08:00;METAR CYXE 180800Z 25006KT 15SM OVC110 04/02 A2973 RMK AS8 SLP085=

CYXE;2005-10-18 09:00;METAR CYXE 180900Z 25005KT 15SM SCT058 OVC110 03/01 A2974 RMK SC3AS5 SLP087=

CYXE;2005-10-18 10:00;METAR CYXE 181000Z 28007KT 15SM FEW058 OVC110 03/01 A2976 RMK SC2AS6 SLP092=

CYXE;2005-10-18 11:00;METAR CYXE 181100Z 31006KT 15SM SCT110 BKN250 03/01 A2977 RMK AC3CI2 SLP097=

CYXE;2005-10-18 13:00;METAR CYXE 181300Z 29007KT 15SM FEW110 M00/M01 A2982 RMK AC2 SLP117=

CYXE;2005-10-18 14:00;METAR CYXE 181400Z 30007KT 15SM FEW058 M00/M02 A2986 RMK SC2 SLP129=

CYXE;2005-10-18 15:00;METAR CYXE 181500Z 26002KT 15SM FEW058 01/00 A2987 RMK SC1 SLP139=

CYXE;2005-10-18 16:00;METAR CYXE 181600Z 31012KT 15SM FEW058 06/03 A2990 RMK SC1 SLP147=

CYXE;2005-10-18 17:00;METAR CYXE 181700Z 31011KT 15SM FEW058 09/04 A2991 RMK SC1 SLP151=

CYXE;2005-10-18 18:00;METAR CYXE 181800Z 29015KT 15SM FEW024 10/04 A2991 RMK CU1 SLP147=

CYXE;2005-10-18 19:00;METAR CYXE 181900Z 30012KT 15SM FEW035 12/04 A2991 RMK CU2 SLP146=

CYXE;2005-10-18 20:00;METAR CYXE 182000Z 30009G16KT 15SM SCT035 11/03 A2991 RMK CU4 SLP147=

CYXE;2005-10-18 21:00;METAR CYXE 182100Z 32013KT 15SM SCT040 12/03 A2992 RMK CU3 SLP148=

CYXE;2005-10-18 22:00;METAR CYXE 182200Z 32013G19KT 15SM FEW040 12/03 A2993 RMK SC2 SLP152=

CYXE;2005-10-18 23:00;METAR CYXE 182300Z 32011KT 15SM FEW040 FEW250 10/01 A2994 RMK SC1CI0 SLP156=

CYXE;2005-10-19 00:00;METAR CYXE 190000Z 35005KT 15SM FEW250 07/M00 A2995 RMK CI0 SLP164=

CYXE;2005-10-19 01:00;METAR CYXE 190100Z 02007KT 15SM FEW250 04/M00 A2996 RMK CI0 SLP169=

CYXE;2005-10-19 01:36;SPECI CYXE 190136Z 04009KT 15SM SKC 02/=

CYXE;2005-10-19 02:00;METAR CYXE 190200Z 05007KT 15SM SKC 02/00 A2998 RMK SLP174=

CYXE;2005-10-19 03:00;METAR CYXE 190300Z 06008KT 15SM SKC 01/00 A2999 RMK SLP181=

CYXE;2005-10-19 04:00;METAR CYXE 190400Z 07005KT 15SM SKC M01/M02 A2999 RMK SLP180=

CYXE;2005-10-19 05:00;METAR CYXE 190500Z 10005KT 15SM SKC M01/M02 A3000 RMK SLP184=

CYXE;2005-10-19 06:00;METAR CYXE 190600Z 10006KT 15SM SKC M02/M03 A2999 RMK SLP178=

CYXE;2005-10-19 08:00;METAR CYXE 190800Z 12007KT 15SM SCT240 M00/M01 A2998 RMK CI2 SLP175=

CYXE;2005-10-19 09:00;METAR CYXE 190900Z 13010KT 15SM FEW240 02/01 A2998 RMK CI0 SLP169=

CYXE;2005-10-19 10:00;METAR CYXE 191000Z 16005KT 15SM FEW240 01/M00 A2998 RMK CI1 SLP170=

CYXE;2005-10-19 11:00;METAR CYXE 191100Z 13007KT 4SM BR FEW240 M00/M01 A2997 RMK CI1 SLP168=

CYXE;2005-10-19 12:00;METAR CYXE 191200Z 12006KT 6SM BR SKC M01/M02 A2996 RMK SLP169=

CYXE;2005-10-19 13:00;METAR CYXE 191300Z 12007KT 15SM FEW240 00/M01 A2995 RMK CI1 SLP165=

CYXE;2005-10-19 14:00;METAR CYXE 191400Z 13009KT 8SM FEW100 SCT240 00/M01 A2994 RMK AC1CI1 BR SLP162=

CYXE;2005-10-19 15:00;METAR CYXE 191500Z 13009KT 15SM SCT250 02/M00 A2993 RMK CI0 SLP161=

CYXE;2005-10-19 16:00;METAR CYXE 191600Z 13009KT 15SM FEW100 BKN250 04/01 A2993 RMK AC1CI1 SLP159=

CYXE;2005-10-19 17:00;METAR CYXE 191700Z 13010KT 15SM FEW100 BKN250 08/03 A2991 RMK AC1CI1 SLP155=

CYXE;2005-10-19 18:00;METAR CYXE 191800Z 13012KT 15SM FEW100 BKN250 10/04 A2989 RMK AC1CI1 SLP144=

CYXE;2005-10-19 19:00;METAR CYXE 191900Z 14014G19KT 15SM BKN250 14/04 A2986 RMK CI1 SLP135=

CYXE;2005-10-19 20:00;METAR CYXE 192000Z 15017G27KT 15SM BKN280 15/03 A2983 RMK CI1 SLP124=

CYXE;2005-10-19 21:00;METAR CYXE 192100Z 14015G22KT 15SM BKN280 15/03 A2981 RMK CI2 SLP112=

CYXE;2005-10-19 22:00;METAR CYXE 192200Z 15017KT 15SM BKN280 14/03 A2979 RMK CI4 SLP105=

CYXE;2005-10-19 23:00;METAR CYXE 192300Z 14012G20KT 15SM OVC280 14/02 A2979 RMK CS6 SLP103=

CYXE;2005-10-20 00:00;METAR CYXE 200000Z 13012G17KT 15SM OVC280 12/03 A2978 RMK CS6 SLP105=

CYXE;2005-10-20 01:00;METAR CYXE 200100Z 12012KT 15SM OVC280 11/02 A2977 RMK CS5 SLP102=

CYXE;2005-10-20 02:00;METAR CYXE 200200Z 13012KT 15SM FEW100 OVC280 10/02 A2977 RMK AC2CS3 SLP099=

CYXE;2005-10-20 03:00;METAR CYXE 200300Z 13014G24KT 15SM BKN110 OVC280 10/01 A2977 RMK AC6CS2 SLP098=

CYXE;2005-10-20 04:00;METAR CYXE 200400Z 13015G22KT 15SM BKN090 OVC280 09/01 A2976 RMK AC5CS3 SLP096=

CYXE;2005-10-20 05:26;SPECI CYXE 200526Z 15012G21KT 15SM -SHRA BKN071 OVC280 09/ RMK AC6CS2=

CYXE;2005-10-20 06:00;METAR CYXE 200600Z 14016KT 15SM -SHRA OVC071 09/03 A2972 RMK AC8 SLP077=

CYXE;2005-10-20 06:48;SPECI CYXE 200648Z 15014G21KT 15SM OVC078 10/ RMK AC8=

CYXE;2005-10-20 07:00;METAR CYXE 200700Z 15017G22KT 15SM OVC078 10/03 A2971 RMK AC8 SLP073=

CYXE;2005-10-20 08:00;METAR CYXE 200800Z 15012G19KT 15SM OVC072 10/03 A2971 RMK AC8 SLP073=

CYXE;2005-10-20 09:00;METAR CYXE 200900Z 15012KT 15SM OVC072 09/03 A2970 RMK AC8 SLP068=

CYXE;2005-10-20 09:29;SPECI CYXE 200929Z 14011KT 10SM -SHRA BKN044 OVC072 08/ RMK SC5AC3=

CYXE;2005-10-20 10:00;METAR CYXE 201000Z 16010KT 15SM -SHRA OVC044 08/04 A2969 RMK SC8 SLP067=

CYXE;2005-10-20 11:00;METAR CYXE 201100Z 16006KT 15SM -SHRA BKN044 OVC070 08/04 A2970 RMK SC5AC3 SLP068=

CYXE;2005-10-20 12:00;METAR CYXE 201200Z 19004KT 10SM -SHRA OVC037 07/05 A2971 RMK SC8 SLP074=

CYXE;2005-10-20 13:00;METAR CYXE 201300Z 00000KT 15SM -SHRA FEW018 OVC039 06/05 A2973 RMK SF2SC6 SLP081=

CYXE;2005-10-20 13:39;SPECI CYXE 201339Z 32002KT 15SM FEW020 OVC026 06/ RMK SF2SC6=

CYXE;2005-10-20 14:00;METAR CYXE 201400Z 33003KT 8SM FEW020 SCT035 OVC070 06/05 A2975 RMK SC2SC2AC5 BR SLP088=

CYXE;2005-10-20 14:35;SPECI CYXE 201435Z 32004KT 6SM -SHRA BR SCT040 OVC080 RMK SC3AC5=

CYXE;2005-10-20 15:00;METAR CYXE 201500Z 31004KT 6SM -SHRA BR BKN040 OVC080 06/06 A2977 RMK SC5AC3 SLP099=

CYXE;2005-10-20 15:16;SPECI CYXE 201516Z 30010KT 5SM -SHRA BR BKN002 OVC060 RMK SF6SC2=

CYXE;2005-10-20 15:36;SPECI CYXE 201536Z 32013KT 12SM BKN005 OVC060 07/ RMK SF7SC1 BR=

CYXE;2005-10-20 16:00;METAR CYXE 201600Z 32015KT 15SM BKN006 OVC075 07/06 A2981 RMK SF7AC1 SLP112=

CYXE;2005-10-20 16:24;SPECI CYXE 201624Z 33015KT 15SM FEW008 SCT020 BKN050 OVC250 07/ RMK SF2SC2SC2CI1=

CYXE;2005-10-20 17:00;METAR CYXE 201700Z 33017KT 15SM BKN012 OVC050 08/06 A2985 RMK SC7SC1 SLP123=

CYXE;2005-10-20 18:00;METAR CYXE 201800Z 31016G21KT 15SM OVC014 07/06 A2988 RMK SC8 SLP133=

CYXE;2005-10-20 18:47;SPECI CYXE 201847Z 32020KT 15SM OVC016 07/ RMK SC8=

CYXE;2005-10-20 19:00;METAR CYXE 201900Z 32017KT 15SM OVC020 07/05 A2990 RMK SC8 SLP142=

CYXE;2005-10-20 20:00;METAR CYXE 202000Z 32014G25KT 15SM BKN023 BKN095 BKN250 10/04 A2993 RMK SC6AC1CI1 SLP150=

CYXE;2005-10-20 21:00;METAR CYXE 202100Z 31017G24KT 15SM FEW030 SCT120 BKN250 10/01 A2995 RMK SC1AC2CI2 SLP158=

CYXE;2005-10-20 22:00;METAR CYXE 202200Z 30016KT 15SM FEW120 BKN250 10/01 A2998 RMK AC2CI2 SLP168=

CYXE;2005-10-20 23:00;METAR CYXE 202300Z 30015G20KT 15SM FEW025 FEW120 SCT250 08/00 A3001 RMK SC1AC1CI1 SLP178=

CYXE;2005-10-21 00:00;METAR CYXE 210000Z 30011KT 15SM FEW100 FEW250 06/M00 A3004 RMK AC2CI1 SLP192=

CYXE;2005-10-21 01:00;METAR CYXE 210100Z 30012KT 15SM BKN100 06/M01 A3008 RMK AC5 SLP203=

CYXE;2005-10-21 02:00;METAR CYXE 210200Z 31007KT 15SM FEW100 03/M02 A3010 RMK AC2 SLP211=

CYXE;2005-10-21 03:00;METAR CYXE 210300Z 28005KT 15SM BKN043 02/M01 A3012 RMK SC6 SLP224=

CYXE;2005-10-21 04:00;METAR CYXE 210400Z 29008KT 15SM BKN040 01/M02 A3015 RMK SC6 SLP233=

CYXE;2005-10-21 05:00;METAR CYXE 210500Z 27007KT 15SM SCT050 M01/M03 A3017 RMK SC3 SLP237=

CYXE;2005-10-21 06:00;METAR CYXE 210600Z 27008KT 15SM BKN050 M00/M03 A3017 RMK SC2 SLP239=

CYXE;2005-10-21 07:00;METAR CYXE 210700Z 26008KT 15SM FEW050 M03/M04 A3018 RMK SC2 SLP244=

CYXE;2005-10-21 08:00;METAR CYXE 210800Z 26009KT 15SM SKC M03/M05 A3020 RMK SLP248=

CYXE;2005-10-21 09:00;METAR CYXE 210900Z 26009KT 15SM SKC M03/M05 A3020 RMK SLP250=

CYXE;2005-10-21 10:00;METAR CYXE 211000Z 27008KT 15SM SKC M03/M05 A3020 RMK SLP250=

CYXE;2005-10-21 12:00;METAR CYXE 211200Z 26007KT 15SM SKC M05/M07 A3022 RMK SLP261=

CYXE;2005-10-21 13:00;METAR CYXE 211300Z 26006KT 15SM SKC M06/M07 A3023 RMK SLP265=

CYXE;2005-10-21 14:00;METAR CYXE 211400Z 26007KT 15SM FEW120 M06/M08 A3024 RMK AC1 SLP268=

CYXE;2005-10-21 15:00;METAR CYXE 211500Z 28009KT 15SM FEW120 M02/M04 A3024 RMK AC1 SLP268=

CYXE;2005-10-21 16:00;METAR CYXE 211600Z 30011KT 15SM SKC 01/M03 A3024 RMK SLP268=

CYXE;2005-10-21 17:00;METAR CYXE 211700Z 30012KT 15SM BKN062 03/M02 A3023 RMK SC5 SLP266=

CYXE;2005-10-21 18:00;METAR CYXE 211800Z 30011KT 15SM FEW060 05/M02 A3022 RMK SC2 SLP258=

CYXE;2005-10-21 19:00;METAR CYXE 211900Z 32014G19KT 15SM FEW030 07/M02 A3020 RMK SC1 SLP253=

CYXE;2005-10-21 20:00;METAR CYXE 212000Z 31015G22KT 15SM FEW040 07/M03 A3019 RMK SC2 SLP249=

CYXE;2005-10-21 21:00;METAR CYXE 212100Z 32017G22KT 15SM FEW045 08/M04 A3018 RMK SC2 SLP245=

CYXE;2005-10-21 22:00;METAR CYXE 212200Z 31017G22KT 15SM FEW050 07/M05 A3017 RMK SC2 SLP241=

CYXE;2005-10-21 23:00;METAR CYXE 212300Z 31014KT 15SM FEW050 06/M04 A3016 RMK SC1 SLP239=

CYXE;2005-10-22 00:00;METAR CYXE 220000Z 33009KT 15SM FEW250 03/M07 A3017 RMK CI1 SLP245=

CYXE;2005-10-22 01:00;METAR CYXE 220100Z 36007KT 15SM FEW250 M02/M07 A3019 RMK CI1 SLP251=

CYXE;2005-10-22 02:00;METAR CYXE 220200Z 03012KT 15SM FEW250 M00/M05 A3020 RMK CI1 SLP256=

CYXE;2005-10-22 03:00;METAR CYXE 220300Z 04007KT 15SM FEW250 M03/M06 A3022 RMK CI1 SLP265=

CYXE;2005-10-22 04:00;METAR CYXE 220400Z 01006KT 15SM SKC M05/M07 A3023 RMK SLP267=

CYXE;2005-10-22 05:00;METAR CYXE 220500Z 35007KT 15SM SKC M06/M08 A3022 RMK SLP266=

CYXE;2005-10-22 06:00;METAR CYXE 220600Z 34008KT 15SM SKC M08/M09 A3022 RMK SLP264=

CYXE;2005-10-22 07:00;METAR CYXE 220700Z 32006KT 15SM SKC M08/M09 A3023 RMK SLP267=

CYXE;2005-10-22 08:00;METAR CYXE 220800Z 30007KT 15SM SKC M07/M09 A3023 RMK SLP267=

CYXE;2005-10-22 09:00;METAR CYXE 220900Z 31007KT 15SM SKC M07/M08 A3024 RMK SLP269=

CYXE;2005-10-22 10:00;METAR CYXE 221000Z 31007KT 15SM SKC M08/M09 A3024 RMK SLP269=

CYXE;2005-10-22 11:00;METAR CYXE 221100Z 31007KT 15SM SKC M07/M09 A3025 RMK SLP271=

CYXE;2005-10-22 12:00;METAR CYXE 221200Z 31005KT 15SM SKC M08/M10 A3026 RMK SLP278=

CYXE;2005-10-22 13:00;METAR CYXE 221300Z 32005KT 15SM SKC M09/M10 A3026 RMK SLP280=

CYXE;2005-10-22 14:00;METAR CYXE 221400Z 00000KT 15SM SKC M08/M10 A3028 RMK SLP285=

CYXE;2005-10-22 15:00;METAR CYXE 221500Z 27003KT 15SM SKC M06/M08 A3029 RMK SLP292=

CYXE;2005-10-22 16:00;METAR CYXE 221600Z 29002KT 15SM SKC M03/M05 A3030 RMK SLP295=

CYXE;2005-10-22 17:00;METAR CYXE 221700Z 00000KT 15SM SKC 01/M03 A3030 RMK SLP294=

CYXE;2005-10-22 18:00;METAR CYXE 221800Z 05002KT 15SM FEW020 03/M04 A3030 RMK SC1 SLP290=

CYXE;2005-10-22 19:00;METAR CYXE 221900Z 15002KT 15SM FEW030 04/M05 A3029 RMK SC1 SLP288=

CYXE;2005-10-22 20:00;METAR CYXE 222000Z 00000KT 15SM FEW030 05/M05 A3029 RMK SC1 SLP287=

CYXE;2005-10-22 21:00;METAR CYXE 222100Z 11003KT 15SM FEW040 05/M05 A3027 RMK SC1 SLP280=

CYXE;2005-10-22 22:00;METAR CYXE 222200Z 17002KT 15SM SKC 05/M05 A3027 RMK SLP279=

CYXE;2005-10-22 23:00;METAR CYXE 222300Z 15003KT 15SM SKC 02/M06 A3027 RMK SLP281=

CYXE;2005-10-23 00:00;METAR CYXE 230000Z 15003KT 15SM SKC 02/M06 A3027 RMK SLP281=

CYXE;2005-10-23 01:00;METAR CYXE 230100Z 13005KT 15SM SKC 01/M06 A3027 RMK SLP281=

CYXE;2005-10-23 02:00;METAR CYXE 230200Z 13005KT 15SM SKC M00/M06 A3027 RMK SLP281=

CYXE;2005-10-23 03:00;METAR CYXE 230300Z 14007KT 15SM SKC M02/M06 A3026 RMK SLP282=

CYXE;2005-10-23 04:00;METAR CYXE 230400Z 14006KT 15SM SKC M02/M06 A3026 RMK SLP280=

CYXE;2005-10-23 05:00;METAR CYXE 230500Z 17005KT 15SM SKC M03/M06 A3026 RMK SLP281=

CYXE;2005-10-23 06:00;METAR CYXE 230600Z 17007KT 15SM SKC M04/M06 A3026 RMK SLP276=

CYXE;2005-10-23 07:00;METAR CYXE 230700Z 18006KT 15SM SKC M04/M07 A3026 RMK SLP275=

CYXE;2005-10-23 08:00;METAR CYXE 230800Z 16004KT 15SM SKC M04/M06 A3024 RMK SLP270=

CYXE;2005-10-23 09:00;METAR CYXE 230900Z 16006KT 15SM SKC M04/M06 A3023 RMK SLP265=

CYXE;2005-10-23 10:00;METAR CYXE 231000Z 16007KT 15SM SKC M03/M05 A3022 RMK SLP262=

CYXE;2005-10-23 11:00;METAR CYXE 231100Z 17007KT 15SM SKC M03/M05 A3021 RMK SLP259=

CYXE;2005-10-23 12:00;METAR CYXE 231200Z 16008KT 15SM SKC M03/M05 A3019 RMK SLP251=

CYXE;2005-10-23 13:00;METAR CYXE 231300Z 16009KT 15SM SKC M02/M05 A3017 RMK SLP246=

CYXE;2005-10-23 14:00;METAR CYXE 231400Z 16008KT 15SM SKC M03/M06 A3017 RMK SLP246=

CYXE;2005-10-23 15:00;METAR CYXE 231500Z 16010KT 15SM SKC M01/M04 A3018 RMK SLP249=

CYXE;2005-10-23 16:00;METAR CYXE 231600Z 16012KT 15SM SKC 01/M03 A3016 RMK SLP244=

CYXE;2005-10-23 17:00;METAR CYXE 231700Z 17013KT 15SM SKC 03/M03 A3015 RMK SLP240=

CYXE;2005-10-23 18:00;METAR CYXE 231800Z 16014KT 15SM SKC 06/M04 A3013 RMK SLP230=

CYXE;2005-10-23 19:00;METAR CYXE 231900Z 17014KT 15SM SKC 07/M04 A3010 RMK SLP219=

CYXE;2005-10-23 20:00;METAR CYXE 232000Z 15012G19KT 15SM SKC 09/M04 A3008 RMK SLP214=

CYXE;2005-10-23 21:00;METAR CYXE 232100Z 17014G19KT 15SM SKC 10/M04 A3007 RMK SLP205=

CYXE;2005-10-23 22:00;METAR CYXE 232200Z 17017KT 15SM SKC 10/M05 A3006 RMK SLP202=

CYXE;2005-10-23 23:00;METAR CYXE 232300Z 17012G17KT 15SM SKC 09/M03 A3004 RMK SLP198=

CYXE;2005-10-24 00:00;METAR CYXE 240000Z 15009KT 15SM FEW100 07/M03 A3003 RMK AC1 SLP193=

CYXE;2005-10-24 01:00;METAR CYXE 240100Z 15012KT 15SM FEW100 07/M03 A3002 RMK AC1 SLP190=

CYXE;2005-10-24 02:00;METAR CYXE 240200Z 15010KT 15SM SKC 05/M03 A3001 RMK SLP186=

CYXE;2005-10-24 03:00;METAR CYXE 240300Z 16009KT 15SM SKC 04/M03 A3000 RMK SLP184=

CYXE;2005-10-24 04:00;METAR CYXE 240400Z 15009KT 15SM SKC 03/M03 A2999 RMK SLP182=

CYXE;2005-10-24 05:00;METAR CYXE 240500Z 16008KT 15SM SKC 03/M03 A2998 RMK SLP178=

CYXE;2005-10-24 06:00;METAR CYXE 240600Z 16009KT 15SM SKC 03/M03 A2997 RMK SLP171=

CYXE;2005-10-24 07:00;METAR CYXE 240700Z 17009KT 15SM SKC 03/M03 A2997 RMK SLP170=

CYXE;2005-10-24 08:00;METAR CYXE 240800Z 17011KT 15SM SKC 03/M04 A2995 RMK SLP165=

CYXE;2005-10-24 08:37;SPECI CYXE 240837Z 17009KT 15SM SKC 02/=

CYXE;2005-10-24 09:00;METAR CYXE 240900Z 17009KT 15SM SKC 02/M04 A2994 RMK SLP159=

CYXE;2005-10-24 10:00;METAR CYXE 241000Z 16006KT 15SM SKC 00/M04 A2993 RMK SLP156=

CYXE;2005-10-24 11:00;METAR CYXE 241100Z 17006KT 15SM SKC 00/M04 A2993 RMK SLP156=

CYXE;2005-10-24 12:00;METAR CYXE 241200Z 17006KT 15SM SKC M00/M04 A2993 RMK SLP158=

CYXE;2005-10-24 13:00;METAR CYXE 241300Z 16005KT 15SM FEW250 M01/M04 A2993 RMK CI1 SLP157=

CYXE;2005-10-24 14:00;METAR CYXE 241400Z 15007KT 15SM FEW250 M01/M04 A2992 RMK CI1 SLP155=

CYXE;2005-10-24 15:00;METAR CYXE 241500Z 17007KT 15SM FEW250 01/M04 A2991 RMK CI1 SLP153=

CYXE;2005-10-24 16:00;METAR CYXE 241600Z 19006KT 15SM SCT250 05/M03 A2992 RMK CI1 SLP154=

CYXE;2005-10-24 17:00;METAR CYXE 241700Z 17007KT 15SM SCT250 07/M02 A2991 RMK CI1 SLP152=

CYXE;2005-10-24 18:00;METAR CYXE 241800Z 21008KT 15SM FEW250 10/00 A2991 RMK CI1 SLP148=

CYXE;2005-10-24 19:00;METAR CYXE 241900Z 24009KT 15SM FEW250 13/02 A2991 RMK CI1 SLP148=

CYXE;2005-10-24 20:00;METAR CYXE 242000Z 24009KT 15SM FEW250 14/03 A2991 RMK CI1 SLP148=

CYXE;2005-10-24 21:00;METAR CYXE 242100Z 31006KT 15SM FEW250 16/03 A2993 RMK CI0 SLP151=

CYXE;2005-10-24 22:00;METAR CYXE 242200Z 28005KT 15SM FEW250 16/03 A2994 RMK CI0 SLP155=

CYXE;2005-10-24 23:00;METAR CYXE 242300Z 31003KT 15SM FEW250 14/04 A2995 RMK CI1 SLP157=

CYXE;2005-10-25 00:00;METAR CYXE 250000Z 30006KT 15SM FEW250 10/02 A2998 RMK CI1 SLP173=

CYXE;2005-10-25 01:00;METAR CYXE 250100Z 29004KT 15SM SKC 07/03 A2999 RMK SLP177=

CYXE;2005-10-25 02:00;METAR CYXE 250200Z 31005KT 15SM SKC 05/02 A3000 RMK SLP181=

CYXE;2005-10-25 03:00;METAR CYXE 250300Z 31007KT 15SM SKC 03/01 A3002 RMK SLP191=

CYXE;2005-10-25 04:00;METAR CYXE 250400Z 32007KT 15SM SKC 02/M00 A3003 RMK SLP195=

CYXE;2005-10-25 05:00;METAR CYXE 250500Z 24002KT 15SM SKC M01/M01 A3005 RMK SLP201=

CYXE;2005-10-25 06:00;METAR CYXE 250600Z 25002KT 15SM SKC M00/M02 A3007 RMK SLP205=

CYXE;2005-10-25 07:00;METAR CYXE 250700Z 36002KT 15SM SKC 00/M01 A3008 RMK SLP209=

CYXE;2005-10-25 08:00;METAR CYXE 250800Z 34003KT 15SM SKC M02/M03 A3009 RMK SLP212=

CYXE;2005-10-25 09:00;METAR CYXE 250900Z 29002KT 15SM SKC M03/M03 A3010 RMK SLP214=

CYXE;2005-10-25 10:00;METAR CYXE 251000Z 28002KT 15SM SKC M04/M04 A3011 RMK SLP216=

CYXE;2005-10-25 11:00;METAR CYXE 251100Z 34002KT 15SM SKC M03/M04 A3012 RMK SLP219=

CYXE;2005-10-25 12:00;METAR CYXE 251200Z 00000KT 15SM SKC M04/M04 A3012 RMK SLP225=

CYXE;2005-10-25 13:00;METAR CYXE 251300Z 00000KT 15SM SKC M04/M05 A3013 RMK SLP228=

CYXE;2005-10-25 14:00;METAR CYXE 251400Z 06003KT 12SM FEW250 M04/M05 A3013 RMK CI0 BR SLP226=

CYXE;2005-10-25 15:00;METAR CYXE 251500Z 07005KT 10SM SKC M00/M02 A3012 RMK SLP224=

CYXE;2005-10-25 16:00;METAR CYXE 251600Z 08002KT 10SM SKC 03/01 A3012 RMK SLP226=

CYXE;2005-10-25 17:00;METAR CYXE 251700Z 23002KT 15SM FEW250 06/01 A3012 RMK CI1 SLP225=

CYXE;2005-10-25 18:00;METAR CYXE 251800Z 09004KT 15SM FEW250 09/01 A3011 RMK CI1 SLP219=

CYXE;2005-10-25 19:00;METAR CYXE 251900Z 10007KT 15SM FEW250 11/02 A3009 RMK CI1 SLP211=

CYXE;2005-10-25 20:00;METAR CYXE 252000Z 12011KT 15SM FEW250 13/02 A3006 RMK CI1 SLP202=

CYXE;2005-10-25 21:00;METAR CYXE 252100Z 12009KT 15SM FEW250 14/02 A3004 RMK CI1 SLP194=

CYXE;2005-10-25 22:00;METAR CYXE 252200Z 12008KT 15SM FEW250 14/02 A3003 RMK CI1 SLP189=

CYXE;2005-10-25 23:00;METAR CYXE 252300Z 11009KT 15SM SCT250 13/01 A3001 RMK CI2 SLP184=

CYXE;2005-10-26 00:00;METAR CYXE 260000Z 12008KT 15SM FEW250 10/01 A3000 RMK CI2 SLP183=

CYXE;2005-10-26 02:00;METAR CYXE 260200Z 12007KT 15SM SKC 08/01 A2999 RMK SLP177=

CYXE;2005-10-26 03:00;METAR CYXE 260300Z 13009KT 15SM SKC 07/01 A2997 RMK SLP172=

CYXE;2005-10-26 04:00;METAR CYXE 260400Z 15005KT 15SM FEW250 05/00 A2997 RMK CI0 SLP171=

CYXE;2005-10-26 05:00;METAR CYXE 260500Z 14009KT 15SM SKC 06/00 A2996 RMK SLP167=

CYXE;2005-10-26 06:00;METAR CYXE 260600Z 12008KT 15SM SKC 04/00 A2994 RMK SLP158=

CYXE;2005-10-26 07:00;METAR CYXE 260700Z 13007KT 15SM BKN250 04/M00 A2993 RMK CI2 SLP153=

CYXE;2005-10-26 08:00;METAR CYXE 260800Z 13007KT 15SM OVC250 05/00 A2991 RMK CI2 SLP148=

CYXE;2005-10-26 09:00;METAR CYXE 260900Z 15008KT 15SM BKN250 07/00 A2990 RMK CI2 SLP139=

CYXE;2005-10-26 10:00;METAR CYXE 261000Z 14008KT 15SM BKN250 06/01 A2987 RMK CI2 SLP131=

CYXE;2005-10-26 11:00;METAR CYXE 261100Z 14010KT 15SM BKN250 07/01 A2986 RMK CI1 SLP125=

CYXE;2005-10-26 12:00;METAR CYXE 261200Z 14010KT 15SM BKN250 06/01 A2983 RMK CI1 SLP119=

CYXE;2005-10-26 13:00;METAR CYXE 261300Z 13011KT 15SM BKN250 05/01 A2982 RMK CI1 SLP115=

CYXE;2005-10-26 14:00;METAR CYXE 261400Z 14007KT 15SM BKN250 03/00 A2981 RMK CI3 SLP112=

CYXE;2005-10-26 15:00;METAR CYXE 261500Z 14010KT 15SM BKN250 07/02 A2980 RMK CI3 SLP109=

CYXE;2005-10-26 16:00;METAR CYXE 261600Z 17010KT 15SM BKN250 09/02 A2980 RMK CI2 SLP110=

CYXE;2005-10-26 17:00;METAR CYXE 261700Z 17010G17KT 15SM BKN250 11/03 A2980 RMK CI3 SLP109=

CYXE;2005-10-26 18:00;METAR CYXE 261800Z 18014KT 15SM BKN250 14/03 A2979 RMK CI5 SLP103=

CYXE;2005-10-26 19:00;METAR CYXE 261900Z 19013G18KT 15SM BKN250 15/03 A2978 RMK CI3 SLP100=

CYXE;2005-10-26 20:00;METAR CYXE 262000Z 18014KT 15SM FEW140 BKN250 16/04 A2977 RMK AC1CI3 SLP095=

CYXE;2005-10-26 21:00;METAR CYXE 262100Z 16013KT 15SM FEW090 BKN250 17/04 A2975 RMK AC1CI2 SLP087=

CYXE;2005-10-26 22:00;METAR CYXE 262200Z 18009KT 15SM FEW090 BKN280 17/04 A2977 RMK AC2CI2 SLP092=

CYXE;2005-10-26 23:00;METAR CYXE 262300Z 14008KT 15SM SCT089 BKN280 15/04 A2977 RMK AC2CI2 SLP091=

CYXE;2005-10-27 00:00;METAR CYXE 270000Z 15008KT 15SM FEW090 BKN280 14/04 A2977 RMK AC2CI2 SLP097=

CYXE;2005-10-27 01:00;METAR CYXE 270100Z 15008KT 15SM FEW090 SCT280 12/04 A2977 RMK AC2CI1 SLP094=

CYXE;2005-10-27 02:00;METAR CYXE 270200Z 15008KT 15SM SCT280 10/03 A2977 RMK CI1 SLP096=

CYXE;2005-10-27 03:00;METAR CYXE 270300Z 18005KT 15SM FEW280 09/03 A2978 RMK CI0 SLP100=

CYXE;2005-10-27 04:00;METAR CYXE 270400Z 18005KT 15SM FEW280 09/03 A2978 RMK CI0 SLP102=

CYXE;2005-10-27 06:00;METAR CYXE 270600Z 18006KT 15SM SKC 07/02 A2980 RMK SLP104=

CYXE;2005-10-27 07:00;METAR CYXE 270700Z 22005KT 15SM SCT250 05/02 A2980 RMK CI0 SLP106=

CYXE;2005-10-27 08:00;METAR CYXE 270800Z 23006KT 15SM FEW250 03/01 A2981 RMK CI0 SLP110=

CYXE;2005-10-27 08:47;SPECI CYXE 270847Z 31005KT 15SM FEW250 02/ RMK CI0=

CYXE;2005-10-27 09:00;METAR CYXE 270900Z 32005KT 15SM SCT250 02/01 A2983 RMK CI0 SLP117=

CYXE;2005-10-27 10:00;METAR CYXE 271000Z 01006KT 15SM SCT250 02/01 A2984 RMK CI0 SLP118=

CYXE;2005-10-27 11:00;METAR CYXE 271100Z 32006KT 15SM FEW100 SCT250 01/00 A2986 RMK AC1CI0 SLP127=

CYXE;2005-10-27 12:00;METAR CYXE 271200Z 34007KT 15SM BKN110 BKN250 02/01 A2987 RMK AC2CI1 SLP132=

CYXE;2005-10-27 13:00;METAR CYXE 271300Z 36005KT 15SM SCT110 BKN250 02/M00 A2988 RMK AC3CI1 SLP135=

CYXE;2005-10-27 14:00;METAR CYXE 271400Z 36009KT 15SM BKN095 BKN250 05/M01 A2987 RMK AC5CI2 -SHRA NW-SW SLP133=

CYXE;2005-10-27 15:00;METAR CYXE 271500Z 36008KT 15SM SCT095 BKN250 06/M02 A2990 RMK AC4CI3 -SHRA NW-SW SE SLP141=

CYXE;2005-10-27 16:00;METAR CYXE 271600Z 01010KT 15SM SCT095 BKN250 07/M02 A2989 RMK AC4CI3 -SHRA NW-SW SLP140=

CYXE;2005-10-27 17:00;METAR CYXE 271700Z 03011KT 15SM BKN100 BKN250 08/M03 A2989 RMK AC6CI2 -SHRA SW SLP138=

CYXE;2005-10-27 18:00;METAR CYXE 271800Z 01012KT 15SM BKN100 BKN250 10/M02 A2989 RMK AC5CI1 -SHRA W-SW SLP137=

CYXE;2005-10-27 19:48;SPECI CYXE 271948Z 36009KT 15SM -SHRA FEW030 BKN080 OVC250 08/ RMK SC2ACC5CI2=

CYXE;2005-10-27 21:00;METAR CYXE 272100Z 01009KT 15SM FEW030 BKN080 OVC250 07/02 A2985 RMK SC1ACC6CI1 -SHRA NE-NW-SW SLP128=

CYXE;2005-10-27 22:00;METAR CYXE 272200Z 01009KT 15SM OVC080 07/01 A2985 RMK AC8 SLP127=

CYXE;2005-10-27 22:38;SPECI CYXE 272238Z 36008KT 15SM -SHRA SCT038 OVC081 07/ RMK SC4AC4=

CYXE;2005-10-27 23:00;METAR CYXE 272300Z 34008KT 15SM -SHRA BKN038 OVC086 06/02 A2986 RMK SC6AC2 SLP131=

CYXE;2005-10-28 00:00;METAR CYXE 280000Z 35010KT 15SM -SHRA OVC046 04/03 A2986 RMK SC8 SLP133=

CYXE;2005-10-28 01:00;METAR CYXE 280100Z 36010KT 15SM -SHRA OVC044 04/03 A2986 RMK SC8 SLP134=

CYXE;2005-10-28 02:00;METAR CYXE 280200Z 01010KT 15SM -SHRA OVC044 04/03 A2986 RMK SC8 SLP135=

CYXE;2005-10-28 03:00;METAR CYXE 280300Z 01010KT 15SM -SHRA OVC044 04/03 A2985 RMK SC8 SLP128=

CYXE;2005-10-28 04:00;METAR CYXE 280400Z 01006KT 15SM -SHRA OVC044 04/03 A2985 RMK SC8 SLP129=

CYXE;2005-10-28 04:43;SPECI CYXE 280443Z 36007KT 15SM FEW008 OVC040 04/ RMK SF2SC6=

CYXE;2005-10-28 05:00;METAR CYXE 280500Z 01007KT 15SM SCT008 OVC040 04/03 A2985 RMK SF3SC5 SLP129=

CYXE;2005-10-28 06:00;METAR CYXE 280600Z 36006KT 15SM BKN008 OVC040 04/03 A2985 RMK SF5SC3 SLP126=

CYXE;2005-10-28 07:00;METAR CYXE 280700Z 35005KT 15SM SCT010 OVC040 04/03 A2985 RMK SF4SC4 SLP126=

CYXE;2005-10-28 08:00;METAR CYXE 280800Z 03005KT 15SM FEW010 OVC027 04/03 A2984 RMK SF2SC6 SLP123=

CYXE;2005-10-28 09:00;METAR CYXE 280900Z 03004KT 15SM BKN025 OVC040 03/03 A2984 RMK SC6SC2 SLP126=

CYXE;2005-10-28 09:25;SPECI CYXE 280925Z 01004KT 15SM BKN006 OVC025 03/ RMK ST6SC2=

CYXE;2005-10-28 10:00;METAR CYXE 281000Z 31002KT 15SM OVC006 03/03 A2985 RMK ST8 SLP129=

CYXE;2005-10-28 11:00;METAR CYXE 281100Z 31004KT 15SM OVC007 03/03 A2986 RMK ST8 SLP131=

CYXE;2005-10-28 11:22;SPECI CYXE 281122Z 34006KT 15SM OVC008 03/ RMK ST8=

CYXE;2005-10-28 12:00;METAR CYXE 281200Z 02004KT 15SM OVC008 03/03 A2986 RMK ST8 SLP134=

CYXE;2005-10-28 13:00;METAR CYXE 281300Z 35003KT 15SM OVC007 03/03 A2986 RMK ST8 SLP134=

CYXE;2005-10-28 14:00;METAR CYXE 281400Z 32002KT 15SM OVC006 03/03 A2987 RMK ST8 SLP138=

CYXE;2005-10-28 14:41;SPECI CYXE 281441Z 33004KT 15SM OVC005 03/ RMK ST8=

CYXE;2005-10-28 14:50;SPECI CYXE 281450Z 35006KT 15SM SCT006 OVC039 04/ RMK SF4SC3=

CYXE;2005-10-28 15:00;METAR CYXE 281500Z 35006KT 15SM SCT006 BKN012 OVC036 03/03 A2987 RMK SF4SC2SC2 SLP136=

CYXE;2005-10-28 15:09;SPECI CYXE 281509Z 36004KT 15SM BKN005 BKN012 OVC036 03/ RMK SF5SC2SC1=

CYXE;2005-10-28 15:38;SPECI CYXE 281538Z 03003KT 15SM FEW005 SCT016 BKN036 OVC200 04/ RMK SF2SC2SC2CI2=

CYXE;2005-10-28 16:00;METAR CYXE 281600Z 04002KT 15SM BKN004 OVC036 04/03 A2987 RMK SF5SC3 SLP137=

CYXE;2005-10-28 16:29;SPECI CYXE 281629Z 00000KT 15SM OVC006 04/ RMK SF8=

CYXE;2005-10-28 17:00;METAR CYXE 281700Z 00000KT 15SM OVC007 04/03 A2988 RMK ST8 SLP139=

CYXE;2005-10-28 18:00;METAR CYXE 281800Z 00000KT 15SM OVC008 05/03 A2988 RMK ST8 SLP139=

CYXE;2005-10-28 19:00;METAR CYXE 281900Z 00000KT 15SM OVC009 06/03 A2987 RMK SF8 SLP136=

CYXE;2005-10-28 19:31;SPECI CYXE 281931Z 17002KT 15SM OVC010 06/ RMK SF8=

CYXE;2005-10-28 20:00;METAR CYXE 282000Z 19002KT 15SM OVC010 06/04 A2986 RMK SF8 SLP134=

CYXE;2005-10-28 21:00;METAR CYXE 282100Z 19003KT 15SM OVC012 07/04 A2986 RMK SC8 SLP131=

CYXE;2005-10-28 22:00;METAR CYXE 282200Z 00000KT 15SM OVC012 06/04 A2986 RMK SC8 SLP130=

CYXE;2005-10-28 23:00;METAR CYXE 282300Z 00000KT 15SM OVC014 06/03 A2985 RMK SC8 SLP128=

CYXE;2005-10-28 23:23;SPECI CYXE 282323Z 10002KT 15SM OVC016 06/ RMK SC8=

CYXE;2005-10-29 00:00;METAR CYXE 290000Z 05002KT 15SM OVC020 06/03 A2985 RMK SC8 SLP128=

CYXE;2005-10-29 01:00;METAR CYXE 290100Z 27003KT 15SM OVC024 04/03 A2985 RMK SC8 SLP127=

CYXE;2005-10-29 02:00;METAR CYXE 290200Z 25002KT 15SM FEW015 OVC022 05/03 A2985 RMK SF2SC6 SLP127=

CYXE;2005-10-29 02:50;SPECI CYXE 290250Z 18006KT 15SM OVC011 05/ RMK SC8=

CYXE;2005-10-29 03:00;METAR CYXE 290300Z 18006KT 15SM OVC011 05/03 A2985 RMK SC8 SLP128=

CYXE;2005-10-29 03:23;SPECI CYXE 290323Z 19006KT 15SM SCT009 OVC015 05/ RMK SF4SC4=

CYXE;2005-10-29 03:41;SPECI CYXE 290341Z 19007KT 15SM BKN008 OVC018 05/ RMK ST5SC3=

CYXE;2005-10-29 04:00;METAR CYXE 290400Z 19009KT 15SM BKN007 OVC018 04/03 A2986 RMK ST5SC3 SLP131=

CYXE;2005-10-29 05:00;METAR CYXE 290500Z 18006KT 15SM OVC007 04/03 A2985 RMK ST8 SLP129=

CYXE;2005-10-29 06:00;METAR CYXE 290600Z 17008KT 15SM OVC005 04/03 A2985 RMK ST8 SLP128=

CYXE;2005-10-29 07:00;METAR CYXE 290700Z 12006KT 15SM OVC005 04/03 A2983 RMK ST8 SLP123=

CYXE;2005-10-29 07:41;SPECI CYXE 290741Z 10004KT 12SM OVC003 04/ RMK ST8=

CYXE;2005-10-29 08:00;METAR CYXE 290800Z 10006KT 10SM OVC003 04/03 A2981 RMK ST8 SLP118=

CYXE;2005-10-29 09:00;METAR CYXE 290900Z 12007KT 6SM BR OVC003 04/03 A2980 RMK ST8 SLP112=

CYXE;2005-10-29 10:00;METAR CYXE 291000Z 13006KT 3SM BR OVC003 04/03 A2980 RMK ST8 SLP110=

CYXE;2005-10-29 10:44;SPECI CYXE 291044Z 12006KT 3SM BR OVC002 04/ RMK ST8=

CYXE;2005-10-29 11:00;METAR CYXE 291100Z 13006KT 3SM BR OVC002 04/04 A2978 RMK ST8 SLP106=

CYXE;2005-10-29 12:00;METAR CYXE 291200Z 17007KT 8SM OVC003 05/04 A2978 RMK ST8 TOPS 030 SLP104=

CYXE;2005-10-29 13:00;METAR CYXE 291300Z 16007KT 4SM BR OVC002 04/03 A2978 RMK ST8 SLP104=

CYXE;2005-10-29 13:46;SPECI CYXE 291346Z 19006KT 4SM BR OVC004 03/ RMK SF8=

CYXE;2005-10-29 14:00;METAR CYXE 291400Z 18005KT 4SM BR OVC004 03/03 A2978 RMK SF8 SLP104=

CYXE;2005-10-29 14:31;SPECI CYXE 291431Z 19005KT 4SM BR OVC002 03/ RMK SF8=

CYXE;2005-10-29 15:00;METAR CYXE 291500Z 19004KT 3SM BR OVC002 03/02 A2979 RMK SF7 SLP110=

CYXE;2005-10-29 15:35;SPECI CYXE 291535Z 17006KT 3SM BR SCT003 03/ RMK SF4 VIS SE 11/2=

CYXE;2005-10-29 16:00;METAR CYXE 291600Z 23005KT 6SM BR SCT006 04/02 A2980 RMK SF4 SLP112=

CYXE;2005-10-29 17:00;METAR CYXE 291700Z 22004KT 15SM FEW007 FEW110 04/02 A2980 RMK SF1AC1 SLP112=

CYXE;2005-10-29 18:00;METAR CYXE 291800Z 25005KT 15SM FEW007 FEW110 06/02 A2980 RMK SF1AC1 SLP112=

CYXE;2005-10-29 19:00;METAR CYXE 291900Z 26005KT 15SM FEW010 FEW110 07/02 A2981 RMK SF1AC1 AC TR SLP113=

CYXE;2005-10-29 20:00;METAR CYXE 292000Z 27003KT 15SM FEW010 06/02 A2980 RMK SF1 SLP110=

CYXE;2005-10-29 21:00;METAR CYXE 292100Z 30007KT 15SM FEW010 06/02 A2981 RMK SF1 SLP115=

CYXE;2005-10-29 21:19;SPECI CYXE 292119Z 30011KT 15SM BKN009 05/ RMK SF6=

CYXE;2005-10-29 21:43;SPECI CYXE 292143Z 32009KT 15SM OVC005 04/ RMK SF8=

CYXE;2005-10-29 21:50;SPECI CYXE 292150Z 31011KT 15SM OVC004 03/ RMK SF8=

CYXE;2005-10-29 22:00;METAR CYXE 292200Z 31008KT 15SM OVC004 03/02 A2983 RMK SF8 SLP122=

CYXE;2005-10-29 23:00;METAR CYXE 292300Z 33005KT 10SM BKN004 OVC012 04/03 A2984 RMK SF7SF1 BR SLP124=

CYXE;2005-10-30 00:00;METAR CYXE 300000Z 27003KT 15SM OVC010 04/03 A2986 RMK SF8 SLP132=

CYXE;2005-10-30 01:00;METAR CYXE 300100Z 30005KT 15SM OVC010 05/04 A2988 RMK SF8 SLP140=

CYXE;2005-10-30 02:00;METAR CYXE 300200Z 34005KT 15SM OVC012 05/03 A2990 RMK SF8 SLP145=

CYXE;2005-10-30 03:00;METAR CYXE 300300Z 35004KT 15SM OVC014 05/03 A2992 RMK SF8 SLP152=

CYXE;2005-10-30 03:28;SPECI CYXE 300328Z 35003KT 15SM OVC018 05/ RMK SC8=

CYXE;2005-10-30 04:00;METAR CYXE 300400Z 31003KT 15SM OVC018 05/03 A2991 RMK SC8 SLP151=

CYXE;2005-10-30 05:00;METAR CYXE 300500Z 32006KT 15SM OVC019 05/03 A2992 RMK SC8 SLP154=

CYXE;2005-10-30 06:00;METAR CYXE 300600Z 31005KT 15SM OVC019 04/03 A2994 RMK SC8 SLP159=

CYXE;2005-10-30 07:00;METAR CYXE 300700Z 28004KT 15SM OVC021 04/02 A2995 RMK SC8 SLP161=

CYXE;2005-10-30 08:00;METAR CYXE 300800Z 28004KT 15SM OVC021 03/02 A2996 RMK SC8 SLP165=

CYXE;2005-10-30 09:00;METAR CYXE 300900Z 28006KT 15SM OVC019 02/01 A2998 RMK SC8 SLP172=

CYXE;2005-10-30 10:00;METAR CYXE 301000Z 29005KT 15SM OVC017 03/01 A2999 RMK SC8 SLP175=

CYXE;2005-10-30 11:00;METAR CYXE 301100Z 27003KT 15SM OVC013 03/01 A2999 RMK SC8 SLP178=

CYXE;2005-10-30 12:00;METAR CYXE 301200Z 24003KT 15SM OVC011 03/01 A3000 RMK SC8 SLP182=

CYXE;2005-10-30 13:00;METAR CYXE 301300Z 23005KT 15SM OVC011 03/01 A3001 RMK SC8 SLP185=

CYXE;2005-10-30 13:26;SPECI CYXE 301326Z 25004KT 15SM OVC009 02/ RMK SC8=

CYXE;2005-10-30 14:00;METAR CYXE 301400Z 23005KT 15SM OVC008 02/00 A3002 RMK SF8 SLP188=

CYXE;2005-10-30 15:00;METAR CYXE 301500Z 22004KT 4SM BR OVC007 02/00 A3003 RMK SF8 SLP193=

CYXE;2005-10-30 16:00;METAR CYXE 301600Z 23006KT 4SM BR OVC006 02/00 A3005 RMK SF8 SLP199=

CYXE;2005-10-30 17:00;METAR CYXE 301700Z 24005KT 4SM BR OVC006 02/00 A3007 RMK SF8 SLP205=

CYXE;2005-10-30 17:39;SPECI CYXE 301739Z 25006KT 3SM BR OVC005 02/ RMK SF8=

CYXE;2005-10-30 18:00;METAR CYXE 301800Z 24006KT 3SM BR OVC006 02/00 A3007 RMK SF8 SLP205=

CYXE;2005-10-30 18:24;SPECI CYXE 301824Z 26006KT 3SM BR OVC005 02/ RMK SF8=

CYXE;2005-10-30 19:00;METAR CYXE 301900Z 27008KT 3SM BR OVC005 02/00 A3007 RMK SF8 SLP206=

CYXE;2005-10-30 20:00;METAR CYXE 302000Z 27006KT 4SM BR OVC006 02/00 A3007 RMK SF8 SLP205=

CYXE;2005-10-30 20:48;SPECI CYXE 302048Z 31006KT 15SM FEW009 FEW110 BKN220 03/ RMK SF2AC1CI2=

CYXE;2005-10-30 21:00;METAR CYXE 302100Z 31006KT 15SM FEW009 FEW110 BKN220 03/00 A3007 RMK SF2AC1CI2 SLP207=

CYXE;2005-10-30 22:00;METAR CYXE 302200Z 30007KT 15SM FEW009 SCT110 BKN220 05/M00 A3008 RMK SF2AC2CI2 SLP209=

CYXE;2005-10-30 23:00;METAR CYXE 302300Z 27002KT 15SM BKN068 BKN100 BKN220 04/00 A3009 RMK AC5AC1CI2 SLP212=

CYXE;2005-10-31 00:00;METAR CYXE 310000Z 26004KT 15SM BKN068 BKN240 04/M01 A3010 RMK AC6CI1 SLP216=

CYXE;2005-10-31 01:00;METAR CYXE 310100Z 24006KT 15SM FEW080 M00/M03 A3010 RMK AC1 SLP216=

CYXE;2005-10-31 02:00;METAR CYXE 310200Z 23007KT 15SM SKC M03/M05 A3010 RMK SLP217=

CYXE;2005-10-31 03:00;METAR CYXE 310300Z 23008KT 15SM SKC M03/M04 A3010 RMK SLP222=

CYXE;2005-10-31 04:00;METAR CYXE 310400Z 24008KT 15SM BKN220 M01/M02 A3010 RMK CI5 SLP220=

CYXE;2005-10-31 04:28;SPECI CYXE 310428Z 24008KT 15SM SCT088 M01/ RMK AC3=

CYXE;2005-10-31 05:00;METAR CYXE 310500Z 24009KT 15SM BKN088 00/M02 A3010 RMK AC6 SLP220=

CYXE;2005-10-31 06:00;METAR CYXE 310600Z 26008KT 15SM BKN080 00/M02 A3011 RMK AC6 SLP221=

CYXE;2005-10-31 07:00;METAR CYXE 310700Z 25008KT 15SM FEW080 M02/M04 A3012 RMK AC2 SLP224=

CYXE;2005-10-31 08:00;METAR CYXE 310800Z 24007KT 15SM SKC M04/M05 A3012 RMK SLP224=

CYXE;2005-10-31 09:00;METAR CYXE 310900Z 24008KT 15SM SKC M05/M06 A3012 RMK SLP226=

CYXE;2005-10-31 10:00;METAR CYXE 311000Z 24007KT 15SM SKC M05/M06 A3010 RMK SLP221=

CYXE;2005-10-31 11:00;METAR CYXE 311100Z 22004KT 15SM SKC M06/M07 A3008 RMK SLP215=

CYXE;2005-10-31 12:00;METAR CYXE 311200Z 19006KT 15SM SKC M05/M07 A3007 RMK SLP212=

CYXE;2005-10-31 13:00;METAR CYXE 311300Z 18006KT 15SM SKC M06/M07 A3003 RMK SLP198=

CYXE;2005-10-31 14:00;METAR CYXE 311400Z 20006KT 15SM SKC M05/M06 A3000 RMK SLP190=

CYXE;2005-10-31 15:00;METAR CYXE 311500Z 19006KT 15SM FEW220 M03/M05 A2999 RMK CI1 SLP184=

CYXE;2005-10-31 16:00;METAR CYXE 311600Z 20008KT 15SM OVC220 M01/M04 A2997 RMK CI3 SLP178=

CYXE;2005-10-31 17:00;METAR CYXE 311700Z 19007KT 15SM FEW094 OVC220 01/M02 A2993 RMK AC2CI3 SLP167=

CYXE;2005-10-31 18:00;METAR CYXE 311800Z 19008KT 15SM BKN250 04/M02 A2990 RMK CS5 SLP147=

CYXE;2005-10-31 19:00;METAR CYXE 311900Z 18010KT 15SM FEW091 OVC250 04/M02 A2985 RMK AC2CS4 SLP132=

CYXE;2005-10-31 20:00;METAR CYXE 312000Z 19011KT 15SM FEW087 OVC250 06/M01 A2980 RMK AC2CS4 SLP116=

CYXE;2005-10-31 21:00;METAR CYXE 312100Z 18007KT 15SM FEW094 OVC250 07/M02 A2976 RMK AC2CS3 SLP103=

CYXE;2005-10-31 22:00;METAR CYXE 312200Z 18006KT 15SM BKN075 OVC250 08/M02 A2974 RMK AC5CS3 SLP095=

CYXE;2005-10-31 23:00;METAR CYXE 312300Z 17006KT 15SM SCT045 BKN070 OVC100 07/M00 A2971 RMK SC3AC3AS2 SLP087=

CYXE;2005-10-31 23:29;SPECI CYXE 312329Z 20012G17KT 15SM -SHRA OVC045 07/ RMK SC8=

CYXE;2005-11-01 00:00;METAR CYXE 010000Z 19007KT 12SM -SHRA OVC035 06/03 A2970 RMK SC8 SLP082=

CYXE;2005-11-01 01:00;METAR CYXE 010100Z 16005KT 12SM -SHRA OVC025 05/03 A2968 RMK SC8 SLP076=

CYXE;2005-11-01 02:00;METAR CYXE 010200Z 16005KT 12SM -SHRA OVC025 04/04 A2967 RMK SC8 SLP072=

CYXE;2005-11-01 03:00;METAR CYXE 010300Z 13002KT 10SM -RA OVC020 04/04 A2966 RMK SC8 SLP068=

CYXE;2005-11-01 03:51;SPECI CYXE 010351Z 01004KT 10SM -DZ FEW007 OVC020 04/ RMK SF2SC6=

CYXE;2005-11-01 04:00;METAR CYXE 010400Z 01004KT 10SM -DZ SCT007 OVC020 04/04 A2966 RMK SF3SC5 SLP069=

CYXE;2005-11-01 05:00;METAR CYXE 010500Z 35004KT 8SM -DZ FEW005 OVC012 04/03 A2968 RMK SF2SC6 BR SLP074=

CYXE;2005-11-01 05:18;SPECI CYXE 010518Z 35003KT 3SM -DZ BR BKN004 OVC015 04/ RMK SF6SC2=

CYXE;2005-11-01 05:29;SPECI CYXE 010529Z 33003KT 2SM -DZ BR BKN004 OVC010 04/ RMK SF6SC2=

CYXE;2005-11-01 05:49;SPECI CYXE 010549Z 30002KT 3SM -DZ BR SCT004 OVC013 04/ RMK SF4SC4=

CYXE;2005-11-01 06:00;METAR CYXE 010600Z 29003KT 4SM -RA BR FEW004 SCT013 OVC020 04/03 A2969 RMK SF1SC3SC4 SLP074=

CYXE;2005-11-01 07:00;METAR CYXE 010700Z 30007KT 6SM -RA BR OVC021 04/03 A2970 RMK SC8 SLP079=

CYXE;2005-11-01 07:10;SPECI CYXE 010710Z 28007KT 10SM -DZ OVC021 04/ RMK SC8=

CYXE;2005-11-01 07:41;SPECI CYXE 010741Z 27007KT 15SM OVC024 03/ RMK SC8=

CYXE;2005-11-01 08:00;METAR CYXE 010800Z 28008KT 15SM OVC031 03/02 A2972 RMK SC8 SLP083=

CYXE;2005-11-01 09:00;METAR CYXE 010900Z 29010KT 15SM FEW050 02/01 A2974 RMK SC2 SLP092=

CYXE;2005-11-01 10:00;METAR CYXE 011000Z 29008KT 15SM FEW063 01/00 A2977 RMK SC1 SLP100=

CYXE;2005-11-01 11:00;METAR CYXE 011100Z 28008KT 15SM FEW037 FEW073 00/M01 A2980 RMK SC1AC1 SLP111=

CYXE;2005-11-01 12:00;METAR CYXE 011200Z 30008KT 15SM FEW075 00/M01 A2981 RMK AC1 SLP119=

CYXE;2005-11-01 13:00;METAR CYXE 011300Z 29007KT 15SM FEW081 M00/M01 A2982 RMK AC1 SLP122=

CYXE;2005-11-01 14:00;METAR CYXE 011400Z 29008KT 15SM FEW081 FEW250 M01/M02 A2985 RMK AC1CI0 SLP129=

CYXE;2005-11-01 15:00;METAR CYXE 011500Z 27006KT 15SM FEW250 M00/M02 A2986 RMK CI1 SLP137=

CYXE;2005-11-01 19:00;METAR CYXE 011900Z 25003KT 15SM FEW090 SCT250 04/M00 A2987 RMK AC1CI0 SLP139=

CYXE;2005-11-01 20:00;METAR CYXE 012000Z 26006KT 15SM FEW087 BKN250 06/00 A2986 RMK AC1CS3 SLP135=

CYXE;2005-11-01 21:00;METAR CYXE 012100Z 22005KT 15SM FEW091 OVC250 06/00 A2984 RMK AC1CS5 SLP126=

CYXE;2005-11-01 22:00;METAR CYXE 012200Z 23005KT 15SM FEW090 OVC250 05/00 A2983 RMK AC1CS6 SLP122=

CYXE;2005-11-01 23:00;METAR CYXE 012300Z 25004KT 15SM OVC250 04/01 A2982 RMK CS7 SLP119=

CYXE;2005-11-02 00:00;METAR CYXE 020000Z 00000KT 15SM OVC250 03/M00 A2978 RMK CS8 SLP110=

CYXE;2005-11-02 00:21;SPECI CYXE 020021Z 15002KT 15SM FEW100 OVC250 02/ RMK AS1CS7=

CYXE;2005-11-02 01:00;METAR CYXE 020100Z 10002KT 15SM FEW100 OVC250 03/M00 A2977 RMK AS1CS6 SLP107=

CYXE;2005-11-02 02:00;METAR CYXE 020200Z 07005KT 15SM FEW100 OVC250 01/M01 A2975 RMK AS1CS7 SLP100=

CYXE;2005-11-02 03:00;METAR CYXE 020300Z 09005KT 15SM FEW100 OVC250 00/M01 A2972 RMK AS2CS6 SLP090=

CYXE;2005-11-02 04:00;METAR CYXE 020400Z 13006KT 15SM SCT100 OVC250 02/00 A2971 RMK AS3CS5 SLP086=

CYXE;2005-11-02 05:00;METAR CYXE 020500Z 08005KT 15SM OVC080 02/00 A2968 RMK AC8 SLP076=

CYXE;2005-11-02 06:00;METAR CYXE 020600Z 10008KT 15SM OVC055 02/00 A2962 RMK SC8 PRESFR SLP053=

CYXE;2005-11-02 07:00;METAR CYXE 020700Z 09006KT 15SM OVC038 02/00 A2959 RMK SC8 SLP044=

CYXE;2005-11-02 07:26;SPECI CYXE 020726Z 11004KT 12SM -RA OVC022 03/ RMK SC8=

CYXE;2005-11-02 08:00;METAR CYXE 020800Z 04007KT 10SM -RA OVC020 02/01 A2957 RMK SC8 SLP037=

CYXE;2005-11-02 08:19;SPECI CYXE 020819Z 04006KT 8SM RA OVC015 02/ RMK SC8=

CYXE;2005-11-02 08:42;SPECI CYXE 020842Z 04007KT 8SM RA OVC012 01/ RMK SC8=

CYXE;2005-11-02 08:52;SPECI CYXE 020852Z 04008KT 5SM RASN OVC009 01/ RMK SF8=

CYXE;2005-11-02 09:00;METAR CYXE 020900Z 03009KT 3SM -RASN VV008 01/00 A2959 RMK SN8 SLP039=

CYXE;2005-11-02 09:19;SPECI CYXE 020919Z 04009KT 1 1/2SM -RASN VV007 00/ RMK SN8=

CYXE;2005-11-02 09:30;SPECI CYXE 020930Z 05009KT 1SM R09/5500FT/D SN VV002 00/ RMK SN8=

CYXE;2005-11-02 10:00;METAR CYXE 021000Z 05011KT 1SM R09/P6000FT/U SN VV002 00/M00 A2955 RMK SN8 SLP028=

CYXE;2005-11-02 10:32;SPECI CYXE 021032Z 05013KT 3/4SM R09/P6000FT/U SN VV002 00/ RMK SN8=

CYXE;2005-11-02 11:00;METAR CYXE 021100Z 05014KT 1 1/4SM -SN VV002 00/M00 A2952 RMK SN8 /S01/ SLP019=

CYXE;2005-11-02 11:17;SPECI CYXE 021117Z 04013KT 1 1/2SM -SN VV002 00/ RMK SN8=

CYXE;2005-11-02 11:26;SPECI CYXE 021126Z 04012KT 2SM -SN VV002 00/ RMK SN8=

CYXE;2005-11-02 11:49;SPECI CYXE 021149Z 03013KT 3SM -SN BKN003 OVC012 00/ RMK SF6SC2=

CYXE;2005-11-02 12:00;METAR CYXE 021200Z 03014KT 3SM -SN OVC003 00/M00 A2954 RMK SF8 SLP027=

CYXE;2005-11-02 12:13;SPECI CYXE 021213Z 02013KT 2SM R09/4500VP6000FT/D -SN VV003 00/ RMK SN8=

CYXE;2005-11-02 13:00;METAR CYXE 021300Z 01014KT 4SM -SN OVC004 00/M00 A2958 RMK SN3SF5 SLP038=

CYXE;2005-11-02 13:36;SPECI CYXE 021336Z 01013KT 2SM -SN VV004 00/ RMK SN8=

CYXE;2005-11-02 14:00;METAR CYXE 021400Z 35011KT 2SM -SN VV005 00/M00 A2962 RMK SN8 SLP053=

CYXE;2005-11-02 14:29;SPECI CYXE 021429Z 35012KT 8SM FEW005 OVC033 00/ RMK ST2SC6=

CYXE;2005-11-02 15:00;METAR CYXE 021500Z 34009G15KT 15SM SCT033 BKN064 BKN250 00/M00 A2967 RMK SC3SC2CI0 SLP071=

CYXE;2005-11-02 16:00;METAR CYXE 021600Z 33010KT 15SM FEW069 00/M01 A2969 RMK AC1 SLP080=

CYXE;2005-11-02 17:00;METAR CYXE 021700Z 33009KT 15SM FEW069 01/M01 A2972 RMK AC1 SLP090=

CYXE;2005-11-02 18:00;METAR CYXE 021800Z 31008KT 15SM FEW020 FEW089 SCT250 02/00 A2975 RMK SF1AC1CI1 SLP097=

CYXE;2005-11-02 19:00;METAR CYXE 021900Z 30007KT 15SM SCT019 03/01 A2977 RMK SC3 SLP104=

CYXE;2005-11-02 20:00;METAR CYXE 022000Z 30010KT 15SM FEW021 FEW250 04/01 A2978 RMK SC2CI0 SLP106=

CYXE;2005-11-02 21:00;METAR CYXE 022100Z 30009KT 15SM FEW026 SCT250 05/01 A2978 RMK SC2CI0 SLP107=

CYXE;2005-11-02 22:00;METAR CYXE 022200Z 32006KT 15SM FEW030 SCT250 06/M01 A2979 RMK SC2CI0 SLP111=

CYXE;2005-11-02 23:00;METAR CYXE 022300Z 05007KT 15SM FEW030 FEW120 04/M01 A2981 RMK SC1AC2 SLP118=

CYXE;2005-11-02 23:13;SPECI CYXE 022313Z 04008KT 15SM FEW030 FEW120 02/ RMK SC1AC2=

CYXE;2005-11-03 00:00;METAR CYXE 030000Z 07009KT 15SM FEW120 00/M01 A2983 RMK AC1 SLP127=

CYXE;2005-11-03 01:00;METAR CYXE 030100Z 09005KT 15SM FEW120 M02/M03 A2985 RMK AC1 SLP134=

CYXE;2005-11-03 02:00;METAR CYXE 030200Z 09004KT 15SM SKC M03/M04 A2986 RMK SLP135=

CYXE;2005-11-03 03:00;METAR CYXE 030300Z 14004KT 15SM SKC M03/M03 A2986 RMK SLP138=

CYXE;2005-11-03 04:00;METAR CYXE 030400Z 14004KT 10SM SKC M03/M03 A2986 RMK BR SLP141=

CYXE;2005-11-03 05:00;METAR CYXE 030500Z 15006KT 10SM SKC M03/M04 A2987 RMK BR SLP142=

CYXE;2005-11-03 06:00;METAR CYXE 030600Z 15004KT 3SM R09/2800VP6000FT/D BR FEW001 M03/M04 A2986 RMK SF1 SLP138=

CYXE;2005-11-03 06:10;SPECI CYXE 030610Z 18006KT 1SM R09/3500VP6000FT/N BR BKN003 M04/ RMK FG2SF2=

CYXE;2005-11-03 06:15;SPECI CYXE 030615Z 18006KT 3/4SM R09/4500VP6000FT/U BR OVC002 M04/ RMK FG5SF3 VIS N 11/2 TOWER OBS=

CYXE;2005-11-03 06:19;SPECI CYXE 030619Z 18005KT 3/8SM R09/P6000FT/U FZFG VV002 M03/ RMK FG8=

CYXE;2005-11-03 06:31;SPECI CYXE 030631Z 17005KT 1/8SM R09/2800VP6000FT/D FZFG VV001 M03/ RMK FG8 TOWER OBS=

CYXE;2005-11-03 07:00;METAR CYXE 030700Z 14004KT 1/8SM R09/1200FT/N FZFG VV001 M03/M04 A2986 RMK FG8 FROIN TOWER OBS SLP137=

CYXE;2005-11-03 08:00;METAR CYXE 030800Z 16005KT 1/8SM R09/2600FT/N FZFG VV001 M03/M04 A2985 RMK FG8 FROIN TOWER OBS SLP134=

CYXE;2005-11-03 08:44;SPECI CYXE 030844Z 15007KT 1/4SM R09/2800FT/U FZFG VV001 M04/ RMK FG8 FROIN TOWER OBS=

CYXE;2005-11-03 09:00;METAR CYXE 030900Z 17006KT 1/4SM R09/3500FT/N FZFG VV001 M03/M04 A2985 RMK FG8 FROIN TOWER OBS SLP133=

CYXE;2005-11-03 10:00;METAR CYXE 031000Z 15005KT 3/8SM R09/4000FT/U FZFG VV001 M03/M04 A2984 RMK FG8 FROIN TOWER OBS SLP131=

CYXE;2005-11-03 10:45;SPECI CYXE 031045Z 15005KT 1/2SM R09/P6000FT/U FZFG VV001 M02/ RMK FG8 FROIN TOWER OBS=

CYXE;2005-11-03 11:00;METAR CYXE 031100Z 15006KT 1/2SM R09/5000FT/D FZFG VV001 M02/M03 A2984 RMK FG8 FROIN TOWER OBS SLP129=

CYXE;2005-11-03 12:00;METAR CYXE 031200Z 17007KT 1/2SM R09/4000VP6000FT/D FZFG VV001 M03/M04 A2985 RMK FG8 FROIN TOWER OBS SLP137=

CYXE;2005-11-03 13:00;METAR CYXE 031300Z 14004KT 1/2SM R09/P6000FT/D FZFG VV001 M04/M05 A2984 RMK FG8 FROIN SLP134=

CYXE;2005-11-03 13:25;SPECI CYXE 031325Z 13005KT 3/4SM R09/P6000FT/U BR VV001 M03/ RMK FG8 FROIN=

CYXE;2005-11-03 14:00;METAR CYXE 031400Z 14006KT 3/4SM R09/P6000FT/D BR OVC001 M03/M04 A2985 RMK FG5ST3 FROIN SLP135=

CYXE;2005-11-03 14:50;SPECI CYXE 031450Z 14004KT 1/2SM R09/3500FT/D FZFG VV001 M03/ RMK FG8=

CYXE;2005-11-03 15:00;METAR CYXE 031500Z 13004KT 1/2SM R09/3000VP6000FT/U FZFG VV001 M03/M04 A2985 RMK FG8 FROIN SLP138=

CYXE;2005-11-03 15:22;SPECI CYXE 031522Z 12005KT 2SM BR OVC002 M02/ RMK ST8=

CYXE;2005-11-03 16:00;METAR CYXE 031600Z 13006KT 4SM BR OVC003 M02/M03 A2983 RMK ST8 SLP133=

CYXE;2005-11-03 17:00;METAR CYXE 031700Z 13005KT 5SM BR OVC003 M01/M02 A2982 RMK ST6 SLP130=

CYXE;2005-11-03 18:00;METAR CYXE 031800Z 15004KT 10SM SCT003 OVC250 00/00 A2982 RMK SF3CI1 SLP128=

CYXE;2005-11-03 19:00;METAR CYXE 031900Z 14008KT 15SM FEW008 FEW090 OVC250 01/01 A2980 RMK SF1AC2CS2 SLP121=

CYXE;2005-11-03 20:00;METAR CYXE 032000Z 13010KT 15SM FEW008 SCT095 OVC250 01/01 A2978 RMK SF1AC2CI2 SLP115=

CYXE;2005-11-03 21:00;METAR CYXE 032100Z 14011KT 15SM FEW008 BKN078 OVC250 02/00 A2977 RMK SF1AC4CI2 SLP107=

CYXE;2005-11-03 22:00;METAR CYXE 032200Z 16011KT 15SM FEW008 SCT070 BKN250 02/M01 A2976 RMK SF1AC2CI1 SLP104=

CYXE;2005-11-04 00:00;METAR CYXE 040000Z 14009KT 15SM BKN019 OVC250 01/M01 A2974 RMK SC6CI1 SLP098=

CYXE;2005-11-04 01:00;METAR CYXE 040100Z 14011KT 15SM BKN017 BKN032 01/M01 A2973 RMK SC5SC2 SLP094=

CYXE;2005-11-04 02:00;METAR CYXE 040200Z 15011G16KT 15SM SCT020 BKN040 01/M01 A2972 RMK SC3SC3 SLP090=

CYXE;2005-11-04 02:16;SPECI CYXE 040216Z 16016KT 15SM BKN011 OVC040 01/ RMK SC6SC1=

CYXE;2005-11-04 03:00;METAR CYXE 040300Z 15011KT 15SM OVC015 02/M01 A2970 RMK SC8 SLP085=

CYXE;2005-11-04 04:00;METAR CYXE 040400Z 15010KT 15SM OVC013 02/M01 A2970 RMK SC8 SLP084=

CYXE;2005-11-04 04:47;SPECI CYXE 040447Z 14012KT 15SM SCT013 OVC080 01/ RMK SC3AC5=

CYXE;2005-11-04 05:00;METAR CYXE 040500Z 14010KT 15SM FEW013 SCT030 OVC054 01/M01 A2969 RMK SC1SC3SC4 SLP082=

CYXE;2005-11-04 06:00;METAR CYXE 040600Z 14011KT 15SM BKN018 OVC056 01/M01 A2967 RMK SC6SC2 SLP073=

CYXE;2005-11-04 07:00;METAR CYXE 040700Z 14010KT 15SM FEW018 BKN065 01/M01 A2966 RMK SF2SC2 SLP070=

CYXE;2005-11-04 08:00;METAR CYXE 040800Z 14011KT 15SM FEW018 FEW048 M00/M02 A2963 RMK SF1SC1 SLP060=

CYXE;2005-11-04 08:48;SPECI CYXE 040848Z 14012G17KT 15SM FEW007 M01/ RMK SF2=

CYXE;2005-11-04 09:00;METAR CYXE 040900Z 14013KT 15SM FEW007 M01/M02 A2962 RMK SF2 SLP055=

CYXE;2005-11-04 09:24;SPECI CYXE 040924Z 15011G16KT 15SM BKN009 M00/ RMK ST6=

CYXE;2005-11-04 10:00;METAR CYXE 041000Z 16013G20KT 15SM OVC007 00/M01 A2961 RMK ST8 SLP051=

CYXE;2005-11-04 11:00;METAR CYXE 041100Z 16010G18KT 15SM OVC007 M00/M02 A2960 RMK ST8 SLP050=

CYXE;2005-11-04 11:45;SPECI CYXE 041145Z 16014KT 15SM OVC006 M00/ RMK ST8=

CYXE;2005-11-04 12:00;METAR CYXE 041200Z 16010G16KT 15SM OVC006 M00/M02 A2960 RMK ST8 SLP048=

CYXE;2005-11-04 13:00;METAR CYXE 041300Z 16012G19KT 15SM OVC007 M00/M02 A2959 RMK ST8 SLP045=

CYXE;2005-11-04 14:00;METAR CYXE 041400Z 16014KT 15SM OVC008 M00/M02 A2959 RMK SF8 SLP044=

CYXE;2005-11-04 15:00;METAR CYXE 041500Z 13011G18KT 15SM OVC009 00/M02 A2958 RMK SF8 SLP039=

CYXE;2005-11-04 15:45;SPECI CYXE 041545Z 14012G18KT 15SM OVC010 00/ RMK SF8=

CYXE;2005-11-04 16:00;METAR CYXE 041600Z 15017KT 15SM OVC010 00/M02 A2958 RMK SF8 SLP039=

CYXE;2005-11-04 17:00;METAR CYXE 041700Z 15013KT 15SM OVC010 01/M02 A2957 RMK SF8 SLP038=

CYXE;2005-11-04 18:00;METAR CYXE 041800Z 15013KT 15SM OVC010 01/M01 A2957 RMK SF8 SLP037=

CYXE;2005-11-04 18:51;SPECI CYXE 041851Z 14013G19KT 4SM -SHSN OVC012 01/ RMK SF8=

CYXE;2005-11-04 19:00;METAR CYXE 041900Z 14013G19KT 1SM R09/P6000FT/N -SHSN OVC008 01/M01 A2955 RMK SN3SF5 SLP032=

CYXE;2005-11-04 19:18;SPECI CYXE 041918Z 15013G20KT 5/8SM R09/P6000FT/N -SHSN VV005 01/ RMK SN8=

CYXE;2005-11-04 19:33;SPECI CYXE 041933Z 14011G17KT 1/2SM R09/P6000FT/N SHSN VV005 00/ RMK SN8=

CYXE;2005-11-04 19:54;SPECI CYXE 041954Z 14013KT 1/2SM R09/5500FT/D SHSN VV004 00/ RMK SN8=

CYXE;2005-11-04 20:00;METAR CYXE 042000Z 13011KT 1/2SM R09/6000FT/U SHSN VV005 00/M01 A2954 RMK SN8 SLP027=

CYXE;2005-11-04 21:00;METAR CYXE 042100Z 13011KT 1 1/4SM -SHSN VV007 00/M00 A2953 RMK SN8 SLP026=

CYXE;2005-11-04 21:35;SPECI CYXE 042135Z 14011G16KT 4SM -SHSN OVC005 00/ RMK SF8=

CYXE;2005-11-04 22:00;METAR CYXE 042200Z 14012KT 8SM -SN OVC008 00/M00 A2952 RMK SC8 SLP023=

CYXE;2005-11-04 22:27;SPECI CYXE 042227Z 14011KT 3SM -SN OVC010 00/ RMK SC8=

CYXE;2005-11-04 22:46;SPECI CYXE 042246Z 14010KT 2 1/2SM -SN OVC009 00/ RMK SC8=

CYXE;2005-11-04 23:00;METAR CYXE 042300Z 14012KT 1 1/2SM -SN OVC008 01/M00 A2952 RMK SN2SC6 SLP021=

CYXE;2005-11-04 23:19;SPECI CYXE 042319Z 14010KT 1SM R09/P6000FT/D -SN OVC006 00/ RMK SN4SC4=

CYXE;2005-11-05 00:00;METAR CYXE 050000Z 13010KT 8SM -SN OVC006 01/M00 A2951 RMK SC8 SLP017=

CYXE;2005-11-05 00:32;SPECI CYXE 050032Z 13009KT 10SM OVC006 01/ RMK ST8=

CYXE;2005-11-05 01:00;METAR CYXE 050100Z 14012KT 10SM OVC006 01/M00 A2950 RMK ST8 SLP015=

CYXE;2005-11-05 02:00;METAR CYXE 050200Z 13009KT 10SM OVC005 01/00 A2949 RMK ST8 SLP012=

CYXE;2005-11-05 03:00;METAR CYXE 050300Z 14009KT 10SM OVC005 01/00 A2949 RMK ST8 SLP009=

CYXE;2005-11-05 03:43;SPECI CYXE 050343Z 14007KT 8SM OVC004 01/ RMK ST8=

CYXE;2005-11-05 04:00;METAR CYXE 050400Z 14008KT 8SM OVC004 01/00 A2949 RMK ST8 SLP009=

CYXE;2005-11-05 04:12;SPECI CYXE 050412Z 13008KT 8SM OVC005 01/ RMK ST8=

CYXE;2005-11-05 04:32;SPECI CYXE 050432Z 14007KT 8SM OVC004 01/ RMK ST8=

CYXE;2005-11-05 05:00;METAR CYXE 050500Z 14004KT 8SM OVC005 01/00 A2948 RMK ST8 SLP008=

CYXE;2005-11-05 05:23;SPECI CYXE 050523Z 14006KT 8SM OVC004 01/ RMK ST8=

CYXE;2005-11-05 06:00;METAR CYXE 050600Z 13005KT 8SM OVC005 01/00 A2949 RMK ST8 SLP008=

CYXE;2005-11-05 07:00;METAR CYXE 050700Z 00000KT 10SM OVC005 01/00 A2949 RMK ST8 SLP010=

CYXE;2005-11-05 08:00;METAR CYXE 050800Z 00000KT 10SM OVC006 01/00 A2950 RMK ST8 SLP012=

CYXE;2005-11-05 09:00;METAR CYXE 050900Z 24004KT 3SM BR OVC002 01/00 A2951 RMK ST8 SLP019=

CYXE;2005-11-05 09:22;SPECI CYXE 050922Z 25004KT 3SM -SN OVC002 RMK ST8=

CYXE;2005-11-05 09:32;SPECI CYXE 050932Z 25005KT 1/2SM R09/P6000FT/D -SN FG OVC002 01/ RMK ST8=

CYXE;2005-11-05 09:39;SPECI CYXE 050939Z 25005KT 1/2SM R09/4000V6000FT/D -SN FG VV001 01/ RMK SN8=

CYXE;2005-11-05 09:49;SPECI CYXE 050949Z 25005KT 1/2SM R09/3500FT/D FG VV001 01/ RMK FG8 -SN INTMT=

CYXE;2005-11-05 10:00;METAR CYXE 051000Z 26005KT 3/8SM R09/3500FT/U FG VV001 01/00 A2952 RMK FG8 -SN INTMT SLP020=

CYXE;2005-11-05 10:14;SPECI CYXE 051014Z 27007KT 3/4SM R09/3500FT/U BR VV001 01/ RMK FG8 -SN INTMT=

CYXE;2005-11-05 10:29;SPECI CYXE 051029Z 27008KT 1/2SM R09/3500FT/D FG VV001 01/ RMK FG8 -SN INTMT=

CYXE;2005-11-05 10:43;SPECI CYXE 051043Z 28007KT 2SM R09/4000VP6000FT/U -SN BR OVC001 01/ RMK ST8=

CYXE;2005-11-05 10:53;SPECI CYXE 051053Z 29006KT 5SM -SN OVC002 01/ RMK ST8=

CYXE;2005-11-05 11:00;METAR CYXE 051100Z 29006KT 5SM -SN OVC003 01/00 A2953 RMK ST8 SLP023=

CYXE;2005-11-05 11:38;SPECI CYXE 051138Z 28008KT 2 1/2SM -SN OVC003 00/ RMK ST8=

CYXE;2005-11-05 11:42;SPECI CYXE 051142Z 28008KT 1 1/2SM -SN OVC003 00/ RMK SN5ST3=

CYXE;2005-11-05 12:00;METAR CYXE 051200Z 28009KT 1SM R09/P6000FT/D -SN VV003 00/M00 A2955 RMK SN8 SLP029=

CYXE;2005-11-05 12:48;SPECI CYXE 051248Z 29010KT 3SM -SN OVC004 00/ RMK SN2ST6=

CYXE;2005-11-05 13:00;METAR CYXE 051300Z 30008KT 6SM -SN FEW004 OVC025 00/M00 A2956 RMK SF2SC6 SLP033=

CYXE;2005-11-05 14:00;METAR CYXE 051400Z 28008KT 6SM BR BKN003 OVC020 00/M01 A2959 RMK SF6SC2 SLP042=

CYXE;2005-11-05 14:47;SPECI CYXE 051447Z 29007KT 8SM OVC002 M00/ RMK ST8 BR=

CYXE;2005-11-05 15:00;METAR CYXE 051500Z 30007KT 8SM OVC003 M00/M01 A2960 RMK ST8 BR SLP049=

CYXE;2005-11-05 15:38;SPECI CYXE 051538Z 30007KT 12SM OVC002 M00/ RMK ST8=

CYXE;2005-11-05 16:00;METAR CYXE 051600Z 30005KT 15SM OVC004 00/M01 A2962 RMK ST8 SLP054=

CYXE;2005-11-05 16:29;SPECI CYXE 051629Z 29006KT 10SM OVC006 00/ RMK ST8 BR=

CYXE;2005-11-05 17:00;METAR CYXE 051700Z 29008KT 12SM OVC007 01/00 A2964 RMK SF8 SLP060=

CYXE;2005-11-05 17:54;SPECI CYXE 051754Z 28011KT 15SM OVC011 01/ RMK SF8=

CYXE;2005-11-05 18:00;METAR CYXE 051800Z 29011KT 15SM OVC011 01/00 A2965 RMK SF8 SLP066=

CYXE;2005-11-05 19:00;METAR CYXE 051900Z 29008KT 15SM BKN012 OVC025 02/00 A2966 RMK SC7SC1 SLP067=

CYXE;2005-11-05 19:49;SPECI CYXE 051949Z 30008KT 15SM OVC018 02/ RMK SC8=

CYXE;2005-11-05 20:00;METAR CYXE 052000Z 30007KT 15SM OVC020 02/M00 A2967 RMK SC8 SLP070=

CYXE;2005-11-05 21:00;METAR CYXE 052100Z 30009KT 15SM BKN017 OVC025 02/M00 A2968 RMK SC6SC2 SLP073=

CYXE;2005-11-05 22:00;METAR CYXE 052200Z 29006KT 15SM BKN023 02/M01 A2968 RMK SC7 SLP075=

CYXE;2005-11-05 23:00;METAR CYXE 052300Z 29005KT 15SM SCT025 SCT250 00/M03 A2969 RMK SC3CI1 SLP077=

CYXE;2005-11-06 00:00;METAR CYXE 060000Z 27005KT 15SM FEW025 SCT250 M01/M03 A2970 RMK SC2CI2 SLP082=

CYXE;2005-11-06 01:00;METAR CYXE 060100Z 24003KT 15SM FEW025 SCT250 M02/M04 A2971 RMK SC1CI2 SLP086=

CYXE;2005-11-06 02:00;METAR CYXE 060200Z 24005KT 15SM SCT250 M03/M05 A2971 RMK CI2 SLP087=

CYXE;2005-11-06 03:00;METAR CYXE 060300Z 25004KT 15SM SCT250 M04/M05 A2971 RMK CI2 SLP089=

CYXE;2005-11-06 04:00;METAR CYXE 060400Z 24004KT 15SM SCT250 M04/M05 A2970 RMK CI1 SLP087=

CYXE;2005-11-06 05:00;METAR CYXE 060500Z 21005KT 15SM SCT250 M04/M05 A2970 RMK CI1 SLP086=

CYXE;2005-11-06 06:00;METAR CYXE 060600Z 20003KT 15SM FEW250 M04/M05 A2969 RMK CI1 SLP082=

CYXE;2005-11-06 07:00;METAR CYXE 060700Z 19002KT 15SM FEW250 M04/M05 A2969 RMK CI1 SLP080=

CYXE;2005-11-06 08:00;METAR CYXE 060800Z 18002KT 15SM FEW250 M04/M05 A2968 RMK CI1 SLP078=

CYXE;2005-11-06 09:00;METAR CYXE 060900Z 18002KT 15SM FEW250 M04/M05 A2968 RMK CI1 PRFG MIFG SLP079=

CYXE;2005-11-06 10:00;METAR CYXE 061000Z 10002KT 15SM FEW250 M05/M06 A2967 RMK CI1 MIFG SLP075=

CYXE;2005-11-06 12:00;METAR CYXE 061200Z 00000KT 15SM SKC M07/M07 A2968 RMK PRFG SLP083=

CYXE;2005-11-06 13:00;METAR CYXE 061300Z 07004KT 15SM SKC M07/M09 A2968 RMK MIFG SLP082=

CYXE;2005-11-06 14:00;METAR CYXE 061400Z 08005KT 8SM FEW120 BKN250 M06/M08 A2968 RMK AC1CI2 BR SLP082=

CYXE;2005-11-06 15:00;METAR CYXE 061500Z 09002KT 15SM BKN250 M05/M07 A2969 RMK CI2 SLP086=

CYXE;2005-11-06 16:00;METAR CYXE 061600Z 12002KT 10SM FEW250 M02/M03 A2969 RMK CI1 BR SLP085=

CYXE;2005-11-06 17:00;METAR CYXE 061700Z 12004KT 15SM FEW120 FEW250 M01/M02 A2968 RMK AC1CI1 SLP083=

CYXE;2005-11-06 18:00;METAR CYXE 061800Z 12004KT 15SM FEW005 FEW120 BKN250 00/M03 A2968 RMK SF1AC1CI2 SLP077=

CYXE;2005-11-06 19:00;METAR CYXE 061900Z 10006KT 15SM FEW012 SCT250 02/M03 A2966 RMK SF1CI2 SLP073=

CYXE;2005-11-06 20:00;METAR CYXE 062000Z 10008KT 15SM FEW015 FEW100 BKN250 02/M03 A2966 RMK SF1AC1CI2 SLP072=

CYXE;2005-11-06 21:00;METAR CYXE 062100Z 09009KT 15SM FEW020 FEW095 BKN250 02/M04 A2967 RMK SF1AC1CI2 SLP072=

CYXE;2005-11-06 22:00;METAR CYXE 062200Z 09008KT 15SM FEW020 BKN250 02/M04 A2968 RMK SC1CI2 SLP076=

CYXE;2005-11-06 23:00;METAR CYXE 062300Z 08006KT 15SM FEW020 FEW140 BKN250 00/M04 A2969 RMK SC1AC1CI3 SLP079=

CYXE;2005-11-07 00:00;METAR CYXE 070000Z 08006KT 15SM FEW140 OVC250 M01/M04 A2970 RMK AC1CS3 SLP089=

CYXE;2005-11-07 01:00;METAR CYXE 070100Z 07007KT 15SM BKN250 M02/M04 A2971 RMK CI4 SLP092=

CYXE;2005-11-07 02:00;METAR CYXE 070200Z 08005KT 15SM BKN250 M03/M04 A2972 RMK CI3 SLP096=

CYXE;2005-11-07 03:00;METAR CYXE 070300Z 05005KT 15SM FEW050 BKN250 M04/M05 A2974 RMK SC2CI3 SLP103=

CYXE;2005-11-07 04:00;METAR CYXE 070400Z 04004KT 15SM FEW050 BKN250 M04/M05 A2976 RMK SC1CI2 SLP109=

CYXE;2005-11-07 05:00;METAR CYXE 070500Z 05004KT 15SM BKN250 M05/M06 A2977 RMK CI3 SLP112=

CYXE;2005-11-07 06:00;METAR CYXE 070600Z 04007KT 15SM FEW250 M06/M08 A2978 RMK CI1 SLP116=

CYXE;2005-11-07 07:00;METAR CYXE 070700Z 05004KT 15SM FEW250 M06/M07 A2980 RMK CI1 SLP122=

CYXE;2005-11-07 08:00;METAR CYXE 070800Z 05005KT 15SM SCT250 M06/M07 A2982 RMK CI2 SLP129=

CYXE;2005-11-07 09:00;METAR CYXE 070900Z 05005KT 15SM FEW060 SCT250 M06/M07 A2984 RMK SC2CI1 SLP134=

CYXE;2005-11-07 10:00;METAR CYXE 071000Z 06006KT 15SM FEW060 FEW250 M06/M08 A2986 RMK SC1CI1 SLP139=

CYXE;2005-11-07 10:25;SPECI CYXE 071025Z 10003KT 6SM BR SKC M07/ RMK FG3 VSBY W-NE 1/2=

CYXE;2005-11-07 10:40;SPECI CYXE 071040Z 11004KT 6SM BR SCT002 M06/ RMK FG2SF2 VIS W-N 1/4=

CYXE;2005-11-07 11:00;METAR CYXE 071100Z 07004KT 6SM R09/1600V4500FT/D BR BKN001 M06/M08 A2987 RMK FG2ST2 VIS W-E 1/4 SLP144=

CYXE;2005-11-07 11:08;SPECI CYXE 071108Z 07005KT 1/4SM R09/1600V2200FT/D FZFG VV001 M06/ RMK FG8=

CYXE;2005-11-07 11:17;SPECI CYXE 071117Z 07004KT 1/8SM R09/1400FT/N FZFG VV001 M06/ RMK FG8=

CYXE;2005-11-07 12:00;METAR CYXE 071200Z 06002KT 1/8SM R09/1200FT/N FZFG BKN060 M06/M08 A2990 RMK FG6SC1 SLP156=

CYXE;2005-11-07 12:27;SPECI CYXE 071227Z 04004KT 1/8SM R09/1600V3500FT/U FZFG VV001 M06/ RMK FG8=

CYXE;2005-11-07 12:33;SPECI CYXE 071233Z 04003KT 1/4SM R09/3500FT/U FZFG VV001 M06/ RMK FG8=

CYXE;2005-11-07 13:00;METAR CYXE 071300Z 06005KT 1/4SM R09/2400FT/N FZFG OVC055 M05/M06 A2991 RMK FG6SC1 SLP161=

CYXE;2005-11-07 13:21;SPECI CYXE 071321Z 07006KT 3/8SM R09/3000FT/N FZFG VV001 M05/ RMK FG8=

CYXE;2005-11-07 13:46;SPECI CYXE 071346Z 05004KT 1/8SM R09/2200FT/N FZFG VV001 M05/ RMK FG8=

CYXE;2005-11-07 14:00;METAR CYXE 071400Z 05005KT 1/4SM R09/2400FT/N FZFG SKC M05/M06 A2994 RMK FG6 SLP168=

CYXE;2005-11-07 14:40;SPECI CYXE 071440Z 09005KT 1/2SM R09/2800V4500FT/D FZFG FEW001 BKN060 M05/ RMK SF2SC3=

CYXE;2005-11-07 15:00;METAR CYXE 071500Z 09004KT 1/2SM R09/3000FT/D FZFG BKN060 M05/M07 A2996 RMK FG2SC4 SLP177=

CYXE;2005-11-07 15:32;SPECI CYXE 071532Z 10003KT 1SM R09/3500V6000FT/U BR SCT004 OVC070 M05/ RMK SF3AC4=

CYXE;2005-11-07 16:00;METAR CYXE 071600Z 08004KT 5SM BR SCT003 OVC075 M05/M06 A2996 RMK SF2AC5 SLP178=

CYXE;2005-11-07 17:00;METAR CYXE 071700Z 08004KT 8SM FEW003 BKN080 M04/M05 A2996 RMK SF2AC5 BR SLP179=

CYXE;2005-11-07 18:00;METAR CYXE 071800Z 11003KT 8SM FEW004 SCT070 M03/M03 A2996 RMK SF2AC2 BR SLP179=

CYXE;2005-11-07 19:00;METAR CYXE 071900Z 09005KT 8SM FEW005 SCT070 M01/M02 A2996 RMK SF1AC2 BR SLP179=

CYXE;2005-11-07 20:00;METAR CYXE 072000Z 11005KT 10SM FEW009 FEW070 M00/M02 A2995 RMK SF2AC1 BR SLP175=

CYXE;2005-11-07 20:23;SPECI CYXE 072023Z 11003KT 12SM BKN013 M00/ RMK ST4 BR=

CYXE;2005-11-07 21:00;METAR CYXE 072100Z 11005KT 12SM BKN016 M00/M02 A2995 RMK SC7 BR SLP174=

CYXE;2005-11-07 21:19;SPECI CYXE 072119Z 11007KT 12SM OVC009 M00/ RMK ST7 BR=

CYXE;2005-11-07 21:30;SPECI CYXE 072130Z 13006KT 12SM OVC007 M00/ RMK ST8 BR=

CYXE;2005-11-07 22:00;METAR CYXE 072200Z 13004KT 10SM OVC008 M00/M01 A2996 RMK SF8 BR SLP177=

CYXE;2005-11-07 22:31;SPECI CYXE 072231Z 19005KT 15SM FEW008 OVC013 M00/ RMK SF2SC6=

CYXE;2005-11-07 23:00;METAR CYXE 072300Z 20004KT 15SM OVC010 M01/M02 A2996 RMK SC8 SLP176=

CYXE;2005-11-07 23:47;SPECI CYXE 072347Z 14005KT 8SM OVC008 M01/ RMK SF8 BR=

CYXE;2005-11-08 00:00;METAR CYXE 080000Z 13003KT 8SM OVC008 M01/M02 A2996 RMK SF8 BR SLP178=

CYXE;2005-11-08 01:00;METAR CYXE 080100Z 13005KT 8SM OVC008 M01/M02 A2997 RMK SF8 BR SLP179=

CYXE;2005-11-08 02:00;METAR CYXE 080200Z 12005KT 8SM OVC008 M01/M02 A2995 RMK SF8 BR SLP175=

CYXE;2005-11-08 03:00;METAR CYXE 080300Z 13006KT 6SM BR OVC006 M01/M02 A2996 RMK SF8 SLP176=

CYXE;2005-11-08 03:24;SPECI CYXE 080324Z 12007KT 6SM BR OVC004 M01/ RMK SF8=

CYXE;2005-11-08 04:00;METAR CYXE 080400Z 14009KT 4SM BR OVC004 M01/M02 A2995 RMK SF8 SLP171=

CYXE;2005-11-08 05:00;METAR CYXE 080500Z 15006KT 4SM BR OVC004 M02/M03 A2994 RMK SF8 SLP169=

CYXE;2005-11-08 05:20;SPECI CYXE 080520Z 13007KT 3SM BR OVC003 M02/ RMK SF8 TOWER OBS=

CYXE;2005-11-08 05:46;SPECI CYXE 080546Z 13006KT 4SM BR OVC004 M01/ RMK SF8 TOWER OBS=

CYXE;2005-11-08 06:00;METAR CYXE 080600Z 14008KT 4SM BR OVC004 M01/M02 A2993 RMK SF8 TOWER OBS SLP163=

CYXE;2005-11-08 06:19;SPECI CYXE 080619Z 14005KT 8SM OVC005 M01/ RMK ST8=

CYXE;2005-11-08 07:00;METAR CYXE 080700Z 14003KT 10SM OVC006 M01/M02 A2991 RMK ST8 SLP159=

CYXE;2005-11-08 08:00;METAR CYXE 080800Z 13005KT 7SM OVC005 M01/M02 A2990 RMK ST8 SLP154=

CYXE;2005-11-08 09:00;METAR CYXE 080900Z 14006KT 15SM OVC005 M01/M02 A2988 RMK ST8 SLP145=

CYXE;2005-11-08 09:17;SPECI CYXE 080917Z 14005KT 7SM OVC004 M01/ RMK ST8=

CYXE;2005-11-08 10:00;METAR CYXE 081000Z 14003KT 8SM OVC004 M01/M02 A2987 RMK ST8 SLP142=

CYXE;2005-11-08 11:00;METAR CYXE 081100Z 14004KT 8SM OVC005 M01/M02 A2986 RMK ST8 SLP138=

CYXE;2005-11-08 12:00;METAR CYXE 081200Z 13003KT 7SM -SN OVC005 M01/M02 A2985 RMK ST8 SLP134=

CYXE;2005-11-08 13:00;METAR CYXE 081300Z 07004KT 6SM -SN OVC005 M01/M02 A2984 RMK ST8 SLP131=

CYXE;2005-11-08 13:22;SPECI CYXE 081322Z 09005KT 5SM -SN OVC004 M01/ RMK ST8=

CYXE;2005-11-08 14:00;METAR CYXE 081400Z 05004KT 5SM -SN OVC004 M01/M02 A2983 RMK ST8 SLP129=

CYXE;2005-11-08 14:23;SPECI CYXE 081423Z 05004KT 3SM -SN BR OVC007 M01/ RMK ST8=

CYXE;2005-11-08 15:00;METAR CYXE 081500Z 03004KT 3SM -SN BR OVC006 M01/M01 A2984 RMK ST8 SLP131=

CYXE;2005-11-08 16:00;METAR CYXE 081600Z 04004KT 3SM BR OVC006 M00/M01 A2983 RMK ST8 SLP128=

CYXE;2005-11-08 16:20;SPECI CYXE 081620Z 03005KT 4SM BR OVC003 M00/ RMK ST8=

CYXE;2005-11-08 16:41;SPECI CYXE 081641Z 04006KT 4SM BR OVC004 M00/ RMK ST8=

CYXE;2005-11-08 17:00;METAR CYXE 081700Z 02007KT 4SM BR OVC003 M00/M01 A2983 RMK ST8 SLP129=

CYXE;2005-11-08 18:00;METAR CYXE 081800Z 02006KT 8SM OVC006 00/M01 A2984 RMK ST8 BR SLP132=

CYXE;2005-11-08 19:00;METAR CYXE 081900Z 36008KT 10SM OVC008 00/M02 A2984 RMK ST8 BR SLP133=

CYXE;2005-11-08 19:47;SPECI CYXE 081947Z 36007KT 15SM OVC010 00/ RMK ST8=

CYXE;2005-11-08 20:00;METAR CYXE 082000Z 36009KT 15SM OVC010 00/M02 A2986 RMK ST8 SLP140=

CYXE;2005-11-08 20:41;SPECI CYXE 082041Z 03008KT 6SM -SN OVC010 00/ RMK ST8=

CYXE;2005-11-08 21:00;METAR CYXE 082100Z 36007KT 5SM -SN OVC010 00/M02 A2988 RMK ST8 SLP146=

CYXE;2005-11-08 21:22;SPECI CYXE 082122Z 35004KT 4SM -SN OVC008 00/ RMK ST8=

CYXE;2005-11-08 22:00;METAR CYXE 082200Z 34006KT 2SM -SN OVC007 M00/M02 A2992 RMK SF8 VIS SE 1 SLP158=

CYXE;2005-11-08 22:05;SPECI CYXE 082205Z 33006KT 1 1/2SM -SN OVC007 M00/ RMK SF8=

CYXE;2005-11-08 22:27;SPECI CYXE 082227Z 36008KT 4SM -SN OVC009 M00/ RMK SF8=

CYXE;2005-11-08 22:36;SPECI CYXE 082236Z 35008KT 6SM -SHSN SCT008 OVC014 M00/ RMK SF4SC4=

CYXE;2005-11-08 23:00;METAR CYXE 082300Z 34008KT 15SM OVC012 M00/M03 A2995 RMK SC8 SLP168=

CYXE;2005-11-09 00:00;METAR CYXE 090000Z 01006KT 15SM OVC014 M00/M03 A2996 RMK SC8 SLP174=

CYXE;2005-11-09 00:14;SPECI CYXE 090014Z 35004KT 15SM OVC016 M01/ RMK SC8=

CYXE;2005-11-09 01:00;METAR CYXE 090100Z 31004KT 15SM OVC016 M00/M03 A2998 RMK SC8 SLP180=

CYXE;2005-11-09 01:22;SPECI CYXE 090122Z 30004KT 15SM OVC014 M00/ RMK SC8=

CYXE;2005-11-09 02:00;METAR CYXE 090200Z 30007KT 15SM OVC014 M01/M04 A3000 RMK SC8 SLP187=

CYXE;2005-11-09 03:00;METAR CYXE 090300Z 32008KT 15SM OVC014 M01/M04 A3001 RMK SC8 SLP191=

CYXE;2005-11-09 04:00;METAR CYXE 090400Z 31008KT 15SM OVC014 M02/M05 A3004 RMK SC8 SLP199=

CYXE;2005-11-09 04:36;SPECI CYXE 090436Z 29005KT 15SM OVC016 M01/ RMK SC8=

CYXE;2005-11-09 05:00;METAR CYXE 090500Z 28005KT 15SM OVC016 M01/M04 A3004 RMK SC8 SLP201=

CYXE;2005-11-09 05:12;SPECI CYXE 090512Z 28005KT 15SM OVC014 M01/ RMK SC8=

CYXE;2005-11-09 06:00;METAR CYXE 090600Z 27005KT 15SM OVC014 M01/M04 A3005 RMK SC8 SLP203=

CYXE;2005-11-09 07:00;METAR CYXE 090700Z 28008KT 15SM OVC014 M02/M05 A3005 RMK SC8 SLP203=

CYXE;2005-11-09 08:00;METAR CYXE 090800Z 26009KT 15SM OVC017 M02/M06 A3004 RMK SC8 SLP201=

CYXE;2005-11-09 09:00;METAR CYXE 090900Z 24010KT 15SM OVC015 M03/M06 A3004 RMK ST8 SLP201=

CYXE;2005-11-09 10:00;METAR CYXE 091000Z 25009KT 15SM OVC011 M04/M06 A3003 RMK SC8 SLP198=

CYXE;2005-11-09 11:00;METAR CYXE 091100Z 24007KT 12SM OVC007 M04/M06 A3002 RMK SC8 SLP196=

CYXE;2005-11-09 11:21;SPECI CYXE 091121Z 21010KT 6SM BR OVC006 M04/ RMK ST8=

CYXE;2005-11-09 12:00;METAR CYXE 091200Z 21008KT 6SM BR OVC004 M04/M06 A3001 RMK ST8 SLP193=

CYXE;2005-11-09 12:09;SPECI CYXE 091209Z 21010KT 5SM BR OVC005 M04/ RMK ST8=

CYXE;2005-11-09 12:47;SPECI CYXE 091247Z 20010KT 5SM BR OVC004 M04/ RMK ST8=

CYXE;2005-11-09 13:00;METAR CYXE 091300Z 21010G16KT 5SM BR OVC004 M04/M06 A3000 RMK ST8 SLP191=

CYXE;2005-11-09 13:36;SPECI CYXE 091336Z 19011KT 5SM BR OVC003 M05/ RMK ST8=

CYXE;2005-11-09 13:50;SPECI CYXE 091350Z 18009KT 2SM BR OVC003 M05/ RMK ST8=

CYXE;2005-11-09 14:00;METAR CYXE 091400Z 20009KT 3SM BR OVC003 M04/M06 A2999 RMK ST8 SLP185=

CYXE;2005-11-09 15:00;METAR CYXE 091500Z 18011KT 3SM BR OVC003 M05/M06 A2997 RMK ST7 SLP179=

CYXE;2005-11-09 15:35;SPECI CYXE 091535Z 19010KT 5SM BR BKN004 M05/ RMK ST4=

CYXE;2005-11-09 15:46;SPECI CYXE 091546Z 19008KT 6SM BR SCT006 M05/ RMK ST3=

CYXE;2005-11-09 16:00;METAR CYXE 091600Z 19012KT 6SM BR SCT006 M04/M06 A2996 RMK SF2 SLP176=

CYXE;2005-11-09 17:00;METAR CYXE 091700Z 18012KT 12SM FEW006 M02/M06 A2992 RMK SF1 BR SLP164=

CYXE;2005-11-09 18:00;METAR CYXE 091800Z 18009KT 15SM FEW250 00/M05 A2990 RMK CI1 SLP151=

CYXE;2005-11-09 19:00;METAR CYXE 091900Z 19011KT 15SM BKN250 00/M05 A2988 RMK CS6 SLP145=

CYXE;2005-11-09 20:00;METAR CYXE 092000Z 17010KT 15SM BKN090 OVC250 00/M05 A2985 RMK AS5CS3 SLP135=

CYXE;2005-11-09 21:00;METAR CYXE 092100Z 18009KT 15SM SCT090 OVC150 01/M04 A2982 RMK AC3AS5 SLP125=

CYXE;2005-11-09 22:00;METAR CYXE 092200Z 18009KT 15SM BKN110 OVC240 01/M03 A2978 RMK AS6CI2 SLP114=

CYXE;2005-11-09 23:00;METAR CYXE 092300Z 17011KT 15SM BKN110 OVC240 01/M03 A2976 RMK AC5CI2 SLP105=

CYXE;2005-11-10 00:00;METAR CYXE 100000Z 17011KT 15SM FEW110 BKN240 M01/M04 A2972 RMK AC2CI2 SLP095=

CYXE;2005-11-10 01:00;METAR CYXE 100100Z 18008KT 15SM BKN240 M01/M03 A2970 RMK CI2 SLP087=

CYXE;2005-11-10 02:00;METAR CYXE 100200Z 18007KT 15SM BKN240 M01/M03 A2969 RMK CI2 SLP084=

CYXE;2005-11-10 03:00;METAR CYXE 100300Z 21008KT 15SM BKN240 M00/M03 A2968 RMK CI2 SLP078=

CYXE;2005-11-10 04:00;METAR CYXE 100400Z 22007KT 15SM SCT240 M01/M03 A2967 RMK CI2 SLP075=

CYXE;2005-11-10 05:00;METAR CYXE 100500Z 25008KT 15SM FEW110 M00/M02 A2968 RMK AS2 SLP079=

CYXE;2005-11-10 06:00;METAR CYXE 100600Z 22006KT 15SM BKN110 M02/M03 A2968 RMK AS2 SLP076=

CYXE;2005-11-10 07:00;METAR CYXE 100700Z 21006KT 15SM OVC120 01/M02 A2968 RMK AS6 SLP075=

CYXE;2005-11-10 08:00;METAR CYXE 100800Z 20008KT 15SM SCT120 OVC250 02/M01 A2967 RMK AS3CS4 SLP074=

CYXE;2005-11-10 09:00;METAR CYXE 100900Z 21007KT 15SM BKN250 01/M01 A2967 RMK CI2 SLP072=

CYXE;2005-11-10 10:00;METAR CYXE 101000Z 20007KT 15SM BKN250 01/M01 A2967 RMK CI2 SLP070=

CYXE;2005-11-10 11:00;METAR CYXE 101100Z 21009KT 15SM BKN250 01/M02 A2968 RMK CI3 SLP073=

CYXE;2005-11-10 12:00;METAR CYXE 101200Z 19005KT 15SM BKN250 01/M02 A2965 RMK CI2 SLP067=

CYXE;2005-11-10 13:00;METAR CYXE 101300Z 19007KT 15SM SCT250 M00/M02 A2964 RMK CI0 SLP063=

CYXE;2005-11-10 14:00;METAR CYXE 101400Z 20009KT 15SM BKN250 01/M02 A2963 RMK CI3 SLP060=

CYXE;2005-11-10 15:00;METAR CYXE 101500Z 19008KT 15SM BKN250 01/M01 A2962 RMK CI3 SLP055=

CYXE;2005-11-10 16:00;METAR CYXE 101600Z 19010KT 15SM FEW100 BKN250 03/M01 A2960 RMK AC1CI3 SLP050=

CYXE;2005-11-10 17:00;METAR CYXE 101700Z 19009KT 15SM FEW094 BKN250 04/00 A2960 RMK AC2CI2 SLP048=

CYXE;2005-11-10 18:00;METAR CYXE 101800Z 20010KT 15SM BKN094 BKN280 06/01 A2957 RMK AC3CI4 SLP037=

CYXE;2005-11-10 19:00;METAR CYXE 101900Z 21012G18KT 15SM BKN091 BKN280 09/02 A2955 RMK AC4CI3 SLP029=

CYXE;2005-11-10 20:00;METAR CYXE 102000Z 21010G15KT 15SM BKN091 BKN280 09/02 A2953 RMK AC5CI2 SLP023=

CYXE;2005-11-10 21:00;METAR CYXE 102100Z 21013KT 15SM SCT091 BKN280 12/02 A2950 RMK AC2CI2 SLP005=

CYXE;2005-11-10 22:00;METAR CYXE 102200Z 21010KT 15SM SCT100 BKN280 11/03 A2947 RMK AC3CI1 SLP996=

CYXE;2005-11-10 23:00;METAR CYXE 102300Z 20007KT 15SM SCT100 BKN280 09/02 A2945 RMK AC3CI1 SLP991=

CYXE;2005-11-11 00:00;METAR CYXE 110000Z 19009KT 15SM BKN110 BKN280 09/03 A2943 RMK AC2CI2 SLP985=

CYXE;2005-11-11 01:00;METAR CYXE 110100Z 18006KT 15SM SCT280 06/02 A2941 RMK CI1 SLP979=

CYXE;2005-11-11 02:00;METAR CYXE 110200Z 18009KT 15SM SKC 05/02 A2938 RMK SLP969=

CYXE;2005-11-11 03:00;METAR CYXE 110300Z 18008KT 15SM SKC 05/01 A2936 RMK SLP961=

CYXE;2005-11-11 04:00;METAR CYXE 110400Z 18009KT 15SM SKC 06/02 A2934 RMK SLP957=

CYXE;2005-11-11 05:00;METAR CYXE 110500Z 19009KT 15SM SKC 06/01 A2933 RMK SLP953=

CYXE;2005-11-11 06:00;METAR CYXE 110600Z 24010KT 15SM SCT250 07/02 A2934 RMK CI1 SLP952=

CYXE;2005-11-11 07:00;METAR CYXE 110700Z 22011KT 15SM BKN250 05/01 A2936 RMK CI1 SLP957=

CYXE;2005-11-11 08:00;METAR CYXE 110800Z 25007KT 15SM BKN250 04/01 A2940 RMK CI2 SLP970=

CYXE;2005-11-11 09:00;METAR CYXE 110900Z 31012KT 15SM BKN250 04/01 A2944 RMK CI2 SLP985=

CYXE;2005-11-11 10:00;METAR CYXE 111000Z 32012KT 15SM SCT250 03/M00 A2949 RMK CI0 SLP001=

CYXE;2005-11-11 10:32;SPECI CYXE 111032Z 31011KT 15SM SCT250 02/ RMK CI0=

CYXE;2005-11-11 11:00;METAR CYXE 111100Z 31010KT 15SM FEW250 02/M02 A2954 RMK CI0 SLP015=

CYXE;2005-11-11 12:00;METAR CYXE 111200Z 28008KT 15SM FEW250 M01/M03 A2957 RMK CI0 SLP034=

CYXE;2005-11-11 13:00;METAR CYXE 111300Z 27006KT 15SM FEW250 M02/M04 A2960 RMK CI0 SLP043=

CYXE;2005-11-11 14:00;METAR CYXE 111400Z 27008KT 15SM SCT080 BKN250 M00/M02 A2965 RMK AC3CI1 SLP058=

CYXE;2005-11-11 15:00;METAR CYXE 111500Z 22003KT 15SM BKN080 BKN250 M02/M04 A2966 RMK AC5CI2 SLP068=

CYXE;2005-11-11 16:00;METAR CYXE 111600Z 19002KT 15SM BKN090 BKN250 01/M02 A2968 RMK AC6CI1 SLP074=

CYXE;2005-11-11 17:00;METAR CYXE 111700Z 21005KT 15SM BKN080 03/M01 A2970 RMK AC7 SLP081=

CYXE;2005-11-11 18:00;METAR CYXE 111800Z 26006KT 15SM BKN080 06/M02 A2970 RMK AC7 SLP077=

CYXE;2005-11-11 19:00;METAR CYXE 111900Z 25007KT 15SM BKN080 05/M03 A2970 RMK AC7 SLP075=

CYXE;2005-11-11 20:00;METAR CYXE 112000Z 29009KT 15SM FEW080 FEW250 06/M05 A2969 RMK AC2CI1 SLP074=

CYXE;2005-11-11 21:00;METAR CYXE 112100Z 30004KT 15SM FEW080 SCT250 06/M05 A2970 RMK AC2CI2 SLP075=

CYXE;2005-11-11 22:00;METAR CYXE 112200Z 32006KT 15SM FEW050 BKN088 BKN250 05/M05 A2969 RMK SC2AC2CI1 SLP073=

CYXE;2005-11-11 23:00;METAR CYXE 112300Z 26003KT 15SM BKN088 BKN250 02/M05 A2972 RMK AC5CI0 SLP081=

CYXE;2005-11-12 00:00;METAR CYXE 120000Z 22006KT 15SM OVC083 02/M04 A2973 RMK AC8 SLP093=

CYXE;2005-11-12 01:00;METAR CYXE 120100Z 22006KT 15SM OVC083 02/M04 A2975 RMK AC8 SLP098=

CYXE;2005-11-12 03:00;METAR CYXE 120300Z 24006KT 15SM OVC052 02/M03 A2975 RMK SC8 SLP100=

CYXE;2005-11-12 04:00;METAR CYXE 120400Z 21007KT 15SM BKN074 01/M04 A2973 RMK AC7 SLP094=

CYXE;2005-11-12 05:00;METAR CYXE 120500Z 28005KT 15SM FEW074 M02/M05 A2975 RMK AC2 SLP100=

CYXE;2005-11-12 06:00;METAR CYXE 120600Z 26002KT 15SM SKC M03/M05 A2975 RMK SLP099=

CYXE;2005-11-12 07:00;METAR CYXE 120700Z 26005KT 15SM FEW250 M02/M04 A2975 RMK CI0 SLP099=

CYXE;2005-11-12 08:00;METAR CYXE 120800Z 22005KT 15SM BKN250 M05/M06 A2975 RMK CI2 SLP098=

CYXE;2005-11-12 09:00;METAR CYXE 120900Z 24005KT 15SM OVC250 M03/M04 A2975 RMK CI4 SLP097=

CYXE;2005-11-12 10:00;METAR CYXE 121000Z 17005KT 15SM OVC250 M03/M05 A2975 RMK CI6 SLP098=

CYXE;2005-11-12 11:00;METAR CYXE 121100Z 19002KT 15SM OVC250 M03/M04 A2973 RMK CS6 SLP093=

CYXE;2005-11-12 12:00;METAR CYXE 121200Z 17003KT 15SM OVC250 M03/M04 A2974 RMK CS6 SLP099=

CYXE;2005-11-12 13:00;METAR CYXE 121300Z 21002KT 15SM OVC250 M03/M04 A2975 RMK CS8 SLP100=

CYXE;2005-11-12 14:00;METAR CYXE 121400Z 22002KT 15SM FEW030 FEW100 BKN250 M04/M05 A2976 RMK SC2AC1CI2 SLP105=

CYXE;2005-11-12 15:00;METAR CYXE 121500Z 00000KT 15SM FEW030 FEW100 SCT200 M05/M06 A2977 RMK SC1AC1CI2 SLP108=

CYXE;2005-11-12 16:00;METAR CYXE 121600Z 16004KT 15SM FEW100 FEW200 M04/M05 A2978 RMK AC1CI1 SLP113=

CYXE;2005-11-12 17:00;METAR CYXE 121700Z 16002KT 15SM FEW100 FEW200 01/M02 A2980 RMK AC1CI1 SLP118=

CYXE;2005-11-12 18:00;METAR CYXE 121800Z 14002KT 15SM BKN110 BKN220 04/M02 A2981 RMK AC2CI2 SLP120=

CYXE;2005-11-12 19:00;METAR CYXE 121900Z 16002KT 15SM FEW100 BKN200 04/M03 A2981 RMK AC2CI2 SLP122=

CYXE;2005-11-12 20:00;METAR CYXE 122000Z 07003KT 15SM BKN094 OVC220 05/M03 A2982 RMK AC5CI2 SLP123=

CYXE;2005-11-12 21:00;METAR CYXE 122100Z 04007KT 15SM BKN110 BKN220 04/M02 A2983 RMK AC6CI2 SLP128=

CYXE;2005-11-12 22:00;METAR CYXE 122200Z 05005KT 15SM BKN074 OVC110 03/M02 A2986 RMK AC5AC3 SLP136=

CYXE;2005-11-12 23:00;METAR CYXE 122300Z 01009KT 15SM OVC055 02/M03 A2988 RMK SC8 SLP142=

CYXE;2005-11-13 00:00;METAR CYXE 130000Z 01011KT 15SM OVC078 01/M03 A2990 RMK AC8 SLP152=

CYXE;2005-11-13 01:00;METAR CYXE 130100Z 01010KT 15SM OVC070 00/M04 A2993 RMK AC8 SLP162=

CYXE;2005-11-13 02:00;METAR CYXE 130200Z 36009KT 15SM OVC052 M01/M06 A2997 RMK SC8 SLP174=

CYXE;2005-11-13 03:00;METAR CYXE 130300Z 01011KT 15SM OVC032 M01/M07 A3000 RMK SC8 SLP190=

CYXE;2005-11-13 04:00;METAR CYXE 130400Z 36008KT 15SM OVC035 M02/M08 A3004 RMK SC8 SLP202=

CYXE;2005-11-13 05:00;METAR CYXE 130500Z 36012KT 15SM OVC042 M02/M09 A3006 RMK SC8 SLP209=

CYXE;2005-11-13 06:00;METAR CYXE 130600Z 01010KT 15SM FEW040 OVC070 M03/M09 A3008 RMK SC1AC7 SLP211=

CYXE;2005-11-13 07:00;METAR CYXE 130700Z 01010KT 15SM FEW040 OVC060 M04/M09 A3008 RMK SC1SC7 SLP214=

CYXE;2005-11-13 08:00;METAR CYXE 130800Z 36008KT 15SM FEW040 BKN250 M05/M09 A3010 RMK SC1CS2 SLP218=

CYXE;2005-11-13 09:00;METAR CYXE 130900Z 34004KT 15SM SCT250 M08/M10 A3010 RMK CI1 SLP224=

CYXE;2005-11-13 10:00;METAR CYXE 131000Z 31005KT 15SM FEW250 M09/M11 A3011 RMK CI1 SLP226=

CYXE;2005-11-13 11:00;METAR CYXE 131100Z 33005KT 15SM SCT250 M09/M11 A3010 RMK CI1 SLP223=

CYXE;2005-11-13 12:00;METAR CYXE 131200Z 31004KT 15SM SCT250 M10/M12 A3012 RMK CI1 SLP231=

CYXE;2005-11-13 13:00;METAR CYXE 131300Z 35002KT 15SM SCT200 M10/M12 A3011 RMK CI2 SLP229=

CYXE;2005-11-13 14:00;METAR CYXE 131400Z 20002KT 15SM BKN130 M09/M11 A3011 RMK AC2 SLP229=

CYXE;2005-11-13 15:00;METAR CYXE 131500Z 23003KT 15SM SCT130 M09/M11 A3011 RMK AC2 SLP229=

CYXE;2005-11-13 17:00;METAR CYXE 131700Z 18007KT 15SM FEW130 M05/M08 A3008 RMK AC1 SLP219=

CYXE;2005-11-13 18:00;METAR CYXE 131800Z 16005KT 15SM FEW130 M03/M08 A3006 RMK AC1 SLP210=

CYXE;2005-11-13 19:00;METAR CYXE 131900Z 19009KT 15SM FEW130 M01/M07 A3003 RMK AC1 SLP201=

CYXE;2005-11-13 20:00;METAR CYXE 132000Z 18009KT 15SM FEW020 FEW230 M01/M06 A3000 RMK SC1CI1 SLP192=

CYXE;2005-11-13 21:00;METAR CYXE 132100Z 16009KT 15SM FEW020 FEW110 OVC230 M01/M06 A2997 RMK SC1AC1CI3 SLP180=

CYXE;2005-11-13 22:00;METAR CYXE 132200Z 15014KT 15SM FEW020 FEW110 BKN230 M01/M06 A2994 RMK SC1AC1CI2 SLP170=

CYXE;2005-11-13 23:00;METAR CYXE 132300Z 16014KT 15SM OVC013 M03/M06 A2991 RMK SC8 SLP162=

CYXE;2005-11-14 00:00;METAR CYXE 140000Z 14009KT 15SM OVC012 M02/M05 A2990 RMK SC8 SLP158=

CYXE;2005-11-14 01:00;METAR CYXE 140100Z 14011KT 15SM OVC012 M02/M05 A2988 RMK SC8 SLP152=

CYXE;2005-11-14 02:00;METAR CYXE 140200Z 14009KT 15SM BKN014 OVC230 M03/M05 A2985 RMK SC5CI3 SLP144=

CYXE;2005-11-14 02:13;SPECI CYXE 140213Z 13008G16KT 15SM SCT015 OVC230 M02/ RMK SC3CI5=

CYXE;2005-11-14 03:00;METAR CYXE 140300Z 14013KT 15SM FEW015 OVC230 M02/M05 A2983 RMK SC1CI6 SLP134=

CYXE;2005-11-14 04:00;METAR CYXE 140400Z 13012G18KT 15SM BKN083 OVC230 M02/M04 A2980 RMK AC6CI2 SLP125=

CYXE;2005-11-14 05:00;METAR CYXE 140500Z 13013G20KT 15SM FEW012 OVC075 M02/M04 A2977 RMK SF1AC7 SLP117=

CYXE;2005-11-14 06:00;METAR CYXE 140600Z 13015KT 15SM FEW012 OVC065 M02/M04 A2976 RMK SC2AS6 SLP107=

CYXE;2005-11-14 07:00;METAR CYXE 140700Z 13013KT 15SM OVC047 M02/M04 A2975 RMK SC8 SLP104=

CYXE;2005-11-14 08:00;METAR CYXE 140800Z 11011KT 15SM OVC055 M02/M04 A2974 RMK SC8 SLP101=

CYXE;2005-11-14 09:00;METAR CYXE 140900Z 10011KT 15SM FEW010 OVC055 M02/M04 A2974 RMK SC1SC7 SLP100=

CYXE;2005-11-14 09:29;SPECI CYXE 140929Z 10011KT 15SM -SN FEW010 OVC055 M02/ RMK SC2SC6=

CYXE;2005-11-14 10:00;METAR CYXE 141000Z 09010G15KT 3SM -SN SCT010 OVC032 M02/M04 A2975 RMK SC4SC4 SLP102=

CYXE;2005-11-14 11:00;METAR CYXE 141100Z 08012KT 3SM -SN OVC010 M02/M04 A2976 RMK SC8 SLP106=

CYXE;2005-11-14 12:00;METAR CYXE 141200Z 07010KT 1 1/2SM -SN OVC008 M02/M03 A2978 RMK SC8 SLP115=

CYXE;2005-11-14 12:05;SPECI CYXE 141205Z 07011KT 4SM -SN OVC010 M02/ RMK SC8=

CYXE;2005-11-14 13:00;METAR CYXE 141300Z 07011KT 2 1/2SM -SN BKN010 OVC030 M02/M04 A2981 RMK SC6SC2 SLP125=

CYXE;2005-11-14 14:08;SPECI CYXE 141408Z 05011KT 1 1/2SM -SN BKN010 OVC180 M03/ RMK SC6CI2=

CYXE;2005-11-14 14:26;SPECI CYXE 141426Z 04011KT 3SM -SN FEW010 BKN062 OVC180 M03/ RMK SF2SC3CI2=

CYXE;2005-11-14 15:00;METAR CYXE 141500Z 05013KT 6SM -SN SCT034 OVC180 M03/M05 A2989 RMK SC4CI3 SLP151=

CYXE;2005-11-14 16:00;METAR CYXE 141600Z 04011KT 15SM FEW050 SCT084 OVC200 M03/M05 A2993 RMK SC2AC1CI4 SLP165=

CYXE;2005-11-14 17:00;METAR CYXE 141700Z 04011KT 15SM BKN011 BKN061 OVC200 M03/M05 A2998 RMK SF3SC2CI2 SLP180=

CYXE;2005-11-14 17:08;SPECI CYXE 141708Z 04010KT 15SM BKN011 BKN061 OVC200 M02/ RMK SF5SC2CI2=

CYXE;2005-11-14 17:32;SPECI CYXE 141732Z 03011KT 15SM -SN BKN011 OVC057 M02/ RMK SF6SC2=

CYXE;2005-11-14 18:00;METAR CYXE 141800Z 03010KT 2SM -SN BKN011 OVC053 M02/M05 A3001 RMK SF6SC2 SLP193=

CYXE;2005-11-14 18:09;SPECI CYXE 141809Z 04010KT 3SM -SN BKN011 OVC047 M02/ RMK SF6SC2=

CYXE;2005-11-14 19:00;METAR CYXE 141900Z 36012KT 2SM -SN DRSN OVC010 M03/M06 A3005 RMK SF8 SLP205=

CYXE;2005-11-14 19:14;SPECI CYXE 141914Z 36013KT 4SM -SN DRSN BKN010 OVC064 M03/ RMK SF6SC2=

CYXE;2005-11-14 20:00;METAR CYXE 142000Z 36013KT 2SM -SN DRSN OVC010 M04/M06 A3008 RMK SF8 SLP215=

CYXE;2005-11-14 20:16;SPECI CYXE 142016Z 36014G19KT 1SM R09/P6000FT/D -SN DRSN OVC010 M04/ RMK SN3SF5=

CYXE;2005-11-14 20:44;SPECI CYXE 142044Z 36016KT 1 1/2SM -SN DRSN OVC021 M04/ RMK SN3SC5=

CYXE;2005-11-14 21:00;METAR CYXE 142100Z 02014KT 4SM -SN DRSN OVC023 M04/M06 A3011 RMK SC8 SLP228=

CYXE;2005-11-14 21:25;SPECI CYXE 142125Z 01017KT 2SM -SN DRSN FEW011 OVC025 M04/ RMK SF2SC6=

CYXE;2005-11-14 21:47;SPECI CYXE 142147Z 36011G18KT 1 1/2SM -SN DRSN SCT011 BKN031 OVC220 M04/ RMK SF3SC2CI2=

CYXE;2005-11-14 22:00;METAR CYXE 142200Z 36012G17KT 3SM -SN DRSN BKN013 BKN031 OVC220 M04/M06 A3016 RMK SF5SC2CI1 SLP243=

CYXE;2005-11-14 22:13;SPECI CYXE 142213Z 36013G18KT 2SM -SN DRSN OVC046 M04/ RMK SN1SC7=

CYXE;2005-11-14 22:44;SPECI CYXE 142244Z 36013G18KT 2SM -SN DRSN BKN013 OVC230 M04/ RMK SN2SC6CI1=

CYXE;2005-11-14 23:00;METAR CYXE 142300Z 36013G18KT 4SM -SN DRSN SCT012 BKN035 OVC220 M04/M06 A3021 RMK SC3SC2CI1 SLP258=

CYXE;2005-11-14 23:28;SPECI CYXE 142328Z 36018KT 1 1/2SM -SN DRSN BKN012 OVC050 M05/ RMK SN2SC4SC2=

CYXE;2005-11-14 23:54;SPECI CYXE 142354Z 35017G22KT 4SM -SN DRSN SCT020 OVC045 M05/ RMK SC4SC4=

CYXE;2005-11-15 00:00;METAR CYXE 150000Z 35017G22KT 4SM -SN DRSN FEW020 OVC045 M05/M08 A3025 RMK SC2SC6 SLP275=

CYXE;2005-11-15 01:00;METAR CYXE 150100Z 36013KT 10SM -SN DRSN BKN022 OVC040 M05/M08 A3028 RMK SC6SC2 SLP287=

CYXE;2005-11-15 01:42;SPECI CYXE 150142Z 36016G24KT 15SM DRSN OVC018 M05/ RMK SC8=

CYXE;2005-11-15 02:00;METAR CYXE 150200Z 36013G19KT 15SM DRSN OVC018 M05/M08 A3031 RMK SC8 SLP296=

CYXE;2005-11-15 02:55;SPECI CYXE 150255Z 34013G18KT 12SM -SN DRSN OVC018 M05/ RMK SC8=

CYXE;2005-11-15 03:00;METAR CYXE 150300Z 34014KT 12SM -SN DRSN OVC018 M05/M09 A3034 RMK SC8 SLP310=

CYXE;2005-11-15 03:40;SPECI CYXE 150340Z 34014KT 15SM OVC022 M06/ RMK SC8=

CYXE;2005-11-15 04:00;METAR CYXE 150400Z 35012G17KT 15SM DRSN OVC022 M06/M10 A3037 RMK SC8 SLP319=

CYXE;2005-11-15 04:40;SPECI CYXE 150440Z 35015KT 8SM -SN DRSN OVC022 M06/ RMK SC8=

CYXE;2005-11-15 05:00;METAR CYXE 150500Z 35015G20KT 10SM -SN DRSN OVC020 M07/M11 A3040 RMK SC8 SLP327=

CYXE;2005-11-15 06:00;METAR CYXE 150600Z 35014KT 10SM -SN DRSN OVC017 M08/M12 A3043 RMK SC8 SLP341=

CYXE;2005-11-15 07:00;METAR CYXE 150700Z 36014KT 12SM -SN OVC027 M09/M13 A3044 RMK SC8 SLP344=

CYXE;2005-11-15 08:00;METAR CYXE 150800Z 34011KT 15SM -SN OVC020 M09/M14 A3045 RMK SC8 SLP347=

CYXE;2005-11-15 08:13;SPECI CYXE 150813Z 34012KT 15SM OVC027 M10/ RMK SC8=

CYXE;2005-11-15 08:44;SPECI CYXE 150844Z 35014KT 15SM -SN OVC025 RMK SC8=

CYXE;2005-11-15 09:00;METAR CYXE 150900Z 34013KT 15SM -SN OVC025 M10/M15 A3047 RMK SC8 SLP358=

CYXE;2005-11-15 10:00;METAR CYXE 151000Z 35010KT 15SM -SN OVC023 M11/M16 A3048 RMK SC8 SLP359=

CYXE;2005-11-15 11:00;METAR CYXE 151100Z 35012KT 15SM -SN OVC025 M11/M16 A3048 RMK SC8 SLP362=

CYXE;2005-11-15 11:27;SPECI CYXE 151127Z 36011KT 15SM SCT025 M12/ RMK SC3 IC=

CYXE;2005-11-15 11:44;SPECI CYXE 151144Z 36008KT 15SM FEW025 M13/ RMK SC2=

CYXE;2005-11-15 12:00;METAR CYXE 151200Z 36007KT 15SM FEW025 FEW080 M14/M17 A3049 RMK SC1AC1 SLP368=

CYXE;2005-11-15 13:00;METAR CYXE 151300Z 32006KT 15SM BKN095 M14/M17 A3050 RMK AC6 SLP371=

CYXE;2005-11-15 14:00;METAR CYXE 151400Z 32005KT 15SM FEW095 M17/M20 A3052 RMK AC1 SLP375=

CYXE;2005-11-15 15:00;METAR CYXE 151500Z 35006KT 15SM FEW094 SCT220 M16/M19 A3052 RMK AC1CI1 SLP380=

CYXE;2005-11-15 16:00;METAR CYXE 151600Z 36008KT 15SM SCT220 M15/M18 A3053 RMK CI2 SLP382=

CYXE;2005-11-15 17:00;METAR CYXE 151700Z 35009KT 15SM FEW220 M14/M18 A3053 RMK CI1 SLP382=

CYXE;2005-11-15 18:00;METAR CYXE 151800Z 33007KT 15SM FEW110 M13/M18 A3053 RMK AC1 SLP381=

CYXE;2005-11-15 19:00;METAR CYXE 151900Z 32006KT 15SM FEW200 M12/M17 A3051 RMK CI1 SLP376=

CYXE;2005-11-15 20:00;METAR CYXE 152000Z 32007KT 15SM FEW200 M12/M18 A3050 RMK CI1 SLP372=

CYXE;2005-11-15 21:00;METAR CYXE 152100Z 32006KT 15SM SKC M12/M18 A3049 RMK SLP370=

CYXE;2005-11-15 22:00;METAR CYXE 152200Z 32007KT 15SM SKC M12/M18 A3049 RMK SLP370=

CYXE;2005-11-15 23:00;METAR CYXE 152300Z 29006KT 15SM SKC M14/M17 A3048 RMK SLP367=

CYXE;2005-11-16 00:00;METAR CYXE 160000Z 29007KT 15SM SKC M17/M20 A3049 RMK SLP376=

CYXE;2005-11-16 01:00;METAR CYXE 160100Z 26004KT 15SM SKC M19/M21 A3049 RMK SLP376=

CYXE;2005-11-16 02:00;METAR CYXE 160200Z 22003KT 15SM SKC M19/M22 A3048 RMK SLP373=

CYXE;2005-11-16 03:00;METAR CYXE 160300Z 24003KT 15SM SKC M19/M21 A3048 RMK SLP375=

CYXE;2005-11-16 04:00;METAR CYXE 160400Z 24005KT 15SM SKC M19/M21 A3047 RMK SLP371=

CYXE;2005-11-16 05:00;METAR CYXE 160500Z 26006KT 15SM SKC M20/M22 A3046 RMK SLP368=

CYXE;2005-11-16 06:00;METAR CYXE 160600Z 22003KT 15SM SKC M19/M20 A3046 RMK SLP365=

CYXE;2005-11-16 07:00;METAR CYXE 160700Z 21004KT 15SM FEW008 M19/M21 A3044 RMK SF1 SF TR OVR CITY NE-SE SLP360=

CYXE;2005-11-16 08:00;METAR CYXE 160800Z 18002KT 15SM FEW008 M18/M20 A3042 RMK SF1 SF TR OVR CITY NE-SE SLP353=

CYXE;2005-11-16 09:00;METAR CYXE 160900Z 18003KT 15SM FEW008 M19/M21 A3041 RMK SF1 SF TR OVR CITY N-NE-SE SLP347=

CYXE;2005-11-16 10:00;METAR CYXE 161000Z 20004KT 15SM SCT001 M21/M22 A3038 RMK SF1 SLP338=

CYXE;2005-11-16 10:18;SPECI CYXE 161018Z 18004KT 3SM BR OVC002 M21/ RMK SF5 VIS NE-SE 11/2=

CYXE;2005-11-16 10:48;SPECI CYXE 161048Z 19002KT 2SM BR BKN002 M21/ RMK SF3 TOWER OBS=

CYXE;2005-11-16 11:00;METAR CYXE 161100Z 18002KT 2SM BR BKN002 M21/M22 A3035 RMK SF3 TOWER OBS SLP330=

CYXE;2005-11-16 11:10;SPECI CYXE 161110Z 20002KT 1 1/2SM BR OVC002 M21/ RMK SF6 TOWER OBS=

CYXE;2005-11-16 11:43;SPECI CYXE 161143Z 17004KT 1SM R09/P6000FT/N BR OVC002 M20/ RMK FG2SF4 TOWER OBS=

CYXE;2005-11-16 12:00;METAR CYXE 161200Z 14003KT 1SM R09/P6000FT/U BR OVC002 M21/M22 A3034 RMK FG2SF3 VIS S-W 1/2 TOWER OBS SLP327=

CYXE;2005-11-16 12:09;SPECI CYXE 161209Z 14004KT 2SM BR BKN001 M21/ RMK FG1SF3 VIS S-NW 1 TOWER OBS=

CYXE;2005-11-16 12:17;SPECI CYXE 161217Z 16003KT 3SM BR FEW001 SCT200 M21/ RMK SF2CI1 VIS W 11/2=

CYXE;2005-11-16 13:12;SPECI CYXE 161312Z 16004KT 1 1/2SM BR OVC002 M20/ RMK SF8 FROIN=

CYXE;2005-11-16 13:20;SPECI CYXE 161320Z 17004KT 5/8SM R09/P6000FT/D BR VV001 M19/ RMK FG8 FROIN=

CYXE;2005-11-16 13:27;SPECI CYXE 161327Z 17005KT 1/2SM R09/4000VP6000FT/D FZFG VV001 M19/ RMK FG8 FROIN=

CYXE;2005-11-16 13:37;SPECI CYXE 161337Z 17003KT 3/8SM R09/3500V5000FT/N FZFG VV001 M19/ RMK FG8 FROIN=

CYXE;2005-11-16 14:00;METAR CYXE 161400Z 16006KT 3/8SM R09/5000FT/U FZFG VV001 M17/M19 A3029 RMK FG8 FROIN SLP313=

CYXE;2005-11-16 14:26;SPECI CYXE 161426Z 17006KT 3/4SM R09/P6000FT/U BR VV002 M17/ RMK FG8 FROIN=

CYXE;2005-11-16 14:48;SPECI CYXE 161448Z 17006KT 4SM BR SCT002 BKN090 M16/ RMK ST2AC4=

CYXE;2005-11-16 15:00;METAR CYXE 161500Z 17007KT 10SM SCT003 BKN090 M16/M17 A3028 RMK ST4AC2 SLP304=

CYXE;2005-11-16 16:00;METAR CYXE 161600Z 16007KT 10SM OVC093 M15/M17 A3024 RMK AC8 SLP293=

CYXE;2005-11-16 17:00;METAR CYXE 161700Z 16009KT 10SM OVC081 M14/M16 A3021 RMK AC8 SLP283=

CYXE;2005-11-16 18:00;METAR CYXE 161800Z 16009KT 10SM OVC059 M12/M13 A3018 RMK SC8 SLP268=

CYXE;2005-11-16 19:00;METAR CYXE 161900Z 15009KT 15SM SCT038 OVC057 M11/M12 A3016 RMK SC4SC4 SLP260=

CYXE;2005-11-16 20:00;METAR CYXE 162000Z 18010KT 15SM BKN039 OVC083 M10/M13 A3013 RMK SC5AC3 SLP251=

CYXE;2005-11-16 21:00;METAR CYXE 162100Z 14009KT 15SM OVC032 M09/M13 A3010 RMK SC8 SLP238=

CYXE;2005-11-16 21:37;SPECI CYXE 162137Z 15010KT 10SM -SN OVC024 M09/ RMK SC8=

CYXE;2005-11-16 22:00;METAR CYXE 162200Z 14009KT 10SM -SN OVC024 M09/M13 A3008 RMK SC8 SLP231=

CYXE;2005-11-16 23:00;METAR CYXE 162300Z 17007KT 6SM -SN OVC044 M09/M13 A3006 RMK SC8 SLP227=

CYXE;2005-11-17 00:00;METAR CYXE 170000Z 16008KT 10SM -SN OVC044 M09/M13 A3006 RMK SC8 SLP226=

CYXE;2005-11-17 01:00;METAR CYXE 170100Z 16006KT 15SM -SN OVC038 M09/M13 A3005 RMK SC8 SLP223=

CYXE;2005-11-17 02:00;METAR CYXE 170200Z 17007KT 15SM -SN OVC030 M09/M13 A3005 RMK SC8 SLP223=

CYXE;2005-11-17 03:00;METAR CYXE 170300Z 14004KT 15SM -SN FEW015 OVC025 M09/M13 A3005 RMK SC1SC7 SLP220=

CYXE;2005-11-17 04:00;METAR CYXE 170400Z 14003KT 10SM -SN OVC037 M10/M13 A3005 RMK SC8 SLP219=

CYXE;2005-11-17 05:00;METAR CYXE 170500Z 14002KT 15SM FEW030 OVC053 M09/M13 A3006 RMK SC2SC6 SLP223=

CYXE;2005-11-17 05:49;SPECI CYXE 170549Z 27002KT 10SM -SN FEW025 OVC030 M09/ RMK SC2SC6=

CYXE;2005-11-17 06:00;METAR CYXE 170600Z 27003KT 15SM -SN BKN026 OVC030 M09/M12 A3008 RMK SC6SC2 SLP225=

CYXE;2005-11-17 07:00;METAR CYXE 170700Z 27004KT 15SM OVC026 M08/M11 A3008 RMK SC8 SLP226=

CYXE;2005-11-17 08:00;METAR CYXE 170800Z 27005KT 15SM OVC020 M08/M11 A3008 RMK SC8 SLP228=

CYXE;2005-11-17 08:39;SPECI CYXE 170839Z 26006KT 15SM OVC014 M08/ RMK SC8=

CYXE;2005-11-17 09:00;METAR CYXE 170900Z 27005KT 15SM OVC014 M08/M10 A3010 RMK SC8 SLP231=

CYXE;2005-11-17 09:38;SPECI CYXE 170938Z 27006KT 15SM BKN022 OVC027 M07/ RMK SC6SC2=

CYXE;2005-11-17 10:00;METAR CYXE 171000Z 25004KT 15SM OVC020 M07/M09 A3010 RMK SC8 SLP232=

CYXE;2005-11-17 10:31;SPECI CYXE 171031Z 26008KT 15SM OVC013 M06/ RMK SC8=

CYXE;2005-11-17 11:00;METAR CYXE 171100Z 27007KT 15SM OVC010 M06/M08 A3010 RMK SC8 SLP230=

CYXE;2005-11-17 11:12;SPECI CYXE 171112Z 26005KT 15SM OVC008 M06/ RMK SF8=

CYXE;2005-11-17 11:45;SPECI CYXE 171145Z 27005KT 15SM OVC011 M05/ RMK SF8=

CYXE;2005-11-17 12:00;METAR CYXE 171200Z 28005KT 15SM OVC010 M05/M07 A3011 RMK SF8 SLP232=

CYXE;2005-11-17 12:08;SPECI CYXE 171208Z 28005KT 15SM OVC009 M05/ RMK SF8=

CYXE;2005-11-17 12:43;SPECI CYXE 171243Z 27005KT 15SM OVC011 M04/ RMK SF8=

CYXE;2005-11-17 13:00;METAR CYXE 171300Z 26004KT 15SM BKN011 OVC025 M04/M06 A3011 RMK SC6SC2 SLP233=

CYXE;2005-11-17 13:34;SPECI CYXE 171334Z 25003KT 15SM FEW014 OVC021 M04/ RMK SC2SC6=

CYXE;2005-11-17 14:00;METAR CYXE 171400Z 27005KT 15SM OVC021 M03/M05 A3012 RMK SC8 SLP235=

CYXE;2005-11-17 15:00;METAR CYXE 171500Z 28005KT 15SM OVC021 M02/M05 A3012 RMK SC8 SLP234=

CYXE;2005-11-17 16:00;METAR CYXE 171600Z 27006KT 15SM BKN015 OVC055 M01/M05 A3013 RMK SC6SC2 SLP237=

CYXE;2005-11-17 17:00;METAR CYXE 171700Z 25005KT 15SM SCT017 BKN095 00/M03 A3012 RMK SF2AC4 SLP236=

CYXE;2005-11-17 18:00;METAR CYXE 171800Z 29010KT 15SM BKN090 02/M02 A3012 RMK AC7 SLP231=

CYXE;2005-11-17 19:00;METAR CYXE 171900Z 28008KT 15SM BKN070 03/M02 A3010 RMK AC5 SLP224=

CYXE;2005-11-17 20:00;METAR CYXE 172000Z 29012KT 15SM BKN070 BKN250 04/M01 A3008 RMK AC3CI2 SLP219=

CYXE;2005-11-17 21:00;METAR CYXE 172100Z 27006KT 15SM FEW072 BKN250 04/M01 A3006 RMK AC2CI1 SLP209=

CYXE;2005-11-17 22:00;METAR CYXE 172200Z 25004KT 15SM SCT120 BKN250 04/M01 A3003 RMK AC2CI1 SLP201=

CYXE;2005-11-17 23:00;METAR CYXE 172300Z 22007KT 15SM FEW120 FEW250 01/M02 A3002 RMK AC1CI0 SLP196=

CYXE;2005-11-18 00:00;METAR CYXE 180000Z 21007KT 15SM FEW250 00/M02 A2999 RMK CI0 SLP187=

CYXE;2005-11-18 01:00;METAR CYXE 180100Z 19007KT 15SM FEW250 M00/M02 A2997 RMK CI1 SLP178=

CYXE;2005-11-18 02:00;METAR CYXE 180200Z 21008KT 15SM FEW250 M01/M03 A2994 RMK CI1 SLP170=

CYXE;2005-11-18 03:00;METAR CYXE 180300Z 20009KT 15SM BKN250 M01/M03 A2990 RMK CI2 SLP153=

CYXE;2005-11-18 04:00;METAR CYXE 180400Z 22009KT 15SM SCT120 BKN250 M02/M03 A2986 RMK AC3CI1 SLP141=

CYXE;2005-11-18 05:00;METAR CYXE 180500Z 22010KT 15SM SCT120 BKN250 M01/M03 A2982 RMK AC3CI2 SLP129=

CYXE;2005-11-18 06:00;METAR CYXE 180600Z 21009KT 15SM BKN068 OVC098 00/M02 A2979 RMK AC6AC2 SLP112=

CYXE;2005-11-18 06:08;SPECI CYXE 180608Z 20010KT 15SM -SHRA BKN056 OVC098 01/ RMK SC6AC2=

CYXE;2005-11-18 06:32;SPECI CYXE 180632Z 22012G17KT 15SM OVC056 01/ RMK SC8=

CYXE;2005-11-18 07:00;METAR CYXE 180700Z 22009KT 15SM OVC056 02/M02 A2972 RMK SC8 SLP090=

CYXE;2005-11-18 08:00;METAR CYXE 180800Z 23011KT 15SM OVC077 03/M02 A2969 RMK AC8 SLP081=

CYXE;2005-11-18 09:00;METAR CYXE 180900Z 24011KT 15SM OVC066 03/M02 A2967 RMK AC8 SLP067=

CYXE;2005-11-18 10:00;METAR CYXE 181000Z 24009KT 15SM SCT080 OVC140 03/M01 A2964 RMK AC3AS3 SLP060=

CYXE;2005-11-18 11:00;METAR CYXE 181100Z 25008KT 15SM OVC140 04/M01 A2962 RMK AS7 SLP053=

CYXE;2005-11-18 12:00;METAR CYXE 181200Z 23009KT 15SM OVC140 03/M01 A2960 RMK AS7 SLP048=

CYXE;2005-11-18 13:00;METAR CYXE 181300Z 23010KT 15SM OVC120 03/M01 A2958 RMK AS8 SLP040=

CYXE;2005-11-18 14:00;METAR CYXE 181400Z 25010KT 15SM OVC120 04/M00 A2955 RMK AC8 SLP031=

CYXE;2005-11-18 15:00;METAR CYXE 181500Z 25011KT 15SM -SHRA OVC037 04/M00 A2955 RMK SC8 SLP031=

CYXE;2005-11-18 16:00;METAR CYXE 181600Z 27008KT 15SM -SHRA OVC035 05/02 A2956 RMK SC8 SLP034=

CYXE;2005-11-18 17:00;METAR CYXE 181700Z 31014KT 15SM -SHRA BKN022 OVC052 06/04 A2957 RMK SC6SC2 SLP036=

CYXE;2005-11-18 18:00;METAR CYXE 181800Z 29010KT 15SM -SHRA OVC015 05/04 A2958 RMK SC8 SLP037=

CYXE;2005-11-18 18:50;SPECI CYXE 181850Z 32016KT 15SM FEW009 BKN021 OVC044 06/ RMK SF2SC5SC2=

CYXE;2005-11-18 19:00;METAR CYXE 181900Z 32015G20KT 15SM BKN008 OVC029 06/05 A2960 RMK SF5SC3 SLP045=

CYXE;2005-11-18 19:16;SPECI CYXE 181916Z 32017KT 15SM SCT009 OVC035 06/ RMK SF3SC5=

CYXE;2005-11-18 20:00;METAR CYXE 182000Z 31016KT 15SM FEW013 FEW035 BKN060 06/04 A2964 RMK SF1SC2SC5 SLP059=

CYXE;2005-11-18 21:00;METAR CYXE 182100Z 32014G22KT 15SM FEW013 BKN035 06/04 A2970 RMK SF1SC6 SLP077=

CYXE;2005-11-18 22:00;METAR CYXE 182200Z 32017G26KT 15SM FEW015 BKN028 07/04 A2975 RMK SC1SC6 SLP093=

CYXE;2005-11-18 23:00;METAR CYXE 182300Z 32015G24KT 15SM SCT030 06/02 A2979 RMK SC3 SLP107=

CYXE;2005-11-19 00:00;METAR CYXE 190000Z 31014KT 15SM FEW030 05/02 A2984 RMK SC2 SLP125=

CYXE;2005-11-19 01:00;METAR CYXE 190100Z 31016G21KT 15SM FEW030 05/02 A2986 RMK SC1 SLP134=

CYXE;2005-11-19 02:00;METAR CYXE 190200Z 31014KT 15SM SCT034 05/02 A2991 RMK SC4 SLP148=

CYXE;2005-11-19 03:00;METAR CYXE 190300Z 31011KT 15SM BKN035 04/01 A2995 RMK SC6 SLP163=

CYXE;2005-11-19 04:00;METAR CYXE 190400Z 31012KT 15SM BKN034 04/01 A2997 RMK SC6 SLP171=

CYXE;2005-11-19 05:00;METAR CYXE 190500Z 31015KT 15SM OVC032 04/00 A3001 RMK SC7 SLP182=

CYXE;2005-11-19 06:00;METAR CYXE 190600Z 31010KT 15SM OVC032 04/00 A3006 RMK SC7 SLP201=

CYXE;2005-11-19 07:00;METAR CYXE 190700Z 32008KT 15SM BKN028 03/M00 A3008 RMK SC6 SLP206=

CYXE;2005-11-19 07:32;SPECI CYXE 190732Z 30007KT 15SM BKN028 01/ RMK SC6=

CYXE;2005-11-19 08:00;METAR CYXE 190800Z 30007KT 15SM BKN028 01/M02 A3008 RMK SC6 SLP208=

CYXE;2005-11-19 09:00;METAR CYXE 190900Z 25003KT 15SM FEW028 M02/M04 A3012 RMK SC1 SLP223=

CYXE;2005-11-19 10:00;METAR CYXE 191000Z 24007KT 15SM SKC M03/M05 A3012 RMK SLP224=

CYXE;2005-11-19 11:00;METAR CYXE 191100Z 24007KT 15SM SKC M03/M04 A3012 RMK SLP226=

CYXE;2005-11-19 12:00;METAR CYXE 191200Z 27007KT 15SM SKC M03/M04 A3012 RMK SLP225=

CYXE;2005-11-19 13:00;METAR CYXE 191300Z 25007KT 15SM SKC M04/M06 A3012 RMK SLP226=

CYXE;2005-11-19 14:00;METAR CYXE 191400Z 23007KT 15SM FEW240 M03/M04 A3010 RMK CI1 SLP220=

CYXE;2005-11-19 15:00;METAR CYXE 191500Z 20007KT 15SM BKN240 M02/M04 A3009 RMK CI2 SLP215=

CYXE;2005-11-19 16:00;METAR CYXE 191600Z 21007KT 15SM FEW150 BKN230 M01/M03 A3008 RMK AC1CI3 SLP212=

CYXE;2005-11-19 17:00;METAR CYXE 191700Z 21008KT 15SM BKN250 02/M01 A3005 RMK CI3 SLP202=

CYXE;2005-11-19 18:00;METAR CYXE 191800Z 23014KT 15SM BKN250 04/M01 A3002 RMK CI2 SLP187=

CYXE;2005-11-19 19:00;METAR CYXE 191900Z 23014KT 15SM FEW090 BKN250 06/00 A2999 RMK AC1CI3 SLP179=

CYXE;2005-11-19 20:00;METAR CYXE 192000Z 23012KT 15SM BKN250 07/01 A2997 RMK CI4 SLP173=

CYXE;2005-11-19 21:00;METAR CYXE 192100Z 22012KT 15SM SCT090 OVC250 08/02 A2995 RMK AC3CI3 SLP167=

CYXE;2005-11-19 22:00;METAR CYXE 192200Z 24013KT 15SM FEW090 BKN250 08/02 A2995 RMK AC2CI5 SLP164=

CYXE;2005-11-20 00:00;METAR CYXE 200000Z 23010KT 15SM FEW120 BKN250 05/02 A2993 RMK AC2CI4 SLP160=

CYXE;2005-11-20 01:00;METAR CYXE 200100Z 24010KT 15SM BKN250 04/01 A2993 RMK CI4 SLP159=

CYXE;2005-11-20 02:00;METAR CYXE 200200Z 23008KT 15SM SCT250 04/01 A2991 RMK CI2 SLP154=

CYXE;2005-11-20 03:00;METAR CYXE 200300Z 26013KT 15SM SCT250 07/01 A2990 RMK CI3 SLP149=

CYXE;2005-11-20 04:00;METAR CYXE 200400Z 26011KT 15SM SCT250 05/01 A2990 RMK CI2 SLP150=

CYXE;2005-11-20 05:00;METAR CYXE 200500Z 25010KT 15SM FEW250 04/01 A2991 RMK CI1 SLP151=

CYXE;2005-11-20 06:00;METAR CYXE 200600Z 24009KT 15SM FEW250 02/M00 A2991 RMK CI1 SLP151=

CYXE;2005-11-20 07:00;METAR CYXE 200700Z 24009KT 15SM SKC 02/M00 A2992 RMK SLP153=

CYXE;2005-11-20 08:00;METAR CYXE 200800Z 24009KT 15SM SKC 02/M00 A2991 RMK SLP152=

CYXE;2005-11-20 09:00;METAR CYXE 200900Z 23009KT 15SM FEW250 01/M01 A2990 RMK CI0 SLP148=

CYXE;2005-11-20 10:00;METAR CYXE 201000Z 24008KT 15SM FEW250 02/M00 A2991 RMK CI0 SLP150=

CYXE;2005-11-20 11:00;METAR CYXE 201100Z 26010KT 15SM SKC 03/M00 A2990 RMK SLP146=

CYXE;2005-11-20 12:00;METAR CYXE 201200Z 25010KT 15SM SKC 02/M01 A2990 RMK SLP149=

CYXE;2005-11-20 13:00;METAR CYXE 201300Z 25011KT 15SM SKC 02/M01 A2990 RMK SLP148=

CYXE;2005-11-20 14:00;METAR CYXE 201400Z 25008KT 15SM FEW250 02/M01 A2990 RMK CI1 SLP148=

CYXE;2005-11-20 15:00;METAR CYXE 201500Z 24009KT 15SM SCT250 01/M02 A2992 RMK CI1 SLP153=

CYXE;2005-11-20 16:00;METAR CYXE 201600Z 25009KT 15SM FEW130 BKN250 05/00 A2993 RMK AC1CI1 SLP158=

CYXE;2005-11-20 17:00;METAR CYXE 201700Z 25011KT 15SM FEW120 SCT250 07/01 A2995 RMK AC1CI1 SLP162=

CYXE;2005-11-20 18:00;METAR CYXE 201800Z 26013KT 15SM FEW120 BKN250 10/02 A2994 RMK AC1CI2 SLP159=

CYXE;2005-11-20 19:00;METAR CYXE 201900Z 25012KT 15SM FEW120 SCT250 11/02 A2993 RMK AC1CI1 SLP156=

CYXE;2005-11-20 20:00;METAR CYXE 202000Z 30017G22KT 15SM SCT250 13/01 A2994 RMK CI1 SLP158=

CYXE;2005-11-20 21:00;METAR CYXE 202100Z 31014KT 15SM FEW250 12/01 A2996 RMK CI1 SLP164=

CYXE;2005-11-20 22:00;METAR CYXE 202200Z 30009G15KT 15SM FEW040 FEW250 10/M00 A2999 RMK SC1CI1 SLP173=

CYXE;2005-11-20 23:00;METAR CYXE 202300Z 30008KT 15SM FEW040 FEW250 07/M01 A3002 RMK SC1CI1 SLP182=

CYXE;2005-11-21 00:00;METAR CYXE 210000Z 35010KT 15SM FEW040 FEW250 05/M01 A3007 RMK SC1CI1 SLP205=

CYXE;2005-11-21 01:00;METAR CYXE 210100Z 31006KT 15SM FEW250 02/M03 A3011 RMK CI1 SLP219=

CYXE;2005-11-21 02:00;METAR CYXE 210200Z 29008KT 15SM SCT250 01/M04 A3014 RMK CI2 SLP227=

CYXE;2005-11-21 03:00;METAR CYXE 210300Z 30008KT 15SM BKN250 01/M04 A3016 RMK CI5 SLP239=

CYXE;2005-11-21 04:00;METAR CYXE 210400Z 32006KT 15SM BKN250 M00/M06 A3018 RMK CI2 SLP246=

CYXE;2005-11-21 05:00;METAR CYXE 210500Z 29007KT 15SM BKN250 M00/M06 A3019 RMK CI5 SLP250=

CYXE;2005-11-21 06:00;METAR CYXE 210600Z 28009KT 15SM BKN250 M02/M06 A3022 RMK CI4 SLP256=

CYXE;2005-11-21 07:00;METAR CYXE 210700Z 27008KT 15SM FEW140 BKN250 M01/M06 A3024 RMK AC2CI2 SLP264=

CYXE;2005-11-21 08:00;METAR CYXE 210800Z 30006KT 15SM FEW140 BKN250 M02/M06 A3026 RMK AC1CI2 SLP269=

CYXE;2005-11-21 09:00;METAR CYXE 210900Z 30007KT 15SM FEW140 BKN250 M03/M06 A3027 RMK AC1CI1 SLP272=

CYXE;2005-11-21 10:00;METAR CYXE 211000Z 25004KT 15SM FEW140 BKN250 M04/M06 A3027 RMK AC1CI1 SLP272=

CYXE;2005-11-21 11:00;METAR CYXE 211100Z 25006KT 15SM FEW250 M04/M07 A3026 RMK CI1 SLP268=

CYXE;2005-11-21 12:00;METAR CYXE 211200Z 24006KT 15SM SKC M05/M07 A3025 RMK SLP271=

CYXE;2005-11-21 13:00;METAR CYXE 211300Z 20004KT 15SM BKN071 M03/M06 A3023 RMK AS3 SLP264=

CYXE;2005-11-21 14:00;METAR CYXE 211400Z 19004KT 15SM SCT040 BKN250 M02/M05 A3021 RMK SC3CI3 SLP258=

CYXE;2005-11-21 15:00;METAR CYXE 211500Z 20005KT 15SM BKN055 OVC100 M01/M04 A3019 RMK SC6AS2 SLP251=

CYXE;2005-11-21 16:00;METAR CYXE 211600Z 17004KT 15SM SCT055 OVC090 M00/M04 A3016 RMK SC4AC4 SLP241=

CYXE;2005-11-21 17:00;METAR CYXE 211700Z 20007KT 15SM BKN055 OVC080 01/M04 A3013 RMK SC6AC2 SLP232=

CYXE;2005-11-21 18:00;METAR CYXE 211800Z 18005KT 15SM FEW050 OVC065 02/M03 A3010 RMK SC2SC6 SLP219=

CYXE;2005-11-21 19:00;METAR CYXE 211900Z 17009KT 15SM BKN070 OVC095 03/M03 A3004 RMK AC6AC2 SLP201=

CYXE;2005-11-21 20:00;METAR CYXE 212000Z 20009KT 15SM OVC075 04/M03 A3003 RMK AC8 SLP196=

CYXE;2005-11-21 21:00;METAR CYXE 212100Z 23006KT 15SM SCT070 BKN100 OVC250 04/M01 A3000 RMK AC3AC1CI2 SLP186=

CYXE;2005-11-21 22:00;METAR CYXE 212200Z 26007KT 15SM FEW100 OVC250 04/M01 A2999 RMK AC1CI4 SLP182=

CYXE;2005-11-21 23:00;METAR CYXE 212300Z 25006KT 15SM OVC250 01/M02 A2999 RMK CI4 SLP181=

CYXE;2005-11-22 00:00;METAR CYXE 220000Z 26008KT 15SM BKN250 M00/M03 A2999 RMK CI2 SLP185=

CYXE;2005-11-22 01:00;METAR CYXE 220100Z 28009KT 15SM SCT250 M01/M03 A2999 RMK CI0 SLP186=

CYXE;2005-11-22 02:00;METAR CYXE 220200Z 27008KT 15SM FEW250 M02/M04 A2999 RMK CI0 SLP185=

CYXE;2005-11-22 03:00;METAR CYXE 220300Z 28008KT 15SM FEW250 M01/M03 A2998 RMK CI0 SLP182=

CYXE;2005-11-22 04:00;METAR CYXE 220400Z 31003KT 15SM SKC M00/M03 A2997 RMK SLP177=

CYXE;2005-11-22 05:00;METAR CYXE 220500Z 22004KT 15SM SCT250 M03/M04 A2996 RMK CI1 SLP175=

CYXE;2005-11-22 06:00;METAR CYXE 220600Z 19006KT 15SM FEW120 FEW250 M02/M03 A2995 RMK AC1CI0 SLP170=

CYXE;2005-11-22 07:00;METAR CYXE 220700Z 19006KT 15SM FEW120 SCT250 M00/M02 A2992 RMK AC2CI0 SLP160=

CYXE;2005-11-22 08:00;METAR CYXE 220800Z 20005KT 15SM FEW120 M01/M03 A2989 RMK AC1 SLP149=

CYXE;2005-11-22 09:00;METAR CYXE 220900Z 21006KT 15SM FEW250 M01/M03 A2986 RMK CI0 SLP137=

CYXE;2005-11-22 10:00;METAR CYXE 221000Z 19008KT 15SM FEW250 M01/M03 A2982 RMK CI0 SLP124=

CYXE;2005-11-22 11:00;METAR CYXE 221100Z 21009KT 15SM FEW110 SCT250 M01/M03 A2979 RMK AC2CI0 SLP113=

CYXE;2005-11-22 12:00;METAR CYXE 221200Z 22008KT 15SM FEW120 SCT250 M01/M03 A2978 RMK AC2CI0 SLP111=

CYXE;2005-11-22 13:00;METAR CYXE 221300Z 23007KT 15SM BKN110 OVC250 00/M02 A2977 RMK AC6CI1 SLP107=

CYXE;2005-11-22 14:00;METAR CYXE 221400Z 22006KT 15SM SCT110 BKN250 01/M01 A2973 RMK AC3CI2 SLP097=

CYXE;2005-11-22 15:00;METAR CYXE 221500Z 27004KT 15SM FEW120 BKN250 M00/M03 A2972 RMK AC2CI3 SLP089=

CYXE;2005-11-22 16:00;METAR CYXE 221600Z 26007KT 15SM FEW120 OVC250 02/M01 A2973 RMK AC2CI4 SLP093=

CYXE;2005-11-22 17:00;METAR CYXE 221700Z 26007KT 15SM OVC250 05/00 A2971 RMK CI2 SLP087=

CYXE;2005-11-22 18:00;METAR CYXE 221800Z 27011KT 15SM FEW120 OVC250 09/M01 A2969 RMK AC2CI2 SLP075=

CYXE;2005-11-22 19:00;METAR CYXE 221900Z 28014KT 15SM FEW120 OVC250 11/M03 A2968 RMK AC1CI2 SLP072=

CYXE;2005-11-22 20:00;METAR CYXE 222000Z 26010KT 15SM FEW100 BKN250 11/M02 A2967 RMK AC1CI2 SLP067=

CYXE;2005-11-22 21:00;METAR CYXE 222100Z 26010KT 15SM FEW120 BKN250 10/M02 A2966 RMK AC1CI2 SLP064=

CYXE;2005-11-22 22:00;METAR CYXE 222200Z 27007KT 15SM FEW120 BKN250 09/M02 A2965 RMK AC1CI2 SLP062=

CYXE;2005-11-22 23:00;METAR CYXE 222300Z 27011KT 15SM FEW120 BKN250 08/M03 A2965 RMK AC1CI1 SLP062=

CYXE;2005-11-23 00:00;METAR CYXE 230000Z 28006KT 15SM SCT120 BKN250 07/M03 A2966 RMK AC3CI1 SLP067=

CYXE;2005-11-23 01:00;METAR CYXE 230100Z 28011KT 15SM FEW120 BKN250 05/M02 A2967 RMK AC1CI1 SLP069=

CYXE;2005-11-23 02:00;METAR CYXE 230200Z 27008KT 15SM SCT250 03/M03 A2967 RMK CI1 SLP069=

CYXE;2005-11-23 03:00;METAR CYXE 230300Z 27008KT 15SM SKC 02/M03 A2968 RMK SLP076=

CYXE;2005-11-23 04:00;METAR CYXE 230400Z 27009KT 15SM SKC 03/M02 A2970 RMK SLP082=

CYXE;2005-11-23 05:00;METAR CYXE 230500Z 28008KT 15SM SKC 02/M03 A2972 RMK SLP087=

CYXE;2005-11-23 06:00;METAR CYXE 230600Z 26008KT 15SM SCT250 01/M03 A2972 RMK CI1 SLP085=

CYXE;2005-11-23 07:00;METAR CYXE 230700Z 27006KT 15SM BKN090 BKN250 02/M02 A2974 RMK AC5CI2 SLP090=

CYXE;2005-11-23 08:00;METAR CYXE 230800Z 30006KT 15SM BKN085 OVC250 04/M01 A2975 RMK AC6CI1 SLP095=

CYXE;2005-11-23 09:00;METAR CYXE 230900Z 30012KT 15SM OVC085 05/M01 A2976 RMK AC7 SLP094=

CYXE;2005-11-23 10:00;METAR CYXE 231000Z 30009KT 15SM OVC085 05/M01 A2977 RMK AC7 SLP098=

CYXE;2005-11-23 11:00;METAR CYXE 231100Z 30011KT 15SM FEW080 SCT250 04/M02 A2978 RMK AC2CI0 SLP101=

CYXE;2005-11-23 12:00;METAR CYXE 231200Z 30008KT 15SM FEW080 FEW250 02/M02 A2980 RMK AC1CI0 SLP113=

CYXE;2005-11-23 13:00;METAR CYXE 231300Z 31010KT 15SM FEW140 SCT250 03/M02 A2983 RMK AC2CI1 SLP121=

CYXE;2005-11-23 15:00;METAR CYXE 231500Z 31005KT 15SM BKN069 03/M01 A2986 RMK AC6 SLP136=

CYXE;2005-11-23 16:00;METAR CYXE 231600Z 01008KT 15SM BKN071 04/M01 A2988 RMK AC7 SLP142=

CYXE;2005-11-23 17:00;METAR CYXE 231700Z 05014KT 15SM BKN065 BKN140 OVC250 05/M00 A2991 RMK AC5AC2CI0 SLP151=

CYXE;2005-11-23 18:00;METAR CYXE 231800Z 04012KT 15SM FEW008 SCT061 BKN096 BKN250 03/M01 A2993 RMK SF1SC2AC2CI1 SLP158=

CYXE;2005-11-23 18:12;SPECI CYXE 231812Z 05015KT 15SM BKN013 BKN096 BKN250 03/ RMK SC5AC1CI1=

CYXE;2005-11-23 18:34;SPECI CYXE 231834Z 08012G19KT 15SM BKN007 OVC061 02/ RMK ST6SC2=

CYXE;2005-11-23 19:00;METAR CYXE 231900Z 06013KT 15SM OVC007 01/M02 A2996 RMK SF8 SLP168=

CYXE;2005-11-23 20:00;METAR CYXE 232000Z 06015KT 15SM OVC009 M02/M06 A2999 RMK SF8 SLP179=

CYXE;2005-11-23 20:12;SPECI CYXE 232012Z 07015KT 15SM OVC010 M02/ RMK SF8=

CYXE;2005-11-23 21:00;METAR CYXE 232100Z 08010G15KT 15SM OVC016 M03/M06 A3002 RMK SC8 SLP190=

CYXE;2005-11-23 21:11;SPECI CYXE 232111Z 07011KT 10SM -FZDZ OVC016 M03/ RMK ST8=

CYXE;2005-11-23 22:00;METAR CYXE 232200Z 07013KT 3SM -FZDZ BR BKN009 OVC022 M04/M06 A3004 RMK SF6ST2 SLP197=

CYXE;2005-11-23 22:11;SPECI CYXE 232211Z 07012KT 4SM -FZDZ BR SCT009 OVC024 M04/ RMK SF3ST5=

CYXE;2005-11-23 22:49;SPECI CYXE 232249Z 07012KT 15SM -SN BKN024 OVC041 M05/ REFZDZ RMK SC6SC2=

CYXE;2005-11-23 23:00;METAR CYXE 232300Z 07011KT 10SM -SN FEW013 BKN024 OVC041 M05/M08 A3007 REFZDZ RMK SC2SC4SC2 SLP208=

CYXE;2005-11-23 23:23;SPECI CYXE 232323Z 07013KT 6SM -FZDZ BR SCT013 OVC026 M05/ RMK SC3SC5=

CYXE;2005-11-23 23:44;SPECI CYXE 232344Z 07011G16KT 15SM OVC028 M06/ REFZDZ RMK SC8=

CYXE;2005-11-24 00:00;METAR CYXE 240000Z 08010KT 15SM -SN OVC033 M06/M09 A3009 REFZDZ RMK SC8 SLP219=

CYXE;2005-11-24 01:00;METAR CYXE 240100Z 07009KT 15SM -SN OVC034 M05/M12 A3010 RMK SC8 SLP223=

CYXE;2005-11-24 01:10;SPECI CYXE 240110Z 08012KT 15SM OVC034 M05/ RMK SC8=

CYXE;2005-11-24 02:00;METAR CYXE 240200Z 09011G16KT 15SM OVC038 M06/M13 A3011 RMK SC8 SLP225=

CYXE;2005-11-24 03:00;METAR CYXE 240300Z 09014KT 15SM OVC036 M06/M16 A3012 RMK SC8 SLP230=

CYXE;2005-11-24 04:00;METAR CYXE 240400Z 10012KT 15SM OVC044 M07/M18 A3012 RMK SC8 SLP231=

CYXE;2005-11-24 07:00;METAR CYXE 240700Z 12010KT 15SM OVC037 M07/M17 A3014 RMK SC8 SLP235=

CYXE;2005-11-24 08:00;METAR CYXE 240800Z 14009KT 15SM OVC035 M07/M17 A3012 RMK SC8 SLP228=

CYXE;2005-11-24 09:00;METAR CYXE 240900Z 13008KT 15SM OVC037 M07/M16 A3013 RMK SC8 SLP236=

CYXE;2005-11-24 10:00;METAR CYXE 241000Z 14011KT 15SM OVC035 M07/M15 A3010 RMK SC8 SLP226=

CYXE;2005-11-24 11:00;METAR CYXE 241100Z 14010KT 15SM OVC030 M06/M14 A3008 RMK SC8 SLP220=

CYXE;2005-11-24 12:00;METAR CYXE 241200Z 16013KT 15SM OVC027 M06/M13 A3001 RMK SC8 SLP198=

CYXE;2005-11-24 13:00;METAR CYXE 241300Z 17014KT 15SM OVC025 M04/M11 A2998 RMK SC7 SLP187=

CYXE;2005-11-24 14:00;METAR CYXE 241400Z 16011G16KT 15SM FEW025 SCT250 M05/M12 A2996 RMK SC1CI1 SLP180=

CYXE;2005-11-24 14:23;SPECI CYXE 241423Z 16008KT 15SM BKN022 M05/ RMK SC7=

CYXE;2005-11-24 15:00;METAR CYXE 241500Z 17012KT 15SM OVC016 M05/M13 A2996 RMK SC8 SLP179=

CYXE;2005-11-24 16:00;METAR CYXE 241600Z 16012KT 15SM OVC016 M04/M12 A2993 RMK SC8 TOPS 041 SLP168=

CYXE;2005-11-24 17:00;METAR CYXE 241700Z 17012KT 15SM OVC016 M03/M10 A2989 RMK SC8 SLP157=

CYXE;2005-11-24 18:00;METAR CYXE 241800Z 18009KT 15SM OVC016 M03/M08 A2988 RMK SC8 SLP150=

CYXE;2005-11-24 19:00;METAR CYXE 241900Z 17007KT 15SM OVC016 M01/M07 A2985 RMK SC8 SLP140=

CYXE;2005-11-24 20:00;METAR CYXE 242000Z 17007KT 15SM BKN016 BKN090 M01/M06 A2981 RMK SC5AC2 SLP127=

CYXE;2005-11-24 21:00;METAR CYXE 242100Z 18004KT 15SM FEW015 SCT090 BKN250 M00/M05 A2977 RMK SC2AC2CI2 SLP112=

CYXE;2005-11-24 22:00;METAR CYXE 242200Z 09003KT 15SM FEW086 OVC250 00/M05 A2976 RMK AC2CI4 SLP107=

CYXE;2005-11-24 23:00;METAR CYXE 242300Z 07005KT 15SM FEW086 OVC250 M02/M05 A2974 RMK AC2CI2 SLP102=

CYXE;2005-11-25 00:00;METAR CYXE 250000Z 03006KT 15SM FEW030 FEW090 OVC250 M03/M06 A2973 RMK SC1AC2CI2 SLP100=

CYXE;2005-11-25 01:00;METAR CYXE 250100Z 04004KT 15SM FEW090 OVC250 M03/M05 A2970 RMK AC1CI7 SLP091=

CYXE;2005-11-25 02:00;METAR CYXE 250200Z 11006KT 15SM BKN015 OVC250 M02/M05 A2969 RMK SC6CI2 SLP088=

CYXE;2005-11-25 03:00;METAR CYXE 250300Z 09007KT 15SM BKN015 OVC250 M02/M06 A2970 RMK SC5CI3 SLP086=

CYXE;2005-11-25 04:00;METAR CYXE 250400Z 14004KT 15SM FEW015 BKN250 M04/M07 A2968 RMK SC1CI2 SLP081=

CYXE;2005-11-25 05:00;METAR CYXE 250500Z 09004KT 15SM FEW110 BKN250 M05/M07 A2967 RMK AC2CI2 SLP077=

CYXE;2005-11-25 06:00;METAR CYXE 250600Z 07006KT 15SM BKN015 OVC110 M03/M06 A2969 RMK SC5AC2 SLP082=

CYXE;2005-11-25 07:00;METAR CYXE 250700Z 10006KT 15SM OVC015 M03/M07 A2968 RMK SC8 SLP081=

CYXE;2005-11-25 07:35;SPECI CYXE 250735Z 09006KT 15SM OVC013 M04/ RMK SC8=

CYXE;2005-11-25 08:00;METAR CYXE 250800Z 08007KT 15SM OVC013 M03/M08 A2970 RMK SC8 SLP086=

CYXE;2005-11-25 08:41;SPECI CYXE 250841Z 11008KT 15SM OVC016 M03/ RMK SC8=

CYXE;2005-11-25 09:00;METAR CYXE 250900Z 10007KT 15SM OVC015 M03/M09 A2969 RMK SC8 SLP083=

CYXE;2005-11-25 10:00;METAR CYXE 251000Z 09006KT 15SM SCT015 BKN110 M06/M09 A2969 RMK SC3AC2 SLP082=

CYXE;2005-11-25 10:37;SPECI CYXE 251037Z 10006KT 15SM BKN015 BKN110 M06/ RMK SC5AC2=

CYXE;2005-11-25 11:00;METAR CYXE 251100Z 09006KT 15SM FEW015 SCT120 M06/M09 A2970 RMK SC2AC1 SLP084=

CYXE;2005-11-25 11:39;SPECI CYXE 251139Z 09007KT 15SM BKN015 M06/ RMK SC6=

CYXE;2005-11-25 13:00;METAR CYXE 251300Z 11006KT 15SM BKN020 M07/M10 A2973 RMK SC5 SLP099=

CYXE;2005-11-25 14:00;METAR CYXE 251400Z 11007KT 15SM OVC014 M06/M09 A2972 RMK SC8 SLP097=

CYXE;2005-11-25 15:00;METAR CYXE 251500Z 10007KT 15SM BKN017 BKN080 M05/M09 A2972 RMK SC5AC2 SLP093=

CYXE;2005-11-25 16:00;METAR CYXE 251600Z 12008KT 15SM FEW020 BKN080 M04/M09 A2972 RMK SC1AC6 SLP093=

CYXE;2005-11-25 17:00;METAR CYXE 251700Z 12009KT 15SM FEW030 BKN080 M04/M09 A2970 RMK SC1AC5 SLP089=

CYXE;2005-11-25 18:00;METAR CYXE 251800Z 12008KT 15SM FEW020 FEW080 M03/M08 A2970 RMK SC1AC1 SLP087=

CYXE;2005-11-25 18:27;SPECI CYXE 251827Z 12010KT 15SM BKN017 M03/ RMK SC6=

CYXE;2005-11-25 19:00;METAR CYXE 251900Z 13009KT 15SM FEW017 FEW080 M02/M08 A2968 RMK SC1AC1 SLP079=

CYXE;2005-11-25 20:00;METAR CYXE 252000Z 13007KT 15SM FEW015 FEW080 M02/M08 A2964 RMK SC1AC1 SLP069=

CYXE;2005-11-25 21:00;METAR CYXE 252100Z 11009KT 15SM FEW080 M01/M08 A2964 RMK AC1 SLP066=

CYXE;2005-11-25 22:00;METAR CYXE 252200Z 15007KT 15SM FEW080 M01/M08 A2965 RMK AC1 SLP068=

CYXE;2005-11-25 23:00;METAR CYXE 252300Z 12008KT 15SM FEW080 M03/M08 A2962 RMK AC1 SLP060=

CYXE;2005-11-26 00:00;METAR CYXE 260000Z 12008KT 15SM SKC M04/M08 A2962 RMK SLP061=

CYXE;2005-11-26 01:00;METAR CYXE 260100Z 13007KT 15SM SKC M05/M09 A2962 RMK SLP060=

CYXE;2005-11-26 02:00;METAR CYXE 260200Z 13009KT 15SM SKC M05/M09 A2960 RMK SLP056=

CYXE;2005-11-26 03:00;METAR CYXE 260300Z 13006KT 15SM SKC M06/M09 A2960 RMK SLP057=

CYXE;2005-11-26 04:00;METAR CYXE 260400Z 13006KT 15SM SKC M07/M10 A2958 RMK SLP049=

CYXE;2005-11-26 05:00;METAR CYXE 260500Z 12006KT 15SM SKC M07/M09 A2957 RMK SLP045=

CYXE;2005-11-26 07:00;METAR CYXE 260700Z 11006KT 15SM SKC M08/M10 A2955 RMK SLP039=

CYXE;2005-11-26 08:00;METAR CYXE 260800Z 12006KT 15SM SKC M08/M10 A2953 RMK SLP032=

CYXE;2005-11-26 09:00;METAR CYXE 260900Z 13002KT 15SM SKC M09/M11 A2954 RMK SLP034=

CYXE;2005-11-26 10:00;METAR CYXE 261000Z 09006KT 15SM SKC M10/M12 A2952 RMK SLP029=

CYXE;2005-11-26 11:00;METAR CYXE 261100Z 09004KT 15SM SKC M10/M12 A2952 RMK SLP027=

CYXE;2005-11-26 12:00;METAR CYXE 261200Z 13004KT 15SM SKC M10/M12 A2952 RMK SLP030=

CYXE;2005-11-26 13:00;METAR CYXE 261300Z 12003KT 15SM SKC M10/M12 A2951 RMK SLP027=

CYXE;2005-11-26 14:00;METAR CYXE 261400Z 00000KT 15SM FEW150 M10/M12 A2951 RMK AC2 SLP026=

CYXE;2005-11-26 15:00;METAR CYXE 261500Z 16003KT 10SM FEW150 SCT250 M10/M12 A2951 RMK AC1CI1 SLP028=

CYXE;2005-11-26 16:00;METAR CYXE 261600Z 23003KT 15SM FEW140 SCT250 M09/M11 A2953 RMK AC1CI1 SLP033=

CYXE;2005-11-26 17:00;METAR CYXE 261700Z 27004KT 15SM FEW100 SCT250 M07/M09 A2953 RMK AC1CI1 SLP034=

CYXE;2005-11-26 18:00;METAR CYXE 261800Z 31006KT 15SM SCT100 SCT250 M06/M09 A2953 RMK AC3CI1 SLP032=

CYXE;2005-11-26 19:00;METAR CYXE 261900Z 29007KT 15SM FEW100 FEW250 M04/M07 A2952 RMK AC1CI1 SLP031=

CYXE;2005-11-26 20:00;METAR CYXE 262000Z 30008KT 15SM FEW100 FEW250 M02/M06 A2953 RMK AC1CI1 SLP033=

CYXE;2005-11-26 21:00;METAR CYXE 262100Z 33008KT 15SM FEW007 SCT250 M04/M07 A2953 RMK SF1CI2 SLP034=

CYXE;2005-11-26 22:00;METAR CYXE 262200Z 33012KT 15SM BKN004 M06/M07 A2954 RMK ST7 SLP036=

CYXE;2005-11-26 22:08;SPECI CYXE 262208Z 33009KT 10SM OVC003 M05/ RMK ST8=

CYXE;2005-11-26 23:00;METAR CYXE 262300Z 30007KT 10SM OVC004 M04/M06 A2957 RMK ST8 SLP045=

CYXE;2005-11-27 00:00;METAR CYXE 270000Z 30007KT 10SM OVC004 M04/M06 A2959 RMK ST8 SLP053=

CYXE;2005-11-27 01:00;METAR CYXE 270100Z 32008KT 10SM OVC003 M05/M06 A2961 RMK ST8 SLP062=

CYXE;2005-11-27 01:44;SPECI CYXE 270144Z 34009KT 6SM BR OVC002 M05/ RMK ST8=

CYXE;2005-11-27 02:00;METAR CYXE 270200Z 35006KT 3SM BR OVC002 M05/M06 A2963 RMK ST8 SLP066=

CYXE;2005-11-27 03:00;METAR CYXE 270300Z 34005KT 1 1/2SM BR OVC002 M05/M06 A2965 RMK ST8 SLP075=

CYXE;2005-11-27 04:00;METAR CYXE 270400Z 35004KT 3SM BR OVC003 M04/M05 A2967 RMK ST8 SLP081=

CYXE;2005-11-27 05:00;METAR CYXE 270500Z 32005KT 6SM BR OVC004 M04/M05 A2968 RMK ST8 SLP085=

CYXE;2005-11-27 05:15;SPECI CYXE 270515Z 31005KT 6SM BR OVC005 M04/ RMK ST8=

CYXE;2005-11-27 05:48;SPECI CYXE 270548Z 31006KT 10SM SCT005 OVC012 M04/ RMK ST4SC4=

CYXE;2005-11-27 06:00;METAR CYXE 270600Z 32007KT 4SM BR BKN005 OVC010 M04/M05 A2971 RMK SF5ST3 SLP094=

CYXE;2005-11-27 06:36;SPECI CYXE 270636Z 32008KT 4SM BR SCT005 OVC010 M04/ RMK SF3ST5=

CYXE;2005-11-27 07:00;METAR CYXE 270700Z 33011KT 6SM BR OVC007 M04/M05 A2973 RMK SF8 SLP101=

CYXE;2005-11-27 07:46;SPECI CYXE 270746Z 01008KT 6SM -SN OVC007 M03/ RMK SF8=

CYXE;2005-11-27 08:00;METAR CYXE 270800Z 03010KT 6SM -FZDZ OVC007 M03/M04 A2977 RMK SF8 SLP112=

CYXE;2005-11-27 08:39;SPECI CYXE 270839Z 05009KT 6SM -SN -FZDZ OVC006 M03/ RMK SF8=

CYXE;2005-11-27 09:00;METAR CYXE 270900Z 03008KT 6SM -SN -FZDZ OVC007 M03/M04 A2980 RMK SF8 SLP121=

CYXE;2005-11-27 10:00;METAR CYXE 271000Z 03010KT 6SM -SN -FZDZ OVC009 M03/M05 A2983 RMK SF8 SLP130=

CYXE;2005-11-27 10:29;SPECI CYXE 271029Z 04012KT 6SM -SN -FZDZ OVC015 M03/ RMK ST8=

CYXE;2005-11-27 11:00;METAR CYXE 271100Z 03008KT 6SM -SN -FZDZ OVC011 M03/M05 A2984 RMK SF8 SLP135=

CYXE;2005-11-27 11:47;SPECI CYXE 271147Z 04006KT 6SM -SN -FZDZ SCT008 OVC011 M03/ RMK SF3ST5=

CYXE;2005-11-27 12:00;METAR CYXE 271200Z 04005KT 8SM -SN -FZDZ BKN008 OVC011 M03/M05 A2987 RMK SF6ST2 SLP148=

CYXE;2005-11-27 12:10;SPECI CYXE 271210Z 03005KT 10SM -SN -FZDZ OVC010 M03/ RMK SF8=

CYXE;2005-11-27 12:23;SPECI CYXE 271223Z 02013KT 10SM -SN -FZDZ OVC008 M03/ RMK SF8=

CYXE;2005-11-27 12:49;SPECI CYXE 271249Z 01010KT 15SM -SN -FZDZ SCT008 OVC016 M04/ RMK SF3SC5=

CYXE;2005-11-27 13:00;METAR CYXE 271300Z 01010KT 15SM -SN -FZDZ FEW008 OVC016 M04/M06 A2991 RMK SF2SC6 SLP160=

CYXE;2005-11-27 13:18;SPECI CYXE 271318Z 01008KT 15SM -SN OVC014 M04/ REFZDZ RMK SC8=

CYXE;2005-11-27 14:00;METAR CYXE 271400Z 03009KT 15SM OVC018 M04/M07 A2994 REFZDZ RMK SC8 SLP169=

CYXE;2005-11-27 15:00;METAR CYXE 271500Z 04007KT 15SM OVC022 M04/M07 A2997 RMK SC8 SLP181=

CYXE;2005-11-27 16:00;METAR CYXE 271600Z 05002KT 15SM OVC022 M04/M07 A2999 RMK SC8 SLP186=

CYXE;2005-11-27 17:00;METAR CYXE 271700Z 33004KT 12SM -SN OVC023 M04/M06 A3000 RMK SC8 SLP191=

CYXE;2005-11-27 18:00;METAR CYXE 271800Z 01007KT 12SM -SN OVC016 M03/M06 A3001 RMK SC8 SLP194=

CYXE;2005-11-27 18:05;SPECI CYXE 271805Z 36007KT 12SM -SN -FZDZ OVC016 M03/ RMK SC8=

CYXE;2005-11-27 18:33;SPECI CYXE 271833Z 01006KT 10SM -SN OVC019 M03/ REFZDZ RMK SC8=

CYXE;2005-11-27 19:00;METAR CYXE 271900Z 02005KT 5SM -SN -FZDZ OVC019 M03/M06 A3002 RMK SC8 SLP196=

CYXE;2005-11-27 19:44;SPECI CYXE 271944Z 02004KT 10SM -SN OVC013 M03/ REFZDZ RMK SC8=

CYXE;2005-11-27 20:00;METAR CYXE 272000Z 01005KT 10SM -SN OVC013 M03/M06 A3003 REFZDZ RMK SC8 SLP199=

CYXE;2005-11-27 21:00;METAR CYXE 272100Z 36005KT 10SM -SN FEW010 OVC022 M03/M06 A3004 RMK SF1SC7 SLP205=

CYXE;2005-11-27 22:00;METAR CYXE 272200Z 35006KT 15SM OVC023 M03/M07 A3006 RMK SC8 SLP209=

CYXE;2005-11-27 23:00;METAR CYXE 272300Z 35006KT 15SM OVC023 M04/M07 A3007 RMK SC8 SLP213=

CYXE;2005-11-28 00:00;METAR CYXE 280000Z 36006KT 15SM OVC026 M04/M08 A3008 RMK SC8 SLP220=

CYXE;2005-11-28 01:00;METAR CYXE 280100Z 36006KT 15SM OVC022 M04/M08 A3010 RMK SC8 SLP224=

CYXE;2005-11-28 02:00;METAR CYXE 280200Z 01007KT 15SM OVC026 M04/M08 A3009 RMK SC8 SLP223=

CYXE;2005-11-28 03:00;METAR CYXE 280300Z 36004KT 15SM OVC022 M04/M08 A3010 RMK SC8 SLP226=

CYXE;2005-11-28 04:00;METAR CYXE 280400Z 36003KT 15SM -SN OVC017 M04/M08 A3011 RMK SC8 SLP230=

CYXE;2005-11-28 05:00;METAR CYXE 280500Z 36011KT 15SM -SN OVC013 M04/M07 A3012 RMK SC8 SLP234=

CYXE;2005-11-28 06:00;METAR CYXE 280600Z 01008KT 15SM OVC024 M04/M09 A3014 RMK SC8 SLP240=

CYXE;2005-11-28 07:00;METAR CYXE 280700Z 36007KT 15SM OVC024 M05/M09 A3014 RMK SC8 SLP239=

CYXE;2005-11-28 08:00;METAR CYXE 280800Z 02008KT 15SM OVC022 M05/M09 A3014 RMK SC8 SLP239=

CYXE;2005-11-28 09:00;METAR CYXE 280900Z 29008KT 15SM OVC020 M06/M09 A3015 RMK SC8 SLP243=

CYXE;2005-11-28 09:10;SPECI CYXE 280910Z 30009KT 15SM -SN OVC022 M07/ RMK SC8=

CYXE;2005-11-28 10:00;METAR CYXE 281000Z 30007KT 15SM -SN OVC022 M07/M10 A3016 RMK SC8 SLP247=

CYXE;2005-11-28 11:00;METAR CYXE 281100Z 34007KT 15SM -SN OVC014 M06/M09 A3015 RMK SC8 SLP245=

CYXE;2005-11-28 12:00;METAR CYXE 281200Z 35010KT 15SM -SN OVC014 M05/M09 A3016 RMK SC8 SLP247=

CYXE;2005-11-28 13:00;METAR CYXE 281300Z 33009KT 15SM -SN OVC014 M05/M09 A3017 RMK SC8 TOPS 062 MDT-SVR MXD ICGIC SLP249=

CYXE;2005-11-28 14:00;METAR CYXE 281400Z 34008KT 15SM -SN OVC014 M05/M09 A3017 RMK SC8 SLP251=

CYXE;2005-11-28 14:30;SPECI CYXE 281430Z 34010KT 15SM -SN SCT014 OVC023 M05/ RMK SF4SC4=

CYXE;2005-11-28 15:00;METAR CYXE 281500Z 33009KT 15SM -SN OVC021 M05/M10 A3017 RMK SC8 SLP250=

CYXE;2005-11-28 16:00;METAR CYXE 281600Z 32006KT 15SM -SN OVC019 M05/M09 A3017 RMK SC8 SLP249=

CYXE;2005-11-28 17:00;METAR CYXE 281700Z 34008KT 15SM -SN OVC019 M05/M09 A3017 RMK SC8 SLP249=

CYXE;2005-11-28 18:00;METAR CYXE 281800Z 35010G15KT 10SM -SN OVC016 M05/M09 A3016 RMK SC8 SLP247=

CYXE;2005-11-28 19:00;METAR CYXE 281900Z 36012KT 10SM -SN OVC016 M06/M11 A3015 RMK SC8 SLP245=

CYXE;2005-11-28 20:00;METAR CYXE 282000Z 33013G18KT 10SM -SN OVC026 M06/M12 A3015 RMK SC8 SLP243=

CYXE;2005-11-28 21:00;METAR CYXE 282100Z 33013G18KT 10SM -SN OVC022 M06/M12 A3013 RMK SC8 SLP238=

CYXE;2005-11-28 22:00;METAR CYXE 282200Z 33011G16KT 12SM -SN OVC025 M07/M11 A3012 RMK SC8 SLP235=

CYXE;2005-11-28 23:00;METAR CYXE 282300Z 34009KT 15SM -SN OVC025 M07/M11 A3012 RMK SC8 SLP234=

CYXE;2005-11-29 00:00;METAR CYXE 290000Z 32008KT 15SM -SN OVC022 M07/M11 A3011 RMK SC8 SLP231=

CYXE;2005-11-29 01:00;METAR CYXE 290100Z 33010KT 12SM -SN OVC022 M07/M11 A3010 RMK SC8 SLP230=

CYXE;2005-11-29 02:00;METAR CYXE 290200Z 33011G16KT 15SM -SN OVC030 M07/M12 A3009 RMK SC8 SLP225=

CYXE;2005-11-29 03:00;METAR CYXE 290300Z 33012KT 12SM -SN OVC022 M07/M12 A3008 RMK SC8 SLP223=

CYXE;2005-11-29 04:00;METAR CYXE 290400Z 36011G17KT 12SM -SN OVC030 M08/M13 A3009 RMK SC8 SLP224=

CYXE;2005-11-29 05:00;METAR CYXE 290500Z 36011KT 15SM -SN FEW018 OVC027 M08/M12 A3008 RMK SC1SC7 SLP223=

CYXE;2005-11-29 05:36;SPECI CYXE 290536Z 36013KT 15SM FEW018 OVC027 M08/ RMK SC1SC7=

CYXE;2005-11-29 05:52;SPECI CYXE 290552Z 01012KT 15SM -SN OVC027 M08/ RMK SC8=

CYXE;2005-11-29 06:00;METAR CYXE 290600Z 36009KT 12SM -SN OVC025 M08/M12 A3008 RMK SC8 SLP221=

CYXE;2005-11-29 07:00;METAR CYXE 290700Z 36010KT 12SM -SN OVC023 M08/M13 A3006 RMK SC8 SLP216=

CYXE;2005-11-29 09:00;METAR CYXE 290900Z 34010KT 15SM OVC024 M08/M13 A3005 RMK SC8 SLP212=

CYXE;2005-11-29 10:00;METAR CYXE 291000Z 35010KT 15SM -SN OVC020 M09/M13 A3004 RMK SC8 SLP211=

CYXE;2005-11-29 11:00;METAR CYXE 291100Z 36011KT 15SM -SN OVC020 M09/M13 A3003 RMK SC8 SLP208=

CYXE;2005-11-29 12:00;METAR CYXE 291200Z 36010KT 15SM -SN OVC021 M09/M13 A3003 RMK SC8 SLP208=

CYXE;2005-11-29 13:00;METAR CYXE 291300Z 36008KT 15SM -SN OVC022 M10/M14 A3002 RMK SC8 SLP204=

CYXE;2005-11-29 14:00;METAR CYXE 291400Z 01008KT 15SM -SN OVC023 M10/M14 A3001 RMK SC8 SLP201=

CYXE;2005-11-29 14:44;SPECI CYXE 291444Z 36009KT 5SM -SN BKN005 OVC031 M10/ RMK SF5SC3=

CYXE;2005-11-29 15:00;METAR CYXE 291500Z 36008KT 10SM -SN DRSN BKN005 OVC031 M10/M14 A3001 RMK SF6SC2 SLP202=

CYXE;2005-11-29 15:27;SPECI CYXE 291527Z 01008KT 15SM -SN FEW005 BKN016 OVC035 M10/ RMK SF2SC5SC2=

CYXE;2005-11-29 15:51;SPECI CYXE 291551Z 36007KT 15SM -SN BKN013 OVC032 M10/ RMK SC6SC2=

CYXE;2005-11-29 16:00;METAR CYXE 291600Z 36007KT 15SM -SN BKN013 OVC032 M10/M14 A3001 RMK SC6SC2 SLP201=

CYXE;2005-11-29 16:40;SPECI CYXE 291640Z 35008KT 10SM -SN FEW005 OVC017 M09/ RMK SF2SC6=

CYXE;2005-11-29 17:00;METAR CYXE 291700Z 36007KT 15SM -SN FEW005 OVC019 M09/M14 A3001 RMK SF2SC6 SLP202=

CYXE;2005-11-29 18:00;METAR CYXE 291800Z 35006KT 15SM -SN OVC018 M09/M14 A3000 RMK SC8 SLP198=

CYXE;2005-11-29 19:00;METAR CYXE 291900Z 36005KT 1 1/2SM R09/4000VP6000FT/U -SHSN OVC015 M09/M12 A2998 RMK SN2SC6 CVCTV CLD EMBDD SLP192=

CYXE;2005-11-29 19:06;SPECI CYXE 291906Z 36007KT 3SM -SHSN OVC013 M09/ RMK SC8 CVCTV CLD EMBD=

CYXE;2005-11-29 19:33;SPECI CYXE 291933Z 36005KT 2SM -SHSN SCT004 OVC013 M10/ RMK SF2SC6 CVCTV CLD EMBD VIS VRB 11/2-3=

CYXE;2005-11-29 19:40;SPECI CYXE 291940Z 35008KT 1SM R09/P6000FT/D -SHSN SCT004 OVC013 M09/ RMK SN2SF2SC5 CVCTV CLD EMBD=

CYXE;2005-11-29 19:47;SPECI CYXE 291947Z 36007KT 4SM -SHSN SCT004 OVC013 M09/ RMK SF2SC6 CVCTV CLD EMBD=

CYXE;2005-11-29 20:00;METAR CYXE 292000Z 35007KT 10SM -SN SCT005 OVC013 M09/M13 A2997 RMK SF4SC4 SLP187=

CYXE;2005-11-29 20:11;SPECI CYXE 292011Z 36008KT 15SM -SN SCT013 OVC023 M09/ RMK SC4SC4=

CYXE;2005-11-29 21:00;METAR CYXE 292100Z 01009KT 15SM -SN SCT014 OVC021 M09/M14 A2996 RMK SC3SC5 SLP183=

CYXE;2005-11-29 21:30;SPECI CYXE 292130Z 01007KT 15SM OVC024 M10/ RMK SC8=

CYXE;2005-11-29 22:00;METAR CYXE 292200Z 36007KT 15SM OVC024 M10/M14 A2995 RMK SC8 SLP180=

CYXE;2005-11-29 23:00;METAR CYXE 292300Z 36006KT 8SM -SN BKN015 OVC095 M10/M13 A2995 RMK SC7AC1 SLP180=

CYXE;2005-11-30 00:00;METAR CYXE 300000Z 36009KT 15SM -SN OVC020 M10/M15 A2995 RMK SC8 SLP183=

CYXE;2005-11-30 01:00;METAR CYXE 300100Z 34006KT 15SM -SN OVC030 M10/M16 A2996 RMK SC8 SLP184=

CYXE;2005-11-30 02:00;METAR CYXE 300200Z 34007KT 15SM -SN OVC030 M10/M16 A2996 RMK SC8 SLP185=

CYXE;2005-11-30 03:00;METAR CYXE 300300Z 35007KT 15SM -SN OVC030 M11/M15 A2996 RMK SC8 SLP185=

CYXE;2005-11-30 04:00;METAR CYXE 300400Z 36010KT 12SM -SN OVC025 M11/M15 A2996 RMK SC8 SLP186=

CYXE;2005-11-30 05:00;METAR CYXE 300500Z 35006KT 15SM -SN OVC027 M11/M16 A2996 RMK SC8 SLP187=

CYXE;2005-11-30 06:00;METAR CYXE 300600Z 33007KT 15SM -SN OVC027 M11/M15 A2997 RMK SC8 SLP189=

CYXE;2005-11-30 07:00;METAR CYXE 300700Z 34009KT 12SM -SN OVC029 M11/M15 A2998 RMK SC8 SLP191=

CYXE;2005-11-30 08:00;METAR CYXE 300800Z 02008KT 10SM -SN OVC029 M11/M14 A2999 RMK SC8 SLP195=

CYXE;2005-11-30 09:00;METAR CYXE 300900Z 01009KT 15SM OVC027 M12/M15 A3000 RMK SC8 SLP200=

CYXE;2005-11-30 10:00;METAR CYXE 301000Z 36010KT 15SM -SN OVC020 M12/M16 A3001 RMK SC8 SLP202=

CYXE;2005-11-30 11:00;METAR CYXE 301100Z 36013KT 15SM -SN OVC022 M13/M17 A3001 RMK SC8 SLP204=

CYXE;2005-11-30 12:00;METAR CYXE 301200Z 32011KT 12SM -SN OVC022 M12/M16 A3002 RMK SC8 SLP208=

CYXE;2005-11-30 13:00;METAR CYXE 301300Z 34009KT 12SM -SN OVC022 M12/M17 A3003 RMK SC8 SLP211=

CYXE;2005-11-30 14:00;METAR CYXE 301400Z 34008KT 12SM -SN OVC024 M12/M17 A3004 RMK SC8 SLP215=

CYXE;2005-11-30 15:00;METAR CYXE 301500Z 34008KT 12SM -SN OVC024 M12/M16 A3005 RMK SC8 SLP219=

CYXE;2005-11-30 16:00;METAR CYXE 301600Z 34009KT 8SM -SN FEW012 OVC026 M12/M16 A3007 RMK SF1SC7 SLP223=

CYXE;2005-11-30 17:00;METAR CYXE 301700Z 33009KT 12SM -SN FEW012 OVC028 M12/M16 A3009 RMK SF1SC7 SLP230=

CYXE;2005-11-30 18:00;METAR CYXE 301800Z 33012KT 12SM -SN OVC026 M11/M16 A3009 RMK SC8 SLP231=

CYXE;2005-11-30 19:00;METAR CYXE 301900Z 31010G15KT 15SM -SN OVC026 M11/M17 A3008 RMK SC7 SLP230=

CYXE;2005-11-30 20:00;METAR CYXE 302000Z 30009KT 8SM -SN OVC024 M11/M16 A3008 RMK SC7 SLP230=

CYXE;2005-11-30 21:00;METAR CYXE 302100Z 32009KT 10SM -SN BKN027 M11/M17 A3009 RMK SC7 SLP232=

CYXE;2005-11-30 22:00;METAR CYXE 302200Z 31011G16KT 15SM -SN BKN027 OVC090 M12/M17 A3009 RMK SC7AC1 SLP233=

CYXE;2005-11-30 22:30;SPECI CYXE 302230Z 32012KT 15SM BKN030 OVC090 M12/ RMK SC7AC1=

CYXE;2005-11-30 23:00;METAR CYXE 302300Z 33008KT 15SM OVC030 M12/M17 A3010 RMK SC8 SLP236=

CYXE;2005-11-30 23:36;SPECI CYXE 302336Z 33006KT 15SM -SN OVC030 12/ RMK SC8=

CYXE;2005-12-01 00:00;METAR CYXE 010000Z 32007KT 12SM -SN OVC025 M12/M16 A3012 RMK SC8 SLP242=

CYXE;2005-12-01 01:00;METAR CYXE 010100Z 31011KT 12SM -SN OVC023 M12/M17 A3012 RMK SC8 SLP242=

CYXE;2005-12-01 02:00;METAR CYXE 010200Z 31008KT 15SM -SN OVC029 M12/M18 A3012 RMK SC8 SLP243=

CYXE;2005-12-01 03:00;METAR CYXE 010300Z 31006KT 15SM -SN OVC025 M12/M16 A3012 RMK SC8 SLP244=

CYXE;2005-12-01 04:00;METAR CYXE 010400Z 31007KT 15SM -SN BKN028 OVC060 M12/M17 A3012 RMK SC7SC1 SLP245=

CYXE;2005-12-01 05:00;METAR CYXE 010500Z 33007KT 15SM -SN SCT025 OVC050 M13/M16 A3013 RMK SC3SC5 SLP247=

CYXE;2005-12-01 06:00;METAR CYXE 010600Z 31007KT 10SM -SN OVC027 M13/M16 A3014 RMK SC8 SLP250=

CYXE;2005-12-01 07:00;METAR CYXE 010700Z 29006KT 6SM -SN OVC023 M14/M16 A3014 RMK SC8 SLP251=

CYXE;2005-12-01 08:00;METAR CYXE 010800Z 30006KT 7SM -SN OVC045 M14/M16 A3014 RMK SC8 SLP250=

CYXE;2005-12-01 09:00;METAR CYXE 010900Z 28006KT 15SM SCT040 M16/M18 A3014 RMK SC3 SLP252=

CYXE;2005-12-01 10:00;METAR CYXE 011000Z 30006KT 15SM FEW040 M17/M19 A3015 RMK SC2 SLP254=

CYXE;2005-12-01 12:00;METAR CYXE 011200Z 30005KT 15SM -SN SCT025 OVC080 M15/M17 A3014 RMK SC3AC5 SLP252=

CYXE;2005-12-01 13:00;METAR CYXE 011300Z 32006KT 10SM FEW025 SCT080 M17/M19 A3015 RMK SC1AC3 IC SLP254=

CYXE;2005-12-01 14:00;METAR CYXE 011400Z 29006KT 10SM SCT035 BKN069 M18/M20 A3016 RMK SC3AC2 SLP259=

CYXE;2005-12-01 15:00;METAR CYXE 011500Z 30005KT 15SM FEW033 BKN063 M17/M19 A3017 RMK SC2SC2 SLP266=

CYXE;2005-12-01 16:00;METAR CYXE 011600Z 31005KT 15SM FEW024 BKN063 M14/M16 A3019 RMK SC2SC2 SLP272=

CYXE;2005-12-01 17:00;METAR CYXE 011700Z 34005KT 15SM SCT033 BKN093 M13/M16 A3020 RMK SC2AC2 SLP274=

CYXE;2005-12-01 18:00;METAR CYXE 011800Z 36005KT 15SM FEW010 SCT024 BKN093 M12/M16 A3020 RMK SF1SC3AC1 SLP272=

CYXE;2005-12-01 18:42;SPECI CYXE 011842Z 34002KT 6SM -SN OVC024 M12/ RMK SC8=

CYXE;2005-12-01 19:00;METAR CYXE 011900Z 36004KT 10SM -SN OVC024 M12/M19 A3020 RMK SC8 SLP271=

CYXE;2005-12-01 19:19;SPECI CYXE 011919Z 32002KT 15SM OVC031 M11/ RMK SC7=

CYXE;2005-12-01 20:00;METAR CYXE 012000Z 34003KT 10SM -SN OVC017 M12/M18 A3019 RMK SC7 SLP267=

CYXE;2005-12-01 21:00;METAR CYXE 012100Z 34007KT 8SM -SN OVC018 M11/M18 A3018 RMK SC7 SLP266=

CYXE;2005-12-01 21:43;SPECI CYXE 012143Z 34006KT 15SM BKN027 OVC093 M12/ RMK SC6AC2=

CYXE;2005-12-01 22:00;METAR CYXE 012200Z 36006KT 15SM VCSH BKN032 M12/M17 A3018 RMK SC7 SLP265=

CYXE;2005-12-01 23:00;METAR CYXE 012300Z 01003KT 15SM VCSH BKN029 M13/M17 A3016 RMK SC4 SLP260=

CYXE;2005-12-02 00:00;METAR CYXE 020000Z 00000KT 15SM OVC031 M13/M16 A3016 RMK SC7 SLP260=

CYXE;2005-12-02 01:00;METAR CYXE 020100Z 00000KT 15SM -SN OVC033 M13/M16 A3017 RMK SC7 SLP263=

CYXE;2005-12-02 02:00;METAR CYXE 020200Z 28005KT 4SM -SN OVC033 M13/M16 A3018 RMK SC8 SLP265=

CYXE;2005-12-02 03:00;METAR CYXE 020300Z 31002KT 12SM -SN BKN018 M13/M17 A3015 RMK SC7 SLP259=

CYXE;2005-12-02 04:00;METAR CYXE 020400Z 00000KT 12SM -SN FEW020 BKN033 M15/M17 A3013 RMK SC2SC6 SLP253=

CYXE;2005-12-02 05:00;METAR CYXE 020500Z 17003KT 3SM -SN OVC033 M14/M16 A3013 RMK SC8 SLP253=

CYXE;2005-12-02 06:00;METAR CYXE 020600Z 00000KT 10SM -SN SCT015 OVC036 M13/M15 A3013 RMK SC3SC5 SLP248=

CYXE;2005-12-02 07:00;METAR CYXE 020700Z 13003KT 15SM -SN OVC022 M13/M16 A3012 RMK SC8 SLP246=

CYXE;2005-12-02 08:00;METAR CYXE 020800Z 15004KT 10SM -SN OVC024 M13/M17 A3011 RMK SC8 SLP241=

CYXE;2005-12-02 09:00;METAR CYXE 020900Z 13003KT 15SM -SN OVC024 M13/M18 A3011 RMK SC8 SLP239=

CYXE;2005-12-02 10:00;METAR CYXE 021000Z 14003KT 15SM -SN OVC030 M13/M17 A3010 RMK SC8 SLP237=

CYXE;2005-12-02 11:00;METAR CYXE 021100Z 09007KT 15SM -SN BKN028 M15/M17 A3008 RMK SC6 SLP230=

CYXE;2005-12-02 12:00;METAR CYXE 021200Z 10004KT 15SM -SN OVC026 M13/M17 A3010 RMK SC8 SLP238=

CYXE;2005-12-02 13:00;METAR CYXE 021300Z 11008KT 10SM -SN OVC026 M13/M18 A3009 RMK SC8 SLP234=

CYXE;2005-12-02 14:00;METAR CYXE 021400Z 11007KT 15SM -SN OVC024 M13/M18 A3008 RMK SC8 SLP233=

CYXE;2005-12-02 15:00;METAR CYXE 021500Z 11008KT 10SM -SN OVC020 M13/M18 A3007 RMK SC8 SLP226=

CYXE;2005-12-02 16:00;METAR CYXE 021600Z 11009KT 15SM OVC020 M13/M17 A3007 RMK SC8 INTMT -SN SLP227=

CYXE;2005-12-02 18:00;METAR CYXE 021800Z 12011KT 15SM OVC018 M12/M17 A3006 RMK SC8 INTMT -SN SLP225=

CYXE;2005-12-02 19:00;METAR CYXE 021900Z 12011KT 15SM OVC023 M12/M17 A3005 RMK SC8 INTMT -SN SLP221=

CYXE;2005-12-02 20:00;METAR CYXE 022000Z 12008KT 10SM DRSN OVC023 M12/M16 A3005 RMK SC8 INTMT -SN SLP222=

CYXE;2005-12-02 21:00;METAR CYXE 022100Z 13008KT 15SM BKN023 OVC087 M12/M17 A3004 RMK SC6AC2 INTMT -SN SLP216=

CYXE;2005-12-02 22:00;METAR CYXE 022200Z 13010KT 15SM -SN BKN023 OVC080 M12/M17 A3003 RMK SC5AC3 -SN INTMT SLP215=

CYXE;2005-12-02 22:40;SPECI CYXE 022240Z 14010KT 15SM SCT023 OVC080 M13/ RMK SC4AC4=

CYXE;2005-12-02 23:00;METAR CYXE 022300Z 12009KT 15SM SCT020 OVC070 M13/M18 A3003 RMK SC3AC5 SLP215=

CYXE;2005-12-03 00:00;METAR CYXE 030000Z 12008KT 15SM FEW020 OVC054 M13/M17 A3003 RMK SC2SC6 SLP213=

CYXE;2005-12-03 00:16;SPECI CYXE 030016Z 12009KT 15SM -SN FEW020 OVC054 M13/ RMK SC2SC6=

CYXE;2005-12-03 01:00;METAR CYXE 030100Z 11008KT 10SM -SN FEW020 OVC054 M13/M17 A3002 RMK SC1SC7 SLP211=

CYXE;2005-12-03 02:00;METAR CYXE 030200Z 10010KT 15SM -SN BKN050 M13/M17 A3002 RMK SC4 SLP209=

CYXE;2005-12-03 03:00;METAR CYXE 030300Z 11009KT 15SM -SN SCT080 M13/M17 A3002 RMK AC2 SLP211=

CYXE;2005-12-03 04:00;METAR CYXE 030400Z 11010KT 6SM -SN SCT080 M14/M17 A3003 RMK AC2 SLP214=

CYXE;2005-12-03 05:00;METAR CYXE 030500Z 11009KT 8SM -SN FEW015 BKN080 M14/M17 A3003 RMK SC2AC2 SLP214=

CYXE;2005-12-03 06:00;METAR CYXE 030600Z 09008KT 12SM -SN OVC080 M14/M17 A3003 RMK AC7 SLP214=

CYXE;2005-12-03 07:00;METAR CYXE 030700Z 09008KT 15SM -SN OVC070 M15/M17 A3002 RMK AC8 SLP212=

CYXE;2005-12-03 08:00;METAR CYXE 030800Z 09007KT 8SM -SN OVC060 M14/M17 A3001 RMK SC8 SLP209=

CYXE;2005-12-03 09:00;METAR CYXE 030900Z 09007KT 8SM -SN OVC060 M15/M17 A3001 RMK SC8 SLP208=

CYXE;2005-12-03 09:51;SPECI CYXE 030951Z 06007KT 6SM IC FEW020 OVC070 M15/ RMK SC2AC6=

CYXE;2005-12-03 10:00;METAR CYXE 031000Z 06007KT 6SM IC FEW020 OVC070 M16/M18 A3003 RMK SC1AC7 SLP213=

CYXE;2005-12-03 11:00;METAR CYXE 031100Z 07011KT 6SM IC OVC050 M16/M18 A3004 RMK SC8 SLP216=

CYXE;2005-12-03 11:09;SPECI CYXE 031109Z 07010KT 6SM -SN BKN030 OVC085 M16/ RMK SC6AC2=

CYXE;2005-12-03 12:00;METAR CYXE 031200Z 07010KT 12SM -SN BKN025 OVC085 M16/M18 A3005 RMK SC6AC2 SLP221=

CYXE;2005-12-03 12:13;SPECI CYXE 031213Z 06010KT 8SM -SN OVC090 M16/ RMK AC8=

CYXE;2005-12-03 13:00;METAR CYXE 031300Z 07009KT 6SM -SN FEW040 OVC085 M16/M18 A3005 RMK SC2AC6 SLP222=

CYXE;2005-12-03 14:00;METAR CYXE 031400Z 06009KT 6SM -SN FEW020 OVC085 M16/M18 A3005 RMK SC2AC6 SLP222=

CYXE;2005-12-03 14:50;SPECI CYXE 031450Z 06009KT 2SM -SN OVC020 M16/ RMK SN2SC6=

CYXE;2005-12-03 15:00;METAR CYXE 031500Z 06010KT 2SM -SN OVC020 M16/M18 A3007 RMK SN2SC6 SLP228=

CYXE;2005-12-03 16:00;METAR CYXE 031600Z 06009KT 3SM -SN OVC038 M16/M18 A3008 RMK SC8 SLP231=

CYXE;2005-12-03 17:00;METAR CYXE 031700Z 06010KT 2SM -SN OVC039 M15/M18 A3009 RMK SC8 SLP236=

CYXE;2005-12-03 18:00;METAR CYXE 031800Z 05010KT 2SM -SN OVC043 M15/M18 A3010 RMK SC8 SLP241=

CYXE;2005-12-03 19:00;METAR CYXE 031900Z 04009KT 2SM -SN OVC042 M15/M18 A3011 RMK SC8 SLP242=

CYXE;2005-12-03 20:00;METAR CYXE 032000Z 04008KT 6SM -SN SCT028 OVC086 M15/M18 A3010 RMK SC4AC3 SLP241=

CYXE;2005-12-03 21:00;METAR CYXE 032100Z 04008KT 6SM -SN SCT024 OVC086 M15/M19 A3011 RMK SC4AC4 SLP245=

CYXE;2005-12-03 22:00;METAR CYXE 032200Z 03007KT 3SM -SN BKN030 OVC073 M16/M19 A3012 RMK SC6AC2 SLP249=

CYXE;2005-12-03 23:00;METAR CYXE 032300Z 03007KT 10SM -SN FEW030 OVC070 M16/M19 A3014 RMK SC2AC5 SLP254=

CYXE;2005-12-03 23:43;SPECI CYXE 032343Z 02006KT 2SM -SN SCT020 OVC070 M16/ RMK SC3AC5=

CYXE;2005-12-04 00:00;METAR CYXE 040000Z 04006KT 3SM -SN SCT020 OVC070 M16/M19 A3015 RMK SC3AC5 SLP260=

CYXE;2005-12-04 01:00;METAR CYXE 040100Z 03003KT 5SM -SN FEW020 OVC090 M17/M19 A3015 RMK SC2AC6 SLP260=

CYXE;2005-12-04 02:00;METAR CYXE 040200Z 03004KT 4SM -SN BKN100 M17/M19 A3016 RMK AC7 SLP262=

CYXE;2005-12-04 03:00;METAR CYXE 040300Z 00000KT 4SM -SN BKN100 M17/M19 A3017 RMK AC7 SLP266=

CYXE;2005-12-04 04:00;METAR CYXE 040400Z 27003KT 10SM -SN BKN100 M18/M20 A3017 RMK AC4 SLP268=

CYXE;2005-12-04 05:00;METAR CYXE 040500Z 27004KT 5SM -SN FEW020 BKN100 M18/M20 A3018 RMK SC1AC5 SLP270=

CYXE;2005-12-04 06:00;METAR CYXE 040600Z 26004KT 15SM -SN FEW020 BKN100 M19/M21 A3019 RMK SC2AC4 SLP273=

CYXE;2005-12-04 06:29;SPECI CYXE 040629Z 26005KT 6SM IC SCT024 OVC076 M20/ RMK SC3AC5=

CYXE;2005-12-04 07:00;METAR CYXE 040700Z 27005KT 10SM BKN024 OVC076 M19/M21 A3020 RMK SC5AC3 SLP276=

CYXE;2005-12-04 08:00;METAR CYXE 040800Z 25005KT 6SM IC OVC024 M21/M23 A3020 RMK SC5 SLP277=

CYXE;2005-12-04 09:00;METAR CYXE 040900Z 25005KT 6SM IC BKN018 M22/M23 A3020 RMK SC4 SLP280=

CYXE;2005-12-04 10:00;METAR CYXE 041000Z 24006KT 8SM BKN016 BKN069 M22/M25 A3021 RMK SC2AC2 SLP282=

CYXE;2005-12-04 11:00;METAR CYXE 041100Z 25004KT 10SM BKN020 OVC070 M22/M25 A3021 RMK SC3AC2 SLP283=

CYXE;2005-12-04 12:00;METAR CYXE 041200Z 25005KT 10SM BKN018 BKN070 M22/M25 A3021 RMK SC2AC2 SLP286=

CYXE;2005-12-04 13:00;METAR CYXE 041300Z 24004KT 6SM -SN VV009 M21/M24 A3022 RMK SN8 SLP287=

CYXE;2005-12-04 13:23;SPECI CYXE 041323Z 23003KT 6SM -SN OVC014 M21/ RMK SC6=

CYXE;2005-12-04 14:00;METAR CYXE 041400Z 24004KT 10SM -SN OVC012 M21/M25 A3022 RMK SC8 SLP288=

CYXE;2005-12-04 14:48;SPECI CYXE 041448Z 25004KT 15SM SCT012 OVC250 M21/ RMK SC3CI2 IC=

CYXE;2005-12-04 15:00;METAR CYXE 041500Z 24004KT 15SM FEW012 BKN250 M21/M25 A3023 RMK SC2CI2 IC SLP292=

CYXE;2005-12-04 17:00;METAR CYXE 041700Z 27004KT 15SM FEW250 M19/M22 A3026 RMK CI1 IC SLP299=

CYXE;2005-12-04 18:00;METAR CYXE 041800Z 30002KT 15SM FEW250 M17/M20 A3026 RMK CI1 IC SLP299=

CYXE;2005-12-04 19:00;METAR CYXE 041900Z 28003KT 15SM FEW005 M16/M19 A3025 RMK SF1 IC SLP296=

CYXE;2005-12-04 20:00;METAR CYXE 042000Z 30005KT 15SM FEW015 SCT250 M15/M20 A3025 RMK SC2CI0 SLP295=

CYXE;2005-12-04 21:00;METAR CYXE 042100Z 31006KT 15SM FEW015 M15/M20 A3024 RMK SC1 SLP294=

CYXE;2005-12-04 22:00;METAR CYXE 042200Z 31005KT 15SM FEW015 M16/M21 A3025 RMK SC1 SLP297=

CYXE;2005-12-04 23:00;METAR CYXE 042300Z 31005KT 15SM FEW015 M19/M23 A3026 RMK SC1 SLP300=

CYXE;2005-12-05 00:00;METAR CYXE 050000Z 31005KT 15SM BKN024 M21/M24 A3026 RMK SC6 SLP305=

CYXE;2005-12-05 01:00;METAR CYXE 050100Z 32003KT 15SM BKN024 M18/M21 A3026 RMK SC7 SLP306=

CYXE;2005-12-05 02:00;METAR CYXE 050200Z 32004KT 15SM OVC024 M18/M21 A3025 RMK SC8 SLP300=

CYXE;2005-12-05 03:00;METAR CYXE 050300Z 03008KT 15SM BKN024 M18/M22 A3025 RMK SC7 SLP299=

CYXE;2005-12-05 04:00;METAR CYXE 050400Z 01006KT 15SM SCT025 M22/M26 A3025 RMK SC3 SLP298=

CYXE;2005-12-05 05:00;METAR CYXE 050500Z 01006KT 15SM FEW025 M23/M27 A3024 RMK SC1 SLP296=

CYXE;2005-12-05 06:00;METAR CYXE 050600Z 35004KT 15SM SKC M27/M29 A3023 RMK SLP295=

CYXE;2005-12-05 07:00;METAR CYXE 050700Z 32008KT 15SM SKC M25/M29 A3023 RMK SLP294=

CYXE;2005-12-05 08:00;METAR CYXE 050800Z 32007KT 15SM SKC M25/M29 A3025 RMK SLP300=

CYXE;2005-12-05 09:00;METAR CYXE 050900Z 31006KT 15SM SKC M24/M28 A3025 RMK SLP299=

CYXE;2005-12-05 10:00;METAR CYXE 051000Z 32006KT 15SM SKC M25/M29 A3025 RMK SLP299=

CYXE;2005-12-05 11:00;METAR CYXE 051100Z 35004KT 15SM SCT250 M22/M26 A3022 RMK CI1 SLP288=

CYXE;2005-12-05 12:00;METAR CYXE 051200Z 35002KT 15SM OVC250 M21/M25 A3020 RMK CI4 SLP283=

CYXE;2005-12-05 13:00;METAR CYXE 051300Z 30006KT 15SM BKN085 OVC250 M21/M24 A3020 RMK AC5CI3 SLP284=

CYXE;2005-12-05 14:00;METAR CYXE 051400Z 29007KT 15SM SCT085 OVC250 M20/M24 A3019 RMK AC4CI4 SLP280=

CYXE;2005-12-05 15:00;METAR CYXE 051500Z 30007KT 15SM FEW050 OVC085 M20/M24 A3018 RMK SC2AS6 SLP274=

CYXE;2005-12-05 15:40;SPECI CYXE 051540Z 29008KT 8SM BKN040 OVC080 M20/ RMK SC5AS3 IC=

CYXE;2005-12-05 16:00;METAR CYXE 051600Z 30009KT 8SM SCT040 OVC080 M20/M24 A3019 RMK SC3AS5 IC SLP277=

CYXE;2005-12-05 16:39;SPECI CYXE 051639Z 30007KT 5SM IC BKN045 OVC100 M19/ RMK SC6AC2=

CYXE;2005-12-05 17:00;METAR CYXE 051700Z 30008KT 4SM -SN BKN045 OVC090 M19/M23 A3020 RMK SC6AC2 SLP279=

CYXE;2005-12-05 18:00;METAR CYXE 051800Z 31007KT 6SM -SN BKN040 OVC090 M18/M22 A3020 RMK SC6AC2 SLP284=

CYXE;2005-12-05 19:00;METAR CYXE 051900Z 32006KT 3SM -SN OVC030 M17/M21 A3019 RMK SN2SC6 SLP282=

CYXE;2005-12-05 19:37;SPECI CYXE 051937Z 32008KT 2SM -SN OVC025 M16/ RMK SN2SC6=

CYXE;2005-12-05 20:00;METAR CYXE 052000Z 32008KT 1 1/2SM -SN OVC020 M16/M20 A3019 RMK SN3SC5 SLP282=

CYXE;2005-12-05 20:03;SPECI CYXE 052003Z 32008KT 2SM -SN OVC025 M16/ RMK SN2SC6=

CYXE;2005-12-05 20:28;SPECI CYXE 052028Z 33008KT 2 1/2SM -SN OVC020 M16/ RMK SN2SC6=

CYXE;2005-12-05 21:00;METAR CYXE 052100Z 32009KT 2SM -SN OVC018 M16/M20 A3020 RMK SN3SC5 SLP280=

CYXE;2005-12-05 21:35;SPECI CYXE 052135Z 33009KT 4SM -SN OVC020 M16/ RMK SN2SC6=

CYXE;2005-12-05 22:00;METAR CYXE 052200Z 31009KT 4SM -SN OVC021 M16/M20 A3021 RMK SC8 SLP286=

CYXE;2005-12-05 23:00;METAR CYXE 052300Z 32008KT 3SM -SN OVC027 M16/M20 A3024 RMK SC8 SLP293=

CYXE;2005-12-06 00:00;METAR CYXE 060000Z 34006KT 5SM -SN OVC030 M16/M19 A3025 RMK SC8 SLP298=

CYXE;2005-12-06 01:00;METAR CYXE 060100Z 01008KT 10SM -SN OVC050 M16/M20 A3026 RMK SC8 SLP301=

CYXE;2005-12-06 02:00;METAR CYXE 060200Z 36006KT 10SM -SN OVC050 M16/M20 A3027 RMK SC8 SLP305=

CYXE;2005-12-06 03:00;METAR CYXE 060300Z 35006KT 5SM -SN OVC035 M16/M20 A3029 RMK SC8 SLP310=

CYXE;2005-12-06 04:00;METAR CYXE 060400Z 34005KT 3SM -SN OVC029 M16/M20 A3030 RMK SC8 SLP312=

CYXE;2005-12-06 05:00;METAR CYXE 060500Z 33005KT 5SM -SN OVC031 M17/M21 A3031 RMK SC8 SLP316=

CYXE;2005-12-06 06:00;METAR CYXE 060600Z 34006KT 3SM -SN OVC020 M17/M21 A3032 RMK SC8 SLP321=

CYXE;2005-12-06 07:00;METAR CYXE 060700Z 32005KT 6SM -SN OVC028 M18/M22 A3033 RMK SC5 SLP324=

CYXE;2005-12-06 08:00;METAR CYXE 060800Z 31003KT 6SM -SN FEW026 BKN094 M18/M22 A3035 RMK SC2AC2 SLP329=

CYXE;2005-12-06 09:00;METAR CYXE 060900Z 33003KT 10SM SCT036 M20/M23 A3037 RMK SC2 SLP337=

CYXE;2005-12-06 10:00;METAR CYXE 061000Z 31004KT 10SM FEW041 M20/M24 A3037 RMK SC1 SLP338=

CYXE;2005-12-06 11:00;METAR CYXE 061100Z 31006KT 10SM FEW034 M22/M26 A3038 RMK SC1 SLP339=

CYXE;2005-12-06 12:00;METAR CYXE 061200Z 31006KT 10SM FEW034 M22/M26 A3039 RMK SC1 SLP346=

CYXE;2005-12-06 13:00;METAR CYXE 061300Z 32006KT 10SM FEW031 M23/M27 A3041 RMK SC1 SLP351=

CYXE;2005-12-06 14:00;METAR CYXE 061400Z 32007KT 12SM FEW030 M23/M27 A3042 RMK SC1 IC SLP354=

CYXE;2005-12-06 14:44;SPECI CYXE 061444Z 31006KT 15SM FEW030 M23/ RMK SC1=

CYXE;2005-12-06 15:00;METAR CYXE 061500Z 31005KT 15SM FEW015 M23/M27 A3042 RMK SC2 SLP358=

CYXE;2005-12-06 16:00;METAR CYXE 061600Z 30005KT 15SM BKN015 M22/M26 A3045 RMK SC3 SLP366=

CYXE;2005-12-06 17:00;METAR CYXE 061700Z 29004KT 15SM FEW015 M19/M23 A3046 RMK SC1 SLP371=

CYXE;2005-12-06 18:00;METAR CYXE 061800Z 28004KT 15SM FEW015 M18/M21 A3047 RMK SC1 SLP370=

CYXE;2005-12-06 19:00;METAR CYXE 061900Z 30003KT 15SM FEW015 M16/M21 A3046 RMK SC1 SLP369=

CYXE;2005-12-06 20:00;METAR CYXE 062000Z 30005KT 15SM FEW015 M16/M21 A3046 RMK SC1 SLP369=

CYXE;2005-12-06 21:00;METAR CYXE 062100Z 29005KT 15SM FEW015 FEW250 M16/M21 A3047 RMK SC1CI1 SLP372=

CYXE;2005-12-06 22:00;METAR CYXE 062200Z 29007KT 15SM FEW040 M16/M21 A3049 RMK SC1 SLP377=

CYXE;2005-12-06 23:00;METAR CYXE 062300Z 28006KT 15SM FEW015 M19/M23 A3050 RMK SC1 SLP380=

CYXE;2005-12-07 00:00;METAR CYXE 070000Z 27006KT 15SM SKC M21/M25 A3050 RMK SLP389=

CYXE;2005-12-07 01:00;METAR CYXE 070100Z 27006KT 15SM SKC M22/M26 A3050 RMK SLP388=

CYXE;2005-12-07 02:00;METAR CYXE 070200Z 23007KT 15SM SKC M23/M27 A3049 RMK SLP386=

CYXE;2005-12-07 03:00;METAR CYXE 070300Z 24007KT 15SM FEW015 M24/M28 A3050 RMK ST1 SLP389=

CYXE;2005-12-07 04:00;METAR CYXE 070400Z 26007KT 15SM FEW250 M24/M28 A3051 RMK CI1 SLP393=

CYXE;2005-12-07 05:00;METAR CYXE 070500Z 25007KT 15SM SKC M25/M29 A3051 RMK SLP393=

CYXE;2005-12-07 06:00;METAR CYXE 070600Z 24007KT 15SM SKC M24/M28 A3050 RMK SLP387=

CYXE;2005-12-07 07:00;METAR CYXE 070700Z 25007KT 15SM SKC M24/M28 A3050 RMK SLP387=

CYXE;2005-12-07 08:00;METAR CYXE 070800Z 23006KT 15SM SKC M25/M29 A3051 RMK SLP388=

CYXE;2005-12-07 09:00;METAR CYXE 070900Z 24007KT 15SM SKC M25/M29 A3051 RMK SLP390=

CYXE;2005-12-07 10:00;METAR CYXE 071000Z 23006KT 15SM FEW015 M24/M28 A3049 RMK SF1 SLP383=

CYXE;2005-12-07 11:00;METAR CYXE 071100Z 21006KT 15SM SKC M25/M30 A3048 RMK SLP380=

CYXE;2005-12-07 12:00;METAR CYXE 071200Z 20006KT 15SM SKC M25/M29 A3047 RMK SLP378=

CYXE;2005-12-07 13:00;METAR CYXE 071300Z 19005KT 15SM SKC M25/M28 A3045 RMK SLP372=

CYXE;2005-12-07 13:17;SPECI CYXE 071317Z 19007KT 15SM SKC M25/ RMK IC=

CYXE;2005-12-07 14:00;METAR CYXE 071400Z 19005KT 15SM SKC M25/M29 A3043 RMK SLP366=

CYXE;2005-12-07 15:00;METAR CYXE 071500Z 20007KT 15SM FEW250 M25/M29 A3042 RMK CI1 SLP364=

CYXE;2005-12-07 15:26;SPECI CYXE 071526Z 21007KT 15SM FEW250 M24/ RMK CI1=

CYXE;2005-12-07 16:00;METAR CYXE 071600Z 21007KT 15SM FEW250 M24/M28 A3042 RMK CI1 SLP363=

CYXE;2005-12-07 17:00;METAR CYXE 071700Z 21006KT 15SM SCT250 M22/M26 A3040 RMK CI2 SLP357=

CYXE;2005-12-07 18:00;METAR CYXE 071800Z 19007KT 15SM BKN250 M20/M24 A3037 RMK CI1 SLP344=

CYXE;2005-12-07 19:00;METAR CYXE 071900Z 20007KT 15SM SCT250 M18/M22 A3034 RMK CI1 SLP333=

CYXE;2005-12-07 20:00;METAR CYXE 072000Z 19010KT 15SM FEW250 M16/M21 A3029 RMK CI0 SLP317=

CYXE;2005-12-07 21:00;METAR CYXE 072100Z 19008KT 15SM BKN250 M16/M22 A3027 RMK CI1 SLP307=

CYXE;2005-12-07 22:00;METAR CYXE 072200Z 19007KT 15SM BKN250 M16/M21 A3024 RMK CI1 SLP297=

CYXE;2005-12-07 23:00;METAR CYXE 072300Z 20005KT 15SM OVC250 M17/M22 A3021 RMK CI3 SLP289=

CYXE;2005-12-08 00:00;METAR CYXE 080000Z 18008KT 15SM BKN250 M17/M21 A3018 RMK CI3 SLP276=

CYXE;2005-12-08 01:00;METAR CYXE 080100Z 19010KT 15SM BKN250 M17/M20 A3014 RMK CI2 SLP264=

CYXE;2005-12-08 02:00;METAR CYXE 080200Z 19011KT 15SM OVC250 M16/M20 A3011 RMK CI4 SLP254=

CYXE;2005-12-08 03:00;METAR CYXE 080300Z 19010KT 15SM BKN250 M16/M20 A3008 RMK CI2 SLP242=

CYXE;2005-12-08 04:00;METAR CYXE 080400Z 19009KT 15SM OVC250 M16/M20 A3004 RMK CI3 SLP229=

CYXE;2005-12-08 05:00;METAR CYXE 080500Z 19010KT 15SM OVC250 M16/M20 A3001 RMK CI4 SLP218=

CYXE;2005-12-08 06:00;METAR CYXE 080600Z 20009KT 15SM OVC110 OVC250 M15/M20 A2998 RMK AC6CI2 SLP201=

CYXE;2005-12-08 07:00;METAR CYXE 080700Z 19010KT 15SM BKN100 OVC250 M15/M20 A2994 RMK AC6CI2 SLP188=

CYXE;2005-12-08 08:00;METAR CYXE 080800Z 20010KT 15SM BKN100 OVC250 M14/M19 A2990 RMK AC5CI3 SLP177=

CYXE;2005-12-08 09:00;METAR CYXE 080900Z 21013KT 15SM BKN100 OVC250 M13/M19 A2987 RMK AC5CI3 SLP162=

CYXE;2005-12-08 10:00;METAR CYXE 081000Z 22013KT 15SM BKN110 BKN250 M12/M18 A2985 RMK AC5CI2 SLP153=

CYXE;2005-12-08 11:00;METAR CYXE 081100Z 22012KT 15SM OVC070 M12/M17 A2982 RMK AC8 SLP145=

CYXE;2005-12-08 11:13;SPECI CYXE 081113Z 22010KT 15SM -SN OVC072 M12/ RMK AC8=

CYXE;2005-12-08 11:40;SPECI CYXE 081140Z 23009KT 15SM OVC050 M11/ RMK SC8=

CYXE;2005-12-08 12:00;METAR CYXE 081200Z 23009KT 15SM OVC050 M11/M16 A2981 RMK SC8 SLP137=

CYXE;2005-12-08 12:26;SPECI CYXE 081226Z 22010KT 15SM -SN OVC025 M11/ RMK SC8=

CYXE;2005-12-08 13:00;METAR CYXE 081300Z 22011KT 15SM -SN BKN020 OVC080 M11/M15 A2979 RMK SC6AC2 SLP132=

CYXE;2005-12-08 14:00;METAR CYXE 081400Z 23009KT 10SM -SN OVC024 M10/M14 A2979 RMK SC8 SLP133=

CYXE;2005-12-08 14:19;SPECI CYXE 081419Z 23010KT 1 1/2SM -SN VV015 M10/ RMK SN8=

CYXE;2005-12-08 15:00;METAR CYXE 081500Z 23008KT 1 1/2SM -SN VV015 M10/M12 A2979 RMK SN8 SLP132=

CYXE;2005-12-08 16:00;METAR CYXE 081600Z 27006KT 2SM -SN OVC025 M09/M10 A2981 RMK SC8 SLP139=

CYXE;2005-12-08 16:05;SPECI CYXE 081605Z 27007KT 3SM -SN OVC025 M08/ RMK SC8=

CYXE;2005-12-08 17:00;METAR CYXE 081700Z 31009KT 2 1/2SM -SN FEW040 BKN090 M07/M09 A2984 RMK SC2AC5 /S01/ SLP147=

CYXE;2005-12-08 17:12;SPECI CYXE 081712Z 32011KT 3SM -SN SCT040 OVC080 M07/ RMK SC3AC4=

CYXE;2005-12-08 17:37;SPECI CYXE 081737Z 32010KT 15SM SCT040 BKN060 M07/ RMK SC4SC2=

CYXE;2005-12-08 18:00;METAR CYXE 081800Z 32009KT 15SM SCT040 M07/M09 A2985 RMK SC2 SLP147=

CYXE;2005-12-08 19:00;METAR CYXE 081900Z 29010KT 15SM FEW020 BKN045 M06/M09 A2986 RMK SC1SC6 SLP152=

CYXE;2005-12-08 20:00;METAR CYXE 082000Z 30005KT 15SM OVC043 M05/M09 A2986 RMK SC8 SLP152=

CYXE;2005-12-08 21:00;METAR CYXE 082100Z 31007KT 15SM OVC028 M05/M09 A2989 RMK SC8 SLP160=

CYXE;2005-12-08 22:00;METAR CYXE 082200Z 30009KT 15SM OVC028 M05/M08 A2992 RMK SC8 SLP169=

CYXE;2005-12-08 23:00;METAR CYXE 082300Z 27005KT 15SM OVC028 M05/M08 A2993 RMK SC8 SLP174=

CYXE;2005-12-09 00:00;METAR CYXE 090000Z 27004KT 15SM OVC019 M05/M08 A2994 RMK SC8 SLP174=

CYXE;2005-12-09 01:00;METAR CYXE 090100Z 24004KT 15SM OVC015 M05/M07 A2992 RMK SC8 SLP170=

CYXE;2005-12-09 01:05;SPECI CYXE 090105Z 25005KT 15SM -SN OVC015 M05/ RMK SC8=

CYXE;2005-12-09 02:00;METAR CYXE 090200Z 22004KT 15SM -SN OVC015 M05/M07 A2992 RMK SC8 SLP170=

CYXE;2005-12-09 02:36;SPECI CYXE 090236Z 22005KT 15SM OVC017 M04/ RMK SC8=

CYXE;2005-12-09 03:00;METAR CYXE 090300Z 19006KT 15SM OVC019 M04/M07 A2990 RMK SC8 SLP160=

CYXE;2005-12-09 04:00;METAR CYXE 090400Z 20008KT 15SM OVC019 M04/M06 A2986 RMK SC8 SLP147=

CYXE;2005-12-09 05:00;METAR CYXE 090500Z 20008KT 15SM BKN019 OVC093 M04/M06 A2984 RMK SC6AC2 SLP140=

CYXE;2005-12-09 06:00;METAR CYXE 090600Z 20010KT 15SM FEW020 OVC060 M03/M05 A2979 RMK SC2SC6 PRESFR SLP120=

CYXE;2005-12-09 07:00;METAR CYXE 090700Z 21012KT 15SM BKN040 OVC080 M02/M05 A2976 RMK SC5AC3 SLP111=

CYXE;2005-12-09 08:00;METAR CYXE 090800Z 22014KT 15SM BKN058 OVC100 M02/M05 A2972 RMK SC6AC2 SLP098=

CYXE;2005-12-09 09:00;METAR CYXE 090900Z 21011KT 15SM BKN062 OVC100 M02/M05 A2968 RMK SC6AC2 SLP080=

CYXE;2005-12-09 10:00;METAR CYXE 091000Z 22010KT 15SM BKN062 OVC090 M01/M05 A2963 RMK SC6AC2 SLP066=

CYXE;2005-12-09 11:00;METAR CYXE 091100Z 23014G19KT 15SM OVC065 M01/M05 A2961 RMK SC8 SLP057=

CYXE;2005-12-09 11:40;SPECI CYXE 091140Z 23015KT 15SM -SHRA OVC045 00/ RMK SC8=

CYXE;2005-12-09 11:56;SPECI CYXE 091156Z 24014KT 15SM OVC043 00/ RMK SC8=

CYXE;2005-12-09 12:00;METAR CYXE 091200Z 25017KT 15SM OVC043 00/M05 A2958 RMK SC8 SLP044=

CYXE;2005-12-09 13:00;METAR CYXE 091300Z 23015KT 15SM OVC053 00/M04 A2953 RMK SC8 SLP029=

CYXE;2005-12-09 13:48;SPECI CYXE 091348Z 24013G19KT 15SM -SHRA OVC053 01/ RMK SC8 CVCTV CLD EMBD=

CYXE;2005-12-09 14:00;METAR CYXE 091400Z 24015KT 15SM -SHRA OVC053 01/M04 A2953 RMK SC8 CVCTV CLD EMBD SLP028=

CYXE;2005-12-09 14:10;SPECI CYXE 091410Z 24012KT 15SM VCSH OVC053 01/ RMK SC8=

CYXE;2005-12-09 15:00;METAR CYXE 091500Z 24011KT 15SM OVC059 03/M02 A2950 RMK SC8 SLP016=

CYXE;2005-12-09 16:00;METAR CYXE 091600Z 23011KT 15SM BKN070 02/M02 A2949 RMK AC6 SLP013=

CYXE;2005-12-09 17:00;METAR CYXE 091700Z 25012KT 15SM FEW070 03/M02 A2949 RMK AC2 SLP012=

CYXE;2005-12-09 18:00;METAR CYXE 091800Z 27012KT 15SM BKN065 BKN250 06/M01 A2946 RMK SC5CI2 SLP000=

CYXE;2005-12-09 19:00;METAR CYXE 091900Z 26013KT 15SM BKN070 BKN250 05/M01 A2945 RMK AC4CI1 SLP996=

CYXE;2005-12-09 20:00;METAR CYXE 092000Z 29017KT 15SM SCT060 BKN250 07/M01 A2945 RMK SC3CI2 SLP995=

CYXE;2005-12-09 21:00;METAR CYXE 092100Z 30016G21KT 15SM BKN050 BKN250 06/M01 A2946 RMK SC6CI1 SLP997=

CYXE;2005-12-09 22:00;METAR CYXE 092200Z 31018G24KT 15SM SCT040 BKN046 BKN082 06/M00 A2950 RMK SC3SC2AC1 SLP012=

CYXE;2005-12-09 23:00;METAR CYXE 092300Z 31019G24KT 15SM BKN031 BKN067 OVC082 04/01 A2956 RMK SC5AC2AC1 SLP030=

CYXE;2005-12-09 23:21;SPECI CYXE 092321Z 32022G31KT 15SM -SHRA BKN021 OVC036 04/ RMK SC6SC2=

CYXE;2005-12-10 00:00;METAR CYXE 100000Z 33017G24KT 15SM -SHRA BKN029 BKN064 04/01 A2961 RMK SC6SC2 SLP050=

CYXE;2005-12-10 00:19;SPECI CYXE 100019Z 32010G17KT 15SM OVC038 04/ RMK SC8=

CYXE;2005-12-10 01:00;METAR CYXE 100100Z 31009KT 15SM OVC035 04/01 A2966 RMK SC8 SLP065=

CYXE;2005-12-10 02:00;METAR CYXE 100200Z 31010KT 15SM OVC039 04/01 A2969 RMK SC8 SLP076=

CYXE;2005-12-10 03:00;METAR CYXE 100300Z 32013KT 15SM BKN027 03/01 A2970 RMK SC7 SLP080=

CYXE;2005-12-10 04:00;METAR CYXE 100400Z 31014KT 15SM OVC022 03/01 A2974 RMK SC8 SLP093=

CYXE;2005-12-10 05:00;METAR CYXE 100500Z 32014G19KT 15SM BKN022 03/01 A2977 RMK SC6 SLP101=

CYXE;2005-12-10 05:26;SPECI CYXE 100526Z 31012KT 15SM FEW022 02/ RMK SC2=

CYXE;2005-12-10 06:00;METAR CYXE 100600Z 32014KT 15SM BKN022 03/00 A2980 RMK SC5 SLP111=

CYXE;2005-12-10 07:00;METAR CYXE 100700Z 32009KT 15SM SCT025 02/M01 A2983 RMK SC3 SLP121=

CYXE;2005-12-10 08:00;METAR CYXE 100800Z 30008KT 15SM FEW025 SCT100 01/M01 A2984 RMK SC2AC2 SLP124=

CYXE;2005-12-10 10:00;METAR CYXE 101000Z 30015KT 15SM BKN100 02/M02 A2986 RMK AC5 SLP133=

CYXE;2005-12-10 11:00;METAR CYXE 101100Z 30013KT 15SM FEW100 01/M02 A2987 RMK AC1 SLP136=

CYXE;2005-12-10 12:00;METAR CYXE 101200Z 30012KT 15SM FEW100 01/M03 A2989 RMK AC1 SLP146=

CYXE;2005-12-10 13:00;METAR CYXE 101300Z 30011KT 15SM FEW100 M00/M03 A2991 RMK AC1 SLP151=

CYXE;2005-12-10 14:00;METAR CYXE 101400Z 31011KT 15SM BKN120 M00/M03 A2992 RMK AC6 SLP155=

CYXE;2005-12-10 15:00;METAR CYXE 101500Z 31012KT 15SM BKN120 M00/M03 A2992 RMK AC6 SLP158=

CYXE;2005-12-10 16:00;METAR CYXE 101600Z 31009KT 15SM BKN120 M00/M03 A2994 RMK AC4 SLP164=

CYXE;2005-12-10 17:00;METAR CYXE 101700Z 31005KT 15SM FEW120 00/M03 A2994 RMK AC2 SLP164=

CYXE;2005-12-10 18:00;METAR CYXE 101800Z 30006KT 15SM FEW140 01/M03 A2994 RMK AC2 SLP163=

CYXE;2005-12-10 19:00;METAR CYXE 101900Z 28010KT 15SM FEW140 BKN250 03/M03 A2992 RMK AC1CI2 SLP156=

CYXE;2005-12-10 20:00;METAR CYXE 102000Z 28006KT 15SM BKN200 03/M02 A2990 RMK CI5 SLP152=

CYXE;2005-12-10 21:00;METAR CYXE 102100Z 26006KT 15SM BKN200 02/M02 A2987 RMK CI5 SLP140=

CYXE;2005-12-10 22:00;METAR CYXE 102200Z 25006KT 15SM BKN240 02/M02 A2986 RMK CI5 SLP137=

CYXE;2005-12-10 23:00;METAR CYXE 102300Z 23009KT 15SM OVC240 01/M02 A2983 RMK CI7 SLP126=

CYXE;2005-12-11 00:00;METAR CYXE 110000Z 23007KT 15SM OVC100 02/M02 A2980 RMK AS8 SLP116=

CYXE;2005-12-11 01:49;SPECI CYXE 110149Z 24010KT 15SM -RA OVC031 02/ RMK SC8=

CYXE;2005-12-11 02:00;METAR CYXE 110200Z 25010KT 10SM -RA OVC028 02/M00 A2974 RMK SC8 SLP097=

CYXE;2005-12-11 03:00;METAR CYXE 110300Z 23008KT 15SM -RA OVC030 02/01 A2971 RMK SC8 SLP085=

CYXE;2005-12-11 04:00;METAR CYXE 110400Z 25008KT 15SM OVC040 02/01 A2968 RMK SC8 SLP076=

CYXE;2005-12-11 05:00;METAR CYXE 110500Z 24013KT 15SM BKN050 OVC080 02/00 A2965 RMK SC6AC2 SLP065=

CYXE;2005-12-11 06:00;METAR CYXE 110600Z 26011KT 15SM OVC076 03/00 A2964 RMK AC8 SLP059=

CYXE;2005-12-11 07:00;METAR CYXE 110700Z 27010KT 15SM BKN083 04/01 A2963 RMK AC7 SLP057=

CYXE;2005-12-11 08:00;METAR CYXE 110800Z 30012KT 15SM BKN090 06/01 A2964 RMK AC6 SLP059=

CYXE;2005-12-11 09:00;METAR CYXE 110900Z 31012KT 15SM BKN060 06/01 A2966 RMK SC6 SLP065=

CYXE;2005-12-11 10:00;METAR CYXE 111000Z 29014G19KT 15SM FEW060 SCT120 05/01 A2968 RMK SC2AC1 SLP070=

CYXE;2005-12-11 11:00;METAR CYXE 111100Z 30017KT 15SM FEW060 SCT120 05/01 A2968 RMK SC1AC0 SLP072=

CYXE;2005-12-11 12:00;METAR CYXE 111200Z 30016KT 15SM FEW120 05/01 A2970 RMK AC1 SLP078=

CYXE;2005-12-11 13:00;METAR CYXE 111300Z 30016G21KT 15SM FEW120 05/01 A2971 RMK AC1 SLP083=

CYXE;2005-12-11 14:00;METAR CYXE 111400Z 31014G19KT 15SM FEW120 05/00 A2973 RMK AC1 SLP090=

CYXE;2005-12-11 15:00;METAR CYXE 111500Z 31016KT 15SM FEW100 FEW250 05/M00 A2976 RMK AC1CI1 SLP098=

CYXE;2005-12-11 16:00;METAR CYXE 111600Z 31013G18KT 15SM FEW250 04/M00 A2978 RMK CI1 SLP107=

CYXE;2005-12-11 17:00;METAR CYXE 111700Z 31013KT 15SM SCT250 05/00 A2981 RMK CI2 SLP115=

CYXE;2005-12-11 18:00;METAR CYXE 111800Z 32016G22KT 15SM FEW250 06/M00 A2982 RMK CI1 SLP119=

CYXE;2005-12-11 19:00;METAR CYXE 111900Z 32019KT 15SM FEW250 06/M00 A2983 RMK CI1 SLP123=

CYXE;2005-12-11 20:00;METAR CYXE 112000Z 32014G19KT 15SM FEW250 06/M00 A2985 RMK CI2 SLP127=

CYXE;2005-12-11 21:00;METAR CYXE 112100Z 31013KT 15SM FEW250 06/M00 A2986 RMK CI2 SLP131=

CYXE;2005-12-11 22:00;METAR CYXE 112200Z 30010KT 15SM FEW250 05/M01 A2988 RMK CI1 SLP137=

CYXE;2005-12-11 23:00;METAR CYXE 112300Z 30008KT 15SM FEW250 02/M02 A2990 RMK CI1 SLP142=

CYXE;2005-12-12 00:00;METAR CYXE 120000Z 30009KT 15SM SKC 01/M02 A2991 RMK SLP151=

CYXE;2005-12-12 01:00;METAR CYXE 120100Z 29010KT 15SM SKC 01/M02 A2991 RMK SLP153=

CYXE;2005-12-12 02:00;METAR CYXE 120200Z 28009KT 15SM SKC M00/M03 A2992 RMK SLP155=

CYXE;2005-12-12 03:00;METAR CYXE 120300Z 29008KT 15SM SKC M02/M04 A2992 RMK SLP158=

CYXE;2005-12-12 04:00;METAR CYXE 120400Z 31007KT 15SM SKC M02/M04 A2992 RMK SLP156=

CYXE;2005-12-12 05:00;METAR CYXE 120500Z 29006KT 15SM SKC M03/M05 A2992 RMK SLP158=

CYXE;2005-12-12 06:00;METAR CYXE 120600Z 30007KT 15SM BKN250 M04/M06 A2993 RMK CI2 SLP162=

CYXE;2005-12-12 07:00;METAR CYXE 120700Z 31005KT 15SM OVC250 M02/M04 A2993 RMK CI6 SLP161=

CYXE;2005-12-12 08:00;METAR CYXE 120800Z 29005KT 15SM BKN120 M03/M04 A2993 RMK AC6 SLP162=

CYXE;2005-12-12 09:00;METAR CYXE 120900Z 18005KT 15SM SCT120 BKN250 M04/M06 A2993 RMK AC4CI0 SLP160=

CYXE;2005-12-12 10:00;METAR CYXE 121000Z 21003KT 15SM FEW120 BKN250 M04/M05 A2994 RMK AC2CI0 SLP163=

CYXE;2005-12-12 11:00;METAR CYXE 121100Z 22005KT 15SM FEW120 BKN250 M06/M07 A2993 RMK AC1CI1 SLP160=

CYXE;2005-12-12 12:00;METAR CYXE 121200Z 18003KT 15SM FEW120 OVC250 M05/M06 A2991 RMK AC1CI2 SLP158=

CYXE;2005-12-12 13:00;METAR CYXE 121300Z 00000KT 15SM BKN250 M06/M07 A2991 RMK CI2 SLP159=

CYXE;2005-12-12 14:00;METAR CYXE 121400Z 13002KT 15SM BKN250 M06/M07 A2991 RMK CI2 SLP157=

CYXE;2005-12-12 15:00;METAR CYXE 121500Z 17004KT 15SM BKN250 M06/M07 A2990 RMK CI2 SLP155=

CYXE;2005-12-12 16:00;METAR CYXE 121600Z 16003KT 15SM BKN250 M06/M08 A2988 RMK CI5 SLP151=

CYXE;2005-12-12 17:00;METAR CYXE 121700Z 19004KT 15SM OVC250 M04/M05 A2987 RMK CI6 SLP148=

CYXE;2005-12-12 18:00;METAR CYXE 121800Z 18006KT 15SM BKN250 M02/M03 A2985 RMK CI6 SLP138=

CYXE;2005-12-12 19:00;METAR CYXE 121900Z 15005KT 15SM BKN250 M01/M02 A2982 RMK CI6 SLP128=

CYXE;2005-12-12 20:00;METAR CYXE 122000Z 14006KT 15SM FEW093 OVC250 01/M01 A2979 RMK AC1CI6 SLP120=

CYXE;2005-12-12 21:00;METAR CYXE 122100Z 11005KT 15SM FEW093 OVC250 01/M01 A2975 RMK AC2CI3 SLP103=

CYXE;2005-12-12 22:00;METAR CYXE 122200Z 11006KT 15SM FEW093 BKN250 00/M01 A2973 RMK AC2CI4 SLP096=

CYXE;2005-12-12 23:00;METAR CYXE 122300Z 12008KT 15SM BKN250 M00/M01 A2972 RMK CI4 SLP091=

CYXE;2005-12-13 00:00;METAR CYXE 130000Z 11007KT 15SM BKN250 M01/M02 A2969 RMK CI4 SLP082=

CYXE;2005-12-13 01:00;METAR CYXE 130100Z 12006KT 15SM FEW250 M02/M03 A2966 RMK CI2 SLP073=

CYXE;2005-12-13 02:00;METAR CYXE 130200Z 11006KT 15SM FEW250 M02/M04 A2963 RMK CI2 SLP063=

CYXE;2005-12-13 03:00;METAR CYXE 130300Z 12006KT 15SM FEW250 M02/M03 A2961 RMK CI1 SLP056=

CYXE;2005-12-13 04:00;METAR CYXE 130400Z 10007KT 15SM BKN110 M02/M03 A2956 RMK AC5 SLP040=

CYXE;2005-12-13 05:00;METAR CYXE 130500Z 09007KT 15SM BKN110 M02/M03 A2954 RMK AC7 SLP034=

CYXE;2005-12-13 06:00;METAR CYXE 130600Z 08008KT 15SM FEW020 BKN130 M02/M03 A2951 RMK SC2AC4 SLP020=

CYXE;2005-12-13 07:00;METAR CYXE 130700Z 07007KT 15SM FEW020 BKN130 M02/M03 A2950 RMK SC2AC5 SLP016=

CYXE;2005-12-13 07:18;SPECI CYXE 130718Z 04006KT 15SM SCT006 BKN012 RMK ST3SC4=

CYXE;2005-12-13 07:23;SPECI CYXE 130723Z 05008KT 15SM BKN006 BKN012 RMK ST6SC2=

CYXE;2005-12-13 08:00;METAR CYXE 130800Z 06009KT 15SM OVC007 M02/M03 A2946 RMK ST8 SLP005=

CYXE;2005-12-13 09:00;METAR CYXE 130900Z 06008KT 15SM OVC006 M02/M03 A2945 RMK ST8 SLP998=

CYXE;2005-12-13 10:00;METAR CYXE 131000Z 04011KT 15SM OVC007 M02/M03 A2945 RMK ST8 SLP997=

CYXE;2005-12-13 10:03;SPECI CYXE 131003Z 04010KT 15SM -SN OVC008 M02/ RMK ST8=

CYXE;2005-12-13 10:48;SPECI CYXE 131048Z 02012KT 15SM -SN -FZDZ OVC006 M02/ RMK ST8=

CYXE;2005-12-13 11:00;METAR CYXE 131100Z 03011KT 7SM -SN -FZDZ OVC005 M02/M03 A2945 RMK ST8 SLP996=

CYXE;2005-12-13 11:15;SPECI CYXE 131115Z 03012KT 3SM -SN -FZRA OVC005 M02/ RMK ST8=

CYXE;2005-12-13 11:45;SPECI CYXE 131145Z 02011KT 6SM -FZDZ OVC005 M02/ RMK ST8=

CYXE;2005-12-13 12:00;METAR CYXE 131200Z 36011KT 8SM -FZDZ OVC005 M02/M04 A2945 RMK ST8 SLP999=

CYXE;2005-12-13 14:00;METAR CYXE 131400Z 01013KT 6SM -SG OVC007 M02/M04 A2946 RMK ST8 SLP004=

CYXE;2005-12-13 14:14;SPECI CYXE 131414Z 36012KT 3/4SM R09/4000VP6000FT/D -SN VV006 M02/ RMK SN8=

CYXE;2005-12-13 14:25;SPECI CYXE 131425Z 36010KT 3/4SM R09/P6000FT/D -SN VV005 M03/ RMK SN8=

CYXE;2005-12-13 15:00;METAR CYXE 131500Z 36010G15KT 1SM R09/P6000FT/U -SN DRSN VV006 M03/M04 A2948 RMK SN8 SLP011=

CYXE;2005-12-13 16:00;METAR CYXE 131600Z 01011KT 1 1/2SM -SN DRSN OVC023 M02/M04 A2951 RMK SN3SC5 SLP020=

CYXE;2005-12-13 16:20;SPECI CYXE 131620Z 36012KT 2SM -SN DRSN SCT009 OVC021 M02/ RMK SF2SC6=

CYXE;2005-12-13 17:39;SPECI CYXE 131739Z 36012KT 1SM R09/P6000FT/D -SN DRSN OVC009 M02/ RMK SN6SF2=

CYXE;2005-12-13 18:00;METAR CYXE 131800Z 36011G16KT 1SM R09/P6000FT/U -SN DRSN OVC019 M02/M03 A2954 RMK SN6SC2 /S02/ SLP031=

CYXE;2005-12-13 18:32;SPECI CYXE 131832Z 36012KT 1SM R09/P6000FT/D -SN DRSN OVC012 M02/ RMK SN6SC2=

CYXE;2005-12-13 18:50;SPECI CYXE 131850Z 36011KT 1SM R09/P6000FT/N -SN DRSN VV007 M02/ RMK SN8=

CYXE;2005-12-13 19:00;METAR CYXE 131900Z 35010KT 1SM R09/P6000FT/D -SN DRSN VV008 M01/M03 A2955 RMK SN8 SLP033=

CYXE;2005-12-13 19:09;SPECI CYXE 131909Z 35009KT 3/4SM R09/5500FT/D -SN DRSN VV005 M01/ RMK SN8=

CYXE;2005-12-13 19:30;SPECI CYXE 131930Z 34009KT 3/4SM R09/4500FT/U -SN DRSN VV006 M01/ RMK SN8=

CYXE;2005-12-13 19:49;SPECI CYXE 131949Z 34015KT 5/8SM R09/5500FT/U -SN DRSN VV005 M00/ RMK SN8=

CYXE;2005-12-13 20:00;METAR CYXE 132000Z 34016KT 3/4SM R09/5000FT/N -SN DRSN VV006 M00/M02 A2956 RMK SN8 SLP036=

CYXE;2005-12-13 21:00;METAR CYXE 132100Z 34017KT 1SM R09/P6000FT/U -SN DRSN VV005 M01/M02 A2958 RMK SN8 SLP042=

CYXE;2005-12-13 21:12;SPECI CYXE 132112Z 34014G19KT 1 1/2SM R09/5500FT/N -SN DRSN OVC006 M01/ RMK SF8=

CYXE;2005-12-13 21:36;SPECI CYXE 132136Z 34013KT 2 1/2SM -SN DRSN OVC005 M01/ RMK SF8 /S01/=

CYXE;2005-12-13 21:41;SPECI CYXE 132141Z 34013KT 2 1/2SM -SN DRSN BKN006 OVC016 M01/ RMK SF6SC2=

CYXE;2005-12-13 22:00;METAR CYXE 132200Z 34014KT 2SM -SN DRSN BKN007 OVC015 M01/M02 A2960 RMK SN2SF5SC2 SLP049=

CYXE;2005-12-13 23:00;METAR CYXE 132300Z 34013KT 1SM R09/P6000FT/U -SN DRSN VV006 M01/M02 A2962 RMK SN8 SLP057=

CYXE;2005-12-14 00:00;METAR CYXE 140000Z 33015KT 1SM R09/P6000FT/N -SN DRSN VV005 M01/M02 A2964 RMK SN8 /S02/ SLP066=

CYXE;2005-12-14 01:00;METAR CYXE 140100Z 34015G21KT 1 1/2SM -SN DRSN VV007 M01/M03 A2966 RMK SN8 SLP070=

CYXE;2005-12-14 01:40;SPECI CYXE 140140Z 34017KT 2SM -SN DRSN VV008 M01/ RMK SN8=

CYXE;2005-12-14 02:00;METAR CYXE 140200Z 35016KT 1 3/4SM -SN DRSN VV006 M02/M03 A2968 RMK SN8 /S01/ SLP077=

CYXE;2005-12-14 02:46;SPECI CYXE 140246Z 35015G24KT 2SM -SN DRSN VV010 M03/ RMK SN8=

CYXE;2005-12-14 03:00;METAR CYXE 140300Z 35019G24KT 3SM -SN DRSN OVC010 M03/M05 A2971 RMK SN3SF5 SLP089=

CYXE;2005-12-14 03:27;SPECI CYXE 140327Z 35017G22KT 2SM -SN DRSN VV010 M03/ RMK SN8=

CYXE;2005-12-14 04:00;METAR CYXE 140400Z 35016G21KT 2 1/2SM -SN DRSN VV012 M03/M05 A2972 RMK SN8 SLP095=

CYXE;2005-12-14 04:19;SPECI CYXE 140419Z 35018KT 2 1/2SM -SN DRSN OVC018 M03/ RMK SN3SC5=

CYXE;2005-12-14 04:44;SPECI CYXE 140444Z 35017KT 4SM -SN DRSN OVC030 M03/ RMK SC8=

CYXE;2005-12-14 05:00;METAR CYXE 140500Z 35018KT 4SM -SN DRSN OVC035 M04/M06 A2974 RMK SC8 SLP100=

CYXE;2005-12-14 05:31;SPECI CYXE 140531Z 36016KT 2SM -SN DRSN OVC015 M04/ RMK SN4SC4=

CYXE;2005-12-14 05:50;SPECI CYXE 140550Z 36015KT 5SM -SN DRSN OVC012 M04/ RMK SC8=

CYXE;2005-12-14 06:00;METAR CYXE 140600Z 36015G20KT 10SM -SN DRSN OVC010 M04/M06 A2978 RMK SC8 SLP114=

CYXE;2005-12-14 07:00;METAR CYXE 140700Z 36013KT 10SM -SN DRSN BKN010 OVC030 M04/M06 A2980 RMK SC6SC2 SLP121=

CYXE;2005-12-14 08:00;METAR CYXE 140800Z 36015KT 5SM -SN DRSN SCT011 OVC045 M04/M06 A2982 RMK SC4SC4 SLP128=

CYXE;2005-12-14 09:00;METAR CYXE 140900Z 35015KT 10SM -SN DRSN SCT015 OVC031 M04/M06 A2986 RMK SC3SC5 SLP139=

CYXE;2005-12-14 10:00;METAR CYXE 141000Z 36014KT 4SM -SN DRSN BKN012 OVC030 M04/M06 A2987 RMK SC6SC2 SLP144=

CYXE;2005-12-14 10:37;SPECI CYXE 141037Z 36014G21KT 15SM DRSN OVC014 M04/ RMK SC8=

CYXE;2005-12-14 10:45;SPECI CYXE 141045Z 36016KT 8SM -SN DRSN OVC012 M04/ RMK SC8=

CYXE;2005-12-14 11:00;METAR CYXE 141100Z 36014KT 3SM -SN DRSN OVC012 M04/M06 A2989 RMK SC8 SLP151=

CYXE;2005-12-14 11:15;SPECI CYXE 141115Z 36011KT 10SM -SN DRSN OVC008 M04/ RMK SC8=

CYXE;2005-12-14 12:00;METAR CYXE 141200Z 36014KT 15SM -SN DRSN OVC006 M04/M05 A2992 RMK ST8 SLP160=

CYXE;2005-12-14 12:07;SPECI CYXE 141207Z 36016KT 15SM -SN DRSN OVC008 M04/ RMK ST8=

CYXE;2005-12-14 13:00;METAR CYXE 141300Z 35017KT 5SM -SN DRSN OVC005 M04/M05 A2993 RMK ST8 SLP164=

CYXE;2005-12-14 13:47;SPECI CYXE 141347Z 36017KT 12SM -SN DRSN OVC009 M04/ RMK ST8=

CYXE;2005-12-14 14:00;METAR CYXE 141400Z 35016KT 10SM -SN DRSN OVC008 M04/M06 A2994 RMK ST8 SLP168=

CYXE;2005-12-14 15:00;METAR CYXE 141500Z 35016KT 10SM -SN DRSN OVC011 M04/M06 A2997 RMK ST8 SLP179=

CYXE;2005-12-14 16:00;METAR CYXE 141600Z 35015G20KT 10SM -SN DRSN OVC010 M04/M06 A2999 RMK ST8 SLP187=

CYXE;2005-12-14 16:15;SPECI CYXE 141615Z 35013G19KT 10SM -SN DRSN OVC009 M04/ RMK ST8=

CYXE;2005-12-14 17:00;METAR CYXE 141700Z 36017G24KT 10SM -SN DRSN OVC009 M04/M06 A3000 RMK ST8 SLP191=

CYXE;2005-12-14 18:00;METAR CYXE 141800Z 35017KT 10SM -SN DRSN OVC009 M04/M06 A3000 RMK ST8 SLP192=

CYXE;2005-12-14 18:32;SPECI CYXE 141832Z 34017KT 10SM -SN DRSN OVC010 M04/ RMK ST8=

CYXE;2005-12-14 19:00;METAR CYXE 141900Z 35012G18KT 15SM OVC012 M04/M06 A3001 RMK SC8 SLP193=

CYXE;2005-12-14 20:00;METAR CYXE 142000Z 34016KT 15SM BKN012 BKN041 M05/M08 A3002 RMK SC6SC1 SLP198=

CYXE;2005-12-14 21:00;METAR CYXE 142100Z 35010KT 15SM FEW012 BKN041 M04/M08 A3004 RMK SC2SC6 SLP204=

CYXE;2005-12-14 22:00;METAR CYXE 142200Z 34009KT 15SM FEW012 FEW045 FEW060 M06/M09 A3006 RMK SF1SC1SC1 SLP210=

CYXE;2005-12-14 23:00;METAR CYXE 142300Z 34008KT 15SM FEW012 FEW045 FEW080 M10/M12 A3007 RMK SF1SC1AC1 SLP215=

CYXE;2005-12-15 00:00;METAR CYXE 150000Z 33007KT 15SM FEW080 M12/M14 A3009 RMK AC1 SLP226=

CYXE;2005-12-15 01:00;METAR CYXE 150100Z 33007KT 15SM FEW080 M13/M15 A3009 RMK AC2 SLP227=

CYXE;2005-12-15 02:00;METAR CYXE 150200Z 32009KT 15SM OVC042 M07/M10 A3009 RMK SC8 SLP228=

CYXE;2005-12-15 03:00;METAR CYXE 150300Z 32008KT 15SM OVC035 M05/M08 A3009 RMK SC8 SLP224=

CYXE;2005-12-15 03:15;SPECI CYXE 150315Z 33007KT 15SM -SN OVC033 M05/ RMK SC8=

CYXE;2005-12-15 04:00;METAR CYXE 150400Z 33009KT 15SM -SN BKN015 OVC030 M04/M06 A3009 RMK SC6SC2 SLP224=

CYXE;2005-12-15 05:00;METAR CYXE 150500Z 33006KT 15SM -SN OVC015 M04/M06 A3009 RMK SC8 SLP224=

CYXE;2005-12-15 05:47;SPECI CYXE 150547Z 34005KT 15SM -SN OVC013 M04/ RMK SC8=

CYXE;2005-12-15 06:00;METAR CYXE 150600Z 33007KT 15SM -SN OVC010 M03/M05 A3010 RMK ST8 SLP224=

CYXE;2005-12-15 06:35;SPECI CYXE 150635Z 35008KT 8SM -SN -FZDZ OVC013 M03/ RMK SF8=

CYXE;2005-12-15 07:00;METAR CYXE 150700Z 36012KT 6SM -SN -FZDZ OVC015 M03/M05 A3010 RMK SC8 SLP225=

CYXE;2005-12-15 07:37;SPECI CYXE 150737Z 36019KT 1 1/2SM -SN DRSN OVC018 M04/ REFZDZ RMK SN6SC2 TOWER OBS=

CYXE;2005-12-15 08:00;METAR CYXE 150800Z 36014KT 2SM -SN DRSN OVC018 M05/M07 A3011 REFZDZ RMK SN2SC6 TOWER OBS SLP227=

CYXE;2005-12-15 08:07;SPECI CYXE 150807Z 36016KT 3SM -SN DRSN OVC018 M05/ RMK SC8=

CYXE;2005-12-15 08:19;SPECI CYXE 150819Z 36016KT 2SM -SN DRSN OVC018 M05/ RMK SN3SC5 TOWER OBS=

CYXE;2005-12-15 09:00;METAR CYXE 150900Z 01017KT 1 1/2SM -SN DRSN OVC016 M06/M08 A3012 RMK SN5SC3 TOWER OBS SLP233=

CYXE;2005-12-15 09:37;SPECI CYXE 150937Z 35009KT 2SM -SN DRSN OVC018 M06/ RMK SC8 TOWER OBS=

CYXE;2005-12-15 10:00;METAR CYXE 151000Z 36013KT 3SM -SN DRSN BKN018 OVC079 M07/M09 A3013 RMK SC6AC1 /S01/ SLP238=

CYXE;2005-12-15 10:27;SPECI CYXE 151027Z 34013KT 4SM -SN OVC010 M07/ RMK ST8=

CYXE;2005-12-15 11:00;METAR CYXE 151100Z 33016KT 5SM -SN DRSN BKN015 OVC079 M09/M11 A3014 RMK SC6AC2 SLP239=

CYXE;2005-12-15 12:00;METAR CYXE 151200Z 33018KT 6SM -SN DRSN OVC037 M10/M13 A3015 RMK SC7 SLP253=

CYXE;2005-12-15 13:00;METAR CYXE 151300Z 34011KT 15SM -SN BKN024 M12/M15 A3017 RMK SC3 SLP259=

CYXE;2005-12-15 14:00;METAR CYXE 151400Z 33012KT 15SM -SN FEW028 BKN250 M13/M16 A3017 RMK SC2CI0 SLP260=

CYXE;2005-12-15 14:31;SPECI CYXE 151431Z 33008KT 15SM FEW250 M14/ RMK CI2=

CYXE;2005-12-15 15:00;METAR CYXE 151500Z 32009KT 15SM FEW030 FEW250 M15/M17 A3019 RMK SC1CI1 SLP264=

CYXE;2005-12-15 16:00;METAR CYXE 151600Z 32011KT 15SM FEW036 SCT250 M15/M18 A3020 RMK SC1CI1 SLP268=

CYXE;2005-12-15 17:00;METAR CYXE 151700Z 33014KT 15SM FEW027 SCT250 M15/M17 A3021 RMK SC1CI1 SLP270=

CYXE;2005-12-15 18:00;METAR CYXE 151800Z 33013KT 15SM SCT250 M14/M17 A3020 RMK CI2 SLP267=

CYXE;2005-12-15 19:00;METAR CYXE 151900Z 33011KT 15SM SCT250 M13/M17 A3020 RMK CI2 SLP266=

CYXE;2005-12-15 20:00;METAR CYXE 152000Z 33009KT 15SM FEW020 FEW250 M13/M17 A3020 RMK SC1CI1 SLP266=

CYXE;2005-12-15 22:00;METAR CYXE 152200Z 35010KT 15SM FEW025 FEW080 FEW250 M13/M17 A3021 RMK SC1AC1CI1 SLP270=

CYXE;2005-12-15 23:00;METAR CYXE 152300Z 35011KT 15SM FEW090 FEW250 M15/M18 A3021 RMK AC1CI1 SLP270=

CYXE;2005-12-16 00:00;METAR CYXE 160000Z 35011KT 15SM SCT090 SCT250 M15/M18 A3021 RMK AC2CI1 SLP276=

CYXE;2005-12-16 01:00;METAR CYXE 160100Z 35015KT 15SM BKN050 BKN090 M14/M17 A3022 RMK SC5AC2 SLP278=

CYXE;2005-12-16 01:13;SPECI CYXE 160113Z 36013G18KT 15SM -SN DRSN BKN050 M14/ RMK SC6=

CYXE;2005-12-16 02:00;METAR CYXE 160200Z 36013KT 10SM -SN DRSN BKN055 M14/M17 A3021 RMK SC6 SLP276=

CYXE;2005-12-16 03:00;METAR CYXE 160300Z 36013KT 10SM -SN DRSN OVC045 M14/M17 A3022 RMK SC7 SLP280=

CYXE;2005-12-16 04:00;METAR CYXE 160400Z 36012KT 10SM -SN DRSN FEW018 OVC032 M15/M18 A3022 RMK SC1SC7 SLP281=

CYXE;2005-12-16 06:00;METAR CYXE 160600Z 35011KT 15SM -SN DRSN OVC034 M15/M19 A3022 RMK SC8 SLP280=

CYXE;2005-12-16 07:00;METAR CYXE 160700Z 36009KT 15SM -SN FEW015 OVC036 M15/M19 A3021 RMK SC2SC6 SLP278=

CYXE;2005-12-16 08:00;METAR CYXE 160800Z 36011KT 15SM -SN FEW015 OVC038 M16/M19 A3021 RMK SC2SC6 SLP278=

CYXE;2005-12-16 09:00;METAR CYXE 160900Z 36015KT 15SM -SN SCT016 OVC040 M16/M20 A3021 RMK SC4SC4 SLP275=

CYXE;2005-12-16 10:00;METAR CYXE 161000Z 36013KT 15SM -SN BKN051 OVC063 M16/M20 A3021 RMK SC6SC2 SLP275=

CYXE;2005-12-16 11:00;METAR CYXE 161100Z 36014KT 4SM -SN DRSN BKN037 OVC051 M17/M20 A3021 RMK SC5SC3 SLP276=

CYXE;2005-12-16 12:00;METAR CYXE 161200Z 36012KT 7SM -SN DRSN BKN040 M17/M20 A3021 RMK SC6 SLP279=

CYXE;2005-12-16 14:00;METAR CYXE 161400Z 35009KT 10SM -SN DRSN BKN033 OVC065 M17/M21 A3021 RMK SC5SC3 SLP280=

CYXE;2005-12-16 15:00;METAR CYXE 161500Z 36009KT 15SM -SN BKN032 OVC065 M18/M21 A3023 RMK SC5SC2 SLP285=

CYXE;2005-12-16 15:40;SPECI CYXE 161540Z 36009KT 2SM -SN OVC016 M18/ RMK SC8=

CYXE;2005-12-16 16:00;METAR CYXE 161600Z 36009KT 1SM R09/P6000FT/N -SN OVC016 M17/M21 A3024 RMK SC8 SLP289=

CYXE;2005-12-16 16:39;SPECI CYXE 161639Z 01009KT 6SM -SN SCT020 BKN070 M17/ RMK SC3AC2=

CYXE;2005-12-16 17:00;METAR CYXE 161700Z 01010KT 10SM -SN FEW028 FEW070 BKN250 M17/M21 A3026 RMK SC1AC1CI1 SLP294=

CYXE;2005-12-16 17:27;SPECI CYXE 161727Z 01010KT 15SM FEW016 FEW062 BKN250 RMK SF1SC1CI1=

CYXE;2005-12-16 18:00;METAR CYXE 161800Z 02012KT 15SM FEW057 SCT250 M17/M22 A3026 RMK SC1CI1 SLP299=

CYXE;2005-12-16 19:00;METAR CYXE 161900Z 03011KT 15SM FEW022 FEW080 BKN250 M17/M22 A3026 RMK SC1AC1CI1 SLP299=

CYXE;2005-12-16 20:00;METAR CYXE 162000Z 01009KT 15SM BKN250 M18/M22 A3027 RMK CI2 SLP301=

CYXE;2005-12-16 21:00;METAR CYXE 162100Z 01010KT 15SM FEW250 M18/M23 A3027 RMK CI1 SLP303=

CYXE;2005-12-16 22:00;METAR CYXE 162200Z 35008KT 15SM FEW250 M19/M24 A3028 RMK CI0 SLP306=

CYXE;2005-12-16 23:00;METAR CYXE 162300Z 35007KT 15SM OVC050 M19/M23 A3031 RMK SC7 SLP314=

CYXE;2005-12-17 00:00;METAR CYXE 170000Z 01010KT 15SM FEW015 OVC045 M18/M23 A3033 RMK SC2SC6 SLP322=

CYXE;2005-12-17 01:00;METAR CYXE 170100Z 03009KT 15SM BKN040 M18/M23 A3034 RMK SC4 SLP326=

CYXE;2005-12-17 01:39;SPECI CYXE 170139Z 02006KT 10SM SCT040 M20/ RMK SC2 IC=

CYXE;2005-12-17 02:00;METAR CYXE 170200Z 01007KT 12SM FEW040 M20/M24 A3035 RMK SC1 IC SLP329=

CYXE;2005-12-17 04:00;METAR CYXE 170400Z 35007KT 12SM SCT040 M22/M26 A3038 RMK SC2 IC SLP341=

CYXE;2005-12-17 05:00;METAR CYXE 170500Z 36007KT 12SM FEW040 M24/M27 A3039 RMK SC0 IC SLP346=

CYXE;2005-12-17 06:00;METAR CYXE 170600Z 35007KT 15SM FEW026 M25/M29 A3041 RMK SC1 IC SLP356=

CYXE;2005-12-17 07:00;METAR CYXE 170700Z 34009KT 15SM FEW026 M25/M29 A3043 RMK SC1 IC SLP362=

CYXE;2005-12-17 08:00;METAR CYXE 170800Z 35008KT 15SM SKC M25/M29 A3044 RMK IC SLP366=

CYXE;2005-12-17 09:00;METAR CYXE 170900Z 35008KT 15SM BKN023 M24/M28 A3048 RMK SC6 IC SLP379=

CYXE;2005-12-17 09:11;SPECI CYXE 170911Z 36006KT 15SM -SN OVC023 M23/ RMK SC7=

CYXE;2005-12-17 10:00;METAR CYXE 171000Z 36002KT 15SM -SN SCT019 M23/M27 A3048 RMK SC3 SLP381=

CYXE;2005-12-17 10:36;SPECI CYXE 171036Z 36003KT 15SM FEW030 M24/ RMK SC2=

CYXE;2005-12-17 11:00;METAR CYXE 171100Z 31002KT 15SM FEW030 M24/M28 A3049 RMK SC2 SLP382=

CYXE;2005-12-17 12:00;METAR CYXE 171200Z 33004KT 15SM SKC M25/M29 A3050 RMK SLP387=

CYXE;2005-12-17 13:00;METAR CYXE 171300Z 01007KT 15SM SKC M26/M30 A3052 RMK SLP392=

CYXE;2005-12-17 14:00;METAR CYXE 171400Z 01005KT 15SM SKC M27/M31 A3052 RMK SLP392=

CYXE;2005-12-17 15:00;METAR CYXE 171500Z 00000KT 15SM SKC M27/M31 A3054 RMK SLP403=

CYXE;2005-12-17 16:00;METAR CYXE 171600Z 27003KT 15SM SKC M26/M30 A3056 RMK SLP410=

CYXE;2005-12-17 17:00;METAR CYXE 171700Z 25003KT 15SM FEW250 M25/M29 A3057 RMK CI0 SLP415=

CYXE;2005-12-17 18:00;METAR CYXE 171800Z 30002KT 15SM SKC M23/M27 A3057 RMK SLP414=

CYXE;2005-12-17 19:00;METAR CYXE 171900Z 32004KT 15SM SKC M22/M26 A3057 RMK SLP416=

CYXE;2005-12-17 20:00;METAR CYXE 172000Z 26002KT 15SM SKC M21/M24 A3057 RMK SLP415=

CYXE;2005-12-17 21:00;METAR CYXE 172100Z 27002KT 15SM SKC M20/M24 A3058 RMK SLP415=

CYXE;2005-12-17 22:00;METAR CYXE 172200Z 25002KT 15SM SKC M20/M24 A3058 RMK SLP417=

CYXE;2005-12-17 23:00;METAR CYXE 172300Z 23003KT 15SM SKC M21/M25 A3059 RMK SLP418=

CYXE;2005-12-18 00:00;METAR CYXE 180000Z 21003KT 15SM SKC M22/M25 A3058 RMK SLP418=

CYXE;2005-12-18 01:00;METAR CYXE 180100Z 21006KT 15SM SKC M23/M27 A3057 RMK SLP416=

CYXE;2005-12-18 02:00;METAR CYXE 180200Z 19006KT 15SM SKC M22/M26 A3057 RMK SLP413=

CYXE;2005-12-18 03:00;METAR CYXE 180300Z 18006KT 15SM SKC M23/M26 A3057 RMK SLP415=

CYXE;2005-12-18 04:00;METAR CYXE 180400Z 22007KT 15SM SKC M25/M28 A3057 RMK SLP416=

CYXE;2005-12-18 05:00;METAR CYXE 180500Z 23005KT 15SM SKC M25/M29 A3057 RMK SLP416=

CYXE;2005-12-18 06:00;METAR CYXE 180600Z 21005KT 15SM FEW007 M24/M28 A3057 RMK SF1 SF NE-S OVR CITY SLP414=

CYXE;2005-12-18 07:00;METAR CYXE 180700Z 21007KT 15SM FEW007 M23/M27 A3055 RMK SF1 SLP408=

CYXE;2005-12-18 08:00;METAR CYXE 180800Z 20006KT 15SM SKC M23/M27 A3054 RMK SLP406=

CYXE;2005-12-18 09:00;METAR CYXE 180900Z 20007KT 15SM FEW007 M24/M27 A3054 RMK SF1 SLP401=

CYXE;2005-12-18 10:00;METAR CYXE 181000Z 18006KT 15SM SKC M24/M27 A3055 RMK SLP404=

CYXE;2005-12-18 11:00;METAR CYXE 181100Z 19007KT 15SM SKC M23/M27 A3053 RMK SLP398=

CYXE;2005-12-18 12:00;METAR CYXE 181200Z 19005KT 15SM SKC M24/M27 A3052 RMK SLP394=

CYXE;2005-12-18 13:00;METAR CYXE 181300Z 19006KT 15SM SKC M24/M28 A3050 RMK SLP390=

CYXE;2005-12-18 14:00;METAR CYXE 181400Z 21008KT 15SM SKC M23/M27 A3048 RMK SLP382=

CYXE;2005-12-18 15:00;METAR CYXE 181500Z 21006KT 15SM SKC M24/M28 A3047 RMK SLP380=

CYXE;2005-12-18 16:00;METAR CYXE 181600Z 20009KT 15SM SKC M22/M26 A3045 RMK SLP373=

CYXE;2005-12-18 17:00;METAR CYXE 181700Z 22008KT 15SM SCT250 M20/M24 A3043 RMK CI1 SLP367=

CYXE;2005-12-18 18:00;METAR CYXE 181800Z 21008KT 15SM BKN250 M19/M22 A3040 RMK CI2 SLP354=

CYXE;2005-12-18 19:00;METAR CYXE 181900Z 22012KT 15SM BKN250 M16/M21 A3038 RMK CI2 SLP346=

CYXE;2005-12-18 20:00;METAR CYXE 182000Z 20007KT 15SM BKN250 M15/M18 A3036 RMK CI2 SLP341=

CYXE;2005-12-18 21:00;METAR CYXE 182100Z 21012KT 15SM BKN250 M13/M18 A3033 RMK CI1 SLP325=

CYXE;2005-12-18 22:00;METAR CYXE 182200Z 21009KT 15SM BKN250 M13/M18 A3032 RMK CI1 SLP322=

CYXE;2005-12-18 23:00;METAR CYXE 182300Z 22010KT 15SM BKN250 M15/M19 A3032 RMK CI1 SLP321=

CYXE;2005-12-19 00:00;METAR CYXE 190000Z 22010KT 15SM SCT250 M15/M19 A3029 RMK CI1 SLP311=

CYXE;2005-12-19 01:00;METAR CYXE 190100Z 21013KT 15SM SCT250 M15/M18 A3026 RMK CI1 SLP301=

CYXE;2005-12-19 02:00;METAR CYXE 190200Z 22015KT 15SM BKN250 M14/M18 A3023 RMK CI0 SLP291=

CYXE;2005-12-19 03:00;METAR CYXE 190300Z 22013KT 15SM BKN250 M15/M18 A3020 RMK CI1 SLP281=

CYXE;2005-12-19 04:00;METAR CYXE 190400Z 22011KT 15SM SCT250 M15/M19 A3017 RMK CI0 SLP273=

CYXE;2005-12-19 05:00;METAR CYXE 190500Z 23008KT 15SM FEW250 M17/M20 A3016 RMK CI0 SLP269=

CYXE;2005-12-19 06:00;METAR CYXE 190600Z 22011KT 15SM FEW250 M16/M19 A3015 RMK CI0 SLP260=

CYXE;2005-12-19 08:00;METAR CYXE 190800Z 22012KT 15SM FEW250 M15/M19 A3011 RMK CI0 SLP249=

CYXE;2005-12-19 09:00;METAR CYXE 190900Z 22012KT 15SM FEW250 M17/M20 A3009 RMK CI0 SLP238=

CYXE;2005-12-19 10:00;METAR CYXE 191000Z 23011KT 15SM SKC M17/M20 A3008 RMK SLP233=

CYXE;2005-12-19 11:00;METAR CYXE 191100Z 22012KT 15SM SKC M17/M20 A3008 RMK SLP233=

CYXE;2005-12-19 12:00;METAR CYXE 191200Z 24010KT 15SM SKC M16/M20 A3007 RMK SLP230=

CYXE;2005-12-19 14:00;METAR CYXE 191400Z 24010KT 15SM SKC M17/M20 A3007 RMK SLP231=

CYXE;2005-12-19 15:00;METAR CYXE 191500Z 25009KT 15SM SKC M17/M20 A3007 RMK SLP230=

CYXE;2005-12-19 16:00;METAR CYXE 191600Z 25008KT 15SM SKC M17/M20 A3009 RMK SLP237=

CYXE;2005-12-19 17:00;METAR CYXE 191700Z 24006KT 15SM SKC M16/M20 A3010 RMK SLP241=

CYXE;2005-12-19 18:00;METAR CYXE 191800Z 28005KT 15SM SKC M13/M18 A3011 RMK SLP242=

CYXE;2005-12-19 19:00;METAR CYXE 191900Z 27004KT 15SM SKC M12/M16 A3011 RMK SLP244=

CYXE;2005-12-19 20:00;METAR CYXE 192000Z 31005KT 15SM FEW025 M11/M15 A3010 RMK SC1 SLP241=

CYXE;2005-12-19 20:18;SPECI CYXE 192018Z 28005KT 15SM BKN009 M11/ RMK SF5=

CYXE;2005-12-19 21:00;METAR CYXE 192100Z 30005KT 15SM BKN008 M10/M14 A3013 RMK SF6 SLP248=

CYXE;2005-12-19 22:00;METAR CYXE 192200Z 30004KT 15SM OVC008 M10/M13 A3015 RMK ST8 SLP254=

CYXE;2005-12-19 23:00;METAR CYXE 192300Z 30005KT 15SM OVC005 M10/M13 A3016 RMK ST8 SLP257=

CYXE;2005-12-19 23:23;SPECI CYXE 192323Z 30004KT 15SM OVC006 M10/ RMK ST8=

CYXE;2005-12-20 00:00;METAR CYXE 200000Z 32003KT 15SM OVC004 M10/M13 A3018 RMK ST8 SLP264=

CYXE;2005-12-20 00:29;SPECI CYXE 200029Z 28004KT 15SM OVC005 M10/ RMK ST8=

CYXE;2005-12-20 01:00;METAR CYXE 200100Z 30003KT 15SM OVC005 M10/M12 A3019 RMK ST8 SLP269=

CYXE;2005-12-20 01:39;SPECI CYXE 200139Z 30003KT 15SM OVC004 M10/ RMK ST8=

CYXE;2005-12-20 02:00;METAR CYXE 200200Z 31003KT 15SM OVC004 M10/M12 A3019 RMK ST8 SLP269=

CYXE;2005-12-20 03:00;METAR CYXE 200300Z 00000KT 3/4SM R09/4000V5500FT/N BR VV002 M10/M11 A3020 RMK FG8 SLP273=

CYXE;2005-12-20 03:07;SPECI CYXE 200307Z 00000KT 1/2SM R09/4000V5000FT/D FZFG VV002 M10/ RMK FG8=

CYXE;2005-12-20 04:00;METAR CYXE 200400Z 26002KT 3/4SM R09/5500FT/D BR VV001 M09/M10 A3020 RMK FG8 SLP271=

CYXE;2005-12-20 04:44;SPECI CYXE 200444Z 22004KT 3/8SM R09/5000FT/U FZFG VV001 M09/ RMK FG8=

CYXE;2005-12-20 05:00;METAR CYXE 200500Z 22005KT 3/4SM R09/4500VP6000FT/U BR VV002 M09/M10 A3021 RMK FG8 SLP274=

CYXE;2005-12-20 05:09;SPECI CYXE 200509Z 23005KT 1 1/2SM BR OVC002 M09/ RMK ST8=

CYXE;2005-12-20 05:44;SPECI CYXE 200544Z 22002KT 1SM R09/P6000FT/U BR VV002 M09/ RMK FG8=

CYXE;2005-12-20 06:00;METAR CYXE 200600Z 21003KT 3/4SM R09/P6000FT/U BR VV001 M09/M10 A3019 RMK FG8 SLP267=

CYXE;2005-12-20 06:50;SPECI CYXE 200650Z 19004KT 1SM R09/P6000FT/D BR VV002 M09/ RMK FG8=

CYXE;2005-12-20 07:00;METAR CYXE 200700Z 19003KT 1SM R09/P6000FT/N BR VV002 M09/M10 A3019 RMK FG8 SLP266=

CYXE;2005-12-20 08:00;METAR CYXE 200800Z 21008KT 1SM R09/P6000FT/U BR VV002 M09/M10 A3019 RMK FG8 SLP267=

CYXE;2005-12-20 09:00;METAR CYXE 200900Z 19005KT 2SM BR VV002 M10/M11 A3018 RMK FG8 SLP261=

CYXE;2005-12-20 09:41;SPECI CYXE 200941Z 20006KT 2SM BR VV002 M10/ RMK FG8=

CYXE;2005-12-20 10:00;METAR CYXE 201000Z 21005KT 3/4SM R09/P6000FT/D FZFG VV002 M10/M11 A3017 RMK FG8 VIS VRB 1/2-1 SLP258=

CYXE;2005-12-20 10:28;SPECI CYXE 201028Z 23005KT 1/4SM R09/5000FT/D FZFG VV001 M11/ RMK FG8=

CYXE;2005-12-20 11:00;METAR CYXE 201100Z 23004KT 1/4SM R09/5000FT/U FZFG VV001 M11/M12 A3016 RMK FG8 SLP253=

CYXE;2005-12-20 12:00;METAR CYXE 201200Z 21006KT 1/4SM R09/4500VP6000FT/N FZFG VV001 M11/M12 A3013 RMK FG8 SLP246=

CYXE;2005-12-20 12:19;SPECI CYXE 201219Z 22007KT 1/2SM R09/P6000FT/U FZFG VV001 M11/ RMK FG8=

CYXE;2005-12-20 12:50;SPECI CYXE 201250Z 23005KT 3SM BR OVC002 RMK ST8=

CYXE;2005-12-20 13:00;METAR CYXE 201300Z 23004KT 6SM BR OVC002 M11/M12 A3012 RMK ST8 SLP243=

CYXE;2005-12-20 14:00;METAR CYXE 201400Z 21003KT 6SM -SG BR BKN001 M12/M13 A3011 RMK SF6 SLP237=

CYXE;2005-12-20 14:29;SPECI CYXE 201429Z 18005KT 6SM -SG BR BKN003 M13/ RMK SF3=

CYXE;2005-12-20 14:55;SPECI CYXE 201455Z 21005KT 6SM BR SCT002 M14/ RMK SF2=

CYXE;2005-12-20 15:00;METAR CYXE 201500Z 21007KT 3SM BR SCT002 M15/M16 A3010 RMK SF2 SLP238=

CYXE;2005-12-20 16:00;METAR CYXE 201600Z 20004KT 6SM IC BR FEW010 M15/M16 A3009 RMK SF1 SLP234=

CYXE;2005-12-20 17:00;METAR CYXE 201700Z 20002KT 6SM IC BR FEW015 M15/M16 A3008 RMK SF1 SLP230=

CYXE;2005-12-20 18:00;METAR CYXE 201800Z 19004KT 15SM FEW250 M14/M15 A3005 RMK CI1 IC BR SLP220=

CYXE;2005-12-20 19:00;METAR CYXE 201900Z 23005KT 15SM FEW250 M14/M15 A3003 RMK CI1 IC SLP212=

CYXE;2005-12-20 19:41;SPECI CYXE 201941Z 23003KT 15SM FEW250 M14/ RMK CI1=

CYXE;2005-12-20 20:00;METAR CYXE 202000Z 24004KT 15SM FEW250 M13/M14 A3002 RMK CI1 SLP209=

CYXE;2005-12-20 21:00;METAR CYXE 202100Z 00000KT 10SM SCT250 M13/M14 A3000 RMK CI2 BR SLP201=

CYXE;2005-12-20 22:00;METAR CYXE 202200Z 23004KT 8SM FEW120 BKN250 M15/M16 A3000 RMK AC1CI3 BR SLP203=

CYXE;2005-12-20 23:00;METAR CYXE 202300Z 21005KT 8SM FEW120 OVC250 M17/M18 A3001 RMK AC1CI3 BR SLP204=

CYXE;2005-12-21 00:00;METAR CYXE 210000Z 23008KT 10SM FEW120 BKN250 M17/M18 A3001 RMK AC1CI3 BR SLP207=

CYXE;2005-12-21 01:00;METAR CYXE 210100Z 22005KT 12SM FEW120 BKN250 M17/M18 A2998 RMK AC1CI3 BR SLP198=

CYXE;2005-12-21 02:00;METAR CYXE 210200Z 12002KT 10SM SCT250 M16/M17 A2998 RMK CI2 BR SLP197=

CYXE;2005-12-21 03:00;METAR CYXE 210300Z 18003KT 8SM BKN250 M16/M17 A2997 RMK CI2 BR SLP197=

CYXE;2005-12-21 04:00;METAR CYXE 210400Z 17005KT 10SM BKN250 M16/M18 A2997 RMK CI3 BR SLP196=

CYXE;2005-12-21 05:00;METAR CYXE 210500Z 14005KT 15SM BKN250 M16/M18 A2996 RMK CI2 SLP192=

CYXE;2005-12-21 06:00;METAR CYXE 210600Z 18005KT 15SM BKN250 M16/M17 A2995 RMK CI2 SLP190=

CYXE;2005-12-21 07:00;METAR CYXE 210700Z 19005KT 15SM SCT250 M15/M16 A2994 RMK CI2 SLP185=

CYXE;2005-12-21 08:00;METAR CYXE 210800Z 18004KT 15SM SCT250 M14/M15 A2991 RMK CI2 SLP175=

CYXE;2005-12-21 09:00;METAR CYXE 210900Z 18004KT 15SM BKN250 M13/M14 A2989 RMK CI2 SLP165=

CYXE;2005-12-21 10:00;METAR CYXE 211000Z 15005KT 15SM SCT097 BKN250 M12/M13 A2985 RMK AC4CI2 SLP152=

CYXE;2005-12-21 11:00;METAR CYXE 211100Z 18003KT 15SM OVC074 M10/M11 A2981 RMK AC8 SLP141=

CYXE;2005-12-21 11:07;SPECI CYXE 211107Z 19005KT 15SM -FZRA OVC074 M10/ RMK AC8=

CYXE;2005-12-21 11:26;SPECI CYXE 211126Z 17005KT 15SM OVC074 M09/ RMK AC8=

CYXE;2005-12-21 12:00;METAR CYXE 211200Z 16003KT 15SM SCT078 BKN250 M09/M10 A2977 RMK AC3CI1 SLP125=

CYXE;2005-12-21 13:00;METAR CYXE 211300Z 15003KT 15SM FEW078 BKN250 M09/M10 A2974 RMK AC1CI1 SLP114=

CYXE;2005-12-21 14:00;METAR CYXE 211400Z 18006KT 15SM BKN078 OVC250 M07/M09 A2970 RMK AS5CI2 SLP101=

CYXE;2005-12-21 15:00;METAR CYXE 211500Z 18008KT 15SM SCT080 OVC250 M06/M08 A2967 RMK AS3CI3 SLP086=

CYXE;2005-12-21 16:00;METAR CYXE 211600Z 19006KT 15SM BKN100 OVC250 M06/M07 A2966 RMK AC6CI2 SLP083=

CYXE;2005-12-21 17:00;METAR CYXE 211700Z 22008KT 15SM SCT100 BKN250 M05/M06 A2963 RMK AC4CI2 SLP075=

CYXE;2005-12-21 18:00;METAR CYXE 211800Z 25009KT 15SM BKN090 BKN250 M01/M02 A2961 RMK AC5CI2 SLP063=

CYXE;2005-12-21 19:00;METAR CYXE 211900Z 23010KT 12SM SCT100 BKN250 00/M01 A2959 RMK AC4CI2 BR SLP057=

CYXE;2005-12-21 20:00;METAR CYXE 212000Z 23007KT 15SM FEW100 SCT250 02/M01 A2959 RMK AC2CI1 SLP057=

CYXE;2005-12-21 21:00;METAR CYXE 212100Z 25008KT 15SM FEW100 SCT250 03/M00 A2959 RMK AC2CI0 SLP050=

CYXE;2005-12-21 22:00;METAR CYXE 212200Z 25005KT 15SM FEW100 FEW250 03/M01 A2959 RMK AC1CI1 SLP050=

CYXE;2005-12-21 23:00;METAR CYXE 212300Z 25008KT 15SM FEW100 FEW250 00/M02 A2959 RMK AC1CI1 SLP050=

CYXE;2005-12-22 00:00;METAR CYXE 220000Z 25008KT 15SM FEW250 M02/M03 A2959 RMK CI1 SLP050=

CYXE;2005-12-22 01:00;METAR CYXE 220100Z 27004KT 15SM FEW250 M04/M05 A2958 RMK CI1 SLP049=

CYXE;2005-12-22 02:00;METAR CYXE 220200Z 24005KT 15SM FEW250 M04/M05 A2958 RMK CI1 SLP048=

CYXE;2005-12-22 03:00;METAR CYXE 220300Z 21005KT 15SM BKN250 M04/M05 A2957 RMK CI2 SLP043=

CYXE;2005-12-22 04:00;METAR CYXE 220400Z 21007KT 15SM SCT250 M03/M05 A2957 RMK CI2 SLP044=

CYXE;2005-12-22 05:00;METAR CYXE 220500Z 22007KT 15SM BKN250 M03/M05 A2957 RMK CI2 SLP043=

CYXE;2005-12-22 06:00;METAR CYXE 220600Z 22007KT 15SM BKN250 M02/M04 A2956 RMK CI6 SLP039=

CYXE;2005-12-22 07:00;METAR CYXE 220700Z 21006KT 15SM BKN250 M02/M04 A2955 RMK CI5 SLP033=

CYXE;2005-12-22 08:00;METAR CYXE 220800Z 21007KT 15SM BKN250 M02/M04 A2955 RMK CI3 SLP033=

CYXE;2005-12-22 09:00;METAR CYXE 220900Z 21006KT 15SM SCT250 M03/M04 A2953 RMK CI2 SLP025=

CYXE;2005-12-22 10:00;METAR CYXE 221000Z 18006KT 15SM FEW250 M04/M06 A2952 RMK CI1 SLP023=

CYXE;2005-12-22 11:00;METAR CYXE 221100Z 19005KT 15SM FEW250 M05/M06 A2951 RMK CI1 SLP019=

CYXE;2005-12-22 12:00;METAR CYXE 221200Z 18005KT 15SM FEW250 M05/M06 A2949 RMK CI1 SLP016=

CYXE;2005-12-22 13:00;METAR CYXE 221300Z 18006KT 15SM BKN250 M05/M06 A2947 RMK CI5 SLP010=

CYXE;2005-12-22 14:00;METAR CYXE 221400Z 19008KT 15SM FEW120 BKN250 M04/M05 A2947 RMK AC2CI5 SLP008=

CYXE;2005-12-22 15:00;METAR CYXE 221500Z 19004KT 15SM OVC250 M04/M05 A2945 RMK CI6 SLP001=

CYXE;2005-12-22 16:00;METAR CYXE 221600Z 20007KT 15SM OVC250 M03/M04 A2945 RMK CI6 SLP001=

CYXE;2005-12-22 17:00;METAR CYXE 221700Z 18003KT 15SM FEW120 BKN250 M03/M04 A2944 RMK AC2CI5 SLP998=

CYXE;2005-12-22 18:00;METAR CYXE 221800Z 17004KT 15SM BKN120 BKN250 M01/M03 A2943 RMK AC5CI1 SLP991=

CYXE;2005-12-22 19:00;METAR CYXE 221900Z 23005KT 15SM BKN120 BKN250 01/M01 A2942 RMK AC5CI1 SLP990=

CYXE;2005-12-22 20:00;METAR CYXE 222000Z 22002KT 15SM BKN120 OVC250 01/M01 A2941 RMK AC4CI3 SLP985=

CYXE;2005-12-22 21:00;METAR CYXE 222100Z 22002KT 15SM BKN120 OVC250 00/M02 A2941 RMK AC4CI2 SLP984=

CYXE;2005-12-22 22:00;METAR CYXE 222200Z 17003KT 15SM SCT095 OVC250 02/M01 A2940 RMK AC3CI2 SLP981=

CYXE;2005-12-22 23:00;METAR CYXE 222300Z 15002KT 15SM FEW097 OVC250 00/M01 A2940 RMK AC2CI2 SLP981=

CYXE;2005-12-23 00:00;METAR CYXE 230000Z 18005KT 10SM FEW097 OVC250 M02/M03 A2941 RMK AC2CI2 BR SLP987=

CYXE;2005-12-23 01:00;METAR CYXE 230100Z 22005KT 6SM BR FEW010 FEW097 OVC250 M04/M05 A2942 RMK SF1AC1CI2 SF N-SE SLP991=

CYXE;2005-12-23 01:41;SPECI CYXE 230141Z 22005KT 4SM R09/2400V4000FT/U BR FEW003 BKN099 OVC250 M02/ RMK SF2AC2CI1=

CYXE;2005-12-23 02:00;METAR CYXE 230200Z 23005KT 4SM R09/4000VP6000FT/D BR FEW003 SCT099 BKN250 M02/M03 A2940 RMK SF1AC2CI1 VIS W 2 SLP985=

CYXE;2005-12-23 03:00;METAR CYXE 230300Z 20005KT 4SM R09/1600V2400FT/U PRFG FEW003 FEW099 SCT250 M03/M04 A2939 RMK SF1AC1CI0 VIS SW-NW 1/2 SLP981=

CYXE;2005-12-23 03:37;SPECI CYXE 230337Z 18005KT 2SM R09/1100V3500FT/D BR FEW001 M04/ RMK SF2 VIS SW-NW 1/2 FG=

CYXE;2005-12-23 04:00;METAR CYXE 230400Z 19004KT 2SM R09/1400FT/N BR FEW002 M04/M05 A2937 RMK FG2SF1 VIS S-NW 1/8 FG OVR RWYS SLP974=

CYXE;2005-12-23 04:14;SPECI CYXE 230414Z 20005KT 3/4SM R09/1400FT/N BR SKC M06/ RMK FG2 VIS S-NW 1/4 FG OVR RWYS=

CYXE;2005-12-23 04:29;SPECI CYXE 230429Z 18005KT 1/4SM R09/1400V2000FT/N FZFG SKC M05/ RMK FG5=

CYXE;2005-12-23 04:37;SPECI CYXE 230437Z 19005KT 1/8SM R09/1400V2200FT/U FZFG SKC M05/ RMK FG5=

CYXE;2005-12-23 05:00;METAR CYXE 230500Z 18006KT 1/4SM R09/2200V3500FT/U FZFG SKC M05/M06 A2937 RMK FG5 TOWER OBS SLP976=

CYXE;2005-12-23 05:15;SPECI CYXE 230515Z 18006KT 3/8SM R09/P6000FT/U FZFG SKC M05/ RMK FG4 TOWER OBS=

CYXE;2005-12-23 05:25;SPECI CYXE 230525Z 20005KT 1/4SM R09/P6000FT/U FZFG SKC M04/ RMK FG5 TOWER OBS=

CYXE;2005-12-23 05:37;SPECI CYXE 230537Z 21006KT 1/8SM R09/P6000FT/D FZFG SKC M06/ RMK FG6 TOWER OBS=

CYXE;2005-12-23 05:48;SPECI CYXE 230548Z 23007KT 1/2SM R09/3500VP6000FT/D FZFG SKC M05/ RMK FG6 TOWER OBS=

CYXE;2005-12-23 06:00;METAR CYXE 230600Z 23007KT 1/4SM R09/3000V4500FT/N FZFG SKC M06/M07 A2939 RMK FG6 TOWER OB SLP981=

CYXE;2005-12-23 06:27;SPECI CYXE 230627Z 22005KT 8SM MIFG FEW090 SCT250 M06/ RMK FG1AC1CI1=

CYXE;2005-12-23 07:00;METAR CYXE 230700Z 23008KT 12SM BKN250 M07/M08 A2938 RMK CI5 BR SLP979=

CYXE;2005-12-23 08:00;METAR CYXE 230800Z 23005KT 10SM OVC250 M05/M07 A2939 RMK CI5 BR SLP980=

CYXE;2005-12-23 09:00;METAR CYXE 230900Z 00000KT 15SM OVC250 M06/M07 A2939 RMK CI6 SLP980=

CYXE;2005-12-23 10:00;METAR CYXE 231000Z 21005KT 15SM BKN110 OVC250 M05/M06 A2940 RMK AC5CI3 SLP982=

CYXE;2005-12-23 11:00;METAR CYXE 231100Z 20003KT 15SM SCT110 OVC250 M04/M05 A2940 RMK AC4CI4 SLP984=

CYXE;2005-12-23 12:00;METAR CYXE 231200Z 00000KT 15SM BKN088 OVC250 M04/M05 A2941 RMK AC6CI2 SLP989=

CYXE;2005-12-23 13:00;METAR CYXE 231300Z 28006KT 15SM SCT090 BKN250 M05/M06 A2943 RMK AC3CI3 SLP994=

CYXE;2005-12-23 14:00;METAR CYXE 231400Z 27004KT 15SM BKN100 BKN250 M05/M07 A2947 RMK AC5CI2 SLP006=

CYXE;2005-12-23 15:00;METAR CYXE 231500Z 28008KT 10SM FEW100 BKN250 M06/M07 A2951 RMK AC2CI2 BR SLP023=

CYXE;2005-12-23 16:00;METAR CYXE 231600Z 28007KT 10SM FEW100 BKN250 M05/M07 A2955 RMK AC2CI2 BR SLP036=

CYXE;2005-12-23 17:00;METAR CYXE 231700Z 29009KT 10SM FEW100 BKN250 M04/M05 A2959 RMK AC1CI2 BR SLP048=

CYXE;2005-12-23 18:00;METAR CYXE 231800Z 29010KT 10SM FEW100 BKN250 M03/M04 A2963 RMK AC1CI2 BR SLP064=

CYXE;2005-12-23 19:00;METAR CYXE 231900Z 29010KT 15SM BKN090 BKN250 M01/M03 A2964 RMK AC3CI2 SLP068=

CYXE;2005-12-23 20:00;METAR CYXE 232000Z 30010KT 15SM FEW090 SCT250 00/M02 A2967 RMK AC1CI2 SLP076=

CYXE;2005-12-23 21:00;METAR CYXE 232100Z 29011KT 15SM SCT100 BKN250 01/M02 A2969 RMK AC3CI2 SLP084=

CYXE;2005-12-23 22:00;METAR CYXE 232200Z 27011KT 15SM FEW090 SCT250 01/M02 A2973 RMK AC1CI1 SLP097=

CYXE;2005-12-23 23:00;METAR CYXE 232300Z 26008KT 15SM FEW090 SCT250 M01/M03 A2976 RMK AC2CI1 SLP105=

CYXE;2005-12-24 00:00;METAR CYXE 240000Z 27011KT 15SM FEW090 FEW250 M00/M03 A2977 RMK AC2CI0 SLP111=

CYXE;2005-12-24 01:00;METAR CYXE 240100Z 26011KT 15SM FEW250 00/M02 A2979 RMK CI1 SLP116=

CYXE;2005-12-24 02:00;METAR CYXE 240200Z 26011KT 15SM SKC M01/M03 A2979 RMK SLP116=

CYXE;2005-12-24 03:00;METAR CYXE 240300Z 25010KT 15SM SKC M01/M04 A2981 RMK SLP124=

CYXE;2005-12-24 04:00;METAR CYXE 240400Z 27011KT 15SM SKC 00/M03 A2983 RMK SLP132=

CYXE;2005-12-24 05:00;METAR CYXE 240500Z 27009KT 15SM SKC 00/M03 A2985 RMK SLP138=

CYXE;2005-12-24 06:00;METAR CYXE 240600Z 26009KT 15SM SKC M00/M04 A2985 RMK SLP136=

CYXE;2005-12-24 07:00;METAR CYXE 240700Z 27010KT 15SM SKC M01/M04 A2986 RMK SLP141=

CYXE;2005-12-24 08:00;METAR CYXE 240800Z 27006KT 15SM SKC M02/M05 A2988 RMK SLP146=

CYXE;2005-12-24 09:00;METAR CYXE 240900Z 27006KT 15SM SCT250 M03/M05 A2990 RMK CI2 SLP151=

CYXE;2005-12-24 10:00;METAR CYXE 241000Z 25008KT 15SM BKN250 M03/M05 A2991 RMK CI3 SLP156=

CYXE;2005-12-24 11:00;METAR CYXE 241100Z 26009KT 15SM BKN250 M03/M05 A2990 RMK CI4 SLP153=

CYXE;2005-12-24 12:00;METAR CYXE 241200Z 28007KT 15SM BKN250 M04/M06 A2989 RMK CI3 SLP151=

CYXE;2005-12-24 13:00;METAR CYXE 241300Z 23009KT 15SM SCT250 M06/M07 A2988 RMK CI2 SLP148=

CYXE;2005-12-24 14:00;METAR CYXE 241400Z 21008KT 15SM BKN250 M06/M08 A2987 RMK CI2 SLP146=

CYXE;2005-12-24 15:00;METAR CYXE 241500Z 22007KT 15SM BKN250 M06/M08 A2988 RMK CI2 SLP149=

CYXE;2005-12-24 16:00;METAR CYXE 241600Z 21008KT 15SM BKN250 M07/M08 A2988 RMK CI2 SLP151=

CYXE;2005-12-24 17:00;METAR CYXE 241700Z 21004KT 15SM FEW250 M04/M06 A2989 RMK CI0 SLP153=

CYXE;2005-12-24 18:00;METAR CYXE 241800Z 22003KT 15SM FEW250 M02/M06 A2987 RMK CI1 SLP144=

CYXE;2005-12-24 19:00;METAR CYXE 241900Z 22003KT 15SM BKN250 M01/M05 A2986 RMK CI2 SLP139=

CYXE;2005-12-24 20:00;METAR CYXE 242000Z 17003KT 15SM SCT250 01/M04 A2983 RMK CI1 SLP130=

CYXE;2005-12-24 21:00;METAR CYXE 242100Z 15003KT 15SM FEW100 SCT250 01/M04 A2981 RMK AC1CI1 SLP122=

CYXE;2005-12-24 22:00;METAR CYXE 242200Z 16003KT 15SM SCT250 M00/M04 A2981 RMK CI2 SLP122=

CYXE;2005-12-24 23:00;METAR CYXE 242300Z 17006KT 15SM FEW120 SCT250 M02/M05 A2983 RMK AC1CI1 SLP127=

CYXE;2005-12-25 00:00;METAR CYXE 250000Z 14006KT 15SM SCT250 M03/M05 A2981 RMK CI2 SLP127=

CYXE;2005-12-25 01:00;METAR CYXE 250100Z 13006KT 15SM FEW250 M03/M05 A2978 RMK CI2 SLP117=

CYXE;2005-12-25 02:00;METAR CYXE 250200Z 13005KT 15SM BKN250 M04/M06 A2977 RMK CI2 SLP114=

CYXE;2005-12-25 03:00;METAR CYXE 250300Z 13006KT 15SM BKN250 M04/M06 A2977 RMK CI2 SLP112=

CYXE;2005-12-25 04:00;METAR CYXE 250400Z 14004KT 15SM OVC250 M04/M06 A2973 RMK CI4 SLP101=

CYXE;2005-12-25 05:00;METAR CYXE 250500Z 15004KT 15SM OVC250 M04/M05 A2972 RMK CI5 SLP097=

CYXE;2005-12-25 06:00;METAR CYXE 250600Z 14005KT 15SM BKN090 OVC250 M02/M04 A2969 RMK AC6CI2 SLP083=

CYXE;2005-12-25 07:00;METAR CYXE 250700Z 14006KT 15SM BKN090 OVC250 M01/M03 A2968 RMK AC5CI2 SLP078=

CYXE;2005-12-25 08:00;METAR CYXE 250800Z 17005KT 15SM BKN090 BKN250 M01/M03 A2965 RMK AC5CI2 SLP069=

CYXE;2005-12-25 09:00;METAR CYXE 250900Z 13005KT 15SM BKN110 OVC250 M01/M03 A2962 RMK AC6CI2 SLP056=

CYXE;2005-12-25 10:00;METAR CYXE 251000Z 16006KT 15SM BKN120 OVC250 00/M02 A2961 RMK AC5CI2 SLP051=

CYXE;2005-12-25 11:00;METAR CYXE 251100Z 15008KT 15SM FEW120 BKN250 M01/M03 A2956 RMK AC2CI3 SLP036=

CYXE;2005-12-25 12:00;METAR CYXE 251200Z 16008KT 15SM FEW120 OVC250 M01/M03 A2954 RMK AC2CI4 SLP031=

CYXE;2005-12-25 13:00;METAR CYXE 251300Z 17005KT 15SM FEW120 OVC250 M02/M04 A2952 RMK AC2CI4 SLP023=

CYXE;2005-12-25 14:00;METAR CYXE 251400Z 17008KT 15SM SCT120 OVC250 M03/M04 A2949 RMK AC3CI4 SLP015=

CYXE;2005-12-25 15:00;METAR CYXE 251500Z 15006KT 15SM FEW120 OVC200 M03/M04 A2946 RMK AC1CI6 SLP003=

CYXE;2005-12-25 16:00;METAR CYXE 251600Z 18010KT 15SM FEW100 OVC200 M02/M03 A2946 RMK AC1CI6 SLP004=

CYXE;2005-12-25 17:00;METAR CYXE 251700Z 18006KT 15SM FEW100 OVC200 M01/M03 A2945 RMK AC2CI6 SLP001=

CYXE;2005-12-25 18:00;METAR CYXE 251800Z 17006KT 15SM SCT090 OVC200 M00/M02 A2941 RMK AC3CI5 SLP983=

CYXE;2005-12-25 19:00;METAR CYXE 251900Z 18007KT 15SM FEW090 OVC200 01/M01 A2937 RMK AC2CI6 SLP971=

CYXE;2005-12-25 20:00;METAR CYXE 252000Z 19007KT 15SM SCT090 BKN160 03/01 A2934 RMK AC3AC4 SLP963=

CYXE;2005-12-25 21:00;METAR CYXE 252100Z 15005KT 15SM FEW090 SCT160 BKN250 04/01 A2931 RMK AC2AC1CI4 SLP948=

CYXE;2005-12-25 22:00;METAR CYXE 252200Z 18006KT 15SM FEW090 OVC220 04/01 A2931 RMK AC2CI3 SLP947=

CYXE;2005-12-25 23:00;METAR CYXE 252300Z 19006KT 15SM BKN093 BKN220 04/01 A2929 RMK AC4CI2 SLP941=

CYXE;2005-12-26 00:00;METAR CYXE 260000Z 17007KT 15SM FEW093 BKN220 03/00 A2929 RMK AC2CI2 SLP941=

CYXE;2005-12-26 01:00;METAR CYXE 260100Z 18007KT 15SM BKN220 03/M00 A2928 RMK CI2 SLP937=

CYXE;2005-12-26 01:21;SPECI CYXE 260121Z 19008KT 15SM SCT220 02/ RMK CI2=

CYXE;2005-12-26 02:00;METAR CYXE 260200Z 19006KT 15SM SKC 02/M01 A2926 RMK SLP932=

CYXE;2005-12-26 03:00;METAR CYXE 260300Z 19005KT 15SM SKC 02/M01 A2925 RMK SLP929=

CYXE;2005-12-26 03:15;SPECI CYXE 260315Z 20003KT 15SM SKC 02/=

CYXE;2005-12-26 04:00;METAR CYXE 260400Z 21009KT 15SM SKC 01/M02 A2924 RMK SLP926=

CYXE;2005-12-26 05:00;METAR CYXE 260500Z 25009KT 15SM SKC 00/M02 A2925 RMK SLP930=

CYXE;2005-12-26 06:00;METAR CYXE 260600Z 23007KT 15SM SKC M02/M03 A2927 RMK SLP936=

CYXE;2005-12-26 07:00;METAR CYXE 260700Z 25005KT 15SM BKN120 M01/M03 A2928 RMK AC6 SLP940=

CYXE;2005-12-26 08:00;METAR CYXE 260800Z 26009KT 15SM SCT120 M02/M04 A2930 RMK AC2 SLP947=

CYXE;2005-12-26 09:00;METAR CYXE 260900Z 27006KT 15SM SCT120 M03/M05 A2932 RMK AC2 SLP954=

CYXE;2005-12-26 10:00;METAR CYXE 261000Z 24007KT 15SM SCT100 M04/M06 A2935 RMK AC3 SLP963=

CYXE;2005-12-26 11:00;METAR CYXE 261100Z 28007KT 15SM BKN100 M02/M03 A2937 RMK AC6 SLP969=

CYXE;2005-12-26 12:00;METAR CYXE 261200Z 25006KT 15SM BKN100 M01/M02 A2940 RMK AC6 SLP978=

CYXE;2005-12-26 13:00;METAR CYXE 261300Z 27003KT 15SM BKN075 M02/M03 A2941 RMK AC6 SLP984=

CYXE;2005-12-26 14:00;METAR CYXE 261400Z 32007KT 15SM BKN075 M01/M02 A2943 RMK AC7 SLP989=

CYXE;2005-12-26 15:00;METAR CYXE 261500Z 31005KT 15SM FEW075 M03/M04 A2945 RMK AC1 SLP998=

CYXE;2005-12-26 16:00;METAR CYXE 261600Z 28006KT 5SM BR FEW080 M05/M06 A2947 RMK AC1 SLP003=

CYXE;2005-12-26 17:00;METAR CYXE 261700Z 29003KT 10SM FEW080 M03/M04 A2949 RMK AC1 BR SLP011=

CYXE;2005-12-26 18:00;METAR CYXE 261800Z 31003KT 15SM FEW080 M00/M02 A2950 RMK AC1 SLP014=

CYXE;2005-12-26 19:00;METAR CYXE 261900Z 32002KT 15SM FEW080 FEW250 02/M01 A2951 RMK AC1CI1 SLP018=

CYXE;2005-12-26 20:00;METAR CYXE 262000Z 34003KT 15SM FEW080 FEW250 02/M01 A2951 RMK AC1CI1 SLP018=

CYXE;2005-12-26 21:00;METAR CYXE 262100Z 36002KT 15SM FEW080 BKN250 03/M01 A2952 RMK AC1CI4 SLP023=

CYXE;2005-12-26 22:00;METAR CYXE 262200Z 00000KT 15SM FEW080 SCT150 BKN250 01/M02 A2955 RMK AC1AC1CI1 SLP030=

CYXE;2005-12-26 23:00;METAR CYXE 262300Z 23003KT 15SM FEW080 SCT150 BKN250 M01/M03 A2955 RMK AC1AC2CI2 SLP033=

CYXE;2005-12-27 00:00;METAR CYXE 270000Z 00000KT 15SM SCT120 OVC250 M02/M03 A2957 RMK AC3CI5 SLP040=

CYXE;2005-12-27 01:00;METAR CYXE 270100Z 05002KT 15SM BKN079 OVC250 M03/M04 A2957 RMK AC5CI3 SLP041=

CYXE;2005-12-27 02:00;METAR CYXE 270200Z 03004KT 15SM BKN079 OVC250 M01/M03 A2958 RMK AC5CI3 SLP044=

CYXE;2005-12-27 03:00;METAR CYXE 270300Z 08003KT 15SM BKN080 OVC250 M02/M03 A2958 RMK AC5CI3 SLP045=

CYXE;2005-12-27 04:00;METAR CYXE 270400Z 30002KT 15SM SCT080 OVC250 M02/M03 A2960 RMK AC4CI4 SLP051=

CYXE;2005-12-27 05:00;METAR CYXE 270500Z 27004KT 15SM SCT078 BKN250 M03/M04 A2961 RMK AC4CI2 SLP054=

CYXE;2005-12-27 06:00;METAR CYXE 270600Z 01004KT 8SM SCT080 BKN250 M03/M05 A2963 RMK AC4CI2 BR SLP062=

CYXE;2005-12-27 07:00;METAR CYXE 270700Z 05005KT 8SM BKN100 M03/M04 A2964 RMK AC5 BR SLP066=

CYXE;2005-12-27 08:00;METAR CYXE 270800Z 04008KT 6SM BR SCT100 M05/M07 A2965 RMK AC2 SLP068=

CYXE;2005-12-27 09:00;METAR CYXE 270900Z 00000KT 6SM R09/2000VP6000FT/U BR BKN120 M06/M06 A2965 RMK AC4 SLP068=

CYXE;2005-12-27 10:00;METAR CYXE 271000Z 00000KT 6SM R09/4500VP6000FT/U BR BKN120 M05/M07 A2967 RMK AC4 SLP073=

CYXE;2005-12-27 11:00;METAR CYXE 271100Z 34004KT 5SM BR BKN060 M07/M09 A2967 RMK SC5 SLP075=

CYXE;2005-12-27 12:00;METAR CYXE 271200Z 08003KT 10SM BKN060 M05/M06 A2968 RMK SC6 BR SLP081=

CYXE;2005-12-27 13:00;METAR CYXE 271300Z 00000KT 10SM SCT060 M05/M06 A2970 RMK SC2 BR SLP086=

CYXE;2005-12-27 13:33;SPECI CYXE 271333Z 19002KT 6SM BR BKN004 M06/ RMK ST5=

CYXE;2005-12-27 13:49;SPECI CYXE 271349Z 14002KT 3SM BR BKN003 M06/ RMK ST7=

CYXE;2005-12-27 14:00;METAR CYXE 271400Z 17002KT 1SM R09/P6000FT/N BR VV001 M05/M07 A2970 RMK FG8 SLP087=

CYXE;2005-12-27 14:29;SPECI CYXE 271429Z 00000KT 1/4SM R09/1400FT/N FZFG SCT001 M06/ RMK FG2ST2=

CYXE;2005-12-27 15:00;METAR CYXE 271500Z 00000KT 1/8SM R09/1100FT/N FZFG BKN001 M07/M08 A2972 RMK FG4ST1 SLP095=

CYXE;2005-12-27 16:00;METAR CYXE 271600Z 00000KT 1/8SM R09/1200FT/N FZFG SKC M07/M08 A2972 RMK FG7 SLP095=

CYXE;2005-12-27 16:41;SPECI CYXE 271641Z 04003KT 1/4SM R09/1400FT/N FZFG SKC M06/ RMK FG5=

CYXE;2005-12-27 17:00;METAR CYXE 271700Z 13003KT 1SM R09/1200V2000FT/U BR BKN250 M06/M08 A2971 RMK CI2 SLP092=

CYXE;2005-12-27 17:10;SPECI CYXE 271710Z 18003KT 2SM R09/1600VP6000FT/U BR BKN250 M05/ RMK CI2=

CYXE;2005-12-27 18:00;METAR CYXE 271800Z 33003KT 1 1/2SM R09/1800VP6000FT/D BR BKN250 M05/M07 A2970 RMK CI2 FG BANK W SLP089=

CYXE;2005-12-27 18:14;SPECI CYXE 271814Z 32002KT 5/8SM R09/1400V2400FT/D BR BKN250 M05/ RMK FG4CI1=

CYXE;2005-12-27 18:48;SPECI CYXE 271848Z 00000KT 3/8SM R09/1400V2200FT/N FZFG BKN250 M05/ RMK FG3CI2=

CYXE;2005-12-27 19:00;METAR CYXE 271900Z 00000KT 1/4SM R09/1600FT/N FZFG BKN250 M05/M06 A2969 RMK FG5CI2 SLP086=

CYXE;2005-12-27 19:34;SPECI CYXE 271934Z 04002KT 1 1/2SM R09/2200FT/D BR BKN250 M04/ RMK CI5 FG BANK W=

CYXE;2005-12-27 20:00;METAR CYXE 272000Z 01003KT 2SM BR BKN250 M04/M05 A2969 RMK CI5 SLP084=

CYXE;2005-12-27 20:50;SPECI CYXE 272050Z 00000KT 1 1/2SM R09/2400V4000FT/N BR BKN002 BKN250 M03/ RMK ST4CI2=

CYXE;2005-12-27 21:00;METAR CYXE 272100Z 00000KT 1SM R09/2200V4500FT/U BR BKN002 M03/M04 A2969 RMK ST6 SLP084=

CYXE;2005-12-27 21:19;SPECI CYXE 272119Z 00000KT 1/2SM R09/5000FT/N FZFG OVC001 M03/ RMK FG6ST2=

CYXE;2005-12-27 22:00;METAR CYXE 272200Z 00000KT 1/2SM R09/4500VP6000FT/D FZFG VV001 M04/M05 A2968 RMK FG8 SLP080=

CYXE;2005-12-27 23:00;METAR CYXE 272300Z 00000KT 1/2SM R09/1800FT/N FZFG VV001 M04/M05 A2968 RMK FG8 SLP081=

CYXE;2005-12-27 23:16;SPECI CYXE 272316Z 06003KT 1/4SM R09/2000FT/N FZFG VV001 M04/ RMK FG8=

CYXE;2005-12-28 00:00;METAR CYXE 280000Z 10008KT 1/4SM R09/2600V5000FT/D FZFG VV001 M03/M05 A2966 RMK FG8 SLP075=

CYXE;2005-12-28 01:00;METAR CYXE 280100Z 16004KT 1/4SM R09/3500V5000FT/N FZFG VV001 M04/M06 A2968 RMK FG8 SLP080=

CYXE;2005-12-28 02:00;METAR CYXE 280200Z 17002KT 1/4SM R09/4000V6000FT/D FZFG VV001 M04/M06 A2968 RMK FG8 SLP080=

CYXE;2005-12-28 02:35;SPECI CYXE 280235Z 10004KT 1/2SM R09/P6000FT/D FZFG VV001 M04/ RMK FG8=

CYXE;2005-12-28 03:00;METAR CYXE 280300Z 07004KT 3/4SM R09/P6000FT/U BR VV001 M04/M05 A2966 RMK FG8 SLP075=

CYXE;2005-12-28 03:12;SPECI CYXE 280312Z 07004KT 2SM BR OVC002 M04/ RMK ST8=

CYXE;2005-12-28 03:29;SPECI CYXE 280329Z 09004KT 4SM BR OVC002 RMK ST8=

CYXE;2005-12-28 04:00;METAR CYXE 280400Z 10005KT 3SM BR OVC002 M04/M06 A2965 RMK ST8 SLP074=

CYXE;2005-12-28 05:00;METAR CYXE 280500Z 08004KT 6SM BR OVC002 M04/M06 A2965 RMK ST8 SLP073=

CYXE;2005-12-28 05:15;SPECI CYXE 280515Z 08005KT 6SM BR OVC003 M04/ RMK ST8=

CYXE;2005-12-28 05:25;SPECI CYXE 280525Z 09004KT 2 1/2SM BR OVC002 M04/ RMK ST8=

CYXE;2005-12-28 06:00;METAR CYXE 280600Z 11003KT 3/8SM R09/P6000FT/D FZFG VV001 M04/M06 A2965 RMK FG8 SLP072=

CYXE;2005-12-28 08:00;METAR CYXE 280800Z 08003KT 1/8SM R09/2000FT/N FZFG VV001 M03/M05 A2965 RMK FG8 SLP071=

CYXE;2005-12-28 09:00;METAR CYXE 280900Z 05005KT 1/4SM R09/3000FT/N FZFG VV001 M03/M05 A2965 RMK FG8 SLP069=

CYXE;2005-12-28 10:00;METAR CYXE 281000Z 11002KT 1/4SM R09/P6000FT/N FZFG VV001 M04/M05 A2966 RMK FG8 SLP072=

CYXE;2005-12-28 11:00;METAR CYXE 281100Z 00000KT 1/2SM R09/3500FT/N FZFG VV001 M04/M05 A2966 RMK FG8 SLP073=

CYXE;2005-12-28 11:48;SPECI CYXE 281148Z 00000KT 1/2SM R09/3000V5500FT/U -SG FZFG VV001 M03/ RMK FG8=

CYXE;2005-12-28 12:00;METAR CYXE 281200Z 00000KT 1/2SM R09/3500V5500FT/N -SG FZFG VV001 M03/M04 A2966 RMK FG8 SLP075=

CYXE;2005-12-28 13:00;METAR CYXE 281300Z 25002KT 1/2SM R09/3000FT/N FZFG VV001 M03/M05 A2968 RMK FG8 SLP080=

CYXE;2005-12-28 14:00;METAR CYXE 281400Z 28003KT 3/8SM R09/3000FT/N -SN FZFG VV001 M03/M04 A2968 RMK FG8 SLP080=

CYXE;2005-12-28 14:31;SPECI CYXE 281431Z 33003KT 3/8SM R09/4000V5500FT/U FZFG VV001 M03/ RMK FG8 FROIN=

CYXE;2005-12-28 15:00;METAR CYXE 281500Z 01004KT 3/8SM R09/5000FT/U FZFG VV001 M03/M04 A2967 RMK FG8 FROIN SLP076=

CYXE;2005-12-28 15:17;SPECI CYXE 281517Z 03003KT 1 1/2SM -SN BR OVC001 M03/ RMK FG2SF6 FROIN=

CYXE;2005-12-28 15:37;SPECI CYXE 281537Z 04004KT 1/4SM R09/2800VP6000FT/D -SN FZFG VV001 M03/ RMK FG8 FROIN=

CYXE;2005-12-28 16:00;METAR CYXE 281600Z 00000KT 1/4SM R09/2000FT/N FZFG VV001 M03/M04 A2967 RMK FG8 FROIN SLP078=

CYXE;2005-12-28 16:16;SPECI CYXE 281616Z 27002KT 1/8SM R09/1800FT/N -SN FZFG VV001 M03/ RMK FG8 FROIN=

CYXE;2005-12-28 17:00;METAR CYXE 281700Z 28004KT 1/8SM R09/2600V5000FT/U -SN FZFG VV001 M02/M03 A2971 RMK FG8 FROIN SLP091=

CYXE;2005-12-28 17:21;SPECI CYXE 281721Z 27006KT 1/4SM R09/2200V4000FT/U FZFG VV001 M02/ RMK FG8 FROIN=

CYXE;2005-12-28 18:00;METAR CYXE 281800Z 27006KT 3/4SM R09/4000VP6000FT/U -SN BR OVC002 M02/M03 A2973 RMK FG6SF2 FROIN VIS W 11/2 SLP099=

CYXE;2005-12-28 18:24;SPECI CYXE 281824Z 29004KT 3/4SM R09/P6000FT/U -SN BR VV001 M02/ RMK FG8 FROIN=

CYXE;2005-12-28 19:00;METAR CYXE 281900Z 30002KT 3/4SM R09/P6000FT/D -SN BR VV002 M02/M03 A2971 RESN RMK SN8 /S01/ SLP092=

CYXE;2005-12-28 19:17;SPECI CYXE 281917Z 29003KT 1SM R09/P6000FT/N -SN BR OVC003 M02/ RMK SN5SF3=

CYXE;2005-12-28 19:36;SPECI CYXE 281936Z 30003KT 1 1/2SM -SN BR OVC003 M02/ RMK SN3SF5=

CYXE;2005-12-28 20:00;METAR CYXE 282000Z 28005KT 3SM -SN BR OVC003 M02/M03 A2971 RMK ST8 SLP091=

CYXE;2005-12-28 20:34;SPECI CYXE 282034Z 29005KT 2SM -SN BR OVC003 M02/ RMK ST8=

CYXE;2005-12-28 21:00;METAR CYXE 282100Z 30006KT 1 1/2SM -SN BR OVC002 M02/M03 A2969 RMK ST8 SLP084=

CYXE;2005-12-28 22:00;METAR CYXE 282200Z 32004KT 2SM -SN BR OVC003 M02/M03 A2968 RMK ST8 SLP081=

CYXE;2005-12-28 22:26;SPECI CYXE 282226Z 30002KT 5SM BR OVC003 M02/ RMK ST8=

CYXE;2005-12-28 23:00;METAR CYXE 282300Z 28002KT 4SM BR OVC003 M02/M03 A2968 RMK ST8 SLP080=

CYXE;2005-12-29 00:00;METAR CYXE 290000Z 24003KT 6SM BR OVC003 M02/M03 A2969 RMK ST8 SLP083=

CYXE;2005-12-29 01:00;METAR CYXE 290100Z 22004KT 6SM BR OVC003 M02/M03 A2969 RMK ST8 SLP082=

CYXE;2005-12-29 01:41;SPECI CYXE 290141Z 20004KT 8SM OVC005 M02/ RMK ST8 BR=

CYXE;2005-12-29 02:00;METAR CYXE 290200Z 19004KT 6SM BR OVC004 M02/M03 A2967 RMK ST8 SLP077=

CYXE;2005-12-29 03:00;METAR CYXE 290300Z 19002KT 3/4SM R09/P6000FT/D BR VV002 M02/M03 A2966 RMK FG8 SLP072=

CYXE;2005-12-29 03:23;SPECI CYXE 290323Z 20002KT 1/2SM R09/5500FT/D FZFG VV001 M02/ RMK FG8=

CYXE;2005-12-29 03:44;SPECI CYXE 290344Z 17002KT 3/8SM R09/3000FT/N FZFG VV001 M02/ RMK FG8=

CYXE;2005-12-29 04:00;METAR CYXE 290400Z 18003KT 3/8SM R09/4000FT/N FZFG VV001 M02/M03 A2965 RMK FG8 SLP068=

CYXE;2005-12-29 04:24;SPECI CYXE 290424Z 19002KT 3/4SM R09/3000V5500FT/U BR VV001 M02/ RMK FG8=

CYXE;2005-12-29 05:00;METAR CYXE 290500Z 16002KT 1SM R09/P6000FT/U BR VV001 M02/M03 A2963 RMK FG8 VIS N-SE 3 SLP064=

CYXE;2005-12-29 05:14;SPECI CYXE 290514Z 19002KT 3/4SM R09/P6000FT/N BR VV001 M02/ RMK FG8=

CYXE;2005-12-29 05:26;SPECI CYXE 290526Z 24002KT 5/8SM R09/P6000FT/U BR VV001 M02/ RMK FG8=

CYXE;2005-12-29 05:37;SPECI CYXE 290537Z 22003KT 1/2SM R09/P6000FT/D FZFG VV001 M02/ RMK FG8=

CYXE;2005-12-29 06:00;METAR CYXE 290600Z 00000KT 1/2SM R09/4500VP6000FT/D FZFG VV001 M02/M03 A2964 RMK FG8 SLP067=

CYXE;2005-12-29 07:00;METAR CYXE 290700Z 00000KT 1/4SM R09/2600FT/N FZFG VV001 M02/M03 A2965 RMK FG8 SLP068=

CYXE;2005-12-29 07:46;SPECI CYXE 290746Z 00000KT 1/8SM R09/2600FT/N FZFG VV001 M02/ RMK FG8=

CYXE;2005-12-29 08:00;METAR CYXE 290800Z 20003KT 1/8SM R09/2000FT/N FZFG VV001 M02/M03 A2964 RMK FG8 SLP066=

CYXE;2005-12-29 09:00;METAR CYXE 290900Z 21003KT 1/8SM R09/2200FT/N FZFG VV001 M02/M03 A2965 RMK FG8 SLP068=

CYXE;2005-12-29 10:00;METAR CYXE 291000Z 23003KT 1/8SM R09/2200FT/N FZFG VV001 M03/M03 A2965 RMK FG8 SLP069=

CYXE;2005-12-29 12:00;METAR CYXE 291200Z 20002KT 1/8SM R09/1600V2600FT/U FZFG VV001 M03/M04 A2967 RMK FG8 SLP076=

CYXE;2005-12-29 13:00;METAR CYXE 291300Z 00000KT 1/8SM R09/2400V4500FT/D FZFG VV001 M03/M04 A2968 RMK FG8 SLP079=

CYXE;2005-12-29 14:00;METAR CYXE 291400Z 00000KT 1/8SM R09/2200FT/N FZFG VV001 M04/M05 A2968 RMK FG8 SLP078=

CYXE;2005-12-29 14:17;SPECI CYXE 291417Z 21002KT 3/8SM R09/2200FT/N FZFG VV001 M04/ RMK FG8 FROIN=

CYXE;2005-12-29 15:00;METAR CYXE 291500Z 20004KT 3/8SM R09/3000V4500FT/N FZFG VV001 M04/M05 A2969 RMK FG8 FROIN SLP083=

CYXE;2005-12-29 15:22;SPECI CYXE 291522Z 19004KT 1/8SM R09/2800FT/D FZFG VV001 M04/ RMK FG8 FROIN=

CYXE;2005-12-29 16:00;METAR CYXE 291600Z 24004KT 1/4SM R09/2400V4000FT/D FZFG VV001 M04/M04 A2971 RMK FG8 FROIN SLP089=

CYXE;2005-12-29 16:23;SPECI CYXE 291623Z 24003KT 3/8SM R09/2600FT/D FZFG VV001 M03/ RMK FG8 FROIN=

CYXE;2005-12-29 17:00;METAR CYXE 291700Z 24005KT 1/4SM R09/2000V2600FT/N FZFG VV001 M03/M04 A2972 RMK FG8 FROIN SLP093=

CYXE;2005-12-29 18:00;METAR CYXE 291800Z 22003KT 1/4SM R09/1400FT/N FZFG VV001 M04/M04 A2972 RMK FG8 FROIN SLP093=

CYXE;2005-12-29 18:50;SPECI CYXE 291850Z 25005KT 1/8SM R09/1400FT/N FZFG VV001 M04/ RMK FG8 FROIN=

CYXE;2005-12-29 19:00;METAR CYXE 291900Z 23005KT 1/8SM R09/1400FT/N FZFG VV001 M04/M05 A2971 RMK FG8 FROIN SLP091=

CYXE;2005-12-29 19:47;SPECI CYXE 291947Z 21003KT 0SM R09/1100FT/N FZFG VV001 M04/ RMK FG8 FROIN=

CYXE;2005-12-29 20:00;METAR CYXE 292000Z 23003KT 0SM R09/1100FT/N FZFG VV001 M04/M05 A2970 RMK FG8 FROIN SLP088=

CYXE;2005-12-29 21:00;METAR CYXE 292100Z 28004KT 0SM R09/1100FT/N FZFG VV001 M04/M05 A2971 RMK FG8 FROIN SLP091=

CYXE;2005-12-29 22:00;METAR CYXE 292200Z 27003KT 0SM R09/1200FT/N FZFG VV001 M04/M05 A2973 RMK FG8 SLP096=

CYXE;2005-12-29 23:00;METAR CYXE 292300Z 28002KT 0SM R09/1600FT/N FZFG VV001 M04/M05 A2974 RMK FG8 FROIN SLP100=

CYXE;2005-12-29 23:29;SPECI CYXE 292329Z 00000KT 1/8SM R09/2000FT/N FZFG VV001 M04/ RMK FG8 FROIN=

CYXE;2005-12-30 00:00;METAR CYXE 300000Z 24002KT 1/8SM R09/2000FT/N FZFG VV001 M05/M06 A2974 RMK FG8 FROIN SLP103=

CYXE;2005-12-30 01:00;METAR CYXE 300100Z 24003KT 1/8SM R09/2200FT/N FZFG VV001 M05/M06 A2975 RMK FG8 FROIN SLP105=

CYXE;2005-12-30 02:18;SPECI CYXE 300218Z 32004KT 5/8SM R09/3500FT/N -SN FZFG VV001 M06/ RMK FG8 FROIN=

CYXE;2005-12-30 02:39;SPECI CYXE 300239Z 32006KT 1/8SM R09/3000FT/N FZFG VV001 M06/ RMK FG8 FROIN=

CYXE;2005-12-30 03:00;METAR CYXE 300300Z 31004KT 1/8SM R09/2000V3000FT/D FZFG VV001 M06/M08 A2975 RMK FG8 FROIN SLP105=

CYXE;2005-12-30 03:41;SPECI CYXE 300341Z 33004KT 1/4SM R09/3500VP6000FT/D FZFG VV001 M06/ RMK FG8 FROIN=

CYXE;2005-12-30 04:00;METAR CYXE 300400Z 34004KT 1/8SM R09/2200FT/N FZFG VV001 M06/M08 A2974 RMK FG8 FROIN SLP104=

CYXE;2005-12-30 05:00;METAR CYXE 300500Z 32005KT 0SM R09/3000FT/N FZFG VV001 M07/M08 A2973 RMK FG8 SLP101=

CYXE;2005-12-30 06:00;METAR CYXE 300600Z 30005KT 1/8SM R09/3500FT/U FZFG VV001 M07/M09 A2974 RMK FG8 SLP103=

CYXE;2005-12-30 07:00;METAR CYXE 300700Z 27002KT 1/8SM R09/2400V3500FT/D FZFG VV001 M08/M10 A2973 RMK FG8 SLP100=

CYXE;2005-12-30 08:00;METAR CYXE 300800Z 26004KT 1/8SM R09/2000FT/N FZFG VV001 M08/M09 A2973 RMK FG8 SLP102=

CYXE;2005-12-30 09:00;METAR CYXE 300900Z 24003KT 1/4SM R09/2800V4500FT/U FZFG VV001 M08/M09 A2972 RMK FG8 SLP099=

CYXE;2005-12-30 10:00;METAR CYXE 301000Z 22003KT 1 1/2SM BR OVC002 M07/M09 A2972 RMK ST8 SLP097=

CYXE;2005-12-30 11:00;METAR CYXE 301100Z 24003KT 2SM -SN BR OVC002 M07/M08 A2971 RMK ST8 SLP094=

CYXE;2005-12-30 11:23;SPECI CYXE 301123Z 25003KT 2SM -SN BR OVC003 M07/ RMK ST8=

CYXE;2005-12-30 12:00;METAR CYXE 301200Z 24003KT 2SM -SN BR OVC003 M06/M08 A2970 RMK ST8 SLP090=

CYXE;2005-12-30 13:00;METAR CYXE 301300Z 24003KT 1 1/2SM -SN BR OVC003 M06/M07 A2969 RMK ST8 SLP088=

CYXE;2005-12-30 13:18;SPECI CYXE 301318Z 24003KT 1 1/2SM -SN -FZDZ BR OVC003 M06/ RMK ST8=

CYXE;2005-12-30 13:41;SPECI CYXE 301341Z 23002KT 2SM -SN BR OVC002 M06/ REFZDZ RMK ST8=

CYXE;2005-12-30 14:00;METAR CYXE 301400Z 22002KT 2SM -SN -FZDZ BR OVC002 M06/M07 A2968 RMK ST8 SLP083=

CYXE;2005-12-30 14:30;SPECI CYXE 301430Z 22002KT 1 1/2SM -SN -FZDZ BR OVC002 M06/ RMK ST8=

CYXE;2005-12-30 15:00;METAR CYXE 301500Z 22002KT 1SM R09/P6000FT/U -SN -FZDZ BR OVC002 M06/M07 A2967 RMK FG2ST6 SLP080=

CYXE;2005-12-30 15:14;SPECI CYXE 301514Z 00000KT 3/4SM R09/P6000FT/D -FZDZ BR OVC002 M05/ RMK FG4ST4=

CYXE;2005-12-30 16:00;METAR CYXE 301600Z 22002KT 1SM R09/P6000FT/N -FZDZ BR OVC002 M05/M07 A2968 RMK ST8 SLP084=

CYXE;2005-12-30 16:50;SPECI CYXE 301650Z 23003KT 1 1/2SM -SN -FZDZ BR OVC002 M05/ RMK ST8=

CYXE;2005-12-30 17:00;METAR CYXE 301700Z 23004KT 1 1/2SM -SN -FZDZ BR OVC002 M05/M06 A2968 RMK ST8 SLP083=

CYXE;2005-12-30 17:15;SPECI CYXE 301715Z 22004KT 1 1/2SM -SN BR BKN002 OVC007 M05/ REFZDZ RMK ST7ST1=

CYXE;2005-12-30 17:42;SPECI CYXE 301742Z 22002KT 2SM BR OVC007 M05/ RMK ST8=

CYXE;2005-12-30 18:00;METAR CYXE 301800Z 22002KT 2SM BR OVC007 M05/M06 A2967 REFZDZ RMK ST8 SLP080=

CYXE;2005-12-30 18:17;SPECI CYXE 301817Z 23003KT 4SM BR OVC005 M05/ RMK ST8=

CYXE;2005-12-30 18:33;SPECI CYXE 301833Z 23003KT 4SM BR OVC006 M04/ RMK ST8=

CYXE;2005-12-30 18:46;SPECI CYXE 301846Z 21003KT 4SM BR OVC005 M05/ RMK ST8=

CYXE;2005-12-30 19:00;METAR CYXE 301900Z 20002KT 6SM BR OVC006 M04/M06 A2965 RMK ST8 SLP074=

CYXE;2005-12-30 20:00;METAR CYXE 302000Z 18002KT 6SM BR OVC005 M05/M06 A2962 RMK ST8 SLP065=

CYXE;2005-12-30 21:00;METAR CYXE 302100Z 17003KT 6SM BR OVC005 M05/M06 A2961 RMK ST8 SLP061=

CYXE;2005-12-30 22:00;METAR CYXE 302200Z 13004KT 8SM OVC004 M05/M06 A2961 RMK ST8 BR SLP059=

CYXE;2005-12-30 23:00;METAR CYXE 302300Z 17005KT 6SM BR OVC004 M05/M06 A2961 RMK ST8 SLP060=

CYXE;2005-12-30 23:16;SPECI CYXE 302316Z 15006KT 3SM BR OVC003 M05/ RMK ST8=

CYXE;2005-12-31 00:00;METAR CYXE 310000Z 13004KT 3SM BR OVC002 M05/M06 A2959 RMK ST8 SLP052=

CYXE;2005-12-31 01:00;METAR CYXE 310100Z 14005KT 3SM BR OVC002 M05/M07 A2959 RMK ST8 SLP051=

CYXE;2005-12-31 02:00;METAR CYXE 310200Z 12004KT 3SM BR OVC002 M05/M07 A2959 RMK ST8 SLP052=

CYXE;2005-12-31 03:00;METAR CYXE 310300Z 13005KT 3SM BR OVC002 M05/M07 A2958 RMK ST8 SLP048=

CYXE;2005-12-31 04:00;METAR CYXE 310400Z 12005KT 3SM BR OVC002 M05/M06 A2956 RMK ST8 SLP041=

CYXE;2005-12-31 05:00;METAR CYXE 310500Z 12006KT 2 1/2SM BR OVC002 M05/M06 A2954 RMK ST8 FROIN SLP036=

CYXE;2005-12-31 05:08;SPECI CYXE 310508Z 12006KT 2SM BR OVC003 M05/ RMK ST8=

CYXE;2005-12-31 06:20;SPECI CYXE 310620Z 11006KT 2SM BR OVC002 M05/ RMK ST8 TOWER OBS=

CYXE;2005-12-31 06:47;SPECI CYXE 310647Z 10005KT 3SM BR OVC003 M05/ RMK ST8 TOWER OBS=

CYXE;2005-12-31 07:00;METAR CYXE 310700Z 11004KT 3SM BR OVC003 M04/M06 A2953 RMK ST8 TOWER OBS SLP029=

CYXE;2005-12-31 07:41;SPECI CYXE 310741Z 11005KT 2SM BR OVC002 M04/ RMK ST8 TOWER OBS=

CYXE;2005-12-31 08:00;METAR CYXE 310800Z 12005KT 2SM BR OVC003 M04/M05 A2952 RMK ST8 TOWER OBS SLP028=

CYXE;2005-12-31 09:00;METAR CYXE 310900Z 11005KT 4SM BR OVC003 M04/M05 A2951 RMK ST8 TOWER OBS SLP024=

CYXE;2005-12-31 09:39;SPECI CYXE 310939Z 12005KT 4SM BR OVC004 M04/ RMK ST8 TOWER OBS=

CYXE;2005-12-31 10:00;METAR CYXE 311000Z 11005KT 4SM BR BKN006 M04/M05 A2951 RMK SF6 TOWER OBS SLP024=

CYXE;2005-12-31 10:24;SPECI CYXE 311024Z 09005KT 5SM BR SCT006 SCT015 M05/ RMK SF3SC1=

CYXE;2005-12-31 11:00;METAR CYXE 311100Z 09005KT 6SM BR FEW007 FEW015 M06/M07 A2950 RMK SF2SC1 SLP019=

CYXE;2005-12-31 11:11;SPECI CYXE 311111Z 10006KT 6SM BR BKN009 M06/ RMK SF7=

CYXE;2005-12-31 11:33;SPECI CYXE 311133Z 12006KT 6SM BR OVC006 M04/ RMK SF8 TOWER OBS=

CYXE;2005-12-31 11:44;SPECI CYXE 311144Z 12007KT 4SM BR OVC005 M04/ RMK SF8 TOWER OBS=

CYXE;2005-12-31 12:00;METAR CYXE 311200Z 12007KT 4SM BR OVC005 M03/M05 A2949 RMK SF8 TOWER OBS SLP016=

CYXE;2005-12-31 12:05;SPECI CYXE 311205Z 12008KT 4SM -SN BR OVC004 M03/ RMK SF8 TOWER OBS=

CYXE;2005-12-31 12:10;SPECI CYXE 311210Z 12009KT 1 1/2SM -SN BR OVC003 M03/ RMK SF8 TOWER OBS=

CYXE;2005-12-31 12:19;SPECI CYXE 311219Z 12009KT 1SM R09/P6000FT/N -SN BR OVC002 M04/ RMK FG2SF6 TOWER OBS=

CYXE;2005-12-31 12:27;SPECI CYXE 311227Z 11011KT 3/4SM R09/P6000FT/U -SN BR VV002 M03/ RMK FG8 TOWER OBS=

CYXE;2005-12-31 12:40;SPECI CYXE 311240Z 11008KT 1SM R09/P6000FT/N -SN BR VV002 M03/ RMK FG8 TOWER OBS=

CYXE;2005-12-31 12:48;SPECI CYXE 311248Z 12008KT 3SM -SN BR OVC002 M03/ RMK SF8 FROIN=

CYXE;2005-12-31 13:00;METAR CYXE 311300Z 11007KT 4SM BR OVC002 M03/M04 A2947 RMK SF8 FROIN SLP010=

CYXE;2005-12-31 13:15;SPECI CYXE 311315Z 13010KT 4SM BR SCT003 OVC006 M03/ RMK SF3SF5=

CYXE;2005-12-31 13:26;SPECI CYXE 311326Z 13008KT 4SM BR OVC007 M03/ RMK SF8=

CYXE;2005-12-31 14:00;METAR CYXE 311400Z 13010KT 6SM BR OVC007 M03/M04 A2946 RMK SF8 SLP007=

CYXE;2005-12-31 15:00;METAR CYXE 311500Z 14009KT 10SM OVC007 M02/M03 A2947 RMK ST8 SLP010=

CYXE;2005-12-31 16:00;METAR CYXE 311600Z 13012KT 10SM OVC007 M02/M03 A2949 RMK ST8 BR SLP014=

CYXE;2005-12-31 17:00;METAR CYXE 311700Z 13011KT 10SM OVC007 M02/M03 A2948 RMK ST8 BR SLP013=

CYXE;2005-12-31 18:00;METAR CYXE 311800Z 13009KT 8SM OVC006 M02/M03 A2947 RMK ST8 BR SLP010=

CYXE;2005-12-31 19:00;METAR CYXE 311900Z 13009KT 6SM BR OVC006 M02/M03 A2946 RMK ST8 SLP007=

CYXE;2005-12-31 20:00;METAR CYXE 312000Z 12009KT 6SM BR OVC006 M02/M03 A2946 RMK ST8 SLP004=

CYXE;2005-12-31 20:48;SPECI CYXE 312048Z 12010KT 3SM -SN BR OVC006 M02/ RMK ST8=

CYXE;2005-12-31 21:00;METAR CYXE 312100Z 12010KT 2SM -SN BR OVC007 M02/M03 A2944 RMK ST8 SLP997=

CYXE;2005-12-31 21:09;SPECI CYXE 312109Z 12010KT 1 1/2SM -SN BR OVC006 M02/ RMK ST8=

CYXE;2005-12-31 21:23;SPECI CYXE 312123Z 12010KT 1SM R09/P6000FT/N -SN BR OVC006 M02/ RMK ST8=

CYXE;2005-12-31 22:00;METAR CYXE 312200Z 12011KT 3/4SM R09/P6000FT/N -SN BR VV005 M02/M03 A2944 RMK SN8 SLP996=

CYXE;2005-12-31 22:43;SPECI CYXE 312243Z 12012KT 2SM -SN BR OVC007 M02/ RMK SN2ST6=

CYXE;2005-12-31 23:00;METAR CYXE 312300Z 12013KT 2SM -SN BR OVC008 M02/M03 A2944 RMK SN2ST6 SLP998=

CYXE;2005-12-31 23:43;SPECI CYXE 312343Z 11012KT 1 1/4SM -SN VV007 M02/ RMK SN8=

