CYXE;2008-01-01 07:00;CYXE 010700Z 23008KT 15SM BKN060 M23/M26 A3047 RMK SC6 SLP378

CYXE;2008-01-01 08:00;CYXE 010800Z 23008KT 15SM OVC055 M21/M24 A3047 RMK SC7 SLP378

CYXE;2008-01-01 09:00;CYXE 010900Z 21007KT 15SM SCT050 BKN082 M19/M21 A3046 RMK SC3AC2 SLP369

CYXE;2008-01-01 10:00;CYXE 011000Z 22008KT 15SM BKN055 OVC090 M19/M22 A3047 RMK SC5AC2 SLP373

CYXE;2008-01-01 11:00;CYXE 011100Z 24010KT 15SM FEW090 M19/M22 A3047 RMK AC1 SLP371

CYXE;2008-01-01 12:00;CYXE 011200Z 23008KT 15SM BKN090 M20/M23 A3047 RMK AC5 SLP374

CYXE;2008-01-01 13:00;CYXE 011300Z 22010KT 15SM OVC060 M19/M22 A3046 RMK SC7 SLP372

CYXE;2008-01-01 14:00;CYXE 011400Z 22010KT 15SM OVC060 M17/M20 A3044 RMK SC7 SLP367

CYXE;2008-01-01 15:00;CYXE 011500Z 23010KT 15SM OVC040 M15/M17 A3045 RMK SC8 SLP369

CYXE;2008-01-01 16:00;CYXE 011600Z 24005KT 15SM OVC048 M13/M15 A3048 RMK SC7 SLP377

CYXE;2008-01-01 17:00;CYXE 011700Z 32011KT 15SM OVC031 M11/M13 A3052 RMK SC8 SLP389

CYXE;2008-01-01 18:00;CYXE 011800Z 35009KT 15SM BKN016 OVC030 M12/M14 A3055 RMK SC5SC2 SLP401

CYXE;2008-01-01 19:00;CYXE 011900Z 03009KT 15SM -SN OVC018 M13/M15 A3057 RMK SC8 SLP406

CYXE;2008-01-01 19:43;CYXE 011943Z 03008KT 15SM BKN018 M13/ RMK SC7

CYXE;2008-01-01 20:00;CYXE 012000Z 02007KT 15SM BKN018 M14/M16 A3058 RMK SC6 SLP409

CYXE;2008-01-01 21:00;CYXE 012100Z 01008KT 15SM FEW020 SCT250 M15/M17 A3059 RMK SC1CI0 SLP410

CYXE;2008-01-01 22:00;CYXE 012200Z 02003KT 15SM SCT250 M16/M18 A3061 RMK CI0 SLP419

CYXE;2008-01-01 23:00;CYXE 012300Z 03002KT 15SM FEW250 M18/M20 A3064 RMK CI0 SLP426

CYXE;2008-01-02 00:00;CYXE 020000Z 03005KT 15SM FEW250 M21/M22 A3064 RMK CI0 SLP433

CYXE;2008-01-02 01:00;CYXE 020100Z 08003KT 15SM FEW250 M21/M21 A3062 RMK CI0 SLP429

CYXE;2008-01-02 02:00;CYXE 020200Z 10002KT 15SM SKC M21/M22 A3061 RMK SLP426

CYXE;2008-01-02 03:00;CYXE 020300Z 14005KT 15SM SKC M21/M22 A3062 RMK SLP423

CYXE;2008-01-02 04:00;CYXE 020400Z 16006KT 15SM FEW250 M22/M22 A3059 RMK CI0 SLP413

CYXE;2008-01-02 05:00;CYXE 020500Z 17005KT 15SM FEW250 M20/M20 A3057 RMK CI0 SLP406

CYXE;2008-01-02 06:00;CYXE 020600Z 16008KT 15SM BKN095 OVC250 M18/M19 A3052 RMK AC6CI1 SLP386

CYXE;2008-01-02 07:00;CYXE 020700Z 19007KT 15SM OVC090 M18/M19 A3050 RMK AC8 SLP377

CYXE;2008-01-02 07:31;CYXE 020731Z 18012KT 15SM OVC090 M17/ RMK AC8 IC

CYXE;2008-01-02 08:00;CYXE 020800Z 18011KT 15SM OVC100 M17/M18 A3044 RMK AC8 IC SLP359

CYXE;2008-01-02 09:00;CYXE 020900Z 16012KT 15SM OVC100 M16/M17 A3038 RMK AC8 SLP336

CYXE;2008-01-02 10:00;CYXE 021000Z 16015G21KT 15SM OVC100 M15/M16 A3033 RMK AC8 IC SLP320

CYXE;2008-01-02 10:32;CYXE 021032Z 15015KT 15SM OVC100 M14/ RMK AC8

CYXE;2008-01-02 11:00;CYXE 021100Z 15014KT 15SM DRSN OVC100 M14/M16 A3026 RMK AC8 SLP299

CYXE;2008-01-02 12:00;CYXE 021200Z 15013KT 15SM DRSN OVC100 M13/M15 A3019 RMK AC8 PRESFR SLP275

CYXE;2008-01-02 13:00;CYXE 021300Z CCA 16010KT 15SM BKN100 OVC250 M11/M14 A3013 RMK AC6CI2 PRESFR SLP254

CYXE;2008-01-02 14:00;CYXE 021400Z 16014G20KT 15SM BKN100 M10/M14 A3006 RMK AC7 PRESFR SLP232

CYXE;2008-01-02 15:00;CYXE 021500Z 17018KT 15SM DRSN OVC100 M09/M13 A2997 RMK AC7 PRESFR SLP196

CYXE;2008-01-02 16:00;CYXE 021600Z 18021G26KT 15SM DRSN OVC100 M07/M13 A2992 RMK AC7 SLP178

CYXE;2008-01-02 17:00;CYXE 021700Z 18020G27KT 15SM DRSN BKN120 OVC250 M07/M12 A2987 RMK AC6CI2 OCNL BLSN SLP163

CYXE;2008-01-02 18:00;CYXE 021800Z 18020G27KT 15SM DRSN BKN120 OVC250 M07/M11 A2981 RMK AC6CI2 PRESFR SLP136

CYXE;2008-01-02 19:00;CYXE 021900Z 18015G21KT 15SM DRSN BKN120 OVC250 M05/M10 A2976 RMK AC5CI3 SLP121

CYXE;2008-01-02 20:00;CYXE 022000Z 17018G25KT 15SM DRSN SCT120 OVC250 M04/M10 A2970 RMK AC4CI4 PRESFR SLP101

CYXE;2008-01-02 21:00;CYXE 022100Z 18015G22KT 15SM DRSN SCT120 OVC250 M04/M09 A2964 RMK AC4CI4 SLP075

CYXE;2008-01-02 22:00;CYXE 022200Z 19017G24KT 15SM SCT095 OVC250 M03/M08 A2959 RMK AC4CI4 SLP058

CYXE;2008-01-02 23:00;CYXE 022300Z CCA 20016G24KT 15SM DRSN FEW090 SCT120 BKN250 M03/M07 A2955 RMK AC2AC2CI2 SLP044

CYXE;2008-01-03 00:00;CYXE 030000Z 20016KT 15SM SCT120 BKN250 M03/M07 A2954 RMK AC3CI2 SLP036

CYXE;2008-01-03 01:00;CYXE 030100Z 21013KT 15SM FEW120 BKN250 M03/M07 A2951 RMK AC2CI2 SLP028

CYXE;2008-01-03 02:00;CYXE 030200Z 23011KT 15SM FEW120 BKN250 M03/M06 A2952 RMK AC2CI1 SLP032

CYXE;2008-01-03 03:00;CYXE 030300Z 22009KT 15SM FEW120 BKN250 M05/M07 A2952 RMK AC2CI1 SLP031

CYXE;2008-01-03 04:00;CYXE 030400Z 23006KT 15SM BKN250 M04/M06 A2954 RMK CI1 SLP036

CYXE;2008-01-03 05:00;CYXE 030500Z 30010KT 15SM BKN250 M01/M05 A2956 RMK CI1 SLP044

CYXE;2008-01-03 06:00;CYXE 030600Z 28005KT 15SM BKN250 M03/M06 A2959 RMK CI2 SLP053

CYXE;2008-01-03 07:00;CYXE 030700Z 29011KT 15SM OVC250 M02/M06 A2962 RMK CI3 SLP061

CYXE;2008-01-03 08:00;CYXE 030800Z 29005KT 15SM OVC250 M03/M06 A2965 RMK CI4 SLP072

CYXE;2008-01-03 09:00;CYXE 030900Z 23008KT 15SM OVC250 M04/M06 A2966 RMK CI4 SLP075

CYXE;2008-01-03 10:00;CYXE 031000Z 24010KT 15SM SCT250 M05/M07 A2968 RMK CI1 SLP082

CYXE;2008-01-03 11:00;CYXE 031100Z 22009KT 15SM SCT250 M07/M08 A2970 RMK CI1 SLP086

CYXE;2008-01-03 12:00;CYXE 031200Z 23008KT 15SM SCT250 M09/M10 A2972 RMK CI1 SLP096

CYXE;2008-01-03 13:00;CYXE 031300Z 23006KT 15SM OVC250 M08/M09 A2973 RMK CI4 SLP101

CYXE;2008-01-03 14:00;CYXE 031400Z 18006KT 15SM BKN094 OVC250 M07/M09 A2974 RMK AC5CI3 SLP102

CYXE;2008-01-03 15:00;CYXE 031500Z 20006KT 15SM BKN120 BKN250 M07/M08 A2974 RMK AC6CI0 SLP105

CYXE;2008-01-03 16:00;CYXE 031600Z 22006KT 15SM SCT095 BKN250 M07/M09 A2975 RMK AC3CI2 SLP108

CYXE;2008-01-03 17:00;CYXE 031700Z 19007KT 15SM FEW120 BKN250 M06/M08 A2975 RMK AC1CI2 SLP106

CYXE;2008-01-03 18:00;CYXE 031800Z 21007KT 15SM FEW120 OVC280 M05/M08 A2973 RMK AC2CI1 SLP099

CYXE;2008-01-03 19:00;CYXE 031900Z 19005KT 15SM FEW120 BKN250 M04/M08 A2971 RMK AC1CI1 SLP092

CYXE;2008-01-03 20:00;CYXE 032000Z 19006KT 15SM BKN250 M04/M07 A2968 RMK CI1 SLP082

CYXE;2008-01-03 21:00;CYXE 032100Z 20009KT 15SM OVC280 M03/M07 A2966 RMK CI2 SLP075

CYXE;2008-01-03 22:00;CYXE 032200Z 17006KT 15SM OVC280 M03/M07 A2963 RMK CI2 SLP066

CYXE;2008-01-03 23:00;CYXE 032300Z 15003KT 15SM BKN250 M05/M08 A2962 RMK CI2 SLP060

CYXE;2008-01-04 00:00;CYXE 040000Z 14005KT 15SM SCT250 M04/M07 A2960 RMK CI2 SLP057

CYXE;2008-01-04 01:00;CYXE 040100Z 16006KT 15SM SCT250 M04/M07 A2958 RMK CI2 SLP050

CYXE;2008-01-04 02:00;CYXE 040200Z 18012KT 15SM SCT250 M03/M06 A2955 RMK CI2 SLP041

CYXE;2008-01-04 03:00;CYXE 040300Z 18012KT 15SM FEW250 M03/M06 A2952 RMK CI0 SLP026

CYXE;2008-01-04 04:00;CYXE 040400Z 18013KT 15SM FEW250 M02/M06 A2949 RMK CI0 SLP016

CYXE;2008-01-04 05:00;CYXE 040500Z 18011KT 15SM FEW250 M03/M06 A2946 RMK CI0 SLP006

CYXE;2008-01-04 06:00;CYXE 040600Z 17006KT 15SM FEW250 M04/M06 A2945 RMK CI0 SLP001

CYXE;2008-01-04 07:00;CYXE 040700Z 18007KT 15SM FEW250 M04/M06 A2943 RMK CI0 SLP996

CYXE;2008-01-04 08:00;CYXE 040800Z 14004KT 15SM FEW250 M05/M07 A2940 RMK CI0 SLP987

CYXE;2008-01-04 09:00;CYXE 040900Z 15007KT 15SM FEW250 M06/M08 A2937 RMK CI0 SLP976

CYXE;2008-01-04 10:00;CYXE 041000Z 15009KT 15SM BKN250 M05/M07 A2935 RMK CI1 SLP968

CYXE;2008-01-04 11:00;CYXE 041100Z 16007KT 15SM BKN250 M05/M08 A2932 RMK CI2 SLP960

CYXE;2008-01-04 12:00;CYXE 041200Z 18007KT 15SM OVC250 M04/M07 A2931 RMK CI3 SLP955

CYXE;2008-01-04 13:00;CYXE 041300Z 19010KT 15SM OVC250 M03/M07 A2929 RMK CI5 SLP948

CYXE;2008-01-04 14:00;CYXE 041400Z 19012KT 15SM BKN250 M03/M07 A2928 RMK CI5 SLP943

CYXE;2008-01-04 15:00;CYXE 041500Z 19011G17KT 15SM FEW120 BKN250 M02/M06 A2924 RMK AC1CI2 SLP929

CYXE;2008-01-04 16:00;CYXE 041600Z 21014KT 15SM FEW120 FEW250 00/M04 A2924 RMK AC1CI0 SLP928

CYXE;2008-01-04 17:00;CYXE 041700Z 22018KT 15SM FEW095 FEW250 03/M02 A2925 RMK AC2CI0 SLP930

CYXE;2008-01-04 18:00;CYXE 041800Z 24016KT 15SM FEW095 03/M02 A2926 RMK AC1 SLP931

CYXE;2008-01-04 19:00;CYXE 041900Z 24014KT 15SM FEW095 02/M01 A2927 RMK AC1 SLP935

CYXE;2008-01-04 20:00;CYXE 042000Z 23009KT 15SM FEW250 02/M02 A2924 RMK CI0 SLP927

CYXE;2008-01-04 21:00;CYXE 042100Z 22010KT 15SM FEW250 02/M02 A2922 RMK CI0 SLP920

CYXE;2008-01-04 22:00;CYXE 042200Z 22012KT 15SM SCT250 02/M02 A2921 RMK CI1 SLP919

CYXE;2008-01-04 23:00;CYXE 042300Z 22011KT 15SM SCT250 01/M02 A2922 RMK CI1 SLP921

CYXE;2008-01-05 00:00;CYXE 050000Z 21009KT 15SM SCT250 M01/M03 A2922 RMK CI1 CONTRAILS SLP920

CYXE;2008-01-05 01:00;CYXE 050100Z 20005KT 15SM SCT250 M01/M04 A2920 RMK CI1 SLP916

CYXE;2008-01-05 02:00;CYXE 050200Z 21003KT 15SM FEW250 M02/M04 A2919 RMK CI1 SLP911

CYXE;2008-01-05 03:00;CYXE 050300Z 16003KT 15SM FEW250 M04/M05 A2919 RMK CI1 SLP912

CYXE;2008-01-05 04:00;CYXE 050400Z 12003KT 15SM FEW120 SCT250 M04/M06 A2916 RMK AC2CI0 SLP903

CYXE;2008-01-05 05:00;CYXE 050500Z 09005KT 15SM SCT120 BKN250 M06/M07 A2913 RMK AC2CI1 SLP893

CYXE;2008-01-05 06:00;CYXE 050600Z 09006KT 15SM SCT120 OVC250 M04/M05 A2909 RMK AC3CI5 SLP875

CYXE;2008-01-05 07:00;CYXE 050700Z 13006KT 15SM SCT095 OVC120 M00/M04 A2908 RMK AC3AC5 SLP872

CYXE;2008-01-05 08:00;CYXE 050800Z 12007KT 15SM BKN094 OVC120 M01/M04 A2903 RMK AC6AC2 SLP856

CYXE;2008-01-05 09:00;CYXE 050900Z 12004KT 15SM BKN087 OVC120 00/M04 A2902 RMK AC6AC2 SLP849

CYXE;2008-01-05 10:00;CYXE 051000Z 15008KT 15SM SCT090 M01/M04 A2902 RMK AC4 SLP848

CYXE;2008-01-05 11:00;CYXE 051100Z 14007KT 15SM BKN090 M02/M05 A2899 RMK AC6 SLP839

CYXE;2008-01-05 12:00;CYXE 051200Z 16009KT 15SM BKN095 M01/M04 A2897 RMK AC6 SLP833

CYXE;2008-01-05 13:00;CYXE 051300Z 16008KT 15SM BKN100 M00/M03 A2895 RMK AC6 SLP828

CYXE;2008-01-05 14:00;CYXE 051400Z 18013KT 15SM BKN110 01/M03 A2896 RMK AC6 SLP831

CYXE;2008-01-05 15:00;CYXE 051500Z 19013KT 15SM FEW110 OVC250 01/M03 A2897 RMK AC2CI2 SLP833

CYXE;2008-01-05 16:00;CYXE 051600Z 19010KT 15SM SCT110 BKN250 00/M03 A2895 RMK AC2CI2 SLP828

CYXE;2008-01-05 17:00;CYXE 051700Z 20008KT 15SM SCT110 BKN280 01/M03 A2897 RMK AC2CI2 SLP833

CYXE;2008-01-05 18:00;CYXE 051800Z 22016KT 15SM FEW110 BKN280 03/M01 A2897 RMK AC1CI2 SLP832

CYXE;2008-01-05 19:00;CYXE 051900Z 22018KT 15SM SCT110 BKN280 03/M01 A2897 RMK AC2CI2 SLP831

CYXE;2008-01-05 20:00;CYXE 052000Z 23017KT 15SM FEW110 BKN280 03/M01 A2896 RMK AC1CI1 SLP829

CYXE;2008-01-05 21:00;CYXE 052100Z 23019G24KT 15SM FEW280 04/M01 A2896 RMK CI0 SLP826

CYXE;2008-01-05 22:00;CYXE 052200Z 23017KT 15SM FEW280 03/M01 A2897 RMK CI0 SLP831

CYXE;2008-01-05 23:00;CYXE 052300Z 23018KT 15SM SKC 03/M01 A2897 RMK SLP830

CYXE;2008-01-06 00:00;CYXE 060000Z 23018KT 15SM SKC 03/M02 A2898 RMK SLP836

CYXE;2008-01-06 01:00;CYXE 060100Z 22016KT 15SM SKC 02/M02 A2899 RMK SLP838

CYXE;2008-01-06 02:00;CYXE 060200Z 22015KT 15SM SKC 03/M02 A2899 RMK SLP838

CYXE;2008-01-06 03:00;CYXE 060300Z 21014G19KT 15SM SKC 02/M03 A2898 RMK SLP835

CYXE;2008-01-06 03:29;CYXE 060329Z 22016KT 15SM SKC

CYXE;2008-01-06 04:00;CYXE 060400Z 23016KT 15SM SKC 00/M03 A2897 RMK SLP832

CYXE;2008-01-06 05:00;CYXE 060500Z 23016KT 15SM FEW100 M01/M04 A2898 RMK AC1 SLP833

CYXE;2008-01-06 06:00;CYXE 060600Z 25013KT 15SM FEW060 BKN100 M01/M04 A2900 RMK SC2AC3 SLP841

CYXE;2008-01-06 07:00;CYXE 060700Z 24012KT 15SM FEW060 OVC090 M01/M04 A2902 RMK SC2AC6 SLP849

CYXE;2008-01-06 08:00;CYXE 060800Z 24013KT 15SM BKN054 OVC090 01/M02 A2905 RMK SC6AC2 VIRGA E SLP858

CYXE;2008-01-06 09:00;CYXE 060900Z 23009KT 15SM BKN065 BKN090 00/M02 A2907 RMK SC5AC2 SLP865

CYXE;2008-01-06 10:00;CYXE 061000Z 23010KT 15SM BKN077 OVC090 01/M00 A2909 RMK AC6AC2 SLP871

CYXE;2008-01-06 11:00;CYXE 061100Z 22012KT 15SM SCT045 BKN090 01/00 A2909 RMK SC3AC3 SLP871

CYXE;2008-01-06 12:00;CYXE 061200Z 23009KT 15SM BKN040 OVC080 M00/M01 A2909 RMK SC5AC3 SLP870

CYXE;2008-01-06 13:00;CYXE 061300Z 23010KT 15SM FEW040 OVC088 M00/M01 A2910 RMK SC2AC6 SLP876

CYXE;2008-01-06 14:00;CYXE 061400Z 32005KT 15SM FEW040 OVC069 M01/M02 A2912 RMK SC1AC7 SLP881

CYXE;2008-01-06 15:00;CYXE 061500Z 32008KT 15SM FEW020 OVC057 M04/M06 A2914 RMK SC1SC8 SLP892

CYXE;2008-01-06 15:04;CYXE 061504Z 32008KT 6SM -SN FEW020 BKN054 OVC110 M04/ RMK SC1SC6AC2

CYXE;2008-01-06 16:00;CYXE 061600Z 32007KT 15SM -SN FEW035 BKN046 OVC091 M05/M06 A2916 RMK SC1SC7AC1 SLP899

CYXE;2008-01-06 16:14;CYXE 061614Z 32008KT 1SM R09/P6000FT/D -SN OVC091 M05/ RMK SN5AC3

CYXE;2008-01-06 16:25;CYXE 061625Z 30004KT 1 1/2SM -SN OVC060 M05/ RMK SN5SC3

CYXE;2008-01-06 16:43;CYXE 061643Z 30005KT 1/2SM R09/2800VP6000FT/D SN VV003 M05/ RMK SN8

CYXE;2008-01-06 16:48;CYXE 061648Z 31004KT 3/4SM R09/2800VP6000FT/U -SN VV003 M05/ RESN RMK SN8

CYXE;2008-01-06 16:52;CYXE 061652Z 30005KT 1 1/2SM R09/3500VP6000FT/U -SN OVC046 M05/ RESN RMK SN6SC2

CYXE;2008-01-06 17:00;CYXE 061700Z 31006KT 2SM -SN OVC046 M05/M06 A2919 RESN RMK SN2SC6 SLP908

CYXE;2008-01-06 17:22;CYXE 061722Z 28004KT 4SM -SN BKN010 OVC030 M05/ RMK SC6SC2

CYXE;2008-01-06 17:50;CYXE 061750Z 29006KT 3SM -SN OVC030 M05/ RMK SN6SC2

CYXE;2008-01-06 18:00;CYXE 061800Z 31007KT 6SM -SN SCT006 BKN036 OVC110 M05/M06 A2921 RMK SF2SC2AC2 SLP917

CYXE;2008-01-06 18:21;CYXE 061821Z 30007KT 10SM -SN BKN005 BKN024 OVC110 M05/ RMK SF5SC1AC2

CYXE;2008-01-06 18:26;CYXE 061826Z 30007KT 15SM OVC003 M05/ RMK SF8

CYXE;2008-01-06 19:00;CYXE 061900Z 30008KT 6SM BR OVC003 M05/M05 A2922 RMK SF8 SLP920

CYXE;2008-01-06 19:09;CYXE 061909Z 30008KT 6SM BR BKN005 BKN012 OVC065 M05/ RMK SF4SC2SC2

CYXE;2008-01-06 19:44;CYXE 061944Z 30008KT 6SM BR OVC006 M04/ RMK SF8

CYXE;2008-01-06 20:00;CYXE 062000Z 30009KT 6SM BR OVC005 M04/M05 A2923 RMK SF8 SLP926

CYXE;2008-01-06 20:15;CYXE 062015Z 30009KT 10SM BKN006 BKN019 OVC065 M04/ RMK SF3SC3SC2 BR

CYXE;2008-01-06 20:27;CYXE 062027Z 29006KT 15SM SCT006 BKN014 OVC050 M03/ RMK SF3SC4SC1

CYXE;2008-01-06 21:00;CYXE 062100Z 27007KT 15SM FEW006 BKN014 OVC050 M03/M05 A2925 RMK SF2SC6SC1 SLP931

CYXE;2008-01-06 22:00;CYXE 062200Z 27006KT 15SM BKN012 BKN020 M03/M04 A2927 RMK SC5SC2 SLP938

CYXE;2008-01-06 23:00;CYXE 062300Z 25007KT 15SM OVC014 M04/M06 A2931 RMK SC8 SLP949

CYXE;2008-01-07 00:00;CYXE 070000Z 25007KT 12SM OVC014 M06/M07 A2933 RMK SC7 BR SLP961

CYXE;2008-01-07 00:36;CYXE 070036Z 25007KT 12SM SCT014 M08/ RMK SC3 BR

CYXE;2008-01-07 01:00;CYXE 070100Z 25007KT 12SM FEW014 M09/M10 A2936 RMK SC2 BR SLP969

CYXE;2008-01-07 02:00;CYXE 070200Z 23007KT 12SM SKC M10/M10 A2938 RMK BR SLP975

CYXE;2008-01-07 03:00;CYXE 070300Z 26007KT 10SM FEW100 M11/M12 A2939 RMK AC1 BR SLP987

CYXE;2008-01-07 04:00;CYXE 070400Z 25007KT 10SM SCT035 M11/M12 A2940 RMK SC2 BR SLP989

CYXE;2008-01-07 05:00;CYXE 070500Z 23009KT 15SM FEW032 M12/M13 A2941 RMK SC2 SLP992

CYXE;2008-01-07 06:00;CYXE 070600Z 23006KT 15SM FEW250 M13/M13 A2943 RMK CI2 SLP002

CYXE;2008-01-07 07:00;CYXE 070700Z 22006KT 15SM FEW250 M11/M12 A2944 RMK CI2 SLP006

CYXE;2008-01-07 08:00;CYXE 070800Z 24007KT 15SM FEW250 M13/M15 A2946 RMK CI1 SLP013

CYXE;2008-01-07 09:00;CYXE 070900Z 24006KT 15SM FEW250 M14/M15 A2948 RMK CI1 SLP018

CYXE;2008-01-07 10:00;CYXE 071000Z 23008KT 15SM FEW250 M16/M17 A2951 RMK CI1 SLP027

CYXE;2008-01-07 11:00;CYXE 071100Z 21007KT 15SM FEW250 M14/M15 A2951 RMK CI2 SLP027

CYXE;2008-01-07 12:00;CYXE 071200Z 23007KT 15SM FEW060 SCT250 M15/M15 A2953 RMK SC2CI2 SLP038

CYXE;2008-01-07 13:00;CYXE 071300Z 26006KT 15SM FEW060 BKN250 M14/M15 A2955 RMK SC2CI2 SLP044

CYXE;2008-01-07 14:00;CYXE 071400Z 23007KT 15SM FEW060 BKN250 M15/M16 A2957 RMK SC2CI2 SLP051

CYXE;2008-01-07 15:00;CYXE 071500Z 22004KT 15SM BKN020 BKN084 M15/M16 A2959 RMK SC5AC2 SLP061

CYXE;2008-01-07 16:00;CYXE 071600Z 23006KT 15SM BKN020 OVC071 M13/M14 A2961 RMK SC6AC2 SLP070

CYXE;2008-01-07 17:00;CYXE 071700Z 26004KT 15SM SCT022 BKN028 BKN110 M12/M13 A2963 RMK SC2SC3AC2 SLP074

CYXE;2008-01-07 18:00;CYXE 071800Z 29006KT 15SM FEW026 FEW073 BKN240 M11/M12 A2963 RMK SC1AC2CI2 SLP076

CYXE;2008-01-07 19:00;CYXE 071900Z 28003KT 15SM FEW090 SCT240 M10/M11 A2964 RMK AC2CI1 SLP079

CYXE;2008-01-07 20:00;CYXE 072000Z 34003KT 15SM BKN030 OVC240 M09/M10 A2965 RMK SC6CI2 SLP080

CYXE;2008-01-07 21:00;CYXE 072100Z 34003KT 15SM BKN011 BKN031 M09/M10 A2967 RMK SC5SC2 SLP086

CYXE;2008-01-07 22:00;CYXE 072200Z 00000KT 6SM -SN BR BKN010 BKN070 M09/M10 A2970 RMK SC5AC1 SLP096

CYXE;2008-01-07 22:15;CYXE 072215Z 31002KT 2SM -SN BR BKN012 BKN070 M10/ RMK SN2SC3AC1

CYXE;2008-01-07 22:34;CYXE 072234Z 30002KT 5SM -SN BR BKN030 BKN070 OVC240 M10/ RMK SC5AC2CI1

CYXE;2008-01-07 23:00;CYXE 072300Z 32004KT 8SM -SN SCT035 BKN070 OVC240 M10/M11 A2973 RMK SC2AC3CI1 BR SLP106

CYXE;2008-01-07 23:30;CYXE 072330Z 30007KT 15SM BKN090 BKN240 M11/ RMK AC3CI2

CYXE;2008-01-08 00:00;CYXE 080000Z 31006KT 15SM FEW090 BKN240 M12/M13 A2975 RMK AC1CI2 SLP118

CYXE;2008-01-08 01:00;CYXE 080100Z 28006KT 15SM BKN055 BKN240 M13/M14 A2978 RMK SC5CI1 IC SLP126

CYXE;2008-01-08 01:52;CYXE 080152Z 29007KT 10SM -SN BKN040 BKN240 M12/ RMK SC5CI2

CYXE;2008-01-08 02:00;CYXE 080200Z 29007KT 10SM -SN BKN040 OVC240 M12/M13 A2980 RMK SC5CI2 SLP132

CYXE;2008-01-08 03:00;CYXE 080300Z 30007KT 4SM -SN OVC015 M10/M11 A2981 RMK SN3SC5 SLP139

CYXE;2008-01-08 03:32;CYXE 080332Z 30007KT 15SM -SN BKN055 OVC095 M10/ RMK SC6AC2

CYXE;2008-01-08 04:00;CYXE 080400Z 28006KT 12SM -SN OVC050 M11/M12 A2983 RMK SC8 SLP143

CYXE;2008-01-08 05:00;CYXE 080500Z 26005KT 10SM -SN OVC050 M11/M12 A2984 RMK SC8 SLP146

CYXE;2008-01-08 06:00;CYXE 080600Z 26005KT 10SM -SN OVC040 M12/M13 A2985 RMK SC7 SLP149

CYXE;2008-01-08 06:55;CYXE 080655Z 25006KT 10SM FEW013 BKN039 M14/ RMK SC1SC6

CYXE;2008-01-08 07:00;CYXE 080700Z 26005KT 10SM FEW013 BKN039 M14/M15 A2986 RMK SC1SC6 SLP153

CYXE;2008-01-08 08:00;CYXE 080800Z 25005KT 10SM -SN BKN025 M15/M16 A2986 RMK SC6 SLP154

CYXE;2008-01-08 08:34;CYXE 080834Z 23004KT 15SM BKN020 M15/ RMK SC4

CYXE;2008-01-08 09:00;CYXE 080900Z 26004KT 15SM BKN019 M15/M15 A2987 RMK SC4 SLP156

CYXE;2008-01-08 10:00;CYXE 081000Z 24006KT 15SM BKN045 M17/M18 A2987 RMK SC3 SLP158

CYXE;2008-01-08 11:00;CYXE 081100Z 24006KT 15SM FEW045 BKN095 M18/M19 A2988 RMK SC2AC4 SLP160

CYXE;2008-01-08 12:00;CYXE 081200Z 23005KT 15SM SCT095 M18/M19 A2987 RMK AC3 SLP163

CYXE;2008-01-08 13:00;CYXE 081300Z 19005KT 15SM FEW095 M17/M18 A2987 RMK AC2 SLP163

CYXE;2008-01-08 14:00;CYXE 081400Z 19003KT 15SM FEW095 M18/M19 A2986 RMK AC1 SLP160

CYXE;2008-01-08 15:00;CYXE 081500Z 18003KT 6SM BR SCT110 OVC220 M19/M19 A2987 RMK AC2CI2 OBS TAKEN +09 SLP160

CYXE;2008-01-08 15:52;CYXE 081552Z 19004KT 4SM BR BKN002 M19/ RMK SF2 VIS S 2

CYXE;2008-01-08 16:00;CYXE 081600Z 17002KT 4SM BR BKN002 M19/M20 A2986 RMK SF2 VIS S 2 SLP158

CYXE;2008-01-08 16:35;CYXE 081635Z 19002KT 2SM BR OVC002 M18/ RMK SF3 VIS SW-N 4 FROIN

CYXE;2008-01-08 16:43;CYXE 081643Z CCA 17002KT 1 1/2SM BR OVC002 M18/ RMK SF3 IC VIS N-E 3 FROIN

CYXE;2008-01-08 17:00;CYXE 081700Z 19004KT 1 1/2SM BR OVC003 M17/M18 A2986 RMK SF4 IC VIS S 3/4 VIS NE-E 3 FROIN SLP156

CYXE;2008-01-08 17:33;CYXE 081733Z 17004KT 3SM BR FEW003 OVC220 M17/ RMK SF2CI2 IC VIS SE-SW 11/2 FROIN

CYXE;2008-01-08 18:00;CYXE 081800Z 21003KT 3SM BR SCT003 OVC220 M17/M17 A2984 RMK SF2CI2 VIS E-S 2 FROIN SLP150

CYXE;2008-01-08 19:00;CYXE 081900Z 16002KT 3SM BR SCT003 OVC220 M15/M16 A2981 RMK SF2CI2 FROIN SLP140

CYXE;2008-01-08 20:00;CYXE 082000Z 15002KT 4SM BR FEW003 BKN220 M13/M14 A2979 RMK SF1CI2 SLP134

CYXE;2008-01-08 21:00;CYXE 082100Z 09004KT 6SM BR FEW120 BKN220 M12/M13 A2976 RMK AC1CI2 SLP122

CYXE;2008-01-08 22:00;CYXE 082200Z 10004KT 8SM FEW220 M12/M13 A2976 RMK CI1 BR SLP121

CYXE;2008-01-08 23:00;CYXE 082300Z 11006KT 15SM FEW120 FEW220 M15/M16 A2975 RMK AC1CI0 SLP118

CYXE;2008-01-09 00:00;CYXE 090000Z 12008KT 15SM FEW120 FEW220 M14/M15 A2974 RMK AC1CI0 SLP117

CYXE;2008-01-09 01:00;CYXE 090100Z 12008KT 15SM FEW220 M15/M16 A2972 RMK CI1 SLP113

CYXE;2008-01-09 02:00;CYXE 090200Z 11007KT 12SM SKC M16/M17 A2972 RMK BR SLP110

CYXE;2008-01-09 03:00;CYXE 090300Z 12006KT 10SM SKC M17/M17 A2972 RMK IC SLP112

CYXE;2008-01-09 04:00;CYXE 090400Z 11008KT 12SM SKC M16/M16 A2969 RMK IC SLP105

CYXE;2008-01-09 05:00;CYXE 090500Z 12003KT 10SM FEW220 M16/M17 A2969 RMK CI1 SLP103

CYXE;2008-01-09 06:00;CYXE 090600Z 06006KT 4SM BR FEW220 M18/M19 A2968 RMK CI1 IC VIS W-NE 2 SLP101

CYXE;2008-01-09 06:37;CYXE 090637Z 05004KT 4SM BR FEW002 FEW220 M18/ RMK SF1CI0 IC VIS NNE 1

CYXE;2008-01-09 07:00;CYXE 090700Z 08005KT 4SM BR FEW002 FEW220 M18/M19 A2968 RMK SF1CI1 IC VIS NNW-N 1 SLP098

CYXE;2008-01-09 07:42;CYXE 090742Z 06006KT 1SM R09/P6000FT/D BR FEW001 SCT220 M18/ RMK FG1SF1CI1 IC VIS NE-S 4 TOWER OBS

CYXE;2008-01-09 08:00;CYXE 090800Z 06006KT 1 1/2SM BR SCT001 M18/M19 A2967 RMK FG2SF2 IC VIS NE 3/4 SLP095

CYXE;2008-01-09 08:14;CYXE 090814Z 08004KT 4SM BR FEW001 FEW220 M18/ RMK SF1CI1 IC VIS N 11/2

CYXE;2008-01-09 09:00;CYXE 090900Z 05005KT 6SM BR FEW001 SCT094 M19/M20 A2968 RMK SF1AC2 SLP096

CYXE;2008-01-09 10:00;CYXE 091000Z 03006KT 6SM BR FEW001 FEW220 M20/M20 A2969 RMK SF1CI1 SLP100

CYXE;2008-01-09 11:00;CYXE 091100Z 04006KT 6SM BR FEW001 OVC080 M19/M19 A2969 RMK SF1AC6 SLP100

CYXE;2008-01-09 12:00;CYXE 091200Z 04005KT 6SM BR FEW001 BKN068 OVC079 M18/M18 A2970 RMK SF1AC6AC2 SLP103

CYXE;2008-01-09 12:06;CYXE 091206Z 02003KT 6SM BR FEW001 BKN068 OVC081 M18/ RMK SF1AC6AC2 IC

CYXE;2008-01-09 13:00;CYXE 091300Z 02006KT 6SM BR FEW002 OVC068 M17/M18 A2971 RMK SF1AC7 IC VIS E 2 SLP107

CYXE;2008-01-09 14:00;CYXE 091400Z 04007KT 6SM BR FEW002 OVC075 M17/M18 A2972 RMK SF1AC8 IC SLP110

CYXE;2008-01-09 15:00;CYXE 091500Z 03007KT 8SM FEW006 BKN065 M18/M19 A2974 RMK SF1SC5 BR SLP120

CYXE;2008-01-09 16:00;CYXE 091600Z 02005KT 8SM SCT080 BKN140 M18/M19 A2978 RMK AC3AC2 BR SLP133

CYXE;2008-01-09 16:50;CYXE 091650Z 04007KT 6SM IC BR FEW003 SCT075 M18/ RMK SF1AC1

CYXE;2008-01-09 17:00;CYXE 091700Z 01008KT 6SM IC BR FEW003 SCT075 M18/M18 A2980 RMK SF1AC1 SLP140

CYXE;2008-01-09 18:00;CYXE 091800Z 02009KT 6SM IC BR BKN003 BKN120 M17/M18 A2983 RMK SF3AC2 VIS SE 21/2 SLP150

CYXE;2008-01-09 18:32;CYXE 091832Z 36007KT 6SM IC BR BKN009 OVC120 M17/ RMK SF6AC1

CYXE;2008-01-09 19:00;CYXE 091900Z 36009KT 4SM -SN BR OVC009 M16/M18 A2984 RMK SF6 SLP153

CYXE;2008-01-09 19:45;CYXE 091945Z 01008KT 2SM -SN BR OVC007 M16/ RMK SF6

CYXE;2008-01-09 20:00;CYXE 092000Z 01007KT 4SM -SN BR OVC007 M15/M17 A2985 RMK SF6 SLP156

CYXE;2008-01-09 21:00;CYXE 092100Z 36006KT 3SM -SN BR OVC007 M14/M16 A2986 RMK SF6 SLP162

CYXE;2008-01-09 21:21;CYXE 092121Z 01008KT 2 1/2SM -SN BR OVC008 M14/ RMK SF7

CYXE;2008-01-09 22:00;CYXE 092200Z 01007KT 4SM -SN BR OVC009 M14/M16 A2988 RMK SF7 SLP167

CYXE;2008-01-09 22:23;CYXE 092223Z 03008KT 5SM -SN BR OVC010 M14/ RMK SF7

CYXE;2008-01-09 23:00;CYXE 092300Z 03007KT 5SM -SN BR OVC010 M14/M16 A2990 RMK SF8 SLP175

CYXE;2008-01-09 23:29;CYXE 092329Z 04006KT 5SM -SN BR OVC007 M14/ RMK ST8

CYXE;2008-01-10 00:00;CYXE 100000Z 03006KT 5SM -SN BR OVC007 M14/M15 A2993 RMK ST8 SLP182

CYXE;2008-01-10 01:00;CYXE 100100Z 01006KT 8SM -SN OVC007 M14/M15 A2994 RMK ST8 SLP186

CYXE;2008-01-10 02:00;CYXE 100200Z 36006KT 10SM -SN OVC008 M14/M15 A2995 RMK ST8 SLP190

CYXE;2008-01-10 03:00;CYXE 100300Z 02006KT 10SM -SN OVC008 M14/M15 A2996 RMK ST8 SLP193

CYXE;2008-01-10 04:00;CYXE 100400Z 04004KT 12SM -SN OVC007 M14/M15 A2996 RMK ST8 SLP195

CYXE;2008-01-10 04:35;CYXE 100435Z 06004KT 2 1/2SM -SN OVC007 M14/ RMK ST8

CYXE;2008-01-10 05:00;CYXE 100500Z 06003KT 2 1/2SM -SN OVC006 M13/M14 A2995 RMK ST8 SLP192

CYXE;2008-01-10 05:10;CYXE 100510Z 08002KT 2SM -SN BR OVC004 M13/ RMK ST8

CYXE;2008-01-10 06:00;CYXE 100600Z 00000KT 2SM -SN BR OVC005 M13/M14 A2995 RMK ST8 SLP191

CYXE;2008-01-10 06:22;CYXE 100622Z 13002KT 3SM -SN BR OVC008 M13/ RMK ST8 VIS NW 11/2

CYXE;2008-01-10 06:35;CYXE 100635Z 00000KT 2SM -SN BR OVC008 M13/ RMK SF8

CYXE;2008-01-10 07:00;CYXE 100700Z 11003KT 2SM -SN BR OVC004 M13/M14 A2993 RMK SF8 SLP184

CYXE;2008-01-10 07:30;CYXE 100730Z 13004KT 1 1/2SM -SN BR OVC004 M13/ RMK SN3SF5

CYXE;2008-01-10 07:47;CYXE 100747Z 13005KT 1 1/2SM -SN BR OVC007 M13/ RMK SF8

CYXE;2008-01-10 08:00;CYXE 100800Z 18004KT 1 1/2SM -SN BR OVC007 M13/M14 A2993 RMK SF8 SLP183

CYXE;2008-01-10 08:33;CYXE 100833Z 19005KT 2SM -SN BR OVC004 M13/ RMK SF8

CYXE;2008-01-10 09:00;CYXE 100900Z 20005KT 1 1/2SM -SN BR OVC004 M14/M15 A2993 RMK SN3SF5 SLP180

CYXE;2008-01-10 09:17;CYXE 100917Z 20006KT 2SM -SN BR OVC004 M14/ RMK SF8

CYXE;2008-01-10 09:33;CYXE 100933Z 18003KT 1 1/2SM -SN BR OVC005 M14/ RMK SF8

CYXE;2008-01-10 10:00;CYXE 101000Z 21004KT 2SM -SN BR OVC004 M14/M15 A2992 RMK SF8 SLP176

CYXE;2008-01-10 10:28;CYXE 101028Z 16004KT 2SM -SN BR OVC006 M14/ RMK SF8

CYXE;2008-01-10 10:45;CYXE 101045Z 15006KT 1 1/2SM -SN BR OVC005 M14/ RMK SF8

CYXE;2008-01-10 11:00;CYXE 101100Z 19004KT 1 1/2SM -SN BR OVC005 M14/M15 A2989 RMK SF8 SLP168

CYXE;2008-01-10 11:01;CYXE 101101Z 19005KT 1 1/2SM -SN BR OVC006 M14/ RMK SF8

CYXE;2008-01-10 11:03;CYXE 101103Z 20006KT 1 1/2SM -SN BR OVC005 M14/ RMK SF8

CYXE;2008-01-10 11:24;CYXE 101124Z 19004KT 2SM -SN BR OVC006 M14/ RMK SF8

CYXE;2008-01-10 11:31;CYXE 101131Z 18005KT 2SM -SN BR OVC005 M14/ RMK SF8

CYXE;2008-01-10 12:00;CYXE 101200Z 17005KT 2SM -SN BR OVC005 M14/M16 A2987 RMK SF8 SLP160

CYXE;2008-01-10 12:47;CYXE 101247Z 15007KT 2SM -SN BR OVC004 M15/ RMK SF8

CYXE;2008-01-10 13:00;CYXE 101300Z 14007KT 2SM -SN BR OVC005 M15/M16 A2986 RMK SF8 CIG VRB 4-6 SLP156

CYXE;2008-01-10 14:00;CYXE 101400Z 15009KT 3SM -SN OVC006 M15/M16 A2982 RMK SF8 SLP143

CYXE;2008-01-10 14:48;CYXE 101448Z 15010KT 3SM -SN OVC004 M15/ RMK SF8

CYXE;2008-01-10 15:00;CYXE 101500Z 15007KT 3SM -SN OVC005 M15/M16 A2979 RMK SF8 SLP134

CYXE;2008-01-10 15:44;CYXE 101544Z 17005KT 2SM -SN OVC007 M15/ RMK SF8

CYXE;2008-01-10 16:00;CYXE 101600Z 16008KT 3SM -SN SCT002 OVC006 M15/M17 A2979 RMK SF3SC5 /S01/ SLP132

CYXE;2008-01-10 17:00;CYXE 101700Z 15007KT 4SM -SN SCT005 OVC009 M16/M18 A2978 RMK SF3SC5 SLP131

CYXE;2008-01-10 18:00;CYXE 101800Z 12008KT 4SM -SN BR OVC008 M15/M17 A2976 RMK SC8 SLP121

CYXE;2008-01-10 19:00;CYXE 101900Z 13007KT 6SM -SN DRSN OVC008 M15/M17 A2972 RMK SC6 SUN DIMLY VISBL SLP110

CYXE;2008-01-10 20:00;CYXE 102000Z CCA 12006KT 8SM -SN DRSN BKN008 BKN250 M15/M17 A2970 RMK SC5CI1 SLP102

CYXE;2008-01-10 20:36;CYXE 102036Z 12009KT 12SM DRSN SCT008 BKN250 M15/ RMK SF3CI0

CYXE;2008-01-10 21:00;CYXE 102100Z 11009KT 12SM DRSN FEW008 BKN250 M15/M17 A2966 RMK SF2CI1 SLP089

CYXE;2008-01-10 22:00;CYXE 102200Z 13010KT 15SM BKN250 M15/M18 A2966 RMK CI2 SLP087

CYXE;2008-01-10 23:00;CYXE 102300Z 12010KT 15SM OVC250 M16/M18 A2964 RMK CI2 SLP082

CYXE;2008-01-11 00:00;CYXE 110000Z 12009KT 12SM BKN070 OVC250 M16/M18 A2964 RMK AC3CI1 IC SLP083

CYXE;2008-01-11 01:00;CYXE 110100Z 12007KT 15SM SCT065 OVC250 M15/M17 A2963 RMK SC3CI0 IC SLP078

CYXE;2008-01-11 02:00;CYXE 110200Z 12006KT 15SM BKN075 OVC250 M15/M17 A2961 RMK AC5CI1 IC SLP072

CYXE;2008-01-11 03:00;CYXE 110300Z 12006KT 15SM OVC075 M14/M15 A2961 RMK AC8 IC SLP070

CYXE;2008-01-11 04:00;CYXE 110400Z 12004KT 15SM SCT075 OVC250 M14/M15 A2961 RMK AC4CI0 SLP070

CYXE;2008-01-11 05:00;CYXE 110500Z 11005KT 15SM BKN075 OVC250 M14/M15 A2961 RMK AC6CI0 SLP072

CYXE;2008-01-11 06:00;CYXE 110600Z 11005KT 15SM OVC094 M13/M15 A2962 RMK AC7 SLP075

CYXE;2008-01-11 07:00;CYXE 110700Z 10005KT 15SM OVC092 M13/M14 A2962 RMK AC8 SLP074

CYXE;2008-01-11 08:00;CYXE 110800Z 04003KT 10SM OVC092 M14/M15 A2963 RMK AC8 IC SLP079

CYXE;2008-01-11 08:45;CYXE 110845Z 04005KT 15SM BKN096 M14/ RMK AC6

CYXE;2008-01-11 09:00;CYXE 110900Z 05005KT 15SM BKN096 M15/M17 A2966 RMK AC5 SLP088

CYXE;2008-01-11 10:00;CYXE 111000Z 05006KT 15SM SCT098 M17/M19 A2967 RMK AC3 SLP093

CYXE;2008-01-11 10:34;CYXE 111034Z 06004KT 15SM -SN SCT018 SCT098 M17/ RMK SC3AC1

CYXE;2008-01-11 11:00;CYXE 111100Z 03003KT 15SM -SN OVC018 M17/M19 A2969 RMK SC8 SLP099

CYXE;2008-01-11 12:00;CYXE 111200Z 04005KT 6SM -SN OVC012 M15/M17 A2970 RMK SC8 SLP104

CYXE;2008-01-11 12:30;CYXE 111230Z 04004KT 2SM -SN BR BKN007 OVC012 M14/ RMK SF5SC3

CYXE;2008-01-11 12:40;CYXE 111240Z 04004KT 3SM -SN BR BKN007 OVC012 M14/ RMK SF6SC2

CYXE;2008-01-11 13:00;CYXE 111300Z 04004KT 6SM -SN BR OVC007 M14/M15 A2972 RMK SF8 SLP110

CYXE;2008-01-11 14:00;CYXE 111400Z 05002KT 10SM -SN BKN008 OVC011 M13/M15 A2974 RMK SF5SC3 SLP116

CYXE;2008-01-11 15:00;CYXE 111500Z 03003KT 12SM -SN BKN008 OVC011 M13/M14 A2976 RMK SF5SC3 SLP121

CYXE;2008-01-11 16:00;CYXE 111600Z 34002KT 6SM -SN BR OVC007 M13/M14 A2979 RMK SF8 SLP130

CYXE;2008-01-11 17:00;CYXE 111700Z 27002KT 4SM -SN BR OVC006 M13/M13 A2981 RMK SF8 SLP137

CYXE;2008-01-11 18:00;CYXE 111800Z 28003KT 4SM -SN BR OVC005 M12/M13 A2982 RMK SF8 SLP141

CYXE;2008-01-11 18:32;CYXE 111832Z 29003KT 3SM -SN BR SCT001 OVC004 M12/ RMK SF3ST5

CYXE;2008-01-11 18:43;CYXE 111843Z 28003KT 2SM -SN BR SCT002 OVC006 M12/ RMK SF3ST5

CYXE;2008-01-11 19:00;CYXE 111900Z 29002KT 3SM -SN OVC009 M12/M12 A2982 RMK SN2SC6 SLP142

CYXE;2008-01-11 19:37;CYXE 111937Z 29003KT 6SM -SN OVC005 M12/ RMK ST8

CYXE;2008-01-11 20:00;CYXE 112000Z 27002KT 6SM -SN OVC005 M11/M12 A2983 RMK ST8 SLP145

CYXE;2008-01-11 21:00;CYXE 112100Z 25003KT 6SM -SN BKN005 OVC012 M11/M12 A2984 RMK ST6SC2 SLP149

CYXE;2008-01-11 22:00;CYXE 112200Z 22004KT 6SM -SN BR OVC007 M12/M13 A2986 RMK ST7 SLP155

CYXE;2008-01-11 22:34;CYXE 112234Z 25005KT 8SM SCT008 OVC250 M13/ RMK ST4CI2 BR

CYXE;2008-01-11 23:00;CYXE 112300Z 23004KT 8SM FEW008 BKN250 M14/M15 A2988 RMK ST1CI3 BR SLP162

CYXE;2008-01-12 00:00;CYXE 120000Z 22005KT 12SM BKN012 OVC250 M15/M15 A2990 RMK ST5CI1 BR SLP173

CYXE;2008-01-12 00:12;CYXE 120012Z 23006KT 12SM -SN BKN007 OVC250 M14/ RMK ST6CI1 BR

CYXE;2008-01-12 00:24;CYXE 120024Z 24006KT 6SM -SN BR BKN002 OVC250 M13/ RMK ST7CI0

CYXE;2008-01-12 00:41;CYXE 120041Z 24005KT 2SM -SN BR OVC002 M12/ RMK ST8

CYXE;2008-01-12 01:00;CYXE 120100Z 23004KT 2SM R09/3000VP6000FT/D -SN BR OVC004 M13/M13 A2991 RMK ST7 SLP174

CYXE;2008-01-12 01:11;CYXE 120111Z 25006KT 2SM -SN BR OVC002 M13/ RMK ST8

CYXE;2008-01-12 01:34;CYXE 120134Z 25006KT 1 1/2SM -SN BR OVC002 M13/ RMK ST8

CYXE;2008-01-12 02:00;CYXE 120200Z 23005KT 1 1/2SM -SN BR OVC002 M13/M13 A2992 RMK ST8 SLP177

CYXE;2008-01-12 03:00;CYXE 120300Z 23007KT 2SM -SN BR OVC002 M12/M13 A2992 RMK ST8 SLP174

CYXE;2008-01-12 04:00;CYXE 120400Z 23007KT 2SM -SN BR OVC002 M11/M12 A2993 RMK ST8 SLP178

CYXE;2008-01-12 05:00;CYXE 120500Z 22006KT 2SM BR OVC002 M11/M11 A2993 RMK ST8 SLP177

CYXE;2008-01-12 05:37;CYXE 120537Z 22009KT 3SM BR OVC003 M11/ RMK ST8

CYXE;2008-01-12 06:00;CYXE 120600Z 23008KT 5SM BR SCT006 OVC035 M11/M11 A2993 RMK ST3SC5 SLP177

CYXE;2008-01-12 06:48;CYXE 120648Z 23011KT 10SM FEW006 BKN035 OVC065 M11/ RMK ST2SC3SC3

CYXE;2008-01-12 07:00;CYXE 120700Z CCA 23010KT 10SM FEW006 BKN035 OVC069 M11/M12 A2993 RMK ST2SC3AC3 SLP177

CYXE;2008-01-12 08:00;CYXE 120800Z 22009KT 10SM SCT045 OVC060 M12/M12 A2993 RMK SC4SC4 SLP176

CYXE;2008-01-12 09:00;CYXE 120900Z 23008KT 10SM OVC035 M11/M12 A2993 RMK SC8 SLP177

CYXE;2008-01-12 09:08;CYXE 120908Z 23007KT 15SM -SN OVC033 M11/ RMK SC8

CYXE;2008-01-12 09:09;CYXE 120909Z 23006KT 5SM -SN OVC033 M11/ RMK SC8

CYXE;2008-01-12 10:00;CYXE 121000Z 24005KT 5SM -SN OVC025 M10/M11 A2995 RMK SC8 SLP182

CYXE;2008-01-12 10:47;CYXE 121047Z 22005KT 10SM -SN OVC032 M10/ RMK SC8

CYXE;2008-01-12 11:00;CYXE 121100Z 22006KT 5SM -SN OVC020 M10/M11 A2994 RMK SC8 SLP180

CYXE;2008-01-12 11:07;CYXE 121107Z 21006KT 3SM -SN OVC015 M10/ RMK SC8

CYXE;2008-01-12 12:00;CYXE 121200Z 22008KT 5SM -SN OVC021 M10/M11 A2993 RMK SC8 SLP178

CYXE;2008-01-12 12:30;CYXE 121230Z 20006KT 1SM R09/P6000FT/D -SN OVC004 M10/ RMK ST8

CYXE;2008-01-12 12:52;CYXE 121252Z 18005KT 4SM -SN OVC004 M10/ RMK SF8

CYXE;2008-01-12 13:00;CYXE 121300Z 19006KT 6SM -SN BKN004 OVC010 M10/M10 A2992 RMK SF5SC3 SLP174

CYXE;2008-01-12 13:10;CYXE 121310Z 22007KT 12SM -SN FEW004 FEW010 SCT030 OVC050 M09/ RMK SF1SF2SC2SC4

CYXE;2008-01-12 14:00;CYXE 121400Z 21007KT 12SM -SN FEW010 SCT030 OVC050 M09/M10 A2991 RMK SF2SC2SC5 SLP172

CYXE;2008-01-12 15:00;CYXE 121500Z 23005KT 15SM FEW030 OVC048 M08/M10 A2991 RMK SC2SC6 SLP170

CYXE;2008-01-12 16:00;CYXE 121600Z 23003KT 12SM OVC054 M08/M10 A2992 RMK SC8 SLP173

CYXE;2008-01-12 17:00;CYXE 121700Z 22003KT 10SM OVC046 M08/M09 A2994 RMK SC8 SLP177

CYXE;2008-01-12 18:00;CYXE 121800Z 27004KT 10SM OVC055 M08/M09 A2995 RMK SC8 SLP181

CYXE;2008-01-12 19:00;CYXE 121900Z 32004KT 15SM BKN059 M07/M09 A2994 RMK SC7 SLP177

CYXE;2008-01-12 20:00;CYXE 122000Z 36004KT 10SM BKN059 M07/M09 A2994 RMK SC6 SLP176

CYXE;2008-01-12 21:00;CYXE 122100Z 35004KT 15SM FEW060 M08/M10 A2995 RMK SC2 SLP182

CYXE;2008-01-12 22:00;CYXE 122200Z 02004KT 10SM FEW060 M09/M11 A2997 RMK SC1 BR SLP187

CYXE;2008-01-12 23:00;CYXE 122300Z 04005KT 8SM FEW060 M11/M12 A2999 RMK SC1 BR SLP192

CYXE;2008-01-13 00:00;CYXE 130000Z 06003KT 6SM BR SKC M12/M13 A3000 RMK SLP202

CYXE;2008-01-13 01:00;CYXE 130100Z 05005KT 6SM BR BKN040 M14/M14 A3001 RMK SC2 SLP205

CYXE;2008-01-13 01:14;CYXE 130114Z 05003KT 6SM BR BKN006 OVC040 M12/ RMK ST6SC2

CYXE;2008-01-13 01:25;CYXE 130125Z 06003KT 6SM BR OVC004 M12/ RMK ST8

CYXE;2008-01-13 02:00;CYXE 130200Z 07007KT 6SM BR OVC005 M09/M10 A3002 RMK ST8 SLP206

CYXE;2008-01-13 03:00;CYXE 130300Z 08006KT 6SM BR OVC005 M08/M09 A3001 RMK ST8 SLP202

CYXE;2008-01-13 03:26;CYXE 130326Z 07007KT 8SM OVC008 M08/ RMK ST8 BR

CYXE;2008-01-13 04:00;CYXE 130400Z 07007KT 8SM OVC008 M08/M09 A3003 RMK ST8 BR SLP208

CYXE;2008-01-13 04:14;CYXE 130414Z 07007KT 8SM SCT008 OVC038 M08/ RMK ST4SC4 BR

CYXE;2008-01-13 04:43;CYXE 130443Z 08007KT 8SM BKN009 OVC038 M08/ RMK ST6SC2 BR

CYXE;2008-01-13 05:00;CYXE 130500Z 09007KT 8SM OVC009 M08/M10 A3005 RMK ST8 BR SLP214

CYXE;2008-01-13 06:00;CYXE 130600Z 10006KT 15SM OVC009 M09/M10 A3007 RMK ST8 SLP220

CYXE;2008-01-13 06:47;CYXE 130647Z 10008KT 15SM OVC010 M09/ RMK ST8

CYXE;2008-01-13 07:00;CYXE 130700Z 09007KT 15SM OVC010 M09/M11 A3007 RMK ST8 SLP221

CYXE;2008-01-13 07:18;CYXE 130718Z 09008KT 15SM OVC009 M09/ RMK ST8

CYXE;2008-01-13 07:47;CYXE 130747Z 10006KT 15SM OVC010 M09/ RMK ST8

CYXE;2008-01-13 08:00;CYXE 130800Z 10006KT 15SM OVC010 M09/M11 A3007 RMK ST8 SLP221

CYXE;2008-01-13 08:41;CYXE 130841Z 09009KT 15SM OVC009 M09/ RMK ST8

CYXE;2008-01-13 09:00;CYXE 130900Z 10008KT 15SM OVC009 M10/M12 A3008 RMK ST8 SLP226

CYXE;2008-01-13 10:00;CYXE 131000Z 10008KT 15SM OVC008 M10/M12 A3010 RMK ST8 SLP230

CYXE;2008-01-13 11:00;CYXE 131100Z 10008KT 15SM OVC008 M10/M12 A3010 RMK ST8 SLP230

CYXE;2008-01-13 12:00;CYXE 131200Z 10007KT 15SM OVC009 M11/M12 A3010 RMK ST8 SLP235

CYXE;2008-01-13 12:36;CYXE 131236Z 12006KT 15SM OVC010 M11/ RMK ST8

CYXE;2008-01-13 12:50;CYXE 131250Z 12005KT 15SM OVC009 M11/ RMK ST8

CYXE;2008-01-13 13:00;CYXE 131300Z 11006KT 15SM OVC009 M11/M12 A3011 RMK ST8 SLP237

CYXE;2008-01-13 14:00;CYXE 131400Z 09005KT 15SM BKN007 M12/M13 A3012 RMK SF6 SLP243

CYXE;2008-01-13 15:00;CYXE 131500Z 08004KT 15SM BKN008 BKN012 M13/M14 A3014 RMK SF6SC2 SLP248

CYXE;2008-01-13 15:47;CYXE 131547Z 12008KT 10SM OVC006 M11/ RMK ST8

CYXE;2008-01-13 16:00;CYXE 131600Z 12007KT 8SM OVC006 M11/M13 A3015 RMK ST8 BR SLP250

CYXE;2008-01-13 17:00;CYXE 131700Z 15008KT 4SM -SN OVC005 M11/M11 A3017 RMK ST8 SLP256

CYXE;2008-01-13 17:50;CYXE 131750Z 15010KT 2 1/2SM -SN BR OVC004 M10/ RMK ST8

CYXE;2008-01-13 18:00;CYXE 131800Z 14009KT 2 1/2SM -SN BR OVC004 M10/M10 A3015 RMK ST8 SLP250

CYXE;2008-01-13 19:00;CYXE 131900Z 14003KT 3SM -SN BR OVC004 M09/M10 A3017 RMK ST8 SLP258

CYXE;2008-01-13 20:00;CYXE 132000Z 17003KT 6SM -SN BR OVC007 M08/M09 A3018 RMK ST8 SLP260

CYXE;2008-01-13 20:48;CYXE 132048Z 17006KT 8SM -SN OVC009 M08/ RMK ST8

CYXE;2008-01-13 21:00;CYXE 132100Z 16006KT 8SM -SN OVC009 M08/M09 A3017 RMK ST8 SLP257

CYXE;2008-01-13 21:21;CYXE 132121Z 17007KT 10SM OVC009 M08/ RMK ST7

CYXE;2008-01-13 22:00;CYXE 132200Z 17004KT 10SM OVC009 M08/M09 A3019 RMK ST6 SLP261

CYXE;2008-01-13 23:00;CYXE 132300Z 18007KT 5SM BR OVC005 M08/M09 A3020 RMK ST8 SLP266

CYXE;2008-01-14 00:00;CYXE 140000Z 19007KT 5SM BR OVC005 M09/M09 A3021 RMK ST8 SLP269

CYXE;2008-01-14 01:00;CYXE 140100Z 21007KT 5SM BR OVC005 M09/M10 A3021 RMK ST8 SLP269

CYXE;2008-01-14 01:32;CYXE 140132Z 19007KT 4SM BR OVC003 M10/ RMK ST8

CYXE;2008-01-14 02:00;CYXE 140200Z 19009KT 3SM BR BKN005 M10/M10 A3020 RMK ST7 SLP268

CYXE;2008-01-14 02:53;CYXE 140253Z 19008KT 5SM BR SCT005 M11/ RMK ST4

CYXE;2008-01-14 03:00;CYXE 140300Z 19009KT 3SM BR SCT005 M11/M12 A3019 RMK ST4 SLP267

CYXE;2008-01-14 04:00;CYXE 140400Z 20009KT 3SM BR SCT005 M12/M13 A3018 RMK ST4 SLP263

CYXE;2008-01-14 05:00;CYXE 140500Z 21008KT 5SM BR SCT005 M13/M14 A3018 RMK ST3 SLP264

CYXE;2008-01-14 06:00;CYXE 140600Z 19008KT 5SM BR FEW005 M14/M15 A3015 RMK SF2 SLP252

CYXE;2008-01-14 07:00;CYXE 140700Z 19006KT 5SM BR FEW005 M14/M15 A3013 RMK SF1 SLP246

CYXE;2008-01-14 08:00;CYXE 140800Z 19007KT 5SM BR FEW220 M15/M16 A3011 RMK CI0 SLP239

CYXE;2008-01-14 09:00;CYXE 140900Z 19008KT 6SM BR SKC M15/M15 A3011 RMK SLP238

CYXE;2008-01-14 10:00;CYXE 141000Z 18007KT 15SM SKC M13/M14 A3008 RMK SLP229

CYXE;2008-01-14 11:00;CYXE 141100Z 17009KT 15SM SKC M13/M13 A3002 RMK PRESFR SLP209

CYXE;2008-01-14 12:00;CYXE 141200Z 15005KT 15SM FEW220 M12/M13 A3000 RMK CI1 SLP201

CYXE;2008-01-14 13:00;CYXE 141300Z 19004KT 15SM SKC M14/M14 A2998 RMK SLP192

CYXE;2008-01-14 14:00;CYXE 141400Z 16006KT 15SM FEW250 M12/M13 A2995 RMK CI1 SLP183

CYXE;2008-01-14 15:00;CYXE 141500Z 16007KT 15SM BKN250 M11/M12 A2992 RMK CI2 SLP172

CYXE;2008-01-14 16:00;CYXE 141600Z 16006KT 15SM FEW120 BKN250 M10/M11 A2989 RMK AC2CI2 SLP163

CYXE;2008-01-14 17:00;CYXE 141700Z 15009KT 15SM SCT120 BKN250 M08/M10 A2987 RMK AC3CI2 SLP158

CYXE;2008-01-14 18:00;CYXE 141800Z 15011KT 15SM BKN120 OVC250 M07/M09 A2984 RMK AS6CI2 SLP145

CYXE;2008-01-14 19:00;CYXE 141900Z 16009KT 15SM BKN120 OVC250 M07/M09 A2980 RMK AS6CI2 SLP131

CYXE;2008-01-14 20:00;CYXE 142000Z 16010KT 15SM BKN120 OVC250 M05/M07 A2974 RMK AS6CI2 SLP112

CYXE;2008-01-14 21:00;CYXE 142100Z 17012KT 15SM SCT120 OVC250 M04/M07 A2970 RMK AC3CI3 SLP094

CYXE;2008-01-14 22:00;CYXE 142200Z 17010KT 15SM SCT120 OVC250 M03/M07 A2968 RMK AC4CI2 SLP089

CYXE;2008-01-14 23:00;CYXE 142300Z 15009KT 15SM BKN120 BKN250 M03/M06 A2963 RMK AC5CI1 SLP073

CYXE;2008-01-15 00:00;CYXE 150000Z 16010KT 15SM SCT120 BKN250 M04/M07 A2961 RMK AC4CI2 SLP062

CYXE;2008-01-15 01:00;CYXE 150100Z 15010KT 15SM SCT120 OVC250 M05/M07 A2954 RMK AC4CI2 PRESFR SLP039

CYXE;2008-01-15 02:00;CYXE 150200Z 15009KT 15SM BKN120 OVC250 M05/M07 A2950 RMK AC5CI2 SLP027

CYXE;2008-01-15 03:00;CYXE 150300Z 17009KT 15SM BKN120 BKN250 M04/M06 A2946 RMK AC5CI1 SLP008

CYXE;2008-01-15 04:00;CYXE 150400Z 17007KT 15SM BKN120 BKN250 M04/M06 A2941 RMK AC5CI2 SLP995

CYXE;2008-01-15 05:00;CYXE 150500Z 18009KT 15SM BKN120 OVC250 M01/M05 A2936 RMK AC6CI2 SLP978

CYXE;2008-01-15 06:00;CYXE 150600Z 18011KT 15SM BKN100 OVC250 M00/M05 A2933 RMK AC7CI1 SLP962

CYXE;2008-01-15 07:00;CYXE 150700Z 19010G15KT 15SM BKN100 OVC250 M00/M04 A2929 RMK AC7CI1 SLP949

CYXE;2008-01-15 08:00;CYXE 150800Z 22014KT 15SM BKN100 OVC250 02/M04 A2926 RMK AC7CI1 SLP938

CYXE;2008-01-15 09:00;CYXE 150900Z 25015G21KT 15SM BKN100 OVC250 04/M02 A2923 RMK AC7CI1 SLP921

CYXE;2008-01-15 10:00;CYXE 151000Z 28008KT 15SM OVC100 02/M02 A2923 RMK AC8 SLP920

CYXE;2008-01-15 11:00;CYXE 151100Z 26010KT 15SM OVC100 01/M02 A2923 RMK AC8 SLP923

CYXE;2008-01-15 12:00;CYXE 151200Z 31021KT 15SM DRSN OVC100 M02/M04 A2925 RMK AC8 SLP933

CYXE;2008-01-15 13:00;CYXE 151300Z 31015KT 15SM DRSN FEW010 OVC090 M04/M06 A2931 RMK SC1AC7 SLP951

CYXE;2008-01-15 14:00;CYXE 151400Z 32019G26KT 15SM DRSN FEW010 OVC075 M04/M06 A2936 RMK SC1AC7 SLP968

CYXE;2008-01-15 14:32;CYXE 151432Z 34021KT 5SM -SN DRSN FEW014 OVC060 M04/ RMK SF2AC6

CYXE;2008-01-15 14:40;CYXE 151440Z 34021G27KT 2SM -SN BLSN OVC060 M04/ RMK SN2SC6

CYXE;2008-01-15 14:51;CYXE 151451Z 34021G27KT 3/8SM R09/P6000FT/D SN BLSN VV008 M05/ RMK SN8

CYXE;2008-01-15 15:00;CYXE 151500Z 34019G24KT 3/8SM R09/6000FT/D SN BLSN VV005 M05/M06 A2944 RMK SN8 PRESRR SLP998

CYXE;2008-01-15 15:26;CYXE 151526Z 34019G24KT 3/8SM R09/4000FT/D SN BLSN VV003 M05/ RMK SN8

CYXE;2008-01-15 16:00;CYXE 151600Z 34020G26KT 3/8SM R09/6000FT/N -SN BLSN VV004 M05/M05 A2950 RMK SN8 SLP018

CYXE;2008-01-15 16:10;CYXE 151610Z 34018G24KT 1/2SM R09/P6000FT/D -SN BLSN VV004 M05/ RMK SN8

CYXE;2008-01-15 17:00;CYXE 151700Z 33027G34KT 3/8SM R09/3500V5000FT/D SN BLSN VV006 M04/M05 A2955 RMK SN8 SLP034

CYXE;2008-01-15 17:08;CYXE 151708Z 34028G40KT 1/8SM R09/2800V5000FT/U SN +BLSN VV006 M05/ RMK SN8

CYXE;2008-01-15 17:24;CYXE 151724Z 34024G31KT 3/4SM R09/P6000FT/N -SN BLSN VV007 M05/ RESN RMK SN8

CYXE;2008-01-15 17:54;CYXE 151754Z 33028G40KT 1/2SM R09/3500FT/N -SN BLSN VV008 M07/ RMK SN8

CYXE;2008-01-15 18:00;CYXE 151800Z 34029G40KT 1/2SM R09/3000V4500FT/U -SN BLSN VV008 M07/M08 A2964 RMK SN8 PRESRR SLP066

CYXE;2008-01-15 18:22;CYXE 151822Z 33029KT 1/4SM R09/3500V5500FT/D -SN +BLSN VV006 M07/ RMK SN8

CYXE;2008-01-15 18:54;CYXE 151854Z 32023G33KT 1SM R09/3000VP6000FT/U -SN BLSN VV009 RMK SN8

CYXE;2008-01-15 19:00;CYXE 151900Z 32026G32KT 1SM R09/P6000FT/U -SN BLSN VV009 M08/M10 A2970 RMK SN8 SLP087

CYXE;2008-01-15 19:33;CYXE 151933Z 33030KT 2 1/2SM -SN BLSN OVC015 M09/ RMK SC8

CYXE;2008-01-15 19:51;CYXE 151951Z 32024G31KT 3/4SM R09/4000VP6000FT/D -SN BLSN VV011 M09/ RMK SN8

CYXE;2008-01-15 20:00;CYXE 152000Z 33024G29KT 3/4SM R09/3500V6000FT/N -SN BLSN VV011 M09/M10 A2973 RMK SN8 SLP096

CYXE;2008-01-15 21:00;CYXE 152100Z 33027G33KT 3/4SM R09/3500VP6000FT/U -SN BLSN SCT012 BKN058 OVC070 M09/M11 A2979 RMK SN2SF2SC3AC1 SLP117

CYXE;2008-01-15 21:17;CYXE 152117Z 33024G32KT 2SM BLSN OVC080 M09/ RMK SN2AC5

CYXE;2008-01-15 21:38;CYXE 152138Z 34028G35KT 1 1/4SM BLSN FEW080 BKN210 M09/ RMK SN1AC1CI1 VIS VRB 3/4-13/4

CYXE;2008-01-15 22:00;CYXE 152200Z 34025G34KT 1 1/4SM BLSN FEW040 BKN210 M10/M12 A2983 RMK SN1SC2CI1 VIS VRB 3/4-13/4 /S02/ SLP130

CYXE;2008-01-15 22:15;CYXE 152215Z 33027G32KT 2SM BLSN BKN026 BKN210 M10/ RMK SC5CI0 VIS VRB 11/2-21/2

CYXE;2008-01-15 22:48;CYXE 152248Z 33028G33KT 3SM BLSN BKN026 OVC210 M10/ RMK SC6CI1

CYXE;2008-01-15 23:00;CYXE 152300Z 34022G29KT 4SM BLSN BKN026 OVC210 M11/M14 A2987 RMK SC5CI0 SLP143

CYXE;2008-01-16 00:00;CYXE 160000Z 34015G24KT 15SM DRSN BKN026 OVC210 M13/M16 A2996 RMK SC6CI0 SLP182

CYXE;2008-01-16 02:00;CYXE 160200Z 32021G26KT 15SM DRSN OVC024 M14/M16 A3003 RMK SC8 SLP203

CYXE;2008-01-16 03:00;CYXE 160300Z 32025G32KT 8SM DRSN OVC026 M15/M17 A3006 RMK SC8 OCNL BLSN SLP218

CYXE;2008-01-16 04:00;CYXE 160400Z 32022G30KT 15SM DRSN OVC031 M15/M18 A3008 RMK SC8 SLP226

CYXE;2008-01-16 05:00;CYXE 160500Z 33018KT 15SM DRSN BKN033 M17/M20 A3013 RMK SC6 SLP242

CYXE;2008-01-16 06:00;CYXE 160600Z 33010KT 15SM FEW035 M19/M22 A3016 RMK SC2 SLP259

CYXE;2008-01-16 07:00;CYXE 160700Z 31009KT 15SM SKC M21/M23 A3018 RMK SLP266

CYXE;2008-01-16 08:00;CYXE 160800Z 31008KT 15SM SKC M21/M23 A3020 RMK SLP271

CYXE;2008-01-16 09:00;CYXE 160900Z 30009KT 15SM SKC M23/M24 A3022 RMK SLP282

CYXE;2008-01-16 10:00;CYXE 161000Z 30006KT 15SM SKC M24/M25 A3024 RMK SLP289

CYXE;2008-01-16 11:00;CYXE 161100Z 28009KT 15SM SKC M25/M26 A3026 RMK SLP294

CYXE;2008-01-16 12:00;CYXE 161200Z 27008KT 15SM SKC M26/M26 A3026 RMK SLP300

CYXE;2008-01-16 13:00;CYXE 161300Z 22008KT 15SM SKC M27/M27 A3024 RMK SLP294

CYXE;2008-01-16 14:00;CYXE 161400Z 23008KT 15SM SKC M26/M28 A3023 RMK SLP293

CYXE;2008-01-16 15:00;CYXE 161500Z 23006KT 15SM BKN056 M25/M29 A3022 RMK SC6 SLP289

CYXE;2008-01-16 16:00;CYXE 161600Z 22009KT 15SM SCT056 BKN100 M23/M27 A3019 RMK SC3AC1 SLP279

CYXE;2008-01-16 17:00;CYXE 161700Z 22010KT 15SM FEW100 M22/M26 A3017 RMK AC0 SLP271

CYXE;2008-01-16 18:00;CYXE 161800Z 22011KT 15SM FEW070 M19/M24 A3013 RMK AC1 SLP258

CYXE;2008-01-16 19:00;CYXE 161900Z 22012KT 15SM FEW070 BKN220 M17/M22 A3009 RMK AC2CI0 SLP245

CYXE;2008-01-16 20:00;CYXE 162000Z 22013KT 15SM FEW097 BKN220 M15/M20 A3004 RMK AC2CI0 SLP228

CYXE;2008-01-16 21:00;CYXE 162100Z 22016KT 15SM BKN087 BKN220 M14/M18 A2999 RMK AC5CI1 PRESFR SLP208

CYXE;2008-01-16 22:00;CYXE 162200Z 22014KT 15SM BKN083 BKN220 M13/M17 A2997 RMK AC5CI0 SLP199

CYXE;2008-01-16 23:00;CYXE 162300Z 23012KT 15SM SCT050 BKN074 OVC220 M12/M15 A2994 RMK SC3AC2CI0 SLP190

CYXE;2008-01-17 00:00;CYXE 170000Z 23010KT 15SM FEW050 BKN070 OVC220 M11/M14 A2990 RMK SC2AC2CI0 SLP177

CYXE;2008-01-17 01:00;CYXE 170100Z 23009KT 15SM BKN060 OVC220 M10/M13 A2988 RMK SC3CI0 SLP169

CYXE;2008-01-17 02:00;CYXE 170200Z 25008KT 15SM BKN060 OVC220 M10/M12 A2985 RMK SC3CI0 SLP161

CYXE;2008-01-17 03:00;CYXE 170300Z 26007KT 15SM BKN060 OVC220 M10/M12 A2982 RMK SC3CI0 SLP147

CYXE;2008-01-17 04:00;CYXE 170400Z 24006KT 15SM SCT060 BKN220 M11/M13 A2980 RMK SC2CI0 SLP139

CYXE;2008-01-17 05:00;CYXE 170500Z 22007KT 15SM SCT060 BKN090 BKN220 M12/M13 A2977 RMK SC3AC1CI0 SLP130

CYXE;2008-01-17 06:00;CYXE 170600Z 23006KT 15SM SCT030 BKN100 OVC220 M10/M11 A2975 RMK SC4AC2CI1 SLP119

CYXE;2008-01-17 07:00;CYXE 170700Z 25005KT 15SM BKN030 OVC100 M09/M11 A2973 RMK SC6AC2 SLP114

CYXE;2008-01-17 07:44;CYXE 170744Z 25006KT 3SM -SN BKN025 OVC200 M08/ RMK SN2SC5CI1

CYXE;2008-01-17 08:00;CYXE 170800Z 25006KT 6SM -SN BKN025 OVC065 M08/M10 A2971 RMK SC6SC2 MOON DMLY VIS SLP106

CYXE;2008-01-17 08:29;CYXE 170829Z 26006KT 15SM BKN022 OVC065 M08/ RMK SC6SC2

CYXE;2008-01-17 09:00;CYXE 170900Z 28006KT 15SM -SN SCT030 OVC085 M08/M10 A2971 RMK SC3AC4 SLP100

CYXE;2008-01-17 09:29;CYXE 170929Z 32008KT 6SM -SN BKN027 OVC085 M08/ RMK SC6AC2

CYXE;2008-01-17 10:00;CYXE 171000Z 34009KT 8SM -SN BKN030 OVC085 M08/M10 A2972 RMK SC6AC2 SLP104

CYXE;2008-01-17 11:00;CYXE 171100Z 36008KT 6SM -SN BKN025 OVC085 M09/M11 A2972 RMK SC7AC1 SLP104

CYXE;2008-01-17 12:00;CYXE 171200Z 36007KT 5SM -SN OVC028 M10/M11 A2972 RMK SC8 SLP105

CYXE;2008-01-17 13:00;CYXE 171300Z 01012KT 12SM -SN BKN025 OVC095 M10/M12 A2974 RMK SC6AC2 SLP110

CYXE;2008-01-17 13:33;CYXE 171333Z 02014KT 15SM FEW012 OVC048 M11/ RMK SF1SC7

CYXE;2008-01-17 14:00;CYXE 171400Z 02014KT 15SM FEW012 OVC057 M12/M13 A2977 RMK SF1SC8 SLP121

CYXE;2008-01-17 15:00;CYXE 171500Z 01014KT 15SM OVC053 M12/M14 A2981 RMK SC8 SLP135

CYXE;2008-01-17 15:25;CYXE 171525Z 01011G17KT 15SM -SN FEW004 OVC051 M13/ RMK SF1SC4

CYXE;2008-01-17 16:00;CYXE 171600Z 02015KT 15SM FEW007 BKN051 M14/M15 A2986 RMK SF1SC4 SLP151

CYXE;2008-01-17 17:00;CYXE 171700Z 01012KT 15SM FEW005 BKN050 M15/M17 A2991 RMK SF2SC2 SLP169

CYXE;2008-01-17 17:11;CYXE 171711Z 03017KT 15SM BKN010 BKN050 M15/ RMK SC5SC0

CYXE;2008-01-17 18:00;CYXE 171800Z 02018KT 15SM FEW010 SCT200 M16/M18 A2995 RMK SF2CI2 SLP185

CYXE;2008-01-17 19:00;CYXE 171900Z 36014KT 15SM FEW010 SCT200 M17/M20 A2998 RMK SF1CI2 SLP196

CYXE;2008-01-17 20:00;CYXE 172000Z 36011KT 15SM FEW200 M18/M21 A3001 RMK CI1 SLP205

CYXE;2008-01-17 21:00;CYXE 172100Z 36011G16KT 15SM FEW200 M18/M25 A3003 RMK CI1 SLP212

CYXE;2008-01-17 22:00;CYXE 172200Z 33011KT 15SM FEW200 M18/M26 A3005 RMK CI1 SLP221

CYXE;2008-01-17 23:00;CYXE 172300Z 33008KT 15SM FEW200 M20/M26 A3008 RMK CI1 SLP230

CYXE;2008-01-18 00:00;CYXE 180000Z 32007KT 15SM SCT200 M22/M28 A3012 RMK CI1 SLP248

CYXE;2008-01-18 01:00;CYXE 180100Z 32007KT 15SM SCT200 M22/M27 A3015 RMK CI1 SLP257

CYXE;2008-01-18 02:00;CYXE 180200Z 33008KT 15SM BKN200 M22/M28 A3017 RMK CI0 SLP265

CYXE;2008-01-18 03:00;CYXE 180300Z 31004KT 15SM FEW200 M24/M29 A3019 RMK CI0 SLP276

CYXE;2008-01-18 04:00;CYXE 180400Z 31008KT 15SM SKC M24/M28 A3021 RMK SLP281

CYXE;2008-01-18 05:00;CYXE 180500Z 31009KT 15SM SKC M25/M30 A3022 RMK SLP285

CYXE;2008-01-18 06:00;CYXE 180600Z 32009KT 15SM SKC M26/M30 A3024 RMK SLP296

CYXE;2008-01-18 07:00;CYXE 180700Z 31010KT 15SM FEW250 M26/M30 A3026 RMK CI1 SLP303

CYXE;2008-01-18 08:00;CYXE 180800Z 31007KT 15SM FEW250 M27/M31 A3027 RMK CI0 SLP308

CYXE;2008-01-18 09:00;CYXE 180900Z 31007KT 15SM FEW250 M28/M32 A3029 RMK CI0 SLP318

CYXE;2008-01-18 10:00;CYXE 181000Z 30008KT 15SM FEW089 BKN250 M28/M32 A3031 RMK AC2CI0 SLP325

CYXE;2008-01-18 11:00;CYXE 181100Z 30009KT 15SM FEW090 BKN250 M28/M33 A3033 RMK AC2CI1 SLP330

CYXE;2008-01-18 12:00;CYXE 181200Z 31007KT 15SM BKN080 BKN250 M26/M31 A3035 RMK AC5CI0 SLP339

CYXE;2008-01-18 13:00;CYXE 181300Z 31004KT 15SM OVC080 M25/M30 A3035 RMK AC7 SLP341

CYXE;2008-01-18 14:00;CYXE 181400Z 31009KT 15SM BKN072 M24/M29 A3036 RMK AC6 SLP343

CYXE;2008-01-18 15:00;CYXE 181500Z 31008KT 15SM BKN067 M23/M29 A3037 RMK AC6 SLP344

CYXE;2008-01-18 16:00;CYXE 181600Z 30008KT 15SM OVC060 M23/M28 A3037 RMK SC7 SLP344

CYXE;2008-01-18 17:00;CYXE 181700Z 29008KT 15SM OVC055 M22/M27 A3038 RMK SC7 SLP348

CYXE;2008-01-18 18:00;CYXE 181800Z 28008KT 15SM OVC040 M21/M27 A3037 RMK SC7 SLP346

CYXE;2008-01-18 19:00;CYXE 181900Z 28006KT 15SM OVC035 M20/M26 A3035 RMK SC6 SLP340

CYXE;2008-01-18 20:00;CYXE 182000Z 23008KT 15SM OVC025 M19/M25 A3033 RMK SC8 SLP332

CYXE;2008-01-18 21:00;CYXE 182100Z 25010KT 15SM SCT020 OVC060 M18/M24 A3031 RMK SC3SC3 SLP325

CYXE;2008-01-18 21:04;CYXE 182104Z 26011KT 15SM -SN BKN020 OVC050 M18/ RMK SC5SC2

CYXE;2008-01-18 22:00;CYXE 182200Z 25006KT 12SM -SN BKN019 BKN053 M18/M22 A3030 RMK SC5SC2 SLP319

CYXE;2008-01-18 23:00;CYXE 182300Z 24005KT 10SM -SN OVC023 M17/M21 A3028 RMK SC7 SLP314

CYXE;2008-01-19 00:00;CYXE 190000Z 25005KT 10SM -SN SCT030 OVC049 M17/M20 A3027 RMK SC3SC4 SLP307

CYXE;2008-01-19 01:00;CYXE 190100Z 25004KT 10SM -SN OVC038 M16/M19 A3026 RMK SC7 SLP303

CYXE;2008-01-19 02:00;CYXE 190200Z 28004KT 8SM -SN OVC020 M16/M18 A3026 RMK SC8 SLP303

CYXE;2008-01-19 03:00;CYXE 190300Z 26005KT 8SM -SN OVC020 M15/M18 A3024 RMK SC8 SLP295

CYXE;2008-01-19 04:00;CYXE 190400Z 23005KT 10SM -SN SCT020 OVC043 M16/M19 A3023 RMK SC4SC3 SLP292

CYXE;2008-01-19 05:00;CYXE 190500Z 24007KT 12SM -SN SCT040 OVC059 M16/M19 A3023 RMK SC3SC4 SLP290

CYXE;2008-01-19 06:00;CYXE 190600Z 23005KT 15SM -SN FEW040 OVC060 M17/M20 A3021 RMK SC2SC6 SLP285

CYXE;2008-01-19 07:00;CYXE 190700Z 22005KT 15SM SCT060 BKN080 M17/M21 A3021 RMK SC3AC2 SLP282

CYXE;2008-01-19 08:00;CYXE 190800Z 25007KT 15SM BKN082 M18/M22 A3019 RMK AC5 SLP277

CYXE;2008-01-19 09:00;CYXE 190900Z 23006KT 12SM BKN082 M18/M22 A3018 RMK AC6 SLP274

CYXE;2008-01-19 10:00;CYXE 191000Z 21003KT 15SM BKN082 M18/M22 A3017 RMK AC6 SLP271

CYXE;2008-01-19 11:00;CYXE 191100Z 21005KT 15SM BKN084 M19/M23 A3016 RMK AC4 SLP267

CYXE;2008-01-19 12:00;CYXE 191200Z 19006KT 15SM SCT084 M20/M24 A3016 RMK AC4 SLP267

CYXE;2008-01-19 13:00;CYXE 191300Z 17005KT 15SM FEW084 M22/M26 A3016 RMK AC1 SLP266

CYXE;2008-01-19 14:00;CYXE 191400Z 17006KT 15SM FEW085 M23/M27 A3015 RMK AC1 SLP264

CYXE;2008-01-19 15:00;CYXE 191500Z 13003KT 15SM FEW085 FEW250 M23/M25 A3015 RMK AC1CI0 SLP263

CYXE;2008-01-19 16:00;CYXE 191600Z 20003KT 15SM FEW090 M22/M25 A3016 RMK AC1 SLP267

CYXE;2008-01-19 17:00;CYXE 191700Z 35005KT 15SM FEW090 M24/M27 A3019 RMK AC1 SLP276

CYXE;2008-01-19 18:00;CYXE 191800Z 05008KT 15SM FEW090 FEW250 M21/M24 A3022 RMK AC1CI0 SLP286

CYXE;2008-01-19 19:00;CYXE 191900Z 05008KT 15SM FEW080 FEW250 M20/M24 A3022 RMK AC1CI0 SLP286

CYXE;2008-01-19 20:00;CYXE 192000Z 06009KT 15SM FEW080 FEW280 M19/M23 A3022 RMK AC1CI0 SLP288

CYXE;2008-01-19 21:00;CYXE 192100Z 07011KT 15SM FEW030 FEW280 M17/M21 A3025 RMK SC1CI1 SLP294

CYXE;2008-01-19 21:54;CYXE 192154Z 07012KT 15SM -SN SCT011 BKN030 BKN280 M17/ RMK SC3SC2CI1

CYXE;2008-01-19 22:00;CYXE 192200Z 07012KT 15SM -SN SCT011 BKN030 BKN280 M17/M21 A3026 RMK SC2SC2CI1 SLP300

CYXE;2008-01-19 23:00;CYXE 192300Z 05014KT 15SM -SN BKN023 M18/M22 A3030 RMK SC7 SLP310

CYXE;2008-01-20 00:00;CYXE 200000Z 06014KT 12SM -SN BKN026 M19/M23 A3033 RMK SC7 SLP326

CYXE;2008-01-20 01:00;CYXE 200100Z 05014KT 15SM -SN BKN030 M19/M23 A3035 RMK SC6 SLP333

CYXE;2008-01-20 02:00;CYXE 200200Z 04011KT 15SM -SN BKN036 M20/M24 A3039 RMK SC6 SLP346

CYXE;2008-01-20 03:00;CYXE 200300Z 05008KT 15SM -SN OVC038 M20/M24 A3041 RMK SC6 SLP356

CYXE;2008-01-20 04:00;CYXE 200400Z 04005KT 15SM -SN OVC040 M20/M24 A3042 RMK SC6 SLP359

CYXE;2008-01-20 05:00;CYXE 200500Z 01003KT 15SM -SN OVC040 M19/M24 A3043 RMK SC7 SLP364

CYXE;2008-01-20 06:00;CYXE 200600Z 35005KT 15SM BKN038 M21/M25 A3044 RMK SC7 SLP367

CYXE;2008-01-20 07:00;CYXE 200700Z 35006KT 15SM BKN030 M22/M25 A3046 RMK SC5 SLP373

CYXE;2008-01-20 08:00;CYXE 200800Z 35007KT 15SM SCT036 M23/M27 A3046 RMK SC3 SLP373

CYXE;2008-01-20 09:00;CYXE 200900Z 35006KT 15SM SKC M25/M29 A3046 RMK SLP374

CYXE;2008-01-20 10:00;CYXE 201000Z 31005KT 15SM SKC M27/M30 A3047 RMK SLP377

CYXE;2008-01-20 11:00;CYXE 201100Z 30008KT 15SM FEW010 M29/M32 A3047 RMK SC1 SLP375

CYXE;2008-01-20 12:00;CYXE 201200Z 30006KT 15SM SKC M29/M32 A3047 RMK SLP379

CYXE;2008-01-20 13:00;CYXE 201300Z 29008KT 15SM SKC M30/M33 A3047 RMK SLP379

CYXE;2008-01-20 13:46;CYXE 201346Z 31008KT 15SM SCT004 M28/ RMK SF2

CYXE;2008-01-20 14:00;CYXE 201400Z CCA 33014KT 4SM BR BKN003 M26/M30 A3047 RMK FG2SF3 SLP381

CYXE;2008-01-20 15:00;CYXE 201500Z 29008KT 6SM BR OVC004 M24/M28 A3047 RMK SF6 SLP377

CYXE;2008-01-20 15:47;CYXE 201547Z 26004KT 12SM SCT003 OVC060 M25/ RMK SF3SC3 BR

CYXE;2008-01-20 16:00;CYXE 201600Z 25005KT 15SM -SN SCT003 OVC050 M24/M28 A3047 RMK SF2SC5 SLP376

CYXE;2008-01-20 17:00;CYXE 201700Z 25008KT 6SM -SN OVC050 M23/M26 A3046 RMK SC7 SLP374

CYXE;2008-01-20 18:00;CYXE 201800Z 26009KT 6SM -SN OVC050 M22/M25 A3045 RMK SC7 SLP370

CYXE;2008-01-20 18:31;CYXE 201831Z 26008KT 15SM OVC048 M21/ RMK SC7

CYXE;2008-01-20 19:00;CYXE 201900Z 26008KT 15SM OVC045 M20/M23 A3043 RMK SC8 SLP362

CYXE;2008-01-20 20:00;CYXE 202000Z 30011KT 15SM OVC043 M18/M21 A3041 RMK SC7 SLP356

CYXE;2008-01-20 20:45;CYXE 202045Z 29011KT 10SM -SN OVC045 M18/ RMK SC8

CYXE;2008-01-20 21:00;CYXE 202100Z 29010G15KT 12SM -SN DRSN OVC045 M18/M21 A3039 RMK SC8 SLP347

CYXE;2008-01-20 21:47;CYXE 202147Z 30010KT 15SM SCT043 M18/ RMK SC3

CYXE;2008-01-20 22:00;CYXE 202200Z 30010KT 15SM FEW043 M18/M22 A3038 RMK SC2 SLP344

CYXE;2008-01-20 23:00;CYXE 202300Z 31012KT 15SM BKN051 M18/M22 A3037 RMK SC2 SLP342

CYXE;2008-01-21 00:00;CYXE 210000Z 30010KT 15SM BKN051 M19/M23 A3037 RMK SC3 SLP346

CYXE;2008-01-21 01:00;CYXE 210100Z 27009KT 15SM SCT050 M22/M25 A3038 RMK SC2 SLP349

CYXE;2008-01-21 02:00;CYXE 210200Z 28007KT 15SM BKN047 M24/M27 A3038 RMK SC3 SLP348

CYXE;2008-01-21 03:00;CYXE 210300Z 27008KT 15SM BKN047 M23/M27 A3036 RMK SC3 SLP344

CYXE;2008-01-21 04:00;CYXE 210400Z 25006KT 15SM BKN045 M20/M23 A3035 RMK SC5 SLP341

CYXE;2008-01-21 05:00;CYXE 210500Z 27007KT 15SM BKN043 M19/M22 A3034 RMK SC6 SLP337

CYXE;2008-01-21 06:00;CYXE 210600Z 25005KT 15SM OVC040 M18/M21 A3033 RMK SC8 SLP328

CYXE;2008-01-21 07:00;CYXE 210700Z 23004KT 15SM OVC035 M19/M21 A3032 RMK SC8 SLP323

CYXE;2008-01-21 07:55;CYXE 210755Z 22004KT 12SM -SN OVC030 M17/ RMK SC8

CYXE;2008-01-21 08:00;CYXE 210800Z 22003KT 12SM -SN OVC030 M17/M19 A3030 RMK SC8 SLP318

CYXE;2008-01-21 09:00;CYXE 210900Z 21004KT 12SM -SN OVC025 M16/M19 A3028 RMK SC8 SLP305

CYXE;2008-01-21 10:00;CYXE 211000Z 21004KT 12SM -SN OVC025 M16/M18 A3026 RMK SC8 SLP299

CYXE;2008-01-21 11:00;CYXE 211100Z 21003KT 8SM -SN OVC020 M16/M18 A3023 RMK SC8 SLP290

CYXE;2008-01-21 12:00;CYXE 211200Z 27005KT 4SM -SN OVC018 M15/M17 A3021 RMK SC8 SLP283

CYXE;2008-01-21 12:07;CYXE 211207Z 27006KT 3SM -SN OVC014 M15/ RMK SC8

CYXE;2008-01-21 12:27;CYXE 211227Z 28008KT 12SM -SN OVC018 M15/ RMK SC8

CYXE;2008-01-21 13:00;CYXE 211300Z 27007KT 12SM -SN OVC020 M16/M18 A3020 RMK SC7 SLP278

CYXE;2008-01-21 14:00;CYXE 211400Z 25007KT 15SM -SN OVC018 M16/M19 A3018 RMK SC8 SLP272

CYXE;2008-01-21 15:00;CYXE 211500Z 24008KT 15SM -SN OVC015 M16/M19 A3015 RMK SC8 SLP265

CYXE;2008-01-21 15:34;CYXE 211534Z 24014KT 15SM DRSN BKN012 OVC030 M18/ RMK SC6SC2

CYXE;2008-01-21 16:00;CYXE 211600Z 25012KT 15SM FEW012 OVC040 M19/M22 A3015 RMK SC2SC6 SLP263

CYXE;2008-01-21 17:00;CYXE 211700Z 23011KT 15SM FEW040 BKN250 M19/M23 A3012 RMK SC2CI2 SLP255

CYXE;2008-01-21 18:00;CYXE 211800Z 23010KT 15SM SCT100 BKN250 M19/M23 A3011 RMK AC3CI2 SLP247

CYXE;2008-01-21 19:00;CYXE 211900Z 23011KT 15SM SCT080 BKN250 M18/M22 A3008 RMK AC3CI1 SLP238

CYXE;2008-01-21 20:00;CYXE 212000Z 23012KT 15SM BKN090 BKN250 M16/M20 A3004 RMK AC3CI1 SLP227

CYXE;2008-01-21 21:00;CYXE 212100Z 24012KT 15SM SCT090 BKN250 M14/M19 A3002 RMK AC2CI1 SLP212

CYXE;2008-01-21 22:00;CYXE 212200Z 23010KT 15SM SCT090 BKN250 M14/M19 A3000 RMK AC2CI1 SLP206

CYXE;2008-01-21 23:00;CYXE 212300Z 26009KT 15SM FEW090 SCT250 M15/M20 A2999 RMK AC1CI1 SLP202

CYXE;2008-01-22 00:00;CYXE 220000Z 26008KT 15SM FEW090 M17/M21 A2999 RMK AC2 SLP202

CYXE;2008-01-22 01:00;CYXE 220100Z 28007KT 15SM FEW090 M18/M23 A2999 RMK AC1 SLP202

CYXE;2008-01-22 02:00;CYXE 220200Z 30010KT 15SM FEW090 M18/M23 A2998 RMK AC1 SLP201

CYXE;2008-01-22 03:00;CYXE 220300Z 31010KT 15SM SKC M18/M23 A2999 RMK SLP205

CYXE;2008-01-22 04:00;CYXE 220400Z 31009KT 15SM SKC M20/M24 A3001 RMK SLP212

CYXE;2008-01-22 05:00;CYXE 220500Z 31007KT 15SM SKC M20/M24 A3001 RMK SLP211

CYXE;2008-01-22 06:00;CYXE 220600Z 30008KT 15SM SKC M21/M25 A3000 RMK SLP214

CYXE;2008-01-22 07:00;CYXE 220700Z 29008KT 15SM OVC250 M21/M25 A3001 RMK CS6 SLP216

CYXE;2008-01-22 08:00;CYXE 220800Z 27006KT 15SM OVC250 M18/M22 A2998 RMK CS8 SLP206

CYXE;2008-01-22 09:00;CYXE 220900Z 25004KT 15SM BKN075 OVC220 M17/M20 A2998 RMK AS6CS2 SLP201

CYXE;2008-01-22 10:00;CYXE 221000Z 26006KT 15SM OVC060 M16/M19 A2998 RMK SC8 SLP199

CYXE;2008-01-22 10:05;CYXE 221005Z 26007KT 5SM -SN OVC045 M16/ RMK SC8

CYXE;2008-01-22 11:00;CYXE 221100Z 23006KT 4SM -SN OVC025 M17/M19 A2994 RMK SC8 SLP187

CYXE;2008-01-22 11:53;CYXE 221153Z 23007KT 2SM -SN OVC015 M16/ RMK SN2SC6

CYXE;2008-01-22 12:00;CYXE 221200Z 23007KT 2 1/2SM -SN OVC030 M16/M18 A2991 RMK SN2SC6 SLP178

CYXE;2008-01-22 12:26;CYXE 221226Z 22006KT 2SM -SN OVC018 M15/ RMK SN3SC5

CYXE;2008-01-22 13:00;CYXE 221300Z 21005KT 2SM -SN VV012 M15/M17 A2988 RMK SN8 SLP168

CYXE;2008-01-22 13:43;CYXE 221343Z 22004KT 1 1/2SM -SN VV010 M14/ RMK SN8

CYXE;2008-01-22 14:00;CYXE 221400Z 23004KT 1 1/2SM -SN VV010 M14/M16 A2987 RMK SN8 /S01/ SLP164

CYXE;2008-01-22 14:06;CYXE 221406Z 21005KT 1SM R09/P6000FT/N -SN VV008 M14/ RMK SN8

CYXE;2008-01-22 14:16;CYXE 221416Z 21004KT 3/4SM R09/4500VP6000FT/U -SN VV006 M14/ RMK SN8

CYXE;2008-01-22 14:34;CYXE 221434Z 19003KT 1SM R09/P6000FT/N -SN VV008 M14/ RMK SN8

CYXE;2008-01-22 15:00;CYXE 221500Z 17002KT 1SM R09/P6000FT/U -SN VV008 M14/M15 A2985 RMK SN8 /S02/ SLP156

CYXE;2008-01-22 15:16;CYXE 221516Z 19003KT 1 1/2SM -SN VV012 M14/ RMK SN8

CYXE;2008-01-22 16:00;CYXE 221600Z 19003KT 2 1/2SM -SN OVC022 M13/M15 A2985 RMK SC8 /S03/ SLP155

CYXE;2008-01-22 16:05;CYXE 221605Z 19004KT 3SM -SN OVC022 M13/ RMK SC8

CYXE;2008-01-22 17:00;CYXE 221700Z 00000KT 1 1/2SM -SN OVC013 M12/M13 A2986 RMK SN3SC5 SLP158

CYXE;2008-01-22 17:12;CYXE 221712Z 00000KT 3SM -SN OVC016 M12/ RMK SC8

CYXE;2008-01-22 18:00;CYXE 221800Z 36004KT 3SM -SN OVC025 M12/M14 A2989 RMK SC8 /S04/ SLP170

CYXE;2008-01-22 18:22;CYXE 221822Z 34011KT 2SM -SN OVC025 M11/ RMK SC8

CYXE;2008-01-22 19:00;CYXE 221900Z 35012KT 1 1/2SM -SN DRSN VV020 M11/M12 A2992 RMK SN8 SLP181

CYXE;2008-01-22 19:24;CYXE 221924Z 36014KT 1SM R09/P6000FT/D -SN DRSN VV012 M11/ RMK SN8

CYXE;2008-01-22 19:46;CYXE 221946Z 01017KT 1 1/2SM -SN DRSN OVC070 M12/ RMK SN3AS5

CYXE;2008-01-22 20:00;CYXE 222000Z 01014KT 1 1/2SM -SN DRSN OVC070 M12/M13 A2997 RMK SN2AS6 SLP195

CYXE;2008-01-22 20:09;CYXE 222009Z 01014KT 3SM -SN DRSN SCT015 OVC070 M12/ RMK SC3AS5

CYXE;2008-01-22 20:27;CYXE 222027Z 03013KT 1 1/2SM -SN DRSN SCT015 OVC070 M12/ RMK SN2SC2AS5

CYXE;2008-01-22 20:49;CYXE 222049Z 02015KT 3SM -SN DRSN SCT015 OVC070 M13/ RMK SC3AS5

CYXE;2008-01-22 21:00;CYXE 222100Z 02014KT 3SM -SN DRSN SCT015 OVC070 M13/M15 A3001 RMK SC3AS5 SLP210

CYXE;2008-01-22 21:48;CYXE 222148Z 01014KT 8SM -SN DRSN FEW008 SCT015 OVC070 M13/ RMK SF1SC3AS3 SUN DIMLY VISBL

CYXE;2008-01-22 22:00;CYXE 222200Z 01015KT 8SM -SN DRSN FEW008 SCT015 OVC070 M13/M15 A3006 RMK SF1SC3AS3 SUN DIMLY VISBL SLP224

CYXE;2008-01-22 22:20;CYXE 222220Z 02017KT 10SM -SN DRSN FEW008 BKN012 OVC070 M13/ RMK SF1SC5AC3

CYXE;2008-01-22 23:00;CYXE 222300Z 04013KT 8SM -SN DRSN FEW005 SCT012 BKN070 BKN220 M14/M16 A3012 RMK SF1SC3AC2CI0 SLP243

CYXE;2008-01-22 23:14;CYXE 222314Z 04009KT 15SM DRSN FEW005 SCT020 SCT070 BKN220 M15/ RMK SF1SC3AC1CI1

CYXE;2008-01-23 00:00;CYXE 230000Z 01004KT 15SM FEW030 BKN220 M18/M19 A3016 RMK SC2CI2 SLP264

CYXE;2008-01-23 01:00;CYXE 230100Z 33006KT 15SM SCT022 SCT220 M20/M21 A3019 RMK SC3CI0 SLP272

CYXE;2008-01-23 02:00;CYXE 230200Z 34008KT 15SM BKN018 M19/M20 A3022 RMK SC6 SLP284

CYXE;2008-01-23 03:00;CYXE 230300Z 33006KT 15SM -SN BKN020 M18/M19 A3024 RMK SC7 SLP290

CYXE;2008-01-23 04:00;CYXE 230400Z 31007KT 15SM BKN018 M21/M21 A3026 RMK SC5 SLP296

CYXE;2008-01-23 05:00;CYXE 230500Z 33004KT 15SM SCT013 M21/M21 A3026 RMK SC3 SLP294

CYXE;2008-01-23 06:00;CYXE 230600Z 29006KT 15SM SKC M24/M24 A3026 RMK SLP298

CYXE;2008-01-23 07:00;CYXE 230700Z 28006KT 15SM SKC M25/M26 A3027 RMK SLP302

CYXE;2008-01-23 08:00;CYXE 230800Z 23007KT 15SM SKC M26/M26 A3026 RMK SLP299

CYXE;2008-01-23 09:00;CYXE 230900Z 24007KT 15SM SKC M27/M27 A3024 RMK SLP296

CYXE;2008-01-23 10:00;CYXE 231000Z 24008KT 15SM SKC M26/M31 A3023 RMK SLP293

CYXE;2008-01-23 11:00;CYXE 231100Z 23008KT 15SM SKC M27/M31 A3021 RMK SLP285

CYXE;2008-01-23 12:00;CYXE 231200Z 22007KT 15SM SKC M27/M30 A3020 RMK SLP284

CYXE;2008-01-23 13:00;CYXE 231300Z 22006KT 15SM SKC M27/M30 A3017 RMK SLP277

CYXE;2008-01-23 14:00;CYXE 231400Z 21007KT 15SM SKC M24/M27 A3015 RMK SLP270

CYXE;2008-01-23 15:00;CYXE 231500Z 18005KT 15SM SKC M26/M30 A3014 RMK VIS W 11/2 FZFG SLP265

CYXE;2008-01-23 16:00;CYXE 231600Z 18007KT 15SM SKC M24/M28 A3013 RMK SLP262

CYXE;2008-01-23 17:00;CYXE 231700Z 21009KT 15SM SKC M21/M24 A3012 RMK SLP256

CYXE;2008-01-23 18:00;CYXE 231800Z 22009KT 15SM SKC M20/M22 A3010 RMK SLP249

CYXE;2008-01-23 19:00;CYXE 231900Z 19006KT 15SM SKC M18/M20 A3007 RMK SLP240

CYXE;2008-01-23 20:00;CYXE 232000Z 20009KT 15SM SKC M17/M18 A3004 RMK SLP232

CYXE;2008-01-23 21:00;CYXE 232100Z 19008KT 15SM SKC M15/M17 A3001 RMK SLP219

CYXE;2008-01-23 22:00;CYXE 232200Z 19008KT 15SM FEW240 M15/M16 A3000 RMK CI0 SLP215

CYXE;2008-01-23 23:00;CYXE 232300Z 19009KT 15SM FEW240 M15/M17 A2997 RMK CI0 SLP205

CYXE;2008-01-24 00:00;CYXE 240000Z 19007KT 15SM FEW240 M16/M18 A2996 RMK CI0 CONTRAILS SLP201

CYXE;2008-01-24 01:00;CYXE 240100Z 19008KT 15SM FEW240 M17/M18 A2992 RMK CI0 SLP190

CYXE;2008-01-24 02:00;CYXE 240200Z 19009KT 15SM FEW240 M17/M19 A2990 RMK CI0 SLP184

CYXE;2008-01-24 03:00;CYXE 240300Z 21009KT 15SM SKC M18/M19 A2988 RMK SLP175

CYXE;2008-01-24 04:00;CYXE 240400Z 23008KT 15SM SKC M20/M21 A2989 RMK SLP176

CYXE;2008-01-24 05:00;CYXE 240500Z 19009KT 15SM SKC M19/M22 A2985 RMK SLP165

CYXE;2008-01-24 06:00;CYXE 240600Z 19009KT 15SM SKC M18/M22 A2984 RMK SLP156

CYXE;2008-01-24 07:00;CYXE 240700Z 20010KT 15SM SKC M18/M20 A2983 RMK SLP152

CYXE;2008-01-24 08:00;CYXE 240800Z 21007KT 15SM SKC M20/M23 A2982 RMK SLP150

CYXE;2008-01-24 09:00;CYXE 240900Z 21006KT 15SM SKC M20/M23 A2984 RMK SLP154

CYXE;2008-01-24 10:00;CYXE 241000Z 22007KT 15SM SKC M21/M23 A2984 RMK SLP153

CYXE;2008-01-24 11:00;CYXE 241100Z 22006KT 15SM SKC M22/M25 A2985 RMK SLP157

CYXE;2008-01-24 12:00;CYXE 241200Z 25005KT 15SM SKC M22/M25 A2986 RMK SLP165

CYXE;2008-01-24 13:00;CYXE 241300Z 27004KT 15SM SKC M22/M25 A2989 RMK SLP172

CYXE;2008-01-24 14:00;CYXE 241400Z 28004KT 15SM FEW120 M21/M24 A2990 RMK AC1 SLP178

CYXE;2008-01-24 14:14;CYXE 241414Z 28004KT 15SM BKN014 M20/ RMK SC7

CYXE;2008-01-24 15:00;CYXE 241500Z 27002KT 15SM OVC010 M18/M21 A2992 RMK SC8 SLP181

CYXE;2008-01-24 15:21;CYXE 241521Z 22002KT 15SM OVC006 M18/ RMK SC8

CYXE;2008-01-24 15:29;CYXE 241529Z 25002KT 10SM OVC005 M17/ RMK SC8

CYXE;2008-01-24 16:00;CYXE 241600Z 19003KT 10SM OVC009 M16/M18 A2995 RMK SC8 SLP192

CYXE;2008-01-24 16:41;CYXE 241641Z 14003KT 10SM OVC005 M14/ RMK SC8

CYXE;2008-01-24 16:53;CYXE 241653Z 13002KT 10SM OVC006 M14/ RMK SC8

CYXE;2008-01-24 17:00;CYXE 241700Z 08003KT 10SM OVC006 M13/M14 A2998 RMK SC8 SLP201

CYXE;2008-01-24 17:24;CYXE 241724Z 07004KT 10SM -SN OVC006 M12/ RMK SC8

CYXE;2008-01-24 18:00;CYXE 241800Z 05003KT 4SM -SN BR OVC007 M11/M12 A2999 RMK SC8 SLP203

CYXE;2008-01-24 19:00;CYXE 241900Z 07002KT 12SM -SN OVC007 M10/M11 A3000 RMK SC8 SLP206

CYXE;2008-01-24 20:00;CYXE 242000Z 02010KT 15SM -SN OVC008 M08/M09 A3000 RMK SC8 SLP206

CYXE;2008-01-24 21:00;CYXE 242100Z 02009KT 15SM -SN OVC008 M08/M09 A3001 RMK SC8 SLP207

CYXE;2008-01-24 22:00;CYXE 242200Z 01007KT 15SM -SN OVC008 M08/M09 A3003 RMK SC8 SLP214

CYXE;2008-01-24 23:00;CYXE 242300Z 03009KT 15SM -SN OVC009 M08/M09 A3003 RMK SC8 SLP216

CYXE;2008-01-25 00:00;CYXE 250000Z 04006KT 15SM -SN OVC010 M08/M09 A3005 RMK SC8 SLP223

CYXE;2008-01-25 01:00;CYXE 250100Z 04004KT 12SM -SN OVC010 M08/M10 A3006 RMK SC8 BR SLP226

CYXE;2008-01-25 02:00;CYXE 250200Z 05005KT 12SM -SN OVC010 M08/M10 A3007 RMK SC8 BR SLP228

CYXE;2008-01-25 03:00;CYXE 250300Z 07004KT 15SM -SN OVC012 M08/M10 A3007 RMK SC8 SLP228

CYXE;2008-01-25 04:00;CYXE 250400Z 08003KT 15SM OVC012 M09/M10 A3006 RMK SC8 SLP225

CYXE;2008-01-25 05:00;CYXE 250500Z 07005KT 15SM OVC012 M09/M10 A3006 RMK SC7 SLP225

CYXE;2008-01-25 06:00;CYXE 250600Z 07005KT 15SM OVC009 M09/M10 A3006 RMK SC8 SLP221

CYXE;2008-01-25 07:00;CYXE 250700Z 08005KT 15SM OVC008 M09/M10 A3005 RMK ST8 SLP218

CYXE;2008-01-25 07:52;CYXE 250752Z 09008KT 15SM -SN OVC007 M09/ RMK ST8

CYXE;2008-01-25 08:00;CYXE 250800Z 09007KT 15SM -SN OVC007 M09/M10 A3003 RMK ST8 SLP211

CYXE;2008-01-25 09:00;CYXE 250900Z 11009KT 10SM -SN OVC005 M10/M10 A3003 RMK ST8 SLP208

CYXE;2008-01-25 09:17;CYXE 250917Z 11007KT 10SM -SN OVC004 M10/ RMK ST8

CYXE;2008-01-25 10:00;CYXE 251000Z 16006KT 10SM -SN OVC004 M10/M11 A3003 RMK ST8 SLP207

CYXE;2008-01-25 10:22;CYXE 251022Z 15008KT 5SM -SN BR OVC003 M10/ RMK ST8

CYXE;2008-01-25 11:00;CYXE 251100Z 14008KT 6SM -SN BR OVC002 M10/M11 A3001 RMK ST8 SLP200

CYXE;2008-01-25 12:00;CYXE 251200Z 17007KT 3SM -SN BR OVC002 M10/M11 A2999 RMK ST8 SLP193

CYXE;2008-01-25 13:00;CYXE 251300Z CCA 17009KT 3SM -SN BR OVC003 M11/M12 A2997 RMK ST8 SLP187

CYXE;2008-01-25 13:32;CYXE 251332Z 17007KT 3SM -SN OVC005 M11/ RMK ST8

CYXE;2008-01-25 14:00;CYXE 251400Z 18009KT 3SM -SN OVC005 M12/M12 A2994 RMK ST8 SLP179

CYXE;2008-01-25 14:30;CYXE 251430Z 17011KT 3SM -SN OVC007 M12/ RMK ST8

CYXE;2008-01-25 15:00;CYXE 251500Z 17009KT 3SM -SN OVC008 M12/M13 A2993 RMK ST8 SLP175

CYXE;2008-01-25 15:29;CYXE 251529Z 18013KT 5SM -SN OVC008 M12/ RMK ST8

CYXE;2008-01-25 16:00;CYXE 251600Z 18008KT 3SM -SN OVC009 M12/M13 A2990 RMK ST8 SLP167

CYXE;2008-01-25 16:36;CYXE 251636Z 18011KT 3SM -SN OVC013 M12/ RMK ST8

CYXE;2008-01-25 17:00;CYXE 251700Z 17009KT 3SM -SN BKN013 OVC160 M12/M13 A2989 RMK SC6AC1 SLP161

CYXE;2008-01-25 18:00;CYXE 251800Z 17011KT 10SM FEW005 SCT120 BKN250 M13/M14 A2985 RMK ST2AC1CI1 SLP149

CYXE;2008-01-25 19:00;CYXE 251900Z 18011KT 10SM -SN SCT009 BKN200 M13/M14 A2981 RMK SC3CI1 SLP135

CYXE;2008-01-25 19:20;CYXE 251920Z 18010KT 10SM FEW008 BKN200 M12/ RMK ST2CI1

CYXE;2008-01-25 20:00;CYXE 252000Z 18014KT 10SM FEW008 SCT220 M12/M14 A2975 RMK SC2CI1 SLP117

CYXE;2008-01-25 21:00;CYXE 252100Z 19012KT 15SM FEW008 FEW220 M12/M14 A2972 RMK SC1CI0 SLP104

CYXE;2008-01-25 22:00;CYXE 252200Z 19012KT 15SM FEW260 M12/M14 A2970 RMK CI0 SLP098

CYXE;2008-01-25 23:00;CYXE 252300Z 19008KT 15SM FEW260 M13/M15 A2969 RMK CI1 SLP094

CYXE;2008-01-26 00:00;CYXE 260000Z 20009KT 15SM FEW260 M14/M16 A2967 RMK CI1 SLP088

CYXE;2008-01-26 01:00;CYXE 260100Z 21007KT 15SM SKC M15/M16 A2965 RMK SLP082

CYXE;2008-01-26 02:00;CYXE 260200Z 23006KT 12SM SKC M20/M20 A2964 RMK BR SLP078

CYXE;2008-01-26 03:00;CYXE 260300Z 25005KT 12SM -SN OVC008 M18/M18 A2963 RMK SC8 BR SLP078

CYXE;2008-01-26 04:00;CYXE 260400Z 24005KT 8SM -SN OVC007 M16/M16 A2962 RMK SC8 SLP075

CYXE;2008-01-26 04:17;CYXE 260417Z 23005KT 8SM -SN OVC008 M15/ RMK SC8

CYXE;2008-01-26 04:51;CYXE 260451Z 22007KT 8SM -SN SCT009 OVC013 M17/ RMK SF3SC5

CYXE;2008-01-26 05:00;CYXE 260500Z 21007KT 8SM -SN FEW009 OVC013 M16/M17 A2961 RMK SF2SC6 SLP071

CYXE;2008-01-26 06:00;CYXE 260600Z 21007KT 10SM -SN OVC013 M15/M16 A2960 RMK SC8 SLP067

CYXE;2008-01-26 06:45;CYXE 260645Z 22008KT 15SM SCT013 BKN250 M16/ RMK SC3CI0

CYXE;2008-01-26 07:00;CYXE 260700Z 22007KT 15SM FEW013 BKN250 M17/M18 A2960 RMK SC2CI0 SLP067

CYXE;2008-01-26 08:00;CYXE 260800Z 19007KT 6SM BR BKN250 M16/M17 A2959 RMK CI2 SLP063

CYXE;2008-01-26 08:48;CYXE 260848Z 21007KT 8SM FEW003 BKN250 M17/ RMK SF2CI2 BR

CYXE;2008-01-26 09:00;CYXE 260900Z 20006KT 8SM BKN002 OVC250 M17/M18 A2959 RMK ST3CI2 BR SLP064

CYXE;2008-01-26 09:38;CYXE 260938Z 22007KT 3SM BR OVC001 M16/ RMK ST8

CYXE;2008-01-26 10:00;CYXE 261000Z 21005KT 3SM BR OVC001 M17/M17 A2959 RMK ST8 SLP065

CYXE;2008-01-26 10:15;CYXE 261015Z 21004KT 4SM BR OVC002 M18/ RMK ST6

CYXE;2008-01-26 10:25;CYXE 261025Z 20004KT 3SM BR SCT002 M18/ RMK ST2

CYXE;2008-01-26 11:00;CYXE 261100Z 19004KT 5SM BR SCT250 M18/M19 A2961 RMK CI1 SLP069

CYXE;2008-01-26 12:00;CYXE 261200Z 21006KT 10SM FEW120 BKN250 M19/M20 A2961 RMK AC2CI1 BR SLP074

CYXE;2008-01-26 13:00;CYXE 261300Z 19005KT 10SM FEW120 BKN250 M19/M19 A2960 RMK AC2CI1 SLP071

CYXE;2008-01-26 14:00;CYXE 261400Z 19003KT 10SM FEW008 FEW120 BKN250 M20/M21 A2961 RMK SC1AC2CI2 SLP075

CYXE;2008-01-26 15:00;CYXE 261500Z 19002KT 15SM FEW120 SCT250 M20/M21 A2962 RMK AC2CI1 SLP079

CYXE;2008-01-26 16:00;CYXE 261600Z 19005KT 15SM FEW120 SCT250 M19/M20 A2962 RMK AC2CI1 SLP080

CYXE;2008-01-26 17:00;CYXE 261700Z 20008KT 15SM FEW120 BKN250 M19/M19 A2962 RMK AC2CI1 SLP081

CYXE;2008-01-26 18:00;CYXE 261800Z 20005KT 15SM SCT077 BKN120 BKN250 M16/M17 A2963 RMK AC4AC2CI1 SLP081

CYXE;2008-01-26 19:00;CYXE 261900Z 20007KT 15SM BKN075 OVC120 M15/M16 A2962 RMK AC6AC2 SLP076

CYXE;2008-01-26 20:00;CYXE 262000Z 22005KT 15SM SCT077 OVC120 M15/M16 A2962 RMK AC4AC3 SLP075

CYXE;2008-01-26 21:00;CYXE 262100Z 19007KT 15SM FEW077 OVC120 M13/M16 A2960 RMK AC2AC5 SLP070

CYXE;2008-01-26 22:00;CYXE 262200Z 19007KT 10SM FEW077 BKN120 M13/M15 A2961 RMK AC1AC6 BR SLP072

CYXE;2008-01-26 23:00;CYXE 262300Z 18005KT 10SM BKN120 M12/M15 A2961 RMK AC6 SLP073

CYXE;2008-01-27 00:00;CYXE 270000Z 17004KT 12SM FEW077 BKN120 M12/M15 A2962 RMK AC2AC4 BR SLP076

CYXE;2008-01-27 01:00;CYXE 270100Z 14004KT 12SM BKN100 M11/M13 A2959 RMK AC6 BR SLP068

CYXE;2008-01-27 02:00;CYXE 270200Z 16004KT 12SM BKN079 M10/M12 A2957 RMK AC6 BR SLP060

CYXE;2008-01-27 03:00;CYXE 270300Z 14007KT 12SM SCT079 BKN250 M10/M12 A2955 RMK AC3CI0 BR SLP051

CYXE;2008-01-27 04:00;CYXE 270400Z 13006KT 12SM FEW090 BKN250 M11/M12 A2952 RMK AC2CI0 BR SLP042

CYXE;2008-01-27 05:00;CYXE 270500Z 15008KT 15SM SCT100 M08/M10 A2950 RMK AC3 SLP033

CYXE;2008-01-27 06:00;CYXE 270600Z 16008KT 15SM BKN100 M08/M10 A2947 RMK AC6 SLP018

CYXE;2008-01-27 07:00;CYXE 270700Z 16008KT 15SM BKN100 M09/M10 A2946 RMK AC5 SLP015

CYXE;2008-01-27 08:00;CYXE 270800Z 16007KT 15SM SCT100 M09/M10 A2943 RMK AC4 SLP005

CYXE;2008-01-27 09:00;CYXE 270900Z 18005KT 15SM FEW100 M10/M11 A2941 RMK AC2 SLP997

CYXE;2008-01-27 10:00;CYXE 271000Z 20007KT 15SM FEW100 M10/M11 A2940 RMK AC2 SLP996

CYXE;2008-01-27 11:00;CYXE 271100Z 21006KT 15SM FEW100 M10/M11 A2939 RMK AC2 SLP992

CYXE;2008-01-27 12:00;CYXE 271200Z 29007KT 15SM FEW100 FEW250 M16/M17 A2939 RMK AC2CI0 SLP994

CYXE;2008-01-27 12:24;CYXE 271224Z 28004KT 5SM R09/1800FT/N BR FEW100 FEW250 M16/ RMK AC2CI0 VIS N-E 1/2

CYXE;2008-01-27 12:33;CYXE 271233Z 26002KT 1/2SM R09/2000V3000FT/N FZFG FEW100 FEW250 M16/ RMK AC2CI0

CYXE;2008-01-27 12:40;CYXE 271240Z 25002KT 1SM R09/2600FT/N BR FEW100 FEW250 M16/ RMK AC2CI0

CYXE;2008-01-27 13:00;CYXE 271300Z 26003KT 1SM R09/2600FT/N BR FEW007 BKN100 M16/M17 A2939 RMK ST1AC5 VIS W-N 1/2 SLP995

CYXE;2008-01-27 13:33;CYXE 271333Z 01004KT 2SM BR FEW007 BKN100 M14/ RMK ST1AC4

CYXE;2008-01-27 14:00;CYXE 271400Z 05003KT 2SM BR FEW007 BKN100 M14/M15 A2938 RMK ST2AC3 SLP991

CYXE;2008-01-27 15:00;CYXE 271500Z 32004KT 4SM BR BKN078 M14/M14 A2939 RMK AC6 SLP992

CYXE;2008-01-27 15:19;CYXE 271519Z 27003KT 4SM R09/4000VP6000FT/U BR SCT004 BKN078 M14/ RMK ST3AC3

CYXE;2008-01-27 16:00;CYXE 271600Z 35005KT 6SM BR FEW004 BKN078 M15/M16 A2941 RMK ST2AC3 SLP998

CYXE;2008-01-27 16:52;CYXE 271652Z 36007KT 4SM BR OVC008 M15/ RMK ST8

CYXE;2008-01-27 17:00;CYXE 271700Z 01004KT 4SM BR FEW005 OVC008 M14/M15 A2944 RMK ST2SC6 SLP008

CYXE;2008-01-27 17:46;CYXE 271746Z 01008KT 4SM BR OVC006 M13/ RMK SC8

CYXE;2008-01-27 18:00;CYXE 271800Z 36008KT 5SM BR OVC007 M13/M14 A2945 RMK SC8 SLP010

CYXE;2008-01-27 18:37;CYXE 271837Z 02014KT 4SM -SN BR OVC007 M12/ RMK SC8

CYXE;2008-01-27 19:00;CYXE 271900Z 03011KT 4SM -SN BR OVC007 M12/M12 A2945 RMK SC8 SLP010

CYXE;2008-01-27 19:52;CYXE 271952Z 05014KT 6SM BR OVC009 M11/ RMK SC8

CYXE;2008-01-27 20:00;CYXE 272000Z 05016KT 6SM BR OVC009 M11/M12 A2946 RMK SC8 SLP012

CYXE;2008-01-27 20:09;CYXE 272009Z 04016KT 6SM BR OVC010 M10/ RMK SC8

CYXE;2008-01-27 21:00;CYXE 272100Z 05017KT 6SM -SN BR OVC015 M10/M11 A2947 RMK SC8 SLP016

CYXE;2008-01-27 22:00;CYXE 272200Z 05017KT 8SM -SN DRSN OVC015 M09/M11 A2946 RMK SC8 SLP015

CYXE;2008-01-27 22:17;CYXE 272217Z 06014KT 8SM -SN DRSN OVC013 M09/ RMK SC8

CYXE;2008-01-27 23:00;CYXE 272300Z 05019KT 10SM -SN DRSN OVC011 M08/M10 A2947 RMK SC8 SLP018

CYXE;2008-01-28 00:00;CYXE 280000Z 06016G22KT 8SM -SN DRSN OVC015 M09/M10 A2949 RMK SC8 SLP027

CYXE;2008-01-28 00:39;CYXE 280039Z 06013G22KT 8SM -SN DRSN OVC013 M09/ RMK SC8

CYXE;2008-01-28 01:00;CYXE 280100Z 06013KT 6SM -SN DRSN OVC013 M09/M10 A2950 RMK SC8 SLP030

CYXE;2008-01-28 02:00;CYXE 280200Z 06015KT 8SM -SN DRSN OVC018 M09/M11 A2950 RMK SC8 SLP029

CYXE;2008-01-28 02:33;CYXE 280233Z 04018KT 5SM -SN DRSN OVC014 M10/ RMK SC8

CYXE;2008-01-28 03:00;CYXE 280300Z 05020G25KT 2SM -SN DRSN OVC018 M10/M12 A2946 RMK SN3SC5 SLP017

CYXE;2008-01-28 03:51;CYXE 280351Z 04019G26KT 4SM -SN DRSN OVC020 M11/ RMK SN3SC5

CYXE;2008-01-28 04:00;CYXE 280400Z 04022KT 2SM -SN DRSN VV015 M12/M13 A2945 RMK SN8 /S01/ SLP013

CYXE;2008-01-28 04:23;CYXE 280423Z 05023G28KT 1 1/2SM -SN DRSN VV015 M12/ RMK SN8

CYXE;2008-01-28 04:37;CYXE 280437Z 05021G27KT 1SM R09/P6000FT/D -SN DRSN VV010 M13/ RMK SN8

CYXE;2008-01-28 04:53;CYXE 280453Z 05023G30KT 1/2SM R09/3500VP6000FT/N SN DRSN VV005 M13/ RMK SN8 OCNL BLSN

CYXE;2008-01-28 05:00;CYXE 280500Z 05023G30KT 1/2SM R09/6000FT/D SN DRSN VV005 M13/M14 A2944 RMK SN8 OCNL BLSN /S02/ SLP009

CYXE;2008-01-28 05:10;CYXE 280510Z 04026G32KT 1/4SM R09/3500V4500FT/N SN DRSN VV003 M13/ RMK SN8 OCNL BLSN

CYXE;2008-01-28 05:19;CYXE 280519Z 05024G30KT 1/2SM R09/3500V5500FT/U SN DRSN VV003 M14/ RMK SN8 OCNL BLSN

CYXE;2008-01-28 05:43;CYXE 280543Z CCA 05023G32KT 5/8SM R09/4000VP6000FT/N -SN DRSN VV005 M14/ RMK SN8 OCNL BLSN

CYXE;2008-01-28 06:00;CYXE 280600Z 06025G32KT 3/4SM R09/4000VP6000FT/N -SN DRSN VV007 M14/M15 A2942 RMK SN8 OCNL BLSN SLP006

CYXE;2008-01-28 06:26;CYXE 280626Z 05027G34KT 1/2SM R09/3500VP6000FT/D SN DRSN VV005 M14/ RMK SN8 OCNL BLSN

CYXE;2008-01-28 07:00;CYXE 280700Z 05021G29KT 1/2SM SN DRSN VV004 M15/M16 A2941 RMK SN8 OCNL BLSN SLP002

CYXE;2008-01-28 07:22;CYXE 280722Z 05024KT 1/4SM R09/5000FT/N SN DRSN VV003 M16/ RMK SN8 OCNL BLSN

CYXE;2008-01-28 07:33;CYXE 280733Z 05022G28KT 1/2SM R09/2600V6000FT/D SN DRSN VV003 M16/ RMK SN8 OCNL BLSN

CYXE;2008-01-28 08:00;CYXE 280800Z 05019G27KT 1/2SM R09/P6000FT/N SN DRSN VV006 M16/M17 A2942 RMK SN8 OCNL BLSN SLP006

CYXE;2008-01-28 09:00;CYXE 280900Z 04024G30KT 1SM R09/P6000FT/U -SN DRSN VV006 M18/M19 A2942 RMK SN8 SLP005

CYXE;2008-01-28 09:39;CYXE 280939Z 03023KT 1/2SM R09/P6000FT/D SN DRSN VV005 M18/ RMK SN8

CYXE;2008-01-28 10:00;CYXE 281000Z 03021G26KT 1SM R09/P6000FT/U -SN DRSN VV007 M19/M20 A2944 RMK SN8 SLP012

CYXE;2008-01-28 11:00;CYXE 281100Z 03018G24KT 1SM R09/P6000FT/U -SN DRSN VV007 M19/M20 A2944 RMK SN8 SLP010

CYXE;2008-01-28 12:00;CYXE 281200Z 02017G25KT 1SM R09/P6000FT/U -SN DRSN VV013 M20/M21 A2946 RMK SN8 SLP020

CYXE;2008-01-28 13:00;CYXE 281300Z 36019G24KT 1SM R09/P6000FT/N -SN DRSN VV009 M22/M23 A2946 RMK SN8 SLP020

CYXE;2008-01-28 14:00;CYXE 281400Z 36021KT 1 1/2SM -SN DRSN VV010 M23/M25 A2949 RMK SN8 SLP029

CYXE;2008-01-28 14:50;CYXE 281450Z 36019G26KT 1 1/2SM -SN DRSN OVC050 M24/ RMK SC8

CYXE;2008-01-28 15:00;CYXE 281500Z 36020KT 1 1/2SM -SN OVC050 M24/M25 A2951 RMK SC8 SLP041

CYXE;2008-01-28 15:47;CYXE 281547Z 36017KT 3SM -SN DRSN OVC047 M24/ RMK SC8

CYXE;2008-01-28 16:00;CYXE 281600Z 36019KT 3SM -SN DRSN SCT017 OVC047 M24/M30 A2953 RMK SF3SC5 SLP046

CYXE;2008-01-28 16:18;CYXE 281618Z 36018G24KT 2SM -SN DRSN OVC047 M25/ RMK SN5SC3

CYXE;2008-01-28 16:35;CYXE 281635Z 01019KT 1 1/2SM -SN DRSN VV008 M25/ RMK SN8

CYXE;2008-01-28 16:53;CYXE 281653Z 01018KT 1/2SM R09/4000VP6000FT/D -SN BLSN VV006 M25/ RMK SN8

CYXE;2008-01-28 17:00;CYXE 281700Z 01017KT 1/2SM R09/4000V5500FT/N -SN BLSN VV006 M25/M30 A2953 RMK SN8 SLP047

CYXE;2008-01-28 17:20;CYXE 281720Z 35013G20KT 1SM R09/5500FT/U -SN DRSN VV007 M25/ RMK SN8

CYXE;2008-01-28 17:45;CYXE 281745Z 34018KT 1SM R09/P6000FT/N -SN DRSN VV010 M25/ RMK SN8

CYXE;2008-01-28 18:00;CYXE 281800Z 34019KT 1SM R09/P6000FT/N -SN DRSN VV010 M25/M30 A2957 RMK SN8 SLP064

CYXE;2008-01-28 18:22;CYXE 281822Z 34021KT 1/2SM R09/5500FT/N -SN BLSN VV006 M26/ RMK SN8

CYXE;2008-01-28 19:00;CYXE 281900Z 34018KT 3/4SM R09/P6000FT/U -SN BLSN VV009 M26/M31 A2960 RMK SN8 SLP073

CYXE;2008-01-28 19:16;CYXE 281916Z 33017KT 1 3/4SM -SN DRSN BKN029 OVC087 M26/ RMK SN2SC5AC1

CYXE;2008-01-28 20:00;CYXE 282000Z 34020KT 2SM -SN DRSN OVC087 M26/M32 A2960 RMK SN3AC5 SLP074

CYXE;2008-01-28 20:17;CYXE 282017Z 35019KT 4SM DRSN FEW010 BKN087 M27/ RMK ST2AC2

CYXE;2008-01-28 21:00;CYXE 282100Z 34020G25KT 6SM -SN DRSN SCT020 OVC100 M27/M32 A2960 RMK ST3AC5 SLP080

CYXE;2008-01-28 21:32;CYXE 282132Z 34018G24KT 4SM -SN DRSN BKN014 OVC100 M27/ RMK SF6AC2 OCNL BLSN

CYXE;2008-01-28 22:00;CYXE 282200Z 34016KT 6SM -SN DRSN BKN014 BKN090 OVC220 M27/M33 A2965 RMK SF5AS2CI1 SLP096

CYXE;2008-01-28 23:00;CYXE 282300Z 33012G17KT 4SM -SN DRSN BKN015 OVC090 M27/M32 A2969 RMK SF5AS2 VIS W-N 2 SLP107

CYXE;2008-01-28 23:18;CYXE 282318Z 32019G24KT 2SM R09/3500VP6000FT/U -SN BLSN BKN015 OVC090 M28/ RMK BLSN2SF5AS1

CYXE;2008-01-28 23:32;CYXE 282332Z 32018G24KT 2SM -SN BLSN SCT015 BKN095 M28/ RMK BLSN1SF2AC3 VIS N 8

CYXE;2008-01-28 23:46;CYXE 282346Z 32013G19KT 8SM DRSN FEW015 BKN080 M28/ RMK SF2AC3 REBLSN

CYXE;2008-01-29 00:00;CYXE 290000Z 33017KT 15SM DRSN FEW020 FEW080 SCT220 M28/M35 A2972 RMK SC1AC1CI2 REBLSN SLP122

CYXE;2008-01-29 01:00;CYXE 290100Z 32014G19KT 15SM DRSN FEW020 M29/M35 A2975 RMK SC1 SLP131

CYXE;2008-01-29 02:00;CYXE 290200Z 31010G16KT 15SM DRSN SKC M30/M36 A2976 RMK SLP136

CYXE;2008-01-29 03:00;CYXE 290300Z 31010KT 15SM FEW050 M31/M36 A2978 RMK SC1 IC SLP147

CYXE;2008-01-29 04:00;CYXE 290400Z 32012KT 12SM SKC M31/M37 A2979 RMK IC SLP152

CYXE;2008-01-29 05:00;CYXE 290500Z 30007KT 15SM SKC M33/M38 A2982 RMK IC SLP161

CYXE;2008-01-29 06:00;CYXE 290600Z 31011KT 15SM FEW029 M32/M37 A2984 RMK SC1 SLP171

CYXE;2008-01-29 07:00;CYXE 290700Z 30012KT 15SM FEW018 M32/M37 A2986 RMK SC2 SLP177

CYXE;2008-01-29 08:00;CYXE 290800Z 31017KT 15SM FEW020 M32/M38 A2986 RMK SC1 SLP178

CYXE;2008-01-29 09:00;CYXE 290900Z 31017KT 15SM SKC M33/M38 A2988 RMK SLP186

CYXE;2008-01-29 10:00;CYXE 291000Z 31015KT 15SM SKC M33/M38 A2991 RMK SLP196

CYXE;2008-01-29 11:00;CYXE 291100Z 32014KT 15SM SKC M34/M39 A2993 RMK SLP201

CYXE;2008-01-29 12:00;CYXE 291200Z 32009KT 15SM SKC M35/M40 A2995 RMK SLP211

CYXE;2008-01-29 13:00;CYXE 291300Z 31011KT 15SM SKC M35/M40 A2995 RMK SLP213

CYXE;2008-01-29 14:00;CYXE 291400Z 29008KT 15SM SKC M36/M41 A2997 RMK SLP218

CYXE;2008-01-29 15:00;CYXE 291500Z 29009KT 15SM SKC M37/M42 A2998 RMK SLP226

CYXE;2008-01-29 16:00;CYXE 291600Z 30009KT 15SM SKC M37/M41 A2997 RMK SLP225

CYXE;2008-01-29 17:00;CYXE 291700Z 30009KT 15SM SKC M36/M41 A2999 RMK SLP232

CYXE;2008-01-29 18:00;CYXE 291800Z 30011KT 15SM SKC M35/M40 A2999 RMK SLP230

CYXE;2008-01-29 19:00;CYXE 291900Z 30009KT 15SM SKC M34/M39 A2998 RMK SLP227

CYXE;2008-01-29 20:00;CYXE 292000Z 30008KT 15SM SKC M33/M38 A2998 RMK SLP225

CYXE;2008-01-29 21:00;CYXE 292100Z 29006KT 15SM SKC M32/M38 A2997 RMK SLP222

CYXE;2008-01-29 22:00;CYXE 292200Z 30005KT 15SM SKC M32/M38 A2997 RMK SLP222

CYXE;2008-01-29 23:00;CYXE 292300Z 32008KT 15SM FEW280 M33/M39 A2997 RMK CI0 SLP221

CYXE;2008-01-30 00:00;CYXE 300000Z 29005KT 15SM FEW280 M35/M40 A2998 RMK CI1 SLP228

CYXE;2008-01-30 01:00;CYXE 300100Z 23004KT 15SM FEW250 M37/M41 A2999 RMK CI1 SLP230

CYXE;2008-01-30 02:00;CYXE 300200Z 29004KT 15SM FEW250 M37/M41 A2997 RMK CI1 SLP226

CYXE;2008-01-30 03:00;CYXE 300300Z CCA 26006KT 15SM SKC M37/M42 A2997 RMK SLP230

CYXE;2008-01-30 04:00;CYXE 300400Z 24004KT 15SM SKC M37/M41 A2997 RMK SLP230

CYXE;2008-01-30 05:00;CYXE 300500Z 24002KT 15SM SKC M38/M43 A2997 RMK SLP230

CYXE;2008-01-30 06:00;CYXE 300600Z 30004KT 15SM SKC M37/M41 A2997 RMK SLP228

CYXE;2008-01-30 07:00;CYXE 300700Z 00000KT 15SM SCT250 M36/M40 A2998 RMK CI1 SLP229

CYXE;2008-01-30 08:00;CYXE 300800Z 00000KT 15SM BKN250 M35/M39 A2997 RMK CI2 FG OVR CITY SLP228

CYXE;2008-01-30 09:00;CYXE 300900Z 32002KT 12SM BKN250 M35/M39 A2997 RMK CI2 BR SLP224

CYXE;2008-01-30 10:00;CYXE 301000Z 04002KT 15SM BKN250 M35/M39 A2997 RMK CI1 SLP223

CYXE;2008-01-30 11:00;CYXE 301100Z 00000KT 15SM BKN250 M35/M39 A2998 RMK CI2 SLP226

CYXE;2008-01-30 12:00;CYXE 301200Z 05003KT 15SM BKN250 M34/M38 A2999 RMK CI1 SLP230

CYXE;2008-01-30 13:00;CYXE 301300Z 23003KT 15SM BKN250 M34/M38 A3001 RMK CI1 SLP238

CYXE;2008-01-30 14:00;CYXE 301400Z 00000KT 15SM BKN250 M34/M38 A3001 RMK CI1 SLP239

CYXE;2008-01-30 15:00;CYXE 301500Z 02002KT 15SM FEW067 BKN280 M34/M38 A3002 RMK AC2CI1 SLP245

CYXE;2008-01-30 16:00;CYXE 301600Z 00000KT 15SM FEW075 SCT280 M34/M38 A3002 RMK AC1CI1 SLP245

CYXE;2008-01-30 17:00;CYXE 301700Z 00000KT 12SM FEW075 SCT280 M33/M38 A3003 RMK AC1CI1 SLP247

CYXE;2008-01-30 18:00;CYXE 301800Z 00000KT 12SM SCT280 M31/M36 A3003 RMK CI0 SLP245

CYXE;2008-01-30 19:00;CYXE 301900Z 00000KT 15SM SCT280 M29/M34 A3003 RMK CI0 SLP245

CYXE;2008-01-30 20:00;CYXE 302000Z 00000KT 15SM SCT280 M26/M34 A3002 RMK CI1 SLP241

CYXE;2008-01-30 21:00;CYXE 302100Z 00000KT 15SM BKN280 M27/M33 A3001 RMK CI2 SLP233

CYXE;2008-01-30 22:00;CYXE 302200Z 00000KT 15SM FEW150 SCT280 M28/M34 A3002 RMK AC2CI1 SLP236

CYXE;2008-01-30 23:00;CYXE 302300Z 12007KT 15SM BKN060 BKN280 M29/M35 A3003 RMK SC5CI1 SLP238

CYXE;2008-01-31 00:00;CYXE 310000Z 11007KT 15SM BKN053 OVC280 M28/M34 A3003 RMK SC6CI1 SLP238

CYXE;2008-01-31 01:00;CYXE 310100Z 12007KT 15SM FEW055 SCT280 M29/M34 A3000 RMK SC2CI1 SLP231

CYXE;2008-01-31 02:00;CYXE 310200Z 14008KT 15SM BKN060 OVC280 M28/M34 A2998 RMK SC6CI2 SLP224

CYXE;2008-01-31 02:47;CYXE 310247Z 14008KT 10SM -SN OVC040 M28/ RMK SC8

CYXE;2008-01-31 03:00;CYXE 310300Z 14006KT 12SM -SN SCT040 BKN250 M28/M34 A2998 RMK SC4CI2 SLP222

CYXE;2008-01-31 04:00;CYXE 310400Z 14006KT 15SM FEW040 BKN250 M29/M34 A2996 RMK SC2CI2 IC SLP215

CYXE;2008-01-31 05:00;CYXE 310500Z 15006KT 15SM SCT045 OVC080 M28/M34 A2995 RMK SC3AC3 IC SLP212

CYXE;2008-01-31 06:00;CYXE 310600Z 12007KT 15SM SCT036 OVC080 M28/M34 A2991 RMK SC3AC3 SLP197

CYXE;2008-01-31 07:00;CYXE 310700Z 13008KT 15SM OVC088 M28/M33 A2987 RMK AC6 SLP183

CYXE;2008-01-31 07:34;CYXE 310734Z 13006KT 15SM SCT088 M28/ RMK AC2

CYXE;2008-01-31 08:00;CYXE 310800Z 12007KT 15SM FEW088 M28/M33 A2985 RMK AC2 SLP177

CYXE;2008-01-31 09:00;CYXE 310900Z 11008KT 14SM FEW084 M28/M33 A2983 RMK AC2 SLP166

CYXE;2008-01-31 10:00;CYXE 311000Z 12010KT 15SM SKC M28/M33 A2979 RMK SLP152

CYXE;2008-01-31 11:00;CYXE 311100Z 12009KT 15SM SKC M28/M33 A2975 RMK SLP140

CYXE;2008-01-31 12:00;CYXE 311200Z 11008KT 15SM SKC M29/M33 A2974 RMK SLP137

CYXE;2008-01-31 13:00;CYXE 311300Z 11007KT 15SM SKC M29/M33 A2972 RMK SLP129

CYXE;2008-01-31 14:00;CYXE 311400Z 10007KT 15SM SKC M29/M33 A2970 RMK SLP122

CYXE;2008-01-31 15:00;CYXE 311500Z 11008KT 15SM FEW120 FEW280 M28/M33 A2968 RMK AC1CI0 SLP116

CYXE;2008-01-31 16:00;CYXE 311600Z 12006KT 15SM FEW120 BKN280 M27/M32 A2967 RMK AC1CI0 SLP110

CYXE;2008-01-31 17:00;CYXE 311700Z 09008KT 15SM FEW120 BKN280 M26/M31 A2964 RMK AC1CI2 SLP101

CYXE;2008-01-31 18:00;CYXE 311800Z 09007KT 15SM FEW120 OVC280 M25/M30 A2962 RMK AC1CI2 SLP092

CYXE;2008-01-31 19:00;CYXE 311900Z 09006KT 15SM FEW120 OVC280 M24/M29 A2960 RMK AC2CI3 SLP085

CYXE;2008-01-31 20:00;CYXE 312000Z 08008KT 15SM FEW120 OVC280 M23/M28 A2956 RMK AC2CI3 SLP071

CYXE;2008-01-31 21:00;CYXE 312100Z 07009KT 15SM SCT080 BKN120 OVC280 M22/M27 A2955 RMK AC3AC2CI2 SLP064

CYXE;2008-01-31 22:00;CYXE 312200Z 07012KT 15SM BKN090 OVC120 M21/M26 A2953 RMK AC5AC3 SLP059

CYXE;2008-01-31 22:45;CYXE 312245Z 08012KT 15SM -SN SCT025 OVC060 M21/ RMK SC3SC5

CYXE;2008-01-31 23:00;CYXE 312300Z 06013KT 5SM -SN SCT020 OVC040 M21/M25 A2953 RMK SC4SC4 SLP058

CYXE;2008-01-31 23:50;CYXE 312350Z 05016KT 2SM -SN VV020 M22/ RMK SN8

CYXE;2008-02-01 01:00;CYXE 010100Z CCA 03017KT 1SM R09/P6000FT/N -SN DRSN VV010 M23/M27 A2955 RMK SN8 SLP067

CYXE;2008-02-01 02:00;CYXE 010200Z 03017KT 1SM R09/P6000FT/U -SN DRSN VV010 M24/M28 A2957 RMK SN8 /S02/ SLP072

CYXE;2008-02-01 02:24;CYXE 010224Z 03016KT 2SM -SN DRSN OVC020 M24/ RMK SC8

CYXE;2008-02-01 02:33;CYXE 010233Z 03015G20KT 3SM -SN DRSN OVC030 M24/ RMK SC8

CYXE;2008-02-01 03:00;CYXE 010300Z 03017KT 4SM -SN DRSN OVC031 M24/M28 A2956 RMK SC8 SLP071

CYXE;2008-02-01 04:00;CYXE 010400Z 02015KT 3SM -SN DRSN OVC040 M24/M28 A2960 RMK SC8 SLP082

CYXE;2008-02-01 05:00;CYXE 010500Z 02013KT 2SM -SN DRSN OVC030 M24/M28 A2962 RMK SC8 SLP088

CYXE;2008-02-01 05:45;CYXE 010545Z 02013KT 5SM -SN DRSN OVC020 M24/ RMK SC8

CYXE;2008-02-01 06:00;CYXE 010600Z 02012KT 15SM -SN DRSN SCT020 BKN055 M24/M29 A2963 RMK SC4SC2 SLP090

CYXE;2008-02-01 06:35;CYXE 010635Z 02008KT 15SM SCT060 BKN095 M25/ RMK SC3AC2 IC

CYXE;2008-02-01 07:00;CYXE 010700Z 01010KT 15SM BKN090 M25/M29 A2963 RMK AC5 IC SLP093

CYXE;2008-02-01 08:00;CYXE 010800Z 35013KT 15SM BKN080 M25/M29 A2968 RMK AC5 IC SLP106

CYXE;2008-02-01 09:00;CYXE 010900Z 36010KT 15SM FEW080 SCT250 M26/M30 A2972 RMK AC2CI1 IC SLP120

CYXE;2008-02-01 09:18;CYXE 010918Z 35008KT 15SM FEW080 SCT250 M26/ RMK AC2CI1

CYXE;2008-02-01 10:00;CYXE 011000Z 36010KT 15SM FEW250 M27/M31 A2972 RMK CI1 SLP123

CYXE;2008-02-01 11:00;CYXE 011100Z 32006KT 15SM FEW250 M29/M33 A2975 RMK CI1 SLP132

CYXE;2008-02-01 12:00;CYXE 011200Z 33007KT 15SM FEW250 M30/M34 A2978 RMK CI1 SLP146

CYXE;2008-02-01 13:00;CYXE 011300Z 31004KT 15SM BKN160 M29/M34 A2980 RMK AC2 SLP153

CYXE;2008-02-01 14:00;CYXE 011400Z 36007KT 15SM BKN075 M27/M31 A2982 RMK AC2 SLP159

CYXE;2008-02-01 15:00;CYXE 011500Z 36005KT 15SM SCT075 BKN280 M26/M30 A2984 RMK AC2CI0 SLP164

CYXE;2008-02-01 16:00;CYXE 011600Z 03005KT 15SM SCT046 BKN080 BKN280 M24/M29 A2985 RMK SC3AC1CI0 SLP169

CYXE;2008-02-01 17:00;CYXE 011700Z 02005KT 15SM FEW046 SCT080 BKN280 M25/M30 A2987 RMK SC2AC1CI0 SLP176

CYXE;2008-02-01 18:00;CYXE 011800Z 04005KT 15SM SCT044 BKN080 BKN280 M24/M29 A2988 RMK SC3AC2CI0 SLP178

CYXE;2008-02-01 19:00;CYXE 011900Z 04004KT 15SM FEW042 FEW080 OVC260 M24/M29 A2988 RMK SC1AC2CI0 SLP179

CYXE;2008-02-01 20:00;CYXE 012000Z 00000KT 15SM FEW047 FEW120 OVC260 M23/M29 A2988 RMK SC1AC1CI2 SLP178

CYXE;2008-02-01 21:00;CYXE 012100Z 05003KT 15SM FEW043 SCT120 OVC260 M23/M28 A2989 RMK SC1AC1CI2 SLP181

CYXE;2008-02-01 21:51;CYXE 012151Z 33003KT 10SM -SHSN FEW030 SCT080 OVC250 M23/ RMK SC2ACC2CI2

CYXE;2008-02-01 22:00;CYXE 012200Z 33003KT 10SM -SHSN FEW030 SCT080 OVC250 M23/M28 A2991 RMK SC2ACC2CI2 SLP189

CYXE;2008-02-01 23:00;CYXE 012300Z 00000KT 3SM -SHSN FEW040 SCT080 OVC250 M23/M27 A2992 RMK SC2ACC2CI2 SLP192

CYXE;2008-02-02 00:00;CYXE 020000Z 32003KT 6SM -SN BKN030 M23/M27 A2994 RMK SC6 SLP200

CYXE;2008-02-02 01:00;CYXE 020100Z 00000KT 6SM -SN OVC020 M23/M27 A2994 RMK SC7 SLP202

CYXE;2008-02-02 02:00;CYXE 020200Z 00000KT 4SM -SN OVC030 M23/M27 A2994 RMK SC7 SLP201

CYXE;2008-02-02 03:00;CYXE 020300Z 23003KT 12SM -SN BKN040 M23/M27 A2995 RMK SC6 SLP201

CYXE;2008-02-02 03:36;CYXE 020336Z 24003KT 15SM OVC035 M23/ RMK SC7 IC

CYXE;2008-02-02 04:00;CYXE 020400Z 28003KT 15SM OVC035 M23/M27 A2996 RMK SC8 IC SLP207

CYXE;2008-02-02 05:00;CYXE 020500Z 22002KT 15SM OVC019 M22/M26 A2995 RMK SC8 IC SLP203

CYXE;2008-02-02 06:00;CYXE 020600Z 22002KT 15SM OVC016 M22/M26 A2995 RMK SC8 SLP202

CYXE;2008-02-02 07:00;CYXE 020700Z 21002KT 15SM OVC016 M22/M26 A2995 RMK SC8 SLP202

CYXE;2008-02-02 07:29;CYXE 020729Z 24003KT 15SM -SN OVC014 M22/ RMK SC8

CYXE;2008-02-02 08:00;CYXE 020800Z 23002KT 15SM -SN OVC012 M22/M26 A2995 RMK SC8 SLP201

CYXE;2008-02-02 09:00;CYXE 020900Z 23002KT 15SM -SN OVC012 M22/M26 A2996 RMK SC8 SLP202

CYXE;2008-02-02 10:00;CYXE 021000Z 18002KT 15SM -SN OVC012 M22/M26 A2995 RMK SC8 SLP199

CYXE;2008-02-02 11:00;CYXE 021100Z 17004KT 15SM -SN OVC012 M22/M26 A2993 RMK SC8 SLP193

CYXE;2008-02-02 11:47;CYXE 021147Z 19003KT 10SM -SN OVC008 M22/ RMK SC8

CYXE;2008-02-02 12:00;CYXE 021200Z 19003KT 10SM -SN OVC008 M22/M25 A2994 RMK SC8 SLP195

CYXE;2008-02-02 13:00;CYXE 021300Z 14003KT 10SM -SN OVC006 M21/M24 A2992 RMK ST8 SLP190

CYXE;2008-02-02 14:00;CYXE 021400Z 16006KT 8SM -SN OVC006 M21/M24 A2992 RMK ST8 SLP189

CYXE;2008-02-02 14:31;CYXE 021431Z 15004KT 8SM -SN OVC009 M21/ RMK ST8

CYXE;2008-02-02 15:00;CYXE 021500Z 15004KT 8SM -SN OVC009 M21/M24 A2991 RMK SC8 SLP184

CYXE;2008-02-02 16:00;CYXE 021600Z 16003KT 3SM -SN OVC009 M21/M23 A2991 RMK SC8 SLP184

CYXE;2008-02-02 16:09;CYXE 021609Z 15003KT 2 1/2SM -SN FEW003 OVC009 M20/ RMK SF2SC6

CYXE;2008-02-02 16:48;CYXE 021648Z 15003KT 2 1/2SM -SN SCT007 OVC014 M20/ RMK SF3SC5

CYXE;2008-02-02 17:00;CYXE 021700Z 15002KT 2 1/2SM -SN SCT007 OVC014 M20/M23 A2991 RMK SF3SC5 SLP185

CYXE;2008-02-02 17:16;CYXE 021716Z 17002KT 4SM -SN OVC014 M20/ RMK SC8

CYXE;2008-02-02 18:00;CYXE 021800Z 11002KT 4SM -SN FEW007 OVC018 M19/M22 A2990 RMK SC2SC6 SLP179

CYXE;2008-02-02 19:00;CYXE 021900Z 08004KT 10SM -SN OVC018 M19/M22 A2987 RMK SC8 SLP169

CYXE;2008-02-02 19:40;CYXE 021940Z 07004KT 1SM R09/P6000FT/U -SN BKN018 OVC060 M19/ RMK SN2SC2SC3

CYXE;2008-02-02 20:00;CYXE 022000Z 05006KT 2SM -SN SCT018 BKN060 M18/M22 A2984 RMK SC4SC3 SLP161

CYXE;2008-02-02 20:13;CYXE 022013Z 04006KT 4SM -SN BKN014 OVC060 M18/ RMK SC5SC3

CYXE;2008-02-02 21:00;CYXE 022100Z 05007KT 8SM -SN BKN016 BKN060 M18/M22 A2983 RMK SC5SC2 SLP155

CYXE;2008-02-02 22:00;CYXE 022200Z 10005KT 15SM BKN023 BKN060 M18/M22 A2983 RMK SC5SC2 SLP154

CYXE;2008-02-02 23:00;CYXE 022300Z 12004KT 15SM SCT023 BKN100 BKN250 M20/M24 A2983 RMK SC3AC2CI0 SLP153

CYXE;2008-02-03 00:00;CYXE 030000Z 11004KT 15SM FEW023 BKN210 M21/M24 A2983 RMK SC2CI1 SLP156

CYXE;2008-02-03 01:00;CYXE 030100Z 11004KT 15SM FEW023 SCT210 M22/M25 A2983 RMK SC2CI0 SLP155

CYXE;2008-02-03 02:00;CYXE 030200Z 12003KT 15SM FEW023 M22/M25 A2983 RMK SC2 SLP156

CYXE;2008-02-03 03:00;CYXE 030300Z 10003KT 15SM FEW020 M23/M26 A2982 RMK SC2 SLP155

CYXE;2008-02-03 04:00;CYXE 030400Z 08003KT 15SM FEW020 M25/M29 A2983 RMK SC2 SLP156

CYXE;2008-02-03 05:00;CYXE 030500Z 08003KT 15SM FEW020 M26/M30 A2983 RMK SC1 SLP156

CYXE;2008-02-03 06:00;CYXE 030600Z 13002KT 12SM FEW020 M26/M29 A2982 RMK SC1 BR SLP156

CYXE;2008-02-03 07:00;CYXE 030700Z 00000KT 12SM FEW020 SCT220 M27/M29 A2982 RMK SC1CI0 BR SLP156

CYXE;2008-02-03 07:44;CYXE 030744Z 00000KT 12SM BKN014 M29/ RMK SC5

CYXE;2008-02-03 08:00;CYXE 030800Z 00000KT 12SM BKN014 M27/M31 A2981 RMK SC5 SLP153

CYXE;2008-02-03 09:00;CYXE 030900Z 00000KT 12SM BKN014 M26/M30 A2980 RMK SC6 SLP147

CYXE;2008-02-03 10:00;CYXE 031000Z 19004KT 12SM SCT014 M30/M34 A2980 RMK SC3 SLP148

CYXE;2008-02-03 10:52;CYXE 031052Z 00000KT 12SM SCT004 M31/ RMK ST4

CYXE;2008-02-03 11:00;CYXE 031100Z 00000KT 12SM -SN BKN005 M30/M35 A2981 RMK ST6 SLP149

CYXE;2008-02-03 12:00;CYXE 031200Z 00000KT 8SM -SN OVC003 M28/M31 A2981 RMK ST8 SLP154

CYXE;2008-02-03 13:00;CYXE 031300Z 17003KT 15SM -SN OVC002 M26/M30 A2980 RMK ST8 SLP151

CYXE;2008-02-03 14:00;CYXE 031400Z 00000KT 15SM -SN OVC003 M25/M28 A2981 RMK ST8 SLP154

CYXE;2008-02-03 15:00;CYXE 031500Z 00000KT 4SM -SG OVC004 M25/M29 A2982 RMK ST8 SLP158

CYXE;2008-02-03 15:50;CYXE 031550Z 03005KT 10SM BKN007 BKN090 M26/ RMK ST2AC2

CYXE;2008-02-03 16:00;CYXE 031600Z 06005KT 10SM BKN007 BKN090 M26/M29 A2983 RMK ST2AC2 SLP160

CYXE;2008-02-03 16:17;CYXE 031617Z 08003KT 10SM FEW007 BKN090 M25/ RMK ST2AC2

CYXE;2008-02-03 17:00;CYXE 031700Z 03004KT 6SM IC FEW007 BKN090 M23/M27 A2985 RMK ST2AC3 SLP167

CYXE;2008-02-03 18:00;CYXE 031800Z 06008KT 10SM SCT090 BKN240 M20/M23 A2986 RMK AC4CI1 SLP168

CYXE;2008-02-03 19:00;CYXE 031900Z 04005KT 10SM BKN090 OVC240 M20/M23 A2987 RMK AC4CI0 SLP171

CYXE;2008-02-03 20:00;CYXE 032000Z 04004KT 15SM SCT090 OVC240 M19/M22 A2987 RMK AC2CI1 SLP171

CYXE;2008-02-03 21:00;CYXE 032100Z 05006KT 15SM SCT090 BKN240 M19/M22 A2987 RMK AC2CI1 SLP172

CYXE;2008-02-03 22:00;CYXE 032200Z 05007KT 15SM SCT090 BKN240 M19/M22 A2987 RMK AC4CI0 SLP173

CYXE;2008-02-03 23:00;CYXE 032300Z 04009KT 15SM SCT095 BKN240 M19/M22 A2988 RMK AC4CI2 SLP174

CYXE;2008-02-04 00:00;CYXE 040000Z 04007KT 15SM SCT085 BKN240 M19/M23 A2989 RMK AC4CI2 SLP180

CYXE;2008-02-04 01:00;CYXE 040100Z 04006KT 15SM BKN063 BKN240 M20/M24 A2993 RMK SC5CI1 SLP191

CYXE;2008-02-04 02:00;CYXE 040200Z 05007KT 15SM FEW020 OVC060 M19/M23 A2995 RMK SC1SC7 SLP200

CYXE;2008-02-04 03:00;CYXE 040300Z 04007KT 15SM -SN OVC048 M19/M23 A2997 RMK SC8 SLP207

CYXE;2008-02-04 04:00;CYXE 040400Z 04006KT 10SM -SN BKN044 OVC085 M19/M23 A3000 RMK SC6AC2 SLP216

CYXE;2008-02-04 04:33;CYXE 040433Z 05007KT 5SM -SN BKN044 OVC065 M19/ RMK SC7SC1

CYXE;2008-02-04 05:00;CYXE 040500Z 04009KT 5SM -SN OVC038 M19/M22 A3002 RMK SC8 SLP223

CYXE;2008-02-04 06:00;CYXE 040600Z 05006KT 5SM -SN OVC027 M20/M23 A3003 RMK SC8 SLP225

CYXE;2008-02-04 06:42;CYXE 040642Z 05007KT 10SM SCT025 M21/ RMK SC3

CYXE;2008-02-04 07:00;CYXE 040700Z 07006KT 12SM FEW025 M22/M25 A3004 RMK SC2 SLP226

CYXE;2008-02-04 08:00;CYXE 040800Z 36003KT 10SM FEW025 SCT120 M23/M26 A3005 RMK SC2AC1 SLP230

CYXE;2008-02-04 09:00;CYXE 040900Z 01008KT 12SM FEW120 M25/M29 A3005 RMK AC1 SLP235

CYXE;2008-02-04 10:00;CYXE 041000Z 02004KT 12SM FEW120 M25/M29 A3007 RMK AC1 SLP240

CYXE;2008-02-04 11:00;CYXE 041100Z 36007KT 15SM FEW120 M27/M31 A3009 RMK AC1 SLP246

CYXE;2008-02-04 12:00;CYXE 041200Z 34006KT 15SM FEW120 M27/M31 A3011 RMK AC1 SLP256

CYXE;2008-02-04 13:00;CYXE 041300Z 35005KT 15SM SKC M28/M32 A3013 RMK SLP262

CYXE;2008-02-04 14:00;CYXE 041400Z 35004KT 15SM SKC M28/M32 A3014 RMK BR SLP265

CYXE;2008-02-04 14:08;CYXE 041408Z 34004KT 10SM FEW002 M28/ RMK SF0 BR

CYXE;2008-02-04 15:00;CYXE 041500Z 36003KT 15SM FEW002 SCT210 M30/M33 A3017 RMK SF0CI0 BR SLP276

CYXE;2008-02-04 16:00;CYXE 041600Z 01003KT 10SM BCFG FEW003 SCT210 M28/M31 A3017 RMK SF0CI0 VIS W 1/2 FG SLP279

CYXE;2008-02-04 17:00;CYXE 041700Z 06003KT 5SM BR FEW002 BKN210 M26/M29 A3018 RMK FG1SF0CI0 VIS E-SW 1 FG SLP282

CYXE;2008-02-04 17:05;CYXE 041705Z 06002KT 1/2SM R09/P6000FT/N FZFG BKN210 M26/ RMK FG1CI0

CYXE;2008-02-04 17:10;CYXE 041710Z 07003KT 1SM R09/P6000FT/N BR SCT002 BKN210 M25/ RMK FG1SF0CI0 VIS E 1/2 FG

CYXE;2008-02-04 17:47;CYXE 041747Z 03002KT 5SM BR BKN210 M24/ RMK FG1CI0 VIS E-S 1/2 FG

CYXE;2008-02-04 18:00;CYXE 041800Z 02003KT 10SM BKN210 M24/M27 A3020 RMK CI1 BR SLP284

CYXE;2008-02-04 19:00;CYXE 041900Z 05005KT 8SM FEW210 M22/M25 A3019 RMK CI1 BR SLP280

CYXE;2008-02-04 20:00;CYXE 042000Z 01004KT 15SM FEW250 M22/M25 A3018 RMK CI1 SLP277

CYXE;2008-02-04 21:00;CYXE 042100Z 01002KT 15SM FEW250 M22/M25 A3017 RMK CI1 SLP278

CYXE;2008-02-04 22:00;CYXE 042200Z 06002KT 15SM FEW240 M21/M24 A3017 RMK CI0 SLP278

CYXE;2008-02-04 23:00;CYXE 042300Z 05002KT 15SM FEW250 M22/M25 A3017 RMK CI0 SLP277

CYXE;2008-02-05 00:00;CYXE 050000Z 07003KT 15SM FEW160 FEW250 M22/M26 A3017 RMK AC1CI0 SLP277

CYXE;2008-02-05 01:00;CYXE 050100Z 17004KT 15SM FEW160 FEW250 M22/M26 A3017 RMK AC1CI0 SLP280

CYXE;2008-02-05 02:00;CYXE 050200Z 16005KT 15SM FEW160 FEW250 M23/M27 A3017 RMK AC1CI0 SLP278

CYXE;2008-02-05 03:00;CYXE 050300Z 18003KT 15SM FEW250 M24/M27 A3016 RMK CI1 SLP278

CYXE;2008-02-05 04:00;CYXE 050400Z 16003KT 15SM FEW250 M24/M28 A3016 RMK CI1 SLP276

CYXE;2008-02-05 05:00;CYXE 050500Z 16002KT 15SM FEW070 BKN150 M25/M29 A3015 RMK AC1AC5 SLP275

CYXE;2008-02-05 06:00;CYXE 050600Z 18005KT 15SM OVC062 M23/M27 A3015 RMK SC6 SLP268

CYXE;2008-02-05 07:00;CYXE 050700Z 17007KT 15SM OVC062 M22/M25 A3014 RMK SC8 SLP265

CYXE;2008-02-05 08:00;CYXE 050800Z 15006KT 15SM OVC062 M21/M25 A3011 RMK SC8 SLP256

CYXE;2008-02-05 09:00;CYXE 050900Z 15008KT 15SM OVC062 M21/M25 A3009 RMK SC8 SLP247

CYXE;2008-02-05 10:00;CYXE 051000Z 14006KT 15SM OVC058 M20/M23 A3006 RMK SC8 SLP236

CYXE;2008-02-05 11:00;CYXE 051100Z 13007KT 15SM OVC056 M19/M22 A3002 RMK SC8 SLP224

CYXE;2008-02-05 12:00;CYXE 051200Z 16005KT 15SM SCT058 M20/M23 A3002 RMK SC3 SLP220

CYXE;2008-02-05 13:00;CYXE 051300Z 19003KT 15SM FEW060 M22/M25 A3001 RMK SC2 SLP218

CYXE;2008-02-05 14:00;CYXE 051400Z 18006KT 15SM FEW060 M20/M23 A3000 RMK SC1 SLP214

CYXE;2008-02-05 15:00;CYXE 051500Z 18008KT 15SM FEW060 FEW270 M21/M24 A2998 RMK SC1CI0 SLP210

CYXE;2008-02-05 16:00;CYXE 051600Z CCA 19006KT 15SM SCT220 M21/M24 A2997 RMK CI0 CONTRAILS SLP206

CYXE;2008-02-05 17:00;CYXE 051700Z 21008KT 15SM BKN220 M20/M23 A2996 RMK CI0 CONTRAILS SLP203

CYXE;2008-02-05 17:35;CYXE 051735Z 22008KT 15SM BKN220 M20/ RMK CI0

CYXE;2008-02-05 18:00;CYXE 051800Z 22007KT 15SM BKN220 M20/M23 A2996 RMK CI0 CONTRAILS SLP201

CYXE;2008-02-05 19:00;CYXE 051900Z 22006KT 15SM BKN220 M19/M22 A2994 RMK CI0 CONTRAILS SLP194

CYXE;2008-02-05 20:00;CYXE 052000Z 21005KT 15SM BKN220 M17/M21 A2992 RMK CI0 CONTRAILS SLP188

CYXE;2008-02-05 21:00;CYXE 052100Z 21008KT 15SM BKN220 M16/M21 A2989 RMK CI0 CONTRAILS SLP173

CYXE;2008-02-05 22:00;CYXE 052200Z 17007KT 15SM SCT220 M16/M21 A2986 RMK CI1 SLP161

CYXE;2008-02-05 23:00;CYXE 052300Z 17009KT 15SM SCT220 M16/M20 A2984 RMK CI2 SLP155

CYXE;2008-02-06 00:00;CYXE 060000Z 16005KT 15SM OVC220 M17/M21 A2980 RMK CI3 SLP142

CYXE;2008-02-06 01:00;CYXE 060100Z 14006KT 15SM OVC220 M17/M20 A2977 RMK CI3 SLP131

CYXE;2008-02-06 02:00;CYXE 060200Z 11007KT 15SM BKN220 M17/M21 A2972 RMK CI2 SLP116

CYXE;2008-02-06 03:00;CYXE 060300Z 13011KT 15SM FEW220 M16/M19 A2967 RMK CI1 SLP095

CYXE;2008-02-06 04:00;CYXE 060400Z 14010KT 15SM OVC160 M15/M19 A2962 RMK AC6 SLP079

CYXE;2008-02-06 05:00;CYXE 060500Z 14008KT 15SM BKN200 M14/M17 A2955 RMK CI6 SLP059

CYXE;2008-02-06 06:00;CYXE 060600Z 13009KT 15SM SCT095 OVC200 M12/M15 A2950 RMK AC3CI3 SLP036

CYXE;2008-02-06 07:00;CYXE 060700Z 13008KT 15SM BKN085 OVC200 M11/M13 A2946 RMK AC6CI2 SLP020

CYXE;2008-02-06 08:00;CYXE 060800Z 16013KT 15SM BKN085 OVC200 M07/M11 A2939 RMK AC6CI2 PRESFR SLP999

CYXE;2008-02-06 09:00;CYXE 060900Z 17015KT 15SM OVC070 M07/M09 A2934 RMK AC8 PRESFR SLP973

CYXE;2008-02-06 10:00;CYXE 061000Z 17014KT 15SM SCT080 BKN250 M06/M08 A2930 RMK AC3CI2 SLP962

CYXE;2008-02-06 11:00;CYXE 061100Z 19010KT 15SM FEW080 SCT250 M05/M08 A2927 RMK AC1CI2 SLP951

CYXE;2008-02-06 12:00;CYXE 061200Z 20010KT 15SM FEW080 SCT250 M05/M07 A2925 RMK AC1CI1 SLP943

CYXE;2008-02-06 13:00;CYXE 061300Z 23011KT 15SM FEW250 M05/M07 A2927 RMK CI0 SLP947

CYXE;2008-02-06 14:00;CYXE 061400Z 22010KT 15SM FEW030 SCT080 BKN250 M06/M08 A2927 RMK SC1AC2CI0 SLP948

CYXE;2008-02-06 15:00;CYXE 061500Z 26012KT 15SM SCT030 BKN090 BKN250 M05/M08 A2930 RMK SC3AC3CI0 OBS TAKEN +05 SLP958

CYXE;2008-02-06 16:00;CYXE 061600Z 29014G19KT 15SM SCT018 BKN032 BKN075 M02/M06 A2934 RMK SC3SC2AC2 SLP971

CYXE;2008-02-06 16:45;CYXE 061645Z 30021G30KT 8SM DRSN FEW007 SCT044 BKN055 M03/ RMK SF1SC2SC2

CYXE;2008-02-06 17:00;CYXE 061700Z 30022G28KT 10SM DRSN FEW007 BKN052 BKN220 M04/M05 A2936 RMK SF1SC5CI0 SLP977

CYXE;2008-02-06 18:00;CYXE 061800Z 30023G30KT 10SM DRSN FEW030 BKN085 BKN220 M04/M07 A2940 RMK SC2AC2CI0 SLP989

CYXE;2008-02-06 18:47;CYXE 061847Z 31028G35KT 2 1/2SM R09/3000VP6000FT/N BLSN FEW030 SCT080 BKN220 M03/ RMK SC2AC2CI0

CYXE;2008-02-06 19:00;CYXE 061900Z 31025G33KT 6SM BLSN FEW030 FEW080 SCT220 M04/M07 A2941 RMK SC1AC2CI1 ROOF VIS 10 SLP993

CYXE;2008-02-06 20:00;CYXE 062000Z 31019G28KT 10SM DRSN FEW080 SCT220 M04/M07 A2944 RMK AC2CI0 SLP004

CYXE;2008-02-06 21:00;CYXE 062100Z 30024G31KT 15SM FEW080 SCT220 M05/M10 A2949 RMK AC2CI1 SLP017

CYXE;2008-02-06 22:00;CYXE 062200Z 29019G26KT 15SM DRSN SCT220 M07/M11 A2953 REBLSN RMK CI2 SLP031

CYXE;2008-02-06 23:00;CYXE 062300Z 29017G26KT 15SM DRSN FEW220 M08/M13 A2955 RMK CI0 SLP039

CYXE;2008-02-07 00:00;CYXE 070000Z 30018G31KT 15SM DRSN FEW220 M12/M16 A2960 RMK CI1 SLP059

CYXE;2008-02-07 01:00;CYXE 070100Z 30015KT 15SM DRSN FEW220 M14/M17 A2964 RMK CI1 SLP073

CYXE;2008-02-07 02:00;CYXE 070200Z 29013KT 15SM DRSN SKC M15/M19 A2968 RMK SLP085

CYXE;2008-02-07 03:00;CYXE 070300Z 30012G17KT 15SM DRSN SKC M16/M20 A2970 RMK SLP095

CYXE;2008-02-07 04:00;CYXE 070400Z 27011KT 15SM SKC M17/M20 A2971 RMK SLP100

CYXE;2008-02-07 05:00;CYXE 070500Z 26007KT 15SM SKC M19/M21 A2972 RMK SLP103

CYXE;2008-02-07 06:00;CYXE 070600Z 25008KT 15SM FEW120 M20/M22 A2972 RMK AC1 SLP105

CYXE;2008-02-07 07:00;CYXE 070700Z 24004KT 15SM BKN090 M18/M20 A2970 RMK AC5 SLP099

CYXE;2008-02-07 08:00;CYXE 070800Z 36002KT 15SM SCT060 M18/M20 A2966 RMK SC4 SLP087

CYXE;2008-02-07 09:00;CYXE 070900Z 05005KT 15SM BKN065 M20/M21 A2962 RMK SC7 SLP073

CYXE;2008-02-07 10:00;CYXE 071000Z 13002KT 15SM SCT055 BKN095 M18/M20 A2960 RMK SC4AC2 SLP067

CYXE;2008-02-07 11:00;CYXE 071100Z 10007KT 15SM FEW055 FEW080 M19/M21 A2956 RMK SC1AC2 SLP054

CYXE;2008-02-07 12:00;CYXE 071200Z 07004KT 15SM FEW055 M21/M22 A2954 RMK SC2 SLP050

CYXE;2008-02-07 13:00;CYXE 071300Z 06008KT 15SM FEW017 SCT055 M21/M23 A2952 RMK SC1SC2 SLP043

CYXE;2008-02-07 14:00;CYXE 071400Z 05010KT 15SM BKN013 M20/M22 A2951 RMK SC6 SLP039

CYXE;2008-02-07 14:24;CYXE 071424Z 06009KT 15SM SCT013 BKN080 M20/ RMK SC4AC2

CYXE;2008-02-07 15:00;CYXE 071500Z 05013KT 15SM BKN013 BKN220 M20/M21 A2949 RMK SC5CI1 SLP034

CYXE;2008-02-07 16:00;CYXE 071600Z 06012KT 15SM BKN013 BKN220 M19/M21 A2948 RMK SC5CI1 SLP030

CYXE;2008-02-07 16:09;CYXE 071609Z 05011KT 15SM SCT013 BKN220 M19/ RMK SC3CI1

CYXE;2008-02-07 17:00;CYXE 071700Z 06011KT 15SM FEW013 FEW080 BKN220 M17/M20 A2948 RMK SC1AC1CI3 SLP032

CYXE;2008-02-07 18:00;CYXE 071800Z 06011KT 15SM FEW013 FEW080 BKN220 M17/M22 A2949 RMK SC1AC2CI3 SLP033

CYXE;2008-02-07 19:00;CYXE 071900Z 07012KT 15SM SCT110 BKN220 M16/M21 A2948 RMK AS3CI2 SLP032

CYXE;2008-02-07 20:00;CYXE 072000Z 05014KT 15SM SCT110 BKN220 M17/M21 A2947 RMK AS3CI2 SLP029

CYXE;2008-02-07 21:00;CYXE 072100Z 05011KT 15SM SCT220 M16/M20 A2947 RMK CI2 SLP029

CYXE;2008-02-07 22:00;CYXE 072200Z 05011KT 15SM BKN220 M16/M20 A2950 RMK CI2 SLP038

CYXE;2008-02-07 23:00;CYXE 072300Z 04012KT 15SM BKN220 M17/M21 A2953 RMK CI2 SLP046

CYXE;2008-02-08 00:00;CYXE 080000Z 03010KT 15SM SCT220 M18/M23 A2956 RMK CI1 SLP060

CYXE;2008-02-08 01:00;CYXE 080100Z 04010KT 15SM BKN220 M19/M23 A2958 RMK CI1 SLP066

CYXE;2008-02-08 02:00;CYXE 080200Z 05007KT 15SM FEW220 M20/M24 A2959 RMK CI0 SLP072

CYXE;2008-02-08 03:00;CYXE 080300Z 05006KT 15SM SKC M21/M25 A2961 RMK SLP078

CYXE;2008-02-08 04:00;CYXE 080400Z 36002KT 15SM FEW006 FEW021 M22/M26 A2962 RMK SF1SC1 SF TR SLP082

CYXE;2008-02-08 04:13;CYXE 080413Z 36002KT 15SM BKN006 M23/ RMK SF2

CYXE;2008-02-08 04:47;CYXE 080447Z 00000KT 15SM FEW009 BKN020 M22/ RMK SF2SC2

CYXE;2008-02-08 05:00;CYXE 080500Z 00000KT 15SM SCT009 BKN018 M21/M25 A2961 RMK SF2SC2 SLP079

CYXE;2008-02-08 06:00;CYXE 080600Z 00000KT 15SM BKN017 M23/M26 A2961 RMK SC3 SLP079

CYXE;2008-02-08 07:00;CYXE 080700Z 35002KT 15SM BKN017 M24/M27 A2962 RMK SC6 SLP082

CYXE;2008-02-08 08:00;CYXE 080800Z 09003KT 15SM FEW017 M23/M27 A2961 RMK SC2 SLP078

CYXE;2008-02-08 09:00;CYXE 080900Z 21002KT 15SM OVC015 M24/M27 A2960 RMK SC7 SLP076

CYXE;2008-02-08 09:23;CYXE 080923Z 16004KT 15SM OVC013 M24/ RMK SC8

CYXE;2008-02-08 10:00;CYXE 081000Z 13008KT 15SM BKN010 OVC079 M20/M24 A2958 RMK SC6AC2 SLP067

CYXE;2008-02-08 10:13;CYXE 081013Z 14006KT 15SM SCT012 OVC072 M21/ RMK SC4AC4

CYXE;2008-02-08 11:00;CYXE 081100Z 12006KT 15SM OVC072 M20/M24 A2954 RMK AC8 SLP054

CYXE;2008-02-08 12:00;CYXE 081200Z 16004KT 15SM OVC056 M19/M23 A2954 RMK SC8 SLP051

CYXE;2008-02-08 13:00;CYXE 081300Z 11008KT 15SM OVC035 M19/M24 A2952 RMK SC8 SLP045

CYXE;2008-02-08 14:00;CYXE 081400Z 05006KT 15SM SCT050 BKN095 BKN250 M20/M24 A2953 RMK SC3AC2CI1 SLP048

CYXE;2008-02-08 15:00;CYXE 081500Z 09004KT 15SM BKN090 OVC250 M20/M23 A2951 RMK AC6CI2 SLP044

CYXE;2008-02-08 15:33;CYXE 081533Z 06002KT 15SM BKN006 BKN050 OVC090 M19/ RMK SF5SC2AC2

CYXE;2008-02-08 16:00;CYXE 081600Z 34006KT 15SM BKN008 OVC045 M19/M22 A2951 RMK SF7SC1 SLP045

CYXE;2008-02-08 16:16;CYXE 081616Z 01004KT 15SM OVC012 M19/ RMK SF8

CYXE;2008-02-08 16:46;CYXE 081646Z 34013KT 10SM -SN DRSN OVC012 M18/ RMK SF8

CYXE;2008-02-08 17:00;CYXE 081700Z 34015KT 10SM -SN DRSN OVC014 M18/M22 A2956 RMK SF8 SLP061

CYXE;2008-02-08 17:20;CYXE 081720Z 35017KT 3SM -SN DRSN OVC018 M17/ RMK SN2SF6

CYXE;2008-02-08 17:30;CYXE 081730Z 36017KT 2SM -SN DRSN OVC018 M18/ RMK SN2SF6

CYXE;2008-02-08 17:36;CYXE 081736Z 36017KT 8SM -SN DRSN OVC020 M18/ RMK SC8

CYXE;2008-02-08 18:00;CYXE 081800Z 01018G24KT 8SM -SN DRSN OVC025 M18/M22 A2958 RMK SC8 SLP070

CYXE;2008-02-08 18:30;CYXE 081830Z 01018KT 15SM DRSN BKN025 OVC100 M18/ RMK SC6AC2

CYXE;2008-02-08 19:00;CYXE 081900Z 36017KT 15SM -SN DRSN OVC028 M18/M22 A2961 RMK SC8 SLP080

CYXE;2008-02-08 19:17;CYXE 081917Z 35020KT 1 1/2SM -SN DRSN OVC028 M19/ RMK SN2SC6

CYXE;2008-02-08 19:33;CYXE 081933Z 35021KT 1SM R09/P6000FT/N -SN BLSN OVC020 M19/ RMK SN3SC5

CYXE;2008-02-08 20:00;CYXE 082000Z 36020G28KT 1SM R09/P6000FT/D -SN BLSN OVC020 M19/M22 A2964 RMK SN3SC5 SLP089

CYXE;2008-02-08 20:18;CYXE 082018Z 36019G25KT 5SM -SN DRSN OVC020 M19/ RMK SC8 OCNL BLSN

CYXE;2008-02-08 20:44;CYXE 082044Z 34016G22KT 2 1/2SM -SN BLSN OVC025 M18/ RMK SN2SC6

CYXE;2008-02-08 21:00;CYXE 082100Z 34017KT 3SM -SN DRSN OVC025 M18/M22 A2971 RMK SC8 PRESRR OCNL BLSN SLP113

CYXE;2008-02-08 21:21;CYXE 082121Z 35017KT 3/4SM R09/P6000FT/D -SN BLSN OVC025 M18/ RMK BLSN3SC5

CYXE;2008-02-08 22:00;CYXE 082200Z 35015G20KT 1SM R09/P6000FT/U -SN BLSN OVC025 M18/M22 A2973 RMK BLSN2SC6 SLP122

CYXE;2008-02-08 22:29;CYXE 082229Z 35015KT 10SM -SN DRSN BKN023 OVC100 M19/ REBLSN RMK SC6AC2

CYXE;2008-02-08 23:00;CYXE 082300Z 32019KT 10SM -SN DRSN BKN036 OVC100 M19/M24 A2982 REBLSN RMK SC6AC2 SLP151

CYXE;2008-02-09 00:00;CYXE 090000Z 34018KT 10SM -SN DRSN SCT038 BKN110 M20/M26 A2985 RMK SC3AC4 SLP161

CYXE;2008-02-09 00:51;CYXE 090051Z 33016KT 15SM DRSN SCT120 M22/ RMK AC4

CYXE;2008-02-09 01:00;CYXE 090100Z 33016KT 15SM SCT110 SCT280 M22/M28 A2991 RMK AC3CI0 SLP181

CYXE;2008-02-09 02:00;CYXE 090200Z 32010KT 15SM SKC M24/M29 A2996 RMK SLP196

CYXE;2008-02-09 03:00;CYXE 090300Z 32014KT 15SM SKC M24/M30 A2998 RMK SLP208

CYXE;2008-02-09 04:00;CYXE 090400Z 32016KT 15SM SKC M25/M31 A3002 RMK SLP221

CYXE;2008-02-09 05:00;CYXE 090500Z 32014KT 15SM SKC M26/M32 A3007 RMK SLP237

CYXE;2008-02-09 06:00;CYXE 090600Z 32012KT 15SM SKC M27/M33 A3011 RMK SLP254

CYXE;2008-02-09 07:00;CYXE 090700Z 33012KT 15SM SKC M28/M34 A3014 RMK SLP265

CYXE;2008-02-09 08:00;CYXE 090800Z 31012KT 15SM SKC M29/M35 A3017 RMK SLP272

CYXE;2008-02-09 09:00;CYXE 090900Z 30011KT 15SM SKC M29/M35 A3019 RMK SLP285

CYXE;2008-02-09 10:00;CYXE 091000Z 30012KT 15SM SKC M29/M35 A3023 RMK SLP296

CYXE;2008-02-09 11:00;CYXE 091100Z 30015KT 15SM SKC M30/M35 A3025 RMK SLP303

CYXE;2008-02-09 12:00;CYXE 091200Z 29012KT 15SM SKC M31/M36 A3028 RMK SLP317

CYXE;2008-02-09 13:00;CYXE 091300Z 30013KT 15SM SKC M30/M36 A3031 RMK SLP326

CYXE;2008-02-09 14:00;CYXE 091400Z 30011KT 15SM SKC M31/M36 A3034 RMK SLP337

CYXE;2008-02-09 15:00;CYXE 091500Z 30011KT 15SM SKC M31/M36 A3036 RMK SLP349

CYXE;2008-02-09 16:00;CYXE 091600Z 31015KT 15SM SKC M31/M36 A3037 RMK SLP352

CYXE;2008-02-09 17:00;CYXE 091700Z 30015G20KT 15SM DRSN SKC M30/M35 A3040 RMK OCNL BLSN SLP361

CYXE;2008-02-09 18:00;CYXE 091800Z 31013KT 15SM DRSN SKC M30/M35 A3041 RMK OCNL BLSN SLP365

CYXE;2008-02-09 19:00;CYXE 091900Z 30013KT 15SM DRSN SKC M29/M35 A3042 RMK SLP370

CYXE;2008-02-09 20:00;CYXE 092000Z 30018KT 15SM DRSN FEW120 M29/M35 A3043 RMK AC1 OCNL BLSN SLP371

CYXE;2008-02-09 21:00;CYXE 092100Z 31016KT 15SM DRSN FEW120 M29/M35 A3045 RMK AC1 OCNL BLSN SLP381

CYXE;2008-02-09 22:00;CYXE 092200Z 30015KT 15SM DRSN FEW120 M29/M35 A3046 RMK AC1 SLP385

CYXE;2008-02-09 23:00;CYXE 092300Z 31009KT 15SM FEW120 M29/M35 A3049 RMK AC1 SLP395

CYXE;2008-02-10 00:00;CYXE 100000Z 30012KT 15SM FEW120 FEW280 M29/M36 A3051 RMK AC1CI0 SLP403

CYXE;2008-02-10 01:00;CYXE 100100Z 30012KT 15SM FEW120 FEW280 M30/M36 A3053 RMK AC1CI0 SLP409

CYXE;2008-02-10 02:00;CYXE 100200Z 30009KT 15SM FEW120 M32/M37 A3055 RMK AC1 SLP416

CYXE;2008-02-10 03:00;CYXE 100300Z 29011KT 15SM SKC M33/M38 A3056 RMK SLP423

CYXE;2008-02-10 04:00;CYXE 100400Z 29011KT 15SM SKC M33/M38 A3057 RMK SLP426

CYXE;2008-02-10 05:00;CYXE 100500Z 29009KT 15SM SKC M33/M38 A3056 RMK SLP425

CYXE;2008-02-10 06:00;CYXE 100600Z 30006KT 15SM SKC M34/M38 A3055 RMK SLP420

CYXE;2008-02-10 07:00;CYXE 100700Z 32006KT 15SM SKC M34/M38 A3053 RMK SLP413

CYXE;2008-02-10 08:00;CYXE 100800Z 18004KT 15SM SKC M36/M40 A3052 RMK SLP409

CYXE;2008-02-10 09:00;CYXE 100900Z 21005KT 15SM SKC M35/M39 A3051 RMK SLP407

CYXE;2008-02-10 10:00;CYXE 101000Z 18005KT 15SM SKC M35/M39 A3050 RMK SLP404

CYXE;2008-02-10 11:00;CYXE 101100Z 18003KT 15SM FEW090 FEW250 M35/M39 A3048 RMK AC1CI0 SLP397

CYXE;2008-02-10 12:00;CYXE 101200Z 13003KT 15SM FEW010 FEW250 M35/M39 A3044 RMK SF1CI0 SLP383

CYXE;2008-02-10 13:00;CYXE 101300Z 14004KT 15SM FEW010 FEW250 M34/M38 A3040 RMK SF1CI1 SLP371

CYXE;2008-02-10 14:00;CYXE 101400Z 13003KT 15SM BKN100 OVC250 M32/M36 A3037 RMK AC6CI1 SLP361

CYXE;2008-02-10 15:00;CYXE 101500Z 13005KT 15SM OVC100 M30/M34 A3036 RMK AC8 SLP355

CYXE;2008-02-10 16:00;CYXE 101600Z 14009KT 15SM OVC090 M28/M34 A3033 RMK AC8 SLP344

CYXE;2008-02-10 17:00;CYXE 101700Z 14009KT 15SM OVC085 M27/M33 A3031 RMK AS8 SLP337

CYXE;2008-02-10 18:00;CYXE 101800Z 14010KT 15SM OVC075 M26/M33 A3027 RMK AS8 SLP320

CYXE;2008-02-10 19:00;CYXE 101900Z 13009KT 15SM FEW040 OVC090 M25/M32 A3024 RMK SC2AS6 SLP309

CYXE;2008-02-10 19:50;CYXE 101950Z 12009KT 3SM -SN BKN015 OVC060 M25/ RMK SF5SC3

CYXE;2008-02-10 20:00;CYXE 102000Z 13013KT 2SM -SN DRSN OVC015 M24/M31 A3018 RMK SN2SF6 SLP292

CYXE;2008-02-10 20:21;CYXE 102021Z 12014KT 1 1/2SM -SN DRSN OVC012 M25/ RMK SN3SF5

CYXE;2008-02-10 20:41;CYXE 102041Z 12009KT 1SM R09/P6000FT/D -SN DRSN VV010 M25/ RMK SN8

CYXE;2008-02-10 21:00;CYXE 102100Z 13010KT 1SM R09/P6000FT/N -SN DRSN VV010 M25/M30 A3018 RMK SN8 SLP289

CYXE;2008-02-10 22:00;CYXE 102200Z 12013KT 1SM R09/P6000FT/U -SN DRSN VV008 M25/M29 A3013 RMK SN8 PRESFR SLP273

CYXE;2008-02-10 22:42;CYXE 102242Z 12016G22KT 3SM -SN DRSN OVC030 M25/ RMK SC6

CYXE;2008-02-10 23:00;CYXE 102300Z 13015G20KT 4SM -SN DRSN FEW030 BKN280 M24/M29 A3011 RMK SC2CI1 SLP266

CYXE;2008-02-10 23:41;CYXE 102341Z 13016KT 6SM IC DRSN FEW030 BKN280 M24/ RMK SC2CI1

CYXE;2008-02-11 00:00;CYXE 110000Z 14013KT 10SM DRSN FEW030 FEW110 SCT280 M25/M29 A3010 RMK SC1AC2CI0 SLP263

CYXE;2008-02-11 01:00;CYXE 110100Z 13011KT 12SM FEW030 FEW110 SCT280 M25/M29 A3007 RMK SC1AC2CI0 SLP251

CYXE;2008-02-11 02:00;CYXE 110200Z 14008KT 12SM FEW110 BKN280 M24/M29 A3005 RMK AC2CI0 SLP247

CYXE;2008-02-11 03:00;CYXE 110300Z 14013KT 15SM BKN280 M24/M29 A3000 RMK CI0 PRESFR SLP223

CYXE;2008-02-11 04:00;CYXE 110400Z 14011KT 15SM SCT020 BKN280 M24/M29 A3001 RMK SC3CI0 SLP227

CYXE;2008-02-11 05:00;CYXE 110500Z 11007KT 15SM FEW012 FEW110 BKN280 M24/M29 A3000 RMK SC2AC1CI0 SLP224

CYXE;2008-02-11 05:39;CYXE 110539Z 12008KT 15SM SCT009 SCT080 BKN280 M24/ RMK SF2AC1CI2

CYXE;2008-02-11 06:00;CYXE 110600Z 12007KT 15SM FEW009 SCT080 BKN280 M24/M28 A3000 RMK SF2AC1CI2 SLP219

CYXE;2008-02-11 07:00;CYXE 110700Z 14008KT 15SM FEW280 M24/M28 A2999 RMK CI1 SLP218

CYXE;2008-02-11 08:00;CYXE 110800Z 14006KT 15SM OVC035 M23/M28 A2999 RMK SC7 SLP217

CYXE;2008-02-11 09:00;CYXE 110900Z 16006KT 15SM OVC030 M22/M27 A3001 RMK SC8 SLP221

CYXE;2008-02-11 10:00;CYXE 111000Z 16004KT 15SM OVC025 M22/M26 A3001 RMK SC8 SLP222

CYXE;2008-02-11 11:00;CYXE 111100Z 16004KT 15SM OVC025 M21/M26 A3001 RMK SC8 SLP222

CYXE;2008-02-11 12:00;CYXE 111200Z 19005KT 15SM OVC020 M20/M25 A3001 RMK SC8 SLP221

CYXE;2008-02-11 13:00;CYXE 111300Z 21006KT 15SM -SN OVC019 M20/M24 A3003 RMK SC8 SLP226

CYXE;2008-02-11 13:25;CYXE 111325Z 21006KT 15SM SCT020 BKN250 M20/ RMK SC4CI0

CYXE;2008-02-11 14:00;CYXE 111400Z 20006KT 15SM BKN020 BKN250 M20/M24 A3003 RMK SC5CI1 SLP225

CYXE;2008-02-11 15:00;CYXE 111500Z 20007KT 15SM BKN015 OVC250 M19/M23 A3003 RMK SC6CI1 SLP224

CYXE;2008-02-11 15:42;CYXE 111542Z 21008KT 15SM -SN OVC013 M19/ RMK SC8

CYXE;2008-02-11 16:00;CYXE 111600Z 21010KT 15SM -SN OVC013 M19/M22 A3002 RMK SC8 SLP221

CYXE;2008-02-11 17:00;CYXE 111700Z 22010KT 6SM -SN OVC008 M18/M21 A3002 RMK ST8 SLP222

CYXE;2008-02-11 17:17;CYXE 111717Z 22009KT 4SM -SN BR OVC006 M17/ RMK ST8

CYXE;2008-02-11 18:00;CYXE 111800Z 20012KT 8SM -SN OVC007 M17/M19 A2999 RMK ST8 SLP212

CYXE;2008-02-11 19:00;CYXE 111900Z 21012KT 6SM -SN BR OVC008 M14/M17 A2996 RMK ST8 SLP200

CYXE;2008-02-11 20:00;CYXE 112000Z 22014KT 10SM OVC006 M12/M14 A2993 RMK ST8 BR SLP192

CYXE;2008-02-11 20:23;CYXE 112023Z CCA 23013KT 4SM -SN DRSN BR OVC008 M11/ RMK ST8

CYXE;2008-02-11 21:00;CYXE 112100Z 23014KT 5SM -SN DRSN BR BKN010 OVC080 M10/M11 A2993 RMK ST6AC2 SLP182

CYXE;2008-02-11 21:28;CYXE 112128Z 23015KT 15SM SCT010 SCT250 M10/ RMK ST2CI0

CYXE;2008-02-11 22:00;CYXE 112200Z 22012KT 15SM FEW010 FEW250 M10/M11 A2990 RMK SF0CI1 SLP173

CYXE;2008-02-11 23:00;CYXE 112300Z 22013KT 15SM FEW010 SCT250 M10/M11 A2989 RMK SF0CI0 CONTRAILS SLP171

CYXE;2008-02-12 00:00;CYXE 120000Z 22010KT 15SM FEW090 SCT250 M11/M12 A2988 RMK AC2CI1 SLP166

CYXE;2008-02-12 01:00;CYXE 120100Z 21011KT 15SM FEW090 SCT250 M11/M13 A2986 RMK AC1CI2 SLP160

CYXE;2008-02-12 02:00;CYXE 120200Z 20009KT 15SM SCT080 BKN250 M11/M13 A2985 RMK AC3CI1 SLP156

CYXE;2008-02-12 03:00;CYXE 120300Z 20010KT 15SM SCT080 BKN250 M11/M13 A2983 RMK AC3CI1 SLP149

CYXE;2008-02-12 04:00;CYXE 120400Z 22007KT 15SM BKN070 M10/M12 A2983 RMK AC6 SLP148

CYXE;2008-02-12 05:00;CYXE 120500Z 22007KT 15SM BKN060 M10/M12 A2982 RMK SC6 SLP144

CYXE;2008-02-12 06:00;CYXE 120600Z 22006KT 15SM BKN065 OVC250 M10/M12 A2981 RMK SC6CI1 SLP140

CYXE;2008-02-12 07:00;CYXE 120700Z 25004KT 15SM OVC050 M10/M11 A2982 RMK SC8 SLP143

CYXE;2008-02-12 07:18;CYXE 120718Z 23004KT 8SM -SN OVC035 M10/ RMK SC8

CYXE;2008-02-12 08:00;CYXE 120800Z 23005KT 10SM -SN OVC038 M10/M11 A2983 RMK SC8 SLP145

CYXE;2008-02-12 09:00;CYXE 120900Z 26005KT 15SM -SN BKN025 OVC050 M09/M10 A2985 RMK SC6SC2 SLP146

CYXE;2008-02-12 09:29;CYXE 120929Z 27002KT 15SM BKN022 OVC060 M09/ RMK SC6SC2

CYXE;2008-02-12 10:00;CYXE 121000Z 30003KT 15SM BKN022 OVC055 M08/M10 A2986 RMK SC6SC2 SLP149

CYXE;2008-02-12 10:16;CYXE 121016Z 32006KT 12SM -SN OVC023 M08/ RMK SC8

CYXE;2008-02-12 11:00;CYXE 121100Z 34007KT 15SM -SN OVC022 M07/M09 A2990 RMK SC8 SLP163

CYXE;2008-02-12 11:43;CYXE 121143Z 01012KT 12SM -SN FEW005 OVC025 M08/ RMK SF1SC7

CYXE;2008-02-12 12:00;CYXE 121200Z 01018KT 10SM -SN DRSN FEW008 OVC025 M09/M11 A2993 RMK SF1SC7 SLP174

CYXE;2008-02-12 13:00;CYXE 121300Z 02016KT 10SM -SN DRSN OVC020 M11/M13 A2995 RMK SC8 SLP182

CYXE;2008-02-12 14:00;CYXE 121400Z 36015KT 15SM -SN DRSN OVC016 M12/M15 A2998 RMK SC8 SLP192

CYXE;2008-02-12 15:00;CYXE 121500Z 02011KT 15SM -SN OVC018 M13/M15 A3003 RMK SC8 SLP211

CYXE;2008-02-12 16:00;CYXE 121600Z 01013KT 15SM -SN OVC020 M14/M16 A3005 RMK SC8 SLP218

CYXE;2008-02-12 16:22;CYXE 121622Z 01014KT 15SM BKN023 M14/ RMK SC6

CYXE;2008-02-12 17:00;CYXE 121700Z 01013KT 15SM BKN025 M14/M17 A3006 RMK SC6 SLP222

CYXE;2008-02-12 18:00;CYXE 121800Z 01013KT 15SM OVC060 M15/M18 A3007 RMK SC7 SLP226

CYXE;2008-02-12 19:00;CYXE 121900Z 36011KT 15SM BKN060 M15/M18 A3006 RMK SC6 SLP224

CYXE;2008-02-12 20:00;CYXE 122000Z 01010KT 15SM BKN060 M15/M18 A3008 RMK SC6 SLP228

CYXE;2008-02-12 21:00;CYXE 122100Z 04010KT 15SM SCT250 M15/M19 A3004 RMK CI1 SLP215

CYXE;2008-02-12 22:00;CYXE 122200Z 04006KT 15SM BKN250 M16/M19 A3005 RMK CI2 SLP218

CYXE;2008-02-12 23:00;CYXE 122300Z 04006KT 15SM FEW090 BKN250 M16/M20 A3003 RMK AC1CI2 SLP211

CYXE;2008-02-13 00:00;CYXE 130000Z 04006KT 15SM FEW090 BKN250 M18/M24 A3002 RMK AC2CI1 CONTRAILS SLP212

CYXE;2008-02-13 01:00;CYXE 130100Z 08006KT 15SM FEW090 BKN250 M18/M23 A2999 RMK AC2CI1 SLP203

CYXE;2008-02-13 02:00;CYXE 130200Z 07006KT 15SM FEW090 SCT250 M19/M23 A2998 RMK AC2CI0 SLP198

CYXE;2008-02-13 03:00;CYXE 130300Z 11007KT 15SM FEW090 SCT250 M19/M23 A2995 RMK AC2CI0 SLP189

CYXE;2008-02-13 04:00;CYXE 130400Z 12008KT 15SM FEW090 BKN250 M19/M24 A2993 RMK AC1CI0 SLP182

CYXE;2008-02-13 05:00;CYXE 130500Z 11010KT 15SM SCT090 BKN250 M19/M24 A2990 RMK AC2CI0 SLP173

CYXE;2008-02-13 06:00;CYXE 130600Z 11009KT 15SM BKN070 OVC250 M19/M24 A2989 RMK AC6CI2 SLP169

CYXE;2008-02-13 06:52;CYXE 130652Z 12013KT 10SM -SN OVC030 M19/ RMK SC8

CYXE;2008-02-13 07:00;CYXE 130700Z 11014KT 5SM -SN OVC030 M19/M23 A2986 RMK SC8 SLP159

CYXE;2008-02-13 07:14;CYXE 130714Z 11013KT 3SM -SN OVC030 M19/ RMK SC8

CYXE;2008-02-13 07:38;CYXE 130738Z 10015KT 2SM -SN OVC030 M19/ RMK SC8

CYXE;2008-02-13 08:00;CYXE 130800Z 09017KT 2SM -SN OVC018 M19/M22 A2981 RMK SC8 SLP146

CYXE;2008-02-13 08:05;CYXE 130805Z 10014KT 1SM R09/P6000FT/D -SN VV014 M19/ RMK SN8

CYXE;2008-02-13 09:00;CYXE 130900Z 09017KT 2SM -SN VV014 M19/M22 A2978 RMK SN8 SLP133

CYXE;2008-02-13 09:13;CYXE 130913Z 09016G21KT 3SM -SN OVC021 M19/ RMK SC8

CYXE;2008-02-13 09:41;CYXE 130941Z 09016KT 1SM R09/P6000FT/N -SN OVC015 M19/ RMK SC8

CYXE;2008-02-13 10:00;CYXE 131000Z 09017KT 1SM R09/P6000FT/D -SN VV013 M19/M22 A2975 RMK SN8 SLP123

CYXE;2008-02-13 11:00;CYXE 131100Z 09017KT 3SM -SN OVC018 M19/M22 A2973 RMK SC8 SLP116

CYXE;2008-02-13 12:00;CYXE 131200Z 09016KT 3SM -SN OVC014 M19/M22 A2971 RMK SC8 SLP110

CYXE;2008-02-13 12:51;CYXE 131251Z 08017KT 1 1/2SM -SN DRSN VV012 M19/ RMK SN8

CYXE;2008-02-13 13:00;CYXE 131300Z 08017KT 1SM R09/P6000FT/D -SN DRSN VV012 M19/M23 A2972 RMK SN8 SLP115

CYXE;2008-02-13 13:35;CYXE 131335Z 08017KT 1 1/2SM -SN DRSN VV012 M19/ RMK SN8 VIS VRB 1-2

CYXE;2008-02-13 14:00;CYXE 131400Z 07017KT 2SM -SN DRSN VV012 M19/M23 A2973 RMK SN8 VIS VRB 1-3 SLP119

CYXE;2008-02-13 15:00;CYXE 131500Z 06022KT 3SM -SN DRSN BKN018 OVC050 M20/M24 A2977 RMK SC5SC2 VIS VRB 2-4 SLP131

CYXE;2008-02-13 16:00;CYXE 131600Z 07018KT 5SM -SN DRSN SCT016 OVC080 M21/M24 A2978 RMK SC4AC3 /S01/ SLP135

CYXE;2008-02-13 16:43;CYXE 131643Z 04020KT 3SM BLSN SCT020 OVC080 M23/ RMK SC3AC4 VIS VRB 2-4

CYXE;2008-02-13 17:00;CYXE 131700Z 04018G24KT 3SM BLSN BKN020 OVC080 M24/M28 A2985 RMK SC5AC2 VIS VRB 2-4 PRESRR SLP158

CYXE;2008-02-13 18:00;CYXE 131800Z 07016KT 10SM DRSN SCT025 OVC080 M24/M28 A2986 RMK SC3AC4 SLP168

CYXE;2008-02-13 19:00;CYXE 131900Z 06012KT 15SM BKN070 M23/M27 A2989 RMK AC7 SLP175

CYXE;2008-02-13 20:00;CYXE 132000Z 03011KT 15SM DRSN OVC060 M23/M28 A2992 RMK SC8 SLP187

CYXE;2008-02-13 21:00;CYXE 132100Z 05013KT 15SM OVC050 M22/M28 A2994 RMK SC8 SLP192

CYXE;2008-02-13 22:00;CYXE 132200Z 05014KT 15SM OVC050 M23/M28 A2996 RMK SC8 SLP199

CYXE;2008-02-13 23:00;CYXE 132300Z 05015KT 15SM -SN OVC050 M23/M28 A2999 RMK SC8 SLP208

CYXE;2008-02-14 00:00;CYXE 140000Z 05011KT 8SM -SN OVC035 M23/M28 A3003 RMK SC8 SLP223

CYXE;2008-02-14 01:00;CYXE 140100Z 05013KT 1 1/2SM -SN OVC019 M23/M28 A3004 RMK SN2SC6 SLP227

CYXE;2008-02-14 02:00;CYXE 140200Z 04012KT 2SM -SN BKN014 OVC050 M24/M28 A3008 RMK SN2SC4SC2 SLP242

CYXE;2008-02-14 02:33;CYXE 140233Z 05009KT 8SM -SN FEW014 SCT030 OVC070 M23/ RMK SC2SC2AC4

CYXE;2008-02-14 03:00;CYXE 140300Z 05010KT 12SM -SN SCT030 OVC070 M23/M28 A3010 RMK SC3AC5 SLP250

CYXE;2008-02-14 03:49;CYXE 140349Z 03005KT 15SM FEW006 SCT035 BKN070 M24/ RMK SF1SC2AC2

CYXE;2008-02-14 04:00;CYXE 140400Z 05005KT 15SM FEW006 SCT038 BKN070 M24/M29 A3012 RMK SF1SC2AC2 SLP255

CYXE;2008-02-14 05:00;CYXE 140500Z 01004KT 15SM FEW006 BKN110 M25/M29 A3013 RMK SF1AC2 SLP261

CYXE;2008-02-14 06:00;CYXE 140600Z 04004KT 15SM FEW006 BKN110 M26/M30 A3015 RMK SF1AC3 SLP270

CYXE;2008-02-14 07:00;CYXE 140700Z 04002KT 15SM BKN120 M26/M30 A3016 RMK AC4 SLP273

CYXE;2008-02-14 08:00;CYXE 140800Z 00000KT 15SM BKN120 M27/M31 A3014 RMK AC6 SLP267

CYXE;2008-02-14 09:00;CYXE 140900Z 02003KT 15SM OVC120 M26/M30 A3014 RMK AC8 SLP267

CYXE;2008-02-14 10:00;CYXE 141000Z 02002KT 15SM FEW120 M27/M30 A3016 RMK AC1 SLP272

CYXE;2008-02-14 11:00;CYXE 141100Z 07004KT 15SM SKC M27/M31 A3015 RMK SLP270

CYXE;2008-02-14 12:00;CYXE 141200Z 18002KT 15SM SKC M27/M31 A3014 RMK SLP269

CYXE;2008-02-14 13:00;CYXE 141300Z 18004KT 15SM FEW120 M28/M32 A3013 RMK AC2 SLP267

CYXE;2008-02-14 14:00;CYXE 141400Z 16004KT 15SM BKN120 M26/M30 A3012 RMK AC6 SLP262

CYXE;2008-02-14 14:18;CYXE 141418Z 16004KT 10SM -SN BKN040 BKN120 M26/ RMK SC5AC2

CYXE;2008-02-14 14:50;CYXE 141450Z 15004KT 12SM FEW023 SCT050 BKN120 RMK SC2SC2AC3

CYXE;2008-02-14 15:00;CYXE 141500Z 16004KT 12SM FEW023 SCT050 BKN120 M25/M29 A3012 RMK SC2SC2AC2 SLP261

CYXE;2008-02-14 15:22;CYXE 141522Z 17004KT 12SM -SN FEW021 SCT055 OVC120 M25/ RMK SC2SC2AC4

CYXE;2008-02-14 16:00;CYXE 141600Z 16004KT 12SM -SN FEW021 SCT090 OVC120 M24/M28 A3011 RMK SC2AC2AC3 SLP258

CYXE;2008-02-14 16:30;CYXE 141630Z 15006KT 5SM -SN SCT031 OVC084 M24/ RMK SC3AC5

CYXE;2008-02-14 17:00;CYXE 141700Z 14008KT 3SM -SN SCT039 OVC070 M23/M27 A3011 RMK SC3AC5 SLP257

CYXE;2008-02-14 17:39;CYXE 141739Z 13007KT 2SM -SN SCT028 OVC068 M23/ RMK SC4AC4

CYXE;2008-02-14 18:00;CYXE 141800Z 12007KT 2SM -SN OVC026 M23/M28 A3011 RMK SC8 SLP258

CYXE;2008-02-14 19:00;CYXE 141900Z 12006KT 1 1/2SM -SN OVC020 M23/M28 A3011 RMK SC8 SLP258

CYXE;2008-02-14 20:00;CYXE 142000Z 13007KT 1 1/2SM -SN OVC018 M23/M27 A3010 RMK SC8 SLP254

CYXE;2008-02-14 21:00;CYXE 142100Z 13007KT 1 1/2SM -SN OVC018 M22/M26 A3008 RMK SC8 SLP247

CYXE;2008-02-14 21:27;CYXE 142127Z 12009KT 6SM -SN OVC024 M22/ RMK SC8

CYXE;2008-02-14 22:00;CYXE 142200Z 11010KT 4SM -SN OVC040 M22/M26 A3008 RMK SC8 SLP247

CYXE;2008-02-14 23:00;CYXE 142300Z 11009KT 8SM -SN OVC040 M22/M26 A3007 RMK SC8 SLP243

CYXE;2008-02-15 00:00;CYXE 150000Z 10008KT 4SM -SN OVC033 M21/M26 A3008 RMK SC8 /S01/ SLP246

CYXE;2008-02-15 01:00;CYXE 150100Z 11008KT 12SM -SN OVC040 M21/M25 A3009 RMK SC8 SLP249

CYXE;2008-02-15 02:00;CYXE 150200Z 11008KT 15SM -SN BKN040 OVC060 M21/M25 A3008 RMK SC6SC2 SLP248

CYXE;2008-02-15 03:00;CYXE 150300Z 12008KT 15SM -SN SCT020 BKN050 M21/M25 A3008 RMK SC4SC3 SLP246

CYXE;2008-02-15 04:00;CYXE 150400Z 13009KT 15SM SCT025 BKN050 M21/M25 A3007 RMK SC3SC3 SLP241

CYXE;2008-02-15 05:00;CYXE 150500Z 14008KT 15SM -SN BKN024 BKN045 M21/M25 A3008 RMK SC5SC2 SLP244

CYXE;2008-02-15 06:00;CYXE 150600Z 15005KT 15SM -SN OVC024 M21/M24 A3006 RMK SC7 SLP237

CYXE;2008-02-15 07:00;CYXE 150700Z 15007KT 15SM -SN OVC018 M20/M24 A3005 RMK SC8 SLP232

CYXE;2008-02-15 08:00;CYXE 150800Z 15005KT 5SM -SN OVC016 M20/M23 A3002 RMK SC8 SLP222

CYXE;2008-02-15 09:00;CYXE 150900Z 15005KT 6SM -SN OVC015 M19/M23 A3002 RMK SC8 SLP219

CYXE;2008-02-15 09:26;CYXE 150926Z 16006KT 15SM -SN OVC012 M19/ RMK SC8

CYXE;2008-02-15 10:00;CYXE 151000Z 17004KT 15SM -SN OVC012 M19/M22 A2999 RMK SC8 SLP211

CYXE;2008-02-15 10:40;CYXE 151040Z 17006KT 15SM -SN OVC008 M18/ RMK ST8

CYXE;2008-02-15 11:00;CYXE 151100Z 16005KT 5SM -SN OVC008 M18/M21 A2998 RMK ST8 SLP207

CYXE;2008-02-15 12:00;CYXE 151200Z 17010KT 10SM -SN OVC009 M16/M19 A2996 RMK ST8 SLP197

CYXE;2008-02-15 13:00;CYXE 151300Z 17010KT 10SM -SN OVC007 M16/M18 A2992 RMK ST8 SLP185

CYXE;2008-02-15 14:00;CYXE 151400Z 18008KT 12SM -SN OVC007 M15/M17 A2990 RMK ST8 SLP179

CYXE;2008-02-15 15:00;CYXE 151500Z 17007KT 10SM -SN OVC007 M14/M16 A2988 RMK ST8 SLP169

CYXE;2008-02-15 15:56;CYXE 151556Z 17010KT 10SM -SN SCT007 BKN050 OVC090 M13/ RMK ST3SC3AC2

CYXE;2008-02-15 16:00;CYXE 151600Z 17011KT 10SM -SN SCT007 BKN055 OVC090 M13/M15 A2986 RMK ST3SC3AC2 SLP161

CYXE;2008-02-15 17:00;CYXE 151700Z 18010KT 10SM BKN051 OVC073 M11/M13 A2983 RMK SC6AC2 SLP153

CYXE;2008-02-15 17:56;CYXE 151756Z 18009KT 10SM -SN SCT023 OVC049 M10/ RMK SC4SC4

CYXE;2008-02-15 18:00;CYXE 151800Z 18009KT 10SM -SN SCT023 OVC049 M10/M12 A2980 RMK SC4SC4 SLP138

CYXE;2008-02-15 18:43;CYXE 151843Z 18008KT 15SM BKN050 OVC100 M09/ RMK SC6AC1

CYXE;2008-02-15 19:00;CYXE 151900Z 18009KT 15SM BKN050 BKN120 M08/M11 A2978 RMK SC5AC2 SLP132

CYXE;2008-02-15 20:00;CYXE 152000Z 19008KT 15SM BKN050 BKN090 M06/M09 A2975 RMK SC5AC1 SLP121

CYXE;2008-02-15 21:00;CYXE 152100Z 19008KT 15SM BKN055 BKN097 M04/M07 A2971 RMK SC6AC1 SLP102

CYXE;2008-02-15 22:00;CYXE 152200Z 19008KT 15SM BKN051 M03/M06 A2968 RMK SC7 SLP091

CYXE;2008-02-15 23:00;CYXE 152300Z 18009KT 15SM BKN061 M02/M05 A2964 RMK SC7 SLP080

CYXE;2008-02-16 00:00;CYXE 160000Z 18009KT 15SM FEW061 BKN080 M01/M04 A2959 RMK SC1AC5 PRESFR SLP056

CYXE;2008-02-16 01:00;CYXE 160100Z 18007KT 15SM SCT080 BKN250 M01/M03 A2955 RMK AC3CI1 SLP044

CYXE;2008-02-16 02:00;CYXE 160200Z 19005KT 15SM SCT050 BKN080 M01/M03 A2953 RMK SC3AC1 SLP036

CYXE;2008-02-16 02:53;CYXE 160253Z 23005KT 15SM -FZRA BKN085 M02/ RMK AC7

CYXE;2008-02-16 03:00;CYXE 160300Z 23003KT 15SM -FZRA BKN085 M01/M03 A2952 RMK AC7 SLP031

CYXE;2008-02-16 04:00;CYXE 160400Z 19006KT 15SM BKN066 00/M01 A2947 REFZRA RMK SC6 SLP016

CYXE;2008-02-16 04:42;CYXE 160442Z 21007KT 15SM -FZRA BKN046 M00/ RMK SC5

CYXE;2008-02-16 05:00;CYXE 160500Z 22009KT 15SM -FZRA BKN046 00/M01 A2947 RMK SC5 SLP015

CYXE;2008-02-16 05:10;CYXE 160510Z 23008KT 15SM -SHRA BKN046 M00/ RMK SC5

CYXE;2008-02-16 06:00;CYXE 160600Z 25008KT 15SM FEW040 BKN080 M01/M02 A2947 REFZRA RMK SC2AC5 SLP010

CYXE;2008-02-16 07:00;CYXE 160700Z 25007KT 15SM OVC070 M01/M02 A2948 RMK AC8 SLP013

CYXE;2008-02-16 08:00;CYXE 160800Z 30009KT 15SM OVC080 01/M01 A2950 RMK AC7 SLP019

CYXE;2008-02-16 09:00;CYXE 160900Z 30009KT 15SM SCT100 OVC250 M02/M04 A2950 RMK AC3CI1 SLP016

CYXE;2008-02-16 10:00;CYXE 161000Z 31010KT 15SM FEW100 OVC250 00/M03 A2951 RMK AC1CI6 SLP020

CYXE;2008-02-16 11:00;CYXE 161100Z 30008KT 15SM BKN250 M02/M04 A2953 RMK CI3 SLP027

CYXE;2008-02-16 12:00;CYXE 161200Z 30011KT 15SM SCT250 M02/M05 A2954 RMK CI2 SLP031

CYXE;2008-02-16 13:00;CYXE 161300Z 30013KT 15SM FEW250 M04/M06 A2956 RMK CI0 SLP038

CYXE;2008-02-16 14:00;CYXE 161400Z 30010KT 15SM FEW150 M04/M06 A2958 RMK AC1 SLP042

CYXE;2008-02-16 15:00;CYXE 161500Z 29010KT 15SM FEW140 FEW220 M05/M07 A2960 RMK AC1CI1 SLP053

CYXE;2008-02-16 16:00;CYXE 161600Z 30010KT 15SM FEW085 FEW140 M03/M05 A2959 RMK AC1AC1 SLP049

CYXE;2008-02-16 17:00;CYXE 161700Z 26010KT 15SM BKN070 M02/M05 A2961 RMK AC5 SLP057

CYXE;2008-02-16 18:00;CYXE 161800Z 25009KT 15SM FEW035 BKN100 M02/M04 A2961 RMK SC2AC2 SLP055

CYXE;2008-02-16 19:00;CYXE 161900Z 27012G18KT 15SM FEW035 SCT065 BKN100 M00/M04 A2961 RMK SC2SC2AC1 SLP054

CYXE;2008-02-16 20:00;CYXE 162000Z 30018KT 15SM FEW025 SCT077 BKN090 01/M03 A2961 RMK SC2AC2AC2 SLP053

CYXE;2008-02-16 21:00;CYXE 162100Z 30016KT 15SM SCT035 BKN090 00/M02 A2962 RMK SC3AC2 SLP057

CYXE;2008-02-16 22:00;CYXE 162200Z 30014KT 15SM FEW050 SCT071 M00/M02 A2964 RMK SC2AC1 SLP063

CYXE;2008-02-16 23:00;CYXE 162300Z 30018KT 15SM DRSN FEW070 M00/M03 A2966 RMK AC2 SLP068

CYXE;2008-02-17 00:00;CYXE 170000Z 30014KT 15SM FEW070 BKN250 M00/M03 A2969 RMK AC2CI1 SLP081

CYXE;2008-02-17 01:00;CYXE 170100Z 31018KT 15SM FEW050 BKN100 M00/M03 A2972 RMK SC1AC3 SLP092

CYXE;2008-02-17 02:00;CYXE 170200Z 30015KT 15SM SCT045 BKN250 M01/M04 A2976 RMK SC3CI0 SLP102

CYXE;2008-02-17 03:00;CYXE 170300Z 31017KT 15SM BKN040 M01/M04 A2978 RMK SC5 SLP115

CYXE;2008-02-17 03:35;CYXE 170335Z 33010KT 12SM -SN BKN020 M01/ RMK SC6

CYXE;2008-02-17 04:00;CYXE 170400Z 32011KT 12SM -SN BKN020 M01/M03 A2981 RMK SC6 SLP126

CYXE;2008-02-17 05:00;CYXE 170500Z 33014KT 12SM -SN FEW012 BKN023 M01/M05 A2984 RMK SF2SC5 SLP135

CYXE;2008-02-17 05:20;CYXE 170520Z 34020G25KT 15SM BKN042 M02/ RMK SC5

CYXE;2008-02-17 06:00;CYXE 170600Z 34014G19KT 15SM FEW035 M04/M07 A2987 RMK SC2 SLP144

CYXE;2008-02-17 07:00;CYXE 170700Z 31007KT 15SM FEW050 M07/M09 A2989 RMK SC2 SLP152

CYXE;2008-02-17 08:00;CYXE 170800Z 34018KT 15SM SCT048 BKN074 M04/M08 A2992 RMK SC4AC1 SLP160

CYXE;2008-02-17 09:00;CYXE 170900Z 36020G25KT 15SM FEW060 M09/M12 A2996 RMK SC1 SLP179

CYXE;2008-02-17 10:00;CYXE 171000Z 35012KT 15SM FEW060 M12/M15 A3001 RMK SC1 SLP193

CYXE;2008-02-17 11:00;CYXE 171100Z 34008KT 15SM SKC M14/M17 A3003 RMK SLP202

CYXE;2008-02-17 12:00;CYXE 171200Z 34012KT 15SM SKC M14/M17 A3003 RMK SLP207

CYXE;2008-02-17 13:00;CYXE 171300Z 33010KT 15SM FEW220 M16/M18 A3006 RMK CI0 SLP214

CYXE;2008-02-17 14:00;CYXE 171400Z 35010KT 15SM BKN220 M18/M19 A3008 RMK CI2 SLP223

CYXE;2008-02-17 15:00;CYXE 171500Z 01012KT 15SM BKN019 OVC220 M17/M19 A3012 RMK SC7CI0 SLP237

CYXE;2008-02-17 15:08;CYXE 171508Z 01012KT 15SM -SN BKN017 OVC220 M17/ RMK SC7CI0

CYXE;2008-02-17 15:48;CYXE 171548Z 01011KT 15SM FEW019 BKN220 M17/ RMK SC2CI2

CYXE;2008-02-17 16:00;CYXE 171600Z 02010KT 15SM FEW019 BKN220 M18/M20 A3013 RMK SC2CI1 SLP241

CYXE;2008-02-17 17:00;CYXE 171700Z 36012KT 15SM FEW020 SCT220 M18/M20 A3014 RMK SC1CI2 SLP245

CYXE;2008-02-17 18:00;CYXE 171800Z 36014KT 15SM SCT220 M18/M21 A3013 RMK CI2 SLP246

CYXE;2008-02-17 19:00;CYXE 171900Z 35012KT 15SM SCT220 M18/M25 A3013 RMK CI1 SLP246

CYXE;2008-02-17 20:00;CYXE 172000Z 35012KT 15SM BKN220 M18/M24 A3014 RMK CI2 SLP247

CYXE;2008-02-17 21:00;CYXE 172100Z 36008KT 15SM BKN220 M18/M24 A3014 RMK CI2 SLP250

CYXE;2008-02-17 22:00;CYXE 172200Z 01006KT 15SM FEW220 M17/M24 A3013 RMK CI2 SLP249

CYXE;2008-02-17 23:00;CYXE 172300Z 02005KT 15SM FEW220 M18/M24 A3012 RMK CI1 SLP246

CYXE;2008-02-18 00:00;CYXE 180000Z 04003KT 15SM FEW220 M19/M25 A3013 RMK CI1 SLP252

CYXE;2008-02-18 01:00;CYXE 180100Z 05003KT 15SM FEW220 M19/M25 A3013 RMK CI1 SLP253

CYXE;2008-02-18 02:00;CYXE 180200Z 01003KT 15SM FEW220 M21/M25 A3013 RMK CI0 SLP254

CYXE;2008-02-18 03:00;CYXE 180300Z 00000KT 15SM FEW220 M22/M25 A3013 RMK CI1 SLP258

CYXE;2008-02-18 04:00;CYXE 180400Z 00000KT 15SM FEW220 M22/M25 A3013 RMK CI1 SLP257

CYXE;2008-02-18 05:00;CYXE 180500Z 23004KT 15SM SKC M24/M28 A3014 RMK SLP259

CYXE;2008-02-18 06:00;CYXE 180600Z 00000KT 15SM FEW220 M24/M27 A3014 RMK CI2 SLP262

CYXE;2008-02-18 07:00;CYXE 180700Z 00000KT 15SM FEW120 M24/M27 A3014 RMK AC2 SLP261

CYXE;2008-02-18 08:00;CYXE 180800Z 19003KT 15SM FEW060 FEW120 M24/M27 A3013 RMK SC1AC1 SLP259

CYXE;2008-02-18 09:00;CYXE 180900Z 18002KT 15SM FEW061 M25/M28 A3013 RMK SC1 SLP261

CYXE;2008-02-18 10:00;CYXE 181000Z 20003KT 15SM FEW060 M26/M30 A3014 RMK SC1 SLP263

CYXE;2008-02-18 11:00;CYXE 181100Z 17003KT 15SM FEW060 SCT120 M26/M30 A3013 RMK SC1AC2 SLP261

CYXE;2008-02-18 12:00;CYXE 181200Z 21003KT 15SM BKN061 OVC120 M25/M28 A3012 RMK SC6AC2 SLP256

CYXE;2008-02-18 13:00;CYXE 181300Z 17002KT 15SM OVC061 M23/M26 A3012 RMK SC8 SLP258

CYXE;2008-02-18 14:00;CYXE 181400Z 18003KT 15SM BKN061 M21/M25 A3012 RMK SC6 SLP257

CYXE;2008-02-18 15:00;CYXE 181500Z 16005KT 15SM OVC061 M21/M24 A3012 RMK SC8 OBS TAKEN +04 SLP255

CYXE;2008-02-18 16:00;CYXE 181600Z 18005KT 15SM OVC059 M20/M23 A3011 RMK SC8 SLP252

CYXE;2008-02-18 17:00;CYXE 181700Z 18005KT 15SM BKN059 OVC110 M18/M21 A3009 RMK SC7AC1 SLP248

CYXE;2008-02-18 18:00;CYXE 181800Z 18007KT 15SM FEW020 OVC059 M17/M22 A3008 RMK SC1SC7 SLP240

CYXE;2008-02-18 19:00;CYXE 181900Z 21007KT 15SM OVC059 M15/M20 A3006 RMK SC8 SLP234

CYXE;2008-02-18 20:00;CYXE 182000Z 21007KT 15SM OVC059 M14/M19 A3003 RMK SC8 SLP225

CYXE;2008-02-18 21:00;CYXE 182100Z 21008KT 15SM OVC059 M13/M16 A3000 RMK SC6 SLP210

CYXE;2008-02-18 22:00;CYXE 182200Z 23007KT 15SM OVC059 M11/M14 A2998 RMK SC6 SLP205

CYXE;2008-02-18 23:00;CYXE 182300Z 23006KT 15SM BKN057 M11/M13 A2998 RMK SC6 SLP203

CYXE;2008-02-19 00:00;CYXE 190000Z 22006KT 15SM BKN057 M11/M13 A2996 RMK SC6 SLP197

CYXE;2008-02-19 01:00;CYXE 190100Z 22005KT 15SM BKN042 M12/M14 A2995 RMK SC6 SLP193

CYXE;2008-02-19 01:13;CYXE 190113Z 21005KT 15SM -SN BKN042 M12/ RMK SC6

CYXE;2008-02-19 02:00;CYXE 190200Z 22007KT 15SM BKN047 BKN220 M12/M13 A2994 RMK SC5CI0 SLP188

CYXE;2008-02-19 03:00;CYXE 190300Z 24003KT 15SM SCT039 BKN220 M13/M13 A2994 RMK SC3CI0 SLP186

CYXE;2008-02-19 04:00;CYXE 190400Z 06007KT 15SM FEW220 M16/M17 A2993 RMK CI1 SLP185

CYXE;2008-02-19 05:00;CYXE 190500Z 05003KT 15SM SCT200 M17/M17 A2994 RMK CI1 SLP186

CYXE;2008-02-19 06:00;CYXE 190600Z 05008KT 15SM FEW012 FEW200 M18/M18 A2996 RMK SC1CI1 SLP194

CYXE;2008-02-19 06:50;CYXE 190650Z 06004KT 10SM -SN FEW003 OVC012 M18/ RMK SC1SC7

CYXE;2008-02-19 07:00;CYXE 190700Z 06002KT 8SM -SN FEW003 OVC012 M17/M18 A2997 RMK SC2SC6 SLP198

CYXE;2008-02-19 07:18;CYXE 190718Z 07002KT 8SM -SN BKN007 OVC012 M17/ RMK ST6SC2

CYXE;2008-02-19 07:45;CYXE 190745Z 03003KT 10SM FEW007 SCT012 BKN050 M16/ RMK ST2SC2SC3

CYXE;2008-02-19 08:00;CYXE 190800Z 04005KT 10SM FEW005 FEW012 BKN050 M17/M17 A2999 RMK ST2SC1SC4 SLP203

CYXE;2008-02-19 09:00;CYXE 190900Z 05009KT 10SM FEW220 M17/M18 A3001 RMK CI1 SLP209

CYXE;2008-02-19 10:00;CYXE 191000Z 04008KT 15SM FEW220 M19/M20 A3004 RMK CI1 SLP219

CYXE;2008-02-19 11:00;CYXE 191100Z 06009KT 15SM FEW050 FEW220 M20/M21 A3008 RMK SC1CI0 SLP230

CYXE;2008-02-19 12:00;CYXE 191200Z 06009KT 15SM FEW100 SCT220 M21/M22 A3011 RMK AC1CI1 SLP244

CYXE;2008-02-19 13:00;CYXE 191300Z 07008KT 15SM SCT140 M22/M23 A3012 RMK AC2 SLP250

CYXE;2008-02-19 14:00;CYXE 191400Z 06009KT 15SM FEW140 BKN220 M23/M24 A3016 RMK AC2CI2 SLP262

CYXE;2008-02-19 15:00;CYXE 191500Z 06010KT 15SM FEW140 BKN220 M23/M25 A3018 RMK AC2CI3 SLP273

CYXE;2008-02-19 16:00;CYXE 191600Z 07008KT 15SM SCT120 OVC220 M23/M25 A3021 RMK AS3CI4 SLP280

CYXE;2008-02-19 17:00;CYXE 191700Z 09010KT 15SM FEW120 OVC220 M22/M25 A3022 RMK AS2CS6 SLP286

CYXE;2008-02-19 18:00;CYXE 191800Z 11010KT 15SM OVC220 M22/M25 A3024 RMK CS7 SLP296

CYXE;2008-02-19 19:00;CYXE 191900Z 12007KT 15SM OVC220 M21/M28 A3026 RMK CS7 SLP300

CYXE;2008-02-19 20:00;CYXE 192000Z 12010KT 15SM OVC220 M21/M27 A3026 RMK CI6 OBS TAKEN +04 SLP302

CYXE;2008-02-19 21:00;CYXE 192100Z 11008KT 15SM SCT120 OVC220 M21/M27 A3026 RMK AS4CS4 SLP303

CYXE;2008-02-19 22:00;CYXE 192200Z 12009KT 15SM BKN120 OVC220 M21/M26 A3026 RMK AS6CS2 SLP301

CYXE;2008-02-19 23:00;CYXE 192300Z 12006KT 15SM BKN100 OVC220 M20/M27 A3027 RMK AC5CS2 SLP304

CYXE;2008-02-20 00:00;CYXE 200000Z 12010KT 15SM BKN100 BKN220 M22/M28 A3026 RMK AC5CI1 SLP306

CYXE;2008-02-20 01:00;CYXE 200100Z 12009KT 15SM SCT100 SCT220 M22/M28 A3026 RMK AC3CI0 SLP303

CYXE;2008-02-20 02:00;CYXE 200200Z 12008KT 15SM BKN095 BKN220 M22/M27 A3025 RMK AC5CI1 SLP302

CYXE;2008-02-20 03:00;CYXE 200300Z 13008KT 15SM BKN080 M22/M27 A3025 RMK AC6 SLP302

CYXE;2008-02-20 04:00;CYXE 200400Z 14008KT 15SM BKN090 M21/M27 A3023 RMK AC6 SLP297

CYXE;2008-02-20 05:00;CYXE 200500Z 14008KT 15SM FEW080 M22/M27 A3021 RMK AC2 SLP290

CYXE;2008-02-20 06:00;CYXE 200600Z 14007KT 15SM FEW086 M22/M27 A3021 RMK AC1 SLP289

CYXE;2008-02-20 07:00;CYXE 200700Z 15008KT 15SM FEW240 M21/M28 A3019 RMK CI1 SLP282

CYXE;2008-02-20 08:00;CYXE 200800Z 15012KT 15SM SCT120 M21/M28 A3017 RMK AC2 SLP273

CYXE;2008-02-20 09:00;CYXE 200900Z 16008KT 15SM OVC120 M21/M27 A3016 RMK AC6 SLP270

CYXE;2008-02-20 10:00;CYXE 201000Z 14004KT 15SM BKN099 M21/M27 A3016 RMK AC6 SLP269

CYXE;2008-02-20 11:00;CYXE 201100Z 13009KT 15SM FEW091 BKN240 M21/M27 A3012 RMK AC2CI2 SLP258

CYXE;2008-02-20 12:00;CYXE 201200Z 14008KT 15SM FEW091 SCT240 M21/M27 A3011 RMK AC2CI1 SLP252

CYXE;2008-02-20 13:00;CYXE 201300Z 16009KT 15SM BKN093 OVC240 M20/M26 A3008 RMK AC5CI1 SLP243

CYXE;2008-02-20 14:00;CYXE 201400Z 17012KT 15SM BKN091 OVC240 M20/M25 A3006 RMK AC5CI1 SLP237

CYXE;2008-02-20 15:00;CYXE 201500Z 17012KT 15SM BKN086 BKN280 M19/M25 A3006 RMK AC5CI0 SLP235

CYXE;2008-02-20 16:00;CYXE 201600Z 18008G15KT 15SM BKN083 M19/M25 A3007 RMK AC5 SLP239

CYXE;2008-02-20 17:00;CYXE 201700Z 18014KT 15SM FEW100 M18/M24 A3004 RMK AC2 SLP229

CYXE;2008-02-20 18:00;CYXE 201800Z 18011KT 15SM FEW100 M17/M23 A3002 RMK AC1 SLP220

CYXE;2008-02-20 19:00;CYXE 201900Z 17006KT 15SM FEW100 M16/M22 A3004 RMK AC1 SLP225

CYXE;2008-02-20 20:00;CYXE 202000Z 18008KT 15SM FEW280 M15/M21 A3001 RMK CI0 SLP217

CYXE;2008-02-20 21:00;CYXE 202100Z 19006KT 15SM FEW280 M14/M20 A3000 RMK CI0 SLP208

CYXE;2008-02-20 22:00;CYXE 202200Z 19007KT 15SM FEW280 M14/M20 A2999 RMK CI0 SLP204

CYXE;2008-02-20 23:00;CYXE 202300Z 20005KT 15SM SKC M14/M19 A2999 RMK SLP206

CYXE;2008-02-21 00:00;CYXE 210000Z 20007KT 15SM FEW020 FEW250 M14/M19 A2998 RMK SC1CI0 SLP203

CYXE;2008-02-21 01:00;CYXE 210100Z 19007KT 15SM FEW100 BKN250 M15/M19 A2996 RMK AC1CI0 SLP197

CYXE;2008-02-21 02:00;CYXE 210200Z 18008KT 15SM FEW100 BKN250 M16/M20 A2995 RMK AC1CI0 SLP191

CYXE;2008-02-21 03:00;CYXE 210300Z 19008KT 15SM FEW020 BKN250 M16/M20 A2991 RMK SC1CI0 SLP180

CYXE;2008-02-21 04:00;CYXE 210400Z 19008KT 15SM FEW020 SCT250 M17/M20 A2990 RMK SC1CI0 SLP177

CYXE;2008-02-21 05:00;CYXE 210500Z 22006KT 15SM FEW020 SCT250 M19/M23 A2993 RMK SC2CI0 SLP185

CYXE;2008-02-21 05:22;CYXE 210522Z 19004KT 15SM SCT007 BKN250 M19/ RMK SF3CI0

CYXE;2008-02-21 06:00;CYXE 210600Z 18005KT 15SM FEW007 BKN250 M19/M22 A2990 RMK SF1CI0 SLP176

CYXE;2008-02-21 07:00;CYXE 210700Z 21007KT 15SM FEW007 SCT250 M19/M21 A2988 RMK SF1CI0 SLP169

CYXE;2008-02-21 08:00;CYXE 210800Z 21006KT 15SM FEW007 BKN250 M18/M21 A2986 RMK SF1CI1 SLP163

CYXE;2008-02-21 09:00;CYXE 210900Z 22007KT 15SM FEW007 BKN250 M20/M23 A2986 RMK SF1CI1 SLP162

CYXE;2008-02-21 10:00;CYXE 211000Z 22007KT 15SM FEW007 BKN250 M18/M21 A2985 RMK SF1CI2 SLP157

CYXE;2008-02-21 11:00;CYXE 211100Z 22005KT 15SM BKN250 M19/M21 A2984 RMK CI1 SLP154

CYXE;2008-02-21 12:00;CYXE 211200Z 21005KT 15SM SCT250 M19/M22 A2983 RMK CI1 SLP151

CYXE;2008-02-21 13:00;CYXE 211300Z 22009KT 15SM FEW250 M19/M22 A2982 RMK CI1 SLP148

CYXE;2008-02-21 14:00;CYXE 211400Z 21005KT 6SM BR BKN250 M19/M22 A2981 RMK CI2 SLP144

CYXE;2008-02-21 15:00;CYXE 211500Z 21004KT 15SM FEW120 SCT280 M18/M21 A2983 RMK AC1CI0 SLP149

CYXE;2008-02-21 16:00;CYXE 211600Z 21006KT 15SM FEW120 FEW280 M16/M18 A2983 RMK AC1CI0 SLP150

CYXE;2008-02-21 17:00;CYXE 211700Z 23004KT 12SM SCT280 M14/M16 A2983 RMK CI1 BR CONTRAILS SLP150

CYXE;2008-02-21 18:00;CYXE 211800Z 23006KT 15SM BKN280 M12/M14 A2984 RMK CI1 CONTRAILS SLP152

CYXE;2008-02-21 19:00;CYXE 211900Z 23005KT 15SM BKN280 M09/M13 A2983 RMK CI1 CONTRAILS SLP149

CYXE;2008-02-21 20:00;CYXE 212000Z 23006KT 15SM BKN280 M08/M12 A2983 RMK CI1 CONTRAILS SLP149

CYXE;2008-02-21 21:00;CYXE 212100Z 24006KT 15SM BKN280 M08/M11 A2982 RMK CI1 CONTRAILS SLP144

CYXE;2008-02-21 22:00;CYXE 212200Z 27002KT 12SM SCT280 M06/M10 A2983 RMK CI1 BR SLP145

CYXE;2008-02-21 23:00;CYXE 212300Z 26003KT 10SM SCT280 M07/M10 A2983 RMK CI1 BR SLP145

CYXE;2008-02-22 00:00;CYXE 220000Z 00000KT 10SM SCT280 M07/M11 A2982 RMK CI1 BR SLP143

CYXE;2008-02-22 01:00;CYXE 220100Z 00000KT 8SM SCT280 M08/M11 A2983 RMK CI0 BR SLP144

CYXE;2008-02-22 02:00;CYXE 220200Z 16005KT 8SM FEW280 M10/M12 A2982 RMK CI0 BR SLP142

CYXE;2008-02-22 03:00;CYXE 220300Z 16005KT 8SM SKC M10/M11 A2982 RMK BR SLP142

CYXE;2008-02-22 04:00;CYXE 220400Z 18005KT 6SM BR FEW280 M11/M12 A2981 RMK CI0 SLP141

CYXE;2008-02-22 05:00;CYXE 220500Z 18006KT 4SM BR SKC M12/M13 A2981 RMK SLP141

CYXE;2008-02-22 06:00;CYXE 220600Z 19006KT 4SM BR SKC M12/M13 A2980 RMK SLP133

CYXE;2008-02-22 07:00;CYXE 220700Z 18008KT 4SM BR SKC M13/M13 A2979 RMK SLP131

CYXE;2008-02-22 08:00;CYXE 220800Z 18007KT 4SM BR SKC M13/M14 A2979 RMK SLP129

CYXE;2008-02-22 08:38;CYXE 220838Z 18008KT 3/4SM R09/P6000FT/N BR BKN001 M13/ RMK SF5 VIS NE 2 TOWER OBS

CYXE;2008-02-22 09:00;CYXE 220900Z 19006KT 1 1/2SM BR SCT008 M13/M14 A2978 RMK SF4 TOWER OBS SLP124

CYXE;2008-02-22 09:22;CYXE 220922Z 18007KT 3/4SM R09/P6000FT/N BR SKC M14/ RMK FG6 TOWER OBS

CYXE;2008-02-22 09:28;CYXE 220928Z 19005KT 1SM R09/P6000FT/N BR SKC M14/ RMK FG6 FROIN TOWER OBS

CYXE;2008-02-22 09:49;CYXE 220949Z 19008KT 2SM BR SKC M14/ RMK FG1 FROIN TOWER OBS

CYXE;2008-02-22 10:00;CYXE 221000Z 19008KT 2SM BR FEW003 M14/M15 A2977 RMK SF2 FROIN TOWER OBS SLP119

CYXE;2008-02-22 10:07;CYXE 221007Z 19008KT 3/4SM R09/P6000FT/N BR SKC M14/ RMK FG3 FROIN TOWER OBS

CYXE;2008-02-22 10:16;CYXE 221016Z 19007KT 1/2SM R09/P6000FT/U FZFG SKC M14/ RMK FG7 FROIN TOWER OBS

CYXE;2008-02-22 10:26;CYXE 221026Z 18006KT 1 1/2SM BR SCT003 M15/ RMK FG1SF3 FROIN TOWER OBS

CYXE;2008-02-22 11:00;CYXE 221100Z 18007KT 2SM BR FEW003 M15/M15 A2977 RMK SF2 FROIN TOWER OBS SLP120

CYXE;2008-02-22 12:00;CYXE 221200Z 18004KT 2SM BR FEW006 M16/M17 A2977 RMK SF2 FROIN TOWER OBS SLP123

CYXE;2008-02-22 12:16;CYXE 221216Z 19006KT 3SM BR FEW006 M16/ RMK SF2 FROIN

CYXE;2008-02-22 13:00;CYXE 221300Z 18002KT 3SM BR FEW006 M16/M17 A2977 RMK SF2 FROIN SLP124

CYXE;2008-02-22 14:00;CYXE 221400Z 19005KT 2SM BR SCT220 M17/M17 A2977 RMK CI2 FROIN SLP123

CYXE;2008-02-22 14:48;CYXE 221448Z 20003KT 8SM FEW280 M16/ RMK CI0

CYXE;2008-02-22 15:00;CYXE 221500Z 20005KT 6SM BR FEW280 M16/M17 A2978 RMK CI1 SLP127

CYXE;2008-02-22 16:00;CYXE 221600Z 22004KT 6SM BR FEW280 M15/M15 A2978 RMK CI1 SLP129

CYXE;2008-02-22 17:00;CYXE 221700Z 22006KT 6SM BR FEW280 M13/M14 A2979 RMK CI1 SLP131

CYXE;2008-02-22 18:00;CYXE 221800Z 22006KT 6SM BR FEW280 M11/M12 A2978 RMK CI1 SLP127

CYXE;2008-02-22 19:00;CYXE 221900Z 23005KT 8SM FEW280 M09/M10 A2978 RMK CI1 SLP126

CYXE;2008-02-22 20:00;CYXE 222000Z 22006KT 10SM FEW280 M07/M10 A2978 RMK CI1 SLP125

CYXE;2008-02-22 21:00;CYXE 222100Z 25005KT 10SM SCT280 M06/M09 A2977 RMK CI1 CONTRAILS SLP120

CYXE;2008-02-22 22:00;CYXE 222200Z 24005KT 10SM SCT280 M05/M08 A2977 RMK CI1 BR SLP121

CYXE;2008-02-22 23:00;CYXE 222300Z 24006KT 6SM BR SCT280 M05/M08 A2977 RMK CI1 SLP121

CYXE;2008-02-23 00:00;CYXE 230000Z 24007KT 6SM BR SCT280 M07/M09 A2978 RMK CI2 SLP125

CYXE;2008-02-23 01:00;CYXE 230100Z 22006KT 8SM SCT280 M10/M11 A2978 RMK CI1 BR SLP125

CYXE;2008-02-23 02:00;CYXE 230200Z 22005KT 8SM SCT280 M09/M10 A2979 RMK CI1 BR SLP128

CYXE;2008-02-23 03:00;CYXE 230300Z 21006KT 10SM FEW280 M10/M12 A2980 RMK CI1 SLP133

CYXE;2008-02-23 04:00;CYXE 230400Z 20006KT 12SM SKC M10/M11 A2981 RMK BR SLP136

CYXE;2008-02-23 05:00;CYXE 230500Z 21006KT 12SM SKC M12/M12 A2981 RMK BR SLP136

CYXE;2008-02-23 06:00;CYXE 230600Z 19005KT 15SM FEW015 M12/M12 A2981 RMK SF0 SLP135

CYXE;2008-02-23 07:00;CYXE 230700Z 19004KT 15SM SKC M13/M13 A2981 RMK SLP135

CYXE;2008-02-23 08:00;CYXE 230800Z 21005KT 15SM SKC M13/M14 A2981 RMK SLP137

CYXE;2008-02-23 09:00;CYXE 230900Z 19004KT 15SM SKC M14/M14 A2982 RMK SLP137

CYXE;2008-02-23 10:00;CYXE 231000Z 20005KT 15SM FEW015 M15/M16 A2981 RMK ST0 SLP135

CYXE;2008-02-23 11:00;CYXE 231100Z 19005KT 12SM SCT015 M15/M16 A2981 RMK ST0 SLP135

CYXE;2008-02-23 12:00;CYXE 231200Z 18005KT 12SM SCT015 SCT280 M15/M16 A2982 RMK ST0CI0 FROIN SLP139

CYXE;2008-02-23 13:00;CYXE 231300Z 19003KT 10SM FEW015 SCT280 M16/M17 A2983 RMK ST0CI0 BR SLP143

CYXE;2008-02-23 14:00;CYXE 231400Z 19004KT 15SM FEW015 FEW280 M16/M16 A2984 RMK ST0CI0 SLP144

CYXE;2008-02-23 15:00;CYXE 231500Z 20002KT 10SM FEW015 SCT280 M16/M17 A2985 RMK ST0CI0 SLP150

CYXE;2008-02-23 16:00;CYXE 231600Z 19004KT 10SM SCT280 M13/M14 A2985 RMK CI0 BR SLP152

CYXE;2008-02-23 17:00;CYXE 231700Z 23004KT 10SM SCT280 M11/M12 A2986 RMK CI0 BR SLP154

CYXE;2008-02-23 18:00;CYXE 231800Z 23005KT 10SM FEW160 SCT280 M10/M12 A2986 RMK AC0CI0 BR SLP152

CYXE;2008-02-23 19:00;CYXE 231900Z 24003KT 15SM BKN280 M07/M10 A2986 RMK CI1 SLP152

CYXE;2008-02-23 20:00;CYXE 232000Z 23005KT 15SM BKN280 M06/M09 A2986 RMK CI1 SLP150

CYXE;2008-02-23 21:00;CYXE 232100Z 22007KT 15SM BKN280 M04/M08 A2985 RMK CI1 SLP144

CYXE;2008-02-23 22:00;CYXE 232200Z 23005KT 15SM BKN280 M04/M08 A2985 RMK CI2 SLP144

CYXE;2008-02-23 23:00;CYXE 232300Z 23006KT 8SM OVC280 M06/M08 A2985 RMK CI4 BR SLP146

CYXE;2008-02-24 00:00;CYXE 240000Z 21006KT 10SM BKN280 M07/M10 A2986 RMK CI4 BR SLP151

CYXE;2008-02-24 01:00;CYXE 240100Z 23008KT 12SM BKN280 M08/M10 A2986 RMK CI4 BR SLP152

CYXE;2008-02-24 02:00;CYXE 240200Z 23007KT 12SM BKN280 M10/M11 A2987 RMK CI3 BR SLP155

CYXE;2008-02-24 03:00;CYXE 240300Z 23008KT 12SM SCT280 M11/M12 A2987 RMK CI2 BR SLP158

CYXE;2008-02-24 04:00;CYXE 240400Z 25008KT 15SM SCT280 M11/M12 A2987 RMK CI2 SLP158

CYXE;2008-02-24 05:00;CYXE 240500Z 28005KT 12SM SCT280 M11/M11 A2988 RMK CI2 BR SLP163

CYXE;2008-02-24 06:00;CYXE 240600Z 27003KT 15SM FEW280 M11/M12 A2989 RMK CI1 SLP162

CYXE;2008-02-24 07:00;CYXE 240700Z 31004KT 15SM FEW280 M12/M13 A2990 RMK CI1 SLP166

CYXE;2008-02-24 08:00;CYXE 240800Z 32005KT 15SM FEW160 M13/M14 A2991 RMK AC1 SLP168

CYXE;2008-02-24 09:00;CYXE 240900Z 33004KT 15SM SCT160 M14/M14 A2992 RMK AC1 SLP169

CYXE;2008-02-24 10:00;CYXE 241000Z 32008KT 12SM FEW160 M15/M15 A2993 RMK AC1 SLP173

CYXE;2008-02-24 11:00;CYXE 241100Z 32010KT 12SM FEW160 M15/M16 A2994 RMK AC1 SLP177

CYXE;2008-02-24 12:00;CYXE 241200Z 34008KT 15SM FEW160 M15/M16 A2995 RMK AC1 SLP183

CYXE;2008-02-24 13:00;CYXE 241300Z 32009KT 15SM FEW220 M15/M16 A2996 RMK CI1 SLP188

CYXE;2008-02-24 14:00;CYXE 241400Z 30004KT 15SM FEW220 M16/M16 A2998 RMK CI1 SLP193

CYXE;2008-02-24 15:00;CYXE 241500Z 31009KT 15SM FEW220 M16/M17 A2999 RMK CI1 SLP200

CYXE;2008-02-24 16:00;CYXE 241600Z 32009KT 15SM FEW220 M14/M15 A3000 RMK CI1 SLP205

CYXE;2008-02-24 17:00;CYXE 241700Z 33009KT 15SM FEW220 M10/M10 A3002 RMK CI1 SLP209

CYXE;2008-02-24 18:00;CYXE 241800Z 35009KT 15SM SCT220 M09/M10 A3001 RMK CI1 SLP204

CYXE;2008-02-24 19:00;CYXE 241900Z 01009KT 15SM FEW220 M06/M08 A3001 RMK CI1 SLP204

CYXE;2008-02-24 20:00;CYXE 242000Z 06008KT 15SM FEW220 M05/M07 A3001 RMK CI0 SLP204

CYXE;2008-02-24 21:00;CYXE 242100Z 06007KT 15SM FEW015 BKN120 BKN220 M05/M07 A3001 RMK SC2AC2CI0 SLP203

CYXE;2008-02-24 21:40;CYXE 242140Z 03004KT 15SM BKN014 BKN120 M05/ RMK SC6AC2

CYXE;2008-02-24 22:00;CYXE 242200Z 03007KT 15SM BKN012 M04/M06 A3001 RMK SC7 SLP203

CYXE;2008-02-24 23:00;CYXE 242300Z 29003KT 15SM OVC012 M04/M06 A3003 RMK SC8 SLP209

CYXE;2008-02-25 00:00;CYXE 250000Z CCA 28004KT 15SM OVC014 M05/M06 A3004 RMK SC8 SLP213

CYXE;2008-02-25 00:26;CYXE 250026Z 31004KT 15SM OVC019 M05/ RMK SC8

CYXE;2008-02-25 01:00;CYXE 250100Z 28003KT 15SM OVC019 M05/M06 A3006 RMK SC8 SLP218

CYXE;2008-02-25 02:00;CYXE 250200Z 01003KT 15SM OVC019 M05/M06 A3007 RMK SC8 SLP221

CYXE;2008-02-25 03:00;CYXE 250300Z 33003KT 15SM OVC019 M05/M06 A3009 RMK SC8 SLP230

CYXE;2008-02-25 04:00;CYXE 250400Z 01006KT 15SM OVC017 M04/M07 A3009 RMK SC8 SLP232

CYXE;2008-02-25 05:00;CYXE 250500Z 36006KT 15SM OVC017 M05/M07 A3011 RMK SC8 SLP236

CYXE;2008-02-25 06:00;CYXE 250600Z 01003KT 15SM OVC017 M05/M07 A3011 RMK SC8 SLP234

CYXE;2008-02-25 07:00;CYXE 250700Z 00000KT 15SM OVC017 M05/M07 A3013 RMK SC8 SLP240

CYXE;2008-02-25 08:00;CYXE 250800Z 00000KT 15SM OVC019 M05/M08 A3015 RMK SC8 SLP246

CYXE;2008-02-25 09:00;CYXE 250900Z 32003KT 15SM OVC019 M05/M08 A3017 RMK SC8 SLP251

CYXE;2008-02-25 10:00;CYXE 251000Z 29005KT 15SM OVC017 M06/M08 A3018 RMK SC8 SLP253

CYXE;2008-02-25 11:00;CYXE 251100Z 28005KT 15SM OVC017 M06/M08 A3020 RMK SC8 SLP259

CYXE;2008-02-25 12:00;CYXE 251200Z 30005KT 15SM OVC017 M06/M08 A3021 RMK SC8 SLP265

CYXE;2008-02-25 13:00;CYXE 251300Z 28008KT 15SM BKN013 M06/M09 A3022 RMK SC7 SLP270

CYXE;2008-02-25 14:00;CYXE 251400Z 30008KT 15SM OVC011 M07/M09 A3024 RMK SC8 SLP274

CYXE;2008-02-25 15:00;CYXE 251500Z 29009KT 15SM BKN010 OVC120 M07/M08 A3025 RMK SC7AC1 SLP279

CYXE;2008-02-25 15:30;CYXE 251530Z 30008KT 10SM OVC009 M07/ RMK SC8

CYXE;2008-02-25 16:00;CYXE 251600Z 30010KT 10SM OVC008 M07/M08 A3027 RMK SC8 SLP286

CYXE;2008-02-25 16:46;CYXE 251646Z 28011KT 10SM OVC005 M08/ RMK SC8

CYXE;2008-02-25 17:00;CYXE 251700Z 30010KT 10SM OVC005 M08/M08 A3028 RMK SC8 SLP289

CYXE;2008-02-25 17:15;CYXE 251715Z 30009KT 10SM OVC004 M08/ RMK SC8

CYXE;2008-02-25 18:00;CYXE 251800Z 28009KT 10SM BKN004 OVC100 M07/M08 A3029 RMK SC6AC2 SLP294

CYXE;2008-02-25 18:23;CYXE 251823Z 30007KT 10SM BKN005 OVC100 M07/ RMK SC6AC2

CYXE;2008-02-25 19:00;CYXE 251900Z 29007KT 10SM BKN006 BKN100 M06/M07 A3030 RMK SC6AC1 SLP298

CYXE;2008-02-25 19:38;CYXE 251938Z 30008KT 15SM FEW007 SCT030 BKN080 M06/ RMK SC2SC2AC2

CYXE;2008-02-25 20:00;CYXE 252000Z 29007KT 15SM FEW007 SCT030 BKN080 M06/M07 A3030 RMK SC2SC2AC2 SLP297

CYXE;2008-02-25 21:00;CYXE 252100Z 25009KT 15SM FEW070 M05/M07 A3030 RMK AC2 SLP295

CYXE;2008-02-25 22:00;CYXE 252200Z 25008KT 15SM FEW070 M05/M07 A3031 RMK AC1 SLP299

CYXE;2008-02-25 23:00;CYXE 252300Z 24007KT 15SM FEW100 M05/M07 A3032 RMK AC1 SLP302

CYXE;2008-02-26 00:00;CYXE 260000Z 25007KT 15SM FEW100 M06/M08 A3033 RMK AC1 SLP308

CYXE;2008-02-26 01:00;CYXE 260100Z 25010KT 15SM FEW100 FEW250 M08/M09 A3033 RMK AC1CI0 SLP306

CYXE;2008-02-26 02:00;CYXE 260200Z 22005KT 15SM FEW100 M11/M12 A3033 RMK AC1 SLP308

CYXE;2008-02-26 03:00;CYXE 260300Z 22005KT 15SM FEW100 M11/M11 A3034 RMK AC1 SLP313

CYXE;2008-02-26 04:00;CYXE 260400Z 25003KT 15SM FEW100 M12/M13 A3034 RMK AC1 SLP316

CYXE;2008-02-26 05:00;CYXE 260500Z 22005KT 15SM BKN065 M13/M13 A3035 RMK SC5 SLP317

CYXE;2008-02-26 06:00;CYXE 260600Z 22007KT 15SM BKN061 M12/M12 A3034 RMK SC6 SLP315

CYXE;2008-02-26 07:00;CYXE 260700Z 22004KT 15SM FEW060 M12/M12 A3034 RMK SC2 SLP314

CYXE;2008-02-26 08:00;CYXE 260800Z 22006KT 15SM SCT057 M13/M13 A3032 RMK SC3 SLP309

CYXE;2008-02-26 09:00;CYXE 260900Z 20006KT 15SM FEW015 FEW060 M13/M14 A3031 RMK SC1SC1 SLP305

CYXE;2008-02-26 10:00;CYXE 261000Z 21006KT 15SM FEW015 M15/M16 A3030 RMK SC2 FROIN SLP301

CYXE;2008-02-26 11:00;CYXE 261100Z 22007KT 15SM FEW015 M16/M16 A3029 RMK SC2 FROIN SLP296

CYXE;2008-02-26 12:00;CYXE 261200Z 18002KT 15SM FEW015 FEW080 SCT280 M15/M16 A3027 RMK SC2AC1CI0 SLP294

CYXE;2008-02-26 13:00;CYXE 261300Z 22004KT 12SM BKN073 M13/M14 A3026 RMK AC7 SLP290

CYXE;2008-02-26 14:00;CYXE 261400Z 19004KT 12SM SCT073 BKN250 M13/M13 A3025 RMK AC2CI2 SLP285

CYXE;2008-02-26 15:00;CYXE 261500Z 16002KT 5SM BR SCT075 OVC250 M13/M14 A3024 RMK AC4CI2 SLP285

CYXE;2008-02-26 16:00;CYXE 261600Z 21005KT 5SM BR SCT075 OVC250 M11/M12 A3023 RMK AC3CI3 SLP280

CYXE;2008-02-26 17:00;CYXE 261700Z 22004KT 10SM SCT075 BKN250 M11/M11 A3024 RMK AC3CI2 SLP283

CYXE;2008-02-26 18:00;CYXE 261800Z 22005KT 10SM FEW075 BKN250 M09/M09 A3022 RMK AC2CI2 SLP276

CYXE;2008-02-26 19:00;CYXE 261900Z 23006KT 10SM BKN070 BKN250 M08/M09 A3022 RMK AC5CI1 SLP275

CYXE;2008-02-26 20:00;CYXE 262000Z 23005KT 7SM FEW045 BKN057 OVC100 M07/M09 A3021 RMK SC2SC4AC1 SLP272

CYXE;2008-02-26 21:00;CYXE 262100Z 22005KT 10SM FEW050 BKN080 BKN250 M06/M08 A3019 RMK SC2AC4CI1 SLP262

CYXE;2008-02-26 22:00;CYXE 262200Z 22006KT 10SM FEW065 SCT250 M05/M08 A3017 RMK SC2CI1 SLP257

CYXE;2008-02-26 23:00;CYXE 262300Z 25007KT 15SM BKN250 M05/M08 A3018 RMK CI2 SLP259

CYXE;2008-02-27 00:00;CYXE 270000Z 21007KT 8SM SCT250 M07/M09 A3017 RMK CI1 BR SLP257

CYXE;2008-02-27 01:00;CYXE 270100Z 20005KT 8SM BKN250 M08/M09 A3015 RMK CI1 BR SLP252

CYXE;2008-02-27 02:00;CYXE 270200Z 21005KT 6SM BR BKN250 M09/M10 A3016 RMK CI2 SLP255

CYXE;2008-02-27 03:00;CYXE 270300Z 21005KT 4SM BR BKN250 M10/M10 A3015 RMK CI1 SLP252

CYXE;2008-02-27 04:00;CYXE 270400Z 17002KT 4SM BR OVC180 M10/M11 A3014 RMK AC4 SLP249

CYXE;2008-02-27 05:00;CYXE 270500Z 20005KT 4SM BR OVC150 M10/M11 A3013 RMK AC8 SLP247

CYXE;2008-02-27 06:00;CYXE 270600Z 21004KT 8SM BKN110 M10/M11 A3013 RMK AC6 BR SLP242

CYXE;2008-02-27 07:00;CYXE 270700Z 18003KT 10SM OVC120 M10/M11 A3012 RMK AC7 BR SLP241

CYXE;2008-02-27 08:00;CYXE 270800Z 18004KT 10SM BKN120 M11/M11 A3012 RMK AC4 BR SLP238

CYXE;2008-02-27 09:00;CYXE 270900Z 19004KT 10SM SCT120 BKN250 M12/M12 A3010 RMK AC2CI2 BR SLP231

CYXE;2008-02-27 10:00;CYXE 271000Z 20004KT 8SM FEW120 OVC250 M12/M12 A3008 RMK AC2CI4 BR SLP227

CYXE;2008-02-27 11:00;CYXE 271100Z 14003KT 8SM FEW120 OVC250 M12/M13 A3007 RMK AC2CS4 BR SLP221

CYXE;2008-02-27 12:00;CYXE 271200Z 17003KT 6SM BR BKN110 OVC250 M12/M12 A3005 RMK AS6CI2 SLP214

CYXE;2008-02-27 13:00;CYXE 271300Z 17003KT 6SM BR OVC110 M12/M12 A3003 RMK AC8 SLP210

CYXE;2008-02-27 14:00;CYXE 271400Z 12002KT 6SM BR BKN085 OVC110 M11/M12 A3003 RMK AC6AC2 SLP209

CYXE;2008-02-27 15:00;CYXE 271500Z 08002KT 6SM BR OVC080 M10/M11 A3002 RMK AC6 SLP205

CYXE;2008-02-27 16:00;CYXE 271600Z 13004KT 5SM BR FEW070 OVC110 M09/M09 A3000 RMK AC2AC6 SLP199

CYXE;2008-02-27 17:00;CYXE 271700Z 14003KT 5SM BR FEW070 OVC110 M06/M08 A2998 RMK AC1AC6 SLP193

CYXE;2008-02-27 18:00;CYXE 271800Z 12005KT 8SM BKN110 M05/M07 A2995 RMK AC6 BR SLP179

CYXE;2008-02-27 19:00;CYXE 271900Z 11005KT 8SM BKN110 M04/M07 A2993 RMK AC6 BR SLP172

CYXE;2008-02-27 20:00;CYXE 272000Z 08003KT 8SM OVC091 M03/M06 A2991 RMK AC8 BR SLP165

CYXE;2008-02-27 21:00;CYXE 272100Z 11006KT 8SM OVC090 M03/M06 A2988 RMK AC8 BR SLP155

CYXE;2008-02-27 22:00;CYXE 272200Z 11005KT 4SM BR SCT062 OVC095 M03/M06 A2986 RMK SC4AC3 SLP147

CYXE;2008-02-27 23:00;CYXE 272300Z 11006KT 5SM BR FEW057 OVC068 M03/M06 A2985 RMK SC1AS8 SLP143

CYXE;2008-02-28 00:00;CYXE 280000Z 10008KT 4SM BR BKN055 OVC090 M04/M06 A2982 RMK SC5AS2 SLP135

CYXE;2008-02-28 01:00;CYXE 280100Z 12007KT 4SM BR SCT059 OVC085 M05/M06 A2980 RMK SC3AC5 SLP128

CYXE;2008-02-28 02:00;CYXE 280200Z 13007KT 4SM BR OVC070 M04/M06 A2977 RMK AC8 SLP120

CYXE;2008-02-28 03:00;CYXE 280300Z 13007KT 4SM BR OVC059 M05/M06 A2976 RMK SC8 SLP112

CYXE;2008-02-28 04:00;CYXE 280400Z 13006KT 4SM BR OVC043 M04/M06 A2975 RMK SC8 SLP109

CYXE;2008-02-28 05:00;CYXE 280500Z 14005KT 4SM BR BKN038 OVC110 M05/M06 A2974 RMK SC6AC2 SLP107

CYXE;2008-02-28 06:00;CYXE 280600Z 15006KT 5SM BR SCT053 OVC110 M05/M07 A2971 RMK SC4AC3 SLP094

CYXE;2008-02-28 07:00;CYXE 280700Z 19002KT 4SM BR FEW051 BKN074 M06/M08 A2972 RMK SC2AC3 SLP095

CYXE;2008-02-28 08:00;CYXE 280800Z 21005KT 3SM BR BKN044 M07/M07 A2971 RMK SC7 SLP094

CYXE;2008-02-28 09:00;CYXE 280900Z 21004KT 5SM BR OVC078 M06/M07 A2969 RMK AC8 SLP087

CYXE;2008-02-28 10:00;CYXE 281000Z 22007KT 4SM BR OVC041 M06/M06 A2969 RMK SC8 SLP086

CYXE;2008-02-28 11:00;CYXE 281100Z 22009KT 4SM BR BKN044 M04/M05 A2967 RMK SC7 SLP079

CYXE;2008-02-28 12:00;CYXE 281200Z 24007KT 8SM BKN062 M05/M06 A2968 RMK SC6 BR SLP081

CYXE;2008-02-28 13:00;CYXE 281300Z 27012KT 10SM BKN062 M02/M04 A2968 RMK SC5 BR SLP083

CYXE;2008-02-28 14:00;CYXE 281400Z 30015KT 12SM FEW062 SCT083 BKN120 M01/M05 A2970 RMK SC1AC2AC2 SLP087

CYXE;2008-02-28 15:00;CYXE 281500Z 30016KT 15SM SCT083 M01/M05 A2970 RMK AC3 SLP087

CYXE;2008-02-28 16:00;CYXE 281600Z 30018KT 15SM FEW090 M01/M05 A2971 RMK AC2 SLP090

CYXE;2008-02-28 17:00;CYXE 281700Z 29024KT 15SM FEW090 00/M05 A2972 RMK AC2 SLP094

CYXE;2008-02-28 18:00;CYXE 281800Z 30024G31KT 15SM FEW016 FEW220 00/M04 A2974 RMK SC1CI0 SLP100

CYXE;2008-02-28 19:00;CYXE 281900Z 30023G28KT 15SM FEW030 00/M04 A2975 RMK SC2 SLP103

CYXE;2008-02-28 20:00;CYXE 282000Z 30023G28KT 15SM BKN030 01/M04 A2975 RMK SC5 SLP104

CYXE;2008-02-28 21:00;CYXE 282100Z 30023KT 15SM BKN029 00/M04 A2977 RMK SC6 SLP109

CYXE;2008-02-28 22:00;CYXE 282200Z 32020KT 15SM FEW023 M00/M05 A2979 RMK SC2 SLP117

CYXE;2008-02-28 23:00;CYXE 282300Z 30021KT 15SM FEW240 M01/M07 A2982 RMK CI1 SLP128

CYXE;2008-02-29 00:00;CYXE 290000Z 31013KT 15SM FEW023 FEW230 M02/M07 A2986 RMK CU1CI1 SLP142

CYXE;2008-02-29 01:00;CYXE 290100Z 30010KT 15SM FEW100 FEW230 M04/M08 A2988 RMK AC1CI0 SLP149

CYXE;2008-02-29 02:00;CYXE 290200Z 30013KT 15SM FEW100 M04/M07 A2989 RMK AC1 SLP151

CYXE;2008-02-29 03:00;CYXE 290300Z 30009KT 15SM BKN086 M05/M09 A2990 RMK AC3 SLP157

CYXE;2008-02-29 04:00;CYXE 290400Z 33005KT 15SM BKN086 M06/M08 A2994 RMK AC5 SLP169

CYXE;2008-02-29 05:00;CYXE 290500Z 35008KT 15SM BKN086 M08/M12 A2998 RMK AC6 SLP182

CYXE;2008-02-29 06:00;CYXE 290600Z 32003KT 15SM FEW090 M11/M14 A3001 RMK AC1 SLP195

CYXE;2008-02-29 07:00;CYXE 290700Z 35009KT 15SM SKC M13/M16 A3002 RMK SLP200

CYXE;2008-02-29 08:00;CYXE 290800Z 27006KT 15SM SKC M16/M18 A3006 RMK SLP211

CYXE;2008-02-29 09:00;CYXE 290900Z 31005KT 15SM SKC M14/M17 A3006 RMK SLP217

CYXE;2008-02-29 10:00;CYXE 291000Z 32006KT 15SM SKC M16/M18 A3006 RMK SLP217

CYXE;2008-02-29 11:00;CYXE 291100Z 02009KT 15SM SKC M15/M17 A3005 RMK SLP212

CYXE;2008-02-29 12:00;CYXE 291200Z 09003KT 15SM SKC M17/M18 A3003 RMK SLP210

CYXE;2008-02-29 13:00;CYXE 291300Z 18005KT 15SM FEW110 SCT220 M17/M18 A3005 RMK AC1CI1 SLP214

CYXE;2008-02-29 14:00;CYXE 291400Z 17005KT 15SM FEW110 SCT250 M17/M18 A3003 RMK AC1CI1 SLP210

CYXE;2008-02-29 15:00;CYXE 291500Z 16006KT 15SM FEW110 BKN250 M15/M17 A2999 RMK AC1CI2 SLP198

CYXE;2008-02-29 16:00;CYXE 291600Z 16008KT 15SM FEW120 SCT250 M13/M16 A2997 RMK AC2CI1 SLP191

CYXE;2008-02-29 17:00;CYXE 291700Z 17006KT 15SM SCT093 BKN250 M10/M14 A2996 RMK AC3CI1 SLP187

CYXE;2008-02-29 18:00;CYXE 291800Z 16009KT 15SM FEW091 BKN250 M09/M14 A2994 RMK AC2CI1 SLP177

CYXE;2008-02-29 19:00;CYXE 291900Z 14010KT 15SM BKN091 BKN250 M07/M12 A2991 RMK AC5CI1 SLP168

CYXE;2008-02-29 20:00;CYXE 292000Z 13012KT 15SM BKN110 BKN250 M06/M11 A2985 RMK AC6CI1 SLP150

CYXE;2008-02-29 21:00;CYXE 292100Z 13010KT 15SM SCT110 OVC250 M05/M10 A2979 RMK AC2CI2 SLP127

CYXE;2008-02-29 22:00;CYXE 292200Z 15008KT 15SM SCT110 BKN250 M04/M08 A2979 RMK AC2CI2 SLP125

CYXE;2008-02-29 23:00;CYXE 292300Z 14007KT 15SM FEW110 BKN250 M04/M08 A2976 RMK AC2CI2 SLP116

CYXE;2008-03-01 01:00;CYXE 010100Z 13007KT 15SM FEW110 BKN250 M06/M08 A2971 RMK AC2CI2 SLP100

CYXE;2008-03-01 02:00;CYXE 010200Z 11006KT 15SM SCT110 OVC250 M06/M09 A2970 RMK AC3CI2 SLP097

CYXE;2008-03-01 03:00;CYXE 010300Z 10007KT 15SM FEW110 OVC250 M07/M09 A2968 RMK AC2CI2 SLP091

CYXE;2008-03-01 04:00;CYXE 010400Z 12007KT 15SM SCT110 OVC250 M07/M08 A2967 RMK AC3CI2 SLP088

CYXE;2008-03-01 05:00;CYXE 010500Z 11008KT 15SM FEW110 SCT250 M06/M08 A2964 RMK AC1CI2 SLP078

CYXE;2008-03-01 06:00;CYXE 010600Z 12010KT 15SM SCT250 M07/M08 A2963 RMK CI1 SLP067

CYXE;2008-03-01 07:00;CYXE 010700Z 11006KT 15SM SCT250 M07/M09 A2961 RMK CI2 SLP062

CYXE;2008-03-01 08:00;CYXE 010800Z 13004KT 15SM FEW250 M08/M09 A2959 RMK CI1 SLP056

CYXE;2008-03-01 09:00;CYXE 010900Z 12006KT 15SM FEW250 M09/M10 A2956 RMK CI2 SLP045

CYXE;2008-03-01 10:00;CYXE 011000Z 10008KT 15SM SCT250 M08/M10 A2953 RMK CI2 SLP034

CYXE;2008-03-01 11:00;CYXE 011100Z 12005KT 15SM SCT250 M08/M10 A2951 RMK CI2 SLP027

CYXE;2008-03-01 12:00;CYXE 011200Z 12007KT 15SM SCT250 M09/M10 A2948 RMK CI1 SLP017

CYXE;2008-03-01 13:00;CYXE 011300Z 10006KT 15SM FEW100 BKN250 M08/M09 A2945 RMK AC1CI2 SLP007

CYXE;2008-03-01 14:00;CYXE 011400Z 12008KT 15SM SCT100 OVC250 M07/M09 A2941 RMK AS3CI3 SLP992

CYXE;2008-03-01 15:00;CYXE 011500Z 10003KT 15SM BKN100 OVC250 M06/M08 A2941 RMK AS5CI3 SLP990

CYXE;2008-03-01 16:00;CYXE 011600Z 15004KT 15SM BKN100 OVC250 M04/M06 A2940 RMK AS6CI2 SLP987

CYXE;2008-03-01 17:00;CYXE 011700Z 18008KT 15SM BKN100 BKN250 M01/M04 A2937 RMK AC5CI2 SLP977

CYXE;2008-03-01 18:00;CYXE 011800Z 19010KT 15SM BKN100 BKN250 02/M03 A2934 RMK AC5CI1 SLP962

CYXE;2008-03-01 19:00;CYXE 011900Z 21012KT 15SM FEW090 SCT250 04/M01 A2933 RMK AC2CI1 SLP960

CYXE;2008-03-01 20:00;CYXE 012000Z 24012KT 15SM FEW090 SCT250 04/M00 A2934 RMK AC2CI2 SLP962

CYXE;2008-03-01 20:50;CYXE 012050Z 31021KT 15SM FEW090 SCT250 M01/ RMK AC2CI2

CYXE;2008-03-01 21:00;CYXE 012100Z 32021G26KT 15SM FEW090 SCT250 M01/M04 A2936 RMK AC2CI2 SLP971

CYXE;2008-03-01 21:34;CYXE 012134Z 29023KT 15SM BKN013 BKN100 M03/ RMK SC5AC2

CYXE;2008-03-01 22:00;CYXE 012200Z 30020G27KT 10SM BKN011 OVC100 M04/M05 A2941 RMK SC7AC1 SLP987

CYXE;2008-03-01 23:00;CYXE 012300Z 31020KT 10SM OVC011 M04/M05 A2945 RMK SC8 SLP000

CYXE;2008-03-02 00:00;CYXE 020000Z 30018G25KT 10SM OVC013 M03/M05 A2949 RMK SC8 SLP019

CYXE;2008-03-02 01:00;CYXE 020100Z 31018G25KT 15SM BKN019 M03/M05 A2953 RMK SC7 SLP030

CYXE;2008-03-02 02:00;CYXE 020200Z 32014G21KT 15SM BKN021 M02/M05 A2959 RMK SC6 SLP049

CYXE;2008-03-02 03:00;CYXE 020300Z 30009KT 15SM FEW024 M03/M06 A2961 RMK SC2 SLP058

CYXE;2008-03-02 04:00;CYXE 020400Z 29011KT 15SM FEW025 M05/M07 A2961 RMK SC2 SLP057

CYXE;2008-03-02 05:00;CYXE 020500Z 29010KT 15SM SKC M04/M07 A2965 RMK SLP070

CYXE;2008-03-02 06:00;CYXE 020600Z 30017KT 15SM SKC M04/M07 A2968 RMK SLP079

CYXE;2008-03-02 07:00;CYXE 020700Z 32024KT 15SM SKC M06/M09 A2972 RMK SLP091

CYXE;2008-03-02 08:00;CYXE 020800Z 31013KT 15SM FEW028 M07/M11 A2977 RMK SC1 SLP106

CYXE;2008-03-02 08:54;CYXE 020854Z 30016G21KT 15SM -SN OVC029 M08/ RMK SC8

CYXE;2008-03-02 09:00;CYXE 020900Z 30016KT 15SM -SN OVC029 M08/M11 A2980 RMK SC8 SLP122

CYXE;2008-03-02 10:00;CYXE 021000Z 32022G32KT 15SM -SN BKN021 BKN250 M09/M13 A2984 RMK SC5CI2 SLP135

CYXE;2008-03-02 11:00;CYXE 021100Z 30020G25KT 15SM SCT017 SCT250 M11/M13 A2987 RMK SC2CI1 SLP146

CYXE;2008-03-02 12:00;CYXE 021200Z 31019KT 15SM FEW017 SCT250 M13/M16 A2994 RMK SC1CI0 SLP175

CYXE;2008-03-02 13:00;CYXE 021300Z 31018KT 15SM FEW020 FEW130 SCT250 M14/M18 A2999 RMK SC1AC1CI1 SLP190

CYXE;2008-03-02 14:00;CYXE 021400Z CCA 30020G25KT 15SM FEW130 SCT250 M16/M19 A3003 RMK AC1CI2 SLP203

CYXE;2008-03-02 15:00;CYXE 021500Z 30023G28KT 15SM SCT250 M17/M20 A3006 RMK CI3 SLP219

CYXE;2008-03-02 16:00;CYXE 021600Z 31023KT 15SM FEW250 M18/M21 A3011 RMK CI1 SLP235

CYXE;2008-03-02 17:00;CYXE 021700Z 31021G26KT 15SM FEW250 M18/M22 A3016 RMK CI1 SLP251

CYXE;2008-03-02 18:00;CYXE 021800Z 31023KT 15SM FEW250 M18/M24 A3018 RMK CI1 SLP262

CYXE;2008-03-02 19:00;CYXE 021900Z 30022G27KT 15SM FEW250 M17/M23 A3020 RMK CI1 SLP267

CYXE;2008-03-02 20:00;CYXE 022000Z 30018G26KT 15SM FEW250 M17/M22 A3021 RMK CI1 SLP271

CYXE;2008-03-02 21:00;CYXE 022100Z 30020KT 15SM SKC M17/M23 A3022 RMK SLP278

CYXE;2008-03-02 22:00;CYXE 022200Z 30019G24KT 15SM SKC M17/M23 A3024 RMK SLP283

CYXE;2008-03-02 23:00;CYXE 022300Z 31017KT 15SM SKC M17/M24 A3025 RMK SLP286

CYXE;2008-03-03 00:00;CYXE 030000Z 30012KT 15SM SKC M18/M24 A3025 RMK SLP293

CYXE;2008-03-03 01:00;CYXE 030100Z 30013KT 15SM SKC M19/M24 A3026 RMK SLP295

CYXE;2008-03-03 02:00;CYXE 030200Z 28010KT 15SM SKC M20/M25 A3026 RMK SLP294

CYXE;2008-03-03 03:00;CYXE 030300Z 28008KT 15SM SKC M21/M26 A3024 RMK SLP295

CYXE;2008-03-03 04:00;CYXE 030400Z 25004KT 15SM SKC M22/M27 A3023 RMK SLP291

CYXE;2008-03-03 05:00;CYXE 030500Z 27005KT 15SM SKC M22/M27 A3022 RMK SLP287

CYXE;2008-03-03 06:00;CYXE 030600Z 23004KT 15SM OVC080 M22/M26 A3021 RMK AC7 SLP285

CYXE;2008-03-03 07:00;CYXE 030700Z 23005KT 15SM OVC055 M20/M24 A3020 RMK SC8 SLP282

CYXE;2008-03-03 08:00;CYXE 030800Z 18003KT 15SM BKN040 OVC090 M19/M24 A3016 RMK SC6AC2 SLP268

CYXE;2008-03-03 08:27;CYXE 030827Z 20003KT 15SM -SN OVC045 M18/ RMK SC8

CYXE;2008-03-03 09:00;CYXE 030900Z 22007KT 15SM -SN BKN045 BKN100 M20/M24 A3014 RMK SC5AC2 SLP259

CYXE;2008-03-03 09:13;CYXE 030913Z 19007KT 15SM BKN045 BKN075 M19/ RMK SC5AC2

CYXE;2008-03-03 10:00;CYXE 031000Z 17004KT 15SM BKN035 OVC070 M19/M24 A3011 RMK SC6AC2 SLP250

CYXE;2008-03-03 10:31;CYXE 031031Z 14002KT 12SM -SN OVC033 M19/ RMK SC8

CYXE;2008-03-03 11:00;CYXE 031100Z 13003KT 12SM -SN OVC033 M19/M22 A3009 RMK SC8 SLP242

CYXE;2008-03-03 12:00;CYXE 031200Z 14006KT 8SM -SN OVC050 M18/M22 A3006 RMK SC8 SLP231

CYXE;2008-03-03 13:00;CYXE 031300Z 12008KT 10SM -SN BKN040 OVC090 M18/M22 A3003 RMK SC6AC2 SLP222

CYXE;2008-03-03 13:38;CYXE 031338Z 10010KT 15SM BKN068 OVC100 M18/ RMK AC6AC2

CYXE;2008-03-03 14:00;CYXE 031400Z 10010KT 15SM OVC072 M18/M22 A3000 RMK AC6 SLP212

CYXE;2008-03-03 15:00;CYXE 031500Z 11010KT 15SM OVC081 M18/M22 A2999 RMK AC6 SLP209

CYXE;2008-03-03 16:00;CYXE 031600Z 11013KT 15SM OVC081 M17/M21 A2996 RMK AC6 SLP200

CYXE;2008-03-03 17:00;CYXE 031700Z 11013G19KT 15SM OVC083 M16/M21 A2993 RMK AC6 SLP190

CYXE;2008-03-03 18:00;CYXE 031800Z 12015KT 15SM BKN072 M16/M21 A2989 RMK AC6 SLP173

CYXE;2008-03-03 19:00;CYXE 031900Z 12011G18KT 15SM OVC071 M15/M20 A2986 RMK AC8 SLP165

CYXE;2008-03-03 20:00;CYXE 032000Z 12012G17KT 15SM OVC063 M14/M19 A2983 RMK SC8 SLP155

CYXE;2008-03-03 21:00;CYXE 032100Z 10011KT 15SM OVC067 M13/M18 A2981 RMK AS8 SLP141

CYXE;2008-03-03 22:00;CYXE 032200Z 11012KT 15SM BKN046 OVC067 M12/M17 A2977 RMK SC5AC2 SLP131

CYXE;2008-03-03 23:00;CYXE 032300Z 12011KT 15SM FEW050 BKN093 OVC220 M12/M16 A2974 RMK SC2AC2CS2 SLP121

CYXE;2008-03-04 00:00;CYXE 040000Z 12012KT 15SM BKN037 OVC093 M12/M16 A2973 RMK SC6AC2 SLP113

CYXE;2008-03-04 01:00;CYXE 040100Z 12011KT 15SM BKN052 OVC220 M12/M15 A2972 RMK SC6CI1 SLP109

CYXE;2008-03-04 02:00;CYXE 040200Z 12009KT 10SM -SN OVC035 M12/M15 A2971 RMK SC8 SLP106

CYXE;2008-03-04 03:00;CYXE 040300Z 12008KT 6SM -SN BKN035 M12/M14 A2970 RMK SC7 SLP103

CYXE;2008-03-04 03:42;CYXE 040342Z 12006KT 15SM SCT035 M13/ RMK SC2

CYXE;2008-03-04 04:00;CYXE 040400Z 12008KT 15SM FEW034 M13/M15 A2969 RMK SC2 SLP100

CYXE;2008-03-04 05:00;CYXE 040500Z 12007KT 15SM BKN063 M13/M15 A2968 RMK SC6 SLP098

CYXE;2008-03-04 05:52;CYXE 040552Z 11003KT 15SM -SN OVC035 M13/ RMK SC7

CYXE;2008-03-04 06:00;CYXE 040600Z 12002KT 15SM -SN OVC035 M13/M15 A2969 RMK SC8 SLP099

CYXE;2008-03-04 07:00;CYXE 040700Z 04004KT 15SM -SN OVC065 M12/M15 A2971 RMK SC8 SLP103

CYXE;2008-03-04 08:00;CYXE 040800Z 04007KT 12SM -SN BKN020 OVC070 M14/M15 A2973 RMK SC6AC2 SLP112

CYXE;2008-03-04 09:00;CYXE 040900Z 02008KT 8SM -SN BKN020 OVC060 M14/M15 A2974 RMK SC6SC2 SLP116

CYXE;2008-03-04 10:00;CYXE 041000Z 01010KT 12SM -SN OVC022 M15/M16 A2977 RMK SC8 SLP124

CYXE;2008-03-04 11:00;CYXE 041100Z 36007KT 8SM -SN OVC025 M15/M16 A2979 RMK SC8 SLP130

CYXE;2008-03-04 12:00;CYXE 041200Z 34007KT 6SM -SN OVC025 M15/M16 A2983 RMK SC8 SLP146

CYXE;2008-03-04 13:00;CYXE 041300Z 36010KT 6SM -SN OVC020 M15/M16 A2986 RMK SC8 SLP155

CYXE;2008-03-04 14:00;CYXE 041400Z 36012KT 10SM -SN OVC015 M15/M16 A2990 RMK SC8 SLP167

CYXE;2008-03-04 14:44;CYXE 041444Z 36012KT 2 1/2SM -SN OVC017 M15/ RMK SC8

CYXE;2008-03-04 15:00;CYXE 041500Z 36012KT 2SM -SN OVC019 M14/M16 A2995 RMK SC8 SLP185

CYXE;2008-03-04 15:42;CYXE 041542Z 36016KT 4SM -SN BKN019 M14/ RMK SC6

CYXE;2008-03-04 16:00;CYXE 041600Z 36015G20KT 5SM -SN OVC021 M14/M16 A2998 RMK SC7 SLP195

CYXE;2008-03-04 16:26;CYXE 041626Z 36012G17KT 15SM SCT021 OVC210 M14/ RMK SC3CI1

CYXE;2008-03-04 17:00;CYXE 041700Z 35011KT 15SM OVC210 M14/M16 A3000 RMK CI4 SLP203

CYXE;2008-03-04 18:00;CYXE 041800Z 36010KT 15SM SCT015 BKN210 M13/M16 A3002 RMK SC3CI0 SLP211

CYXE;2008-03-04 19:00;CYXE 041900Z 34012KT 15SM FEW020 M13/M17 A3004 RMK SC2 SLP216

CYXE;2008-03-04 20:00;CYXE 042000Z 34011KT 15SM SKC M14/M18 A3006 RMK SLP223

CYXE;2008-03-04 21:00;CYXE 042100Z 32014KT 15SM SKC M14/M17 A3006 RMK SLP226

CYXE;2008-03-04 22:00;CYXE 042200Z 30012KT 15SM FEW120 M13/M17 A3008 RMK AC1 SLP231

CYXE;2008-03-04 23:00;CYXE 042300Z 30013KT 15SM SKC M14/M17 A3008 RMK SLP232

CYXE;2008-03-05 00:00;CYXE 050000Z 30011KT 15SM SKC M15/M18 A3009 RMK SLP238

CYXE;2008-03-05 01:00;CYXE 050100Z 30008KT 15SM SKC M16/M19 A3010 RMK SLP240

CYXE;2008-03-05 02:00;CYXE 050200Z 27007KT 15SM SKC M17/M21 A3010 RMK SLP240

CYXE;2008-03-05 03:00;CYXE 050300Z 25006KT 15SM SKC M18/M22 A3011 RMK SLP244

CYXE;2008-03-05 04:00;CYXE 050400Z 22006KT 15SM SKC M20/M24 A3011 RMK SLP245

CYXE;2008-03-05 05:00;CYXE 050500Z 22006KT 15SM FEW220 M21/M25 A3010 RMK CI0 SLP243

CYXE;2008-03-05 06:00;CYXE 050600Z 22006KT 15SM BKN075 M19/M22 A3010 RMK AC6 SLP241

CYXE;2008-03-05 07:00;CYXE 050700Z 20004KT 15SM OVC060 M17/M20 A3009 RMK SC7 SLP238

CYXE;2008-03-05 08:00;CYXE 050800Z 18005KT 15SM OVC055 M16/M20 A3007 RMK SC8 SLP233

CYXE;2008-03-05 09:00;CYXE 050900Z 21005KT 15SM OVC040 M16/M19 A3008 RMK SC8 SLP233

CYXE;2008-03-05 09:10;CYXE 050910Z 20003KT 10SM -SN OVC035 M16/ RMK SC8

CYXE;2008-03-05 10:00;CYXE 051000Z 20002KT 15SM -SN BKN040 OVC075 M16/M19 A3007 RMK SC5AC2 SLP229

CYXE;2008-03-05 10:43;CYXE 051043Z 00000KT 15SM SCT030 BKN080 M17/ RMK SC3AC2

CYXE;2008-03-05 11:00;CYXE 051100Z 27003KT 15SM FEW030 BKN070 M18/M20 A3007 RMK SC2AC5 SLP231

CYXE;2008-03-05 12:00;CYXE 051200Z 24004KT 15SM FEW050 SCT080 M19/M21 A3008 RMK SC1AC2 SLP235

CYXE;2008-03-05 13:00;CYXE 051300Z 30004KT 15SM FEW050 M19/M22 A3009 RMK SC1 SLP238

CYXE;2008-03-05 14:00;CYXE 051400Z 32006KT 15SM SCT060 M21/M24 A3010 RMK SC2 SLP243

CYXE;2008-03-05 15:00;CYXE 051500Z 28005KT 15SM BKN050 M20/M23 A3012 RMK SC4 SLP252

CYXE;2008-03-05 16:00;CYXE 051600Z 00000KT 15SM BKN045 M17/M19 A3013 RMK SC4 SLP257

CYXE;2008-03-05 17:00;CYXE 051700Z 34002KT 10SM -SN BKN040 M16/M18 A3014 RMK SC6 SLP259

CYXE;2008-03-05 18:00;CYXE 051800Z 07004KT 6SM -SN OVC040 M14/M17 A3014 RMK SC6 SLP256

CYXE;2008-03-05 19:00;CYXE 051900Z 03005KT 8SM -SN OVC030 M13/M17 A3014 RMK SC7 SLP257

CYXE;2008-03-05 19:52;CYXE 051952Z 01005KT 15SM BKN040 M13/ RMK SC6

CYXE;2008-03-05 20:00;CYXE 052000Z 36004KT 15SM BKN040 M13/M17 A3014 RMK SC4 SLP255

CYXE;2008-03-05 21:00;CYXE 052100Z 35005KT 15SM FEW040 M13/M17 A3013 RMK SC1 SLP251

CYXE;2008-03-05 22:00;CYXE 052200Z 34004KT 15SM FEW040 M13/M18 A3013 RMK SC1 SLP250

CYXE;2008-03-05 23:00;CYXE 052300Z 33005KT 15SM FEW025 M13/M17 A3014 RMK SC1 SLP252

CYXE;2008-03-06 00:00;CYXE 060000Z 36003KT 15SM FEW025 M13/M18 A3014 RMK SC1 SLP255

CYXE;2008-03-06 01:00;CYXE 060100Z 03004KT 15SM FEW090 FEW250 M16/M20 A3015 RMK AC1CI0 SLP258

CYXE;2008-03-06 02:00;CYXE 060200Z 01006KT 15SM FEW090 FEW250 M19/M22 A3018 RMK AC2CI0 SLP269

CYXE;2008-03-06 03:00;CYXE 060300Z 35007KT 15SM SKC M20/M24 A3019 RMK SLP279

CYXE;2008-03-06 04:00;CYXE 060400Z 34005KT 15SM SKC M21/M24 A3020 RMK SLP281

CYXE;2008-03-06 05:00;CYXE 060500Z 33006KT 15SM SKC M22/M28 A3021 RMK SLP284

CYXE;2008-03-06 06:00;CYXE 060600Z 01002KT 15SM SKC M23/M28 A3021 RMK SLP282

CYXE;2008-03-06 07:00;CYXE 060700Z 01005KT 15SM SKC M24/M30 A3022 RMK SLP287

CYXE;2008-03-06 08:00;CYXE 060800Z 34005KT 15SM SKC M26/M31 A3023 RMK SLP290

CYXE;2008-03-06 09:00;CYXE 060900Z 29004KT 15SM SKC M27/M32 A3025 RMK SLP298

CYXE;2008-03-06 10:00;CYXE 061000Z 31004KT 15SM SKC M26/M31 A3026 RMK SLP301

CYXE;2008-03-06 11:00;CYXE 061100Z 32004KT 15SM SKC M27/M32 A3026 RMK SLP303

CYXE;2008-03-06 12:00;CYXE 061200Z 00000KT 15SM SKC M28/M32 A3027 RMK SLP306

CYXE;2008-03-06 13:00;CYXE 061300Z 35002KT 15SM SKC M29/M33 A3028 RMK SLP311

CYXE;2008-03-06 14:00;CYXE 061400Z 34003KT 15SM FEW250 M29/M33 A3029 RMK CI0 SLP314

CYXE;2008-03-06 15:00;CYXE 061500Z 03002KT 15SM SKC M27/M31 A3031 RMK SLP325

CYXE;2008-03-06 16:00;CYXE 061600Z 35002KT 15SM SKC M27/M31 A3032 RMK SLP330

CYXE;2008-03-06 17:00;CYXE 061700Z 00000KT 15SM FEW220 M23/M28 A3033 RMK CI0 SLP332

CYXE;2008-03-06 18:00;CYXE 061800Z 26004KT 15SM FEW220 M21/M27 A3032 RMK CI1 SLP327

CYXE;2008-03-06 19:00;CYXE 061900Z 24005KT 15SM FEW220 M19/M26 A3033 RMK CI1 SLP328

CYXE;2008-03-06 20:00;CYXE 062000Z 24007KT 15SM FEW220 M18/M25 A3032 RMK CI1 SLP326

CYXE;2008-03-06 21:00;CYXE 062100Z 23008KT 15SM FEW220 M17/M24 A3031 RMK CI0 SLP323

CYXE;2008-03-06 22:00;CYXE 062200Z 23006KT 15SM FEW220 M17/M24 A3030 RMK CI1 SLP320

CYXE;2008-03-06 23:00;CYXE 062300Z 21006KT 15SM FEW220 M15/M24 A3030 RMK CI0 SLP318

CYXE;2008-03-07 00:00;CYXE 070000Z 19006KT 15SM FEW220 M16/M24 A3029 RMK CI0 SLP314

CYXE;2008-03-07 01:00;CYXE 070100Z 18010KT 15SM FEW120 SCT220 M17/M26 A3026 RMK AC2CI0 SLP304

CYXE;2008-03-07 02:00;CYXE 070200Z 18009KT 15SM FEW120 SCT220 M19/M25 A3024 RMK AC2CI1 SLP299

CYXE;2008-03-07 03:00;CYXE 070300Z 18008KT 15SM SCT120 BKN220 M19/M25 A3022 RMK AC3CI1 SLP293

CYXE;2008-03-07 04:00;CYXE 070400Z 18008KT 15SM SCT120 BKN220 M18/M24 A3019 RMK AC3CI1 SLP283

CYXE;2008-03-07 05:00;CYXE 070500Z 20008KT 15SM SCT120 BKN220 M18/M25 A3019 RMK AC4CI1 SLP282

CYXE;2008-03-07 06:00;CYXE 070600Z 17010KT 15SM BKN085 OVC220 M17/M23 A3016 RMK AC5CI2 SLP265

CYXE;2008-03-07 07:00;CYXE 070700Z 16011KT 15SM BKN085 OVC250 M16/M22 A3011 RMK AC6CI2 SLP250

CYXE;2008-03-07 08:00;CYXE 070800Z 17011KT 15SM OVC085 M15/M21 A3009 RMK AC8 SLP243

CYXE;2008-03-07 09:00;CYXE 070900Z 17012KT 15SM BKN250 M14/M20 A3006 RMK CI2 SLP227

CYXE;2008-03-07 10:00;CYXE 071000Z 19010KT 15SM FEW120 OVC250 M14/M20 A3002 RMK AC1CI3 SLP214

CYXE;2008-03-07 11:00;CYXE 071100Z 17013KT 15SM SCT120 OVC250 M13/M18 A2995 RMK AC3CI2 PRESFR SLP192

CYXE;2008-03-07 12:00;CYXE 071200Z 19013KT 15SM SCT120 OVC250 M13/M17 A2992 RMK AC3CI2 SLP178

CYXE;2008-03-07 13:00;CYXE 071300Z 19012KT 15SM BKN120 OVC250 M12/M15 A2987 RMK AC5CI2 SLP162

CYXE;2008-03-07 14:00;CYXE 071400Z 19011KT 15SM SCT120 OVC250 M11/M20 A2983 RMK AC4CI2 SLP150

CYXE;2008-03-07 15:00;CYXE 071500Z 21012KT 15SM BKN120 OVC250 M09/M11 A2981 RMK AC5CI2 SLP140

CYXE;2008-03-07 16:00;CYXE 071600Z 23012KT 15SM BKN085 OVC120 M07/M09 A2978 RMK AC6AC2 SLP131

CYXE;2008-03-07 17:00;CYXE 071700Z 23011KT 15SM BKN058 OVC085 M07/M09 A2977 RMK SC5AC3 SLP126

CYXE;2008-03-07 18:00;CYXE 071800Z 23013KT 15SM FEW058 SCT085 BKN140 M05/M07 A2974 RMK SC2AC2AC1 SLP112

CYXE;2008-03-07 19:00;CYXE 071900Z 25007KT 15SM FEW060 BKN096 BKN140 M02/M05 A2973 RMK SC2AC3AC0 SLP108

CYXE;2008-03-07 20:00;CYXE 072000Z 30013KT 15SM FEW060 FEW100 01/M03 A2971 RMK SC1AC2 SLP101

CYXE;2008-03-07 21:00;CYXE 072100Z 31014G19KT 15SM FEW060 FEW100 01/M03 A2971 RMK SC1AC1 SLP095

CYXE;2008-03-07 22:00;CYXE 072200Z 30012KT 15SM FEW060 FEW100 02/M03 A2971 RMK SC1AC1 SLP095

CYXE;2008-03-07 23:00;CYXE 072300Z 31013KT 15SM SCT042 03/M02 A2973 RMK SC3 SLP103

CYXE;2008-03-08 00:00;CYXE 080000Z 30011KT 15SM FEW080 02/M01 A2974 RMK AC1 SLP104

CYXE;2008-03-08 01:00;CYXE 080100Z 30010KT 15SM FEW080 01/M02 A2976 RMK AC1 SLP109

CYXE;2008-03-08 02:00;CYXE 080200Z 30010KT 15SM FEW080 00/M02 A2978 RMK AC0 SLP117

CYXE;2008-03-08 03:00;CYXE 080300Z 31010KT 15SM SKC M01/M03 A2979 RMK SLP122

CYXE;2008-03-08 04:00;CYXE 080400Z 31011KT 15SM SKC M02/M04 A2982 RMK SLP130

CYXE;2008-03-08 05:00;CYXE 080500Z 31009KT 15SM SKC M03/M05 A2985 RMK SLP140

CYXE;2008-03-08 06:00;CYXE 080600Z 30009KT 15SM SKC M06/M08 A2986 RMK SLP146

CYXE;2008-03-08 07:00;CYXE 080700Z 30010KT 15SM SKC M05/M07 A2987 RMK SLP148

CYXE;2008-03-08 08:00;CYXE 080800Z 31010KT 15SM SKC M06/M08 A2989 RMK SLP153

CYXE;2008-03-08 09:00;CYXE 080900Z 31010KT 15SM SKC M06/M09 A2990 RMK SLP155

CYXE;2008-03-08 10:00;CYXE 081000Z 32010KT 15SM SKC M09/M11 A2990 RMK SLP154

CYXE;2008-03-08 11:00;CYXE 081100Z 33007KT 15SM SKC M10/M11 A2991 RMK SLP159

CYXE;2008-03-08 12:00;CYXE 081200Z 32009KT 15SM SKC M12/M13 A2993 RMK SLP168

CYXE;2008-03-08 13:00;CYXE 081300Z 04004KT 15SM SKC M13/M13 A2994 RMK SLP171

CYXE;2008-03-08 14:00;CYXE 081400Z 34005KT 15SM FEW250 M12/M13 A2995 RMK CI1 SLP173

CYXE;2008-03-08 15:00;CYXE 081500Z 28007KT 15SM FEW250 M13/M14 A2996 RMK CI0 SLP182

CYXE;2008-03-08 16:00;CYXE 081600Z 32006KT 15SM FEW250 M08/M11 A2998 RMK CI0 SLP187

CYXE;2008-03-08 17:00;CYXE 081700Z 31006KT 15SM SCT280 M06/M09 A3000 RMK CI0 SLP193

CYXE;2008-03-08 18:00;CYXE 081800Z 32005KT 15SM FEW280 M04/M07 A3001 RMK CI1 SLP196

CYXE;2008-03-08 19:00;CYXE 081900Z 32003KT 15SM FEW280 M03/M07 A3002 RMK CI1 SLP199

CYXE;2008-03-08 20:00;CYXE 082000Z 28003KT 15SM FEW280 M01/M05 A3001 RMK CI0 SLP197

CYXE;2008-03-08 21:00;CYXE 082100Z 33003KT 15SM FEW280 M01/M06 A3001 RMK CI0 SLP194

CYXE;2008-03-08 22:00;CYXE 082200Z 23005KT 15SM SCT280 00/M04 A3001 RMK CI2 CONTRAILS SLP195

CYXE;2008-03-08 23:00;CYXE 082300Z 23007KT 15SM SCT280 00/M03 A3001 RMK CI1 CONTRAILS SLP195

CYXE;2008-03-09 00:00;CYXE 090000Z 22006KT 15SM SCT280 M01/M04 A3001 RMK CI1 SLP199

CYXE;2008-03-09 01:00;CYXE 090100Z 23007KT 15SM SCT250 M02/M04 A3002 RMK CI1 SLP202

CYXE;2008-03-09 02:00;CYXE 090200Z 21007KT 15SM FEW250 M04/M06 A3003 RMK CI1 SLP203

CYXE;2008-03-09 03:00;CYXE 090300Z 22007KT 15SM FEW250 M06/M07 A3003 RMK CI0 SLP207

CYXE;2008-03-09 04:00;CYXE 090400Z 21007KT 15SM SKC M06/M07 A3003 RMK SLP207

CYXE;2008-03-09 05:00;CYXE 090500Z 22007KT 15SM SKC M07/M07 A3002 RMK BR SLP206

CYXE;2008-03-09 06:00;CYXE 090600Z 22008KT 15SM FEW015 FEW220 M06/M07 A3003 RMK SC1CI0 SLP204

CYXE;2008-03-09 07:00;CYXE 090700Z 21006KT 15SM FEW220 M06/M07 A3003 RMK CI1 SLP203

CYXE;2008-03-09 08:00;CYXE 090800Z 19006KT 15SM FEW080 M07/M08 A3003 RMK AC1 SLP202

CYXE;2008-03-09 09:00;CYXE 090900Z CCA 18006KT 15SM FEW080 M07/M08 A3003 RMK AC1 SLP202

CYXE;2008-03-09 10:00;CYXE 091000Z 19007KT 15SM FEW080 M08/M09 A3003 RMK AC1 SLP201

CYXE;2008-03-09 11:00;CYXE 091100Z 20006KT 15SM FEW220 M09/M10 A3004 RMK CI2 SLP204

CYXE;2008-03-09 12:00;CYXE 091200Z 19006KT 15SM BKN140 M09/M10 A3005 RMK AC5 SLP208

CYXE;2008-03-09 13:00;CYXE 091300Z 20006KT 15SM BKN140 M08/M09 A3005 RMK AC5 SLP210

CYXE;2008-03-09 14:00;CYXE 091400Z 20006KT 15SM FEW140 M09/M10 A3006 RMK AC2 SLP212

CYXE;2008-03-09 15:00;CYXE 091500Z 22007KT 15SM FEW100 M08/M09 A3006 RMK AC1 SLP216

CYXE;2008-03-09 16:00;CYXE 091600Z 23004KT 15SM FEW250 M04/M06 A3007 RMK CI0 SLP217

CYXE;2008-03-09 17:00;CYXE 091700Z 23006KT 15SM SKC M01/M04 A3007 RMK SLP218

CYXE;2008-03-09 18:00;CYXE 091800Z 22007KT 12SM SKC 01/M02 A3008 RMK BR SLP216

CYXE;2008-03-09 19:00;CYXE 091900Z 22008KT 12SM SKC 01/M02 A3008 RMK BR SLP216

CYXE;2008-03-09 20:00;CYXE 092000Z 23006KT 12SM SKC 02/M01 A3008 RMK BR SLP216

CYXE;2008-03-09 21:00;CYXE 092100Z 23007KT 15SM SKC 03/M01 A3007 RMK SLP213

CYXE;2008-03-09 22:00;CYXE 092200Z 22008KT 15SM SKC 03/M00 A3006 RMK SLP211

CYXE;2008-03-09 23:00;CYXE 092300Z 22008KT 12SM SKC 03/M00 A3006 RMK BR SLP209

CYXE;2008-03-10 00:00;CYXE 100000Z 21008KT 12SM SKC 02/M00 A3005 RMK BR SLP207

CYXE;2008-03-10 01:00;CYXE 100100Z 21007KT 10SM SKC 01/M01 A3003 RMK BR SLP203

CYXE;2008-03-10 02:00;CYXE 100200Z 21008KT 10SM SKC 01/M01 A3003 RMK BR SLP203

CYXE;2008-03-10 03:00;CYXE 100300Z 20006KT 10SM SKC M00/M02 A3003 RMK SLP200

CYXE;2008-03-10 04:00;CYXE 100400Z 18006KT 10SM SKC M01/M03 A3001 RMK BR SLP196

CYXE;2008-03-10 05:00;CYXE 100500Z 18005KT 8SM SKC M02/M03 A3000 RMK BR SLP193

CYXE;2008-03-10 06:00;CYXE 100600Z 17007KT 15SM SKC M02/M03 A2999 RMK SLP182

CYXE;2008-03-10 07:00;CYXE 100700Z 20006KT 15SM SKC M03/M04 A2999 RMK SLP183

CYXE;2008-03-10 08:00;CYXE 100800Z 19006KT 15SM SKC M03/M04 A2998 RMK SLP179

CYXE;2008-03-10 09:00;CYXE 100900Z 19007KT 15SM SKC M04/M05 A2997 RMK SLP177

CYXE;2008-03-10 10:00;CYXE 101000Z 20007KT 15SM SKC M04/M05 A2996 RMK SLP172

CYXE;2008-03-10 11:00;CYXE 101100Z 23009KT 15SM SKC M05/M06 A2996 RMK SLP172

CYXE;2008-03-10 12:00;CYXE 101200Z 22009KT 15SM SKC M05/M06 A2995 RMK SLP171

CYXE;2008-03-10 13:00;CYXE 101300Z 23010KT 15SM FEW100 M06/M07 A2995 RMK AC2 SLP170

CYXE;2008-03-10 14:00;CYXE 101400Z 23008KT 15SM SCT100 BKN250 M05/M06 A2995 RMK AC3CI1 SLP171

CYXE;2008-03-10 15:00;CYXE 101500Z 24008KT 15SM FEW120 BKN250 M04/M06 A2996 RMK AC1CI3 SLP176

CYXE;2008-03-10 16:00;CYXE 101600Z 25006KT 15SM SCT250 M02/M04 A2997 RMK CI1 SLP179

CYXE;2008-03-10 17:00;CYXE 101700Z 27008KT 15SM FEW250 02/M02 A2998 RMK CI0 SLP183

CYXE;2008-03-10 18:00;CYXE 101800Z 29013KT 15SM FEW250 03/M02 A2999 RMK CI1 SLP182

CYXE;2008-03-10 19:00;CYXE 101900Z 29011KT 15SM FEW250 04/M01 A2998 RMK CI1 SLP179

CYXE;2008-03-10 20:00;CYXE 102000Z 29012KT 15SM BKN250 04/M01 A2996 RMK CI2 SLP174

CYXE;2008-03-10 21:00;CYXE 102100Z 28013KT 15SM BKN250 05/M01 A2996 RMK CI2 SLP172

CYXE;2008-03-10 22:00;CYXE 102200Z 26012KT 15SM BKN250 04/M00 A2997 RMK CI3 SLP174

CYXE;2008-03-10 23:00;CYXE 102300Z 28008KT 15SM OVC250 04/M00 A2995 RMK CI3 SLP169

CYXE;2008-03-11 00:00;CYXE 110000Z 26006KT 15SM BKN250 04/M00 A2995 RMK CI2 SLP170

CYXE;2008-03-11 01:00;CYXE 110100Z 23007KT 15SM FEW120 SCT250 01/M01 A2995 RMK AC1CI1 SLP171

CYXE;2008-03-11 02:00;CYXE 110200Z 23009KT 15SM SCT250 00/M01 A2995 RMK CI2 SLP169

CYXE;2008-03-11 03:00;CYXE 110300Z 23007KT 15SM FEW250 M01/M02 A2994 RMK CI1 SLP167

CYXE;2008-03-11 04:00;CYXE 110400Z 24004KT 15SM SKC M02/M03 A2993 RMK SLP166

CYXE;2008-03-11 05:00;CYXE 110500Z 21005KT 15SM SKC M02/M03 A2993 RMK SLP166

CYXE;2008-03-11 06:00;CYXE 110600Z 19005KT 15SM SKC M02/M03 A2993 RMK SLP161

CYXE;2008-03-11 07:00;CYXE 110700Z 18003KT 10SM SKC M03/M03 A2993 RMK BR SLP163

CYXE;2008-03-11 08:00;CYXE 110800Z 18004KT 15SM FEW120 M03/M03 A2993 RMK AC1 SLP161

CYXE;2008-03-11 09:00;CYXE 110900Z 18004KT 15SM FEW250 M04/M04 A2991 RMK CI0 SLP154

CYXE;2008-03-11 10:00;CYXE 111000Z 19003KT 15SM FEW015 BKN120 M03/M04 A2990 RMK SC1AC4 SLP150

CYXE;2008-03-11 11:00;CYXE 111100Z 18003KT 15SM FEW015 BKN120 M03/M04 A2989 RMK SC1AC6 SLP147

CYXE;2008-03-11 12:00;CYXE 111200Z 18005KT 15SM BKN120 M02/M03 A2986 RMK AC6 SLP138

CYXE;2008-03-11 13:00;CYXE 111300Z 15004KT 15SM SCT096 OVC120 M01/M03 A2986 RMK AC4AC3 SLP135

CYXE;2008-03-11 14:00;CYXE 111400Z 15003KT 15SM BKN094 BKN120 M02/M03 A2985 RMK AC5AC2 SLP134

CYXE;2008-03-11 15:00;CYXE 111500Z 14005KT 15SM OVC088 01/M02 A2984 RMK AC7 SLP131

CYXE;2008-03-11 16:00;CYXE 111600Z 16007KT 15SM BKN088 BKN120 01/M02 A2983 RMK AC6AC1 SLP128

CYXE;2008-03-11 17:00;CYXE 111700Z 12005KT 15SM BKN090 OVC120 02/M01 A2981 RMK AC6AC1 SLP121

CYXE;2008-03-11 18:00;CYXE 111800Z 15009KT 15SM BKN080 OVC120 03/M01 A2979 RMK AC6AC2 SLP113

CYXE;2008-03-11 19:00;CYXE 111900Z 14010KT 15SM BKN085 OVC120 03/M01 A2975 RMK AC7AC1 SLP101

CYXE;2008-03-11 20:00;CYXE 112000Z 14011KT 15SM SCT085 BKN120 OVC250 04/M01 A2971 RMK AC4AC1CI0 SLP089

CYXE;2008-03-11 21:00;CYXE 112100Z 13011KT 15SM SCT085 OVC120 04/M01 A2968 RMK AC3AS3 SLP076

CYXE;2008-03-11 22:00;CYXE 112200Z 14010KT 15SM SCT080 OVC120 04/M01 A2965 RMK AC3AS3 SLP066

CYXE;2008-03-11 23:00;CYXE 112300Z 16009KT 15SM FEW070 SCT080 OVC120 04/M01 A2963 RMK AC2AC2AS2 SLP058

CYXE;2008-03-12 00:00;CYXE 120000Z 14008KT 15SM BKN080 BKN120 03/M00 A2959 RMK AC5AC1 SLP043

CYXE;2008-03-12 01:00;CYXE 120100Z 14008KT 15SM BKN089 BKN250 02/M00 A2955 RMK AC5CI0 SLP032

CYXE;2008-03-12 02:00;CYXE 120200Z 13005KT 15SM BKN080 BKN250 02/00 A2953 RMK AC6CI0 SLP024

CYXE;2008-03-12 03:00;CYXE 120300Z 14005KT 15SM SCT085 BKN250 01/00 A2949 RMK AC4CI0 SLP008

CYXE;2008-03-12 04:00;CYXE 120400Z 16006KT 15SM SCT085 BKN250 01/M00 A2946 RMK AC4CI0 SLP998

CYXE;2008-03-12 05:00;CYXE 120500Z 32004KT 12SM BKN110 M00/M00 A2946 RMK AC5 BR SLP999

CYXE;2008-03-12 06:00;CYXE 120600Z 31006KT 8SM BKN110 M00/M00 A2945 RMK AC5 BR SLP995

CYXE;2008-03-12 07:00;CYXE 120700Z 32009KT 8SM BKN110 M01/M01 A2946 RMK AC6 BR SLP999

CYXE;2008-03-12 08:00;CYXE 120800Z 32011KT 12SM BKN110 M00/M01 A2948 RMK AC5 BR SLP004

CYXE;2008-03-12 09:00;CYXE 120900Z 32013KT 12SM OVC070 00/M01 A2949 RMK AC8 BR SLP007

CYXE;2008-03-12 10:00;CYXE 121000Z 31012KT 12SM -SHRA BKN032 OVC070 00/M00 A2950 RMK SC6AC2 SLP012

CYXE;2008-03-12 10:43;CYXE 121043Z 30011KT 12SM OVC041 01/ RMK SC8 BR

CYXE;2008-03-12 11:00;CYXE 121100Z 30011KT 12SM SCT041 OVC070 00/M01 A2952 RMK SC3AC5 BR SLP017

CYXE;2008-03-12 12:00;CYXE 121200Z 29010KT 12SM SCT070 BKN100 M00/M01 A2954 RMK AC3AC1 SLP025

CYXE;2008-03-12 13:00;CYXE 121300Z 30010KT 12SM BKN070 00/M01 A2954 RMK AC3 BR SLP027

CYXE;2008-03-12 14:00;CYXE 121400Z 29010KT 12SM BKN120 00/M01 A2954 RMK AC5 SLP027

CYXE;2008-03-12 15:00;CYXE 121500Z 29012G17KT 15SM SCT160 01/M01 A2955 RMK AC2 SLP028

CYXE;2008-03-12 16:00;CYXE 121600Z 29015KT 15SM FEW160 FEW280 02/M01 A2955 RMK AC1CI1 SLP029

CYXE;2008-03-12 17:00;CYXE 121700Z 30013KT 15SM FEW280 03/M01 A2955 RMK CI1 SLP030

CYXE;2008-03-12 18:00;CYXE 121800Z 29013KT 15SM SCT280 04/M01 A2955 RMK CI1 SLP030

CYXE;2008-03-12 19:00;CYXE 121900Z 29015KT 15SM SCT280 04/M01 A2955 RMK CI1 SLP031

CYXE;2008-03-12 20:00;CYXE 122000Z 30013KT 15SM SCT160 BKN280 04/M00 A2956 RMK AC2CI1 SLP032

CYXE;2008-03-12 21:00;CYXE 122100Z 30015KT 15SM FEW020 SCT160 BKN280 05/M00 A2956 RMK CF1AC2CI1 SLP031

CYXE;2008-03-12 22:00;CYXE 122200Z 30011KT 15SM FEW160 BKN250 05/00 A2956 RMK AC1CI4 SLP033

CYXE;2008-03-12 23:00;CYXE 122300Z 29015KT 15SM FEW020 FEW160 BKN250 04/M00 A2957 RMK CF1AC1CI2 SLP035

CYXE;2008-03-13 00:00;CYXE 130000Z 29013KT 15SM FEW160 BKN250 04/M00 A2958 RMK AC1CI2 SLP039

CYXE;2008-03-13 01:00;CYXE 130100Z 29013G20KT 15SM FEW020 FEW250 03/M01 A2959 RMK SC1CI1 SLP042

CYXE;2008-03-13 02:00;CYXE 130200Z 29013KT 15SM FEW040 02/M01 A2959 RMK SC2 SLP042

CYXE;2008-03-13 03:00;CYXE 130300Z 28015KT 15SM BKN060 02/M01 A2959 RMK SC4 SLP043

CYXE;2008-03-13 04:00;CYXE 130400Z 30014G19KT 15SM FEW025 OVC050 02/M01 A2959 RMK SC2SC6 SLP044

CYXE;2008-03-13 05:00;CYXE 130500Z 30012KT 15SM FEW030 BKN050 00/M02 A2960 RMK SC2SC4 SLP046

CYXE;2008-03-13 06:00;CYXE 130600Z 32021G27KT 15SM OVC026 00/M04 A2962 RMK SC8 SLP054

CYXE;2008-03-13 07:00;CYXE 130700Z 33021G29KT 15SM OVC035 M01/M05 A2964 RMK SC8 SLP060

CYXE;2008-03-13 08:00;CYXE 130800Z 32015KT 15SM OVC031 M01/M05 A2966 RMK SC8 SLP065

CYXE;2008-03-13 09:00;CYXE 130900Z 33018G24KT 15SM OVC024 M01/M05 A2966 RMK SC8 SLP068

CYXE;2008-03-13 10:00;CYXE 131000Z 32016G21KT 15SM BKN028 M01/M05 A2967 RMK SC7 SLP069

CYXE;2008-03-13 11:00;CYXE 131100Z 32016G21KT 15SM OVC027 M02/M05 A2968 RMK SC8 SLP073

CYXE;2008-03-13 12:00;CYXE 131200Z 31015KT 15SM OVC023 M03/M06 A2969 RMK SC8 SLP079

CYXE;2008-03-13 13:00;CYXE 131300Z 31016G21KT 15SM BKN023 M03/M06 A2969 RMK SC7 SLP080

CYXE;2008-03-13 14:00;CYXE 131400Z 32011G16KT 15SM SCT023 M05/M07 A2971 RMK SC3 SLP085

CYXE;2008-03-13 15:00;CYXE 131500Z 31008KT 15SM BKN023 M04/M07 A2973 RMK SC6 SLP095

CYXE;2008-03-13 16:00;CYXE 131600Z 32010KT 15SM BKN018 M04/M07 A2974 RMK SC7 SLP099

CYXE;2008-03-13 17:00;CYXE 131700Z 35012KT 15SM OVC018 M04/M07 A2977 RMK SC8 SLP107

CYXE;2008-03-13 18:00;CYXE 131800Z 35014KT 15SM BKN019 M04/M08 A2978 RMK SC7 SLP112

CYXE;2008-03-13 19:00;CYXE 131900Z 33013KT 15SM BKN019 M04/M08 A2979 RMK SC7 SLP117

CYXE;2008-03-13 20:00;CYXE 132000Z 33011G16KT 15SM SCT023 M02/M08 A2979 RMK SC4 SLP115

CYXE;2008-03-13 21:00;CYXE 132100Z 33011KT 15SM FEW025 FEW280 M02/M07 A2979 RMK SC2CI0 SLP116

CYXE;2008-03-13 22:00;CYXE 132200Z 33012KT 15SM FEW025 M02/M08 A2980 RMK SC1 SLP119

CYXE;2008-03-13 23:00;CYXE 132300Z 31009KT 15SM FEW280 M01/M08 A2981 RMK CI0 SLP123

CYXE;2008-03-14 00:00;CYXE 140000Z 31006KT 15SM FEW280 M01/M08 A2982 RMK CI0 SLP126

CYXE;2008-03-14 01:00;CYXE 140100Z 30007KT 15SM FEW280 M03/M07 A2983 RMK CI0 SLP131

CYXE;2008-03-14 02:00;CYXE 140200Z 31004KT 15SM FEW280 M05/M07 A2984 RMK CI0 SLP134

CYXE;2008-03-14 03:00;CYXE 140300Z 27002KT 15SM SKC M07/M08 A2985 RMK SLP140

CYXE;2008-03-14 04:00;CYXE 140400Z 26002KT 15SM SKC M07/M08 A2986 RMK SLP143

CYXE;2008-03-14 05:00;CYXE 140500Z 25003KT 15SM SKC M09/M10 A2986 RMK SLP144

CYXE;2008-03-14 06:00;CYXE 140600Z 26006KT 15SM SKC M08/M10 A2986 RMK SLP146

CYXE;2008-03-14 07:00;CYXE 140700Z 26006KT 15SM SKC M09/M10 A2987 RMK SLP149

CYXE;2008-03-14 08:00;CYXE 140800Z 27007KT 15SM SKC M10/M11 A2987 RMK SLP150

CYXE;2008-03-14 09:00;CYXE 140900Z 26006KT 15SM SKC M10/M11 A2988 RMK SLP153

CYXE;2008-03-14 10:00;CYXE 141000Z 24005KT 15SM SKC M11/M12 A2988 RMK SLP154

CYXE;2008-03-14 11:00;CYXE 141100Z 23004KT 15SM SKC M11/M11 A2988 RMK SLP154

CYXE;2008-03-14 12:00;CYXE 141200Z 23005KT 15SM SKC M11/M12 A2990 RMK SLP158

CYXE;2008-03-14 13:00;CYXE 141300Z 25003KT 15SM FEW250 M11/M12 A2990 RMK CI0 SLP161

CYXE;2008-03-14 14:00;CYXE 141400Z 26003KT 15SM FEW020 FEW280 M11/M12 A2992 RMK SC1CI0 SLP166

CYXE;2008-03-14 15:00;CYXE 141500Z 35003KT 15SM FEW020 FEW280 M08/M09 A2993 RMK SC1CI0 SLP171

CYXE;2008-03-14 16:00;CYXE 141600Z 03006KT 15SM FEW040 SCT280 M06/M09 A2994 RMK SC1CI0 SLP175

CYXE;2008-03-14 17:00;CYXE 141700Z 07006KT 15SM FEW040 BKN280 M05/M07 A2995 RMK SC1CI2 SLP177

CYXE;2008-03-14 18:00;CYXE 141800Z 07005KT 15SM FEW040 BKN280 M04/M08 A2995 RMK SC1CI2 SLP177

CYXE;2008-03-14 19:00;CYXE 141900Z 06005KT 15SM FEW040 OVC280 M02/M07 A2995 RMK SC1CI2 SLP176

CYXE;2008-03-14 20:00;CYXE 142000Z 05004KT 15SM FEW025 OVC280 M02/M08 A2994 RMK CU1CI2 SLP174

CYXE;2008-03-14 21:00;CYXE 142100Z 06004KT 15SM FEW025 OVC280 M01/M07 A2994 RMK CU1CI2 SLP171

CYXE;2008-03-14 22:00;CYXE 142200Z 04008KT 15SM FEW025 FEW280 M01/M07 A2994 RMK CU1CI0 SLP171

CYXE;2008-03-14 23:00;CYXE 142300Z 06006KT 15SM FEW025 BKN280 M01/M07 A2994 RMK CU1CI2 SLP173

CYXE;2008-03-15 00:00;CYXE 150000Z 07007KT 15SM FEW025 OVC280 M02/M07 A2995 RMK CU1CI4 SLP176

CYXE;2008-03-15 01:00;CYXE 150100Z 06006KT 15SM OVC280 M04/M07 A2996 RMK CI3 SLP179

CYXE;2008-03-15 02:00;CYXE 150200Z 07006KT 15SM OVC280 M05/M07 A2996 RMK CI3 SLP181

CYXE;2008-03-15 03:00;CYXE 150300Z 07005KT 15SM OVC280 M06/M07 A2997 RMK CI2 SLP185

CYXE;2008-03-15 04:00;CYXE 150400Z 10005KT 15SM OVC280 M06/M08 A2997 RMK CI2 SLP186

CYXE;2008-03-15 05:00;CYXE 150500Z 12006KT 15SM OVC280 M05/M08 A2998 RMK CI2 SLP187

CYXE;2008-03-15 06:00;CYXE 150600Z 13007KT 15SM BKN280 M06/M08 A2997 RMK CI2 SLP183

CYXE;2008-03-15 07:00;CYXE 150700Z 13007KT 15SM BKN280 M06/M08 A2997 RMK CI2 SLP183

CYXE;2008-03-15 08:00;CYXE 150800Z 13008KT 15SM BKN280 M06/M08 A2997 RMK CI2 SLP183

CYXE;2008-03-15 09:00;CYXE 150900Z 13007KT 15SM OVC280 M07/M09 A2997 RMK CI2 SLP182

CYXE;2008-03-15 10:00;CYXE 151000Z 12009KT 15SM OVC280 M07/M09 A2995 RMK CI2 SLP176

CYXE;2008-03-15 11:00;CYXE 151100Z 10005KT 15SM BKN072 OVC280 M07/M09 A2995 RMK AC3CI0 SLP176

CYXE;2008-03-15 12:00;CYXE 151200Z 11007KT 15SM BKN072 BKN280 M07/M09 A2995 RMK AC5CI0 SLP175

CYXE;2008-03-15 13:00;CYXE 151300Z 10006KT 15SM FEW050 BKN070 OVC280 M07/M09 A2995 RMK SC1AC4CI0 SLP174

CYXE;2008-03-15 14:00;CYXE 151400Z 12005KT 15SM FEW050 SCT070 OVC250 M07/M09 A2995 RMK SC1AC2CI0 SLP174

CYXE;2008-03-15 15:00;CYXE 151500Z 12007KT 15SM FEW050 BKN250 M06/M09 A2995 RMK SC2CI1 SLP178

CYXE;2008-03-15 16:00;CYXE 151600Z 12008KT 15SM FEW050 BKN250 M04/M08 A2996 RMK SC2CI1 SLP180

CYXE;2008-03-15 17:00;CYXE 151700Z 12006KT 15SM FEW050 BKN250 M02/M08 A2996 RMK SC2CI1 SLP179

CYXE;2008-03-15 18:00;CYXE 151800Z 14010KT 15SM FEW050 BKN250 M00/M07 A2995 RMK SC1CI1 SLP172

CYXE;2008-03-15 19:00;CYXE 151900Z 14012KT 15SM BKN250 01/M07 A2994 RMK CI1 SLP169

CYXE;2008-03-15 20:00;CYXE 152000Z 15009KT 15SM BKN250 02/M08 A2992 RMK CI1 SLP164

CYXE;2008-03-15 21:00;CYXE 152100Z 14009KT 15SM FEW040 SCT250 03/M07 A2991 RMK CU1CI0 SLP159

CYXE;2008-03-15 22:00;CYXE 152200Z 18009KT 15SM FEW040 SCT250 03/M06 A2991 RMK CU1CI1 SLP159

CYXE;2008-03-15 23:00;CYXE 152300Z 16011G16KT 15SM FEW250 02/M06 A2991 RMK CI1 SLP159

CYXE;2008-03-16 00:00;CYXE 160000Z 16010KT 15SM FEW100 FEW250 01/M06 A2991 RMK AC1CI1 SLP160

CYXE;2008-03-16 01:00;CYXE 160100Z 14010KT 15SM FEW100 FEW250 M01/M06 A2992 RMK AC1CI1 SLP162

CYXE;2008-03-16 02:00;CYXE 160200Z 15008KT 15SM FEW100 FEW250 M02/M05 A2993 RMK AC1CI1 SLP165

CYXE;2008-03-16 03:00;CYXE 160300Z 14010KT 15SM FEW100 FEW250 M03/M06 A2993 RMK AC1CI0 SLP166

CYXE;2008-03-16 04:00;CYXE 160400Z 13008KT 15SM FEW100 M04/M06 A2993 RMK AC1 SLP167

CYXE;2008-03-16 05:00;CYXE 160500Z 14004KT 15SM FEW100 M05/M07 A2994 RMK AC1 SLP169

CYXE;2008-03-16 06:00;CYXE 160600Z 13005KT 15SM SCT039 M05/M07 A2993 RMK SC4 SLP164

CYXE;2008-03-16 07:00;CYXE 160700Z 13006KT 15SM BKN039 M06/M07 A2992 RMK SC5 SLP162

CYXE;2008-03-16 08:00;CYXE 160800Z 12005KT 15SM BKN039 M05/M07 A2991 RMK SC6 SLP159

CYXE;2008-03-16 09:00;CYXE 160900Z 12002KT 15SM BKN041 M04/M06 A2990 RMK SC6 SLP154

CYXE;2008-03-16 10:00;CYXE 161000Z 12002KT 15SM BKN039 M04/M06 A2990 RMK SC7 SLP154

CYXE;2008-03-16 11:00;CYXE 161100Z 10004KT 15SM OVC039 M04/M06 A2991 RMK SC7 SLP155

CYXE;2008-03-16 12:00;CYXE 161200Z 09005KT 15SM BKN037 M06/M07 A2992 RMK SC5 SLP161

CYXE;2008-03-16 13:00;CYXE 161300Z 13005KT 15SM BKN037 OVC280 M05/M07 A2992 RMK SC5CI0 SLP161

CYXE;2008-03-16 14:00;CYXE 161400Z 03005KT 15SM BKN037 BKN120 OVC280 M06/M07 A2993 RMK SC5AC1CI0 SLP166

CYXE;2008-03-16 15:00;CYXE 161500Z 04008KT 15SM FEW020 BKN040 OVC120 M06/M07 A2994 RMK SC2SC5AC2 SLP170

CYXE;2008-03-16 16:00;CYXE 161600Z 04008KT 15SM SCT040 OVC250 M05/M07 A2995 RMK SC3CI0 SLP172

CYXE;2008-03-16 17:00;CYXE 161700Z 36008KT 15SM BKN015 OVC250 M04/M06 A2995 RMK SC6CI0 SLP173

CYXE;2008-03-16 17:31;CYXE 161731Z 01008KT 15SM OVC013 M04/ RMK SC8

CYXE;2008-03-16 18:00;CYXE 161800Z 35009KT 15SM OVC011 M04/M06 A2996 RMK SC8 SLP177

CYXE;2008-03-16 19:00;CYXE 161900Z 35012KT 15SM OVC010 M05/M08 A2995 RMK SC8 SLP175

CYXE;2008-03-16 20:00;CYXE 162000Z 34008KT 15SM OVC012 M06/M08 A2996 RMK SC8 SLP177

CYXE;2008-03-16 20:35;CYXE 162035Z 35009KT 12SM -SN OVC010 M06/ RMK SC8

CYXE;2008-03-16 20:40;CYXE 162040Z 35010KT 2SM -SN OVC010 M06/ RMK SN2SC6 VIS SE 15

CYXE;2008-03-16 21:00;CYXE 162100Z 34009KT 2SM -SN OVC010 M06/M09 A2996 RMK SN2SC6 SLP180

CYXE;2008-03-16 21:27;CYXE 162127Z 36009KT 6SM -SN SCT015 OVC060 M06/ RMK SF3SC5

CYXE;2008-03-16 21:45;CYXE 162145Z 35010KT 12SM -SN BKN011 OVC060 M06/ RMK SF6SC2

CYXE;2008-03-16 22:00;CYXE 162200Z 34010KT 15SM -SN OVC011 M06/M09 A2997 RMK SF8 SLP181

CYXE;2008-03-16 23:00;CYXE 162300Z 32013KT 15SM -SN OVC013 M07/M09 A2997 RMK SF8 SLP183

CYXE;2008-03-16 23:19;CYXE 162319Z 31012G17KT 15SM BKN015 BKN060 M07/ RMK SF6SC1

CYXE;2008-03-17 00:00;CYXE 170000Z 32011G16KT 15SM BKN015 M08/M11 A2998 RMK SF6 SLP189

CYXE;2008-03-17 01:00;CYXE 170100Z 30010KT 15SM FEW012 M10/M12 A2999 RMK SC1 SLP192

CYXE;2008-03-17 02:00;CYXE 170200Z 31009KT 15SM SKC M12/M14 A3000 RMK SLP196

CYXE;2008-03-17 03:00;CYXE 170300Z 31007KT 15SM SKC M13/M15 A3000 RMK SLP199

CYXE;2008-03-17 04:00;CYXE 170400Z 29005KT 15SM SKC M14/M16 A2999 RMK SLP196

CYXE;2008-03-17 05:00;CYXE 170500Z 27004KT 15SM SKC M15/M16 A2999 RMK SLP195

CYXE;2008-03-17 06:00;CYXE 170600Z 23004KT 15SM SKC M15/M16 A2997 RMK SLP189

CYXE;2008-03-17 07:00;CYXE 170700Z 21005KT 15SM FEW050 M15/M16 A2996 RMK SC2 SLP185

CYXE;2008-03-17 08:00;CYXE 170800Z 18003KT 15SM FEW050 M16/M17 A2994 RMK SC2 SLP177

CYXE;2008-03-17 09:00;CYXE 170900Z 16003KT 15SM FEW280 M16/M17 A2991 RMK CI0 SLP170

CYXE;2008-03-17 10:00;CYXE 171000Z 18005KT 15SM SCT280 M16/M17 A2990 RMK CI1 SLP165

CYXE;2008-03-17 11:00;CYXE 171100Z 14005KT 15SM SCT280 M15/M16 A2986 RMK CI1 SLP154

CYXE;2008-03-17 12:00;CYXE 171200Z 14005KT 15SM SCT280 M14/M16 A2983 RMK CI1 SLP143

CYXE;2008-03-17 13:00;CYXE 171300Z 12008KT 15SM FEW120 BKN280 M13/M15 A2979 RMK AC2CI2 SLP130

CYXE;2008-03-17 14:00;CYXE 171400Z 12008KT 15SM FEW030 SCT080 OVC250 M12/M14 A2977 RMK SC1AC2CI2 SLP121

CYXE;2008-03-17 15:00;CYXE 171500Z 14008KT 15SM FEW030 OVC072 M10/M12 A2975 RMK SC2AC6 SLP114

CYXE;2008-03-17 15:24;CYXE 171524Z 14011KT 15SM BKN010 OVC070 M10/ RMK SC5AC3

CYXE;2008-03-17 15:48;CYXE 171548Z 14008KT 15SM -SN BKN009 OVC068 M09/ RMK ST5AC3

CYXE;2008-03-17 16:00;CYXE 171600Z 14009KT 10SM -SN BKN009 OVC068 M09/M11 A2973 RMK SC6AC2 SLP108

CYXE;2008-03-17 16:16;CYXE 171616Z 13007KT 4SM -SN BKN010 BKN030 OVC070 M08/ RMK SC5SC2AC2

CYXE;2008-03-17 16:28;CYXE 171628Z 13006KT 1 1/2SM -SN BKN010 OVC040 M08/ RMK SN2SC4SC2

CYXE;2008-03-17 17:00;CYXE 171700Z 13006KT 1 1/2SM -SN BKN009 OVC040 M07/M08 A2971 RMK SN2SC4SC2 SLP101

CYXE;2008-03-17 18:00;CYXE 171800Z 14006KT 1 1/2SM -SN BKN008 OVC040 M04/M06 A2969 RMK SN2SC5SC2 SLP092

CYXE;2008-03-17 18:17;CYXE 171817Z 16007KT 2SM -SN BKN011 OVC054 M04/ RMK SC6SC2

CYXE;2008-03-17 18:46;CYXE 171846Z 16006KT 4SM -SN SCT010 BKN042 OVC250 M03/ RMK SC4SC2CI0

CYXE;2008-03-17 19:00;CYXE 171900Z 21005KT 12SM -SN BKN010 BKN042 OVC250 M03/M05 A2969 RMK SC5SC2CI0 SLP092

CYXE;2008-03-17 19:14;CYXE 171914Z 22005KT 15SM BKN010 OVC030 M02/ RMK SC6SC2

CYXE;2008-03-17 20:00;CYXE 172000Z 26006KT 15SM OVC010 M02/M05 A2968 RMK SC8 SLP091

CYXE;2008-03-17 21:00;CYXE 172100Z 32005KT 15SM BKN014 M02/M05 A2969 RMK SC6 SLP090

CYXE;2008-03-17 21:53;CYXE 172153Z 31006KT 15SM FEW015 M01/ RMK SC1

CYXE;2008-03-17 22:00;CYXE 172200Z 28006KT 15SM FEW015 M01/M05 A2969 RMK SC1 SLP090

CYXE;2008-03-17 23:00;CYXE 172300Z 26004KT 15SM FEW015 01/M05 A2969 RMK SC1 SLP091

CYXE;2008-03-18 00:00;CYXE 180000Z 22008KT 15SM SKC M00/M04 A2969 RMK SLP090

CYXE;2008-03-18 01:00;CYXE 180100Z 22006KT 15SM FEW060 M01/M04 A2970 RMK SC1 SLP093

CYXE;2008-03-18 02:00;CYXE 180200Z 21007KT 15SM FEW060 M03/M05 A2972 RMK SC1 SLP097

CYXE;2008-03-18 03:00;CYXE 180300Z 23007KT 15SM SKC M05/M06 A2972 RMK SLP101

CYXE;2008-03-18 04:00;CYXE 180400Z 25008KT 15SM SKC M05/M06 A2974 RMK SLP106

CYXE;2008-03-18 05:00;CYXE 180500Z 24006KT 15SM FEW090 M06/M07 A2975 RMK AC1 SLP110

CYXE;2008-03-18 06:00;CYXE 180600Z 24008KT 15SM SCT280 M06/M07 A2977 RMK CI0 SLP114

CYXE;2008-03-18 07:00;CYXE 180700Z 23008KT 15SM SCT280 M06/M07 A2978 RMK CI1 SLP118

CYXE;2008-03-18 08:00;CYXE 180800Z 26007KT 15SM SCT280 M06/M07 A2980 RMK CI1 SLP122

CYXE;2008-03-18 09:00;CYXE 180900Z 26007KT 15SM FEW280 M07/M08 A2981 RMK CI0 SLP125

CYXE;2008-03-18 10:00;CYXE 181000Z 26007KT 15SM FEW280 M08/M09 A2981 RMK CI0 SLP125

CYXE;2008-03-18 11:00;CYXE 181100Z 26006KT 15SM FEW020 FEW280 M08/M10 A2982 RMK SC1CI0 SLP129

CYXE;2008-03-18 12:00;CYXE 181200Z 07004KT 15SM FEW020 FEW050 M09/M10 A2984 RMK SC1SC2 SLP136

CYXE;2008-03-18 13:00;CYXE 181300Z 22004KT 15SM FEW020 M08/M10 A2985 RMK SC2 SLP141

CYXE;2008-03-18 14:00;CYXE 181400Z 24004KT 15SM SCT069 M08/M09 A2987 RMK SC3 SLP146

CYXE;2008-03-18 15:00;CYXE 181500Z 27003KT 15SM -SN FEW020 BKN050 M06/M07 A2987 RMK SF1SC3 VIRGA W SLP148

CYXE;2008-03-18 15:14;CYXE 181514Z 36002KT 15SM FEW020 BKN050 M05/ RMK SF1SC4

CYXE;2008-03-18 16:00;CYXE 181600Z 00000KT 15SM SCT050 BKN084 M04/M05 A2988 RMK SC3AC2 SLP152

CYXE;2008-03-18 17:00;CYXE 181700Z 24002KT 15SM FEW090 M00/M04 A2989 RMK AC2 SLP153

CYXE;2008-03-18 18:00;CYXE 181800Z 01002KT 15SM FEW090 02/M03 A2989 RMK AC1 SLP149

CYXE;2008-03-18 19:00;CYXE 181900Z 25002KT 15SM FEW060 03/M03 A2989 RMK SC1 SLP151

CYXE;2008-03-18 20:00;CYXE 182000Z 25003KT 15SM FEW060 FEW090 04/M03 A2989 RMK SC1AC1 SLP150

CYXE;2008-03-18 21:00;CYXE 182100Z 31002KT 15SM FEW090 05/M04 A2989 RMK AC1 SLP148

CYXE;2008-03-18 22:00;CYXE 182200Z 07002KT 15SM SKC 05/M03 A2989 RMK SLP148

CYXE;2008-03-18 23:00;CYXE 182300Z 07005KT 15SM SKC 05/M03 A2989 RMK SLP149

CYXE;2008-03-19 00:00;CYXE 190000Z 06007KT 15SM SKC 03/M02 A2989 RMK SLP151

CYXE;2008-03-19 00:47;CYXE 190047Z 06006KT 15SM SKC 02/

CYXE;2008-03-19 01:00;CYXE 190100Z 12006KT 15SM SKC 01/M03 A2989 RMK SLP151

CYXE;2008-03-19 02:00;CYXE 190200Z 10005KT 15SM SKC M01/M04 A2989 RMK SLP151

CYXE;2008-03-19 03:00;CYXE 190300Z 12006KT 15SM SKC M01/M04 A2990 RMK SLP155

CYXE;2008-03-19 04:00;CYXE 190400Z 14005KT 15SM SKC M02/M04 A2990 RMK SLP155

CYXE;2008-03-19 05:00;CYXE 190500Z 12005KT 15SM SKC M03/M04 A2990 RMK SLP155

CYXE;2008-03-19 06:00;CYXE 190600Z 12005KT 15SM SKC M04/M05 A2990 RMK SLP154

CYXE;2008-03-19 07:00;CYXE 190700Z 13005KT 15SM SKC M04/M05 A2990 RMK SLP154

CYXE;2008-03-19 08:00;CYXE 190800Z 13006KT 15SM SKC M05/M06 A2992 RMK SLP159

CYXE;2008-03-19 09:00;CYXE 190900Z 12005KT 15SM SKC M06/M07 A2992 RMK SLP159

CYXE;2008-03-19 10:00;CYXE 191000Z 10005KT 15SM SKC M06/M07 A2992 RMK SLP160

CYXE;2008-03-19 11:00;CYXE 191100Z 10006KT 15SM FEW250 M06/M07 A2993 RMK CI1 SLP162

CYXE;2008-03-19 12:00;CYXE 191200Z 08006KT 15SM FEW250 M07/M08 A2995 RMK CI1 SLP170

CYXE;2008-03-19 13:00;CYXE 191300Z 09006KT 15SM FEW250 M09/M10 A2997 RMK CI1 SLP177

CYXE;2008-03-19 14:00;CYXE 191400Z 11006KT 15SM SCT250 M06/M06 A2997 RMK CI2 SLP179

CYXE;2008-03-19 15:00;CYXE 191500Z 12005KT 15SM BKN250 M03/M04 A2999 RMK CI2 SLP184

CYXE;2008-03-19 16:00;CYXE 191600Z 14004KT 15SM BKN250 M02/M04 A2999 RMK CI2 SLP186

CYXE;2008-03-19 17:00;CYXE 191700Z 16008KT 15SM BKN250 00/M04 A3000 RMK CI2 SLP189

CYXE;2008-03-19 18:00;CYXE 191800Z 16004KT 15SM BKN250 02/M04 A3001 RMK CI2 SLP189

CYXE;2008-03-19 19:00;CYXE 191900Z 16007KT 15SM BKN250 03/M03 A3000 RMK CI2 SLP188

CYXE;2008-03-19 20:00;CYXE 192000Z 18009KT 15SM BKN250 04/M02 A2999 RMK CI2 SLP183

CYXE;2008-03-19 21:00;CYXE 192100Z 15009KT 15SM BKN250 05/M03 A2998 RMK CI2 SLP179

CYXE;2008-03-19 22:00;CYXE 192200Z 18009KT 15SM BKN250 05/M02 A2998 RMK CI2 SLP179

CYXE;2008-03-19 23:00;CYXE 192300Z 17008KT 15SM BKN250 04/M02 A2998 RMK CI2 SLP180

CYXE;2008-03-20 00:00;CYXE 200000Z 18008KT 15SM BKN250 04/M01 A2998 RMK CI2 SLP180

CYXE;2008-03-20 01:00;CYXE 200100Z 17007KT 15SM SCT250 02/M02 A2997 RMK CI1 SLP179

CYXE;2008-03-20 02:00;CYXE 200200Z 15005KT 15SM FEW250 00/M03 A2997 RMK CI1 SLP179

CYXE;2008-03-20 03:00;CYXE 200300Z 16005KT 15SM SCT250 M01/M03 A2997 RMK CI1 SLP177

CYXE;2008-03-20 04:00;CYXE 200400Z 16006KT 15SM FEW250 M01/M03 A2997 RMK CI0 SLP177

CYXE;2008-03-20 05:00;CYXE 200500Z 15006KT 15SM FEW250 M02/M03 A2996 RMK CI0 SLP176

CYXE;2008-03-20 06:00;CYXE 200600Z 13004KT 15SM FEW250 M03/M04 A2996 RMK CI0 SLP172

CYXE;2008-03-20 07:00;CYXE 200700Z 12004KT 15SM FEW250 M03/M04 A2995 RMK CI1 SLP171

CYXE;2008-03-20 08:00;CYXE 200800Z 13005KT 15SM FEW015 FEW110 SCT250 M04/M05 A2995 RMK SF1AC1CI1 SLP170

CYXE;2008-03-20 08:20;CYXE 200820Z 14005KT 15SM BKN007 M04/ RMK SF6

CYXE;2008-03-20 09:00;CYXE 200900Z 13002KT 15SM OVC008 M03/M04 A2995 RMK SF7 SLP169

CYXE;2008-03-20 10:00;CYXE 201000Z 10004KT 15SM OVC010 M02/M02 A2995 RMK SF7 SLP167

CYXE;2008-03-20 10:40;CYXE 201040Z 09003KT 15SM OVC009 M01/ RMK SF8

CYXE;2008-03-20 11:00;CYXE 201100Z 10003KT 15SM OVC009 M01/M02 A2995 RMK SF8 SLP168

CYXE;2008-03-20 12:00;CYXE 201200Z 11004KT 12SM OVC009 M01/M01 A2995 RMK SF8 SLP168

CYXE;2008-03-20 12:25;CYXE 201225Z 12005KT 12SM OVC012 M01/ RMK SF8

CYXE;2008-03-20 13:00;CYXE 201300Z 11004KT 12SM OVC014 M01/M01 A2996 RMK SF8 SLP170

CYXE;2008-03-20 13:43;CYXE 201343Z 11003KT 10SM BKN007 OVC012 M01/ RMK SF5SC3

CYXE;2008-03-20 14:00;CYXE 201400Z 11002KT 10SM BKN007 OVC012 M01/M01 A2996 RMK SF5SC3 SLP171

CYXE;2008-03-20 14:10;CYXE 201410Z 10003KT 10SM SCT007 OVC012 M01/ RMK SF3SC5

CYXE;2008-03-20 15:00;CYXE 201500Z 09004KT 12SM OVC012 M00/M01 A2997 RMK SC8 SLP176

CYXE;2008-03-20 16:00;CYXE 201600Z 09003KT 12SM OVC014 00/M01 A2998 RMK SC8 SLP179

CYXE;2008-03-20 17:00;CYXE 201700Z 05005KT 12SM OVC014 01/M01 A2998 RMK SC8 SLP180

CYXE;2008-03-20 18:00;CYXE 201800Z 04005KT 12SM SCT009 OVC012 01/M01 A2999 RMK SF3SC5 SLP183

CYXE;2008-03-20 19:00;CYXE 201900Z 07006KT 12SM OVC011 02/M01 A3000 RMK ST8 SLP187

CYXE;2008-03-20 20:00;CYXE 202000Z 09005KT 12SM OVC010 01/M01 A3000 RMK SC8 SLP187

CYXE;2008-03-20 21:00;CYXE 202100Z 01003KT 12SM OVC012 01/M01 A3000 RMK ST8 SLP188

CYXE;2008-03-20 22:00;CYXE 202200Z 00000KT 15SM OVC012 01/M02 A3001 RMK ST8 SLP190

CYXE;2008-03-20 23:00;CYXE 202300Z 07004KT 8SM OVC012 01/M01 A3002 RMK ST8 BR SLP194

CYXE;2008-03-21 00:00;CYXE 210000Z 34003KT 6SM BR OVC012 01/M01 A3003 RMK ST8 SLP197

CYXE;2008-03-21 01:00;CYXE 210100Z 35002KT 6SM BR OVC012 00/M02 A3005 RMK ST8 SLP202

CYXE;2008-03-21 02:00;CYXE 210200Z 00000KT 6SM BR OVC012 M00/M02 A3006 RMK ST8 SLP205

CYXE;2008-03-21 03:00;CYXE 210300Z 07004KT 6SM BR BKN012 M02/M03 A3006 RMK SF5 SLP208

CYXE;2008-03-21 03:17;CYXE 210317Z 09004KT 6SM BR FEW012 SCT240 M02/ RMK SF2CI1

CYXE;2008-03-21 04:00;CYXE 210400Z 10003KT 5SM BR FEW012 BKN240 M02/M03 A3007 RMK SF2CI1 SLP211

CYXE;2008-03-21 04:27;CYXE 210427Z 14002KT 5SM BR OVC013 M02/ RMK SF5

CYXE;2008-03-21 05:00;CYXE 210500Z 22002KT 4SM BR OVC011 M02/M02 A3008 RMK ST6 SLP213

CYXE;2008-03-21 06:00;CYXE 210600Z 18002KT 4SM BR OVC011 M01/M01 A3009 RMK ST8 SLP217

CYXE;2008-03-21 07:00;CYXE 210700Z 31004KT 4SM BR OVC011 M03/M04 A3010 RMK ST8 SLP219

CYXE;2008-03-21 07:32;CYXE 210732Z 32004KT 1 1/2SM BR BKN002 OVC010 M03/ RMK SF6ST2

CYXE;2008-03-21 07:37;CYXE 210737Z 33004KT 1 1/2SM BR BKN001 OVC010 M03/ RMK SF6SC2

CYXE;2008-03-21 08:00;CYXE 210800Z 00000KT 1 1/2SM BR BKN001 OVC010 M03/M03 A3011 RMK SF6SC2 SLP223

CYXE;2008-03-21 08:37;CYXE 210837Z 31004KT 1SM R09/2200V5500FT/D BR SCT001 OVC009 M03/ RMK SF3SC5 VIS W-N 1/2

CYXE;2008-03-21 08:44;CYXE 210844Z 31004KT 1/8SM R09/2200VP6000FT/U FZFG SCT001 OVC009 M02/ RMK SF3SC5 VIS E-SE 3/4

CYXE;2008-03-21 09:00;CYXE 210900Z 29004KT 1/8SM R09/P6000FT/N FZFG OVC008 M02/M02 A3011 RMK FG6ST2 VIS NW-NE 4 SLP225

CYXE;2008-03-21 09:03;CYXE 210903Z 31005KT 2 1/2SM BR OVC008 M02/ RMK FG6ST2 VIS W-NW 1/4

CYXE;2008-03-21 09:26;CYXE 210926Z CCA 31005KT 1/2SM R09/P6000FT/U FZFG VV001 M02/ RMK FG8 VIS SE 1

CYXE;2008-03-21 09:45;CYXE 210945Z 32005KT 1/8SM R09/2800V5500FT/D FZFG VV001 M02/ RMK FG8

CYXE;2008-03-21 10:00;CYXE 211000Z 31007KT 1/8SM R09/2800FT/D FZFG VV001 M02/M02 A3012 RMK FG8 SLP227

CYXE;2008-03-21 10:32;CYXE 211032Z 30007KT 1/4SM R09/4000FT/D FZFG VV001 M03/ RMK FG8

CYXE;2008-03-21 11:00;CYXE 211100Z 30006KT 1/4SM R09/3500V4500FT/N FZFG VV001 M03/M03 A3013 RMK FG8 SLP230

CYXE;2008-03-21 11:14;CYXE 211114Z 29005KT 1/2SM R09/5500FT/U FZFG VV001 M03/ RMK FG8

CYXE;2008-03-21 12:00;CYXE 211200Z 29006KT 1/2SM R09/4500FT/N FZFG VV001 M03/M03 A3015 RMK FG8 SLP238

CYXE;2008-03-21 13:00;CYXE 211300Z 34005KT 1/2SM R09/P6000FT/D FZFG BKN001 M03/M03 A3016 RMK ST6 SLP243

CYXE;2008-03-21 14:00;CYXE 211400Z 34004KT 1/2SM R09/3000FT/N FZFG OVC001 M03/M03 A3017 RMK ST7 SLP246

CYXE;2008-03-21 14:50;CYXE 211450Z 29003KT 1/4SM R09/2800FT/U FZFG VV001 M04/ RMK FG8

CYXE;2008-03-21 15:00;CYXE 211500Z 23003KT 1/4SM R09/3000FT/N FZFG VV001 M04/M04 A3019 RMK FG8 SLP255

CYXE;2008-03-21 16:00;CYXE 211600Z 02004KT 1/4SM R09/2800FT/N FZFG VV001 M04/M04 A3021 RMK FG8 SLP262

CYXE;2008-03-21 17:00;CYXE 211700Z 34003KT 1/4SM R09/3000FT/N FZFG VV001 M04/M04 A3024 RMK FG8 SLP270

CYXE;2008-03-21 17:50;CYXE 211750Z 35003KT 3/4SM R09/3500V5000FT/N BR VV002 M04/ RMK FG8

CYXE;2008-03-21 18:00;CYXE 211800Z 02004KT 3/4SM R09/3500VP6000FT/U BR VV002 M04/M04 A3026 RMK FG8 SLP280

CYXE;2008-03-21 18:38;CYXE 211838Z 03005KT 1 1/2SM BR OVC002 M03/ RMK ST8

CYXE;2008-03-21 19:00;CYXE 211900Z 04007KT 2SM BR OVC002 M03/M04 A3028 RMK ST8 SLP284

CYXE;2008-03-21 19:20;CYXE 211920Z 36004KT 2 1/2SM -SN BR OVC003 M04/ RMK ST8

CYXE;2008-03-21 19:37;CYXE 211937Z 02004KT 3SM BR OVC003 M03/ RMK ST8

CYXE;2008-03-21 20:00;CYXE 212000Z 02005KT 4SM BR OVC004 M03/M03 A3030 RMK ST8 SLP291

CYXE;2008-03-21 21:00;CYXE 212100Z 05004KT 6SM BR OVC004 M03/M03 A3031 RMK ST8 SLP296

CYXE;2008-03-21 22:00;CYXE 212200Z 06007KT 6SM BR OVC004 M02/M03 A3033 RMK ST8 SLP301

CYXE;2008-03-21 22:31;CYXE 212231Z 07006KT 6SM BR OVC005 M03/ RMK ST8

CYXE;2008-03-21 23:00;CYXE 212300Z 03007KT 6SM BR OVC006 M02/M03 A3034 RMK ST8 SLP305

CYXE;2008-03-22 00:00;CYXE 220000Z 07007KT 8SM OVC007 M03/M03 A3037 RMK ST8 SLP315

CYXE;2008-03-22 01:00;CYXE 220100Z 03007KT 10SM OVC007 M03/M04 A3039 RMK ST8 SLP321

CYXE;2008-03-22 02:00;CYXE 220200Z 07008KT 10SM OVC007 M04/M04 A3041 RMK SC8 SLP329

CYXE;2008-03-22 03:00;CYXE 220300Z 03004KT 12SM BKN008 M04/M05 A3043 RMK SC6 SLP337

CYXE;2008-03-22 04:00;CYXE 220400Z 10004KT 12SM BKN009 M04/M05 A3045 RMK SC7 SLP346

CYXE;2008-03-22 04:49;CYXE 220449Z 13002KT 15SM SCT009 M05/ RMK SC3

CYXE;2008-03-22 04:50;CYXE 220450Z 13002KT 15SM SCT009 M05/ RMK SC3

CYXE;2008-03-22 05:00;CYXE 220500Z 14002KT 15SM SCT009 M05/M06 A3047 RMK SC2 SLP350

CYXE;2008-03-22 06:00;CYXE 220600Z 19002KT 15SM FEW009 M05/M06 A3048 RMK ST2 SLP356

CYXE;2008-03-22 07:00;CYXE 220700Z 00000KT 12SM FEW009 M06/M07 A3050 RMK ST1 SLP362

CYXE;2008-03-22 08:00;CYXE 220800Z 03002KT 8SM FEW009 M07/M07 A3052 RMK ST2 BR SLP369

CYXE;2008-03-22 08:23;CYXE 220823Z 05002KT 5SM BR FEW009 M07/ RMK ST2

CYXE;2008-03-22 08:47;CYXE 220847Z 05004KT 5SM BR SCT005 M05/ RMK ST3 VIS NE 2

CYXE;2008-03-22 09:00;CYXE 220900Z 06005KT 1/2SM R09/P6000FT/U FZFG VV001 M09/M09 A3054 RMK FG8 VIS N-NW 1/8 SLP378

CYXE;2008-03-22 09:16;CYXE 220916Z 06004KT 1/8SM R09/3000VP6000FT/D FZFG VV001 M09/ RMK FG8

CYXE;2008-03-22 09:55;CYXE 220955Z 07004KT 1/4SM R09/5000FT/N FZFG VV001 M09/ RMK FG8

CYXE;2008-03-22 10:00;CYXE 221000Z 06004KT 1/4SM R09/5000FT/N FZFG VV001 M09/M10 A3055 RMK FG8 SLP381

CYXE;2008-03-22 10:21;CYXE 221021Z 05004KT 1/2SM R09/3500FT/N FZFG VV001 M09/ RMK FG8

CYXE;2008-03-22 10:50;CYXE 221050Z 06004KT 1/4SM R09/2200V3500FT/D FZFG VV001 M09/ RMK FG8

CYXE;2008-03-22 11:00;CYXE 221100Z 06005KT 1/4SM R09/1800V3500FT/D FZFG VV001 M09/M09 A3057 RMK FG8 SLP388

CYXE;2008-03-22 11:16;CYXE 221116Z 05004KT 1/8SM R09/3000FT/N FZFG VV001 M09/ RMK FG8

CYXE;2008-03-22 12:00;CYXE 221200Z 07005KT 1/8SM R09/2400FT/N FZFG VV001 M09/M09 A3058 RMK FG8 SLP393

CYXE;2008-03-22 13:00;CYXE 221300Z 07004KT 1/8SM R09/4000FT/N FZFG VV001 M09/M10 A3059 RMK FG8 SLP397

CYXE;2008-03-22 14:00;CYXE 221400Z 07004KT 1/8SM R09/2000V3500FT/N FZFG VV001 M09/M10 A3060 RMK FG8 SLP400

CYXE;2008-03-22 14:49;CYXE 221449Z 05003KT 1/4SM R09/2400FT/N FZFG VV001 M08/ RMK FG8

CYXE;2008-03-22 15:00;CYXE 221500Z 05003KT 1/2SM R09/2400FT/N FZFG OVC001 M08/M08 A3061 RMK ST7 SLP405

CYXE;2008-03-22 15:49;CYXE 221549Z 05003KT 4SM BR BKN002 OVC018 M06/ RMK SF5SC2

CYXE;2008-03-22 16:00;CYXE 221600Z 07004KT 5SM BR BKN003 OVC018 M06/M06 A3063 RMK SF5SC2 SLP410

CYXE;2008-03-22 16:32;CYXE 221632Z 06005KT 8SM SCT004 OVC015 RMK SF2SC4 BR

CYXE;2008-03-22 16:34;CYXE 221634Z CCA 06005KT 8SM SCT004 OVC015 M04/ RMK SF2SC4 BR

CYXE;2008-03-22 17:00;CYXE 221700Z 08004KT 12SM FEW005 BKN015 M04/M04 A3064 RMK SF2SC5 BR SLP413

CYXE;2008-03-22 17:25;CYXE 221725Z 07005KT 12SM FEW005 OVC013 M03/ RMK SF1SC6 BR

CYXE;2008-03-22 18:00;CYXE 221800Z CCA 12005KT 15SM BKN013 M03/M03 A3063 RMK SC7 SLP409

CYXE;2008-03-22 18:23;CYXE 221823Z 12008KT 15SM BKN017 M03/ RMK SC6

CYXE;2008-03-22 19:00;CYXE 221900Z 10008KT 15SM BKN020 M01/M06 A3063 RMK SC6 SLP409

CYXE;2008-03-22 20:00;CYXE 222000Z 12007KT 15SM BKN020 M01/M06 A3063 RMK SC6 SLP407

CYXE;2008-03-22 21:00;CYXE 222100Z 12007KT 15SM BKN023 OVC095 M01/M06 A3061 RMK SC5AS2 SLP403

CYXE;2008-03-22 22:00;CYXE 222200Z 13007KT 15SM BKN025 OVC280 M00/M06 A3061 RMK SC5CI0 SLP401

CYXE;2008-03-22 23:00;CYXE 222300Z 12007KT 15SM FEW025 OVC280 01/M06 A3060 RMK SC2CI1 SLP397

CYXE;2008-03-23 00:00;CYXE 230000Z 11010KT 15SM FEW025 FEW120 OVC280 M00/M06 A3058 RMK SC1AC2CI0 SLP392

CYXE;2008-03-23 01:00;CYXE 230100Z 12009KT 15SM FEW025 FEW067 SCT280 M01/M06 A3057 RMK SC1AC1CI0 SLP388

CYXE;2008-03-23 02:00;CYXE 230200Z 12008KT 15SM FEW076 BKN240 M03/M06 A3056 RMK AC1CI1 SLP384

CYXE;2008-03-23 03:00;CYXE 230300Z 13008KT 15SM FEW080 SCT240 M04/M06 A3055 RMK AC1CI1 SLP381

CYXE;2008-03-23 04:00;CYXE 230400Z 14009KT 15SM SCT076 M04/M07 A3053 RMK AC2 SLP376

CYXE;2008-03-23 05:00;CYXE 230500Z 14010KT 15SM SCT095 M05/M08 A3051 RMK AC2 SLP370

CYXE;2008-03-23 06:00;CYXE 230600Z 14008KT 15SM FEW059 BKN098 M06/M09 A3049 RMK SC2AC1 SLP359

CYXE;2008-03-23 07:00;CYXE 230700Z 15005KT 15SM SCT059 M06/M09 A3047 RMK SC3 SLP353

CYXE;2008-03-23 08:00;CYXE 230800Z 15007KT 15SM BKN059 M06/M09 A3044 RMK SC3 SLP343

CYXE;2008-03-23 09:00;CYXE 230900Z 16012KT 15SM BKN038 M05/M08 A3041 RMK SC5 SLP329

CYXE;2008-03-23 10:00;CYXE 231000Z 16011KT 15SM SCT069 M04/M07 A3037 RMK SC3 SLP317

CYXE;2008-03-23 11:00;CYXE 231100Z 16009KT 15SM FEW069 M04/M07 A3034 RMK SC1 SLP307

CYXE;2008-03-23 12:00;CYXE 231200Z 17011KT 15SM FEW061 SCT220 M04/M07 A3032 RMK SC1CI0 SLP298

CYXE;2008-03-23 13:00;CYXE 231300Z 16007KT 15SM FEW070 M05/M07 A3030 RMK AC1 SLP293

CYXE;2008-03-23 14:00;CYXE 231400Z 16008KT 15SM FEW070 M05/M07 A3027 RMK AC1 SLP284

CYXE;2008-03-23 15:00;CYXE 231500Z 16007KT 15SM FEW070 M03/M06 A3025 RMK AC1 SLP275

CYXE;2008-03-23 16:00;CYXE 231600Z 17010KT 15SM SKC M01/M06 A3023 RMK SLP270

CYXE;2008-03-23 17:00;CYXE 231700Z 17009KT 15SM SKC 01/M05 A3020 RMK SLP260

CYXE;2008-03-23 18:00;CYXE 231800Z 16008KT 15SM SKC 04/M04 A3017 RMK SLP244

CYXE;2008-03-23 19:00;CYXE 231900Z 16009KT 15SM SKC 04/M03 A3013 RMK SLP232

CYXE;2008-03-23 20:00;CYXE 232000Z 16009KT 15SM FEW250 05/M03 A3009 RMK CI1 SLP221

CYXE;2008-03-23 21:00;CYXE 232100Z 16014KT 15SM SCT250 06/M02 A3005 RMK CI1 SLP203

CYXE;2008-03-23 22:00;CYXE 232200Z 15011KT 15SM SCT280 07/M02 A3001 RMK CI2 SLP188

CYXE;2008-03-23 23:00;CYXE 232300Z 14011KT 15SM FEW100 BKN280 06/M02 A2996 RMK AC2CI2 SLP174

CYXE;2008-03-24 00:00;CYXE 240000Z 13012KT 15SM SCT079 OVC280 04/M01 A2994 RMK AC3CI2 SLP165

CYXE;2008-03-24 01:00;CYXE 240100Z 13012KT 15SM FEW080 BKN120 OVC280 03/M01 A2988 RMK AC2AC3CI1 PRESFR SLP146

CYXE;2008-03-24 02:00;CYXE 240200Z 12012KT 15SM FEW080 SCT120 OVC280 02/M01 A2984 RMK AC1AC2CI1 SLP132

CYXE;2008-03-24 03:00;CYXE 240300Z 12011KT 15SM SCT120 OVC280 02/M01 A2978 RMK AC3CI1 PRESFR SLP111

CYXE;2008-03-24 04:00;CYXE 240400Z 13010G15KT 15SM BKN085 OVC280 02/M01 A2974 RMK AC5CI1 SLP097

CYXE;2008-03-24 05:00;CYXE 240500Z 14010KT 15SM BKN040 OVC085 03/M02 A2969 RMK SC6AC2 SLP081

CYXE;2008-03-24 05:09;CYXE 240509Z 14009KT 15SM -RA BKN032 OVC085 03/ RMK SC6AC2

CYXE;2008-03-24 05:37;CYXE 240537Z 12008KT 15SM BKN027 OVC085 02/ RMK SC5AC3

CYXE;2008-03-24 06:00;CYXE 240600Z 12008KT 15SM BKN027 OVC085 02/M02 A2964 RMK SC5AC3 SLP060

CYXE;2008-03-24 07:00;CYXE 240700Z 11009G15KT 15SM OVC035 02/M02 A2960 RMK SC8 SLP045

CYXE;2008-03-24 07:21;CYXE 240721Z 10014KT 15SM -RA OVC035 03/ RMK SC8

CYXE;2008-03-24 07:50;CYXE 240750Z 12015KT 15SM OVC035 02/ RMK SC8

CYXE;2008-03-24 08:00;CYXE 240800Z 10014KT 15SM OVC035 02/M02 A2955 RMK SC8 SLP028

CYXE;2008-03-24 09:00;CYXE 240900Z 11012KT 15SM BKN060 OVC100 02/M02 A2950 RMK SC6AC2 PRESFR SLP008

CYXE;2008-03-24 10:00;CYXE 241000Z 11009KT 15SM BKN100 BKN250 01/M01 A2945 RMK AC5CI2 SLP994

CYXE;2008-03-24 11:00;CYXE 241100Z 14008KT 15SM SCT100 BKN250 01/M01 A2943 RMK AC3CI2 SLP987

CYXE;2008-03-24 12:00;CYXE 241200Z 15009KT 15SM FEW100 SCT250 01/M02 A2940 RMK AC1CI2 SLP976

CYXE;2008-03-24 13:00;CYXE 241300Z 12006KT 15SM FEW095 BKN250 M01/M03 A2939 RMK AC2CI2 SLP973

CYXE;2008-03-24 14:00;CYXE 241400Z 13006KT 15SM FEW085 SCT250 00/M02 A2937 RMK AC2CI1 SLP967

CYXE;2008-03-24 15:00;CYXE 241500Z 08008KT 15SM FEW090 FEW250 02/M01 A2936 RMK AC1CI1 SLP965

CYXE;2008-03-24 16:00;CYXE 241600Z 08007KT 15SM FEW012 FEW080 SCT250 03/M02 A2938 RMK SC1AC2CI0 SLP970

CYXE;2008-03-24 16:47;CYXE 241647Z 04017KT 15SM BKN012 BKN080 02/ RMK SC5AC2

CYXE;2008-03-24 16:54;CYXE 241654Z 05017KT 15SM -SN BKN009 OVC080 01/ RMK SC6AC2

CYXE;2008-03-24 17:00;CYXE 241700Z 05018KT 15SM -SN BKN009 OVC080 01/M01 A2941 RMK SC6AC2 SLP980

CYXE;2008-03-24 17:46;CYXE 241746Z 04016KT 2 1/2SM -SN OVC008 00/ RMK SC8

CYXE;2008-03-24 17:52;CYXE 241752Z 04016KT 1SM R09/2600VP6000FT/D -SN VV006 M01/ RMK SN8

CYXE;2008-03-24 18:00;CYXE 241800Z 04016KT 1/2SM R09/2600V6000FT/D SN VV006 M01/M01 A2945 RMK SN8 SLP996

CYXE;2008-03-24 18:04;CYXE 241804Z 05016KT 1 1/2SM R09/3000VP6000FT/U -SN OVC012 M01/ RMK SN2SC6

CYXE;2008-03-24 19:00;CYXE 241900Z 02015KT 1 1/2SM -SN OVC007 M01/M01 A2949 RMK SC8 SLP010

CYXE;2008-03-24 19:25;CYXE 241925Z 01012KT 1SM -SN VV006 M02/ RMK SN8

CYXE;2008-03-24 19:37;CYXE 241937Z 01013KT 3/4SM -SN VV006 M02/ RMK SN8

CYXE;2008-03-24 20:00;CYXE 242000Z 03015KT 3/4SM -SN VV006 M02/M02 A2953 RMK SN8 SLP022

CYXE;2008-03-24 20:12;CYXE 242012Z 03013KT 1SM -SN VV006 M02/ RMK SN8

CYXE;2008-03-24 20:47;CYXE 242047Z 04015KT 1 1/2SM -SN OVC008 M01/ RMK SC8

CYXE;2008-03-24 21:00;CYXE 242100Z 03013KT 1 1/2SM -SN OVC009 M01/M02 A2956 RMK SC8 SLP034

CYXE;2008-03-24 22:00;CYXE 242200Z 03011KT 2 1/2SM -SN BKN010 OVC020 M01/M02 A2959 RMK SF6SC2 SLP045

CYXE;2008-03-24 22:02;CYXE 242202Z 03011KT 4SM -SN BKN010 OVC020 M00/ RMK SF6SC2

CYXE;2008-03-24 22:35;CYXE 242235Z 01010G15KT 15SM BKN012 OVC040 00/ RMK SC5SC3

CYXE;2008-03-24 23:00;CYXE 242300Z 02010G15KT 15SM BKN014 OVC070 01/M01 A2962 RMK SC6AC2 SLP054

CYXE;2008-03-24 23:21;CYXE 242321Z 03008KT 15SM SCT014 BKN048 OVC070 01/ RMK SC3SC3AC2

CYXE;2008-03-25 00:00;CYXE 250000Z 04007KT 12SM -SN SCT014 BKN040 OVC070 01/M01 A2965 RMK SC3SC2AC2 SLP064

CYXE;2008-03-25 00:49;CYXE 250049Z 32003KT 15SM FEW014 OVC049 00/ RMK SC2SC6

CYXE;2008-03-25 01:00;CYXE 250100Z 32004KT 15SM FEW014 OVC049 00/M01 A2968 RMK SC2SC6 SLP074

CYXE;2008-03-25 02:00;CYXE 250200Z 29005KT 15SM SCT040 OVC070 M01/M02 A2971 RMK SC3AC5 SLP083

CYXE;2008-03-25 03:00;CYXE 250300Z 29002KT 15SM SCT060 BKN110 M01/M02 A2974 RMK SC3AC3 SLP097

CYXE;2008-03-25 04:00;CYXE 250400Z 33005KT 15SM SCT050 BKN250 M03/M03 A2977 RMK SC3CI0 SLP104

CYXE;2008-03-25 05:00;CYXE 250500Z 36002KT 15SM SCT070 BKN250 M03/M03 A2978 RMK AC3CI0 SLP109

CYXE;2008-03-25 06:00;CYXE 250600Z 07003KT 15SM BKN040 BKN250 M03/M04 A2980 RMK SC5CI2 SLP119

CYXE;2008-03-25 06:54;CYXE 250654Z 18002KT 8SM -SN OVC015 M02/ RMK SC8

CYXE;2008-03-25 07:00;CYXE 250700Z 19003KT 2SM -SN VV008 M02/M02 A2981 RMK SN8 SLP122

CYXE;2008-03-25 07:11;CYXE 250711Z 18004KT 8SM -SN FEW020 OVC040 M02/ RMK SC2SC6

CYXE;2008-03-25 07:35;CYXE 250735Z 17005KT 15SM BKN030 OVC065 M02/ RMK SC5SC2

CYXE;2008-03-25 08:00;CYXE 250800Z 19006KT 15SM BKN017 BKN060 M02/M02 A2980 RMK SC6SC2 SLP121

CYXE;2008-03-25 08:17;CYXE 250817Z 20005KT 2SM -SN VV012 M01/ RMK SN8

CYXE;2008-03-25 09:00;CYXE 250900Z 22006KT 10SM -SN BKN010 OVC055 M01/M01 A2980 RMK SF6SC2 SLP120

CYXE;2008-03-25 09:24;CYXE 250924Z 23007KT 10SM -SN OVC008 M01/ RMK SF8

CYXE;2008-03-25 10:00;CYXE 251000Z 23006KT 15SM -SN FEW005 BKN025 OVC070 M01/M01 A2980 RMK SF2SC5AC2 SLP118

CYXE;2008-03-25 11:00;CYXE 251100Z 23007KT 15SM BKN020 OVC080 M02/M02 A2979 RMK SC5AC3 SLP117

CYXE;2008-03-25 11:31;CYXE 251131Z 24009KT 15SM BKN010 BKN040 M02/ RMK SC5SC2

CYXE;2008-03-25 11:42;CYXE 251142Z 24008KT 15SM SCT012 OVC042 M02/ RMK SC3SC4

CYXE;2008-03-25 12:00;CYXE 251200Z 24009KT 6SM -SN OVC035 M01/M02 A2979 RMK SN5SC3 SLP116

CYXE;2008-03-25 12:35;CYXE 251235Z 25009KT 15SM FEW035 BKN080 BKN250 M01/ RMK SC2AC3CI2

CYXE;2008-03-25 13:00;CYXE 251300Z 26008KT 15SM FEW040 FEW080 BKN250 M02/M02 A2980 RMK SC1AC2CI2 SLP117

CYXE;2008-03-25 14:00;CYXE 251400Z 28010KT 15SM FEW075 BKN250 M02/M04 A2980 RMK AC2CI4 SLP119

CYXE;2008-03-25 15:00;CYXE 251500Z 29013KT 15SM FEW080 OVC250 M01/M05 A2981 RMK AC1CI3 SLP122

CYXE;2008-03-25 16:00;CYXE 251600Z 29014KT 15SM OVC250 M00/M05 A2981 RMK CI3 SLP124

CYXE;2008-03-25 17:00;CYXE 251700Z 30015KT 15SM OVC250 01/M04 A2983 RMK CI3 SLP130

CYXE;2008-03-25 18:00;CYXE 251800Z 32014KT 15SM SCT025 OVC250 02/M04 A2985 RMK SC3CI1 SLP135

CYXE;2008-03-25 19:00;CYXE 251900Z 31015KT 15SM BKN028 OVC250 01/M05 A2987 RMK SC6CI1 SLP141

CYXE;2008-03-25 20:00;CYXE 252000Z 31012KT 15SM FEW030 OVC250 03/M04 A2987 RMK SC1CI2 SLP143

CYXE;2008-03-25 21:00;CYXE 252100Z 30015KT 15SM SCT030 BKN250 03/M04 A2988 RMK SC3CI0 SLP144

CYXE;2008-03-25 22:00;CYXE 252200Z 32015KT 15SM BKN030 BKN250 04/M04 A2989 RMK SC5CI0 SLP146

CYXE;2008-03-25 22:34;CYXE 252234Z 05012KT 15SM SCT030 BKN250 M00/ RMK CU4CI0

CYXE;2008-03-25 23:00;CYXE 252300Z 06010KT 15SM FEW030 BKN250 M01/M05 A2992 RMK SC2CI1 SLP157

CYXE;2008-03-26 00:00;CYXE 260000Z 07010KT 15SM FEW030 BKN250 M02/M06 A2994 RMK SC2CI0 SLP167

CYXE;2008-03-26 01:00;CYXE 260100Z 07010KT 15SM FEW030 BKN250 M04/M06 A2995 RMK SC2CI0 SLP172

CYXE;2008-03-26 02:00;CYXE 260200Z 09006KT 15SM FEW030 SCT250 M06/M07 A2998 RMK SC2CI0 SLP179

CYXE;2008-03-26 03:00;CYXE 260300Z 07006KT 15SM SCT050 SCT250 M06/M07 A2999 RMK SC3CI0 SLP186

CYXE;2008-03-26 04:00;CYXE 260400Z 13004KT 15SM FEW050 FEW250 M06/M08 A2999 RMK SC1CI0 SLP189

CYXE;2008-03-26 05:00;CYXE 260500Z 11004KT 15SM SKC M07/M08 A3000 RMK SLP192

CYXE;2008-03-26 06:00;CYXE 260600Z 12005KT 15SM SKC M08/M09 A3001 RMK SLP193

CYXE;2008-03-26 07:00;CYXE 260700Z 12007KT 15SM SKC M08/M10 A3002 RMK SLP195

CYXE;2008-03-26 08:00;CYXE 260800Z 12007KT 15SM SKC M08/M10 A3001 RMK SLP194

CYXE;2008-03-26 09:00;CYXE 260900Z 11007KT 15SM SKC M08/M10 A3000 RMK SLP191

CYXE;2008-03-26 10:00;CYXE 261000Z 12008KT 15SM FEW060 FEW250 M09/M11 A3002 RMK SC1CI0 SLP195

CYXE;2008-03-26 11:00;CYXE 261100Z 13010KT 15SM SKC M09/M11 A3001 RMK SLP192

CYXE;2008-03-26 12:00;CYXE 261200Z 12007KT 15SM FEW060 M09/M12 A3000 RMK SC1 SLP195

CYXE;2008-03-26 13:00;CYXE 261300Z 11009KT 15SM FEW060 M10/M12 A3001 RMK SC1 SLP196

CYXE;2008-03-26 14:00;CYXE 261400Z 12010KT 15SM FEW060 FEW250 M08/M12 A3000 RMK SC1CI0 SLP195

CYXE;2008-03-26 15:00;CYXE 261500Z 11011KT 15SM FEW250 M07/M11 A3000 RMK CI1 SLP195

CYXE;2008-03-26 16:00;CYXE 261600Z 14007KT 15SM SCT250 M06/M09 A3001 RMK CI0 SLP198

CYXE;2008-03-26 17:00;CYXE 261700Z 11008KT 15SM FEW250 M04/M09 A3001 RMK CI1 SLP198

CYXE;2008-03-26 18:00;CYXE 261800Z 12012KT 15SM FEW250 M02/M07 A3000 RMK CI1 SLP193

CYXE;2008-03-26 19:00;CYXE 261900Z 11010G15KT 15SM FEW250 M01/M07 A2999 RMK CI2 SLP189

CYXE;2008-03-26 20:00;CYXE 262000Z 10010G16KT 15SM SCT250 00/M07 A2998 RMK CI2 SLP185

CYXE;2008-03-26 21:00;CYXE 262100Z 09014KT 15SM FEW120 BKN250 00/M06 A2996 RMK AC1CI2 SLP179

CYXE;2008-03-26 22:00;CYXE 262200Z 10012G17KT 15SM BKN250 M00/M06 A2995 RMK CI2 SLP176

CYXE;2008-03-26 23:00;CYXE 262300Z 09015KT 15SM FEW100 SCT250 M01/M07 A2996 RMK AC1CI2 OBS TAKEN +06 SLP178

CYXE;2008-03-27 00:00;CYXE 270000Z 10013KT 15SM FEW100 SCT250 M02/M08 A2998 RMK AC1CI2 SLP185

CYXE;2008-03-27 01:00;CYXE 270100Z 08011KT 15SM FEW100 FEW250 M04/M08 A2997 RMK AC1CI1 SLP182

CYXE;2008-03-27 02:00;CYXE 270200Z 06010KT 15SM FEW100 FEW250 M06/M09 A2997 RMK AC1CI1 SLP184

CYXE;2008-03-27 03:00;CYXE 270300Z 06011KT 15SM FEW100 FEW250 M08/M10 A2998 RMK AC1CI0 SLP187

CYXE;2008-03-27 04:00;CYXE 270400Z 06009KT 15SM SCT070 M08/M11 A2998 RMK AC3 SLP187

CYXE;2008-03-27 04:28;CYXE 270428Z 06009KT 15SM -SN BKN060 M08/ RMK SC6

CYXE;2008-03-27 04:39;CYXE 270439Z 07010KT 15SM SCT060 M08/ RMK SC4

CYXE;2008-03-27 05:00;CYXE 270500Z 06008KT 15SM SCT054 M09/M11 A2997 RMK SC3 SLP184

CYXE;2008-03-27 06:00;CYXE 270600Z 05009KT 15SM FEW055 M09/M12 A2995 RMK SC2 SLP176

CYXE;2008-03-27 07:00;CYXE 270700Z 04006KT 15SM SCT055 M10/M12 A2995 RMK SC3 SLP175

CYXE;2008-03-27 08:00;CYXE 270800Z 05007KT 15SM FEW006 SCT060 M10/M12 A2994 RMK SF1SC2 SLP173

CYXE;2008-03-27 09:00;CYXE 270900Z 04007KT 15SM SCT005 M10/M12 A2994 RMK ST3 SLP170

CYXE;2008-03-27 09:22;CYXE 270922Z 05008KT 15SM BKN006 M10/ RMK ST6

CYXE;2008-03-27 10:00;CYXE 271000Z 05010KT 15SM OVC005 M09/M12 A2993 RMK ST8 SLP169

CYXE;2008-03-27 10:31;CYXE 271031Z 05010KT 15SM OVC004 M09/ RMK ST8

CYXE;2008-03-27 11:00;CYXE 271100Z 06011KT 15SM OVC004 M09/M11 A2994 RMK ST8 SLP171

CYXE;2008-03-27 12:00;CYXE 271200Z 06009KT 15SM OVC004 M08/M09 A2995 RMK ST8 SLP175

CYXE;2008-03-27 12:18;CYXE 271218Z 05009KT 6SM BR OVC002 M08/ RMK ST8

CYXE;2008-03-27 13:00;CYXE 271300Z 05007KT 8SM OVC004 M08/M09 A2995 RMK ST8 BR VIS SW-NW 3 SLP177

CYXE;2008-03-27 13:10;CYXE 271310Z 06008KT 6SM BR OVC005 M08/ RMK ST8

CYXE;2008-03-27 13:49;CYXE 271349Z 05009KT 10SM OVC006 M08/ RMK SC7

CYXE;2008-03-27 14:00;CYXE 271400Z 05010KT 10SM OVC006 M08/M09 A2996 RMK SC7 SLP180

CYXE;2008-03-27 14:42;CYXE 271442Z 05010KT 15SM SCT008 BKN040 BKN280 M08/ RMK SC3SC2CI0

CYXE;2008-03-27 15:00;CYXE 271500Z 06009KT 15SM FEW010 BKN056 BKN280 M08/M10 A2997 RMK SC2SC3CI0 SLP187

CYXE;2008-03-27 16:00;CYXE 271600Z 06008KT 15SM FEW010 SCT051 BKN280 M07/M10 A2998 RMK SC2SC2CI0 SLP190

CYXE;2008-03-27 17:00;CYXE 271700Z 06008KT 15SM FEW010 FEW050 M03/M08 A2999 RMK SC1SC2 SLP193

CYXE;2008-03-27 18:00;CYXE 271800Z 05009KT 15SM FEW012 FEW050 M02/M07 A2999 RMK SC1SC1 SLP191

CYXE;2008-03-27 19:00;CYXE 271900Z 05010KT 15SM FEW015 FEW050 M02/M07 A3000 RMK SC1SC1 SLP193

CYXE;2008-03-27 20:00;CYXE 272000Z 04012KT 15SM FEW015 FEW050 M01/M07 A3000 RMK SC1SC1 SLP193

CYXE;2008-03-27 21:00;CYXE 272100Z 04010KT 15SM FEW015 FEW100 M02/M07 A3001 RMK SC1AC0 SLP197

CYXE;2008-03-27 22:00;CYXE 272200Z 05009KT 15SM FEW220 M01/M07 A3002 RMK CI0 SLP199

CYXE;2008-03-27 23:00;CYXE 272300Z 05011KT 15SM FEW220 M02/M07 A3002 RMK CI0 SLP201

CYXE;2008-03-28 00:00;CYXE 280000Z 04009KT 15SM FEW220 M03/M07 A3003 RMK CI0 SLP205

CYXE;2008-03-28 01:00;CYXE 280100Z 05007KT 15SM FEW220 M04/M08 A3005 RMK CI1 SLP209

CYXE;2008-03-28 02:00;CYXE 280200Z 05008KT 15SM BKN026 M05/M08 A3006 RMK SC6 SLP213

CYXE;2008-03-28 03:00;CYXE 280300Z 05006KT 15SM FEW026 BKN250 M07/M09 A3007 RMK SC1CI2 SLP220

CYXE;2008-03-28 04:00;CYXE 280400Z 05010KT 15SM FEW250 M07/M09 A3007 RMK CI0 SLP219

CYXE;2008-03-28 05:00;CYXE 280500Z 07007KT 15SM FEW250 M08/M10 A3007 RMK CI0 SLP220

CYXE;2008-03-28 06:00;CYXE 280600Z 08006KT 15SM SCT250 M10/M11 A3008 RMK CI0 SLP219

CYXE;2008-03-28 06:21;CYXE 280621Z 09005KT 15SM FEW006 SCT250 M10/ RMK SF2CI0

CYXE;2008-03-28 06:41;CYXE 280641Z 10007KT 10SM BKN006 M08/ RMK ST6 VIS SE 3 BR

CYXE;2008-03-28 07:00;CYXE 280700Z 10007KT 2SM BR OVC006 M08/M09 A3008 RMK ST8 SLP222

CYXE;2008-03-28 07:06;CYXE 280706Z 12008KT 1SM R09/P6000FT/N BR VV002 M08/ RMK FG8

CYXE;2008-03-28 07:52;CYXE 280752Z 13007KT 3SM BR VV002 M07/ RMK FG8

CYXE;2008-03-28 08:00;CYXE 280800Z 12006KT 3SM BR OVC002 M07/M07 A3008 RMK ST8 SLP221

CYXE;2008-03-28 08:33;CYXE 280833Z 10008KT 4SM BR OVC003 M06/ RMK ST8

CYXE;2008-03-28 09:00;CYXE 280900Z 10007KT 5SM BR OVC003 M06/M07 A3007 RMK ST8 SLP216

CYXE;2008-03-28 09:37;CYXE 280937Z 13005KT 5SM BR OVC004 M06/ RMK ST8

CYXE;2008-03-28 10:00;CYXE 281000Z 12007KT 5SM BR OVC004 M06/M07 A3007 RMK ST8 SLP216

CYXE;2008-03-28 11:00;CYXE 281100Z 13005KT 6SM BR OVC005 M07/M07 A3008 RMK ST8 SLP217

CYXE;2008-03-28 12:00;CYXE 281200Z 11008KT 5SM BR OVC004 M07/M07 A3008 RMK ST8 SLP218

CYXE;2008-03-28 12:11;CYXE 281211Z 09008KT 5SM BR OVC003 M07/ RMK ST8

CYXE;2008-03-28 12:48;CYXE 281248Z 13006KT 5SM BR OVC004 M07/ RMK ST8

CYXE;2008-03-28 13:00;CYXE 281300Z 10007KT 6SM BR OVC005 M06/M07 A3007 RMK ST8 SLP215

CYXE;2008-03-28 13:22;CYXE 281322Z 12006KT 6SM BR OVC006 M06/ RMK ST8

CYXE;2008-03-28 14:00;CYXE 281400Z 10009KT 5SM BR OVC005 M07/M07 A3007 RMK ST8 SLP215

CYXE;2008-03-28 14:17;CYXE 281417Z 13009KT 4SM BR OVC003 M07/ RMK ST8

CYXE;2008-03-28 15:00;CYXE 281500Z 10010G15KT 4SM BR OVC004 M06/M07 A3005 RMK ST8 SLP211

CYXE;2008-03-28 15:11;CYXE 281511Z 10015KT 6SM BR OVC006 M06/ RMK ST8

CYXE;2008-03-28 15:51;CYXE 281551Z 10011KT 10SM OVC009 M05/ RMK ST8

CYXE;2008-03-28 16:00;CYXE 281600Z 11011KT 10SM OVC009 M05/M06 A3004 RMK SC7 SLP209

CYXE;2008-03-28 16:36;CYXE 281636Z 11012KT 15SM SCT009 BKN280 M03/ RMK SC3CI2

CYXE;2008-03-28 17:00;CYXE 281700Z 12015KT 15SM SCT009 BKN280 M03/M06 A3003 RMK SC3CI2 SLP206

CYXE;2008-03-28 18:00;CYXE 281800Z 14012KT 15SM SCT016 BKN120 OVC280 M02/M06 A3001 RMK SC3AC2CI2 SLP198

CYXE;2008-03-28 19:00;CYXE 281900Z 13013KT 15SM FEW023 SCT050 BKN280 M00/M06 A3000 RMK SC2SC1CI2 SLP193

CYXE;2008-03-28 20:00;CYXE 282000Z 13012G19KT 15SM FEW029 BKN050 BKN280 01/M06 A2998 RMK SC2SC2CI2 SLP186

CYXE;2008-03-28 21:00;CYXE 282100Z 16011KT 15SM BKN029 BKN097 02/M06 A2995 RMK SC6AC1 SLP172

CYXE;2008-03-28 22:00;CYXE 282200Z 13012KT 15SM BKN025 01/M05 A2993 RMK SC6 SLP165

CYXE;2008-03-28 23:00;CYXE 282300Z 12012G17KT 15SM OVC025 01/M05 A2991 RMK SC7 SLP160

CYXE;2008-03-29 00:00;CYXE 290000Z 14014KT 15SM SCT025 OVC047 01/M05 A2990 RMK ST3SC4 SLP157

CYXE;2008-03-29 01:00;CYXE 290100Z 14011KT 15SM FEW029 SCT060 OVC110 00/M04 A2989 RMK SC2SC1AC4 SLP153

CYXE;2008-03-29 02:00;CYXE 290200Z 14014KT 15SM BKN029 OVC075 M00/M05 A2989 RMK SC5AC2 SLP153

CYXE;2008-03-29 02:52;CYXE 290252Z 14012KT 12SM -SN OVC029 M01/ RMK SC7

CYXE;2008-03-29 03:00;CYXE 290300Z 14009G15KT 12SM -SN OVC029 M01/M04 A2989 RMK SC8 SLP154

CYXE;2008-03-29 03:16;CYXE 290316Z 14013KT 15SM BKN029 OVC075 M01/ RMK SC5AC1

CYXE;2008-03-29 03:43;CYXE 290343Z 14015G22KT 4SM -SN SCT003 OVC040 M02/ RMK ST3SC5

CYXE;2008-03-29 04:00;CYXE 290400Z 13012KT 15SM FEW003 SCT040 M02/M05 A2988 RMK ST1SC2 SLP151

CYXE;2008-03-29 05:00;CYXE 290500Z 13009G15KT 15SM SCT090 M03/M06 A2987 RMK AC2 SLP147

CYXE;2008-03-29 06:00;CYXE 290600Z 14010KT 15SM SCT050 M04/M05 A2986 RMK SC3 SLP142

CYXE;2008-03-29 06:18;CYXE 290618Z 14010KT 15SM BKN013 BKN045 M03/ RMK SC5SC2

CYXE;2008-03-29 06:50;CYXE 290650Z 16009KT 15SM OVC009 M03/ RMK ST8

CYXE;2008-03-29 07:00;CYXE 290700Z 15012KT 15SM OVC008 M02/M04 A2984 RMK ST8 SLP135

CYXE;2008-03-29 07:30;CYXE 290730Z 18008KT 8SM OVC005 M02/ RMK ST8 BR

CYXE;2008-03-29 08:00;CYXE 290800Z 19010KT 6SM BR OVC005 M02/M02 A2983 RMK ST8 SLP132

CYXE;2008-03-29 08:45;CYXE 290845Z 22009KT 6SM BR OVC004 M02/ RMK ST8

CYXE;2008-03-29 09:00;CYXE 290900Z 21009KT 6SM BR OVC004 M02/M02 A2983 RMK ST8 SLP129

CYXE;2008-03-29 09:38;CYXE 290938Z 20007KT 4SM BR OVC003 M02/ RMK ST8

CYXE;2008-03-29 10:00;CYXE 291000Z 25005KT 3SM BR OVC003 M03/M03 A2984 RMK ST8 SLP131

CYXE;2008-03-29 10:28;CYXE 291028Z 22005KT 6SM BR OVC005 M03/ RMK ST8

CYXE;2008-03-29 11:00;CYXE 291100Z 27004KT 10SM OVC008 M03/M04 A2984 RMK ST7 BR SLP131

CYXE;2008-03-29 12:00;CYXE 291200Z 31005KT 15SM OVC008 M05/M07 A2986 RMK ST8 SLP139

CYXE;2008-03-29 12:08;CYXE 291208Z 32004KT 15SM SCT008 M06/ RMK ST4

CYXE;2008-03-29 13:00;CYXE 291300Z 28002KT 15SM FEW008 BKN250 M07/M08 A2987 RMK ST2CI0 SLP144

CYXE;2008-03-29 14:00;CYXE 291400Z 28003KT 15SM FEW008 BKN280 M06/M07 A2987 RMK ST2CI1 SLP145

CYXE;2008-03-29 15:00;CYXE 291500Z 27003KT 15SM FEW008 BKN250 M05/M06 A2987 RMK ST2CI1 SLP145

CYXE;2008-03-29 16:00;CYXE 291600Z 29002KT 15SM OVC016 M03/M06 A2988 RMK SC8 SLP149

CYXE;2008-03-29 16:28;CYXE 291628Z 32003KT 15SM OVC013 M03/ RMK SC8

CYXE;2008-03-29 17:00;CYXE 291700Z 36003KT 15SM OVC015 M03/M07 A2989 RMK SC8 SLP150

CYXE;2008-03-29 18:00;CYXE 291800Z 35006KT 15SM OVC015 M03/M06 A2988 RMK SC8 SLP150

CYXE;2008-03-29 19:00;CYXE 291900Z 35008KT 15SM OVC015 M02/M06 A2987 RMK SC8 SLP147

CYXE;2008-03-29 20:00;CYXE 292000Z 32010KT 15SM OVC017 M02/M06 A2989 RMK SC8 SLP151

CYXE;2008-03-29 21:00;CYXE 292100Z 01009KT 15SM OVC019 M01/M06 A2990 RMK SC8 SLP152

CYXE;2008-03-29 22:00;CYXE 292200Z 34010KT 15SM OVC023 M01/M06 A2991 RMK SC8 SLP156

CYXE;2008-03-29 22:44;CYXE 292244Z 35011KT 15SM -SN OVC027 M01/ RMK SC8

CYXE;2008-03-29 23:00;CYXE 292300Z 35014KT 15SM -SN OVC027 M01/M07 A2992 RMK SC8 SLP161

CYXE;2008-03-29 23:38;CYXE 292338Z 36012KT 15SM OVC027 M01/ RMK SC8

CYXE;2008-03-30 00:00;CYXE 300000Z 35014KT 15SM BKN027 M01/M07 A2994 RMK SC7 SLP169

CYXE;2008-03-30 01:00;CYXE 300100Z 36015KT 15SM BKN027 BKN086 M02/M07 A2995 RMK SC5AC2 SLP174

CYXE;2008-03-30 02:00;CYXE 300200Z 36016KT 15SM BKN027 M03/M07 A2998 RMK SC6 SLP182

CYXE;2008-03-30 03:00;CYXE 300300Z 36015G20KT 15SM BKN023 M03/M08 A3000 RMK SC6 SLP192

CYXE;2008-03-30 04:00;CYXE 300400Z 34011KT 15SM FEW023 FEW250 M05/M08 A3002 RMK SC1CI0 SLP197

CYXE;2008-03-30 05:00;CYXE 300500Z 31007KT 15SM SKC M07/M09 A3003 RMK SLP202

CYXE;2008-03-30 06:00;CYXE 300600Z 31011KT 15SM SKC M07/M09 A3004 RMK SLP206

CYXE;2008-03-30 07:00;CYXE 300700Z 32009KT 15SM SKC M08/M10 A3005 RMK SLP208

CYXE;2008-03-30 08:00;CYXE 300800Z 30008KT 15SM SKC M08/M10 A3006 RMK SLP212

CYXE;2008-03-30 09:00;CYXE 300900Z 31009KT 15SM SKC M09/M10 A3007 RMK SLP216

CYXE;2008-03-30 10:00;CYXE 301000Z 32010KT 15SM SKC M10/M11 A3008 RMK SLP220

CYXE;2008-03-30 11:00;CYXE 301100Z 32007KT 15SM SKC M10/M12 A3009 RMK SLP223

CYXE;2008-03-30 12:00;CYXE 301200Z 30008KT 15SM FEW280 M11/M12 A3010 RMK CI1 SLP228

CYXE;2008-03-30 13:00;CYXE 301300Z 32006KT 15SM FEW280 M11/M13 A3011 RMK CI0 SLP232

CYXE;2008-03-30 14:00;CYXE 301400Z 32006KT 15SM FEW280 M10/M12 A3013 RMK CI0 SLP237

CYXE;2008-03-30 15:00;CYXE 301500Z 34005KT 15SM FEW280 M08/M11 A3014 RMK CI1 SLP243

CYXE;2008-03-30 16:00;CYXE 301600Z 34008KT 15SM FEW110 FEW280 M07/M10 A3015 RMK AC1CI1 SLP246

CYXE;2008-03-30 17:00;CYXE 301700Z 35007KT 15SM FEW020 FEW280 M06/M11 A3016 RMK CU1CI1 SLP247

CYXE;2008-03-30 18:00;CYXE 301800Z 02008KT 15SM FEW020 FEW280 M04/M10 A3016 RMK CU1CI1 SLP248

CYXE;2008-03-30 19:00;CYXE 301900Z 34005KT 15SM FEW024 BKN280 M04/M10 A3016 RMK CU1CI2 SLP249

CYXE;2008-03-30 20:00;CYXE 302000Z 36007KT 15SM FEW084 OVC280 M03/M11 A3016 RMK AC1CI2 SLP249

CYXE;2008-03-30 21:00;CYXE 302100Z 02008KT 15SM FEW040 FEW085 BKN280 M02/M14 A3016 RMK CU1AC1CI2 SLP247

CYXE;2008-03-30 22:00;CYXE 302200Z 02006KT 15SM FEW085 SCT280 M02/M17 A3015 RMK AC1CI2 SLP246

CYXE;2008-03-30 23:00;CYXE 302300Z 36008KT 15SM SCT280 M03/M17 A3015 RMK CI2 SLP246

CYXE;2008-03-31 00:00;CYXE 310000Z 03008KT 15SM SCT280 M04/M16 A3016 RMK CI2 SLP249

CYXE;2008-03-31 01:00;CYXE 310100Z 06007KT 15SM FEW100 BKN280 M04/M15 A3017 RMK AC1CI3 SLP252

CYXE;2008-03-31 02:00;CYXE 310200Z 07003KT 15SM BKN250 M06/M14 A3017 RMK CI4 SLP255

CYXE;2008-03-31 03:00;CYXE 310300Z 07004KT 15SM OVC250 M07/M13 A3019 RMK CI5 SLP262

CYXE;2008-03-31 04:00;CYXE 310400Z 09003KT 15SM FEW090 BKN250 M06/M12 A3021 RMK AC2CI2 SLP266

CYXE;2008-03-31 05:00;CYXE 310500Z 07003KT 15SM FEW070 BKN250 M06/M12 A3021 RMK AC2CI2 SLP267

CYXE;2008-03-31 06:00;CYXE 310600Z 05004KT 15SM BKN070 OVC250 M07/M11 A3021 RMK AC6CI2 SLP264

CYXE;2008-03-31 07:00;CYXE 310700Z 04005KT 15SM OVC070 M06/M12 A3020 RMK AC8 SLP263

CYXE;2008-03-31 08:00;CYXE 310800Z 05004KT 15SM OVC050 M06/M11 A3021 RMK SC8 SLP266

CYXE;2008-03-31 09:00;CYXE 310900Z 09004KT 15SM OVC048 M06/M12 A3022 RMK SC8 SLP266

CYXE;2008-03-31 10:00;CYXE 311000Z 07003KT 15SM OVC043 M06/M11 A3022 RMK SC8 SLP266

CYXE;2008-03-31 11:00;CYXE 311100Z 06003KT 15SM OVC045 M07/M12 A3022 RMK SC8 SLP268

CYXE;2008-03-31 12:00;CYXE 311200Z 04004KT 15SM OVC045 M07/M12 A3023 RMK SC8 SLP272

CYXE;2008-03-31 13:00;CYXE 311300Z 06002KT 15SM OVC047 M07/M11 A3024 RMK SC8 SLP275

CYXE;2008-03-31 14:00;CYXE 311400Z 13004KT 5SM -SN SCT019 OVC030 M06/M09 A3025 RMK SC3SC5 SLP278

CYXE;2008-03-31 14:50;CYXE 311450Z 10003KT 15SM OVC045 M06/ RMK ST8

CYXE;2008-03-31 15:00;CYXE 311500Z 05002KT 15SM OVC045 M06/M10 A3025 RMK ST8 SLP281

CYXE;2008-03-31 15:32;CYXE 311532Z 09003KT 15SM -SN OVC019 M06/ RMK ST8

CYXE;2008-03-31 15:42;CYXE 311542Z 13004KT 2SM -SN OVC017 M05/ RMK ST8

CYXE;2008-03-31 15:44;CYXE 311544Z 13004KT 1 1/2SM -SN OVC013 M05/ RMK ST8

CYXE;2008-03-31 16:00;CYXE 311600Z 10004KT 2SM -SN OVC013 M05/M09 A3026 RMK ST8 SLP284

CYXE;2008-03-31 16:12;CYXE 311612Z 11004KT 1 1/2SM -SN OVC040 M05/ RMK SN4ST4

CYXE;2008-03-31 16:34;CYXE 311634Z 09006KT 3SM -SN FEW012 OVC040 M04/ RMK SF1ST6

CYXE;2008-03-31 17:00;CYXE 311700Z 09006KT 3SM -SN FEW017 OVC034 M05/M08 A3027 RMK SF1ST6 SLP286

CYXE;2008-03-31 18:00;CYXE 311800Z 08009KT 15SM BKN017 OVC230 M04/M09 A3027 RMK SC5CI1 SLP284

CYXE;2008-03-31 19:00;CYXE 311900Z 10008KT 15SM BKN019 OVC029 M02/M08 A3026 RMK SC6SC1 SLP281

CYXE;2008-03-31 19:52;CYXE 311952Z 12005KT 10SM -SN OVC021 M03/ RMK SC8

CYXE;2008-03-31 20:00;CYXE 312000Z 11004KT 6SM -SN OVC021 M03/M07 A3026 RMK SC8 SLP280

CYXE;2008-03-31 21:00;CYXE 312100Z 11005KT 10SM -SN OVC019 M03/M07 A3025 RMK SC8 SLP279

CYXE;2008-03-31 22:00;CYXE 312200Z 12004KT 5SM -SN OVC017 M03/M06 A3025 RMK SC8 SLP279

CYXE;2008-03-31 22:47;CYXE 312247Z 09003KT 15SM FEW015 OVC025 M03/ RMK SC2SC6

CYXE;2008-03-31 23:00;CYXE 312300Z 05004KT 15SM OVC025 M03/M07 A3025 RMK SC8 SLP277

CYXE;2008-04-01 01:00;CYXE 010100Z 08002KT 15SM BKN025 M03/M07 A3025 RMK SC7 SLP277

CYXE;2008-04-01 02:00;CYXE 010200Z 09004KT 15SM BKN030 M04/M07 A3024 RMK SC5 SLP276

CYXE;2008-04-01 03:00;CYXE 010300Z 13005KT 15SM FEW030 M05/M07 A3025 RMK SC2 SLP280

CYXE;2008-04-01 04:00;CYXE 010400Z 14004KT 15SM SKC M06/M08 A3025 RMK SLP279

CYXE;2008-04-01 05:00;CYXE 010500Z 18003KT 15SM SKC M06/M07 A3024 RMK SLP277

CYXE;2008-04-01 06:00;CYXE 010600Z 21003KT 15SM SKC M08/M08 A3024 RMK SLP275

CYXE;2008-04-01 07:00;CYXE 010700Z 23004KT 15SM SKC M09/M09 A3023 RMK SLP273

CYXE;2008-04-01 08:00;CYXE 010800Z 22005KT 15SM SKC M09/M09 A3023 RMK SLP271

CYXE;2008-04-01 09:00;CYXE 010900Z 21004KT 15SM FEW120 M09/M09 A3021 RMK AC1 SLP266

CYXE;2008-04-01 10:00;CYXE 011000Z 23006KT 15SM FEW120 M10/M11 A3020 RMK AC1 SLP263

CYXE;2008-04-01 11:00;CYXE 011100Z 23006KT 15SM SKC M11/M12 A3019 RMK SLP259

CYXE;2008-04-01 12:00;CYXE 011200Z 24006KT 15SM FEW280 M12/M13 A3018 RMK CI0 SLP258

CYXE;2008-04-01 13:00;CYXE 011300Z 22005KT 15SM SKC M12/M13 A3017 RMK SLP255

CYXE;2008-04-01 14:00;CYXE 011400Z 22005KT 15SM SKC M09/M10 A3017 RMK SLP252

CYXE;2008-04-01 15:00;CYXE 011500Z 23005KT 15SM SKC M06/M07 A3016 RMK SLP247

CYXE;2008-04-01 16:00;CYXE 011600Z 23008KT 15SM SKC M04/M06 A3015 RMK SLP244

CYXE;2008-04-01 17:00;CYXE 011700Z 23011KT 15SM SKC M01/M06 A3013 RMK SLP239

CYXE;2008-04-01 18:00;CYXE 011800Z 24010KT 15SM FEW028 01/M07 A3012 RMK CU2 SLP230

CYXE;2008-04-01 19:00;CYXE 011900Z 24010KT 15SM FEW034 01/M10 A3009 RMK CU2 SLP223

CYXE;2008-04-01 20:00;CYXE 012000Z 23010G15KT 15SM FEW034 FEW240 01/M10 A3008 RMK CU1CI0 SLP217

CYXE;2008-04-01 21:00;CYXE 012100Z 23013KT 15SM FEW050 02/M11 A3006 RMK CU1 SLP212

CYXE;2008-04-01 22:00;CYXE 012200Z 24010KT 15SM FEW050 02/M10 A3005 RMK CU1 SLP207

CYXE;2008-04-01 23:00;CYXE 012300Z 23012KT 15SM FEW050 FEW250 01/M11 A3003 RMK CU1CI0 SLP203

CYXE;2008-04-02 00:00;CYXE 020000Z 23011KT 15SM FEW250 01/M10 A3001 RMK CI1 SLP197

CYXE;2008-04-02 01:00;CYXE 020100Z 21009KT 15SM SCT250 M00/M09 A2999 RMK CI2 SLP190

CYXE;2008-04-02 02:00;CYXE 020200Z 19006KT 15SM SCT230 M02/M09 A2998 RMK CI2 SLP187

CYXE;2008-04-02 03:00;CYXE 020300Z 19006KT 15SM SCT230 M03/M08 A2998 RMK CI1 SLP185

CYXE;2008-04-02 04:00;CYXE 020400Z 19006KT 15SM FEW230 M03/M08 A2998 RMK CI1 SLP184

CYXE;2008-04-02 05:00;CYXE 020500Z 18006KT 15SM SKC M04/M08 A2996 RMK SLP178

CYXE;2008-04-02 06:00;CYXE 020600Z 20008KT 15SM SKC M03/M07 A2995 RMK SLP171

CYXE;2008-04-02 07:00;CYXE 020700Z 20007KT 15SM FEW090 M04/M07 A2994 RMK AC1 SLP166

CYXE;2008-04-02 08:00;CYXE 020800Z 21007KT 15SM FEW080 M06/M07 A2992 RMK AC1 SLP160

CYXE;2008-04-02 09:00;CYXE 020900Z 22009KT 15SM FEW066 SCT098 M05/M07 A2990 RMK SC2AC2 SLP155

CYXE;2008-04-02 10:00;CYXE 021000Z 23006KT 15SM FEW063 SCT100 M06/M08 A2990 RMK SC2AC2 SLP152

CYXE;2008-04-02 11:00;CYXE 021100Z 22007KT 15SM BKN067 M06/M08 A2989 RMK AC6 SLP149

CYXE;2008-04-02 12:00;CYXE 021200Z 22007KT 15SM FEW063 SCT250 M07/M09 A2988 RMK SC2CI1 SLP147

CYXE;2008-04-02 13:00;CYXE 021300Z 24005KT 15SM FEW012 FEW063 M07/M08 A2987 RMK SF1SC1 SLP146

CYXE;2008-04-02 14:00;CYXE 021400Z 25007KT 15SM FEW012 FEW065 BKN250 M05/M08 A2987 RMK SF1SC1CI2 SLP145

CYXE;2008-04-02 15:00;CYXE 021500Z 28010KT 15SM FEW020 FEW080 BKN280 M01/M07 A2988 RMK SF1AC1CI1 SLP146

CYXE;2008-04-02 16:00;CYXE 021600Z 30016KT 15SM FEW020 FEW080 SCT280 01/M08 A2987 RMK SC1AC1CI1 SLP145

CYXE;2008-04-02 17:00;CYXE 021700Z 29015KT 15SM FEW030 FEW090 SCT280 02/M07 A2988 RMK SC1AC1CI0 SLP146

CYXE;2008-04-02 18:00;CYXE 021800Z 30012KT 15SM FEW040 SCT090 BKN280 04/M06 A2988 RMK SC2AC1CI0 SLP143

CYXE;2008-04-02 19:00;CYXE 021900Z 29018KT 15SM VCSH SCT039 SCT090 04/M10 A2987 RMK SC3AC1 SLP141

CYXE;2008-04-02 20:00;CYXE 022000Z 30016G21KT 15SM FEW050 04/M09 A2986 RMK SC2 SLP139

CYXE;2008-04-02 21:00;CYXE 022100Z 29018KT 15SM FEW050 SCT250 05/M09 A2986 RMK CU2CI0 SLP136

CYXE;2008-04-02 22:00;CYXE 022200Z 30013G20KT 15SM FEW060 FEW250 06/M09 A2985 RMK CU2CI0 SLP134

CYXE;2008-04-02 23:00;CYXE 022300Z 28014KT 15SM FEW070 FEW250 06/M10 A2984 RMK AC1CI1 SLP131

CYXE;2008-04-03 00:00;CYXE 030000Z 28015KT 15SM FEW050 SCT250 04/M08 A2984 RMK SC2CI0 OBS TAKEN +02 SLP132

CYXE;2008-04-03 01:00;CYXE 030100Z 27008KT 15SM SCT050 BKN250 04/M05 A2983 RMK SC4CI0 SLP129

CYXE;2008-04-03 02:00;CYXE 030200Z 22008KT 15SM SCT050 BKN250 00/M05 A2981 RMK SC4CI0 SLP124

CYXE;2008-04-03 03:00;CYXE 030300Z 23009KT 15SM FEW050 SCT070 BKN250 M00/M04 A2982 RMK SC2AC2CI0 SLP126

CYXE;2008-04-03 04:00;CYXE 030400Z 25008KT 15SM SCT070 M01/M04 A2983 RMK AC4 SLP130

CYXE;2008-04-03 05:00;CYXE 030500Z 25007KT 15SM SCT070 M01/M04 A2983 RMK AC4 SLP128

CYXE;2008-04-03 06:00;CYXE 030600Z 23008KT 15SM BKN070 M01/M04 A2981 RMK AC7 SLP121

CYXE;2008-04-03 07:00;CYXE 030700Z 24007KT 15SM BKN063 M02/M04 A2981 RMK SC6 SLP118

CYXE;2008-04-03 08:00;CYXE 030800Z 23008KT 15SM BKN078 M02/M04 A2979 RMK AC5 SLP113

CYXE;2008-04-03 09:00;CYXE 030900Z 25009KT 15SM BKN076 M00/M05 A2979 RMK AC7 SLP110

CYXE;2008-04-03 10:00;CYXE 031000Z 26006KT 15SM FEW053 OVC073 M01/M05 A2979 RMK SC2AC6 SLP111

CYXE;2008-04-03 11:00;CYXE 031100Z 25007KT 15SM OVC068 M01/M04 A2979 RMK AC8 SLP110

CYXE;2008-04-03 12:00;CYXE 031200Z 26006KT 15SM OVC057 00/M04 A2980 RMK SC8 SLP114

CYXE;2008-04-03 13:00;CYXE 031300Z 24006KT 15SM OVC051 M00/M04 A2981 RMK SC8 SLP116

CYXE;2008-04-03 14:00;CYXE 031400Z 23005KT 15SM BKN061 OVC098 01/M03 A2981 RMK SC5AC2 SLP118

CYXE;2008-04-03 15:00;CYXE 031500Z 26007KT 15SM BKN065 BKN099 03/M03 A2982 RMK SC5AC1 SLP124

CYXE;2008-04-03 16:00;CYXE 031600Z 30008KT 15SM SCT058 BKN100 BKN280 05/M04 A2983 RMK SC3AC2CI0 SLP125

CYXE;2008-04-03 17:00;CYXE 031700Z 31010KT 15SM FEW058 SCT098 07/M03 A2982 RMK SC2AC1 SLP123

CYXE;2008-04-03 18:00;CYXE 031800Z 30010KT 15SM FEW065 SCT100 BKN280 08/M04 A2982 RMK SC2AC2CI1 SLP121

CYXE;2008-04-03 19:00;CYXE 031900Z 28008KT 15SM VCSH BKN047 OVC100 08/M04 A2982 RMK SC5AC2 SLP119

CYXE;2008-04-03 20:00;CYXE 032000Z 30007KT 15SM VCSH BKN047 OVC067 08/M04 A2981 RMK SC6AC2 SLP117

CYXE;2008-04-03 21:00;CYXE 032100Z 28010KT 15SM VCSH BKN047 OVC070 08/M03 A2981 RMK SC6AC2 SLP116

CYXE;2008-04-03 22:00;CYXE 032200Z 29012KT 15SM BKN047 OVC250 08/M03 A2980 RMK SC6CI0 SLP112

CYXE;2008-04-03 23:00;CYXE 032300Z 36009KT 15SM BKN045 OVC250 07/M01 A2981 RMK SC6CI0 SLP115

CYXE;2008-04-04 00:00;CYXE 040000Z 36009KT 15SM BKN050 OVC250 05/M01 A2981 RMK SC5CI1 SLP116

CYXE;2008-04-04 01:00;CYXE 040100Z 36008KT 15SM BKN052 OVC250 04/M00 A2982 RMK SC6CI0 SLP122

CYXE;2008-04-04 02:00;CYXE 040200Z 03006KT 15SM FEW013 OVC040 02/M00 A2983 RMK SC2SC6 VIRGA SLP125

CYXE;2008-04-04 02:32;CYXE 040232Z 36003KT 12SM -RA FEW013 OVC030 02/ RMK SC1SC7

CYXE;2008-04-04 03:00;CYXE 040300Z 36004KT 12SM -RA FEW012 OVC024 01/01 A2984 RMK SC1SC7 SLP128

CYXE;2008-04-04 03:21;CYXE 040321Z 04007KT 15SM -RASN BKN012 OVC024 01/ RMK SC6SC2

CYXE;2008-04-04 03:44;CYXE 040344Z 04005KT 15SM FEW012 BKN024 M01/ RMK SC2SC2

CYXE;2008-04-04 04:00;CYXE 040400Z 04008KT 15SM SCT007 BKN030 M01/M01 A2986 RMK SF3SC3 SLP134

CYXE;2008-04-04 05:00;CYXE 040500Z 04008KT 15SM SCT012 BKN025 M01/M02 A2986 RMK SC3SC4 SLP134

CYXE;2008-04-04 05:38;CYXE 040538Z 03007KT 15SM FEW006 BKN027 M02/ RMK SF1SC6

CYXE;2008-04-04 06:00;CYXE 040600Z 03006KT 15SM FEW017 SCT027 M03/M04 A2986 RMK SC1SC2 SLP135

CYXE;2008-04-04 07:00;CYXE 040700Z 01006KT 15SM SCT008 BKN018 OVC026 M02/M03 A2987 RMK SF3SC3SC2 SLP139

CYXE;2008-04-04 07:08;CYXE 040708Z 02007KT 15SM BKN008 OVC018 M03/ RMK SF6SC2

CYXE;2008-04-04 07:34;CYXE 040734Z 05005KT 15SM FEW009 OVC018 M02/ RMK SF2SC6

CYXE;2008-04-04 08:00;CYXE 040800Z 05005KT 15SM OVC018 M02/M03 A2987 RMK SC8 SLP139

CYXE;2008-04-04 09:00;CYXE 040900Z 07004KT 15SM OVC020 M02/M03 A2986 RMK SC8 SLP133

CYXE;2008-04-04 10:00;CYXE 041000Z 04003KT 15SM BKN021 M03/M04 A2984 RMK SC6 SLP129

CYXE;2008-04-04 10:20;CYXE 041020Z 02003KT 15SM -SN BKN018 BKN045 M03/ RMK SC6SC1

CYXE;2008-04-04 11:00;CYXE 041100Z 09003KT 15SM BKN038 M03/M03 A2983 RMK SC6 SLP124

CYXE;2008-04-04 12:00;CYXE 041200Z 34002KT 15SM OVC017 M02/M03 A2983 RMK SC8 SLP126

CYXE;2008-04-04 13:00;CYXE 041300Z 01005KT 15SM OVC007 M02/M03 A2983 RMK SF8 SLP126

CYXE;2008-04-04 13:08;CYXE 041308Z 04005KT 15SM -SN BKN007 OVC015 M02/ RMK SF6SC2

CYXE;2008-04-04 13:48;CYXE 041348Z 07003KT 15SM BKN008 OVC015 M02/ RMK SF7SC1

CYXE;2008-04-04 14:00;CYXE 041400Z 05002KT 15SM OVC009 M02/M03 A2982 RMK ST8 SLP124

CYXE;2008-04-04 15:00;CYXE 041500Z 05004KT 15SM OVC006 M02/M03 A2982 RMK ST8 SLP124

CYXE;2008-04-04 16:00;CYXE 041600Z 14002KT 15SM BKN007 M02/M03 A2979 RMK SC7 SLP115

CYXE;2008-04-04 17:00;CYXE 041700Z 32002KT 15SM OVC010 01/M02 A2978 RMK SC8 SLP111

CYXE;2008-04-04 17:14;CYXE 041714Z 02008KT 10SM -SN OVC010 M00/ RMK SC8

CYXE;2008-04-04 17:24;CYXE 041724Z 04009KT 2SM R09/4000VP6000FT/D -SN OVC005 M02/ RMK SC8

CYXE;2008-04-04 17:31;CYXE 041731Z 03007KT 1SM R09/3500V5000FT/N -SN VV004 M02/ RMK SN8

CYXE;2008-04-04 17:37;CYXE 041737Z 03008KT 1/2SM R09/2400V5000FT/D SN VV002 M02/ RMK SN8

CYXE;2008-04-04 17:49;CYXE 041749Z 04008KT 1SM R09/1600V4000FT/U -SN VV002 M02/ RMK SN8

CYXE;2008-04-04 18:00;CYXE 041800Z 03008KT 1SM R09/2800V4000FT/D -SN VV004 M02/M03 A2978 RESN RMK SN8 SLP113

CYXE;2008-04-04 18:12;CYXE 041812Z 04009KT 2SM -SN VV004 M02/ RMK SN8

CYXE;2008-04-04 18:19;CYXE 041819Z 04010KT 2SM -SN VV005 M02/ RMK SN8

CYXE;2008-04-04 18:43;CYXE 041843Z 04015KT 2SM -SN OVC007 M03/ RMK SC8

CYXE;2008-04-04 19:00;CYXE 041900Z 04015KT 2SM -SN OVC009 M03/M04 A2979 RMK SC8 SLP117

CYXE;2008-04-04 19:42;CYXE 041942Z 04013KT 8SM OVC010 M03/ RMK SC8

CYXE;2008-04-04 20:00;CYXE 042000Z 04013KT 8SM -SN OVC012 M03/M05 A2981 RMK SC8 SLP123

CYXE;2008-04-04 21:00;CYXE 042100Z 04014KT 10SM -SN OVC014 M03/M05 A2981 RMK SC8 SLP125

CYXE;2008-04-04 21:15;CYXE 042115Z 01013KT 15SM BKN014 OVC040 M03/ RMK SC6SC2

CYXE;2008-04-04 21:25;CYXE 042125Z 03011KT 12SM -SN BKN016 OVC040 M03/ RMK SC6SC2

CYXE;2008-04-04 22:00;CYXE 042200Z 01015KT 10SM -SN BKN016 BKN040 OVC250 M02/M05 A2983 RMK SC5SC2CI0 SLP129

CYXE;2008-04-04 22:25;CYXE 042225Z 01017KT 15SM SCT018 OVC250 M02/ RMK SC4CI2

CYXE;2008-04-04 23:00;CYXE 042300Z 01013G19KT 15SM FEW018 FEW050 BKN250 M02/M09 A2983 RMK SC2SC1CI1 SLP131

CYXE;2008-04-05 00:00;CYXE 050000Z 01009KT 15SM FEW018 BKN250 M03/M11 A2985 RMK SC2CI0 SLP136

CYXE;2008-04-05 01:00;CYXE 050100Z 02009KT 15SM FEW018 BKN250 M03/M10 A2985 RMK SC2CI0 CONTRAILS SLP136

CYXE;2008-04-05 02:00;CYXE 050200Z 02007KT 15SM FEW020 FEW090 BKN250 M05/M11 A2986 RMK SC1AC1CI1 SLP139

CYXE;2008-04-05 03:00;CYXE 050300Z 01004KT 15SM SCT250 M07/M10 A2987 RMK CI0 SLP148

CYXE;2008-04-05 04:00;CYXE 050400Z 05005KT 15SM SKC M08/M12 A2989 RMK SLP152

CYXE;2008-04-05 05:00;CYXE 050500Z 03005KT 15SM SKC M08/M13 A2988 RMK SLP150

CYXE;2008-04-05 06:00;CYXE 050600Z 03008KT 15SM SKC M08/M15 A2989 RMK SLP154

CYXE;2008-04-05 07:00;CYXE 050700Z 04007KT 15SM SKC M09/M15 A2988 RMK SLP153

CYXE;2008-04-05 08:00;CYXE 050800Z 04007KT 15SM SKC M10/M15 A2989 RMK SLP155

CYXE;2008-04-05 09:00;CYXE 050900Z 06005KT 15SM SKC M11/M15 A2989 RMK SLP157

CYXE;2008-04-05 10:00;CYXE 051000Z 06002KT 15SM SKC M12/M15 A2990 RMK SLP159

CYXE;2008-04-05 11:00;CYXE 051100Z 03003KT 15SM SKC M12/M15 A2990 RMK SLP160

CYXE;2008-04-05 12:00;CYXE 051200Z 05002KT 15SM FEW250 M12/M15 A2990 RMK CI0 SLP161

CYXE;2008-04-05 13:00;CYXE 051300Z 04004KT 15SM BKN250 M12/M15 A2990 RMK CI0 SLP163

CYXE;2008-04-05 14:00;CYXE 051400Z 05004KT 15SM BKN250 M10/M15 A2991 RMK CI2 SLP165

CYXE;2008-04-05 15:00;CYXE 051500Z 05004KT 15SM OVC250 M08/M15 A2991 RMK CI2 SLP166

CYXE;2008-04-05 16:00;CYXE 051600Z 07002KT 15SM OVC280 M06/M14 A2992 RMK CI2 SLP167

CYXE;2008-04-05 17:00;CYXE 051700Z 34002KT 15SM OVC280 M04/M14 A2992 RMK CI2 SLP169

CYXE;2008-04-05 18:00;CYXE 051800Z 32005KT 15SM OVC280 M04/M14 A2992 RMK CI2 SLP165

CYXE;2008-04-05 19:00;CYXE 051900Z 04005KT 15SM OVC280 M02/M15 A2990 RMK CI2 SLP161

CYXE;2008-04-05 20:00;CYXE 052000Z 05009KT 15SM OVC280 M01/M13 A2990 RMK CI2 SLP159

CYXE;2008-04-05 21:00;CYXE 052100Z 05005KT 15SM OVC280 M01/M14 A2990 RMK CI2 SLP158

CYXE;2008-04-05 22:00;CYXE 052200Z 11007KT 15SM OVC280 M01/M14 A2989 RMK CS2 CONTRAILS SLP155

CYXE;2008-04-05 23:00;CYXE 052300Z 10007KT 15SM OVC280 M00/M13 A2989 RMK CS2 CONTRAILS SLP155

CYXE;2008-04-06 00:00;CYXE 060000Z 13006KT 15SM OVC280 M01/M13 A2988 RMK CS2 CONTRAILS SLP154

CYXE;2008-04-06 01:00;CYXE 060100Z 11007KT 15SM FEW100 OVC250 M02/M12 A2989 RMK AC1CI2 SLP155

CYXE;2008-04-06 02:00;CYXE 060200Z 11007KT 15SM FEW080 SCT120 OVC250 M03/M11 A2989 RMK AC2AC2CI2 SLP156

CYXE;2008-04-06 03:00;CYXE 060300Z 11006KT 15SM SCT070 BKN120 OVC250 M03/M10 A2990 RMK AC3AC2CI1 SLP157

CYXE;2008-04-06 04:00;CYXE 060400Z 12008KT 15SM FEW070 SCT250 M04/M09 A2989 RMK AC2CI0 SLP155

CYXE;2008-04-06 05:00;CYXE 060500Z 12006KT 15SM BKN060 BKN250 M04/M08 A2989 RMK SC5CI0 SLP154

CYXE;2008-04-06 06:00;CYXE 060600Z 12007KT 15SM OVC039 M03/M09 A2988 RMK SC8 SLP150

CYXE;2008-04-06 06:21;CYXE 060621Z 12007KT 15SM -SN OVC027 M03/ RMK SC8

CYXE;2008-04-06 07:00;CYXE 060700Z 14007KT 15SM -SN OVC027 M03/M09 A2987 RMK SC8 SLP145

CYXE;2008-04-06 08:00;CYXE 060800Z 11009KT 15SM -SN OVC036 M03/M08 A2986 RMK SC8 SLP142

CYXE;2008-04-06 08:16;CYXE 060816Z 12010KT 15SM OVC036 M04/ RMK SC8

CYXE;2008-04-06 09:00;CYXE 060900Z 12010KT 15SM OVC053 M04/M08 A2985 RMK SC8 SLP137

CYXE;2008-04-06 10:00;CYXE 061000Z 10009KT 15SM FEW024 SCT050 BKN280 M04/M07 A2982 RMK SC2SC2CI0 SLP127

CYXE;2008-04-06 11:00;CYXE 061100Z 11007KT 15SM SCT048 BKN071 M04/M07 A2982 RMK SC3AC2 SLP128

CYXE;2008-04-06 11:37;CYXE 061137Z 12009KT 15SM BKN013 BKN070 M03/ RMK SC6AC1

CYXE;2008-04-06 12:00;CYXE 061200Z 13007KT 15SM BKN013 M02/M06 A2982 RMK SC7 SLP127

CYXE;2008-04-06 13:00;CYXE 061300Z 12011KT 15SM BKN011 OVC020 M02/M04 A2981 RMK SC6SC2 SLP124

CYXE;2008-04-06 14:00;CYXE 061400Z 12010KT 15SM BKN010 OVC020 M02/M04 A2982 RMK SC6SC2 SLP127

CYXE;2008-04-06 15:00;CYXE 061500Z 11010KT 10SM -SN OVC017 M02/M04 A2982 RMK SC8 SLP129

CYXE;2008-04-06 15:32;CYXE 061532Z 12010KT 3SM -SN FEW010 OVC017 M02/ RMK SC2SC6

CYXE;2008-04-06 15:48;CYXE 061548Z 11009KT 1 1/2SM -SN FEW010 OVC017 M02/ RMK SC2SC6

CYXE;2008-04-06 16:00;CYXE 061600Z 11012KT 1 1/2SM -SN OVC013 M02/M03 A2982 RMK SC8 SLP129

CYXE;2008-04-06 16:29;CYXE 061629Z 11011KT 3SM -SN SCT008 OVC020 M02/ RMK SC3SC5

CYXE;2008-04-06 16:52;CYXE 061652Z 11009KT 3SM -SN BKN008 OVC020 M01/ RMK SC6SC2

CYXE;2008-04-06 17:00;CYXE 061700Z 10012KT 1SM R09/P6000FT/D -SN BKN008 OVC020 M01/M03 A2984 RMK SC6SC2 SLP133

CYXE;2008-04-06 17:33;CYXE 061733Z 10010KT 3SM -SN SCT009 BKN031 OVC060 M00/ RMK SC4SC2SC2

CYXE;2008-04-06 17:47;CYXE 061747Z 11010KT 15SM SCT011 BKN035 OVC060 01/ RMK SC3SC3SC2

CYXE;2008-04-06 18:00;CYXE 061800Z 10011KT 15SM FEW011 BKN031 OVC060 01/M01 A2983 RMK SC2SC3SC2 SLP130

CYXE;2008-04-06 19:00;CYXE 061900Z 10010KT 15SM FEW011 BKN025 OVC050 02/M03 A2983 RMK SC2SC4SC2 SLP128

CYXE;2008-04-06 20:00;CYXE 062000Z 09011KT 15SM FEW025 SCT080 BKN200 04/M02 A2981 RMK SC2AC2CI1 SLP124

CYXE;2008-04-06 21:00;CYXE 062100Z 06012KT 15SM FEW025 SCT090 BKN200 05/M01 A2981 RMK SC2AC2CI1 SLP120

CYXE;2008-04-06 22:00;CYXE 062200Z 06014KT 15SM SCT090 OVC200 04/M01 A2981 RMK AC4CI2 SLP121

CYXE;2008-04-06 23:00;CYXE 062300Z 04013G18KT 15SM VCSH BKN060 OVC200 04/M00 A2981 RMK SC5CI2 SLP120

CYXE;2008-04-07 00:00;CYXE 070000Z 05015KT 15SM SCT070 BKN200 03/M01 A2981 RMK AC3CI1 SLP121

CYXE;2008-04-07 01:00;CYXE 070100Z 04014KT 15SM FEW070 SCT250 00/M03 A2983 RMK AC2CI0 SLP128

CYXE;2008-04-07 02:00;CYXE 070200Z 03011KT 15SM FEW080 SCT250 M01/M03 A2985 RMK AC2CI0 SLP132

CYXE;2008-04-07 03:00;CYXE 070300Z 03012G17KT 15SM SCT250 M02/M04 A2985 RMK CI1 SLP138

CYXE;2008-04-07 04:00;CYXE 070400Z 02010KT 12SM FEW011 FEW250 M02/M03 A2986 RMK SF1CI0 BR SLP142

CYXE;2008-04-07 05:00;CYXE 070500Z 03010KT 10SM FEW010 M03/M03 A2986 RMK SF2 BR SLP141

CYXE;2008-04-07 06:00;CYXE 070600Z 02010KT 15SM FEW010 M03/M04 A2987 RMK SF1 SLP142

CYXE;2008-04-07 07:00;CYXE 070700Z 03008KT 15SM SKC M04/M05 A2987 RMK SLP144

CYXE;2008-04-07 08:00;CYXE 070800Z 02008KT 15SM SKC M05/M05 A2987 RMK SLP143

CYXE;2008-04-07 09:00;CYXE 070900Z 03006KT 15SM SKC M06/M06 A2986 RMK SLP140

CYXE;2008-04-07 10:00;CYXE 071000Z 02007KT 12SM FEW010 M06/M06 A2987 RMK SF0 SLP143

CYXE;2008-04-07 11:00;CYXE 071100Z 36006KT 15SM FEW010 M07/M07 A2990 RMK SF0 SLP151

CYXE;2008-04-07 12:00;CYXE 071200Z 02006KT 15SM FEW010 SCT280 M06/M07 A2990 RMK SF0CI0 SLP152

CYXE;2008-04-07 13:00;CYXE 071300Z 02006KT 15SM FEW010 SCT280 M06/M06 A2990 RMK SF0CI1 SLP153

CYXE;2008-04-07 13:46;CYXE 071346Z 04006KT 15SM BKN005 M05/ RMK SF2

CYXE;2008-04-07 14:00;CYXE 071400Z 04007KT 15SM BKN005 M04/M05 A2991 RMK SF3 SLP158

CYXE;2008-04-07 14:16;CYXE 071416Z 04007KT 10SM BKN005 M04/ RMK SC5

CYXE;2008-04-07 15:00;CYXE 071500Z 04007KT 10SM BKN005 M02/M03 A2992 RMK SC5 SLP160

CYXE;2008-04-07 15:19;CYXE 071519Z 06007KT 15SM FEW006 BKN250 M02/ RMK SC2CI0

CYXE;2008-04-07 16:00;CYXE 071600Z 08007KT 15SM FEW009 FEW160 BKN220 M01/M03 A2993 RMK SC1AC2CI1 SLP165

CYXE;2008-04-07 17:00;CYXE 071700Z 07009KT 15SM FEW009 FEW090 BKN220 01/M04 A2994 RMK SC1AC1CI0 SLP166

CYXE;2008-04-07 18:00;CYXE 071800Z 06010G16KT 15SM FEW120 SCT250 02/M04 A2993 RMK AC2CI0 SLP164

CYXE;2008-04-07 19:00;CYXE 071900Z 05011KT 15SM FEW120 BKN250 04/M03 A2993 RMK AC2CI0 SLP162

CYXE;2008-04-07 20:00;CYXE 072000Z 08010KT 15SM BKN220 05/M04 A2993 RMK CI2 SLP163

CYXE;2008-04-07 21:00;CYXE 072100Z 06011KT 15SM OVC220 05/M03 A2992 RMK CI6 SLP160

CYXE;2008-04-07 22:00;CYXE 072200Z 07010G15KT 15SM OVC250 05/M03 A2993 RMK CS7 SLP161

CYXE;2008-04-07 23:00;CYXE 072300Z 07011KT 15SM OVC250 05/M03 A2993 RMK CS7 SLP161

CYXE;2008-04-08 00:00;CYXE 080000Z 06014KT 15SM OVC250 04/M03 A2993 RMK CI5 SLP163

CYXE;2008-04-08 01:00;CYXE 080100Z 07011KT 15SM OVC250 02/M03 A2994 RMK CI3 SLP167

CYXE;2008-04-08 02:00;CYXE 080200Z 07008KT 15SM BKN250 M00/M04 A2995 RMK CI2 SLP170

CYXE;2008-04-08 03:00;CYXE 080300Z 06008KT 15SM BKN250 M02/M04 A2996 RMK CI2 SLP174

CYXE;2008-04-08 04:00;CYXE 080400Z 05006KT 15SM SCT090 BKN250 M02/M04 A2997 RMK AC3CI0 SLP178

CYXE;2008-04-08 05:00;CYXE 080500Z 04008KT 15SM SCT090 BKN250 M03/M04 A2996 RMK AC3CI0 SLP175

CYXE;2008-04-08 06:00;CYXE 080600Z 05008KT 15SM FEW080 SCT250 M03/M05 A2995 RMK AC2CI0 SLP171

CYXE;2008-04-08 07:00;CYXE 080700Z 05007KT 15SM FEW050 FEW089 M04/M05 A2995 RMK SC1AC1 SLP170

CYXE;2008-04-08 08:00;CYXE 080800Z 05007KT 15SM FEW074 M03/M05 A2995 RMK AC2 SLP169

CYXE;2008-04-08 09:00;CYXE 080900Z 03005KT 15SM SCT073 M05/M06 A2995 RMK AC3 SLP168

CYXE;2008-04-08 11:00;CYXE 081100Z 04006KT 15SM FEW025 BKN067 M03/M05 A2994 RMK SC2AC3 SLP165

CYXE;2008-04-08 11:26;CYXE 081126Z 04006KT 15SM -SN BKN028 BKN067 M03/ RMK SC5AC2

CYXE;2008-04-08 12:00;CYXE 081200Z 06008KT 15SM -SHSN BKN028 BKN067 M02/M05 A2994 RMK SC6AC1 SLP164

CYXE;2008-04-08 13:00;CYXE 081300Z 06010KT 15SM -SHSN SCT038 BKN070 OVC270 M03/M05 A2994 RMK SC4AC2CI0 SLP163

CYXE;2008-04-08 14:00;CYXE 081400Z 05011KT 15SM FEW040 BKN065 BKN280 M02/M05 A2993 RMK SC2SC2CI0 SLP160

CYXE;2008-04-08 15:00;CYXE 081500Z 05010KT 15SM FEW065 BKN090 BKN280 00/M05 A2993 RMK SC2AC3CI0 SLP164

CYXE;2008-04-08 16:00;CYXE 081600Z 05009KT 15SM BKN061 BKN090 BKN280 02/M04 A2994 RMK SC5AC2CI0 SLP165

CYXE;2008-04-08 17:00;CYXE 081700Z 04009KT 15SM BKN063 BKN280 02/M04 A2993 RMK SC5CI1 SLP163

CYXE;2008-04-08 18:00;CYXE 081800Z 02008KT 15SM FEW025 BKN048 BKN280 02/M03 A2992 RMK SC2SC3CI1 TCU EMBDD VIRGA S-W SLP160

CYXE;2008-04-08 19:00;CYXE 081900Z 36007KT 15SM SCT046 BKN085 BKN280 03/M03 A2992 RMK SC3AC2CI0 TCU EMBDD VIRGA W SLP158

CYXE;2008-04-08 20:00;CYXE 082000Z 07013KT 15SM FEW058 FEW085 06/M03 A2990 RMK SC2AC1 SLP154

CYXE;2008-04-08 21:00;CYXE 082100Z 07012KT 15SM FEW060TCU 06/M02 A2990 RMK TCU2 CB TOPS N SLP151

CYXE;2008-04-08 22:00;CYXE 082200Z 06014KT 15SM FEW080 07/M02 A2989 RMK ACC1 SLP147

CYXE;2008-04-08 23:00;CYXE 082300Z 06015KT 15SM FEW080 06/M03 A2989 RMK ACC1 SLP148

CYXE;2008-04-09 00:00;CYXE 090000Z 06011KT 15SM FEW080 05/M03 A2990 RMK AC1 SLP148

CYXE;2008-04-09 01:00;CYXE 090100Z 05009KT 15SM FEW080 03/M03 A2990 RMK ACC1 SLP149

CYXE;2008-04-09 02:00;CYXE 090200Z 05008KT 15SM FEW080 01/M03 A2990 RMK ACC1 SLP149

CYXE;2008-04-09 03:00;CYXE 090300Z 03005KT 15SM SKC M02/M04 A2990 RMK SLP153

CYXE;2008-04-09 04:00;CYXE 090400Z 04005KT 15SM SKC M03/M04 A2990 RMK SLP154

CYXE;2008-04-09 05:00;CYXE 090500Z 04004KT 15SM SKC M03/M04 A2990 RMK SLP152

CYXE;2008-04-09 06:00;CYXE 090600Z 06007KT 15SM SKC M04/M05 A2989 RMK SLP150

CYXE;2008-04-09 07:00;CYXE 090700Z 05006KT 15SM SKC M04/M04 A2989 RMK SLP148

CYXE;2008-04-09 08:00;CYXE 090800Z 04007KT 15SM SKC M04/M05 A2987 RMK SLP144

CYXE;2008-04-09 09:00;CYXE 090900Z 04006KT 15SM SKC M05/M05 A2986 RMK SLP138

CYXE;2008-04-09 10:00;CYXE 091000Z 06006KT 15SM SKC M04/M04 A2987 RMK SLP139

CYXE;2008-04-09 11:00;CYXE 091100Z 06006KT 15SM FEW160 M05/M05 A2986 RMK AC1 SLP138

CYXE;2008-04-09 12:00;CYXE 091200Z 07006KT 15SM FEW080 SCT160 BKN250 M05/M06 A2986 RMK AC1AC2CI0 SLP137

CYXE;2008-04-09 13:00;CYXE 091300Z 09004KT 15SM SCT085 BKN160 BKN250 M04/M04 A2986 RMK AC3AC2CI1 VIRGA E - S SLP138

CYXE;2008-04-09 14:00;CYXE 091400Z 10004KT 15SM FEW038 SCT085 00/M00 A2986 RMK SC1AC2 SLP138

CYXE;2008-04-09 15:00;CYXE 091500Z 17003KT 15SM BKN076 03/01 A2987 RMK AC4 SLP141

CYXE;2008-04-09 16:00;CYXE 091600Z 21008KT 15SM BKN076 06/01 A2988 RMK AC4 SLP144

CYXE;2008-04-09 17:00;CYXE 091700Z 25004KT 15SM FEW039 BKN070 06/01 A2987 RMK SC2AC3 SLP142

CYXE;2008-04-09 18:00;CYXE 091800Z 00000KT 15SM SCT049 BKN066 09/02 A2987 RMK CU3AC2 SLP138

CYXE;2008-04-09 19:00;CYXE 091900Z 16007KT 15SM BKN056 BKN078 11/01 A2986 RMK CU5AC1 SLP136

CYXE;2008-04-09 20:00;CYXE 092000Z 11011KT 15SM BKN038 BKN078 09/02 A2987 RMK CU5AC1 SLP138

CYXE;2008-04-09 21:00;CYXE 092100Z 11011G16KT 15SM SCT040 12/02 A2986 RMK CU3 SLP132

CYXE;2008-04-09 22:00;CYXE 092200Z 10009G16KT 15SM SCT044 SCT079 BKN220 11/01 A2983 RMK CU3AC1CI0 TCU ASOCTD SSW SLP125

CYXE;2008-04-09 23:00;CYXE 092300Z 25009KT 15SM SCT046TCU OVC250 07/03 A2984 RMK TCU4CI1 SHRA DIST W SLP127

CYXE;2008-04-09 23:18;CYXE 092318Z 28008KT 15SM -SHRA FEW020 BKN046 OVC250 07/ RMK SC1SC4CI1 TCU EMBD

CYXE;2008-04-10 00:00;CYXE 100000Z 24008KT 15SM -SHRA BKN022 BKN078 OVC250 05/05 A2986 RMK SC5AC2CI2 CVCTV CLD EMBD SLP138

CYXE;2008-04-10 01:00;CYXE 100100Z 16009KT 15SM -SHRA BKN024 BKN074 OVC250 06/04 A2986 RMK SC6AC1CI1 CVCTV CLD EMBD SLP139

CYXE;2008-04-10 01:14;CYXE 100114Z 14008KT 15SM -RA FEW015 BKN024 BKN077 OVC250 06/ RMK CF1SC5AC1CI1 CVCTV CLD EMBD N

CYXE;2008-04-10 02:00;CYXE 100200Z 12006KT 15SM FEW024 FEW054 SCT077 BKN250 04/03 A2987 RMK SC1SC2AC1CI1 SLP141

CYXE;2008-04-10 03:00;CYXE 100300Z 13007KT 15SM FEW060 FEW071 BKN250 04/03 A2989 RMK SC2AC1CI1 SLP143

CYXE;2008-04-10 04:00;CYXE 100400Z 15012G18KT 15SM SCT058 OVC096 04/03 A2987 RMK SC3AC2 SLP137

CYXE;2008-04-10 04:04;CYXE 100404Z 16018KT 15SM -SHRA BKN058 OVC096 05/ RMK SC6AC2

CYXE;2008-04-10 04:48;CYXE 100448Z 14007KT 15SM SCT043 SCT250 04/ RMK SC3CI0

CYXE;2008-04-10 05:00;CYXE 100500Z 15007KT 15SM SCT043 04/02 A2988 RMK SC3 SLP141

CYXE;2008-04-10 06:00;CYXE 100600Z 14002KT 15SM SCT059 03/02 A2988 RMK SC4 SLP139

CYXE;2008-04-10 07:00;CYXE 100700Z 11005KT 15SM SCT072 02/01 A2988 RMK AC3 SLP139

CYXE;2008-04-10 08:00;CYXE 100800Z 13008KT 15SM SKC 03/01 A2989 RMK SLP141

CYXE;2008-04-10 09:00;CYXE 100900Z 13006KT 15SM SKC 02/00 A2989 RMK SLP139

CYXE;2008-04-10 10:00;CYXE 101000Z 12005KT 15SM SKC 01/M01 A2990 RMK SLP141

CYXE;2008-04-10 11:00;CYXE 101100Z 11005KT 15SM SKC M00/M01 A2990 RMK SLP141

CYXE;2008-04-10 12:00;CYXE 101200Z 10004KT 15SM FEW250 M02/M02 A2991 RMK CI2 SLP153

CYXE;2008-04-10 13:00;CYXE 101300Z 06004KT 15SM SCT120 BKN250 M01/M01 A2992 RMK AC4CI2 SLP157

CYXE;2008-04-10 14:00;CYXE 101400Z 08004KT 12SM SCT096 OVC250 00/00 A2993 RMK AC3CI3 BR SLP160

CYXE;2008-04-10 15:00;CYXE 101500Z 06003KT 8SM SCT100 OVC250 02/02 A2995 RMK AC4CI3 BR SLP163

CYXE;2008-04-10 16:00;CYXE 101600Z 15005KT 12SM SCT015 BKN085 OVC250 05/04 A2995 RMK ST4AC2CI1 SLP166

CYXE;2008-04-10 16:09;CYXE 101609Z 16009KT 15SM BKN015 OVC085 06/ RMK ST6AC2

CYXE;2008-04-10 16:54;CYXE 101654Z 14005KT 15SM BKN009 OVC085 06/ RMK ST6AC2

CYXE;2008-04-10 17:00;CYXE 101700Z 15006KT 15SM BKN009 OVC070 05/04 A2997 RMK ST6AC2 SLP171

CYXE;2008-04-10 17:17;CYXE 101717Z 16006KT 15SM -SHRA OVC010 06/ RMK SC8

CYXE;2008-04-10 17:48;CYXE 101748Z 14006KT 15SM -SHRA BKN009 OVC028 06/ RMK ST5SC3

CYXE;2008-04-10 18:00;CYXE 101800Z 15008KT 15SM -SHRA BKN009 OVC020 05/04 A2997 RMK ST5SC3 SLP172

CYXE;2008-04-10 18:06;CYXE 101806Z 15009KT 15SM -SHRA SCT009 BKN011 OVC020 05/ RMK SF3SC2SC2

CYXE;2008-04-10 18:50;CYXE 101850Z 14005KT 15SM VCSH OVC010 05/ RMK SC8

CYXE;2008-04-10 19:00;CYXE 101900Z 15005KT 15SM VCSH OVC010 05/04 A2997 RMK SC8 SLP170

CYXE;2008-04-10 19:10;CYXE 101910Z 12006KT 15SM OVC009 05/ RMK SC8

CYXE;2008-04-10 19:33;CYXE 101933Z 12003KT 15SM OVC010 05/ RMK SC8

CYXE;2008-04-10 20:00;CYXE 102000Z 10005KT 15SM VCSH OVC010 05/03 A2997 RMK SC8 SLP170

CYXE;2008-04-10 20:47;CYXE 102047Z 12005KT 14SM -SHRA BKN012 OVC034 05/ RMK ST5SC3

CYXE;2008-04-10 21:00;CYXE 102100Z 09006KT 15SM -SHRA BKN012 OVC035 05/04 A2997 RMK ST5SC3 SLP170

CYXE;2008-04-10 21:11;CYXE 102111Z 10005KT 15SM -SHRA BKN009 OVC032 05/ RMK SF5ST3

CYXE;2008-04-10 21:39;CYXE 102139Z 09006KT 15SM -SHRA SCT009 OVC028 05/ RMK SF3ST5

CYXE;2008-04-10 22:00;CYXE 102200Z 09007KT 15SM -SHRA FEW009 FEW028 OVC040 05/03 A2996 RMK SF1SC2ST6 SLP168

CYXE;2008-04-10 22:45;CYXE 102245Z 08008KT 15SM FEW015 SCT050 OVC084 05/ RMK SF1SC3AS4

CYXE;2008-04-10 23:00;CYXE 102300Z 06009KT 15SM FEW008 SCT053 OVC084 05/04 A2996 RMK SF2SC2AS3 SLP168

CYXE;2008-04-10 23:44;CYXE 102344Z 02011KT 15SM BKN007 OVC064 05/ RMK SF6SC2

CYXE;2008-04-11 00:00;CYXE 110000Z 02010KT 15SM BKN007 OVC064 05/04 A2998 RMK SF7SC1 SLP176

CYXE;2008-04-11 00:49;CYXE 110049Z 01008KT 15SM BKN006 OVC077 04/ RMK SF7AC1

CYXE;2008-04-11 01:00;CYXE 110100Z 36007KT 15SM BKN006 BKN012 OVC084 04/03 A3000 RMK SF4SC2AC2 SLP184

CYXE;2008-04-11 01:19;CYXE 110119Z 01007KT 15SM FEW006 SCT012 SCT091 OVC220 03/ RMK SF2SC2AC1CI1

CYXE;2008-04-11 02:00;CYXE 110200Z 36007KT 15SM SCT086 OVC220 02/02 A3000 RMK AC3CI1 SLP185

CYXE;2008-04-11 02:07;CYXE 110207Z 02009KT 15SM BKN004 BKN086 OVC220 02/ RMK SF3AC2CI1

CYXE;2008-04-11 02:14;CYXE 110214Z 02009KT 6SM BR OVC003 02/ RMK SF6

CYXE;2008-04-11 02:18;CYXE 110218Z 02010KT 3SM BR OVC002 02/ RMK SF6

CYXE;2008-04-11 02:26;CYXE 110226Z 02008KT 1SM R09/P6000FT/D BR OVC001 02/ RMK FG2SF6

CYXE;2008-04-11 02:32;CYXE 110232Z 02009KT 1/2SM R09/P6000FT/D FG SKC 02/ RMK FG6 VIS E 1

CYXE;2008-04-11 02:41;CYXE 110241Z 03009KT 3/8SM R09/2200VP6000FT/D FG SKC 02/ RMK FG6

CYXE;2008-04-11 02:48;CYXE 110248Z 02008KT 1/4SM R09/3000FT/U FG VV001 02/ RMK FG8 VIS SE 1/2

CYXE;2008-04-11 03:00;CYXE 110300Z 01007KT 1/4SM R09/2600FT/D FG VV001 01/01 A3003 RMK FG8 SLP193

CYXE;2008-04-11 04:00;CYXE 110400Z 03005KT 1/4SM R09/1400V2400FT/D FZFG VV001 M00/M00 A3003 RMK FG8 SLP196

CYXE;2008-04-11 04:19;CYXE 110419Z 04003KT 1/8SM R09/1600FT/N FZFG VV001 M00/ RMK FG8

CYXE;2008-04-11 05:00;CYXE 110500Z 35004KT 1/8SM R09/0900V5000FT/D FZFG VV001 M01/M01 A3004 RMK FG8 SLP197

CYXE;2008-04-11 05:01;CYXE 110501Z CCA 36004KT 0SM R09/0800V2400FT/D FZFG VV001 M01/ RMK FG8 TOWER OBS

CYXE;2008-04-11 05:22;CYXE 110522Z 35005KT 1/8SM R09/0900V1400FT/N FZFG VV001 M02/ RMK FG8 TOWER OBS

CYXE;2008-04-11 05:49;CYXE 110549Z 36006KT 0SM FZFG VV001 M01/ RMK FG8 TOWER OBS

CYXE;2008-04-11 06:00;CYXE 110600Z 01005KT 0SM FZFG VV001 M01/M01 A3006 RMK FG8 TOWER OBS SLP204

CYXE;2008-04-11 07:00;CYXE 110700Z 30003KT 0SM R09/1100FT/N FZFG VV001 M00/M00 A3007 RMK FG8 TOWER OBS SLP207

CYXE;2008-04-11 08:00;CYXE 110800Z 35002KT 0SM R09/0800FT/N FZFG VV001 M01/M01 A3007 RMK FG8 TOWER OBS SLP207

CYXE;2008-04-11 09:00;CYXE 110900Z 33004KT 0SM R09/0800V1400FT/N FZFG VV001 M02/M02 A3008 RMK FG8 TOWER OBS SLP213

CYXE;2008-04-11 09:25;CYXE 110925Z 31003KT 1/8SM R09/1400FT/N FZFG VV001 M02/ RMK FG8 TOWER OBS

CYXE;2008-04-11 10:00;CYXE 111000Z 30002KT 1/8SM R09/0800FT/N FZFG VV001 M02/M02 A3009 RMK FG8 TOWER OBS SLP216

CYXE;2008-04-11 10:26;CYXE 111026Z 23003KT 0SM R09/0700FT/N FZFG VV001 M02/ RMK FG8 TOWER OBS

CYXE;2008-04-11 11:00;CYXE 111100Z 24003KT 0SM R09/0700FT/N FZFG VV001 M02/M02 A3012 RMK FG8 TOWER OBS SLP223

CYXE;2008-04-11 11:44;CYXE 111144Z 22003KT 1/8SM R09/0800FT/N FZFG VV001 M02/ RMK FG8 TOWER OBS

CYXE;2008-04-11 12:00;CYXE 111200Z 19002KT 1/8SM R09/0800FT/N FZFG VV001 M02/M02 A3013 RMK FG8 SLP229

CYXE;2008-04-11 12:45;CYXE 111245Z 21003KT 1/4SM R09/1200V1600FT/N FZFG VV001 M01/ RMK FG8

CYXE;2008-04-11 13:00;CYXE 111300Z 21004KT 1/4SM R09/1100FT/N FZFG VV001 M01/M01 A3014 RMK FG8 SLP232

CYXE;2008-04-11 13:23;CYXE 111323Z 23003KT 1/8SM R09/1400FT/N FZFG VV001 M01/ RMK FG8

CYXE;2008-04-11 14:00;CYXE 111400Z 25003KT 1/8SM R09/1200FT/N FZFG VV001 M00/M00 A3015 RMK FG8 SLP235

CYXE;2008-04-11 14:47;CYXE 111447Z 26005KT 3/4SM R09/2200V6000FT/U BR VV001 00/ RMK FG8

CYXE;2008-04-11 15:00;CYXE 111500Z 23005KT 1/2SM R09/2000FT/N FG VV001 00/00 A3016 RMK FG8 SLP241

CYXE;2008-04-11 15:05;CYXE 111505Z 25004KT 1/4SM R09/1400V2200FT/D FG VV001 00/ RMK FG8

CYXE;2008-04-11 15:26;CYXE 111526Z 23003KT 1 1/2SM R09/2200VP6000FT/U BR VV002 00/ RMK FG8

CYXE;2008-04-11 15:44;CYXE 111544Z 24004KT 3SM BR OVC002 01/ RMK ST8

CYXE;2008-04-11 16:00;CYXE 111600Z 24005KT 4SM BR OVC002 01/01 A3017 RMK ST7 SLP245

CYXE;2008-04-11 16:36;CYXE 111636Z 26006KT 6SM BR BKN004 BKN045 03/ RMK ST5SC2

CYXE;2008-04-11 17:00;CYXE 111700Z 27006KT 12SM VCSH BKN004 BKN045 04/04 A3017 RMK ST5SC0 SLP244

CYXE;2008-04-11 17:08;CYXE 111708Z 30008KT 15SM SCT006 BKN050 05/ RMK ST3SC2

CYXE;2008-04-11 18:00;CYXE 111800Z 29008KT 15SM FEW010 SCT045 BKN200 08/06 A3017 RMK CU1SC2CI0 SLP240

CYXE;2008-04-11 19:00;CYXE 111900Z 29010KT 15SM FEW028 SCT220 10/02 A3016 RMK CU2CI1 SLP238

CYXE;2008-04-11 20:00;CYXE 112000Z 30012G17KT 15SM SCT038 12/M02 A3015 RMK CU4 SLP233

CYXE;2008-04-11 21:00;CYXE 112100Z 32014G19KT 15SM FEW059CB 12/M06 A3015 RMK CB1 CB N-NE SLP230

CYXE;2008-04-11 22:00;CYXE 112200Z 33015KT 15SM FEW060CB SCT069 12/M06 A3014 RMK CB2AC2 VIRGA S CB DIST W + N SLP228

CYXE;2008-04-11 23:00;CYXE 112300Z 30021KT 15SM -SHRA SCT054CB BKN076 08/M03 A3016 RMK CB3AC4 CB SW-NW SLP235

CYXE;2008-04-12 00:00;CYXE 120000Z CCA 25009KT 15SM -SHRA FEW021 SCT039CB BKN081 08/M03 A3017 RMK SC2CB2AC2 CB S + N SLP241

CYXE;2008-04-12 00:10;CYXE 120010Z 22005KT 15SM FEW039 FEW051CB SCT075 BKN250 08/ RMK SC1CB2AC1CI1 CB S + N

CYXE;2008-04-12 01:00;CYXE 120100Z 29006KT 15SM FEW068CB FEW079 BKN250 06/M01 A3019 RMK CB2ACC1CI1 CB N SLP246

CYXE;2008-04-12 02:00;CYXE 120200Z 34006KT 15SM FEW060CB FEW079 SCT250 02/M02 A3020 RMK CB1AC1CI1 CB NE SLP249

CYXE;2008-04-12 02:26;CYXE 120226Z 31006KT 15SM FEW079 SCT250 01/ RMK AC1CI1 CB TOP DIST NE

CYXE;2008-04-12 03:00;CYXE 120300Z 36006KT 15SM FEW250 01/M01 A3021 RMK CI1 SLP258

CYXE;2008-04-12 04:00;CYXE 120400Z 32007KT 15SM SKC M00/M03 A3022 RMK SLP261

CYXE;2008-04-12 05:00;CYXE 120500Z 30006KT 15SM SKC M01/M03 A3021 RMK SLP259

CYXE;2008-04-12 06:00;CYXE 120600Z 31005KT 15SM SKC M02/M04 A3022 RMK SLP258

CYXE;2008-04-12 07:00;CYXE 120700Z 06006KT 15SM SKC M03/M04 A3024 RMK SLP264

CYXE;2008-04-12 08:00;CYXE 120800Z 02003KT 15SM SKC M02/M03 A3024 RMK SLP266

CYXE;2008-04-12 09:00;CYXE 120900Z 00000KT 15SM SKC M04/M05 A3026 RMK SLP269

CYXE;2008-04-12 10:00;CYXE 121000Z 27003KT 15SM SKC M03/M03 A3026 RMK SLP271

CYXE;2008-04-12 11:00;CYXE 121100Z 26004KT 15SM SKC M04/M04 A3027 RMK SLP275

CYXE;2008-04-12 12:00;CYXE 121200Z 23004KT 15SM FEW220 M04/M04 A3029 RMK CI0 SLP283

CYXE;2008-04-12 13:00;CYXE 121300Z 23005KT 15SM FEW120 FEW230 M04/M05 A3031 RMK AC1CI0 SLP289

CYXE;2008-04-12 14:00;CYXE 121400Z 26004KT 15SM BKN230 M01/M02 A3032 RMK CI2 SLP293

CYXE;2008-04-12 15:00;CYXE 121500Z 29005KT 15SM FEW230 03/M00 A3033 RMK CI0 SLP296

CYXE;2008-04-12 16:00;CYXE 121600Z 27004KT 15SM FEW250 06/M01 A3034 RMK CI0 SLP300

CYXE;2008-04-12 17:00;CYXE 121700Z 28005KT 15SM FEW250 09/M02 A3034 RMK CI0 SLP300

CYXE;2008-04-12 18:00;CYXE 121800Z 28009KT 15SM FEW025 FEW250 11/M05 A3034 RMK CU1CI1 SLP296

CYXE;2008-04-12 19:00;CYXE 121900Z 25006KT 15SM FEW050 SCT250 11/M06 A3032 RMK CU1CI1 SLP291

CYXE;2008-04-12 20:00;CYXE 122000Z 34004KT 15SM FEW050 FEW250 12/M06 A3032 RMK CU1CI1 SLP290

CYXE;2008-04-12 21:00;CYXE 122100Z 27005KT 15SM FEW050 FEW250 13/M06 A3031 RMK CU1CI1 SLP287

CYXE;2008-04-12 22:00;CYXE 122200Z 23005KT 15SM FEW050 FEW250 13/M07 A3030 RMK CU0CI0 SLP283

CYXE;2008-04-12 23:00;CYXE 122300Z 24006KT 15SM FEW250 13/M06 A3029 RMK CI1 SLP280

CYXE;2008-04-13 00:00;CYXE 130000Z 22005KT 15SM FEW250 13/M06 A3028 RMK CI1 SLP275

CYXE;2008-04-13 01:00;CYXE 130100Z 22006KT 15SM FEW250 12/M04 A3026 RMK CI0 SLP270

CYXE;2008-04-13 02:00;CYXE 130200Z 18006KT 15SM FEW120 FEW250 08/M05 A3025 RMK AC2CI0 SLP265

CYXE;2008-04-13 03:00;CYXE 130300Z 16007KT 15SM BKN100 07/M05 A3023 RMK AC5 SLP260

CYXE;2008-04-13 04:00;CYXE 130400Z 17008KT 15SM OVC095 08/M05 A3022 RMK AC8 SLP256

CYXE;2008-04-13 05:00;CYXE 130500Z 17007KT 15SM OVC090 08/M05 A3020 RMK AC8 SLP249

CYXE;2008-04-13 06:00;CYXE 130600Z 17008KT 15SM BKN090 07/M05 A3020 RMK AC6 SLP242

CYXE;2008-04-13 07:00;CYXE 130700Z 18011KT 15SM BKN090 07/M05 A3018 RMK AC4 SLP236

CYXE;2008-04-13 08:00;CYXE 130800Z 18011KT 15SM SCT080 07/M05 A3016 RMK AC3 SLP230

CYXE;2008-04-13 09:00;CYXE 130900Z 19010KT 15SM BKN085 05/M04 A3014 RMK AC4 SLP223

CYXE;2008-04-13 10:00;CYXE 131000Z 19011KT 15SM FEW080 04/M04 A3012 RMK AC1 SLP215

CYXE;2008-04-13 11:00;CYXE 131100Z 18010KT 15SM FEW080 03/M04 A3009 RMK AC1 SLP208

CYXE;2008-04-13 12:00;CYXE 131200Z 18009KT 15SM FEW080 03/M04 A3008 RMK AC1 SLP206

CYXE;2008-04-13 13:00;CYXE 131300Z 18009KT 15SM SKC 03/M04 A3008 RMK SLP204

CYXE;2008-04-13 14:00;CYXE 131400Z 19007KT 15SM FEW250 05/M04 A3006 RMK CI0 SLP198

CYXE;2008-04-13 15:00;CYXE 131500Z 20008KT 15SM FEW250 08/M03 A3005 RMK CI1 SLP195

CYXE;2008-04-13 16:00;CYXE 131600Z 18009KT 15SM SCT250 11/M02 A3003 RMK CI2 SLP189

CYXE;2008-04-13 17:00;CYXE 131700Z 18011KT 15SM BKN250 15/M02 A2999 RMK CI5 SLP176

CYXE;2008-04-13 18:00;CYXE 131800Z 18014KT 15SM BKN250 18/M01 A2995 RMK CI5 PRESFR SLP154

CYXE;2008-04-13 19:00;CYXE 131900Z 18014G20KT 15SM BKN250 20/M01 A2992 RMK CI4 SLP145

CYXE;2008-04-13 20:00;CYXE 132000Z 18017G22KT 15SM SCT100 BKN250 21/M00 A2990 RMK AC3CI2 SLP136

CYXE;2008-04-13 21:00;CYXE 132100Z CCA 18020KT 15SM SCT100 BKN250 22/01 A2985 RMK AC3CI2 WIND ESTD SLP119

CYXE;2008-04-13 22:00;CYXE 132200Z 15015KT 15SM FEW100 BKN250 23/01 A2982 RMK AC2CI2 WIND ESTD SLP109

CYXE;2008-04-13 23:00;CYXE 132300Z CCA 14015KT 15SM FEW100 BKN250 23/01 A2977 RMK AC2CI2 WIND ESTD SLP092

CYXE;2008-04-14 00:00;CYXE 140000Z 14015KT 15SM FEW100 BKN250 23/01 A2973 RMK AC2CI2 WIND ESTD SLP077

CYXE;2008-04-14 01:00;CYXE 140100Z 14010KT 15SM SCT100 BKN250 21/01 A2968 RMK AC3CI2 WIND ESTD SLP063

CYXE;2008-04-14 02:00;CYXE 140200Z 14010KT 15SM FEW100 BKN250 19/02 A2966 RMK AC2CI2 WIND ESTD SLP055

CYXE;2008-04-14 03:00;CYXE 140300Z 23010KT 15SM FEW100 SCT250 18/01 A2965 RMK AC1CI1 WIND ESTD SLP051

CYXE;2008-04-14 04:00;CYXE 140400Z 23010KT 15SM FEW100 SCT250 14/01 A2966 RMK AC1CI1 WIND ESTD SLP052

CYXE;2008-04-14 05:00;CYXE 140500Z 27010KT 15SM FEW100 BKN250 12/01 A2965 RMK AC1CI2 WIND ESTD SLP050

CYXE;2008-04-14 06:00;CYXE 140600Z 31010KT 15SM FEW100 BKN250 11/00 A2964 RMK AC1CI2 WIND ESTD SLP046

CYXE;2008-04-14 06:44;CYXE 140644Z 18010KT 15SM FEW100 SCT250 10/ RMK AC1CI0 WND ESTD

CYXE;2008-04-14 07:00;CYXE 140700Z 18010KT 15SM FEW100 SCT250 10/01 A2963 RMK AC1CI0 WND ESTD SLP041

CYXE;2008-04-14 08:00;CYXE 140800Z 22010KT 15SM BKN250 09/02 A2960 RMK CI2 WND ESTD SLP032

CYXE;2008-04-14 09:00;CYXE 140900Z 22010KT 15SM BKN250 08/02 A2957 RMK CI1 WND ESTD SLP021

CYXE;2008-04-14 10:00;CYXE 141000Z 22010KT 15SM BKN250 08/01 A2955 RMK CI1 FU SSW IN VC WND ESTD SLP015

CYXE;2008-04-14 11:00;CYXE 141100Z 22010KT 15SM FEW100 SCT250 05/01 A2955 RMK AC2CI0 WND ESTD SLP012

CYXE;2008-04-14 12:00;CYXE 141200Z 22005KT 15SM FEW100 SCT250 04/00 A2954 RMK AC2CI0 WND ESTD SLP011

CYXE;2008-04-14 13:00;CYXE 141300Z 27005KT 15SM BKN100 07/02 A2953 RMK AC6 WND ESTD SLP008

CYXE;2008-04-14 14:00;CYXE 141400Z 31005KT 15SM BKN110 08/02 A2953 RMK AC6 WND ESTD SLP009

CYXE;2008-04-14 15:00;CYXE 141500Z 33006KT 15SM BKN110 OVC250 09/02 A2954 RMK AC6CI2 WND ESTD SLP011

CYXE;2008-04-14 16:00;CYXE 141600Z 34008KT 15SM BKN110 OVC250 10/00 A2952 RMK AC6CI2 WND ESTD SLP004

CYXE;2008-04-14 17:00;CYXE 141700Z 35006KT 15SM BKN100 OVC250 10/00 A2950 RMK AC7CI1 SLP999

CYXE;2008-04-14 18:00;CYXE 141800Z 33004KT 15SM BKN100 OVC250 11/00 A2951 RMK AC7CI1 SLP005

CYXE;2008-04-14 19:00;CYXE 141900Z 36008KT 15SM BKN100 OVC250 12/00 A2950 RMK AC5CI3 SLP000

CYXE;2008-04-14 20:00;CYXE 142000Z 36009KT 15SM SCT110 OVC250 13/01 A2949 RMK AC3CI3 SLP997

CYXE;2008-04-14 21:00;CYXE 142100Z 01010KT 15SM BKN110 OVC250 12/M00 A2948 RMK AC5CI2 SLP994

CYXE;2008-04-14 22:00;CYXE 142200Z 35008KT 15SM BKN110 OVC250 14/M01 A2946 RMK AC5CI2 SLP990

CYXE;2008-04-14 23:00;CYXE 142300Z 02009G15KT 15SM SCT110 BKN250 14/M02 A2945 RMK AC3CI1 SLP984

CYXE;2008-04-15 00:00;CYXE 150000Z 35012KT 15SM BKN110 BKN250 12/M01 A2947 RMK AC5CI1 SLP993

CYXE;2008-04-15 01:00;CYXE 150100Z 02009KT 15SM SCT110 BKN250 10/M01 A2944 RMK AC3CI1 SLP985

CYXE;2008-04-15 02:00;CYXE 150200Z 36007KT 15SM SCT110 BKN250 08/02 A2945 RMK AC3CI1 SLP987

CYXE;2008-04-15 03:00;CYXE 150300Z 36011KT 15SM FEW110 BKN250 06/01 A2945 RMK AC2CI1 SLP987

CYXE;2008-04-15 04:00;CYXE 150400Z 36006KT 15SM FEW110 BKN250 04/00 A2947 RMK AC2CI2 SLP994

CYXE;2008-04-15 05:00;CYXE 150500Z CCA 35005KT 15SM FEW110 BKN250 02/M01 A2947 RMK AC1CI1 OBS TAKEN +05 SLP993

CYXE;2008-04-15 06:00;CYXE 150600Z 29003KT 15SM FEW110 BKN250 01/M00 A2948 RMK AC2CI2 SLP999

CYXE;2008-04-15 07:00;CYXE 150700Z 00000KT 15SM FEW110 SCT250 01/00 A2946 RMK AC1CI2 SLP992

CYXE;2008-04-15 08:00;CYXE 150800Z 00000KT 15SM BKN090 BKN250 00/M00 A2946 RMK AC5CI2 SLP992

CYXE;2008-04-15 09:00;CYXE 150900Z 31005KT 15SM SCT085 BKN250 01/00 A2943 RMK AC3CI2 SLP982

CYXE;2008-04-15 10:00;CYXE 151000Z 33004KT 15SM BKN065 OVC090 01/M00 A2945 RMK SC5AC2 SLP988

CYXE;2008-04-15 11:00;CYXE 151100Z 32004KT 15SM OVC058 01/M00 A2946 RMK SC8 SLP990

CYXE;2008-04-15 11:10;CYXE 151110Z 27005KT 15SM -SHRA OVC050 02/ RMK SC8

CYXE;2008-04-15 11:32;CYXE 151132Z 30004KT 15SM OVC050 02/ RMK SC8

CYXE;2008-04-15 11:40;CYXE 151140Z 32003KT 12SM -SHRA OVC035 02/ RMK SC8

CYXE;2008-04-15 12:00;CYXE 151200Z 30004KT 15SM -SHRA BKN033 OVC095 02/00 A2946 RMK SC6AC2 SLP994

CYXE;2008-04-15 12:34;CYXE 151234Z 28005KT 15SM BKN033 OVC095 02/ RMK SC5AC3

CYXE;2008-04-15 13:00;CYXE 151300Z 30005KT 15SM BKN045 OVC095 02/01 A2947 RMK SC6AC2 SLP995

CYXE;2008-04-15 14:00;CYXE 151400Z 26005KT 15SM BKN055 OVC080 03/01 A2947 RMK SC5AC2 SLP995

CYXE;2008-04-15 15:00;CYXE 151500Z 29005KT 15SM FEW050 BKN095 OVC250 04/01 A2947 RMK SC1AC4CI2 SLP998

CYXE;2008-04-15 16:00;CYXE 151600Z 33009KT 15SM BKN100 OVC250 07/01 A2947 RMK AC5CI2 SLP997

CYXE;2008-04-15 17:00;CYXE 151700Z 33008KT 15SM FEW100 OVC250 09/M00 A2948 RMK AC2CI5 SLP001

CYXE;2008-04-15 18:00;CYXE 151800Z 33009KT 15SM FEW050 BKN250 10/M02 A2948 RMK CU2CI5 SLP000

CYXE;2008-04-15 19:00;CYXE 151900Z 33009G21KT 15SM FEW060 BKN250 12/M06 A2948 RMK CU2CI2 SLP000

CYXE;2008-04-15 20:00;CYXE 152000Z 32011G22KT 15SM FEW070 BKN250 13/M09 A2948 RMK CU2CI2 SLP000

CYXE;2008-04-15 21:00;CYXE 152100Z 33014KT 15SM FEW080 BKN250 13/M07 A2949 RMK CU2CI2 SLP001

CYXE;2008-04-15 22:00;CYXE 152200Z CCA 31015KT 15SM FEW080 SCT250 12/M08 A2949 RMK CU1CI1 SLP003

CYXE;2008-04-15 23:00;CYXE 152300Z 33018KT 15SM FEW080 SCT250 12/M09 A2950 RMK CU1CI1 SLP007

CYXE;2008-04-16 00:00;CYXE 160000Z 31015G21KT 15SM FEW080 FEW100 SCT250 10/M08 A2953 RMK CU1AC1CI0 SLP017

CYXE;2008-04-16 01:00;CYXE 160100Z 32015G20KT 15SM FEW086 BKN250 09/M08 A2956 RMK AC1CI1 SLP027

CYXE;2008-04-16 02:00;CYXE 160200Z 31010KT 15SM FEW090 BKN250 06/M06 A2960 RMK AC1CI1 SLP039

CYXE;2008-04-16 03:00;CYXE 160300Z 28007KT 15SM FEW100 SCT250 01/M05 A2962 RMK AC1CI1 SLP053

CYXE;2008-04-16 04:00;CYXE 160400Z 30008KT 15SM FEW100 SCT250 03/M05 A2964 RMK AC1CI1 SLP058

CYXE;2008-04-16 05:00;CYXE 160500Z 31008KT 15SM FEW100 SCT250 01/M04 A2964 RMK AC1CI1 SLP060

CYXE;2008-04-16 06:00;CYXE 160600Z 30010KT 15SM FEW100 01/M04 A2966 RMK AC1 SLP061

CYXE;2008-04-16 07:00;CYXE 160700Z 31008KT 15SM SKC 01/M03 A2968 RMK SLP068

CYXE;2008-04-16 08:00;CYXE 160800Z 30008KT 15SM SKC M01/M03 A2970 RMK SLP074

CYXE;2008-04-16 09:00;CYXE 160900Z 31009KT 15SM SKC M01/M03 A2972 RMK SLP083

CYXE;2008-04-16 10:00;CYXE 161000Z 30007KT 15SM SKC M02/M03 A2975 RMK SLP092

CYXE;2008-04-16 11:00;CYXE 161100Z 31008KT 15SM SKC M02/M03 A2977 RMK SLP100

CYXE;2008-04-16 12:00;CYXE 161200Z 31008KT 15SM FEW120 M02/M03 A2979 RMK AC2 SLP110

CYXE;2008-04-16 13:00;CYXE 161300Z 31006KT 15SM BKN088 M02/M03 A2980 RMK AC6 SLP113

CYXE;2008-04-16 14:00;CYXE 161400Z 31006KT 15SM BKN082 00/M02 A2982 RMK AC7 SLP118

CYXE;2008-04-16 15:00;CYXE 161500Z 30006KT 15SM BKN080 02/M01 A2983 RMK ACC6 SLP124

CYXE;2008-04-16 16:00;CYXE 161600Z CCA 25006KT 15SM VCSH BKN075 04/M04 A2983 RMK ACC5 SLP125

CYXE;2008-04-16 17:00;CYXE 161700Z 25009KT 15SM FEW030 FEW070 07/M02 A2982 RMK CU1AC1 SLP123

CYXE;2008-04-16 18:00;CYXE 161800Z 30012G17KT 15SM BKN045 09/M06 A2982 RMK CU6 SLP118

CYXE;2008-04-16 19:00;CYXE 161900Z 30014KT 15SM BKN050 08/M08 A2981 RMK SC6 SLP117

CYXE;2008-04-16 20:00;CYXE 162000Z 30015G21KT 15SM BKN065 10/M07 A2981 RMK SC6 SLP114

CYXE;2008-04-16 21:00;CYXE 162100Z 31013G19KT 15SM BKN065 11/M07 A2980 RMK SC6 SLP111

CYXE;2008-04-16 22:00;CYXE 162200Z 30014KT 15SM BKN065 10/M08 A2980 RMK SC6 SLP110

CYXE;2008-04-16 23:00;CYXE 162300Z 33014G19KT 15SM SCT075 BKN120 10/M08 A2980 RMK AC4AC1 SLP110

CYXE;2008-04-17 00:00;CYXE 170000Z 31012KT 15SM FEW077 FEW120 10/M07 A2981 RMK AC2AC1 SLP117

CYXE;2008-04-17 01:00;CYXE 170100Z 28007KT 15SM BKN080 BKN200 09/M04 A2982 RMK AC4CI0 SLP120

CYXE;2008-04-17 02:00;CYXE 170200Z 27005KT 15SM SCT080 BKN200 06/M04 A2982 RMK AC4CI0 SLP121

CYXE;2008-04-17 03:00;CYXE 170300Z 19005KT 15SM FEW080 SCT220 05/M04 A2983 RMK AC2CI0 SLP122

CYXE;2008-04-17 04:00;CYXE 170400Z 19007KT 15SM FEW080 03/M04 A2983 RMK AC1 SLP123

CYXE;2008-04-17 05:00;CYXE 170500Z 19008KT 15SM FEW090 03/M04 A2982 RMK AC2 SLP121

CYXE;2008-04-17 06:00;CYXE 170600Z 19011KT 15SM BKN095 04/M05 A2981 RMK AC6 SLP114

CYXE;2008-04-17 07:00;CYXE 170700Z 19011KT 15SM SCT092 03/M05 A2980 RMK AC2 SLP111

CYXE;2008-04-17 08:00;CYXE 170800Z 21009KT 15SM FEW090 02/M05 A2980 RMK AC2 SLP110

CYXE;2008-04-17 09:00;CYXE 170900Z 22007KT 15SM BKN088 02/M05 A2979 RMK AC6 SLP107

CYXE;2008-04-17 10:00;CYXE 171000Z 22006KT 15SM SCT080 01/M05 A2980 RMK AC3 SLP108

CYXE;2008-04-17 11:00;CYXE 171100Z 22006KT 15SM SCT070 M01/M05 A2979 RMK AC2 SLP106

CYXE;2008-04-17 12:00;CYXE 171200Z 26006KT 15SM FEW075 M03/M05 A2980 RMK AC1 SLP112

CYXE;2008-04-17 13:00;CYXE 171300Z 25007KT 15SM SKC 00/M02 A2981 RMK SLP117

CYXE;2008-04-17 14:00;CYXE 171400Z 26008KT 15SM FEW080 03/M01 A2983 RMK AC1 SLP123

CYXE;2008-04-17 15:00;CYXE 171500Z 23006KT 15SM SKC 06/M01 A2983 RMK SLP122

CYXE;2008-04-17 16:00;CYXE 171600Z 24004KT 15SM FEW080 SCT250 10/M00 A2982 RMK AC1CI0 SLP120

CYXE;2008-04-17 17:00;CYXE 171700Z 27007KT 15SM FEW080 BKN250 11/M00 A2981 RMK AC1CI2 SLP116

CYXE;2008-04-17 18:00;CYXE 171800Z 26007KT 15SM FEW056 FEW110 BKN250 13/M01 A2979 RMK CU1AC1CI1 SLP103

CYXE;2008-04-17 19:00;CYXE 171900Z 24010KT 15SM SCT062 BKN250 15/M01 A2977 RMK CU3CI1 SLP096

CYXE;2008-04-17 20:00;CYXE 172000Z 23012G17KT 15SM BKN062 BKN086 OVC220 17/M01 A2975 RMK SC5AC1CI0 SLP089

CYXE;2008-04-17 21:00;CYXE 172100Z 23013G20KT 15SM BKN072 BKN085 BKN220 16/M03 A2972 RMK CU5CI1CI0 SLP078

CYXE;2008-04-17 22:00;CYXE 172200Z 23007KT 15SM BKN075 BKN220 16/M03 A2971 RMK AC5CI0 SLP074

CYXE;2008-04-17 23:00;CYXE 172300Z 21011KT 15SM SCT080 BKN220 17/M04 A2969 RMK AC4CI0 SLP069

CYXE;2008-04-18 00:00;CYXE 180000Z 20009G16KT 15SM FEW080 BKN220 16/M05 A2968 RMK AC2CI0 SLP066

CYXE;2008-04-18 01:00;CYXE 180100Z 21009KT 15SM FEW080 BKN220 15/M05 A2966 RMK AC2CI0 SLP061

CYXE;2008-04-18 02:00;CYXE 180200Z 17008KT 15SM FEW080 SCT220 10/M04 A2965 RMK AC2CI0 SLP058

CYXE;2008-04-18 03:00;CYXE 180300Z 17006KT 15SM FEW080 FEW220 12/02 A2965 RMK AC1CI0 SLP054

CYXE;2008-04-18 04:00;CYXE 180400Z 18008KT 15SM FEW080 11/M02 A2965 RMK AC1 SLP055

CYXE;2008-04-18 05:00;CYXE 180500Z 33009KT 15SM FEW098 11/M00 A2967 RMK AC2 SLP060

CYXE;2008-04-18 06:00;CYXE 180600Z 31012G17KT 15SM BKN095 09/03 A2969 RMK AC6 SLP067

CYXE;2008-04-18 07:00;CYXE 180700Z 36017G22KT 15SM FEW100 BKN250 07/03 A2973 RMK AC1CI0 SLP080

CYXE;2008-04-18 08:00;CYXE 180800Z 02015KT 15SM BKN080 06/04 A2975 RMK AC5 SLP084

CYXE;2008-04-18 09:00;CYXE 180900Z 05008KT 15SM SCT080 05/02 A2973 RMK AC3 SLP081

CYXE;2008-04-18 10:00;CYXE 181000Z 03009KT 15SM SCT045 BKN095 05/04 A2973 RMK SC3AC1 SLP082

CYXE;2008-04-18 11:00;CYXE 181100Z 35007KT 15SM FEW090 03/02 A2976 RMK AC2 SLP090

CYXE;2008-04-18 12:00;CYXE 181200Z 01008KT 15SM FEW090 01/00 A2978 RMK AC1 SLP099

CYXE;2008-04-18 13:00;CYXE 181300Z 36008KT 15SM SKC 01/M00 A2981 RMK SLP109

CYXE;2008-04-18 14:00;CYXE 181400Z 03016KT 15SM SKC 03/M05 A2981 RMK SLP111

CYXE;2008-04-18 15:00;CYXE 181500Z 05013G18KT 15SM SKC 05/M04 A2984 RMK SLP121

CYXE;2008-04-18 16:00;CYXE 181600Z 04012G18KT 15SM SCT250 06/M04 A2984 RMK CI0 SLP121

CYXE;2008-04-18 17:00;CYXE 181700Z 03012G17KT 15SM SCT280 08/M04 A2985 RMK CI0 SLP124

CYXE;2008-04-18 18:00;CYXE 181800Z 03013G18KT 15SM SCT250 09/M03 A2984 RMK CI0 SLP120

CYXE;2008-04-18 19:00;CYXE 181900Z 02015G21KT 15SM BKN250 10/M04 A2983 RMK CI0 SLP116

CYXE;2008-04-18 20:00;CYXE 182000Z 01018KT 15SM FEW050 OVC250 10/M04 A2983 RMK SC1CI1 SLP116

CYXE;2008-04-18 21:00;CYXE 182100Z 02020KT 15SM SCT050 BKN250 10/M03 A2982 RMK SC3CI1 SLP114

CYXE;2008-04-18 22:00;CYXE 182200Z 02018G24KT 15SM FEW050 SCT120 BKN250 10/M04 A2982 RMK CU1AC3CC0 SLP115

CYXE;2008-04-18 23:00;CYXE 182300Z 05018KT 15SM BKN120 BKN250 09/M05 A2983 RMK AC5CI1 SLP118

CYXE;2008-04-19 00:00;CYXE 190000Z 01020G27KT 15SM FEW050 BKN120 BKN250 06/M06 A2985 RMK SC2AC2CI1 SLP131

CYXE;2008-04-19 01:00;CYXE 190100Z 01019G24KT 15SM BKN120 OVC250 04/M07 A2986 RMK AC6CI0 SLP134

CYXE;2008-04-19 02:00;CYXE 190200Z 01021G28KT 15SM BKN069 OVC090 03/M07 A2988 RMK AC6AC2 VIRGA W SLP139

CYXE;2008-04-19 02:40;CYXE 190240Z 36018G28KT 15SM OVC054 02/ RMK SC8

CYXE;2008-04-19 03:00;CYXE 190300Z 35017G26KT 15SM OVC054 02/M07 A2994 RMK SC8 PRESRR SLP160

CYXE;2008-04-19 03:45;CYXE 190345Z 03022G29KT 12SM -SHRA OVC022 02/ RMK SC8

CYXE;2008-04-19 04:00;CYXE 190400Z 02016G22KT 12SM -SHSN OVC015 01/M02 A2995 RMK SC8 SLP164

CYXE;2008-04-19 04:19;CYXE 190419Z 01017KT 2 1/2SM -SHSN OVC009 01/ RMK SC8

CYXE;2008-04-19 04:28;CYXE 190428Z 01016G21KT 1SM R09/P6000FT/U -SHSN VV009 01/ RMK SN8

CYXE;2008-04-19 04:38;CYXE 190438Z 36020KT 1/2SM R09/1200VP6000FT/D SHSN VV001 01/ RMK SN8

CYXE;2008-04-19 04:52;CYXE 190452Z 36019KT 1/4SM +SHSN VV001 01/ RMK SN8

CYXE;2008-04-19 05:00;CYXE 190500Z 36020KT 1/4SM +SHSN VV001 01/01 A2995 RMK SN8 SLP166

CYXE;2008-04-19 05:47;CYXE 190547Z 03019KT 1/2SM SHSN VV003 01/ RMK SN8

CYXE;2008-04-19 06:00;CYXE 190600Z 03021KT 1/2SM SHSN VV003 01/M01 A2996 RMK SN8 SLP168

CYXE;2008-04-19 07:00;CYXE 190700Z 03019KT 5/8SM -SN VV003 M01/M01 A2999 RMK SN8 /S02/ SLP177

CYXE;2008-04-19 07:03;CYXE 190703Z 03016G22KT 1SM -SN VV005 M01/ RMK SN8

CYXE;2008-04-19 07:09;CYXE 190709Z 03018KT 2SM -SN OVC035 M01/ RMK SN5SC3

CYXE;2008-04-19 07:51;CYXE 190751Z 03019G24KT 3SM -SN SCT010 OVC035 M01/ RMK SF3SC5

CYXE;2008-04-19 08:00;CYXE 190800Z 02020KT 3SM -SN SCT010 OVC035 M01/M03 A2999 RMK SF3SC5 SLP177

CYXE;2008-04-19 08:37;CYXE 190837Z 02019G24KT 15SM FEW008 OVC032 M02/ RMK SF2SC6

CYXE;2008-04-19 09:00;CYXE 190900Z 02016G22KT 15SM FEW008 OVC030 M02/M04 A3001 RMK SF1SC7 SLP184

CYXE;2008-04-19 10:00;CYXE 191000Z 02016G22KT 15SM SCT013 OVC040 M02/M04 A3003 RMK SF3SC5 SLP190

CYXE;2008-04-19 11:00;CYXE 191100Z 02014G20KT 15SM FEW014 OVC030 M03/M05 A3004 RMK SF2SC6 SLP193

CYXE;2008-04-19 12:00;CYXE 191200Z 03017G25KT 15SM BKN013 OVC040 M04/M07 A3005 RMK SC6SC2 SLP201

CYXE;2008-04-19 13:00;CYXE 191300Z 03014G22KT 15SM BKN013 OVC040 M04/M05 A3008 RMK SC6SC2 SLP210

CYXE;2008-04-19 14:00;CYXE 191400Z 03015G20KT 15SM BKN013 OVC040 M04/M06 A3008 RMK SC6SC2 SLP212

CYXE;2008-04-19 15:00;CYXE 191500Z 03019KT 15SM OVC015 M04/M06 A3008 RMK SC8 SLP213

CYXE;2008-04-19 16:00;CYXE 191600Z 01017KT 15SM OVC015 M02/M05 A3007 RMK SC8 SLP212

CYXE;2008-04-19 17:00;CYXE 191700Z 04019KT 15SM BKN017 OVC038 M03/M07 A3007 RMK SC6SC2 SLP212

CYXE;2008-04-19 18:00;CYXE 191800Z 04018KT 15SM BKN015 OVC040 M01/M06 A3005 RMK SC6SC2 SLP203

CYXE;2008-04-19 19:00;CYXE 191900Z 03015KT 15SM BKN015 BKN040 M01/M04 A3004 RMK SC6SC2 SLP200

CYXE;2008-04-19 20:00;CYXE 192000Z 03017KT 15SM BKN017 BKN040 M00/M04 A3001 RMK SC6SC2 SLP191

CYXE;2008-04-19 21:00;CYXE 192100Z 03016KT 15SM OVC019 01/00 A3001 RMK SC8 SLP190

CYXE;2008-04-19 22:00;CYXE 192200Z 02014G20KT 15SM BKN023 02/00 A2999 RMK SC5 SLP185

CYXE;2008-04-19 23:00;CYXE 192300Z 02017G22KT 15SM SCT025 BKN090 BKN250 01/M02 A2997 RMK SC3AC2CI0 SLP178

CYXE;2008-04-20 00:00;CYXE 200000Z 03017KT 15SM BKN023 OVC085 01/M02 A2997 RMK SC6AC2 SLP177

CYXE;2008-04-20 01:00;CYXE 200100Z 05016G24KT 15SM OVC021 01/M02 A2999 RMK SC8 SLP182

CYXE;2008-04-20 02:00;CYXE 200200Z 05013G19KT 15SM OVC021 01/M01 A2999 RMK SC8 SLP183

CYXE;2008-04-20 02:52;CYXE 200252Z 05019G24KT 12SM -SN OVC017 01/ RMK SC8

CYXE;2008-04-20 03:00;CYXE 200300Z 05023G29KT 12SM -SN OVC015 00/M01 A2998 RMK SC8 SLP180

CYXE;2008-04-20 03:44;CYXE 200344Z 04018G27KT 12SM -RAPL OVC011 M00/ RMK SC8

CYXE;2008-04-20 04:00;CYXE 200400Z 05018G27KT 12SM -RAPL OVC011 M00/M01 A2997 RMK SC8 SLP177

CYXE;2008-04-20 04:24;CYXE 200424Z 05018G26KT 15SM -SHSN OVC013 M00/ RMK SC8

CYXE;2008-04-20 05:00;CYXE 200500Z 06020G26KT 12SM -SHSN OVC015 M00/M02 A2994 RMK SC8 SLP167

CYXE;2008-04-20 06:00;CYXE 200600Z 06020G25KT 10SM -SHSN OVC012 00/00 A2990 RMK SC8 SLP153

CYXE;2008-04-20 06:34;CYXE 200634Z 06021G26KT 2SM -SHGSSN OVC012 M00/ RMK SN3SC5

CYXE;2008-04-20 06:53;CYXE 200653Z 06020G27KT 10SM -FZRA OVC012 M01/ RMK SC8

CYXE;2008-04-20 07:00;CYXE 200700Z 06020G27KT 15SM -FZRA OVC012 M01/M01 A2987 RMK SC8 SLP144

CYXE;2008-04-20 07:11;CYXE 200711Z 06017G24KT 15SM -FZRA OVC008 M01/ RMK SF8

CYXE;2008-04-20 08:00;CYXE 200800Z 06021G26KT 15SM -FZRA OVC008 M01/M02 A2986 RMK SF8 SLP140

CYXE;2008-04-20 08:05;CYXE 200805Z 06023KT 15SM OVC008 M01/ REFZRA RMK SF8

CYXE;2008-04-20 08:50;CYXE 200850Z 05019G28KT 15SM -FZRA OVC006 M01/ RMK SF8

CYXE;2008-04-20 09:00;CYXE 200900Z 06022G27KT 15SM -FZRA OVC006 M02/M02 A2981 RMK SF8 SLP122

CYXE;2008-04-20 09:15;CYXE 200915Z 06021G27KT 15SM OVC006 M02/ REFZRA RMK SF8

CYXE;2008-04-20 10:00;CYXE 201000Z 05021G29KT 15SM OVC005 M02/M02 A2978 REFZRA RMK SF8 SLP111

CYXE;2008-04-20 10:32;CYXE 201032Z 05020G25KT 15SM -FZRA OVC005 M02/ RMK SF8

CYXE;2008-04-20 10:43;CYXE 201043Z 05017G25KT 15SM OVC005 M02/ REFZRA RMK SF8

CYXE;2008-04-20 11:00;CYXE 201100Z 04017G22KT 15SM OVC005 M02/M02 A2976 REFZRA RMK SF8 SLP104

CYXE;2008-04-20 12:00;CYXE 201200Z 05018G24KT 6SM BR OVC006 M02/M03 A2973 RMK SF8 SLP094

CYXE;2008-04-20 13:00;CYXE 201300Z 05014KT 8SM SCT007 BKN014 OVC080 M01/M01 A2974 RMK SF4SC2AC2 SLP096

CYXE;2008-04-20 13:42;CYXE 201342Z 06016KT 4SM -SG SCT009 BKN020 OVC080 M00/ RMK SF3SC2AC3

CYXE;2008-04-20 14:00;CYXE 201400Z 06018KT 6SM -SN SCT009 BKN020 OVC055 M00/M00 A2972 RMK SF3SC2SC3 OBS TAKEN +07 SLP090

CYXE;2008-04-20 15:00;CYXE 201500Z 06021G29KT 15SM SCT006 BKN020 OVC070 M00/M00 A2967 RMK SF4SC2AC2 SLP072

CYXE;2008-04-20 15:27;CYXE 201527Z 06020G26KT 15SM BKN007 OVC070 M00/ RMK SF6AC2

CYXE;2008-04-20 16:00;CYXE 201600Z 05021KT 15SM SCT007 OVC060 01/00 A2964 RMK SF4SC4 SLP063

CYXE;2008-04-20 17:00;CYXE 201700Z 06020G25KT 15SM FEW007 SCT050 OVC070 03/01 A2963 RMK SF2SC2AC4 SLP059

CYXE;2008-04-20 18:00;CYXE 201800Z 06015KT 15SM OVC055 04/M03 A2961 RMK SC8 SLP048

CYXE;2008-04-20 19:00;CYXE 201900Z 06018KT 15SM OVC045 05/01 A2959 RMK SC8 SLP042

CYXE;2008-04-20 20:00;CYXE 202000Z 05017KT 15SM OVC041 05/02 A2958 RMK SC8 SLP038

CYXE;2008-04-20 21:00;CYXE 202100Z 05014KT 15SM OVC041 05/02 A2958 RMK SC8 SLP039

CYXE;2008-04-20 21:42;CYXE 202142Z 05014KT 15SM -RA OVC036 05/ RMK SC8

CYXE;2008-04-20 22:00;CYXE 202200Z 06015KT 8SM -RA OVC030 03/03 A2957 RMK SC8 SLP038

CYXE;2008-04-20 22:12;CYXE 202212Z 04014KT 3SM -RA BR OVC028 03/ RMK SC8

CYXE;2008-04-20 23:00;CYXE 202300Z 05012KT 2 1/2SM -RA BR OVC033 03/03 A2957 RMK SC8 /R10/ SLP038

CYXE;2008-04-20 23:55;CYXE 202355Z 05010KT 4SM -RA BR BKN016 OVC058 04/ RMK SF5SC3

CYXE;2008-04-21 00:00;CYXE 210000Z 05009KT 5SM -RA BR BKN016 OVC058 04/03 A2957 RMK SF6SC2 SLP037

CYXE;2008-04-21 00:34;CYXE 210034Z 31004KT 4SM -RA BR SCT008 OVC016 04/ RMK SF4SC4

CYXE;2008-04-21 00:44;CYXE 210044Z 29007KT 3SM -RA BR BKN006 OVC016 03/ RMK ST6SC2

CYXE;2008-04-21 01:00;CYXE 210100Z 30012KT 3SM -RA BR BKN002 OVC006 01/01 A2959 RMK SF5ST3 SLP043

CYXE;2008-04-21 02:00;CYXE 210200Z 29011KT 2 1/2SM -FZRA BR OVC003 M00/M00 A2960 RMK ST8 SLP046

CYXE;2008-04-21 02:22;CYXE 210222Z 28012KT 4SM -FZRA BR OVC004 M00/ RMK ST8

CYXE;2008-04-21 03:00;CYXE 210300Z 28012KT 6SM -FZRA BR OVC004 M01/M02 A2961 RMK ST8 SLP053

CYXE;2008-04-21 03:37;CYXE 210337Z 28011KT 12SM -FZRA OVC005 M02/ RMK ST8

CYXE;2008-04-21 04:00;CYXE 210400Z 26011KT 8SM -FZRA OVC005 M02/M03 A2963 RMK SC8 SLP060

CYXE;2008-04-21 04:31;CYXE 210431Z 25011KT 8SM -SN -FZDZ OVC006 M02/ RMK SC8

CYXE;2008-04-21 04:50;CYXE 210450Z 25009KT 8SM -SHSN OVC008 M02/ REFZRA RMK SC8

CYXE;2008-04-21 05:00;CYXE 210500Z 26013KT 8SM -SHSN OVC008 M02/M03 A2965 REFZDZ RMK SC8 SLP067

CYXE;2008-04-21 05:38;CYXE 210538Z 27012KT 8SM OVC010 M02/ RMK SC8

CYXE;2008-04-21 06:00;CYXE 210600Z 26013KT 10SM OVC010 M04/M05 A2968 RMK SC8 SLP078

CYXE;2008-04-21 07:00;CYXE 210700Z 26011G16KT 15SM OVC014 M05/M07 A2969 RMK SC8 SLP079

CYXE;2008-04-21 08:00;CYXE 210800Z 26010G15KT 15SM BKN017 OVC050 M07/M08 A2968 RMK SC6SC2 SLP076

CYXE;2008-04-21 09:00;CYXE 210900Z 25011KT 15SM FEW015 OVC045 M07/M10 A2971 RMK SC2SC6 SLP087

CYXE;2008-04-21 10:00;CYXE 211000Z 25013G18KT 15SM FEW020 FEW050 BKN250 M07/M08 A2971 RMK SC1SC1CI0 SLP087

CYXE;2008-04-21 11:00;CYXE 211100Z 25013G19KT 15SM FEW020 FEW050 BKN250 M07/M07 A2974 RMK SC1SC2CI0 SLP099

CYXE;2008-04-21 12:00;CYXE 211200Z 25011G17KT 15SM FEW015 SCT030 BKN100 M08/M11 A2975 RMK SC1SC2AC2 SLP103

CYXE;2008-04-21 13:00;CYXE 211300Z 25014KT 15SM FEW017 BKN100 M09/M12 A2976 RMK SC2AC3 SLP105

CYXE;2008-04-21 14:00;CYXE 211400Z 25015G20KT 15SM BKN015 BKN080 M08/M10 A2977 RMK SC5AC2 SLP109

CYXE;2008-04-21 15:00;CYXE 211500Z 25014KT 15SM -SN BKN017 M08/M10 A2977 RMK SC7 SLP115

CYXE;2008-04-21 16:00;CYXE 211600Z 25017KT 8SM -SN OVC018 M08/M10 A2977 RMK SC8 SLP113

CYXE;2008-04-21 17:00;CYXE 211700Z 25015G20KT 6SM -SN OVC018 M07/M10 A2976 RMK SC8 SLP111

CYXE;2008-04-21 18:00;CYXE 211800Z 25016G22KT 6SM -SN DRSN OVC018 M07/M10 A2977 RMK SC8 SLP113

CYXE;2008-04-21 19:00;CYXE 211900Z 25018G26KT 10SM -SN DRSN OVC019 M06/M09 A2977 RMK SC7 SLP113

CYXE;2008-04-21 20:00;CYXE 212000Z 24022G28KT 15SM -SN BKN024 BKN085 M06/M10 A2977 RMK SC5AC2 INTMT -SN SLP114

CYXE;2008-04-21 21:00;CYXE 212100Z 24019G30KT 15SM -SN BKN020 M06/M10 A2978 RMK SC7 SLP118

CYXE;2008-04-21 21:08;CYXE 212108Z 23023G30KT 8SM -SHSN OVC012 M07/ RMK SC7 TCU EMBD VIS N-NE 1/2

CYXE;2008-04-21 21:22;CYXE 212122Z 25023KT 15SM VCSH BKN012 M06/ RMK SC7 TCU EMBD

CYXE;2008-04-21 21:34;CYXE 212134Z 24025G30KT 6SM -SHSN OVC012 M06/ RMK SC7 TCU EMBD

CYXE;2008-04-21 22:00;CYXE 212200Z 24024G30KT 8SM -SHSN BKN015 BKN250 M05/M10 A2977 RMK SC6CI0 VIS VRB 4-12 TCU EMBD SLP116

CYXE;2008-04-21 22:14;CYXE 212214Z 26023G32KT 3/4SM R09/P6000FT/D -SHSN OVC012 M06/ RMK SN3SC4 TCU EMBD

CYXE;2008-04-21 22:16;CYXE 212216Z 25022G32KT 12SM -SHSN OVC015 M06/ RMK SC7 OCNL SHSN VIS 1/2

CYXE;2008-04-21 23:00;CYXE 212300Z 24026G31KT 15SM -SHSN OVC015 M05/M10 A2977 RMK SC7 OCNL SHSN VIS 1/2-1 TCU EMBD SLP116

CYXE;2008-04-21 23:30;CYXE 212330Z 25026G32KT 1/2SM R09/P6000FT/D SHSN DRSN VV007 M06/ RMK SN8 TCU EMBD

CYXE;2008-04-21 23:37;CYXE 212337Z 25025G32KT 1/4SM R09/P6000FT/D SHSN DRSN VV007 M06/ RMK SN8

CYXE;2008-04-22 00:00;CYXE 220000Z 25018G25KT 1/2SM R09/3000V6000FT/U SHSN DRSN VV005 M07/M08 A2978 RMK SN8 TCU EMBD SLP122

CYXE;2008-04-22 00:20;CYXE 220020Z 26016G21KT 3/4SM R09/P6000FT/U -SHSN DRSN VV005 M06/ RMK SN8 VIS VRB 1/2-1 TCU EMBD

CYXE;2008-04-22 00:35;CYXE 220035Z 25015G21KT 3SM -SHSN DRSN VV010 M06/ RMK SN8 VIS VRB 1-5 TCU EMBD

CYXE;2008-04-22 00:43;CYXE 220043Z 24017G22KT 15SM -SHSN BKN008 OVC070 M06/ RMK SF6AC2 TCU EMBD

CYXE;2008-04-22 00:55;CYXE 220055Z 24015KT 15SM FEW008 BKN020 OVC065 M06/ RMK SF2SC5SC2

CYXE;2008-04-22 01:00;CYXE 220100Z 24018KT 15SM VCSH SCT020 OVC065 M06/M09 A2977 RMK SC3SC5 SLP118

CYXE;2008-04-22 02:00;CYXE 220200Z 23014KT 15SM SCT050 BKN100 OVC240 M06/M11 A2978 RMK SC3AC3CI2 SLP120

CYXE;2008-04-22 03:00;CYXE 220300Z 27015G21KT 15SM FEW025 BKN040 OVC095 M06/M10 A2979 RMK SC2SC3AC3 SLP123

CYXE;2008-04-22 04:00;CYXE 220400Z 24014KT 15SM SCT055 OVC090 M06/M10 A2977 RMK SC3AC5 SLP118

CYXE;2008-04-22 04:43;CYXE 220443Z 24016G25KT 15SM -SN OVC035 M06/ RMK SC8

CYXE;2008-04-22 05:00;CYXE 220500Z 24016G21KT 15SM -SN BKN035 OVC100 M06/M08 A2977 RMK SC6AC2 SLP116

CYXE;2008-04-22 06:00;CYXE 220600Z CCA 25014KT 15SM -SN BKN035 OVC100 M06/M10 A2976 RMK SC5AC2 SLP113

CYXE;2008-04-22 06:14;CYXE 220614Z 25016G21KT 15SM FEW034 SCT100 BKN250 M06/ RMK SC2AC2CI1

CYXE;2008-04-22 07:00;CYXE 220700Z 25013KT 15SM SCT034 SCT100 BKN250 M07/M10 A2976 RMK SC3AC1CI1 SLP113

CYXE;2008-04-22 08:00;CYXE 220800Z 24012G17KT 15SM FEW035 SCT100 BKN250 M08/M11 A2975 RMK SC2AC1CI0 SLP110

CYXE;2008-04-22 09:00;CYXE 220900Z 24012KT 15SM FEW015 FEW100 BKN250 M08/M10 A2974 RMK SC2AC1CI0 SLP105

CYXE;2008-04-22 10:00;CYXE 221000Z 25014G19KT 15SM SCT054 BKN100 OVC250 M08/M11 A2974 RMK SC3AC4CI1 SLP105

CYXE;2008-04-22 11:00;CYXE 221100Z 23016KT 15SM SCT054 BKN100 OVC250 M08/M11 A2972 RMK SC3AC2CI1 SLP101

CYXE;2008-04-22 12:00;CYXE 221200Z 22014KT 15SM FEW027 SCT100 OVC250 M09/M11 A2971 RMK SC2AC2CI1 SLP096

CYXE;2008-04-22 12:24;CYXE 221224Z 21014G19KT 10SM -SN BKN027 OVC100 M08/ RMK SC5AC3 VIS W-N 5

CYXE;2008-04-22 12:47;CYXE 221247Z 22017G22KT 10SM BKN027 BKN070 OVC250 M07/ RMK SC5AC2CI0

CYXE;2008-04-22 13:00;CYXE 221300Z 22018G25KT 10SM BKN018 OVC070 M07/M10 A2969 RMK SC5AC3 SLP091

CYXE;2008-04-22 13:05;CYXE 221305Z 23019G25KT 3SM -SN BKN018 OVC075 M07/ RMK SC6AC2

CYXE;2008-04-22 13:44;CYXE 221344Z 25027G32KT 1/8SM R09/4500VP6000FT/D +SN VV006 M06/ RMK SN8

CYXE;2008-04-22 13:50;CYXE 221350Z 27022G32KT 1/2SM R09/4500VP6000FT/N -SN BLSN VV006 M06/ RMK SN8

CYXE;2008-04-22 14:00;CYXE 221400Z CCA 27020G29KT 1SM R09/P6000FT/U -SN VV005 M07/M09 A2970 RMK SN8 RESN REBLSN SLP093

CYXE;2008-04-22 14:07;CYXE 221407Z 26021G27KT 2 1/2SM -SN BKN006 OVC018 M08/ RMK SF6SC2

CYXE;2008-04-22 14:26;CYXE 221426Z 27020G34KT 2SM -SN DRSN OVC011 M08/ RMK SC8

CYXE;2008-04-22 15:00;CYXE 221500Z 27017G25KT 2SM -SN DRSN OVC010 M09/M11 A2972 RMK SC8 SLP101

CYXE;2008-04-22 15:04;CYXE 221504Z 25019G25KT 1 3/4SM R09/4500VP6000FT/D -SHSN DRSN OVC008 M09/ RMK SC8 CIG VRB 6-10 VIS VRB 1-21/2

CYXE;2008-04-22 15:50;CYXE 221550Z 26018G26KT 3SM -SHSN DRSN BKN009 OVC030 M08/ RMK SC6SC2

CYXE;2008-04-22 16:00;CYXE 221600Z 25019G28KT 4SM -SHSN DRSN OVC015 M08/M12 A2975 RMK SC7 SLP108

CYXE;2008-04-22 16:22;CYXE 221622Z 26018G28KT 8SM -SHSN BKN013 M08/ RMK SC7

CYXE;2008-04-22 17:00;CYXE 221700Z 26022G29KT 10SM -SHSN BKN018 OVC250 M07/M12 A2975 RMK SC7CI0 SLP110

CYXE;2008-04-22 18:00;CYXE 221800Z 27019G26KT 8SM -SN OVC019 M06/M10 A2977 RMK SC7 SLP113

CYXE;2008-04-22 18:24;CYXE 221824Z 27019G27KT 2SM -SN OVC015 M07/ RMK SN2SC6

CYXE;2008-04-22 18:49;CYXE 221849Z 27020G25KT 15SM -SN SCT006 BKN015 M06/ RMK SF2SC5

CYXE;2008-04-22 19:00;CYXE 221900Z 27019G24KT 6SM -SN FEW006 OVC011 M06/M10 A2977 RMK SF2SC6 SLP115

CYXE;2008-04-22 19:45;CYXE 221945Z 28019G25KT 6SM -SN OVC019 M06/ RMK SC7

CYXE;2008-04-22 20:00;CYXE 222000Z 28019G24KT 4SM -SN FEW010 OVC019 M06/M09 A2979 RMK SC2SC6 SLP122

CYXE;2008-04-22 21:00;CYXE 222100Z CCA 27018G25KT 15SM VCSH OVC020 M05/M10 A2981 RMK SC7 TCU EMBD SLP131

CYXE;2008-04-22 22:00;CYXE 222200Z 30019G25KT 15SM VCSH BKN022 M04/M10 A2982 RMK SC7 TCU EMBD SLP134

CYXE;2008-04-22 23:00;CYXE 222300Z 28019G24KT 15SM VCSH BKN020 M03/M10 A2985 RMK SC7 TCU EMBD SLP143

CYXE;2008-04-22 23:13;CYXE 222313Z 28018G24KT 4SM -SHSN DRSN OVC015 M04/ RMK SC7 VIS VRB 2-6 TCU EMBD

CYXE;2008-04-22 23:26;CYXE 222326Z 30014G20KT 15SM VCSH BKN015 M04/ RMK SC7 TCU EMBD

CYXE;2008-04-23 00:00;CYXE 230000Z 30018G24KT 15SM VCSH BKN020 BKN120 M03/M10 A2988 RMK SC7AC1 TCU EMBD SLP153

CYXE;2008-04-23 01:00;CYXE 230100Z 30018G26KT 15SM SCT030 M04/M11 A2990 RMK SC4 SLP158

CYXE;2008-04-23 02:00;CYXE 230200Z 30010G16KT 15SM FEW030 M06/M10 A2992 RMK SC2 SLP166

CYXE;2008-04-23 03:00;CYXE 230300Z 29013G19KT 15SM SCT025 M06/M09 A2996 RMK SC3 SLP182

CYXE;2008-04-23 04:00;CYXE 230400Z 29010KT 15SM FEW025 M06/M09 A2998 RMK SC1 SLP189

CYXE;2008-04-23 05:00;CYXE 230500Z 28010KT 15SM SKC M07/M09 A3000 RMK SLP196

CYXE;2008-04-23 06:00;CYXE 230600Z 26009KT 15SM BKN021 M06/M08 A3004 RMK SC6 SLP207

CYXE;2008-04-23 07:00;CYXE 230700Z 28005KT 15SM FEW014 M08/M09 A3004 RMK SC2 SLP207

CYXE;2008-04-23 08:00;CYXE 230800Z 27005KT 15SM SKC M10/M10 A3004 RMK SLP208

CYXE;2008-04-23 09:00;CYXE 230900Z 25008KT 15SM SCT022 M08/M09 A3006 RMK SC3 SLP214

CYXE;2008-04-23 10:00;CYXE 231000Z 27007KT 15SM SKC M09/M11 A3008 RMK SLP222

CYXE;2008-04-23 11:00;CYXE 231100Z 27005KT 15SM FEW030 FEW250 M10/M11 A3009 RMK SC1CI0 SLP225

CYXE;2008-04-23 12:00;CYXE 231200Z 24007KT 15SM FEW034 BKN120 BKN250 M10/M11 A3010 RMK SC2AC4CI0 SLP229

CYXE;2008-04-23 13:00;CYXE 231300Z 24007KT 15SM BKN060 BKN250 M08/M10 A3010 RMK SC5CI1 SLP230

CYXE;2008-04-23 14:00;CYXE 231400Z 25005KT 15SM FEW050 BKN250 M07/M09 A3012 RMK SC2CI1 SLP234

CYXE;2008-04-23 15:00;CYXE 231500Z 29006KT 15SM FEW025 BKN250 M05/M08 A3012 RMK SC2CI0 SLP236

CYXE;2008-04-23 17:00;CYXE 231700Z 25005KT 15SM SCT020 BKN250 M02/M07 A3012 RMK CU4CI0 SLP235

CYXE;2008-04-23 18:00;CYXE 231800Z 30009G15KT 15SM BKN040 BKN250 M01/M11 A3012 RMK CU5CI0 SLP230

CYXE;2008-04-23 19:00;CYXE 231900Z 34009KT 15SM BKN030 BKN250 M00/M10 A3012 RMK CU6CI0 SLP231

CYXE;2008-04-23 20:00;CYXE 232000Z 36007KT 15SM BKN030 BKN250 M01/M10 A3011 RMK SC5CI1 SLP228

CYXE;2008-04-23 21:00;CYXE 232100Z 33006KT 15SM FEW040 OVC250 01/M11 A3009 RMK SC1CS6 SLP221

CYXE;2008-04-23 22:00;CYXE 232200Z 29007KT 15SM FEW040 OVC250 00/M10 A3009 RMK SC1CS6 SLP222

CYXE;2008-04-23 23:00;CYXE 232300Z 32007KT 15SM FEW040 OVC250 01/M10 A3009 RMK SC1CS3 SLP221

CYXE;2008-04-24 00:00;CYXE 240000Z 33008KT 15SM SCT090 OVC250 M00/M10 A3008 RMK AS3CS3 SLP219

CYXE;2008-04-24 01:00;CYXE 240100Z 30007KT 15SM BKN070 OVC250 M01/M10 A3009 RMK AS6CS2 SLP223

CYXE;2008-04-24 02:00;CYXE 240200Z 30005KT 15SM BKN070 OVC250 M02/M09 A3010 RMK AS6CS2 SLP227

CYXE;2008-04-24 03:00;CYXE 240300Z 29004KT 15SM BKN066 OVC250 M02/M09 A3012 RMK AS6CS2 SLP231

CYXE;2008-04-24 04:00;CYXE 240400Z 29004KT 15SM OVC055 M02/M08 A3013 RMK SC8 SLP235

CYXE;2008-04-24 05:00;CYXE 240500Z 33003KT 15SM BKN045 OVC095 M03/M09 A3013 RMK SC6AC2 SLP236

CYXE;2008-04-24 06:00;CYXE 240600Z 03004KT 15SM OVC044 M04/M08 A3013 RMK SC8 SLP233

CYXE;2008-04-24 07:00;CYXE 240700Z 03005KT 15SM OVC048 M05/M08 A3011 RMK SC8 SLP228

CYXE;2008-04-24 08:00;CYXE 240800Z 05004KT 15SM BKN045 M04/M07 A3012 RMK SC6 SLP230

CYXE;2008-04-24 09:00;CYXE 240900Z 05002KT 15SM BKN070 M04/M07 A3012 RMK AC6 SLP229

CYXE;2008-04-24 10:00;CYXE 241000Z 02003KT 15SM OVC057 M04/M06 A3012 RMK SC8 SLP228

CYXE;2008-04-24 11:00;CYXE 241100Z 36004KT 15SM OVC054 M04/M06 A3011 RMK SC8 SLP226

CYXE;2008-04-24 12:00;CYXE 241200Z 02005KT 15SM FEW032 SCT070 BKN210 M04/M06 A3012 RMK SC2AC1CI0 SLP229

CYXE;2008-04-24 13:00;CYXE 241300Z 06010KT 15SM FEW032 SCT070 BKN210 M04/M06 A3013 RMK SC1AC2CI0 SLP233

CYXE;2008-04-24 14:00;CYXE 241400Z 06012KT 15SM BKN035 BKN090 M03/M07 A3014 RMK SC5AC2 SLP237

CYXE;2008-04-24 15:00;CYXE 241500Z 08011KT 15SM -SN SCT035 BKN090 BKN250 M02/M06 A3013 RMK SC3AC2CI0 SLP235

CYXE;2008-04-24 16:00;CYXE 241600Z 08009KT 15SM -SN FEW020 OVC027 M01/M06 A3014 RMK SC2SC6 SLP237

CYXE;2008-04-24 17:00;CYXE 241700Z 06009KT 15SM -SN SCT024 OVC070 00/M06 A3015 RMK SC3AC2 SLP240

CYXE;2008-04-24 18:00;CYXE 241800Z 06009KT 15SM SCT026 BKN060 OVC250 02/M06 A3014 RMK SC3SC2CI0 OBS TAKEN +02 SLP237

CYXE;2008-04-24 19:00;CYXE 241900Z 10008KT 15SM BKN030 BKN250 02/M06 A3013 RMK SC5CI0 SLP233

CYXE;2008-04-24 20:00;CYXE 242000Z 11007KT 15SM BKN034 BKN250 02/M07 A3013 RMK SC6CI0 SLP233

CYXE;2008-04-24 21:00;CYXE 242100Z 09006KT 15SM BKN035 OVC100 03/M07 A3012 RMK SC6AC2 SLP227

CYXE;2008-04-24 22:00;CYXE 242200Z 11004KT 15SM BKN038 OVC100 03/M07 A3011 RMK SC6AC1 CU ASOCTD SLP223

CYXE;2008-04-24 23:00;CYXE 242300Z 05005KT 15SM BKN040 OVC100 03/M07 A3011 RMK SC6AC1 SLP224

CYXE;2008-04-25 00:00;CYXE 250000Z 07006KT 15SM SCT042 OVC090 03/M07 A3012 RMK SC3AC5 SLP227

CYXE;2008-04-25 01:00;CYXE 250100Z 07007KT 15SM BKN042 OVC070 03/M07 A3012 RMK SC5AC3 SLP230

CYXE;2008-04-25 02:00;CYXE 250200Z 07007KT 15SM OVC065 02/M07 A3013 RMK SC8 SLP233

CYXE;2008-04-25 03:00;CYXE 250300Z 09007KT 15SM OVC065 01/M06 A3015 RMK SC8 SLP239

CYXE;2008-04-25 04:00;CYXE 250400Z 08006KT 15SM OVC065 01/M06 A3016 RMK SC8 SLP240

CYXE;2008-04-25 05:00;CYXE 250500Z 09006KT 15SM BKN065 OVC100 M00/M06 A3015 RMK SC6AC2 SLP237

CYXE;2008-04-25 06:00;CYXE 250600Z 11008KT 15SM OVC062 00/M07 A3014 RMK SC8 SLP233

CYXE;2008-04-25 07:00;CYXE 250700Z 12007KT 15SM FEW043 OVC054 00/M07 A3013 RMK SC2SC6 SLP230

CYXE;2008-04-25 08:00;CYXE 250800Z 12008KT 15SM OVC041 M00/M07 A3012 RMK SC8 SLP227

CYXE;2008-04-25 09:00;CYXE 250900Z 13009KT 15SM SCT040 OVC050 M01/M07 A3012 RMK SC3SC5 SLP224

CYXE;2008-04-25 10:00;CYXE 251000Z 12007KT 15SM OVC043 M01/M07 A3011 RMK SC8 SLP223

CYXE;2008-04-25 11:00;CYXE 251100Z 13010KT 15SM OVC041 M01/M07 A3010 RMK SC8 SLP220

CYXE;2008-04-25 12:00;CYXE 251200Z 12011KT 15SM BKN041 OVC060 M01/M07 A3008 RMK SC5SC3 SLP214

CYXE;2008-04-25 13:00;CYXE 251300Z 12012KT 15SM OVC059 M01/M07 A3008 RMK SC8 SLP211

CYXE;2008-04-25 14:00;CYXE 251400Z 12013KT 15SM OVC055 M00/M06 A3007 RMK SC8 SLP208

CYXE;2008-04-25 15:00;CYXE 251500Z 14010KT 15SM BKN043 OVC063 02/M06 A3004 RMK SC6SC2 SLP199

CYXE;2008-04-25 16:00;CYXE 251600Z 13010KT 15SM SCT047 OVC062 04/M04 A3001 RMK SC4SC3 SLP190

CYXE;2008-04-25 17:00;CYXE 251700Z 14010G17KT 15SM OVC040 05/M04 A3000 RMK SC8 SLP187

CYXE;2008-04-25 18:00;CYXE 251800Z 15019KT 15SM SCT025 OVC035 06/M04 A2998 RMK SC3SC5 SLP174

CYXE;2008-04-25 19:00;CYXE 251900Z 16019G27KT 15SM -RA BKN013 OVC035 05/M02 A2995 RMK SC5SC3 SLP166

CYXE;2008-04-25 20:00;CYXE 252000Z 22012G22KT 4SM -RA BR OVC013 03/02 A2995 RMK SC8 SLP166

CYXE;2008-04-25 20:30;CYXE 252030Z 19013KT 4SM -RA BR SCT007 OVC013 03/ RMK SF3SC5

CYXE;2008-04-25 21:00;CYXE 252100Z 19012KT 4SM -RA BR BKN008 OVC013 03/02 A2995 RMK SF5SC3 SLP169

CYXE;2008-04-25 21:20;CYXE 252120Z 19011KT 4SM -RA BR OVC007 02/ RMK ST8

CYXE;2008-04-25 22:00;CYXE 252200Z 18014KT 4SM RA BR OVC007 02/02 A2994 RMK ST8 SLP163

CYXE;2008-04-25 23:00;CYXE 252300Z CCA 19008KT 10SM -RA OVC008 03/03 A2993 RERA RMK ST8 SLP161

CYXE;2008-04-26 00:00;CYXE 260000Z 25006KT 10SM -RA OVC009 03/02 A2994 RMK ST7 BR SLP163

CYXE;2008-04-26 00:07;CYXE 260007Z 26006KT 15SM SCT008 OVC013 03/ RMK ST4SC3 BR

CYXE;2008-04-26 01:00;CYXE 260100Z 29011KT 15SM SCT007 OVC020 03/02 A2994 RMK ST3SC5 SLP165

CYXE;2008-04-26 01:09;CYXE 260109Z 32011KT 10SM BKN006 OVC020 02/ RMK ST5SC3 BR

CYXE;2008-04-26 01:35;CYXE 260135Z 32013KT 10SM OVC003 01/ RMK ST8 BR

CYXE;2008-04-26 02:00;CYXE 260200Z 32015KT 10SM OVC002 00/00 A2997 RMK ST8 BR SLP174

CYXE;2008-04-26 02:11;CYXE 260211Z 33018KT 8SM OVC003 00/ RMK ST8 BR

CYXE;2008-04-26 02:29;CYXE 260229Z 34018G24KT 8SM OVC005 00/ RMK ST8 BR

CYXE;2008-04-26 03:00;CYXE 260300Z 33018G25KT 15SM OVC007 M01/M01 A3000 RMK ST8 SLP187

CYXE;2008-04-26 04:00;CYXE 260400Z 34020G27KT 15SM -SN OVC009 M01/M02 A3003 RMK ST8 SLP194

CYXE;2008-04-26 04:43;CYXE 260443Z 34021G26KT 15SM OVC010 M01/ RMK ST8

CYXE;2008-04-26 05:00;CYXE 260500Z 34020KT 10SM BKN009 OVC015 M01/M02 A3004 RMK ST6SC2 BR SLP199

CYXE;2008-04-26 05:07;CYXE 260507Z 34020G25KT 8SM -SN BKN008 OVC020 M01/ RMK ST6SC2

CYXE;2008-04-26 05:44;CYXE 260544Z 34019G26KT 8SM -RASN SCT010 OVC025 M01/ RMK ST4SC4

CYXE;2008-04-26 06:00;CYXE 260600Z 34018G24KT 6SM -SN BKN009 OVC025 M01/M02 A3006 RMK ST6SC2 SLP204

CYXE;2008-04-26 06:12;CYXE 260612Z 34016G22KT 4SM -SN BKN008 OVC030 M01/ RMK SC6ST2

CYXE;2008-04-26 06:25;CYXE 260625Z 34019KT 3SM -SN -FZRA BKN008 OVC031 M01/ RMK ST7SC1

CYXE;2008-04-26 06:40;CYXE 260640Z CCA 34018KT 2SM -SN BKN007 OVC031 M01/ REFZRA RMK ST5SC3

CYXE;2008-04-26 07:00;CYXE 260700Z 34020KT 2SM R09/4500VP6000FT/D -SN BKN008 OVC031 M01/M02 A3008 RMK ST5SC3 SLP210

CYXE;2008-04-26 07:05;CYXE 260705Z 34018G24KT 1 1/2SM R09/3500VP6000FT/D -SN BKN008 OVC031 M01/ RMK ST5SC3

CYXE;2008-04-26 08:00;CYXE 260800Z 34015G20KT 1 1/2SM -SN BKN008 OVC030 M02/M02 A3010 RMK ST6SC2 /S01/ SLP217

CYXE;2008-04-26 08:14;CYXE 260814Z 34017KT 2 1/2SM -SN SCT008 OVC025 M02/ RMK ST3SC5

CYXE;2008-04-26 08:22;CYXE 260822Z 34015G21KT 4SM -SN SCT008 OVC025 M02/ RMK ST3SC5

CYXE;2008-04-26 08:53;CYXE 260853Z 35015KT 8SM -SN SCT010 OVC025 M02/ RMK ST3SC5

CYXE;2008-04-26 09:00;CYXE 260900Z 35015KT 12SM -SN SCT010 OVC025 M01/M02 A3012 RMK ST3SC5 /S02/ SLP226

CYXE;2008-04-26 09:36;CYXE 260936Z 35013KT 12SM -SN BKN009 OVC036 M02/ RMK ST6SC2

CYXE;2008-04-26 10:00;CYXE 261000Z 35013KT 15SM -SN BKN009 OVC020 M02/M03 A3014 RMK ST6SC2 SLP233

CYXE;2008-04-26 10:26;CYXE 261026Z 36011KT 15SM SCT009 OVC026 M03/ RMK ST3SC5

CYXE;2008-04-26 11:00;CYXE 261100Z 33008KT 15SM SCT009 BKN026 M03/M04 A3016 RMK ST3SC3 SLP240

CYXE;2008-04-26 11:13;CYXE 261113Z 35008KT 15SM BKN008 BKN026 M03/ RMK ST5SC2

CYXE;2008-04-26 12:00;CYXE 261200Z 31009KT 15SM BKN008 BKN026 M03/M04 A3020 RMK ST6SC1 SLP254

CYXE;2008-04-26 12:46;CYXE 261246Z 32010KT 15SM SCT013 OVC018 M04/ RMK ST4SC3

CYXE;2008-04-26 13:00;CYXE 261300Z 31014KT 15SM BKN013 OVC055 M05/M05 A3022 RMK ST5SC2 SLP263

CYXE;2008-04-26 14:00;CYXE 261400Z 31011KT 15SM OVC014 M04/M05 A3025 RMK SC8 SLP272

CYXE;2008-04-26 15:00;CYXE 261500Z 33012KT 15SM BKN009 OVC015 M03/M05 A3027 RMK SC6SC2 SLP280

CYXE;2008-04-26 15:21;CYXE 261521Z 33014KT 15SM SCT009 BKN014 M03/ RMK SC4SC2

CYXE;2008-04-26 15:38;CYXE 261538Z 33011KT 15SM FEW009 SCT014 M03/ RMK SC2SC2

CYXE;2008-04-26 16:00;CYXE 261600Z 34011KT 15SM FEW009 FEW014 M03/M04 A3028 RMK SC1SC2 SLP284

CYXE;2008-04-26 17:00;CYXE 261700Z 34006KT 15SM FEW008 M02/M04 A3029 RMK CF2 SLP286

CYXE;2008-04-26 18:00;CYXE 261800Z 32009KT 15SM FEW020 00/M05 A3028 RMK CF2 SLP281

CYXE;2008-04-26 19:00;CYXE 261900Z 33009G16KT 15SM SKC 01/M08 A3027 RMK SLP279

CYXE;2008-04-26 20:00;CYXE 262000Z 32009KT 15SM SKC 03/M08 A3026 RMK SLP276

CYXE;2008-04-26 21:00;CYXE 262100Z 32012KT 15SM SKC 04/M08 A3026 RMK SLP272

CYXE;2008-04-26 22:00;CYXE 262200Z 32011G17KT 15SM SKC 05/M08 A3024 RMK SLP268

CYXE;2008-04-26 23:00;CYXE 262300Z 32011KT 15SM SKC 05/M06 A3023 RMK SLP265

CYXE;2008-04-27 00:00;CYXE 270000Z 33011KT 15SM SKC 06/M08 A3023 RMK SLP263

CYXE;2008-04-27 01:00;CYXE 270100Z 29010KT 15SM SKC 05/M06 A3021 RMK SLP258

CYXE;2008-04-27 02:00;CYXE 270200Z 28004KT 15SM SKC 02/M04 A3021 RMK SLP256

CYXE;2008-04-27 03:00;CYXE 270300Z 29007KT 15SM SKC M00/M03 A3021 RMK SLP261

CYXE;2008-04-27 04:00;CYXE 270400Z 25005KT 10SM SKC M01/M03 A3020 RMK BR SLP257

CYXE;2008-04-27 05:00;CYXE 270500Z 28006KT 10SM SKC M02/M03 A3019 RMK BR SLP254

CYXE;2008-04-27 06:00;CYXE 270600Z 31007KT 15SM SKC M02/M03 A3020 RMK SLP254

CYXE;2008-04-27 07:00;CYXE 270700Z 31008KT 15SM SKC M02/M03 A3020 RMK SLP256

CYXE;2008-04-27 08:00;CYXE 270800Z 32008KT 12SM SKC M02/M03 A3020 RMK SLP255

CYXE;2008-04-27 09:00;CYXE 270900Z 31007KT 12SM SKC M02/M04 A3020 RMK SLP254

CYXE;2008-04-27 10:00;CYXE 271000Z 32007KT 12SM SKC M05/M05 A3020 RMK SLP254

CYXE;2008-04-27 11:00;CYXE 271100Z 32008KT 10SM SKC M05/M05 A3020 RMK SLP253

CYXE;2008-04-27 12:00;CYXE 271200Z 33007KT 10SM FEW280 M06/M06 A3022 RMK CI0 K SLP261

CYXE;2008-04-27 13:00;CYXE 271300Z 34006KT 10SM FEW280 M03/M04 A3023 RMK CI0 K SLP264

CYXE;2008-04-27 14:00;CYXE 271400Z 36005KT 10SM FEW280 00/M04 A3023 RMK CI0 K SLP264

CYXE;2008-04-27 15:00;CYXE 271500Z 02009KT 15SM FEW280 03/M05 A3024 RMK CI0 SLP267

CYXE;2008-04-27 16:00;CYXE 271600Z 01010KT 15SM SCT280 04/M08 A3024 RMK CI0 SLP266

CYXE;2008-04-27 17:00;CYXE 271700Z 02011KT 15SM SCT280 06/M09 A3023 RMK CI1 SLP265

CYXE;2008-04-27 18:00;CYXE 271800Z 03006KT 15SM SCT280 06/M09 A3022 RMK CI1 SLP261

CYXE;2008-04-27 19:00;CYXE 271900Z 04006KT 15SM SCT280 07/M09 A3022 RMK CI1 SLP260

CYXE;2008-04-27 20:00;CYXE 272000Z 36006G16KT 15SM SCT280 07/M10 A3021 RMK CI1 SLP258

CYXE;2008-04-27 21:00;CYXE 272100Z 05007KT 15SM SCT280 09/M11 A3020 RMK CI1 SLP251

CYXE;2008-04-27 22:00;CYXE 272200Z 05005KT 15SM FEW280 08/M11 A3019 RMK CI1 SLP249

CYXE;2008-04-27 23:00;CYXE 272300Z 36005KT 15SM FEW280 08/M12 A3018 RMK CI0 SLP245

CYXE;2008-04-28 00:00;CYXE 280000Z 05008KT 15SM SCT280 08/M11 A3016 RMK CI0 SLP240

CYXE;2008-04-28 01:00;CYXE 280100Z 03004KT 15SM BKN280 07/M13 A3017 RMK CI2 SLP241

CYXE;2008-04-28 02:00;CYXE 280200Z 03004KT 15SM OVC280 04/M09 A3015 RMK CI2 SLP235

CYXE;2008-04-28 02:21;CYXE 280221Z 03005KT 15SM OVC280 02/ RMK CI2

CYXE;2008-04-28 03:00;CYXE 280300Z 06006KT 15SM BKN280 01/M08 A3014 RMK CI2 SLP231

CYXE;2008-04-28 04:00;CYXE 280400Z 12002KT 15SM SCT280 M00/M07 A3013 RMK CI1 SLP229

CYXE;2008-04-28 05:00;CYXE 280500Z 13003KT 15SM SCT280 00/M06 A3012 RMK CI0 SLP224

CYXE;2008-04-28 06:00;CYXE 280600Z 14006KT 15SM FEW280 00/M07 A3010 RMK CI0 SLP218

CYXE;2008-04-28 07:00;CYXE 280700Z 14006KT 15SM SKC M01/M07 A3009 RMK SLP214

CYXE;2008-04-28 08:00;CYXE 280800Z 14006KT 15SM FEW280 M00/M06 A3007 RMK CI0 SLP207

CYXE;2008-04-28 09:00;CYXE 280900Z 17006KT 15SM SCT280 00/M06 A3006 RMK CI0 SLP202

CYXE;2008-04-28 10:00;CYXE 281000Z 15005KT 15SM SCT280 M00/M06 A3005 RMK CI0 SLP197

CYXE;2008-04-28 11:00;CYXE 281100Z 18004KT 15SM OVC280 00/M06 A3003 RMK CI6 SLP193

CYXE;2008-04-28 12:00;CYXE 281200Z 15005KT 15SM SCT140 OVC280 00/M06 A3002 RMK AC3CI3 SLP188

CYXE;2008-04-28 13:00;CYXE 281300Z 15007KT 15SM BKN099 BKN280 02/M07 A3000 RMK AC5CI2 SLP182

CYXE;2008-04-28 14:00;CYXE 281400Z 12005KT 15SM SCT100 BKN280 04/M06 A2999 RMK AC3CI1 SLP177

CYXE;2008-04-28 15:00;CYXE 281500Z 14008KT 15SM SCT100 OVC280 07/M06 A2996 RMK AC3CI3 SLP167

CYXE;2008-04-28 16:00;CYXE 281600Z 13010KT 15SM BKN080 BKN280 07/M05 A2994 RMK AC6CI1 SLP162

CYXE;2008-04-28 17:00;CYXE 281700Z 12011KT 15SM BKN100 BKN280 09/M04 A2992 RMK AC6CI1 SLP155

CYXE;2008-04-28 18:00;CYXE 281800Z 12012KT 15SM SCT110 OVC280 11/M05 A2990 RMK AC2CI6 SLP146

CYXE;2008-04-28 19:00;CYXE 281900Z 12014KT 15SM SCT110 OVC280 12/M06 A2988 RMK AS3CI4 SLP138

CYXE;2008-04-28 20:00;CYXE 282000Z 11015KT 15SM FEW110 OVC280 15/M06 A2986 RMK AS2CI4 SLP132

CYXE;2008-04-28 21:00;CYXE 282100Z 12013G18KT 15SM SCT110 OVC280 15/M07 A2985 RMK AC3CI4 SLP124

CYXE;2008-04-28 22:00;CYXE 282200Z 13013G19KT 15SM FEW110 BKN280 16/M08 A2982 RMK AC2CI2 SLP117

CYXE;2008-04-28 23:00;CYXE 282300Z 12013KT 15SM BKN280 16/M07 A2980 RMK CI2 SLP110

CYXE;2008-04-29 00:00;CYXE 290000Z 12013KT 15SM BKN280 16/M07 A2978 RMK CI3 SLP102

CYXE;2008-04-29 01:00;CYXE 290100Z 12010G15KT 15SM BKN250 15/M08 A2977 RMK CI6 CC ASOCTD SLP097

CYXE;2008-04-29 02:00;CYXE 290200Z 10014KT 15SM SCT250 13/M06 A2977 RMK CI2 SLP097

CYXE;2008-04-29 03:00;CYXE 290300Z 09010KT 15SM SKC 08/M04 A2977 RMK SLP096

CYXE;2008-04-29 04:00;CYXE 290400Z 08009KT 15SM SKC 05/M03 A2976 RMK SLP095

CYXE;2008-04-29 05:00;CYXE 290500Z 10008KT 15SM SKC 05/M04 A2975 RMK SLP092

CYXE;2008-04-29 06:00;CYXE 290600Z 12009KT 15SM SKC 07/M05 A2975 RMK SLP088

CYXE;2008-04-29 07:00;CYXE 290700Z 13012KT 15SM SKC 07/M05 A2973 RMK SLP083

CYXE;2008-04-29 08:00;CYXE 290800Z 14013KT 15SM SKC 07/M05 A2972 RMK SLP079

CYXE;2008-04-29 09:00;CYXE 290900Z 14011KT 15SM SKC 06/M05 A2970 RMK SLP072

CYXE;2008-04-29 10:00;CYXE 291000Z 14009KT 15SM SKC 05/M05 A2971 RMK SLP075

CYXE;2008-04-29 11:00;CYXE 291100Z 13006KT 15SM SKC 03/M05 A2972 RMK SLP077

CYXE;2008-04-29 12:00;CYXE 291200Z 11007KT 15SM FEW280 02/M04 A2971 RMK CI0 SLP077

CYXE;2008-04-29 13:00;CYXE 291300Z 10007KT 15SM SCT280 04/M04 A2970 RMK CI0 SLP074

CYXE;2008-04-29 14:00;CYXE 291400Z 14008KT 15SM BKN280 06/M04 A2970 RMK CI0 SLP073

CYXE;2008-04-29 15:00;CYXE 291500Z 12012KT 15SM BKN280 08/M03 A2968 RMK CI1 SLP067

CYXE;2008-04-29 16:00;CYXE 291600Z 12010G15KT 15SM FEW160 BKN280 10/M03 A2968 RMK AC1CI0 SLP065

CYXE;2008-04-29 17:00;CYXE 291700Z 12012G20KT 15SM FEW160 BKN280 13/M02 A2965 RMK AC1CI0 SLP057

CYXE;2008-04-29 18:00;CYXE 291800Z 12016KT 15SM FEW160 BKN280 15/M02 A2963 RMK AC1CI0 SLP048

CYXE;2008-04-29 19:00;CYXE 291900Z 13017KT 15SM SCT280 17/M02 A2962 RMK CI2 SLP042

CYXE;2008-04-29 20:00;CYXE 292000Z 13015KT 15SM FEW280 18/M01 A2959 RMK CI1 SLP033

CYXE;2008-04-29 21:00;CYXE 292100Z 11013G18KT 15SM FEW280 20/M02 A2957 RMK CI1 SLP023

CYXE;2008-04-29 22:00;CYXE 292200Z 12014KT 15SM FEW280 21/M01 A2955 RMK CI0 SLP015

CYXE;2008-04-29 23:00;CYXE 292300Z 13013G18KT 15SM SCT280 21/M01 A2954 RMK CI0 SLP012

CYXE;2008-04-30 00:00;CYXE 300000Z 11015KT 15SM FEW280 20/M01 A2953 RMK CI1 SLP010

CYXE;2008-04-30 01:00;CYXE 300100Z 10018G24KT 15SM FEW280 19/M00 A2952 RMK CI1 SLP007

CYXE;2008-04-30 02:00;CYXE 300200Z 09014G21KT 15SM BKN280 16/00 A2952 RMK CI1 SLP009

CYXE;2008-04-30 03:00;CYXE 300300Z 10017KT 15SM BKN280 14/01 A2953 RMK CI1 SLP013

CYXE;2008-04-30 04:00;CYXE 300400Z 11017G24KT 15SM SCT280 13/00 A2954 RMK CI0 SLP014

CYXE;2008-04-30 05:00;CYXE 300500Z 12020G26KT 15SM SCT280 11/M00 A2954 RMK CI0 SLP015

CYXE;2008-04-30 06:00;CYXE 300600Z 11016G21KT 15SM SCT280 10/M01 A2954 RMK CI0 SLP014

CYXE;2008-04-30 07:00;CYXE 300700Z 12015G21KT 15SM SCT280 09/M01 A2953 RMK CI0 SLP011

CYXE;2008-04-30 08:00;CYXE 300800Z 10016G22KT 15SM SCT250 08/M01 A2951 RMK CI0 SLP005

CYXE;2008-04-30 09:00;CYXE 300900Z 10015KT 15SM FEW090 FEW250 07/M01 A2953 RMK AC1CI0 SLP007

CYXE;2008-04-30 10:00;CYXE 301000Z 12015G20KT 15SM BKN110 BKN250 07/M01 A2953 RMK AC5CI0 SLP007

CYXE;2008-04-30 11:00;CYXE 301100Z 12012G17KT 15SM BKN087 06/M01 A2955 RMK AC6 SLP013

CYXE;2008-04-30 12:00;CYXE 301200Z 09018KT 15SM OVC095 05/M01 A2953 RMK AC8 OBS TAKEN +06 SLP009

CYXE;2008-04-30 13:00;CYXE 301300Z 10016G24KT 15SM SCT060 OVC095 06/M01 A2955 RMK SC3AC5 SLP017

CYXE;2008-04-30 13:20;CYXE 301320Z 11017KT 15SM -SHRA SCT060 OVC095 06/ RMK SC3AC5

CYXE;2008-04-30 14:00;CYXE 301400Z 10018KT 15SM VCSH FEW030 SCT060 OVC095 06/M01 A2955 RMK SC2SC2AC4 SH SW SLP017

CYXE;2008-04-30 15:00;CYXE 301500Z 10016KT 15SM VCSH FEW035 BKN060 OVC085 07/00 A2957 RMK SC2SC4AC2 SLP025

CYXE;2008-04-30 15:51;CYXE 301551Z 12011G18KT 15SM -SHRA FEW050 BKN065 OVC080 08/ RMK SC2SC3AC2

CYXE;2008-04-30 16:00;CYXE 301600Z 14011G17KT 15SM -SHRA SCT030 OVC060 08/02 A2959 RMK SC4SC4 CVCTV CLD EMBD SLP031

CYXE;2008-04-30 17:00;CYXE 301700Z 14018G24KT 15SM -SHRA BKN040 OVC080 09/01 A2959 RMK SC6AC2 CVCTV CLD EMBD SLP031

CYXE;2008-04-30 18:00;CYXE 301800Z 13008KT 12SM -SHRA BKN025 OVC075 08/04 A2960 RMK SC6AC2 CVCTV CLD EMBD SLP037

CYXE;2008-04-30 19:00;CYXE 301900Z 12015G21KT 15SM VCSH FEW040 BKN060 OVC100 12/03 A2960 RMK SC2SC5AC2 SLP037

CYXE;2008-04-30 20:00;CYXE 302000Z 12015G22KT 15SM BKN060 OVC100 12/02 A2961 RMK SC6AC2 SLP042

CYXE;2008-04-30 21:00;CYXE 302100Z 12009G17KT 15SM -SHRA OVC060 12/01 A2964 RMK SC8 ACC EMBD SLP050

CYXE;2008-04-30 22:00;CYXE 302200Z 13013G19KT 10SM -SHRA BKN035 OVC090 11/04 A2966 RMK SC7ACC1 SLP057

CYXE;2008-04-30 23:00;CYXE 302300Z 15008KT 10SM -RA FEW025 OVC045 10/07 A2969 RMK SC2SC6 SLP067

CYXE;2008-05-01 01:00;CYXE 010100Z 15009KT 15SM VCSH OVC053 09/06 A2973 RMK SC8 SLP083

CYXE;2008-05-01 01:16;CYXE 010116Z 15012G17KT 15SM -SHRA OVC053 09/ RMK SC8 ACC EMBD

CYXE;2008-05-01 02:00;CYXE 010200Z 16011KT 15SM -SHRA OVC035 08/06 A2975 RMK SC8 ACC EMBD SLP090

CYXE;2008-05-01 03:00;CYXE 010300Z 10007KT 15SM -SHRA OVC045 08/06 A2978 RMK SC8 ACC EMBD SLP103

CYXE;2008-05-01 04:00;CYXE 010400Z 12007KT 15SM -SHRA OVC050 08/05 A2981 RMK SC8 ACC EMBD SLP112

CYXE;2008-05-01 05:00;CYXE 010500Z 09009KT 15SM -SHRA OVC040 06/02 A2983 RMK SC8 ACC EMBD SLP119

CYXE;2008-05-01 06:00;CYXE 010600Z 07009KT 15SM -RA OVC038 06/02 A2985 RMK SC8 SLP126

CYXE;2008-05-01 06:27;CYXE 010627Z 07007KT 15SM BKN043 OVC060 05/ RMK SC6SC2

CYXE;2008-05-01 07:00;CYXE 010700Z 08007KT 15SM OVC043 05/01 A2987 RMK SC8 SLP134

CYXE;2008-05-01 08:00;CYXE 010800Z 07008KT 15SM BKN045 OVC083 04/00 A2989 RMK SC6AC2 SLP138

CYXE;2008-05-01 09:00;CYXE 010900Z 07009KT 15SM -RA OVC040 04/M01 A2991 RMK SC8 SLP144

CYXE;2008-05-01 10:00;CYXE 011000Z 07010KT 15SM -RA OVC040 03/M01 A2993 RMK SC8 SLP150

CYXE;2008-05-01 11:00;CYXE 011100Z 07011KT 15SM -RA BKN040 OVC080 03/M01 A2995 RMK SC6AC2 SLP157

CYXE;2008-05-01 11:15;CYXE 011115Z 07012KT 15SM -RA BKN038 OVC080 02/ RMK SC6AC2

CYXE;2008-05-01 12:00;CYXE 011200Z 07011KT 15SM -RA OVC042 02/M02 A2997 RMK SC8 OBS TAKEN +10 SLP168

CYXE;2008-05-01 12:52;CYXE 011252Z 06009KT 15SM BKN047 OVC080 02/ RMK SC6AC2

CYXE;2008-05-01 13:00;CYXE 011300Z 06008KT 15SM BKN047 OVC080 02/M02 A2997 RMK SC6AC2 SLP169

CYXE;2008-05-01 14:00;CYXE 011400Z 07014KT 15SM BKN036 OVC057 03/M03 A3000 RMK SC6SC2 SLP179

CYXE;2008-05-01 15:00;CYXE 011500Z 07011KT 15SM BKN040 OVC052 04/M04 A3002 RMK SC6SC2 OBS TAKEN +15 SLP186

CYXE;2008-05-01 16:00;CYXE 011600Z 06012KT 15SM SCT045 OVC066 05/M03 A3003 RMK SC3SC5 SLP188

CYXE;2008-05-01 17:00;CYXE 011700Z 09012KT 15SM FEW040 SCT070 OVC250 09/M04 A3004 RMK SC2AC2CI0 OBS TAKEN +07 SLP193

CYXE;2008-05-01 18:00;CYXE 011800Z 10010KT 15SM FEW070 BKN250 10/M05 A3005 RMK AC2CI0 SLP192

CYXE;2008-05-01 19:00;CYXE 011900Z 09013KT 15SM FEW070 BKN250 12/M05 A3005 RMK AC2CI1 SLP194

CYXE;2008-05-01 20:00;CYXE 012000Z 10010G16KT 15SM BKN250 13/M06 A3006 RMK CI2 SLP196

CYXE;2008-05-01 21:00;CYXE 012100Z 08012G18KT 15SM BKN250 13/M07 A3007 RMK CI2 SLP199

CYXE;2008-05-01 22:00;CYXE 012200Z 05012G18KT 15SM BKN250 13/M07 A3008 RMK CI2 SLP201

CYXE;2008-05-01 23:00;CYXE 012300Z 05013G19KT 15SM BKN250 12/M07 A3008 RMK CI2 SLP203

CYXE;2008-05-02 00:00;CYXE 020000Z 05017KT 15SM BKN250 12/M09 A3010 RMK CI1 SLP211

CYXE;2008-05-02 01:00;CYXE 020100Z 05014KT 15SM BKN250 10/M09 A3011 RMK CI1 SLP216

CYXE;2008-05-02 02:00;CYXE 020200Z 06012KT 15SM BKN250 08/M09 A3013 RMK CI1 SLP221

CYXE;2008-05-02 03:00;CYXE 020300Z 07009KT 15SM SCT250 05/M06 A3014 RMK CI0 SLP229

CYXE;2008-05-02 03:43;CYXE 020343Z 06008KT 15SM SCT250 02/ RMK CI0

CYXE;2008-05-02 04:00;CYXE 020400Z 06008KT 15SM SCT250 01/M07 A3016 RMK CI0 SLP236

CYXE;2008-05-02 05:00;CYXE 020500Z 06007KT 15SM SCT250 00/M07 A3018 RMK CI0 SLP241

CYXE;2008-05-02 06:00;CYXE 020600Z 07007KT 15SM SKC M01/M07 A3020 RMK SLP248

CYXE;2008-05-02 07:00;CYXE 020700Z 07005KT 15SM FEW020 M01/M06 A3021 RMK SC2 SLP251

CYXE;2008-05-02 08:00;CYXE 020800Z 06006KT 15SM BKN022 M03/M07 A3021 RMK SC0 SLP253

CYXE;2008-05-02 09:00;CYXE 020900Z 04004KT 15SM SKC M03/M07 A3022 RMK SLP255

CYXE;2008-05-02 10:00;CYXE 021000Z 03003KT 15SM SKC M04/M07 A3023 RMK SLP258

CYXE;2008-05-02 11:00;CYXE 021100Z 01003KT 15SM FEW250 M04/M06 A3025 RMK CI0 SLP265

CYXE;2008-05-02 12:00;CYXE 021200Z 00000KT 15SM BKN250 M04/M05 A3025 RMK CI0 OBS TAKEN -10 SLP268

CYXE;2008-05-02 13:00;CYXE 021300Z 00000KT 15SM BKN250 M01/M04 A3025 RMK CI0 SLP268

CYXE;2008-05-02 14:00;CYXE 021400Z 03002KT 15SM FEW280 03/M04 A3026 RMK CI0 SLP270

CYXE;2008-05-02 15:00;CYXE 021500Z 33004KT 15SM SCT280 06/M06 A3026 RMK CI1 SLP268

CYXE;2008-05-02 16:00;CYXE 021600Z 32004KT 15SM BKN280 08/M07 A3026 RMK CI1 SLP270

CYXE;2008-05-02 17:00;CYXE 021700Z 35006KT 15SM SCT280 09/M08 A3026 RMK CI1 SLP267

CYXE;2008-05-02 18:00;CYXE 021800Z 01006KT 15SM SCT280 11/M08 A3024 RMK CI1 SLP263

CYXE;2008-05-02 19:00;CYXE 021900Z 02005KT 15SM SCT280 11/M09 A3021 RMK CI0 SLP254

CYXE;2008-05-02 20:00;CYXE 022000Z 36010KT 15SM SCT280 12/M09 A3020 RMK CI0 SLP249

CYXE;2008-05-02 21:00;CYXE 022100Z 03005KT 15SM BKN280 13/M08 A3018 RMK CI0 SLP242

CYXE;2008-05-02 22:00;CYXE 022200Z 30006KT 15SM BKN280 14/M07 A3016 RMK CI0 SLP234

CYXE;2008-05-02 23:00;CYXE 022300Z 33007KT 15SM FEW280 14/M07 A3013 RMK CI0 SLP226

CYXE;2008-05-03 00:00;CYXE 030000Z 32008KT 15SM FEW280 14/M08 A3012 RMK CI0 SLP221

CYXE;2008-05-03 01:00;CYXE 030100Z 31006KT 15SM SCT280 13/M06 A3010 RMK CI0 SLP214

CYXE;2008-05-03 02:00;CYXE 030200Z 31002KT 15SM SCT280 12/M05 A3008 RMK CI1 SLP208

CYXE;2008-05-03 03:00;CYXE 030300Z 25003KT 15SM FEW280 09/01 A3007 RMK CI0 SLP201

CYXE;2008-05-03 04:00;CYXE 030400Z 25004KT 15SM FEW280 06/01 A3006 RMK CI0 SLP198

CYXE;2008-05-03 05:00;CYXE 030500Z 26006KT 15SM SKC 04/M01 A3005 RMK SLP194

CYXE;2008-05-03 06:00;CYXE 030600Z 27006KT 15SM SKC 03/M01 A3003 RMK SLP189

CYXE;2008-05-03 07:00;CYXE 030700Z 32005KT 15SM SKC 01/M03 A3003 RMK SLP188

CYXE;2008-05-03 08:00;CYXE 030800Z 32009KT 15SM SKC 02/M03 A3001 RMK SLP182

CYXE;2008-05-03 09:00;CYXE 030900Z 35008KT 15SM SKC M00/M04 A2999 RMK SLP177

CYXE;2008-05-03 10:00;CYXE 031000Z 32005KT 15SM FEW120 00/M03 A2998 RMK AC1 SLP172

CYXE;2008-05-03 11:00;CYXE 031100Z 31006KT 15SM FEW120 M02/M04 A2997 RMK AC1 SLP170

CYXE;2008-05-03 12:00;CYXE 031200Z 31003KT 15SM FEW120 M03/M04 A2997 RMK AC1 SLP168

CYXE;2008-05-03 13:00;CYXE 031300Z 30003KT 15SM FEW120 FEW250 01/M02 A2996 RMK AC1CI0 SLP167

CYXE;2008-05-03 14:00;CYXE 031400Z 04003KT 15SM FEW120 FEW250 04/M03 A2997 RMK AC1CI0 SLP168

CYXE;2008-05-03 15:00;CYXE 031500Z 05004KT 15SM FEW120 FEW250 09/M05 A2996 RMK AC1CI0 SLP161

CYXE;2008-05-03 16:00;CYXE 031600Z 07004KT 15SM FEW050 FEW120 11/M05 A2995 RMK CU1AC2 SLP158

CYXE;2008-05-03 17:00;CYXE 031700Z 34003KT 15SM FEW060 FEW150 13/M08 A2993 RMK CU1AC1 SLP153

CYXE;2008-05-03 18:00;CYXE 031800Z 05004KT 15SM FEW060 SCT140 14/M07 A2991 RMK CU1AC1 SLP147

CYXE;2008-05-03 19:00;CYXE 031900Z 34008G17KT 15SM FEW060 SCT150 15/M07 A2990 RMK CU1AC2 SLP141

CYXE;2008-05-03 20:00;CYXE 032000Z 05004KT 15SM FEW060 FEW150 14/M07 A2988 RMK CU1AC1 SLP135

CYXE;2008-05-03 21:00;CYXE 032100Z 34012G18KT 15SM FEW070 16/M06 A2986 RMK CU1 SLP129

CYXE;2008-05-03 22:00;CYXE 032200Z 34007KT 15SM FEW070 17/M05 A2984 RMK CU2 SLP122

CYXE;2008-05-03 23:00;CYXE 032300Z 33011KT 15SM FEW070 17/M05 A2983 RMK CU2 SLP118

CYXE;2008-05-04 00:00;CYXE 040000Z 35008G15KT 15SM FEW090 FEW350 15/M06 A2983 RMK CU2CC0 SLP120

CYXE;2008-05-04 01:00;CYXE 040100Z 01007KT 15SM FEW090 16/M06 A2982 RMK CU1 SLP118

CYXE;2008-05-04 02:00;CYXE 040200Z 04005KT 15SM FEW100 12/M04 A2983 RMK AC1 SLP119

CYXE;2008-05-04 03:00;CYXE 040300Z 01007KT 15SM SCT100 07/M03 A2984 RMK AC1 SLP122

CYXE;2008-05-04 04:00;CYXE 040400Z 01005KT 15SM FEW092 05/M02 A2985 RMK AC1 SLP123

CYXE;2008-05-04 05:00;CYXE 040500Z 31002KT 15SM FEW092 04/M01 A2985 RMK AC1 SLP123

CYXE;2008-05-04 06:00;CYXE 040600Z 27004KT 15SM FEW092 05/02 A2985 RMK AC0 SLP123

CYXE;2008-05-04 07:00;CYXE 040700Z 32007KT 15SM SKC 02/M01 A2986 RMK SLP126

CYXE;2008-05-04 08:00;CYXE 040800Z 30006KT 15SM SKC 02/M02 A2986 RMK SLP125

CYXE;2008-05-04 09:00;CYXE 040900Z 32007KT 15SM FEW100 02/M02 A2984 RMK AC2 SLP121

CYXE;2008-05-04 10:00;CYXE 041000Z 31007KT 15SM FEW100 01/M02 A2985 RMK AC1 SLP122

CYXE;2008-05-04 11:00;CYXE 041100Z 06008KT 15SM FEW100 M00/M02 A2986 RMK AC1 SLP126

CYXE;2008-05-04 12:00;CYXE 041200Z 05006KT 15SM FEW090 M01/M03 A2987 RMK AC0 SLP134

CYXE;2008-05-04 13:00;CYXE 041300Z 05007KT 15SM FEW090 01/M02 A2989 RMK AC0 SLP140

CYXE;2008-05-04 14:00;CYXE 041400Z 07008KT 15SM FEW100 03/M02 A2990 RMK AC1 SLP143

CYXE;2008-05-04 15:00;CYXE 041500Z 07008KT 15SM SCT110 05/M02 A2991 RMK AC2 SLP146

CYXE;2008-05-04 16:00;CYXE 041600Z 10007KT 15SM BKN090 08/M02 A2991 RMK AC6 SLP147

CYXE;2008-05-04 17:00;CYXE 041700Z 08009KT 15SM SCT090 10/M02 A2991 RMK AC3 SLP146

CYXE;2008-05-04 18:00;CYXE 041800Z 11005KT 15SM BKN090 12/M02 A2991 RMK AC5 SLP144

CYXE;2008-05-04 19:00;CYXE 041900Z 08004KT 15SM FEW095 BKN220 13/M02 A2990 RMK AC1CI2 SLP141

CYXE;2008-05-04 20:00;CYXE 042000Z 08005KT 15SM FEW092 BKN220 14/M02 A2989 RMK AC2CI2 SLP139

CYXE;2008-05-04 21:00;CYXE 042100Z 05004KT 15SM FEW093 BKN220 15/M01 A2988 RMK AC2CI2 SLP135

CYXE;2008-05-04 22:00;CYXE 042200Z 05005KT 15SM SCT096 OVC260 16/M02 A2987 RMK AC3CI1 SLP132

CYXE;2008-05-04 23:00;CYXE 042300Z 07007KT 15SM SCT100 BKN260 15/M02 A2987 RMK AC2CI1 SLP132

CYXE;2008-05-05 00:00;CYXE 050000Z 08008KT 15SM SCT100 BKN260 14/M02 A2986 RMK AC2CI1 SLP131

CYXE;2008-05-05 01:00;CYXE 050100Z 13006KT 15SM FEW100 FEW260 14/M02 A2986 RMK AC2CI0 SLP132

CYXE;2008-05-05 02:00;CYXE 050200Z 09004KT 15SM BKN051 BKN100 12/M01 A2988 RMK SC6AC1 VIRGA SLP138

CYXE;2008-05-05 02:40;CYXE 050240Z 16004KT 15SM -RA BKN046 BKN095 11/ RMK SC6AC1

CYXE;2008-05-05 03:00;CYXE 050300Z 16007KT 15SM -RA BKN046 BKN095 11/M01 A2989 RMK SC5AC1 SLP137

CYXE;2008-05-05 03:05;CYXE 050305Z 15006KT 15SM SCT046 BKN095 11/ RMK SC4AC1

CYXE;2008-05-05 04:00;CYXE 050400Z 16005KT 15SM FEW046 SCT095 09/M01 A2989 RMK SC2AC1 SLP137

CYXE;2008-05-05 05:00;CYXE 050500Z 17007KT 15SM FEW046 FEW095 08/M02 A2989 RMK SC1AC1 SLP138

CYXE;2008-05-05 06:00;CYXE 050600Z 18004KT 15SM FEW046 SCT100 06/M02 A2988 RMK SC1AC1 SLP135

CYXE;2008-05-05 07:00;CYXE 050700Z 10003KT 15SM FEW059 SCT100 05/M02 A2989 RMK SC2AC1 SLP138

CYXE;2008-05-05 08:00;CYXE 050800Z 08004KT 15SM FEW059 03/M02 A2990 RMK SC1 SLP139

CYXE;2008-05-05 09:00;CYXE 050900Z 09003KT 15SM FEW059 02/M01 A2989 RMK SC2 SLP136

CYXE;2008-05-05 10:00;CYXE 051000Z 15005KT 15SM FEW059 SCT100 02/M01 A2988 RMK SC1AC1 SLP134

CYXE;2008-05-05 11:00;CYXE 051100Z 24005KT 15SM FEW055 BKN100 01/M01 A2989 RMK SC2AC0 SLP137

CYXE;2008-05-05 12:00;CYXE 051200Z 25004KT 15SM SCT055 BKN100 M00/M01 A2990 RMK SC3AC1 SLP143

CYXE;2008-05-05 13:00;CYXE 051300Z 29006KT 15SM FEW055 SCT100 BKN220 04/03 A2990 RMK SC1AC2CI0 SLP143

CYXE;2008-05-05 14:00;CYXE 051400Z 31009KT 15SM FEW080 SCT220 07/05 A2990 RMK AC2CI1 SLP145

CYXE;2008-05-05 15:00;CYXE 051500Z 30010KT 15SM FEW082 BKN220 11/05 A2990 RMK AC1CI2 SLP140

CYXE;2008-05-05 16:00;CYXE 051600Z 31015G20KT 15SM FEW030 BKN220 13/04 A2990 RMK CU1CI2 SLP138

CYXE;2008-05-05 17:00;CYXE 051700Z 34016G22KT 15SM FEW039 BKN220 14/04 A2989 RMK CU2CI2 SLP135

CYXE;2008-05-05 18:00;CYXE 051800Z 35014G20KT 15SM SCT050 BKN220 15/M00 A2989 RMK CU3CI1 SLP136

CYXE;2008-05-05 19:00;CYXE 051900Z 35013G19KT 15SM SCT060 BKN220 14/M01 A2989 RMK CU4CI0 SLP134

CYXE;2008-05-05 20:00;CYXE 052000Z CCA 31010KT 15SM BKN066 17/M00 A2988 RMK CU5 SLP133

CYXE;2008-05-05 21:00;CYXE 052100Z 01009KT 15SM BKN068 OVC220 17/M01 A2987 RMK CU5CI0 SLP129

CYXE;2008-05-05 22:00;CYXE 052200Z 32006G16KT 15SM SCT074 17/M03 A2985 RMK CU4 SLP124

CYXE;2008-05-05 23:00;CYXE 052300Z 30011KT 15SM BKN075 17/M02 A2984 RMK CU6 SLP121

CYXE;2008-05-06 00:00;CYXE 060000Z 32008KT 15SM BKN084 OVC270 17/M02 A2984 RMK CU5CI0 VIRGA SW SLP120

CYXE;2008-05-06 01:00;CYXE 060100Z 05008KT 15SM SCT082 BKN270 16/M01 A2983 RMK AC3CI0 VIRGA NW SLP119

CYXE;2008-05-06 02:00;CYXE 060200Z 05011KT 15SM FEW076 SCT270 13/M00 A2984 RMK AC2CI0 SLP122

CYXE;2008-05-06 03:00;CYXE 060300Z 07008KT 15SM FEW076 FEW270 09/01 A2985 RMK AC1CI0 SLP122

CYXE;2008-05-06 04:00;CYXE 060400Z 07006KT 15SM FEW076 07/00 A2986 RMK AC1 SLP125

CYXE;2008-05-06 05:00;CYXE 060500Z 10006KT 15SM SKC 06/00 A2986 RMK SLP125

CYXE;2008-05-06 06:00;CYXE 060600Z 14004KT 15SM SKC 07/01 A2986 RMK SLP123

CYXE;2008-05-06 07:00;CYXE 060700Z 15003KT 15SM SKC 06/00 A2986 RMK SLP123

CYXE;2008-05-06 08:00;CYXE 060800Z 09005KT 15SM FEW095 03/00 A2985 RMK AC2 SLP120

CYXE;2008-05-06 09:00;CYXE 060900Z 07005KT 15SM FEW090 03/00 A2984 RMK AC2 SLP119

CYXE;2008-05-06 09:12;CYXE 060912Z 07004KT 15SM FEW092 02/ RMK AC2

CYXE;2008-05-06 10:00;CYXE 061000Z 07006KT 15SM FEW092 03/00 A2984 RMK AC2 SLP119

CYXE;2008-05-06 10:39;CYXE 061039Z 06006KT 15SM BKN085 BKN250 02/ RMK AC5CI0

CYXE;2008-05-06 11:00;CYXE 061100Z 03007KT 15SM BKN075 OVC250 03/02 A2985 RMK AC6CI2 SLP121

CYXE;2008-05-06 12:00;CYXE 061200Z 07006KT 15SM BKN065 OVC250 04/03 A2985 RMK SC5CI2 SLP121

CYXE;2008-05-06 13:00;CYXE 061300Z 03008KT 15SM BKN070 BKN085 OVC250 05/03 A2986 RMK AC5AC1CI1 SLP125

CYXE;2008-05-06 14:00;CYXE 061400Z 06011KT 15SM SCT070 OVC270 09/03 A2987 RMK AC2CI1 SLP127

CYXE;2008-05-06 15:00;CYXE 061500Z 06011G16KT 15SM SCT080 BKN280 11/03 A2987 RMK AC2CI1 SLP131

CYXE;2008-05-06 16:00;CYXE 061600Z 06011G16KT 15SM BKN073 BKN280 12/02 A2987 RMK AC3CI1 SLP130

CYXE;2008-05-06 17:00;CYXE 061700Z 03008KT 15SM SCT069 BKN280 13/02 A2987 RMK AC4CI1 SLP131

CYXE;2008-05-06 18:00;CYXE 061800Z 03007KT 15SM FEW048 BKN069 BKN280 14/01 A2987 RMK CU2AC3CI1 SLP128

CYXE;2008-05-06 19:00;CYXE 061900Z 06006KT 15SM FEW048 BKN088 BKN280 15/01 A2986 RMK CU2AC3CI0 SLP127

CYXE;2008-05-06 20:00;CYXE 062000Z 10002KT 15SM FEW050 BKN088 14/00 A2986 RMK CU2AC3 SLP125

CYXE;2008-05-06 21:00;CYXE 062100Z 05010G15KT 15SM FEW060 BKN093 15/01 A2987 RMK CU2AC3 SLP132

CYXE;2008-05-06 22:00;CYXE 062200Z 01019KT 15SM SCT061 BKN091 12/02 A2988 RMK SC3AC4 SLP133

CYXE;2008-05-06 23:00;CYXE 062300Z 07006KT 15SM SCT061 BKN090 14/01 A2988 RMK SC4AC2 SLP134

CYXE;2008-05-07 00:00;CYXE 070000Z 03010G17KT 15SM SCT062 BKN085 14/M02 A2988 RMK SC4AC2 OBS TAKEN +12 SLP135

CYXE;2008-05-07 01:00;CYXE 070100Z 05007KT 15SM SCT062 BKN085 14/M02 A2988 RMK SC4AC2 SLP134

CYXE;2008-05-07 02:00;CYXE 070200Z 03010KT 15SM BKN071 13/M01 A2990 RMK AC5 SLP139

CYXE;2008-05-07 03:00;CYXE 070300Z 03006KT 15SM FEW070 SCT250 08/M01 A2991 RMK AC2CI0 SLP143

CYXE;2008-05-07 04:00;CYXE 070400Z 01008KT 15SM FEW085 04/M01 A2992 RMK AC2 SLP146

CYXE;2008-05-07 05:00;CYXE 070500Z 04008KT 15SM SCT077 BKN250 06/M02 A2993 RMK AC4CI0 SLP151

CYXE;2008-05-07 06:00;CYXE 070600Z 03008KT 15SM FEW080 FEW250 02/M02 A2995 RMK AC1CI1 SLP157

CYXE;2008-05-07 07:00;CYXE 070700Z 05009KT 15SM SKC 03/M02 A2996 RMK SLP161

CYXE;2008-05-07 08:00;CYXE 070800Z 07008KT 15SM SKC 02/M02 A2997 RMK SLP165

CYXE;2008-05-07 09:00;CYXE 070900Z 07009KT 15SM SKC 01/M02 A2998 RMK SLP170

CYXE;2008-05-07 10:00;CYXE 071000Z 08007KT 15SM FEW085 FEW250 M00/M03 A2999 RMK AC2CI0 SLP172

CYXE;2008-05-07 11:00;CYXE 071100Z 05007KT 15SM FEW085 FEW250 M01/M03 A2999 RMK AC2CI1 SLP173

CYXE;2008-05-07 12:00;CYXE 071200Z 06005KT 15SM FEW085 M02/M04 A3000 RMK AC1 SLP180

CYXE;2008-05-07 13:00;CYXE 071300Z 07007KT 15SM SKC 01/M03 A3002 RMK SLP184

CYXE;2008-05-07 14:00;CYXE 071400Z 08005KT 15SM FEW080 03/M03 A3003 RMK AC1 SLP187

CYXE;2008-05-07 15:00;CYXE 071500Z 08008KT 15SM FEW080 05/M03 A3002 RMK AC1 SLP186

CYXE;2008-05-07 16:00;CYXE 071600Z 06009KT 15SM FEW080 07/M03 A3002 RMK AC1 SLP185

CYXE;2008-05-07 17:00;CYXE 071700Z 08004KT 15SM FEW080 08/M03 A3001 RMK AC1 SLP182

CYXE;2008-05-07 18:00;CYXE 071800Z 07006KT 15SM SKC 09/M03 A3000 RMK SLP178

CYXE;2008-05-07 19:00;CYXE 071900Z 05005KT 15SM FEW052 FEW250 10/M03 A2998 RMK CF1CI0 SLP172

CYXE;2008-05-07 20:00;CYXE 072000Z 04007KT 15SM FEW095 FEW250 11/M03 A2997 RMK AC1CI0 SLP169

CYXE;2008-05-07 21:00;CYXE 072100Z 01009KT 15SM FEW250 12/M03 A2996 RMK CI0 SLP165

CYXE;2008-05-07 22:00;CYXE 072200Z 04006KT 15SM FEW060 FEW250 12/M04 A2995 RMK CU1CI0 SLP163

CYXE;2008-05-07 23:00;CYXE 072300Z 01006KT 15SM FEW250 12/M05 A2994 RMK CI0 SLP158

CYXE;2008-05-08 00:00;CYXE 080000Z 05008KT 15SM FEW250 12/M05 A2994 RMK CI0 SLP158

CYXE;2008-05-08 01:00;CYXE 080100Z 04007KT 15SM FEW250 11/M06 A2993 RMK CI0 SLP155

CYXE;2008-05-08 02:00;CYXE 080200Z 08005KT 15SM BKN250 09/M05 A2993 RMK CI1 SLP155

CYXE;2008-05-08 03:00;CYXE 080300Z 09004KT 15SM SCT250 08/M04 A2993 RMK CI1 SLP154

CYXE;2008-05-08 04:00;CYXE 080400Z 12005KT 15SM SCT250 06/M04 A2994 RMK CI1 SLP156

CYXE;2008-05-08 05:00;CYXE 080500Z 12005KT 15SM SKC 05/M04 A2993 RMK SLP153

CYXE;2008-05-08 06:00;CYXE 080600Z 09003KT 15SM SKC 04/M04 A2992 RMK SLP152

CYXE;2008-05-08 07:00;CYXE 080700Z 19004KT 15SM SKC 04/M03 A2992 RMK SLP151

CYXE;2008-05-08 08:00;CYXE 080800Z 07004KT 15SM SKC 00/M04 A2992 RMK SLP152

CYXE;2008-05-08 09:00;CYXE 080900Z 05005KT 15SM SKC M01/M03 A2993 RMK SLP154

CYXE;2008-05-08 10:00;CYXE 081000Z 06005KT 15SM SKC M02/M04 A2993 RMK SLP154

CYXE;2008-05-08 11:00;CYXE 081100Z 04006KT 15SM SCT280 M03/M04 A2993 RMK CI0 SLP156

CYXE;2008-05-08 12:00;CYXE 081200Z 05006KT 15SM FEW120 SCT280 M02/M03 A2994 RMK AC1CI0 SLP158

CYXE;2008-05-08 13:00;CYXE 081300Z 05004KT 15SM FEW120 SCT280 01/M01 A2994 RMK AC1CI0 SLP159

CYXE;2008-05-08 14:00;CYXE 081400Z 06007KT 15SM FEW120 BKN280 03/00 A2994 RMK AC2CI1 SLP160

CYXE;2008-05-08 15:00;CYXE 081500Z 08006KT 15SM SCT120 BKN280 07/M02 A2994 RMK AC3CI2 CONTRAILS SLP157

CYXE;2008-05-08 16:00;CYXE 081600Z 07007KT 15SM SCT120 BKN280 08/M01 A2993 RMK AC3CI2 SLP154

CYXE;2008-05-08 17:00;CYXE 081700Z 09008KT 15SM FEW045 SCT120 BKN280 10/M02 A2993 RMK CU1AC3CI2 SLP153

CYXE;2008-05-08 18:00;CYXE 081800Z 08008KT 15SM FEW055 BKN120 BKN280 11/M03 A2993 RMK CU2AC3CI2 SLP153

CYXE;2008-05-08 19:00;CYXE 081900Z 07009G15KT 15SM FEW060 BKN120 BKN280 11/M04 A2993 RMK CU2AC3CI1 SLP152

CYXE;2008-05-08 20:00;CYXE 082000Z 08008KT 15SM FEW059 BKN120 OVC280 12/M04 A2993 RMK CU2AC2CI2 SLP152

CYXE;2008-05-08 21:00;CYXE 082100Z 06011KT 15SM FEW064 BKN120 OVC280 12/M04 A2993 RMK SC1AC4CI1 SLP156

CYXE;2008-05-08 22:00;CYXE 082200Z 06010KT 15SM FEW065 SCT120 BKN280 12/M05 A2993 RMK SC1AC3CI1 SLP156

CYXE;2008-05-08 23:00;CYXE 082300Z 02011KT 15SM FEW065 SCT120 BKN280 11/M05 A2993 RMK SC1AC3CI0 SLP157

CYXE;2008-05-09 00:00;CYXE 090000Z 05008KT 15SM FEW065 SCT120 BKN280 11/M06 A2994 RMK SC1AC2CI0 SLP160

CYXE;2008-05-09 01:00;CYXE 090100Z 06010KT 15SM FEW065 BKN280 11/M06 A2995 RMK SC1CI2 SLP161

CYXE;2008-05-09 02:00;CYXE 090200Z 06011KT 15SM FEW120 SCT250 09/M05 A2995 RMK AC2CI1 SLP164

CYXE;2008-05-09 03:00;CYXE 090300Z 07009KT 15SM FEW120 FEW250 06/M05 A2997 RMK AC1CI0 SLP167

CYXE;2008-05-09 04:00;CYXE 090400Z 07009KT 15SM FEW120 FEW250 05/M04 A2998 RMK AC1CI0 SLP171

CYXE;2008-05-09 05:00;CYXE 090500Z 08011KT 15SM FEW120 04/M03 A2999 RMK AC1 SLP174

CYXE;2008-05-09 06:00;CYXE 090600Z 09011KT 15SM SKC 04/M03 A3000 RMK SLP177

CYXE;2008-05-09 07:00;CYXE 090700Z 09009KT 15SM SKC 02/M03 A3001 RMK SLP181

CYXE;2008-05-09 08:00;CYXE 090800Z 06008KT 15SM FEW270 M00/M03 A3003 RMK CI0 SLP186

CYXE;2008-05-09 09:00;CYXE 090900Z 05007KT 15SM FEW270 M01/M03 A3003 RMK CI0 SLP190

CYXE;2008-05-09 10:00;CYXE 091000Z 05008KT 15SM FEW100 SCT270 M01/M04 A3005 RMK AC2CI0 SLP195

CYXE;2008-05-09 11:00;CYXE 091100Z 06009KT 15SM SCT071 BKN270 M01/M03 A3005 RMK AC2CI2 SLP195

CYXE;2008-05-09 12:00;CYXE 091200Z 07009KT 15SM SCT064 BKN270 M02/M03 A3005 RMK SC2CI2 SLP197

CYXE;2008-05-09 13:00;CYXE 091300Z 07009KT 15SM SCT067 BKN270 01/M02 A3006 RMK AC3CI2 SLP199

CYXE;2008-05-09 14:00;CYXE 091400Z 07009KT 15SM FEW067 BKN270 03/M01 A3007 RMK AC2CI2 CONTRAILS SLP203

CYXE;2008-05-09 15:00;CYXE 091500Z 06009KT 15SM BKN065 BKN270 05/M01 A3008 RMK SC5CI1 SLP205

CYXE;2008-05-09 16:00;CYXE 091600Z 06011KT 15SM FEW055 BKN270 07/M05 A3008 RMK SC2CI2 SLP205

CYXE;2008-05-09 17:00;CYXE 091700Z 07013KT 15SM FEW052 SCT270 08/M05 A3008 RMK CU2CI1 SLP205

CYXE;2008-05-09 18:00;CYXE 091800Z 05010G17KT 15SM SCT054 BKN270 08/M06 A3008 RMK CU3CI1 SLP207

CYXE;2008-05-09 19:00;CYXE 091900Z 03012KT 15SM BKN050 BKN270 08/M05 A3007 RMK CU6CI1 SLP204

CYXE;2008-05-09 20:00;CYXE 092000Z 02010G17KT 15SM BKN050 BKN270 08/M06 A3007 RMK CU6CI0 SLP204

CYXE;2008-05-09 21:00;CYXE 092100Z 05009KT 15SM BKN056 09/M05 A3008 RMK CU6 SLP206

CYXE;2008-05-09 22:00;CYXE 092200Z 03013KT 15SM BKN058 10/M05 A3008 RMK CU6 SLP206

CYXE;2008-05-09 23:00;CYXE 092300Z 03009G16KT 15SM BKN058 08/M05 A3007 RMK CU6 SLP205

CYXE;2008-05-10 00:00;CYXE 100000Z 05012KT 15SM BKN058 08/M06 A3008 RMK CU6 SLP209

CYXE;2008-05-10 01:00;CYXE 100100Z 03009KT 15SM BKN058 08/M06 A3008 RMK CU5 SLP210

CYXE;2008-05-10 02:00;CYXE 100200Z 05008KT 15SM SCT060 06/M06 A3009 RMK CU2 SLP212

CYXE;2008-05-10 03:00;CYXE 100300Z 07003KT 15SM FEW060 04/M06 A3009 RMK CU1 SLP213

CYXE;2008-05-10 04:00;CYXE 100400Z 08002KT 15SM FEW060 03/M05 A3010 RMK CU1 SLP214

CYXE;2008-05-10 05:00;CYXE 100500Z 09004KT 15SM SKC 02/M04 A3011 RMK SLP217

CYXE;2008-05-10 06:00;CYXE 100600Z 18002KT 15SM SKC 01/M05 A3010 RMK SLP216

CYXE;2008-05-10 07:00;CYXE 100700Z 22003KT 15SM SKC 01/M04 A3011 RMK SLP219

CYXE;2008-05-10 08:00;CYXE 100800Z 00000KT 15SM SKC M02/M04 A3011 RMK SLP218

CYXE;2008-05-10 09:00;CYXE 100900Z 15002KT 15SM SKC M01/M04 A3011 RMK SLP218

CYXE;2008-05-10 10:00;CYXE 101000Z 18003KT 15SM FEW270 M01/M04 A3010 RMK CI1 SLP217

CYXE;2008-05-10 11:00;CYXE 101100Z 19003KT 15SM SCT270 M02/M05 A3010 RMK CI1 SLP217

CYXE;2008-05-10 12:00;CYXE 101200Z 20004KT 15SM SCT270 M03/M05 A3010 RMK CI1 SLP218

CYXE;2008-05-10 13:00;CYXE 101300Z 19004KT 15SM SCT270 M01/M04 A3010 RMK CI0 SLP217

CYXE;2008-05-10 14:00;CYXE 101400Z 22006KT 15SM FEW270 03/M03 A3009 RMK CI0 SLP214

CYXE;2008-05-10 15:00;CYXE 101500Z 24005KT 15SM FEW080 FEW270 07/M03 A3008 RMK AC1CI0 SLP206

CYXE;2008-05-10 16:00;CYXE 101600Z 18006KT 15SM FEW080 FEW270 09/M04 A3006 RMK AC1CI0 SLP200

CYXE;2008-05-10 17:00;CYXE 101700Z 15005KT 15SM FEW056 FEW080 FEW270 10/M04 A3004 RMK CU1ACC1CI1 SLP194

CYXE;2008-05-10 18:00;CYXE 101800Z 26005KT 15SM FEW064 SCT270 12/M04 A3002 RMK CU2CI0 OBS TAKEN +03 SLP184

CYXE;2008-05-10 19:00;CYXE 101900Z 22005KT 15SM SCT068 SCT270 14/M03 A2999 RMK CU3CI0 OBS TAKEN +01 SLP173

CYXE;2008-05-10 20:00;CYXE 102000Z 26005KT 15SM BKN070 BKN270 13/M04 A2996 RMK CU5CI0 OBS TAKEN +03 SLP165

CYXE;2008-05-10 21:00;CYXE 102100Z 29008KT 15SM BKN070 BKN270 15/M03 A2994 RMK CU5CI0 SLP157

CYXE;2008-05-10 22:00;CYXE 102200Z 27004KT 15SM BKN070 BKN270 15/M02 A2991 RMK CU5CI0 SLP149

CYXE;2008-05-10 23:00;CYXE 102300Z 23004KT 15SM BKN075 BKN250 14/M03 A2990 RMK AC6CI0 SLP145

CYXE;2008-05-11 00:00;CYXE 110000Z 19007KT 15SM BKN075 BKN250 14/M04 A2988 RMK AC5CI2 SLP139

CYXE;2008-05-11 01:00;CYXE 110100Z 13004KT 15SM BKN080 OVC250 14/M03 A2987 RMK AC5CI2 SLP135

CYXE;2008-05-11 02:00;CYXE 110200Z 13007KT 15SM FEW080 SCT120 OVC250 13/M03 A2985 RMK AC2AC2CI2 SLP127

CYXE;2008-05-11 03:00;CYXE 110300Z 13008KT 15SM SCT085 BKN250 10/M03 A2983 RMK AC3CI2 SLP118

CYXE;2008-05-11 04:00;CYXE 110400Z 13008KT 15SM FEW085 BKN250 10/M03 A2983 RMK AC2CI2 SLP116

CYXE;2008-05-11 05:00;CYXE 110500Z 14008KT 15SM FEW085 SCT250 09/M03 A2981 RMK AC2CI1 SLP110

CYXE;2008-05-11 06:00;CYXE 110600Z 15008KT 15SM FEW082 SCT260 10/M03 A2978 RMK AC2CI1 SLP097

CYXE;2008-05-11 07:00;CYXE 110700Z 15007KT 15SM BKN071 09/M03 A2976 RMK AC7 SLP091

CYXE;2008-05-11 08:00;CYXE 110800Z 14004KT 15SM FEW041 OVC069 08/M02 A2974 RMK SC2AC6 SLP084

CYXE;2008-05-11 08:45;CYXE 110845Z 11008KT 15SM -SHRA OVC041 08/ RMK SC8

CYXE;2008-05-11 09:00;CYXE 110900Z 16009KT 15SM -SHRA BKN041 OVC082 08/M01 A2973 RMK SC6AC2 SLP080

CYXE;2008-05-11 09:31;CYXE 110931Z 07006KT 15SM BKN041 OVC082 08/ RMK SC6AC2

CYXE;2008-05-11 10:00;CYXE 111000Z 05007KT 15SM OVC054 07/M01 A2973 RMK SC8 SLP079

CYXE;2008-05-11 11:00;CYXE 111100Z 13004KT 15SM VCSH BKN068 OVC100 07/01 A2972 RMK AC7AC1 SLP075

CYXE;2008-05-11 12:00;CYXE 111200Z 12008KT 15SM VCSH BKN068 OVC270 07/M00 A2970 RMK AC4CI2 SLP070

CYXE;2008-05-11 13:00;CYXE 111300Z 13007KT 15SM VCSH FEW068 SCT093 BKN270 08/00 A2969 RMK AC2AC2CI2 SLP068

CYXE;2008-05-11 14:00;CYXE 111400Z 14008KT 15SM SCT090 OVC270 09/01 A2968 RMK AC4CI1 VIRGA N SLP064

CYXE;2008-05-11 15:00;CYXE 111500Z 14009KT 15SM SCT090 OVC270 10/01 A2967 RMK AC4CS2 SLP059

CYXE;2008-05-11 16:00;CYXE 111600Z 12008KT 15SM SCT090 OVC270 12/01 A2965 RMK AC3CS2 SLP055

CYXE;2008-05-11 17:00;CYXE 111700Z 12011KT 15SM BKN095 OVC270 13/01 A2964 RMK AC5CI1 SLP052

CYXE;2008-05-11 18:00;CYXE 111800Z 11009KT 15SM SCT070 BKN090 OVC270 13/01 A2963 RMK AC3AS2CS1 SLP046

CYXE;2008-05-11 19:00;CYXE 111900Z 14008G15KT 15SM FEW055 SCT070 SCT090 OVC270 17/02 A2961 RMK CU1AC2AS1CS1 SLP040

CYXE;2008-05-11 20:00;CYXE 112000Z CCA 14011KT 15SM FEW060 SCT070 OVC270 17/02 A2959 RMK SC2AC2SC2 VIRGA SLP034

CYXE;2008-05-11 21:00;CYXE 112100Z 11015G20KT 15SM FEW056 SCT070 OVC270 16/02 A2960 RMK CU1AC2CS2 SLP034

CYXE;2008-05-11 22:00;CYXE 112200Z 12017G22KT 15SM FEW056 SCT070 OVC270 15/03 A2961 RMK CU1AC2CS2 SLP038

CYXE;2008-05-11 23:00;CYXE 112300Z 11017G22KT 15SM FEW056 SCT094 OVC270 14/02 A2962 RMK CU1AC3CS2 SLP042

CYXE;2008-05-12 00:00;CYXE 120000Z 11018KT 15SM FEW056 SCT090 OVC270 13/02 A2964 RMK CU1AC3CS2 SLP052

CYXE;2008-05-12 01:00;CYXE 120100Z 11016KT 15SM FEW090 BKN270 12/02 A2966 RMK AC2CS4 SLP056

CYXE;2008-05-12 02:00;CYXE 120200Z 09014KT 15SM FEW090 BKN270 11/03 A2967 RMK AC2CS3 SLP059

CYXE;2008-05-12 03:00;CYXE 120300Z 07009KT 15SM FEW090 BKN250 09/04 A2968 RMK AC2CS2 SLP065

CYXE;2008-05-12 04:00;CYXE 120400Z 06008KT 15SM FEW090 SCT250 07/03 A2970 RMK AC2CI1 SLP070

CYXE;2008-05-12 05:00;CYXE 120500Z 06009KT 15SM BKN075 BKN250 06/02 A2971 RMK AC5CI0 SLP074

CYXE;2008-05-12 06:00;CYXE 120600Z 04009KT 15SM BKN047 BKN065 05/03 A2971 RMK SC5SC2 SLP075

CYXE;2008-05-12 07:00;CYXE 120700Z 06011KT 15SM BKN062 BKN100 05/02 A2972 RMK SC5AC2 SLP078

CYXE;2008-05-12 08:00;CYXE 120800Z 04008KT 15SM FEW060 SCT250 03/01 A2972 RMK SC2CI0 SLP078

CYXE;2008-05-12 09:00;CYXE 120900Z 03006KT 15SM BKN070 01/01 A2973 RMK AC6 SLP083

CYXE;2008-05-12 10:00;CYXE 121000Z 04008KT 15SM SCT070 02/01 A2974 RMK AC4 SLP086

CYXE;2008-05-12 11:00;CYXE 121100Z 05008KT 15SM BKN070 BKN250 02/00 A2976 RMK AC5CI1 SLP091

CYXE;2008-05-12 12:00;CYXE 121200Z 06008KT 15SM SCT080 BKN250 02/00 A2977 RMK AC3CI0 SLP097

CYXE;2008-05-12 13:00;CYXE 121300Z 05007KT 15SM SCT080 BKN250 04/01 A2979 RMK AC3CI0 SLP103

CYXE;2008-05-12 14:00;CYXE 121400Z 09010KT 15SM FEW064 SCT080 07/M01 A2981 RMK SC1AC2 SLP111

CYXE;2008-05-12 15:00;CYXE 121500Z 09007KT 15SM FEW080 SCT250 09/00 A2982 RMK AC2CI0 SLP114

CYXE;2008-05-12 16:00;CYXE 121600Z 09010KT 15SM FEW042 BKN250 10/00 A2982 RMK SC2CI1 SLP114

CYXE;2008-05-12 17:00;CYXE 121700Z 05012KT 15SM FEW042 BKN250 13/M01 A2982 RMK SC1CI2 SLP113

CYXE;2008-05-12 18:00;CYXE 121800Z 06009G19KT 15SM FEW040 BKN250 14/M02 A2982 RMK CU1CI3 SLP113

CYXE;2008-05-12 19:00;CYXE 121900Z 07012G17KT 15SM FEW056 BKN250 15/M01 A2982 RMK CU2CI2 SLP113

CYXE;2008-05-12 20:00;CYXE 122000Z 06011KT 15SM FEW065 BKN250 15/M01 A2982 RMK CU2CI2 SLP113

CYXE;2008-05-12 21:00;CYXE 122100Z 07010KT 15SM SCT065 BKN100 BKN250 15/M01 A2983 RMK CU4AC1CI1 SLP119

CYXE;2008-05-12 22:00;CYXE 122200Z 06009KT 15SM BKN070 BKN090 BKN250 15/M02 A2984 RMK CU5AC1CI1 SLP120

CYXE;2008-05-12 23:00;CYXE 122300Z 03011KT 15SM BKN070 BKN090 BKN250 16/M02 A2984 RMK CU6AC1CI1 SLP122

CYXE;2008-05-13 00:00;CYXE 130000Z 04006KT 15SM FEW070 FEW100 SCT250 15/M03 A2986 RMK CU2AC1CI0 SLP126

CYXE;2008-05-13 01:00;CYXE 130100Z 03007KT 15SM FEW070 FEW250 15/M04 A2986 RMK CU1CI1 SLP126

CYXE;2008-05-13 02:00;CYXE 130200Z 03004KT 15SM FEW090 FEW250 12/M04 A2987 RMK AC1CI1 SLP130

CYXE;2008-05-13 03:00;CYXE 130300Z 36002KT 15SM FEW100 SCT250 10/M04 A2988 RMK AC2CI1 SLP133

CYXE;2008-05-13 04:00;CYXE 130400Z 32008KT 15SM SCT085 BKN250 09/01 A2989 RMK AC3CI2 SLP137

CYXE;2008-05-13 05:00;CYXE 130500Z 32005KT 15SM BKN090 BKN250 06/02 A2990 RMK AC5CI1 OBS TAKEN +14 SLP138

CYXE;2008-05-13 06:00;CYXE 130600Z 33008KT 15SM SCT090 03/01 A2989 RMK AC4 SLP138

CYXE;2008-05-13 07:00;CYXE 130700Z 31006KT 15SM FEW085 04/01 A2989 RMK AC2 SLP137

CYXE;2008-05-13 08:00;CYXE 130800Z 23007KT 15SM BKN085 02/M00 A2989 RMK AC6 SLP138

CYXE;2008-05-13 09:00;CYXE 130900Z 24006KT 15SM BKN077 02/01 A2989 RMK AC5 SLP136

CYXE;2008-05-13 10:00;CYXE 131000Z 26006KT 15SM FEW075 SCT250 02/00 A2989 RMK AC2CI0 SLP136

CYXE;2008-05-13 11:00;CYXE 131100Z 23007KT 15SM FEW070 FEW250 00/M00 A2988 RMK AC1CI0 SLP135

CYXE;2008-05-13 12:00;CYXE 131200Z 23005KT 15SM FEW070 FEW250 01/01 A2989 RMK AC1CI0 SLP139

CYXE;2008-05-13 13:00;CYXE 131300Z 22003KT 15SM FEW250 04/02 A2990 RMK CI0 SLP142

CYXE;2008-05-13 14:00;CYXE 131400Z 24005KT 15SM FEW250 07/03 A2989 RMK CI0 SLP138

CYXE;2008-05-13 15:00;CYXE 131500Z 24003KT 15SM FEW250 11/03 A2987 RMK CI1 OBS TAKEN +04 SLP129

CYXE;2008-05-13 16:00;CYXE 131600Z 20003KT 15SM FEW040 SCT250 13/02 A2986 RMK CU1CI2 SLP124

CYXE;2008-05-13 17:00;CYXE 131700Z 22007KT 15SM FEW055 BKN250 14/01 A2984 RMK CU2CI2 CONTRAILS SLP119

CYXE;2008-05-13 18:00;CYXE 131800Z 23007KT 15SM SCT058 BKN250 16/01 A2981 RMK CU3CI1 CONTRAILS SLP111

CYXE;2008-05-13 19:00;CYXE 131900Z 26007KT 15SM SCT076 BKN250 16/M02 A2979 RMK CU3CI1 SLP104

CYXE;2008-05-13 20:00;CYXE 132000Z 24011KT 15SM FEW071 SCT092 BKN250 18/00 A2977 RMK CU2AC1CI1 SLP097

CYXE;2008-05-13 21:00;CYXE 132100Z 26007G16KT 15SM FEW074 FEW098 OVC250 17/M04 A2976 RMK CU2AC1CI2 SLP090

CYXE;2008-05-13 22:00;CYXE 132200Z 28009KT 15SM SCT085 OVC250 18/M03 A2974 RMK CU3CI2 SLP084

CYXE;2008-05-13 23:00;CYXE 132300Z 27006KT 15SM SCT085 BKN250 17/M03 A2972 RMK CU3CI2 SLP080

CYXE;2008-05-14 00:00;CYXE 140000Z 28006KT 15SM SCT085 OVC250 17/M04 A2972 RMK CU3CI2 SLP079

CYXE;2008-05-14 01:00;CYXE 140100Z 24008KT 15SM FEW085 OVC250 17/M03 A2971 RMK CU2CI3 SLP075

CYXE;2008-05-14 02:00;CYXE 140200Z 00000KT 15SM FEW090 BKN250 15/M03 A2971 RMK AC1CI3 SLP075

CYXE;2008-05-14 03:00;CYXE 140300Z 16004KT 15SM FEW090 BKN250 13/M02 A2971 RMK AC1CI3 SLP071

CYXE;2008-05-14 04:00;CYXE 140400Z 15005KT 15SM FEW100 BKN250 12/M00 A2971 RMK AC1CI2 SLP072

CYXE;2008-05-14 05:00;CYXE 140500Z 16005KT 15SM FEW100 BKN250 11/M00 A2971 RMK AC1CI2 SLP071

CYXE;2008-05-14 06:00;CYXE 140600Z 18005KT 15SM FEW250 09/M01 A2970 RMK CI2 SLP069

CYXE;2008-05-14 07:00;CYXE 140700Z 19006KT 15SM FEW250 08/M01 A2970 RMK CI2 SLP070

CYXE;2008-05-14 08:00;CYXE 140800Z 18006KT 15SM FEW250 06/M01 A2970 RMK CI2 SLP069

CYXE;2008-05-14 09:00;CYXE 140900Z 19005KT 15SM FEW250 06/M02 A2970 RMK CI2 SLP069

CYXE;2008-05-14 10:00;CYXE 141000Z 23004KT 15SM FEW120 FEW250 06/M00 A2971 RMK AC1CI0 SLP073

CYXE;2008-05-14 11:00;CYXE 141100Z 21004KT 15SM FEW120 FEW250 03/M01 A2973 RMK AC2CI0 SLP080

CYXE;2008-05-14 12:00;CYXE 141200Z 25005KT 15SM FEW120 FEW160 SCT250 03/M01 A2976 RMK AC1AC1CI1 OBS TAKEN +4 SLP092

CYXE;2008-05-14 13:00;CYXE 141300Z 28006KT 15SM FEW120 FEW160 BKN250 07/02 A2977 RMK AC1AC2CI0 SLP096

CYXE;2008-05-14 14:00;CYXE 141400Z 34006KT 15SM FEW120 FEW160 BKN250 12/03 A2979 RMK AC1AC2CI0 SLP101

CYXE;2008-05-14 15:00;CYXE 141500Z 33010G15KT 15SM FEW048 SCT088 BKN250 16/04 A2981 RMK CU1AC2CI2 SLP104

CYXE;2008-05-14 16:00;CYXE 141600Z 35015G20KT 15SM FEW053 BKN083 OVC250 16/03 A2982 RMK CU1AC4CI1 SLP107

CYXE;2008-05-14 17:00;CYXE 141700Z CCB 35006KT 15SM FEW060 BKN086 BKN250 16/02 A2983 RMK CU1AC4CI0 OBS TAKEN +04 SLP111

CYXE;2008-05-14 18:00;CYXE 141800Z 32012KT 15SM SCT075 BKN096 BKN250 17/M02 A2984 RMK CU3AC2CI0 SLP117

CYXE;2008-05-14 19:00;CYXE 141900Z 32011G22KT 15SM SCT082 BKN091 18/M03 A2985 RMK CU3AC3 VIRGA S SLP119

CYXE;2008-05-14 20:00;CYXE 142000Z 32016G25KT 15SM FEW087 SCT091 BKN250 19/M02 A2986 RMK CU2AC2CI0 VIRGA ALQDS SLP121

CYXE;2008-05-14 21:00;CYXE 142100Z 31012G20KT 15SM SCT090 BKN100 BKN250 20/M02 A2987 RMK CU3AC3CI0 VIRGA N SLP126

CYXE;2008-05-14 22:00;CYXE 142200Z 33017KT 15SM BKN090 BKN100 BKN250 18/M02 A2989 RMK CU5AC2CI0 VIRGA OBS TAKEN +11 SLP132

CYXE;2008-05-14 23:00;CYXE 142300Z 34013G18KT 15SM BKN085 BKN100 18/M01 A2990 RMK CU5AC2 SLP137

CYXE;2008-05-15 00:00;CYXE 150000Z 34014KT 15SM VCSH BKN075 BKN100 19/M00 A2992 RMK CU5AC2 TCU ASOCTD SLP144

CYXE;2008-05-15 01:00;CYXE 150100Z 34010KT 15SM SCT075 BKN100 18/M00 A2994 RMK CU3AC2 SLP151

CYXE;2008-05-15 02:00;CYXE 150200Z 33016KT 15SM SCT100 SCT250 16/M01 A2996 RMK AC3CI0 CU ASOCTD SLP159

CYXE;2008-05-15 03:00;CYXE 150300Z 34006KT 15SM FEW100 FEW120 SCT250 10/00 A2999 RMK AC2AC1CI0 SLP165

CYXE;2008-05-15 04:00;CYXE 150400Z 33006KT 15SM FEW100 FEW250 10/00 A3000 RMK AC1CI1 SLP170

CYXE;2008-05-15 05:00;CYXE 150500Z 30006KT 15SM FEW250 07/01 A3002 RMK CI1 SLP177

CYXE;2008-05-15 06:00;CYXE 150600Z 30008KT 15SM SCT250 06/01 A3004 RMK CI1 SLP186

CYXE;2008-05-15 07:00;CYXE 150700Z 30008KT 15SM SCT098 BKN250 05/01 A3004 RMK AC4CI0 SLP187

CYXE;2008-05-15 08:00;CYXE 150800Z 30007KT 15SM BKN098 07/02 A3005 RMK AC7 SLP188

CYXE;2008-05-15 09:00;CYXE 150900Z 27007KT 15SM BKN098 05/02 A3006 RMK AC4 SLP190

CYXE;2008-05-15 10:00;CYXE 151000Z 27007KT 15SM FEW098 BKN250 04/01 A3007 RMK AC2CI0 SLP193

CYXE;2008-05-15 11:00;CYXE 151100Z 28006KT 15SM BKN096 OVC250 03/01 A3007 RMK AC3CI2 SLP195

CYXE;2008-05-15 12:00;CYXE 151200Z 25004KT 15SM SCT096 OVC250 05/02 A3008 RMK AC2CI2 SLP197

CYXE;2008-05-15 13:00;CYXE 151300Z 25005KT 15SM BKN110 OVC250 07/02 A3008 RMK AC5CI2 SLP197

CYXE;2008-05-15 14:00;CYXE 151400Z 25005KT 15SM BKN110 OVC250 10/02 A3008 RMK AC6CI2 SLP197

CYXE;2008-05-15 15:00;CYXE 151500Z 25005KT 15SM OVC100 12/02 A3008 RMK AC8 SLP200

CYXE;2008-05-15 16:00;CYXE 151600Z 28005KT 15SM BKN100 BKN270 15/02 A3007 RMK AC5CI2 SLP198

CYXE;2008-05-15 17:00;CYXE 151700Z 29011KT 15SM FEW100 BKN270 19/M00 A3004 RMK AC2CI1 SLP189

CYXE;2008-05-15 18:00;CYXE 151800Z 32013KT 15SM BKN084 BKN270 20/M00 A3002 RMK AC5CI1 SLP177

CYXE;2008-05-15 19:00;CYXE 151900Z 29009G15KT 15SM FEW075 BKN270 20/01 A2999 RMK AC2CI2 SLP168

CYXE;2008-05-15 20:00;CYXE 152000Z 30015G26KT 15SM FEW069 SCT090 22/07 A2997 RMK CU1AC2 SLP161

CYXE;2008-05-15 21:00;CYXE 152100Z 32016G21KT 15SM SCT065 22/07 A2996 RMK CU3 SLP155

CYXE;2008-05-15 22:00;CYXE 152200Z 29012G25KT 15SM BKN065 BKN270 23/08 A2993 RMK CU4CI0 SLP147

CYXE;2008-05-15 23:00;CYXE 152300Z 31012G24KT 15SM BKN065 23/07 A2990 RMK CU5 SLP137

CYXE;2008-05-16 00:00;CYXE 160000Z 30021G30KT 15SM FEW070 25/07 A2988 RMK AC1 SLP128

CYXE;2008-05-16 01:00;CYXE 160100Z 32017KT 15SM FEW070 FEW250 24/07 A2987 RMK AC1CI0 SLP125

CYXE;2008-05-16 02:00;CYXE 160200Z 30009KT 15SM SCT070 24/08 A2986 RMK AC3 SLP121

CYXE;2008-05-16 03:00;CYXE 160300Z 27005KT 15SM SCT070 18/08 A2985 RMK AC3 SLP118

CYXE;2008-05-16 04:00;CYXE 160400Z 22008KT 15SM FEW070 16/07 A2984 RMK AC2 SLP114

CYXE;2008-05-16 05:00;CYXE 160500Z 23007KT 15SM FEW070 16/08 A2983 RMK AC2 SLP111

CYXE;2008-05-16 06:00;CYXE 160600Z 27008KT 15SM OVC096 16/08 A2983 RMK AC7 SLP108

CYXE;2008-05-16 07:00;CYXE 160700Z 30011KT 15SM FEW092 BKN250 15/07 A2985 RMK AC2CI1 SLP113

CYXE;2008-05-16 08:00;CYXE 160800Z 30013KT 15SM FEW099 SCT250 16/06 A2986 RMK AC1CI1 SLP115

CYXE;2008-05-16 09:00;CYXE 160900Z 30013KT 15SM FEW100 FEW250 15/06 A2986 RMK AC1CI1 SLP117

CYXE;2008-05-16 10:00;CYXE 161000Z 30011KT 15SM FEW100 FEW250 14/06 A2988 RMK AC1CI1 SLP123

CYXE;2008-05-16 11:00;CYXE 161100Z 30009KT 15SM FEW100 BKN250 12/06 A2991 RMK AC1CI2 SLP132

CYXE;2008-05-16 12:00;CYXE 161200Z 31011KT 15SM BKN250 13/07 A2994 RMK CI2 SLP142

CYXE;2008-05-16 13:00;CYXE 161300Z 32012KT 15SM SCT250 14/07 A2996 RMK CI0 SLP151

CYXE;2008-05-16 14:00;CYXE 161400Z 33012KT 15SM FEW250 16/08 A2998 RMK CI0 SLP157

CYXE;2008-05-16 15:00;CYXE 161500Z 32007KT 15SM OVC270 18/05 A2999 RMK CS1 SLP162

CYXE;2008-05-16 16:00;CYXE 161600Z 29009KT 15SM SCT270 20/05 A2999 RMK CS1 SLP163

CYXE;2008-05-16 17:00;CYXE 161700Z 29014KT 15SM FEW060 FEW270 21/07 A2999 RMK CU1CI0 SLP160

CYXE;2008-05-16 18:00;CYXE 161800Z 31014G22KT 15SM SCT065 SCT270 21/06 A2997 RMK CU3CI0 SLP154

CYXE;2008-05-16 19:00;CYXE 161900Z 31019G25KT 15SM FEW065 SCT270 23/04 A2995 RMK CU2CI0 SLP149

CYXE;2008-05-16 20:00;CYXE 162000Z 31017G26KT 15SM FEW084 FEW270 23/02 A2995 RMK CU2CI0 SLP147

CYXE;2008-05-16 21:00;CYXE 162100Z 33023G30KT 15SM FEW084 FEW270 24/02 A2994 RMK AC1CI0 SLP141

CYXE;2008-05-16 22:00;CYXE 162200Z 32019G28KT 15SM FEW084 FEW270 24/03 A2993 RMK AC1CI0 SLP140

CYXE;2008-05-16 23:00;CYXE 162300Z 32018G28KT 15SM SKC 24/00 A2994 RMK SLP141

CYXE;2008-05-17 00:00;CYXE 170000Z 32019G30KT 15SM SKC 23/M01 A2993 RMK SLP141

CYXE;2008-05-17 01:00;CYXE 170100Z 32023G29KT 15SM FEW270 22/M01 A2993 RMK CI0 SLP141

CYXE;2008-05-17 02:00;CYXE 170200Z 32013KT 15SM FEW270 20/00 A2994 RMK CI0 SLP143

CYXE;2008-05-17 03:00;CYXE 170300Z 32012KT 15SM FEW270 18/M01 A2995 RMK CI0 SLP148

CYXE;2008-05-17 04:00;CYXE 170400Z 32009KT 15SM FEW270 15/M01 A2997 RMK CI0 CONTRAILS SLP154

CYXE;2008-05-17 05:00;CYXE 170500Z 32006KT 15SM FEW270 10/M01 A2998 RMK CI0 SLP156

CYXE;2008-05-17 06:00;CYXE 170600Z 31007KT 15SM FEW250 08/M01 A2999 RMK CI0 SLP164

CYXE;2008-05-17 07:00;CYXE 170700Z 31008KT 15SM FEW250 08/M00 A2999 RMK CI0 SLP165

CYXE;2008-05-17 08:00;CYXE 170800Z 31008KT 15SM FEW250 08/00 A3000 RMK CI0 SLP168

CYXE;2008-05-17 09:00;CYXE 170900Z 31009KT 15SM FEW250 08/01 A3001 RMK CI0 SLP171

CYXE;2008-05-17 10:00;CYXE 171000Z 32008KT 15SM FEW250 06/01 A3002 RMK CI0 SLP173

CYXE;2008-05-17 11:00;CYXE 171100Z 31008KT 15SM FEW250 05/01 A3003 RMK CI1 SLP176

CYXE;2008-05-17 12:00;CYXE 171200Z 31007KT 15SM FEW100 FEW250 06/01 A3003 RMK AC1CI0 SLP181

CYXE;2008-05-17 13:00;CYXE 171300Z 30007KT 15SM SCT110 BKN250 11/02 A3003 RMK AC3CI1 SLP181

CYXE;2008-05-17 14:00;CYXE 171400Z 32009KT 15SM OVC096 10/02 A3004 RMK AC8 SLP184

CYXE;2008-05-17 15:00;CYXE 171500Z 33010KT 15SM BKN098 14/02 A3005 RMK AC6 SLP184

CYXE;2008-05-17 16:00;CYXE 171600Z 34010KT 15SM BKN100 16/00 A3005 RMK AC6 SLP184

CYXE;2008-05-17 17:00;CYXE 171700Z 35008KT 15SM BKN110 18/M01 A3004 RMK AC5 SLP181

CYXE;2008-05-17 18:00;CYXE 171800Z 02014KT 15SM FEW120 19/M02 A3003 RMK AC1 SLP178

CYXE;2008-05-17 19:00;CYXE 171900Z 33015G21KT 15SM FEW300 21/M01 A3001 RMK CI0 SLP174

CYXE;2008-05-17 20:00;CYXE 172000Z 35014KT 15SM SCT270 21/M01 A2999 RMK CI1 SLP168

CYXE;2008-05-17 21:00;CYXE 172100Z 34013KT 15SM FEW095 SCT270 22/M00 A2997 RMK AC1CI0 SLP159

CYXE;2008-05-17 22:00;CYXE 172200Z 35011G17KT 15SM FEW095 SCT270 22/M00 A2995 RMK AC1CI0 SLP153

CYXE;2008-05-17 23:00;CYXE 172300Z 01014KT 15SM FEW095 SCT270 22/00 A2993 RMK AC1CI1 SLP144

CYXE;2008-05-18 00:00;CYXE 180000Z 01009KT 15SM BKN270 22/01 A2991 RMK CI0 SLP140

CYXE;2008-05-18 01:00;CYXE 180100Z 01008KT 15SM BKN270 20/00 A2990 RMK CI2 SLP135

CYXE;2008-05-18 02:00;CYXE 180200Z 05006KT 15SM BKN270 17/02 A2988 RMK CI2 SLP130

CYXE;2008-05-18 03:00;CYXE 180300Z 13005KT 15SM BKN270 15/01 A2988 RMK CI1 CONTRAILS SLP127

CYXE;2008-05-18 04:00;CYXE 180400Z 09006KT 15SM BKN270 12/00 A2988 RMK CI2 SLP127

CYXE;2008-05-18 05:00;CYXE 180500Z 08005KT 15SM SCT270 11/00 A2987 RMK CI2 SLP125

CYXE;2008-05-18 06:00;CYXE 180600Z 11006KT 15SM SCT270 11/M00 A2984 RMK CI1 SLP114

CYXE;2008-05-18 07:00;CYXE 180700Z 13009KT 15SM BKN270 12/M01 A2982 RMK CI2 SLP108

CYXE;2008-05-18 08:00;CYXE 180800Z 13005KT 15SM BKN270 11/M01 A2979 RMK CI2 SLP096

CYXE;2008-05-18 09:00;CYXE 180900Z 17005KT 15SM BKN270 11/M01 A2979 RMK CI2 SLP094

CYXE;2008-05-18 10:00;CYXE 181000Z 15004KT 15SM BKN110 BKN270 12/M02 A2979 RMK AC6CI2 SLP093

CYXE;2008-05-18 11:00;CYXE 181100Z 16005KT 15SM BKN110 BKN270 10/M02 A2976 RMK AC5CI1 SLP083

CYXE;2008-05-18 12:00;CYXE 181200Z 16004KT 15SM BKN110 BKN270 10/M02 A2972 RMK AC4CI1 SLP073

CYXE;2008-05-18 13:00;CYXE 181300Z 11005KT 15SM SCT110 OVC170 12/M00 A2970 RMK AC4AS4 SLP065

CYXE;2008-05-18 14:00;CYXE 181400Z 14006KT 15SM FEW110 OVC170 14/00 A2969 RMK AC2AS6 SLP061

CYXE;2008-05-18 15:00;CYXE 181500Z 17007KT 15SM FEW110 BKN170 16/M00 A2965 RMK AC2AC5 SLP049

CYXE;2008-05-18 16:00;CYXE 181600Z 16011KT 15SM FEW110 OVC170 19/M00 A2963 RMK AC2AS6 SLP040

CYXE;2008-05-18 17:00;CYXE 181700Z 16015KT 15SM BKN110 OVC240 21/M00 A2959 RMK AC5CI2 SLP027

CYXE;2008-05-18 18:00;CYXE 181800Z 18014G22KT 15SM BKN110 OVC240 22/00 A2957 RMK AC6CI2 SLP018

CYXE;2008-05-18 19:00;CYXE 181900Z 16012G17KT 15SM BKN100 OVC240 23/00 A2955 RMK AC5CI2 SLP012

CYXE;2008-05-18 20:00;CYXE 182000Z 15012KT 15SM SCT100 OVC240 24/01 A2952 RMK AC4CI2 SLP003

CYXE;2008-05-18 21:00;CYXE 182100Z 14011KT 15SM OVC088 23/00 A2951 RMK AC8 SLP998

CYXE;2008-05-18 22:00;CYXE 182200Z 13012KT 15SM VCSH BKN088 OVC240 23/01 A2948 RMK AC6CI2 SLP988

CYXE;2008-05-18 23:00;CYXE 182300Z 30015KT 15SM VCSH BKN088 OVC240 22/05 A2948 RMK AC6CI2 SLP987

CYXE;2008-05-19 00:00;CYXE 190000Z 33006KT 15SM BKN082 23/05 A2949 RMK AC6 SLP991

CYXE;2008-05-19 01:00;CYXE 190100Z 35006KT 15SM SCT080 20/05 A2950 RMK AC3 SLP996

CYXE;2008-05-19 02:00;CYXE 190200Z 07012KT 15SM SCT080 16/04 A2952 RMK AC4 SLP003

CYXE;2008-05-19 03:00;CYXE 190300Z 07007KT 15SM BKN090 14/04 A2954 RMK ACC5 SLP010

CYXE;2008-05-19 04:00;CYXE 190400Z 07005KT 15SM BKN090 11/04 A2955 RMK ACC5 SLP012

CYXE;2008-05-19 05:00;CYXE 190500Z 12004KT 15SM VCSH BKN080 11/04 A2955 RMK ACC6 SLP013

CYXE;2008-05-19 06:00;CYXE 190600Z 01003KT 15SM FEW090 09/04 A2958 RMK AC2 SLP024

CYXE;2008-05-19 07:00;CYXE 190700Z 32006KT 15SM SCT100 07/05 A2960 RMK AC2 SLP030

CYXE;2008-05-19 08:00;CYXE 190800Z 31007KT 15SM SCT100 07/04 A2962 RMK AC2 SLP035

CYXE;2008-05-19 09:00;CYXE 190900Z 30009KT 15SM SCT100 09/07 A2964 RMK AC2 SLP043

CYXE;2008-05-19 10:00;CYXE 191000Z 30010KT 15SM BKN071 09/08 A2966 RMK AC5 SLP050

CYXE;2008-05-19 11:00;CYXE 191100Z 30011KT 15SM FEW071 SCT270 08/07 A2968 RMK AC2CI1 SLP058

CYXE;2008-05-19 12:00;CYXE 191200Z 32010KT 15SM FEW071 FEW270 08/07 A2972 RMK AC1CI1 SLP072

CYXE;2008-05-19 13:00;CYXE 191300Z 32009KT 15SM FEW071 FEW270 10/08 A2976 RMK AC1CI1 SLP083

CYXE;2008-05-19 13:33;CYXE 191333Z 34014KT 15SM BKN015 10/ RMK CU6

CYXE;2008-05-19 14:00;CYXE 191400Z 36014KT 15SM BKN015 10/07 A2978 RMK CU6 SLP092

CYXE;2008-05-19 15:00;CYXE 191500Z 01016G21KT 15SM SCT018 12/07 A2982 RMK CU3 SLP108

CYXE;2008-05-19 16:00;CYXE 191600Z 36015KT 15SM BKN024 13/07 A2984 RMK CU5 OBS TAKEN +9 SLP116

CYXE;2008-05-19 17:00;CYXE 191700Z 02013G18KT 15SM BKN027 15/07 A2986 RMK CU5 SLP120

CYXE;2008-05-19 18:00;CYXE 191800Z 03013G18KT 15SM BKN030 15/07 A2987 RMK CU5 SLP128

CYXE;2008-05-19 19:00;CYXE 191900Z 03015KT 15SM BKN030 14/07 A2989 RMK CU5 SLP132

CYXE;2008-05-19 20:00;CYXE 192000Z 36012G18KT 15SM BKN030 15/07 A2991 RMK CU5 SLP139

CYXE;2008-05-19 21:00;CYXE 192100Z 01011KT 15SM BKN032 15/07 A2992 RMK SC5 SLP143

CYXE;2008-05-19 22:00;CYXE 192200Z 02013KT 15SM BKN033 BKN240 14/06 A2994 RMK SC5CI0 SLP149

CYXE;2008-05-19 23:00;CYXE 192300Z 05013G18KT 15SM SCT035 BKN240 15/06 A2995 RMK SC4CI0 SLP152

CYXE;2008-05-20 00:00;CYXE 200000Z 04012KT 15SM FEW031 BKN240 14/07 A2996 RMK SC2CI1 SLP159

CYXE;2008-05-20 01:00;CYXE 200100Z CCA 06011G16KT 15SM FEW030 SCT250 13/06 A2996 RMK SC1CI1 SLP159

CYXE;2008-05-20 02:00;CYXE 200200Z 08009G15KT 15SM SCT250 11/06 A2997 RMK CI0 SLP162

CYXE;2008-05-20 03:00;CYXE 200300Z 10008KT 15SM BKN250 09/06 A2998 RMK CI2 SLP166

CYXE;2008-05-20 04:00;CYXE 200400Z 12005KT 15SM SCT250 08/06 A3000 RMK CI2 SLP173

CYXE;2008-05-20 05:00;CYXE 200500Z 13006KT 15SM SCT250 07/05 A2999 RMK CI1 SLP171

CYXE;2008-05-20 06:00;CYXE 200600Z 13005KT 15SM SCT250 06/05 A3000 RMK CI1 SLP173

CYXE;2008-05-20 07:00;CYXE 200700Z 10003KT 15SM SCT250 05/05 A3000 RMK CI1 SLP174

CYXE;2008-05-20 08:00;CYXE 200800Z 13004KT 15SM SCT250 05/04 A3000 RMK CI1 SLP173

CYXE;2008-05-20 09:00;CYXE 200900Z 14005KT 15SM FEW075 BKN250 04/04 A2998 RMK AC2CI1 SLP168

CYXE;2008-05-20 10:00;CYXE 201000Z 13006KT 15SM FEW075 BKN110 06/06 A2998 RMK AC2AC5 SLP168

CYXE;2008-05-20 11:00;CYXE 201100Z 13005KT 15SM BKN110 06/06 A2999 RMK AC7 SLP170

CYXE;2008-05-20 12:00;CYXE 201200Z 11006KT 15SM OVC110 07/06 A2999 RMK AC8 SLP172

CYXE;2008-05-20 13:00;CYXE 201300Z 12009KT 15SM FEW040 BKN099 OVC270 07/07 A2999 RMK CF1AC6CI1 SLP170

CYXE;2008-05-20 13:34;CYXE 201334Z 13010KT 15SM FEW007 BKN099 BKN270 08/ RMK SF2AC3CI0

CYXE;2008-05-20 14:00;CYXE 201400Z 13011KT 15SM FEW007 BKN099 BKN270 09/08 A2998 RMK SF1AC2CI0 SLP166

CYXE;2008-05-20 15:00;CYXE 201500Z 14010KT 15SM FEW010 BKN100 OVC270 10/08 A2997 RMK SC2AC6CI1 SLP165

CYXE;2008-05-20 16:00;CYXE 201600Z 16011KT 15SM FEW020 BKN094 BKN270 13/08 A2995 RMK CU2AC3CI2 SLP158

CYXE;2008-05-20 17:00;CYXE 201700Z 15013KT 15SM SCT024 BKN094 14/07 A2994 RMK SC4AC2 SLP154

CYXE;2008-05-20 18:00;CYXE 201800Z 13012G17KT 15SM FEW030 BKN095 BKN270 15/07 A2992 RMK SC2AC2CI1 SLP146

CYXE;2008-05-20 19:00;CYXE 201900Z 12015G20KT 15SM FEW039 BKN110 OVC270 16/06 A2990 RMK SC2AC4CI1 SLP138

CYXE;2008-05-20 20:00;CYXE 202000Z 13011G21KT 15SM FEW040 BKN110 OVC270 17/05 A2988 RMK SC2AC4CI1 SLP133

CYXE;2008-05-20 21:00;CYXE 202100Z 14013KT 15SM OVC130 17/04 A2987 RMK AC8 SLP128

CYXE;2008-05-20 22:00;CYXE 202200Z 13017KT 15SM BKN085 OVC130 17/04 A2985 RMK ACC7AC1 SLP123

CYXE;2008-05-20 23:00;CYXE 202300Z 13012G20KT 15SM BKN076 OVC091 16/04 A2983 RMK AC6AC2 SLP116

CYXE;2008-05-21 00:00;CYXE 210000Z 13015G21KT 15SM BKN078 OVC094 16/04 A2980 RMK AC6AC2 SLP104

CYXE;2008-05-21 01:00;CYXE 210100Z 13015G21KT 15SM BKN075 OVC100 16/03 A2979 RMK AC7AC1 SLP101

CYXE;2008-05-21 02:00;CYXE 210200Z 13013G20KT 15SM OVC075 16/02 A2978 RMK AC8 SLP098

CYXE;2008-05-21 03:00;CYXE 210300Z 12018G24KT 15SM BKN085 OVC250 16/02 A2975 RMK AC6CI0 SLP086

CYXE;2008-05-21 04:00;CYXE 210400Z 13015G22KT 15SM BKN100 15/02 A2975 RMK AC6 SLP084

CYXE;2008-05-21 05:00;CYXE 210500Z 12018G27KT 15SM BKN120 14/02 A2974 RMK AC6 SLP081

CYXE;2008-05-21 06:00;CYXE 210600Z 12020G25KT 15SM BKN120 14/M02 A2974 RMK AC6 SLP078

CYXE;2008-05-21 07:00;CYXE 210700Z 13019G25KT 15SM BKN093 13/M02 A2975 RMK AC6 SLP082

CYXE;2008-05-21 08:00;CYXE 210800Z 13018KT 15SM BKN085 12/M02 A2976 RMK AC6 SLP085

CYXE;2008-05-21 09:00;CYXE 210900Z 13016G21KT 15SM BKN083 12/M01 A2976 RMK AC6 SLP085

CYXE;2008-05-21 09:26;CYXE 210926Z 13015G24KT 15SM -RA OVC086 12/ RMK AC8

CYXE;2008-05-21 10:00;CYXE 211000Z 13015G20KT 15SM -RA OVC070 11/M01 A2977 RMK AC8 SLP089

CYXE;2008-05-21 10:28;CYXE 211028Z 13016KT 15SM OVC070 11/ RMK AC8

CYXE;2008-05-21 11:00;CYXE 211100Z 13019G26KT 15SM -RA OVC074 11/M01 A2977 RMK AC8 SLP090

CYXE;2008-05-21 11:26;CYXE 211126Z 13018KT 15SM OVC076 11/ RMK AC8

CYXE;2008-05-21 12:00;CYXE 211200Z 12016G25KT 15SM OVC076 11/M02 A2977 RMK AC8 OBS TAKEN +05 SLP090

CYXE;2008-05-21 13:00;CYXE 211300Z 13016G24KT 15SM OVC079 11/M02 A2977 RMK AC8 SLP091

CYXE;2008-05-21 14:00;CYXE 211400Z 14014G22KT 15SM OVC079 12/M01 A2978 RMK AC8 SLP094

CYXE;2008-05-21 15:00;CYXE 211500Z 14018G26KT 15SM OVC083 12/M00 A2979 RMK AC8 SLP096

CYXE;2008-05-21 16:00;CYXE 211600Z 13019G24KT 15SM BKN081 OVC250 13/M00 A2978 RMK AC6CI2 SLP095

CYXE;2008-05-21 17:00;CYXE 211700Z 12020G25KT 15SM BKN088 OVC250 14/M00 A2979 RMK AC6CI2 SLP096

CYXE;2008-05-21 18:00;CYXE 211800Z 11020G25KT 15SM BKN085 OVC250 15/M01 A2978 RMK AC5CI3 SLP095

CYXE;2008-05-21 19:00;CYXE 211900Z 12017G24KT 15SM BKN085 OVC250 18/M02 A2978 RMK AC6CI1 SLP094

CYXE;2008-05-21 20:00;CYXE 212000Z 11023G28KT 15SM SCT090 BKN250 18/M03 A2977 RMK AC4CI2 SLP090

CYXE;2008-05-21 21:00;CYXE 212100Z 13022G29KT 15SM SCT094 OVC250 20/M04 A2977 RMK AC3CI3 SLP086

CYXE;2008-05-21 22:00;CYXE 212200Z 15018G24KT 15SM SCT095 OVC250 19/M04 A2977 RMK AC3CI3 SLP086

CYXE;2008-05-21 23:00;CYXE 212300Z 13019G25KT 15SM SCT110 OVC250 19/M05 A2977 RMK AC3CI3 SLP087

CYXE;2008-05-22 00:00;CYXE 220000Z 11019G26KT 15SM FEW074 OVC250 19/M03 A2977 RMK AC2CI2 SLP089

CYXE;2008-05-22 01:00;CYXE 220100Z 11016KT 15SM SCT091 OVC250 18/M04 A2978 RMK AC3CI3 SLP092

CYXE;2008-05-22 02:00;CYXE 220200Z 11015G24KT 15SM SCT110 OVC250 17/M04 A2980 RMK AC4CI3 SLP099

CYXE;2008-05-22 03:00;CYXE 220300Z 11014G19KT 15SM SCT099 OVC250 16/M04 A2982 RMK AC3CI5 SLP109

CYXE;2008-05-22 04:00;CYXE 220400Z 10014KT 15SM FEW100 BKN250 14/M04 A2986 RMK AC2CI2 SLP120

CYXE;2008-05-22 05:00;CYXE 220500Z 11018KT 15SM BKN250 13/M01 A2987 RMK CI2 SLP125

CYXE;2008-05-22 06:00;CYXE 220600Z 11016G22KT 15SM SCT250 12/M00 A2989 RMK CI0 SLP133

CYXE;2008-05-22 07:00;CYXE 220700Z 12014G22KT 15SM BKN250 11/M00 A2990 RMK CI2 SLP136

CYXE;2008-05-22 08:00;CYXE 220800Z 12016G21KT 15SM BKN250 09/M01 A2991 RMK CI2 OBS TAKEN +08 SLP139

CYXE;2008-05-22 09:00;CYXE 220900Z 13017G25KT 15SM SCT250 09/M01 A2993 RMK CI1 SLP143

CYXE;2008-05-22 10:00;CYXE 221000Z 13018G25KT 15SM SCT250 08/M01 A2994 RMK CI1 SLP147

CYXE;2008-05-22 11:00;CYXE 221100Z 13018G24KT 15SM FEW250 07/M01 A2995 RMK CI1 SLP149

CYXE;2008-05-22 12:00;CYXE 221200Z 13014G19KT 15SM SCT250 07/00 A2996 RMK CI1 SLP158

CYXE;2008-05-22 13:00;CYXE 221300Z 13014KT 15SM BKN250 08/01 A2998 RMK CI1 SLP163

CYXE;2008-05-22 14:00;CYXE 221400Z 13013G20KT 15SM BKN250 09/02 A2999 RMK CI1 SLP167

CYXE;2008-05-22 15:00;CYXE 221500Z 13016KT 15SM BKN250 12/03 A3000 RMK CI1 SLP170

CYXE;2008-05-22 16:00;CYXE 221600Z 14013G18KT 15SM SCT250 13/02 A3001 RMK CI1 SLP172

CYXE;2008-05-22 17:00;CYXE 221700Z 11014G21KT 15SM SCT250 16/02 A3000 RMK CI1 SLP171

CYXE;2008-05-22 18:00;CYXE 221800Z 12014G21KT 14SM SCT250 16/01 A3001 RMK CI1 SLP171

CYXE;2008-05-22 19:00;CYXE 221900Z 12013G25KT 15SM FEW250 18/01 A3000 RMK CI1 SLP169

CYXE;2008-05-22 20:00;CYXE 222000Z 13017G24KT 15SM FEW250 19/01 A3000 RMK CI1 SLP168

CYXE;2008-05-22 21:00;CYXE 222100Z 13017G22KT 15SM BKN250 20/01 A2999 RMK CI2 SLP166

CYXE;2008-05-22 22:00;CYXE 222200Z 13019G24KT 15SM BKN250 20/01 A2999 RMK CI2 SLP165

CYXE;2008-05-22 23:00;CYXE 222300Z 12019G24KT 15SM BKN250 20/03 A2999 RMK CI2 SLP165

CYXE;2008-05-23 00:00;CYXE 230000Z 11017G24KT 15SM BKN250 19/02 A2999 RMK CI2 SLP168

CYXE;2008-05-23 01:00;CYXE 230100Z 09014G21KT 15SM OVC250 18/03 A2999 RMK CI5 SLP169

CYXE;2008-05-23 02:00;CYXE 230200Z 10015KT 15SM OVC250 17/03 A3001 RMK CI5 SLP174

CYXE;2008-05-23 03:00;CYXE 230300Z 10012G17KT 15SM OVC250 16/03 A3003 RMK CI5 SLP180

CYXE;2008-05-23 04:00;CYXE 230400Z 10014KT 15SM BKN250 14/04 A3005 RMK CI3 SLP187

CYXE;2008-05-23 05:00;CYXE 230500Z 12017KT 15SM BKN250 13/04 A3008 RMK CI3 SLP196

CYXE;2008-05-23 06:00;CYXE 230600Z 11015G22KT 15SM BKN250 11/04 A3010 RMK CI1 SLP204

CYXE;2008-05-23 07:00;CYXE 230700Z 11014KT 15SM SCT250 10/04 A3012 RMK CI0 SLP209

CYXE;2008-05-23 08:00;CYXE 230800Z 09010KT 15SM FEW250 08/04 A3012 RMK CI0 SLP210

CYXE;2008-05-23 09:00;CYXE 230900Z 10008KT 15SM SKC 07/04 A3014 RMK SLP218

CYXE;2008-05-23 10:00;CYXE 231000Z 09008KT 15SM FEW250 05/03 A3016 RMK CI0 SLP223

CYXE;2008-05-23 11:00;CYXE 231100Z 07008KT 15SM FEW250 05/03 A3016 RMK CI1 SLP224

CYXE;2008-05-23 12:00;CYXE 231200Z 10011KT 15SM FEW250 07/04 A3017 RMK CI1 SLP228

CYXE;2008-05-23 13:00;CYXE 231300Z 12012KT 15SM BKN250 09/05 A3018 RMK CI1 SLP233

CYXE;2008-05-23 14:00;CYXE 231400Z 13011KT 15SM FEW250 11/05 A3019 RMK CI1 SLP236

CYXE;2008-05-23 15:00;CYXE 231500Z 12010G15KT 15SM FEW280 13/06 A3018 RMK CI0 SLP230

CYXE;2008-05-23 16:00;CYXE 231600Z 12010G15KT 15SM FEW280 15/06 A3017 RMK CI0 SLP229

CYXE;2008-05-23 17:00;CYXE 231700Z 09015G21KT 15SM FEW280 17/06 A3018 RMK CI0 SLP232

CYXE;2008-05-23 18:00;CYXE 231800Z 09018KT 15SM FEW280 18/05 A3016 RMK CI0 SLP223

CYXE;2008-05-23 19:00;CYXE 231900Z 10021G26KT 15SM FEW280 20/06 A3013 RMK CI1 SLP214

CYXE;2008-05-23 20:00;CYXE 232000Z 10021G29KT 15SM FEW250 21/06 A3011 RMK CI1 SLP207

CYXE;2008-05-23 21:00;CYXE 232100Z 11020G29KT 15SM FEW250 22/06 A3010 RMK CI2 SLP204

CYXE;2008-05-23 22:00;CYXE 232200Z 13018G25KT 15SM FEW100 BKN250 22/05 A3010 RMK AC1CI5 SLP204

CYXE;2008-05-23 23:00;CYXE 232300Z 11022G28KT 15SM FEW100 BKN250 22/06 A3010 RMK AC1CI2 SLP204

CYXE;2008-05-24 00:00;CYXE 240000Z 11018G26KT 15SM FEW100 SCT250 21/06 A3008 RMK AC2CI1 SLP198

CYXE;2008-05-24 01:00;CYXE 240100Z 10019G25KT 15SM FEW110 SCT250 21/06 A3007 RMK AC2CI0 SLP192

CYXE;2008-05-24 02:00;CYXE 240200Z 10015KT 15SM BKN110 BKN250 20/06 A3008 RMK AC3CI1 SLP195

CYXE;2008-05-24 03:00;CYXE 240300Z 09011KT 15SM BKN110 BKN250 18/06 A3008 RMK AC3CI1 SLP194

CYXE;2008-05-24 04:00;CYXE 240400Z 09010KT 15SM FEW110 BKN250 16/06 A3008 RMK AC2CI2 SLP196

CYXE;2008-05-24 05:00;CYXE 240500Z 09011KT 15SM FEW110 SCT250 14/06 A3007 RMK AC2CI0 SLP192

CYXE;2008-05-24 06:00;CYXE 240600Z 11012KT 15SM FEW110 SCT250 15/06 A3007 RMK AC2CI0 SLP191

CYXE;2008-05-24 07:00;CYXE 240700Z 12012G17KT 15SM FEW250 14/06 A3007 RMK CI0 SLP191

CYXE;2008-05-24 08:00;CYXE 240800Z 11011KT 15SM FEW250 14/06 A3008 RMK CI0 SLP192

CYXE;2008-05-24 09:00;CYXE 240900Z 13015KT 15SM FEW250 13/06 A3008 RMK CI1 SLP191

CYXE;2008-05-24 10:00;CYXE 241000Z 12011KT 15SM SCT110 SCT250 12/06 A3006 RMK AC3CI0 SLP187

CYXE;2008-05-24 11:00;CYXE 241100Z 12009KT 15SM FEW110 SCT250 11/06 A3005 RMK AC2CI1 SLP184

CYXE;2008-05-24 12:00;CYXE 241200Z 11009KT 15SM FEW110 FEW250 12/06 A3004 RMK AC1CI1 SLP182

CYXE;2008-05-24 13:00;CYXE 241300Z 11008KT 15SM FEW250 13/07 A3004 RMK CI2 SLP182

CYXE;2008-05-24 14:00;CYXE 241400Z 10009KT 15SM BKN270 16/07 A3003 RMK CI1 SLP176

CYXE;2008-05-24 15:00;CYXE 241500Z 10011KT 15SM BKN270 18/08 A3001 RMK CI2 SLP169

CYXE;2008-05-24 16:00;CYXE 241600Z 12011KT 15SM BKN270 19/07 A3001 RMK CI3 SLP168

CYXE;2008-05-24 17:00;CYXE 241700Z 07013G20KT 15SM FEW064 BKN270 21/07 A2999 RMK CU1CI2 SLP160

CYXE;2008-05-24 18:00;CYXE 241800Z 09019KT 15SM FEW068 BKN270 22/05 A2997 RMK CU1CI2 SLP154

CYXE;2008-05-24 19:00;CYXE 241900Z 11012G26KT 15SM FEW068 OVC270 22/05 A2994 RMK CU1CI2 SLP145

CYXE;2008-05-24 20:00;CYXE 242000Z 08016G30KT 15SM FEW078 OVC270 22/05 A2993 RMK CU2CI3 SLP140

CYXE;2008-05-24 21:00;CYXE 242100Z 08018G27KT 15SM SCT078 OVC270 22/05 A2990 RMK CU3CI4 SLP130

CYXE;2008-05-24 22:00;CYXE 242200Z 08014G24KT 15SM SCT080 OVC230 22/05 A2988 RMK CU3CI4 SLP123

CYXE;2008-05-24 23:00;CYXE 242300Z 07020KT 15SM SCT078 SCT120 BKN230 21/05 A2986 RMK AC3AC1CS3 SLP119

CYXE;2008-05-25 00:00;CYXE 250000Z 07015G21KT 15SM SCT090 SCT110 BKN230 21/05 A2986 RMK AC3AC1CS2 SLP117

CYXE;2008-05-25 01:00;CYXE 250100Z 06013G19KT 15SM SCT090 BKN120 BKN230 21/06 A2985 RMK AC3AC2CS2 SLP115

CYXE;2008-05-25 02:00;CYXE 250200Z 16013G20KT 15SM BKN068 BKN120 OVC230 17/05 A2986 RMK AC6AC2CI1 SLP120

CYXE;2008-05-25 03:00;CYXE 250300Z 16009KT 15SM BKN068 OVC230 16/06 A2988 RMK AC7CI1 SLP125

CYXE;2008-05-25 03:32;CYXE 250332Z 18005KT 15SM RA BKN068 OVC230 14/ RMK AC7CI1

CYXE;2008-05-25 04:00;CYXE 250400Z 17006KT 15SM -RA BKN066 OVC230 13/09 A2989 RMK AC6CI2 SLP127

CYXE;2008-05-25 04:14;CYXE 250414Z 17006KT 15SM BKN064 OVC230 13/ RMK SC6CI2

CYXE;2008-05-25 04:52;CYXE 250452Z 18008KT 15SM -RA BKN058 OVC080 13/ RMK SC6AC2

CYXE;2008-05-25 05:00;CYXE 250500Z 18009KT 15SM -RA BKN058 OVC090 12/09 A2990 RMK SC6AC2 SLP131

CYXE;2008-05-25 06:00;CYXE 250600Z CCA 11003KT 15SM VCSH BKN045 OVC085 11/09 A2988 RMK SC6AC2 SLP125

CYXE;2008-05-25 07:00;CYXE 250700Z 34007KT 15SM BKN040 OVC085 11/10 A2986 RMK SC7AC1 SLP120

CYXE;2008-05-25 08:00;CYXE 250800Z 36008KT 15SM BKN045 OVC085 11/10 A2986 RMK SC6AC2 SLP117

CYXE;2008-05-25 09:00;CYXE 250900Z 34008KT 15SM BKN045 OVC070 11/09 A2985 RMK SC5AC3 SLP114

CYXE;2008-05-25 09:24;CYXE 250924Z 34008KT 15SM -RA BKN045 OVC070 11/ RMK SC6AC2

CYXE;2008-05-25 10:00;CYXE 251000Z 34006KT 15SM -RA OVC045 11/10 A2986 RMK SC8 SLP116

CYXE;2008-05-25 11:00;CYXE 251100Z 36006KT 15SM -RA BKN040 OVC080 10/10 A2986 RMK SC5AC3 SLP118

CYXE;2008-05-25 12:00;CYXE 251200Z 06016KT 15SM FEW025 BKN040 OVC090 11/09 A2987 RMK SF2SC3AC2 SLP124

CYXE;2008-05-25 12:12;CYXE 251212Z 06015G20KT 15SM -SHRA FEW027 BKN040 OVC090 10/ RMK SF2SC3AC2

CYXE;2008-05-25 13:00;CYXE 251300Z 05015KT 15SM -SHRA BKN036 OVC090 10/09 A2989 RMK SC5AC3 SLP129

CYXE;2008-05-25 14:00;CYXE 251400Z 05018G25KT 15SM BKN018 OVC040 10/09 A2990 RMK SF6SC2 SLP131

CYXE;2008-05-25 15:00;CYXE 251500Z 05018G24KT 15SM BKN016 OVC070 10/08 A2991 RMK SC6AC2 SLP140

CYXE;2008-05-25 16:00;CYXE 251600Z 04018KT 15SM OVC018 09/07 A2993 RMK SC8 SLP147

CYXE;2008-05-25 17:00;CYXE 251700Z 05022KT 15SM OVC018 09/06 A2995 RMK SC8 SLP152

CYXE;2008-05-25 18:00;CYXE 251800Z 05017G22KT 15SM OVC016 09/06 A2997 RMK SC8 SLP162

CYXE;2008-05-25 19:00;CYXE 251900Z 04018KT 15SM OVC020 09/05 A2998 RMK SC8 SLP165

CYXE;2008-05-25 20:00;CYXE 252000Z 04017KT 15SM OVC020 08/04 A2999 RMK SC8 SLP171

CYXE;2008-05-25 21:00;CYXE 252100Z 04018KT 15SM OVC022 09/04 A3001 RMK SC8 SLP176

CYXE;2008-05-25 22:00;CYXE 252200Z 05019KT 15SM BKN030 11/04 A3002 RMK SC7 SLP179

CYXE;2008-05-25 23:00;CYXE 252300Z 05018KT 15SM BKN030 OVC056 11/03 A3003 RMK SC6SC2 SLP182

CYXE;2008-05-25 23:56;CYXE 252356Z 05013KT 15SM -RA SCT030 OVC056 09/ RMK SC3SC5

CYXE;2008-05-26 00:00;CYXE 260000Z 05013KT 15SM -RA SCT030 OVC056 10/04 A3005 RMK SC3SC5 SLP191

CYXE;2008-05-26 01:00;CYXE 260100Z 03015KT 15SM -RA SCT033 SCT056 OVC091 10/03 A3007 RMK SC3SC1AC4 SLP196

CYXE;2008-05-26 01:36;CYXE 260136Z 06014G19KT 15SM VCSH SCT040 SCT056 OVC120 09/ RMK SC3SC1AC4

CYXE;2008-05-26 02:00;CYXE 260200Z 06012KT 15SM VCSH SCT064 OVC120 09/01 A3009 RMK SC3AC5 SLP203

CYXE;2008-05-26 03:00;CYXE 260300Z 05011KT 15SM VCSH OVC060 09/01 A3011 RMK SC8 SLP211

CYXE;2008-05-26 04:00;CYXE 260400Z 06009G15KT 15SM OVC036 08/M01 A3013 RMK SC7 SLP218

CYXE;2008-05-26 05:00;CYXE 260500Z 05012KT 15SM OVC050 08/M01 A3015 RMK SC8 SLP225

CYXE;2008-05-26 06:00;CYXE 260600Z 06007KT 15SM OVC052 08/M00 A3017 RMK SC8 SLP232

CYXE;2008-05-26 07:00;CYXE 260700Z 04007KT 15SM BKN054 OVC080 07/01 A3018 RMK SC6AC2 SLP237

CYXE;2008-05-26 08:00;CYXE 260800Z 05006KT 15SM FEW054 SCT080 04/01 A3020 RMK SC2AC2 SLP243

CYXE;2008-05-26 09:00;CYXE 260900Z 05006KT 15SM SCT085 02/M01 A3021 RMK AC2 SLP251

CYXE;2008-05-26 10:00;CYXE 261000Z 03004KT 15SM FEW085 M00/M02 A3022 RMK AC1 SLP256

CYXE;2008-05-26 11:00;CYXE 261100Z 05007KT 15SM FEW085 M01/M03 A3024 RMK AC1 SLP261

CYXE;2008-05-26 12:00;CYXE 261200Z 06007KT 15SM FEW085 01/M01 A3025 RMK AC2 SLP266

CYXE;2008-05-26 13:00;CYXE 261300Z 08005KT 15SM SKC 04/M00 A3026 RMK SLP269

CYXE;2008-05-26 14:00;CYXE 261400Z 09005KT 15SM FEW300 07/00 A3028 RMK CI0 SLP274

CYXE;2008-05-26 15:00;CYXE 261500Z 10005KT 15SM FEW300 09/M02 A3029 RMK CI0 SLP274

CYXE;2008-05-26 16:00;CYXE 261600Z 10006KT 15SM SKC 10/M04 A3030 RMK SLP276

CYXE;2008-05-26 17:00;CYXE 261700Z 05006KT 15SM SCT300 11/M03 A3030 RMK CS0 SLP276

CYXE;2008-05-26 18:00;CYXE 261800Z 04002KT 15SM BKN300 12/M04 A3030 RMK CS0 SLP275

CYXE;2008-05-26 19:00;CYXE 261900Z 05006KT 15SM FEW300 13/M04 A3030 RMK CS0 SLP276

CYXE;2008-05-26 20:00;CYXE 262000Z 14003KT 15SM FEW300 13/M03 A3029 RMK CS0 SLP274

CYXE;2008-05-26 21:00;CYXE 262100Z 12005KT 15SM SCT300 15/M02 A3028 RMK CS0 SLP272

CYXE;2008-05-26 22:00;CYXE 262200Z 11006KT 15SM SCT300 15/M03 A3027 RMK CS0 SLP270

CYXE;2008-05-26 23:00;CYXE 262300Z 11006KT 15SM SCT300 15/M04 A3027 RMK CI1 SLP269

CYXE;2008-05-27 00:00;CYXE 270000Z 10006KT 15SM FEW300 16/M04 A3027 RMK CI1 SLP268

CYXE;2008-05-27 01:00;CYXE 270100Z 07003KT 15SM SKC 15/M04 A3027 RMK SLP269

CYXE;2008-05-27 02:00;CYXE 270200Z 10003KT 15SM SKC 14/M03 A3028 RMK SLP271

CYXE;2008-05-27 03:00;CYXE 270300Z 12005KT 15SM SKC 11/M04 A3028 RMK SLP270

CYXE;2008-05-27 04:00;CYXE 270400Z 13005KT 15SM SKC 11/M04 A3030 RMK SLP276

CYXE;2008-05-27 05:00;CYXE 270500Z 18003KT 15SM SKC 09/M01 A3030 RMK SLP277

CYXE;2008-05-27 06:00;CYXE 270600Z 17002KT 15SM SKC 05/M03 A3031 RMK SLP282

CYXE;2008-05-27 07:00;CYXE 270700Z 16003KT 15SM SKC 06/M01 A3032 RMK SLP286

CYXE;2008-05-27 08:00;CYXE 270800Z 19003KT 15SM SKC 06/M02 A3032 RMK SLP286

CYXE;2008-05-27 09:00;CYXE 270900Z 21004KT 15SM SKC 04/M02 A3033 RMK SLP287

CYXE;2008-05-27 10:00;CYXE 271000Z 22003KT 15SM FEW250 03/M01 A3034 RMK CI0 SLP289

CYXE;2008-05-27 11:00;CYXE 271100Z 18002KT 15SM MIFG FEW250 03/M00 A3034 RMK CI0 SLP292

CYXE;2008-05-27 12:00;CYXE 271200Z 18002KT 15SM FEW250 03/00 A3036 RMK CI0 OBS TAKEN +09 SLP297

CYXE;2008-05-27 13:00;CYXE 271300Z 21003KT 15SM SKC 06/01 A3036 RMK SLP299

CYXE;2008-05-27 14:00;CYXE 271400Z 22005KT 15SM SKC 10/00 A3037 RMK SLP300

CYXE;2008-05-27 15:00;CYXE 271500Z 23003KT 15SM SKC 12/01 A3036 RMK SLP294

CYXE;2008-05-27 16:00;CYXE 271600Z 18004KT 15SM SKC 14/M01 A3035 RMK SLP293

CYXE;2008-05-27 17:00;CYXE 271700Z 17005KT 15SM SKC 16/00 A3035 RMK SLP291

CYXE;2008-05-27 18:00;CYXE 271800Z 16006KT 15SM SKC 17/00 A3034 RMK SLP289

CYXE;2008-05-27 19:00;CYXE 271900Z 19010G16KT 15SM SKC 17/M03 A3033 RMK SLP285

CYXE;2008-05-27 20:00;CYXE 272000Z 21009G15KT 15SM SKC 18/M03 A3031 RMK SLP281

CYXE;2008-05-27 21:00;CYXE 272100Z 16011KT 15SM SKC 19/M02 A3030 RMK SLP273

CYXE;2008-05-27 22:00;CYXE 272200Z 20010G18KT 15SM SKC 20/M03 A3028 RMK SLP268

CYXE;2008-05-27 23:00;CYXE 272300Z 19008KT 15SM SKC 20/M04 A3026 RMK SLP262

CYXE;2008-05-28 00:00;CYXE 280000Z 17012KT 15SM SKC 20/M04 A3024 RMK SLP256

CYXE;2008-05-28 01:00;CYXE 280100Z 22012KT 15SM SKC 19/M05 A3023 RMK SLP251

CYXE;2008-05-28 02:00;CYXE 280200Z 21009KT 15SM SKC 18/M06 A3022 RMK SLP250

CYXE;2008-05-28 03:00;CYXE 280300Z 21006KT 15SM SKC 14/M06 A3022 RMK SLP247

CYXE;2008-05-28 04:00;CYXE 280400Z 19005KT 15SM SKC 13/M04 A3023 RMK SLP248

CYXE;2008-05-28 05:00;CYXE 280500Z 18007KT 15SM SKC 10/M02 A3022 RMK SLP246

CYXE;2008-05-28 06:00;CYXE 280600Z 19007KT 15SM SKC 09/M04 A3022 RMK SLP245

CYXE;2008-05-28 07:00;CYXE 280700Z 18008KT 15SM SKC 06/M03 A3022 RMK SLP246

CYXE;2008-05-28 08:00;CYXE 280800Z 18008KT 15SM SKC 05/M04 A3021 RMK SLP244

CYXE;2008-05-28 09:00;CYXE 280900Z 19007KT 15SM SKC 06/M04 A3021 RMK SLP241

CYXE;2008-05-28 10:00;CYXE 281000Z 18005KT 15SM FEW250 04/M04 A3020 RMK CI0 SLP239

CYXE;2008-05-28 11:00;CYXE 281100Z 20003KT 15SM FEW250 04/M04 A3020 RMK CI0 SLP240

CYXE;2008-05-28 12:00;CYXE 281200Z 19003KT 15SM FEW100 FEW250 05/M03 A3020 RMK AC1CI0 SLP240

CYXE;2008-05-28 13:00;CYXE 281300Z 18003KT 15SM FEW250 08/M00 A3019 RMK CI0 SLP237

CYXE;2008-05-28 14:00;CYXE 281400Z 16004KT 15SM FEW250 11/M00 A3018 RMK CI0 SLP234

CYXE;2008-05-28 15:00;CYXE 281500Z 18005KT 15SM FEW250 13/02 A3017 RMK CI0 SLP227

CYXE;2008-05-28 16:00;CYXE 281600Z 16008KT 15SM SCT250 16/01 A3015 RMK CI0 SLP221

CYXE;2008-05-28 17:00;CYXE 281700Z 18009G16KT 15SM SCT250 17/01 A3013 RMK CI1 SLP215

CYXE;2008-05-28 18:00;CYXE 281800Z 16009KT 15SM BKN270 18/M01 A3011 RMK CI1 SLP207

CYXE;2008-05-28 19:00;CYXE 281900Z 17010G17KT 15SM BKN270 19/M02 A3009 RMK CI1 SLP200

CYXE;2008-05-28 20:00;CYXE 282000Z 17013G19KT 15SM FEW080 BKN270 20/M01 A3006 RMK CF1CI2 SLP191

CYXE;2008-05-28 21:00;CYXE 282100Z 15012G20KT 15SM FEW080 SCT270 20/00 A3004 RMK CF1CI1 SLP183

CYXE;2008-05-28 22:00;CYXE 282200Z 17011G17KT 15SM FEW080 SCT270 20/02 A3001 RMK AC2CI1 SLP175

CYXE;2008-05-28 23:00;CYXE 282300Z 16012KT 15SM BKN076 19/02 A2999 RMK AC5 SLP169

CYXE;2008-05-29 00:00;CYXE 290000Z 13013G18KT 15SM BKN076 18/02 A2999 RMK AC5 SLP168

CYXE;2008-05-29 01:00;CYXE 290100Z 16012G17KT 15SM BKN076 18/03 A2997 RMK AC6 SLP163

CYXE;2008-05-29 02:00;CYXE 290200Z 16013KT 15SM BKN078 17/03 A2996 RMK AC6 SLP160

CYXE;2008-05-29 03:00;CYXE 290300Z 14010KT 15SM BKN074 16/03 A2995 RMK AC7 SLP152

CYXE;2008-05-29 04:00;CYXE 290400Z 13008KT 15SM OVC072 16/04 A2995 RMK AC7 SLP150

CYXE;2008-05-29 05:00;CYXE 290500Z 13008KT 15SM OVC072 15/04 A2993 RMK AC7 SLP145

CYXE;2008-05-29 06:00;CYXE 290600Z 14008KT 15SM BKN072 15/05 A2992 RMK AC5 SLP138

CYXE;2008-05-29 07:00;CYXE 290700Z 14007KT 15SM BKN078 14/05 A2991 RMK AC6 SLP135

CYXE;2008-05-29 08:00;CYXE 290800Z 14006KT 15SM BKN080 14/06 A2989 RMK AC6 SLP129

CYXE;2008-05-29 09:00;CYXE 290900Z 12007KT 15SM OVC078 14/06 A2986 RMK AC8 SLP119

CYXE;2008-05-29 10:00;CYXE 291000Z 12005KT 15SM BKN060 BKN080 14/06 A2985 RMK SC5AC2 SLP114

CYXE;2008-05-29 11:00;CYXE 291100Z 13006KT 15SM FEW060 BKN090 13/07 A2983 RMK SC2AC5 SLP109

CYXE;2008-05-29 12:00;CYXE 291200Z 14005KT 15SM FEW060 BKN080 13/07 A2982 RMK SC2AC6 SLP107

CYXE;2008-05-29 13:00;CYXE 291300Z 14005KT 15SM FEW060 BKN085 14/07 A2981 RMK SC2AC6 SLP104

CYXE;2008-05-29 14:00;CYXE 291400Z 17006KT 15SM BKN089 15/08 A2981 RMK AC7 SLP102

CYXE;2008-05-29 15:00;CYXE 291500Z 15007KT 15SM BKN089 16/09 A2980 RMK AC7 SLP099

CYXE;2008-05-29 16:00;CYXE 291600Z 17009KT 15SM BKN091 18/09 A2979 RMK AC6 SLP094

CYXE;2008-05-29 17:00;CYXE 291700Z 16014KT 15SM BKN060 BKN090 20/10 A2979 RMK SC5AC2 SHWRS N-E TCU SW SLP094

CYXE;2008-05-29 18:00;CYXE 291800Z 17011KT 15SM BKN050TCU BKN090 18/10 A2978 RMK TCU5AC2 SLP090

CYXE;2008-05-29 19:00;CYXE 291900Z 15012KT 15SM BKN060TCU BKN090 21/10 A2975 RMK TCU5AC1 SLP082

CYXE;2008-05-29 20:00;CYXE 292000Z 17013KT 15SM SCT068TCU BKN090 23/07 A2974 RMK TCU4AC1 SLP077

CYXE;2008-05-29 21:00;CYXE 292100Z 18012KT 15SM BKN070 23/07 A2971 RMK CU6 CB TOPS W-NW SLP066

CYXE;2008-05-29 22:00;CYXE 292200Z 12007KT 15SM SCT075 23/07 A2970 RMK AC4 CB TOP DIST NW SLP063

CYXE;2008-05-29 23:00;CYXE 292300Z 17008KT 15SM VCSH BKN075 BKN300 23/07 A2969 RMK AC5CI1 CB W LTGICCG SLP060

CYXE;2008-05-30 00:00;CYXE 300000Z 18007KT 15SM VCSH BKN075CB BKN300 22/06 A2969 RMK CB5CI2 SLP059

CYXE;2008-05-30 02:00;CYXE 300200Z 10006KT 15SM BKN090 BKN300 21/08 A2968 RMK ACC4CI1 SLP056

CYXE;2008-05-30 03:00;CYXE 300300Z 07007KT 15SM FEW090 BKN300 16/10 A2969 RMK AC2CI1 SLP061

CYXE;2008-05-30 04:00;CYXE 300400Z 16010KT 15SM FEW080 SCT300 17/09 A2970 RMK AC2CI1 CB DIST W-NW SLP063

CYXE;2008-05-30 05:00;CYXE 300500Z 17009KT 15SM -SHRA BKN080 BKN300 16/10 A2971 RMK ACC5CI1 SLP067

CYXE;2008-05-30 05:49;CYXE 300549Z 12006KT 15SM BKN077 15/ RMK AC6

CYXE;2008-05-30 06:00;CYXE 300600Z 13007KT 15SM BKN077 14/10 A2971 RMK AC6 SLP068

CYXE;2008-05-30 06:57;CYXE 300657Z 18015G25KT 6SM -SHRA BR BKN010 BKN077 15/ RMK SF5AC1

CYXE;2008-05-30 07:00;CYXE 300700Z 18015G25KT 4SM R09/4000VP6000FT/D SHRA BR OVC007 15/12 A2972 RMK SF8 SLP069

CYXE;2008-05-30 07:21;CYXE 300721Z 16008KT 15SM -SHRA FEW007 SCT110 14/ RERA RMK SF2AC2

CYXE;2008-05-30 07:34;CYXE 300734Z 16006KT 15SM FEW009 FEW093 13/ RMK SF1AC2

CYXE;2008-05-30 08:00;CYXE 300800Z 17006KT 15SM SKC 13/11 A2971 RERA RMK SLP066

CYXE;2008-05-30 09:00;CYXE 300900Z 19006KT 15SM FEW095 12/10 A2970 RMK AC1 SLP063

CYXE;2008-05-30 10:00;CYXE 301000Z 19008KT 15SM FEW100 SCT250 12/10 A2970 RMK AC1CI1 SLP061

CYXE;2008-05-30 11:00;CYXE 301100Z 21004KT 15SM FEW100 BKN250 11/09 A2970 RMK ACC2CI1 SLP062

CYXE;2008-05-30 12:00;CYXE 301200Z 24005KT 15SM FEW110 BKN250 09/09 A2972 RMK AC2CI1 SLP070

CYXE;2008-05-30 13:00;CYXE 301300Z 30008KT 15SM BKN110 BKN250 13/11 A2973 RMK AC5CI0 SLP074

CYXE;2008-05-30 14:00;CYXE 301400Z 32009KT 15SM SCT084 BKN092 13/11 A2973 RMK AC3AC4 SLP075

CYXE;2008-05-30 15:00;CYXE 301500Z 32012KT 15SM SCT065 BKN094 15/12 A2972 RMK SC3AC3 SLP073

CYXE;2008-05-30 16:00;CYXE 301600Z 33014G19KT 15SM FEW065 FEW095 18/12 A2973 RMK CU2AC1 SLP074

CYXE;2008-05-30 17:00;CYXE 301700Z 31014KT 15SM BKN075 BKN095 19/11 A2974 RMK CU5AC1 SLP078

CYXE;2008-05-30 18:00;CYXE 301800Z 32017G22KT 15SM BKN077 BKN095 20/09 A2974 RMK CU5AC1 SLP075

CYXE;2008-05-30 19:00;CYXE 301900Z 30018G24KT 15SM BKN065 22/09 A2974 RMK CU5 SLP075

CYXE;2008-05-30 20:00;CYXE 302000Z 29016G22KT 15SM BKN065 23/07 A2973 RMK CU5 TCU EMBDD N SLP073

CYXE;2008-05-30 21:00;CYXE 302100Z CCA 30020G27KT 15SM BKN065 23/07 A2972 RMK CU5 TCU EMBD N SLP069

CYXE;2008-05-30 22:00;CYXE 302200Z 32022G27KT 15SM SCT065 22/08 A2972 RMK CU3 SLP070

CYXE;2008-05-30 23:00;CYXE 302300Z 32021G28KT 15SM SCT065CB 22/09 A2974 RMK CB4 CB TOPS MOVING N-SE SLP074

CYXE;2008-05-31 00:00;CYXE 310000Z 36018G25KT 15SM SCT055CB BKN300 19/11 A2977 RMK CB4CI1 SLP091

CYXE;2008-05-31 01:00;CYXE 310100Z 34018G24KT 15SM FEW055CB SCT300 19/09 A2979 RMK CB2CI2 SLP098

CYXE;2008-05-31 02:00;CYXE 310200Z 34014KT 15SM FEW090 SCT300 16/10 A2983 RMK ACC1CI1 SLP110

CYXE;2008-05-31 03:00;CYXE 310300Z 36008KT 15SM FEW080 14/09 A2986 RMK ACC2 SLP119

CYXE;2008-05-31 04:00;CYXE 310400Z 01006KT 15SM SKC 11/08 A2989 RMK SLP131

CYXE;2008-05-31 05:00;CYXE 310500Z 01005KT 15SM FEW300 09/07 A2991 RMK CI0 SLP138

CYXE;2008-05-31 06:00;CYXE 310600Z 01006KT 15SM FEW280 08/07 A2994 RMK CI0 SLP148

CYXE;2008-05-31 07:00;CYXE 310700Z 32004KT 15SM SKC 07/06 A2995 RMK SLP151

CYXE;2008-05-31 08:00;CYXE 310800Z 31006KT 15SM SKC 05/05 A2995 RMK SLP153

CYXE;2008-05-31 09:00;CYXE 310900Z 29008KT 15SM FEW250 04/04 A2996 RMK CI1 SLP155

CYXE;2008-05-31 10:00;CYXE 311000Z 28007KT 15SM FEW250 04/04 A2997 RMK CI0 SLP158

CYXE;2008-05-31 11:00;CYXE 311100Z 28006KT 6SM BR FEW250 03/03 A2998 RMK CI0 SLP161

CYXE;2008-05-31 12:00;CYXE 311200Z 26005KT 6SM BR FEW250 05/05 A2998 RMK CI0 HZ SLP163

CYXE;2008-05-31 13:00;CYXE 311300Z 27004KT 15SM FEW250 08/07 A2998 RMK CI0 SLP163

CYXE;2008-05-31 14:00;CYXE 311400Z 26005KT 15SM FEW250 12/08 A2997 RMK CI0 SLP162

CYXE;2008-05-31 15:00;CYXE 311500Z 24008KT 15SM FEW250 15/06 A2997 RMK CI0 SLP158

CYXE;2008-05-31 16:00;CYXE 311600Z 26008KT 15SM SCT250 16/06 A2995 RMK CI0 SLP152

CYXE;2008-05-31 17:00;CYXE 311700Z 24008G17KT 15SM SCT250 19/07 A2994 RMK CI0 SLP147

CYXE;2008-05-31 18:00;CYXE 311800Z 25008G15KT 15SM FEW050 FEW100 SCT250 21/08 A2991 RMK CU1AC1CI1 SLP137

CYXE;2008-05-31 19:00;CYXE 311900Z 28012G18KT 15SM FEW050CB SCT250 22/07 A2989 RMK CB2CI1 SLP130

CYXE;2008-05-31 19:48;CYXE 311948Z 31012KT 15SM -SHRA SCT066CB BKN100 20/ RMK CB3AC1

CYXE;2008-05-31 20:00;CYXE 312000Z 32013KT 15SM VCSH SCT066CB BKN090 21/09 A2987 RMK CB3AC1 VIRGA S SLP124

CYXE;2008-05-31 21:00;CYXE 312100Z 28012G17KT 15SM VCSH SCT070CB BKN300 23/08 A2984 RMK CB3CI1 SLP114

CYXE;2008-05-31 21:38;CYXE 312138Z CCA 27019G27KT 15SM TS VCSH BKN070CB BKN300 22/ RMK CB6CI1 LTGICCG NW

CYXE;2008-05-31 22:00;CYXE 312200Z 30018G25KT 15SM TS VCSH BKN070CB BKN095 OVC300 21/07 A2987 RMK CB6AC1CI1 LTGICCG N SLP123

CYXE;2008-05-31 22:18;CYXE 312218Z 32011KT 15SM -TSRA BKN070CB OVC300 16/ RMK CB6CI2 LTNG

CYXE;2008-05-31 22:45;CYXE 312245Z 26008KT 15SM VCSH SCT070CB BKN300 17/ RETS RMK CB3CI2

CYXE;2008-05-31 23:00;CYXE 312300Z 26009KT 15SM FEW070CB BKN300 19/12 A2984 RETS RMK CB2CI2 SLP115

CYXE;2008-06-01 01:00;CYXE 010100Z 29008KT 15SM SCT080 BKN300 22/09 A2984 RMK ACC4CI0 SLP115

CYXE;2008-06-01 02:00;CYXE 010200Z 33010KT 15SM FEW080 BKN300 20/07 A2985 RMK ACC1CI1 SLP117

CYXE;2008-06-01 03:00;CYXE 010300Z 33008KT 15SM FEW090 SCT300 15/07 A2987 RMK ACC1CI2 SLP125

CYXE;2008-06-01 04:00;CYXE 010400Z 34005KT 15SM FEW090 SCT300 13/05 A2990 RMK AC1CI0 SLP134

CYXE;2008-06-01 05:00;CYXE 010500Z 36009KT 15SM FEW090 FEW300 09/05 A2993 RMK AC1CI0 SLP142

CYXE;2008-06-01 06:00;CYXE 010600Z 04011KT 15SM FEW300 11/06 A2995 RMK CI0 SLP149

CYXE;2008-06-01 07:00;CYXE 010700Z 03011KT 15SM SKC 10/06 A2997 RMK SLP156

CYXE;2008-06-01 08:00;CYXE 010800Z 02011KT 15SM SKC 09/04 A2999 RMK SLP162

CYXE;2008-06-01 09:00;CYXE 010900Z 02009KT 15SM FEW120 08/05 A3001 RMK AC2 SLP172

CYXE;2008-06-01 10:00;CYXE 011000Z 03010KT 15SM FEW120 06/04 A3003 RMK AC2 SLP176

CYXE;2008-06-01 11:00;CYXE 011100Z 01006KT 15SM FEW120 03/02 A3005 RMK AC2 SLP183

CYXE;2008-06-01 12:00;CYXE 011200Z 36004KT 15SM FEW120 04/03 A3006 RMK AC1 SLP191

CYXE;2008-06-01 13:00;CYXE 011300Z 04010KT 15SM FEW120 08/04 A3008 RMK AC1 SLP197

CYXE;2008-06-01 14:00;CYXE 011400Z 05009KT 15SM FEW120 10/04 A3009 RMK AC1 SLP201

CYXE;2008-06-01 15:00;CYXE 011500Z 06008KT 15SM FEW120 11/04 A3010 RMK AC1 SLP204

CYXE;2008-06-01 16:00;CYXE 011600Z 07008KT 15SM FEW120 13/02 A3010 RMK AC1 SLP205

CYXE;2008-06-01 17:00;CYXE 011700Z 09007KT 15SM FEW120 14/M01 A3010 RMK AC1 SLP205

CYXE;2008-06-01 18:00;CYXE 011800Z 07004KT 15SM FEW040 FEW120 FEW250 15/M01 A3009 RMK CU1AC1CI0 SLP202

CYXE;2008-06-01 19:00;CYXE 011900Z 07008KT 15SM FEW120 FEW250 16/M02 A3008 RMK AC1CI0 SLP200

CYXE;2008-06-01 20:00;CYXE 012000Z 10005KT 15SM FEW060 FEW120 SCT250 16/M01 A3008 RMK CU1AC1CI0 SLP198

CYXE;2008-06-01 21:00;CYXE 012100Z 07009KT 15SM FEW060 FEW120 FEW250 17/M00 A3006 RMK CU1AC1CI0 SLP191

CYXE;2008-06-01 22:00;CYXE 012200Z 32005KT 15SM FEW060 FEW120 SCT250 18/01 A3006 RMK CU1AC2CI0 SLP190

CYXE;2008-06-01 23:00;CYXE 012300Z 03005KT 15SM FEW060 FEW120 18/M01 A3004 RMK CU1AC1 SLP185

CYXE;2008-06-02 00:00;CYXE 020000Z 05005KT 15SM FEW065 FEW120 18/00 A3003 RMK CU1AC1 SLP183

CYXE;2008-06-02 01:00;CYXE 020100Z 11006KT 15SM FEW065 FEW120 18/00 A3002 RMK CU1AC1 SLP180

CYXE;2008-06-02 02:00;CYXE 020200Z 05006KT 15SM FEW120 16/02 A3002 RMK AC1 SLP178

CYXE;2008-06-02 03:00;CYXE 020300Z 07007KT 15SM FEW120 FEW230 13/03 A3003 RMK AC1CI0 SLP180

CYXE;2008-06-02 04:00;CYXE 020400Z 09008KT 15SM FEW120 FEW230 09/01 A3004 RMK AC1CI0 SLP186

CYXE;2008-06-02 05:00;CYXE 020500Z 10006KT 15SM FEW120 FEW230 09/01 A3005 RMK AC1CI0 SLP187

CYXE;2008-06-02 06:00;CYXE 020600Z 12005KT 15SM SKC 08/01 A3004 RMK SLP187

CYXE;2008-06-02 07:00;CYXE 020700Z 13002KT 15SM SKC 08/01 A3004 RMK SLP185

CYXE;2008-06-02 08:00;CYXE 020800Z 13005KT 15SM FEW250 08/01 A3003 RMK CI1 SLP182

CYXE;2008-06-02 09:00;CYXE 020900Z 14006KT 15SM FEW250 07/02 A3002 RMK CI1 SLP179

CYXE;2008-06-02 10:00;CYXE 021000Z 14007KT 15SM FEW120 FEW250 07/01 A3001 RMK AC1CI1 SLP176

CYXE;2008-06-02 11:00;CYXE 021100Z 17004KT 15SM FEW200 SCT250 07/02 A3000 RMK CI2CI1 SLP173

CYXE;2008-06-02 12:00;CYXE 021200Z 16006KT 15SM SCT240 09/02 A3000 RMK CI2 SLP171

CYXE;2008-06-02 13:00;CYXE 021300Z 17007KT 15SM BKN240 11/02 A3001 RMK CI2 SLP174

CYXE;2008-06-02 14:00;CYXE 021400Z 15006KT 15SM BKN250 14/03 A3001 RMK CI2 SLP172

CYXE;2008-06-02 15:00;CYXE 021500Z 17007KT 15SM BKN250 16/03 A3001 RMK CI2 SLP171

CYXE;2008-06-02 16:00;CYXE 021600Z 16012KT 15SM SCT220 OVC270 18/00 A2998 RMK CC2CI2 SLP163

CYXE;2008-06-02 17:00;CYXE 021700Z 16010G15KT 15SM SCT220 OVC300 18/02 A2997 RMK CC2CI2 SLP158

CYXE;2008-06-02 18:00;CYXE 021800Z 13012KT 15SM FEW120 BKN300 19/01 A2996 RMK AC2CI2 SLP156

CYXE;2008-06-02 19:00;CYXE 021900Z 16010G16KT 15SM FEW160 OVC300 19/01 A2995 RMK AC2CS4 SLP151

CYXE;2008-06-02 20:00;CYXE 022000Z 16006G15KT 15SM SCT160 OVC300 19/M00 A2992 RMK AC3CS3 SLP143

CYXE;2008-06-02 21:00;CYXE 022100Z 15007KT 15SM BKN160 BKN300 19/00 A2990 RMK AC6CS1 SLP136

CYXE;2008-06-02 22:00;CYXE 022200Z 15006KT 15SM BKN160 BKN300 19/01 A2989 RMK AC6CS1 SLP131

CYXE;2008-06-02 23:00;CYXE 022300Z 17008KT 15SM BKN160 BKN300 19/01 A2987 RMK AC6CS2 SLP125

CYXE;2008-06-03 00:00;CYXE 030000Z 16007KT 15SM BKN160 BKN300 18/01 A2985 RMK AC6CS1 SLP117

CYXE;2008-06-03 01:00;CYXE 030100Z 10008KT 15SM BKN160 BKN300 18/01 A2983 RMK AC5CS2 SLP111

CYXE;2008-06-03 02:00;CYXE 030200Z 09010KT 15SM BKN160 BKN300 17/02 A2981 RMK AC5CI1 SLP107

CYXE;2008-06-03 03:00;CYXE 030300Z 10009KT 15SM BKN120 BKN250 16/02 A2981 RMK AC5CI0 SLP102

CYXE;2008-06-03 04:00;CYXE 030400Z 09007KT 15SM SCT120 BKN250 14/02 A2981 RMK AC3CI2 SLP102

CYXE;2008-06-03 05:00;CYXE 030500Z 08011KT 15SM SCT090 BKN250 14/02 A2979 RMK AC3CI1 SLP094

CYXE;2008-06-03 06:00;CYXE 030600Z 09008KT 15SM BKN080 12/03 A2978 RMK AC5 SLP092

CYXE;2008-06-03 07:00;CYXE 030700Z 12008KT 15SM BKN080 14/04 A2977 RMK AC6 SLP088

CYXE;2008-06-03 08:00;CYXE 030800Z 14008KT 15SM SCT080 BKN250 13/04 A2975 RMK AC2CI1 SLP082

CYXE;2008-06-03 09:00;CYXE 030900Z 15007KT 15SM BKN100 OVC250 14/08 A2974 RMK AC6CI2 SLP077

CYXE;2008-06-03 10:00;CYXE 031000Z 14007KT 15SM BKN085 OVC250 13/08 A2972 RMK AC6CI2 SLP072

CYXE;2008-06-03 11:00;CYXE 031100Z 13007KT 15SM BKN085 OVC250 12/07 A2972 RMK AC6CI2 SLP070

CYXE;2008-06-03 12:00;CYXE 031200Z 14010G15KT 15SM BKN100 OVC250 12/07 A2971 RMK AC6CI1 SLP069

CYXE;2008-06-03 13:00;CYXE 031300Z 14010KT 15SM BKN100 OVC250 13/07 A2971 RMK AC6CI2 SLP068

CYXE;2008-06-03 14:00;CYXE 031400Z 15011KT 15SM BKN100 BKN270 13/07 A2970 RMK AC6CI1 SLP066

CYXE;2008-06-03 15:00;CYXE 031500Z 15010KT 15SM BKN100 BKN270 14/08 A2970 RMK AC6CI0 SLP065

CYXE;2008-06-03 16:00;CYXE 031600Z 16009KT 15SM SCT100 BKN270 15/08 A2969 RMK AC2CI2 SLP063

CYXE;2008-06-03 17:00;CYXE 031700Z 15010G15KT 15SM SCT038 BKN270 17/08 A2968 RMK CU3CI1 SLP060

CYXE;2008-06-03 18:00;CYXE 031800Z 17009KT 15SM SCT036 BKN110 BKN270 17/08 A2967 RMK CU4AC1CI1 SLP055

CYXE;2008-06-03 19:00;CYXE 031900Z 12008KT 15SM BKN040 BKN110 18/07 A2966 RMK CU5AC2 SLP051

CYXE;2008-06-03 20:00;CYXE 032000Z 14012G20KT 15SM SCT049 BKN280 18/06 A2965 RMK SC3CI0 SLP048

CYXE;2008-06-03 21:00;CYXE 032100Z 16013G21KT 15SM FEW054 BKN280 18/06 A2964 RMK SC2CI0 SLP044

CYXE;2008-06-03 22:00;CYXE 032200Z 16013KT 15SM FEW051 SCT280 18/07 A2963 RMK SC2CI0 SLP039

CYXE;2008-06-03 23:00;CYXE 032300Z 15011G16KT 15SM FEW049 SCT300 18/07 A2961 RMK SC2CI0 SLP034

CYXE;2008-06-04 00:00;CYXE 040000Z 15010G15KT 15SM FEW052 BKN250 18/06 A2960 RMK CU2CI2 SLP031

CYXE;2008-06-04 01:00;CYXE 040100Z 12010KT 15SM FEW052 SCT300 18/05 A2960 RMK CU1CI1 SLP030

CYXE;2008-06-04 02:00;CYXE 040200Z 13013KT 15SM SCT300 16/04 A2959 RMK CI2 SLP029

CYXE;2008-06-04 03:00;CYXE 040300Z 14007KT 15SM FEW120 SCT300 14/05 A2959 RMK AC2CI0 SLP030

CYXE;2008-06-04 04:00;CYXE 040400Z 16004KT 15SM FEW300 11/06 A2960 RMK CI1 SLP033

CYXE;2008-06-04 05:00;CYXE 040500Z 17003KT 15SM FEW300 10/06 A2960 RMK CI1 SLP033

CYXE;2008-06-04 06:00;CYXE 040600Z 21002KT 15SM FEW300 10/06 A2961 RMK CI1 SLP035

CYXE;2008-06-04 07:00;CYXE 040700Z 17004KT 15SM SKC 08/06 A2960 RMK SLP034

CYXE;2008-06-04 08:00;CYXE 040800Z 00000KT 15SM SKC 05/05 A2960 RMK SLP034

CYXE;2008-06-04 09:00;CYXE 040900Z 28002KT 15SM FEW250 03/03 A2960 RMK CI1 SLP038

CYXE;2008-06-04 10:00;CYXE 041000Z 00000KT 10SM MIFG FEW110 FEW250 04/04 A2960 RMK AC2CI0 SLP037

CYXE;2008-06-04 11:00;CYXE 041100Z 29003KT 8SM MIFG BKN078 BKN250 05/05 A2961 RMK AC6CI0 ACC EMBD SLP040

CYXE;2008-06-04 12:00;CYXE 041200Z 00000KT 10SM BKN080 BKN250 07/07 A2962 RMK AC6CI1 BR SLP041

CYXE;2008-06-04 13:00;CYXE 041300Z 26004KT 15SM BKN085 BKN250 10/08 A2963 RMK AC5CI0 SLP044

CYXE;2008-06-04 14:00;CYXE 041400Z 26004KT 15SM FEW090 FEW250 13/08 A2963 RMK AC1CI0 SLP046

CYXE;2008-06-04 15:00;CYXE 041500Z 27005KT 15SM FEW120 15/08 A2963 RMK AC0 SLP042

CYXE;2008-06-04 16:00;CYXE 041600Z 33004KT 15SM FEW280 18/07 A2963 RMK CI0 SLP043

CYXE;2008-06-04 17:00;CYXE 041700Z 32005KT 15SM FEW120 19/07 A2963 RMK AC1 SLP041

CYXE;2008-06-04 18:00;CYXE 041800Z 36005KT 15SM FEW052TCU FEW120 21/07 A2963 RMK TCU1AC1 SLP041

CYXE;2008-06-04 19:00;CYXE 041900Z 06007KT 15SM SCT060 23/07 A2963 RMK SC4 TCU EMBD SLP040

CYXE;2008-06-04 20:00;CYXE 042000Z 02012KT 15SM VCSH BKN070 21/05 A2963 RMK CU6 TCU EMBD SLP042

CYXE;2008-06-04 21:00;CYXE 042100Z 30008KT 15SM VCSH BKN072 20/08 A2966 RMK CU7 TCU EMBD SLP055

CYXE;2008-06-04 21:32;CYXE 042132Z 05012KT 15SM -SHRA BKN064 BKN080 19/ RMK SC6AC1 TCU EMBD

CYXE;2008-06-04 22:00;CYXE 042200Z 34006G17KT 12SM -SHRA BKN056 BKN080 16/08 A2969 RERA RMK SC6AC1 TCU EMBD SLP067

CYXE;2008-06-04 23:00;CYXE 042300Z 22007KT 15SM -SHRA BKN048 BKN080 17/12 A2968 RMK SC6AC2 TCU EMBD SLP064

CYXE;2008-06-04 23:22;CYXE 042322Z 21003KT 15SM BKN065 BKN080 18/ RMK SC5AC2 TCU EMBD

CYXE;2008-06-05 00:00;CYXE 050000Z 30002KT 15SM VCSH SCT060 BKN094 19/11 A2970 RMK SC4AC3 SLP067

CYXE;2008-06-05 01:00;CYXE 050100Z 05012KT 15SM BKN084 BKN270 17/11 A2972 RMK AC6CI0 SLP073

CYXE;2008-06-05 02:00;CYXE 050200Z 32004KT 15SM BKN093 BKN270 16/12 A2971 RMK AC6CI0 SLP069

CYXE;2008-06-05 03:00;CYXE 050300Z 03007KT 15SM BKN090 16/11 A2972 RMK AC5 SLP073

CYXE;2008-06-05 04:00;CYXE 050400Z 03005KT 15SM SCT090 12/10 A2974 RMK AC3 SLP077

CYXE;2008-06-05 05:00;CYXE 050500Z 05004KT 15SM FEW090 FEW270 12/09 A2974 RMK AC1CI0 SLP079

CYXE;2008-06-05 06:00;CYXE 050600Z 11003KT 15SM SKC 11/09 A2976 RMK SLP084

CYXE;2008-06-05 07:00;CYXE 050700Z 07003KT 15SM SKC 10/09 A2976 RMK SLP085

CYXE;2008-06-05 08:00;CYXE 050800Z 29004KT 15SM SKC 08/08 A2976 RMK SLP085

CYXE;2008-06-05 09:00;CYXE 050900Z 26002KT 15SM SKC 08/08 A2978 RMK SLP093

CYXE;2008-06-05 10:00;CYXE 051000Z CCA 35004KT 15SM PRFG SKC 06/06 A2977 RMK SLP092

CYXE;2008-06-05 11:00;CYXE 051100Z 05004KT 15SM PRFG SKC 05/05 A2978 RMK SLP094

CYXE;2008-06-05 12:00;CYXE 051200Z 10003KT 15SM SKC 08/08 A2979 RMK SLP098

CYXE;2008-06-05 13:00;CYXE 051300Z 06003KT 15SM FEW120 11/11 A2981 RMK AC1 SLP103

CYXE;2008-06-05 14:00;CYXE 051400Z 12005KT 15SM FEW120 15/11 A2981 RMK AC1 SLP105

CYXE;2008-06-05 15:00;CYXE 051500Z 12004KT 15SM FEW120 18/11 A2981 RMK AC1 SLP099

CYXE;2008-06-05 16:00;CYXE 051600Z 14009KT 15SM FEW120 FEW270 21/09 A2979 RMK AC1CI1 SLP095

CYXE;2008-06-05 17:00;CYXE 051700Z 16005KT 15SM FEW060 FEW270 23/09 A2979 RMK CU1CI0 SLP094

CYXE;2008-06-05 18:00;CYXE 051800Z 16008KT 15SM SCT060 BKN270 23/07 A2978 RMK CU4CI0 SLP090

CYXE;2008-06-05 19:00;CYXE 051900Z 15007G17KT 15SM SCT073 24/07 A2976 RMK CU4 SLP084

CYXE;2008-06-05 20:00;CYXE 052000Z 19007KT 15SM SCT082 25/06 A2974 RMK CU4 SLP077

CYXE;2008-06-05 21:00;CYXE 052100Z 14010KT 15SM SCT095 25/06 A2972 RMK CU3 TCU ASOCTD SLP071

CYXE;2008-06-05 22:00;CYXE 052200Z 15011G18KT 15SM SCT090 25/05 A2971 RMK CU3 SLP067

CYXE;2008-06-05 23:00;CYXE 052300Z 16012G17KT 15SM FEW090 SCT270 25/06 A2970 RMK CU2CI0 CONTRAILS SLP064

CYXE;2008-06-06 00:00;CYXE 060000Z 16017KT 15SM FEW080 FEW250 24/04 A2970 RMK CU2CI0 SLP064

CYXE;2008-06-06 01:00;CYXE 060100Z 16012G17KT 15SM FEW080 23/03 A2969 RMK CU2 SLP060

CYXE;2008-06-06 02:00;CYXE 060200Z 15012KT 15SM SCT270 22/04 A2968 RMK CI0 CONTRAILS SLP056

CYXE;2008-06-06 03:00;CYXE 060300Z 15010KT 15SM BKN270 20/05 A2967 RMK CI0 SLP049

CYXE;2008-06-06 04:00;CYXE 060400Z 15012G18KT 15SM BKN270 18/05 A2967 RMK CI0 CONTRAILS SLP049

CYXE;2008-06-06 05:00;CYXE 060500Z 15014KT 15SM SCT270 17/05 A2966 RMK CI0 SLP048

CYXE;2008-06-06 06:00;CYXE 060600Z 16012KT 15SM FEW280 16/05 A2965 RMK CI0 SLP043

CYXE;2008-06-06 07:00;CYXE 060700Z 16010KT 15SM FEW280 14/05 A2963 RMK CI0 SLP037

CYXE;2008-06-06 08:00;CYXE 060800Z 15008KT 15SM SCT280 13/06 A2962 RMK CI2 SLP032

CYXE;2008-06-06 09:00;CYXE 060900Z 14007KT 15SM SCT280 12/06 A2960 RMK CI2 SLP028

CYXE;2008-06-06 10:00;CYXE 061000Z 12005KT 15SM SCT100 BKN280 11/06 A2959 RMK AC4CI1 SLP025

CYXE;2008-06-06 11:00;CYXE 061100Z 13005KT 15SM SCT100 BKN280 10/06 A2958 RMK AC4CI1 SLP020

CYXE;2008-06-06 12:00;CYXE 061200Z 13006KT 15SM SCT100 BKN280 11/07 A2956 RMK AC3CS3 SLP015

CYXE;2008-06-06 13:00;CYXE 061300Z 13008KT 15SM SCT100 BKN280 12/07 A2955 RMK AC4CS2 SLP011

CYXE;2008-06-06 14:00;CYXE 061400Z 13008KT 15SM SCT100 OVC280 14/08 A2953 RMK AC4CS3 SLP006

CYXE;2008-06-06 15:00;CYXE 061500Z 14009KT 15SM FEW100 OVC280 16/08 A2952 RMK AC2CS5 SLP000

CYXE;2008-06-06 16:00;CYXE 061600Z 10010G15KT 15SM FEW050 OVC280 18/07 A2949 RMK CU2CS6 SLP991

CYXE;2008-06-06 17:00;CYXE 061700Z 16010G15KT 15SM FEW050 SCT090 OVC280 19/07 A2947 RMK CU2AC2CI2 SLP985

CYXE;2008-06-06 18:00;CYXE 061800Z 10009G16KT 15SM SCT055 OVC120 21/07 A2946 RMK CU3AS3 SLP978

CYXE;2008-06-06 19:00;CYXE 061900Z 11015KT 15SM SCT065 OVC120 20/06 A2945 RMK CU3CS3 SLP975

CYXE;2008-06-06 20:00;CYXE 062000Z 10009KT 15SM SCT067 OVC120 21/06 A2943 RMK CU3AS3 SLP969

CYXE;2008-06-06 21:00;CYXE 062100Z 08006KT 15SM SCT070 BKN120 OVC280 21/04 A2941 RMK CU3AS2CS2 SLP965

CYXE;2008-06-06 22:00;CYXE 062200Z 07007KT 15SM SCT074 BKN120 OVC280 22/05 A2940 RMK CU3AS2CI1 SLP960

CYXE;2008-06-06 23:00;CYXE 062300Z 11005KT 15SM SCT085 BKN120 OVC280 21/03 A2939 RMK CU3AS2CI1 SLP959

CYXE;2008-06-07 00:00;CYXE 070000Z 10007KT 15SM SCT065 BKN120 OVC280 21/04 A2939 RMK CU3AS2CS1 SLP959

CYXE;2008-06-07 01:00;CYXE 070100Z 08005KT 15SM FEW058 SCT120 OVC280 20/05 A2939 RMK CU2AS2CS2 SLP958

CYXE;2008-06-07 02:00;CYXE 070200Z 05003KT 15SM SCT045 OVC280 19/08 A2939 RMK SC4CS2 SLP959

CYXE;2008-06-07 03:00;CYXE 070300Z 07009KT 15SM BKN080 OVC280 18/07 A2940 RMK AC5CS2 SLP961

CYXE;2008-06-07 04:00;CYXE 070400Z 12009KT 15SM SCT080 OVC280 17/06 A2941 RMK AC4CS2 SLP963

CYXE;2008-06-07 05:00;CYXE 070500Z 14006KT 15SM SCT080 OVC280 16/06 A2941 RMK AC3CS1 SLP964

CYXE;2008-06-07 06:00;CYXE 070600Z 12007KT 15SM FEW100 OVC280 15/06 A2941 RMK AC2CS2 SLP963

CYXE;2008-06-07 07:00;CYXE 070700Z 15005KT 15SM BKN100 OVC280 14/08 A2941 RMK AC6CS2 SLP961

CYXE;2008-06-07 08:00;CYXE 070800Z 20003KT 15SM BKN072 OVC280 13/08 A2940 RMK AC6CS2 SLP959

CYXE;2008-06-07 08:30;CYXE 070830Z 01012G19KT 15SM -RA OVC070 13/ RMK AC8

CYXE;2008-06-07 09:00;CYXE 070900Z 18009KT 15SM -RA SCT026 OVC070 13/09 A2941 RMK SC4AC4 LTNG DIST E SLP964

CYXE;2008-06-07 09:22;CYXE 070922Z 19009KT 15SM SCT032 OVC086 13/ RMK SC4AC4

CYXE;2008-06-07 09:50;CYXE 070950Z CCA 06022G31KT 15SM -RA SCT039 OVC072 13/ RMK SC4AC4 WIND SHIFT

CYXE;2008-06-07 10:00;CYXE 071000Z 07016G27KT 15SM -RA SCT039 OVC072 12/10 A2946 RMK SC4AC4 SLP981

CYXE;2008-06-07 11:00;CYXE 071100Z 13008KT 15SM FEW013 SCT040 OVC100 11/09 A2946 RMK SF2SC2AC4 SLP979

CYXE;2008-06-07 12:00;CYXE 071200Z 00000KT 15SM SCT040 OVC090 12/10 A2946 RMK SC4AC4 SLP983

CYXE;2008-06-07 13:00;CYXE 071300Z 21002KT 15SM -RA BKN032 OVC076 12/11 A2950 RMK SC6AC2 SLP993

CYXE;2008-06-07 13:42;CYXE 071342Z 00000KT 15SM BKN032 OVC078 13/ RMK SC5AC3

CYXE;2008-06-07 14:00;CYXE 071400Z 20002KT 15SM FEW040 OVC080 13/11 A2950 RMK SC1ACC7 SLP996

CYXE;2008-06-07 14:46;CYXE 071446Z 01005KT 15SM -SHRA OVC080 14/ RMK ACC8

CYXE;2008-06-07 15:00;CYXE 071500Z 05005KT 15SM -SHRA OVC080 14/10 A2954 RMK ACC8 SLP008

CYXE;2008-06-07 16:00;CYXE 071600Z 16007KT 15SM -SHRA OVC070 14/09 A2954 RMK AC8 ACC EMBD SLP009

CYXE;2008-06-07 17:00;CYXE 071700Z 19009KT 15SM VCSH OVC080 14/09 A2955 RMK AC8 SLP011

CYXE;2008-06-07 18:00;CYXE 071800Z 20008KT 15SM OVC090 14/09 A2956 RMK AC8 SLP017

CYXE;2008-06-07 19:00;CYXE 071900Z 19005KT 15SM OVC100 15/09 A2958 RMK AC8 SLP023

CYXE;2008-06-07 20:00;CYXE 072000Z 00000KT 15SM BKN100 OVC250 16/09 A2960 RMK AC6CI2 SLP030

CYXE;2008-06-07 21:00;CYXE 072100Z 25012KT 15SM FEW080 OVC120 16/09 A2959 RMK AC2AC6 SLP028

CYXE;2008-06-07 22:00;CYXE 072200Z 23010KT 15SM VCSH BKN080 OVC120 16/08 A2960 RMK ACC5AC3 SLP031

CYXE;2008-06-07 23:00;CYXE 072300Z 23008KT 15SM SCT090 OVC120 15/09 A2962 RMK ACC4AC4 SLP038

CYXE;2008-06-07 23:39;CYXE 072339Z 24016KT 15SM -SHRA BKN080 OVC120 14/ RMK ACC6AC2

CYXE;2008-06-08 00:00;CYXE 080000Z 22009G16KT 15SM -SHRA BKN080 OVC120 14/10 A2961 RMK ACC6AC2 SLP038

CYXE;2008-06-08 00:15;CYXE 080015Z 20008KT 15SM SCT050TCU OVC120 13/ RMK TCU4AC4

CYXE;2008-06-08 01:00;CYXE 080100Z 19010KT 15SM BKN070 OVC120 13/10 A2963 RMK ACC5AC3 SLP043

CYXE;2008-06-08 01:11;CYXE 080111Z 18011KT 15SM -SHRA FEW025CB BKN068 OVC092 13/ RMK CB1ACC4AC3 CB NE

CYXE;2008-06-08 01:20;CYXE 080120Z 15016KT 15SM -TSRA FEW019CB BKN062 OVC092 12/ RMK CB2SC2AC3 PUBLIC RPT PEA-SIZE HAIL 6N

CYXE;2008-06-08 01:32;CYXE 080132Z 12018G26KT 2SM TSRA BR BKN019CB OVC033 11/ RMK CB5SC3 LTGIC

CYXE;2008-06-08 01:41;CYXE 080141Z 21012KT 4SM R09/3500VP6000FT/U -SHRA BR FEW019CB BKN055 OVC095 11/ RERA RMK CB2SC3AC2 CB W

CYXE;2008-06-08 02:00;CYXE 080200Z 19010KT 15SM FEW019CB BKN062 OVC086 11/11 A2965 RERA RMK CB1SC5AC2 CB SW SLP051

CYXE;2008-06-08 03:00;CYXE 080300Z 18007KT 15SM FEW096 OVC140 11/11 A2967 RMK AC2AS6 SLP057

CYXE;2008-06-08 04:00;CYXE 080400Z 21006KT 15SM FEW073 SCT094 OVC120 11/11 A2970 RMK AC2AC2AS5 SLP067

CYXE;2008-06-08 05:00;CYXE 080500Z 22005KT 15SM FEW010 FEW067 OVC089 10/10 A2972 RMK SF1AC2AS6 SLP074

CYXE;2008-06-08 06:00;CYXE 080600Z 21005KT 15SM SCT061 OVC086 10/10 A2972 RMK SC3AS5 SLP077

CYXE;2008-06-08 07:00;CYXE 080700Z 24004KT 15SM FEW012 OVC058 09/09 A2973 RMK SC2SC6 SLP078

CYXE;2008-06-08 08:00;CYXE 080800Z 26003KT 15SM FEW045 OVC080 09/09 A2973 RMK SC2AS6 SLP078

CYXE;2008-06-08 09:00;CYXE 080900Z 00000KT 15SM BKN049 OVC089 09/09 A2973 RMK SC5AS3 SLP079

CYXE;2008-06-08 09:50;CYXE 080950Z 10004KT 6SM -RA BKN035 OVC060 09/ RMK SC6SC2

CYXE;2008-06-08 10:00;CYXE 081000Z 08003KT 10SM -RA BKN035 OVC065 10/10 A2975 RMK SC6SC2 SLP085

CYXE;2008-06-08 11:00;CYXE 081100Z 03005KT 6SM -RA BKN040 OVC065 10/10 A2975 RMK SC6SC2 SLP086

CYXE;2008-06-08 11:54;CYXE 081154Z 04005KT 15SM BKN046 OVC061 10/ RMK SC6SC2

CYXE;2008-06-08 12:00;CYXE 081200Z 03005KT 15SM BKN040 OVC062 10/10 A2977 RMK SC6SC2 SLP091

CYXE;2008-06-08 13:00;CYXE 081300Z 05006KT 15SM BKN038 BKN065 OVC250 11/10 A2977 RMK SC5SC2CI1 SLP092

CYXE;2008-06-08 14:00;CYXE 081400Z 06009KT 15SM FEW012 BKN040 OVC090 11/09 A2978 RMK SF1SC6AC2 SLP095

CYXE;2008-06-08 15:00;CYXE 081500Z 05009KT 15SM FEW012 OVC045 11/09 A2979 RMK SF1SC7 SLP100

CYXE;2008-06-08 16:00;CYXE 081600Z 06011KT 15SM FEW012 BKN045 OVC090 12/09 A2979 RMK CU1SC6AC2 SLP102

CYXE;2008-06-08 17:00;CYXE 081700Z 05014KT 15SM BKN019 OVC050 13/10 A2981 RMK CU6SC2 SLP106

CYXE;2008-06-08 18:00;CYXE 081800Z 03015KT 15SM BKN021 OVC050 14/10 A2980 RMK CU5SC3 SLP102

CYXE;2008-06-08 19:00;CYXE 081900Z 02015KT 15SM BKN040TCU OVC250 13/09 A2980 RMK TCU6CI2 SLP103

CYXE;2008-06-08 20:00;CYXE 082000Z 03014KT 15SM BKN045TCU BKN080 OVC250 15/09 A2979 RMK TCU5AC2CI1 SLP100

CYXE;2008-06-08 21:00;CYXE 082100Z 04014KT 15SM BKN033TCU BKN079 OVC220 15/09 A2979 RMK TCU5AC2CI1 SLP101

CYXE;2008-06-08 21:18;CYXE 082118Z 03021KT 15SM -SHRA BKN033TCU BKN079 OVC220 14/ RMK TCU5AC2CI1

CYXE;2008-06-08 22:00;CYXE 082200Z 04016G21KT 15SM -SHRA BKN040TCU BKN079 BKN220 16/09 A2979 RMK TCU5AC2CI0 SLP099

CYXE;2008-06-08 22:18;CYXE 082218Z 03014KT 15SM BKN040TCU BKN080 BKN220 17/ RMK TCU5AC1CI0

CYXE;2008-06-08 22:34;CYXE 082234Z 05020KT 15SM -SHRA BKN045TCU BKN080 13/ RMK TCU6AC1 CB EMBD

CYXE;2008-06-08 23:00;CYXE 082300Z 05010KT 15SM SCT045TCU BKN075 14/11 A2979 RMK TCU4AC3 SLP101

CYXE;2008-06-09 00:00;CYXE 090000Z 09016KT 15SM SCT041 BKN073 OVC220 15/09 A2980 RMK SC4AC2CI1 TCU EMBD SLP102

CYXE;2008-06-09 01:00;CYXE 090100Z 08013G19KT 15SM FEW035 SCT061 BKN091 OVC220 14/07 A2982 RMK SC2SC2AC2CI1 SLP110

CYXE;2008-06-09 02:00;CYXE 090200Z 07014KT 15SM FEW035 FEW063 BKN220 12/07 A2984 RMK SC1SC2CI2 SLP115

CYXE;2008-06-09 03:00;CYXE 090300Z 05007KT 15SM FEW057 FEW090 OVC220 10/07 A2985 RMK SC2AC1CI2 SLP121

CYXE;2008-06-09 04:00;CYXE 090400Z 07007KT 15SM SCT057 BKN220 08/07 A2986 RMK SC3CI1 SLP125

CYXE;2008-06-09 05:00;CYXE 090500Z 07005KT 15SM SCT057 SCT095 BKN220 08/07 A2987 RMK SC3AC1CI1 SLP127

CYXE;2008-06-09 06:00;CYXE 090600Z 04004KT 15SM BKN044 BKN095 BKN250 08/08 A2986 RMK SC5AC2CI0 SLP126

CYXE;2008-06-09 07:00;CYXE 090700Z 03004KT 15SM SCT054 BKN095 08/08 A2986 RMK SC3AC2 OBS TAKEN +04 SLP124

CYXE;2008-06-09 08:00;CYXE 090800Z 04005KT 15SM FEW060 05/05 A2986 RMK SC2 SLP123

CYXE;2008-06-09 09:00;CYXE 090900Z 03003KT 15SM FEW060 04/04 A2986 RMK SC2 SLP126

CYXE;2008-06-09 10:00;CYXE 091000Z 04005KT 15SM FEW060 03/03 A2986 RMK SC2 SLP127

CYXE;2008-06-09 11:00;CYXE 091100Z 04006KT 15SM FEW060 FEW220 03/03 A2986 RMK SC1CI0 SLP128

CYXE;2008-06-09 12:00;CYXE 091200Z 07004KT 15SM FEW060 FEW220 06/06 A2988 RMK SC1CI0 SLP131

CYXE;2008-06-09 13:00;CYXE 091300Z 06003KT 15SM FEW060 FEW220 08/08 A2987 RMK SC1CI0 SLP130

CYXE;2008-06-09 14:00;CYXE 091400Z 09004KT 15SM SCT010 10/08 A2986 RMK CU4 SLP127

CYXE;2008-06-09 14:12;CYXE 091412Z 08004KT 15SM BKN010 10/ RMK CU5

CYXE;2008-06-09 15:00;CYXE 091500Z 08004KT 15SM OVC014 10/08 A2987 RMK SC8 SLP128

CYXE;2008-06-09 16:00;CYXE 091600Z 06006KT 15SM OVC014 10/08 A2987 RMK SC8 SLP129

CYXE;2008-06-09 16:26;CYXE 091626Z 10005KT 15SM OVC016 11/ RMK SC8

CYXE;2008-06-09 17:00;CYXE 091700Z 09003KT 15SM OVC016 11/08 A2987 RMK SC8 SLP129

CYXE;2008-06-09 18:00;CYXE 091800Z 15004KT 15SM BKN018 OVC030 12/08 A2986 RMK SC7SC1 SLP127

CYXE;2008-06-09 19:00;CYXE 091900Z 13008KT 15SM OVC024 13/08 A2986 RMK SC8 SLP127

CYXE;2008-06-09 20:00;CYXE 092000Z 12008KT 15SM OVC028 13/08 A2987 RMK SC8 SLP129

CYXE;2008-06-09 21:00;CYXE 092100Z 11008KT 15SM OVC028 14/08 A2987 RMK SC8 SLP131

CYXE;2008-06-09 22:00;CYXE 092200Z 16007KT 15SM BKN034 15/08 A2986 RMK SC6 SLP128

CYXE;2008-06-09 23:00;CYXE 092300Z 14002KT 15SM BKN036 BKN250 16/08 A2985 RMK SC6CI0 SLP125

CYXE;2008-06-10 00:00;CYXE 100000Z 16006KT 15SM FEW039 BKN053 BKN250 16/08 A2984 RMK CU2SC3CI0 SLP118

CYXE;2008-06-10 01:00;CYXE 100100Z 18002KT 15SM FEW040 FEW059 FEW110 SCT250 16/08 A2983 RMK CU1CU2AC1CI0 SLP116

CYXE;2008-06-10 02:00;CYXE 100200Z 00000KT 15SM FEW059 FEW110 FEW250 17/08 A2982 RMK CU1AC1CI1 SLP113

CYXE;2008-06-10 03:00;CYXE 100300Z 12003KT 15SM FEW110 SCT250 15/08 A2982 RMK AC1CI1 SLP108

CYXE;2008-06-10 04:00;CYXE 100400Z 10006KT 15SM FEW110 FEW250 11/07 A2982 RMK AC1CI1 SLP110

CYXE;2008-06-10 05:00;CYXE 100500Z 10005KT 15SM FEW110 FEW250 09/06 A2982 RMK AC1CI0 SLP110

CYXE;2008-06-10 06:00;CYXE 100600Z 13006KT 15SM BKN069 BKN250 11/07 A2984 RMK AC6CI0 SLP116

CYXE;2008-06-10 07:00;CYXE 100700Z 12006KT 15SM BKN067 BKN250 09/06 A2983 RMK AC6CI0 SLP115

CYXE;2008-06-10 08:00;CYXE 100800Z 12008KT 15SM FEW067 SCT250 09/06 A2983 RMK AC2CI1 SLP114

CYXE;2008-06-10 09:00;CYXE 100900Z 13008KT 15SM FEW075 SCT250 09/06 A2983 RMK AC2CI1 SLP113

CYXE;2008-06-10 10:00;CYXE 101000Z 12008KT 15SM FEW080 SCT250 09/07 A2983 RMK AC2CI0 SLP114

CYXE;2008-06-10 11:00;CYXE 101100Z 13009KT 15SM FEW053 FEW085 SCT250 09/07 A2984 RMK SC1AC2CI0 SLP116

CYXE;2008-06-10 12:00;CYXE 101200Z 12007KT 15SM SCT065 BKN250 09/07 A2985 RMK CU3CI1 SLP118

CYXE;2008-06-10 13:00;CYXE 101300Z 11007KT 15SM SCT075 BKN250 10/08 A2985 RMK CU4CI0 SLP120

CYXE;2008-06-10 14:00;CYXE 101400Z 12012KT 15SM FEW062 BKN280 13/09 A2986 RMK CU2CI1 SLP122

CYXE;2008-06-10 15:00;CYXE 101500Z 13013G19KT 15SM FEW064 SCT280 15/11 A2986 RMK CU2CI0 SLP118

CYXE;2008-06-10 16:00;CYXE 101600Z 13012G19KT 15SM FEW026 SCT280 17/10 A2986 RMK CU2CI0 SLP119

CYXE;2008-06-10 17:00;CYXE 101700Z 11015G20KT 15SM SCT036 BKN280 17/07 A2985 RMK CU4CI0 SLP117

CYXE;2008-06-10 18:00;CYXE 101800Z 13014G19KT 15SM BKN041 18/07 A2985 RMK CU6 SLP117

CYXE;2008-06-10 19:00;CYXE 101900Z 11015G21KT 15SM BKN049 BKN280 17/06 A2985 RMK CU6CI0 SLP118

CYXE;2008-06-10 20:00;CYXE 102000Z 13014G19KT 15SM BKN051 BKN300 18/06 A2985 RMK CU6CI0 SLP117

CYXE;2008-06-10 21:00;CYXE 102100Z 13018KT 15SM SCT048 BKN080 18/07 A2985 RMK CU3AC2 SLP116

CYXE;2008-06-10 22:00;CYXE 102200Z 10014G26KT 15SM SCT048 BKN080 BKN280 20/08 A2984 RMK CU4AC2CI1 SLP114

CYXE;2008-06-10 23:00;CYXE 102300Z 12013G22KT 15SM SCT048 BKN080 BKN280 18/06 A2985 RMK SC4AC2CI0 SLP118

CYXE;2008-06-11 00:00;CYXE 110000Z 12013G19KT 15SM SCT050 BKN070 17/07 A2986 RMK SC3AC4 SLP121

CYXE;2008-06-11 01:00;CYXE 110100Z 13011KT 15SM FEW050 BKN078 17/06 A2987 RMK SC2AC6 SLP125

CYXE;2008-06-11 02:00;CYXE 110200Z 13007KT 15SM BKN077 16/07 A2988 RMK AC7 SLP129

CYXE;2008-06-11 03:00;CYXE 110300Z 10006KT 15SM BKN085 BKN280 14/08 A2989 RMK AC5CI1 SLP130

CYXE;2008-06-11 04:00;CYXE 110400Z 10012KT 15SM SCT085 BKN280 14/06 A2990 RMK AC3CI2 SLP132

CYXE;2008-06-11 05:00;CYXE 110500Z 10011KT 15SM SCT085 BKN280 14/04 A2990 RMK AC3CI1 SLP132

CYXE;2008-06-11 06:00;CYXE 110600Z 09008KT 15SM FEW085 BKN280 11/04 A2989 RMK AC2CI1 SLP129

CYXE;2008-06-11 07:00;CYXE 110700Z 12007KT 15SM FEW090 SCT280 11/05 A2991 RMK AC1CI0 SLP136

CYXE;2008-06-11 08:00;CYXE 110800Z 09006KT 15SM FEW090 SCT280 07/04 A2991 RMK AC1CI0 SLP137

CYXE;2008-06-11 09:00;CYXE 110900Z 11009KT 15SM FEW280 08/05 A2992 RMK CI1 SLP144

CYXE;2008-06-11 10:00;CYXE 111000Z 10009KT 15SM FEW090 BKN260 08/05 A2992 RMK AC1CI2 SLP142

CYXE;2008-06-11 11:00;CYXE 111100Z 09008KT 15SM FEW090 BKN220 08/05 A2992 RMK AC1CI2 SLP143

CYXE;2008-06-11 12:00;CYXE 111200Z 08008KT 15SM FEW090 BKN120 09/06 A2993 RMK AC1AC5 OBS TAKEN +07 SLP145

CYXE;2008-06-11 13:00;CYXE 111300Z 08008KT 15SM OVC120 09/05 A2993 RMK AC7 SLP147

CYXE;2008-06-11 14:00;CYXE 111400Z 08011KT 15SM OVC097 10/06 A2992 RMK AC8 SLP142

CYXE;2008-06-11 15:00;CYXE 111500Z 09015KT 15SM OVC097 12/06 A2992 RMK AC8 SLP142

CYXE;2008-06-11 16:00;CYXE 111600Z 09016KT 15SM BKN100 OVC300 13/06 A2992 RMK AC6CI2 SLP143

CYXE;2008-06-11 17:00;CYXE 111700Z 11018KT 15SM BKN071 OVC300 14/05 A2992 RMK AC6CI2 SLP142

CYXE;2008-06-11 18:00;CYXE 111800Z 10016G27KT 15SM SCT049 SCT075 BKN300 16/05 A2991 RMK CU3AC1CI2 SLP140

CYXE;2008-06-11 19:00;CYXE 111900Z 12015G22KT 15SM FEW050 OVC300 17/03 A2991 RMK CU2CI6 SLP139

CYXE;2008-06-11 20:00;CYXE 112000Z 10016G22KT 15SM FEW060 BKN091 OVC300 17/03 A2991 RMK CU2AC2CI3 SLP138

CYXE;2008-06-11 21:00;CYXE 112100Z 09021G27KT 15SM BKN060 OVC300 17/03 A2990 RMK CU6CS2 SLP136

CYXE;2008-06-11 22:00;CYXE 112200Z 09018G25KT 15SM SCT055 OVC090 17/04 A2990 RMK SC4AS4 SLP135

CYXE;2008-06-11 23:00;CYXE 112300Z 10018KT 15SM SCT055 OVC090 17/03 A2988 RMK SC4AS4 SLP130

CYXE;2008-06-12 00:00;CYXE 120000Z 15012G20KT 15SM SCT030 OVC055 15/04 A2988 RMK SC3SC5 SLP132

CYXE;2008-06-12 01:00;CYXE 120100Z 09008KT 15SM -RA BKN027 OVC085 14/06 A2988 RMK SC5AC3 SLP130

CYXE;2008-06-12 02:00;CYXE 120200Z 10011G16KT 12SM -RA OVC027 11/08 A2990 RMK SC8 SLP137

CYXE;2008-06-12 03:00;CYXE 120300Z 15006KT 12SM -RA SCT027 OVC035 09/08 A2992 RMK SC4SC4 SLP145

CYXE;2008-06-12 04:00;CYXE 120400Z 11004KT 15SM -RA OVC035 08/08 A2990 RMK SC8 SLP141

CYXE;2008-06-12 05:00;CYXE 120500Z 03006KT 10SM -RA OVC033 09/09 A2989 RMK SC8 SLP136

CYXE;2008-06-12 06:00;CYXE 120600Z 03006KT 12SM -RA OVC036 09/08 A2986 RMK SC8 SLP121

CYXE;2008-06-12 07:00;CYXE 120700Z 01006KT 10SM -RA OVC034 08/08 A2984 RMK SC8 SLP117

CYXE;2008-06-12 08:00;CYXE 120800Z 02010KT 10SM -RA OVC025 08/08 A2979 RMK SC8 SLP101

CYXE;2008-06-12 09:00;CYXE 120900Z 35011KT 10SM -RA OVC032 08/08 A2975 RMK SC8 SLP084

CYXE;2008-06-12 10:00;CYXE 121000Z 03016G21KT 12SM -RA OVC035 09/07 A2971 RMK SC8 SLP071

CYXE;2008-06-12 11:00;CYXE 121100Z 05010G15KT 8SM -RA OVC034 09/08 A2969 RMK SC8 SLP065

CYXE;2008-06-12 12:00;CYXE 121200Z 05006KT 8SM -RA OVC034 10/08 A2967 RMK SC8 OBS TAKEN +06 SLP056

CYXE;2008-06-12 13:00;CYXE 121300Z 36014KT 10SM -RA OVC032 10/07 A2963 RMK SC8 SLP046

CYXE;2008-06-12 14:00;CYXE 121400Z 02013KT 12SM -RA OVC029 11/07 A2961 RMK SC8 SLP037

CYXE;2008-06-12 15:00;CYXE 121500Z 03023G30KT 15SM -RA OVC030 11/06 A2959 RMK SC8 SLP033

CYXE;2008-06-12 15:34;CYXE 121534Z 36020G29KT 15SM FEW020 OVC090 11/ RMK SC2AC6

CYXE;2008-06-12 16:00;CYXE 121600Z 01023KT 15SM FEW030 OVC100 13/06 A2954 RMK SC2AC6 SLP017

CYXE;2008-06-12 17:00;CYXE 121700Z 01025G39KT 15SM FEW030 OVC100 13/05 A2953 RMK SC2AC6 SLP013

CYXE;2008-06-12 17:44;CYXE 121744Z 04024G36KT 15SM -SHRA SCT030 OVC075 12/ RMK SC3ACC5

CYXE;2008-06-12 18:00;CYXE 121800Z 06019G25KT 15SM -SHRA BKN035 OVC085 12/06 A2955 RMK SC5ACC3 SLP021

CYXE;2008-06-12 19:00;CYXE 121900Z 05021G29KT 5SM -SHRA BR BKN020 OVC060 10/09 A2959 RMK SC5SC3 CVCTV CLD EMBD SLP032

CYXE;2008-06-12 20:00;CYXE 122000Z 03024G31KT 5SM -SHRA BR BKN019 OVC060 09/09 A2959 RMK SC6SC2 CVCTV CLD EMBD SLP033

CYXE;2008-06-12 21:00;CYXE 122100Z 02025G31KT 6SM -RA BR BKN020 OVC052 10/09 A2959 RMK SC6SC2 SLP035

CYXE;2008-06-12 21:53;CYXE 122153Z 02024KT 15SM BKN025 OVC050 10/ RMK SC6SC2

CYXE;2008-06-12 22:00;CYXE 122200Z 01024KT 15SM BKN025 OVC050 10/08 A2959 RMK SC6SC2 SLP036

CYXE;2008-06-12 22:14;CYXE 122214Z 02022G30KT 15SM -SHRA OVC025 10/ RMK SC8

CYXE;2008-06-12 23:00;CYXE 122300Z 02022G28KT 15SM -SHRA BKN025 OVC050 11/08 A2960 RMK SC6SC2 CVCTV CLD EMBD SLP039

CYXE;2008-06-13 00:00;CYXE 130000Z 01020G27KT 15SM -SHRA OVC017 10/08 A2961 RMK SC8 SLP040

CYXE;2008-06-13 01:00;CYXE 130100Z 02016G22KT 15SM -SHRA OVC018 10/08 A2962 RMK SC8 CVCTV CLD EMBD SLP042

CYXE;2008-06-13 01:46;CYXE 130146Z 36013KT 15SM -SHRA BKN010 OVC035 10/ RMK SC6SC2

CYXE;2008-06-13 02:00;CYXE 130200Z 01015KT 10SM -SHRA BKN012 OVC035 10/09 A2963 RMK SC6SC2 SLP046

CYXE;2008-06-13 03:00;CYXE 130300Z 01015KT 15SM BKN015 BKN045 BKN090 10/09 A2964 RMK SC5SC2AC1 SLP049

CYXE;2008-06-13 04:00;CYXE 130400Z 36011KT 15SM BKN018 BKN050 BKN080 09/08 A2965 RMK SC5SC2AC1 SLP053

CYXE;2008-06-13 05:00;CYXE 130500Z 35009KT 15SM BKN019 BKN044 BKN080 09/08 A2965 RMK SC5SC2AC1 SLP053

CYXE;2008-06-13 06:00;CYXE 130600Z 34009KT 15SM FEW030 BKN057 09/08 A2964 RMK SC2SC4 SLP051

CYXE;2008-06-13 07:00;CYXE 130700Z 35008KT 15SM BKN055 OVC094 09/08 A2963 RMK SC6AC2 SLP047

CYXE;2008-06-13 08:00;CYXE 130800Z 31008KT 15SM BKN051 OVC100 09/08 A2963 RMK SC6AC2 SLP048

CYXE;2008-06-13 09:00;CYXE 130900Z 32010KT 15SM FEW026 BKN046 OVC100 09/08 A2963 RMK SC2SC4AC2 SLP047

CYXE;2008-06-13 10:00;CYXE 131000Z 33007KT 15SM BKN028 BKN046 09/08 A2962 RMK SC5SC2 SLP045

CYXE;2008-06-13 11:00;CYXE 131100Z 33006KT 15SM BKN025 BKN046 OVC093 09/08 A2963 RMK SC5SC2AC1 SLP046

CYXE;2008-06-13 11:48;CYXE 131148Z 33007KT 15SM -RA BKN037 OVC093 09/ RMK SC6AC2

CYXE;2008-06-13 12:00;CYXE 131200Z 33005KT 15SM -SHRA BKN037 OVC091 09/08 A2963 RMK SC5AC3 CU EMBD OBS TAKEN +07 SLP048

CYXE;2008-06-13 13:00;CYXE 131300Z CCA 34007KT 15SM SCT035 BKN072 10/09 A2964 RMK SC3AC4 ONCL -SHRA SLP052

CYXE;2008-06-13 13:23;CYXE 131323Z 32007KT 15SM VCSH SCT035 BKN080 BKN240 10/ RMK SC3AC3CI1

CYXE;2008-06-13 14:00;CYXE 131400Z 32014KT 15SM VCSH SCT035 BKN072 OVC240 11/09 A2965 RMK SC3AC3CI1 SLP053

CYXE;2008-06-13 15:00;CYXE 131500Z 34013KT 15SM FEW007 SCT025 OVC090 12/08 A2966 RMK SF1SC3AC4 SLP056

CYXE;2008-06-13 16:00;CYXE 131600Z 34017KT 15SM FEW010 SCT030 BKN090 13/08 A2968 RMK CF2SC2AC3 SLP061

CYXE;2008-06-13 17:00;CYXE 131700Z 01019KT 15SM SCT020 BKN080 OVC250 13/09 A2968 RMK SC3AC3CI1 SLP062

CYXE;2008-06-13 18:00;CYXE 131800Z 01015KT 15SM FEW020 BKN090 BKN250 14/09 A2969 RMK CU2AC4CI0 SLP065

CYXE;2008-06-13 19:00;CYXE 131900Z 03014G21KT 15SM FEW028 SCT090 BKN250 16/09 A2969 RMK CU2AC2CS2 SLP066

CYXE;2008-06-13 20:00;CYXE 132000Z 33011KT 15SM FEW032 SCT090 BKN250 17/09 A2969 RMK CU2AC2CS2 SLP066

CYXE;2008-06-13 21:00;CYXE 132100Z 34009KT 15SM FEW030 SCT090 BKN250 18/08 A2969 RMK CU2AC2CS2 SLP062

CYXE;2008-06-13 22:00;CYXE 132200Z 33006KT 15SM FEW030 SCT090 OVC250 19/07 A2968 RMK CU2AC2CS2 SLP060

CYXE;2008-06-13 23:00;CYXE 132300Z 02006KT 15SM FEW050 SCT090 OVC250 20/06 A2967 RMK CU2AC1CS2 SLP057

CYXE;2008-06-14 00:00;CYXE 140000Z 35004KT 15SM FEW063 OVC300 20/07 A2966 RMK CU2CS2 SLP053

CYXE;2008-06-14 01:00;CYXE 140100Z 25006KT 15SM FEW052 OVC300 20/07 A2966 RMK CU2CS2 SLP053

CYXE;2008-06-14 02:00;CYXE 140200Z 25004KT 15SM FEW060 OVC300 18/10 A2967 RMK CU2CS2 SLP056

CYXE;2008-06-14 03:00;CYXE 140300Z 29004KT 15SM FEW100 OVC300 15/09 A2969 RMK AC2CI2 SLP063

CYXE;2008-06-14 04:00;CYXE 140400Z 08009KT 15SM FEW100 BKN300 13/09 A2972 RMK AC2CI2 SLP075

CYXE;2008-06-14 05:00;CYXE 140500Z 08007KT 15SM FEW100 FEW300 09/07 A2973 RMK AC1CI0 SLP076

CYXE;2008-06-14 06:00;CYXE 140600Z 32005KT 15SM BKN070 09/08 A2976 RMK AC5 SLP088

CYXE;2008-06-14 07:00;CYXE 140700Z 05006KT 15SM BKN080 08/07 A2976 RMK AC6 SLP089

CYXE;2008-06-14 08:00;CYXE 140800Z 07006KT 15SM SCT080 07/06 A2975 RMK AC2 SLP086

CYXE;2008-06-14 09:00;CYXE 140900Z 26005KT 15SM FEW080 BKN300 06/06 A2976 RMK AC2CI0 SLP089

CYXE;2008-06-14 10:00;CYXE 141000Z 24002KT 10SM BKN300 05/05 A2976 RMK CI2 BR SLP089

CYXE;2008-06-14 11:00;CYXE 141100Z 21002KT 10SM SCT100 OVC300 06/06 A2976 RMK AC3CI2 BR SLP090

CYXE;2008-06-14 12:00;CYXE 141200Z 24004KT 10SM VCSH BKN090 OVC300 07/07 A2977 RMK ACC5CI2 BR SLP090

CYXE;2008-06-14 13:00;CYXE 141300Z 29003KT 10SM VCSH BKN090 OVC300 09/09 A2978 RMK ACC6CI2 BR SLP095

CYXE;2008-06-14 13:30;CYXE 141330Z 29005KT 10SM -SHRA BKN060CB OVC300 10/ RMK CB5CI3 CB S

CYXE;2008-06-14 14:00;CYXE 141400Z 28006KT 10SM -SHRA BKN060CB OVC300 10/10 A2980 RMK CB6CI2 CB S SLP099

CYXE;2008-06-14 15:00;CYXE 141500Z 30005KT 10SM -SHRA BKN029 BKN045 OVC300 11/10 A2980 RMK SC6SC2CI1 SLP100

CYXE;2008-06-14 16:00;CYXE 141600Z 30004KT 10SM -SHRA BKN040 BKN073 OVC300 12/10 A2980 RMK SC5AS2CI2 SLP100

CYXE;2008-06-14 17:00;CYXE 141700Z 30005KT 15SM SCT060 BKN093 BKN300 13/10 A2979 RMK SC3AS3CI0 SLP097

CYXE;2008-06-14 18:00;CYXE 141800Z 34005KT 15SM SCT050 BKN100 BKN300 15/10 A2979 RMK SC3AC3CI0 SLP099

CYXE;2008-06-14 19:00;CYXE 141900Z 32009KT 15SM FEW036 BKN078 OVC280 18/10 A2978 RMK CU2AC3CI2 TCU ASOCTD SLP098

CYXE;2008-06-14 20:00;CYXE 142000Z 31010KT 15SM FEW035 BKN080 18/10 A2978 RMK CU2AC6 SLP097

CYXE;2008-06-14 21:00;CYXE 142100Z 31009KT 15SM FEW040 BKN078 BKN280 19/09 A2977 RMK CU2AC3CI0 SLP093

CYXE;2008-06-14 22:00;CYXE 142200Z 32014G22KT 15SM -SHRA BKN045 BKN080 16/10 A2979 RMK CU5AC2 CB EMBD SLP097

CYXE;2008-06-14 22:40;CYXE 142240Z 04011KT 3SM -SHRA BR FEW009 BKN017 OVC071 13/ RMK CF1SC6AC2 CB EMBD

CYXE;2008-06-14 22:47;CYXE 142247Z 02011KT 2SM TSRA BR FEW009 BKN017 OVC071 12/ RMK CF1SC7AC1 CB EMBD

CYXE;2008-06-14 23:00;CYXE 142300Z 03005KT 1 1/2SM R09/4000VP6000FT/U +TSRA BR OVC016 11/11 A2983 RMK SC8 CB EMBD SLP112

CYXE;2008-06-14 23:48;CYXE 142348Z 30004KT 2SM RA BR OVC019 11/ RETS RMK SC8

CYXE;2008-06-15 00:00;CYXE 150000Z 30004KT 1 1/2SM RA BR BKN017 OVC059 11/11 A2984 RETS RMK SC7SC1 SLP121

CYXE;2008-06-15 00:23;CYXE 150023Z 31003KT 4SM RA BR BKN015 OVC059 11/ RMK SC7SC1

CYXE;2008-06-15 01:00;CYXE 150100Z 00000KT 15SM -RA SCT015 OVC079 11/11 A2985 RMK SC4AC4 SLP123

CYXE;2008-06-15 01:20;CYXE 150120Z 35002KT 10SM BKN027 OVC083 11/ RMK SC5AC3

CYXE;2008-06-15 02:00;CYXE 150200Z 31003KT 8SM -RA BKN024 OVC070 11/11 A2987 RMK SC6AC2 SLP129

CYXE;2008-06-15 03:00;CYXE 150300Z 30002KT 6SM -RA OVC039 11/11 A2988 RMK SC8 SLP132

CYXE;2008-06-15 03:43;CYXE 150343Z 27002KT 10SM BKN029 OVC060 11/ RMK SC6SC2

CYXE;2008-06-15 04:00;CYXE 150400Z 23002KT 10SM OVC029 OVC060 11/11 A2991 RMK SC5SC3 SLP140

CYXE;2008-06-15 05:00;CYXE 150500Z 08009KT 15SM BKN010 OVC060 11/11 A2992 RMK SC5SC3 SLP145

CYXE;2008-06-15 05:22;CYXE 150522Z 08011KT 15SM BKN017 OVC036 10/ RMK SC5SC3

CYXE;2008-06-15 06:00;CYXE 150600Z 08011KT 15SM OVC021 09/09 A2995 RMK SC8 SLP153

CYXE;2008-06-15 07:00;CYXE 150700Z 09006KT 15SM BKN030 09/08 A2996 RMK SC7 SLP158

CYXE;2008-06-15 08:00;CYXE 150800Z 08004KT 15SM BKN045 08/07 A2998 RMK SC6 SLP164

CYXE;2008-06-15 09:00;CYXE 150900Z 07004KT 15SM BKN036 08/07 A2999 RMK SC6 SLP166

CYXE;2008-06-15 10:00;CYXE 151000Z 03004KT 15SM FEW040 BKN300 06/06 A3000 RMK SC1CI3 SLP169

CYXE;2008-06-15 11:00;CYXE 151100Z 05004KT 15SM FEW040 BKN300 05/05 A3000 RMK SC1CI4 SLP171

CYXE;2008-06-15 12:00;CYXE 151200Z 04002KT 15SM FEW040 OVC300 05/05 A3002 RMK SC1CI4 SLP182

CYXE;2008-06-15 13:00;CYXE 151300Z 32002KT 15SM OVC300 08/08 A3004 RMK CI5 SLP190

CYXE;2008-06-15 14:00;CYXE 151400Z 00000KT 15SM FEW015 OVC280 09/07 A3005 RMK CU1CI4 SLP194

CYXE;2008-06-15 15:00;CYXE 151500Z 21004KT 15SM FEW016 OVC280 11/07 A3005 RMK CU1CI4 SLP191

CYXE;2008-06-15 16:00;CYXE 151600Z 32002KT 15SM FEW018 OVC280 12/08 A3005 RMK CU1CI4 SLP189

CYXE;2008-06-15 17:00;CYXE 151700Z 28004KT 15SM FEW020 OVC280 14/08 A3004 RMK CU1CI5 SLP188

CYXE;2008-06-15 18:00;CYXE 151800Z 00000KT 15SM FEW018 OVC280 15/08 A3005 RMK CU1CI4 SLP188

CYXE;2008-06-15 19:00;CYXE 151900Z 23004KT 15SM FEW030 OVC280 15/07 A3005 RMK CU1CI5 SLP188

CYXE;2008-06-15 20:00;CYXE 152000Z 24002KT 15SM FEW034 OVC280 17/08 A3005 RMK CU2CI4 SLP188

CYXE;2008-06-15 21:00;CYXE 152100Z 25002KT 15SM FEW040 BKN280 17/07 A3004 RMK CU2CI2 SLP184

CYXE;2008-06-15 22:00;CYXE 152200Z 32003KT 15SM SCT045 BKN280 19/08 A3003 RMK CU3CI2 SLP182

CYXE;2008-06-15 23:00;CYXE 152300Z 30003KT 15SM FEW045 BKN280 20/08 A3002 RMK CU2CI2 SLP178

CYXE;2008-06-16 00:00;CYXE 160000Z 00000KT 15SM SCT045 BKN280 19/07 A3002 RMK CU3CI2 SLP177

CYXE;2008-06-16 01:00;CYXE 160100Z 22006KT 15SM SCT045 BKN280 19/08 A3001 RMK CU3CI1 SLP176

CYXE;2008-06-16 02:00;CYXE 160200Z 25004KT 15SM SCT030 BKN090 BKN280 16/10 A3002 RMK CU3AC2CI0 TCU ASOCTD SLP178

CYXE;2008-06-16 03:00;CYXE 160300Z 27006KT 15SM FEW020 SCT055 BKN090 BKN280 15/10 A3002 RMK CU1SC3AC2CI0 SLP177

CYXE;2008-06-16 04:00;CYXE 160400Z 23006KT 15SM FEW050 SCT090 BKN280 12/10 A3003 RMK SC2AC2CI0 SLP182

CYXE;2008-06-16 05:00;CYXE 160500Z 26007KT 15SM FEW050 SCT090 BKN280 11/09 A3005 RMK SC2AC2CI0 OBS TAKEN +05 SLP186

CYXE;2008-06-16 06:00;CYXE 160600Z 30006KT 15SM FEW050 SCT100 BKN300 10/09 A3004 RMK SC1AC2CI2 SLP185

CYXE;2008-06-16 07:00;CYXE 160700Z 29005KT 15SM FEW100 SCT300 09/08 A3004 RMK AC1CI1 SLP186

CYXE;2008-06-16 08:00;CYXE 160800Z 24004KT 15SM FEW300 08/07 A3004 RMK CI1 SLP186

CYXE;2008-06-16 09:00;CYXE 160900Z 23004KT 15SM FEW100 FEW300 08/07 A3004 RMK AC1CI1 SLP186

CYXE;2008-06-16 10:00;CYXE 161000Z 20005KT 15SM FEW070 SCT300 07/06 A3005 RMK ACC2CI0 SLP187

CYXE;2008-06-16 11:00;CYXE 161100Z 20003KT 15SM FEW070 SCT300 07/06 A3004 RMK ACC1CI1 SLP185

CYXE;2008-06-16 12:00;CYXE 161200Z 22003KT 15SM FEW070 FEW300 07/07 A3005 RMK AC1CI0 SLP187

CYXE;2008-06-16 13:00;CYXE 161300Z 21004KT 15SM FEW300 11/09 A3004 RMK CI0 SLP184

CYXE;2008-06-16 14:00;CYXE 161400Z 21005KT 15SM FEW110 FEW300 13/09 A3005 RMK AC1CI1 SLP186

CYXE;2008-06-16 15:00;CYXE 161500Z 25007KT 15SM FEW110 16/10 A3004 RMK AC1 SLP181

CYXE;2008-06-16 16:00;CYXE 161600Z 25005KT 15SM FEW110 17/10 A3004 RMK AC1 SLP182

CYXE;2008-06-16 17:00;CYXE 161700Z 23008KT 15SM FEW036 19/10 A3003 RMK CU1 SLP179

CYXE;2008-06-16 18:00;CYXE 161800Z 28008KT 15SM SCT042 SCT090 21/09 A3002 RMK CU3ACC1 SLP174

CYXE;2008-06-16 19:00;CYXE 161900Z 25004KT 15SM SCT055 SCT090 22/08 A3001 RMK CU3ACC1 SLP170

CYXE;2008-06-16 19:40;CYXE 161940Z 32008KT 15SM -SHRA BKN045 BKN090 19/ RMK CU5AC2 TCU ASOCTD

CYXE;2008-06-16 20:00;CYXE 162000Z 02002KT 15SM SCT050 SCT090 17/11 A3000 RMK CU3AC1 SLP169

CYXE;2008-06-16 21:00;CYXE 162100Z 02002KT 15SM SCT036 BKN078 18/09 A2999 RMK CU4AC2 SHRA DIST NW CB NW+E SLP168

CYXE;2008-06-16 22:00;CYXE 162200Z 01014KT 15SM VCSH BKN040 17/10 A2999 RMK CU5 SH NE OCNL LTG E CB EMBD SLP169

CYXE;2008-06-16 23:00;CYXE 162300Z 07008KT 15SM FEW050 FEW100 21/11 A2999 RMK CU2AC1 CB EMBD E SLP166

CYXE;2008-06-17 00:00;CYXE 170000Z 08008KT 15SM FEW044 FEW280 21/10 A2997 RMK CU2CI0 OBS TAKEN +06 SLP157

CYXE;2008-06-17 01:00;CYXE 170100Z 09005KT 15SM FEW040 FEW050CB FEW100 BKN280 20/10 A2997 RMK CU1CB2AC1CI2 CB SHWRS W SLP157

CYXE;2008-06-17 02:00;CYXE 170200Z CCA 14006KT 15SM BKN050 BKN100 BKN280 20/10 A2997 RMK CU5AC1CI0 CB S SHWRS S-W SLP159

CYXE;2008-06-17 03:00;CYXE 170300Z 17005KT 15SM BKN050 BKN080 BKN280 19/09 A2999 RMK CU5AC2CI0 TCU EMBD SHWRS W SLP162

CYXE;2008-06-17 03:46;CYXE 170346Z 20009KT 10SM RA BKN066TCU BKN080 17/ RMK TCU6AC2

CYXE;2008-06-17 04:00;CYXE 170400Z 20011KT 10SM -SHRA BKN060TCU BKN100 BKN280 15/11 A3001 RMK TCU5AC2CI1 SLP169

CYXE;2008-06-17 04:44;CYXE 170444Z 00000KT 15SM BKN060TCU BKN100 14/ RMK TCU5AC1

CYXE;2008-06-17 05:00;CYXE 170500Z 11004KT 15SM FEW030 BKN060 BKN100 12/11 A2999 RMK SC1SC4AC1 SLP163

CYXE;2008-06-17 06:00;CYXE 170600Z 15005KT 15SM FEW060 SCT100 12/11 A2999 RMK SC2AC1 SLP161

CYXE;2008-06-17 07:00;CYXE 170700Z 18007KT 15SM FEW060 FEW100 12/10 A2998 RMK SC1AC1 SLP159

CYXE;2008-06-17 08:00;CYXE 170800Z 14004KT 15SM FEW060 12/10 A2999 RMK SC1 SLP161

CYXE;2008-06-17 09:00;CYXE 170900Z 12002KT 15SM FEW060 11/09 A2999 RMK SC1 SLP164

CYXE;2008-06-17 10:00;CYXE 171000Z 16003KT 15SM FEW060 11/10 A2999 RMK SC1 SLP164

CYXE;2008-06-17 11:00;CYXE 171100Z 07003KT 15SM FEW070 08/08 A2999 RMK ACC1 BR PATCHES SLP166

CYXE;2008-06-17 12:00;CYXE 171200Z 16005KT 15SM FEW070 11/11 A2999 RMK ACC1 SLP165

CYXE;2008-06-17 13:00;CYXE 171300Z 20004KT 15SM SKC 14/12 A3000 RMK SLP166

CYXE;2008-06-17 14:00;CYXE 171400Z 19004KT 15SM SKC 16/12 A2999 RMK SLP165

CYXE;2008-06-17 15:00;CYXE 171500Z 21003KT 15SM SKC 19/13 A3000 RMK SLP163

CYXE;2008-06-17 16:00;CYXE 171600Z 17002KT 15SM FEW040 21/11 A2999 RMK SC1 SLP161

CYXE;2008-06-17 17:00;CYXE 171700Z 08002KT 15SM FEW280 22/12 A2999 RMK CI0 SLP160

CYXE;2008-06-17 18:00;CYXE 171800Z 22003KT 15SM FEW048 FEW280 23/11 A2998 RMK SC1CI0 SLP157

CYXE;2008-06-17 19:00;CYXE 171900Z 17005KT 15SM FEW050 FEW280 25/12 A2997 RMK CU1CI0 SLP154

CYXE;2008-06-17 20:00;CYXE 172000Z 16009KT 15SM FEW055 FEW280 26/12 A2995 RMK CU2CI1 SLP149

CYXE;2008-06-17 21:00;CYXE 172100Z 22007KT 15SM FEW074 FEW280 26/10 A2994 RMK CU2CI0 SLP143

CYXE;2008-06-17 22:00;CYXE 172200Z 17008KT 15SM FEW074 FEW280 27/11 A2992 RMK CU2CI0 SLP137

CYXE;2008-06-17 23:00;CYXE 172300Z 18009KT 15SM FEW075 FEW280 27/11 A2991 RMK CU1CI0 SLP133

CYXE;2008-06-18 00:00;CYXE 180000Z 15010KT 15SM FEW030 SCT082 26/10 A2989 RMK CU1AC2 SLP126

CYXE;2008-06-18 01:00;CYXE 180100Z 15009KT 15SM SCT090 BKN280 25/11 A2987 RMK AC3CI3 SLP120

CYXE;2008-06-18 02:00;CYXE 180200Z 15012KT 15SM FEW060 BKN160 25/10 A2985 RMK CU1AC2 SLP113

CYXE;2008-06-18 03:00;CYXE 180300Z 15011KT 15SM FEW060 BKN180 23/10 A2982 RMK SC1CI2 TCU EMBD W SLP101

CYXE;2008-06-18 04:00;CYXE 180400Z 14011KT 15SM FEW060 BKN180 21/10 A2981 RMK SC1CI2 SLP098

CYXE;2008-06-18 05:00;CYXE 180500Z 14010KT 15SM FEW080 BKN180 20/13 A2981 RMK AC2AC1 LTNG DIST NW SLP096

CYXE;2008-06-18 06:00;CYXE 180600Z 14011KT 15SM SCT080 BKN120 20/12 A2981 RMK AC3AC2 LTNG DIST NW-N SLP096

CYXE;2008-06-18 07:00;CYXE 180700Z 16010KT 15SM SCT097 18/12 A2979 RMK AC4 SLP090

CYXE;2008-06-18 08:00;CYXE 180800Z 32003KT 15SM FEW100 15/12 A2982 RMK AC2 SLP100

CYXE;2008-06-18 09:00;CYXE 180900Z 32010KT 15SM FEW100 SCT220 13/12 A2980 RMK AC2CI1 SLP095

CYXE;2008-06-18 10:00;CYXE 181000Z 24004KT 15SM FEW100 SCT220 11/11 A2981 RMK AC2CI0 SLP097

CYXE;2008-06-18 11:00;CYXE 181100Z 28010KT 15SM FEW100 FEW220 11/11 A2983 RMK AC1CI1 SLP104

CYXE;2008-06-18 11:30;CYXE 181130Z 31014G19KT 15SM FEW009 SCT100 BKN220 12/ RMK SC2AC1CI1

CYXE;2008-06-18 11:33;CYXE 181133Z 30019G26KT 15SM BKN008 BKN100 BKN220 12/ RMK SC5AC1CI1

CYXE;2008-06-18 12:00;CYXE 181200Z 30014G22KT 15SM BKN007 12/12 A2989 RMK SC6 SLP126

CYXE;2008-06-18 12:29;CYXE 181229Z 30013G21KT 15SM SCT010 13/ RMK SC3

CYXE;2008-06-18 13:00;CYXE 181300Z 32013KT 15SM SCT012 14/12 A2992 RMK SC2 SLP134

CYXE;2008-06-18 13:20;CYXE 181320Z 32019G24KT 15SM BKN012 14/ RMK SC5

CYXE;2008-06-18 14:00;CYXE 181400Z 34017G22KT 15SM BKN014 15/12 A2993 RMK SC6 SLP139

CYXE;2008-06-18 14:54;CYXE 181454Z 32014KT 15SM SCT016 16/ RMK SC4

CYXE;2008-06-18 15:00;CYXE 181500Z 32013G18KT 15SM SCT016 15/11 A2995 RMK SC3 SLP145

CYXE;2008-06-18 16:00;CYXE 181600Z 32010G17KT 15SM FEW025 18/12 A2995 RMK CF1 SLP146

CYXE;2008-06-18 17:00;CYXE 181700Z 30014KT 15SM FEW028 19/12 A2995 RMK SC1 SLP147

CYXE;2008-06-18 18:00;CYXE 181800Z 31013G18KT 15SM FEW035 20/11 A2995 RMK SC2 SLP146

CYXE;2008-06-18 19:00;CYXE 181900Z 30015KT 15SM FEW045 21/10 A2995 RMK CU2 SLP145

CYXE;2008-06-18 20:00;CYXE 182000Z 32015G21KT 15SM SCT050 22/10 A2995 RMK CU3 SLP146

CYXE;2008-06-18 21:00;CYXE 182100Z 30014G21KT 15SM SCT055 22/09 A2995 RMK CU3 SLP148

CYXE;2008-06-18 22:00;CYXE 182200Z 32014KT 15SM FEW055 22/09 A2995 RMK CU2 SLP146

CYXE;2008-06-18 23:00;CYXE 182300Z 31013KT 15SM FEW055 22/09 A2994 RMK CU2 SLP143

CYXE;2008-06-19 00:00;CYXE 190000Z 33012G17KT 15SM FEW060 FEW280 22/09 A2993 RMK CU1CI0 SLP141

CYXE;2008-06-19 01:00;CYXE 190100Z 33009KT 15SM FEW060 FEW280 21/09 A2993 RMK CU0CI0 SLP141

CYXE;2008-06-19 02:00;CYXE 190200Z 34007KT 15SM FEW060 FEW280 19/09 A2993 RMK CU0CI0 SLP141

CYXE;2008-06-19 03:00;CYXE 190300Z 32005KT 15SM FEW120 FEW280 16/10 A2994 RMK AC1CI0 SLP147

CYXE;2008-06-19 04:00;CYXE 190400Z 34007KT 15SM FEW120 FEW280 13/10 A2995 RMK AC1CI0 SLP148

CYXE;2008-06-19 05:00;CYXE 190500Z 36005KT 15SM FEW120 FEW280 13/09 A2995 RMK AC1CI0 OBS TAKEN +15 SLP149

CYXE;2008-06-19 06:00;CYXE 190600Z 07002KT 15SM FEW120 FEW280 12/09 A2994 RMK AC1CI0 SLP147

CYXE;2008-06-19 07:00;CYXE 190700Z 10002KT 15SM FEW100 FEW280 12/09 A2994 RMK AC1CI0 SLP145

CYXE;2008-06-19 08:00;CYXE 190800Z 31008KT 15SM SCT080 BKN280 10/09 A2996 RMK AC4CI0 SLP154

CYXE;2008-06-19 08:18;CYXE 190818Z 28009KT 15SM -RA BKN084 BKN120 12/ RMK AC5AC2

CYXE;2008-06-19 08:44;CYXE 190844Z 29013KT 15SM BKN084 12/ RMK AC7

CYXE;2008-06-19 09:00;CYXE 190900Z 31012KT 15SM BKN084 13/11 A3000 RMK AC7 SLP164

CYXE;2008-06-19 09:16;CYXE 190916Z 34008G16KT 15SM -SHRA SCT045 BKN084 13/ RMK SC3AC4 CVCTV CLD EMBD

CYXE;2008-06-19 09:46;CYXE 190946Z 35009KT 15SM FEW032CB BKN084 12/ RMK CB2AC4 LTNG DIST SW

CYXE;2008-06-19 10:00;CYXE 191000Z 35010KT 15SM BKN032 BKN084 12/11 A2995 RMK SC5AC2 CB ASOCTD SLP149

CYXE;2008-06-19 10:09;CYXE 191009Z 34011KT 12SM -SHRA FEW016 BKN032CB BKN080 12/ RMK SF2CB2AC2

CYXE;2008-06-19 10:41;CYXE 191041Z CCA 01009KT 15SM VCSH FEW020 BKN032 OVC080 12/ RMK SF2SC4AC2 VIRGA SE-SW CB ASOCTD

CYXE;2008-06-19 11:00;CYXE 191100Z 04008KT 15SM VCSH BKN043 BKN080 BKN280 12/11 A2994 RMK SC5AC1CI1 CVCTV CLD EMBD VIRGA SE SLP145

CYXE;2008-06-19 11:16;CYXE 191116Z 35005KT 15SM -SHRA BKN052 BKN080 12/ RMK SC5AC2 CVCTV CLD EMBD

CYXE;2008-06-19 12:00;CYXE 191200Z 03008KT 15SM VCSH BKN052 BKN075 12/12 A2996 RMK SC5AC2 CVCTV CLD EMBD SLP152

CYXE;2008-06-19 12:27;CYXE 191227Z 32009KT 15SM -SHRA BKN058 12/ RMK SC6 CVCTV CLD EMBD

CYXE;2008-06-19 13:00;CYXE 191300Z 02010KT 15SM VCSH SCT061 BKN082 13/12 A2996 RMK SC3AC2 SLP152

CYXE;2008-06-19 14:00;CYXE 191400Z 04005KT 15SM VCSH BKN077 14/12 A2997 RMK AC6 SLP154

CYXE;2008-06-19 15:00;CYXE 191500Z 33003KT 15SM BKN061 BKN300 15/12 A2998 RMK SC6CI1 SLP161

CYXE;2008-06-19 16:00;CYXE 191600Z 32008KT 15SM FEW015 BKN060 BKN300 17/13 A2999 RMK CU1SC4CI1 SLP163

CYXE;2008-06-19 17:00;CYXE 191700Z 30007KT 15SM FEW029 SCT096 BKN300 18/12 A2999 RMK CU2AC2CI1 SLP165

CYXE;2008-06-19 18:00;CYXE 191800Z 29014KT 15SM BKN035TCU 19/11 A3000 RMK TCU6 SLP167

CYXE;2008-06-19 19:00;CYXE 191900Z 29011KT 15SM BKN035TCU 20/11 A2999 RMK TCU5 SLP166

CYXE;2008-06-19 20:00;CYXE 192000Z 28011G16KT 15SM SCT043TCU 21/09 A2999 RMK TCU4 SLP164

CYXE;2008-06-19 21:00;CYXE 192100Z 31012G17KT 15SM SCT047 22/10 A2997 RMK CU3 SLP156

CYXE;2008-06-19 22:00;CYXE 192200Z 29010KT 15SM BKN054 21/09 A2997 RMK CU5 SLP155

CYXE;2008-06-19 22:48;CYXE 192248Z 30018G25KT 15SM -SHRA BKN059TCU BKN120 19/ RMK TCU6AC1 CB N

CYXE;2008-06-19 23:00;CYXE 192300Z 27012G28KT 15SM -SHRA BKN029TCU BKN120 17/09 A2998 RMK TCU6AC1 CB N SLP157

CYXE;2008-06-19 23:46;CYXE 192346Z 35015G21KT 15SM VCSH BKN036 BKN120 18/ RMK CU5AC1

CYXE;2008-06-20 00:00;CYXE 200000Z 35013KT 15SM SCT040 SCT100 19/10 A2999 RMK CU3AC1 SLP162

CYXE;2008-06-20 01:00;CYXE 200100Z 34017KT 15SM FEW045 FEW120 19/08 A2999 RMK CU1AC0 SLP162

CYXE;2008-06-20 02:00;CYXE 200200Z 32010G16KT 15SM FEW040 FEW120 18/09 A3000 RMK CU1AC0 SLP166

CYXE;2008-06-20 03:00;CYXE 200300Z 32005KT 15SM FEW040 15/09 A3001 RMK CU1 SLP171

CYXE;2008-06-20 04:00;CYXE 200400Z 31004KT 15SM FEW040 14/10 A3002 RMK CU1 SLP175

CYXE;2008-06-20 05:00;CYXE 200500Z 26005KT 15SM FEW040 11/10 A3003 RMK SC1 SLP178

CYXE;2008-06-20 06:00;CYXE 200600Z 27007KT 15SM FEW040 10/09 A3004 RMK SC1 SLP182

CYXE;2008-06-20 07:00;CYXE 200700Z 27006KT 15SM SKC 09/08 A3004 RMK SLP184

CYXE;2008-06-20 08:00;CYXE 200800Z 30006KT 15SM SKC 08/08 A3006 RMK SLP189

CYXE;2008-06-20 09:00;CYXE 200900Z 31007KT 15SM FEW100 09/09 A3007 RMK AC1 SLP190

CYXE;2008-06-20 10:00;CYXE 201000Z 30006KT 15SM FEW100 07/07 A3008 RMK AC1 SLP193

CYXE;2008-06-20 11:00;CYXE 201100Z 28006KT 15SM FEW100 FEW270 07/07 A3008 RMK AC1CI0 SLP195

CYXE;2008-06-20 12:00;CYXE 201200Z 28007KT 15SM FEW270 08/08 A3009 RMK FU1CI1 OBS TAKEN -09 SLP199

CYXE;2008-06-20 13:00;CYXE 201300Z 28006KT 15SM FEW270 11/10 A3010 RMK CI1 SLP204

CYXE;2008-06-20 14:00;CYXE 201400Z 31006KT 15SM FEW300 14/11 A3011 RMK CI0 SLP207

CYXE;2008-06-20 15:00;CYXE 201500Z 31006KT 15SM FEW300 17/11 A3012 RMK CI0 SLP208

CYXE;2008-06-20 16:00;CYXE 201600Z 32007KT 15SM FEW030 FEW300 18/10 A3012 RMK CU1CI0 SLP209

CYXE;2008-06-20 17:00;CYXE 201700Z 31006KT 15SM FEW040 SCT300 20/10 A3012 RMK CU1CI1 SLP209

CYXE;2008-06-20 18:00;CYXE 201800Z 32012KT 15SM BKN050 BKN300 21/09 A3012 RMK CU5CI0 SLP209

CYXE;2008-06-20 19:00;CYXE 201900Z CCA 31008G17KT 15SM BKN055 23/09 A3012 RMK CU6 SLP207

CYXE;2008-06-20 20:00;CYXE 202000Z 32011G16KT 15SM SCT060 23/08 A3012 RMK CU3 SLP208

CYXE;2008-06-20 21:00;CYXE 202100Z 31006G15KT 15SM SCT065 23/07 A3011 RMK CU4 SLP205

CYXE;2008-06-20 22:00;CYXE 202200Z 27005G16KT 15SM BKN065 24/06 A3010 RMK CU5 SLP201

CYXE;2008-06-20 23:00;CYXE 202300Z 29009KT 15SM SCT074 24/07 A3009 RMK CU3 SLP198

CYXE;2008-06-21 00:00;CYXE 210000Z 32008KT 15SM SCT075 23/07 A3009 RMK CU3 SLP199

CYXE;2008-06-21 01:00;CYXE 210100Z 31009KT 15SM FEW075 23/07 A3009 RMK CU2 SLP199

CYXE;2008-06-21 02:00;CYXE 210200Z 32005KT 15SM FEW055 FEW280 22/08 A3010 RMK CU1CI0 SLP201

CYXE;2008-06-21 03:00;CYXE 210300Z 35004KT 15SM FEW280 17/10 A3010 RMK CI0 SLP200

CYXE;2008-06-21 04:00;CYXE 210400Z 00000KT 15SM FEW280 17/08 A3011 RMK CI1 SLP204

CYXE;2008-06-21 05:00;CYXE 210500Z 26004KT 15SM FEW280 13/11 A3012 RMK CI2 SLP207

CYXE;2008-06-21 06:00;CYXE 210600Z 29006KT 15SM FEW080 13/09 A3013 RMK AC2 SLP211

CYXE;2008-06-21 07:00;CYXE 210700Z 27005KT 15SM FEW080 FEW270 12/10 A3013 RMK AC1CI0 SLP212

CYXE;2008-06-21 08:00;CYXE 210800Z 28004KT 15SM FEW270 11/09 A3014 RMK CI0 SLP213

CYXE;2008-06-21 09:00;CYXE 210900Z 00000KT 15SM BKN270 09/08 A3014 RMK CI0 SLP214

CYXE;2008-06-21 10:00;CYXE 211000Z 00000KT 15SM FEW080 SCT270 10/09 A3014 RMK AC1CI1 SLP216

CYXE;2008-06-21 11:00;CYXE 211100Z 25005KT 15SM FEW080 SCT270 08/08 A3016 RMK AC2CI1 SLP220

CYXE;2008-06-21 12:00;CYXE 211200Z 24006KT 15SM FEW080 SCT270 10/09 A3017 RMK AC2CI0 SLP223

CYXE;2008-06-21 13:00;CYXE 211300Z 00000KT 15SM BKN110 BKN270 15/11 A3017 RMK AC5CI0 VIRGA SLP224

CYXE;2008-06-21 14:00;CYXE 211400Z 00000KT 15SM SCT100 BKN300 17/11 A3017 RMK ACC3CI1 SLP223

CYXE;2008-06-21 15:00;CYXE 211500Z 00000KT 15SM BKN090 BKN300 22/09 A3017 RMK ACC4CI0 SLP220

CYXE;2008-06-21 16:00;CYXE 211600Z 28002KT 15SM FEW090 SCT300 22/08 A3017 RMK ACC2CI0 SLP222

CYXE;2008-06-21 17:00;CYXE 211700Z 24003KT 15SM SCT100 23/09 A3017 RMK AC2 SLP222

CYXE;2008-06-21 18:00;CYXE 211800Z 00000KT 15SM FEW070 25/07 A3017 RMK CU1 SLP220

CYXE;2008-06-21 19:00;CYXE 211900Z 25005KT 15SM FEW080 26/07 A3016 RMK CU2 SLP217

CYXE;2008-06-21 20:00;CYXE 212000Z 15004KT 15SM FEW080 26/09 A3013 RMK CU2 SLP210

CYXE;2008-06-21 21:00;CYXE 212100Z 19004KT 15SM SCT080 27/08 A3013 RMK CU3 SLP209

CYXE;2008-06-21 22:00;CYXE 212200Z 31002KT 15SM FEW081 27/07 A3011 RMK CU2 SLP204

CYXE;2008-06-21 23:00;CYXE 212300Z 18006KT 15SM SCT087 BKN280 25/09 A3009 RMK CU3CI0 SLP198

CYXE;2008-06-22 00:00;CYXE 220000Z 08002KT 15SM FEW087 BKN300 27/07 A3008 RMK CU2CI1 SLP193

CYXE;2008-06-22 01:00;CYXE 220100Z 18003KT 15SM FEW080 SCT300 26/08 A3007 RMK CU2CI1 SLP189

CYXE;2008-06-22 02:00;CYXE 220200Z 15006KT 15SM FEW080 SCT300 24/09 A3007 RMK CU2CI1 SLP187

CYXE;2008-06-22 03:00;CYXE 220300Z 14006KT 15SM FEW050 BKN300 21/09 A3006 RMK CU1CI1 SLP182

CYXE;2008-06-22 04:00;CYXE 220400Z 15006KT 15SM FEW040 FEW300 19/08 A3007 RMK SC1CI0 SLP184

CYXE;2008-06-22 05:00;CYXE 220500Z 16006KT 15SM FEW040 FEW300 19/08 A3007 RMK SC1CI0 SLP184

CYXE;2008-06-22 06:00;CYXE 220600Z 16007KT 15SM FEW040 FEW300 19/08 A3007 RMK SC1CI0 SLP184

CYXE;2008-06-22 07:00;CYXE 220700Z 18007KT 15SM FEW250 17/09 A3006 RMK CI0 SLP181

CYXE;2008-06-22 08:00;CYXE 220800Z 17007KT 15SM FEW250 16/09 A3005 RMK CI0 SLP179

CYXE;2008-06-22 09:00;CYXE 220900Z 17007KT 15SM SCT250 15/09 A3005 RMK CI0 SLP179

CYXE;2008-06-22 10:00;CYXE 221000Z 16005KT 15SM FEW080 BKN250 14/08 A3004 RMK AC1CI1 SLP177

CYXE;2008-06-22 11:00;CYXE 221100Z 17007KT 15SM FEW080 BKN250 14/08 A3004 RMK AC1CI2 SLP177

CYXE;2008-06-22 12:00;CYXE 221200Z 16009KT 15SM BKN250 16/08 A3003 RMK CI2 SLP172

CYXE;2008-06-22 13:00;CYXE 221300Z 16009KT 15SM BKN250 18/09 A3002 RMK CI2 CONTRAILS SLP168

CYXE;2008-06-22 14:00;CYXE 221400Z 15008KT 15SM FEW085 BKN250 20/10 A3001 RMK AC1CI3 SLP164

CYXE;2008-06-22 15:00;CYXE 221500Z 15012KT 15SM SCT220 23/10 A2999 RMK CI2 SLP157

CYXE;2008-06-22 16:00;CYXE 221600Z 17010G16KT 15SM FEW090 BKN220 25/10 A2999 RMK AC1CI3 SLP155

CYXE;2008-06-22 17:00;CYXE 221700Z 17016KT 15SM FEW110 BKN220 26/09 A2997 RMK AC1CI3 SLP150

CYXE;2008-06-22 18:00;CYXE 221800Z 17018KT 15SM FEW110 BKN220 26/08 A2996 RMK AC1CI3 SLP147

CYXE;2008-06-22 19:00;CYXE 221900Z 16016G22KT 15SM FEW110 BKN220 28/09 A2995 RMK AC2CI2 SLP142

CYXE;2008-06-22 20:00;CYXE 222000Z 18014G22KT 15SM FEW110 BKN220 27/07 A2993 RMK AC2CI2 SLP138

CYXE;2008-06-22 21:00;CYXE 222100Z 17017KT 15SM SCT110 BKN250 27/08 A2992 RMK ACC3CI2 SLP134

CYXE;2008-06-22 22:00;CYXE 222200Z 19012G17KT 15SM FEW083 BKN110 OVC250 25/09 A2990 RMK AC2AC3CI2 SLP128

CYXE;2008-06-22 22:28;CYXE 222228Z 24016G22KT 15SM -SHRA BKN080 OVC110 24/ RMK ACC6AC2

CYXE;2008-06-22 23:00;CYXE 222300Z 25013KT 12SM -SHRA OVC080 18/15 A2995 RMK ACC8 SLP142

CYXE;2008-06-23 00:00;CYXE 230000Z 28006KT 12SM SHRA OVC080 17/16 A2994 RMK ACC8 SLP147

CYXE;2008-06-23 00:16;CYXE 230016Z 29003KT 15SM BKN085 OVC250 17/ RERA RMK ACC6CI2

CYXE;2008-06-23 00:41;CYXE 230041Z 17003KT 15SM -SHRA BKN080 OVC250 17/ RERA RMK ACC6CI2

CYXE;2008-06-23 01:00;CYXE 230100Z 17004KT 15SM -SHRA BKN080 OVC250 17/17 A2994 RERA RMK ACC6CI2 SLP145

CYXE;2008-06-23 02:00;CYXE 230200Z 12004KT 15SM -SHRA BKN080 OVC250 16/16 A2993 RMK ACC6CI1 SLP143

CYXE;2008-06-23 02:07;CYXE 230207Z 14006KT 15SM VCSH SCT045CB BKN085 17/ RMK CB3ACC3

CYXE;2008-06-23 03:00;CYXE 230300Z 14007KT 15SM FEW060TCU SCT090 BKN250 16/15 A2990 RMK TCU2ACC2CI0 SLP130

CYXE;2008-06-23 04:00;CYXE 230400Z 22006KT 15SM SCT050TCU SCT250 16/15 A2994 RMK TCU3CI0 SLP141

CYXE;2008-06-23 05:00;CYXE 230500Z 24008KT 15SM FEW080 SCT250 15/14 A2995 RMK ACC2CI0 SLP143

CYXE;2008-06-23 06:00;CYXE 230600Z 25007KT 15SM FEW090 FEW250 14/13 A2996 RMK AC1CI0 SLP149

CYXE;2008-06-23 07:00;CYXE 230700Z 27006KT 15SM FEW090 FEW230 12/11 A2997 RMK AC1CI1 SLP152

CYXE;2008-06-23 08:00;CYXE 230800Z 26006KT 15SM FEW230 10/09 A2996 RMK CI0 SLP149

CYXE;2008-06-23 09:00;CYXE 230900Z 25006KT 15SM FEW090 FEW230 09/09 A2997 RMK AC1CI0 SLP154

CYXE;2008-06-23 10:00;CYXE 231000Z 25008KT 15SM FEW090 FEW230 09/08 A2997 RMK AC1CI0 SLP154

CYXE;2008-06-23 11:00;CYXE 231100Z 25006KT 15SM FEW090 SCT230 09/08 A2997 RMK AC1CI1 SLP155

CYXE;2008-06-23 12:00;CYXE 231200Z 27009KT 15SM FEW090 FEW120 BKN230 11/10 A2998 RMK ACC1AC1CI2 SLP163

CYXE;2008-06-23 13:00;CYXE 231300Z 25008KT 15SM FEW090 FEW120 SCT230 13/11 A2998 RMK ACC1AC1CI2 SLP163

CYXE;2008-06-23 14:00;CYXE 231400Z 25009KT 15SM FEW090 BKN220 16/12 A2999 RMK AC2CI2 SLP164

CYXE;2008-06-23 15:00;CYXE 231500Z 27010KT 15SM FEW100 BKN270 17/11 A2998 RMK AC2CI3 SLP159

CYXE;2008-06-23 16:00;CYXE 231600Z 25011KT 15SM FEW100 BKN270 18/12 A2998 RMK AC2CI4 SLP159

CYXE;2008-06-23 17:00;CYXE 231700Z 29012G21KT 15SM FEW100 BKN270 20/11 A2997 RMK AC1CI5 SLP156

CYXE;2008-06-23 18:00;CYXE 231800Z 27013KT 15SM FEW080 BKN250 23/10 A2996 RMK CU1CI3 SLP152

CYXE;2008-06-23 19:00;CYXE 231900Z 32013G18KT 15SM FEW061 BKN300 23/08 A2996 RMK CU2CI2 SLP150

CYXE;2008-06-23 20:00;CYXE 232000Z 30012KT 15SM FEW070 BKN300 24/07 A2995 RMK CU2CI2 SLP148

CYXE;2008-06-23 21:00;CYXE 232100Z 28012KT 15SM FEW080 SCT300 24/06 A2995 RMK CU2CI1 SLP147

CYXE;2008-06-23 22:00;CYXE 232200Z 30013G19KT 15SM FEW080 SCT300 25/07 A2993 RMK CU2CI1 SLP143

CYXE;2008-06-23 23:00;CYXE 232300Z 30011G16KT 15SM FEW090 SCT300 25/06 A2993 RMK CU2CI1 SLP141

CYXE;2008-06-24 00:00;CYXE 240000Z 30009KT 15SM FEW085 FEW300 25/06 A2992 RMK CU2CI0 SLP137

CYXE;2008-06-24 01:00;CYXE 240100Z 29010KT 15SM FEW085 FEW300 24/06 A2991 RMK CU2CI0 SLP135

CYXE;2008-06-24 02:00;CYXE 240200Z 26008KT 15SM FEW085 22/10 A2992 RMK AC2 SLP136

CYXE;2008-06-24 03:00;CYXE 240300Z 25006KT 15SM FEW090 FEW300 18/12 A2992 RMK AC1CI0 SLP137

CYXE;2008-06-24 04:00;CYXE 240400Z 22006KT 15SM FEW090 SCT300 16/11 A2992 RMK AC1CI0 SLP138

CYXE;2008-06-24 05:00;CYXE 240500Z 24006KT 15SM FEW080 SCT300 15/11 A2993 RMK ACC2CI0 SLP139

CYXE;2008-06-24 06:00;CYXE 240600Z 24004KT 15SM BKN075 BKN300 15/11 A2992 RMK AC5CI1 SLP136

CYXE;2008-06-24 07:00;CYXE 240700Z 02002KT 15SM FEW072 BKN098 14/12 A2991 RMK AC2AC6 SLP133

CYXE;2008-06-24 08:00;CYXE 240800Z 00000KT 15SM FEW079 FEW250 14/11 A2991 RMK AC2CI0 SLP132

CYXE;2008-06-24 09:00;CYXE 240900Z 28004KT 15SM FEW083 BKN250 13/11 A2991 RMK AC2CI2 SLP134

CYXE;2008-06-24 10:00;CYXE 241000Z 00000KT 15SM FEW091 SCT250 13/10 A2990 RMK AC2CI0 VIRGA SLP129

CYXE;2008-06-24 11:00;CYXE 241100Z 07006KT 15SM FEW091 BKN250 13/10 A2988 RMK AC2CI2 CC ASOCTD SHWRS NW SLP124

CYXE;2008-06-24 12:00;CYXE 241200Z 09004KT 15SM FEW095 OVC250 15/12 A2987 RMK AC2CI3 SHWRS NW SLP118

CYXE;2008-06-24 13:00;CYXE 241300Z 06005KT 15SM BKN095 OVC250 16/12 A2986 RMK AC5CI3 SHWRS W N ACC ASOCTD SLP115

CYXE;2008-06-24 14:00;CYXE 241400Z 05009KT 15SM BKN093 BKN120 OVC250 17/11 A2986 RMK AC5AC2CI2 ACC ASOCTD VIRGA ALQDS SLP114

CYXE;2008-06-24 14:22;CYXE 241422Z 02003KT 12SM -SHRA BKN070 OVC100 17/ RMK AC6AC2 ACC ASOCTD

CYXE;2008-06-24 15:00;CYXE 241500Z 18002KT 15SM -SHRA BKN070 OVC090 16/14 A2986 RMK AC5AC2 ACC ASOCTD SLP118

CYXE;2008-06-24 16:00;CYXE 241600Z 19002KT 15SM VCSH BKN075 BKN100 18/12 A2986 RMK AC5AC2 SLP119

CYXE;2008-06-24 17:00;CYXE 241700Z 06004KT 15SM FEW065 BKN100 21/11 A2984 RMK SC2AC5 ACC ASOCTD SLP112

CYXE;2008-06-24 18:00;CYXE 241800Z 36004KT 15SM SCT080 BKN110 21/11 A2983 RMK AC3AC4 ACC ASOCTD SLP105

CYXE;2008-06-24 19:00;CYXE 241900Z 32005KT 15SM SCT075 BKN100 OVC200 21/12 A2984 RMK AC3AC3CS2 SLP108

CYXE;2008-06-24 19:32;CYXE 241932Z 29005KT 15SM -SHRA FEW050 BKN072 OVC090 20/ RMK SC2AC5AC2 CVCTV CLD EMBD

CYXE;2008-06-24 20:00;CYXE 242000Z 27008KT 8SM -SHRA SCT020 OVC070 17/14 A2986 RMK SC4AC4 CVCTV CLD EMBD SLP116

CYXE;2008-06-24 21:00;CYXE 242100Z 28003KT 15SM -SHRA FEW015 BKN040 OVC060 17/15 A2986 RMK SC2SC3SC3 SLP119

CYXE;2008-06-24 22:00;CYXE 242200Z 33006KT 15SM -SHRA FEW012 SCT035 OVC080 18/14 A2986 RMK CU1SC2AS4 CVCTV CLD EMBD SLP118

CYXE;2008-06-24 23:00;CYXE 242300Z 00000KT 15SM -SHRA FEW012 BKN080 BKN120 18/14 A2986 RMK CU1AC4AS2 SLP118

CYXE;2008-06-25 00:00;CYXE 250000Z 24007KT 15SM SCT080 BKN120 BKN220 18/15 A2984 RMK AC4AS1CI1 SLP111

CYXE;2008-06-25 01:00;CYXE 250100Z 25007KT 15SM FEW050TCU SCT090 BKN220 19/13 A2984 RMK TCU2AC2CI1 CB TOPS SE SLP111

CYXE;2008-06-25 02:00;CYXE 250200Z 27006KT 15SM FEW090 BKN220 19/14 A2983 RMK AC1CI3 SLP109

CYXE;2008-06-25 03:00;CYXE 250300Z 26005KT 15SM FEW090 SCT220 17/14 A2984 RMK AC1CI2 SLP113

CYXE;2008-06-25 04:00;CYXE 250400Z 30007KT 15SM FEW090 FEW200 13/12 A2985 RMK AC1CI0 SLP116

CYXE;2008-06-25 05:00;CYXE 250500Z 27007KT 15SM FEW090 FEW200 11/11 A2986 RMK AC1CI0 SLP117

CYXE;2008-06-25 06:00;CYXE 250600Z 28005KT 15SM FEW090 11/10 A2986 RMK AC1 SLP117

CYXE;2008-06-25 07:00;CYXE 250700Z 27007KT 15SM SKC 11/09 A2986 RMK SLP118

CYXE;2008-06-25 08:00;CYXE 250800Z 27007KT 15SM SKC 10/09 A2987 RMK SLP122

CYXE;2008-06-25 09:00;CYXE 250900Z 26008KT 15SM SKC 09/09 A2987 RMK SLP126

CYXE;2008-06-25 10:00;CYXE 251000Z 26008KT 15SM FEW090 08/08 A2987 RMK AC1 SLP126

CYXE;2008-06-25 11:00;CYXE 251100Z 26007KT 15SM SKC 07/07 A2987 RMK SLP127

CYXE;2008-06-25 12:00;CYXE 251200Z 24004KT 15SM SKC 09/09 A2988 RMK SLP128

CYXE;2008-06-25 13:00;CYXE 251300Z 26004KT 15SM SKC 12/11 A2988 RMK SLP129

CYXE;2008-06-25 14:00;CYXE 251400Z 25006KT 15SM FEW250 14/12 A2988 RMK CI1 SLP130

CYXE;2008-06-25 15:00;CYXE 251500Z 23005KT 15SM FEW250 17/13 A2988 RMK CI1 SLP124

CYXE;2008-06-25 16:00;CYXE 251600Z 23007KT 15SM SCT300 19/13 A2988 RMK CI0 SLP125

CYXE;2008-06-25 17:00;CYXE 251700Z 25009KT 15SM FEW036 SCT300 22/13 A2987 RMK CU1CI0 SLP123

CYXE;2008-06-25 18:00;CYXE 251800Z 24009G17KT 15SM BKN056TCU BKN300 23/10 A2987 RMK TCU5CI0 SLP120

CYXE;2008-06-25 19:00;CYXE 251900Z 27010G16KT 15SM BKN060TCU BKN300 24/09 A2986 RMK TCU5CI0 SLP116

CYXE;2008-06-25 20:00;CYXE 252000Z 28016KT 15SM VCSH BKN067TCU 24/09 A2984 RMK TCU6 CB N SLP111

CYXE;2008-06-25 21:00;CYXE 252100Z 28015KT 15SM VCSH SCT067TCU BKN084 25/08 A2984 RMK TCU3AC2 CB N SLP111

CYXE;2008-06-25 22:00;CYXE 252200Z CCA 33007G16KT 15SM SCT065TCU BKN095 23/12 A2984 RMK TCU4AC1 VCSH CB N SLP111

CYXE;2008-06-25 23:00;CYXE 252300Z 33007KT 15SM SCT065TCU BKN200 23/12 A2983 RMK TCU3CI1 SLP108

CYXE;2008-06-26 00:00;CYXE 260000Z 29014KT 15SM SCT065TCU BKN200 23/08 A2983 RMK TCU3CI2 SLP108

CYXE;2008-06-26 01:00;CYXE 260100Z 30009KT 15SM FEW065TCU BKN200 23/10 A2982 RMK TCU1CI2 SLP107

CYXE;2008-06-26 02:00;CYXE 260200Z 28008KT 15SM FEW065 BKN200 22/09 A2982 RMK CU1CI2 SLP107

CYXE;2008-06-26 03:00;CYXE 260300Z 36006KT 15SM FEW070 BKN200 16/12 A2983 RMK AC2CI2 SLP108

CYXE;2008-06-26 04:00;CYXE 260400Z 00000KT 15SM FEW070 SCT200 15/12 A2984 RMK AC2CI1 SLP110

CYXE;2008-06-26 05:00;CYXE 260500Z 00000KT 15SM FEW070 SCT200 15/12 A2984 RMK AC2CI1 SLP110

CYXE;2008-06-26 06:00;CYXE 260600Z 22003KT 15SM FEW090 FEW250 13/11 A2983 RMK AC1CI0 SLP108

CYXE;2008-06-26 07:00;CYXE 260700Z 20003KT 15SM FEW090 13/12 A2983 RMK AC1 SLP107

CYXE;2008-06-26 08:00;CYXE 260800Z 21002KT 15SM SCT100 BKN250 12/11 A2984 RMK AC3CI2 SLP109

CYXE;2008-06-26 09:00;CYXE 260900Z 25004KT 15SM BKN100 BKN250 11/11 A2983 RMK AC6CI1 SLP106

CYXE;2008-06-26 10:00;CYXE 261000Z 25004KT 15SM FEW100 SCT250 11/10 A2984 RMK AC1CI2 SLP110

CYXE;2008-06-26 11:00;CYXE 261100Z CCA 25003KT 15SM BKN110 BKN250 09/08 A2984 RMK AC6CI1 ACC EMBD SLP110

CYXE;2008-06-26 12:00;CYXE 261200Z 28002KT 15SM BKN110 BKN250 11/11 A2984 RMK AC6CI1 SHWRS SW-W SLP112

CYXE;2008-06-26 13:00;CYXE 261300Z 21004KT 15SM BKN090 BKN250 12/11 A2983 RMK AC6CI1 SH SW SLP108

CYXE;2008-06-26 13:46;CYXE 261346Z 24004KT 15SM -SHRA SCT040 BKN090 12/ RMK SC4AC3

CYXE;2008-06-26 14:00;CYXE 261400Z 25006KT 10SM -SHRA BKN030 BKN080 12/11 A2984 RMK SC5AC2 CVCTV CLD EMBD SLP112

CYXE;2008-06-26 15:00;CYXE 261500Z 18002KT 10SM -SHRA BKN023 BKN080 14/12 A2982 RMK SC5AC2 CVCV CLD EMBD SLP108

CYXE;2008-06-26 15:53;CYXE 261553Z 14002KT 15SM SCT030 BKN075 BKN250 18/ RMK SC3AC2CI0

CYXE;2008-06-26 16:00;CYXE 261600Z 15002KT 15SM SCT030 BKN075 BKN250 18/12 A2981 RMK SC3AC2CI0 SLP103

CYXE;2008-06-26 17:00;CYXE 261700Z 11004KT 15SM FEW030 SCT078 BKN250 20/11 A2979 RMK SC2AC2CI1 CONTRAILS SLP097

CYXE;2008-06-26 18:00;CYXE 261800Z 17003KT 15SM SCT080 BKN250 21/10 A2977 RMK AC4CI2 SLP088

CYXE;2008-06-26 19:00;CYXE 261900Z 20004KT 15SM FEW055 FEW080 BKN250 23/10 A2976 RMK CU1AC1CI2 SLP082

CYXE;2008-06-26 20:00;CYXE 262000Z 19008KT 15SM FEW060 BKN300 24/09 A2973 RMK CU2CI1 SLP075

CYXE;2008-06-26 21:00;CYXE 262100Z 20007KT 15SM FEW060 BKN250 24/10 A2971 RMK CU2CI1 SLP067

CYXE;2008-06-26 22:00;CYXE 262200Z 18003KT 15SM SCT065 BKN250 24/11 A2969 RMK CU3CI2 CB TOP S SLP060

CYXE;2008-06-26 23:00;CYXE 262300Z 09003KT 15SM FEW065 BKN240 24/10 A2966 RMK CU2CI3 SLP050

CYXE;2008-06-27 00:00;CYXE 270000Z 10009KT 15SM FEW065 BKN240 24/11 A2962 RMK CU2CI2 CB TOPS S SLP036

CYXE;2008-06-27 01:00;CYXE 270100Z 11009KT 15SM FEW050TCU BKN240 24/12 A2961 RMK TCU2CI2 SLP033

CYXE;2008-06-27 01:53;CYXE 270153Z 10011KT 15SM TS FEW044CB BKN100 BKN240 22/ RMK CB2AS3CI1 CB SE-SW

CYXE;2008-06-27 02:00;CYXE 270200Z 10011KT 15SM TS FEW044CB BKN100 BKN240 21/11 A2959 RMK CB2AS3CI1 CB SE-SW LTNG DIST W SLP026

CYXE;2008-06-27 03:00;CYXE 270300Z 31023G31KT 12SM -TSRA BKN040CB OVC100 16/10 A2966 RMK CB5AC3 LTGICCC VIS W-N 6 SLP050

CYXE;2008-06-27 03:04;CYXE 270304Z 30027G32KT 1SM R09/P6000FT/U +TSRA FEW013 OVC040CB 13/ RMK SF2CB6 LTGICCC ALQS

CYXE;2008-06-27 03:19;CYXE 270319Z 31017G28KT 3/4SM R09/2800V6000FT/U +TSRA OVC057CB 12/ RMK CB8 LTGICCC ALQDS

CYXE;2008-06-27 03:30;CYXE 270330Z 32017G22KT 3SM TSRA OVC057CB 12/ RMK CB8 LTGICCC ALQDS

CYXE;2008-06-27 04:00;CYXE 270400Z 33015G22KT 4SM -TSRA SCT022 OVC070CB 12/12 A2971 RMK ST4CB4 RETS RERA LTGICCC ALQDS SLP067

CYXE;2008-06-27 04:29;CYXE 270429Z 32010KT 6SM -TSRA BKN007 OVC085CB 12/ RMK SF6CB2 LTGCC SW-NW

CYXE;2008-06-27 04:47;CYXE 270447Z 32010G16KT 8SM -SHRA SCT007 BKN035CB OVC085 12/ RMK SF3CB2AC3 RETS

CYXE;2008-06-27 05:00;CYXE 270500Z 35008KT 8SM -SHRA FEW007 SCT035 OVC085 12/12 A2967 RMK SF2SC2ACC4 CB EMBD LTGIC N RETS SLP053

CYXE;2008-06-27 06:00;CYXE 270600Z 28009KT 15SM -SHRA BKN012 OVC050 11/11 A2968 RMK SC6SC2 CVCTV CLD EMBD SLP058

CYXE;2008-06-27 06:20;CYXE 270620Z 27013KT 15SM SCT012 BKN030 OVC095 11/ RMK SF3SC3AC2

CYXE;2008-06-27 06:45;CYXE 270645Z 28012KT 15SM BKN011 OVC035 11/ RMK SF6SC2

CYXE;2008-06-27 07:00;CYXE 270700Z 29017KT 15SM BKN011 OVC035 11/11 A2970 RMK SF6SC2 SLP063

CYXE;2008-06-27 07:16;CYXE 270716Z 30013G20KT 15SM FEW012 OVC035 11/ RMK SF2SC6

CYXE;2008-06-27 08:00;CYXE 270800Z 29016KT 15SM BKN013 BKN045 10/10 A2970 RMK SF5SC2 SLP064

CYXE;2008-06-27 09:00;CYXE 270900Z 29017KT 15SM BKN015 OVC045 10/10 A2970 RMK SF6SC2 SLP062

CYXE;2008-06-27 10:00;CYXE 271000Z 29015G21KT 15SM BKN017 BKN080 10/09 A2970 RMK SC6AC1 SLP062

CYXE;2008-06-27 11:00;CYXE 271100Z CCA 28018G25KT 15SM BKN017 BKN080 10/08 A2970 RMK SC5AC2 SLP062

CYXE;2008-06-27 12:00;CYXE 271200Z 28014G19KT 15SM BKN018 OVC095 10/08 A2970 RMK SC7AC1 SLP062

CYXE;2008-06-27 12:35;CYXE 271235Z 29017KT 15SM -SHRA OVC018 10/ RMK SC8 CVCTV CLD EMBD

CYXE;2008-06-27 12:49;CYXE 271249Z 29020G25KT 2SM -RA BR OVC014 10/ RMK SC8

CYXE;2008-06-27 13:00;CYXE 271300Z 29018G24KT 2SM -RA BR OVC011 09/09 A2968 RMK SC8 SLP057

CYXE;2008-06-27 13:12;CYXE 271312Z 29017G22KT 2SM -RA BR OVC008 09/ RMK SF8

CYXE;2008-06-27 13:38;CYXE 271338Z 30019G26KT 4SM -RA BR BKN008 OVC030 10/ RMK SF6SC2

CYXE;2008-06-27 14:00;CYXE 271400Z 30016G25KT 2SM -RA BR OVC006 10/10 A2968 RMK SF8 SLP057

CYXE;2008-06-27 14:13;CYXE 271413Z 30018G27KT 5SM -RA BR OVC008 10/ RMK SF8

CYXE;2008-06-27 15:00;CYXE 271500Z 31019G26KT 5SM -RA BR BKN008 OVC030 11/11 A2968 RMK SF7SC1 SLP062

CYXE;2008-06-27 16:00;CYXE 271600Z 32018G24KT 5SM -RA BR BKN009 OVC020 11/11 A2969 RMK SF7SC1 SLP064

CYXE;2008-06-27 16:27;CYXE 271627Z 32017G24KT 2SM -RA BR OVC008 RMK SF8

CYXE;2008-06-27 17:00;CYXE 271700Z 33018G25KT 3SM -RA BR OVC007 11/11 A2971 RMK SF8 VIS VRB 2-4 SLP069

CYXE;2008-06-27 17:41;CYXE 271741Z 34017G27KT 6SM -RA OVC008 12/ RMK SF8

CYXE;2008-06-27 17:52;CYXE 271752Z 34018G24KT 15SM OVC009 12/ RMK SC8

CYXE;2008-06-27 17:57;CYXE 271757Z 34021KT 15SM OVC012 12/ RMK SC8

CYXE;2008-06-27 18:00;CYXE 271800Z 35022KT 15SM OVC012 12/12 A2974 RMK SC8 SLP082

CYXE;2008-06-27 18:43;CYXE 271843Z 34013G21KT 6SM -DZ OVC010 12/ RMK ST8

CYXE;2008-06-27 18:56;CYXE 271856Z 35020G28KT 8SM -RA OVC012 12/ RMK SC8

CYXE;2008-06-27 19:00;CYXE 271900Z 35018G28KT 8SM -RA BKN012 OVC030 13/12 A2977 RMK SC7SC1 SLP093

CYXE;2008-06-27 19:35;CYXE 271935Z 35022KT 10SM -RA BKN020 OVC030 14/ RMK SC6SC2

CYXE;2008-06-27 19:52;CYXE 271952Z 35018G25KT 15SM BKN020 OVC038 14/ RMK SC6SC2

CYXE;2008-06-27 20:00;CYXE 272000Z 35021G28KT 15SM BKN020 OVC040 15/12 A2979 RMK SC6SC2 SLP100

CYXE;2008-06-27 21:00;CYXE 272100Z 35018G24KT 15SM BKN025 OVC066 16/12 A2983 RMK SC5AC3 SLP111

CYXE;2008-06-27 22:00;CYXE 272200Z 35016KT 15SM BKN031 OVC087 16/12 A2986 RMK SC5AC3 SLP123

CYXE;2008-06-27 23:00;CYXE 272300Z 34010KT 15SM FEW030 OVC052 16/13 A2989 RMK SC2SC6 SLP132

CYXE;2008-06-27 23:47;CYXE 272347Z 33011G16KT 15SM -SHRA BKN047 OVC100 17/ RMK SC7AC1

CYXE;2008-06-28 00:00;CYXE 280000Z 32009KT 15SM -SHRA BKN047 OVC100 16/13 A2991 RMK SC7AC1 SLP140

CYXE;2008-06-28 00:39;CYXE 280039Z 36014G21KT 4SM -SHRA OVC022 13/ RMK SC8 CVCTV CLD EMBD

CYXE;2008-06-28 01:00;CYXE 280100Z 34012KT 5SM -SHRA OVC016 12/12 A2996 RMK SC8 CVCTV CLD EMBD SLP156

CYXE;2008-06-28 02:00;CYXE 280200Z 34011KT 15SM VCSH FEW016 OVC024 13/12 A2998 RMK SF2SC6 CVCTV CLD EMBD SLP163

CYXE;2008-06-28 03:00;CYXE 280300Z 36007KT 15SM SCT024 BKN090 14/13 A3000 RMK ST4AC2 SLP171

CYXE;2008-06-28 04:00;CYXE 280400Z 33009KT 15SM FEW024 BKN086 BKN200 14/13 A3003 RMK ST1AC4CI1 SLP181

CYXE;2008-06-28 05:00;CYXE 280500Z 31008KT 15SM BKN086 BKN200 13/12 A3004 RMK AC5CI0 SLP186

CYXE;2008-06-28 06:00;CYXE 280600Z 31010KT 15SM FEW085 13/12 A3006 RMK AC1 SLP193

CYXE;2008-06-28 07:00;CYXE 280700Z 31009KT 15SM SKC 12/11 A3007 RMK SLP196

CYXE;2008-06-28 08:00;CYXE 280800Z 31006KT 15SM SKC 10/10 A3009 RMK SLP201

CYXE;2008-06-28 09:00;CYXE 280900Z 32008KT 15SM FEW250 10/10 A3010 RMK CI1 SLP206

CYXE;2008-06-28 10:00;CYXE 281000Z 30007KT 15SM FEW250 10/10 A3012 RMK CI1 SLP213

CYXE;2008-06-28 11:00;CYXE 281100Z 31005KT 15SM FEW250 09/09 A3014 RMK CI1 SLP217

CYXE;2008-06-28 12:00;CYXE 281200Z 29005KT 15SM FEW250 09/09 A3015 RMK CI1 SLP223

CYXE;2008-06-28 13:00;CYXE 281300Z 32004KT 15SM FEW250 13/11 A3018 RMK CI1 SLP231

CYXE;2008-06-28 14:00;CYXE 281400Z 30005KT 15SM FEW300 15/13 A3019 RMK CI1 SLP236

CYXE;2008-06-28 15:00;CYXE 281500Z 29003KT 15SM SCT300 17/13 A3021 RMK CI1 SLP240

CYXE;2008-06-28 16:00;CYXE 281600Z 30004KT 15SM BKN300 19/15 A3022 RMK CI1 SLP243

CYXE;2008-06-28 17:00;CYXE 281700Z 29003KT 15SM FEW028 BKN300 21/14 A3022 RMK CU1CI1 SLP244

CYXE;2008-06-28 18:00;CYXE 281800Z 31003KT 15SM FEW038 BKN300 22/13 A3022 RMK CU2CI0 SLP242

CYXE;2008-06-28 19:00;CYXE 281900Z 33005KT 15SM FEW048 BKN300 24/11 A3021 RMK CU2CI1 SLP239

CYXE;2008-06-28 20:00;CYXE 282000Z 30006KT 15SM FEW059 SCT300 24/10 A3021 RMK CU2CI0 SLP238

CYXE;2008-06-28 21:00;CYXE 282100Z 27004KT 15SM FEW064 SCT300 24/09 A3021 RMK CU2CI0 SLP236

CYXE;2008-06-28 22:00;CYXE 282200Z 26005KT 15SM SCT052 BKN300 25/12 A3020 RMK CU3CI0 SLP233

CYXE;2008-06-28 23:00;CYXE 282300Z 29004KT 15SM FEW045 SCT300 23/12 A3019 RMK CU2CI0 SLP231

CYXE;2008-06-29 00:00;CYXE 290000Z 00000KT 15SM FEW058 BKN300 25/10 A3018 RMK CU2CI0 SLP228

CYXE;2008-06-29 01:00;CYXE 290100Z 00000KT 15SM FEW058 BKN300 24/10 A3017 RMK CU2CI0 SLP225

CYXE;2008-06-29 02:00;CYXE 290200Z 00000KT 15SM FEW035 SCT300 23/15 A3017 RMK SC2CI0 SLP223

CYXE;2008-06-29 03:00;CYXE 290300Z 00000KT 15SM FEW035 FEW300 21/11 A3016 RMK SC1CI1 SLP219

CYXE;2008-06-29 04:00;CYXE 290400Z 17004KT 15SM FEW300 19/12 A3017 RMK CI0 SLP220

CYXE;2008-06-29 05:00;CYXE 290500Z 15004KT 15SM FEW300 17/11 A3016 RMK CI1 SLP219

CYXE;2008-06-29 06:00;CYXE 290600Z 16005KT 15SM FEW300 16/12 A3016 RMK CI0 SLP216

CYXE;2008-06-29 07:00;CYXE 290700Z 18004KT 15SM SKC 15/12 A3015 RMK SLP215

CYXE;2008-06-29 08:00;CYXE 290800Z 18006KT 15SM SKC 14/11 A3015 RMK SLP215

CYXE;2008-06-29 09:00;CYXE 290900Z 19007KT 15SM FEW300 14/11 A3014 RMK CI1 SLP213

CYXE;2008-06-29 10:00;CYXE 291000Z 19006KT 15SM FEW300 13/10 A3014 RMK CI1 SLP213

CYXE;2008-06-29 11:00;CYXE 291100Z 18006KT 15SM FEW300 12/10 A3015 RMK CI1 SLP214

CYXE;2008-06-29 12:00;CYXE 291200Z 21004KT 15SM BKN300 13/11 A3015 RMK CI1 SLP214

CYXE;2008-06-29 13:00;CYXE 291300Z 19005KT 15SM BKN300 15/12 A3014 RMK CI1 SLP212

CYXE;2008-06-29 14:00;CYXE 291400Z 20005KT 15SM BKN300 17/13 A3014 RMK CI1 SLP212

CYXE;2008-06-29 15:00;CYXE 291500Z 20006KT 15SM SCT300 20/13 A3013 RMK CI1 SLP207

CYXE;2008-06-29 16:00;CYXE 291600Z 18006KT 15SM SCT300 21/14 A3012 RMK CI1 SLP204

CYXE;2008-06-29 17:00;CYXE 291700Z 18006KT 15SM BKN300 23/14 A3011 RMK CI1 SLP201

CYXE;2008-06-29 18:00;CYXE 291800Z 21009KT 15SM SCT300 25/16 A3010 RMK CI1 SLP197

CYXE;2008-06-29 19:00;CYXE 291900Z 24009KT 15SM FEW300 27/15 A3009 RMK CI0 SLP192

CYXE;2008-06-29 20:00;CYXE 292000Z 24010KT 15SM FEW300 28/14 A3007 RMK CI1 SLP185

CYXE;2008-06-29 21:00;CYXE 292100Z 23010KT 15SM FEW300 28/12 A3005 RMK CI0 SLP179

CYXE;2008-06-29 22:00;CYXE 292200Z 23011G16KT 15SM FEW300 29/14 A3004 RMK CI0 SLP175

CYXE;2008-06-29 23:00;CYXE 292300Z 22010KT 15SM SCT300 29/13 A3002 RMK CI0 CONTRAILS SLP169

CYXE;2008-06-30 00:00;CYXE 300000Z 21008KT 15SM BKN300 29/14 A3000 RMK CI0 SLP162

CYXE;2008-06-30 01:00;CYXE 300100Z 19010KT 15SM BKN300 28/13 A2998 RMK CI0 SLP156

CYXE;2008-06-30 02:00;CYXE 300200Z 19008KT 15SM SCT300 26/13 A2997 RMK CI0 SLP152

CYXE;2008-06-30 03:00;CYXE 300300Z 19009KT 15SM FEW300 25/13 A2996 RMK CI0 SLP146

CYXE;2008-06-30 04:00;CYXE 300400Z 19008KT 15SM FEW300 22/14 A2996 RMK CI0 SLP147

CYXE;2008-06-30 05:00;CYXE 300500Z 19009KT 15SM FEW300 21/14 A2996 RMK CI1 SLP146

CYXE;2008-06-30 06:00;CYXE 300600Z 19009KT 15SM SKC 20/14 A2996 RMK SLP146

CYXE;2008-06-30 07:00;CYXE 300700Z 19008KT 15SM SKC 18/14 A2995 RMK SLP142

CYXE;2008-06-30 08:00;CYXE 300800Z 20007KT 15SM SKC 18/14 A2995 RMK SLP141

CYXE;2008-06-30 09:00;CYXE 300900Z 21006KT 15SM FEW270 17/14 A2994 RMK CI1 SLP140

CYXE;2008-06-30 10:00;CYXE 301000Z 21007KT 15SM FEW270 15/13 A2994 RMK CI1 SLP139

CYXE;2008-06-30 11:00;CYXE 301100Z 24004KT 12SM SCT270 12/12 A2995 RMK CI1 BR SLP143

CYXE;2008-06-30 12:00;CYXE 301200Z 20004KT 15SM SCT270 15/14 A2995 RMK CI1 SLP143

CYXE;2008-06-30 13:00;CYXE 301300Z 19002KT 15SM FEW270 17/15 A2995 RMK CI1 SLP143

CYXE;2008-06-30 14:00;CYXE 301400Z 22002KT 15SM FEW270 20/15 A2995 RMK CI1 SLP142

CYXE;2008-06-30 15:00;CYXE 301500Z 22003KT 15SM SCT270 22/15 A2995 RMK CI1 SLP140

CYXE;2008-06-30 16:00;CYXE 301600Z 16004KT 15SM SCT270 26/17 A2993 RMK CI1 SLP134

CYXE;2008-06-30 17:00;CYXE 301700Z 13007KT 15SM FEW270 29/16 A2992 RMK CI0 SLP131

CYXE;2008-06-30 18:00;CYXE 301800Z 11005KT 15SM FEW270 30/16 A2991 RMK CI0 SLP126

CYXE;2008-06-30 19:00;CYXE 301900Z 14005KT 15SM FEW110 FEW270 31/17 A2990 RMK AC1CI1 AC TR SLP122

CYXE;2008-06-30 20:00;CYXE 302000Z 26002KT 15SM FEW110 FEW270 32/15 A2988 RMK AC1CI0 SLP116

CYXE;2008-06-30 21:00;CYXE 302100Z 26006KT 15SM FEW060TCU FEW110 FEW270 32/18 A2986 RMK TCU1ACC1CI0 SLP110

CYXE;2008-06-30 22:00;CYXE 302200Z 30003KT 15SM FEW060TCU SCT110 BKN270 30/19 A2985 RMK TCU1AC2CI2 ACC ASOCTD SLP107

CYXE;2008-06-30 23:00;CYXE 302300Z 20003KT 15SM FEW080 FEW110 BKN270 32/15 A2983 RMK ACC1AC2CI1 SLP099

CYXE;2008-07-01 01:00;CYXE 010100Z 00000KT 15SM FEW060TCU FEW110 BKN270 33/16 A2979 RMK TCU1ACC1CI2 TCU NW SLP088

CYXE;2008-07-01 02:00;CYXE 010200Z 17003KT 15SM FEW100 BKN300 30/19 A2978 RMK AC1CI2 SLP085

CYXE;2008-07-01 03:00;CYXE 010300Z 04009KT 15SM FEW070CB FEW100 BKN300 26/18 A2978 RMK CB1AC2CI2 LTNG DIST W SLP082

CYXE;2008-07-01 04:00;CYXE 010400Z 04007KT 15SM TS FEW050CB SCT100 BKN300 24/19 A2981 RMK CB2AC1CI3 LTNG S-W SLP091

CYXE;2008-07-01 04:40;CYXE 010440Z 24014KT 12SM -TSRA SCT050CB BKN090 OVC300 24/ RMK CB4AC1CI2 FQT LTNG E-W

CYXE;2008-07-01 05:00;CYXE 010500Z 20020G30KT 12SM TSRA BKN060CB BKN090 OVC300 21/16 A2985 RMK CB6AC1CI0 FQT LTGICCG S QUAD SLP106

CYXE;2008-07-01 05:40;CYXE 010540Z 29005KT 15SM TS BKN072CB OVC300 19/ RERA RMK CB5CI1 OCSNL LTGICCC SE

CYXE;2008-07-01 06:00;CYXE 010600Z 32005KT 15SM TS BKN072CB BKN095 OVC300 17/15 A2983 RMK CB5AC2CI0 LTNG DIST SE SLP100

CYXE;2008-07-01 06:07;CYXE 010607Z 34009KT 15SM SCT072CB BKN095 BKN300 17/ RETS RMK CB3AC2CI1 LTNG DIST SE-S

CYXE;2008-07-01 07:00;CYXE 010700Z 34008KT 15SM FEW072CB SCT100 BKN300 17/16 A2982 RMK CB2AC2CI0 LTNG DIST E SLP098

CYXE;2008-07-01 08:00;CYXE 010800Z 31006KT 15SM FEW070CB FEW100 BKN300 17/16 A2982 RMK CB1AC2CI0 SLP098

CYXE;2008-07-01 09:00;CYXE 010900Z 31006KT 15SM FEW100 SCT300 16/15 A2984 RMK AC2CI1 SLP102

CYXE;2008-07-01 10:00;CYXE 011000Z 36009KT 15SM FEW100 SCT300 16/14 A2985 RMK AC2CI1 SLP105

CYXE;2008-07-01 11:00;CYXE 011100Z 01009KT 15SM FEW100 SCT300 16/12 A2986 RMK AC1CI2 SLP110

CYXE;2008-07-01 12:00;CYXE 011200Z 35009KT 15SM FEW090 SCT300 15/12 A2989 RMK AC1CI2 SLP121

CYXE;2008-07-01 13:00;CYXE 011300Z 35010KT 15SM SCT300 16/12 A2990 RMK CI2 SLP126

CYXE;2008-07-01 14:00;CYXE 011400Z 36008KT 15SM SCT300 18/12 A2992 RMK CI2 SLP132

CYXE;2008-07-01 14:46;CYXE 011446Z 01007KT 10SM OVC028 19/ RMK FU6

CYXE;2008-07-01 15:00;CYXE 011500Z 01010KT 8SM OVC028 OVC110 20/11 A2994 RMK FU5AC1 SLP137

CYXE;2008-07-01 16:00;CYXE 011600Z 36012G17KT 15SM FEW300 22/11 A2995 RMK CI0 SLP142

CYXE;2008-07-01 17:00;CYXE 011700Z 35015KT 15SM SKC 23/10 A2996 RMK SLP145

CYXE;2008-07-01 18:00;CYXE 011800Z 01014G19KT 15SM FEW052 23/10 A2997 RMK CU1 SLP151

CYXE;2008-07-01 19:00;CYXE 011900Z 36011G20KT 15SM FEW050 23/10 A2997 RMK CU2 SLP153

CYXE;2008-07-01 20:00;CYXE 012000Z 36015G20KT 15SM SCT052 24/11 A2998 RMK CU3 SLP154

CYXE;2008-07-01 21:00;CYXE 012100Z 36016KT 15SM SCT063 24/10 A2998 RMK CU4 SLP155

CYXE;2008-07-01 22:00;CYXE 012200Z 01017G24KT 15SM FEW063 23/10 A2998 RMK CU2 SLP156

CYXE;2008-07-01 23:00;CYXE 012300Z 02016KT 15SM SCT060 BKN270 24/09 A2999 RMK CU4CI0 SLP159

CYXE;2008-07-02 00:00;CYXE 020000Z 01013KT 15SM FEW050 BKN270 23/10 A3000 RMK CU2CI1 SLP163

CYXE;2008-07-02 01:00;CYXE 020100Z 02013KT 15SM FEW048 SCT270 22/10 A3000 RMK CU2CI0 SLP164

CYXE;2008-07-02 02:00;CYXE 020200Z 03015KT 15SM FEW076 FEW270 20/11 A3002 RMK AC1CI1 SLP171

CYXE;2008-07-02 03:00;CYXE 020300Z 02012KT 15SM FEW076 FEW270 18/10 A3004 RMK AC1CI1 SLP177

CYXE;2008-07-02 04:00;CYXE 020400Z 01008KT 15SM FEW080 FEW270 14/10 A3006 RMK AC1CI0 SLP184

CYXE;2008-07-02 05:00;CYXE 020500Z 01003KT 15SM FEW080 FEW270 13/10 A3008 RMK AC1CI0 SLP189

CYXE;2008-07-02 06:00;CYXE 020600Z 01004KT 15SM FEW080 FEW270 11/09 A3010 RMK AC1CI0 SLP199

CYXE;2008-07-02 07:00;CYXE 020700Z 26003KT 15SM SKC 09/08 A3011 RMK SLP202

CYXE;2008-07-02 08:00;CYXE 020800Z 32004KT 15SM SKC 08/08 A3011 RMK SLP203

CYXE;2008-07-02 09:00;CYXE 020900Z 34004KT 15SM SKC 08/07 A3012 RMK SLP210

CYXE;2008-07-02 10:00;CYXE 021000Z 05006KT 15SM FEW270 07/07 A3013 RMK CI0 FU SLP213

CYXE;2008-07-02 11:00;CYXE 021100Z 06005KT 15SM FEW270 09/08 A3015 RMK CI1 SLP219

CYXE;2008-07-02 12:00;CYXE 021200Z 07006KT 15SM SCT270 10/10 A3016 RMK CI1 SLP222

CYXE;2008-07-02 13:00;CYXE 021300Z 07005KT 15SM SCT270 12/11 A3016 RMK CI2 FU SLP222

CYXE;2008-07-02 14:00;CYXE 021400Z 09007KT 15SM FEW120 BKN270 15/12 A3017 RMK AC1CI1 FU SLP224

CYXE;2008-07-02 15:00;CYXE 021500Z 11006KT 10SM SCT270 17/11 A3017 RMK CI1 FU CONTRAILS SLP224

CYXE;2008-07-02 16:00;CYXE 021600Z 13005KT 10SM FEW030 BKN270 18/11 A3017 RMK CU2CI1 FU SLP224

CYXE;2008-07-02 17:00;CYXE 021700Z 16004KT 10SM SCT032 BKN270 19/11 A3017 RMK CU3CI1 FU SLP225

CYXE;2008-07-02 18:00;CYXE 021800Z 13006KT 15SM BKN037 BKN270 20/11 A3017 RMK CU5CI1 FU SLP227

CYXE;2008-07-02 19:00;CYXE 021900Z 36002KT 12SM BKN040 BKN270 19/09 A3016 RMK CU5CI1 FU TCU ASOCTD SLP223

CYXE;2008-07-02 20:00;CYXE 022000Z 21003KT 12SM BKN045 OVC270 20/09 A3015 RMK CU5CI2 FU TCU ASOCTD SLP219

CYXE;2008-07-02 21:00;CYXE 022100Z 00000KT 12SM SCT065 OVC270 21/09 A3013 RMK CU4CI2 FU TCU ASOCTD SLP214

CYXE;2008-07-02 22:00;CYXE 022200Z 17002KT 12SM BKN070 OVC270 21/09 A3012 RMK CU5CI2 FU TCU ASOCTD SLP211

CYXE;2008-07-02 23:00;CYXE 022300Z 23006KT 12SM SCT056 BKN076 OVC270 21/11 A3012 RMK CU3AC2CI2 FU TCU ASOCTD SLP209

CYXE;2008-07-03 00:00;CYXE 030000Z 19005KT 15SM FEW054TCU SCT080 OVC270 21/11 A3010 RMK TCU2AC2CI2 SLP203

CYXE;2008-07-03 01:00;CYXE 030100Z 18002KT 8SM FEW078 BKN270 21/11 A3008 RMK CU2CI2 FU SLP197

CYXE;2008-07-03 02:00;CYXE 030200Z 17004KT 10SM BKN270 20/12 A3008 RMK CI2 FU SLP194

CYXE;2008-07-03 03:00;CYXE 030300Z 15005KT 10SM SCT270 17/11 A3006 RMK CI2 FU SLP187

CYXE;2008-07-03 04:00;CYXE 030400Z 14006KT 15SM FEW110 SCT270 16/11 A3006 RMK AC1CI1 SLP187

CYXE;2008-07-03 05:00;CYXE 030500Z 15006KT 15SM FEW110 FEW270 14/11 A3006 RMK AC1CI1 SLP186

CYXE;2008-07-03 06:00;CYXE 030600Z 18007KT 15SM FEW270 15/11 A3006 RMK CI0 SLP185

CYXE;2008-07-03 07:00;CYXE 030700Z 18007KT 15SM FEW270 13/10 A3005 RMK CI0 SLP182

CYXE;2008-07-03 08:00;CYXE 030800Z 19008KT 15SM FEW270 13/10 A3004 RMK CI0 SLP179

CYXE;2008-07-03 09:00;CYXE 030900Z 18007KT 15SM FEW270 13/10 A3003 RMK CI0 SLP178

CYXE;2008-07-03 10:00;CYXE 031000Z 18006KT 15SM FEW110 FEW270 12/10 A3003 RMK AC1CI0 FU SLP176

CYXE;2008-07-03 11:00;CYXE 031100Z CCA 16003KT 15SM FEW110 FEW270 11/09 A3002 RMK AC1CI0 FU SLP174

CYXE;2008-07-03 12:00;CYXE 031200Z 00000KT 15SM FEW110 FEW270 12/09 A3002 RMK AC1CI0 SLP173

CYXE;2008-07-03 13:00;CYXE 031300Z 00000KT 15SM FEW110 SCT250 14/11 A3002 RMK AC2CI0 SLP172

CYXE;2008-07-03 14:00;CYXE 031400Z 20004KT 15SM FEW110 16/11 A3001 RMK AC1 SLP171

CYXE;2008-07-03 15:00;CYXE 031500Z 21004KT 15SM FEW120 18/12 A3001 RMK AC2 FU SLP168

CYXE;2008-07-03 16:00;CYXE 031600Z 21003KT 15SM FEW120 21/13 A3000 RMK AC1 FU SLP165

CYXE;2008-07-03 17:00;CYXE 031700Z 18003KT 15SM SKC 24/11 A2999 RMK SLP162

CYXE;2008-07-03 18:00;CYXE 031800Z 15005KT 15SM FEW055 FEW120 25/11 A2998 RMK CU1AC1 SLP156

CYXE;2008-07-03 19:00;CYXE 031900Z 00000KT 15SM FEW055 25/10 A2997 RMK CU1 SLP151

CYXE;2008-07-03 20:00;CYXE 032000Z 00000KT 15SM FEW055 26/11 A2996 RMK CU2 SLP148

CYXE;2008-07-03 21:00;CYXE 032100Z 31005KT 15SM SCT055 26/12 A2995 RMK CU4 SLP146

CYXE;2008-07-03 22:00;CYXE 032200Z 35004KT 15SM SCT060 26/11 A2994 RMK CU3 SLP142

CYXE;2008-07-03 23:00;CYXE 032300Z 23003KT 15SM FEW060 27/10 A2993 RMK CU2 SLP138

CYXE;2008-07-04 00:00;CYXE 040000Z 11002KT 15SM FEW064 27/10 A2990 RMK CU1 SLP128

CYXE;2008-07-04 01:00;CYXE 040100Z 11005KT 15SM SKC 26/12 A2988 RMK SLP121

CYXE;2008-07-04 02:00;CYXE 040200Z 16006KT 15SM SKC 24/13 A2986 RMK SLP116

CYXE;2008-07-04 03:00;CYXE 040300Z 14007KT 15SM SKC 22/12 A2985 RMK SLP109

CYXE;2008-07-04 04:00;CYXE 040400Z 15008KT 15SM FEW080 21/13 A2985 RMK AC1 SLP111

CYXE;2008-07-04 05:00;CYXE 040500Z 16008KT 15SM SCT250 20/13 A2984 RMK CI1 SLP108

CYXE;2008-07-04 06:00;CYXE 040600Z 17008KT 15SM FEW250 20/12 A2983 RMK CI1 SLP102

CYXE;2008-07-04 07:00;CYXE 040700Z 16008KT 15SM FEW250 19/12 A2982 RMK CI1 SLP098

CYXE;2008-07-04 08:00;CYXE 040800Z 16008KT 15SM FEW250 19/12 A2980 RMK CI0 SLP091

CYXE;2008-07-04 09:00;CYXE 040900Z 16006KT 15SM FEW250 17/12 A2978 RMK CI0 SLP086

CYXE;2008-07-04 10:00;CYXE 041000Z 18007KT 15SM FEW095 SCT250 17/13 A2978 RMK AC2CI0 SLP085

CYXE;2008-07-04 11:00;CYXE 041100Z 19004KT 15SM FEW095 SCT250 15/13 A2977 RMK AC2CI1 SLP082

CYXE;2008-07-04 12:00;CYXE 041200Z 19005KT 15SM FEW095 SCT250 16/13 A2976 RMK AC1CI1 SLP079

CYXE;2008-07-04 13:00;CYXE 041300Z 19005KT 15SM BKN250 17/14 A2976 RMK CI1 SLP078

CYXE;2008-07-04 14:00;CYXE 041400Z 21006KT 15SM SCT250 19/15 A2975 RMK CI1 SLP075

CYXE;2008-07-04 15:00;CYXE 041500Z 22006KT 15SM BKN300 23/17 A2973 RMK CI2 FU SLP067

CYXE;2008-07-04 16:00;CYXE 041600Z 19005KT 15SM FEW120 BKN300 25/17 A2971 RMK AC1CI1 FU SLP060

CYXE;2008-07-04 17:00;CYXE 041700Z 21007KT 15SM FEW120 BKN300 28/19 A2970 RMK AC2CI0 SLP058

CYXE;2008-07-04 18:00;CYXE 041800Z 23012KT 15SM FEW120 SCT300 30/18 A2970 RMK AC2CI0 SLP053

CYXE;2008-07-04 19:00;CYXE 041900Z 23013KT 15SM FEW060TCU FEW120 BKN300 31/16 A2968 RMK TCU1AC2CI0 SLP049

CYXE;2008-07-04 20:00;CYXE 042000Z 24013KT 15SM FEW120 OVC300 31/15 A2968 RMK ACC2CI0 SLP046

CYXE;2008-07-04 21:00;CYXE 042100Z 22014KT 15SM FEW120 OVC300 31/16 A2965 RMK ACC2CI1 SLP039

CYXE;2008-07-04 22:00;CYXE 042200Z 22008G15KT 15SM FEW120 BKN300 30/17 A2960 RMK AC2CI2 SLP023

CYXE;2008-07-04 23:00;CYXE 042300Z 18013G18KT 15SM FEW120 BKN300 32/16 A2958 RMK AC2CI2 SLP016

CYXE;2008-07-05 00:00;CYXE 050000Z 21009KT 15SM FEW120 OVC300 31/15 A2959 RMK ACC2CI3 SLP020

CYXE;2008-07-05 01:00;CYXE 050100Z 22008KT 15SM FEW120 OVC300 28/18 A2960 RMK ACC2CI4 SLP022

CYXE;2008-07-05 02:00;CYXE 050200Z 20006KT 15SM FEW120 OVC300 27/16 A2956 RMK AC2CI3 SLP008

CYXE;2008-07-05 03:00;CYXE 050300Z 24009KT 15SM FEW100 SCT300 23/16 A2954 RMK AC1CI2 SLP002

CYXE;2008-07-05 04:00;CYXE 050400Z 25007KT 15SM FEW100 FEW300 20/16 A2954 RMK AC1CI1 SLP002

CYXE;2008-07-05 05:00;CYXE 050500Z 23008KT 15SM FEW120 FEW300 19/15 A2954 RMK AC1CI1 SLP001

CYXE;2008-07-05 06:00;CYXE 050600Z 22007KT 15SM FEW120 SCT300 19/15 A2953 RMK AC2CI1 CB TOPS S LTGICCG SLP998

CYXE;2008-07-05 07:00;CYXE 050700Z 18004KT 15SM BKN120 BKN300 17/15 A2951 RMK AC3CI2 CB S LTGICCG SLP992

CYXE;2008-07-05 07:49;CYXE 050749Z 20018G30KT 15SM -SHRA SCT096 BKN120 OVC300 21/ RMK AC3AC2CI1 CB S LTGICCG

CYXE;2008-07-05 08:00;CYXE 050800Z 21025G38KT 10SM -SHRA BKN041 BKN120 OVC300 21/17 A2955 RMK SC5AC2CI0 CB SE LTGICCG SLP004

CYXE;2008-07-05 09:00;CYXE 050900Z 21009G15KT 12SM -SHRA BKN027 OVC120 19/17 A2949 RMK SC5AC2 SLP983

CYXE;2008-07-05 10:00;CYXE 051000Z 29010KT 15SM -SHRA BKN022 BKN120 18/17 A2945 RMK SC6AC2 SLP970

CYXE;2008-07-05 11:00;CYXE 051100Z 23007KT 15SM -SHRA SCT024 BKN036 OVC120 18/17 A2946 RMK SC4SC2AC2 SLP973

CYXE;2008-07-05 11:48;CYXE 051148Z 23007KT 15SM VCSH SCT026 BKN058 BKN120 19/ RMK SC3SC2AC1

CYXE;2008-07-05 12:00;CYXE 051200Z 24008KT 15SM VCSH SCT026 BKN058 BKN120 19/16 A2948 RMK SC3SC2AC1 SLP979

CYXE;2008-07-05 13:00;CYXE 051300Z 24009KT 15SM FEW060 BKN280 18/16 A2946 RMK SC2CI1 SLP973

CYXE;2008-07-05 14:00;CYXE 051400Z 30015G20KT 15SM FEW078 SCT110 BKN280 20/17 A2948 RMK AC2AC2CI1 SLP978

CYXE;2008-07-05 15:00;CYXE 051500Z 29017KT 15SM FEW053 FEW078 SCT280 21/16 A2950 RMK CU1AC2CI0 SLP989

CYXE;2008-07-05 16:00;CYXE 051600Z 31016G22KT 15SM FEW025 SCT280 22/16 A2951 RMK CU2CI0 SLP994

CYXE;2008-07-05 17:00;CYXE 051700Z 29016G22KT 15SM FEW028 SCT042 BKN064 23/16 A2953 RMK CU2SC2SC2 TCU ASOCTD SLP000

CYXE;2008-07-05 18:00;CYXE 051800Z 30019KT 15SM BKN042 BKN064 24/14 A2954 RMK CU5SC2 TCU ASOCTD SLP003

CYXE;2008-07-05 19:00;CYXE 051900Z 29019G26KT 15SM BKN042 BKN074 BKN280 25/15 A2955 RMK CU5AC1CI0 TCU ASOCTD SLP007

CYXE;2008-07-05 20:00;CYXE 052000Z 32020G29KT 15SM SCT045 26/14 A2956 RMK CU4 TCU ASOCTD SLP009

CYXE;2008-07-05 21:00;CYXE 052100Z 32020G25KT 15SM BKN050TCU BKN100 25/15 A2957 RMK TCU5AC1 CB EMBD SE W SLP013

CYXE;2008-07-05 22:00;CYXE 052200Z 30016G22KT 15SM BKN050TCU BKN100 25/15 A2959 RMK TCU6AC1 CB EMBD W SLP021

CYXE;2008-07-05 22:31;CYXE 052231Z 30019G24KT 15SM -SHRA BKN040TCU BKN100 22/ RMK TCU6AC1 CB EMBD

CYXE;2008-07-05 22:50;CYXE 052250Z 29014KT 15SM BKN040CB BKN100 BKN300 24/ RMK CB5AC1CI1 CB SH ESE

CYXE;2008-07-05 23:00;CYXE 052300Z 30014KT 15SM SCT040CB BKN100 BKN300 24/16 A2961 RMK CB4AC1CI1 SLP027

CYXE;2008-07-06 00:00;CYXE 060000Z 32020G26KT 15SM SCT050TCU 25/14 A2962 RMK TCU3 CB EMBD E SLP030

CYXE;2008-07-06 01:00;CYXE 060100Z 31016G26KT 15SM FEW055 FEW110 24/13 A2964 RMK CU2AC1 SLP036

CYXE;2008-07-06 02:00;CYXE 060200Z 31010G16KT 15SM FEW055 23/14 A2966 RMK CU1 SLP043

CYXE;2008-07-06 03:00;CYXE 060300Z 02006KT 15SM FEW050 20/14 A2968 RMK SC2 SLP053

CYXE;2008-07-06 04:00;CYXE 060400Z 36007KT 15SM FEW050 FEW090 16/14 A2971 RMK SC1AC1 SLP063

CYXE;2008-07-06 05:00;CYXE 060500Z 01008KT 15SM FEW100 FEW300 15/13 A2973 RMK AC1CI0 SLP070

CYXE;2008-07-06 06:00;CYXE 060600Z 03008KT 15SM SKC 15/13 A2977 RMK SLP083

CYXE;2008-07-06 07:00;CYXE 060700Z 03006KT 15SM FEW020 13/12 A2978 RMK SC1 SLP089

CYXE;2008-07-06 08:00;CYXE 060800Z 01006KT 15SM FEW046 11/11 A2980 RMK SC1 SLP095

CYXE;2008-07-06 09:00;CYXE 060900Z 02006KT 15SM FEW050 11/10 A2981 RMK SC1 SLP101

CYXE;2008-07-06 10:00;CYXE 061000Z 03007KT 15SM FEW050 FEW300 10/10 A2982 RMK SC1CI0 SLP102

CYXE;2008-07-06 11:00;CYXE 061100Z 03004KT 15SM FEW050 FEW120 SCT300 09/09 A2984 RMK SC1AC1CI0 SLP108

CYXE;2008-07-06 12:00;CYXE 061200Z 05002KT 15SM VCFG FEW030 FEW120 BKN300 10/10 A2986 RMK SC1AC2CI0 SLP117

CYXE;2008-07-06 13:00;CYXE 061300Z 05009KT 15SM BKN015 BKN120 12/11 A2989 RMK SC6AC1 SLP126

CYXE;2008-07-06 13:49;CYXE 061349Z 06008KT 15SM BKN013 BKN120 14/ RMK SC5AC2

CYXE;2008-07-06 14:00;CYXE 061400Z 05010KT 15SM BKN013 BKN120 14/11 A2989 RMK SC6AC2 SLP127

CYXE;2008-07-06 15:00;CYXE 061500Z 07007KT 15SM BKN013 BKN099 13/10 A2990 RMK SC6AC1 SLP132

CYXE;2008-07-06 16:00;CYXE 061600Z 05006KT 15SM OVC013 14/11 A2991 RMK SC8 SLP136

CYXE;2008-07-06 17:00;CYXE 061700Z 08006KT 15SM OVC017 15/11 A2991 RMK SC8 SLP136

CYXE;2008-07-06 18:00;CYXE 061800Z 08005KT 15SM SCT021 BKN095 BKN300 15/11 A2989 RMK SC4AC2CI0 SLP131

CYXE;2008-07-06 19:00;CYXE 061900Z 08008KT 15SM SCT023 SCT095 BKN300 18/11 A2990 RMK SC3AC1CI1 SLP132

CYXE;2008-07-06 20:00;CYXE 062000Z 14006KT 15SM SCT028 BKN077 BKN280 17/10 A2990 RMK SC4AC2CI1 SLP133

CYXE;2008-07-06 20:41;CYXE 062041Z 12010KT 15SM -SHRA FEW016 BKN044 BKN088 OVC280 15/ RMK SF2SC3AC2CI1

CYXE;2008-07-06 21:00;CYXE 062100Z 11008KT 15SM -SHRA BKN016 BKN048 BKN088 OVC280 15/12 A2988 RMK SC5SC1AC1CI1 SLP129

CYXE;2008-07-06 21:20;CYXE 062120Z 11008KT 15SM VCSH FEW015 BKN048 BKN090 BKN280 15/ RMK SC2SC2AC1CI1 CVCTV CLD EMBD

CYXE;2008-07-06 22:00;CYXE 062200Z 10008KT 15SM VCSH SCT013 BKN046 BKN300 15/12 A2988 RMK SC3SC2CI1 SLP128

CYXE;2008-07-06 23:00;CYXE 062300Z 09009KT 15SM FEW020 BKN085 BKN300 17/12 A2986 RMK SC2AC3CI1 SH NW TCU EMBD SLP123

CYXE;2008-07-07 00:00;CYXE 070000Z 08009G15KT 15SM FEW020 BKN083 BKN300 17/12 A2985 RMK CF1AC4CI0 SLP117

CYXE;2008-07-07 01:00;CYXE 070100Z 07010KT 15SM BKN075 BKN300 17/11 A2984 RMK AC6CI1 SLP114

CYXE;2008-07-07 02:00;CYXE 070200Z 08008KT 15SM BKN075 OVC300 16/12 A2983 RMK AC6CI2 SLP112

CYXE;2008-07-07 02:37;CYXE 070237Z 06010KT 15SM -SHRA BKN075 OVC300 16/ RMK AC6CI2 CVCTV CLD EMBD

CYXE;2008-07-07 03:00;CYXE 070300Z 06009KT 15SM -SHRA BKN070 OVC100 15/12 A2984 RMK AC6AC2 CVCTV CLD EMBD SLP113

CYXE;2008-07-07 04:00;CYXE 070400Z 08006KT 10SM -SHRA BKN050 OVC085 13/13 A2985 RMK SC6AC2 CVCTV CLD EMBD SLP118

CYXE;2008-07-07 04:16;CYXE 070416Z 08009KT 8SM SHRA FEW012 BKN050 OVC085 13/ RMK SF2SC5AC2 CVCTV CLD EMBD

CYXE;2008-07-07 05:00;CYXE 070500Z 06008KT 10SM SHRA SCT050 OVC070 13/13 A2984 RMK SC3AC5 CVCTV CLD EMBD SLP113

CYXE;2008-07-07 05:11;CYXE 070511Z 07010KT 10SM -SHRA FEW020CB SCT040 OVC070 13/ RERA RMK CB2SC2AC4 LTGIC SE

CYXE;2008-07-07 06:00;CYXE 070600Z 09010KT 15SM -SHRA FEW020 OVC086 13/13 A2981 RMK CF2AC6 CB DSTNT SE LTGIC RERA SLP104

CYXE;2008-07-07 06:37;CYXE 070637Z 10012KT 15SM FEW030 OVC079 13/ RMK CF2AC6 CB DSTNT SE LTGIC

CYXE;2008-07-07 07:00;CYXE 070700Z 09009KT 15SM FEW030 BKN079 13/12 A2980 RMK CF2AC6 SLP100

CYXE;2008-07-07 08:00;CYXE 070800Z 06005KT 15SM FEW036 OVC069 13/12 A2980 RMK SC2AC6 SLP100

CYXE;2008-07-07 09:00;CYXE 070900Z 06006KT 15SM FEW040 OVC072 13/12 A2978 RMK SC2AC6 SLP095

CYXE;2008-07-07 09:08;CYXE 070908Z 05007KT 15SM -SHRA FEW052 OVC072 13/ RMK SC2AC6

CYXE;2008-07-07 09:39;CYXE 070939Z 05006KT 15SM -SHRA FEW008 SCT047 OVC072 12/ RMK CF1SC2AC5

CYXE;2008-07-07 10:00;CYXE 071000Z 06008KT 15SM -SHRA FEW008 SCT029 OVC083 12/12 A2978 RMK CF1SC2AC5 SLP095

CYXE;2008-07-07 10:46;CYXE 071046Z 04008KT 6SM -SHRA BR BKN014 OVC083 12/ RMK SC6AC2

CYXE;2008-07-07 11:00;CYXE 071100Z 03008KT 5SM -SHRA BR FEW008 OVC014 12/12 A2979 RMK SF2SC6 SLP096

CYXE;2008-07-07 12:00;CYXE 071200Z 01007KT 4SM -SHRA BR SCT008 OVC021 12/12 A2980 RMK SF3SC5 SLP099

CYXE;2008-07-07 13:00;CYXE 071300Z 01007KT 5SM -SHRA BR SCT005 OVC031 12/12 A2981 RMK SF3SC5 SLP103

CYXE;2008-07-07 14:00;CYXE 071400Z 01006KT 5SM -RA BR SCT005 OVC020 12/12 A2981 RMK SF4SC4 SLP102

CYXE;2008-07-07 14:10;CYXE 071410Z 01007KT 5SM -RA BR BKN004 OVC020 12/ RMK SF5SC3

CYXE;2008-07-07 15:00;CYXE 071500Z 36008KT 10SM -RA BKN005 OVC020 12/12 A2982 RMK SF6SC2 SLP107

CYXE;2008-07-07 15:23;CYXE 071523Z 01010KT 12SM -RA OVC007 12/ RMK SF8

CYXE;2008-07-07 16:00;CYXE 071600Z 36009KT 15SM -RA SCT006 OVC009 12/12 A2983 RMK SF3SC5 SLP110

CYXE;2008-07-07 17:00;CYXE 071700Z 36010KT 10SM -RA BKN007 OVC012 13/13 A2983 RMK SF6SC2 SLP112

CYXE;2008-07-07 17:51;CYXE 071751Z 05006KT 15SM SCT007 BKN012 OVC030 13/ RMK SF4SC2SC2

CYXE;2008-07-07 18:00;CYXE 071800Z 05008KT 15SM FEW007 BKN012 OVC027 13/12 A2986 RMK SF2SC3SC2 SLP121

CYXE;2008-07-07 18:42;CYXE 071842Z 07005KT 15SM SCT012 BKN019 OVC040 15/ RMK SC3SC2SC2

CYXE;2008-07-07 19:00;CYXE 071900Z 03004KT 15SM BKN015 OVC035 15/12 A2987 RMK SC6SC2 SLP126

CYXE;2008-07-07 20:00;CYXE 072000Z 05004KT 15SM SCT015 BKN037 16/11 A2986 RMK SC4SC3 SLP124

CYXE;2008-07-07 21:00;CYXE 072100Z 07003KT 15SM BKN021 BKN063 BKN072 16/11 A2985 RMK SC5SC2AC1 SLP117

CYXE;2008-07-07 22:00;CYXE 072200Z 08004KT 15SM BKN027 18/12 A2985 RMK SC6 CB DIST NW SLP118

CYXE;2008-07-07 23:00;CYXE 072300Z 01003KT 15SM -SHRA BKN025TCU BKN070 16/12 A2986 RMK TCU6AC2 VIS N 3 SLP120

CYXE;2008-07-07 23:33;CYXE 072333Z 30006KT 15SM -SHRA BKN021TCU BKN060CB BKN090 14/ RMK TCU5CB2AC1 FUNNEL CLOUD REPD 15SW LTGCG W

CYXE;2008-07-08 00:00;CYXE 080000Z 26007KT 15SM -SHRA BKN019 BKN090 BKN280 15/13 A2985 RMK SC5AC2CI0 TCU ASOCTD CB DIST S SLP118

CYXE;2008-07-08 00:12;CYXE 080012Z 29008KT 15SM VCSH BKN025 BKN090 16/ RMK SC5AC2 TCU ASOCTD

CYXE;2008-07-08 00:49;CYXE 080049Z 28006KT 15SM -SHRA SCT030 BKN090 15/ RMK SC4ACC2

CYXE;2008-07-08 01:00;CYXE 080100Z 26004KT 15SM -SHRA BKN023 BKN090 15/13 A2985 RMK SC5ACC1 TCU ASOCTD SLP117

CYXE;2008-07-08 01:29;CYXE 080129Z 29006KT 15SM SCT016 BKN056 16/ RMK SF2SC2

CYXE;2008-07-08 02:00;CYXE 080200Z 30006KT 15SM FEW056 BKN100 BKN300 15/13 A2986 RMK SC2AC2CI1 SLP120

CYXE;2008-07-08 03:00;CYXE 080300Z 30006KT 15SM FEW100 SCT300 13/12 A2986 RMK AC2CI1 SLP122

CYXE;2008-07-08 04:00;CYXE 080400Z 31004KT 15SM FEW093 SCT300 11/11 A2987 RMK AC2CI1 SLP125

CYXE;2008-07-08 05:00;CYXE 080500Z 30004KT 15SM SCT085 11/11 A2987 RMK AC3 SLP127

CYXE;2008-07-08 06:00;CYXE 080600Z 34003KT 5SM BR SCT300 11/11 A2987 RMK CI2 SLP128

CYXE;2008-07-08 07:00;CYXE 080700Z 00000KT 15SM BKN080 10/10 A2987 RMK AC6 BR PTCHS SLP128

CYXE;2008-07-08 08:00;CYXE 080800Z 23003KT 15SM BKN055 OVC300 11/11 A2986 RMK SC6CI1 BR PTCHS SLP126

CYXE;2008-07-08 08:32;CYXE 080832Z 28004KT 10SM -SHRA OVC050 12/ RMK SC7

CYXE;2008-07-08 09:00;CYXE 080900Z 30004KT 10SM -SHRA BKN040 12/12 A2987 RMK SC6 SLP123

CYXE;2008-07-08 09:08;CYXE 080908Z 29004KT 15SM BKN040 12/ RMK SC6

CYXE;2008-07-08 09:27;CYXE 080927Z 29005KT 15SM BKN013 OVC040 12/ RMK SC6SC2

CYXE;2008-07-08 10:00;CYXE 081000Z 29007KT 15SM OVC007 12/12 A2987 RMK ST8 SLP124

CYXE;2008-07-08 10:52;CYXE 081052Z 32010KT 15SM SCT007 BKN017 12/ RMK ST4SC2

CYXE;2008-07-08 11:00;CYXE 081100Z 32011KT 15SM SCT007 BKN015 12/12 A2989 RMK ST3SC2 SLP129

CYXE;2008-07-08 11:04;CYXE 081104Z 32012KT 15SM BKN006 OVC015 12/ RMK ST5SC2

CYXE;2008-07-08 11:27;CYXE 081127Z 32010KT 15SM SCT006 BKN035 12/ RMK ST3SC2

CYXE;2008-07-08 12:00;CYXE 081200Z 32007KT 15SM FEW006 BKN040 12/12 A2990 RMK SF1SC5 SLP137

CYXE;2008-07-08 13:00;CYXE 081300Z 32007KT 15SM FEW006 BKN050 13/13 A2992 RMK SF1SC2 SLP141

CYXE;2008-07-08 14:00;CYXE 081400Z 32009KT 15SM FEW010 BKN110 15/13 A2992 RMK SF1AC5 SLP143

CYXE;2008-07-08 15:00;CYXE 081500Z 32010KT 15SM SCT010 BKN110 15/13 A2993 RMK SC3AC3 SLP146

CYXE;2008-07-08 16:00;CYXE 081600Z 28009KT 15SM FEW013 BKN093 16/13 A2994 RMK SC2AC5 SLP147

CYXE;2008-07-08 17:00;CYXE 081700Z 29009KT 15SM FEW020 BKN110 17/13 A2994 RMK CU2AC4 SLP147

CYXE;2008-07-08 18:00;CYXE 081800Z 30013KT 15SM SCT030 BKN095 18/13 A2994 RMK CU3AC4 SLP147

CYXE;2008-07-08 19:00;CYXE 081900Z 27009G15KT 15SM -SHRA FEW035 BKN046CB BKN086 18/12 A2992 RMK CU2CB3AC2 CB SW-NW SLP142

CYXE;2008-07-08 19:33;CYXE 081933Z CCA 29007KT 15SM FEW035TCU SCT046CB BKN096 19/ RERA RMK TCU2CB2AC1 CB NW+SE

CYXE;2008-07-08 20:00;CYXE 082000Z 30007KT 15SM FEW040TCU SCT050CB SCT096 20/13 A2990 RERA RMK TCU2CB2AC1 CB N+E SLP135

CYXE;2008-07-08 20:43;CYXE 082043Z 29013G30KT 10SM -SHRA SCT040TCU BKN060CB BKN090 18/ RMK TCU4CB2AC2 CB NW + E

CYXE;2008-07-08 21:00;CYXE 082100Z 32016G24KT 15SM -SHRA BKN034TCU BKN060CB BKN070 OVC220 16/13 A2990 RMK TCU6CB1AC1CI0 CB N SLP135

CYXE;2008-07-08 21:34;CYXE 082134Z 33007KT 15SM -RA FEW013 SCT034TCU BKN060CB BKN068 BKN220 19/ RMK CF1TCU3CB1AC1CI0 CB NE

CYXE;2008-07-08 22:00;CYXE 082200Z 30008KT 15SM SCT054TCU BKN072 BKN220 20/13 A2987 RMK TCU4AC1CI0 SLP124

CYXE;2008-07-08 23:00;CYXE 082300Z 30008KT 15SM -SHRA SCT059TCU BKN078 BKN220 21/14 A2986 RMK TCU4AC2CI0 SLP120

CYXE;2008-07-08 23:17;CYXE 082317Z 32007KT 15SM BKN056TCU BKN250 20/ RMK TCU5CI1

CYXE;2008-07-09 00:00;CYXE 090000Z 32015KT 15SM BKN048TCU BKN250 20/12 A2986 RMK TCU5CI1 CB EMBD N SLP118

CYXE;2008-07-09 01:00;CYXE 090100Z 02008G15KT 15SM SCT057TCU BKN075 20/14 A2987 RMK TCU3AC2 CB EMBD NE SLP121

CYXE;2008-07-09 02:00;CYXE 090200Z 05007KT 15SM FEW049 SCT300 17/13 A2989 RMK CU2CI1 SLP127

CYXE;2008-07-09 03:00;CYXE 090300Z 05007KT 15SM FEW050 FEW300 16/12 A2990 RMK CU2CI1 SLP134

CYXE;2008-07-09 04:00;CYXE 090400Z 10003KT 15SM FEW100 13/12 A2991 RMK AC1 SLP136

CYXE;2008-07-09 05:00;CYXE 090500Z 23003KT 15SM SCT100 12/12 A2991 RMK AC2 SLP137

CYXE;2008-07-09 06:00;CYXE 090600Z 26005KT 15SM SCT060 BKN300 11/10 A2991 RMK SC3CI0 SLP139

CYXE;2008-07-09 07:00;CYXE 090700Z 26005KT 15SM SCT060 11/11 A2992 RMK SC2 SLP141

CYXE;2008-07-09 08:00;CYXE 090800Z 24003KT 15SM SKC 10/10 A2991 RMK BR PTCHS SLP139

CYXE;2008-07-09 09:00;CYXE 090900Z 26004KT 10SM FEW300 10/10 A2991 RMK CI0 BR SLP140

CYXE;2008-07-09 10:00;CYXE 091000Z 10003KT 10SM FEW120 09/09 A2990 RMK AC2 BR SLP138

CYXE;2008-07-09 11:00;CYXE 091100Z 22004KT 10SM SCT120 09/09 A2990 RMK AC2 BR VIS NW 1 SLP138

CYXE;2008-07-09 12:00;CYXE 091200Z 25005KT 15SM FEW120 SCT300 10/10 A2991 RMK AC1CI2 SLP136

CYXE;2008-07-09 13:00;CYXE 091300Z 22003KT 15SM FEW120 SCT300 12/12 A2990 RMK AC1CI1 SLP135

CYXE;2008-07-09 14:00;CYXE 091400Z 27003KT 15SM SCT300 14/12 A2990 RMK CI0 SLP134

CYXE;2008-07-09 15:00;CYXE 091500Z 36003KT 15SM SCT300 17/14 A2990 RMK CI1 SLP133

CYXE;2008-07-09 16:00;CYXE 091600Z 27002KT 15SM SCT300 19/13 A2990 RMK CI1 SLP133

CYXE;2008-07-09 17:00;CYXE 091700Z 00000KT 15SM FEW028 BKN300 20/13 A2989 RMK CU1CI2 SLP129

CYXE;2008-07-09 18:00;CYXE 091800Z 28004KT 15SM SCT036 BKN300 22/12 A2988 RMK CU4CI1 SLP126

CYXE;2008-07-09 19:00;CYXE 091900Z 32006KT 15SM SCT048 BKN300 23/11 A2987 RMK CU4CI1 SLP122

CYXE;2008-07-09 20:00;CYXE 092000Z 31009KT 15SM FEW040 BKN160 BKN300 22/09 A2986 RMK CU2AC3CI1 SLP119

CYXE;2008-07-09 21:00;CYXE 092100Z 36006KT 15SM FEW040 BKN160 BKN300 22/12 A2986 RMK CU1AC5CI1 SLP119

CYXE;2008-07-09 22:00;CYXE 092200Z 33007KT 15SM -SHRA FEW040 BKN110 OVC200 21/13 A2987 RMK CU1AC5CI3 ACC EMBD SLP121

CYXE;2008-07-09 23:00;CYXE 092300Z 29004KT 15SM -SHRA BKN044 OVC120 19/14 A2988 RMK SC6AC2 SLP125

CYXE;2008-07-10 00:00;CYXE 100000Z 21007KT 15SM SCT044 BKN081 BKN300 19/13 A2985 RMK SC4AC2CI0 SLP117

CYXE;2008-07-10 01:00;CYXE 100100Z 19002KT 15SM FEW044 FEW080 SCT300 20/10 A2982 RMK CU2AC1CI0 SLP107

CYXE;2008-07-10 02:00;CYXE 100200Z 19002KT 15SM FEW100 FEW300 19/12 A2981 RMK AC1CI1 SLP105

CYXE;2008-07-10 03:00;CYXE 100300Z 00000KT 15SM FEW100 BKN300 16/13 A2981 RMK AC2CI1 SLP101

CYXE;2008-07-10 04:00;CYXE 100400Z 17003KT 15SM BKN092 BKN300 16/12 A2983 RMK AC3CI2 SLP108

CYXE;2008-07-10 05:00;CYXE 100500Z 16004KT 15SM BKN086 15/12 A2983 RMK AC5 SLP108

CYXE;2008-07-10 06:00;CYXE 100600Z 15005KT 15SM BKN085 13/11 A2981 RMK AC5 SLP100

CYXE;2008-07-10 07:00;CYXE 100700Z 15006KT 15SM FEW085 13/12 A2979 RMK AC2 SLP095

CYXE;2008-07-10 08:00;CYXE 100800Z 14006KT 15SM SKC 13/11 A2978 RMK SLP090

CYXE;2008-07-10 09:00;CYXE 100900Z 13005KT 15SM FEW300 12/11 A2976 RMK CI0 SLP084

CYXE;2008-07-10 10:00;CYXE 101000Z 18003KT 15SM BKN300 12/12 A2977 RMK CI3 SLP085

CYXE;2008-07-10 11:00;CYXE 101100Z 09005KT 15SM FEW090 OVC300 11/11 A2975 RMK AC1CI6 SLP080

CYXE;2008-07-10 12:00;CYXE 101200Z 06005KT 15SM BKN090 OVC300 12/12 A2973 RMK AC5CI3 ACC EMBD SLP075

CYXE;2008-07-10 13:00;CYXE 101300Z 09003KT 15SM VCSH BKN080 OVC300 13/13 A2973 RMK ACC6CI2 SLP076

CYXE;2008-07-10 13:19;CYXE 101319Z 15004KT 15SM -SHRA BKN065 OVC120 13/ RMK SC6AC2 TCU EMBD

CYXE;2008-07-10 14:00;CYXE 101400Z 12008KT 15SM SHRA BKN040 OVC080 13/13 A2970 RMK SC6AC2 TCU EMBD SLP066

CYXE;2008-07-10 15:00;CYXE 101500Z 00000KT 15SM -SHRA FEW010 BKN023 OVC080 14/14 A2969 RERA RMK CU1SC6AC2 TCU EMBD SLP062

CYXE;2008-07-10 15:16;CYXE 101516Z 04004KT 15SM FEW008 BKN023 OVC110 14/ RMK CF1SC6AC2 CVCTV CLD EMBD

CYXE;2008-07-10 15:42;CYXE 101542Z 33003KT 15SM -SHRA FEW008 FEW040 OVC080 14/ RMK CU1SC2AC6

CYXE;2008-07-10 16:00;CYXE 101600Z 31003KT 15SM -SHRA FEW008 FEW045 OVC078 14/14 A2971 RMK CF2SC1AC6 SLP068

CYXE;2008-07-10 16:18;CYXE 101618Z 09002KT 1 1/2SM SHRA BR BKN013 OVC078 14/ RMK SC6AC2

CYXE;2008-07-10 16:41;CYXE 101641Z 25002KT 3SM -SHRA BR BKN010 OVC078 14/ RERA RMK SC6AC2 CVCTV CLD EMBD RAG CIG

CYXE;2008-07-10 17:00;CYXE 101700Z 12008KT 3SM -SHRA BR BKN010 OVC078 14/14 A2968 RMK SC6AC2 CVCTV CLD EMBD RAG CIG SLP057

CYXE;2008-07-10 17:26;CYXE 101726Z 05007KT 4SM -SHRA BR SCT010 BKN060 BKN078 15/ RMK SC3SC2AC1

CYXE;2008-07-10 17:46;CYXE 101746Z 07007KT 15SM FEW017 BKN060 BKN078 13/ RMK SF1SC4AC1

CYXE;2008-07-10 18:00;CYXE 101800Z 09008KT 15SM FEW008 SCT017 BKN064 BKN076 BKN220 17/17 A2966 RMK CF1SC2SC2AC1CI0 CU EMBD SLP050

CYXE;2008-07-10 18:33;CYXE 101833Z 12005KT 15SM BKN011 BKN072 BKN220 17/ RMK CF5AC1CI0 CU EMBD

CYXE;2008-07-10 19:00;CYXE 101900Z 12007KT 15SM BKN019 BKN055 OVC220 17/15 A2965 RMK CF6SC1CI1 TCU EMBD SLP049

CYXE;2008-07-10 20:00;CYXE 102000Z 16003KT 15SM BKN022 OVC060 18/15 A2965 RMK CU6SC2 TCU EMBD SLP047

CYXE;2008-07-10 21:00;CYXE 102100Z 22003KT 15SM BKN025 BKN100 21/15 A2963 RMK CU6AC1 TCU EMBD SLP038

CYXE;2008-07-10 22:00;CYXE 102200Z 26004KT 15SM SCT029 BKN110 22/15 A2962 RMK CU4AC1 SLP035

CYXE;2008-07-10 23:00;CYXE 102300Z 29006KT 15SM BKN020 20/15 A2961 RMK CU5 SLP034

CYXE;2008-07-11 00:00;CYXE 110000Z 33014KT 15SM SCT020 BKN270 21/15 A2962 RMK SC4CI0 SLP035

CYXE;2008-07-11 01:00;CYXE 110100Z 34013KT 15SM FEW025 SCT090 BKN270 20/13 A2962 RMK CU2AC2CI2 SLP036

CYXE;2008-07-11 02:00;CYXE 110200Z 33008KT 15SM FEW025 SCT090 BKN270 17/14 A2964 RMK SC2AC2CS2 SLP042

CYXE;2008-07-11 03:00;CYXE 110300Z 36009KT 15SM SCT030 SCT090 BKN270 16/13 A2964 RMK SC3AC1CI0 CB DIST E SLP044

CYXE;2008-07-11 04:00;CYXE 110400Z 03010KT 15SM SCT030 BKN090 BKN270 15/13 A2964 RMK SC3AC2CI1 SLP044

CYXE;2008-07-11 05:00;CYXE 110500Z 02004KT 15SM FEW030 SCT090 BKN270 14/13 A2965 RMK SC2AC2CI2 SLP049

CYXE;2008-07-11 06:00;CYXE 110600Z 34005KT 15SM FEW030 SCT090 BKN270 12/12 A2966 RMK SC2AC2CI1 SLP053

CYXE;2008-07-11 07:00;CYXE 110700Z 36006KT 15SM FEW030 SCT090 BKN270 12/11 A2966 RMK SC2AC2CI2 SLP052

CYXE;2008-07-11 08:00;CYXE 110800Z 34007KT 15SM SCT090 BKN270 12/12 A2966 RMK AC3CI2 SLP051

CYXE;2008-07-11 09:00;CYXE 110900Z 34006KT 15SM FEW060 BKN120 BKN270 11/11 A2965 RMK SC2AC3CI1 SLP046

CYXE;2008-07-11 10:00;CYXE 111000Z 32005KT 15SM FEW060 BKN120 BKN270 11/11 A2966 RMK SC2AC3CI1 SLP051

CYXE;2008-07-11 11:00;CYXE 111100Z 31006KT 15SM SCT060 BKN120 OVC270 11/11 A2967 RMK SC3AC3CI1 SLP053

CYXE;2008-07-11 12:00;CYXE 111200Z 32008KT 15SM BKN052 BKN120 OVC270 11/11 A2967 RMK SC6AC2CI0 SLP053

CYXE;2008-07-11 13:00;CYXE 111300Z 33007KT 15SM SCT065 BKN120 BKN270 12/11 A2968 RMK SC3AC3CI0 SLP055

CYXE;2008-07-11 14:00;CYXE 111400Z 33009KT 15SM FEW065 BKN080 BKN270 13/11 A2968 RMK SC2AC3CI1 SLP056

CYXE;2008-07-11 15:00;CYXE 111500Z 31013KT 15SM FEW015 BKN090 OVC270 14/12 A2969 RMK CF2AC3CI2 SLP063

CYXE;2008-07-11 16:00;CYXE 111600Z 31016G22KT 15SM FEW015 BKN110 OVC280 15/12 A2971 RMK SC2AC4CI1 SLP067

CYXE;2008-07-11 17:00;CYXE 111700Z 32019G28KT 15SM FEW025 BKN110 OVC280 16/10 A2971 RMK CU2AC3CI2 TCU EMBD SLP069

CYXE;2008-07-11 18:00;CYXE 111800Z 32019G24KT 15SM BKN040 OVC280 18/11 A2972 RMK CU6CI2 TCU ASOCTD SLP072

CYXE;2008-07-11 19:00;CYXE 111900Z 32019G26KT 15SM BKN041 OVC280 19/10 A2972 RMK CU5CI2 TCU EMBD SLP072

CYXE;2008-07-11 20:00;CYXE 112000Z 32022G29KT 15SM BKN045 OVC280 20/10 A2973 RMK CU6CI1 TCU EMBD SH E SLP075

CYXE;2008-07-11 20:09;CYXE 112009Z 32016G29KT 15SM -SHRA BKN045 OVC280 18/ RMK CU6CI1 TCU EMBD

CYXE;2008-07-11 20:25;CYXE 112025Z 32015G25KT 15SM BKN045 BKN085 OVC280 18/ RMK CU6AC1CI1 TCU EMBD SH E-SE

CYXE;2008-07-11 20:47;CYXE 112047Z 32016G22KT 15SM -SHRA BKN040TCU BKN070 OVC280 17/ RMK TCU6AC2CI0 CB EMBD SE

CYXE;2008-07-11 21:00;CYXE 112100Z 32016KT 15SM -SHRA FEW028 BKN047TCU BKN069 BKN280 18/11 A2974 RMK SC1TCU6AC2CI1 CB EMBD SE SLP079

CYXE;2008-07-11 22:00;CYXE 112200Z 31014KT 15SM -SHRA FEW042TCU SCT050CB BKN083 BKN280 16/13 A2975 RERA RMK TCU2CB2AC2CI0 CB E SLP082

CYXE;2008-07-11 22:21;CYXE 112221Z 31014G22KT 15SM FEW063TCU FEW065CB BKN083 BKN280 18/ RMK TCU2CB1AC2CI1 CB E

CYXE;2008-07-11 23:00;CYXE 112300Z 35021G34KT 15SM -SHRA BKN050TCU BKN060CB BKN083 OVC280 17/09 A2976 RMK TCU5CB1AC1CI1 CB N SLP086

CYXE;2008-07-11 23:22;CYXE 112322Z 33011KT 15SM FEW026 FEW048TCU SCT060CB BKN080 BKN280 19/ RMK CU1TCU2CB2AC2CI0 CB NW-NE

CYXE;2008-07-12 00:00;CYXE 120000Z 31019G24KT 15SM FEW055TCU SCT066CB SCT080 BKN280 20/09 A2975 RMK TCU2CB2AC1CI1 CB N-NE SLP081

CYXE;2008-07-12 01:00;CYXE 120100Z 30024G35KT 15SM FEW058TCU SCT066CB SCT087 BKN280 18/09 A2977 RMK TCU2CB2AC1CI1 CB N-NNE SLP087

CYXE;2008-07-12 02:00;CYXE 120200Z 31015KT 15SM FEW058 FEW066CB FEW090 BKN280 16/09 A2979 RMK CU1CB1AC1CI2 CB NE SLP094

CYXE;2008-07-12 03:00;CYXE 120300Z 30010KT 15SM FEW040 FEW097 BKN280 15/09 A2981 RMK SC1AC2CI1 SHRA WNW SLP102

CYXE;2008-07-12 04:00;CYXE 120400Z 31015G20KT 15SM -RA SCT051 BKN092 BKN280 15/10 A2982 RMK SC3AC2CI0 SLP106

CYXE;2008-07-12 05:00;CYXE 120500Z 31014G19KT 15SM FEW055 FEW086 SCT280 14/08 A2982 RMK SC1AC1CI1 SLP108

CYXE;2008-07-12 06:00;CYXE 120600Z 30013KT 15SM FEW086 SCT280 13/08 A2983 RMK AC2CI1 SLP111

CYXE;2008-07-12 07:00;CYXE 120700Z 30014KT 15SM FEW090 SCT280 12/09 A2983 RMK AC2CI1 SLP111

CYXE;2008-07-12 08:00;CYXE 120800Z 31014G20KT 15SM FEW070 SCT091 BKN280 12/09 A2984 RMK AC2AC2CI0 SLP112

CYXE;2008-07-12 09:00;CYXE 120900Z 31015G20KT 15SM SCT074 BKN280 12/10 A2984 RMK AC3CI1 SLP114

CYXE;2008-07-12 10:00;CYXE 121000Z 31016KT 15SM SCT026 BKN060 12/10 A2986 RMK SC4SC2 SLP118

CYXE;2008-07-12 11:00;CYXE 121100Z 32015G22KT 15SM BKN030 BKN060 12/10 A2987 RMK SC5SC2 SLP124

CYXE;2008-07-12 12:00;CYXE 121200Z 31017KT 15SM FEW035 BKN060 BKN280 12/10 A2989 RMK SC1SC4CI0 SLP130

CYXE;2008-07-12 13:00;CYXE 121300Z 31011G16KT 15SM BKN028 BKN100 13/11 A2993 RMK SC6AC1 SLP141

CYXE;2008-07-12 14:00;CYXE 121400Z 31014G19KT 15SM FEW020 FEW100 SCT260 14/11 A2994 RMK SC2AC1CI0 SLP146

CYXE;2008-07-12 15:00;CYXE 121500Z 31017KT 15SM FEW015 FEW260 16/12 A2996 RMK CF2CI0 SLP153

CYXE;2008-07-12 16:00;CYXE 121600Z 33015G20KT 15SM FEW025 FEW120 18/12 A2997 RMK CF2AC1 SLP157

CYXE;2008-07-12 17:00;CYXE 121700Z 31015G21KT 15SM BKN025 18/12 A2998 RMK CU6 TCU EMBD SLP159

CYXE;2008-07-12 18:00;CYXE 121800Z 31016G21KT 15SM BKN032 19/11 A2997 RMK CU6 TCU EMBD SLP158

CYXE;2008-07-12 19:00;CYXE 121900Z 31015G22KT 15SM BKN039 21/12 A2998 RMK CU6 TCU EMBD SLP160

CYXE;2008-07-12 20:00;CYXE 122000Z 32017G22KT 15SM SCT043 21/11 A2998 RMK CU3 SLP159

CYXE;2008-07-12 21:00;CYXE 122100Z 32016G21KT 15SM SCT048 22/11 A2998 RMK CU3 SLP157

CYXE;2008-07-12 22:00;CYXE 122200Z 32013G18KT 15SM FEW053 23/11 A2998 RMK CU2 SLP157

CYXE;2008-07-12 23:00;CYXE 122300Z 32015G20KT 15SM FEW060 23/09 A2997 RMK CU1 SLP154

CYXE;2008-07-13 00:00;CYXE 130000Z 31014G19KT 15SM FEW060 23/07 A2996 RMK CU1 SLP152

CYXE;2008-07-13 01:00;CYXE 130100Z 32010KT 15SM FEW300 22/09 A2995 RMK CI0 SLP150

CYXE;2008-07-13 02:00;CYXE 130200Z 31007KT 15SM FEW300 21/11 A2995 RMK CI0 SLP147

CYXE;2008-07-13 03:00;CYXE 130300Z 30007KT 15SM FEW300 16/12 A2994 RMK CI1 SLP146

CYXE;2008-07-13 04:00;CYXE 130400Z 27005KT 15SM FEW300 15/11 A2994 RMK CI1 SLP147

CYXE;2008-07-13 05:00;CYXE 130500Z 25006KT 15SM FEW100 SCT300 13/11 A2994 RMK AC1CI1 SLP146

CYXE;2008-07-13 06:00;CYXE 130600Z 24008KT 15SM OVC300 12/11 A2993 RMK CI3 SLP143

CYXE;2008-07-13 07:00;CYXE 130700Z 25006KT 15SM BKN300 12/11 A2992 RMK CI2 SLP140

CYXE;2008-07-13 08:00;CYXE 130800Z 24008KT 15SM FEW080 BKN300 11/11 A2991 RMK AC2CI1 SLP137

CYXE;2008-07-13 09:00;CYXE 130900Z 26007KT 15SM FEW080 BKN300 11/10 A2990 RMK AC1CI2 SLP134

CYXE;2008-07-13 10:00;CYXE 131000Z 25006KT 15SM FEW080 BKN300 10/10 A2990 RMK AC1CI2 SLP134

CYXE;2008-07-13 11:00;CYXE 131100Z 24007KT 15SM FEW080 BKN300 10/10 A2990 RMK AC2CI0 SLP132

CYXE;2008-07-13 12:00;CYXE 131200Z 23006KT 15SM FEW080 BKN300 10/10 A2990 RMK AC2CI2 SLP130

CYXE;2008-07-13 13:00;CYXE 131300Z 23006KT 15SM FEW080 SCT300 13/12 A2989 RMK AC1CI1 SLP128

CYXE;2008-07-13 14:00;CYXE 131400Z 26007KT 15SM FEW080 FEW300 16/13 A2988 RMK AC1CI0 SLP126

CYXE;2008-07-13 15:00;CYXE 131500Z 25005KT 15SM FEW080 FEW300 19/14 A2987 RMK AC1CI1 SLP122

CYXE;2008-07-13 16:00;CYXE 131600Z 26007KT 15SM FEW100 SCT300 21/14 A2986 RMK AC1CI2 SLP119

CYXE;2008-07-13 17:00;CYXE 131700Z 26010KT 15SM BKN110 BKN300 23/14 A2985 RMK AC6CI1 SLP115

CYXE;2008-07-13 18:00;CYXE 131800Z 27010KT 15SM FEW036 BKN095 BKN300 23/14 A2985 RMK CU1AC6CI0 SLP112

CYXE;2008-07-13 19:00;CYXE 131900Z 29005G16KT 15SM FEW050 FEW097 BKN300 25/13 A2983 RMK CU1AC1CI1 SLP107

CYXE;2008-07-13 20:00;CYXE 132000Z 29010KT 15SM SCT060 BKN300 26/14 A2981 RMK CU4CI1 TCU ASOCTD SLP102

CYXE;2008-07-13 21:00;CYXE 132100Z 30011KT 15SM FEW060 BKN300 26/13 A2980 RMK CU2CI1 TCU ASOCTD SLP094

CYXE;2008-07-13 22:00;CYXE 132200Z 29011KT 15SM BKN062TCU BKN300 24/12 A2979 RMK TCU5CI0 SH W SLP092

CYXE;2008-07-13 22:13;CYXE 132213Z 31011KT 15SM -TSRA SCT060CB BKN300 23/ RMK CB4CI1

CYXE;2008-07-13 22:47;CYXE 132247Z 29007G15KT 15SM TS SCT040CB BKN070 BKN300 23/ RMK CB3AC2CI0

CYXE;2008-07-13 22:54;CYXE 132254Z 26009KT 15SM FEW040CB SCT070 BKN150 BKN300 23/ RETS RMK CB2AC2AC1CI1

CYXE;2008-07-13 23:00;CYXE 132300Z 27009KT 15SM FEW016 FEW040CB SCT150 BKN300 24/13 A2979 RETS RMK CF1CB2AC1CI2 SLP091

CYXE;2008-07-14 00:00;CYXE 140000Z 30007KT 15SM FEW040TCU SCT080 BKN300 24/12 A2977 RMK TCU1AC2CI0 SLP088

CYXE;2008-07-14 01:00;CYXE 140100Z 29006KT 15SM FEW050TCU SCT080 BKN300 23/13 A2976 RMK TCU2AC2CI0 SLP084

CYXE;2008-07-14 02:00;CYXE 140200Z 29006KT 15SM FEW036TCU FEW080 BKN300 22/13 A2975 RMK TCU2AC1CI0 SLP081

CYXE;2008-07-14 03:00;CYXE 140300Z 29007KT 15SM FEW020TCU FEW080 BKN300 17/12 A2977 RMK TCU2AC1CI2 SLP084

CYXE;2008-07-14 04:00;CYXE 140400Z 32007KT 15SM FEW020TCU FEW080 BKN300 14/12 A2977 RMK TCU1AC1CI2 SLP087

CYXE;2008-07-14 05:00;CYXE 140500Z 31006KT 15SM FEW020TCU FEW080 BKN300 13/10 A2977 RMK TCU1AC2CI2 SLP087

CYXE;2008-07-14 06:00;CYXE 140600Z 32004KT 15SM FEW080 BKN300 12/10 A2977 RMK AC1CI2 OCNL LTNG DIST SE SLP088

CYXE;2008-07-14 07:00;CYXE 140700Z 25005KT 15SM BKN300 11/10 A2979 RMK CI1 SLP092

CYXE;2008-07-14 08:00;CYXE 140800Z 25005KT 15SM SCT160 BKN300 12/11 A2979 RMK AC3CI0 SLP093

CYXE;2008-07-14 09:00;CYXE 140900Z 27002KT 15SM FEW120 SCT270 11/10 A2979 RMK AC1CI1 SLP092

CYXE;2008-07-14 10:00;CYXE 141000Z 28006KT 15SM BKN120 11/10 A2979 RMK AC5 SLP092

CYXE;2008-07-14 11:00;CYXE 141100Z 33002KT 15SM BKN120 10/09 A2980 RMK AC5 SLP095

CYXE;2008-07-14 12:00;CYXE 141200Z 29002KT 15SM BKN120 12/10 A2980 RMK AC5 OBS TAKEN +06 SLP096

CYXE;2008-07-14 13:00;CYXE 141300Z 31002KT 15SM BKN120 13/12 A2981 RMK AC3 SLP098

CYXE;2008-07-14 14:00;CYXE 141400Z 34003KT 15SM SCT120 BKN300 15/12 A2980 RMK AC3CI1 SLP096

CYXE;2008-07-14 15:00;CYXE 141500Z 27002KT 15SM FEW120 BKN300 18/12 A2981 RMK AC2CI2 SLP099

CYXE;2008-07-14 16:00;CYXE 141600Z 28002KT 15SM FEW090 20/12 A2981 RMK ACC2 SLP099

CYXE;2008-07-14 17:00;CYXE 141700Z 35006KT 15SM FEW040 FEW090 22/12 A2980 RMK CU1ACC2 SLP097

CYXE;2008-07-14 18:00;CYXE 141800Z 36006KT 15SM SCT050 BKN100 23/12 A2981 RMK CU3AC2 FEW TCU SLP098

CYXE;2008-07-14 19:00;CYXE 141900Z 36003KT 15SM BKN060TCU BKN100 22/12 A2980 RMK TCU5AC1 CB EMBD SE SLP096

CYXE;2008-07-14 20:00;CYXE 142000Z 21002KT 15SM BKN050TCU BKN300 23/11 A2977 RMK TCU5CI1 CB EMBD W SLP088

CYXE;2008-07-14 20:37;CYXE 142037Z 30003KT 15SM TS VCSH BKN050CB BKN300 22/ RMK CB5CI2 LTGICCG S-W

CYXE;2008-07-14 20:44;CYXE 142044Z 29004KT 15SM -TSRA BKN050CB OVC300 21/ RMK CB6CI2 LTGICCG S-NW

CYXE;2008-07-14 21:00;CYXE 142100Z 25005KT 15SM -TSRA BKN050CB OVC300 19/14 A2978 RMK CB6CI1 LTGICCG S-NW SLP092

CYXE;2008-07-14 21:53;CYXE 142153Z 32005KT 15SM VCSH FEW020 BKN050CB BKN200 16/ RETS RMK SC1CB5CI1 LTNG N-E

CYXE;2008-07-14 22:00;CYXE 142200Z 02008KT 15SM VCSH FEW020 BKN050CB BKN300 16/14 A2982 RETS RMK SC1CB5CI1 LGTICCG N-E SLP107

CYXE;2008-07-14 23:00;CYXE 142300Z 07008KT 15SM VCSH FEW020 BKN050CB BKN300 16/13 A2983 RMK SC1CB5CI2 SLP110

CYXE;2008-07-15 00:00;CYXE 150000Z 01009KT 15SM VCSH FEW020 BKN085 16/12 A2985 RMK SC1AC5 CD EMBD N SLP116

CYXE;2008-07-15 01:00;CYXE 150100Z 09003KT 15SM FEW020 BKN082 16/13 A2983 RMK SC1AC5 SLP111

CYXE;2008-07-15 02:00;CYXE 150200Z 30003KT 15SM FEW020TCU FEW082 17/13 A2985 RMK TCU1AC2 SLP116

CYXE;2008-07-15 02:53;CYXE 150253Z 30003KT 15SM -SHRA FEW014 BKN067TCU 14/ RMK SC2TCU3

CYXE;2008-07-15 03:00;CYXE 150300Z 29003KT 15SM -SHRA FEW020 BKN067TCU 14/13 A2987 RMK SC2TCU3 SLP124

CYXE;2008-07-15 03:39;CYXE 150339Z 32008KT 15SM VCSH FEW018 SCT056TCU 13/ RMK SC2TCU2

CYXE;2008-07-15 04:00;CYXE 150400Z 32006KT 15SM FEW032TCU FEW056 12/12 A2990 RMK TCU1SC2 SLP131

CYXE;2008-07-15 05:00;CYXE 150500Z 30006KT 15SM FEW030 FEW060 11/11 A2991 RMK CU1SC1 SLP135

CYXE;2008-07-15 06:00;CYXE 150600Z 30007KT 15SM FEW060 09/09 A2992 RMK SC1 SLP139

CYXE;2008-07-15 07:00;CYXE 150700Z 29006KT 15SM SKC 10/10 A2993 RMK SLP142

CYXE;2008-07-15 08:00;CYXE 150800Z 27007KT 15SM FEW250 08/08 A2994 RMK CI0 SLP145

CYXE;2008-07-15 09:00;CYXE 150900Z 29006KT 15SM FEW250 08/08 A2995 RMK CI0 SLP151

CYXE;2008-07-15 10:00;CYXE 151000Z 30005KT 12SM MIFG FEW250 07/07 A2995 RMK CI0 BR SLP154

CYXE;2008-07-15 11:00;CYXE 151100Z 28005KT 10SM BCFG FEW004 FEW250 07/07 A2998 RMK SF1CI2 SLP162

CYXE;2008-07-15 12:00;CYXE 151200Z 25005KT 10SM BCFG FEW004 SCT250 08/08 A3000 RMK SF1CI2 SLP171

CYXE;2008-07-15 13:00;CYXE 151300Z 29004KT 15SM FEW004 BKN250 10/10 A3001 RMK SF1CI2 SLP173

CYXE;2008-07-15 14:00;CYXE 151400Z 30004KT 15SM FEW004 BKN250 13/13 A3002 RMK SF2CI2 SLP176

CYXE;2008-07-15 15:00;CYXE 151500Z 28005KT 15SM BKN250 14/13 A3003 RMK CI3 SLP178

CYXE;2008-07-15 16:00;CYXE 151600Z 30005KT 15SM FEW015 BKN250 17/13 A3003 RMK CU1CI4 SLP178

CYXE;2008-07-15 17:00;CYXE 151700Z 36003KT 15SM FEW020 BKN300 17/12 A3003 RMK CU1CI6 SLP178

CYXE;2008-07-15 18:00;CYXE 151800Z 34002KT 15SM FEW030 BKN300 19/11 A3003 RMK CU1CI5 SLP179

CYXE;2008-07-15 19:00;CYXE 151900Z 31003KT 15SM FEW040 BKN300 20/10 A3002 RMK CU2CI2 SLP176

CYXE;2008-07-15 20:00;CYXE 152000Z 27005KT 15SM FEW045 SCT085 BKN300 21/10 A3001 RMK CU2AC1CI1 SLP174

CYXE;2008-07-15 21:00;CYXE 152100Z 26002KT 15SM SCT050 BKN300 21/10 A3001 RMK CU4CI1 SLP171

CYXE;2008-07-15 22:00;CYXE 152200Z 22003KT 15SM SCT050 BKN300 22/11 A2999 RMK CU4CI2 SLP167

CYXE;2008-07-15 23:00;CYXE 152300Z 27006KT 15SM FEW054 OVC300 22/10 A2998 RMK CU2CI2 SLP162

CYXE;2008-07-16 00:00;CYXE 160000Z 24004KT 15SM FEW054 SCT080 OVC300 21/11 A2998 RMK CU2AC2CI1 SLP161

CYXE;2008-07-16 01:00;CYXE 160100Z 22002KT 15SM FEW050 SCT080 OVC300 20/12 A2998 RMK CU2AC2CI1 SLP160

CYXE;2008-07-16 02:00;CYXE 160200Z 00000KT 15SM FEW050 BKN100 20/11 A2997 RMK SC2AC6 SLP159

CYXE;2008-07-16 03:00;CYXE 160300Z 16004KT 15SM FEW050 BKN100 OVC300 18/12 A2996 RMK SC2AC4CI0 SLP154

CYXE;2008-07-16 04:00;CYXE 160400Z 26006KT 15SM FEW050 BKN100 15/13 A2999 RMK SC2AC4 SLP161

CYXE;2008-07-16 05:00;CYXE 160500Z 27004KT 15SM FEW050 BKN100 14/12 A2998 RMK SC2AC4 SLP160

CYXE;2008-07-16 06:00;CYXE 160600Z 31007KT 15SM FEW050 BKN100 13/12 A2998 RMK SC2AC5 SLP160

CYXE;2008-07-16 07:00;CYXE 160700Z 31005KT 15SM FEW055 BKN100 13/12 A2998 RMK SC2AC4 SLP161

CYXE;2008-07-16 08:00;CYXE 160800Z 32006KT 15SM BKN053 13/13 A2998 RMK SC6 SLP161

CYXE;2008-07-16 09:00;CYXE 160900Z 28005KT 15SM BKN050 14/13 A2998 RMK SC6 SLP159

CYXE;2008-07-16 10:00;CYXE 161000Z 21005KT 15SM BKN050 13/13 A2999 RMK SC6 SLP160

CYXE;2008-07-16 11:00;CYXE 161100Z 24003KT 15SM FEW020 BKN060 BKN270 13/13 A2999 RMK SC1SC6CI0 SLP162

CYXE;2008-07-16 12:00;CYXE 161200Z 27005KT 15SM FEW020 SCT060 SCT270 11/11 A3000 RMK SC2SC2CI0 OBS TAKEN +08 SLP167

CYXE;2008-07-16 13:00;CYXE 161300Z 00000KT 15SM BKN048 14/13 A3002 RMK SC6 SLP172

CYXE;2008-07-16 14:00;CYXE 161400Z 36007KT 15SM SCT065 SCT120 BKN300 17/12 A3002 RMK SC3AC1CI1 SLP172

CYXE;2008-07-16 15:00;CYXE 161500Z 32004KT 15SM BKN070 BKN120 16/13 A3002 RMK AC5AC1 SLP172

CYXE;2008-07-16 16:00;CYXE 161600Z 28007KT 15SM FEW027TCU BKN075 BKN120 16/14 A3003 RMK TCU1AC4AC1 SLP175

CYXE;2008-07-16 17:00;CYXE 161700Z 33003KT 15SM FEW030TCU BKN066 BKN120 18/13 A3003 RMK TCU1AC4AC1 SLP176

CYXE;2008-07-16 18:00;CYXE 161800Z 30005KT 15SM SCT033TCU BKN120 20/12 A3003 RMK TCU3AC1 SLP175

CYXE;2008-07-16 19:00;CYXE 161900Z 35007KT 15SM SCT048TCU BKN120 22/13 A3002 RMK TCU4AC2 SLP172

CYXE;2008-07-16 20:00;CYXE 162000Z 30008KT 15SM SCT040TCU BKN300 22/12 A3001 RMK TCU3CI2 SLP170

CYXE;2008-07-16 21:00;CYXE 162100Z 28006KT 15SM SCT065 BKN300 23/12 A3000 RMK CU4CI1 SLP165

CYXE;2008-07-16 22:00;CYXE 162200Z 36002KT 15SM SCT050 23/11 A3000 RMK CU4 SLP164

CYXE;2008-07-16 23:00;CYXE 162300Z 29003KT 15SM SCT050 22/10 A3000 RMK CU4 SLP164

CYXE;2008-07-17 00:00;CYXE 170000Z 25004KT 15SM SCT050TCU BKN075 23/10 A3000 RMK TCU3AC1 SLP166

CYXE;2008-07-17 01:00;CYXE 170100Z 31003KT 15SM FEW050CB SCT090 BKN300 21/12 A2999 RMK CB2AC2CI0 CB SW-NE MOVG E SLP163

CYXE;2008-07-17 02:00;CYXE 170200Z 31005KT 15SM VCSH BKN060CB BKN100 BKN300 19/12 A3001 RMK CB5AC1CI2 CB ALQDS LTNG W SLP168

CYXE;2008-07-17 02:37;CYXE 170237Z 30016G22KT 15SM -SHRA BKN065CB BKN100 OVC300 16/ RMK CB6AC1CI1 CB ALQDS

CYXE;2008-07-17 03:00;CYXE 170300Z 33009KT 15SM VCSH BKN065CB BKN100 BKN300 15/12 A3003 RMK CB5ACC1CI2 SLP176

CYXE;2008-07-17 04:00;CYXE 170400Z 31004KT 15SM FEW060CB SCT100 BKN300 13/12 A3002 RMK CB2ACC2CI2 SLP175

CYXE;2008-07-17 05:00;CYXE 170500Z 11002KT 15SM SCT080 BKN300 14/12 A3003 RMK ACC4CI2 SLP178

CYXE;2008-07-17 06:00;CYXE 170600Z 25004KT 15SM BKN077 BKN280 13/13 A3004 RMK AC5CI1 ACC ASOCTD SLP179

CYXE;2008-07-17 07:00;CYXE 170700Z 28005KT 15SM FEW088 SCT270 11/11 A3003 RMK AC2CI1 SLP177

CYXE;2008-07-17 08:00;CYXE 170800Z 28007KT 15SM FEW088 SCT270 10/10 A3003 RMK AC1CI2 SLP176

CYXE;2008-07-17 09:00;CYXE 170900Z 30006KT 15SM FEW110 SCT270 10/10 A3004 RMK AC2CI0 SLP181

CYXE;2008-07-17 10:00;CYXE 171000Z 30006KT 15SM FEW004 BKN077 BKN092 11/11 A3004 RMK SF1AC5AC2 SF TR SLP180

CYXE;2008-07-17 11:00;CYXE 171100Z 29003KT 15SM BKN077 BKN270 10/10 A3004 RMK AC6CI1 VIRGA N SLP181

CYXE;2008-07-17 12:00;CYXE 171200Z 27003KT 10SM FEW070 SCT078 BKN087 BKN270 10/10 A3005 RMK AC2ACC2AC2CI0 BR SLP183

CYXE;2008-07-17 13:00;CYXE 171300Z 29004KT 15SM FEW092 BKN270 12/12 A3006 RMK AC2CI2 SLP186

CYXE;2008-07-17 14:00;CYXE 171400Z 28003KT 15SM FEW007 SCT092 BKN270 13/13 A3007 RMK CF1AC2CI2 CF TR SLP190

CYXE;2008-07-17 15:00;CYXE 171500Z 00000KT 15SM SCT270 16/14 A3007 RMK CI1 SLP191

CYXE;2008-07-17 16:00;CYXE 171600Z 25003KT 15SM FEW018 SCT270 18/13 A3007 RMK CU2CI1 SLP192

CYXE;2008-07-17 17:00;CYXE 171700Z 22004KT 15SM FEW025 SCT300 19/13 A3007 RMK CU2CI1 SLP191

CYXE;2008-07-17 18:00;CYXE 171800Z 23002KT 15SM FEW033 SCT300 21/13 A3007 RMK CU2CI1 SLP189

CYXE;2008-07-17 19:00;CYXE 171900Z 25004KT 15SM SCT037 SCT300 22/13 A3006 RMK CU3CI1 SLP185

CYXE;2008-07-17 20:00;CYXE 172000Z 32005KT 15SM SCT044 BKN300 22/11 A3005 RMK CU4CI1 SLP183

CYXE;2008-07-17 21:00;CYXE 172100Z 29005KT 15SM BKN052 BKN300 23/11 A3004 RMK CU5CI1 SLP182

CYXE;2008-07-17 22:00;CYXE 172200Z 27003KT 15SM BKN052 BKN100 23/11 A3003 RMK CU5AC1 TCU ASOCTD SLP179

CYXE;2008-07-17 23:00;CYXE 172300Z 33003KT 15SM SCT052 BKN075 24/11 A3003 RMK CU3AC2 CB TOP SE SLP177

CYXE;2008-07-18 00:00;CYXE 180000Z 09006KT 15SM BKN055TCU 23/11 A3002 RMK TCU4 CB EMBD SLP173

CYXE;2008-07-18 01:00;CYXE 180100Z 18003KT 15SM FEW055TCU 23/11 A3000 RMK TCU2 CB TOPS NE SLP167

CYXE;2008-07-18 02:00;CYXE 180200Z 12005KT 15SM FEW060TCU 22/11 A3000 RMK TCU2 SLP167

CYXE;2008-07-18 03:00;CYXE 180300Z 11005KT 15SM FEW080 FEW300 20/11 A3001 RMK ACC1CI1 SLP168

CYXE;2008-07-18 04:00;CYXE 180400Z 13005KT 15SM FEW080 FEW300 17/12 A3001 RMK ACC1CI1 SLP169

CYXE;2008-07-18 05:00;CYXE 180500Z 07002KT 15SM BKN300 15/12 A3001 RMK CI2 SLP168

CYXE;2008-07-18 06:00;CYXE 180600Z 15004KT 15SM OVC300 15/13 A3001 RMK CI3 SLP168

CYXE;2008-07-18 07:00;CYXE 180700Z 14005KT 15SM BKN280 14/12 A3001 RMK CI2 SLP167

CYXE;2008-07-18 08:00;CYXE 180800Z 16004KT 15SM BKN280 14/12 A3000 RMK CI2 SLP166

CYXE;2008-07-18 09:00;CYXE 180900Z 18003KT 15SM SCT280 13/12 A3000 RMK CI2 SLP165

CYXE;2008-07-18 10:00;CYXE 181000Z 14003KT 15SM BKN280 13/11 A2999 RMK CI3 SLP161

CYXE;2008-07-18 11:00;CYXE 181100Z 15003KT 15SM FEW090 BKN280 13/12 A2999 RMK AC1CI3 SLP162

CYXE;2008-07-18 12:00;CYXE 181200Z 19006KT 15SM FEW090 FEW110 BKN280 13/11 A2999 RMK AC1ACC1CI2 SLP160

CYXE;2008-07-18 13:00;CYXE 181300Z 14002KT 15SM SCT110 SCT130 OVC280 14/13 A2999 RMK AC2ACC2CI2 SLP162

CYXE;2008-07-18 14:00;CYXE 181400Z 17007KT 15SM SCT110 BKN130 BKN280 16/12 A2999 RMK AC2ACC2CI2 SLP159

CYXE;2008-07-18 15:00;CYXE 181500Z 13007KT 15SM SCT110 BKN130 BKN280 20/13 A2998 RMK AC3ACC2CI2 SLP156

CYXE;2008-07-18 16:00;CYXE 181600Z 17006KT 15SM BKN100 BKN120 OVC280 19/13 A2999 RMK AC6AC2CI1 SH SW-W CVCTV CLD EMBD SLP160

CYXE;2008-07-18 16:20;CYXE 181620Z 22007KT 15SM -SHRA BKN060 BKN120 OVC280 18/ RMK SC6AC1CI1 CVCTV CLD EMBD

CYXE;2008-07-18 17:00;CYXE 181700Z 12003KT 15SM -SHRA BKN060 OVC100 17/16 A2997 RMK SC6AC1 CVCTV CLD EMBD SLP153

CYXE;2008-07-18 17:25;CYXE 181725Z 15008KT 15SM VCSH SCT050 BKN075 OVC100 18/ RMK SC3AC3AC1 ACC EMBD

CYXE;2008-07-18 18:00;CYXE 181800Z 12008KT 15SM FEW050 BKN080 BKN110 21/16 A2995 RMK SC2AC4AC2 SH E SE NW ACC ASOCTD SLP149

CYXE;2008-07-18 19:00;CYXE 181900Z 13008KT 15SM FEW030 BKN088 BKN280 21/14 A2995 RMK CU1AC6CI0 SLP148

CYXE;2008-07-18 20:00;CYXE 182000Z 14013KT 15SM FEW045 BKN095 BKN280 23/12 A2993 RMK CU1AC4CI1 SLP142

CYXE;2008-07-18 21:00;CYXE 182100Z 14012KT 15SM FEW040 BKN095 BKN280 24/14 A2991 RMK CU2AC3CI1 SLP135

CYXE;2008-07-18 22:00;CYXE 182200Z 16010G15KT 15SM FEW044 SCT100 BKN280 23/12 A2990 RMK CU1AC2CI2 ACC EMBD SLP130

CYXE;2008-07-18 23:00;CYXE 182300Z 13013G18KT 15SM FEW040 SCT110 BKN280 24/14 A2988 RMK CU1AC2CI2 SLP123

CYXE;2008-07-19 00:00;CYXE 190000Z 14013G19KT 15SM SCT110 BKN280 23/14 A2986 RMK AC2CI1 ACC ASOCTD VIRGA S SLP115

CYXE;2008-07-19 01:00;CYXE 190100Z 13012KT 15SM FEW070CB BKN110 BKN280 22/13 A2984 RMK CB2AC4CI1 SH SW SLP111

CYXE;2008-07-19 01:04;CYXE 190104Z 13014KT 15SM -SHRA SCT070CB BKN100 BKN280 22/ RMK CB3AC2CI1

CYXE;2008-07-19 01:35;CYXE 190135Z 13014G19KT 15SM VCSH FEW050CB BKN090 BKN300 21/ RMK CB2ACC4CI2

CYXE;2008-07-19 02:00;CYXE 190200Z 13018KT 15SM VCSH FEW050CB BKN090 BKN300 22/14 A2982 RMK CB2ACC4CI2 SLP103

CYXE;2008-07-19 03:00;CYXE 190300Z 13015G20KT 15SM -SHRA SCT050CB BKN095 BKN300 20/14 A2981 RMK CB4ACC2CI1 LTGICCG SW-NW SLP099

CYXE;2008-07-19 03:31;CYXE 190331Z 15015KT 15SM -TSRA BKN050CB BKN095 BKN300 20/ RMK CB6ACC1CI1 LTGICCG

CYXE;2008-07-19 04:00;CYXE 190400Z 15012KT 15SM -TSRA FEW030 BKN050CB BKN095 OVC300 19/15 A2984 RMK SC2CB3AC2CI1 CB + LTGICCG W-NE MOVG NE SLP108

CYXE;2008-07-19 04:13;CYXE 190413Z 15011G16KT 15SM VCSH BKN060CB BKN100 OVC300 19/ RETS RMK CB5AC2CI1 CB + LTGICCG NW-NE MOVG NE

CYXE;2008-07-19 05:00;CYXE 190500Z 16009KT 15SM VCSH SCT040 BKN065CB OVC100 19/14 A2985 RETS RMK SC3CB3AC2 LTGICCG ALQDS SLP109

CYXE;2008-07-19 05:23;CYXE 190523Z 32008KT 15SM +SHRA BKN030 OVC070CB 18/ RMK SC5CB3 LTNG ALQDS

CYXE;2008-07-19 05:46;CYXE 190546Z 36009KT 10SM TSRA BKN029 OVC069CB 17/ RMK SC5CB3 LTGCCCG

CYXE;2008-07-19 06:00;CYXE 190600Z 30007KT 6SM TSRA BKN016 OVC069CB 16/15 A2985 RMK SC5CB3 LTGCCCGIC SLP113

CYXE;2008-07-19 06:28;CYXE 190628Z 25019G25KT 4SM +TSRA OVC050CB RMK CB8 WND SHFT 0628Z LTGICCCCG

CYXE;2008-07-19 07:00;CYXE 190700Z 32009G16KT 6SM -TSRA BKN050CB OVC280 13/13 A2985 RERA RMK CB6CI1 LTGICCCCG N-NE SLP112

CYXE;2008-07-19 07:16;CYXE 190716Z 01008KT 15SM TS BKN019CB BKN280 13/ RMK CB5CI1 LTGICCCCG NE

CYXE;2008-07-19 07:39;CYXE 190739Z 02008KT 15SM FEW023CB SCT110 BKN280 13/ RETS RMK CB2AC2CI0 LTGICCC N-NE-E

CYXE;2008-07-19 08:00;CYXE 190800Z 02004KT 15SM FEW045CB SCT095 BKN280 13/13 A2982 RETS RMK CB2AC2CI0 LTGICCCCG N-NE-E SLP105

CYXE;2008-07-19 09:00;CYXE 190900Z 04002KT 15SM FEW045CB FEW095 SCT280 12/12 A2981 RMK CB1AC2CI0 LTGICCG N-NE SLP100

CYXE;2008-07-19 10:00;CYXE 191000Z 00000KT 6SM BR BKN096 BKN280 11/11 A2982 RMK AC6CI1 LTNG NE SLP103

CYXE;2008-07-19 10:51;CYXE 191051Z 25006KT 4SM BR FEW004 SCT069 OVC087 12/ RMK SF1AC3AC4 LTNG NE

CYXE;2008-07-19 11:00;CYXE 191100Z 26004KT 4SM BR FEW004 SCT069 BKN087 12/12 A2983 RMK SF1AC3AC3 LTNG DIST NE SLP107

CYXE;2008-07-19 12:00;CYXE 191200Z 12002KT 4SM BR SCT069 BKN097 BKN280 12/12 A2982 RMK ACC3AC2CI0 VIRGA SLP104

CYXE;2008-07-19 13:00;CYXE 191300Z 00000KT 6SM BR FEW056 FEW070 BKN280 14/14 A2983 RMK SC1ACC1CI1 SLP106

CYXE;2008-07-19 14:00;CYXE 191400Z 24002KT 12SM FEW030 FEW070 BKN280 15/15 A2984 RMK CU2AC1CI2 SLP110

CYXE;2008-07-19 14:47;CYXE 191447Z 30004KT 15SM FEW007 SCT030 BKN280 17/ RMK SC2CU1CI2

CYXE;2008-07-19 15:00;CYXE 191500Z 29003KT 15SM FEW008 SCT030 BKN280 17/15 A2984 RMK SC2CU1CI2 SLP110

CYXE;2008-07-19 16:00;CYXE 191600Z 27002KT 15SM FEW010 SCT030 SCT100 BKN280 18/15 A2985 RMK SC2CU1AC1CI1 SLP113

CYXE;2008-07-19 17:00;CYXE 191700Z 25008KT 15SM FEW015 SCT100 BKN280 19/15 A2985 RMK SC2AC2CI2 CU ASOCTD SLP112

CYXE;2008-07-19 18:00;CYXE 191800Z 26009KT 15SM SCT020 SCT090 BKN280 20/14 A2985 RMK CU3AC1CI2 SLP113

CYXE;2008-07-19 19:00;CYXE 191900Z 25011KT 15SM FEW029 SCT120 BKN280 21/14 A2985 RMK SC2AC1CI2 SLP112

CYXE;2008-07-19 20:00;CYXE 192000Z 24006KT 15SM FEW030 SCT120 BKN280 22/13 A2983 RMK SC2AC1CI1 SLP106

CYXE;2008-07-19 21:00;CYXE 192100Z 25003KT 15SM SCT040 BKN120 BKN280 22/14 A2982 RMK CU3AC1CI1 SLP105

CYXE;2008-07-19 22:00;CYXE 192200Z 27004KT 15SM BKN040TCU BKN280 23/13 A2981 RMK TCU5CI1 SLP101

CYXE;2008-07-19 23:00;CYXE 192300Z 26003KT 15SM VCSH BKN040TCU BKN280 22/13 A2981 RMK TCU6CI1 CB EMBD E SLP100

CYXE;2008-07-20 00:00;CYXE 200000Z 29002KT 12SM VCSH BKN035CB BKN280 19/14 A2983 RMK CB6CI1 SLP108

CYXE;2008-07-20 00:12;CYXE 200012Z 35023G29KT 12SM -TSRA BKN026CB 15/ RMK CB7

CYXE;2008-07-20 00:15;CYXE 200015Z 33021G30KT 3SM R09/3500VP6000FT/D TSRAGR OVC022CB 14/ RMK CB8 HAIL DIAM 10MM

CYXE;2008-07-20 00:21;CYXE 200021Z 33014G30KT 3/4SM R09/3500VP6000FT/D TSRAGR OVC022CB 13/ RMK CB8 HAIL DIAM 10MM

CYXE;2008-07-20 00:35;CYXE 200035Z 09015G28KT 4SM R09/0800V4000FT/U -TSRA OVC022CB 11/ RMK CB7 /R40/RERA REGR

CYXE;2008-07-20 01:00;CYXE 200100Z 12011KT 8SM -TSRA BKN022CB 11/11 A2984 RMK CB7 SLP112

CYXE;2008-07-20 02:00;CYXE 200200Z 12007KT 15SM TS FEW022 BKN053 12/12 A2981 RMK SC2SC5 CVCTV CLD EMBD SLP104

CYXE;2008-07-20 02:15;CYXE 200215Z 31004KT 15SM FEW022 BKN053 12/ RETS RMK SC2SC5 CVCTV CLD EMBD

CYXE;2008-07-20 03:00;CYXE 200300Z 20006KT 15SM FEW022 BKN052 BKN120 13/13 A2983 RMK SC1SC4AC2 SLP111

CYXE;2008-07-20 04:00;CYXE 200400Z 19006KT 15SM FEW022 SCT052 BKN120 12/12 A2984 RMK SC1SC3AC2 SLP113

CYXE;2008-07-20 05:00;CYXE 200500Z 19003KT 15SM FEW052 BKN120 12/12 A2985 RMK SC2AC1 SLP116

CYXE;2008-07-20 06:00;CYXE 200600Z 21003KT 15SM MIFG FEW250 10/10 A2985 RMK CI1 SLP117

CYXE;2008-07-20 07:00;CYXE 200700Z 23005KT 15SM MIFG SKC 11/11 A2986 RMK SLP119

CYXE;2008-07-20 08:00;CYXE 200800Z 17003KT 15SM FEW120 11/11 A2986 RMK AC1 SLP119

CYXE;2008-07-20 09:00;CYXE 200900Z 18003KT 15SM SKC 10/10 A2986 RMK SLP119

CYXE;2008-07-20 10:00;CYXE 201000Z 22007KT 15SM MIFG FEW120 FEW250 09/09 A2988 RMK AC1CI0 SLP124

CYXE;2008-07-20 11:00;CYXE 201100Z 24006KT 12SM FEW120 SCT250 09/09 A2989 RMK AC2CI0 BR SLP127

CYXE;2008-07-20 12:00;CYXE 201200Z 25005KT 12SM SCT120 SCT250 10/10 A2990 RMK AC2CI0 BR SLP132

CYXE;2008-07-20 13:00;CYXE 201300Z 27005KT 15SM SKC 13/13 A2990 RMK SLP134

CYXE;2008-07-20 14:00;CYXE 201400Z 27005KT 15SM FEW280 15/15 A2992 RMK CI0 SLP139

CYXE;2008-07-20 15:00;CYXE 201500Z 27005KT 15SM FEW012 18/15 A2993 RMK SC1 SLP143

CYXE;2008-07-20 16:00;CYXE 201600Z 25007KT 15SM FEW020 FEW140 20/15 A2993 RMK CU1AC1 SLP145

CYXE;2008-07-20 17:00;CYXE 201700Z 29007KT 15SM FEW030 SCT140 22/12 A2994 RMK CU2AC2 SLP146

CYXE;2008-07-20 18:00;CYXE 201800Z 29010KT 15SM FEW040 FEW140 23/13 A2994 RMK CU2AC1 SLP144

CYXE;2008-07-20 19:00;CYXE 201900Z 33011KT 15SM FEW040 FEW280 24/13 A2993 RMK CU2CI0 SLP143

CYXE;2008-07-20 20:00;CYXE 202000Z 32009KT 15SM FEW044 24/13 A2993 RMK CU2 SLP143

CYXE;2008-07-20 21:00;CYXE 202100Z 35008KT 15SM FEW044 24/13 A2993 RMK CU2 SLP142

CYXE;2008-07-20 22:00;CYXE 202200Z 31006KT 15SM FEW051 25/13 A2993 RMK CU2 SLP141

CYXE;2008-07-20 23:00;CYXE 202300Z 33008KT 15SM FEW044 25/14 A2993 RMK CU2 SLP141

CYXE;2008-07-21 00:00;CYXE 210000Z 35007KT 15SM FEW044 FEW280 25/13 A2993 RMK CU1CI0 SLP140

CYXE;2008-07-21 01:00;CYXE 210100Z 01006KT 15SM FEW042 FEW280 24/14 A2992 RMK CU1CI0 SLP138

CYXE;2008-07-21 02:00;CYXE 210200Z 04004KT 15SM FEW280 23/14 A2992 RMK CI0 SLP138

CYXE;2008-07-21 03:00;CYXE 210300Z 07005KT 15SM FEW280 20/15 A2993 RMK CI0 SLP139

CYXE;2008-07-21 04:00;CYXE 210400Z 10006KT 15SM SKC 17/14 A2994 RMK SLP142

CYXE;2008-07-21 05:00;CYXE 210500Z 12004KT 15SM SKC 18/14 A2995 RMK SLP145

CYXE;2008-07-21 06:00;CYXE 210600Z 12004KT 15SM SKC 16/14 A2995 RMK SLP144

CYXE;2008-07-21 07:00;CYXE 210700Z 14003KT 15SM SKC 15/14 A2995 RMK SLP146

CYXE;2008-07-21 08:00;CYXE 210800Z 12003KT 15SM SKC 15/13 A2995 RMK SLP146

CYXE;2008-07-21 09:00;CYXE 210900Z 12003KT 15SM SKC 14/14 A2995 RMK SLP145

CYXE;2008-07-21 10:00;CYXE 211000Z 12004KT 15SM SKC 14/13 A2994 RMK SLP143

CYXE;2008-07-21 11:00;CYXE 211100Z 12004KT 15SM SKC 13/13 A2994 RMK SLP143

CYXE;2008-07-21 12:00;CYXE 211200Z 13004KT 15SM FEW280 15/14 A2994 RMK CI0 SLP143

CYXE;2008-07-21 13:00;CYXE 211300Z 16005KT 15SM FEW280 17/14 A2995 RMK CI0 SLP144

CYXE;2008-07-21 14:00;CYXE 211400Z 15007KT 15SM SKC 19/15 A2994 RMK SLP142

CYXE;2008-07-21 15:00;CYXE 211500Z 13007KT 15SM SKC 21/15 A2994 RMK SLP140

CYXE;2008-07-21 16:00;CYXE 211600Z 13008KT 15SM SKC 24/16 A2992 RMK SLP136

CYXE;2008-07-21 17:00;CYXE 211700Z 14011KT 15SM SKC 26/15 A2991 RMK SLP133

CYXE;2008-07-21 18:00;CYXE 211800Z 15012KT 15SM SKC 27/15 A2990 RMK SLP128

CYXE;2008-07-21 19:00;CYXE 211900Z 14016KT 15SM SKC 28/15 A2988 RMK SLP121

CYXE;2008-07-21 20:00;CYXE 212000Z 15018KT 15SM SKC 30/14 A2987 RMK SLP117

CYXE;2008-07-21 21:00;CYXE 212100Z 15015G20KT 15SM SKC 30/14 A2985 RMK SLP110

CYXE;2008-07-21 22:00;CYXE 212200Z 16017KT 15SM SKC 30/14 A2984 RMK SLP105

CYXE;2008-07-21 23:00;CYXE 212300Z 17010G20KT 15SM SKC 30/16 A2982 RMK SLP099

CYXE;2008-07-22 00:00;CYXE 220000Z 16017KT 15SM SKC 30/16 A2981 RMK SLP093

CYXE;2008-07-22 01:00;CYXE 220100Z 15014G20KT 15SM SKC 28/17 A2980 RMK SLP090

CYXE;2008-07-22 02:00;CYXE 220200Z 15016G25KT 15SM SKC 27/17 A2980 RMK SLP091

CYXE;2008-07-22 03:00;CYXE 220300Z 15014G21KT 15SM SKC 25/15 A2980 RMK SLP090

CYXE;2008-07-22 04:00;CYXE 220400Z 15014G19KT 15SM SKC 23/16 A2981 RMK SLP092

CYXE;2008-07-22 05:00;CYXE 220500Z 16012G17KT 15SM SKC 22/15 A2981 RMK SLP092

CYXE;2008-07-22 06:00;CYXE 220600Z 15011KT 15SM SKC 21/14 A2980 RMK SLP090

CYXE;2008-07-22 07:00;CYXE 220700Z 15011KT 15SM SKC 21/14 A2980 RMK SLP089

CYXE;2008-07-22 08:00;CYXE 220800Z 15011KT 15SM FEW110 20/14 A2979 RMK AC1 SLP085

CYXE;2008-07-22 09:00;CYXE 220900Z 15011KT 15SM FEW110 20/14 A2978 RMK AC1 SLP083

CYXE;2008-07-22 10:00;CYXE 221000Z 16012G18KT 15SM FEW110 21/13 A2977 RMK AC1 SLP079

CYXE;2008-07-22 11:00;CYXE 221100Z 15006KT 15SM FEW110 SCT280 18/14 A2978 RMK ACC1CI1 SLP081

CYXE;2008-07-22 12:00;CYXE 221200Z 14006KT 15SM FEW120 FEW280 17/15 A2978 RMK ACC1CI1 SLP082

CYXE;2008-07-22 13:00;CYXE 221300Z 15007KT 15SM FEW120 SCT280 19/15 A2978 RMK ACC1CI2 SLP082

CYXE;2008-07-22 14:00;CYXE 221400Z 16009KT 15SM SCT140 BKN280 21/16 A2978 RMK ACC3CI1 SLP082

CYXE;2008-07-22 15:00;CYXE 221500Z 18009KT 15SM FEW090 SCT140 BKN280 23/17 A2979 RMK AC2ACC2CI2 SLP086

CYXE;2008-07-22 15:44;CYXE 221544Z 20010KT 15SM -SHRA SCT072 BKN140 BKN280 21/ RMK AC3ACC2CI2

CYXE;2008-07-22 16:00;CYXE 221600Z 16008KT 15SM -SHRA FEW068 BKN140 BKN280 21/17 A2977 RMK AC2ACC3CI1 SLP078

CYXE;2008-07-22 16:26;CYXE 221626Z 17007KT 15SM FEW068 BKN120 BKN280 23/ RMK AC2ACC2CI1

CYXE;2008-07-22 17:00;CYXE 221700Z 15009KT 15SM FEW070 BKN120 BKN280 23/18 A2976 RMK AC2AC2CI1 SLP076

CYXE;2008-07-22 18:00;CYXE 221800Z 17007KT 15SM BKN120 OVC280 23/18 A2978 RMK AC6CI1 SLP086

CYXE;2008-07-22 19:00;CYXE 221900Z 23003KT 15SM BKN120 OVC280 25/19 A2979 RMK AC6CI0 SLP089

CYXE;2008-07-22 20:00;CYXE 222000Z 00000KT 15SM BKN120 OVC300 26/19 A2980 RMK AC6CI1 SLP090

CYXE;2008-07-22 21:00;CYXE 222100Z 16005KT 15SM BKN130 BKN320 27/19 A2979 RMK AC5CI1 SLP086

CYXE;2008-07-22 22:00;CYXE 222200Z 16006KT 15SM BKN120 OVC300 26/20 A2979 RMK ACC6CI2 SLP087

CYXE;2008-07-22 23:00;CYXE 222300Z 13009KT 15SM BKN120 OVC300 26/21 A2978 RMK ACC6CI2 SLP084

CYXE;2008-07-23 00:00;CYXE 230000Z 15004KT 15SM BKN120 OVC300 26/21 A2976 RMK ACC5CI3 SLP078

CYXE;2008-07-23 01:00;CYXE 230100Z 17009KT 15SM BKN120 OVC300 26/21 A2976 RMK ACC6CI2 SLP078

CYXE;2008-07-23 02:00;CYXE 230200Z 14006KT 15SM BKN120 OVC300 25/21 A2976 RMK ACC5CI2 SLP078

CYXE;2008-07-23 03:00;CYXE 230300Z 12006KT 15SM SCT120 BKN300 24/21 A2976 RMK ACC4CI2 SLP075

CYXE;2008-07-23 04:00;CYXE 230400Z 12003KT 15SM SCT120 BKN300 23/21 A2976 RMK AC4CI2 SLP077

CYXE;2008-07-23 05:00;CYXE 230500Z 36005KT 15SM SCT120 BKN300 21/20 A2977 RMK AC4CI2 SLP078

CYXE;2008-07-23 06:00;CYXE 230600Z 07005KT 15SM SCT120 BKN300 21/20 A2976 RMK AC4CI2 SLP078

CYXE;2008-07-23 07:00;CYXE 230700Z 16011KT 15SM BKN120 OVC300 22/19 A2976 RMK AC6CI2 SLP078

CYXE;2008-07-23 08:00;CYXE 230800Z 18006KT 15SM FEW038 BKN120 BKN300 21/18 A2975 RMK SC2AC4CI0 SLP076

CYXE;2008-07-23 09:00;CYXE 230900Z 21006KT 15SM FEW035 SCT070 BKN120 20/18 A2975 RMK SC2AC2AC1 SLP073

CYXE;2008-07-23 10:00;CYXE 231000Z 17006KT 15SM FEW070 BKN120 20/18 A2973 RMK AC2AC2 SLP068

CYXE;2008-07-23 11:00;CYXE 231100Z 14006KT 15SM FEW070 OVC120 20/18 A2973 RMK AC2AC6 SLP067

CYXE;2008-07-23 11:31;CYXE 231131Z 11008KT 15SM -SHRA SCT048 OVC120 20/ RMK SC4AC4

CYXE;2008-07-23 12:00;CYXE 231200Z 00000KT 15SM -SHRA SCT013 OVC048 20/19 A2973 RMK SC4SC4 SLP068

CYXE;2008-07-23 12:25;CYXE 231225Z 00000KT 15SM -SHRA BKN013 OVC048 20/ RMK SC6SC2

CYXE;2008-07-23 13:00;CYXE 231300Z 14002KT 15SM -SHRA BKN011 OVC048 20/20 A2973 RMK SC6SC2 SLP066

CYXE;2008-07-23 14:00;CYXE 231400Z 15004KT 15SM OVC009 21/20 A2972 RMK SC8 RAG CIG SLP065

CYXE;2008-07-23 14:38;CYXE 231438Z 19003KT 15SM OVC010 21/ RMK SC8 RAG CIG

CYXE;2008-07-23 15:00;CYXE 231500Z 21004KT 15SM OVC010 21/19 A2972 RMK SC8 RAG CIG SLP064

CYXE;2008-07-23 16:00;CYXE 231600Z 16005KT 15SM OVC013 22/20 A2971 RMK SC8 RAG CIG SLP061

CYXE;2008-07-23 16:24;CYXE 231624Z 26003KT 15SM OVC015 23/ RMK SC7

CYXE;2008-07-23 17:00;CYXE 231700Z 30003KT 15SM BKN015 OVC120 23/20 A2972 RMK SC6AC1 SLP063

CYXE;2008-07-23 18:00;CYXE 231800Z 36009KT 15SM VCSH BKN017 24/20 A2972 RMK SC7 TCU EMBD SLP064

CYXE;2008-07-23 18:19;CYXE 231819Z 36011KT 15SM -SHRA BKN015 OVC023 23/ RMK SC7SC1 TCU EMBD

CYXE;2008-07-23 19:00;CYXE 231900Z 36011G16KT 15SM -SHRA BKN015 OVC042 23/20 A2972 RMK SC7SC1 TCU EMBD SLP064

CYXE;2008-07-23 20:00;CYXE 232000Z 03009KT 15SM -SHRA BKN015 OVC040 22/20 A2973 RMK SC7SC1 TCU EMBD SLP066

CYXE;2008-07-23 21:00;CYXE 232100Z 33013KT 15SM -SHRA SCT020 OVC045 21/20 A2975 RMK SC3SC5 CB EMBD SLP076

CYXE;2008-07-23 22:00;CYXE 232200Z 01010G15KT 15SM VCSH SCT025 BKN045 BKN100 OVC300 21/19 A2976 RMK SC3SC2AC2CI1 CB EMBD SLP079

CYXE;2008-07-23 22:24;CYXE 232224Z 35009G15KT 15SM BKN010 OVC045 21/ RMK SC6SC2

CYXE;2008-07-23 23:00;CYXE 232300Z 34015KT 15SM SCT012 BKN100 OVC300 21/19 A2977 RMK SC4AC1CI2 SLP082

CYXE;2008-07-24 00:00;CYXE 240000Z 33014KT 15SM FEW012 SCT100 BKN300 21/18 A2978 RMK SC2AC2CI1 SLP088

CYXE;2008-07-24 01:00;CYXE 240100Z 32010KT 15SM FEW020 BKN100 22/18 A2979 RMK CU2AC4 SLP090

CYXE;2008-07-24 02:00;CYXE 240200Z 33008KT 15SM FEW050 BKN090 21/17 A2980 RMK CU1AC5 SLP092

CYXE;2008-07-24 03:00;CYXE 240300Z 31011KT 15SM FEW070 BKN095 19/16 A2981 RMK AC1AC3 SLP096

CYXE;2008-07-24 04:00;CYXE 240400Z 30008KT 15SM SCT070 BKN100 18/15 A2982 RMK AC3AC2 SLP101

CYXE;2008-07-24 05:00;CYXE 240500Z 30009KT 15SM BKN065 OVC090 18/15 A2983 RMK SC5AC2 SLP104

CYXE;2008-07-24 06:00;CYXE 240600Z 31008KT 15SM OVC065 18/14 A2984 RMK SC8 SLP107

CYXE;2008-07-24 07:00;CYXE 240700Z 31008KT 15SM BKN058 OVC075 17/14 A2985 RMK SC5AC3 SLP109

CYXE;2008-07-24 08:00;CYXE 240800Z 31008KT 15SM FEW053 SCT086 15/13 A2984 RMK SC2AC2 SLP106

CYXE;2008-07-24 09:00;CYXE 240900Z 31009KT 15SM FEW053 BKN088 16/13 A2985 RMK SC1AC6 SLP111

CYXE;2008-07-24 10:00;CYXE 241000Z 31008KT 15SM BKN088 16/13 A2986 RMK AC7 SLP117

CYXE;2008-07-24 11:00;CYXE 241100Z 29007KT 15SM SCT086 BKN300 14/12 A2987 RMK AC2CI1 SLP120

CYXE;2008-07-24 12:00;CYXE 241200Z 29006KT 15SM BKN086 13/12 A2989 RMK AC6 OBS TAKEN +09 SLP126

CYXE;2008-07-24 13:00;CYXE 241300Z 30007KT 15SM BKN087 14/12 A2989 RMK AC5 SLP127

CYXE;2008-07-24 14:00;CYXE 241400Z 31007KT 15SM FEW063 BKN094 BKN250 16/12 A2990 RMK SC2AC3CI1 SLP132

CYXE;2008-07-24 15:00;CYXE 241500Z 30009KT 15SM FEW070 BKN100 19/14 A2990 RMK ACC2AC2 SLP131

CYXE;2008-07-24 16:00;CYXE 241600Z 29008KT 15SM BKN066 BKN100 20/13 A2991 RMK ACC5AC1 SLP133

CYXE;2008-07-24 17:00;CYXE 241700Z 31008KT 15SM SCT070 BKN120 22/14 A2991 RMK ACC3AC1 SLP133

CYXE;2008-07-24 18:00;CYXE 241800Z 31010KT 15SM BKN070 BKN120 22/13 A2992 RMK ACC5AC1 SLP136

CYXE;2008-07-24 19:00;CYXE 241900Z 31009KT 15SM FEW040TCU SCT070 BKN120 23/12 A2992 RMK TCU1ACC2AC4 CB DIST N SLP136

CYXE;2008-07-24 20:00;CYXE 242000Z 30010G15KT 15SM SCT040CB BKN120 BKN300 23/13 A2993 RMK CB3ACC2CI2 CB ALQDS SLP137

CYXE;2008-07-24 21:00;CYXE 242100Z 33010KT 15SM FEW040CB SCT120 BKN300 24/13 A2994 RMK CB2AC2CI2 CB E MOVG E SLP140

CYXE;2008-07-24 22:00;CYXE 242200Z 32008KT 15SM SCT044TCU BKN100 BKN300 23/12 A2994 RMK TCU3AC2CI1 SLP140

CYXE;2008-07-24 23:00;CYXE 242300Z 32009KT 15SM FEW050TCU SCT100 BKN300 24/12 A2995 RMK TCU2AC2CI1 SLP143

CYXE;2008-07-25 00:00;CYXE 250000Z 34006KT 15SM FEW050TCU SCT100 BKN300 24/09 A2996 RMK TCU2AC2CI0 CB TOPS W SLP149

CYXE;2008-07-25 01:00;CYXE 250100Z 36008KT 15SM FEW050TCU FEW100 BKN300 22/13 A2997 RMK TCU1AC1CI1 CB TOP S SLP154

CYXE;2008-07-25 02:00;CYXE 250200Z 33002KT 15SM FEW030TCU FEW100 SCT300 20/13 A2997 RMK TCU1AC1CI1 SLP154

CYXE;2008-07-25 03:00;CYXE 250300Z 31004KT 15SM FEW100 BKN300 17/13 A2999 RMK AC2CI0 SLP161

CYXE;2008-07-25 04:00;CYXE 250400Z 26006KT 15SM SCT300 14/12 A3000 RMK CI0 SLP165

CYXE;2008-07-25 05:00;CYXE 250500Z 28005KT 15SM SCT300 13/11 A3001 RMK CI0 SLP167

CYXE;2008-07-25 06:00;CYXE 250600Z 27007KT 15SM SKC 11/10 A3002 RMK SLP171

CYXE;2008-07-25 07:00;CYXE 250700Z 27007KT 15SM SKC 11/10 A3003 RMK SLP174

CYXE;2008-07-25 08:00;CYXE 250800Z 27006KT 15SM SKC 10/10 A3003 RMK SLP177

CYXE;2008-07-25 09:00;CYXE 250900Z 27007KT 15SM SKC 09/09 A3005 RMK SLP182

CYXE;2008-07-25 10:00;CYXE 251000Z 27008KT 15SM SKC 10/10 A3005 RMK SLP183

CYXE;2008-07-25 11:00;CYXE 251100Z 26007KT 15SM SKC 09/09 A3007 RMK SLP188

CYXE;2008-07-25 12:00;CYXE 251200Z CCA 24006KT 15SM SKC 10/10 A3008 RMK OBS TAKEN +10 SLP192

CYXE;2008-07-25 13:00;CYXE 251300Z 26005KT 15SM SKC 13/12 A3008 RMK SLP195

CYXE;2008-07-25 14:00;CYXE 251400Z 27007KT 15SM SKC 15/13 A3009 RMK SLP196

CYXE;2008-07-25 15:00;CYXE 251500Z 30008KT 15SM SKC 19/11 A3009 RMK SLP197

CYXE;2008-07-25 16:00;CYXE 251600Z 30009KT 15SM SKC 22/11 A3009 RMK SLP197

CYXE;2008-07-25 17:00;CYXE 251700Z 30009KT 15SM SKC 24/10 A3009 RMK SLP197

CYXE;2008-07-25 18:00;CYXE 251800Z 31008KT 15SM FEW060 25/10 A3009 RMK CF1 SLP197

CYXE;2008-07-25 19:00;CYXE 251900Z 31009G19KT 15SM FEW060 26/09 A3009 RMK CU1 SLP195

CYXE;2008-07-25 20:00;CYXE 252000Z 31006KT 15SM FEW060 26/08 A3008 RMK CU2 SLP192

CYXE;2008-07-25 21:00;CYXE 252100Z 31006KT 15SM FEW070 27/09 A3006 RMK CU2 SLP186

CYXE;2008-07-25 22:00;CYXE 252200Z 00000KT 15SM FEW070 27/09 A3006 RMK CU2 SLP185

CYXE;2008-07-25 23:00;CYXE 252300Z 00000KT 15SM FEW080 27/09 A3005 RMK CU2 SLP183

CYXE;2008-07-26 00:00;CYXE 260000Z 28004KT 15SM FEW082 26/10 A3004 RMK CU2 SLP180

CYXE;2008-07-26 01:00;CYXE 260100Z 01003KT 15SM FEW082 25/11 A3004 RMK CU1 SLP178

CYXE;2008-07-26 02:00;CYXE 260200Z 02004KT 15SM FEW110 23/13 A3002 RMK AC1 SLP173

CYXE;2008-07-26 03:00;CYXE 260300Z 08002KT 15SM FEW110 FEW250 22/11 A3003 RMK AC1CI0 SLP172

CYXE;2008-07-26 04:00;CYXE 260400Z 16005KT 15SM FEW250 20/12 A3003 RMK CI0 SLP173

CYXE;2008-07-26 05:00;CYXE 260500Z 17005KT 15SM SKC 19/11 A3003 RMK SLP171

CYXE;2008-07-26 06:00;CYXE 260600Z 17005KT 15SM SKC 18/12 A3003 RMK SLP170

CYXE;2008-07-26 07:00;CYXE 260700Z 18006KT 15SM SKC 16/12 A3002 RMK SLP168

CYXE;2008-07-26 08:00;CYXE 260800Z 19007KT 15SM SKC 16/11 A3001 RMK SLP166

CYXE;2008-07-26 09:00;CYXE 260900Z 19004KT 15SM SKC 15/11 A3001 RMK SLP165

CYXE;2008-07-26 10:00;CYXE 261000Z 19003KT 15SM FEW300 14/11 A3000 RMK CI0 SLP163

CYXE;2008-07-26 11:00;CYXE 261100Z 21004KT 15SM FEW300 13/10 A3001 RMK CI1 SLP165

CYXE;2008-07-26 12:00;CYXE 261200Z 17004KT 15SM FEW300 12/11 A3001 RMK CI1 SLP165

CYXE;2008-07-26 13:00;CYXE 261300Z 17005KT 15SM FEW300 14/12 A3000 RMK CI1 SLP163

CYXE;2008-07-26 14:00;CYXE 261400Z 22002KT 15SM FEW300 17/12 A3000 RMK CI1 SLP164

CYXE;2008-07-26 15:00;CYXE 261500Z 20004KT 15SM FEW300 20/12 A3000 RMK CI1 SLP162

CYXE;2008-07-26 16:00;CYXE 261600Z 19003KT 15SM FEW040 BKN300 22/13 A2999 RMK CF1CI1 SLP160

CYXE;2008-07-26 17:00;CYXE 261700Z 15003KT 15SM FEW050 BKN300 25/11 A2998 RMK CU1CI2 SLP154

CYXE;2008-07-26 18:00;CYXE 261800Z 14004KT 15SM FEW080 SCT300 26/11 A2996 RMK ACC1CI2 SLP146

CYXE;2008-07-26 19:00;CYXE 261900Z 13004KT 15SM FEW080 FEW300 27/11 A2995 RMK ACC1CI1 SLP142

CYXE;2008-07-26 20:00;CYXE 262000Z 11008KT 15SM BKN095 BKN300 27/11 A2993 RMK AC5CI1 ACC ASOCTD SLP136

CYXE;2008-07-26 21:00;CYXE 262100Z 11010G15KT 15SM SCT090 BKN300 28/11 A2992 RMK ACC2CI2 SLP134

CYXE;2008-07-26 22:00;CYXE 262200Z 13010KT 15SM SCT110 BKN300 28/13 A2990 RMK ACC2CI2 SLP127

CYXE;2008-07-26 23:00;CYXE 262300Z 13013KT 15SM FEW110 BKN300 27/12 A2989 RMK AC2CI2 ACC ASOCTD SLP124

CYXE;2008-07-27 00:00;CYXE 270000Z 12013KT 15SM FEW110 BKN300 27/12 A2987 RMK AC1CI2 ACC ASOCTD SLP118

CYXE;2008-07-27 01:00;CYXE 270100Z 13012KT 15SM SCT110 BKN300 25/12 A2986 RMK AC2CI2 SLP116

CYXE;2008-07-27 02:00;CYXE 270200Z 13010KT 15SM SCT110 OVC280 24/14 A2986 RMK AC3CI2 SLP114

CYXE;2008-07-27 03:00;CYXE 270300Z 13007KT 15SM BKN110 OVC280 22/14 A2986 RMK AC4CI2 ACC ASOCTD SLP114

CYXE;2008-07-27 04:00;CYXE 270400Z 13007KT 15SM BKN110 OVC280 22/13 A2986 RMK AC6CI1 ACC ASOCTD SLP114

CYXE;2008-07-27 05:00;CYXE 270500Z 14007KT 15SM BKN110 OVC280 21/13 A2985 RMK AC6CI2 LTNG DIST SW-W SLP109

CYXE;2008-07-27 06:00;CYXE 270600Z 03004KT 15SM BKN110 OVC280 19/14 A2985 RMK AC6CI2 SLP108

CYXE;2008-07-27 07:00;CYXE 270700Z 35003KT 15SM BKN110 OVC280 17/14 A2985 RMK AC6CI2 SLP108

CYXE;2008-07-27 07:46;CYXE 270746Z 10004KT 15SM -RA SCT034 BKN110 OVC280 17/ RMK SC3AC3CI2

CYXE;2008-07-27 08:00;CYXE 270800Z 11004KT 15SM -RA BKN034 OVC110 17/15 A2983 RMK SC5AC3 SLP103

CYXE;2008-07-27 08:27;CYXE 270827Z 14005KT 15SM BKN034 OVC110 18/ RMK SC5AC3

CYXE;2008-07-27 09:00;CYXE 270900Z 17006KT 15SM BKN067 18/15 A2983 RMK AC6 SLP102

CYXE;2008-07-27 09:14;CYXE 270914Z 18006KT 15SM -SHRA OVC067 19/ RMK AC8

CYXE;2008-07-27 10:00;CYXE 271000Z 17009KT 15SM -SHRA OVC040 17/15 A2982 RMK SC8 CVCTV CLD EMBD LTNG DIST SW SLP097

CYXE;2008-07-27 10:27;CYXE 271027Z 17008KT 15SM BKN043 OVC070 17/ RMK SC6AC2 CVCTV CLD EMBD LTNG DIST SW

CYXE;2008-07-27 10:50;CYXE 271050Z 09009KT 15SM -SHRA BKN030 OVC070 17/ RMK SC6AC2 CVCTV CLD EMBD LTNG DIST SW

CYXE;2008-07-27 11:00;CYXE 271100Z CCA 04006KT 15SM -SHRA BKN030 OVC070 17/15 A2980 RMK SC6AC2 CVCTV CLD EMBD LTNG DIST SW SLP092

CYXE;2008-07-27 12:00;CYXE 271200Z 26007KT 15SM -SHRA SCT028 OVC070 17/14 A2984 RMK SC4AC4 SLP104

CYXE;2008-07-27 13:00;CYXE 271300Z 09005KT 15SM -SHRA OVC023 16/15 A2982 RMK SC8 SLP100

CYXE;2008-07-27 14:00;CYXE 271400Z 04010G15KT 15SM -SHRA BKN040 BKN100 OVC280 17/14 A2980 RMK SC5AC1CI1 WSHFT 1352 CVCTV CLD EMBD SLP091

CYXE;2008-07-27 14:19;CYXE 271419Z 05009KT 15SM SCT040 BKN100 OVC280 17/ RMK SC3ACC2CI2

CYXE;2008-07-27 15:00;CYXE 271500Z 08008KT 15SM FEW045 BKN090 OVC280 18/15 A2979 RMK SC1AC6CI1 SH NW-N SLP089

CYXE;2008-07-27 16:00;CYXE 271600Z 05010KT 15SM TS FEW050CB BKN080 OVC280 18/16 A2979 RMK CB1AC6CI1 LTGCG NW SLP089

CYXE;2008-07-27 16:52;CYXE 271652Z 32016KT 12SM -TSRA BKN030CB OVC095 18/ RMK CB6AC2 LGTICCG W

CYXE;2008-07-27 17:00;CYXE 271700Z 36012G18KT 15SM -TSRA BKN040CB BKN080 OVC280 17/15 A2981 RMK CB5AC2CI2 LTGICCG N SLP097

CYXE;2008-07-27 17:16;CYXE 271716Z 07020G25KT 15SM -TSRA BKN040CB BKN090 BKN280 17/ RMK CB5AC1CI2 WSHFT 1707

CYXE;2008-07-27 17:40;CYXE 271740Z 04011KT 15SM SCT040CB BKN090 BKN280 18/ RETS RMK CB3ACC2CI2 SH N-SE

CYXE;2008-07-27 18:00;CYXE 271800Z 05012KT 15SM FEW040CB SCT090 BKN280 19/16 A2976 RMK CB2ACC2CI2 SLP082

CYXE;2008-07-27 19:00;CYXE 271900Z 09016KT 15SM FEW120 SCT280 22/16 A2974 RMK ACC2CI1 SLP074

CYXE;2008-07-27 20:00;CYXE 272000Z 11010G17KT 15SM FEW025 FEW120 SCT280 23/17 A2972 RMK CU1ACC2CI1 SLP070

CYXE;2008-07-27 21:00;CYXE 272100Z 13012KT 15SM FEW030 SCT110 SCT280 24/18 A2971 RMK CU1AC2CI1 ACC ASOCTD SLP063

CYXE;2008-07-27 22:00;CYXE 272200Z 12008KT 15SM FEW100 SCT140 SCT280 24/17 A2969 RMK ACC2AC1CI1 SLP057

CYXE;2008-07-27 23:00;CYXE 272300Z 13007KT 15SM FEW050 FEW110 SCT280 25/18 A2967 RMK CU1AC2CI1 SLP049

CYXE;2008-07-28 00:00;CYXE 280000Z 13011KT 15SM FEW110 FEW280 25/18 A2966 RMK AC2CI0 CB TOP DIS SE ACC EMBD SLP046

CYXE;2008-07-28 01:00;CYXE 280100Z CCA 13010KT 15SM FEW110 FEW130 SCT280 24/18 A2965 RMK AC1AC1CI0 TCU ACC EMBD SLP043

CYXE;2008-07-28 02:00;CYXE 280200Z 12010KT 15SM FEW040TCU SCT050CB BKN130 OVC280 22/18 A2966 RMK TCU2CB2ACC2CI1 CB W+E SLP044

CYXE;2008-07-28 03:00;CYXE 280300Z 12005KT 15SM FEW040TCU SCT050CB BKN130 OVC280 21/18 A2964 RMK TCU2CB2ACC2CI1 CB SW SLP039

CYXE;2008-07-28 03:29;CYXE 280329Z 13007KT 15SM TS BKN050CB BKN130 OVC280 20/ RMK CB5ACC2CI1 FQT LTGICCG NW

CYXE;2008-07-28 03:44;CYXE 280344Z CCA 12006KT 15SM TS BKN050CB OVC130 20/ RMK CB6ACC2 FQT LTGCCICCG NW PUBLIC RPT FC W YXE AIRPORT

CYXE;2008-07-28 04:00;CYXE 280400Z 14007KT 15SM TS BKN055CB BKN071 OVC280 20/18 A2962 RMK CB6ACC2CI1 FQT LTGCCICCG NW-N SLP033

CYXE;2008-07-28 05:00;CYXE 280500Z 03004KT 15SM TS BKN018 OVC038CB 20/17 A2966 RMK SC5CB3 FQT LTGCCICCG NW-N + S-W SLP046

CYXE;2008-07-28 05:01;CYXE 280501Z 01005KT 15SM -TSRA BKN018 OVC038CB 19/ RMK SC5CB3 FQT LTGICCCCG ALQDS

CYXE;2008-07-28 05:03;CYXE 280503Z 27016G28KT 6SM +TSRA BKN020 OVC038CB 19/ RMK SC5CB3 FQT LTGICCCCG ALQDS WIND SHFT AT 0503Z

CYXE;2008-07-28 06:00;CYXE 280600Z 28013G22KT 8SM -TSRA OVC019CB 15/14 A2965 RERA RMK CB8 SLP047

CYXE;2008-07-28 06:07;CYXE 280607Z 22008G15KT 10SM -TSRA OVC023CB 15/ RMK CB8 WSHFT 0602 FQT LTGICCCCG

CYXE;2008-07-28 06:51;CYXE 280651Z 36006KT 12SM -SHRA BKN019 BKN120 15/ RMK SC5AC2 RETS CB E AND NW

CYXE;2008-07-28 07:00;CYXE 280700Z 35006KT 12SM -SHRA BKN019 BKN120 15/14 A2964 RMK SC5AC2 RETS CB E AND NW SLP044

CYXE;2008-07-28 07:18;CYXE 280718Z 05002KT 15SM SCT026 BKN120 14/ RMK SC3AC2

CYXE;2008-07-28 08:00;CYXE 280800Z 00000KT 15SM FEW026 14/14 A2967 RMK SC2 SLP052

CYXE;2008-07-28 09:00;CYXE 280900Z 15004KT 15SM FEW025 13/13 A2966 RMK SC2 SLP046

CYXE;2008-07-28 10:00;CYXE 281000Z 21006KT 15SM FEW120 13/13 A2965 RMK AC1 SLP045

CYXE;2008-07-28 11:00;CYXE 281100Z 23006KT 15SM FEW160 12/12 A2965 RMK AC1 SLP044

CYXE;2008-07-28 12:00;CYXE 281200Z 26004KT 10SM FEW012 FEW160 12/12 A2968 RMK SC1AC1 BR SLP053

CYXE;2008-07-28 13:00;CYXE 281300Z 27004KT 15SM FEW012 FEW200 13/13 A2967 RMK SC1CI1 SLP052

CYXE;2008-07-28 14:00;CYXE 281400Z 25004KT 15SM FEW110 FEW240 16/15 A2968 RMK AC1CI0 SLP053

CYXE;2008-07-28 15:00;CYXE 281500Z 28005KT 15SM SCT110 19/17 A2968 RMK AC3 SLP054

CYXE;2008-07-28 16:00;CYXE 281600Z 28005KT 15SM SCT110 20/16 A2968 RMK AC4 SLP055

CYXE;2008-07-28 17:00;CYXE 281700Z 25006KT 15SM FEW060 BKN110 20/17 A2969 RMK SC2AC4 SLP058

CYXE;2008-07-28 18:00;CYXE 281800Z 27006KT 15SM FEW015 SCT035 BKN110 20/16 A2969 RMK CU1SC3AC4 SLP059

CYXE;2008-07-28 19:00;CYXE 281900Z 23008KT 15SM FEW020 BKN110 22/18 A2969 RMK CU1AC4 SLP059

CYXE;2008-07-28 20:00;CYXE 282000Z 25010KT 15SM BKN020TCU BKN110 22/17 A2969 RMK TCU5AC2 CB ASOCTD SLP058

CYXE;2008-07-28 20:30;CYXE 282030Z 25019G25KT 12SM -SHRA BKN020TCU BKN110 21/ RMK TCU5AC2 CB ASOCTD

CYXE;2008-07-28 21:00;CYXE 282100Z 30021KT 15SM SCT020TCU BKN040CB BKN110 22/16 A2969 RMK TCU3CB2AC2 SLP059

CYXE;2008-07-28 22:00;CYXE 282200Z 32014G20KT 15SM FEW025TCU SCT040CB BKN100 OVC280 21/14 A2971 RMK TCU2CB2AC3CI1 CB N-E SLP066

CYXE;2008-07-28 23:00;CYXE 282300Z 28010KT 15SM BKN085 BKN280 20/13 A2972 RMK AC6CI2 CB EMBD SE SH W SLP067

CYXE;2008-07-29 00:00;CYXE 290000Z 28012KT 15SM BKN085 BKN280 20/13 A2972 RMK AC5CI2 SLP072

CYXE;2008-07-29 01:00;CYXE 290100Z 25009KT 15SM FEW025 BKN085 OVC280 19/15 A2973 RMK CU1AC4CI2 SLP075

CYXE;2008-07-29 02:00;CYXE 290200Z 30013KT 15SM VCSH SCT040TCU BKN085 BKN280 18/16 A2973 RMK TCU3AC2CI1 SLP074

CYXE;2008-07-29 03:00;CYXE 290300Z 29007KT 15SM FEW100 SCT280 16/14 A2974 RMK AC2CI1 TCU ASOCTD SLP076

CYXE;2008-07-29 04:00;CYXE 290400Z 27008KT 15SM FEW100 FEW280 14/14 A2975 RMK AC1CI1 SLP079

CYXE;2008-07-29 05:00;CYXE 290500Z 26008KT 15SM FEW250 14/13 A2975 RMK CI1 SLP079

CYXE;2008-07-29 06:00;CYXE 290600Z 28007KT 15SM SKC 14/13 A2975 RMK SLP081

CYXE;2008-07-29 07:00;CYXE 290700Z 28007KT 15SM SKC 14/13 A2977 RMK SLP088

CYXE;2008-07-29 08:00;CYXE 290800Z 26007KT 15SM SKC 13/12 A2977 RMK SLP087

CYXE;2008-07-29 09:00;CYXE 290900Z 29009KT 15SM SKC 14/13 A2978 RMK SLP089

CYXE;2008-07-29 10:00;CYXE 291000Z 29008KT 15SM FEW120 13/13 A2979 RMK AC1 SLP093

CYXE;2008-07-29 11:00;CYXE 291100Z 31011KT 15SM FEW120 13/13 A2979 RMK AC1 SLP094

CYXE;2008-07-29 12:00;CYXE 291200Z 30006KT 15SM FEW020 FEW120 FEW240 13/13 A2980 RMK CF0AC1CI0 SLP098

CYXE;2008-07-29 13:00;CYXE 291300Z 30009KT 15SM FEW010 FEW120 FEW240 14/14 A2981 RMK CF1AC1CI0 SLP102

CYXE;2008-07-29 13:14;CYXE 291314Z 30009KT 15SM BKN006 BKN120 BKN240 14/ RMK SF1AC1CI0

CYXE;2008-07-29 14:00;CYXE 291400Z 32008KT 15SM FEW017 SCT300 16/15 A2982 RMK SC2CI0 SLP104

CYXE;2008-07-29 15:00;CYXE 291500Z 30007KT 15SM FEW017 SCT300 18/16 A2983 RMK CF2CI0 SLP108

CYXE;2008-07-29 16:00;CYXE 291600Z 29006KT 15SM BKN016 BKN300 19/16 A2984 RMK CF6CI1 SLP110

CYXE;2008-07-29 17:00;CYXE 291700Z 35005KT 15SM BKN020 19/15 A2985 RMK SC7 SLP113

CYXE;2008-07-29 18:00;CYXE 291800Z 28007KT 15SM BKN025 20/16 A2984 RMK SC6 SLP112

CYXE;2008-07-29 19:00;CYXE 291900Z 33010KT 15SM SCT032 22/15 A2984 RMK SC4 SLP110

CYXE;2008-07-29 20:00;CYXE 292000Z 35008KT 15SM BKN034 23/15 A2984 RMK SC5 CVCTV CLD EMBD SLP110

CYXE;2008-07-29 21:00;CYXE 292100Z 32005KT 15SM BKN032 BKN300 24/16 A2983 RMK CU5CI0 SLP106

CYXE;2008-07-29 22:00;CYXE 292200Z 02003KT 15SM SCT032 SCT300 23/15 A2982 RMK CU3CI0 SLP104

CYXE;2008-07-29 23:00;CYXE 292300Z 34003KT 15SM FEW032 SCT300 23/15 A2982 RMK CU2CI0 SLP102

CYXE;2008-07-30 00:00;CYXE 300000Z 27004KT 15SM FEW040 FEW120 24/14 A2981 RMK CU1AC1 SLP097

CYXE;2008-07-30 01:00;CYXE 300100Z 05003KT 15SM FEW035 FEW120 FEW300 23/15 A2980 RMK CU1AC1CI0 SLP095

CYXE;2008-07-30 02:00;CYXE 300200Z 09005KT 15SM FEW120 21/15 A2979 RMK AC1 SLP092

CYXE;2008-07-30 03:00;CYXE 300300Z 09006KT 15SM FEW120 FEW300 18/15 A2978 RMK AC1CI1 SLP091

CYXE;2008-07-30 04:00;CYXE 300400Z 09008KT 15SM FEW120 17/14 A2977 RMK AC1 SLP088

CYXE;2008-07-30 05:00;CYXE 300500Z 12006KT 15SM SKC 17/14 A2977 RMK SLP087

CYXE;2008-07-30 06:00;CYXE 300600Z 13008KT 15SM SKC 18/15 A2977 RMK SLP084

CYXE;2008-07-30 07:00;CYXE 300700Z 14009KT 15SM SKC 17/15 A2977 RMK SLP085

CYXE;2008-07-30 08:00;CYXE 300800Z 14008KT 15SM SKC 17/15 A2977 RMK SLP084

CYXE;2008-07-30 09:00;CYXE 300900Z 14010KT 15SM SKC 17/15 A2974 RMK SLP072

CYXE;2008-07-30 10:00;CYXE 301000Z 13011KT 15SM FEW240 16/15 A2972 RMK CI0 SLP066

CYXE;2008-07-30 11:00;CYXE 301100Z 13011KT 15SM SCT120 BKN260 16/15 A2969 RMK AC3CI0 SLP057

CYXE;2008-07-30 12:00;CYXE 301200Z 12012KT 15SM BKN120 BKN260 16/15 A2968 RMK AC5CI0 SLP052

CYXE;2008-07-30 13:00;CYXE 301300Z 16010KT 15SM BKN120 BKN260 17/15 A2967 RMK AC5CI0 SLP049

CYXE;2008-07-30 14:00;CYXE 301400Z 15008KT 15SM FEW120 BKN280 18/15 A2966 RMK AC2CI0 SLP045

CYXE;2008-07-30 15:00;CYXE 301500Z 17011KT 15SM SCT120 BKN280 20/15 A2965 RMK AC4CI0 SLP042

CYXE;2008-07-30 16:00;CYXE 301600Z 19011KT 15SM BKN120 BKN280 20/14 A2964 RMK AC5CI0 SLP040

CYXE;2008-07-30 17:00;CYXE 301700Z 19007KT 15SM FEW120 BKN280 23/15 A2963 RMK AC2CI2 SLP037

CYXE;2008-07-30 18:00;CYXE 301800Z 23011KT 15SM FEW120 BKN330 25/14 A2962 RMK AC1CI1 SLP030

CYXE;2008-07-30 19:00;CYXE 301900Z 22016KT 15SM BKN120 BKN330 25/10 A2962 RMK ACC5CI1 SLP030

CYXE;2008-07-30 20:00;CYXE 302000Z 23013KT 15SM BKN120 BKN330 25/11 A2961 RMK ACC5CI1 SLP026

CYXE;2008-07-30 21:00;CYXE 302100Z 20009G18KT 15SM FEW080 BKN130 BKN330 25/11 A2959 RMK CU2ACC3CI1 SLP021

CYXE;2008-07-30 22:00;CYXE 302200Z 23010KT 15SM SCT080 SCT130 BKN330 27/12 A2956 RMK CU3ACC1CI0 SLP012

CYXE;2008-07-30 23:00;CYXE 302300Z 25014G21KT 15SM SCT080 BKN330 25/10 A2956 RMK CU3CI2 SLP012

CYXE;2008-07-31 00:00;CYXE 310000Z 28020G32KT 15SM FEW100 SCT300 21/14 A2961 RMK AC2CI1 SLP031

CYXE;2008-07-31 01:00;CYXE 310100Z 26016KT 15SM FEW050CB FEW100 FEW300 20/11 A2964 RMK CB1AC1CI1 CB N-E DIS S SLP040

CYXE;2008-07-31 02:00;CYXE 310200Z 27017KT 15SM FEW100 FEW300 18/11 A2968 RMK AC1CI1 CB EMBD NW-E SSW SLP051

CYXE;2008-07-31 03:00;CYXE 310300Z 24009KT 15SM FEW040CB FEW090 SCT300 15/12 A2969 RMK CB1AC1CI1 CB SW E SLP060

CYXE;2008-07-31 04:00;CYXE 310400Z 26011KT 15SM FEW090 SCT300 15/11 A2971 RMK AC2CI2 TCU EMBD SLP064

CYXE;2008-07-31 05:00;CYXE 310500Z 26013KT 15SM FEW090 SCT300 15/11 A2972 RMK AC2CI1 SLP068

CYXE;2008-07-31 06:00;CYXE 310600Z 27007KT 15SM FEW090 SCT300 13/10 A2972 RMK AC1CI1 SLP067

CYXE;2008-07-31 07:00;CYXE 310700Z 26009KT 15SM SCT300 13/11 A2973 RMK CI1 SLP072

CYXE;2008-07-31 08:00;CYXE 310800Z 25008KT 15SM FEW035 SCT070 BKN300 12/10 A2975 RMK SC2AC2CI0 SLP076

CYXE;2008-07-31 09:00;CYXE 310900Z 25010KT 15SM SCT044 BKN070 12/10 A2976 RMK SC3AC2 SLP082

CYXE;2008-07-31 10:00;CYXE 311000Z 25008KT 15SM FEW044 BKN061 12/10 A2976 RMK SC2SC3 SLP082

CYXE;2008-07-31 11:00;CYXE 311100Z 26006KT 15SM FEW044 FEW080 10/09 A2977 RMK SC1AC1 SLP083

CYXE;2008-07-31 12:00;CYXE 311200Z 24007KT 15SM FEW080 FEW260 09/09 A2977 RMK AC1CI0 OBS TAKEN +08 SLP089

CYXE;2008-07-31 13:00;CYXE 311300Z 23010KT 15SM FEW080 FEW260 11/09 A2978 RMK ACC1CI1 SLP091

CYXE;2008-07-31 14:00;CYXE 311400Z 26013KT 15SM FEW080 13/09 A2979 RMK AC1 SLP096

CYXE;2008-07-31 15:00;CYXE 311500Z 27010KT 15SM FEW080 16/08 A2981 RMK AC2 SLP101

CYXE;2008-07-31 16:00;CYXE 311600Z 25009G15KT 15SM FEW080 FEW270 17/08 A2981 RMK AC2CI1 SLP103

CYXE;2008-07-31 17:00;CYXE 311700Z 26017G24KT 15SM FEW270 19/06 A2981 RMK CI1 SLP102

CYXE;2008-07-31 18:00;CYXE 311800Z 27020G29KT 15SM FEW060 FEW270 21/06 A2980 RMK CU1CI1 SLP096

CYXE;2008-07-31 19:00;CYXE 311900Z 28021G29KT 15SM FEW065 FEW270 21/05 A2979 RMK CU1CI1 SLP095

CYXE;2008-07-31 20:00;CYXE 312000Z 27018G28KT 15SM FEW065 FEW270 22/07 A2979 RMK CU2CI1 SLP094

CYXE;2008-07-31 21:00;CYXE 312100Z 25020G28KT 15SM FEW074 22/07 A2979 RMK CU2 SLP092

CYXE;2008-07-31 22:00;CYXE 312200Z 28017G24KT 15SM FEW060 FEW270 23/07 A2978 RMK CU2CI0 SLP090

CYXE;2008-07-31 23:00;CYXE 312300Z 28015G20KT 15SM FEW060 FEW300 22/06 A2978 RMK CU2CI0 SLP089

CYXE;2008-08-01 01:00;CYXE 010100Z 29010KT 15SM FEW060 SCT300 21/06 A2977 RMK CU1CI1 SLP088

CYXE;2008-08-01 02:00;CYXE 010200Z 28006KT 15SM BKN300 17/09 A2977 RMK CI2 SLP088

CYXE;2008-08-01 03:00;CYXE 010300Z 26004KT 15SM BKN300 16/09 A2977 RMK CI2 SLP088

CYXE;2008-08-01 04:00;CYXE 010400Z 22005KT 15SM SCT300 16/07 A2978 RMK CI1 SLP091

CYXE;2008-08-01 05:00;CYXE 010500Z 19005KT 15SM FEW300 14/08 A2978 RMK CI0 SLP090

CYXE;2008-08-01 06:00;CYXE 010600Z 17006KT 15SM SKC 13/08 A2978 RMK SLP091

CYXE;2008-08-01 07:00;CYXE 010700Z 17007KT 15SM SKC 12/07 A2978 RMK SLP092

CYXE;2008-08-01 08:00;CYXE 010800Z 17006KT 15SM FEW300 12/07 A2978 RMK CI0 SLP092

CYXE;2008-08-01 09:00;CYXE 010900Z 15007KT 15SM FEW300 11/07 A2979 RMK CI0 SLP093

CYXE;2008-08-01 10:00;CYXE 011000Z 15002KT 15SM BKN300 11/07 A2979 RMK CI1 SLP094

CYXE;2008-08-01 11:00;CYXE 011100Z 09003KT 15SM FEW300 10/06 A2978 RMK CI1 SLP091

CYXE;2008-08-01 12:00;CYXE 011200Z 11003KT 15SM FEW300 10/06 A2977 RMK CI0 SLP089

CYXE;2008-08-01 13:00;CYXE 011300Z 11002KT 15SM FEW300 14/10 A2976 RMK CI0 SLP085

CYXE;2008-08-01 14:00;CYXE 011400Z 14005KT 15SM FEW300 18/10 A2975 RMK CI1 SLP082

CYXE;2008-08-01 15:00;CYXE 011500Z 13007KT 15SM FEW300 21/11 A2974 RMK CI0 SLP074

CYXE;2008-08-01 16:00;CYXE 011600Z 13008KT 15SM FEW300 23/12 A2972 RMK CI0 SLP070

CYXE;2008-08-01 17:00;CYXE 011700Z 12012KT 15SM FEW300 25/13 A2970 RMK CI0 SLP062

CYXE;2008-08-01 18:00;CYXE 011800Z 12015KT 15SM SKC 27/12 A2968 RMK SLP054

CYXE;2008-08-01 19:00;CYXE 011900Z 13017KT 15SM FEW300 28/12 A2966 RMK CI1 SLP048

CYXE;2008-08-01 20:00;CYXE 012000Z 12013G19KT 15SM FEW110 FEW300 29/14 A2963 RMK ACC1CI1 SLP037

CYXE;2008-08-01 21:00;CYXE 012100Z 20006KT 15SM FEW100 FEW300 30/11 A2960 RMK AC1CI0 SLP026

CYXE;2008-08-01 22:00;CYXE 012200Z 17009KT 15SM FEW100 FEW300 31/09 A2959 RMK AC1CI1 SLP020

CYXE;2008-08-01 23:00;CYXE 012300Z 13013KT 15SM FEW110 BKN300 30/14 A2957 RMK AC2CI1 SLP015

CYXE;2008-08-02 00:00;CYXE 020000Z 13012KT 15SM FEW110 BKN300 29/14 A2955 RMK AC2CI1 SLP008

CYXE;2008-08-02 01:00;CYXE 020100Z 14006KT 15SM SCT110 27/13 A2954 RMK AC3 SLP006

CYXE;2008-08-02 02:00;CYXE 020200Z 29006KT 15SM FEW100 23/18 A2956 RMK AC2 SLP013

CYXE;2008-08-02 03:00;CYXE 020300Z 27007KT 15SM FEW100 19/15 A2958 RMK AC1 SLP018

CYXE;2008-08-02 04:00;CYXE 020400Z 25005KT 15SM FEW100 18/13 A2959 RMK AC1 SLP022

CYXE;2008-08-02 05:00;CYXE 020500Z 22010KT 15SM FEW100 18/12 A2959 RMK AC1 SLP023

CYXE;2008-08-02 06:00;CYXE 020600Z 29008KT 15SM FEW100 17/11 A2962 RMK AC2 SLP031

CYXE;2008-08-02 07:00;CYXE 020700Z 30009KT 15SM SKC 16/11 A2964 RMK SLP037

CYXE;2008-08-02 08:00;CYXE 020800Z 29007KT 15SM SKC 14/11 A2966 RMK SLP044

CYXE;2008-08-02 09:00;CYXE 020900Z 27006KT 15SM SKC 12/11 A2968 RMK SLP050

CYXE;2008-08-02 10:00;CYXE 021000Z 27007KT 15SM FEW100 12/10 A2970 RMK AC1 SLP057

CYXE;2008-08-02 11:00;CYXE 021100Z 28008KT 15SM FEW100 11/10 A2970 RMK AC2 SLP059

CYXE;2008-08-02 12:00;CYXE 021200Z 29009KT 15SM SCT080 11/10 A2970 RMK AC2 SLP061

CYXE;2008-08-02 13:00;CYXE 021300Z 28005KT 15SM FEW080 12/10 A2972 RMK AC2 SLP066

CYXE;2008-08-02 14:00;CYXE 021400Z 29007KT 15SM FEW077 SCT110 14/11 A2974 RMK ACC1AC2 SLP074

CYXE;2008-08-02 15:00;CYXE 021500Z 30010KT 15SM BKN082 BKN250 16/10 A2977 RMK ACC5CI1 SLP084

CYXE;2008-08-02 16:00;CYXE 021600Z 31009G15KT 15SM BKN090 17/10 A2977 RMK ACC6 SLP085

CYXE;2008-08-02 17:00;CYXE 021700Z 28009KT 15SM SCT088 18/10 A2977 RMK AC3 SLP084

CYXE;2008-08-02 18:00;CYXE 021800Z 28011G17KT 15SM FEW085 FEW220 20/10 A2977 RMK AC1CI1 SLP083

CYXE;2008-08-02 19:00;CYXE 021900Z 26017KT 15SM FEW085 FEW220 22/10 A2976 RMK AC1CI1 SLP081

CYXE;2008-08-02 20:00;CYXE 022000Z 26012G19KT 15SM FEW040 SCT220 22/10 A2975 RMK CU2CI0 SLP077

CYXE;2008-08-02 21:00;CYXE 022100Z 26016G21KT 15SM SCT060 23/10 A2975 RMK CU3 SLP079

CYXE;2008-08-02 22:00;CYXE 022200Z 28019KT 15SM BKN060 21/09 A2975 RMK CU5 SLP079

CYXE;2008-08-02 23:00;CYXE 022300Z 27017KT 15SM BKN060 22/08 A2974 RMK CU6 SLP078

CYXE;2008-08-03 00:00;CYXE 030000Z 27013G19KT 15SM BKN072 22/09 A2974 RMK CU5 SLP078

CYXE;2008-08-03 01:00;CYXE 030100Z 29013KT 15SM FEW069 22/09 A2975 RMK CU2 SLP079

CYXE;2008-08-03 02:00;CYXE 030200Z 28011KT 15SM FEW070 20/09 A2975 RMK CU1 SLP081

CYXE;2008-08-03 03:00;CYXE 030300Z 27007KT 15SM FEW060 16/09 A2977 RMK CU1 SLP086

CYXE;2008-08-03 04:00;CYXE 030400Z 25008KT 15SM FEW060 13/10 A2977 RMK CU1 SLP088

CYXE;2008-08-03 05:00;CYXE 030500Z 23007KT 15SM SKC 12/10 A2980 RMK SLP098

CYXE;2008-08-03 06:00;CYXE 030600Z 28008KT 15SM SKC 13/10 A2981 RMK SLP101

CYXE;2008-08-03 07:00;CYXE 030700Z 27008KT 15SM SKC 10/09 A2981 RMK SLP102

CYXE;2008-08-03 08:00;CYXE 030800Z 24007KT 15SM SKC 09/09 A2982 RMK SLP105

CYXE;2008-08-03 09:00;CYXE 030900Z 24007KT 15SM SKC 09/09 A2982 RMK SLP105

CYXE;2008-08-03 10:00;CYXE 031000Z 25007KT 15SM SKC 09/09 A2980 RMK SLP097

CYXE;2008-08-03 11:00;CYXE 031100Z 26007KT 15SM FEW100 09/08 A2980 RMK AC1 SLP097

CYXE;2008-08-03 12:00;CYXE 031200Z 25007KT 15SM FEW100 09/09 A2981 RMK AC1 SLP101

CYXE;2008-08-03 13:00;CYXE 031300Z 24008KT 15SM FEW100 10/10 A2982 RMK AC1 SLP106

CYXE;2008-08-03 14:00;CYXE 031400Z 25011G16KT 15SM FEW110 FEW250 13/11 A2983 RMK AC1CI1 SLP108

CYXE;2008-08-03 15:00;CYXE 031500Z 27015KT 15SM FEW110 FEW250 15/10 A2984 RMK AC1CI1 SLP111

CYXE;2008-08-03 16:00;CYXE 031600Z 29014KT 15SM FEW028 FEW110 FEW250 18/11 A2983 RMK CU1AC1CI1 SLP109

CYXE;2008-08-03 17:00;CYXE 031700Z 29018G24KT 15SM SCT041 19/10 A2982 RMK CU3 SLP107

CYXE;2008-08-03 18:00;CYXE 031800Z 28013G22KT 15SM BKN045 BKN250 19/10 A2982 RMK CU6CI1 SLP107

CYXE;2008-08-03 19:00;CYXE 031900Z 28017G25KT 15SM BKN049 BKN063 20/10 A2981 RMK SC6SC1 SLP101

CYXE;2008-08-03 20:00;CYXE 032000Z 28020G26KT 15SM BKN053 20/10 A2980 RMK SC6 SLP100

CYXE;2008-08-03 21:00;CYXE 032100Z 28017G22KT 15SM BKN060 21/11 A2981 RMK SC6 SLP101

CYXE;2008-08-03 22:00;CYXE 032200Z 31013G19KT 15SM SCT051 BKN090 21/12 A2981 RMK SC4AC2 SLP103

CYXE;2008-08-03 23:00;CYXE 032300Z 30016G22KT 15SM SCT049 22/12 A2981 RMK CU3 SLP103

CYXE;2008-08-04 00:00;CYXE 040000Z 31015KT 15SM SCT049 21/12 A2982 RMK SC3 SLP106

CYXE;2008-08-04 01:00;CYXE 040100Z 29009G16KT 15SM FEW045 FEW090 20/12 A2983 RMK CU1AC1 SLP109

CYXE;2008-08-04 02:00;CYXE 040200Z 29007KT 15SM FEW055 SCT090 18/12 A2984 RMK SC2AC2 SLP114

CYXE;2008-08-04 03:00;CYXE 040300Z 30007KT 15SM FEW053 FEW080 15/11 A2985 RMK SC1AC2 SLP117

CYXE;2008-08-04 04:00;CYXE 040400Z 28007KT 15SM FEW080 FEW160 13/11 A2986 RMK AC1AC1 SLP120

CYXE;2008-08-04 05:00;CYXE 040500Z 27006KT 15SM FEW095 12/11 A2986 RMK AC1 SLP120

CYXE;2008-08-04 06:00;CYXE 040600Z 25007KT 15SM FEW095 11/10 A2987 RMK AC1 SLP124

CYXE;2008-08-04 07:00;CYXE 040700Z 26007KT 15SM FEW065 12/11 A2987 RMK AC2 SLP123

CYXE;2008-08-04 08:00;CYXE 040800Z 25006KT 15SM BKN080 12/11 A2988 RMK AC6 SLP127

CYXE;2008-08-04 09:00;CYXE 040900Z 26007KT 15SM SCT087 10/10 A2988 RMK AC4 SLP126

CYXE;2008-08-04 10:00;CYXE 041000Z 26007KT 15SM SCT087 10/10 A2988 RMK AC3 SLP127

CYXE;2008-08-04 11:00;CYXE 041100Z 26006KT 15SM BKN097 11/11 A2989 RMK AC5 SLP129

CYXE;2008-08-04 12:00;CYXE 041200Z 26006KT 15SM BKN100 BKN250 11/11 A2991 RMK AC5CI1 SLP135

CYXE;2008-08-04 13:00;CYXE 041300Z 27006KT 15SM FEW100 SCT250 12/12 A2992 RMK AC2CI1 SLP138

CYXE;2008-08-04 14:00;CYXE 041400Z 30007KT 15SM SCT092 BKN250 14/13 A2992 RMK AC3CI0 SLP140

CYXE;2008-08-04 15:00;CYXE 041500Z 30008KT 15SM FEW020 BKN092 BKN250 16/14 A2994 RMK SC1AC4CI0 SLP146

CYXE;2008-08-04 16:00;CYXE 041600Z 32008KT 15SM FEW016 BKN083 BKN250 18/14 A2995 RMK CU2AC2CI1 SLP150

CYXE;2008-08-04 17:00;CYXE 041700Z 30008KT 15SM BKN025 BKN089 20/14 A2995 RMK CU5AC1 SLP151

CYXE;2008-08-04 18:00;CYXE 041800Z 34013KT 15SM BKN029 BKN280 20/13 A2996 RMK CU5CI0 SLP153

CYXE;2008-08-04 19:00;CYXE 041900Z 33011KT 15SM VCSH BKN033 BKN280 21/13 A2996 RMK CU5CI0 TCU EMBD SLP153

CYXE;2008-08-04 20:00;CYXE 042000Z 34013KT 15SM VCSH BKN036 BKN280 21/12 A2995 RMK CU5CI0 TCU EMBD SLP152

CYXE;2008-08-04 21:00;CYXE 042100Z 32008KT 15SM VCSH BKN047 BKN280 21/12 A2996 RMK CU5CI0 TCU EMBD SLP154

CYXE;2008-08-04 22:00;CYXE 042200Z 35010KT 15SM VCSH BKN055 BKN280 22/11 A2996 RMK CU5CI0 TCU EMBD SLP153

CYXE;2008-08-04 23:00;CYXE 042300Z 34009KT 15SM VCSH BKN055 BKN120 22/12 A2997 RMK CU5AC1 SLP156

CYXE;2008-08-05 00:00;CYXE 050000Z 33009KT 15SM SCT055 SCT120 BKN280 22/11 A2996 RMK CU3AC1CI0 SLP154

CYXE;2008-08-05 01:00;CYXE 050100Z 32006KT 15SM FEW055 FEW120 SCT280 21/11 A2997 RMK CU1AC1CI0 SLP156

CYXE;2008-08-05 02:00;CYXE 050200Z 30006KT 15SM FEW055 FEW120 18/12 A2998 RMK CU1AC1 SLP160

CYXE;2008-08-05 03:00;CYXE 050300Z 29005KT 15SM FEW120 FEW280 15/11 A2999 RMK AC2CI0 SLP165

CYXE;2008-08-05 04:00;CYXE 050400Z 29003KT 15SM FEW120 14/12 A3000 RMK AC1 SLP169

CYXE;2008-08-05 05:00;CYXE 050500Z 27004KT 15SM SKC 13/11 A3000 RMK SLP169

CYXE;2008-08-05 06:00;CYXE 050600Z 27005KT 15SM SKC 11/10 A3002 RMK SLP173

CYXE;2008-08-05 07:00;CYXE 050700Z 25006KT 15SM SKC 10/10 A3002 RMK SLP174

CYXE;2008-08-05 08:00;CYXE 050800Z 25006KT 15SM SKC 10/10 A3002 RMK SLP175

CYXE;2008-08-05 09:00;CYXE 050900Z 25005KT 15SM SKC 09/09 A3002 RMK SLP175

CYXE;2008-08-05 10:00;CYXE 051000Z 20004KT 15SM SKC 09/09 A3003 RMK SLP177

CYXE;2008-08-05 11:00;CYXE 051100Z 22005KT 15SM FEW080 SCT250 09/09 A3003 RMK AC2CI0 SLP179

CYXE;2008-08-05 12:00;CYXE 051200Z 23006KT 15SM SCT070 BKN250 09/09 A3004 RMK AC3CI0 SLP182

CYXE;2008-08-05 13:00;CYXE 051300Z 23005KT 15SM FEW070 SCT250 11/11 A3005 RMK AC2CI1 CONTRAILS SLP183

CYXE;2008-08-05 14:00;CYXE 051400Z 22004KT 15SM FEW072 SCT280 14/12 A3005 RMK AC2CI0 SLP183

CYXE;2008-08-05 15:00;CYXE 051500Z 24006KT 15SM FEW020 FEW080 FEW280 18/13 A3005 RMK CU1AC1CI0 SLP183

CYXE;2008-08-05 16:00;CYXE 051600Z 29006KT 15SM FEW020 SCT080 BKN280 20/13 A3005 RMK CU1AC2CI0 SLP184

CYXE;2008-08-05 17:00;CYXE 051700Z 30007KT 15SM FEW036 FEW080 SCT280 22/13 A3005 RMK CU1AC1CI0 SLP185

CYXE;2008-08-05 18:00;CYXE 051800Z 31010KT 15SM FEW040 FEW080 SCT280 24/13 A3004 RMK CU1AC1CI0 SLP180

CYXE;2008-08-05 19:00;CYXE 051900Z 32010KT 15SM FEW048TCU BKN140 24/12 A3005 RMK TCU2AC3 SLP182

CYXE;2008-08-05 20:00;CYXE 052000Z 30012KT 15SM FEW048TCU BKN140 25/13 A3004 RMK TCU2AC3 CB N SLP180

CYXE;2008-08-05 21:00;CYXE 052100Z 30007KT 15SM VCSH SCT050TCU BKN140 23/13 A3004 RMK TCU3AC3 CB EMBD N+S SLP182

CYXE;2008-08-05 21:47;CYXE 052147Z 27013G22KT 15SM -SHRA BKN057TCU BKN083 OVC140 20/ RMK TCU5AC2AC1

CYXE;2008-08-05 21:52;CYXE 052152Z 28009G20KT 10SM -TSRA FEW015 BKN052CB OVC090 RMK SF1CB5AC2

CYXE;2008-08-05 22:00;CYXE 052200Z 35009G15KT 15SM -TSRA FEW015 BKN052CB BKN083 19/15 A3006 RMK SF1CB5AC2 SLP186

CYXE;2008-08-05 22:13;CYXE 052213Z 35009KT 15SM TS FEW015 BKN052CB BKN083 19/ RMK SF1CB5AC2

CYXE;2008-08-05 22:15;CYXE 052215Z 35008KT 15SM FEW015 BKN052CB BKN083 19/ RMK SF1CB5AC2 RETS

CYXE;2008-08-05 22:32;CYXE 052232Z 35007KT 15SM -SHRA BKN052CB BKN083 20/ RMK CB6AC2

CYXE;2008-08-05 23:00;CYXE 052300Z 36008KT 15SM -SHRA FEW025 BKN060CB BKN087 20/16 A3007 RMK CU1CB4AC2 RETS SLP190

CYXE;2008-08-05 23:22;CYXE 052322Z 07005KT 15SM FEW025 BKN060TCU BKN220 21/ RMK CU1TCU6CI0 CB N-E

CYXE;2008-08-06 00:00;CYXE 060000Z 04005KT 15SM BKN060TCU BKN080 BKN220 22/15 A3007 RMK TCU5AC1CI0 CB NE SLP191

CYXE;2008-08-06 01:00;CYXE 060100Z 34005KT 15SM SCT060TCU BKN120 BKN220 21/15 A3007 RMK TCU3AC2CI1 CB SHWRS NW SLP191

CYXE;2008-08-06 02:00;CYXE 060200Z 36004KT 15SM FEW060 SCT120 BKN220 20/15 A3008 RMK SC2AC2CI0 SLP194

CYXE;2008-08-06 03:00;CYXE 060300Z 32005KT 15SM FEW060 FEW120 16/14 A3009 RMK SC0AC2 SLP197

CYXE;2008-08-06 04:00;CYXE 060400Z 29008KT 15SM FEW120 15/13 A3010 RMK AC1 SLP200

CYXE;2008-08-06 05:00;CYXE 060500Z 31006KT 15SM SKC 13/12 A3012 RMK OBS TAKEN +10 SLP205

CYXE;2008-08-06 06:00;CYXE 060600Z 32009KT 15SM SKC 12/12 A3012 RMK SLP207

CYXE;2008-08-06 07:00;CYXE 060700Z 29005KT 15SM SKC 11/11 A3014 RMK SLP212

CYXE;2008-08-06 08:00;CYXE 060800Z 27005KT 15SM SKC 10/10 A3015 RMK SLP215

CYXE;2008-08-06 09:00;CYXE 060900Z 27004KT 15SM SKC 09/09 A3016 RMK SLP222

CYXE;2008-08-06 10:00;CYXE 061000Z 27005KT 15SM SKC 09/09 A3017 RMK SLP226

CYXE;2008-08-06 11:00;CYXE 061100Z 27004KT 15SM SKC 09/09 A3019 RMK BR PATCHES SLP232

CYXE;2008-08-06 12:00;CYXE 061200Z 30003KT 15SM SKC 09/09 A3020 RMK BR PATCHES SLP237

CYXE;2008-08-06 13:00;CYXE 061300Z 32003KT 14SM SKC 11/11 A3022 RMK BR SLP242

CYXE;2008-08-06 14:00;CYXE 061400Z 32002KT 15SM SKC 14/13 A3022 RMK SLP244

CYXE;2008-08-06 15:00;CYXE 061500Z 03003KT 15SM SKC 17/14 A3023 RMK SLP244

CYXE;2008-08-06 16:00;CYXE 061600Z 31003KT 15SM SKC 20/14 A3023 RMK SLP245

CYXE;2008-08-06 17:00;CYXE 061700Z 32003KT 15SM FEW035 22/14 A3023 RMK CU1 SLP244

CYXE;2008-08-06 18:00;CYXE 061800Z 00000KT 15SM FEW040 23/12 A3022 RMK CU1 SLP242

CYXE;2008-08-06 19:00;CYXE 061900Z 27005KT 15SM FEW045 23/12 A3022 RMK CU1 SLP241

CYXE;2008-08-06 20:00;CYXE 062000Z 33006KT 15SM FEW063 25/11 A3021 RMK CU1 SLP239

CYXE;2008-08-06 21:00;CYXE 062100Z 34002KT 15SM FEW063 25/10 A3020 RMK CU1 SLP235

CYXE;2008-08-06 22:00;CYXE 062200Z 36002KT 15SM FEW060 25/10 A3019 RMK CU2 SLP231

CYXE;2008-08-06 23:00;CYXE 062300Z 00000KT 15SM FEW060 25/10 A3018 RMK CU1 SLP229

CYXE;2008-08-07 00:00;CYXE 070000Z 00000KT 15SM FEW060 25/10 A3017 RMK CU1 SLP226

CYXE;2008-08-07 01:00;CYXE 070100Z 09004KT 15SM FEW060 24/12 A3017 RMK CU1 SLP224

CYXE;2008-08-07 02:00;CYXE 070200Z 07004KT 15SM SKC 22/12 A3017 RMK SLP224

CYXE;2008-08-07 03:00;CYXE 070300Z 13004KT 15SM SKC 20/10 A3017 RMK SLP223

CYXE;2008-08-07 04:00;CYXE 070400Z 13004KT 15SM SKC 18/10 A3017 RMK SLP223

CYXE;2008-08-07 05:00;CYXE 070500Z 16004KT 15SM SKC 18/11 A3017 RMK SLP223

CYXE;2008-08-07 06:00;CYXE 070600Z 17003KT 15SM SKC 16/11 A3017 RMK SLP220

CYXE;2008-08-07 07:00;CYXE 070700Z 15005KT 15SM SKC 15/10 A3017 RMK SLP219

CYXE;2008-08-07 08:00;CYXE 070800Z 18006KT 15SM SKC 14/10 A3015 RMK SLP215

CYXE;2008-08-07 09:00;CYXE 070900Z 17003KT 15SM SKC 13/10 A3015 RMK SLP216

CYXE;2008-08-07 10:00;CYXE 071000Z 16003KT 15SM SKC 13/10 A3015 RMK SLP215

CYXE;2008-08-07 11:00;CYXE 071100Z 18004KT 15SM SCT270 12/10 A3015 RMK CI0 SLP215

CYXE;2008-08-07 12:00;CYXE 071200Z 16004KT 15SM SCT270 12/10 A3015 RMK CI0 SLP216

CYXE;2008-08-07 13:00;CYXE 071300Z 16005KT 15SM FEW270 14/12 A3014 RMK CI0 SLP213

CYXE;2008-08-07 14:00;CYXE 071400Z 18007KT 15SM FEW270 17/12 A3013 RMK CI0 SLP211

CYXE;2008-08-07 15:00;CYXE 071500Z 18008KT 15SM FEW270 20/13 A3012 RMK CI0 SLP205

CYXE;2008-08-07 16:00;CYXE 071600Z 16008KT 15SM SCT270 23/14 A3011 RMK CI1 SLP200

CYXE;2008-08-07 17:00;CYXE 071700Z 16010KT 15SM SCT300 25/12 A3009 RMK CI1 SLP195

CYXE;2008-08-07 18:00;CYXE 071800Z 21010KT 15SM FEW060 FEW120 BKN300 26/12 A3008 RMK CU1AC1CI1 SLP187

CYXE;2008-08-07 19:00;CYXE 071900Z 22010KT 15SM FEW060 FEW120 BKN300 27/10 A3005 RMK CU1AC1CI1 SLP179

CYXE;2008-08-07 20:00;CYXE 072000Z 19006KT 15SM FEW064 FEW120 BKN300 26/11 A3003 RMK CU1AC2CI2 SLP172

CYXE;2008-08-07 21:00;CYXE 072100Z 23008KT 15SM FEW065 FEW120 BKN300 29/12 A3001 RMK CU1AC2CI1 SLP165

CYXE;2008-08-07 22:00;CYXE 072200Z 16012KT 15SM FEW065 FEW140 BKN300 29/12 A2999 RMK CU1AC2CI1 SLP160

CYXE;2008-08-07 23:00;CYXE 072300Z 12013KT 15SM FEW060 FEW140 BKN300 28/14 A2998 RMK CU1AC2CI2 SLP155

CYXE;2008-08-08 00:00;CYXE 080000Z 14012KT 15SM SCT140 BKN300 26/13 A2997 RMK AC3CI3 SLP152

CYXE;2008-08-08 01:00;CYXE 080100Z 13008KT 15SM BKN140 BKN300 25/13 A2995 RMK AC5CI2 SLP148

CYXE;2008-08-08 02:00;CYXE 080200Z 13011KT 15SM BKN140 BKN300 24/12 A2994 RMK AC6CI1 SLP143

CYXE;2008-08-08 03:00;CYXE 080300Z 12011G16KT 15SM SCT140 BKN300 23/13 A2992 RMK AC3CI1 SLP135

CYXE;2008-08-08 04:00;CYXE 080400Z 13013KT 15SM FEW140 SCT300 22/13 A2993 RMK AC2CI1 SLP136

CYXE;2008-08-08 05:00;CYXE 080500Z 14011KT 15SM FEW140 FEW300 21/14 A2993 RMK AC1CI1 SLP136

CYXE;2008-08-08 06:00;CYXE 080600Z 14011G16KT 15SM FEW300 20/14 A2992 RMK CI0 SLP133

CYXE;2008-08-08 07:00;CYXE 080700Z 13009KT 15SM SKC 19/14 A2992 RMK SLP131

CYXE;2008-08-08 08:00;CYXE 080800Z 14008KT 15SM SKC 18/14 A2990 RMK SLP125

CYXE;2008-08-08 09:00;CYXE 080900Z 13008KT 15SM SKC 18/14 A2990 RMK SLP124

CYXE;2008-08-08 10:00;CYXE 081000Z 14007KT 15SM SKC 17/14 A2989 RMK SLP121

CYXE;2008-08-08 11:00;CYXE 081100Z 14006KT 15SM FEW100 BKN270 16/14 A2988 RMK AC2CI2 SLP119

CYXE;2008-08-08 12:00;CYXE 081200Z 11005KT 15SM FEW100 BKN270 16/14 A2989 RMK AC2CI2 SLP123

CYXE;2008-08-08 13:00;CYXE 081300Z 05006KT 15SM FEW100 16/14 A2992 RMK ACC2 SLP132

CYXE;2008-08-08 14:00;CYXE 081400Z 09008KT 15SM FEW100 FEW270 18/15 A2991 RMK ACC1CI0 SLP130

CYXE;2008-08-08 15:00;CYXE 081500Z 11008KT 15SM FEW300 20/15 A2990 RMK CI1 SLP127

CYXE;2008-08-08 16:00;CYXE 081600Z 11008KT 15SM FEW300 23/16 A2989 RMK CI0 SLP122

CYXE;2008-08-08 17:00;CYXE 081700Z 12009KT 15SM FEW300 26/17 A2988 RMK CI1 SLP120

CYXE;2008-08-08 18:00;CYXE 081800Z 12012KT 15SM FEW160 29/17 A2988 RMK AC1 SLP117

CYXE;2008-08-08 19:00;CYXE 081900Z 14015KT 15SM FEW160 30/17 A2987 RMK ACC1 SLP113

CYXE;2008-08-08 20:00;CYXE 082000Z 16012G18KT 15SM FEW300 31/16 A2986 RMK CI0 SLP110

CYXE;2008-08-08 21:00;CYXE 082100Z 13010G17KT 15SM FEW160 FEW330 32/18 A2986 RMK AC1CI0 SLP109

CYXE;2008-08-08 22:00;CYXE 082200Z 16009G16KT 15SM FEW160 BKN330 30/17 A2985 RMK AC2CI0 SLP107

CYXE;2008-08-08 23:00;CYXE 082300Z 14011KT 15SM FEW160 FEW330 31/16 A2985 RMK AC1CI1 SLP107

CYXE;2008-08-09 00:00;CYXE 090000Z 13010G15KT 15SM FEW160 SCT330 30/16 A2984 RMK AC1CI1 SLP103

CYXE;2008-08-09 01:00;CYXE 090100Z 13012KT 15SM FEW060 SCT120 BKN280 28/17 A2984 RMK SC2AC2CI2 SLP103

CYXE;2008-08-09 02:00;CYXE 090200Z 13012G17KT 15SM VCSH BKN098 BKN280 27/16 A2983 RMK AC6CI1 SLP102

CYXE;2008-08-09 02:46;CYXE 090246Z 13010G15KT 15SM TS VCSH BKN100 BKN280 27/ RMK AC6CI1 CB EMBD

CYXE;2008-08-09 02:49;CYXE 090249Z 14012KT 15SM -TSRA BKN100 BKN280 26/ RMK AC5CI2 CB EMBD

CYXE;2008-08-09 03:00;CYXE 090300Z 14010KT 15SM -TSRA BKN100 BKN280 26/16 A2985 RMK AC5CI2 CB EMBD SLP107

CYXE;2008-08-09 04:00;CYXE 090400Z 19009KT 15SM -TSRA BKN024CB BKN100 BKN280 20/18 A2991 RMK CB5AC2CI1 FQT LGTICCCCG SLP126

CYXE;2008-08-09 05:00;CYXE 090500Z 14002KT 15SM -TSRA BKN024 OVC100 19/18 A2992 RMK SC6AC2 CB EMBD LTGICCG SLP130

CYXE;2008-08-09 05:40;CYXE 090540Z 18020KT 15SM -SHRA OVC024 20/ RETS RMK SC8 CVCTV CLD EMBD

CYXE;2008-08-09 06:00;CYXE 090600Z 19017G22KT 10SM -SHRA OVC024 19/17 A2989 RETS RMK SC8 CB EMBD LTNG DIST NW SLP119

CYXE;2008-08-09 06:28;CYXE 090628Z 19018G24KT 12SM -SHRA BKN014 OVC090 19/ RMK SC5AC3 CB EMBD OCNL LTNG DIST SW-NW

CYXE;2008-08-09 07:00;CYXE 090700Z 17025G31KT 15SM -SHRA BKN014 OVC090 18/15 A2985 RMK SC5AC3 CB EMBD OCNL LTNG DIST NW SLP108

CYXE;2008-08-09 07:25;CYXE 090725Z 18019G25KT 15SM FEW014 BKN028 OVC090 21/ RMK SC2SC3AC3 OCNL LTNG DIST NW

CYXE;2008-08-09 08:00;CYXE 090800Z 18015G20KT 15SM BKN033 21/17 A2987 RMK SC6 OCNL LTNG DIST NW SLP113

CYXE;2008-08-09 09:00;CYXE 090900Z 16007KT 15SM FEW030CB BKN095 22/14 A2989 RMK CB2AC5 OCNL LTNG DIST SW-NW SLP118

CYXE;2008-08-09 10:00;CYXE 091000Z 06005KT 15SM BKN043 BKN095 21/17 A2990 RMK SC5AC2 OCNL LTNG DIST W SLP119

CYXE;2008-08-09 11:00;CYXE 091100Z 10014KT 15SM FEW014 BKN040 BKN090 20/18 A2990 RMK SC2SC2AC2 SLP122

CYXE;2008-08-09 12:00;CYXE 091200Z 14008KT 15SM FEW040 OVC100 20/18 A2993 RMK SC2AC6 SLP132

CYXE;2008-08-09 13:00;CYXE 091300Z 14010KT 15SM FEW040 BKN120 20/18 A2993 RMK SC2AC4 SLP132

CYXE;2008-08-09 14:00;CYXE 091400Z 14007KT 15SM FEW040 BKN120 20/18 A2994 RMK SC2AC6 SLP137

CYXE;2008-08-09 15:00;CYXE 091500Z 13003KT 15SM BKN120 21/18 A2997 RMK AC7 SLP147

CYXE;2008-08-09 15:54;CYXE 091554Z 15007KT 15SM -SHRA FEW030 SCT075 BKN120 21/ RMK SC2AC2AC2

CYXE;2008-08-09 16:00;CYXE 091600Z 16010KT 15SM -SHRA FEW012 SCT032 BKN095TCU 21/17 A2997 RMK SC2SC2TCU2 SLP148

CYXE;2008-08-09 16:12;CYXE 091612Z 15010KT 15SM FEW012 SCT035 BKN075TCU 21/ RMK SC2SC2TCU2

CYXE;2008-08-09 17:00;CYXE 091700Z 17014G19KT 15SM SCT095 BKN250 23/16 A2995 RMK AC2CI2 ACC ASOCTD SLP140

CYXE;2008-08-09 18:00;CYXE 091800Z 16015G22KT 15SM FEW095 BKN250 24/15 A2991 RMK AC2CI2 ACC ASOCTD SLP131

CYXE;2008-08-09 19:00;CYXE 091900Z 15018G25KT 15SM FEW100 BKN250 25/14 A2991 RMK ACC2CI2 SLP129

CYXE;2008-08-09 20:00;CYXE 092000Z CCA 15018G24KT 15SM FEW100 BKN250 25/12 A2992 RMK ACC2CI2 SLP132

CYXE;2008-08-09 21:00;CYXE 092100Z 16014G19KT 15SM FEW100 BKN250 25/12 A2993 RMK ACC2CI1 SLP134

CYXE;2008-08-09 22:00;CYXE 092200Z 15016KT 15SM FEW100 BKN250 25/13 A2992 RMK ACC2CI2 SLP130

CYXE;2008-08-09 23:00;CYXE 092300Z 15014KT 15SM FEW100 SCT250 25/13 A2990 RMK AC2CI1 CB TOPS DIST NW SLP126

CYXE;2008-08-10 00:00;CYXE 100000Z 14013KT 15SM FEW100 SCT250 25/14 A2990 RMK AC1CI1 SLP125

CYXE;2008-08-10 01:00;CYXE 100100Z 15015KT 15SM BKN120 24/13 A2989 RMK ACC4 SLP121

CYXE;2008-08-10 02:00;CYXE 100200Z 14009KT 15SM SCT120 BKN300 23/14 A2990 RMK AC4CI2 SLP126

CYXE;2008-08-10 03:00;CYXE 100300Z 13013KT 15SM FEW120 BKN300 22/14 A2989 RMK AC2CI1 SLP122

CYXE;2008-08-10 04:00;CYXE 100400Z 14015G21KT 15SM BKN300 21/14 A2988 RMK CI1 SLP119

CYXE;2008-08-10 05:00;CYXE 100500Z 14013G19KT 15SM SCT300 20/14 A2988 RMK CI1 LTNG DIST SW + NW SLP119

CYXE;2008-08-10 06:00;CYXE 100600Z 14012G17KT 15SM FEW040CB SCT300 19/14 A2986 RMK CB1CI1 CB + LTGICCG W SLP112

CYXE;2008-08-10 07:00;CYXE 100700Z 14011KT 15SM FEW040CB FEW110 18/15 A2985 RMK CB1AC1 CB + LTNG W SLP110

CYXE;2008-08-10 08:00;CYXE 100800Z 14008KT 15SM FEW040CB 18/15 A2983 RMK CB1 CB + LTNG NW SLP103

CYXE;2008-08-10 09:00;CYXE 100900Z CCA 14011KT 15SM FEW040CB FEW110 17/15 A2981 RMK CB1AC1 CB + LTGICCG NW + S SLP094

CYXE;2008-08-10 10:00;CYXE 101000Z 15008KT 15SM FEW040CB FEW110 SCT230 17/15 A2981 RMK CB1AC1CI0 LTGICCG NW + S SLP094

CYXE;2008-08-10 10:52;CYXE 101052Z 14007KT 15SM TS SCT040CB BKN093 OVC230 17/ RMK CB3AC2CI1 LTGCG SW

CYXE;2008-08-10 11:00;CYXE 101100Z 13007KT 15SM TS SCT040CB BKN093 OVC230 17/15 A2981 RMK CB3AC2CI1 LTGCG SW SLP097

CYXE;2008-08-10 11:23;CYXE 101123Z 13007KT 15SM FEW040CB BKN093 BKN230 17/ RMK CB2AC4CI1 LTNG NE + SE

CYXE;2008-08-10 12:00;CYXE 101200Z 20002KT 15SM FEW058CB BKN093 BKN230 17/15 A2983 RMK CB2AC4CI0 LTNG NE SLP102

CYXE;2008-08-10 13:00;CYXE 101300Z 13005KT 15SM FEW058 BKN093 BKN230 17/15 A2981 RMK SC2AC2CI1 SLP096

CYXE;2008-08-10 14:00;CYXE 101400Z 13007KT 15SM FEW100 BKN230 17/16 A2982 RMK AC2CI2 SLP100

CYXE;2008-08-10 15:00;CYXE 101500Z 15008KT 15SM FEW100 SCT250 20/17 A2983 RMK AC2CI1 SLP103

CYXE;2008-08-10 16:00;CYXE 101600Z 14011KT 15SM FEW100 SCT250 22/17 A2984 RMK AC2CI1 SLP105

CYXE;2008-08-10 17:00;CYXE 101700Z 19010KT 15SM FEW120 SCT300 26/19 A2981 RMK AC2CI1 SLP097

CYXE;2008-08-10 18:00;CYXE 101800Z 20009KT 15SM FEW120 SCT300 28/18 A2981 RMK AC1CI1 SLP093

CYXE;2008-08-10 19:00;CYXE 101900Z 21012G18KT 15SM FEW120 FEW330 29/16 A2980 RMK AC1CI1 SLP090

CYXE;2008-08-10 20:00;CYXE 102000Z 22010G16KT 15SM FEW048TCU SCT130 BKN330 27/15 A2981 RMK TCU1AC3CI1 SLP092

CYXE;2008-08-10 21:00;CYXE 102100Z 19007KT 15SM FEW052TCU SCT120 29/15 A2979 RMK TCU1AC2 SLP086

CYXE;2008-08-10 22:00;CYXE 102200Z 25010KT 15SM FEW090TCU FEW120 SCT300 30/09 A2978 RMK TCU1AC2CI1 SLP083

CYXE;2008-08-10 23:00;CYXE 102300Z 23008KT 15SM FEW080TCU FEW120 SCT300 30/10 A2977 RMK TCU1AC1CI2 SLP080

CYXE;2008-08-11 00:00;CYXE 110000Z 23003KT 15SM FEW120 SCT280 29/14 A2976 RMK AC1CI2 SLP077

CYXE;2008-08-11 01:00;CYXE 110100Z 22002KT 15SM FEW120 SCT280 30/13 A2975 RMK AC1CI2 SLP073

CYXE;2008-08-11 02:00;CYXE 110200Z 14002KT 15SM FEW120 BKN280 28/14 A2975 RMK AC1CI3 SLP075

CYXE;2008-08-11 03:00;CYXE 110300Z 19003KT 15SM FEW120 BKN280 25/17 A2976 RMK AC2CI2 SLP078

CYXE;2008-08-11 04:00;CYXE 110400Z 17007KT 15SM FEW120 SCT280 23/20 A2977 RMK AC2CI1 SLP081

CYXE;2008-08-11 05:00;CYXE 110500Z 19010KT 15SM SCT120 BKN280 23/18 A2977 RMK AC3CI0 OCSNL LTGCG DIST S SLP082

CYXE;2008-08-11 06:00;CYXE 110600Z 21007KT 15SM BKN120 21/16 A2977 RMK AC6 SLP078

CYXE;2008-08-11 07:00;CYXE 110700Z 23006KT 15SM FEW120 18/15 A2977 RMK AC2 SLP078

CYXE;2008-08-11 08:00;CYXE 110800Z 17003KT 15SM OVC120 17/12 A2976 RMK AC6 SLP076

CYXE;2008-08-11 09:00;CYXE 110900Z 21006KT 15SM OVC120 16/14 A2977 RMK AC8 SLP080

CYXE;2008-08-11 10:00;CYXE 111000Z 21006KT 15SM BKN096 OVC250 18/11 A2978 RMK AC5CI3 SLP085

CYXE;2008-08-11 11:00;CYXE 111100Z 23006KT 15SM BKN098 OVC250 17/12 A2977 RMK AC6CI2 SLP079

CYXE;2008-08-11 12:00;CYXE 111200Z 25006KT 15SM BKN110 OVC250 16/13 A2975 RMK AC5CI2 SLP075

CYXE;2008-08-11 13:00;CYXE 111300Z 21008KT 15SM BKN110 OVC250 16/13 A2975 RMK AC6CI2 SLP074

CYXE;2008-08-11 13:41;CYXE 111341Z 23007KT 15SM -SHRA BKN097 OVC250 16/ RMK AC6CI2 ACC ASOCTD

CYXE;2008-08-11 14:00;CYXE 111400Z 24008KT 15SM -SHRA FEW038 BKN082 OVC250 16/11 A2974 RMK SC2AC4CI2 ACC ASOCTD SLP072

CYXE;2008-08-11 15:00;CYXE 111500Z 24006KT 15SM -SHRA SCT021 BKN066 16/11 A2975 RMK SC4AC3 ACC ASOCTD SLP077

CYXE;2008-08-11 16:00;CYXE 111600Z 20005KT 15SM -SHRA FEW025 BKN076 17/11 A2976 RMK SC2AC4 ACC ASOCTD SLP080

CYXE;2008-08-11 16:28;CYXE 111628Z 21007KT 15SM FEW076 SCT150 BKN300 19/ RMK AC2AC2CI1

CYXE;2008-08-11 17:00;CYXE 111700Z 22007KT 15SM FEW083 SCT150 BKN300 21/10 A2974 RMK AC2AC1CI1 SLP074

CYXE;2008-08-11 18:00;CYXE 111800Z 21008KT 15SM SCT150 BKN300 23/10 A2974 RMK AC3CI0 SLP070

CYXE;2008-08-11 19:00;CYXE 111900Z 23008KT 15SM FEW150 SCT280 23/10 A2974 RMK AC2CI0 SLP070

CYXE;2008-08-11 20:00;CYXE 112000Z 22008KT 15SM FEW090 SCT280 23/09 A2973 RMK AC2CI1 TCU TOPS DIST W SLP067

CYXE;2008-08-11 21:00;CYXE 112100Z 23004KT 15SM FEW064 SCT280 24/08 A2972 RMK CU1CI2 TCU ASOCTD SLP066

CYXE;2008-08-11 22:00;CYXE 112200Z 24007KT 15SM FEW060 FEW330 24/09 A2971 RMK CU1CI1 SLP064

CYXE;2008-08-11 23:00;CYXE 112300Z 25006KT 15SM FEW054 BKN330 25/11 A2970 RMK CU2CI0 SLP060

CYXE;2008-08-12 00:00;CYXE 120000Z 30008KT 15SM SCT068 BKN330 22/12 A2970 RMK CU3CI1 SLP060

CYXE;2008-08-12 01:00;CYXE 120100Z 27006KT 15SM FEW065 SCT085 BKN330 22/11 A2969 RMK CU1AC3CI0 SLP059

CYXE;2008-08-12 02:00;CYXE 120200Z 24006KT 15SM FEW060 BKN120 BKN330 19/13 A2970 RMK CU2AC3CI1 SLP061

CYXE;2008-08-12 03:00;CYXE 120300Z 30012G17KT 15SM BKN120 BKN300 19/08 A2972 RMK AC5CI1 SLP070

CYXE;2008-08-12 04:00;CYXE 120400Z 29008KT 15SM BKN120 BKN300 17/08 A2974 RMK AC6CI1 SLP076

CYXE;2008-08-12 05:00;CYXE 120500Z 26008KT 15SM BKN120 BKN300 15/08 A2975 RMK AC5CI0 SLP080

CYXE;2008-08-12 06:00;CYXE 120600Z 32007KT 15SM -SHRA BKN070 BKN280 15/09 A2974 RMK ACC5CI0 EMBD CB + LTGCG NE SLP075

CYXE;2008-08-12 06:21;CYXE 120621Z 25009KT 15SM SCT070 BKN280 13/ RMK ACC3CI1 EMBD CB + LTGCG NE-E

CYXE;2008-08-12 07:00;CYXE 120700Z 24004KT 15SM SCT083 BKN280 12/10 A2974 RMK AC3CI0 LTNG NE SLP075

CYXE;2008-08-12 08:00;CYXE 120800Z 26008KT 15SM BKN099 13/10 A2975 RMK AC7 LTNG DIST N-NE SLP078

CYXE;2008-08-12 09:00;CYXE 120900Z 24007KT 15SM BKN085 13/10 A2975 RMK AC7 SLP079

CYXE;2008-08-12 10:00;CYXE 121000Z 24007KT 15SM BKN095 12/10 A2975 RMK AC6 SLP079

CYXE;2008-08-12 11:00;CYXE 121100Z 25007KT 15SM FEW073 BKN250 10/10 A2975 RMK AC2CI1 SLP079

CYXE;2008-08-12 12:00;CYXE 121200Z 24006KT 15SM BKN020 BKN110 OVC250 10/10 A2974 RMK SC6AC1CI0 SLP079

CYXE;2008-08-12 13:00;CYXE 121300Z 22008KT 15SM BKN018 OVC093 12/11 A2973 RMK SC6AC2 SLP075

CYXE;2008-08-12 14:00;CYXE 121400Z CCA 25009KT 15SM BKN016 OVC059 14/12 A2973 RMK SC6SC2 SLP076

CYXE;2008-08-12 15:00;CYXE 121500Z 25010KT 15SM BKN021 BKN055 15/12 A2974 RMK SC5SC2 SLP076

CYXE;2008-08-12 16:00;CYXE 121600Z 25009KT 15SM OVC018 15/12 A2973 RMK SC8 SLP073

CYXE;2008-08-12 17:00;CYXE 121700Z 25010KT 15SM BKN020 17/13 A2973 RMK SC7 SLP073

CYXE;2008-08-12 18:00;CYXE 121800Z 25011KT 15SM BKN022 BKN040 18/13 A2972 RMK CU6SC2 SLP071

CYXE;2008-08-12 19:00;CYXE 121900Z 24012G19KT 15SM BKN026TCU BKN160 18/13 A2970 RMK TCU6AC1 LTGCG W SLP065

CYXE;2008-08-12 19:14;CYXE 121914Z 30008G16KT 15SM -SHRA BKN026TCU BKN160 17/ RMK TCU6AC1 CB W

CYXE;2008-08-12 20:00;CYXE 122000Z 24014G20KT 15SM BKN032TCU BKN160 19/12 A2970 RMK TCU5AC2 CB W SLP063

CYXE;2008-08-12 21:00;CYXE 122100Z 24013G18KT 15SM SCT028TCU BKN120 17/13 A2969 RMK TCU3AC3 CB SW SLP062

CYXE;2008-08-12 22:00;CYXE 122200Z 25016KT 15SM SCT023 BKN072 BKN140 16/12 A2970 RMK SC3AC2AC2 SLP066

CYXE;2008-08-12 22:27;CYXE 122227Z 26011KT 15SM -RA SCT015 BKN074 15/ RMK SC4AC2

CYXE;2008-08-12 23:00;CYXE 122300Z 26006KT 15SM -RA FEW015 FEW055 BKN090 15/13 A2970 RMK SC1SC2AC4 SLP065

CYXE;2008-08-12 23:42;CYXE 122342Z 24006KT 15SM FEW015 BKN050 BKN090 15/ RMK SC1SC6AC1

CYXE;2008-08-13 00:00;CYXE 130000Z 24006KT 15SM FEW015 SCT050 BKN093 16/14 A2969 RMK SC1SC3AC3 SLP065

CYXE;2008-08-13 01:00;CYXE 130100Z 23008KT 15SM SCT050 BKN085 BKN220 16/13 A2969 RMK SC3AC2CI1 SLP063

CYXE;2008-08-13 02:00;CYXE 130200Z 23011KT 15SM SCT040 BKN080 BKN220 15/12 A2969 RMK SC3AC2CI0 SLP065

CYXE;2008-08-13 03:00;CYXE 130300Z 23007KT 15SM SCT040 BKN080 BKN220 12/12 A2969 RMK SC3AC2CI1 SLP065

CYXE;2008-08-13 04:00;CYXE 130400Z 22005KT 15SM BKN080 BKN220 12/12 A2970 RMK AC5CI2 SLP067

CYXE;2008-08-13 05:00;CYXE 130500Z 00000KT 15SM FEW040 BKN078 12/12 A2970 RMK SC2AC3 SLP067

CYXE;2008-08-13 05:54;CYXE 130554Z 25005KT 15SM FEW004 SCT085 10/ RMK SF1AC2

CYXE;2008-08-13 06:00;CYXE 130600Z 25005KT 15SM SCT002 BKN085 10/10 A2971 RMK SF3AC2 SLP069

CYXE;2008-08-13 06:09;CYXE 130609Z 25004KT 15SM BKN001 OVC070 11/ RMK FG2SF2AC3 VIS W-NW 1/2

CYXE;2008-08-13 06:18;CYXE 130618Z CCA 25004KT 15SM BKN001 OVC070 11/ RMK FG2SF2AC3 VIS 1/2 W-NW

CYXE;2008-08-13 06:22;CYXE 130622Z 27005KT 10SM FEW002 SCT070 10/ RMK SF1AC2 BR

CYXE;2008-08-13 07:00;CYXE 130700Z 28004KT 15SM SCT070 10/10 A2971 RMK AC4 SLP069

CYXE;2008-08-13 08:00;CYXE 130800Z 25006KT 15SM SCT055 BKN080 10/10 A2972 RMK SC3AC2 SLP072

CYXE;2008-08-13 08:50;CYXE 130850Z 27005KT 15SM BKN003 OVC055 11/ RMK SF5SC3

CYXE;2008-08-13 09:00;CYXE 130900Z 27004KT 15SM BKN003 OVC050 11/11 A2972 RMK SF5SC3 SLP073

CYXE;2008-08-13 09:24;CYXE 130924Z 27005KT 0SM R09/1800VP6000FT/D FG VV000 12/ RMK FG8

CYXE;2008-08-13 10:00;CYXE 131000Z 31007KT 3/4SM R09/3000VP6000FT/U BR VV001 13/13 A2973 RMK FG8 SLP075

CYXE;2008-08-13 10:13;CYXE 131013Z 31008KT 1 1/2SM BR VV002 13/ RMK FG8

CYXE;2008-08-13 10:22;CYXE 131022Z 30008KT 10SM OVC002 13/ RMK SF8 BR

CYXE;2008-08-13 10:36;CYXE 131036Z 31006KT 15SM OVC005 13/ RMK SF8

CYXE;2008-08-13 10:54;CYXE 131054Z 29006KT 15SM SCT004 BKN080 13/ RMK SF2AC4

CYXE;2008-08-13 11:00;CYXE 131100Z 28009KT 15SM OVC004 13/13 A2973 RMK ST8 SLP077

CYXE;2008-08-13 11:20;CYXE 131120Z 32007KT 12SM BKN002 OVC080 13/ RMK SF7AC1 BR

CYXE;2008-08-13 11:47;CYXE 131147Z 33006KT 4SM BR OVC002 13/ RMK ST8

CYXE;2008-08-13 12:00;CYXE 131200Z 30007KT 3SM BR OVC002 13/13 A2975 RMK ST8 SLP082

CYXE;2008-08-13 12:42;CYXE 131242Z 29008KT 6SM BR OVC003 13/ RMK ST8

CYXE;2008-08-13 13:00;CYXE 131300Z 30011KT 8SM OVC003 13/13 A2976 RMK SF8 BR SLP085

CYXE;2008-08-13 14:00;CYXE 131400Z 33011KT 15SM FEW005 SCT050 BKN090 14/14 A2977 RMK SF1SC2AC2 TCU EMBD SLP088

CYXE;2008-08-13 15:00;CYXE 131500Z 35010KT 15SM FEW010 BKN040 BKN090 15/14 A2977 RMK SF1SC6AC1 TCU EMBED SLP092

CYXE;2008-08-13 16:00;CYXE 131600Z 32010G15KT 15SM VCSH BKN014 15/13 A2978 RMK SC7 TCU EMBD SLP095

CYXE;2008-08-13 16:20;CYXE 131620Z 34009KT 15SM -SHRA BKN012 OVC020 14/ RMK SC6SC2 TCU EMBD

CYXE;2008-08-13 17:00;CYXE 131700Z 33009KT 12SM -SHRA BKN009 OVC030 14/14 A2981 RMK SC6SC2 TCU EMBD SLP102

CYXE;2008-08-13 17:31;CYXE 131731Z 32009KT 15SM VCSH OVC008 15/ RMK SC8

CYXE;2008-08-13 18:00;CYXE 131800Z 31010KT 15SM BKN009 OVC045 16/14 A2981 RMK SC7SC1 SLP106

CYXE;2008-08-13 18:21;CYXE 131821Z 32011KT 15SM -SHRA BKN012 BKN045 17/ RMK SC6SC1 CVCTV CLD EMBD

CYXE;2008-08-13 19:00;CYXE 131900Z CCA 35009KT 15SM -SHRA BKN017 OVC055 17/15 A2981 RMK SC6SC2 CVCTV CLD EMBED SLP106

CYXE;2008-08-13 19:27;CYXE 131927Z 34010KT 15SM BKN024 BKN060 OVC120 17/ RMK SC5SC2AC1

CYXE;2008-08-13 19:51;CYXE 131951Z 31008G15KT 15SM -SHRA BKN017 BKN040 OVC120 18/ RMK SC5SC2AC1

CYXE;2008-08-13 20:00;CYXE 132000Z 33016KT 15SM VCSH BKN017 BKN040 OVC120 18/13 A2981 RMK SC5SC2AC2 SLP106

CYXE;2008-08-13 21:00;CYXE 132100Z 33012KT 15SM SCT025 BKN065 BKN220 19/13 A2981 RMK SC3SC2CI1 SLP104

CYXE;2008-08-13 22:00;CYXE 132200Z 35012KT 15SM SCT032 BKN220 20/13 A2981 RMK CU4CI0 SLP104

CYXE;2008-08-13 22:23;CYXE 132223Z 34013KT 15SM -SHRA FEW032 BKN095 BKN220 18/ RMK CU2AC3CI1 CB EMBD

CYXE;2008-08-13 23:00;CYXE 132300Z 35010G15KT 15SM VCSH FEW030 BKN095 BKN220 19/13 A2983 RMK CU2AC3CI1 SLP110

CYXE;2008-08-14 00:00;CYXE 140000Z 03012KT 15SM FEW030CB SCT075 BKN120 17/12 A2985 RMK CB1AC2AC3 CB SE SLP115

CYXE;2008-08-14 01:00;CYXE 140100Z 34006KT 15SM FEW021 BKN068 16/14 A2988 RMK SC2AC6 LTGCG DIST W SLP125

CYXE;2008-08-14 02:00;CYXE 140200Z 33007KT 15SM -SHRA SCT050 OVC080 16/13 A2990 RMK SC3AC5 SLP133

CYXE;2008-08-14 03:00;CYXE 140300Z 35007KT 12SM -SHRA OVC021 14/14 A2992 RMK SC8 BR SLP140

CYXE;2008-08-14 04:00;CYXE 140400Z 32004KT 12SM -SHRA OVC024 14/14 A2991 RMK SC8 BR SLP139

CYXE;2008-08-14 05:00;CYXE 140500Z 31007KT 15SM -SHRA SCT024 OVC070 13/13 A2992 RMK SC4AC4 SLP142

CYXE;2008-08-14 05:32;CYXE 140532Z 30006KT 15SM FEW025 OVC070 13/ RMK SC2AC6

CYXE;2008-08-14 06:00;CYXE 140600Z 30007KT 15SM FEW005 FEW040 OVC070 13/13 A2993 RMK SF1SC2AC6 SLP145

CYXE;2008-08-14 07:00;CYXE 140700Z 32006KT 15SM FEW030 OVC062 13/13 A2994 RMK SC2SC6 SLP147

CYXE;2008-08-14 08:00;CYXE 140800Z 32007KT 15SM FEW045 BKN095 12/12 A2995 RMK SC2AC3 SLP149

CYXE;2008-08-14 09:00;CYXE 140900Z 32006KT 15SM BKN055 OVC090 12/12 A2995 RMK SC5AC2 SLP152

CYXE;2008-08-14 10:00;CYXE 141000Z 32006KT 15SM FEW053 BKN082 12/12 A2997 RMK SC2AC5 SLP156

CYXE;2008-08-14 10:49;CYXE 141049Z 32006KT 15SM SCT006 SCT065 OVC082 12/ RMK SF2SC2AC3

CYXE;2008-08-14 11:00;CYXE 141100Z 33006KT 15SM SCT006 SCT030 OVC085 12/12 A2999 RMK SF3SC1AC4 SLP162

CYXE;2008-08-14 11:18;CYXE 141118Z 35007KT 15SM BKN006 OVC070 12/ RMK SF7AC1

CYXE;2008-08-14 12:00;CYXE 141200Z 36006KT 10SM OVC005 13/13 A3000 RMK SF8 BR SLP169

CYXE;2008-08-14 12:37;CYXE 141237Z 34007KT 6SM BR OVC004 13/ RMK SF8

CYXE;2008-08-14 13:00;CYXE 141300Z 02007KT 6SM BR OVC004 13/13 A3003 RMK ST8 SLP177

CYXE;2008-08-14 13:17;CYXE 141317Z 03008KT 6SM BR OVC003 14/ RMK ST8

CYXE;2008-08-14 13:34;CYXE 141334Z 04009KT 8SM OVC005 14/ RMK ST8 BR

CYXE;2008-08-14 13:51;CYXE 141351Z 03009KT 10SM OVC006 15/ RMK SF8 BR

CYXE;2008-08-14 14:00;CYXE 141400Z 02006KT 10SM OVC007 15/14 A3005 RMK ST8 BR SLP184

CYXE;2008-08-14 14:29;CYXE 141429Z 05009KT 15SM OVC011 15/ RMK ST8

CYXE;2008-08-14 14:53;CYXE 141453Z 05006KT 15SM OVC015 15/ RMK SC8

CYXE;2008-08-14 15:00;CYXE 141500Z 03006KT 15SM BKN015 15/14 A3008 RMK SC7 SLP195

CYXE;2008-08-14 15:18;CYXE 141518Z 05005KT 15SM BKN012 16/ RMK SC7

CYXE;2008-08-14 16:00;CYXE 141600Z 05009KT 15SM BKN014 BKN032 16/14 A3010 RMK SC5SC2 SLP201

CYXE;2008-08-14 17:00;CYXE 141700Z 02005KT 15SM BKN014 17/13 A3011 RMK SC5 SLP204

CYXE;2008-08-14 17:16;CYXE 141716Z 01007KT 15SM BKN016 18/ RMK SC6

CYXE;2008-08-14 18:00;CYXE 141800Z 34009KT 15SM BKN020 20/14 A3011 RMK SC6 SLP204

CYXE;2008-08-14 19:00;CYXE 141900Z 33005KT 15SM SCT031 20/14 A3012 RMK CU4 SLP208

CYXE;2008-08-14 20:00;CYXE 142000Z 35006KT 15SM SCT031 22/14 A3012 RMK CU4 SLP209

CYXE;2008-08-14 21:00;CYXE 142100Z 01008KT 15SM BKN040 21/13 A3013 RMK CU5 SLP211

CYXE;2008-08-14 22:00;CYXE 142200Z 32004KT 15SM SCT045 23/13 A3013 RMK CU3 SLP212

CYXE;2008-08-14 23:00;CYXE 142300Z 01002KT 15SM FEW045 23/13 A3014 RMK CU2 SLP214

CYXE;2008-08-15 00:00;CYXE 150000Z 33004KT 15SM FEW045 23/12 A3014 RMK CU1 SLP213

CYXE;2008-08-15 01:00;CYXE 150100Z 33006KT 15SM FEW045 FEW300 22/13 A3015 RMK CU1CI1 SLP215

CYXE;2008-08-15 02:00;CYXE 150200Z 33004KT 15SM FEW300 20/14 A3015 RMK CI1 SLP216

CYXE;2008-08-15 03:00;CYXE 150300Z 00000KT 15SM FEW090 FEW300 18/13 A3017 RMK AC1CI1 SLP223

CYXE;2008-08-15 04:00;CYXE 150400Z 27003KT 15SM FEW300 17/13 A3018 RMK CI1 SLP227

CYXE;2008-08-15 05:00;CYXE 150500Z 21002KT 15SM FEW300 16/13 A3018 RMK CI1 SLP228

CYXE;2008-08-15 06:00;CYXE 150600Z 23004KT 15SM FEW300 14/13 A3018 RMK CI0 SLP229

CYXE;2008-08-15 07:00;CYXE 150700Z 24005KT 15SM SKC 12/12 A3018 RMK SLP229

CYXE;2008-08-15 08:00;CYXE 150800Z 22003KT 15SM SKC 12/12 A3018 RMK SLP229

CYXE;2008-08-15 09:00;CYXE 150900Z 21005KT 15SM SKC 11/11 A3019 RMK SLP231

CYXE;2008-08-15 10:00;CYXE 151000Z 21004KT 15SM SKC 11/10 A3019 RMK SLP232

CYXE;2008-08-15 11:00;CYXE 151100Z 22005KT 15SM SKC 10/10 A3020 RMK SLP234

CYXE;2008-08-15 12:00;CYXE 151200Z 21006KT 15SM FEW300 11/10 A3021 RMK CI1 SLP236

CYXE;2008-08-15 13:00;CYXE 151300Z 23005KT 15SM FEW100 FEW300 12/12 A3021 RMK AC1CI0 SLP238

CYXE;2008-08-15 14:00;CYXE 151400Z 22005KT 15SM FEW100 15/13 A3021 RMK AC1 SLP238

CYXE;2008-08-15 15:00;CYXE 151500Z 23007KT 15SM FEW100 18/15 A3021 RMK AC1 SLP236

CYXE;2008-08-15 16:00;CYXE 151600Z 23006KT 15SM SCT300 21/15 A3020 RMK CI0 SLP234

CYXE;2008-08-15 17:00;CYXE 151700Z 24009KT 15SM SCT300 23/15 A3020 RMK CI0 SLP232

CYXE;2008-08-15 18:00;CYXE 151800Z 27012KT 15SM FEW043 SCT330 26/15 A3019 RMK CU1CI1 SLP227

CYXE;2008-08-15 19:00;CYXE 151900Z 25009KT 15SM FEW050 SCT330 26/15 A3018 RMK CU2CI0 SLP225

CYXE;2008-08-15 20:00;CYXE 152000Z 26009KT 15SM FEW050 SCT330 26/15 A3017 RMK CU2CI0 SLP221

CYXE;2008-08-15 21:00;CYXE 152100Z 24011KT 15SM FEW052 SCT330 27/15 A3016 RMK CU2CI0 SLP218

CYXE;2008-08-15 22:00;CYXE 152200Z 28010KT 15SM FEW054 SCT300 28/15 A3014 RMK CU2CI0 CONTRAILS SLP212

CYXE;2008-08-15 23:00;CYXE 152300Z 26011KT 15SM FEW050 SCT300 28/15 A3013 RMK CU2CI0 SLP208

CYXE;2008-08-16 00:00;CYXE 160000Z 25006KT 15SM FEW048 FEW300 28/15 A3012 RMK CU1CI0 SLP204

CYXE;2008-08-16 01:00;CYXE 160100Z 23006KT 15SM FEW040 FEW300 26/16 A3011 RMK CU1CI0 SLP200

CYXE;2008-08-16 02:00;CYXE 160200Z 22006KT 15SM FEW300 22/17 A3010 RMK CI0 SLP198

CYXE;2008-08-16 03:00;CYXE 160300Z 22006KT 15SM FEW300 20/15 A3010 RMK CI0 SLP199

CYXE;2008-08-16 04:00;CYXE 160400Z 19005KT 15SM FEW300 20/15 A3010 RMK CI0 SLP198

CYXE;2008-08-16 05:00;CYXE 160500Z 19006KT 15SM FEW300 19/14 A3009 RMK CI0 SLP196

CYXE;2008-08-16 06:00;CYXE 160600Z 21005KT 15SM SKC 17/14 A3009 RMK SLP191

CYXE;2008-08-16 07:00;CYXE 160700Z 20006KT 15SM SKC 16/13 A3008 RMK SLP187

CYXE;2008-08-16 08:00;CYXE 160800Z 20005KT 15SM SKC 16/13 A3007 RMK SLP184

CYXE;2008-08-16 09:00;CYXE 160900Z 20004KT 15SM FEW250 15/13 A3006 RMK CI1 SLP180

CYXE;2008-08-16 10:00;CYXE 161000Z 19004KT 15SM SCT250 14/13 A3005 RMK CI1 SLP178

CYXE;2008-08-16 11:00;CYXE 161100Z 20004KT 15SM BKN250 13/12 A3004 RMK CI2 SLP176

CYXE;2008-08-16 12:00;CYXE 161200Z 20006KT 15SM BKN250 13/12 A3004 RMK CI2 SLP175

CYXE;2008-08-16 13:00;CYXE 161300Z 21008KT 15SM BKN260 14/12 A3004 RMK CI2 SLP175

CYXE;2008-08-16 14:00;CYXE 161400Z 21006KT 15SM BKN260 17/13 A3004 RMK CI2 SLP175

CYXE;2008-08-16 15:00;CYXE 161500Z 21007KT 15SM SCT300 19/13 A3002 RMK CI1 CONTRAILS SLP169

CYXE;2008-08-16 16:00;CYXE 161600Z 21013KT 15SM BKN300 23/13 A3000 RMK CI1 CONTRAILS SLP162

CYXE;2008-08-16 17:00;CYXE 161700Z 23011KT 15SM BKN300 26/13 A2998 RMK CI3 CONTRAILS SLP156

CYXE;2008-08-16 18:00;CYXE 161800Z 21009KT 15SM BKN300 27/12 A2995 RMK CI2 SLP142

CYXE;2008-08-16 19:00;CYXE 161900Z 24009G15KT 15SM BKN250 29/13 A2994 RMK CI2 SLP138

CYXE;2008-08-16 20:00;CYXE 162000Z 23013G19KT 15SM BKN250 29/12 A2991 RMK CI4 SLP129

CYXE;2008-08-16 21:00;CYXE 162100Z 22013KT 15SM SCT250 30/11 A2988 RMK CI2 SLP119

CYXE;2008-08-16 22:00;CYXE 162200Z 21013KT 15SM BKN300 30/12 A2985 RMK CI2 SLP110

CYXE;2008-08-16 23:00;CYXE 162300Z 22011G17KT 15SM SCT300 30/12 A2983 RMK CI2 SLP103

CYXE;2008-08-17 00:00;CYXE 170000Z 22009KT 15SM FEW110 SCT300 29/11 A2981 RMK AC1CI1 SLP095

CYXE;2008-08-17 01:00;CYXE 170100Z 20007KT 15SM FEW080CB FEW300 28/11 A2979 RMK CB1CI0 CB DIST W SLP088

CYXE;2008-08-17 02:00;CYXE 170200Z 25005KT 15SM FEW044 FEW080CB SCT300 24/13 A2979 RMK CU1CB2CI0 CB N MOVG E OCNL LTGCG DIST N SLP090

CYXE;2008-08-17 02:28;CYXE 170228Z 14004KT 15SM TS VCSH FEW080CB SCT100 BKN300 23/ RMK CB2AC1CI0 FQT LTGCG NW-N

CYXE;2008-08-17 03:00;CYXE 170300Z 19002KT 15SM SCT080CB SCT100 BKN300 23/14 A2979 RETS RMK CB3AC1CI0 OCNL LTNG DIST N SLP089

CYXE;2008-08-17 04:00;CYXE 170400Z 07004KT 15SM FEW080CB FEW100 SCT300 21/14 A2979 RMK CB2AC1CI0 OCNL LTNG DIST E SLP088

CYXE;2008-08-17 05:00;CYXE 170500Z 31007KT 15SM FEW300 16/13 A2980 RMK CI0 SLP091

CYXE;2008-08-17 06:00;CYXE 170600Z 31007KT 15SM SKC 19/16 A2978 RMK SLP084

CYXE;2008-08-17 07:00;CYXE 170700Z 30007KT 15SM SKC 16/15 A2980 RMK SLP089

CYXE;2008-08-17 08:00;CYXE 170800Z 29006KT 15SM SKC 16/15 A2980 RMK SLP091

CYXE;2008-08-17 09:00;CYXE 170900Z 02011KT 15SM SKC 17/15 A2983 RMK SLP099

CYXE;2008-08-17 10:00;CYXE 171000Z 01015G20KT 15SM SKC 18/16 A2985 RMK SLP107

CYXE;2008-08-17 11:00;CYXE 171100Z 01013KT 15SM SKC 18/16 A2986 RMK SLP110

CYXE;2008-08-17 12:00;CYXE 171200Z 02012KT 15SM SKC 18/16 A2988 RMK SLP118

CYXE;2008-08-17 13:00;CYXE 171300Z 35008KT 15SM SKC 18/16 A2992 RMK SLP129

CYXE;2008-08-17 14:00;CYXE 171400Z 36010KT 15SM FEW100 19/16 A2995 RMK AC1 SLP138

CYXE;2008-08-17 15:00;CYXE 171500Z 03012KT 15SM FEW039 FEW250 21/16 A2995 RMK SC1CI0 SLP144

CYXE;2008-08-17 16:00;CYXE 171600Z 04010KT 15SM SKC 22/16 A2996 RMK SLP146

CYXE;2008-08-17 17:00;CYXE 171700Z 04008KT 15SM FEW032 24/17 A2996 RMK CU1 SLP147

CYXE;2008-08-17 18:00;CYXE 171800Z 03009KT 15SM SCT036 25/16 A2996 RMK CU4 SLP148

CYXE;2008-08-17 19:00;CYXE 171900Z 03012KT 15SM SCT043 26/15 A2996 RMK CU4 SLP148

CYXE;2008-08-17 20:00;CYXE 172000Z 01011KT 15SM SCT051 26/14 A2996 RMK CU3 SLP146

CYXE;2008-08-17 21:00;CYXE 172100Z 04007KT 15SM FEW055 27/13 A2996 RMK CU1 SLP146

CYXE;2008-08-17 22:00;CYXE 172200Z 34006KT 15SM FEW060 27/13 A2995 RMK CU1 SLP143

CYXE;2008-08-17 23:00;CYXE 172300Z 36007KT 15SM FEW054 26/13 A2995 RMK CU1 SLP143

CYXE;2008-08-18 00:00;CYXE 180000Z 08007KT 15SM SKC 26/12 A2994 RMK SLP140

CYXE;2008-08-18 01:00;CYXE 180100Z 08005KT 15SM SKC 25/12 A2994 RMK SLP140

CYXE;2008-08-18 02:00;CYXE 180200Z 08006KT 15SM SKC 21/11 A2995 RMK SLP141

CYXE;2008-08-18 03:00;CYXE 180300Z 08006KT 15SM SKC 18/11 A2995 RMK SLP147

CYXE;2008-08-18 04:00;CYXE 180400Z 11004KT 15SM SKC 18/10 A2996 RMK SLP149

CYXE;2008-08-18 05:00;CYXE 180500Z 12006KT 12SM SKC 16/09 A2996 RMK HZ SLP149

CYXE;2008-08-18 06:00;CYXE 180600Z 14007KT 15SM SKC 17/11 A2997 RMK SLP152

CYXE;2008-08-18 07:00;CYXE 180700Z 13008KT 15SM SKC 17/11 A2998 RMK SLP153

CYXE;2008-08-18 08:00;CYXE 180800Z 14008KT 15SM SKC 17/11 A2996 RMK SLP149

CYXE;2008-08-18 09:00;CYXE 180900Z 14007KT 15SM SKC 16/11 A2996 RMK SLP147

CYXE;2008-08-18 10:00;CYXE 181000Z 14010KT 15SM SKC 16/12 A2995 RMK SLP144

CYXE;2008-08-18 11:00;CYXE 181100Z 14008KT 15SM SCT300 16/11 A2995 RMK CI0 SLP142

CYXE;2008-08-18 12:00;CYXE 181200Z 15006KT 15SM SCT300 15/11 A2995 RMK CI1 SLP144

CYXE;2008-08-18 13:00;CYXE 181300Z 16004KT 15SM BKN300 16/12 A2994 RMK CI2 SLP142

CYXE;2008-08-18 14:00;CYXE 181400Z 17007KT 15SM SCT300 18/13 A2994 RMK CI1 SLP141

CYXE;2008-08-18 15:00;CYXE 181500Z 16007KT 15SM SCT300 21/15 A2993 RMK CI1 SLP140

CYXE;2008-08-18 16:00;CYXE 181600Z 16009KT 15SM FEW180 SCT300 25/17 A2991 RMK AC1CI0 SLP133

CYXE;2008-08-18 17:00;CYXE 181700Z 18013KT 15SM FEW180 SCT300 26/18 A2990 RMK AC0CI0 SLP129

CYXE;2008-08-18 18:00;CYXE 181800Z 18014KT 15SM FEW180 FEW300 28/17 A2988 RMK AC0CI0 SLP120

CYXE;2008-08-18 19:00;CYXE 181900Z 18014G22KT 15SM FEW300 29/17 A2986 RMK CI0 SLP112

CYXE;2008-08-18 20:00;CYXE 182000Z 17014KT 15SM SKC 30/16 A2984 RMK SLP107

CYXE;2008-08-18 21:00;CYXE 182100Z 18012G18KT 15SM SKC 32/15 A2983 RMK SLP100

CYXE;2008-08-18 22:00;CYXE 182200Z 20011G18KT 15SM SKC 32/13 A2981 RMK SLP094

CYXE;2008-08-18 23:00;CYXE 182300Z 19011G19KT 15SM SKC 32/13 A2980 RMK SLP089

CYXE;2008-08-19 00:00;CYXE 190000Z 18012G17KT 15SM SKC 32/13 A2977 RMK SLP082

CYXE;2008-08-19 01:00;CYXE 190100Z 16010G17KT 15SM SKC 30/14 A2977 RMK SLP079

CYXE;2008-08-19 02:00;CYXE 190200Z 16010KT 15SM FEW250 28/12 A2976 RMK CI0 SLP076

CYXE;2008-08-19 03:00;CYXE 190300Z 16010G15KT 15SM FEW250 26/15 A2975 RMK CI1 SLP074

CYXE;2008-08-19 04:00;CYXE 190400Z 16012KT 15SM FEW250 24/14 A2975 RMK CI0 SLP073

CYXE;2008-08-19 05:00;CYXE 190500Z 16010KT 15SM SKC 23/14 A2974 RMK SLP070

CYXE;2008-08-19 06:00;CYXE 190600Z 17014KT 15SM SKC 24/15 A2973 RMK SLP065

CYXE;2008-08-19 07:00;CYXE 190700Z 18014KT 15SM SKC 23/15 A2972 RMK SLP062

CYXE;2008-08-19 08:00;CYXE 190800Z 18013G19KT 15SM SKC 22/15 A2972 RMK SLP060

CYXE;2008-08-19 09:00;CYXE 190900Z 18012G17KT 15SM SKC 22/14 A2971 RMK SLP057

CYXE;2008-08-19 10:00;CYXE 191000Z 18012KT 15SM SKC 21/14 A2970 RMK SLP053

CYXE;2008-08-19 11:00;CYXE 191100Z 17012KT 15SM FEW280 20/14 A2969 RMK CI0 SLP050

CYXE;2008-08-19 12:00;CYXE 191200Z 15008KT 15SM FEW280 20/14 A2969 RMK CI0 SLP049

CYXE;2008-08-19 13:00;CYXE 191300Z 13004KT 15SM SKC 18/14 A2968 RMK SLP046

CYXE;2008-08-19 14:00;CYXE 191400Z 14008KT 15SM SKC 21/15 A2967 RMK SLP042

CYXE;2008-08-19 15:00;CYXE 191500Z 16010KT 15SM SKC 23/16 A2965 RMK SLP038

CYXE;2008-08-19 16:00;CYXE 191600Z 15011KT 15SM SKC 25/16 A2963 RMK SLP032

CYXE;2008-08-19 17:00;CYXE 191700Z 14011KT 15SM FEW300 28/15 A2962 RMK CI0 SLP027

CYXE;2008-08-19 18:00;CYXE 191800Z 15014KT 15SM FEW300 31/15 A2960 RMK CI0 SLP017

CYXE;2008-08-19 19:00;CYXE 191900Z 16018KT 15SM FEW300 34/13 A2957 RMK CI0 SLP009

CYXE;2008-08-19 20:00;CYXE 192000Z 19019G27KT 15SM FEW300 35/11 A2955 RMK CI0 SLP001

CYXE;2008-08-19 21:00;CYXE 192100Z 20016G22KT 15SM FEW300 37/11 A2952 RMK CI0 SLP990

CYXE;2008-08-19 22:00;CYXE 192200Z 19013G21KT 15SM FEW350 37/11 A2950 RMK CI1 SLP984

CYXE;2008-08-19 23:00;CYXE 192300Z 18012G19KT 15SM FEW350 36/11 A2949 RMK CI1 SLP979

CYXE;2008-08-20 00:00;CYXE 200000Z 16016G21KT 15SM FEW084 SCT350 35/11 A2948 RMK AC1CI1 SLP976

CYXE;2008-08-20 01:00;CYXE 200100Z 15013G18KT 15SM FEW084 SCT350 33/12 A2948 RMK AC1CI1 SLP976

CYXE;2008-08-20 02:00;CYXE 200200Z 15012G18KT 15SM BKN300 30/12 A2947 RMK CI2 SLP975

CYXE;2008-08-20 03:00;CYXE 200300Z 22009KT 15SM BKN300 27/13 A2950 RMK CI3 SLP988

CYXE;2008-08-20 04:00;CYXE 200400Z 25007KT 15SM BKN300 25/12 A2951 RMK CI2 SLP991

CYXE;2008-08-20 05:00;CYXE 200500Z 28009KT 15SM BKN250 24/13 A2952 RMK CI4 SLP994

CYXE;2008-08-20 06:00;CYXE 200600Z 28007KT 15SM BKN250 20/13 A2951 RMK CI3 SLP990

CYXE;2008-08-20 07:00;CYXE 200700Z 29005KT 15SM BKN250 21/14 A2952 RMK CI3 SLP991

CYXE;2008-08-20 08:00;CYXE 200800Z 23006KT 15SM BKN250 18/14 A2952 RMK CI3 SLP993

CYXE;2008-08-20 09:00;CYXE 200900Z 25008KT 15SM BKN250 18/14 A2955 RMK CI3 SLP000

CYXE;2008-08-20 10:00;CYXE 201000Z 24007KT 15SM SCT250 18/11 A2955 RMK CI2 SLP002

CYXE;2008-08-20 11:00;CYXE 201100Z 23009KT 15SM FEW180 SCT250 17/11 A2956 RMK AC2CI0 SLP003

CYXE;2008-08-20 12:00;CYXE 201200Z 22010KT 15SM FEW180 BKN250 19/11 A2955 RMK AC2CI1 SLP002

CYXE;2008-08-20 13:00;CYXE 201300Z 22010KT 15SM SCT150 OVC250 19/11 A2955 RMK AC3CI1 SLP001

CYXE;2008-08-20 14:00;CYXE 201400Z 21011KT 15SM FEW100 FEW150 BKN250 20/11 A2955 RMK ACC1AC1CI4 SLP000

CYXE;2008-08-20 15:00;CYXE 201500Z 23013KT 15SM FEW110 FEW150 BKN250 22/11 A2955 RMK AC1AC1CI2 SLP002

CYXE;2008-08-20 16:00;CYXE 201600Z 23015KT 15SM FEW100 BKN130 BKN250 24/10 A2954 RMK AC2AC3CI1 VIRGA S-NW SLP001

CYXE;2008-08-20 16:39;CYXE 201639Z 22011KT 15SM -SHRA FEW063 SCT100 BKN250 22/ RMK SC1AC3CI2

CYXE;2008-08-20 17:00;CYXE 201700Z 23008KT 15SM VCSH FEW063 SCT100 BKN250 21/11 A2953 RMK SC1AC2CI2 SLP996

CYXE;2008-08-20 18:00;CYXE 201800Z 20013G18KT 15SM FEW075 BKN250 25/11 A2953 RMK AC2CI2 ACC ASOCTD SLP997

CYXE;2008-08-20 19:00;CYXE 201900Z 25017G24KT 15SM FEW090 SCT300 28/09 A2951 RMK ACC1CI1 SLP991

CYXE;2008-08-20 20:00;CYXE 202000Z 23016KT 14SM FEW080 SCT300 29/08 A2950 RMK ACC1CI1 SLP987

CYXE;2008-08-20 21:00;CYXE 202100Z 23019G26KT 15SM FEW080 BKN300 30/07 A2949 RMK ACC1CI2 SLP982

CYXE;2008-08-20 22:00;CYXE 202200Z 22014G22KT 15SM FEW080 BKN300 29/06 A2948 RMK ACC1CI2 SLP980

CYXE;2008-08-20 23:00;CYXE 202300Z 24014KT 15SM FEW100 BKN300 29/08 A2948 RMK AC1CI2 TCU ASOCTD SLP979

CYXE;2008-08-21 00:00;CYXE 210000Z 25009KT 15SM FEW110 BKN300 27/08 A2947 RMK AC2CI3 SLP979

CYXE;2008-08-21 01:00;CYXE 210100Z 25007KT 15SM SCT110 BKN300 25/12 A2947 RMK AC2CI3 SLP978

CYXE;2008-08-21 02:00;CYXE 210200Z 21007KT 15SM SCT110 OVC300 24/11 A2948 RMK AC4CI4 SLP981

CYXE;2008-08-21 03:00;CYXE 210300Z 22007KT 15SM SCT030 OVC110 20/14 A2951 RMK SC4AC4 SLP994

CYXE;2008-08-21 04:00;CYXE 210400Z 26005KT 15SM SCT047 OVC090 19/14 A2949 RMK SC4AC4 SLP987

CYXE;2008-08-21 05:00;CYXE 210500Z 18003KT 15SM SCT090 20/14 A2947 RMK AC4 LTNG DIST N SLP982

CYXE;2008-08-21 06:00;CYXE 210600Z 18003KT 15SM FEW100 19/13 A2947 RMK AC2 LTNG DIST W-NW SLP979

CYXE;2008-08-21 07:00;CYXE 210700Z 18008KT 15SM BKN120 18/13 A2946 RMK AC7 SLP975

CYXE;2008-08-21 08:00;CYXE 210800Z 19006KT 15SM BKN094 OVC120 18/12 A2944 RMK AC6AC2 SLP970

CYXE;2008-08-21 08:39;CYXE 210839Z 21008KT 15SM -SHRA BKN027 OVC085 18/ RMK SC5AC3

CYXE;2008-08-21 09:00;CYXE 210900Z 25003KT 15SM -SHRA BKN022 OVC085 16/14 A2947 RMK SC6AC2 SLP977

CYXE;2008-08-21 09:44;CYXE 210944Z 16002KT 15SM BKN043 OVC085 16/ RMK SC5AC3

CYXE;2008-08-21 10:00;CYXE 211000Z 18002KT 15SM SCT062 BKN095 16/14 A2946 RMK SC4AC3 SLP973

CYXE;2008-08-21 11:00;CYXE 211100Z 20004KT 15SM BKN075 15/14 A2945 RMK AC6 SLP970

CYXE;2008-08-21 12:00;CYXE 211200Z 12002KT 15SM FEW075 BKN120 12/12 A2944 RMK AC2AC2 SLP970

CYXE;2008-08-21 13:00;CYXE 211300Z 22004KT 15SM FEW072TCU BKN120 14/13 A2943 RMK TCU2AC2 SLP969

CYXE;2008-08-21 14:00;CYXE 211400Z 22004KT 15SM FEW080TCU SCT160 15/14 A2944 RMK TCU1AC2 SLP971

CYXE;2008-08-21 14:35;CYXE 211435Z 25003KT 15SM FEW008 FEW080 BKN270 16/ RMK CF1ACC1CI2

CYXE;2008-08-21 15:00;CYXE 211500Z 31004KT 15SM FEW008 FEW080 BKN270 17/15 A2944 RMK SC1AC1CI1 SLP973

CYXE;2008-08-21 16:00;CYXE 211600Z 01006KT 15SM FEW008 BKN270 17/15 A2946 RMK SC2CI1 SLP977

CYXE;2008-08-21 16:34;CYXE 211634Z 33004KT 15SM BKN015 BKN270 19/ RMK SC5CI0

CYXE;2008-08-21 17:00;CYXE 211700Z 01008KT 15SM BKN015 BKN270 19/15 A2946 RMK SC5CI0 SLP979

CYXE;2008-08-21 18:00;CYXE 211800Z 04004KT 15SM SCT020 BKN270 21/15 A2946 RMK SC3CI0 CONTRAILS SLP978

CYXE;2008-08-21 19:00;CYXE 211900Z 36012KT 15SM BKN025 BKN270 21/15 A2946 RMK SC6CI0 SLP978

CYXE;2008-08-21 20:00;CYXE 212000Z 01009KT 15SM BKN025 BKN270 21/14 A2946 RMK SC6CI0 SLP979

CYXE;2008-08-21 21:00;CYXE 212100Z 36009G16KT 15SM BKN029 BKN270 21/15 A2947 RMK SC6CI0 SLP984

CYXE;2008-08-21 22:00;CYXE 212200Z 01010KT 15SM SCT030 BKN070 BKN270 21/14 A2948 RMK SC3AC2CI1 SLP985

CYXE;2008-08-21 23:00;CYXE 212300Z 35011KT 15SM BKN030 BKN070 21/15 A2950 RMK SC5AC2 SLP991

CYXE;2008-08-22 00:00;CYXE 220000Z 03010KT 15SM FEW030 SCT140 BKN270 20/14 A2949 RMK SC2AC2CI3 SLP992

CYXE;2008-08-22 01:00;CYXE 220100Z 01013KT 15SM BKN030 BKN120 OVC270 19/13 A2951 RMK SC5AC1CI1 SLP999

CYXE;2008-08-22 02:00;CYXE 220200Z 01010G17KT 15SM FEW030 BKN095 BKN270 17/13 A2954 RMK SC2AC3CI2 SH SW-NW SLP008

CYXE;2008-08-22 03:00;CYXE 220300Z 01011KT 15SM SCT035 BKN095 BKN270 15/12 A2957 RMK SC3AC2CI1 SLP018

CYXE;2008-08-22 03:50;CYXE 220350Z 02017G22KT 15SM -SHRA BKN025 OVC085 14/ RMK SC6AC2 CVCTV CLD EMBD

CYXE;2008-08-22 04:00;CYXE 220400Z 03017G25KT 15SM -SHRA BKN035 OVC085 14/12 A2955 RMK SC5AC3 SLP012

CYXE;2008-08-22 04:29;CYXE 220429Z 36013G21KT 15SM SCT030 OVC085 13/ RMK SC3AC5

CYXE;2008-08-22 05:00;CYXE 220500Z 01016KT 15SM BKN022 OVC090 13/11 A2959 RMK SC5AC3 LTGIC DIS S CB EMBD SLP026

CYXE;2008-08-22 06:00;CYXE 220600Z 02013G19KT 15SM BKN019 OVC030 13/11 A2961 RMK SC6SC2 SLP032

CYXE;2008-08-22 06:08;CYXE 220608Z 03016KT 15SM BKN012 OVC030 13/ RMK SC6SC2

CYXE;2008-08-22 07:00;CYXE 220700Z 01013KT 15SM OVC014 13/10 A2964 RMK SC8 SLP041

CYXE;2008-08-22 08:00;CYXE 220800Z 02016G25KT 15SM OVC014 12/09 A2962 RMK SC8 SLP036

CYXE;2008-08-22 08:38;CYXE 220838Z 01015G21KT 15SM OVC016 12/ RMK SC8

CYXE;2008-08-22 09:00;CYXE 220900Z 01019G25KT 15SM OVC016 11/09 A2966 RMK SC8 SLP049

CYXE;2008-08-22 09:30;CYXE 220930Z 02019KT 15SM OVC014 11/ RMK SC8

CYXE;2008-08-22 10:00;CYXE 221000Z 01015G22KT 15SM OVC014 11/09 A2968 RMK SC8 SLP057

CYXE;2008-08-22 11:00;CYXE 221100Z 36017KT 15SM OVC012 10/08 A2969 RMK SC8 SLP060

CYXE;2008-08-22 11:33;CYXE 221133Z 36019KT 15SM BKN012 BKN092 OVC230 09/ RMK SC4AC2CI2

CYXE;2008-08-22 12:00;CYXE 221200Z 35017G22KT 15SM BKN012 BKN092 OVC230 09/08 A2970 RMK SC5AC1CI1 SLP067

CYXE;2008-08-22 12:35;CYXE 221235Z 35017KT 15SM SCT017 BKN092 OVC230 09/ RMK SF2AC4CI1

CYXE;2008-08-22 13:00;CYXE 221300Z 35017KT 15SM SCT017 BKN092 BKN230 09/07 A2974 RMK SF2AC2CI2 SLP079

CYXE;2008-08-22 14:00;CYXE 221400Z 35016G22KT 15SM SCT017 SCT090 BKN230 09/06 A2978 RMK SC3AC1CI2 SLP093

CYXE;2008-08-22 15:00;CYXE 221500Z 34014G21KT 15SM BKN019 10/06 A2981 RMK SC7 SLP106

CYXE;2008-08-22 16:00;CYXE 221600Z 34017G22KT 15SM OVC021 11/06 A2983 RMK SC8 SLP113

CYXE;2008-08-22 17:00;CYXE 221700Z 33018KT 15SM BKN021 11/06 A2985 RMK SC7 SLP118

CYXE;2008-08-22 18:00;CYXE 221800Z 34017G22KT 15SM BKN030 13/06 A2986 RMK SC6 SLP124

CYXE;2008-08-22 19:00;CYXE 221900Z 32017G25KT 15SM BKN034 13/05 A2987 RMK SC7 SLP127

CYXE;2008-08-22 20:00;CYXE 222000Z 32014G22KT 15SM BKN034 14/05 A2989 RMK SC7 SLP133

CYXE;2008-08-22 21:00;CYXE 222100Z 33014G20KT 15SM BKN036 14/05 A2991 RMK SC7 SLP141

CYXE;2008-08-22 22:00;CYXE 222200Z 36014G19KT 15SM BKN039 14/06 A2993 RMK SC6 SLP147

CYXE;2008-08-22 23:00;CYXE 222300Z 36015G20KT 15SM BKN039 14/05 A2995 RMK SC6 SLP153

CYXE;2008-08-23 00:00;CYXE 230000Z 36016KT 15SM BKN040 14/05 A2996 RMK SC7 SLP160

CYXE;2008-08-23 01:00;CYXE 230100Z 35010KT 15SM FEW040 SCT250 14/06 A2998 RMK SC2CI0 SLP164

CYXE;2008-08-23 02:00;CYXE 230200Z 01008KT 15SM FEW040 FEW250 11/06 A2999 RMK SC1CI1 SLP168

CYXE;2008-08-23 03:00;CYXE 230300Z 01005KT 15SM FEW250 08/05 A3001 RMK CI0 SLP179

CYXE;2008-08-23 04:00;CYXE 230400Z 35002KT 15SM SKC 08/06 A3003 RMK SLP186

CYXE;2008-08-23 05:00;CYXE 230500Z 27003KT 15SM SKC 05/04 A3004 RMK SLP189

CYXE;2008-08-23 06:00;CYXE 230600Z 28004KT 15SM SKC 05/05 A3005 RMK SLP193

CYXE;2008-08-23 07:00;CYXE 230700Z 28002KT 15SM SKC 04/04 A3006 RMK SLP195

CYXE;2008-08-23 08:00;CYXE 230800Z 24005KT 15SM SKC 04/04 A3007 RMK SLP198

CYXE;2008-08-23 09:00;CYXE 230900Z 25005KT 15SM FEW044 03/03 A3008 RMK SC1 SLP201

CYXE;2008-08-23 10:00;CYXE 231000Z 26002KT 15SM SKC 03/02 A3008 RMK SLP204

CYXE;2008-08-23 11:00;CYXE 231100Z 20003KT 15SM SCT047 SCT100 04/04 A3009 RMK SC3AC1 SLP206

CYXE;2008-08-23 12:00;CYXE 231200Z 00000KT 15SM BCFG FEW047 04/03 A3009 RMK SC2 SLP208

CYXE;2008-08-23 13:00;CYXE 231300Z 19003KT 15SM FEW047 FEW250 04/04 A3011 RMK SC2CI0 SLP214

CYXE;2008-08-23 14:00;CYXE 231400Z 22003KT 15SM FEW045 SCT250 08/08 A3013 RMK SC2CI0 SLP219

CYXE;2008-08-23 15:00;CYXE 231500Z 22007KT 15SM FEW020 SCT250 11/07 A3013 RMK SC1CI0 CONTRAILS SLP220

CYXE;2008-08-23 16:00;CYXE 231600Z 26005KT 15SM FEW020 SCT250 14/07 A3014 RMK SC1CI0 CONTRAILS SLP221

CYXE;2008-08-23 17:00;CYXE 231700Z 27004KT 15SM FEW020 SCT250 17/07 A3014 RMK SC1CI0 SLP222

CYXE;2008-08-23 18:00;CYXE 231800Z 30004KT 15SM FEW040 FEW250 17/06 A3013 RMK CU1CI0 SLP217

CYXE;2008-08-23 19:00;CYXE 231900Z 34004KT 15SM FEW050 FEW270 19/06 A3012 RMK CU2CI0 SLP215

CYXE;2008-08-23 20:00;CYXE 232000Z 34005KT 15SM FEW055 20/06 A3012 RMK SC2 SLP212

CYXE;2008-08-23 21:00;CYXE 232100Z 31007KT 15SM FEW060 20/06 A3011 RMK SC1 SLP208

CYXE;2008-08-23 22:00;CYXE 232200Z 03006KT 15SM FEW060 21/07 A3009 RMK SC1 SLP204

CYXE;2008-08-23 23:00;CYXE 232300Z 23002KT 15SM FEW060 FEW300 21/06 A3009 RMK SC1CI0 SLP202

CYXE;2008-08-24 00:00;CYXE 240000Z 25003KT 15SM SKC 21/07 A3008 RMK SLP199

CYXE;2008-08-24 01:00;CYXE 240100Z 00000KT 15SM FEW300 21/07 A3007 RMK CI0 SLP196

CYXE;2008-08-24 02:00;CYXE 240200Z 12002KT 15SM FEW300 18/07 A3008 RMK CI1 SLP197

CYXE;2008-08-24 03:00;CYXE 240300Z 13005KT 15SM FEW300 15/07 A3008 RMK CI1 SLP196

CYXE;2008-08-24 04:00;CYXE 240400Z 13008KT 15SM FEW300 14/07 A3008 RMK CI1 SLP198

CYXE;2008-08-24 05:00;CYXE 240500Z 13010KT 15SM SKC 14/07 A3008 RMK SLP199

CYXE;2008-08-24 06:00;CYXE 240600Z 14008KT 15SM SKC 13/07 A3008 RMK SLP196

CYXE;2008-08-24 07:00;CYXE 240700Z 14005KT 15SM SKC 12/07 A3008 RMK SLP197

CYXE;2008-08-24 08:00;CYXE 240800Z 15005KT 15SM SKC 10/07 A3008 RMK SLP197

CYXE;2008-08-24 09:00;CYXE 240900Z 16004KT 15SM SKC 10/08 A3008 RMK SLP194

CYXE;2008-08-24 10:00;CYXE 241000Z 15003KT 15SM SKC 10/08 A3007 RMK SLP191

CYXE;2008-08-24 11:00;CYXE 241100Z 12006KT 15SM FEW240 10/08 A3005 RMK CI0 SLP187

CYXE;2008-08-24 12:00;CYXE 241200Z 11004KT 15SM FEW240 09/07 A3004 RMK CI0 SLP181

CYXE;2008-08-24 13:00;CYXE 241300Z 14006KT 15SM FEW240 11/09 A3003 RMK CI0 SLP180

CYXE;2008-08-24 14:00;CYXE 241400Z 13010KT 15SM FEW270 14/09 A3001 RMK CI0 SLP173

CYXE;2008-08-24 15:00;CYXE 241500Z 14013KT 15SM FEW270 18/10 A3000 RMK CI0 SLP167

CYXE;2008-08-24 16:00;CYXE 241600Z 14011KT 15SM SCT270 20/10 A2999 RMK CI1 SLP163

CYXE;2008-08-24 17:00;CYXE 241700Z 15010KT 15SM SCT270 23/11 A2996 RMK CI1 SLP155

CYXE;2008-08-24 18:00;CYXE 241800Z 16013G18KT 15SM FEW270 25/10 A2993 RMK CI0 SLP139

CYXE;2008-08-24 19:00;CYXE 241900Z 16015KT 15SM FEW270 26/10 A2991 RMK CI0 SLP133

CYXE;2008-08-24 20:00;CYXE 242000Z 16014G19KT 15SM FEW270 28/10 A2989 RMK CI0 SLP125

CYXE;2008-08-24 21:00;CYXE 242100Z 19013G18KT 15SM FEW270 28/10 A2987 RMK CI0 SLP118

CYXE;2008-08-24 22:00;CYXE 242200Z 18008G16KT 15SM FEW300 30/10 A2984 RMK CI0 SLP110

CYXE;2008-08-24 23:00;CYXE 242300Z 19009KT 15SM SCT300 31/09 A2981 RMK CI1 SLP100

CYXE;2008-08-25 00:00;CYXE 250000Z 19008KT 15SM BKN300 30/09 A2980 RMK CI2 SLP093

CYXE;2008-08-25 01:00;CYXE 250100Z 16005KT 15SM BKN300 27/11 A2977 RMK CI2 SLP084

CYXE;2008-08-25 02:00;CYXE 250200Z 12010KT 15SM BKN300 25/13 A2975 RMK CI3 SLP077

CYXE;2008-08-25 03:00;CYXE 250300Z 15014G19KT 15SM SCT300 24/11 A2974 RMK CI1 SLP072

CYXE;2008-08-25 04:00;CYXE 250400Z 14012G18KT 15SM SKC 23/10 A2973 RMK SLP068

CYXE;2008-08-25 05:00;CYXE 250500Z 16013KT 15SM SKC 22/10 A2971 RMK SLP063

CYXE;2008-08-25 06:00;CYXE 250600Z 17012G21KT 15SM SCT300 22/09 A2970 RMK CI1 SLP056

CYXE;2008-08-25 07:00;CYXE 250700Z 18017G24KT 15SM SCT300 22/09 A2969 RMK CI1 SLP053

CYXE;2008-08-25 08:00;CYXE 250800Z 18017KT 15SM BKN300 22/09 A2968 RMK CI2 SLP049

CYXE;2008-08-25 09:00;CYXE 250900Z 18020G26KT 15SM BKN300 21/10 A2966 RMK CI2 SLP042

CYXE;2008-08-25 10:00;CYXE 251000Z 18018KT 15SM FEW300 20/11 A2965 RMK CI0 SLP037

CYXE;2008-08-25 11:00;CYXE 251100Z 18017G24KT 15SM FEW300 20/12 A2963 RMK CI0 SLP033

CYXE;2008-08-25 12:00;CYXE 251200Z 18012G18KT 15SM SCT300 18/12 A2963 RMK CI1 SLP031

CYXE;2008-08-25 13:00;CYXE 251300Z 19009KT 15SM FEW300 18/12 A2964 RMK CI2 SLP035

CYXE;2008-08-25 14:00;CYXE 251400Z 19010KT 15SM SCT300 18/12 A2964 RMK CI2 SLP035

CYXE;2008-08-25 15:00;CYXE 251500Z 19010KT 15SM FEW120 BKN300 20/13 A2963 RMK AC2CI1 SLP032

CYXE;2008-08-25 16:00;CYXE 251600Z 19007KT 15SM FEW120 BKN300 23/13 A2961 RMK AC2CI2 SLP026

CYXE;2008-08-25 17:00;CYXE 251700Z 19006KT 15SM BKN300 23/14 A2960 RMK CI5 SLP024

CYXE;2008-08-25 18:00;CYXE 251800Z 18007KT 15SM FEW120 BKN300 27/15 A2959 RMK AC1CI4 SLP017

CYXE;2008-08-25 19:00;CYXE 251900Z 19009KT 15SM BKN300 30/13 A2956 RMK CI6 SLP009

CYXE;2008-08-25 20:00;CYXE 252000Z 19010KT 15SM BKN300 31/11 A2956 RMK CI6 SLP007

CYXE;2008-08-25 21:00;CYXE 252100Z 22008KT 15SM BKN300 34/13 A2954 RMK CI5 SLP995

CYXE;2008-08-25 22:00;CYXE 252200Z 26009KT 15SM BKN280 33/13 A2951 RMK CI6 SLP988

CYXE;2008-08-25 23:00;CYXE 252300Z 27008KT 15SM SCT130 BKN280 34/09 A2950 RMK AC2CI2 SLP984

CYXE;2008-08-26 00:00;CYXE 260000Z CCA 32009KT 15SM FEW110 OVC280 32/10 A2949 RMK AC2CI2 SLP982

CYXE;2008-08-26 01:00;CYXE 260100Z 01006KT 15SM FEW110 BKN280 28/11 A2949 RMK AC2CI2 SLP982

CYXE;2008-08-26 02:00;CYXE 260200Z 01006KT 10SM FEW110 BKN280 23/11 A2949 RMK AC2CI2 DU SLP981

CYXE;2008-08-26 03:00;CYXE 260300Z 33009KT 15SM SCT100 BKN280 22/12 A2950 RMK AC3CI2 SLP990

CYXE;2008-08-26 04:00;CYXE 260400Z 35010KT 15SM SCT100 BKN280 23/13 A2950 RMK AC3CI1 SLP992

CYXE;2008-08-26 05:00;CYXE 260500Z 36011KT 15SM FEW100 SCT280 21/14 A2948 RMK AC1CI2 SLP985

CYXE;2008-08-26 06:00;CYXE 260600Z 04015KT 15SM FEW120 SCT300 22/15 A2947 RMK AC1CI1 SLP976

CYXE;2008-08-26 07:00;CYXE 260700Z 32012KT 15SM FEW120 SCT300 20/15 A2950 RMK AC1CI1 SLP987

CYXE;2008-08-26 08:00;CYXE 260800Z CCA 35010KT 15SM BKN120 19/15 A2950 RMK AC6 LTNG DIST S SLP988

CYXE;2008-08-26 09:00;CYXE 260900Z 31011KT 15SM VCSH SCT050CB BKN120 19/15 A2952 RMK CB3AC3 LTGICCG S-SW SLP991

CYXE;2008-08-26 09:03;CYXE 260903Z 31010KT 15SM -TSRA SCT050CB BKN120 19/ RMK CB4AC2 LTGICCG

CYXE;2008-08-26 09:30;CYXE 260930Z 33010KT 15SM VCSH SCT050CB BKN120 18/ RETS RMK CB3AC3 LTNG NE

CYXE;2008-08-26 09:48;CYXE 260948Z 33012KT 15SM TS VCSH BKN052CB BKN120 18/ RMK CB5AC2 LTGIC

CYXE;2008-08-26 10:00;CYXE 261000Z 01014KT 15SM -TSRA BKN052CB BKN120 18/15 A2946 RMK CB5AC2 LTGIC PRESFR SLP971

CYXE;2008-08-26 10:36;CYXE 261036Z 04024G30KT 15SM -SHRA BKN050CB OVC120 18/ RETS RMK CB5AC2

CYXE;2008-08-26 11:00;CYXE 261100Z 03021KT 15SM -SHRA BKN050CB OVC120 18/13 A2937 RETS RMK CB6AC2 PRESFR LTGIC SE-SW SLP942

CYXE;2008-08-26 12:00;CYXE 261200Z 35008KT 15SM -SHRA BKN050CB BKN120 16/12 A2945 RMK CB5AC2 PRESRR LTNG SE + NW SLP969

CYXE;2008-08-26 12:32;CYXE 261232Z 35008KT 15SM SCT050CB BKN120 BKN300 16/ RMK CB3AC1CI2

CYXE;2008-08-26 13:00;CYXE 261300Z 35011KT 15SM SCT040CB BKN120 BKN300 16/11 A2946 RMK CB3AC1CI1 LTNG W SLP971

CYXE;2008-08-26 14:00;CYXE 261400Z 34015KT 15SM SCT040TCU BKN120 BKN300 17/11 A2944 RMK TCU3AC2CI1 CB ASOCTD SLP967

CYXE;2008-08-26 15:00;CYXE 261500Z 35017G22KT 15SM FEW040 BKN120 BKN300 18/11 A2944 RMK SC2AC3CI0 SLP971

CYXE;2008-08-26 16:00;CYXE 261600Z 34019KT 15SM FEW040 SCT070 BKN120 OVC300 18/11 A2942 RMK SC2AC2AC2CI2 SLP963

CYXE;2008-08-26 17:00;CYXE 261700Z 36012G17KT 15SM FEW030 SCT046 BKN080 OVC160 17/11 A2940 RMK SC2SC2AC3AC2 SLP957

CYXE;2008-08-26 18:00;CYXE 261800Z 32016KT 15SM -SHRA FEW015 BKN034 OVC160 15/12 A2943 RMK SC1SC6AC1 SLP968

CYXE;2008-08-26 19:00;CYXE 261900Z 33018G24KT 15SM -SHRA FEW016 BKN036 BKN080 OVC120 14/11 A2944 RMK SC2SC4AC2AC1 SLP971

CYXE;2008-08-26 19:02;CYXE 261902Z 34019G26KT 3SM SHRA FEW015 BKN034 OVC160 13/ RMK SC2SC5AC2

CYXE;2008-08-26 19:37;CYXE 261937Z 28017G25KT 15SM -SHRA BKN011 OVC027 12/ RERA RMK SC7SC1 CVCTV CLD EMBD

CYXE;2008-08-26 19:46;CYXE 261946Z 30014G22KT 2SM +SHRA BR OVC011 12/ RMK SC8 CVCTV CLD EMBD

CYXE;2008-08-26 20:00;CYXE 262000Z 30014KT 3SM -SHRA BR BKN013 OVC038 12/12 A2952 RERA RMK SF7SC1 CVCTV CLD EMBD SLP999

CYXE;2008-08-26 20:19;CYXE 262019Z 31015KT 6SM -SHRA BR SCT008 OVC016 12/ RMK SF4SC4

CYXE;2008-08-26 20:28;CYXE 262028Z 32017KT 6SM -SHRA BR BKN008 OVC016 12/ RMK SF6SC2

CYXE;2008-08-26 20:51;CYXE 262051Z 35019G25KT 6SM -SHRA BR SCT008 OVC016 11/ RMK SC3SC5

CYXE;2008-08-26 21:00;CYXE 262100Z 35018G25KT 8SM -SHRA SCT008 OVC016 11/11 A2946 RMK SC3SC5 SLP982

CYXE;2008-08-26 21:46;CYXE 262146Z 34019G25KT 8SM -SHRA BKN011 OVC040 11/ RMK SF6SC2 BR

CYXE;2008-08-26 22:00;CYXE 262200Z 33015KT 8SM -SHRA BKN011 OVC040 11/11 A2949 RMK SF6SC2 BR SLP992

CYXE;2008-08-26 22:42;CYXE 262242Z 32016KT 15SM BKN011 OVC036 10/ RMK SC6SC2

CYXE;2008-08-26 22:53;CYXE 262253Z 32013KT 10SM -SHRA BKN011 BKN032 OVC090 11/ RMK SC6SC1AC1

CYXE;2008-08-26 23:00;CYXE 262300Z 31014KT 4SM -SHRA BKN011 OVC032 10/10 A2952 RMK SC6SC2 SLP002

CYXE;2008-08-26 23:21;CYXE 262321Z 30016G21KT 3SM -SHRA BR OVC009 10/ RMK SF8

CYXE;2008-08-26 23:31;CYXE 262331Z 31016KT 2SM -RA BR OVC012 10/ RMK SF8

CYXE;2008-08-26 23:42;CYXE 262342Z 31015KT 1 1/2SM RA BR OVC012 10/ RMK SF8

CYXE;2008-08-27 00:00;CYXE 270000Z 31017G22KT 2SM -RA BR OVC012 10/10 A2955 RERA RMK SF8 SLP016

CYXE;2008-08-27 00:05;CYXE 270005Z 30015G21KT 3SM -RA BR OVC014 10/ RMK SF8

CYXE;2008-08-27 01:00;CYXE 270100Z 30017G24KT 8SM -RA BKN017 OVC034 10/10 A2959 RMK SF6SC2 BR SLP028

CYXE;2008-08-27 02:00;CYXE 270200Z 30013G18KT 4SM -RA BR OVC021 10/10 A2963 RMK SF8 SLP040

CYXE;2008-08-27 03:00;CYXE 270300Z 32012G18KT 8SM -RA SCT014 OVC030 09/09 A2966 RMK SF4SC4 BR SLP052

CYXE;2008-08-27 04:00;CYXE 270400Z 26006KT 15SM -RA SCT046 09/09 A2964 RMK SC4 SLP047

CYXE;2008-08-27 04:17;CYXE 270417Z 25007KT 15SM FEW046 09/ RMK SC2

CYXE;2008-08-27 05:00;CYXE 270500Z 25008KT 15SM FEW045 09/09 A2963 RMK SC2 SLP043

CYXE;2008-08-27 06:00;CYXE 270600Z 26010KT 15SM FEW040 09/09 A2963 RMK SC1 SLP045

CYXE;2008-08-27 07:00;CYXE 270700Z 25008KT 15SM FEW040 08/08 A2963 RMK SC1 SLP045

CYXE;2008-08-27 08:00;CYXE 270800Z 24008KT 15SM FEW040 07/07 A2963 RMK SC2 SLP043

CYXE;2008-08-27 09:00;CYXE 270900Z 24008KT 15SM FEW040 06/06 A2962 RMK SC1 SLP045

CYXE;2008-08-27 10:00;CYXE 271000Z 25006KT 15SM FEW040 05/05 A2961 RMK SC1 SLP043

CYXE;2008-08-27 11:00;CYXE 271100Z 24007KT 15SM FEW040 05/05 A2961 RMK SC1 SLP042

CYXE;2008-08-27 12:00;CYXE 271200Z 24007KT 15SM FEW100 06/06 A2961 RMK AC1 OBS TAKEN +05 SLP043

CYXE;2008-08-27 13:00;CYXE 271300Z 23007KT 15SM SCT300 06/06 A2961 RMK CI1 SLP042

CYXE;2008-08-27 14:00;CYXE 271400Z 25007KT 15SM BKN300 09/08 A2960 RMK CI2 SLP040

CYXE;2008-08-27 15:00;CYXE 271500Z 24009KT 15SM FEW120 FEW300 11/09 A2960 RMK AC1CI1 SLP036

CYXE;2008-08-27 16:00;CYXE 271600Z 23007KT 15SM FEW120 BKN300 13/10 A2959 RMK AC1CI2 SLP034

CYXE;2008-08-27 17:00;CYXE 271700Z 24006KT 15SM FEW100 BKN300 16/10 A2959 RMK AC1CI2 ACC ASOCTD SLP032

CYXE;2008-08-27 18:00;CYXE 271800Z 20007KT 15SM SCT100 BKN300 18/10 A2958 RMK AC3CI2 ACC ASOCTD SLP025

CYXE;2008-08-27 19:00;CYXE 271900Z 22009KT 15SM FEW040 BKN096 OVC280 18/08 A2958 RMK CU2AC3CI2 ACC ASOCTD SLP025

CYXE;2008-08-27 20:00;CYXE 272000Z 24011KT 15SM FEW040 BKN095 OVC280 18/08 A2959 RMK CU2AC4CI2 SH NW VIRGA S TCU EMBD N SLP028

CYXE;2008-08-27 21:00;CYXE 272100Z 26010KT 15SM FEW056TCU BKN110 OVC280 18/04 A2958 RMK TCU2AC4CI2 SHRA SW SLP027

CYXE;2008-08-27 22:00;CYXE 272200Z 26008KT 15SM FEW056CB SCT060TCU BKN110 OVC280 18/06 A2958 RMK CB1TCU2AC2CI2 CB SH SSW SLP028

CYXE;2008-08-27 23:00;CYXE 272300Z 21005KT 15SM FEW060 BKN084TCU BKN280 17/05 A2958 RMK SC2TCU5CI0 SLP028

CYXE;2008-08-28 00:00;CYXE 280000Z 25007KT 15SM BKN070TCU BKN280 18/06 A2959 RMK TCU5CI1 SLP031

CYXE;2008-08-28 01:00;CYXE 280100Z 23004KT 15SM BKN070TCU BKN280 16/09 A2960 RMK TCU5CI0 SLP035

CYXE;2008-08-28 02:00;CYXE 280200Z CCA 27016G21KT 15SM FEW070 BKN120 BKN280 14/06 A2963 RMK AC2AC3CI0 SHWRS S-SW SLP045

CYXE;2008-08-28 03:00;CYXE 280300Z 23007KT 15SM BKN120 BKN280 13/06 A2964 RMK AC5CI0 SLP048

CYXE;2008-08-28 04:00;CYXE 280400Z 25004KT 15SM SCT120 09/07 A2966 RMK AC4 SLP056

CYXE;2008-08-28 05:00;CYXE 280500Z 27007KT 15SM FEW120 07/06 A2968 RMK AC2 SLP060

CYXE;2008-08-28 06:00;CYXE 280600Z 26007KT 15SM SKC 07/06 A2969 RMK SLP066

CYXE;2008-08-28 07:00;CYXE 280700Z 27007KT 15SM FEW120 06/06 A2970 RMK AC2 SLP069

CYXE;2008-08-28 08:00;CYXE 280800Z 27006KT 15SM FEW120 06/05 A2971 RMK AC2 SLP071

CYXE;2008-08-28 09:00;CYXE 280900Z 25006KT 15SM FEW120 05/05 A2971 RMK AC2 SLP073

CYXE;2008-08-28 10:00;CYXE 281000Z 24008KT 15SM FEW085 SCT250 06/05 A2971 RMK AC2CI1 SLP073

CYXE;2008-08-28 11:00;CYXE 281100Z 24007KT 15SM FEW075 SCT250 06/06 A2972 RMK AC2CI0 SLP075

CYXE;2008-08-28 12:00;CYXE 281200Z 23008KT 15SM FEW075 SCT250 06/06 A2973 RMK AC2CI1 SLP079

CYXE;2008-08-28 13:00;CYXE 281300Z 23007KT 15SM FEW075 06/06 A2974 RMK AC2 SLP082

CYXE;2008-08-28 14:00;CYXE 281400Z 25006KT 15SM FEW080 FEW250 09/08 A2975 RMK AC1CI0 SLP084

CYXE;2008-08-28 15:00;CYXE 281500Z 26006KT 15SM FEW250 11/08 A2975 RMK CI0 SLP086

CYXE;2008-08-28 16:00;CYXE 281600Z 25006KT 15SM FEW250 14/08 A2974 RMK CI0 SLP084

CYXE;2008-08-28 17:00;CYXE 281700Z 24007KT 15SM FEW110 FEW250 17/08 A2974 RMK AC1CI0 SLP082

CYXE;2008-08-28 18:00;CYXE 281800Z 26008KT 15SM FEW045 SCT110 BKN250 19/08 A2972 RMK CU1AC2CI2 SLP075

CYXE;2008-08-28 19:00;CYXE 281900Z 25011KT 15SM FEW055 SCT110 BKN250 20/07 A2972 RMK CU2AC1CI1 SLP073

CYXE;2008-08-28 20:00;CYXE 282000Z 25013KT 15SM SCT064 SCT072 OVC250 21/06 A2970 RMK CU3AC1CI1 TCU ASOCTD SHRA DIST W-NW SLP068

CYXE;2008-08-28 21:00;CYXE 282100Z 24015KT 15SM SCT070TCU BKN080 OVC250 21/06 A2968 RMK TCU4AC2CI1 SHRA NW-N SLP059

CYXE;2008-08-28 22:00;CYXE 282200Z 25012G18KT 15SM BKN073TCU BKN095 OVC250 20/06 A2966 RMK TCU5AC2CI1 SHRA W-N LTGCG W PST HR SLP055

CYXE;2008-08-28 22:10;CYXE 282210Z 27018G24KT 15SM TS BKN075CB BKN095 OVC250 19/ RMK CB5AC2CI1

CYXE;2008-08-28 22:15;CYXE 282215Z 28022G28KT 15SM -TSRA BKN070CB OVC091 18/ RMK CB6AC2

CYXE;2008-08-28 22:41;CYXE 282241Z 22008G16KT 15SM -SHRA FEW028 BKN070CB OVC090 15/ RMK SF2CB5AC2 RETS

CYXE;2008-08-28 23:00;CYXE 282300Z 21006KT 15SM VCSH BKN030 OVC090 16/09 A2968 RETS RMK SC5AC3 CB EMBD E SLP059

CYXE;2008-08-29 00:00;CYXE 290000Z 35010G15KT 15SM VCSH BKN040 BKN090 15/09 A2969 RMK SC6AC2 CB EMBD SH N-E SLP067

CYXE;2008-08-29 01:00;CYXE 290100Z 35006KT 15SM SCT065 SCT090 BKN250 15/11 A2970 RMK AC3AC1CI1 SLP069

CYXE;2008-08-29 02:00;CYXE 290200Z 28003KT 15SM FEW065 FEW090 13/10 A2970 RMK SC1AC1 SLP071

CYXE;2008-08-29 03:00;CYXE 290300Z 28005KT 15SM FEW060 FEW090 FEW280 10/09 A2973 RMK SC1AC1CI0 SLP082

CYXE;2008-08-29 04:00;CYXE 290400Z 27007KT 15SM FEW120 08/07 A2976 RMK AC1 SLP089

CYXE;2008-08-29 05:00;CYXE 290500Z 26007KT 15SM SKC 07/06 A2977 RMK SLP092

CYXE;2008-08-29 06:00;CYXE 290600Z 26008KT 15SM SKC 07/06 A2978 RMK SLP094

CYXE;2008-08-29 07:00;CYXE 290700Z 26009KT 15SM SKC 07/07 A2978 RMK SLP096

CYXE;2008-08-29 08:00;CYXE 290800Z 27009KT 15SM SKC 08/07 A2980 RMK SLP101

CYXE;2008-08-29 09:00;CYXE 290900Z 26007KT 15SM SKC 06/06 A2981 RMK SLP104

CYXE;2008-08-29 10:00;CYXE 291000Z 27008KT 15SM SKC 06/06 A2981 RMK SLP105

CYXE;2008-08-29 11:00;CYXE 291100Z 27007KT 15SM SKC 06/05 A2982 RMK SLP108

CYXE;2008-08-29 12:00;CYXE 291200Z 25007KT 15SM FEW300 05/05 A2984 RMK CI1 SLP120

CYXE;2008-08-29 13:00;CYXE 291300Z 25006KT 15SM FEW120 05/05 A2985 RMK AC2 SLP122

CYXE;2008-08-29 14:00;CYXE 291400Z 26005KT 15SM FEW120 09/08 A2986 RMK AC2 SLP125

CYXE;2008-08-29 15:00;CYXE 291500Z 25005KT 15SM FEW120 11/09 A2986 RMK AC2 SLP125

CYXE;2008-08-29 16:00;CYXE 291600Z 26006KT 15SM FEW120 SCT250 16/09 A2986 RMK AC2CI0 SLP126

CYXE;2008-08-29 17:00;CYXE 291700Z 24006KT 15SM FEW120 FEW250 18/09 A2986 RMK AC1CI0 SLP125

CYXE;2008-08-29 18:00;CYXE 291800Z 25007KT 15SM FEW120 FEW250 21/07 A2985 RMK AC1CI0 SLP116

CYXE;2008-08-29 19:00;CYXE 291900Z 22005KT 15SM FEW060 FEW120 SCT250 22/06 A2983 RMK CU1AC2CI1 SLP110

CYXE;2008-08-29 20:00;CYXE 292000Z 25006G16KT 15SM FEW065 BKN085 BKN250 22/05 A2981 RMK CU1AC4CI1 SLP105

CYXE;2008-08-29 21:00;CYXE 292100Z 19009KT 15SM FEW068 FEW100 FEW250 23/06 A2979 RMK CU1AC1CI1 SLP096

CYXE;2008-08-29 22:00;CYXE 292200Z 19010G16KT 15SM FEW068 FEW250 23/05 A2976 RMK CU1CI1 SLP087

CYXE;2008-08-29 23:00;CYXE 292300Z 19009KT 15SM FEW070 FEW250 23/05 A2973 RMK CU1CI1 SLP077

CYXE;2008-08-30 00:00;CYXE 300000Z 18009KT 15SM FEW072 FEW250 23/05 A2970 RMK CU1CI1 SLP067

CYXE;2008-08-30 01:00;CYXE 300100Z 15007KT 15SM FEW085 FEW250 22/06 A2968 RMK AC1CI1 SLP058

CYXE;2008-08-30 02:00;CYXE 300200Z 13007KT 15SM SCT085 SCT280 19/06 A2965 RMK AC2CI0 SLP051

CYXE;2008-08-30 03:00;CYXE 300300Z 14007KT 15SM FEW085 FEW280 18/07 A2964 RMK AC2CI0 SLP046

CYXE;2008-08-30 04:00;CYXE 300400Z 15007KT 15SM FEW085 17/08 A2962 RMK AC2 SLP039

CYXE;2008-08-30 05:00;CYXE 300500Z 15008KT 15SM SKC 17/07 A2960 RMK SLP031

CYXE;2008-08-30 06:00;CYXE 300600Z 14006KT 15SM SKC 15/08 A2957 RMK SLP017

CYXE;2008-08-30 07:00;CYXE 300700Z 15008KT 15SM SKC 15/08 A2955 RMK SLP009

CYXE;2008-08-30 08:00;CYXE 300800Z 15008KT 15SM SKC 15/08 A2951 RMK SLP999

CYXE;2008-08-30 09:00;CYXE 300900Z 18009KT 15SM SKC 15/09 A2949 RMK SLP990

CYXE;2008-08-30 10:00;CYXE 301000Z 19009KT 15SM FEW060 14/09 A2948 RMK SC1 SLP986

CYXE;2008-08-30 11:00;CYXE 301100Z 19009KT 15SM FEW080 14/10 A2946 RMK AC2 SLP980

CYXE;2008-08-30 12:00;CYXE 301200Z 22010KT 15SM FEW080 14/09 A2947 RMK AC2 SLP984

CYXE;2008-08-30 13:00;CYXE 301300Z 23007KT 15SM FEW080 12/09 A2949 RMK AC1 SLP988

CYXE;2008-08-30 14:00;CYXE 301400Z 26010KT 15SM FEW080 14/10 A2952 RMK AC1 SLP999

CYXE;2008-08-30 15:00;CYXE 301500Z 30017KT 15SM FEW100 17/10 A2953 RMK AC1 SLP005

CYXE;2008-08-30 16:00;CYXE 301600Z 29015G20KT 15SM FEW100 18/11 A2955 RMK AC1 SLP012

CYXE;2008-08-30 17:00;CYXE 301700Z 30014G20KT 15SM FEW120 FEW250 19/11 A2957 RMK AC1CI0 SLP018

CYXE;2008-08-30 18:00;CYXE 301800Z 31014G19KT 15SM FEW100 FEW230 18/11 A2959 RMK AC1CI0 SLP026

CYXE;2008-08-30 19:00;CYXE 301900Z 32018KT 15SM FEW100 FEW250 20/09 A2960 RMK AC1CI1 SLP028

CYXE;2008-08-30 20:00;CYXE 302000Z 31014KT 15SM FEW280 20/08 A2962 RMK CI0 SLP036

CYXE;2008-08-30 21:00;CYXE 302100Z 30015KT 15SM FEW120 FEW280 21/07 A2964 RMK AC1CI0 SLP041

CYXE;2008-08-30 22:00;CYXE 302200Z 31014G21KT 15SM FEW120 FEW280 22/06 A2965 RMK AC1CI0 SLP044

CYXE;2008-08-30 23:00;CYXE 302300Z 32011G20KT 15SM FEW120 FEW280 21/05 A2966 RMK AC1CI0 SLP049

CYXE;2008-08-31 00:00;CYXE 310000Z 31011G17KT 15SM FEW120 BKN280 19/05 A2969 RMK AC2CI1 SLP060

CYXE;2008-08-31 01:00;CYXE 310100Z 34010KT 15SM FEW120 BKN280 17/05 A2971 RMK AC2CI1 ACC ASOCTD SLP066

CYXE;2008-08-31 02:00;CYXE 310200Z 33006KT 15SM SCT120 BKN280 14/05 A2973 RMK AC2CI2 ACC ASOCTD SLP073

CYXE;2008-08-31 03:00;CYXE 310300Z 33006KT 15SM BKN110 BKN280 12/05 A2975 RMK AC5CI1 SLP083

CYXE;2008-08-31 04:00;CYXE 310400Z 29007KT 15SM SCT110 BKN280 10/05 A2979 RMK AC3CI1 SLP095

CYXE;2008-08-31 05:00;CYXE 310500Z 31008KT 15SM FEW110 08/05 A2979 RMK AC2 SLP095

CYXE;2008-08-31 06:00;CYXE 310600Z 32006KT 15SM FEW110 06/05 A2980 RMK AC1 SLP103

CYXE;2008-08-31 07:00;CYXE 310700Z 34008KT 15SM SKC 05/04 A2980 RMK SLP102

CYXE;2008-08-31 08:00;CYXE 310800Z 32008KT 15SM SKC 04/04 A2982 RMK SLP109

CYXE;2008-08-31 09:00;CYXE 310900Z 33002KT 15SM SKC 05/04 A2983 RMK SLP113

CYXE;2008-08-31 10:00;CYXE 311000Z 36003KT 15SM SKC 03/03 A2985 RMK SLP119

CYXE;2008-08-31 10:35;CYXE 311035Z 03006KT 15SM FEW005 04/ RMK SF1

CYXE;2008-08-31 11:00;CYXE 311100Z 04008KT 15SM FEW004 FEW090 07/07 A2984 RMK SF1AC1 SLP115

CYXE;2008-08-31 12:00;CYXE 311200Z 02007KT 15SM SCT004 BKN090 BKN280 07/07 A2987 RMK SF2AC2CI0 SLP125

CYXE;2008-08-31 12:17;CYXE 311217Z 03004KT 15SM FEW006 BKN014 BKN090 BKN280 07/ RMK SF2SC3AC1CI0

CYXE;2008-08-31 12:25;CYXE 311225Z 03004KT 15SM BKN008 BKN014 BKN280 07/ RMK SF5SC2CI0

CYXE;2008-08-31 12:48;CYXE 311248Z 03008KT 15SM FEW003 SCT008 BKN014 08/ RMK SF2SF2SC3

CYXE;2008-08-31 13:00;CYXE 311300Z 03009KT 15SM FEW003 SCT008 BKN014 08/08 A2987 RMK SF2SF2SC3 SLP127

CYXE;2008-08-31 14:00;CYXE 311400Z 03012KT 15SM FEW007 BKN010 09/08 A2988 RMK SF1SC6 SLP129

CYXE;2008-08-31 14:22;CYXE 311422Z 03012KT 15SM BKN007 OVC013 09/ RMK SF5SC2

CYXE;2008-08-31 15:00;CYXE 311500Z 04012KT 15SM OVC007 10/09 A2990 RMK ST8 SLP139

CYXE;2008-08-31 15:30;CYXE 311530Z 05010G15KT 15SM OVC010 10/ RMK ST8

CYXE;2008-08-31 16:00;CYXE 311600Z 05011KT 15SM OVC010 10/09 A2993 RMK ST8 SLP148

CYXE;2008-08-31 17:00;CYXE 311700Z 07011KT 15SM OVC012 10/09 A2993 RMK SC8 SLP147

CYXE;2008-08-31 18:00;CYXE 311800Z 06007KT 15SM BKN012 OVC100 10/09 A2993 RMK SC7AC1 SLP153

CYXE;2008-08-31 18:33;CYXE 311833Z 03009KT 15SM SCT015 OVC040 11/ RMK SC3SC5

CYXE;2008-08-31 19:00;CYXE 311900Z 02008KT 15SM FEW015 OVC040 11/09 A2992 RMK SC1SC7 SLP150

CYXE;2008-08-31 20:00;CYXE 312000Z 02012KT 15SM FEW015 OVC100 12/08 A2990 RMK SC2AC6 SLP144

CYXE;2008-08-31 21:00;CYXE 312100Z 04010KT 15SM FEW040 OVC110 12/07 A2991 RMK SC2AS6 SLP146

CYXE;2008-08-31 22:00;CYXE 312200Z 02011KT 15SM BKN027 OVC090 12/06 A2992 RMK SC5AS3 SLP149

CYXE;2008-08-31 23:00;CYXE 312300Z 02011KT 15SM FEW025 BKN040 OVC085 12/07 A2992 RMK SC2SC3AS3 SLP147

CYXE;2008-09-01 01:00;CYXE 010100Z 36009KT 15SM OVC090 11/05 A2992 RMK AC8 SLP147

CYXE;2008-09-01 02:00;CYXE 010200Z 01005KT 15SM BKN068 OVC095 10/05 A2992 RMK AC6AC2 SLP148

CYXE;2008-09-01 03:00;CYXE 010300Z 02005KT 15SM BKN065 BKN085 09/06 A2992 RMK SC6AC2 SLP148

CYXE;2008-09-01 04:00;CYXE 010400Z 32003KT 15SM OVC085 09/06 A2994 RMK AC8 SLP154

CYXE;2008-09-01 05:00;CYXE 010500Z 33005KT 15SM OVC085 09/06 A2995 RMK AC8 SLP158

CYXE;2008-09-01 06:00;CYXE 010600Z 34006KT 15SM OVC085 09/06 A2997 RMK AC8 SLP163

CYXE;2008-09-01 07:00;CYXE 010700Z 01004KT 15SM OVC085 08/05 A2996 RMK AC8 SLP162

CYXE;2008-09-01 08:00;CYXE 010800Z 36006KT 15SM OVC085 09/05 A2997 RMK AC8 SLP163

CYXE;2008-09-01 09:00;CYXE 010900Z 01007KT 15SM OVC089 09/05 A2995 RMK AC8 SLP154

CYXE;2008-09-01 10:00;CYXE 011000Z 01007KT 15SM OVC089 09/05 A2995 RMK AC8 SLP157

CYXE;2008-09-01 11:00;CYXE 011100Z 04004KT 15SM OVC090 09/05 A2995 RMK AC8 SLP154

CYXE;2008-09-01 12:00;CYXE 011200Z 02004KT 15SM OVC090 08/06 A2996 RMK AC8 OBS TAKEN +05 SLP159

CYXE;2008-09-01 13:00;CYXE 011300Z 34005KT 15SM OVC095 08/06 A2998 RMK AC8 SLP165

CYXE;2008-09-01 14:00;CYXE 011400Z 30003KT 15SM OVC100 09/07 A3000 RMK AC8 SLP172

CYXE;2008-09-01 15:00;CYXE 011500Z 36004KT 15SM OVC100 10/06 A3000 RMK AC8 SLP174

CYXE;2008-09-01 16:00;CYXE 011600Z 03005KT 15SM OVC090 11/07 A2999 RMK AC8 SLP172

CYXE;2008-09-01 17:00;CYXE 011700Z 01007KT 15SM OVC080 11/07 A2999 RMK AC8 SLP171

CYXE;2008-09-01 18:00;CYXE 011800Z 03007KT 15SM OVC094 13/08 A2998 RMK AS8 SLP167

CYXE;2008-09-01 19:00;CYXE 011900Z 04009KT 15SM OVC090 13/06 A3000 RMK AC8 SLP172

CYXE;2008-09-01 20:00;CYXE 012000Z 04008KT 15SM FEW030 OVC100 14/06 A3000 RMK SC2AS6 SLP173

CYXE;2008-09-01 21:00;CYXE 012100Z 05009KT 15SM SCT040 OVC100 15/06 A3000 RMK CU3AS5 SLP173

CYXE;2008-09-01 22:00;CYXE 012200Z 01007KT 15SM FEW041 OVC100 14/06 A3000 RMK CU2AS6 SLP172

CYXE;2008-09-01 23:00;CYXE 012300Z 36010KT 15SM FEW050 OVC100 14/05 A3001 RMK CU2AS6 SLP175

CYXE;2008-09-02 00:00;CYXE 020000Z 36006KT 15SM FEW048 OVC100 13/05 A3002 RMK CU1AS7 SLP180

CYXE;2008-09-02 01:00;CYXE 020100Z 34004KT 15SM FEW045 OVC100 12/06 A3004 RMK SC2AS6 SLP187

CYXE;2008-09-02 02:00;CYXE 020200Z 36005KT 15SM FEW045 OVC090 10/06 A3005 RMK SC2AS6 SLP189

CYXE;2008-09-02 03:00;CYXE 020300Z 01004KT 15SM OVC068 11/06 A3006 RMK AS8 SLP195

CYXE;2008-09-02 04:00;CYXE 020400Z 00000KT 15SM SCT063 BKN100 10/06 A3007 RMK SC4AS3 SLP198

CYXE;2008-09-02 05:00;CYXE 020500Z 29004KT 15SM FEW040 OVC079 09/07 A3008 RMK SF1AS7 SLP201

CYXE;2008-09-02 06:00;CYXE 020600Z 31004KT 15SM OVC096 08/07 A3008 RMK AC8 SLP201

CYXE;2008-09-02 07:00;CYXE 020700Z 30005KT 15SM OVC090 08/06 A3009 RMK AC8 SLP204

CYXE;2008-09-02 08:00;CYXE 020800Z 32005KT 15SM OVC110 07/06 A3010 RMK AC8 SLP206

CYXE;2008-09-02 09:00;CYXE 020900Z 31004KT 15SM OVC110 07/06 A3010 RMK AC8 SLP206

CYXE;2008-09-02 10:00;CYXE 021000Z 30005KT 15SM OVC110 07/06 A3009 RMK AC8 SLP205

CYXE;2008-09-02 11:00;CYXE 021100Z 29004KT 15SM OVC110 06/06 A3009 RMK AC8 SLP203

CYXE;2008-09-02 12:00;CYXE 021200Z 27003KT 15SM SCT080 BKN110 OVC270 05/04 A3009 RMK AC3AC2CI0 SLP207

CYXE;2008-09-02 13:00;CYXE 021300Z 27004KT 15SM SCT050 BKN090 OVC270 05/05 A3010 RMK SC3AC2CI0 SLP209

CYXE;2008-09-02 14:00;CYXE 021400Z 27005KT 15SM BKN064 BKN090 BKN250 08/08 A3012 RMK SC5AC2CI0 SLP214

CYXE;2008-09-02 15:00;CYXE 021500Z 27006KT 15SM BKN055 BKN088 BKN250 09/08 A3012 RMK SC5AC1CI0 TCU EMBED SHWRS SW SLP215

CYXE;2008-09-02 16:00;CYXE 021600Z 27008KT 15SM BKN055TCU BKN090 BKN250 12/08 A3012 RMK TCU6AC1CI0 SHWRS S SLP216

CYXE;2008-09-02 16:50;CYXE 021650Z 31009KT 15SM -SHRA FEW015 BKN055TCU BKN090 BKN250 12/ RMK SF1TCU5AC1CI0

CYXE;2008-09-02 17:00;CYXE 021700Z 31008KT 15SM -SHRA FEW015 BKN055TCU BKN090 BKN250 11/09 A3014 RMK SF1TCU6AC1CI0 SLP221

CYXE;2008-09-02 17:39;CYXE 021739Z 27006KT 15SM FEW013 BKN070TCU BKN250 12/ RMK SF1TCU6CI0

CYXE;2008-09-02 18:00;CYXE 021800Z 25006KT 15SM FEW020 BKN075TCU BKN250 12/10 A3013 RMK SF1TCU5CI0 SLP217

CYXE;2008-09-02 19:00;CYXE 021900Z 26007KT 15SM FEW030TCU SCT090 BKN250 15/08 A3012 RMK TCU2AC2CI0 CB TOP W SLP213

CYXE;2008-09-02 20:00;CYXE 022000Z 32009KT 15SM FEW055TCU SCT090 SCT250 17/04 A3010 RMK TCU2AC2CI0 SLP209

CYXE;2008-09-02 21:00;CYXE 022100Z 28011KT 15SM FEW055TCU SCT090 BKN250 18/05 A3010 RMK TCU2AC2CI0 SLP204

CYXE;2008-09-02 22:00;CYXE 022200Z 27009KT 15SM SCT055TCU BKN088 BKN250 18/05 A3009 RMK TCU4AC2CI0 SLP201

CYXE;2008-09-02 23:00;CYXE 022300Z 06007KT 15SM VCSH SCT060CB BKN090 BKN300 17/05 A3008 RMK CB4AC1CI1 SLP200

CYXE;2008-09-03 00:00;CYXE 030000Z 27008KT 15SM VCSH SCT065CB BKN090 BKN250 18/04 A3008 RMK CB3AC2CI0 SLP200

CYXE;2008-09-03 01:00;CYXE 030100Z 05004KT 15SM SCT060TCU BKN250 16/06 A3008 RMK TCU4CI0 SLP201

CYXE;2008-09-03 02:00;CYXE 030200Z CCA 24007KT 15SM VCSH BKN060TCU BKN100 14/07 A3009 RMK TCU5AC1 SLP203

CYXE;2008-09-03 03:00;CYXE 030300Z 21006KT 15SM SCT070 12/06 A3010 RMK ACC4 SLP206

CYXE;2008-09-03 04:00;CYXE 030400Z 19006KT 15SM FEW070 10/07 A3009 RMK AC1 SLP205

CYXE;2008-09-03 05:00;CYXE 030500Z 21008KT 15SM SKC 09/06 A3009 RMK SLP203

CYXE;2008-09-03 06:00;CYXE 030600Z 23008KT 15SM SKC 07/05 A3010 RMK SLP208

CYXE;2008-09-03 07:00;CYXE 030700Z 23007KT 15SM SKC 05/04 A3011 RMK SLP211

CYXE;2008-09-03 08:00;CYXE 030800Z 22007KT 15SM SKC 04/03 A3011 RMK SLP211

CYXE;2008-09-03 09:00;CYXE 030900Z 21005KT 15SM SKC 05/04 A3010 RMK SLP206

CYXE;2008-09-03 10:00;CYXE 031000Z 20007KT 15SM SKC 06/04 A3010 RMK SLP206

CYXE;2008-09-03 11:00;CYXE 031100Z 20005KT 15SM SKC 04/03 A3010 RMK SLP205

CYXE;2008-09-03 12:00;CYXE 031200Z 19005KT 15SM FEW100 FEW240 04/04 A3009 RMK AC1CI0 SLP203

CYXE;2008-09-03 13:00;CYXE 031300Z 19007KT 15SM FEW100 BKN240 05/04 A3009 RMK AC1CI1 SLP204

CYXE;2008-09-03 14:00;CYXE 031400Z 19006KT 15SM FEW100 OVC240 08/06 A3008 RMK AC1CI2 SLP201

CYXE;2008-09-03 15:00;CYXE 031500Z 19006KT 15SM FEW100 BKN240 10/07 A3008 RMK AC1CI2 SLP199

CYXE;2008-09-03 16:00;CYXE 031600Z 19007KT 15SM FEW100 BKN240 13/07 A3007 RMK AC1CI2 SLP195

CYXE;2008-09-03 17:00;CYXE 031700Z 19006KT 15SM FEW100 BKN240 15/08 A3006 RMK AC2CI2 SLP194

CYXE;2008-09-03 18:00;CYXE 031800Z 16005KT 15SM FEW100 BKN240 17/08 A3005 RMK AC2CI2 SLP189

CYXE;2008-09-03 19:00;CYXE 031900Z 21006KT 15SM FEW100 BKN240 19/07 A3003 RMK AC1CI2 SLP183

CYXE;2008-09-03 20:00;CYXE 032000Z 19008KT 15SM FEW057 BKN240 20/06 A3002 RMK CU2CI1 SLP178

CYXE;2008-09-03 21:00;CYXE 032100Z 18004KT 15SM SCT060 BKN250 20/04 A3000 RMK CU4CI0 SLP171

CYXE;2008-09-03 22:00;CYXE 032200Z 22006KT 15SM SCT065 BKN250 20/05 A2999 RMK CU4CI1 SLP167

CYXE;2008-09-03 22:48;CYXE 032248Z 23011KT 15SM -TSRA BKN060CB BKN160 OVC250 18/ RMK CB5AC2CI1

CYXE;2008-09-03 23:00;CYXE 032300Z CCA 23010G15KT 15SM -TSRA BKN060CB BKN160 OVC250 17/07 A2998 RMK CB5AC2CI1 SLP165

CYXE;2008-09-03 23:25;CYXE 032325Z 19008KT 15SM VCSH SCT060CB SCT120 OVC250 18/ RETS RMK CB3AC1CI2

CYXE;2008-09-04 00:00;CYXE 040000Z 03014KT 15SM VCSH BKN060CB BKN100 OVC250 16/06 A3000 RETS RMK CB5AC1CI2 CB NW SLP173

CYXE;2008-09-04 01:00;CYXE 040100Z 07011KT 15SM SCT050CB BKN100 OVC250 15/05 A3000 RMK CB3AC2CI2 CB N SLP174

CYXE;2008-09-04 02:00;CYXE 040200Z 12010KT 15SM SCT100 OVC250 14/07 A3000 RMK ACC3CI5 SLP174

CYXE;2008-09-04 03:00;CYXE 040300Z 13006KT 15SM SCT080 OVC250 14/08 A3000 RMK ACC3CI5 SLP173

CYXE;2008-09-04 04:00;CYXE 040400Z 13008KT 15SM BKN050 OVC250 13/08 A3002 RMK SC5CI3 SLP177

CYXE;2008-09-04 05:00;CYXE 040500Z 33011KT 15SM VCSH BKN050TCU OVC250 12/09 A3003 RMK TCU6CI2 SLP183

CYXE;2008-09-04 05:16;CYXE 040516Z 28008KT 15SM -SHRA BKN046TCU OVC250 12/ RMK TCU6CI2

CYXE;2008-09-04 05:29;CYXE 040529Z 25009KT 15SM -SHRA BKN014 OVC046 11/ RMK SC5SC3

CYXE;2008-09-04 06:00;CYXE 040600Z 26011KT 15SM -SHRA OVC014 11/09 A3002 RMK SC8 SLP175

CYXE;2008-09-04 06:16;CYXE 040616Z 25008KT 15SM FEW014 OVC027 11/ RMK SC2SC6

CYXE;2008-09-04 07:00;CYXE 040700Z 25007KT 15SM OVC078 11/09 A3001 RMK AC8 SLP172

CYXE;2008-09-04 08:00;CYXE 040800Z 00000KT 15SM SCT084 10/09 A3001 RMK AC4 SLP173

CYXE;2008-09-04 09:00;CYXE 040900Z 36004KT 15SM FEW084 08/08 A3000 RMK AC2 SLP170

CYXE;2008-09-04 10:00;CYXE 041000Z 35002KT 15SM FEW075 08/07 A3000 RMK AC2 SLP169

CYXE;2008-09-04 11:00;CYXE 041100Z 32004KT 15SM FEW077 07/07 A3000 RMK AC2 SLP169

CYXE;2008-09-04 12:00;CYXE 041200Z 25003KT 1SM BR SCT110 BKN250 06/06 A3000 RMK AC3CI0 SLP172

CYXE;2008-09-04 12:13;CYXE 041213Z 25003KT 3/4SM BR FEW110 BKN250 06/ RMK FG1AC2CI2 VIS S 4

CYXE;2008-09-04 12:28;CYXE 041228Z 23002KT 1SM BR FEW110 BKN250 06/ RMK FG1AC2CI2 VIS S 4

CYXE;2008-09-04 12:38;CYXE 041238Z 22004KT 4SM BR FEW110 BKN250 05/ RMK FG1AC2CI1 VIS SW-N 3/4

CYXE;2008-09-04 13:00;CYXE 041300Z 23003KT 4SM BR FEW110 BKN250 05/05 A3000 RMK AC2CI2 VIS SW-N 11/2 SLP173

CYXE;2008-09-04 14:00;CYXE 041400Z 27004KT 6SM BR FEW110 BKN250 08/08 A3001 RMK AC2CI1 ACC ASOCTD SLP176

CYXE;2008-09-04 14:28;CYXE 041428Z 27005KT 10SM SCT003 BKN120 BKN250 09/ RMK SF3AC1CI1 BR

CYXE;2008-09-04 15:00;CYXE 041500Z 27003KT 15SM FEW003 SCT085 BKN120 BKN250 10/10 A3001 RMK SF1AC3AC1CI1 ACC ASOCTD SLP176

CYXE;2008-09-04 16:00;CYXE 041600Z 28004KT 15SM BKN070 BKN120 BKN250 12/10 A3001 RMK AC5AC1CI1 SLP174

CYXE;2008-09-04 17:00;CYXE 041700Z 28002KT 15SM FEW020 SCT070 BKN250 13/09 A3001 RMK CU1AC3CI1 SLP174

CYXE;2008-09-04 18:00;CYXE 041800Z 34005KT 15SM FEW025 BKN070 BKN250 16/10 A3000 RMK CU1AC6CI0 TCU ASOCTD SLP169

CYXE;2008-09-04 19:00;CYXE 041900Z 34005KT 15SM SCT025 BKN084 BKN250 15/09 A2999 RMK CU3AC2CI1 SLP167

CYXE;2008-09-04 20:00;CYXE 042000Z 35004KT 15SM BKN036TCU BKN084 BKN250 18/09 A2997 RMK TCU5AC1CI1 SLP160

CYXE;2008-09-04 21:00;CYXE 042100Z 36008KT 15SM VCSH BKN050CB BKN090 BKN250 16/09 A2996 RMK CB5AC1CI0 SLP158

CYXE;2008-09-04 22:00;CYXE 042200Z 34006KT 15SM SCT050CB BKN090 BKN250 17/08 A2995 RMK CB4AC1CI0 SH SW N-E SLP154

CYXE;2008-09-04 23:00;CYXE 042300Z 03008KT 15SM BKN028CB BKN080 16/08 A2995 RMK CB5AC2 VIRGA SW-NW SLP155

CYXE;2008-09-05 00:00;CYXE 050000Z 33013KT 15SM VCSH BKN050CB BKN090 BKN250 15/07 A2997 RMK CB5AC2CI1 SLP163

CYXE;2008-09-05 00:30;CYXE 050030Z 36008KT 15SM -SHRA BKN050CB BKN090 13/ RMK CB6AC2

CYXE;2008-09-05 01:00;CYXE 050100Z 29005KT 15SM -SHRA BKN055CB BKN090 13/10 A2997 RERA RMK CB5AC1 SLP164

CYXE;2008-09-05 01:23;CYXE 050123Z 29005KT 15SM VCSH SCT055CB BKN090 12/ RMK CB4AC1

CYXE;2008-09-05 02:00;CYXE 050200Z 29005KT 15SM VCSH FEW060CB BKN085 10/09 A2997 RMK CB2ACC2 SLP164

CYXE;2008-09-05 03:00;CYXE 050300Z 30004KT 15SM SCT060 BKN090 09/07 A2999 RMK SC3ACC1 SLP170

CYXE;2008-09-05 04:00;CYXE 050400Z 30004KT 15SM MIFG FEW090 07/07 A2999 RMK AC1 SLP172

CYXE;2008-09-05 05:00;CYXE 050500Z 31003KT 15SM SKC 06/06 A2999 RMK BR PTCHS SLP170

CYXE;2008-09-05 06:00;CYXE 050600Z 31004KT 15SM BCFG SKC 05/05 A2999 RMK SLP170

CYXE;2008-09-05 07:00;CYXE 050700Z 32008KT 15SM SKC 03/03 A2999 RMK SLP169

CYXE;2008-09-05 08:00;CYXE 050800Z 30006KT 15SM SKC 03/03 A2999 RMK SLP169

CYXE;2008-09-05 09:00;CYXE 050900Z 28006KT 15SM BCFG SKC 02/02 A2998 RMK SLP168

CYXE;2008-09-05 10:00;CYXE 051000Z 27006KT 15SM SKC 03/03 A2998 RMK SLP167

CYXE;2008-09-05 11:00;CYXE 051100Z 27006KT 15SM SKC 02/02 A2998 RMK SLP169

CYXE;2008-09-05 11:23;CYXE 051123Z 27006KT 15SM FEW100 02/ RMK AC1

CYXE;2008-09-05 12:00;CYXE 051200Z 26002KT 15SM BCFG FEW100 FEW240 02/02 A2998 RMK AC1CI0 SLP170

CYXE;2008-09-05 13:00;CYXE 051300Z 26005KT 15SM FEW100 FEW240 02/02 A2999 RMK AC1CI0 SLP171

CYXE;2008-09-05 14:00;CYXE 051400Z 00000KT 15SM FEW080 SCT240 05/05 A2999 RMK AC2CI0 SLP173

CYXE;2008-09-05 15:00;CYXE 051500Z 27003KT 15SM FEW080 SCT240 09/08 A2999 RMK AC1CI0 TCU ASOC SW SLP171

CYXE;2008-09-05 16:00;CYXE 051600Z 29004KT 15SM FEW080 FEW240 12/08 A2999 RMK AC1CI0 CB TOP SW SLP171

CYXE;2008-09-05 17:00;CYXE 051700Z 28005KT 15SM FEW080 FEW240 14/08 A2998 RMK AC1CI0 SLP169

CYXE;2008-09-05 18:00;CYXE 051800Z 31006KT 15SM FEW063 FEW280 16/06 A2998 RMK CU2CI0 SLP165

CYXE;2008-09-05 19:00;CYXE 051900Z 32010KT 15SM BKN048TCU BKN240 16/06 A2995 RMK TCU5CI0 SLP158

CYXE;2008-09-05 20:00;CYXE 052000Z 24005KT 15SM BKN050TCU BKN280 18/05 A2994 RMK TCU5CI0 SH W+N SLP153

CYXE;2008-09-05 20:27;CYXE 052027Z 28009KT 15SM -SHRA BKN052TCU 15/ RMK TCU6

CYXE;2008-09-05 20:47;CYXE 052047Z 27013G19KT 15SM BKN054TCU 14/ RMK TCU6 SH N-SE

CYXE;2008-09-05 21:00;CYXE 052100Z 27011G16KT 15SM BKN054CB BKN280 16/07 A2995 RMK CB5CI2 VIRGA NE-SE SLP156

CYXE;2008-09-05 22:00;CYXE 052200Z 08006KT 15SM BKN056TCU BKN280 16/06 A2995 RMK TCU5CI0 CB TOP NE SLP156

CYXE;2008-09-05 23:00;CYXE 052300Z 20004KT 15SM BKN085TCU BKN280 17/06 A2993 RMK TCU5CI0 SLP152

CYXE;2008-09-06 00:00;CYXE 060000Z 00000KT 15SM SCT052TCU BKN240 15/07 A2993 RMK TCU4CI1 SLP152

CYXE;2008-09-06 01:00;CYXE 060100Z 04012KT 15SM BKN052 OVC240 13/07 A2995 RMK SC6CI2 CVCTV CLD EMBD SLP157

CYXE;2008-09-06 01:23;CYXE 060123Z 05010KT 15SM -SHRA OVC045 12/ RMK SC8 CVCTV CLD EMBD

CYXE;2008-09-06 01:33;CYXE 060133Z 32014G19KT 15SM -TSRA OVC043 11/ RMK SC8 LTGCG CB SW

CYXE;2008-09-06 01:47;CYXE 060147Z CCA 30006KT 2 1/2SM -TSRA OVC030 10/ RMK SC8 LTGCG CB EMBD CIG RAGGED

CYXE;2008-09-06 02:00;CYXE 060200Z 01004KT 3SM -SHRA OVC030 09/09 A2998 RMK SC7 CVCTV CLD EMBD CIG RAGGED SLP167

CYXE;2008-09-06 02:24;CYXE 060224Z 08005KT 12SM -SHRA OVC030 09/ RMK SC8 CIG RAGGED

CYXE;2008-09-06 03:00;CYXE 060300Z 28003KT 12SM -SHRA OVC031 09/09 A2998 RMK SC8 SLP168

CYXE;2008-09-06 04:00;CYXE 060400Z 19002KT 15SM -SHRA OVC038 09/09 A2997 RMK SC8 SLP166

CYXE;2008-09-06 05:00;CYXE 060500Z 29006KT 15SM -SHRA SCT052 OVC094 09/08 A2998 RMK SC4AC4 SLP167

CYXE;2008-09-06 05:50;CYXE 060550Z 25003KT 15SM FEW050 OVC095 08/ RMK SC2AC5

CYXE;2008-09-06 06:00;CYXE 060600Z 26004KT 15SM FEW050 BKN095 08/08 A2997 RMK SC2AC6 SLP160

CYXE;2008-09-06 07:00;CYXE 060700Z 24006KT 15SM MIFG FEW095 06/06 A2996 RMK AC2 SLP159

CYXE;2008-09-06 08:00;CYXE 060800Z 28008KT 15SM FEW065 SCT095 07/07 A2997 RMK SC2AC2 SLP160

CYXE;2008-09-06 09:00;CYXE 060900Z 36007KT 15SM BKN055 BKN085 09/08 A2996 RMK SC5AC2 SLP158

CYXE;2008-09-06 09:21;CYXE 060921Z 32008KT 15SM -SHRA BKN022 BKN080 09/ RMK SC5AC2 CVCTV CLD EMBD

CYXE;2008-09-06 09:44;CYXE 060944Z 30008KT 15SM SCT022 BKN080 07/ RMK SC2AC2

CYXE;2008-09-06 10:00;CYXE 061000Z 32006KT 15SM FEW020 FEW080 06/06 A2998 RMK SC1AC2 SLP163

CYXE;2008-09-06 11:00;CYXE 061100Z 05003KT 15SM FEW020 FEW080 06/06 A2999 RMK SC1AC1 SLP167

CYXE;2008-09-06 12:00;CYXE 061200Z CCA 30005KT 15SM MIFG BKN055 03/03 A3000 RMK SC5 SLP174

CYXE;2008-09-06 12:31;CYXE 061231Z 31005KT 12SM FEW003 BKN035 BKN070 05/ RMK SF1SC6AC2 BR

CYXE;2008-09-06 12:53;CYXE 061253Z 30006KT 15SM -SHRA FEW003 BKN035 BKN080 05/ RMK SF1SC5AC2 CVCTV CLD EMBD

CYXE;2008-09-06 13:00;CYXE 061300Z 30006KT 15SM -SHRA FEW005 BKN035 BKN070 05/05 A3001 RMK SF1SC5AC2 SLP179

CYXE;2008-09-06 13:41;CYXE 061341Z 32004KT 15SM SCT035 BKN070 06/ RMK SC3AC2

CYXE;2008-09-06 14:00;CYXE 061400Z 32005KT 15SM FEW048 BKN070 07/07 A3003 RMK SC2AC2 SLP183

CYXE;2008-09-06 14:51;CYXE 061451Z 32009KT 15SM SCT005 BKN030 BKN070 08/ RMK SC4SC2AC1

CYXE;2008-09-06 15:00;CYXE 061500Z 33008KT 15SM BKN004 BKN030 08/08 A3005 RMK SC6SC2 SLP192

CYXE;2008-09-06 15:14;CYXE 061514Z 36006KT 15SM SCT004 SCT020 BKN070 09/ RMK SC3SC1AC1

CYXE;2008-09-06 16:00;CYXE 061600Z 36005KT 15SM BKN011 BKN055 10/08 A3005 RMK CU5SC2 SLP194

CYXE;2008-09-06 16:48;CYXE 061648Z 31007KT 15SM -SHRA BKN012TCU BKN080 10/ RMK TCU6AC1 VIS NW 10

CYXE;2008-09-06 17:00;CYXE 061700Z 01003KT 6SM SHRA BR BKN012TCU BKN080 09/05 A3007 RMK TCU6AC1 SLP198

CYXE;2008-09-06 17:36;CYXE 061736Z 02009KT 10SM -SHRA FEW007 BKN012TCU BKN080 09/ RERA RMK SF2TCU4AC1

CYXE;2008-09-06 18:00;CYXE 061800Z 31002KT 15SM -SHRA BKN012TCU BKN080 10/08 A3007 RMK TCU6AC1 RERA SLP198

CYXE;2008-09-06 18:22;CYXE 061822Z 02005KT 15SM BKN021TCU BKN080 10/ RMK TCU6AC1

CYXE;2008-09-06 19:00;CYXE 061900Z 31010G17KT 15SM BKN021TCU BKN080 11/07 A3006 RMK TCU6AC1 SLP197

CYXE;2008-09-06 19:20;CYXE 061920Z 29006G18KT 15SM -SHRA BKN016TCU 09/ RMK TCU7

CYXE;2008-09-06 20:00;CYXE 062000Z 31005KT 15SM BKN016 BKN076 11/08 A3007 RMK SC5AC2 TCU ASOCTD SLP199

CYXE;2008-09-06 20:19;CYXE 062019Z 34013KT 15SM -SHRA BKN016TCU BKN075 10/ RMK TCU6AC2

CYXE;2008-09-06 21:00;CYXE 062100Z 29004KT 15SM VCSH SCT019TCU BKN045 11/09 A3006 RMK TCU3SC2 SLP196

CYXE;2008-09-06 22:00;CYXE 062200Z 32006KT 15SM BKN045TCU 11/07 A3007 RMK TCU6 CB ASOCTD VIRGA NW SLP197

CYXE;2008-09-06 23:00;CYXE 062300Z 28006KT 15SM BKN064TCU BKN110 11/08 A3006 RMK TCU5AC1 SLP196

CYXE;2008-09-07 00:00;CYXE 070000Z 32004KT 15SM SCT060 12/06 A3008 RMK CU4 TCU ASOCTD SLP202

CYXE;2008-09-07 01:00;CYXE 070100Z 36007KT 15SM SCT060 10/05 A3008 RMK SC3 SLP205

CYXE;2008-09-07 02:00;CYXE 070200Z 35007KT 15SM FEW060 06/05 A3010 RMK SC2 SLP210

CYXE;2008-09-07 03:00;CYXE 070300Z 36007KT 15SM FEW060 06/05 A3012 RMK SC2 SLP218

CYXE;2008-09-07 04:00;CYXE 070400Z 36008KT 15SM BKN062 07/06 A3013 RMK SC6 SLP221

CYXE;2008-09-07 05:00;CYXE 070500Z 01008KT 15SM BKN064 08/06 A3014 RMK SC6 SLP224

CYXE;2008-09-07 06:00;CYXE 070600Z 36007KT 15SM SCT065 06/05 A3014 RMK SC2 SLP226

CYXE;2008-09-07 07:00;CYXE 070700Z 30005KT 15SM FEW065 03/03 A3015 RMK SC2 SLP228

CYXE;2008-09-07 08:00;CYXE 070800Z 25004KT 15SM SCT062 03/03 A3016 RMK SC4 SLP232

CYXE;2008-09-07 09:00;CYXE 070900Z 32004KT 15SM FEW070 03/03 A3017 RMK AC2 SLP237

CYXE;2008-09-07 09:38;CYXE 070938Z 34006KT 15SM FEW070 02/ RMK AC1

CYXE;2008-09-07 10:00;CYXE 071000Z 33005KT 15SM FEW070 02/02 A3018 RMK AC1 SLP238

CYXE;2008-09-07 11:00;CYXE 071100Z 32006KT 15SM BKN055 03/03 A3019 RMK SC6 SLP241

CYXE;2008-09-07 12:00;CYXE 071200Z 26002KT 15SM BKN054 03/03 A3020 RMK SC7 SLP244

CYXE;2008-09-07 13:00;CYXE 071300Z 29003KT 15SM BKN054 04/04 A3020 RMK SC7 SLP246

CYXE;2008-09-07 14:00;CYXE 071400Z 31003KT 15SM OVC059 06/06 A3022 RMK SC7 SLP251

CYXE;2008-09-07 15:00;CYXE 071500Z 31002KT 15SM FEW050 OVC064 07/07 A3022 RMK SC2SC6 SLP254

CYXE;2008-09-07 16:00;CYXE 071600Z 31004KT 15SM FEW047 OVC067 08/07 A3022 RMK SC2AC6 SLP254

CYXE;2008-09-07 17:00;CYXE 071700Z 28004KT 15SM FEW047 BKN070 09/07 A3023 RMK SC1AC6 SLP256

CYXE;2008-09-07 18:00;CYXE 071800Z 33003KT 15SM FEW047 BKN068 11/07 A3023 RMK SC2AC6 SLP254

CYXE;2008-09-07 19:00;CYXE 071900Z 36004KT 15SM SCT028 BKN076 13/04 A3021 RMK SC4AC3 SLP250

CYXE;2008-09-07 20:00;CYXE 072000Z 34006KT 15SM SCT041 BKN065 12/03 A3021 RMK SC3SC4 SLP249

CYXE;2008-09-07 21:00;CYXE 072100Z 33006KT 15SM SCT051 BKN070 12/02 A3021 RMK SC3AC4 SLP247

CYXE;2008-09-07 22:00;CYXE 072200Z 35003KT 15SM FEW051 BKN068 13/M00 A3019 RMK SC2AC4 SLP243

CYXE;2008-09-07 23:00;CYXE 072300Z 27006KT 15SM FEW050 SCT080 13/01 A3018 RMK SC2AC2 SLP239

CYXE;2008-09-08 00:00;CYXE 080000Z 30007KT 15SM BKN060 BKN080 13/02 A3018 RMK SC5AC1 SLP238

CYXE;2008-09-08 01:00;CYXE 080100Z 00000KT 15SM BKN075 BKN250 11/02 A3017 RMK AC5CI0 SLP236

CYXE;2008-09-08 02:00;CYXE 080200Z 23002KT 15SM SCT065 10/05 A3017 RMK AC3 SLP234

CYXE;2008-09-08 03:00;CYXE 080300Z 19004KT 15SM FEW080 08/04 A3017 RMK AC2 SLP236

CYXE;2008-09-08 04:00;CYXE 080400Z 21006KT 15SM FEW080 05/02 A3017 RMK AC2 SLP236

CYXE;2008-09-08 05:00;CYXE 080500Z 21005KT 15SM SKC 05/02 A3016 RMK SLP233

CYXE;2008-09-08 06:00;CYXE 080600Z 21005KT 15SM SKC 04/02 A3015 RMK SLP230

CYXE;2008-09-08 07:00;CYXE 080700Z 22005KT 15SM BKN082 05/03 A3015 RMK AC6 SLP229

CYXE;2008-09-08 07:51;CYXE 080751Z 27002KT 15SM -SHRA OVC045 05/ RMK SC8

CYXE;2008-09-08 08:00;CYXE 080800Z 27002KT 15SM -SHRA OVC040 06/04 A3014 RMK SC7 SLP226

CYXE;2008-09-08 08:33;CYXE 080833Z 18005KT 15SM SCT040 BKN085 05/ RMK SC3AC3

CYXE;2008-09-08 09:00;CYXE 080900Z 16005KT 15SM FEW040 BKN075 04/03 A3011 RMK SC2AC2 SLP214

CYXE;2008-09-08 10:00;CYXE 081000Z 18004KT 15SM BKN080 05/03 A3010 RMK AC5 SLP210

CYXE;2008-09-08 11:00;CYXE 081100Z 19005KT 15SM BKN075 06/04 A3008 RMK AC6 SLP204

CYXE;2008-09-08 12:00;CYXE 081200Z 20004KT 15SM OVC075 06/03 A3005 RMK AC7 SLP193

CYXE;2008-09-08 13:00;CYXE 081300Z 22005KT 15SM VCSH BKN070 06/04 A3005 RMK AC7 SLP193

CYXE;2008-09-08 14:00;CYXE 081400Z 23005KT 15SM FEW070 06/05 A3005 RMK AC1 SLP191

CYXE;2008-09-08 15:00;CYXE 081500Z 29006KT 15SM FEW070 10/05 A3004 RMK AC1 SLP188

CYXE;2008-09-08 16:00;CYXE 081600Z 30005KT 15SM FEW070 FEW280 12/06 A3003 RMK AC1CI0 SLP185

CYXE;2008-09-08 17:00;CYXE 081700Z 30007KT 15SM FEW032 FEW280 13/06 A3003 RMK SC1CI0 SLP186

CYXE;2008-09-08 18:00;CYXE 081800Z 30007KT 15SM FEW038 15/05 A3002 RMK CU1 SLP180

CYXE;2008-09-08 19:00;CYXE 081900Z 28005KT 15SM FEW046 FEW300 15/04 A3000 RMK CU1CI0 SLP175

CYXE;2008-09-08 20:00;CYXE 082000Z 30009G15KT 15SM FEW053 BKN300 17/03 A2998 RMK CU2CI1 SLP169

CYXE;2008-09-08 21:00;CYXE 082100Z 29005KT 15SM FEW052 BKN320 17/03 A2997 RMK CU1CI2 SLP162

CYXE;2008-09-08 22:00;CYXE 082200Z 32005KT 15SM FEW060 OVC320 16/04 A2995 RMK CU2CI4 SLP155

CYXE;2008-09-08 23:00;CYXE 082300Z 31006KT 15SM FEW052 OVC300 17/04 A2992 RMK CU1CS5 SLP146

CYXE;2008-09-09 00:00;CYXE 090000Z 25004KT 15SM FEW050 OVC300 16/03 A2991 RMK CU1CS6 SLP141

CYXE;2008-09-09 01:00;CYXE 090100Z 27003KT 15SM BKN300 16/04 A2990 RMK CS6 SLP137

CYXE;2008-09-09 02:00;CYXE 090200Z 08003KT 15SM BKN300 14/05 A2989 RMK CS3 SLP134

CYXE;2008-09-09 03:00;CYXE 090300Z 13003KT 15SM SCT300 11/05 A2988 RMK CS2 SLP133

CYXE;2008-09-09 04:00;CYXE 090400Z 16006KT 15SM SCT100 BKN300 10/05 A2987 RMK AC3CI0 SLP129

CYXE;2008-09-09 05:00;CYXE 090500Z 16004KT 15SM FEW100 BKN300 11/06 A2985 RMK AC2CI1 OBS TAKEN +05 SLP122

CYXE;2008-09-09 06:00;CYXE 090600Z 16007KT 15SM FEW100 BKN300 11/05 A2983 RMK AC2CI1 SLP113

CYXE;2008-09-09 07:00;CYXE 090700Z 16004KT 15SM SCT077 BKN300 11/06 A2982 RMK AC4CI2 SLP109

CYXE;2008-09-09 08:00;CYXE 090800Z 15002KT 15SM OVC077 11/05 A2980 RMK AC8 SLP103

CYXE;2008-09-09 09:00;CYXE 090900Z 19008KT 15SM BKN067 11/05 A2978 RMK AC5 SLP095

CYXE;2008-09-09 10:00;CYXE 091000Z 18007KT 15SM FEW062 BKN100 11/05 A2977 RMK SC2AC4 SLP091

CYXE;2008-09-09 11:00;CYXE 091100Z 19006KT 15SM BKN099 10/05 A2976 RMK AC6 SLP088

CYXE;2008-09-09 12:00;CYXE 091200Z 19004KT 15SM BKN100 10/06 A2975 RMK AC5 SLP083

CYXE;2008-09-09 13:00;CYXE 091300Z 19005KT 15SM BKN100 BKN300 09/06 A2974 RMK AC5CI0 SLP080

CYXE;2008-09-09 14:00;CYXE 091400Z 19007KT 15SM BKN100 OVC280 11/06 A2973 RMK AC4CI2 SLP078

CYXE;2008-09-09 15:00;CYXE 091500Z 20006KT 15SM BKN100 OVC280 12/07 A2972 RMK AC4CI2 SLP078

CYXE;2008-09-09 16:00;CYXE 091600Z 21006KT 15SM VCSH BKN100 OVC280 13/07 A2972 RMK AC5CI2 ACC EMBD SLP076

CYXE;2008-09-09 17:00;CYXE 091700Z 21002KT 15SM FEW070 SCT085 OVC280 15/08 A2971 RMK AC2AC2CI4 ACC ASOCTD SLP074

CYXE;2008-09-09 18:00;CYXE 091800Z 16003KT 15SM BKN100 OVC280 17/09 A2971 RMK AC5CI2 ACC ASOCTD SLP069

CYXE;2008-09-09 19:00;CYXE 091900Z 13002KT 15SM SCT100 BKN280 21/08 A2969 RMK ACC4CI2 SLP062

CYXE;2008-09-09 20:00;CYXE 092000Z 19007KT 15SM SCT089 OVC280 22/05 A2967 RMK AC3CI2 ACC ASOCTD SLP057

CYXE;2008-09-09 21:00;CYXE 092100Z 19007KT 15SM SCT089 OVC280 21/05 A2967 RMK AC4CI3 ACC ASOCTD SLP054

CYXE;2008-09-09 22:00;CYXE 092200Z 22007KT 15SM SCT099 OVC280 21/05 A2968 RMK AC4CI3 ACC ASOCTD SLP055

CYXE;2008-09-09 23:00;CYXE 092300Z 30015KT 15SM SCT040 BKN090 OVC280 19/07 A2969 RMK SC3AC3CI2 SLP059

CYXE;2008-09-10 00:00;CYXE 100000Z 31013G18KT 15SM -SHRA SCT040 BKN090 BKN280 16/08 A2970 RMK SC3AC3CI0 ACC EMBD SLP067

CYXE;2008-09-10 00:26;CYXE 100026Z 33012KT 15SM VCSH BKN026 OVC090 16/ RMK SC5AC3 ACC EMBD

CYXE;2008-09-10 01:00;CYXE 100100Z 34011KT 15SM SCT061 BKN094 OVC280 15/09 A2971 RMK SC4AC3CI1 ACC EMBD SHRA W SLP071

CYXE;2008-09-10 02:00;CYXE 100200Z 34008KT 15SM -SHRA SCT040 OVC080 14/09 A2972 RMK SC3ACC5 SLP075

CYXE;2008-09-10 03:00;CYXE 100300Z 33010KT 15SM -SHRA SCT040 BKN076 14/09 A2975 RMK SC3AC4 ACC ASOCTD SLP084

CYXE;2008-09-10 04:00;CYXE 100400Z 02009KT 15SM -SHRA OVC050 12/11 A2977 RMK SC8 SLP091

CYXE;2008-09-10 05:00;CYXE 100500Z 06004KT 15SM SCT050 BKN280 11/11 A2976 RMK SC3CI0 SLP087

CYXE;2008-09-10 06:00;CYXE 100600Z 33005KT 15SM SCT088 10/10 A2977 RMK AC4 SLP091

CYXE;2008-09-10 07:00;CYXE 100700Z 36004KT 15SM BKN081 09/09 A2979 RMK AC6 SLP096

CYXE;2008-09-10 08:00;CYXE 100800Z 36006KT 15SM BKN079 08/08 A2980 RMK AC6 SLP100

CYXE;2008-09-10 09:00;CYXE 100900Z 34007KT 15SM SCT086 08/08 A2982 RMK AC3 SLP106

CYXE;2008-09-10 10:00;CYXE 101000Z 35009KT 15SM FEW086 08/08 A2983 RMK AC2 SLP110

CYXE;2008-09-10 11:00;CYXE 101100Z 01007KT 15SM SKC 08/08 A2985 RMK SLP117

CYXE;2008-09-10 12:00;CYXE 101200Z 32006KT 15SM SCT086 06/06 A2988 RMK AC2 SLP132

CYXE;2008-09-10 13:00;CYXE 101300Z 36005KT 15SM FEW100 BKN250 05/05 A2989 RMK AC2CI2 BR PTCHS SLP135

CYXE;2008-09-10 14:00;CYXE 101400Z 35006KT 15SM SCT100 BKN250 08/08 A2990 RMK AC4CI2 SLP140

CYXE;2008-09-10 14:24;CYXE 101424Z 34006KT 15SM FEW005 FEW100 BKN250 09/ RMK SF2AC1CI2

CYXE;2008-09-10 14:33;CYXE 101433Z 36010KT 15SM OVC004 09/ RMK SF6

CYXE;2008-09-10 14:46;CYXE 101446Z 36011KT 15SM OVC005 09/ RMK SF8

CYXE;2008-09-10 15:00;CYXE 101500Z 01011KT 15SM OVC005 09/09 A2993 RMK SF8 SLP148

CYXE;2008-09-10 15:28;CYXE 101528Z 35009KT 15SM OVC007 10/ RMK SF8

CYXE;2008-09-10 16:00;CYXE 101600Z 35008KT 15SM OVC008 10/10 A2995 RMK SF8 SLP155

CYXE;2008-09-10 16:16;CYXE 101616Z 36006KT 15SM OVC010 11/ RMK SF8

CYXE;2008-09-10 17:00;CYXE 101700Z 36007KT 15SM OVC014 11/09 A2997 RMK SC8 SLP161

CYXE;2008-09-10 17:46;CYXE 101746Z 33005KT 15SM BKN016 OVC200 13/ RMK SC6AC1 TCU EMBED

CYXE;2008-09-10 18:00;CYXE 101800Z 36006KT 15SM BKN016 BKN035 OVC250 17/11 A2999 RMK CU6SC2CI0 TCU EMBED SLP165

CYXE;2008-09-10 19:00;CYXE 101900Z 01005KT 15SM FEW025 BKN041 16/08 A2997 RMK CU2SC4 SLP161

CYXE;2008-09-10 20:00;CYXE 102000Z 01003KT 15SM FEW034 BKN048 16/08 A2997 RMK CU2SC3 TCU EMBD SLP161

CYXE;2008-09-10 21:00;CYXE 102100Z 02004KT 15SM FEW030 BKN048 19/09 A2997 RMK CU2SC4 SLP160

CYXE;2008-09-10 22:00;CYXE 102200Z 02004KT 15SM SCT042 BKN057 17/09 A2998 RMK CU3SC3 SLP163

CYXE;2008-09-10 23:00;CYXE 102300Z 36003KT 15SM BKN055 17/06 A2999 RMK SC6 SLP164

CYXE;2008-09-11 00:00;CYXE 110000Z 35002KT 15SM BKN061 18/07 A2999 RMK SC6 SLP167

CYXE;2008-09-11 01:00;CYXE 110100Z 26002KT 15SM BKN060 18/07 A3000 RMK SC5 SLP170

CYXE;2008-09-11 02:00;CYXE 110200Z 26002KT 15SM BKN057 11/06 A3001 RMK SC5 SLP173

CYXE;2008-09-11 03:00;CYXE 110300Z 25006KT 15SM FEW060 10/07 A3001 RMK SC2 SLP179

CYXE;2008-09-11 04:00;CYXE 110400Z 19004KT 15SM SKC 08/05 A3003 RMK SLP185

CYXE;2008-09-11 05:00;CYXE 110500Z 20006KT 15SM SKC 07/04 A3003 RMK SLP184

CYXE;2008-09-11 06:00;CYXE 110600Z 21006KT 15SM FEW250 07/05 A3002 RMK CI0 SLP177

CYXE;2008-09-11 07:00;CYXE 110700Z 21006KT 15SM SKC 06/04 A3002 RMK SLP178

CYXE;2008-09-11 08:00;CYXE 110800Z 22005KT 15SM FEW250 06/04 A3001 RMK CI0 SLP176

CYXE;2008-09-11 09:00;CYXE 110900Z 21006KT 15SM FEW250 05/04 A3000 RMK CI0 SLP171

CYXE;2008-09-11 10:00;CYXE 111000Z 19005KT 15SM FEW250 06/04 A2999 RMK CI0 SLP167

CYXE;2008-09-11 11:00;CYXE 111100Z 21006KT 15SM FEW250 07/05 A2999 RMK CI0 SLP168

CYXE;2008-09-11 12:00;CYXE 111200Z 20007KT 15SM SCT250 05/04 A2999 RMK CI2 SLP169

CYXE;2008-09-11 13:00;CYXE 111300Z 19006KT 15SM FEW120 SCT250 05/04 A2999 RMK AC2CI0 SLP167

CYXE;2008-09-11 14:00;CYXE 111400Z 21006KT 15SM FEW120 SCT250 07/05 A2999 RMK AC2CI0 SLP170

CYXE;2008-09-11 15:00;CYXE 111500Z 22009KT 15SM FEW120 SCT250 11/08 A2998 RMK AC2CI0 SLP167

CYXE;2008-09-11 16:00;CYXE 111600Z 22011KT 15SM FEW120 FEW250 15/15 A2996 RMK AC2CI0 SLP160

CYXE;2008-09-11 17:00;CYXE 111700Z 23016G21KT 15SM FEW250 17/08 A2995 RMK CI1 SLP155

CYXE;2008-09-11 18:00;CYXE 111800Z 23015G21KT 15SM FEW250 20/11 A2993 RMK CI1 SLP147

CYXE;2008-09-11 19:00;CYXE 111900Z 23018G24KT 15SM FEW250 22/09 A2989 RMK CI1 SLP134

CYXE;2008-09-11 20:00;CYXE 112000Z 24018G25KT 15SM FEW250 22/05 A2986 RMK CI1 SLP125

CYXE;2008-09-11 21:00;CYXE 112100Z 25018KT 15SM BKN250 24/05 A2985 RMK CI2 SLP115

CYXE;2008-09-11 22:00;CYXE 112200Z 27016KT 15SM BKN250 24/06 A2983 RMK CI3 SLP111

CYXE;2008-09-11 23:00;CYXE 112300Z 29012G18KT 15SM BKN250 24/07 A2982 RMK CI3 SLP106

CYXE;2008-09-12 00:00;CYXE 120000Z 27012KT 15SM BKN250 23/08 A2981 RMK CI2 SLP102

CYXE;2008-09-12 01:00;CYXE 120100Z 25006KT 15SM FEW100 BKN250 21/09 A2981 RMK AC1CI2 SLP102

CYXE;2008-09-12 02:00;CYXE 120200Z 23008KT 15SM FEW100 SCT250 15/08 A2981 RMK AC1CI2 SLP102

CYXE;2008-09-12 03:00;CYXE 120300Z 23008KT 15SM SCT250 13/08 A2980 RMK CI2 SLP103

CYXE;2008-09-12 04:00;CYXE 120400Z 22009KT 15SM SCT250 13/08 A2979 RMK CI1 SLP101

CYXE;2008-09-12 05:00;CYXE 120500Z 22008KT 15SM FEW110 SCT250 13/07 A2978 RMK AC1CI0 SLP098

CYXE;2008-09-12 06:00;CYXE 120600Z 24008KT 15SM FEW110 FEW250 12/07 A2978 RMK AC1CI0 SLP091

CYXE;2008-09-12 07:00;CYXE 120700Z 22007KT 15SM FEW110 FEW250 11/06 A2977 RMK AC1CI0 SLP088

CYXE;2008-09-12 08:00;CYXE 120800Z 21008KT 15SM FEW250 12/06 A2976 RMK CI0 SLP086

CYXE;2008-09-12 09:00;CYXE 120900Z 20007KT 15SM FEW250 10/05 A2975 RMK CI0 SLP080

CYXE;2008-09-12 10:00;CYXE 121000Z 19008KT 15SM SKC 10/06 A2973 RMK SLP073

CYXE;2008-09-12 11:00;CYXE 121100Z 19008KT 15SM SKC 10/05 A2971 RMK SLP068

CYXE;2008-09-12 12:00;CYXE 121200Z 20007KT 15SM FEW110 FEW250 09/05 A2970 RMK AC1CI0 SLP063

CYXE;2008-09-12 13:00;CYXE 121300Z 18005KT 15SM FEW110 FEW250 08/06 A2968 RMK AC1CI0 SLP057

CYXE;2008-09-12 14:00;CYXE 121400Z 23003KT 15SM FEW110 BKN250 10/07 A2968 RMK AC1CI2 SLP058

CYXE;2008-09-12 15:00;CYXE 121500Z 20008KT 15SM FEW025 FEW110 BKN250 12/06 A2966 RMK CU1AC1CI3 SLP053

CYXE;2008-09-12 16:00;CYXE 121600Z 25008KT 15SM FEW025 SCT250 15/07 A2965 RMK SC2CI1 SLP052

CYXE;2008-09-12 17:00;CYXE 121700Z 34009KT 15SM FEW025 BKN260 18/07 A2965 RMK SC1CI2 SLP051

CYXE;2008-09-12 18:00;CYXE 121800Z CCA 36008KT 15SM SCT095 BKN260 19/08 A2966 RMK AC3CI2 ACC ASOCTD SLP050

CYXE;2008-09-12 19:00;CYXE 121900Z 01015KT 15SM FEW045 FEW095 BKN300 22/10 A2966 RMK CU1AC2CI2 ACC ASOCTD SLP050

CYXE;2008-09-12 20:00;CYXE 122000Z 33013KT 15SM BKN045 BKN095 BKN300 22/10 A2966 RMK SC5AC1CI0 SLP051

CYXE;2008-09-12 21:00;CYXE 122100Z 32021G28KT 15SM FEW056 SCT095 BKN300 22/09 A2967 RMK SC2AC2CI1 SLP054

CYXE;2008-09-12 22:00;CYXE 122200Z 33017KT 15SM FEW056 BKN087 BKN280 19/10 A2970 RMK SC2AC2CI1 ACC ASOCTD SLP064

CYXE;2008-09-12 23:00;CYXE 122300Z 33015G20KT 15SM FEW055 BKN085 BKN280 17/10 A2973 RMK SC1AC6CI1 ACC ASOCTD SLP073

CYXE;2008-09-13 00:00;CYXE 130000Z 34011KT 15SM FEW040 BKN084 BKN280 16/10 A2975 RMK SC1AC5CI1 ACC ASOCTD SLP085

CYXE;2008-09-13 01:00;CYXE 130100Z 32007KT 15SM BKN035 BKN085 OVC280 15/10 A2978 RMK SC5AC2CI1 SLP094

CYXE;2008-09-13 02:00;CYXE 130200Z 01008KT 15SM FEW055 BKN110 BKN280 12/08 A2980 RMK SC2AC2CI0 SLP101

CYXE;2008-09-13 03:00;CYXE 130300Z 36007KT 15SM BKN110 OVC280 11/08 A2982 RMK AC3CI2 SLP110

CYXE;2008-09-13 04:00;CYXE 130400Z 34006KT 15SM SCT110 BKN280 08/07 A2984 RMK AC3CI0 SLP117

CYXE;2008-09-13 05:00;CYXE 130500Z 32007KT 15SM FEW110 07/06 A2986 RMK AC2 SLP121

CYXE;2008-09-13 06:00;CYXE 130600Z 31006KT 15SM FEW110 FEW280 05/05 A2987 RMK AC1CI0 SLP127

CYXE;2008-09-13 07:00;CYXE 130700Z 31007KT 15SM FEW110 OVC280 08/07 A2988 RMK AC1CI4 SLP131

CYXE;2008-09-13 08:00;CYXE 130800Z 31007KT 15SM OVC200 08/07 A2989 RMK CI8 SLP133

CYXE;2008-09-13 09:00;CYXE 130900Z 32007KT 15SM OVC200 07/06 A2990 RMK CS8 SLP135

CYXE;2008-09-13 10:00;CYXE 131000Z 32007KT 15SM OVC200 07/06 A2993 RMK CS8 SLP144

CYXE;2008-09-13 11:00;CYXE 131100Z 31007KT 15SM OVC200 06/05 A2995 RMK CS8 SLP152

CYXE;2008-09-13 12:00;CYXE 131200Z 33008KT 15SM FEW110 BKN220 04/04 A2998 RMK AC1CI2 SLP168

CYXE;2008-09-13 13:00;CYXE 131300Z 32008KT 15SM FEW110 FEW220 03/03 A3000 RMK AC2CI0 SLP175

CYXE;2008-09-13 14:00;CYXE 131400Z 34005KT 15SM BKN062 BKN250 06/05 A3003 RMK SC5CI1 SLP185

CYXE;2008-09-13 15:00;CYXE 131500Z 01006KT 15SM FEW062 FEW250 10/07 A3005 RMK SC1CI0 SLP190

CYXE;2008-09-13 16:00;CYXE 131600Z 35008KT 15SM FEW070 FEW250 12/07 A3006 RMK AC1CI0 SLP194

CYXE;2008-09-13 17:00;CYXE 131700Z 34010KT 15SM FEW030 FEW070 FEW250 14/06 A3007 RMK CU1AC1CI0 SLP196

CYXE;2008-09-13 18:00;CYXE 131800Z 35008KT 15SM BKN040 BKN250 15/05 A3008 RMK CU5CI1 SLP201

CYXE;2008-09-13 19:00;CYXE 131900Z 32010G16KT 15SM SCT045 16/03 A3008 RMK CU3 SLP201

CYXE;2008-09-13 20:00;CYXE 132000Z 33013KT 15SM FEW060 16/02 A3008 RMK CU1 SLP203

CYXE;2008-09-13 21:00;CYXE 132100Z 34008KT 15SM FEW100 17/02 A3009 RMK AC1 SLP202

CYXE;2008-09-13 22:00;CYXE 132200Z 01009KT 15SM FEW070 17/02 A3009 RMK AC1 SLP202

CYXE;2008-09-13 23:00;CYXE 132300Z 34008KT 15SM FEW070 17/02 A3009 RMK AC1 SLP202

CYXE;2008-09-14 00:00;CYXE 140000Z 35007KT 15SM SKC 16/02 A3009 RMK SLP205

CYXE;2008-09-14 01:00;CYXE 140100Z 36005KT 15SM SKC 13/03 A3010 RMK SLP208

CYXE;2008-09-14 02:00;CYXE 140200Z 06002KT 15SM FEW100 FEW250 11/03 A3011 RMK AC1CI1 SLP211

CYXE;2008-09-14 03:00;CYXE 140300Z 07002KT 15SM SKC 10/02 A3012 RMK SLP216

CYXE;2008-09-14 04:00;CYXE 140400Z 12002KT 15SM SKC 08/03 A3013 RMK SLP218

CYXE;2008-09-14 05:00;CYXE 140500Z 18004KT 15SM SKC 08/03 A3012 RMK SLP216

CYXE;2008-09-14 06:00;CYXE 140600Z 18004KT 15SM SKC 07/03 A3012 RMK SLP213

CYXE;2008-09-14 07:00;CYXE 140700Z 20006KT 15SM FEW120 06/02 A3012 RMK AC1 SLP213

CYXE;2008-09-14 08:00;CYXE 140800Z 19006KT 15SM FEW120 06/03 A3012 RMK AC1 SLP212

CYXE;2008-09-14 09:00;CYXE 140900Z 20006KT 15SM FEW120 06/03 A3011 RMK AC1 SLP210

CYXE;2008-09-14 10:00;CYXE 141000Z 21007KT 15SM FEW070 FEW280 06/03 A3010 RMK AC2CI0 SLP207

CYXE;2008-09-14 11:00;CYXE 141100Z 19006KT 15SM FEW072 05/03 A3009 RMK AC1 SLP205

CYXE;2008-09-14 12:00;CYXE 141200Z 19006KT 15SM FEW070 04/02 A3009 RMK AC1 SLP204

CYXE;2008-09-14 13:00;CYXE 141300Z 19006KT 15SM FEW070 FEW280 04/03 A3008 RMK AC1CI0 SLP203

CYXE;2008-09-14 14:00;CYXE 141400Z 21007KT 15SM SKC 06/03 A3008 RMK SLP202

CYXE;2008-09-14 15:00;CYXE 141500Z 22008KT 15SM FEW180 FEW280 09/03 A3008 RMK AC2CI0 SLP202

CYXE;2008-09-14 16:00;CYXE 141600Z 22008KT 15SM BKN180 BKN280 13/05 A3007 RMK AC2CI0 SLP197

CYXE;2008-09-14 17:00;CYXE 141700Z 25013KT 15SM FEW180 SCT280 18/05 A3005 RMK AC1CI0 SLP191

CYXE;2008-09-14 18:00;CYXE 141800Z 25010G16KT 15SM FEW050 BKN180 18/06 A3003 RMK CU1AC2 SLP181

CYXE;2008-09-14 19:00;CYXE 141900Z 28011G16KT 15SM FEW058 FEW120 SCT300 21/04 A3001 RMK CU2AC1CI0 SLP175

CYXE;2008-09-14 20:00;CYXE 142000Z 30012G18KT 15SM FEW070 SCT300 20/03 A3001 RMK CU2CI0 SLP174

CYXE;2008-09-14 21:00;CYXE 142100Z 30010G17KT 15SM FEW083 FEW300 21/03 A3000 RMK AC1CI0 SLP171

CYXE;2008-09-14 22:00;CYXE 142200Z 29007G19KT 15SM FEW080 SCT300 21/03 A2998 RMK AC1CI0 SLP164

CYXE;2008-09-14 23:00;CYXE 142300Z 29009KT 15SM FEW080 SCT300 21/03 A2996 RMK AC2CI1 SLP158

CYXE;2008-09-15 00:00;CYXE 150000Z 29009G17KT 15SM FEW080 SCT300 21/02 A2995 RMK AC1CI0 SLP154

CYXE;2008-09-15 01:00;CYXE 150100Z 30008KT 15SM FEW080 SCT300 18/05 A2995 RMK AC1CI1 SLP155

CYXE;2008-09-15 02:00;CYXE 150200Z 31007KT 15SM FEW090 FEW300 13/05 A2997 RMK AC1CI1 SLP160

CYXE;2008-09-15 03:00;CYXE 150300Z 31007KT 15SM FEW300 11/05 A3000 RMK CI1 SLP173

CYXE;2008-09-15 04:00;CYXE 150400Z 32008KT 15SM FEW300 10/05 A3001 RMK CI0 SLP177

CYXE;2008-09-15 05:00;CYXE 150500Z 30006KT 15SM SKC 07/04 A3002 RMK SLP179

CYXE;2008-09-15 06:00;CYXE 150600Z 30007KT 15SM SKC 06/04 A3002 RMK SLP179

CYXE;2008-09-15 07:00;CYXE 150700Z 27007KT 15SM SKC 05/03 A3003 RMK SLP182

CYXE;2008-09-15 08:00;CYXE 150800Z 28006KT 15SM SCT280 05/03 A3004 RMK CI1 SLP184

CYXE;2008-09-15 09:00;CYXE 150900Z 25006KT 15SM FEW280 04/03 A3003 RMK CI1 SLP183

CYXE;2008-09-15 10:00;CYXE 151000Z 23006KT 15SM SCT280 03/03 A3004 RMK CI1 SLP184

CYXE;2008-09-15 11:00;CYXE 151100Z 22007KT 15SM FEW280 03/03 A3004 RMK CI1 SLP184

CYXE;2008-09-15 12:00;CYXE 151200Z 20006KT 15SM SCT280 04/03 A3004 RMK CI1 SLP184

CYXE;2008-09-15 13:00;CYXE 151300Z 21005KT 15SM FEW120 BKN280 04/03 A3003 RMK AC2CI0 SLP182

CYXE;2008-09-15 14:00;CYXE 151400Z 22007KT 15SM BKN120 BKN300 07/05 A3003 RMK AC6CI0 SLP181

CYXE;2008-09-15 15:00;CYXE 151500Z 23008KT 15SM BKN120 BKN300 10/05 A3003 RMK AC5CI0 SLP182

CYXE;2008-09-15 16:00;CYXE 151600Z 24008KT 15SM FEW120 SCT300 15/05 A3001 RMK AC2CI1 SLP178

CYXE;2008-09-15 17:00;CYXE 151700Z 23009KT 15SM FEW300 19/04 A2999 RMK CI1 SLP171

CYXE;2008-09-15 18:00;CYXE 151800Z 24012KT 15SM FEW300 22/04 A2996 RMK CI0 SLP157

CYXE;2008-09-15 19:00;CYXE 151900Z 25020KT 15SM FEW330 25/04 A2992 RMK CI0 SLP143

CYXE;2008-09-15 20:00;CYXE 152000Z 27021KT 15SM FEW330 26/04 A2990 RMK CI0 SLP136

CYXE;2008-09-15 21:00;CYXE 152100Z 28020G27KT 15SM FEW330 28/03 A2986 RMK CI0 CONTRAILS SLP121

CYXE;2008-09-15 22:00;CYXE 152200Z 30019G26KT 15SM FEW330 27/03 A2985 RMK CI0 SLP116

CYXE;2008-09-15 23:00;CYXE 152300Z 30020G25KT 15SM SKC 26/03 A2985 RMK SLP116

CYXE;2008-09-16 00:00;CYXE 160000Z 30016KT 15SM SKC 25/05 A2986 RMK SLP120

CYXE;2008-09-16 01:00;CYXE 160100Z 30008KT 15SM SKC 22/05 A2987 RMK SLP123

CYXE;2008-09-16 02:00;CYXE 160200Z 30008KT 15SM SKC 16/06 A2989 RMK SLP130

CYXE;2008-09-16 03:00;CYXE 160300Z CCA 33008KT 15SM SKC 13/06 A2992 RMK SLP143

CYXE;2008-09-16 04:00;CYXE 160400Z 32007KT 15SM SKC 11/06 A2994 RMK SLP149

CYXE;2008-09-16 05:00;CYXE 160500Z 31007KT 15SM SKC 11/07 A2995 RMK SLP155

CYXE;2008-09-16 06:00;CYXE 160600Z 31006KT 15SM SKC 09/06 A2997 RMK SLP156

CYXE;2008-09-16 07:00;CYXE 160700Z 30006KT 15SM SKC 08/06 A2998 RMK SLP160

CYXE;2008-09-16 08:00;CYXE 160800Z 31003KT 15SM SKC 07/05 A2999 RMK SLP165

CYXE;2008-09-16 09:00;CYXE 160900Z 25005KT 15SM FEW280 06/05 A3001 RMK CI0 SLP171

CYXE;2008-09-16 10:00;CYXE 161000Z 23006KT 15SM SKC 06/05 A3003 RMK SLP176

CYXE;2008-09-16 11:00;CYXE 161100Z 24005KT 15SM SKC 05/05 A3004 RMK SLP181

CYXE;2008-09-16 12:00;CYXE 161200Z 27005KT 15SM FEW140 06/05 A3006 RMK AC1 SLP187

CYXE;2008-09-16 13:00;CYXE 161300Z 32002KT 15SM FEW140 05/05 A3006 RMK AC1 SLP188

CYXE;2008-09-16 14:00;CYXE 161400Z 00000KT 15SM FEW140 FEW280 08/07 A3008 RMK AC1CI1 SLP193

CYXE;2008-09-16 15:00;CYXE 161500Z 16005KT 15SM FEW140 12/09 A3007 RMK AC1 SLP193

CYXE;2008-09-16 16:00;CYXE 161600Z 19005KT 15SM FEW120 SCT300 17/08 A3008 RMK AC2CI0 SLP198

CYXE;2008-09-16 17:00;CYXE 161700Z 18003KT 15SM FEW080 SCT300 19/08 A3008 RMK AC2CI0 SLP199

CYXE;2008-09-16 18:00;CYXE 161800Z 23006KT 15SM FEW080 FEW300 21/08 A3008 RMK AC1CI0 SLP195

CYXE;2008-09-16 19:00;CYXE 161900Z 30006KT 15SM FEW080 FEW300 22/08 A3007 RMK AC1CI0 SLP192

CYXE;2008-09-16 20:00;CYXE 162000Z 28006KT 15SM SCT080 SCT300 23/08 A3006 RMK AC3CI0 SLP189

CYXE;2008-09-16 21:00;CYXE 162100Z 34009KT 15SM SCT090 BKN300 25/09 A3005 RMK AC3CI0 SLP185

CYXE;2008-09-16 22:00;CYXE 162200Z 02008G15KT 15SM SCT080 BKN100 BKN300 23/08 A3006 RMK AC3AC1CI1 SLP187

CYXE;2008-09-16 23:00;CYXE 162300Z 05018KT 15SM SCT080 SCT100 BKN300 21/10 A3008 RMK AC3AC1CI0 SLP193

CYXE;2008-09-17 00:00;CYXE 170000Z 04016KT 15SM BKN080 BKN300 19/08 A3009 RMK AC6CI0 SLP204

CYXE;2008-09-17 01:00;CYXE 170100Z 06011KT 15SM BKN075 BKN120 BKN300 17/07 A3011 RMK AC6AC1CI0 SLP208

CYXE;2008-09-17 02:00;CYXE 170200Z 05008KT 15SM SCT075 BKN120 15/08 A3012 RMK AC4AC2 SLP212

CYXE;2008-09-17 03:00;CYXE 170300Z 06006KT 15SM BKN085 15/09 A3014 RMK AC5 SLP217

CYXE;2008-09-17 04:00;CYXE 170400Z 04010KT 15SM BKN100 BKN250 15/05 A3016 RMK AC5CI1 SLP225

CYXE;2008-09-17 05:00;CYXE 170500Z 05013KT 15SM BKN100 13/06 A3018 RMK AC6 SLP230

CYXE;2008-09-17 06:00;CYXE 170600Z 06013KT 15SM BKN110 11/07 A3019 RMK AC6 SLP233

CYXE;2008-09-17 07:00;CYXE 170700Z 07009KT 15SM SCT110 09/07 A3021 RMK AC2 SLP238

CYXE;2008-09-17 08:00;CYXE 170800Z 07007KT 15SM FEW110 08/07 A3022 RMK AC2 SLP242

CYXE;2008-09-17 09:00;CYXE 170900Z 06010KT 15SM FEW110 SCT280 08/07 A3022 RMK AC1CI0 SLP241

CYXE;2008-09-17 10:00;CYXE 171000Z 07011KT 15SM FEW012 FEW110 BKN280 07/07 A3021 RMK SF1AC2CI0 SLP240

CYXE;2008-09-17 11:00;CYXE 171100Z 07010KT 15SM SCT110 BKN280 07/07 A3021 RMK AC2CI0 SLP238

CYXE;2008-09-17 12:00;CYXE 171200Z 08010KT 15SM SCT098 BKN280 07/06 A3020 RMK AC3CI0 SLP240

CYXE;2008-09-17 12:29;CYXE 171229Z 07010KT 15SM BKN006 BKN100 07/ RMK SC5AC2

CYXE;2008-09-17 13:00;CYXE 171300Z 07009KT 15SM BKN005 BKN098 07/06 A3021 RMK SF4AC2 SLP243

CYXE;2008-09-17 13:17;CYXE 171317Z 07010KT 15SM BKN004 BKN098 07/ RMK SC5AC2

CYXE;2008-09-17 14:00;CYXE 171400Z 07009KT 15SM BKN004 BKN100 08/07 A3021 RMK SC5AC2 SLP244

CYXE;2008-09-17 14:32;CYXE 171432Z 08010KT 15SM OVC006 08/ RMK SC8

CYXE;2008-09-17 15:00;CYXE 171500Z 09011KT 15SM OVC007 09/08 A3021 RMK SF8 OBS TAKEN +05 SLP244

CYXE;2008-09-17 16:00;CYXE 171600Z 09012KT 15SM BKN009 BKN250 11/08 A3020 RMK SF6CI1 SLP241

CYXE;2008-09-17 16:10;CYXE 171610Z 08011KT 15SM SCT011 BKN250 11/ RMK SF4CI1

CYXE;2008-09-17 17:00;CYXE 171700Z 10011KT 15SM FEW011 SCT250 11/07 A3020 RMK SF1CI1 SLP239

CYXE;2008-09-17 18:00;CYXE 171800Z 09009G15KT 15SM FEW020 SCT250 12/08 A3017 RMK SF1CI1 SLP232

CYXE;2008-09-17 19:00;CYXE 171900Z 10009G15KT 15SM FEW090 BKN250 14/07 A3015 RMK ACC1CI2 SLP224

CYXE;2008-09-17 20:00;CYXE 172000Z 09011G16KT 15SM FEW100 OVC250 17/08 A3012 RMK ACC1CI2 SLP214

CYXE;2008-09-17 21:00;CYXE 172100Z 11015KT 15SM FEW100 BKN300 18/09 A3009 RMK ACC1CI2 SLP201

CYXE;2008-09-17 22:00;CYXE 172200Z 11014KT 15SM BKN300 19/09 A3006 RMK CI2 SLP192

CYXE;2008-09-17 23:00;CYXE 172300Z 11013KT 15SM BKN300 19/09 A3004 RMK CI2 SLP185

CYXE;2008-09-18 00:00;CYXE 180000Z 13012G17KT 15SM SCT300 18/09 A3002 RMK CI1 SLP179

CYXE;2008-09-18 01:00;CYXE 180100Z 12011KT 15SM FEW300 16/10 A2999 RMK CI1 SLP170

CYXE;2008-09-18 02:00;CYXE 180200Z 12009KT 15SM FEW300 15/10 A2998 RMK CI1 SLP165

CYXE;2008-09-18 03:00;CYXE 180300Z 13009KT 15SM SKC 13/10 A2996 RMK SLP160

CYXE;2008-09-18 04:00;CYXE 180400Z 13008KT 15SM SKC 12/10 A2995 RMK SLP155

CYXE;2008-09-18 05:00;CYXE 180500Z 14011KT 15SM SCT300 12/10 A2992 RMK CI1 SLP147

CYXE;2008-09-18 06:00;CYXE 180600Z 14005KT 15SM SCT280 11/10 A2990 RMK CI1 SLP140

CYXE;2008-09-18 07:00;CYXE 180700Z 14003KT 15SM FEW250 10/09 A2989 RMK CI0 SLP135

CYXE;2008-09-18 08:00;CYXE 180800Z 00000KT 15SM BKN250 09/09 A2988 RMK CI0 SLP131

CYXE;2008-09-18 09:00;CYXE 180900Z 11002KT 15SM SCT250 08/08 A2986 RMK CI0 SLP121

CYXE;2008-09-18 10:00;CYXE 181000Z 17002KT 6SM BR FEW250 08/08 A2985 RMK CI0 SLP118

CYXE;2008-09-18 11:00;CYXE 181100Z 19005KT 15SM SKC 07/07 A2984 RMK SLP115

CYXE;2008-09-18 12:00;CYXE 181200Z 22006KT 15SM FEW110 SCT250 06/06 A2984 RMK AC1CI0 SLP116

CYXE;2008-09-18 13:00;CYXE 181300Z 21005KT 5SM BR FEW110 SCT250 06/06 A2983 RMK AC1CI1 VIS W 11/2 SLP113

CYXE;2008-09-18 13:17;CYXE 181317Z 25007KT 2SM R09/2600VP6000FT/D BR FEW002 FEW110 SCT250 06/ RMK SF1AC1CI1

CYXE;2008-09-18 13:21;CYXE 181321Z 25006KT 1 1/2SM BR OVC001 06/ RMK SF5

CYXE;2008-09-18 13:29;CYXE 181329Z 23006KT 1/2SM R09/0700FT/N FG OVC001 07/ RMK FG4SF2

CYXE;2008-09-18 13:35;CYXE 181335Z 21005KT 1/4SM R09/0700V1200FT/U FG OVC001 07/ RMK FG6SF1

CYXE;2008-09-18 13:39;CYXE 181339Z 22005KT 1/8SM R09/0700V1200FT/N FG OVC001 07/ RMK FG6SF1

CYXE;2008-09-18 14:00;CYXE 181400Z 21005KT 1/4SM R09/1400FT/N FG SKC 07/07 A2983 RMK FG5 VIS E 1 SLP114

CYXE;2008-09-18 14:02;CYXE 181402Z 22004KT 1SM R09/1400V2800FT/U BR SKC 07/ RMK FG3

CYXE;2008-09-18 14:15;CYXE 181415Z 21004KT 6SM R09/2800VP6000FT/U BR FEW001 FEW300 08/ RMK SF0CI0

CYXE;2008-09-18 15:00;CYXE 181500Z 23004KT 15SM FEW001 FEW300 10/10 A2983 RMK SF0CI0 SLP113

CYXE;2008-09-18 16:00;CYXE 181600Z 22004KT 15SM FEW001 FEW300 15/11 A2982 RMK SF0CI0 SLP112

CYXE;2008-09-18 17:00;CYXE 181700Z 20006KT 15SM FEW100 FEW300 19/12 A2982 RMK AC1CI0 SLP110

CYXE;2008-09-18 18:00;CYXE 181800Z 25005KT 15SM FEW300 23/11 A2981 RMK CI0 SLP102

CYXE;2008-09-18 19:00;CYXE 181900Z 25011G16KT 15SM SCT300 25/11 A2981 RMK CI0 SLP102

CYXE;2008-09-18 20:00;CYXE 182000Z 25011KT 15SM FEW300 28/07 A2978 RMK CI0 SLP092

CYXE;2008-09-18 21:00;CYXE 182100Z 29014G21KT 15SM FEW300 29/07 A2977 RMK CI0 SLP087

CYXE;2008-09-18 22:00;CYXE 182200Z 31012G17KT 15SM FEW300 29/07 A2977 RMK CI1 SLP085

CYXE;2008-09-18 23:00;CYXE 182300Z 33013KT 15SM FEW300 27/02 A2976 RMK CI1 SLP083

CYXE;2008-09-19 00:00;CYXE 190000Z 33006KT 15SM FEW300 25/05 A2977 RMK CI1 SLP088

CYXE;2008-09-19 01:00;CYXE 190100Z 27004KT 15SM FEW300 21/04 A2977 RMK CI1 SLP089

CYXE;2008-09-19 02:00;CYXE 190200Z 29006KT 15SM FEW100 17/05 A2978 RMK AC1 SLP093

CYXE;2008-09-19 03:00;CYXE 190300Z 31008KT 15SM SKC 14/05 A2980 RMK SLP104

CYXE;2008-09-19 04:00;CYXE 190400Z 31008KT 15SM SKC 12/04 A2983 RMK SLP112

CYXE;2008-09-19 05:00;CYXE 190500Z 33010KT 15SM SKC 10/04 A2985 RMK SLP119

CYXE;2008-09-19 06:00;CYXE 190600Z 30008KT 15SM SKC 09/04 A2987 RMK SLP122

CYXE;2008-09-19 07:00;CYXE 190700Z 30008KT 15SM SKC 08/04 A2989 RMK SLP130

CYXE;2008-09-19 08:00;CYXE 190800Z 33008KT 15SM SKC 06/04 A2990 RMK SLP133

CYXE;2008-09-19 09:00;CYXE 190900Z 00000KT 15SM SKC 06/04 A2992 RMK SLP137

CYXE;2008-09-19 10:00;CYXE 191000Z 30006KT 15SM BKN070 06/04 A2996 RMK AC6 SLP152

CYXE;2008-09-19 11:00;CYXE 191100Z 29006KT 15SM OVC072 07/05 A2997 RMK AC8 SLP153

CYXE;2008-09-19 12:00;CYXE 191200Z 34006KT 15SM SCT075 BKN085 06/05 A2998 RMK AC4AC2 SLP161

CYXE;2008-09-19 13:00;CYXE 191300Z 04005KT 15SM BKN120 OVC250 09/07 A2999 RMK AC6CI0 SLP164

CYXE;2008-09-19 14:00;CYXE 191400Z 02010KT 15SM BKN120 BKN300 11/08 A3002 RMK AC5CI1 SLP173

CYXE;2008-09-19 15:00;CYXE 191500Z 04011KT 15SM BKN120 BKN300 11/08 A3005 RMK AC5CI1 SLP189

CYXE;2008-09-19 16:00;CYXE 191600Z 04013KT 15SM FEW070 BKN120 BKN300 13/08 A3008 RMK ACC1AC4CI1 SLP196

CYXE;2008-09-19 17:00;CYXE 191700Z 04014KT 15SM SCT120 BKN300 13/07 A3008 RMK AC4CI1 SLP199

CYXE;2008-09-19 18:00;CYXE 191800Z 03010G15KT 15SM SCT120 BKN300 15/07 A3010 RMK AC3CI2 SLP205

CYXE;2008-09-19 19:00;CYXE 191900Z 03011KT 15SM FEW072 BKN098 OVC250 14/06 A3011 RMK AC2AC4CI1 SLP208

CYXE;2008-09-19 20:00;CYXE 192000Z 03010KT 15SM SCT070 BKN300 14/04 A3011 RMK AC3CI2 SLP209

CYXE;2008-09-19 21:00;CYXE 192100Z 07008KT 15SM FEW070 SCT300 15/05 A3011 RMK AC2CI1 SLP212

CYXE;2008-09-19 22:00;CYXE 192200Z 06012KT 15SM FEW070 SCT280 16/05 A3012 RMK AC1CI1 SLP213

CYXE;2008-09-19 23:00;CYXE 192300Z 06012KT 15SM FEW280 16/04 A3012 RMK CI1 SLP215

CYXE;2008-09-20 00:00;CYXE 200000Z 06013KT 15SM SCT280 13/03 A3014 RMK CI1 SLP222

CYXE;2008-09-20 01:00;CYXE 200100Z 07010KT 15SM FEW090 BKN280 11/02 A3014 RMK AC1CI1 SLP223

CYXE;2008-09-20 02:00;CYXE 200200Z 07009KT 15SM FEW090 SCT280 09/02 A3015 RMK AC1CI1 SLP225

CYXE;2008-09-20 03:00;CYXE 200300Z 06009KT 15SM FEW090 07/01 A3016 RMK AC1 SLP231

CYXE;2008-09-20 04:00;CYXE 200400Z 07008KT 15SM FEW100 06/02 A3017 RMK AC1 SLP234

CYXE;2008-09-20 05:00;CYXE 200500Z 09012KT 15SM FEW100 07/01 A3017 RMK AC1 SLP235

CYXE;2008-09-20 06:00;CYXE 200600Z 09010KT 15SM SKC 06/00 A3018 RMK SLP234

CYXE;2008-09-20 07:00;CYXE 200700Z 10009KT 15SM FEW120 05/00 A3018 RMK AC1 SLP235

CYXE;2008-09-20 08:00;CYXE 200800Z 11008KT 15SM FEW120 06/01 A3018 RMK AC1 SLP234

CYXE;2008-09-20 09:00;CYXE 200900Z 12008KT 15SM SKC 05/01 A3018 RMK SLP235

CYXE;2008-09-20 10:00;CYXE 201000Z 11009KT 15SM FEW120 05/01 A3017 RMK AC1 SLP232

CYXE;2008-09-20 11:00;CYXE 201100Z 12011KT 15SM FEW120 FEW250 05/02 A3016 RMK AC1CI0 SLP228

CYXE;2008-09-20 12:00;CYXE 201200Z 12010KT 15SM BKN110 BKN250 05/02 A3015 RMK AC5CI1 SLP226

CYXE;2008-09-20 13:00;CYXE 201300Z 12012G18KT 15SM BKN110 BKN250 05/02 A3013 RMK AC6CI1 SLP221

CYXE;2008-09-20 14:00;CYXE 201400Z 12013G18KT 15SM FEW110 BKN140 BKN250 05/02 A3013 RMK ACC2AC2CI1 SLP220

CYXE;2008-09-20 15:00;CYXE 201500Z 12012G17KT 15SM FEW140 SCT250 07/03 A3013 RMK AC1CI1 SLP221

CYXE;2008-09-20 16:00;CYXE 201600Z 12010KT 15SM FEW250 09/04 A3011 RMK CI0 SLP216

CYXE;2008-09-20 17:00;CYXE 201700Z 13012KT 15SM FEW250 11/04 A3010 RMK CI1 SLP211

CYXE;2008-09-20 18:00;CYXE 201800Z 14013KT 15SM FEW090 BKN250 14/04 A3007 RMK AC1CI0 SLP198

CYXE;2008-09-20 19:00;CYXE 201900Z 11014G21KT 15SM SCT250 15/05 A3005 RMK CI0 SLP191

CYXE;2008-09-20 20:00;CYXE 202000Z 10014KT 15SM FEW250 16/05 A3003 RMK CI0 SLP184

CYXE;2008-09-20 21:00;CYXE 202100Z 12016KT 15SM BKN280 18/05 A3000 RMK CI0 SLP174

CYXE;2008-09-20 22:00;CYXE 202200Z 12016KT 15SM BKN280 17/05 A2999 RMK CI0 SLP170

CYXE;2008-09-20 23:00;CYXE 202300Z 11017KT 15SM SCT280 16/05 A2999 RMK CI0 SLP169

CYXE;2008-09-21 00:00;CYXE 210000Z 12015KT 15SM SCT280 15/05 A2998 RMK CI0 SLP168

CYXE;2008-09-21 01:00;CYXE 210100Z 12014KT 15SM FEW280 14/05 A2997 RMK CI0 SLP165

CYXE;2008-09-21 02:00;CYXE 210200Z 12014KT 15SM FEW280 13/05 A2997 RMK CI0 SLP164

CYXE;2008-09-21 03:00;CYXE 210300Z 12013G21KT 15SM FEW280 11/04 A2997 RMK CI0 SLP163

CYXE;2008-09-21 04:00;CYXE 210400Z 12013KT 15SM FEW280 10/04 A2996 RMK CI0 SLP161

CYXE;2008-09-21 05:00;CYXE 210500Z 12016G21KT 15SM FEW280 09/03 A2994 RMK CI0 SLP154

CYXE;2008-09-21 06:00;CYXE 210600Z 12018G24KT 15SM FEW280 09/02 A2992 RMK CI0 SLP146

CYXE;2008-09-21 07:00;CYXE 210700Z 11014KT 15SM SCT280 09/02 A2990 RMK CI2 SLP139

CYXE;2008-09-21 08:00;CYXE 210800Z 11012KT 15SM SCT280 09/02 A2989 RMK CI2 SLP135

CYXE;2008-09-21 09:00;CYXE 210900Z 11011G16KT 15SM FEW280 08/02 A2987 RMK CI1 SLP127

CYXE;2008-09-21 10:00;CYXE 211000Z 10011G16KT 15SM FEW280 08/03 A2985 RMK CI0 SLP120

CYXE;2008-09-21 11:00;CYXE 211100Z 11010KT 15SM FEW280 07/03 A2984 RMK CI0 SLP117

CYXE;2008-09-21 12:00;CYXE 211200Z 10010KT 15SM FEW280 07/04 A2983 RMK CI1 SLP116

CYXE;2008-09-21 13:00;CYXE 211300Z 12012KT 15SM FEW250 07/04 A2981 RMK CI1 SLP110

CYXE;2008-09-21 14:00;CYXE 211400Z 12014G19KT 15SM BKN280 08/05 A2980 RMK CI2 SLP105

CYXE;2008-09-21 15:00;CYXE 211500Z 13014G19KT 15SM OVC280 09/05 A2979 RMK CI2 SLP100

CYXE;2008-09-21 16:00;CYXE 211600Z 12012KT 15SM OVC280 12/06 A2978 RMK CI2 SLP098

CYXE;2008-09-21 17:00;CYXE 211700Z 12011KT 15SM OVC280 14/08 A2977 RMK CI3 SLP096

CYXE;2008-09-21 18:00;CYXE 211800Z 10009KT 15SM OVC280 16/08 A2974 RMK CI4 SLP083

CYXE;2008-09-21 19:00;CYXE 211900Z 10014KT 15SM OVC300 18/10 A2972 RMK CS6 HALO SLP075

CYXE;2008-09-21 20:00;CYXE 212000Z 11014KT 15SM OVC300 21/10 A2970 RMK CI4 SLP069

CYXE;2008-09-21 21:00;CYXE 212100Z 13012G18KT 15SM BKN300 23/11 A2968 RMK CI3 SLP057

CYXE;2008-09-21 22:00;CYXE 212200Z 11016KT 15SM OVC300 24/11 A2966 RMK CI2 SLP050

CYXE;2008-09-21 23:00;CYXE 212300Z 12013G18KT 15SM FEW100 OVC300 24/10 A2965 RMK AC2CI0 SLP049

CYXE;2008-09-22 00:00;CYXE 220000Z 14010G15KT 15SM FEW100 BKN300 23/11 A2965 RMK AC2CI1 SLP047

CYXE;2008-09-22 01:00;CYXE 220100Z 12009KT 15SM FEW100 BKN300 21/11 A2964 RMK AC2CI1 SLP044

CYXE;2008-09-22 02:00;CYXE 220200Z 12016G21KT 15SM BKN059 BKN090 OVC300 20/13 A2964 RMK SC5AC2CI1 SLP044

CYXE;2008-09-22 03:00;CYXE 220300Z 14010G17KT 15SM BKN066 OVC090 19/13 A2962 RMK SC6AC2 SLP038

CYXE;2008-09-22 03:56;CYXE 220356Z 18014G21KT 15SM -SHRA OVC051 18/ RMK SC8

CYXE;2008-09-22 04:00;CYXE 220400Z 17012G18KT 15SM -SHRA OVC039 18/14 A2965 RMK SC8 SLP049

CYXE;2008-09-22 05:00;CYXE 220500Z 18009KT 15SM -SHRA OVC042 16/14 A2962 RMK SC8 SLP037

CYXE;2008-09-22 05:27;CYXE 220527Z 18009KT 15SM OVC055 16/ RMK SC8

CYXE;2008-09-22 06:00;CYXE 220600Z 11011KT 15SM SCT050 OVC080 16/14 A2963 RMK SC4AC4 SLP041

CYXE;2008-09-22 07:00;CYXE 220700Z 07003KT 15SM SCT060 OVC090 15/14 A2961 RMK SC4AC4 SLP034

CYXE;2008-09-22 08:00;CYXE 220800Z 11010KT 15SM OVC060 15/14 A2960 RMK SC8 SLP031

CYXE;2008-09-22 09:00;CYXE 220900Z 13006KT 15SM FEW007 OVC060 14/14 A2959 RMK SF2SC5 SLP024

CYXE;2008-09-22 09:33;CYXE 220933Z 12004KT 15SM BKN007 OVC060 14/ RMK SF5SC2

CYXE;2008-09-22 10:00;CYXE 221000Z 13007KT 15SM SCT008 OVC014 14/14 A2959 RMK SF3SC5 SLP023

CYXE;2008-09-22 11:00;CYXE 221100Z 16006KT 15SM OVC008 15/14 A2957 RMK SC8 SLP017

CYXE;2008-09-22 12:00;CYXE 221200Z 17005KT 15SM OVC010 14/14 A2956 RMK SC8 SLP013

CYXE;2008-09-22 13:00;CYXE 221300Z 19005KT 15SM OVC010 14/14 A2956 RMK SC8 SLP012

CYXE;2008-09-22 13:20;CYXE 221320Z 22007KT 15SM FEW010 FEW110 SCT250 12/ RMK SC2AC1CI1

CYXE;2008-09-22 14:00;CYXE 221400Z 21008KT 15SM FEW010 FEW110 SCT250 12/11 A2956 RMK SC1AC1CI2 SLP012

CYXE;2008-09-22 15:00;CYXE 221500Z 20013KT 15SM FEW014 FEW110 BKN280 13/09 A2956 RMK SC1AC1CI0 SLP016

CYXE;2008-09-22 16:00;CYXE 221600Z 20011KT 15SM BKN018 OVC280 14/10 A2956 RMK SC6CI0 SLP017

CYXE;2008-09-22 17:00;CYXE 221700Z 21013KT 15SM OVC018 13/10 A2956 RMK SC8 SLP017

CYXE;2008-09-22 18:00;CYXE 221800Z 21017KT 15SM OVC016 13/10 A2957 RMK SC8 SLP020

CYXE;2008-09-22 18:28;CYXE 221828Z 22020G25KT 15SM OVC014 13/ RMK SC8

CYXE;2008-09-22 18:33;CYXE 221833Z 22020G25KT 10SM -DZ OVC014 12/ RMK SC8

CYXE;2008-09-22 18:48;CYXE 221848Z 21016KT 2 1/2SM -DZ BR OVC008 12/ RMK SF8

CYXE;2008-09-22 18:54;CYXE 221854Z CCA 21015G20KT 2 1/2SM -DZ BR OVC008 12/ RMK SF8

CYXE;2008-09-22 19:00;CYXE 221900Z 21015G20KT 2SM -DZ BR OVC007 12/11 A2957 RMK SF8 SLP022

CYXE;2008-09-22 19:16;CYXE 221916Z 21016G21KT 3SM -DZ BR OVC007 12/ RMK ST8

CYXE;2008-09-22 20:00;CYXE 222000Z 22019KT 2SM -DZ BR OVC006 11/11 A2959 RMK ST8 SLP026

CYXE;2008-09-22 20:24;CYXE 222024Z 22014G20KT 8SM -DZ OVC007 11/ RMK ST8

CYXE;2008-09-22 21:00;CYXE 222100Z 23014G20KT 6SM -DZ OVC008 11/11 A2960 RMK ST8 SLP035

CYXE;2008-09-22 21:37;CYXE 222137Z 24016G21KT 8SM BKN008 OVC012 11/ RMK ST6SC2

CYXE;2008-09-22 22:00;CYXE 222200Z 24014KT 10SM BKN008 OVC012 11/11 A2963 RMK ST6SC2 SLP044

CYXE;2008-09-22 22:38;CYXE 222238Z 24014KT 10SM -RA BKN017 OVC062 12/ RMK SC7SC1

CYXE;2008-09-22 23:00;CYXE 222300Z 25013KT 10SM -RA OVC020 12/11 A2966 RMK SC8 SLP054

CYXE;2008-09-23 00:00;CYXE 230000Z 26013G18KT 10SM -RA OVC029 11/10 A2969 RMK SC8 SLP064

CYXE;2008-09-23 01:00;CYXE 230100Z 24009KT 10SM -RA OVC035 11/09 A2972 RMK SC8 SLP074

CYXE;2008-09-23 02:00;CYXE 230200Z 25009KT 15SM -RA BKN033 OVC080 10/08 A2975 RMK SC6AC2 SLP082

CYXE;2008-09-23 02:29;CYXE 230229Z 24010KT 15SM BKN037 OVC080 RMK SC5AC3

CYXE;2008-09-23 03:00;CYXE 230300Z 23010KT 15SM BKN036 OVC080 10/08 A2977 RMK SC6AC2 SLP092

CYXE;2008-09-23 04:00;CYXE 230400Z 25014KT 15SM OVC044 11/07 A2979 RMK SC8 SLP100

CYXE;2008-09-23 05:00;CYXE 230500Z 24011KT 15SM OVC046 10/07 A2980 RMK SC8 SLP101

CYXE;2008-09-23 06:00;CYXE 230600Z 24009KT 15SM SCT046 08/06 A2980 RMK SC3 SLP103

CYXE;2008-09-23 07:00;CYXE 230700Z 25009KT 15SM FEW046 07/06 A2979 RMK SC2 SLP102

CYXE;2008-09-23 08:00;CYXE 230800Z 21007KT 15SM SKC 06/05 A2981 RMK SLP107

CYXE;2008-09-23 09:00;CYXE 230900Z 21007KT 15SM SCT047 06/05 A2984 RMK SC2 SLP121

CYXE;2008-09-23 10:00;CYXE 231000Z 25007KT 15SM SCT047 05/04 A2984 RMK SC3 SLP120

CYXE;2008-09-23 11:00;CYXE 231100Z 25008KT 15SM SCT045 04/04 A2985 RMK SC3 SLP123

CYXE;2008-09-23 12:00;CYXE 231200Z 26008KT 15SM FEW045 04/03 A2985 RMK SC2 SLP126

CYXE;2008-09-23 13:00;CYXE 231300Z 27009KT 15SM FEW045 03/03 A2987 RMK SC2 SLP131

CYXE;2008-09-23 14:00;CYXE 231400Z 27010KT 15SM FEW045 FEW280 04/04 A2988 RMK SC1CI0 SLP134

CYXE;2008-09-23 15:00;CYXE 231500Z 27011KT 15SM FEW280 08/05 A2988 RMK CI0 SLP133

CYXE;2008-09-23 16:00;CYXE 231600Z 30015KT 15SM FEW280 10/05 A2988 RMK CI1 SLP134

CYXE;2008-09-23 17:00;CYXE 231700Z 29013G18KT 15SM FEW030 FEW280 12/04 A2990 RMK CU1CI0 SLP141

CYXE;2008-09-23 18:00;CYXE 231800Z 28018G24KT 15SM FEW030 FEW280 13/04 A2990 RMK SC1CI0 SLP138

CYXE;2008-09-23 19:00;CYXE 231900Z 30016G27KT 15SM FEW280 14/01 A2990 RMK CI1 SLP137

CYXE;2008-09-23 20:00;CYXE 232000Z 29019G24KT 15SM FEW300 15/M00 A2990 RMK CI1 SLP137

CYXE;2008-09-23 21:00;CYXE 232100Z 30018G26KT 15SM FEW065 SCT300 16/M00 A2990 RMK CU1CI1 SLP139

CYXE;2008-09-23 22:00;CYXE 232200Z 31016G25KT 15SM FEW060 BKN300 15/M01 A2991 RMK CU1CI2 SLP142

CYXE;2008-09-23 23:00;CYXE 232300Z 28015KT 15SM FEW060 FEW120 OVC300 14/M01 A2992 RMK CU1AC2CI2 SLP146

CYXE;2008-09-24 00:00;CYXE 240000Z 28013G19KT 15SM FEW060 OVC280 14/M00 A2994 RMK CU1CI2 SLP154

CYXE;2008-09-24 01:00;CYXE 240100Z 28010G15KT 15SM FEW060 FEW280 11/M01 A2995 RMK CU1CI0 SLP159

CYXE;2008-09-24 02:00;CYXE 240200Z 27007KT 15SM FEW060 07/M01 A2997 RMK CU1 SLP165

CYXE;2008-09-24 03:00;CYXE 240300Z 26008KT 15SM SKC 04/M01 A2999 RMK SLP176

CYXE;2008-09-24 04:00;CYXE 240400Z 25009KT 15SM SKC 04/M01 A3001 RMK SLP181

CYXE;2008-09-24 05:00;CYXE 240500Z 25008KT 15SM SKC 04/M00 A3002 RMK SLP184

CYXE;2008-09-24 06:00;CYXE 240600Z 26008KT 15SM SKC 02/M00 A3003 RMK SLP189

CYXE;2008-09-24 07:00;CYXE 240700Z 26008KT 15SM SKC 02/M00 A3004 RMK SLP191

CYXE;2008-09-24 08:00;CYXE 240800Z 25008KT 15SM SKC 00/M01 A3005 RMK SLP194

CYXE;2008-09-24 09:00;CYXE 240900Z 25008KT 15SM FEW100 01/M00 A3006 RMK AC2 SLP195

CYXE;2008-09-24 10:00;CYXE 241000Z 25008KT 15SM SKC M00/M01 A3006 RMK SLP196

CYXE;2008-09-24 11:00;CYXE 241100Z 24009KT 15SM SKC 00/M00 A3006 RMK SLP197

CYXE;2008-09-24 12:00;CYXE 241200Z 23008KT 15SM FEW280 M01/M01 A3007 RMK CI0 SLP201

CYXE;2008-09-24 13:00;CYXE 241300Z 23007KT 15SM FEW110 FEW280 M01/M02 A3008 RMK AC1CI0 SLP204

CYXE;2008-09-24 14:00;CYXE 241400Z 23008KT 15SM FEW030 FEW280 01/M00 A3009 RMK SC1CI0 SLP208

CYXE;2008-09-24 15:00;CYXE 241500Z 25008KT 15SM SCT280 05/01 A3009 RMK CI0 SLP212

CYXE;2008-09-24 16:00;CYXE 241600Z 25006KT 15SM FEW280 08/02 A3008 RMK CI0 SLP209

CYXE;2008-09-24 17:00;CYXE 241700Z 25007KT 15SM FEW300 12/02 A3008 RMK CI1 SLP208

CYXE;2008-09-24 18:00;CYXE 241800Z 25007KT 15SM FEW300 13/01 A3007 RMK CI0 SLP199

CYXE;2008-09-24 19:00;CYXE 241900Z 28008KT 15SM FEW060 SCT300 15/M00 A3005 RMK CU1CI0 SLP194

CYXE;2008-09-24 20:00;CYXE 242000Z 26011KT 15SM FEW065 BKN300 14/M02 A3003 RMK CU2CI1 SLP189

CYXE;2008-09-24 21:00;CYXE 242100Z 25007G15KT 15SM FEW073 BKN300 15/M02 A3001 RMK CU1CI1 SLP179

CYXE;2008-09-24 22:00;CYXE 242200Z 23011KT 15SM FEW073 BKN300 16/M02 A3000 RMK CU1CI2 SLP175

CYXE;2008-09-24 23:00;CYXE 242300Z 28009KT 15SM FEW073 BKN300 16/M03 A2999 RMK CU1CI2 SLP172

CYXE;2008-09-25 00:00;CYXE 250000Z 32003KT 15SM BKN300 14/M01 A2998 RMK CI3 SLP172

CYXE;2008-09-25 01:00;CYXE 250100Z 32004KT 15SM BKN300 12/M03 A2997 RMK CI2 SLP168

CYXE;2008-09-25 02:00;CYXE 250200Z 15003KT 15SM SCT300 09/M01 A2996 RMK CI2 SLP166

CYXE;2008-09-25 03:00;CYXE 250300Z 07003KT 15SM FEW300 08/M02 A2995 RMK CI1 SLP163

CYXE;2008-09-25 04:00;CYXE 250400Z 10002KT 15SM SKC 07/M00 A2995 RMK SLP161

CYXE;2008-09-25 05:00;CYXE 250500Z 13004KT 15SM SKC 07/00 A2995 RMK SLP160

CYXE;2008-09-25 06:00;CYXE 250600Z 13004KT 15SM FEW090 05/M01 A2994 RMK AC1 SLP154

CYXE;2008-09-25 07:00;CYXE 250700Z 09005KT 15SM SKC 03/M01 A2993 RMK SLP150

CYXE;2008-09-25 07:07;CYXE 250707Z 09005KT 15SM SKC 02/

CYXE;2008-09-25 08:00;CYXE 250800Z 07006KT 15SM SKC 02/M01 A2991 RMK SLP144

CYXE;2008-09-25 09:00;CYXE 250900Z 07007KT 15SM SCT250 01/M01 A2989 RMK CI0 SLP138

CYXE;2008-09-25 10:00;CYXE 251000Z 06007KT 15SM SCT250 01/M01 A2987 RMK CI0 SLP133

CYXE;2008-09-25 11:00;CYXE 251100Z 06006KT 15SM BKN250 01/M01 A2986 RMK CI1 SLP130

CYXE;2008-09-25 12:00;CYXE 251200Z 07007KT 15SM BKN250 03/01 A2984 RMK CI1 SLP122

CYXE;2008-09-25 13:00;CYXE 251300Z 06007KT 15SM BKN120 OVC250 04/01 A2983 RMK AC5CI2 SLP118

CYXE;2008-09-25 14:00;CYXE 251400Z 07006KT 15SM BKN120 BKN280 06/02 A2983 RMK AC4CI2 SLP117

CYXE;2008-09-25 15:00;CYXE 251500Z 09007KT 15SM FEW120 BKN300 09/03 A2982 RMK AC2CI3 SLP113

CYXE;2008-09-25 16:00;CYXE 251600Z 09008KT 15SM FEW120 BKN300 12/05 A2981 RMK AC2CI2 SLP109

CYXE;2008-09-25 17:00;CYXE 251700Z 07007KT 15SM SCT120 BKN300 15/06 A2981 RMK AC2CI2 SLP110

CYXE;2008-09-25 18:00;CYXE 251800Z 07005KT 15SM FEW120 BKN300 17/06 A2979 RMK AC1CI2 SLP100

CYXE;2008-09-25 19:00;CYXE 251900Z 06009KT 15SM FEW120 BKN300 18/06 A2979 RMK AC1CI2 SLP100

CYXE;2008-09-25 20:00;CYXE 252000Z 04017KT 15SM FEW120 BKN300 17/05 A2979 RMK AC1CI2 SLP101

CYXE;2008-09-25 21:00;CYXE 252100Z 05018KT 15SM FEW120 BKN300 17/04 A2981 RMK AC1CI1 SLP108

CYXE;2008-09-25 22:00;CYXE 252200Z 04019KT 15SM FEW120 FEW300 17/02 A2983 RMK AC1CI0 SLP116

CYXE;2008-09-25 23:00;CYXE 252300Z 05018KT 15SM FEW300 16/01 A2986 RMK CI0 SLP124

CYXE;2008-09-26 00:00;CYXE 260000Z 04016G24KT 15SM SKC 13/01 A2990 RMK SLP141

CYXE;2008-09-26 01:00;CYXE 260100Z 04014KT 15SM SKC 10/02 A2994 RMK SLP154

CYXE;2008-09-26 02:00;CYXE 260200Z 03008KT 15SM SKC 08/02 A2998 RMK SLP169

CYXE;2008-09-26 03:00;CYXE 260300Z 03008KT 15SM SKC 06/02 A3001 RMK SLP179

CYXE;2008-09-26 04:00;CYXE 260400Z 03008KT 15SM SKC 05/02 A3002 RMK SLP184

CYXE;2008-09-26 05:00;CYXE 260500Z 03009KT 15SM SKC 05/02 A3004 RMK SLP190

CYXE;2008-09-26 06:00;CYXE 260600Z 03009KT 15SM SKC 04/02 A3005 RMK SLP191

CYXE;2008-09-26 07:00;CYXE 260700Z 03010KT 15SM SKC 03/01 A3006 RMK SLP195

CYXE;2008-09-26 08:00;CYXE 260800Z 03009KT 15SM SKC 03/01 A3008 RMK SLP201

CYXE;2008-09-26 09:00;CYXE 260900Z 07005KT 15SM SKC 01/M00 A3011 RMK SLP212

CYXE;2008-09-26 10:00;CYXE 261000Z 04007KT 15SM SKC M00/M01 A3012 RMK SLP217

CYXE;2008-09-26 11:00;CYXE 261100Z 07006KT 15SM SKC M01/M02 A3014 RMK SLP222

CYXE;2008-09-26 12:00;CYXE 261200Z 05006KT 15SM SKC M02/M02 A3016 RMK SLP235

CYXE;2008-09-26 13:00;CYXE 261300Z 05002KT 10SM FEW080 M02/M03 A3018 RMK AC1 BR SLP242

CYXE;2008-09-26 14:00;CYXE 261400Z 35008KT 10SM FEW080 FEW300 M01/M02 A3020 RMK AC1CI0 BR SLP248

CYXE;2008-09-26 15:00;CYXE 261500Z 08006KT 15SM FEW080 FEW300 04/02 A3023 RMK AC1CI0 SLP258

CYXE;2008-09-26 16:00;CYXE 261600Z 06004KT 15SM FEW090 FEW300 07/01 A3024 RMK AC1CI1 SLP262

CYXE;2008-09-26 17:00;CYXE 261700Z 10007KT 15SM FEW090 FEW300 11/01 A3024 RMK AC1CI1 SLP262

CYXE;2008-09-26 18:00;CYXE 261800Z 15004KT 15SM FEW300 12/M02 A3024 RMK CI0 SLP259

CYXE;2008-09-26 19:00;CYXE 261900Z 08007KT 15SM SKC 13/M03 A3025 RMK SLP261

CYXE;2008-09-26 20:00;CYXE 262000Z 12003KT 15SM SKC 14/M02 A3023 RMK SLP257

CYXE;2008-09-26 21:00;CYXE 262100Z 07010KT 15SM SKC 15/M02 A3023 RMK SLP254

CYXE;2008-09-26 22:00;CYXE 262200Z 12006KT 15SM SKC 15/M02 A3023 RMK SLP255

CYXE;2008-09-26 23:00;CYXE 262300Z 13003KT 15SM SKC 14/M02 A3023 RMK SLP254

CYXE;2008-09-27 00:00;CYXE 270000Z 13004KT 15SM SKC 13/M01 A3023 RMK SLP258

CYXE;2008-09-27 01:00;CYXE 270100Z 09006KT 15SM FEW300 10/M02 A3023 RMK CI1 SLP258

CYXE;2008-09-27 02:00;CYXE 270200Z 06007KT 15SM SCT300 07/M02 A3024 RMK CI1 SLP260

CYXE;2008-09-27 03:00;CYXE 270300Z 08005KT 15SM BKN300 05/M01 A3023 RMK CI2 SLP261

CYXE;2008-09-27 04:00;CYXE 270400Z 12007KT 15SM BKN300 07/M02 A3023 RMK CI2 SLP259

CYXE;2008-09-27 05:00;CYXE 270500Z 13007KT 15SM BKN300 08/M03 A3023 RMK CI2 SLP260

CYXE;2008-09-27 06:00;CYXE 270600Z 13008KT 15SM BKN280 07/M02 A3022 RMK CI2 SLP251

CYXE;2008-09-27 07:00;CYXE 270700Z 13008KT 15SM FEW280 06/M02 A3021 RMK CI1 SLP247

CYXE;2008-09-27 08:00;CYXE 270800Z 13007KT 15SM SCT280 05/M01 A3020 RMK CI1 SLP242

CYXE;2008-09-27 09:00;CYXE 270900Z 13006KT 15SM SCT280 05/M00 A3018 RMK CI1 SLP237

CYXE;2008-09-27 10:00;CYXE 271000Z 13006KT 15SM FEW280 04/01 A3016 RMK CI1 SLP228

CYXE;2008-09-27 11:00;CYXE 271100Z 12008KT 15SM BKN063 06/02 A3012 RMK SC6 SLP218

CYXE;2008-09-27 12:00;CYXE 271200Z 13011KT 15SM BKN063 BKN095 OVC250 06/02 A3010 RMK SC6AC2CI0 SLP209

CYXE;2008-09-27 13:00;CYXE 271300Z 13012KT 15SM BKN073 OVC250 06/02 A3008 RMK AC6CI1 SLP200

CYXE;2008-09-27 14:00;CYXE 271400Z 14012G17KT 15SM BKN075 OVC250 07/03 A3005 RMK AC5CI2 SLP191

CYXE;2008-09-27 15:00;CYXE 271500Z 14013KT 15SM BKN069 OVC300 09/05 A3003 RMK AC5CS3 SLP187

CYXE;2008-09-27 16:00;CYXE 271600Z 14013G18KT 15SM FEW069 BKN095 OVC300 10/05 A3001 RMK AC1AC4CS3 SLP181

CYXE;2008-09-27 17:00;CYXE 271700Z 14013KT 15SM SCT073 BKN095 OVC300 12/07 A2998 RMK AC3AC3CS2 SLP172

CYXE;2008-09-27 18:00;CYXE 271800Z 14013G20KT 15SM SCT075 OVC300 14/07 A2994 RMK AC4CS4 SLP153

CYXE;2008-09-27 19:00;CYXE 271900Z 15016G22KT 15SM FEW080 BKN300 16/07 A2991 RMK AC2CI3 SLP144

CYXE;2008-09-27 20:00;CYXE 272000Z 17018G30KT 15SM FEW080 BKN300 18/07 A2988 RMK AC1CS2 SLP134

CYXE;2008-09-27 21:00;CYXE 272100Z 16016G24KT 15SM FEW075 BKN300 19/07 A2985 RMK AC1CS2 SLP119

CYXE;2008-09-27 22:00;CYXE 272200Z 17018KT 15SM FEW075 BKN300 20/07 A2981 RMK AC2CI1 SLP106

CYXE;2008-09-27 23:00;CYXE 272300Z 16011KT 15SM FEW075 SCT110 OVC300 19/08 A2978 RMK AC1AC2CS5 SLP099

CYXE;2008-09-28 00:00;CYXE 280000Z 19012KT 15SM FEW080 BKN300 20/07 A2977 RMK ACC1CI6 SLP093

CYXE;2008-09-28 01:00;CYXE 280100Z 24008KT 15SM FEW080 BKN300 16/04 A2979 RMK ACC1CI4 SLP098

CYXE;2008-09-28 02:00;CYXE 280200Z 26008KT 15SM FEW085 SCT300 12/03 A2982 RMK AC2CI0 SLP108

CYXE;2008-09-28 03:00;CYXE 280300Z 30012KT 15SM BKN090 BKN300 15/05 A2986 RMK AC5CI1 SLP122

CYXE;2008-09-28 04:00;CYXE 280400Z 31015G21KT 15SM SCT110 13/05 A2987 RMK AC3 SLP128

CYXE;2008-09-28 05:00;CYXE 280500Z 30012G17KT 15SM SCT120 12/05 A2991 RMK AC2 SLP140

CYXE;2008-09-28 06:00;CYXE 280600Z 30012KT 15SM FEW250 10/05 A2993 RMK CI1 SLP148

CYXE;2008-09-28 07:00;CYXE 280700Z 29010KT 15SM FEW250 08/05 A2995 RMK CI0 SLP155

CYXE;2008-09-28 08:00;CYXE 280800Z 29011KT 15SM SKC 08/04 A2997 RMK SLP161

CYXE;2008-09-28 09:00;CYXE 280900Z 28009KT 15SM SKC 07/04 A2999 RMK SLP165

CYXE;2008-09-28 10:00;CYXE 281000Z 23008KT 15SM SKC 05/03 A3001 RMK SLP173

CYXE;2008-09-28 11:00;CYXE 281100Z 23009KT 15SM SKC 04/03 A3002 RMK SLP177

CYXE;2008-09-28 12:00;CYXE 281200Z 25009KT 15SM FEW250 04/03 A3003 RMK CI1 SLP183

CYXE;2008-09-28 13:00;CYXE 281300Z 25008KT 15SM FEW090 FEW250 03/03 A3005 RMK AC1CI0 SLP188

CYXE;2008-09-28 14:00;CYXE 281400Z 26009KT 15SM FEW090 04/03 A3007 RMK AC1 SLP194

CYXE;2008-09-28 15:00;CYXE 281500Z 27012KT 15SM SCT040 SCT090 08/04 A3008 RMK SC4AC1 SLP198

CYXE;2008-09-28 16:00;CYXE 281600Z 30016G22KT 15SM FEW037 FEW250 11/04 A3009 RMK SC2CI0 SLP204

CYXE;2008-09-28 17:00;CYXE 281700Z 30019G25KT 15SM BKN035 13/05 A3010 RMK SC6 CU ASOCTD SLP207

CYXE;2008-09-28 18:00;CYXE 281800Z 32022G28KT 15SM BKN038 14/04 A3011 RMK SC6 SLP210

CYXE;2008-09-28 19:00;CYXE 281900Z 32018KT 15SM BKN038 14/04 A3013 RMK SC7 SLP215

CYXE;2008-09-28 20:00;CYXE 282000Z 33015G20KT 15SM BKN043 13/03 A3014 RMK SC7 SLP220

CYXE;2008-09-28 21:00;CYXE 282100Z 33019G24KT 15SM BKN045 14/04 A3014 RMK SC6 SLP221

CYXE;2008-09-28 22:00;CYXE 282200Z 33018KT 15SM FEW045 14/04 A3017 RMK SC2 SLP229

CYXE;2008-09-28 23:00;CYXE 282300Z 36013KT 15SM FEW050 SCT300 14/04 A3019 RMK SC2CI0 SLP236

CYXE;2008-09-29 00:00;CYXE 290000Z 01011KT 15SM FEW040 FEW300 12/04 A3020 RMK SC1CI0 SLP245

CYXE;2008-09-29 01:00;CYXE 290100Z 05004KT 15SM SCT300 09/04 A3022 RMK CI1 SLP252

CYXE;2008-09-29 02:00;CYXE 290200Z 05006KT 15SM FEW300 05/02 A3023 RMK CI0 SLP256

CYXE;2008-09-29 03:00;CYXE 290300Z 05003KT 15SM SKC 06/03 A3025 RMK SLP262

CYXE;2008-09-29 04:00;CYXE 290400Z 00000KT 15SM SKC 05/03 A3026 RMK SLP265

CYXE;2008-09-29 05:00;CYXE 290500Z 05002KT 15SM SKC 02/02 A3027 RMK SLP270

CYXE;2008-09-29 05:39;CYXE 290539Z 07002KT 15SM SKC 02/

CYXE;2008-09-29 06:00;CYXE 290600Z 00000KT 15SM SKC 00/00 A3027 RMK SLP271

CYXE;2008-09-29 07:00;CYXE 290700Z 22004KT 10SM BCFG SKC 00/00 A3028 RMK SLP273

CYXE;2008-09-29 08:00;CYXE 290800Z 15003KT 15SM SKC 00/00 A3027 RMK SLP271

CYXE;2008-09-29 09:00;CYXE 290900Z 19004KT 15SM SKC 01/01 A3026 RMK SLP267

CYXE;2008-09-29 10:00;CYXE 291000Z 19005KT 15SM SKC M01/M01 A3026 RMK VIS W 2 SLP266

CYXE;2008-09-29 11:00;CYXE 291100Z 17004KT 10SM SKC M00/M00 A3026 RMK BR SLP265

CYXE;2008-09-29 12:00;CYXE 291200Z 15004KT 10SM FEW250 00/00 A3026 RMK CI1 BR SLP267

CYXE;2008-09-29 13:00;CYXE 291300Z 17004KT 8SM FEW090 SCT250 00/00 A3025 RMK AC1CI1 BR SLP264

CYXE;2008-09-29 14:00;CYXE 291400Z 19006KT 8SM FEW090 SCT250 01/01 A3026 RMK AC1CI1 BR SLP266

CYXE;2008-09-29 15:00;CYXE 291500Z 18005KT 15SM FEW090 SCT250 04/03 A3024 RMK AC1CI0 SLP262

CYXE;2008-09-29 16:00;CYXE 291600Z 20006KT 15SM FEW120 SCT250 09/02 A3022 RMK AC1CI1 SLP256

CYXE;2008-09-29 17:00;CYXE 291700Z 21008KT 15SM FEW120 SCT300 13/03 A3019 RMK AC1CI1 SLP247

CYXE;2008-09-29 18:00;CYXE 291800Z 21011KT 15SM FEW120 FEW300 18/01 A3017 RMK AC1CI0 SLP234

CYXE;2008-09-29 19:00;CYXE 291900Z 22013KT 15SM FEW120 BKN300 21/02 A3014 RMK AC1CI1 SLP225

CYXE;2008-09-29 20:00;CYXE 292000Z 22013KT 15SM FEW300 22/02 A3011 RMK CI0 SLP214

CYXE;2008-09-29 21:00;CYXE 292100Z 24014G20KT 15SM FEW300 23/02 A3008 RMK CI0 SLP198

CYXE;2008-09-29 22:00;CYXE 292200Z 26013G20KT 15SM FEW300 24/03 A3006 RMK CI1 SLP192

CYXE;2008-09-29 23:00;CYXE 292300Z 28014KT 15SM FEW120 SCT300 24/03 A3005 RMK AC1CI0 SLP189

CYXE;2008-09-30 00:00;CYXE 300000Z 26007KT 15SM FEW120 SCT300 21/04 A3005 RMK AC1CI1 SLP190

CYXE;2008-09-30 01:00;CYXE 300100Z 25007KT 15SM FEW120 SCT300 16/04 A3006 RMK AC1CI1 SLP192

CYXE;2008-09-30 02:00;CYXE 300200Z 23007KT 15SM FEW300 13/04 A3006 RMK CI0 SLP194

CYXE;2008-09-30 03:00;CYXE 300300Z 23008KT 15SM SKC 11/04 A3007 RMK SLP199

CYXE;2008-09-30 04:00;CYXE 300400Z 23008KT 15SM SKC 10/05 A3007 RMK SLP201

CYXE;2008-09-30 05:00;CYXE 300500Z 24008KT 15SM SKC 10/05 A3008 RMK SLP202

CYXE;2008-09-30 06:00;CYXE 300600Z 25007KT 15SM SKC 08/04 A3009 RMK SLP202

CYXE;2008-09-30 07:00;CYXE 300700Z 28005KT 15SM SKC 08/05 A3010 RMK SLP205

CYXE;2008-09-30 08:00;CYXE 300800Z 29004KT 15SM SKC 06/04 A3012 RMK SLP210

CYXE;2008-09-30 09:00;CYXE 300900Z 32003KT 15SM SKC 06/05 A3013 RMK SLP213

CYXE;2008-09-30 10:00;CYXE 301000Z 00000KT 15SM SKC 04/03 A3014 RMK SLP216

CYXE;2008-09-30 11:00;CYXE 301100Z 25003KT 15SM SKC 05/04 A3016 RMK SLP222

CYXE;2008-09-30 12:00;CYXE 301200Z 30003KT 15SM SKC 05/05 A3017 RMK SLP228

CYXE;2008-09-30 13:00;CYXE 301300Z 32005KT 12SM MIFG SKC 05/04 A3018 RMK SLP232

CYXE;2008-09-30 14:00;CYXE 301400Z 00000KT 15SM MIFG SKC 06/05 A3020 RMK SLP237

CYXE;2008-09-30 15:00;CYXE 301500Z 00000KT 15SM SKC 11/07 A3021 RMK SLP245

CYXE;2008-09-30 16:00;CYXE 301600Z 08002KT 15SM SKC 16/08 A3022 RMK SLP249

CYXE;2008-09-30 17:00;CYXE 301700Z 11002KT 15SM SKC 19/09 A3023 RMK SLP251

CYXE;2008-09-30 18:00;CYXE 301800Z 02002KT 15SM SKC 21/08 A3022 RMK SLP246

CYXE;2008-09-30 19:00;CYXE 301900Z 29004KT 15SM FEW280 22/09 A3022 RMK CI1 SLP246

CYXE;2008-09-30 20:00;CYXE 302000Z 01005KT 15SM FEW300 23/08 A3021 RMK CI0 SLP243

CYXE;2008-09-30 21:00;CYXE 302100Z 02002KT 15SM FEW300 24/08 A3021 RMK CI0 SLP240

CYXE;2008-09-30 22:00;CYXE 302200Z 31004KT 15SM FEW300 24/07 A3020 RMK CI0 SLP238

CYXE;2008-09-30 23:00;CYXE 302300Z 04007KT 15SM FEW300 23/08 A3020 RMK CI0 SLP238

CYXE;2008-10-01 01:00;CYXE 010100Z 07006KT 15SM FEW090 FEW300 17/07 A3021 RMK AC1CI0 SLP241

CYXE;2008-10-01 02:00;CYXE 010200Z 07008KT 15SM FEW300 15/07 A3021 RMK CI1 SLP244

CYXE;2008-10-01 03:00;CYXE 010300Z 09006KT 15SM SKC 12/06 A3022 RMK SLP247

CYXE;2008-10-01 04:00;CYXE 010400Z 12008KT 15SM SKC 12/06 A3023 RMK SLP249

CYXE;2008-10-01 05:00;CYXE 010500Z 13007KT 15SM SKC 13/06 A3023 RMK SLP249

CYXE;2008-10-01 06:00;CYXE 010600Z 13006KT 15SM SKC 12/05 A3023 RMK SLP244

CYXE;2008-10-01 07:00;CYXE 010700Z 14005KT 15SM SKC 11/05 A3022 RMK SLP242

CYXE;2008-10-01 08:00;CYXE 010800Z 17005KT 15SM SKC 10/05 A3022 RMK SLP243

CYXE;2008-10-01 09:00;CYXE 010900Z 20005KT 15SM SKC 07/04 A3022 RMK SLP244

CYXE;2008-10-01 10:00;CYXE 011000Z 15003KT 15SM SKC 06/05 A3021 RMK SLP241

CYXE;2008-10-01 11:00;CYXE 011100Z 17004KT 15SM SKC 07/05 A3021 RMK SLP239

CYXE;2008-10-01 12:00;CYXE 011200Z 19004KT 15SM SKC 08/05 A3020 RMK SLP237

CYXE;2008-10-01 13:00;CYXE 011300Z 22005KT 15SM SKC 06/04 A3019 RMK SLP234

CYXE;2008-10-01 14:00;CYXE 011400Z 17004KT 15SM FEW280 08/05 A3017 RMK CI1 SLP229

CYXE;2008-10-01 15:00;CYXE 011500Z 19004KT 15SM FEW300 12/07 A3017 RMK CI0 SLP228

CYXE;2008-10-01 16:00;CYXE 011600Z 19010KT 15SM FEW300 16/07 A3015 RMK CI0 SLP224

CYXE;2008-10-01 17:00;CYXE 011700Z 19011KT 15SM FEW300 21/08 A3013 RMK CI1 SLP216

CYXE;2008-10-01 18:00;CYXE 011800Z 19010KT 15SM FEW300 23/07 A3010 RMK CI0 SLP201

CYXE;2008-10-01 19:00;CYXE 011900Z 20009KT 15SM FEW300 25/07 A3009 RMK CI0 SLP196

CYXE;2008-10-01 20:00;CYXE 012000Z 18008KT 15SM FEW300 25/07 A3006 RMK CI0 SLP187

CYXE;2008-10-01 21:00;CYXE 012100Z 19009KT 15SM SKC 26/06 A3004 RMK SLP180

CYXE;2008-10-01 22:00;CYXE 012200Z 18008KT 15SM SKC 26/06 A3003 RMK SLP175

CYXE;2008-10-01 23:00;CYXE 012300Z 18006KT 15SM SKC 25/07 A3000 RMK SLP168

CYXE;2008-10-02 00:00;CYXE 020000Z 18005KT 15SM FEW300 23/07 A2999 RMK CI0 SLP165

CYXE;2008-10-02 01:00;CYXE 020100Z 16005KT 15SM FEW300 21/07 A2999 RMK CI0 SLP163

CYXE;2008-10-02 02:00;CYXE 020200Z 13004KT 15SM SKC 17/06 A2998 RMK SLP160

CYXE;2008-10-02 03:00;CYXE 020300Z 15006KT 15SM SKC 16/07 A2997 RMK SLP160

CYXE;2008-10-02 04:00;CYXE 020400Z 16007KT 15SM SKC 16/06 A2997 RMK SLP158

CYXE;2008-10-02 05:00;CYXE 020500Z 15006KT 15SM SKC 15/06 A2996 RMK SLP157

CYXE;2008-10-02 06:00;CYXE 020600Z 17006KT 15SM SKC 13/06 A2996 RMK SLP150

CYXE;2008-10-02 07:00;CYXE 020700Z 14006KT 15SM SKC 12/06 A2995 RMK SLP146

CYXE;2008-10-02 08:00;CYXE 020800Z 14006KT 15SM SKC 12/06 A2994 RMK SLP143

CYXE;2008-10-02 09:00;CYXE 020900Z 13005KT 15SM SKC 11/06 A2992 RMK SLP138

CYXE;2008-10-02 10:00;CYXE 021000Z 13005KT 15SM SKC 10/06 A2992 RMK SLP136

CYXE;2008-10-02 11:00;CYXE 021100Z 14005KT 15SM SKC 09/05 A2991 RMK SLP135

CYXE;2008-10-02 12:00;CYXE 021200Z 12006KT 15SM SKC 08/05 A2991 RMK SLP138

CYXE;2008-10-02 13:00;CYXE 021300Z 12007KT 15SM SKC 08/05 A2991 RMK SLP138

CYXE;2008-10-02 14:00;CYXE 021400Z 15005KT 15SM MIFG SKC 10/07 A2991 RMK SLP137

CYXE;2008-10-02 15:00;CYXE 021500Z 16006KT 15SM SKC 13/07 A2991 RMK SLP138

CYXE;2008-10-02 16:00;CYXE 021600Z 17007KT 15SM SKC 15/07 A2991 RMK SLP139

CYXE;2008-10-02 17:00;CYXE 021700Z 14006KT 15SM SKC 19/08 A2991 RMK SLP137

CYXE;2008-10-02 18:00;CYXE 021800Z 14009KT 15SM SKC 22/08 A2990 RMK SLP129

CYXE;2008-10-02 19:00;CYXE 021900Z 16016KT 15SM SKC 26/07 A2987 RMK SLP122

CYXE;2008-10-02 20:00;CYXE 022000Z 18015KT 15SM SKC 27/07 A2986 RMK SLP117

CYXE;2008-10-02 21:00;CYXE 022100Z 17012G18KT 15SM SKC 28/07 A2984 RMK SLP109

CYXE;2008-10-02 22:00;CYXE 022200Z 17013KT 15SM SKC 27/07 A2983 RMK SLP105

CYXE;2008-10-02 23:00;CYXE 022300Z 16014KT 15SM SKC 26/06 A2982 RMK SLP102

CYXE;2008-10-03 00:00;CYXE 030000Z 14010KT 15SM SKC 24/06 A2982 RMK SLP104

CYXE;2008-10-03 01:00;CYXE 030100Z 12010KT 15SM SKC 21/05 A2981 RMK SLP101

CYXE;2008-10-03 02:00;CYXE 030200Z 13011KT 15SM SKC 20/05 A2981 RMK SLP101

CYXE;2008-10-03 03:00;CYXE 030300Z 14013KT 15SM SKC 19/04 A2980 RMK SLP098

CYXE;2008-10-03 04:00;CYXE 030400Z 14010KT 15SM SKC 17/04 A2980 RMK SLP097

CYXE;2008-10-03 05:00;CYXE 030500Z 14009KT 15SM SKC 15/04 A2980 RMK SLP099

CYXE;2008-10-03 06:00;CYXE 030600Z 13009KT 15SM SKC 13/05 A2980 RMK SLP097

CYXE;2008-10-03 07:00;CYXE 030700Z 14008KT 15SM SKC 12/05 A2980 RMK SLP096

CYXE;2008-10-03 08:00;CYXE 030800Z 15007KT 15SM SKC 13/05 A2981 RMK SLP100

CYXE;2008-10-03 09:00;CYXE 030900Z 17010KT 15SM SKC 13/04 A2980 RMK SLP094

CYXE;2008-10-03 10:00;CYXE 031000Z 15010KT 15SM SKC 13/04 A2981 RMK SLP097

CYXE;2008-10-03 11:00;CYXE 031100Z 15007KT 15SM SKC 12/04 A2980 RMK SLP094

CYXE;2008-10-03 12:00;CYXE 031200Z 14007KT 15SM SKC 11/05 A2980 RMK SLP096

CYXE;2008-10-03 13:00;CYXE 031300Z 15008KT 15SM SKC 11/05 A2979 RMK SLP093

CYXE;2008-10-03 14:00;CYXE 031400Z 14007KT 15SM SKC 11/05 A2978 RMK SLP091

CYXE;2008-10-03 15:00;CYXE 031500Z 14007KT 15SM SKC 14/06 A2979 RMK SLP094

CYXE;2008-10-03 16:00;CYXE 031600Z 16010KT 15SM SKC 16/07 A2978 RMK SLP092

CYXE;2008-10-03 17:00;CYXE 031700Z 16016KT 15SM SKC 20/06 A2978 RMK SLP090

CYXE;2008-10-03 18:00;CYXE 031800Z 17015G20KT 15SM SKC 23/07 A2977 RMK SLP084

CYXE;2008-10-03 19:00;CYXE 031900Z 18017KT 15SM SKC 25/06 A2974 RMK SLP076

CYXE;2008-10-03 20:00;CYXE 032000Z 17017G22KT 15SM SKC 26/06 A2973 RMK SLP073

CYXE;2008-10-03 21:00;CYXE 032100Z 17018G24KT 15SM SKC 26/06 A2971 RMK SLP064

CYXE;2008-10-03 22:00;CYXE 032200Z 19016G25KT 15SM SKC 27/05 A2970 RMK SLP060

CYXE;2008-10-03 23:00;CYXE 032300Z 17016G21KT 15SM FEW250 26/05 A2969 RMK CI1 SLP058

CYXE;2008-10-04 00:00;CYXE 040000Z 16013G22KT 15SM FEW250 24/03 A2969 RMK CI1 SLP059

CYXE;2008-10-04 01:00;CYXE 040100Z 15010G16KT 15SM FEW250 22/03 A2969 RMK CI1 SLP060

CYXE;2008-10-04 02:00;CYXE 040200Z 14012KT 15SM SKC 19/06 A2970 RMK SLP061

CYXE;2008-10-04 03:00;CYXE 040300Z 15017KT 15SM SKC 19/06 A2970 RMK SLP062

CYXE;2008-10-04 04:00;CYXE 040400Z 15015G20KT 15SM SKC 18/06 A2970 RMK SLP062

CYXE;2008-10-04 05:00;CYXE 040500Z 15013KT 15SM SKC 17/07 A2969 RMK SLP059

CYXE;2008-10-04 06:00;CYXE 040600Z 15013KT 15SM SKC 16/07 A2968 RMK SLP052

CYXE;2008-10-04 07:00;CYXE 040700Z 16014KT 15SM SKC 16/07 A2967 RMK SLP049

CYXE;2008-10-04 08:00;CYXE 040800Z 15012G17KT 15SM SKC 15/07 A2966 RMK SLP047

CYXE;2008-10-04 09:00;CYXE 040900Z 15011KT 15SM SKC 15/07 A2966 RMK SLP044

CYXE;2008-10-04 10:00;CYXE 041000Z 15013KT 15SM SKC 14/08 A2964 RMK SLP040

CYXE;2008-10-04 11:00;CYXE 041100Z 14009KT 15SM SKC 12/08 A2964 RMK SLP039

CYXE;2008-10-04 12:00;CYXE 041200Z 13008KT 15SM SKC 11/08 A2964 RMK SLP042

CYXE;2008-10-04 13:00;CYXE 041300Z 14012KT 15SM FEW100 12/08 A2964 RMK AC1 SLP041

CYXE;2008-10-04 14:00;CYXE 041400Z 14014KT 15SM SCT120 12/08 A2964 RMK AC3 SLP041

CYXE;2008-10-04 15:00;CYXE 041500Z 15009KT 15SM SCT120 13/07 A2964 RMK AC3 SLP043

CYXE;2008-10-04 16:00;CYXE 041600Z 16011KT 15SM FEW120 14/07 A2963 RMK AC2 SLP042

CYXE;2008-10-04 17:00;CYXE 041700Z 14014KT 15SM BKN120 16/07 A2962 RMK AC4 SLP038

CYXE;2008-10-04 18:00;CYXE 041800Z 13013G19KT 15SM BKN120 18/07 A2962 RMK AC3 SLP034

CYXE;2008-10-04 19:00;CYXE 041900Z 13015KT 15SM BKN120 20/08 A2960 RMK AC3 SLP029

CYXE;2008-10-04 20:00;CYXE 042000Z 14015G20KT 15SM SCT120 22/08 A2959 RMK AC2 SLP025

CYXE;2008-10-04 21:00;CYXE 042100Z 13015G22KT 15SM SCT120 23/08 A2956 RMK AC2 SLP014

CYXE;2008-10-04 22:00;CYXE 042200Z 13013G24KT 15SM FEW160 SCT250 23/08 A2955 RMK AC2CI0 SLP010

CYXE;2008-10-04 23:00;CYXE 042300Z 14022G28KT 15SM FEW160 BKN250 25/10 A2954 RMK AC2CI1 SLP007

CYXE;2008-10-05 00:00;CYXE 050000Z 14016KT 15SM FEW160 BKN250 22/10 A2955 RMK AC2CI1 SLP013

CYXE;2008-10-05 01:00;CYXE 050100Z 14016G27KT 15SM SCT120 BKN250 22/09 A2957 RMK AC3CI1 SLP019

CYXE;2008-10-05 02:00;CYXE 050200Z 14016G22KT 15SM SCT120 21/09 A2959 RMK AC4 SLP023

CYXE;2008-10-05 03:00;CYXE 050300Z 13016G24KT 15SM BKN120 20/09 A2958 RMK AC6 SLP021

CYXE;2008-10-05 04:00;CYXE 050400Z 14017G22KT 15SM FEW120 OVC250 19/09 A2957 RMK AC2CI4 SLP019

CYXE;2008-10-05 05:00;CYXE 050500Z 14020G27KT 15SM FEW120 OVC250 19/09 A2957 RMK AC2CI5 SLP019

CYXE;2008-10-05 06:00;CYXE 050600Z 14015G22KT 15SM FEW120 OVC250 19/10 A2958 RMK AC2CI5 SLP019

CYXE;2008-10-05 06:30;CYXE 050630Z 15018G25KT 15SM -RA SCT032 OVC120 18/ RMK SC3AC5

CYXE;2008-10-05 07:00;CYXE 050700Z 15018G24KT 15SM -RA SCT038 OVC100 18/10 A2958 RMK SC4AC4 SLP021

CYXE;2008-10-05 07:15;CYXE 050715Z 15018G27KT 15SM SCT045 OVC100 18/ RMK SC3AC5

CYXE;2008-10-05 08:00;CYXE 050800Z 14017G27KT 15SM BKN067 17/11 A2958 RMK AC7 SLP020

CYXE;2008-10-05 08:26;CYXE 050826Z 15020G32KT 15SM -SHRA BKN067 16/ RMK AC7

CYXE;2008-10-05 09:00;CYXE 050900Z 15013G20KT 15SM -SHRA BKN034 OVC070 15/13 A2959 RMK SC5AC3 SLP023

CYXE;2008-10-05 10:00;CYXE 051000Z 14014G20KT 15SM -SHRA OVC025 14/12 A2959 RMK SC8 SLP022

CYXE;2008-10-05 11:00;CYXE 051100Z 14015KT 15SM -SHRA OVC025 14/11 A2959 RMK SC8 SLP025

CYXE;2008-10-05 12:00;CYXE 051200Z 14014G19KT 15SM -SHRA OVC032 13/11 A2959 RMK SC8 SLP025

CYXE;2008-10-05 12:31;CYXE 051231Z 14014KT 15SM BKN032 OVC090 14/ RMK SC6AC2

CYXE;2008-10-05 13:00;CYXE 051300Z 14015KT 15SM BKN032 OVC098 14/10 A2960 RMK SC6AC2 SLP027

CYXE;2008-10-05 14:00;CYXE 051400Z 14016KT 15SM BKN032 OVC098 13/10 A2960 RMK SC6AC2 SLP027

CYXE;2008-10-05 14:17;CYXE 051417Z 14017G22KT 5SM -SHRA BKN029 OVC070 12/ RMK SC7AC1

CYXE;2008-10-05 15:00;CYXE 051500Z 15011G17KT 5SM -SHRA BKN029 OVC070 11/11 A2960 RMK SC7AC1 SLP032

CYXE;2008-10-05 15:58;CYXE 051558Z 14014G19KT 3SM RA OVC020 11/ RMK SC8

CYXE;2008-10-05 16:00;CYXE 051600Z 15014G19KT 3SM RA OVC020 11/11 A2961 RMK SC8 SLP034

CYXE;2008-10-05 17:00;CYXE 051700Z 15017KT 10SM -RA OVC020 11/11 A2961 RERA RMK SC8 SLP033

CYXE;2008-10-05 18:00;CYXE 051800Z 14010KT 6SM -RA OVC020 11/11 A2960 RMK SC8 SLP032

CYXE;2008-10-05 18:10;CYXE 051810Z 14017KT 5SM -RA SCT009 OVC020 11/ RMK SF4SC4

CYXE;2008-10-05 18:18;CYXE 051818Z 14017G25KT 5SM -RA BKN008 OVC020 11/ RMK SF6SC2

CYXE;2008-10-05 19:00;CYXE 051900Z 14016KT 3SM RA BKN008 OVC020 11/11 A2959 RMK SF5SC3 SLP029

CYXE;2008-10-05 20:00;CYXE 052000Z 14014KT 3SM RA BKN008 OVC020 11/11 A2958 RMK SF6SC2 SLP023

CYXE;2008-10-05 21:00;CYXE 052100Z 14012G17KT 3SM -RA BKN008 OVC020 11/11 A2957 RERA RMK SF5SC3 /R11/ SLP022

CYXE;2008-10-05 22:00;CYXE 052200Z 15014KT 8SM -RA BKN008 OVC020 11/11 A2957 RMK SF7SC1 SLP022

CYXE;2008-10-05 23:00;CYXE 052300Z 15014KT 8SM -RA OVC008 11/11 A2957 RMK ST8 SLP023

CYXE;2008-10-06 00:00;CYXE 060000Z 16010G16KT 3SM -RA BR OVC006 11/11 A2956 RMK SF8 /R15/ SLP021

CYXE;2008-10-06 00:42;CYXE 060042Z 16011KT 2SM -RA BR OVC005 11/ RMK SF8

CYXE;2008-10-06 01:00;CYXE 060100Z 16011KT 4SM -RA BR OVC006 11/11 A2956 RMK SF8 SLP021

CYXE;2008-10-06 02:00;CYXE 060200Z 15010KT 15SM -RA BKN007 OVC047 11/11 A2957 RMK SF6SC2 SLP022

CYXE;2008-10-06 02:35;CYXE 060235Z 15010KT 15SM -RA SCT006 OVC059 11/ RMK SF4SC4

CYXE;2008-10-06 03:00;CYXE 060300Z 15010KT 15SM SCT007 OVC070 11/11 A2957 RMK SF4AC4 SLP024

CYXE;2008-10-06 04:00;CYXE 060400Z 15007KT 15SM FEW007 OVC078 11/11 A2958 RMK SF2AC6 SLP028

CYXE;2008-10-06 05:00;CYXE 060500Z 14007KT 15SM FEW007 OVC087 11/11 A2957 RMK SF2AC6 SLP026

CYXE;2008-10-06 06:00;CYXE 060600Z 16008KT 15SM FEW007 OVC085 11/11 A2957 RMK SF1AC7 SLP025

CYXE;2008-10-06 07:00;CYXE 060700Z 16007KT 15SM OVC095 11/11 A2956 RMK AC8 SLP023

CYXE;2008-10-06 08:00;CYXE 060800Z 16007KT 15SM OVC083 11/11 A2956 RMK AC8 SLP023

CYXE;2008-10-06 09:00;CYXE 060900Z 18006KT 15SM SCT090 10/09 A2956 RMK AC3 SLP023

CYXE;2008-10-06 10:00;CYXE 061000Z 15004KT 15SM FEW090 08/08 A2956 RMK AC2 SLP024

CYXE;2008-10-06 11:00;CYXE 061100Z 18005KT 15SM FEW090 08/07 A2956 RMK AC2 SLP024

CYXE;2008-10-06 12:00;CYXE 061200Z 19007KT 15SM FEW090 06/05 A2958 RMK AC2 SLP030

CYXE;2008-10-06 13:00;CYXE 061300Z 16002KT 15SM FEW090 04/03 A2957 RMK AC2 SLP028

CYXE;2008-10-06 14:00;CYXE 061400Z 28004KT 15SM FEW030 FEW090 FEW250 02/02 A2958 RMK SC1AC1CI0 SLP031

CYXE;2008-10-06 15:00;CYXE 061500Z 30006KT 15SM FEW007 FEW090 FEW250 06/06 A2958 RMK SF1AC1CI0 SLP032

CYXE;2008-10-06 16:00;CYXE 061600Z 32015KT 15SM BKN003 BKN040 09/09 A2960 RMK SF6SC1 SLP039

CYXE;2008-10-06 16:44;CYXE 061644Z 32017KT 15SM OVC005 10/ RMK ST8

CYXE;2008-10-06 17:00;CYXE 061700Z 32017G22KT 15SM OVC008 09/09 A2962 RMK ST8 SLP044

CYXE;2008-10-06 17:18;CYXE 061718Z 31016G22KT 15SM OVC010 09/ RMK ST8

CYXE;2008-10-06 18:00;CYXE 061800Z 32020G26KT 15SM OVC012 09/08 A2964 RMK ST8 SLP051

CYXE;2008-10-06 19:00;CYXE 061900Z 31019G26KT 15SM OVC012 08/07 A2967 RMK ST8 SLP061

CYXE;2008-10-06 20:00;CYXE 062000Z 31020G27KT 15SM OVC014 08/06 A2971 RMK SC8 SLP073

CYXE;2008-10-06 20:16;CYXE 062016Z 31020G25KT 15SM OVC016 08/ RMK SC8

CYXE;2008-10-06 21:00;CYXE 062100Z 31015G21KT 15SM OVC016 08/06 A2974 RMK SC8 SLP087

CYXE;2008-10-06 21:42;CYXE 062142Z 31017G22KT 15SM -DZ OVC014 08/ RMK SF8

CYXE;2008-10-06 22:00;CYXE 062200Z 31018KT 15SM -DZ OVC014 08/06 A2978 RMK SF8 SLP098

CYXE;2008-10-06 22:20;CYXE 062220Z 30015KT 15SM OVC014 08/ RMK SF8

CYXE;2008-10-06 22:29;CYXE 062229Z 30017KT 15SM -SHRA BKN016 OVC080 08/ RMK SF7AC1

CYXE;2008-10-06 23:00;CYXE 062300Z 30016KT 15SM -SHRA BKN016 OVC110 08/06 A2981 RMK SF6AC2 SLP108

CYXE;2008-10-07 00:00;CYXE 070000Z 31017G25KT 15SM -SHRA SCT034 BKN044 08/05 A2983 RMK SC3SC4 SLP118

CYXE;2008-10-07 00:54;CYXE 070054Z 32013G21KT 15SM BKN050 08/ RMK SC7

CYXE;2008-10-07 01:00;CYXE 070100Z 32015G21KT 15SM BKN052 09/04 A2986 RMK SC7 SLP130

CYXE;2008-10-07 02:00;CYXE 070200Z 29010KT 15SM SCT056 BKN074 08/04 A2990 RMK SC4AC3 SLP142

CYXE;2008-10-07 03:00;CYXE 070300Z 27007KT 15SM SCT062 BKN250 07/05 A2991 RMK SC3CI2 SLP149

CYXE;2008-10-07 04:00;CYXE 070400Z 26008KT 15SM FEW095 SCT250 05/04 A2992 RMK AC2CI1 SLP151

CYXE;2008-10-07 05:00;CYXE 070500Z 26008KT 15SM SKC 04/03 A2993 RMK SLP154

CYXE;2008-10-07 06:00;CYXE 070600Z 26008KT 15SM SKC 02/01 A2994 RMK SLP159

CYXE;2008-10-07 07:00;CYXE 070700Z 25007KT 15SM SKC 01/00 A2994 RMK SLP159

CYXE;2008-10-07 08:00;CYXE 070800Z 25007KT 15SM SKC 01/M00 A2994 RMK SLP159

CYXE;2008-10-07 09:00;CYXE 070900Z 23006KT 15SM SKC M00/M01 A2994 RMK SLP159

CYXE;2008-10-07 10:00;CYXE 071000Z 21006KT 15SM SKC M00/M01 A2994 RMK SLP160

CYXE;2008-10-07 11:00;CYXE 071100Z 20005KT 15SM SKC M00/M01 A2994 RMK SLP159

CYXE;2008-10-07 12:00;CYXE 071200Z 18005KT 15SM SKC M01/M01 A2991 RMK SLP152

CYXE;2008-10-07 13:00;CYXE 071300Z 19006KT 15SM FEW120 M00/M01 A2990 RMK AC1 SLP147

CYXE;2008-10-07 14:00;CYXE 071400Z 17004KT 15SM FEW100 FEW250 00/M01 A2987 RMK AC1CI1 SLP139

CYXE;2008-10-07 15:00;CYXE 071500Z 15005KT 15SM FEW120 BKN280 05/02 A2986 RMK AC1CI2 SLP131

CYXE;2008-10-07 16:00;CYXE 071600Z 16007KT 15SM FEW120 OVC280 08/02 A2984 RMK AC2CI3 SLP124

CYXE;2008-10-07 17:00;CYXE 071700Z 15010KT 15SM SCT120 OVC280 10/03 A2979 RMK AC2CI4 SLP108

CYXE;2008-10-07 17:48;CYXE 071748Z 15012KT 15SM -RA BKN048 OVC280 10/ RMK SC6CI2

CYXE;2008-10-07 18:00;CYXE 071800Z 15009G16KT 15SM -RA BKN027 OVC280 09/03 A2975 RMK SC7CI1 SLP094

CYXE;2008-10-07 19:00;CYXE 071900Z 15012KT 15SM FEW036 OVC080 11/04 A2970 RMK SC2AC6 SLP076

CYXE;2008-10-07 20:00;CYXE 072000Z 15013KT 15SM OVC080 13/04 A2966 RMK AC8 SLP063

CYXE;2008-10-07 21:00;CYXE 072100Z 16012G18KT 15SM BKN077 OVC280 13/04 A2961 RMK AC6CI2 SLP045

CYXE;2008-10-07 22:00;CYXE 072200Z 16015KT 15SM BKN078 BKN140 OVC280 13/05 A2958 RMK AC5AC2CI1 SLP036

CYXE;2008-10-07 23:00;CYXE 072300Z 15010G16KT 15SM BKN078 BKN140 BKN280 14/05 A2955 RMK AC5AC2CI1 SLP024

CYXE;2008-10-08 00:00;CYXE 080000Z 16013G18KT 15SM FEW078 SCT280 14/06 A2951 RMK AC2CI2 ACC ASOCTD VIRGA SLP009

CYXE;2008-10-08 01:00;CYXE 080100Z 15017G24KT 15SM -SHRA BKN069 BKN280 14/06 A2946 RMK AC6CI0 SLP994

CYXE;2008-10-08 01:42;CYXE 080142Z 16014G19KT 15SM SCT061 13/ RMK SC2

CYXE;2008-10-08 02:00;CYXE 080200Z 16011G18KT 15SM FEW061 FEW093 13/06 A2946 RMK SC2AC1 SLP992

CYXE;2008-10-08 03:00;CYXE 080300Z 24015KT 15SM FEW061 11/08 A2948 RMK SC1 SLP997

CYXE;2008-10-08 04:00;CYXE 080400Z 23013KT 15SM FEW110 09/06 A2948 RMK AC1 SLP999

CYXE;2008-10-08 05:00;CYXE 080500Z 25011G20KT 15SM -SHRA FEW064 OVC091 11/07 A2947 RMK SC2AC6 SLP994

CYXE;2008-10-08 06:00;CYXE 080600Z 23015KT 8SM -RA BKN022 OVC050 08/08 A2944 RMK SC5SC3 SLP984

CYXE;2008-10-08 06:43;CYXE 080643Z 29020G25KT 5SM -SHRA BKN005 OVC034 08/ RMK SF6SC2

CYXE;2008-10-08 06:51;CYXE 080651Z 29019G25KT 3SM -SHRA BKN005 OVC030 08/ RMK SF6SC2

CYXE;2008-10-08 07:00;CYXE 080700Z 29019G25KT 3SM -SHRA BKN007 OVC030 08/08 A2945 RMK SF6SC2 SLP986

CYXE;2008-10-08 07:40;CYXE 080740Z 29021KT 5SM -SHRA BKN008 OVC030 08/ RMK SF6SC2

CYXE;2008-10-08 08:00;CYXE 080800Z 29025G32KT 5SM -SHRA BKN010 OVC025 08/08 A2946 RMK SC6SC2 SLP990

CYXE;2008-10-08 09:00;CYXE 080900Z 29025G32KT 5SM -SHRA BKN010 OVC027 07/07 A2948 RMK SC6SC2 SLP995

CYXE;2008-10-08 10:00;CYXE 081000Z 30023G28KT 8SM -SHRA BKN010 OVC024 07/07 A2951 RMK SC6SC2 SLP005

CYXE;2008-10-08 11:00;CYXE 081100Z 30022G28KT 6SM -SHRA BKN012 OVC027 07/07 A2954 RMK SC7SC1 SLP015

CYXE;2008-10-08 12:00;CYXE 081200Z 30021G27KT 8SM -SHRA BKN012 OVC040 07/07 A2957 RMK SC6SC2 SLP026

CYXE;2008-10-08 13:00;CYXE 081300Z 30021G29KT 8SM -SHRA OVC014 07/07 A2959 RMK SC8 SLP032

CYXE;2008-10-08 14:00;CYXE 081400Z 30019G25KT 10SM -RA OVC010 06/06 A2961 RMK SC8 SLP040

CYXE;2008-10-08 15:00;CYXE 081500Z 30021G29KT 12SM -SHRA OVC012 07/06 A2964 RMK SC8 SLP053

CYXE;2008-10-08 15:26;CYXE 081526Z 30018G27KT 12SM -SHRA OVC016 07/ RMK SC8

CYXE;2008-10-08 16:00;CYXE 081600Z 30022G27KT 12SM -SHRA OVC018 07/05 A2966 RMK SC8 SLP060

CYXE;2008-10-08 17:00;CYXE 081700Z 30024G31KT 15SM -SHRA OVC018 07/05 A2968 RMK SC8 SLP065

CYXE;2008-10-08 18:00;CYXE 081800Z 30021G28KT 10SM -SHRA OVC016 06/05 A2970 RMK SC8 SLP074

CYXE;2008-10-08 18:44;CYXE 081844Z 31019G29KT 15SM -SHRA OVC014 06/ RMK SC8

CYXE;2008-10-08 19:00;CYXE 081900Z 30022G28KT 12SM -SHRA OVC014 06/05 A2970 RMK SC8 SLP076

CYXE;2008-10-08 20:00;CYXE 082000Z 31019G28KT 12SM -SHRA OVC014 06/05 A2972 RMK SC8 SLP081

CYXE;2008-10-08 21:00;CYXE 082100Z 30023G31KT 15SM -SHRA OVC014 06/05 A2974 RMK SC8 SLP089

CYXE;2008-10-08 21:20;CYXE 082120Z 30021G31KT 15SM -SHRA BKN016 OVC060 06/ RMK SC7SC1

CYXE;2008-10-08 22:00;CYXE 082200Z 31025G32KT 15SM -SHRA OVC017 06/04 A2977 RMK SC8 SLP097

CYXE;2008-10-08 23:00;CYXE 082300Z 31021G26KT 15SM -SHRA OVC019 06/04 A2979 RMK SC8 SLP106

CYXE;2008-10-09 00:00;CYXE 090000Z 31019G27KT 15SM -RA OVC019 06/04 A2982 RMK SC8 SLP116

CYXE;2008-10-09 01:00;CYXE 090100Z 31015G24KT 10SM -RA OVC015 05/05 A2984 RMK SC8 SLP123

CYXE;2008-10-09 02:00;CYXE 090200Z 30019G25KT 12SM -RA OVC015 05/04 A2985 RMK SC8 SLP127

CYXE;2008-10-09 03:00;CYXE 090300Z 30017G24KT 15SM -RA OVC017 05/04 A2986 RMK SC8 SLP132

CYXE;2008-10-09 04:00;CYXE 090400Z 30017KT 15SM -RA BKN017 OVC095 05/04 A2987 RMK SC6AC2 SLP134

CYXE;2008-10-09 04:30;CYXE 090430Z 30017G25KT 12SM -RA OVC014 04/ RMK SC8

CYXE;2008-10-09 05:00;CYXE 090500Z 30015KT 15SM -RA BKN014 OVC040 04/04 A2987 RMK SC6SC2 SLP134

CYXE;2008-10-09 06:00;CYXE 090600Z 31018G24KT 15SM -RA BKN013 OVC050 04/03 A2987 RMK SC6SC2 SLP136

CYXE;2008-10-09 07:00;CYXE 090700Z 30014G20KT 15SM -RA BKN013 OVC081 04/03 A2987 RMK SC6AC2 SLP137

CYXE;2008-10-09 08:00;CYXE 090800Z 30013G20KT 15SM -RA BKN013 OVC080 04/03 A2988 RMK SC6AC2 SLP139

CYXE;2008-10-09 09:00;CYXE 090900Z 30017KT 15SM -RA BKN012 OVC056 03/03 A2989 RMK SC6SC2 SLP143

CYXE;2008-10-09 10:00;CYXE 091000Z 30015KT 15SM -RA BKN012 OVC035 03/02 A2990 RMK SC5SC3 SLP146

CYXE;2008-10-09 11:00;CYXE 091100Z 30012KT 15SM -RA BKN015 OVC028 03/02 A2991 RMK SC6SC2 SLP149

CYXE;2008-10-09 12:00;CYXE 091200Z 30014KT 15SM -RA BKN012 OVC025 03/02 A2992 RMK SC6SC2 SLP151

CYXE;2008-10-09 12:29;CYXE 091229Z 30012KT 12SM -RA BKN009 OVC025 03/ RMK SC6SC2

CYXE;2008-10-09 13:00;CYXE 091300Z 30012G17KT 10SM -RA BKN010 OVC025 03/02 A2992 RMK SC6SC2 SLP154

CYXE;2008-10-09 14:00;CYXE 091400Z 30013KT 12SM -RA OVC009 03/02 A2993 RMK SC8 SLP157

CYXE;2008-10-09 15:00;CYXE 091500Z 31013KT 15SM -RA OVC010 03/02 A2995 RMK SC8 SLP164

CYXE;2008-10-09 16:00;CYXE 091600Z 30013KT 15SM OVC008 04/03 A2996 RMK SC8 SLP166

CYXE;2008-10-09 17:00;CYXE 091700Z 30014KT 15SM OVC010 04/03 A2996 RMK SC8 SLP168

CYXE;2008-10-09 17:48;CYXE 091748Z 32013KT 12SM -DZ OVC012 04/ RMK SC8

CYXE;2008-10-09 18:00;CYXE 091800Z 32011G17KT 12SM -DZ OVC012 04/03 A2998 RMK SC8 SLP173

CYXE;2008-10-09 19:00;CYXE 091900Z 31011KT 12SM -DZ OVC012 04/03 A2998 RMK SC8 SLP175

CYXE;2008-10-09 20:00;CYXE 092000Z 30013KT 12SM -DZ OVC014 05/03 A2998 RMK SC8 SLP173

CYXE;2008-10-09 21:00;CYXE 092100Z 30010G15KT 15SM OVC014 05/03 A2998 RMK SC8 SLP174

CYXE;2008-10-09 21:11;CYXE 092111Z 31011KT 15SM OVC016 06/ RMK SC8

CYXE;2008-10-09 22:00;CYXE 092200Z 33012KT 15SM OVC016 05/03 A2998 RMK SC8 SLP175

CYXE;2008-10-09 23:00;CYXE 092300Z 31010KT 15SM OVC023 06/02 A2999 RMK SC8 SLP178

CYXE;2008-10-10 00:00;CYXE 100000Z 30007KT 15SM OVC026 05/02 A3001 RMK SC8 SLP185

CYXE;2008-10-10 01:00;CYXE 100100Z 29009KT 15SM BKN030 05/02 A3002 RMK SC7 SLP189

CYXE;2008-10-10 02:00;CYXE 100200Z 32007KT 15SM BKN033 04/03 A3004 RMK SC7 SLP193

CYXE;2008-10-10 03:00;CYXE 100300Z 32007KT 15SM BKN045 04/02 A3005 RMK SC7 SLP197

CYXE;2008-10-10 04:00;CYXE 100400Z 31005KT 15SM BKN030 02/01 A3006 RMK SC5 SLP202

CYXE;2008-10-10 05:00;CYXE 100500Z 28005KT 15SM SCT040 M00/M01 A3008 RMK SC2 SLP207

CYXE;2008-10-10 06:00;CYXE 100600Z 29003KT 15SM BKN034 01/01 A3009 RMK SC6 SLP213

CYXE;2008-10-10 07:00;CYXE 100700Z 30004KT 15SM BKN032 01/01 A3009 RMK SC6 SLP214

CYXE;2008-10-10 08:00;CYXE 100800Z 33004KT 15SM BKN030 02/02 A3009 RMK SC6 SLP215

CYXE;2008-10-10 09:00;CYXE 100900Z 32005KT 15SM SCT013 OVC034 02/02 A3010 RMK SF3SC5 SLP216

CYXE;2008-10-10 10:00;CYXE 101000Z 33004KT 15SM FEW013 OVC030 02/02 A3012 RMK SF2SC6 SLP221

CYXE;2008-10-10 11:00;CYXE 101100Z 34005KT 15SM FEW013 OVC032 02/02 A3013 RMK SF1SC7 SLP224

CYXE;2008-10-10 12:00;CYXE 101200Z 34005KT 15SM FEW013 BKN034 01/01 A3014 RMK SF1SC6 SLP228

CYXE;2008-10-10 13:00;CYXE 101300Z 36006KT 15SM BKN036 01/01 A3014 RMK SC7 SLP231

CYXE;2008-10-10 14:00;CYXE 101400Z 36004KT 15SM BKN038 01/01 A3016 RMK SC6 SLP235

CYXE;2008-10-10 15:00;CYXE 101500Z 35006KT 15SM OVC038 02/01 A3017 RMK SC8 SLP240

CYXE;2008-10-10 16:00;CYXE 101600Z 35007KT 15SM FEW010 OVC033 03/01 A3018 RMK SF2SC6 SLP245

CYXE;2008-10-10 17:00;CYXE 101700Z 01008KT 15SM SCT013 OVC039 04/01 A3020 RMK SF4SC4 SLP251

CYXE;2008-10-10 18:00;CYXE 101800Z 36007KT 15SM FEW012 BKN030 04/M03 A3021 RMK SC2SC6 SLP256

CYXE;2008-10-10 19:00;CYXE 101900Z 35005KT 15SM FEW012 BKN034 OVC092 04/M02 A3021 RMK SF2SC6AC1 SLP254

CYXE;2008-10-10 20:00;CYXE 102000Z 35006KT 15SM FEW015 BKN030 04/M01 A3021 RMK SC2SC4 SLP256

CYXE;2008-10-10 21:00;CYXE 102100Z 35005KT 15SM FEW010 BKN043 03/01 A3023 RMK SF2SC5 SLP260

CYXE;2008-10-10 21:53;CYXE 102153Z 35008KT 15SM -DZ FEW010 SCT020 OVC040 03/ RMK SF1SC2SC4

CYXE;2008-10-10 22:00;CYXE 102200Z 36004KT 15SM -DZ FEW010 BKN020 OVC045 03/01 A3023 RMK SF1SC4SC2 SLP262

CYXE;2008-10-10 22:43;CYXE 102243Z 36010KT 15SM BKN030 OVC050 04/ RMK SC5SC2

CYXE;2008-10-10 23:00;CYXE 102300Z 35008KT 15SM BKN030 BKN060 BKN100 04/01 A3024 RMK SC5SC2AC1 SH SW-N TCU ASOCTD SLP264

CYXE;2008-10-11 00:00;CYXE 110000Z 36004KT 15SM SCT040 02/M00 A3025 RMK SC4 SLP271

CYXE;2008-10-11 01:00;CYXE 110100Z 32006KT 15SM FEW040 FEW100 M01/M02 A3027 RMK SC2AC1 SLP278

CYXE;2008-10-11 02:00;CYXE 110200Z 32005KT 15SM FEW040 M01/M01 A3028 RMK SC2 SLP281

CYXE;2008-10-11 03:00;CYXE 110300Z 30005KT 15SM SKC M02/M03 A3031 RMK SLP291

CYXE;2008-10-11 04:00;CYXE 110400Z 28005KT 15SM BKN060 M02/M03 A3031 RMK SC6 SLP293

CYXE;2008-10-11 05:00;CYXE 110500Z 23004KT 15SM BKN040 M01/M02 A3032 RMK SC7 SLP296

CYXE;2008-10-11 06:00;CYXE 110600Z 26005KT 15SM SCT040 BKN051 M02/M03 A3032 RMK SC3SC2 SLP295

CYXE;2008-10-11 07:00;CYXE 110700Z 32007KT 15SM FEW066 M03/M04 A3032 RMK AC1 SLP293

CYXE;2008-10-11 08:00;CYXE 110800Z 31007KT 15SM SKC M04/M05 A3032 RMK SLP294

CYXE;2008-10-11 09:00;CYXE 110900Z 25002KT 14SM SKC M05/M05 A3034 RMK SLP305

CYXE;2008-10-11 10:00;CYXE 111000Z 25002KT 15SM SKC M04/M05 A3034 RMK SLP304

CYXE;2008-10-11 11:00;CYXE 111100Z 26006KT 15SM SKC M06/M06 A3035 RMK SLP308

CYXE;2008-10-11 12:00;CYXE 111200Z 27005KT 15SM SKC M06/M06 A3035 RMK SLP310

CYXE;2008-10-11 13:00;CYXE 111300Z 29007KT 15SM FEW030 M06/M07 A3036 RMK SC1 SLP314

CYXE;2008-10-11 14:00;CYXE 111400Z 31006KT 15SM FEW020 M05/M05 A3037 RMK SC2 SLP316

CYXE;2008-10-11 15:00;CYXE 111500Z 33006KT 15SM SCT012 M02/M03 A3037 RMK SC2 SLP316

CYXE;2008-10-11 16:00;CYXE 111600Z 28004KT 15SM SCT012 M01/M01 A3039 RMK SC2 SLP321

CYXE;2008-10-11 17:00;CYXE 111700Z 34003KT 15SM BKN009 BKN015 00/M01 A3039 RMK SC5SC1 SLP322

CYXE;2008-10-11 17:09;CYXE 111709Z 31003KT 15SM BKN010 01/ RMK SC6

CYXE;2008-10-11 18:00;CYXE 111800Z 36002KT 15SM BKN014 01/M01 A3039 RMK SC7 SLP320

CYXE;2008-10-11 18:28;CYXE 111828Z 09003KT 15SM BKN019 02/ RMK SC7

CYXE;2008-10-11 19:00;CYXE 111900Z 36003KT 15SM OVC021 03/M02 A3038 RMK SC7 SLP316

CYXE;2008-10-11 20:00;CYXE 112000Z 03005KT 15SM OVC025 04/M03 A3037 RMK SC7 SLP313

CYXE;2008-10-11 21:00;CYXE 112100Z 30002KT 15SM OVC031 04/M03 A3037 RMK SC8 SLP314

CYXE;2008-10-11 22:00;CYXE 112200Z 36004KT 15SM BKN031 04/M03 A3035 RMK SC7 SLP306

CYXE;2008-10-11 23:00;CYXE 112300Z 34002KT 15SM BKN031 04/M03 A3034 RMK SC7 SLP304

CYXE;2008-10-12 00:00;CYXE 120000Z 05002KT 15SM BKN033 03/M03 A3034 RMK SC7 SLP306

CYXE;2008-10-12 01:00;CYXE 120100Z 13003KT 15SM BKN035 03/M03 A3035 RMK SC6 SLP308

CYXE;2008-10-12 02:00;CYXE 120200Z 18003KT 15SM SCT035 01/M03 A3035 RMK SC4 SLP308

CYXE;2008-10-12 03:00;CYXE 120300Z 19005KT 15SM SKC M01/M03 A3034 RMK SLP306

CYXE;2008-10-12 04:00;CYXE 120400Z 18004KT 15SM SKC M01/M02 A3035 RMK SLP309

CYXE;2008-10-12 05:00;CYXE 120500Z 18005KT 15SM SKC M02/M03 A3035 RMK SLP309

CYXE;2008-10-12 06:00;CYXE 120600Z 21003KT 15SM SKC M02/M03 A3034 RMK SLP302

CYXE;2008-10-12 07:00;CYXE 120700Z 19005KT 15SM SCT040 M03/M04 A3035 RMK SC2 SLP305

CYXE;2008-10-12 08:00;CYXE 120800Z 25004KT 15SM FEW040 M04/M05 A3033 RMK SC1 SLP301

CYXE;2008-10-12 09:00;CYXE 120900Z 23005KT 15SM SKC M06/M06 A3036 RMK SLP310

CYXE;2008-10-12 10:00;CYXE 121000Z 29004KT 15SM SKC M07/M07 A3032 RMK SLP299

CYXE;2008-10-12 11:00;CYXE 121100Z 00000KT 15SM SKC M07/M07 A3032 RMK SLP298

CYXE;2008-10-12 12:00;CYXE 121200Z 00000KT 15SM SKC M06/M06 A3030 RMK SLP291

CYXE;2008-10-12 13:00;CYXE 121300Z 00000KT 15SM SCT250 M06/M06 A3031 RMK CI1 SLP294

CYXE;2008-10-12 14:00;CYXE 121400Z 00000KT 15SM R09/2400FT/U BCFG SCT250 M06/M06 A3032 RMK CI2 VIS SW-WNW 11/2 FROIN SLP296

CYXE;2008-10-12 15:00;CYXE 121500Z 00000KT 15SM FEW250 M03/M03 A3031 RMK CI1 FROIN SLP294

CYXE;2008-10-12 16:00;CYXE 121600Z 31002KT 15SM FEW250 M01/M01 A3029 RMK CI1 SLP289

CYXE;2008-10-12 17:00;CYXE 121700Z 34003KT 15SM BKN250 02/M01 A3027 RMK CI2 SLP283

CYXE;2008-10-12 18:00;CYXE 121800Z 30003KT 15SM FEW025 BKN250 04/M03 A3026 RMK CU1CI2 SLP274

CYXE;2008-10-12 19:00;CYXE 121900Z 01002KT 15SM FEW032 BKN250 05/M03 A3024 RMK CU2CI1 SLP269

CYXE;2008-10-12 20:00;CYXE 122000Z 04002KT 15SM FEW036 BKN250 06/M04 A3020 RMK CU1CI2 SLP255

CYXE;2008-10-12 21:00;CYXE 122100Z 34007KT 15SM FEW100 BKN250 06/M04 A3016 RMK AC1CI3 SLP242

CYXE;2008-10-12 22:00;CYXE 122200Z 35006KT 15SM FEW100 BKN250 07/M04 A3016 RMK AC1CI3 SLP241

CYXE;2008-10-12 23:00;CYXE 122300Z 01006KT 15SM FEW100 BKN250 07/M04 A3014 RMK AC1CI3 SLP234

CYXE;2008-10-13 00:00;CYXE 130000Z 35005KT 15SM FEW100 BKN250 04/M04 A3014 RMK AC1CI3 SLP236

CYXE;2008-10-13 01:00;CYXE 130100Z 05002KT 15SM BKN250 03/M02 A3013 RMK CI4 SLP233

CYXE;2008-10-13 02:00;CYXE 130200Z 32003KT 15SM BKN250 M00/M04 A3013 RMK CI2 SLP233

CYXE;2008-10-13 03:00;CYXE 130300Z 22002KT 15SM SCT250 M01/M04 A3013 RMK CI2 SLP234

CYXE;2008-10-13 04:00;CYXE 130400Z 27006KT 15SM SCT250 M02/M04 A3011 RMK CI2 SLP228

CYXE;2008-10-13 05:00;CYXE 130500Z 19002KT 15SM SCT250 M02/M04 A3009 RMK CI2 SLP220

CYXE;2008-10-13 06:00;CYXE 130600Z 23003KT 15SM SCT250 M02/M03 A3007 RMK CI2 SLP209

CYXE;2008-10-13 07:00;CYXE 130700Z 22003KT 15SM FEW250 M02/M03 A3007 RMK CI0 SLP210

CYXE;2008-10-13 08:00;CYXE 130800Z 19004KT 15SM FEW100 SCT250 M03/M03 A3005 RMK AC1CI0 SLP204

CYXE;2008-10-13 09:00;CYXE 130900Z 20004KT 15SM FEW120 FEW250 M04/M04 A3005 RMK AC1CI0 SLP200

CYXE;2008-10-13 10:00;CYXE 131000Z 19003KT 15SM FEW120 FEW250 M04/M05 A3001 RMK AC1CI0 SLP188

CYXE;2008-10-13 11:00;CYXE 131100Z 22005KT 15SM FEW120 FEW250 M06/M07 A2998 RMK AC1CI0 SLP180

CYXE;2008-10-13 12:00;CYXE 131200Z 20004KT 15SM FEW120 SCT250 M06/M07 A3000 RMK AC2CI0 SLP186

CYXE;2008-10-13 13:00;CYXE 131300Z 23005KT 15SM SCT120 M06/M07 A2997 RMK AC2 SLP179

CYXE;2008-10-13 14:00;CYXE 131400Z 24005KT 15SM FEW056 BKN082 BKN250 M05/M07 A2999 RMK SC2AC2CI0 SLP184

CYXE;2008-10-13 15:00;CYXE 131500Z 24004KT 15SM FEW056 BKN082 M02/M04 A2997 RMK SC2AC3 SLP178

CYXE;2008-10-13 16:00;CYXE 131600Z 26004KT 15SM FEW082 SCT250 M00/M02 A2997 RMK AC2CI1 SLP177

CYXE;2008-10-13 17:00;CYXE 131700Z 24005KT 15SM FEW080 04/M01 A2996 RMK AC1 SLP174

CYXE;2008-10-13 18:00;CYXE 131800Z 26008KT 15SM FEW080 08/M03 A2993 RMK AC1 SLP159

CYXE;2008-10-13 19:00;CYXE 131900Z 27009KT 15SM FEW250 09/M02 A2992 RMK CI1 SLP156

CYXE;2008-10-13 20:00;CYXE 132000Z 31011G16KT 15SM FEW250 11/M00 A2989 RMK CI1 SLP147

CYXE;2008-10-13 21:00;CYXE 132100Z 30009KT 15SM BKN250 12/01 A2988 RMK CI2 SLP141

CYXE;2008-10-13 22:00;CYXE 132200Z 31009G15KT 15SM SCT250 13/01 A2988 RMK CI1 SLP139

CYXE;2008-10-13 23:00;CYXE 132300Z 31011KT 15SM SCT250 13/M00 A2988 RMK CI1 SLP139

CYXE;2008-10-14 00:00;CYXE 140000Z 28004KT 15SM FEW110 BKN250 09/00 A2988 RMK AC2CI1 SLP144

CYXE;2008-10-14 01:00;CYXE 140100Z 22006KT 15SM FEW110 BKN250 07/00 A2988 RMK AC2CI1 SLP143

CYXE;2008-10-14 02:00;CYXE 140200Z 25008KT 15SM BKN076 05/01 A2989 RMK AC6 SLP145

CYXE;2008-10-14 03:00;CYXE 140300Z 25007KT 15SM BKN072 05/01 A2989 RMK AC6 SLP146

CYXE;2008-10-14 04:00;CYXE 140400Z 25005KT 15SM OVC074 06/02 A2988 RMK AC8 SLP145

CYXE;2008-10-14 05:00;CYXE 140500Z 19003KT 15SM OVC066 07/03 A2987 RMK AC8 SLP140

CYXE;2008-10-14 05:32;CYXE 140532Z 16003KT 15SM -SHRA OVC060 06/ RMK SC8

CYXE;2008-10-14 06:00;CYXE 140600Z 20003KT 15SM -SHRA OVC055 06/03 A2986 RMK SC8 SLP129

CYXE;2008-10-14 07:00;CYXE 140700Z 23006KT 15SM -SHRA OVC055 06/04 A2987 RMK SC8 ACC EMBD SLP132

CYXE;2008-10-14 08:00;CYXE 140800Z 21005KT 15SM -SHRA OVC045 05/04 A2986 RMK SC8 ACC EMBD SLP128

CYXE;2008-10-14 09:00;CYXE 140900Z 28004KT 15SM -RA OVC030 05/05 A2985 RMK SC8 SLP124

CYXE;2008-10-14 10:00;CYXE 141000Z 36002KT 10SM -RA OVC033 05/05 A2984 RMK SC8 SLP120

CYXE;2008-10-14 11:00;CYXE 141100Z 16003KT 10SM -RA OVC030 05/05 A2982 RMK SC8 SLP113

CYXE;2008-10-14 12:00;CYXE 141200Z 17007KT 10SM -RA OVC033 06/06 A2980 RMK SC8 SLP109

CYXE;2008-10-14 12:40;CYXE 141240Z 16005KT 15SM OVC036 06/ RMK SC8

CYXE;2008-10-14 13:00;CYXE 141300Z 20002KT 15SM OVC036 06/06 A2980 RMK SC8 SLP108

CYXE;2008-10-14 13:09;CYXE 141309Z 17003KT 15SM -RA OVC043 06/ RMK SC8

CYXE;2008-10-14 14:00;CYXE 141400Z 27002KT 3SM RA OVC026 06/06 A2983 RMK SC8 SLP116

CYXE;2008-10-14 15:00;CYXE 141500Z 33007KT 6SM -RA BR BKN026 OVC110 06/06 A2984 RERA RMK SC7AC1 SLP124

CYXE;2008-10-14 16:00;CYXE 141600Z 30007KT 6SM -RA OVC022 06/06 A2986 RMK SC8 SLP130

CYXE;2008-10-14 16:52;CYXE 141652Z 30013G19KT 3SM -RA BR SCT008 OVC019 06/ RERA RMK SF3ST5

CYXE;2008-10-14 17:00;CYXE 141700Z 31016KT 3SM RA BR BKN008 OVC019 06/06 A2987 RMK SF4ST4 SLP135

CYXE;2008-10-14 18:00;CYXE 141800Z 30010KT 6SM -RA BR FEW008 OVC019 06/06 A2989 RERA RMK SF1ST7 SLP141

CYXE;2008-10-14 19:00;CYXE 141900Z 31010G15KT 15SM -RA OVC023 06/06 A2990 RMK SC8 SLP145

CYXE;2008-10-14 20:00;CYXE 142000Z 31012G19KT 15SM -SHRA BKN030 OVC066 06/04 A2991 RMK SC6AC2 SLP146

CYXE;2008-10-14 20:13;CYXE 142013Z 31011KT 15SM SCT030 BKN072 OVC250 06/ RMK SC3AS4CI1

CYXE;2008-10-14 21:00;CYXE 142100Z 31016G21KT 15SM FEW030 BKN050 BKN250 07/01 A2993 RMK SC1SC4CI2 OBS TAKEN +03 SLP155

CYXE;2008-10-14 22:00;CYXE 142200Z 30015G25KT 15SM FEW030 SCT090 08/M00 A2995 RMK SC2AC2 SLP160

CYXE;2008-10-14 23:00;CYXE 142300Z 31017G24KT 15SM SCT055 07/M02 A2996 RMK SC3 SLP166

CYXE;2008-10-15 00:00;CYXE 150000Z 31016G25KT 15SM SCT055 06/M03 A2999 RMK SC3 OBS TAKEN +05 SLP175

CYXE;2008-10-15 01:00;CYXE 150100Z 31011KT 15SM SCT060 04/M03 A3001 RMK SC4 SLP182

CYXE;2008-10-15 02:00;CYXE 150200Z 27008KT 15SM FEW070 01/M03 A3003 RMK AC2 SLP188

CYXE;2008-10-15 03:00;CYXE 150300Z 26009KT 15SM SCT075 00/M03 A3005 RMK AC4 SLP198

CYXE;2008-10-15 04:00;CYXE 150400Z 27008KT 15SM SCT080 00/M04 A3006 RMK AC3 SLP203

CYXE;2008-10-15 05:00;CYXE 150500Z 27009KT 15SM SCT080 M00/M04 A3007 RMK AC3 SLP205

CYXE;2008-10-15 06:00;CYXE 150600Z 28009KT 15SM FEW080 M00/M05 A3008 RMK AC2 SLP211

CYXE;2008-10-15 07:00;CYXE 150700Z 29009KT 15SM FEW080 00/M05 A3010 RMK AC2 SLP217

CYXE;2008-10-15 08:00;CYXE 150800Z 29011KT 15SM FEW080 01/M06 A3011 RMK AC1 SLP220

CYXE;2008-10-15 09:00;CYXE 150900Z 30012KT 15SM FEW050 SCT080 00/M06 A3012 RMK SC1AC2 SLP222

CYXE;2008-10-15 10:00;CYXE 151000Z 29010KT 15SM FEW080 M01/M06 A3014 RMK AC2 SLP228

CYXE;2008-10-15 11:00;CYXE 151100Z 28010KT 15SM SKC M02/M06 A3015 RMK SLP233

CYXE;2008-10-15 12:00;CYXE 151200Z 28008KT 15SM FEW080 M03/M07 A3018 RMK AC2 SLP246

CYXE;2008-10-15 13:00;CYXE 151300Z 27008KT 15SM FEW080 M06/M07 A3020 RMK AC2 SLP252

CYXE;2008-10-15 14:00;CYXE 151400Z 26008KT 15SM FEW250 M05/M07 A3021 RMK CI0 SLP255

CYXE;2008-10-15 15:00;CYXE 151500Z 26009KT 15SM FEW250 M02/M05 A3023 RMK CI1 SLP264

CYXE;2008-10-15 16:00;CYXE 151600Z 29011KT 15SM FEW250 02/M05 A3023 RMK CI1 SLP264

CYXE;2008-10-15 17:00;CYXE 151700Z 29012KT 15SM FEW250 04/M05 A3023 RMK CI0 SLP264

CYXE;2008-10-15 18:00;CYXE 151800Z 27010KT 15SM FEW250 06/M04 A3022 RMK CI0 SLP259

CYXE;2008-10-15 19:00;CYXE 151900Z 30012KT 15SM FEW250 08/M03 A3022 RMK CI0 SLP257

CYXE;2008-10-15 20:00;CYXE 152000Z 31012G17KT 15SM FEW090 FEW250 09/M04 A3020 RMK AC1CI0 SLP252

CYXE;2008-10-15 21:00;CYXE 152100Z 29013KT 15SM FEW060 FEW280 10/M06 A3020 RMK SC1CI0 SLP248

CYXE;2008-10-15 22:00;CYXE 152200Z 31009KT 15SM FEW060 BKN280 09/M06 A3018 RMK SC1CI0 SLP243

CYXE;2008-10-15 23:00;CYXE 152300Z 29007KT 15SM BKN280 09/M06 A3018 RMK CI2 SLP241

CYXE;2008-10-16 00:00;CYXE 160000Z 24004KT 15SM BKN280 04/M04 A3018 RMK CI2 SLP246

CYXE;2008-10-16 01:00;CYXE 160100Z 23007KT 15SM BKN280 01/M05 A3019 RMK CI2 SLP250

CYXE;2008-10-16 02:00;CYXE 160200Z 24008KT 15SM BKN280 00/M04 A3019 RMK CI2 SLP250

CYXE;2008-10-16 03:00;CYXE 160300Z 24007KT 15SM OVC280 M00/M04 A3018 RMK CI2 SLP251

CYXE;2008-10-16 04:00;CYXE 160400Z 21005KT 15SM OVC280 M00/M04 A3018 RMK CI2 SLP249

CYXE;2008-10-16 05:00;CYXE 160500Z 21004KT 15SM OVC280 00/M04 A3018 RMK CI2 SLP248

CYXE;2008-10-16 06:00;CYXE 160600Z 21005KT 15SM BKN280 00/M04 A3017 RMK CI2 SLP241

CYXE;2008-10-16 07:00;CYXE 160700Z 20004KT 15SM BKN280 M00/M04 A3017 RMK CI2 SLP240

CYXE;2008-10-16 08:00;CYXE 160800Z 19005KT 15SM BKN280 M01/M04 A3017 RMK CI3 SLP240

CYXE;2008-10-16 09:00;CYXE 160900Z 18004KT 15SM BKN280 M01/M03 A3017 RMK CI3 SLP239

CYXE;2008-10-16 10:00;CYXE 161000Z 19005KT 15SM BKN280 M01/M04 A3016 RMK CI3 SLP235

CYXE;2008-10-16 11:00;CYXE 161100Z 18003KT 15SM BKN280 M02/M04 A3016 RMK CI2 SLP236

CYXE;2008-10-16 12:00;CYXE 161200Z 17005KT 15SM BKN280 M03/M04 A3014 RMK CI2 SLP235

CYXE;2008-10-16 13:00;CYXE 161300Z 19005KT 15SM FEW280 M01/M04 A3014 RMK CI1 SLP234

CYXE;2008-10-16 14:00;CYXE 161400Z 18003KT 15SM SKC M01/M04 A3014 RMK SLP235

CYXE;2008-10-16 15:00;CYXE 161500Z 17004KT 15SM FEW280 01/M03 A3013 RMK CI2 SLP231

CYXE;2008-10-16 16:00;CYXE 161600Z 17005KT 15SM SCT280 04/M03 A3013 RMK CI2 SLP231

CYXE;2008-10-16 17:00;CYXE 161700Z 18012KT 15SM FEW140 FEW280 06/M03 A3012 RMK AC1CI0 SLP228

CYXE;2008-10-16 18:00;CYXE 161800Z 21009KT 15SM FEW280 09/M03 A3010 RMK CI1 SLP215

CYXE;2008-10-16 19:00;CYXE 161900Z 19009KT 15SM FEW120 FEW280 10/M02 A3008 RMK AC1CI0 SLP208

CYXE;2008-10-16 20:00;CYXE 162000Z 20013KT 15SM FEW120 FEW280 11/M02 A3007 RMK AC1CI0 SLP204

CYXE;2008-10-16 21:00;CYXE 162100Z 19008KT 15SM FEW090 SCT280 12/M01 A3006 RMK AC1CI0 SLP201

CYXE;2008-10-16 22:00;CYXE 162200Z 19008KT 15SM FEW070 SCT280 12/M01 A3006 RMK AC2CI0 SLP199

CYXE;2008-10-16 23:00;CYXE 162300Z 20009KT 15SM FEW120 FEW280 11/M01 A3006 RMK AC1CI0 SLP200

CYXE;2008-10-17 00:00;CYXE 170000Z 19006KT 15SM FEW070 FEW280 08/M01 A3007 RMK AC1CI0 SLP206

CYXE;2008-10-17 01:00;CYXE 170100Z 17006KT 15SM SKC 05/M02 A3007 RMK SLP207

CYXE;2008-10-17 02:00;CYXE 170200Z 16007KT 15SM SKC 04/M02 A3008 RMK SLP210

CYXE;2008-10-17 03:00;CYXE 170300Z 17007KT 15SM SKC 03/M02 A3009 RMK SLP213

CYXE;2008-10-17 03:40;CYXE 170340Z 16006KT 15SM SKC 02/

CYXE;2008-10-17 04:00;CYXE 170400Z 17006KT 15SM SKC 02/M02 A3008 RMK SLP211

CYXE;2008-10-17 05:00;CYXE 170500Z 19006KT 15SM SKC 01/M02 A3007 RMK SLP209

CYXE;2008-10-17 06:00;CYXE 170600Z 17005KT 15SM SKC 00/M02 A3006 RMK SLP200

CYXE;2008-10-17 08:00;CYXE 170800Z 18006KT 15SM SKC M01/M02 A3005 RMK SLP196

CYXE;2008-10-17 09:00;CYXE 170900Z 17007KT 15SM SKC M01/M03 A3003 RMK SLP191

CYXE;2008-10-17 10:00;CYXE 171000Z 18005KT 15SM SKC M02/M02 A3002 RMK SLP188

CYXE;2008-10-17 11:00;CYXE 171100Z 19006KT 15SM SKC M02/M03 A3002 RMK SLP186

CYXE;2008-10-17 12:00;CYXE 171200Z 17005KT 15SM SKC M03/M03 A3000 RMK SLP183

CYXE;2008-10-17 13:00;CYXE 171300Z 17005KT 15SM FEW270 M03/M03 A2999 RMK CI0 SLP179

CYXE;2008-10-17 14:00;CYXE 171400Z 15005KT 15SM FEW270 M03/M03 A2997 RMK CI0 SLP174

CYXE;2008-10-17 15:00;CYXE 171500Z 17006KT 15SM BKN270 00/M01 A2996 RMK CI2 SLP171

CYXE;2008-10-17 16:00;CYXE 171600Z 19007KT 15SM BKN270 03/M00 A2995 RMK CI5 SLP166

CYXE;2008-10-17 17:00;CYXE 171700Z 19008KT 15SM FEW120 BKN240 05/01 A2992 RMK AC1CI5 SLP159

CYXE;2008-10-17 18:00;CYXE 171800Z 19009KT 15SM FEW120 BKN240 08/01 A2990 RMK AC1CI4 SLP145

CYXE;2008-10-17 19:00;CYXE 171900Z 20008KT 15SM FEW110 BKN250 11/02 A2987 RMK AC1CI2 SLP135

CYXE;2008-10-17 20:00;CYXE 172000Z 21010KT 15SM FEW110 FEW250 14/03 A2985 RMK AC1CI1 SLP129

CYXE;2008-10-17 21:00;CYXE 172100Z 20010KT 15SM FEW110 BKN280 15/03 A2983 RMK AC2CI1 SLP118

CYXE;2008-10-17 22:00;CYXE 172200Z 21011KT 15SM FEW110 BKN280 15/03 A2981 RMK AC1CI2 SLP114

CYXE;2008-10-17 23:00;CYXE 172300Z 25006KT 15SM SCT110 BKN280 15/03 A2982 RMK AC2CI1 SLP116

CYXE;2008-10-18 00:00;CYXE 180000Z 22005KT 15SM SCT110 BKN280 11/03 A2981 RMK AC2CI0 SLP117

CYXE;2008-10-18 01:00;CYXE 180100Z 20005KT 15SM FEW110 FEW280 10/04 A2981 RMK AC1CI0 SLP117

CYXE;2008-10-18 02:00;CYXE 180200Z 20006KT 15SM SKC 09/03 A2980 RMK SLP114

CYXE;2008-10-18 03:00;CYXE 180300Z 20004KT 15SM SKC 08/03 A2981 RMK SLP115

CYXE;2008-10-18 04:00;CYXE 180400Z 17006KT 15SM BKN110 05/03 A2978 RMK AC2 SLP107

CYXE;2008-10-18 05:00;CYXE 180500Z 00000KT 15SM SCT070 BKN110 05/03 A2979 RMK AC3AC2 SLP109

CYXE;2008-10-18 05:14;CYXE 180514Z 11002KT 15SM -SHRA BKN052 BKN110 05/ RMK SC5AC0

CYXE;2008-10-18 06:00;CYXE 180600Z 16004KT 15SM BKN052 06/04 A2979 RMK SC6 SLP105

CYXE;2008-10-18 07:00;CYXE 180700Z 21003KT 15SM BKN080 06/04 A2979 RMK AC6 SLP106

CYXE;2008-10-18 08:00;CYXE 180800Z 35002KT 15SM BKN071 05/04 A2979 RMK AC6 SLP107

CYXE;2008-10-18 09:00;CYXE 180900Z 06006KT 15SM FEW070 03/03 A2979 RMK AC2 SLP102

CYXE;2008-10-18 10:00;CYXE 181000Z 03003KT 15SM SKC 01/01 A2979 RMK SLP104

CYXE;2008-10-18 11:00;CYXE 181100Z 03004KT 15SM OVC120 01/01 A2979 RMK AC8 SLP104

CYXE;2008-10-18 12:00;CYXE 181200Z 05005KT 15SM OVC120 03/03 A2980 RMK AC8 SLP108

CYXE;2008-10-18 13:00;CYXE 181300Z 17004KT 15SM BKN120 03/03 A2979 RMK AC7 SLP106

CYXE;2008-10-18 14:00;CYXE 181400Z 00000KT 15SM FEW080 BKN120 03/03 A2979 RMK AC1AC6 SLP106

CYXE;2008-10-18 15:00;CYXE 181500Z 27004KT 15SM FEW080 OVC120 04/03 A2982 RMK AC1AC6 SLP117

CYXE;2008-10-18 16:00;CYXE 181600Z 00000KT 15SM BKN120 OVC250 07/05 A2982 RMK AC6CI2 SLP118

CYXE;2008-10-18 17:00;CYXE 181700Z 01005KT 15SM BKN075 OVC250 09/04 A2984 RMK AC5CI3 SLP123

CYXE;2008-10-18 17:33;CYXE 181733Z 34002KT 15SM -SHRA BKN060 OVC250 09/ RMK SC6CI2 CVCTV CLD EMBD

CYXE;2008-10-18 18:00;CYXE 181800Z 31009KT 15SM -SHRA BKN060 OVC250 08/05 A2985 RMK SC7CI1 CVCTV CLD EMBD SLP125

CYXE;2008-10-18 19:00;CYXE 181900Z 36006KT 15SM -RA OVC060 06/05 A2985 RMK SC8 SLP125

CYXE;2008-10-18 20:00;CYXE 182000Z 35013KT 10SM -RA OVC030 07/04 A2985 RMK SC8 SLP126

CYXE;2008-10-18 20:37;CYXE 182037Z 00000KT 15SM SCT030 OVC120 08/ RMK SC3AC5

CYXE;2008-10-18 21:00;CYXE 182100Z 33002KT 15SM SCT050 OVC120 08/04 A2985 RMK SC3AC5 SLP127

CYXE;2008-10-18 22:00;CYXE 182200Z 22003KT 15SM BKN050 OVC070 08/06 A2985 RMK SC5AC2 SLP129

CYXE;2008-10-18 23:00;CYXE 182300Z 31007KT 15SM BKN052 OVC080 08/04 A2987 RMK SC6AC2 SLP136

CYXE;2008-10-19 00:00;CYXE 190000Z 28005KT 15SM BKN089 06/03 A2988 RMK AC6 SLP141

CYXE;2008-10-19 01:00;CYXE 190100Z 26005KT 15SM BKN096 04/02 A2991 RMK AC6 SLP148

CYXE;2008-10-19 02:00;CYXE 190200Z 30008KT 15SM FEW100 02/M01 A2993 RMK AC2 SLP155

CYXE;2008-10-19 03:00;CYXE 190300Z 26006KT 15SM SKC 00/M02 A2994 RMK SLP162

CYXE;2008-10-19 04:00;CYXE 190400Z 27008KT 15SM SKC 00/M02 A2996 RMK SLP168

CYXE;2008-10-19 05:00;CYXE 190500Z 25008KT 15SM SKC M01/M03 A2998 RMK SLP175

CYXE;2008-10-19 06:00;CYXE 190600Z 25008KT 15SM SKC M02/M04 A3000 RMK SLP182

CYXE;2008-10-19 07:00;CYXE 190700Z 25007KT 15SM SKC M03/M04 A3001 RMK SLP185

CYXE;2008-10-19 08:00;CYXE 190800Z 24007KT 15SM SCT270 M04/M05 A3001 RMK CI0 SLP187

CYXE;2008-10-19 09:00;CYXE 190900Z 27008KT 15SM FEW270 M02/M04 A3004 RMK CI0 SLP195

CYXE;2008-10-19 10:00;CYXE 191000Z 30008KT 15SM BKN120 00/M02 A3005 RMK AC7 SLP200

CYXE;2008-10-19 11:00;CYXE 191100Z 29007KT 15SM BKN120 M01/M03 A3008 RMK AC5 SLP210

CYXE;2008-10-19 12:00;CYXE 191200Z 29008KT 15SM FEW120 M01/M03 A3011 RMK AC2 OBS TAKEN -10 SLP220

CYXE;2008-10-19 13:00;CYXE 191300Z 30009KT 15SM FEW120 M01/M03 A3013 RMK AC1 SLP227

CYXE;2008-10-19 14:00;CYXE 191400Z 30010KT 15SM FEW110 M02/M03 A3015 RMK AC1 SLP234

CYXE;2008-10-19 15:00;CYXE 191500Z 30012KT 15SM FEW110 M00/M03 A3018 RMK AC1 SLP246

CYXE;2008-10-19 16:00;CYXE 191600Z 30011KT 15SM FEW110 02/M01 A3020 RMK AC1 SLP253

CYXE;2008-10-19 17:00;CYXE 191700Z 30009KT 15SM FEW110 03/M01 A3022 RMK AC1 SLP260

CYXE;2008-10-19 18:00;CYXE 191800Z 29009KT 15SM FEW100 04/M01 A3023 RMK AC1 SLP265

CYXE;2008-10-19 19:00;CYXE 191900Z 32008KT 15SM FEW030 06/00 A3025 RMK CU1 SLP269

CYXE;2008-10-19 20:00;CYXE 192000Z 32010KT 15SM SCT030 07/M00 A3025 RMK CU4 SLP270

CYXE;2008-10-19 21:00;CYXE 192100Z 32010KT 15SM SCT032 07/M01 A3026 RMK CU3 SLP273

CYXE;2008-10-19 22:00;CYXE 192200Z 30006KT 15SM FEW038 07/M02 A3027 RMK SC2 SLP275

CYXE;2008-10-19 23:00;CYXE 192300Z 29005KT 15SM FEW040 08/M02 A3028 RMK SC1 SLP278

CYXE;2008-10-20 00:00;CYXE 200000Z 28004KT 15SM FEW040 05/M02 A3028 RMK SC1 SLP280

CYXE;2008-10-20 01:00;CYXE 200100Z 28004KT 15SM SKC 02/M02 A3030 RMK SLP285

CYXE;2008-10-20 02:00;CYXE 200200Z 26002KT 15SM SKC 01/M02 A3031 RMK SLP289

CYXE;2008-10-20 03:00;CYXE 200300Z 21005KT 15SM SKC M01/M03 A3032 RMK SLP296

CYXE;2008-10-20 04:00;CYXE 200400Z 20004KT 15SM SKC 01/M02 A3033 RMK SLP299

CYXE;2008-10-20 05:00;CYXE 200500Z 20005KT 15SM SKC M01/M03 A3033 RMK SLP300

CYXE;2008-10-20 06:00;CYXE 200600Z 18004KT 15SM SKC M02/M02 A3032 RMK SLP295

CYXE;2008-10-20 07:00;CYXE 200700Z 18005KT 15SM SKC M02/M03 A3032 RMK SLP293

CYXE;2008-10-20 08:00;CYXE 200800Z 17006KT 15SM SKC M03/M04 A3031 RMK SLP292

CYXE;2008-10-20 09:00;CYXE 200900Z 17006KT 15SM SKC M03/M05 A3031 RMK SLP289

CYXE;2008-10-20 10:00;CYXE 201000Z 17007KT 15SM SKC M03/M04 A3029 RMK SLP283

CYXE;2008-10-20 11:00;CYXE 201100Z 17008KT 15SM SKC M02/M04 A3027 RMK SLP278

CYXE;2008-10-20 12:00;CYXE 201200Z 16008KT 15SM SKC M02/M04 A3026 RMK OBS TAKEN +03 SLP272

CYXE;2008-10-20 13:00;CYXE 201300Z 16010KT 15SM FEW270 M02/M04 A3024 RMK CI0 SLP267

CYXE;2008-10-20 14:00;CYXE 201400Z 16009KT 15SM FEW080 BKN270 M02/M04 A3022 RMK AC1CI0 SLP259

CYXE;2008-10-20 15:00;CYXE 201500Z 15010KT 15SM OVC270 00/M03 A3018 RMK CI2 SLP250

CYXE;2008-10-20 16:00;CYXE 201600Z 15010G15KT 15SM OVC270 04/M02 A3014 RMK CI3 SLP237

CYXE;2008-10-20 17:00;CYXE 201700Z 16018G25KT 15SM FEW180 OVC270 07/M03 A3010 RMK AC2CI2 SLP224

CYXE;2008-10-20 18:00;CYXE 201800Z 16020KT 15SM FEW180 OVC270 08/M02 A3008 RMK AC2CI4 SLP208

CYXE;2008-10-20 19:00;CYXE 201900Z 16017G25KT 15SM FEW180 OVC270 09/M01 A3003 RMK AC2CI4 SLP192

CYXE;2008-10-20 20:00;CYXE 202000Z 16019G26KT 15SM OVC270 10/M01 A2997 RMK CI6 SLP174

CYXE;2008-10-20 21:00;CYXE 202100Z 16020G29KT 15SM OVC270 12/00 A2992 RMK CI6 SLP152

CYXE;2008-10-20 22:00;CYXE 202200Z 17020G27KT 15SM FEW140 OVC270 12/00 A2989 RMK AC1CS6 SLP144

CYXE;2008-10-20 23:00;CYXE 202300Z 16019G28KT 15SM FEW140 BKN270 11/00 A2985 RMK AC1CI6 SLP132

CYXE;2008-10-21 00:00;CYXE 210000Z 16018KT 15SM FEW140 OVC270 11/00 A2982 RMK AC1CI5 SLP119

CYXE;2008-10-21 01:00;CYXE 210100Z 16020G29KT 15SM FEW140 OVC270 11/01 A2979 RMK AC1CI5 SLP110

CYXE;2008-10-21 02:00;CYXE 210200Z 16018G24KT 15SM BKN120 10/01 A2977 RMK AC6 SLP103

CYXE;2008-10-21 03:00;CYXE 210300Z 16018G26KT 15SM OVC100 11/02 A2975 RMK AC8 SLP093

CYXE;2008-10-21 04:00;CYXE 210400Z 17017G28KT 15SM OVC100 10/02 A2972 RMK AC8 SLP083

CYXE;2008-10-21 04:38;CYXE 210438Z 18016G24KT 15SM -SHRA OVC080 10/ RMK AC8

CYXE;2008-10-21 05:00;CYXE 210500Z 18018G24KT 15SM -SHRA OVC095 10/04 A2969 RMK AC8 SLP076

CYXE;2008-10-21 06:00;CYXE 210600Z 18015G21KT 15SM -SHRA OVC048 09/05 A2967 RMK SC8 SLP063

CYXE;2008-10-21 07:00;CYXE 210700Z 18017KT 15SM -SHRA BKN038 OVC093 09/06 A2966 RMK SC6AC2 SLP058

CYXE;2008-10-21 07:12;CYXE 210712Z 18017G22KT 15SM SCT038 OVC110 09/ RMK SC4AC4

CYXE;2008-10-21 08:00;CYXE 210800Z 18015G26KT 15SM SCT080 OVC140 09/07 A2965 RMK AC4AC4 SLP056

CYXE;2008-10-21 09:00;CYXE 210900Z 19014KT 15SM SCT067 OVC140 09/07 A2965 RMK AC3AC5 SLP053

CYXE;2008-10-21 10:00;CYXE 211000Z 18011KT 15SM SCT062 OVC079 09/07 A2964 RMK SC3AC5 SLP050

CYXE;2008-10-21 11:00;CYXE 211100Z 18010KT 15SM OVC079 09/07 A2963 RMK AC8 SLP047

CYXE;2008-10-21 12:00;CYXE 211200Z 19011KT 15SM OVC074 08/06 A2964 RMK AC8 SLP051

CYXE;2008-10-21 13:00;CYXE 211300Z 21010KT 15SM BKN082 OVC110 08/05 A2965 RMK AC5AS2 SLP054

CYXE;2008-10-21 14:00;CYXE 211400Z 27007KT 15SM BKN110 OVC160 06/03 A2966 RMK AC6AC2 SLP059

CYXE;2008-10-21 15:00;CYXE 211500Z 31014KT 15SM FEW020 BKN110 OVC160 07/05 A2968 RMK SC2AC4AC2 SLP064

CYXE;2008-10-21 16:00;CYXE 211600Z 31019G25KT 15SM FEW030 BKN060 OVC110 07/03 A2973 RMK SC2SC2AC3 SLP080

CYXE;2008-10-21 16:31;CYXE 211631Z 32020G26KT 15SM -DZ SCT035 OVC056 06/ RMK SC3SC5

CYXE;2008-10-21 17:00;CYXE 211700Z 31017KT 10SM -DZ BKN023 OVC060 06/05 A2977 RMK SC5SC3 SLP095

CYXE;2008-10-21 17:38;CYXE 211738Z 31017G22KT 15SM BKN030 BKN060 OVC110 07/ RMK SC5SC2AC1

CYXE;2008-10-21 17:45;CYXE 211745Z 32020G25KT 15SM -RA BKN030 BKN060 OVC180 07/ RMK SC5SC2AC1

CYXE;2008-10-21 18:00;CYXE 211800Z 30015KT 15SM -RA BKN030 BKN060 OVC180 07/03 A2980 RMK SC5SC2AC1 SLP107

CYXE;2008-10-21 18:33;CYXE 211833Z 31019G24KT 15SM SCT043 BKN053 OVC072 08/ RMK SC4SC3AC1

CYXE;2008-10-21 19:00;CYXE 211900Z 30019G26KT 15SM SCT050 OVC070 08/01 A2983 RMK SC4AC4 SLP118

CYXE;2008-10-21 20:00;CYXE 212000Z 30021KT 15SM SCT050 BKN100 OVC210 10/01 A2986 RMK SC3AC3CI1 SLP127

CYXE;2008-10-21 21:00;CYXE 212100Z 31017KT 15SM FEW050 BKN090 09/01 A2989 RMK SC2AC4 SLP137

CYXE;2008-10-21 22:00;CYXE 212200Z 31020G27KT 15SM BKN050 BKN090 10/01 A2993 RMK SC6AC1 SLP149

CYXE;2008-10-21 23:00;CYXE 212300Z 31021G26KT 15SM BKN046 BKN090 09/M01 A2996 RMK SC5AC2 SLP159

CYXE;2008-10-22 00:00;CYXE 220000Z 32019G26KT 15SM BKN047 08/M01 A3001 RMK SC6 SLP180

CYXE;2008-10-22 01:00;CYXE 220100Z 30014KT 15SM BKN054 08/M01 A3004 RMK SC7 SLP189

CYXE;2008-10-22 02:00;CYXE 220200Z 31013G20KT 15SM OVC060 08/M01 A3007 RMK SC7 SLP199

CYXE;2008-10-22 03:00;CYXE 220300Z 31013G18KT 15SM BKN060 07/M01 A3010 RMK SC6 SLP213

CYXE;2008-10-22 04:00;CYXE 220400Z 29010KT 15SM OVC063 06/M01 A3013 RMK SC7 SLP222

CYXE;2008-10-22 05:00;CYXE 220500Z 28008KT 15SM OVC063 06/M01 A3016 RMK SC8 SLP230

CYXE;2008-10-22 06:00;CYXE 220600Z 29008KT 15SM OVC056 06/M01 A3018 RMK SC8 SLP241

CYXE;2008-10-22 07:00;CYXE 220700Z 31010KT 15SM OVC051 07/M02 A3021 RMK SC8 SLP250

CYXE;2008-10-22 08:00;CYXE 220800Z 29008KT 15SM SCT056 04/M03 A3023 RMK SC3 SLP257

CYXE;2008-10-22 08:50;CYXE 220850Z 27010KT 15SM FEW065 02/ RMK SC1

CYXE;2008-10-22 09:00;CYXE 220900Z 28009KT 15SM FEW065 02/M03 A3025 RMK SC1 SLP266

CYXE;2008-10-22 10:00;CYXE 221000Z 28009KT 15SM SKC 00/M04 A3027 RMK SLP271

CYXE;2008-10-22 11:00;CYXE 221100Z 26009KT 15SM SKC M03/M04 A3030 RMK SLP280

CYXE;2008-10-22 12:00;CYXE 221200Z 26009KT 15SM SKC M02/M05 A3031 RMK SLP288

CYXE;2008-10-22 13:00;CYXE 221300Z 26008KT 15SM SKC M03/M05 A3031 RMK SLP289

CYXE;2008-10-22 14:00;CYXE 221400Z 25007KT 15SM SKC M05/M06 A3033 RMK SLP295

CYXE;2008-10-22 15:00;CYXE 221500Z 26006KT 15SM SKC M01/M04 A3033 RMK SLP297

CYXE;2008-10-22 16:00;CYXE 221600Z 29007KT 15SM SKC 03/M04 A3033 RMK SLP297

CYXE;2008-10-22 17:00;CYXE 221700Z 25007KT 15SM SKC 05/M04 A3034 RMK SLP299

CYXE;2008-10-22 18:00;CYXE 221800Z 24009KT 15SM SKC 07/M03 A3033 RMK SLP292

CYXE;2008-10-22 19:00;CYXE 221900Z 22009KT 15SM SKC 09/M03 A3031 RMK SLP285

CYXE;2008-10-22 20:00;CYXE 222000Z 25012KT 15SM FEW280 10/M04 A3029 RMK CI0 SLP278

CYXE;2008-10-22 21:00;CYXE 222100Z 24010G15KT 15SM BKN280 12/M04 A3026 RMK CI1 SLP267

CYXE;2008-10-22 22:00;CYXE 222200Z 23008KT 15SM FEW280 12/M06 A3024 RMK CI1 SLP261

CYXE;2008-10-22 23:00;CYXE 222300Z 23007KT 15SM FEW280 10/M06 A3022 RMK CI1 SLP254

CYXE;2008-10-23 00:00;CYXE 230000Z 20007KT 15SM SCT280 07/M06 A3019 RMK CI2 SLP250

CYXE;2008-10-23 01:00;CYXE 230100Z 18007KT 15SM SCT280 05/M06 A3017 RMK CI1 SLP243

CYXE;2008-10-23 02:00;CYXE 230200Z 17008KT 15SM FEW280 03/M05 A3016 RMK CI0 SLP239

CYXE;2008-10-23 03:00;CYXE 230300Z 17009KT 15SM SKC 04/M05 A3013 RMK SLP229

CYXE;2008-10-23 04:00;CYXE 230400Z 17010KT 15SM SKC 04/M04 A3009 RMK SLP218

CYXE;2008-10-23 05:00;CYXE 230500Z 18012KT 15SM SKC 04/M04 A3006 RMK SLP206

CYXE;2008-10-23 06:00;CYXE 230600Z 18015KT 15SM SKC 05/M04 A3001 RMK SLP183

CYXE;2008-10-23 07:00;CYXE 230700Z 19015KT 15SM SKC 04/M04 A2997 RMK SLP171

CYXE;2008-10-23 08:00;CYXE 230800Z 19014G19KT 15SM FEW250 04/M04 A2992 RMK CI0 SLP154

CYXE;2008-10-23 09:00;CYXE 230900Z 18013G19KT 15SM FEW250 04/M03 A2988 RMK CI0 SLP136

CYXE;2008-10-23 10:00;CYXE 231000Z 19019KT 15SM FEW250 05/M03 A2980 RMK CI0 PRESFR SLP109

CYXE;2008-10-23 11:00;CYXE 231100Z 18016G24KT 15SM FEW250 05/M03 A2978 RMK CI0 SLP102

CYXE;2008-10-23 12:00;CYXE 231200Z 19018G25KT 15SM FEW250 06/M03 A2972 RMK CI0 OBS TAKEN +02 SLP082

CYXE;2008-10-23 13:00;CYXE 231300Z 19015KT 15SM FEW110 BKN250 06/M03 A2972 RMK AC1CI2 SLP081

CYXE;2008-10-23 14:00;CYXE 231400Z 19012G19KT 15SM SCT140 OVC250 06/M03 A2972 RMK AC2CI2 SLP083

CYXE;2008-10-23 15:00;CYXE 231500Z 20013KT 15SM BKN140 BKN250 08/M02 A2975 RMK AC6CI1 SLP093

CYXE;2008-10-23 16:00;CYXE 231600Z 22012KT 15SM BKN140 BKN250 08/M02 A2975 RMK AC6CI0 SLP092

CYXE;2008-10-23 17:00;CYXE 231700Z 27011KT 15SM BKN140 09/M01 A2978 RMK AC6 SLP103

CYXE;2008-10-23 18:00;CYXE 231800Z 31012KT 15SM BKN140 12/00 A2979 RMK AC5 SLP103

CYXE;2008-10-23 19:00;CYXE 231900Z 31009KT 15SM FEW140 SCT250 15/00 A2979 RMK AC2CI2 SLP103

CYXE;2008-10-23 20:00;CYXE 232000Z 31017KT 15SM FEW140 SCT250 14/M05 A2980 RMK AC2CI2 SLP107

CYXE;2008-10-23 21:00;CYXE 232100Z 31011G17KT 15SM BKN100 BKN250 13/13 A2983 RMK AC6CI0 SLP115

CYXE;2008-10-23 22:00;CYXE 232200Z 30017KT 15SM BKN098 BKN280 14/M06 A2983 RMK AC5CI1 SLP116

CYXE;2008-10-23 23:00;CYXE 232300Z 30011G17KT 15SM FEW100 BKN130 11/M06 A2986 RMK AC2AC3 SLP125

CYXE;2008-10-24 00:00;CYXE 240000Z 27010KT 15SM SCT130 BKN280 09/M05 A2988 RMK AC2CI2 SLP137

CYXE;2008-10-24 01:00;CYXE 240100Z 26010KT 15SM FEW130 SCT280 04/M05 A2991 RMK AC1CI1 SLP144

CYXE;2008-10-24 02:00;CYXE 240200Z 26009KT 15SM FEW130 02/M05 A2993 RMK AC2 SLP151

CYXE;2008-10-24 03:00;CYXE 240300Z 24007KT 15SM FEW130 M00/M05 A2994 RMK AC2 SLP162

CYXE;2008-10-24 04:00;CYXE 240400Z 23009KT 15SM FEW130 M02/M05 A2995 RMK AC1 SLP164

CYXE;2008-10-24 05:00;CYXE 240500Z 24008KT 15SM SKC M03/M06 A2996 RMK SLP167

CYXE;2008-10-24 06:00;CYXE 240600Z 25008KT 15SM SKC M04/M07 A2996 RMK SLP169

CYXE;2008-10-24 07:00;CYXE 240700Z 25009KT 15SM SKC M05/M07 A2996 RMK SLP166

CYXE;2008-10-24 08:00;CYXE 240800Z 25005KT 15SM SKC M05/M07 A2995 RMK SLP165

CYXE;2008-10-24 09:00;CYXE 240900Z 22007KT 15SM FEW120 M05/M07 A2995 RMK AC1 SLP164

CYXE;2008-10-24 10:00;CYXE 241000Z 18006KT 15SM SKC M03/M07 A2994 RMK SLP159

CYXE;2008-10-24 11:00;CYXE 241100Z 20007KT 15SM SKC M03/M06 A2994 RMK SLP159

CYXE;2008-10-24 12:00;CYXE 241200Z 20005KT 15SM SKC M04/M07 A2990 RMK SLP149

CYXE;2008-10-24 13:00;CYXE 241300Z 18006KT 15SM FEW270 M04/M07 A2987 RMK CI0 SLP140

CYXE;2008-10-24 14:00;CYXE 241400Z 21008KT 15SM FEW100 SCT270 M02/M06 A2984 RMK AC2CI0 SLP129

CYXE;2008-10-24 15:00;CYXE 241500Z 21003KT 15SM FEW100 FEW270 M00/M05 A2983 RMK AC2CI0 SLP126

CYXE;2008-10-24 16:00;CYXE 241600Z 21008KT 15SM BKN100 BKN270 03/M03 A2978 RMK AC5CI0 SLP111

CYXE;2008-10-24 17:00;CYXE 241700Z 21010KT 15SM FEW100 BKN270 06/M03 A2975 RMK AC2CI1 SLP101

CYXE;2008-10-24 18:00;CYXE 241800Z 21011G18KT 15SM BKN110 BKN270 08/M02 A2969 RMK AC6CI0 SLP078

CYXE;2008-10-24 19:00;CYXE 241900Z 24012G18KT 15SM BKN090 OVC270 11/M03 A2965 RMK AC7CI0 SLP063

CYXE;2008-10-24 20:00;CYXE 242000Z 26016G22KT 15SM BKN098 OVC270 10/M04 A2962 RMK AC6CI0 SLP056

CYXE;2008-10-24 21:00;CYXE 242100Z 28010G15KT 15SM BKN098 BKN270 10/M04 A2961 RMK AC5CI1 SLP048

CYXE;2008-10-24 22:00;CYXE 242200Z 25009KT 15SM SCT100 BKN270 10/M04 A2960 RMK AC3CI1 SLP045

CYXE;2008-10-24 23:00;CYXE 242300Z 23007KT 15SM SCT100 BKN270 09/M04 A2957 RMK AC3CI1 SLP037

CYXE;2008-10-25 00:00;CYXE 250000Z 23008KT 15SM FEW100 BKN270 05/M04 A2956 RMK AC2CI2 SLP036

CYXE;2008-10-25 01:00;CYXE 250100Z 25010KT 15SM FEW100 SCT270 08/M03 A2956 RMK AC2CI2 SLP036

CYXE;2008-10-25 01:35;CYXE 250135Z 25010KT 15SM FEW100 SCT270 07/ RMK AC2CI2

CYXE;2008-10-25 02:00;CYXE 250200Z 26009KT 15SM BKN060 08/M03 A2957 RMK SC6 SLP037

CYXE;2008-10-25 03:00;CYXE 250300Z 24006KT 15SM BKN050 06/M03 A2954 RMK SC7 SLP023

CYXE;2008-10-25 04:00;CYXE 250400Z 22007KT 15SM FEW050 BKN090 05/M03 A2950 RMK SC2AC5 SLP011

CYXE;2008-10-25 05:00;CYXE 250500Z 25009KT 15SM SCT090 04/M02 A2950 RMK AC3 SLP010

CYXE;2008-10-25 06:00;CYXE 250600Z 26011KT 15SM SKC 03/M04 A2949 RMK SLP004

CYXE;2008-10-25 07:00;CYXE 250700Z 27011KT 15SM FEW090 05/M04 A2949 RMK AC1 SLP005

CYXE;2008-10-25 08:00;CYXE 250800Z 27008KT 15SM FEW080 02/M04 A2949 RMK AC2 SLP004

CYXE;2008-10-25 09:00;CYXE 250900Z 27010KT 15SM SKC 02/M04 A2950 RMK SLP006

CYXE;2008-10-25 10:00;CYXE 251000Z 29012KT 15SM SKC 04/M03 A2949 RMK SLP004

CYXE;2008-10-25 11:00;CYXE 251100Z 26009KT 15SM FEW100 01/M03 A2950 RMK AC1 SLP006

CYXE;2008-10-25 12:00;CYXE 251200Z 27009KT 15SM SKC 01/M03 A2951 RMK SLP013

CYXE;2008-10-25 13:00;CYXE 251300Z 27009KT 15SM FEW100 SCT250 00/M03 A2949 RMK AC1CI1 SLP009

CYXE;2008-10-25 14:00;CYXE 251400Z 27013KT 15SM FEW110 BKN250 04/M03 A2951 RMK AC2CI2 SLP014

CYXE;2008-10-25 15:00;CYXE 251500Z 30022G29KT 15SM FEW110 BKN280 06/M03 A2952 RMK AC2CI2 SLP012

CYXE;2008-10-25 16:00;CYXE 251600Z 30024G31KT 15SM FEW110 FEW280 08/M03 A2952 RMK AC1CI1 SLP015

CYXE;2008-10-25 17:00;CYXE 251700Z 30024G32KT 15SM FEW040 09/M04 A2954 RMK SC1 SLP019

CYXE;2008-10-25 18:00;CYXE 251800Z 31028G35KT 15SM FEW052 09/M04 A2954 RMK SC2 SLP021

CYXE;2008-10-25 19:00;CYXE 251900Z 31027G37KT 15SM BKN052 08/M05 A2956 RMK SC6 SLP027

CYXE;2008-10-25 20:00;CYXE 252000Z 32028G34KT 15SM BKN054 08/M05 A2957 RMK SC7 SLP032

CYXE;2008-10-25 21:00;CYXE 252100Z 30026G44KT 15SM VCSH BKN058 BKN090 08/M04 A2961 RMK SC5AC1 SLP048

CYXE;2008-10-25 22:00;CYXE 252200Z 31027G39KT 15SM FEW090 BKN280 08/M06 A2964 RMK AC2CI1 SLP057

CYXE;2008-10-25 23:00;CYXE 252300Z 30027G38KT 15SM FEW090 BKN280 06/M04 A2968 RMK AC2CI1 SLP070

CYXE;2008-10-26 00:00;CYXE 260000Z 31021G31KT 15SM FEW090 SCT280 04/M04 A2973 RMK AC2CI0 SLP089

CYXE;2008-10-26 01:00;CYXE 260100Z 31023G30KT 15SM FEW090 FEW280 03/M11 A2977 RMK AC1CI1 SLP103

CYXE;2008-10-26 02:00;CYXE 260200Z 31020G26KT 15SM FEW100 02/M14 A2981 RMK AC2 SLP116

CYXE;2008-10-26 03:00;CYXE 260300Z 31022G30KT 15SM SCT100 02/M11 A2985 RMK AC3 SLP128

CYXE;2008-10-26 04:00;CYXE 260400Z 31026G31KT 15SM SCT100 01/M12 A2988 RMK AC3 SLP138

CYXE;2008-10-26 05:00;CYXE 260500Z 31022G30KT 15SM SCT100 00/M11 A2992 RMK AC3 SLP152

CYXE;2008-10-26 06:00;CYXE 260600Z 30024G30KT 15SM FEW100 M00/M09 A2996 RMK AC2 SLP166

CYXE;2008-10-26 07:00;CYXE 260700Z 30022G28KT 15SM FEW100 M01/M08 A2999 RMK AC2 SLP177

CYXE;2008-10-26 08:00;CYXE 260800Z 31021G28KT 15SM FEW100 M01/M09 A3002 RMK AC2 SLP187

CYXE;2008-10-26 09:00;CYXE 260900Z 30022G29KT 15SM FEW100 M01/M09 A3007 RMK AC2 SLP205

CYXE;2008-10-26 10:00;CYXE 261000Z 30019G27KT 15SM BKN065 M02/M06 A3011 RMK SC6 SLP219

CYXE;2008-10-26 11:00;CYXE 261100Z 32023G35KT 15SM OVC040 M01/M06 A3017 RMK SC7 SLP238

CYXE;2008-10-26 11:25;CYXE 261125Z 32021G30KT 15SM -SN OVC035 M01/ RMK SC8

CYXE;2008-10-26 12:00;CYXE 261200Z 32028G33KT 15SM -SN OVC033 M01/M08 A3021 RMK SC8 SLP258

CYXE;2008-10-26 12:48;CYXE 261248Z 32023G31KT 15SM OVC033 M01/ RMK SC8

CYXE;2008-10-26 13:00;CYXE 261300Z 32025G32KT 15SM BKN035 M01/M09 A3027 RMK SC6 SLP278

CYXE;2008-10-26 14:00;CYXE 261400Z 32021G31KT 15SM BKN037 M03/M10 A3032 RMK SC5 SLP291

CYXE;2008-10-26 15:00;CYXE 261500Z 32020G32KT 15SM FEW037 M03/M10 A3037 RMK SC2 SLP315

CYXE;2008-10-26 16:00;CYXE 261600Z 32023G31KT 15SM FEW040 M02/M11 A3041 RMK SC2 SLP328

CYXE;2008-10-26 17:00;CYXE 261700Z 32023G29KT 15SM FEW040 M01/M11 A3044 RMK SC2 SLP335

CYXE;2008-10-26 18:00;CYXE 261800Z 33022G30KT 15SM FEW040 M00/M12 A3045 RMK SC1 SLP342

CYXE;2008-10-26 19:00;CYXE 261900Z 32018G28KT 15SM SKC 01/M13 A3048 RMK SLP349

CYXE;2008-10-26 20:00;CYXE 262000Z 32022G28KT 15SM SKC 01/M16 A3048 RMK SLP350

CYXE;2008-10-26 21:00;CYXE 262100Z 31019G26KT 15SM SCT270 01/M17 A3049 RMK CI0 SLP355

CYXE;2008-10-26 22:00;CYXE 262200Z 31017G25KT 15SM SCT270 01/M18 A3049 RMK CI0 SLP354

CYXE;2008-10-26 23:00;CYXE 262300Z 31016G22KT 15SM SCT270 00/M18 A3050 RMK CI0 SLP359

CYXE;2008-10-27 00:00;CYXE 270000Z 30011G17KT 15SM FEW270 M02/M18 A3050 RMK CI1 SLP361

CYXE;2008-10-27 01:00;CYXE 270100Z 30010KT 15SM FEW270 M04/M18 A3052 RMK CI1 SLP366

CYXE;2008-10-27 02:00;CYXE 270200Z 30008KT 15SM SKC M05/M17 A3053 RMK SLP369

CYXE;2008-10-27 03:00;CYXE 270300Z 28007KT 15SM SKC M08/M17 A3053 RMK SLP374

CYXE;2008-10-27 04:00;CYXE 270400Z 26006KT 15SM SKC M10/M16 A3053 RMK SLP374

CYXE;2008-10-27 05:00;CYXE 270500Z 26007KT 15SM SKC M10/M16 A3053 RMK SLP374

CYXE;2008-10-27 06:00;CYXE 270600Z 25005KT 15SM SKC M10/M15 A3052 RMK SLP371

CYXE;2008-10-27 07:00;CYXE 270700Z 21005KT 15SM SKC M10/M15 A3051 RMK SLP368

CYXE;2008-10-27 08:00;CYXE 270800Z 23006KT 15SM SKC M11/M14 A3051 RMK SLP368

CYXE;2008-10-27 09:00;CYXE 270900Z 19004KT 15SM SKC M09/M14 A3049 RMK SLP359

CYXE;2008-10-27 10:00;CYXE 271000Z 22007KT 15SM SKC M11/M15 A3049 RMK SLP359

CYXE;2008-10-27 11:00;CYXE 271100Z 21004KT 15SM SKC M11/M14 A3047 RMK SLP354

CYXE;2008-10-27 12:00;CYXE 271200Z 21006KT 15SM SKC M11/M14 A3045 RMK SLP348

CYXE;2008-10-27 13:00;CYXE 271300Z 18005KT 15SM FEW140 M10/M13 A3043 RMK AC1 SLP342

CYXE;2008-10-27 14:00;CYXE 271400Z 18003KT 15SM SCT140 BKN250 M09/M13 A3041 RMK AC2CI2 SLP336

CYXE;2008-10-27 15:00;CYXE 271500Z 18008KT 15SM FEW280 M06/M12 A3038 RMK CI0 SLP325

CYXE;2008-10-27 16:00;CYXE 271600Z 18010KT 15SM FEW280 M02/M13 A3037 RMK CI0 SLP322

CYXE;2008-10-27 17:00;CYXE 271700Z 19009KT 15SM FEW100 FEW280 01/M12 A3036 RMK AC1CI0 SLP320

CYXE;2008-10-27 18:00;CYXE 271800Z 19013KT 15SM FEW280 04/M12 A3032 RMK CI0 SLP302

CYXE;2008-10-27 19:00;CYXE 271900Z 20010KT 15SM FEW280 06/M11 A3029 RMK CI0 SLP291

CYXE;2008-10-27 20:00;CYXE 272000Z 19010KT 15SM FEW280 07/M12 A3026 RMK CI0 SLP280

CYXE;2008-10-27 21:00;CYXE 272100Z 19012KT 15SM SCT280 08/M11 A3023 RMK CI0 SLP266

CYXE;2008-10-27 22:00;CYXE 272200Z 21007KT 15SM SCT280 09/M12 A3022 RMK CI1 SLP263

CYXE;2008-10-27 23:00;CYXE 272300Z 21006KT 15SM BKN280 08/M11 A3021 RMK CI1 CONTRAILS SLP259

CYXE;2008-10-28 00:00;CYXE 280000Z 19008KT 15SM BKN280 05/M11 A3020 RMK CI2 SLP257

CYXE;2008-10-28 01:00;CYXE 280100Z 20007KT 15SM BKN280 03/M10 A3018 RMK CI2 SLP253

CYXE;2008-10-28 02:00;CYXE 280200Z 20007KT 15SM FEW280 03/M10 A3018 RMK CI1 SLP251

CYXE;2008-10-28 03:00;CYXE 280300Z 22004KT 15SM SKC 01/M10 A3019 RMK SLP254

CYXE;2008-10-28 04:00;CYXE 280400Z 22007KT 15SM SKC M02/M10 A3019 RMK SLP255

CYXE;2008-10-28 05:00;CYXE 280500Z 21008KT 15SM SKC M01/M09 A3018 RMK SLP253

CYXE;2008-10-28 06:00;CYXE 280600Z 22007KT 15SM SKC M02/M09 A3018 RMK SLP247

CYXE;2008-10-28 07:00;CYXE 280700Z 22005KT 15SM FEW270 M02/M09 A3018 RMK CI0 SLP247

CYXE;2008-10-28 08:00;CYXE 280800Z 21006KT 15SM FEW270 M03/M09 A3018 RMK CI0 SLP247

CYXE;2008-10-28 09:00;CYXE 280900Z 22008KT 15SM FEW270 M02/M08 A3018 RMK CI0 SLP245

CYXE;2008-10-28 10:00;CYXE 281000Z 21006KT 15SM BKN270 M03/M08 A3017 RMK CI3 SLP242

CYXE;2008-10-28 11:00;CYXE 281100Z 22006KT 15SM SCT270 M03/M08 A3018 RMK CI2 SLP245

CYXE;2008-10-28 12:00;CYXE 281200Z 21007KT 15SM FEW270 M04/M08 A3018 RMK CI0 SLP247

CYXE;2008-10-28 13:00;CYXE 281300Z 19003KT 15SM SKC M03/M08 A3020 RMK SLP253

CYXE;2008-10-28 14:00;CYXE 281400Z 22005KT 15SM FEW120 FEW270 M05/M08 A3019 RMK AC0CI1 SLP250

CYXE;2008-10-28 15:00;CYXE 281500Z 23007KT 15SM FEW270 M02/M06 A3019 RMK CI1 SLP251

CYXE;2008-10-28 16:00;CYXE 281600Z 23004KT 15SM SCT270 02/M06 A3019 RMK CI0 SLP252

CYXE;2008-10-28 17:00;CYXE 281700Z 24003KT 15SM SCT270 07/M05 A3020 RMK CI1 SLP255

CYXE;2008-10-28 18:00;CYXE 281800Z 19004KT 15SM SCT270 09/M06 A3019 RMK CI0 SLP246

CYXE;2008-10-28 19:00;CYXE 281900Z 20006KT 15SM BKN270 11/M06 A3016 RMK CI2 SLP238

CYXE;2008-10-28 20:00;CYXE 282000Z 19006KT 15SM BKN270 14/M06 A3014 RMK CI2 SLP230

CYXE;2008-10-28 21:00;CYXE 282100Z 18008KT 15SM SCT270 15/M06 A3012 RMK CI1 SLP219

CYXE;2008-10-28 22:00;CYXE 282200Z 18007KT 15SM BKN270 15/M06 A3009 RMK CI2 SLP209

CYXE;2008-10-28 23:00;CYXE 282300Z 15004KT 15SM FEW110 BKN270 13/M05 A3007 RMK AC1CI2 SLP202

CYXE;2008-10-29 00:00;CYXE 290000Z 13006KT 15SM FEW110 BKN270 10/M05 A3005 RMK AC1CI2 SLP198

CYXE;2008-10-29 01:00;CYXE 290100Z 16006KT 15SM FEW110 BKN270 10/M05 A3003 RMK AC1CI2 SLP193

CYXE;2008-10-29 02:00;CYXE 290200Z 15009G15KT 15SM SCT270 11/M05 A3000 RMK CI0 SLP183

CYXE;2008-10-29 03:00;CYXE 290300Z 15009KT 15SM BKN270 09/M04 A2997 RMK CI1 SLP172

CYXE;2008-10-29 04:00;CYXE 290400Z 15008KT 15SM BKN270 08/M04 A2993 RMK CI1 SLP160

CYXE;2008-10-29 05:00;CYXE 290500Z 17007KT 15SM BKN270 07/M04 A2991 RMK CI2 SLP152

CYXE;2008-10-29 06:00;CYXE 290600Z 17006KT 15SM OVC270 07/M04 A2988 RMK CI8 SLP135

CYXE;2008-10-29 07:00;CYXE 290700Z 18008KT 15SM OVC250 07/M04 A2985 RMK CI8 SLP126

CYXE;2008-10-29 08:00;CYXE 290800Z 19008KT 15SM BKN270 07/M04 A2983 RMK CI6 SLP120

CYXE;2008-10-29 09:00;CYXE 290900Z 19006KT 15SM FEW270 05/M03 A2981 RMK CI0 SLP108

CYXE;2008-10-29 10:00;CYXE 291000Z 19008KT 15SM FEW270 04/M03 A2979 RMK CI0 SLP102

CYXE;2008-10-29 11:00;CYXE 291100Z 21006KT 15SM FEW270 02/M04 A2978 RMK CI0 SLP099

CYXE;2008-10-29 12:00;CYXE 291200Z 24008KT 15SM SKC 00/M04 A2976 RMK SLP098

CYXE;2008-10-29 13:00;CYXE 291300Z 23006KT 15SM SKC M01/M04 A2975 RMK SLP095

CYXE;2008-10-29 14:00;CYXE 291400Z 23006KT 15SM SCT220 M02/M04 A2975 RMK CI1 SLP095

CYXE;2008-10-29 15:00;CYXE 291500Z 23005KT 15SM SCT220 01/M03 A2977 RMK CI1 SLP100

CYXE;2008-10-29 16:00;CYXE 291600Z 28007KT 15SM BKN220 05/M03 A2977 RMK CI1 SLP102

CYXE;2008-10-29 17:00;CYXE 291700Z 27006KT 15SM BKN220 08/M03 A2977 RMK CI1 SLP102

CYXE;2008-10-29 18:00;CYXE 291800Z 25004KT 15SM BKN250 10/M03 A2976 RMK CI2 SLP092

CYXE;2008-10-29 19:00;CYXE 291900Z 21007KT 15SM BKN250 13/M03 A2973 RMK CI1 SLP082

CYXE;2008-10-29 20:00;CYXE 292000Z 19006KT 15SM SCT250 14/M01 A2969 RMK CI1 SLP072

CYXE;2008-10-29 21:00;CYXE 292100Z 23007KT 15SM FEW250 17/M02 A2967 RMK CI1 SLP061

CYXE;2008-10-29 22:00;CYXE 292200Z 23007KT 15SM SCT250 18/M02 A2965 RMK CI2 SLP055

CYXE;2008-10-29 23:00;CYXE 292300Z 21004KT 15SM SCT250 15/M02 A2965 RMK CI1 SLP053

CYXE;2008-10-30 00:00;CYXE 300000Z 13002KT 15SM FEW250 11/M02 A2963 RMK CI2 SLP052

CYXE;2008-10-30 01:00;CYXE 300100Z 16005KT 15SM SCT250 10/M01 A2960 RMK CI2 SLP043

CYXE;2008-10-30 02:00;CYXE 300200Z 18005KT 15SM FEW250 09/M01 A2958 RMK CI1 SLP037

CYXE;2008-10-30 03:00;CYXE 300300Z 19009KT 15SM SCT250 09/M01 A2955 RMK CI1 SLP025

CYXE;2008-10-30 04:00;CYXE 300400Z 19006KT 15SM SCT250 08/M01 A2955 RMK CI1 SLP024

CYXE;2008-10-30 05:00;CYXE 300500Z 21009KT 15SM SCT250 08/M01 A2953 RMK CI1 SLP019

CYXE;2008-10-30 06:00;CYXE 300600Z 25009KT 15SM FEW160 BKN250 07/M02 A2953 RMK AC2CI3 SLP016

CYXE;2008-10-30 07:00;CYXE 300700Z 25008KT 15SM FEW160 BKN250 07/M03 A2953 RMK AC2CI4 SLP016

CYXE;2008-10-30 08:00;CYXE 300800Z 25009KT 15SM FEW250 03/M03 A2956 RMK CI1 SLP025

CYXE;2008-10-30 09:00;CYXE 300900Z 31016KT 15SM BKN250 09/M01 A2961 RMK CI2 SLP035

CYXE;2008-10-30 10:00;CYXE 301000Z CCA 32017KT 15SM BKN250 08/M02 A2967 RMK CI2 PRESRR SLP057

CYXE;2008-10-30 11:00;CYXE 301100Z 32011KT 15SM BKN250 05/M02 A2973 RMK CI2 SLP076

CYXE;2008-10-30 12:00;CYXE 301200Z 26006KT 15SM FEW250 03/M02 A2979 RMK CI0 PRESRR SLP107

CYXE;2008-10-30 13:00;CYXE 301300Z 30006KT 15SM FEW120 FEW250 04/M00 A2983 RMK AC1CI0 SLP120

CYXE;2008-10-30 14:00;CYXE 301400Z 30007KT 15SM SCT120 BKN250 04/M00 A2988 RMK AC3CI0 SLP135

CYXE;2008-10-30 15:00;CYXE 301500Z 30010KT 15SM FEW120 BKN250 04/01 A2994 RMK AC1CI2 SLP159

CYXE;2008-10-30 16:00;CYXE 301600Z 30011KT 15SM SCT250 06/00 A2998 RMK CI0 SLP172

CYXE;2008-10-30 17:00;CYXE 301700Z 31011KT 15SM SCT250 07/M02 A3002 RMK CI0 SLP183

CYXE;2008-10-30 18:00;CYXE 301800Z 29013KT 15SM FEW250 08/M01 A3004 RMK CI0 SLP190

CYXE;2008-10-30 19:00;CYXE 301900Z 29013KT 15SM FEW250 09/M02 A3005 RMK CI0 SLP196

CYXE;2008-10-30 20:00;CYXE 302000Z 30014KT 15SM FEW250 09/M04 A3007 RMK CI0 SLP200

CYXE;2008-10-30 21:00;CYXE 302100Z 31011KT 15SM FEW140 BKN250 09/M03 A3008 RMK AC1CI1 SLP203

CYXE;2008-10-30 22:00;CYXE 302200Z 31011KT 15SM FEW140 BKN250 09/M05 A3010 RMK AC1CI1 SLP210

CYXE;2008-10-30 23:00;CYXE 302300Z 31008KT 15SM FEW140 BKN250 07/M04 A3012 RMK AC1CI1 SLP214

CYXE;2008-10-31 01:00;CYXE 310100Z 32004KT 15SM SCT250 04/M04 A3016 RMK CI2 SLP238

CYXE;2008-10-31 01:35;CYXE 310135Z 29005KT 15SM BKN250 01/ RMK CI2

CYXE;2008-10-31 02:00;CYXE 310200Z 31004KT 15SM BKN210 M00/M05 A3018 RMK CI2 SLP243

CYXE;2008-10-31 03:00;CYXE 310300Z 34004KT 15SM BKN210 M02/M05 A3020 RMK CI2 SLP255

CYXE;2008-10-31 04:00;CYXE 310400Z 26002KT 15SM SKC M02/M05 A3022 RMK SLP259

CYXE;2008-10-31 05:00;CYXE 310500Z 24002KT 15SM SKC M01/M04 A3025 RMK SLP271

CYXE;2008-10-31 06:00;CYXE 310600Z 21003KT 15SM SKC M03/M05 A3026 RMK SLP273

CYXE;2008-10-31 07:00;CYXE 310700Z 00000KT 15SM SKC M03/M05 A3028 RMK SLP279

CYXE;2008-10-31 08:00;CYXE 310800Z 00000KT 15SM SKC M04/M05 A3029 RMK SLP282

CYXE;2008-10-31 09:00;CYXE 310900Z 08003KT 15SM SKC M03/M04 A3030 RMK SLP285

CYXE;2008-10-31 10:00;CYXE 311000Z 06006KT 15SM SKC M04/M06 A3030 RMK SLP285

CYXE;2008-10-31 11:00;CYXE 311100Z 10008KT 15SM SKC M00/M03 A3030 RMK SLP284

CYXE;2008-10-31 12:00;CYXE 311200Z 12010KT 15SM SKC 00/M04 A3030 RMK SLP288

CYXE;2008-10-31 13:00;CYXE 311300Z 12008KT 15SM FEW120 M00/M04 A3031 RMK AC1 SLP290

CYXE;2008-10-31 14:00;CYXE 311400Z 12008KT 15SM FEW160 BKN270 M00/M04 A3031 RMK AC2CI0 SLP289

CYXE;2008-10-31 15:00;CYXE 311500Z 11010KT 15SM FEW090 BKN280 00/M04 A3030 RMK AC2CI0 SLP290

CYXE;2008-10-31 16:00;CYXE 311600Z 10008KT 15SM FEW090 BKN280 04/M03 A3031 RMK AC1CI2 SLP294

CYXE;2008-10-31 17:00;CYXE 311700Z 12011KT 15SM FEW090 BKN280 06/00 A3029 RMK AC1CI2 SLP287

CYXE;2008-10-31 18:00;CYXE 311800Z 12014G19KT 15SM FEW090 BKN280 07/M01 A3025 RMK AC2CI2 SLP269

CYXE;2008-10-31 19:00;CYXE 311900Z 12015G21KT 15SM FEW090 BKN280 09/M03 A3022 RMK AC1CI2 SLP259

CYXE;2008-10-31 20:00;CYXE 312000Z 12014KT 15SM SCT280 10/M03 A3021 RMK CI1 SLP256

CYXE;2008-10-31 21:00;CYXE 312100Z 12015KT 15SM SCT280 11/M03 A3020 RMK CI1 SLP250

CYXE;2008-10-31 22:00;CYXE 312200Z 12014KT 15SM FEW280 11/M03 A3019 RMK CI0 SLP247

CYXE;2008-10-31 23:00;CYXE 312300Z 13012KT 15SM FEW280 10/M03 A3019 RMK CI1 SLP248

CYXE;2008-11-01 01:00;CYXE 010100Z 10012KT 15SM FEW250 05/M02 A3019 RMK CI0 SLP247

CYXE;2008-11-01 02:00;CYXE 010200Z 09011KT 15SM SCT250 04/M03 A3018 RMK CI2 SLP243

CYXE;2008-11-01 03:00;CYXE 010300Z 09012KT 15SM SCT250 04/M03 A3015 RMK CI1 SLP237

CYXE;2008-11-01 04:00;CYXE 010400Z 10009KT 15SM SCT250 04/M03 A3014 RMK CI2 SLP232

CYXE;2008-11-01 05:00;CYXE 010500Z 11011KT 15SM SCT250 04/M03 A3013 RMK CI2 SLP228

CYXE;2008-11-01 06:00;CYXE 010600Z 11010KT 15SM SCT250 04/M03 A3011 RMK CI2 SLP216

CYXE;2008-11-01 07:00;CYXE 010700Z 11013KT 15SM OVC250 04/M03 A3009 RMK CI8 SLP210

CYXE;2008-11-01 08:00;CYXE 010800Z 11009KT 15SM OVC250 04/M03 A3007 RMK CI8 SLP204

CYXE;2008-11-01 09:00;CYXE 010900Z 10009KT 15SM OVC160 04/M03 A3005 RMK AS8 SLP193

CYXE;2008-11-01 10:00;CYXE 011000Z 10008KT 15SM BKN160 03/M02 A3003 RMK AC6 SLP188

CYXE;2008-11-01 11:00;CYXE 011100Z 10013KT 15SM BKN160 03/M02 A3001 RMK AC5 SLP180

CYXE;2008-11-01 12:00;CYXE 011200Z 12006KT 15SM BKN160 01/M02 A2999 RMK AC5 SLP179

CYXE;2008-11-01 13:00;CYXE 011300Z 11010KT 15SM FEW160 01/M02 A2996 RMK AC2 SLP168

CYXE;2008-11-01 14:00;CYXE 011400Z 12008KT 15SM BKN110 01/M02 A2995 RMK AC6 SLP165

CYXE;2008-11-01 15:00;CYXE 011500Z 13007KT 15SM BKN110 BKN280 01/M02 A2992 RMK AC6CI0 SLP156

CYXE;2008-11-01 16:00;CYXE 011600Z 11006KT 15SM FEW110 BKN280 03/M01 A2991 RMK AC2CI0 SLP152

CYXE;2008-11-01 17:00;CYXE 011700Z 14005KT 15SM FEW110 SCT280 04/M00 A2989 RMK AC1CI1 SLP146

CYXE;2008-11-01 18:00;CYXE 011800Z 17005KT 15SM FEW060 FEW280 08/01 A2986 RMK SC1CI1 SLP129

CYXE;2008-11-01 19:00;CYXE 011900Z 20005KT 15SM FEW060 FEW280 11/02 A2983 RMK SC1CI0 SLP121

CYXE;2008-11-01 20:00;CYXE 012000Z 24010KT 15SM FEW060 FEW280 13/03 A2982 RMK SC1CI0 SLP117

CYXE;2008-11-01 21:00;CYXE 012100Z 29012KT 15SM FEW060 FEW280 12/02 A2983 RMK SC1CI0 SLP117

CYXE;2008-11-01 22:00;CYXE 012200Z 33009KT 15SM SKC 10/01 A2983 RMK SLP119

CYXE;2008-11-01 23:00;CYXE 012300Z 30009KT 15SM SKC 09/01 A2985 RMK SLP125

CYXE;2008-11-02 00:00;CYXE 020000Z 30008KT 15SM SKC 06/M00 A2987 RMK SLP137

CYXE;2008-11-02 01:00;CYXE 020100Z 29010KT 15SM SKC 04/M01 A2989 RMK SLP144

CYXE;2008-11-02 02:00;CYXE 020200Z 30009KT 15SM SKC 03/M01 A2989 RMK SLP143

CYXE;2008-11-02 03:00;CYXE 020300Z 31007KT 15SM SKC 02/M02 A2987 RMK SLP140

CYXE;2008-11-02 04:00;CYXE 020400Z 25005KT 15SM SKC M01/M03 A2987 RMK SLP140

CYXE;2008-11-02 05:00;CYXE 020500Z 23006KT 15SM SKC M02/M03 A2989 RMK SLP145

CYXE;2008-11-02 06:00;CYXE 020600Z 18005KT 15SM SKC M00/M02 A2989 RMK SLP142

CYXE;2008-11-02 07:00;CYXE 020700Z 23006KT 15SM SKC M02/M03 A2989 RMK SLP144

CYXE;2008-11-02 08:00;CYXE 020800Z 22004KT 15SM SKC M03/M03 A2988 RMK SLP141

CYXE;2008-11-02 09:00;CYXE 020900Z 18002KT 15SM SKC M03/M04 A2987 RMK SLP138

CYXE;2008-11-02 10:00;CYXE 021000Z 22004KT 15SM SKC M03/M04 A2986 RMK SLP134

CYXE;2008-11-02 11:00;CYXE 021100Z 11003KT 15SM SKC M04/M05 A2984 RMK SLP128

CYXE;2008-11-02 12:00;CYXE 021200Z 17003KT 15SM SKC M04/M04 A2985 RMK SLP132

CYXE;2008-11-02 13:00;CYXE 021300Z 17004KT 15SM SKC M03/M03 A2985 RMK SLP132

CYXE;2008-11-02 14:00;CYXE 021400Z 12002KT 15SM BKN270 M03/M03 A2984 RMK CI2 SLP130

CYXE;2008-11-02 15:00;CYXE 021500Z 17005KT 15SM BKN270 M01/M01 A2984 RMK CI2 SLP132

CYXE;2008-11-02 16:00;CYXE 021600Z 14004KT 15SM BKN270 03/02 A2980 RMK CI2 SLP118

CYXE;2008-11-02 17:00;CYXE 021700Z 16006KT 15SM BKN270 05/02 A2979 RMK CI2 SLP116

CYXE;2008-11-02 18:00;CYXE 021800Z 12007KT 15SM BKN270 08/04 A2978 RMK CI2 SLP105

CYXE;2008-11-02 19:00;CYXE 021900Z 13006KT 15SM FEW110 BKN270 10/05 A2976 RMK AC1CI5 SLP099

CYXE;2008-11-02 20:00;CYXE 022000Z 13008KT 15SM SCT110 BKN270 11/05 A2974 RMK AC3CI2 SLP091

CYXE;2008-11-02 21:00;CYXE 022100Z 10008KT 15SM BKN100 BKN270 11/05 A2970 RMK AC5CI1 SLP079

CYXE;2008-11-02 22:00;CYXE 022200Z 11008KT 15SM BKN100 BKN270 11/04 A2969 RMK AC5CI2 SLP074

CYXE;2008-11-02 23:00;CYXE 022300Z 11011KT 15SM BKN100 OVC280 10/04 A2967 RMK AC5CI2 SLP070

CYXE;2008-11-03 00:00;CYXE 030000Z 11010KT 15SM BKN090 OVC270 09/03 A2966 RMK AC6CI2 SLP067

CYXE;2008-11-03 01:00;CYXE 030100Z 11008KT 15SM BKN094 OVC270 09/03 A2965 RMK AC6CI2 SLP062

CYXE;2008-11-03 02:00;CYXE 030200Z 11008KT 15SM -RA OVC053 08/05 A2963 RMK SC8 SLP056

CYXE;2008-11-03 03:00;CYXE 030300Z 12008KT 15SM OVC078 08/05 A2960 RMK AC8 SLP043

CYXE;2008-11-03 04:00;CYXE 030400Z 12012KT 15SM OVC065 08/05 A2957 RMK AC8 SLP036

CYXE;2008-11-03 05:00;CYXE 030500Z 15014G19KT 15SM VCSH OVC081 09/05 A2957 RMK AC8 SLP036

CYXE;2008-11-03 05:51;CYXE 030551Z 14010G15KT 15SM -RA OVC085 08/ RMK AC8

CYXE;2008-11-03 06:00;CYXE 030600Z 14011KT 15SM -RA OVC065 08/06 A2956 RMK SC8 SLP025

CYXE;2008-11-03 07:00;CYXE 030700Z 13011KT 12SM -RA OVC055 07/05 A2954 RMK SC8 SLP020

CYXE;2008-11-03 08:00;CYXE 030800Z 12011G18KT 15SM -RA OVC060 06/05 A2952 RMK SC8 SLP013

CYXE;2008-11-03 09:00;CYXE 030900Z 13010KT 15SM -RA OVC058 06/04 A2952 RMK SC8 SLP009

CYXE;2008-11-03 10:00;CYXE 031000Z 13008KT 12SM -RA OVC056 06/05 A2949 RMK SC8 SLP002

CYXE;2008-11-03 11:00;CYXE 031100Z 14008KT 12SM -RA OVC053 06/05 A2948 RMK SC8 SLP998

CYXE;2008-11-03 12:00;CYXE 031200Z 13007KT 12SM -RA OVC049 06/05 A2947 RMK SC8 SLP996

CYXE;2008-11-03 13:00;CYXE 031300Z 12006KT 12SM -RA BKN030 OVC050 05/05 A2945 RMK SC6SC2 SLP990

CYXE;2008-11-03 14:00;CYXE 031400Z 10006KT 10SM -RA BKN033 OVC043 05/05 A2943 RMK SC6SC2 SLP984

CYXE;2008-11-03 15:00;CYXE 031500Z 09006KT 6SM BR OVC035 05/05 A2942 RMK SC8 SLP979

CYXE;2008-11-03 16:00;CYXE 031600Z 11003KT 12SM SCT017 BKN035 BKN080 06/05 A2942 RMK SC3SC2AC2 SLP978

CYXE;2008-11-03 17:00;CYXE 031700Z 13004KT 10SM BKN030 OVC090 06/05 A2941 RMK SC5AC3 BR SLP974

CYXE;2008-11-03 17:40;CYXE 031740Z 00000KT 10SM -RA BKN026 OVC090 06/ RMK SC6AC2

CYXE;2008-11-03 18:00;CYXE 031800Z 00000KT 10SM BKN024 OVC050 06/05 A2939 RMK SC6SC2 BR SLP967

CYXE;2008-11-03 18:53;CYXE 031853Z 27004KT 10SM BKN006 OVC018 07/ RMK ST5SC3 BR

CYXE;2008-11-03 19:00;CYXE 031900Z 25003KT 10SM BKN006 OVC018 07/06 A2937 RMK ST5SC3 BR SLP962

CYXE;2008-11-03 20:00;CYXE 032000Z 29005KT 10SM BKN006 OVC014 07/07 A2936 RMK ST5SC3 BR SLP957

CYXE;2008-11-03 20:48;CYXE 032048Z 29007KT 10SM -DZ BKN006 OVC010 08/ RMK ST6SC2

CYXE;2008-11-03 21:00;CYXE 032100Z CCA 29008KT 4SM -DZ BKN006 OVC010 08/07 A2937 RMK ST6SC2 SLP960

CYXE;2008-11-03 22:00;CYXE 032200Z 30011KT 8SM -DZ BKN005 OVC018 08/08 A2938 RMK ST7SC1 SLP965

CYXE;2008-11-03 23:00;CYXE 032300Z 30012G17KT 15SM -DZ OVC006 07/07 A2940 RMK ST8 SLP971

CYXE;2008-11-03 23:29;CYXE 032329Z 29011KT 15SM BKN007 OVC020 07/ RMK ST6SC2

CYXE;2008-11-04 00:00;CYXE 040000Z 28012KT 15SM BKN007 OVC020 07/07 A2943 RMK ST6SC2 SLP981

CYXE;2008-11-04 00:48;CYXE 040048Z 28014KT 15SM OVC010 08/ RMK ST8

CYXE;2008-11-04 01:00;CYXE 040100Z 29014KT 15SM OVC010 08/07 A2943 RMK ST8 SLP983

CYXE;2008-11-04 02:00;CYXE 040200Z 29015KT 15SM BKN014 OVC055 08/07 A2944 RMK SC5SC3 SLP986

CYXE;2008-11-04 02:28;CYXE 040228Z 29017G22KT 15SM SCT015 BKN060 08/ RMK SC4SC3

CYXE;2008-11-04 03:00;CYXE 040300Z 29015KT 15SM SCT020 BKN060 07/05 A2945 RMK SC3SC2 SLP991

CYXE;2008-11-04 04:00;CYXE 040400Z 29015KT 15SM BKN017 BKN060 06/04 A2946 RMK SC5SC1 SLP994

CYXE;2008-11-04 05:00;CYXE 040500Z 28012KT 15SM SCT060 05/04 A2947 RMK SC2 SLP996

CYXE;2008-11-04 06:00;CYXE 040600Z 28009G18KT 15SM BKN020 06/05 A2948 RMK SC6 SLP999

CYXE;2008-11-04 07:00;CYXE 040700Z 27006KT 15SM BKN016 06/05 A2948 RMK SC7 SLP000

CYXE;2008-11-04 08:00;CYXE 040800Z 29008KT 15SM OVC016 07/05 A2950 RMK SC8 SLP006

CYXE;2008-11-04 09:00;CYXE 040900Z 26006KT 15SM OVC016 06/05 A2952 RMK SC8 SLP013

CYXE;2008-11-04 10:00;CYXE 041000Z 30010KT 15SM OVC018 06/05 A2953 RMK SC8 SLP016

CYXE;2008-11-04 11:00;CYXE 041100Z 30014G20KT 15SM OVC016 06/04 A2954 RMK SC8 SLP019

CYXE;2008-11-04 12:00;CYXE 041200Z 30011G16KT 15SM OVC016 06/04 A2955 RMK SC8 SLP024

CYXE;2008-11-04 12:44;CYXE 041244Z 29009KT 15SM OVC014 06/ RMK SC8

CYXE;2008-11-04 13:00;CYXE 041300Z 29014KT 15SM OVC014 05/03 A2957 RMK SC8 SLP029

CYXE;2008-11-04 14:00;CYXE 041400Z 29009KT 15SM OVC014 05/03 A2959 RMK SC8 SLP036

CYXE;2008-11-04 15:00;CYXE 041500Z 29012KT 15SM OVC012 05/03 A2961 RMK SC8 SLP045

CYXE;2008-11-04 16:00;CYXE 041600Z 31010KT 15SM OVC012 05/03 A2962 RMK SC8 SLP049

CYXE;2008-11-04 17:00;CYXE 041700Z 29011KT 15SM OVC012 05/03 A2963 RMK SC8 SLP052

CYXE;2008-11-04 18:00;CYXE 041800Z 30008KT 15SM BKN013 OVC040 06/03 A2965 RMK SC6SC2 SLP058

CYXE;2008-11-04 19:00;CYXE 041900Z 31009KT 15SM BKN013 BKN270 07/04 A2965 RMK SC5CI0 SLP058

CYXE;2008-11-04 19:05;CYXE 041905Z 33008KT 15SM SCT013 BKN270 07/ RMK CU4CI0

CYXE;2008-11-04 20:00;CYXE 042000Z 31008KT 15SM SCT020 BKN270 08/03 A2964 RMK CU3CI0 SLP054

CYXE;2008-11-04 21:00;CYXE 042100Z 31007KT 15SM FEW022 BKN270 08/02 A2965 RMK SC2CI1 SLP058

CYXE;2008-11-04 22:00;CYXE 042200Z 33009KT 15SM FEW030 FEW094 BKN270 07/01 A2966 RMK SC2AC1CI2 SLP062

CYXE;2008-11-04 23:00;CYXE 042300Z 31005KT 15SM FEW030 FEW094 BKN270 06/02 A2968 RMK SC2AC1CI2 SLP067

CYXE;2008-11-05 00:00;CYXE 050000Z 01004KT 15SM BKN024 04/02 A2969 RMK SC7 SLP074

CYXE;2008-11-05 01:00;CYXE 050100Z 01009KT 15SM BKN022 04/02 A2970 RMK SC6 SLP076

CYXE;2008-11-05 02:00;CYXE 050200Z 03009KT 15SM OVC015 05/03 A2972 RMK SC8 SLP082

CYXE;2008-11-05 03:00;CYXE 050300Z 04011KT 15SM OVC014 04/02 A2972 RMK SC8 SLP085

CYXE;2008-11-05 04:00;CYXE 050400Z 04008KT 15SM OVC016 04/01 A2975 RMK SC8 SLP093

CYXE;2008-11-05 05:00;CYXE 050500Z 03008KT 15SM OVC014 03/01 A2977 RMK SC8 SLP099

CYXE;2008-11-05 06:00;CYXE 050600Z 04009KT 15SM OVC012 03/01 A2977 RMK SC8 SLP103

CYXE;2008-11-05 06:42;CYXE 050642Z 05008KT 15SM OVC016 03/ RMK SC8

CYXE;2008-11-05 07:00;CYXE 050700Z 05006KT 15SM OVC016 03/00 A2979 RMK SC8 SLP109

CYXE;2008-11-05 08:00;CYXE 050800Z 03006KT 15SM OVC016 03/00 A2980 RMK SC8 SLP112

CYXE;2008-11-05 09:00;CYXE 050900Z 06008KT 15SM OVC020 03/M01 A2981 RMK SC8 SLP114

CYXE;2008-11-05 09:16;CYXE 050916Z 06012KT 15SM -SN OVC020 02/ RMK SC8

CYXE;2008-11-05 09:37;CYXE 050937Z 03010KT 15SM OVC020 02/ RMK SC8

CYXE;2008-11-05 10:00;CYXE 051000Z 04010KT 15SM OVC020 02/M01 A2982 RMK SC8 SLP117

CYXE;2008-11-05 11:00;CYXE 051100Z 03010KT 15SM FEW010 OVC024 02/M01 A2983 RMK SC1SC7 SLP122

CYXE;2008-11-05 12:00;CYXE 051200Z 03010KT 15SM FEW010 OVC025 01/M00 A2984 RMK SC1SC7 SLP128

CYXE;2008-11-05 12:34;CYXE 051234Z 04011KT 15SM -SN FEW010 OVC025 01/ RMK SC1SC7

CYXE;2008-11-05 13:00;CYXE 051300Z 03010KT 15SM FEW010 OVC025 01/M00 A2986 RMK SC1SC7 SLP135

CYXE;2008-11-05 13:49;CYXE 051349Z 04009KT 15SM BKN012 OVC025 01/ RMK SC5SC3

CYXE;2008-11-05 14:00;CYXE 051400Z 04010KT 15SM BKN012 OVC025 01/M00 A2989 RMK SC6SC2 SLP144

CYXE;2008-11-05 15:00;CYXE 051500Z 04008KT 15SM BKN010 OVC025 01/M00 A2992 RMK SC6SC2 SLP155

CYXE;2008-11-05 16:00;CYXE 051600Z 05015KT 15SM SCT012 OVC028 01/M02 A2994 RMK SC4SC4 SLP163

CYXE;2008-11-05 17:00;CYXE 051700Z 06012KT 15SM SCT011 SCT065 BKN220 00/M03 A2997 RMK SC3SC1CI3 SLP171

CYXE;2008-11-05 18:00;CYXE 051800Z 05013KT 15SM BKN014 OVC220 01/M03 A2998 RMK SC6CI1 SLP177

CYXE;2008-11-05 19:00;CYXE 051900Z 04013KT 15SM BKN014 M00/M04 A2999 RMK SC7 SLP179

CYXE;2008-11-05 20:00;CYXE 052000Z 04014KT 15SM OVC014 M00/M04 A3000 RMK SC8 SLP184

CYXE;2008-11-05 21:00;CYXE 052100Z 06011KT 15SM OVC014 M00/M04 A3003 RMK SC8 SLP194

CYXE;2008-11-05 21:48;CYXE 052148Z 04012KT 15SM -SN OVC014 M01/ RMK SC8

CYXE;2008-11-05 22:00;CYXE 052200Z 03008KT 15SM -SN OVC014 M01/M04 A3005 RMK SC8 SLP202

CYXE;2008-11-05 22:29;CYXE 052229Z 06012KT 15SM -SN OVC016 M01/ RMK SC8

CYXE;2008-11-05 23:00;CYXE 052300Z 04009KT 15SM -SN OVC016 M01/M04 A3008 RMK SC8 SLP210

CYXE;2008-11-06 00:00;CYXE 060000Z 04009KT 15SM -SN OVC016 M01/M04 A3010 RMK SC8 SLP220

CYXE;2008-11-06 01:00;CYXE 060100Z 04011KT 15SM -SN OVC016 M01/M04 A3012 RMK SC8 SLP226

CYXE;2008-11-06 02:00;CYXE 060200Z 07012KT 15SM -SN OVC016 M01/M04 A3015 RMK SC7 SLP235

CYXE;2008-11-06 02:34;CYXE 060234Z 06008KT 15SM OVC018 M01/ RMK SC7

CYXE;2008-11-06 03:00;CYXE 060300Z 06007KT 15SM BKN018 M01/M05 A3015 RMK SC4 SLP238

CYXE;2008-11-06 04:00;CYXE 060400Z 08006KT 15SM BKN016 M02/M04 A3016 RMK SC6 SLP242

CYXE;2008-11-06 05:00;CYXE 060500Z CCA 04004KT 15SM BKN024 M02/M05 A3018 RMK SC6 OBS TAKEN +5 SLP246

CYXE;2008-11-06 06:00;CYXE 060600Z 03006KT 15SM BKN021 M02/M05 A3018 RMK SC6 SLP250

CYXE;2008-11-06 07:00;CYXE 060700Z CCA 04005KT 15SM -SHSN OVC017 M02/M04 A3021 RMK SC8 SLP257

CYXE;2008-11-06 08:00;CYXE 060800Z 36006KT 15SM -SHSN OVC017 M02/M03 A3022 RMK SC8 SLP262

CYXE;2008-11-06 09:00;CYXE 060900Z 02004KT 15SM -SHSN OVC016 M02/M04 A3024 RMK SC8 SLP269

CYXE;2008-11-06 10:00;CYXE 061000Z 35007KT 15SM -SN OVC016 M02/M05 A3025 RMK SC8 -SN INTMT SLP272

CYXE;2008-11-06 11:00;CYXE 061100Z 36009KT 15SM -SN BKN016 M02/M05 A3026 RMK SC7 -SN INTMT SLP277

CYXE;2008-11-06 12:00;CYXE 061200Z 02009KT 15SM -SN OVC016 M02/M05 A3027 RMK SC7 -SN INTMT SLP281

CYXE;2008-11-06 13:00;CYXE 061300Z 35007KT 15SM OVC020 M03/M05 A3029 RMK SC7 SLP288

CYXE;2008-11-06 14:00;CYXE 061400Z 36006KT 15SM OVC018 M03/M05 A3030 RMK SC8 SLP291

CYXE;2008-11-06 15:00;CYXE 061500Z 36006KT 15SM OVC018 M02/M05 A3032 RMK SC8 SLP299

CYXE;2008-11-06 15:54;CYXE 061554Z 01004KT 15SM -SN OVC013 M02/ RMK SC8

CYXE;2008-11-06 16:00;CYXE 061600Z 02004KT 15SM -SN OVC013 M02/M05 A3033 RMK SC8 SLP302

CYXE;2008-11-06 17:00;CYXE 061700Z 03008KT 15SM -SN OVC013 M02/M05 A3033 RMK SC8 SLP302

CYXE;2008-11-06 17:21;CYXE 061721Z 04006KT 15SM -SN OVC015 M02/ RMK SC8

CYXE;2008-11-06 18:00;CYXE 061800Z 36004KT 15SM -SN OVC015 M02/M05 A3034 RMK SC8 SLP304

CYXE;2008-11-06 18:25;CYXE 061825Z 01004KT 15SM OVC015 M02/ RMK SC8

CYXE;2008-11-06 19:00;CYXE 061900Z 07003KT 15SM OVC015 M02/M05 A3033 RMK SC8 SLP302

CYXE;2008-11-06 20:00;CYXE 062000Z 32002KT 15SM OVC015 M01/M05 A3033 RMK SC8 SLP301

CYXE;2008-11-06 21:00;CYXE 062100Z 33005KT 15SM OVC017 M01/M05 A3031 RMK SC8 SLP295

CYXE;2008-11-06 22:00;CYXE 062200Z 02003KT 15SM BKN019 M01/M05 A3032 RMK SC7 SLP296

CYXE;2008-11-06 23:00;CYXE 062300Z 00000KT 15SM BKN019 M01/M05 A3032 RMK SC7 SLP298

CYXE;2008-11-07 00:00;CYXE 070000Z 04003KT 15SM BKN021 M03/M06 A3031 RMK SC4 SLP296

CYXE;2008-11-07 01:00;CYXE 070100Z 10005KT 15SM FEW021 M04/M06 A3029 RMK SC2 SLP289

CYXE;2008-11-07 02:00;CYXE 070200Z 12004KT 15SM SKC M04/M06 A3028 RMK SLP285

CYXE;2008-11-07 03:00;CYXE 070300Z 11004KT 15SM SKC M05/M07 A3027 RMK SLP282

CYXE;2008-11-07 04:00;CYXE 070400Z 12005KT 15SM SKC M05/M06 A3025 RMK SLP278

CYXE;2008-11-07 05:00;CYXE 070500Z 12005KT 15SM FEW010 BKN270 M05/M07 A3024 RMK SF2CI0 SLP275

CYXE;2008-11-07 05:14;CYXE 070514Z 11005KT 15SM BKN012 OVC270 M05/ RMK ST6CI0

CYXE;2008-11-07 05:28;CYXE 070528Z 11006KT 15SM OVC009 M04/ RMK ST7

CYXE;2008-11-07 06:00;CYXE 070600Z 12006KT 15SM OVC008 M04/M05 A3023 RMK ST8 SLP270

CYXE;2008-11-07 06:41;CYXE 070641Z 11008KT 15SM OVC005 M04/ RMK ST8

CYXE;2008-11-07 07:00;CYXE 070700Z 11004KT 15SM OVC005 M04/M05 A3022 RMK ST8 SLP266

CYXE;2008-11-07 08:00;CYXE 070800Z 11004KT 15SM OVC006 M04/M05 A3022 RMK ST8 SLP266

CYXE;2008-11-07 08:23;CYXE 070823Z 13005KT 15SM -SG OVC008 M04/ RMK ST8

CYXE;2008-11-07 09:00;CYXE 070900Z 12006KT 15SM -SG OVC009 M04/M06 A3022 RMK ST8 SLP265

CYXE;2008-11-07 09:11;CYXE 070911Z 13006KT 15SM OVC010 M04/ RMK ST8

CYXE;2008-11-07 10:00;CYXE 071000Z 11007KT 15SM BKN010 M05/M06 A3019 RMK ST6 SLP257

CYXE;2008-11-07 11:00;CYXE 071100Z 11007KT 15SM OVC010 M05/M06 A3019 RMK ST7 SLP255

CYXE;2008-11-07 11:22;CYXE 071122Z 09007KT 15SM OVC009 M05/ RMK ST8

CYXE;2008-11-07 12:00;CYXE 071200Z 07009KT 15SM OVC008 M05/M06 A3020 RMK ST8 SLP259

CYXE;2008-11-07 12:23;CYXE 071223Z 07007KT 15SM SCT009 BKN220 M06/ RMK ST3CI0

CYXE;2008-11-07 13:00;CYXE 071300Z 07008KT 15SM SCT007 BKN250 M06/M07 A3020 RMK ST4CI0 SLP261

CYXE;2008-11-07 13:15;CYXE 071315Z 07008KT 15SM BKN007 BKN250 M07/ RMK ST5CI0

CYXE;2008-11-07 14:00;CYXE 071400Z 08010KT 15SM SCT008 BKN220 M07/M08 A3020 RMK ST4CI0 SLP261

CYXE;2008-11-07 15:00;CYXE 071500Z 07008KT 15SM SCT008 OVC240 M07/M08 A3021 RMK SF2CI2 SLP267

CYXE;2008-11-07 16:00;CYXE 071600Z 08007KT 15SM FEW008 BKN120 OVC240 M07/M08 A3021 RMK ST2AC5CI0 SLP266

CYXE;2008-11-07 17:00;CYXE 071700Z 08007KT 15SM FEW008 BKN120 OVC240 M06/M08 A3022 RMK ST2AC6CI0 SLP268

CYXE;2008-11-07 18:00;CYXE 071800Z 08005KT 15SM BKN120 OVC240 M05/M08 A3021 RMK AC6CI2 SLP265

CYXE;2008-11-07 19:00;CYXE 071900Z 08003KT 15SM BKN099 OVC240 M04/M08 A3022 RMK AC4CI4 SLP266

CYXE;2008-11-07 20:00;CYXE 072000Z 06007KT 15SM BKN090 OVC240 M04/M08 A3021 RMK AC5CI3 SLP264

CYXE;2008-11-07 21:00;CYXE 072100Z 06008KT 15SM SCT073 BKN080 OVC220 M03/M08 A3020 RMK AC3AS4CI1 SLP261

CYXE;2008-11-07 22:00;CYXE 072200Z 07007KT 15SM BKN056 OVC080 M03/M09 A3020 RMK SC5AS3 SLP261

CYXE;2008-11-07 23:00;CYXE 072300Z 08006KT 15SM BKN049 M03/M09 A3021 RMK SC6 SLP263

CYXE;2008-11-08 00:00;CYXE 080000Z 08006KT 15SM SCT050 OVC080 M03/M09 A3021 RMK SC3AC5 OBS TAKEN +07 SLP262

CYXE;2008-11-08 01:00;CYXE 080100Z 08007KT 15SM SCT055 OVC075 M04/M09 A3021 RMK SC3AC5 SLP263

CYXE;2008-11-08 02:00;CYXE 080200Z 06003KT 15SM SCT055 OVC074 M04/M08 A3021 RMK SC3AC5 OBS TAKEN +09 SLP263

CYXE;2008-11-08 03:00;CYXE 080300Z 05005KT 15SM BKN055 OVC072 M04/M07 A3022 RMK SC5AC3 SLP267

CYXE;2008-11-08 04:00;CYXE 080400Z 07008KT 15SM BKN055 OVC072 M04/M07 A3021 RMK SC5AC3 SLP266

CYXE;2008-11-08 05:00;CYXE 080500Z 09005KT 15SM FEW050 BKN070 M04/M08 A3021 RMK SC2AC5 SLP265

CYXE;2008-11-08 06:00;CYXE 080600Z 08006KT 15SM OVC065 M04/M07 A3021 RMK AC8 SLP264

CYXE;2008-11-08 07:00;CYXE 080700Z 10005KT 15SM OVC065 M05/M08 A3021 RMK AC8 SLP264

CYXE;2008-11-08 08:00;CYXE 080800Z 12004KT 15SM SCT059 OVC071 M05/M08 A3021 RMK SC3AC5 SLP263

CYXE;2008-11-08 09:00;CYXE 080900Z 10006KT 15SM BKN051 OVC075 M05/M08 A3021 RMK SC5AC3 SLP263

CYXE;2008-11-08 10:00;CYXE 081000Z 12004KT 15SM SCT051 OVC075 M05/M08 A3020 RMK SC3AC5 SLP260

CYXE;2008-11-08 11:00;CYXE 081100Z 11007KT 15SM OVC072 M06/M08 A3018 RMK AC8 SLP256

CYXE;2008-11-08 12:00;CYXE 081200Z 10006KT 15SM OVC072 M06/M08 A3018 RMK AC8 SLP253

CYXE;2008-11-08 13:00;CYXE 081300Z 09006KT 15SM OVC070 M05/M08 A3017 RMK AC7 SLP251

CYXE;2008-11-08 14:00;CYXE 081400Z 10006KT 15SM SCT068 BKN110 M06/M08 A3017 RMK AC3AC4 SLP249

CYXE;2008-11-08 15:00;CYXE 081500Z 13008KT 15SM FEW040 BKN068 M06/M09 A3016 RMK SC2AC5 SLP249

CYXE;2008-11-08 16:00;CYXE 081600Z 12008KT 15SM BKN066 M06/M08 A3015 RMK AC6 SLP246

CYXE;2008-11-08 17:00;CYXE 081700Z 12008KT 15SM BKN064 M05/M08 A3014 RMK SC5 SLP241

CYXE;2008-11-08 18:00;CYXE 081800Z 13006KT 15SM BKN062 M04/M08 A3013 RMK SC6 SLP236

CYXE;2008-11-08 19:00;CYXE 081900Z 12008KT 15SM BKN060 M03/M08 A3011 RMK SC6 SLP230

CYXE;2008-11-08 20:00;CYXE 082000Z 13009KT 15SM BKN060 BKN220 M01/M08 A3009 RMK SC5CI1 SLP222

CYXE;2008-11-08 21:00;CYXE 082100Z 12008KT 15SM BKN060 BKN220 M00/M09 A3006 RMK SC6CI0 SLP211

CYXE;2008-11-08 22:00;CYXE 082200Z 13009KT 15SM BKN058 BKN220 00/M09 A3006 RMK SC5CI0 SLP209

CYXE;2008-11-08 23:00;CYXE 082300Z 11010KT 15SM FEW058 BKN280 M01/M09 A3004 RMK SC1CI0 SLP204

CYXE;2008-11-09 00:00;CYXE 090000Z 10006KT 15SM FEW280 M03/M09 A3003 RMK CI0 SLP203

CYXE;2008-11-09 01:00;CYXE 090100Z 11009KT 15SM FEW280 M03/M09 A3002 RMK CI0 SLP199

CYXE;2008-11-09 02:00;CYXE 090200Z 12008KT 15SM SKC M04/M10 A3001 RMK SLP196

CYXE;2008-11-09 03:00;CYXE 090300Z 12010KT 15SM FEW280 M04/M11 A3000 RMK CI0 SLP191

CYXE;2008-11-09 04:00;CYXE 090400Z 13008KT 15SM SKC M05/M10 A2998 RMK SLP186

CYXE;2008-11-09 05:00;CYXE 090500Z 13008KT 15SM SKC M05/M09 A2997 RMK SLP183

CYXE;2008-11-09 06:00;CYXE 090600Z 12009KT 15SM SKC M05/M09 A2996 RMK SLP179

CYXE;2008-11-09 07:00;CYXE 090700Z 12011KT 15SM SKC M05/M09 A2995 RMK SLP175

CYXE;2008-11-09 08:00;CYXE 090800Z 13012KT 15SM SKC M05/M09 A2993 RMK SLP169

CYXE;2008-11-09 09:00;CYXE 090900Z 13012KT 15SM SKC M05/M09 A2993 RMK SLP164

CYXE;2008-11-09 10:00;CYXE 091000Z 12012KT 15SM SKC M05/M09 A2992 RMK SLP161

CYXE;2008-11-09 11:00;CYXE 091100Z 12014KT 15SM SKC M05/M09 A2990 RMK SLP156

CYXE;2008-11-09 12:00;CYXE 091200Z 13011KT 15SM SKC M05/M10 A2990 RMK SLP156

CYXE;2008-11-09 13:00;CYXE 091300Z 12008KT 15SM SCT120 M05/M09 A2989 RMK AC2 SLP154

CYXE;2008-11-09 14:00;CYXE 091400Z 14011KT 15SM BKN120 M04/M09 A2989 RMK AC6 SLP152

CYXE;2008-11-09 15:00;CYXE 091500Z 13013KT 15SM BKN070 BKN120 M03/M08 A2988 RMK AC5AC2 SLP151

CYXE;2008-11-09 16:00;CYXE 091600Z 13009G16KT 15SM BKN077 BKN120 M02/M08 A2988 RMK AC5AC2 SLP151

CYXE;2008-11-09 17:00;CYXE 091700Z 15011KT 15SM BKN070 OVC120 00/M08 A2988 RMK AC6AC2 SLP150

CYXE;2008-11-09 18:00;CYXE 091800Z 15013G19KT 15SM BKN037 OVC070 02/M09 A2987 RMK SC5AC3 SLP146

CYXE;2008-11-09 19:00;CYXE 091900Z 15015G20KT 15SM BKN037 OVC070 02/M09 A2987 RMK SC6AC2 SLP144

CYXE;2008-11-09 20:00;CYXE 092000Z 16017G31KT 12SM -SN BKN035 OVC060 01/M06 A2987 RMK SC6SC2 SLP143

CYXE;2008-11-09 20:22;CYXE 092022Z 16019G27KT 3SM -SN BKN011 OVC035 00/ RMK SC5SC3

CYXE;2008-11-09 20:53;CYXE 092053Z 15016G22KT 1 1/4SM -SN DRSN VV007 M00/ RMK SN8

CYXE;2008-11-09 21:00;CYXE 092100Z 14014G21KT 1SM R09/P6000FT/D -SN DRSN VV007 M01/M03 A2987 RMK SN8 SLP143

CYXE;2008-11-09 21:43;CYXE 092143Z 14013G20KT 3SM -SN DRSN BKN031 OVC045 M01/ RMK SC6SC2

CYXE;2008-11-09 22:00;CYXE 092200Z 13014KT 10SM -SN DRSN FEW012 BKN031 BKN046 M01/M03 A2986 RMK SC1SC5SC2 VIS N 3 SLP140

CYXE;2008-11-09 22:10;CYXE 092210Z 14014KT 10SM -FZRA BKN031 BKN046 M01/ RMK SC6SC2

CYXE;2008-11-09 22:29;CYXE 092229Z 13015KT 15SM BKN031 BKN060 M01/ RMK SC6SC2

CYXE;2008-11-09 23:00;CYXE 092300Z 13015G20KT 15SM BKN036 BKN065 M01/M03 A2984 RMK SC5SC2 SLP136

CYXE;2008-11-10 00:00;CYXE 100000Z 14015G21KT 15SM BKN032 BKN065 M01/M04 A2983 RMK SC5SC2 SLP133

CYXE;2008-11-10 01:00;CYXE 100100Z 14016G26KT 15SM OVC034 M00/M05 A2983 RMK SC8 SLP131

CYXE;2008-11-10 02:00;CYXE 100200Z 15013G20KT 15SM OVC036 M00/M06 A2983 RMK SC8 SLP130

CYXE;2008-11-10 03:00;CYXE 100300Z 14012G19KT 15SM BKN034 M01/M07 A2981 RMK SC5 SLP123

CYXE;2008-11-10 04:00;CYXE 100400Z 15013G20KT 15SM BKN036 M01/M08 A2981 RMK SC6 SLP122

CYXE;2008-11-10 05:00;CYXE 100500Z 16010G16KT 15SM BKN036 M02/M07 A2981 RMK SC6 SLP122

CYXE;2008-11-10 06:00;CYXE 100600Z 15012G17KT 15SM SCT037 M02/M08 A2979 RMK SC4 SLP115

CYXE;2008-11-10 07:00;CYXE 100700Z 15009G17KT 15SM SCT037 M02/M08 A2978 RMK SC2 SLP113

CYXE;2008-11-10 08:00;CYXE 100800Z 15009KT 25SM SCT037 M02/M08 A2978 RMK SC2 SLP113

CYXE;2008-11-10 09:00;CYXE 100900Z 15009KT 15SM SCT040 M02/M07 A2978 RMK SC2 SLP114

CYXE;2008-11-10 10:00;CYXE 101000Z 14007KT 15SM SCT040 M03/M08 A2977 RMK SC2 SLP110

CYXE;2008-11-10 11:00;CYXE 101100Z 14006KT 15SM SCT040 M04/M08 A2977 RMK SC2 SLP109

CYXE;2008-11-10 12:00;CYXE 101200Z 15006KT 15SM SCT040 M03/M07 A2977 RMK SC3 SLP111

CYXE;2008-11-10 13:00;CYXE 101300Z 14006KT 15SM FEW040 SCT240 M04/M06 A2976 RMK SC1CI0 SLP108

CYXE;2008-11-10 14:00;CYXE 101400Z 15007KT 15SM FEW040 SCT240 M04/M06 A2978 RMK SC2CI0 SLP112

CYXE;2008-11-10 15:00;CYXE 101500Z 16010G15KT 15SM FEW040 FEW240 M04/M05 A2977 RMK SC1CI0 SLP108

CYXE;2008-11-10 16:00;CYXE 101600Z 17008KT 15SM FEW120 FEW280 M03/M05 A2978 RMK AC1CI0 SLP113

CYXE;2008-11-10 17:00;CYXE 101700Z 16008KT 15SM FEW280 M01/M04 A2978 RMK CI1 SLP112

CYXE;2008-11-10 18:00;CYXE 101800Z 18009KT 15SM FEW280 01/M04 A2979 RMK CI1 SLP114

CYXE;2008-11-10 19:00;CYXE 101900Z 18009KT 15SM FEW280 02/M03 A2977 RMK CI1 SLP109

CYXE;2008-11-10 20:00;CYXE 102000Z 17008KT 15SM SCT280 03/M02 A2976 RMK CI1 SLP105

CYXE;2008-11-10 21:00;CYXE 102100Z 16006KT 15SM SCT280 04/M01 A2977 RMK CI1 SLP105

CYXE;2008-11-10 22:00;CYXE 102200Z 18005KT 15SM SCT280 04/M01 A2977 RMK CI1 SLP106

CYXE;2008-11-10 23:00;CYXE 102300Z 11007KT 15SM SCT280 02/M02 A2978 RMK CI1 SLP110

CYXE;2008-11-11 00:00;CYXE 110000Z 12007KT 15SM FEW030 SCT250 M01/M02 A2979 RMK SC1CI0 SLP118

CYXE;2008-11-11 01:00;CYXE 110100Z 12006KT 15SM SKC M02/M02 A2979 RMK SLP117

CYXE;2008-11-11 02:00;CYXE 110200Z 13008KT 15SM SCT003 M01/M01 A2979 RMK SF1 SLP116

CYXE;2008-11-11 02:14;CYXE 110214Z 13007KT 15SM OVC003 M01/ RMK ST5

CYXE;2008-11-11 02:48;CYXE 110248Z 11006KT 15SM SCT005 M01/ RMK SF2

CYXE;2008-11-11 03:00;CYXE 110300Z 11007KT 15SM FEW005 SCT250 M01/M02 A2978 RMK SF1CI1 SLP115

CYXE;2008-11-11 04:00;CYXE 110400Z 10005KT 15SM SKC M03/M03 A2979 RMK SLP116

CYXE;2008-11-11 05:00;CYXE 110500Z 10006KT 15SM SKC M04/M05 A2979 RMK SLP117

CYXE;2008-11-11 06:00;CYXE 110600Z 07004KT 15SM BKN009 M04/M05 A2979 RMK ST2 SLP116

CYXE;2008-11-11 06:10;CYXE 110610Z 05005KT 10SM BKN008 M04/ RMK ST6 BR

CYXE;2008-11-11 06:32;CYXE 110632Z 07005KT 10SM OVC006 M03/ RMK ST8 BR

CYXE;2008-11-11 06:54;CYXE 110654Z 09005KT 10SM OVC004 M03/ RMK ST8 BR

CYXE;2008-11-11 07:00;CYXE 110700Z 11005KT 10SM OVC004 M03/M04 A2978 RMK ST8 BR SLP115

CYXE;2008-11-11 08:00;CYXE 110800Z 13005KT 8SM OVC004 M03/M04 A2977 RMK ST8 BR SLP111

CYXE;2008-11-11 08:47;CYXE 110847Z 14004KT 3SM BR OVC002 M03/ RMK ST8

CYXE;2008-11-11 09:00;CYXE 110900Z 14004KT 2 1/2SM BR OVC002 M03/M03 A2978 RMK ST8 SLP110

CYXE;2008-11-11 09:26;CYXE 110926Z 15005KT 1/2SM R09/P6000FT/U FZFG VV001 M03/ RMK FG8

CYXE;2008-11-11 10:00;CYXE 111000Z 14004KT 1/2SM R09/3500V6000FT/U FZFG VV001 M03/M03 A2976 RMK FG8 SLP104

CYXE;2008-11-11 11:00;CYXE 111100Z 12004KT 4SM BR OVC001 M03/M03 A2974 RMK ST8 VIS W 1 SLP097

CYXE;2008-11-11 11:28;CYXE 111128Z 15005KT 4SM BR OVC003 M03/ RMK ST8

CYXE;2008-11-11 12:00;CYXE 111200Z 11007KT 6SM BR OVC004 M03/M03 A2972 RMK ST8 SLP093

CYXE;2008-11-11 12:07;CYXE 111207Z 12007KT 4SM BR OVC002 M03/ RMK ST8

CYXE;2008-11-11 12:31;CYXE 111231Z 00000KT 3SM BR SCT002 OVC007 M03/ RMK SF3ST5

CYXE;2008-11-11 13:00;CYXE 111300Z 09003KT 5SM BR FEW002 OVC007 M03/M03 A2971 RMK SF2ST6 SLP088

CYXE;2008-11-11 14:00;CYXE 111400Z 00000KT 8SM BKN007 OVC095 M03/M03 A2970 RMK ST6AC2 BR SLP086

CYXE;2008-11-11 14:18;CYXE 111418Z 16002KT 5SM BR OVC005 M03/ RMK ST8

CYXE;2008-11-11 14:29;CYXE 111429Z 21003KT 5SM BR OVC004 M03/ RMK ST8

CYXE;2008-11-11 14:49;CYXE 111449Z 25005KT 5SM BR OVC003 M03/ RMK ST8

CYXE;2008-11-11 15:00;CYXE 111500Z 24006KT 2SM BR OVC002 M03/M03 A2970 RMK ST8 SLP086

CYXE;2008-11-11 15:12;CYXE 111512Z 25006KT 1SM R09/4500VP6000FT/D -SHGS BR OVC002 M03/ RMK ST8

CYXE;2008-11-11 15:20;CYXE 111520Z 25008KT 1/2SM R09/2600V5000FT/D -SHGS FZFG OVC001 M03/ RMK FG3ST5

CYXE;2008-11-11 15:39;CYXE 111539Z 28006KT 1/2SM R09/3000V5500FT/U FZFG OVC001 M02/ RMK FG3ST5

CYXE;2008-11-11 16:00;CYXE 111600Z 26008KT 1SM R09/2800VP6000FT/U BR OVC002 M03/M03 A2969 RMK ST8 SLP081

CYXE;2008-11-11 16:07;CYXE 111607Z 27011KT 2 1/2SM BR OVC002 M03/ RMK ST8

CYXE;2008-11-11 16:11;CYXE 111611Z 26010KT 4SM BR OVC002 M03/ RMK ST8

CYXE;2008-11-11 16:14;CYXE 111614Z 27010KT 5SM BR OVC003 M03/ RMK ST8

CYXE;2008-11-11 16:43;CYXE 111643Z 26008KT 5SM BR OVC002 M02/ RMK ST8

CYXE;2008-11-11 16:53;CYXE 111653Z 26009KT 2 1/2SM BR OVC002 M02/ RMK ST8

CYXE;2008-11-11 17:00;CYXE 111700Z 26008KT 2 1/2SM BR OVC002 M02/M02 A2969 RMK ST8 SLP084

CYXE;2008-11-11 17:25;CYXE 111725Z 26007KT 3SM BR OVC003 M01/ RMK ST8

CYXE;2008-11-11 17:47;CYXE 111747Z 26008KT 4SM BR OVC003 M01/ RMK ST8

CYXE;2008-11-11 17:51;CYXE 111751Z 26008KT 5SM BR OVC004 M01/ RMK ST8

CYXE;2008-11-11 18:00;CYXE 111800Z 25008KT 5SM BR OVC005 M01/M01 A2970 RMK ST8 CIG RAG SLP086

CYXE;2008-11-11 18:20;CYXE 111820Z 26007KT 6SM BR OVC004 M01/ RMK ST8 CIG RAG

CYXE;2008-11-11 19:00;CYXE 111900Z 27006KT 8SM OVC006 M01/M01 A2969 RMK SC8 BR SLP083

CYXE;2008-11-11 19:54;CYXE 111954Z 26010KT 8SM OVC010 M00/ RMK ST8 BR

CYXE;2008-11-11 20:00;CYXE 112000Z 25010KT 8SM OVC010 M00/M01 A2969 RMK ST8 BR SLP082

CYXE;2008-11-11 21:00;CYXE 112100Z 26008KT 10SM OVC012 00/M01 A2969 RMK SC8 BR CIG RAG SLP080

CYXE;2008-11-11 22:00;CYXE 112200Z 27007KT 10SM OVC014 00/M02 A2968 RMK SC8 BR CIG RAG SLP078

CYXE;2008-11-11 23:00;CYXE 112300Z 26005KT 15SM OVC014 00/M02 A2969 RMK SC8 SLP082

CYXE;2008-11-12 00:00;CYXE 120000Z 28008KT 15SM OVC014 00/M02 A2970 RMK SC8 SLP084

CYXE;2008-11-12 01:00;CYXE 120100Z 26005KT 15SM OVC020 M00/M02 A2970 RMK SC8 SLP086

CYXE;2008-11-12 02:00;CYXE 120200Z 28008KT 15SM OVC016 00/M02 A2972 RMK SC8 SLP090

CYXE;2008-11-12 03:00;CYXE 120300Z 29004KT 15SM OVC016 M00/M02 A2972 RMK SC8 SLP092

CYXE;2008-11-12 04:00;CYXE 120400Z 28004KT 15SM OVC015 M00/M02 A2973 RMK SC8 SLP094

CYXE;2008-11-12 04:43;CYXE 120443Z 28004KT 15SM OVC009 M00/ RMK SF8

CYXE;2008-11-12 05:00;CYXE 120500Z 27003KT 15SM OVC009 M01/M02 A2973 RMK SF8 SLP095

CYXE;2008-11-12 05:17;CYXE 120517Z 27003KT 15SM OVC010 M01/ RMK SC8

CYXE;2008-11-12 06:00;CYXE 120600Z 26004KT 15SM OVC010 M01/M02 A2973 RMK ST8 SLP095

CYXE;2008-11-12 07:00;CYXE 120700Z 26004KT 15SM OVC009 M01/M02 A2974 RMK ST8 SLP097

CYXE;2008-11-12 08:00;CYXE 120800Z 23003KT 15SM SCT009 OVC020 M01/M02 A2972 RMK ST3SC5 SLP092

CYXE;2008-11-12 09:00;CYXE 120900Z 25003KT 15SM FEW009 OVC018 M01/M02 A2973 RMK SF2SC6 SLP095

CYXE;2008-11-12 10:00;CYXE 121000Z 19002KT 15SM OVC015 M01/M02 A2969 RMK SC8 SLP081

CYXE;2008-11-12 10:31;CYXE 121031Z 19003KT 15SM FEW007 OVC012 M01/ RMK SF2SC6

CYXE;2008-11-12 11:00;CYXE 121100Z 18004KT 15SM FEW007 OVC012 M01/M02 A2966 RMK SF2SC6 SLP071

CYXE;2008-11-12 12:00;CYXE 121200Z 16004KT 15SM OVC012 M01/M02 A2963 RMK SC8 SLP058

CYXE;2008-11-12 13:00;CYXE 121300Z 20006KT 15SM OVC012 M01/M03 A2959 RMK SC8 SLP047

CYXE;2008-11-12 14:00;CYXE 121400Z 15006KT 15SM OVC010 M01/M03 A2955 RMK SC8 SLP034

CYXE;2008-11-12 15:00;CYXE 121500Z 15009KT 15SM OVC010 M00/M02 A2951 RMK ST8 OBS TAKEN +5 SLP018

CYXE;2008-11-12 15:30;CYXE 121530Z 14007KT 15SM OVC009 M00/ RMK ST8

CYXE;2008-11-12 16:00;CYXE 121600Z 13008KT 8SM OVC009 00/M02 A2947 RMK ST8 BR SLP006

CYXE;2008-11-12 17:00;CYXE 121700Z 14008KT 8SM OVC008 00/M01 A2946 RMK ST8 BR SLP003

CYXE;2008-11-12 17:21;CYXE 121721Z 12009KT 4SM -SN OVC007 00/ RMK ST8

CYXE;2008-11-12 18:00;CYXE 121800Z 14009KT 2SM -SN OVC006 01/M00 A2942 RMK ST8 SLP988

CYXE;2008-11-12 18:23;CYXE 121823Z 13008G15KT 1 1/2SM -SN OVC007 00/ RMK ST8

CYXE;2008-11-12 18:38;CYXE 121838Z 13010KT 2 1/2SM -SN OVC006 01/ RMK ST8

CYXE;2008-11-12 19:00;CYXE 121900Z 13009KT 6SM -RA BKN005 OVC020 01/M00 A2936 RMK ST7SC1 PRESFR SLP968

CYXE;2008-11-12 19:01;CYXE 121901Z 13009KT 4SM -RASN OVC006 01/ RMK ST8

CYXE;2008-11-12 19:14;CYXE 121914Z 13008KT 1 1/2SM -SN OVC006 01/ RMK SN2ST6

CYXE;2008-11-12 19:35;CYXE 121935Z 14008KT 1SM R09/P6000FT/N -SN OVC005 01/ RMK SN3ST5

CYXE;2008-11-12 20:00;CYXE 122000Z 13009KT 1 1/2SM -SN OVC005 00/00 A2931 RMK SN2ST6 SLP951

CYXE;2008-11-12 20:20;CYXE 122020Z 12008KT 3SM -SN OVC005 00/ RMK ST8

CYXE;2008-11-12 21:00;CYXE 122100Z 12007KT 4SM -RA BR BKN005 OVC022 01/00 A2927 RMK SF7SC1 SLP937

CYXE;2008-11-12 21:03;CYXE 122103Z 13007KT 4SM -RA BR BKN004 OVC022 01/ RMK SF7SC1

CYXE;2008-11-12 22:00;CYXE 122200Z 13004KT 5SM -RA BKN005 OVC023 01/01 A2926 RMK SF6SC2 SLP933

CYXE;2008-11-12 22:13;CYXE 122213Z 13003KT 8SM BKN005 OVC020 01/ RMK SF6SC2

CYXE;2008-11-12 22:55;CYXE 122255Z 00000KT 8SM BKN006 OVC015 01/ RMK SF6SC2

CYXE;2008-11-12 23:00;CYXE 122300Z 01002KT 8SM BKN006 OVC015 01/01 A2927 RMK SF6SC2 SLP936

CYXE;2008-11-12 23:11;CYXE 122311Z 35003KT 15SM OVC004 01/ RMK ST8 BR

CYXE;2008-11-12 23:45;CYXE 122345Z 35004KT 8SM OVC005 01/ RMK ST8 BR

CYXE;2008-11-13 00:00;CYXE 130000Z 33005KT 8SM OVC005 01/01 A2929 RMK ST8 BR SLP941

CYXE;2008-11-13 00:28;CYXE 130028Z 36004KT 6SM BR OVC003 01/ RMK ST8

CYXE;2008-11-13 01:00;CYXE 130100Z 32004KT 3SM BR OVC003 00/00 A2929 RMK ST8 SLP943

CYXE;2008-11-13 01:45;CYXE 130145Z 32004KT 3SM R09/5500FT/N BR OVC002 00/ RMK ST8

CYXE;2008-11-13 02:00;CYXE 130200Z 30005KT 3/4SM R09/4000FT/D BR OVC001 00/00 A2930 RMK ST8 SLP945

CYXE;2008-11-13 02:13;CYXE 130213Z 31004KT 1/2SM R09/3500FT/N FG VV001 00/ RMK FG8

CYXE;2008-11-13 02:49;CYXE 130249Z 33009KT 3SM R09/4500VP6000FT/U BR OVC001 00/ RMK ST8

CYXE;2008-11-13 03:00;CYXE 130300Z 32008KT 3SM BR OVC002 00/00 A2930 RMK ST8 SLP945

CYXE;2008-11-13 04:00;CYXE 130400Z 31005KT 3SM BR OVC002 M00/M00 A2930 RMK ST8 SLP947

CYXE;2008-11-13 04:45;CYXE 130445Z 32004KT 3SM BR OVC004 00/ RMK ST8

CYXE;2008-11-13 05:00;CYXE 130500Z 28003KT 5SM BR OVC004 00/00 A2931 RMK ST8 CIG RGD SLP948

CYXE;2008-11-13 05:09;CYXE 130509Z 29005KT 5SM BR OVC005 00/ RMK ST8

CYXE;2008-11-13 05:24;CYXE 130524Z 28006KT 5SM BR OVC004 00/ RMK SC8

CYXE;2008-11-13 06:00;CYXE 130600Z 27005KT 6SM -DZ BR OVC003 00/M00 A2932 RMK ST8 SLP953

CYXE;2008-11-13 06:12;CYXE 130612Z 28005KT 6SM BR OVC003 M00/ RMK ST8

CYXE;2008-11-13 06:22;CYXE 130622Z 28005KT 6SM BR OVC002 M00/ RMK ST8

CYXE;2008-11-13 07:00;CYXE 130700Z 27005KT 4SM -RA BR OVC002 00/00 A2933 RMK ST8 SLP954

CYXE;2008-11-13 07:17;CYXE 130717Z 28003KT 6SM BR OVC002 00/ RMK ST8

CYXE;2008-11-13 08:00;CYXE 130800Z 00000KT 4SM BR OVC003 00/00 A2931 RMK ST8 SLP948

CYXE;2008-11-13 08:06;CYXE 130806Z 27003KT 4SM -RA BR OVC002 00/ RMK ST8

CYXE;2008-11-13 08:16;CYXE 130816Z 21006KT 2 1/2SM RA BR OVC002 00/ RMK ST8

CYXE;2008-11-13 08:39;CYXE 130839Z 16002KT 3SM -RA BR BKN001 OVC009 00/ RERA RMK SF6ST2

CYXE;2008-11-13 09:00;CYXE 130900Z 20002KT 6SM BR BKN003 OVC009 00/00 A2930 RERA RMK SF6ST2 SLP947

CYXE;2008-11-13 09:30;CYXE 130930Z 22004KT 2SM BR BKN002 OVC009 M00/ RMK FG3SF2ST2

CYXE;2008-11-13 10:00;CYXE 131000Z 20005KT 3SM BR OVC002 M00/M00 A2930 RMK FG2ST6 VIS W-N 11/2 SLP945

CYXE;2008-11-13 10:08;CYXE 131008Z 20003KT 1/2SM R09/P6000FT/U FZFG VV001 M00/ RMK FG8

CYXE;2008-11-13 10:17;CYXE 131017Z 20005KT 3/8SM R09/4000VP6000FT/D FZFG VV001 M00/ RMK FG8

CYXE;2008-11-13 10:27;CYXE 131027Z 21005KT 1/4SM R09/2000V2800FT/D FZFG VV001 M00/ RMK FG8

CYXE;2008-11-13 11:00;CYXE 131100Z 20006KT 1/4SM R09/2400FT/N FZFG VV001 M01/M01 A2929 RMK FG8 SLP942

CYXE;2008-11-13 11:35;CYXE 131135Z 22006KT 3/8SM R09/3000FT/N FZFG OVC001 M01/ RMK FG5SF2 MOON DIMLY VISBL

CYXE;2008-11-13 12:00;CYXE 131200Z 21005KT 1/2SM R09/3000V5000FT/U FZFG VV001 M01/M01 A2930 RMK FG8 SLP947

CYXE;2008-11-13 12:21;CYXE 131221Z 22007KT 4SM BR SCT050 M01/ RMK FG2SC2

CYXE;2008-11-13 13:00;CYXE 131300Z 22007KT 15SM FEW002 SCT055 M02/M02 A2930 RMK SF1SC2 SLP946

CYXE;2008-11-13 14:00;CYXE 131400Z 25006KT 15SM FEW010 SCT058 M02/M02 A2931 RMK SC2SC2 SLP949

CYXE;2008-11-13 15:00;CYXE 131500Z 26009KT 15SM FEW010 SCT038 BKN070 M01/M01 A2933 RMK SF1SC3AC1 SLP955

CYXE;2008-11-13 16:00;CYXE 131600Z 26008KT 15SM SCT028 BKN054 00/00 A2934 RMK SC3SC4 SLP961

CYXE;2008-11-13 17:00;CYXE 131700Z 28009KT 15SM BKN069 BKN090 01/01 A2937 RMK AC5AC2 SLP968

CYXE;2008-11-13 18:00;CYXE 131800Z 28010KT 15SM FEW036 BKN079 03/02 A2938 RMK SC2AC5 SLP971

CYXE;2008-11-13 19:00;CYXE 131900Z 28012G17KT 15SM SCT026 BKN093 BKN210 05/02 A2938 RMK SC4AC2CI1 SLP971

CYXE;2008-11-13 20:00;CYXE 132000Z 29015G20KT 15SM BKN024 BKN090 05/02 A2938 RMK SC6AC1 SLP973

CYXE;2008-11-13 21:00;CYXE 132100Z 29017G22KT 15SM FEW019 BKN035 BKN054 04/01 A2941 RMK SC2SC3SC1 SLP981

CYXE;2008-11-13 22:00;CYXE 132200Z 30014KT 15SM BKN035 BKN060 BKN280 04/01 A2943 RMK SC5SC1CI0 SLP989

CYXE;2008-11-13 22:52;CYXE 132252Z 30018KT 10SM -SHRA BKN020 OVC050 04/ RMK SC6SC2

CYXE;2008-11-13 23:00;CYXE 132300Z 30017G22KT 10SM -SHRA BKN019 OVC050 03/01 A2946 RMK SC6SC2 SLP998

CYXE;2008-11-13 23:39;CYXE 132339Z 32011KT 10SM -SHRA BKN009 OVC050 02/ RMK SC6SC2

CYXE;2008-11-14 00:00;CYXE 140000Z 31014KT 15SM VCSH SCT015 BKN050 01/M00 A2950 RMK SC3SC2 SLP015

CYXE;2008-11-14 00:16;CYXE 140016Z 31014KT 8SM -SHSN BKN020 OVC050 01/ RMK SC6SC2

CYXE;2008-11-14 01:00;CYXE 140100Z 32014G19KT 3SM -SHSN BKN014 OVC050 01/M00 A2954 RMK SC7SC1 SLP026

CYXE;2008-11-14 02:00;CYXE 140200Z 31016KT 3SM -SHSN BKN015 OVC050 M00/M01 A2958 RMK SC6SC1 SLP040

CYXE;2008-11-14 02:47;CYXE 140247Z 31013KT 3SM -SHSN VV008 M00/ RMK SN8

CYXE;2008-11-14 03:00;CYXE 140300Z 31015KT 3SM -SHSN SCT008 OVC015 M00/M01 A2961 RMK ST3SC4 SLP054

CYXE;2008-11-14 03:07;CYXE 140307Z 31015KT 2 1/2SM -SHSN VV008 M00/ RMK SN8

CYXE;2008-11-14 03:25;CYXE 140325Z 32015KT 3SM -SHSN BKN007 OVC050 M00/ RMK ST5SC2

CYXE;2008-11-14 04:00;CYXE 140400Z 32012G19KT 4SM -SHSN BKN008 OVC050 M00/M01 A2966 RMK ST6SC2 SLP069

CYXE;2008-11-14 05:00;CYXE 140500Z 33015G20KT 4SM -SHSN FEW008 OVC017 M00/M01 A2971 RMK ST2SC6 SLP086

CYXE;2008-11-14 05:06;CYXE 140506Z 34018KT 2SM -SHSN VV008 M01/ RMK SN8

CYXE;2008-11-14 05:38;CYXE 140538Z 01014KT 2SM -SN FEW006 OVC015 RMK SN2SF1SC6

CYXE;2008-11-14 05:40;CYXE 140540Z CCA 01014KT 2SM -SN FEW006 OVC015 M01/ RMK SN2SF1SC6

CYXE;2008-11-14 06:00;CYXE 140600Z 02019KT 3SM -SN DRSN FEW009 OVC020 M02/M03 A2980 RMK SF2SC6 SLP115

CYXE;2008-11-14 07:00;CYXE 140700Z 36012KT 15SM -SN FEW009 OVC028 M02/M04 A2987 RMK SF1SC7 SLP140

CYXE;2008-11-14 08:00;CYXE 140800Z 35010G15KT 15SM -SN FEW018 BKN055 OVC099 M02/M03 A2992 RMK SC1SC6AC2 SLP156

CYXE;2008-11-14 08:50;CYXE 140850Z 33010KT 15SM FEW022 OVC050 M02/ RMK SC2SC6

CYXE;2008-11-14 09:00;CYXE 140900Z 33009KT 15SM FEW022 OVC050 M02/M03 A2997 RMK SC2SC6 SLP175

CYXE;2008-11-14 09:14;CYXE 140914Z 33011KT 15SM -SHSN FEW025 OVC046 M01/ RMK SC2SC6

CYXE;2008-11-14 10:00;CYXE 141000Z 31008KT 15SM -SHSN BKN027 OVC071 M02/M03 A3003 RMK SC6AC2 SLP192

CYXE;2008-11-14 11:00;CYXE 141100Z 32010KT 15SM -SHSN FEW026 OVC058 M01/M03 A3005 RMK SC2SC6 SLP199

CYXE;2008-11-14 11:29;CYXE 141129Z 32010KT 15SM FEW030 OVC058 M01/ RMK SC2SC6

CYXE;2008-11-14 12:00;CYXE 141200Z 30009KT 15SM FEW030 OVC058 M01/M03 A3009 RMK SC1SC7 SLP219

CYXE;2008-11-14 13:00;CYXE 141300Z 31009KT 15SM FEW030 OVC060 M01/M03 A3012 RMK SC1SC7 SLP227

CYXE;2008-11-14 13:42;CYXE 141342Z 31009KT 15SM -SHSN FEW030 OVC058 M01/ RMK SC1SC7

CYXE;2008-11-14 14:00;CYXE 141400Z 30010KT 15SM -SHSN FEW020 OVC054 M01/M03 A3014 RMK SC1SC7 SLP235

CYXE;2008-11-14 15:00;CYXE 141500Z 30011KT 15SM -SHSN BKN050 OVC092 M01/M03 A3017 RMK SC7AC1 SLP246

CYXE;2008-11-14 15:27;CYXE 141527Z 30011KT 15SM BKN060 OVC089 M01/ RMK SC6AC2

CYXE;2008-11-14 16:00;CYXE 141600Z 31011KT 15SM BKN068 OVC090 M01/M03 A3019 RMK AC6AC2 SLP252

CYXE;2008-11-14 17:00;CYXE 141700Z 31011KT 15SM FEW060 BKN067 OVC090 M01/M03 A3022 RMK SC2AC3AC3 SLP260

CYXE;2008-11-14 18:00;CYXE 141800Z 31011G18KT 15SM BKN018 OVC070 00/M03 A3022 RMK SC6AC2 SLP262

CYXE;2008-11-14 19:00;CYXE 141900Z 31013G20KT 15SM OVC018 00/M03 A3022 RMK SC8 SLP263

CYXE;2008-11-14 20:00;CYXE 142000Z 32012G17KT 15SM BKN022 00/M04 A3023 RMK SC7 SLP267

CYXE;2008-11-14 21:00;CYXE 142100Z CCA 30014KT 15SM BKN024 01/M04 A3024 RMK SC6 SLP270

CYXE;2008-11-14 22:00;CYXE 142200Z 31011G18KT 15SM FEW025 00/M04 A3025 RMK SC2 SLP272

CYXE;2008-11-14 23:00;CYXE 142300Z 31011KT 15SM BKN028 M00/M05 A3027 RMK SC6 SLP280

CYXE;2008-11-15 00:00;CYXE 150000Z 30008KT 15SM BKN030 M01/M04 A3029 RMK SC7 SLP287

CYXE;2008-11-15 01:00;CYXE 150100Z 30010KT 15SM OVC030 M00/M04 A3029 RMK SC7 SLP287

CYXE;2008-11-15 02:00;CYXE 150200Z 30007KT 15SM SCT030 M02/M06 A3028 RMK SC3 SLP283

CYXE;2008-11-15 03:00;CYXE 150300Z 28004KT 15SM FEW030 M05/M07 A3027 RMK SC2 SLP285

CYXE;2008-11-15 04:00;CYXE 150400Z 25006KT 15SM FEW030 M07/M08 A3027 RMK SC1 SLP284

CYXE;2008-11-15 05:00;CYXE 150500Z 23007KT 15SM FEW030 BKN210 M08/M09 A3026 RMK SC1CI0 SLP280

CYXE;2008-11-15 06:00;CYXE 150600Z 23006KT 15SM BKN220 M08/M09 A3024 RMK CI1 SLP275

CYXE;2008-11-15 07:00;CYXE 150700Z 22006KT 15SM BKN220 M09/M10 A3022 RMK CI0 SLP267

CYXE;2008-11-15 08:00;CYXE 150800Z 21004KT 15SM SKC M08/M09 A3020 RMK SLP262

CYXE;2008-11-15 09:00;CYXE 150900Z 19005KT 15SM SKC M07/M08 A3017 RMK SLP248

CYXE;2008-11-15 10:00;CYXE 151000Z 19005KT 15SM OVC210 M06/M07 A3014 RMK CI2 SLP237

CYXE;2008-11-15 11:00;CYXE 151100Z 19005KT 15SM OVC160 M06/M07 A3012 RMK AC3 SLP233

CYXE;2008-11-15 12:00;CYXE 151200Z 17005KT 15SM OVC160 M05/M06 A3008 RMK AC3 SLP216

CYXE;2008-11-15 13:00;CYXE 151300Z 17006KT 15SM OVC086 M04/M06 A3003 RMK AS8 SLP202

CYXE;2008-11-15 14:00;CYXE 151400Z 15006KT 15SM BKN075 OVC160 M03/M05 A2998 RMK AC7AC1 SLP186

CYXE;2008-11-15 15:00;CYXE 151500Z 13005KT 15SM BKN070 OVC090 M02/M05 A2998 RMK AC6AC2 SLP185

CYXE;2008-11-15 16:00;CYXE 151600Z 12005KT 15SM BKN070 OVC120 M01/M04 A2996 RMK AC6AC1 SLP179

CYXE;2008-11-15 17:00;CYXE 151700Z 18011KT 15SM BKN068 OVC100 M01/M05 A2993 RMK AC6AC1 SLP167

CYXE;2008-11-15 18:00;CYXE 151800Z 20010KT 15SM BKN080 M00/M05 A2990 RMK AC6 SLP156

CYXE;2008-11-15 19:00;CYXE 151900Z 24009KT 15SM FEW040 BKN085 00/M04 A2988 RMK SC1AC6 SLP150

CYXE;2008-11-15 20:00;CYXE 152000Z 26011KT 15SM BKN061 BKN080 00/M04 A2987 RMK SC5AC2 SLP147

CYXE;2008-11-15 20:29;CYXE 152029Z 29007KT 15SM FEW015 BKN061 OVC075 01/ RMK SF1SC5AC2

CYXE;2008-11-15 21:00;CYXE 152100Z 29008KT 15SM BKN018 OVC060 01/M03 A2987 RMK SC6SC1 SLP144

CYXE;2008-11-15 21:16;CYXE 152116Z 28010KT 15SM OVC014 02/ RMK SC8

CYXE;2008-11-15 22:00;CYXE 152200Z 31009KT 15SM BKN014 BKN060 02/M02 A2988 RMK SC5SC2 SLP147

CYXE;2008-11-15 23:00;CYXE 152300Z 28007KT 15SM FEW015 01/M01 A2990 RMK SC2 SLP153

CYXE;2008-11-16 00:00;CYXE 160000Z 26007KT 15SM BKN030 M01/M02 A2990 RMK SC6 SLP156

CYXE;2008-11-16 01:00;CYXE 160100Z 27005KT 15SM BKN027 01/M01 A2992 RMK SC6 SLP160

CYXE;2008-11-16 02:00;CYXE 160200Z 30007KT 15SM OVC029 02/00 A2994 RMK SC7 SLP168

CYXE;2008-11-16 03:00;CYXE 160300Z 32016G21KT 15SM OVC035 03/M02 A2995 RMK SC7 SLP169

CYXE;2008-11-16 04:00;CYXE 160400Z 31012KT 15SM BKN032 02/M01 A2996 RMK SC7 SLP170

CYXE;2008-11-16 05:00;CYXE 160500Z 31011G17KT 15SM BKN028 02/M01 A2998 RMK SC7 SLP179

CYXE;2008-11-16 06:00;CYXE 160600Z 32014G19KT 15SM BKN035 02/M03 A3001 RMK SC7 SLP190

CYXE;2008-11-16 06:25;CYXE 160625Z 36012G19KT 15SM -SHSN BKN018 OVC031 01/ RMK SC6SC2

CYXE;2008-11-16 07:00;CYXE 160700Z 36012KT 15SM -SHSN BKN024 OVC039 00/M03 A3005 RMK SC6SC2 SLP202

CYXE;2008-11-16 07:10;CYXE 160710Z 36015KT 15SM OVC024 00/ RMK SC8

CYXE;2008-11-16 08:00;CYXE 160800Z 36011KT 15SM OVC028 M00/M04 A3008 RMK SC8 SLP210

CYXE;2008-11-16 09:00;CYXE 160900Z 01014KT 15SM FEW015 OVC035 M01/M04 A3010 RMK SC1SC8 SLP221

CYXE;2008-11-16 10:00;CYXE 161000Z 35008KT 15SM SCT033 OVC042 M02/M04 A3013 RMK SC4SC4 SLP231

CYXE;2008-11-16 11:00;CYXE 161100Z 35006KT 15SM OVC037 M02/M04 A3014 RMK SC8 SLP235

CYXE;2008-11-16 12:00;CYXE 161200Z 36005KT 15SM OVC033 M02/M04 A3017 RMK SC8 SLP246

CYXE;2008-11-16 13:00;CYXE 161300Z 30005KT 15SM OVC029 M02/M04 A3018 RMK SC8 SLP249

CYXE;2008-11-16 14:00;CYXE 161400Z 31006KT 15SM OVC020 M03/M05 A3020 RMK SC7 SLP255

CYXE;2008-11-16 15:00;CYXE 161500Z 31007KT 15SM OVC038 M03/M05 A3021 RMK SC7 SLP259

CYXE;2008-11-16 16:00;CYXE 161600Z 31006KT 15SM OVC040 M03/M05 A3023 RMK SC8 SLP264

CYXE;2008-11-16 17:00;CYXE 161700Z 32008KT 15SM OVC038 M02/M05 A3025 RMK SC8 SLP270

CYXE;2008-11-16 18:00;CYXE 161800Z 31003KT 15SM FEW015 OVC038 M02/M04 A3025 RMK SC1SC8 SLP272

CYXE;2008-11-16 19:00;CYXE 161900Z 32003KT 15SM FEW020 OVC038 M01/M05 A3026 RMK SC1SC7 SLP274

CYXE;2008-11-16 20:00;CYXE 162000Z 31003KT 15SM SCT020 OVC035 M01/M06 A3026 RMK SC3SC5 SLP276

CYXE;2008-11-16 21:00;CYXE 162100Z 02008KT 15SM BKN025 BKN035 M01/M05 A3027 RMK SC5SC2 SLP281

CYXE;2008-11-16 22:00;CYXE 162200Z 01007KT 15SM BKN024 BKN035 M02/M07 A3029 RMK SC5SC2 SLP287

CYXE;2008-11-16 23:00;CYXE 162300Z 02004KT 15SM FEW035 BKN160 M04/M07 A3031 RMK SC2AC2 SLP293

CYXE;2008-11-17 00:00;CYXE 170000Z 01002KT 15SM FEW035 BKN160 M04/M08 A3032 RMK SC2AC2 SLP301

CYXE;2008-11-17 01:00;CYXE 170100Z 03003KT 15SM FEW035 BKN160 M05/M08 A3033 RMK SC2AC1 SLP302

CYXE;2008-11-17 02:00;CYXE 170200Z 04003KT 15SM FEW160 M08/M09 A3034 RMK AC1 SLP307

CYXE;2008-11-17 03:00;CYXE 170300Z 00000KT 15SM FEW160 M07/M09 A3036 RMK AC1 SLP317

CYXE;2008-11-17 04:00;CYXE 170400Z 07002KT 15SM SKC M08/M09 A3037 RMK SLP321

CYXE;2008-11-17 05:00;CYXE 170500Z 05003KT 15SM FEW280 M09/M10 A3038 RMK CI0 SLP324

CYXE;2008-11-17 06:00;CYXE 170600Z 08003KT 15SM SKC M09/M10 A3040 RMK SLP329

CYXE;2008-11-17 07:00;CYXE 170700Z 00000KT 15SM SKC M09/M10 A3040 RMK SLP330

CYXE;2008-11-17 08:00;CYXE 170800Z 06002KT 15SM SKC M09/M10 A3041 RMK SLP334

CYXE;2008-11-17 09:00;CYXE 170900Z 09002KT 15SM SKC M10/M10 A3042 RMK SLP337

CYXE;2008-11-17 10:00;CYXE 171000Z 11003KT 15SM SKC M11/M11 A3042 RMK SLP339

CYXE;2008-11-17 11:00;CYXE 171100Z 16003KT 15SM SKC M10/M11 A3042 RMK SLP339

CYXE;2008-11-17 12:00;CYXE 171200Z 16004KT 15SM SKC M11/M11 A3041 RMK SLP338

CYXE;2008-11-17 13:00;CYXE 171300Z 18005KT 15SM SKC M10/M11 A3043 RMK SLP343

CYXE;2008-11-17 14:00;CYXE 171400Z 15004KT 15SM FEW250 M11/M12 A3042 RMK CI0 SLP341

CYXE;2008-11-17 15:00;CYXE 171500Z 15004KT 15SM FEW090 BKN250 M10/M11 A3043 RMK AC1CI0 CONTRAILS SLP344

CYXE;2008-11-17 16:00;CYXE 171600Z 15005KT 15SM FEW090 SCT250 M07/M08 A3042 RMK AC1CI0 CONTRAILS SLP341

CYXE;2008-11-17 17:00;CYXE 171700Z 16007KT 15SM SCT110 BKN250 M06/M08 A3040 RMK AC4CI1 SLP336

CYXE;2008-11-17 18:00;CYXE 171800Z 16007KT 15SM FEW110 BKN250 M04/M07 A3038 RMK AC2CI2 CONTRAILS SLP325

CYXE;2008-11-17 19:00;CYXE 171900Z 14008KT 15SM BKN110 BKN250 M03/M06 A3036 RMK AC5CI0 SLP317

CYXE;2008-11-17 20:00;CYXE 172000Z 14011KT 15SM BKN090 BKN250 M02/M06 A3034 RMK AS5CI0 SLP311

CYXE;2008-11-17 21:00;CYXE 172100Z 15010KT 15SM BKN084 BKN250 M01/M06 A3032 RMK AC6CI0 SLP303

CYXE;2008-11-17 22:00;CYXE 172200Z 15011KT 15SM BKN075 OVC090 M02/M06 A3028 RMK AC6AC2 SLP291

CYXE;2008-11-17 23:00;CYXE 172300Z 14011KT 15SM BKN070 OVC180 M02/M06 A3026 RMK AC7CI1 SLP284

CYXE;2008-11-18 00:00;CYXE 180000Z 14010G15KT 15SM BKN065 BKN180 M02/M06 A3022 RMK SC6AC1 SLP270

CYXE;2008-11-18 01:00;CYXE 180100Z 13012KT 15SM OVC062 M02/M06 A3020 RMK SC8 SLP263

CYXE;2008-11-18 02:00;CYXE 180200Z 13011G16KT 15SM OVC047 M02/M06 A3014 RMK SC8 SLP245

CYXE;2008-11-18 03:00;CYXE 180300Z 15010G16KT 15SM BKN030 OVC090 M02/M06 A3011 RMK SC6AC2 SLP232

CYXE;2008-11-18 04:00;CYXE 180400Z 16011KT 15SM BKN030 OVC120 M01/M06 A3006 RMK SC5AC3 SLP217

CYXE;2008-11-18 05:00;CYXE 180500Z 16012KT 15SM FEW030 OVC160 M01/M06 A3003 RMK SC2AC6 SLP205

CYXE;2008-11-18 06:00;CYXE 180600Z 16012G18KT 15SM OVC140 M01/M06 A2998 RMK AC8 SLP183

CYXE;2008-11-18 07:00;CYXE 180700Z 16012KT 15SM OVC120 M01/M06 A2995 RMK AC8 SLP173

CYXE;2008-11-18 08:00;CYXE 180800Z 15008KT 15SM OVC120 M02/M05 A2991 RMK AC8 SLP159

CYXE;2008-11-18 09:00;CYXE 180900Z 14010KT 15SM OVC120 M02/M05 A2986 RMK AC8 SLP141

CYXE;2008-11-18 10:00;CYXE 181000Z 13010KT 15SM OVC200 M01/M05 A2982 RMK CI8 SLP128

CYXE;2008-11-18 11:00;CYXE 181100Z 14007KT 15SM BKN200 M02/M05 A2978 RMK CI4 SLP115

CYXE;2008-11-18 12:00;CYXE 181200Z 10006KT 15SM SCT240 M04/M06 A2975 RMK CI3 SLP105

CYXE;2008-11-18 13:00;CYXE 181300Z 10006KT 15SM OVC250 M03/M05 A2974 RMK CI3 SLP100

CYXE;2008-11-18 14:00;CYXE 181400Z 08004KT 15SM OVC250 M04/M05 A2973 RMK CI3 SLP096

CYXE;2008-11-18 15:00;CYXE 181500Z 08004KT 15SM FEW110 OVC250 M04/M05 A2971 RMK AC2CI6 SLP091

CYXE;2008-11-18 16:00;CYXE 181600Z 07003KT 15SM FEW110 OVC250 M03/M04 A2971 RMK AC1CI6 SLP090

CYXE;2008-11-18 17:00;CYXE 181700Z 01006KT 15SM FEW110 OVC250 M02/M03 A2975 RMK AC1CI6 SLP102

CYXE;2008-11-18 17:30;CYXE 181730Z 36007KT 15SM FEW008 SCT110 OVC250 M01/ RMK SF1AC2CI4

CYXE;2008-11-18 17:37;CYXE 181737Z 36007KT 15SM BKN008 BKN110 OVC250 M01/ RMK SF5AC2CI1

CYXE;2008-11-18 18:00;CYXE 181800Z 36011KT 15SM BKN010 BKN110 OVC250 M00/M03 A2977 RMK SF5AC2CI1 SLP109

CYXE;2008-11-18 19:00;CYXE 181900Z 36014KT 15SM BKN009 M01/M04 A2979 RMK ST7 SLP116

CYXE;2008-11-18 19:13;CYXE 181913Z 36010G15KT 15SM BKN011 M01/ RMK ST7

CYXE;2008-11-18 20:00;CYXE 182000Z 01010KT 15SM BKN011 M01/M04 A2982 RMK ST7 SLP124

CYXE;2008-11-18 21:00;CYXE 182100Z 34010KT 15SM BKN013 BKN120 M01/M04 A2985 RMK SC6AC2 OBS TAKEN +06 SLP137

CYXE;2008-11-18 21:38;CYXE 182138Z 32011KT 15SM SCT013 BKN120 M01/ RMK SC3AC3

CYXE;2008-11-18 22:00;CYXE 182200Z 34007KT 15SM FEW013 SCT018 BKN120 M01/M05 A2988 RMK SC1SC3AC2 SLP146

CYXE;2008-11-18 23:00;CYXE 182300Z 36003KT 15SM FEW020 BKN110 M03/M05 A2991 RMK SC2AC3 SLP156

CYXE;2008-11-19 00:00;CYXE 190000Z 30004KT 15SM FEW015 SCT090 M04/M06 A2996 RMK SC2AC2 SLP177

CYXE;2008-11-19 01:00;CYXE 190100Z 32002KT 15SM FEW015 SCT090 M04/M05 A2996 RMK SC2AC2 SLP176

CYXE;2008-11-19 02:00;CYXE 190200Z 27003KT 15SM BKN029 M03/M04 A2998 RMK SC7 SLP185

CYXE;2008-11-19 03:00;CYXE 190300Z 28007KT 15SM BKN028 M01/M03 A3000 RMK SC7 SLP190

CYXE;2008-11-19 04:00;CYXE 190400Z 01002KT 15SM BKN016 OVC035 M01/M03 A3003 RMK SC5SC3 SLP199

CYXE;2008-11-19 05:00;CYXE 190500Z 30002KT 15SM OVC016 M01/M03 A3005 RMK SC8 SLP205

CYXE;2008-11-19 05:45;CYXE 190545Z 30005KT 15SM OVC014 M00/ RMK SC8

CYXE;2008-11-19 06:00;CYXE 190600Z 34005KT 15SM OVC014 M00/M02 A3008 RMK SC8 SLP215

CYXE;2008-11-19 07:00;CYXE 190700Z 03007KT 15SM OVC014 M01/M04 A3011 RMK SC8 SLP224

CYXE;2008-11-19 08:00;CYXE 190800Z 04005KT 15SM OVC014 M02/M04 A3013 RMK SC8 SLP229

CYXE;2008-11-19 09:00;CYXE 190900Z 01005KT 12SM -SN OVC014 M02/M03 A3016 RMK SC8 SLP244

CYXE;2008-11-19 09:39;CYXE 190939Z 01009KT 15SM OVC012 M02/ RMK SC8

CYXE;2008-11-19 10:00;CYXE 191000Z 01008KT 15SM OVC011 M02/M03 A3019 RMK SC8 SLP254

CYXE;2008-11-19 11:00;CYXE 191100Z 36007KT 15SM OVC014 M03/M04 A3023 RMK SC8 SLP266

CYXE;2008-11-19 11:26;CYXE 191126Z 35008KT 15SM -SN OVC014 M03/ RMK SC8

CYXE;2008-11-19 12:00;CYXE 191200Z 36010KT 15SM -SN OVC014 M03/M05 A3027 RMK SC8 SLP283

CYXE;2008-11-19 13:00;CYXE 191300Z 36006KT 15SM -SN OVC014 M03/M06 A3030 RMK SC8 SLP293

CYXE;2008-11-19 14:00;CYXE 191400Z 35005KT 15SM -SN OVC016 M04/M06 A3033 RMK SC8 SLP303

CYXE;2008-11-19 15:00;CYXE 191500Z 32005KT 15SM -SN OVC028 M03/M06 A3036 RMK SC8 SLP311

CYXE;2008-11-19 16:00;CYXE 191600Z 32006KT 3SM -SN OVC030 M03/M06 A3037 RMK SC8 SLP315

CYXE;2008-11-19 16:13;CYXE 191613Z 30004KT 2 1/2SM -SN OVC030 M04/ RMK SC8

CYXE;2008-11-19 16:44;CYXE 191644Z 31008KT 2SM -SN VV015 M03/ RMK SN8

CYXE;2008-11-19 17:00;CYXE 191700Z 31009KT 2SM -SN VV010 M03/M05 A3040 RMK SN8 SLP325

CYXE;2008-11-19 17:06;CYXE 191706Z 32010KT 1SM R09/P6000FT/D -SN VV008 M03/ RMK SN8

CYXE;2008-11-19 17:43;CYXE 191743Z 32013G18KT 1 1/2SM -SN VV008 M04/ RMK SN8

CYXE;2008-11-19 18:00;CYXE 191800Z 32011KT 1 1/2SM -SN VV008 M04/M05 A3042 RMK SN8 /S01/ SLP332

CYXE;2008-11-19 18:19;CYXE 191819Z 32014KT 3SM -SN OVC015 M03/ RMK SC8

CYXE;2008-11-19 18:27;CYXE 191827Z 30014KT 1 1/2SM -SHSN VV015 M04/ RMK SN8

CYXE;2008-11-19 19:00;CYXE 191900Z 30014KT 1 1/2SM -SHSN OVC015 M04/M06 A3044 RMK SN2SC6 SLP340

CYXE;2008-11-19 19:38;CYXE 191938Z CCA 32017KT 1 1/2SM -SHSN DRSN BKN008 OVC020 M04/ RMK SN2SC4SC2

CYXE;2008-11-19 20:00;CYXE 192000Z 32019G24KT 2SM -SHSN DRSN BKN014 BKN030 M04/M07 A3047 RMK SN1SC4SC1 SLP349

CYXE;2008-11-19 20:31;CYXE 192031Z 32017G22KT 3SM -SHSN DRSN SCT015 BKN030 M04/ RMK SC3SC2

CYXE;2008-11-19 21:00;CYXE 192100Z 31014G19KT 3SM -SHSN DRSN BKN016 BKN030 M04/M07 A3049 RMK SC5SC2 /S01/ SLP360

CYXE;2008-11-19 22:00;CYXE 192200Z 33014KT 8SM -SHSN DRSN FEW015 BKN034 M04/M07 A3054 RMK SC2SC4 OBS TAKEN +12 SLP374

CYXE;2008-11-19 23:00;CYXE 192300Z 32013KT 15SM -SHSN FEW015 SCT030 M06/M08 A3058 RMK SC2SC2 OBS TAKEN +03 SLP386

CYXE;2008-11-20 00:00;CYXE 200000Z 33008KT 10SM -SHSN BKN019 M05/M07 A3062 RMK SC7 SLP403

CYXE;2008-11-20 01:00;CYXE 200100Z 35009KT 15SM -SN SCT020 OVC028 M05/M08 A3066 RMK SC3SC5 SLP417

CYXE;2008-11-20 02:00;CYXE 200200Z 01012G17KT 12SM -SN SCT016 OVC028 M06/M09 A3069 RMK SC3SC5 SLP427

CYXE;2008-11-20 03:00;CYXE 200300Z 33007KT 8SM -SN FEW014 BKN028 M10/M12 A3072 RMK SC2SC3 SLP442

CYXE;2008-11-20 04:00;CYXE 200400Z 35008KT 12SM -SN BKN018 M07/M10 A3073 RMK SC7 SLP445

CYXE;2008-11-20 05:00;CYXE 200500Z 36007KT 15SM -SN OVC020 M08/M11 A3076 RMK SC8 SLP453

CYXE;2008-11-20 06:00;CYXE 200600Z 34006KT 10SM -SN OVC020 M08/M10 A3078 RMK SC8 SLP463

CYXE;2008-11-20 07:00;CYXE 200700Z 35005KT 12SM -SN OVC015 M08/M10 A3080 RMK SC8 SLP468

CYXE;2008-11-20 08:00;CYXE 200800Z 36005KT 15SM -SN OVC020 M08/M10 A3080 RMK SC8 SLP470

CYXE;2008-11-20 09:00;CYXE 200900Z 06003KT 15SM -SN OVC020 M08/M11 A3080 RMK SC8 SLP470

CYXE;2008-11-20 10:00;CYXE 201000Z 00000KT 15SM -SN OVC018 M08/M11 A3080 RMK SC8 SLP470

CYXE;2008-11-20 10:35;CYXE 201035Z 00000KT 15SM OVC018 M08/ RMK SC8

CYXE;2008-11-20 11:00;CYXE 201100Z 00000KT 15SM OVC018 M08/M11 A3080 RMK SC8 SLP468

CYXE;2008-11-20 12:00;CYXE 201200Z 00000KT 15SM OVC018 M08/M11 A3079 RMK SC8 SLP466

CYXE;2008-11-20 13:00;CYXE 201300Z 18005KT 15SM OVC016 M08/M10 A3078 RMK SC8 SLP463

CYXE;2008-11-20 13:33;CYXE 201333Z 16004KT 15SM -SN OVC016 M08/ RMK SC8

CYXE;2008-11-20 14:00;CYXE 201400Z 21003KT 15SM -SN FEW011 OVC014 M08/M10 A3077 RMK SF2SC6 SLP460

CYXE;2008-11-20 14:39;CYXE 201439Z 20004KT 15SM -SN OVC016 M08/ RMK SC8 CIG RAG

CYXE;2008-11-20 15:00;CYXE 201500Z 19006KT 15SM -SN OVC016 M08/M11 A3076 RMK SC8 CIG RAG SLP458

CYXE;2008-11-20 15:46;CYXE 201546Z 20003KT 15SM -SN OVC014 M08/ RMK SC7 CIG RAG

CYXE;2008-11-20 16:00;CYXE 201600Z 21006KT 15SM -SN OVC014 M08/M11 A3075 RMK SC8 CIG RAG SLP456

CYXE;2008-11-20 17:00;CYXE 201700Z 18010KT 15SM -SN OVC014 M08/M10 A3074 RMK SC8 CIG RAG SLP452

CYXE;2008-11-20 18:00;CYXE 201800Z 18006KT 15SM -SHSN BKN014 M07/M10 A3071 RMK SC7 RAG CIG SLP438

CYXE;2008-11-20 19:00;CYXE 201900Z 17011KT 15SM -SHSN OVC014 M07/M10 A3066 RMK SC7 SLP424

CYXE;2008-11-20 19:43;CYXE 201943Z 17008KT 15SM BKN014 M06/ RMK SC6

CYXE;2008-11-20 20:00;CYXE 202000Z 16009KT 15SM BKN014 M06/M09 A3062 RMK SC7 SLP409

CYXE;2008-11-20 21:00;CYXE 202100Z 16011G16KT 15SM BKN014 M07/M09 A3058 RMK SC7 SLP394

CYXE;2008-11-20 22:00;CYXE 202200Z 16010KT 15SM FEW015 M07/M10 A3053 RMK SC1 SLP378

CYXE;2008-11-20 23:00;CYXE 202300Z 15011G16KT 15SM FEW250 M08/M11 A3049 RMK CI0 SLP366

CYXE;2008-11-21 00:00;CYXE 210000Z 14008KT 15SM FEW250 M10/M11 A3044 RMK CI0 SLP349

CYXE;2008-11-21 01:00;CYXE 210100Z 14008KT 15SM FEW250 M11/M12 A3039 RMK CI0 SLP333

CYXE;2008-11-21 02:00;CYXE 210200Z 14008KT 15SM FEW250 M12/M13 A3035 RMK CI0 SLP319

CYXE;2008-11-21 03:00;CYXE 210300Z 14008KT 15SM SKC M11/M13 A3029 RMK SLP300

CYXE;2008-11-21 04:00;CYXE 210400Z 14008KT 15SM SKC M11/M13 A3024 RMK SLP282

CYXE;2008-11-21 05:00;CYXE 210500Z 15010KT 15SM SKC M10/M12 A3019 RMK SLP268

CYXE;2008-11-21 06:00;CYXE 210600Z 14007KT 15SM SKC M11/M13 A3017 RMK SLP255

CYXE;2008-11-21 07:00;CYXE 210700Z 14007KT 15SM SKC M12/M14 A3014 RMK SLP245

CYXE;2008-11-21 08:00;CYXE 210800Z 14007KT 15SM SKC M12/M14 A3008 RMK SLP228

CYXE;2008-11-21 09:00;CYXE 210900Z 14007KT 15SM SKC M11/M13 A3004 RMK SLP211

CYXE;2008-11-21 10:00;CYXE 211000Z 15011KT 15SM SKC M11/M13 A3001 RMK SLP202

CYXE;2008-11-21 11:00;CYXE 211100Z 13007KT 15SM SKC M11/M14 A2998 RMK SLP192

CYXE;2008-11-21 12:00;CYXE 211200Z 12013KT 15SM SKC M12/M14 A2994 RMK SLP180

CYXE;2008-11-21 13:00;CYXE 211300Z 14005KT 15SM FEW120 BKN250 M12/M14 A2992 RMK AC2CI2 SLP173

CYXE;2008-11-21 14:00;CYXE 211400Z 14006KT 15SM FEW120 BKN250 M11/M13 A2991 RMK AC1CI2 SLP169

CYXE;2008-11-21 15:00;CYXE 211500Z 15009KT 15SM FEW120 OVC250 M10/M12 A2991 RMK AC2CI2 SLP167

CYXE;2008-11-21 16:00;CYXE 211600Z 15012KT 15SM FEW120 OVC250 M08/M11 A2989 RMK AC2CI2 SLP163

CYXE;2008-11-21 17:00;CYXE 211700Z 16007KT 15SM SCT120 OVC250 M07/M10 A2991 RMK AC2CI2 SLP169

CYXE;2008-11-21 18:00;CYXE 211800Z 18012KT 15SM BKN120 OVC250 M06/M10 A2991 RMK AC5CI2 SLP165

CYXE;2008-11-21 19:00;CYXE 211900Z 18009KT 15SM SCT120 OVC250 M05/M09 A2991 RMK AC3CI2 ACC ASOCTD SLP166

CYXE;2008-11-21 20:00;CYXE 212000Z 22007KT 15SM FEW120 BKN250 M04/M08 A2992 RMK AC2CI1 SLP169

CYXE;2008-11-21 21:00;CYXE 212100Z 22004KT 15SM BKN082 OVC250 M04/M08 A2992 RMK AC2CI2 SLP167

CYXE;2008-11-21 22:00;CYXE 212200Z 22006KT 15SM BKN080 M04/M07 A2992 RMK AC6 SLP169

CYXE;2008-11-21 23:00;CYXE 212300Z 25005KT 15SM SCT090 M05/M08 A2993 RMK AC4 SLP172

CYXE;2008-11-22 00:00;CYXE 220000Z 23004KT 15SM SCT090 M07/M09 A2994 RMK AC3 SLP177

CYXE;2008-11-22 01:00;CYXE 220100Z 23005KT 15SM SKC M08/M09 A2994 RMK SLP179

CYXE;2008-11-22 02:00;CYXE 220200Z 20005KT 15SM SKC M08/M09 A2993 RMK SLP176

CYXE;2008-11-22 03:00;CYXE 220300Z 20006KT 15SM SKC M09/M10 A2993 RMK SLP176

CYXE;2008-11-22 04:00;CYXE 220400Z 20006KT 15SM SKC M08/M10 A2992 RMK SLP171

CYXE;2008-11-22 05:00;CYXE 220500Z 21005KT 15SM SKC M09/M11 A2992 RMK SLP171

CYXE;2008-11-22 06:00;CYXE 220600Z 21006KT 15SM SKC M10/M11 A2991 RMK SLP166

CYXE;2008-11-22 07:00;CYXE 220700Z 20006KT 15SM SKC M10/M12 A2991 RMK SLP166

CYXE;2008-11-22 08:00;CYXE 220800Z 19006KT 15SM SKC M10/M11 A2987 RMK SLP154

CYXE;2008-11-22 09:00;CYXE 220900Z 15004KT 15SM SKC M11/M12 A2985 RMK SLP144

CYXE;2008-11-22 10:00;CYXE 221000Z 17007KT 15SM SKC M09/M11 A2983 RMK SLP139

CYXE;2008-11-22 11:00;CYXE 221100Z 16006KT 15SM SKC M09/M10 A2980 RMK SLP128

CYXE;2008-11-22 12:00;CYXE 221200Z 16009KT 15SM SKC M07/M09 A2977 RMK SLP115

CYXE;2008-11-22 13:00;CYXE 221300Z 15011KT 15SM SKC M07/M09 A2972 RMK SLP099

CYXE;2008-11-22 14:00;CYXE 221400Z 16011KT 15SM BKN120 M06/M08 A2969 RMK AC6 SLP090

CYXE;2008-11-22 15:00;CYXE 221500Z 18014G19KT 15SM BKN120 BKN250 M03/M06 A2966 RMK AC6CI1 SLP077

CYXE;2008-11-22 16:00;CYXE 221600Z 18016G22KT 15SM BKN120 BKN250 M02/M06 A2962 RMK AC5CI2 SLP064

CYXE;2008-11-22 17:00;CYXE 221700Z 18017G22KT 15SM BKN120 BKN250 M01/M05 A2960 RMK AC5CI0 SLP056

CYXE;2008-11-22 18:00;CYXE 221800Z 21015KT 15SM BKN120 BKN250 04/M04 A2959 RMK AC5CI0 SLP048

CYXE;2008-11-22 19:00;CYXE 221900Z 23017G22KT 15SM SCT120 BKN250 06/M04 A2958 RMK AC2CI2 SLP046

CYXE;2008-11-22 20:00;CYXE 222000Z 24019G25KT 15SM FEW120 SCT250 06/M03 A2958 RMK AC1CI2 SLP046

CYXE;2008-11-22 21:00;CYXE 222100Z 27029G38KT 15SM FEW050 FEW120 SCT250 08/M01 A2961 RMK SC2AC1CI1 SLP053

CYXE;2008-11-22 22:00;CYXE 222200Z 28019G26KT 15SM BKN033 06/00 A2965 RMK SC6 SLP068

CYXE;2008-11-22 23:00;CYXE 222300Z 27015KT 15SM FEW031 FEW250 05/M01 A2969 RMK SC1CI1 SLP079

CYXE;2008-11-23 00:00;CYXE 230000Z 27010G15KT 15SM FEW031 FEW250 03/M01 A2971 RMK SC1CI1 SLP088

CYXE;2008-11-23 01:00;CYXE 230100Z 27011KT 15SM SKC 02/M02 A2974 RMK SLP099

CYXE;2008-11-23 02:00;CYXE 230200Z 25009KT 15SM SKC 00/M04 A2977 RMK SLP108

CYXE;2008-11-23 03:00;CYXE 230300Z 23010KT 15SM SKC M01/M05 A2979 RMK SLP116

CYXE;2008-11-23 04:00;CYXE 230400Z 24008KT 15SM SKC M02/M06 A2981 RMK SLP122

CYXE;2008-11-23 05:00;CYXE 230500Z 27010KT 15SM SKC M02/M07 A2983 RMK SLP129

CYXE;2008-11-23 06:00;CYXE 230600Z 27011KT 15SM SKC M01/M08 A2985 RMK SLP132

CYXE;2008-11-23 07:00;CYXE 230700Z 28010KT 15SM SKC M01/M08 A2986 RMK SLP136

CYXE;2008-11-23 08:00;CYXE 230800Z 26009KT 15SM SKC M04/M08 A2988 RMK SLP142

CYXE;2008-11-23 09:00;CYXE 230900Z 26010KT 15SM SKC M04/M09 A2991 RMK SLP151

CYXE;2008-11-23 10:00;CYXE 231000Z 26009KT 15SM SKC M05/M09 A2992 RMK SLP156

CYXE;2008-11-23 11:00;CYXE 231100Z 26008KT 15SM SKC M06/M09 A2993 RMK SLP160

CYXE;2008-11-23 12:00;CYXE 231200Z 26008KT 15SM SKC M07/M09 A2995 RMK SLP170

CYXE;2008-11-23 13:00;CYXE 231300Z 27009KT 15SM SKC M06/M09 A2996 RMK SLP173

CYXE;2008-11-23 14:00;CYXE 231400Z 28010KT 15SM SKC M03/M08 A2997 RMK SLP177

CYXE;2008-11-23 15:00;CYXE 231500Z 26008KT 15SM FEW040 M05/M08 A2998 RMK SC1 SLP185

CYXE;2008-11-23 16:00;CYXE 231600Z 26010KT 15SM FEW040 M03/M07 A3000 RMK SC1 SLP190

CYXE;2008-11-23 17:00;CYXE 231700Z 28016KT 15SM SKC M00/M07 A3001 RMK SLP194

CYXE;2008-11-23 18:00;CYXE 231800Z 29019G25KT 15SM SKC 01/M07 A3001 RMK SLP191

CYXE;2008-11-23 19:00;CYXE 231900Z 29020G25KT 15SM SKC 03/M07 A3001 RMK SLP190

CYXE;2008-11-23 20:00;CYXE 232000Z 29017G28KT 15SM SKC 03/M07 A3002 RMK SLP192

CYXE;2008-11-23 21:00;CYXE 232100Z 30020G28KT 15SM SKC 03/M08 A3003 RMK SLP196

CYXE;2008-11-23 22:00;CYXE 232200Z 30015G22KT 15SM SKC 02/M07 A3005 RMK SLP203

CYXE;2008-11-23 23:00;CYXE 232300Z 30013KT 15SM SKC 01/M07 A3007 RMK SLP209

CYXE;2008-11-24 00:00;CYXE 240000Z 28007KT 15SM FEW220 M03/M07 A3009 RMK CI1 SLP224

CYXE;2008-11-24 01:00;CYXE 240100Z 28007KT 15SM SKC M04/M08 A3010 RMK SLP226

CYXE;2008-11-24 02:00;CYXE 240200Z 28009KT 15SM SKC M05/M07 A3010 RMK SLP227

CYXE;2008-11-24 03:00;CYXE 240300Z 29005KT 15SM SKC M07/M09 A3011 RMK SLP232

CYXE;2008-11-24 04:00;CYXE 240400Z 30008KT 15SM SKC M06/M09 A3011 RMK SLP232

CYXE;2008-11-24 05:00;CYXE 240500Z 21002KT 15SM SKC M06/M09 A3011 RMK SLP233

CYXE;2008-11-24 06:00;CYXE 240600Z 27006KT 15SM SKC M09/M10 A3012 RMK SLP232

CYXE;2008-11-24 07:00;CYXE 240700Z 21005KT 15SM SKC M08/M10 A3013 RMK SLP234

CYXE;2008-11-24 08:00;CYXE 240800Z 20006KT 15SM SKC M09/M10 A3009 RMK SLP224

CYXE;2008-11-24 09:00;CYXE 240900Z 24008KT 15SM SKC M10/M12 A3010 RMK SLP226

CYXE;2008-11-24 10:00;CYXE 241000Z 22007KT 15SM SKC M10/M11 A3008 RMK SLP219

CYXE;2008-11-24 11:00;CYXE 241100Z 18006KT 15SM SKC M09/M11 A3005 RMK SLP208

CYXE;2008-11-24 12:00;CYXE 241200Z 18005KT 15SM SKC M10/M11 A3003 RMK SLP204

CYXE;2008-11-24 13:00;CYXE 241300Z 19006KT 15SM SKC M10/M12 A3001 RMK SLP199

CYXE;2008-11-24 14:00;CYXE 241400Z 18006KT 15SM FEW120 M09/M11 A3000 RMK AC1 SLP193

CYXE;2008-11-24 15:00;CYXE 241500Z 16006KT 15SM FEW120 FEW250 M08/M10 A2997 RMK AC1CI1 SLP186

CYXE;2008-11-24 16:00;CYXE 241600Z 18008KT 15SM FEW120 SCT250 M05/M08 A2995 RMK AC1CI1 SLP179

CYXE;2008-11-24 17:00;CYXE 241700Z 17011KT 15SM FEW120 BKN250 M02/M07 A2991 RMK AC1CI2 SLP167

CYXE;2008-11-24 18:00;CYXE 241800Z 18011KT 15SM FEW120 BKN250 03/M07 A2989 RMK AC1CI3 SLP151

CYXE;2008-11-24 19:00;CYXE 241900Z 19010KT 15SM FEW120 BKN250 02/M07 A2986 RMK AC1CI2 SLP143

CYXE;2008-11-24 20:00;CYXE 242000Z 19010KT 15SM FEW120 OVC250 03/M06 A2982 RMK AC1CI3 SLP128

CYXE;2008-11-24 21:00;CYXE 242100Z 19012KT 15SM BKN250 04/M06 A2978 RMK CI2 SLP115

CYXE;2008-11-24 22:00;CYXE 242200Z 18008KT 15SM FEW120 BKN250 04/M06 A2977 RMK AC1CI2 SLP112

CYXE;2008-11-24 23:00;CYXE 242300Z 19008KT 15SM FEW120 SCT250 02/M06 A2977 RMK AC2CI0 SLP110

CYXE;2008-11-25 00:00;CYXE 250000Z 19007KT 15SM SCT120 OVC250 01/M06 A2974 RMK AC3CI2 SLP103

CYXE;2008-11-25 01:00;CYXE 250100Z 20006KT 15SM SCT120 OVC250 01/M06 A2973 RMK AC3CI2 SLP099

CYXE;2008-11-25 02:00;CYXE 250200Z 25005KT 15SM BKN120 OVC250 M02/M07 A2974 RMK AC6CI2 SLP103

CYXE;2008-11-25 03:00;CYXE 250300Z 25009KT 15SM OVC120 M02/M07 A2975 RMK AC8 SLP108

CYXE;2008-11-25 04:00;CYXE 250400Z 29007KT 15SM OVC180 M03/M07 A2978 RMK AC8 SLP115

CYXE;2008-11-25 05:00;CYXE 250500Z 32007KT 15SM OVC180 M01/M06 A2979 RMK AC8 SLP119

CYXE;2008-11-25 06:00;CYXE 250600Z 30009KT 15SM OVC180 M00/M06 A2981 RMK AC8 SLP120

CYXE;2008-11-25 07:00;CYXE 250700Z 32006KT 15SM BKN180 M00/M06 A2983 RMK AC6 SLP125

CYXE;2008-11-25 08:00;CYXE 250800Z 27006KT 15SM FEW180 M03/M07 A2985 RMK AC2 SLP131

CYXE;2008-11-25 09:00;CYXE 250900Z 28005KT 15SM FEW180 M04/M07 A2986 RMK AC2 SLP139

CYXE;2008-11-25 10:00;CYXE 251000Z 29007KT 15SM FEW180 M04/M07 A2989 RMK AC2 SLP148

CYXE;2008-11-25 11:00;CYXE 251100Z 30007KT 15SM FEW180 M05/M07 A2991 RMK AC2 SLP153

CYXE;2008-11-25 12:00;CYXE 251200Z 30007KT 15SM FEW180 M04/M07 A2992 RMK AC2 SLP161

CYXE;2008-11-25 13:00;CYXE 251300Z 30006KT 15SM SKC M05/M07 A2994 RMK SLP166

CYXE;2008-11-25 14:00;CYXE 251400Z 27005KT 15SM SKC M08/M09 A2995 RMK SLP170

CYXE;2008-11-25 15:00;CYXE 251500Z 20004KT 15SM FEW300 M06/M07 A2997 RMK CI0 SLP180

CYXE;2008-11-25 16:00;CYXE 251600Z 19003KT 15SM SCT300 M04/M06 A2998 RMK CI1 SLP183

CYXE;2008-11-25 17:00;CYXE 251700Z 22005KT 15SM FEW300 M01/M04 A2998 RMK CI1 SLP185

CYXE;2008-11-25 18:00;CYXE 251800Z 24005KT 15SM SCT300 03/M03 A2998 RMK CI1 SLP178

CYXE;2008-11-25 19:00;CYXE 251900Z 22003KT 15SM SCT300 04/M03 A2997 RMK CI0 SLP175

CYXE;2008-11-25 20:00;CYXE 252000Z 20004KT 15SM BKN300 05/M03 A2995 RMK CI1 SLP169

CYXE;2008-11-25 21:00;CYXE 252100Z 20004KT 15SM BKN300 05/M03 A2995 RMK CI1 SLP168

CYXE;2008-11-25 22:00;CYXE 252200Z 18005KT 15SM BKN300 04/M03 A2994 RMK CI3 SLP165

CYXE;2008-11-25 23:00;CYXE 252300Z 16005KT 15SM SCT300 02/M04 A2992 RMK CI2 SLP158

CYXE;2008-11-26 00:00;CYXE 260000Z 15007KT 15SM FEW300 00/M04 A2991 RMK CI1 SLP157

CYXE;2008-11-26 01:00;CYXE 260100Z 16006KT 15SM FEW300 00/M03 A2990 RMK CI1 SLP154

CYXE;2008-11-26 02:00;CYXE 260200Z 16009KT 15SM FEW300 01/M03 A2988 RMK CI1 SLP147

CYXE;2008-11-26 03:00;CYXE 260300Z CCA 16011KT 15SM SKC 02/M04 A2986 RMK SLP139

CYXE;2008-11-26 04:00;CYXE 260400Z 16009KT 15SM SCT250 01/M04 A2983 RMK CI2 SLP130

CYXE;2008-11-26 05:00;CYXE 260500Z 16010KT 15SM FEW100 BKN250 01/M04 A2981 RMK AC1CI3 SLP123

CYXE;2008-11-26 06:00;CYXE 260600Z 15007KT 15SM FEW020 BKN100 OVC250 00/M05 A2979 RMK SC2AC3CI1 SLP114

CYXE;2008-11-26 07:00;CYXE 260700Z 15006KT 15SM FEW018 BKN250 00/M05 A2978 RMK SC2CI2 SLP108

CYXE;2008-11-26 08:00;CYXE 260800Z 16007KT 15SM SCT015 BKN250 M00/M05 A2976 RMK SC2CI2 SLP103

CYXE;2008-11-26 09:00;CYXE 260900Z 17006KT 15SM SCT015 SCT250 M01/M05 A2975 RMK SC1CI1 SLP099

CYXE;2008-11-26 10:00;CYXE 261000Z 18007KT 15SM FEW015 M01/M05 A2974 RMK SC1 SLP093

CYXE;2008-11-26 11:00;CYXE 261100Z 19006KT 15SM SKC M02/M05 A2972 RMK SLP089

CYXE;2008-11-26 12:00;CYXE 261200Z 24008KT 15SM SKC M05/M06 A2974 RMK SLP099

CYXE;2008-11-26 13:00;CYXE 261300Z 30009KT 15SM BKN120 M03/M05 A2975 RMK AC5 SLP104

CYXE;2008-11-26 14:00;CYXE 261400Z 29010KT 15SM BKN120 M03/M05 A2977 RMK AC5 SLP110

CYXE;2008-11-26 15:00;CYXE 261500Z 30010G15KT 15SM BKN120 M02/M04 A2982 RMK AC5 SLP124

CYXE;2008-11-26 16:00;CYXE 261600Z 32013G18KT 15SM SCT034 BKN120 01/M01 A2984 RMK SC3AC3 SLP132

CYXE;2008-11-26 17:00;CYXE 261700Z 32015KT 15SM SCT028 OVC075 02/M02 A2987 RMK SC3AC4 SLP140

CYXE;2008-11-26 18:00;CYXE 261800Z 32015G20KT 15SM FEW030 SCT075 BKN100 02/M02 A2988 RMK SC2AC2AC2 SLP144

CYXE;2008-11-26 19:00;CYXE 261900Z 32022KT 15SM SCT090 BKN250 03/M03 A2991 RMK AC4CI0 SLP152

CYXE;2008-11-26 20:00;CYXE 262000Z 31016G21KT 15SM FEW090 BKN250 03/M04 A2992 RMK AC2CI1 SLP155

CYXE;2008-11-26 21:00;CYXE 262100Z 32017KT 15SM FEW090 SCT250 04/M05 A2993 RMK AC2CI1 SLP161

CYXE;2008-11-26 22:00;CYXE 262200Z 32014G19KT 15SM FEW090 FEW250 03/M06 A2996 RMK AC1CI0 SLP170

CYXE;2008-11-26 23:00;CYXE 262300Z 30008KT 15SM FEW090 01/M06 A3000 RMK AC1 SLP182

CYXE;2008-11-27 00:00;CYXE 270000Z 28009KT 15SM SKC M01/M07 A3002 RMK SLP197

CYXE;2008-11-27 01:00;CYXE 270100Z 28010KT 15SM SKC M02/M07 A3003 RMK SLP201

CYXE;2008-11-27 02:00;CYXE 270200Z 27010KT 15SM SKC M03/M07 A3004 RMK SLP204

CYXE;2008-11-27 03:00;CYXE 270300Z 27010KT 15SM SKC M03/M08 A3006 RMK SLP208

CYXE;2008-11-27 04:00;CYXE 270400Z 25008KT 15SM SKC M06/M09 A3007 RMK SLP212

CYXE;2008-11-27 05:00;CYXE 270500Z 27007KT 15SM SKC M08/M10 A3008 RMK SLP214

CYXE;2008-11-27 06:00;CYXE 270600Z 26008KT 15SM SKC M09/M10 A3009 RMK SLP221

CYXE;2008-11-27 07:00;CYXE 270700Z 25008KT 15SM SKC M09/M10 A3009 RMK SLP222

CYXE;2008-11-27 08:00;CYXE 270800Z 25008KT 15SM SKC M08/M09 A3010 RMK SLP226

CYXE;2008-11-27 09:00;CYXE 270900Z 25008KT 15SM SKC M08/M10 A3010 RMK SLP222

CYXE;2008-11-27 10:00;CYXE 271000Z CCA 25008KT 15SM SKC M09/M11 A3008 RMK SLP217

CYXE;2008-11-27 11:00;CYXE 271100Z CCA 25008KT 15SM SKC M09/M11 A3008 RMK SLP217

CYXE;2008-11-27 12:00;CYXE 271200Z 23008KT 15SM SKC M10/M11 A3007 RMK SLP216

CYXE;2008-11-27 13:00;CYXE 271300Z 23006KT 15SM SKC M10/M12 A3007 RMK SLP216

CYXE;2008-11-27 14:00;CYXE 271400Z 21005KT 15SM SKC M10/M11 A3006 RMK SLP214

CYXE;2008-11-27 15:00;CYXE 271500Z 22007KT 15SM SKC M11/M13 A3006 RMK SLP215

CYXE;2008-11-27 16:00;CYXE 271600Z 24009KT 15SM SKC M07/M10 A3005 RMK SLP213

CYXE;2008-11-27 17:00;CYXE 271700Z 24009KT 15SM SKC M05/M08 A3005 RMK SLP213

CYXE;2008-11-27 18:00;CYXE 271800Z 24009KT 15SM SKC M02/M07 A3004 RMK SLP208

CYXE;2008-11-27 19:00;CYXE 271900Z 25008KT 15SM SKC 00/M07 A3001 RMK SLP199

CYXE;2008-11-27 20:00;CYXE 272000Z 26004KT 15SM SKC 03/M07 A2999 RMK SLP192

CYXE;2008-11-27 21:00;CYXE 272100Z 23004KT 15SM SKC 04/M07 A2998 RMK SLP181

CYXE;2008-11-27 22:00;CYXE 272200Z 17003KT 15SM SKC 03/M07 A2996 RMK SLP176

CYXE;2008-11-27 23:00;CYXE 272300Z 23006KT 15SM SKC M01/M07 A2996 RMK SLP177

CYXE;2008-11-28 00:00;CYXE 280000Z 19003KT 15SM SKC M02/M07 A2995 RMK SLP175

CYXE;2008-11-28 01:00;CYXE 280100Z 09004KT 15SM SKC M04/M07 A2993 RMK SLP171

CYXE;2008-11-28 02:00;CYXE 280200Z 14005KT 15SM SKC M04/M07 A2992 RMK SLP168

CYXE;2008-11-28 03:00;CYXE 280300Z 13003KT 15SM SKC M06/M08 A2991 RMK SLP165

CYXE;2008-11-28 04:00;CYXE 280400Z 13003KT 15SM SKC M07/M09 A2988 RMK SLP158

CYXE;2008-11-28 05:00;CYXE 280500Z 12004KT 15SM SKC M06/M08 A2988 RMK SLP157

CYXE;2008-11-28 06:00;CYXE 280600Z 08006KT 15SM SKC M08/M09 A2987 RMK SLP147

CYXE;2008-11-28 07:00;CYXE 280700Z 06005KT 15SM SKC M09/M10 A2986 RMK SLP145

CYXE;2008-11-28 08:00;CYXE 280800Z 06007KT 15SM SKC M10/M11 A2986 RMK SLP144

CYXE;2008-11-28 09:00;CYXE 280900Z 07007KT 15SM SKC M11/M12 A2984 RMK SLP137

CYXE;2008-11-28 10:00;CYXE 281000Z 07006KT 15SM SKC M10/M11 A2983 RMK SLP134

CYXE;2008-11-28 11:00;CYXE 281100Z 06007KT 15SM SKC M08/M10 A2983 RMK SLP131

CYXE;2008-11-28 12:00;CYXE 281200Z 05008KT 15SM SKC M08/M09 A2983 RMK SLP136

CYXE;2008-11-28 13:00;CYXE 281300Z 05008KT 15SM FEW280 M08/M10 A2987 RMK CI0 SLP146

CYXE;2008-11-28 14:00;CYXE 281400Z 06006KT 15SM BKN200 M09/M10 A2987 RMK CI2 SLP148

CYXE;2008-11-28 15:00;CYXE 281500Z 05009KT 15SM OVC230 M08/M10 A2988 RMK CI4 SLP154

CYXE;2008-11-28 16:00;CYXE 281600Z 05006KT 15SM BKN230 M07/M09 A2990 RMK CI6 SLP159

CYXE;2008-11-28 17:00;CYXE 281700Z 05008KT 15SM BKN230 M06/M08 A2992 RMK CI6 SLP165

CYXE;2008-11-28 18:00;CYXE 281800Z 02007KT 15SM FEW100 BKN230 M05/M07 A2993 RMK AC2CI2 SLP172

CYXE;2008-11-28 19:00;CYXE 281900Z 02007KT 15SM SCT099 OVC230 M05/M06 A2994 RMK AC2CI2 SLP174

CYXE;2008-11-28 20:00;CYXE 282000Z 03003KT 15SM FEW099 BKN230 M01/M05 A2994 RMK AC1CI2 SLP173

CYXE;2008-11-28 21:00;CYXE 282100Z 04004KT 15SM BKN230 M02/M06 A2993 RMK CI2 SLP170

CYXE;2008-11-28 22:00;CYXE 282200Z 08002KT 15SM BKN230 M02/M06 A2994 RMK CI2 SLP172

CYXE;2008-11-28 23:00;CYXE 282300Z 01002KT 15SM FEW100 FEW240 M03/M06 A2995 RMK AC1CI1 SLP176

CYXE;2008-11-29 00:00;CYXE 290000Z 34005KT 15SM FEW100 SCT240 M06/M07 A2996 RMK AC1CI1 SLP183

CYXE;2008-11-29 01:00;CYXE 290100Z 00000KT 15SM FEW100 FEW240 M08/M09 A2995 RMK AC1CI0 SLP178

CYXE;2008-11-29 02:00;CYXE 290200Z 00000KT 15SM SCT100 M07/M08 A2993 RMK AC2 SLP172

CYXE;2008-11-29 03:00;CYXE 290300Z 20003KT 15SM BKN100 M08/M08 A2993 RMK AC4 SLP173

CYXE;2008-11-29 04:00;CYXE 290400Z 22006KT 15SM SCT100 M08/M08 A2992 RMK AC2 SLP170

CYXE;2008-11-29 05:00;CYXE 290500Z 23006KT 15SM SCT100 M07/M08 A2990 RMK AC2 SLP163

CYXE;2008-11-29 06:00;CYXE 290600Z 22007KT 15SM FEW100 M09/M10 A2987 RMK AC1 SLP152

CYXE;2008-11-29 07:00;CYXE 290700Z 21005KT 15SM FEW250 M08/M09 A2986 RMK CI0 SLP148

CYXE;2008-11-29 08:00;CYXE 290800Z 21007KT 15SM BKN090 OVC250 M06/M08 A2984 RMK AC6CI1 SLP141

CYXE;2008-11-29 09:00;CYXE 290900Z 23004KT 15SM OVC084 M06/M07 A2983 RMK AC8 SLP131

CYXE;2008-11-29 10:00;CYXE 291000Z 24005KT 15SM FEW020 OVC070 M05/M06 A2980 RMK SC2AC6 SLP124

CYXE;2008-11-29 10:27;CYXE 291027Z 23006KT 8SM -SHSN BKN020 OVC070 M05/ RMK SC6AC2

CYXE;2008-11-29 11:00;CYXE 291100Z 21007KT 8SM -SHSN BKN025 OVC070 M05/M06 A2978 RMK SC5AC2 SLP115

CYXE;2008-11-29 11:40;CYXE 291140Z 20004KT 8SM -SHPLSN BKN017 OVC070 M04/ RMK SC6AC2

CYXE;2008-11-29 12:00;CYXE 291200Z CCA 18004KT 4SM -SHPLSN BKN017 OVC070 M04/M05 A2976 RMK SC7AC1 SLP110

CYXE;2008-11-29 12:16;CYXE 291216Z 17005KT 4SM -SHSN -FZRA BKN017 OVC070 M04/ RMK SC6AC2

CYXE;2008-11-29 12:49;CYXE 291249Z 23003KT 2SM -SHSN VV011 M03/ REFZRA RMK SN8

CYXE;2008-11-29 13:00;CYXE 291300Z 22005KT 1 1/2SM -SHSN VV009 M03/M04 A2974 REFZRA RMK SN8 SLP104

CYXE;2008-11-29 13:08;CYXE 291308Z 23006KT 3SM -SHSN BKN017 OVC070 M03/ RMK SC6AC2

CYXE;2008-11-29 13:54;CYXE 291354Z 24012KT 5SM -SHSN BKN017 OVC070 M02/ RMK SC6AC2

CYXE;2008-11-29 14:00;CYXE 291400Z 24011KT 5SM -SHSN BKN017 OVC070 M02/M03 A2974 RMK SC6AC2 SLP103

CYXE;2008-11-29 14:42;CYXE 291442Z 23007KT 15SM SCT017 OVC090 M02/ RMK SC3AC5

CYXE;2008-11-29 15:00;CYXE 291500Z 24006KT 15SM FEW017 OVC086 M02/M03 A2973 RMK SC2AC6 SLP099

CYXE;2008-11-29 16:00;CYXE 291600Z 28007KT 15SM FEW017 BKN090 01/M01 A2974 RMK SC2AC2 SLP101

CYXE;2008-11-29 17:00;CYXE 291700Z 27007KT 15SM FEW010 FEW080 02/00 A2974 RMK SC1AC2 SLP101

CYXE;2008-11-29 18:00;CYXE 291800Z 32017G25KT 15SM FEW015 SCT080 04/01 A2973 RMK CF2AC1 SLP097

CYXE;2008-11-29 19:00;CYXE 291900Z 32016KT 15SM FEW019 SCT080 04/00 A2974 RMK CF2AC1 SLP099

CYXE;2008-11-29 20:00;CYXE 292000Z 32014G19KT 15SM FEW024 FEW080 04/M01 A2974 RMK CF2AC1 SLP098

CYXE;2008-11-29 21:00;CYXE 292100Z 31014G19KT 15SM FEW024 FEW110 04/M01 A2974 RMK CU1AC1 SLP097

CYXE;2008-11-29 22:00;CYXE 292200Z 30013G19KT 15SM FEW110 04/M01 A2975 RMK AC1 SLP101

CYXE;2008-11-29 23:00;CYXE 292300Z 30010KT 15SM FEW110 02/M02 A2977 RMK AC2 SLP107

CYXE;2008-11-30 00:00;CYXE 300000Z 30008KT 15SM BKN120 01/M02 A2978 RMK AC6 SLP114

CYXE;2008-11-30 01:00;CYXE 300100Z 29011KT 15SM BKN120 M01/M03 A2981 RMK AC6 SLP121

CYXE;2008-11-30 02:00;CYXE 300200Z 31013G18KT 15SM BKN120 00/M02 A2981 RMK AC6 SLP123

CYXE;2008-11-30 03:00;CYXE 300300Z 32014G19KT 15SM BKN120 01/M02 A2982 RMK AC6 SLP126

CYXE;2008-11-30 04:00;CYXE 300400Z 31012KT 15SM BKN100 01/M02 A2983 RMK AC6 SLP128

CYXE;2008-11-30 05:00;CYXE 300500Z 31015KT 15SM BKN070 01/M02 A2982 RMK AC6 SLP126

CYXE;2008-11-30 06:00;CYXE 300600Z CCA 32016KT 15SM OVC060 M01/M03 A2985 RMK SC8 SLP133

CYXE;2008-11-30 07:00;CYXE 300700Z 33014KT 15SM OVC050 M01/M03 A2988 RMK SC8 SLP144

CYXE;2008-11-30 08:00;CYXE 300800Z 32013G19KT 15SM OVC039 M01/M04 A2991 RMK SC8 SLP152

CYXE;2008-11-30 08:45;CYXE 300845Z 33012KT 15SM -SHSN OVC037 M02/ RMK SC7

CYXE;2008-11-30 09:00;CYXE 300900Z 33010G15KT 15SM -SHSN OVC037 M02/M04 A2992 RMK SC8 SLP159

CYXE;2008-11-30 09:16;CYXE 300916Z 32013KT 15SM OVC037 M03/ RMK SC7

CYXE;2008-11-30 10:00;CYXE 301000Z 32010KT 15SM OVC037 M03/M04 A2992 RMK SC7 SLP159

CYXE;2008-11-30 11:00;CYXE 301100Z 32013KT 15SM SCT035 M03/M05 A2994 RMK SC4 SLP165

CYXE;2008-11-30 12:00;CYXE 301200Z 31010KT 15SM BKN040 M03/M05 A2996 RMK SC7 SLP174

CYXE;2008-11-30 13:00;CYXE 301300Z 30006KT 15SM BKN040 M04/M06 A2997 RMK SC6 SLP178

CYXE;2008-11-30 14:00;CYXE 301400Z 29005KT 15SM FEW041 BKN090 M05/M08 A2997 RMK SC2AC2 SLP178

CYXE;2008-11-30 15:00;CYXE 301500Z 30009KT 15SM BKN063 M05/M07 A2999 RMK SC6 SLP184

CYXE;2008-11-30 16:00;CYXE 301600Z 29007KT 15SM BKN058 M06/M12 A3000 RMK SC6 SLP189

CYXE;2008-11-30 17:00;CYXE 301700Z 29007KT 15SM BKN022 M01/M04 A3001 RMK SC6 SLP190

CYXE;2008-11-30 18:00;CYXE 301800Z 31010KT 15SM FEW054 BKN077 M00/M01 A3001 RMK SC2AC2 SLP192

CYXE;2008-11-30 19:00;CYXE 301900Z 32010KT 15SM FEW069 FEW230 01/M03 A3002 RMK AC1CI1 SLP194

CYXE;2008-11-30 20:00;CYXE 302000Z 29012KT 15SM SCT070 BKN230 04/M05 A3002 RMK AC3CI1 SLP195

CYXE;2008-11-30 21:00;CYXE 302100Z 32011KT 15SM FEW070 SCT230 03/M04 A3003 RMK AC1CI1 SLP196

CYXE;2008-11-30 22:00;CYXE 302200Z 31009KT 15SM FEW230 02/M04 A3004 RMK CI1 SLP199

CYXE;2008-11-30 23:00;CYXE 302300Z 34006KT 15SM FEW230 M02/M04 A3005 RMK CI1 SLP204

CYXE;2008-12-01 01:00;CYXE 010100Z 05004KT 15SM SKC M04/M08 A3007 RMK SLP213

CYXE;2008-12-01 02:00;CYXE 010200Z 14003KT 15SM SKC M06/M09 A3006 RMK SLP209

CYXE;2008-12-01 03:00;CYXE 010300Z 15004KT 15SM SKC M06/M09 A3004 RMK SLP205

CYXE;2008-12-01 04:00;CYXE 010400Z 19005KT 15SM SKC M06/M09 A3002 RMK SLP201

CYXE;2008-12-01 05:00;CYXE 010500Z 19005KT 15SM SKC M05/M08 A3001 RMK SLP195

CYXE;2008-12-01 06:00;CYXE 010600Z 18006KT 15SM SKC M05/M08 A2997 RMK SLP181

CYXE;2008-12-01 07:00;CYXE 010700Z 19006KT 15SM SKC M06/M08 A2994 RMK SLP169

CYXE;2008-12-01 08:00;CYXE 010800Z 16006KT 15SM BKN120 M06/M08 A2990 RMK AC6 SLP158

CYXE;2008-12-01 09:00;CYXE 010900Z 18006KT 15SM OVC080 M06/M08 A2986 RMK AC7 SLP141

CYXE;2008-12-01 10:00;CYXE 011000Z 19008KT 15SM OVC073 M05/M07 A2982 RMK AC7 SLP128

CYXE;2008-12-01 11:00;CYXE 011100Z 18011KT 15SM OVC080 M03/M05 A2976 RMK AC7 SLP109

CYXE;2008-12-01 12:00;CYXE 011200Z 19015KT 15SM BKN070 M02/M05 A2969 RMK AC3 PRESFR SLP082

CYXE;2008-12-01 13:00;CYXE 011300Z CCA 17010G15KT 15SM BKN070 M01/M04 A2963 RMK AC7 PRESFR SLP062

CYXE;2008-12-01 14:00;CYXE 011400Z 18011G18KT 15SM FEW070 BKN250 M01/M04 A2956 RMK AC2CI4 PRESFR SLP040

CYXE;2008-12-01 15:00;CYXE 011500Z 18011KT 15SM BKN100 OVC250 M01/M04 A2950 RMK AC6CI2 SLP019

CYXE;2008-12-01 16:00;CYXE 011600Z 18010KT 15SM BKN100 OVC250 M01/M04 A2946 RMK AC6CI2 SLP004

CYXE;2008-12-01 17:00;CYXE 011700Z 19008KT 15SM SCT100 OVC250 01/M04 A2943 RMK AC3CI4 SLP996

CYXE;2008-12-01 18:00;CYXE 011800Z 20010KT 15SM BKN100 OVC250 02/M03 A2938 RMK AC6CI2 SLP976

CYXE;2008-12-01 19:00;CYXE 011900Z 22007KT 15SM BKN100 OVC250 03/M02 A2935 RMK AC6CI2 SLP967

CYXE;2008-12-01 19:09;CYXE 011909Z 21005KT 15SM -RA SCT070 BKN100 OVC250 03/ RMK AC3AC3CI2

CYXE;2008-12-01 19:34;CYXE 011934Z 20006KT 15SM VCSH SCT065 BKN100 03/ RMK SC3AC3

CYXE;2008-12-01 20:00;CYXE 012000Z 21009KT 15SM FEW065 BKN100 04/M01 A2930 RMK SC2AC4 SLP951

CYXE;2008-12-01 21:00;CYXE 012100Z 24009KT 15SM FEW065 BKN110 05/01 A2927 RMK SC2AC3 SLP936

CYXE;2008-12-01 22:00;CYXE 012200Z 25006KT 15SM FEW070 BKN110 BKN160 05/01 A2927 RMK AC2AC3AC1 SLP935

CYXE;2008-12-01 23:00;CYXE 012300Z 28007KT 15SM FEW070 BKN110 BKN250 03/M00 A2929 RMK AC2AC5CI0 VIRGA ALQDS SLP941

CYXE;2008-12-02 00:00;CYXE 020000Z 31010KT 15SM BKN110 04/M01 A2929 RMK AC6 SLP943

CYXE;2008-12-02 01:00;CYXE 020100Z 28009KT 15SM BKN110 04/M03 A2929 RMK AC6 SLP941

CYXE;2008-12-02 02:00;CYXE 020200Z 31021G28KT 15SM BKN110 05/M07 A2930 RMK AC6 SLP946

CYXE;2008-12-02 03:00;CYXE 020300Z 30021G31KT 15SM BKN075 05/M07 A2931 RMK AC7 SLP946

CYXE;2008-12-02 04:00;CYXE 020400Z 30024G32KT 15SM BKN090 03/M08 A2930 RMK AC5 SLP945

CYXE;2008-12-02 05:00;CYXE 020500Z 29018G26KT 15SM OVC052 03/M08 A2932 RMK SC8 SLP950

CYXE;2008-12-02 05:42;CYXE 020542Z 30026G35KT 15SM -SHSN OVC048 02/ RMK SC8

CYXE;2008-12-02 06:00;CYXE 020600Z 30027G42KT 15SM -SHSN OVC048 02/M08 A2933 RMK SC8 SLP954

CYXE;2008-12-02 07:00;CYXE 020700Z 31026G39KT 15SM -SHSN OVC037 M01/M09 A2936 RMK SC8 SLP964

CYXE;2008-12-02 07:44;CYXE 020744Z 31022G30KT 15SM OVC038 M01/ RMK SC8

CYXE;2008-12-02 08:00;CYXE 020800Z 31019G31KT 15SM OVC036 M01/M09 A2943 RMK SC8 SLP986

CYXE;2008-12-02 09:00;CYXE 020900Z 33026G33KT 15SM BKN030 M02/M08 A2947 RMK SC6 SLP004

CYXE;2008-12-02 10:00;CYXE 021000Z 33025G31KT 15SM SCT030 M02/M08 A2951 RMK SC3 SLP014

CYXE;2008-12-02 11:00;CYXE 021100Z 34021G30KT 15SM FEW030 M03/M09 A2956 RMK SC2 SLP032

CYXE;2008-12-02 12:00;CYXE 021200Z 32017G25KT 15SM SKC M04/M10 A2961 RMK SLP052

CYXE;2008-12-02 13:00;CYXE 021300Z 33017G22KT 15SM BKN035 M04/M10 A2966 RMK SC6 SLP067

CYXE;2008-12-02 14:00;CYXE 021400Z 34024G31KT 15SM OVC033 M04/M10 A2969 RMK SC8 SLP077

CYXE;2008-12-02 14:05;CYXE 021405Z 34022G28KT 15SM -SHSN BKN033 M04/ RMK SC7

CYXE;2008-12-02 15:00;CYXE 021500Z 35019G26KT 10SM -SHSN BKN026 BKN110 M05/M09 A2974 RMK SC6AC1 SLP097

CYXE;2008-12-02 15:22;CYXE 021522Z 33017KT 15SM BKN028 BKN110 M05/ RMK SC5AC1

CYXE;2008-12-02 16:00;CYXE 021600Z 34018KT 15SM SCT023 SCT110 BKN230 M06/M12 A2979 RMK SC2AC1CI2 SLP112

CYXE;2008-12-02 17:00;CYXE 021700Z 35020KT 15SM SCT025 SCT110 M06/M12 A2984 RMK SC3AC1 PRESRR SLP129

CYXE;2008-12-02 18:00;CYXE 021800Z 34016KT 15SM SCT030 SCT110 BKN230 M04/M11 A2987 RMK SC2AC1CI1 SLP144

CYXE;2008-12-02 19:00;CYXE 021900Z 33019G24KT 15SM FEW030 FEW110 BKN230 M04/M11 A2988 RMK SC2AC1CI1 SLP148

CYXE;2008-12-02 20:00;CYXE 022000Z 34020G25KT 15SM FEW030 FEW110 SCT280 M05/M13 A2991 RMK SC1AC1CI0 SLP156

CYXE;2008-12-02 21:00;CYXE 022100Z 34018G24KT 15SM FEW030 SCT110 BKN280 M06/M15 A2995 RMK SC1AC2CI1 SLP175

CYXE;2008-12-02 22:00;CYXE 022200Z 34016G25KT 15SM FEW030 BKN070 BKN120 M06/M12 A2998 RMK SC2AC4AC1 SLP183

CYXE;2008-12-02 23:00;CYXE 022300Z 32012KT 15SM BKN031 BKN090 M06/M11 A3000 RMK SC6AC2 SLP190

CYXE;2008-12-03 00:00;CYXE 030000Z 31010G15KT 15SM BKN033 BKN088 M06/M10 A3002 RMK SC5AC2 SLP201

CYXE;2008-12-03 00:33;CYXE 030033Z 32013KT 15SM -SHSN BKN031 OVC082 M05/ RMK SC6AC2

CYXE;2008-12-03 01:00;CYXE 030100Z 32016KT 15SM -SHSN BKN031 OVC082 M05/M10 A3004 RMK SC6AC2 SLP207

CYXE;2008-12-03 01:22;CYXE 030122Z 33014KT 15SM BKN033 OVC080 M05/ RMK SC6AC2

CYXE;2008-12-03 02:00;CYXE 030200Z 33010KT 15SM -SHSN BKN029 OVC080 M05/M10 A3006 RMK SC6AC2 SLP213

CYXE;2008-12-03 03:00;CYXE 030300Z CCA 33013KT 15SM -SHSN BKN036 OVC080 M05/M10 A3007 RMK SC6AC2 SLP217

CYXE;2008-12-03 04:00;CYXE 030400Z 33010KT 15SM -SHSN OVC029 M05/M10 A3009 RMK SC8 SLP222

CYXE;2008-12-03 05:00;CYXE 030500Z 33013KT 15SM -SHSN OVC026 M07/M11 A3010 RMK SC8 SLP227

CYXE;2008-12-03 05:45;CYXE 030545Z 33008KT 8SM -SHSN OVC028 M08/ RMK SC8

CYXE;2008-12-03 06:00;CYXE 030600Z 33010KT 12SM -SHSN OVC026 M08/M11 A3012 RMK SC8 SLP234

CYXE;2008-12-03 06:39;CYXE 030639Z 33008KT 15SM SCT024 BKN100 M09/ RMK SC4AC3

CYXE;2008-12-03 07:00;CYXE 030700Z 33007KT 15SM FEW024 SCT065 OVC100 M09/M11 A3014 RMK SC2AC2AC4 SLP240

CYXE;2008-12-03 07:39;CYXE 030739Z 31006KT 8SM -SHSN OVC035 M09/ RMK SC8

CYXE;2008-12-03 08:00;CYXE 030800Z 31006KT 8SM -SHSN OVC030 M09/M11 A3014 RMK SC8 SLP242

CYXE;2008-12-03 09:00;CYXE 030900Z 33007KT 4SM -SHSN OVC019 M08/M10 A3015 RMK SC8 SLP247

CYXE;2008-12-03 09:27;CYXE 030927Z 35007KT 1 1/2SM -SHSN VV010 M08/ RMK SN8

CYXE;2008-12-03 10:00;CYXE 031000Z 35009KT 3SM -SHSN OVC010 M10/M11 A3017 RMK SC8 SLP253

CYXE;2008-12-03 10:20;CYXE 031020Z 34010KT 12SM -SHSN SCT010 BKN023 OVC088 M11/ RMK SF3SC2AC2

CYXE;2008-12-03 10:32;CYXE 031032Z 34007KT 6SM -SHSN BKN023 OVC088 M11/ RMK SC6AC2

CYXE;2008-12-03 10:40;CYXE 031040Z 34006KT 2SM -SHSN OVC023 M11/ RMK SC8

CYXE;2008-12-03 11:00;CYXE 031100Z 33007KT 4SM -SHSN OVC030 OVC080 M11/M12 A3019 RMK SC6AC2 SLP259

CYXE;2008-12-03 11:10;CYXE 031110Z 33007KT 15SM -SHSN OVC035 M11/ RMK SC8

CYXE;2008-12-03 12:00;CYXE 031200Z 34009KT 12SM -SHSN OVC032 M11/M13 A3020 RMK SC8 SLP264

CYXE;2008-12-03 12:43;CYXE 031243Z 31015KT 2SM -SHSN OVC013 M11/ RMK SC8

CYXE;2008-12-03 13:00;CYXE 031300Z 31011G16KT 1SM R09/P6000FT/N -SHSN OVC013 M12/M13 A3022 RMK SC8 SLP271

CYXE;2008-12-03 13:16;CYXE 031316Z 31012G19KT 15SM -SHSN BKN014 BKN022 M13/ RMK SF5SC2

CYXE;2008-12-03 13:50;CYXE 031350Z 32013KT 15SM OVC024 M13/ RMK SC8

CYXE;2008-12-03 14:00;CYXE 031400Z 32014KT 15SM OVC024 M13/M16 A3025 RMK SC8 SLP280

CYXE;2008-12-03 15:00;CYXE 031500Z 32010G16KT 15SM OVC030 M13/M16 A3027 RMK SC8 SLP289

CYXE;2008-12-03 15:14;CYXE 031514Z 32011KT 10SM -SN OVC030 M13/ RMK SC8

CYXE;2008-12-03 16:00;CYXE 031600Z 33016G22KT 4SM -SN OVC025 M12/M16 A3027 RMK SC8 SLP292

CYXE;2008-12-03 16:41;CYXE 031641Z 32014KT 15SM DRSN SCT020 M12/ RMK SC2

CYXE;2008-12-03 17:00;CYXE 031700Z 32013G22KT 15SM FEW020 FEW120 M12/M17 A3029 RMK SC2AC1 SLP298

CYXE;2008-12-03 18:00;CYXE 031800Z 32020KT 15SM BKN030 M12/M17 A3029 RMK SC6 SLP300

CYXE;2008-12-03 18:39;CYXE 031839Z 32017KT 12SM -SN DRSN BKN030 M12/ RMK SC7

CYXE;2008-12-03 19:00;CYXE 031900Z 32017KT 15SM DRSN FEW018 OVC030 M12/M16 A3029 RMK SC2SC5 SLP299

CYXE;2008-12-03 20:00;CYXE 032000Z 32016G24KT 15SM DRSN OVC020 M12/M17 A3029 RMK SC7 SLP300

CYXE;2008-12-03 21:00;CYXE 032100Z 32014G22KT 15SM BKN029 OVC065 M12/M17 A3030 RMK SC6SC1 SLP303

CYXE;2008-12-03 22:00;CYXE 032200Z 32015G24KT 15SM OVC029 M12/M17 A3031 RMK SC7 SLP306

CYXE;2008-12-03 23:00;CYXE 032300Z 33016KT 15SM BKN027 OVC160 M13/M17 A3032 RMK SC6AC2 SLP310

CYXE;2008-12-04 00:00;CYXE 040000Z 32017KT 15SM OVC031 M13/M17 A3034 RMK SC8 SLP317

CYXE;2008-12-04 01:00;CYXE 040100Z 32013G19KT 15SM OVC031 M13/M18 A3035 RMK SC8 SLP320

CYXE;2008-12-04 02:00;CYXE 040200Z 31010KT 15SM BKN038 M14/M18 A3035 RMK SC6 SLP321

CYXE;2008-12-04 03:00;CYXE 040300Z 32011G16KT 15SM OVC031 M13/M17 A3036 RMK SC8 SLP325

CYXE;2008-12-04 04:00;CYXE 040400Z 32013KT 15SM OVC031 M12/M17 A3037 RMK SC8 SLP329

CYXE;2008-12-04 05:00;CYXE 040500Z 32015KT 15SM OVC032 M12/M17 A3038 RMK SC8 SLP332

CYXE;2008-12-04 06:00;CYXE 040600Z 32016KT 15SM OVC032 M13/M17 A3038 RMK SC8 SLP334

CYXE;2008-12-04 07:00;CYXE 040700Z 32014G20KT 15SM OVC030 M13/M17 A3040 RMK SC8 SLP338

CYXE;2008-12-04 07:21;CYXE 040721Z 32016G21KT 15SM -SN OVC030 M13/ RMK SC8

CYXE;2008-12-04 08:00;CYXE 040800Z CCA 31012KT 15SM -SN OVC028 M13/M18 A3039 RMK SC8 SLP336

CYXE;2008-12-04 09:00;CYXE 040900Z 30011KT 15SM -SN OVC030 M13/M17 A3040 RMK SC8 SLP340

CYXE;2008-12-04 10:00;CYXE 041000Z 30012G17KT 15SM -SN OVC030 M13/M17 A3041 RMK SC8 SLP344

CYXE;2008-12-04 11:00;CYXE 041100Z 31011KT 15SM OVC028 M13/M16 A3041 RMK SC8 SLP344

CYXE;2008-12-04 12:00;CYXE 041200Z 32013KT 15SM -SN OVC028 M12/M16 A3042 RMK SC8 SLP346

CYXE;2008-12-04 13:00;CYXE 041300Z 34015KT 15SM -SN OVC028 M12/M16 A3041 RMK SC8 SLP345

CYXE;2008-12-04 14:00;CYXE 041400Z 33012KT 15SM -SN OVC028 M12/M16 A3042 RMK SC8 SLP347

CYXE;2008-12-04 14:52;CYXE 041452Z 33010KT 15SM OVC028 M12/ RMK SC8

CYXE;2008-12-04 15:00;CYXE 041500Z 33006KT 15SM OVC028 M12/M16 A3042 RMK SC8 SLP348

CYXE;2008-12-04 16:00;CYXE 041600Z 32008KT 15SM OVC030 M11/M16 A3044 RMK SC8 SLP352

CYXE;2008-12-04 17:00;CYXE 041700Z 30010KT 15SM BKN024 BKN220 M11/M16 A3042 RMK SC5CI2 SLP348

CYXE;2008-12-04 18:00;CYXE 041800Z 30011KT 15SM SCT026 BKN220 M10/M15 A3040 RMK SC2CI2 SLP338

CYXE;2008-12-04 19:00;CYXE 041900Z 28012KT 15SM SCT026 OVC220 M10/M15 A3038 RMK SC4CI2 SLP333

CYXE;2008-12-04 20:00;CYXE 042000Z 28009KT 15SM BKN026 BKN220 M11/M16 A3035 RMK SC6CI1 SLP321

CYXE;2008-12-04 21:00;CYXE 042100Z 29009KT 15SM BKN026 OVC220 M10/M16 A3032 RMK SC6CI2 SLP310

CYXE;2008-12-04 22:00;CYXE 042200Z 25011KT 15SM FEW026 OVC100 M11/M15 A3027 RMK SC2AS6 SLP296

CYXE;2008-12-04 23:00;CYXE 042300Z 24009KT 15SM OVC100 M11/M15 A3023 RMK AS8 SLP282

CYXE;2008-12-05 00:00;CYXE 050000Z 23011KT 15SM OVC120 M11/M16 A3019 RMK AS6 SLP266

CYXE;2008-12-05 01:00;CYXE 050100Z 22010KT 15SM OVC120 M12/M15 A3015 RMK AS6 SLP253

CYXE;2008-12-05 02:00;CYXE 050200Z 20011KT 15SM OVC120 M12/M16 A3007 RMK AS6 PRESFR SLP228

CYXE;2008-12-05 03:00;CYXE 050300Z 20011KT 15SM OVC120 M12/M16 A3001 RMK AC6 SLP204

CYXE;2008-12-05 04:00;CYXE 050400Z 19008G16KT 15SM OVC092 M12/M15 A2994 RMK AC6 PRESFR SLP183

CYXE;2008-12-05 05:00;CYXE 050500Z 19011KT 15SM OVC066 M11/M15 A2987 RMK SC8 PRESFR SLP158

CYXE;2008-12-05 06:00;CYXE 050600Z 20011KT 15SM -SN OVC024 M10/M14 A2983 RMK SC8 SLP140

CYXE;2008-12-05 07:00;CYXE 050700Z 20009KT 12SM -SN OVC026 M09/M12 A2975 RMK SC8 PRESFR SLP116

CYXE;2008-12-05 07:27;CYXE 050727Z 21009KT 2SM -SN OVC020 M09/ RMK SN5SC3

CYXE;2008-12-05 08:00;CYXE 050800Z 21010KT 1 1/2SM -SN VV007 M08/M10 A2969 RMK SN8 /S01/ SLP097

CYXE;2008-12-05 09:00;CYXE 050900Z 23009KT 1 1/4SM -SN VV005 M07/M09 A2966 RMK SN8 /S02/ SLP081

CYXE;2008-12-05 10:00;CYXE 051000Z 23008KT 1 1/2SM -SN VV010 M07/M08 A2961 RMK SN8 /S04/ SLP063

CYXE;2008-12-05 10:12;CYXE 051012Z 23008KT 4SM -SN BKN013 OVC030 M07/ RMK SC6SC2

CYXE;2008-12-05 11:00;CYXE 051100Z 25010KT 1 1/2SM -SN DRSN OVC013 M06/M06 A2959 RMK SN5SC3 SLP057

CYXE;2008-12-05 11:14;CYXE 051114Z 25010KT 10SM -SN DRSN OVC013 M05/ RMK SC8

CYXE;2008-12-05 11:41;CYXE 051141Z 27009KT 15SM -SN DRSN SCT013 OVC024 M05/ RMK SC3SC5

CYXE;2008-12-05 12:00;CYXE 051200Z 26009KT 15SM -SN DRSN FEW013 OVC017 M04/M05 A2956 RMK SC2SC6 SLP044

CYXE;2008-12-05 13:00;CYXE 051300Z 28007KT 15SM -SN SCT013 OVC030 M04/M05 A2956 RMK SC4SC4 SLP045

CYXE;2008-12-05 14:00;CYXE 051400Z 31009KT 15SM -SN FEW013 BKN020 OVC095 M03/M05 A2956 RMK SC2SC4AC2 SLP046

CYXE;2008-12-05 14:28;CYXE 051428Z 32009KT 15SM SCT020 BKN075 M04/ RMK SC2AC1

CYXE;2008-12-05 15:00;CYXE 051500Z 33010KT 15SM OVC015 M04/M05 A2960 RMK SC8 SLP058

CYXE;2008-12-05 16:00;CYXE 051600Z 32016G22KT 15SM OVC017 M03/M05 A2963 RMK SC8 SLP069

CYXE;2008-12-05 17:00;CYXE 051700Z 32012KT 15SM BKN020 OVC070 M03/M05 A2966 RMK SC3AC5 SLP079

CYXE;2008-12-05 18:00;CYXE 051800Z 34010KT 15SM OVC019 M03/M06 A2969 RMK SC8 SLP088

CYXE;2008-12-05 19:00;CYXE 051900Z 01011KT 15SM -SG OVC019 M03/M07 A2973 RMK SC8 SLP100

CYXE;2008-12-05 20:00;CYXE 052000Z 36013KT 15SM -SG OVC021 M05/M08 A2977 RMK SC8 SLP113

CYXE;2008-12-05 20:39;CYXE 052039Z 02011KT 10SM -SN OVC018 M05/ RMK SC8

CYXE;2008-12-05 21:00;CYXE 052100Z 02009KT 10SM -SN DRSN OVC018 M05/M08 A2979 RMK SC8 SLP122

CYXE;2008-12-05 22:00;CYXE 052200Z 01015KT 15SM -SN DRSN BKN018 BKN100 M06/M09 A2983 RMK SC5AC1 SLP135

CYXE;2008-12-05 22:28;CYXE 052228Z 01009KT 15SM SCT030 BKN100 M07/ RMK SC4AC1

CYXE;2008-12-05 23:00;CYXE 052300Z 02010KT 15SM SCT030 M09/M12 A2987 RMK SC3 SLP148

CYXE;2008-12-06 00:00;CYXE 060000Z 02011KT 15SM SCT030 BKN120 M10/M13 A2991 RMK SC3AC1 SLP165

CYXE;2008-12-06 01:00;CYXE 060100Z 35008KT 15SM FEW030 SCT120 M12/M14 A2996 RMK SC2AC1 SLP179

CYXE;2008-12-06 02:00;CYXE 060200Z 02008KT 15SM -SN BKN006 M12/M14 A2998 RMK SC4 SLP187

CYXE;2008-12-06 02:41;CYXE 060241Z 35006KT 15SM BKN018 M15/ RMK SC5

CYXE;2008-12-06 03:00;CYXE 060300Z 01008KT 15SM -SN BKN018 M13/M14 A3002 RMK SC6 SLP204

CYXE;2008-12-06 04:00;CYXE 060400Z 01006KT 15SM -SN BKN020 M12/M14 A3004 RMK SC6 SLP210

CYXE;2008-12-06 05:00;CYXE 060500Z 36004KT 15SM -SN BKN020 M12/M14 A3006 RMK SC6 SLP217

CYXE;2008-12-06 06:00;CYXE 060600Z 35006KT 15SM BKN020 M12/M14 A3009 RMK SC5 SLP227

CYXE;2008-12-06 07:00;CYXE 060700Z 01003KT 15SM FEW020 BKN090 M14/M15 A3010 RMK SC2AC5 SLP231

CYXE;2008-12-06 08:00;CYXE 060800Z 05003KT 15SM SCT020 BKN090 M15/M17 A3012 RMK SC3AC3 SLP236

CYXE;2008-12-06 09:00;CYXE 060900Z 05005KT 15SM FEW017 M17/M18 A3014 RMK SC2 SLP249

CYXE;2008-12-06 10:00;CYXE 061000Z 08007KT 15SM FEW014 M18/M19 A3014 RMK SC2 SLP248

CYXE;2008-12-06 11:00;CYXE 061100Z 09006KT 15SM BKN017 M16/M17 A3016 RMK SC6 SLP254

CYXE;2008-12-06 12:00;CYXE 061200Z 12004KT 15SM SCT017 M17/M18 A3015 RMK SC3 SLP257

CYXE;2008-12-06 13:00;CYXE 061300Z 12004KT 15SM BKN018 M16/M17 A3017 RMK SC7 SLP262

CYXE;2008-12-06 13:53;CYXE 061353Z 12004KT 15SM -SN OVC018 M15/ RMK SC8

CYXE;2008-12-06 14:00;CYXE 061400Z 13005KT 15SM -SN OVC018 M15/M16 A3017 RMK SC8 SLP263

CYXE;2008-12-06 15:00;CYXE 061500Z 12007KT 15SM -SN OVC016 M15/M16 A3016 RMK SC8 SLP258

CYXE;2008-12-06 15:35;CYXE 061535Z 13006KT 15SM -SN BKN006 OVC016 M14/ RMK SF3SC4

CYXE;2008-12-06 16:00;CYXE 061600Z 12008KT 15SM -SN SCT006 OVC016 M14/M16 A3015 RMK SF3SC5 SLP255

CYXE;2008-12-06 17:00;CYXE 061700Z 12010KT 15SM -SN BKN016 OVC080 M14/M16 A3013 RMK SC5AC2 SLP250

CYXE;2008-12-06 17:46;CYXE 061746Z 11009KT 15SM FEW015 OVC075 M14/ RMK SC2AC6

CYXE;2008-12-06 18:00;CYXE 061800Z 11008KT 15SM BKN075 OVC240 M13/M16 A3011 RMK AC5CI3 SLP242

CYXE;2008-12-06 19:00;CYXE 061900Z 14008KT 15SM FEW008 BKN074 OVC240 M13/M15 A3009 RMK SF1AC6CI2 SLP234

CYXE;2008-12-06 20:00;CYXE 062000Z 15009KT 15SM FEW017 OVC060 M12/M15 A3006 RMK SC1SC7 SLP224

CYXE;2008-12-06 21:00;CYXE 062100Z 14009KT 15SM OVC041 M12/M14 A3002 RMK SC8 SLP211

CYXE;2008-12-06 22:00;CYXE 062200Z 12012KT 3SM -SN OVC029 M12/M14 A2997 RMK SC8 SLP196

CYXE;2008-12-06 23:00;CYXE 062300Z 13012KT 3SM -SN OVC015 M12/M14 A2994 RMK SC8 SLP186

CYXE;2008-12-06 23:05;CYXE 062305Z 13011KT 2SM -SN OVC015 M12/ RMK SC8

CYXE;2008-12-07 00:00;CYXE 070000Z 14011KT 2SM -SN OVC010 M12/M13 A2991 RMK SC6 SLP174

CYXE;2008-12-07 00:37;CYXE 070037Z 13010KT 1 1/2SM -SN OVC008 M12/ RMK SC6

CYXE;2008-12-07 01:00;CYXE 070100Z 14009KT 1 1/2SM -SN VV006 M12/M13 A2988 RMK SN8 /S01/ SLP164

CYXE;2008-12-07 02:00;CYXE 070200Z 14011KT 2 1/2SM -SN OVC007 M11/M13 A2983 RMK SC6 SLP147

CYXE;2008-12-07 03:00;CYXE 070300Z 13010KT 3SM -SN OVC016 M11/M13 A2980 RMK SC8 SLP134

CYXE;2008-12-07 03:49;CYXE 070349Z 14008KT 1SM R09/P6000FT/N -SN VV007 M10/ RMK SN8

CYXE;2008-12-07 04:00;CYXE 070400Z 15009KT 1SM R09/P6000FT/U -SN VV007 M10/M12 A2977 RMK SN8 /S02/ SLP124

CYXE;2008-12-07 05:00;CYXE 070500Z 14006KT 1 1/2SM -SN VV009 M10/M11 A2974 RMK SN8 /S03/ SLP115

CYXE;2008-12-07 05:07;CYXE 070507Z 14006KT 3SM -SN OVC020 M10/ RMK SC8

CYXE;2008-12-07 06:00;CYXE 070600Z 15005KT 2 1/2SM -SN OVC020 M09/M10 A2973 RMK SN3SC5 SLP107

CYXE;2008-12-07 07:00;CYXE 070700Z 14009KT 4SM -SN BKN018 OVC050 M09/M10 A2969 RMK SC6SC2 SLP096

CYXE;2008-12-07 07:44;CYXE 070744Z 16005KT 15SM BKN014 OVC050 M08/ RMK SC6SC2

CYXE;2008-12-07 08:00;CYXE 070800Z 16004KT 15SM OVC012 M08/M09 A2968 RMK SC8 SLP091

CYXE;2008-12-07 09:00;CYXE 070900Z 17005KT 15SM OVC009 M08/M09 A2965 RMK SC8 SLP080

CYXE;2008-12-07 09:33;CYXE 070933Z 16003KT 15SM OVC007 M08/ RMK ST8

CYXE;2008-12-07 10:00;CYXE 071000Z 19003KT 15SM OVC006 M07/M09 A2965 RMK ST8 SLP077

CYXE;2008-12-07 11:00;CYXE 071100Z 21003KT 15SM OVC005 M07/M08 A2965 RMK ST8 SLP078

CYXE;2008-12-07 11:48;CYXE 071148Z 27003KT 15SM -SN OVC004 M07/ RMK ST8

CYXE;2008-12-07 12:00;CYXE 071200Z 26004KT 10SM -SN OVC004 M07/M08 A2965 RMK ST8 SLP077

CYXE;2008-12-07 13:00;CYXE 071300Z 31006KT 12SM -SN SCT004 OVC022 M07/M08 A2965 RMK ST3SC5 SLP079

CYXE;2008-12-07 14:00;CYXE 071400Z 34009KT 4SM -SN OVC024 M07/M08 A2967 RMK SC8 SLP084

CYXE;2008-12-07 15:00;CYXE 071500Z 35009KT 6SM -SN OVC024 M09/M10 A2970 RMK SC8 SLP095

CYXE;2008-12-07 16:00;CYXE 071600Z 36013KT 15SM FEW024 OVC030 M10/M12 A2973 RMK SC2SC6 SLP105

CYXE;2008-12-07 17:00;CYXE 071700Z 02013KT 15SM BKN030 M11/M14 A2976 RMK SC6 SLP114

CYXE;2008-12-07 18:00;CYXE 071800Z 01009KT 15SM FEW030 SCT230 M13/M15 A2977 RMK SC1CI1 IC SLP122

CYXE;2008-12-07 19:00;CYXE 071900Z 01011KT 15SM FEW030 FEW230 M13/M15 A2978 RMK SC1CI0 SLP125

CYXE;2008-12-07 20:00;CYXE 072000Z 02010KT 15SM FEW230 M12/M15 A2978 RMK CI1 SLP126

CYXE;2008-12-07 21:00;CYXE 072100Z 03008KT 15SM FEW230 M13/M16 A2978 RMK CI1 SLP125

CYXE;2008-12-07 22:00;CYXE 072200Z 03008KT 15SM BKN230 M13/M16 A2978 RMK CI1 SLP125

CYXE;2008-12-07 23:00;CYXE 072300Z 02006KT 15SM FEW070 BKN230 M16/M18 A2981 RMK AC1CI1 SLP133

CYXE;2008-12-08 00:00;CYXE 080000Z 07002KT 15SM FEW070 SCT230 M17/M17 A2983 RMK AC1CI0 SLP142

CYXE;2008-12-08 01:00;CYXE 080100Z 00000KT 15SM SKC M18/M19 A2985 RMK SLP149

CYXE;2008-12-08 02:00;CYXE 080200Z 34008KT 15SM SKC M21/M22 A2987 RMK SLP157

CYXE;2008-12-08 03:00;CYXE 080300Z 03002KT 15SM BKN057 M19/M20 A2987 RMK SC3 SLP161

CYXE;2008-12-08 04:00;CYXE 080400Z 32004KT 15SM BKN061 M16/M17 A2990 RMK SC5 SLP170

CYXE;2008-12-08 05:00;CYXE 080500Z 32002KT 15SM SCT046 BKN067 M15/M16 A2992 RMK SC3AC2 SLP177

CYXE;2008-12-08 05:33;CYXE 080533Z 35003KT 15SM -SN OVC045 M13/ RMK SC8

CYXE;2008-12-08 06:00;CYXE 080600Z 01003KT 15SM -SN OVC041 M13/M14 A2993 RMK SC8 SLP178

CYXE;2008-12-08 07:00;CYXE 080700Z 36006KT 15SM -SN FEW019 BKN035 OVC071 M12/M14 A2994 RMK SC2SC5AC2 SLP183

CYXE;2008-12-08 08:00;CYXE 080800Z 01007KT 15SM -SN FEW019 OVC073 M11/M13 A2996 RMK SC2AC6 SLP188

CYXE;2008-12-08 09:00;CYXE 080900Z 01009KT 15SM -SN BKN013 OVC019 M11/M13 A2998 RMK SC5SC3 SLP194

CYXE;2008-12-08 10:00;CYXE 081000Z 02010KT 15SM -SN BKN014 OVC019 M12/M14 A3001 RMK SC5SC3 SLP203

CYXE;2008-12-08 10:36;CYXE 081036Z 04010KT 15SM -SN FEW014 OVC019 M12/ RMK SC2SC6

CYXE;2008-12-08 11:00;CYXE 081100Z 02011KT 15SM -SN FEW014 OVC021 M13/M15 A3002 RMK SC2SC6 SLP209

CYXE;2008-12-08 12:00;CYXE 081200Z 03007KT 15SM -SN FEW015 OVC021 M13/M16 A3004 RMK SC1SC7 SLP219

CYXE;2008-12-08 13:00;CYXE 081300Z 03006KT 15SM -SN OVC021 M13/M15 A3006 RMK SC8 SLP226

CYXE;2008-12-08 14:00;CYXE 081400Z 03005KT 15SM -SN OVC019 M13/M15 A3008 RMK SC8 SLP233

CYXE;2008-12-08 15:00;CYXE 081500Z 04004KT 15SM -SN OVC023 M13/M15 A3009 RMK SC8 SLP240

CYXE;2008-12-08 16:00;CYXE 081600Z 07004KT 6SM -SN OVC021 M13/M15 A3011 RMK SC8 SLP246

CYXE;2008-12-08 16:13;CYXE 081613Z 07004KT 2SM -SN OVC018 M13/ RMK SC8

CYXE;2008-12-08 16:38;CYXE 081638Z 09002KT 4SM -SN BKN018 OVC038 M13/ RMK SC6SC2

CYXE;2008-12-08 17:00;CYXE 081700Z 09003KT 6SM -SN FEW018 OVC040 M13/M15 A3012 RMK SF2SC6 SLP249

CYXE;2008-12-08 17:40;CYXE 081740Z 07002KT 1 1/2SM -SN BKN010 OVC064 M13/ RMK SF5SC3

CYXE;2008-12-08 17:51;CYXE 081751Z 00000KT 2 1/2SM -SN OVC060 M13/ RMK SN2SC6

CYXE;2008-12-08 18:00;CYXE 081800Z 00000KT 2 1/2SM -SN OVC075 M12/M15 A3012 RMK SN2AC6 SLP243

CYXE;2008-12-08 19:00;CYXE 081900Z 01004KT 5SM -SN SCT028 OVC075 M12/M15 A3013 RMK SF3AC4 SLP246

CYXE;2008-12-08 20:00;CYXE 082000Z 01003KT 6SM -SN BKN019 OVC075 M12/M15 A3013 RMK SC5AC2 SLP247

CYXE;2008-12-08 21:00;CYXE 082100Z 04005KT 8SM -SN BKN020 OVC074 M13/M15 A3013 RMK SC5AC2 SLP245

CYXE;2008-12-08 22:00;CYXE 082200Z 08006KT 12SM -SN SCT040 OVC060 M13/M15 A3013 RMK SC3SC5 SLP247

CYXE;2008-12-08 23:00;CYXE 082300Z 05005KT 12SM -SN OVC049 M13/M16 A3014 RMK SC8 SLP251

CYXE;2008-12-09 00:00;CYXE 090000Z 06006KT 8SM -SN OVC047 M13/M15 A3016 RMK SC8 SLP257

CYXE;2008-12-09 00:14;CYXE 090014Z 07006KT 3SM -SN OVC048 M13/ RMK SN3SC5

CYXE;2008-12-09 01:00;CYXE 090100Z 07005KT 3SM -SN OVC024 M14/M15 A3017 RMK SC8 SLP261

CYXE;2008-12-09 01:53;CYXE 090153Z 07005KT 2SM -SN OVC019 M14/ RMK ST8

CYXE;2008-12-09 02:00;CYXE 090200Z 06005KT 2SM -SN OVC019 M14/M15 A3018 RMK ST8 SLP266

CYXE;2008-12-09 02:19;CYXE 090219Z 07005KT 1 1/2SM -SN VV009 M14/ RMK SN8

CYXE;2008-12-09 03:00;CYXE 090300Z 07005KT 2 1/2SM -SN OVC016 M14/M15 A3020 RMK ST8 /S01/ SLP273

CYXE;2008-12-09 03:32;CYXE 090332Z 06006KT 6SM -SN BKN014 OVC074 M14/ RMK ST6AC2

CYXE;2008-12-09 04:00;CYXE 090400Z 05005KT 2SM -SN BKN014 OVC074 M14/M15 A3021 RMK ST6AC2 SLP275

CYXE;2008-12-09 04:35;CYXE 090435Z 06005KT 4SM -SN OVC010 M15/ RMK ST8

CYXE;2008-12-09 05:00;CYXE 090500Z 07005KT 4SM -SN OVC024 M15/M16 A3020 RMK ST8 SLP273

CYXE;2008-12-09 06:00;CYXE 090600Z 05006KT 6SM -SN OVC044 M15/M16 A3023 RMK SC8 SLP281

CYXE;2008-12-09 07:00;CYXE 090700Z 03009KT 6SM -SN OVC021 M15/M16 A3025 RMK SC8 SLP289

CYXE;2008-12-09 08:00;CYXE 090800Z 05010KT 4SM -SN OVC023 M16/M17 A3024 RMK SC8 SLP287

CYXE;2008-12-09 09:00;CYXE 090900Z 05009KT 6SM -SN OVC049 M16/M17 A3026 RMK SC8 SLP293

CYXE;2008-12-09 10:00;CYXE 091000Z 05009KT 4SM -SN OVC048 M16/M18 A3025 RMK SC8 SLP290

CYXE;2008-12-09 11:00;CYXE 091100Z 04005KT 15SM -SN OVC056 M17/M18 A3026 RMK SC8 SLP293

CYXE;2008-12-09 11:28;CYXE 091128Z 04007KT 6SM -SN OVC037 M17/ RMK SC8

CYXE;2008-12-09 12:00;CYXE 091200Z 01008KT 15SM -SN OVC037 M17/M19 A3027 RMK SC8 SLP301

CYXE;2008-12-09 12:13;CYXE 091213Z 03011KT 2SM -SN OVC022 M17/ RMK SC8

CYXE;2008-12-09 12:24;CYXE 091224Z 05009KT 1SM R09/P6000FT/U -SN OVC022 M17/ RMK SC8

CYXE;2008-12-09 12:47;CYXE 091247Z 05010KT 4SM -SN OVC022 M17/ RMK SC8

CYXE;2008-12-09 13:00;CYXE 091300Z 05008KT 4SM -SN OVC019 M17/M19 A3027 RMK SC8 SLP301

CYXE;2008-12-09 14:00;CYXE 091400Z 06007KT 3SM -SN OVC019 M18/M19 A3028 RMK SC8 SLP303

CYXE;2008-12-09 14:49;CYXE 091449Z 05007KT 15SM BKN019 BKN250 M20/ RMK SC5CI0

CYXE;2008-12-09 15:00;CYXE 091500Z 05007KT 15SM BKN019 BKN250 M20/M21 A3029 RMK SC5CI0 SLP310

CYXE;2008-12-09 16:00;CYXE 091600Z 06007KT 3SM BR SCT017 BKN250 M21/M21 A3028 RMK SC4CI0 SLP307

CYXE;2008-12-09 16:16;CYXE 091616Z 06007KT 1/2SM R09/P6000FT/N FZFG SCT017 BKN250 M20/ RMK SC4CI0

CYXE;2008-12-09 16:41;CYXE 091641Z 06007KT 1SM R09/P6000FT/N BR SCT017 BKN250 M20/ RMK SC4CI0 VIS E 1/2

CYXE;2008-12-09 17:00;CYXE 091700Z 07007KT 1SM R09/P6000FT/N BR SCT017 BKN250 M20/M24 A3026 RMK SC4CI0 SLP300

CYXE;2008-12-09 17:42;CYXE 091742Z 07006KT 15SM FEW020 SCT250 M19/ RMK SC1CI1

CYXE;2008-12-09 18:00;CYXE 091800Z 07005KT 15SM SCT250 M19/M22 A3025 RMK CI2 SLP295

CYXE;2008-12-09 19:00;CYXE 091900Z 11006KT 15SM SCT250 M17/M22 A3023 RMK CI1 SLP287

CYXE;2008-12-09 20:00;CYXE 092000Z 12007KT 15SM FEW100 BKN250 M17/M22 A3020 RMK AC1CI2 SLP279

CYXE;2008-12-09 21:00;CYXE 092100Z 12009KT 15SM BKN250 M17/M22 A3015 RMK CI2 PRESFR SLP259

CYXE;2008-12-09 22:00;CYXE 092200Z 12009KT 15SM FEW080 BKN250 M18/M22 A3013 RMK AC1CI2 SLP252

CYXE;2008-12-09 23:00;CYXE 092300Z 14010KT 15SM BKN250 M17/M22 A3011 RMK CI2 SLP246

CYXE;2008-12-10 00:00;CYXE 100000Z 13010KT 15SM OVC076 M17/M22 A3005 RMK AC7 SLP227

CYXE;2008-12-10 01:00;CYXE 100100Z 13012KT 15SM SCT035 OVC076 M17/M22 A3000 RMK SC3AC4 SLP210

CYXE;2008-12-10 02:00;CYXE 100200Z 12010KT 15SM BKN037 OVC076 M17/M21 A2996 RMK SC6AC1 SLP198

CYXE;2008-12-10 03:00;CYXE 100300Z 13011KT 15SM OVC018 M17/M21 A2990 RMK SC8 PRESFR SLP176

CYXE;2008-12-10 04:00;CYXE 100400Z 13011KT 15SM OVC014 M17/M20 A2986 RMK SC8 SLP163

CYXE;2008-12-10 04:14;CYXE 100414Z 13010KT 10SM -SN OVC014 M16/ RMK SC8

CYXE;2008-12-10 04:44;CYXE 100444Z 13011KT 3SM -SN OVC014 M16/ RMK SC8

CYXE;2008-12-10 05:00;CYXE 100500Z 13008KT 3SM -SN OVC014 M15/M19 A2980 RMK SC8 PRESFR SLP143

CYXE;2008-12-10 05:22;CYXE 100522Z 14008KT 1SM R09/P6000FT/D -SN VV005 M15/ RMK SN8

CYXE;2008-12-10 06:00;CYXE 100600Z CCA 14007KT 1 1/2SM -SN VV006 M15/M17 A2976 RMK SN8 /S01/ TOWER OBS SLP124

CYXE;2008-12-10 06:23;CYXE 100623Z 14007KT 2SM -SN OVC110 M14/ RMK SN5AC3 TOWER OBS

CYXE;2008-12-10 06:45;CYXE 100645Z 14007KT 3SM -SN OVC110 M14/ RMK AC8

CYXE;2008-12-10 07:00;CYXE 100700Z 14006KT 3SM -SN OVC110 M14/M16 A2971 RMK AC8 SLP109

CYXE;2008-12-10 07:03;CYXE 100703Z CCA 15005KT 2SM -SN OVC110 M14/ RMK SN3AC5 TOWER OBS

CYXE;2008-12-10 07:10;CYXE 100710Z 15006KT 1 1/2SM -SN OVC019 M14/ RMK SN5SC3 TOWER OBS

CYXE;2008-12-10 07:27;CYXE 100727Z 15004KT 4SM -SN OVC026 M13/ RMK SC8

CYXE;2008-12-10 07:41;CYXE 100741Z 16003KT 1 1/2SM -SN OVC026 M13/ RMK SN4SC4 TOWER OBS

CYXE;2008-12-10 08:00;CYXE 100800Z 18003KT 4SM -SN FEW007 OVC020 M13/M15 A2969 RMK SF2SC6 SLP104

CYXE;2008-12-10 09:00;CYXE 100900Z 23005KT 10SM -SN BKN018 OVC061 M12/M13 A2969 RMK SC5SC3 SLP099

CYXE;2008-12-10 09:40;CYXE 100940Z 26005KT 15SM -SN SCT005 BKN054 M12/ RMK SF3SC3

CYXE;2008-12-10 09:54;CYXE 100954Z 25006KT 15SM FEW004 SCT042 M12/ RMK SF1SC2

CYXE;2008-12-10 10:00;CYXE 101000Z 25006KT 15SM FEW004 SCT042 M12/M14 A2969 RMK SF1SC2 SLP099

CYXE;2008-12-10 11:00;CYXE 101100Z 36006KT 15SM OVC025 M13/M15 A2974 RMK SC8 SLP116

CYXE;2008-12-10 12:00;CYXE 101200Z 29004KT 15SM OVC017 M13/M15 A2977 RMK SC8 SLP126

CYXE;2008-12-10 13:00;CYXE 101300Z 30005KT 15SM SCT023 OVC110 M14/M16 A2982 RMK SC3AC5 SLP143

CYXE;2008-12-10 14:00;CYXE 101400Z 31010KT 15SM FEW023 M14/M17 A2986 RMK SC2 SLP156

CYXE;2008-12-10 15:00;CYXE 101500Z 33009KT 15SM FEW023 M16/M19 A2990 RMK SC1 SLP174

CYXE;2008-12-10 16:00;CYXE 101600Z 34005KT 15SM SKC M18/M21 A2996 RMK SLP191

CYXE;2008-12-10 17:00;CYXE 101700Z 32003KT 15SM SKC M18/M21 A2998 RMK SLP198

CYXE;2008-12-10 18:00;CYXE 101800Z 35002KT 15SM SKC M17/M21 A3000 RMK SLP206

CYXE;2008-12-10 19:00;CYXE 101900Z 27002KT 15SM FEW110 M14/M19 A3000 RMK AC1 SLP207

CYXE;2008-12-10 20:00;CYXE 102000Z 31010KT 15SM FEW110 M13/M19 A2999 RMK AC1 SLP204

CYXE;2008-12-10 21:00;CYXE 102100Z 30006KT 15SM BKN030 M13/M18 A2999 RMK SC6 SLP200

CYXE;2008-12-10 22:00;CYXE 102200Z 31006KT 15SM OVC024 M12/M17 A3000 RMK SC8 SLP203

CYXE;2008-12-10 23:00;CYXE 102300Z 30004KT 15SM BKN024 M12/M17 A2999 RMK SC7 SLP200

CYXE;2008-12-11 00:00;CYXE 110000Z 00000KT 15SM OVC022 M12/M16 A2998 RMK SC8 SLP196

CYXE;2008-12-11 01:00;CYXE 110100Z 34002KT 15SM -SN OVC020 M12/M16 A2998 RMK SC8 SLP197

CYXE;2008-12-11 02:00;CYXE 110200Z 00000KT 15SM -SN OVC018 M12/M16 A2996 RMK SC8 SLP188

CYXE;2008-12-11 03:00;CYXE 110300Z 24002KT 15SM -SN BKN018 OVC030 M12/M15 A2995 RMK SC6SC2 SLP187

CYXE;2008-12-11 03:33;CYXE 110333Z 28003KT 15SM BKN018 OVC030 M12/ RMK SC5SC2

CYXE;2008-12-11 04:00;CYXE 110400Z 24005KT 15SM BKN018 OVC035 M12/M15 A2995 RMK SC5SC2 SLP186

CYXE;2008-12-11 05:00;CYXE 110500Z 33003KT 15SM SCT018 OVC027 M12/M14 A2997 RMK SC3SC5 SLP194

CYXE;2008-12-11 05:51;CYXE 110551Z 00000KT 15SM OVC014 M11/ RMK SC8

CYXE;2008-12-11 06:00;CYXE 110600Z 34002KT 15SM OVC014 M11/M14 A2999 RMK SC8 SLP200

CYXE;2008-12-11 07:00;CYXE 110700Z 29005KT 15SM OVC012 M11/M14 A3001 RMK SC8 SLP208

CYXE;2008-12-11 07:48;CYXE 110748Z 31011KT 15SM -SN OVC012 M10/ RMK SC8

CYXE;2008-12-11 08:00;CYXE 110800Z 31007KT 15SM -SN OVC012 M10/M12 A3001 RMK SC8 SLP209

CYXE;2008-12-11 09:00;CYXE 110900Z 02007KT 15SM -SN OVC014 M11/M13 A3004 RMK SC8 SLP214

CYXE;2008-12-11 09:51;CYXE 110951Z 04010KT 2SM -SN OVC014 M12/ RMK SN2SC6

CYXE;2008-12-11 10:00;CYXE 111000Z 03010KT 1 1/2SM -SN VV012 M13/M15 A3007 RMK SN8 SLP225

CYXE;2008-12-11 10:25;CYXE 111025Z 04007KT 8SM -SN OVC030 M14/ RMK SC8

CYXE;2008-12-11 11:00;CYXE 111100Z 04008KT 15SM -SN BKN025 OVC050 M14/M16 A3009 RMK SC6SC2 SLP230

CYXE;2008-12-11 12:00;CYXE 111200Z 03009KT 15SM -SN OVC017 M15/M18 A3012 RMK SC8 SLP245

CYXE;2008-12-11 13:00;CYXE 111300Z 05007KT 12SM -SN OVC024 M15/M18 A3013 RMK SC8 SLP247

CYXE;2008-12-11 14:00;CYXE 111400Z 06005KT 15SM -SN OVC023 M16/M19 A3013 RMK SC8 SLP248

CYXE;2008-12-11 15:00;CYXE 111500Z 08005KT 15SM -SN OVC017 M16/M19 A3014 RMK SC8 SLP251

CYXE;2008-12-11 16:00;CYXE 111600Z 08004KT 15SM -SN OVC015 M16/M19 A3014 RMK SC8 SLP253

CYXE;2008-12-11 17:00;CYXE 111700Z 19005KT 15SM -SN OVC013 M15/M17 A3013 RMK SC8 SLP249

CYXE;2008-12-11 18:00;CYXE 111800Z 18005KT 6SM -SN OVC013 M14/M17 A3011 RMK SC8 SLP241

CYXE;2008-12-11 19:00;CYXE 111900Z 19005KT 15SM -SN BKN009 OVC040 M13/M15 A3008 RMK SC6SC2 SLP232

CYXE;2008-12-11 20:00;CYXE 112000Z 20004KT 5SM -SN BKN006 OVC046 M12/M14 A3005 RMK SC6SC2 SLP221

CYXE;2008-12-11 20:21;CYXE 112021Z 19003KT 15SM -SN SCT006 BKN035 OVC090 M12/ RMK SC3SC2AC2

CYXE;2008-12-11 20:30;CYXE 112030Z 20004KT 15SM FEW006 BKN032 BKN090 M11/ RMK SC2SC2AC2

CYXE;2008-12-11 21:00;CYXE 112100Z 19003KT 15SM BKN042 BKN090 M11/M13 A3002 RMK SC6AC2 SLP208

CYXE;2008-12-11 22:00;CYXE 112200Z 19003KT 15SM BKN034 M09/M11 A3001 RMK SC5 SLP202

CYXE;2008-12-11 23:00;CYXE 112300Z 19004KT 15SM BKN046 M10/M12 A2999 RMK SC6 SLP197

CYXE;2008-12-12 00:00;CYXE 120000Z 20006KT 15SM BKN038 M09/M11 A2997 RMK SC5 SLP192

CYXE;2008-12-12 01:00;CYXE 120100Z 24009KT 15SM SCT038 M12/M12 A2995 RMK SC2 SLP185

CYXE;2008-12-12 02:00;CYXE 120200Z 24008KT 15SM FEW038 BKN250 M11/M13 A2992 RMK SC1CI0 SLP175

CYXE;2008-12-12 03:00;CYXE 120300Z 24007KT 15SM FEW040 BKN250 M11/M12 A2990 RMK SC2CI2 SLP170

CYXE;2008-12-12 04:00;CYXE 120400Z 25009KT 15SM OVC250 M10/M11 A2987 RMK CS2 SLP160

CYXE;2008-12-12 05:00;CYXE 120500Z 26009KT 15SM OVC250 M08/M10 A2985 RMK CS2 SLP153

CYXE;2008-12-12 06:00;CYXE 120600Z 24009KT 15SM FEW090 OVC250 M07/M09 A2983 RMK AC2CS3 SLP141

CYXE;2008-12-12 06:22;CYXE 120622Z 24009KT 15SM BKN080 OVC250 M07/ RMK AC6CI2

CYXE;2008-12-12 07:00;CYXE 120700Z 23008KT 15SM OVC080 M06/M08 A2979 RMK AC8 SLP129

CYXE;2008-12-12 08:00;CYXE 120800Z 21008KT 15SM OVC050 M05/M07 A2975 RMK SC8 SLP117

CYXE;2008-12-12 08:09;CYXE 120809Z 21008KT 3SM -SN OVC030 M05/ RMK SC8

CYXE;2008-12-12 09:00;CYXE 120900Z 20005KT 15SM -SN OVC030 M05/M06 A2972 RMK SC8 VIS N 3 SLP099

CYXE;2008-12-12 09:46;CYXE 120946Z 22009KT 15SM OVC020 M05/ RMK SC8

CYXE;2008-12-12 10:00;CYXE 121000Z 22008KT 15SM BKN018 OVC040 M05/M06 A2969 RMK SC5SC3 SLP092

CYXE;2008-12-12 11:00;CYXE 121100Z 25006KT 15SM BKN016 OVC050 M04/M05 A2968 RMK SC7SC1 SLP086

CYXE;2008-12-12 12:00;CYXE 121200Z 26008KT 15SM OVC018 M04/M05 A2966 RMK SC7 SLP078

CYXE;2008-12-12 13:00;CYXE 121300Z 31012G17KT 15SM DRSN OVC016 M02/M04 A2966 RMK SC7 SLP077

CYXE;2008-12-12 14:00;CYXE 121400Z 29008KT 15SM OVC018 M02/M05 A2965 RMK SC7 SLP076

CYXE;2008-12-12 15:00;CYXE 121500Z 31007KT 15SM OVC018 M03/M05 A2965 RMK SC8 SLP076

CYXE;2008-12-12 16:00;CYXE 121600Z 29008KT 15SM BKN017 M03/M05 A2965 RMK SC6 SLP075

CYXE;2008-12-12 17:00;CYXE 121700Z 31008KT 15SM OVC019 M03/M06 A2966 RMK SC8 SLP077

CYXE;2008-12-12 18:00;CYXE 121800Z 31010KT 15SM OVC015 M04/M06 A2966 RMK SC8 SLP077

CYXE;2008-12-12 19:00;CYXE 121900Z 32009KT 15SM OVC019 M04/M07 A2965 RMK SC8 SLP073

CYXE;2008-12-12 19:26;CYXE 121926Z 01008KT 15SM OVC014 M05/ RMK SC8

CYXE;2008-12-12 20:00;CYXE 122000Z 03011KT 15SM OVC013 M05/M07 A2965 RMK SC8 SLP073

CYXE;2008-12-12 21:00;CYXE 122100Z 04012KT 15SM FEW010 OVC013 M08/M09 A2966 RMK SC2SC6 SLP077

CYXE;2008-12-12 22:00;CYXE 122200Z 03011KT 15SM -SN OVC016 M09/M12 A2968 RMK SC8 SLP084

CYXE;2008-12-12 23:00;CYXE 122300Z 04010G15KT 15SM -SN OVC021 M10/M12 A2969 RMK SC8 SLP088

CYXE;2008-12-13 00:00;CYXE 130000Z 03013KT 15SM -SN OVC023 M10/M13 A2969 RMK SC8 SLP090

CYXE;2008-12-13 01:00;CYXE 130100Z 03016KT 15SM -SN OVC022 M12/M14 A2970 RMK SC8 SLP092

CYXE;2008-12-13 02:00;CYXE 130200Z 02013KT 15SM -SN OVC024 M12/M15 A2971 RMK SC8 SLP095

CYXE;2008-12-13 03:00;CYXE 130300Z 01015KT 15SM -SN BKN024 OVC031 M14/M16 A2974 RMK SC6SC2 SLP106

CYXE;2008-12-13 04:00;CYXE 130400Z 02014KT 15SM -SN BKN017 OVC024 M14/M16 A2976 RMK SC5SC3 SLP113

CYXE;2008-12-13 05:00;CYXE 130500Z 06011KT 15SM -SN OVC017 M15/M17 A2978 RMK SC8 SLP120

CYXE;2008-12-13 06:00;CYXE 130600Z 05017KT 15SM OVC020 M16/M19 A2980 RMK SC8 SLP130

CYXE;2008-12-13 07:00;CYXE 130700Z 02012G18KT 15SM -SN OVC017 M18/M20 A2983 RMK SC8 SLP138

CYXE;2008-12-13 08:00;CYXE 130800Z 02017KT 15SM SCT017 OVC040 M20/M22 A2985 RMK SC2SC5 IC SLP145

CYXE;2008-12-13 09:00;CYXE 130900Z 02017KT 15SM SCT035 BKN240 M22/M23 A2987 RMK SC2CI2 SLP162

CYXE;2008-12-13 10:00;CYXE 131000Z 02016KT 15SM FEW035 BKN240 M22/M24 A2991 RMK SC1CI2 SLP174

CYXE;2008-12-13 11:00;CYXE 131100Z 01013KT 15SM FEW010 BKN240 M23/M25 A2993 RMK SF1CI3 SLP181

CYXE;2008-12-13 12:00;CYXE 131200Z 36014KT 15SM SCT013 OVC240 M24/M30 A2996 RMK SF3CI3 SLP193

CYXE;2008-12-13 13:00;CYXE 131300Z 01016KT 15SM OVC240 M24/M30 A2997 RMK CS6 SLP198

CYXE;2008-12-13 14:00;CYXE 131400Z 01016KT 15SM OVC240 M25/M30 A3001 RMK CS4 SLP211

CYXE;2008-12-13 15:00;CYXE 131500Z 01012KT 15SM OVC240 M26/M31 A3004 RMK CS4 SLP226

CYXE;2008-12-13 16:00;CYXE 131600Z 01013KT 15SM BKN240 M27/M33 A3008 RMK CI2 SLP239

CYXE;2008-12-13 17:00;CYXE 131700Z 36015KT 15SM DRSN BKN240 M27/M33 A3012 RMK CI2 SLP254

CYXE;2008-12-13 18:00;CYXE 131800Z 36016G21KT 15SM DRSN OVC240 M27/M33 A3014 RMK CI3 SLP264

CYXE;2008-12-13 19:00;CYXE 131900Z 36017KT 15SM OVC240 M27/M33 A3014 RMK CS6 SLP262

CYXE;2008-12-13 20:00;CYXE 132000Z 35012KT 15SM DRSN OVC240 M27/M33 A3014 RMK CS6 SLP263

CYXE;2008-12-13 21:00;CYXE 132100Z 34012KT 15SM DRSN OVC240 M28/M34 A3016 RMK CS6 SLP276

CYXE;2008-12-13 22:00;CYXE 132200Z 34007KT 15SM OVC240 M28/M34 A3019 RMK CS6 SLP286

CYXE;2008-12-13 23:00;CYXE 132300Z 35007KT 15SM OVC240 M29/M34 A3021 RMK CS6 SLP291

CYXE;2008-12-14 00:00;CYXE 140000Z 34004KT 15SM BKN240 M30/M35 A3025 RMK CS3 SLP310

CYXE;2008-12-14 01:00;CYXE 140100Z 33005KT 15SM SCT240 M31/M36 A3027 RMK CS2 SLP316

CYXE;2008-12-14 02:00;CYXE 140200Z 34007KT 15SM SCT240 M30/M35 A3028 RMK CS0 SLP319

CYXE;2008-12-14 03:00;CYXE 140300Z 34005KT 15SM SCT240 M30/M35 A3030 RMK CS0 SLP329

CYXE;2008-12-14 04:00;CYXE 140400Z 30005KT 15SM FEW240 M32/M37 A3031 RMK CI0 SLP331

CYXE;2008-12-14 05:00;CYXE 140500Z 30006KT 15SM FEW240 M34/M38 A3033 RMK CI0 SLP339

CYXE;2008-12-14 06:00;CYXE 140600Z 31006KT 15SM SCT240 M35/M40 A3035 RMK CS0 SLP351

CYXE;2008-12-14 07:00;CYXE 140700Z 28006KT 15SM SCT240 M35/M39 A3036 RMK CI0 SLP355

CYXE;2008-12-14 08:00;CYXE 140800Z 31006KT 15SM SCT240 M35/M39 A3036 RMK CS1 SLP353

CYXE;2008-12-14 09:00;CYXE 140900Z 32007KT 15SM SKC M34/M39 A3036 RMK SLP354

CYXE;2008-12-14 10:00;CYXE 141000Z 30006KT 15SM SKC M35/M39 A3038 RMK SLP360

CYXE;2008-12-14 11:00;CYXE 141100Z 30005KT 15SM BKN240 M34/M38 A3038 RMK CS2 SLP359

CYXE;2008-12-14 11:33;CYXE 141133Z 30004KT 10SM OVC240 M33/ RMK CS6

CYXE;2008-12-14 12:00;CYXE 141200Z 31006KT 15SM FEW013 OVC240 M33/M37 A3038 RMK SF1CS6 SLP360

CYXE;2008-12-14 12:12;CYXE 141212Z 31006KT 10SM -SN SCT020 OVC240 M33/ RMK SC3CS5

CYXE;2008-12-14 12:29;CYXE 141229Z 31006KT 15SM FEW020 OVC240 M33/ RMK SF1CS6

CYXE;2008-12-14 13:00;CYXE 141300Z 32007KT 15SM FEW020 OVC240 M33/M38 A3038 RMK SF1CI2 SLP361

CYXE;2008-12-14 14:00;CYXE 141400Z 31007KT 15SM OVC240 M34/M38 A3037 RMK CS2 IC SLP359

CYXE;2008-12-14 15:00;CYXE 141500Z 30005KT 15SM BKN240 M34/M39 A3038 RMK CI2 IC SLP362

CYXE;2008-12-14 16:00;CYXE 141600Z 28006KT 12SM SCT240 M34/M38 A3038 RMK CI2 SLP362

CYXE;2008-12-14 17:00;CYXE 141700Z 29007KT 15SM SCT240 M33/M38 A3041 RMK CI2 SLP371

CYXE;2008-12-14 18:00;CYXE 141800Z 29010KT 15SM FEW240 M32/M37 A3040 RMK CI1 SLP371

CYXE;2008-12-14 19:00;CYXE 141900Z 29010KT 15SM FEW240 M31/M36 A3039 RMK CI0 SLP368

CYXE;2008-12-14 20:00;CYXE 142000Z 28009KT 15SM FEW240 M29/M35 A3037 RMK CI1 SLP363

CYXE;2008-12-14 21:00;CYXE 142100Z 29012KT 15SM SCT240 M29/M34 A3036 RMK CI1 SLP356

CYXE;2008-12-14 22:00;CYXE 142200Z 28011KT 15SM FEW240 M29/M35 A3036 RMK CI0 SLP355

CYXE;2008-12-14 23:00;CYXE 142300Z 28009KT 15SM FEW240 M30/M35 A3037 RMK CI0 SLP357

CYXE;2008-12-15 00:00;CYXE 150000Z 26008KT 15SM FEW240 M32/M37 A3037 RMK CI0 SLP359

CYXE;2008-12-15 01:00;CYXE 150100Z 26009KT 15SM FEW240 M32/M36 A3038 RMK CI0 SLP361

CYXE;2008-12-15 02:00;CYXE 150200Z 25006KT 15SM FEW080 FEW240 M32/M36 A3037 RMK AC1CI0 SLP359

CYXE;2008-12-15 03:00;CYXE 150300Z 27007KT 15SM FEW080 FEW240 M32/M37 A3038 RMK AC1CI0 SLP363

CYXE;2008-12-15 04:00;CYXE 150400Z 29006KT 15SM SKC M32/M36 A3038 RMK SLP363

CYXE;2008-12-15 04:31;CYXE 150431Z 28005KT 10SM SKC M31/

CYXE;2008-12-15 05:00;CYXE 150500Z 30007KT 15SM FEW240 M31/M36 A3038 RMK CI0 SLP364

CYXE;2008-12-15 06:00;CYXE 150600Z 29007KT 15SM SCT060 BKN240 M31/M36 A3039 RMK SC3CI1 SLP363

CYXE;2008-12-15 06:35;CYXE 150635Z 30007KT 15SM -SN BKN057 BKN240 M30/ RMK SC5CI1

CYXE;2008-12-15 07:00;CYXE 150700Z 31010KT 15SM -SN BKN057 BKN240 M30/M34 A3038 RMK SC5CI0 SLP362

CYXE;2008-12-15 08:00;CYXE 150800Z 29007KT 15SM FEW050 BKN240 M30/M34 A3039 RMK SF1CI1 SLP363

CYXE;2008-12-15 09:00;CYXE 150900Z 30009KT 15SM FEW240 M31/M35 A3039 RMK CI0 SLP361

CYXE;2008-12-15 10:00;CYXE 151000Z 28008KT 10SM SCT240 M31/M36 A3039 RMK CI1 SLP363

CYXE;2008-12-15 11:00;CYXE 151100Z 29006KT 10SM BKN240 M30/M35 A3040 RMK CI3 SLP367

CYXE;2008-12-15 12:00;CYXE 151200Z 27006KT 15SM SCT240 M31/M35 A3039 RMK CI2 SLP365

CYXE;2008-12-15 13:00;CYXE 151300Z 25006KT 10SM FEW050 SCT240 M31/M35 A3039 RMK SC1CI2 IC SLP363

CYXE;2008-12-15 14:00;CYXE 151400Z 25008KT 15SM FEW050 SCT240 M32/M36 A3038 RMK SC1CI1 IC SLP360

CYXE;2008-12-15 15:00;CYXE 151500Z 24007KT 15SM SCT240 M31/M36 A3038 RMK CI1 SLP362

CYXE;2008-12-15 16:00;CYXE 151600Z 25008KT 15SM BKN240 M30/M35 A3038 RMK CI2 SLP363

CYXE;2008-12-15 17:00;CYXE 151700Z 25009KT 15SM FEW200 SCT270 M29/M34 A3038 RMK CI1CI1 IC SLP363

CYXE;2008-12-15 18:00;CYXE 151800Z 25010KT 15SM FEW200 SCT270 M28/M33 A3036 RMK CI1CI1 SLP352

CYXE;2008-12-15 19:00;CYXE 151900Z 25008KT 15SM FEW200 SCT270 M27/M32 A3035 RMK CI1CI1 IC SLP347

CYXE;2008-12-15 20:00;CYXE 152000Z 25010KT 15SM BKN270 M26/M31 A3032 RMK CI2 SLP337

CYXE;2008-12-15 21:00;CYXE 152100Z 25010KT 15SM OVC270 M25/M30 A3028 RMK CI2 SLP320

CYXE;2008-12-15 22:00;CYXE 152200Z 24012G18KT 15SM BKN270 M25/M30 A3024 RMK CI2 SLP309

CYXE;2008-12-15 23:00;CYXE 152300Z 25011KT 15SM BKN270 M25/M30 A3020 RMK CI2 SLP296

CYXE;2008-12-16 00:00;CYXE 160000Z 25010KT 15SM OVC270 M25/M29 A3019 RMK CI5 SLP289

CYXE;2008-12-16 01:00;CYXE 160100Z 23011KT 15SM OVC270 M25/M29 A3015 RMK CI5 SLP278

CYXE;2008-12-16 02:00;CYXE 160200Z 24012KT 15SM SCT080 OVC270 M24/M28 A3010 RMK AC4CI1 OBS TAKEN +06 SLP261

CYXE;2008-12-16 03:00;CYXE 160300Z 25014KT 15SM BKN070 OVC270 M22/M27 A3006 RMK AC6CI2 SLP245

CYXE;2008-12-16 04:00;CYXE 160400Z 24010KT 15SM BKN030 OVC070 M22/M27 A3003 RMK SC6AC2 SLP235

CYXE;2008-12-16 05:00;CYXE 160500Z 23012KT 15SM SCT030 OVC050 M21/M26 A3000 RMK SC3SC5 SLP225

CYXE;2008-12-16 06:00;CYXE 160600Z 23015KT 15SM SCT028 OVC200 M22/M26 A2996 RMK SC3CS5 SLP207

CYXE;2008-12-16 06:12;CYXE 160612Z 23016KT 6SM -SN BKN026 OVC200 M22/ RMK SC6CS2

CYXE;2008-12-16 06:44;CYXE 160644Z 24016KT 3SM IC BKN070 OVC200 M21/ RMK AS6CS2

CYXE;2008-12-16 07:00;CYXE 160700Z 24014KT 3SM IC BKN070 OVC200 M21/M26 A2993 RMK AS6CS2 SLP196

CYXE;2008-12-16 07:15;CYXE 160715Z 24014KT 6SM IC OVC250 M21/ RMK CI2

CYXE;2008-12-16 08:00;CYXE 160800Z 24013KT 5SM IC SCT250 M22/M26 A2991 RMK CI2 SLP190

CYXE;2008-12-16 09:00;CYXE 160900Z 22009KT 6SM IC SKC M23/M27 A2988 RMK SLP177

CYXE;2008-12-16 10:00;CYXE 161000Z 22010KT 6SM IC SKC M22/M26 A2986 RMK SLP170

CYXE;2008-12-16 11:00;CYXE 161100Z 23008KT 3SM IC SKC M22/M26 A2985 RMK SLP167

CYXE;2008-12-16 11:32;CYXE 161132Z 21007KT 15SM SKC M23/

CYXE;2008-12-16 12:00;CYXE 161200Z 21007KT 15SM SKC M23/M27 A2983 RMK SLP162

CYXE;2008-12-16 13:00;CYXE 161300Z CCA 22007KT 8SM SKC M23/M26 A2983 RMK SLP161

CYXE;2008-12-16 14:00;CYXE 161400Z 23005KT 8SM SKC M23/M27 A2983 RMK SLP161

CYXE;2008-12-16 15:00;CYXE 161500Z 22007KT 15SM FEW022 SCT280 M25/M29 A2983 RMK SC2CI1 SLP158

CYXE;2008-12-16 16:00;CYXE 161600Z 25005KT 15SM SKC M26/M29 A2984 RMK SLP162

CYXE;2008-12-16 17:00;CYXE 161700Z 23003KT 15SM SKC M24/M28 A2984 RMK SLP163

CYXE;2008-12-16 18:00;CYXE 161800Z 30002KT 15SM SKC M22/M27 A2985 RMK SLP164

CYXE;2008-12-16 19:00;CYXE 161900Z 31002KT 15SM FEW280 M20/M25 A2985 RMK CI0 SLP163

CYXE;2008-12-16 20:00;CYXE 162000Z 33003KT 15SM FEW280 M20/M25 A2984 RMK CI0 SLP162

CYXE;2008-12-16 21:00;CYXE 162100Z 29003KT 15SM SKC M19/M25 A2983 RMK SLP157

CYXE;2008-12-16 22:00;CYXE 162200Z 25003KT 15SM SKC M20/M25 A2984 RMK SLP160

CYXE;2008-12-16 23:00;CYXE 162300Z 23006KT 15SM FEW240 M24/M28 A2983 RMK CI1 SLP154

CYXE;2008-12-17 00:00;CYXE 170000Z 23008KT 15SM FEW240 M26/M29 A2983 RMK CI1 SLP160

CYXE;2008-12-17 01:00;CYXE 170100Z 25006KT 15SM SKC M26/M29 A2983 RMK SLP160

CYXE;2008-12-17 02:00;CYXE 170200Z 24006KT 15SM SKC M26/M30 A2982 RMK SLP158

CYXE;2008-12-17 03:00;CYXE 170300Z 23007KT 15SM SKC M28/M32 A2983 RMK SLP164

CYXE;2008-12-17 04:00;CYXE 170400Z 21004KT 15SM SKC M26/M30 A2982 RMK SLP160

CYXE;2008-12-17 05:00;CYXE 170500Z 23005KT 15SM FEW270 M28/M32 A2982 RMK CI0 SLP160

CYXE;2008-12-17 06:00;CYXE 170600Z 21003KT 15SM SKC M27/M30 A2981 RMK SLP154

CYXE;2008-12-17 07:00;CYXE 170700Z 17004KT 15SM SKC M27/M31 A2980 RMK SLP150

CYXE;2008-12-17 08:00;CYXE 170800Z 19003KT 15SM FEW250 M27/M31 A2979 RMK CI1 SLP149

CYXE;2008-12-17 09:00;CYXE 170900Z 22002KT 15SM FEW250 M28/M32 A2981 RMK CI0 SLP153

CYXE;2008-12-17 10:00;CYXE 171000Z 23005KT 15SM FEW120 FEW250 M30/M34 A2983 RMK AC1CI0 SLP158

CYXE;2008-12-17 11:00;CYXE 171100Z 20004KT 15SM FEW120 M29/M33 A2983 RMK AC1 SLP160

CYXE;2008-12-17 11:54;CYXE 171154Z 00000KT 15SM FEW004 SCT250 M28/ RMK ST1CI0

CYXE;2008-12-17 12:00;CYXE 171200Z 00000KT 15SM SCT002 BKN250 M28/M32 A2983 RMK ST2CI2 SLP163

CYXE;2008-12-17 12:07;CYXE 171207Z 14003KT 15SM BKN002 BKN250 M28/ RMK ST5CI1

CYXE;2008-12-17 12:21;CYXE 171221Z 15003KT 15SM SCT002 BKN250 M28/ RMK ST2CI2

CYXE;2008-12-17 12:30;CYXE 171230Z 00000KT 15SM BKN002 OVC250 M27/ RMK ST5CI1

CYXE;2008-12-17 13:00;CYXE 171300Z 00000KT 15SM SCT002 BKN250 M28/M31 A2983 RMK ST2CI2 SLP165

CYXE;2008-12-17 13:32;CYXE 171332Z 03003KT 15SM SCT002 BKN250 M28/ RMK ST2CI2 IC

CYXE;2008-12-17 13:51;CYXE 171351Z 04004KT 2SM IC BKN002 OVC250 M28/ RMK ST5CI1 VIS E-SW 1

CYXE;2008-12-17 14:00;CYXE 171400Z 04005KT 2SM IC OVC003 M28/M32 A2984 RMK ST6 VIS SE 3/4 SLP167

CYXE;2008-12-17 14:38;CYXE 171438Z 07003KT 3/4SM R09/P6000FT/N IC OVC002 M27/ RMK ST2

CYXE;2008-12-17 15:00;CYXE 171500Z 07005KT 3/4SM R09/P6000FT/D IC SCT002 M27/M31 A2984 RMK ST1 SLP170

CYXE;2008-12-17 15:39;CYXE 171539Z 05005KT 1 1/2SM IC FEW002 M26/ RMK ST1

CYXE;2008-12-17 16:00;CYXE 171600Z 05006KT 2SM IC BKN250 M26/M29 A2987 RMK CI2 VIS E-SE 3/4 SLP178

CYXE;2008-12-17 16:07;CYXE 171607Z 05007KT 3SM IC OVC250 M25/ RMK CI2 VIS E-SE 1

CYXE;2008-12-17 16:34;CYXE 171634Z 05007KT 2SM IC OVC250 M25/ RMK CI2

CYXE;2008-12-17 17:00;CYXE 171700Z 06006KT 3SM IC OVC250 M24/M27 A2990 RMK CI4 SLP187

CYXE;2008-12-17 18:00;CYXE 171800Z 06007KT 8SM BKN250 M23/M26 A2990 RMK CI3 IC SLP185

CYXE;2008-12-17 19:00;CYXE 171900Z 05007KT 8SM OVC250 M22/M25 A2990 RMK CI6 IC SLP184

CYXE;2008-12-17 20:00;CYXE 172000Z 05007KT 10SM OVC250 M21/M24 A2991 RMK CI6 IC SLP188

CYXE;2008-12-17 21:00;CYXE 172100Z 04008KT 10SM SCT020 OVC250 M21/M24 A2992 RMK SC3CI5 SLP191

CYXE;2008-12-17 21:12;CYXE 172112Z 04009KT 4SM -SN BKN023 OVC250 M21/ RMK SC5CI3

CYXE;2008-12-17 22:00;CYXE 172200Z 04010KT 6SM -SN BKN031 OVC250 M20/M23 A2994 RMK SC5CI3 SLP199

CYXE;2008-12-17 23:00;CYXE 172300Z 04013KT 4SM -SN DRSN OVC042 M20/M24 A2997 RMK SC8 SLP208

CYXE;2008-12-18 00:00;CYXE 180000Z 04012KT 3SM -SN DRSN OVC018 M20/M24 A3001 RMK SC8 SLP221

CYXE;2008-12-18 01:00;CYXE 180100Z 04010KT 6SM -SN OVC041 M21/M24 A3004 RMK SC8 SLP233

CYXE;2008-12-18 01:46;CYXE 180146Z 05008KT 2SM -SN OVC018 M21/ RMK SN2SC6

CYXE;2008-12-18 02:00;CYXE 180200Z 04009KT 3SM -SN OVC016 M21/M25 A3007 RMK SN2SC6 SLP242

CYXE;2008-12-18 03:00;CYXE 180300Z 03007KT 6SM -SN OVC024 M21/M25 A3009 RMK SC8 SLP248

CYXE;2008-12-18 04:00;CYXE 180400Z 03006KT 10SM -SN OVC044 M22/M25 A3009 RMK SC8 SLP250

CYXE;2008-12-18 05:00;CYXE 180500Z 04007KT 15SM -SN BKN046 OVC095 M22/M26 A3010 RMK SC6AC2 SLP254

CYXE;2008-12-18 05:36;CYXE 180536Z 03004KT 15SM BKN045 OVC095 M22/ RMK SC5AC3

CYXE;2008-12-18 06:00;CYXE 180600Z 02003KT 15SM FEW050 OVC095 M23/M26 A3014 RMK SC2AC4 IC SLP265

CYXE;2008-12-18 07:00;CYXE 180700Z 03003KT 15SM SCT095 OVC240 M24/M27 A3016 RMK AC2CI4 IC SLP271

CYXE;2008-12-18 08:00;CYXE 180800Z 00000KT 15SM OVC240 M25/M29 A3017 RMK CI5 IC SLP275

CYXE;2008-12-18 09:00;CYXE 180900Z 34004KT 15SM SCT240 M26/M29 A3018 RMK CI2 IC SLP279

CYXE;2008-12-18 10:00;CYXE 181000Z 01002KT 15SM FEW240 M26/M30 A3018 RMK CI1 IC SLP281

CYXE;2008-12-18 10:18;CYXE 181018Z 01002KT 15SM FEW240 M27/ RMK CI1

CYXE;2008-12-18 10:55;CYXE 181055Z 03002KT 15SM BKN060 OVC250 M26/ RMK SC5CI1 IC

CYXE;2008-12-18 11:00;CYXE 181100Z 02002KT 15SM OVC050 M26/M30 A3020 RMK SC6 IC SLP287

CYXE;2008-12-18 12:00;CYXE 181200Z 07003KT 15SM OVC030 M26/M31 A3020 RMK SC6 IC SLP287

CYXE;2008-12-18 12:08;CYXE 181208Z 08003KT 3SM IC OVC030 M26/ RMK SC6

CYXE;2008-12-18 12:24;CYXE 181224Z 10004KT 12SM SCT030 BKN060 M26/ RMK SC2SC3 IC

CYXE;2008-12-18 13:00;CYXE 181300Z 09005KT 15SM SCT030 M26/M30 A3019 RMK SC2 IC SLP285

CYXE;2008-12-18 14:00;CYXE 181400Z 12004KT 15SM FEW030 FEW250 M26/M29 A3019 RMK SC1CI0 IC SLP285

CYXE;2008-12-18 15:00;CYXE 181500Z 23003KT 15SM FEW015 SCT260 M28/M32 A3020 RMK SC1CI0 SLP290

CYXE;2008-12-18 16:00;CYXE 181600Z 21004KT 10SM BKN024 OVC260 M29/M33 A3023 RMK SC5CI1 SLP298

CYXE;2008-12-18 17:00;CYXE 181700Z 17005KT 4SM IC OVC024 M25/M29 A3025 RMK SC6 SLP306

CYXE;2008-12-18 18:00;CYXE 181800Z 17004KT 12SM FEW024 FEW120 BKN260 M23/M26 A3025 RMK SC1AC1CI0 SLP304

CYXE;2008-12-18 19:00;CYXE 181900Z 16004KT 12SM FEW024 FEW120 BKN260 M23/M26 A3024 RMK SC1AC1CI0 SLP299

CYXE;2008-12-18 20:00;CYXE 182000Z 19003KT 12SM FEW024 FEW120 BKN260 M22/M26 A3023 RMK SC1AC1CI0 SLP295

CYXE;2008-12-18 21:00;CYXE 182100Z 17003KT 12SM FEW024 OVC090 M22/M25 A3021 RMK SC1AC6 SLP290

CYXE;2008-12-18 22:00;CYXE 182200Z 14002KT 6SM -SN OVC037 M21/M25 A3021 RMK ST8 SLP292

CYXE;2008-12-18 22:21;CYXE 182221Z 14003KT 3SM -SN OVC037 M21/ RMK SC8

CYXE;2008-12-18 22:38;CYXE 182238Z 09004KT 2SM -SN OVC045 M21/ RMK SC8

CYXE;2008-12-18 23:00;CYXE 182300Z 10004KT 2SM -SN OVC040 M21/M25 A3021 RMK SC8 SLP290

CYXE;2008-12-18 23:29;CYXE 182329Z 09005KT 3SM -SN OVC040 M22/ RMK SC8

CYXE;2008-12-18 23:50;CYXE 182350Z 10005KT 4SM -SN OVC013 M22/ RMK SC8

CYXE;2008-12-19 00:00;CYXE 190000Z 10005KT 4SM -SN OVC013 M22/M25 A3020 RMK SC8 SLP288

CYXE;2008-12-19 00:24;CYXE 190024Z 09005KT 6SM -SN OVC030 M22/ RMK SC8

CYXE;2008-12-19 01:00;CYXE 190100Z 11005KT 6SM -SN OVC025 M22/M26 A3021 RMK SC8 SLP290

CYXE;2008-12-19 02:00;CYXE 190200Z 12007KT 6SM -SN OVC029 M23/M27 A3021 RMK SC8 SLP292

CYXE;2008-12-19 03:00;CYXE 190300Z 12006KT 4SM -SN OVC018 M23/M27 A3021 RMK SC8 SLP293

CYXE;2008-12-19 04:00;CYXE 190400Z 10005KT 4SM -SN OVC032 M23/M27 A3021 RMK SC8 SLP294

CYXE;2008-12-19 05:00;CYXE 190500Z 12005KT 4SM -SN OVC028 M23/M27 A3022 RMK SC8 SLP295

CYXE;2008-12-19 06:00;CYXE 190600Z 12006KT 3SM -SN OVC016 M23/M27 A3022 RMK SC8 SLP292

CYXE;2008-12-19 07:00;CYXE 190700Z 12004KT 4SM -SN OVC037 M23/M28 A3020 RMK SC8 SLP287

CYXE;2008-12-19 08:00;CYXE 190800Z 07005KT 5SM -SN OVC031 M23/M27 A3018 RMK SC8 SLP279

CYXE;2008-12-19 09:00;CYXE 190900Z 06007KT 5SM -SN OVC028 M23/M27 A3017 RMK SC8 SLP276

CYXE;2008-12-19 10:00;CYXE 191000Z 06007KT 4SM -SN OVC032 M23/M27 A3018 RMK SC8 SLP279

CYXE;2008-12-19 11:00;CYXE 191100Z 07009KT 3SM -SN OVC030 M23/M27 A3016 RMK SC8 /S02/ SLP272

CYXE;2008-12-19 12:00;CYXE 191200Z 05009KT 2SM -SN OVC018 M23/M27 A3017 RMK SC8 SLP275

CYXE;2008-12-19 13:00;CYXE 191300Z 05010KT 1 1/2SM -SN DRSN VV010 M23/M27 A3015 RMK SN8 SLP269

CYXE;2008-12-19 13:19;CYXE 191319Z 05010KT 4SM -SN DRSN OVC034 M23/ RMK SC8

CYXE;2008-12-19 13:46;CYXE 191346Z 05008KT 2SM -SN DRSN OVC034 M23/ RMK SN3SC5

CYXE;2008-12-19 14:00;CYXE 191400Z 05009KT 2SM -SN DRSN OVC030 M23/M27 A3015 RMK SN3SC5 SLP268

CYXE;2008-12-19 14:50;CYXE 191450Z 05010KT 1 1/2SM -SN DRSN OVC030 M23/ RMK SN3SC5

CYXE;2008-12-19 15:00;CYXE 191500Z 05009KT 1 1/2SM -SN DRSN OVC030 M23/M27 A3014 RMK SN3SC5 SLP264

CYXE;2008-12-19 15:52;CYXE 191552Z 04010KT 3/4SM R09/4000FT/D -SN VV007 M23/ RMK SN8

CYXE;2008-12-19 16:00;CYXE 191600Z CCA 04010KT 3/4SM R09/3500FT/D -SN VV007 M23/M27 A3014 RMK SN8 /S02/ SLP266

CYXE;2008-12-19 16:44;CYXE 191644Z 03010KT 1 1/2SM -SN OVC030 M22/ RMK SN3SC5

CYXE;2008-12-19 17:00;CYXE 191700Z 03011KT 1 1/2SM -SN OVC030 M22/M27 A3016 RMK SN2SC6 SLP271

CYXE;2008-12-19 18:00;CYXE 191800Z 02011KT 1 1/2SM -SN OVC020 M22/M26 A3016 RMK SN2SC6 /S03/ SLP273

CYXE;2008-12-19 19:00;CYXE 191900Z 03009KT 1 1/2SM -SN OVC020 M22/M27 A3016 RMK SN2SC6 SLP272

CYXE;2008-12-19 20:00;CYXE 192000Z 04014KT 1 1/2SM -SN DRSN OVC016 M22/M26 A3014 RMK SN2SC6 /S01/ SLP265

CYXE;2008-12-19 20:30;CYXE 192030Z 03014KT 1 1/2SM -SN DRSN VV008 M22/ RMK SN8

CYXE;2008-12-19 21:00;CYXE 192100Z 03013G18KT 1 1/2SM -SN DRSN VV007 M22/M26 A3014 RMK SN8 SLP265

CYXE;2008-12-19 22:00;CYXE 192200Z 03012KT 1SM R09/5500FT/U -SN DRSN VV011 M21/M25 A3016 RMK SN8 SLP271

CYXE;2008-12-19 22:43;CYXE 192243Z 03011KT 2 1/2SM -SN DRSN OVC016 M22/ RMK SN2SC6

CYXE;2008-12-19 22:51;CYXE 192251Z 03010KT 4SM -SN OVC022 M22/ RMK SC5

CYXE;2008-12-19 23:00;CYXE 192300Z 03009KT 4SM -SN OVC022 M22/M26 A3017 RMK SC5 SLP273

CYXE;2008-12-20 00:00;CYXE 200000Z 02007KT 6SM -SN FEW017 BKN041 M24/M27 A3018 RMK SF2SC2 SLP281

CYXE;2008-12-20 01:00;CYXE 200100Z 36006KT 8SM -SN SCT019 BKN084 M26/M29 A3021 RMK SF3AC2 SLP289

CYXE;2008-12-20 02:00;CYXE 200200Z 35008KT 10SM -SN OVC084 M26/M30 A3022 RMK AC6 SLP291

CYXE;2008-12-20 03:00;CYXE 200300Z 34008KT 8SM -SN SCT007 OVC086 M23/M27 A3021 RMK SF4AC4 SLP291

CYXE;2008-12-20 04:00;CYXE 200400Z 34009KT 4SM -SN OVC020 M23/M26 A3022 RMK SC8 SLP294

CYXE;2008-12-20 05:00;CYXE 200500Z 35012KT 6SM -SN OVC020 M22/M26 A3022 RMK SC8 SLP294

CYXE;2008-12-20 05:21;CYXE 200521Z 35011KT 2 1/2SM -SN OVC020 M22/ RMK SC8

CYXE;2008-12-20 06:00;CYXE 200600Z 35009KT 2SM -SN DRSN OVC016 M23/M27 A3023 RMK SN3SC5 SLP297

CYXE;2008-12-20 07:00;CYXE 200700Z 35014KT 3SM -SN DRSN OVC014 M23/M27 A3024 RMK SC8 SLP298

CYXE;2008-12-20 07:44;CYXE 200744Z 35012KT 5SM -SN DRSN OVC028 M23/ RMK SC8

CYXE;2008-12-20 08:00;CYXE 200800Z 36013KT 5SM -SN DRSN OVC028 M23/M28 A3025 RMK SC8 SLP302

CYXE;2008-12-20 09:00;CYXE 200900Z 35012KT 3SM -SN DRSN OVC023 M24/M28 A3026 RMK SC8 SLP305

CYXE;2008-12-20 10:00;CYXE 201000Z 36012KT 6SM -SN DRSN OVC021 M24/M28 A3027 RMK SC8 SLP309

CYXE;2008-12-20 11:00;CYXE 201100Z 35011KT 6SM -SN DRSN OVC021 M24/M29 A3028 RMK SC8 SLP312

CYXE;2008-12-20 12:00;CYXE 201200Z 34013KT 3SM -SN DRSN OVC017 M24/M29 A3027 RMK SC8 /S01/ SLP312

CYXE;2008-12-20 13:00;CYXE 201300Z 34015KT 3SM -SN DRSN OVC019 M24/M29 A3028 RMK SC8 /S01/ SLP314

CYXE;2008-12-20 14:00;CYXE 201400Z 35015KT 2SM -SN DRSN OVC021 M24/M29 A3028 RMK SC8 SLP314

CYXE;2008-12-20 15:00;CYXE 201500Z 33009KT 2 1/2SM -SN DRSN OVC021 M24/M29 A3029 RMK SC8 SLP317

CYXE;2008-12-20 16:00;CYXE 201600Z 32011KT 4SM -SN DRSN OVC022 M25/M29 A3030 RMK SC8 SLP320

CYXE;2008-12-20 17:00;CYXE 201700Z 31011G16KT 4SM -SN DRSN OVC018 M25/M30 A3031 RMK SC8 SLP324

CYXE;2008-12-20 18:00;CYXE 201800Z 32013KT 4SM -SN DRSN BKN018 OVC240 M25/M30 A3031 RMK SC6CS2 SLP324

CYXE;2008-12-20 19:00;CYXE 201900Z 32010KT 10SM DRSN SCT022 OVC240 M25/M30 A3032 RMK SC4CS1 SLP327

CYXE;2008-12-20 20:00;CYXE 202000Z 32013KT 10SM DRSN SCT030 OVC240 M25/M30 A3031 RMK SC3CI2 SLP325

CYXE;2008-12-20 21:00;CYXE 202100Z 32013KT 10SM DRSN SCT040 BKN090 OVC240 M24/M30 A3032 RMK SC3AC2CI1 SLP330

CYXE;2008-12-20 22:00;CYXE 202200Z 31008G15KT 6SM -SN DRSN BKN024 OVC060 M24/M29 A3035 RMK SC6SC2 SLP337

CYXE;2008-12-20 23:00;CYXE 202300Z 32008KT 3SM -SN DRSN FEW020 BKN065 OVC240 M25/M29 A3038 RMK SF2AC4CI2 SLP347

CYXE;2008-12-21 00:00;CYXE 210000Z 32008KT 10SM -SN DRSN BKN015 BKN240 M26/M31 A3041 RMK SC3CI0 SLP361

CYXE;2008-12-21 00:37;CYXE 210037Z 30007KT 15SM DRSN SCT026 M28/ RMK SC3

CYXE;2008-12-21 01:00;CYXE 210100Z 31006KT 15SM FEW026 SCT240 M29/M34 A3042 RMK SC1CI1 SLP366

CYXE;2008-12-21 02:00;CYXE 210200Z 30007KT 15SM FEW240 M31/M35 A3044 RMK CI0 SLP372

CYXE;2008-12-21 03:00;CYXE 210300Z 31009KT 15SM FEW240 M31/M35 A3045 RMK CI0 SLP380

CYXE;2008-12-21 04:00;CYXE 210400Z 30009KT 15SM SKC M31/M35 A3046 RMK SLP382

CYXE;2008-12-21 05:00;CYXE 210500Z 29008KT 15SM SKC M31/M36 A3048 RMK SLP389

CYXE;2008-12-21 06:00;CYXE 210600Z 27007KT 15SM SKC M32/M36 A3049 RMK SLP395

CYXE;2008-12-21 07:00;CYXE 210700Z 26007KT 15SM SKC M34/M38 A3049 RMK SLP395

CYXE;2008-12-21 08:00;CYXE 210800Z 28008KT 15SM SKC M33/M37 A3050 RMK SLP397

CYXE;2008-12-21 09:00;CYXE 210900Z 26007KT 15SM SKC M34/M38 A3050 RMK SLP400

CYXE;2008-12-21 10:00;CYXE 211000Z 24007KT 15SM SKC M37/M41 A3051 RMK SLP401

CYXE;2008-12-21 11:00;CYXE 211100Z 24006KT 15SM SKC M37/M41 A3051 RMK SLP403

CYXE;2008-12-21 12:00;CYXE 211200Z 23007KT 15SM SKC M37/M41 A3051 RMK SLP405

CYXE;2008-12-21 13:00;CYXE 211300Z 24007KT 15SM SKC M36/M40 A3050 RMK SLP404

CYXE;2008-12-21 14:00;CYXE 211400Z 26009KT 15SM SKC M36/M40 A3050 RMK SLP402

CYXE;2008-12-21 15:00;CYXE 211500Z 23007KT 15SM SKC M36/M40 A3049 RMK SLP404

CYXE;2008-12-21 16:00;CYXE 211600Z 23006KT 15SM SKC M35/M39 A3049 RMK SLP404

CYXE;2008-12-21 17:00;CYXE 211700Z 23006KT 15SM SKC M32/M37 A3050 RMK SLP405

CYXE;2008-12-21 18:00;CYXE 211800Z 23009KT 15SM SKC M31/M35 A3049 RMK SLP399

CYXE;2008-12-21 19:00;CYXE 211900Z 23007KT 15SM SKC M30/M34 A3047 RMK SLP393

CYXE;2008-12-21 20:00;CYXE 212000Z 22005KT 15SM SKC M29/M33 A3044 RMK SLP384

CYXE;2008-12-21 21:00;CYXE 212100Z 23005KT 15SM SKC M27/M32 A3042 RMK SLP373

CYXE;2008-12-21 22:00;CYXE 212200Z 23005KT 15SM SKC M27/M32 A3039 RMK SLP364

CYXE;2008-12-21 23:00;CYXE 212300Z 23008KT 15SM FEW240 M30/M35 A3037 RMK CI0 SLP357

CYXE;2008-12-22 00:00;CYXE 220000Z 21005KT 15SM SKC M31/M35 A3035 RMK SLP354

CYXE;2008-12-22 01:00;CYXE 220100Z 22007KT 15SM SKC M32/M36 A3034 RMK SLP352

CYXE;2008-12-22 02:00;CYXE 220200Z 21005KT 15SM SKC M33/M37 A3032 RMK SLP346

CYXE;2008-12-22 03:00;CYXE 220300Z 19004KT 15SM SKC M32/M36 A3029 RMK SLP335

CYXE;2008-12-22 04:00;CYXE 220400Z 15002KT 15SM SKC M31/M35 A3027 RMK SLP327

CYXE;2008-12-22 04:52;CYXE 220452Z 00000KT 15SM BKN010 M31/ RMK ST6

CYXE;2008-12-22 04:54;CYXE 220454Z 00000KT 15SM OVC002 M31/ RMK ST8

CYXE;2008-12-22 05:00;CYXE 220500Z 16002KT 15SM BKN002 M31/M35 A3023 RMK ST6 SLP316

CYXE;2008-12-22 05:13;CYXE 220513Z 18002KT 15SM SCT002 M31/ RMK ST4

CYXE;2008-12-22 06:00;CYXE 220600Z 00000KT 15SM FEW002 M32/M36 A3022 RMK SC2 SLP305

CYXE;2008-12-22 07:00;CYXE 220700Z 07004KT 15SM FEW003 M34/M38 A3019 RMK SC1 SLP296

CYXE;2008-12-22 08:00;CYXE 220800Z 21002KT 15SM FEW003 M34/M38 A3018 RMK SC1 SLP293

CYXE;2008-12-22 09:00;CYXE 220900Z 07004KT 15SM FEW003 M35/M39 A3016 RMK SC1 SLP285

CYXE;2008-12-22 10:00;CYXE 221000Z 08004KT 15SM SCT003 M34/M38 A3015 RMK SF2 SLP282

CYXE;2008-12-22 11:00;CYXE 221100Z 09006KT 15SM FEW002 M35/M39 A3012 RMK SF1 SLP272

CYXE;2008-12-22 12:00;CYXE 221200Z 05003KT 15SM FEW002 M35/M39 A3010 RMK SF1 SLP268

CYXE;2008-12-22 13:00;CYXE 221300Z 02002KT 12SM FEW002 M35/M39 A3009 RMK SF1 SLP265

CYXE;2008-12-22 14:00;CYXE 221400Z 05005KT 10SM FEW002 M34/M38 A3007 RMK SF0 BR SLP257

CYXE;2008-12-22 14:26;CYXE 221426Z 07005KT 3SM IC BR SCT002 M34/ RMK SF0

CYXE;2008-12-22 15:00;CYXE 221500Z 06004KT 6SM IC BR SCT002 BKN240 M34/M38 A3007 RMK SF0CI1 VIS SE-SW 1 SLP255

CYXE;2008-12-22 16:00;CYXE 221600Z 04003KT 10SM FEW002 SCT100 BKN240 M33/M37 A3007 RMK SF0AC3CI0 BR SLP255

CYXE;2008-12-22 16:44;CYXE 221644Z 00000KT 2SM IC BR FEW002 BKN240 M33/ RMK SF1CI3

CYXE;2008-12-22 16:53;CYXE 221653Z 00000KT 3/4SM R09/P6000FT/N IC BR BKN240 M32/ RMK CI4

CYXE;2008-12-22 17:00;CYXE 221700Z 00000KT 1/2SM R09/P6000FT/N IC FG BKN240 M32/M36 A3007 RMK CI4 SLP255

CYXE;2008-12-22 17:12;CYXE 221712Z 07002KT 3/4SM R09/P6000FT/N IC BR BKN240 M32/ RMK CI4

CYXE;2008-12-22 17:20;CYXE 221720Z 00000KT 2SM IC BR BKN240 M32/ RMK CI4

CYXE;2008-12-22 18:00;CYXE 221800Z 32002KT 3SM IC BR BKN240 M31/M35 A3005 RMK CI4 SLP246

CYXE;2008-12-22 19:00;CYXE 221900Z 01004KT 6SM IC BR BKN240 M30/M34 A3004 RMK CI2 SLP242

CYXE;2008-12-22 20:00;CYXE 222000Z 03004KT 15SM BKN240 M27/M31 A3000 RMK CI2 SLP231

CYXE;2008-12-22 21:00;CYXE 222100Z 03003KT 15SM BKN240 M25/M29 A2998 RMK CI2 SLP222

CYXE;2008-12-22 22:00;CYXE 222200Z 00000KT 15SM BKN240 M25/M29 A2999 RMK CI1 SLP225

CYXE;2008-12-22 23:00;CYXE 222300Z 00000KT 8SM SCT240 M26/M30 A2999 RMK CI2 IC SLP224

CYXE;2008-12-23 00:00;CYXE 230000Z 32006KT 15SM SCT240 M30/M34 A2998 RMK CI2 IC SLP224

CYXE;2008-12-23 01:00;CYXE 230100Z 29006KT 15SM FEW240 M31/M35 A2998 RMK CI1 IC SLP224

CYXE;2008-12-23 02:00;CYXE 230200Z 30005KT 15SM SKC M32/M36 A2997 RMK SLP221

CYXE;2008-12-23 03:00;CYXE 230300Z 28005KT 15SM SKC M34/M38 A2996 RMK SLP220

CYXE;2008-12-23 04:00;CYXE 230400Z 28004KT 15SM SKC M33/M37 A2995 RMK SLP216

CYXE;2008-12-23 05:00;CYXE 230500Z 28004KT 15SM SKC M34/M38 A2995 RMK SLP216

CYXE;2008-12-23 06:00;CYXE 230600Z 25006KT 15SM SKC M34/M38 A2995 RMK SLP214

CYXE;2008-12-23 07:00;CYXE 230700Z 25007KT 15SM SKC M33/M37 A2995 RMK SLP213

CYXE;2008-12-23 08:00;CYXE 230800Z 26005KT 15SM SKC M34/M38 A2993 RMK SLP209

CYXE;2008-12-23 09:00;CYXE 230900Z 25007KT 15SM SKC M34/M38 A2992 RMK SLP198

CYXE;2008-12-23 10:00;CYXE 231000Z 26007KT 15SM SKC M34/M39 A2991 RMK SLP196

CYXE;2008-12-23 11:00;CYXE 231100Z 26007KT 15SM SKC M35/M39 A2990 RMK SLP192

CYXE;2008-12-23 12:00;CYXE 231200Z 23007KT 15SM SKC M35/M39 A2988 RMK SLP189

CYXE;2008-12-23 13:00;CYXE 231300Z 23007KT 15SM SKC M35/M39 A2986 RMK SLP184

CYXE;2008-12-23 14:00;CYXE 231400Z 24007KT 15SM SKC M34/M38 A2986 RMK SLP182

CYXE;2008-12-23 15:00;CYXE 231500Z 23007KT 15SM SKC M34/M39 A2985 RMK SLP181

CYXE;2008-12-23 16:00;CYXE 231600Z 23006KT 15SM SKC M33/M38 A2984 RMK SLP178

CYXE;2008-12-23 17:00;CYXE 231700Z 23005KT 15SM SKC M31/M35 A2984 RMK SLP178

CYXE;2008-12-23 18:00;CYXE 231800Z 22006KT 15SM SKC M30/M34 A2983 RMK SLP173

CYXE;2008-12-23 19:00;CYXE 231900Z 24006KT 15SM SKC M28/M32 A2982 RMK IC SLP167

CYXE;2008-12-23 20:00;CYXE 232000Z 23008KT 15SM SKC M27/M31 A2979 RMK IC SLP159

CYXE;2008-12-23 21:00;CYXE 232100Z 24009KT 15SM SKC M26/M30 A2979 RMK IC SLP155

CYXE;2008-12-23 22:00;CYXE 232200Z 23007KT 15SM SKC M26/M30 A2978 RMK IC SLP151

CYXE;2008-12-23 23:00;CYXE 232300Z 21007KT 15SM SKC M28/M32 A2977 RMK IC SLP149

CYXE;2008-12-24 00:00;CYXE 240000Z 20006KT 15SM SKC M27/M31 A2976 RMK SLP146

CYXE;2008-12-24 01:00;CYXE 240100Z 21007KT 15SM SKC M28/M32 A2975 RMK IC SLP144

CYXE;2008-12-24 02:00;CYXE 240200Z 22008KT 15SM SKC M28/M32 A2974 RMK SLP139

CYXE;2008-12-24 03:00;CYXE 240300Z 20006KT 15SM SKC M28/M32 A2972 RMK SLP134

CYXE;2008-12-24 04:00;CYXE 240400Z 18004KT 15SM BKN099 M28/M32 A2971 RMK AC2 SLP130

CYXE;2008-12-24 05:00;CYXE 240500Z 19006KT 15SM OVC089 M25/M29 A2970 RMK AC6 SLP126

CYXE;2008-12-24 05:17;CYXE 240517Z 19006KT 15SM FEW007 OVC089 M25/ RMK SF2AS6

CYXE;2008-12-24 06:00;CYXE 240600Z 19006KT 15SM OVC090 M25/M29 A2969 RMK AC8 SLP115

CYXE;2008-12-24 07:00;CYXE 240700Z 19005KT 15SM OVC090 M24/M27 A2966 RMK AC8 SLP108

CYXE;2008-12-24 08:00;CYXE 240800Z 16003KT 15SM OVC085 M23/M27 A2965 RMK AC8 SLP102

CYXE;2008-12-24 09:00;CYXE 240900Z 15002KT 15SM BKN085 M22/M26 A2963 RMK AC7 SLP093

CYXE;2008-12-24 10:00;CYXE 241000Z 16003KT 15SM SCT085 M23/M27 A2963 RMK AC3 SLP092

CYXE;2008-12-24 11:00;CYXE 241100Z 19004KT 15SM SCT090 M24/M28 A2961 RMK AC3 SLP086

CYXE;2008-12-24 12:00;CYXE 241200Z 00000KT 15SM SCT090 M25/M29 A2960 RMK AC4 SLP085

CYXE;2008-12-24 13:00;CYXE 241300Z 00000KT 15SM BKN090 M26/M30 A2960 RMK AC6 SLP083

CYXE;2008-12-24 14:00;CYXE 241400Z 07003KT 15SM BKN085 M25/M29 A2959 RMK AC5 SLP082

CYXE;2008-12-24 15:00;CYXE 241500Z 22002KT 15SM FEW085 M26/M30 A2959 RMK AC2 SLP081

CYXE;2008-12-24 16:00;CYXE 241600Z 28002KT 15SM FEW085 FEW250 M28/M31 A2960 RMK AC1CI0 SLP083

CYXE;2008-12-24 17:00;CYXE 241700Z 21002KT 15SM SCT250 M24/M27 A2960 RMK CI1 SLP085

CYXE;2008-12-24 18:00;CYXE 241800Z 00000KT 15SM FEW250 M22/M26 A2959 RMK CI0 SLP077

CYXE;2008-12-24 19:00;CYXE 241900Z 18004KT 15SM FEW250 M21/M25 A2958 RMK CI0 SLP075

CYXE;2008-12-24 20:00;CYXE 242000Z 21004KT 15SM FEW250 M20/M26 A2957 RMK CI0 SLP072

CYXE;2008-12-24 21:00;CYXE 242100Z 20004KT 15SM FEW250 M20/M25 A2956 RMK CI0 SLP063

CYXE;2008-12-24 22:00;CYXE 242200Z 21005KT 15SM BKN250 M21/M26 A2956 RMK CI1 SLP065

CYXE;2008-12-24 23:00;CYXE 242300Z 19005KT 15SM FEW100 BKN250 M23/M27 A2957 RMK AC1CI1 SLP068

CYXE;2008-12-25 00:00;CYXE 250000Z 20005KT 15SM FEW100 SCT250 M23/M28 A2958 RMK AC1CI0 SLP074

CYXE;2008-12-25 01:00;CYXE 250100Z 16004KT 15SM FEW250 M24/M27 A2956 RMK CI0 SLP068

CYXE;2008-12-25 02:00;CYXE 250200Z 16003KT 15SM SKC M24/M27 A2955 RMK SLP065

CYXE;2008-12-25 03:00;CYXE 250300Z 16006KT 15SM FEW040 M23/M27 A2953 RMK SF2 SLP057

CYXE;2008-12-25 04:00;CYXE 250400Z 10003KT 15SM SKC M23/M26 A2952 RMK SLP054

CYXE;2008-12-25 05:00;CYXE 250500Z 00000KT 15SM FEW040 M26/M30 A2953 RMK SF0 SLP058

CYXE;2008-12-25 06:00;CYXE 250600Z 06008KT 15SM SKC M26/M29 A2951 RMK SLP051

CYXE;2008-12-25 07:00;CYXE 250700Z 07004KT 15SM SKC M27/M30 A2952 RMK SLP052

CYXE;2008-12-25 08:00;CYXE 250800Z 07002KT 15SM SKC M27/M31 A2951 RMK SLP051

CYXE;2008-12-25 09:00;CYXE 250900Z 08003KT 15SM SKC M28/M32 A2952 RMK SLP053

CYXE;2008-12-25 10:00;CYXE 251000Z 07006KT 15SM SKC M29/M33 A2951 RMK SLP050

CYXE;2008-12-25 10:16;CYXE 251016Z 06007KT 15SM SKC M29/

CYXE;2008-12-25 11:00;CYXE 251100Z 09004KT 15SM SKC M28/M32 A2950 RMK SLP047

CYXE;2008-12-25 12:00;CYXE 251200Z 07005KT 15SM SCT250 M27/M31 A2946 RMK CI1 SLP035

CYXE;2008-12-25 13:00;CYXE 251300Z 08002KT 15SM SCT250 M27/M31 A2947 RMK CI1 SLP039

CYXE;2008-12-25 14:00;CYXE 251400Z 07003KT 15SM BKN091 M24/M28 A2947 RMK AC6 SLP039

CYXE;2008-12-25 15:00;CYXE 251500Z 08007KT 15SM SCT090 M26/M29 A2946 RMK AC3 SLP033

CYXE;2008-12-25 16:00;CYXE 251600Z 05005KT 15SM FEW090 SCT250 M25/M29 A2945 RMK AC2CI1 SLP031

CYXE;2008-12-25 17:00;CYXE 251700Z 09005KT 15SM FEW090 SCT250 M25/M28 A2947 RMK AC2CI1 SLP037

CYXE;2008-12-25 18:00;CYXE 251800Z 04007KT 15SM SCT090 BKN250 M23/M27 A2946 RMK AC3CI1 SLP034

CYXE;2008-12-25 19:00;CYXE 251900Z 05005KT 15SM SCT090 BKN250 M21/M25 A2946 RMK AC4CI2 SLP033

CYXE;2008-12-25 20:00;CYXE 252000Z 06005KT 15SM BKN110 OVC250 M20/M24 A2945 RMK AC5CI2 SLP031

CYXE;2008-12-25 21:00;CYXE 252100Z 04008KT 15SM BKN100 OVC250 M19/M23 A2945 RMK AC5CI2 SLP027

CYXE;2008-12-25 22:00;CYXE 252200Z 03007KT 15SM FEW040 BKN100 OVC250 M18/M22 A2946 RMK SC2AC5CI1 SLP030

CYXE;2008-12-25 23:00;CYXE 252300Z 36006KT 15SM FEW030 BKN110 BKN250 M19/M22 A2948 RMK SC2AC4CI1 SLP037

CYXE;2008-12-26 00:00;CYXE 260000Z 04007KT 15SM FEW030 BKN110 BKN250 M19/M23 A2948 RMK SC1AC4CI1 SLP040

CYXE;2008-12-26 01:00;CYXE 260100Z 03004KT 15SM SCT032 M20/M23 A2951 RMK SC3 SLP049

CYXE;2008-12-26 02:00;CYXE 260200Z 36004KT 15SM BKN240 M22/M25 A2951 RMK CI2 SLP049

CYXE;2008-12-26 03:00;CYXE 260300Z 35003KT 15SM FEW110 BKN240 M22/M26 A2953 RMK AC1CI2 SLP056

CYXE;2008-12-26 04:00;CYXE 260400Z 32009KT 15SM BKN240 M22/M25 A2956 RMK CI2 SLP066

CYXE;2008-12-26 05:00;CYXE 260500Z 33008KT 15SM BKN240 M22/M25 A2958 RMK CI3 SLP072

CYXE;2008-12-26 06:00;CYXE 260600Z 35007KT 15SM FEW020 BKN240 M21/M25 A2959 RMK SC2CI2 SLP074

CYXE;2008-12-26 06:32;CYXE 260632Z 36007KT 15SM BKN015 M21/ RMK SC6

CYXE;2008-12-26 07:00;CYXE 260700Z 34006KT 15SM FEW015 M21/M24 A2961 RMK SC1 SLP080

CYXE;2008-12-26 08:00;CYXE 260800Z 33006KT 15SM FEW015 M21/M25 A2962 RMK SC2 SLP086

CYXE;2008-12-26 09:00;CYXE 260900Z 34004KT 15SM BKN011 M21/M24 A2963 RMK SC6 SLP086

CYXE;2008-12-26 09:47;CYXE 260947Z 02008KT 15SM OVC008 M19/ RMK SC8

CYXE;2008-12-26 10:00;CYXE 261000Z 02007KT 15SM -SN OVC008 M19/M22 A2965 RMK SC8 SLP090

CYXE;2008-12-26 10:21;CYXE 261021Z 36004KT 15SM -SN OVC012 M19/ RMK SC8

CYXE;2008-12-26 11:00;CYXE 261100Z 30007KT 15SM -SN OVC012 M20/M24 A2968 RMK SC8 SLP101

CYXE;2008-12-26 12:00;CYXE 261200Z 30008KT 15SM OVC016 M21/M25 A2969 RMK SC8 SLP106

CYXE;2008-12-26 13:00;CYXE 261300Z 30010KT 15SM FEW016 BKN040 M21/M25 A2971 RMK ST2SC5 SLP112

CYXE;2008-12-26 14:00;CYXE 261400Z 31008KT 15SM OVC040 M22/M26 A2974 RMK SC8 SLP122

CYXE;2008-12-26 15:00;CYXE 261500Z 31009KT 15SM FEW040 BKN110 OVC250 M22/M26 A2976 RMK SC2AC4CI1 SLP133

CYXE;2008-12-26 16:00;CYXE 261600Z 32007KT 15SM BKN100 BKN250 M22/M26 A2977 RMK AC5CI2 SLP137

CYXE;2008-12-26 17:00;CYXE 261700Z 30005KT 15SM BKN095 OVC250 M22/M26 A2980 RMK AC6CI2 SLP147

CYXE;2008-12-26 18:00;CYXE 261800Z 29007KT 15SM SCT100 OVC250 M21/M26 A2981 RMK AC3CI2 SLP150

CYXE;2008-12-26 19:00;CYXE 261900Z 30010KT 15SM SCT085 BKN250 M21/M26 A2981 RMK AC2CI3 SLP149

CYXE;2008-12-26 20:00;CYXE 262000Z 29007KT 15SM FEW090 SCT250 M22/M27 A2981 RMK AC1CI1 SLP148

CYXE;2008-12-26 21:00;CYXE 262100Z 28006KT 15SM FEW120 M22/M27 A2981 RMK AC1 SLP149

CYXE;2008-12-26 22:00;CYXE 262200Z 29004KT 15SM FEW140 M22/M27 A2981 RMK AC1 SLP148

CYXE;2008-12-26 23:00;CYXE 262300Z 27005KT 15SM FEW140 M24/M29 A2982 RMK AC1 SLP153

CYXE;2008-12-27 00:00;CYXE 270000Z 26008KT 15SM FEW140 M25/M29 A2982 RMK AC1 SLP156

CYXE;2008-12-27 01:00;CYXE 270100Z 24006KT 15SM SKC M26/M30 A2981 RMK SLP152

CYXE;2008-12-27 02:00;CYXE 270200Z 23006KT 15SM SKC M27/M31 A2981 RMK SLP151

CYXE;2008-12-27 03:00;CYXE 270300Z 21005KT 15SM SKC M27/M31 A2979 RMK SLP146

CYXE;2008-12-27 04:00;CYXE 270400Z 21006KT 15SM SKC M28/M31 A2977 RMK SLP140

CYXE;2008-12-27 05:00;CYXE 270500Z 19004KT 15SM SKC M27/M31 A2975 RMK SLP134

CYXE;2008-12-27 06:00;CYXE 270600Z 19005KT 15SM SKC M27/M31 A2973 RMK SLP127

CYXE;2008-12-27 07:00;CYXE 270700Z 18004KT 15SM SKC M28/M31 A2970 RMK LCL FU S DRFT NE SLP117

CYXE;2008-12-27 08:00;CYXE 270800Z 19004KT 15SM SKC M27/M31 A2967 RMK LCL FU S DRFT NE SLP107

CYXE;2008-12-27 09:00;CYXE 270900Z 17003KT 15SM SKC M27/M31 A2965 RMK SLP100

CYXE;2008-12-27 10:00;CYXE 271000Z 11007KT 15SM SKC M25/M29 A2962 RMK SLP090

CYXE;2008-12-27 11:00;CYXE 271100Z 12006KT 15SM SKC M25/M29 A2958 RMK SLP077

CYXE;2008-12-27 12:00;CYXE 271200Z 13007KT 15SM SKC M22/M26 A2954 RMK SLP060

CYXE;2008-12-27 13:00;CYXE 271300Z 15005KT 15SM SKC M22/M26 A2952 RMK SLP055

CYXE;2008-12-27 14:00;CYXE 271400Z 15006KT 15SM BKN100 M21/M24 A2950 RMK AC7 SLP047

CYXE;2008-12-27 15:00;CYXE 271500Z 17003KT 15SM BKN110 BKN250 M21/M24 A2949 RMK AC4CI1 SLP044

CYXE;2008-12-27 16:00;CYXE 271600Z 00000KT 15SM BKN110 BKN250 M21/M25 A2948 RMK AC3CI1 SLP041

CYXE;2008-12-27 17:00;CYXE 271700Z 17004KT 15SM BKN110 M18/M22 A2947 RMK AC6 SLP038

CYXE;2008-12-27 18:00;CYXE 271800Z 17002KT 15SM BKN110 BKN250 M17/M21 A2946 RMK AC5CI2 SLP030

CYXE;2008-12-27 19:00;CYXE 271900Z 19005KT 15SM BKN100 BKN250 M15/M20 A2944 RMK AC5CI2 SLP025

CYXE;2008-12-27 20:00;CYXE 272000Z 19004KT 15SM BKN100 BKN250 M15/M20 A2943 RMK AC5CI2 SLP022

CYXE;2008-12-27 21:00;CYXE 272100Z 19003KT 15SM SCT100 BKN250 M15/M19 A2944 RMK AC2CI2 SLP020

CYXE;2008-12-27 22:00;CYXE 272200Z 19002KT 15SM SCT100 BKN280 M16/M20 A2945 RMK AC2CI2 SLP023

CYXE;2008-12-27 23:00;CYXE 272300Z 27004KT 15SM SCT120 BKN280 M18/M22 A2947 RMK AC2CI2 SLP031

CYXE;2008-12-28 00:00;CYXE 280000Z 25003KT 15SM SCT120 BKN280 M19/M23 A2948 RMK AC2CI2 SLP035

CYXE;2008-12-28 01:00;CYXE 280100Z 24003KT 15SM FEW120 BKN280 M19/M23 A2949 RMK AC2CI1 SLP038

CYXE;2008-12-28 02:00;CYXE 280200Z 23005KT 15SM FEW120 BKN280 M19/M23 A2950 RMK AC2CI1 SLP042

CYXE;2008-12-28 03:00;CYXE 280300Z 23006KT 15SM BKN280 M19/M23 A2951 RMK CI2 SLP044

CYXE;2008-12-28 04:00;CYXE 280400Z 26003KT 15SM SCT280 M19/M23 A2952 RMK CI1 SLP046

CYXE;2008-12-28 05:00;CYXE 280500Z 00000KT 15SM FEW100 SCT280 M20/M23 A2952 RMK AC1CI0 SLP049

CYXE;2008-12-28 06:00;CYXE 280600Z 22003KT 15SM FEW100 SCT280 M21/M24 A2953 RMK AC1CI1 SLP051

CYXE;2008-12-28 07:00;CYXE 280700Z 24004KT 15SM SKC M20/M23 A2954 RMK SLP054

CYXE;2008-12-28 08:00;CYXE 280800Z 25003KT 15SM SCT100 M20/M24 A2956 RMK AC3 SLP061

CYXE;2008-12-28 09:00;CYXE 280900Z 00000KT 15SM BKN098 M19/M22 A2956 RMK AC6 SLP058

CYXE;2008-12-28 10:00;CYXE 281000Z 00000KT 15SM BKN062 OVC100 M15/M19 A2959 RMK SC6AC2 SLP066

CYXE;2008-12-28 11:00;CYXE 281100Z 35002KT 15SM OVC062 M14/M18 A2960 RMK SC8 SLP069

CYXE;2008-12-28 11:48;CYXE 281148Z 36002KT 15SM -SN OVC069 M13/ RMK AC8

CYXE;2008-12-28 12:00;CYXE 281200Z 00000KT 12SM -SN OVC069 M13/M16 A2960 RMK AC8 SLP070

CYXE;2008-12-28 13:00;CYXE 281300Z 23003KT 6SM -SN OVC051 M12/M15 A2960 RMK SC8 SLP070

CYXE;2008-12-28 14:00;CYXE 281400Z 03004KT 6SM -SN FEW020 OVC050 M12/M14 A2959 RMK SC2SC6 SLP066

CYXE;2008-12-28 15:00;CYXE 281500Z 20003KT 3SM -SN VV014 M11/M12 A2961 RMK SN8 SLP071

CYXE;2008-12-28 15:23;CYXE 281523Z 00000KT 1 1/2SM -SN VV006 M11/ RMK SN8

CYXE;2008-12-28 16:00;CYXE 281600Z 27002KT 3/4SM R09/5000FT/D -SN VV008 M10/M11 A2964 RMK SN8 SLP082

CYXE;2008-12-28 16:44;CYXE 281644Z 00000KT 1 1/4SM -SN VV010 M10/ RMK SN8

CYXE;2008-12-28 17:00;CYXE 281700Z 07003KT 2SM -SN VV010 M10/M11 A2967 RMK SN8 /S01/ SLP090

CYXE;2008-12-28 18:00;CYXE 281800Z 04009KT 2 1/2SM -SN OVC015 M08/M09 A2967 RMK SN3SC5 SLP093

CYXE;2008-12-28 18:33;CYXE 281833Z 03009KT 4SM -SN BKN012 OVC055 M08/ RMK SC5SC2

CYXE;2008-12-28 19:00;CYXE 281900Z 03010KT 3SM -SN BKN012 OVC045 M08/M10 A2968 RMK SN2SC3SC2 SLP095

CYXE;2008-12-28 19:42;CYXE 281942Z 04011KT 15SM BKN040 OVC100 M09/ RMK SC6AC2

CYXE;2008-12-28 20:00;CYXE 282000Z 03012KT 15SM OVC045 M09/M12 A2969 RMK SC7 SLP099

CYXE;2008-12-28 21:00;CYXE 282100Z CCA 02010KT 15SM OVC060 M10/M13 A2972 RMK SC7 SLP109

CYXE;2008-12-28 22:00;CYXE 282200Z 02010KT 15SM SCT080 BKN140 M11/M15 A2976 RMK AC3AC2 SLP120

CYXE;2008-12-28 23:00;CYXE 282300Z 01011KT 15SM SCT080 BKN240 M13/M17 A2979 RMK AC3CI1 SLP131

CYXE;2008-12-29 00:00;CYXE 290000Z 01011KT 15SM FEW080 BKN240 M15/M17 A2983 RMK AC2CI1 SLP144

CYXE;2008-12-29 01:00;CYXE 290100Z 36009KT 15SM FEW240 M17/M19 A2987 RMK CI0 SLP160

CYXE;2008-12-29 02:00;CYXE 290200Z 33008KT 15SM FEW240 M20/M21 A2992 RMK CI0 SLP173

CYXE;2008-12-29 03:00;CYXE 290300Z 31007KT 15SM FEW240 M20/M21 A2996 RMK CI0 SLP194

CYXE;2008-12-29 04:00;CYXE 290400Z 31007KT 15SM SKC M22/M22 A3001 RMK SLP208

CYXE;2008-12-29 05:00;CYXE 290500Z 31008KT 15SM SKC M23/M24 A3004 RMK SLP218

CYXE;2008-12-29 06:00;CYXE 290600Z 30008KT 15SM SKC M25/M26 A3006 RMK SLP229

CYXE;2008-12-29 07:00;CYXE 290700Z 27007KT 15SM SKC M26/M34 A3009 RMK SLP237

CYXE;2008-12-29 08:00;CYXE 290800Z 28006KT 15SM SKC M27/M32 A3009 RMK SLP240

CYXE;2008-12-29 09:00;CYXE 290900Z 24007KT 15SM SKC M28/M32 A3013 RMK SLP255

CYXE;2008-12-29 10:00;CYXE 291000Z 29005KT 15SM SKC M28/M32 A3014 RMK SLP260

CYXE;2008-12-29 11:00;CYXE 291100Z 25006KT 15SM SKC M30/M34 A3016 RMK SLP265

CYXE;2008-12-29 12:00;CYXE 291200Z 27003KT 15SM SKC M30/M34 A3016 RMK SLP272

CYXE;2008-12-29 13:00;CYXE 291300Z 00000KT 15SM SKC M29/M32 A3016 RMK SLP271

CYXE;2008-12-29 14:00;CYXE 291400Z 00000KT 15SM SKC M29/M33 A3016 RMK SLP270

CYXE;2008-12-29 15:00;CYXE 291500Z 19004KT 15SM FEW240 M29/M33 A3018 RMK CI1 SLP281

CYXE;2008-12-29 16:00;CYXE 291600Z 17002KT 15SM BKN085 BKN240 M28/M32 A3018 RMK AC5CI0 SLP283

CYXE;2008-12-29 17:00;CYXE 291700Z 05004KT 5SM IC FEW085 M25/M29 A3016 RMK AC1 SLP276

CYXE;2008-12-29 18:00;CYXE 291800Z CCA 11004KT 15SM FEW085 SCT240 M24/M27 A3015 RMK AC1CI1 IC SLP271

CYXE;2008-12-29 19:00;CYXE 291900Z 10007KT 15SM FEW090 BKN240 M22/M25 A3012 RMK AC2CI1 IC SLP262

CYXE;2008-12-29 19:36;CYXE 291936Z 10009KT 15SM FEW090 BKN240 M21/ RMK AC1CI2

CYXE;2008-12-29 20:00;CYXE 292000Z 06007KT 15SM FEW090 BKN240 M22/M25 A3010 RMK AC1CI4 SLP256

CYXE;2008-12-29 21:00;CYXE 292100Z 09008KT 15SM FEW090 BKN280 M21/M24 A3009 RMK AC1CI4 SLP250

CYXE;2008-12-29 22:00;CYXE 292200Z 07009KT 15SM FEW110 BKN280 M22/M25 A3006 RMK AC2CI2 SLP242

CYXE;2008-12-29 23:00;CYXE 292300Z 07012KT 15SM SCT110 OVC280 M22/M26 A3003 RMK AC2CI2 SLP232

CYXE;2008-12-30 00:00;CYXE 300000Z 07009KT 15SM FEW110 BKN280 M23/M27 A3002 RMK AC2CI2 SLP228

CYXE;2008-12-30 01:00;CYXE 300100Z 08007KT 15SM FEW110 FEW280 M24/M28 A3003 RMK AC1CI0 SLP232

CYXE;2008-12-30 02:00;CYXE 300200Z 07008KT 15SM FEW280 M25/M28 A3004 RMK CI0 SLP235

CYXE;2008-12-30 03:00;CYXE 300300Z 05009KT 15SM SKC M24/M28 A3003 RMK SLP232

CYXE;2008-12-30 04:00;CYXE 300400Z 07007KT 15SM SKC M25/M29 A3004 RMK SLP236

CYXE;2008-12-30 05:00;CYXE 300500Z 05008KT 15SM FEW040 M26/M30 A3008 RMK SC1 SLP248

CYXE;2008-12-30 06:00;CYXE 300600Z 06013KT 15SM BKN050 M25/M29 A3009 RMK SC5 SLP251

CYXE;2008-12-30 07:00;CYXE 300700Z 05015KT 15SM SCT054 M26/M30 A3009 RMK SC3 SLP250

CYXE;2008-12-30 08:00;CYXE 300800Z 06010KT 15SM FEW050 M27/M31 A3011 RMK SC2 SLP258

CYXE;2008-12-30 09:00;CYXE 300900Z 07010KT 15SM SKC M27/M31 A3014 RMK SLP266

CYXE;2008-12-30 10:00;CYXE 301000Z 06010KT 15SM SKC M28/M32 A3018 RMK SLP279

CYXE;2008-12-30 11:00;CYXE 301100Z 06011KT 15SM SKC M28/M32 A3020 RMK SLP285

CYXE;2008-12-30 12:00;CYXE 301200Z 05010KT 15SM SKC M28/M32 A3022 RMK SLP296

CYXE;2008-12-30 13:00;CYXE 301300Z 07006KT 15SM SKC M29/M33 A3026 RMK SLP309

CYXE;2008-12-30 14:00;CYXE 301400Z 05006KT 15SM SKC M30/M34 A3028 RMK SLP317

CYXE;2008-12-30 15:00;CYXE 301500Z 06006KT 15SM SKC M31/M35 A3031 RMK SLP331

CYXE;2008-12-30 16:00;CYXE 301600Z 07005KT 15SM SKC M29/M34 A3033 RMK VIS E-S 2 BR SLP338

CYXE;2008-12-30 16:11;CYXE 301611Z 05007KT 3SM IC BR SKC M29/

CYXE;2008-12-30 17:00;CYXE 301700Z 07005KT 10SM BKN250 M29/M32 A3036 RMK CI1 SLP347

CYXE;2008-12-30 18:00;CYXE 301800Z 07003KT 10SM FEW150 OVC250 M28/M32 A3037 RMK AC1CI2 SLP350

CYXE;2008-12-30 19:00;CYXE 301900Z 07006KT 15SM FEW120 OVC250 M25/M29 A3036 RMK AC2CI3 SLP346

CYXE;2008-12-30 20:00;CYXE 302000Z 13003KT 15SM SCT080 OVC250 M24/M28 A3035 RMK AC3CI5 SLP342

CYXE;2008-12-30 21:00;CYXE 302100Z 14008KT 15SM BKN055 OVC250 M22/M27 A3032 RMK SC5CI3 SLP328

CYXE;2008-12-30 22:00;CYXE 302200Z 11008KT 15SM BKN043 OVC088 M22/M27 A3029 RMK SC6AS2 SLP320

CYXE;2008-12-30 22:25;CYXE 302225Z 11009KT 5SM R09/2600VP6000FT/U -SN OVC033 M22/ RMK SC8

CYXE;2008-12-30 22:52;CYXE 302252Z 11010KT 2SM -SN OVC015 M21/ RMK SC8

CYXE;2008-12-30 23:00;CYXE 302300Z 11011KT 1SM R09/P6000FT/U -SN VV015 M21/M25 A3026 RMK SN8 SLP309

CYXE;2008-12-30 23:26;CYXE 302326Z 12009KT 1/2SM R09/P6000FT/D SN VV013 M20/ RMK SN8

CYXE;2008-12-30 23:52;CYXE 302352Z 20004KT 2SM -SN VV006 M20/ RMK SN8

CYXE;2008-12-31 00:00;CYXE 310000Z 22005KT 2SM -SN VV006 M20/M24 A3025 RMK SN8 SLP305

CYXE;2008-12-31 00:20;CYXE 310020Z 21004KT 3SM -SN OVC009 M21/ RMK SC8

CYXE;2008-12-31 00:39;CYXE 310039Z 28005KT 5SM -SN BKN019 M21/ RMK SC6

CYXE;2008-12-31 01:00;CYXE 310100Z 29004KT 6SM -SN OVC019 M21/M25 A3025 RMK SC6 SLP304

CYXE;2008-12-31 02:00;CYXE 310200Z 29006KT 12SM -SN SCT038 M22/M26 A3024 RMK SC3 SLP303

CYXE;2008-12-31 02:33;CYXE 310233Z 28007KT 15SM FEW037 M24/ RMK SC2

CYXE;2008-12-31 03:00;CYXE 310300Z 29007KT 12SM FEW037 M25/M29 A3024 RMK SC1 SLP309

CYXE;2008-12-31 04:00;CYXE 310400Z 24006KT 15SM SKC M28/M31 A3025 RMK SLP310

CYXE;2008-12-31 05:00;CYXE 310500Z 24009KT 15SM SKC M29/M33 A3025 RMK SLP311

CYXE;2008-12-31 06:00;CYXE 310600Z 25007KT 15SM SKC M30/M34 A3026 RMK SLP314

CYXE;2008-12-31 07:00;CYXE 310700Z 27006KT 15SM SKC M29/M33 A3026 RMK SLP314

CYXE;2008-12-31 08:00;CYXE 310800Z 26005KT 15SM SKC M29/M33 A3022 RMK SLP301

CYXE;2008-12-31 09:00;CYXE 310900Z 23006KT 15SM SKC M31/M34 A3020 RMK SLP291

CYXE;2008-12-31 10:00;CYXE 311000Z 23005KT 15SM SKC M29/M33 A3016 RMK SLP279

CYXE;2008-12-31 11:00;CYXE 311100Z 20003KT 15SM SKC M28/M32 A3014 RMK SLP273

CYXE;2008-12-31 12:00;CYXE 311200Z 18005KT 15SM FEW002 M29/M33 A3011 RMK SF0 SLP258

CYXE;2008-12-31 12:28;CYXE 311228Z 18004KT 15SM BKN002 M27/ RMK SF0

CYXE;2008-12-31 12:51;CYXE 311251Z 17004KT 10SM FEW002 M27/ RMK SF0

CYXE;2008-12-31 13:00;CYXE 311300Z 18004KT 10SM FEW002 M28/M31 A3008 RMK SF0 SLP248

CYXE;2008-12-31 14:00;CYXE 311400Z 15003KT 15SM SCT002 M27/M30 A3001 RMK SF2 SLP225

CYXE;2008-12-31 15:00;CYXE 311500Z 14003KT 15SM BKN120 M23/M27 A2996 RMK AC4 SLP204

CYXE;2008-12-31 16:00;CYXE 311600Z 11006KT 3SM -SN BR OVC100 M23/M26 A2991 RMK AC8 SLP190

CYXE;2008-12-31 17:00;CYXE 311700Z 09007KT 12SM BKN100 M21/M24 A2989 RMK AC7 BR SLP182

CYXE;2008-12-31 18:00;CYXE 311800Z CCA 09013KT 15SM -SN DRSN OVC096 M20/M23 A2980 RMK AC7 PRESFR SLP152

CYXE;2008-12-31 19:00;CYXE 311900Z 10015KT 15SM -SN DRSN SCT045 OVC100 M18/M21 A2972 RMK SC3AC5 PRESFR SLP124

CYXE;2008-12-31 19:30;CYXE 311930Z 10018G24KT 8SM -SN DRSN SCT026 BKN070 OVC100 M18/ RMK SC3AC2AC2

CYXE;2008-12-31 20:00;CYXE 312000Z 12017KT 10SM -SN DRSN SCT026 BKN065 OVC100 M17/M21 A2964 RMK SC3AC2AC2 SLP100

CYXE;2008-12-31 20:09;CYXE 312009Z 12014G19KT 3SM -SN DRSN OVC021 M17/ RMK SC8

CYXE;2008-12-31 20:13;CYXE 312013Z 12016KT 1 1/2SM -SN BLSN VV015 M17/ RMK SN8

CYXE;2008-12-31 20:35;CYXE 312035Z 12017KT 1SM R09/P6000FT/D -SN BLSN VV011 M17/ RMK SN8

CYXE;2008-12-31 20:40;CYXE 312040Z 12019G24KT 3/4SM R09/P6000FT/D -SN BLSN VV011 M17/ RMK SN8

CYXE;2008-12-31 20:49;CYXE 312049Z 11017G26KT 1/2SM R09/4500FT/D -SN BLSN VV009 M17/ RMK SN8

CYXE;2008-12-31 21:00;CYXE 312100Z 11018G25KT 1/4SM R09/3000V4500FT/D SN +BLSN VV004 M16/M19 A2955 RMK SN8 SLP063

CYXE;2008-12-31 22:00;CYXE 312200Z 11021G27KT 1/4SM R09/3500FT/U SN +BLSN VV003 M15/M18 A2949 RMK SN8 /S01/ PRESFR SLP043

CYXE;2008-12-31 23:00;CYXE 312300Z 12016G25KT 1/4SM R09/5500FT/D SN +BLSN VV004 M15/M17 A2948 RMK SN8 /S03/ SLP040

CYXE;2008-12-31 23:15;CYXE 312315Z 11013G20KT 1/2SM R09/P6000FT/U SN BLSN VV004 M15/ RMK SN8

CYXE;2008-12-31 23:47;CYXE 312347Z 11015G20KT 3/4SM R09/P6000FT/U -SN BLSN VV004 M14/ RMK SN8

