CYXE;2010-01-01 07:00;CYXE 010700Z 07002KT 15SM SKC M33/M36 A3049 RMK SLP397

CYXE;2010-01-01 08:00;CYXE 010800Z 23007KT 15SM SKC M35/M39 A3050 RMK SLP400

CYXE;2010-01-01 09:00;CYXE 010900Z 22003KT 15SM SKC M34/M38 A3050 RMK SLP399

CYXE;2010-01-01 10:00;CYXE 011000Z 00000KT 15SM SKC M34/M38 A3051 RMK SLP400

CYXE;2010-01-01 11:00;CYXE 011100Z 13003KT 15SM SKC M35/M39 A3050 RMK SLP399

CYXE;2010-01-01 12:00;CYXE 011200Z 16003KT 15SM SKC M35/M39 A3050 RMK SLP402

CYXE;2010-01-01 12:20;CYXE 011220Z 18003KT 15SM FEW003 M35/ RMK SF1 IC

CYXE;2010-01-01 13:00;CYXE 011300Z 17005KT 15SM FEW003 FEW250 M35/M39 A3048 RMK SF1CI0 SLP397

CYXE;2010-01-01 14:00;CYXE 011400Z 19005KT 15SM FEW003 SCT250 M34/M38 A3047 RMK SF1CI0 SLP393

CYXE;2010-01-01 15:00;CYXE 011500Z 19004KT 15SM FEW003 BKN250 M33/M37 A3045 RMK SF1CI1 SLP389

CYXE;2010-01-01 16:00;CYXE 011600Z 14005KT 15SM FEW003 BKN250 M32/M36 A3044 RMK SF1CI2 SLP384

CYXE;2010-01-01 17:00;CYXE 011700Z 17005KT 15SM BKN250 M27/M30 A3043 RMK CI3 SLP381

CYXE;2010-01-01 18:00;CYXE 011800Z 16008KT 15SM OVC250 M26/M30 A3039 RMK CI3 SLP362

CYXE;2010-01-01 19:00;CYXE 011900Z 14005KT 15SM FEW120 OVC250 M25/M29 A3037 RMK AC2CI2 SLP355

CYXE;2010-01-01 20:00;CYXE 012000Z 15007KT 15SM FEW050 SCT097 OVC250 M23/M26 A3033 RMK SC2AC2CI2 SLP342

CYXE;2010-01-01 21:00;CYXE 012100Z 13009KT 15SM FEW120 BKN250 M21/M25 A3027 RMK AC2CI4 SLP317

CYXE;2010-01-01 22:00;CYXE 012200Z 13009KT 15SM FEW120 BKN250 M20/M24 A3023 RMK AC2CI4 SLP302

CYXE;2010-01-01 23:00;CYXE 012300Z 14012KT 15SM SCT080 BKN250 M20/M25 A3019 RMK AC4CI2 SLP290

CYXE;2010-01-02 00:00;CYXE 020000Z 14010G16KT 15SM SCT080 BKN250 M20/M25 A3017 RMK AC4CI2 SLP281

CYXE;2010-01-02 01:00;CYXE 020100Z 12006KT 15SM OVC095 M20/M25 A3012 RMK AC8 SLP266

CYXE;2010-01-02 02:00;CYXE 020200Z 14009KT 15SM FEW050 SCT090 BKN250 M18/M23 A3008 RMK SC2AC2CI0 SLP253

CYXE;2010-01-02 03:00;CYXE 020300Z 16015KT 15SM DRSN BKN049 M16/M21 A3003 RMK SC6 SLP231

CYXE;2010-01-02 04:00;CYXE 020400Z 15015KT 15SM DRSN BKN049 M15/M20 A3002 RMK SC6 SLP226

CYXE;2010-01-02 05:00;CYXE 020500Z 15013G22KT 15SM DRSN BKN045 M15/M21 A2998 RMK SC5 SLP214

CYXE;2010-01-02 06:00;CYXE 020600Z 15015KT 15SM FEW045 BKN110 M16/M21 A2995 RMK SC2AC2 SLP198

CYXE;2010-01-02 07:00;CYXE 020700Z 14012G19KT 15SM FEW017 BKN068 M16/M21 A2994 RMK SC2AC3 SLP195

CYXE;2010-01-02 08:00;CYXE 020800Z 14008KT 15SM SCT015 OVC068 M15/M19 A2992 RMK SC4AC4 SLP189

CYXE;2010-01-02 09:00;CYXE 020900Z 15011G16KT 15SM OVC070 M14/M18 A2990 RMK AC8 SLP175

CYXE;2010-01-02 10:00;CYXE 021000Z 15011KT 15SM FEW016 BKN080 M14/M18 A2990 RMK SC2AC5 SLP174

CYXE;2010-01-02 10:31;CYXE 021031Z 15009KT 15SM BKN012 OVC088 M14/ RMK SC6AC2

CYXE;2010-01-02 11:00;CYXE 021100Z 15008KT 15SM BKN010 OVC088 M14/M18 A2989 RMK SC6AC2 SLP171

CYXE;2010-01-02 12:00;CYXE 021200Z 14007KT 15SM SCT010 M15/M18 A2988 RMK SC3 SLP168

CYXE;2010-01-02 13:00;CYXE 021300Z 13007KT 15SM FEW009 M15/M19 A2988 RMK SF2 SLP169

CYXE;2010-01-02 14:00;CYXE 021400Z 12007KT 15SM FEW080 M16/M20 A2987 RMK AC1 SLP165

CYXE;2010-01-02 15:00;CYXE 021500Z 12009KT 15SM FEW090 BKN250 M16/M19 A2988 RMK AC2CI1 SLP167

CYXE;2010-01-02 16:00;CYXE 021600Z 12009KT 15SM BKN090 BKN260 M16/M19 A2991 RMK AC5CI1 SLP176

CYXE;2010-01-02 17:00;CYXE 021700Z 12008KT 15SM BKN090 BKN260 M15/M19 A2992 RMK AC2CI2 SLP180

CYXE;2010-01-02 18:00;CYXE 021800Z 12007KT 15SM SCT090 BKN260 M14/M18 A2994 RMK AC2CI0 SLP186

CYXE;2010-01-02 19:00;CYXE 021900Z 10007KT 15SM FEW090 SCT260 M14/M18 A2996 RMK AC1CI1 SLP190

CYXE;2010-01-02 20:00;CYXE 022000Z 06005KT 15SM BKN260 M13/M17 A2998 RMK CI3 SLP198

CYXE;2010-01-02 21:00;CYXE 022100Z 03005KT 15SM -SN OVC017 M14/M17 A3001 RMK ST7 SLP208

CYXE;2010-01-02 22:00;CYXE 022200Z 04006KT 15SM -SN OVC025 M13/M16 A3005 RMK SC8 SLP221

CYXE;2010-01-02 22:41;CYXE 022241Z 02009KT 15SM OVC025 M13/ RMK SC8

CYXE;2010-01-02 23:00;CYXE 022300Z 01007KT 15SM OVC025 M13/M16 A3009 RMK SC8 SLP232

CYXE;2010-01-03 00:00;CYXE 030000Z 36008KT 8SM -SN OVC023 M13/M16 A3013 RMK SC8 SLP248

CYXE;2010-01-03 01:00;CYXE 030100Z 35007KT 15SM -SN OVC021 M14/M16 A3015 RMK SC8 SLP257

CYXE;2010-01-03 02:00;CYXE 030200Z 35007KT 10SM -SN OVC019 M14/M16 A3019 RMK SC8 SLP268

CYXE;2010-01-03 03:00;CYXE 030300Z 34008KT 10SM -SN OVC019 M14/M16 A3022 RMK SC8 SLP281

CYXE;2010-01-03 04:00;CYXE 030400Z 35007KT 10SM -SN OVC017 M13/M16 A3024 RMK SC8 SLP289

CYXE;2010-01-03 05:00;CYXE 030500Z 35008KT 15SM -SN SCT017 OVC032 M13/M16 A3027 RMK SC3SC5 SLP296

CYXE;2010-01-03 06:00;CYXE 030600Z 35008KT 15SM -SN FEW017 OVC032 M13/M16 A3029 RMK SF1SC7 SLP305

CYXE;2010-01-03 07:00;CYXE 030700Z CCA 36009KT 15SM -SN BKN040 OVC072 M13/M17 A3032 RMK SC6AC2 SLP313

CYXE;2010-01-03 08:00;CYXE 030800Z 36009KT 15SM -SN BKN038 OVC074 M13/M17 A3035 RMK SC6AC2 SLP322

CYXE;2010-01-03 09:00;CYXE 030900Z 35008KT 15SM -SN BKN036 OVC076 M13/M17 A3036 RMK SC6AC2 SLP330

CYXE;2010-01-03 10:00;CYXE 031000Z 36007KT 15SM -SN BKN032 OVC074 M14/M17 A3039 RMK SC6AC2 SLP337

CYXE;2010-01-03 11:00;CYXE 031100Z 02006KT 15SM -SN FEW032 OVC072 M14/M17 A3040 RMK SF2AC6 SLP341

CYXE;2010-01-03 12:00;CYXE 031200Z 04007KT 15SM -SN SCT043 OVC073 M14/M18 A3040 RMK SC4AC4 SLP341

CYXE;2010-01-03 13:00;CYXE 031300Z 36007KT 15SM SCT040 BKN073 M14/M17 A3042 RMK SC3AC4 SLP348

CYXE;2010-01-03 14:00;CYXE 031400Z 01003KT 15SM SCT075 M17/M20 A3044 RMK AC2 SLP353

CYXE;2010-01-03 15:00;CYXE 031500Z 32002KT 15SM FEW075 FEW250 M19/M22 A3044 RMK AC1CI0 SLP360

CYXE;2010-01-03 16:00;CYXE 031600Z 00000KT 15SM FEW250 M18/M21 A3046 RMK CI0 SLP365

CYXE;2010-01-03 17:00;CYXE 031700Z 00000KT 15SM SCT250 M17/M20 A3047 RMK CI0 SLP368

CYXE;2010-01-03 18:00;CYXE 031800Z 00000KT 15SM FEW250 M16/M18 A3046 RMK CI0 SLP362

CYXE;2010-01-03 19:00;CYXE 031900Z 03002KT 15SM FEW250 M16/M19 A3045 RMK CI1 SLP360

CYXE;2010-01-03 20:00;CYXE 032000Z 03003KT 15SM FEW100 FEW250 M14/M18 A3045 RMK AC1CI1 SLP359

CYXE;2010-01-03 21:00;CYXE 032100Z 02003KT 15SM FEW250 M14/M18 A3044 RMK CI1 SLP356

CYXE;2010-01-03 22:00;CYXE 032200Z 03005KT 15SM BKN250 M16/M20 A3045 RMK CI2 SLP358

CYXE;2010-01-03 23:00;CYXE 032300Z 09006KT 15SM FEW100 BKN250 M17/M20 A3045 RMK AC2CI0 CONTRAILS SLP360

CYXE;2010-01-04 00:00;CYXE 040000Z 14004KT 15SM FEW100 BKN250 M16/M19 A3045 RMK AC2CI0 SLP360

CYXE;2010-01-04 01:00;CYXE 040100Z 14003KT 15SM FEW100 BKN250 M16/M19 A3046 RMK AC2CI0 SLP365

CYXE;2010-01-04 02:00;CYXE 040200Z 14003KT 15SM FEW100 BKN250 M18/M20 A3046 RMK AC2CI0 SLP363

CYXE;2010-01-04 03:00;CYXE 040300Z 13004KT 15SM FEW100 SCT250 M17/M20 A3046 RMK AC2CI0 SLP369

CYXE;2010-01-04 04:00;CYXE 040400Z 12005KT 15SM BKN100 M17/M20 A3045 RMK AC6 SLP366

CYXE;2010-01-04 05:00;CYXE 040500Z 15002KT 15SM BKN100 M16/M19 A3045 RMK AC6 SLP365

CYXE;2010-01-04 05:43;CYXE 040543Z 00000KT 15SM -SN OVC095 M16/ RMK AC8

CYXE;2010-01-04 06:00;CYXE 040600Z 00000KT 15SM -SN OVC095 M16/M18 A3045 RMK AC8 SLP363

CYXE;2010-01-04 07:00;CYXE 040700Z CCA 00000KT 15SM -SN SCT034 OVC100 M15/M18 A3045 RMK SC4AC4 SLP362

CYXE;2010-01-04 07:39;CYXE 040739Z 15003KT 2 1/2SM -SN OVC015 M15/ RMK SC8

CYXE;2010-01-04 07:45;CYXE 040745Z 15003KT 6SM -SN BKN015 OVC100 M15/ RMK SC6AC2

CYXE;2010-01-04 08:00;CYXE 040800Z 17003KT 6SM -SN BKN015 OVC100 M15/M18 A3044 RMK SC6AC2 SLP358

CYXE;2010-01-04 09:00;CYXE 040900Z 00000KT 15SM -SN FEW038 BKN066 M16/M19 A3043 RMK SC2AC2 SLP355

CYXE;2010-01-04 09:27;CYXE 040927Z 35003KT 15SM SCT038 M19/ RMK SC3

CYXE;2010-01-04 10:00;CYXE 041000Z 36003KT 15SM BKN038 M17/M19 A3045 RMK SC7 SLP361

CYXE;2010-01-04 11:00;CYXE 041100Z 11003KT 15SM OVC024 M15/M17 A3045 RMK SC8 SLP360

CYXE;2010-01-04 11:17;CYXE 041117Z 07003KT 15SM SCT006 OVC024 M15/ RMK SF4SC4

CYXE;2010-01-04 12:00;CYXE 041200Z 14004KT 15SM FEW006 OVC031 M15/M17 A3044 RMK SF2SC6 SLP356

CYXE;2010-01-04 13:00;CYXE 041300Z 36003KT 15SM BKN005 OVC031 M14/M17 A3044 RMK SF5SC3 SLP358

CYXE;2010-01-04 13:40;CYXE 041340Z 35003KT 10SM -SN BKN006 OVC029 M14/ RMK SF6SC2

CYXE;2010-01-04 14:00;CYXE 041400Z 00000KT 12SM -SN BKN006 OVC029 M14/M17 A3044 RMK SF6SC2 SLP358

CYXE;2010-01-04 15:00;CYXE 041500Z 00000KT 15SM -SN BKN007 OVC023 M14/M16 A3044 RMK SF5SC3 SLP359

CYXE;2010-01-04 15:33;CYXE 041533Z 30002KT 10SM -SN FEW007 OVC021 M14/ RMK SF2SC6

CYXE;2010-01-04 16:00;CYXE 041600Z 30002KT 10SM -SN OVC019 M14/M16 A3045 RMK SC8 SLP360

CYXE;2010-01-04 16:21;CYXE 041621Z 31003KT 2 1/2SM -SN OVC019 M14/ RMK SC8

CYXE;2010-01-04 17:00;CYXE 041700Z 31003KT 2SM -SN OVC021 M14/M16 A3045 RMK SC8 SLP362

CYXE;2010-01-04 18:00;CYXE 041800Z 00000KT 2SM -SN OVC023 M14/M16 A3045 RMK SC8 SLP359

CYXE;2010-01-04 19:00;CYXE 041900Z 36002KT 2SM -SN OVC023 M14/M16 A3044 RMK SC8 SLP356

CYXE;2010-01-04 19:15;CYXE 041915Z 36004KT 3SM -SN OVC023 M13/ RMK SC8

CYXE;2010-01-04 20:00;CYXE 042000Z 36003KT 3SM -SN OVC023 M13/M16 A3043 RMK SC7 SLP355

CYXE;2010-01-04 21:00;CYXE 042100Z 34003KT 4SM -SN OVC019 M13/M15 A3043 RMK SC8 SLP352

CYXE;2010-01-04 22:00;CYXE 042200Z 36002KT 5SM -SN SCT016 OVC021 M13/M15 A3042 RMK SC3SC5 SLP351

CYXE;2010-01-04 23:00;CYXE 042300Z 02003KT 4SM -SN OVC024 M14/M16 A3042 RMK SC8 SLP351

CYXE;2010-01-05 00:00;CYXE 050000Z 01002KT 12SM -SN OVC024 M14/M16 A3042 RMK SC8 SLP350

CYXE;2010-01-05 01:00;CYXE 050100Z 01004KT 10SM -SN OVC022 M15/M17 A3041 RMK SC8 SLP348

CYXE;2010-01-05 02:00;CYXE 050200Z 01003KT 15SM -SN OVC022 M14/M16 A3041 RMK SC8 SLP346

CYXE;2010-01-05 03:00;CYXE 050300Z 01004KT 15SM OVC022 M15/M17 A3041 RMK SC8 SLP347

CYXE;2010-01-05 04:00;CYXE 050400Z 05005KT 15SM BKN022 M15/M17 A3040 RMK SC6 SLP343

CYXE;2010-01-05 05:00;CYXE 050500Z 05006KT 15SM OVC022 M14/M17 A3040 RMK SC8 SLP343

CYXE;2010-01-05 06:00;CYXE 050600Z 06007KT 15SM -SN OVC020 M15/M18 A3040 RMK SC8 SLP342

CYXE;2010-01-05 07:00;CYXE 050700Z 07008KT 15SM -SN OVC020 M15/M18 A3039 RMK SC8 SLP340

CYXE;2010-01-05 08:00;CYXE 050800Z 05009KT 15SM -SN OVC020 M15/M19 A3039 RMK SC8 SLP339

CYXE;2010-01-05 09:00;CYXE 050900Z 05008KT 15SM -SN OVC020 M16/M19 A3039 RMK SC8 SLP339

CYXE;2010-01-05 10:00;CYXE 051000Z 06007KT 15SM -SN OVC020 M16/M19 A3040 RMK SC8 SLP341

CYXE;2010-01-05 11:00;CYXE 051100Z 05008KT 15SM -SN OVC018 M16/M19 A3039 RMK SC8 SLP338

CYXE;2010-01-05 12:00;CYXE 051200Z 06007KT 15SM -SN OVC016 M16/M19 A3038 RMK SC8 SLP338

CYXE;2010-01-05 13:00;CYXE 051300Z 06009KT 15SM -SN OVC016 M17/M20 A3037 RMK SC8 SLP335

CYXE;2010-01-05 14:00;CYXE 051400Z 05008KT 15SM -SN OVC016 M17/M20 A3037 RMK SC8 SLP335

CYXE;2010-01-05 14:50;CYXE 051450Z 05012KT 4SM -SN SCT003 OVC018 M17/ RMK SF2SC6

CYXE;2010-01-05 15:00;CYXE 051500Z CCA 05011KT 4SM -SN FEW003 OVC018 M17/M20 A3038 RMK SF2SC6 OBS TAKEN +03 SLP338

CYXE;2010-01-05 16:00;CYXE 051600Z 04012KT 2SM -SN OVC018 M18/M21 A3040 RMK SC8 SLP343

CYXE;2010-01-05 16:40;CYXE 051640Z CCA 03013KT 1 1/2SM -SN DRSN OVC020 M18/ RMK SN2SC6

CYXE;2010-01-05 17:00;CYXE 051700Z 04013KT 1 1/2SM -SN DRSN OVC020 M18/M21 A3040 RMK SN3SC5 SLP344

CYXE;2010-01-05 17:47;CYXE 051747Z 04012KT 2SM -SN DRSN BKN024 OVC050 M17/ RMK SC6SC2

CYXE;2010-01-05 18:00;CYXE 051800Z 04013KT 2SM -SN DRSN BKN026 OVC050 M17/M21 A3039 RMK SC6SC1 SLP340

CYXE;2010-01-05 18:30;CYXE 051830Z 04013KT 4SM -SN DRSN BKN028 OVC050 M17/ RMK SC7SC1

CYXE;2010-01-05 19:00;CYXE 051900Z 04012KT 15SM -SN DRSN OVC030 M17/M21 A3038 RMK SC8 SLP337

CYXE;2010-01-05 20:00;CYXE 052000Z 05010KT 15SM -SN OVC030 M17/M21 A3038 RMK SC8 SLP338

CYXE;2010-01-05 20:39;CYXE 052039Z 03009KT 15SM SCT017 OVC250 M17/ RMK SC4CI2

CYXE;2010-01-05 21:00;CYXE 052100Z 04009KT 15SM SCT020 OVC250 M17/M21 A3039 RMK SC3CI3 SLP341

CYXE;2010-01-05 22:00;CYXE 052200Z 03008KT 15SM SCT020 OVC250 M18/M21 A3040 RMK SC3CI3 SLP346

CYXE;2010-01-05 23:00;CYXE 052300Z 04009KT 15SM FEW030 OVC250 M19/M22 A3040 RMK SC2CI4 SLP347

CYXE;2010-01-06 00:00;CYXE 060000Z 02010KT 15SM SCT033 BKN250 M19/M23 A3041 RMK SC2CI3 SLP351

CYXE;2010-01-06 01:00;CYXE 060100Z 02011KT 15SM FEW035 BKN250 M20/M24 A3043 RMK SC2CI2 SLP357

CYXE;2010-01-06 01:50;CYXE 060150Z 02010KT 12SM -SN SCT015 BKN035 OVC250 M21/ RMK SC3SC2CI2

CYXE;2010-01-06 02:00;CYXE 060200Z 01010KT 15SM -SN FEW015 BKN035 M21/M25 A3045 RMK SC2SC4 SLP362

CYXE;2010-01-06 02:54;CYXE 060254Z 01011KT 15SM SCT035 BKN250 M22/ RMK SC3CI2

CYXE;2010-01-06 03:00;CYXE 060300Z 01011KT 15SM SCT035 BKN250 M22/M25 A3046 RMK SC3CI2 SLP372

CYXE;2010-01-06 04:00;CYXE 060400Z 01011KT 15SM SCT030 BKN250 M21/M25 A3049 RMK SC3CI2 SLP379

CYXE;2010-01-06 05:00;CYXE 060500Z 02011KT 15SM OVC042 M20/M24 A3050 RMK SC8 SLP385

CYXE;2010-01-06 05:54;CYXE 060554Z 02010KT 15SM -SN OVC042 M20/ RMK SC8

CYXE;2010-01-06 06:00;CYXE 060600Z 02010KT 15SM -SN OVC042 M20/M23 A3052 RMK SC8 SLP389

CYXE;2010-01-06 07:00;CYXE 060700Z 02008KT 15SM -SN OVC046 M19/M23 A3053 RMK SC8 SLP394

CYXE;2010-01-06 08:00;CYXE 060800Z 01009KT 12SM -SN OVC050 M19/M22 A3054 RMK SC8 SLP396

CYXE;2010-01-06 09:00;CYXE 060900Z 02009KT 10SM -SN OVC050 M19/M22 A3056 RMK SC8 SLP404

CYXE;2010-01-06 10:00;CYXE 061000Z 36008KT 10SM -SN FEW030 OVC054 M19/M23 A3059 RMK SC2SC6 SLP412

CYXE;2010-01-06 11:00;CYXE 061100Z 01010KT 12SM -SN FEW020 OVC052 M19/M23 A3060 RMK SC2SC6 SLP417

CYXE;2010-01-06 12:00;CYXE 061200Z 36009KT 15SM -SN FEW020 OVC056 M20/M23 A3063 RMK SC2SC6 SLP427

CYXE;2010-01-06 13:00;CYXE 061300Z CCA 36007KT 15SM -SN FEW020 OVC056 M20/M24 A3065 RMK SC2SC6 SLP435

CYXE;2010-01-06 14:00;CYXE 061400Z 36011KT 15SM -SN FEW020 OVC058 M20/M24 A3067 RMK SC2SC6 SLP443

CYXE;2010-01-06 15:00;CYXE 061500Z 36007KT 15SM -SN FEW020 OVC048 M21/M25 A3069 RMK SC2SC6 SLP454

CYXE;2010-01-06 16:00;CYXE 061600Z 01008KT 15SM BKN055 M23/M27 A3072 RMK SC4 SLP463

CYXE;2010-01-06 17:00;CYXE 061700Z 36008KT 15SM FEW060 FEW280 M23/M28 A3074 RMK SC1CI0 SLP469

CYXE;2010-01-06 18:00;CYXE 061800Z 36008KT 15SM FEW280 M23/M27 A3075 RMK CI0 SLP474

CYXE;2010-01-06 19:00;CYXE 061900Z 36007KT 15SM SKC M23/M27 A3075 RMK SLP473

CYXE;2010-01-06 20:00;CYXE 062000Z 33006KT 15SM SKC M22/M26 A3073 RMK SLP468

CYXE;2010-01-06 21:00;CYXE 062100Z 34007KT 15SM SKC M21/M26 A3073 RMK SLP463

CYXE;2010-01-06 22:00;CYXE 062200Z 31005KT 15SM SKC M21/M26 A3074 RMK SLP466

CYXE;2010-01-06 23:00;CYXE 062300Z 31004KT 15SM SKC M23/M28 A3075 RMK SLP470

CYXE;2010-01-07 00:00;CYXE 070000Z 31006KT 15SM SKC M24/M28 A3075 RMK SLP474

CYXE;2010-01-07 01:00;CYXE 070100Z 31006KT 15SM SKC M27/M31 A3075 RMK SLP474

CYXE;2010-01-07 02:00;CYXE 070200Z 30007KT 15SM SKC M31/M35 A3076 RMK SLP477

CYXE;2010-01-07 03:00;CYXE 070300Z 31007KT 15SM SKC M29/M33 A3076 RMK SLP482

CYXE;2010-01-07 04:00;CYXE 070400Z 30004KT 15SM SKC M31/M35 A3076 RMK SLP481

CYXE;2010-01-07 05:00;CYXE 070500Z 30004KT 15SM SKC M30/M34 A3076 RMK SLP482

CYXE;2010-01-07 06:00;CYXE 070600Z 00000KT 15SM SKC M31/M35 A3075 RMK SLP482

CYXE;2010-01-07 07:00;CYXE 070700Z 26003KT 15SM SKC M31/M35 A3075 RMK SLP481

CYXE;2010-01-07 08:00;CYXE 070800Z 27004KT 15SM SKC M31/M35 A3074 RMK SLP478

CYXE;2010-01-07 09:00;CYXE 070900Z 30003KT 15SM SKC M32/M36 A3074 RMK SLP477

CYXE;2010-01-07 10:00;CYXE 071000Z 32002KT 15SM SKC M35/M39 A3074 RMK SLP477

CYXE;2010-01-07 11:00;CYXE 071100Z 26003KT 15SM SKC M32/M36 A3074 RMK SLP476

CYXE;2010-01-07 12:00;CYXE 071200Z 23005KT 15SM SKC M35/M39 A3073 RMK SLP480

CYXE;2010-01-07 13:00;CYXE 071300Z 15003KT 15SM SKC M32/M36 A3072 RMK SLP475

CYXE;2010-01-07 13:46;CYXE 071346Z 16003KT 15SM BKN006 M32/ RMK ST3

CYXE;2010-01-07 14:00;CYXE 071400Z 00000KT 15SM BKN006 M32/M36 A3072 RMK ST3 SLP476

CYXE;2010-01-07 14:25;CYXE 071425Z 18004KT 15SM BKN002 M33/ RMK ST3

CYXE;2010-01-07 15:00;CYXE 071500Z 22004KT 15SM BKN002 M33/M37 A3071 RMK ST5 SLP474

CYXE;2010-01-07 15:39;CYXE 071539Z 20004KT 15SM BKN002 M32/ RMK ST3 CLD LYR THIN BKN

CYXE;2010-01-07 16:00;CYXE 071600Z 19003KT 15SM BKN002 M32/M36 A3070 RMK ST3 CLD LYR THIN BKN SLP471

CYXE;2010-01-07 16:20;CYXE 071620Z 23003KT 15SM SCT002 M32/ RMK ST2

CYXE;2010-01-07 17:00;CYXE 071700Z 20004KT 15SM FEW002 M30/M34 A3071 RMK ST1 SLP474

CYXE;2010-01-07 18:00;CYXE 071800Z 19004KT 15SM FEW002 M28/M31 A3068 RMK ST1 SLP462

CYXE;2010-01-07 19:00;CYXE 071900Z 20003KT 15SM FEW002 M26/M30 A3066 RMK ST1 SLP454

CYXE;2010-01-07 20:00;CYXE 072000Z 18006KT 15SM FEW002 M23/M27 A3060 RMK ST1 SLP437

CYXE;2010-01-07 21:00;CYXE 072100Z 18007KT 15SM FEW250 M22/M26 A3058 RMK CI1 SLP421

CYXE;2010-01-07 22:00;CYXE 072200Z 18005KT 15SM FEW240 M22/M25 A3058 RMK CI1 SLP423

CYXE;2010-01-07 23:00;CYXE 072300Z 17005KT 15SM FEW120 SCT240 M23/M27 A3056 RMK AC1CI1 SLP417

CYXE;2010-01-08 00:00;CYXE 080000Z 16007KT 15SM SCT250 M22/M26 A3053 RMK CI2 SLP407

CYXE;2010-01-08 01:00;CYXE 080100Z 16005KT 15SM FEW120 SCT250 M22/M26 A3051 RMK AC1CI2 SLP403

CYXE;2010-01-08 02:00;CYXE 080200Z 16005KT 15SM SCT120 BKN250 M22/M27 A3048 RMK AC3CI3 SLP391

CYXE;2010-01-08 03:00;CYXE 080300Z 16007KT 15SM SCT120 BKN250 M22/M27 A3044 RMK AC3CI3 SLP376

CYXE;2010-01-08 04:00;CYXE 080400Z 17011KT 15SM FEW120 BKN250 M22/M27 A3039 RMK AC1CI3 SLP359

CYXE;2010-01-08 05:00;CYXE 080500Z 17009KT 15SM FEW120 BKN250 M21/M26 A3038 RMK AC1CI2 SLP355

CYXE;2010-01-08 06:00;CYXE 080600Z 18010KT 15SM FEW120 SCT250 M21/M26 A3035 RMK AC1CI1 SLP341

CYXE;2010-01-08 07:00;CYXE 080700Z 18008KT 15SM FEW250 M22/M26 A3034 RMK CI0 SLP337

CYXE;2010-01-08 08:00;CYXE 080800Z 17010KT 15SM SKC M22/M26 A3031 RMK SLP328

CYXE;2010-01-08 09:00;CYXE 080900Z 17008KT 15SM SKC M22/M26 A3030 RMK SLP318

CYXE;2010-01-08 10:00;CYXE 081000Z 16008KT 15SM SKC M22/M26 A3026 RMK SLP306

CYXE;2010-01-08 11:00;CYXE 081100Z 17007KT 15SM SKC M23/M27 A3023 RMK SLP298

CYXE;2010-01-08 12:00;CYXE 081200Z 16008KT 15SM SKC M23/M27 A3018 RMK SLP279

CYXE;2010-01-08 13:00;CYXE 081300Z 18008KT 15SM SKC M23/M27 A3016 RMK SLP271

CYXE;2010-01-08 14:00;CYXE 081400Z 19006KT 15SM SKC M23/M27 A3015 RMK SLP269

CYXE;2010-01-08 15:00;CYXE 081500Z 19006KT 15SM FEW250 M22/M26 A3014 RMK CI0 SLP264

CYXE;2010-01-08 16:00;CYXE 081600Z 18011KT 15SM SCT250 M21/M25 A3012 RMK CI1 SLP259

CYXE;2010-01-08 17:00;CYXE 081700Z 17009KT 15SM SCT250 M20/M25 A3011 RMK CI1 CONTRAILS SLP255

CYXE;2010-01-08 18:00;CYXE 081800Z 19008KT 15SM SCT250 M19/M25 A3012 RMK CI1 SLP254

CYXE;2010-01-08 19:00;CYXE 081900Z 18007KT 15SM BKN250 M17/M24 A3009 RMK CI2 SLP243

CYXE;2010-01-08 20:00;CYXE 082000Z 19007KT 15SM BKN250 M17/M23 A3007 RMK CI2 SLP239

CYXE;2010-01-08 21:00;CYXE 082100Z 19006KT 15SM BKN250 M16/M23 A3006 RMK CI2 SLP233

CYXE;2010-01-08 22:00;CYXE 082200Z 20005KT 15SM FEW110 BKN250 M16/M23 A3005 RMK AC1CI4 SLP231

CYXE;2010-01-08 23:00;CYXE 082300Z 18005KT 15SM FEW100 BKN250 M16/M22 A3005 RMK AC2CI3 SLP229

CYXE;2010-01-09 00:00;CYXE 090000Z 19002KT 15SM FEW100 BKN250 M17/M22 A3006 RMK AC1CI2 SLP235

CYXE;2010-01-09 01:00;CYXE 090100Z 16005KT 15SM SCT250 M18/M23 A3004 RMK CI2 SLP226

CYXE;2010-01-09 02:00;CYXE 090200Z 18005KT 15SM FEW250 M18/M23 A3003 RMK CI1 SLP224

CYXE;2010-01-09 03:00;CYXE 090300Z 18008KT 15SM SKC M18/M22 A3002 RMK SLP219

CYXE;2010-01-09 04:00;CYXE 090400Z 21007KT 15SM SKC M18/M22 A3001 RMK SLP215

CYXE;2010-01-09 05:00;CYXE 090500Z 23005KT 15SM SKC M21/M24 A3001 RMK SLP218

CYXE;2010-01-09 06:00;CYXE 090600Z 20005KT 15SM FEW010 M20/M23 A2999 RMK SF2 SLP209

CYXE;2010-01-09 07:00;CYXE 090700Z 18007KT 15SM FEW010 M20/M23 A2997 RMK SF1 SLP203

CYXE;2010-01-09 08:00;CYXE 090800Z 21006KT 15SM SKC M19/M22 A2997 RMK SLP203

CYXE;2010-01-09 09:00;CYXE 090900Z 21005KT 15SM SKC M19/M23 A2997 RMK SLP200

CYXE;2010-01-09 10:00;CYXE 091000Z 19003KT 15SM SKC M20/M23 A2997 RMK SLP200

CYXE;2010-01-09 11:00;CYXE 091100Z 22003KT 15SM SKC M20/M24 A2996 RMK SLP196

CYXE;2010-01-09 12:00;CYXE 091200Z 20006KT 15SM SKC M19/M23 A2994 RMK SLP189

CYXE;2010-01-09 13:00;CYXE 091300Z 22005KT 15SM SKC M19/M22 A2994 RMK SLP189

CYXE;2010-01-09 14:00;CYXE 091400Z 19004KT 15SM FEW020 BKN260 M18/M21 A2992 RMK SF1CI0 SLP182

CYXE;2010-01-09 15:00;CYXE 091500Z 19004KT 15SM FEW140 BKN280 M18/M21 A2992 RMK AC0CI2 SLP181

CYXE;2010-01-09 16:00;CYXE 091600Z 19006KT 15SM FEW140 OVC280 M16/M20 A2991 RMK AC1CI2 SLP180

CYXE;2010-01-09 17:00;CYXE 091700Z 19007KT 15SM SCT140 OVC280 M14/M18 A2992 RMK AC3CI4 SLP183

CYXE;2010-01-09 18:00;CYXE 091800Z 18007KT 15SM SCT140 OVC280 M12/M16 A2989 RMK AC3CI4 SLP169

CYXE;2010-01-09 19:00;CYXE 091900Z 20008KT 15SM BKN110 OVC250 M09/M13 A2985 RMK AC6CI2 SLP156

CYXE;2010-01-09 20:00;CYXE 092000Z 22004KT 15SM BKN100 OVC250 M08/M13 A2984 RMK AC6CI2 SLP153

CYXE;2010-01-09 21:00;CYXE 092100Z 21003KT 15SM BKN110 OVC250 M08/M12 A2982 RMK AC6CI2 SLP141

CYXE;2010-01-09 22:00;CYXE 092200Z 22005KT 15SM BKN110 OVC250 M06/M10 A2980 RMK AC6CI1 SLP136

CYXE;2010-01-09 23:00;CYXE 092300Z 23002KT 15SM FEW080 BKN110 BKN250 M07/M11 A2982 RMK AC2AC4CI1 SLP142

CYXE;2010-01-10 00:00;CYXE 100000Z 11003KT 15SM FEW080 BKN110 BKN250 M08/M10 A2980 RMK AC2AC3CI1 SLP136

CYXE;2010-01-10 01:00;CYXE 100100Z 28004KT 15SM SCT095 BKN250 M10/M11 A2983 RMK AC3CI2 SLP145

CYXE;2010-01-10 02:00;CYXE 100200Z 28002KT 15SM FEW100 SCT250 M14/M14 A2986 RMK AC2CI2 SLP153

CYXE;2010-01-10 03:00;CYXE 100300Z 30004KT 15SM FEW100 FEW250 M14/M15 A2987 RMK AC1CI1 SLP161

CYXE;2010-01-10 04:00;CYXE 100400Z 28005KT 10SM FEW250 M15/M16 A2989 RMK CI0 BR SLP170

CYXE;2010-01-10 05:00;CYXE 100500Z 28008KT 15SM SKC M14/M15 A2992 RMK SLP177

CYXE;2010-01-10 06:00;CYXE 100600Z 32004KT 15SM SKC M14/M15 A2992 RMK SLP177

CYXE;2010-01-10 07:00;CYXE 100700Z 28003KT 15SM SKC M16/M17 A2995 RMK SLP184

CYXE;2010-01-10 08:00;CYXE 100800Z 28008KT 15SM SKC M16/M16 A2996 RMK SLP190

CYXE;2010-01-10 09:00;CYXE 100900Z 29003KT 15SM SKC M17/M18 A2998 RMK SLP196

CYXE;2010-01-10 09:48;CYXE 100948Z 29006KT 15SM FEW008 OVC120 M14/ RMK ST1AC6

CYXE;2010-01-10 10:00;CYXE 101000Z 27007KT 15SM SCT008 OVC120 M14/M15 A3001 RMK ST3AC5 SLP206

CYXE;2010-01-10 10:07;CYXE 101007Z 28004KT 15SM BKN008 OVC120 M14/ RMK ST6AC2

CYXE;2010-01-10 10:38;CYXE 101038Z 26003KT 15SM OVC005 M12/ RMK ST8

CYXE;2010-01-10 11:00;CYXE 101100Z 25004KT 15SM OVC005 M12/M13 A3002 RMK ST8 SLP208

CYXE;2010-01-10 12:00;CYXE 101200Z 23002KT 10SM OVC004 M12/M13 A3002 RMK ST8 BR SLP207

CYXE;2010-01-10 13:00;CYXE 101300Z 18002KT 10SM OVC003 M12/M13 A3003 RMK ST8 BR SLP210

CYXE;2010-01-10 13:34;CYXE 101334Z 19003KT 10SM OVC005 M12/ RMK ST8 BR

CYXE;2010-01-10 13:51;CYXE 101351Z 15003KT 10SM OVC003 M11/ RMK ST8 BR

CYXE;2010-01-10 14:00;CYXE 101400Z 15002KT 10SM OVC003 M11/M13 A3003 RMK ST8 BR SLP209

CYXE;2010-01-10 14:16;CYXE 101416Z 15003KT 10SM BKN002 M12/ RMK SF3 BR

CYXE;2010-01-10 14:43;CYXE 101443Z 18004KT 15SM SCT003 M13/ RMK SF2

CYXE;2010-01-10 15:00;CYXE 101500Z 17004KT 15SM SCT003 BKN250 M13/M14 A3001 RMK SF2CI1 SLP205

CYXE;2010-01-10 16:00;CYXE 101600Z 18005KT 15SM FEW110 OVC260 M12/M13 A3002 RMK AC2CI2 SLP211

CYXE;2010-01-10 17:00;CYXE 101700Z 17005KT 15SM FEW110 BKN260 M10/M12 A3003 RMK AC2CI2 SLP214

CYXE;2010-01-10 18:00;CYXE 101800Z 19006KT 15SM FEW110 BKN280 M08/M10 A3003 RMK AC2CI1 SLP211

CYXE;2010-01-10 19:00;CYXE 101900Z 21006KT 15SM FEW110 SCT280 M05/M08 A3003 RMK AC2CI0 SLP210

CYXE;2010-01-10 20:00;CYXE 102000Z 24007KT 15SM FEW110 SCT280 M04/M08 A3002 RMK AC2CI0 SLP208

CYXE;2010-01-10 21:00;CYXE 102100Z 22004KT 15SM FEW110 BKN280 M04/M07 A3003 RMK AC1CI1 SLP210

CYXE;2010-01-10 22:00;CYXE 102200Z 23005KT 15SM FEW110 OVC280 M04/M07 A3005 RMK AC1CI2 SLP217

CYXE;2010-01-10 23:00;CYXE 102300Z 23005KT 15SM FEW110 OVC280 M06/M09 A3007 RMK AC1CI2 SLP222

CYXE;2010-01-11 00:00;CYXE 110000Z 22006KT 15SM FEW110 BKN250 M07/M09 A3009 RMK AC1CI2 SLP228

CYXE;2010-01-11 01:00;CYXE 110100Z 26003KT 10SM FEW010 FEW110 BKN250 M06/M07 A3011 RMK SF1AC1CI1 BR SLP235

CYXE;2010-01-11 02:00;CYXE 110200Z 27005KT 10SM FEW010 SCT250 M09/M10 A3013 RMK SF1CI1 BR SLP241

CYXE;2010-01-11 03:00;CYXE 110300Z 22005KT 8SM SCT250 M10/M10 A3014 RMK CI0 BR SLP247

CYXE;2010-01-11 04:00;CYXE 110400Z 21005KT 6SM BR FEW250 M10/M11 A3014 RMK CI0 FROIN SLP249

CYXE;2010-01-11 05:00;CYXE 110500Z 00000KT 8SM FEW250 M10/M11 A3015 RMK CI0 BR SLP251

CYXE;2010-01-11 06:00;CYXE 110600Z 19003KT 6SM BR FEW250 M11/M11 A3015 RMK CI0 SLP250

CYXE;2010-01-11 07:00;CYXE 110700Z 15004KT 6SM BR SKC M11/M12 A3014 RMK SLP248

CYXE;2010-01-11 08:00;CYXE 110800Z 18005KT 10SM BKN250 M10/M11 A3012 RMK CI2 BR SLP239

CYXE;2010-01-11 09:00;CYXE 110900Z 19006KT 12SM BKN250 M09/M09 A3010 RMK CI1 BR SLP228

CYXE;2010-01-11 10:00;CYXE 111000Z 16007KT 15SM BKN250 M08/M09 A3006 RMK CI1 SLP215

CYXE;2010-01-11 11:00;CYXE 111100Z 21005KT 15SM BKN250 M08/M08 A3010 RMK CI2 SLP228

CYXE;2010-01-11 12:00;CYXE 111200Z 16009KT 15SM OVC250 M06/M07 A3005 RMK CI3 SLP212

CYXE;2010-01-11 13:00;CYXE 111300Z 16012KT 15SM OVC250 M06/M07 A2999 RMK CI7 SLP192

CYXE;2010-01-11 14:00;CYXE 111400Z 15011KT 15SM OVC250 M03/M05 A2995 RMK CI7 SLP179

CYXE;2010-01-11 15:00;CYXE 111500Z 18007KT 15SM FEW110 BKN250 M03/M05 A2993 RMK AC1CI2 OBS TAKEN +04 SLP169

CYXE;2010-01-11 16:00;CYXE 111600Z 18011KT 15SM FEW120 OVC250 M02/M05 A2992 RMK AC1CI3 SLP167

CYXE;2010-01-11 17:00;CYXE 111700Z 18017G22KT 15SM OVC250 M01/M05 A2988 RMK CI5 SLP153

CYXE;2010-01-11 18:00;CYXE 111800Z 19017G22KT 15SM BKN120 OVC250 M01/M04 A2984 RMK AC6CI1 SLP139

CYXE;2010-01-11 19:00;CYXE 111900Z 18013KT 15SM OVC095 00/M03 A2980 RMK AC7 SLP127

CYXE;2010-01-11 20:00;CYXE 112000Z 18012G18KT 15SM BKN110 OVC250 01/M03 A2975 RMK AC6CI1 SLP111

CYXE;2010-01-11 21:00;CYXE 112100Z 19013KT 15SM BKN110 OVC250 04/M01 A2972 RMK AC6CI1 SLP094

CYXE;2010-01-11 22:00;CYXE 112200Z 19011KT 15SM BKN110 OVC250 04/M01 A2972 RMK AC6CI1 OBS TAKEN +03 SLP094

CYXE;2010-01-11 23:00;CYXE 112300Z 21007KT 15SM BKN110 OVC250 03/M01 A2974 RMK AC5CI0 SLP100

CYXE;2010-01-12 00:00;CYXE 120000Z 19007KT 15SM BKN110 BKN250 02/M01 A2972 RMK AC6CI0 SLP092

CYXE;2010-01-12 01:00;CYXE 120100Z 21008KT 15SM BKN110 BKN250 02/M00 A2970 RMK AC5CI0 SLP088

CYXE;2010-01-12 02:00;CYXE 120200Z 23010KT 15SM SCT110 BKN250 01/M01 A2972 RMK AC3CI0 SLP094

CYXE;2010-01-12 03:00;CYXE 120300Z 23004KT 15SM SCT110 BKN250 00/M01 A2970 RMK AC3CI0 SLP086

CYXE;2010-01-12 04:00;CYXE 120400Z 18004KT 15SM FEW040 BKN110 BKN250 M01/M02 A2969 RMK SC2AC4CI0 SLP081

CYXE;2010-01-12 05:00;CYXE 120500Z 22008KT 15SM FEW010 SCT110 BKN250 M01/M02 A2971 RMK SF1AC2CI0 SLP089

CYXE;2010-01-12 06:00;CYXE 120600Z 24004KT 15SM FEW010 SCT110 BKN250 M03/M03 A2972 RMK SF1AC2CI0 SLP093

CYXE;2010-01-12 07:00;CYXE 120700Z 26005KT 15SM FEW010 SCT110 BKN250 M04/M04 A2972 RMK SF1AC2CI0 SLP091

CYXE;2010-01-12 08:00;CYXE 120800Z 23009KT 15SM SCT110 BKN250 M06/M06 A2971 RMK AC3CI0 SLP090

CYXE;2010-01-12 09:00;CYXE 120900Z 23006KT 15SM FEW110 SCT250 M03/M03 A2972 RMK AC2CI1 SLP088

CYXE;2010-01-12 10:00;CYXE 121000Z 21002KT 15SM SCT250 M04/M04 A2971 RMK CI2 SLP087

CYXE;2010-01-12 11:00;CYXE 121100Z 00000KT 15SM FEW110 BKN250 M03/M03 A2971 RMK AC2CI1 SLP085

CYXE;2010-01-12 12:00;CYXE 121200Z 19005KT 15SM FEW110 BKN250 M04/M04 A2969 RMK AC2CI1 SLP082

CYXE;2010-01-12 13:00;CYXE 121300Z 16003KT 15SM FEW110 SCT250 M03/M04 A2968 RMK AC2CI1 SLP077

CYXE;2010-01-12 14:00;CYXE 121400Z 19006KT 15SM FEW110 SCT250 M03/M04 A2966 RMK AC2CI1 SLP072

CYXE;2010-01-12 15:00;CYXE 121500Z 19005KT 15SM FEW110 OVC250 M04/M05 A2967 RMK AC2CI2 SLP074

CYXE;2010-01-12 16:00;CYXE 121600Z 21004KT 15SM SCT110 OVC250 M03/M03 A2967 RMK AC3CI4 SLP076

CYXE;2010-01-12 17:00;CYXE 121700Z 19007KT 15SM SCT110 OVC250 M01/M01 A2966 RMK AC3CI4 SLP069

CYXE;2010-01-12 18:00;CYXE 121800Z 21006KT 15SM FEW110 OVC250 00/M01 A2964 RMK AC2CI5 SLP066

CYXE;2010-01-12 19:00;CYXE 121900Z 19007KT 15SM FEW120 OVC250 03/M00 A2961 RMK AC2CI5 SLP054

CYXE;2010-01-12 20:00;CYXE 122000Z 18006KT 15SM FEW120 OVC250 04/00 A2958 RMK AC1CI6 SLP044

CYXE;2010-01-12 21:00;CYXE 122100Z 19011KT 8SM SCT120 OVC250 05/00 A2954 RMK AC3CI4 BR SLP028

CYXE;2010-01-12 22:00;CYXE 122200Z 18009KT 10SM SCT120 BKN250 04/00 A2952 RMK AC3CI2 BR SLP020

CYXE;2010-01-12 23:00;CYXE 122300Z 19009KT 15SM FEW120 BKN250 04/00 A2952 RMK AC2CI3 SLP019

CYXE;2010-01-13 00:00;CYXE 130000Z 19009KT 15SM FEW120 OVC250 04/00 A2951 RMK AC1CI3 SLP016

CYXE;2010-01-13 01:00;CYXE 130100Z 19009KT 15SM OVC250 03/00 A2949 RMK CI4 SLP010

CYXE;2010-01-13 02:00;CYXE 130200Z 19011KT 15SM BKN250 03/00 A2947 RMK CI3 SLP004

CYXE;2010-01-13 03:00;CYXE 130300Z 20008KT 15SM BKN250 03/00 A2947 RMK CI3 SLP005

CYXE;2010-01-13 03:29;CYXE 130329Z 19009KT 15SM BKN250 02/ RMK CI2

CYXE;2010-01-13 04:00;CYXE 130400Z 19008KT 15SM SCT250 01/M01 A2945 RMK CI2 SLP999

CYXE;2010-01-13 05:00;CYXE 130500Z 21007KT 15SM SCT250 01/M01 A2945 RMK CI2 SLP998

CYXE;2010-01-13 06:00;CYXE 130600Z 23009KT 15SM SCT250 00/M01 A2944 RMK CI2 SLP995

CYXE;2010-01-13 07:00;CYXE 130700Z 24008KT 15SM SCT250 M02/M03 A2947 RMK CI2 SLP002

CYXE;2010-01-13 08:00;CYXE 130800Z 25007KT 15SM FEW250 M04/M04 A2947 RMK CI1 SLP003

CYXE;2010-01-13 09:00;CYXE 130900Z 26008KT 15SM SCT250 M04/M05 A2951 RMK CI1 SLP016

CYXE;2010-01-13 10:00;CYXE 131000Z 31008KT 15SM FEW250 M03/M04 A2954 RMK CI0 SLP028

CYXE;2010-01-13 11:00;CYXE 131100Z 30007KT 15SM FEW120 SCT250 M05/M05 A2958 RMK AC2CI1 SLP039

CYXE;2010-01-13 12:00;CYXE 131200Z 30007KT 15SM SCT120 BKN250 M04/M05 A2961 RMK AC3CI0 SLP051

CYXE;2010-01-13 13:00;CYXE 131300Z 29009KT 15SM BKN100 BKN250 M03/M04 A2963 RMK AC5CI0 SLP058

CYXE;2010-01-13 14:00;CYXE 131400Z 29010KT 15SM BKN080 BKN250 M01/M03 A2965 RMK AC6CI1 SLP064

CYXE;2010-01-13 15:00;CYXE 131500Z 31009KT 15SM BKN080 BKN250 M01/M02 A2967 RMK AC5CI2 SLP071

CYXE;2010-01-13 16:00;CYXE 131600Z 31006KT 15SM BKN090 BKN250 M01/M02 A2968 RMK AC5CI2 SLP075

CYXE;2010-01-13 17:00;CYXE 131700Z 30010KT 15SM FEW090 BKN250 00/M02 A2971 RMK AC1CI2 SLP084

CYXE;2010-01-13 18:00;CYXE 131800Z 28009KT 15SM FEW250 01/M02 A2973 RMK CI1 SLP094

CYXE;2010-01-13 19:00;CYXE 131900Z 31011G16KT 15SM FEW250 01/M02 A2974 RMK CI0 SLP096

CYXE;2010-01-13 20:00;CYXE 132000Z 30010KT 15SM FEW008 FEW250 00/M03 A2977 RMK SF1CI1 SLP105

CYXE;2010-01-13 21:00;CYXE 132100Z 29008KT 15SM SCT008 BKN250 M00/M03 A2979 RMK ST2CI0 SLP116

CYXE;2010-01-13 22:00;CYXE 132200Z 31008KT 15SM FEW008 BKN250 M03/M04 A2982 RMK SF2CI1 SLP127

CYXE;2010-01-13 23:00;CYXE 132300Z 30008KT 10SM SCT007 OVC250 M05/M05 A2985 RMK SF2CI2 BR SLP136

CYXE;2010-01-13 23:24;CYXE 132324Z 31006KT 4SM BR OVC006 OVC250 M03/ RMK SF6CI2

CYXE;2010-01-13 23:36;CYXE 132336Z 33009KT 4SM BR OVC005 M03/ RMK SF8

CYXE;2010-01-14 00:00;CYXE 140000Z 32006KT 4SM BR OVC005 M03/M04 A2987 RMK SF8 SLP145

CYXE;2010-01-14 00:10;CYXE 140010Z 33009KT 4SM BR OVC004 M03/ RMK SF8

CYXE;2010-01-14 01:00;CYXE 140100Z 35006KT 4SM BR OVC004 M03/M04 A2987 RMK SF8 SLP148

CYXE;2010-01-14 02:00;CYXE 140200Z 36004KT 6SM BR OVC004 M04/M04 A2989 RMK SF8 SLP153

CYXE;2010-01-14 02:41;CYXE 140241Z 05006KT 6SM BR OVC005 M04/ RMK SF8

CYXE;2010-01-14 03:00;CYXE 140300Z 03005KT 15SM OVC005 M04/M05 A2990 RMK SF8 SLP156

CYXE;2010-01-14 03:04;CYXE 140304Z 04006KT 15SM OVC004 M04/ RMK SF8

CYXE;2010-01-14 04:00;CYXE 140400Z 05004KT 6SM BR OVC004 M05/M05 A2992 RMK SF8 SLP163

CYXE;2010-01-14 04:35;CYXE 140435Z 06006KT 1 1/2SM -SN BR OVC003 M05/ RMK SN2SF6

CYXE;2010-01-14 05:00;CYXE 140500Z 06007KT 1 1/2SM -SN BR OVC002 M06/M06 A2994 RMK SN3SF5 SLP169

CYXE;2010-01-14 06:00;CYXE 140600Z 06005KT 1SM R09/P6000FT/N ICSN OVC003 M06/M07 A2996 RMK SF8 SLP176

CYXE;2010-01-14 07:00;CYXE 140700Z 07010KT 1 1/2SM -SN OVC002 M07/M08 A2996 RMK SF8 SLP175

CYXE;2010-01-14 07:17;CYXE 140717Z 09008KT 5SM -SN OVC002 M08/ RMK SF8

CYXE;2010-01-14 08:00;CYXE 140800Z 09009KT 8SM -SN OVC003 M09/M09 A2997 RMK SF8 SLP178

CYXE;2010-01-14 08:49;CYXE 140849Z 09006KT 12SM SCT004 BKN110 M09/ RMK SF3AC1

CYXE;2010-01-14 09:00;CYXE 140900Z 09008KT 15SM SCT004 BKN110 M09/M10 A2998 RMK SF3AC1 SLP185

CYXE;2010-01-14 10:00;CYXE 141000Z 08006KT 15SM SCT008 M11/M12 A2998 RMK ST2 SLP185

CYXE;2010-01-14 11:00;CYXE 141100Z 09004KT 15SM BKN005 M12/M13 A2997 RMK ST6 SLP182

CYXE;2010-01-14 12:00;CYXE 141200Z 13005KT 15SM SCT005 M12/M13 A2996 RMK ST3 SLP181

CYXE;2010-01-14 13:00;CYXE 141300Z 12004KT 12SM OVC003 M12/M13 A2996 RMK ST8 SLP180

CYXE;2010-01-14 14:00;CYXE 141400Z 11003KT 8SM BKN002 M11/M12 A2994 RMK ST4 BR SLP175

CYXE;2010-01-14 15:00;CYXE 141500Z 08003KT 6SM BR BKN002 M12/M13 A2993 RMK ST6 SLP173

CYXE;2010-01-14 15:17;CYXE 141517Z 08004KT 2SM BR OVC002 M12/ RMK ST6

CYXE;2010-01-14 15:50;CYXE 141550Z 05003KT 6SM BR OVC002 M12/ RMK ST7

CYXE;2010-01-14 16:00;CYXE 141600Z 05003KT 3SM BR OVC002 M12/M12 A2993 RMK ST7 SLP173

CYXE;2010-01-14 17:00;CYXE 141700Z 08002KT 3SM BR BKN003 OVC250 M11/M12 A2993 RMK ST5CI2 SLP172

CYXE;2010-01-14 17:31;CYXE 141731Z 08002KT 6SM BR SCT004 SCT120 OVC250 M10/ RMK ST2AC1CI2

CYXE;2010-01-14 18:00;CYXE 141800Z 00000KT 8SM SCT005 SCT120 OVC250 M08/M09 A2991 RMK ST2AC1CI2 BR SLP165

CYXE;2010-01-14 19:00;CYXE 141900Z 19005KT 12SM SCT050 SCT120 OVC250 M06/M07 A2988 RMK SC2AC1CI3 SLP155

CYXE;2010-01-14 20:00;CYXE 142000Z 21005KT 15SM BKN090 OVC250 M05/M06 A2987 RMK AC5CI2 SLP150

CYXE;2010-01-14 21:00;CYXE 142100Z 21004KT 15SM BKN090 OVC250 M04/M06 A2985 RMK AC6CI1 SLP144

CYXE;2010-01-14 22:00;CYXE 142200Z 29003KT 15SM FEW060 BKN098 OVC250 M04/M06 A2986 RMK SC2AC3CI1 SLP145

CYXE;2010-01-14 23:00;CYXE 142300Z 00000KT 15SM FEW060 BKN110 OVC250 M05/M06 A2984 RMK SC2AC2CI2 SLP139

CYXE;2010-01-15 00:00;CYXE 150000Z 29007KT 15SM FEW100 BKN250 M07/M08 A2986 RMK AC2CI1 SLP151

CYXE;2010-01-15 00:08;CYXE 150008Z 31005KT 15SM FEW010 FEW100 BKN250 M09/ RMK SF2AC1CI0

CYXE;2010-01-15 01:00;CYXE 150100Z 22002KT 6SM BR FEW010 SCT250 M11/M11 A2985 RMK SF1CI1 SLP147

CYXE;2010-01-15 01:48;CYXE 150148Z CCA 23003KT 4SM R09/2800VP6000FT/U BR FEW003 M10/ RMK SF2 VIS W 2 BR

CYXE;2010-01-15 01:53;CYXE 150153Z 26004KT 1 1/2SM R09/2600VP6000FT/D BR BKN003 M11/ RMK SF5

CYXE;2010-01-15 02:00;CYXE 150200Z 28006KT 1 1/2SM R09/2800VP6000FT/N BR OVC005 M11/M12 A2986 RMK SF5 VIS SW 5/8 SLP150

CYXE;2010-01-15 02:13;CYXE 150213Z 28006KT 4SM BR OVC005 M11/ RMK SF7

CYXE;2010-01-15 02:17;CYXE 150217Z 28005KT 4SM BR OVC006 M11/ RMK SF8

CYXE;2010-01-15 02:44;CYXE 150244Z 31006KT 4SM BR OVC003 M10/ RMK SF8

CYXE;2010-01-15 03:00;CYXE 150300Z 34005KT 2SM BR OVC001 M11/M11 A2987 RMK SF8 SLP154

CYXE;2010-01-15 03:17;CYXE 150317Z 33002KT 5/8SM R09/2800VP6000FT/D BR VV004 M11/ RMK FG8 FROIN

CYXE;2010-01-15 03:25;CYXE 150325Z 00000KT 5/8SM R09/2600FT/N BR VV003 M11/ RMK FG8 FROIN

CYXE;2010-01-15 03:40;CYXE 150340Z 15003KT 1SM R09/3000VP6000FT/U BR OVC003 M10/ RMK FG3SF5 FROIN VIS SW 5/8

CYXE;2010-01-15 03:52;CYXE 150352Z 17004KT 1 1/2SM BR OVC001 M11/ RMK FG2SF6 FROIN

CYXE;2010-01-15 04:00;CYXE 150400Z 18005KT 1 1/2SM BR OVC001 M11/M11 A2983 RMK SF8 FROIN SLP143

CYXE;2010-01-15 04:13;CYXE 150413Z 22002KT 5/8SM R09/4500VP6000FT/D BR VV001 M11/ RMK FG8 FROIN

CYXE;2010-01-15 04:24;CYXE 150424Z 26004KT 1/4SM R09/2400FT/N FZFG VV001 M10/ RMK FG8 FROIN

CYXE;2010-01-15 04:32;CYXE 150432Z 28005KT 3/8SM R09/3000FT/N FZFG VV001 M10/ RMK FG8 FROIN

CYXE;2010-01-15 04:44;CYXE 150444Z 27003KT 5/8SM R09/3000FT/N BR OVC001 M10/ RMK FG2SF6 FROIN VIS NE-SE 2

CYXE;2010-01-15 04:49;CYXE 150449Z 26003KT 3/8SM R09/2800V6000FT/U FZFG VV001 M10/ RMK FG8 FROIN

CYXE;2010-01-15 05:00;CYXE 150500Z 27004KT 1/8SM R09/2800VP6000FT/D FZFG VV001 M10/M11 A2982 RMK FG8 FROIN TOWER OBS SLP140

CYXE;2010-01-15 05:23;CYXE 150523Z CCA 21003KT 1/4SM R09/2200FT/N FZFG OVC001 M11/ RMK FG6SF2 FROIN VIS E 1 TOWER OBS

CYXE;2010-01-15 06:00;CYXE 150600Z 22004KT 1/4SM R09/2800V4000FT/U FZFG VV001 M11/M11 A2981 RMK FG8 SLP133

CYXE;2010-01-15 06:17;CYXE 150617Z CCA 22004KT 1SM R09/3500VP6000FT/D BR OVC001 M10/ RMK FG4ST4 VIS NW 1/2 SE 5

CYXE;2010-01-15 06:40;CYXE 150640Z 20005KT 1 1/2SM BR OVC002 M10/ RMK ST8 VIS SE 4

CYXE;2010-01-15 07:00;CYXE 150700Z 21004KT 2SM BR OVC002 M08/M09 A2979 RMK ST8 SLP126

CYXE;2010-01-15 07:34;CYXE 150734Z 22006KT 3SM BR OVC001 M09/ RMK ST8

CYXE;2010-01-15 08:00;CYXE 150800Z 20006KT 4SM BR OVC002 M08/M09 A2978 RMK ST8 SLP124

CYXE;2010-01-15 08:26;CYXE 150826Z 19003KT 6SM BR SCT002 M09/ RMK SF2

CYXE;2010-01-15 09:00;CYXE 150900Z 18005KT 6SM BR FEW002 M09/M10 A2976 RMK SF1 SLP111

CYXE;2010-01-15 10:00;CYXE 151000Z 20004KT 8SM SKC M08/M09 A2974 RMK BR SLP107

CYXE;2010-01-15 11:00;CYXE 151100Z 20007KT 8SM SKC M08/M08 A2973 RMK BR SLP102

CYXE;2010-01-15 12:00;CYXE 151200Z 21007KT 15SM SKC M06/M06 A2971 RMK SLP096

CYXE;2010-01-15 13:00;CYXE 151300Z 21007KT 15SM FEW100 M05/M05 A2970 RMK AC1 SLP092

CYXE;2010-01-15 14:00;CYXE 151400Z 21008KT 15SM BKN100 M04/M04 A2968 RMK AC6 SLP084

CYXE;2010-01-15 15:00;CYXE 151500Z 21011KT 15SM BKN110 BKN250 M04/M04 A2966 RMK AC5CI2 SLP079

CYXE;2010-01-15 16:00;CYXE 151600Z 23009KT 15SM BKN110 OVC250 M03/M04 A2966 RMK AC6CI1 SLP080

CYXE;2010-01-15 17:00;CYXE 151700Z 23007KT 15SM BKN093 OVC250 M03/M03 A2965 RMK AC6CI1 SLP075

CYXE;2010-01-15 18:00;CYXE 151800Z 20005KT 15SM BKN100 BKN250 M02/M02 A2961 RMK AC5CI2 SLP059

CYXE;2010-01-15 19:00;CYXE 151900Z 21009KT 15SM BKN100 OVC250 M00/M02 A2960 RMK AC6CI2 SLP055

CYXE;2010-01-15 20:00;CYXE 152000Z 23007KT 15SM BKN100 OVC250 01/M01 A2957 RMK AC5CI2 SLP047

CYXE;2010-01-15 21:00;CYXE 152100Z 22010KT 15SM FEW100 BKN250 02/M01 A2954 RMK AC1CI3 SLP033

CYXE;2010-01-15 22:00;CYXE 152200Z 23006KT 15SM FEW100 OVC280 03/M01 A2954 RMK AC2CI2 SLP032

CYXE;2010-01-15 23:00;CYXE 152300Z 20007KT 15SM SCT100 OVC280 02/M01 A2950 RMK AC2CI1 SLP018

CYXE;2010-01-16 00:00;CYXE 160000Z 20008KT 15SM BKN100 OVC280 02/M01 A2948 RMK AC3CI1 SLP011

CYXE;2010-01-16 01:00;CYXE 160100Z 20007KT 15SM BKN100 OVC280 02/M01 A2945 RMK AC6CI1 SLP999

CYXE;2010-01-16 02:00;CYXE 160200Z 19008KT 15SM OVC100 02/M01 A2940 RMK AC7 SLP983

CYXE;2010-01-16 03:00;CYXE 160300Z 19009KT 15SM OVC100 02/M02 A2938 RMK AC7 SLP973

CYXE;2010-01-16 04:00;CYXE 160400Z 19009KT 15SM OVC100 02/M02 A2934 RMK AC8 SLP960

CYXE;2010-01-16 05:00;CYXE 160500Z 20009KT 15SM OVC100 01/M02 A2932 RMK AC8 SLP956

CYXE;2010-01-16 06:00;CYXE 160600Z 22011KT 15SM SCT120 03/M01 A2930 RMK AC3 SLP946

CYXE;2010-01-16 07:00;CYXE 160700Z 22011G16KT 15SM FEW120 03/M01 A2930 RMK AC1 SLP946

CYXE;2010-01-16 08:00;CYXE 160800Z 26008KT 15SM SKC 00/M02 A2932 RMK SLP950

CYXE;2010-01-16 09:00;CYXE 160900Z 26012KT 15SM SKC M01/M02 A2934 RMK SLP957

CYXE;2010-01-16 10:00;CYXE 161000Z 27012KT 15SM SKC 02/M02 A2937 RMK SLP967

CYXE;2010-01-16 11:00;CYXE 161100Z 28011KT 15SM SKC 01/M02 A2940 RMK SLP977

CYXE;2010-01-16 12:00;CYXE 161200Z 27010KT 15SM SKC 00/M03 A2944 RMK SLP991

CYXE;2010-01-16 13:00;CYXE 161300Z 30018KT 15SM SKC 01/M01 A2947 RMK SLP003

CYXE;2010-01-16 13:12;CYXE 161312Z 30019G28KT 15SM BKN015 02/ RMK SC6

CYXE;2010-01-16 14:00;CYXE 161400Z 31015G21KT 15SM FEW015 01/M01 A2950 RMK SC1 SLP010

CYXE;2010-01-16 15:00;CYXE 161500Z 28012KT 15SM FEW020 FEW200 M00/M02 A2954 RMK SC1CI1 SLP026

CYXE;2010-01-16 16:00;CYXE 161600Z 28012KT 15SM FEW240 00/M03 A2956 RMK CI1 SLP035

CYXE;2010-01-16 17:00;CYXE 161700Z 28013KT 15SM FEW250 01/M03 A2959 RMK CI1 SLP044

CYXE;2010-01-16 18:00;CYXE 161800Z 26014KT 15SM SCT280 01/M03 A2961 RMK CI2 SLP048

CYXE;2010-01-16 19:00;CYXE 161900Z 27012KT 15SM FEW060 FEW280 02/M03 A2962 RMK SC1CI1 SLP052

CYXE;2010-01-16 20:00;CYXE 162000Z 28019KT 15SM SCT040 BKN280 03/M03 A2961 RMK SC2CI1 SLP051

CYXE;2010-01-16 21:00;CYXE 162100Z 30015G20KT 15SM BKN030 02/M02 A2962 RMK SC7 SLP055

CYXE;2010-01-16 22:00;CYXE 162200Z 31016G21KT 15SM BKN027 02/M02 A2965 RMK SC7 SLP064

CYXE;2010-01-16 23:00;CYXE 162300Z 30015G21KT 15SM OVC025 02/M02 A2969 RMK SC7 SLP077

CYXE;2010-01-17 00:00;CYXE 170000Z 30010KT 15SM BKN027 01/M02 A2972 RMK SC7 SLP088

CYXE;2010-01-17 01:00;CYXE 170100Z 29011KT 15SM BKN029 01/M02 A2974 RMK SC6 SLP097

CYXE;2010-01-17 02:00;CYXE 170200Z 30007KT 15SM FEW029 SCT280 M01/M03 A2977 RMK SC2CI0 SLP106

CYXE;2010-01-17 03:00;CYXE 170300Z 27008KT 15SM FEW029 BKN280 M02/M04 A2979 RMK SC1CI2 SLP116

CYXE;2010-01-17 04:00;CYXE 170400Z 28009KT 15SM FEW280 M04/M06 A2981 RMK CI0 SLP122

CYXE;2010-01-17 05:00;CYXE 170500Z 27003KT 15SM FEW280 M06/M07 A2983 RMK CI0 SLP127

CYXE;2010-01-17 06:00;CYXE 170600Z 24006KT 15SM SKC M10/M10 A2984 RMK SLP137

CYXE;2010-01-17 07:00;CYXE 170700Z 23007KT 15SM SKC M12/M12 A2985 RMK SLP139

CYXE;2010-01-17 08:00;CYXE 170800Z 24008KT 15SM SKC M12/M13 A2985 RMK SLP139

CYXE;2010-01-17 09:00;CYXE 170900Z 23007KT 15SM SKC M12/M13 A2986 RMK SLP145

CYXE;2010-01-17 10:00;CYXE 171000Z 22004KT 15SM SKC M10/M11 A2987 RMK SLP147

CYXE;2010-01-17 11:00;CYXE 171100Z 22006KT 15SM SKC M12/M13 A2987 RMK SLP148

CYXE;2010-01-17 12:00;CYXE 171200Z 22005KT 15SM SKC M14/M15 A2987 RMK OBS TAKEN +48 SLP149

CYXE;2010-01-17 13:00;CYXE 171300Z 22005KT 15SM SKC M14/M15 A2987 RMK OBS TAKEN +48 SLP149

CYXE;2010-01-17 14:00;CYXE 171400Z 23007KT 15SM FEW020 M14/M15 A2985 RMK SC1 SLP144

CYXE;2010-01-17 15:00;CYXE 171500Z 18004KT 15SM SCT280 M15/M15 A2986 RMK CI1 SLP149

CYXE;2010-01-17 16:00;CYXE 171600Z 19002KT 15SM FEW090 BKN290 M12/M13 A2986 RMK AC1CI2 SLP150

CYXE;2010-01-17 17:00;CYXE 171700Z 17002KT 15SM FEW090 SCT280 M10/M11 A2987 RMK AC1CI0 SLP151

CYXE;2010-01-17 18:00;CYXE 171800Z 16003KT 15SM FEW090 FEW280 M09/M09 A2986 RMK AC1CI0 SLP151

CYXE;2010-01-17 19:00;CYXE 171900Z 19006KT 15SM FEW090 FEW280 M06/M09 A2985 RMK AC1CI0 SLP147

CYXE;2010-01-17 20:00;CYXE 172000Z 18005KT 15SM FEW040 FEW090 M03/M07 A2983 RMK SC1AC1 SLP139

CYXE;2010-01-17 21:00;CYXE 172100Z 17006KT 15SM FEW280 M01/M06 A2980 RMK CI1 SLP127

CYXE;2010-01-17 22:00;CYXE 172200Z 15005KT 15SM FEW280 M00/M06 A2979 RMK CI1 SLP122

CYXE;2010-01-17 23:00;CYXE 172300Z 16005KT 15SM FEW280 M02/M06 A2978 RMK CI1 SLP121

CYXE;2010-01-18 00:00;CYXE 180000Z 15006KT 15SM FEW280 M04/M07 A2978 RMK CI1 SLP121

CYXE;2010-01-18 01:00;CYXE 180100Z 16006KT 15SM SCT280 M05/M08 A2977 RMK CI2 SLP118

CYXE;2010-01-18 02:00;CYXE 180200Z 15006KT 15SM SCT280 M06/M09 A2976 RMK CI2 SLP115

CYXE;2010-01-18 03:00;CYXE 180300Z 15006KT 15SM BKN250 M05/M08 A2974 RMK CI3 SLP108

CYXE;2010-01-18 04:00;CYXE 180400Z 15007KT 15SM BKN250 M05/M08 A2974 RMK CI2 SLP108

CYXE;2010-01-18 05:00;CYXE 180500Z 15006KT 15SM SCT250 M05/M08 A2972 RMK CI2 SLP103

CYXE;2010-01-18 06:00;CYXE 180600Z 15007KT 15SM SCT250 M05/M09 A2971 RMK CI1 SLP094

CYXE;2010-01-18 07:00;CYXE 180700Z 14004KT 15SM BKN250 M06/M09 A2969 RMK CI2 OBS TAKEN -7 SLP089

CYXE;2010-01-18 08:00;CYXE 180800Z 15008KT 15SM SCT250 M06/M09 A2968 RMK CI2 OBS TAKEN -4 SLP085

CYXE;2010-01-18 09:00;CYXE 180900Z 14006KT 15SM FEW250 M07/M09 A2968 RMK CI0 OBS TAKEN -10 SLP080

CYXE;2010-01-18 10:00;CYXE 181000Z 15004KT 15SM SCT250 M07/M10 A2965 RMK CI1 OBS TAKEN -6 SLP073

CYXE;2010-01-18 11:00;CYXE 181100Z 12006KT 15SM BKN250 M07/M09 A2965 RMK CI2 OBS TAKEN -6 SLP070

CYXE;2010-01-18 13:00;CYXE 181300Z 13007KT 15SM BKN250 M07/M09 A2963 RMK CI3 SLP068

CYXE;2010-01-18 14:00;CYXE 181400Z 15006KT 15SM FEW100 BKN250 M06/M08 A2962 RMK AC2CI2 SLP065

CYXE;2010-01-18 15:00;CYXE 181500Z 15007KT 15SM OVC250 M06/M08 A2961 RMK CI4 SLP059

CYXE;2010-01-18 16:00;CYXE 181600Z 15006KT 15SM FEW110 OVC250 M06/M08 A2961 RMK AC1CI3 SLP058

CYXE;2010-01-18 17:00;CYXE 181700Z 16008KT 15SM FEW110 OVC250 M05/M07 A2960 RMK AC2CI2 SLP056

CYXE;2010-01-18 18:00;CYXE 181800Z 16006KT 15SM SCT110 OVC250 M03/M06 A2959 RMK AC2CI3 SLP049

CYXE;2010-01-18 19:00;CYXE 181900Z 17009KT 15SM BKN110 OVC250 M02/M05 A2957 RMK AC4CI2 SLP045

CYXE;2010-01-18 20:00;CYXE 182000Z 16011KT 15SM SCT110 OVC250 M01/M05 A2954 RMK AC2CI4 SLP033

CYXE;2010-01-18 21:00;CYXE 182100Z 18009KT 15SM FEW110 OVC250 M01/M05 A2954 RMK AC2CI3 SLP034

CYXE;2010-01-18 22:00;CYXE 182200Z 17009KT 15SM FEW120 BKN250 M01/M05 A2953 RMK AC1CI5 SLP031

CYXE;2010-01-18 23:00;CYXE 182300Z 17008KT 15SM FEW120 BKN250 M02/M05 A2953 RMK AC2CI4 SLP030

CYXE;2010-01-19 00:00;CYXE 190000Z 17011KT 15SM SCT120 BKN250 M02/M05 A2953 RMK AC2CI2 SLP032

CYXE;2010-01-19 01:00;CYXE 190100Z 17011KT 15SM SCT120 BKN250 M03/M05 A2952 RMK AC2CI2 SLP028

CYXE;2010-01-19 02:00;CYXE 190200Z 17009KT 15SM SCT120 OVC250 M03/M05 A2952 RMK AC3CI2 SLP028

CYXE;2010-01-19 03:00;CYXE 190300Z 17009KT 15SM FEW120 BKN250 M03/M05 A2950 RMK AC2CI2 SLP021

CYXE;2010-01-19 04:00;CYXE 190400Z 17010KT 15SM SCT120 OVC250 M02/M05 A2949 RMK AC3CI4 SLP016

CYXE;2010-01-19 05:00;CYXE 190500Z 16008KT 15SM FEW120 OVC250 M02/M04 A2948 RMK AC2CI6 SLP015

CYXE;2010-01-19 06:00;CYXE 190600Z 16008KT 15SM FEW120 OVC250 M02/M04 A2948 RMK AC2CI6 SLP012

CYXE;2010-01-19 07:00;CYXE 190700Z 17009KT 15SM BKN250 M03/M05 A2948 RMK CI2 SLP012

CYXE;2010-01-19 08:00;CYXE 190800Z 17007KT 15SM BKN250 M03/M05 A2947 RMK CI2 SLP008

CYXE;2010-01-19 09:00;CYXE 190900Z 16007KT 15SM FEW120 OVC250 M04/M06 A2947 RMK AC2CI4 SLP009

CYXE;2010-01-19 10:00;CYXE 191000Z 16009KT 15SM FEW120 OVC250 M03/M05 A2947 RMK AC2CI6 SLP007

CYXE;2010-01-19 11:00;CYXE 191100Z 16008KT 15SM SCT120 OVC250 M03/M05 A2947 RMK AC4CI4 SLP006

CYXE;2010-01-19 12:00;CYXE 191200Z 15006KT 15SM FEW120 OVC250 M03/M05 A2947 RMK AC2CI4 SLP007

CYXE;2010-01-19 13:00;CYXE 191300Z 16006KT 15SM FEW250 M05/M06 A2947 RMK CI0 SLP008

CYXE;2010-01-19 14:00;CYXE 191400Z 16006KT 15SM FEW110 M05/M07 A2947 RMK AC1 SLP006

CYXE;2010-01-19 15:00;CYXE 191500Z 16005KT 15SM FEW040 FEW250 M06/M07 A2947 RMK SC1CI1 SLP008

CYXE;2010-01-19 16:00;CYXE 191600Z 17007KT 15SM FEW100 M05/M07 A2948 RMK AC1 OBS TAKEN +11 SLP012

CYXE;2010-01-19 17:00;CYXE 191700Z 16007KT 15SM FEW100 M04/M07 A2947 RMK AC1 SLP011

CYXE;2010-01-19 18:00;CYXE 191800Z 17008KT 15SM FEW250 M03/M06 A2947 RMK CI0 SLP008

CYXE;2010-01-19 19:00;CYXE 191900Z 19005KT 15SM FEW250 M01/M06 A2947 RMK CI1 SLP006

CYXE;2010-01-19 20:00;CYXE 192000Z 19008KT 15SM FEW250 00/M05 A2946 RMK CI1 SLP003

CYXE;2010-01-19 21:00;CYXE 192100Z 19006KT 15SM FEW250 00/M05 A2945 RMK CI1 SLP999

CYXE;2010-01-19 22:00;CYXE 192200Z 19004KT 15SM SCT250 M01/M06 A2945 RMK CI1 SLP000

CYXE;2010-01-19 23:00;CYXE 192300Z 15006KT 15SM BKN250 M02/M06 A2946 RMK CI3 SLP003

CYXE;2010-01-20 00:00;CYXE 200000Z 17008KT 15SM BKN250 M03/M06 A2947 RMK CI2 SLP006

CYXE;2010-01-20 01:00;CYXE 200100Z 14005KT 15SM BKN250 M05/M07 A2947 RMK CI2 SLP007

CYXE;2010-01-20 02:00;CYXE 200200Z 14005KT 15SM SCT250 M07/M08 A2949 RMK CI1 SLP014

CYXE;2010-01-20 03:00;CYXE 200300Z 11003KT 15SM BKN250 M09/M10 A2949 RMK CI2 SLP020

CYXE;2010-01-20 04:00;CYXE 200400Z 13005KT 15SM SCT250 M09/M10 A2948 RMK CI1 SLP016

CYXE;2010-01-20 05:00;CYXE 200500Z 15004KT 15SM SCT250 M09/M10 A2948 RMK CI1 SLP016

CYXE;2010-01-20 06:00;CYXE 200600Z 00000KT 15SM FEW250 M10/M11 A2948 RMK CI0 SLP016

CYXE;2010-01-20 07:00;CYXE 200700Z 11005KT 15SM FEW250 M12/M13 A2948 RMK CI0 SLP015

CYXE;2010-01-20 08:00;CYXE 200800Z 10005KT 8SM FEW250 M12/M13 A2947 RMK CI0 BR SLP014

CYXE;2010-01-20 08:35;CYXE 200835Z 09005KT 8SM FEW004 M12/ RMK SF1 BR

CYXE;2010-01-20 09:00;CYXE 200900Z 07006KT 6SM BR FEW004 M12/M13 A2948 RMK SF1 SLP016

CYXE;2010-01-20 10:00;CYXE 201000Z 10005KT 4SM BR FEW004 M13/M13 A2949 RMK SF1 SLP019

CYXE;2010-01-20 10:48;CYXE 201048Z 14006KT 3SM BR BKN003 M10/ RMK SF5

CYXE;2010-01-20 11:00;CYXE 201100Z 14006KT 3SM BR OVC003 M10/M10 A2951 RMK SF7 SLP023

CYXE;2010-01-20 11:03;CYXE 201103Z 14004KT 3SM BR OVC004 M10/ RMK SF7

CYXE;2010-01-20 11:18;CYXE 201118Z 14006KT 2SM BR OVC003 M09/ RMK SF8 TOWER OBS

CYXE;2010-01-20 12:00;CYXE 201200Z 13004KT 3SM BR OVC003 M09/M09 A2951 RMK SF8 SLP025

CYXE;2010-01-20 12:25;CYXE 201225Z 10007KT 1 1/2SM BR OVC003 M09/ RMK SF8 TOWER OBS

CYXE;2010-01-20 12:33;CYXE 201233Z 11006KT 1SM R09/P6000FT/N BR OVC002 M09/ RMK FG2SF6 TOWER OBS

CYXE;2010-01-20 13:00;CYXE 201300Z 13007KT 1SM R09/P6000FT/D BR OVC002 M08/M09 A2952 RMK FG2SF6 SLP027

CYXE;2010-01-20 13:27;CYXE 201327Z 15005KT 5/8SM R09/4500VP6000FT/D BR VV002 M08/ RMK FG8 FROIN

CYXE;2010-01-20 13:36;CYXE 201336Z 14003KT 1/2SM R09/3500VP6000FT/N FZFG VV002 M08/ RMK FG8 FROIN

CYXE;2010-01-20 13:48;CYXE 201348Z 15004KT 5/8SM R09/4500VP6000FT/U BR VV001 M08/ RMK FG8 FROIN

CYXE;2010-01-20 14:00;CYXE 201400Z 15003KT 3/4SM R09/P6000FT/U BR OVC001 M08/M09 A2952 RMK FG4SF4 VIS W 11/2 BR FROIN SLP030

CYXE;2010-01-20 14:55;CYXE 201455Z 13005KT 1/2SM R09/P6000FT/U FZFG OVC002 M08/ RMK FG6SF2

CYXE;2010-01-20 15:00;CYXE 201500Z 13006KT 1/2SM R09/P6000FT/U FZFG OVC002 M08/M08 A2953 RMK FG6SF2 SLP034

CYXE;2010-01-20 15:53;CYXE 201553Z 11007KT 3/4SM R09/P6000FT/U BR OVC001 M08/ RMK FG3ST4 VIS W-S 1/2

CYXE;2010-01-20 16:00;CYXE 201600Z 12006KT 1/2SM R09/3000VP6000FT/D FZFG OVC002 M08/M08 A2953 RMK ST6 SLP034

CYXE;2010-01-20 16:16;CYXE 201616Z 12006KT 3/4SM R09/4500VP6000FT/U DRSN BR OVC002 M08/ RMK ST7

CYXE;2010-01-20 17:00;CYXE 201700Z 12006KT 1SM R09/P6000FT/U DRSN BR OVC002 M08/M08 A2954 RMK ST7 SLP037

CYXE;2010-01-20 17:30;CYXE 201730Z 11006KT 1 1/2SM DRSN BR OVC003 M08/ RMK ST6

CYXE;2010-01-20 18:00;CYXE 201800Z 09008KT 4SM BR OVC004 M07/M08 A2954 RMK ST7 SLP040

CYXE;2010-01-20 18:19;CYXE 201819Z 10008KT 2SM R09/3500V5000FT/D BR OVC003 M07/ RMK ST8

CYXE;2010-01-20 19:00;CYXE 201900Z 12006KT 3SM R09/4500VP6000FT/U BR OVC004 M07/M08 A2955 RMK ST7 SLP041

CYXE;2010-01-20 20:00;CYXE 202000Z 10008KT 5SM BR OVC004 M07/M07 A2955 RMK ST8 SLP041

CYXE;2010-01-20 21:00;CYXE 202100Z 12007KT 5SM BR OVC004 M06/M07 A2955 RMK ST8 SLP042

CYXE;2010-01-20 21:41;CYXE 202141Z 12006KT 5SM BR OVC005 M06/ RMK ST8

CYXE;2010-01-20 22:00;CYXE 202200Z 13007KT 5SM BR OVC005 M06/M07 A2956 RMK ST8 SLP045

CYXE;2010-01-20 23:00;CYXE 202300Z 10012KT 5SM BR OVC004 M06/M07 A2956 RMK ST8 SLP045

CYXE;2010-01-21 00:00;CYXE 210000Z 12009KT 5SM BR OVC004 M07/M07 A2958 RMK ST8 SLP052

CYXE;2010-01-21 00:08;CYXE 210008Z 11010KT 4SM BR OVC003 M07/ RMK ST8

CYXE;2010-01-21 01:00;CYXE 210100Z 14009KT 4SM BR OVC004 M07/M08 A2960 RMK ST8 SLP057

CYXE;2010-01-21 01:45;CYXE 210145Z 11009KT 4SM BR OVC003 M07/ RMK ST8

CYXE;2010-01-21 02:00;CYXE 210200Z 11012KT 4SM BR OVC003 M07/M08 A2960 RMK ST8 SLP059

CYXE;2010-01-21 03:00;CYXE 210300Z 10010KT 5SM BR OVC004 M07/M07 A2960 RMK ST8 SLP058

CYXE;2010-01-21 04:00;CYXE 210400Z 10008KT 5SM BR OVC004 M07/M07 A2961 RMK ST8 SLP060

CYXE;2010-01-21 05:00;CYXE 210500Z 09011KT 5SM BR OVC005 M07/M07 A2961 RMK ST8 SLP060

CYXE;2010-01-21 05:13;CYXE 210513Z 09009KT 4SM BR OVC004 M07/ RMK ST8

CYXE;2010-01-21 06:00;CYXE 210600Z 08008KT 3SM BR OVC004 M07/M07 A2961 RMK ST8 SLP060

CYXE;2010-01-21 07:00;CYXE 210700Z 07007KT 4SM BR OVC006 M06/M07 A2960 RMK ST8 SLP057

CYXE;2010-01-21 08:00;CYXE 210800Z 08008KT 3SM BR OVC005 M06/M06 A2960 RMK ST8 SLP057

CYXE;2010-01-21 08:08;CYXE 210808Z 08009KT 2SM -SN BR OVC003 M06/ RMK ST8

CYXE;2010-01-21 09:00;CYXE 210900Z 09011KT 2SM -SN BR OVC002 M06/M06 A2960 RMK ST8 SLP056

CYXE;2010-01-21 09:14;CYXE 210914Z 09010KT 3/4SM R09/P6000FT/N -SN BR VV002 M06/ RMK FG8

CYXE;2010-01-21 09:42;CYXE 210942Z 08010KT 3/4SM R09/P6000FT/D BR VV002 M06/ RMK FG8

CYXE;2010-01-21 10:00;CYXE 211000Z 08009KT 5/8SM R09/6000FT/U BR VV002 M06/M06 A2960 RMK FG8 SLP056

CYXE;2010-01-21 10:24;CYXE 211024Z 08009KT 1/2SM R09/P6000FT/U FZFG VV001 M06/ RMK FG8

CYXE;2010-01-21 11:00;CYXE 211100Z 08010KT 1/2SM R09/6000FT/D FZFG VV001 M05/M06 A2959 RMK FG8 SLP052

CYXE;2010-01-21 11:16;CYXE 211116Z 09009KT 1 1/4SM BR VV002 M05/ RMK FG8

CYXE;2010-01-21 11:42;CYXE 211142Z 09007KT 2SM BR VV003 M05/ RMK FG8

CYXE;2010-01-21 12:00;CYXE 211200Z 08008KT 2SM BR VV003 M05/M05 A2958 RMK FG8 SLP049

CYXE;2010-01-21 12:22;CYXE 211222Z 09008KT 1SM R09/P6000FT/D BR VV002 M04/ RMK FG8

CYXE;2010-01-21 13:00;CYXE 211300Z 07009KT 1SM R09/P6000FT/D BR VV002 M05/M05 A2957 RMK FG8 SLP046

CYXE;2010-01-21 13:29;CYXE 211329Z 07008KT 2SM -SG BR VV002 M05/ RMK FG8

CYXE;2010-01-21 14:00;CYXE 211400Z 07007KT 2 1/2SM -SG BR FEW002 OVC007 M05/M05 A2958 RMK ST2SF6 SLP049

CYXE;2010-01-21 15:00;CYXE 211500Z 07008KT 2 1/2SM -SG BR FEW002 OVC007 M05/M05 A2959 RMK ST2SF6 SLP052

CYXE;2010-01-21 15:08;CYXE 211508Z 07009KT 1 1/2SM -SN BR SCT007 OVC013 M05/ RMK ST3SC5

CYXE;2010-01-21 16:00;CYXE 211600Z 07008KT 1SM R09/P6000FT/N -SN BR FEW013 OVC032 M05/M05 A2959 RMK ST2SC6 SLP054

CYXE;2010-01-21 17:00;CYXE 211700Z 08008KT 1 1/2SM -SN BR OVC009 M04/M04 A2960 RMK ST8 SLP055

CYXE;2010-01-21 18:00;CYXE 211800Z 13009KT 1 1/2SM -SN BR OVC007 M03/M04 A2960 RMK SC8 SLP055

CYXE;2010-01-21 18:18;CYXE 211818Z 12010KT 3/4SM R09/P6000FT/N -SN BR VV006 M04/ RMK SN8

CYXE;2010-01-21 18:34;CYXE 211834Z 12010KT 1 1/2SM -SN BR OVC006 M04/ RMK SC8

CYXE;2010-01-21 18:53;CYXE 211853Z 12010KT 2SM -SN BR BKN006 OVC032 M04/ RMK SC6SC2

CYXE;2010-01-21 19:00;CYXE 211900Z 11009KT 3SM -SN BR FEW006 SCT032 OVC081 M04/M04 A2959 RMK SF2ST2AC5 SLP051

CYXE;2010-01-21 19:39;CYXE 211939Z 12009KT 5SM -SN BKN009 OVC032 M04/ RMK SF5SC3

CYXE;2010-01-21 20:00;CYXE 212000Z 12009KT 5SM -SN BR SCT010 OVC029 M04/M05 A2958 RMK SF3SC5 SLP048

CYXE;2010-01-21 21:00;CYXE 212100Z 12010KT 6SM -SG BR BKN010 OVC025 M04/M06 A2957 RMK ST5SC3 SLP045

CYXE;2010-01-21 22:00;CYXE 212200Z 12008KT 6SM -SG BR BKN010 OVC020 M04/M06 A2958 RMK ST6SC2 SLP049

CYXE;2010-01-21 23:00;CYXE 212300Z 12009KT 5SM -SN BR OVC012 M04/M06 A2960 RMK ST8 SLP053

CYXE;2010-01-21 23:45;CYXE 212345Z 13009KT 6SM -SG BR OVC012 M04/ RMK ST8

CYXE;2010-01-22 00:00;CYXE 220000Z 13009KT 6SM -SG BR OVC012 M04/M06 A2961 RMK ST8 SLP057

CYXE;2010-01-22 01:00;CYXE 220100Z 13009KT 6SM -SG BR OVC010 M04/M06 A2961 RMK ST8 SLP058

CYXE;2010-01-22 01:24;CYXE 220124Z 13010KT 6SM -SG BR OVC008 M04/ RMK ST8

CYXE;2010-01-22 02:00;CYXE 220200Z 13009KT 6SM -SG BR OVC007 M04/M05 A2961 RMK ST8 SLP057

CYXE;2010-01-22 02:29;CYXE 220229Z 13010KT 5SM -SG BR OVC005 M04/ RMK ST8

CYXE;2010-01-22 03:00;CYXE 220300Z 11007KT 4SM -SG BR OVC005 M04/M05 A2961 RMK ST8 SLP060

CYXE;2010-01-22 03:23;CYXE 220323Z 10007KT 3SM -FZDZ BR OVC005 M04/ RMK ST8

CYXE;2010-01-22 03:42;CYXE 220342Z 10007KT 3SM -FZDZ BR OVC004 M04/ RMK ST8

CYXE;2010-01-22 04:00;CYXE 220400Z 11007KT 3SM -FZDZ BR OVC004 M04/M05 A2961 RMK ST8 -FZDZ INTMT SLP057

CYXE;2010-01-22 05:00;CYXE 220500Z 13010KT 5SM -FZDZ BR OVC006 M04/M05 A2961 RMK ST8 -FZDZ INTMT SLP057

CYXE;2010-01-22 06:00;CYXE 220600Z 14008KT 12SM OVC006 M04/M05 A2961 RMK ST8 BR SLP057

CYXE;2010-01-22 07:00;CYXE 220700Z 13008KT 8SM OVC006 M04/M04 A2960 RMK ST8 BR SLP054

CYXE;2010-01-22 08:00;CYXE 220800Z 13010KT 12SM OVC005 M04/M04 A2960 RMK ST8 BR SLP052

CYXE;2010-01-22 09:00;CYXE 220900Z 13009KT 15SM OVC005 M04/M04 A2961 RMK ST8 SLP058

CYXE;2010-01-22 10:00;CYXE 221000Z 11010KT 10SM OVC006 M04/M05 A2960 RMK ST8 BR SLP055

CYXE;2010-01-22 10:53;CYXE 221053Z 11008KT 3SM -FZDZ BR OVC004 M04/ RMK ST8

CYXE;2010-01-22 11:00;CYXE 221100Z 11008KT 3SM -FZDZ BR OVC004 M04/M05 A2960 RMK ST8 SLP055

CYXE;2010-01-22 11:26;CYXE 221126Z 11009KT 2SM -FZDZ BR OVC003 M04/ RMK ST8

CYXE;2010-01-22 12:00;CYXE 221200Z 10010KT 2SM -FZDZ BR OVC003 M04/M04 A2960 RMK ST8 FZDZ INTMT SLP053

CYXE;2010-01-22 12:28;CYXE 221228Z 11011KT 1 1/2SM -FZDZ BR VV002 M04/ RMK FG8 FZDZ INTMT

CYXE;2010-01-22 13:00;CYXE 221300Z 12008KT 2SM -FZDZ BR OVC004 M04/M04 A2962 RMK ST8 FZDZ INTMT SLP059

CYXE;2010-01-22 13:24;CYXE 221324Z 12008KT 8SM OVC005 M04/ RMK ST8 BR

CYXE;2010-01-22 13:45;CYXE 221345Z 11011KT 10SM OVC006 M04/ RMK ST8 BR

CYXE;2010-01-22 13:53;CYXE 221353Z 11010KT 12SM -SN OVC006 M04/ RMK ST8

CYXE;2010-01-22 14:00;CYXE 221400Z 12008KT 15SM -SN OVC006 M04/M04 A2961 RMK ST8 SLP057

CYXE;2010-01-22 14:29;CYXE 221429Z 10010KT 8SM -SN OVC005 M04/ RMK ST8 BR

CYXE;2010-01-22 15:00;CYXE 221500Z 10008KT 6SM -SN BR OVC005 M04/M04 A2960 RMK ST8 SLP053

CYXE;2010-01-22 15:17;CYXE 221517Z 11010KT 6SM -SN BR OVC006 M04/ RMK ST8

CYXE;2010-01-22 15:39;CYXE 221539Z 11008KT 6SM -FZDZ BR OVC006 M04/ RMK ST8

CYXE;2010-01-22 16:00;CYXE 221600Z 09010KT 6SM -FZDZ BR OVC006 M04/M04 A2960 RMK ST8 SLP054

CYXE;2010-01-22 16:21;CYXE 221621Z 11010KT 6SM -FZDZ BR OVC005 M04/ RMK ST8

CYXE;2010-01-22 16:36;CYXE 221636Z 10011KT 6SM -SN -FZDZ BR OVC007 M04/ RMK ST8

CYXE;2010-01-22 17:00;CYXE 221700Z 11010KT 6SM -SN -FZDZ BR OVC007 M04/M04 A2961 RMK ST8 SLP058

CYXE;2010-01-22 17:29;CYXE 221729Z 14012KT 8SM -SN OVC006 M04/ RMK ST8 BR

CYXE;2010-01-22 18:00;CYXE 221800Z 13011KT 10SM -SN OVC005 M04/M05 A2963 RMK ST8 SLP063

CYXE;2010-01-22 19:00;CYXE 221900Z 10009KT 10SM -SN OVC006 M04/M05 A2960 RMK ST8 SLP053

CYXE;2010-01-22 20:00;CYXE 222000Z 10011KT 12SM -SN OVC006 M04/M05 A2959 RMK ST8 SLP052

CYXE;2010-01-22 21:00;CYXE 222100Z 10008KT 12SM -SN OVC005 M04/M05 A2960 RMK ST8 SLP052

CYXE;2010-01-22 22:00;CYXE 222200Z 08009KT 12SM -SN OVC008 M04/M05 A2960 RMK ST8 SLP053

CYXE;2010-01-22 23:00;CYXE 222300Z 10010KT 12SM -SN OVC008 M04/M05 A2962 RMK ST8 SLP059

CYXE;2010-01-23 00:00;CYXE 230000Z 08007KT 15SM OVC008 M04/M05 A2961 RMK ST8 SLP058

CYXE;2010-01-23 00:50;CYXE 230050Z 08009KT 12SM -SN OVC008 M04/ RMK SC8

CYXE;2010-01-23 01:00;CYXE 230100Z 08009KT 8SM -SN OVC006 M04/M05 A2962 RMK SC8 SLP061

CYXE;2010-01-23 01:14;CYXE 230114Z 08010KT 3SM -FZDZ BR OVC003 M04/ RMK SC8

CYXE;2010-01-23 02:00;CYXE 230200Z 07011KT 3SM -FZDZ BR OVC004 M04/M04 A2961 RMK SC8 FZDZ INTMT SLP056

CYXE;2010-01-23 02:18;CYXE 230218Z 09010KT 8SM OVC007 M04/ REFZDZ RMK SC8

CYXE;2010-01-23 03:00;CYXE 230300Z 09010G16KT 8SM OVC006 M04/M05 A2962 REFZDZ RMK SC8 SLP060

CYXE;2010-01-23 04:00;CYXE 230400Z 08009KT 6SM -SN OVC004 M04/M04 A2962 RMK SC8 SLP061

CYXE;2010-01-23 05:00;CYXE 230500Z 07009KT 8SM -SN OVC006 M04/M05 A2962 RMK SC8 BR SLP060

CYXE;2010-01-23 06:00;CYXE 230600Z 06007KT 6SM -SN BR OVC005 M04/M05 A2962 RMK ST8 SLP060

CYXE;2010-01-23 06:49;CYXE 230649Z 07010KT 10SM -SN BKN007 OVC010 M04/ RMK ST6SC2 BR

CYXE;2010-01-23 07:00;CYXE 230700Z 06009KT 10SM -SN OVC006 M04/M05 A2961 RMK ST8 BR SLP059

CYXE;2010-01-23 07:10;CYXE 230710Z 06009KT 4SM -SN BR OVC004 M04/ RMK ST8

CYXE;2010-01-23 08:00;CYXE 230800Z 05009KT 12SM -SN OVC007 M04/M04 A2961 RMK ST8 SLP058

CYXE;2010-01-23 09:00;CYXE 230900Z 03010KT 12SM -FZDZ OVC006 M04/M04 A2960 RMK ST8 FZDZ INTMT BR SLP052

CYXE;2010-01-23 10:00;CYXE 231000Z 05012KT 12SM -FZDZ OVC005 M04/M05 A2960 RMK ST8 BR SLP052

CYXE;2010-01-23 10:08;CYXE 231008Z 04013KT 12SM -SN OVC005 M04/ REFZDZ RMK ST8 BR

CYXE;2010-01-23 10:28;CYXE 231028Z 05013KT 1 1/2SM -SN VV005 M04/ REFZDZ RMK SN8 BR

CYXE;2010-01-23 11:00;CYXE 231100Z 05014KT 1 1/4SM -SN DRSN VV005 M04/M05 A2959 REFZDZ RMK SN8 SLP050

CYXE;2010-01-23 11:49;CYXE 231149Z 04012KT 1SM R09/P6000FT/N -SN DRSN VV008 M04/ RMK SN8

CYXE;2010-01-23 12:00;CYXE 231200Z 04012KT 1 1/2SM -SN DRSN VV009 M04/M05 A2959 RMK SN8 /S01/ SLP049

CYXE;2010-01-23 12:16;CYXE 231216Z 04013KT 1SM R09/P6000FT/D -SN DRSN VV010 M04/ RMK SN8

CYXE;2010-01-23 13:00;CYXE 231300Z 03015KT 1 1/2SM -SN DRSN VV010 M04/M05 A2958 RMK SN8 SLP048

CYXE;2010-01-23 14:00;CYXE 231400Z 03015G20KT 1 1/2SM -SN DRSN VV011 M04/M05 A2959 RMK SN8 /S01/ SLP049

CYXE;2010-01-23 14:23;CYXE 231423Z 04014KT 1SM R09/P6000FT/D -SN DRSN VV009 M04/ RMK SN8

CYXE;2010-01-23 15:00;CYXE 231500Z 03015KT 1SM R09/P6000FT/D -SN DRSN VV008 M04/M05 A2960 RMK SN8 SLP053

CYXE;2010-01-23 16:00;CYXE 231600Z 03017KT 1 1/2SM -SN DRSN VV014 M04/M05 A2959 RMK SN8 SLP052

CYXE;2010-01-23 16:41;CYXE 231641Z 03017KT 1SM R09/P6000FT/N -SN DRSN VV007 M04/ RMK SN8 /S03/

CYXE;2010-01-23 17:00;CYXE 231700Z 03019KT 1SM R09/P6000FT/D -SN DRSN VV009 M04/M05 A2959 RMK SN8 SLP052

CYXE;2010-01-23 18:00;CYXE 231800Z 03018KT 1SM R09/P6000FT/U -SN DRSN VV011 M04/M05 A2959 RMK SN8 /S05/ SLP050

CYXE;2010-01-23 18:24;CYXE 231824Z 03016KT 3/4SM R09/5500FT/D -SN DRSN VV008 M04/ RMK SN8

CYXE;2010-01-23 18:47;CYXE 231847Z 03015G20KT 3/4SM R09/P6000FT/U -SN DRSN VV005 M04/ RMK SN8

CYXE;2010-01-23 19:00;CYXE 231900Z 03017KT 3/4SM R09/4500VP6000FT/D -SN DRSN VV005 M04/M05 A2958 RMK SN8 SLP048

CYXE;2010-01-23 19:31;CYXE 231931Z 03014KT 1/2SM R09/3000V4500FT/D SN DRSN VV003 M04/ RMK SN8

CYXE;2010-01-23 20:00;CYXE 232000Z 02014KT 1/2SM R09/4000FT/N SN DRSN VV003 M04/M05 A2958 RMK SN8 SLP047

CYXE;2010-01-23 21:00;CYXE 232100Z 02017KT 1/2SM R09/P6000FT/U SN DRSN VV006 M04/M05 A2958 RMK SN8 SLP047

CYXE;2010-01-23 22:00;CYXE 232200Z 02016KT 1/2SM R09/4500FT/N SN DRSN VV004 M04/M04 A2960 RMK SN8 SLP054

CYXE;2010-01-23 22:55;CYXE 232255Z 01020KT 3/4SM R09/P6000FT/D -SN DRSN VV007 M04/ RMK SN8

CYXE;2010-01-23 23:00;CYXE 232300Z CCA 02019KT 3/4SM R09/6000FT/D -SN DRSN VV007 M04/M04 A2962 RMK SN8 /S04/ SLP060

CYXE;2010-01-24 00:00;CYXE 240000Z 01016KT 3/4SM R09/4000FT/D -SN DRSN VV005 M03/M04 A2964 RMK SN8 SLP068

CYXE;2010-01-24 01:00;CYXE 240100Z 36022G27KT 3/4SM R09/5500FT/N -SN DRSN VV008 M04/M05 A2965 RMK SN8 SLP071

CYXE;2010-01-24 02:00;CYXE 240200Z 36022KT 3/4SM R09/5500FT/U -SN DRSN VV008 M04/M05 A2966 RMK SN8 SLP075

CYXE;2010-01-24 02:11;CYXE 240211Z 36021G26KT 1SM R09/P6000FT/U -SN DRSN VV008 M04/ RMK SN8

CYXE;2010-01-24 03:00;CYXE 240300Z 36021G26KT 1SM R09/P6000FT/D -SN DRSN VV007 M05/M06 A2967 RMK SN8 SLP080

CYXE;2010-01-24 03:52;CYXE 240352Z 35020G25KT 2SM -SN DRSN OVC018 M05/ RMK SC8

CYXE;2010-01-24 04:00;CYXE 240400Z 35020KT 2 1/2SM -SN DRSN OVC018 M05/M06 A2968 RMK SC8 SLP082

CYXE;2010-01-24 05:00;CYXE 240500Z 36020KT 1 1/2SM -SN DRSN VV015 M05/M06 A2969 RMK SN8 SLP085

CYXE;2010-01-24 06:00;CYXE 240600Z CCA 35021KT 1 1/4SM R09/6000FT/U -SN DRSN VV012 M05/M06 A2969 RMK SN8 /S02/ SLP087

CYXE;2010-01-24 06:20;CYXE 240620Z 35021G26KT 1SM R09/5000FT/D -SN DRSN VV008 M04/ RMK SN8

CYXE;2010-01-24 07:00;CYXE 240700Z 35021G26KT 1SM R09/5000FT/N -SN DRSN VV008 M04/M06 A2971 RMK SN8 SLP092

CYXE;2010-01-24 07:48;CYXE 240748Z 35023G29KT 3/4SM R09/4500FT/D -SN DRSN VV008 M05/ RMK SN8 OCNL BLSN

CYXE;2010-01-24 08:00;CYXE 240800Z 35025G31KT 3/4SM R09/4500FT/U -SN DRSN VV008 M05/M06 A2972 RMK SN8 OCNL BLSN /S01/ SLP094

CYXE;2010-01-24 08:27;CYXE 240827Z 35024G31KT 1 1/2SM -SN DRSN VV012 M05/ RMK SN8 OCNL BLSN

CYXE;2010-01-24 09:00;CYXE 240900Z 34023G29KT 3/4SM R09/4500FT/D -SN DRSN VV007 M05/M06 A2973 RMK SN8 SLP100

CYXE;2010-01-24 09:49;CYXE 240949Z 34019G25KT 1SM R09/6000FT/U -SN DRSN VV009 M05/ RMK SN8 CIG VRB 7-11 VIS VRB 3/4-11/4

CYXE;2010-01-24 10:00;CYXE 241000Z 34020KT 1SM R09/P6000FT/U -SN DRSN VV012 M05/M06 A2976 RMK SN8 VIS VRB 3/4-11/4 SLP108

CYXE;2010-01-24 10:46;CYXE 241046Z 33022KT 2SM -SN DRSN VV014 M06/ RMK SN8

CYXE;2010-01-24 11:00;CYXE 241100Z 34023G29KT 2SM -SN DRSN VV014 M06/M07 A2978 RMK SN8 /S02/ SLP116

CYXE;2010-01-24 11:12;CYXE 241112Z 34024G29KT 1 1/2SM -SN DRSN VV012 M06/ RMK SN8 VIS VRB 1-2

CYXE;2010-01-24 12:00;CYXE 241200Z 34022G29KT 2SM -SN DRSN VV015 M06/M08 A2980 RMK SN8 /S03/ SLP125

CYXE;2010-01-24 13:00;CYXE 241300Z 34028G33KT 2SM -SN BLSN VV015 M07/M09 A2982 RMK SN8 VIS VRB 1-3 SLP129

CYXE;2010-01-24 14:00;CYXE 241400Z 34023G28KT 1SM R09/4500FT/U -SN BLSN VV008 M07/M09 A2984 RMK SN8 SLP137

CYXE;2010-01-24 14:19;CYXE 241419Z 34022G27KT 3/4SM R09/4500FT/N -SN BLSN VV007 M08/ RMK SN8

CYXE;2010-01-24 15:00;CYXE 241500Z 34021G26KT 3/4SM R09/P6000FT/U -SN BLSN VV006 M08/M10 A2986 RMK SN8 SLP145

CYXE;2010-01-24 16:00;CYXE 241600Z 34018G25KT 3/4SM R09/P6000FT/D -SN BLSN VV005 M09/M10 A2987 RMK SN8 SLP151

CYXE;2010-01-24 16:27;CYXE 241627Z 34016G21KT 1SM R09/P6000FT/D -SN BLSN VV007 M09/ RMK SN8

CYXE;2010-01-24 17:00;CYXE 241700Z 34020G25KT 1SM R09/P6000FT/D -SN BLSN VV006 M09/M10 A2988 RMK SN8 /S04/ SLP153

CYXE;2010-01-24 17:26;CYXE 241726Z 34019G29KT 1 1/4SM -SN BLSN VV009 M09/ RMK SN8

CYXE;2010-01-24 18:00;CYXE 241800Z 34019G25KT 1 1/4SM -SN BLSN VV007 M09/M11 A2989 RMK SN8 /S05/ SLP157

CYXE;2010-01-24 19:00;CYXE 241900Z 34024KT 1 1/2SM -SN BLSN VV008 M10/M12 A2988 RMK SN8 SLP155

CYXE;2010-01-24 19:07;CYXE 241907Z 34023G29KT 1 1/2SM -SN BLSN VV013 M09/ RMK BLSN8

CYXE;2010-01-24 20:00;CYXE 242000Z 35021G27KT 1 1/2SM -SN BLSN VV009 M09/M12 A2991 RMK BLSN8 SLP162

CYXE;2010-01-24 21:00;CYXE 242100Z 34016G24KT 1 1/4SM -SN BLSN VV006 M09/M11 A2992 RMK BLSN8 SLP168

CYXE;2010-01-24 22:00;CYXE 242200Z 34016G25KT 1 1/2SM -SN BLSN VV009 M10/M12 A2994 RMK BLSN8 SLP175

CYXE;2010-01-24 22:28;CYXE 242228Z 35021G26KT 1SM R09/P6000FT/N -SN BLSN VV010 M10/ RMK SN8

CYXE;2010-01-24 23:00;CYXE 242300Z 35020G26KT 1SM R09/P6000FT/D -SN BLSN VV009 M10/M12 A2996 RMK SN8 SLP182

CYXE;2010-01-25 00:00;CYXE 250000Z 35018G24KT 1 3/4SM -SN BLSN VV011 M11/M12 A2999 RMK BLSN8 SLP192

CYXE;2010-01-25 01:00;CYXE 250100Z 35022G29KT 1SM R09/P6000FT/U -SN BLSN VV013 M11/M13 A3001 RMK SN8 SLP198

CYXE;2010-01-25 02:00;CYXE 250200Z 35019G24KT 1SM R09/P6000FT/D -SN BLSN VV010 M11/M13 A3001 RMK BLSN8 SLP201

CYXE;2010-01-25 03:00;CYXE 250300Z 35015G22KT 1 1/2SM -SN BLSN OVC022 M12/M13 A3003 RMK SC8 SLP210

CYXE;2010-01-25 03:15;CYXE 250315Z 34019KT 4SM -SN DRSN OVC033 M12/ RMK SC8 REBLSN

CYXE;2010-01-25 04:00;CYXE 250400Z 35018G24KT 5SM -SN DRSN OVC028 M12/M14 A3004 RMK SC8 REBLSN SLP213

CYXE;2010-01-25 05:00;CYXE 250500Z CCA 34018KT 1 1/2SM -SN DRSN VV013 M12/M14 A3005 RMK SN8 SLP217

CYXE;2010-01-25 06:00;CYXE 250600Z 35018KT 1 1/2SM -SN DRSN VV010 M12/M14 A3007 RMK SN8 SLP225

CYXE;2010-01-25 06:16;CYXE 250616Z 35018KT 3SM -SN DRSN VV012 M12/ RMK SN8

CYXE;2010-01-25 06:29;CYXE 250629Z 36016KT 4SM -SN DRSN OVC020 M12/ RMK SN3SC5 MOON DMLY VIS

CYXE;2010-01-25 07:00;CYXE 250700Z 36018KT 4SM -SN DRSN OVC015 M12/M14 A3009 RMK SN2SC6 SLP232

CYXE;2010-01-25 08:00;CYXE 250800Z 36016G21KT 3SM -SN DRSN OVC020 M12/M14 A3011 RMK SN3SC5 SLP236

CYXE;2010-01-25 08:48;CYXE 250848Z 35016KT 2SM -SN DRSN VV020 M12/ RMK SN8

CYXE;2010-01-25 09:00;CYXE 250900Z 35013KT 2SM -SN DRSN VV025 M12/M14 A3014 RMK SN8 SLP248

CYXE;2010-01-25 09:55;CYXE 250955Z 35015KT 4SM -SN DRSN OVC022 M12/ RMK SN2SC6

CYXE;2010-01-25 10:00;CYXE 251000Z 35014KT 6SM -SN DRSN OVC028 M12/M14 A3014 RMK SC8 SLP250

CYXE;2010-01-25 11:00;CYXE 251100Z 36014KT 15SM -SN DRSN FEW015 OVC040 M12/M14 A3015 RMK SC2SC6 /S01/ SLP253

CYXE;2010-01-25 11:22;CYXE 251122Z 36016KT 15SM -SN DRSN BKN015 OVC045 M12/ RMK SC6SC2

CYXE;2010-01-25 12:00;CYXE 251200Z 01019KT 15SM -SN DRSN FEW012 OVC030 M13/M14 A3014 RMK SC2SC6 SLP251

CYXE;2010-01-25 12:19;CYXE 251219Z 36019KT 15SM DRSN SCT010 OVC025 M13/ RMK SF3SC5 IC

CYXE;2010-01-25 13:00;CYXE 251300Z 35014KT 15SM DRSN BKN015 M13/M15 A3016 RMK SC6 IC SLP256

CYXE;2010-01-25 13:41;CYXE 251341Z 36022KT 15SM -SN DRSN BKN015 M14/ RMK SC6

CYXE;2010-01-25 14:00;CYXE 251400Z 36014G22KT 10SM -SN DRSN OVC015 M14/M15 A3017 RMK SC7 SLP258

CYXE;2010-01-25 15:00;CYXE 251500Z 01013KT 12SM -SN DRSN OVC015 M14/M16 A3017 RMK SC8 SLP261

CYXE;2010-01-25 16:00;CYXE 251600Z 36012KT 15SM -SN OVC016 M14/M16 A3017 RMK SC8 SLP261

CYXE;2010-01-25 17:00;CYXE 251700Z 36012KT 15SM -SN OVC016 M14/M16 A3018 RMK SC8 SLP266

CYXE;2010-01-25 18:00;CYXE 251800Z 36012KT 15SM -SN OVC019 M14/M16 A3019 RMK SC8 SLP268

CYXE;2010-01-25 19:00;CYXE 251900Z 02012KT 12SM -SN OVC019 M13/M16 A3019 RMK SC8 SLP267

CYXE;2010-01-25 20:00;CYXE 252000Z 01007KT 12SM -SN OVC019 M13/M16 A3018 RMK SC8 SLP264

CYXE;2010-01-25 21:00;CYXE 252100Z 01008KT 12SM -SN OVC017 M13/M16 A3016 RMK SC8 SLP258

CYXE;2010-01-25 21:31;CYXE 252131Z 03007KT 15SM OVC020 M13/ RMK SC8

CYXE;2010-01-25 22:00;CYXE 252200Z 02008KT 15SM -SN OVC020 M14/M16 A3016 RMK SC8 SLP257

CYXE;2010-01-25 23:00;CYXE 252300Z 01008KT 15SM -SN OVC022 M14/M16 A3016 RMK SC8 SLP257

CYXE;2010-01-26 00:00;CYXE 260000Z 36004KT 10SM -SN OVC022 M14/M16 A3016 RMK SC8 SLP258

CYXE;2010-01-26 01:00;CYXE 260100Z 36005KT 15SM -SN OVC022 M15/M17 A3015 RMK SC8 SLP257

CYXE;2010-01-26 02:00;CYXE 260200Z 02005KT 15SM -SN OVC020 M15/M17 A3014 RMK SC8 SLP254

CYXE;2010-01-26 03:00;CYXE 260300Z 35005KT 15SM -SN OVC020 M16/M17 A3014 RMK SC8 SLP255

CYXE;2010-01-26 04:00;CYXE 260400Z 35008KT 15SM -SN OVC016 M16/M18 A3014 RMK SC8 SLP253

CYXE;2010-01-26 05:00;CYXE 260500Z 35009KT 15SM -SN OVC019 M17/M19 A3014 RMK SC8 SLP252

CYXE;2010-01-26 05:49;CYXE 260549Z 34010KT 15SM BKN019 M18/ RMK SC6

CYXE;2010-01-26 06:00;CYXE 260600Z 34008KT 15SM FEW019 BKN084 BKN280 M18/M20 A3014 RMK SC2AC2CI1 SLP254

CYXE;2010-01-26 07:00;CYXE 260700Z 29007KT 15SM SCT084 BKN280 M21/M22 A3012 RMK AC2CI2 SLP249

CYXE;2010-01-26 08:00;CYXE 260800Z 29008KT 15SM BKN018 BKN280 M21/M22 A3011 RMK SC5CI1 SLP245

CYXE;2010-01-26 09:00;CYXE 260900Z 27005KT 15SM FEW018 SCT070 M21/M26 A3010 RMK SC2AC2 SLP242

CYXE;2010-01-26 10:00;CYXE 261000Z 27007KT 15SM FEW020 FEW070 M23/M27 A3009 RMK SC1AC1 SLP238

CYXE;2010-01-26 11:00;CYXE 261100Z 29011KT 15SM FEW070 M20/M23 A3008 RMK AC1 SLP236

CYXE;2010-01-26 12:00;CYXE 261200Z 29011KT 15SM SKC M20/M23 A3007 RMK SLP232

CYXE;2010-01-26 13:00;CYXE 261300Z 30011KT 15SM SKC M20/M23 A3006 RMK SLP230

CYXE;2010-01-26 13:32;CYXE 261332Z 30007KT 15SM SKC RMK IC

CYXE;2010-01-26 14:00;CYXE 261400Z 29011KT 15SM SKC M19/M22 A3005 RMK IC SLP226

CYXE;2010-01-26 15:00;CYXE 261500Z 31013KT 8SM DRSN FEW250 M19/M22 A3005 RMK CI0 IC SLP227

CYXE;2010-01-26 16:00;CYXE 261600Z CCA 31015KT 15SM DRSN SKC M19/M22 A3004 RMK IC OBS TAKEN +02 SLP224

CYXE;2010-01-26 17:00;CYXE 261700Z 30017KT 15SM DRSN SKC M19/M22 A3004 RMK IC SLP223

CYXE;2010-01-26 18:00;CYXE 261800Z 30011KT 15SM DRSN FEW250 M18/M22 A3005 RMK CI1 IC SLP226

CYXE;2010-01-26 19:00;CYXE 261900Z 29018KT 15SM DRSN SCT110 BKN250 M18/M22 A3001 RMK AC2CI1 IC SLP216

CYXE;2010-01-26 20:00;CYXE 262000Z 29015G21KT 15SM DRSN FEW250 M17/M22 A3000 RMK CI1 SLP211

CYXE;2010-01-26 21:00;CYXE 262100Z 30017KT 15SM DRSN SKC M16/M21 A3000 RMK OCNL BLSN SLP210

CYXE;2010-01-26 22:00;CYXE 262200Z 30017KT 15SM DRSN SKC M15/M21 A2999 RMK SLP208

CYXE;2010-01-26 23:00;CYXE 262300Z 30014KT 15SM DRSN SKC M15/M22 A2999 RMK SLP206

CYXE;2010-01-27 00:00;CYXE 270000Z 30018KT 15SM DRSN SKC M16/M22 A2998 RMK SLP203

CYXE;2010-01-27 01:00;CYXE 270100Z 30016KT 15SM DRSN SKC M16/M22 A2999 RMK SLP207

CYXE;2010-01-27 02:00;CYXE 270200Z 30016KT 15SM DRSN SKC M16/M21 A2999 RMK SLP206

CYXE;2010-01-27 03:00;CYXE 270300Z 31014KT 15SM DRSN FEW100 M17/M21 A3000 RMK AC2 SLP208

CYXE;2010-01-27 04:00;CYXE 270400Z 31012KT 15SM SKC M18/M22 A3000 RMK SLP210

CYXE;2010-01-27 05:00;CYXE 270500Z 30012KT 15SM SKC M18/M23 A3001 RMK SLP211

CYXE;2010-01-27 06:00;CYXE 270600Z 29012KT 15SM SKC M19/M24 A3001 RMK SLP215

CYXE;2010-01-27 07:00;CYXE 270700Z 30009KT 15SM SKC M20/M24 A3001 RMK SLP216

CYXE;2010-01-27 08:00;CYXE 270800Z 30007KT 15SM SKC M20/M24 A3003 RMK SLP222

CYXE;2010-01-27 09:00;CYXE 270900Z 31009KT 15SM FEW110 M20/M24 A3005 RMK AC1 SLP229

CYXE;2010-01-27 10:00;CYXE 271000Z 32013KT 15SM FEW110 M19/M24 A3007 RMK AC1 SLP234

CYXE;2010-01-27 11:00;CYXE 271100Z 32011KT 15SM BKN021 M20/M24 A3010 RMK SC6 SLP244

CYXE;2010-01-27 12:00;CYXE 271200Z 33012KT 15SM OVC019 M20/M24 A3011 RMK SC8 SLP247

CYXE;2010-01-27 13:00;CYXE 271300Z 32010KT 15SM -SN OVC019 M20/M24 A3015 RMK SC8 SLP261

CYXE;2010-01-27 14:00;CYXE 271400Z 32008KT 15SM -SN OVC019 M21/M25 A3018 RMK SC7 SLP269

CYXE;2010-01-27 14:29;CYXE 271429Z 32008KT 15SM OVC019 M21/ RMK SC7

CYXE;2010-01-27 15:00;CYXE 271500Z 32008KT 15SM SCT020 M23/M26 A3020 RMK SC2 SLP280

CYXE;2010-01-27 16:00;CYXE 271600Z 30008KT 15SM SKC M24/M27 A3021 RMK SLP283

CYXE;2010-01-27 17:00;CYXE 271700Z 31009KT 15SM SKC M22/M26 A3024 RMK SLP293

CYXE;2010-01-27 18:00;CYXE 271800Z 31007KT 15SM SKC M20/M24 A3025 RMK SLP297

CYXE;2010-01-27 19:00;CYXE 271900Z 31008KT 15SM SKC M19/M23 A3025 RMK SLP299

CYXE;2010-01-27 20:00;CYXE 272000Z 30010KT 15SM SKC M18/M23 A3027 RMK SLP304

CYXE;2010-01-27 21:00;CYXE 272100Z 29010KT 15SM SKC M17/M22 A3027 RMK SLP302

CYXE;2010-01-27 22:00;CYXE 272200Z 30009KT 15SM SKC M17/M22 A3028 RMK SLP307

CYXE;2010-01-27 23:00;CYXE 272300Z 29012KT 15SM SKC M18/M23 A3029 RMK SLP309

CYXE;2010-01-28 00:00;CYXE 280000Z 28007KT 15SM SKC M19/M24 A3030 RMK SLP315

CYXE;2010-01-28 01:00;CYXE 280100Z 28007KT 15SM SKC M20/M24 A3032 RMK SLP321

CYXE;2010-01-28 02:00;CYXE 280200Z 29009KT 15SM SKC M21/M25 A3032 RMK SLP321

CYXE;2010-01-28 03:00;CYXE 280300Z 26007KT 15SM SKC M22/M26 A3032 RMK SLP328

CYXE;2010-01-28 04:00;CYXE 280400Z 27008KT 15SM SKC M24/M28 A3034 RMK SLP332

CYXE;2010-01-28 05:00;CYXE 280500Z 24009KT 15SM SKC M25/M29 A3035 RMK SLP336

CYXE;2010-01-28 06:00;CYXE 280600Z 24007KT 15SM SKC M26/M29 A3036 RMK SLP339

CYXE;2010-01-28 07:00;CYXE 280700Z 23005KT 15SM SKC M26/M30 A3037 RMK SLP343

CYXE;2010-01-28 08:00;CYXE 280800Z 23006KT 15SM SKC M26/M30 A3039 RMK SLP351

CYXE;2010-01-28 09:00;CYXE 280900Z 23007KT 15SM SKC M27/M30 A3040 RMK SLP352

CYXE;2010-01-28 10:00;CYXE 281000Z 21005KT 15SM SKC M26/M29 A3036 RMK SLP341

CYXE;2010-01-28 11:00;CYXE 281100Z 17003KT 15SM SKC M27/M30 A3035 RMK SLP337

CYXE;2010-01-28 12:00;CYXE 281200Z 23005KT 15SM SKC M28/M32 A3035 RMK SLP340

CYXE;2010-01-28 13:00;CYXE 281300Z 15004KT 15SM SKC M27/M31 A3033 RMK SLP333

CYXE;2010-01-28 14:00;CYXE 281400Z 21004KT 12SM SKC M28/M32 A3035 RMK SLP339

CYXE;2010-01-28 15:00;CYXE 281500Z 17005KT 12SM BKN250 M27/M31 A3033 RMK CI1 SLP334

CYXE;2010-01-28 16:00;CYXE 281600Z 19006KT 15SM BKN250 M25/M29 A3032 RMK CI2 SLP332

CYXE;2010-01-28 17:00;CYXE 281700Z 18005KT 15SM OVC250 M23/M26 A3032 RMK CI3 SLP329

CYXE;2010-01-28 18:00;CYXE 281800Z 16004KT 15SM OVC250 M19/M22 A3029 RMK CI3 SLP315

CYXE;2010-01-28 19:00;CYXE 281900Z 12004KT 15SM OVC250 M17/M21 A3026 RMK CI3 SLP306

CYXE;2010-01-28 20:00;CYXE 282000Z 12004KT 15SM OVC250 M17/M22 A3024 RMK CI4 SLP300

CYXE;2010-01-28 21:00;CYXE 282100Z 10003KT 15SM OVC250 M16/M21 A3022 RMK CI5 SLP291

CYXE;2010-01-28 22:00;CYXE 282200Z 11008KT 15SM OVC250 M17/M22 A3021 RMK CI4 IC SLP288

CYXE;2010-01-28 23:00;CYXE 282300Z 12006KT 15SM BKN110 OVC250 M17/M21 A3020 RMK AC4CI2 SLP285

CYXE;2010-01-29 00:00;CYXE 290000Z 13005KT 15SM SCT110 OVC250 M17/M22 A3019 RMK AC2CI2 SLP284

CYXE;2010-01-29 01:00;CYXE 290100Z 10003KT 15SM FEW110 BKN250 M18/M23 A3019 RMK AC2CI1 SLP282

CYXE;2010-01-29 02:00;CYXE 290200Z 12005KT 15SM FEW250 M20/M24 A3018 RMK CI1 SLP279

CYXE;2010-01-29 03:00;CYXE 290300Z 13003KT 15SM SKC M20/M24 A3018 RMK SLP279

CYXE;2010-01-29 04:00;CYXE 290400Z 10003KT 15SM BKN250 M22/M26 A3018 RMK CI2 SLP282

CYXE;2010-01-29 05:00;CYXE 290500Z 06005KT 15SM BKN250 M24/M27 A3018 RMK CI1 SLP281

CYXE;2010-01-29 06:00;CYXE 290600Z 07004KT 15SM BKN250 M23/M27 A3017 RMK CI1 SLP272

CYXE;2010-01-29 07:00;CYXE 290700Z 09003KT 15SM FEW120 BKN250 M23/M27 A3017 RMK AC2CI1 SLP274

CYXE;2010-01-29 08:00;CYXE 290800Z 03003KT 15SM FEW120 BKN250 M23/M27 A3018 RMK AC2CI1 SLP276

CYXE;2010-01-29 09:00;CYXE 290900Z 04002KT 15SM FEW120 BKN250 M22/M26 A3017 RMK AC2CI1 SLP270

CYXE;2010-01-29 10:00;CYXE 291000Z 01002KT 15SM BKN120 M21/M25 A3017 RMK AC4 SLP270

CYXE;2010-01-29 11:00;CYXE 291100Z 03003KT 15SM BKN120 M21/M25 A3017 RMK AC4 SLP270

CYXE;2010-01-29 12:00;CYXE 291200Z 04002KT 15SM SCT120 M22/M26 A3016 RMK AC2 SLP268

CYXE;2010-01-29 13:00;CYXE 291300Z 35003KT 15SM SCT120 M23/M27 A3019 RMK AC2 SLP276

CYXE;2010-01-29 14:00;CYXE 291400Z 34004KT 15SM FEW120 M25/M29 A3020 RMK AC1 SLP279

CYXE;2010-01-29 15:00;CYXE 291500Z 34004KT 10SM FEW120 M25/M29 A3022 RMK AC1 SLP291

CYXE;2010-01-29 16:00;CYXE 291600Z 03003KT 15SM FEW250 M24/M27 A3021 RMK CI1 SLP290

CYXE;2010-01-29 17:00;CYXE 291700Z 05003KT 15SM SCT250 M22/M25 A3023 RMK CI1 SLP294

CYXE;2010-01-29 18:00;CYXE 291800Z 08004KT 15SM SCT250 M21/M25 A3022 RMK CI1 SLP292

CYXE;2010-01-29 19:00;CYXE 291900Z 34002KT 15SM SCT250 M19/M24 A3023 RMK CI0 SLP294

CYXE;2010-01-29 20:00;CYXE 292000Z 32003KT 15SM SCT250 M19/M24 A3022 RMK CI1 SLP292

CYXE;2010-01-29 21:00;CYXE 292100Z 28003KT 15SM BKN250 M18/M24 A3023 RMK CI2 SLP292

CYXE;2010-01-29 22:00;CYXE 292200Z 27003KT 15SM OVC250 M17/M23 A3023 RMK CI3 SLP292

CYXE;2010-01-29 23:00;CYXE 292300Z 36002KT 15SM BKN110 BKN250 M18/M23 A3023 RMK AC4CI2 SLP293

CYXE;2010-01-30 00:00;CYXE 300000Z 00000KT 15SM BKN110 OVC250 M18/M23 A3023 RMK AC5CI2 SLP293

CYXE;2010-01-30 01:00;CYXE 300100Z 00000KT 15SM BKN110 OVC250 M18/M22 A3023 RMK AC6CI1 SLP293

CYXE;2010-01-30 02:00;CYXE 300200Z 24003KT 15SM OVC110 M17/M21 A3024 RMK AC8 OBS TAKEN +01 SLP294

CYXE;2010-01-30 03:00;CYXE 300300Z 26002KT 15SM OVC110 M17/M21 A3024 RMK AC8 SLP299

CYXE;2010-01-30 04:00;CYXE 300400Z 24004KT 15SM OVC110 M17/M21 A3024 RMK AC8 SLP298

CYXE;2010-01-30 05:00;CYXE 300500Z 23004KT 15SM OVC110 M17/M20 A3024 RMK AC8 SLP298

CYXE;2010-01-30 06:00;CYXE 300600Z 00000KT 15SM OVC110 M16/M20 A3025 RMK AC7 SLP298

CYXE;2010-01-30 07:00;CYXE 300700Z 26003KT 15SM OVC110 M16/M19 A3026 RMK AC7 SLP301

CYXE;2010-01-30 08:00;CYXE 300800Z 26002KT 15SM OVC120 M15/M18 A3026 RMK AC7 SLP301

CYXE;2010-01-30 09:00;CYXE 300900Z 26002KT 15SM OVC095 M15/M18 A3025 RMK AC7 SLP295

CYXE;2010-01-30 10:00;CYXE 301000Z 26002KT 15SM OVC095 M15/M17 A3024 RMK AC7 SLP292

CYXE;2010-01-30 11:00;CYXE 301100Z 27003KT 15SM OVC095 M15/M17 A3024 RMK AC7 SLP292

CYXE;2010-01-30 12:00;CYXE 301200Z 34004KT 15SM BKN095 M14/M17 A3025 RMK AC6 SLP293

CYXE;2010-01-30 13:00;CYXE 301300Z 36006KT 15SM BKN090 M15/M18 A3026 RMK AC4 SLP295

CYXE;2010-01-30 14:00;CYXE 301400Z 35003KT 15SM SCT094 M17/M19 A3027 RMK AC3 SLP300

CYXE;2010-01-30 15:00;CYXE 301500Z 32004KT 15SM SCT094 M19/M21 A3028 RMK AC3 SLP306

CYXE;2010-01-30 16:00;CYXE 301600Z 33006KT 15SM BKN090 M19/M22 A3029 RMK AC3 SLP311

CYXE;2010-01-30 17:00;CYXE 301700Z 36006KT 15SM SCT090 BKN250 M17/M19 A3030 RMK AC3CI1 SLP314

CYXE;2010-01-30 18:00;CYXE 301800Z 04006KT 15SM BKN085 M14/M17 A3031 RMK AC6 SLP311

CYXE;2010-01-30 19:00;CYXE 301900Z 03006KT 15SM BKN070 M13/M16 A3030 RMK AC6 SLP308

CYXE;2010-01-30 20:00;CYXE 302000Z 02008KT 15SM FEW050 BKN093 M12/M16 A3029 RMK SC2AC3 SLP307

CYXE;2010-01-30 21:00;CYXE 302100Z 02008KT 15SM SCT050 BKN090 M12/M15 A3030 RMK SC3AC2 SLP308

CYXE;2010-01-30 22:00;CYXE 302200Z 03008KT 15SM BKN031 OVC065 M12/M15 A3031 RMK SC7SC1 SLP309

CYXE;2010-01-30 22:29;CYXE 302229Z 04007KT 15SM -SN BKN031 OVC051 M12/ RMK SC7SC1

CYXE;2010-01-30 23:00;CYXE 302300Z 03007KT 15SM -SN OVC031 M12/M14 A3031 RMK SC8 SLP311

CYXE;2010-01-31 00:00;CYXE 310000Z 07007KT 4SM -SN BKN015 OVC033 M12/M14 A3032 RMK SC5SC3 SLP313

CYXE;2010-01-31 01:00;CYXE 310100Z 07008KT 4SM -SN OVC015 M13/M15 A3033 RMK SC8 SLP316

CYXE;2010-01-31 01:14;CYXE 310114Z 07009KT 2SM -SN OVC015 M13/ RMK SN2SC6

CYXE;2010-01-31 01:42;CYXE 310142Z 06009KT 4SM -SN OVC015 M13/ RMK SC8

CYXE;2010-01-31 02:00;CYXE 310200Z 05010KT 10SM -SN FEW015 OVC045 M13/M16 A3034 RMK SC2SC6 SLP319

CYXE;2010-01-31 03:00;CYXE 310300Z 06007KT 10SM -SN FEW015 OVC043 M13/M16 A3034 RMK SC2SC6 SLP324

CYXE;2010-01-31 04:00;CYXE 310400Z 05008KT 4SM -SN OVC043 M14/M16 A3034 RMK SC8 SLP323

CYXE;2010-01-31 05:00;CYXE 310500Z 07008KT 4SM -SN OVC039 M14/M16 A3034 RMK SC8 SLP325

CYXE;2010-01-31 06:00;CYXE 310600Z 07009KT 8SM -SN OVC037 M14/M17 A3035 RMK SC8 SLP325

CYXE;2010-01-31 07:00;CYXE 310700Z 08008KT 12SM -SN OVC033 M15/M18 A3036 RMK SC8 SLP328

CYXE;2010-01-31 08:00;CYXE 310800Z 06005KT 10SM -SN OVC031 M17/M19 A3036 RMK SC8 SLP330

CYXE;2010-01-31 09:00;CYXE 310900Z 05006KT 15SM -SN BKN021 M21/M24 A3036 RMK SC5 SLP331

CYXE;2010-01-31 09:31;CYXE 310931Z 05006KT 15SM SCT019 M22/ RMK SC2

CYXE;2010-01-31 10:00;CYXE 311000Z 06009KT 15SM FEW020 M22/M24 A3036 RMK SC2 SLP332

CYXE;2010-01-31 11:00;CYXE 311100Z 07008KT 15SM FEW020 FEW110 M23/M27 A3036 RMK SC1AC1 SLP333

CYXE;2010-01-31 12:00;CYXE 311200Z 07007KT 15SM FEW020 FEW110 BKN280 M24/M27 A3037 RMK SC1AC1CI0 SLP338

CYXE;2010-01-31 13:00;CYXE 311300Z 05006KT 15SM FEW110 BKN280 M25/M28 A3036 RMK AC1CI1 SLP336

CYXE;2010-01-31 14:00;CYXE 311400Z 07006KT 8SM SCT280 M25/M29 A3036 RMK CI0 BR SLP334

CYXE;2010-01-31 15:00;CYXE 311500Z 06008KT 8SM FEW280 M25/M29 A3035 RMK CI0 BR SLP332

CYXE;2010-01-31 16:00;CYXE 311600Z 07007KT 10SM BKN280 M25/M28 A3034 RMK CI2 BR SLP329

CYXE;2010-01-31 17:00;CYXE 311700Z 07007KT 15SM BKN280 M23/M27 A3033 RMK CI1 SLP326

CYXE;2010-01-31 18:00;CYXE 311800Z 07008KT 10SM BKN280 M22/M25 A3032 RMK CI0 SLP322

CYXE;2010-01-31 19:00;CYXE 311900Z 08006KT 15SM BKN280 M21/M24 A3031 RMK CI1 SLP317

CYXE;2010-01-31 20:00;CYXE 312000Z 07008KT 15SM SCT280 M20/M23 A3028 RMK CI1 SLP309

CYXE;2010-01-31 21:00;CYXE 312100Z 07006KT 15SM OVC280 M20/M23 A3026 RMK CI2 SLP301

CYXE;2010-01-31 22:00;CYXE 312200Z 07008KT 15SM BKN280 M20/M23 A3025 RMK CI2 SLP298

CYXE;2010-01-31 23:00;CYXE 312300Z 08006KT 15SM BKN280 M19/M22 A3023 RMK CI2 SLP292

CYXE;2010-02-01 01:00;CYXE 010100Z 06006KT 15SM SCT020 BKN280 M22/M25 A3021 RMK SC4CI1 SLP287

CYXE;2010-02-01 01:26;CYXE 010126Z 06006KT 12SM -SN OVC020 M21/ RMK SC8

CYXE;2010-02-01 02:00;CYXE 010200Z 07007KT 12SM -SN OVC029 M21/M24 A3019 RMK SC8 SLP282

CYXE;2010-02-01 03:00;CYXE 010300Z 08005KT 12SM -SN OVC037 M19/M22 A3018 RMK SC8 SLP279

CYXE;2010-02-01 04:00;CYXE 010400Z 12007KT 12SM -SN OVC043 M18/M21 A3017 RMK SC8 SLP274

CYXE;2010-02-01 05:00;CYXE 010500Z CCA 12006KT 15SM -SN SCT030 BKN280 M18/M22 A3016 RMK SC3CI1 SLP271

CYXE;2010-02-01 05:08;CYXE 010508Z 12007KT 15SM FEW030 SCT280 M18/ RMK SC1CI2

CYXE;2010-02-01 06:00;CYXE 010600Z 12006KT 15SM FEW280 M19/M22 A3014 RMK CI0 SLP263

CYXE;2010-02-01 07:00;CYXE 010700Z 13005KT 15SM FEW280 M20/M23 A3013 RMK CI0 SLP260

CYXE;2010-02-01 08:00;CYXE 010800Z 12006KT 15SM SCT280 M20/M23 A3012 RMK CI0 SLP257

CYXE;2010-02-01 09:00;CYXE 010900Z 12006KT 15SM SCT280 M20/M23 A3011 RMK CI0 SLP252

CYXE;2010-02-01 10:00;CYXE 011000Z 12006KT 15SM FEW140 BKN280 M20/M23 A3010 RMK AC2CI0 SLP248

CYXE;2010-02-01 11:00;CYXE 011100Z 12005KT 15SM FEW045 FEW140 BKN280 M20/M23 A3009 RMK SC1AC1CI0 SLP243

CYXE;2010-02-01 12:00;CYXE 011200Z 12003KT 15SM FEW140 BKN280 M20/M23 A3008 RMK AC1CI0 SLP241

CYXE;2010-02-01 13:00;CYXE 011300Z 13005KT 15SM FEW080 OVC280 M19/M22 A3007 RMK AC2CI2 SLP239

CYXE;2010-02-01 14:00;CYXE 011400Z 12005KT 15SM BKN080 BKN250 M19/M22 A3006 RMK AC5CI0 SLP235

CYXE;2010-02-01 15:00;CYXE 011500Z 13002KT 15SM BKN060 OVC250 M18/M21 A3005 RMK SC6CI1 SLP230

CYXE;2010-02-01 15:34;CYXE 011534Z 17008KT 15SM -SN OVC045 M18/ RMK SC8

CYXE;2010-02-01 15:42;CYXE 011542Z 16006KT 2 1/2SM -SN OVC042 M17/ RMK SC8

CYXE;2010-02-01 15:50;CYXE 011550Z 15005KT 1 1/2SM -SN OVC034 M17/ RMK SC8

CYXE;2010-02-01 16:00;CYXE 011600Z 16007KT 1 1/2SM -SN OVC034 M17/M20 A3005 RMK SN2SC6 SLP229

CYXE;2010-02-01 16:27;CYXE 011627Z 17007KT 3SM -SN BKN029 OVC060 M17/ RMK SC6SC2

CYXE;2010-02-01 17:00;CYXE 011700Z 16006KT 2 1/2SM -SN BKN021 BKN060 OVC250 M17/M20 A3004 RMK SC5SC2CI0 SLP226

CYXE;2010-02-01 17:24;CYXE 011724Z 17006KT 8SM -SN SCT021 BKN060 OVC250 M16/ RMK SC3SC2CI0

CYXE;2010-02-01 17:52;CYXE 011752Z 16007KT 1 1/2SM -SN BKN016 OVC060 M16/ RMK SN2SC3SC1

CYXE;2010-02-01 18:00;CYXE 011800Z 17007KT 1SM R09/P6000FT/D -SN DRSN BKN016 OVC088 M15/M19 A3003 RMK SN2SC2AC2 SLP221

CYXE;2010-02-01 19:00;CYXE 011900Z 17007KT 2 1/2SM -SN DRSN SCT014 OVC088 M14/M17 A3002 RMK SC4AC2 SLP216

CYXE;2010-02-01 20:00;CYXE 012000Z 20005KT 1 1/2SM -SN SCT014 OVC045 M14/M16 A3000 RMK SC4SC4 SLP211

CYXE;2010-02-01 20:31;CYXE 012031Z 18006KT 1 1/2SM -SN BKN013 OVC045 M13/ RMK SC6SC2

CYXE;2010-02-01 21:00;CYXE 012100Z 19006KT 1 1/2SM -SN BKN013 OVC045 M13/M16 A2999 RMK SC6SC2 /S01/ SLP203

CYXE;2010-02-01 22:00;CYXE 012200Z 19005KT 2 1/2SM -SN BKN013 OVC045 M14/M16 A2998 RMK SC6SC2 SLP201

CYXE;2010-02-01 22:20;CYXE 012220Z 19006KT 6SM -SN OVC020 M14/ RMK SC8

CYXE;2010-02-01 23:00;CYXE 012300Z 20005KT 3SM -SN BKN015 OVC050 M14/M16 A2998 RMK SC6SC2 SLP200

CYXE;2010-02-02 00:00;CYXE 020000Z 18008KT 12SM -SN BKN015 OVC050 M14/M16 A2996 RMK SC6SC1 SLP196

CYXE;2010-02-02 00:29;CYXE 020029Z 19007KT 15SM BKN066 M14/ RMK AC3

CYXE;2010-02-02 01:00;CYXE 020100Z 18005KT 15SM BKN066 M14/M17 A2997 RMK AC6 SLP197

CYXE;2010-02-02 02:00;CYXE 020200Z 19006KT 15SM BKN066 M14/M16 A2996 RMK AC7 SLP195

CYXE;2010-02-02 03:00;CYXE 020300Z 18005KT 6SM -SN OVC061 M14/M16 A2996 RMK SC8 SLP195

CYXE;2010-02-02 04:00;CYXE 020400Z 17005KT 15SM -SN FEW044 BKN060 M14/M16 A2994 RMK SC2AC5 SLP188

CYXE;2010-02-02 04:44;CYXE 020444Z 18006KT 4SM -SN OVC021 M13/ RMK SC8

CYXE;2010-02-02 05:00;CYXE 020500Z 17005KT 3SM -SN OVC021 M13/M15 A2994 RMK SC8 SLP187

CYXE;2010-02-02 06:00;CYXE 020600Z 16005KT 3SM -SN OVC016 M13/M15 A2993 RMK SC8 SLP181

CYXE;2010-02-02 06:28;CYXE 020628Z 17003KT 2SM -SN VV010 M13/ RMK SN8

CYXE;2010-02-02 07:00;CYXE 020700Z 16004KT 2SM -SN VV011 M13/M14 A2992 RMK SN8 SLP178

CYXE;2010-02-02 07:23;CYXE 020723Z 16004KT 6SM -SN OVC030 M13/ RMK SC8

CYXE;2010-02-02 08:00;CYXE 020800Z 17005KT 8SM -SN OVC030 M12/M14 A2992 RMK SC8 SLP179

CYXE;2010-02-02 09:00;CYXE 020900Z 19004KT 8SM -SN OVC026 M12/M14 A2992 RMK SC8 SLP175

CYXE;2010-02-02 10:00;CYXE 021000Z 18005KT 10SM -SN OVC030 M12/M13 A2992 RMK SC8 SLP173

CYXE;2010-02-02 10:35;CYXE 021035Z 19003KT 1 1/2SM -SN VV008 M11/ RMK SN8

CYXE;2010-02-02 11:00;CYXE 021100Z 19004KT 1SM R09/P6000FT/N -SN VV007 M11/M12 A2992 RMK SN8 /S02/ SLP173

CYXE;2010-02-02 11:29;CYXE 021129Z 19005KT 2 1/2SM -SN OVC043 M12/ RMK SC6

CYXE;2010-02-02 12:00;CYXE 021200Z 18005KT 8SM -SN BKN045 M13/M14 A2991 RMK SC5 SLP171

CYXE;2010-02-02 13:00;CYXE 021300Z 17004KT 15SM -SN OVC027 M13/M14 A2990 RMK SC6 SLP168

CYXE;2010-02-02 14:00;CYXE 021400Z 17003KT 15SM -SN OVC023 M11/M12 A2990 RMK SC6 SLP168

CYXE;2010-02-02 15:00;CYXE 021500Z 17003KT 10SM -SN OVC021 M11/M12 A2990 RMK SC8 SLP167

CYXE;2010-02-02 16:00;CYXE 021600Z 17005KT 15SM -SN OVC019 M11/M12 A2990 RMK SC8 SLP168

CYXE;2010-02-02 17:00;CYXE 021700Z 22003KT 15SM -SN OVC019 M10/M12 A2992 RMK SC8 SLP173

CYXE;2010-02-02 17:30;CYXE 021730Z 00000KT 15SM OVC017 M10/ RMK SC8

CYXE;2010-02-02 17:51;CYXE 021751Z 21003KT 10SM -SN OVC017 M09/ RMK SC8

CYXE;2010-02-02 18:00;CYXE 021800Z 22002KT 10SM -SN OVC017 M09/M11 A2992 RMK SC8 SLP173

CYXE;2010-02-02 18:34;CYXE 021834Z 01003KT 1 1/2SM -SN VV013 M10/ RMK SN8

CYXE;2010-02-02 19:00;CYXE 021900Z 00000KT 2SM -SN OVC017 M09/M11 A2991 RMK SC8 SLP170

CYXE;2010-02-02 19:11;CYXE 021911Z 00000KT 3SM -SN OVC029 M09/ RMK SC7

CYXE;2010-02-02 19:47;CYXE 021947Z 02002KT 2SM -SN OVC017 M10/ RMK SC7

CYXE;2010-02-02 20:00;CYXE 022000Z 05002KT 3SM -SN BKN020 M09/M11 A2990 RMK SC7 SLP166

CYXE;2010-02-02 21:00;CYXE 022100Z 01003KT 10SM -SN BKN040 BKN090 M10/M11 A2989 RMK SC5AC2 SLP163

CYXE;2010-02-02 22:00;CYXE 022200Z 03004KT 10SM -SN FEW018 BKN090 M10/M11 A2990 RMK SC2AC2 SLP165

CYXE;2010-02-02 23:00;CYXE 022300Z 07004KT 10SM SCT020 BKN080 M10/M11 A2990 RMK SC3AC3 SLP166

CYXE;2010-02-02 23:20;CYXE 022320Z 06003KT 10SM -SN SCT020 BKN080 M10/ RMK SC3AC4

CYXE;2010-02-03 00:00;CYXE 030000Z 03003KT 8SM -SN SCT030 OVC070 M10/M11 A2992 RMK SC3AC5 SLP172

CYXE;2010-02-03 01:00;CYXE 030100Z 05003KT 10SM -SN SCT040 OVC080 M10/M11 A2992 RMK SC3AC5 SLP174

CYXE;2010-02-03 02:00;CYXE 030200Z 00000KT 15SM -SN SCT040 OVC080 M11/M12 A2993 RMK SC3AC5 OBS TAKEN +06 SLP177

CYXE;2010-02-03 03:00;CYXE 030300Z 03002KT 15SM -SN BKN040 OVC080 M12/M12 A2993 RMK SC6AC2 SLP176

CYXE;2010-02-03 04:00;CYXE 030400Z 04002KT 15SM OVC038 M11/M12 A2993 RMK SC8 SLP177

CYXE;2010-02-03 05:00;CYXE 030500Z 32002KT 10SM OVC034 M11/M12 A2993 RMK SC8 BR SLP177

CYXE;2010-02-03 06:00;CYXE 030600Z 29002KT 12SM OVC029 M11/M12 A2993 RMK SC8 SLP176

CYXE;2010-02-03 07:00;CYXE 030700Z 30005KT 15SM OVC029 M11/M12 A2995 RMK SC8 SLP181

CYXE;2010-02-03 08:00;CYXE 030800Z 32005KT 15SM OVC029 M11/M12 A2995 RMK SC8 SLP181

CYXE;2010-02-03 09:00;CYXE 030900Z 30006KT 15SM BKN029 M12/M14 A2995 RMK SC5 SLP184

CYXE;2010-02-03 10:00;CYXE 031000Z 29005KT 15SM FEW029 M14/M15 A2996 RMK SC2 SLP185

CYXE;2010-02-03 11:00;CYXE 031100Z 30005KT 15SM R09/3000FT/N MIFG SKC M17/M17 A2996 RMK SLP187

CYXE;2010-02-03 12:00;CYXE 031200Z 30006KT 2SM R09/2800VP6000FT/U BR SKC M21/M21 A2997 RMK SLP195

CYXE;2010-02-03 12:21;CYXE 031221Z 30005KT 1SM R09/P6000FT/N BR SKC M21/

CYXE;2010-02-03 12:32;CYXE 031232Z 29005KT 3/4SM R09/3500VP6000FT/D BR SKC M22/

CYXE;2010-02-03 13:00;CYXE 031300Z 32006KT 1 1/2SM BR SKC M22/M29 A2997 RMK SLP197

CYXE;2010-02-03 13:48;CYXE 031348Z 31002KT 3/4SM R09/3500VP6000FT/U BR SKC M23/

CYXE;2010-02-03 14:00;CYXE 031400Z 32003KT 1SM R09/4000VP6000FT/D BR FEW100 M22/M26 A2998 RMK AC2 SLP198

CYXE;2010-02-03 14:20;CYXE 031420Z 29002KT 1/4SM R09/4500VP6000FT/D FZFG FEW100 M23/ RMK FG1AC1

CYXE;2010-02-03 14:34;CYXE 031434Z 00000KT 1/2SM R09/3000FT/D FZFG FEW020 M22/ RMK FG1SC1

CYXE;2010-02-03 15:00;CYXE 031500Z 00000KT 1SM R09/2600VP6000FT/U BR SCT030 M21/M25 A3000 RMK SC3 SLP207

CYXE;2010-02-03 15:16;CYXE 031516Z 00000KT 1SM R09/4000VP6000FT/N BR BKN030 M21/ RMK FG1SC3 VIS SW QUAD 1/4

CYXE;2010-02-03 15:23;CYXE 031523Z 00000KT 1/2SM R09/P6000FT/U FZFG BKN030 M21/ RMK FG2SC2 VIS SW 1/8 E 1

CYXE;2010-02-03 15:28;CYXE 031528Z 00000KT 1/2SM R09/3000VP6000FT/D FZFG BKN030 M21/ RMK FG2SC2 VIS VRBL 1/4-3/4

CYXE;2010-02-03 15:48;CYXE 031548Z 23002KT 1SM R09/P6000FT/N BR BKN030 M20/ RMK FG1SC4

CYXE;2010-02-03 16:00;CYXE 031600Z 24002KT 1 1/2SM BR BKN030 M20/M23 A3001 RMK SC6 SLP210

CYXE;2010-02-03 16:20;CYXE 031620Z 26003KT 3SM BR BKN030 M20/ RMK SC6 VIS W 1 1/2

CYXE;2010-02-03 17:00;CYXE 031700Z 00000KT 5SM BR BKN030 M19/M21 A3002 RMK SC6 SLP216

CYXE;2010-02-03 18:00;CYXE 031800Z 00000KT 12SM FEW090 BKN250 M17/M18 A3003 RMK AC2CI2 SLP216

CYXE;2010-02-03 19:00;CYXE 031900Z 32002KT 12SM FEW090 SCT250 M17/M18 A3003 RMK AC1CI1 SLP215

CYXE;2010-02-03 20:00;CYXE 032000Z 00000KT 15SM FEW120 SCT250 M15/M15 A3003 RMK AC2CI1 SLP214

CYXE;2010-02-03 21:00;CYXE 032100Z 30003KT 10SM SCT120 BKN250 M15/M16 A3001 RMK AC3CI2 SLP205

CYXE;2010-02-03 22:00;CYXE 032200Z 30002KT 10SM SCT120 BKN250 M14/M16 A3001 RMK AC3CI0 SLP208

CYXE;2010-02-03 23:00;CYXE 032300Z 07004KT 15SM FEW100 SCT120 M16/M19 A3002 RMK AC2AC2 SLP211

CYXE;2010-02-04 00:00;CYXE 040000Z 09004KT 10SM FEW100 SCT120 M17/M18 A3002 RMK AC2AC2 SLP218

CYXE;2010-02-04 01:00;CYXE 040100Z 08003KT 6SM BR FEW015 FEW100 M18/M21 A3002 RMK SC1AC2 SLP219

CYXE;2010-02-04 02:00;CYXE 040200Z 14005KT 15SM SKC M17/M19 A3004 RMK OBS TAKEN +07 SLP223

CYXE;2010-02-04 03:00;CYXE 040300Z 15004KT 15SM SKC M17/M19 A3003 RMK SLP223

CYXE;2010-02-04 04:00;CYXE 040400Z 18006KT 15SM SKC M18/M21 A3003 RMK SLP222

CYXE;2010-02-04 04:36;CYXE 040436Z 05006KT 6SM BR FEW003 M22/ RMK SF0

CYXE;2010-02-04 05:00;CYXE 040500Z 07004KT 10SM MIFG FEW003 M22/M25 A3004 RMK SF0 SLP226

CYXE;2010-02-04 06:00;CYXE 040600Z 09003KT 6SM BR BCFG SKC M21/M24 A3005 RMK SLP227

CYXE;2010-02-04 07:00;CYXE 040700Z 12003KT 6SM BR BCFG SCT010 M20/M23 A3005 RMK ST2 SLP228

CYXE;2010-02-04 08:00;CYXE 040800Z 07006KT 5SM BR OVC025 M19/M22 A3005 RMK SC7 SLP227

CYXE;2010-02-04 09:00;CYXE 040900Z 06006KT 4SM BR OVC023 M19/M21 A3004 RMK SC8 SLP222

CYXE;2010-02-04 10:00;CYXE 041000Z 07005KT 6SM BR OVC021 M17/M19 A3003 RMK SC8 SLP218

CYXE;2010-02-04 11:00;CYXE 041100Z 07005KT 8SM OVC021 M16/M18 A3002 RMK SC8 BR SLP216

CYXE;2010-02-04 12:00;CYXE 041200Z 06007KT 10SM OVC023 M15/M17 A3002 RMK SC8 BR SLP215

CYXE;2010-02-04 13:00;CYXE 041300Z 07006KT 10SM OVC021 M15/M17 A3003 RMK SC8 BR SLP216

CYXE;2010-02-04 14:00;CYXE 041400Z 13006KT 15SM OVC023 M12/M13 A3004 RMK SC8 SLP219

CYXE;2010-02-04 15:00;CYXE 041500Z 13008KT 15SM OVC019 M12/M12 A3004 RMK SC8 SLP217

CYXE;2010-02-04 15:39;CYXE 041539Z 14007KT 15SM BKN013 OVC019 M12/ RMK SC5SC3

CYXE;2010-02-04 16:00;CYXE 041600Z 13008KT 15SM OVC010 M12/M13 A3004 RMK SC8 SLP219

CYXE;2010-02-04 16:25;CYXE 041625Z 14009KT 15SM OVC008 M12/ RMK ST8

CYXE;2010-02-04 17:00;CYXE 041700Z 13006KT 15SM OVC008 M11/M13 A3005 RMK ST8 SLP221

CYXE;2010-02-04 17:35;CYXE 041735Z 13007KT 8SM OVC010 M11/ RMK ST8 BR

CYXE;2010-02-04 18:00;CYXE 041800Z 13007KT 10SM OVC010 M11/M12 A3004 RMK ST8 BR SLP220

CYXE;2010-02-04 18:17;CYXE 041817Z 14007KT 8SM OVC009 M10/ RMK ST8 BR

CYXE;2010-02-04 19:00;CYXE 041900Z 13006KT 8SM OVC008 M10/M12 A3003 RMK ST8 BR SLP217

CYXE;2010-02-04 20:00;CYXE 042000Z 11007KT 8SM OVC010 M09/M11 A3002 RMK SF8 BR SLP214

CYXE;2010-02-04 21:00;CYXE 042100Z 12006KT 8SM OVC012 M09/M11 A3001 RMK SF8 BR SLP209

CYXE;2010-02-04 22:00;CYXE 042200Z 12006KT 15SM OVC012 M08/M10 A3002 RMK SC8 OBS TAKEN +06 SLP210

CYXE;2010-02-04 23:00;CYXE 042300Z 14004KT 15SM BKN012 BKN070 M08/M10 A3002 RMK SC6AC2 SLP210

CYXE;2010-02-05 00:00;CYXE 050000Z 12009KT 15SM BKN012 OVC070 M08/M09 A3002 RMK SC6AC2 SLP208

CYXE;2010-02-05 01:00;CYXE 050100Z 13008KT 15SM BKN012 OVC070 M08/M10 A3004 RMK SC6AC2 SLP214

CYXE;2010-02-05 02:00;CYXE 050200Z 13005KT 15SM BKN010 OVC070 M09/M10 A3004 RMK SC6AC2 SLP214

CYXE;2010-02-05 03:00;CYXE 050300Z 15007KT 8SM OVC007 M08/M09 A3004 RMK ST8 BR SLP212

CYXE;2010-02-05 04:00;CYXE 050400Z 16007KT 8SM OVC008 M08/M09 A3005 RMK ST8 BR SLP214

CYXE;2010-02-05 05:00;CYXE 050500Z 16006KT 8SM OVC006 M08/M09 A3005 RMK ST8 BR SLP217

CYXE;2010-02-05 06:00;CYXE 050600Z 19007KT 12SM OVC008 M10/M11 A3007 RMK ST8 SLP222

CYXE;2010-02-05 07:00;CYXE 050700Z 18007KT 15SM OVC010 M10/M11 A3007 RMK ST8 SLP224

CYXE;2010-02-05 08:00;CYXE 050800Z 16006KT 10SM OVC010 M10/M11 A3007 RMK ST8 BR SLP224

CYXE;2010-02-05 08:36;CYXE 050836Z 15005KT 10SM OVC009 M10/ RMK ST8 BR

CYXE;2010-02-05 09:00;CYXE 050900Z 15007KT 10SM OVC009 M10/M11 A3007 RMK ST8 BR SLP223

CYXE;2010-02-05 10:00;CYXE 051000Z 16006KT 10SM OVC008 M10/M11 A3007 RMK ST8 BR SLP223

CYXE;2010-02-05 10:49;CYXE 051049Z 17007KT 5SM BR OVC005 M10/ RMK ST8

CYXE;2010-02-05 11:00;CYXE 051100Z 17008KT 3SM BR OVC003 M10/M11 A3008 RMK ST8 SLP225

CYXE;2010-02-05 11:46;CYXE 051146Z 17007KT 3SM -SN BR OVC004 M11/ RMK ST8

CYXE;2010-02-05 12:00;CYXE 051200Z 17007KT 3SM -SN BR OVC003 M11/M11 A3009 RMK ST8 SLP231

CYXE;2010-02-05 12:27;CYXE 051227Z 17006KT 5SM -SN BR BKN004 OVC008 M11/ RMK ST6ST2

CYXE;2010-02-05 13:00;CYXE 051300Z 18008KT 6SM BR FEW004 OVC008 M11/M11 A3009 RMK SF1ST7 SLP230

CYXE;2010-02-05 14:00;CYXE 051400Z 13004KT 5SM BR OVC007 M11/M12 A3010 RMK ST8 SLP232

CYXE;2010-02-05 15:00;CYXE 051500Z 15008KT 5SM BR OVC008 M11/M12 A3010 RMK ST8 SLP233

CYXE;2010-02-05 16:00;CYXE 051600Z 15007KT 3SM BR OVC010 M11/M12 A3012 RMK ST8 SLP238

CYXE;2010-02-05 16:50;CYXE 051650Z 15007KT 2SM -SN BR OVC007 M11/ RMK ST8

CYXE;2010-02-05 17:00;CYXE 051700Z 16007KT 1 3/4SM -SN BR OVC007 M11/M12 A3011 RMK ST8 SLP237

CYXE;2010-02-05 17:45;CYXE 051745Z 17009KT 2 1/2SM BR OVC004 M11/ RMK ST8

CYXE;2010-02-05 18:00;CYXE 051800Z 18008KT 2SM BR OVC004 M11/M11 A3013 RMK ST8 SLP244

CYXE;2010-02-05 18:21;CYXE 051821Z 18008KT 2SM -SN BR OVC007 M10/ RMK ST8

CYXE;2010-02-05 19:00;CYXE 051900Z 17006KT 3SM -SN BR OVC006 M10/M11 A3013 RMK ST8 SLP243

CYXE;2010-02-05 20:00;CYXE 052000Z 17006KT 3SM -SN OVC004 M09/M09 A3012 RMK ST8 SLP240

CYXE;2010-02-05 21:00;CYXE 052100Z 18004KT 4SM BR OVC006 M08/M08 A3012 RMK ST8 SLP238

CYXE;2010-02-05 21:33;CYXE 052133Z 19007KT 2 1/2SM -SN BR OVC004 M07/ RMK ST8

CYXE;2010-02-05 22:00;CYXE 052200Z 19007KT 2 1/2SM BR OVC003 M07/M08 A3012 RMK SF8 SLP239

CYXE;2010-02-05 23:00;CYXE 052300Z 19006KT 3SM BR OVC030 M07/M07 A3013 RMK SF8 SLP240

CYXE;2010-02-05 23:05;CYXE 052305Z 21005KT 1 1/4SM BR OVC002 M07/ RMK SF8

CYXE;2010-02-05 23:31;CYXE 052331Z 16003KT 1/2SM R09/3000VP6000FT/D FZFG OVC001 M06/ RMK FG3SF5

CYXE;2010-02-05 23:44;CYXE 052344Z 16003KT 3/8SM R09/3000FT/N FZFG VV001 M06/ RMK FG8

CYXE;2010-02-06 00:00;CYXE 060000Z 14003KT 3/8SM R09/2600FT/N FZFG VV001 M06/M07 A3013 RMK FG8 FROIN SLP241

CYXE;2010-02-06 00:38;CYXE 060038Z 13002KT 1/2SM R09/3500V5000FT/U FZFG VV001 M06/ RMK FG8 FROIN

CYXE;2010-02-06 01:00;CYXE 060100Z 06002KT 1/2SM R09/3500FT/N FZFG VV001 M06/M06 A3014 RMK FG8 FROIN SLP243

CYXE;2010-02-06 02:00;CYXE 060200Z 13005KT 1/2SM R09/4000V5500FT/U FZFG VV001 M06/M06 A3014 RMK FG8 FROIN SLP244

CYXE;2010-02-06 02:12;CYXE 060212Z 12006KT 2SM R09/4000VP6000FT/U BR OVC001 M06/ RMK FG3SF5 FROIN

CYXE;2010-02-06 02:45;CYXE 060245Z 12005KT 2SM BR OVC003 M07/ RMK FG3SF5

CYXE;2010-02-06 03:00;CYXE 060300Z 13006KT 3SM BR OVC004 M07/M07 A3014 RMK SF8 SLP247

CYXE;2010-02-06 04:00;CYXE 060400Z 16006KT 3SM BR OVC004 M07/M08 A3015 RMK SF8 SLP248

CYXE;2010-02-06 05:00;CYXE 060500Z 14006KT 2 1/2SM BR OVC003 M08/M09 A3016 RMK SF8 SLP251

CYXE;2010-02-06 05:25;CYXE 060525Z 13004KT 1 1/2SM BR OVC003 M08/ RMK SF8

CYXE;2010-02-06 06:00;CYXE 060600Z 16007KT 2 1/2SM BR OVC004 M09/M09 A3016 RMK SF8 SLP252

CYXE;2010-02-06 07:00;CYXE 060700Z 15006KT 3SM BR OVC003 M09/M10 A3016 RMK SF8 SLP253

CYXE;2010-02-06 08:00;CYXE 060800Z 16005KT 4SM BR OVC005 M10/M11 A3017 RMK SF8 SLP255

CYXE;2010-02-06 09:00;CYXE 060900Z 12003KT 4SM BR OVC007 M12/M12 A3017 RMK SF8 SLP257

CYXE;2010-02-06 09:18;CYXE 060918Z 12005KT 1 1/2SM BR OVC006 M13/ RMK SF8

CYXE;2010-02-06 09:27;CYXE 060927Z 13004KT 1/2SM R09/P6000FT/N FZFG VV002 M13/ RMK FG8

CYXE;2010-02-06 10:00;CYXE 061000Z 09004KT 3/8SM R09/2800VP6000FT/D FZFG VV001 M13/M13 A3017 RMK FG8 SLP257

CYXE;2010-02-06 11:00;CYXE 061100Z 07003KT 1/4SM R09/3000VP6000FT/U FZFG VV001 M13/M14 A3017 RMK FG8 SLP256

CYXE;2010-02-06 11:45;CYXE 061145Z 04003KT 1/2SM R09/1000V1400FT/N FZFG VV001 M14/ RMK FG8

CYXE;2010-02-06 12:00;CYXE 061200Z 04004KT 3/4SM R09/1200V1800FT/N BR OVC002 M15/M16 A3018 RMK SF8 SLP261

CYXE;2010-02-06 12:05;CYXE 061205Z 05003KT 1 1/2SM R09/1400FT/N BR OVC002 M15/ RMK SF8

CYXE;2010-02-06 12:12;CYXE 061212Z 04002KT 1/2SM R09/1600FT/N FZFG VV001 M15/ RMK FG8

CYXE;2010-02-06 12:42;CYXE 061242Z 09002KT 1SM R09/1200FT/N BR BKN003 M15/ RMK ST6

CYXE;2010-02-06 13:00;CYXE 061300Z 00000KT 3/4SM R09/1400FT/N BR BKN003 M15/M16 A3018 RMK SF4 VIS VRBL 1/2-1 SLP261

CYXE;2010-02-06 13:33;CYXE 061333Z 00000KT 1 1/2SM -SN BR OVC001 M15/ RMK ST7

CYXE;2010-02-06 14:00;CYXE 061400Z 00000KT 3SM -SN BR OVC001 M14/M15 A3019 RMK ST7 SLP265

CYXE;2010-02-06 14:31;CYXE 061431Z 00000KT 1 1/2SM R09/2200FT/N -SN BR OVC001 M15/ RMK ST7

CYXE;2010-02-06 14:39;CYXE 061439Z 00000KT 1/2SM R09/2200FT/N -SN FZFG VV001 M14/ RMK FG8

CYXE;2010-02-06 15:00;CYXE 061500Z 00000KT 1/2SM R09/2800VP6000FT/U -SN FZFG VV001 M14/M15 A3020 RMK FG8 SLP270

CYXE;2010-02-06 15:16;CYXE 061516Z 00000KT 3/4SM R09/P6000FT/U -SN BR VV001 M14/ RMK FG8

CYXE;2010-02-06 15:37;CYXE 061537Z 00000KT 1 1/2SM -SN BR VV004 M14/ RMK FG8

CYXE;2010-02-06 16:00;CYXE 061600Z 00000KT 1 1/2SM -SN BR VV004 M14/M14 A3021 RMK FG8 SLP273

CYXE;2010-02-06 16:25;CYXE 061625Z 02002KT 2 1/2SM -SN BR OVC006 M13/ RMK ST8

CYXE;2010-02-06 17:00;CYXE 061700Z 03003KT 3SM -SN BR OVC003 M13/M14 A3022 RMK ST8 SLP275

CYXE;2010-02-06 18:00;CYXE 061800Z 00000KT 3SM -SN BR OVC003 M12/M12 A3022 RMK ST8 SLP276

CYXE;2010-02-06 19:00;CYXE 061900Z 04002KT 2SM -SN BR OVC003 M11/M12 A3021 RMK ST8 SLP272

CYXE;2010-02-06 20:00;CYXE 062000Z 02002KT 2SM -SN BR OVC005 M10/M11 A3021 RMK ST8 SLP271

CYXE;2010-02-06 20:33;CYXE 062033Z 04003KT 1 1/2SM -SN BR VV004 M10/ RMK FG8

CYXE;2010-02-06 20:46;CYXE 062046Z 03002KT 1SM R09/P6000FT/D -SN BR VV003 M09/ RMK FG8

CYXE;2010-02-06 21:00;CYXE 062100Z 03002KT 1SM R09/P6000FT/U -SN BR VV003 M09/M10 A3021 RMK FG8 SLP271

CYXE;2010-02-06 22:00;CYXE 062200Z 02002KT 1 1/4SM -SN BR OVC003 M08/M09 A3021 RMK FG3SF5 SLP272

CYXE;2010-02-06 23:00;CYXE 062300Z 03003KT 1 1/2SM -SN BR OVC004 M08/M08 A3022 RMK FG3SF5 SLP275

CYXE;2010-02-07 00:00;CYXE 070000Z 01004KT 4SM -SN BR BKN004 OVC009 M08/M08 A3023 RMK SF5SC3 SLP278

CYXE;2010-02-07 00:13;CYXE 070013Z 01004KT 4SM BR SCT004 OVC009 M08/ RMK SF3SC5

CYXE;2010-02-07 01:00;CYXE 070100Z 03003KT 3SM -SN OVC007 M08/M08 A3023 RMK SC8 SLP280

CYXE;2010-02-07 01:40;CYXE 070140Z 07009KT 2SM -SN OVC003 M07/ RMK SF8

CYXE;2010-02-07 02:00;CYXE 070200Z 07009KT 2 1/2SM -SN BR OVC003 M07/M07 A3024 RMK SF8 SLP282

CYXE;2010-02-07 03:00;CYXE 070300Z 07009KT 2SM -SN -FZDZ BR OVC003 M07/M08 A3023 RMK SF8 SLP281

CYXE;2010-02-07 03:33;CYXE 070333Z 07008KT 8SM -SN FEW003 SCT006 OVC009 M08/ REFZDZ RMK SF2SF2SC4

CYXE;2010-02-07 04:00;CYXE 070400Z 07008KT 4SM -SN SCT005 OVC012 M08/M08 A3024 REFZDZ RMK SF4SC4 SLP283

CYXE;2010-02-07 05:00;CYXE 070500Z 08009KT 3SM -SN SCT005 SCT012 OVC018 M09/M09 A3024 RMK SF3SC1SC4 SLP284

CYXE;2010-02-07 06:00;CYXE 070600Z 06008KT 4SM -SN BR OVC024 M10/M10 A3025 RMK SC8 SLP286

CYXE;2010-02-07 07:00;CYXE 070700Z 06009KT 4SM -SN BR OVC024 M10/M11 A3026 RMK SC8 SLP290

CYXE;2010-02-07 08:00;CYXE 070800Z 05011KT 4SM -SN BR OVC024 M12/M12 A3027 RMK SC8 SLP292

CYXE;2010-02-07 09:00;CYXE 070900Z 05010KT 8SM -SN OVC024 M13/M14 A3027 RMK SC8 BR SLP293

CYXE;2010-02-07 10:00;CYXE 071000Z 04010KT 6SM -SN OVC024 M14/M15 A3028 RMK SC8 BR SLP296

CYXE;2010-02-07 11:00;CYXE 071100Z 05010KT 5SM -SN BR OVC024 M15/M16 A3028 RMK SC8 SLP298

CYXE;2010-02-07 12:00;CYXE 071200Z 06010KT 4SM -SN BR OVC024 M16/M17 A3031 RMK SC8 SLP306

CYXE;2010-02-07 13:00;CYXE 071300Z 07012KT 6SM -SN BR OVC024 M16/M17 A3031 RMK SC8 SLP308

CYXE;2010-02-07 14:00;CYXE 071400Z 06010KT 6SM -SN OVC022 M19/M20 A3032 RMK SC8 SLP312

CYXE;2010-02-07 15:00;CYXE 071500Z 07009KT 15SM -SN BKN024 M21/M22 A3035 RMK SC6 SLP325

CYXE;2010-02-07 15:10;CYXE 071510Z 06007KT 15SM BKN025 M22/ RMK SC3

CYXE;2010-02-07 16:00;CYXE 071600Z 05009KT 15SM FEW025 M23/M29 A3036 RMK SC1 SLP330

CYXE;2010-02-07 17:00;CYXE 071700Z 06008KT 15SM FEW250 M24/M28 A3038 RMK CI0 SLP335

CYXE;2010-02-07 18:00;CYXE 071800Z 06007KT 15SM FEW250 M23/M27 A3039 RMK CI0 SLP341

CYXE;2010-02-07 19:00;CYXE 071900Z 06008KT 15SM FEW250 M23/M27 A3039 RMK CI0 SLP341

CYXE;2010-02-07 20:00;CYXE 072000Z 06006KT 15SM SKC M22/M26 A3039 RMK SLP342

CYXE;2010-02-07 21:00;CYXE 072100Z 06008KT 15SM SKC M22/M26 A3039 RMK SLP344

CYXE;2010-02-07 22:00;CYXE 072200Z 05006KT 15SM SKC M22/M26 A3040 RMK SLP346

CYXE;2010-02-07 23:00;CYXE 072300Z 04006KT 15SM SKC M23/M27 A3041 RMK SLP350

CYXE;2010-02-08 00:00;CYXE 080000Z 05008KT 15SM SKC M25/M29 A3041 RMK SLP355

CYXE;2010-02-08 01:00;CYXE 080100Z 03005KT 15SM SKC M28/M32 A3042 RMK SLP358

CYXE;2010-02-08 02:00;CYXE 080200Z 05005KT 15SM SKC M27/M31 A3043 RMK SLP360

CYXE;2010-02-08 03:00;CYXE 080300Z 00000KT 15SM SKC M28/M32 A3044 RMK SLP371

CYXE;2010-02-08 04:00;CYXE 080400Z 05002KT 15SM SKC M32/M35 A3044 RMK SLP371

CYXE;2010-02-08 05:00;CYXE 080500Z 00000KT 15SM SKC M30/M34 A3044 RMK SLP372

CYXE;2010-02-08 06:00;CYXE 080600Z 00000KT 15SM SKC M32/M34 A3045 RMK SLP378

CYXE;2010-02-08 07:00;CYXE 080700Z 34003KT 15SM SKC M32/M36 A3045 RMK SLP380

CYXE;2010-02-08 08:00;CYXE 080800Z 02004KT 15SM SKC M32/M36 A3045 RMK SLP380

CYXE;2010-02-08 09:00;CYXE 080900Z 07003KT 15SM FEW008 M31/M35 A3046 RMK ST1 SLP381

CYXE;2010-02-08 10:00;CYXE 081000Z 08004KT 15SM BKN005 M30/M34 A3046 RMK ST6 SLP380

CYXE;2010-02-08 10:10;CYXE 081010Z 10003KT 5SM -SN BR OVC003 M28/ RMK SF8

CYXE;2010-02-08 10:33;CYXE 081033Z 10004KT 3SM -SN BR OVC001 M27/ RMK SF8 CIG RAGGED

CYXE;2010-02-08 10:46;CYXE 081046Z 10004KT 1/2SM R09/3000VP6000FT/D FZFG SCT001 OVC004 M27/ RMK SF3SC4

CYXE;2010-02-08 11:00;CYXE 081100Z 10004KT 1/2SM R09/1400V2000FT/N FZFG OVC004 M27/M31 A3045 RMK SC8 SLP379

CYXE;2010-02-08 11:03;CYXE 081103Z 10005KT 1 1/2SM R09/1400V2200FT/U -SN BR OVC004 M27/ RMK SC8 VIS W-N 1/2

CYXE;2010-02-08 11:05;CYXE 081105Z CCA 10005KT 1 1/2SM R09/1400V2200FT/U -SN BR OVC004 M27/ RMK SC8 VIS W-N 1/2

CYXE;2010-02-08 11:13;CYXE 081113Z 10004KT 4SM R09/3000FT/N BR FEW001 SCT004 M27/ RMK ST2ST2 VIS ENE-ESE 11/2

CYXE;2010-02-08 12:00;CYXE 081200Z 09003KT 4SM R09/2400FT/N BR FEW001 SCT004 M28/M32 A3045 RMK SF1ST1 VIS NE-W 3/4 SLP377

CYXE;2010-02-08 13:00;CYXE 081300Z 00000KT 1 1/2SM R09/4000VP6000FT/D IC SCT004 M31/M35 A3045 RMK SC2 SLP377

CYXE;2010-02-08 13:35;CYXE 081335Z 25003KT 3SM BR SCT005 M32/ RMK ST2

CYXE;2010-02-08 13:52;CYXE 081352Z 25003KT 8SM FEW005 M31/ RMK SC1

CYXE;2010-02-08 14:00;CYXE 081400Z 25002KT 12SM FEW005 SCT250 M31/M35 A3045 RMK ST1CI1 SLP378

CYXE;2010-02-08 15:00;CYXE 081500Z 00000KT 8SM FEW008 BKN250 M31/M35 A3046 RMK SF0CI1 SLP385

CYXE;2010-02-08 16:00;CYXE 081600Z 15003KT 12SM FEW008 BKN250 M29/M33 A3046 RMK SC1CI1 SLP385

CYXE;2010-02-08 17:00;CYXE 081700Z 18005KT 15SM FEW008 BKN260 M23/M26 A3046 RMK SC1CI2 CC ASOCTD SLP387

CYXE;2010-02-08 18:00;CYXE 081800Z 20004KT 15SM FEW008 SCT160 OVC260 M22/M25 A3045 RMK SC1AC1CI2 SLP379

CYXE;2010-02-08 19:00;CYXE 081900Z 18005KT 15SM FEW008 SCT160 BKN260 M20/M23 A3043 RMK SC1AC2CI1 SLP373

CYXE;2010-02-08 20:00;CYXE 082000Z 19007KT 15SM SCT160 BKN280 M19/M22 A3041 RMK AC2CI1 SLP365

CYXE;2010-02-08 21:00;CYXE 082100Z 17009KT 15SM FEW160 SCT280 M18/M21 A3040 RMK AC1CI1 SLP357

CYXE;2010-02-08 22:00;CYXE 082200Z 18012KT 15SM FEW160 FEW280 M18/M22 A3038 RMK AC1CI0 SLP351

CYXE;2010-02-08 23:00;CYXE 082300Z 18010KT 15SM FEW280 M18/M23 A3037 RMK CI0 SLP349

CYXE;2010-02-09 00:00;CYXE 090000Z 16007KT 15SM FEW250 M19/M23 A3036 RMK CI0 SLP344

CYXE;2010-02-09 01:00;CYXE 090100Z 15006KT 15SM FEW250 M21/M24 A3035 RMK CI0 SLP339

CYXE;2010-02-09 02:00;CYXE 090200Z 16006KT 15SM SKC M22/M25 A3033 RMK SLP334

CYXE;2010-02-09 03:00;CYXE 090300Z 16005KT 15SM SKC M22/M25 A3032 RMK SLP333

CYXE;2010-02-09 04:00;CYXE 090400Z 15005KT 15SM SKC M22/M26 A3032 RMK SLP331

CYXE;2010-02-09 05:00;CYXE 090500Z 14005KT 15SM SKC M22/M25 A3030 RMK SLP325

CYXE;2010-02-09 06:00;CYXE 090600Z 16006KT 15SM SKC M22/M25 A3029 RMK SLP315

CYXE;2010-02-09 07:00;CYXE 090700Z 16006KT 15SM SKC M23/M26 A3027 RMK SLP310

CYXE;2010-02-09 08:00;CYXE 090800Z 16006KT 15SM SKC M22/M26 A3026 RMK SLP306

CYXE;2010-02-09 09:00;CYXE 090900Z 17007KT 15SM SKC M23/M26 A3025 RMK SLP299

CYXE;2010-02-09 10:00;CYXE 091000Z 17007KT 15SM SKC M23/M26 A3023 RMK SLP294

CYXE;2010-02-09 11:00;CYXE 091100Z 16007KT 15SM SKC M23/M26 A3022 RMK SLP289

CYXE;2010-02-09 12:00;CYXE 091200Z 16006KT 15SM SKC M22/M26 A3020 RMK SLP282

CYXE;2010-02-09 13:00;CYXE 091300Z 17007KT 15SM SKC M22/M26 A3019 RMK SLP280

CYXE;2010-02-09 14:00;CYXE 091400Z 16007KT 15SM FEW280 M22/M25 A3016 RMK CI0 SLP270

CYXE;2010-02-09 15:00;CYXE 091500Z 16009KT 15SM SKC M20/M24 A3014 RMK SLP264

CYXE;2010-02-09 16:00;CYXE 091600Z 17012KT 15SM SKC M19/M23 A3014 RMK SLP263

CYXE;2010-02-09 17:00;CYXE 091700Z 18010G15KT 15SM SKC M18/M21 A3013 RMK SLP259

CYXE;2010-02-09 18:00;CYXE 091800Z 18012G18KT 15SM FEW250 M17/M21 A3011 RMK CI0 SLP251

CYXE;2010-02-09 19:00;CYXE 091900Z 18014KT 15SM FEW250 M16/M20 A3009 RMK CI0 SLP245

CYXE;2010-02-09 20:00;CYXE 092000Z 18013KT 15SM FEW250 M15/M20 A3007 RMK CI0 SLP236

CYXE;2010-02-09 21:00;CYXE 092100Z 18011KT 15SM FEW250 M14/M19 A3005 RMK CI0 SLP227

CYXE;2010-02-09 22:00;CYXE 092200Z 18009KT 15SM FEW280 M14/M19 A3004 RMK CI0 SLP223

CYXE;2010-02-09 23:00;CYXE 092300Z 19009G16KT 15SM FEW280 M15/M19 A3002 RMK CI0 SLP218

CYXE;2010-02-10 00:00;CYXE 100000Z 18006KT 15SM FEW280 M16/M20 A3001 RMK CI1 SLP216

CYXE;2010-02-10 01:00;CYXE 100100Z 17006KT 15SM FEW280 M18/M21 A3000 RMK CI1 SLP211

CYXE;2010-02-10 02:00;CYXE 100200Z 17006KT 15SM FEW280 M18/M21 A2998 RMK CI0 SLP205

CYXE;2010-02-10 03:00;CYXE 100300Z 16006KT 15SM SKC M19/M22 A2996 RMK SLP200

CYXE;2010-02-10 04:00;CYXE 100400Z 18007KT 15SM SKC M19/M22 A2995 RMK SLP195

CYXE;2010-02-10 05:00;CYXE 100500Z 18008KT 15SM SKC M20/M23 A2993 RMK SLP190

CYXE;2010-02-10 06:00;CYXE 100600Z 19008KT 15SM SKC M20/M23 A2993 RMK SLP185

CYXE;2010-02-10 07:00;CYXE 100700Z 19008KT 15SM SKC M21/M24 A2992 RMK SLP183

CYXE;2010-02-10 08:00;CYXE 100800Z 20005KT 15SM FEW010 M22/M25 A2991 RMK SF1 SLP180

CYXE;2010-02-10 09:00;CYXE 100900Z 20005KT 15SM FEW010 M23/M27 A2990 RMK ST1 SLP177

CYXE;2010-02-10 09:24;CYXE 100924Z 19005KT 15SM FEW004 M24/ RMK SF0

CYXE;2010-02-10 10:00;CYXE 101000Z 20006KT 15SM FEW004 M24/M27 A2989 RMK ST0 SLP174

CYXE;2010-02-10 10:39;CYXE 101039Z 20006KT 15SM BKN004 M24/ RMK SF2

CYXE;2010-02-10 11:00;CYXE 101100Z 20005KT 15SM OVC003 M24/M27 A2988 RMK SF3 SLP171

CYXE;2010-02-10 11:42;CYXE 101142Z 20005KT 6SM BR OVC003 M24/ RMK SF6 UA/OVC021

CYXE;2010-02-10 12:00;CYXE 101200Z 20005KT 6SM BR OVC002 M24/M27 A2987 RMK SF6 SLP169

CYXE;2010-02-10 13:00;CYXE 101300Z 19006KT 6SM IC OVC002 M23/M26 A2987 RMK SF6 SLP167

CYXE;2010-02-10 14:00;CYXE 101400Z 19005KT 3SM IC OVC003 M22/M25 A2987 RMK SF7 SLP167

CYXE;2010-02-10 14:22;CYXE 101422Z 18006KT 3/4SM R09/P6000FT/N IC OVC002 M21/ RMK FG2SF6

CYXE;2010-02-10 14:32;CYXE 101432Z 18006KT 1/2SM R09/2600FT/N IC VV002 M21/ RMK IC8

CYXE;2010-02-10 15:00;CYXE 101500Z 18006KT 1/2SM R09/4000VP6000FT/D IC VV002 M20/M23 A2985 RMK IC8 SLP162

CYXE;2010-02-10 15:07;CYXE 101507Z 18006KT 1SM R09/P6000FT/U IC OVC002 M20/ RMK ST8

CYXE;2010-02-10 15:24;CYXE 101524Z 18006KT 1 1/2SM R09/4500VP6000FT/U IC OVC004 M19/ RMK ST8

CYXE;2010-02-10 16:00;CYXE 101600Z 18006KT 2SM IC OVC004 M19/M21 A2984 RMK ST8 SLP159

CYXE;2010-02-10 16:23;CYXE 101623Z 18007KT 2 1/2SM IC OVC006 M18/ RMK ST8

CYXE;2010-02-10 17:00;CYXE 101700Z 19005KT 3SM IC OVC006 M18/M20 A2984 RMK ST8 SLP159

CYXE;2010-02-10 17:45;CYXE 101745Z 19005KT 3SM -SN OVC010 M17/ RMK ST7

CYXE;2010-02-10 18:00;CYXE 101800Z 20005KT 2 1/2SM -SN OVC012 M16/M18 A2984 RMK SC8 SLP154

CYXE;2010-02-10 18:19;CYXE 101819Z 20005KT 3SM -SN OVC012 M16/ RMK SC7

CYXE;2010-02-10 18:38;CYXE 101838Z 21005KT 4SM IC SCT010 OVC250 M16/ RMK SC4CI2

CYXE;2010-02-10 19:00;CYXE 101900Z 22005KT 8SM FEW010 OVC250 M16/M18 A2983 RMK SC2CI5 SLP152

CYXE;2010-02-10 20:00;CYXE 102000Z 22004KT 15SM BKN250 M15/M17 A2982 RMK CI5 SLP147

CYXE;2010-02-10 21:00;CYXE 102100Z 22003KT 15SM BKN014 OVC250 M16/M18 A2981 RMK SC5CI2 SLP148

CYXE;2010-02-10 22:00;CYXE 102200Z 23004KT 15SM BKN010 OVC250 M15/M17 A2982 RMK SC5CI2 SLP149

CYXE;2010-02-10 23:00;CYXE 102300Z 23005KT 15SM OVC010 M14/M16 A2982 RMK SC8 SLP150

CYXE;2010-02-11 00:00;CYXE 110000Z 21005KT 15SM OVC007 M14/M16 A2982 RMK SC8 SLP149

CYXE;2010-02-11 01:00;CYXE 110100Z 19005KT 15SM OVC005 M14/M16 A2982 RMK SC8 SLP148

CYXE;2010-02-11 01:20;CYXE 110120Z 21004KT 15SM -SN OVC004 M14/ RMK SC8

CYXE;2010-02-11 02:00;CYXE 110200Z 21006KT 12SM -SN OVC003 M14/M15 A2981 RMK SC8 SLP147

CYXE;2010-02-11 03:00;CYXE 110300Z 21005KT 6SM -SN OVC002 M13/M14 A2981 RMK SC8 SLP144

CYXE;2010-02-11 04:00;CYXE 110400Z 20003KT 8SM -SN OVC006 M13/M14 A2981 RMK SC8 SLP144

CYXE;2010-02-11 05:00;CYXE 110500Z 20002KT 3SM -SN OVC003 M12/M20 A2982 RMK SC8 SLP145

CYXE;2010-02-11 05:07;CYXE 110507Z 20002KT 2 1/2SM -SN OVC002 M12/ RMK SC8

CYXE;2010-02-11 05:39;CYXE 110539Z 18002KT 1 1/2SM -SN BR OVC002 M12/ RMK FG2ST6 TOWER OBS

CYXE;2010-02-11 06:00;CYXE 110600Z 18004KT 1SM R09/P6000FT/N -SN BR OVC002 M12/M13 A2981 RMK FG2ST6 TOWER OBS SLP140

CYXE;2010-02-11 06:21;CYXE 110621Z 21003KT 3/4SM R09/P6000FT/N -SN BR OVC002 M12/ RMK FG5ST3 FROIN TOWER OBS

CYXE;2010-02-11 06:38;CYXE 110638Z 21003KT 1/2SM R09/P6000FT/D FZFG VV002 M12/ RMK FG8 FROIN TOWER OBS

CYXE;2010-02-11 06:42;CYXE 110642Z 21003KT 3/8SM R09/P6000FT/D FZFG VV001 M12/ RMK FG8 FROIN TOWER OBS

CYXE;2010-02-11 07:00;CYXE 110700Z 21004KT 3/8SM R09/3000V4500FT/U FZFG VV001 M12/M12 A2981 RMK FG8 FROIN TOWER OBS SLP141

CYXE;2010-02-11 07:08;CYXE 110708Z 22004KT 3/4SM R09/3000VP6000FT/U BR VV001 M12/ RMK FG8 FROIN TOWER OBS

CYXE;2010-02-11 07:22;CYXE 110722Z 23003KT 1/2SM R09/3500VP6000FT/D FZFG VV001 M12/ RMK FG8 FROIN TOWER OBS

CYXE;2010-02-11 07:31;CYXE 110731Z 24002KT 1/4SM R09/1800V2200FT/N FZFG VV001 M11/ RMK FG8 FROIN TOWER OBS

CYXE;2010-02-11 07:51;CYXE 110751Z 24004KT 1/8SM R09/2200FT/N FZFG VV001 M11/ RMK FG8 FROIN TOWER OBS

CYXE;2010-02-11 08:00;CYXE 110800Z 25004KT 1/8SM R09/2000FT/N FZFG VV001 M11/M12 A2981 RMK FG8 FROIN TOWER OBS SLP140

CYXE;2010-02-11 09:00;CYXE 110900Z 31004KT 1/8SM R09/2800FT/N FZFG VV001 M11/M12 A2982 RMK FG8 FROIN TOWER OBS SLP140

CYXE;2010-02-11 09:15;CYXE 110915Z 31003KT 3/4SM R09/3500VP6000FT/D BR VV001 M11/ RMK FG8 FROIN TOWER OBS

CYXE;2010-02-11 09:32;CYXE 110932Z 30005KT 3/8SM R09/3500V5000FT/D FZFG VV002 M12/ RMK FG8 FROIN TOWER OBS

CYXE;2010-02-11 10:00;CYXE 111000Z 29005KT 3/8SM R09/3000VP6000FT/D FZFG VV001 M12/M12 A2982 RMK FG8 FROIN TOWER OBS SLP141

CYXE;2010-02-11 11:00;CYXE 111100Z 28006KT 3/8SM R09/3500V5000FT/D FZFG VV001 M12/M13 A2983 RMK FG8 FROIN TOWER OBS SLP146

CYXE;2010-02-11 11:07;CYXE 111107Z 27005KT 1/4SM R09/3500V5000FT/U FZFG VV001 M12/ RMK FG8 FROIN TOWER OBS

CYXE;2010-02-11 12:00;CYXE 111200Z 27004KT 1/4SM R09/2000FT/N FZFG VV001 M12/M13 A2984 RMK FG8 FROIN TOWER OBS SLP149

CYXE;2010-02-11 12:07;CYXE 111207Z 27004KT 1/8SM R09/1800FT/N FZFG VV001 M12/ RMK FG8 FROIN TOWER OBS

CYXE;2010-02-11 12:30;CYXE 111230Z 27004KT 1/4SM R09/2600FT/N FZFG VV001 M12/ RMK FG8 FROIN TOWER OBS

CYXE;2010-02-11 12:37;CYXE 111237Z 26004KT 3/8SM R09/2600V4500FT/U FZFG VV001 M12/ RMK FG8 FROIN TOWER OBS

CYXE;2010-02-11 13:00;CYXE 111300Z 26006KT 5/8SM R09/3000V4500FT/D BR VV001 M12/M13 A2985 RMK FG8 FROIN SLP152

CYXE;2010-02-11 13:17;CYXE 111317Z 26005KT 3/8SM R09/2600FT/N FZFG VV001 M12/ RMK FG8 FROIN

CYXE;2010-02-11 14:00;CYXE 111400Z CCA 28004KT 3/4SM R09/2600V5000FT/N -SN BR VV002 M13/M13 A2986 RMK FG8 FROIN SLP155

CYXE;2010-02-11 14:10;CYXE 111410Z CCA 27004KT 1/2SM R09/3000V4500FT/U -SN FZFG VV001 M13/ RMK FG8 VIS VRBL 3/8-5/8

CYXE;2010-02-11 14:44;CYXE 111444Z 26004KT 1SM R09/P6000FT/D -SN BR OVC002 M12/ RMK FG2ST6

CYXE;2010-02-11 15:00;CYXE 111500Z 26005KT 1SM R09/P6000FT/D -SN BR OVC002 M12/M13 A2987 RMK FG2ST6 SLP159

CYXE;2010-02-11 15:06;CYXE 111506Z 26004KT 3/4SM R09/3000V6000FT/D -SN BR OVC005 M12/ RMK FG4ST4

CYXE;2010-02-11 15:43;CYXE 111543Z 28005KT 3/4SM R09/P6000FT/D -SN BR OVC002 M13/ RMK FG4ST4

CYXE;2010-02-11 16:00;CYXE 111600Z 28004KT 3/4SM R09/P6000FT/U -SN BR OVC002 M13/M13 A2988 RMK FG4ST4 SLP163

CYXE;2010-02-11 16:48;CYXE 111648Z 25005KT 1 1/2SM -SN BR OVC003 M12/ RMK FG2ST6

CYXE;2010-02-11 17:00;CYXE 111700Z 25004KT 2SM -SN BR OVC004 M12/M13 A2989 RMK ST7 SLP166

CYXE;2010-02-11 17:32;CYXE 111732Z 26005KT 3SM -SN BR OVC004 M12/ RMK ST7

CYXE;2010-02-11 18:00;CYXE 111800Z 26004KT 3SM -SN BR OVC004 M12/M12 A2989 RMK ST8 SLP165

CYXE;2010-02-11 18:42;CYXE 111842Z 26005KT 4SM -SN BR OVC003 M11/ RMK ST8

CYXE;2010-02-11 19:00;CYXE 111900Z 25005KT 3SM -SG BR OVC003 M10/M11 A2989 RMK ST8 SLP165

CYXE;2010-02-11 20:00;CYXE 112000Z 25009KT 3SM -SG BR OVC002 M09/M10 A2989 RMK ST8 SLP165

CYXE;2010-02-11 21:00;CYXE 112100Z 26007KT 4SM -SG BR OVC002 M08/M08 A2989 RMK ST8 SLP162

CYXE;2010-02-11 21:17;CYXE 112117Z 26008KT 5SM -SG BR OVC006 M08/ RMK ST8

CYXE;2010-02-11 21:50;CYXE 112150Z 25009KT 15SM BKN005 M08/ RMK ST7

CYXE;2010-02-11 22:00;CYXE 112200Z 25009KT 15SM BKN005 M08/M08 A2989 RMK ST5 SLP162

CYXE;2010-02-11 22:02;CYXE 112202Z 25007KT 15SM SCT005 M08/ RMK SF2

CYXE;2010-02-11 22:47;CYXE 112247Z 24009KT 10SM BKN002 M09/ RMK ST6

CYXE;2010-02-11 23:00;CYXE 112300Z 25010KT 6SM BR OVC003 M08/M08 A2990 RMK ST8 SLP163

CYXE;2010-02-11 23:23;CYXE 112323Z 24008KT 2 1/2SM BR OVC002 M08/ RMK ST8

CYXE;2010-02-11 23:36;CYXE 112336Z 24008KT 1SM R09/P6000FT/N BR VV002 M08/ RMK FG8

CYXE;2010-02-12 00:00;CYXE 120000Z 23007KT 2 1/2SM BR OVC001 M09/M09 A2990 RMK ST8 SLP165

CYXE;2010-02-12 00:05;CYXE 120005Z 23006KT 4SM BR SCT002 M10/ RMK ST3

CYXE;2010-02-12 01:00;CYXE 120100Z 26003KT 4SM BR SCT002 M14/M14 A2990 RMK ST2 SLP166

CYXE;2010-02-12 02:00;CYXE 120200Z 24005KT 8SM BKN033 M14/M14 A2991 RMK SC5 BR SLP169

CYXE;2010-02-12 02:29;CYXE 120229Z 24007KT 8SM FEW002 BKN033 M14/ RMK SF1SC4 BR

CYXE;2010-02-12 02:37;CYXE 120237Z 24007KT 6SM BR BKN002 BKN033 M14/ RMK SF3SC3

CYXE;2010-02-12 03:00;CYXE 120300Z 24007KT 1SM R09/P6000FT/N BR VV001 M15/M15 A2990 RMK FG8 SLP170

CYXE;2010-02-12 03:03;CYXE 120303Z 24007KT 1/2SM R09/3000VP6000FT/D FZFG VV001 M14/ RMK FG8

CYXE;2010-02-12 03:30;CYXE 120330Z 24006KT 1/4SM R09/1800FT/N FZFG VV001 M13/ RMK FG8

CYXE;2010-02-12 04:00;CYXE 120400Z 25004KT 1/4SM R09/1800FT/N FZFG VV001 M13/M14 A2991 RMK FG8 SLP172

CYXE;2010-02-12 05:00;CYXE 120500Z 24005KT 1/4SM R09/1600FT/N FZFG VV001 M13/M14 A2991 RMK FG8 SLP171

CYXE;2010-02-12 06:00;CYXE 120600Z 24003KT 1/4SM R09/1400FT/N FZFG VV001 M13/M14 A2990 RMK FG8 SLP169

CYXE;2010-02-12 06:37;CYXE 120637Z 24002KT 1SM R09/2600V4000FT/N BR OVC003 M13/ RMK ST8

CYXE;2010-02-12 07:00;CYXE 120700Z 00000KT 3SM BR OVC003 M14/M14 A2991 RMK ST8 VIS N 1 SLP172

CYXE;2010-02-12 07:31;CYXE 120731Z 00000KT 1/2SM R09/P6000FT/D FZFG OVC002 M13/ RMK ST8

CYXE;2010-02-12 07:49;CYXE 120749Z 00000KT 1/4SM R09/3500V5000FT/N FZFG VV001 M13/ RMK FG8

CYXE;2010-02-12 08:00;CYXE 120800Z 00000KT 1/4SM R09/5000FT/N FZFG VV001 M13/M14 A2990 RMK FG8 SLP168

CYXE;2010-02-12 09:00;CYXE 120900Z 18002KT 1/2SM R09/3500FT/D FZFG VV001 M13/M13 A2990 RMK FG8 SLP164

CYXE;2010-02-12 10:00;CYXE 121000Z 14002KT 1/2SM R09/4500VP6000FT/U FZFG VV002 M12/M13 A2988 RMK FG8 SLP160

CYXE;2010-02-12 10:28;CYXE 121028Z 16002KT 2 1/2SM BR OVC002 M12/ RMK ST8 VIS NW 3/4

CYXE;2010-02-12 10:53;CYXE 121053Z 18002KT 2 1/2SM -SN BR OVC002 M12/ RMK ST8 VIS NW 3/4

CYXE;2010-02-12 11:00;CYXE 121100Z 19002KT 2 1/2SM -SN BR OVC002 M13/M13 A2989 RMK ST8 VIS NW 3/4 SLP162

CYXE;2010-02-12 11:21;CYXE 121121Z 13002KT 1SM R09/P6000FT/D -SN BR VV001 M12/ RMK SN8 VIS SW 1/2

CYXE;2010-02-12 12:00;CYXE 121200Z 00000KT 2SM -SN BR OVC002 M13/M13 A2989 RMK ST8 SLP162

CYXE;2010-02-12 13:00;CYXE 121300Z 05004KT 2SM -SN BR OVC003 M12/M13 A2989 RMK ST8 SLP163

CYXE;2010-02-12 13:25;CYXE 121325Z 05004KT 1 1/2SM -SN BR OVC003 M12/ RMK SF8

CYXE;2010-02-12 13:50;CYXE 121350Z 06003KT 1 1/2SM -SN BR OVC002 M12/ RMK SF8

CYXE;2010-02-12 14:00;CYXE 121400Z 07004KT 1 1/2SM -SN BR OVC002 M12/M13 A2989 RMK ST8 OBS TAKEN -02 SLP163

CYXE;2010-02-12 14:03;CYXE 121403Z 07004KT 1 1/2SM -SN BR OVC003 M12/ RMK ST8

CYXE;2010-02-12 14:13;CYXE 121413Z 07004KT 3/4SM R09/P6000FT/N -SN BR OVC003 M12/ RMK FG2ST6

CYXE;2010-02-12 14:27;CYXE 121427Z 07003KT 5/8SM R09/P6000FT/D -SN BR OVC003 M12/ RMK FG4ST4

CYXE;2010-02-12 15:00;CYXE 121500Z 07003KT 5/8SM R09/P6000FT/U BR VV002 M12/M13 A2990 RMK FG8 SLP170

CYXE;2010-02-12 15:30;CYXE 121530Z 07004KT 1SM R09/6000FT/D BR OVC003 M12/ RMK FG3ST5

CYXE;2010-02-12 15:43;CYXE 121543Z 07004KT 1SM R09/P6000FT/U BR OVC002 M12/ RMK FG4ST4 FROIN

CYXE;2010-02-12 16:00;CYXE 121600Z 07003KT 1 1/2SM -SN BR OVC002 M12/M12 A2991 RMK ST8 FROIN SLP173

CYXE;2010-02-12 16:12;CYXE 121612Z 06002KT 1SM R09/P6000FT/N -SN BR OVC001 M11/ RMK FG2ST6 FROIN

CYXE;2010-02-12 16:19;CYXE 121619Z 00000KT 1SM R09/P6000FT/D -SN BR OVC002 M11/ RMK FG2ST6 FROIN

CYXE;2010-02-12 16:37;CYXE 121637Z 07002KT 3/4SM R09/3000V5500FT/U -SN BR OVC001 M11/ RMK FG4ST4 FROIN

CYXE;2010-02-12 16:52;CYXE 121652Z 07002KT 3/4SM R09/3000V6000FT/D -SN BR OVC002 M11/ RMK FG4ST4 FROIN

CYXE;2010-02-12 17:00;CYXE 121700Z 04002KT 3/4SM R09/3000VP6000FT/U -SN BR OVC002 M11/M11 A2991 RMK FG5ST3 FROIN SLP173

CYXE;2010-02-12 17:23;CYXE 121723Z 04003KT 3/4SM R09/4000V6000FT/U -SN BR OVC001 M10/ RMK FG5ST3 FROIN

CYXE;2010-02-12 17:39;CYXE 121739Z 05004KT 1 1/2SM -SN BR OVC002 M10/ RMK ST8 FROIN

CYXE;2010-02-12 17:49;CYXE 121749Z 07004KT 1 1/2SM -SN BR OVC003 M10/ RMK ST8

CYXE;2010-02-12 18:00;CYXE 121800Z 05004KT 1 1/2SM -SN BR OVC004 M10/M10 A2992 RMK ST8 SLP174

CYXE;2010-02-12 18:40;CYXE 121840Z 07007KT 4SM -SN BR BKN005 OVC012 M10/ RMK SF6SC2

CYXE;2010-02-12 19:00;CYXE 121900Z 06010KT 4SM -SN BR BKN006 OVC014 M10/M10 A2992 RMK SF6SC2 SLP174

CYXE;2010-02-12 19:09;CYXE 121909Z 06008KT 4SM -SN BR SCT006 OVC014 M10/ RMK SF3SC5

CYXE;2010-02-12 19:33;CYXE 121933Z 06008KT 4SM -SN BR OVC016 M09/ RMK SC8

CYXE;2010-02-12 20:00;CYXE 122000Z 07011KT 4SM -SN BR OVC018 M09/M09 A2992 RMK SC8 SLP174

CYXE;2010-02-12 20:22;CYXE 122022Z 07012KT 6SM -SN BR BKN011 OVC018 M09/ RMK SC5SC3

CYXE;2010-02-12 20:49;CYXE 122049Z 07013KT 15SM FEW011 BKN018 M09/ RMK SF2SC6

CYXE;2010-02-12 21:00;CYXE 122100Z 07014KT 15SM -SN FEW011 BKN018 M10/M10 A2993 RMK SF1SC6 SLP177

CYXE;2010-02-12 22:00;CYXE 122200Z 07011KT 15SM -SN BKN018 M10/M10 A2995 RMK SC7 SLP184

CYXE;2010-02-12 22:07;CYXE 122207Z 07010KT 15SM BKN021 M10/ RMK SC6

CYXE;2010-02-12 23:00;CYXE 122300Z 07008KT 15SM FEW020 M12/M13 A2996 RMK SC1 SLP188

CYXE;2010-02-13 00:00;CYXE 130000Z 06007KT 15SM FEW020 M14/M14 A2998 RMK SC1 SLP197

CYXE;2010-02-13 01:00;CYXE 130100Z 07007KT 15SM FEW020 M16/M17 A3001 RMK SC1 SLP205

CYXE;2010-02-13 02:00;CYXE 130200Z 07008KT 15SM SKC M17/M18 A3003 RMK SLP211

CYXE;2010-02-13 03:00;CYXE 130300Z 07009KT 15SM SKC M20/M20 A3004 RMK SLP222

CYXE;2010-02-13 04:00;CYXE 130400Z 06006KT 15SM SKC M20/M21 A3006 RMK SLP227

CYXE;2010-02-13 05:00;CYXE 130500Z 07007KT 15SM SKC M21/M22 A3007 RMK SLP232

CYXE;2010-02-13 05:47;CYXE 130547Z 05007KT 15SM FEW001 M21/ RMK SF1

CYXE;2010-02-13 06:00;CYXE 130600Z 06004KT 6SM BR FEW001 M21/M22 A3008 RMK SF1 SLP235

CYXE;2010-02-13 06:28;CYXE 130628Z 07006KT 1SM R09/P6000FT/N BR BKN001 M22/ RMK SF5

CYXE;2010-02-13 06:34;CYXE 130634Z 07006KT 6SM BR FEW001 M22/ RMK SF1

CYXE;2010-02-13 07:00;CYXE 130700Z 07004KT 6SM BR FEW001 M22/M23 A3010 RMK SF1 SLP241

CYXE;2010-02-13 07:54;CYXE 130754Z 04003KT 2SM BR BKN002 M22/ RMK SF5

CYXE;2010-02-13 08:00;CYXE 130800Z 04002KT 2SM BR OVC002 M23/M23 A3012 RMK SF5 SLP247

CYXE;2010-02-13 08:06;CYXE 130806Z 36002KT 4SM BR SCT002 M23/ RMK SF2

CYXE;2010-02-13 09:00;CYXE 130900Z 03005KT 4SM -SN BR BKN001 M24/M25 A3014 RMK SF3 SLP255

CYXE;2010-02-13 09:03;CYXE 130903Z 03005KT 4SM -SN BR OVC001 M25/ RMK SF6

CYXE;2010-02-13 09:15;CYXE 130915Z 03005KT 2SM BR OVC002 M24/ RMK SF6 FROIN

CYXE;2010-02-13 09:41;CYXE 130941Z 03005KT 1 1/2SM BR OVC002 M24/ RMK SF7 FROIN

CYXE;2010-02-13 09:46;CYXE 130946Z 04005KT 3/4SM R09/P6000FT/N BR OVC001 M24/ RMK FG3SF5 FROIN TOWER OBS

CYXE;2010-02-13 10:00;CYXE 131000Z 04005KT 3/4SM R09/4500VP6000FT/D BR SKC M23/M23 A3016 RMK FG6 FROIN TOWER OBS SLP262

CYXE;2010-02-13 10:22;CYXE 131022Z 36003KT 3SM BR BKN002 M23/ RMK FG1SF4 FROIN

CYXE;2010-02-13 11:00;CYXE 131100Z 02004KT 2SM BR BKN003 M24/M24 A3018 RMK SF4 FROIN TOWER OBS SLP269

CYXE;2010-02-13 11:06;CYXE 131106Z 02003KT 2SM BR OVC002 M24/ RMK SF5 FROIN TOWER OBS

CYXE;2010-02-13 11:35;CYXE 131135Z 36004KT 4SM BR BKN004 M24/ RMK SF3 FROIN TOWER OBS

CYXE;2010-02-13 12:00;CYXE 131200Z 34005KT 6SM BR SCT003 M25/M33 A3021 RMK SF2 FROIN SLP285

CYXE;2010-02-13 13:00;CYXE 131300Z 03007KT 6SM BR FEW003 SCT042 M23/M27 A3024 RMK SF1SC3 FROIN SLP293

CYXE;2010-02-13 13:27;CYXE 131327Z 03006KT 6SM -SN BKN040 M23/ RMK SC6 FROIN

CYXE;2010-02-13 14:00;CYXE 131400Z 03006KT 10SM -SN BKN040 M23/M26 A3027 RMK SC7 BR FROIN SLP302

CYXE;2010-02-13 15:00;CYXE 131500Z 05008KT 10SM -SN BKN038 M19/M22 A3029 RMK SC6 BR SLP311

CYXE;2010-02-13 16:00;CYXE 131600Z 04007KT 15SM FEW038 M20/M23 A3032 RMK SC2 SLP321

CYXE;2010-02-13 16:15;CYXE 131615Z 04006KT 15SM FEW004 SCT038 M20/ RMK SF0SC2

CYXE;2010-02-13 16:36;CYXE 131636Z 05007KT 10SM BKN003 M19/ RMK SF2 BR

CYXE;2010-02-13 16:47;CYXE 131647Z 05008KT 8SM BKN003 M18/ RMK SF5 BR

CYXE;2010-02-13 17:00;CYXE 131700Z 04007KT 8SM OVC003 M17/M20 A3034 RMK SF6 BR SLP328

CYXE;2010-02-13 17:09;CYXE 131709Z 05008KT 6SM -SN BR OVC005 M17/ RMK SF8

CYXE;2010-02-13 18:00;CYXE 131800Z 08004KT 5SM -SN BR OVC006 M16/M18 A3037 RMK SF6 SLP338

CYXE;2010-02-13 18:11;CYXE 131811Z 08005KT 10SM BKN006 M15/ RMK SF3 BR

CYXE;2010-02-13 19:00;CYXE 131900Z 06009KT 15SM SKC M15/M17 A3040 RMK SLP346

CYXE;2010-02-13 20:00;CYXE 132000Z 06006KT 15SM SKC M15/M16 A3041 RMK SLP351

CYXE;2010-02-13 21:00;CYXE 132100Z 05007KT 15SM SKC M14/M16 A3042 RMK SLP358

CYXE;2010-02-13 22:00;CYXE 132200Z 06007KT 15SM SKC M14/M16 A3045 RMK SLP367

CYXE;2010-02-13 23:00;CYXE 132300Z 01004KT 15SM SKC M15/M17 A3047 RMK SLP373

CYXE;2010-02-14 00:00;CYXE 140000Z 01003KT 15SM SKC M16/M18 A3049 RMK SLP382

CYXE;2010-02-14 01:00;CYXE 140100Z 34003KT 15SM SKC M17/M19 A3051 RMK SLP388

CYXE;2010-02-14 02:00;CYXE 140200Z 00000KT 15SM SKC M22/M25 A3052 RMK SLP392

CYXE;2010-02-14 03:00;CYXE 140300Z 00000KT 8SM FEW005 M22/M26 A3054 RMK ST1 SLP401

CYXE;2010-02-14 03:51;CYXE 140351Z 28002KT 4SM R09/3500VP6000FT/U IC SCT001 M23/ RMK ST3 VIS W 1

CYXE;2010-02-14 04:00;CYXE 140400Z 28002KT 4SM R09/3500VP6000FT/U IC BKN001 M24/M28 A3056 RMK ST3 VIS W 1 SLP405

CYXE;2010-02-14 04:04;CYXE 140404Z 31002KT 1/2SM R09/2800VP6000FT/D FZFG SKC M23/

CYXE;2010-02-14 04:32;CYXE 140432Z 00000KT 1 1/2SM R09/4000V5500FT/N BR SKC M25/

CYXE;2010-02-14 05:00;CYXE 140500Z 26005KT 1 1/2SM R09/2600VP6000FT/U BR FEW250 M27/M31 A3056 RMK CI0 VRTNS IN FG LYRS GVG VRB VIS SLP407

CYXE;2010-02-14 05:08;CYXE 140508Z 26003KT 1/2SM R09/2600VP6000FT/D FZFG SKC M26/ RMK FG3

CYXE;2010-02-14 06:00;CYXE 140600Z 00000KT 1/2SM R09/3000V4500FT/U FZFG SCT009 M25/M29 A3058 RMK FG3SF1 VIS E 1 FZFG TOWER OBS SLP412

CYXE;2010-02-14 06:40;CYXE 140640Z 20002KT 1 1/2SM R09/2600V5500FT/D BR SCT009 M24/ RMK FG2SF1 VIS SW-NW 3/4 FROIN TOWER OBS

CYXE;2010-02-14 07:00;CYXE 140700Z 17003KT 2SM R09/4500VP6000FT/D BR SCT001 M24/M28 A3058 RMK FG1SF1 VIS W 1 FROIN TOWER OBS SLP412

CYXE;2010-02-14 07:34;CYXE 140734Z 25002KT 2SM R09/3500VP6000FT/U BR BKN002 M26/ RMK SF3 FROIN TOWER OBS

CYXE;2010-02-14 07:42;CYXE 140742Z 28004KT 2SM BR OVC004 M26/ RMK SF5 VIS W 1 FROIN TOWER OBS

CYXE;2010-02-14 07:50;CYXE 140750Z 26004KT 1 1/2SM R09/2600VP6000FT/D BR BKN001 M26/ RMK FG1SF3 VIS W-NW 3/4 FROIN TOWER OBS

CYXE;2010-02-14 08:00;CYXE 140800Z 25004KT 1 1/2SM R09/3000FT/U BR BKN002 M26/M30 A3058 RMK FG1SF3 VIS W-N 3/4 FROIN TOWER OBS SLP413

CYXE;2010-02-14 08:19;CYXE 140819Z 23003KT 1 1/2SM BR OVC001 M25/ RMK SF7 FROIN TOWER OBS

CYXE;2010-02-14 08:29;CYXE 140829Z 23004KT 1 1/2SM BR OVC002 M26/ RMK SF7 FROIN TOWER OBS

CYXE;2010-02-14 09:00;CYXE 140900Z 19002KT 1 1/2SM BR OVC002 M25/M29 A3058 RMK SF8 FROIN TOWER OBS SLP414

CYXE;2010-02-14 10:00;CYXE 141000Z 18003KT 2SM BR OVC002 M25/M29 A3058 RMK SF8 FROIN TOWER OBS SLP414

CYXE;2010-02-14 10:33;CYXE 141033Z 19004KT 2SM BR BKN002 M25/ RMK SF2 FROIN TOWER OBS

CYXE;2010-02-14 11:00;CYXE 141100Z 20004KT 2SM BR OVC002 M25/M28 A3058 RMK SF6 FROIN TOWER OBS SLP413

CYXE;2010-02-14 11:44;CYXE 141144Z 19004KT 2SM BR OVC003 M25/ RMK SF8 FROIN TOWER OBS

CYXE;2010-02-14 12:00;CYXE 141200Z 18003KT 2SM BR OVC002 M25/M29 A3059 RMK SF8 FROIN TOWER OBS SLP416

CYXE;2010-02-14 12:33;CYXE 141233Z 20002KT 1 1/2SM BR OVC002 M25/ RMK SF8 FROIN TOWER OBS

CYXE;2010-02-14 13:00;CYXE 141300Z 21004KT 1 1/2SM BR OVC002 M25/M29 A3058 RMK SF8 FROIN SLP414

CYXE;2010-02-14 14:00;CYXE 141400Z 16002KT 1 1/2SM R09/3000VP6000FT/D BR OVC002 M24/M28 A3057 RMK SF7 SLP411

CYXE;2010-02-14 14:44;CYXE 141444Z 18003KT 3SM R09/4500VP6000FT/U BR OVC002 M23/ RMK SF7

CYXE;2010-02-14 15:00;CYXE 141500Z 14003KT 4SM BR BKN002 M22/M26 A3056 RMK SF3 SLP408

CYXE;2010-02-14 15:26;CYXE 141526Z 17002KT 6SM BR SCT003 M22/ RMK SF2

CYXE;2010-02-14 16:00;CYXE 141600Z 18002KT 6SM BR SCT003 M22/M25 A3056 RMK SF2 SLP408

CYXE;2010-02-14 17:00;CYXE 141700Z 18004KT 6SM BR SCT003 M20/M23 A3055 RMK SF2 SLP406

CYXE;2010-02-14 17:35;CYXE 141735Z 19002KT 12SM FEW004 M19/ RMK SF1 IC

CYXE;2010-02-14 18:00;CYXE 141800Z 14005KT 12SM SKC M18/M21 A3056 RMK IC SLP407

CYXE;2010-02-14 19:00;CYXE 141900Z 17004KT 15SM SKC M15/M16 A3055 RMK SLP405

CYXE;2010-02-14 20:00;CYXE 142000Z 15007KT 15SM SKC M13/M14 A3052 RMK SLP395

CYXE;2010-02-14 21:00;CYXE 142100Z 16008KT 15SM SKC M13/M15 A3049 RMK SLP381

CYXE;2010-02-14 22:00;CYXE 142200Z 15008KT 15SM SKC M13/M14 A3048 RMK SLP377

CYXE;2010-02-14 23:00;CYXE 142300Z 13007KT 15SM SKC M13/M15 A3046 RMK SLP371

CYXE;2010-02-15 00:00;CYXE 150000Z 13008KT 15SM SKC M15/M16 A3045 RMK SLP368

CYXE;2010-02-15 01:00;CYXE 150100Z 13005KT 15SM FEW250 M15/M17 A3044 RMK CI0 SLP365

CYXE;2010-02-15 02:00;CYXE 150200Z 13006KT 15SM FEW250 M17/M18 A3043 RMK CI0 SLP360

CYXE;2010-02-15 03:00;CYXE 150300Z 15004KT 15SM FEW250 M17/M18 A3042 RMK CI0 SLP358

CYXE;2010-02-15 04:00;CYXE 150400Z 14005KT 15SM SKC M18/M19 A3041 RMK SLP355

CYXE;2010-02-15 05:00;CYXE 150500Z 13002KT 15SM SKC M19/M19 A3041 RMK SLP354

CYXE;2010-02-15 06:00;CYXE 150600Z 17003KT 15SM SKC M20/M20 A3041 RMK SLP352

CYXE;2010-02-15 07:00;CYXE 150700Z 11002KT 15SM BCFG SKC M21/M21 A3040 RMK PTCHY FG W SLP349

CYXE;2010-02-15 08:00;CYXE 150800Z 12004KT 15SM SKC M21/M21 A3038 RMK SLP343

CYXE;2010-02-15 09:00;CYXE 150900Z 15003KT 15SM SKC M19/M20 A3037 RMK SLP335

CYXE;2010-02-15 10:00;CYXE 151000Z 15008KT 15SM SKC M17/M18 A3035 RMK SLP329

CYXE;2010-02-15 11:00;CYXE 151100Z 16007KT 15SM SKC M17/M19 A3034 RMK SLP326

CYXE;2010-02-15 12:00;CYXE 151200Z 17006KT 15SM SKC M18/M20 A3034 RMK SLP324

CYXE;2010-02-15 13:00;CYXE 151300Z 15002KT 15SM SKC M20/M22 A3033 RMK SLP321

CYXE;2010-02-15 14:00;CYXE 151400Z 15008KT 15SM FEW200 M20/M22 A3031 RMK CI1 SLP315

CYXE;2010-02-15 15:00;CYXE 151500Z 18006KT 15SM FEW240 M18/M22 A3031 RMK CI1 SLP315

CYXE;2010-02-15 16:00;CYXE 151600Z 18008KT 15SM FEW250 M15/M21 A3030 RMK CI1 SLP313

CYXE;2010-02-15 17:00;CYXE 151700Z 18013G18KT 15SM FEW250 M14/M20 A3030 RMK CI1 SLP311

CYXE;2010-02-15 18:00;CYXE 151800Z 17012G17KT 15SM FEW250 M12/M18 A3028 RMK CI1 SLP305

CYXE;2010-02-15 19:00;CYXE 151900Z 18011KT 15SM FEW250 M11/M18 A3027 RMK CI1 SLP302

CYXE;2010-02-15 20:00;CYXE 152000Z 18011KT 15SM FEW120 M10/M16 A3026 RMK AC1 SLP297

CYXE;2010-02-15 21:00;CYXE 152100Z 18011G17KT 15SM FEW120 M10/M15 A3024 RMK AC1 SLP288

CYXE;2010-02-15 22:00;CYXE 152200Z 20008KT 15SM SKC M09/M14 A3023 RMK SLP285

CYXE;2010-02-15 23:00;CYXE 152300Z 19012KT 15SM FEW120 M09/M15 A3023 RMK AC1 SLP283

CYXE;2010-02-16 00:00;CYXE 160000Z 19009KT 15SM FEW120 M09/M14 A3022 RMK AC2 SLP278

CYXE;2010-02-16 01:00;CYXE 160100Z 19010KT 15SM SCT120 M10/M14 A3021 RMK AC2 SLP275

CYXE;2010-02-16 02:00;CYXE 160200Z 18007KT 15SM BKN018 M10/M12 A3019 RMK SC7 SLP271

CYXE;2010-02-16 03:00;CYXE 160300Z 20006KT 15SM OVC022 M09/M11 A3019 RMK SC8 SLP268

CYXE;2010-02-16 04:00;CYXE 160400Z 19007KT 15SM FEW022 BKN093 M10/M12 A3017 RMK SC2AC6 SLP262

CYXE;2010-02-16 05:00;CYXE 160500Z 20007KT 15SM BKN093 M11/M12 A3017 RMK AC6 SLP261

CYXE;2010-02-16 06:00;CYXE 160600Z 22005KT 15SM BKN017 OVC095 M09/M10 A3016 RMK SC6AC1 SLP254

CYXE;2010-02-16 06:32;CYXE 160632Z 21006KT 15SM SCT017 OVC070 M08/ RMK SC3AC4

CYXE;2010-02-16 07:00;CYXE 160700Z 19004KT 15SM FEW017 SCT070 OVC100 M08/M09 A3015 RMK SC2AC2AC3 SLP251

CYXE;2010-02-16 08:00;CYXE 160800Z 20004KT 15SM SCT035 OVC070 M08/M09 A3014 RMK SC3AC4 SLP249

CYXE;2010-02-16 09:00;CYXE 160900Z 22003KT 15SM BKN020 OVC060 M07/M08 A3014 RMK SC6SC2 SLP244

CYXE;2010-02-16 10:00;CYXE 161000Z 24008KT 10SM BKN020 BKN100 M05/M06 A3013 RMK SC5AC2 BR SLP242

CYXE;2010-02-16 11:00;CYXE 161100Z 25008KT 12SM FEW070 BKN100 M08/M08 A3012 RMK AC2AC2 BR SLP239

CYXE;2010-02-16 12:00;CYXE 161200Z 25007KT 15SM FEW100 SCT250 M12/M12 A3012 RMK AC2CI1 SLP241

CYXE;2010-02-16 13:00;CYXE 161300Z 23008KT 12SM FEW250 M14/M15 A3012 RMK CI1 BR SLP240

CYXE;2010-02-16 14:00;CYXE 161400Z 23008KT 12SM FEW100 FEW250 M15/M16 A3012 RMK AC2CI0 BR SLP241

CYXE;2010-02-16 15:00;CYXE 161500Z 23008KT 12SM FEW100 FEW250 M17/M17 A3012 RMK AC2CI0 BR FROIN SLP244

CYXE;2010-02-16 16:00;CYXE 161600Z 23007KT 12SM FEW100 FEW250 M14/M15 A3012 RMK AC2CI0 BR SLP243

CYXE;2010-02-16 17:00;CYXE 161700Z 23006KT 15SM SCT250 M12/M13 A3012 RMK CI1 SLP244

CYXE;2010-02-16 18:00;CYXE 161800Z 23009KT 15SM SCT250 M11/M12 A3010 RMK CI1 SLP235

CYXE;2010-02-16 19:00;CYXE 161900Z 23009KT 15SM SCT250 M10/M11 A3009 RMK CI1 SLP232

CYXE;2010-02-16 20:00;CYXE 162000Z CCA 23008KT 15SM FEW250 M08/M10 A3008 RMK CI0 OBS TAKEN +07 SLP228

CYXE;2010-02-16 21:00;CYXE 162100Z 23006KT 15SM FEW250 M07/M09 A3008 RMK CI0 SLP221

CYXE;2010-02-16 22:00;CYXE 162200Z 24008KT 15SM FEW250 M06/M09 A3007 RMK CI0 SLP219

CYXE;2010-02-16 23:00;CYXE 162300Z 23009KT 15SM FEW250 M07/M09 A3007 RMK CI0 SLP219

CYXE;2010-02-17 00:00;CYXE 170000Z 25006KT 15SM FEW250 M09/M10 A3008 RMK CI0 BR DIST S SLP226

CYXE;2010-02-17 00:44;CYXE 170044Z 22006KT 6SM BR FEW002 M12/ RMK ST1

CYXE;2010-02-17 00:55;CYXE 170055Z 23006KT 1 1/2SM R09/2200FT/N BR SKC M12/

CYXE;2010-02-17 01:00;CYXE 170100Z 24006KT 1/2SM R09/2000FT/N FZFG SKC M11/M12 A3009 RMK SLP229

CYXE;2010-02-17 01:05;CYXE 170105Z 25006KT 1/4SM R09/1800V2200FT/N FZFG SKC M11/

CYXE;2010-02-17 02:00;CYXE 170200Z 23007KT 1/4SM R09/1400FT/N FZFG SKC M11/M11 A3008 RMK SLP228

CYXE;2010-02-17 03:00;CYXE 170300Z 23006KT 1SM R09/1800FT/N BR SKC M12/M12 A3008 RMK FG2 SLP231

CYXE;2010-02-17 03:05;CYXE 170305Z 23006KT 3SM R09/2400FT/N BR SKC M12/ RMK VIS 3/4 NW

CYXE;2010-02-17 03:15;CYXE 170315Z 22005KT 6SM R09/3500FT/N BR SKC M13/ RMK VIS 1 NW-N

CYXE;2010-02-17 04:00;CYXE 170400Z 22006KT 6SM BR SKC M14/M14 A3008 RMK VIS NW 1 SLP233

CYXE;2010-02-17 05:00;CYXE 170500Z 22004KT 6SM BR FEW001 M14/M15 A3008 RMK ST2 SLP232

CYXE;2010-02-17 06:00;CYXE 170600Z 23004KT 8SM SKC M16/M16 A3008 RMK BR SLP232

CYXE;2010-02-17 07:00;CYXE 170700Z 23004KT 10SM SKC M17/M17 A3009 RMK BR SLP233

CYXE;2010-02-17 08:00;CYXE 170800Z 23006KT 10SM SKC M18/M18 A3009 RMK BR SLP233

CYXE;2010-02-17 09:00;CYXE 170900Z 23005KT 12SM FEW120 M18/M19 A3009 RMK AC1 SLP235

CYXE;2010-02-17 10:00;CYXE 171000Z 23005KT 10SM FEW075 M18/M19 A3010 RMK AC2 BR SLP237

CYXE;2010-02-17 11:00;CYXE 171100Z 23004KT 12SM FEW080 SCT250 M19/M19 A3011 RMK AC2CI0 BR SLP239

CYXE;2010-02-17 12:00;CYXE 171200Z 23005KT 10SM FEW250 M19/M20 A3012 RMK CI1 BR SLP246

CYXE;2010-02-17 13:00;CYXE 171300Z 23005KT 8SM FEW250 M19/M20 A3013 RMK CI1 BR SLP249

CYXE;2010-02-17 14:00;CYXE 171400Z 24005KT 6SM BR FEW250 M20/M21 A3014 RMK CI0 SLP252

CYXE;2010-02-17 15:00;CYXE 171500Z 24005KT 6SM BR FEW090 BKN250 M20/M20 A3014 RMK AC2CI1 SLP257

CYXE;2010-02-17 16:00;CYXE 171600Z 24004KT 8SM FEW090 BKN250 M17/M18 A3015 RMK AC2CI1 BR SLP260

CYXE;2010-02-17 17:00;CYXE 171700Z 25005KT 8SM FEW110 BKN250 M14/M15 A3016 RMK AC2CI1 BR SLP262

CYXE;2010-02-17 18:00;CYXE 171800Z 25006KT 8SM FEW110 BKN250 M12/M12 A3016 RMK AC2CI2 BR SLP260

CYXE;2010-02-17 19:00;CYXE 171900Z 24005KT 8SM FEW110 BKN250 M10/M10 A3017 RMK AC2CI2 BR SLP261

CYXE;2010-02-17 20:00;CYXE 172000Z 24007KT 15SM FEW110 SCT250 M09/M10 A3016 RMK AC1CI2 SLP259

CYXE;2010-02-17 21:00;CYXE 172100Z 26005KT 15SM FEW250 M09/M09 A3015 RMK CI2 SLP255

CYXE;2010-02-17 22:00;CYXE 172200Z 28007KT 15SM FEW250 M07/M08 A3014 RMK CI1 SLP254

CYXE;2010-02-17 23:00;CYXE 172300Z 24007KT 15SM FEW250 M08/M10 A3014 RMK CI2 SLP254

CYXE;2010-02-18 00:00;CYXE 180000Z 27009KT 15SM FEW250 M09/M11 A3014 RMK CI0 SLP251

CYXE;2010-02-18 01:00;CYXE 180100Z 28009KT 15SM FEW250 M12/M13 A3014 RMK CI1 SLP251

CYXE;2010-02-18 02:00;CYXE 180200Z 27007KT 15SM FEW250 M12/M13 A3014 RMK CI1 SLP253

CYXE;2010-02-18 03:00;CYXE 180300Z 26008KT 15SM SKC M14/M14 A3014 RMK SLP256

CYXE;2010-02-18 04:00;CYXE 180400Z 25003KT 15SM BKN100 M13/M13 A3014 RMK AC5 SLP258

CYXE;2010-02-18 05:00;CYXE 180500Z 23007KT 15SM FEW100 SCT250 M14/M15 A3014 RMK AC2CI1 SLP256

CYXE;2010-02-18 06:00;CYXE 180600Z 23007KT 15SM BKN090 OVC250 M12/M13 A3013 RMK AC5CI2 SLP245

CYXE;2010-02-18 07:00;CYXE 180700Z 23004KT 15SM OVC070 M10/M11 A3012 RMK AC8 SLP243

CYXE;2010-02-18 07:23;CYXE 180723Z 25006KT 15SM BKN007 OVC040 M10/ RMK SF6SC2

CYXE;2010-02-18 08:00;CYXE 180800Z 27006KT 10SM OVC005 M08/M09 A3011 RMK SF8 BR SLP239

CYXE;2010-02-18 09:00;CYXE 180900Z 22004KT 12SM OVC005 M09/M10 A3011 RMK SF8 BR SLP234

CYXE;2010-02-18 09:37;CYXE 180937Z 23004KT 8SM -SN OVC006 M08/ RMK SF8

CYXE;2010-02-18 10:00;CYXE 181000Z 23006KT 10SM -SN SCT006 OVC050 M08/M09 A3010 RMK SF3SC5 SLP233

CYXE;2010-02-18 10:38;CYXE 181038Z 24004KT 2 1/2SM -SN OVC035 M08/ RMK SN3SC5

CYXE;2010-02-18 11:00;CYXE 181100Z 29005KT 2SM -SN OVC035 M07/M07 A3010 RMK SN3SC5 SLP232

CYXE;2010-02-18 11:38;CYXE 181138Z 31006KT 8SM -SN OVC035 M07/ RMK SC8

CYXE;2010-02-18 12:00;CYXE 181200Z 34005KT 12SM -SN OVC035 M07/M08 A3010 RMK SC8 SLP230

CYXE;2010-02-18 12:19;CYXE 181219Z 33006KT 15SM OVC038 M07/ RMK SC8

CYXE;2010-02-18 13:00;CYXE 181300Z 01007KT 15SM OVC035 M08/M09 A3010 RMK SC7 SLP230

CYXE;2010-02-18 14:00;CYXE 181400Z 02005KT 15SM OVC030 M09/M10 A3010 RMK SC7 SLP231

CYXE;2010-02-18 15:00;CYXE 181500Z 33004KT 12SM OVC027 M08/M09 A3010 RMK SC8 SLP234

CYXE;2010-02-18 15:31;CYXE 181531Z 34004KT 8SM SCT008 OVC027 M08/ RMK SC3SC5

CYXE;2010-02-18 16:00;CYXE 181600Z 35004KT 8SM BKN008 OVC027 M07/M08 A3010 RMK SC6SC2 SLP235

CYXE;2010-02-18 17:00;CYXE 181700Z 01003KT 7SM OVC006 M07/M07 A3010 RMK ST8 SLP236

CYXE;2010-02-18 18:00;CYXE 181800Z 02003KT 8SM OVC006 M06/M07 A3009 RMK ST8 SLP231

CYXE;2010-02-18 19:00;CYXE 181900Z 35005KT 8SM OVC006 M06/M07 A3009 RMK ST8 SLP228

CYXE;2010-02-18 20:00;CYXE 182000Z 01004KT 12SM OVC007 M05/M06 A3007 RMK ST8 SLP223

CYXE;2010-02-18 20:07;CYXE 182007Z 02004KT 12SM -SN OVC007 M05/ RMK ST8

CYXE;2010-02-18 21:00;CYXE 182100Z 04005KT 12SM -SN BKN008 OVC024 M05/M06 A3006 RMK ST6SC2 SLP215

CYXE;2010-02-18 21:09;CYXE 182109Z 03005KT 12SM -SN SCT008 OVC027 M05/ RMK ST3SC5

CYXE;2010-02-18 22:00;CYXE 182200Z 03005KT 12SM -SN BKN009 OVC030 M05/M06 A3006 RMK SF5SC3 SLP215

CYXE;2010-02-18 23:00;CYXE 182300Z 03005KT 12SM -SN BKN008 OVC030 M05/M06 A3005 RMK SF6SC2 SLP214

CYXE;2010-02-19 00:00;CYXE 190000Z 04006KT 12SM -SN OVC009 M05/M06 A3006 RMK ST8 SLP215

CYXE;2010-02-19 01:00;CYXE 190100Z 07004KT 12SM -SN BKN008 OVC028 M06/M07 A3007 RMK ST6SC2 SLP217

CYXE;2010-02-19 02:00;CYXE 190200Z 06004KT 8SM -SN BKN008 OVC025 M06/M07 A3006 RMK ST6SC2 SLP216

CYXE;2010-02-19 03:00;CYXE 190300Z 08003KT 8SM -SN OVC007 M07/M08 A3006 RMK ST8 SLP218

CYXE;2010-02-19 04:00;CYXE 190400Z 03004KT 10SM -SN OVC009 M08/M09 A3007 RMK ST8 SLP219

CYXE;2010-02-19 05:00;CYXE 190500Z 02003KT 10SM -SN OVC010 M08/M09 A3007 RMK ST8 SLP220

CYXE;2010-02-19 06:00;CYXE 190600Z 03003KT 6SM -SN SCT014 OVC024 M08/M09 A3007 RMK SC4SC4 SLP220

CYXE;2010-02-19 07:00;CYXE 190700Z 04003KT 6SM -SN FEW011 OVC024 M08/M09 A3008 RMK SC2SC6 SLP221

CYXE;2010-02-19 07:53;CYXE 190753Z 01004KT 6SM -SN SCT009 OVC026 M08/ RMK SF3SC5

CYXE;2010-02-19 08:00;CYXE 190800Z 36004KT 6SM -SN SCT009 OVC026 M08/M09 A3008 RMK SF3SC5 SLP222

CYXE;2010-02-19 08:07;CYXE 190807Z 01004KT 6SM -SN BKN009 OVC026 M08/ RMK ST6SC2 TOWER OBS

CYXE;2010-02-19 09:00;CYXE 190900Z 04004KT 5SM -SN SCT009 OVC026 M08/M09 A3008 RMK SF3SC5 SLP221

CYXE;2010-02-19 09:23;CYXE 190923Z 04004KT 5SM -SN BKN009 OVC024 M08/ RMK SF6SC2 TOWER OBS

CYXE;2010-02-19 10:00;CYXE 191000Z 03003KT 5SM -SN OVC008 M08/M09 A3007 RMK SF8 TOWER OBS SLP220

CYXE;2010-02-19 10:50;CYXE 191050Z 04002KT 4SM -SN SCT007 OVC026 M08/ RMK SF3SC5

CYXE;2010-02-19 11:00;CYXE 191100Z 01002KT 3SM -SN SCT007 OVC026 M08/M09 A3007 RMK SF3SC5 SLP220

CYXE;2010-02-19 11:42;CYXE 191142Z 34003KT 2SM -SN OVC028 M08/ RMK SC8 TOWER OBS

CYXE;2010-02-19 12:00;CYXE 191200Z 34003KT 2SM -SN OVC028 M08/M09 A3008 RMK SC8 TOWER OBS SLP223

CYXE;2010-02-19 12:02;CYXE 191202Z 34003KT 3SM -SN FEW006 OVC028 M08/ RMK SF2SC6

CYXE;2010-02-19 13:00;CYXE 191300Z 35005KT 3SM -SN FEW006 OVC028 M08/M09 A3009 RMK SF2SC6 SLP225

CYXE;2010-02-19 14:00;CYXE 191400Z 02005KT 4SM -SN BKN027 BKN110 OVC250 M09/M09 A3009 RMK SC5AC1CI1 SLP225

CYXE;2010-02-19 14:43;CYXE 191443Z 36006KT 2 1/2SM R09/1200V1800FT/N BCFG FEW006 FEW028 M14/ RMK SF1SC2 VIS W 1/4 E 5

CYXE;2010-02-19 14:52;CYXE 191452Z 36007KT 1/4SM R09/1400V2000FT/N FZFG FEW028 M14/ RMK FG1SC1 VIS W 1/8 E 1/2

CYXE;2010-02-19 15:00;CYXE 191500Z 36007KT 1/4SM R09/1400FT/N FZFG FEW028 M14/M15 A3009 RMK FG1SC1 SLP231

CYXE;2010-02-19 16:00;CYXE 191600Z 00000KT 1/4SM R09/1100FT/N FZFG SKC M12/M12 A3010 RMK FG2 FROIN SLP234

CYXE;2010-02-19 16:33;CYXE 191633Z 32002KT 1/4SM R09/2600VP6000FT/N FZFG BKN004 M12/ RMK FG2SF3

CYXE;2010-02-19 16:38;CYXE 191638Z 00000KT 1/2SM R09/2600VP6000FT/U FZFG BKN009 M12/ RMK FG2SF3

CYXE;2010-02-19 16:53;CYXE 191653Z 00000KT 1SM R09/P6000FT/N BR BKN004 M10/ RMK FG2ST4

CYXE;2010-02-19 17:00;CYXE 191700Z 00000KT 2 1/2SM BR BKN004 BKN022 M10/M10 A3010 RMK SF3SC3 SLP235

CYXE;2010-02-19 17:24;CYXE 191724Z 24002KT 6SM BR SCT003 OVC020 M11/ RMK SF2SC5

CYXE;2010-02-19 18:00;CYXE 191800Z 27002KT 10SM FEW003 OVC020 M08/M09 A3010 RMK SF2SC6 SLP232

CYXE;2010-02-19 18:05;CYXE 191805Z 28003KT 10SM -SN FEW003 OVC020 M08/ RMK SF2SC6

CYXE;2010-02-19 19:00;CYXE 191900Z 28003KT 12SM -SN FEW003 OVC020 M06/M07 A3010 RMK SF2SC6 SLP230

CYXE;2010-02-19 20:00;CYXE 192000Z 28003KT 12SM -SN OVC020 M06/M07 A3009 RMK SC8 SLP227

CYXE;2010-02-19 20:38;CYXE 192038Z 30005KT 2SM -SN BKN006 OVC020 M05/ RMK SC5SC3

CYXE;2010-02-19 20:47;CYXE 192047Z 31005KT 8SM -SN BKN006 OVC020 M05/ RMK SC5SC3

CYXE;2010-02-19 21:00;CYXE 192100Z 32006KT 8SM -SN SCT006 OVC019 M05/M07 A3009 RMK SF4SC4 OBS TAKEN +05 SLP224

CYXE;2010-02-19 22:00;CYXE 192200Z 32005KT 8SM -SN FEW006 OVC019 M05/M07 A3009 RMK SF2SC6 OBS TAKEN +04 SLP224

CYXE;2010-02-19 23:00;CYXE 192300Z 32004KT 8SM -SN OVC015 M05/M07 A3009 RMK SC8 OBS TAKEN +05 SLP226

CYXE;2010-02-19 23:45;CYXE 192345Z 35005KT 3SM -SN OVC011 M05/ RMK SC8

CYXE;2010-02-20 00:00;CYXE 200000Z 36005KT 4SM -SN OVC011 M05/M06 A3009 RMK SC8 /S01/ SLP227

CYXE;2010-02-20 01:00;CYXE 200100Z 04010KT 2SM -SN OVC017 M07/M08 A3010 RMK SN2SC6 SLP230

CYXE;2010-02-20 02:00;CYXE 200200Z 03006KT 2 1/2SM -SN OVC021 M07/M08 A3011 RMK SN2SC6 /S01/ SLP232

CYXE;2010-02-20 03:00;CYXE 200300Z 04007KT 3SM -SN BKN030 OVC055 M08/M08 A3012 RMK SC6SC2 /S02/ SLP240

CYXE;2010-02-20 04:00;CYXE 200400Z 04007KT 6SM -SN SCT030 OVC054 M08/M09 A3012 RMK SC3SC5 SLP241

CYXE;2010-02-20 05:00;CYXE 200500Z 03007KT 6SM -SN SCT036 OVC080 M08/M09 A3012 RMK SC3AC3 SLP242

CYXE;2010-02-20 06:00;CYXE 200600Z 02007KT 15SM -SN BKN047 OVC080 M10/M11 A3013 RMK SC6AC2 SLP243

CYXE;2010-02-20 07:00;CYXE 200700Z 04006KT 15SM -SN OVC045 M09/M10 A3014 RMK SC8 SLP245

CYXE;2010-02-20 08:00;CYXE 200800Z 04005KT 10SM -SN OVC041 M09/M10 A3014 RMK SC8 SLP246

CYXE;2010-02-20 09:00;CYXE 200900Z 03005KT 5SM -SN OVC030 M09/M09 A3015 RMK SC8 SLP246

CYXE;2010-02-20 10:00;CYXE 201000Z 03007KT 10SM -SN BKN012 OVC040 M09/M09 A3015 RMK SC6SC2 SLP247

CYXE;2010-02-20 11:00;CYXE 201100Z 03007KT 10SM -SN FEW012 OVC047 M09/M10 A3016 RMK SC2SC6 SLP249

CYXE;2010-02-20 12:00;CYXE 201200Z 03009KT 6SM -SN FEW010 OVC049 M09/M10 A3017 RMK SC1SC7 SLP253

CYXE;2010-02-20 13:00;CYXE 201300Z 05010KT 15SM -SN BKN040 M10/M11 A3019 RMK SC6 SLP259

CYXE;2010-02-20 14:00;CYXE 201400Z 04007KT 15SM -SN FEW030 BKN043 OVC250 M14/M15 A3020 RMK SC2SC4CI0 SLP263

CYXE;2010-02-20 15:00;CYXE 201500Z 05009KT 4SM -SN BKN022 BKN110 OVC250 M11/M12 A3020 RMK SC3AC1CI2 OBS TAKEN +02 SLP268

CYXE;2010-02-20 16:00;CYXE 201600Z 03007KT 15SM FEW014 SCT032 BKN110 M13/M14 A3022 RMK SC2SC1AC1 SLP273

CYXE;2010-02-20 17:00;CYXE 201700Z 05009KT 15SM SCT024 BKN048 M10/M12 A3023 RMK SC2SC3 SLP276

CYXE;2010-02-20 18:00;CYXE 201800Z 05009KT 15SM BKN024 BKN056 M10/M12 A3023 RMK SC5SC1 SLP279

CYXE;2010-02-20 19:00;CYXE 201900Z 05008KT 15SM FEW024 BKN037 M10/M11 A3023 RMK SC2SC5 SLP279

CYXE;2010-02-20 20:00;CYXE 202000Z 06007KT 15SM BKN054 OVC075 M10/M11 A3023 RMK SC5AC2 SLP277

CYXE;2010-02-20 21:00;CYXE 202100Z 05007KT 15SM OVC056 M10/M11 A3023 RMK SC6 SLP278

CYXE;2010-02-20 22:00;CYXE 202200Z 05004KT 15SM FEW015 FEW250 M10/M12 A3023 RMK SC1CI0 SLP276

CYXE;2010-02-20 23:00;CYXE 202300Z 05005KT 15SM FEW015 M11/M14 A3024 RMK SC1 SLP279

CYXE;2010-02-21 00:00;CYXE 210000Z 05004KT 15SM FEW015 FEW250 M14/M15 A3024 RMK SC1CI0 SLP283

CYXE;2010-02-21 01:00;CYXE 210100Z 06002KT 15SM FEW015 M14/M15 A3024 RMK SC1 SLP283

CYXE;2010-02-21 02:00;CYXE 210200Z 04002KT 15SM R09/3000VP6000FT/N MIFG FEW020 M15/M16 A3024 RMK SC1 SLP284

CYXE;2010-02-21 03:00;CYXE 210300Z 17002KT 3SM BR BCFG FEW250 M19/M20 A3023 RMK CI0 SLP287

CYXE;2010-02-21 03:22;CYXE 210322Z 20003KT 2SM R09/2200V3500FT/N BR BCFG SKC M18/ RMK FG2 FROIN

CYXE;2010-02-21 04:00;CYXE 210400Z 21003KT 6SM R09/2800VP6000FT/N BR BCFG FEW002 M18/M19 A3023 RMK SF0 FROIN SLP284

CYXE;2010-02-21 05:00;CYXE 210500Z 21003KT 6SM BR MIFG BKN024 M18/M19 A3023 RMK SC6 SLP285

CYXE;2010-02-21 05:34;CYXE 210534Z 18004KT 10SM -SN BKN034 M18/ RMK SC6 BR PTCHS

CYXE;2010-02-21 06:00;CYXE 210600Z 22004KT 15SM -SN BKN034 M17/M17 A3023 RMK SC6 BR PTCHS SLP283

CYXE;2010-02-21 07:00;CYXE 210700Z 22005KT 15SM -SN OVC034 M17/M17 A3022 RMK SC7 BR PTCHS SLP280

CYXE;2010-02-21 08:00;CYXE 210800Z 19005KT 15SM -SN OVC034 M15/M16 A3022 RMK SC8 SLP280

CYXE;2010-02-21 08:30;CYXE 210830Z 20003KT 10SM -SN FEW002 OVC032 M16/ RMK SF2SC6 BR

CYXE;2010-02-21 09:00;CYXE 210900Z 18005KT 10SM -SN FEW002 OVC032 M17/M17 A3021 RMK SF2SC6 BR SLP276

CYXE;2010-02-21 10:00;CYXE 211000Z 19005KT 15SM -SN OVC032 M17/M18 A3019 RMK SC8 SLP270

CYXE;2010-02-21 11:00;CYXE 211100Z 21004KT 15SM -SN FEW012 SCT030 M17/M18 A3018 RMK SC2SC2 SLP265

CYXE;2010-02-21 11:13;CYXE 211113Z 22004KT 15SM OVC010 M18/ RMK SC8

CYXE;2010-02-21 11:23;CYXE 211123Z 22005KT 15SM -SN OVC008 M18/ RMK ST8

CYXE;2010-02-21 11:47;CYXE 211147Z 21004KT 15SM -SN OVC005 M16/ RMK ST8

CYXE;2010-02-21 12:00;CYXE 211200Z 21006KT 15SM -SN OVC005 M16/M16 A3017 RMK ST8 SLP265

CYXE;2010-02-21 13:00;CYXE 211300Z 19005KT 12SM -SN OVC006 M15/M16 A3016 RMK ST8 SLP260

CYXE;2010-02-21 14:00;CYXE 211400Z 20006KT 15SM BKN007 M16/M16 A3014 RMK ST7 SLP255

CYXE;2010-02-21 15:00;CYXE 211500Z 21006KT 15SM OVC008 M15/M15 A3012 RMK ST8 SLP251

CYXE;2010-02-21 16:00;CYXE 211600Z 21007KT 15SM OVC010 M12/M13 A3011 RMK ST8 SLP247

CYXE;2010-02-21 17:00;CYXE 211700Z 25015G20KT 15SM OVC010 M10/M10 A3010 RMK ST8 SLP244

CYXE;2010-02-21 18:00;CYXE 211800Z 24017KT 15SM OVC009 M10/M10 A3008 RMK ST6 SLP232

CYXE;2010-02-21 18:27;CYXE 211827Z 24014G19KT 15SM SCT009 BKN280 M10/ RMK ST3CI1

CYXE;2010-02-21 19:00;CYXE 211900Z 23016KT 15SM FEW010 SCT280 M10/M10 A3006 RMK ST2CI0 SLP226

CYXE;2010-02-21 20:00;CYXE 212000Z 24015KT 15SM FEW280 M09/M10 A3005 RMK CI0 SLP220

CYXE;2010-02-21 21:00;CYXE 212100Z 23015KT 15SM FEW280 M09/M10 A3002 RMK CI0 SLP211

CYXE;2010-02-21 22:00;CYXE 212200Z 23014KT 15SM BKN140 BKN250 M09/M11 A3000 RMK AC2CI1 SLP203

CYXE;2010-02-21 23:00;CYXE 212300Z 22014KT 15SM BKN088 OVC250 M09/M11 A2998 RMK AC4CI2 SLP197

CYXE;2010-02-22 00:00;CYXE 220000Z 23014KT 15SM BKN078 OVC250 M09/M12 A2996 RMK AC4CI1 SLP187

CYXE;2010-02-22 01:00;CYXE 220100Z 22011KT 15SM FEW078 SCT250 M11/M13 A2995 RMK AC1CI1 SLP185

CYXE;2010-02-22 02:00;CYXE 220200Z 22011KT 15SM FEW250 M12/M14 A2994 RMK CI0 SLP183

CYXE;2010-02-22 03:00;CYXE 220300Z 21010KT 15SM SKC M12/M14 A2993 RMK SLP179

CYXE;2010-02-22 04:00;CYXE 220400Z 22008KT 15SM SKC M13/M14 A2993 RMK SLP180

CYXE;2010-02-22 05:00;CYXE 220500Z 23009KT 15SM SKC M15/M16 A2992 RMK SLP178

CYXE;2010-02-22 06:00;CYXE 220600Z 24007KT 15SM FEW250 M17/M18 A2993 RMK CI0 SLP179

CYXE;2010-02-22 07:00;CYXE 220700Z 25007KT 15SM FEW250 M18/M19 A2992 RMK CI0 SLP175

CYXE;2010-02-22 08:00;CYXE 220800Z 25007KT 15SM SCT250 M19/M20 A2992 RMK CI0 SLP176

CYXE;2010-02-22 09:00;CYXE 220900Z 27006KT 15SM SCT250 M19/M23 A2992 RMK CI0 SLP179

CYXE;2010-02-22 10:00;CYXE 221000Z 26004KT 15SM SKC M20/M24 A2992 RMK SLP179

CYXE;2010-02-22 11:00;CYXE 221100Z 30003KT 15SM BKN024 M17/M19 A2995 RMK SC6 SLP186

CYXE;2010-02-22 12:00;CYXE 221200Z 33005KT 15SM BKN022 M12/M14 A2995 RMK SC7 SLP183

CYXE;2010-02-22 12:12;CYXE 221212Z 32007KT 15SM -SN OVC011 M11/ RMK SC8

CYXE;2010-02-22 13:00;CYXE 221300Z 33008KT 15SM -SN OVC014 M09/M10 A2996 RMK SC8 SLP187

CYXE;2010-02-22 14:00;CYXE 221400Z 33009KT 15SM -SN OVC019 M08/M10 A2998 RMK SC8 SLP191

CYXE;2010-02-22 14:50;CYXE 221450Z 32006KT 15SM -SN OVC012 M08/ RMK SC8

CYXE;2010-02-22 15:00;CYXE 221500Z 36011KT 15SM -SN OVC012 M06/M08 A3000 RMK SC8 SLP196

CYXE;2010-02-22 16:00;CYXE 221600Z 01016KT 5SM -SN DRSN OVC012 M07/M08 A3001 RMK SC8 SLP200

CYXE;2010-02-22 16:37;CYXE 221637Z 36015KT 8SM -SN DRSN OVC018 M07/ RMK SC8

CYXE;2010-02-22 17:00;CYXE 221700Z 36013KT 5SM -SN DRSN OVC018 M07/M09 A3003 RMK SC8 SLP207

CYXE;2010-02-22 18:00;CYXE 221800Z 35012KT 15SM DRSN OVC025 M07/M11 A3004 RMK SC7 SLP216

CYXE;2010-02-22 18:32;CYXE 221832Z 35013KT 12SM -SN DRSN OVC025 M07/ RMK SC8

CYXE;2010-02-22 19:00;CYXE 221900Z 35013KT 15SM -SN DRSN BKN025 OVC085 M07/M11 A3005 RMK SC6AC2 SLP218

CYXE;2010-02-22 19:22;CYXE 221922Z 35014KT 15SM DRSN BKN025 OVC085 M08/ RMK SC5AC3

CYXE;2010-02-22 20:00;CYXE 222000Z 35012KT 15SM -SN DRSN BKN022 OVC062 M08/M11 A3005 RMK SC6SC2 SLP219

CYXE;2010-02-22 21:00;CYXE 222100Z 35011KT 15SM FEW023 SCT059 OVC086 M08/M11 A3006 RMK SC2SC2AC3 SLP225

CYXE;2010-02-22 22:00;CYXE 222200Z 35011KT 15SM BKN023 OVC064 M08/M11 A3007 RMK SC6SC2 SLP229

CYXE;2010-02-22 23:00;CYXE 222300Z 01009KT 15SM FEW025 BKN064 M09/M12 A3009 RMK SC2SC2 SLP235

CYXE;2010-02-23 00:00;CYXE 230000Z 01007KT 15SM FEW080 OVC250 M12/M14 A3011 RMK AC1CI2 SLP239

CYXE;2010-02-23 01:00;CYXE 230100Z 02008KT 15SM FEW080 BKN250 M15/M17 A3012 RMK AC1CI2 SLP243

CYXE;2010-02-23 02:00;CYXE 230200Z 01007KT 15SM FEW250 M17/M18 A3013 RMK CI1 SLP246

CYXE;2010-02-23 03:00;CYXE 230300Z 34005KT 15SM SKC M19/M19 A3014 RMK SLP251

CYXE;2010-02-23 04:00;CYXE 230400Z 29004KT 15SM SKC M21/M21 A3014 RMK SLP252

CYXE;2010-02-23 05:00;CYXE 230500Z 29004KT 15SM R09/3500VP6000FT/D PRFG SKC M20/M20 A3015 RMK FG BNK N ARPT SLP255

CYXE;2010-02-23 06:00;CYXE 230600Z 27004KT 15SM FEW250 M22/M23 A3016 RMK CI1 SLP259

CYXE;2010-02-23 07:00;CYXE 230700Z 27003KT 15SM FEW250 M23/M23 A3016 RMK CI0 SLP261

CYXE;2010-02-23 07:33;CYXE 230733Z 29003KT 15SM R09/3500VP6000FT/U PRFG FEW250 M22/ RMK CI0 IC

CYXE;2010-02-23 08:00;CYXE 230800Z 32005KT 15SM FEW250 M24/M24 A3016 RMK CI1 IC SLP259

CYXE;2010-02-23 08:44;CYXE 230844Z 30003KT 15SM FEW250 M25/ RMK CI0

CYXE;2010-02-23 09:00;CYXE 230900Z 32003KT 15SM SKC M24/M25 A3016 RMK SLP262

CYXE;2010-02-23 10:00;CYXE 231000Z 04003KT 15SM FEW250 M23/M24 A3015 RMK CI0 SLP259

CYXE;2010-02-23 11:00;CYXE 231100Z 21004KT 15SM MIFG SKC M25/M25 A3014 RMK SLP257

CYXE;2010-02-23 12:00;CYXE 231200Z 20003KT 12SM FEW002 M24/M25 A3014 RMK ST2 BR SLP260

CYXE;2010-02-23 12:03;CYXE 231203Z 20004KT 1SM R09/P6000FT/N BR VV002 M24/ RMK FG8

CYXE;2010-02-23 12:06;CYXE 231206Z 19004KT 10SM BCFG SCT002 M24/ RMK ST2 VIS E-SE 2

CYXE;2010-02-23 13:00;CYXE 231300Z 19004KT 10SM BCFG FEW002 M24/M25 A3014 RMK ST2 SLP260

CYXE;2010-02-23 14:00;CYXE 231400Z 19003KT 8SM FEW004 SCT250 M25/M25 A3013 RMK ST1CI1 BR SLP255

CYXE;2010-02-23 15:00;CYXE 231500Z 18003KT 8SM PRFG SCT002 M24/M24 A3012 RMK ST2 VIS N-SE 1 SLP256

CYXE;2010-02-23 16:00;CYXE 231600Z 18004KT 10SM PRFG BKN002 M22/M22 A3011 RMK ST2 SLP254

CYXE;2010-02-23 16:33;CYXE 231633Z 00000KT 15SM FEW002 M19/ RMK SC1

CYXE;2010-02-23 17:00;CYXE 231700Z 19005KT 15SM FEW002 SCT280 M19/M22 A3011 RMK SC1CI0 SLP254

CYXE;2010-02-23 18:00;CYXE 231800Z 19006KT 15SM SCT280 M16/M17 A3010 RMK CI1 SLP246

CYXE;2010-02-23 19:00;CYXE 231900Z 19006KT 15SM FEW280 M13/M13 A3008 RMK CI0 SLP239

CYXE;2010-02-23 20:00;CYXE 232000Z 18006KT 15SM FEW280 M11/M12 A3005 RMK CI0 SLP231

CYXE;2010-02-23 21:00;CYXE 232100Z 17005KT 15SM FEW280 M10/M13 A3004 RMK CI0 SLP221

CYXE;2010-02-23 22:00;CYXE 232200Z 19007KT 15SM FEW280 M09/M13 A3002 RMK CI0 SLP216

CYXE;2010-02-23 23:00;CYXE 232300Z 20008KT 15SM FEW260 M10/M13 A3001 RMK CI1 SLP212

CYXE;2010-02-24 00:00;CYXE 240000Z 18006KT 15SM BKN016 M10/M13 A2999 RMK ST4 SLP205

CYXE;2010-02-24 00:48;CYXE 240048Z 18005KT 15SM OVC014 M10/ RMK ST6

CYXE;2010-02-24 01:00;CYXE 240100Z 18005KT 15SM OVC014 M10/M12 A2997 RMK ST6 SLP200

CYXE;2010-02-24 02:00;CYXE 240200Z 16006KT 15SM OVC014 M09/M11 A2995 RMK ST8 SLP191

CYXE;2010-02-24 02:11;CYXE 240211Z 16006KT 15SM -SN OVC014 M09/ RMK ST8

CYXE;2010-02-24 03:00;CYXE 240300Z 17005KT 15SM -SN OVC014 M09/M11 A2992 RMK ST8 SLP182

CYXE;2010-02-24 04:00;CYXE 240400Z 16006KT 15SM -SN OVC014 M09/M11 A2989 RMK ST8 SLP172

CYXE;2010-02-24 05:00;CYXE 240500Z 15008KT 15SM OVC014 M09/M11 A2988 RMK ST8 SLP169

CYXE;2010-02-24 06:00;CYXE 240600Z 16006KT 15SM OVC014 M08/M10 A2987 RMK ST8 SLP156

CYXE;2010-02-24 06:21;CYXE 240621Z 14006KT 15SM SCT014 M09/ RMK SC3

CYXE;2010-02-24 07:00;CYXE 240700Z 14006KT 15SM FEW014 M11/M12 A2984 RMK SC2 SLP147

CYXE;2010-02-24 08:00;CYXE 240800Z 16008KT 15SM FEW014 M10/M11 A2983 RMK SC1 SLP145

CYXE;2010-02-24 09:00;CYXE 240900Z 16011KT 15SM SKC M11/M12 A2979 RMK SLP128

CYXE;2010-02-24 10:00;CYXE 241000Z 17008KT 15SM FEW280 M12/M13 A2977 RMK CI0 SLP120

CYXE;2010-02-24 11:00;CYXE 241100Z 18008KT 15SM FEW090 SCT280 M13/M13 A2974 RMK AC2CI0 SLP112

CYXE;2010-02-24 12:00;CYXE 241200Z 15005KT 15SM FEW090 SCT280 M13/M14 A2973 RMK AC1CI0 SLP108

CYXE;2010-02-24 13:00;CYXE 241300Z 16007KT 15SM FEW090 SCT280 M13/M14 A2971 RMK AC1CI0 SLP101

CYXE;2010-02-24 14:00;CYXE 241400Z 17007KT 15SM FEW090 BKN280 M13/M14 A2970 RMK AC1CI2 SLP098

CYXE;2010-02-24 15:00;CYXE 241500Z 16007KT 15SM FEW090 BKN280 M12/M13 A2967 RMK AC1CI2 SLP087

CYXE;2010-02-24 16:00;CYXE 241600Z 15007KT 15SM FEW100 BKN280 M11/M13 A2965 RMK AC2CI2 SLP081

CYXE;2010-02-24 17:00;CYXE 241700Z 16007KT 15SM SCT100 OVC250 M10/M12 A2965 RMK AC3CI0 SLP080

CYXE;2010-02-24 18:00;CYXE 241800Z 14004KT 15SM SCT100 OVC250 M09/M12 A2965 RMK AC3CI1 SLP075

CYXE;2010-02-24 19:00;CYXE 241900Z 12007KT 15SM SCT100 OVC250 M09/M12 A2963 RMK AC3CI1 SLP069

CYXE;2010-02-24 20:00;CYXE 242000Z 11006KT 15SM FEW100 OVC250 M09/M12 A2962 RMK AC2CI4 SLP067

CYXE;2010-02-24 21:00;CYXE 242100Z 12008KT 15SM FEW100 OVC250 M09/M12 A2960 RMK AC1CI5 SLP061

CYXE;2010-02-24 22:00;CYXE 242200Z 11007KT 15SM FEW100 OVC250 M09/M12 A2961 RMK AC2CI4 SLP063

CYXE;2010-02-24 23:00;CYXE 242300Z 11006KT 15SM BKN120 OVC250 M09/M11 A2961 RMK AC6CI2 SLP066

CYXE;2010-02-25 00:00;CYXE 250000Z 07005KT 15SM BKN120 OVC250 M09/M11 A2962 RMK AC6CI2 SLP071

CYXE;2010-02-25 01:00;CYXE 250100Z 09006KT 15SM BKN080 OVC250 M09/M11 A2962 RMK AC6CI2 SLP071

CYXE;2010-02-25 02:00;CYXE 250200Z 13004KT 15SM BKN080 OVC250 M09/M11 A2964 RMK AC6CI2 MOON DMLY VIS SLP075

CYXE;2010-02-25 03:00;CYXE 250300Z 10004KT 15SM BKN080 OVC250 M09/M10 A2964 RMK AC6CI1 SLP075

CYXE;2010-02-25 04:00;CYXE 250400Z 03004KT 15SM BKN078 OVC250 M09/M10 A2965 RMK AC6CI1 SLP080

CYXE;2010-02-25 05:00;CYXE 250500Z 03007KT 15SM BKN090 OVC250 M09/M11 A2967 RMK AC6CI1 SLP085

CYXE;2010-02-25 06:00;CYXE 250600Z 01006KT 15SM OVC073 M09/M11 A2969 RMK AC6 SLP091

CYXE;2010-02-25 07:00;CYXE 250700Z 02008KT 15SM OVC063 M09/M11 A2970 RMK SC6 SLP095

CYXE;2010-02-25 08:00;CYXE 250800Z 01009KT 15SM OVC053 M09/M11 A2973 RMK SC6 SLP104

CYXE;2010-02-25 09:00;CYXE 250900Z 01006KT 15SM OVC069 M09/M11 A2975 RMK AC6 SLP111

CYXE;2010-02-25 10:00;CYXE 251000Z 03006KT 15SM OVC068 M09/M11 A2976 RMK AC6 SLP114

CYXE;2010-02-25 11:00;CYXE 251100Z 35004KT 15SM OVC073 M09/M11 A2978 RMK AC7 SLP123

CYXE;2010-02-25 12:00;CYXE 251200Z 34005KT 15SM OVC073 M09/M11 A2982 RMK AC7 SLP135

CYXE;2010-02-25 13:00;CYXE 251300Z 34006KT 15SM OVC065 M09/M11 A2985 RMK SC6 SLP144

CYXE;2010-02-25 14:00;CYXE 251400Z 35007KT 15SM OVC065 M09/M11 A2986 RMK SC6 SLP149

CYXE;2010-02-25 15:00;CYXE 251500Z 34004KT 15SM FEW065 BKN084 BKN250 M12/M13 A2988 RMK SC1AC4CI0 SLP158

CYXE;2010-02-25 16:00;CYXE 251600Z 01003KT 15SM FEW084 SCT250 M11/M12 A2989 RMK AC1CI1 SLP161

CYXE;2010-02-25 17:00;CYXE 251700Z 02004KT 15SM FEW250 M09/M11 A2991 RMK CI1 SLP166

CYXE;2010-02-25 18:00;CYXE 251800Z 36003KT 15SM FEW250 M08/M11 A2993 RMK CI0 SLP172

CYXE;2010-02-25 19:00;CYXE 251900Z 06003KT 15SM FEW250 M07/M10 A2994 RMK CI0 SLP175

CYXE;2010-02-25 20:00;CYXE 252000Z 08004KT 15SM FEW250 M06/M10 A2994 RMK CI0 SLP175

CYXE;2010-02-25 21:00;CYXE 252100Z 03003KT 15SM FEW250 M06/M10 A2994 RMK CI0 SLP175

CYXE;2010-02-25 22:00;CYXE 252200Z 32004KT 15SM FEW250 M06/M09 A2996 RMK CI0 SLP180

CYXE;2010-02-25 23:00;CYXE 252300Z 29002KT 15SM FEW250 M04/M09 A2997 RMK CI0 SLP184

CYXE;2010-02-26 00:00;CYXE 260000Z 00000KT 15SM FEW250 M06/M10 A2998 RMK CI0 SLP188

CYXE;2010-02-26 01:00;CYXE 260100Z 35002KT 15SM FEW250 M08/M10 A2999 RMK CI1 SLP193

CYXE;2010-02-26 02:00;CYXE 260200Z 00000KT 15SM FEW250 M10/M10 A3000 RMK CI1 SLP194

CYXE;2010-02-26 03:00;CYXE 260300Z 26002KT 12SM FEW250 M12/M12 A3001 RMK CI0 SLP205

CYXE;2010-02-26 04:00;CYXE 260400Z 21003KT 8SM SKC M11/M12 A3001 RMK BR SLP206

CYXE;2010-02-26 05:00;CYXE 260500Z 17004KT 10SM PRFG FEW250 M13/M14 A3001 RMK CI0 SLP206

CYXE;2010-02-26 06:00;CYXE 260600Z 17003KT 15SM VCFG FEW280 M12/M13 A3001 RMK CI0 SLP203

CYXE;2010-02-26 07:00;CYXE 260700Z 24005KT 15SM VCFG FEW280 M13/M14 A3003 RMK CI0 SLP209

CYXE;2010-02-26 08:00;CYXE 260800Z 18003KT 10SM PRFG FEW280 M15/M16 A3003 RMK CI0 SLP210

CYXE;2010-02-26 08:33;CYXE 260833Z 22004KT 10SM BKN002 M15/ RMK SF1

CYXE;2010-02-26 09:00;CYXE 260900Z 21003KT 6SM BR BKN001 M17/M18 A3005 RMK SF2 SLP217

CYXE;2010-02-26 10:00;CYXE 261000Z 18002KT 6SM BR SCT002 M17/M18 A3005 RMK SF2 SLP217

CYXE;2010-02-26 11:00;CYXE 261100Z 18004KT 3SM BR BKN002 M17/M18 A3005 RMK SF2 SLP217

CYXE;2010-02-26 11:48;CYXE 261148Z 19003KT 1/2SM R09/P6000FT/D FZFG BKN001 M18/ RMK SF6

CYXE;2010-02-26 12:00;CYXE 261200Z 21003KT 1SM R09/P6000FT/D BR BKN001 M17/M18 A3006 RMK SF6 SLP222

CYXE;2010-02-26 12:10;CYXE 261210Z 17003KT 2SM BR BKN002 M17/ RMK SF6

CYXE;2010-02-26 12:22;CYXE 261222Z 18004KT 3SM BR BKN002 M17/ RMK SF5

CYXE;2010-02-26 13:00;CYXE 261300Z 16004KT 6SM BR SCT002 M17/M18 A3005 RMK SF2 SLP220

CYXE;2010-02-26 13:45;CYXE 261345Z 21003KT 4SM BR BKN002 M18/ RMK SF3

CYXE;2010-02-26 14:00;CYXE 261400Z 20003KT 4SM BR BKN002 M18/M19 A3007 RMK SF3 FROIN SLP224

CYXE;2010-02-26 15:00;CYXE 261500Z 20002KT 3SM BR BKN002 M17/M18 A3007 RMK SF2 FROIN SLP230

CYXE;2010-02-26 16:00;CYXE 261600Z 23003KT 3SM BR BKN002 M16/M16 A3009 RMK SF2 VIS VRB 2-4 SLP234

CYXE;2010-02-26 17:00;CYXE 261700Z 21002KT 8SM SCT002 M13/M13 A3009 RMK SF2 BR SLP236

CYXE;2010-02-26 18:00;CYXE 261800Z 20004KT 10SM FEW002 M11/M11 A3009 RMK SF1 BR SLP233

CYXE;2010-02-26 19:00;CYXE 261900Z 12003KT 10SM SKC M09/M09 A3009 RMK BR SLP231

CYXE;2010-02-26 20:00;CYXE 262000Z 16002KT 10SM SKC M06/M07 A3007 RMK BR SLP227

CYXE;2010-02-26 21:00;CYXE 262100Z 22004KT 15SM SKC M06/M10 A3008 RMK SLP227

CYXE;2010-02-26 22:00;CYXE 262200Z 14003KT 15SM FEW250 M04/M10 A3006 RMK CI1 SLP222

CYXE;2010-02-26 23:00;CYXE 262300Z 16005KT 15SM FEW250 M04/M09 A3006 RMK CI1 SLP223

CYXE;2010-02-27 00:00;CYXE 270000Z 14005KT 10SM FEW250 M06/M10 A3006 RMK CI0 BR SLP221

CYXE;2010-02-27 01:00;CYXE 270100Z 17003KT 12SM FEW250 M09/M11 A3007 RMK CI1 BR SLP225

CYXE;2010-02-27 02:00;CYXE 270200Z 13004KT 10SM FEW250 M10/M12 A3006 RMK CI1 BR SLP221

CYXE;2010-02-27 03:00;CYXE 270300Z 12003KT 12SM SKC M10/M12 A3006 RMK BR SLP224

CYXE;2010-02-27 04:00;CYXE 270400Z 13005KT 12SM SKC M12/M13 A3007 RMK BR SLP227

CYXE;2010-02-27 05:00;CYXE 270500Z 14003KT 12SM BKN120 M13/M14 A3006 RMK AC6 BR SLP226

CYXE;2010-02-27 06:00;CYXE 270600Z 13004KT 15SM BKN120 M12/M14 A3006 RMK AC6 SLP221

CYXE;2010-02-27 07:00;CYXE 270700Z 12006KT 15SM BKN120 M13/M14 A3005 RMK AC5 SLP218

CYXE;2010-02-27 08:00;CYXE 270800Z 11007KT 15SM BKN120 M12/M14 A3004 RMK AC3 SLP216

CYXE;2010-02-27 09:00;CYXE 270900Z 09006KT 15SM FEW120 M15/M16 A3004 RMK AC2 SLP214

CYXE;2010-02-27 10:00;CYXE 271000Z 12006KT 15SM FEW120 M13/M14 A3003 RMK AC2 SLP210

CYXE;2010-02-27 11:00;CYXE 271100Z 08007KT 12SM SCT120 M15/M15 A3003 RMK AC2 SLP209

CYXE;2010-02-27 12:00;CYXE 271200Z 08005KT 12SM BKN120 M14/M15 A3002 RMK AC6 SLP205

CYXE;2010-02-27 13:00;CYXE 271300Z 10004KT 12SM BKN120 BKN280 M12/M13 A3003 RMK AC6CI0 SLP208

CYXE;2010-02-27 14:00;CYXE 271400Z 11007KT 10SM BKN120 M11/M12 A3003 RMK AC7 SLP209

CYXE;2010-02-27 15:00;CYXE 271500Z 12008KT 15SM BKN120 M10/M12 A3003 RMK AC6 SLP209

CYXE;2010-02-27 16:00;CYXE 271600Z 12009KT 15SM SCT120 OVC250 M10/M12 A3003 RMK AC2CI3 SLP211

CYXE;2010-02-27 17:00;CYXE 271700Z 13006KT 15SM SCT120 OVC250 M08/M10 A3005 RMK AC2CI4 SLP215

CYXE;2010-02-27 18:00;CYXE 271800Z 12009KT 15SM FEW120 OVC250 M06/M09 A3003 RMK AC2CI2 SLP209

CYXE;2010-02-27 19:00;CYXE 271900Z 13006KT 15SM FEW120 OVC250 M05/M08 A3002 RMK AC1CI5 SLP207

CYXE;2010-02-27 20:00;CYXE 272000Z 11012KT 15SM FEW120 OVC250 M05/M08 A3001 RMK AC2CI5 SLP202

CYXE;2010-02-27 21:00;CYXE 272100Z 12008KT 15SM FEW120 OVC250 M04/M07 A3001 RMK AC2CI6 SLP200

CYXE;2010-02-27 22:00;CYXE 272200Z 11012KT 15SM SCT120 BKN250 M05/M07 A3001 RMK AC3CI2 SLP201

CYXE;2010-02-27 23:00;CYXE 272300Z 12015KT 15SM FEW120 BKN250 M05/M07 A3001 RMK AC2CI2 SLP201

CYXE;2010-02-28 00:00;CYXE 280000Z 13011KT 15SM FEW120 BKN250 M05/M07 A3001 RMK AC2CI2 SLP202

CYXE;2010-02-28 01:00;CYXE 280100Z 12009G15KT 15SM FEW120 BKN250 M05/M08 A3001 RMK AC2CI2 SLP200

CYXE;2010-02-28 02:00;CYXE 280200Z 13010KT 15SM FEW120 OVC250 M05/M08 A3001 RMK AC2CI2 SLP202

CYXE;2010-02-28 03:00;CYXE 280300Z 13012KT 15SM FEW120 OVC250 M05/M08 A3001 RMK AC2CI2 SLP199

CYXE;2010-02-28 04:00;CYXE 280400Z 14016KT 15SM FEW120 OVC250 M05/M08 A3000 RMK AC2CI2 SLP197

CYXE;2010-02-28 05:00;CYXE 280500Z 14013G18KT 15SM FEW120 BKN250 M06/M09 A3002 RMK AC1CI2 SLP202

CYXE;2010-02-28 06:00;CYXE 280600Z 13014G19KT 15SM BKN120 OVC250 M06/M09 A3002 RMK AC5CI2 SLP200

CYXE;2010-02-28 07:00;CYXE 280700Z 13012KT 15SM BKN120 OVC250 M07/M09 A3002 RMK AC6CI2 SLP200

CYXE;2010-02-28 08:00;CYXE 280800Z 13012KT 15SM BKN120 OVC250 M06/M09 A3001 RMK AC6CI2 SLP197

CYXE;2010-02-28 09:00;CYXE 280900Z 13009G15KT 15SM BKN120 OVC250 M07/M09 A3001 RMK AC6CI2 SLP194

CYXE;2010-02-28 10:00;CYXE 281000Z 13008KT 15SM BKN120 OVC250 M07/M09 A3000 RMK AC6CI2 SLP192

CYXE;2010-02-28 11:00;CYXE 281100Z 14007KT 15SM BKN120 OVC250 M07/M10 A3000 RMK AC7CI1 SLP193

CYXE;2010-02-28 12:00;CYXE 281200Z 13010KT 15SM OVC090 M08/M10 A3000 RMK AC8 SLP193

CYXE;2010-02-28 13:00;CYXE 281300Z 12011KT 15SM OVC070 M08/M10 A3000 RMK AC8 SLP195

CYXE;2010-02-28 14:00;CYXE 281400Z 14009KT 15SM SCT072 OVC082 M08/M10 A3001 RMK AC3AC5 SLP197

CYXE;2010-02-28 15:00;CYXE 281500Z 14009G15KT 15SM OVC086 M08/M10 A3001 RMK AC8 SLP199

CYXE;2010-02-28 16:00;CYXE 281600Z 14009KT 15SM OVC092 M08/M10 A3001 RMK AC8 SLP199

CYXE;2010-02-28 17:00;CYXE 281700Z 15012KT 15SM BKN094 M07/M10 A3002 RMK AC6 SLP201

CYXE;2010-02-28 18:00;CYXE 281800Z 16011KT 15SM SCT094 BKN250 M06/M09 A3002 RMK AC3CI3 SLP200

CYXE;2010-02-28 19:00;CYXE 281900Z 15012KT 15SM SCT094 BKN250 M05/M08 A3002 RMK AC3CI3 SLP202

CYXE;2010-02-28 20:00;CYXE 282000Z 15009KT 15SM SCT094 BKN250 M04/M07 A3002 RMK AC4CI2 SLP201

CYXE;2010-02-28 21:00;CYXE 282100Z 18014KT 15SM SCT100 BKN250 M03/M07 A3001 RMK AC3CI2 SLP197

CYXE;2010-02-28 22:00;CYXE 282200Z 19010KT 15SM FEW100 BKN250 M04/M07 A3003 RMK AC2CI2 SLP202

CYXE;2010-02-28 23:00;CYXE 282300Z 18014KT 15SM OVC080 M04/M07 A3003 RMK AC8 SLP203

CYXE;2010-03-01 01:00;CYXE 010100Z 17011KT 15SM SCT050 BKN090 M05/M07 A3004 RMK SC3AC4 SLP208

CYXE;2010-03-01 02:00;CYXE 010200Z 18009KT 15SM SCT050 BKN080 M06/M08 A3006 RMK SC3AC4 SLP215

CYXE;2010-03-01 03:00;CYXE 010300Z 17011KT 15SM FEW040 BKN080 M06/M08 A3007 RMK SC2AC5 SLP220

CYXE;2010-03-01 04:00;CYXE 010400Z 18007KT 15SM FEW040 SCT080 BKN120 M06/M08 A3008 RMK SC2AC2AC3 SLP223

CYXE;2010-03-01 05:00;CYXE 010500Z 17013KT 15SM FEW080 BKN120 M06/M08 A3006 RMK AC2AC6 SLP216

CYXE;2010-03-01 06:00;CYXE 010600Z 18008KT 10SM SCT120 M07/M09 A3007 RMK AC2 BR SLP217

CYXE;2010-03-01 07:00;CYXE 010700Z 19004KT 10SM BKN120 M07/M09 A3008 RMK AC5 BR SLP221

CYXE;2010-03-01 08:00;CYXE 010800Z 19005KT 10SM BKN095 M08/M09 A3009 RMK AC6 BR SLP224

CYXE;2010-03-01 09:00;CYXE 010900Z 20004KT 10SM FEW100 M09/M10 A3009 RMK AC1 BR SLP224

CYXE;2010-03-01 10:00;CYXE 011000Z 20003KT 10SM SKC M10/M10 A3009 RMK BR SLP224

CYXE;2010-03-01 11:00;CYXE 011100Z 18003KT 5SM BR SKC M10/M11 A3009 RMK SLP225

CYXE;2010-03-01 12:00;CYXE 011200Z 21002KT 5SM BR MIFG SKC M11/M12 A3011 RMK VIS W 2 SLP233

CYXE;2010-03-01 13:00;CYXE 011300Z 16002KT 5SM BR BCFG SKC M12/M13 A3012 RMK SLP238

CYXE;2010-03-01 14:00;CYXE 011400Z 21003KT 5SM BR BCFG BKN120 M12/M12 A3012 RMK AC2 SLP238

CYXE;2010-03-01 15:00;CYXE 011500Z 27005KT 5SM BR BCFG SCT120 M15/M15 A3014 RMK AC1 SLP247

CYXE;2010-03-01 15:17;CYXE 011517Z 26005KT 4SM R09/1800FT/N BR MIFG SCT120 M14/ RMK AC1 VIS NW 1

CYXE;2010-03-01 15:42;CYXE 011542Z 28003KT 1SM R09/3000FT/N BR FEW120 M14/ RMK FG1AC1 VIS NW 3/4

CYXE;2010-03-01 16:00;CYXE 011600Z 28003KT 1/2SM R09/2200FT/N FZFG SCT120 M14/M15 A3016 RMK FG1AC1 SLP253

CYXE;2010-03-01 16:24;CYXE 011624Z 00000KT 1SM R09/2600FT/N BR FEW120 M13/ RMK FG1AC0

CYXE;2010-03-01 16:39;CYXE 011639Z 23003KT 6SM BR FEW120 M13/ RMK AC1

CYXE;2010-03-01 17:00;CYXE 011700Z 25003KT 8SM FEW004 FEW120 M12/M12 A3015 RMK ST1AC0 BR VIS NW 4 SLP252

CYXE;2010-03-01 18:00;CYXE 011800Z 29004KT 12SM FEW250 M10/M10 A3016 RMK CI0 BR SLP253

CYXE;2010-03-01 19:00;CYXE 011900Z 27005KT 12SM FEW250 M08/M08 A3016 RMK CI0 BR SLP252

CYXE;2010-03-01 20:00;CYXE 012000Z 25003KT 12SM FEW250 M06/M07 A3016 RMK CI1 BR SLP251

CYXE;2010-03-01 21:00;CYXE 012100Z 27004KT 12SM FEW250 M04/M07 A3015 RMK CI1 BR SLP247

CYXE;2010-03-01 22:00;CYXE 012200Z 28004KT 15SM FEW250 M04/M07 A3016 RMK CI0 SLP248

CYXE;2010-03-01 23:00;CYXE 012300Z 26002KT 15SM SCT250 M03/M06 A3014 RMK CI0 SLP243

CYXE;2010-03-02 00:00;CYXE 020000Z 29003KT 10SM SCT250 M05/M07 A3014 RMK CI0 HZ SLP246

CYXE;2010-03-02 01:00;CYXE 020100Z 00000KT 10SM FEW100 SCT250 M06/M08 A3015 RMK AC1CI0 BR SLP247

CYXE;2010-03-02 02:00;CYXE 020200Z 28002KT 10SM FEW100 SCT250 M07/M08 A3016 RMK AC1CI0 BR SLP251

CYXE;2010-03-02 03:00;CYXE 020300Z 00000KT 6SM R09/2600VP6000FT/N BR MIFG FEW100 SCT250 M10/M10 A3015 RMK AC1CI0 FROIN SLP255

CYXE;2010-03-02 04:00;CYXE 020400Z 18007KT 6SM BR FEW250 M09/M10 A3015 RMK CI0 FROIN SLP254

CYXE;2010-03-02 05:00;CYXE 020500Z 19005KT 10SM SCT003 BKN250 M10/M11 A3015 RMK ST0CI0 BR SLP254

CYXE;2010-03-02 05:19;CYXE 020519Z 19003KT 8SM BKN002 M11/ RMK ST3 BR

CYXE;2010-03-02 05:32;CYXE 020532Z 22004KT 3SM BR OVC001 M12/ RMK ST7

CYXE;2010-03-02 05:38;CYXE 020538Z 23004KT 1/2SM R09/P6000FT/N FZFG VV002 M12/ RMK FG8

CYXE;2010-03-02 06:00;CYXE 020600Z 22004KT 1/2SM R09/P6000FT/N FZFG VV002 M12/M13 A3016 RMK FG8 SLP257

CYXE;2010-03-02 06:10;CYXE 020610Z 15003KT 1/4SM R09/2200FT/N FZFG VV001 M12/ RMK FG8

CYXE;2010-03-02 06:19;CYXE 020619Z 16004KT 1/2SM R09/1400V2000FT/N FZFG SKC M12/ RMK FG6

CYXE;2010-03-02 07:00;CYXE 020700Z 19003KT 1/2SM R09/P6000FT/U FZFG VV002 M12/M13 A3015 RMK FG8 SLP252

CYXE;2010-03-02 08:00;CYXE 020800Z 14002KT 1/2SM R09/3000VP6000FT/D FZFG VV002 M13/M13 A3014 RMK FG8 SLP248

CYXE;2010-03-02 08:47;CYXE 020847Z 23004KT 1SM R09/2800V4500FT/U BR SKC M13/ RMK FG7 VIS VRBL 1/2-11/2

CYXE;2010-03-02 09:00;CYXE 020900Z 26002KT 1SM R09/5000FT/U BR SKC M13/M14 A3014 RMK FG7 VIS VRBL 1/2-1 1/2 SLP246

CYXE;2010-03-02 10:00;CYXE 021000Z 00000KT 1SM R09/1400V2000FT/N BR SKC M15/M16 A3013 RMK FG6 VIS VRBL 1/2-1 1/2 SLP241

CYXE;2010-03-02 10:16;CYXE 021016Z 32004KT 1/4SM R09/1600FT/N FZFG SKC M15/ RMK FG7

CYXE;2010-03-02 11:00;CYXE 021100Z 07002KT 1/4SM R09/1600V2200FT/D FZFG SKC M14/M15 A3013 RMK FG7 SLP242

CYXE;2010-03-02 11:18;CYXE 021118Z 08003KT 1/2SM R09/3500VP6000FT/U FZFG SKC M15/ RMK FG7

CYXE;2010-03-02 11:36;CYXE 021136Z 07002KT 3/4SM R09/3500VP6000FT/U BR SKC M14/ RMK FG7 VIS VRBL 1/2-1

CYXE;2010-03-02 12:00;CYXE 021200Z 07003KT 1/2SM R09/P6000FT/N FZFG SKC M14/M15 A3014 RMK FG7 VIS SE-S 1 SLP245

CYXE;2010-03-02 12:33;CYXE 021233Z 08005KT 1/2SM R09/3000VP6000FT/D IC FZFG VV002 M14/ RMK FG8

CYXE;2010-03-02 13:00;CYXE 021300Z 12004KT 1SM R09/4500VP6000FT/U IC BR VV002 M14/M15 A3012 RMK FG8 SLP240

CYXE;2010-03-02 13:16;CYXE 021316Z 17004KT 1 1/2SM IC BR SKC M13/ RMK FG6

CYXE;2010-03-02 13:28;CYXE 021328Z 18004KT 4SM BR SKC M13/

CYXE;2010-03-02 14:00;CYXE 021400Z 16005KT 5SM BR SKC M14/M14 A3011 RMK SLP238

CYXE;2010-03-02 15:00;CYXE 021500Z 12006KT 5SM BR SKC M14/M14 A3011 RMK SLP239

CYXE;2010-03-02 15:52;CYXE 021552Z 14003KT 5SM BR SCT003 M13/ RMK SF3

CYXE;2010-03-02 16:00;CYXE 021600Z 12006KT 5SM BR FEW004 M13/M13 A3011 RMK SF1 SLP238

CYXE;2010-03-02 17:00;CYXE 021700Z 12005KT 12SM SKC M10/M11 A3010 RMK SLP235

CYXE;2010-03-02 18:00;CYXE 021800Z 12007KT 12SM SKC M09/M09 A3009 RMK BR SLP231

CYXE;2010-03-02 19:00;CYXE 021900Z 12006KT 15SM SKC M08/M09 A3008 RMK SLP228

CYXE;2010-03-02 20:00;CYXE 022000Z 12006KT 15SM SKC M07/M09 A3007 RMK SLP224

CYXE;2010-03-02 21:00;CYXE 022100Z 11010KT 15SM FEW250 M07/M09 A3006 RMK CI1 SLP220

CYXE;2010-03-02 22:00;CYXE 022200Z 13010KT 15SM FEW250 M07/M09 A3004 RMK CI1 SLP214

CYXE;2010-03-02 23:00;CYXE 022300Z 13011KT 15SM FEW250 M06/M09 A3002 RMK CI0 SLP208

CYXE;2010-03-03 00:00;CYXE 030000Z 13008KT 15SM FEW004 FEW250 M07/M09 A3001 RMK SF1CI0 SLP202

CYXE;2010-03-03 01:00;CYXE 030100Z 13011KT 8SM BKN005 BKN250 M08/M09 A3000 RMK SF3CI0 BR SLP199

CYXE;2010-03-03 01:15;CYXE 030115Z 13009KT 8SM BKN004 M07/ RMK SF6 BR

CYXE;2010-03-03 02:00;CYXE 030200Z 13011KT 12SM SCT004 M07/M08 A2998 RMK SF2 BR SLP195

CYXE;2010-03-03 03:00;CYXE 030300Z 13009KT 12SM BKN004 M07/M08 A2997 RMK SF3 BR SLP189

CYXE;2010-03-03 04:00;CYXE 030400Z 14011KT 12SM SCT004 M07/M08 A2996 RMK SF2 BR FROIN SLP187

CYXE;2010-03-03 05:00;CYXE 030500Z 14015KT 15SM FEW004 M07/M08 A2995 RMK SF0 SLP182

CYXE;2010-03-03 06:00;CYXE 030600Z 14015KT 15SM SKC M07/M09 A2992 RMK SLP171

CYXE;2010-03-03 07:00;CYXE 030700Z 14013KT 15SM SKC M07/M09 A2992 RMK SLP168

CYXE;2010-03-03 08:00;CYXE 030800Z 14012KT 15SM SKC M07/M09 A2990 RMK SLP163

CYXE;2010-03-03 09:00;CYXE 030900Z 15006KT 12SM SKC M08/M10 A2990 RMK SLP161

CYXE;2010-03-03 10:00;CYXE 031000Z 14005KT 15SM SKC M09/M11 A2988 RMK SLP154

CYXE;2010-03-03 11:00;CYXE 031100Z 15006KT 8SM SKC M10/M12 A2987 RMK BR SLP153

CYXE;2010-03-03 12:00;CYXE 031200Z 14009KT 8SM SKC M10/M11 A2986 RMK BR SLP149

CYXE;2010-03-03 13:00;CYXE 031300Z 14007KT 8SM SKC M10/M12 A2986 RMK BR SLP148

CYXE;2010-03-03 14:00;CYXE 031400Z 14009KT 12SM SKC M10/M12 A2984 RMK BR SLP142

CYXE;2010-03-03 15:00;CYXE 031500Z 15007KT 15SM SKC M09/M11 A2984 RMK SLP141

CYXE;2010-03-03 16:00;CYXE 031600Z 15009KT 15SM SKC M07/M10 A2983 RMK SLP140

CYXE;2010-03-03 17:00;CYXE 031700Z 16007KT 15SM SKC M06/M09 A2985 RMK SLP144

CYXE;2010-03-03 18:00;CYXE 031800Z 16013KT 15SM SKC M04/M08 A2983 RMK SLP136

CYXE;2010-03-03 19:00;CYXE 031900Z 18012G17KT 15SM SKC M04/M07 A2983 RMK SLP134

CYXE;2010-03-03 20:00;CYXE 032000Z 18013KT 15SM SKC M03/M07 A2981 RMK SLP127

CYXE;2010-03-03 21:00;CYXE 032100Z 18013KT 15SM SKC M02/M06 A2979 RMK SLP122

CYXE;2010-03-03 22:00;CYXE 032200Z 18014KT 15SM SKC M02/M06 A2978 RMK SLP118

CYXE;2010-03-03 23:00;CYXE 032300Z 18011KT 15SM SKC M03/M06 A2978 RMK SLP118

CYXE;2010-03-04 00:00;CYXE 040000Z 18007KT 15SM SKC M03/M06 A2978 RMK SLP119

CYXE;2010-03-04 01:00;CYXE 040100Z 18008KT 15SM SKC M04/M07 A2978 RMK SLP120

CYXE;2010-03-04 02:00;CYXE 040200Z 18006KT 15SM SKC M06/M07 A2978 RMK SLP120

CYXE;2010-03-04 03:00;CYXE 040300Z 17007KT 15SM SKC M06/M08 A2978 RMK SLP119

CYXE;2010-03-04 04:00;CYXE 040400Z 18005KT 15SM SKC M07/M08 A2977 RMK SLP118

CYXE;2010-03-04 05:00;CYXE 040500Z 19004KT 15SM SKC M08/M09 A2977 RMK SLP118

CYXE;2010-03-04 06:00;CYXE 040600Z 20004KT 15SM SKC M09/M10 A2978 RMK SLP117

CYXE;2010-03-04 07:00;CYXE 040700Z 18004KT 8SM FEW008 M10/M11 A2977 RMK ST1 BR SLP115

CYXE;2010-03-04 07:36;CYXE 040736Z 17004KT 12SM SCT006 OVC020 RMK ST3SC5 BR

CYXE;2010-03-04 08:00;CYXE 040800Z 19004KT 12SM SCT004 OVC020 M10/M11 A2978 RMK ST3SC5 BR SLP118

CYXE;2010-03-04 09:00;CYXE 040900Z 19005KT 6SM BR OVC003 M09/M09 A2978 RMK ST8 SLP118

CYXE;2010-03-04 09:37;CYXE 040937Z 20005KT 1/2SM R09/P6000FT/D FZFG VV001 M09/ RMK FG8

CYXE;2010-03-04 10:00;CYXE 041000Z 19004KT 1/2SM R09/5000FT/N FZFG VV001 M09/M09 A2978 RMK FG8 SLP118

CYXE;2010-03-04 11:00;CYXE 041100Z 25005KT 3/4SM R09/5500FT/U BR VV001 M08/M09 A2979 RMK FG8 SLP120

CYXE;2010-03-04 11:42;CYXE 041142Z 31007KT 2SM BR OVC002 M08/ RMK ST8

CYXE;2010-03-04 12:00;CYXE 041200Z 30007KT 2SM BR OVC003 M09/M10 A2982 RMK ST8 SLP132

CYXE;2010-03-04 12:11;CYXE 041211Z 30004KT 1SM R09/P6000FT/D BR OVC002 M09/ RMK ST8

CYXE;2010-03-04 12:27;CYXE 041227Z 28004KT 3/4SM R09/P6000FT/D BR OVC002 M09/ RMK ST8

CYXE;2010-03-04 13:00;CYXE 041300Z 27003KT 3/4SM R09/4000VP6000FT/D BR VV002 M09/M10 A2982 RMK FG8 SLP132

CYXE;2010-03-04 13:30;CYXE 041330Z 27003KT 1/2SM R09/5000FT/U FZFG VV001 M09/ RMK FG8

CYXE;2010-03-04 13:51;CYXE 041351Z 25004KT 1/4SM R09/2800FT/N FZFG VV001 M08/ RMK FG8

CYXE;2010-03-04 14:00;CYXE 041400Z 25004KT 1/4SM R09/2600FT/N FZFG VV001 M08/M09 A2983 RMK FG8 SLP134

CYXE;2010-03-04 15:00;CYXE 041500Z 24005KT 1/4SM R09/2600FT/N FZFG VV001 M08/M09 A2983 RMK FG8 SLP135

CYXE;2010-03-04 16:00;CYXE 041600Z 25008KT 3/8SM R09/2400FT/N FZFG VV001 M08/M09 A2984 RMK FG8 SLP139

CYXE;2010-03-04 16:08;CYXE 041608Z 24007KT 1/4SM R09/2000FT/N FZFG VV001 M08/ RMK FG8

CYXE;2010-03-04 17:00;CYXE 041700Z 25008KT 1/4SM R09/2000FT/N FZFG VV001 M07/M07 A2984 RMK FG8 SLP141

CYXE;2010-03-04 17:34;CYXE 041734Z 26006KT 1/2SM R09/2600FT/N FZFG VV001 M07/ RMK FG8

CYXE;2010-03-04 17:50;CYXE 041750Z 23007KT 3/4SM R09/3500VP6000FT/D BR OVC001 M06/ RMK ST8

CYXE;2010-03-04 18:00;CYXE 041800Z 24008KT 3/4SM R09/2800VP6000FT/D BR VV001 M06/M06 A2985 RMK FG8 SLP143

CYXE;2010-03-04 18:19;CYXE 041819Z 24007KT 1SM R09/P6000FT/U BR VV001 M05/ RMK FG8

CYXE;2010-03-04 18:34;CYXE 041834Z 23006KT 1 1/2SM BR VV002 M05/ RMK FG8

CYXE;2010-03-04 18:53;CYXE 041853Z 23007KT 2 1/2SM BR OVC002 M05/ RMK ST8

CYXE;2010-03-04 19:00;CYXE 041900Z 23006KT 2 1/2SM BR OVC002 M04/M04 A2985 RMK ST8 SLP143

CYXE;2010-03-04 19:20;CYXE 041920Z 23007KT 4SM BR BKN004 BKN110 M04/ RMK SF5AC1

CYXE;2010-03-04 19:41;CYXE 041941Z 24007KT 8SM FEW005 SCT110 M03/ RMK SF2AC1 BR

CYXE;2010-03-04 20:00;CYXE 042000Z 23009KT 12SM SCT110 M02/M02 A2985 RMK AC2 SLP144

CYXE;2010-03-04 21:00;CYXE 042100Z 24007KT 15SM SCT110 M02/M02 A2986 RMK AC2 SLP143

CYXE;2010-03-04 22:00;CYXE 042200Z 23005KT 15SM FEW110 FEW280 M01/M01 A2986 RMK AC1CI0 SLP143

CYXE;2010-03-04 23:00;CYXE 042300Z 23006KT 15SM FEW110 FEW280 M00/M02 A2987 RMK AC1CI0 SLP146

CYXE;2010-03-05 00:00;CYXE 050000Z 23006KT 15SM FEW120 SCT280 M01/M02 A2988 RMK AC2CI0 SLP150

CYXE;2010-03-05 01:00;CYXE 050100Z 23006KT 15SM SCT120 M03/M03 A2989 RMK AC2 SLP155

CYXE;2010-03-05 02:00;CYXE 050200Z 21005KT 15SM FEW120 M03/M03 A2991 RMK AC1 SLP159

CYXE;2010-03-05 03:00;CYXE 050300Z 19004KT 15SM FEW120 M03/M03 A2992 RMK AC1 SLP164

CYXE;2010-03-05 04:00;CYXE 050400Z 20005KT 6SM BR SCT120 M04/M04 A2992 RMK AC2 SLP167

CYXE;2010-03-05 05:00;CYXE 050500Z 21004KT 6SM BR FEW120 M05/M05 A2994 RMK AC2 SLP171

CYXE;2010-03-05 05:18;CYXE 050518Z 20004KT 2 1/2SM BR FEW120 M06/ RMK AC2

CYXE;2010-03-05 06:00;CYXE 050600Z 20004KT 2 1/2SM R09/2600VP6000FT/U BR FEW120 M06/M07 A2995 RMK AC2 VIS NW 3/4 SLP176

CYXE;2010-03-05 07:00;CYXE 050700Z 19004KT 2 1/2SM BR FEW097 M07/M07 A2996 RMK AC2 SLP178

CYXE;2010-03-05 08:00;CYXE 050800Z 20005KT 3SM BR SKC M08/M09 A2997 RMK SLP182

CYXE;2010-03-05 08:15;CYXE 050815Z 19004KT 2 1/2SM BR BKN001 M09/ RMK ST2

CYXE;2010-03-05 09:00;CYXE 050900Z 19006KT 1/2SM R09/2800V5500FT/U FZFG VV001 M08/M09 A2998 RMK FG8 SLP185

CYXE;2010-03-05 10:00;CYXE 051000Z 00000KT 1/2SM R09/1400V1800FT/N FZFG VV001 M09/M09 A2998 RMK FG8 SLP187

CYXE;2010-03-05 10:38;CYXE 051038Z 21003KT 3/4SM R09/P6000FT/U BR OVC001 M09/ RMK ST8

CYXE;2010-03-05 10:53;CYXE 051053Z 19003KT 1/2SM R09/P6000FT/U FZFG VV001 M09/ RMK FG8

CYXE;2010-03-05 11:00;CYXE 051100Z 19003KT 1/2SM R09/P6000FT/U FZFG VV001 M09/M10 A3000 RMK FG8 SLP191

CYXE;2010-03-05 12:00;CYXE 051200Z 21003KT 1/2SM R09/P6000FT/U FZFG VV001 M09/M09 A3001 RMK FG8 SLP196

CYXE;2010-03-05 12:23;CYXE 051223Z 19003KT 1/4SM R09/2800FT/N FZFG VV001 M09/ RMK FG8

CYXE;2010-03-05 13:00;CYXE 051300Z 21006KT 1SM R09/4000VP6000FT/U BR OVC001 M09/M10 A3003 RMK ST8 SLP202

CYXE;2010-03-05 13:18;CYXE 051318Z 20002KT 3SM BR SCT001 M09/ RMK ST2

CYXE;2010-03-05 13:40;CYXE 051340Z 20003KT 1 1/2SM BR SCT001 M10/ RMK ST2

CYXE;2010-03-05 14:00;CYXE 051400Z 20002KT 1 1/2SM BR SCT001 M10/M10 A3005 RMK ST2 SLP207

CYXE;2010-03-05 15:00;CYXE 051500Z 21003KT 2SM BR FEW002 BKN250 M08/M09 A3005 RMK SF1CI1 SLP212

CYXE;2010-03-05 15:49;CYXE 051549Z 20003KT 4SM BR FEW003 FEW070 SCT250 M07/ RMK SF1AC1CI1

CYXE;2010-03-05 16:00;CYXE 051600Z 20003KT 6SM BR FEW080 SCT250 M07/M07 A3006 RMK AC1CI1 SLP215

CYXE;2010-03-05 17:00;CYXE 051700Z 14002KT 6SM BR SCT085 BKN250 M05/M05 A3007 RMK AC2CI1 SLP218

CYXE;2010-03-05 18:00;CYXE 051800Z 16003KT 6SM BR BKN085 BKN250 M02/M02 A3008 RMK AC5CI1 SLP218

CYXE;2010-03-05 19:00;CYXE 051900Z 19002KT 8SM FEW090 SCT250 M00/M01 A3008 RMK AC1CI2 BR SLP219

CYXE;2010-03-05 20:00;CYXE 052000Z 16004KT 12SM FEW100 BKN250 02/M02 A3008 RMK AC1CI3 SLP218

CYXE;2010-03-05 21:00;CYXE 052100Z 19004KT 15SM FEW100 BKN250 03/M01 A3008 RMK AC1CI2 SLP216

CYXE;2010-03-05 22:00;CYXE 052200Z 18006KT 15SM FEW100 BKN280 04/M01 A3007 RMK AC1CI2 SLP215

CYXE;2010-03-05 23:00;CYXE 052300Z 17006KT 15SM FEW050 FEW100 BKN280 04/M01 A3007 RMK SC1AC1CI2 SLP213

CYXE;2010-03-06 00:00;CYXE 060000Z 17007KT 15SM FEW050 FEW100 OVC280 03/M01 A3007 RMK SC1AC2CI2 SLP213

CYXE;2010-03-06 01:00;CYXE 060100Z 16004KT 15SM BKN092 OVC280 02/M01 A3007 RMK AC5CI1 SLP214

CYXE;2010-03-06 02:00;CYXE 060200Z 17008KT 15SM SCT090 BKN280 01/M01 A3007 RMK AC3CI0 SLP214

CYXE;2010-03-06 03:00;CYXE 060300Z 18007KT 15SM SCT076 01/M02 A3007 RMK AC2 SLP216

CYXE;2010-03-06 04:00;CYXE 060400Z 18010KT 15SM BKN083 BKN280 00/M02 A3009 RMK AC2CI2 SLP220

CYXE;2010-03-06 05:00;CYXE 060500Z 19008KT 15SM FEW073 SCT280 M00/M03 A3009 RMK AC2CI0 SLP220

CYXE;2010-03-06 06:00;CYXE 060600Z 19008KT 15SM FEW060 M01/M03 A3009 RMK SC2 SLP217

CYXE;2010-03-06 07:00;CYXE 060700Z 21004KT 15SM SCT073 M01/M03 A3010 RMK AC4 SLP221

CYXE;2010-03-06 08:00;CYXE 060800Z 20004KT 15SM FEW073 M02/M04 A3009 RMK AC2 SLP219

CYXE;2010-03-06 09:00;CYXE 060900Z 19005KT 15SM FEW073 M03/M04 A3010 RMK AC2 SLP219

CYXE;2010-03-06 10:00;CYXE 061000Z 19006KT 15SM SKC M03/M05 A3009 RMK SLP216

CYXE;2010-03-06 11:00;CYXE 061100Z 20007KT 15SM SKC M04/M05 A3009 RMK SLP217

CYXE;2010-03-06 12:00;CYXE 061200Z 19007KT 15SM SKC M04/M05 A3009 RMK SLP218

CYXE;2010-03-06 13:00;CYXE 061300Z 20006KT 15SM SKC M05/M06 A3009 RMK SLP218

CYXE;2010-03-06 14:00;CYXE 061400Z 19006KT 15SM SKC M06/M07 A3009 RMK SLP219

CYXE;2010-03-06 15:00;CYXE 061500Z 22006KT 15SM SKC M04/M06 A3010 RMK SLP223

CYXE;2010-03-06 16:00;CYXE 061600Z 23006KT 15SM SKC M04/M05 A3011 RMK SLP226

CYXE;2010-03-06 17:00;CYXE 061700Z 23006KT 15SM SKC M01/M03 A3010 RMK SLP224

CYXE;2010-03-06 18:00;CYXE 061800Z 23007KT 15SM SKC M00/M02 A3010 RMK SLP221

CYXE;2010-03-06 19:00;CYXE 061900Z 23005KT 15SM SKC 01/M01 A3010 RMK SLP221

CYXE;2010-03-06 20:00;CYXE 062000Z 25006KT 15SM SKC 02/M00 A3009 RMK SLP216

CYXE;2010-03-06 21:00;CYXE 062100Z 25006KT 15SM SKC 03/00 A3007 RMK SLP211

CYXE;2010-03-06 22:00;CYXE 062200Z 23005KT 15SM SKC 04/01 A3006 RMK SLP208

CYXE;2010-03-06 23:00;CYXE 062300Z 24004KT 15SM SKC 04/01 A3005 RMK SLP203

CYXE;2010-03-07 00:00;CYXE 070000Z 22006KT 15SM SKC 03/00 A3004 RMK SLP199

CYXE;2010-03-07 01:00;CYXE 070100Z 19006KT 15SM SKC 02/00 A3003 RMK SLP196

CYXE;2010-03-07 02:00;CYXE 070200Z 19005KT 15SM SKC 01/M00 A3002 RMK SLP194

CYXE;2010-03-07 03:00;CYXE 070300Z 19005KT 15SM SKC M00/M01 A3001 RMK SLP194

CYXE;2010-03-07 04:00;CYXE 070400Z 19006KT 15SM SKC M01/M02 A3001 RMK SLP191

CYXE;2010-03-07 05:00;CYXE 070500Z 19004KT 15SM SKC M02/M03 A2999 RMK SLP187

CYXE;2010-03-07 06:00;CYXE 070600Z 18006KT 15SM SKC M02/M03 A2998 RMK SLP182

CYXE;2010-03-07 07:00;CYXE 070700Z 18006KT 8SM SKC M03/M04 A2997 RMK BR SLP178

CYXE;2010-03-07 08:00;CYXE 070800Z 18007KT 15SM SKC M03/M04 A2996 RMK BR SLP174

CYXE;2010-03-07 09:00;CYXE 070900Z 16005KT 8SM SKC M03/M04 A2994 RMK BR SLP166

CYXE;2010-03-07 10:00;CYXE 071000Z 16006KT 8SM SKC M04/M05 A2992 RMK BR SLP160

CYXE;2010-03-07 11:00;CYXE 071100Z 16006KT 12SM SKC M05/M05 A2991 RMK BR SLP156

CYXE;2010-03-07 12:00;CYXE 071200Z 17004KT 15SM SKC M05/M06 A2990 RMK OBS TAKEN -25 FROIN SLP154

CYXE;2010-03-07 13:00;CYXE 071300Z 16006KT 10SM SKC M06/M06 A2988 RMK BR SLP146

CYXE;2010-03-07 14:00;CYXE 071400Z 16006KT 15SM SKC M06/M07 A2987 RMK SLP142

CYXE;2010-03-07 15:00;CYXE 071500Z 16004KT 15SM SKC M04/M05 A2985 RMK SLP136

CYXE;2010-03-07 16:00;CYXE 071600Z 16006KT 15SM SKC M02/M05 A2983 RMK SLP132

CYXE;2010-03-07 17:00;CYXE 071700Z 16011KT 15SM SKC M00/M04 A2982 RMK SLP127

CYXE;2010-03-07 18:00;CYXE 071800Z 17009KT 15SM SKC 01/M04 A2980 RMK SLP119

CYXE;2010-03-07 19:00;CYXE 071900Z 16009KT 15SM SKC 03/M03 A2978 RMK SLP112

CYXE;2010-03-07 20:00;CYXE 072000Z 17007KT 15SM FEW250 04/M03 A2976 RMK CI0 SLP105

CYXE;2010-03-07 21:00;CYXE 072100Z 16009KT 15SM FEW250 05/M01 A2974 RMK CI0 SLP094

CYXE;2010-03-07 22:00;CYXE 072200Z 18010KT 15SM BKN280 04/00 A2972 RMK CI1 SLP090

CYXE;2010-03-07 23:00;CYXE 072300Z 15008KT 15SM BKN280 04/00 A2970 RMK CI1 SLP083

CYXE;2010-03-08 00:00;CYXE 080000Z 17009KT 15SM FEW280 04/01 A2969 RMK CI0 SLP080

CYXE;2010-03-08 01:00;CYXE 080100Z 17008KT 15SM SKC 02/00 A2968 RMK SLP076

CYXE;2010-03-08 02:00;CYXE 080200Z 16007KT 15SM SKC 00/M01 A2967 RMK SLP074

CYXE;2010-03-08 03:00;CYXE 080300Z 15007KT 10SM BKN006 M00/M01 A2967 RMK ST3 SLP075

CYXE;2010-03-08 03:12;CYXE 080312Z 16006KT 8SM BKN004 M01/ RMK ST6

CYXE;2010-03-08 04:00;CYXE 080400Z 16009KT 5SM BR OVC003 M01/M01 A2966 RMK ST8 SLP073

CYXE;2010-03-08 04:14;CYXE 080414Z 17012KT 2SM BR OVC002 M00/ RMK ST8

CYXE;2010-03-08 05:00;CYXE 080500Z 18009G15KT 2SM BR OVC002 M00/M00 A2965 RMK ST8 SLP071

CYXE;2010-03-08 06:00;CYXE 080600Z 18011KT 2SM BR OVC002 M00/M00 A2965 RMK ST8 SLP064

CYXE;2010-03-08 07:00;CYXE 080700Z 18011G16KT 2SM BR OVC002 00/00 A2964 RMK ST8 SLP062

CYXE;2010-03-08 07:06;CYXE 080706Z 18011KT 1 1/2SM BR OVC002 00/ RMK ST8

CYXE;2010-03-08 07:31;CYXE 080731Z 18011KT 1 1/2SM BR OVC001 00/ RMK FG3ST5

CYXE;2010-03-08 08:00;CYXE 080800Z 18010G15KT 3/4SM R09/P6000FT/N BR VV001 00/00 A2963 RMK FG8 SLP058

CYXE;2010-03-08 09:00;CYXE 080900Z 18006KT 3/4SM R09/P6000FT/D BR VV001 00/00 A2961 RMK FG8 SLP051

CYXE;2010-03-08 10:00;CYXE 081000Z 18008KT 5/8SM R09/P6000FT/D BR VV001 M00/M00 A2961 RMK FG8 VIS SE 1 SLP051

CYXE;2010-03-08 11:00;CYXE 081100Z 19009KT 5/8SM R09/P6000FT/U BR VV001 00/00 A2961 RMK FG8 SLP051

CYXE;2010-03-08 12:00;CYXE 081200Z 17008KT 5/8SM R09/P6000FT/D BR VV001 00/00 A2961 RMK FG8 SLP050

CYXE;2010-03-08 13:00;CYXE 081300Z 17007KT 5/8SM R09/P6000FT/D BR VV001 M00/M00 A2961 RMK FG8 SLP048

CYXE;2010-03-08 14:00;CYXE 081400Z 17010KT 3/4SM R09/P6000FT/N BR VV001 M00/M00 A2960 RMK FG8 SLP047

CYXE;2010-03-08 15:00;CYXE 081500Z 16009KT 5/8SM R09/4500FT/N BR VV001 M01/M01 A2961 RMK FG8 SLP051

CYXE;2010-03-08 15:27;CYXE 081527Z 18009KT 3/8SM R09/2600FT/N FZFG VV001 M01/ RMK FG8

CYXE;2010-03-08 16:00;CYXE 081600Z 17006KT 3/8SM R09/2600V3500FT/N FZFG VV001 M01/M01 A2962 RMK FG8 SLP055

CYXE;2010-03-08 16:37;CYXE 081637Z 18007KT 1/2SM R09/4000FT/U FZFG VV001 M01/ RMK FG8

CYXE;2010-03-08 17:00;CYXE 081700Z 17006KT 1/2SM R09/3500FT/U FZFG VV001 M01/M01 A2964 RMK FG8 OBS TAKEN +10 SLP063

CYXE;2010-03-08 17:40;CYXE 081740Z 17005KT 1SM R09/3500V6000FT/U BR OVC001 M01/ RMK FG6SF2

CYXE;2010-03-08 18:00;CYXE 081800Z 20004KT 1SM R09/P6000FT/U BR OVC001 M01/M01 A2963 RMK FG5SF3 SLP061

CYXE;2010-03-08 18:27;CYXE 081827Z 15004KT 1SM R09/P6000FT/N BR OVC002 M01/ RMK FG2SF6

CYXE;2010-03-08 18:40;CYXE 081840Z 16005KT 1 1/2SM BR OVC002 M00/ RMK ST8

CYXE;2010-03-08 18:49;CYXE 081849Z 15006KT 2SM BR OVC002 M01/ RMK ST8

CYXE;2010-03-08 19:00;CYXE 081900Z 18005KT 2 1/2SM BR OVC002 M01/M01 A2963 RMK ST8 SLP059

CYXE;2010-03-08 19:07;CYXE 081907Z 14005KT 4SM BR OVC002 M00/ RMK ST8

CYXE;2010-03-08 19:26;CYXE 081926Z 14003KT 5SM BR OVC003 M00/ RMK ST8

CYXE;2010-03-08 20:00;CYXE 082000Z 21003KT 7SM OVC003 M00/M00 A2963 RMK ST8 BR SLP060

CYXE;2010-03-08 21:00;CYXE 082100Z 20002KT 8SM OVC004 M00/M00 A2964 RMK ST8 BR SLP062

CYXE;2010-03-08 22:00;CYXE 082200Z 28004KT 10SM OVC004 00/M00 A2966 RMK ST8 BR SLP068

CYXE;2010-03-08 22:37;CYXE 082237Z 35002KT 8SM OVC003 M00/ RMK ST8 BR

CYXE;2010-03-08 23:00;CYXE 082300Z 30004KT 5SM BR OVC002 M00/M00 A2967 RMK ST8 SLP073

CYXE;2010-03-08 23:44;CYXE 082344Z 07002KT 2 1/2SM BR OVC002 M01/ RMK ST8

CYXE;2010-03-09 00:00;CYXE 090000Z 35006KT 1 1/2SM BR OVC001 M01/M01 A2969 RMK ST8 SLP078

CYXE;2010-03-09 00:31;CYXE 090031Z 03003KT 3/4SM R09/P6000FT/D BR VV001 M01/ RMK FG8

CYXE;2010-03-09 01:00;CYXE 090100Z 35003KT 1SM R09/P6000FT/D BR VV001 M01/M01 A2971 RMK FG8 SLP086

CYXE;2010-03-09 01:12;CYXE 090112Z 33004KT 1/2SM R09/P6000FT/D FZFG VV001 M01/ RMK FG8

CYXE;2010-03-09 01:30;CYXE 090130Z 01007KT 1 1/2SM BR VV001 M01/ RMK FG8

CYXE;2010-03-09 02:00;CYXE 090200Z 34003KT 2SM -FZDZ BR OVC002 M01/M01 A2973 RMK ST8 SLP092

CYXE;2010-03-09 03:00;CYXE 090300Z 35008KT 2 1/2SM BR OVC002 M01/M01 A2975 REFZDZ RMK ST8 SLP101

CYXE;2010-03-09 03:20;CYXE 090320Z 35006KT 3SM -FZDZ BR OVC002 M00/ RMK ST8

CYXE;2010-03-09 04:00;CYXE 090400Z 34003KT 2SM -FZDZ BR OVC002 M00/M00 A2976 RMK ST8 SLP104

CYXE;2010-03-09 04:21;CYXE 090421Z 32003KT 1SM R09/P6000FT/D -FZDZ BR OVC001 M00/ RMK ST8

CYXE;2010-03-09 05:00;CYXE 090500Z 30003KT 1SM R09/P6000FT/U -FZDZ BR VV002 M00/M00 A2976 RMK FG8 SLP105

CYXE;2010-03-09 05:08;CYXE 090508Z 33008KT 1SM R09/P6000FT/N -DZ BR VV002 00/ REFZDZ RMK FG8

CYXE;2010-03-09 06:00;CYXE 090600Z 34006KT 1SM R09/P6000FT/D BR VV002 00/00 A2978 RMK FG8 REFZDZ SLP110

CYXE;2010-03-09 06:10;CYXE 090610Z 34005KT 3SM BR OVC004 00/ RMK ST8

CYXE;2010-03-09 06:28;CYXE 090628Z 35006KT 4SM BR OVC007 00/ RMK ST8

CYXE;2010-03-09 07:00;CYXE 090700Z 36007KT 8SM OVC006 00/00 A2980 RMK ST8 SLP116

CYXE;2010-03-09 08:00;CYXE 090800Z 35010KT 8SM OVC008 00/00 A2981 RMK ST8 SLP121

CYXE;2010-03-09 09:00;CYXE 090900Z 01008KT 9SM OVC009 00/M00 A2983 RMK ST8 SLP129

CYXE;2010-03-09 10:00;CYXE 091000Z 36007KT 12SM OVC009 00/M00 A2984 RMK ST8 SLP130

CYXE;2010-03-09 11:00;CYXE 091100Z 01010KT 12SM OVC010 00/M00 A2985 RMK ST8 SLP133

CYXE;2010-03-09 12:00;CYXE 091200Z 36009KT 10SM OVC010 00/M00 A2986 RMK ST8 SLP138

CYXE;2010-03-09 13:00;CYXE 091300Z 36013KT 10SM OVC009 00/M01 A2988 RMK ST8 SLP145

CYXE;2010-03-09 14:00;CYXE 091400Z 36009KT 15SM OVC008 M00/M01 A2990 RMK ST8 SLP150

CYXE;2010-03-09 15:00;CYXE 091500Z 01012KT 15SM OVC009 00/M01 A2990 RMK ST8 SLP151

CYXE;2010-03-09 16:00;CYXE 091600Z 02011KT 15SM OVC009 00/M01 A2990 RMK ST8 SLP153

CYXE;2010-03-09 17:00;CYXE 091700Z 36012KT 15SM OVC009 00/M01 A2992 RMK ST8 SLP157

CYXE;2010-03-09 18:00;CYXE 091800Z 36009KT 15SM OVC008 00/M01 A2992 RMK ST7 SLP160

CYXE;2010-03-09 19:00;CYXE 091900Z 36008KT 15SM OVC012 01/M01 A2992 RMK ST7 SLP159

CYXE;2010-03-09 20:00;CYXE 092000Z 02009KT 15SM BKN012 02/M01 A2990 RMK SC7 SLP153

CYXE;2010-03-09 21:00;CYXE 092100Z 02010KT 15SM FEW015 SCT250 03/M01 A2989 RMK SC2CI1 SLP146

CYXE;2010-03-09 22:00;CYXE 092200Z 01009KT 15SM FEW015 OVC250 03/M01 A2987 RMK SC1CI4 SLP141

CYXE;2010-03-09 23:00;CYXE 092300Z 02006KT 15SM FEW015 OVC250 03/M00 A2988 RMK SC1CI6 SLP142

CYXE;2010-03-09 23:37;CYXE 092337Z 03005KT 15SM FEW015 OVC250 02/ RMK SC1CI6

CYXE;2010-03-10 00:00;CYXE 100000Z 03004KT 15SM FEW015 OVC250 02/M01 A2987 RMK SC1CI6 SLP141

CYXE;2010-03-10 01:00;CYXE 100100Z 07002KT 15SM OVC250 01/M01 A2986 RMK CI7 SLP136

CYXE;2010-03-10 02:00;CYXE 100200Z 18002KT 15SM OVC250 M01/M02 A2986 RMK CI6 SLP136

CYXE;2010-03-10 03:00;CYXE 100300Z 22003KT 15SM BKN250 M01/M02 A2986 RMK CI2 SLP140

CYXE;2010-03-10 04:00;CYXE 100400Z 22003KT 15SM FEW250 M02/M02 A2985 RMK CI0 SLP136

CYXE;2010-03-10 05:00;CYXE 100500Z 23003KT 15SM BKN012 M02/M03 A2984 RMK SC3 SLP132

CYXE;2010-03-10 06:00;CYXE 100600Z 22002KT 15SM OVC024 M02/M02 A2984 RMK SC6 SLP133

CYXE;2010-03-10 07:00;CYXE 100700Z 00000KT 12SM OVC019 M01/M02 A2983 RMK SC8 SLP130

CYXE;2010-03-10 08:00;CYXE 100800Z 06004KT 12SM OVC013 M01/M01 A2983 RMK SC8 SLP129

CYXE;2010-03-10 09:00;CYXE 100900Z 07003KT 12SM -SN OVC011 M01/M01 A2983 RMK SC8 SLP125

CYXE;2010-03-10 10:00;CYXE 101000Z 08006KT 8SM -SN OVC005 M01/M01 A2981 RMK SC8 SLP119

CYXE;2010-03-10 11:00;CYXE 101100Z 08005KT 5SM -SN OVC006 M01/M01 A2981 RMK SC8 SLP119

CYXE;2010-03-10 12:00;CYXE 101200Z 11005KT 6SM -SN OVC005 M01/M01 A2980 RMK SC8 SLP117

CYXE;2010-03-10 12:29;CYXE 101229Z 13006KT 15SM -SN SCT007 OVC019 M01/ RMK ST3SC5

CYXE;2010-03-10 13:00;CYXE 101300Z 13004KT 15SM -SN OVC019 M01/M01 A2981 RMK SC8 SLP120

CYXE;2010-03-10 13:46;CYXE 101346Z 13004KT 8SM -SN OVC008 M01/ RMK SF8

CYXE;2010-03-10 14:00;CYXE 101400Z 13004KT 8SM -SG OVC007 M01/M01 A2982 RMK SF8 SLP123

CYXE;2010-03-10 14:06;CYXE 101406Z 14004KT 8SM -SG OVC005 M01/ RMK SF8

CYXE;2010-03-10 15:00;CYXE 101500Z 16006KT 15SM -SG OVC009 M01/M02 A2983 RMK SF8 SLP128

CYXE;2010-03-10 15:22;CYXE 101522Z 17008KT 15SM -SG OVC013 M01/ RMK SC8

CYXE;2010-03-10 15:53;CYXE 101553Z 19007KT 15SM -SG OVC016 M01/ RMK SC8

CYXE;2010-03-10 16:00;CYXE 101600Z 19006KT 15SM -SG OVC016 M01/M02 A2983 RMK SC8 SLP129

CYXE;2010-03-10 16:49;CYXE 101649Z 18007KT 15SM OVC015 M00/ RMK SC8

CYXE;2010-03-10 17:00;CYXE 101700Z 18009KT 15SM OVC018 M00/M03 A2984 RMK SC8 SLP131

CYXE;2010-03-10 17:37;CYXE 101737Z 18008KT 15SM -DZ OVC013 M00/ RMK SC8

CYXE;2010-03-10 18:00;CYXE 101800Z 19006KT 15SM -DZ BKN013 OVC070 M00/M02 A2984 RMK SC7AC1 SLP133

CYXE;2010-03-10 18:33;CYXE 101833Z 18007KT 15SM -DZ OVC009 M00/ RMK SF8

CYXE;2010-03-10 19:00;CYXE 101900Z 14008KT 15SM BKN015 OVC055 00/M02 A2984 RMK SC6SC2 SLP132

CYXE;2010-03-10 20:00;CYXE 102000Z 14006KT 15SM BKN018 OVC055 01/M02 A2983 RMK SC7SC1 SLP131

CYXE;2010-03-10 20:24;CYXE 102024Z 17005KT 15SM OVC014 00/ RMK SC8

CYXE;2010-03-10 21:00;CYXE 102100Z 16002KT 15SM OVC016 01/M03 A2984 RMK SC8 SLP130

CYXE;2010-03-10 22:00;CYXE 102200Z 13003KT 15SM OVC015 01/M02 A2984 RMK SC8 SLP131

CYXE;2010-03-10 23:00;CYXE 102300Z 18004KT 15SM OVC013 00/M02 A2984 RMK SC8 SLP131

CYXE;2010-03-11 00:00;CYXE 110000Z 16004KT 15SM OVC012 00/M01 A2985 RMK SC8 SLP135

CYXE;2010-03-11 01:00;CYXE 110100Z 17004KT 10SM -DZ OVC014 M00/M01 A2986 RMK SC8 SLP137

CYXE;2010-03-11 01:52;CYXE 110152Z 19003KT 3SM -SN OVC012 M00/ RMK SC8

CYXE;2010-03-11 02:00;CYXE 110200Z 18003KT 3SM -SG OVC015 M00/M01 A2987 RMK SC8 SLP142

CYXE;2010-03-11 03:00;CYXE 110300Z 19003KT 15SM -SG FEW005 OVC018 M00/M01 A2987 RMK SF2SC6 SLP143

CYXE;2010-03-11 03:19;CYXE 110319Z 17004KT 15SM OVC018 M00/ RMK SC8

CYXE;2010-03-11 04:00;CYXE 110400Z 20002KT 15SM OVC022 M00/M01 A2987 RMK SC8 SLP142

CYXE;2010-03-11 05:00;CYXE 110500Z 18004KT 15SM OVC022 M01/M01 A2987 RMK SC8 SLP142

CYXE;2010-03-11 06:00;CYXE 110600Z 20003KT 15SM OVC022 M00/M01 A2987 RMK SC8 SLP141

CYXE;2010-03-11 07:00;CYXE 110700Z 20003KT 15SM OVC022 M01/M02 A2988 RMK SC8 SLP144

CYXE;2010-03-11 08:00;CYXE 110800Z 18004KT 15SM OVC022 M01/M02 A2988 RMK SC8 SLP144

CYXE;2010-03-11 09:00;CYXE 110900Z 18003KT 15SM OVC022 M01/M01 A2987 RMK SC8 SLP143

CYXE;2010-03-11 10:00;CYXE 111000Z 22003KT 15SM OVC020 M01/M01 A2987 RMK SC8 SLP142

CYXE;2010-03-11 11:00;CYXE 111100Z 19003KT 15SM OVC024 M01/M01 A2987 RMK SC8 SLP142

CYXE;2010-03-11 12:00;CYXE 111200Z 16002KT 15SM OVC028 M01/M01 A2987 RMK SC8 SLP142

CYXE;2010-03-11 13:00;CYXE 111300Z CCA 18002KT 15SM OVC030 M01/M01 A2987 RMK SC8 SLP143

CYXE;2010-03-11 14:00;CYXE 111400Z 21003KT 15SM OVC030 M01/M01 A2988 RMK SC8 SLP144

CYXE;2010-03-11 15:00;CYXE 111500Z 20004KT 15SM BKN030 OVC070 M00/M01 A2988 RMK SC6AC2 SLP145

CYXE;2010-03-11 16:00;CYXE 111600Z 19004KT 15SM BKN030 OVC090 00/M01 A2988 RMK SC7AC1 SLP144

CYXE;2010-03-11 16:51;CYXE 111651Z 22006KT 15SM FEW007 OVC025 01/ RMK SF1SC7

CYXE;2010-03-11 17:00;CYXE 111700Z 23006KT 15SM FEW008 OVC025 01/M01 A2989 RMK SF1SC7 SLP147

CYXE;2010-03-11 18:00;CYXE 111800Z 24007KT 15SM BKN030 02/M02 A2988 RMK SC6 SLP145

CYXE;2010-03-11 19:00;CYXE 111900Z 23008KT 15SM SCT025 SCT100 02/M03 A2988 RMK SC3AC1 SLP143

CYXE;2010-03-11 20:00;CYXE 112000Z 21009KT 15SM FEW250 03/M04 A2986 RMK CI0 SLP137

CYXE;2010-03-11 21:00;CYXE 112100Z 20011KT 15SM FEW250 03/M03 A2984 RMK CI0 SLP131

CYXE;2010-03-11 22:00;CYXE 112200Z 21009KT 15SM FEW250 03/M03 A2983 RMK CI0 SLP125

CYXE;2010-03-11 23:00;CYXE 112300Z 18007KT 15SM FEW250 03/M03 A2982 RMK CI1 SLP124

CYXE;2010-03-12 00:00;CYXE 120000Z 17009KT 15SM SCT250 01/M03 A2981 RMK CI2 SLP120

CYXE;2010-03-12 01:00;CYXE 120100Z 16008KT 15SM SCT250 M00/M03 A2981 RMK CI2 SLP121

CYXE;2010-03-12 02:00;CYXE 120200Z 16011KT 15SM FEW250 M01/M03 A2980 RMK CI1 SLP116

CYXE;2010-03-12 03:00;CYXE 120300Z 17011KT 15SM SKC M02/M03 A2979 RMK SLP115

CYXE;2010-03-12 04:00;CYXE 120400Z 16010KT 15SM SKC M02/M03 A2978 RMK SLP112

CYXE;2010-03-12 05:00;CYXE 120500Z 17010G15KT 15SM SKC M02/M03 A2977 RMK SLP109

CYXE;2010-03-12 06:00;CYXE 120600Z 18010KT 15SM SCT250 M02/M04 A2976 RMK CI1 SLP104

CYXE;2010-03-12 07:00;CYXE 120700Z 18011KT 15SM BKN250 M02/M04 A2975 RMK CI2 SLP101

CYXE;2010-03-12 08:00;CYXE 120800Z 18011KT 15SM BKN250 M02/M04 A2974 RMK CI3 SLP097

CYXE;2010-03-12 09:00;CYXE 120900Z 19012KT 15SM BKN250 M01/M04 A2972 RMK CI2 SLP089

CYXE;2010-03-12 10:00;CYXE 121000Z 19008KT 15SM SCT250 M02/M04 A2972 RMK CI2 SLP088

CYXE;2010-03-12 11:00;CYXE 121100Z 18007KT 15SM SCT250 M02/M04 A2972 RMK CI2 SLP089

CYXE;2010-03-12 12:00;CYXE 121200Z 25005KT 15SM BKN250 M03/M05 A2974 RMK CI2 SLP098

CYXE;2010-03-12 13:00;CYXE 121300Z 22008KT 15SM BKN250 M02/M04 A2976 RMK CI4 SLP103

CYXE;2010-03-12 14:00;CYXE 121400Z 21007KT 15SM OVC250 M02/M04 A2976 RMK CI3 SLP105

CYXE;2010-03-12 15:00;CYXE 121500Z 22007KT 15SM FEW120 OVC250 M01/M03 A2978 RMK AC2CI2 CONTRAILS OBS TAKEN +04 SLP113

CYXE;2010-03-12 16:00;CYXE 121600Z 23008KT 15SM FEW120 OVC250 01/M02 A2981 RMK AC2CI1 CONTRAILS SLP121

CYXE;2010-03-12 17:00;CYXE 121700Z 22009KT 15SM FEW120 OVC250 03/M01 A2983 RMK AC2CI1 CONTRAILS OBS TAKEN +02 SLP128

CYXE;2010-03-12 18:00;CYXE 121800Z 24006KT 15SM OVC250 05/M01 A2983 RMK CI2 SLP127

CYXE;2010-03-12 19:00;CYXE 121900Z 24007KT 15SM BKN250 05/M01 A2984 RMK CI3 SLP128

CYXE;2010-03-12 20:00;CYXE 122000Z 22003KT 15SM BKN250 06/M00 A2983 RMK CI4 SLP127

CYXE;2010-03-12 21:00;CYXE 122100Z 14006KT 15SM BKN250 08/M01 A2980 RMK CI2 SLP112

CYXE;2010-03-12 22:00;CYXE 122200Z 15008KT 15SM BKN280 08/M01 A2978 RMK CI2 SLP108

CYXE;2010-03-12 23:00;CYXE 122300Z 18011KT 15SM SCT280 07/M01 A2978 RMK CI2 SLP107

CYXE;2010-03-13 00:00;CYXE 130000Z 17011KT 15SM SCT280 06/M02 A2978 RMK CI2 SLP107

CYXE;2010-03-13 01:00;CYXE 130100Z 18009KT 15SM BKN280 04/M01 A2978 RMK CI2 SLP108

CYXE;2010-03-13 02:00;CYXE 130200Z 17010KT 15SM SCT280 04/M01 A2977 RMK CI2 SLP106

CYXE;2010-03-13 03:00;CYXE 130300Z 16011KT 15SM FEW280 04/M02 A2975 RMK CI1 SLP098

CYXE;2010-03-13 04:00;CYXE 130400Z 18007KT 15SM SKC 03/M02 A2974 RMK SLP095

CYXE;2010-03-13 05:00;CYXE 130500Z 17011KT 15SM SKC 03/M01 A2973 RMK SLP091

CYXE;2010-03-13 06:00;CYXE 130600Z 17011G16KT 15SM SKC 03/M01 A2972 RMK SLP085

CYXE;2010-03-13 07:00;CYXE 130700Z 17011KT 15SM BKN250 03/M01 A2971 RMK CI2 SLP083

CYXE;2010-03-13 08:00;CYXE 130800Z 17011KT 15SM BKN250 03/M01 A2971 RMK CI3 SLP082

CYXE;2010-03-13 09:00;CYXE 130900Z 16011KT 15SM BKN250 02/M01 A2970 RMK CI4 SLP076

CYXE;2010-03-13 10:00;CYXE 131000Z 16009KT 15SM FEW100 BKN250 02/M02 A2968 RMK AC1CI3 SLP071

CYXE;2010-03-13 11:00;CYXE 131100Z 16005KT 15SM FEW100 BKN250 02/M02 A2968 RMK AC2CI3 SLP070

CYXE;2010-03-13 12:00;CYXE 131200Z 15007KT 15SM SCT100 OVC250 02/M02 A2968 RMK AC3CI3 SLP070

CYXE;2010-03-13 13:00;CYXE 131300Z 16008KT 15SM SCT100 OVC250 02/M02 A2968 RMK AC4CI3 SLP071

CYXE;2010-03-13 14:00;CYXE 131400Z 17007KT 15SM SCT100 BKN250 03/M02 A2969 RMK AC3CI3 SLP074

CYXE;2010-03-13 15:00;CYXE 131500Z 17006KT 15SM FEW100 BKN250 03/M01 A2970 RMK AC2CI2 SLP079

CYXE;2010-03-13 16:00;CYXE 131600Z 17011KT 15SM FEW100 BKN250 05/M01 A2969 RMK AC2CI2 SLP078

CYXE;2010-03-13 17:00;CYXE 131700Z 17012G17KT 15SM FEW100 BKN250 06/M01 A2970 RMK AC2CI2 CONTRAILS SLP081

CYXE;2010-03-13 18:00;CYXE 131800Z 16011KT 15SM SCT100 BKN250 06/M01 A2971 RMK AC4CI2 SLP082

CYXE;2010-03-13 19:00;CYXE 131900Z 18015G21KT 15SM FEW100 BKN250 06/M01 A2973 RMK AC2CI4 SLP086

CYXE;2010-03-13 20:00;CYXE 132000Z 21010KT 15SM FEW100 BKN280 06/M01 A2974 RMK AC2CI4 SLP092

CYXE;2010-03-13 21:00;CYXE 132100Z 20010KT 15SM FEW100 BKN280 07/M00 A2975 RMK AC2CI1 SLP095

CYXE;2010-03-13 22:00;CYXE 132200Z 21007KT 15SM FEW100 BKN280 08/01 A2977 RMK AC2CI1 SLP101

CYXE;2010-03-13 23:00;CYXE 132300Z 21006KT 15SM FEW100 BKN280 07/01 A2979 RMK AC2CI1 SLP109

CYXE;2010-03-14 00:00;CYXE 140000Z 23006KT 15SM SCT100 OVC280 05/01 A2983 RMK AC3CI2 SLP124

CYXE;2010-03-14 01:00;CYXE 140100Z 27005KT 15SM FEW050 BKN100 OVC280 03/01 A2986 RMK SC1AC4CI2 SLP133

CYXE;2010-03-14 02:00;CYXE 140200Z 30008KT 15SM FEW100 BKN280 02/00 A2989 RMK AC2CI2 SLP143

CYXE;2010-03-14 03:00;CYXE 140300Z 29006KT 15SM BKN280 01/00 A2992 RMK CI2 SLP158

CYXE;2010-03-14 04:00;CYXE 140400Z 31008KT 15SM BKN280 02/00 A2996 RMK CI2 SLP169

CYXE;2010-03-14 05:00;CYXE 140500Z 32011KT 15SM BKN280 02/M00 A2999 RMK CI2 SLP180

CYXE;2010-03-14 06:00;CYXE 140600Z 32007KT 15SM BKN250 01/M01 A3004 RMK CI3 SLP196

CYXE;2010-03-14 07:00;CYXE 140700Z 31007KT 15SM BKN250 01/M02 A3008 RMK CI2 SLP209

CYXE;2010-03-14 08:00;CYXE 140800Z 31010KT 15SM BKN250 00/M03 A3013 RMK CI2 SLP223

CYXE;2010-03-14 09:00;CYXE 140900Z 31009KT 15SM SCT250 M01/M03 A3016 RMK CI2 SLP236

CYXE;2010-03-14 10:00;CYXE 141000Z 31009KT 15SM FEW120 SCT250 M02/M04 A3018 RMK AC1CI1 SLP244

CYXE;2010-03-14 11:00;CYXE 141100Z 31007KT 15SM FEW120 FEW250 M03/M04 A3021 RMK AC1CI0 SLP253

CYXE;2010-03-14 12:00;CYXE 141200Z 31008KT 15SM FEW250 M03/M05 A3024 RMK CI1 SLP269

CYXE;2010-03-14 13:00;CYXE 141300Z 31009KT 15SM FEW250 M04/M05 A3028 RMK CI1 SLP280

CYXE;2010-03-14 14:00;CYXE 141400Z 31008KT 15SM FEW250 M04/M05 A3031 RMK CI0 SLP289

CYXE;2010-03-14 15:00;CYXE 141500Z 32009KT 15SM FEW250 M02/M04 A3032 RMK CI0 SLP297

CYXE;2010-03-14 16:00;CYXE 141600Z 32008KT 15SM SKC 01/M04 A3034 RMK SLP304

CYXE;2010-03-14 17:00;CYXE 141700Z 31005KT 15SM SKC 03/M04 A3036 RMK SLP310

CYXE;2010-03-14 18:00;CYXE 141800Z 32007KT 15SM SKC 05/M04 A3037 RMK SLP310

CYXE;2010-03-14 19:00;CYXE 141900Z 34004KT 15SM FEW250 07/M05 A3037 RMK CI0 SLP310

CYXE;2010-03-14 20:00;CYXE 142000Z 31004KT 15SM FEW250 07/M07 A3037 RMK CI0 SLP311

CYXE;2010-03-14 21:00;CYXE 142100Z CCA 31004KT 15SM FEW250 07/M07 A3037 RMK CI0 SLP309

CYXE;2010-03-14 22:00;CYXE 142200Z 30003KT 15SM FEW250 08/M08 A3037 RMK CI0 SLP309

CYXE;2010-03-14 23:00;CYXE 142300Z 32004KT 15SM FEW250 07/M09 A3037 RMK CI1 SLP311

CYXE;2010-03-15 00:00;CYXE 150000Z 30003KT 15SM FEW250 07/M09 A3038 RMK CI1 SLP314

CYXE;2010-03-15 01:00;CYXE 150100Z 00000KT 15SM FEW250 05/M08 A3038 RMK CI0 SLP315

CYXE;2010-03-15 02:00;CYXE 150200Z 22004KT 15SM SKC 03/M09 A3039 RMK SLP316

CYXE;2010-03-15 03:00;CYXE 150300Z 16005KT 15SM SKC 00/M07 A3039 RMK SLP321

CYXE;2010-03-15 04:00;CYXE 150400Z 18006KT 15SM SKC M01/M06 A3039 RMK SLP322

CYXE;2010-03-15 05:00;CYXE 150500Z 17006KT 15SM SKC M03/M07 A3039 RMK SLP322

CYXE;2010-03-15 06:00;CYXE 150600Z 18006KT 15SM SKC M03/M07 A3040 RMK SLP321

CYXE;2010-03-15 07:00;CYXE 150700Z 19005KT 15SM SKC M04/M06 A3040 RMK SLP324

CYXE;2010-03-15 08:00;CYXE 150800Z 19005KT 15SM SKC M04/M06 A3040 RMK SLP323

CYXE;2010-03-15 09:00;CYXE 150900Z 18004KT 15SM SKC M04/M06 A3040 RMK SLP323

CYXE;2010-03-15 10:00;CYXE 151000Z 17004KT 15SM SKC M05/M07 A3040 RMK SLP323

CYXE;2010-03-15 11:00;CYXE 151100Z 16005KT 15SM SKC M06/M08 A3040 RMK SLP321

CYXE;2010-03-15 12:00;CYXE 151200Z 15005KT 15SM SKC M06/M08 A3040 RMK SLP321

CYXE;2010-03-15 13:00;CYXE 151300Z 15006KT 15SM SKC M06/M08 A3039 RMK SLP320

CYXE;2010-03-15 14:00;CYXE 151400Z 16006KT 15SM FEW280 M05/M08 A3040 RMK CI0 SLP321

CYXE;2010-03-15 15:00;CYXE 151500Z 15006KT 15SM FEW280 M02/M06 A3039 RMK CI1 SLP322

CYXE;2010-03-15 16:00;CYXE 151600Z 16007KT 15SM BKN280 01/M07 A3038 RMK CI2 SLP319

CYXE;2010-03-15 17:00;CYXE 151700Z 16009KT 15SM OVC280 03/M06 A3038 RMK CI3 SLP318

CYXE;2010-03-15 18:00;CYXE 151800Z 17012KT 15SM OVC280 05/M07 A3038 RMK CI3 SLP317

CYXE;2010-03-15 19:00;CYXE 151900Z 17012KT 15SM OVC280 06/M06 A3037 RMK CI5 SLP314

CYXE;2010-03-15 20:00;CYXE 152000Z 17012KT 15SM OVC280 06/M07 A3037 RMK CI6 SLP313

CYXE;2010-03-15 21:00;CYXE 152100Z 17012G17KT 15SM OVC280 06/M06 A3036 RMK CI7 SLP307

CYXE;2010-03-15 22:00;CYXE 152200Z 16010G15KT 15SM BKN270 05/M05 A3035 RMK CI5 SLP304

CYXE;2010-03-15 23:00;CYXE 152300Z 14011KT 15SM FEW120 BKN270 04/M05 A3035 RMK AC2CI2 SLP304

CYXE;2010-03-16 00:00;CYXE 160000Z 16008KT 15SM FEW120 BKN270 04/M05 A3035 RMK AC2CI2 SLP306

CYXE;2010-03-16 01:00;CYXE 160100Z 15008KT 15SM SCT120 BKN270 03/M04 A3033 RMK AC3CI2 SLP302

CYXE;2010-03-16 02:00;CYXE 160200Z 16006KT 15SM SCT120 BKN270 01/M04 A3032 RMK AC3CI2 SLP298

CYXE;2010-03-16 03:00;CYXE 160300Z 16005KT 15SM FEW100 SCT250 00/M05 A3033 RMK AC2CI1 SLP302

CYXE;2010-03-16 04:00;CYXE 160400Z 13005KT 15SM FEW100 SCT250 M01/M05 A3033 RMK AC2CI1 SLP302

CYXE;2010-03-16 05:00;CYXE 160500Z 09002KT 15SM FEW250 M03/M05 A3033 RMK CI0 SLP302

CYXE;2010-03-16 06:00;CYXE 160600Z 09005KT 15SM FEW250 M04/M05 A3032 RMK CI0 SLP294

CYXE;2010-03-16 07:00;CYXE 160700Z 11003KT 15SM SKC M03/M05 A3032 RMK SLP296

CYXE;2010-03-16 08:00;CYXE 160800Z 14003KT 15SM SKC M03/M04 A3031 RMK SLP291

CYXE;2010-03-16 09:00;CYXE 160900Z 19004KT 15SM SKC M03/M03 A3031 RMK SLP291

CYXE;2010-03-16 10:00;CYXE 161000Z 17003KT 15SM SKC M03/M04 A3031 RMK SLP290

CYXE;2010-03-16 11:00;CYXE 161100Z 10003KT 15SM SKC M05/M05 A3030 RMK SLP287

CYXE;2010-03-16 12:00;CYXE 161200Z 14003KT 15SM SKC M04/M05 A3029 RMK SLP286

CYXE;2010-03-16 13:00;CYXE 161300Z 12005KT 15SM SKC M05/M05 A3027 RMK SLP280

CYXE;2010-03-16 14:00;CYXE 161400Z 19003KT 15SM BKN250 M04/M05 A3027 RMK CI1 SLP280

CYXE;2010-03-16 15:00;CYXE 161500Z 22004KT 15SM BKN250 M02/M02 A3026 RMK CI2 SLP277

CYXE;2010-03-16 16:00;CYXE 161600Z 18004KT 15SM SCT250 01/M02 A3023 RMK CI1 SLP268

CYXE;2010-03-16 17:00;CYXE 161700Z 20006KT 15SM BKN250 04/M00 A3021 RMK CI2 SLP259

CYXE;2010-03-16 18:00;CYXE 161800Z 19006KT 15SM BKN250 06/00 A3019 RMK CI2 SLP252

CYXE;2010-03-16 19:00;CYXE 161900Z 22008KT 15SM BKN250 09/00 A3018 RMK CI1 SLP249

CYXE;2010-03-16 20:00;CYXE 162000Z 18003KT 15SM BKN250 10/01 A3016 RMK CI2 SLP241

CYXE;2010-03-16 21:00;CYXE 162100Z 18004KT 15SM OVC250 12/01 A3013 RMK CI2 SLP226

CYXE;2010-03-16 22:00;CYXE 162200Z 16006KT 15SM BKN250 12/01 A3011 RMK CI2 CONTRAILS SLP218

CYXE;2010-03-16 23:00;CYXE 162300Z 15011KT 15SM BKN250 10/02 A3009 RMK CI2 CONTRAILS SLP211

CYXE;2010-03-17 00:00;CYXE 170000Z 15008KT 15SM BKN250 08/02 A3006 RMK CI2 SLP203

CYXE;2010-03-17 01:00;CYXE 170100Z 16007KT 15SM BKN250 05/01 A3005 RMK CI2 SLP199

CYXE;2010-03-17 02:00;CYXE 170200Z 15006KT 15SM BKN250 03/01 A3003 RMK CI2 SLP194

CYXE;2010-03-17 03:00;CYXE 170300Z 15007KT 15SM SCT250 03/01 A3001 RMK CI1 SLP189

CYXE;2010-03-17 04:00;CYXE 170400Z 16008KT 15SM SCT250 03/01 A2998 RMK CI1 SLP178

CYXE;2010-03-17 05:00;CYXE 170500Z 18009KT 15SM SCT250 03/01 A2995 RMK CI1 SLP170

CYXE;2010-03-17 06:00;CYXE 170600Z 19009KT 15SM FEW250 03/01 A2993 RMK CI0 SLP157

CYXE;2010-03-17 07:00;CYXE 170700Z 18009KT 15SM SKC 03/01 A2991 RMK SLP150

CYXE;2010-03-17 08:00;CYXE 170800Z 19009KT 15SM FEW250 03/00 A2988 RMK CI0 SLP142

CYXE;2010-03-17 09:00;CYXE 170900Z 20007KT 15SM SCT250 03/00 A2986 RMK CI2 SLP129

CYXE;2010-03-17 10:00;CYXE 171000Z 17005KT 15SM SCT250 02/M00 A2984 RMK CI2 SLP122

CYXE;2010-03-17 11:00;CYXE 171100Z 18005KT 15SM SCT250 01/M00 A2981 RMK CI1 SLP113

CYXE;2010-03-17 12:00;CYXE 171200Z 21007KT 15SM BKN290 02/M00 A2981 RMK CI3 SLP113

CYXE;2010-03-17 13:00;CYXE 171300Z 22008KT 15SM SCT120 BKN290 01/M00 A2979 RMK AC4CI2 SLP108

CYXE;2010-03-17 14:00;CYXE 171400Z 23007KT 15SM SCT120 BKN300 01/M00 A2979 RMK AC3CI3 SLP107

CYXE;2010-03-17 15:00;CYXE 171500Z 24011KT 15SM SCT120 OVC300 03/01 A2980 RMK AC3CI4 SLP113

CYXE;2010-03-17 16:00;CYXE 171600Z 24005KT 15SM FEW120 BKN300 05/01 A2979 RMK AC2CI4 SLP112

CYXE;2010-03-17 17:00;CYXE 171700Z 25008KT 15SM SCT300 09/02 A2978 RMK CI2 SLP108

CYXE;2010-03-17 18:00;CYXE 171800Z 25007KT 15SM FEW300 13/02 A2976 RMK CI1 SLP093

CYXE;2010-03-17 19:00;CYXE 171900Z 25019G26KT 15SM SKC 16/03 A2973 RMK SLP083

CYXE;2010-03-17 20:00;CYXE 172000Z 24018KT 15SM SKC 16/04 A2971 RMK SLP077

CYXE;2010-03-17 21:00;CYXE 172100Z 28024G31KT 15SM SKC 13/04 A2973 RMK SLP083

CYXE;2010-03-17 22:00;CYXE 172200Z 30021G29KT 15SM SKC 11/05 A2974 RMK SLP087

CYXE;2010-03-17 23:00;CYXE 172300Z 28028G34KT 15SM FEW041 10/02 A2977 RMK SC2 SLP095

CYXE;2010-03-18 00:00;CYXE 180000Z 29027G33KT 15SM SCT040 08/02 A2978 RMK SC3 SLP106

CYXE;2010-03-18 01:00;CYXE 180100Z 29016G25KT 15SM FEW040 06/02 A2979 RMK SC2 SLP109

CYXE;2010-03-18 02:00;CYXE 180200Z 28014G25KT 15SM SCT025 05/01 A2980 RMK SC4 SLP111

CYXE;2010-03-18 03:00;CYXE 180300Z 28024G30KT 15SM SCT030 05/00 A2979 RMK SC2 SLP108

CYXE;2010-03-18 04:00;CYXE 180400Z 30016G24KT 15SM BKN025 04/00 A2979 RMK SC6 SLP108

CYXE;2010-03-18 05:00;CYXE 180500Z 28025G36KT 15SM SCT040 02/M00 A2976 RMK SC3 SLP099

CYXE;2010-03-18 05:29;CYXE 180529Z 29021G31KT 15SM BKN015 02/ RMK SC6

CYXE;2010-03-18 06:00;CYXE 180600Z 30025G32KT 15SM OVC015 02/M00 A2977 RMK SC7 SLP097

CYXE;2010-03-18 07:00;CYXE 180700Z 30021G32KT 15SM OVC013 02/M00 A2978 RMK SC7 SLP101

CYXE;2010-03-18 07:08;CYXE 180708Z 30023G30KT 15SM -RASN OVC013 01/ RMK SC7

CYXE;2010-03-18 07:48;CYXE 180748Z 31020G30KT 3SM -SN OVC011 01/ RMK SC8

CYXE;2010-03-18 08:00;CYXE 180800Z 31020G28KT 3SM -SN OVC011 01/M00 A2981 RMK SC8 SLP110

CYXE;2010-03-18 09:00;CYXE 180900Z 33025G30KT 3SM -SN OVC011 M00/M02 A2985 RMK SC8 SLP126

CYXE;2010-03-18 09:19;CYXE 180919Z 32015G25KT 1 1/2SM -SN VV008 M01/ RMK SN8

CYXE;2010-03-18 09:43;CYXE 180943Z 33016KT 3SM -SN OVC011 M01/ RMK SC8

CYXE;2010-03-18 10:00;CYXE 181000Z 33016G24KT 5SM -SN OVC012 M01/M02 A2988 RMK SC8 SLP137

CYXE;2010-03-18 10:12;CYXE 181012Z 32023KT 15SM -SN OVC023 M01/ RMK SC8

CYXE;2010-03-18 10:41;CYXE 181041Z 33020G25KT 2SM -SN OVC020 M02/ RMK SC8

CYXE;2010-03-18 11:00;CYXE 181100Z 33014G19KT 2SM -SN OVC018 M02/M03 A2993 RMK SC8 SLP152

CYXE;2010-03-18 11:37;CYXE 181137Z 34020G26KT 3SM -SN OVC008 M03/ RMK SC8

CYXE;2010-03-18 12:00;CYXE 181200Z 34015KT 3SM -SN OVC012 M03/M04 A2996 RMK SC8 SLP168

CYXE;2010-03-18 13:00;CYXE 181300Z 36013G22KT 10SM -SN OVC046 M03/M06 A2999 RMK SC8 SLP178

CYXE;2010-03-18 13:20;CYXE 181320Z 35016G21KT 2SM -SN BKN015 OVC046 M04/ RMK SC5SC3

CYXE;2010-03-18 13:41;CYXE 181341Z 35014G20KT 1 1/2SM -SN DRSN BKN010 OVC045 M04/ RMK SC6SC2

CYXE;2010-03-18 14:00;CYXE 181400Z 35018KT 3SM -SN SCT008 OVC046 M04/M06 A3002 RMK SC3SC5 SLP189

CYXE;2010-03-18 14:10;CYXE 181410Z 35017KT 8SM -SN FEW008 SCT046 BKN076 M04/ RMK ST2SC2AC2

CYXE;2010-03-18 14:50;CYXE 181450Z 35016KT 15SM FEW018 BKN076 M04/ RMK SC2AC4

CYXE;2010-03-18 15:00;CYXE 181500Z 36017KT 15SM FEW018 BKN076 M04/M07 A3005 RMK SC2AC2 SLP203

CYXE;2010-03-18 16:00;CYXE 181600Z 36016KT 15SM BKN021 M03/M06 A3008 RMK SC3 SLP212

CYXE;2010-03-18 17:00;CYXE 181700Z 34016KT 15SM BKN018 M03/M07 A3011 RMK SC5 SLP221

CYXE;2010-03-18 18:00;CYXE 181800Z 36016G24KT 8SM -SN BKN020 M02/M06 A3013 RMK SC6 SLP229

CYXE;2010-03-18 19:00;CYXE 181900Z 01018KT 15SM -SN BKN020 M02/M06 A3014 RMK SC6 SLP234

CYXE;2010-03-18 20:00;CYXE 182000Z 36017KT 15SM BKN020 M02/M06 A3016 RMK SC6 SLP240

CYXE;2010-03-18 21:00;CYXE 182100Z 01015G22KT 15SM BKN022 M02/M07 A3017 RMK SC6 SLP247

CYXE;2010-03-18 22:00;CYXE 182200Z 02018KT 15SM OVC025 M02/M07 A3020 RMK SC7 SLP255

CYXE;2010-03-18 23:00;CYXE 182300Z 02013G18KT 15SM OVC025 M02/M07 A3022 RMK SC7 SLP261

CYXE;2010-03-18 23:45;CYXE 182345Z 01012G18KT 15SM -SN OVC025 M03/ RMK SC8

CYXE;2010-03-19 00:00;CYXE 190000Z 01013KT 15SM -SN OVC025 M03/M07 A3025 RMK SC8 SLP275

CYXE;2010-03-19 01:00;CYXE 190100Z 36014KT 15SM -SN OVC025 M03/M07 A3027 RMK SC8 SLP283

CYXE;2010-03-19 02:00;CYXE 190200Z 35012KT 15SM -SN OVC035 M03/M07 A3029 RMK SC8 SLP290

CYXE;2010-03-19 03:00;CYXE 190300Z 35011KT 15SM -SN OVC035 M03/M08 A3031 RMK SC8 SLP297

CYXE;2010-03-19 03:54;CYXE 190354Z 35010G15KT 15SM OVC035 M04/ RMK SC7

CYXE;2010-03-19 04:00;CYXE 190400Z 35011KT 15SM OVC035 M04/M08 A3032 RMK SC7 SLP300

CYXE;2010-03-19 05:00;CYXE 190500Z 36009KT 15SM -SN OVC040 M04/M08 A3033 RMK SC8 SLP304

CYXE;2010-03-19 06:00;CYXE 190600Z 34008KT 15SM -SN OVC030 M04/M08 A3035 RMK SC8 SLP310

CYXE;2010-03-19 07:00;CYXE 190700Z 36006KT 15SM -SN OVC039 M04/M07 A3035 RMK SC8 SLP311

CYXE;2010-03-19 08:00;CYXE 190800Z 35005KT 10SM -SN OVC041 M05/M06 A3035 RMK SC8 SLP310

CYXE;2010-03-19 09:00;CYXE 190900Z 32006KT 12SM -SN OVC034 M05/M07 A3035 RMK SC8 SLP312

CYXE;2010-03-19 10:00;CYXE 191000Z 36008KT 12SM -SN FEW013 OVC028 M06/M07 A3036 RMK SF2SC6 SLP315

CYXE;2010-03-19 11:00;CYXE 191100Z 33004KT 3SM -SN OVC012 M06/M07 A3036 RMK SC8 SLP315

CYXE;2010-03-19 11:02;CYXE 191102Z 34005KT 1 1/2SM -SN VV005 M06/ RMK SN8

CYXE;2010-03-19 11:33;CYXE 191133Z 34007KT 6SM -SN OVC009 M06/ RMK SC8

CYXE;2010-03-19 12:00;CYXE 191200Z 34006KT 6SM -SN SCT009 OVC021 M07/M08 A3036 RMK SC3SC5 SLP317

CYXE;2010-03-19 12:55;CYXE 191255Z 31006KT 15SM FEW036 M10/ RMK SC2

CYXE;2010-03-19 13:00;CYXE 191300Z 31007KT 15SM FEW036 M09/M10 A3037 RMK SC2 SLP320

CYXE;2010-03-19 14:00;CYXE 191400Z 33005KT 15SM BKN016 M08/M09 A3038 RMK SC6 SLP322

CYXE;2010-03-19 15:00;CYXE 191500Z CCA 01011KT 15SM BKN026 M06/M08 A3038 RMK SC7 DRSN SLP324

CYXE;2010-03-19 15:19;CYXE 191519Z 02010KT 15SM -SN SCT015 BKN026 M06/ RMK SC3SC4 DRSN

CYXE;2010-03-19 15:48;CYXE 191548Z 01008KT 15SM FEW015 BKN026 M06/ RMK SC1SC4

CYXE;2010-03-19 16:00;CYXE 191600Z 02008KT 15SM FEW015 SCT026 M06/M09 A3039 RMK SC1SC3 SLP327

CYXE;2010-03-19 17:00;CYXE 191700Z 01007KT 15SM SCT020 M05/M09 A3040 RMK SC4 SLP328

CYXE;2010-03-19 18:00;CYXE 191800Z 35005KT 15SM BKN021 M05/M09 A3039 RMK SC7 SLP326

CYXE;2010-03-19 18:11;CYXE 191811Z 35007KT 15SM -SN BKN021 M05/ RMK SC7

CYXE;2010-03-19 19:00;CYXE 191900Z 01005KT 15SM -SN BKN020 M04/M08 A3038 RMK SC7 SLP322

CYXE;2010-03-19 20:00;CYXE 192000Z 29004KT 15SM -SN OVC022 M04/M08 A3036 RMK SC8 SLP316

CYXE;2010-03-19 20:45;CYXE 192045Z 30009KT 15SM BKN027 M03/ RMK SC7

CYXE;2010-03-19 21:00;CYXE 192100Z 29008KT 15SM BKN030 M03/M09 A3033 RMK SC7 SLP306

CYXE;2010-03-19 22:00;CYXE 192200Z 30010KT 15SM BKN030 M03/M10 A3031 RMK SC6 SLP299

CYXE;2010-03-19 23:00;CYXE 192300Z 29010KT 15SM BKN035 M02/M09 A3030 RMK SC7 SLP294

CYXE;2010-03-20 00:00;CYXE 200000Z 28010G18KT 15SM BKN035 M03/M09 A3029 RMK SC6 SLP292

CYXE;2010-03-20 01:00;CYXE 200100Z 27013KT 15SM BKN032 M03/M09 A3027 RMK SC6 SLP284

CYXE;2010-03-20 02:00;CYXE 200200Z 25008KT 15SM SKC M05/M09 A3024 RMK SLP275

CYXE;2010-03-20 03:00;CYXE 200300Z 25009KT 15SM SKC M05/M08 A3022 RMK SLP269

CYXE;2010-03-20 04:00;CYXE 200400Z 24009KT 15SM SKC M05/M08 A3020 RMK SLP261

CYXE;2010-03-20 05:00;CYXE 200500Z 23008KT 15SM SKC M05/M08 A3017 RMK SLP252

CYXE;2010-03-20 06:00;CYXE 200600Z 22008KT 15SM SKC M06/M08 A3014 RMK SLP241

CYXE;2010-03-20 07:00;CYXE 200700Z 23009KT 15SM SKC M05/M07 A3012 RMK SLP233

CYXE;2010-03-20 08:00;CYXE 200800Z 23009KT 15SM SKC M06/M07 A3009 RMK SLP225

CYXE;2010-03-20 09:00;CYXE 200900Z 24009KT 15SM SKC M06/M08 A3007 RMK SLP217

CYXE;2010-03-20 10:00;CYXE 201000Z 23008KT 15SM SKC M06/M08 A3004 RMK SLP205

CYXE;2010-03-20 11:00;CYXE 201100Z 23009KT 15SM SKC M06/M08 A3001 RMK SLP198

CYXE;2010-03-20 12:00;CYXE 201200Z 22008KT 15SM OVC250 M05/M07 A3000 RMK CI4 SLP190

CYXE;2010-03-20 13:00;CYXE 201300Z 21008KT 15SM OVC250 M04/M07 A2996 RMK CI6 SLP180

CYXE;2010-03-20 14:00;CYXE 201400Z 22010KT 15SM FEW120 BKN250 M03/M06 A2993 RMK AC2CI2 SLP170

CYXE;2010-03-20 15:00;CYXE 201500Z 22012KT 15SM SCT080 BKN120 M00/M04 A2989 RMK AC4AC2 SLP153

CYXE;2010-03-20 16:00;CYXE 201600Z 22012KT 15SM OVC080 01/M04 A2987 RMK AC6 SLP146

CYXE;2010-03-20 17:00;CYXE 201700Z 26016KT 15SM BKN087 03/M04 A2987 RMK AC6 SLP145

CYXE;2010-03-20 18:00;CYXE 201800Z 28011G16KT 15SM BKN080 BKN250 05/M03 A2985 RMK AC6CI0 SLP136

CYXE;2010-03-20 19:00;CYXE 201900Z 28011KT 15SM FEW085 SCT250 08/M04 A2985 RMK AC2CI0 OBS TAKEN +06 SLP134

CYXE;2010-03-20 20:00;CYXE 202000Z 31014KT 15SM FEW085 SCT250 09/M04 A2984 RMK AC2CI0 SLP133

CYXE;2010-03-20 21:00;CYXE 202100Z 32018KT 15SM FEW085 SCT250 09/M06 A2984 RMK AC1CI0 SLP128

CYXE;2010-03-20 22:00;CYXE 202200Z 32013G18KT 15SM SCT082 BKN250 10/M06 A2983 RMK AC3CI1 SLP124

CYXE;2010-03-20 23:00;CYXE 202300Z 31010G15KT 15SM FEW082 BKN250 10/M06 A2982 RMK AC1CI2 SLP122

CYXE;2010-03-21 00:00;CYXE 210000Z 32006KT 15SM FEW080 BKN250 08/M05 A2982 RMK AC2CI2 SLP121

CYXE;2010-03-21 01:00;CYXE 210100Z 02006KT 12SM FEW080 BKN250 05/M05 A2982 RMK AC1CI2 SLP121

CYXE;2010-03-21 02:00;CYXE 210200Z 08002KT 12SM SCT250 03/M05 A2982 RMK CI2 HZ SLP122

CYXE;2010-03-21 03:00;CYXE 210300Z 07004KT 15SM FEW250 01/M05 A2982 RMK CI1 SLP124

CYXE;2010-03-21 04:00;CYXE 210400Z 05008KT 15SM FEW250 M02/M04 A2983 RMK CI1 SLP128

CYXE;2010-03-21 05:00;CYXE 210500Z 06008KT 15SM SKC M01/M03 A2985 RMK SLP132

CYXE;2010-03-21 06:00;CYXE 210600Z 07008KT 15SM SKC M03/M04 A2986 RMK SLP135

CYXE;2010-03-21 07:00;CYXE 210700Z 08008KT 15SM SKC M02/M04 A2985 RMK SLP134

CYXE;2010-03-21 08:00;CYXE 210800Z 08007KT 15SM SKC M03/M04 A2985 RMK SLP132

CYXE;2010-03-21 09:00;CYXE 210900Z 07006KT 15SM SKC M02/M03 A2985 RMK SLP131

CYXE;2010-03-21 10:00;CYXE 211000Z 10007KT 15SM SKC M02/M03 A2984 RMK SLP126

CYXE;2010-03-21 11:00;CYXE 211100Z 07008KT 15SM SCT210 M02/M03 A2983 RMK CI1 SLP125

CYXE;2010-03-21 11:15;CYXE 211115Z 07009KT 15SM FEW001 BKN210 M03/ RMK SF1CI0

CYXE;2010-03-21 11:20;CYXE 211120Z 07011KT 8SM BKN002 BKN210 M02/ RMK SF5CI0 BR

CYXE;2010-03-21 11:38;CYXE 211138Z 07012KT 3SM BR BKN001 M02/ RMK SF7

CYXE;2010-03-21 11:50;CYXE 211150Z 07014KT 2SM BR OVC001 M02/ RMK SF8

CYXE;2010-03-21 12:00;CYXE 211200Z 07012KT 2SM BR OVC002 M02/M02 A2984 RMK SF8 SLP126

CYXE;2010-03-21 12:23;CYXE 211223Z 07011KT 8SM SCT004 BKN210 M21/ RMK SF2CI2 BR

CYXE;2010-03-21 12:27;CYXE 211227Z CCA 07011KT 8SM SCT004 BKN210 M02/ RMK SF2CI2 BR

CYXE;2010-03-21 13:00;CYXE 211300Z 07009KT 15SM FEW004 OVC210 M03/M03 A2985 RMK SF1CI5 SLP129

CYXE;2010-03-21 14:00;CYXE 211400Z 07010KT 15SM FEW120 OVC250 M03/M03 A2984 RMK AC2CI6 SLP128

CYXE;2010-03-21 15:00;CYXE 211500Z 07010KT 15SM BKN099 OVC260 M02/M02 A2983 RMK AC6CI2 SLP127

CYXE;2010-03-21 16:00;CYXE 211600Z 06010KT 15SM BKN094 OVC270 M00/M02 A2983 RMK AC5CI3 SLP129

CYXE;2010-03-21 17:00;CYXE 211700Z 07012KT 15SM FEW094 OVC280 02/M01 A2983 RMK AC2CI6 SLP127

CYXE;2010-03-21 18:00;CYXE 211800Z 09014KT 15SM OVC280 04/M03 A2981 RMK CS6 SLP120

CYXE;2010-03-21 19:00;CYXE 211900Z 09017KT 15SM FEW100 OVC270 05/M03 A2979 RMK AC2CI3 SLP114

CYXE;2010-03-21 20:00;CYXE 212000Z 10017KT 15SM FEW100 OVC270 05/M03 A2978 RMK AC2CI3 SLP109

CYXE;2010-03-21 21:00;CYXE 212100Z 07015G21KT 15SM SCT110 OVC270 04/M02 A2977 RMK AC3CI2 SLP105

CYXE;2010-03-21 22:00;CYXE 212200Z 09015KT 15SM SCT022 BKN110 OVC270 04/M02 A2978 RMK SC3AC3CI0 SLP108

CYXE;2010-03-21 23:00;CYXE 212300Z 08015G20KT 15SM BKN018 BKN110 OVC270 03/M02 A2977 RMK SC6AC2CI0 SLP106

CYXE;2010-03-22 00:00;CYXE 220000Z 09014G19KT 15SM OVC016 01/M02 A2978 RMK SC8 SLP112

CYXE;2010-03-22 01:00;CYXE 220100Z 09015KT 15SM OVC016 01/M03 A2978 RMK SC8 SLP109

CYXE;2010-03-22 02:00;CYXE 220200Z 08013G19KT 15SM OVC016 00/M03 A2978 RMK SC8 SLP110

CYXE;2010-03-22 03:00;CYXE 220300Z 09011KT 15SM OVC018 00/M03 A2978 RMK SC8 SLP112

CYXE;2010-03-22 04:00;CYXE 220400Z 10010KT 15SM OVC022 M00/M03 A2978 RMK SC8 SLP113

CYXE;2010-03-22 05:00;CYXE 220500Z 11009KT 15SM OVC022 M00/M03 A2978 RMK SC8 SLP112

CYXE;2010-03-22 06:00;CYXE 220600Z 12008KT 15SM OVC022 M00/M04 A2978 RMK SC8 SLP108

CYXE;2010-03-22 07:00;CYXE 220700Z 13007KT 15SM OVC022 M01/M04 A2978 RMK SC8 SLP107

CYXE;2010-03-22 08:00;CYXE 220800Z 14007KT 15SM OVC020 M01/M03 A2976 RMK SC8 SLP103

CYXE;2010-03-22 09:00;CYXE 220900Z 16002KT 15SM OVC018 M01/M03 A2977 RMK SC8 SLP106

CYXE;2010-03-22 10:00;CYXE 221000Z 14003KT 15SM OVC016 M01/M03 A2977 RMK SC8 SLP104

CYXE;2010-03-22 11:00;CYXE 221100Z 16002KT 15SM OVC016 M01/M03 A2978 RMK SC8 SLP107

CYXE;2010-03-22 12:00;CYXE 221200Z 17002KT 15SM OVC016 M01/M03 A2979 RMK SC8 SLP113

CYXE;2010-03-22 12:27;CYXE 221227Z 34002KT 15SM OVC014 M01/ RMK SC8

CYXE;2010-03-22 13:00;CYXE 221300Z 00000KT 15SM OVC014 M01/M03 A2981 RMK SC8 SLP119

CYXE;2010-03-22 14:00;CYXE 221400Z 00000KT 15SM OVC014 M01/M03 A2982 RMK SC8 SLP122

CYXE;2010-03-22 15:00;CYXE 221500Z 00000KT 15SM BKN015 M00/M03 A2982 RMK SC6 SLP123

CYXE;2010-03-22 16:00;CYXE 221600Z 30005KT 15SM SCT016 BKN050 02/M03 A2984 RMK SC4SC2 SLP130

CYXE;2010-03-22 17:00;CYXE 221700Z 26006KT 15SM OVC020 03/M02 A2984 RMK SC8 SLP130

CYXE;2010-03-22 18:00;CYXE 221800Z 29010KT 15SM OVC020 04/M01 A2984 RMK SC8 SLP130

CYXE;2010-03-22 19:00;CYXE 221900Z 32012KT 15SM OVC018 03/M01 A2986 RMK SC8 SLP135

CYXE;2010-03-22 20:00;CYXE 222000Z 32012KT 15SM OVC018 03/M01 A2987 RMK SC8 SLP140

CYXE;2010-03-22 21:00;CYXE 222100Z 32012G17KT 15SM OVC020 03/M02 A2988 RMK SC8 SLP145

CYXE;2010-03-22 22:00;CYXE 222200Z 02015KT 15SM OVC020 01/M03 A2990 RMK SC8 SLP151

CYXE;2010-03-22 23:00;CYXE 222300Z 01010KT 15SM BKN018 01/M03 A2993 RMK SC7 SLP161

CYXE;2010-03-23 00:00;CYXE 230000Z 01008KT 15SM BKN025 BKN250 01/M05 A2996 RMK SC6CI1 SLP170

CYXE;2010-03-23 01:00;CYXE 230100Z 03009KT 15SM FEW030 SCT140 BKN250 M00/M07 A2998 RMK SC1AC1CI2 SLP178

CYXE;2010-03-23 02:00;CYXE 230200Z 04007KT 15SM FEW120 BKN250 M03/M07 A3001 RMK AC1CI2 SLP188

CYXE;2010-03-23 03:00;CYXE 230300Z 04008KT 15SM BKN110 BKN250 M03/M07 A3004 RMK AC5CI1 SLP203

CYXE;2010-03-23 04:00;CYXE 230400Z 03009KT 15SM FEW110 BKN250 M04/M09 A3006 RMK AC1CI2 SLP210

CYXE;2010-03-23 05:00;CYXE 230500Z 03009KT 15SM BKN250 M04/M10 A3009 RMK CI4 SLP217

CYXE;2010-03-23 06:00;CYXE 230600Z 04007KT 15SM BKN280 M05/M10 A3011 RMK CI2 SLP224

CYXE;2010-03-23 07:00;CYXE 230700Z 03005KT 15SM SCT280 M07/M10 A3013 RMK CI1 SLP230

CYXE;2010-03-23 08:00;CYXE 230800Z 03006KT 15SM BKN280 M07/M10 A3015 RMK CI1 SLP238

CYXE;2010-03-23 09:00;CYXE 230900Z 05003KT 15SM FEW280 M09/M11 A3017 RMK CI1 SLP247

CYXE;2010-03-23 10:00;CYXE 231000Z 05005KT 15SM FEW280 M09/M11 A3017 RMK CI1 SLP248

CYXE;2010-03-23 11:00;CYXE 231100Z 06006KT 15SM FEW280 M09/M11 A3017 RMK CI0 SLP249

CYXE;2010-03-23 12:00;CYXE 231200Z 06006KT 15SM SCT280 M09/M11 A3020 RMK CI0 SLP259

CYXE;2010-03-23 13:00;CYXE 231300Z 11006KT 15SM SCT280 M09/M11 A3018 RMK CI1 SLP254

CYXE;2010-03-23 14:00;CYXE 231400Z 14005KT 15SM BKN280 M08/M10 A3018 RMK CI5 SLP253

CYXE;2010-03-23 15:00;CYXE 231500Z 15004KT 15SM FEW050 OVC250 M06/M10 A3020 RMK SC1CI7 SLP260

CYXE;2010-03-23 16:00;CYXE 231600Z 16008KT 15SM BKN050 OVC250 M05/M09 A3017 RMK SC5CI3 SLP250

CYXE;2010-03-23 17:00;CYXE 231700Z 18006KT 15SM BKN040 OVC250 M03/M08 A3017 RMK SC6CI2 SLP250

CYXE;2010-03-23 18:00;CYXE 231800Z 19008KT 15SM OVC033 M01/M07 A3014 RMK SC8 SLP240

CYXE;2010-03-23 18:08;CYXE 231808Z 19006KT 15SM -SN OVC033 M02/ RMK SC8

CYXE;2010-03-23 19:00;CYXE 231900Z 20005KT 5SM -SN OVC033 M01/M06 A3014 RMK SC8 SLP237

CYXE;2010-03-23 19:06;CYXE 231906Z 17006KT 1 1/2SM -SHSN OVC030 M01/ RMK SN2SC6

CYXE;2010-03-23 20:00;CYXE 232000Z 16004KT 1 1/2SM -SHSN OVC030 M00/M03 A3012 RMK SN2SC6 SLP232

CYXE;2010-03-23 20:36;CYXE 232036Z 13005KT 6SM -SHSN FEW006 OVC035 M00/ RMK SF2SC6

CYXE;2010-03-23 21:00;CYXE 232100Z 10005KT 4SM -SHSN FEW006 OVC035 00/M02 A3009 RMK SF2SC6 SLP224

CYXE;2010-03-23 22:00;CYXE 232200Z 07008KT 12SM -SHSN FEW007 OVC035 M00/M02 A3008 RMK SF2SC6 SLP220

CYXE;2010-03-23 22:32;CYXE 232232Z 06007KT 15SM SCT005 OVC045 M00/ RMK SF3SC5

CYXE;2010-03-23 23:00;CYXE 232300Z 08009KT 15SM FEW005 OVC045 M00/M01 A3007 RMK SF2SC6 SLP217

CYXE;2010-03-24 00:00;CYXE 240000Z 05009KT 15SM FEW005 OVC044 M01/M02 A3009 RMK SF2SC6 SLP222

CYXE;2010-03-24 01:00;CYXE 240100Z 04010KT 15SM FEW005 OVC040 M02/M04 A3011 RMK SF1SC7 SLP230

CYXE;2010-03-24 02:00;CYXE 240200Z 03008KT 15SM FEW005 FEW042 SCT250 M04/M05 A3012 RMK SF1SC2CI0 SLP234

CYXE;2010-03-24 03:00;CYXE 240300Z 01010KT 15SM SCT005 OVC017 M04/M05 A3014 RMK SF4SC4 SLP241

CYXE;2010-03-24 04:00;CYXE 240400Z 36008KT 15SM FEW005 FEW017 M06/M07 A3016 RMK SF1SC1 SLP247

CYXE;2010-03-24 05:00;CYXE 240500Z 03007KT 15SM SKC M07/M08 A3016 RMK SLP247

CYXE;2010-03-24 06:00;CYXE 240600Z 04005KT 15SM SCT025 BKN250 M08/M09 A3016 RMK SC3CI1 SLP247

CYXE;2010-03-24 07:00;CYXE 240700Z 08002KT 15SM FEW025 OVC250 M08/M09 A3015 RMK SC1CI2 SLP243

CYXE;2010-03-24 08:00;CYXE 240800Z 26003KT 15SM BKN090 OVC250 M08/M09 A3017 RMK AC5CI1 SLP251

CYXE;2010-03-24 09:00;CYXE 240900Z 26004KT 15SM BKN090 OVC250 M07/M07 A3018 RMK AC6CI2 SLP252

CYXE;2010-03-24 10:00;CYXE 241000Z 30004KT 15SM OVC075 M06/M07 A3018 RMK AC8 SLP252

CYXE;2010-03-24 10:09;CYXE 241009Z 27003KT 15SM -SN OVC070 M06/ RMK AC8

CYXE;2010-03-24 11:00;CYXE 241100Z 32003KT 3SM -SN OVC019 M05/M06 A3018 RMK SC8 SLP254

CYXE;2010-03-24 12:00;CYXE 241200Z 03018KT 2SM -SN OVC020 M07/M08 A3021 RMK SC8 SLP264

CYXE;2010-03-24 13:00;CYXE 241300Z 03018KT 2SM -SN DRSN OVC020 M08/M10 A3025 RMK SC8 SLP277

CYXE;2010-03-24 13:17;CYXE 241317Z 03017KT 1SM R09/P6000FT/D -SN DRSN VV012 M08/ RMK SN8

CYXE;2010-03-24 13:33;CYXE 241333Z 03014G19KT 3/4SM R09/P6000FT/D -SN DRSN VV008 M08/ RMK SN8

CYXE;2010-03-24 14:00;CYXE 241400Z 03018KT 3/4SM R09/P6000FT/N -SN DRSN VV006 M09/M11 A3029 RMK SN8 SLP290

CYXE;2010-03-24 15:00;CYXE 241500Z 01016KT 1SM R09/P6000FT/D -SN DRSN VV005 M11/M12 A3032 RMK SN8 SLP305

CYXE;2010-03-24 15:48;CYXE 241548Z 02015G20KT 4SM -SN DRSN SCT010 OVC030 M11/ RMK SC3SC5

CYXE;2010-03-24 16:00;CYXE 241600Z 01014G20KT 4SM -SN DRSN SCT010 OVC030 M11/M14 A3034 RMK SC3SC5 /S02/ SLP311

CYXE;2010-03-24 17:00;CYXE 241700Z 02013KT 12SM DRSN OVC042 M11/M16 A3035 RMK SC8 SLP316

CYXE;2010-03-24 18:00;CYXE 241800Z 05014KT 15SM SCT040 OVC070 M10/M17 A3036 RMK SC4AC4 SLP324

CYXE;2010-03-24 19:00;CYXE 241900Z 05012KT 15SM BKN070 M11/M20 A3038 RMK AC6 SLP328

CYXE;2010-03-24 20:00;CYXE 242000Z 07011KT 15SM SCT070 BKN250 M10/M20 A3038 RMK AC3CI1 SLP330

CYXE;2010-03-24 21:00;CYXE 242100Z 05009KT 15SM SCT080 BKN250 M11/M21 A3039 RMK AC3CI1 SLP330

CYXE;2010-03-24 22:00;CYXE 242200Z 07011KT 15SM FEW099 BKN250 M11/M20 A3039 RMK AC2CI1 SLP330

CYXE;2010-03-24 23:00;CYXE 242300Z 09007KT 15SM FEW250 M11/M21 A3040 RMK CI1 SLP333

CYXE;2010-03-25 00:00;CYXE 250000Z 08006KT 15SM BKN250 M11/M21 A3038 RMK CI1 SLP329

CYXE;2010-03-25 01:00;CYXE 250100Z 08004KT 15SM FEW250 M12/M21 A3037 RMK CI0 SLP325

CYXE;2010-03-25 02:00;CYXE 250200Z 11005KT 15SM SKC M13/M21 A3037 RMK SLP326

CYXE;2010-03-25 03:00;CYXE 250300Z 14005KT 15SM SKC M14/M22 A3035 RMK SLP323

CYXE;2010-03-25 04:00;CYXE 250400Z 15005KT 15SM SKC M14/M22 A3035 RMK SLP323

CYXE;2010-03-25 05:00;CYXE 250500Z 14005KT 15SM SKC M15/M22 A3035 RMK SLP321

CYXE;2010-03-25 06:00;CYXE 250600Z 14006KT 15SM SKC M15/M21 A3032 RMK SLP311

CYXE;2010-03-25 07:00;CYXE 250700Z 15005KT 15SM SCT250 M15/M21 A3030 RMK CI1 SLP307

CYXE;2010-03-25 08:00;CYXE 250800Z 16005KT 15SM FEW080 SCT250 M15/M21 A3028 RMK AC2CI0 SLP300

CYXE;2010-03-25 09:00;CYXE 250900Z 15006KT 15SM BKN081 M14/M20 A3026 RMK AC7 SLP290

CYXE;2010-03-25 10:00;CYXE 251000Z 14011KT 15SM BKN084 M14/M22 A3022 RMK AC7 SLP277

CYXE;2010-03-25 11:00;CYXE 251100Z 15008KT 15SM OVC073 M13/M21 A3019 RMK AC7 SLP268

CYXE;2010-03-25 12:00;CYXE 251200Z 15009KT 15SM OVC070 M13/M21 A3015 RMK AC7 SLP253

CYXE;2010-03-25 13:00;CYXE 251300Z 14008KT 15SM BKN067 M12/M20 A3012 RMK AC6 SLP243

CYXE;2010-03-25 14:00;CYXE 251400Z 15007KT 15SM BKN083 BKN250 M12/M18 A3009 RMK AC5CI1 SLP232

CYXE;2010-03-25 15:00;CYXE 251500Z 15008KT 15SM BKN071 M11/M15 A3005 RMK AC6 SLP219

CYXE;2010-03-25 16:00;CYXE 251600Z 16008KT 15SM BKN073 M09/M13 A3002 RMK AC6 SLP211

CYXE;2010-03-25 17:00;CYXE 251700Z 15010G15KT 15SM -SN BKN018 OVC075 M07/M11 A2999 RMK SC5AC3 SLP200

CYXE;2010-03-25 18:00;CYXE 251800Z 17012KT 15SM OVC016 M06/M09 A2994 RMK SC8 SLP180

CYXE;2010-03-25 19:00;CYXE 251900Z 15012KT 15SM OVC016 M04/M07 A2991 RMK SC8 SLP168

CYXE;2010-03-25 20:00;CYXE 252000Z 17012KT 15SM OVC016 M03/M06 A2987 RMK SC8 SLP158

CYXE;2010-03-25 21:00;CYXE 252100Z 16011KT 15SM OVC016 M03/M06 A2985 RMK SC8 SLP144

CYXE;2010-03-25 22:00;CYXE 252200Z 17010G15KT 15SM OVC016 M01/M05 A2981 RMK SC8 SLP133

CYXE;2010-03-25 23:00;CYXE 252300Z 16015KT 15SM OVC016 M01/M04 A2977 RMK SC8 SLP119

CYXE;2010-03-26 00:00;CYXE 260000Z 15010KT 15SM OVC018 M00/M04 A2973 RMK SC8 SLP103

CYXE;2010-03-26 01:00;CYXE 260100Z 18014KT 15SM BKN018 00/M03 A2969 RMK SC7 SLP089

CYXE;2010-03-26 02:00;CYXE 260200Z 18014KT 15SM BKN018 M00/M03 A2968 RMK SC7 SLP085

CYXE;2010-03-26 03:00;CYXE 260300Z 17010KT 15SM BKN018 M00/M03 A2966 RMK SC7 SLP075

CYXE;2010-03-26 04:00;CYXE 260400Z 18012KT 15SM FEW018 M01/M03 A2964 RMK SC2 SLP069

CYXE;2010-03-26 05:00;CYXE 260500Z 17009KT 15SM SKC M02/M04 A2962 RMK SLP064

CYXE;2010-03-26 06:00;CYXE 260600Z 17006KT 12SM SKC M03/M04 A2961 RMK BR SLP059

CYXE;2010-03-26 07:00;CYXE 260700Z 17007KT 12SM SKC M03/M04 A2961 RMK BR SLP057

CYXE;2010-03-26 08:00;CYXE 260800Z 16007KT 12SM SKC M04/M05 A2959 RMK BR SLP051

CYXE;2010-03-26 09:00;CYXE 260900Z 08004KT 10SM SKC M05/M05 A2959 RMK BR SLP049

CYXE;2010-03-26 10:00;CYXE 261000Z 10005KT 10SM OVC021 M06/M06 A2958 RMK SC7 BR SLP047

CYXE;2010-03-26 10:35;CYXE 261035Z 13002KT 10SM FEW006 OVC021 M06/ RMK ST2SC6 BR

CYXE;2010-03-26 10:47;CYXE 261047Z 15007KT 10SM BKN005 OVC021 M04/ RMK ST5SC3 BR

CYXE;2010-03-26 11:00;CYXE 261100Z 14005KT 10SM BKN005 OVC021 M04/M05 A2956 RMK ST6SC2 BR SLP042

CYXE;2010-03-26 11:15;CYXE 261115Z 14004KT 8SM OVC004 M05/ RMK ST8 BR

CYXE;2010-03-26 11:31;CYXE 261131Z 16004KT 8SM OVC003 M04/ RMK ST8 BR

CYXE;2010-03-26 12:00;CYXE 261200Z 12003KT 8SM OVC003 M04/M04 A2957 RMK ST8 BR SLP040

CYXE;2010-03-26 12:51;CYXE 261251Z 15004KT 2SM BR VV002 M03/ RMK FG8

CYXE;2010-03-26 13:00;CYXE 261300Z 12005KT 2SM BR VV002 M03/M03 A2958 RMK FG8 SLP043

CYXE;2010-03-26 13:20;CYXE 261320Z 11004KT 3SM BR OVC002 M03/ RMK ST8

CYXE;2010-03-26 14:00;CYXE 261400Z 06005KT 3SM BR OVC002 M03/M03 A2959 RMK SC8 SLP048

CYXE;2010-03-26 15:00;CYXE 261500Z 06007KT 3SM BR OVC003 M02/M02 A2961 RMK SC8 SLP052

CYXE;2010-03-26 16:00;CYXE 261600Z 05009KT 6SM BR OVC004 M02/M02 A2962 RMK SC8 SLP058

CYXE;2010-03-26 17:00;CYXE 261700Z 05011KT 8SM OVC005 M01/M02 A2965 RMK ST8 BR SLP066

CYXE;2010-03-26 18:00;CYXE 261800Z 02010KT 8SM OVC004 M02/M02 A2967 RMK ST8 BR SLP076

CYXE;2010-03-26 18:05;CYXE 261805Z 03011KT 6SM BR OVC003 M02/ RMK ST8

CYXE;2010-03-26 18:39;CYXE 261839Z 04011KT 8SM OVC006 M01/ RMK ST8 BR

CYXE;2010-03-26 19:00;CYXE 261900Z 05009KT 15SM OVC008 M01/M02 A2969 RMK ST8 SLP081

CYXE;2010-03-26 20:00;CYXE 262000Z 03008KT 15SM OVC008 M01/M02 A2971 RMK ST8 SLP088

CYXE;2010-03-26 21:00;CYXE 262100Z 04008KT 15SM OVC008 M01/M02 A2974 RMK ST8 SLP099

CYXE;2010-03-26 21:49;CYXE 262149Z 03008KT 15SM OVC010 M00/ RMK ST8

CYXE;2010-03-26 22:00;CYXE 262200Z 01009KT 15SM OVC010 M00/M03 A2977 RMK ST8 SLP109

CYXE;2010-03-26 23:00;CYXE 262300Z 03009KT 15SM OVC012 M00/M03 A2980 RMK SC8 SLP119

CYXE;2010-03-27 00:00;CYXE 270000Z 03008KT 15SM OVC016 M00/M03 A2982 RMK SC8 SLP127

CYXE;2010-03-27 01:00;CYXE 270100Z 03007KT 15SM OVC018 M00/M04 A2985 RMK SC8 SLP136

CYXE;2010-03-27 02:00;CYXE 270200Z 00000KT 15SM OVC022 M01/M04 A2988 RMK SC8 SLP145

CYXE;2010-03-27 03:00;CYXE 270300Z 26003KT 15SM BKN030 M02/M04 A2990 RMK SC6 SLP155

CYXE;2010-03-27 04:00;CYXE 270400Z 26005KT 15SM BKN030 M04/M05 A2992 RMK SC6 SLP161

CYXE;2010-03-27 05:00;CYXE 270500Z 23003KT 15SM FEW030 M04/M05 A2993 RMK SC2 SLP165

CYXE;2010-03-27 06:00;CYXE 270600Z 23005KT 15SM FEW030 M05/M06 A2995 RMK SC2 SLP172

CYXE;2010-03-27 07:00;CYXE 270700Z 21005KT 15SM SKC M05/M06 A2996 RMK SLP176

CYXE;2010-03-27 08:00;CYXE 270800Z 22006KT 15SM SKC M06/M07 A2998 RMK SLP182

CYXE;2010-03-27 09:00;CYXE 270900Z 23006KT 15SM FEW020 M05/M06 A2998 RMK SC1 SLP184

CYXE;2010-03-27 10:00;CYXE 271000Z 22007KT 15SM FEW020 SCT040 M05/M06 A2998 RMK SC1SC2 SLP183

CYXE;2010-03-27 11:00;CYXE 271100Z 24004KT 15SM BKN037 M04/M05 A3000 RMK SC6 SLP189

CYXE;2010-03-27 12:00;CYXE 271200Z 23007KT 15SM FEW013 OVC037 M02/M03 A3001 RMK ST2SC6 SLP191

CYXE;2010-03-27 13:00;CYXE 271300Z 22008KT 12SM SCT012 BKN040 OVC070 M02/M02 A3001 RMK SC3SC2AC2 BR SLP189

CYXE;2010-03-27 14:00;CYXE 271400Z 23013KT 12SM SCT008 BKN065 OVC110 M01/M02 A2998 RMK SF2SC3AC1 BR SLP182

CYXE;2010-03-27 14:26;CYXE 271426Z 23012G17KT 12SM BKN006 OVC070 M01/ RMK SF5AC2 BR

CYXE;2010-03-27 15:00;CYXE 271500Z 22012G17KT 10SM BKN006 OVC080 M01/M01 A2999 RMK SF5AC3 BR SLP184

CYXE;2010-03-27 16:00;CYXE 271600Z 22010KT 15SM BKN007 OVC095 01/M01 A3000 RMK SF5AC2 SLP186

CYXE;2010-03-27 16:22;CYXE 271622Z 22011KT 15SM SCT008 BKN095 OVC250 02/ RMK SF3AC2CI2

CYXE;2010-03-27 17:00;CYXE 271700Z 24010KT 15SM FEW010 SCT095 OVC280 03/M00 A3000 RMK SF1AC1CS4 SLP187

CYXE;2010-03-27 18:00;CYXE 271800Z 24009KT 15SM FEW100 OVC300 05/00 A2999 RMK AC1CS6 SLP183

CYXE;2010-03-27 19:00;CYXE 271900Z 25006KT 15SM FEW090 OVC280 07/00 A2998 RMK AC1CI6 SLP181

CYXE;2010-03-27 20:00;CYXE 272000Z 22005KT 15SM BKN280 10/01 A2997 RMK CS4 SLP178

CYXE;2010-03-27 21:00;CYXE 272100Z 28014G19KT 15SM FEW050 FEW100 OVC280 14/M00 A2996 RMK CU1AC1CS3 SLP166

CYXE;2010-03-27 22:00;CYXE 272200Z 30013KT 15SM FEW048 FEW092 OVC280 13/M01 A2995 RMK CF1AC2CS2 SLP163

CYXE;2010-03-27 23:00;CYXE 272300Z 31011KT 15SM FEW052 FEW090 OVC280 12/M02 A2995 RMK SC1AC1CS2 SLP165

CYXE;2010-03-28 00:00;CYXE 280000Z 31008KT 15SM FEW050 FEW090 OVC280 11/M02 A2996 RMK SC1AC1CS2 SLP167

CYXE;2010-03-28 01:00;CYXE 280100Z 31006KT 15SM FEW090 OVC280 07/M01 A2996 RMK AC2CS2 SLP168

CYXE;2010-03-28 02:00;CYXE 280200Z 32003KT 15SM BKN280 07/M02 A2996 RMK CI2 SLP168

CYXE;2010-03-28 03:00;CYXE 280300Z 27004KT 15SM SCT280 05/M02 A2997 RMK CI1 SLP173

CYXE;2010-03-28 04:00;CYXE 280400Z 22006KT 15SM SCT280 01/M03 A2996 RMK CI0 SLP171

CYXE;2010-03-28 05:00;CYXE 280500Z 21005KT 15SM BKN280 01/M03 A2996 RMK CI0 SLP170

CYXE;2010-03-28 06:00;CYXE 280600Z 20005KT 15SM FEW280 01/M03 A2996 RMK CI0 SLP168

CYXE;2010-03-28 07:00;CYXE 280700Z 20005KT 15SM SKC 00/M03 A2995 RMK SLP166

CYXE;2010-03-28 08:00;CYXE 280800Z 19005KT 15SM SKC M00/M03 A2992 RMK SLP157

CYXE;2010-03-28 09:00;CYXE 280900Z 18004KT 15SM SKC 00/M03 A2992 RMK SLP152

CYXE;2010-03-28 10:00;CYXE 281000Z 21003KT 15SM SKC M01/M03 A2991 RMK SLP146

CYXE;2010-03-28 11:00;CYXE 281100Z 20007KT 15SM SKC M02/M04 A2988 RMK SLP139

CYXE;2010-03-28 12:00;CYXE 281200Z 20007KT 15SM FEW280 M01/M03 A2987 RMK CI1 SLP135

CYXE;2010-03-28 13:00;CYXE 281300Z 19007KT 15SM FEW280 M01/M03 A2985 RMK CI1 SLP130

CYXE;2010-03-28 14:00;CYXE 281400Z 20006KT 15SM SCT150 BKN280 01/M02 A2983 RMK AC2CI2 SLP121

CYXE;2010-03-28 15:00;CYXE 281500Z 19006KT 15SM BKN130 OVC280 03/M02 A2981 RMK AC5CI2 SLP114

CYXE;2010-03-28 16:00;CYXE 281600Z 21006KT 15SM SCT120 OVC230 05/M01 A2979 RMK AC2CI4 SLP108

CYXE;2010-03-28 17:00;CYXE 281700Z 20007KT 15SM FEW080 BKN240 07/M01 A2976 RMK AC2CI4 SLP100

CYXE;2010-03-28 18:00;CYXE 281800Z 19008KT 15SM FEW100 BKN250 10/M00 A2973 RMK AC1CI4 SLP086

CYXE;2010-03-28 19:00;CYXE 281900Z 19010KT 15SM FEW100 OVC250 14/M00 A2967 RMK AC1CI6 SLP067

CYXE;2010-03-28 20:00;CYXE 282000Z 19012G17KT 15SM FEW120 OVC270 16/M03 A2963 RMK AC1CI6 SLP055

CYXE;2010-03-28 21:00;CYXE 282100Z 22014G19KT 15SM FEW120 OVC270 16/M07 A2959 RMK AC1CI6 PRESFR SLP035

CYXE;2010-03-28 22:00;CYXE 282200Z 23013G18KT 15SM SCT120 OVC280 17/M06 A2955 RMK AC2CI4 SLP023

CYXE;2010-03-28 23:00;CYXE 282300Z 23011KT 15SM SCT066 OVC280 15/M04 A2952 RMK AC3CI3 SLP013

CYXE;2010-03-29 00:00;CYXE 290000Z 21008KT 15SM SCT066 BKN120 OVC280 15/M04 A2949 RMK AC3AC2CI2 SLP002

CYXE;2010-03-29 01:00;CYXE 290100Z 18008KT 15SM BKN120 OVC280 12/M04 A2944 RMK AC5CI2 SLP987

CYXE;2010-03-29 02:00;CYXE 290200Z 20010KT 15SM BKN120 OVC280 12/M03 A2942 RMK AC6CI2 SLP981

CYXE;2010-03-29 03:00;CYXE 290300Z 23009KT 15SM BKN120 OVC280 09/M02 A2941 RMK AC3CI2 SLP975

CYXE;2010-03-29 04:00;CYXE 290400Z 23014KT 15SM BKN120 11/M03 A2939 RMK AC2 SLP970

CYXE;2010-03-29 05:00;CYXE 290500Z 24014KT 15SM SKC 09/M02 A2937 RMK SLP964

CYXE;2010-03-29 06:00;CYXE 290600Z 24014G19KT 15SM SKC 08/M01 A2935 RMK SLP951

CYXE;2010-03-29 07:00;CYXE 290700Z 24013KT 15SM SKC 07/M01 A2934 RMK SLP949

CYXE;2010-03-29 08:00;CYXE 290800Z CCA 25011KT 15SM SKC 05/M02 A2933 RMK SLP946

CYXE;2010-03-29 09:00;CYXE 290900Z 25011KT 15SM SKC 05/M02 A2933 RMK SLP943

CYXE;2010-03-29 10:00;CYXE 291000Z 27010KT 15SM SKC 03/M02 A2934 RMK SLP945

CYXE;2010-03-29 11:00;CYXE 291100Z 25010KT 15SM SKC 02/M02 A2936 RMK SLP952

CYXE;2010-03-29 12:00;CYXE 291200Z 25009KT 15SM FEW100 01/M03 A2936 RMK AC2 SLP958

CYXE;2010-03-29 13:00;CYXE 291300Z 23008KT 15SM SKC M01/M03 A2935 RMK SLP954

CYXE;2010-03-29 14:00;CYXE 291400Z 22005KT 15SM FEW280 02/M02 A2934 RMK CI0 SLP952

CYXE;2010-03-29 15:00;CYXE 291500Z 23013KT 15SM BKN250 05/M02 A2934 RMK CI2 SLP951

CYXE;2010-03-29 16:00;CYXE 291600Z 24009KT 15SM BKN280 08/M01 A2932 RMK CI2 SLP945

CYXE;2010-03-29 17:00;CYXE 291700Z 21009KT 15SM FEW120 BKN260 11/M01 A2929 RMK AC1CI4 SLP936

CYXE;2010-03-29 18:00;CYXE 291800Z 20011G16KT 15SM FEW120 OVC260 14/00 A2924 RMK AC2CI4 SLP913

CYXE;2010-03-29 19:00;CYXE 291900Z 22009G16KT 15SM BKN075 OVC250 15/01 A2921 RMK AC5CI2 SLP901

CYXE;2010-03-29 20:00;CYXE 292000Z 22012KT 15SM FEW060 SCT090 BKN250 16/01 A2918 RMK SC1AC2CI3 SLP893

CYXE;2010-03-29 21:00;CYXE 292100Z 23009G15KT 15SM SCT083 BKN300 16/01 A2914 RMK AC4CI2 SLP878

CYXE;2010-03-29 22:00;CYXE 292200Z 19009KT 15SM FEW078 BKN120 BKN300 16/02 A2910 RMK AC2AC2CI2 SLP865

CYXE;2010-03-29 23:00;CYXE 292300Z 14011KT 15SM BKN080 BKN300 16/03 A2906 RMK AC5CI2 SLP853

CYXE;2010-03-30 00:00;CYXE 300000Z 23008KT 15SM SCT080 BKN300 16/01 A2904 RMK AC3CI2 SLP846

CYXE;2010-03-30 01:00;CYXE 300100Z 19007KT 15SM SCT120 BKN300 15/01 A2901 RMK AC4CI1 SLP837

CYXE;2010-03-30 02:00;CYXE 300200Z 19007KT 15SM BKN100 BKN300 13/01 A2898 RMK AC5CI2 LTNG DIST SW SLP829

CYXE;2010-03-30 03:00;CYXE 300300Z 21015G24KT 15SM BKN100 OVC300 14/00 A2898 RMK AC6CI2 SLP824

CYXE;2010-03-30 04:00;CYXE 300400Z 21015KT 15SM SCT100 BKN300 13/02 A2897 RMK AC3CI0 SLP821

CYXE;2010-03-30 05:00;CYXE 300500Z 23016KT 15SM FEW100 09/02 A2899 RMK AC2 SLP828

CYXE;2010-03-30 06:00;CYXE 300600Z 23016KT 15SM FEW100 FEW270 09/01 A2899 RMK AC2CI0 SLP826

CYXE;2010-03-30 07:00;CYXE 300700Z 24021G27KT 15SM FEW100 SCT270 08/00 A2899 RMK AC2CI0 SLP827

CYXE;2010-03-30 08:00;CYXE 300800Z 25015KT 15SM BKN110 07/M01 A2901 RMK AC6 SLP831

CYXE;2010-03-30 09:00;CYXE 300900Z 27011G16KT 15SM BKN110 06/M01 A2902 RMK AC6 SLP836

CYXE;2010-03-30 10:00;CYXE 301000Z 23008KT 15SM SCT110 03/M02 A2902 RMK AC4 SLP835

CYXE;2010-03-30 10:33;CYXE 301033Z 24006KT 15SM FEW110 SCT270 02/ RMK AC2CI0

CYXE;2010-03-30 11:00;CYXE 301100Z 22008KT 15SM FEW110 BKN270 02/M02 A2903 RMK AC2CI0 SLP839

CYXE;2010-03-30 12:00;CYXE 301200Z 23004KT 15SM FEW110 BKN270 02/M02 A2904 RMK AC2CI0 SLP845

CYXE;2010-03-30 13:00;CYXE 301300Z 26007KT 15SM SCT100 01/M02 A2907 RMK AC2 SLP854

CYXE;2010-03-30 14:00;CYXE 301400Z 22009KT 15SM SCT100 01/M02 A2907 RMK AC2 SLP855

CYXE;2010-03-30 15:00;CYXE 301500Z 23008KT 15SM SCT100 04/M02 A2909 RMK AC2 SLP862

CYXE;2010-03-30 16:00;CYXE 301600Z 23010KT 15SM SCT250 08/M01 A2907 RMK CI2 SLP858

CYXE;2010-03-30 17:00;CYXE 301700Z 25009KT 15SM FEW250 10/M02 A2908 RMK CI1 SLP861

CYXE;2010-03-30 18:00;CYXE 301800Z 25011G17KT 15SM FEW070 FEW250 13/M05 A2907 RMK CF1CI1 SLP852

CYXE;2010-03-30 19:00;CYXE 301900Z 25012G19KT 15SM FEW075 FEW250 14/M06 A2906 RMK CU1CI1 SLP850

CYXE;2010-03-30 20:00;CYXE 302000Z 24011G20KT 15SM FEW080 BKN250 13/M07 A2905 RMK CU1CI5 SLP848

CYXE;2010-03-30 21:00;CYXE 302100Z 25014KT 15SM FEW080 BKN250 13/M06 A2904 RMK CU2CI3 SLP846

CYXE;2010-03-30 22:00;CYXE 302200Z 23012G18KT 15SM FEW080 SCT120 BKN250 14/M06 A2905 RMK CU2AC1CI2 SLP849

CYXE;2010-03-30 23:00;CYXE 302300Z 25017G24KT 15SM VCSH BKN084 BKN120 14/M09 A2905 RMK CU6AC1 TCU EMBD SLP848

CYXE;2010-03-31 00:00;CYXE 310000Z 26016G22KT 15SM VCSH BKN090TCU BKN120 BKN250 13/M09 A2906 RMK TCU5AC2CI0 SLP853

CYXE;2010-03-31 01:00;CYXE 310100Z 27009KT 15SM VCSH FEW090TCU SCT120 BKN250 09/M07 A2908 RMK TCU2AC1CI1 SLP861

CYXE;2010-03-31 02:00;CYXE 310200Z 27007KT 15SM SCT090 BKN250 04/M06 A2910 RMK CU2CI1 SLP867

CYXE;2010-03-31 03:00;CYXE 310300Z 26009KT 15SM FEW090 05/M05 A2911 RMK AC2 SLP875

CYXE;2010-03-31 04:00;CYXE 310400Z 26009KT 15SM FEW090 04/M05 A2914 RMK AC2 SLP884

CYXE;2010-03-31 05:00;CYXE 310500Z 25009KT 15SM SCT090 03/M05 A2915 RMK AC1 SLP889

CYXE;2010-03-31 06:00;CYXE 310600Z 25010KT 15SM FEW090 02/M04 A2917 RMK AC1 SLP891

CYXE;2010-03-31 07:00;CYXE 310700Z 25009KT 15SM SCT270 01/M05 A2918 RMK CI0 SLP894

CYXE;2010-03-31 08:00;CYXE 310800Z 26009KT 15SM SCT270 00/M05 A2920 RMK CI0 SLP901

CYXE;2010-03-31 09:00;CYXE 310900Z 26009KT 15SM SCT270 M01/M06 A2921 RMK CI0 SLP909

CYXE;2010-03-31 10:00;CYXE 311000Z 25008KT 15SM BKN270 M01/M05 A2923 RMK CI0 SLP914

CYXE;2010-03-31 11:00;CYXE 311100Z 25008KT 15SM BKN270 M00/M05 A2925 RMK CI0 SLP919

CYXE;2010-03-31 12:00;CYXE 311200Z 28015KT 15SM FEW030 FEW080 BKN270 02/M03 A2927 RMK SC2AC1CI1 SLP926

CYXE;2010-03-31 13:00;CYXE 311300Z 27012KT 15SM BKN022 OVC080 03/M03 A2930 RMK SC6AC2 SLP935

CYXE;2010-03-31 14:00;CYXE 311400Z 28017KT 15SM BKN020 OVC080 04/M02 A2932 RMK SC6AC2 SLP943

CYXE;2010-03-31 15:00;CYXE 311500Z CCA 26013G18KT 15SM SCT020 OVC062 04/M04 A2934 RMK SC3SC5 SLP955

CYXE;2010-03-31 16:00;CYXE 311600Z 27016KT 15SM FEW020 BKN070 OVC250 05/M01 A2936 RMK SC1AC5CI2 SLP960

CYXE;2010-03-31 17:00;CYXE 311700Z 28019KT 15SM FEW020 BKN074 OVC280 08/M01 A2938 RMK SC1AC5CI2 SLP967

CYXE;2010-03-31 18:00;CYXE 311800Z 28018G24KT 15SM FEW060 BKN100 OVC280 10/M01 A2939 RMK SC2AC4CI1 SLP969

CYXE;2010-03-31 19:00;CYXE 311900Z 29018G27KT 15SM FEW020 BKN100 OVC280 08/00 A2941 RMK CF2AC4CI2 SLP977

CYXE;2010-03-31 20:00;CYXE 312000Z 29022KT 15SM BKN050 OVC120 09/00 A2943 RMK SC5AC3 SLP982

CYXE;2010-03-31 21:00;CYXE 312100Z 29018G28KT 15SM BKN050 OVC120 10/M01 A2944 RMK SC5AC3 SLP987

CYXE;2010-03-31 22:00;CYXE 312200Z 29019G27KT 15SM SCT050 OVC074 09/M03 A2945 RMK SC3AC4 SLP992

CYXE;2010-03-31 23:00;CYXE 312300Z 30025KT 15SM SCT050 BKN084 BKN280 10/M03 A2946 RMK SC3AC2CI1 SLP995

CYXE;2010-04-01 01:00;CYXE 010100Z 28013G18KT 15SM FEW040 BKN094 BKN280 09/M04 A2949 RMK SC1AC3CI2 SLP004

CYXE;2010-04-01 02:00;CYXE 010200Z 27008KT 15SM BKN100 BKN280 06/M05 A2952 RMK AC5CI2 SLP012

CYXE;2010-04-01 03:00;CYXE 010300Z 23007KT 15SM SCT100 BKN280 02/M05 A2955 RMK AC3CI1 SLP029

CYXE;2010-04-01 04:00;CYXE 010400Z 23007KT 15SM FEW100 OVC280 01/M04 A2957 RMK AC1CI2 SLP036

CYXE;2010-04-01 05:00;CYXE 010500Z 25005KT 15SM FEW100 SCT280 M00/M04 A2958 RMK AC1CI1 SLP039

CYXE;2010-04-01 06:00;CYXE 010600Z 24008KT 15SM FEW100 FEW280 M02/M05 A2959 RMK AC1CI0 SLP040

CYXE;2010-04-01 07:00;CYXE 010700Z 25008KT 15SM SKC M04/M06 A2960 RMK SLP043

CYXE;2010-04-01 08:00;CYXE 010800Z 27006KT 15SM SKC M04/M06 A2962 RMK SLP049

CYXE;2010-04-01 09:00;CYXE 010900Z 27007KT 15SM SKC M04/M06 A2962 RMK SLP053

CYXE;2010-04-01 10:00;CYXE 011000Z 23007KT 15SM SKC M05/M07 A2963 RMK SLP055

CYXE;2010-04-01 11:00;CYXE 011100Z 23006KT 15SM SKC M05/M06 A2965 RMK SLP060

CYXE;2010-04-01 12:00;CYXE 011200Z 21007KT 15SM FEW270 M04/M06 A2966 RMK CI1 SLP065

CYXE;2010-04-01 13:00;CYXE 011300Z 25007KT 15SM FEW270 M05/M07 A2966 RMK CI0 SLP066

CYXE;2010-04-01 14:00;CYXE 011400Z 22006KT 15SM SKC M01/M04 A2969 RMK SLP075

CYXE;2010-04-01 15:00;CYXE 011500Z 20005KT 15SM SKC 02/M04 A2970 RMK SLP081

CYXE;2010-04-01 16:00;CYXE 011600Z 26005KT 15SM SKC 05/M03 A2971 RMK SLP083

CYXE;2010-04-01 17:00;CYXE 011700Z 26004KT 15SM FEW100 08/M02 A2970 RMK AC1 SLP081

CYXE;2010-04-01 18:00;CYXE 011800Z 32007KT 15SM FEW062 FEW300 10/M05 A2969 RMK CU1CI0 SLP075

CYXE;2010-04-01 19:00;CYXE 011900Z 34003KT 15SM FEW068 FEW300 12/M06 A2969 RMK CU2CI0 SLP073

CYXE;2010-04-01 20:00;CYXE 012000Z 32009KT 15SM SCT071 BKN300 11/M07 A2968 RMK CU4CI1 SLP070

CYXE;2010-04-01 22:00;CYXE 012200Z 28019KT 15SM -SHRA BKN070TCU 08/M03 A2969 RMK TCU6 SLP077

CYXE;2010-04-01 22:24;CYXE 012224Z 30003KT 15SM VCSH BKN070 10/ RMK CU5 FEW TCU

CYXE;2010-04-01 23:00;CYXE 012300Z 29006KT 15SM VCSH BKN070 11/M04 A2969 RMK CU5 FEW TCU SLP075

CYXE;2010-04-02 00:00;CYXE 020000Z 27007KT 15SM VCSH BKN070 09/M04 A2971 RMK CU7 FEW TCU SLP083

CYXE;2010-04-02 01:00;CYXE 020100Z 27009KT 15SM VCSH BKN070 06/M02 A2973 RMK CU6 FEW TCU SLP089

CYXE;2010-04-02 02:00;CYXE 020200Z 23004KT 15SM SCT070 04/M04 A2971 RMK AC2 SLP083

CYXE;2010-04-02 03:00;CYXE 020300Z 00000KT 15SM FEW070 02/M03 A2972 RMK AC1 SLP086

CYXE;2010-04-02 04:00;CYXE 020400Z 25005KT 15SM SKC 02/M02 A2972 RMK SLP087

CYXE;2010-04-02 05:00;CYXE 020500Z 21007KT 15SM SKC M02/M04 A2973 RMK SLP089

CYXE;2010-04-02 06:00;CYXE 020600Z 29005KT 15SM SKC M05/M06 A2973 RMK SLP090

CYXE;2010-04-02 07:00;CYXE 020700Z 21006KT 15SM SKC M03/M04 A2973 RMK SLP090

CYXE;2010-04-02 08:00;CYXE 020800Z 23005KT 15SM SKC M03/M04 A2972 RMK SLP086

CYXE;2010-04-02 09:00;CYXE 020900Z 19004KT 15SM SKC M04/M04 A2971 RMK SLP083

CYXE;2010-04-02 10:00;CYXE 021000Z 23003KT 15SM SKC M03/M04 A2972 RMK SLP085

CYXE;2010-04-02 11:00;CYXE 021100Z 22004KT 15SM SKC M05/M05 A2972 RMK SLP085

CYXE;2010-04-02 12:00;CYXE 021200Z 19005KT 15SM SKC M04/M04 A2972 RMK SLP088

CYXE;2010-04-02 13:00;CYXE 021300Z 18004KT 15SM SKC M04/M05 A2973 RMK SLP090

CYXE;2010-04-02 14:00;CYXE 021400Z 18004KT 15SM SKC M02/M03 A2973 RMK SLP091

CYXE;2010-04-02 15:00;CYXE 021500Z 23004KT 15SM SKC 02/M01 A2971 RMK SLP085

CYXE;2010-04-02 16:00;CYXE 021600Z 24003KT 15SM SKC 06/M02 A2970 RMK SLP080

CYXE;2010-04-02 17:00;CYXE 021700Z 22002KT 15SM SKC 09/M02 A2968 RMK SLP075

CYXE;2010-04-02 18:00;CYXE 021800Z 20005KT 15SM SKC 11/M06 A2965 RMK SLP060

CYXE;2010-04-02 19:00;CYXE 021900Z 17007KT 15SM FEW055 12/M07 A2962 RMK CU1 SLP051

CYXE;2010-04-02 20:00;CYXE 022000Z 17006KT 15SM SCT080 13/M08 A2959 RMK AC3 SLP043

CYXE;2010-04-02 21:00;CYXE 022100Z 18005G26KT 15SM VCSH BKN090 11/M08 A2957 RMK CU6 FEW TCU SLP033

CYXE;2010-04-02 22:00;CYXE 022200Z 17006G16KT 15SM SCT090 12/M08 A2954 RMK CU4 SLP024

CYXE;2010-04-02 23:00;CYXE 022300Z 18008KT 15SM FEW090 13/M09 A2951 RMK CU2 SLP015

CYXE;2010-04-03 00:00;CYXE 030000Z 15007G15KT 15SM FEW090 12/M08 A2950 RMK CU2 SLP008

CYXE;2010-04-03 01:00;CYXE 030100Z 13012KT 15SM FEW090 11/M08 A2949 RMK AC2 SLP006

CYXE;2010-04-03 02:00;CYXE 030200Z 12007KT 15SM FEW090 07/M07 A2948 RMK AC2 SLP004

CYXE;2010-04-03 03:00;CYXE 030300Z 14009KT 15SM FEW090 06/M06 A2948 RMK AC2 SLP002

CYXE;2010-04-03 04:00;CYXE 030400Z 14010KT 15SM FEW090 05/M06 A2947 RMK AC1 SLP998

CYXE;2010-04-03 05:00;CYXE 030500Z 14009KT 15SM SKC 04/M06 A2945 RMK SLP993

CYXE;2010-04-03 06:00;CYXE 030600Z 15011KT 15SM SKC 04/M08 A2944 RMK SLP984

CYXE;2010-04-03 07:00;CYXE 030700Z 15008KT 15SM SKC 03/M08 A2943 RMK SLP982

CYXE;2010-04-03 08:00;CYXE 030800Z 16007KT 15SM SKC 01/M07 A2943 RMK SLP980

CYXE;2010-04-03 09:00;CYXE 030900Z 14006KT 15SM SKC M01/M07 A2942 RMK SLP979

CYXE;2010-04-03 10:00;CYXE 031000Z 16006KT 15SM SKC M01/M07 A2941 RMK SLP977

CYXE;2010-04-03 11:00;CYXE 031100Z 16006KT 15SM FEW250 M01/M07 A2941 RMK CI0 SLP977

CYXE;2010-04-03 12:00;CYXE 031200Z 13006KT 15SM FEW080 FEW250 M02/M07 A2940 RMK AC1CI0 SLP974

CYXE;2010-04-03 13:00;CYXE 031300Z 14005KT 15SM FEW100 SCT250 M02/M07 A2940 RMK AC1CI2 SLP973

CYXE;2010-04-03 14:00;CYXE 031400Z 14004KT 15SM FEW100 SCT250 02/M05 A2940 RMK AC1CI2 SLP973

CYXE;2010-04-03 15:00;CYXE 031500Z 15009KT 15SM FEW100 SCT250 05/M06 A2939 RMK AC2CI1 SLP972

CYXE;2010-04-03 16:00;CYXE 031600Z 18009KT 15SM FEW250 07/M05 A2939 RMK CI0 SLP972

CYXE;2010-04-03 17:00;CYXE 031700Z 21009KT 15SM SCT098 BKN250 09/M07 A2939 RMK AC3CI0 SLP972

CYXE;2010-04-03 18:00;CYXE 031800Z 19006KT 15SM SCT080 BKN250 09/M05 A2940 RMK AC3CI0 SLP971

CYXE;2010-04-03 19:00;CYXE 031900Z 22011KT 15SM SCT082 BKN250 13/M06 A2939 RMK AC3CI1 SLP969

CYXE;2010-04-03 20:00;CYXE 032000Z 20010G15KT 15SM FEW082 SCT250 13/M06 A2939 RMK AC2CI1 SLP970

CYXE;2010-04-03 21:00;CYXE 032100Z 18010KT 15SM FEW080 SCT250 13/M07 A2939 RMK AC2CI1 SLP968

CYXE;2010-04-03 22:00;CYXE 032200Z 21005KT 15SM SCT088 BKN250 14/M06 A2939 RMK CU4CI1 SLP968

CYXE;2010-04-03 23:00;CYXE 032300Z 16003KT 15SM SCT090 BKN250 14/M06 A2939 RMK CU3CI1 SLP968

CYXE;2010-04-04 00:00;CYXE 040000Z 21007KT 15SM SCT090 BKN250 13/M08 A2939 RMK CU2CI2 SLP970

CYXE;2010-04-04 01:00;CYXE 040100Z 17005KT 15SM FEW090 BKN250 12/M07 A2939 RMK AC2CI2 SLP971

CYXE;2010-04-04 02:00;CYXE 040200Z 20006KT 15SM FEW090 BKN250 08/M08 A2940 RMK AC1CI2 SLP974

CYXE;2010-04-04 03:00;CYXE 040300Z 18005KT 15SM FEW090 BKN250 07/M08 A2941 RMK AC1CI2 SLP976

CYXE;2010-04-04 04:00;CYXE 040400Z 16007KT 15SM SCT250 05/M07 A2942 RMK CI0 SLP979

CYXE;2010-04-04 05:00;CYXE 040500Z 17008KT 15SM FEW250 03/M08 A2942 RMK CI0 SLP979

CYXE;2010-04-04 06:00;CYXE 040600Z 20007KT 15SM SKC 02/M08 A2942 RMK SLP981

CYXE;2010-04-04 07:00;CYXE 040700Z 22008KT 15SM SKC 01/M08 A2943 RMK SLP982

CYXE;2010-04-04 08:00;CYXE 040800Z 21008KT 15SM SKC M00/M08 A2943 RMK SLP982

CYXE;2010-04-04 09:00;CYXE 040900Z 20006KT 15SM FEW250 M01/M08 A2943 RMK CI0 SLP983

CYXE;2010-04-04 10:00;CYXE 041000Z 21006KT 15SM SCT250 M02/M08 A2943 RMK CI2 SLP983

CYXE;2010-04-04 11:00;CYXE 041100Z 21007KT 15SM SCT100 BKN250 M01/M07 A2943 RMK AC3CI2 SLP983

CYXE;2010-04-04 12:00;CYXE 041200Z 21006KT 15SM SCT110 BKN250 M01/M07 A2944 RMK AC2CI2 SLP987

CYXE;2010-04-04 13:00;CYXE 041300Z 20006KT 15SM SCT120 BKN250 M02/M07 A2945 RMK AC3CI2 SLP991

CYXE;2010-04-04 14:00;CYXE 041400Z 24006KT 15SM FEW020 SCT120 BKN280 M02/M06 A2946 RMK SC1AC2CI2 SLP994

CYXE;2010-04-04 15:00;CYXE 041500Z 25006KT 15SM FEW025 FEW120 OVC280 01/M05 A2947 RMK SC1AC1CI2 SLP999

CYXE;2010-04-04 16:00;CYXE 041600Z 28009KT 15SM FEW035 FEW120 BKN280 04/M06 A2948 RMK SC1AC1CI2 SLP002

CYXE;2010-04-04 17:00;CYXE 041700Z 27006KT 15SM FEW040 SCT120 BKN280 07/M05 A2949 RMK SC1AC2CI2 SLP005

CYXE;2010-04-04 18:00;CYXE 041800Z 32010KT 15SM FEW050TCU SCT120 BKN280 11/M05 A2949 RMK TCU1AC2CI2 SLP002

CYXE;2010-04-04 19:00;CYXE 041900Z 31009KT 15SM FEW060TCU SCT120 BKN280 14/M05 A2949 RMK TCU2AC1CI2 SLP002

CYXE;2010-04-04 20:00;CYXE 042000Z 32014KT 15SM BKN080TCU BKN280 13/M07 A2948 RMK TCU6CI1 SLP001

CYXE;2010-04-04 21:00;CYXE 042100Z 29009G22KT 15SM BKN040TCU BKN280 11/M07 A2951 RMK TCU6CI1 SLP010

CYXE;2010-04-04 22:00;CYXE 042200Z 33009KT 15SM FEW040CB BKN065 BKN280 12/M06 A2950 RMK CB1CU4CI2 CB N VIRGA W SLP008

CYXE;2010-04-04 23:00;CYXE 042300Z 31013KT 15SM FEW040CB BKN080 BKN280 12/M06 A2951 RMK CB2AC4CI1 SLP012

CYXE;2010-04-05 00:00;CYXE 050000Z 30007KT 15SM VCSH FEW040TCU BKN080 BKN280 11/M04 A2953 RMK TCU1AC4CI1 SLP018

CYXE;2010-04-05 01:00;CYXE 050100Z 29009KT 15SM SCT040CB BKN080 09/M04 A2954 RMK CB3AC3 CB W SLP023

CYXE;2010-04-05 02:00;CYXE 050200Z 26010G15KT 15SM FEW040 BKN067 07/M01 A2956 RMK CF2AC3 SLP030

CYXE;2010-04-05 03:00;CYXE 050300Z 26005KT 15SM SCT087 03/M01 A2959 RMK AC3 SLP043

CYXE;2010-04-05 04:00;CYXE 050400Z 26007KT 15SM SCT087 00/M02 A2960 RMK AC2 SLP046

CYXE;2010-04-05 05:00;CYXE 050500Z 28008KT 15SM SCT087 M00/M03 A2961 RMK AC2 SLP049

CYXE;2010-04-05 06:00;CYXE 050600Z 26009KT 15SM FEW085 M02/M04 A2962 RMK AC2 SLP050

CYXE;2010-04-05 07:00;CYXE 050700Z 27008KT 15SM SKC M02/M04 A2963 RMK SLP053

CYXE;2010-04-05 08:00;CYXE 050800Z 26008KT 15SM SKC M03/M05 A2965 RMK SLP059

CYXE;2010-04-05 09:00;CYXE 050900Z 26007KT 15SM SKC M04/M05 A2965 RMK SLP062

CYXE;2010-04-05 10:00;CYXE 051000Z 26007KT 15SM SKC M05/M06 A2966 RMK SLP065

CYXE;2010-04-05 11:00;CYXE 051100Z 24005KT 15SM SKC M06/M06 A2967 RMK SLP068

CYXE;2010-04-05 12:00;CYXE 051200Z 25006KT 15SM SKC M05/M06 A2968 RMK SLP072

CYXE;2010-04-05 13:00;CYXE 051300Z 25007KT 15SM SKC M06/M06 A2969 RMK SLP076

CYXE;2010-04-05 14:00;CYXE 051400Z 23003KT 15SM SKC M02/M03 A2971 RMK SLP083

CYXE;2010-04-05 15:00;CYXE 051500Z 28003KT 15SM SKC 01/M01 A2972 RMK SLP087

CYXE;2010-04-05 16:00;CYXE 051600Z 35005KT 15SM SKC 05/01 A2973 RMK SLP089

CYXE;2010-04-05 17:00;CYXE 051700Z 36003KT 15SM SKC 08/01 A2973 RMK SLP091

CYXE;2010-04-05 18:00;CYXE 051800Z 36003KT 15SM FEW035 09/M00 A2973 RMK CU1 SLP090

CYXE;2010-04-05 19:00;CYXE 051900Z 32003KT 15SM FEW050 11/M02 A2973 RMK CU2 SLP089

CYXE;2010-04-05 20:00;CYXE 052000Z 31005KT 15SM SCT060 10/M05 A2972 RMK CU3 SLP086

CYXE;2010-04-05 21:00;CYXE 052100Z 29007KT 15SM VCSH BKN067 11/M07 A2971 RMK CU6 TCU EMBD SLP083

CYXE;2010-04-05 22:00;CYXE 052200Z 27007G15KT 15SM VCSH FEW067 BKN080 11/M08 A2973 RMK CU2AC4 SLP089

CYXE;2010-04-05 23:00;CYXE 052300Z 21009KT 15SM FEW060 SCT085 11/M05 A2973 RMK CU1AC2 SLP087

CYXE;2010-04-06 00:00;CYXE 060000Z 29008KT 15SM FEW040 SCT080 12/M06 A2973 RMK CU1AC1 SLP088

CYXE;2010-04-06 01:00;CYXE 060100Z 34005KT 15SM FEW080 10/M07 A2973 RMK AC1 SLP089

CYXE;2010-04-06 02:00;CYXE 060200Z 03008KT 15SM FEW080 03/M03 A2976 RMK AC1 SLP098

CYXE;2010-04-06 03:00;CYXE 060300Z 05007KT 15SM SKC 02/M02 A2978 RMK SLP109

CYXE;2010-04-06 04:00;CYXE 060400Z 06007KT 15SM SKC 00/M03 A2980 RMK SLP116

CYXE;2010-04-06 05:00;CYXE 060500Z 09006KT 15SM SKC M01/M03 A2981 RMK SLP117

CYXE;2010-04-06 06:00;CYXE 060600Z 05006KT 15SM SKC M02/M04 A2982 RMK SLP119

CYXE;2010-04-06 07:00;CYXE 060700Z 09003KT 15SM SKC M03/M04 A2983 RMK SLP122

CYXE;2010-04-06 08:00;CYXE 060800Z 05002KT 15SM SKC M03/M04 A2984 RMK SLP127

CYXE;2010-04-06 09:00;CYXE 060900Z 08004KT 15SM SKC M04/M05 A2984 RMK SLP128

CYXE;2010-04-06 10:00;CYXE 061000Z 07004KT 15SM SKC M04/M05 A2986 RMK SLP133

CYXE;2010-04-06 11:00;CYXE 061100Z 09003KT 15SM FEW250 M05/M05 A2986 RMK CI1 SLP134

CYXE;2010-04-06 12:00;CYXE 061200Z 00000KT 12SM MIFG FEW250 M05/M05 A2987 RMK CI1 SLP139

CYXE;2010-04-06 13:00;CYXE 061300Z 00000KT 12SM FEW250 M06/M07 A2989 RMK CI1 BR SLP144

CYXE;2010-04-06 14:00;CYXE 061400Z 05002KT 15SM FEW250 M02/M03 A2991 RMK CI1 SLP150

CYXE;2010-04-06 15:00;CYXE 061500Z 10002KT 15SM FEW270 02/M00 A2992 RMK CI1 SLP156

CYXE;2010-04-06 16:00;CYXE 061600Z 15002KT 15SM FEW300 06/M00 A2994 RMK CI1 SLP161

CYXE;2010-04-06 17:00;CYXE 061700Z 11004KT 15SM FEW300 08/M01 A2995 RMK CI1 SLP164

CYXE;2010-04-06 18:00;CYXE 061800Z 09006KT 15SM FEW300 10/M03 A2996 RMK CI1 SLP166

CYXE;2010-04-06 19:00;CYXE 061900Z 01003KT 15SM BKN330 10/M05 A2996 RMK CI1 SLP166

CYXE;2010-04-06 20:00;CYXE 062000Z 11005KT 15SM BKN340 11/M07 A2996 RMK CI1 SLP167

CYXE;2010-04-06 21:00;CYXE 062100Z 05006KT 15SM BKN340 12/M06 A2996 RMK CI1 SLP166

CYXE;2010-04-06 22:00;CYXE 062200Z 15006KT 15SM BKN340 13/M06 A2995 RMK CI2 SLP165

CYXE;2010-04-06 23:00;CYXE 062300Z 13007KT 15SM BKN340 13/M08 A2996 RMK CI2 SLP168

CYXE;2010-04-07 00:00;CYXE 070000Z 15004KT 15SM BKN300 12/M08 A2997 RMK CI1 SLP172

CYXE;2010-04-07 01:00;CYXE 070100Z 13006KT 15SM BKN300 10/M08 A2997 RMK CI1 SLP171

CYXE;2010-04-07 02:00;CYXE 070200Z 13007KT 15SM SCT300 07/M08 A2997 RMK CI1 SLP171

CYXE;2010-04-07 03:00;CYXE 070300Z 12009KT 15SM SCT300 06/M07 A2998 RMK CI1 SLP173

CYXE;2010-04-07 04:00;CYXE 070400Z 13008KT 15SM SKC 05/M07 A2998 RMK SLP175

CYXE;2010-04-07 05:00;CYXE 070500Z 14009KT 15SM SKC 05/M06 A2999 RMK SLP176

CYXE;2010-04-07 06:00;CYXE 070600Z 15007KT 15SM FEW100 SCT260 04/M06 A2999 RMK AC1CI1 SLP172

CYXE;2010-04-07 07:00;CYXE 070700Z 16011KT 15SM FEW120 BKN250 05/M06 A2998 RMK AC2CI1 SLP170

CYXE;2010-04-07 08:00;CYXE 070800Z 16011KT 15SM BKN100 BKN250 04/M06 A2997 RMK AC5CI1 SLP168

CYXE;2010-04-07 09:00;CYXE 070900Z 19006KT 15SM BKN090 OVC250 03/M05 A2997 RMK AC6CI1 SLP167

CYXE;2010-04-07 10:00;CYXE 071000Z 18012KT 15SM OVC070 03/M05 A2996 RMK AC7 SLP164

CYXE;2010-04-07 11:00;CYXE 071100Z 19014KT 15SM OVC060 05/M05 A2995 RMK SC8 SLP159

CYXE;2010-04-07 12:00;CYXE 071200Z 19009KT 15SM BKN085 OVC250 04/M04 A2994 RMK AC6CI2 SLP156

CYXE;2010-04-07 13:00;CYXE 071300Z 20009KT 15SM BKN085 BKN250 04/M04 A2994 RMK AC5CI2 SLP157

CYXE;2010-04-07 14:00;CYXE 071400Z 21008KT 15SM SCT083 BKN280 04/M04 A2995 RMK AC2CI3 SLP158

CYXE;2010-04-07 15:00;CYXE 071500Z 23011KT 15SM FEW120 BKN280 06/M04 A2995 RMK AC2CI2 SLP161

CYXE;2010-04-07 16:00;CYXE 071600Z 22007KT 15SM FEW120 SCT280 09/M03 A2995 RMK AC1CI1 SLP162

CYXE;2010-04-07 17:00;CYXE 071700Z 22007KT 15SM FEW120 SCT280 13/M03 A2994 RMK AC1CI0 SLP159

CYXE;2010-04-07 18:00;CYXE 071800Z 25008KT 15SM FEW080 FEW300 15/M05 A2993 RMK CU1CI0 SLP151

CYXE;2010-04-07 19:00;CYXE 071900Z 26013G20KT 15SM FEW090 SCT300 16/M08 A2992 RMK CU2CI0 SLP146

CYXE;2010-04-07 20:00;CYXE 072000Z 27012KT 15SM SCT092 BKN300 16/M07 A2989 RMK CU3CI0 SLP138

CYXE;2010-04-07 21:00;CYXE 072100Z 26016G21KT 15SM SCT095 BKN300 16/M07 A2988 RMK CU3CI0 SLP134

CYXE;2010-04-07 22:00;CYXE 072200Z 23010G18KT 15SM SCT095 BKN300 16/M08 A2986 RMK CU3CI0 SLP128

CYXE;2010-04-07 23:00;CYXE 072300Z 23011G18KT 15SM SCT100 BKN300 17/M08 A2985 RMK CU3CI0 SLP125

CYXE;2010-04-08 00:00;CYXE 080000Z 25014KT 15SM FEW100 BKN300 16/M10 A2984 RMK CU2CI0 SLP118

CYXE;2010-04-08 01:00;CYXE 080100Z 24007KT 15SM FEW090 BKN300 13/M10 A2982 RMK CU2CI0 SLP113

CYXE;2010-04-08 02:00;CYXE 080200Z 21006KT 15SM BKN300 10/M10 A2982 RMK CI2 SLP111

CYXE;2010-04-08 03:00;CYXE 080300Z 19007KT 15SM BKN300 09/M10 A2981 RMK CI2 SLP112

CYXE;2010-04-08 04:00;CYXE 080400Z 18008KT 15SM SCT270 06/M09 A2979 RMK CI1 SLP107

CYXE;2010-04-08 05:00;CYXE 080500Z 18009KT 15SM SKC 06/M08 A2978 RMK SLP103

CYXE;2010-04-08 06:00;CYXE 080600Z 18009KT 15SM SKC 06/M08 A2976 RMK SLP092

CYXE;2010-04-08 07:00;CYXE 080700Z 19009G15KT 15SM SKC 06/M06 A2974 RMK SLP085

CYXE;2010-04-08 08:00;CYXE 080800Z 18010KT 15SM SKC 05/M05 A2972 RMK SLP078

CYXE;2010-04-08 09:00;CYXE 080900Z 19010KT 15SM SKC 04/M05 A2970 RMK SLP071

CYXE;2010-04-08 10:00;CYXE 081000Z 19010KT 15SM SKC 05/M05 A2968 RMK SLP065

CYXE;2010-04-08 11:00;CYXE 081100Z 18010KT 15SM SKC 04/M04 A2966 RMK SLP058

CYXE;2010-04-08 12:00;CYXE 081200Z 18009KT 15SM BKN260 03/M04 A2963 RMK CI2 SLP048

CYXE;2010-04-08 13:00;CYXE 081300Z 18011KT 15SM FEW120 BKN280 04/M04 A2962 RMK AC2CI2 SLP044

CYXE;2010-04-08 14:00;CYXE 081400Z 19011KT 15SM SCT120 BKN280 04/M03 A2960 RMK AC3CI2 SLP038

CYXE;2010-04-08 15:00;CYXE 081500Z 19010KT 15SM SCT120 BKN280 07/M03 A2957 RMK AC2CI1 SLP030

CYXE;2010-04-08 16:00;CYXE 081600Z 19011KT 15SM BKN120 BKN280 09/M03 A2954 RMK AC6CI0 SLP018

CYXE;2010-04-08 17:00;CYXE 081700Z 22012G18KT 15SM FEW120 BKN280 13/M02 A2951 RMK AC1CI5 SLP010

CYXE;2010-04-08 18:00;CYXE 081800Z 22018KT 15SM BKN280 15/M03 A2947 RMK CI4 SLP990

CYXE;2010-04-08 19:00;CYXE 081900Z 19018KT 15SM SCT120 OVC280 17/M02 A2943 RMK AC3CI3 SLP979

CYXE;2010-04-08 20:00;CYXE 082000Z 23016KT 15SM BKN120 OVC280 17/M02 A2940 RMK AC6CI2 SLP969

CYXE;2010-04-08 21:00;CYXE 082100Z 19014G19KT 15SM BKN120 OVC280 17/M02 A2938 RMK AC6CI2 SLP961

CYXE;2010-04-08 22:00;CYXE 082200Z 18015G20KT 15SM BKN120 BKN280 17/M03 A2935 RMK AC6CI1 SLP951

CYXE;2010-04-08 23:00;CYXE 082300Z 18018G25KT 15SM BKN100 OVC280 18/M04 A2932 RMK AC6CI1 SLP942

CYXE;2010-04-09 00:00;CYXE 090000Z CCA 18015G26KT 15SM BKN100 OVC280 18/M04 A2930 RMK AC7CI1 SLP934

CYXE;2010-04-09 01:00;CYXE 090100Z 16016G24KT 15SM OVC085 17/M04 A2928 RMK AC8 SLP928

CYXE;2010-04-09 02:00;CYXE 090200Z 19012G19KT 15SM OVC080 16/M03 A2927 RMK AC8 SLP925

CYXE;2010-04-09 02:31;CYXE 090231Z 26013G20KT 15SM OVC070 13/ RMK AC8

CYXE;2010-04-09 03:00;CYXE 090300Z 24016G21KT 15SM OVC062 13/00 A2931 RMK SC8 SLP938

CYXE;2010-04-09 04:00;CYXE 090400Z 24017G25KT 15SM BKN060 09/M00 A2933 RMK SC7 SLP945

CYXE;2010-04-09 04:22;CYXE 090422Z 24019G31KT 15SM -SHRA BKN052 OVC080 08/ RMK SC6AC2

CYXE;2010-04-09 05:00;CYXE 090500Z 23017KT 15SM -SHRA BKN037 OVC088 08/M03 A2933 RMK SC6AC2 SLP944

CYXE;2010-04-09 05:08;CYXE 090508Z 23016KT 15SM BKN037 OVC088 08/ RMK SC5AC3

CYXE;2010-04-09 05:23;CYXE 090523Z 23022G30KT 15SM -SHRA BKN040 OVC090 07/ RMK SC5AC3

CYXE;2010-04-09 06:00;CYXE 090600Z 20013G22KT 15SM -SHRA OVC026 06/M03 A2932 RMK SC8 SLP939

CYXE;2010-04-09 06:46;CYXE 090646Z 20015KT 15SM FEW026 BKN080 06/ RMK SC2AC2

CYXE;2010-04-09 07:00;CYXE 090700Z 20010G18KT 15SM FEW026 BKN091 05/M06 A2927 RMK SC2AC2 SLP923

CYXE;2010-04-09 08:00;CYXE 090800Z 19016G24KT 15SM SCT091 03/M04 A2923 RMK AC2 SLP911

CYXE;2010-04-09 09:00;CYXE 090900Z 16017G26KT 15SM SCT024 BKN100 02/M03 A2915 RMK SC4AC2 PRESFR SLP881

CYXE;2010-04-09 10:00;CYXE 091000Z 20017KT 15SM BKN015 OVC033 02/M01 A2909 RMK SC6SC2 SLP863

CYXE;2010-04-09 10:45;CYXE 091045Z 21014KT 15SM -SN BKN015 OVC069 02/ RMK SC6AC2

CYXE;2010-04-09 11:00;CYXE 091100Z 21012G17KT 15SM -SN OVC015 01/M01 A2906 RMK SC8 SLP854

CYXE;2010-04-09 11:40;CYXE 091140Z 24010KT 1 1/2SM -SN OVC010 00/ RMK SC8

CYXE;2010-04-09 11:47;CYXE 091147Z 25007KT 1 1/2SM -SN OVC006 00/ RMK SC8

CYXE;2010-04-09 12:00;CYXE 091200Z 27012KT 3SM -SN FEW006 OVC030 00/M00 A2907 RMK SF2SC6 SLP855

CYXE;2010-04-09 12:18;CYXE 091218Z 27015KT 10SM -SN BKN008 OVC026 00/ RMK SC6SC2

CYXE;2010-04-09 12:48;CYXE 091248Z 26012KT 15SM FEW008 OVC027 00/ RMK SF2SC6

CYXE;2010-04-09 13:00;CYXE 091300Z 25013KT 15SM FEW008 BKN027 OVC053 00/M01 A2910 RMK SF2SC4SC2 SLP865

CYXE;2010-04-09 13:10;CYXE 091310Z 25014KT 10SM -SHRA FEW008 OVC027 00/ RMK SF2SC6

CYXE;2010-04-09 13:28;CYXE 091328Z 26017KT 3SM -RASN SCT008 OVC025 00/ RMK SF3SC5

CYXE;2010-04-09 14:00;CYXE 091400Z 26013G18KT 2SM -RASN SCT008 OVC025 M00/M00 A2911 RMK SF3SC5 SLP869

CYXE;2010-04-09 14:06;CYXE 091406Z 27014KT 1SM R09/P6000FT/D -SN VV012 M00/ RMK SN8

CYXE;2010-04-09 15:00;CYXE 091500Z 28022G30KT 5SM -SN OVC008 00/00 A2913 RMK SC8 SLP881

CYXE;2010-04-09 15:22;CYXE 091522Z 28022G29KT 1 1/2SM -SN VV010 00/ RMK SN8

CYXE;2010-04-09 15:38;CYXE 091538Z 28023KT 1SM R09/P6000FT/N -SN VV008 M00/ RMK SN8

CYXE;2010-04-09 16:00;CYXE 091600Z 29022G32KT 2SM -SN VV010 M00/M00 A2917 RMK SN8 SLP892

CYXE;2010-04-09 17:00;CYXE 091700Z 28029G36KT 2SM -SN VV012 M00/M01 A2920 RMK SN8 SLP903

CYXE;2010-04-09 17:40;CYXE 091740Z 27025G39KT 1 1/2SM -SN VV012 M00/ RMK SN8

CYXE;2010-04-09 18:00;CYXE 091800Z 27029G34KT 3/4SM R09/P6000FT/U -SN VV010 M00/M01 A2924 RMK SN8 SLP922

CYXE;2010-04-09 18:13;CYXE 091813Z 28028G40KT 1SM R09/P6000FT/N -SN VV010 M00/ RMK SN8

CYXE;2010-04-09 18:51;CYXE 091851Z 27029G39KT 3/4SM R09/P6000FT/D -SN VV008 M01/ RMK SN8

CYXE;2010-04-09 19:00;CYXE 091900Z 27026G35KT 1/2SM R09/3500VP6000FT/D SN VV005 M01/M01 A2928 RMK SN8 SLP935

CYXE;2010-04-09 19:31;CYXE 091931Z 28026G36KT 3/8SM SN VV004 M01/ RMK SN8

CYXE;2010-04-09 20:00;CYXE 092000Z 28030G40KT 3/8SM R09/2800FT/N SN BLSN VV004 M01/M01 A2932 RMK SN8 SLP947

CYXE;2010-04-09 20:24;CYXE 092024Z 27034G42KT 1/2SM R09/3000FT/N SN BLSN VV005 M00/ RMK SN8

CYXE;2010-04-09 20:44;CYXE 092044Z 27035G45KT 3/4SM R09/3000V5000FT/D -SN BLSN VV015 M00/ RMK SN8

CYXE;2010-04-09 21:00;CYXE 092100Z CCA 27035G45KT 1/2SM R09/3000FT/N -SN BLSN VV009 M00/M00 A2936 RESN RMK SN8 SLP966

CYXE;2010-04-09 21:11;CYXE 092111Z 27032G45KT 5/8SM R09/3000V5000FT/U -SN BLSN VV004 M00/ RMK SN8

CYXE;2010-04-09 21:36;CYXE 092136Z 27029G43KT 1SM R09/P6000FT/U -SN BLSN VV007 M00/ RMK SN8

CYXE;2010-04-09 22:00;CYXE 092200Z 27034G39KT 1SM R09/P6000FT/D -SN OVC012 00/M00 A2942 REBLSN RMK SN5SC3 SLP984

CYXE;2010-04-09 23:00;CYXE 092300Z 27033G42KT 3/4SM R09/P6000FT/D -SN OVC012 00/M01 A2946 RMK SN4SC4 SLP996

CYXE;2010-04-09 23:23;CYXE 092323Z 27031G40KT 1 1/2SM -SN OVC011 00/ RMK SN4SC4

CYXE;2010-04-09 23:46;CYXE 092346Z 28030G45KT 1SM R09/5500FT/N -SN OVC011 00/ RMK SN4SC4 VIS VRB 3/4-11/4

CYXE;2010-04-10 00:00;CYXE 100000Z 28030G39KT 1SM R09/P6000FT/D -SN VV009 00/M01 A2950 RMK SN8 VIS VRB 3/4-11/4 SLP014

CYXE;2010-04-10 00:27;CYXE 100027Z 28030G37KT 1/2SM R09/3500VP6000FT/D SN VV002 M00/ RMK SN8

CYXE;2010-04-10 01:00;CYXE 100100Z 27026G36KT 2SM -SN BKN005 OVC014 M00/M01 A2952 RESN RMK SN3SF2SC2 VIS W 4 SLP020

CYXE;2010-04-10 01:06;CYXE 100106Z 31024G37KT 1SM R09/2000FT/N -SHSNPL VV002 M01/ RMK SN8 VIS SW 4 VIS NW 1/4 CVCTV CLD EMBD

CYXE;2010-04-10 01:26;CYXE 100126Z 29025G38KT 1/4SM R09/1200V2400FT/N SN +BLSN VV001 M01/ RMK SN8

CYXE;2010-04-10 01:46;CYXE 100146Z 28028G38KT 1/4SM R09/4000VP6000FT/D -SN +BLSN BKN011 OVC040 00/ RESN RMK SN3SC2SC2 ROOF VIS 5

CYXE;2010-04-10 02:00;CYXE 100200Z 28032G41KT 1/4SM R09/5000FT/D -SN +BLSN BKN023 OVC050 00/M02 A2954 RESN RMK SN2SC3SC3 ROOF VIS 4 SLP027

CYXE;2010-04-10 02:05;CYXE 100205Z 28030G44KT 1/2SM R09/3000VP6000FT/U -SN BLSN FEW005 BKN023 OVC050 00/ REBLSN RMK SN2SF1SC3SC2

CYXE;2010-04-10 02:36;CYXE 100236Z 28029G39KT 1SM R09/3000VP6000FT/U -SN BLSN FEW005 SCT026 OVC047 01/ REBLSN RMK BLSN1SF1SC2SC5

CYXE;2010-04-10 03:00;CYXE 100300Z 28028G38KT 2SM R09/4500VP6000FT/U -SN BLSN FEW008 SCT028 OVC050 01/M03 A2956 RMK BLSN1SF1SC2SC5 VIS VAR 1-3 /S01/ SLP036

CYXE;2010-04-10 03:33;CYXE 100333Z 27026G35KT 4SM BLSN FEW005 SCT025 OVC080 01/ RMK SF2SC2AC4

CYXE;2010-04-10 04:00;CYXE 100400Z 28025G31KT 15SM FEW005 SCT025 OVC088 01/M03 A2958 REBLSN RMK SF2SC2AC4 SLP040

CYXE;2010-04-10 05:00;CYXE 100500Z 27024G32KT 15SM DRSN BKN024 OVC090 01/M03 A2958 RMK SC5AC3 SLP042

CYXE;2010-04-10 06:00;CYXE 100600Z 28025KT 15SM DRSN SCT024 OVC079 00/M03 A2959 RMK SF4AC4 SLP044

CYXE;2010-04-10 07:00;CYXE 100700Z 28022G30KT 15SM BKN026 OVC066 00/M03 A2960 RMK SC5AC3 SLP049

CYXE;2010-04-10 08:00;CYXE 100800Z 28020G28KT 15SM BKN024 OVC071 00/M04 A2961 RMK SC5AC3 SLP051

CYXE;2010-04-10 08:24;CYXE 100824Z 31018G24KT 6SM -SN OVC016 M02/ RMK SC8

CYXE;2010-04-10 09:00;CYXE 100900Z 28021G27KT 15SM -SN BKN016 OVC083 M01/M03 A2962 RMK SC6AC2 SLP056

CYXE;2010-04-10 10:00;CYXE 101000Z 31010G16KT 15SM -SN BKN022 OVC061 M02/M04 A2964 RMK SC6SC2 SLP063

CYXE;2010-04-10 11:00;CYXE 101100Z 30016KT 3SM -SN OVC017 M02/M04 A2966 RMK SC8 SLP068

CYXE;2010-04-10 12:00;CYXE 101200Z 29019G24KT 15SM -SN BKN021 OVC065 M02/M05 A2968 RMK SC6SC2 SLP077

CYXE;2010-04-10 13:00;CYXE 101300Z 29022KT 15SM FEW021 BKN056 OVC120 M03/M06 A2970 RMK SF2SC4AC2 SLP084

CYXE;2010-04-10 14:00;CYXE 101400Z 28019G26KT 15SM FEW021 FEW044 BKN085 OVC250 M02/M07 A2972 RMK SF1SC2AC2CI2 SLP090

CYXE;2010-04-10 15:00;CYXE 101500Z 28022G27KT 10SM DRSN FEW030 FEW060 SCT087 OVC250 M02/M07 A2974 RMK SF1SC1AC2CI3 OCNL BLSN SLP096

CYXE;2010-04-10 16:00;CYXE 101600Z 29023G31KT 10SM DRSN FEW030 OVC120 M01/M07 A2975 RMK SF2AS5 OCNL BLSN SLP102

CYXE;2010-04-10 17:00;CYXE 101700Z 30024G34KT 15SM BKN028 BKN087 OVC250 M01/M06 A2978 RMK SC5AC1CI2 OCNL DRSN SLP110

CYXE;2010-04-10 18:00;CYXE 101800Z 30022G30KT 15SM BKN028 BKN059 BKN250 M01/M07 A2980 RMK SC5SC1CI1 OCNL DRSN SLP119

CYXE;2010-04-10 19:00;CYXE 101900Z 30021KT 15SM BKN034 BKN062 OVC250 00/M06 A2982 RMK SC6SC1CI1 SLP125

CYXE;2010-04-10 20:00;CYXE 102000Z 29023G28KT 15SM BKN032 OVC047 M00/M07 A2985 RMK SC5SC3 SLP133

CYXE;2010-04-10 21:00;CYXE 102100Z 30018G24KT 15SM OVC034 M00/M06 A2988 RMK SC7 SLP145

CYXE;2010-04-10 22:00;CYXE 102200Z 31018G25KT 15SM OVC031 M01/M06 A2991 RMK SC7 SLP155

CYXE;2010-04-10 23:00;CYXE 102300Z 30017KT 15SM OVC030 M01/M06 A2993 RMK SC8 SLP163

CYXE;2010-04-11 00:00;CYXE 110000Z 31016KT 15SM BKN030 M01/M06 A2996 RMK SC7 SLP173

CYXE;2010-04-11 01:00;CYXE 110100Z 30013KT 15SM OVC028 M01/M06 A2999 RMK SC7 SLP184

CYXE;2010-04-11 02:00;CYXE 110200Z 29015KT 15SM OVC028 M02/M06 A3001 RMK SC7 SLP190

CYXE;2010-04-11 03:00;CYXE 110300Z 30017KT 15SM OVC030 M02/M06 A3003 RMK SC8 SLP200

CYXE;2010-04-11 04:00;CYXE 110400Z 30010G16KT 15SM OVC028 M02/M06 A3006 RMK SC8 SLP210

CYXE;2010-04-11 05:00;CYXE 110500Z 30009KT 15SM OVC028 M02/M06 A3008 RMK SC8 SLP216

CYXE;2010-04-11 06:00;CYXE 110600Z 27007KT 15SM FEW032 M06/M08 A3010 RMK SC2 SLP226

CYXE;2010-04-11 07:00;CYXE 110700Z 26008KT 15SM BKN028 M04/M07 A3013 RMK SC6 SLP233

CYXE;2010-04-11 08:00;CYXE 110800Z 27007KT 15SM OVC026 M03/M06 A3014 RMK SC8 SLP237

CYXE;2010-04-11 09:00;CYXE 110900Z 28009KT 15SM OVC022 M03/M06 A3015 RMK SC8 SLP240

CYXE;2010-04-11 10:00;CYXE 111000Z 25008KT 15SM OVC020 M04/M07 A3018 RMK SC8 SLP248

CYXE;2010-04-11 11:00;CYXE 111100Z 26009KT 15SM OVC020 M05/M07 A3020 RMK SC8 SLP255

CYXE;2010-04-11 12:00;CYXE 111200Z 27009KT 15SM OVC020 M05/M07 A3022 RMK SC6 SLP264

CYXE;2010-04-11 13:00;CYXE 111300Z 25008KT 15SM OVC021 M05/M07 A3024 RMK SC7 SLP273

CYXE;2010-04-11 14:00;CYXE 111400Z 28008KT 15SM OVC019 M03/M06 A3026 RMK SC7 SLP279

CYXE;2010-04-11 15:00;CYXE 111500Z 30011KT 15SM OVC015 M03/M05 A3028 RMK SC8 SLP285

CYXE;2010-04-11 16:00;CYXE 111600Z 32010KT 15SM OVC015 M02/M05 A3031 RMK SC8 SLP293

CYXE;2010-04-11 17:00;CYXE 111700Z 29009KT 15SM OVC015 M02/M05 A3033 RMK SC8 SLP301

CYXE;2010-04-11 18:00;CYXE 111800Z 28010KT 15SM OVC015 M01/M05 A3034 RMK SC8 SLP308

CYXE;2010-04-11 19:00;CYXE 111900Z 28006KT 15SM OVC017 M01/M04 A3034 RMK SC8 SLP308

CYXE;2010-04-11 20:00;CYXE 112000Z 27005KT 15SM OVC017 M00/M04 A3035 RMK SC8 SLP310

CYXE;2010-04-11 21:00;CYXE 112100Z 30003KT 15SM OVC019 01/M04 A3036 RMK SC8 SLP310

CYXE;2010-04-11 22:00;CYXE 112200Z 33005KT 15SM BKN019 01/M03 A3034 RMK SC6 SLP304

CYXE;2010-04-11 23:00;CYXE 112300Z 27003KT 15SM BKN020 02/M03 A3033 RMK SC6 SLP301

CYXE;2010-04-12 00:00;CYXE 120000Z 00000KT 15SM SCT025 02/M04 A3033 RMK SC4 SLP301

CYXE;2010-04-12 01:00;CYXE 120100Z 28002KT 15SM FEW025 BKN250 02/M03 A3034 RMK SC1CI2 SLP304

CYXE;2010-04-12 02:00;CYXE 120200Z 29002KT 15SM FEW025 BKN250 00/M03 A3034 RMK SC1CI2 SLP304

CYXE;2010-04-12 03:00;CYXE 120300Z 00000KT 15SM BKN250 M00/M04 A3036 RMK CI2 SLP310

CYXE;2010-04-12 04:00;CYXE 120400Z 24002KT 15SM BKN250 M02/M04 A3037 RMK CI0 SLP314

CYXE;2010-04-12 05:00;CYXE 120500Z 34005KT 15SM SCT035 OVC250 M04/M05 A3037 RMK SC3CI2 SLP314

CYXE;2010-04-12 06:00;CYXE 120600Z 02005KT 15SM FEW032 SCT250 M04/M05 A3036 RMK SC1CI0 SLP314

CYXE;2010-04-12 07:00;CYXE 120700Z 04004KT 15SM SCT250 M05/M06 A3035 RMK CI1 SLP311

CYXE;2010-04-12 08:00;CYXE 120800Z 07006KT 15SM BKN250 M05/M06 A3035 RMK CI4 SLP309

CYXE;2010-04-12 09:00;CYXE 120900Z 05005KT 15SM OVC150 M04/M05 A3035 RMK AC8 SLP308

CYXE;2010-04-12 10:00;CYXE 121000Z 05004KT 15SM OVC220 M04/M05 A3034 RMK CI4 SLP306

CYXE;2010-04-12 11:00;CYXE 121100Z 06007KT 15SM BKN220 M04/M04 A3033 RMK CI2 SLP303

CYXE;2010-04-12 12:00;CYXE 121200Z 07008KT 15SM BKN250 M03/M04 A3033 RMK CI2 SLP300

CYXE;2010-04-12 13:00;CYXE 121300Z 06007KT 15SM OVC250 M03/M04 A3032 RMK CI6 SLP298

CYXE;2010-04-12 14:00;CYXE 121400Z 07007KT 15SM FEW076 OVC082 M01/M02 A3032 RMK AC2AS6 SLP297

CYXE;2010-04-12 15:00;CYXE 121500Z 08009KT 15SM BKN080 00/M01 A3031 RMK AC6 SLP293

CYXE;2010-04-12 16:00;CYXE 121600Z 08007KT 15SM BKN075 03/M01 A3030 RMK AC6 SLP289

CYXE;2010-04-12 17:00;CYXE 121700Z 12008KT 15SM BKN078 03/M01 A3031 RMK AC6 SLP291

CYXE;2010-04-12 18:00;CYXE 121800Z 10008KT 15SM BKN073 04/M01 A3029 RMK AC6 SLP286

CYXE;2010-04-12 19:00;CYXE 121900Z 11007KT 15SM SCT042 OVC070 06/M01 A3028 RMK SC3AC5 SLP281

CYXE;2010-04-12 20:00;CYXE 122000Z 10010KT 15SM SCT045 OVC079 06/M01 A3026 RMK SC3AC5 SLP276

CYXE;2010-04-12 21:00;CYXE 122100Z 11012KT 15SM BKN032 OVC080 06/M01 A3025 RMK SC5AC3 SLP271

CYXE;2010-04-12 22:00;CYXE 122200Z 10014G20KT 15SM BKN036 OVC075 05/M02 A3023 RMK SC6AC2 SLP264

CYXE;2010-04-12 23:00;CYXE 122300Z 10016KT 15SM SCT043 OVC070 05/M03 A3022 RMK SC4AC4 SLP260

CYXE;2010-04-13 00:00;CYXE 130000Z 11014KT 15SM BKN041 OVC051 05/M03 A3021 RMK SC6SC2 SLP255

CYXE;2010-04-13 00:32;CYXE 130032Z 11012KT 15SM -RA BKN024 OVC040 05/ RMK SC6SC2

CYXE;2010-04-13 00:40;CYXE 130040Z 10018G25KT 10SM -RA OVC011 04/ RMK SF8 BR

CYXE;2010-04-13 01:00;CYXE 130100Z 13017KT 6SM -SN OVC009 02/M00 A3022 RMK SF8 SLP258

CYXE;2010-04-13 01:46;CYXE 130146Z 10010KT 2 1/2SM -SN BR OVC006 01/ RMK SF8

CYXE;2010-04-13 02:00;CYXE 130200Z 09010KT 3SM -SN BR OVC006 01/01 A3020 RMK SF8 SLP254

CYXE;2010-04-13 02:11;CYXE 130211Z 08010KT 3SM -RA BR OVC008 01/ RMK SF8

CYXE;2010-04-13 02:20;CYXE 130220Z 08011KT 6SM -RA BR OVC010 01/ RMK SF8

CYXE;2010-04-13 02:47;CYXE 130247Z 07009KT 8SM -RA OVC021 01/ RMK SC8 BR

CYXE;2010-04-13 03:00;CYXE 130300Z 07011KT 15SM -RA OVC021 01/01 A3018 RMK SC8 SLP248

CYXE;2010-04-13 04:00;CYXE 130400Z 05013KT 15SM -RA OVC028 02/02 A3015 RMK SC8 SLP236

CYXE;2010-04-13 05:00;CYXE 130500Z 08011KT 15SM -RA OVC044 03/02 A3013 RMK SC8 SLP230

CYXE;2010-04-13 06:00;CYXE 130600Z 10011G19KT 15SM -RA BKN013 OVC044 04/00 A3013 RMK ST5SC3 SLP225

CYXE;2010-04-13 06:35;CYXE 130635Z 13014G19KT 3SM -SN BR FEW010 OVC050 01/ RMK ST2SC6

CYXE;2010-04-13 06:48;CYXE 130648Z 12010KT 1SM R09/P6000FT/D -SN BR FEW010 OVC050 00/ RMK ST2SC6

CYXE;2010-04-13 07:00;CYXE 130700Z 11010KT 1SM R09/P6000FT/D -SN BR FEW010 OVC050 00/00 A3012 RMK ST2SC6 SLP222

CYXE;2010-04-13 07:06;CYXE 130706Z 08011KT 3SM -SN BR FEW003 OVC050 RMK ST2SC6

CYXE;2010-04-13 07:44;CYXE 130744Z 08013KT 15SM -SN SCT003 OVC012 00/ RMK SF3SC5

CYXE;2010-04-13 08:00;CYXE 130800Z 09013KT 12SM -SN FEW005 SCT024 OVC040 01/01 A3009 RMK SF1SC2SC5 SLP211

CYXE;2010-04-13 09:00;CYXE 130900Z 09011KT 12SM -SN SCT005 OVC024 01/01 A3005 RMK SF3SC5 SLP199

CYXE;2010-04-13 10:00;CYXE 131000Z 09017KT 15SM -SN SCT007 OVC024 01/01 A3001 RMK SF3SC5 SLP187

CYXE;2010-04-13 10:31;CYXE 131031Z 09016KT 15SM SCT008 OVC026 01/ RMK SF4SC4

CYXE;2010-04-13 11:00;CYXE 131100Z 09015G20KT 15SM BKN008 OVC026 01/01 A2999 RMK SF5SC3 SLP181

CYXE;2010-04-13 12:00;CYXE 131200Z 08014KT 15SM OVC007 01/01 A2997 RMK SC6 SLP172

CYXE;2010-04-13 13:00;CYXE 131300Z 08011KT 15SM OVC008 01/01 A2995 RMK SC8 SLP165

CYXE;2010-04-13 14:00;CYXE 131400Z 08012KT 15SM BKN004 OVC008 02/02 A2990 RMK SF6SC2 SLP150

CYXE;2010-04-13 15:00;CYXE 131500Z 08009KT 2SM -RA BR OVC004 02/02 A2987 RMK SF8 OBS TAKEN +05 SLP138

CYXE;2010-04-13 15:42;CYXE 131542Z 09016KT 2 1/2SM -RA BR SCT004 BKN008 OVC020 02/ RMK SF4SC2SC2

CYXE;2010-04-13 16:00;CYXE 131600Z 09015KT 4SM -RA BR FEW004 SCT008 OVC022 03/03 A2985 RMK SF2SC2SC5 SLP132

CYXE;2010-04-13 17:00;CYXE 131700Z 08010KT 6SM -RA BR SCT004 OVC012 03/03 A2981 RMK SF4SC4 SLP121

CYXE;2010-04-13 18:00;CYXE 131800Z 06014KT 10SM -RA SCT006 OVC012 04/04 A2974 RMK SF3SC5 PRESFR SLP090

CYXE;2010-04-13 18:35;CYXE 131835Z 08010G15KT 2 1/2SM RA BR SCT006 OVC014 04/ RMK SF3SC5

CYXE;2010-04-13 19:00;CYXE 131900Z 07010KT 3SM RA BR FEW006 OVC012 04/04 A2972 RMK SF2SC6 SLP086

CYXE;2010-04-13 19:36;CYXE 131936Z 07016KT 3SM RA BR FEW006 OVC009 04/ RMK SF2SC6

CYXE;2010-04-13 20:00;CYXE 132000Z 08014KT 4SM RA BR OVC007 05/05 A2969 RMK SF8 SLP075

CYXE;2010-04-13 20:26;CYXE 132026Z 08017G24KT 2 1/2SM -RA BR OVC008 05/ RERA RMK SF8

CYXE;2010-04-13 21:00;CYXE 132100Z 07015G22KT 2 1/2SM -RA BR OVC008 05/05 A2967 RERA RMK SF8 SLP069

CYXE;2010-04-13 21:49;CYXE 132149Z 07014KT 2SM -RA BR OVC005 05/ RMK SF8

CYXE;2010-04-13 22:00;CYXE 132200Z 07013G18KT 2 1/2SM -RA BR OVC006 05/05 A2965 RMK SF8 SLP062

CYXE;2010-04-13 22:46;CYXE 132246Z 06016KT 8SM -RA OVC007 05/ RMK SF8

CYXE;2010-04-13 23:00;CYXE 132300Z 06017KT 8SM -RA OVC007 05/05 A2963 RMK SF8 SLP055

CYXE;2010-04-14 00:00;CYXE 140000Z 07020KT 6SM -RA BR OVC008 05/05 A2960 RMK SF8 SLP045

CYXE;2010-04-14 01:00;CYXE 140100Z 08020G26KT 10SM -RA OVC009 05/05 A2959 RMK SF8 SLP041

CYXE;2010-04-14 02:00;CYXE 140200Z 07020G26KT 10SM -RA OVC009 05/05 A2957 RMK SF8 SLP034

CYXE;2010-04-14 03:00;CYXE 140300Z 07017KT 8SM -RA OVC006 05/05 A2956 RMK SF8 BR SLP029

CYXE;2010-04-14 03:33;CYXE 140333Z 07016KT 2 1/2SM -RA BR OVC006 05/ RMK SF8

CYXE;2010-04-14 04:00;CYXE 140400Z 07015KT 2 1/2SM -RA BR OVC004 05/05 A2952 RMK SF8 SLP018

CYXE;2010-04-14 05:00;CYXE 140500Z 07012G17KT 2 1/2SM -RA BR OVC004 05/05 A2950 RMK SF8 SLP010

CYXE;2010-04-14 05:19;CYXE 140519Z 07013G19KT 2SM -RA BR OVC005 05/ RMK SF8

CYXE;2010-04-14 06:00;CYXE 140600Z 08016G21KT 3SM -RA BR OVC005 05/05 A2947 RMK SF8 SLP999

CYXE;2010-04-14 07:00;CYXE 140700Z 08011G16KT 6SM -RA BR BKN004 OVC012 05/05 A2946 RMK SF6SC2 SLP994

CYXE;2010-04-14 08:00;CYXE 140800Z 07011KT 4SM -RA BR OVC003 06/06 A2943 RMK SF8 SLP984

CYXE;2010-04-14 08:41;CYXE 140841Z 08010KT 1 1/2SM -RA BR OVC002 05/ RMK ST8

CYXE;2010-04-14 09:00;CYXE 140900Z 07008KT 1 1/2SM -RA BR OVC002 05/05 A2941 RMK ST8 SLP976

CYXE;2010-04-14 10:00;CYXE 141000Z 06010KT 1SM R09/5500FT/N BR OVC001 06/06 A2939 RMK ST8 SLP971

CYXE;2010-04-14 10:08;CYXE 141008Z 07009KT 1/2SM R09/5000FT/D FG VV001 06/ RMK FG8

CYXE;2010-04-14 11:00;CYXE 141100Z 04009KT 1/2SM R09/5000FT/N FG VV001 06/06 A2938 RMK FG8 SLP967

CYXE;2010-04-14 12:00;CYXE 141200Z 06006KT 1/2SM R09/3500FT/D FG VV001 05/05 A2938 RMK FG8 SLP967

CYXE;2010-04-14 12:53;CYXE 141253Z 18006KT 1 1/2SM R09/2800VP6000FT/U BR OVC001 05/ RMK ST8

CYXE;2010-04-14 13:00;CYXE 141300Z 18005KT 2SM BR OVC003 05/05 A2939 RMK ST8 SLP969

CYXE;2010-04-14 14:00;CYXE 141400Z 18007KT 2SM BR OVC002 05/05 A2940 RMK ST8 SLP973

CYXE;2010-04-14 14:38;CYXE 141438Z 19005KT 6SM BR OVC006 04/ RMK ST8

CYXE;2010-04-14 14:50;CYXE 141450Z 18008KT 6SM -DZ BR OVC005 04/ RMK ST8

CYXE;2010-04-14 15:00;CYXE 141500Z 18007KT 6SM -RA BR OVC005 04/04 A2941 RMK SC8 SLP978

CYXE;2010-04-14 15:14;CYXE 141514Z 18006KT 3SM -DZ BR OVC003 04/ RMK ST8

CYXE;2010-04-14 16:00;CYXE 141600Z 16008KT 4SM -DZ BR OVC003 05/05 A2941 RMK ST8 SLP977

CYXE;2010-04-14 16:42;CYXE 141642Z 17006KT 6SM -DZ BR OVC006 05/ RMK ST8

CYXE;2010-04-14 17:00;CYXE 141700Z 17004KT 10SM -RA OVC007 05/05 A2941 RMK SC8 SLP978

CYXE;2010-04-14 18:00;CYXE 141800Z 17004KT 15SM -RA OVC008 06/05 A2943 RMK SC8 -RA INTMT SLP985

CYXE;2010-04-14 19:00;CYXE 141900Z 12002KT 15SM -RA OVC009 06/05 A2945 RMK SC8 -RA INTMT SLP989

CYXE;2010-04-14 20:00;CYXE 142000Z 18002KT 15SM -RA OVC008 06/05 A2945 RMK SC8 -RA INTMT SLP991

CYXE;2010-04-14 21:00;CYXE 142100Z 00000KT 15SM OVC008 06/05 A2947 RMK SC8 SLP999

CYXE;2010-04-14 22:00;CYXE 142200Z 04004KT 4SM -DZ OVC008 06/06 A2951 RMK ST8 SLP009

CYXE;2010-04-14 23:00;CYXE 142300Z 02004KT 4SM -DZ BR BKN004 OVC010 06/06 A2953 RMK SF5ST3 SLP018

CYXE;2010-04-14 23:43;CYXE 142343Z 03004KT 10SM BKN004 OVC008 06/ RMK SF6ST2 BR

CYXE;2010-04-15 00:00;CYXE 150000Z 36003KT 12SM SCT004 OVC008 06/06 A2957 RMK SF3ST5 BR SLP032

CYXE;2010-04-15 01:00;CYXE 150100Z 35014KT 12SM -RA SCT004 OVC007 06/06 A2961 RMK SF4SC4 SLP043

CYXE;2010-04-15 01:34;CYXE 150134Z 34015KT 2SM -RA BR BKN003 OVC007 05/ RMK SF6SC2

CYXE;2010-04-15 02:00;CYXE 150200Z 33014KT 10SM -RA SCT003 OVC005 05/05 A2966 RMK SF4ST4 SLP060

CYXE;2010-04-15 02:29;CYXE 150229Z 34022KT 6SM -RA SCT004 OVC009 04/ RMK SF3ST5

CYXE;2010-04-15 03:00;CYXE 150300Z 34016KT 10SM -RA SCT003 OVC008 03/03 A2970 RMK SF3ST5 SLP079

CYXE;2010-04-15 03:16;CYXE 150316Z 34014G19KT 12SM FEW003 SCT008 OVC014 03/ RMK SF2SF2SC5

CYXE;2010-04-15 03:46;CYXE 150346Z 32016KT 12SM -RA FEW008 BKN012 OVC024 03/ RMK SF2SC5SC2

CYXE;2010-04-15 04:00;CYXE 150400Z 33017KT 12SM -RA OVC012 03/03 A2974 RMK SC8 SLP090

CYXE;2010-04-15 05:00;CYXE 150500Z 33014G19KT 15SM -RA BKN016 OVC030 03/03 A2977 RMK SC6SC2 SLP100

CYXE;2010-04-15 06:00;CYXE 150600Z 33011KT 15SM -RA OVC020 04/04 A2980 RMK SC8 SLP113

CYXE;2010-04-15 06:14;CYXE 150614Z 34015KT 15SM SCT020 OVC060 05/ RMK SC3SC5

CYXE;2010-04-15 07:00;CYXE 150700Z 34016G22KT 15SM OVC041 05/03 A2984 RMK SC8 SLP125

CYXE;2010-04-15 08:00;CYXE 150800Z 33015G21KT 15SM BKN060 05/03 A2988 RMK SC7 SLP137

CYXE;2010-04-15 09:00;CYXE 150900Z 31012KT 15SM BKN060 03/02 A2992 RMK SC6 SLP154

CYXE;2010-04-15 10:00;CYXE 151000Z 35015KT 15SM SKC 03/01 A2996 RMK SLP165

CYXE;2010-04-15 10:45;CYXE 151045Z 33011KT 15SM SKC 02/

CYXE;2010-04-15 11:00;CYXE 151100Z 33010KT 15SM SKC 02/00 A3001 RMK SLP180

CYXE;2010-04-15 12:00;CYXE 151200Z 33011KT 15SM SKC 01/M00 A3005 RMK SLP200

CYXE;2010-04-15 13:00;CYXE 151300Z 32012KT 15SM SKC 01/M00 A3009 RMK SLP212

CYXE;2010-04-15 14:00;CYXE 151400Z 32013KT 15SM SKC 03/01 A3015 RMK SLP230

CYXE;2010-04-15 15:00;CYXE 151500Z 34015G20KT 15SM FEW010 04/02 A3018 RMK CF1 SLP245

CYXE;2010-04-15 16:00;CYXE 151600Z 34013G19KT 15SM FEW018 06/02 A3022 RMK CU2 SLP257

CYXE;2010-04-15 17:00;CYXE 151700Z 36012G18KT 15SM FEW025 08/02 A3025 RMK CU2 SLP267

CYXE;2010-04-15 18:00;CYXE 151800Z 34014KT 15SM FEW030 09/01 A3027 RMK CU1 SLP270

CYXE;2010-04-15 19:00;CYXE 151900Z 02010G20KT 15SM SKC 12/M03 A3029 RMK SLP278

CYXE;2010-04-15 20:00;CYXE 152000Z 36013KT 15SM SKC 12/M03 A3032 RMK SLP285

CYXE;2010-04-15 21:00;CYXE 152100Z 36011KT 15SM SKC 12/M05 A3034 RMK SLP292

CYXE;2010-04-15 22:00;CYXE 152200Z 01009G16KT 15SM SKC 13/M05 A3035 RMK SLP295

CYXE;2010-04-15 23:00;CYXE 152300Z 01008KT 15SM SKC 13/M06 A3036 RMK SLP300

CYXE;2010-04-16 00:00;CYXE 160000Z 03005KT 15SM SKC 13/M06 A3037 RMK SLP304

CYXE;2010-04-16 01:00;CYXE 160100Z 35002KT 15SM SKC 12/M05 A3037 RMK SLP306

CYXE;2010-04-16 02:00;CYXE 160200Z 00000KT 15SM SKC 10/M04 A3038 RMK SLP307

CYXE;2010-04-16 03:00;CYXE 160300Z 19002KT 15SM SKC 09/M05 A3040 RMK SLP313

CYXE;2010-04-16 04:00;CYXE 160400Z 22003KT 15SM SKC 08/M04 A3040 RMK SLP316

CYXE;2010-04-16 05:00;CYXE 160500Z 32005KT 15SM SKC 02/M02 A3041 RMK SLP319

CYXE;2010-04-16 06:00;CYXE 160600Z 00000KT 15SM SKC 05/M02 A3041 RMK SLP319

CYXE;2010-04-16 07:00;CYXE 160700Z 17004KT 15SM SKC 03/M02 A3042 RMK SLP321

CYXE;2010-04-16 08:00;CYXE 160800Z 22004KT 15SM SKC 01/M03 A3042 RMK SLP322

CYXE;2010-04-16 09:00;CYXE 160900Z 16003KT 15SM SKC 00/M03 A3042 RMK SLP323

CYXE;2010-04-16 10:00;CYXE 161000Z 20006KT 15SM SKC 00/M03 A3043 RMK SLP326

CYXE;2010-04-16 11:00;CYXE 161100Z 19006KT 15SM SKC 00/M03 A3043 RMK SLP325

CYXE;2010-04-16 12:00;CYXE 161200Z 19008KT 15SM FEW250 00/M03 A3042 RMK CI0 SLP323

CYXE;2010-04-16 13:00;CYXE 161300Z 19005KT 15SM FEW250 01/M03 A3042 RMK CI0 SLP323

CYXE;2010-04-16 14:00;CYXE 161400Z 18007KT 15SM FEW250 03/M02 A3042 RMK CI0 SLP321

CYXE;2010-04-16 15:00;CYXE 161500Z 19010KT 15SM FEW250 07/M02 A3040 RMK CI0 SLP314

CYXE;2010-04-16 16:00;CYXE 161600Z 18012KT 15SM SKC 09/M01 A3039 RMK SLP309

CYXE;2010-04-16 17:00;CYXE 161700Z 19011G16KT 15SM FEW250 12/M01 A3037 RMK CI0 SLP303

CYXE;2010-04-16 18:00;CYXE 161800Z 21013KT 15SM BKN250 13/M03 A3035 RMK CI0 SLP294

CYXE;2010-04-16 19:00;CYXE 161900Z 20013G18KT 15SM SCT250 14/M02 A3032 RMK CI0 SLP287

CYXE;2010-04-16 20:00;CYXE 162000Z 20015KT 15SM SCT250 15/M01 A3029 RMK CI0 SLP277

CYXE;2010-04-16 21:00;CYXE 162100Z 18016G22KT 15SM SCT290 16/M01 A3027 RMK CI0 SLP267

CYXE;2010-04-16 22:00;CYXE 162200Z 16015G22KT 15SM SCT290 17/M02 A3023 RMK CI0 SLP257

CYXE;2010-04-16 23:00;CYXE 162300Z 17014G21KT 15SM SKC 17/M03 A3020 RMK SLP246

CYXE;2010-04-17 00:00;CYXE 170000Z 17014KT 15SM SKC 17/M03 A3018 RMK SLP236

CYXE;2010-04-17 01:00;CYXE 170100Z 18013G18KT 15SM SKC 16/M03 A3015 RMK SLP229

CYXE;2010-04-17 02:00;CYXE 170200Z 16010KT 15SM SKC 14/M02 A3014 RMK SLP224

CYXE;2010-04-17 03:00;CYXE 170300Z 16008KT 15SM SKC 12/M02 A3014 RMK SLP222

CYXE;2010-04-17 04:00;CYXE 170400Z 15009KT 15SM SKC 11/M02 A3013 RMK SLP220

CYXE;2010-04-17 05:00;CYXE 170500Z 16010KT 15SM SKC 10/M01 A3012 RMK SLP215

CYXE;2010-04-17 06:00;CYXE 170600Z 16010KT 15SM SKC 08/M01 A3011 RMK SLP210

CYXE;2010-04-17 07:00;CYXE 170700Z 15008KT 15SM SKC 07/M02 A3010 RMK SLP207

CYXE;2010-04-17 08:00;CYXE 170800Z 16007KT 15SM SKC 05/M02 A3009 RMK SLP205

CYXE;2010-04-17 09:00;CYXE 170900Z 16007KT 15SM SKC 06/M02 A3008 RMK SLP199

CYXE;2010-04-17 10:00;CYXE 171000Z 16007KT 15SM SKC 06/M02 A3007 RMK SLP197

CYXE;2010-04-17 11:00;CYXE 171100Z 15006KT 15SM SKC 04/M02 A3007 RMK SLP196

CYXE;2010-04-17 12:00;CYXE 171200Z 16007KT 15SM SKC 03/M02 A3007 RMK SLP197

CYXE;2010-04-17 13:00;CYXE 171300Z 16006KT 15SM SKC 04/M01 A3006 RMK SLP196

CYXE;2010-04-17 14:00;CYXE 171400Z 16008KT 15SM SKC 07/M01 A3006 RMK SLP196

CYXE;2010-04-17 15:00;CYXE 171500Z 17007KT 15SM SKC 09/M01 A3006 RMK SLP193

CYXE;2010-04-17 16:00;CYXE 171600Z 17010KT 15SM SKC 11/M01 A3005 RMK SLP191

CYXE;2010-04-17 17:00;CYXE 171700Z 18006KT 15SM SKC 13/M01 A3005 RMK SLP190

CYXE;2010-04-17 18:00;CYXE 171800Z 15008KT 15SM SKC 16/M00 A3004 RMK SLP185

CYXE;2010-04-17 19:00;CYXE 171900Z 19007KT 15SM SKC 17/M00 A3003 RMK SLP181

CYXE;2010-04-17 20:00;CYXE 172000Z 12008KT 15SM SKC 19/M01 A3001 RMK SLP176

CYXE;2010-04-17 21:00;CYXE 172100Z 13005KT 15SM FEW300 20/M01 A3000 RMK CI0 SLP171

CYXE;2010-04-17 22:00;CYXE 172200Z 11008KT 15SM SKC 20/M00 A2999 RMK SLP168

CYXE;2010-04-17 23:00;CYXE 172300Z 11008KT 15SM SKC 20/M00 A2999 RMK SLP168

CYXE;2010-04-18 00:00;CYXE 180000Z 11011KT 15SM SKC 19/M01 A2999 RMK SLP169

CYXE;2010-04-18 01:00;CYXE 180100Z 11008KT 15SM SKC 18/M02 A2999 RMK SLP168

CYXE;2010-04-18 02:00;CYXE 180200Z 09007KT 15SM SKC 12/M01 A2999 RMK SLP168

CYXE;2010-04-18 03:00;CYXE 180300Z 08008KT 15SM SKC 10/01 A2999 RMK SLP172

CYXE;2010-04-18 04:00;CYXE 180400Z 07008KT 15SM SKC 08/01 A2999 RMK SLP172

CYXE;2010-04-18 05:00;CYXE 180500Z 06006KT 15SM SKC 06/01 A2999 RMK SLP172

CYXE;2010-04-18 06:00;CYXE 180600Z 07005KT 15SM SKC 04/01 A3000 RMK SLP172

CYXE;2010-04-18 07:00;CYXE 180700Z 06005KT 15SM SKC 05/02 A2999 RMK SLP171

CYXE;2010-04-18 08:00;CYXE 180800Z 07006KT 15SM SKC 02/00 A2999 RMK SLP170

CYXE;2010-04-18 09:00;CYXE 180900Z 06005KT 15SM SKC 02/01 A2998 RMK SLP167

CYXE;2010-04-18 10:00;CYXE 181000Z 07006KT 15SM SKC 01/00 A2999 RMK SLP169

CYXE;2010-04-18 11:00;CYXE 181100Z 07006KT 15SM SKC 01/00 A3000 RMK SLP172

CYXE;2010-04-18 12:00;CYXE 181200Z 07006KT 15SM SCT250 01/00 A3001 RMK CI0 SLP176

CYXE;2010-04-18 13:00;CYXE 181300Z 08005KT 15SM BKN250 04/02 A3003 RMK CI2 SLP182

CYXE;2010-04-18 14:00;CYXE 181400Z 10004KT 15SM BKN280 07/03 A3003 RMK CI2 SLP182

CYXE;2010-04-18 15:00;CYXE 181500Z 12004KT 15SM BKN280 11/02 A3002 RMK CI2 SLP181

CYXE;2010-04-18 16:00;CYXE 181600Z 13005KT 15SM BKN280 14/02 A3002 RMK CI1 SLP181

CYXE;2010-04-18 17:00;CYXE 181700Z 13006KT 15SM BKN280 16/02 A3002 RMK CI1 SLP179

CYXE;2010-04-18 18:00;CYXE 181800Z 14008KT 15SM SCT280 19/01 A3001 RMK CI1 SLP176

CYXE;2010-04-18 19:00;CYXE 181900Z 13009KT 15SM SCT280 21/M00 A3000 RMK CI0 SLP173

CYXE;2010-04-18 20:00;CYXE 182000Z 14011KT 15SM BKN280 22/00 A3000 RMK CI1 CONTRAILS SLP171

CYXE;2010-04-18 21:00;CYXE 182100Z 12012KT 15SM BKN280 22/M01 A3000 RMK CI1 SLP170

CYXE;2010-04-18 22:00;CYXE 182200Z 12009KT 15SM BKN300 21/M03 A2998 RMK CI1 SLP166

CYXE;2010-04-18 23:00;CYXE 182300Z 14008KT 15SM BKN300 21/M02 A2998 RMK CI1 SLP165

CYXE;2010-04-19 00:00;CYXE 190000Z 12010KT 15SM BKN300 21/M01 A2998 RMK CI1 SLP166

CYXE;2010-04-19 01:00;CYXE 190100Z 12009KT 15SM BKN300 20/M01 A2998 RMK CI1 SLP167

CYXE;2010-04-19 02:00;CYXE 190200Z 09006KT 15SM BKN300 15/01 A2999 RMK CI1 SLP169

CYXE;2010-04-19 03:00;CYXE 190300Z 06008KT 15SM BKN300 11/02 A3001 RMK CI1 SLP175

CYXE;2010-04-19 04:00;CYXE 190400Z 07008KT 15SM BKN300 09/02 A3001 RMK CI1 SLP176

CYXE;2010-04-19 05:00;CYXE 190500Z 07008KT 15SM FEW300 07/02 A3001 RMK CI1 SLP176

CYXE;2010-04-19 06:00;CYXE 190600Z 07006KT 15SM SCT300 06/02 A3001 RMK CI1 SLP174

CYXE;2010-04-19 07:00;CYXE 190700Z 09005KT 15SM FEW250 08/02 A3001 RMK CI1 SLP175

CYXE;2010-04-19 08:00;CYXE 190800Z 11004KT 15SM FEW250 08/02 A3002 RMK CI0 SLP176

CYXE;2010-04-19 09:00;CYXE 190900Z 14004KT 15SM SKC 09/02 A3003 RMK SLP178

CYXE;2010-04-19 10:00;CYXE 191000Z 13007KT 15SM SKC 08/02 A3003 RMK SLP179

CYXE;2010-04-19 11:00;CYXE 191100Z 13008KT 15SM SCT250 08/02 A3004 RMK CI0 SLP181

CYXE;2010-04-19 12:00;CYXE 191200Z 12005KT 15SM SCT250 07/02 A3005 RMK CI0 SLP187

CYXE;2010-04-19 13:00;CYXE 191300Z 12006KT 15SM FEW250 08/03 A3006 RMK CI0 SLP191

CYXE;2010-04-19 14:00;CYXE 191400Z 13005KT 15SM FEW250 10/03 A3008 RMK CI0 SLP195

CYXE;2010-04-19 15:00;CYXE 191500Z 10005KT 15SM SCT280 13/03 A3009 RMK CI1 SLP203

CYXE;2010-04-19 16:00;CYXE 191600Z 12008KT 15SM FEW280 16/03 A3009 RMK CI0 SLP203

CYXE;2010-04-19 17:00;CYXE 191700Z 11011KT 15SM SKC 19/02 A3009 RMK SLP204

CYXE;2010-04-19 18:00;CYXE 191800Z 13016KT 15SM FEW290 20/01 A3009 RMK CI0 SLP202

CYXE;2010-04-19 19:00;CYXE 191900Z 14012G17KT 15SM FEW290 20/M01 A3009 RMK CI0 SLP200

CYXE;2010-04-19 20:00;CYXE 192000Z 11014KT 15SM FEW290 22/M00 A3008 RMK CI0 SLP199

CYXE;2010-04-19 21:00;CYXE 192100Z 14009G16KT 15SM FEW290 22/M00 A3008 RMK CI0 SLP195

CYXE;2010-04-19 22:00;CYXE 192200Z 12009G17KT 15SM FEW290 22/M00 A3006 RMK CI0 SLP190

CYXE;2010-04-19 23:00;CYXE 192300Z 12013KT 15SM FEW290 22/00 A3006 RMK CI0 SLP189

CYXE;2010-04-20 00:00;CYXE 200000Z 13012KT 15SM FEW290 21/M01 A3006 RMK CI0 SLP190

CYXE;2010-04-20 01:00;CYXE 200100Z 13011KT 15SM SKC 20/M02 A3006 RMK SLP190

CYXE;2010-04-20 02:00;CYXE 200200Z 12008KT 15SM SKC 17/M03 A3007 RMK SLP192

CYXE;2010-04-20 03:00;CYXE 200300Z 11010KT 15SM SKC 15/00 A3008 RMK SLP195

CYXE;2010-04-20 04:00;CYXE 200400Z 12010KT 15SM SKC 14/00 A3008 RMK SLP195

CYXE;2010-04-20 05:00;CYXE 200500Z 12009KT 15SM SKC 13/00 A3008 RMK SLP195

CYXE;2010-04-20 06:00;CYXE 200600Z 13008KT 15SM SKC 11/01 A3008 RMK SLP194

CYXE;2010-04-20 07:00;CYXE 200700Z 13008KT 15SM SKC 10/01 A3008 RMK SLP196

CYXE;2010-04-20 08:00;CYXE 200800Z 13009KT 15SM SKC 09/01 A3009 RMK SLP198

CYXE;2010-04-20 09:00;CYXE 200900Z 13011KT 15SM SKC 08/02 A3009 RMK SLP200

CYXE;2010-04-20 10:00;CYXE 201000Z 14009KT 15SM SKC 07/02 A3010 RMK SLP201

CYXE;2010-04-20 11:00;CYXE 201100Z 13009KT 15SM SKC 07/02 A3009 RMK SLP200

CYXE;2010-04-20 12:00;CYXE 201200Z 14009KT 15SM FEW280 06/01 A3010 RMK CI0 SLP203

CYXE;2010-04-20 13:00;CYXE 201300Z 14009KT 15SM FEW280 07/01 A3011 RMK CI0 SLP206

CYXE;2010-04-20 14:00;CYXE 201400Z 14006KT 15SM SKC 09/02 A3011 RMK SLP208

CYXE;2010-04-20 15:00;CYXE 201500Z 17004KT 15SM SKC 12/02 A3011 RMK SLP209

CYXE;2010-04-20 16:00;CYXE 201600Z 18003KT 15SM SKC 14/02 A3011 RMK SLP208

CYXE;2010-04-20 17:00;CYXE 201700Z 13006KT 15SM SKC 17/03 A3010 RMK SLP204

CYXE;2010-04-20 18:00;CYXE 201800Z 18006KT 15SM SKC 20/01 A3008 RMK HZ SLP195

CYXE;2010-04-20 19:00;CYXE 201900Z 16010G17KT 15SM SKC 22/M02 A3006 RMK SLP190

CYXE;2010-04-20 20:00;CYXE 202000Z 17013G18KT 15SM SKC 22/M03 A3005 RMK SLP185

CYXE;2010-04-20 21:00;CYXE 202100Z 13010G17KT 15SM SKC 22/M02 A3004 RMK SLP180

CYXE;2010-04-20 22:00;CYXE 202200Z 18015KT 15SM FEW280 22/M03 A3002 RMK CI1 SLP175

CYXE;2010-04-20 23:00;CYXE 202300Z 15012KT 15SM FEW280 22/M03 A3001 RMK CI1 SLP172

CYXE;2010-04-21 00:00;CYXE 210000Z 15009KT 15SM FEW100 FEW280 21/M03 A3000 RMK FU1CI1 SLP168

CYXE;2010-04-21 01:00;CYXE 210100Z 14010KT 15SM FEW080 FEW280 20/M02 A2998 RMK FU1CI0 SLP163

CYXE;2010-04-21 02:00;CYXE 210200Z 12008KT 15SM FEW080 FEW280 16/M01 A2997 RMK FU1CI0 SLP161

CYXE;2010-04-21 03:00;CYXE 210300Z 13008KT 15SM FEW280 14/M01 A2997 RMK CI1 SLP160

CYXE;2010-04-21 04:00;CYXE 210400Z 12010KT 15SM FEW280 13/02 A2997 RMK CI1 SLP159

CYXE;2010-04-21 05:00;CYXE 210500Z 13009KT 15SM FEW280 12/03 A2996 RMK CI0 SLP156

CYXE;2010-04-21 06:00;CYXE 210600Z 13011KT 15SM FEW280 11/02 A2996 RMK CI0 SLP153

CYXE;2010-04-21 07:00;CYXE 210700Z 14011G16KT 15SM FEW280 11/01 A2996 RMK CI0 SLP153

CYXE;2010-04-21 08:00;CYXE 210800Z 15010KT 15SM FEW280 09/01 A2996 RMK CI0 SLP155

CYXE;2010-04-21 09:00;CYXE 210900Z 14009KT 15SM SKC 08/00 A2996 RMK SLP154

CYXE;2010-04-21 10:00;CYXE 211000Z 15006KT 15SM SKC 07/00 A2996 RMK SLP155

CYXE;2010-04-21 11:00;CYXE 211100Z 15007KT 15SM SKC 06/M00 A2995 RMK SLP151

CYXE;2010-04-21 12:00;CYXE 211200Z 14007KT 15SM FEW280 05/M00 A2994 RMK CI0 SLP150

CYXE;2010-04-21 13:00;CYXE 211300Z 16008KT 15SM FEW280 08/00 A2993 RMK CI0 SLP148

CYXE;2010-04-21 14:00;CYXE 211400Z 17011KT 15SM FEW280 10/00 A2992 RMK CI1 SLP145

CYXE;2010-04-21 15:00;CYXE 211500Z 18014KT 15SM FEW280 13/01 A2991 RMK CI1 SLP140

CYXE;2010-04-21 16:00;CYXE 211600Z 19008KT 15SM SCT280 15/01 A2991 RMK CI1 SLP139

CYXE;2010-04-21 17:00;CYXE 211700Z 20009KT 15SM BKN280 17/02 A2989 RMK CI2 SLP134

CYXE;2010-04-21 18:00;CYXE 211800Z 20010KT 15SM SCT280 20/01 A2987 RMK CI1 SLP123

CYXE;2010-04-21 19:00;CYXE 211900Z 17006KT 15SM SCT280 21/01 A2985 RMK CI1 SLP116

CYXE;2010-04-21 20:00;CYXE 212000Z 19012G18KT 15SM SCT280 22/M02 A2983 RMK CI1 SLP111

CYXE;2010-04-21 21:00;CYXE 212100Z 19009G16KT 15SM FEW280 22/M03 A2982 RMK CI1 SLP105

CYXE;2010-04-21 22:00;CYXE 212200Z 19013KT 15SM FEW280 22/M02 A2979 RMK CI1 SLP098

CYXE;2010-04-21 23:00;CYXE 212300Z 14011KT 15SM FEW280 22/M02 A2977 RMK CI1 SLP091

CYXE;2010-04-22 00:00;CYXE 220000Z 18012KT 15SM FEW280 22/M02 A2975 RMK CI1 SLP084

CYXE;2010-04-22 01:00;CYXE 220100Z 17009KT 15SM FEW280 21/M02 A2974 RMK CI0 SLP079

CYXE;2010-04-22 02:00;CYXE 220200Z 14007KT 15SM SKC 18/M01 A2973 RMK SLP078

CYXE;2010-04-22 03:00;CYXE 220300Z CCA 14010KT 15SM SKC 16/00 A2974 RMK SLP079

CYXE;2010-04-22 04:00;CYXE 220400Z 15011KT 15SM SKC 15/00 A2974 RMK SLP079

CYXE;2010-04-22 05:00;CYXE 220500Z 16011G16KT 15SM SKC 14/00 A2973 RMK SLP077

CYXE;2010-04-22 06:00;CYXE 220600Z 17009KT 15SM SKC 12/00 A2973 RMK SLP073

CYXE;2010-04-22 07:00;CYXE 220700Z 16008KT 15SM SKC 10/M00 A2973 RMK SLP074

CYXE;2010-04-22 08:00;CYXE 220800Z 19009KT 15SM SKC 10/M02 A2973 RMK SLP073

CYXE;2010-04-22 09:00;CYXE 220900Z 18008KT 15SM SKC 09/M03 A2973 RMK SLP076

CYXE;2010-04-22 10:00;CYXE 221000Z 18010KT 15SM SKC 09/M04 A2973 RMK SLP075

CYXE;2010-04-22 11:00;CYXE 221100Z 18012KT 15SM SKC 09/M05 A2972 RMK SLP072

CYXE;2010-04-22 12:00;CYXE 221200Z 18006KT 15SM SKC 07/M04 A2972 RMK SLP071

CYXE;2010-04-22 13:00;CYXE 221300Z 17005KT 15SM SKC 08/M04 A2972 RMK SLP073

CYXE;2010-04-22 14:00;CYXE 221400Z 18007KT 15SM SKC 11/M04 A2971 RMK SLP068

CYXE;2010-04-22 15:00;CYXE 221500Z 21006KT 15SM SKC 14/M03 A2970 RMK SLP065

CYXE;2010-04-22 16:00;CYXE 221600Z 19008KT 15SM FEW300 18/M02 A2969 RMK CI0 SLP062

CYXE;2010-04-22 17:00;CYXE 221700Z 17011G16KT 15SM BKN300 20/M02 A2968 RMK CI1 SLP058

CYXE;2010-04-22 18:00;CYXE 221800Z 17011KT 15SM BKN300 21/M01 A2967 RMK CI1 SLP052

CYXE;2010-04-22 19:00;CYXE 221900Z 20008KT 15SM SKC 22/M01 A2965 RMK HZ SLP045

CYXE;2010-04-22 20:00;CYXE 222000Z 20002KT 15SM SKC 22/M02 A2963 RMK HZ SLP039

CYXE;2010-04-22 21:00;CYXE 222100Z 16006KT 15SM SKC 23/M01 A2961 RMK SLP035

CYXE;2010-04-22 22:00;CYXE 222200Z 15010KT 15SM SKC 23/M02 A2959 RMK SLP028

CYXE;2010-04-22 23:00;CYXE 222300Z 14005KT 15SM FEW300 22/M02 A2959 RMK CI0 SLP026

CYXE;2010-04-23 00:00;CYXE 230000Z 12009KT 15SM FEW300 22/M02 A2957 RMK CI0 SLP023

CYXE;2010-04-23 01:00;CYXE 230100Z 12010KT 15SM FEW300 20/M04 A2957 RMK CI0 SLP021

CYXE;2010-04-23 02:00;CYXE 230200Z 11008KT 15SM FEW300 18/M04 A2956 RMK CI0 SLP019

CYXE;2010-04-23 03:00;CYXE 230300Z 12009KT 15SM FEW300 15/M03 A2957 RMK CI0 SLP020

CYXE;2010-04-23 04:00;CYXE 230400Z 12008KT 15SM SKC 13/M03 A2956 RMK SLP017

CYXE;2010-04-23 05:00;CYXE 230500Z 13010KT 15SM SKC 14/M02 A2955 RMK SLP014

CYXE;2010-04-23 06:00;CYXE 230600Z 13008KT 15SM SKC 13/M02 A2954 RMK SLP009

CYXE;2010-04-23 07:00;CYXE 230700Z 13008KT 15SM SCT110 11/M01 A2953 RMK AC3 SLP005

CYXE;2010-04-23 08:00;CYXE 230800Z 13006KT 15SM SCT110 11/M00 A2951 RMK AC3 SLP999

CYXE;2010-04-23 09:00;CYXE 230900Z 13005KT 15SM SCT110 12/M02 A2949 RMK AC3 SLP990

CYXE;2010-04-23 10:00;CYXE 231000Z 13006KT 15SM FEW110 SCT290 10/M00 A2947 RMK AC2CI0 SLP985

CYXE;2010-04-23 11:00;CYXE 231100Z 14005KT 15SM SCT110 BKN290 10/01 A2946 RMK AC4CI0 SLP981

CYXE;2010-04-23 12:00;CYXE 231200Z 14005KT 15SM SCT110 BKN290 09/01 A2945 RMK AC4CI0 SLP978

CYXE;2010-04-23 13:00;CYXE 231300Z 16008KT 15SM BKN110 BKN290 10/02 A2946 RMK AC5CI0 SLP981

CYXE;2010-04-23 14:00;CYXE 231400Z 21007KT 15SM SCT110 BKN300 11/04 A2945 RMK AC4CI1 SLP980

CYXE;2010-04-23 15:00;CYXE 231500Z 22007KT 15SM BKN110 BKN300 12/04 A2945 RMK AC5CI2 SLP982

CYXE;2010-04-23 16:00;CYXE 231600Z 18007KT 15SM BKN110 OVC300 13/04 A2946 RMK AC6CI2 SLP986

CYXE;2010-04-23 16:11;CYXE 231611Z 21010KT 10SM -SHRA BKN063 OVC110 12/ RMK SC5AC3

CYXE;2010-04-23 16:12;CYXE 231612Z CCA 21010KT 10SM -SHRA FEW025 BKN063 OVC110 12/ RMK SC2SC2AC3

CYXE;2010-04-23 17:00;CYXE 231700Z 22010G15KT 15SM -SHRA FEW011 BKN064 OVC110 08/06 A2950 RMK SF2SC5AC2 SLP997

CYXE;2010-04-23 18:00;CYXE 231800Z 27007KT 10SM -RA BKN008 OVC050 09/08 A2948 RMK SF6SC2 SLP994

CYXE;2010-04-23 18:27;CYXE 231827Z 25008KT 10SM -RA FEW008 BKN027 OVC100 10/ RMK SF1SC6AC2

CYXE;2010-04-23 19:00;CYXE 231900Z 26011KT 8SM -RA SCT015 BKN055 OVC110 08/08 A2951 RMK SC4SC2AC2 SLP003

CYXE;2010-04-23 20:00;CYXE 232000Z 25015KT 10SM -RA BKN010 OVC052 07/06 A2953 RMK SC5SC3 SLP011

CYXE;2010-04-23 20:15;CYXE 232015Z 26014KT 10SM -RA BKN008 OVC058 08/ RMK SC5SC3

CYXE;2010-04-23 21:00;CYXE 232100Z 26014KT 15SM -RA BKN010 OVC022 08/07 A2954 RMK SC6SC2 SLP015

CYXE;2010-04-23 21:16;CYXE 232116Z 27013KT 15SM BKN010 OVC025 08/ RMK SC6SC2

CYXE;2010-04-23 22:00;CYXE 232200Z 27013KT 15SM BKN014 OVC040 08/05 A2956 RMK SC6SC2 SLP022

CYXE;2010-04-23 22:11;CYXE 232211Z 25015G20KT 15SM BKN016 OVC040 07/ RMK SC7SC1

CYXE;2010-04-23 23:00;CYXE 232300Z 26018KT 15SM BKN020 OVC050 07/04 A2958 RMK SC7SC1 SLP028

CYXE;2010-04-24 00:00;CYXE 240000Z 28017G25KT 15SM BKN022 07/03 A2960 RMK SC7 SLP038

CYXE;2010-04-24 01:00;CYXE 240100Z 29017KT 15SM BKN028 07/02 A2961 RMK SC6 SLP041

CYXE;2010-04-24 02:00;CYXE 240200Z 28013G19KT 15SM SCT030 06/02 A2962 RMK SC4 SLP045

CYXE;2010-04-24 03:00;CYXE 240300Z 27015G24KT 15SM SCT030 05/02 A2964 RMK SC3 SLP052

CYXE;2010-04-24 04:00;CYXE 240400Z 26010G17KT 15SM BKN028 06/03 A2964 RMK SC6 SLP052

CYXE;2010-04-24 05:00;CYXE 240500Z 25012KT 15SM BKN023 06/03 A2963 RMK SC7 SLP049

CYXE;2010-04-24 06:00;CYXE 240600Z 26020G25KT 15SM BKN024 05/02 A2963 RMK SC6 SLP049

CYXE;2010-04-24 07:00;CYXE 240700Z 27015G25KT 15SM SCT024 04/02 A2964 RMK SC4 SLP054

CYXE;2010-04-24 08:00;CYXE 240800Z 27013KT 15SM BKN022 04/01 A2965 RMK SC6 SLP055

CYXE;2010-04-24 09:00;CYXE 240900Z 27009G15KT 15SM BKN020 04/01 A2966 RMK SC6 SLP062

CYXE;2010-04-24 10:00;CYXE 241000Z 27012KT 15SM OVC020 03/01 A2968 RMK SC8 SLP069

CYXE;2010-04-24 11:00;CYXE 241100Z 27013G20KT 15SM OVC018 03/01 A2969 RMK SC8 SLP073

CYXE;2010-04-24 12:00;CYXE 241200Z 27011G16KT 15SM OVC018 03/01 A2971 RMK SC8 SLP080

CYXE;2010-04-24 13:00;CYXE 241300Z 29013KT 15SM SCT018 SCT070 BKN270 03/01 A2972 RMK SC3AC1CI0 SLP083

CYXE;2010-04-24 14:00;CYXE 241400Z 29015KT 15SM SCT019 BKN300 04/01 A2973 RMK SC4CI1 SLP087

CYXE;2010-04-24 15:00;CYXE 241500Z 30011G19KT 15SM BKN017 05/01 A2974 RMK CU6 SLP091

CYXE;2010-04-24 16:00;CYXE 241600Z 30018KT 15SM BKN019 06/00 A2975 RMK CU6 SLP094

CYXE;2010-04-24 17:00;CYXE 241700Z 32015G24KT 15SM SCT024 06/M01 A2976 RMK CU4 SLP097

CYXE;2010-04-24 18:00;CYXE 241800Z 32015KT 15SM SCT030 08/M01 A2976 RMK CU4 SLP096

CYXE;2010-04-24 19:00;CYXE 241900Z 32012KT 15SM SCT034 09/M01 A2976 RMK CU3 SLP097

CYXE;2010-04-24 20:00;CYXE 242000Z 33010G17KT 15SM FEW036 SCT096 BKN300 09/M01 A2977 RMK CU2AC1CI0 SLP099

CYXE;2010-04-24 21:00;CYXE 242100Z 33015KT 15SM SCT040 SCT096 08/M01 A2978 RMK CU3AC1 SLP101

CYXE;2010-04-24 22:00;CYXE 242200Z 32010KT 15SM SCT040 BKN250 09/M02 A2978 RMK CU3CI1 SLP104

CYXE;2010-04-24 23:00;CYXE 242300Z 34008KT 15SM FEW040 BKN250 08/M02 A2979 RMK CU2CI2 SLP106

CYXE;2010-04-25 00:00;CYXE 250000Z 36007G17KT 15SM FEW040 BKN250 08/M02 A2981 RMK SC1CI2 SLP114

CYXE;2010-04-25 01:00;CYXE 250100Z 04012KT 15SM FEW040 FEW250 06/M02 A2983 RMK SC1CI2 SLP119

CYXE;2010-04-25 02:00;CYXE 250200Z 04013KT 15SM FEW040 BKN250 04/M02 A2984 RMK SC1CI5 SLP123

CYXE;2010-04-25 03:00;CYXE 250300Z 04012KT 15SM FEW040 BKN250 03/M02 A2985 RMK SC1CI2 SLP131

CYXE;2010-04-25 03:22;CYXE 250322Z 04013KT 15SM FEW040 BKN250 02/ RMK SC1CI2

CYXE;2010-04-25 04:00;CYXE 250400Z 04010KT 15SM SCT250 01/M03 A2986 RMK CI2 SLP134

CYXE;2010-04-25 05:00;CYXE 250500Z 03008KT 15SM FEW090 BKN250 M00/M02 A2987 RMK AC2CI2 SLP138

CYXE;2010-04-25 06:00;CYXE 250600Z 01006KT 15SM FEW035 BKN090 M01/M02 A2990 RMK SC2AC2 SLP148

CYXE;2010-04-25 07:00;CYXE 250700Z 02006KT 15SM OVC030 00/M01 A2991 RMK SC8 SLP152

CYXE;2010-04-25 08:00;CYXE 250800Z 02011KT 15SM OVC032 00/M02 A2992 RMK SC8 SLP154

CYXE;2010-04-25 08:20;CYXE 250820Z 01010KT 15SM -SN OVC024 M00/ RMK SC8

CYXE;2010-04-25 09:00;CYXE 250900Z 02012KT 8SM -SN OVC022 M01/M02 A2993 RMK SC8 SLP159

CYXE;2010-04-25 10:00;CYXE 251000Z 01010KT 3SM -SN OVC020 M01/M02 A2995 RMK SC8 SLP164

CYXE;2010-04-25 11:00;CYXE 251100Z 02015KT 8SM -SN OVC024 M02/M03 A2996 RMK SC8 SLP168

CYXE;2010-04-25 12:00;CYXE 251200Z 02013KT 15SM BKN024 BKN046 M02/M04 A2999 RMK SC5SC2 SLP180

CYXE;2010-04-25 13:00;CYXE 251300Z 02012KT 15SM FEW024 SCT046 BKN075 M02/M04 A3002 RMK SC2SC2AC4 SLP188

CYXE;2010-04-25 14:00;CYXE 251400Z 01013KT 15SM FEW024 BKN076 M02/M04 A3004 RMK SC2AC6 SLP195

CYXE;2010-04-25 15:00;CYXE 251500Z 03013KT 15SM FEW046 BKN080 OVC300 M01/M04 A3006 RMK SC2AC4CI2 SLP207

CYXE;2010-04-25 16:00;CYXE 251600Z 01013KT 15SM FEW020 BKN084 BKN300 M00/M04 A3008 RMK SC2AC3CI1 SLP212

CYXE;2010-04-25 17:00;CYXE 251700Z 36014KT 15SM SCT026 OVC092 01/M04 A3008 RMK SC4AC4 SLP213

CYXE;2010-04-25 18:00;CYXE 251800Z 01008KT 15SM BKN028 OVC071 02/M05 A3009 RMK SC6AC2 SLP218

CYXE;2010-04-25 19:00;CYXE 251900Z 35012KT 15SM OVC030 02/M05 A3010 RMK SC8 SLP221

CYXE;2010-04-25 20:00;CYXE 252000Z 34008KT 15SM BKN028 OVC074 02/M05 A3011 RMK SC7AC1 SLP223

CYXE;2010-04-25 20:25;CYXE 252025Z 35010KT 10SM -SN OVC028 03/ RMK SC8

CYXE;2010-04-25 20:48;CYXE 252048Z 36011KT 3SM -SHSN OVC030 03/ RMK SC8

CYXE;2010-04-25 21:00;CYXE 252100Z 01009KT 3SM -SHSN OVC030 03/M02 A3011 RMK SC8 SLP224

CYXE;2010-04-25 21:08;CYXE 252108Z 03008KT 2SM -SHSN OVC030 02/ RMK SC8

CYXE;2010-04-25 21:15;CYXE 252115Z 36007KT 1SM R09/P6000FT/N -SHSN VV012 01/ RMK SN8

CYXE;2010-04-25 21:44;CYXE 252144Z 01009KT 2SM -SHSN OVC030 02/ RMK SC8

CYXE;2010-04-25 22:00;CYXE 252200Z 01010KT 1 1/2SM -SHSN OVC030 01/M00 A3013 RMK SC8 SLP229

CYXE;2010-04-25 23:00;CYXE 252300Z 03011KT 1 1/2SM -SHSN OVC030 01/00 A3014 RMK SC8 SLP233

CYXE;2010-04-26 00:00;CYXE 260000Z 03010KT 2SM -SHSN BKN030 02/01 A3015 RMK SC6 SLP238

CYXE;2010-04-26 00:10;CYXE 260010Z CCA 02009KT 3SM -SHSN SCT030 OVC050 02/ RMK SC4SC3

CYXE;2010-04-26 00:46;CYXE 260046Z 01009KT 8SM -SHSN BKN012 OVC028 01/ RMK SC6SC2

CYXE;2010-04-26 01:00;CYXE 260100Z 02007KT 10SM -SN BKN010 OVC030 01/M00 A3016 RMK SC6SC2 SLP242

CYXE;2010-04-26 01:43;CYXE 260143Z 02007KT 15SM -SN SCT010 BKN025 OVC050 01/ RMK SC3SC3SC2

CYXE;2010-04-26 02:00;CYXE 260200Z 03007KT 15SM -SN FEW010 SCT025 OVC050 01/M00 A3017 RMK SC1SC4SC4 SLP243

CYXE;2010-04-26 03:00;CYXE 260300Z 01006KT 15SM -SN OVC026 01/M00 A3018 RMK SC8 SLP249

CYXE;2010-04-26 04:00;CYXE 260400Z 36008KT 15SM -SN OVC030 01/M00 A3019 RMK SC8 SLP251

CYXE;2010-04-26 04:15;CYXE 260415Z 01008KT 15SM SCT030 OVC065 01/ RMK SC4SC4

CYXE;2010-04-26 05:00;CYXE 260500Z 01007KT 15SM BKN035 OVC065 00/M01 A3020 RMK SC6SC2 SLP254

CYXE;2010-04-26 05:19;CYXE 260519Z 02008KT 1SM R09/P6000FT/N -SN BKN035 OVC067 00/ RMK SC6AC2

CYXE;2010-04-26 06:00;CYXE 260600Z 03006KT 15SM -SN BKN037 OVC066 00/M01 A3020 RMK SC7AC1 SLP254

CYXE;2010-04-26 07:00;CYXE 260700Z 01005KT 15SM -SN BKN037 OVC075 00/M00 A3021 RMK SC6AC2 SLP256

CYXE;2010-04-26 08:00;CYXE 260800Z 34004KT 15SM -SN FEW037 OVC068 00/M01 A3021 RMK SC2AC6 SLP257

CYXE;2010-04-26 09:00;CYXE 260900Z 32005KT 15SM -SN OVC068 00/M01 A3022 RMK AC8 SLP260

CYXE;2010-04-26 10:00;CYXE 261000Z 34006KT 15SM FEW036 OVC080 00/M01 A3022 RMK SC2AC6 SLP261

CYXE;2010-04-26 11:00;CYXE 261100Z 33007KT 15SM BKN036 OVC083 M00/M01 A3023 RMK SC5AC3 SLP263

CYXE;2010-04-26 12:00;CYXE 261200Z 34007KT 15SM SCT039 OVC081 M01/M02 A3023 RMK SC4AC4 SLP265

CYXE;2010-04-26 13:00;CYXE 261300Z 35007KT 15SM FEW039 BKN071 M00/M02 A3023 RMK SC2AC6 SLP265

CYXE;2010-04-26 14:00;CYXE 261400Z 36009KT 15SM FEW041 BKN070 01/M01 A3023 RMK SC2AC1 SLP266

CYXE;2010-04-26 15:00;CYXE 261500Z 01008KT 15SM SCT037 BKN070 03/M01 A3024 RMK SC4AC2 SLP266

CYXE;2010-04-26 16:00;CYXE 261600Z 05008KT 15SM BKN037 BKN070 03/M02 A3023 RMK SC6AC2 SLP264

CYXE;2010-04-26 17:00;CYXE 261700Z 03007KT 15SM OVC031 03/M02 A3023 RMK SC8 SLP263

CYXE;2010-04-26 18:00;CYXE 261800Z 03006KT 15SM OVC031 04/M02 A3022 RMK SC7 SLP259

CYXE;2010-04-26 19:00;CYXE 261900Z 05005KT 15SM OVC031 04/M03 A3021 RMK SC8 SLP256

CYXE;2010-04-26 20:00;CYXE 262000Z 34006KT 15SM OVC031 05/M03 A3019 RMK SC8 SLP251

CYXE;2010-04-26 21:00;CYXE 262100Z 02003KT 15SM OVC036 06/M03 A3018 RMK SC8 SLP244

CYXE;2010-04-26 22:00;CYXE 262200Z 34004KT 15SM OVC038 06/M03 A3016 RMK SC8 SLP238

CYXE;2010-04-26 23:00;CYXE 262300Z 33002KT 15SM OVC040 06/M03 A3014 RMK SC8 SLP233

CYXE;2010-04-27 00:00;CYXE 270000Z 06003KT 15SM OVC040 06/M03 A3014 RMK SC8 SLP229

CYXE;2010-04-27 01:00;CYXE 270100Z 06009KT 15SM OVC040 05/M02 A3013 RMK SC8 SLP227

CYXE;2010-04-27 02:00;CYXE 270200Z 10006KT 15SM OVC040 04/M02 A3012 RMK SC8 SLP225

CYXE;2010-04-27 03:00;CYXE 270300Z 10007KT 15SM BKN040 04/M02 A3012 RMK SC7 SLP222

CYXE;2010-04-27 04:00;CYXE 270400Z 12007KT 15SM FEW040 01/M02 A3011 RMK SC2 SLP219

CYXE;2010-04-27 05:00;CYXE 270500Z 14004KT 15SM FEW040 00/M02 A3009 RMK SC1 SLP214

CYXE;2010-04-27 06:00;CYXE 270600Z 11004KT 15SM SKC M02/M03 A3007 RMK SLP208

CYXE;2010-04-27 07:00;CYXE 270700Z 09005KT 15SM SKC M03/M04 A3005 RMK SLP201

CYXE;2010-04-27 08:00;CYXE 270800Z 09004KT 15SM SKC M03/M04 A3003 RMK SLP195

CYXE;2010-04-27 09:00;CYXE 270900Z 11003KT 15SM SKC M03/M04 A3001 RMK SLP186

CYXE;2010-04-27 10:00;CYXE 271000Z 15003KT 15SM SKC M03/M03 A3000 RMK SLP184

CYXE;2010-04-27 11:00;CYXE 271100Z 17004KT 15SM FEW280 M03/M03 A2998 RMK CI0 SLP177

CYXE;2010-04-27 12:00;CYXE 271200Z 12002KT 15SM FEW280 M04/M04 A2996 RMK CI0 SLP172

CYXE;2010-04-27 13:00;CYXE 271300Z 14005KT 15SM SKC M01/M02 A2994 RMK SLP166

CYXE;2010-04-27 14:00;CYXE 271400Z 16007KT 15SM SKC 01/M00 A2992 RMK SLP160

CYXE;2010-04-27 15:00;CYXE 271500Z 17006KT 15SM FEW280 04/M01 A2992 RMK CI0 SLP152

CYXE;2010-04-27 16:00;CYXE 271600Z 13006KT 15SM FEW030 FEW280 06/M01 A2988 RMK SC1CI0 SLP141

CYXE;2010-04-27 17:00;CYXE 271700Z 14009KT 15SM FEW280 08/M01 A2985 RMK CI1 SLP131

CYXE;2010-04-27 18:00;CYXE 271800Z 15008G15KT 15SM BKN280 09/M01 A2982 RMK CI2 SLP120

CYXE;2010-04-27 19:00;CYXE 271900Z 12011G16KT 15SM BKN280 10/M01 A2979 RMK CI2 SLP110

CYXE;2010-04-27 20:00;CYXE 272000Z 13010KT 15SM SCT280 11/M01 A2975 RMK CI2 SLP097

CYXE;2010-04-27 21:00;CYXE 272100Z 13012G17KT 15SM OVC280 11/M01 A2972 RMK CI3 SLP085

CYXE;2010-04-27 22:00;CYXE 272200Z 10012G18KT 15SM OVC280 12/M01 A2969 RMK CI6 SLP075

CYXE;2010-04-27 23:00;CYXE 272300Z 14012KT 15SM OVC250 12/M03 A2966 RMK CI6 SLP066

CYXE;2010-04-28 00:00;CYXE 280000Z 14013KT 15SM FEW120 OVC250 12/M03 A2964 RMK AS2CI6 SLP056

CYXE;2010-04-28 01:00;CYXE 280100Z 12010KT 15SM SCT120 OVC250 12/M02 A2961 RMK AS3CI5 SLP047

CYXE;2010-04-28 02:00;CYXE 280200Z 10010KT 15SM BKN120 OVC250 11/M01 A2958 RMK AS6CI2 SLP037

CYXE;2010-04-28 03:00;CYXE 280300Z 09009KT 15SM OVC095 10/M01 A2956 RMK AS8 SLP027

CYXE;2010-04-28 04:00;CYXE 280400Z 09011KT 15SM OVC087 09/01 A2955 RMK AS8 SLP022

CYXE;2010-04-28 05:00;CYXE 280500Z 10012KT 15SM OVC087 10/00 A2951 RMK AS8 SLP009

CYXE;2010-04-28 06:00;CYXE 280600Z 12014KT 15SM OVC085 11/01 A2947 RMK AS8 SLP992

CYXE;2010-04-28 07:00;CYXE 280700Z 12013G18KT 15SM OVC090 10/02 A2943 RMK AS7 SLP980

CYXE;2010-04-28 08:00;CYXE 280800Z 12014KT 15SM OVC080 10/02 A2941 RMK AC8 SLP973

CYXE;2010-04-28 09:00;CYXE 280900Z 12012G19KT 15SM SCT080 OVC250 09/03 A2939 RMK AC3CI3 SLP965

CYXE;2010-04-28 10:00;CYXE 281000Z 11012KT 15SM BKN092 OVC250 09/03 A2937 RMK AC6CI1 SLP957

CYXE;2010-04-28 11:00;CYXE 281100Z 11012G17KT 15SM BKN080 OVC250 09/03 A2935 RMK AC6CI1 SLP952

CYXE;2010-04-28 12:00;CYXE 281200Z 11014KT 15SM BKN090 OVC120 09/03 A2933 RMK AC6AC2 SLP942

CYXE;2010-04-28 13:00;CYXE 281300Z 10012KT 15SM OVC090 09/03 A2931 RMK AC8 SLP937

CYXE;2010-04-28 14:00;CYXE 281400Z 11015G24KT 15SM BKN090 OVC120 10/03 A2929 RMK AC6AC2 SLP932

CYXE;2010-04-28 15:00;CYXE 281500Z 10020KT 15SM OVC095 11/03 A2928 RMK AC8 SLP926

CYXE;2010-04-28 15:21;CYXE 281521Z 10018KT 15SM FEW008 OVC095 11/ RMK SF2AC6

CYXE;2010-04-28 16:00;CYXE 281600Z 11017G22KT 15SM FEW012 OVC075 12/03 A2928 RMK SF1AC8 SLP925

CYXE;2010-04-28 17:00;CYXE 281700Z 11020G26KT 15SM OVC093 13/03 A2924 RMK AC8 SLP913

CYXE;2010-04-28 18:00;CYXE 281800Z 11018G24KT 15SM BKN083 OVC210 14/03 A2922 RMK AC7CI1 SLP905

CYXE;2010-04-28 19:00;CYXE 281900Z 10016G21KT 15SM FEW040 BKN094 OVC210 15/04 A2921 RMK SC2AC5CI2 SLP901

CYXE;2010-04-28 20:00;CYXE 282000Z 12016G25KT 15SM FEW040 OVC089 17/03 A2919 RMK SC2AC6 SLP895

CYXE;2010-04-28 21:00;CYXE 282100Z 13014G25KT 15SM FEW040 OVC089 17/02 A2918 RMK SC2AC6 SLP888

CYXE;2010-04-28 22:00;CYXE 282200Z 10019G26KT 15SM -SHRA OVC026 14/06 A2920 RMK SC8 SLP895

CYXE;2010-04-28 23:00;CYXE 282300Z 13006KT 15SM -SHRA SCT019 OVC048 11/09 A2921 RMK SF3SC5 SLP898

CYXE;2010-04-29 00:00;CYXE 290000Z 09013KT 15SM -SHRA SCT019 BKN047 OVC080 10/09 A2921 RMK ST3SC2AC2 SLP904

CYXE;2010-04-29 01:00;CYXE 290100Z 09018G25KT 15SM -SHRA BKN047 OVC080 10/08 A2921 RMK SC6AC2 SLP903

CYXE;2010-04-29 01:45;CYXE 290145Z 07023G31KT 15SM OVC060 10/ RMK SC8

CYXE;2010-04-29 02:00;CYXE 290200Z 07021G28KT 15SM BKN053 OVC080 10/08 A2919 RMK SC6AC2 SLP897

CYXE;2010-04-29 03:00;CYXE 290300Z 07023G29KT 15SM OVC057 09/08 A2918 RMK SC8 SLP894

CYXE;2010-04-29 04:00;CYXE 290400Z 07020G27KT 15SM OVC061 09/08 A2918 RMK SC8 SLP892

CYXE;2010-04-29 05:00;CYXE 290500Z 07019G24KT 15SM OVC061 09/08 A2916 RMK SC8 SLP887

CYXE;2010-04-29 05:10;CYXE 290510Z 07020KT 15SM -SHRA OVC061 09/ RMK SC8

CYXE;2010-04-29 06:00;CYXE 290600Z 07020KT 15SM -SHRA SCT030 OVC055 09/08 A2915 RMK SC3SC5 SLP882

CYXE;2010-04-29 07:00;CYXE 290700Z 06018G24KT 15SM -SHRA BKN018 OVC050 09/08 A2914 RMK SC5SC3 SLP879

CYXE;2010-04-29 08:00;CYXE 290800Z 06017G25KT 15SM -SHRA BKN017 OVC045 08/08 A2913 RMK SC6SC2 SLP876

CYXE;2010-04-29 08:20;CYXE 290820Z 06017KT 15SM BKN015 OVC045 08/ RMK SC6SC2

CYXE;2010-04-29 09:00;CYXE 290900Z 06016KT 15SM BKN015 OVC045 08/07 A2912 RMK SC7SC1 SLP869

CYXE;2010-04-29 09:13;CYXE 290913Z 05016G21KT 15SM -SHRA OVC012 08/ RMK SC8

CYXE;2010-04-29 09:29;CYXE 290929Z 05014G19KT 12SM -SHRA OVC008 08/ RMK SC8

CYXE;2010-04-29 10:00;CYXE 291000Z 04015G20KT 15SM OVC010 08/08 A2911 RMK SC8 SLP865

CYXE;2010-04-29 10:40;CYXE 291040Z 05015KT 12SM -SHRA OVC007 08/ RMK SF8

CYXE;2010-04-29 11:00;CYXE 291100Z 08014KT 12SM -RA OVC007 07/07 A2912 RMK SF8 SLP867

CYXE;2010-04-29 11:26;CYXE 291126Z 06011KT 10SM RA FEW008 OVC020 07/ RMK SF2SC6

CYXE;2010-04-29 12:00;CYXE 291200Z 07009KT 6SM RA BR OVC020 06/06 A2912 RMK SC8 SLP873

CYXE;2010-04-29 12:44;CYXE 291244Z 05010KT 10SM -RA FEW008 BKN022 OVC060 06/ RMK SF2SC4SC2

CYXE;2010-04-29 13:00;CYXE 291300Z 05012KT 6SM -RA BR FEW006 OVC020 07/07 A2912 RMK SF2SC6 SLP873

CYXE;2010-04-29 13:52;CYXE 291352Z 05015KT 3SM -RA BR BKN006 OVC045 07/ RMK SF6SC2

CYXE;2010-04-29 14:00;CYXE 291400Z 05017KT 3SM -RA BR OVC005 07/07 A2912 RMK SF8 SLP873

CYXE;2010-04-29 15:00;CYXE 291500Z 06016KT 6SM -RA BR BKN005 OVC012 07/07 A2913 RMK SF6SC2 SLP876

CYXE;2010-04-29 16:00;CYXE 291600Z 04011KT 10SM -RA SCT005 BKN010 OVC024 08/08 A2913 RMK SF3SC2SC3 /R10/ OBS TAKEN +04 SLP878

CYXE;2010-04-29 17:00;CYXE 291700Z 07015KT 10SM -RA BKN010 OVC024 08/08 A2916 RMK SC6SC2 OBS TAKEN +07 SLP888

CYXE;2010-04-29 18:00;CYXE 291800Z 04013KT 15SM -RA BKN011 OVC024 08/08 A2918 RMK SC5SC3 SLP893

CYXE;2010-04-29 19:00;CYXE 291900Z 08014KT 15SM -RA BKN008 OVC040 09/09 A2921 RMK SF5SC3 SLP902

CYXE;2010-04-29 20:00;CYXE 292000Z 07005KT 15SM -RA BKN010 BKN038 10/08 A2922 RMK SC5SC2 SLP906

CYXE;2010-04-29 20:36;CYXE 292036Z 09005KT 15SM BKN014 OVC040 10/ RMK SC6SC2

CYXE;2010-04-29 21:00;CYXE 292100Z 10009KT 15SM BKN020 OVC044 11/07 A2926 RMK SC6SC2 SLP920

CYXE;2010-04-29 21:29;CYXE 292129Z 08009KT 15SM -SHRA BKN036 OVC072 11/ RMK SC6AC2

CYXE;2010-04-29 22:00;CYXE 292200Z 09010G16KT 15SM VCSH OVC038 11/06 A2929 RMK SC8 SLP931

CYXE;2010-04-29 23:00;CYXE 292300Z 08010KT 15SM FEW038 OVC080 12/07 A2933 RMK SC2AC6 SLP942

CYXE;2010-04-30 00:00;CYXE 300000Z 05007KT 15SM SCT070 OVC093 12/07 A2935 RMK AC3AC5 SLP952

CYXE;2010-04-30 01:00;CYXE 300100Z 04008KT 15SM BKN100 12/07 A2938 RMK AC6 SLP961

CYXE;2010-04-30 02:00;CYXE 300200Z 36008KT 15SM SCT100 10/07 A2942 RMK AC4 SLP973

CYXE;2010-04-30 03:00;CYXE 300300Z 02014KT 15SM FEW054 SCT100 09/08 A2945 RMK SC2AC2 SLP988

CYXE;2010-04-30 04:00;CYXE 300400Z 02014KT 15SM FEW054 FEW100 08/07 A2947 RMK SC1AC2 SLP994

CYXE;2010-04-30 05:00;CYXE 300500Z 02015G20KT 15SM FEW100 08/07 A2949 RMK AC2 SLP000

CYXE;2010-04-30 06:00;CYXE 300600Z 01014KT 15SM SCT100 BKN250 08/06 A2950 RMK AC3CI0 SLP005

CYXE;2010-04-30 07:00;CYXE 300700Z 36011KT 15SM BKN110 OVC250 07/06 A2951 RMK AC6CI1 SLP008

CYXE;2010-04-30 08:00;CYXE 300800Z 01014G20KT 15SM BKN085 OVC100 07/06 A2951 RMK AC5AC2 SLP009

CYXE;2010-04-30 09:00;CYXE 300900Z 01011G17KT 15SM BKN030 OVC095 07/05 A2951 RMK SC6AC2 SLP008

CYXE;2010-04-30 10:00;CYXE 301000Z 01014KT 15SM BKN020 OVC095 07/05 A2951 RMK SC7AC1 SLP006

CYXE;2010-04-30 11:00;CYXE 301100Z 01014KT 15SM BKN015 OVC100 07/05 A2951 RMK SC7AC1 SLP006

CYXE;2010-04-30 11:19;CYXE 301119Z 01016KT 15SM -DZ OVC012 07/ RMK SC8

CYXE;2010-04-30 12:00;CYXE 301200Z 01015G20KT 4SM -RA BR OVC010 06/06 A2951 RMK SC8 SLP008

CYXE;2010-04-30 12:36;CYXE 301236Z 01016G21KT 5SM -RA BR OVC007 06/ RMK SF8

CYXE;2010-04-30 13:00;CYXE 301300Z 01015KT 5SM -RA BR OVC008 06/06 A2952 RMK SF8 SLP010

CYXE;2010-04-30 14:00;CYXE 301400Z 01015G20KT 8SM -RA FEW008 OVC022 06/06 A2951 RMK SF2SC6 BR SLP008

CYXE;2010-04-30 15:00;CYXE 301500Z 01016G22KT 6SM -RA BR SCT009 OVC013 06/06 A2951 RMK SF3SC5 SLP007

CYXE;2010-04-30 16:00;CYXE 301600Z 01017G22KT 10SM -RA FEW009 BKN012 OVC022 06/06 A2949 RMK SF2SC4SC2 SLP002

CYXE;2010-04-30 17:00;CYXE 301700Z 02019G26KT 6SM -RA BKN009 OVC012 06/06 A2948 RMK SF5SC3 SLP000

CYXE;2010-04-30 18:00;CYXE 301800Z 36023KT 10SM -RA BKN008 BKN012 OVC020 06/06 A2946 RMK SF5SC2SC2 SLP993

CYXE;2010-04-30 19:00;CYXE 301900Z 36024G31KT 15SM -RA BKN011 OVC025 06/06 A2945 RMK SC6SC2 SLP989

CYXE;2010-04-30 20:00;CYXE 302000Z 36022G35KT 10SM -RA BKN012 OVC025 06/05 A2944 RMK SC6SC2 OBS TAKEN +04 SLP987

CYXE;2010-04-30 21:00;CYXE 302100Z 02023G30KT 8SM -RA OVC012 05/05 A2945 RMK SC8 SLP991

CYXE;2010-04-30 22:00;CYXE 302200Z 02023G30KT 10SM -RA OVC012 06/05 A2945 RMK SC8 SLP991

CYXE;2010-04-30 23:00;CYXE 302300Z 02022G28KT 15SM -RA OVC012 05/05 A2947 RMK SC8 SLP997

CYXE;2010-05-01 01:00;CYXE 010100Z 04020G25KT 15SM -RA BKN014 OVC024 05/04 A2949 RMK SC5SC3 SLP003

CYXE;2010-05-01 02:00;CYXE 010200Z 02018KT 15SM -RA OVC008 05/05 A2948 RMK SC8 SLP002

CYXE;2010-05-01 03:00;CYXE 010300Z 03023G29KT 15SM -RA OVC010 04/04 A2949 RMK SC8 SLP004

CYXE;2010-05-01 04:00;CYXE 010400Z 03019KT 15SM -RA OVC010 04/04 A2949 RMK SC8 SLP005

CYXE;2010-05-01 05:00;CYXE 010500Z 03014G19KT 8SM -RA OVC009 04/03 A2949 RMK SC8 SLP004

CYXE;2010-05-01 06:00;CYXE 010600Z 01018KT 12SM -RA OVC009 04/03 A2947 RMK SC8 SLP996

CYXE;2010-05-01 07:00;CYXE 010700Z 01017G22KT 12SM -RA OVC010 04/03 A2945 RMK SC8 SLP991

CYXE;2010-05-01 08:00;CYXE 010800Z 36018KT 15SM -RA OVC010 04/03 A2943 RMK SC8 SLP985

CYXE;2010-05-01 08:27;CYXE 010827Z 36017G22KT 15SM -RA OVC016 04/ RMK SC8

CYXE;2010-05-01 09:00;CYXE 010900Z 34013KT 15SM -RA OVC017 04/04 A2942 RMK SC8 SLP980

CYXE;2010-05-01 10:00;CYXE 011000Z 36016KT 15SM -RA OVC018 04/04 A2940 RMK SC8 SLP974

CYXE;2010-05-01 11:00;CYXE 011100Z 36020G26KT 15SM -RA OVC014 04/03 A2939 RMK SC8 SLP971

CYXE;2010-05-01 11:37;CYXE 011137Z 35020G26KT 6SM -RA BR OVC022 04/ RMK SC8

CYXE;2010-05-01 12:00;CYXE 011200Z 35017KT 6SM -RA BR OVC022 04/03 A2938 RMK SC8 SLP968

CYXE;2010-05-01 13:00;CYXE 011300Z 35019G27KT 15SM -RA BKN035 OVC070 04/03 A2938 RMK SC6AC2 SLP966

CYXE;2010-05-01 14:00;CYXE 011400Z 36015G20KT 15SM -RA BKN022 OVC097 04/03 A2938 RMK SC6AC2 SLP968

CYXE;2010-05-01 15:00;CYXE 011500Z 35015G21KT 15SM -RA OVC016 04/03 A2937 RMK SC8 SLP965

CYXE;2010-05-01 16:00;CYXE 011600Z 36021G28KT 15SM -RA SCT016 OVC044 04/02 A2937 RMK SC4SC4 SLP965

CYXE;2010-05-01 16:29;CYXE 011629Z 36023G28KT 15SM FEW053 OVC100 05/ RMK SC2AC6

CYXE;2010-05-01 17:00;CYXE 011700Z 35020G28KT 15SM SCT020 OVC065 05/03 A2936 RMK SC3SC5 SLP962

CYXE;2010-05-01 18:00;CYXE 011800Z 35022G28KT 15SM -RA FEW020 OVC050 06/02 A2935 RMK SC1SC8 SLP957

CYXE;2010-05-01 19:00;CYXE 011900Z 36019G30KT 15SM -RA BKN017 OVC050 05/03 A2935 RMK SC6SC2 SLP957

CYXE;2010-05-01 19:43;CYXE 011943Z 01021G26KT 15SM SCT021 OVC058 06/ RMK SC4SC4

CYXE;2010-05-01 20:00;CYXE 012000Z 36020G26KT 15SM SCT020 OVC050 06/02 A2935 RMK SC3SC5 SLP958

CYXE;2010-05-01 21:00;CYXE 012100Z 03021G26KT 15SM BKN040 OVC063 07/M01 A2938 RMK SC6SC2 SLP966

CYXE;2010-05-01 22:00;CYXE 012200Z 07015KT 15SM OVC047 04/02 A2942 RMK SC8 SLP978

CYXE;2010-05-01 23:00;CYXE 012300Z 08012KT 15SM OVC050 04/02 A2943 RMK SC8 SLP981

CYXE;2010-05-02 00:00;CYXE 020000Z 08012KT 15SM -RA OVC030 03/02 A2947 RMK SC8 SLP998

CYXE;2010-05-02 01:00;CYXE 020100Z 10004KT 15SM -RA OVC022 02/02 A2948 RMK SC8 SLP003

CYXE;2010-05-02 02:00;CYXE 020200Z 05005KT 15SM -RA SCT020 OVC050 03/02 A2951 RMK SC3SC5 SLP011

CYXE;2010-05-02 03:00;CYXE 020300Z 03011KT 15SM -RA SCT020 OVC040 03/02 A2954 RMK SC3SC5 SLP024

CYXE;2010-05-02 04:00;CYXE 020400Z 04012KT 15SM -RA FEW014 SCT020 OVC040 03/02 A2955 RMK SC2SC2SC5 SLP028

CYXE;2010-05-02 05:00;CYXE 020500Z 03014KT 15SM -RA BKN012 OVC040 03/02 A2957 RMK SC6SC2 SLP033

CYXE;2010-05-02 06:00;CYXE 020600Z 03007KT 15SM -RA SCT012 OVC040 02/02 A2958 RMK SC3SC5 SLP036

CYXE;2010-05-02 07:00;CYXE 020700Z 02012KT 15SM -RA OVC014 02/02 A2959 RMK SC8 SLP039

CYXE;2010-05-02 08:00;CYXE 020800Z 04012KT 15SM -RA BKN013 OVC044 02/02 A2961 RMK SC6SC2 SLP046

CYXE;2010-05-02 09:00;CYXE 020900Z 02010KT 15SM -RA BKN023 OVC060 02/02 A2962 RMK SC6SC2 SLP050

CYXE;2010-05-02 09:43;CYXE 020943Z 02011KT 15SM BKN014 OVC034 02/ RMK SC5SC3

CYXE;2010-05-02 10:00;CYXE 021000Z 03010KT 15SM FEW014 OVC034 02/02 A2963 RMK SF2SC6 SLP054

CYXE;2010-05-02 11:00;CYXE 021100Z 01010KT 15SM FEW014 OVC031 02/02 A2964 RMK SF1SC7 SLP056

CYXE;2010-05-02 12:00;CYXE 021200Z 34006KT 15SM OVC032 02/02 A2965 RMK SC8 SLP062

CYXE;2010-05-02 13:00;CYXE 021300Z 34009KT 15SM BKN035 03/02 A2966 RMK SC7 SLP066

CYXE;2010-05-02 14:00;CYXE 021400Z 01013G19KT 15SM SCT040 BKN250 04/01 A2967 RMK SC4CI0 SLP069

CYXE;2010-05-02 15:00;CYXE 021500Z 02014KT 15SM FEW012 FEW040 BKN090 04/01 A2969 RMK CF1SC1AC7 SLP076

CYXE;2010-05-02 16:00;CYXE 021600Z 02013KT 15SM FEW020 BKN070 05/01 A2969 RMK SC1AC6 SLP077

CYXE;2010-05-02 17:00;CYXE 021700Z 02015KT 15SM FEW020 BKN090 07/00 A2969 RMK SC1AC6 SLP076

CYXE;2010-05-02 18:00;CYXE 021800Z 03012G17KT 15SM FEW025 OVC090 07/M00 A2969 RMK SC1AC6 SLP075

CYXE;2010-05-02 19:00;CYXE 021900Z 04015KT 15SM FEW030 OVC080 08/M03 A2969 RMK SC1AC7 SLP073

CYXE;2010-05-02 20:00;CYXE 022000Z 05009KT 15SM FEW030 OVC080 08/M03 A2968 RMK SC1AC6 SLP070

CYXE;2010-05-02 21:00;CYXE 022100Z 04006KT 15SM FEW030 BKN090 09/M02 A2968 RMK SC1AC7 SLP069

CYXE;2010-05-02 22:00;CYXE 022200Z 09003KT 15SM FEW044 BKN080 BKN270 10/M02 A2968 RMK SC2AC2CI0 SLP069

CYXE;2010-05-02 23:00;CYXE 022300Z 30005KT 15SM FEW040 BKN100 BKN270 10/M02 A2967 RMK SC2AC3CI2 SLP065

CYXE;2010-05-03 00:00;CYXE 030000Z 26005KT 15SM FEW050 BKN120 BKN270 10/M02 A2966 RMK SC2AC3CI2 SLP063

CYXE;2010-05-03 01:00;CYXE 030100Z 25005KT 15SM FEW050 BKN120 BKN270 10/M02 A2965 RMK SC2AC3CI2 SLP060

CYXE;2010-05-03 02:00;CYXE 030200Z 23006KT 15SM FEW070 BKN120 BKN270 08/00 A2965 RMK AC2AC3CI1 SLP059

CYXE;2010-05-03 03:00;CYXE 030300Z 23008KT 15SM SCT075 BKN120 05/00 A2965 RMK AC3AC2 SLP061

CYXE;2010-05-03 04:00;CYXE 030400Z 24006KT 15SM SCT080 BKN120 05/01 A2965 RMK AC3AC3 SLP059

CYXE;2010-05-03 05:00;CYXE 030500Z 21004KT 15SM FEW080 SCT120 05/M00 A2964 RMK AC2AC2 SLP057

CYXE;2010-05-03 06:00;CYXE 030600Z CCA 20004KT 15SM BKN081 04/M01 A2963 RMK AC4 SLP052

CYXE;2010-05-03 07:00;CYXE 030700Z 21004KT 15SM BKN079 04/M01 A2963 RMK AC5 SLP052

CYXE;2010-05-03 08:00;CYXE 030800Z 22006KT 15SM FEW081 01/M01 A2962 RMK AC2 SLP050

CYXE;2010-05-03 09:00;CYXE 030900Z 20006KT 15SM FEW100 01/M01 A2961 RMK AC1 SLP046

CYXE;2010-05-03 10:00;CYXE 031000Z 20006KT 15SM FEW100 01/M01 A2960 RMK AC1 SLP042

CYXE;2010-05-03 11:00;CYXE 031100Z 14005KT 15SM FEW080 BKN110 BKN300 M01/M01 A2959 RMK AC1AC3CI0 SLP040

CYXE;2010-05-03 12:00;CYXE 031200Z 16005KT 15SM FEW100 BKN300 M01/M01 A2959 RMK AC2CI1 SLP039

CYXE;2010-05-03 13:00;CYXE 031300Z 15004KT 15SM SCT088 01/00 A2958 RMK AC3 SLP035

CYXE;2010-05-03 14:00;CYXE 031400Z 19006KT 15SM SCT088 04/00 A2956 RMK AC2 SLP031

CYXE;2010-05-03 15:00;CYXE 031500Z 22004KT 15SM SCT090 06/02 A2956 RMK AC2 SLP026

CYXE;2010-05-03 16:00;CYXE 031600Z 18005KT 15SM SCT100 10/02 A2952 RMK AC2 SLP016

CYXE;2010-05-03 17:00;CYXE 031700Z 15006KT 15SM BKN100 13/04 A2950 RMK AC2 SLP009

CYXE;2010-05-03 18:00;CYXE 031800Z 13010KT 15SM SCT050 SCT250 15/01 A2948 RMK CU3CI0 SLP998

CYXE;2010-05-03 19:00;CYXE 031900Z 14005G15KT 15SM SCT070 15/M02 A2947 RMK CU4 SLP993

CYXE;2010-05-03 20:00;CYXE 032000Z 18008KT 15SM BKN072 16/M01 A2944 RMK CU5 SLP983

CYXE;2010-05-03 21:00;CYXE 032100Z 15013KT 15SM SCT075 16/M01 A2942 RMK CU4 SLP975

CYXE;2010-05-03 22:00;CYXE 032200Z 15012KT 15SM VCSH BKN068 16/M01 A2939 RMK CU5 TCU ASOCTD SLP968

CYXE;2010-05-03 23:00;CYXE 032300Z 16009G16KT 15SM BKN070 OVC110 15/01 A2937 RMK AC5AC3 VIRGA SLP961

CYXE;2010-05-04 00:00;CYXE 040000Z 13014KT 15SM VCSH BKN040 OVC080 14/02 A2935 RMK SC5AC3 SLP956

CYXE;2010-05-04 01:00;CYXE 040100Z 13015G21KT 15SM VCSH BKN040 OVC080 14/02 A2933 RMK SC5AC3 SLP947

CYXE;2010-05-04 02:00;CYXE 040200Z 15012G18KT 12SM -SHRA BKN030 OVC080 11/05 A2936 RMK SC5ACC3 SLP957

CYXE;2010-05-04 03:00;CYXE 040300Z 12015G21KT 15SM VCSH SCT030 BKN090 08/06 A2932 RMK SC3AC2 SLP945

CYXE;2010-05-04 04:00;CYXE 040400Z 11018KT 15SM SCT030 BKN090 08/06 A2932 RMK SC3AC2 SLP943

CYXE;2010-05-04 05:00;CYXE 040500Z 11019G25KT 15SM SCT030 BKN090 08/05 A2929 RMK SC3AC2 SLP933

CYXE;2010-05-04 06:00;CYXE 040600Z 12024G29KT 15SM -SHRA SCT033 BKN100 07/05 A2927 RMK SC3AC2 SLP921

CYXE;2010-05-04 07:00;CYXE 040700Z 11019G27KT 15SM -SHRA SCT033 BKN067 07/04 A2926 RMK SC3SC3 SLP919

CYXE;2010-05-04 08:00;CYXE 040800Z 12017G24KT 15SM -SHRA OVC020 06/05 A2924 RMK SC8 SLP913

CYXE;2010-05-04 09:00;CYXE 040900Z 11017G26KT 15SM -SHRA BKN021 OVC074 06/05 A2924 RMK SC6AC2 SLP911

CYXE;2010-05-04 10:00;CYXE 041000Z 12015KT 15SM SCT021 OVC065 06/05 A2926 RMK SC3AC5 SLP919

CYXE;2010-05-04 11:00;CYXE 041100Z 11016KT 15SM FEW012 SCT060 06/05 A2928 RMK SF2SC2 SLP925

CYXE;2010-05-04 11:28;CYXE 041128Z 11016G21KT 15SM -SHRA OVC026 05/ RMK SC8

CYXE;2010-05-04 12:00;CYXE 041200Z 07017KT 15SM -SHRA SCT009 OVC024 05/04 A2930 RMK SF3SC5 SLP935

CYXE;2010-05-04 13:00;CYXE 041300Z 06025G32KT 10SM -SHRA OVC006 02/02 A2933 RMK SC8 SLP944

CYXE;2010-05-04 13:07;CYXE 041307Z 06024G32KT 6SM -SN OVC006 02/ RMK SC8

CYXE;2010-05-04 13:21;CYXE 041321Z 06020G25KT 2SM -SN BR OVC006 01/ RMK SC8

CYXE;2010-05-04 13:32;CYXE 041332Z 06019KT 1SM R09/P6000FT/D -SN BR BKN006 OVC035 01/ RMK SC6SC2

CYXE;2010-05-04 13:42;CYXE 041342Z 06020G25KT 3/4SM R09/P6000FT/D -SN BR VV003 01/ RMK SN8

CYXE;2010-05-04 14:00;CYXE 041400Z 06016G21KT 1SM R09/P6000FT/U -SN BR VV003 01/01 A2936 RMK SN8 SLP954

CYXE;2010-05-04 14:42;CYXE 041442Z 06017KT 3/4SM R09/6000FT/D -SN VV003 00/ RMK SN8

CYXE;2010-05-04 15:00;CYXE 041500Z 06018G24KT 1SM R09/P6000FT/U -SN VV003 01/01 A2939 RMK SN8 SLP970

CYXE;2010-05-04 15:12;CYXE 041512Z 05016KT 1 1/2SM -SN VV004 01/ RMK SN8

CYXE;2010-05-04 16:00;CYXE 041600Z 05020KT 1 1/2SM -SN VV005 01/01 A2943 RMK SN8 SLP983

CYXE;2010-05-04 16:21;CYXE 041621Z 05020G26KT 1SM R09/P6000FT/N -SN VV005 01/ RMK SN8

CYXE;2010-05-04 17:00;CYXE 041700Z 05023G32KT 1SM R09/P6000FT/U -SN VV005 01/01 A2947 RMK SN8 SLP998

CYXE;2010-05-04 17:35;CYXE 041735Z 05021G27KT 1 1/2SM -SN VV006 00/ RMK SN8

CYXE;2010-05-04 18:00;CYXE 041800Z 05026KT 1 1/2SM -SN VV008 00/00 A2952 RMK SN8 SLP018

CYXE;2010-05-04 18:24;CYXE 041824Z 05024G31KT 2 1/2SM -SN OVC009 01/ RMK SC8

CYXE;2010-05-04 18:38;CYXE 041838Z 05027G35KT 5SM -SN OVC010 01/ RMK SC8

CYXE;2010-05-04 19:00;CYXE 041900Z 05025G33KT 5SM -SN OVC010 01/01 A2958 RMK SC8 SLP037

CYXE;2010-05-04 20:00;CYXE 042000Z 05025G30KT 15SM -SN OVC010 01/01 A2964 RMK SC8 SLP056

CYXE;2010-05-04 20:42;CYXE 042042Z 04023G29KT 2 1/2SM -SN OVC010 01/ RMK SC8

CYXE;2010-05-04 21:00;CYXE 042100Z 04023G31KT 2 1/2SM -SN OVC009 01/01 A2969 RMK SC8 SLP075

CYXE;2010-05-04 21:28;CYXE 042128Z 05019G29KT 6SM -SN BKN009 OVC052 02/ RMK SF6SC2

CYXE;2010-05-04 22:00;CYXE 042200Z 05023G28KT 6SM -SN BKN010 OVC043 02/01 A2973 RMK SF6SC2 SLP089

CYXE;2010-05-04 22:15;CYXE 042215Z 03020G28KT 2SM -SN BKN005 OVC020 01/ RMK ST6SC2

CYXE;2010-05-04 22:24;CYXE 042224Z 04025KT 1SM R09/P6000FT/U -SN OVC020 01/ RMK SN6SC2

CYXE;2010-05-04 22:41;CYXE 042241Z 04020G27KT 1 1/2SM -SN BKN006 OVC020 01/ RMK ST6SC2

CYXE;2010-05-04 23:00;CYXE 042300Z 04016KT 2SM -SN OVC006 01/01 A2977 RMK ST8 CIG VRB 5-7 VIS VRB 1-3 SLP101

CYXE;2010-05-05 00:00;CYXE 050000Z 04018G25KT 2SM -SN OVC007 01/01 A2982 RMK ST8 CIG VRB 5-9 VIS VRB 1-3 SLP120

CYXE;2010-05-05 01:00;CYXE 050100Z 05015KT 2SM -SN OVC006 00/00 A2986 RMK ST8 CIG VRB 5-7 VIS VRB 1-3 SLP133

CYXE;2010-05-05 02:00;CYXE 050200Z 04019KT 2SM -SN OVC006 00/00 A2988 RMK ST8 CIG VRB 4-8 VIS VRB 1-3 SLP141

CYXE;2010-05-05 03:00;CYXE 050300Z 05013G20KT 1 1/2SM -SN OVC007 00/00 A2992 RMK ST8 SLP157

CYXE;2010-05-05 04:00;CYXE 050400Z 05012KT 2SM -SN OVC006 00/00 A2994 RMK ST8 SLP166

CYXE;2010-05-05 04:45;CYXE 050445Z 04009KT 6SM -SN OVC006 00/ RMK ST8

CYXE;2010-05-05 05:00;CYXE 050500Z 04008KT 6SM -SN OVC007 00/00 A2997 RMK ST8 SLP174

CYXE;2010-05-05 05:29;CYXE 050529Z 04010KT 6SM -SN OVC011 00/ RMK ST8

CYXE;2010-05-05 05:37;CYXE 050537Z 04010KT 5SM -SN OVC030 00/ RMK SC8

CYXE;2010-05-05 06:00;CYXE 050600Z 04009KT 3SM -SN OVC030 00/00 A2998 RMK SC8 SLP180

CYXE;2010-05-05 06:29;CYXE 050629Z 03007KT 10SM -SN BKN006 OVC030 00/ RMK ST6SC2

CYXE;2010-05-05 07:00;CYXE 050700Z 03012KT 15SM -SN BKN006 OVC058 00/M00 A3001 RMK ST6SC2 SLP189

CYXE;2010-05-05 07:20;CYXE 050720Z 01009KT 15SM SCT006 OVC060 00/ RMK ST4SC4

CYXE;2010-05-05 08:00;CYXE 050800Z 02010KT 15SM SCT015 OVC085 00/M00 A3004 RMK SC4AC4 SLP197

CYXE;2010-05-05 09:00;CYXE 050900Z 02005KT 15SM SCT080 OVC120 M00/M01 A3005 RMK AC3AC5 SLP201

CYXE;2010-05-05 10:00;CYXE 051000Z 32004KT 15SM BKN046 OVC085 M00/M01 A3006 RMK SC5AC3 SLP205

CYXE;2010-05-05 11:00;CYXE 051100Z 34006KT 15SM BKN090 OVC140 M00/M01 A3007 RMK AC5AS3 SLP208

CYXE;2010-05-05 12:00;CYXE 051200Z 34007KT 15SM BKN090 OVC140 00/00 A3008 RMK AC5AS3 SLP212

CYXE;2010-05-05 13:00;CYXE 051300Z 35009KT 15SM BKN040 OVC090 01/01 A3009 RMK SC6AS2 SLP216

CYXE;2010-05-05 14:00;CYXE 051400Z 36010KT 15SM SCT090 OVC140 01/01 A3010 RMK AC3AS5 SLP221

CYXE;2010-05-05 15:00;CYXE 051500Z 01013KT 15SM SCT096 BKN250 02/02 A3011 RMK AC3CI0 SLP222

CYXE;2010-05-05 16:00;CYXE 051600Z 01013KT 15SM BKN016 04/03 A3011 RMK SC6 SLP222

CYXE;2010-05-05 17:00;CYXE 051700Z 04012KT 15SM BKN020 BKN250 05/02 A3011 RMK SC6CI0 SLP223

CYXE;2010-05-05 18:00;CYXE 051800Z 36015KT 15SM BKN029 BKN090 05/M00 A3011 RMK SC6AC2 SLP221

CYXE;2010-05-05 19:00;CYXE 051900Z 04015KT 15SM BKN037 BKN250 07/M02 A3011 RMK SC6CI1 SLP221

CYXE;2010-05-05 20:00;CYXE 052000Z 05015KT 15SM BKN039 BKN250 07/M03 A3011 RMK SC5CI2 SLP221

CYXE;2010-05-05 21:00;CYXE 052100Z 04011G17KT 15SM BKN040 OVC250 07/M02 A3011 RMK SC6CI1 SLP219

CYXE;2010-05-05 22:00;CYXE 052200Z 03014G19KT 15SM BKN045 OVC250 09/M03 A3010 RMK SC5CI2 SLP217

CYXE;2010-05-05 23:00;CYXE 052300Z 05010G17KT 15SM BKN050 OVC250 08/M04 A3011 RMK SC5CI2 SLP218

CYXE;2010-05-06 00:00;CYXE 060000Z 07010KT 15SM BKN053 OVC250 08/M04 A3011 RMK SC6CI2 SLP220

CYXE;2010-05-06 01:00;CYXE 060100Z 07009KT 15SM BKN055 OVC250 08/M04 A3012 RMK SC7CI1 SLP221

CYXE;2010-05-06 02:00;CYXE 060200Z 06005KT 15SM BKN060 OVC250 07/M04 A3012 RMK SC7CI1 SLP222

CYXE;2010-05-06 03:00;CYXE 060300Z 03009KT 15SM BKN062 OVC250 06/M04 A3013 RMK SC7CI1 SLP225

CYXE;2010-05-06 04:00;CYXE 060400Z 05008KT 15SM BKN060 OVC250 05/M04 A3014 RMK SC6CI1 SLP229

CYXE;2010-05-06 05:00;CYXE 060500Z 08006KT 15SM BKN065 BKN250 03/M02 A3015 RMK SC5CI2 SLP231

CYXE;2010-05-06 06:00;CYXE 060600Z 07005KT 15SM SCT065 BKN250 01/M01 A3015 RMK SC4CI1 SLP233

CYXE;2010-05-06 07:00;CYXE 060700Z 06005KT 15SM FEW064 SCT250 00/M02 A3015 RMK SC2CI1 SLP235

CYXE;2010-05-06 08:00;CYXE 060800Z 06006KT 15SM FEW064 SCT250 M00/M02 A3016 RMK SC2CI1 SLP237

CYXE;2010-05-06 09:00;CYXE 060900Z 05006KT 15SM FEW250 M01/M03 A3016 RMK CI2 SLP237

CYXE;2010-05-06 10:00;CYXE 061000Z 06006KT 15SM FEW250 M01/M03 A3017 RMK CI2 SLP239

CYXE;2010-05-06 11:00;CYXE 061100Z 05006KT 15SM BKN100 M02/M03 A3017 RMK AC6 SLP241

CYXE;2010-05-06 12:00;CYXE 061200Z 08005KT 15SM SCT100 BKN250 M01/M02 A3018 RMK AC3CI1 SLP244

CYXE;2010-05-06 13:00;CYXE 061300Z 00000KT 15SM SCT100 BKN250 01/M00 A3018 RMK AC3CI1 SLP245

CYXE;2010-05-06 14:00;CYXE 061400Z 00000KT 15SM FEW021 SCT100 BKN250 02/00 A3020 RMK ST2AC2CI1 SLP250

CYXE;2010-05-06 15:00;CYXE 061500Z 00000KT 15SM SCT012 BKN022 OVC250 03/00 A3021 RMK SC4SC2CI0 SLP251

CYXE;2010-05-06 15:31;CYXE 061531Z 00000KT 15SM BKN012 BKN022 OVC250 04/ RMK SC6SC2CI0

CYXE;2010-05-06 16:00;CYXE 061600Z 34002KT 15SM BKN014 OVC250 04/00 A3021 RMK SC6CI1 SLP252

CYXE;2010-05-06 17:00;CYXE 061700Z 05002KT 15SM BKN027 OVC250 05/M01 A3021 RMK CU6CI2 SLP253

CYXE;2010-05-06 18:00;CYXE 061800Z 10006KT 15SM BKN034 OVC250 06/M03 A3021 RMK CU6CI2 SLP255

CYXE;2010-05-06 19:00;CYXE 061900Z 09006KT 15SM SCT028 OVC044 06/M01 A3021 RMK SC3SC5 SLP254

CYXE;2010-05-06 19:15;CYXE 061915Z 10018KT 15SM -SN FEW017 SCT034 OVC044 04/ RMK SF2SC2SC4

CYXE;2010-05-06 19:22;CYXE 061922Z 10014KT 15SM -RA FEW017 SCT034 OVC044 03/ RMK SF2SC2SC4

CYXE;2010-05-06 19:41;CYXE 061941Z 11011KT 15SM -RA FEW006 BKN034 OVC044 03/ RMK SF2SC4SC2

CYXE;2010-05-06 20:00;CYXE 062000Z 12010G15KT 15SM -RA SCT006 BKN045 OVC250 04/01 A3023 RMK SF3SC3CI1 SLP260

CYXE;2010-05-06 20:13;CYXE 062013Z 12009KT 15SM SCT008 BKN045 OVC250 04/ RMK SF2SC4CI1

CYXE;2010-05-06 21:00;CYXE 062100Z 06012KT 15SM FEW008 BKN020 OVC050 06/M01 A3022 RMK SF1SC4SC3 SLP259

CYXE;2010-05-06 22:00;CYXE 062200Z 07006KT 15SM VCSH SCT035 BKN075 OVC250 06/M02 A3022 RMK SC4AC2CI2 CVCTV CLD ASOCTD SLP258

CYXE;2010-05-06 23:00;CYXE 062300Z 05003KT 15SM BKN045 BKN080 OVC250 07/M02 A3021 RMK SC5AC2CI1 CU ASOCTD SLP255

CYXE;2010-05-07 00:00;CYXE 070000Z 05011KT 15SM BKN055 BKN080 OVC250 07/M06 A3022 RMK SC6AC1CI1 SLP257

CYXE;2010-05-07 01:00;CYXE 070100Z 07012KT 15SM VCSH BKN057 OVC080 07/M05 A3023 RMK SC6AC2 SLP261

CYXE;2010-05-07 02:00;CYXE 070200Z 05005KT 15SM BKN060 BKN090 OVC250 05/M05 A3024 RMK SC6AC2CI1 SLP265

CYXE;2010-05-07 03:00;CYXE 070300Z 04005KT 15SM BKN060 BKN085 OVC250 04/M03 A3026 RMK SC5AC2CI2 SLP271

CYXE;2010-05-07 04:00;CYXE 070400Z 01005KT 15SM BKN065 OVC250 02/M03 A3027 RMK SC5CI2 SLP274

CYXE;2010-05-07 05:00;CYXE 070500Z 04008KT 15SM FEW065 SCT250 02/M03 A3027 RMK SC2CI1 SLP275

CYXE;2010-05-07 06:00;CYXE 070600Z 04005KT 15SM FEW065 SCT250 M00/M04 A3027 RMK SC2CI1 SLP276

CYXE;2010-05-07 07:00;CYXE 070700Z 05007KT 15SM SCT250 M00/M04 A3027 RMK CI2 SLP276

CYXE;2010-05-07 08:00;CYXE 070800Z 05007KT 15SM SCT250 M00/M04 A3027 RMK CI2 SLP277

CYXE;2010-05-07 09:00;CYXE 070900Z 06006KT 15SM SCT250 M02/M04 A3027 RMK CI2 SLP278

CYXE;2010-05-07 10:00;CYXE 071000Z 06005KT 15SM FEW250 M02/M04 A3028 RMK CI1 SLP280

CYXE;2010-05-07 11:00;CYXE 071100Z 04004KT 15SM FEW250 M03/M04 A3029 RMK CI2 SLP284

CYXE;2010-05-07 12:00;CYXE 071200Z 06007KT 15SM FEW087 FEW250 M03/M04 A3032 RMK AC1CI1 SLP291

CYXE;2010-05-07 13:00;CYXE 071300Z 08005KT 15SM FEW090 SCT250 M01/M03 A3032 RMK AC1CI2 SLP293

CYXE;2010-05-07 14:00;CYXE 071400Z 06004KT 15SM BKN270 03/M04 A3033 RMK CI1 OBS TAKEN +05 SLP295

CYXE;2010-05-07 15:00;CYXE 071500Z 10005KT 15SM BKN270 05/M06 A3033 RMK CI1 OB TAKEN +05 SLP294

CYXE;2010-05-07 16:00;CYXE 071600Z 13006KT 15SM BKN270 06/M07 A3033 RMK CI1 SLP294

CYXE;2010-05-07 17:00;CYXE 071700Z 10006KT 15SM BKN270 07/M07 A3033 RMK CI0 SLP293

CYXE;2010-05-07 18:00;CYXE 071800Z 09007KT 15SM FEW058 BKN270 08/M06 A3032 RMK CU2CI0 SLP293

CYXE;2010-05-07 19:00;CYXE 071900Z 15007KT 15SM FEW058 BKN270 09/M06 A3031 RMK CU2CI0 SLP289

CYXE;2010-05-07 20:00;CYXE 072000Z 20002KT 15SM SCT060 BKN270 09/M07 A3031 RMK CU3CI0 SLP287

CYXE;2010-05-07 21:00;CYXE 072100Z 34005KT 15SM BKN065 BKN270 10/M06 A3030 RMK CU6CI0 SLP285

CYXE;2010-05-07 22:00;CYXE 072200Z 19006KT 15SM BKN070 BKN270 10/M07 A3029 RMK CU5CI0 SLP280

CYXE;2010-05-07 23:00;CYXE 072300Z 23005KT 15SM BKN070 BKN095 OVC270 10/M07 A3027 RMK CU5AC2CI0 SLP276

CYXE;2010-05-08 00:00;CYXE 080000Z 26005KT 15SM BKN075 BKN100 BKN270 10/M08 A3027 RMK AC5AC1CI0 SLP276

CYXE;2010-05-08 01:00;CYXE 080100Z 23003KT 15SM FEW075 BKN085 BKN270 10/M07 A3027 RMK CU2AC4CI1 SLP275

CYXE;2010-05-08 02:00;CYXE 080200Z 20006KT 15SM BKN070 BKN090 OVC270 09/M06 A3027 RMK AC5AC1CI1 SLP276

CYXE;2010-05-08 03:00;CYXE 080300Z 01010KT 15SM BKN060 OVC100 07/M01 A3029 RMK SC6AC2 VIRGA SLP277

CYXE;2010-05-08 04:00;CYXE 080400Z 32002KT 15SM OVC070 06/00 A3030 RMK AC8 SLP280

CYXE;2010-05-08 05:00;CYXE 080500Z 00000KT 15SM BKN068 BKN095 05/M00 A3029 RMK AC5AC2 SLP278

CYXE;2010-05-08 06:00;CYXE 080600Z 00000KT 15SM BKN030 BKN095 06/M02 A3029 RMK SC5AC1 SLP278

CYXE;2010-05-08 06:50;CYXE 080650Z 30005G21KT 15SM -SHRA SCT020 BKN040 OVC090 06/ RMK SC3SC2AC2 CVCTV CLD EMBD

CYXE;2010-05-08 07:00;CYXE 080700Z 33005G18KT 15SM -SHRA SCT015 OVC042 06/M03 A3029 RMK SC4SC3 SLP278

CYXE;2010-05-08 07:15;CYXE 080715Z 00000KT 15SM FEW015 BKN042 06/ RMK SC2SC4

CYXE;2010-05-08 08:00;CYXE 080800Z 31003KT 15SM BKN055 BKN095 04/M01 A3030 RMK SC6AC1 SLP280

CYXE;2010-05-08 09:00;CYXE 080900Z 30002KT 15SM BKN060 BKN100 03/M01 A3029 RMK SC6AC1 SLP277

CYXE;2010-05-08 10:00;CYXE 081000Z 19005KT 15SM BKN085 02/M02 A3028 RMK AC5 SLP275

CYXE;2010-05-08 11:00;CYXE 081100Z 20005KT 15SM BKN080 02/M03 A3027 RMK AC6 SLP273

CYXE;2010-05-08 12:00;CYXE 081200Z 19006KT 15SM BKN075 01/M03 A3027 RMK AC5 SLP270

CYXE;2010-05-08 13:00;CYXE 081300Z 21006KT 15SM SCT075 01/M01 A3027 RMK AC4 SLP270

CYXE;2010-05-08 14:00;CYXE 081400Z 17005KT 15SM BKN070 03/M01 A3027 RMK AC6 SLP271

CYXE;2010-05-08 15:00;CYXE 081500Z 20005KT 15SM BKN070 06/M00 A3026 RMK AC6 SLP268

CYXE;2010-05-08 16:00;CYXE 081600Z 22007KT 15SM SCT040 BKN075 09/M00 A3025 RMK SC3AC3 SLP263

CYXE;2010-05-08 17:00;CYXE 081700Z 21006KT 15SM FEW048 SCT070 SCT270 10/M02 A3023 RMK CU2AC1CI0 SLP257

CYXE;2010-05-08 18:00;CYXE 081800Z 25007KT 15SM VCSH BKN060 11/M05 A3021 RMK CU6 VIRGA TCU ASOCTD SLP247

CYXE;2010-05-08 19:00;CYXE 081900Z 18008G15KT 15SM BKN068 12/M05 A3019 RMK CU6 VIRGA TCU ASOCTD SLP241

CYXE;2010-05-08 20:00;CYXE 082000Z 31014G19KT 15SM BKN074 11/M03 A3017 RMK AC6 SLP236

CYXE;2010-05-08 21:00;CYXE 082100Z 34004KT 15SM VCSH OVC055 11/M02 A3016 RMK CU7 VIRGA TCU ASOCTD SLP234

CYXE;2010-05-08 22:00;CYXE 082200Z 20008KT 15SM BKN065 BKN110 BKN280 12/M05 A3015 RMK CU5AC1CI1 VIRGA TCU ASOCTD SLP230

CYXE;2010-05-08 23:00;CYXE 082300Z 18009G15KT 15SM FEW070 FEW110 SCT280 12/M05 A3013 RMK CU2AC1CI1 VIRGA TCU ASOCTD SLP224

CYXE;2010-05-09 00:00;CYXE 090000Z 14005KT 15SM FEW070 FEW110 12/M06 A3012 RMK CU2AC1 SH N TCU ASOCTD VIRGA SLP220

CYXE;2010-05-09 01:00;CYXE 090100Z 14006KT 15SM FEW070 FEW110 12/M07 A3012 RMK CU2AC1 SH N TCU ASOCTD SLP218

CYXE;2010-05-09 02:00;CYXE 090200Z 20004KT 15SM FEW070 FEW260 10/M07 A3011 RMK AC2CI0 TCU ASOCTD SLP216

CYXE;2010-05-09 03:00;CYXE 090300Z 13003KT 15SM FEW090 08/M07 A3012 RMK AC1 SLP217

CYXE;2010-05-09 04:00;CYXE 090400Z 13004KT 15SM FEW100 06/M06 A3012 RMK AC1 SLP218

CYXE;2010-05-09 05:00;CYXE 090500Z 17005KT 15SM SKC 05/M04 A3011 RMK SLP215

CYXE;2010-05-09 06:00;CYXE 090600Z 17005KT 15SM SKC 04/M04 A3011 RMK SLP214

CYXE;2010-05-09 07:00;CYXE 090700Z 15004KT 15SM SKC 03/M05 A3011 RMK SLP216

CYXE;2010-05-09 08:00;CYXE 090800Z 16006KT 15SM SKC 02/M04 A3010 RMK SLP213

CYXE;2010-05-09 09:00;CYXE 090900Z 15006KT 15SM SKC 01/M04 A3009 RMK SLP211

CYXE;2010-05-09 10:00;CYXE 091000Z 14003KT 15SM SKC 01/M04 A3009 RMK SLP208

CYXE;2010-05-09 11:00;CYXE 091100Z 12004KT 15SM FEW080 BKN300 00/M03 A3007 RMK AC1CI2 SLP204

CYXE;2010-05-09 12:00;CYXE 091200Z 11005KT 15SM FEW068 BKN300 01/M02 A3006 RMK AC2CI2 SLP199

CYXE;2010-05-09 13:00;CYXE 091300Z 13004KT 15SM FEW068 BKN300 03/M01 A3006 RMK AC2CI2 SLP199

CYXE;2010-05-09 14:00;CYXE 091400Z 14007KT 15SM FEW075 BKN250 06/M01 A3006 RMK AC1CI6 SLP198

CYXE;2010-05-09 15:00;CYXE 091500Z 15008KT 15SM FEW080 OVC250 08/M01 A3005 RMK AC1CI6 SLP194

CYXE;2010-05-09 16:00;CYXE 091600Z 14009KT 15SM FEW120 OVC250 10/00 A3004 RMK AC1CI6 SLP190

CYXE;2010-05-09 17:00;CYXE 091700Z 13007KT 15SM FEW050 FEW120 BKN250 12/M00 A3002 RMK CU2AC1CI2 SLP185

CYXE;2010-05-09 18:00;CYXE 091800Z 15013G18KT 15SM BKN060 OVC250 12/M06 A3001 RMK CU5CI2 SLP178

CYXE;2010-05-09 19:00;CYXE 091900Z 13017KT 15SM SCT075 OVC250 13/M06 A2999 RMK CU4CI2 SLP174

CYXE;2010-05-09 20:00;CYXE 092000Z 14014G21KT 15SM SCT075 BKN090 OVC280 12/M07 A2999 RMK CU3AC2CI2 SLP173

CYXE;2010-05-09 21:00;CYXE 092100Z 14016G21KT 15SM SCT090 BKN120 OVC280 12/M07 A2997 RMK AC3AS2CI1 SLP168

CYXE;2010-05-09 22:00;CYXE 092200Z 13016KT 15SM FEW090 BKN120 OVC280 12/M06 A2996 RMK AC2AS4CI1 SLP163

CYXE;2010-05-09 23:00;CYXE 092300Z 13015G22KT 15SM SCT070 OVC110 11/M04 A2995 RMK AC3AS5 SLP160

CYXE;2010-05-10 00:00;CYXE 100000Z 11013KT 15SM SCT050 OVC090 11/M03 A2993 RMK SC4AS4 SH SW SLP154

CYXE;2010-05-10 01:00;CYXE 100100Z 15011G19KT 12SM -RA BKN025 OVC100 07/04 A2994 RMK SC6AS2 SLP159

CYXE;2010-05-10 02:00;CYXE 100200Z 13014G19KT 12SM -RA OVC025 06/05 A2994 RMK SC8 SLP158

CYXE;2010-05-10 02:39;CYXE 100239Z 13014G20KT 8SM RA OVC015 06/ RMK SC8

CYXE;2010-05-10 03:00;CYXE 100300Z 13009KT 8SM RA OVC012 05/05 A2994 RMK SC8 SLP156

CYXE;2010-05-10 03:31;CYXE 100331Z 12014KT 8SM -RA OVC011 05/ RERA RMK SC8

CYXE;2010-05-10 04:00;CYXE 100400Z 11017KT 8SM -RA OVC011 05/04 A2993 RERA RMK SC8 SLP154

CYXE;2010-05-10 04:22;CYXE 100422Z 12015G25KT 6SM RA OVC009 04/ RMK SF8

CYXE;2010-05-10 04:43;CYXE 100443Z 10017G22KT 10SM RA SCT009 OVC015 04/ RMK SF3SC5

CYXE;2010-05-10 04:49;CYXE 100449Z 10017KT 12SM -RA FEW009 OVC020 04/ RERA RMK SF2SC6

CYXE;2010-05-10 05:00;CYXE 100500Z 10015G20KT 15SM -RA FEW009 OVC020 04/03 A2991 RERA RMK SF2SC6 SLP148

CYXE;2010-05-10 05:15;CYXE 100515Z 11016KT 15SM -RA OVC012 04/ RMK SC8

CYXE;2010-05-10 06:00;CYXE 100600Z 11015G24KT 6SM -RA OVC010 04/04 A2989 RMK SC8 /R16/ SLP140

CYXE;2010-05-10 06:11;CYXE 100611Z 11014G20KT 3SM -DZ OVC008 04/ RMK ST8

CYXE;2010-05-10 07:00;CYXE 100700Z 11013KT 6SM -DZ OVC007 04/04 A2988 RMK ST8 SLP136

CYXE;2010-05-10 07:34;CYXE 100734Z 12013KT 15SM OVC007 04/ RMK ST8

CYXE;2010-05-10 08:00;CYXE 100800Z 12011KT 15SM OVC006 04/04 A2987 RMK ST8 SLP131

CYXE;2010-05-10 09:00;CYXE 100900Z 10007KT 15SM OVC006 05/05 A2985 RMK ST8 SLP125

CYXE;2010-05-10 10:00;CYXE 101000Z 09007KT 15SM BKN006 OVC038 04/04 A2985 RMK ST6SC2 SLP123

CYXE;2010-05-10 11:00;CYXE 101100Z 06007KT 8SM OVC005 05/05 A2985 RMK ST8 BR SLP123

CYXE;2010-05-10 12:00;CYXE 101200Z 06009KT 5SM BR OVC004 05/05 A2985 RMK ST8 SLP124

CYXE;2010-05-10 12:21;CYXE 101221Z 06008KT 5SM BR OVC003 05/ RMK ST8

CYXE;2010-05-10 13:00;CYXE 101300Z 07009KT 5SM BR OVC003 05/05 A2986 RMK ST8 SLP128

CYXE;2010-05-10 14:00;CYXE 101400Z 05006KT 5SM BR OVC004 06/06 A2987 RMK ST8 SLP131

CYXE;2010-05-10 14:50;CYXE 101450Z 05007KT 8SM BKN006 OVC018 07/ RMK SF6SC2 BR

CYXE;2010-05-10 15:00;CYXE 101500Z 02009KT 8SM -SHRA SCT004 BKN007 OVC018 07/06 A2987 RMK SF3SF2SC2 SLP135

CYXE;2010-05-10 15:42;CYXE 101542Z 03007KT 15SM SCT007 BKN012 BKN025 07/ RMK SF3SC3SC1

CYXE;2010-05-10 16:00;CYXE 101600Z 04007KT 15SM SCT008 OVC024 07/06 A2988 RMK SF4SC4 SLP138

CYXE;2010-05-10 16:08;CYXE 101608Z 03007KT 12SM -SHRA SCT008 OVC024 07/ RMK SF4SC4

CYXE;2010-05-10 16:38;CYXE 101638Z 05011KT 15SM -SHRA BKN008 BKN035 07/ RMK SF5SC2

CYXE;2010-05-10 17:00;CYXE 101700Z 06009KT 10SM -SHRA BKN007 BKN020 08/07 A2989 RMK SF5SC2 SLP142

CYXE;2010-05-10 18:00;CYXE 101800Z 08007KT 15SM -SHRA BKN010 BKN024 09/07 A2991 RMK SF5SC2 SLP146

CYXE;2010-05-10 19:00;CYXE 101900Z 06008KT 6SM -SHRA BKN014 BKN039 OVC066 08/05 A2992 RMK SC5SC2AC1 CVCTV CLD EMBD SLP149

CYXE;2010-05-10 20:00;CYXE 102000Z 06006KT 6SM -SHRA BKN012 OVC018 07/06 A2994 RMK SC5SC3 SLP157

CYXE;2010-05-10 21:00;CYXE 102100Z 05007KT 15SM -SHRA SCT017 BKN025 BKN250 08/07 A2994 RERA RMK SC3SC2CI2 CVCTV CLD EMBD SLP158

CYXE;2010-05-10 21:45;CYXE 102145Z 07011KT 15SM FEW017 BKN040 BKN250 09/ RMK CU2SC2CI1

CYXE;2010-05-10 22:00;CYXE 102200Z 06010KT 15SM BKN040 BKN100 BKN250 09/07 A2994 RMK SC5AC1CI0 SLP158

CYXE;2010-05-10 23:00;CYXE 102300Z 07009KT 15SM FEW022 SCT028 BKN240 09/05 A2995 RMK CF1SC3CI2 TCU EMBD SLP161

CYXE;2010-05-11 00:00;CYXE 110000Z 06009KT 15SM SCT030 BKN100 BKN250 10/06 A2996 RMK SC4AC1CI1 SLP163

CYXE;2010-05-11 01:00;CYXE 110100Z 06010KT 15SM BKN056 BKN250 09/05 A2997 RMK SC5CI2 SLP166

CYXE;2010-05-11 02:00;CYXE 110200Z 07008KT 15SM BKN056 BKN250 09/05 A2998 RMK SC5CI0 SLP171

CYXE;2010-05-11 03:00;CYXE 110300Z 05006KT 15SM SCT054 BKN110 OVC250 08/06 A3001 RMK SC3AC3CI1 SLP180

CYXE;2010-05-11 04:00;CYXE 110400Z 05005KT 15SM BKN060 06/05 A3001 RMK SC3 SLP182

CYXE;2010-05-11 05:00;CYXE 110500Z 34003KT 15SM BKN062 05/05 A3003 RMK SC3 SLP187

CYXE;2010-05-11 06:00;CYXE 110600Z 02004KT 15SM MIFG SCT065 03/03 A3004 RMK SC3 SLP191

CYXE;2010-05-11 07:00;CYXE 110700Z 01004KT 10SM BCFG SCT065 03/03 A3005 RMK SC3 SLP194

CYXE;2010-05-11 08:00;CYXE 110800Z 06004KT 10SM BCFG SCT065 03/03 A3005 RMK SC2 SLP196

CYXE;2010-05-11 09:00;CYXE 110900Z 33007KT 10SM BCFG BKN065 01/01 A3005 RMK SC3 SLP198

CYXE;2010-05-11 10:00;CYXE 111000Z 34007KT 10SM BCFG BKN065 00/00 A3006 RMK SC3 SLP200

CYXE;2010-05-11 11:00;CYXE 111100Z 34007KT 15SM BCFG SCT060 01/01 A3006 RMK SC3 SLP202

CYXE;2010-05-11 12:00;CYXE 111200Z 07003KT 15SM FEW060 01/01 A3008 RMK SC2 SLP208

CYXE;2010-05-11 13:00;CYXE 111300Z 00000KT 15SM BKN041 03/03 A3009 RMK SC6 SLP212

CYXE;2010-05-11 14:00;CYXE 111400Z 02003KT 15SM SCT034 04/04 A3011 RMK SC4 SLP216

CYXE;2010-05-11 15:00;CYXE 111500Z 05002KT 15SM FEW009 FEW030 08/06 A3012 RMK CU1SC2 SLP216

CYXE;2010-05-11 16:00;CYXE 111600Z 36005KT 15SM SCT016 09/05 A3012 RMK CU4 SLP216

CYXE;2010-05-11 17:00;CYXE 111700Z 35006KT 15SM BKN030 12/04 A3013 RMK CU5 SLP219

CYXE;2010-05-11 18:00;CYXE 111800Z 05006KT 15SM BKN035 12/03 A3013 RMK CU5 SLP222

CYXE;2010-05-11 19:00;CYXE 111900Z 03009KT 15SM BKN037 12/02 A3013 RMK CU5 SLP220

CYXE;2010-05-11 20:00;CYXE 112000Z 05011KT 15SM BKN039 13/04 A3012 RMK CU5 SLP219

CYXE;2010-05-11 21:00;CYXE 112100Z 01007KT 15SM SCT044 14/02 A3012 RMK CU4 SLP217

CYXE;2010-05-11 22:00;CYXE 112200Z 06008KT 15SM SCT052 14/01 A3011 RMK CU4 SLP216

CYXE;2010-05-11 23:00;CYXE 112300Z 05006KT 15SM SCT055 14/01 A3011 RMK CU3 SLP215

CYXE;2010-05-12 00:00;CYXE 120000Z 03005KT 15SM FEW058 14/01 A3012 RMK CU2 SLP217

CYXE;2010-05-12 01:00;CYXE 120100Z 11004KT 15SM FEW058 14/00 A3012 RMK CU1 SLP217

CYXE;2010-05-12 02:00;CYXE 120200Z 08003KT 15SM FEW050 12/01 A3013 RMK CU1 SLP220

CYXE;2010-05-12 03:00;CYXE 120300Z 14005KT 15SM FEW090 FEW300 10/00 A3014 RMK AC1CI0 SLP224

CYXE;2010-05-12 04:00;CYXE 120400Z 16004KT 15SM SKC 08/02 A3015 RMK SLP227

CYXE;2010-05-12 05:00;CYXE 120500Z 18005KT 15SM SKC 07/01 A3015 RMK SLP226

CYXE;2010-05-12 06:00;CYXE 120600Z 18006KT 15SM SKC 05/01 A3015 RMK SLP228

CYXE;2010-05-12 07:00;CYXE 120700Z 19005KT 15SM SKC 05/01 A3015 RMK SLP227

CYXE;2010-05-12 08:00;CYXE 120800Z 21006KT 15SM SKC 04/01 A3015 RMK SLP228

CYXE;2010-05-12 09:00;CYXE 120900Z 22005KT 15SM SKC 03/01 A3015 RMK SLP227

CYXE;2010-05-12 09:27;CYXE 120927Z 22005KT 15SM SKC 02/

CYXE;2010-05-12 10:00;CYXE 121000Z 22005KT 15SM SKC 02/01 A3015 RMK SLP228

CYXE;2010-05-12 11:00;CYXE 121100Z 21005KT 15SM SKC 02/01 A3015 RMK SLP228

CYXE;2010-05-12 12:00;CYXE 121200Z 19005KT 15SM SKC 02/01 A3016 RMK SLP231

CYXE;2010-05-12 13:00;CYXE 121300Z 20005KT 15SM SKC 05/02 A3017 RMK SLP233

CYXE;2010-05-12 14:00;CYXE 121400Z 21006KT 15SM SKC 08/03 A3017 RMK SLP235

CYXE;2010-05-12 15:00;CYXE 121500Z 23008KT 15SM SKC 12/04 A3017 RMK SLP230

CYXE;2010-05-12 16:00;CYXE 121600Z 23010G16KT 15SM SKC 14/04 A3016 RMK SLP229

CYXE;2010-05-12 17:00;CYXE 121700Z 27010G16KT 15SM SKC 17/03 A3015 RMK SLP226

CYXE;2010-05-12 18:00;CYXE 121800Z 22007G16KT 15SM SCT068 17/01 A3014 RMK CU3 SLP220

CYXE;2010-05-12 19:00;CYXE 121900Z 26007G15KT 15SM SCT070 18/M02 A3012 RMK CU3 SLP215

CYXE;2010-05-12 20:00;CYXE 122000Z 23008KT 15SM SCT087 19/M01 A3010 RMK CU3 SLP209

CYXE;2010-05-12 21:00;CYXE 122100Z 24012KT 15SM BKN090 20/M01 A3009 RMK AC5 CVCTV CLD EMBD SLP203

CYXE;2010-05-12 22:00;CYXE 122200Z 21009KT 15SM SCT092 19/M02 A3007 RMK AC4 SLP197

CYXE;2010-05-12 23:00;CYXE 122300Z 27009G19KT 15SM SCT094 18/M04 A3006 RMK AC4 SLP193

CYXE;2010-05-13 00:00;CYXE 130000Z 24011KT 15SM FEW100 19/M03 A3005 RMK AC2 SLP190

CYXE;2010-05-13 01:00;CYXE 130100Z 24011G16KT 15SM FEW100 SCT330 19/M02 A3004 RMK AC2CI0 SLP186

CYXE;2010-05-13 02:00;CYXE 130200Z 19012KT 15SM FEW100 SCT330 17/M02 A3003 RMK AC1CI0 SLP185

CYXE;2010-05-13 03:00;CYXE 130300Z 20010KT 15SM FEW100 FEW330 15/M01 A3004 RMK AC1CI0 SLP182

CYXE;2010-05-13 04:00;CYXE 130400Z 20013G18KT 15SM FEW100 13/M01 A3004 RMK AC1 SLP184

CYXE;2010-05-13 05:00;CYXE 130500Z 21010KT 15SM SKC 11/M01 A3005 RMK SLP185

CYXE;2010-05-13 06:00;CYXE 130600Z 21009KT 15SM SKC 10/M01 A3004 RMK SLP182

CYXE;2010-05-13 07:00;CYXE 130700Z 21009KT 15SM SKC 09/M01 A3003 RMK SLP179

CYXE;2010-05-13 08:00;CYXE 130800Z 22008KT 15SM SKC 07/M01 A3002 RMK SLP176

CYXE;2010-05-13 09:00;CYXE 130900Z 22009KT 15SM SKC 06/M00 A3001 RMK SLP172

CYXE;2010-05-13 10:00;CYXE 131000Z 22006KT 15SM SKC 04/M01 A3000 RMK SLP171

CYXE;2010-05-13 11:00;CYXE 131100Z 22008KT 15SM FEW250 04/M00 A3000 RMK CI0 SLP170

CYXE;2010-05-13 12:00;CYXE 131200Z 22005KT 15SM FEW250 04/M01 A3000 RMK CI1 SLP170

CYXE;2010-05-13 13:00;CYXE 131300Z 22008KT 15SM FEW250 07/00 A2999 RMK CI1 SLP169

CYXE;2010-05-13 14:00;CYXE 131400Z 23008KT 15SM FEW250 10/01 A2999 RMK CI1 SLP169

CYXE;2010-05-13 15:00;CYXE 131500Z 24009KT 15SM SKC 14/01 A2998 RMK SLP163

CYXE;2010-05-13 16:00;CYXE 131600Z 25010KT 15SM FEW250 17/01 A2997 RMK CI1 SLP158

CYXE;2010-05-13 17:00;CYXE 131700Z 25014KT 15SM BKN300 19/M02 A2995 RMK CI3 SLP152

CYXE;2010-05-13 18:00;CYXE 131800Z 25014KT 15SM BKN300 20/M03 A2994 RMK CI3 SLP146

CYXE;2010-05-13 19:00;CYXE 131900Z 26017KT 15SM BKN300 21/M03 A2991 RMK CI3 SLP138

CYXE;2010-05-13 20:00;CYXE 132000Z 24013G18KT 15SM SCT300 22/M02 A2990 RMK CI2 SLP133

CYXE;2010-05-13 21:00;CYXE 132100Z 24013G18KT 15SM FEW050 BKN300 22/M03 A2988 RMK CU1CI1 SLP129

CYXE;2010-05-13 22:00;CYXE 132200Z 26011KT 15SM FEW080 BKN300 23/M01 A2986 RMK AC2CI1 SLP121

CYXE;2010-05-13 23:00;CYXE 132300Z 27015KT 15SM FEW110 BKN300 22/M01 A2984 RMK AC2CI1 SLP116

CYXE;2010-05-14 00:00;CYXE 140000Z 27012KT 15SM FEW110 OVC300 22/M01 A2983 RMK AC2CI1 SLP113

CYXE;2010-05-14 01:00;CYXE 140100Z 28011KT 15SM FEW110 OVC300 22/M01 A2983 RMK AC2CI1 SLP111

CYXE;2010-05-14 02:00;CYXE 140200Z 25008KT 15SM SCT110 OVC300 18/00 A2983 RMK AC3CI2 VIRGA W SLP111

CYXE;2010-05-14 03:00;CYXE 140300Z 28007KT 15SM BKN110 OVC300 16/02 A2984 RMK AC5CI2 SLP112

CYXE;2010-05-14 04:00;CYXE 140400Z 28008KT 15SM BKN096 16/02 A2985 RMK AC7 SLP115

CYXE;2010-05-14 05:00;CYXE 140500Z 30008KT 15SM OVC080 17/01 A2985 RMK AC8 SLP116

CYXE;2010-05-14 06:00;CYXE 140600Z 28008KT 15SM BKN080 13/02 A2986 RMK AC6 SLP118

CYXE;2010-05-14 07:00;CYXE 140700Z 28007KT 15SM BKN100 10/02 A2987 RMK AC6 SLP120

CYXE;2010-05-14 08:00;CYXE 140800Z 25007KT 15SM BKN100 08/03 A2987 RMK AC6 SLP122

CYXE;2010-05-14 09:00;CYXE 140900Z 26008KT 15SM SCT100 08/02 A2987 RMK AC4 SLP124

CYXE;2010-05-14 10:00;CYXE 141000Z 29008KT 15SM BKN100 07/01 A2989 RMK AC6 SLP129

CYXE;2010-05-14 11:00;CYXE 141100Z 31009KT 15SM FEW100 BKN250 09/02 A2990 RMK AC2CI1 SLP133

CYXE;2010-05-14 12:00;CYXE 141200Z 31007KT 15SM SCT250 09/02 A2992 RMK CI2 SLP142

CYXE;2010-05-14 13:00;CYXE 141300Z 33009KT 15SM BKN250 10/04 A2994 RMK CI4 SLP147

CYXE;2010-05-14 14:00;CYXE 141400Z 34009KT 15SM BKN250 12/05 A2996 RMK CI2 SLP155

CYXE;2010-05-14 15:00;CYXE 141500Z 33009KT 15SM SCT280 15/06 A2997 RMK CI0 SLP159

CYXE;2010-05-14 16:00;CYXE 141600Z 34012KT 15SM BKN280 16/05 A2998 RMK CI2 SLP161

CYXE;2010-05-14 17:00;CYXE 141700Z 32010G17KT 15SM FEW048 BKN280 17/05 A2999 RMK CU1CI1 SLP163

CYXE;2010-05-14 18:00;CYXE 141800Z 31011G26KT 15SM FEW061 BKN280 19/05 A2999 RMK CU1CI1 SLP164

CYXE;2010-05-14 19:00;CYXE 141900Z 34011KT 15SM FEW063 FEW140 SCT300 19/04 A2999 RMK CU2AC1CI0 SLP165

CYXE;2010-05-14 20:00;CYXE 142000Z 30009KT 15SM FEW068 SCT300 20/04 A2999 RMK CU2CI0 SLP165

CYXE;2010-05-14 21:00;CYXE 142100Z 02006KT 15SM FEW075 SCT300 20/05 A2999 RMK CU1CI0 SLP165

CYXE;2010-05-14 22:00;CYXE 142200Z 04005KT 15SM FEW077 FEW300 21/04 A2998 RMK CU1CI0 SLP163

CYXE;2010-05-14 23:00;CYXE 142300Z 01006KT 15SM FEW080 SCT300 20/02 A2998 RMK CU1CI0 SLP162

CYXE;2010-05-15 00:00;CYXE 150000Z 34005KT 15SM FEW080 BKN300 21/04 A2998 RMK CU1CI1 SLP163

CYXE;2010-05-15 01:00;CYXE 150100Z 36004KT 15SM BKN300 20/03 A2998 RMK CI1 SLP162

CYXE;2010-05-15 02:00;CYXE 150200Z 05002KT 15SM OVC300 19/04 A2998 RMK CI2 SLP162

CYXE;2010-05-15 03:00;CYXE 150300Z 09006KT 15SM FEW100 BKN300 14/05 A3000 RMK AC1CI1 SLP168

CYXE;2010-05-15 04:00;CYXE 150400Z 10006KT 15SM FEW100 SCT280 12/04 A3001 RMK AC1CI0 SLP171

CYXE;2010-05-15 05:00;CYXE 150500Z 10005KT 15SM FEW280 12/04 A3001 RMK CI1 SLP174

CYXE;2010-05-15 06:00;CYXE 150600Z 11005KT 15SM FEW280 12/03 A3001 RMK CI1 SLP173

CYXE;2010-05-15 07:00;CYXE 150700Z 14005KT 15SM FEW250 11/03 A3002 RMK CI1 SLP175

CYXE;2010-05-15 08:00;CYXE 150800Z 14006KT 15SM FEW250 11/04 A3002 RMK CI1 SLP174

CYXE;2010-05-15 09:00;CYXE 150900Z 13005KT 15SM FEW250 12/03 A3001 RMK CI0 SLP172

CYXE;2010-05-15 10:00;CYXE 151000Z 00000KT 15SM SCT250 10/05 A3002 RMK CI0 SLP174

CYXE;2010-05-15 11:00;CYXE 151100Z 00000KT 15SM BKN080 11/05 A3002 RMK AC6 SLP173

CYXE;2010-05-15 12:00;CYXE 151200Z 10005KT 15SM SCT062 BKN080 10/06 A3001 RMK SC3AC2 SLP170

CYXE;2010-05-15 13:00;CYXE 151300Z 00000KT 15SM VCSH BKN100 13/06 A3001 RMK AC6 SLP169

CYXE;2010-05-15 14:00;CYXE 151400Z 14002KT 15SM SCT090 BKN140 15/05 A3001 RMK AC4AC1 SLP171

CYXE;2010-05-15 15:00;CYXE 151500Z 12013KT 15SM FEW050 SCT090 17/05 A2999 RMK CU1AC2 SLP164

CYXE;2010-05-15 16:00;CYXE 151600Z 17008KT 15SM FEW090 18/06 A2998 RMK AC2 SLP162

CYXE;2010-05-15 17:00;CYXE 151700Z 16006KT 15SM FEW090 21/06 A2998 RMK AC2 SLP161

CYXE;2010-05-15 18:00;CYXE 151800Z 20005KT 15SM FEW090 22/06 A2997 RMK AC2 SLP155

CYXE;2010-05-15 19:00;CYXE 151900Z 18005KT 15SM FEW080 FEW140 24/05 A2995 RMK CU1AC1 SLP150

CYXE;2010-05-15 20:00;CYXE 152000Z 26007KT 15SM SCT080 BKN140 23/03 A2994 RMK CU3AC2 SLP147

CYXE;2010-05-15 21:00;CYXE 152100Z 27012KT 15SM BKN090 BKN200 26/03 A2993 RMK CU5CI1 SLP140

CYXE;2010-05-15 22:00;CYXE 152200Z 26007G15KT 15SM SCT110 BKN280 25/02 A2992 RMK CU4CI0 TCU ASOCTD OBS TAKEN +03 SLP137

CYXE;2010-05-15 23:00;CYXE 152300Z 29008G15KT 15SM SCT110 BKN280 23/02 A2992 RMK CU3CI1 TCU ASOCTD SLP135

CYXE;2010-05-16 00:00;CYXE 160000Z 34010G15KT 15SM SCT100 BKN280 25/02 A2991 RMK CU3CI2 TCU ASOCTD VIRGA SLP135

CYXE;2010-05-16 01:00;CYXE 160100Z 26014KT 15SM SCT100 BKN280 24/05 A2992 RMK AC3CI1 ACC ASOCTD OBS TAKEN +01 SLP136

CYXE;2010-05-16 02:00;CYXE 160200Z 32010KT 15SM FEW100 BKN280 21/06 A2993 RMK AC2CI1 SLP141

CYXE;2010-05-16 03:00;CYXE 160300Z 03007KT 15SM FEW100 BKN280 17/06 A2995 RMK AC2CI1 ACC ASOCTD VIRGA S SLP148

CYXE;2010-05-16 04:00;CYXE 160400Z 06006KT 15SM SCT100 BKN280 16/07 A2996 RMK AC3CI1 ACC ASOCTD SLP151

CYXE;2010-05-16 05:00;CYXE 160500Z 07004KT 15SM FEW100 SCT280 16/06 A2997 RMK AC2CI1 SLP154

CYXE;2010-05-16 06:00;CYXE 160600Z 00000KT 15SM FEW100 15/05 A2997 RMK AC2 SLP153

CYXE;2010-05-16 07:00;CYXE 160700Z 01008KT 15SM FEW100 SCT280 10/05 A2997 RMK AC2CI0 SLP153

CYXE;2010-05-16 08:00;CYXE 160800Z 14002KT 15SM FEW100 SCT280 10/05 A2997 RMK AC2CI1 SLP153

CYXE;2010-05-16 09:00;CYXE 160900Z 03003KT 15SM FEW280 08/04 A2997 RMK CI0 SLP156

CYXE;2010-05-16 10:00;CYXE 161000Z 15003KT 15SM FEW140 08/06 A2998 RMK AC2 SLP160

CYXE;2010-05-16 11:00;CYXE 161100Z 00000KT 15SM SCT140 07/04 A3000 RMK AC3 SLP164

CYXE;2010-05-16 12:00;CYXE 161200Z 00000KT 15SM SCT140 07/05 A3000 RMK AC4 SLP166

CYXE;2010-05-16 13:00;CYXE 161300Z 02003KT 15SM SCT140 11/08 A3000 RMK AC3 SLP167

CYXE;2010-05-16 14:00;CYXE 161400Z 05006KT 15SM FEW140 13/07 A3001 RMK AC2 SLP171

CYXE;2010-05-16 15:00;CYXE 161500Z 08005KT 15SM FEW140 16/08 A3001 RMK AC2 SLP169

CYXE;2010-05-16 16:00;CYXE 161600Z 08002KT 15SM FEW140 20/10 A3001 RMK AC2 SLP169

CYXE;2010-05-16 17:00;CYXE 161700Z 06008KT 15SM FEW140 22/09 A3000 RMK AC1 SLP166

CYXE;2010-05-16 18:00;CYXE 161800Z 10009KT 15SM SKC 24/07 A2999 RMK SLP158

CYXE;2010-05-16 19:00;CYXE 161900Z 09011KT 15SM FEW089 24/07 A2997 RMK CU2 SLP154

CYXE;2010-05-16 20:00;CYXE 162000Z 08007G15KT 15SM SCT099 25/05 A2996 RMK CU3 SLP151

CYXE;2010-05-16 21:00;CYXE 162100Z 08007KT 15SM BKN091 24/05 A2996 RMK CU5 SLP151

CYXE;2010-05-16 22:00;CYXE 162200Z 10002KT 15SM SCT093 24/04 A2995 RMK AC4 SLP149

CYXE;2010-05-16 23:00;CYXE 162300Z 09006KT 15SM SCT090 BKN250 25/04 A2994 RMK ACC3CI1 CONTRAILS SLP145

CYXE;2010-05-17 00:00;CYXE 170000Z 09005KT 15SM FEW090 BKN250 23/08 A2993 RMK AC2CI2 SLP143

CYXE;2010-05-17 01:00;CYXE 170100Z 11009KT 15SM FEW090 BKN250 23/05 A2992 RMK AC2CI1 SLP142

CYXE;2010-05-17 02:00;CYXE 170200Z 09008KT 15SM FEW090 BKN250 20/07 A2992 RMK AC1CI2 SLP141

CYXE;2010-05-17 03:00;CYXE 170300Z 10009KT 15SM SCT250 18/06 A2994 RMK CI2 SLP144

CYXE;2010-05-17 04:00;CYXE 170400Z 10010KT 15SM SCT250 17/06 A2994 RMK CI2 SLP146

CYXE;2010-05-17 05:00;CYXE 170500Z 10009KT 15SM SCT250 16/06 A2994 RMK CI2 SLP145

CYXE;2010-05-17 06:00;CYXE 170600Z 11013KT 15SM BKN250 18/07 A2993 RMK CI2 SLP139

CYXE;2010-05-17 07:00;CYXE 170700Z 12009KT 15SM SCT250 16/08 A2993 RMK CI2 SLP138

CYXE;2010-05-17 08:00;CYXE 170800Z 14009KT 15SM FEW250 15/08 A2993 RMK CI2 SLP137

CYXE;2010-05-17 09:00;CYXE 170900Z 14006KT 15SM FEW250 13/07 A2992 RMK CI1 SLP137

CYXE;2010-05-17 10:00;CYXE 171000Z 16006KT 15SM FEW120 FEW250 13/07 A2992 RMK AC1CI1 SLP136

CYXE;2010-05-17 11:00;CYXE 171100Z 15004KT 15SM FEW120 SCT250 12/06 A2991 RMK AC1CI2 SLP134

CYXE;2010-05-17 12:00;CYXE 171200Z 18010KT 15SM FEW100 BKN250 13/07 A2991 RMK AC1CI2 SLP133

CYXE;2010-05-17 13:00;CYXE 171300Z 19005KT 15SM FEW090 BKN250 14/07 A2992 RMK AC1CI2 SLP135

CYXE;2010-05-17 14:00;CYXE 171400Z 20007KT 15SM FEW090 BKN280 16/08 A2991 RMK AC1CI2 SLP132

CYXE;2010-05-17 15:00;CYXE 171500Z 20006KT 15SM FEW090 BKN280 19/09 A2990 RMK AC2CI1 SLP128

CYXE;2010-05-17 16:00;CYXE 171600Z 21009KT 15SM FEW090 OVC280 22/09 A2989 RMK AC1CI2 SLP126

CYXE;2010-05-17 17:00;CYXE 171700Z 22008KT 15SM FEW090 OVC300 25/09 A2988 RMK AC1CI3 SLP123

CYXE;2010-05-17 18:00;CYXE 171800Z 21008KT 15SM FEW090 OVC300 27/08 A2987 RMK AC2CI3 SLP115

CYXE;2010-05-17 19:00;CYXE 171900Z 19017KT 15SM SCT090 BKN300 28/04 A2985 RMK AC3CI2 SLP110

CYXE;2010-05-17 20:00;CYXE 172000Z 19011G17KT 15SM FEW090 OVC300 28/03 A2985 RMK AC2CI5 SLP108

CYXE;2010-05-17 21:00;CYXE 172100Z 18012KT 15SM FEW100 OVC300 28/03 A2984 RMK AC2CI5 SLP106

CYXE;2010-05-17 22:00;CYXE 172200Z 20009G15KT 15SM FEW100 OVC300 29/04 A2983 RMK AC2CI5 SLP102

CYXE;2010-05-17 23:00;CYXE 172300Z 18011G17KT 15SM FEW100 BKN320 29/03 A2982 RMK AC2CI1 SLP099

CYXE;2010-05-18 00:00;CYXE 180000Z 18012KT 15SM FEW100 SCT320 28/04 A2980 RMK AC2CI0 SLP095

CYXE;2010-05-18 01:00;CYXE 180100Z 17011KT 15SM FEW100 FEW320 27/03 A2979 RMK AC1CI0 SLP090

CYXE;2010-05-18 02:00;CYXE 180200Z 16009KT 15SM FEW100 FEW300 25/04 A2978 RMK AC1CI0 SLP088

CYXE;2010-05-18 03:00;CYXE 180300Z 17008KT 15SM FEW100 FEW300 22/05 A2978 RMK AC1CI0 SLP085

CYXE;2010-05-18 04:00;CYXE 180400Z 17008KT 15SM FEW100 FEW300 19/05 A2978 RMK AC1CI0 SLP085

CYXE;2010-05-18 05:00;CYXE 180500Z 18008KT 15SM FEW100 FEW300 18/05 A2978 RMK AC1CI0 SLP086

CYXE;2010-05-18 06:00;CYXE 180600Z 18010KT 15SM SCT300 18/06 A2978 RMK CI1 SLP083

CYXE;2010-05-18 07:00;CYXE 180700Z 18012G17KT 15SM SCT300 18/07 A2978 RMK CI0 SLP083

CYXE;2010-05-18 08:00;CYXE 180800Z 19013KT 15SM SCT300 17/07 A2978 RMK CI1 SLP083

CYXE;2010-05-18 09:00;CYXE 180900Z 19011KT 15SM SCT300 16/08 A2978 RMK CI1 SLP086

CYXE;2010-05-18 10:00;CYXE 181000Z 19008KT 15SM BKN300 15/08 A2978 RMK CI1 SLP087

CYXE;2010-05-18 11:00;CYXE 181100Z 19006KT 15SM BKN300 14/08 A2979 RMK CI1 SLP089

CYXE;2010-05-18 12:00;CYXE 181200Z 19006KT 15SM FEW100 BKN300 14/08 A2979 RMK AC1CI1 SLP089

CYXE;2010-05-18 13:00;CYXE 181300Z 18006KT 15SM FEW100 BKN300 16/09 A2979 RMK AC1CI0 SLP088

CYXE;2010-05-18 14:00;CYXE 181400Z 18008KT 15SM FEW100 BKN300 18/09 A2979 RMK AC1CI0 SLP088

CYXE;2010-05-18 15:00;CYXE 181500Z 19007KT 15SM FEW100 SCT300 21/10 A2978 RMK AC1CI0 SLP086

CYXE;2010-05-18 16:00;CYXE 181600Z 17006KT 15SM FEW100 FEW300 24/11 A2978 RMK AC1CI0 SLP085

CYXE;2010-05-18 17:00;CYXE 181700Z 17007KT 15SM FEW100 BKN300 26/11 A2977 RMK AC1CI0 SLP083

CYXE;2010-05-18 18:00;CYXE 181800Z 18006G15KT 15SM FEW100 OVC300 27/09 A2976 RMK AC1CI2 SLP077

CYXE;2010-05-18 19:00;CYXE 181900Z 17011KT 15SM FEW100 OVC300 28/07 A2974 RMK CU1CI1 SLP072

CYXE;2010-05-18 20:00;CYXE 182000Z 13012KT 15SM FEW100 OVC300 28/06 A2974 RMK CU2CI1 SLP071

CYXE;2010-05-18 21:00;CYXE 182100Z 12013G19KT 15SM FEW100 OVC300 29/08 A2973 RMK CU1CI1 SLP068

CYXE;2010-05-18 22:00;CYXE 182200Z 12017KT 15SM FEW100 BKN300 28/06 A2973 RMK CU2CI0 SLP066

CYXE;2010-05-18 23:00;CYXE 182300Z 12011G17KT 15SM FEW100 BKN300 28/07 A2973 RMK CU2CI0 SLP066

CYXE;2010-05-19 00:00;CYXE 190000Z 14013KT 15SM FEW100 SCT300 28/05 A2971 RMK CU1CI0 SLP062

CYXE;2010-05-19 01:00;CYXE 190100Z 12011G16KT 15SM FEW100 BKN300 26/05 A2970 RMK AC1CI0 SLP058

CYXE;2010-05-19 02:00;CYXE 190200Z 10010KT 15SM FEW100 BKN300 24/07 A2969 RMK AC1CI0 SLP055

CYXE;2010-05-19 03:00;CYXE 190300Z 09010KT 15SM FEW100 SCT300 21/06 A2969 RMK AC1CI0 SLP054

CYXE;2010-05-19 04:00;CYXE 190400Z 09011KT 15SM BKN099 21/06 A2970 RMK AC6 SLP057

CYXE;2010-05-19 05:00;CYXE 190500Z 10010G15KT 15SM FEW060CB BKN099 21/06 A2970 RMK CB2AC2 LTGCC SLP059

CYXE;2010-05-19 06:00;CYXE 190600Z 10012KT 15SM FEW060CB BKN099 21/08 A2971 RMK CB1AC4 LTGCC NW + S SLP058

CYXE;2010-05-19 07:00;CYXE 190700Z 15009KT 15SM OVC110 20/08 A2972 RMK AC6 LTNG DIST S SLP061

CYXE;2010-05-19 07:32;CYXE 190732Z 15012KT 15SM -SHRA OVC073 20/ RMK AC8 LTNG DIST S

CYXE;2010-05-19 08:00;CYXE 190800Z 19008KT 15SM -SHRA OVC073 18/12 A2972 RMK AC8 LTNG DIST S SLP062

CYXE;2010-05-19 08:16;CYXE 190816Z 22008KT 6SM -TSRA FEW033CB OVC057 17/ RMK CB2SC6 LTGCGCC S-SW MVG N

CYXE;2010-05-19 09:00;CYXE 190900Z 13005KT 15SM -TSRA BKN033CB OVC110 17/12 A2974 RMK CB5AC3 LTGCGCC S-NW MVG N OBS TAKEN +02 SLP069

CYXE;2010-05-19 10:00;CYXE 191000Z 13004KT 10SM TSRA OVC023CB 16/13 A2974 RMK CB8 LTGCGCC S-NW SLP069

CYXE;2010-05-19 10:48;CYXE 191048Z 34005KT 15SM BKN044 OVC110 16/ RETSRA RMK SC6AC2 CB EMBD NW

CYXE;2010-05-19 11:00;CYXE 191100Z 03006KT 15SM BKN055 BKN076 OVC230 16/13 A2973 RETSRA RMK SC6AC2CI0 CB EMBD N SLP067

CYXE;2010-05-19 12:00;CYXE 191200Z 09009KT 15SM FEW055 BKN096 OVC230 16/14 A2974 RMK SC1AC6CI2 SLP072

CYXE;2010-05-19 13:00;CYXE 191300Z 12011KT 15SM SCT064 BKN074 OVC230 16/13 A2973 RMK SC3AC2CI2 TCU EMBD SLP068

CYXE;2010-05-19 14:00;CYXE 191400Z 12009KT 15SM BKN094 OVC250 17/12 A2973 RMK AC6CI2 TCU EMBD SLP069

CYXE;2010-05-19 15:00;CYXE 191500Z 13010KT 15SM BKN100 OVC300 18/13 A2974 RMK AC5CI0 SLP074

CYXE;2010-05-19 16:00;CYXE 191600Z 15009KT 15SM FEW100 BKN300 22/14 A2976 RMK AC2CI2 SLP080

CYXE;2010-05-19 17:00;CYXE 191700Z 14015KT 15SM FEW100 BKN300 25/11 A2975 RMK AC1CI2 SLP078

CYXE;2010-05-19 18:00;CYXE 191800Z 15014KT 15SM FEW100 BKN300 27/09 A2975 RMK AC1CI2 SLP072

CYXE;2010-05-19 19:00;CYXE 191900Z 18016KT 15SM FEW100 BKN300 28/10 A2974 RMK AC2CI2 SLP070

CYXE;2010-05-19 20:00;CYXE 192000Z 15013KT 15SM FEW070 OVC330 28/10 A2973 RMK CU1CI3 SLP067

CYXE;2010-05-19 21:00;CYXE 192100Z 17014KT 15SM FEW080 FEW120 OVC330 27/10 A2972 RMK CU1AC1CI4 SLP065

CYXE;2010-05-19 22:00;CYXE 192200Z 18005KT 15SM FEW080 FEW120 OVC330 28/10 A2970 RMK CU2AC1CI2 TCU S SLP058

CYXE;2010-05-19 23:00;CYXE 192300Z 19009KT 15SM FEW080TCU FEW120 BKN330 29/11 A2967 RMK TCU2AC1CI2 CB DIST SE SLP049

CYXE;2010-05-19 23:35;CYXE 192335Z 17024G32KT 15SM TS VCSH BKN080CB BKN330 27/ RMK CB5CI1 LTNG E-SE

CYXE;2010-05-19 23:47;CYXE 192347Z 17021G34KT 15SM -TSRA BKN072CB BKN330 24/ RMK CB6CI1 LTNG SE

CYXE;2010-05-20 00:00;CYXE 200000Z 16015G26KT 15SM -TSRA BKN072CB BKN330 21/15 A2969 RMK CB6CI1 SLP057

CYXE;2010-05-20 00:16;CYXE 200016Z 14003KT 15SM VCSH SCT070CB BKN330 22/ RETS RMK CB4CI1 LTNG DIST E

CYXE;2010-05-20 01:00;CYXE 200100Z 14010KT 15SM FEW070CB BKN330 24/16 A2967 RETS RMK CB2CI1 CB E + SE LTNG DIST SE SLP050

CYXE;2010-05-20 01:51;CYXE 200151Z 16017KT 15SM -SHRA SCT070CB BKN330 23/ RMK CB4CI1 LTNG DIST S

CYXE;2010-05-20 02:00;CYXE 200200Z 16014G19KT 15SM -SHRA SCT070CB BKN330 23/15 A2966 RMK CB4CI1 LTNG DIST S SLP047

CYXE;2010-05-20 03:00;CYXE 200300Z 15011KT 15SM VCSH SCT080 BKN330 20/15 A2966 RMK ACC3CI2 FEW CB SLP047

CYXE;2010-05-20 04:00;CYXE 200400Z 14010KT 15SM FEW080 BKN330 20/14 A2967 RMK ACC1CI3 SLP051

CYXE;2010-05-20 05:00;CYXE 200500Z 15008KT 15SM FEW080 OVC330 19/14 A2967 RMK ACC1CI2 LTNG DIST E-SE SLP049

CYXE;2010-05-20 06:00;CYXE 200600Z 15009KT 15SM FEW080 SCT300 18/14 A2967 RMK AC1CI1 SLP047

CYXE;2010-05-20 07:00;CYXE 200700Z 18010KT 15SM FEW100 FEW280 18/13 A2968 RMK AC1CI1 SLP049

CYXE;2010-05-20 08:00;CYXE 200800Z 18007KT 15SM FEW280 16/13 A2967 RMK CI1 LTNG DIST E SLP046

CYXE;2010-05-20 09:00;CYXE 200900Z 17005KT 15SM FEW090 15/13 A2966 RMK AC2 LTNG DIST E SLP046

CYXE;2010-05-20 10:00;CYXE 201000Z 18008KT 15SM FEW050CB FEW085 SCT280 15/13 A2967 RMK CB1AC2CI0 CB + LTGCG DIST NE SLP047

CYXE;2010-05-20 11:00;CYXE 201100Z 19006KT 15SM FEW050CB FEW085 BKN280 15/13 A2967 RMK CB1AC2CI1 CB DIST NE SLP047

CYXE;2010-05-20 12:00;CYXE 201200Z 13002KT 15SM SCT050CB SCT090 BKN280 14/13 A2966 RMK CB3AC1CI1 CB + SHRA E-SE MVG N LTGCG SE SLP050

CYXE;2010-05-20 13:00;CYXE 201300Z 18006KT 15SM SCT057CB BKN069 BKN280 15/13 A2967 RMK CB3AC2CI1 CB N MVG N SHRA N ACC ASOCTD SLP052

CYXE;2010-05-20 14:00;CYXE 201400Z 17010KT 15SM BKN057 BKN090 OVC280 18/14 A2966 RMK SC5AC2CI1 CB EMBD N ACC ASOCTD SLP050

CYXE;2010-05-20 15:00;CYXE 201500Z 19010KT 15SM BKN073 BKN300 20/14 A2965 RMK AC6CI1 SLP043

CYXE;2010-05-20 16:00;CYXE 201600Z 19011KT 15SM SCT075 BKN300 22/15 A2964 RMK AC4CI1 SLP039

CYXE;2010-05-20 17:00;CYXE 201700Z 19020KT 15SM -SHRA FEW038 OVC076 20/14 A2966 RMK SC2AC6 SLP047

CYXE;2010-05-20 18:00;CYXE 201800Z 20007KT 15SM FEW047 BKN080 BKN300 18/14 A2965 RMK SC2AC3CI2 SLP044

CYXE;2010-05-20 19:00;CYXE 201900Z 16006KT 15SM -SHRA FEW018 BKN087 OVC300 18/14 A2964 RMK SF2AC4CI2 SLP041

CYXE;2010-05-20 19:26;CYXE 201926Z 19011KT 15SM SCT033 BKN090 OVC300 20/ RMK SC4AC3CI1

CYXE;2010-05-20 20:00;CYXE 202000Z 20008KT 15SM SCT090 BKN300 23/15 A2961 RMK AC3CI3 SLP033

CYXE;2010-05-20 21:00;CYXE 202100Z 24005KT 15SM FEW090 OVC300 23/13 A2958 RMK ACC2CI3 SLP019

CYXE;2010-05-20 21:54;CYXE 202154Z 28004KT 15SM TS VCSH SCT070CB OVC300 22/ RMK CB4CI4 LTNG SE-SW

CYXE;2010-05-20 22:00;CYXE 202200Z 24006KT 15SM TS VCSH BKN060CB BKN100 OVC300 22/14 A2956 RMK CB5ACC1CI2 LTNG SE-SW SLP014

CYXE;2010-05-20 22:21;CYXE 202221Z 21029G34KT 3SM TSRA BKN060CB BKN100 OVC300 19/ RMK CB6ACC1CI2 LTNG SE-W

CYXE;2010-05-20 23:00;CYXE 202300Z 29004KT 15SM -TSRA BKN068CB OVC100 15/13 A2958 RERA RMK CB5ACC3 LTNG NW-NE SLP020

CYXE;2010-05-20 23:16;CYXE 202316Z 04003KT 15SM SCT070CB BKN100 OVC300 15/ RETS RMK CB3ACC3CI1 LTNG NW-NE

CYXE;2010-05-21 00:00;CYXE 210000Z 15005KT 15SM SCT070CB BKN100 BKN300 17/14 A2958 RETS RMK CB3ACC2CI1 SLP025

CYXE;2010-05-21 00:34;CYXE 210034Z 14004KT 15SM -SHRA FEW030 BKN080 OVC300 16/ RMK SC1ACC6CI1

CYXE;2010-05-21 01:00;CYXE 210100Z 18007KT 15SM VCSH FEW030 BKN080 OVC300 17/14 A2956 RMK SC1ACC5CI2 CB EMBD SLP018

CYXE;2010-05-21 02:00;CYXE 210200Z 21008KT 15SM VCSH FEW060 BKN080 OVC300 16/14 A2958 RMK SC1ACC6CI2 SLP023

CYXE;2010-05-21 02:07;CYXE 210207Z 21012KT 15SM -SHRA BKN060 BKN080 OVC300 16/ RMK SC5ACC2CI1

CYXE;2010-05-21 02:47;CYXE 210247Z 22012KT 15SM -SHRA FEW009 BKN026 OVC080 15/ RMK SF1SC5ACC2

CYXE;2010-05-21 03:00;CYXE 210300Z 22013KT 15SM -SHRA FEW009 OVC026 14/14 A2958 RMK SF1SC7 CVCTV CLD EMBD SLP022

CYXE;2010-05-21 04:00;CYXE 210400Z 21010KT 15SM -SHRA OVC065 14/12 A2960 RMK SC8 CVCTV CLD EMBD SLP027

CYXE;2010-05-21 05:00;CYXE 210500Z 23009KT 15SM SCT046 OVC077 12/10 A2960 RMK SC3AC5 SLP027

CYXE;2010-05-21 06:00;CYXE 210600Z 21011G16KT 15SM SCT048 OVC064 12/10 A2961 RMK SC3SC5 SLP032

CYXE;2010-05-21 07:00;CYXE 210700Z 21012G17KT 15SM OVC068 12/08 A2961 RMK AC8 SLP034

CYXE;2010-05-21 08:00;CYXE 210800Z 23013KT 15SM SCT080 10/04 A2962 RMK AC4 SLP036

CYXE;2010-05-21 09:00;CYXE 210900Z 23012G18KT 15SM FEW080 08/03 A2962 RMK AC2 SLP036

CYXE;2010-05-21 10:00;CYXE 211000Z 21015KT 15SM FEW080 FEW280 08/02 A2961 RMK AC1CI0 SLP035

CYXE;2010-05-21 11:00;CYXE 211100Z 22014KT 15SM FEW080 BKN280 07/02 A2963 RMK AC1CI2 SLP040

CYXE;2010-05-21 12:00;CYXE 211200Z 23014KT 15SM FEW080 FEW280 06/04 A2964 RMK AC1CI1 SLP048

CYXE;2010-05-21 13:00;CYXE 211300Z 23013KT 15SM FEW080 FEW280 07/05 A2965 RMK AC1CI1 SLP052

CYXE;2010-05-21 14:00;CYXE 211400Z 23017KT 15SM SKC 09/05 A2965 RMK SLP051

CYXE;2010-05-21 15:00;CYXE 211500Z 22017KT 15SM FEW026 11/06 A2965 RMK CU1 SLP050

CYXE;2010-05-21 16:00;CYXE 211600Z 21016KT 15SM SCT028 11/05 A2965 RMK SC4 SLP052

CYXE;2010-05-21 17:00;CYXE 211700Z 21013KT 15SM SCT032 13/05 A2964 RMK CU3 SLP048

CYXE;2010-05-21 18:00;CYXE 211800Z 20018G25KT 15SM FEW035 15/01 A2963 RMK CU2 SLP042

CYXE;2010-05-21 19:00;CYXE 211900Z 22017G29KT 15SM FEW040 16/01 A2962 RMK SC1 SLP039

CYXE;2010-05-21 20:00;CYXE 212000Z 20018G27KT 15SM FEW040 16/M00 A2960 RMK CU1 SLP033

CYXE;2010-05-21 21:00;CYXE 212100Z 23023G31KT 15SM FEW070 18/M00 A2959 RMK CU2 SLP029

CYXE;2010-05-21 22:00;CYXE 212200Z 21022G28KT 15SM FEW080 18/M03 A2958 RMK CU2 SLP025

CYXE;2010-05-21 23:00;CYXE 212300Z 22022KT 15SM SCT090 19/M05 A2957 RMK CU3 SLP023

CYXE;2010-05-22 00:00;CYXE 220000Z 21022G28KT 15SM FEW090 18/M07 A2957 RMK CU2 SLP025

CYXE;2010-05-22 01:00;CYXE 220100Z 19018G24KT 15SM FEW090 18/M06 A2957 RMK CU1 SLP023

CYXE;2010-05-22 02:00;CYXE 220200Z 20011G17KT 15SM FEW090 17/M04 A2957 RMK AC1 SLP023

CYXE;2010-05-22 03:00;CYXE 220300Z 19008KT 15SM FEW090 14/M04 A2957 RMK AC1 SLP025

CYXE;2010-05-22 04:00;CYXE 220400Z 17008KT 15SM FEW090 09/M02 A2959 RMK AC1 SLP029

CYXE;2010-05-22 05:00;CYXE 220500Z 18009KT 15SM FEW090 10/M02 A2959 RMK AC1 SLP030

CYXE;2010-05-22 06:00;CYXE 220600Z 18009KT 15SM SKC 10/03 A2959 RMK SLP029

CYXE;2010-05-22 07:00;CYXE 220700Z 17010KT 15SM SKC 08/04 A2959 RMK SLP029

CYXE;2010-05-22 08:00;CYXE 220800Z 18009KT 15SM SKC 09/05 A2958 RMK SLP026

CYXE;2010-05-22 09:00;CYXE 220900Z 18009KT 15SM SKC 08/05 A2958 RMK SLP025

CYXE;2010-05-22 10:00;CYXE 221000Z 26004KT 15SM FEW110 FEW280 06/04 A2961 RMK AC1CI0 SLP035

CYXE;2010-05-22 11:00;CYXE 221100Z 02003KT 15SM FEW090 FEW280 03/02 A2961 RMK AC1CI1 SLP034

CYXE;2010-05-22 12:00;CYXE 221200Z 09006KT 15SM FEW090 BKN280 06/05 A2961 RMK AC1CI2 SLP036

CYXE;2010-05-22 13:00;CYXE 221300Z 07002KT 15SM FEW090 BKN280 10/06 A2961 RMK AC1CI2 SLP038

CYXE;2010-05-22 14:00;CYXE 221400Z 09005KT 15SM FEW090 BKN280 13/07 A2960 RMK AC1CI2 SLP034

CYXE;2010-05-22 15:00;CYXE 221500Z 05005KT 15SM SCT084 OVC260 15/07 A2959 RMK AC3CI2 SLP027

CYXE;2010-05-22 16:00;CYXE 221600Z 07009KT 15SM SCT087 OVC260 16/05 A2956 RMK AC3CI3 SLP017

CYXE;2010-05-22 17:00;CYXE 221700Z 06010KT 15SM SCT090 BKN160 OVC260 18/06 A2954 RMK AC3AC1CI2 SLP012

CYXE;2010-05-22 18:00;CYXE 221800Z 11014KT 15SM FEW090 BKN160 OVC260 19/01 A2952 RMK AC2AC2CI2 SLP002

CYXE;2010-05-22 19:00;CYXE 221900Z 09016KT 15SM FEW090 BKN140 OVC260 18/01 A2949 RMK AC2AC4CI2 SLP994

CYXE;2010-05-22 20:00;CYXE 222000Z 08018G24KT 15SM SCT090 OVC140 18/02 A2947 RMK AC3AC4 SLP988

CYXE;2010-05-22 21:00;CYXE 222100Z 08019G27KT 15SM VCSH BKN083 OVC140 18/01 A2946 RMK ACC6AC2 SLP985

CYXE;2010-05-22 21:47;CYXE 222147Z 11020G29KT 15SM -SHRA OVC080 14/ RMK ACC8

CYXE;2010-05-22 22:00;CYXE 222200Z 11027G32KT 15SM -SHRA FEW040 OVC080 13/08 A2948 RMK SC1ACC7 SLP991

CYXE;2010-05-22 23:00;CYXE 222300Z 09023KT 10SM RA OVC024 11/09 A2947 RMK SC8 SLP989

CYXE;2010-05-23 00:00;CYXE 230000Z 07025G31KT 10SM RA OVC033 10/09 A2944 RMK SC8 SLP985

CYXE;2010-05-23 01:00;CYXE 230100Z 04026G36KT 4SM +RA OVC033 09/08 A2939 RMK SC8 SLP969

CYXE;2010-05-23 02:00;CYXE 230200Z 03028G37KT 3SM RA OVC031 09/08 A2934 RMK SC8 /R10/ SLP952

CYXE;2010-05-23 02:24;CYXE 230224Z 02031G38KT 2SM +RA BR OVC030 09/ RMK SC8

CYXE;2010-05-23 03:00;CYXE 230300Z 02032G40KT 2SM +RA BR OVC030 08/08 A2927 RMK SC8 PRESFR SLP921

CYXE;2010-05-23 04:00;CYXE 230400Z 01026G34KT 3SM RA BR SCT008 OVC042 08/08 A2921 RMK ST3SC5 /R22/ SLP904

CYXE;2010-05-23 04:13;CYXE 230413Z 01025G33KT 3SM RA BR BKN009 OVC030 08/ RMK ST6SC2

CYXE;2010-05-23 04:35;CYXE 230435Z 01022G31KT 4SM -RA BR OVC007 08/ RMK ST8

CYXE;2010-05-23 05:00;CYXE 230500Z 01025G30KT 3SM -RA BR OVC007 08/08 A2915 RERA RMK ST8 PRESFR SLP882

CYXE;2010-05-23 06:00;CYXE 230600Z CCA 02020G25KT 5SM -RA OVC005 09/09 A2907 RMK SC8 PRESFR /R30/ SLP852

CYXE;2010-05-23 06:53;CYXE 230653Z 05012G17KT 15SM SCT006 OVC009 10/ RMK SF3SC5

CYXE;2010-05-23 07:00;CYXE 230700Z 07015KT 15SM SCT006 OVC008 10/10 A2904 RMK SF3SC5 SLP841

CYXE;2010-05-23 08:00;CYXE 230800Z 06011KT 12SM OVC005 10/10 A2901 RMK ST8 SLP831

CYXE;2010-05-23 08:13;CYXE 230813Z 06010KT 6SM -RA BR OVC003 10/ RMK ST8

CYXE;2010-05-23 09:00;CYXE 230900Z 07010KT 6SM -RA BR OVC003 10/10 A2898 RMK ST8 SLP819

CYXE;2010-05-23 10:00;CYXE 231000Z 05004KT 4SM -RA BR OVC002 09/09 A2894 RMK ST8 SLP808

CYXE;2010-05-23 10:19;CYXE 231019Z 04007KT 1SM R09/P6000FT/N -RA BR OVC002 08/ RMK ST8

CYXE;2010-05-23 11:00;CYXE 231100Z 36006KT 1 1/2SM -RA BR OVC001 08/08 A2893 RMK ST8 SLP802

CYXE;2010-05-23 11:14;CYXE 231114Z 35007KT 2SM -RA BR OVC002 08/ RMK ST8

CYXE;2010-05-23 11:27;CYXE 231127Z 32008KT 6SM -RA BR OVC002 08/ RMK ST8

CYXE;2010-05-23 12:00;CYXE 231200Z 30007KT 3SM -RA BR OVC003 08/08 A2893 RMK ST8 SLP808

CYXE;2010-05-23 12:22;CYXE 231222Z 30009KT 4SM -RA BR OVC004 08/ RMK ST8

CYXE;2010-05-23 13:00;CYXE 231300Z 31013KT 5SM -RA BR OVC004 08/08 A2894 RMK ST8 SLP812

CYXE;2010-05-23 13:36;CYXE 231336Z 31014G19KT 2SM -RA BR OVC005 08/ RMK ST8

CYXE;2010-05-23 14:00;CYXE 231400Z 31015KT 2SM -RA BR OVC005 08/08 A2898 RMK ST8 SLP824

CYXE;2010-05-23 15:00;CYXE 231500Z 30015KT 3SM -DZ BR BKN005 OVC007 08/08 A2903 RMK SF5ST3 SLP845

CYXE;2010-05-23 16:00;CYXE 231600Z 28015G20KT 12SM SCT007 OVC014 08/08 A2908 RMK SF3SC5 SLP861

CYXE;2010-05-23 16:29;CYXE 231629Z 27014G19KT 3SM -RA BR BKN007 OVC014 08/ RMK SF6SC2

CYXE;2010-05-23 17:00;CYXE 231700Z 27015KT 2SM -RA BR OVC006 08/08 A2913 RMK SF8 SLP875

CYXE;2010-05-23 17:46;CYXE 231746Z 28019G28KT 15SM -RA OVC008 08/ RMK SC8

CYXE;2010-05-23 18:00;CYXE 231800Z 28020G28KT 15SM -RA OVC009 08/08 A2918 RMK SC8 SLP895

CYXE;2010-05-23 19:00;CYXE 231900Z 28026G31KT 15SM SCT009 OVC013 08/07 A2925 RMK SC4SC4 PRESRR SLP918

CYXE;2010-05-23 20:00;CYXE 232000Z 27022G29KT 12SM -RA SCT010 OVC015 06/05 A2934 RMK SC3SC5 PRESRR SLP944

CYXE;2010-05-23 21:00;CYXE 232100Z 27026G34KT 12SM -RA SCT010 OVC015 06/04 A2941 RMK SC3SC5 PRESRR SLP973

CYXE;2010-05-23 22:00;CYXE 232200Z 28023KT 15SM -RA OVC020 07/05 A2947 RMK SC8 SLP992

CYXE;2010-05-23 22:32;CYXE 232232Z 28020G26KT 15SM OVC021 08/ RMK SC8

CYXE;2010-05-23 23:00;CYXE 232300Z 28022G29KT 15SM BKN021 OVC045 08/05 A2951 RMK SC6SC2 SLP007

CYXE;2010-05-24 00:00;CYXE 240000Z 27023G30KT 15SM OVC017 07/04 A2956 RMK SC8 SLP028

CYXE;2010-05-24 01:00;CYXE 240100Z 28022G27KT 15SM BKN022 OVC100 07/04 A2962 RMK SC6AC2 SLP045

CYXE;2010-05-24 02:00;CYXE 240200Z CCA 27014G19KT 15SM BKN024 OVC036 07/04 A2968 RMK SC6SC2 SLP065

CYXE;2010-05-24 03:00;CYXE 240300Z 27014G19KT 15SM OVC024 07/04 A2970 RMK SC8 SLP075

CYXE;2010-05-24 04:00;CYXE 240400Z 27016KT 15SM BKN023 06/04 A2975 RMK SC6 SLP089

CYXE;2010-05-24 05:00;CYXE 240500Z 26011KT 15SM BKN024 07/05 A2978 RMK SC7 SLP099

CYXE;2010-05-24 06:00;CYXE 240600Z 29010KT 15SM BKN022 OVC090 07/05 A2977 RMK SC6AC1 SLP097

CYXE;2010-05-24 07:00;CYXE 240700Z 28013KT 15SM BKN021 07/05 A2975 RMK SC6 SLP092

CYXE;2010-05-24 08:00;CYXE 240800Z 27011KT 15SM SCT023 06/04 A2983 RMK SC4 PRESRR SLP118

CYXE;2010-05-24 09:00;CYXE 240900Z 24006KT 15SM SCT036 04/03 A2988 RMK SC4 SLP139

CYXE;2010-05-24 10:00;CYXE 241000Z 26006KT 15SM BKN019 03/03 A2992 RMK SC4 SLP150

CYXE;2010-05-24 11:00;CYXE 241100Z 30005KT 15SM BKN017 04/03 A2991 RMK SC5 SLP147

CYXE;2010-05-24 12:00;CYXE 241200Z 24004KT 15SM FEW017 04/03 A2991 RMK SC2 SLP148

CYXE;2010-05-24 13:00;CYXE 241300Z 29006KT 15SM FEW017 FEW260 06/04 A2993 RMK SC1CI1 SLP155

CYXE;2010-05-24 14:00;CYXE 241400Z 30006KT 15SM FEW012 FEW270 07/04 A2996 RMK CF1CI0 SLP163

CYXE;2010-05-24 15:00;CYXE 241500Z 29005KT 15SM FEW016 SCT280 08/04 A2997 RMK CU2CI0 SLP167

CYXE;2010-05-24 16:00;CYXE 241600Z 28004KT 15SM FEW022 BKN280 10/05 A2997 RMK CU2CI0 OBS TAKEN +05 SLP168

CYXE;2010-05-24 17:00;CYXE 241700Z 34006KT 15SM FEW024 BKN300 12/06 A2997 RMK CU2CI0 SLP167

CYXE;2010-05-24 18:00;CYXE 241800Z 01006KT 15SM SCT025 BKN300 12/06 A2997 RMK CU4CI0 SLP164

CYXE;2010-05-24 19:00;CYXE 241900Z 03006KT 15SM SCT033 BKN300 13/06 A2997 RMK CU3CI1 SLP164

CYXE;2010-05-24 20:00;CYXE 242000Z 36003KT 15SM SCT035 BKN300 14/05 A2998 RMK CU3CI1 SLP168

CYXE;2010-05-24 21:00;CYXE 242100Z 01004KT 15SM SCT039 BKN300 14/05 A2997 RMK CU4CI2 SLP166

CYXE;2010-05-24 22:00;CYXE 242200Z 02008KT 15SM SCT037 BKN250 15/06 A2996 RMK CU4CI0 SLP160

CYXE;2010-05-24 23:00;CYXE 242300Z 04010KT 15SM FEW045 SCT300 15/06 A2995 RMK CU2CI2 SLP158

CYXE;2010-05-25 00:00;CYXE 250000Z 06011KT 15SM SCT050 BKN300 15/06 A2993 RMK CU4CI0 SLP151

CYXE;2010-05-25 01:00;CYXE 250100Z 05014KT 15SM BKN049 BKN300 14/05 A2994 RMK CU5CI0 SLP154

CYXE;2010-05-25 02:00;CYXE 250200Z 05010KT 15SM FEW052 BKN300 13/05 A2996 RMK CU2CI4 SLP161

CYXE;2010-05-25 03:00;CYXE 250300Z 05009KT 15SM FEW052 BKN300 12/06 A2996 RMK SC2CI4 SLP160

CYXE;2010-05-25 04:00;CYXE 250400Z 05012KT 15SM BKN300 11/06 A2996 RMK CI3 SLP161

CYXE;2010-05-25 05:00;CYXE 250500Z 04012KT 15SM BKN300 10/05 A2994 RMK CI3 SLP154

CYXE;2010-05-25 06:00;CYXE 250600Z 04014KT 15SM BKN280 09/05 A2993 RMK CI4 SLP148

CYXE;2010-05-25 07:00;CYXE 250700Z 04015KT 15SM BKN280 08/05 A2990 RMK CI4 SLP140

CYXE;2010-05-25 08:00;CYXE 250800Z 03017KT 15SM BKN280 08/04 A2987 RMK CI4 SLP130

CYXE;2010-05-25 09:00;CYXE 250900Z 03018KT 15SM SCT100 OVC280 07/04 A2985 RMK AC4CI2 SLP120

CYXE;2010-05-25 10:00;CYXE 251000Z 03017G24KT 15SM FEW042 BKN070 OVC280 07/04 A2984 RMK SC2AC3CI2 SLP117

CYXE;2010-05-25 10:49;CYXE 251049Z 02016G21KT 15SM -RA BKN033 OVC070 07/ RMK SC6AC2

CYXE;2010-05-25 11:00;CYXE 251100Z 02019KT 15SM -RA OVC033 07/05 A2983 RMK SC8 SLP113

CYXE;2010-05-25 12:00;CYXE 251200Z 04017G25KT 6SM -RA BR OVC016 06/05 A2983 RMK SC8 SLP115

CYXE;2010-05-25 12:46;CYXE 251246Z 03019G24KT 5SM -RA BR OVC010 05/ RMK SC8

CYXE;2010-05-25 13:00;CYXE 251300Z 03019G25KT 5SM RA BR OVC013 05/04 A2980 RMK SC8 SLP107

CYXE;2010-05-25 14:00;CYXE 251400Z 03019KT 4SM -RA BR OVC010 04/04 A2981 RERA RMK SC8 SLP108

CYXE;2010-05-25 14:14;CYXE 251414Z 02019G26KT 4SM -RA BR OVC009 04/ RMK SC8

CYXE;2010-05-25 15:00;CYXE 251500Z 01020G27KT 4SM RA BR OVC009 04/03 A2977 RMK SC8 SLP098

CYXE;2010-05-25 16:00;CYXE 251600Z 36021KT 4SM RA BR OVC010 04/04 A2975 RMK SC8 SLP090

CYXE;2010-05-25 17:00;CYXE 251700Z 36021KT 8SM -RA OVC010 05/04 A2973 RERA RMK SC8 /R11/ SLP084

CYXE;2010-05-25 18:00;CYXE 251800Z 36021G30KT 8SM -RA OVC012 05/05 A2972 RMK SC8 SLP082

CYXE;2010-05-25 19:00;CYXE 251900Z 35023G30KT 8SM -RA OVC012 05/05 A2974 RMK SC8 SLP086

CYXE;2010-05-25 19:20;CYXE 251920Z 36025G32KT 5SM -RA BR OVC008 05/ RMK SC8

CYXE;2010-05-25 20:00;CYXE 252000Z 35022G30KT 3SM -RA BR OVC010 05/05 A2976 RMK SC8 SLP094

CYXE;2010-05-25 20:22;CYXE 252022Z 35022G30KT 1 1/2SM -RA BR OVC008 05/ RMK SC8

CYXE;2010-05-25 21:00;CYXE 252100Z 36023G29KT 2SM -RA BR OVC010 05/04 A2978 RMK SC8 SLP105

CYXE;2010-05-25 21:20;CYXE 252120Z 35022G28KT 6SM -RA BR OVC012 05/ RMK SC8

CYXE;2010-05-25 22:00;CYXE 252200Z 35023KT 6SM -RA BR OVC012 04/04 A2982 RMK SC8 SLP117

CYXE;2010-05-25 23:00;CYXE 252300Z 35020G25KT 6SM -RA BR OVC012 05/04 A2984 RMK SC8 SLP123

CYXE;2010-05-26 00:00;CYXE 260000Z 35018G25KT 15SM -RA BKN014 OVC060 05/04 A2985 RMK SC6SC2 SLP127

CYXE;2010-05-26 00:31;CYXE 260031Z 34017KT 15SM BKN014 OVC030 05/ RMK SC6SC2

CYXE;2010-05-26 01:00;CYXE 260100Z 34014KT 15SM BKN015 OVC030 05/04 A2987 RMK SC6SC2 SLP135

CYXE;2010-05-26 02:00;CYXE 260200Z 32012KT 15SM OVC011 04/04 A2989 RMK SC8 SLP141

CYXE;2010-05-26 02:20;CYXE 260220Z 32016KT 15SM SCT011 OVC042 04/ RMK SC4SC4

CYXE;2010-05-26 03:00;CYXE 260300Z 31010KT 15SM BKN010 BKN030 OVC055 04/04 A2990 RMK SC5SC2SC2 SLP148

CYXE;2010-05-26 04:00;CYXE 260400Z 31013KT 15SM SCT010 BKN020 OVC055 04/03 A2992 RMK SC3SC2SC2 SLP153

CYXE;2010-05-26 05:00;CYXE 260500Z 31011KT 15SM BKN015 OVC035 04/03 A2993 RMK SC5SC2 SLP157

CYXE;2010-05-26 06:00;CYXE 260600Z 29010KT 15SM FEW015 FEW090 03/02 A2995 RMK SC1AC1 SLP165

CYXE;2010-05-26 07:00;CYXE 260700Z 27008KT 15SM BKN020 03/03 A2996 RMK SC6 SLP169

CYXE;2010-05-26 08:00;CYXE 260800Z 27006KT 15SM BKN020 03/02 A2998 RMK SC6 SLP174

CYXE;2010-05-26 09:00;CYXE 260900Z 29011KT 15SM BKN023 04/04 A3000 RMK SC7 SLP180

CYXE;2010-05-26 10:00;CYXE 261000Z 31010KT 15SM OVC017 05/04 A3001 RMK SC8 SLP185

CYXE;2010-05-26 11:00;CYXE 261100Z 32010G15KT 15SM BKN013 05/04 A3002 RMK SC7 SLP188

CYXE;2010-05-26 11:18;CYXE 261118Z 34010KT 15SM SCT015 05/ RMK SC4

CYXE;2010-05-26 12:00;CYXE 261200Z 29007KT 15SM SCT021 04/03 A3005 RMK SC4 SLP197

CYXE;2010-05-26 13:00;CYXE 261300Z 29007KT 15SM BKN020 05/04 A3008 RMK SC7 SLP206

CYXE;2010-05-26 14:00;CYXE 261400Z 30010KT 15SM BKN019 06/04 A3009 RMK SC7 SLP211

CYXE;2010-05-26 15:00;CYXE 261500Z 29009KT 15SM BKN013 OVC020 07/05 A3011 RMK SF5SC3 SLP217

CYXE;2010-05-26 16:00;CYXE 261600Z 32007KT 15SM OVC018 08/05 A3013 RMK SC8 SLP224

CYXE;2010-05-26 17:00;CYXE 261700Z 34010KT 15SM BKN021 09/05 A3014 RMK SC7 SLP228

CYXE;2010-05-26 18:00;CYXE 261800Z 34012KT 15SM SCT025 10/05 A3014 RMK SC4 SLP227

CYXE;2010-05-26 19:00;CYXE 261900Z 33008KT 15SM SCT025 13/06 A3015 RMK SC4 SLP229

CYXE;2010-05-26 20:00;CYXE 262000Z 35006KT 15SM BKN037 13/05 A3015 RMK SC6 SLP230

CYXE;2010-05-26 21:00;CYXE 262100Z 36007KT 15SM BKN042 15/06 A3015 RMK SC6 SLP227

CYXE;2010-05-26 22:00;CYXE 262200Z 03008KT 15SM BKN035 14/06 A3015 RMK SC6 SLP227

CYXE;2010-05-26 23:00;CYXE 262300Z 05008KT 15SM BKN048 BKN250 14/06 A3015 RMK SC6CI1 SLP227

CYXE;2010-05-27 00:00;CYXE 270000Z 05009KT 15SM BKN050 15/06 A3016 RMK SC5 SLP230

CYXE;2010-05-27 01:00;CYXE 270100Z 07009KT 15SM SCT055 14/05 A3016 RMK SC4 SLP229

CYXE;2010-05-27 02:00;CYXE 270200Z 07009KT 15SM FEW050 SCT280 12/05 A3017 RMK SC2CI0 SLP234

CYXE;2010-05-27 03:00;CYXE 270300Z 09007KT 15SM FEW050 BKN280 09/05 A3019 RMK SC1CI1 SLP241

CYXE;2010-05-27 04:00;CYXE 270400Z 12006KT 15SM BKN280 08/05 A3022 RMK CI1 SLP250

CYXE;2010-05-27 05:00;CYXE 270500Z 14005KT 15SM SCT280 08/04 A3023 RMK CI0 SLP255

CYXE;2010-05-27 06:00;CYXE 270600Z 13005KT 15SM SCT280 07/05 A3024 RMK CI2 SLP259

CYXE;2010-05-27 07:00;CYXE 270700Z 08007KT 15SM SCT280 05/04 A3025 RMK CI1 SLP261

CYXE;2010-05-27 08:00;CYXE 270800Z 08006KT 15SM BKN280 05/04 A3024 RMK CI1 SLP259

CYXE;2010-05-27 09:00;CYXE 270900Z 05008KT 15SM SCT280 04/03 A3023 RMK CI1 SLP254

CYXE;2010-05-27 10:00;CYXE 271000Z 06008KT 15SM BKN280 04/03 A3025 RMK CI2 SLP260

CYXE;2010-05-27 11:00;CYXE 271100Z 06008KT 15SM BKN280 03/03 A3025 RMK CI2 SLP260

CYXE;2010-05-27 12:00;CYXE 271200Z 07008KT 15SM BKN280 04/04 A3026 RMK CI2 SLP265

CYXE;2010-05-27 13:00;CYXE 271300Z 08009KT 15SM BKN300 05/05 A3026 RMK CI2 SLP264

CYXE;2010-05-27 14:00;CYXE 271400Z 08012KT 15SM FEW011 BKN300 08/05 A3026 RMK CU1CI2 SLP265

CYXE;2010-05-27 15:00;CYXE 271500Z 06012KT 15SM SCT020 BKN300 08/04 A3026 RMK CU3CI1 SLP264

CYXE;2010-05-27 16:00;CYXE 271600Z 07015KT 15SM SCT022 BKN300 09/04 A3025 RMK CU4CI2 SLP260

CYXE;2010-05-27 17:00;CYXE 271700Z 07014G20KT 15SM BKN024 BKN300 10/04 A3023 RMK SC6CI1 SLP253

CYXE;2010-05-27 18:00;CYXE 271800Z 08019G25KT 15SM BKN026 BKN300 10/04 A3021 RMK SC5CI1 SLP247

CYXE;2010-05-27 19:00;CYXE 271900Z 08016G21KT 15SM SCT028 BKN089 OVC300 11/05 A3020 RMK SC4AC1CI1 SLP245

CYXE;2010-05-27 20:00;CYXE 272000Z 07018KT 15SM SCT030 BKN300 11/05 A3019 RMK SC4CI1 SLP242

CYXE;2010-05-27 21:00;CYXE 272100Z 07018G24KT 15SM FEW033 BKN100 BKN300 13/05 A3018 RMK SC2AC2CI2 SLP236

CYXE;2010-05-27 22:00;CYXE 272200Z 09020G26KT 15SM FEW035 SCT100 BKN300 12/05 A3017 RMK SC2AC2CI2 SLP234

CYXE;2010-05-27 23:00;CYXE 272300Z 07019G26KT 15SM FEW034 BKN060 BKN100 OVC300 12/05 A3015 RMK SC2SC3AC2CI1 SLP229

CYXE;2010-05-28 00:00;CYXE 280000Z 07017G22KT 15SM BKN035 OVC100 11/05 A3015 RMK SC6AC2 SLP229

CYXE;2010-05-28 01:00;CYXE 280100Z 07017KT 15SM SCT035 OVC090 10/05 A3014 RMK SC3AC5 SLP227

CYXE;2010-05-28 02:00;CYXE 280200Z 06021KT 15SM SCT035 OVC090 10/05 A3013 RMK SC3AC5 SLP221

CYXE;2010-05-28 03:00;CYXE 280300Z 06017KT 15SM OVC074 10/05 A3013 RMK AC8 SLP219

CYXE;2010-05-28 04:00;CYXE 280400Z 07015KT 15SM OVC072 10/05 A3014 RMK AC8 SLP223

CYXE;2010-05-28 05:00;CYXE 280500Z 08014G21KT 15SM FEW030 BKN070 OVC100 09/05 A3014 RMK SC2AC4AC2 SLP221

CYXE;2010-05-28 05:46;CYXE 280546Z 06015G22KT 15SM -SHRA FEW030 OVC062 09/ RMK SC2SC6

CYXE;2010-05-28 06:00;CYXE 280600Z 07017G22KT 15SM -SHRA FEW030 OVC062 09/05 A3012 RMK SC2SC6 SLP215

CYXE;2010-05-28 07:00;CYXE 280700Z 07012KT 10SM -SHRA FEW030 OVC057 07/06 A3012 RMK SC2SC6 SLP216

CYXE;2010-05-28 08:00;CYXE 280800Z 08017KT 15SM -SHRA OVC046 07/05 A3011 RMK SC8 SLP212

CYXE;2010-05-28 08:34;CYXE 280834Z 08015G20KT 15SM OVC050 07/ RMK SC8

CYXE;2010-05-28 09:00;CYXE 280900Z 08017KT 15SM OVC048 07/05 A3011 RMK SC8 SLP211

CYXE;2010-05-28 10:00;CYXE 281000Z 08016KT 15SM OVC045 07/05 A3008 RMK SC8 SLP201

CYXE;2010-05-28 10:37;CYXE 281037Z 08013G19KT 10SM -DZ SCT020 OVC040 07/ RMK SC3SC5

CYXE;2010-05-28 10:43;CYXE 281043Z 07013KT 8SM -SHRA SCT020 OVC037 06/ RMK SC3SC5

CYXE;2010-05-28 11:00;CYXE 281100Z 07014G20KT 10SM -SHRA FEW018 OVC037 06/05 A3009 RMK SC2SC6 SLP205

CYXE;2010-05-28 12:00;CYXE 281200Z 06013KT 10SM -SHRA OVC020 06/05 A3010 RMK SC8 SLP210

CYXE;2010-05-28 12:43;CYXE 281243Z 07017KT 10SM -DZ BKN007 OVC028 06/ RMK ST6SC2

CYXE;2010-05-28 13:00;CYXE 281300Z 07018KT 10SM -DZ BKN007 OVC028 06/05 A3008 RMK ST6SC2 SLP204

CYXE;2010-05-28 13:51;CYXE 281351Z 07016G21KT 4SM -DZ OVC008 06/ RMK SC8

CYXE;2010-05-28 14:00;CYXE 281400Z 07020KT 3SM -DZ BR OVC007 06/05 A3007 RMK SC8 SLP199

CYXE;2010-05-28 15:00;CYXE 281500Z 08015KT 2SM -DZ BR OVC007 06/06 A3009 RMK ST8 SLP209

CYXE;2010-05-28 15:20;CYXE 281520Z 06016KT 1 1/2SM -DZ BR OVC004 06/ RMK ST8

CYXE;2010-05-28 15:50;CYXE 281550Z 07020G27KT 2SM -DZ BR OVC005 06/ RMK ST8

CYXE;2010-05-28 16:00;CYXE 281600Z 07016G22KT 3SM -DZ BR OVC006 06/06 A3009 RMK ST8 SLP207

CYXE;2010-05-28 17:00;CYXE 281700Z 07016KT 2SM -DZ BR OVC004 06/06 A3010 RMK ST8 SLP211

CYXE;2010-05-28 18:00;CYXE 281800Z 07013KT 12SM -RA OVC006 06/06 A3010 RMK SC8 SLP213

CYXE;2010-05-28 19:00;CYXE 281900Z 07019KT 6SM -DZ BR OVC009 06/06 A3010 RMK SC8 SLP211

CYXE;2010-05-28 19:32;CYXE 281932Z 06016KT 6SM -RA BR OVC006 06/ RMK SC8

CYXE;2010-05-28 20:00;CYXE 282000Z 06016G21KT 6SM -RA BR OVC007 06/06 A3011 RMK SC8 SLP214

CYXE;2010-05-28 20:43;CYXE 282043Z 06015KT 3SM -DZ BR OVC005 06/ RMK SF8

CYXE;2010-05-28 21:00;CYXE 282100Z 06013KT 2SM -DZ BR OVC005 06/06 A3010 RMK SF8 SLP214

CYXE;2010-05-28 21:16;CYXE 282116Z 07016KT 1 1/2SM -DZ BR BKN006 OVC010 06/ RMK SF6ST2

CYXE;2010-05-28 21:50;CYXE 282150Z 06017G24KT 1 1/2SM RA BR OVC013 06/ RMK SF8

CYXE;2010-05-28 22:00;CYXE 282200Z 06018G24KT 3SM RA BR OVC018 06/05 A3008 RMK SF8 VIS NW 11/2 SLP206

CYXE;2010-05-28 22:19;CYXE 282219Z 05016G25KT 6SM -RA BR SCT012 OVC016 06/ RERA RMK SC3SC5

CYXE;2010-05-28 23:00;CYXE 282300Z 05016KT 12SM -RA OVC017 06/05 A3008 RERA RMK SC8 SLP207

CYXE;2010-05-29 00:00;CYXE 290000Z 05016KT 15SM BKN028 OVC063 06/04 A3007 RMK SC6SC2 SLP204

CYXE;2010-05-29 00:13;CYXE 290013Z 04014KT 15SM -SHRA BKN032 OVC063 06/ RMK SC6SC2

CYXE;2010-05-29 01:00;CYXE 290100Z 03011KT 15SM -RA OVC036 06/05 A3007 RMK SC8 SLP204

CYXE;2010-05-29 02:00;CYXE 290200Z 03012KT 8SM -RA OVC038 06/05 A3008 RMK SC8 SLP206

CYXE;2010-05-29 02:51;CYXE 290251Z 03015KT 2SM RA BR SCT027 OVC040 06/ RMK SC3SC5

CYXE;2010-05-29 03:00;CYXE 290300Z 03015KT 1 1/2SM +RA BR SCT027 OVC042 05/05 A3011 RMK SC3SC5 SLP216

CYXE;2010-05-29 03:09;CYXE 290309Z CCA 03014KT 4SM -RA BR SCT027 OVC042 05/ RERA RMK SC4SC4

CYXE;2010-05-29 04:00;CYXE 290400Z 03017KT 8SM -RA OVC040 05/05 A3009 RERA RMK SC8 SLP210

CYXE;2010-05-29 05:00;CYXE 290500Z 05016KT 15SM -RA OVC040 05/04 A3012 RMK SC8 SLP219

CYXE;2010-05-29 06:00;CYXE 290600Z 05022G29KT 15SM -RA OVC036 05/04 A3005 RMK SC8 PRESFR SLP195

CYXE;2010-05-29 07:00;CYXE 290700Z 07022KT 15SM -RA OVC037 05/04 A3004 RMK SC8 SLP193

CYXE;2010-05-29 07:15;CYXE 290715Z 06018KT 15SM OVC037 05/ RMK SC8

CYXE;2010-05-29 08:00;CYXE 290800Z 07015G21KT 15SM OVC035 05/03 A3006 RMK SC8 SLP201

CYXE;2010-05-29 08:27;CYXE 290827Z 05015KT 15SM -RA OVC035 05/ RMK SC8

CYXE;2010-05-29 09:00;CYXE 290900Z 05012G19KT 15SM -RA OVC035 05/04 A3004 RMK SC8 SLP193

CYXE;2010-05-29 10:00;CYXE 291000Z 05014G21KT 10SM -RA OVC028 04/04 A3001 RMK SC8 SLP184

CYXE;2010-05-29 11:00;CYXE 291100Z 04016KT 6SM -RA BR OVC026 04/04 A2998 RMK SC8 SLP175

CYXE;2010-05-29 11:20;CYXE 291120Z 03015KT 15SM OVC024 04/ RMK SC8

CYXE;2010-05-29 12:00;CYXE 291200Z 05017G22KT 15SM BKN029 OVC120 05/04 A2996 RMK SC5AC3 SLP166

CYXE;2010-05-29 13:00;CYXE 291300Z 04016G21KT 15SM BKN030 OVC120 05/03 A2996 RMK SC7AC1 SLP164

CYXE;2010-05-29 13:50;CYXE 291350Z 05015G22KT 8SM -RA OVC018 04/ RMK SC8

CYXE;2010-05-29 14:00;CYXE 291400Z 05014G20KT 2SM -RA BR OVC018 04/04 A2996 RMK SC8 SLP164

CYXE;2010-05-29 15:00;CYXE 291500Z 06015G20KT 2SM -RA BR OVC008 04/04 A2994 RMK SC8 SLP160

CYXE;2010-05-29 16:00;CYXE 291600Z 07014KT 2SM -RA BR OVC004 04/04 A2993 RMK SC8 SLP157

CYXE;2010-05-29 16:35;CYXE 291635Z 07014KT 3SM -DZ BR OVC005 05/ RMK SC8

CYXE;2010-05-29 17:00;CYXE 291700Z 06017KT 3SM -DZ BR OVC006 05/05 A2993 RMK SC8 SLP156

CYXE;2010-05-29 18:00;CYXE 291800Z 07015KT 3SM -DZ BR OVC007 05/05 A2992 RMK SC8 SLP152

CYXE;2010-05-29 18:18;CYXE 291818Z 07012KT 1 1/2SM -RA BR OVC005 05/ RMK SC8

CYXE;2010-05-29 19:00;CYXE 291900Z 05010G17KT 1 1/2SM -RA BR OVC005 05/05 A2993 RMK SC8 SLP155

CYXE;2010-05-29 20:00;CYXE 292000Z 05014KT 2SM -RA BR OVC005 05/05 A2992 RMK SC8 SLP151

CYXE;2010-05-29 21:00;CYXE 292100Z 05015KT 2SM -RA BR OVC004 05/05 A2992 RMK SC8 SLP153

CYXE;2010-05-29 21:40;CYXE 292140Z 05017KT 4SM -RA BR OVC004 05/ RMK SF8

CYXE;2010-05-29 22:00;CYXE 292200Z 05017KT 6SM -RA BR OVC004 06/06 A2989 RMK SF8 SLP144

CYXE;2010-05-29 22:20;CYXE 292220Z 05017KT 15SM BKN007 OVC030 06/ RMK SF7SC1

CYXE;2010-05-29 23:00;CYXE 292300Z 06013KT 4SM -DZ BR OVC006 06/06 A2990 RMK SF8 SLP146

CYXE;2010-05-29 23:36;CYXE 292336Z 06015KT 2SM -DZ BR OVC005 05/ RMK SF8

CYXE;2010-05-30 00:00;CYXE 300000Z 06017KT 1 1/2SM -DZ BR OVC004 05/05 A2989 RMK SF8 /R20/ SLP143

CYXE;2010-05-30 01:00;CYXE 300100Z 05016KT 1 1/2SM -DZ BR OVC004 05/05 A2989 RMK SF8 SLP142

CYXE;2010-05-30 02:00;CYXE 300200Z 06017KT 1 1/2SM -DZ BR OVC003 05/05 A2988 RMK SF8 SLP139

CYXE;2010-05-30 03:00;CYXE 300300Z 06014KT 1 1/2SM -DZ BR OVC003 05/05 A2987 RMK SF8 SLP136

CYXE;2010-05-30 04:00;CYXE 300400Z 06014KT 2SM -DZ BR OVC002 05/05 A2986 RMK ST8 SLP131

CYXE;2010-05-30 04:53;CYXE 300453Z 07013KT 3SM -DZ BR OVC002 05/ RMK ST8

CYXE;2010-05-30 05:00;CYXE 300500Z 08011G16KT 3SM -DZ BR OVC002 05/05 A2985 RMK ST8 SLP128

CYXE;2010-05-30 06:00;CYXE 300600Z 12005KT 3SM -DZ BR OVC002 06/06 A2984 RMK ST8 SLP125

CYXE;2010-05-30 06:10;CYXE 300610Z 15004KT 3/4SM R09/P6000FT/N BR OVC002 06/ RMK ST8

CYXE;2010-05-30 06:16;CYXE 300616Z 18005KT 3SM BR OVC002 06/ RMK ST8

CYXE;2010-05-30 07:00;CYXE 300700Z 22006KT 4SM BR OVC002 06/06 A2983 RMK ST8 SLP120

CYXE;2010-05-30 08:00;CYXE 300800Z 23010KT 4SM BR OVC002 05/05 A2981 RMK ST8 SLP116

CYXE;2010-05-30 09:00;CYXE 300900Z 24010KT 12SM OVC005 05/05 A2981 RMK ST8 BR SLP115

CYXE;2010-05-30 10:00;CYXE 301000Z 23009KT 15SM OVC006 05/05 A2980 RMK ST8 SLP111

CYXE;2010-05-30 11:00;CYXE 301100Z 24010KT 15SM BKN005 OVC059 05/05 A2978 RMK ST6SC2 SLP104

CYXE;2010-05-30 12:00;CYXE 301200Z 25011KT 15SM OVC007 05/05 A2978 RMK ST8 SLP104

CYXE;2010-05-30 13:00;CYXE 301300Z 24011KT 15SM OVC008 05/05 A2978 RMK ST8 SLP105

CYXE;2010-05-30 14:00;CYXE 301400Z 27013KT 15SM BKN010 06/05 A2977 RMK SC6 SLP102

CYXE;2010-05-30 15:00;CYXE 301500Z 25014KT 15SM BKN011 06/04 A2978 RMK SC7 SLP104

CYXE;2010-05-30 16:00;CYXE 301600Z 25016KT 15SM OVC012 05/04 A2978 RMK SC7 SLP106

CYXE;2010-05-30 17:00;CYXE 301700Z 25013G18KT 15SM BKN015 OVC040 06/03 A2978 RMK SC6SC2 SLP106

CYXE;2010-05-30 18:00;CYXE 301800Z 27014G19KT 15SM BKN018 OVC042 07/04 A2978 RMK SC6SC2 SLP102

CYXE;2010-05-30 19:00;CYXE 301900Z 25014G19KT 15SM VCSH BKN020 BKN050 BKN250 08/04 A2976 RMK SC5SC1CI2 CVCTV CLD ASOCTD SLP097

CYXE;2010-05-30 19:16;CYXE 301916Z 23016G21KT 15SM -SHRA BKN020 OVC250 06/ RMK SC6CI1 CVCTV CLD ASOCTD

CYXE;2010-05-30 20:00;CYXE 302000Z 26015G22KT 15SM -SHRA BKN025 09/04 A2976 RMK SC7 CU EMBD SLP095

CYXE;2010-05-30 21:00;CYXE 302100Z 26014KT 15SM -SHRA BKN015 BKN050 08/04 A2976 RMK SC6SC2 TCU EMBD SLP096

CYXE;2010-05-30 21:36;CYXE 302136Z 25017KT 15SM VCSH BKN025TCU BKN055 09/ RMK TCU6SC2

CYXE;2010-05-30 22:00;CYXE 302200Z 25012KT 15SM FEW028 BKN039TCU 09/04 A2975 RMK SC1TCU6 VIRGA ALQDS SLP094

CYXE;2010-05-30 23:00;CYXE 302300Z 23013G19KT 12SM -SHRA BKN020TCU BKN050 08/05 A2975 RMK TCU6SC2 SLP094

CYXE;2010-05-30 23:25;CYXE 302325Z 29013G19KT 15SM BKN025TCU BKN050 08/ RMK TCU5SC2 VIRGA ALQDS

CYXE;2010-05-31 00:00;CYXE 310000Z CCA 27010KT 15SM BKN031TCU BKN063 08/04 A2975 RMK TCU6SC2 VIRGA S SLP091

CYXE;2010-05-31 00:01;CYXE 310001Z 27008KT 15SM -SHRA BKN031TCU BKN063 08/ RMK TCU6SC2

CYXE;2010-05-31 01:00;CYXE 310100Z 27013KT 15SM -SHRA BKN033TCU BKN058 BKN082 09/03 A2974 RMK TCU5SC1AC1 SLP090

CYXE;2010-05-31 01:22;CYXE 310122Z 28011KT 15SM BKN032TCU BKN082 08/ RMK TCU5AC1

CYXE;2010-05-31 02:00;CYXE 310200Z 26009KT 15SM BKN034TCU BKN050 08/04 A2974 RMK TCU5SC2 VIRGA ALQDS SLP089

CYXE;2010-05-31 03:00;CYXE 310300Z 28011KT 15SM SCT026TCU SCT044 SCT070 BKN280 06/04 A2974 RMK TCU3SC1AC1CI0 SLP090

CYXE;2010-05-31 04:00;CYXE 310400Z 25007KT 15SM FEW026 BKN051 BKN070 05/04 A2975 RMK SC1SC4AC1 SLP093

CYXE;2010-05-31 05:00;CYXE 310500Z 25007KT 15SM FEW026 BKN056 05/04 A2975 RMK SC1SC6 SLP093

CYXE;2010-05-31 06:00;CYXE 310600Z 25008KT 15SM BKN058 BKN084 05/04 A2975 RMK SC5AC2 SLP092

CYXE;2010-05-31 07:00;CYXE 310700Z 25009KT 15SM -RA OVC025 05/04 A2974 RMK SC8 SLP091

CYXE;2010-05-31 08:00;CYXE 310800Z 25010KT 15SM -RA OVC027 05/05 A2974 RMK SC8 SLP089

CYXE;2010-05-31 09:00;CYXE 310900Z 26009KT 15SM -RA BKN022 OVC098 04/04 A2974 RMK SC6AC2 SLP088

CYXE;2010-05-31 10:00;CYXE 311000Z 27008KT 15SM -RA SCT026 OVC066 04/04 A2974 RMK SC3AC5 SLP089

CYXE;2010-05-31 11:00;CYXE 311100Z 26008KT 15SM -RA BKN017 OVC066 05/05 A2974 RMK SC5AC3 SLP089

CYXE;2010-05-31 12:00;CYXE 311200Z 28009KT 15SM -RA OVC013 05/04 A2975 RMK SC8 SLP092

CYXE;2010-05-31 13:00;CYXE 311300Z 29009KT 15SM -RA OVC010 05/05 A2975 RMK SC8 SLP093

CYXE;2010-05-31 13:10;CYXE 311310Z 28010KT 15SM -RA BKN008 OVC029 05/ RMK SC6SC2

CYXE;2010-05-31 13:28;CYXE 311328Z 30008KT 15SM OVC006 05/ RMK SC8

CYXE;2010-05-31 14:00;CYXE 311400Z 29008KT 15SM OVC006 06/06 A2975 RMK SC8 SLP093

CYXE;2010-05-31 15:00;CYXE 311500Z 31009KT 15SM OVC005 06/05 A2977 RMK SC8 SLP099

CYXE;2010-05-31 15:14;CYXE 311514Z 32009KT 8SM -RA OVC005 06/ RMK SC8

CYXE;2010-05-31 16:00;CYXE 311600Z 31010KT 5SM -RA BR OVC005 06/06 A2978 RMK SC8 SLP104

CYXE;2010-05-31 17:00;CYXE 311700Z 30010KT 6SM -RA BR OVC007 06/06 A2980 RMK SC8 SLP110

CYXE;2010-05-31 17:11;CYXE 311711Z 31008KT 4SM -RA BR OVC004 06/ RMK SC8

CYXE;2010-05-31 17:43;CYXE 311743Z 32009KT 4SM -RA BR OVC007 07/ RMK SC8

CYXE;2010-05-31 18:00;CYXE 311800Z 31010KT 5SM -RA BR OVC006 07/07 A2981 RMK SC8 SLP115

CYXE;2010-05-31 19:00;CYXE 311900Z 34010KT 12SM -RA SCT006 OVC013 08/07 A2982 RMK SC4SC4 SLP118

CYXE;2010-05-31 20:00;CYXE 312000Z 35006KT 15SM -RA SCT006 OVC011 09/07 A2983 RMK SC3SC5 SLP120

CYXE;2010-05-31 20:11;CYXE 312011Z 33010KT 15SM SCT011 OVC017 09/ RMK SC3SC5

CYXE;2010-05-31 21:00;CYXE 312100Z 33012G17KT 15SM VCSH BKN017 OVC060 09/06 A2983 RMK SC6SC2 SLP121

CYXE;2010-05-31 22:00;CYXE 312200Z 32007KT 15SM SCT025 OVC100 10/06 A2983 RMK SC3AC4 CU ASOCTD SLP121

CYXE;2010-05-31 23:00;CYXE 312300Z 32007KT 15SM BKN035 OVC100 10/05 A2984 RMK SC5AC2 CU ASOCTD SLP123

CYXE;2010-06-01 01:00;CYXE 010100Z 30005KT 15SM FEW030 BKN035 BKN085 10/05 A2985 RMK SC2SC5AC1 SLP124

CYXE;2010-06-01 02:00;CYXE 010200Z 29006KT 15SM FEW035 SCT090 09/05 A2986 RMK SC2AC1 SLP128

CYXE;2010-06-01 03:00;CYXE 010300Z 29005KT 15SM FEW055 07/05 A2987 RMK SC2 CVCTV CLD EMBD N SLP132

CYXE;2010-06-01 04:00;CYXE 010400Z 31006KT 15SM FEW060 FEW250 06/04 A2988 RMK SC2CI0 SLP138

CYXE;2010-06-01 05:00;CYXE 010500Z 32005KT 15SM FEW060 FEW250 05/04 A2989 RMK SC1CI0 SLP140

CYXE;2010-06-01 06:00;CYXE 010600Z 27006KT 15SM FEW039 FEW250 04/04 A2989 RMK SC1CI0 SLP143

CYXE;2010-06-01 07:00;CYXE 010700Z 29007KT 15SM SCT040 BKN250 03/03 A2990 RMK SC3CI0 SLP144

CYXE;2010-06-01 08:00;CYXE 010800Z 32003KT 15SM FEW040 SCT250 03/03 A2990 RMK SC1CI1 SLP146

CYXE;2010-06-01 09:00;CYXE 010900Z 29004KT 15SM FEW250 02/02 A2991 RMK CI0 SLP149

CYXE;2010-06-01 10:00;CYXE 011000Z 32007KT 15SM FEW250 02/02 A2992 RMK CI0 SLP150

CYXE;2010-06-01 11:00;CYXE 011100Z 33007KT 15SM FEW250 01/01 A2992 RMK CI0 SLP151

CYXE;2010-06-01 12:00;CYXE 011200Z 30002KT 15SM FEW250 02/02 A2993 RMK CI1 SLP156

CYXE;2010-06-01 13:00;CYXE 011300Z 33002KT 15SM FEW280 05/05 A2994 RMK CI0 SLP157

CYXE;2010-06-01 14:00;CYXE 011400Z 26005KT 15SM FEW280 08/07 A2995 RMK CI0 SLP160

CYXE;2010-06-01 15:00;CYXE 011500Z 28002KT 15SM FEW015 FEW300 10/06 A2995 RMK CU1CI0 SLP159

CYXE;2010-06-01 16:00;CYXE 011600Z 24003KT 15SM FEW025 FEW300 12/06 A2994 RMK CU2CI0 SLP157

CYXE;2010-06-01 17:00;CYXE 011700Z 23002KT 15SM FEW025 SCT300 11/05 A2994 RMK CU2CI0 SLP156

CYXE;2010-06-01 18:00;CYXE 011800Z 15003KT 15SM FEW035 FEW300 14/05 A2993 RMK CU2CI0 SLP153

CYXE;2010-06-01 19:00;CYXE 011900Z 06004KT 15SM FEW030 FEW300 14/07 A2992 RMK CU2CI0 SLP149

CYXE;2010-06-01 20:00;CYXE 012000Z 32003KT 15SM FEW046 SCT300 16/07 A2991 RMK CU2CI0 SLP146

CYXE;2010-06-01 21:00;CYXE 012100Z 00000KT 15SM FEW048 BKN300 17/06 A2991 RMK CU2CI0 SLP142

CYXE;2010-06-01 22:00;CYXE 012200Z 23003KT 15SM FEW040 BKN300 17/06 A2989 RMK CU2CI0 SLP137

CYXE;2010-06-01 23:00;CYXE 012300Z 22006KT 15SM FEW055 SCT300 17/06 A2988 RMK CU2CI0 SLP133

CYXE;2010-06-02 00:00;CYXE 020000Z 19002KT 15SM FEW057 BKN300 17/05 A2987 RMK CU2CI2 SLP128

CYXE;2010-06-02 01:00;CYXE 020100Z 27002KT 15SM FEW057 BKN300 17/06 A2985 RMK CU1CI2 SLP124

CYXE;2010-06-02 02:00;CYXE 020200Z 25007KT 15SM FEW055 BKN300 16/06 A2985 RMK CU1CI3 SLP123

CYXE;2010-06-02 03:00;CYXE 020300Z 24005KT 15SM FEW050 BKN300 14/08 A2985 RMK SC1CI2 SLP119

CYXE;2010-06-02 04:00;CYXE 020400Z 24003KT 15SM BKN300 12/07 A2985 RMK CI2 SLP120

CYXE;2010-06-02 05:00;CYXE 020500Z 19004KT 15SM BKN270 10/07 A2985 RMK CI2 SLP119

CYXE;2010-06-02 06:00;CYXE 020600Z 20003KT 15SM FEW270 10/06 A2985 RMK CI1 SLP119

CYXE;2010-06-02 07:00;CYXE 020700Z 21004KT 15SM SKC 09/05 A2984 RMK SLP118

CYXE;2010-06-02 08:00;CYXE 020800Z 23003KT 15SM SKC 08/05 A2984 RMK SLP118

CYXE;2010-06-02 09:00;CYXE 020900Z 21004KT 15SM FEW300 07/05 A2984 RMK CI2 SLP118

CYXE;2010-06-02 10:00;CYXE 021000Z 21005KT 15SM FEW300 06/04 A2983 RMK CI2 SLP115

CYXE;2010-06-02 11:00;CYXE 021100Z 00000KT 15SM FEW300 04/04 A2983 RMK CI1 SLP114

CYXE;2010-06-02 12:00;CYXE 021200Z 17002KT 15SM FEW120 FEW300 05/05 A2984 RMK AC1CI1 SLP117

CYXE;2010-06-02 13:00;CYXE 021300Z 20003KT 15SM FEW120 FEW300 09/07 A2984 RMK AC1CI0 SLP118

CYXE;2010-06-02 14:00;CYXE 021400Z 00000KT 15SM FEW080 FEW300 13/08 A2983 RMK AC1CI0 SLP116

CYXE;2010-06-02 15:00;CYXE 021500Z 15005KT 15SM FEW080 FEW300 15/06 A2983 RMK AC1CI0 SLP111

CYXE;2010-06-02 16:00;CYXE 021600Z 17003KT 15SM FEW040 FEW080 FEW300 17/06 A2982 RMK CU1AC1CI0 SLP107

CYXE;2010-06-02 17:00;CYXE 021700Z 13003KT 15SM FEW050 FEW110 FEW300 17/04 A2980 RMK CU1AC1CI0 SLP102

CYXE;2010-06-02 18:00;CYXE 021800Z 23006KT 15SM SCT058 BKN110 18/05 A2979 RMK CU3AC2 SLP096

CYXE;2010-06-02 19:00;CYXE 021900Z 19005KT 15SM SCT052 SCT110 19/06 A2977 RMK CU4AC1 SLP089

CYXE;2010-06-02 20:00;CYXE 022000Z 21005KT 15SM BKN055 20/07 A2975 RMK CU6 SLP083

CYXE;2010-06-02 21:00;CYXE 022100Z 16003KT 15SM BKN065 20/07 A2974 RMK CU6 SLP080

CYXE;2010-06-02 22:00;CYXE 022200Z 21007KT 15SM BKN065 BKN100 BKN300 20/08 A2972 RMK CU5AC1CI1 SLP073

CYXE;2010-06-02 23:00;CYXE 022300Z 17007KT 15SM SCT064 BKN300 20/07 A2969 RMK CU3CI2 SLP065

CYXE;2010-06-03 00:00;CYXE 030000Z 14006KT 15SM FEW065 FEW300 21/07 A2967 RMK CU2CI1 SLP057

CYXE;2010-06-03 01:00;CYXE 030100Z 18007KT 15SM SCT072 BKN160 20/08 A2965 RMK CU3AC1 SLP051

CYXE;2010-06-03 02:00;CYXE 030200Z 14006KT 15SM FEW076 BKN160 BKN300 18/07 A2964 RMK CU2AC2CI0 SLP046

CYXE;2010-06-03 03:00;CYXE 030300Z 13006KT 15SM FEW050 BKN160 BKN300 16/08 A2962 RMK SC2AC2CI0 SLP038

CYXE;2010-06-03 04:00;CYXE 030400Z 14012KT 15SM BKN086 BKN160 17/07 A2963 RMK AC4AC2 SLP039

CYXE;2010-06-03 05:00;CYXE 030500Z 14010KT 15SM BKN086 17/07 A2962 RMK AC6 SLP037

CYXE;2010-06-03 06:00;CYXE 030600Z 14010KT 15SM SCT088 16/07 A2960 RMK AC4 SLP027

CYXE;2010-06-03 07:00;CYXE 030700Z 13009KT 15SM FEW099 BKN280 14/09 A2957 RMK AC2CI2 SLP020

CYXE;2010-06-03 08:00;CYXE 030800Z 13008KT 15SM BKN081 OVC300 14/09 A2956 RMK AC6CI2 SLP014

CYXE;2010-06-03 09:00;CYXE 030900Z 14008KT 15SM BKN088 OVC300 14/10 A2954 RMK AC5CI3 SLP010

CYXE;2010-06-03 10:00;CYXE 031000Z 13006KT 15SM BKN079 OVC300 13/10 A2952 RMK AC6CI2 SLP003

CYXE;2010-06-03 10:40;CYXE 031040Z 00000KT 15SM -DZ BKN060 OVC300 12/ RMK SC6CI2

CYXE;2010-06-03 11:00;CYXE 031100Z 00000KT 15SM -DZ BKN060 OVC300 12/11 A2952 RMK SC6CI2 SLP003

CYXE;2010-06-03 11:04;CYXE 031104Z 00000KT 15SM -RA BKN060 OVC300 12/ RMK SC6CI2

CYXE;2010-06-03 12:00;CYXE 031200Z 10006KT 10SM -RA BKN023 OVC096 12/12 A2952 RMK SC6AC2 SLP001

CYXE;2010-06-03 13:00;CYXE 031300Z 13009KT 10SM -RA BKN026 OVC084 13/12 A2951 RMK SC6AC2 SLP997

CYXE;2010-06-03 14:00;CYXE 031400Z 13012KT 15SM -RA SCT020 BKN056 OVC072 14/13 A2950 RMK SC4SC2AC2 SLP995

CYXE;2010-06-03 15:00;CYXE 031500Z 15011KT 6SM -SHRA BR FEW011 BKN027 OVC086 14/13 A2949 RMK SF2SC3AC2 SLP994

CYXE;2010-06-03 15:09;CYXE 031509Z 15006KT 6SM -SHRA BKN010 BKN027 OVC086 14/ RMK SF5SC2AC2

CYXE;2010-06-03 15:16;CYXE 031516Z 14006KT 6SM -SHRA BR BKN009 BKN016 OVC086 14/ RMK SF3SC2AC2

CYXE;2010-06-03 15:37;CYXE 031537Z 15006KT 8SM -SHRA FEW009 SCT014 OVC050 14/ RMK SF1SC3SC4

CYXE;2010-06-03 16:00;CYXE 031600Z 17006KT 6SM -SHRA BR SCT011 BKN037 OVC050 14/14 A2948 RMK SF3SC2SC2 SLP991

CYXE;2010-06-03 16:24;CYXE 031624Z 16007KT 4SM -RA BR BKN007 OVC048 14/ RMK SF6SC2

CYXE;2010-06-03 17:00;CYXE 031700Z 17009KT 4SM -RA BR BKN007 OVC045 14/14 A2948 RMK SF6SC2 SLP991

CYXE;2010-06-03 17:47;CYXE 031747Z 16006KT 4SM -RA BR OVC014 14/ RMK SF8

CYXE;2010-06-03 17:53;CYXE 031753Z 16006KT 4SM -RA BR BKN008 OVC039 14/ RMK SF7SC1

CYXE;2010-06-03 18:00;CYXE 031800Z 16007KT 4SM -RA BR BKN007 OVC039 14/14 A2948 RMK SF6SC2 SLP991

CYXE;2010-06-03 19:00;CYXE 031900Z 15009KT 4SM -RA BR BKN007 OVC053 14/14 A2947 RERA RMK SF6SC2 SLP988

CYXE;2010-06-03 20:00;CYXE 032000Z 17008KT 4SM -RA BR BKN009 OVC050 14/14 A2947 RMK SF6SC2 SLP985

CYXE;2010-06-03 20:46;CYXE 032046Z 16010KT 15SM BKN009 BKN028 OVC075 15/ RMK SF3SC2AC2

CYXE;2010-06-03 21:00;CYXE 032100Z 15009KT 15SM SCT012 BKN046 BKN075 15/15 A2944 RMK SF3SC2AC2 SLP978

CYXE;2010-06-03 22:00;CYXE 032200Z 12008KT 15SM SCT030 SCT075 BKN290 17/14 A2941 RMK SC3AC1CI2 SLP968

CYXE;2010-06-03 23:00;CYXE 032300Z 12011KT 15SM FEW015TCU BKN070 BKN290 17/14 A2940 RMK TCU2AC3CI2 CB DSNT S-W SLP963

CYXE;2010-06-04 00:00;CYXE 040000Z 12013KT 15SM FEW030CB BKN100 BKN290 18/14 A2938 RMK CB2AC2CI2 CB S-W MOVG E SLP957

CYXE;2010-06-04 00:22;CYXE 040022Z 12012G17KT 15SM TS VCSH SCT030CB BKN090 17/ RMK CB4AC3

CYXE;2010-06-04 00:44;CYXE 040044Z 10004KT 3SM TSRA BKN026CB BKN090 12/ RMK CB6AC1 FQT LTGICCG

CYXE;2010-06-04 01:00;CYXE 040100Z 02008KT 6SM -TSRA FEW010 BKN026CB BKN090 11/09 A2939 RERA RMK SF2CB3AC2 LTGICCG W-SE CB MOVG E SLP959

CYXE;2010-06-04 01:36;CYXE 040136Z 04010KT 12SM -SHRA BKN020 BKN030CB 12/ RETS RMK SC5CB2 LTNG DIST NE-SE

CYXE;2010-06-04 01:48;CYXE 040148Z 13007KT 15SM -TSRA SCT020 BKN032CB 12/ RMK SC3CB4 OCNL LTNG S-W

CYXE;2010-06-04 02:00;CYXE 040200Z 09007KT 15SM -TSRA FEW020 BKN037CB 13/11 A2940 RMK SC2CB5 OCNL LTNG S-W SLP961

CYXE;2010-06-04 03:00;CYXE 040300Z 11010KT 15SM -SHRA BKN022 BKN037CB 12/11 A2941 RETS RMK SC5CB2 SLP967

CYXE;2010-06-04 04:00;CYXE 040400Z 13011KT 15SM -SHRA SCT020 BKN040 OVC090 11/10 A2941 RMK SC3SC2AC2 CB ASOCTD SLP967

CYXE;2010-06-04 04:30;CYXE 040430Z 15008KT 15SM VCSH FEW020 SCT045 OVC090 12/ RMK SC2SC2AC4

CYXE;2010-06-04 05:00;CYXE 040500Z 14007KT 15SM SCT045 BKN090 11/10 A2940 RMK SC3AC4 SLP964

CYXE;2010-06-04 06:00;CYXE 040600Z 15006KT 15SM SCT062 10/10 A2939 RMK SC4 SLP962

CYXE;2010-06-04 07:00;CYXE 040700Z 18007KT 15SM SCT070 10/10 A2939 RMK AC4 SLP963

CYXE;2010-06-04 08:00;CYXE 040800Z 28007KT 15SM BKN055 11/11 A2941 RMK SC5 SLP969

CYXE;2010-06-04 09:00;CYXE 040900Z 30005KT 15SM BKN073 09/09 A2942 RMK AC5 SLP973

CYXE;2010-06-04 10:00;CYXE 041000Z 30005KT 15SM FEW009 BKN100 10/10 A2945 RMK SC2AC3 SLP982

CYXE;2010-06-04 10:32;CYXE 041032Z 29006KT 15SM BKN009 10/ RMK SC5

CYXE;2010-06-04 11:00;CYXE 041100Z 31006KT 15SM BKN007 10/10 A2946 RMK SC6 SLP985

CYXE;2010-06-04 11:11;CYXE 041111Z 32005KT 15SM BKN008 11/ RMK SC6

CYXE;2010-06-04 11:34;CYXE 041134Z 31005KT 15SM BKN011 10/ RMK SC6

CYXE;2010-06-04 12:00;CYXE 041200Z 32005KT 15SM BKN010 11/10 A2947 RMK SC6 SLP989

CYXE;2010-06-04 13:00;CYXE 041300Z 30006KT 15SM VCSH SCT006 BKN012 11/11 A2949 RMK SC3SC4 SLP994

CYXE;2010-06-04 13:06;CYXE 041306Z 31006KT 8SM -RA BKN004 BKN012 11/ RMK SC6SC2

CYXE;2010-06-04 13:18;CYXE 041318Z 31007KT 3SM -DZ BR BKN003 OVC018 11/ RMK SF6SC2 VIS N-E 6

CYXE;2010-06-04 13:25;CYXE 041325Z 31008KT 1 1/2SM -DZ BR OVC003 11/ RMK SF8

CYXE;2010-06-04 13:30;CYXE 041330Z 30008KT 1 1/2SM -DZ BR OVC002 11/ RMK SF8

CYXE;2010-06-04 13:42;CYXE 041342Z 31011G17KT 3SM -DZ BR SCT002 OVC006 11/ RMK SF3SF5 VIS N 11/2

CYXE;2010-06-04 14:00;CYXE 041400Z 30016KT 6SM -DZ BR OVC008 11/10 A2950 RMK SF8 SLP997

CYXE;2010-06-04 14:39;CYXE 041439Z 31014KT 15SM OVC011 12/ RMK SC8

CYXE;2010-06-04 15:00;CYXE 041500Z 30012KT 15SM OVC011 12/11 A2952 RMK SC8 SLP006

CYXE;2010-06-04 16:00;CYXE 041600Z 30009KT 15SM OVC013 12/10 A2954 RMK SC8 SLP012

CYXE;2010-06-04 17:00;CYXE 041700Z 29006KT 15SM OVC015 12/10 A2955 RMK SC8 SLP017

CYXE;2010-06-04 18:00;CYXE 041800Z 26010KT 15SM OVC015 12/10 A2957 RMK SC8 SLP024

CYXE;2010-06-04 19:00;CYXE 041900Z 29011KT 15SM BKN013 BKN090 12/10 A2958 RMK SC7AC1 SLP028

CYXE;2010-06-04 19:24;CYXE 041924Z 32011G16KT 15SM SCT015 BKN040 BKN095 14/ RMK SC3SC3AC1

CYXE;2010-06-04 20:00;CYXE 042000Z 30009G16KT 15SM FEW016 BKN028 BKN040 13/11 A2959 RMK SC2SC2SC2 SLP030

CYXE;2010-06-04 21:00;CYXE 042100Z 33012KT 15SM FEW042 BKN053 BKN069 15/12 A2959 RMK SC2SC2AC2 SLP030

CYXE;2010-06-04 22:00;CYXE 042200Z 32010KT 15SM FEW020 SCT290 16/12 A2959 RMK CU2CI0 SLP031

CYXE;2010-06-04 23:00;CYXE 042300Z 33009G15KT 15SM SCT020 BKN290 16/11 A2960 RMK CU3CI1 SLP034

CYXE;2010-06-05 00:00;CYXE 050000Z 35005KT 15SM FEW024 SCT038 BKN290 17/11 A2961 RMK CU2SC2CI0 SLP034

CYXE;2010-06-05 01:00;CYXE 050100Z 35005KT 15SM FEW020 SCT040 BKN290 16/12 A2961 RMK CU2SC2CI1 SLP037

CYXE;2010-06-05 02:00;CYXE 050200Z 03006KT 15SM FEW020 SCT085 BKN290 15/11 A2962 RMK SC1AC3CI2 SLP040

CYXE;2010-06-05 03:00;CYXE 050300Z 05004KT 15SM SCT090 BKN290 13/11 A2964 RMK AC4CI2 SLP048

CYXE;2010-06-05 04:00;CYXE 050400Z 11003KT 15SM SCT090 BKN290 12/10 A2966 RMK AC4CI2 SLP053

CYXE;2010-06-05 05:00;CYXE 050500Z 16002KT 15SM SCT090 BKN290 11/10 A2966 RMK AC3CI2 SLP054

CYXE;2010-06-05 06:00;CYXE 050600Z 24004KT 15SM FEW090 SCT290 10/10 A2967 RMK AC1CI1 SLP060

CYXE;2010-06-05 07:00;CYXE 050700Z 24005KT 15SM OVC290 10/10 A2968 RMK CI2 SLP063

CYXE;2010-06-05 07:50;CYXE 050750Z 25005KT 15SM FEW008 OVC270 10/ RMK SF1CI2

CYXE;2010-06-05 08:00;CYXE 050800Z 25005KT 15SM FEW008 OVC270 10/10 A2968 RMK SF1CI5 SLP062

CYXE;2010-06-05 09:00;CYXE 050900Z 24003KT 15SM FEW008 OVC120 10/10 A2969 RMK SF1AC6 SLP063

CYXE;2010-06-05 10:00;CYXE 051000Z 00000KT 15SM R09/3000VP6000FT/U MIFG SCT120 OVC250 09/09 A2969 RMK AC3CI3 SLP065

CYXE;2010-06-05 11:00;CYXE 051100Z 21003KT 15SM BCFG BKN120 OVC250 09/09 A2970 RMK AC3CI2 SLP069

CYXE;2010-06-05 12:00;CYXE 051200Z 00000KT 15SM MIFG SCT120 BKN250 09/09 A2972 RMK AC2CI2 SLP073

CYXE;2010-06-05 13:00;CYXE 051300Z 17003KT 15SM FEW120 BKN280 11/11 A2973 RMK AC2CI2 SLP077

CYXE;2010-06-05 14:00;CYXE 051400Z 23004KT 15SM FEW089 SCT300 14/12 A2974 RMK AC2CI1 SLP080

CYXE;2010-06-05 15:00;CYXE 051500Z 00000KT 15SM FEW093 SCT300 15/11 A2975 RMK AC2CI1 SLP085

CYXE;2010-06-05 16:00;CYXE 051600Z 21003KT 15SM FEW077 BKN300 18/11 A2976 RMK AC2CI2 SLP087

CYXE;2010-06-05 17:00;CYXE 051700Z 29006KT 15SM FEW028 FEW079 BKN300 20/11 A2976 RMK CU1AC1CI1 SLP088

CYXE;2010-06-05 18:00;CYXE 051800Z 31007KT 15SM FEW034TCU BKN300 20/11 A2977 RMK TCU2CI1 SLP090

CYXE;2010-06-05 19:00;CYXE 051900Z 29007KT 15SM FEW042TCU SCT300 21/10 A2978 RMK TCU2CI1 SH N SLP091

CYXE;2010-06-05 20:00;CYXE 052000Z 01011KT 15SM BKN040 BKN300 18/09 A2979 RMK CU5CI1 TCU ASOCTD SLP096

CYXE;2010-06-05 21:00;CYXE 052100Z 34003KT 15SM SCT040 BKN093 BKN300 20/08 A2979 RMK CU3AC2CI0 TCU EMBD SLP097

CYXE;2010-06-05 21:38;CYXE 052138Z 29022G29KT 15SM VCSH BKN040 BKN090 16/ RMK SC5AC2 CB EMBD VIRGA

CYXE;2010-06-05 22:00;CYXE 052200Z 28015KT 15SM VCSH BKN040 BKN080 14/10 A2986 RMK SC5AC2 CB ASOCTD VIRGA PRESRR SLP119

CYXE;2010-06-05 22:30;CYXE 052230Z 27006KT 8SM -SHRA OVC037 13/ RMK SC8

CYXE;2010-06-05 23:00;CYXE 052300Z 00000KT 8SM -SHRA OVC030 13/11 A2989 RMK SC8 SLP129

CYXE;2010-06-05 23:40;CYXE 052340Z 09007KT 15SM BKN020 BKN075 15/ RMK SC5AC2

CYXE;2010-06-06 00:00;CYXE 060000Z 07009KT 15SM SCT020 BKN075 BKN290 14/12 A2986 RMK SC4AC2CI0 SLP125

CYXE;2010-06-06 01:00;CYXE 060100Z 21003KT 15SM FEW020 BKN075 15/11 A2987 RMK SC2AC5 SLP126

CYXE;2010-06-06 02:00;CYXE 060200Z 23006KT 15SM FEW020 BKN075 16/10 A2987 RMK SC2AC4 SLP129

CYXE;2010-06-06 03:00;CYXE 060300Z 22008KT 15SM SCT075 BKN290 14/12 A2989 RMK AC4CI0 SLP130

CYXE;2010-06-06 04:00;CYXE 060400Z 25005KT 15SM SCT070 BKN290 12/10 A2990 RMK AC3CI0 SLP134

CYXE;2010-06-06 05:00;CYXE 060500Z 26007KT 15SM SCT075 BKN290 12/10 A2992 RMK AC3CI0 SLP139

CYXE;2010-06-06 06:00;CYXE 060600Z 27006KT 15SM FEW081 FEW290 11/09 A2991 RMK AC2CI1 SLP137

CYXE;2010-06-06 07:00;CYXE 060700Z 34002KT 15SM FEW049 FEW110 09/08 A2992 RMK SC1AC1 SLP141

CYXE;2010-06-06 08:00;CYXE 060800Z 28008KT 15SM FEW084 10/09 A2993 RMK AC2 SLP144

CYXE;2010-06-06 09:00;CYXE 060900Z 27005KT 15SM FEW084 08/08 A2995 RMK AC2 SLP150

CYXE;2010-06-06 10:00;CYXE 061000Z 26006KT 15SM SCT055 09/08 A2996 RMK SC4 SLP153

CYXE;2010-06-06 11:00;CYXE 061100Z 26006KT 15SM FEW059 BKN250 08/08 A2996 RMK SC2CI1 SLP155

CYXE;2010-06-06 12:00;CYXE 061200Z 27006KT 15SM FEW083 SCT250 09/08 A2997 RMK AC2CI0 SLP161

CYXE;2010-06-06 13:00;CYXE 061300Z 27004KT 15SM FEW085 12/09 A2997 RMK AC1 SLP163

CYXE;2010-06-06 14:00;CYXE 061400Z 30006KT 15SM FEW085 14/10 A2998 RMK AC1 SLP164

CYXE;2010-06-06 15:00;CYXE 061500Z 29011KT 15SM FEW090 16/10 A2998 RMK AC1 SLP162

CYXE;2010-06-06 16:00;CYXE 061600Z 30010KT 15SM FEW090 18/09 A2999 RMK AC1 SLP163

CYXE;2010-06-06 17:00;CYXE 061700Z 31010KT 15SM FEW035 FEW090 19/11 A2998 RMK CU1AC1 SLP161

CYXE;2010-06-06 18:00;CYXE 061800Z 29010G16KT 15SM SCT040 20/10 A2997 RMK CU3 SLP159

CYXE;2010-06-06 19:00;CYXE 061900Z 32011KT 15SM BKN045 21/11 A2996 RMK CU5 SLP156

CYXE;2010-06-06 20:00;CYXE 062000Z 31008KT 15SM SCT045 20/09 A2995 RMK CU4 TCU EMBD SLP152

CYXE;2010-06-06 21:00;CYXE 062100Z 27007KT 15SM BKN050 21/09 A2994 RMK CU5 TCU EMBD SLP146

CYXE;2010-06-06 22:00;CYXE 062200Z 29009KT 15SM BKN052 22/09 A2993 RMK CU5 SLP144

CYXE;2010-06-06 23:00;CYXE 062300Z 28008G15KT 15SM BKN060 22/07 A2992 RMK CU5 SLP140

CYXE;2010-06-07 00:00;CYXE 070000Z 28009KT 15SM FEW060 SCT290 22/07 A2991 RMK CU2CI0 SLP137

CYXE;2010-06-07 01:00;CYXE 070100Z 32006KT 15SM FEW060 SCT290 20/10 A2991 RMK CU2CI0 SLP135

CYXE;2010-06-07 02:00;CYXE 070200Z 32005KT 15SM FEW050 SCT290 19/10 A2991 RMK SC2CI0 SLP135

CYXE;2010-06-07 03:00;CYXE 070300Z 29004KT 15SM FEW050 FEW290 18/09 A2991 RMK SC1CI0 SLP135

CYXE;2010-06-07 04:00;CYXE 070400Z 25003KT 15SM FEW050 FEW290 15/11 A2992 RMK SC1CI0 SLP139

CYXE;2010-06-07 05:00;CYXE 070500Z 03006KT 15SM FEW050 FEW290 11/08 A2992 RMK SC1CI0 SLP138

CYXE;2010-06-07 06:00;CYXE 070600Z 00000KT 15SM FEW050 13/09 A2991 RMK SC1 SLP136

CYXE;2010-06-07 07:00;CYXE 070700Z 08002KT 15SM SKC 12/08 A2990 RMK SLP132

CYXE;2010-06-07 08:00;CYXE 070800Z 00000KT 15SM SKC 11/09 A2990 RMK SLP131

CYXE;2010-06-07 09:00;CYXE 070900Z 14003KT 15SM FEW050 FEW250 08/08 A2989 RMK SC1CI1 SLP132

CYXE;2010-06-07 10:00;CYXE 071000Z 08003KT 15SM FEW090 SCT250 09/08 A2988 RMK AC1CI1 SLP127

CYXE;2010-06-07 11:00;CYXE 071100Z 17004KT 15SM FEW090 OVC250 10/08 A2987 RMK AC2CI2 SLP126

CYXE;2010-06-07 12:00;CYXE 071200Z 07004KT 15SM FEW110 OVC250 11/10 A2987 RMK AC2CI3 SLP120

CYXE;2010-06-07 13:00;CYXE 071300Z 08005KT 15SM SCT110 OVC250 13/11 A2986 RMK AC3CI3 SLP118

CYXE;2010-06-07 14:00;CYXE 071400Z 17003KT 15SM SCT110 OVC250 15/12 A2987 RMK AC4CI3 SLP121

CYXE;2010-06-07 15:00;CYXE 071500Z 19006KT 15SM BKN110 OVC250 17/11 A2987 RMK AC6CI2 SLP119

CYXE;2010-06-07 16:00;CYXE 071600Z 15006KT 15SM FEW040 BKN110 OVC280 18/10 A2986 RMK SC2AC2CI3 SLP118

CYXE;2010-06-07 17:00;CYXE 071700Z 15009KT 15SM FEW040 SCT070 BKN280 18/09 A2985 RMK SC2AC2CI2 SLP115

CYXE;2010-06-07 18:00;CYXE 071800Z 14009G16KT 15SM FEW035 BKN096 OVC280 18/11 A2986 RMK SC2AC5CI1 SLP118

CYXE;2010-06-07 19:00;CYXE 071900Z 15016G21KT 15SM FEW035 BKN085 OVC280 18/09 A2983 RMK CU1AC6CI1 SLP108

CYXE;2010-06-07 20:00;CYXE 072000Z 16014KT 15SM FEW040 BKN088 OVC280 20/09 A2982 RMK CU1AC6CI1 SLP105

CYXE;2010-06-07 21:00;CYXE 072100Z 15014KT 15SM FEW040 BKN090 OVC280 18/09 A2982 RMK CU1AC5CI2 SLP108

CYXE;2010-06-07 22:00;CYXE 072200Z 14011G17KT 15SM FEW030 BKN092 BKN280 17/10 A2981 RMK CU1AC4CI2 SLP104

CYXE;2010-06-07 23:00;CYXE 072300Z 14008KT 15SM FEW030 BKN092 BKN280 17/12 A2979 RMK CU1AC4CI2 SLP098

CYXE;2010-06-08 00:00;CYXE 080000Z 16007KT 15SM FEW030 SCT090 BKN160 BKN280 17/12 A2977 RMK CU1AC2AC3CI1 SLP091

CYXE;2010-06-08 01:00;CYXE 080100Z 12006KT 15SM SCT090 BKN160 BKN280 17/12 A2976 RMK AC2AC3CI1 SLP086

CYXE;2010-06-08 02:00;CYXE 080200Z 12003KT 15SM SCT050 BKN120 BKN280 16/12 A2978 RMK SC3AC2CI1 SLP093

CYXE;2010-06-08 03:00;CYXE 080300Z 09006KT 15SM SCT050 BKN120 BKN280 14/12 A2978 RMK SC3AC2CI1 SLP092

CYXE;2010-06-08 04:00;CYXE 080400Z 09006KT 15SM SCT050 BKN073 BKN280 13/12 A2978 RMK SC3AC2CI2 SLP091

CYXE;2010-06-08 04:23;CYXE 080423Z 07004KT 15SM FEW050 BKN071 14/ RMK SC2AC5 CB EMBD LTGIC S

CYXE;2010-06-08 05:00;CYXE 080500Z 05005KT 15SM BKN069 14/12 A2977 RMK AC7 CB AND LTGIC DIST S SLP089

CYXE;2010-06-08 06:00;CYXE 080600Z 06003KT 15SM OVC070 14/12 A2976 RMK AC7 SLP086

CYXE;2010-06-08 06:46;CYXE 080646Z 03008KT 15SM BKN016 OVC075 14/ RMK SC6AC2

CYXE;2010-06-08 07:00;CYXE 080700Z 02009KT 15SM BKN016 OVC078 14/13 A2975 RMK SC6AC2 SLP083

CYXE;2010-06-08 07:12;CYXE 080712Z 04009KT 15SM -SHRA FEW008 BKN016 OVC080 13/ RMK SF2SC5AC1

CYXE;2010-06-08 07:21;CYXE 080721Z 05012KT 15SM -SHRA BKN005 OVC080 13/ RMK SF6AC2

CYXE;2010-06-08 07:36;CYXE 080736Z CCA 04010KT 15SM -SHRA FEW005 BKN015 OVC080 13/ RMK SF2SC5AC2

CYXE;2010-06-08 08:00;CYXE 080800Z 05007KT 15SM -SHRA SCT005 BKN035 OVC075 13/13 A2974 RMK SF3SC4AC1 SLP079

CYXE;2010-06-08 08:40;CYXE 080840Z 02007KT 12SM -SHRA BKN003 OVC055 13/ RMK SF6SC2

CYXE;2010-06-08 08:51;CYXE 080851Z 03007KT 12SM SHRA BKN003 OVC040 13/ RMK SF6SC2

CYXE;2010-06-08 09:00;CYXE 080900Z 04006KT 10SM SHRA BKN003 OVC040 13/13 A2974 RMK SF6SC2 SLP079

CYXE;2010-06-08 09:18;CYXE 080918Z 05006KT 15SM -SHRA BKN003 OVC030 13/ RERA RMK SF6SC2

CYXE;2010-06-08 10:00;CYXE 081000Z 09006KT 15SM -SHRA FEW003 BKN010 OVC050 13/13 A2974 RERA RMK SF2SC5SC2 SLP079

CYXE;2010-06-08 10:42;CYXE 081042Z 05008KT 15SM -SHRA BKN006 OVC020 12/ RMK SF6SC2

CYXE;2010-06-08 11:00;CYXE 081100Z 07008KT 15SM -SHRA BKN007 BKN025 OVC080 12/12 A2975 RMK SF5SC2AC1 SLP083

CYXE;2010-06-08 12:00;CYXE 081200Z 05009KT 8SM -SHRA BKN007 OVC020 12/12 A2977 RMK SF5SC3 BR SLP091

CYXE;2010-06-08 12:41;CYXE 081241Z 04007KT 2 1/2SM -SHRA BR BKN006 OVC015 12/ RMK SF6SC2

CYXE;2010-06-08 13:00;CYXE 081300Z 05008KT 2SM -SHRA BR OVC005 12/12 A2978 RMK SF8 SLP094

CYXE;2010-06-08 14:00;CYXE 081400Z 01014KT 4SM -SHRA BR OVC006 12/12 A2979 RMK SF8 SLP098

CYXE;2010-06-08 14:31;CYXE 081431Z 01012G18KT 6SM -SHRA BR BKN008 OVC020 12/ RMK SC6SC2 CU EMBD

CYXE;2010-06-08 15:00;CYXE 081500Z 01015KT 6SM -SHRA BR BKN008 OVC020 12/12 A2981 RMK SC7SC1 CU EMBD SLP105

CYXE;2010-06-08 15:47;CYXE 081547Z 01017KT 8SM -RA OVC010 12/ RMK SC8

CYXE;2010-06-08 16:00;CYXE 081600Z 01013G19KT 8SM -RA OVC010 12/12 A2982 RMK SC8 SLP109

CYXE;2010-06-08 16:44;CYXE 081644Z 36015KT 12SM OVC009 12/ RMK SC8

CYXE;2010-06-08 17:00;CYXE 081700Z 36014G20KT 12SM OVC010 12/11 A2983 RMK SC8 SLP113

CYXE;2010-06-08 18:00;CYXE 081800Z 36014G20KT 15SM OVC012 12/11 A2985 RMK SC8 SLP120

CYXE;2010-06-08 19:00;CYXE 081900Z 36014KT 15SM OVC012 13/11 A2986 RMK SC8 SLP123

CYXE;2010-06-08 20:00;CYXE 082000Z 36015KT 15SM OVC014 13/11 A2988 RMK SC8 SLP128

CYXE;2010-06-08 20:31;CYXE 082031Z 36013G19KT 15SM -RA OVC016 12/ RMK SC8

CYXE;2010-06-08 21:00;CYXE 082100Z 36014KT 15SM -RA BKN016 OVC020 13/11 A2989 RMK SC6SC2 SLP134

CYXE;2010-06-08 22:00;CYXE 082200Z 34010KT 15SM -SHRA BKN031 OVC069 12/11 A2992 RMK SC6AC2 SLP141

CYXE;2010-06-08 23:00;CYXE 082300Z 36011KT 15SM -SHRA BKN029 OVC075 14/11 A2992 RMK SC5AC3 SLP144

CYXE;2010-06-08 23:26;CYXE 082326Z 01012KT 15SM VCSH SCT033 BKN084 OVC250 15/ RMK SC3AC2CI1

CYXE;2010-06-09 00:00;CYXE 090000Z 36011KT 15SM FEW068 BKN084 OVC250 14/10 A2993 RMK AC2AC3CI2 SLP145

CYXE;2010-06-09 01:00;CYXE 090100Z 02006KT 15SM FEW035 SCT075 BKN120 14/10 A2993 RMK SC2AC2AC2 SLP146

CYXE;2010-06-09 02:00;CYXE 090200Z 03010KT 15SM SCT030 BKN075 BKN120 14/09 A2995 RMK SC3AC2AC1 SLP151

CYXE;2010-06-09 03:00;CYXE 090300Z 02009KT 15SM BKN030 BKN065 12/09 A2997 RMK SC6AC1 SLP162

CYXE;2010-06-09 04:00;CYXE 090400Z 03008KT 15SM BKN031 BKN053 11/07 A3000 RMK SC5SC2 SLP171

CYXE;2010-06-09 05:00;CYXE 090500Z 05006KT 15SM BKN037 09/07 A3001 RMK SC6 SLP174

CYXE;2010-06-09 06:00;CYXE 090600Z 03004KT 15SM SCT035 08/06 A3002 RMK SC4 SLP180

CYXE;2010-06-09 07:00;CYXE 090700Z 05005KT 15SM FEW050 06/05 A3001 RMK SC1 SLP176

CYXE;2010-06-09 08:00;CYXE 090800Z 36003KT 15SM FEW050 05/05 A3000 RMK SC1 SLP175

CYXE;2010-06-09 09:00;CYXE 090900Z 33004KT 15SM SCT110 05/05 A3001 RMK AC2 SLP178

CYXE;2010-06-09 10:00;CYXE 091000Z 36004KT 15SM BKN045 BKN110 07/07 A3001 RMK SC6AC1 SLP178

CYXE;2010-06-09 11:00;CYXE 091100Z 00000KT 15SM BKN045 BKN100 07/07 A3001 RMK SC6AC1 SLP180

CYXE;2010-06-09 12:00;CYXE 091200Z 05002KT 15SM BKN050 08/07 A3001 RMK SC7 SLP178

CYXE;2010-06-09 13:00;CYXE 091300Z 05004KT 15SM BKN050 09/08 A3000 RMK SC6 SLP174

CYXE;2010-06-09 14:00;CYXE 091400Z 06004KT 15SM FEW055 BKN110 BKN280 10/07 A3001 RMK SC2AC3CI0 SLP175

CYXE;2010-06-09 15:00;CYXE 091500Z 07004KT 15SM FEW020 BKN057 11/06 A3001 RMK SC2SC3 SLP175

CYXE;2010-06-09 16:00;CYXE 091600Z 13003KT 15SM SCT020 BKN057 BKN280 12/06 A3000 RMK SC4SC2CI0 SLP173

CYXE;2010-06-09 17:00;CYXE 091700Z 04004KT 15SM SCT027 BKN057 BKN280 12/07 A3000 RMK SC4SC2CI0 SLP171

CYXE;2010-06-09 18:00;CYXE 091800Z 08005KT 15SM BKN030 BKN300 14/07 A2998 RMK SC5CI1 SLP165

CYXE;2010-06-09 19:00;CYXE 091900Z 04005KT 15SM SCT035 BKN300 14/07 A2996 RMK SC4CI2 SLP160

CYXE;2010-06-09 20:00;CYXE 092000Z 07008KT 15SM BKN039 BKN300 14/07 A2994 RMK SC6CI1 SLP153

CYXE;2010-06-09 21:00;CYXE 092100Z 08008KT 15SM BKN039 OVC300 14/06 A2993 RMK SC6CI2 SLP152

CYXE;2010-06-09 22:00;CYXE 092200Z 07010KT 15SM BKN040 OVC300 14/07 A2992 RMK SC6CI2 SLP147

CYXE;2010-06-09 23:00;CYXE 092300Z 09008KT 15SM BKN039 OVC300 14/06 A2991 RMK SC6CI2 SLP144

CYXE;2010-06-10 00:00;CYXE 100000Z 08010KT 15SM BKN041 OVC120 13/06 A2991 RMK SC5AC3 SLP141

CYXE;2010-06-10 01:00;CYXE 100100Z 08011KT 15SM FEW041 OVC100 12/06 A2989 RMK SC2AC6 SLP137

CYXE;2010-06-10 02:00;CYXE 100200Z 08012KT 15SM SCT055 OVC100 12/06 A2989 RMK SC3AC4 SLP135

CYXE;2010-06-10 03:00;CYXE 100300Z 08011KT 15SM BKN052 OVC091 11/06 A2988 RMK SC5AC3 SLP132

CYXE;2010-06-10 04:00;CYXE 100400Z 09010G15KT 15SM SCT052 BKN100 11/06 A2989 RMK SC3AC4 SLP134

CYXE;2010-06-10 05:00;CYXE 100500Z 08012KT 15SM BKN042 10/06 A2988 RMK SC7 SLP131

CYXE;2010-06-10 06:00;CYXE 100600Z 07009KT 15SM BKN042 OVC090 10/07 A2986 RMK SC6AC2 SLP124

CYXE;2010-06-10 07:00;CYXE 100700Z 09011KT 15SM OVC037 10/07 A2985 RMK SC8 SLP121

CYXE;2010-06-10 07:36;CYXE 100736Z 08009KT 10SM -RA OVC033 09/ RMK SC8

CYXE;2010-06-10 08:00;CYXE 100800Z 07013KT 10SM -RA OVC030 09/08 A2983 RMK SC8 SLP114

CYXE;2010-06-10 09:00;CYXE 100900Z 06014KT 10SM -RA OVC024 08/08 A2981 RMK SC8 SLP108

CYXE;2010-06-10 10:00;CYXE 101000Z 06012KT 15SM -RA SCT012 OVC024 09/09 A2980 RMK SC3SC5 SLP105

CYXE;2010-06-10 10:25;CYXE 101025Z 06013KT 6SM -RA BR OVC008 09/ RMK SC8

CYXE;2010-06-10 10:46;CYXE 101046Z 05012KT 15SM BKN006 OVC009 09/ RMK SF6SC2

CYXE;2010-06-10 11:00;CYXE 101100Z 05014KT 15SM BKN006 OVC009 09/09 A2978 RMK SF6SC2 VIS S-W 6BR SLP098

CYXE;2010-06-10 11:06;CYXE 101106Z 05014KT 6SM BR OVC007 09/ RMK SF8

CYXE;2010-06-10 11:22;CYXE 101122Z 06013KT 6SM BR OVC005 09/ RMK SF8

CYXE;2010-06-10 11:33;CYXE 101133Z 07014KT 6SM BR BKN003 OVC009 09/ RMK SF6SC2

CYXE;2010-06-10 12:00;CYXE 101200Z 07012KT 4SM -RA BR BKN003 OVC005 09/09 A2978 RMK SF6SF2 SLP096

CYXE;2010-06-10 12:46;CYXE 101246Z 07014KT 4SM -RA BR SCT003 OVC006 09/ RMK SF3SF5

CYXE;2010-06-10 13:00;CYXE 101300Z 07013G18KT 4SM -RA BR FEW003 OVC005 09/09 A2978 RMK SF2SF6 SLP097

CYXE;2010-06-10 14:00;CYXE 101400Z 07013KT 3SM -RA BR OVC004 09/09 A2978 RMK ST8 SLP096

CYXE;2010-06-10 15:00;CYXE 101500Z 07014KT 5SM -RA BR OVC005 09/09 A2977 RMK ST8 CIG RAG SLP095

CYXE;2010-06-10 15:44;CYXE 101544Z 08017KT 15SM OVC007 10/ RMK ST8

CYXE;2010-06-10 16:00;CYXE 101600Z 08016G21KT 15SM OVC009 10/10 A2977 RMK ST8 SLP094

CYXE;2010-06-10 16:28;CYXE 101628Z 08015G21KT 10SM -DZ OVC009 10/ RMK ST8

CYXE;2010-06-10 17:00;CYXE 101700Z 08015KT 2SM -DZ BR OVC008 10/10 A2978 RMK ST8 SLP099

CYXE;2010-06-10 18:00;CYXE 101800Z 08016G22KT 2 1/2SM -DZ BR OVC007 10/10 A2979 RMK ST8 SLP101

CYXE;2010-06-10 19:00;CYXE 101900Z 09017G24KT 2 1/2SM -DZ BR OVC008 10/10 A2981 RMK ST8 SLP107

CYXE;2010-06-10 19:29;CYXE 101929Z 09016KT 2SM -DZ BR OVC006 10/ RMK ST8

CYXE;2010-06-10 20:00;CYXE 102000Z 09019KT 2SM -DZ BR OVC006 10/10 A2982 RMK ST8 SLP111

CYXE;2010-06-10 21:00;CYXE 102100Z 08017G22KT 2SM -DZ BR OVC006 10/10 A2983 RMK ST8 SLP118

CYXE;2010-06-10 22:00;CYXE 102200Z 09016KT 2SM -DZ BR OVC007 10/10 A2985 RMK ST8 VIS VRB 1-3 SLP123

CYXE;2010-06-10 23:00;CYXE 102300Z 09016KT 2SM -DZ BR OVC007 10/10 A2986 RMK ST8 VIS VRB 1-3 SLP126

CYXE;2010-06-10 23:41;CYXE 102341Z 08013KT 8SM -DZ BKN006 OVC030 10/ RMK SF6SC2

CYXE;2010-06-11 00:00;CYXE 110000Z 08016G21KT 3SM -DZ BR OVC007 10/10 A2987 RMK ST8 SLP129

CYXE;2010-06-11 01:00;CYXE 110100Z 07016G21KT 3SM -DZ BR OVC006 09/09 A2987 RMK ST8 SLP131

CYXE;2010-06-11 02:00;CYXE 110200Z 06016G22KT 2SM -DZ BR OVC006 09/09 A2991 RMK ST8 VIS VRB 1-3 SLP141

CYXE;2010-06-11 03:00;CYXE 110300Z 06016G21KT 2SM -DZ BR OVC005 08/08 A2993 RMK ST8 VIS VRB 1-3 SLP150

CYXE;2010-06-11 04:00;CYXE 110400Z 06014KT 3SM -DZ BR OVC006 08/08 A2995 RMK ST8 SLP156

CYXE;2010-06-11 04:42;CYXE 110442Z 06012KT 15SM OVC006 08/ RMK ST8

CYXE;2010-06-11 05:00;CYXE 110500Z 06013KT 15SM OVC007 08/08 A2996 RMK ST8 SLP161

CYXE;2010-06-11 06:00;CYXE 110600Z 06011KT 15SM OVC007 08/08 A2996 RMK ST8 SLP163

CYXE;2010-06-11 07:00;CYXE 110700Z 06014KT 15SM OVC008 08/08 A2997 RMK ST8 SLP164

CYXE;2010-06-11 07:19;CYXE 110719Z 05012KT 6SM -DZ BR OVC008 08/ RMK ST8

CYXE;2010-06-11 08:00;CYXE 110800Z 05011KT 10SM -DZ OVC009 08/08 A2997 RMK ST8 SLP165

CYXE;2010-06-11 09:00;CYXE 110900Z 05012KT 15SM OVC011 08/07 A2997 RMK SC8 SLP166

CYXE;2010-06-11 10:00;CYXE 111000Z 04012KT 10SM SCT006 OVC009 07/07 A2999 RMK SF3SC5 BR SLP172

CYXE;2010-06-11 10:29;CYXE 111029Z 04013KT 6SM BR OVC004 07/ RMK ST8

CYXE;2010-06-11 10:47;CYXE 111047Z 04011KT 2 1/2SM BR OVC003 07/ RMK SF8

CYXE;2010-06-11 11:00;CYXE 111100Z 05013KT 2 1/2SM BR SCT003 OVC005 07/07 A3001 RMK SF3ST5 SLP177

CYXE;2010-06-11 11:06;CYXE 111106Z 05011G16KT 15SM SCT003 OVC005 07/ RMK SF3ST5 VIS SE-SW 3BR

CYXE;2010-06-11 12:00;CYXE 111200Z 05012G17KT 15SM OVC008 08/07 A3004 RMK SC8 SLP189

CYXE;2010-06-11 13:00;CYXE 111300Z 06014KT 15SM OVC007 08/08 A3005 RMK SC8 SLP194

CYXE;2010-06-11 14:00;CYXE 111400Z 05012KT 5SM BR OVC004 08/08 A3006 RMK ST8 SLP196

CYXE;2010-06-11 14:28;CYXE 111428Z 05013KT 15SM SCT004 OVC008 09/ RMK SF4ST4

CYXE;2010-06-11 15:00;CYXE 111500Z 05012KT 15SM OVC010 09/08 A3008 RMK SC8 SLP202

CYXE;2010-06-11 15:09;CYXE 111509Z 06012KT 15SM OVC009 09/ RMK SC8

CYXE;2010-06-11 16:00;CYXE 111600Z 06012KT 15SM OVC009 09/08 A3008 RMK SC8 SLP204

CYXE;2010-06-11 16:17;CYXE 111617Z 07012KT 15SM OVC013 10/ RMK SC8

CYXE;2010-06-11 17:00;CYXE 111700Z 06013KT 15SM OVC013 10/08 A3009 RMK SC8 SLP207

CYXE;2010-06-11 17:32;CYXE 111732Z 04010KT 15SM OVC015 10/ RMK SC8

CYXE;2010-06-11 18:00;CYXE 111800Z 06009KT 15SM OVC015 11/08 A3010 RMK SC8 SLP210

CYXE;2010-06-11 18:29;CYXE 111829Z 06009KT 6SM -DZ BR OVC015 11/ RMK SC8

CYXE;2010-06-11 19:00;CYXE 111900Z 04010KT 4SM -DZ BR OVC010 10/09 A3012 RMK SF8 SLP214

CYXE;2010-06-11 19:14;CYXE 111914Z 05009KT 6SM -DZ BR OVC008 10/ RMK SF8

CYXE;2010-06-11 19:38;CYXE 111938Z 05010KT 15SM -DZ BKN011 OVC022 11/ RMK SF6SC2

CYXE;2010-06-11 20:00;CYXE 112000Z 05008KT 15SM OVC011 12/09 A3013 RMK SC8 SLP218

CYXE;2010-06-11 20:15;CYXE 112015Z 06008KT 15SM OVC015 11/ RMK SC8

CYXE;2010-06-11 21:00;CYXE 112100Z 04007KT 15SM BKN022 OVC032 12/08 A3014 RMK SC7SC1 SLP222

CYXE;2010-06-11 22:00;CYXE 112200Z 05008KT 15SM BKN024 OVC100 13/08 A3016 RMK SC6AC2 SLP227

CYXE;2010-06-11 23:00;CYXE 112300Z 04005KT 15SM BKN028 OVC110 13/08 A3017 RMK SC6AC2 SLP230

CYXE;2010-06-12 00:00;CYXE 120000Z 02005KT 15SM SCT032 OVC074 13/09 A3018 RMK SC4AC4 SLP233

CYXE;2010-06-12 01:00;CYXE 120100Z 35002KT 15SM FEW045 BKN081 BKN300 14/08 A3019 RMK SC2AC2CI1 SLP237

CYXE;2010-06-12 02:00;CYXE 120200Z 34002KT 15SM FEW043 BKN079 BKN300 13/10 A3020 RMK SC2AC1CI1 SLP240

CYXE;2010-06-12 03:00;CYXE 120300Z 35002KT 15SM FEW043 FEW082 BKN300 13/09 A3020 RMK SC1AC1CI1 SLP243

CYXE;2010-06-12 04:00;CYXE 120400Z 36005KT 15SM FEW080 BKN300 09/07 A3022 RMK AC2CI2 SLP249

CYXE;2010-06-12 05:00;CYXE 120500Z 30004KT 15SM FEW080 SCT300 08/07 A3023 RMK AC1CI1 SLP250

CYXE;2010-06-12 06:00;CYXE 120600Z 34005KT 15SM FEW080 FEW300 06/06 A3023 RMK AC2CI0 SLP254

CYXE;2010-06-12 07:00;CYXE 120700Z 31007KT 15SM SKC 06/05 A3023 RMK SLP256

CYXE;2010-06-12 08:00;CYXE 120800Z 32006KT 15SM SKC 05/05 A3024 RMK SLP258

CYXE;2010-06-12 09:00;CYXE 120900Z 00000KT 15SM FEW100 05/05 A3026 RMK AC1 SLP264

CYXE;2010-06-12 10:00;CYXE 121000Z 36002KT 15SM FEW100 06/05 A3026 RMK AC1 SLP266

CYXE;2010-06-12 11:00;CYXE 121100Z 33002KT 15SM MIFG FEW100 04/04 A3027 RMK AC1 SLP270

CYXE;2010-06-12 12:00;CYXE 121200Z 32003KT 15SM FEW100 05/05 A3029 RMK AC1 SLP273

CYXE;2010-06-12 13:00;CYXE 121300Z 02002KT 15SM FEW100 08/07 A3030 RMK AC1 SLP276

CYXE;2010-06-12 14:00;CYXE 121400Z 09004KT 15SM FEW100 12/09 A3032 RMK AC1 SLP282

CYXE;2010-06-12 15:00;CYXE 121500Z 08005KT 15SM FEW100 14/09 A3032 RMK AC1 SLP279

CYXE;2010-06-12 16:00;CYXE 121600Z 11002KT 15SM SKC 16/08 A3032 RMK SLP280

CYXE;2010-06-12 17:00;CYXE 121700Z 19002KT 15SM FEW036 17/08 A3032 RMK CU1 SLP279

CYXE;2010-06-12 18:00;CYXE 121800Z 32002KT 15SM FEW050 18/07 A3031 RMK CU2 SLP276

CYXE;2010-06-12 19:00;CYXE 121900Z 00000KT 15SM FEW050 19/08 A3029 RMK CU2 SLP272

CYXE;2010-06-12 20:00;CYXE 122000Z 07003KT 15SM FEW050 19/07 A3028 RMK CU2 SLP268

CYXE;2010-06-12 21:00;CYXE 122100Z 19002KT 15SM FEW050 20/07 A3026 RMK CU2 SLP261

CYXE;2010-06-12 22:00;CYXE 122200Z 04002KT 15SM SCT060 20/08 A3025 RMK CU3 SLP256

CYXE;2010-06-12 23:00;CYXE 122300Z 00000KT 15SM SCT066 20/06 A3024 RMK CU3 SLP253

CYXE;2010-06-13 00:00;CYXE 130000Z 00000KT 15SM FEW070 20/08 A3022 RMK CU2 SLP246

CYXE;2010-06-13 01:00;CYXE 130100Z 18004KT 15SM FEW068 20/08 A3021 RMK CU2 SLP244

CYXE;2010-06-13 02:00;CYXE 130200Z 20003KT 15SM FEW068 19/07 A3021 RMK CU1 SLP244

CYXE;2010-06-13 03:00;CYXE 130300Z 20005KT 15SM FEW065 17/07 A3022 RMK CU1 SLP241

CYXE;2010-06-13 04:00;CYXE 130400Z 19006KT 15SM FEW060 14/08 A3022 RMK CU1 SLP242

CYXE;2010-06-13 05:00;CYXE 130500Z 19008KT 15SM SKC 13/08 A3021 RMK SLP240

CYXE;2010-06-13 06:00;CYXE 130600Z 19010KT 15SM SKC 14/09 A3020 RMK SLP236

CYXE;2010-06-13 07:00;CYXE 130700Z 20009KT 15SM SKC 13/09 A3020 RMK SLP236

CYXE;2010-06-13 08:00;CYXE 130800Z 20009KT 15SM SKC 12/09 A3019 RMK SLP232

CYXE;2010-06-13 09:00;CYXE 130900Z 21007KT 15SM SKC 11/08 A3018 RMK SLP231

CYXE;2010-06-13 10:00;CYXE 131000Z 22005KT 15SM SKC 09/08 A3018 RMK SLP230

CYXE;2010-06-13 11:00;CYXE 131100Z 20004KT 15SM FEW100 09/08 A3017 RMK AC1 SLP227

CYXE;2010-06-13 12:00;CYXE 131200Z 20005KT 15SM SKC 10/08 A3017 RMK SLP227

CYXE;2010-06-13 13:00;CYXE 131300Z 19006KT 15SM SKC 12/09 A3017 RMK SLP227

CYXE;2010-06-13 14:00;CYXE 131400Z 21008KT 15SM SKC 14/10 A3017 RMK SLP226

CYXE;2010-06-13 15:00;CYXE 131500Z 21007KT 15SM SKC 18/11 A3017 RMK SLP222

CYXE;2010-06-13 16:00;CYXE 131600Z 22008KT 15SM SKC 19/11 A3016 RMK SLP220

CYXE;2010-06-13 17:00;CYXE 131700Z 20011KT 15SM SKC 20/09 A3015 RMK SLP216

CYXE;2010-06-13 18:00;CYXE 131800Z 18012KT 15SM SKC 21/10 A3014 RMK SLP212

CYXE;2010-06-13 19:00;CYXE 131900Z 19012G17KT 15SM SKC 21/08 A3013 RMK SLP209

CYXE;2010-06-13 20:00;CYXE 132000Z 18008G17KT 15SM FEW330 22/08 A3012 RMK CI0 SLP206

CYXE;2010-06-13 21:00;CYXE 132100Z 20010G16KT 15SM FEW330 23/08 A3010 RMK CI0 SLP200

CYXE;2010-06-13 22:00;CYXE 132200Z 20011G18KT 15SM SCT330 23/09 A3009 RMK CI0 SLP196

CYXE;2010-06-13 23:00;CYXE 132300Z 19011KT 15SM BKN330 23/09 A3007 RMK CI1 SLP191

CYXE;2010-06-14 00:00;CYXE 140000Z 18014KT 15SM BKN300 22/08 A3005 RMK CI2 SLP185

CYXE;2010-06-14 01:00;CYXE 140100Z 19009KT 15SM BKN300 22/09 A3004 RMK CI2 SLP181

CYXE;2010-06-14 02:00;CYXE 140200Z 18008KT 15SM BKN300 21/09 A3003 RMK CI2 SLP177

CYXE;2010-06-14 03:00;CYXE 140300Z 17008KT 15SM BKN300 19/09 A3002 RMK CI2 SLP173

CYXE;2010-06-14 04:00;CYXE 140400Z 16009KT 15SM SCT250 18/08 A3002 RMK CI1 SLP172

CYXE;2010-06-14 05:00;CYXE 140500Z 17010KT 15SM FEW250 16/08 A3002 RMK CI1 SLP171

CYXE;2010-06-14 06:00;CYXE 140600Z 17009KT 15SM FEW250 15/08 A3001 RMK CI0 SLP167

CYXE;2010-06-14 07:00;CYXE 140700Z 18009KT 15SM FEW250 14/08 A3000 RMK CI0 SLP164

CYXE;2010-06-14 08:00;CYXE 140800Z 18013KT 15SM FEW250 14/08 A2999 RMK CI1 SLP161

CYXE;2010-06-14 09:00;CYXE 140900Z 18011KT 15SM FEW250 14/09 A2998 RMK CI1 SLP158

CYXE;2010-06-14 10:00;CYXE 141000Z 17011KT 15SM FEW250 13/09 A2997 RMK CI1 SLP156

CYXE;2010-06-14 11:00;CYXE 141100Z 17010KT 15SM FEW250 12/09 A2997 RMK CI1 SLP155

CYXE;2010-06-14 12:00;CYXE 141200Z 18012KT 15SM SCT250 13/09 A2997 RMK CI1 SLP154

CYXE;2010-06-14 13:00;CYXE 141300Z 18012G18KT 15SM SCT250 15/09 A2996 RMK CI1 SLP151

CYXE;2010-06-14 14:00;CYXE 141400Z 18012G21KT 15SM FEW250 17/09 A2995 RMK CI1 SLP148

CYXE;2010-06-14 15:00;CYXE 141500Z 19016G22KT 15SM SCT250 19/10 A2993 RMK CI1 SLP140

CYXE;2010-06-14 16:00;CYXE 141600Z 18019G24KT 15SM FEW280 20/10 A2992 RMK CI1 SLP137

CYXE;2010-06-14 17:00;CYXE 141700Z 20016G25KT 15SM FEW280 22/10 A2991 RMK CI1 SLP134

CYXE;2010-06-14 18:00;CYXE 141800Z 18020G26KT 15SM FEW280 23/09 A2990 RMK CI1 SLP130

CYXE;2010-06-14 19:00;CYXE 141900Z 18016G24KT 15SM SCT280 23/09 A2989 RMK CI2 SLP126

CYXE;2010-06-14 20:00;CYXE 142000Z 19018G24KT 15SM FEW280 24/10 A2987 RMK CI1 SLP121

CYXE;2010-06-14 21:00;CYXE 142100Z 19017G22KT 15SM FEW280 25/10 A2986 RMK CI1 SLP114

CYXE;2010-06-14 22:00;CYXE 142200Z 18013G18KT 15SM FEW280 25/11 A2984 RMK CI1 SLP108

CYXE;2010-06-14 23:00;CYXE 142300Z 18013G19KT 15SM FEW100 SCT280 25/10 A2982 RMK AC1CI1 SLP102

CYXE;2010-06-15 00:00;CYXE 150000Z 18015KT 15SM FEW100 SCT280 25/10 A2980 RMK AC1CI1 SLP094

CYXE;2010-06-15 01:00;CYXE 150100Z 17016KT 15SM FEW064 FEW280 25/09 A2977 RMK SC1CI1 TCU EMBD W SLP086

CYXE;2010-06-15 02:00;CYXE 150200Z 17013G19KT 15SM FEW064 SCT280 24/08 A2977 RMK SC1CI1 SLP084

CYXE;2010-06-15 03:00;CYXE 150300Z 17012G17KT 15SM FEW064 BKN280 22/09 A2976 RMK SC1CI1 SLP079

CYXE;2010-06-15 04:00;CYXE 150400Z 17011KT 15SM FEW090 SCT280 20/09 A2976 RMK AC1CI1 SLP079

CYXE;2010-06-15 05:00;CYXE 150500Z 17013G20KT 15SM FEW090 BKN280 20/09 A2976 RMK AC1CI2 SLP079

CYXE;2010-06-15 06:00;CYXE 150600Z 25005KT 15SM FEW090 SCT280 18/10 A2976 RMK AC1CI2 SLP081

CYXE;2010-06-15 07:00;CYXE 150700Z 23005KT 15SM FEW100 BKN280 15/11 A2977 RMK AC2CI2 SLP084

CYXE;2010-06-15 08:00;CYXE 150800Z 28007KT 15SM FEW100 BKN280 14/12 A2977 RMK AC1CI2 SLP084

CYXE;2010-06-15 09:00;CYXE 150900Z 31008KT 15SM FEW110 BKN280 14/11 A2978 RMK AC1CI2 SLP086

CYXE;2010-06-15 10:00;CYXE 151000Z 29008KT 15SM FEW110 BKN280 13/11 A2979 RMK AC1CI2 SLP091

CYXE;2010-06-15 11:00;CYXE 151100Z 31006KT 15SM FEW110 BKN260 12/11 A2978 RMK AC2CI2 SLP089

CYXE;2010-06-15 12:00;CYXE 151200Z 31006KT 15SM FEW110 BKN260 12/11 A2981 RMK AC1CI2 SLP097

CYXE;2010-06-15 13:00;CYXE 151300Z 32005KT 15SM FEW110 BKN260 14/11 A2981 RMK AC2CI3 SLP098

CYXE;2010-06-15 14:00;CYXE 151400Z 31007KT 15SM FEW090 BKN260 16/12 A2981 RMK AC2CI3 SLP099

CYXE;2010-06-15 15:00;CYXE 151500Z 32010KT 15SM FEW088 BKN260 17/13 A2982 RMK AC2CI3 SLP101

CYXE;2010-06-15 16:00;CYXE 151600Z 30012KT 15SM FEW090 BKN240 17/12 A2981 RMK AC2CI3 SLP099

CYXE;2010-06-15 17:00;CYXE 151700Z 33007KT 15SM FEW090 BKN240 19/13 A2982 RMK AC2CI3 SLP100

CYXE;2010-06-15 18:00;CYXE 151800Z 35006KT 15SM FEW090 SCT160 BKN240 19/13 A2982 RMK AC2AC2CI2 SLP103

CYXE;2010-06-15 19:00;CYXE 151900Z CCA 29006KT 15SM SCT043 BKN160 BKN240 20/13 A2983 RMK SC3AC2CI1 SLP107

CYXE;2010-06-15 20:00;CYXE 152000Z 32010KT 15SM SCT043 BKN160 BKN240 19/13 A2984 RMK SC3AC2CI1 SLP109

CYXE;2010-06-15 21:00;CYXE 152100Z 31006KT 15SM VCSH FEW050 BKN100 BKN240 19/14 A2986 RMK SC2AC4CI1 SLP117

CYXE;2010-06-15 22:00;CYXE 152200Z 30004KT 15SM FEW050 BKN091 19/14 A2986 RMK SC2AC5 SLP117

CYXE;2010-06-15 23:00;CYXE 152300Z 30002KT 15SM FEW050 SCT076 OVC086 20/14 A2985 RMK SC2AC2AC4 SLP116

CYXE;2010-06-16 00:00;CYXE 160000Z 32003KT 15SM FEW041 OVC088 20/14 A2986 RMK SC2AC6 SLP118

CYXE;2010-06-16 01:00;CYXE 160100Z 05004KT 15SM FEW043 SCT098 BKN230 19/12 A2985 RMK CU2AC2CI1 SLP116

CYXE;2010-06-16 02:00;CYXE 160200Z 05004KT 15SM FEW043 FEW060TCU BKN110 BKN230 17/12 A2986 RMK CU2TCU1AC3CI1 TCU ESE SLP120

CYXE;2010-06-16 03:00;CYXE 160300Z 06004KT 15SM BKN110 OVC230 17/12 A2986 RMK AC5CI2 SLP118

CYXE;2010-06-16 04:00;CYXE 160400Z 01005KT 15SM BKN110 OVC230 15/13 A2987 RMK AC6CI1 SLP123

CYXE;2010-06-16 05:00;CYXE 160500Z 35004KT 15SM OVC110 14/12 A2990 RMK AC7 SLP130

CYXE;2010-06-16 06:00;CYXE 160600Z 03002KT 15SM BKN110 14/11 A2990 RMK AC6 SLP130

CYXE;2010-06-16 07:00;CYXE 160700Z 05002KT 15SM OVC095 13/11 A2992 RMK AC8 SLP136

CYXE;2010-06-16 08:00;CYXE 160800Z 01002KT 15SM BKN065 OVC095 13/13 A2992 RMK SC6AC2 SLP136

CYXE;2010-06-16 08:11;CYXE 160811Z 10002KT 15SM -SHRA BKN040 OVC080 14/ RMK SC6AC2 CVCTV CLD EMBD

CYXE;2010-06-16 08:48;CYXE 160848Z 08002KT 15SM OVC040 14/ RMK SC8

CYXE;2010-06-16 09:00;CYXE 160900Z 35003KT 15SM BKN040 13/12 A2991 RMK SC7 SLP137

CYXE;2010-06-16 10:00;CYXE 161000Z 34004KT 15SM SCT050 BKN090 12/11 A2992 RMK SC3AC3 SLP139

CYXE;2010-06-16 11:00;CYXE 161100Z 06003KT 15SM FEW050 SCT090 BKN250 12/11 A2992 RMK SC1AC2CI1 ACC ASOCTD SLP139

CYXE;2010-06-16 12:00;CYXE 161200Z 01005KT 15SM FEW050 SCT090 OVC250 11/11 A2993 RMK SC1AC2CI2 SLP143

CYXE;2010-06-16 13:00;CYXE 161300Z 01005KT 15SM SCT100 OVC250 14/12 A2993 RMK AC3CI2 SLP144

CYXE;2010-06-16 14:00;CYXE 161400Z 05004KT 15SM FEW110 OVC250 16/13 A2993 RMK AC2CI3 SLP144

CYXE;2010-06-16 15:00;CYXE 161500Z 05006KT 15SM FEW110 OVC250 18/13 A2993 RMK AC2CS5 SLP141

CYXE;2010-06-16 16:00;CYXE 161600Z 05009KT 15SM SCT110 OVC250 20/11 A2993 RMK AC2CS3 SLP141

CYXE;2010-06-16 17:00;CYXE 161700Z 07012KT 15SM FEW040 SCT100 BKN250 20/10 A2993 RMK CU1AC2CI2 SLP140

CYXE;2010-06-16 18:00;CYXE 161800Z 07011KT 15SM FEW055 BKN090 BKN250 21/10 A2991 RMK CU2AC3CI2 SLP135

CYXE;2010-06-16 19:00;CYXE 161900Z 09011G16KT 15SM FEW058 BKN082 BKN250 20/08 A2990 RMK SC2AC3CI1 SLP132

CYXE;2010-06-16 20:00;CYXE 162000Z 09011G18KT 15SM FEW050 BKN089 20/09 A2989 RMK SC1AC6 SLP128

CYXE;2010-06-16 21:00;CYXE 162100Z 10012KT 15SM -RA FEW045 BKN085 19/10 A2988 RMK SC1AC6 SLP126

CYXE;2010-06-16 22:00;CYXE 162200Z 12010KT 15SM -SHRA OVC070 17/11 A2990 RMK AC8 SLP131

CYXE;2010-06-16 23:00;CYXE 162300Z 10011KT 15SM -SHRA OVC068 17/12 A2988 RMK AC8 SLP125

CYXE;2010-06-17 00:00;CYXE 170000Z 08010KT 15SM VCSH OVC065 17/12 A2987 RMK AC8 SLP124

CYXE;2010-06-17 01:00;CYXE 170100Z 08010KT 15SM VCSH BKN059 OVC087 16/12 A2986 RMK SC5AC3 SLP121

CYXE;2010-06-17 02:00;CYXE 170200Z 06009KT 15SM VCSH OVC068 16/11 A2986 RMK AC8 SLP120

CYXE;2010-06-17 02:52;CYXE 170252Z 06011KT 15SM -SHRA BKN068 OVC100 16/ RMK AC6AC2

CYXE;2010-06-17 03:00;CYXE 170300Z 06011KT 15SM -SHRA BKN068 OVC100 15/12 A2983 RMK AC6AC2 SLP108

CYXE;2010-06-17 04:00;CYXE 170400Z 06008KT 15SM OVC044 15/12 A2986 RMK SC8 SLP117

CYXE;2010-06-17 05:00;CYXE 170500Z 05009KT 15SM OVC051 14/12 A2982 RMK SC8 SLP105

CYXE;2010-06-17 06:00;CYXE 170600Z 05010KT 15SM OVC060 15/12 A2982 RMK SC8 SLP103

CYXE;2010-06-17 07:00;CYXE 170700Z 05010KT 15SM OVC070 15/13 A2978 RMK AC7 SLP092

CYXE;2010-06-17 08:00;CYXE 170800Z 05011KT 15SM SCT075 OVC100 14/13 A2975 RMK AC3AC3 SLP080

CYXE;2010-06-17 09:00;CYXE 170900Z 05012KT 15SM BKN062 OVC100 14/13 A2974 RMK SC6AC2 SLP078

CYXE;2010-06-17 10:00;CYXE 171000Z 05014KT 15SM BKN060 OVC090 15/13 A2971 RMK SC6AC2 SLP066

CYXE;2010-06-17 10:23;CYXE 171023Z 05014G20KT 15SM -SHRA BKN060 OVC090 15/ RMK SC6AC2 CVCTV CLD EMBD

CYXE;2010-06-17 11:00;CYXE 171100Z 05016KT 15SM -SHRA BKN058 OVC085 15/13 A2969 RMK SC6AC2 CVCTV CLD EMBD SLP060

CYXE;2010-06-17 11:45;CYXE 171145Z 05015KT 15SM BKN058 OVC085 15/ RMK SC6AC2

CYXE;2010-06-17 12:00;CYXE 171200Z 05016KT 12SM -DZ BKN055 OVC070 15/13 A2966 RMK SC6AC2 SLP052

CYXE;2010-06-17 12:19;CYXE 171219Z 05014KT 15SM OVC055 15/ RMK SC8

CYXE;2010-06-17 13:00;CYXE 171300Z 05016KT 15SM SCT025 BKN050 OVC070 15/14 A2966 RMK SC3SC3AC2 SLP050

CYXE;2010-06-17 13:30;CYXE 171330Z 06014G19KT 2SM -DZ BR BKN015 OVC040 15/ RMK SC6SC2

CYXE;2010-06-17 13:47;CYXE 171347Z 07014KT 4SM -RA BR BKN015 OVC035 14/ RMK SC6SC2

CYXE;2010-06-17 14:00;CYXE 171400Z 06014KT 3SM RA BR OVC015 14/14 A2965 RMK SC8 SLP048

CYXE;2010-06-17 14:28;CYXE 171428Z 06018KT 5SM -RA BR BKN007 OVC036 14/ RERA RMK SC6SC2

CYXE;2010-06-17 14:48;CYXE 171448Z 05017KT 6SM RA BR SCT007 OVC013 14/ RERA RMK SC3SC5

CYXE;2010-06-17 15:00;CYXE 171500Z 05015G20KT 6SM RA BR SCT008 OVC011 14/14 A2963 RERA RMK SC3SC5 SLP040

CYXE;2010-06-17 15:21;CYXE 171521Z 05016G21KT 2SM RA BR BKN006 OVC040 14/ RMK SF7SC1 VIS VRB 1-3

CYXE;2010-06-17 16:00;CYXE 171600Z 04019G26KT 2SM RA BR OVC005 14/14 A2958 RMK SF8 VIS VRB 1-3 SLP025

CYXE;2010-06-17 17:00;CYXE 171700Z CCA 05022G29KT 3SM -RA BR BKN005 OVC027 14/14 A2957 RMK SF6SC2 RERA /R20/ SLP022

CYXE;2010-06-17 18:00;CYXE 171800Z 05024KT 4SM -RA BR BKN005 OVC030 15/14 A2956 RMK SC6SC2 SLP019

CYXE;2010-06-17 19:00;CYXE 171900Z 05023G30KT 5SM -RA BR OVC007 15/15 A2955 RMK SC8 SLP014

CYXE;2010-06-17 20:00;CYXE 172000Z 06018G24KT 5SM -RA BR OVC007 15/15 A2956 RMK SC8 SLP017

CYXE;2010-06-17 21:00;CYXE 172100Z 05020G26KT 5SM -RA BR OVC006 15/15 A2953 RMK SC8 SLP008

CYXE;2010-06-17 22:00;CYXE 172200Z 05019G26KT 6SM -RA BR OVC006 15/15 A2952 RMK SC8 SLP004

CYXE;2010-06-17 22:35;CYXE 172235Z 05019G27KT 3SM -RA BR OVC005 15/ RMK SC8

CYXE;2010-06-17 23:00;CYXE 172300Z 05017G26KT 3SM -RA BR OVC006 15/15 A2950 RMK SC8 SLP998

CYXE;2010-06-18 00:00;CYXE 180000Z 05015G21KT 3SM -RA BR OVC006 15/15 A2949 RMK SC8 SLP993

CYXE;2010-06-18 00:07;CYXE 180007Z 06019KT 12SM -RA OVC006 15/ RMK SC8

CYXE;2010-06-18 01:00;CYXE 180100Z CCA 06020G26KT 12SM -RA OVC009 15/15 A2951 RMK SC8 SLP999

CYXE;2010-06-18 02:00;CYXE 180200Z 06020G28KT 15SM -RA OVC010 15/15 A2952 RMK SC8 SLP001

CYXE;2010-06-18 03:00;CYXE 180300Z 05019G25KT 15SM -RA OVC010 15/14 A2953 RMK SC8 SLP008

CYXE;2010-06-18 04:00;CYXE 180400Z 05020G25KT 15SM -RA BKN010 OVC055 15/14 A2955 RMK SC6SC2 SLP015

CYXE;2010-06-18 05:00;CYXE 180500Z 04017G22KT 12SM -RA BKN010 OVC055 14/14 A2956 RMK SC6SC2 SLP017

CYXE;2010-06-18 06:00;CYXE 180600Z CCA 03017G22KT 15SM -RA BKN009 OVC051 14/14 A2956 RMK SC6SC2 /R20/ SLP016

CYXE;2010-06-18 07:00;CYXE 180700Z 02018G24KT 15SM -RA BKN008 OVC060 13/13 A2955 RMK SF5SC3 SLP014

CYXE;2010-06-18 08:00;CYXE 180800Z 03021G27KT 10SM -RA FEW008 OVC028 13/13 A2955 RMK SF2SC6 SLP015

CYXE;2010-06-18 09:00;CYXE 180900Z 01015G20KT 10SM -RA OVC028 13/12 A2957 RMK SC8 SLP023

CYXE;2010-06-18 10:00;CYXE 181000Z 36012KT 15SM -RA FEW028 OVC060 12/12 A2959 RMK SC2SC6 SLP028

CYXE;2010-06-18 11:00;CYXE 181100Z 34009KT 15SM -RA OVC064 13/12 A2961 RMK SC8 SLP033

CYXE;2010-06-18 12:00;CYXE 181200Z 35008KT 15SM -RA OVC074 13/12 A2962 RMK AC8 SLP039

CYXE;2010-06-18 12:25;CYXE 181225Z 33012KT 15SM OVC074 13/ RMK AC8

CYXE;2010-06-18 13:00;CYXE 181300Z 34010KT 15SM OVC070 13/12 A2964 RMK AC8 SLP044

CYXE;2010-06-18 14:00;CYXE 181400Z 36011KT 15SM OVC090 15/12 A2965 RMK AC8 SLP050

CYXE;2010-06-18 15:00;CYXE 181500Z 36013KT 15SM OVC110 15/12 A2968 RMK AC8 SLP059

CYXE;2010-06-18 16:00;CYXE 181600Z 02015G20KT 15SM OVC110 19/12 A2970 RMK AC7 SLP065

CYXE;2010-06-18 17:00;CYXE 181700Z 03014KT 15SM BKN110 OVC250 21/11 A2972 RMK AC6CI1 SLP072

CYXE;2010-06-18 18:00;CYXE 181800Z 02013KT 15SM OVC110 20/11 A2974 RMK AC6 SLP078

CYXE;2010-06-18 19:00;CYXE 181900Z 01010G16KT 15SM SCT090 OVC280 21/13 A2976 RMK AC2CI3 SLP083

CYXE;2010-06-18 20:00;CYXE 182000Z 34010G15KT 15SM FEW032 SCT060 OVC280 21/13 A2978 RMK CU1SC2CI3 SLP089

CYXE;2010-06-18 21:00;CYXE 182100Z 36011G17KT 10SM FEW032 FEW110 BKN300 21/13 A2980 RMK CU1AC1CI2 FU OBS TAKEN +15 SLP098

CYXE;2010-06-18 22:00;CYXE 182200Z 02011KT 10SM FEW045 SCT100 BKN300 22/10 A2981 RMK CU1AC2CI2 FU SLP101

CYXE;2010-06-18 23:00;CYXE 182300Z 35010KT 10SM FEW040 SCT110 BKN300 22/11 A2982 RMK CU1AC2CI2 FU SLP103

CYXE;2010-06-19 00:00;CYXE 190000Z 36005KT 12SM FEW140 OVC300 20/13 A2983 RMK AC1CI4 FU OBS TAKEN +15 SLP108

CYXE;2010-06-19 01:00;CYXE 190100Z 35003KT 10SM FEW120 OVC300 19/15 A2984 RMK AC2CI4 FU SLP110

CYXE;2010-06-19 02:00;CYXE 190200Z 29003KT 8SM SCT078 OVC100 20/14 A2985 RMK AC4AC2 FU SLP115

CYXE;2010-06-19 03:00;CYXE 190300Z CCA 28005KT 8SM SCT076 OVC100 18/15 A2987 RMK AC4AC2 FU SLP120

CYXE;2010-06-19 04:00;CYXE 190400Z 32004KT 8SM SCT076 OVC100 17/14 A2988 RMK AC4AC2 FU SLP126

CYXE;2010-06-19 05:00;CYXE 190500Z 32003KT 12SM FEW076 SCT100 OVC250 16/13 A2989 RMK AC2AC2CI2 FU SLP127

CYXE;2010-06-19 06:00;CYXE 190600Z 36002KT 12SM SCT100 OVC250 14/12 A2989 RMK AC3CI2 SLP128

CYXE;2010-06-19 07:00;CYXE 190700Z 14004KT 15SM SCT100 OVC250 14/13 A2990 RMK AC3CI2 SLP131

CYXE;2010-06-19 08:00;CYXE 190800Z 26004KT 15SM SCT100 OVC250 14/13 A2992 RMK AC3CI2 SLP136

CYXE;2010-06-19 09:00;CYXE 190900Z 23002KT 15SM SCT100 BKN250 14/12 A2992 RMK AC3CI2 SLP137

CYXE;2010-06-19 10:00;CYXE 191000Z 24009KT 15SM SCT100 BKN250 13/12 A2993 RMK AC3CI2 SLP140

CYXE;2010-06-19 11:00;CYXE 191100Z 25009KT 15SM FEW100 BKN250 13/12 A2993 RMK AC2CI3 SLP142

CYXE;2010-06-19 12:00;CYXE 191200Z 29009KT 15SM FEW100 BKN250 13/11 A2993 RMK AC2CI1 SLP144

CYXE;2010-06-19 13:00;CYXE 191300Z 30007KT 15SM FEW100 BKN250 14/12 A2995 RMK AC2CI1 SLP148

CYXE;2010-06-19 14:00;CYXE 191400Z 32005KT 15SM BKN110 OVC250 15/12 A2995 RMK AC4CI2 SLP149

CYXE;2010-06-19 15:00;CYXE 191500Z 32006KT 15SM BKN110 OVC250 16/13 A2996 RMK AC6CI1 SLP150

CYXE;2010-06-19 16:00;CYXE 191600Z 33002KT 15SM OVC140 17/14 A2996 RMK AC8 SLP151

CYXE;2010-06-19 17:00;CYXE 191700Z 28008KT 15SM OVC140 17/13 A2997 RMK AC8 SLP155

CYXE;2010-06-19 18:00;CYXE 191800Z 27011KT 15SM OVC140 17/12 A2999 RMK AC8 SLP163

CYXE;2010-06-19 18:51;CYXE 191851Z 30010KT 15SM -SHRA SCT042 OVC069 17/ RMK SC3AC5

CYXE;2010-06-19 19:00;CYXE 191900Z 30009KT 15SM -SHRA SCT042 OVC069 17/12 A2999 RMK SC3AC5 SLP165

CYXE;2010-06-19 19:39;CYXE 191939Z 28007KT 15SM FEW054 BKN066 OVC250 18/ RMK SC2AC3CI1

CYXE;2010-06-19 20:00;CYXE 192000Z 31011KT 15SM FEW054 BKN066 OVC250 19/13 A2998 RMK SC2AC2CI1 SLP161

CYXE;2010-06-19 21:00;CYXE 192100Z 28011KT 15SM FEW054 BKN120 BKN250 20/13 A2997 RMK SC1AC4CI0 SLP155

CYXE;2010-06-19 22:00;CYXE 192200Z 32007KT 15SM SCT120 20/13 A2996 RMK AC3 SLP153

CYXE;2010-06-19 23:00;CYXE 192300Z 30005KT 15SM FEW040 SCT120 22/13 A2996 RMK CU2AC2 FU ALF SLP151

CYXE;2010-06-20 00:00;CYXE 200000Z 26002KT 15SM SCT050TCU SCT120 20/13 A2995 RMK TCU4AC1 SLP149

CYXE;2010-06-20 01:00;CYXE 200100Z 24006KT 15SM FEW050TCU SCT120 21/10 A2995 RMK TCU2AC1 SLP149

CYXE;2010-06-20 02:00;CYXE 200200Z 27005KT 15SM FEW050TCU FEW120 19/11 A2996 RMK TCU2AC1 SLP151

CYXE;2010-06-20 03:00;CYXE 200300Z 28004KT 15SM FEW100 FEW300 17/11 A2996 RMK ACC1CI0 SLP154

CYXE;2010-06-20 04:00;CYXE 200400Z 27004KT 15SM FEW100 FEW300 16/13 A2998 RMK ACC1CI0 SLP158

CYXE;2010-06-20 05:00;CYXE 200500Z 23004KT 15SM FEW300 14/12 A2998 RMK CI0 SLP160

CYXE;2010-06-20 06:00;CYXE 200600Z 29003KT 15SM FEW300 13/11 A2999 RMK CI0 SLP165

CYXE;2010-06-20 07:00;CYXE 200700Z 23003KT 15SM SKC 13/12 A2999 RMK FU SLP164

CYXE;2010-06-20 08:00;CYXE 200800Z 22002KT 15SM SKC 11/10 A2999 RMK FU SLP165

CYXE;2010-06-20 09:00;CYXE 200900Z 03002KT 15SM R09/3000VP6000FT/N FEW300 10/10 A2999 RMK CI1 SLP166

CYXE;2010-06-20 10:00;CYXE 201000Z 21004KT 15SM FEW100 SCT300 11/10 A2999 RMK AC1CI1 FU SLP166

CYXE;2010-06-20 11:00;CYXE 201100Z 20002KT 15SM MIFG FEW100 SCT300 10/10 A2999 RMK AC2CI1 SLP166

CYXE;2010-06-20 12:00;CYXE 201200Z 16002KT 15SM FEW110 SCT300 10/10 A2999 RMK AC1CI1 SLP163

CYXE;2010-06-20 13:00;CYXE 201300Z 23002KT 15SM FEW300 13/12 A2999 RMK CI1 SLP165

CYXE;2010-06-20 14:00;CYXE 201400Z 28002KT 15SM FEW300 15/13 A3001 RMK CI0 SLP169

CYXE;2010-06-20 15:00;CYXE 201500Z 00000KT 15SM FEW300 18/14 A3001 RMK CI1 SLP170

CYXE;2010-06-20 16:00;CYXE 201600Z 31002KT 15SM FEW300 20/13 A3001 RMK CI0 SLP169

CYXE;2010-06-20 17:00;CYXE 201700Z 23002KT 15SM FEW040 SCT300 21/11 A3001 RMK CU1CI0 SLP167

CYXE;2010-06-20 18:00;CYXE 201800Z 00000KT 15SM FEW040 SCT300 22/12 A3000 RMK CU2CI0 SLP164

CYXE;2010-06-20 19:00;CYXE 201900Z 32003KT 15SM FEW040 SCT300 23/11 A2999 RMK CU2CI0 SLP161

CYXE;2010-06-20 20:00;CYXE 202000Z 00000KT 15SM SCT048 23/10 A2998 RMK CU3 SLP158

CYXE;2010-06-20 21:00;CYXE 202100Z 29003KT 15SM SCT050 24/12 A2996 RMK CU3 SLP153

CYXE;2010-06-20 22:00;CYXE 202200Z 31004KT 15SM FEW050 24/11 A2995 RMK CU2 SLP149

CYXE;2010-06-20 23:00;CYXE 202300Z 34004KT 15SM FEW050 24/11 A2994 RMK CU2 CB TOPS DIST NW-N SLP146

CYXE;2010-06-21 00:00;CYXE 210000Z 32004KT 15SM FEW050 24/11 A2993 RMK CU2 CB TOPS DIST NW-NE SLP143

CYXE;2010-06-21 01:00;CYXE 210100Z 36006KT 15SM FEW060 SCT300 23/09 A2993 RMK CU2CI0 FEW TCU CB TOPS DIST N SLP142

CYXE;2010-06-21 02:00;CYXE 210200Z 03015KT 15SM FEW080 FEW300 19/11 A2993 RMK ACC1CI0 CB TOPS DIST N SLP141

CYXE;2010-06-21 03:00;CYXE 210300Z 05007KT 15SM FEW080 FEW300 17/11 A2993 RMK ACC1CI0 SLP142

CYXE;2010-06-21 04:00;CYXE 210400Z 08006KT 15SM FEW080 FEW300 18/12 A2995 RMK ACC1CI0 SLP148

CYXE;2010-06-21 05:00;CYXE 210500Z 08005KT 15SM FEW300 14/12 A2995 RMK CI1 SLP148

CYXE;2010-06-21 06:00;CYXE 210600Z 06003KT 15SM FEW300 13/12 A2995 RMK CI1 SLP149

CYXE;2010-06-21 07:00;CYXE 210700Z 05009KT 15SM SCT074 15/12 A2996 RMK AC3 SLP153

CYXE;2010-06-21 08:00;CYXE 210800Z 08006KT 15SM FEW072 13/12 A2994 RMK AC2 SLP146

CYXE;2010-06-21 09:00;CYXE 210900Z 04002KT 15SM FEW072 11/10 A2993 RMK AC1 SLP141

CYXE;2010-06-21 10:00;CYXE 211000Z 20002KT 15SM FEW072 SCT250 12/11 A2992 RMK AC1CI0 SLP136

CYXE;2010-06-21 11:00;CYXE 211100Z 35002KT 8SM FEW080 BKN250 10/10 A2992 RMK AC2CI1 BR SLP136

CYXE;2010-06-21 12:00;CYXE 211200Z 30002KT 15SM FEW080 SCT250 12/12 A2992 RMK AC2CI1 SLP136

CYXE;2010-06-21 13:00;CYXE 211300Z 33005KT 15SM FEW080 BKN250 15/14 A2991 RMK AC1CI2 SLP135

CYXE;2010-06-21 14:00;CYXE 211400Z 01002KT 15SM FEW090 OVC250 17/14 A2991 RMK AC1CI2 SLP133

CYXE;2010-06-21 15:00;CYXE 211500Z CCA 00000KT 15SM FEW090 BKN250 19/15 A2991 RMK AC2CI0 SLP133

CYXE;2010-06-21 16:00;CYXE 211600Z 16003KT 15SM SCT250 22/14 A2990 RMK CI1 SLP130

CYXE;2010-06-21 17:00;CYXE 211700Z 19002KT 15SM BKN250 23/11 A2990 RMK CI2 SLP130

CYXE;2010-06-21 18:00;CYXE 211800Z 34002KT 15SM FEW056 BKN250 25/14 A2990 RMK CF1CI2 SLP129

CYXE;2010-06-21 19:00;CYXE 211900Z 05004KT 15SM FEW058 BKN330 25/13 A2989 RMK CU1CI2 TCU ASOCTD SLP125

CYXE;2010-06-21 20:00;CYXE 212000Z 15007KT 15SM SCT055 BKN300 25/13 A2987 RMK CU3CI1 SLP121

CYXE;2010-06-21 21:00;CYXE 212100Z 13006KT 15SM FEW050 BKN300 24/12 A2985 RMK CU2CI1 SLP113

CYXE;2010-06-21 22:00;CYXE 212200Z 12007KT 15SM FEW073TCU BKN300 26/12 A2983 RMK TCU2CI1 SLP108

CYXE;2010-06-21 23:00;CYXE 212300Z 12004KT 15SM FEW075TCU OVC300 25/12 A2982 RMK TCU2CI4 SLP103

CYXE;2010-06-22 00:00;CYXE 220000Z 16005KT 15SM FEW075TCU OVC300 24/13 A2981 RMK TCU2CS5 SLP099

CYXE;2010-06-22 00:53;CYXE 220053Z 16006KT 15SM TS VCSH SCT080CB OVC300 23/ RMK CB3CS4 LTNG NW

CYXE;2010-06-22 01:00;CYXE 220100Z 15005KT 15SM TS VCSH SCT080CB OVC300 23/12 A2982 RMK CB3CS5 SLP102

CYXE;2010-06-22 01:31;CYXE 220131Z 16005KT 15SM VCSH FEW080CB OVC300 22/ RETS RMK CB2CS6 LTNG DIST W-NE

CYXE;2010-06-22 02:00;CYXE 220200Z 22008KT 15SM VCSH SCT080CB OVC300 22/14 A2983 RETS RMK CB3CS5 LTNG DIST W-NE SLP105

CYXE;2010-06-22 03:00;CYXE 220300Z 03007KT 15SM VCSH BKN045 BKN080 OVC300 18/12 A2986 RMK SC5ACC2CS2 CB EMBD LTNG DIST W SLP116

CYXE;2010-06-22 04:00;CYXE 220400Z 10009KT 15SM VCSH SCT060 BKN075 OVC300 17/12 A2987 RMK SC3ACC3CS2 CB EMBD SLP121

CYXE;2010-06-22 04:42;CYXE 220442Z 09008KT 15SM -SHRA BKN060 BKN080 OVC300 16/ RMK SC5ACC2CI1

CYXE;2010-06-22 05:00;CYXE 220500Z 09004KT 15SM -SHRA BKN050 BKN080 OVC300 16/13 A2984 RMK SC5ACC2CI2 SLP110

CYXE;2010-06-22 05:13;CYXE 220513Z 14006KT 15SM SCT050 BKN090 OVC300 16/ RMK SC3ACC2CI2

CYXE;2010-06-22 05:45;CYXE 220545Z 15006KT 15SM -SHRA OVC039 16/ RMK SC8

CYXE;2010-06-22 06:00;CYXE 220600Z 17009KT 15SM -SHRA OVC041 16/14 A2985 RMK SC8 LTNG DIST S SLP111

CYXE;2010-06-22 07:00;CYXE 220700Z 30008KT 15SM -TSRA OVC034 15/14 A2984 RMK SC8 CB EMBD + LTGCG NE SLP108

CYXE;2010-06-22 07:20;CYXE 220720Z 32007KT 15SM BKN034 OVC110 15/ RETS RMK SC6AC2

CYXE;2010-06-22 07:44;CYXE 220744Z CCA 32009KT 15SM TS FEW040CB OVC067 15/ RMK CB2AC6 CB + LTGCG SE

CYXE;2010-06-22 08:00;CYXE 220800Z 32010KT 15SM TS FEW040CB OVC095 15/14 A2986 RMK CB2AC6 CB + LTGCG SSE SLP113

CYXE;2010-06-22 08:46;CYXE 220846Z 32005KT 15SM SCT079 OVC110 15/ RETS RMK AC4AC4 LTNG DIST E

CYXE;2010-06-22 09:00;CYXE 220900Z 33005KT 15SM SCT074 OVC110 15/14 A2988 RETS RMK AC4AC4 LTNG DIST E SLP122

CYXE;2010-06-22 10:00;CYXE 221000Z 33009KT 15SM BKN074 OVC110 15/14 A2988 RMK AC6AC2 SLP121

CYXE;2010-06-22 10:33;CYXE 221033Z 33010KT 15SM -SHRA BKN064 OVC110 15/ RMK SC6AC2

CYXE;2010-06-22 11:00;CYXE 221100Z 33007KT 15SM -SHRA BKN064 OVC110 14/14 A2989 RMK SC6AC2 SLP125

CYXE;2010-06-22 11:18;CYXE 221118Z 34005KT 15SM BKN064 BKN110 OVC250 14/ RMK SC6AC1CI1

CYXE;2010-06-22 12:00;CYXE 221200Z 07005KT 15SM FEW064 BKN096 OVC250 14/14 A2990 RMK SC2AC5CI1 SLP128

CYXE;2010-06-22 13:00;CYXE 221300Z 36003KT 15SM BKN110 BKN250 15/14 A2989 RMK AC5CI2 SLP127

CYXE;2010-06-22 14:00;CYXE 221400Z 35006KT 15SM FEW110 BKN250 17/15 A2991 RMK AC2CI2 SLP132

CYXE;2010-06-22 15:00;CYXE 221500Z 01007KT 15SM FEW090 SCT250 19/14 A2991 RMK AC2CI1 SLP133

CYXE;2010-06-22 16:00;CYXE 221600Z 36008KT 15SM FEW250 20/14 A2991 RMK CI0 SLP134

CYXE;2010-06-22 17:00;CYXE 221700Z 36007KT 15SM FEW250 22/15 A2993 RMK CI0 SLP139

CYXE;2010-06-22 18:00;CYXE 221800Z 03009KT 15SM FEW036 SCT250 23/13 A2993 RMK CU2CI0 SLP141

CYXE;2010-06-22 19:00;CYXE 221900Z 01009KT 15SM BKN035 BKN300 22/13 A2995 RMK CU6CI0 TCU ASOCTD SLP145

CYXE;2010-06-22 20:00;CYXE 222000Z 35005KT 15SM BKN035 BKN300 23/12 A2995 RMK CU6CI0 SLP145

CYXE;2010-06-22 21:00;CYXE 222100Z 03003KT 15SM BKN045 BKN300 24/14 A2995 RMK CU6CI0 SLP146

CYXE;2010-06-22 22:00;CYXE 222200Z 02015KT 15SM -RA BKN045TCU BKN120 BKN300 20/13 A2996 RMK TCU6AC1CI1 CB EMBD SH N SLP150

CYXE;2010-06-22 23:00;CYXE 222300Z 09007KT 15SM FEW050TCU SCT065 OVC300 23/11 A2997 RMK TCU2SC2CI2 CB EMBD N-E SLP153

CYXE;2010-06-23 00:00;CYXE 230000Z 36008KT 15SM SCT120 OVC300 23/12 A2998 RMK AC3CI2 CB TOPS S + NW SLP156

CYXE;2010-06-23 01:00;CYXE 230100Z 02004KT 15SM BKN120 BKN300 22/13 A2999 RMK AC5CI1 CB TOPS DIST SW-NW SLP159

CYXE;2010-06-23 02:00;CYXE 230200Z 07002KT 15SM FEW050CB BKN120 OVC300 20/14 A3000 RMK CB1ACC5CI2 CB DIST SW-NW SLP164

CYXE;2010-06-23 02:40;CYXE 230240Z 35006KT 15SM -SHRA SCT050CB BKN120 OVC300 18/ RMK CB3ACC3CI1 LTNG SW-NW

CYXE;2010-06-23 03:00;CYXE 230300Z 32015KT 15SM -SHRA SCT050CB BKN100 OVC300 18/15 A3003 RMK CB3ACC3CI1 LTNG DIST SW SLP174

CYXE;2010-06-23 03:44;CYXE 230344Z 36003KT 15SM TSRA SCT050CB BKN100 BKN300 16/ RMK CB3ACC2CI1

CYXE;2010-06-23 04:00;CYXE 230400Z 11004KT 15SM -SHRA FEW050CB BKN100 BKN300 16/15 A3002 RETSRA RMK CB2ACC2CI2 LTNG DIST SW SLP170

CYXE;2010-06-23 04:10;CYXE 230410Z 31003KT 15SM FEW050CB BKN100 BKN300 15/ RMK CB2ACC2CI2

CYXE;2010-06-23 05:00;CYXE 230500Z 24004KT 15SM BKN093 BKN300 16/16 A3004 RMK ACC5CI2 SLP178

CYXE;2010-06-23 06:00;CYXE 230600Z 28002KT 15SM OVC088 15/15 A3003 RMK AC8 SLP174

CYXE;2010-06-23 07:00;CYXE 230700Z 34006KT 8SM SCT084 BKN250 14/14 A3003 RMK AC3CI2 BR SLP174

CYXE;2010-06-23 08:00;CYXE 230800Z 31004KT 6SM BR SCT077 SCT250 13/13 A3005 RMK AC3CI1 SLP179

CYXE;2010-06-23 09:00;CYXE 230900Z 32004KT 6SM BR BKN067 14/14 A3005 RMK AC7 SLP182

CYXE;2010-06-23 10:00;CYXE 231000Z 33005KT 6SM BR SCT072 BKN250 13/13 A3006 RMK AC2CI2 SLP185

CYXE;2010-06-23 11:00;CYXE 231100Z 34004KT 4SM BR SCT081 BKN250 12/12 A3009 RMK AC2CI1 SLP192

CYXE;2010-06-23 12:00;CYXE 231200Z 34003KT 6SM BR FEW039 SCT085 OVC250 13/13 A3010 RMK SC1AC2CI2 SLP198

CYXE;2010-06-23 13:00;CYXE 231300Z 04004KT 15SM SCT110 OVC250 14/13 A3010 RMK AC2CI2 SLP199

CYXE;2010-06-23 14:00;CYXE 231400Z 06007KT 15SM FEW110 FEW250 17/13 A3010 RMK AC1CI0 SLP200

CYXE;2010-06-23 15:00;CYXE 231500Z CCA 07009KT 15SM FEW110 FEW300 18/12 A3011 RMK AC1CI0 SLP202

CYXE;2010-06-23 16:00;CYXE 231600Z 08008KT 15SM FEW110 FEW300 20/11 A3011 RMK AC1CI0 SLP203

CYXE;2010-06-23 17:00;CYXE 231700Z 08007KT 15SM FEW110 FEW300 20/11 A3011 RMK AC1CI0 SLP202

CYXE;2010-06-23 18:00;CYXE 231800Z 07005KT 15SM FEW040 BKN300 21/11 A3010 RMK CU1CI1 SLP200

CYXE;2010-06-23 19:00;CYXE 231900Z 04007KT 15SM FEW045 BKN300 22/11 A3010 RMK CU2CI0 SLP199

CYXE;2010-06-23 20:00;CYXE 232000Z 33005KT 15SM SCT045 BKN300 22/12 A3009 RMK CU3CI1 SLP196

CYXE;2010-06-23 21:00;CYXE 232100Z 36005KT 15SM SCT058 BKN300 22/12 A3009 RMK CU4CI0 SLP195

CYXE;2010-06-23 22:00;CYXE 232200Z 34004KT 15SM SCT055 BKN300 23/12 A3009 RMK CU4CI0 SLP194

CYXE;2010-06-23 23:00;CYXE 232300Z 19002KT 15SM FEW053 BKN300 22/11 A3007 RMK CU2CI0 SLP190

CYXE;2010-06-24 00:00;CYXE 240000Z 34004KT 15SM FEW050 SCT300 22/11 A3006 RMK CU2CI1 SLP186

CYXE;2010-06-24 01:00;CYXE 240100Z 36003KT 15SM FEW050 BKN300 22/11 A3006 RMK CU1CI2 SLP185

CYXE;2010-06-24 02:00;CYXE 240200Z 05002KT 15SM OVC300 21/13 A3005 RMK CI4 SLP182

CYXE;2010-06-24 03:00;CYXE 240300Z 09004KT 15SM SCT150 OVC300 19/12 A3004 RMK AC2CI4 SLP179

CYXE;2010-06-24 04:00;CYXE 240400Z 10006KT 15SM FEW150 OVC300 17/12 A3004 RMK AC2CI2 SLP178

CYXE;2010-06-24 05:00;CYXE 240500Z 07005KT 15SM FEW130 OVC300 16/12 A3004 RMK AC2CI2 SLP178

CYXE;2010-06-24 06:00;CYXE 240600Z 11006KT 15SM FEW130 BKN300 15/12 A3004 RMK AC2CI2 SLP179

CYXE;2010-06-24 07:00;CYXE 240700Z 11006KT 15SM FEW120 BKN280 16/11 A3003 RMK AC2CI2 SLP176

CYXE;2010-06-24 08:00;CYXE 240800Z 14005KT 15SM FEW120 BKN280 15/11 A3002 RMK AC1CI2 SLP173

CYXE;2010-06-24 09:00;CYXE 240900Z 12005KT 15SM BKN280 15/11 A3000 RMK CI2 SLP165

CYXE;2010-06-24 10:00;CYXE 241000Z 13006KT 15SM FEW020 FEW120 OVC280 15/12 A2999 RMK SC1AC1CI2 SLP161

CYXE;2010-06-24 11:00;CYXE 241100Z 09005KT 15SM FEW030 OVC280 14/12 A2997 RMK SC1CI2 SLP155

CYXE;2010-06-24 12:00;CYXE 241200Z 13004KT 15SM FEW030 FEW120 OVC280 16/13 A2997 RMK SC1AC1CI2 SLP152

CYXE;2010-06-24 13:00;CYXE 241300Z 12006KT 15SM FEW030 SCT120 OVC280 17/13 A2995 RMK SC2AC1CI1 SLP147

CYXE;2010-06-24 14:00;CYXE 241400Z 14006KT 15SM SCT060 BKN120 OVC280 18/14 A2996 RMK SC4AC1CI1 SLP149

CYXE;2010-06-24 15:00;CYXE 241500Z 14009KT 15SM BKN090 OVC250 18/15 A2993 RMK AC6CI1 SLP141

CYXE;2010-06-24 15:50;CYXE 241550Z 13007G15KT 15SM VCSH BKN016 BKN060 OVC085 19/ RMK SC5AC2AC1

CYXE;2010-06-24 16:00;CYXE 241600Z 13005KT 15SM VCSH BKN016 BKN060 OVC085 19/16 A2990 RMK SC5AC2AC1 SLP129

CYXE;2010-06-24 16:49;CYXE 241649Z 17008KT 15SM -SHRA BKN016 BKN065 19/ RMK SC5AC2 CB EMBD

CYXE;2010-06-24 17:00;CYXE 241700Z 13007KT 15SM -SHRA BKN016 BKN065 19/16 A2990 RMK SC5AC2 CB EMBD NW-N SLP129

CYXE;2010-06-24 17:35;CYXE 241735Z 14008KT 15SM VCSH BKN019 BKN080 21/ RMK SC5AC1 CB EMBD N

CYXE;2010-06-24 18:00;CYXE 241800Z 13010KT 15SM VCSH FEW019 SCT078 BKN100 22/17 A2988 RMK SC2AC2AC2 SLP124

CYXE;2010-06-24 19:00;CYXE 241900Z 12011KT 15SM FEW035 BKN090 23/15 A2987 RMK CU2AC3 SLP119

CYXE;2010-06-24 20:00;CYXE 242000Z 10011G16KT 15SM FEW020 BKN088 25/16 A2985 RMK SC2AC3 SLP113

CYXE;2010-06-24 21:00;CYXE 242100Z CCA 13012G20KT 15SM SCT050 BKN110 BKN300 26/14 A2983 RMK CU3ACC2CI1 CB EMBD SLP102

CYXE;2010-06-24 22:00;CYXE 242200Z 12013G21KT 15SM FEW040TCU BKN050CB OVC300 24/14 A2978 RMK TCU2CB4CI1 CB SH S-NW NE-E SLP089

CYXE;2010-06-24 22:35;CYXE 242235Z 11015G21KT 15SM TS FEW040 BKN050CB BKN100 OVC300 23/ RMK SC2CB4AC1CI1 LTGICCG SH S-W

CYXE;2010-06-24 22:52;CYXE 242252Z 10013G19KT 15SM -TSRA BKN050CB BKN100 OVC300 23/ RMK CB6AC1CI1 LTGICCG

CYXE;2010-06-24 23:00;CYXE 242300Z 10012KT 15SM -TSRA BKN050CB OVC300 23/15 A2978 RMK CB7CI1 LTGICCG SLP088

CYXE;2010-06-24 23:05;CYXE 242305Z 18012G19KT 8SM TSRA OVC045CB 19/ RMK CB8 HAIL RPTD SE PART OF CITY 12MM LGTNG ALL KINDS ALL QUADS

CYXE;2010-06-24 23:09;CYXE 242309Z 11014G25KT 6SM +TSRA BKN040CB OVC100 20/ RMK CB7AC1 LTG

CYXE;2010-06-24 23:27;CYXE 242327Z 14004G15KT 15SM -TSRA FEW025 BKN040CB OVC090 16/ RERA RMK SC2CB6AC1 LTG CB MVG E+N

CYXE;2010-06-24 23:38;CYXE 242338Z 05010KT 15SM TS FEW025 BKN040CB OVC090 16/ RERA RMK SC2CB6AC1 LTG CB W-SE

CYXE;2010-06-25 00:00;CYXE 250000Z 12008KT 15SM TS VCSH BKN040CB OVC090 16/15 A2982 RERA RMK CB7AC1 LTGCGIC SLP104

CYXE;2010-06-25 00:01;CYXE 250001Z 13015KT 1SM R09/4500VP6000FT/D +TSRA OVC030CB 16/ RMK CB8 LTGCGIC

CYXE;2010-06-25 00:23;CYXE 250023Z 06009KT 15SM -TSRA BKN030CB OVC090 18/ RERA RMK CB7AC1 LTGCGIC W-E

CYXE;2010-06-25 01:00;CYXE 250100Z 06012G17KT 15SM TS VCSH BKN040CB BKN065 OVC090 18/17 A2980 RERA RMK CB5SC2AC1 SLP099

CYXE;2010-06-25 01:35;CYXE 250135Z 09009KT 15SM SCT050CB BKN065 OVC300 18/ RETS RMK CB3SC3CI1 SH S-NW /R20/

CYXE;2010-06-25 02:00;CYXE 250200Z 12011KT 15SM TS SCT050CB OVC070 18/16 A2979 RMK CB4AC4 SH SE-W NW SLP094

CYXE;2010-06-25 02:36;CYXE 250236Z 14010KT 15SM -TSRA BKN050CB OVC080 17/ RMK CB6AC2

CYXE;2010-06-25 03:00;CYXE 250300Z 15009KT 15SM -TSRA BKN040CB OVC080 16/14 A2978 RMK CB6AC2 CB LTGIC E-S W SLP089

CYXE;2010-06-25 04:00;CYXE 250400Z 15012KT 15SM -TSRA BKN035CB OVC070 16/15 A2976 RMK CB6AC2 LTGIC SLP082

CYXE;2010-06-25 05:00;CYXE 250500Z 15011KT 15SM -TSRA BKN035CB OVC070 16/15 A2977 RMK CB7AC1 LTGICCG E-S-W SLP087

CYXE;2010-06-25 06:00;CYXE 250600Z 16012KT 15SM -TSRA SCT033CB BKN080 17/14 A2976 RMK CB4AC2 LTGICCG E-S SLP080

CYXE;2010-06-25 06:09;CYXE 250609Z 16015KT 15SM -SHRA SCT016 BKN089 RETS RMK CU3AC2

CYXE;2010-06-25 06:48;CYXE 250648Z 16012G17KT 15SM FEW032 SCT075 17/ RETS RMK CU2AC2

CYXE;2010-06-25 07:00;CYXE 250700Z 16011G17KT 15SM FEW030 SCT075 17/14 A2974 RETS RMK CU2AC2 SLP073

CYXE;2010-06-25 08:00;CYXE 250800Z 16010G17KT 15SM FEW075 BKN280 17/14 A2974 RMK AC1CI1 SLP074

CYXE;2010-06-25 09:00;CYXE 250900Z 15005KT 15SM FEW075 SCT280 16/14 A2974 RMK AC1CI1 SLP073

CYXE;2010-06-25 10:00;CYXE 251000Z 13004KT 15SM FEW080 BKN300 14/13 A2974 RMK AC1CI1 SLP071

CYXE;2010-06-25 11:00;CYXE 251100Z 11004KT 15SM FEW080 BKN300 13/13 A2973 RMK ACC1CI1 SLP070

CYXE;2010-06-25 12:00;CYXE 251200Z 09006KT 15SM FEW080 FEW160 BKN300 15/15 A2972 RMK AC1AC1CI2 SLP072

CYXE;2010-06-25 13:00;CYXE 251300Z CCA 08002KT 15SM BKN013 16/15 A2975 RMK SC7 SLP080

CYXE;2010-06-25 14:00;CYXE 251400Z 08007KT 15SM BKN011 BKN120 17/15 A2973 RMK SC5AC2 SLP073

CYXE;2010-06-25 15:00;CYXE 251500Z 08008KT 15SM FEW011 BKN120 18/16 A2972 RMK ST2AC1 SLP070

CYXE;2010-06-25 15:26;CYXE 251526Z 00000KT 15SM OVC011 19/ RMK SC8

CYXE;2010-06-25 15:44;CYXE 251544Z 02008KT 15SM -SHRA OVC011 18/ RMK SC8

CYXE;2010-06-25 16:00;CYXE 251600Z 09004KT 15SM -SHRA OVC011 18/17 A2973 RMK SC8 SLP073

CYXE;2010-06-25 16:16;CYXE 251616Z 08005KT 15SM OVC013 19/ RMK SC8

CYXE;2010-06-25 17:00;CYXE 251700Z 09006KT 15SM OVC015 20/17 A2972 RMK SC8 SLP070

CYXE;2010-06-25 18:00;CYXE 251800Z 33006KT 15SM OVC015 20/17 A2974 RMK SC8 SLP075

CYXE;2010-06-25 19:00;CYXE 251900Z 36010KT 15SM BKN020 BKN300 20/18 A2974 RMK SC5CI0 SLP075

CYXE;2010-06-25 20:00;CYXE 252000Z 36007KT 15SM BKN015 BKN300 21/18 A2974 RMK SC5CI0 SLP074

CYXE;2010-06-25 21:00;CYXE 252100Z 33006KT 15SM BKN016 BKN300 23/18 A2973 RMK CU5CI0 SLP070

CYXE;2010-06-25 22:00;CYXE 252200Z 29010KT 15SM SCT024 BKN300 24/17 A2973 RMK CU4CI1 SLP069

CYXE;2010-06-25 23:00;CYXE 252300Z 30010KT 15SM SCT036 BKN300 24/15 A2972 RMK CU3CI1 SLP067

CYXE;2010-06-26 00:00;CYXE 260000Z 30009KT 15SM FEW036 SCT300 25/15 A2970 RMK CU2CI1 CB DIST E SLP061

CYXE;2010-06-26 01:00;CYXE 260100Z 30007KT 15SM FEW036 FEW300 24/14 A2970 RMK CU1CI1 SLP061

CYXE;2010-06-26 02:00;CYXE 260200Z 33005KT 15SM FEW035 FEW300 23/15 A2971 RMK SC1CI1 SLP062

CYXE;2010-06-26 03:00;CYXE 260300Z 35002KT 15SM FEW035 FEW300 21/14 A2971 RMK SC1CI1 SLP063

CYXE;2010-06-26 04:00;CYXE 260400Z 11003KT 15SM BKN098 BKN300 19/15 A2972 RMK AC5CI1 SLP066

CYXE;2010-06-26 05:00;CYXE 260500Z 13005KT 15SM SCT074 BKN300 19/14 A2972 RMK AC4CI0 LTNG DIST W SLP066

CYXE;2010-06-26 06:00;CYXE 260600Z 17006KT 15SM SCT070CB BKN300 18/15 A2972 RMK CB3CI0 LTNG W-N SLP068

CYXE;2010-06-26 07:00;CYXE 260700Z 03009G17KT 15SM BKN050 BKN300 17/13 A2973 RMK SC5CI0 SLP072

CYXE;2010-06-26 08:00;CYXE 260800Z 09006KT 15SM FEW050 BKN070 15/13 A2973 RMK SC2AC2 LTNG DSTNT W SLP070

CYXE;2010-06-26 09:00;CYXE 260900Z 17006KT 15SM SCT050 BKN070 15/13 A2972 RMK SC3AC2 SLP068

CYXE;2010-06-26 10:00;CYXE 261000Z 14006KT 15SM FEW050 BKN070 15/13 A2968 RMK SC2AC2 SLP056

CYXE;2010-06-26 11:00;CYXE 261100Z 01005KT 15SM FEW050 BKN090 15/13 A2972 RMK SC2AC5 SLP068

CYXE;2010-06-26 12:00;CYXE 261200Z 31002KT 15SM VCSH FEW020 FEW050 BKN086 15/14 A2973 RMK SC1SC1AC5 LTNG DSTNT S SLP071

CYXE;2010-06-26 12:57;CYXE 261257Z 05004KT 15SM -SHRA BKN050 BKN090 15/ RMK SC5AC2 LTNG DSTNT SE

CYXE;2010-06-26 13:00;CYXE 261300Z 09003KT 15SM -SHRA BKN046 BKN090 15/14 A2972 RMK SC5AC2 LTNG DSTNT SE SLP067

CYXE;2010-06-26 13:45;CYXE 261345Z 33004KT 15SM BKN050 BKN090 16/ RMK SC5AC1

CYXE;2010-06-26 14:00;CYXE 261400Z 32005KT 15SM SCT050 BKN078 17/14 A2972 RMK SC3AC2 SLP068

CYXE;2010-06-26 15:00;CYXE 261500Z 09003KT 15SM FEW050 FEW090 SCT300 19/14 A2971 RMK SC1AC2CI0 SLP064

CYXE;2010-06-26 16:00;CYXE 261600Z 24004KT 15SM FEW020 BKN075 BKN300 21/15 A2973 RMK CU1AC4CI0 OBS TAKEN +09 SLP069

CYXE;2010-06-26 17:00;CYXE 261700Z 28006KT 15SM FEW024 SCT075 21/15 A2973 RMK CU2AC1 SLP069

CYXE;2010-06-26 18:00;CYXE 261800Z 30012KT 15SM SCT032 22/14 A2973 RMK CU3 SLP071

CYXE;2010-06-26 19:00;CYXE 261900Z 30011KT 15SM BKN030 23/15 A2973 RMK CU5 OBS TAKEN +11 SLP070

CYXE;2010-06-26 20:00;CYXE 262000Z 30011G16KT 15SM BKN036 22/13 A2972 RMK CU5 OBS TAKEN +06 SLP067

CYXE;2010-06-26 21:00;CYXE 262100Z 29013KT 15SM SCT047 24/13 A2971 RMK CU4 SLP065

CYXE;2010-06-26 22:00;CYXE 262200Z 30012KT 15SM SCT049 23/13 A2971 RMK CU4 SLP065

CYXE;2010-06-26 23:00;CYXE 262300Z 29006G15KT 15SM BKN049 22/12 A2970 RMK CU6 TCU ASOCTD SLP061

CYXE;2010-06-26 23:36;CYXE 262336Z 27017KT 15SM -SHRA BKN049TCU 19/ RMK TCU6

CYXE;2010-06-26 23:56;CYXE 262356Z 28023G28KT 15SM BKN049TCU BKN100 18/ RMK TCU5AC2

CYXE;2010-06-27 00:00;CYXE 270000Z 28019G27KT 15SM BKN049TCU BKN100 17/12 A2973 RMK TCU6AC1 SLP075

CYXE;2010-06-27 00:07;CYXE 270007Z 28012G25KT 15SM -SHRA FEW018CB BKN045TCU BKN100 17/ RMK CB2TCU3AC1 LTNG DIST N

CYXE;2010-06-27 01:00;CYXE 270100Z 33010KT 15SM FEW045TCU SCT078 BKN300 17/11 A2971 RMK TCU2AC2CI0 SLP068

CYXE;2010-06-27 02:00;CYXE 270200Z 26007KT 15SM FEW045 FEW100 SCT300 16/11 A2972 RMK SC1AC1CI1 SLP071

CYXE;2010-06-27 03:00;CYXE 270300Z 30010KT 15SM FEW032 FEW078 SCT300 16/12 A2972 RMK SC1AC1CI1 SLP069

CYXE;2010-06-27 04:00;CYXE 270400Z 30008KT 15SM FEW035 FEW100 FEW300 15/12 A2974 RMK SC1AC1CI0 SLP074

CYXE;2010-06-27 05:00;CYXE 270500Z 27007KT 15SM BKN070 15/12 A2975 RMK AC6 SLP079

CYXE;2010-06-27 06:00;CYXE 270600Z 25006KT 15SM BKN070 14/12 A2975 RMK AC6 SLP079

CYXE;2010-06-27 07:00;CYXE 270700Z 27007KT 15SM SCT045 BKN083 14/11 A2975 RMK SC3AC4 SLP078

CYXE;2010-06-27 08:00;CYXE 270800Z 28007KT 15SM BKN042 BKN080 14/11 A2975 RMK SC5AC2 SLP079

CYXE;2010-06-27 09:00;CYXE 270900Z 29005KT 15SM SCT062 BKN100 14/11 A2975 RMK SC3AC3 SLP078

CYXE;2010-06-27 10:00;CYXE 271000Z 27007KT 15SM -SHRA BKN032 BKN095 13/13 A2974 RMK CU5AC2 SLP076

CYXE;2010-06-27 11:00;CYXE 271100Z 32008KT 15SM -SHRA SCT032 BKN068 14/12 A2975 RMK CU4AC3 SLP077

CYXE;2010-06-27 11:39;CYXE 271139Z 29005KT 15SM FEW050 BKN072 14/ RMK CU2AC4

CYXE;2010-06-27 12:00;CYXE 271200Z 28008KT 15SM VCSH FEW040 BKN072 14/13 A2976 RMK CU2AC4 SLP085

CYXE;2010-06-27 13:00;CYXE 271300Z 30006KT 15SM VCSH SCT040 BKN072 14/13 A2978 RMK SC3AC2 SLP091

CYXE;2010-06-27 14:00;CYXE 271400Z 32010KT 15SM FEW040 SCT080 SCT300 16/13 A2978 RMK SC2AC2CI0 SLP093

CYXE;2010-06-27 15:00;CYXE 271500Z 31009KT 15SM FEW020 FEW080 18/14 A2980 RMK CU1AC2 SLP097

CYXE;2010-06-27 16:00;CYXE 271600Z 32010KT 15SM FEW020 BKN082 18/13 A2981 RMK CU2AC4 FEW TCU SLP101

CYXE;2010-06-27 17:00;CYXE 271700Z 33009KT 15SM SCT024 SCT080 20/14 A2982 RMK CU3AC1 SLP103

CYXE;2010-06-27 18:00;CYXE 271800Z 34008KT 15SM FEW030 FEW080 21/15 A2983 RMK CU2AC1 SLP105

CYXE;2010-06-27 19:00;CYXE 271900Z 31010KT 15SM BKN035 BKN080 23/14 A2983 RMK CU5AC1 SLP105

CYXE;2010-06-27 20:00;CYXE 272000Z CCA 34010KT 15SM SCT040 BKN100 23/15 A2982 RMK CU4AC1 FEW TCU SLP104

CYXE;2010-06-27 21:00;CYXE 272100Z 07006KT 15SM BKN030 22/15 A2983 RMK CU6 TCU ASOCTD SLP106

CYXE;2010-06-27 22:00;CYXE 272200Z 00000KT 15SM BKN030 22/16 A2983 RMK CU5 TCU ASOCTD SLP106

CYXE;2010-06-27 23:00;CYXE 272300Z 02005KT 15SM FEW059 SCT120 24/15 A2984 RMK CU2AC1 TCU ASOCTD SLP109

CYXE;2010-06-28 00:00;CYXE 280000Z 09010KT 15SM FEW050TCU 23/15 A2984 RMK TCU2 SLP108

CYXE;2010-06-28 01:00;CYXE 280100Z 09012KT 15SM FEW050TCU 21/15 A2986 RMK TCU2 SLP114

CYXE;2010-06-28 02:00;CYXE 280200Z 13004KT 15SM FEW072 FEW300 21/13 A2985 RMK AC2CI0 SLP113

CYXE;2010-06-28 03:00;CYXE 280300Z 11006KT 15SM FEW070 SCT300 18/12 A2986 RMK AC2CI0 SLP115

CYXE;2010-06-28 04:00;CYXE 280400Z 13009KT 15SM FEW070 FEW300 18/14 A2986 RMK AC1CI0 SH W SLP117

CYXE;2010-06-28 05:00;CYXE 280500Z 14009KT 15SM FEW070 FEW300 18/14 A2987 RMK AC2CI0 SH SW-NW SLP121

CYXE;2010-06-28 05:41;CYXE 280541Z 15010G15KT 15SM -SHRA BKN075 BKN300 18/ RMK ACC5CI0

CYXE;2010-06-28 06:00;CYXE 280600Z 14011KT 15SM VCSH BKN075 BKN300 17/14 A2988 RMK ACC5CI1 SLP123

CYXE;2010-06-28 07:00;CYXE 280700Z 16010G15KT 15SM SCT080 BKN300 17/14 A2988 RMK AC3CI2 SLP123

CYXE;2010-06-28 08:00;CYXE 280800Z 15009KT 15SM SCT080 BKN300 17/14 A2989 RMK AC3CI2 SLP124

CYXE;2010-06-28 09:00;CYXE 280900Z 15006KT 15SM SCT090 BKN300 16/14 A2988 RMK AC3CI2 SLP124

CYXE;2010-06-28 10:00;CYXE 281000Z 15006KT 15SM VCSH BKN085 BKN300 16/14 A2989 RMK ACC4CI1 SLP126

CYXE;2010-06-28 11:00;CYXE 281100Z 14006KT 15SM SCT090 BKN300 15/14 A2990 RMK ACC2CI2 SLP129

CYXE;2010-06-28 12:00;CYXE 281200Z 16008KT 15SM SCT090 BKN300 15/14 A2990 RMK ACC3CI1 SLP130

CYXE;2010-06-28 13:00;CYXE 281300Z 14007KT 15SM SCT090 BKN300 17/15 A2990 RMK ACC3CI1 SLP130

CYXE;2010-06-28 14:00;CYXE 281400Z 15011KT 15SM SCT085 BKN300 18/15 A2990 RMK ACC4CI0 SLP129

CYXE;2010-06-28 15:00;CYXE 281500Z 16011KT 15SM SCT085 BKN300 21/15 A2990 RMK ACC4CI1 SLP127

CYXE;2010-06-28 16:00;CYXE 281600Z 14012KT 15SM SCT080 BKN300 21/16 A2989 RMK AC3CS2 ACC ASOCTD OBS TAKEN +09 SLP124

CYXE;2010-06-28 17:00;CYXE 281700Z 13013G18KT 15SM SCT080 BKN300 23/16 A2988 RMK AC3CI1 ACC ASOCTD CONTRAILS SLP122

CYXE;2010-06-28 18:00;CYXE 281800Z 14014KT 15SM SCT080 BKN300 22/15 A2988 RMK AC4CI1 SLP121

CYXE;2010-06-28 19:00;CYXE 281900Z 16016KT 15SM SCT070 BKN300 25/16 A2988 RMK AC4CI1 ACC ASOCTD SLP122

CYXE;2010-06-28 20:00;CYXE 282000Z 15016G24KT 15SM FEW036 SCT070 BKN300 25/16 A2987 RMK CU1ACC2CI1 OBS TAKEN +08 SLP118

CYXE;2010-06-28 21:00;CYXE 282100Z 14016G21KT 15SM FEW032 FEW070 BKN300 25/17 A2986 RMK CU1ACC1CI2 OBS TAKEN +06 SLP115

CYXE;2010-06-28 22:00;CYXE 282200Z 14014G24KT 15SM FEW032 BKN300 25/17 A2986 RMK CU2CI2 SLP114

CYXE;2010-06-28 23:00;CYXE 282300Z 13017G22KT 15SM FEW032 OVC300 25/17 A2984 RMK CU2CI3 CB TOP S SLP109

CYXE;2010-06-29 00:00;CYXE 290000Z 14016G21KT 15SM FEW068 OVC300 25/17 A2983 RMK CU2CI2 CB TOP SE SLP104

CYXE;2010-06-29 01:00;CYXE 290100Z 15016KT 15SM FEW068TCU BKN300 24/17 A2983 RMK TCU1CI2 SLP104

CYXE;2010-06-29 02:00;CYXE 290200Z 14010G16KT 15SM FEW065TCU BKN300 23/17 A2985 RMK TCU1CI2 SLP109

CYXE;2010-06-29 03:00;CYXE 290300Z 14011G20KT 15SM FEW060 BKN300 22/17 A2987 RMK CU2CI2 SLP115

CYXE;2010-06-29 04:00;CYXE 290400Z 15010KT 15SM FEW084 BKN300 20/16 A2987 RMK AC2CI1 SLP117

CYXE;2010-06-29 05:00;CYXE 290500Z 14008KT 15SM SCT077 BKN300 19/16 A2989 RMK AC3CI1 SLP122

CYXE;2010-06-29 06:00;CYXE 290600Z 14007KT 15SM SCT300 18/16 A2990 RMK CI1 SLP128

CYXE;2010-06-29 07:00;CYXE 290700Z 14008KT 15SM SCT300 17/16 A2991 RMK CI0 SLP130

CYXE;2010-06-29 08:00;CYXE 290800Z 14008KT 15SM SCT300 17/16 A2991 RMK CI0 SLP131

CYXE;2010-06-29 09:00;CYXE 290900Z 14008KT 15SM BKN300 16/15 A2991 RMK CI0 SLP129

CYXE;2010-06-29 10:00;CYXE 291000Z 14008KT 15SM BKN300 16/15 A2991 RMK CI1 SLP129

CYXE;2010-06-29 11:00;CYXE 291100Z 14006KT 15SM BKN300 16/15 A2991 RMK CI1 SLP131

CYXE;2010-06-29 12:00;CYXE 291200Z 13008KT 15SM OVC300 16/15 A2991 RMK CI2 SLP130

CYXE;2010-06-29 13:00;CYXE 291300Z 14009KT 15SM BKN300 16/15 A2991 RMK CI5 SLP130

CYXE;2010-06-29 14:00;CYXE 291400Z 15010KT 15SM BKN300 17/15 A2991 RMK CI4 SLP132

CYXE;2010-06-29 15:00;CYXE 291500Z 15009KT 15SM BKN300 20/17 A2990 RMK CI4 SLP128

CYXE;2010-06-29 16:00;CYXE 291600Z 13010KT 15SM BKN300 22/17 A2990 RMK CI4 SLP126

CYXE;2010-06-29 17:00;CYXE 291700Z 14011KT 15SM BKN300 23/18 A2989 RMK CI4 SLP125

CYXE;2010-06-29 18:00;CYXE 291800Z 13013KT 15SM FEW100 BKN300 24/18 A2988 RMK AC1CI2 SLP121

CYXE;2010-06-29 19:00;CYXE 291900Z 15013KT 15SM FEW100 BKN300 25/18 A2989 RMK AC2CI2 SLP122

CYXE;2010-06-29 20:00;CYXE 292000Z 13015KT 15SM BKN100 BKN300 25/18 A2985 RMK AS6CI2 SLP110

CYXE;2010-06-29 21:00;CYXE 292100Z 13016G22KT 15SM BKN100 BKN300 25/18 A2985 RMK AS6CI2 SLP110

CYXE;2010-06-29 22:00;CYXE 292200Z 13009G18KT 15SM VCSH BKN080 BKN300 25/19 A2986 RMK AC6CI2 CB ASOCTD SLP112

CYXE;2010-06-29 23:00;CYXE 292300Z 12013G18KT 15SM VCSH SCT080 BKN120 25/19 A2984 RMK AC3AC4 SLP106

CYXE;2010-06-30 00:00;CYXE 300000Z 12018G24KT 15SM FEW080 BKN120 26/18 A2982 RMK AC2AC3 SLP098

CYXE;2010-06-30 01:00;CYXE 300100Z 13022KT 15SM FEW080 BKN120 25/18 A2979 RMK AC2AC3 CB DIST SE SLP090

CYXE;2010-06-30 02:00;CYXE 300200Z 12017G24KT 15SM FEW030CB BKN120 BKN300 24/18 A2978 RMK CB2ACC3CI0 SLP087

CYXE;2010-06-30 02:40;CYXE 300240Z 12015G22KT 15SM TS SCT030CB BKN120 26/ RMK CB3ACC3 OCNL LTNG S-W CB MOVG NE

CYXE;2010-06-30 03:00;CYXE 300300Z 12018G26KT 15SM TS SCT030CB BKN120 24/18 A2975 RMK CB3ACC3 OCNL LTNG S-W CB MOVG NE SLP076

CYXE;2010-06-30 03:38;CYXE 300338Z 11021G26KT 15SM -TSRA SCT016 BKN030CB OVC120 22/ RMK SC3CB3ACC2 LTGICCG ALQDS CB OVRHD MOVG NE

CYXE;2010-06-30 04:00;CYXE 300400Z 12018G24KT 15SM -TSRA SCT015 OVC030CB 22/19 A2976 RMK SC3CB5 FQT LTGICCG ALQDS CB OVRHD MOVG SLOLY NE SLP077

CYXE;2010-06-30 04:47;CYXE 300447Z 12018G24KT 6SM TSRA BKN011 OVC030CB 20/ RERA RMK SC5CB3 FQT LTGICCG ALQDS CB OVRHD

CYXE;2010-06-30 05:00;CYXE 300500Z 11018G24KT 6SM TSRA SCT011 OVC020CB 20/19 A2975 RERA RMK SC3CB5 FQT LTGICCG ALQDS CB OVRHD SLP076

CYXE;2010-06-30 05:11;CYXE 300511Z 08018G32KT 6SM +TSRA BKN009 OVC020CB 19/ RMK SF5CB3 FQT LTGICCG

CYXE;2010-06-30 05:39;CYXE 300539Z 07022KT 1SM R09/2000FT/N +TSRAGR BKN009 OVC072CB 18/ RMK SF5CB3 FQT LTGICCG HAIL DIAM 4-5 MM

CYXE;2010-06-30 05:46;CYXE 300546Z 07024KT 6SM TSRA BKN009 OVC072CB 19/ RMK SF5CB3 RERA FQT LTGICCG

CYXE;2010-06-30 05:52;CYXE 300552Z 08022G28KT 6SM -TSRA BKN002 OVC072CB 19/ RMK SF5CB3 RERA FQT LTGICCG

CYXE;2010-06-30 06:00;CYXE 300600Z 08023G30KT 8SM TS BKN002 OVC072CB 19/18 A2974 RMK SF5CB3 FQT LTGICCG RERA SLP071

CYXE;2010-06-30 06:23;CYXE 300623Z 03014G22KT 1SM R09/P6000FT/U +TSRA BKN004 OVC091CB 19/ RMK SF5CB3 FQT LTGICCG

CYXE;2010-06-30 06:27;CYXE 300627Z 05014G22KT 1/2SM R09/1200V1800FT/N +TSRA BKN002 OVC091CB 18/ RMK SF5CB3 FQT LTGICCG ALQDS

CYXE;2010-06-30 06:44;CYXE 300644Z 09016G31KT 3SM R09/3000FT/N TSRA BKN004 OVC057CB 17/ RMK SF5CB3 FQT LTGICCG ALQDS

CYXE;2010-06-30 07:00;CYXE 300700Z 09026G33KT 6SM R09/3000VP6000FT/N -TSRA BKN002 OVC057CB 17/17 A2976 RMK SF5CB3 RERA FQT LTGICCG NW-NE SLP078

CYXE;2010-06-30 07:31;CYXE 300731Z 10030G37KT 12SM -TSRA BKN007 OVC081CB 17/ RMK SF5CB3 LTGICCC N-NE

CYXE;2010-06-30 08:00;CYXE 300800Z 11027G33KT 15SM -TSRA SCT024 BKN081 OVC100 17/16 A2967 RMK ST3AC3AC2 LTGIC NE CB EMBD PRESFR SLP049

CYXE;2010-06-30 08:12;CYXE 300812Z 11021G29KT 15SM SCT034 BKN081 OVC100 16/ RMK ST3AC2AC3 LTGIC DIST E

CYXE;2010-06-30 09:00;CYXE 300900Z 09017G24KT 15SM SCT033 OVC100 18/16 A2971 RMK ST3AC4 SLP061

CYXE;2010-06-30 10:00;CYXE 301000Z 13014KT 15SM SCT100 18/16 A2972 RMK AC3 SLP064

CYXE;2010-06-30 11:00;CYXE 301100Z 13012KT 15SM FEW100 FEW300 16/16 A2968 RMK AC1CI1 SLP053

CYXE;2010-06-30 12:00;CYXE 301200Z 13010KT 15SM FEW100 FEW300 18/16 A2970 RMK AC1CI1 SLP057

CYXE;2010-06-30 13:00;CYXE 301300Z CCA 14012KT 15SM FEW100 FEW300 19/17 A2970 RMK AC1CI1 SLP059

CYXE;2010-06-30 14:00;CYXE 301400Z 13010G15KT 15SM FEW095 SCT300 19/17 A2970 RMK AC2CI0 SLP058

CYXE;2010-06-30 15:00;CYXE 301500Z 14010KT 15SM BKN100 20/18 A2970 RMK AC7 SLP057

CYXE;2010-06-30 16:00;CYXE 301600Z 17008KT 15SM BKN100 21/19 A2970 RMK AC6 SLP058

CYXE;2010-06-30 17:00;CYXE 301700Z 17009KT 15SM BKN100 BKN250 23/20 A2970 RMK AC6CI0 SLP057

CYXE;2010-06-30 18:00;CYXE 301800Z 21008KT 15SM FEW100 BKN250 25/21 A2970 RMK AC2CI1 SLP058

CYXE;2010-06-30 19:00;CYXE 301900Z 22011KT 15SM FEW100 BKN250 26/18 A2971 RMK AC1CI2 SLP061

CYXE;2010-06-30 20:00;CYXE 302000Z CCA 24012KT 15SM FEW100 BKN250 27/15 A2971 RMK AC1CI2 OBS TAKEN +12 SLP061

CYXE;2010-06-30 21:00;CYXE 302100Z 23010KT 15SM FEW100 BKN300 26/16 A2972 RMK AC2CI4 OBS TAKEN +05 SLP064

CYXE;2010-06-30 22:00;CYXE 302200Z 24012KT 15SM FEW070 SCT100 BKN300 26/15 A2972 RMK AC2AC2CI2 SLP065

CYXE;2010-06-30 23:00;CYXE 302300Z 22009KT 15SM FEW070 FEW100 SCT300 27/16 A2972 RMK AC2AC1CI0 SLP063

CYXE;2010-07-01 01:00;CYXE 010100Z 25010KT 15SM FEW080 FEW300 26/15 A2973 RMK AC1CI1 SLP066

CYXE;2010-07-01 02:00;CYXE 010200Z 25009KT 15SM SCT300 25/15 A2974 RMK CI1 SLP071

CYXE;2010-07-01 03:00;CYXE 010300Z 23007KT 15SM BKN300 21/15 A2975 RMK CI1 SLP078

CYXE;2010-07-01 04:00;CYXE 010400Z 22008KT 15SM BKN300 19/14 A2978 RMK CI1 SLP085

CYXE;2010-07-01 05:00;CYXE 010500Z 22007KT 15SM SCT120 BKN300 18/13 A2978 RMK AC2CI2 SLP086

CYXE;2010-07-01 05:22;CYXE 010522Z 31018KT 15SM SCT120 BKN300 17/ RMK AC2CI2

CYXE;2010-07-01 06:00;CYXE 010600Z 31011KT 15SM SCT120 OVC300 15/12 A2981 RMK AC3CI2 SLP098

CYXE;2010-07-01 07:00;CYXE 010700Z 31011KT 15SM BKN120 OVC300 14/11 A2982 RMK AC5CI3 SLP101

CYXE;2010-07-01 08:00;CYXE 010800Z 32010KT 15SM FEW120 SCT300 14/11 A2985 RMK AC2CI1 SLP110

CYXE;2010-07-01 09:00;CYXE 010900Z 33011KT 15SM FEW120 BKN300 13/10 A2987 RMK AC1CI2 SLP118

CYXE;2010-07-01 10:00;CYXE 011000Z 32009KT 15SM FEW120 SCT300 12/10 A2989 RMK AC2CI0 SLP125

CYXE;2010-07-01 11:00;CYXE 011100Z 32013KT 15SM FEW120 SCT300 11/09 A2991 RMK AC2CI0 SLP131

CYXE;2010-07-01 12:00;CYXE 011200Z 33011KT 15SM FEW120 SCT300 11/09 A2992 RMK AC2CI0 SLP136

CYXE;2010-07-01 13:00;CYXE 011300Z 34010KT 15SM FEW120 FEW300 12/09 A2994 RMK AC1CI1 SLP142

CYXE;2010-07-01 14:00;CYXE 011400Z 36006KT 15SM FEW020 SCT100 14/09 A2995 RMK SC2AC1 SLP146

CYXE;2010-07-01 15:00;CYXE 011500Z 02009KT 15SM FEW120 SCT250 16/09 A2995 RMK AC2CI0 SLP148

CYXE;2010-07-01 16:00;CYXE 011600Z 03014KT 15SM FEW120 SCT250 16/09 A2991 RMK AC2CI0 SLP134

CYXE;2010-07-01 17:00;CYXE 011700Z 01009KT 15SM SCT120 SCT250 17/09 A2993 RMK AC3CI0 ACC EMBD SH SW SLP140

CYXE;2010-07-01 18:00;CYXE 011800Z 01007KT 15SM BKN099 BKN250 18/10 A2992 RMK AC6CI0 SLP139

CYXE;2010-07-01 19:00;CYXE 011900Z 04008KT 15SM FEW052 BKN100 18/10 A2990 RMK SC2AC2 SLP131

CYXE;2010-07-01 20:00;CYXE 012000Z 05009KT 15SM FEW055 SCT091 BKN250 20/11 A2989 RMK SC2AC2CI2 SLP128

CYXE;2010-07-01 21:00;CYXE 012100Z 07009KT 15SM FEW050 BKN082 BKN250 21/10 A2987 RMK SC2AC2CI2 SLP121

CYXE;2010-07-01 22:00;CYXE 012200Z 07009KT 15SM BKN088 BKN140 OVC300 21/12 A2984 RMK AC6AC1CI0 SLP113

CYXE;2010-07-01 23:00;CYXE 012300Z 06010KT 15SM SCT066 BKN140 BKN300 21/12 A2981 RMK AC4AC2CI0 SLP103

CYXE;2010-07-02 00:00;CYXE 020000Z 06007KT 15SM FEW040 SCT080 BKN300 22/13 A2979 RMK CU1AC2CI1 SLP095

CYXE;2010-07-02 01:00;CYXE 020100Z 06008KT 15SM FEW050 BKN100 BKN300 21/14 A2977 RMK CU2AC3CI0 SLP089

CYXE;2010-07-02 02:00;CYXE 020200Z 04008KT 15SM FEW100 BKN300 19/14 A2974 RMK AC2CI1 SLP079

CYXE;2010-07-02 03:00;CYXE 020300Z 06007KT 15SM BKN100 BKN300 19/14 A2974 RMK AC5CI0 ACC EMBD SLP074

CYXE;2010-07-02 04:00;CYXE 020400Z 03006KT 15SM FEW030TCU BKN100 BKN300 18/14 A2973 RMK TCU2AC2CI0 SLP072

CYXE;2010-07-02 05:00;CYXE 020500Z 02007KT 15SM FEW030TCU BKN100 BKN300 17/14 A2971 RMK TCU2AC3CI0 CB S SLP066

CYXE;2010-07-02 06:00;CYXE 020600Z 08006KT 15SM FEW030TCU BKN100 BKN300 16/13 A2971 RMK TCU2AC4CI1 LTNG AND CB DIST SE SLP065

CYXE;2010-07-02 07:00;CYXE 020700Z 08005KT 15SM SCT100 BKN300 15/13 A2967 RMK AC4CI2 SLP053

CYXE;2010-07-02 08:00;CYXE 020800Z 08006KT 15SM SCT100 BKN300 14/13 A2968 RMK AC4CI2 SLP055

CYXE;2010-07-02 09:00;CYXE 020900Z 35007KT 15SM FEW100 BKN300 14/13 A2964 RMK AC2CI2 SLP043

CYXE;2010-07-02 10:00;CYXE 021000Z 05006KT 15SM SCT300 13/13 A2964 RMK CI2 SLP043

CYXE;2010-07-02 11:00;CYXE 021100Z 07003KT 15SM SCT300 13/13 A2964 RMK CI2 SLP041

CYXE;2010-07-02 12:00;CYXE 021200Z 04004KT 15SM SCT300 14/13 A2963 RMK CI2 SLP037

CYXE;2010-07-02 13:00;CYXE 021300Z 10002KT 15SM FEW100 SCT300 17/14 A2963 RMK AC1CI1 SLP039

CYXE;2010-07-02 14:00;CYXE 021400Z 11002KT 15SM FEW110 SCT300 17/15 A2962 RMK AC2CI0 SLP036

CYXE;2010-07-02 15:00;CYXE 021500Z 32002KT 15SM FEW110 BKN300 19/16 A2960 RMK AC2CI2 SLP026

CYXE;2010-07-02 16:00;CYXE 021600Z 34004KT 15SM FEW110 BKN300 20/17 A2957 RMK AC1CI2 SLP017

CYXE;2010-07-02 17:00;CYXE 021700Z 07003KT 15SM FEW030 FEW110 BKN300 24/18 A2957 RMK CU1AC1CI1 SLP017

CYXE;2010-07-02 18:00;CYXE 021800Z 06006KT 15SM FEW030 SCT110 BKN300 23/18 A2956 RMK CU2AC2CI4 SLP011

CYXE;2010-07-02 19:00;CYXE 021900Z CCA 05015KT 15SM FEW030 BKN110 BKN300 24/19 A2949 RMK CU2AC2CI2 PRESFR SLP989

CYXE;2010-07-02 20:00;CYXE 022000Z 09010KT 15SM FEW030 BKN100 BKN300 23/18 A2950 RMK CU2AC3CI2 SLP993

CYXE;2010-07-02 21:00;CYXE 022100Z CCA 09003KT 15SM -SHRA FEW030 BKN078 OVC300 23/19 A2950 RMK CU2AC4CI2 SLP994

CYXE;2010-07-02 21:07;CYXE 022107Z 31005KT 10SM -TSRA SCT017CB OVC078 22/ RMK CB3AC5 LTNG W

CYXE;2010-07-02 21:34;CYXE 022134Z 29013KT 2 1/2SM -TSRA BKN006CB OVC077 20/ RMK CB5AC3

CYXE;2010-07-02 22:00;CYXE 022200Z 26010G19KT 8SM -TSRA BKN006CB OVC062 18/16 A2952 RMK CB6SC2 SLP001

CYXE;2010-07-02 22:23;CYXE 022223Z 30022KT 12SM -SHRA FEW012 BKN020 OVC060 17/ RETS RMK SF1SC6SC2 CU EMBD

CYXE;2010-07-02 23:00;CYXE 022300Z 32021G29KT 15SM -SHRA FEW012 BKN020 BKN060 16/15 A2953 RETS RMK SF1SC4SC2 SLP004

CYXE;2010-07-02 23:08;CYXE 022308Z 34018G26KT 15SM FEW008 SCT020 SCT060 BKN300 16/ RMK SF1SC2SC1CI0

CYXE;2010-07-03 00:00;CYXE 030000Z 34014KT 15SM FEW012 SCT060 BKN080 16/15 A2953 RMK SF2SC2AC1 SLP008

CYXE;2010-07-03 01:00;CYXE 030100Z 32008KT 15SM FEW012 FEW067 FEW300 19/15 A2953 RMK SF1AC1CI0 SLP008

CYXE;2010-07-03 02:00;CYXE 030200Z 30009KT 15SM BKN020 18/15 A2955 RMK SC6 SLP014

CYXE;2010-07-03 03:00;CYXE 030300Z 29010KT 15SM BKN022 17/14 A2958 RMK SC7 SLP020

CYXE;2010-07-03 04:00;CYXE 030400Z 24005KT 15SM SCT022 BKN045 BKN071 16/14 A2960 RMK SC3SC2AC2 SLP027

CYXE;2010-07-03 05:00;CYXE 030500Z 25007KT 15SM FEW020 BKN064 BKN090 15/14 A2960 RMK SC2SC2AC2 SLP028

CYXE;2010-07-03 06:00;CYXE 030600Z 27008KT 15SM SCT074 BKN090 14/14 A2958 RMK AC3AC2 SLP020

CYXE;2010-07-03 07:00;CYXE 030700Z 27005KT 15SM SCT075 14/13 A2959 RMK AC4 SLP022

CYXE;2010-07-03 08:00;CYXE 030800Z 27006KT 15SM FEW075 SCT300 13/13 A2958 RMK AC2CI0 SLP021

CYXE;2010-07-03 09:00;CYXE 030900Z 27006KT 15SM FEW075 SCT300 14/13 A2960 RMK AC2CI0 SLP028

CYXE;2010-07-03 10:00;CYXE 031000Z 30013KT 15SM SCT075 SCT300 13/12 A2960 RMK AC3CI0 SLP027

CYXE;2010-07-03 11:00;CYXE 031100Z 30010KT 15SM FEW075 12/11 A2962 RMK AC2 SLP035

CYXE;2010-07-03 12:00;CYXE 031200Z 30008KT 15SM FEW075 12/11 A2964 RMK AC1 SLP045

CYXE;2010-07-03 13:00;CYXE 031300Z 28007KT 15SM FEW300 13/11 A2965 RMK CI0 SLP048

CYXE;2010-07-03 14:00;CYXE 031400Z 29006KT 15SM SCT300 14/11 A2965 RMK CI1 SLP047

CYXE;2010-07-03 15:00;CYXE 031500Z 21004KT 15SM FEW100 FEW300 16/12 A2967 RMK AC1CI1 SLP054

CYXE;2010-07-03 16:00;CYXE 031600Z 25009KT 15SM FEW100 FEW300 18/12 A2967 RMK AC1CI1 SLP052

CYXE;2010-07-03 17:00;CYXE 031700Z 24011KT 15SM FEW035 FEW300 19/11 A2968 RMK CU1CI1 SLP057

CYXE;2010-07-03 18:00;CYXE 031800Z 25014KT 15SM FEW039 SCT083 SCT300 20/12 A2968 RMK CU2AC1CI0 SLP057

CYXE;2010-07-03 19:00;CYXE 031900Z 27014G20KT 15SM FEW039 SCT300 21/11 A2968 RMK CU2CI1 SLP057

CYXE;2010-07-03 20:00;CYXE 032000Z 26014KT 15SM FEW044 SCT300 22/13 A2969 RMK CU2CI1 SLP061

CYXE;2010-07-03 21:00;CYXE 032100Z 25011G17KT 15SM SCT044 BKN300 22/13 A2969 RMK CU3CI1 SLP059

CYXE;2010-07-03 21:38;CYXE 032138Z 24015G22KT 15SM -SHRA BKN044 BKN160 OVC300 19/ RMK CU5AC1CI0

CYXE;2010-07-03 22:00;CYXE 032200Z 24010KT 15SM BKN046 BKN160 OVC300 21/13 A2969 RMK CU5AC2CI0 SLP059

CYXE;2010-07-03 23:00;CYXE 032300Z 26014G19KT 15SM VCSH BKN049TCU BKN140 19/12 A2969 RMK TCU5AC2 SLP060

CYXE;2010-07-04 00:00;CYXE 040000Z 26017KT 15SM VCSH FEW040TCU SCT130 BKN260 21/11 A2969 RMK TCU2AC1CI1 SLP061

CYXE;2010-07-04 01:00;CYXE 040100Z 26008KT 15SM VCSH SCT040TCU BKN100 BKN260 19/10 A2969 RMK TCU3AC3CI0 SLP059

CYXE;2010-07-04 02:00;CYXE 040200Z 25007KT 15SM VCSH SCT040TCU BKN100 BKN260 19/11 A2969 RMK TCU3AC2CI1 CB W SLP059

CYXE;2010-07-04 03:00;CYXE 040300Z 23007KT 15SM VCSH FEW040TCU SCT100 BKN260 16/12 A2969 RMK TCU2AC2CI1 CB W SLP060

CYXE;2010-07-04 03:49;CYXE 040349Z 28009KT 15SM -SHRA BKN070TCU 16/ RMK TCU6 CB SW

CYXE;2010-07-04 04:00;CYXE 040400Z 28008KT 15SM -SHRA BKN070TCU BKN100 16/11 A2972 RMK TCU6AC2 CB SW SLP071

CYXE;2010-07-04 05:00;CYXE 040500Z 24012KT 15SM -SHRA BKN019TCU BKN090 15/12 A2974 RMK TCU5AC2 SLP078

CYXE;2010-07-04 05:23;CYXE 040523Z 23012KT 15SM BKN024 BKN090 14/ RMK SC5AC1

CYXE;2010-07-04 06:00;CYXE 040600Z 24011KT 15SM FEW020 SCT055 BKN090 14/11 A2973 RMK SC2SC2AC2 SLP074

CYXE;2010-07-04 07:00;CYXE 040700Z 25009KT 15SM SCT055 13/11 A2972 RMK SC3 SLP070

CYXE;2010-07-04 08:00;CYXE 040800Z 26009KT 15SM SCT080 13/11 A2971 RMK AC3 SLP068

CYXE;2010-07-04 09:00;CYXE 040900Z 27005KT 15SM FEW080 12/11 A2971 RMK AC2 SLP067

CYXE;2010-07-04 10:00;CYXE 041000Z 21006KT 15SM FEW080 12/11 A2972 RMK AC2 SLP071

CYXE;2010-07-04 11:00;CYXE 041100Z 24005KT 15SM SCT095 11/11 A2974 RMK ACC3 SLP075

CYXE;2010-07-04 12:00;CYXE 041200Z 24006KT 15SM BKN095 12/12 A2974 RMK ACC5 SLP078

CYXE;2010-07-04 13:00;CYXE 041300Z 25005KT 15SM SCT095 14/13 A2974 RMK ACC4 SLP077

CYXE;2010-07-04 14:00;CYXE 041400Z 25006KT 15SM FEW095 16/12 A2973 RMK AC2 SLP074

CYXE;2010-07-04 15:00;CYXE 041500Z 26004KT 15SM FEW095 FEW300 18/13 A2973 RMK AC1CI0 SLP073

CYXE;2010-07-04 16:00;CYXE 041600Z 34004KT 15SM FEW095 FEW300 20/14 A2972 RMK AC1CI0 SLP071

CYXE;2010-07-04 17:00;CYXE 041700Z 25003KT 15SM FEW095 FEW300 20/13 A2971 RMK AC1CI0 SLP067

CYXE;2010-07-04 18:00;CYXE 041800Z 22010KT 15SM FEW100 BKN300 22/13 A2969 RMK AC1CI1 SLP059

CYXE;2010-07-04 19:00;CYXE 041900Z 23011KT 15SM FEW046 BKN300 22/13 A2968 RMK CU2CI1 SLP054

CYXE;2010-07-04 20:00;CYXE 042000Z 20011KT 15SM FEW048 FEW100 BKN300 24/13 A2965 RMK CU1AC1CI1 SLP046

CYXE;2010-07-04 21:00;CYXE 042100Z 22015KT 15SM FEW050 FEW100 BKN300 24/12 A2964 RMK CU1AC1CI1 SLP042

CYXE;2010-07-04 22:00;CYXE 042200Z 23014G20KT 15SM FEW067TCU FEW100 SCT300 25/12 A2963 RMK TCU2AC1CI0 CB SW AND N SLP038

CYXE;2010-07-04 23:00;CYXE 042300Z 22014G20KT 15SM SCT062TCU BKN100 BKN300 23/13 A2963 RMK TCU3AC2CI0 CB S AND N SLP037

CYXE;2010-07-05 00:21;CYXE 050021Z 23009KT 15SM -SHRA SCT062TCU BKN090 BKN300 20/ RMK TCU4AC2CI0

CYXE;2010-07-05 00:46;CYXE 050046Z 26004KT 15SM FEW060TCU SCT090 BKN300 RMK TCU2AC2CI0 CB W-NE

CYXE;2010-07-05 01:00;CYXE 050100Z 27006KT 15SM FEW069TCU SCT090 BKN300 22/14 A2962 RMK TCU2AC2CI0 CB W-NE SLP034

CYXE;2010-07-05 02:00;CYXE 050200Z 34010KT 15SM FEW070TCU FEW100 BKN300 18/12 A2962 RMK TCU2AC1CI1 SLP035

CYXE;2010-07-05 03:00;CYXE 050300Z 06007KT 15SM SCT070TCU BKN300 17/12 A2962 RMK TCU4CI1 SLP034

CYXE;2010-07-05 04:00;CYXE 050400Z 09007KT 15SM VCSH BKN084TCU BKN300 16/13 A2961 RMK TCU5CI1 SLP033

CYXE;2010-07-05 05:00;CYXE 050500Z 10006KT 15SM VCSH BKN078TCU BKN300 17/13 A2962 RMK TCU5CI1 CB NE SLP034

CYXE;2010-07-05 06:00;CYXE 050600Z 06010KT 15SM SCT080 15/12 A2961 RMK AC4 OCNL LTNG DIST E + W SLP029

CYXE;2010-07-05 07:00;CYXE 050700Z 36003KT 15SM BKN085 14/13 A2961 RMK AC5 SLP031

CYXE;2010-07-05 08:00;CYXE 050800Z 32010KT 15SM BKN085 15/12 A2962 RMK AC6 SLP033

CYXE;2010-07-05 09:00;CYXE 050900Z 34008KT 15SM BKN110 14/13 A2961 RMK AC6 SLP031

CYXE;2010-07-05 10:00;CYXE 051000Z 36007KT 15SM BKN087 14/12 A2960 RMK AC7 SLP025

CYXE;2010-07-05 10:40;CYXE 051040Z 27006KT 15SM -SHRA SCT055 OVC075 14/ RMK SC3AC5

CYXE;2010-07-05 11:00;CYXE 051100Z 30006KT 15SM -SHRA BKN055 OVC075 14/13 A2961 RMK SC5AC3 SLP029

CYXE;2010-07-05 12:00;CYXE 051200Z 31009KT 15SM VCSH FEW012 BKN045 OVC090 13/13 A2961 RMK SC1SC6AC2 OBS TAKEN +07 SLP031

CYXE;2010-07-05 12:32;CYXE 051232Z 31008KT 15SM -SHRA FEW010 OVC045 13/ RMK SF2SC6

CYXE;2010-07-05 13:00;CYXE 051300Z 31010KT 8SM -SHRA FEW010 OVC032 13/13 A2961 RMK SF2SC6 VIS SW-W 21/2 SLP032

CYXE;2010-07-05 13:46;CYXE 051346Z 32013KT 8SM -SHRA SCT008 OVC025 13/ RMK SF3SC5

CYXE;2010-07-05 14:00;CYXE 051400Z 32014KT 8SM -SHRA SCT009 OVC025 13/13 A2961 RMK SF3SC5 SLP032

CYXE;2010-07-05 14:16;CYXE 051416Z CCA 32012KT 6SM -SHRA BR BKN007 OVC025 13/ RMK SF5SC3

CYXE;2010-07-05 15:00;CYXE 051500Z 32011KT 4SM -RA BR OVC008 13/13 A2962 RMK SF8 SLP039

CYXE;2010-07-05 16:00;CYXE 051600Z 32012KT 5SM -RA BR BKN007 OVC025 13/13 A2962 RMK SF7SC1 SLP039

CYXE;2010-07-05 17:00;CYXE 051700Z 31013KT 4SM -RA BR OVC007 13/13 A2963 RMK SF8 SLP041

CYXE;2010-07-05 18:00;CYXE 051800Z 30013KT 6SM -RA BR OVC007 13/13 A2964 RMK SF8 SLP044

CYXE;2010-07-05 19:00;CYXE 051900Z 30015KT 4SM -RA BR OVC009 13/13 A2964 RMK SF8 SLP046

CYXE;2010-07-05 20:00;CYXE 052000Z 30013KT 4SM -RA BR OVC008 14/13 A2965 RMK SF8 SLP049

CYXE;2010-07-05 21:00;CYXE 052100Z 31011KT 5SM -RA BR OVC007 14/13 A2966 RMK SF8 SLP053

CYXE;2010-07-05 22:00;CYXE 052200Z 31013KT 6SM -RA BR BKN008 OVC035 14/14 A2966 RMK SF6SC2 SLP054

CYXE;2010-07-05 23:00;CYXE 052300Z 31012KT 6SM -RA BR BKN008 OVC038 14/14 A2967 RMK SF6SC2 SLP057

CYXE;2010-07-06 00:00;CYXE 060000Z 32011KT 6SM -RA BR BKN010 OVC037 15/14 A2968 RMK SF6SC2 SLP059

CYXE;2010-07-06 01:00;CYXE 060100Z 31010KT 10SM -RA BKN008 OVC020 14/14 A2969 RMK SF5SC3 SLP061

CYXE;2010-07-06 01:40;CYXE 060140Z 31012KT 15SM FEW008 BKN028 OVC060 14/ RMK SF2SC2SC3

CYXE;2010-07-06 02:00;CYXE 060200Z 31012KT 15SM SCT028 OVC062 14/13 A2971 RMK SC4SC4 SLP068

CYXE;2010-07-06 03:00;CYXE 060300Z 31012KT 15SM BKN034 OVC072 14/13 A2973 RMK SC6AC2 SLP076

CYXE;2010-07-06 04:00;CYXE 060400Z 31012KT 15SM -RA OVC042 14/14 A2976 RMK SC8 SLP086

CYXE;2010-07-06 05:00;CYXE 060500Z 30008KT 15SM -RA OVC054 14/13 A2977 RMK SC8 SLP090

CYXE;2010-07-06 06:00;CYXE 060600Z 31006KT 12SM -RA SCT012 BKN045 OVC090 14/13 A2978 RMK SC3SC2AC2 SLP094

CYXE;2010-07-06 07:00;CYXE 060700Z 29009KT 15SM SCT045 BKN084 13/13 A2978 RMK SC3AC2 SLP094

CYXE;2010-07-06 08:00;CYXE 060800Z 30010KT 15SM SCT055 13/12 A2978 RMK SC4 SLP095

CYXE;2010-07-06 09:00;CYXE 060900Z 31009KT 15SM FEW050 SCT090 12/12 A2980 RMK SC2AC2 SLP102

CYXE;2010-07-06 10:00;CYXE 061000Z 30011KT 15SM SCT080 BKN300 12/11 A2981 RMK AC3CI0 SLP106

CYXE;2010-07-06 11:00;CYXE 061100Z 31009KT 15SM FEW080 BKN300 11/11 A2983 RMK ACC2CI2 SLP112

CYXE;2010-07-06 12:00;CYXE 061200Z 31009KT 15SM FEW080 SCT130 BKN300 12/11 A2986 RMK AC2AC2CI1 SLP121

CYXE;2010-07-06 13:00;CYXE 061300Z 31011KT 15SM SCT080 BKN300 12/11 A2988 RMK AC4CI0 SLP128

CYXE;2010-07-06 14:00;CYXE 061400Z 31010KT 15SM SCT095 SCT300 13/12 A2990 RMK AC3CI0 SLP134

CYXE;2010-07-06 15:00;CYXE 061500Z 31011KT 15SM FEW095 SCT300 14/12 A2992 RMK AC2CI0 SLP141

CYXE;2010-07-06 16:00;CYXE 061600Z 30007KT 15SM SCT055 BKN069 16/13 A2992 RMK SC4AC1 SLP143

CYXE;2010-07-06 17:00;CYXE 061700Z 32008KT 15SM FEW055 FEW220 18/13 A2993 RMK CU1CI1 SLP145

CYXE;2010-07-06 18:00;CYXE 061800Z 30010KT 15SM FEW032 SCT240 20/13 A2994 RMK CU2CI1 SLP145

CYXE;2010-07-06 19:00;CYXE 061900Z 29008KT 15SM FEW034 SCT240 20/11 A2994 RMK CU2CI0 TCU ASOCTD NW SLP146

CYXE;2010-07-06 20:00;CYXE 062000Z 30010KT 15SM FEW046 SCT057CB 21/12 A2994 RMK CU2CB1 TCU ASOCTD CB N OBS TAKEN +11 SLP146

CYXE;2010-07-06 21:00;CYXE 062100Z 29014KT 15SM FEW046 SCT057CB SCT220 22/12 A2993 RMK CU2CB2CI0 CB NW-NE SLP142

CYXE;2010-07-06 22:00;CYXE 062200Z 30012KT 15SM SCT050 SCT250 22/12 A2993 RMK CU3CI1 CB ASOCTD NW-NE SLP141

CYXE;2010-07-06 23:00;CYXE 062300Z 30009KT 15SM SCT053TCU 22/13 A2992 RMK TCU4 CB ASOCTD SH S SLP139

CYXE;2010-07-06 23:19;CYXE 062319Z 35016KT 15SM TS BKN049CB 18/ RMK CB6 LTGCG

CYXE;2010-07-06 23:52;CYXE 062352Z 01004KT 15SM -TSRA SCT018 BKN043CB 16/ RMK SF3CB4

CYXE;2010-07-07 00:00;CYXE 070000Z 03003KT 15SM -TSRA FEW014 BKN043CB BKN300 16/13 A2995 RMK SF2CB2CI2 CB S SLP152

CYXE;2010-07-07 00:17;CYXE 070017Z 18004KT 15SM FEW014 BKN048CB BKN300 17/ RMK SF2CB2CI1 CB S

CYXE;2010-07-07 01:00;CYXE 070100Z 31003KT 15SM FEW020 FEW046CB BKN300 18/13 A2995 RMK SF1CB2CI1 CB S SLP151

CYXE;2010-07-07 02:00;CYXE 070200Z 23006KT 15SM FEW070 SCT300 18/14 A2995 RMK AC1CI1 CB TOP S SLP153

CYXE;2010-07-07 03:00;CYXE 070300Z 23007KT 15SM FEW070 SCT300 15/14 A2996 RMK AC2CI1 SLP156

CYXE;2010-07-07 04:00;CYXE 070400Z 23006KT 15SM FEW070 BKN300 15/13 A2997 RMK AC2CI2 CB TOP N SLP157

CYXE;2010-07-07 05:00;CYXE 070500Z 26007KT 15SM FEW070 BKN300 15/14 A2996 RMK AC2CI2 CB TOP E SLP156

CYXE;2010-07-07 06:00;CYXE 070600Z 27007KT 15SM FEW070 SCT300 14/13 A2997 RMK AC1CI1 SLP156

CYXE;2010-07-07 07:00;CYXE 070700Z 28009KT 15SM FEW081 13/12 A2998 RMK AC2 SLP159

CYXE;2010-07-07 08:00;CYXE 070800Z 27006KT 15SM FEW079 12/11 A2998 RMK AC1 SLP159

CYXE;2010-07-07 09:00;CYXE 070900Z 27007KT 15SM FEW079 12/11 A2998 RMK AC1 SLP160

CYXE;2010-07-07 10:00;CYXE 071000Z 29005KT 15SM FEW080 SCT250 11/11 A2998 RMK AC1CI1 SLP160

CYXE;2010-07-07 11:00;CYXE 071100Z 30006KT 15SM FEW080 SCT250 11/11 A3000 RMK AC1CI1 SLP165

CYXE;2010-07-07 12:00;CYXE 071200Z 32006KT 15SM FEW080 SCT250 12/11 A3001 RMK AC2CI1 SLP174

CYXE;2010-07-07 13:00;CYXE 071300Z 31006KT 15SM FEW085 BKN250 13/12 A3003 RMK AC2CI1 SLP178

CYXE;2010-07-07 14:00;CYXE 071400Z 31009KT 15SM BKN080 BKN250 14/13 A3004 RMK AC6CI1 SLP182

CYXE;2010-07-07 15:00;CYXE 071500Z 31007KT 15SM BKN064 16/14 A3004 RMK AC6 SLP182

CYXE;2010-07-07 16:00;CYXE 071600Z CCA 30011KT 15SM BKN070 BKN250 17/14 A3005 RMK AC6CI1 SLP185

CYXE;2010-07-07 17:00;CYXE 071700Z 33009KT 15SM SCT018 BKN070 BKN250 19/15 A3005 RMK SC3AC2CI1 SLP185

CYXE;2010-07-07 17:22;CYXE 071722Z 34011KT 15SM SCT021 BKN050CB BKN250 18/ RMK SC3CB2CI1 CB SW

CYXE;2010-07-07 18:00;CYXE 071800Z 31007KT 15SM BKN025 19/13 A3005 RMK CU6 CB ASOCTD MOVG SE SLP183

CYXE;2010-07-07 19:00;CYXE 071900Z 32007KT 15SM BKN025 20/13 A3005 RMK CU6 SLP183

CYXE;2010-07-07 20:00;CYXE 072000Z 32013KT 15SM BKN030 BKN070 20/13 A3005 RMK CU5AC2 SLP182

CYXE;2010-07-07 21:00;CYXE 072100Z 30013G19KT 15SM BKN035 21/13 A3003 RMK CU6 SLP176

CYXE;2010-07-07 22:00;CYXE 072200Z 31015G21KT 15SM FEW042 SCT300 22/11 A3002 RMK CU2CI0 SLP174

CYXE;2010-07-07 23:00;CYXE 072300Z 32013G19KT 15SM FEW050 SCT300 22/11 A3002 RMK CU2CI0 SLP174

CYXE;2010-07-08 00:00;CYXE 080000Z 34014KT 15SM FEW061 SCT300 21/11 A3002 RMK CU2CI1 SLP174

CYXE;2010-07-08 01:00;CYXE 080100Z 02013KT 15SM FEW060 SCT300 19/12 A3003 RMK CU1CI1 SLP177

CYXE;2010-07-08 02:00;CYXE 080200Z 04012KT 15SM FEW060 BKN300 18/10 A3005 RMK CU1CI2 SLP184

CYXE;2010-07-08 03:00;CYXE 080300Z 05006KT 15SM FEW060 BKN300 15/10 A3008 RMK SC2CI1 SLP194

CYXE;2010-07-08 04:00;CYXE 080400Z 10003KT 15SM FEW060 OVC300 14/10 A3009 RMK SC1CI1 SLP197

CYXE;2010-07-08 05:00;CYXE 080500Z 13002KT 15SM BKN300 14/10 A3009 RMK CI3 SLP198

CYXE;2010-07-08 06:00;CYXE 080600Z 24003KT 15SM BKN300 13/12 A3010 RMK CI2 SLP201

CYXE;2010-07-08 07:00;CYXE 080700Z 22003KT 15SM FEW250 12/10 A3010 RMK CI1 SLP201

CYXE;2010-07-08 08:00;CYXE 080800Z 23005KT 15SM SKC 11/10 A3010 RMK SLP201

CYXE;2010-07-08 09:00;CYXE 080900Z 27005KT 15SM FEW250 10/10 A3010 RMK CI1 SLP202

CYXE;2010-07-08 10:00;CYXE 081000Z 25004KT 15SM FEW090 FEW250 10/10 A3010 RMK AC1CI0 SLP201

CYXE;2010-07-08 11:00;CYXE 081100Z 24006KT 15SM FEW090 FEW250 11/10 A3009 RMK AC1CI0 SLP199

CYXE;2010-07-08 12:00;CYXE 081200Z 24006KT 15SM FEW090 BKN270 12/11 A3009 RMK AC1CI1 SLP199

CYXE;2010-07-08 13:00;CYXE 081300Z 24008KT 15SM FEW110 OVC270 14/12 A3009 RMK AC1CI2 SLP199

CYXE;2010-07-08 14:00;CYXE 081400Z 24009KT 15SM FEW110 BKN270 16/13 A3010 RMK AC1CI2 SLP202

CYXE;2010-07-08 15:00;CYXE 081500Z 24008KT 15SM FEW110 BKN270 18/14 A3009 RMK AC2CI2 SLP199

CYXE;2010-07-08 16:00;CYXE 081600Z 26008KT 15SM BKN100 BKN270 20/14 A3009 RMK AC6CI1 SLP196

CYXE;2010-07-08 17:00;CYXE 081700Z CCA 25005KT 15SM VCSH FEW050 BKN080 BKN270 20/15 A3007 RMK SC2AC4CI0 SLP192

CYXE;2010-07-08 18:00;CYXE 081800Z 27006KT 15SM FEW065 BKN110 BKN270 22/15 A3006 RMK SC2AC3CI1 SLP187

CYXE;2010-07-08 19:00;CYXE 081900Z 24011KT 15SM FEW032 BKN085 BKN270 22/13 A3005 RMK CU1AC6CI1 SLP184

CYXE;2010-07-08 20:00;CYXE 082000Z 23010KT 15SM FEW045 BKN095 BKN280 23/14 A3003 RMK CU2AC4CI1 TCU EMBD N OBS TAKEN +11 SLP175

CYXE;2010-07-08 21:00;CYXE 082100Z 26013KT 15SM SCT050 BKN095 BKN280 24/14 A3001 RMK CU3AC2CI1 SLP170

CYXE;2010-07-08 22:00;CYXE 082200Z 24015KT 15SM FEW050CB BKN084 25/15 A3000 RMK CB2AC5 CB S SLP164

CYXE;2010-07-08 23:00;CYXE 082300Z 30008KT 15SM FEW050CB SCT070 25/15 A2997 RMK CB2AC2 SLP157

CYXE;2010-07-09 00:00;CYXE 090000Z 26011G16KT 15SM SCT062TCU BKN090 24/15 A2997 RMK TCU3AC2 CB EMBD SLP154

CYXE;2010-07-09 00:41;CYXE 090041Z 28012KT 15SM -SHRA SCT060TCU BKN095 24/ RMK TCU3AC3 CB EMBD

CYXE;2010-07-09 00:48;CYXE 090048Z 36014G26KT 8SM SHRA SCT056TCU BKN085 20/ RMK TCU3AC3 CB EMBD VIS SW 15

CYXE;2010-07-09 00:53;CYXE 090053Z 01019G27KT 3SM R09/4500VP6000FT/D +SHRA BKN056CB BKN085 19/ RMK CB5AC2

CYXE;2010-07-09 00:56;CYXE 090056Z 32010G31KT 5SM R09/2400VP6000FT/D +TSRAGR BKN056CB 18/ RMK CB6 HAIL DIAM 5MM

CYXE;2010-07-09 01:00;CYXE 090100Z CCA 32011G31KT 12SM R09/3000VP6000FT/N -TSRA BKN056CB 17/14 A2998 RERA RMK CB6 /R10/ SLP158

CYXE;2010-07-09 01:12;CYXE 090112Z 02002KT 15SM FEW056CB BKN080 18/ RETSRA RMK CB2AC3 CB MOVG SE

CYXE;2010-07-09 02:00;CYXE 090200Z 23005KT 15SM FEW053TCU SCT080 21/17 A2998 RETSRA RMK TCU2AC2 CB ASOCTD SE SLP158

CYXE;2010-07-09 03:00;CYXE 090300Z 26005KT 15SM FEW080 SCT250 19/16 A2997 RMK AC2CI0 CB TOPS SE SLP155

CYXE;2010-07-09 04:00;CYXE 090400Z 23007KT 15SM SCT078 17/15 A2998 RMK AC2 SLP157

CYXE;2010-07-09 05:00;CYXE 090500Z 23007KT 15SM FEW078 17/15 A2999 RMK AC2 SLP159

CYXE;2010-07-09 06:00;CYXE 090600Z 22007KT 15SM SCT080 16/15 A2998 RMK AC3 LTGIC DIS WSW SLP158

CYXE;2010-07-09 07:00;CYXE 090700Z 20002KT 15SM SCT070 15/15 A2999 RMK AC3 SLP159

CYXE;2010-07-09 08:00;CYXE 090800Z 23005KT 15SM BKN060 16/15 A2997 RMK SC5 SLP155

CYXE;2010-07-09 09:00;CYXE 090900Z 22005KT 15SM FEW070 15/14 A2997 RMK AC1 SLP154

CYXE;2010-07-09 10:00;CYXE 091000Z 23004KT 15SM FEW090 14/14 A2997 RMK AC1 SLP152

CYXE;2010-07-09 11:00;CYXE 091100Z 23007KT 15SM FEW090 14/14 A2998 RMK AC1 CVCTV CLD EMBD E-SE SW SLP155

CYXE;2010-07-09 12:00;CYXE 091200Z 26005KT 15SM FEW090 FEW250 14/14 A2998 RMK ACC1CI1 SLP155

CYXE;2010-07-09 13:00;CYXE 091300Z 24003KT 15SM FEW090 FEW270 16/15 A2997 RMK ACC1CI1 SLP153

CYXE;2010-07-09 14:00;CYXE 091400Z 28002KT 15SM FEW090 FEW270 19/15 A2997 RMK ACC1CI1 SLP153

CYXE;2010-07-09 15:00;CYXE 091500Z 24002KT 15SM FEW300 20/16 A2996 RMK CI0 SLP149

CYXE;2010-07-09 16:00;CYXE 091600Z 25003KT 15SM FEW300 22/17 A2996 RMK CI1 SLP147

CYXE;2010-07-09 17:00;CYXE 091700Z 30004KT 15SM BKN300 24/16 A2995 RMK CI1 SLP144

CYXE;2010-07-09 18:00;CYXE 091800Z 21003KT 15SM FEW030 BKN320 25/16 A2993 RMK CU1CI1 SLP139

CYXE;2010-07-09 19:00;CYXE 091900Z 28004KT 15SM FEW040 FEW090 BKN320 26/15 A2992 RMK CU1AC1CI1 SLP135

CYXE;2010-07-09 20:00;CYXE 092000Z 28003KT 15SM FEW040 FEW090 OVC320 25/15 A2991 RMK CU1AC1CI1 SLP130

CYXE;2010-07-09 21:00;CYXE 092100Z 24003KT 15SM FEW050 FEW100 OVC320 27/14 A2988 RMK CU1AC2CI1 SLP122

CYXE;2010-07-09 22:00;CYXE 092200Z 26002KT 15SM FEW098 BKN320 26/15 A2987 RMK AC2CI1 SLP117

CYXE;2010-07-09 23:00;CYXE 092300Z 24008KT 15SM FEW098 BKN320 27/15 A2985 RMK AC2CI2 SLP110

CYXE;2010-07-10 00:00;CYXE 100000Z 25005KT 15SM FEW100 BKN320 27/15 A2983 RMK AC2CI1 SLP103

CYXE;2010-07-10 01:00;CYXE 100100Z 23003KT 15SM SCT089 BKN100 BKN300 25/18 A2981 RMK AC4AC2CI0 VIRGA NW SLP098

CYXE;2010-07-10 02:00;CYXE 100200Z 18004KT 15SM SCT089 BKN100 23/18 A2978 RMK AC3AC4 VIRGA SW-NW SLP087

CYXE;2010-07-10 02:18;CYXE 100218Z 01002KT 15SM -TSRA BKN054CB OVC080 22/ RMK CB5AC3 LTGICCG ALQDS

CYXE;2010-07-10 02:40;CYXE 100240Z 32029G36KT 8SM -TSRA BKN054CB OVC070 20/ RMK CB6AC2 LTGICCG ALQDDS

CYXE;2010-07-10 02:43;CYXE 100243Z 31027G36KT 6SM TSRA BKN054CB OVC070 19/ RMK CB6AC2 LTGICCG ALQDS

CYXE;2010-07-10 03:00;CYXE 100300Z 29011G20KT 8SM TSRA SCT054CB OVC070 18/15 A2984 RMK CB4AC4 LTGICCG OVHD CB MOVG SE SLP109

CYXE;2010-07-10 03:06;CYXE 100306Z 29006KT 12SM -TSRA SCT054CB OVC075 18/ RERA RMK CB3AC5 LTGCCCG SE-SW CB MOVG SE

CYXE;2010-07-10 03:42;CYXE 100342Z 19008KT 15SM TS BKN012CB OVC075 18/ RERA RMK CB5AC3 LTGICCG S

CYXE;2010-07-10 04:00;CYXE 100400Z 17007KT 15SM TS BKN012 BKN025 OVC075 18/15 A2978 RMK SC5SC2AC2 LTGICCG DIST SE-SW CB EMBD SLP089

CYXE;2010-07-10 05:00;CYXE 100500Z 17005KT 15SM TS BKN055CB OVC100 18/15 A2979 RMK CB5AC3 LTGICCG S-SW SLP092

CYXE;2010-07-10 05:11;CYXE 100511Z 32016KT 15SM TS OVC063CB 18/ RMK CB8 LTGICCG S-W WND SHFT AT 0510Z

CYXE;2010-07-10 05:27;CYXE 100527Z 24003KT 15SM -TSRA OVC050CB 19/ RMK CB8 LTGICCG S-W

CYXE;2010-07-10 06:00;CYXE 100600Z 04008KT 15SM -TSRA BKN040CB BKN100 17/15 A2977 RMK CB6AC1 LTGICCGCC SE-W SLP081

CYXE;2010-07-10 06:30;CYXE 100630Z 13007KT 15SM SCT040CB BKN100 17/ RETS RMK CB3AC3 LTGICCG SE-SW

CYXE;2010-07-10 07:00;CYXE 100700Z 18006KT 15SM FEW040CB SCT100 17/15 A2975 RETS RMK CB2AC1 LTGICCG SE SLP077

CYXE;2010-07-10 08:00;CYXE 100800Z 34013KT 15SM FEW040CB OVC100 17/15 A2978 RMK CB2AC5 LTGIC SE N SLP085

CYXE;2010-07-10 09:00;CYXE 100900Z 33010KT 15SM BKN100 BKN250 17/15 A2980 RMK AC6CI0 CB LTGIC DIS SE N SLP093

CYXE;2010-07-10 10:00;CYXE 101000Z 01006KT 15SM BKN060 BKN080 17/15 A2978 RMK SC5AC2 SLP086

CYXE;2010-07-10 11:00;CYXE 101100Z 01006KT 15SM FEW060 OVC085 16/15 A2978 RMK SC2AC6 SLP084

CYXE;2010-07-10 12:00;CYXE 101200Z 01006KT 15SM FEW060 BKN095 OVC260 16/15 A2979 RMK SC1AC3CI3 SLP090

CYXE;2010-07-10 13:00;CYXE 101300Z 36006KT 15SM SCT070 BKN110 OVC260 17/15 A2982 RMK AC2AC3CI2 SLP098

CYXE;2010-07-10 13:21;CYXE 101321Z 35005KT 15SM -SHRA SCT050 BKN090 OVC110 17/ RMK SC3AC2AC2

CYXE;2010-07-10 14:00;CYXE 101400Z 35005KT 15SM -SHRA SCT050 OVC082 17/15 A2983 RMK SC3AC5 SLP101

CYXE;2010-07-10 14:34;CYXE 101434Z 36007KT 15SM SCT050 OVC086 17/ RMK SC3AC5

CYXE;2010-07-10 15:00;CYXE 101500Z 34007KT 15SM FEW010 SCT088 OVC120 17/15 A2985 RMK CU2AC2AS4 OBS TAKEN +08 SLP112

CYXE;2010-07-10 16:00;CYXE 101600Z 36008KT 15SM FEW013 SCT100 BKN140 18/15 A2985 RMK CU2AC2AS3 SLP112

CYXE;2010-07-10 17:00;CYXE 101700Z 36007KT 15SM SCT020 BKN070 BKN300 19/15 A2985 RMK SC3AC2CI1 SLP114

CYXE;2010-07-10 18:00;CYXE 101800Z 36009KT 15SM SCT025 BKN068 OVC300 20/14 A2985 RMK SC3AC2CI1 SLP113

CYXE;2010-07-10 19:00;CYXE 101900Z 35007KT 15SM SCT025 BKN070 BKN300 20/14 A2987 RMK SC3AC2CI1 SLP117

CYXE;2010-07-10 20:00;CYXE 102000Z 35013KT 15SM BKN034 BKN090 OVC300 21/15 A2986 RMK SC5AC2CI0 SLP116

CYXE;2010-07-10 21:00;CYXE 102100Z 01013KT 15SM SCT038 BKN090 BKN300 21/13 A2987 RMK SC3AC2CI1 SLP121

CYXE;2010-07-10 22:00;CYXE 102200Z 36010KT 15SM FEW042 SCT090 BKN300 21/13 A2989 RMK SC2AC2CI0 SLP125

CYXE;2010-07-10 23:00;CYXE 102300Z 35013KT 15SM SCT046 BKN100 BKN300 21/12 A2989 RMK SC3AC2CI0 SLP126

CYXE;2010-07-11 00:00;CYXE 110000Z 34009G16KT 15SM BKN045 BKN300 21/12 A2988 RMK CU5CI0 SLP124

CYXE;2010-07-11 01:00;CYXE 110100Z 01013KT 15SM BKN050 20/12 A2989 RMK CU5 TCU ASOCTD SLP127

CYXE;2010-07-11 02:00;CYXE 110200Z 01011KT 15SM BKN047 18/11 A2991 RMK SC5 SLP132

CYXE;2010-07-11 03:00;CYXE 110300Z 36007KT 15SM SCT050 BKN300 15/11 A2992 RMK SC3CI0 SLP138

CYXE;2010-07-11 04:00;CYXE 110400Z 35006KT 15SM FEW055 SCT300 12/10 A2994 RMK SC2CI1 SLP145

CYXE;2010-07-11 05:00;CYXE 110500Z 32006KT 15SM SKC 12/10 A2995 RMK SLP148

CYXE;2010-07-11 06:00;CYXE 110600Z 32006KT 15SM SKC 10/09 A2996 RMK SLP153

CYXE;2010-07-11 07:00;CYXE 110700Z 31006KT 15SM SKC 11/10 A2997 RMK SLP156

CYXE;2010-07-11 08:00;CYXE 110800Z 31005KT 15SM SKC 10/09 A2997 RMK SLP156

CYXE;2010-07-11 09:00;CYXE 110900Z 30005KT 15SM SKC 10/09 A2997 RMK SLP159

CYXE;2010-07-11 10:00;CYXE 111000Z 28004KT 15SM FEW070 FEW250 09/09 A2998 RMK AC1CI0 SLP161

CYXE;2010-07-11 11:00;CYXE 111100Z 28003KT 15SM FEW090 FEW250 08/08 A2999 RMK AC1CI0 SLP163

CYXE;2010-07-11 12:00;CYXE 111200Z 29003KT 15SM FEW250 09/09 A2999 RMK CI0 SLP163

CYXE;2010-07-11 13:00;CYXE 111300Z 31002KT 15SM SKC 12/10 A2998 RMK SLP162

CYXE;2010-07-11 14:00;CYXE 111400Z 00000KT 15SM SKC 14/11 A2998 RMK SLP161

CYXE;2010-07-11 15:00;CYXE 111500Z 22002KT 15SM SKC 16/11 A2998 RMK SLP160

CYXE;2010-07-11 16:00;CYXE 111600Z 26003KT 15SM SKC 18/10 A2997 RMK SLP158

CYXE;2010-07-11 17:00;CYXE 111700Z 23005KT 15SM FEW036 19/09 A2996 RMK CU1 SLP154

CYXE;2010-07-11 18:00;CYXE 111800Z 30003KT 15SM FEW045 19/09 A2995 RMK CU2 SLP151

CYXE;2010-07-11 19:00;CYXE 111900Z 16003KT 15SM SCT045 20/10 A2993 RMK SC3 SLP146

CYXE;2010-07-11 20:00;CYXE 112000Z 21005KT 15SM SCT045 19/10 A2992 RMK SC4 SLP140

CYXE;2010-07-11 21:00;CYXE 112100Z 19004KT 15SM SCT050 21/11 A2989 RMK CU4 SLP131

CYXE;2010-07-11 22:00;CYXE 112200Z 31003KT 15SM SCT045 21/11 A2987 RMK SC3 SLP123

CYXE;2010-07-11 23:00;CYXE 112300Z 26002KT 15SM SCT050 BKN300 22/10 A2985 RMK CU3CI0 SLP118

CYXE;2010-07-12 00:00;CYXE 120000Z 22003KT 15SM SCT044 BKN300 21/10 A2982 RMK CU3CI0 CONTRAILS SLP105

CYXE;2010-07-12 01:00;CYXE 120100Z 20005KT 15SM FEW040 BKN300 21/11 A2980 RMK CU2CI0 SLP099

CYXE;2010-07-12 02:00;CYXE 120200Z 19006KT 15SM FEW040 BKN300 20/11 A2978 RMK CU2CI0 CONTRAILS SLP091

CYXE;2010-07-12 03:00;CYXE 120300Z 17005KT 15SM FEW040 BKN300 18/11 A2977 RMK SC1CI0 CONTRAILS SLP085

CYXE;2010-07-12 04:00;CYXE 120400Z 16005KT 15SM BKN300 16/11 A2976 RMK CI0 SLP083

CYXE;2010-07-12 05:00;CYXE 120500Z 18007KT 15SM BKN300 16/11 A2975 RMK CI0 SLP080

CYXE;2010-07-12 06:00;CYXE 120600Z 18007KT 15SM SCT300 14/11 A2974 RMK CI0 SLP075

CYXE;2010-07-12 07:00;CYXE 120700Z 17007KT 15SM FEW300 14/10 A2971 RMK CI0 SLP067

CYXE;2010-07-12 08:00;CYXE 120800Z 17008KT 15SM FEW100 FEW300 15/10 A2969 RMK AC1CI0 SLP059

CYXE;2010-07-12 09:00;CYXE 120900Z 17010KT 15SM BKN061 BKN300 15/10 A2967 RMK SC6CI1 SLP050

CYXE;2010-07-12 10:00;CYXE 121000Z 15009KT 15SM BKN063 15/10 A2963 RMK SC6 SLP038

CYXE;2010-07-12 11:00;CYXE 121100Z 15010G16KT 15SM BKN076 15/10 A2961 RMK AC6 SLP030

CYXE;2010-07-12 12:00;CYXE 121200Z 15009KT 15SM BKN076 15/10 A2959 RMK AC6 SLP023

CYXE;2010-07-12 13:00;CYXE 121300Z 16008KT 15SM BKN078 15/12 A2957 RMK AC6 SLP019

CYXE;2010-07-12 14:00;CYXE 121400Z 16010KT 15SM SCT080 SCT140 BKN300 17/13 A2956 RMK AC3AC1CI0 SLP013

CYXE;2010-07-12 15:00;CYXE 121500Z 17015G21KT 15SM FEW080 FEW140 BKN300 20/15 A2952 RMK AC1AC1CI1 SLP999

CYXE;2010-07-12 16:00;CYXE 121600Z 17017G24KT 15SM FEW100 BKN140 21/15 A2950 RMK AC1AC6 SLP994

CYXE;2010-07-12 17:00;CYXE 121700Z 16018G24KT 15SM FEW100 BKN140 21/15 A2949 RMK AC2AC4 SLP989

CYXE;2010-07-12 18:00;CYXE 121800Z 15015G21KT 15SM VCSH FEW075 BKN140 21/16 A2947 RMK AC2AC3 SLP983

CYXE;2010-07-12 19:00;CYXE 121900Z 16017G25KT 15SM FEW032 SCT070 BKN140 24/16 A2945 RMK CU1AC2AC2 SLP976

CYXE;2010-07-12 20:00;CYXE 122000Z 16015G22KT 15SM SCT036 BKN091 25/17 A2943 RMK SC3AC2 SLP969

CYXE;2010-07-12 21:00;CYXE 122100Z 16019KT 15SM BKN035 BKN090 BKN300 25/16 A2941 RMK SC5AC2CI0 SLP960

CYXE;2010-07-12 22:00;CYXE 122200Z 17017G22KT 15SM BKN045 BKN120 25/17 A2939 RMK SC5ACC2 OBS TAKEN +08 TCU EMBD CB ASOCTD SLP954

CYXE;2010-07-12 23:00;CYXE 122300Z 16017G24KT 15SM FEW025 SCT045 BKN090 BKN300 24/17 A2937 RMK CU1SC3AC2CI1 CB ASOCTD SLP947

CYXE;2010-07-13 00:00;CYXE 130000Z 15013KT 15SM VCSH FEW025 FEW040 BKN090 BKN300 24/17 A2935 RMK CU1SC2ACC3CI2 SLP939

CYXE;2010-07-13 01:00;CYXE 130100Z 15013G20KT 15SM SCT090 BKN300 24/17 A2932 RMK ACC3CI2 SLP929

CYXE;2010-07-13 02:00;CYXE 130200Z 16022G31KT 15SM SCT090 BKN120 OVC300 22/15 A2932 RMK ACC3ACC2CI2 SLP931

CYXE;2010-07-13 03:00;CYXE 130300Z 24010G17KT 15SM VCSH SCT035CB OVC082 20/15 A2937 RMK CB3AC5 LTNG DIST SW-N PRESRR SLP947

CYXE;2010-07-13 03:17;CYXE 130317Z 25012KT 15SM -SHRA BKN029CB OVC082 20/ RMK CB5AC3 OCNL LTNG ALQDS

CYXE;2010-07-13 03:20;CYXE 130320Z 24014KT 15SM -TSRA BKN029CB OVC082 20/ RMK CB5AC3 OCNL LTNG ALQDS

CYXE;2010-07-13 03:47;CYXE 130347Z 09007KT 15SM -SHRA BKN034 OVC082 19/ RETS RMK SC5AC3 CB EMBD

CYXE;2010-07-13 04:00;CYXE 130400Z 09013KT 15SM -SHRA BKN029 OVC080 19/16 A2933 RETS RMK SC6AC2 CB ASOCTD SLP934

CYXE;2010-07-13 04:31;CYXE 130431Z 16011KT 15SM VCSH BKN029 OVC080 18/ RMK SC6AC2 OCNL LTNG DIST SW

CYXE;2010-07-13 05:00;CYXE 130500Z 16010KT 15SM SCT030 BKN080 OVC300 18/15 A2936 RMK SC3AC4CI0 SLP942

CYXE;2010-07-13 06:00;CYXE 130600Z 17010G15KT 15SM BKN068 18/15 A2935 RMK AC6 OCNL LTNG DIST SW SLP942

CYXE;2010-07-13 07:00;CYXE 130700Z 24012KT 15SM FEW036 BKN060 17/15 A2936 RMK SC2SC2 SLP943

CYXE;2010-07-13 08:00;CYXE 130800Z 24016G24KT 15SM BKN024 14/11 A2938 RMK SC7 SLP949

CYXE;2010-07-13 09:00;CYXE 130900Z 23011KT 15SM BKN024 12/10 A2940 RMK SC6 SLP959

CYXE;2010-07-13 10:00;CYXE 131000Z 22011KT 15SM FEW030 FEW100 11/09 A2940 RMK SC1AC1 SLP960

CYXE;2010-07-13 11:00;CYXE 131100Z 21009KT 15SM BKN025 11/09 A2940 RMK SC7 SLP959

CYXE;2010-07-13 12:00;CYXE 131200Z 23015G22KT 15SM BKN019 12/10 A2939 RMK SC7 SLP957

CYXE;2010-07-13 13:00;CYXE 131300Z 22014G20KT 15SM BKN016 12/10 A2940 RMK SC7 SLP958

CYXE;2010-07-13 13:15;CYXE 131315Z 23017KT 15SM OVC014 11/ RMK SC8

CYXE;2010-07-13 13:46;CYXE 131346Z 22020KT 15SM OVC016 11/ RMK SC8

CYXE;2010-07-13 14:00;CYXE 131400Z 22014G24KT 15SM OVC016 11/09 A2941 RMK SC8 SLP961

CYXE;2010-07-13 15:00;CYXE 131500Z 23018G24KT 15SM OVC014 10/08 A2943 RMK SC8 SLP973

CYXE;2010-07-13 15:06;CYXE 131506Z 23017G24KT 15SM -RA OVC014 10/ RMK SC8

CYXE;2010-07-13 16:00;CYXE 131600Z 22018G26KT 15SM -RA BKN014 OVC030 11/09 A2944 RMK SC6SC2 SLP975

CYXE;2010-07-13 17:00;CYXE 131700Z 21016G22KT 15SM -RA OVC014 10/09 A2946 RMK SC8 CIG RAG SLP981

CYXE;2010-07-13 18:00;CYXE 131800Z 23020KT 15SM -RA BKN018 OVC037 11/08 A2948 RMK SC6SC2 SLP991

CYXE;2010-07-13 19:00;CYXE 131900Z CCA 22013G18KT 15SM -RA BKN012 OVC110 12/10 A2949 RMK SC5AS3 CIG RAG SLP993

CYXE;2010-07-13 20:00;CYXE 132000Z 19010KT 15SM -SHRA BKN018 OVC053 12/10 A2950 RMK SC6SC2 CU EMBD SLP996

CYXE;2010-07-13 21:00;CYXE 132100Z 23015KT 15SM SCT032 OVC082 14/10 A2949 RMK SC4AS3 SLP997

CYXE;2010-07-13 22:00;CYXE 132200Z 21014KT 15SM SCT035 BKN080 BKN300 15/08 A2950 RMK SC3AC2CI1 SLP998

CYXE;2010-07-13 23:00;CYXE 132300Z 20014KT 15SM BKN038 BKN082 15/08 A2950 RMK SC6AC1 SLP999

CYXE;2010-07-14 00:00;CYXE 140000Z 18015G20KT 15SM VCSH BKN040 OVC080 13/08 A2950 RMK SC5AC3 SLP998

CYXE;2010-07-14 00:25;CYXE 140025Z 17016KT 15SM -SHRA SCT030 OVC051 12/ RMK SC3SC5

CYXE;2010-07-14 01:00;CYXE 140100Z 14012G18KT 15SM -SHRA BKN046 OVC065 12/09 A2950 RMK SC6SC2 SLP998

CYXE;2010-07-14 02:00;CYXE 140200Z 13013G18KT 15SM VCSH BKN036 OVC090 12/09 A2949 RMK SC5AC3 SLP997

CYXE;2010-07-14 03:00;CYXE 140300Z 12012G18KT 15SM -RA BKN019 BKN080 BKN300 12/09 A2949 RMK SC5AC2CI0 SLP999

CYXE;2010-07-14 04:00;CYXE 140400Z 10013KT 15SM -RA BKN024 OVC040 11/10 A2950 RMK SC5SC3 SLP002

CYXE;2010-07-14 04:40;CYXE 140440Z 09012KT 15SM OVC020 12/ RMK SC8

CYXE;2010-07-14 05:00;CYXE 140500Z 07012G17KT 15SM OVC020 12/11 A2951 RMK SC8 SLP003

CYXE;2010-07-14 05:13;CYXE 140513Z 07014KT 10SM -RA OVC020 12/ RMK SC8

CYXE;2010-07-14 06:00;CYXE 140600Z 07014KT 3SM -RA OVC018 11/11 A2951 RMK SC8 SLP005

CYXE;2010-07-14 06:30;CYXE 140630Z 07011KT 6SM -RA OVC013 11/ RMK SC8

CYXE;2010-07-14 06:46;CYXE 140646Z 06016KT 10SM -RA OVC007 11/ RMK SF8

CYXE;2010-07-14 07:00;CYXE 140700Z 06013KT 10SM -RA BKN007 OVC043 11/11 A2953 RMK SF6SC2 SLP011

CYXE;2010-07-14 07:27;CYXE 140727Z 05012G18KT 15SM FEW007 BKN016 OVC049 11/ RMK SF2SC2SC3

CYXE;2010-07-14 08:00;CYXE 140800Z 04012KT 15SM BKN012 OVC043 11/11 A2955 RMK SC5SC3 SLP016

CYXE;2010-07-14 09:00;CYXE 140900Z 02012KT 15SM SCT020 OVC042 11/11 A2956 RMK SC4SC4 SLP021

CYXE;2010-07-14 10:00;CYXE 141000Z 01015KT 15SM FEW020 BKN051 11/10 A2958 RMK SC2SC5 SLP027

CYXE;2010-07-14 11:00;CYXE 141100Z 01010KT 15SM FEW020 SCT051 BKN095 10/10 A2961 RMK SF2SC2AC1 SLP034

CYXE;2010-07-14 12:00;CYXE 141200Z 35012KT 15SM FEW061 BKN086 BKN300 11/10 A2964 RMK SC2AC2CI0 SLP049

CYXE;2010-07-14 13:00;CYXE 141300Z 35016KT 15SM BKN038 BKN087 12/10 A2966 RMK SC5AC2 SLP055

CYXE;2010-07-14 14:00;CYXE 141400Z 01013G19KT 15SM BKN040 BKN065 BKN300 13/10 A2969 RMK SC5SC1CI0 SLP066

CYXE;2010-07-14 15:00;CYXE 141500Z 35011KT 15SM FEW030 BKN049 BKN300 14/11 A2973 RMK SC2SC4CI1 SLP078

CYXE;2010-07-14 16:00;CYXE 141600Z 35008KT 15SM FEW020 SCT070 BKN300 15/12 A2974 RMK CU2AC2CI0 SLP083

CYXE;2010-07-14 17:00;CYXE 141700Z 34010G16KT 15SM FEW025 SCT057 BKN300 17/12 A2976 RMK CU2SC1CI1 SLP087

CYXE;2010-07-14 18:00;CYXE 141800Z 30010KT 15SM SCT030 BKN300 19/13 A2977 RMK CU3CI2 SLP088

CYXE;2010-07-14 19:00;CYXE 141900Z 31010KT 15SM FEW037 BKN300 19/12 A2977 RMK CU2CI2 SLP090

CYXE;2010-07-14 20:00;CYXE 142000Z 31014KT 15SM FEW040 SCT100 SCT300 19/12 A2978 RMK CU2AC2CI0 SLP092

CYXE;2010-07-14 21:00;CYXE 142100Z 33012KT 15SM FEW045 FEW091 BKN300 19/12 A2978 RMK CU2AC1CI1 SLP093

CYXE;2010-07-14 22:00;CYXE 142200Z 30010G16KT 15SM FEW044 SCT091 BKN300 20/12 A2978 RMK CU2AC1CI1 SLP091

CYXE;2010-07-14 23:00;CYXE 142300Z 30009KT 15SM FEW044 SCT081 BKN300 20/13 A2978 RMK CU2AC1CI1 SLP092

CYXE;2010-07-15 00:00;CYXE 150000Z 31010KT 15SM SCT030 BKN090 BKN300 21/13 A2978 RMK CU3AC2CI0 SLP091

CYXE;2010-07-15 01:00;CYXE 150100Z 28006KT 15SM VCSH SCT020 BKN040 BKN090 19/14 A2978 RMK CU3SC2AC2 SLP090

CYXE;2010-07-15 02:00;CYXE 150200Z 29011KT 15SM VCSH SCT040 BKN080 19/15 A2977 RMK SC3AC2 CB ASOCTD SLP088

CYXE;2010-07-15 03:00;CYXE 150300Z 28007KT 12SM -SHRA BKN035 OVC080 17/16 A2979 RMK SC5AC3 CVCTV CLD EMBD SLP095

CYXE;2010-07-15 04:00;CYXE 150400Z 27007KT 15SM -SHRA OVC022 15/14 A2978 RMK SC8 CVCTV CLD EMBD SLP093

CYXE;2010-07-15 04:35;CYXE 150435Z 27009KT 15SM BKN022 OVC060 15/ RMK SC6SC2

CYXE;2010-07-15 05:00;CYXE 150500Z 28008KT 15SM -SHRA FEW022 SCT035 OVC060 15/15 A2976 RMK SC2SC2SC5 OCNL LTNG DIST W SLP087

CYXE;2010-07-15 05:51;CYXE 150551Z 27006KT 15SM VCSH FEW030 BKN053 OVC300 15/ RMK SC2SC5CI2 CB SW OCNL LTNG S-SW

CYXE;2010-07-15 06:00;CYXE 150600Z 27006KT 15SM VCSH FEW030 BKN058 OVC300 15/15 A2978 RMK SC2SC5CI2 CB SW OCNL LTNG S-SW SLP090

CYXE;2010-07-15 06:17;CYXE 150617Z 28010G16KT 15SM -SHRA SCT025 BKN062 OVC300 15/ RMK SC3SC4CI1 CB + LTNG DIST S

CYXE;2010-07-15 07:00;CYXE 150700Z 28007KT 15SM -SHRA FEW030 BKN070 OVC300 15/14 A2978 RMK SC2ACC4CI2 SLP091

CYXE;2010-07-15 07:20;CYXE 150720Z 29006KT 8SM SCT070 OVC300 15/ RMK ACC3CI3 BR

CYXE;2010-07-15 08:00;CYXE 150800Z 31006KT 8SM FEW040 SCT090 BKN300 14/14 A2979 RMK SC1AC3CI1 BR SLP093

CYXE;2010-07-15 09:00;CYXE 150900Z 27004KT 6SM BR FEW090 BKN300 13/13 A2979 RMK AC2CI1 SLP094

CYXE;2010-07-15 10:00;CYXE 151000Z 28005KT 6SM BR FEW090 SCT300 13/13 A2980 RMK AC1CI0 SLP098

CYXE;2010-07-15 11:00;CYXE 151100Z 27007KT 6SM BR FEW090 13/13 A2981 RMK AC1 SLP101

CYXE;2010-07-15 12:00;CYXE 151200Z 28006KT 6SM BR SKC 13/13 A2982 RMK SLP105

CYXE;2010-07-15 13:00;CYXE 151300Z 31005KT 8SM SKC 15/14 A2983 RMK BR SLP108

CYXE;2010-07-15 14:00;CYXE 151400Z 32008KT 10SM FEW020 16/15 A2985 RMK SC1 BR SLP113

CYXE;2010-07-15 14:16;CYXE 151416Z 33006KT 12SM SCT007 17/ RMK ST2

CYXE;2010-07-15 15:00;CYXE 151500Z 29008KT 15SM FEW008 SCT095 17/16 A2986 RMK ST2AS2 SLP117

CYXE;2010-07-15 16:00;CYXE 151600Z 31008KT 8SM FEW009 OVC220 19/16 A2987 RMK SF2CS2 HZ SLP119

CYXE;2010-07-15 17:00;CYXE 151700Z 29007KT 10SM OVC250 20/16 A2987 RMK CI4 HZ SLP120

CYXE;2010-07-15 18:00;CYXE 151800Z 29008KT 15SM BKN250 22/16 A2987 RMK CS4 SLP121

CYXE;2010-07-15 19:00;CYXE 151900Z 31008KT 10SM BKN250 23/16 A2987 RMK CI4 HZ SLP121

CYXE;2010-07-15 20:00;CYXE 152000Z 32008KT 10SM FEW024 BKN300 23/16 A2986 RMK CU2CI2 HZ SLP116

CYXE;2010-07-15 21:00;CYXE 152100Z 25016KT 15SM SCT034TCU BKN300 21/17 A2987 RMK TCU3CI1 SLP122

CYXE;2010-07-15 22:00;CYXE 152200Z 24006KT 15SM SCT040 BKN300 23/17 A2985 RMK SC4CI0 CB DIOST W-N SLP115

CYXE;2010-07-15 22:52;CYXE 152252Z 32005KT 15SM TS VCSH SCT040CB BKN078 24/ RMK CB4AC2

CYXE;2010-07-15 23:00;CYXE 152300Z 32005KT 15SM TS VCSH SCT040CB BKN078 24/17 A2985 RMK CB4AC2 OCNL LTNG W-N SLP114

CYXE;2010-07-15 23:10;CYXE 152310Z 31017G25KT 8SM -TSRA BKN025CB BKN080 18/ RMK CB5AC2 CB MOVG SE

CYXE;2010-07-16 00:00;CYXE 160000Z 24002KT 15SM -TSRA BKN014CB BKN090 17/16 A2988 RMK CB5AC2 OCNL LTNG ALQDS SLP126

CYXE;2010-07-16 00:08;CYXE 160008Z 26003KT 15SM -TSRA SCT018CB BKN095 17/ RMK CB4AC2 OCNL LTNG E-W

CYXE;2010-07-16 00:30;CYXE 160030Z 09002KT 15SM SCT018CB BKN095 19/ RETS RMK CB3AC2 CB MOVG SE

CYXE;2010-07-16 01:00;CYXE 160100Z 00000KT 15SM FEW020CB SCT090 20/17 A2986 RETS RMK CB2AC2 SLP121

CYXE;2010-07-16 02:00;CYXE 160200Z 00000KT 15SM FEW020 SCT070 20/18 A2986 RMK SC2AC2 SLP119

CYXE;2010-07-16 03:00;CYXE 160300Z 24004KT 15SM FEW070 SCT300 18/17 A2987 RMK AC2CI0 SLP119

CYXE;2010-07-16 04:00;CYXE 160400Z 22003KT 15SM FEW070 BKN110 OVC300 17/17 A2987 RMK AC2AC3CI0 SLP121

CYXE;2010-07-16 05:00;CYXE 160500Z 20003KT 15SM SCT110 BKN300 17/17 A2988 RMK AC3CI0 SLP123

CYXE;2010-07-16 06:00;CYXE 160600Z 00000KT 15SM MIFG FEW110 BKN300 16/16 A2988 RMK AC1CI2 CB + LTNG DIST W SLP124

CYXE;2010-07-16 07:00;CYXE 160700Z 17004KT 15SM MIFG SCT300 15/15 A2987 RMK CI0 OCNL LTNG DIST W SLP121

CYXE;2010-07-16 08:00;CYXE 160800Z 22003KT 15SM MIFG SKC 15/15 A2989 RMK SLP125

CYXE;2010-07-16 09:00;CYXE 160900Z 30002KT 15SM BKN100 15/15 A2989 RMK AC6 SLP126

CYXE;2010-07-16 10:00;CYXE 161000Z 28004KT 15SM BKN120 15/15 A2990 RMK AC5 SLP130

CYXE;2010-07-16 10:43;CYXE 161043Z 28004KT 15SM -SHRA BKN080 16/ RMK ACC6

CYXE;2010-07-16 11:00;CYXE 161100Z 36007KT 15SM VCSH BKN080 16/15 A2990 RMK ACC6 SLP130

CYXE;2010-07-16 12:00;CYXE 161200Z 08003KT 15SM FEW050 BKN077 15/14 A2989 RMK SC2ACC3 SLP130

CYXE;2010-07-16 13:00;CYXE 161300Z 02005KT 15SM FEW050 BKN084 17/16 A2991 RMK SC1ACC4 SLP136

CYXE;2010-07-16 14:00;CYXE 161400Z 02002KT 15SM SCT084 19/16 A2992 RMK AC3 SLP137

CYXE;2010-07-16 15:00;CYXE 161500Z 09002KT 15SM SCT080 21/15 A2992 RMK AC3 SLP136

CYXE;2010-07-16 16:00;CYXE 161600Z 07004KT 15SM FEW078 22/14 A2991 RMK AC2 SLP133

CYXE;2010-07-16 17:00;CYXE 161700Z 07005KT 15SM FEW300 24/15 A2990 RMK CI0 SLP129

CYXE;2010-07-16 18:00;CYXE 161800Z 12006KT 15SM FEW300 25/14 A2988 RMK CI1 SLP122

CYXE;2010-07-16 19:00;CYXE 161900Z 13007KT 15SM FEW300 25/15 A2987 RMK CI1 SLP116

CYXE;2010-07-16 20:00;CYXE 162000Z 14007KT 15SM SCT300 26/16 A2985 RMK CI2 SLP112

CYXE;2010-07-16 21:00;CYXE 162100Z 15006KT 15SM FEW050 SCT085 BKN300 26/15 A2984 RMK CU2AC2CI1 SLP107

CYXE;2010-07-16 22:00;CYXE 162200Z 13006KT 15SM SCT110 BKN300 25/17 A2983 RMK AC3CI3 OBS TAKEN +02 SLP103

CYXE;2010-07-16 23:00;CYXE 162300Z 13009KT 15SM FEW048 BKN300 26/17 A2981 RMK SC2CI2 SLP098

CYXE;2010-07-17 00:00;CYXE 170000Z 13012KT 15SM BKN110 BKN300 25/15 A2977 RMK AC3CI2 SLP084

CYXE;2010-07-17 01:00;CYXE 170100Z 12010KT 15SM BKN110 OVC300 24/15 A2976 RMK AC6CI2 SLP081

CYXE;2010-07-17 02:00;CYXE 170200Z 11014KT 15SM BKN110 OVC220 23/15 A2971 RMK AC6CI2 PRESFR CB EMBD + LTNG SW SLP065

CYXE;2010-07-17 02:23;CYXE 170223Z 12012G17KT 15SM TS FEW050CB BKN110 OVC220 23/ RMK CB2AC4CI2 CB + LTGIC S-W

CYXE;2010-07-17 02:49;CYXE 170249Z 14010G18KT 15SM -TSRA BKN058CB OVC070 23/ RMK CB6AC2 LTGCCICCG S-W-N

CYXE;2010-07-17 03:00;CYXE 170300Z 27027G36KT 4SM TSRA OVC058CB 18/14 A2983 RMK CB8 PRESRR LTGICCCCG SLP104

CYXE;2010-07-17 03:02;CYXE 170302Z 26026G36KT 3/4SM R09/2800VP6000FT/D +TSRA OVC038CB 15/ RMK RA3CB5 PRESRR LTGICCCCG

CYXE;2010-07-17 03:06;CYXE 170306Z 28017G35KT 1 1/2SM R09/2800VP6000FT/D +TSRA OVC054CB 15/ RMK RA2CB6 PRESRR LTGCCICCG

CYXE;2010-07-17 03:11;CYXE 170311Z 27011G29KT 4SM R09/2800VP6000FT/U +TSRA BKN054CB BKN070 15/ RMK CB6AC2 LTGCCICCG

CYXE;2010-07-17 03:48;CYXE 170348Z 11006KT 15SM FEW013 BKN054CB BKN070 15/ RETSRA RMK SC2CB2AC2 CB + LTNG NE-E

CYXE;2010-07-17 04:00;CYXE 170400Z 11007KT 15SM FEW013 BKN054CB BKN070 15/15 A2977 RETSRA RMK SC2CB2AC2 CB + LTNG NE-E /R11/ SLP086

CYXE;2010-07-17 05:00;CYXE 170500Z 22004KT 15SM FEW054CB BKN110 15/15 A2975 RMK CB2AC4 CB + LTNG NE-SE SLP080

CYXE;2010-07-17 06:00;CYXE 170600Z 26010KT 15SM FEW054CB BKN110 15/15 A2975 RMK CB2AC4 CB + LTNG NE-S SLP077

CYXE;2010-07-17 06:50;CYXE 170650Z 27014KT 15SM BKN012 15/ RMK SC6

CYXE;2010-07-17 07:00;CYXE 170700Z 28013G18KT 15SM OVC008 15/14 A2977 RMK SC8 SLP084

CYXE;2010-07-17 08:00;CYXE 170800Z 28011KT 15SM BKN010 OVC033 15/14 A2978 RMK ST5SC3 SLP086

CYXE;2010-07-17 09:00;CYXE 170900Z 30014G20KT 15SM OVC014 15/14 A2981 RMK ST8 SLP098

CYXE;2010-07-17 10:00;CYXE 171000Z 30013KT 15SM SCT019 BKN055 14/13 A2984 RMK ST3SC2 SLP107

CYXE;2010-07-17 11:00;CYXE 171100Z CCA 30013KT 15SM SCT019 BKN055 14/13 A2984 RMK ST3SC2 SLP107

CYXE;2010-07-17 12:00;CYXE 171200Z 29009KT 15SM FEW061 13/13 A2987 RMK SC2 SLP119

CYXE;2010-07-17 12:20;CYXE 171220Z 29011KT 15SM BKN012 14/ RMK ST6

CYXE;2010-07-17 12:48;CYXE 171248Z 30011KT 15SM BKN009 BKN026 14/ RMK ST6SC1

CYXE;2010-07-17 12:55;CYXE 171255Z 29011KT 15SM SCT011 BKN022 14/ RMK ST3SC3

CYXE;2010-07-17 13:00;CYXE 171300Z 29011KT 15SM SCT011 BKN022 14/13 A2990 RMK ST4SC2 SLP127

CYXE;2010-07-17 13:18;CYXE 171318Z 30015KT 15SM BKN013 14/ RMK SC7

CYXE;2010-07-17 14:00;CYXE 171400Z 30013KT 15SM BKN011 15/13 A2990 RMK SC5 SLP128

CYXE;2010-07-17 15:00;CYXE 171500Z CCA 30015KT 15SM SCT015 16/13 A2991 RMK SC4 SLP136

CYXE;2010-07-17 16:00;CYXE 171600Z 29012KT 15SM FEW018 FEW070 FEW280 17/14 A2991 RMK SC1AC1CI1 SLP136

CYXE;2010-07-17 17:00;CYXE 171700Z 30015KT 15SM FEW027 SCT280 19/13 A2992 RMK CU2CI1 SLP137

CYXE;2010-07-17 18:00;CYXE 171800Z 31018G24KT 15SM FEW030 SCT280 20/12 A2992 RMK CU2CI0 SLP136

CYXE;2010-07-17 19:00;CYXE 171900Z 30018KT 15SM FEW050 SCT280 20/12 A2991 RMK CU2CI0 SLP135

CYXE;2010-07-17 20:00;CYXE 172000Z 27013G18KT 15SM SCT048 21/12 A2990 RMK CU4 SLP132

CYXE;2010-07-17 21:00;CYXE 172100Z 29016KT 15SM SCT052 22/12 A2990 RMK CU3 SLP130

CYXE;2010-07-17 22:00;CYXE 172200Z 29014KT 15SM BKN057 BKN086 20/12 A2990 RMK CU5AC1 TCU ASOCTD SLP129

CYXE;2010-07-17 23:00;CYXE 172300Z 29020G26KT 15SM FEW059TCU SCT086 BKN230 22/11 A2990 RMK TCU2AC1CI0 SLP129

CYXE;2010-07-18 00:00;CYXE 180000Z 29020KT 15SM FEW062 SCT069 22/10 A2989 RMK CU2AC1 SLP129

CYXE;2010-07-18 01:00;CYXE 180100Z 29011G17KT 15SM SCT058 BKN083 20/12 A2989 RMK CU3AC2 TCU ASOCTD SLP128

CYXE;2010-07-18 02:00;CYXE 180200Z 30011KT 15SM SCT056 BKN086 19/12 A2989 RMK SC3AC2 SLP129

CYXE;2010-07-18 03:00;CYXE 180300Z 30008KT 15SM FEW063 FEW089 SCT230 18/13 A2990 RMK SC2AC1CI0 SLP132

CYXE;2010-07-18 04:00;CYXE 180400Z 30008KT 15SM FEW066 FEW089 15/13 A2991 RMK AC1AC1 SLP136

CYXE;2010-07-18 05:00;CYXE 180500Z 28007KT 15SM FEW090 14/12 A2992 RMK AC1 SLP138

CYXE;2010-07-18 06:00;CYXE 180600Z 29009KT 15SM SKC 14/11 A2992 RMK SLP140

CYXE;2010-07-18 07:00;CYXE 180700Z 28008KT 15SM SKC 13/11 A2993 RMK SLP142

CYXE;2010-07-18 08:00;CYXE 180800Z 29010KT 15SM SKC 13/11 A2993 RMK SLP142

CYXE;2010-07-18 09:00;CYXE 180900Z 28009KT 15SM SKC 12/11 A2993 RMK SLP142

CYXE;2010-07-18 10:00;CYXE 181000Z 28009KT 15SM SKC 11/11 A2993 RMK SLP142

CYXE;2010-07-18 11:00;CYXE 181100Z 30008KT 15SM SKC 12/11 A2993 RMK SLP143

CYXE;2010-07-18 12:00;CYXE 181200Z 27005KT 15SM SKC 12/11 A2995 RMK SLP148

CYXE;2010-07-18 13:00;CYXE 181300Z 28006KT 15SM FEW110 FEW250 14/11 A2996 RMK AC1CI0 SLP151

CYXE;2010-07-18 14:00;CYXE 181400Z 30009KT 15SM FEW280 15/12 A2996 RMK CI1 SLP152

CYXE;2010-07-18 15:00;CYXE 181500Z 30013KT 15SM FEW280 17/12 A2996 RMK CI1 SLP152

CYXE;2010-07-18 16:00;CYXE 181600Z 30015KT 15SM FEW090 SCT280 18/13 A2996 RMK AC2CI1 SLP150

CYXE;2010-07-18 17:00;CYXE 181700Z 29013KT 15SM FEW070 FEW280 19/13 A2995 RMK CU1CI1 SLP148

CYXE;2010-07-18 18:00;CYXE 181800Z 30015G20KT 15SM FEW035 FEW070 SCT280 20/12 A2994 RMK CU1AC1CI0 SLP146

CYXE;2010-07-18 19:00;CYXE 181900Z 32017G27KT 15SM FEW040 FEW280 21/11 A2994 RMK CU2CI1 SLP145

CYXE;2010-07-18 20:00;CYXE 182000Z 31018KT 15SM FEW040 FEW280 21/11 A2994 RMK CU2CI0 SLP144

CYXE;2010-07-18 21:00;CYXE 182100Z 31014G21KT 15SM FEW050 SCT280 22/12 A2994 RMK CU2CI0 SLP145

CYXE;2010-07-18 22:00;CYXE 182200Z 32015KT 15SM BKN036 BKN300 21/12 A2993 RMK CU5CI1 SLP143

CYXE;2010-07-18 23:00;CYXE 182300Z 33013KT 15SM SCT040 BKN300 22/12 A2993 RMK CU4CI1 SLP142

CYXE;2010-07-19 00:00;CYXE 190000Z 02009KT 15SM FEW030 SCT300 21/14 A2992 RMK CU2CI1 SLP140

CYXE;2010-07-19 01:00;CYXE 190100Z 04007KT 15SM FEW030 FEW300 21/14 A2993 RMK CU2CI1 SLP142

CYXE;2010-07-19 02:00;CYXE 190200Z 02004KT 15SM FEW020 FEW300 20/14 A2994 RMK CU1CI0 SLP144

CYXE;2010-07-19 03:00;CYXE 190300Z 32003KT 15SM FEW020 FEW300 18/14 A2994 RMK CU1CI1 SLP146

CYXE;2010-07-19 04:00;CYXE 190400Z 33003KT 15SM FEW300 17/14 A2995 RMK CI0 SLP149

CYXE;2010-07-19 05:00;CYXE 190500Z 02002KT 15SM FEW100 SCT300 15/14 A2996 RMK AC2CI0 SLP150

CYXE;2010-07-19 06:00;CYXE 190600Z 32005KT 15SM FEW300 14/13 A2995 RMK CI0 SLP149

CYXE;2010-07-19 07:00;CYXE 190700Z 32006KT 15SM FEW300 13/13 A2996 RMK CI0 SLP150

CYXE;2010-07-19 08:00;CYXE 190800Z 34006KT 15SM FEW300 12/12 A2995 RMK CI0 SLP148

CYXE;2010-07-19 09:00;CYXE 190900Z 30003KT 15SM SCT300 13/13 A2996 RMK CI0 SLP151

CYXE;2010-07-19 10:00;CYXE 191000Z 00000KT 15SM FEW300 13/13 A2997 RMK CI0 SLP155

CYXE;2010-07-19 11:00;CYXE 191100Z 30004KT 15SM MIFG FEW120 BKN300 11/11 A2998 RMK AC1CI0 SLP157

CYXE;2010-07-19 12:00;CYXE 191200Z 33004KT 15SM FEW120 BKN300 12/12 A2998 RMK AC1CI0 SLP160

CYXE;2010-07-19 13:00;CYXE 191300Z 02002KT 15SM FEW120 SCT300 14/13 A2999 RMK AC1CI0 SLP162

CYXE;2010-07-19 14:00;CYXE 191400Z 05002KT 15SM FEW120 SCT300 16/14 A2999 RMK AC1CI0 SLP164

CYXE;2010-07-19 15:00;CYXE 191500Z CCA 30002KT 15SM FEW120 SCT300 17/15 A2999 RMK AC1CI1 SLP160

CYXE;2010-07-19 16:00;CYXE 191600Z 30002KT 15SM FEW020 FEW120 SCT300 19/15 A2998 RMK CU1AC1CI1 SLP159

CYXE;2010-07-19 17:00;CYXE 191700Z 05002KT 15SM SCT030 BKN300 20/14 A2998 RMK CU3CI1 SLP159

CYXE;2010-07-19 18:00;CYXE 191800Z 34004KT 15SM BKN026 BKN300 20/14 A2998 RMK CU5CI1 TCU ASOCTD SLP160

CYXE;2010-07-19 19:00;CYXE 191900Z 33002KT 15SM BKN028 BKN300 22/15 A2997 RMK CU5CI0 TCU ASOCTD CONTRAILS SLP156

CYXE;2010-07-19 20:00;CYXE 192000Z 27004KT 15SM BKN032 BKN300 22/14 A2996 RMK CU5CI0 TCU ASOCTD CONTRAILS SLP154

CYXE;2010-07-19 21:00;CYXE 192100Z 30004KT 15SM SCT032 BKN070 BKN300 22/14 A2995 RMK CU3AC3CI0 SLP149

CYXE;2010-07-19 22:00;CYXE 192200Z 32005KT 15SM SCT040 BKN070 BKN300 22/15 A2995 RMK CU3AC3CI0 SLP147

CYXE;2010-07-19 23:00;CYXE 192300Z 31005KT 15SM SCT035TCU BKN070 BKN300 23/15 A2995 RMK TCU3AC2CI1 SLP148

CYXE;2010-07-20 00:00;CYXE 200000Z 34006KT 15SM VCSH BKN044CB BKN070 BKN300 21/15 A2994 RMK CB5AC1CI0 CB W SLP147

CYXE;2010-07-20 01:00;CYXE 200100Z 27006KT 15SM VCSH BKN044CB BKN070 BKN300 20/15 A2995 RMK CB5AC2CI0 CB TOPS NE + S SLP149

CYXE;2010-07-20 02:00;CYXE 200200Z 01002KT 15SM SCT046CB BKN100 19/15 A2996 RMK CB3AC3 SLP154

CYXE;2010-07-20 03:00;CYXE 200300Z 00000KT 15SM SCT044 BKN094 19/14 A2997 RMK CU3AC3 CB ASOCTD SLP154

CYXE;2010-07-20 04:00;CYXE 200400Z 32004KT 15SM BKN042 BKN094 17/14 A2997 RMK SC5AC2 CB EMBD SLP156

CYXE;2010-07-20 05:00;CYXE 200500Z 30004KT 15SM SCT056 BKN096 16/15 A2997 RMK SC3AC3 CB EMBD SLP154

CYXE;2010-07-20 06:00;CYXE 200600Z 07005KT 15SM BKN072 OVC100 17/14 A2996 RMK AC5AC3 SLP150

CYXE;2010-07-20 07:00;CYXE 200700Z 09003KT 15SM SCT070 OVC100 16/14 A2996 RMK AC4AC4 SLP150

CYXE;2010-07-20 08:00;CYXE 200800Z 05005KT 15SM SCT070 OVC120 15/14 A2996 RMK AC3AC4 SLP151

CYXE;2010-07-20 09:00;CYXE 200900Z 19004KT 15SM FEW070 OVC120 15/14 A2996 RMK AC2AC5 SLP152

CYXE;2010-07-20 10:00;CYXE 201000Z 26003KT 15SM FEW070 BKN120 15/15 A2997 RMK AC2AC4 SLP153

CYXE;2010-07-20 11:00;CYXE 201100Z 32006KT 12SM FEW050 BKN120 OVC300 15/14 A2996 RMK SC2AC3CI1 SLP152

CYXE;2010-07-20 12:00;CYXE 201200Z 33003KT 12SM VCSH SCT050 BKN083 OVC300 15/14 A2997 RMK SC3AC3CI1 SLP154

CYXE;2010-07-20 13:00;CYXE 201300Z 27008KT 12SM VCSH FEW020 BKN034 OVC070 15/14 A2998 RMK SC2SC4AC1 SLP158

CYXE;2010-07-20 14:00;CYXE 201400Z 30007KT 15SM VCSH FEW020 BKN034 BKN070 15/14 A2998 RMK SF2SC4AC2 SLP158

CYXE;2010-07-20 15:00;CYXE 201500Z CCA 26005KT 15SM VCSH BKN012 OVC040 16/14 A3000 RMK SC5SC3 SLP164

CYXE;2010-07-20 16:00;CYXE 201600Z 28008KT 15SM VCSH SCT014 BKN040 OVC080 17/15 A3000 RMK SC4SC2AC2 SLP166

CYXE;2010-07-20 17:00;CYXE 201700Z 29008KT 15SM SCT018 BKN041CB OVC300 18/15 A3000 RMK SC3CB3CI0 SLP166

CYXE;2010-07-20 18:00;CYXE 201800Z 32007KT 15SM BKN016 BKN040 OVC300 18/15 A3000 RMK SC5SC2CI0 CB ASOCTD SLP165

CYXE;2010-07-20 19:00;CYXE 201900Z 31005KT 15SM BKN018 BKN073 OVC300 19/15 A3001 RMK SC5AC2CI0 SLP167

CYXE;2010-07-20 20:00;CYXE 202000Z 31002KT 15SM BKN025 BKN073 OVC300 19/15 A3000 RMK SC6AC1CI0 OBS TAKEN +10 SLP164

CYXE;2010-07-20 21:00;CYXE 202100Z 26002KT 15SM BKN020 BKN080 BKN200 20/15 A2999 RMK SC5AC2CI0 SLP161

CYXE;2010-07-20 22:00;CYXE 202200Z 34008KT 15SM FEW022 SCT080 BKN300 20/17 A2998 RMK CU2AC2CI2 SLP160

CYXE;2010-07-20 23:00;CYXE 202300Z 31005KT 15SM FEW025TCU BKN300 21/15 A2997 RMK TCU2CI2 SLP157

CYXE;2010-07-21 00:00;CYXE 210000Z 02006KT 15SM SCT033TCU BKN300 21/15 A2999 RMK TCU3CI1 SLP160

CYXE;2010-07-21 01:00;CYXE 210100Z 36003KT 15SM FEW059CB SCT085 BKN300 19/15 A2998 RMK CB2AC2CI2 SLP159

CYXE;2010-07-21 02:00;CYXE 210200Z 32005KT 15SM FEW060TCU FEW085 BKN300 18/16 A2999 RMK TCU1AC1CI2 CB TOP SW SLP160

CYXE;2010-07-21 03:00;CYXE 210300Z 31003KT 15SM FEW085 BKN300 17/16 A2999 RMK AC2CI2 SLP163

CYXE;2010-07-21 04:00;CYXE 210400Z 28005KT 15SM FEW085 SCT300 15/15 A3000 RMK AC2CI1 SLP166

CYXE;2010-07-21 05:00;CYXE 210500Z 24003KT 15SM FEW085 BKN300 15/15 A3000 RMK AC2CI1 SLP166

CYXE;2010-07-21 06:00;CYXE 210600Z 09002KT 15SM MIFG BKN300 15/15 A3000 RMK CI1 SLP167

CYXE;2010-07-21 07:00;CYXE 210700Z 36003KT 15SM MIFG BKN300 15/15 A3000 RMK CI0 SLP166

CYXE;2010-07-21 08:00;CYXE 210800Z 32002KT 12SM PRFG BKN300 14/14 A2999 RMK CI0 SLP164

CYXE;2010-07-21 09:00;CYXE 210900Z CCA 31003KT 15SM SCT300 14/14 A3000 RMK CI0 SLP164

CYXE;2010-07-21 10:00;CYXE 211000Z 31002KT 15SM FEW120 BKN300 14/14 A3000 RMK AC2CI0 SLP164

CYXE;2010-07-21 11:00;CYXE 211100Z 30002KT 12SM BKN120 OVC300 14/14 A2999 RMK AC6CI0 SLP162

CYXE;2010-07-21 12:00;CYXE 211200Z 00000KT 10SM BKN095 OVC300 14/14 A2999 RMK AC6CI1 SLP160

CYXE;2010-07-21 13:00;CYXE 211300Z 31002KT 12SM SCT093 BKN300 15/15 A2999 RMK AC4CI1 SLP161

CYXE;2010-07-21 13:11;CYXE 211311Z 32006KT 12SM SCT003 BKN093 BKN300 15/ RMK SF2AC2CI1 CB N

CYXE;2010-07-21 14:00;CYXE 211400Z 03008KT 15SM FEW008 SCT050 BKN090 OVC300 17/16 A3000 RMK SF2SC2AC2CI1 SLP165

CYXE;2010-07-21 15:00;CYXE 211500Z 06010KT 12SM FEW008 BKN090 OVC300 16/14 A3000 RMK SF1AC6CI0 SLP167

CYXE;2010-07-21 16:00;CYXE 211600Z 08007KT 15SM FEW012 BKN095 BKN300 18/15 A3000 RMK SF1AC5CI0 HZ SLP165

CYXE;2010-07-21 17:00;CYXE 211700Z 07003KT 12SM FEW020 20/15 A2999 RMK CU1 HZ SLP164

CYXE;2010-07-21 18:00;CYXE 211800Z 36006KT 12SM BKN020 21/16 A2999 RMK CU6 HZ SLP160

CYXE;2010-07-21 19:00;CYXE 211900Z 33004KT 15SM SCT025 22/15 A2997 RMK CU4 CB ASOCTD S SLP156

CYXE;2010-07-21 20:00;CYXE 212000Z 33004KT 15SM SCT030 22/16 A2996 RMK CU4 CB DIST SE + NW SLP152

CYXE;2010-07-21 21:00;CYXE 212100Z 00000KT 15SM SCT038 22/13 A2995 RMK CU4 CB DIST SE + NW SLP147

CYXE;2010-07-21 22:00;CYXE 212200Z 07003KT 15SM SCT052TCU SCT060CB BKN089 23/14 A2994 RMK TCU3CB1AC1 CB WNW SLP143

CYXE;2010-07-21 23:00;CYXE 212300Z 15002KT 15SM SCT041TCU BKN056CB BKN087 21/15 A2993 RMK TCU3CB2AC1 CB NW SHRA SW SLP140

CYXE;2010-07-22 01:00;CYXE 220100Z CCA 04008KT 15SM FEW043 SCT055TCU BKN060CB BKN083 21/13 A2992 RMK SC1TCU2CB2AC1 CB + SHRA N + E VIA YQR FSS SLP136

CYXE;2010-07-22 02:00;CYXE 220200Z 09005KT 15SM FEW040CB SCT080 20/14 A2991 RMK CB2AC2 CB S SLP133

CYXE;2010-07-22 03:00;CYXE 220300Z 12003KT 15SM FEW030TCU FEW080 SCT300 18/14 A2990 RMK TCU1AC2CI0 SLP132

CYXE;2010-07-22 04:00;CYXE 220400Z 12004KT 15SM FEW080 SCT300 17/14 A2991 RMK AC2CI0 SLP133

CYXE;2010-07-22 05:00;CYXE 220500Z 16004KT 15SM FEW300 16/14 A2991 RMK CI0 SLP135

CYXE;2010-07-22 06:00;CYXE 220600Z 05002KT 15SM SKC 15/14 A2989 RMK SLP126

CYXE;2010-07-22 07:00;CYXE 220700Z 12002KT 15SM FEW300 14/13 A2988 RMK CI0 SLP124

CYXE;2010-07-22 08:00;CYXE 220800Z 16002KT 15SM SKC 13/13 A2987 RMK SLP121

CYXE;2010-07-22 09:00;CYXE 220900Z 00000KT 15SM MIFG SKC 14/14 A2987 RMK SLP118

CYXE;2010-07-22 10:00;CYXE 221000Z 12003KT 15SM SKC 13/13 A2987 RMK BR PTCHS SLP118

CYXE;2010-07-22 11:00;CYXE 221100Z 00000KT 8SM SKC 12/12 A2986 RMK BR SLP115

CYXE;2010-07-22 12:00;CYXE 221200Z 08003KT 15SM FEW300 13/13 A2985 RMK CI0 BR PTCHS SLP112

CYXE;2010-07-22 13:00;CYXE 221300Z 09002KT 10SM FEW300 16/15 A2984 RMK CI0 BR SLP110

CYXE;2010-07-22 14:00;CYXE 221400Z 18002KT 15SM FEW300 17/15 A2985 RMK CI1 SLP112

CYXE;2010-07-22 15:00;CYXE 221500Z 19002KT 15SM FEW300 19/16 A2984 RMK CI1 SLP110

CYXE;2010-07-22 16:00;CYXE 221600Z 13002KT 15SM FEW300 21/15 A2983 RMK CI0 SLP108

CYXE;2010-07-22 17:00;CYXE 221700Z 09003KT 15SM SCT034 SCT300 23/15 A2982 RMK CU3CI0 SLP104

CYXE;2010-07-22 18:00;CYXE 221800Z 24005KT 15SM BKN040 23/14 A2982 RMK CU5 SLP100

CYXE;2010-07-22 19:00;CYXE 221900Z 22002KT 15SM SCT044 SCT300 24/13 A2979 RMK CU3CI1 SLP092

CYXE;2010-07-22 20:00;CYXE 222000Z 34002KT 15SM SCT048 BKN075 OVC300 24/15 A2978 RMK CU4AC2CI1 SLP089

CYXE;2010-07-22 21:00;CYXE 222100Z 06002KT 15SM SCT051 BKN070 BKN300 24/14 A2977 RMK CU4AC1CI1 TCU ASOCTD SLP084

CYXE;2010-07-22 22:00;CYXE 222200Z 08006KT 15SM VCSH SCT035TCU BKN300 23/15 A2977 RMK TCU4CI2 SLP083

CYXE;2010-07-22 23:00;CYXE 222300Z 10010KT 15SM VCSH SCT040TCU BKN300 25/13 A2976 RMK TCU4CI1 SLP081

CYXE;2010-07-23 00:00;CYXE 230000Z 10007KT 15SM FEW040 SCT110 SCT300 24/14 A2975 RMK CU2AC1CI0 SLP079

CYXE;2010-07-23 01:00;CYXE 230100Z 11007KT 15SM FEW040 SCT300 23/14 A2974 RMK CU1CI2 SLP076

CYXE;2010-07-23 02:00;CYXE 230200Z 11007KT 15SM FEW040 SCT300 22/13 A2974 RMK CU1CI2 SLP076

CYXE;2010-07-23 03:00;CYXE 230300Z 10007KT 15SM FEW110 BKN300 19/13 A2974 RMK ACC1CI2 SLP076

CYXE;2010-07-23 04:00;CYXE 230400Z 09007KT 15SM BKN300 17/14 A2975 RMK CI2 SLP078

CYXE;2010-07-23 05:00;CYXE 230500Z 10005KT 15SM BKN300 16/13 A2975 RMK CI2 SLP078

CYXE;2010-07-23 06:00;CYXE 230600Z 09003KT 15SM BKN300 16/14 A2975 RMK CI3 SLP077

CYXE;2010-07-23 07:00;CYXE 230700Z 10002KT 15SM SCT300 16/14 A2975 RMK CI1 LTNG DIST W SLP076

CYXE;2010-07-23 08:00;CYXE 230800Z 09004KT 15SM BKN300 15/14 A2975 RMK CI2 OCNL LTNG DIST W SLP078

CYXE;2010-07-23 09:00;CYXE 230900Z 08004KT 15SM BKN300 14/14 A2975 RMK CI2 OCNL LTNG DIST W SLP079

CYXE;2010-07-23 10:00;CYXE 231000Z 07006KT 15SM SCT300 14/14 A2976 RMK CI1 SLP082

CYXE;2010-07-23 11:00;CYXE 231100Z 08005KT 15SM FEW080 SCT300 13/13 A2977 RMK ACC1CI1 SLP084

CYXE;2010-07-23 12:00;CYXE 231200Z 10004KT 15SM FEW010 FEW080 BKN300 14/14 A2979 RMK SF1ACC2CI1 SLP092

CYXE;2010-07-23 13:00;CYXE 231300Z 09002KT 15SM FEW080 SCT300 17/15 A2981 RMK ACC1CI1 SLP098

CYXE;2010-07-23 14:00;CYXE 231400Z 09005KT 15SM FEW080 SCT300 19/16 A2983 RMK ACC1CI1 SLP103

CYXE;2010-07-23 15:00;CYXE 231500Z 10006KT 15SM FEW080 SCT300 20/16 A2983 RMK AC1CI2 SLP106

CYXE;2010-07-23 16:00;CYXE 231600Z 10010KT 15SM FEW080 SCT300 22/15 A2985 RMK AC1CI2 SLP111

CYXE;2010-07-23 17:00;CYXE 231700Z 11008KT 15SM FEW032 FEW080 BKN300 23/15 A2987 RMK CU1AC1CI1 SLP116

CYXE;2010-07-23 18:00;CYXE 231800Z 13009KT 15SM SCT038TCU BKN300 24/15 A2988 RMK TCU3CI1 SLP121

CYXE;2010-07-23 19:00;CYXE 231900Z 14005KT 15SM BKN040TCU BKN300 25/15 A2988 RMK TCU5CI1 SLP121

CYXE;2010-07-23 19:18;CYXE 231918Z 05006KT 15SM TS VCSH BKN040TCU BKN080 BKN300 23/ RMK TCU5AC2CI0 CB EMBD

CYXE;2010-07-23 20:00;CYXE 232000Z 01013KT 15SM TS VCSH BKN030CB BKN300 21/15 A2989 RMK CB5CI2 OCNL LTNG W-NE SLP125

CYXE;2010-07-23 20:01;CYXE 232001Z 02013KT 15SM -TSRA BKN030CB BKN300 21/ RMK CB5CI2 OCNL LTNG W-NE

CYXE;2010-07-23 20:42;CYXE 232042Z 23006KT 15SM -TSRA FEW008 BKN030CB BKN080 BKN300 19/ RERA RMK CF2CB3AC1CI1 OCNL LTNG S

CYXE;2010-07-23 21:00;CYXE 232100Z 20007KT 15SM TS VCSH FEW010 BKN030CB BKN080 BKN300 19/16 A2991 RERA RMK CF2CB3AC1CI1 LTNG E-S SLP136

CYXE;2010-07-23 21:55;CYXE 232155Z 17009KT 15SM VCSH BKN024TCU BKN300 21/ RETS RMK TCU5CI1 CB ASOCTD

CYXE;2010-07-23 22:00;CYXE 232200Z 17007KT 15SM VCSH BKN024TCU BKN300 21/15 A2993 RETS RMK TCU5CI1 CB ASOCTD SLP142

CYXE;2010-07-23 23:00;CYXE 232300Z 00000KT 15SM SCT044TCU BKN300 24/13 A2992 RMK TCU3CI1 CB DIST E SLP140

CYXE;2010-07-24 00:00;CYXE 240000Z 00000KT 15SM FEW044TCU FEW050CB SCT090 SCT300 24/14 A2994 RMK TCU2CB1AC1CI0 CB DIST E SLP142

CYXE;2010-07-24 01:00;CYXE 240100Z 28004KT 15SM FEW044TCU FEW090 FEW300 24/16 A2995 RMK TCU1AC1CI1 SLP145

CYXE;2010-07-24 02:00;CYXE 240200Z 29004KT 15SM FEW040TCU FEW090 FEW250 22/16 A2995 RMK TCU1AC1CI1 SLP147

CYXE;2010-07-24 03:00;CYXE 240300Z 30004KT 15SM FEW090 FEW250 20/17 A2996 RMK AC1CI1 SLP148

CYXE;2010-07-24 04:00;CYXE 240400Z 27003KT 15SM FEW250 17/16 A2997 RMK CI1 SLP153

CYXE;2010-07-24 05:00;CYXE 240500Z 28004KT 15SM FEW250 16/16 A2998 RMK CI0 SLP156

CYXE;2010-07-24 06:00;CYXE 240600Z 27005KT 15SM SKC 16/15 A2999 RMK BR PTCHS SLP159

CYXE;2010-07-24 07:00;CYXE 240700Z 28005KT 15SM SKC 15/15 A3000 RMK BR PTCHS SLP162

CYXE;2010-07-24 08:00;CYXE 240800Z 22002KT 15SM MIFG SKC 15/15 A3000 RMK SLP161

CYXE;2010-07-24 09:00;CYXE 240900Z 21004KT 15SM SKC 14/14 A3000 RMK BR PTCHS SLP164

CYXE;2010-07-24 10:00;CYXE 241000Z 23005KT 12SM FEW300 13/13 A3001 RMK CI0 BR SLP167

CYXE;2010-07-24 11:00;CYXE 241100Z 21005KT 12SM FEW300 13/13 A3002 RMK CI0 BR SLP171

CYXE;2010-07-24 12:00;CYXE 241200Z 24003KT 12SM FEW300 13/13 A3002 RMK CI1 BR SLP171

CYXE;2010-07-24 13:00;CYXE 241300Z 18003KT 15SM SKC 15/15 A3002 RMK SLP172

CYXE;2010-07-24 14:00;CYXE 241400Z 19004KT 15SM SKC 17/16 A3003 RMK SLP174

CYXE;2010-07-24 15:00;CYXE 241500Z 22004KT 15SM SKC 20/18 A3003 RMK SLP173

CYXE;2010-07-24 16:00;CYXE 241600Z 22006KT 15SM SKC 22/17 A3002 RMK SLP170

CYXE;2010-07-24 17:00;CYXE 241700Z 22007KT 15SM FEW024 23/18 A3001 RMK CU1 SLP168

CYXE;2010-07-24 18:00;CYXE 241800Z 22010KT 15SM FEW026 24/18 A3001 RMK CU2 SLP165

CYXE;2010-07-24 19:00;CYXE 241900Z 22010KT 15SM FEW032 24/16 A2999 RMK CU2 SLP160

CYXE;2010-07-24 20:00;CYXE 242000Z 25011KT 15SM SCT035 25/17 A2998 RMK CU3 SLP155

CYXE;2010-07-24 21:00;CYXE 242100Z 22008KT 15SM SCT035 26/17 A2996 RMK CU3 SLP150

CYXE;2010-07-24 22:00;CYXE 242200Z 23012KT 15SM BKN050 26/17 A2995 RMK CU6 TCU ASOCTD SLP146

CYXE;2010-07-24 23:00;CYXE 242300Z 25009KT 15SM BKN050 26/17 A2994 RMK CU6 TCU ASOCTD SLP141

CYXE;2010-07-25 00:00;CYXE 250000Z 20009KT 15SM FEW055 25/16 A2992 RMK CU2 SLP136

CYXE;2010-07-25 01:00;CYXE 250100Z 19012KT 15SM FEW053 25/15 A2991 RMK CU1 SLP133

CYXE;2010-07-25 02:00;CYXE 250200Z 19010KT 15SM FEW110 24/15 A2990 RMK AC1 SLP128

CYXE;2010-07-25 03:00;CYXE 250300Z 19006KT 15SM FEW090 22/15 A2990 RMK AC1 SLP126

CYXE;2010-07-25 04:00;CYXE 250400Z 17005KT 15SM FEW090 FEW250 20/15 A2990 RMK AC1CI1 SLP128

CYXE;2010-07-25 05:00;CYXE 250500Z 18007KT 15SM FEW070 FEW250 20/16 A2990 RMK AC1CI1 CB + LTNG DIST NW SLP127

CYXE;2010-07-25 06:00;CYXE 250600Z 18006KT 15SM SCT080 19/16 A2991 RMK ACC3 SLP128

CYXE;2010-07-25 07:00;CYXE 250700Z 19004KT 15SM SCT080 18/15 A2991 RMK AC3 SLP128

CYXE;2010-07-25 08:00;CYXE 250800Z 19005KT 15SM SCT073 18/15 A2990 RMK AC3 SLP126

CYXE;2010-07-25 09:00;CYXE 250900Z 02007G15KT 15SM BKN073 19/16 A2992 RMK AC5 SLP133

CYXE;2010-07-25 10:00;CYXE 251000Z 06009KT 15SM FEW079 17/15 A2992 RMK AC2 SLP134

CYXE;2010-07-25 11:00;CYXE 251100Z 08008KT 15SM FEW076 16/14 A2991 RMK ACC2 CB TOPS DIST N SLP130

CYXE;2010-07-25 12:00;CYXE 251200Z 08005KT 15SM FEW073 15/14 A2991 RMK ACC2 SLP130

CYXE;2010-07-25 13:00;CYXE 251300Z 09005KT 15SM FEW073 17/16 A2990 RMK ACC2 SLP128

CYXE;2010-07-25 14:00;CYXE 251400Z 15004KT 15SM FEW075 20/16 A2988 RMK AC1 SLP123

CYXE;2010-07-25 15:00;CYXE 251500Z 14005KT 15SM BKN085 22/16 A2987 RMK AC5 SLP116

CYXE;2010-07-25 16:00;CYXE 251600Z 17006KT 15SM BKN100 23/16 A2986 RMK AC5 SLP111

CYXE;2010-07-25 17:00;CYXE 251700Z 15006KT 15SM FEW050 BKN100 24/16 A2985 RMK SC1AC6 SLP108

CYXE;2010-07-25 18:00;CYXE 251800Z 02016KT 15SM FEW050 SCT100 SCT280 23/17 A2986 RMK SC1AC2CI0 SLP113

CYXE;2010-07-25 19:00;CYXE 251900Z 05015KT 15SM FEW050TCU FEW120 23/16 A2984 RMK TCU1AC2 SLP108

CYXE;2010-07-25 20:00;CYXE 252000Z 04016KT 15SM FEW050TCU SCT120 24/17 A2983 RMK TCU1AC2 SLP102

CYXE;2010-07-25 21:00;CYXE 252100Z 06016KT 15SM FEW050 FEW120 24/17 A2982 RMK CU1AC1 SLP098

CYXE;2010-07-25 22:00;CYXE 252200Z 04014KT 15SM FEW050 25/18 A2980 RMK CU2 SLP094

CYXE;2010-07-25 23:00;CYXE 252300Z 05016KT 15SM FEW053 SCT060CB 24/17 A2979 RMK CU2CB2 CB NE SLP090

CYXE;2010-07-26 00:00;CYXE 260000Z 04012KT 15SM FEW055 FEW060CB 24/17 A2979 RMK CU1CB2 CB NE + E SLP091

CYXE;2010-07-26 01:00;CYXE 260100Z 36010KT 15SM FEW050 FEW060CB 22/17 A2980 RMK CU1CB2 CB NE-E + WSW SLP094

CYXE;2010-07-26 02:00;CYXE 260200Z 35006KT 15SM FEW060CB FEW090 FEW230 21/17 A2982 RMK CB1AC1CI1 CB NE + WSW SLP099

CYXE;2010-07-26 03:00;CYXE 260300Z 01007KT 15SM FEW060CB FEW090 18/16 A2983 RMK CB1AC1 CB NE SLP102

CYXE;2010-07-26 04:00;CYXE 260400Z 03006KT 15SM FEW090 FEW230 17/15 A2984 RMK AC1CI0 SLP106

CYXE;2010-07-26 05:00;CYXE 260500Z 07004KT 15SM FEW090 17/15 A2984 RMK AC1 SLP108

CYXE;2010-07-26 06:00;CYXE 260600Z 00000KT 15SM SKC 16/15 A2985 RMK SLP112

CYXE;2010-07-26 07:00;CYXE 260700Z 08004KT 15SM FEW300 16/15 A2984 RMK CI0 SLP108

CYXE;2010-07-26 08:00;CYXE 260800Z 10002KT 15SM SCT300 15/15 A2983 RMK CI0 SLP106

CYXE;2010-07-26 09:00;CYXE 260900Z 29012KT 15SM SCT100 BKN300 16/16 A2989 RMK AC4CI0 SLP124

CYXE;2010-07-26 10:00;CYXE 261000Z 34002KT 15SM SCT083 BKN100 BKN300 16/15 A2986 RMK AC3AC3CI0 SLP114

CYXE;2010-07-26 10:03;CYXE 261003Z 00000KT 15SM SCT083 BKN100 BKN300 16/ RMK AC3AC3CI0

CYXE;2010-07-26 10:05;CYXE 261005Z CCA 00000KT 15SM -SHRA SCT083 BKN100 BKN300 16/ RMK AC3AC3CI0

CYXE;2010-07-26 11:00;CYXE 261100Z 21007KT 15SM -SHRA SCT019 BKN083 16/16 A2986 RMK SC4AC2 CVCTV CLD EMBD SLP115

CYXE;2010-07-26 11:27;CYXE 261127Z 23002KT 15SM VCSH FEW019 BKN032 BKN090 OVC300 16/ RMK ST1SC4AC2CI0 CB DIST SE-SW

CYXE;2010-07-26 12:00;CYXE 261200Z 34007KT 15SM VCSH FEW012 BKN045 OVC075 16/16 A2986 RMK ST1SC4AC2 CB DIST SE SW SLP114

CYXE;2010-07-26 12:10;CYXE 261210Z 31003KT 15SM -SHRA FEW012 SCT045 OVC088 16/ RMK ST2SC2AC3 CB EMBD

CYXE;2010-07-26 13:00;CYXE 261300Z 26004KT 15SM SCT056 OVC086 16/16 A2987 RMK SC3AC4 CB EMBD LTNG SW SLP119

CYXE;2010-07-26 13:17;CYXE 261317Z 26003KT 15SM VCSH BKN085 17/ RMK AC6 CB EMBD

CYXE;2010-07-26 14:00;CYXE 261400Z 21006KT 15SM VCSH FEW075 BKN090 OVC120 17/16 A2987 RMK AC2AC3AC2 CB EMBD SLP119

CYXE;2010-07-26 14:30;CYXE 261430Z 17002KT 15SM -SHRA BKN094 17/ RMK AC6 CB EMBD

CYXE;2010-07-26 15:00;CYXE 261500Z 19003KT 15SM -SHRA FEW048 BKN094 18/17 A2982 RMK SC2AC3 CB EMBD SLP102

CYXE;2010-07-26 15:27;CYXE 261527Z 20006KT 15SM SCT046 BKN100 19/ RMK SC3AC3

CYXE;2010-07-26 16:00;CYXE 261600Z 24005KT 15SM SCT063 BKN100 19/15 A2985 RMK SC3AC4 SLP112

CYXE;2010-07-26 17:00;CYXE 261700Z 34003KT 15SM FEW030 BKN100 20/15 A2985 RMK SC2AC3 SLP114

CYXE;2010-07-26 18:00;CYXE 261800Z 31002KT 15SM FEW040 BKN100 21/15 A2984 RMK SC2AC3 SLP110

CYXE;2010-07-26 19:00;CYXE 261900Z 25002KT 15SM FEW030 SCT100 22/15 A2983 RMK CU2AC2 SLP107

CYXE;2010-07-26 20:00;CYXE 262000Z 33008KT 15SM FEW030 SCT100 23/15 A2984 RMK CU2AC2 SLP108

CYXE;2010-07-26 21:00;CYXE 262100Z 30008KT 15SM FEW030 FEW100 24/17 A2983 RMK CU2AC1 SLP105

CYXE;2010-07-26 22:00;CYXE 262200Z 30011KT 15SM FEW035 FEW100 23/16 A2983 RMK CU1AC1 SLP104

CYXE;2010-07-26 23:00;CYXE 262300Z 30009KT 15SM FEW035 FEW110 22/15 A2983 RMK CU2AC1 SLP106

CYXE;2010-07-27 00:00;CYXE 270000Z CCA 31016KT 15SM FEW035 FEW100 22/14 A2984 RMK CU1AC1 SLP109

CYXE;2010-07-27 01:00;CYXE 270100Z 31010KT 15SM FEW100 FEW280 21/13 A2984 RMK AC1CI0 SLP110

CYXE;2010-07-27 02:00;CYXE 270200Z 30008KT 15SM BKN090 20/14 A2985 RMK AC6 SLP113

CYXE;2010-07-27 03:00;CYXE 270300Z 30007KT 15SM BKN085 18/13 A2987 RMK AC6 SLP120

CYXE;2010-07-27 04:00;CYXE 270400Z 29006KT 15SM BKN075 17/13 A2987 RMK AC6 SLP122

CYXE;2010-07-27 05:00;CYXE 270500Z 27007KT 15SM SCT090 15/13 A2988 RMK AC2 SLP124

CYXE;2010-07-27 06:00;CYXE 270600Z 28006KT 15SM SCT090 14/13 A2988 RMK AC3 SLP123

CYXE;2010-07-27 07:00;CYXE 270700Z 28006KT 15SM BKN100 14/13 A2989 RMK AC5 SLP128

CYXE;2010-07-27 08:00;CYXE 270800Z 28007KT 15SM BKN100 14/13 A2991 RMK AC5 SLP134

CYXE;2010-07-27 09:00;CYXE 270900Z 29008KT 15SM SCT100 13/12 A2991 RMK AC3 SLP133

CYXE;2010-07-27 10:00;CYXE 271000Z 30012KT 15SM FEW100 12/11 A2992 RMK AC1 SLP135

CYXE;2010-07-27 11:00;CYXE 271100Z 31010KT 15SM FEW100 FEW300 11/10 A2993 RMK AC1CI0 SLP139

CYXE;2010-07-27 12:00;CYXE 271200Z 30012KT 15SM FEW100 FEW300 11/10 A2995 RMK AC1CI0 SLP148

CYXE;2010-07-27 13:00;CYXE 271300Z 31011KT 15SM FEW100 FEW300 12/11 A2996 RMK AC1CI0 SLP153

CYXE;2010-07-27 13:47;CYXE 271347Z 32012KT 15SM FEW008 FEW100 FEW300 13/ RMK SF1AC1CI0

CYXE;2010-07-27 14:00;CYXE 271400Z 31011KT 15SM FEW010 FEW100 FEW300 14/12 A2997 RMK SF1AC1CI0 SLP157

CYXE;2010-07-27 15:00;CYXE 271500Z 32013KT 15SM FEW018 15/12 A2999 RMK SC2 SLP161

CYXE;2010-07-27 16:00;CYXE 271600Z 32012G24KT 15SM SCT024 17/12 A2999 RMK SC4 SLP163

CYXE;2010-07-27 17:00;CYXE 271700Z 32014G19KT 15SM BKN024 16/12 A3000 RMK SC6 SLP166

CYXE;2010-07-27 18:00;CYXE 271800Z 31011G17KT 15SM BKN027 18/13 A3001 RMK SC6 SLP171

CYXE;2010-07-27 19:00;CYXE 271900Z 30009G17KT 15SM BKN030 19/13 A3002 RMK SC6 CU ASOCTD SLP173

CYXE;2010-07-27 20:00;CYXE 272000Z 31012KT 15SM BKN035 19/13 A3002 RMK CU6 TCU EMBD SLP174

CYXE;2010-07-27 21:00;CYXE 272100Z 30009KT 15SM BKN040 21/14 A3002 RMK CU6 TCU EMBD SLP173

CYXE;2010-07-27 22:00;CYXE 272200Z 32007KT 15SM SCT040 BKN075 21/14 A3002 RMK CU3AC3 TCU EMBD SLP173

CYXE;2010-07-27 23:00;CYXE 272300Z 29009G15KT 15SM FEW045 SCT075 22/14 A3003 RMK CU2AC1 TCU EMBD SLP174

CYXE;2010-07-28 00:00;CYXE 280000Z 32008KT 15SM FEW043 21/13 A3002 RMK CU2 SLP175

CYXE;2010-07-28 01:00;CYXE 280100Z 33005KT 15SM FEW049 21/15 A3003 RMK CU2 SLP176

CYXE;2010-07-28 02:00;CYXE 280200Z 30005KT 15SM SKC 19/14 A3003 RMK SLP178

CYXE;2010-07-28 03:00;CYXE 280300Z 28005KT 15SM SKC 17/14 A3004 RMK SLP179

CYXE;2010-07-28 04:00;CYXE 280400Z 27004KT 15SM SKC 16/15 A3005 RMK SLP183

CYXE;2010-07-28 05:00;CYXE 280500Z 28006KT 15SM SKC 15/13 A3005 RMK SLP185

CYXE;2010-07-28 06:00;CYXE 280600Z 32006KT 9SM SKC 14/13 A3007 RMK BR SLP190

CYXE;2010-07-28 07:00;CYXE 280700Z 27005KT 8SM SKC 13/13 A3007 RMK BR SLP191

CYXE;2010-07-28 08:00;CYXE 280800Z 27005KT 8SM SKC 13/13 A3007 RMK BR SLP192

CYXE;2010-07-28 09:00;CYXE 280900Z 25005KT 8SM SKC 12/12 A3009 RMK BR SLP196

CYXE;2010-07-28 10:00;CYXE 281000Z 24004KT 8SM SKC 11/11 A3009 RMK BR SLP197

CYXE;2010-07-28 11:00;CYXE 281100Z 23005KT 6SM BR SKC 11/11 A3010 RMK SLP202

CYXE;2010-07-28 12:00;CYXE 281200Z 00000KT 6SM BR FEW250 11/11 A3011 RMK CI0 SLP203

CYXE;2010-07-28 13:00;CYXE 281300Z 20003KT 6SM BR FEW250 13/13 A3010 RMK CI0 SLP202

CYXE;2010-07-28 14:00;CYXE 281400Z 00000KT 12SM FEW280 15/14 A3010 RMK CI0 BR SLP202

CYXE;2010-07-28 15:00;CYXE 281500Z 12002KT 15SM FEW300 19/15 A3011 RMK CI0 SLP202

CYXE;2010-07-28 16:00;CYXE 281600Z 20004KT 15SM SCT300 21/15 A3012 RMK CI0 SLP204

CYXE;2010-07-28 17:00;CYXE 281700Z 22005KT 15SM FEW032 BKN300 22/15 A3012 RMK CU1CI2 SLP204

CYXE;2010-07-28 18:00;CYXE 281800Z 18006KT 15SM FEW035 BKN300 23/13 A3011 RMK CU2CI1 SLP201

CYXE;2010-07-28 19:00;CYXE 281900Z 21006KT 15SM FEW040 BKN300 24/14 A3009 RMK CU2CI2 SLP197

CYXE;2010-07-28 20:00;CYXE 282000Z 11006KT 15SM FEW040 BKN300 25/15 A3009 RMK CU2CI2 SLP195

CYXE;2010-07-28 21:00;CYXE 282100Z 20006KT 15SM FEW050 BKN300 24/15 A3008 RMK CU2CI2 SLP192

CYXE;2010-07-28 22:00;CYXE 282200Z 16007KT 15SM FEW055 FEW120 BKN300 25/14 A3007 RMK CU2AC1CI1 SLP190

CYXE;2010-07-28 23:00;CYXE 282300Z 17005KT 15SM FEW058 FEW120 BKN300 25/15 A3006 RMK CU1AC2CI2 SLP186

CYXE;2010-07-29 00:00;CYXE 290000Z 22003KT 15SM FEW058 FEW120 BKN300 24/13 A3005 RMK CU1AC1CI1 SLP180

CYXE;2010-07-29 01:00;CYXE 290100Z 18006KT 15SM FEW056 BKN120 BKN300 23/14 A3004 RMK CU1AC2CI1 SLP179

CYXE;2010-07-29 02:00;CYXE 290200Z 16006KT 15SM SCT140 22/14 A3002 RMK AC2 SLP173

CYXE;2010-07-29 03:00;CYXE 290300Z 15006KT 15SM SCT140 19/14 A3002 RMK AC2 SLP169

CYXE;2010-07-29 04:00;CYXE 290400Z 16006KT 15SM BKN120 19/13 A3002 RMK AC2 SLP170

CYXE;2010-07-29 05:00;CYXE 290500Z 15005KT 15SM BKN120 18/13 A3002 RMK AC3 SLP171

CYXE;2010-07-29 06:00;CYXE 290600Z 16003KT 15SM BKN120 18/13 A3002 RMK AC2 SLP169

CYXE;2010-07-29 07:00;CYXE 290700Z 15003KT 15SM FEW250 17/13 A3002 RMK CI0 SLP169

CYXE;2010-07-29 08:00;CYXE 290800Z 11004KT 15SM SKC 16/13 A3002 RMK SLP169

CYXE;2010-07-29 09:00;CYXE 290900Z 13005KT 15SM FEW120 15/13 A3000 RMK AC1 SLP163

CYXE;2010-07-29 10:00;CYXE 291000Z 14005KT 15SM FEW078 15/13 A3000 RMK AC2 SLP162

CYXE;2010-07-29 11:00;CYXE 291100Z 14004KT 15SM BKN070 16/14 A3000 RMK AC5 SLP161

CYXE;2010-07-29 12:00;CYXE 291200Z 11006KT 15SM SCT070 15/14 A2999 RMK AC4 SLP158

CYXE;2010-07-29 13:00;CYXE 291300Z 11005KT 15SM FEW070 17/15 A2998 RMK AC1 SLP156

CYXE;2010-07-29 14:00;CYXE 291400Z 13004KT 15SM FEW250 20/15 A2998 RMK CI1 SLP156

CYXE;2010-07-29 15:00;CYXE 291500Z 14004KT 15SM FEW250 22/16 A2996 RMK CI0 SLP149

CYXE;2010-07-29 16:00;CYXE 291600Z 00000KT 15SM FEW250 24/17 A2996 RMK CI1 SLP147

CYXE;2010-07-29 17:00;CYXE 291700Z 14003KT 15SM FEW280 25/16 A2995 RMK CI1 SLP145

CYXE;2010-07-29 18:00;CYXE 291800Z 13006KT 15SM FEW040 FEW280 26/18 A2994 RMK CU1CI1 SLP141

CYXE;2010-07-29 19:00;CYXE 291900Z 15006KT 15SM FEW040 FEW300 27/17 A2994 RMK CU1CI1 SLP140

CYXE;2010-07-29 20:00;CYXE 292000Z 13006KT 15SM FEW040 FEW300 27/18 A2994 RMK CU1CI1 SLP139

CYXE;2010-07-29 21:00;CYXE 292100Z 04003KT 15SM FEW040 SCT300 27/16 A2993 RMK CU2CI1 SLP136

CYXE;2010-07-29 22:00;CYXE 292200Z 11003KT 15SM SCT050TCU BKN300 27/18 A2992 RMK TCU3CI1 SLP134

CYXE;2010-07-29 23:00;CYXE 292300Z 13002KT 15SM SCT050TCU BKN300 28/17 A2991 RMK TCU3CI1 SLP129

CYXE;2010-07-30 00:00;CYXE 300000Z 35002KT 15SM FEW048TCU BKN300 28/18 A2990 RMK TCU2CI1 SLP125

CYXE;2010-07-30 01:00;CYXE 300100Z 08004KT 15SM FEW051 BKN300 27/19 A2988 RMK CU2CI1 SLP120

CYXE;2010-07-30 02:00;CYXE 300200Z 13003KT 15SM FEW052TCU BKN300 25/18 A2987 RMK TCU2CI1 SLP118

CYXE;2010-07-30 03:00;CYXE 300300Z 14004KT 15SM FEW052TCU FEW100 SCT300 23/18 A2987 RMK TCU1AC1CI1 SLP116

CYXE;2010-07-30 04:00;CYXE 300400Z 14005KT 15SM FEW051 SCT300 23/17 A2988 RMK SC2CI0 SLP118

CYXE;2010-07-30 05:00;CYXE 300500Z 08002KT 15SM SCT051 BKN300 22/18 A2989 RMK SC4CI0 SLP122

CYXE;2010-07-30 06:00;CYXE 300600Z 03004KT 15SM FEW062CB SCT085 20/18 A2989 RMK CB2AC1 CB + LTNG E SLP121

CYXE;2010-07-30 07:00;CYXE 300700Z 05005KT 15SM SCT250 19/18 A2988 RMK CI0 SLP118

CYXE;2010-07-30 08:00;CYXE 300800Z 05005KT 15SM FEW250 18/17 A2988 RMK CI0 SLP118

CYXE;2010-07-30 09:00;CYXE 300900Z 12002KT 15SM SKC 18/17 A2988 RMK SLP118

CYXE;2010-07-30 10:00;CYXE 301000Z 25003KT 6SM BR FEW090 SCT250 18/17 A2988 RMK AC1CI1 SLP119

CYXE;2010-07-30 11:00;CYXE 301100Z 21003KT 4SM R09/3000V5500FT/N BR SCT110 BKN250 17/17 A2987 RMK AC3CI2 VIS SW-NW 3/4 BR SLP115

CYXE;2010-07-30 11:11;CYXE 301111Z 25003KT 2SM R09/4500VP6000FT/U BR FEW008 SCT110 BKN250 17/ RMK FG2SF1AC2CI2 VIS SW-NW 3/4 BR

CYXE;2010-07-30 11:23;CYXE 301123Z 30003KT 3/8SM R09/1200V1800FT/N FG BKN110 BKN250 17/ RMK FG4AC2CI1

CYXE;2010-07-30 11:26;CYXE 301126Z 32004KT 5/8SM R09/1200V1800FT/D BR BKN110 BKN250 16/ RMK FG3AC1CI1

CYXE;2010-07-30 11:38;CYXE 301138Z 32005KT 3/4SM R09/2600V4000FT/N BR BKN110 BKN250 16/ RMK FG2AC3CI1

CYXE;2010-07-30 11:44;CYXE 301144Z 31005KT 4SM R09/2800VP6000FT/U BR BKN110 BKN250 16/ RMK FG1AC4CI1 VIS E 3/4 BR

CYXE;2010-07-30 12:00;CYXE 301200Z 27002KT 6SM BR FEW040CB BKN110 OVC250 17/17 A2989 RMK CB1AC3CI1 VIS E 2 BR CB SW SLP121

CYXE;2010-07-30 13:00;CYXE 301300Z 29008KT 15SM FEW040CB BKN093 OVC250 19/18 A2990 RMK CB2AC2CI2 CB EMBD SW SLP124

CYXE;2010-07-30 13:48;CYXE 301348Z 31013KT 15SM TS BKN031CB BKN048TCU OVC070 18/ RMK CB5TCU2AC1 LTGCG SW-W

CYXE;2010-07-30 13:50;CYXE 301350Z 30012G17KT 15SM -TSRA BKN031CB BKN048TCU OVC070 18/ RMK CB5TCU2AC1 LTGCG SW-W

CYXE;2010-07-30 14:00;CYXE 301400Z 29014KT 15SM -TSRA BKN031CB BKN048TCU OVC070 18/15 A2993 RMK CB5TCU2AC1 LTGCG SW-W SLP136

CYXE;2010-07-30 14:46;CYXE 301446Z CCA 26008KT 8SM -TSRA BKN019 OVC048CB 17/ RMK SF5CB3 RE LTGCG 1 W BR

CYXE;2010-07-30 15:00;CYXE 301500Z 25005KT 6SM -TSRA BR BKN019 OVC048CB 17/16 A2993 RMK SF5CB3 SLP139

CYXE;2010-07-30 15:15;CYXE 301515Z 15008KT 15SM -SHRA BKN019 BKN090 17/ RETS RMK SF5AC2 CB EMBD

CYXE;2010-07-30 15:50;CYXE 301550Z 06006KT 15SM SCT019 BKN092 18/ RETS RMK SF3AC4

CYXE;2010-07-30 16:00;CYXE 301600Z CCA 35006KT 15SM SCT021 BKN092 18/17 A2989 RETS RMK SC3AC3 SLP126

CYXE;2010-07-30 17:00;CYXE 301700Z 02007KT 15SM FEW025 SCT090 BKN250 20/17 A2992 RMK SC2AC2CI1 SLP136

CYXE;2010-07-30 18:00;CYXE 301800Z 02004KT 15SM FEW090 FEW270 22/17 A2992 RMK AC1CI1 SLP132

CYXE;2010-07-30 19:00;CYXE 301900Z 36002KT 15SM FEW028 FEW090 FEW270 23/16 A2990 RMK CF1AC1CI1 CF TR SLP128

CYXE;2010-07-30 20:00;CYXE 302000Z 25006KT 15SM FEW028 FEW270 24/17 A2990 RMK CF1CI1 SLP128

CYXE;2010-07-30 21:00;CYXE 302100Z 27009KT 15SM FEW032 FEW300 25/18 A2990 RMK CF1CI0 SLP125

CYXE;2010-07-30 22:00;CYXE 302200Z 30009KT 15SM FEW048 FEW330 26/18 A2989 RMK CU2CI0 SLP122

CYXE;2010-07-30 23:00;CYXE 302300Z 31006KT 15SM FEW048 FEW330 26/18 A2988 RMK CU2CI0 SLP119

CYXE;2010-07-31 00:00;CYXE 310000Z 31007KT 15SM FEW048 SCT330 25/18 A2987 RMK CU2CI0 SLP118

CYXE;2010-07-31 01:00;CYXE 310100Z 30008KT 15SM FEW048 BKN330 23/18 A2987 RMK CU1CI2 SLP118

CYXE;2010-07-31 02:00;CYXE 310200Z 31005KT 15SM OVC300 22/18 A2987 RMK CI5 SLP116

CYXE;2010-07-31 03:00;CYXE 310300Z 34006KT 15SM BKN300 20/18 A2987 RMK CI3 SLP120

CYXE;2010-07-31 04:00;CYXE 310400Z 32006KT 15SM FEW100 BKN300 18/16 A2988 RMK AC1CI3 SLP123

CYXE;2010-07-31 05:00;CYXE 310500Z 31005KT 15SM OVC300 17/15 A2989 RMK CI6 SLP126

CYXE;2010-07-31 06:00;CYXE 310600Z 33007KT 15SM OVC280 16/16 A2990 RMK CI3 SLP130

CYXE;2010-07-31 07:00;CYXE 310700Z 33005KT 15SM OVC280 15/15 A2990 RMK CI3 SLP129

CYXE;2010-07-31 08:00;CYXE 310800Z 00000KT 6SM BR SKC 15/15 A2990 RMK SLP128

CYXE;2010-07-31 09:00;CYXE 310900Z 32004KT 6SM BR SKC 14/14 A2990 RMK SLP128

CYXE;2010-07-31 10:00;CYXE 311000Z 32003KT 6SM BR SKC 14/14 A2991 RMK SLP132

CYXE;2010-07-31 10:11;CYXE 311011Z 31004KT 4SM BR FEW008 SCT230 14/ RMK SF1CI1

CYXE;2010-07-31 11:00;CYXE 311100Z 03002KT 4SM R09/3500FT/N BR BKN230 13/13 A2990 RMK CI2 SLP129

CYXE;2010-07-31 11:26;CYXE 311126Z 00000KT 1 1/2SM R09/2000FT/N BR FEW090 BKN230 13/ RMK FG1AC1CI2

CYXE;2010-07-31 11:38;CYXE 311138Z 34003KT 1SM R09/3500FT/N BR FEW090 BKN230 13/ RMK FG2AC1CI2

CYXE;2010-07-31 11:44;CYXE 311144Z 35003KT 1/2SM R09/1600FT/N FG SCT090 BKN230 13/ RMK FG2AC1CI2

CYXE;2010-07-31 12:00;CYXE 311200Z 00000KT 1/2SM R09/1100V1800FT/N FG SCT090 BKN230 13/13 A2991 RMK FG2AC1CI2 SLP131

CYXE;2010-07-31 12:03;CYXE 311203Z CCA 00000KT 1/4SM R09/1200V1800FT/N FG BKN230 14/ RMK FG3CI2

CYXE;2010-07-31 12:19;CYXE 311219Z 00000KT 1/8SM R09/1100V1800FT/N FG SKC 14/ RMK FG5

CYXE;2010-07-31 13:00;CYXE 311300Z 00000KT 1/4SM R09/0900V1600FT/D FG SCT090 15/15 A2990 RMK FG3AC1 SLP130

CYXE;2010-07-31 13:11;CYXE 311311Z 00000KT 5/8SM R09/2800VP6000FT/N BR SCT090 16/ RMK FG2AC1

CYXE;2010-07-31 13:26;CYXE 311326Z 00000KT 1 1/2SM BR FEW090 FEW280 16/ RMK FG1AC1CI1

CYXE;2010-07-31 13:39;CYXE 311339Z 30002KT 4SM BR FEW090 FEW280 17/ RMK FG1AC1CI1 VIS WSW-NNE 11/2 BR

CYXE;2010-07-31 14:00;CYXE 311400Z 00000KT 4SM BR FEW090 SCT280 17/17 A2990 RMK FG1AC1CI0 VIS NW-NE 11/2 BR SLP130

CYXE;2010-07-31 15:00;CYXE 311500Z 23002KT 15SM FEW280 20/18 A2990 RMK CI0 SLP127

CYXE;2010-07-31 16:00;CYXE 311600Z 29003KT 15SM SKC 22/18 A2990 RMK SLP129

CYXE;2010-07-31 17:00;CYXE 311700Z 30003KT 15SM FEW020 23/19 A2990 RMK CF1 SLP129

CYXE;2010-07-31 18:00;CYXE 311800Z 36002KT 15SM FEW030 FEW120 FEW300 24/17 A2990 RMK CU1AC1CI0 SLP128

CYXE;2010-07-31 19:00;CYXE 311900Z 28004KT 15SM FEW030 FEW300 25/18 A2989 RMK CU1CI1 SLP125

CYXE;2010-07-31 20:00;CYXE 312000Z 29003KT 15SM FEW035 FEW300 26/17 A2988 RMK CU1CI1 SLP122

CYXE;2010-07-31 21:00;CYXE 312100Z 27004KT 15SM FEW035 FEW300 26/18 A2987 RMK CU1CI1 SLP116

CYXE;2010-07-31 22:00;CYXE 312200Z 30005KT 15SM FEW049 FEW350 27/18 A2986 RMK CU1CI0 SLP113

CYXE;2010-07-31 23:00;CYXE 312300Z 26005KT 15SM FEW050 SCT350 27/17 A2984 RMK CU1CI1 SLP107

CYXE;2010-08-01 01:00;CYXE 010100Z 31006KT 15SM BKN350 24/16 A2979 RMK CI2 SLP092

CYXE;2010-08-01 02:00;CYXE 010200Z 31005KT 15SM BKN300 22/17 A2983 RMK CI6 SLP103

CYXE;2010-08-01 03:00;CYXE 010300Z 32005KT 15SM BKN280 21/17 A2984 RMK CI2 SLP107

CYXE;2010-08-01 04:00;CYXE 010400Z 33007KT 15SM BKN250 18/16 A2985 RMK CI2 SLP109

CYXE;2010-08-01 05:00;CYXE 010500Z 32006KT 15SM BKN250 18/16 A2986 RMK CI2 SLP112

CYXE;2010-08-01 06:00;CYXE 010600Z 32007KT 15SM SCT250 17/15 A2985 RMK CI2 SLP110

CYXE;2010-08-01 07:00;CYXE 010700Z 34005KT 15SM OVC250 16/14 A2984 RMK CI2 SLP108

CYXE;2010-08-01 08:00;CYXE 010800Z 30002KT 15SM BKN250 15/14 A2984 RMK CI1 SLP107

CYXE;2010-08-01 09:00;CYXE 010900Z 29003KT 15SM SKC 15/14 A2984 RMK SLP107

CYXE;2010-08-01 10:00;CYXE 011000Z 32004KT 6SM BR SKC 14/14 A2985 RMK SLP109

CYXE;2010-08-01 11:00;CYXE 011100Z 03002KT 6SM BR SCT250 13/13 A2986 RMK CI2 SLP113

CYXE;2010-08-01 12:00;CYXE 011200Z 00000KT 6SM BR SCT250 13/13 A2986 RMK CI2 SLP116

CYXE;2010-08-01 13:00;CYXE 011300Z 26003KT 6SM BR FEW130 SCT250 14/14 A2986 RMK AC1CI2 SLP116

CYXE;2010-08-01 14:00;CYXE 011400Z 32003KT 15SM FEW130 FEW250 17/15 A2985 RMK AC1CI1 SLP113

CYXE;2010-08-01 15:00;CYXE 011500Z 00000KT 15SM FEW280 20/16 A2985 RMK CI1 SLP112

CYXE;2010-08-01 16:00;CYXE 011600Z 00000KT 15SM FEW280 21/15 A2984 RMK CI1 SLP109

CYXE;2010-08-01 17:00;CYXE 011700Z 33002KT 15SM SCT300 22/15 A2983 RMK CI1 SLP104

CYXE;2010-08-01 18:00;CYXE 011800Z 05002KT 15SM BKN300 23/15 A2982 RMK CI2 SLP101

CYXE;2010-08-01 19:00;CYXE 011900Z 00000KT 15SM FEW045 BKN300 24/15 A2982 RMK CU1CI2 SLP100

CYXE;2010-08-01 20:00;CYXE 012000Z 00000KT 15SM FEW040 FEW120 BKN300 24/13 A2981 RMK CU1AC1CI2 SLP096

CYXE;2010-08-01 21:00;CYXE 012100Z 29003KT 15SM FEW040 BKN300 24/15 A2980 RMK CU1CI2 SLP095

CYXE;2010-08-01 22:00;CYXE 012200Z 26004KT 15SM FEW040 BKN300 25/15 A2979 RMK CU2CI1 SLP092

CYXE;2010-08-01 23:00;CYXE 012300Z 24006KT 15SM SCT050TCU BKN300 23/16 A2978 RMK TCU3CI1 SLP090

CYXE;2010-08-02 00:00;CYXE 020000Z 24006KT 15SM FEW048TCU BKN300 24/16 A2978 RMK TCU2CI2 SLP088

CYXE;2010-08-02 01:00;CYXE 020100Z 26009KT 15SM FEW050TCU SCT100 BKN300 21/17 A2978 RMK TCU2AC2CI1 SLP089

CYXE;2010-08-02 02:00;CYXE 020200Z 25006KT 15SM FEW050 BKN100 OVC300 20/17 A2978 RMK CU1AC6CI1 SLP089

CYXE;2010-08-02 03:00;CYXE 020300Z 26005KT 15SM BKN093 OVC300 20/17 A2979 RMK AC6CI1 SLP090

CYXE;2010-08-02 04:00;CYXE 020400Z 28003KT 15SM BKN087 OVC300 19/17 A2979 RMK AC6CI1 SLP092

CYXE;2010-08-02 05:00;CYXE 020500Z 21003KT 15SM OVC091 18/17 A2981 RMK AC7 SLP096

CYXE;2010-08-02 05:27;CYXE 020527Z 23005KT 15SM -RA OVC086 19/ RMK AC7

CYXE;2010-08-02 05:50;CYXE 020550Z 27005KT 15SM FEW062 OVC086 18/ RMK SC2AC6

CYXE;2010-08-02 06:00;CYXE 020600Z 27005KT 15SM FEW062 OVC086 18/17 A2981 RMK SC2AC6 SLP097

CYXE;2010-08-02 06:42;CYXE 020642Z 23008KT 8SM -SHRA OVC057 18/ RMK SC8

CYXE;2010-08-02 07:00;CYXE 020700Z 24006KT 6SM -SHRA OVC028 18/17 A2982 RMK SC8 SLP099

CYXE;2010-08-02 07:54;CYXE 020754Z 25006KT 6SM -TSRA OVC054 18/ RMK SC8 CB EMBD LTGIC S

CYXE;2010-08-02 08:00;CYXE 020800Z 24007KT 8SM -TSRA BKN054 OVC094 18/17 A2982 RMK SC6AC2 CB EMBD LTGIC S SLP099

CYXE;2010-08-02 08:29;CYXE 020829Z 18007KT 6SM TSRA BKN013 OVC092 17/ RMK SC5AC3 CB EMBD

CYXE;2010-08-02 08:47;CYXE 020847Z 32002KT 6SM -SHRA BKN013 OVC092 16/ RETSRA RMK SC5AC3

CYXE;2010-08-02 09:00;CYXE 020900Z 30002KT 6SM -SHRA OVC013 16/16 A2981 RETSRA RMK SC8 LTNG DIST SW SLP098

CYXE;2010-08-02 09:15;CYXE 020915Z 27004KT 8SM -SHRA OVC024 16/ RMK SC8

CYXE;2010-08-02 10:00;CYXE 021000Z 26005KT 8SM -SHRA BKN033 OVC096 17/16 A2981 RMK SC6AC2 SLP098

CYXE;2010-08-02 11:00;CYXE 021100Z 22006KT 8SM -SHRA BKN049 BKN096 OVC250 17/16 A2981 RMK SC6AC2CI0 CVCTV CLD EMBD SLP098

CYXE;2010-08-02 12:00;CYXE 021200Z 23008KT 6SM -SHRA FEW011 SCT039 BKN097 OVC250 16/16 A2982 RMK SC1SC3AC2CI1 CVCTV CLD EMBD SLP101

CYXE;2010-08-02 12:18;CYXE 021218Z 26007KT 6SM BR SCT055 BKN094 OVC250 17/ RMK SC3AC3CI1

CYXE;2010-08-02 13:00;CYXE 021300Z 27006KT 6SM BR BKN094 OVC250 16/16 A2982 RMK AC6CI2 ACC ASOCTD SLP100

CYXE;2010-08-02 14:00;CYXE 021400Z 28006KT 15SM FEW054 BKN110 OVC250 17/16 A2983 RMK SC2AC4CI1 SLP102

CYXE;2010-08-02 15:00;CYXE 021500Z 30007KT 15SM FEW005 BKN075 BKN250 18/16 A2983 RMK SF1AC4CI1 SLP107

CYXE;2010-08-02 16:00;CYXE 021600Z 30007KT 15SM SCT015 BKN080 OVC250 19/17 A2984 RMK SC4AC2CI1 SLP108

CYXE;2010-08-02 17:00;CYXE 021700Z 32004KT 15SM FEW017 SCT055 BKN090 OVC280 21/18 A2984 RMK SC2SC2AC2CI1 TCU EMBD SLP109

CYXE;2010-08-02 18:00;CYXE 021800Z 27007KT 15SM FEW020 SCT065 SCT100 OVC280 21/18 A2984 RMK CU2SC2AC1CI2 TCU EMBD SLP108

CYXE;2010-08-02 19:00;CYXE 021900Z 30008KT 15SM FEW023TCU SCT100 OVC300 22/18 A2984 RMK TCU2AC2CI2 SLP107

CYXE;2010-08-02 20:00;CYXE 022000Z 26004KT 15SM FEW025TCU FEW100 OVC300 24/19 A2983 RMK TCU2AC1CI3 SLP106

CYXE;2010-08-02 21:00;CYXE 022100Z 23006KT 15SM VCSH FEW034CB SCT050TCU OVC300 24/18 A2983 RMK CB1TCU3CI2 CB DIST NW SLP104

CYXE;2010-08-02 22:00;CYXE 022200Z 25009KT 15SM VCSH BKN034TCU BKN050CB BKN300 24/18 A2983 RMK TCU5CB1CI1 SLP104

CYXE;2010-08-02 22:24;CYXE 022224Z 23009KT 15SM -SHRA BKN034TCU BKN050CB OVC300 21/ RMK TCU5CB1CI1

CYXE;2010-08-02 22:41;CYXE 022241Z 22008KT 15SM -TSRA BKN045TCU 22/ RMK TCU6 CB EMBD

CYXE;2010-08-02 23:00;CYXE 022300Z 33021KT 10SM -TSRA BKN045CB 20/15 A2983 RMK CB7 SLP105

CYXE;2010-08-02 23:42;CYXE 022342Z 03007KT 15SM TS VCSH BKN040CB BKN090 20/ RERA RMK CB5AC2

CYXE;2010-08-03 00:00;CYXE 030000Z 05003KT 15SM VCSH BKN040TCU BKN090 21/17 A2986 RETSRA RMK TCU5AC2 SLP116

CYXE;2010-08-03 01:00;CYXE 030100Z 21004KT 15SM SCT048TCU BKN300 21/17 A2986 RETSRA RMK TCU3CI0 SLP116

CYXE;2010-08-03 02:00;CYXE 030200Z 30006KT 15SM FEW055 SCT300 21/17 A2987 RMK CU2CI1 SLP119

CYXE;2010-08-03 03:00;CYXE 030300Z 28007KT 15SM FEW055 FEW100 SCT300 18/16 A2988 RMK CU1AC1CI1 SLP123

CYXE;2010-08-03 04:00;CYXE 030400Z 28007KT 15SM FEW055 FEW100 SCT300 17/16 A2990 RMK CU1AC1CI1 SLP129

CYXE;2010-08-03 05:00;CYXE 030500Z 29007KT 15SM FEW300 17/15 A2992 RMK CI1 SLP135

CYXE;2010-08-03 06:00;CYXE 030600Z 27007KT 15SM SKC 16/15 A2992 RMK SLP137

CYXE;2010-08-03 07:00;CYXE 030700Z 28008KT 15SM SKC 15/14 A2992 RMK SLP138

CYXE;2010-08-03 08:00;CYXE 030800Z 27006KT 15SM SKC 14/13 A2993 RMK SLP139

CYXE;2010-08-03 09:00;CYXE 030900Z 28006KT 15SM SKC 14/13 A2993 RMK SLP139

CYXE;2010-08-03 10:00;CYXE 031000Z 27005KT 15SM FEW120 FEW250 13/12 A2994 RMK AC1CI0 SLP142

CYXE;2010-08-03 11:00;CYXE 031100Z 26005KT 15SM FEW120 BKN250 13/12 A2995 RMK AC1CI1 SLP147

CYXE;2010-08-03 12:00;CYXE 031200Z 28007KT 15SM FEW120 BKN250 13/12 A2996 RMK AC1CI2 SLP152

CYXE;2010-08-03 13:00;CYXE 031300Z 30009KT 15SM SCT130 BKN250 14/13 A2996 RMK AC2CI2 TCU TPS DIST NW SLP154

CYXE;2010-08-03 14:00;CYXE 031400Z 29008KT 15SM FEW140 BKN250 14/13 A2998 RMK AC2CI2 TCU TPS DIST NW SLP160

CYXE;2010-08-03 15:00;CYXE 031500Z 29010KT 15SM FEW010 FEW140 BKN280 16/15 A2999 RMK CF1AC1CI2 SLP162

CYXE;2010-08-03 16:00;CYXE 031600Z 29010KT 15SM FEW019 SCT280 19/16 A3000 RMK SC2CI1 SLP164

CYXE;2010-08-03 17:00;CYXE 031700Z 29012G17KT 15SM FEW024 SCT300 20/15 A3000 RMK SC2CI1 SLP166

CYXE;2010-08-03 18:00;CYXE 031800Z 31015KT 15SM SCT020 SCT300 20/15 A3001 RMK CU3CI1 SLP168

CYXE;2010-08-03 19:00;CYXE 031900Z 31012G17KT 15SM VCSH SCT020 SCT300 20/16 A3001 RMK CU3CI1 SLP167

CYXE;2010-08-03 20:00;CYXE 032000Z 33010KT 15SM VCSH BKN024TCU BKN300 20/16 A3001 RMK TCU5CI1 SLP168

CYXE;2010-08-03 21:00;CYXE 032100Z 32010KT 15SM BKN020TCU BKN300 20/16 A3001 RMK TCU5CI1 CB TOP DIST N SLP171

CYXE;2010-08-03 21:46;CYXE 032146Z 35014KT 15SM -SHRA BKN028CB BKN062 18/ RMK CB5AC2

CYXE;2010-08-03 22:00;CYXE 032200Z 35010G16KT 12SM -SHRA BKN020CB OVC075 17/15 A3003 RMK CB5AC3 LTGCG DIST W SLP175

CYXE;2010-08-03 22:33;CYXE 032233Z 35007KT 15SM VCSH FEW020 SCT028CB BKN075 18/ RMK SC2CB2AC3

CYXE;2010-08-03 23:00;CYXE 032300Z 31007KT 15SM VCSH FEW020 SCT028CB BKN074 18/16 A3004 RMK SC2CB2AC3 SLP178

CYXE;2010-08-04 00:00;CYXE 040000Z 31009KT 15SM FEW020 SCT051TCU BKN081 19/16 A3004 RMK SC2TCU2AC3 SLP180

CYXE;2010-08-04 01:00;CYXE 040100Z 31007KT 15SM SCT038 BKN095 18/15 A3004 RMK SC3AC2 SLP181

CYXE;2010-08-04 02:00;CYXE 040200Z 36005KT 15SM FEW035 SCT091 16/12 A3005 RMK SC2AC2 SLP184

CYXE;2010-08-04 03:00;CYXE 040300Z 30005KT 15SM FEW035 SCT091 16/13 A3007 RMK SC1AC2 SLP190

CYXE;2010-08-04 04:00;CYXE 040400Z 30007KT 15SM SCT087 13/13 A3008 RMK AC3 SLP194

CYXE;2010-08-04 05:00;CYXE 040500Z 31007KT 15SM FEW087 13/12 A3009 RMK AC2 SLP197

CYXE;2010-08-04 06:00;CYXE 040600Z 30006KT 15SM FEW250 11/11 A3009 RMK CI1 SLP200

CYXE;2010-08-04 07:00;CYXE 040700Z 30006KT 15SM SKC 11/11 A3010 RMK SLP201

CYXE;2010-08-04 08:00;CYXE 040800Z 31006KT 15SM SKC 11/11 A3010 RMK SLP201

CYXE;2010-08-04 09:00;CYXE 040900Z 30007KT 15SM SKC 10/10 A3010 RMK SLP202

CYXE;2010-08-04 10:00;CYXE 041000Z 30007KT 15SM FEW250 10/10 A3010 RMK CI0 SLP202

CYXE;2010-08-04 11:00;CYXE 041100Z 30007KT 15SM SCT250 10/10 A3010 RMK CI2 SLP203

CYXE;2010-08-04 12:00;CYXE 041200Z 30007KT 15SM BKN250 10/10 A3011 RMK CI2 SLP207

CYXE;2010-08-04 13:00;CYXE 041300Z 30006KT 15SM BKN250 11/10 A3011 RMK CI2 SLP208

CYXE;2010-08-04 14:00;CYXE 041400Z 30008KT 15SM BKN300 13/11 A3011 RMK CI4 SLP208

CYXE;2010-08-04 15:00;CYXE 041500Z 31009KT 15SM BKN300 15/13 A3012 RMK CI2 SLP207

CYXE;2010-08-04 16:00;CYXE 041600Z 29008KT 15SM FEW300 17/12 A3011 RMK CI0 SLP204

CYXE;2010-08-04 17:00;CYXE 041700Z 31010KT 15SM BKN300 19/11 A3010 RMK CI3 SLP203

CYXE;2010-08-04 18:00;CYXE 041800Z 33013G18KT 15SM BKN300 19/09 A3010 RMK CI0 SLP202

CYXE;2010-08-04 19:00;CYXE 041900Z 32013G18KT 15SM FEW040 OVC300 20/10 A3009 RMK CU1CI2 SLP198

CYXE;2010-08-04 20:00;CYXE 042000Z 33013KT 15SM FEW040 OVC300 20/10 A3009 RMK CU1CI0 SLP197

CYXE;2010-08-04 21:00;CYXE 042100Z 31010G17KT 15SM FEW040 OVC300 21/11 A3007 RMK CU1CI2 SLP191

CYXE;2010-08-04 22:00;CYXE 042200Z 32011KT 15SM FEW040 OVC300 21/11 A3006 RMK CU1CI2 SLP188

CYXE;2010-08-04 23:00;CYXE 042300Z 31008KT 15SM FEW040 OVC300 21/11 A3005 RMK CU1CI2 SLP185

CYXE;2010-08-05 00:00;CYXE 050000Z 31011KT 15SM OVC300 21/10 A3004 RMK CI3 SLP181

CYXE;2010-08-05 01:00;CYXE 050100Z 32008KT 15SM FEW090 OVC300 19/11 A3004 RMK AC1CI3 SLP180

CYXE;2010-08-05 02:00;CYXE 050200Z 30006KT 15SM FEW100 OVC300 18/12 A3003 RMK AC2CI2 SLP178

CYXE;2010-08-05 03:00;CYXE 050300Z 29006KT 15SM FEW100 BKN300 15/12 A3004 RMK AC2CI2 SLP180

CYXE;2010-08-05 04:00;CYXE 050400Z 28007KT 15SM FEW100 BKN300 14/11 A3005 RMK AC2CI2 SLP184

CYXE;2010-08-05 05:00;CYXE 050500Z 29007KT 15SM BKN300 13/11 A3005 RMK CI2 SLP183

CYXE;2010-08-05 06:00;CYXE 050600Z 30007KT 15SM BKN300 12/11 A3005 RMK CI2 SLP183

CYXE;2010-08-05 07:00;CYXE 050700Z 28005KT 15SM SCT300 12/11 A3005 RMK CI2 SLP183

CYXE;2010-08-05 08:00;CYXE 050800Z 27006KT 15SM FEW084 SCT300 11/11 A3004 RMK AC1CI2 SLP182

CYXE;2010-08-05 09:00;CYXE 050900Z 27006KT 15SM SCT300 11/10 A3004 RMK CI2 SLP180

CYXE;2010-08-05 10:00;CYXE 051000Z 28007KT 15SM BKN300 11/11 A3003 RMK CI2 SLP178

CYXE;2010-08-05 11:00;CYXE 051100Z 30006KT 15SM SCT064 OVC300 12/11 A3003 RMK SC4CI3 SLP178

CYXE;2010-08-05 12:00;CYXE 051200Z 28007KT 15SM SCT064 BKN093 12/11 A3003 RMK SC3AC3 SLP178

CYXE;2010-08-05 13:00;CYXE 051300Z 29006KT 15SM SCT093 13/12 A3004 RMK AC2 SLP179

CYXE;2010-08-05 14:00;CYXE 051400Z 30006KT 15SM BKN092 14/13 A3004 RMK AC6 SLP181

CYXE;2010-08-05 15:00;CYXE 051500Z 28005KT 15SM BKN086 15/13 A3005 RMK AC7 SLP187

CYXE;2010-08-05 16:00;CYXE 051600Z 30004KT 15SM BKN084 17/14 A3005 RMK AC7 SLP187

CYXE;2010-08-05 17:00;CYXE 051700Z 27004KT 15SM BKN086 18/15 A3005 RMK AC7 SLP186

CYXE;2010-08-05 18:00;CYXE 051800Z 26004KT 15SM BKN085 19/15 A3004 RMK AC7 SLP182

CYXE;2010-08-05 19:00;CYXE 051900Z 28008KT 15SM FEW023TCU SCT085 21/15 A3003 RMK TCU1AC3 SLP179

CYXE;2010-08-05 20:00;CYXE 052000Z 30009KT 15SM FEW044 SCT085 22/14 A3002 RMK CU2AC2 CB EMBD SLP175

CYXE;2010-08-05 21:00;CYXE 052100Z CCA 30006KT 15SM SCT044 BKN080 BKN120 23/14 A3001 RMK CU3AC2AC2 SLP170

CYXE;2010-08-05 22:00;CYXE 052200Z 01004KT 15SM BKN044 BKN080 21/15 A3000 RMK SC6AC2 SLP167

CYXE;2010-08-05 23:00;CYXE 052300Z 02004KT 15SM FEW044 BKN070 22/15 A2999 RMK SC2AC5 SLP162

CYXE;2010-08-06 00:00;CYXE 060000Z 05002KT 15SM FEW044 BKN077 22/15 A2997 RMK CU1AC6 SLP155

CYXE;2010-08-06 01:00;CYXE 060100Z 00000KT 15SM SCT077 23/15 A2996 RMK AC3 SLP150

CYXE;2010-08-06 02:00;CYXE 060200Z 00000KT 15SM FEW077 FEW250 21/16 A2994 RMK AC1CI0 SLP144

CYXE;2010-08-06 03:00;CYXE 060300Z 18003KT 15SM FEW077 FEW250 19/14 A2993 RMK AC1CI0 SLP142

CYXE;2010-08-06 04:00;CYXE 060400Z 16004KT 15SM FEW250 17/14 A2994 RMK CI0 SLP145

CYXE;2010-08-06 05:00;CYXE 060500Z 20005KT 15SM SKC 17/14 A2994 RMK SLP146

CYXE;2010-08-06 06:00;CYXE 060600Z 18005KT 15SM SKC 15/13 A2994 RMK SLP145

CYXE;2010-08-06 07:00;CYXE 060700Z 19006KT 15SM SKC 16/14 A2993 RMK SLP143

CYXE;2010-08-06 08:00;CYXE 060800Z 19007KT 15SM SKC 15/13 A2993 RMK SLP143

CYXE;2010-08-06 09:00;CYXE 060900Z 19006KT 15SM SKC 15/13 A2992 RMK SLP135

CYXE;2010-08-06 10:00;CYXE 061000Z 19005KT 15SM SKC 14/13 A2991 RMK SLP132

CYXE;2010-08-06 11:00;CYXE 061100Z 20005KT 15SM SKC 14/13 A2990 RMK SLP130

CYXE;2010-08-06 12:00;CYXE 061200Z 19004KT 15SM BKN300 14/13 A2990 RMK CI3 SLP131

CYXE;2010-08-06 13:00;CYXE 061300Z 19005KT 15SM BKN300 15/13 A2990 RMK CI2 SLP129

CYXE;2010-08-06 14:00;CYXE 061400Z 19008KT 15SM SCT300 16/14 A2989 RMK CI2 SLP126

CYXE;2010-08-06 15:00;CYXE 061500Z 19006KT 15SM SCT300 19/15 A2987 RMK CI1 SLP119

CYXE;2010-08-06 16:00;CYXE 061600Z 17008KT 15SM SCT300 22/15 A2986 RMK CI1 SLP116

CYXE;2010-08-06 17:00;CYXE 061700Z 18010KT 15SM BKN300 24/15 A2984 RMK CI1 SLP109

CYXE;2010-08-06 18:00;CYXE 061800Z 18013KT 15SM BKN300 25/14 A2982 RMK CI1 SLP100

CYXE;2010-08-06 19:00;CYXE 061900Z 18014KT 15SM FEW120 OVC300 25/14 A2979 RMK AC1CS2 SLP092

CYXE;2010-08-06 20:00;CYXE 062000Z 17012KT 15SM OVC300 26/15 A2977 RMK CS2 SLP085

CYXE;2010-08-06 21:00;CYXE 062100Z 17011G17KT 15SM FEW120 OVC300 27/16 A2975 RMK AC1CS2 SLP076

CYXE;2010-08-06 22:00;CYXE 062200Z 17009G15KT 15SM FEW120 OVC300 27/16 A2974 RMK ACC1CI2 SLP072

CYXE;2010-08-06 23:00;CYXE 062300Z 15008KT 15SM FEW120 OVC300 28/16 A2970 RMK AC1CI2 SLP061

CYXE;2010-08-07 00:00;CYXE 070000Z 14009KT 15SM FEW120 BKN300 27/17 A2968 RMK AC1CI1 SLP052

CYXE;2010-08-07 01:00;CYXE 070100Z 12011KT 15SM FEW120 BKN300 26/17 A2965 RMK AC2CI2 SLP041

CYXE;2010-08-07 02:00;CYXE 070200Z 13014KT 15SM SCT020 BKN110 OVC300 25/16 A2963 RMK SC3AC2CI1 CB ASOCTD SLP037

CYXE;2010-08-07 03:00;CYXE 070300Z 15013KT 15SM SCT020 BKN110 OVC300 24/16 A2963 RMK SC3AC2CI1 LTNG DIST NW SLP033

CYXE;2010-08-07 04:00;CYXE 070400Z 16009KT 15SM FEW020 BKN110 OVC300 23/17 A2963 RMK SC1AC5CI2 SLP033

CYXE;2010-08-07 05:00;CYXE 070500Z 00000KT 15SM FEW020 BKN110 OVC300 21/17 A2962 RMK SC1AC5CI2 LTNG DIST SW-W SLP031

CYXE;2010-08-07 06:00;CYXE 070600Z 35005KT 15SM BKN110 OVC300 19/17 A2961 RMK AC6CI2 CB + LTNG DIST SW-NW SLP027

CYXE;2010-08-07 07:00;CYXE 070700Z 05006KT 15SM SCT110 BKN300 19/17 A2960 RMK AC3CI0 SLP022

CYXE;2010-08-07 08:00;CYXE 070800Z 10010KT 15SM FEW110 BKN300 19/16 A2958 RMK AC2CI1 CB + LTNG DIST NW SLP016

CYXE;2010-08-07 09:00;CYXE 070900Z 14006KT 15SM OVC300 19/16 A2957 RMK CI2 SLP011

CYXE;2010-08-07 10:00;CYXE 071000Z 17003KT 15SM BKN300 17/16 A2956 RMK CI2 SLP007

CYXE;2010-08-07 11:00;CYXE 071100Z 18006KT 15SM FEW110 BKN300 16/15 A2955 RMK ACC1CI1 SLP004

CYXE;2010-08-07 12:00;CYXE 071200Z 23005KT 15SM FEW110 SCT300 15/14 A2955 RMK ACC1CI0 SLP006

CYXE;2010-08-07 13:00;CYXE 071300Z 24005KT 15SM FEW110 SCT300 15/15 A2954 RMK AC1CI0 SLP005

CYXE;2010-08-07 14:00;CYXE 071400Z 29008KT 15SM FEW110 BKN300 18/16 A2955 RMK AC1CI2 SLP006

CYXE;2010-08-07 15:00;CYXE 071500Z 25006KT 15SM FEW110 BKN300 19/16 A2955 RMK AC2CI2 SLP005

CYXE;2010-08-07 16:00;CYXE 071600Z 28007KT 15SM SCT300 23/18 A2955 RMK CI2 SLP005

CYXE;2010-08-07 17:00;CYXE 071700Z 27006KT 15SM FEW300 24/19 A2956 RMK CI1 SLP008

CYXE;2010-08-07 18:00;CYXE 071800Z 31009KT 15SM FEW020 SCT300 25/21 A2956 RMK CU1CI1 SLP010

CYXE;2010-08-07 19:00;CYXE 071900Z 28008KT 15SM FEW026 BKN300 25/19 A2957 RMK CU1CI2 SLP012

CYXE;2010-08-07 20:00;CYXE 072000Z 30009KT 15SM FEW037 OVC300 26/20 A2957 RMK CU2CI3 SLP014

CYXE;2010-08-07 21:00;CYXE 072100Z 30009KT 15SM FEW039 OVC300 26/16 A2957 RMK CU2CI2 TCU ASOCTD SLP014

CYXE;2010-08-07 22:00;CYXE 072200Z 30006KT 15SM FEW049TCU OVC300 26/18 A2957 RMK TCU2CI2 SLP014

CYXE;2010-08-07 23:00;CYXE 072300Z 30008KT 15SM FEW049 OVC300 26/17 A2957 RMK CU2CI2 TCU ASOCTD SLP014

CYXE;2010-08-08 00:00;CYXE 080000Z 30008KT 15SM FEW054 OVC300 25/17 A2958 RMK CU1CI2 SLP020

CYXE;2010-08-08 01:00;CYXE 080100Z 30007KT 15SM FEW054 OVC300 25/17 A2959 RMK CU1CS2 SLP021

CYXE;2010-08-08 02:00;CYXE 080200Z 30005KT 8SM OVC300 22/17 A2960 RMK CS5 HZ SLP025

CYXE;2010-08-08 03:00;CYXE 080300Z 28005KT 8SM OVC300 19/17 A2961 RMK CS3 HZ SLP031

CYXE;2010-08-08 04:00;CYXE 080400Z 27004KT 8SM BKN280 18/17 A2962 RMK CS2 HZ SLP034

CYXE;2010-08-08 05:00;CYXE 080500Z 26005KT 6SM BR SKC 17/17 A2964 RMK SLP040

CYXE;2010-08-08 06:00;CYXE 080600Z 22005KT 6SM BR SKC 16/16 A2965 RMK SLP040

CYXE;2010-08-08 07:00;CYXE 080700Z 25004KT 6SM BR SKC 17/16 A2964 RMK SLP038

CYXE;2010-08-08 08:00;CYXE 080800Z 00000KT 4SM BR SKC 16/16 A2964 RMK SLP039

CYXE;2010-08-08 09:00;CYXE 080900Z 22003KT 6SM BR SKC 15/15 A2965 RMK SLP041

CYXE;2010-08-08 10:00;CYXE 081000Z 21006KT 6SM BR SKC 15/15 A2966 RMK SLP044

CYXE;2010-08-08 11:00;CYXE 081100Z 22004KT 5SM BR SKC 14/14 A2966 RMK SLP045

CYXE;2010-08-08 12:00;CYXE 081200Z 20003KT 5SM BR SKC 15/14 A2967 RMK SLP049

CYXE;2010-08-08 13:00;CYXE 081300Z 00000KT 8SM SKC 15/15 A2968 RMK HZ SLP052

CYXE;2010-08-08 14:00;CYXE 081400Z 18003KT 15SM SKC 18/16 A2969 RMK HZ SLP054

CYXE;2010-08-08 15:00;CYXE 081500Z 19005KT 12SM SKC 21/17 A2968 RMK HZ SLP053

CYXE;2010-08-08 16:00;CYXE 081600Z 19008KT 15SM SKC 24/18 A2968 RMK HZ SLP052

CYXE;2010-08-08 17:00;CYXE 081700Z 17010KT 12SM SKC 26/16 A2967 RMK HZ SLP049

CYXE;2010-08-08 18:00;CYXE 081800Z 17009KT 12SM SKC 27/18 A2967 RMK HZ SLP048

CYXE;2010-08-08 19:00;CYXE 081900Z 18010KT 15SM FEW300 28/18 A2965 RMK CI0 HZ SLP043

CYXE;2010-08-08 20:00;CYXE 082000Z 21011KT 12SM SCT080 BKN300 28/16 A2965 RMK AC3CI1 HZ SLP041

CYXE;2010-08-08 21:00;CYXE 082100Z 23012KT 12SM FEW050 SCT090 BKN300 29/17 A2965 RMK CU2AC2CI1 HZ SLP041

CYXE;2010-08-08 22:00;CYXE 082200Z 24011G16KT 15SM FEW050CB FEW090 SCT300 28/15 A2964 RMK CB2AC1CI0 SLP036

CYXE;2010-08-08 23:00;CYXE 082300Z 23014G20KT 15SM FEW050CB FEW070 BKN300 28/15 A2962 RMK CB2CU1CS0 CB NW-NE SLP031

CYXE;2010-08-09 00:00;CYXE 090000Z 23011KT 15SM FEW050CB FEW070TCU SCT300 27/17 A2963 RMK CB1TCU1CI1 CB N SLP035

CYXE;2010-08-09 01:00;CYXE 090100Z 24006KT 15SM FEW050CB FEW070TCU FEW120 BKN300 25/17 A2964 RMK CB1TCU1AC1CI1 CB SW-W SLP039

CYXE;2010-08-09 02:00;CYXE 090200Z 31007KT 15SM SCT073CB BKN087 BKN300 22/17 A2964 RMK CB3AC2CI0 CB + LTNG SSW-W SLP038

CYXE;2010-08-09 02:02;CYXE 090202Z 31008KT 15SM TS SCT073CB BKN087 BKN300 22/ RMK CB3AC2CI0 CB + LTGIC SSW

CYXE;2010-08-09 02:13;CYXE 090213Z 28012KT 2SM +TSRA SCT049CB BKN087 BKN300 22/ RMK CB4AC2CI0 VIS S 2 LTGICCG

CYXE;2010-08-09 02:17;CYXE 090217Z 25025G32KT 2SM +TSRA SCT049CB BKN087 BKN300 20/ RMK CB4AC2CI1 LTGICCG

CYXE;2010-08-09 02:35;CYXE 090235Z 31012G18KT 4SM -TSRA BKN049CB BKN087 BKN300 18/ RMK CB5AC2CI1 LTGICCG N + E

CYXE;2010-08-09 02:53;CYXE 090253Z 31010KT 15SM TS BKN049CB BKN087 18/ RERA RMK CB5AC1 LTGIC N + E

CYXE;2010-08-09 03:00;CYXE 090300Z 31008KT 15SM SCT049CB BKN110 BKN300 18/17 A2969 RETSRA RMK CB4AC2CI1 LTNG NE CB MVG NE SLP056

CYXE;2010-08-09 04:00;CYXE 090400Z 26003KT 15SM BKN099 BKN280 17/17 A2970 RMK AC5CI2 SLP060

CYXE;2010-08-09 05:00;CYXE 090500Z 26006KT 15SM BKN099 16/16 A2971 RMK AC6 SLP063

CYXE;2010-08-09 06:00;CYXE 090600Z 26004KT 15SM FEW100 16/15 A2973 RMK AC2 SLP067

CYXE;2010-08-09 07:00;CYXE 090700Z 21002KT 10SM SKC 15/15 A2974 RMK BR SLP071

CYXE;2010-08-09 08:00;CYXE 090800Z 26006KT 10SM SCT100 15/15 A2974 RMK AC2 BR SLP071

CYXE;2010-08-09 09:00;CYXE 090900Z 26006KT 10SM SCT100 15/15 A2975 RMK AC2 BR SLP075

CYXE;2010-08-09 10:00;CYXE 091000Z 26005KT 10SM SKC 14/14 A2977 RMK BR SLP081

CYXE;2010-08-09 11:00;CYXE 091100Z 26007KT 10SM FEW100 14/14 A2978 RMK AC1 BR SLP084

CYXE;2010-08-09 12:00;CYXE 091200Z 21005KT 10SM SKC 14/14 A2979 RMK HZ SLP090

CYXE;2010-08-09 13:00;CYXE 091300Z 26005KT 10SM SKC 15/15 A2979 RMK HZ SLP091

CYXE;2010-08-09 14:00;CYXE 091400Z 24005KT 12SM SKC 17/16 A2981 RMK HZ SLP097

CYXE;2010-08-09 15:00;CYXE 091500Z 25005KT 15SM SKC 18/17 A2982 RMK SLP103

CYXE;2010-08-09 16:00;CYXE 091600Z 24007KT 15SM SKC 20/17 A2983 RMK HZ SLP106

CYXE;2010-08-09 17:00;CYXE 091700Z 27007KT 15SM SKC 22/17 A2984 RMK SLP108

CYXE;2010-08-09 18:00;CYXE 091800Z 28006KT 15SM SKC 24/16 A2985 RMK SLP110

CYXE;2010-08-09 19:00;CYXE 091900Z 27002KT 15SM FEW040 25/14 A2985 RMK CU1 SLP110

CYXE;2010-08-09 20:00;CYXE 092000Z 20005KT 15SM FEW046 26/14 A2985 RMK CU1 SLP111

CYXE;2010-08-09 21:00;CYXE 092100Z 28004KT 15SM FEW046 26/14 A2985 RMK CU1 SLP111

CYXE;2010-08-09 22:00;CYXE 092200Z 24003KT 15SM FEW055 26/15 A2985 RMK CU2 SLP110

CYXE;2010-08-09 23:00;CYXE 092300Z 27002KT 15SM FEW055 FEW230 26/14 A2984 RMK CU2CI0 SLP109

CYXE;2010-08-10 00:00;CYXE 100000Z 25003KT 15SM FEW055 FEW230 26/15 A2984 RMK CU1CI0 SLP107

CYXE;2010-08-10 01:00;CYXE 100100Z 25003KT 15SM FEW055 FEW230 25/15 A2984 RMK CU1CI1 SLP108

CYXE;2010-08-10 02:00;CYXE 100200Z 00000KT 15SM FEW090 SCT250 25/16 A2984 RMK AC1CI1 SLP107

CYXE;2010-08-10 03:00;CYXE 100300Z 00000KT 15SM SCT250 22/13 A2985 RMK CI2 SLP110

CYXE;2010-08-10 04:00;CYXE 100400Z 08002KT 15SM SCT250 20/14 A2986 RMK CI1 SLP113

CYXE;2010-08-10 05:00;CYXE 100500Z 11004KT 15SM FEW250 18/14 A2987 RMK CI0 SLP117

CYXE;2010-08-10 06:00;CYXE 100600Z 12005KT 15SM SCT250 17/14 A2987 RMK CI0 SLP116

CYXE;2010-08-10 07:00;CYXE 100700Z 10003KT 15SM SCT250 17/14 A2986 RMK CI1 SLP115

CYXE;2010-08-10 08:00;CYXE 100800Z 10005KT 15SM BKN250 17/14 A2984 RMK CI2 SLP108

CYXE;2010-08-10 09:00;CYXE 100900Z 08005KT 15SM BKN250 16/14 A2983 RMK CI2 SLP103

CYXE;2010-08-10 10:00;CYXE 101000Z 12007KT 15SM OVC250 18/15 A2982 RMK CI6 SLP100

CYXE;2010-08-10 11:00;CYXE 101100Z 34004KT 15SM SCT110 OVC250 15/14 A2983 RMK ACC3CI4 SLP104

CYXE;2010-08-10 12:00;CYXE 101200Z 23006KT 15SM FEW050 BKN110 OVC250 16/15 A2987 RMK SC2AC5CI2 SLP116

CYXE;2010-08-10 13:00;CYXE 101300Z 03004KT 15SM SCT050 OVC110 16/16 A2985 RMK SC4AC4 SLP111

CYXE;2010-08-10 14:00;CYXE 101400Z 04005KT 8SM SCT055 OVC110 17/16 A2985 RMK SC4AC4 BR SLP110

CYXE;2010-08-10 15:00;CYXE 101500Z 32004KT 12SM FEW055 BKN110 OVC300 17/16 A2984 RMK SC2AC3CI2 BR SLP109

CYXE;2010-08-10 15:23;CYXE 101523Z 32003KT 12SM -SHRA SCT055 OVC100 17/ RMK SC3AC5 BR

CYXE;2010-08-10 16:00;CYXE 101600Z 01002KT 8SM -SHRA BKN016 BKN060 OVC090 17/17 A2984 RMK SC5AC2AC2 BR SLP108

CYXE;2010-08-10 16:10;CYXE 101610Z 30002KT 5SM -RA BR FEW007 BKN060 OVC095 18/ RMK SF2AC3AC3

CYXE;2010-08-10 17:00;CYXE 101700Z CCA 01004KT 6SM -RA BR SCT013 BKN045 OVC065 18/17 A2984 RMK SF3SC2AC2 SLP107

CYXE;2010-08-10 18:00;CYXE 101800Z 01007KT 6SM -RA BR SCT015 OVC050 18/17 A2983 RMK ST3SC5 SLP106

CYXE;2010-08-10 19:00;CYXE 101900Z 02009KT 8SM -RA SCT013 OVC053 18/17 A2983 RMK ST4SC4 BR SLP105

CYXE;2010-08-10 20:00;CYXE 102000Z 35008KT 6SM -RA BR BKN013 BKN045 OVC073 18/18 A2982 RMK ST5SC2AC1 SLP103

CYXE;2010-08-10 20:08;CYXE 102008Z 01009KT 3SM -RA BR SCT007 BKN010 OVC073 18/ RMK ST3SC3AC2

CYXE;2010-08-10 20:34;CYXE 102034Z 02007KT 6SM -RA BR BKN005 OVC020 18/ RMK ST6SC2

CYXE;2010-08-10 20:48;CYXE 102048Z 03007KT 3SM R09/4000VP6000FT/D RA BR BKN006 OVC031 18/ RMK SF6SC2

CYXE;2010-08-10 21:00;CYXE 102100Z 01006KT 3SM R09/4000VP6000FT/U RA BR BKN006 OVC042 19/18 A2981 RMK SF6SC2 SLP101

CYXE;2010-08-10 21:16;CYXE 102116Z 01008KT 4SM -RA BR BKN005 OVC037 19/ RERA RMK SF5SC3

CYXE;2010-08-10 21:29;CYXE 102129Z 01009KT 6SM -RA BR BKN006 BKN023 OVC051 19/ RMK SF5SC2SC2

CYXE;2010-08-10 21:41;CYXE 102141Z 02008KT 10SM -DZ SCT007 BKN023 OVC036 19/ RERA RMK SF3SC3SC2

CYXE;2010-08-10 22:00;CYXE 102200Z 36011KT 15SM -DZ BKN014 OVC038 19/18 A2981 RMK SC6SC2 CIG RAG SLP099

CYXE;2010-08-10 22:12;CYXE 102212Z 01011KT 15SM BKN008 OVC016 19/ RMK SC5SC3 CIG RAG

CYXE;2010-08-10 22:38;CYXE 102238Z 02014KT 15SM -DZ BKN009 OVC029 19/ RMK SF6SC2

CYXE;2010-08-10 23:00;CYXE 102300Z 02013KT 15SM -DZ BKN007 BKN034 OVC110 19/18 A2980 RMK SF5SC2AC1 OBS TAKEN +07 SLP098

CYXE;2010-08-10 23:15;CYXE 102315Z 03011G16KT 15SM SCT007 BKN039 BKN110 BKN250 20/ RMK SF3SC2AC1CI1

CYXE;2010-08-10 23:36;CYXE 102336Z 04011KT 15SM BKN006 BKN039 BKN110 19/ RMK SF5SC1AC1

CYXE;2010-08-11 00:00;CYXE 110000Z 05014KT 15SM BKN007 BKN046 OVC250 19/18 A2979 RMK SF5SC1CI1 OBS TAKEN +04 SLP095

CYXE;2010-08-11 01:00;CYXE 110100Z 05012G19KT 15SM BKN009 BKN024 BKN250 18/16 A2981 RMK SF5SC1CI1 SLP100

CYXE;2010-08-11 01:28;CYXE 110128Z 05008KT 15SM SCT010 BKN024 18/ RMK SF4SC3

CYXE;2010-08-11 02:00;CYXE 110200Z 04007KT 15SM BKN009 OVC030 17/16 A2982 RMK SF6SC2 SLP103

CYXE;2010-08-11 03:00;CYXE 110300Z 02007KT 15SM BKN009 BKN028 17/16 A2982 RMK SF6SC1 SLP102

CYXE;2010-08-11 03:46;CYXE 110346Z 32006KT 15SM FEW009 SCT020 BKN110 15/ RMK SF2SC2AC2

CYXE;2010-08-11 04:00;CYXE 110400Z 34005KT 15SM FEW009 SCT020 BKN110 16/15 A2984 RMK SF1SC2AC2 SLP110

CYXE;2010-08-11 05:00;CYXE 110500Z 31004KT 15SM FEW009 SCT022 BKN110 15/14 A2984 RMK SF1SC3AC1 SLP110

CYXE;2010-08-11 06:00;CYXE 110600Z 30005KT 15SM SCT013 BKN022 15/15 A2984 RMK SF2SC4 SLP113

CYXE;2010-08-11 06:29;CYXE 110629Z 36007KT 15SM BKN010 OVC032 16/ RMK SF5SC3

CYXE;2010-08-11 06:44;CYXE 110644Z 01006KT 15SM SCT009 BKN032 16/ RMK SF3SC2

CYXE;2010-08-11 07:00;CYXE 110700Z 36006KT 15SM FEW009 FEW032 15/15 A2983 RMK SF2SC1 SLP109

CYXE;2010-08-11 08:00;CYXE 110800Z 32005KT 15SM FEW009 13/13 A2985 RMK SF1 SLP114

CYXE;2010-08-11 09:00;CYXE 110900Z 25004KT 8SM FEW009 13/13 A2984 RMK SF1 BR SLP114

CYXE;2010-08-11 10:00;CYXE 111000Z 25004KT 3SM BR SCT009 12/12 A2985 RMK SF2 SLP115

CYXE;2010-08-11 10:40;CYXE 111040Z 22002KT 4SM R09/1400V2600FT/U BR BKN003 12/ RMK SF3 VIS W 3/4

CYXE;2010-08-11 11:00;CYXE 111100Z 24004KT 3SM R09/2800FT/N BR BKN003 12/12 A2985 RMK SF2 VIS W 1 SLP117

CYXE;2010-08-11 11:05;CYXE 111105Z 25004KT 1SM R09/2800V6000FT/U BR BKN003 12/ RMK FG1SF2 VIS W 1/2

CYXE;2010-08-11 11:12;CYXE 111112Z 25003KT 1/2SM R09/1600FT/N FG BKN003 12/ RMK FG1SF2

CYXE;2010-08-11 11:27;CYXE 111127Z 24003KT 1/2SM R09/2600VP6000FT/U FG BKN002 12/ RMK FG2SF2

CYXE;2010-08-11 11:38;CYXE 111138Z 25004KT 1/4SM R09/4000VP6000FT/U FG BKN002 12/ RMK FG2SF1

CYXE;2010-08-11 12:00;CYXE 111200Z 28005KT 1/4SM R09/4500VP6000FT/D FG BKN002 12/12 A2987 RMK FG2SF1 SLP123

CYXE;2010-08-11 12:05;CYXE 111205Z 27006KT 3/8SM R09/P6000FT/D FG SCT002 BKN250 13/ RMK FG2SF1CI0

CYXE;2010-08-11 12:21;CYXE 111221Z 29003KT 1 1/2SM R09/4000VP6000FT/U BR BKN002 BKN250 13/ RMK SF2CI1

CYXE;2010-08-11 13:00;CYXE 111300Z 28002KT 1 1/2SM R09/4500VP6000FT/D BR BKN003 BKN250 13/13 A2988 RMK SF2CI2 SLP126

CYXE;2010-08-11 13:10;CYXE 111310Z 25003KT 1 1/2SM BR BKN002 BKN250 14/ RMK SF5CI0

CYXE;2010-08-11 13:17;CYXE 111317Z 25002KT 2SM BR OVC001 14/ RMK SF6 VIS SW 1

CYXE;2010-08-11 13:32;CYXE 111332Z 24002KT 3/4SM R09/4000VP6000FT/D BR VV001 14/ RMK FG8

CYXE;2010-08-11 14:00;CYXE 111400Z 21002KT 1SM R09/3000FT/N BR BKN003 BKN300 14/14 A2989 RMK FG2SF2CI1 SLP130

CYXE;2010-08-11 15:00;CYXE 111500Z CCA 21002KT 15SM SCT001 BKN300 16/16 A2990 RMK SF3CI1 SLP131

CYXE;2010-08-11 16:00;CYXE 111600Z 23005KT 15SM SCT010 BKN300 19/16 A2988 RMK CU3CI1 OBS TAKEN +07 SLP125

CYXE;2010-08-11 17:00;CYXE 111700Z 25006KT 15SM SCT012 BKN300 21/17 A2988 RMK CU3CI1 SLP125

CYXE;2010-08-11 18:00;CYXE 111800Z 25006KT 15SM FEW020 BKN300 21/17 A2987 RMK CU2CI2 OBS TAKEN +08 SLP118

CYXE;2010-08-11 19:00;CYXE 111900Z 23006KT 15SM FEW024 BKN300 23/17 A2986 RMK CU2CI2 SLP115

CYXE;2010-08-11 20:00;CYXE 112000Z 25007KT 15SM FEW024 SCT110 BKN300 23/17 A2985 RMK CU2AC2CI1 OBS TAKEN +13 SLP112

CYXE;2010-08-11 21:00;CYXE 112100Z 25005KT 15SM FEW033 SCT110 BKN300 23/17 A2984 RMK CU2AC1CI1 CB TOP DIST NW SLP109

CYXE;2010-08-11 22:00;CYXE 112200Z 22004KT 15SM FEW033 SCT110 BKN300 24/17 A2983 RMK CU2AC2CI1 CB TOP DIST NW SLP105

CYXE;2010-08-11 23:00;CYXE 112300Z 24004KT 15SM FEW032 SCT110 BKN300 24/17 A2982 RMK CU2AC2CI1 CB DIST NW N SLP103

CYXE;2010-08-12 00:00;CYXE 120000Z 24006KT 15SM FEW032 SCT110 SCT300 25/17 A2981 RMK CF1AC2CI0 CB TOPS N SLP099

CYXE;2010-08-12 01:00;CYXE 120100Z 23005KT 15SM FEW024CB FEW100 SCT300 24/18 A2979 RMK CB1AC2CI0 CB + ANVIL TOPS NW N SLP093

CYXE;2010-08-12 02:00;CYXE 120200Z 23004KT 15SM FEW024CB FEW100 SCT300 22/18 A2978 RMK CB1AC1CI1 CB + ANVIL TOPS N SLP090

CYXE;2010-08-12 03:00;CYXE 120300Z CCA 22002KT 15SM FEW100 FEW300 21/17 A2979 RMK AC2CI0 SLP093

CYXE;2010-08-12 04:00;CYXE 120400Z 17005KT 15SM SCT100 BKN300 20/18 A2981 RMK AC4CI1 SLP099

CYXE;2010-08-12 05:00;CYXE 120500Z 18005KT 15SM BKN092 20/16 A2979 RMK AC5 SLP092

CYXE;2010-08-12 06:00;CYXE 120600Z 09003KT 15SM FEW090 BKN300 18/16 A2975 RMK AC2CI1 SLP079

CYXE;2010-08-12 07:00;CYXE 120700Z 14003KT 15SM SCT110 OVC300 18/16 A2976 RMK AC4CI2 CB + LTNG DIST S-W SLP081

CYXE;2010-08-12 08:00;CYXE 120800Z 24002KT 15SM SCT043CB BKN110 OVC300 17/16 A2976 RMK CB3AC2CI1 LTGICCG S-W SLP081

CYXE;2010-08-12 08:16;CYXE 120816Z 19003KT 15SM -TSRA BKN040CB OVC110 17/ RMK CB5AC3 LTGICCG S-W

CYXE;2010-08-12 09:00;CYXE 120900Z 27008KT 10SM -TSRA BKN040CB OVC110 17/17 A2977 RMK CB6AC2 LTGICCGCC SLP082

CYXE;2010-08-12 10:00;CYXE 121000Z 16006KT 6SM TSRA OVC040CB 16/15 A2973 RMK CB8 LTGICCGCC SLP071

CYXE;2010-08-12 10:36;CYXE 121036Z 17009KT 15SM -SHRA FEW040CB BKN095 BKN300 16/ RETSRA RMK CB2AC4CI1 LTNG DIST NE-S

CYXE;2010-08-12 10:46;CYXE 121046Z 17006KT 15SM FEW040CB BKN095 BKN300 16/ RETSRA RMK CB1ACC4CI1 LTNG DIST NE-SE

CYXE;2010-08-12 11:00;CYXE 121100Z 17007KT 15SM FEW040CB SCT095 BKN300 16/15 A2973 RETSRA RMK CB1ACC3CI2 LTNG DIST NE-SE SLP069

CYXE;2010-08-12 12:00;CYXE 121200Z 16003KT 15SM FEW040 SCT090 BKN300 16/14 A2973 RMK SC1ACC3CI2 /R10/ SLP069

CYXE;2010-08-12 13:00;CYXE 121300Z 14004KT 15SM BKN110 BKN300 16/15 A2971 RMK ACC6CI2 SLP063

CYXE;2010-08-12 14:00;CYXE 121400Z 18002KT 15SM BKN100 BKN300 17/15 A2970 RMK ACC5CI2 SLP061

CYXE;2010-08-12 15:00;CYXE 121500Z 25006KT 15SM FEW020 BKN100 BKN300 17/16 A2971 RMK SF1AC4CI2 SLP063

CYXE;2010-08-12 15:44;CYXE 121544Z 25008KT 15SM BKN007 BKN100 18/ RMK SF5AC2

CYXE;2010-08-12 16:00;CYXE 121600Z 23008KT 15SM FEW007 BKN100 BKN300 18/17 A2969 RMK SF2AC3CI2 SLP059

CYXE;2010-08-12 17:00;CYXE 121700Z 24007KT 15SM FEW007 BKN090 BKN300 18/17 A2969 RMK SF2AC3CI2 SLP057

CYXE;2010-08-12 18:00;CYXE 121800Z 23008KT 15SM SCT011 BKN090 BKN300 19/17 A2968 RMK SF3AC2CI2 SLP053

CYXE;2010-08-12 19:00;CYXE 121900Z 23009KT 15SM SCT015 BKN082 BKN300 20/17 A2966 RMK SC4AC2CI1 SLP047

CYXE;2010-08-12 20:00;CYXE 122000Z 21007KT 15SM SCT021 BKN082 BKN300 22/17 A2963 RMK CU3AC2CI2 SLP037

CYXE;2010-08-12 21:00;CYXE 122100Z 20007KT 15SM BKN032 BKN300 22/17 A2961 RMK CU6CI1 CB EMBD SLP029

CYXE;2010-08-12 21:43;CYXE 122143Z 24009G15KT 15SM -SHRA BKN026CB BKN100 21/ RMK CB6AC1

CYXE;2010-08-12 21:45;CYXE 122145Z 24009G15KT 3SM +SHRA BKN026CB OVC100 21/ RMK CB6AC2

CYXE;2010-08-12 21:48;CYXE 122148Z 21011KT 3SM TSRA OVC026CB 21/ RERA RMK CB8 LTGCG DIST W

CYXE;2010-08-12 21:53;CYXE 122153Z 28017KT 8SM TSRA BKN026CB OVC095 18/ RERA RMK CB6AC2 LTGCG DIST W

CYXE;2010-08-12 22:00;CYXE 122200Z 29015G21KT 12SM -TSRA BKN026CB OVC095 18/15 A2962 RERA RMK CB6AC2 LTGCG DIST W SLP031

CYXE;2010-08-12 22:09;CYXE 122209Z 30014G20KT 15SM TS SCT026CB BKN060 OVC085 18/ RERA RMK CB3SC2AC2 VIRGA S SW

CYXE;2010-08-12 22:20;CYXE 122220Z 28007G17KT 15SM VCSH SCT026 BKN060 OVC085 18/ RETSRA RMK SC3SC3AC1

CYXE;2010-08-12 23:00;CYXE 122300Z 34009KT 15SM SCT029 BKN068 BKN090 18/16 A2964  RMK SC3SC2AC2 SLP037

CYXE;2010-08-13 00:00;CYXE 130000Z 33005KT 15SM FEW029 SCT068 BKN090 18/16 A2965 RMK SC2SC2AC3 SLP045

CYXE;2010-08-13 00:05;CYXE 130005Z 35002KT 15SM -SHRA FEW029 BKN090 BKN110 18/ RMK SC2AC3AC2

CYXE;2010-08-13 01:00;CYXE 130100Z 32005KT 15SM -SHRA SCT013 BKN054 BKN080 17/17 A2964 RMK SC3SC2AC2 SLP043

CYXE;2010-08-13 01:30;CYXE 130130Z 27004KT 15SM SCT045 BKN095 17/ RMK SC4AC3

CYXE;2010-08-13 02:00;CYXE 130200Z 27004KT 15SM FEW045 SCT086 BKN120 BKN280 16/16 A2963 RMK SC2AC2AC2CI1 SLP040

CYXE;2010-08-13 03:00;CYXE 130300Z 30004KT 15SM FEW045 SCT092 BKN280 15/15 A2965 RMK SC2AC2CI1 SLP047

CYXE;2010-08-13 04:00;CYXE 130400Z 35004KT 15SM FEW009 SCT045 SCT096 BKN280 14/14 A2968 RMK ST1SC2AC1CI0 SLP056

CYXE;2010-08-13 05:00;CYXE 130500Z 32006KT 15SM FEW096 SCT280 13/13 A2967 RMK AC2CI1 BCFG SLP054

CYXE;2010-08-13 06:00;CYXE 130600Z 34005KT 15SM FEW090 13/13 A2967 RMK AC2 BR PTCHS SLP053

CYXE;2010-08-13 07:00;CYXE 130700Z 31005KT 15SM SCT110 13/13 A2967 RMK AC2 SLP054

CYXE;2010-08-13 08:00;CYXE 130800Z 31006KT 15SM OVC110 14/14 A2968 RMK AC7 SLP057

CYXE;2010-08-13 09:00;CYXE 130900Z 31006KT 15SM FEW030 OVC110 14/14 A2968 RMK SC1AC6 SLP054

CYXE;2010-08-13 09:34;CYXE 130934Z 29009KT 15SM FEW005 OVC090 15/ RMK SF1AC7

CYXE;2010-08-13 10:00;CYXE 131000Z 30007KT 15SM FEW005 SCT045 OVC100 15/15 A2969 RMK SF1SC3AC5 SLP059

CYXE;2010-08-13 10:20;CYXE 131020Z 30008KT 15SM -SHRA SCT030 OVC100 15/ RMK SC3ACC5

CYXE;2010-08-13 10:35;CYXE 131035Z 31008KT 15SM -TSRA FEW030CB OVC095 15/ RMK CB2ACC6 LTNG W

CYXE;2010-08-13 11:00;CYXE 131100Z 31006KT 15SM TS SCT030CB BKN095 OVC300 15/15 A2969 RMK CB3ACC3CI2 CB SW MOVG SSE SLP059

CYXE;2010-08-13 11:15;CYXE 131115Z 31007KT 15SM FEW030CB BKN095 OVC300 15/ RETS RMK CB2ACC5CI2 CB DIST SW MOVG S

CYXE;2010-08-13 12:00;CYXE 131200Z 31008KT 15SM BKN093 OVC300 15/15 A2970 RETS RMK ACC6CI2 CB DIST SW + NW SLP064

CYXE;2010-08-13 13:00;CYXE 131300Z 31010KT 15SM FEW005 SCT040 OVC100 15/15 A2970 RMK SF1SC3ACC5 CB + LTNG DIST NW SLP065

CYXE;2010-08-13 13:45;CYXE 131345Z 33010G16KT 10SM -SHRA FEW005 BKN020 OVC100 15/ RMK SF2SC4ACC2 CB ASOCTD

CYXE;2010-08-13 13:50;CYXE 131350Z 32011KT 10SM -TSRA FEW005 BKN020 OVC100 15/ RMK SF2SC4ACC2 CB EMBD

CYXE;2010-08-13 14:00;CYXE 131400Z 32010KT 10SM -TSRA FEW005 BKN020CB OVC100 15/15 A2971 RMK SF2CB4ACC2 SLP067

CYXE;2010-08-13 14:38;CYXE 131438Z 33008KT 12SM -SHRA FEW005 BKN015 OVC080 15/ RETS RMK SF2SC4ACC2 CB ASOCTD

CYXE;2010-08-13 15:00;CYXE 131500Z 32011KT 12SM -SHRA FEW005 BKN018 OVC080 14/14 A2973 RETS RMK SF2SC4ACC2 CB ASOCTD SLP074

CYXE;2010-08-13 16:00;CYXE 131600Z 32012KT 12SM -RA BKN015 OVC080 15/15 A2974 RMK SC6AC2 SLP078

CYXE;2010-08-13 17:00;CYXE 131700Z 30008KT 15SM -RA FEW015 BKN030 OVC080 16/16 A2974 RMK SC2SC3AC2 SLP077

CYXE;2010-08-13 18:00;CYXE 131800Z 31008KT 12SM -TSRA FEW015 BKN030CB OVC080 16/16 A2974 RERA RMK SC2CB4AC2 SLP080

CYXE;2010-08-13 18:38;CYXE 131838Z 30006KT 15SM -SHRA FEW013 BKN030CB OVC080 17/ RETS RMK SC2CB3AC3 LTNG DIST NE + SW-W

CYXE;2010-08-13 19:00;CYXE 131900Z 32007KT 15SM -SHRA SCT016 BKN033 BKN080 OVC300 18/18 A2973 RETS RMK SC3SC2AC2CI0 CB ASOCTD SLP076

CYXE;2010-08-13 19:28;CYXE 131928Z 35010KT 15SM SCT015 BKN028 20/ RMK SC3SC3

CYXE;2010-08-13 20:00;CYXE 132000Z 01010G15KT 15SM TS BKN020TCU BKN080 20/17 A2973 RMK TCU5AC2 CB EMBD LTNG E-W SLP075

CYXE;2010-08-13 20:31;CYXE 132031Z 36012KT 15SM BKN026 OVC080 20/ RETS RMK SC6AC2 TCU/CB EMBD

CYXE;2010-08-13 20:47;CYXE 132047Z 01013KT 15SM -SHRA BKN026 OVC080 20/ RETS RMK SC6AC2 TCU/CB EMBD LTNG DIST S

CYXE;2010-08-13 21:00;CYXE 132100Z 01012KT 15SM -SHRA BKN026 OVC080 19/16 A2974 RETS RMK SC6AC2 TCU/CB EMBD LTNG DIST S SLP075

CYXE;2010-08-13 22:00;CYXE 132200Z 36010KT 15SM FEW026 BKN077 OVC300 20/16 A2974 RMK SF2AC5CI2 SLP077

CYXE;2010-08-13 22:31;CYXE 132231Z 36008G17KT 15SM -SHRA SCT021 OVC076 15/ RMK SF3AC5 LTNG DIST W

CYXE;2010-08-13 23:00;CYXE 132300Z 01005KT 15SM -SHRA SCT014 OVC076 16/15 A2976 RMK SC4AC4 SLP084

CYXE;2010-08-14 00:00;CYXE 140000Z 34004KT 15SM -SHRA FEW025 BKN071 OVC300 17/16 A2977 RMK SC2AC4CI2 SLP089

CYXE;2010-08-14 01:00;CYXE 140100Z 34008KT 15SM FEW025 BKN079 OVC300 17/16 A2978 RMK SF1AC4CI3 SLP092

CYXE;2010-08-14 02:00;CYXE 140200Z 34008KT 15SM BKN077 OVC300 17/16 A2979 RMK AC5CI2 SLP094

CYXE;2010-08-14 03:00;CYXE 140300Z 32009KT 15SM FEW043 BKN088 BKN300 16/15 A2981 RMK SC2AC2CI2 SLP103

CYXE;2010-08-14 04:00;CYXE 140400Z CCA 34010KT 15SM -SHRA FEW054 BKN080 17/15 A2983 RMK SC2AC5 SLP107

CYXE;2010-08-14 05:00;CYXE 140500Z 36009G15KT 15SM -SHRA FEW056 BKN092 OVC300 16/15 A2984 RMK SC2AC3CI2 SLP112

CYXE;2010-08-14 06:00;CYXE 140600Z 34009KT 15SM FEW056 SCT090 15/14 A2985 RMK SC1AC2 SLP115

CYXE;2010-08-14 07:00;CYXE 140700Z 32007KT 15SM FEW040 SCT090 14/13 A2986 RMK SC2AC1 SLP119

CYXE;2010-08-14 08:00;CYXE 140800Z 32009KT 15SM FEW040 FEW090 14/14 A2986 RMK SC1AC2 SLP120

CYXE;2010-08-14 09:00;CYXE 140900Z 32010KT 15SM FEW040 FEW090 14/14 A2987 RMK SC1AC0 SLP123

CYXE;2010-08-14 10:00;CYXE 141000Z 32010KT 15SM FEW040 13/13 A2987 RMK SC1 SLP123

CYXE;2010-08-14 11:00;CYXE 141100Z 32011KT 15SM SCT025 SCT090 14/13 A2989 RMK SC3AC0 SLP127

CYXE;2010-08-14 12:00;CYXE 141200Z 33012KT 15SM FEW025 FEW100 13/13 A2990 RMK SC1AC1 SLP134

CYXE;2010-08-14 13:00;CYXE 141300Z 33013KT 15SM FEW025 FEW250 13/12 A2992 RMK SC1CI1 SLP139

CYXE;2010-08-14 14:00;CYXE 141400Z 32012KT 15SM FEW023 SCT036 15/13 A2993 RMK SC2SC2 SLP143

CYXE;2010-08-14 15:00;CYXE 141500Z 34020KT 15SM SCT022 15/12 A2994 RMK SC4 SLP145

CYXE;2010-08-14 16:00;CYXE 141600Z 35019G25KT 15SM SCT027 16/12 A2995 RMK SC4 SLP150

CYXE;2010-08-14 17:00;CYXE 141700Z 36020G25KT 15SM SCT031 BKN110 17/12 A2996 RMK SC4AC1 SLP154

CYXE;2010-08-14 18:00;CYXE 141800Z 35017G26KT 15SM BKN028 BKN110 18/12 A2997 RMK SC5AC2 SLP158

CYXE;2010-08-14 19:00;CYXE 141900Z 35019KT 15SM BKN035 19/12 A2997 RMK SC6 SLP156

CYXE;2010-08-14 20:00;CYXE 142000Z 35014G20KT 15SM BKN030 BKN110 19/12 A2997 RMK SC5AC1 SLP157

CYXE;2010-08-14 21:00;CYXE 142100Z 33012G20KT 15SM SCT030 BKN080 20/13 A2998 RMK SC4AC1 SLP158

CYXE;2010-08-14 22:00;CYXE 142200Z 01015KT 15SM BKN035 BKN080 20/12 A2998 RMK SC5AC1 SLP158

CYXE;2010-08-14 23:00;CYXE 142300Z 35010KT 15SM SCT046 BKN078 18/12 A2999 RMK SC3AC2 SLP162

CYXE;2010-08-15 00:00;CYXE 150000Z 33014G19KT 15SM FEW049TCU 19/12 A2999 RMK TCU2 SLP162

CYXE;2010-08-15 01:00;CYXE 150100Z 35012G17KT 15SM SCT046 18/11 A3000 RMK CU4 TCU ASOCTD SH W SLP167

CYXE;2010-08-15 02:00;CYXE 150200Z 32009KT 15SM FEW046 17/12 A3001 RMK CU2 TCU ASOCTD SLP170

CYXE;2010-08-15 03:00;CYXE 150300Z 32009KT 15SM SCT043 15/12 A3004 RMK CU4 TCU ASOCTD SH SE SLP180

CYXE;2010-08-15 04:00;CYXE 150400Z 32008KT 15SM FEW051 13/12 A3005 RMK CU2 SLP183

CYXE;2010-08-15 05:00;CYXE 150500Z 32010KT 15SM FEW250 12/11 A3005 RMK CI1 SLP186

CYXE;2010-08-15 06:00;CYXE 150600Z 32010KT 15SM FEW250 12/11 A3007 RMK CI1 SLP191

CYXE;2010-08-15 07:00;CYXE 150700Z 32008KT 15SM SKC 11/11 A3007 RMK SLP193

CYXE;2010-08-15 08:00;CYXE 150800Z 30006KT 15SM SKC 10/10 A3008 RMK SLP194

CYXE;2010-08-15 09:00;CYXE 150900Z 30007KT 15SM SKC 10/10 A3008 RMK SLP195

CYXE;2010-08-15 10:00;CYXE 151000Z 30008KT 15SM BKN048 10/10 A3009 RMK SC5 SLP197

CYXE;2010-08-15 11:00;CYXE 151100Z 31008KT 15SM BKN046 BKN110 10/10 A3009 RMK SC5AC1 SLP198

CYXE;2010-08-15 12:00;CYXE 151200Z 30006KT 15SM FEW046 SCT110 SCT250 09/09 A3010 RMK SC2AC1CI1 SLP204

CYXE;2010-08-15 13:00;CYXE 151300Z 29008KT 15SM FEW046 SCT110 BKN250 10/09 A3011 RMK SC1AC2CI1 SLP206

CYXE;2010-08-15 14:00;CYXE 151400Z 31008KT 15SM FEW080 FEW300 12/10 A3012 RMK AC1CI0 SLP209

CYXE;2010-08-15 15:00;CYXE 151500Z 30010KT 15SM FEW080 FEW300 13/11 A3011 RMK AC1CI0 SLP208

CYXE;2010-08-15 16:00;CYXE 151600Z 32010G16KT 15SM FEW020 FEW080 SCT300 16/11 A3011 RMK CU2AC1CI0 CONTRAILS SLP207

CYXE;2010-08-15 17:00;CYXE 151700Z 32010G16KT 15SM SCT025 SCT300 17/10 A3011 RMK CU3CI0 SLP206

CYXE;2010-08-15 18:00;CYXE 151800Z 32013KT 15SM SCT030 SCT080 SCT300 18/10 A3009 RMK CU3AC1CI0 SLP201

CYXE;2010-08-15 19:00;CYXE 151900Z 34010KT 15SM SCT030 BKN080 18/11 A3008 RMK CU4AC1 SLP197

CYXE;2010-08-15 20:00;CYXE 152000Z 31011KT 15SM BKN035 BKN080 19/11 A3007 RMK SC5AC2 SLP194

CYXE;2010-08-15 21:00;CYXE 152100Z 33009KT 15SM BKN045 17/11 A3008 RMK SC7 SLP196

CYXE;2010-08-15 22:00;CYXE 152200Z 03014KT 15SM VCSH BKN032 16/13 A3007 RMK SC5 SLP194

CYXE;2010-08-15 23:00;CYXE 152300Z 02007KT 15SM FEW032 SCT090 17/13 A3008 RMK SC2AC2 SLP196

CYXE;2010-08-16 00:00;CYXE 160000Z 32005KT 15SM BKN035 BKN090 17/12 A3007 RMK SC5AC1 SLP195

CYXE;2010-08-16 01:00;CYXE 160100Z 34008KT 15SM SCT035 SCT090 17/11 A3007 RMK SC3AC1 SLP195

CYXE;2010-08-16 02:00;CYXE 160200Z 35005KT 15SM FEW035 FEW085 14/11 A3007 RMK SC1AC1 SLP195

CYXE;2010-08-16 03:00;CYXE 160300Z 34003KT 15SM FEW035 FEW085 13/11 A3008 RMK SC1AC1 SLP199

CYXE;2010-08-16 04:00;CYXE 160400Z 32004KT 15SM SKC 12/11 A3009 RMK SLP201

CYXE;2010-08-16 05:00;CYXE 160500Z 35007KT 15SM SKC 09/08 A3009 RMK SLP202

CYXE;2010-08-16 06:00;CYXE 160600Z 30005KT 15SM SKC 09/09 A3010 RMK SLP206

CYXE;2010-08-16 07:00;CYXE 160700Z 31007KT 15SM SKC 08/08 A3010 RMK SLP205

CYXE;2010-08-16 08:00;CYXE 160800Z 31006KT 15SM SKC 09/09 A3011 RMK SLP207

CYXE;2010-08-16 09:00;CYXE 160900Z 30005KT 15SM SKC 08/08 A3011 RMK SLP210

CYXE;2010-08-16 10:00;CYXE 161000Z 31007KT 15SM SKC 08/08 A3011 RMK SLP210

CYXE;2010-08-16 11:00;CYXE 161100Z 31006KT 15SM FEW100 07/07 A3012 RMK AC1 SLP211

CYXE;2010-08-16 12:00;CYXE 161200Z 30005KT 15SM FEW100 FEW250 06/06 A3012 RMK AC1CI0 SLP214

CYXE;2010-08-16 13:00;CYXE 161300Z 00000KT 15SM FEW100 FEW250 08/08 A3013 RMK AC2CI0 SLP216

CYXE;2010-08-16 14:00;CYXE 161400Z 27002KT 15SM FEW100 SCT300 10/10 A3013 RMK AC2CI0 SLP215

CYXE;2010-08-16 15:00;CYXE 161500Z 00000KT 15SM SCT100 BKN300 13/11 A3013 RMK AC3CI0 SLP215

CYXE;2010-08-16 16:00;CYXE 161600Z 00000KT 15SM FEW100 SCT300 15/10 A3013 RMK AC2CI0 SLP214

CYXE;2010-08-16 17:00;CYXE 161700Z 00000KT 15SM FEW030 FEW100 SCT300 17/09 A3013 RMK CU1AC1CI2 CONTRAILS SLP214

CYXE;2010-08-16 18:00;CYXE 161800Z 28003KT 15SM FEW036 SCT300 17/08 A3011 RMK CU2CI1 SLP209

CYXE;2010-08-16 19:00;CYXE 161900Z 33004KT 15SM FEW045 BKN300 18/09 A3010 RMK CU2CI1 SLP206

CYXE;2010-08-16 20:00;CYXE 162000Z 00000KT 15SM FEW047 SCT130 BKN300 19/09 A3009 RMK CU2AC1CI1 SLP200

CYXE;2010-08-16 21:00;CYXE 162100Z 31006KT 15SM SCT050 BKN100 BKN300 19/10 A3007 RMK CU3AC2CI0 SLP195

CYXE;2010-08-16 22:00;CYXE 162200Z 14002KT 15SM FEW055 BKN100 BKN300 19/09 A3005 RMK CU2AC5CI0 SLP189

CYXE;2010-08-16 23:00;CYXE 162300Z 00000KT 15SM FEW051 FEW100 BKN300 20/10 A3003 RMK CU1AC1CI1 SLP182

CYXE;2010-08-17 00:00;CYXE 170000Z 24002KT 15SM FEW060 BKN140 BKN300 19/10 A3002 RMK CU1AC2CI0 SLP177

CYXE;2010-08-17 01:00;CYXE 170100Z 20003KT 15SM FEW060 SCT140 19/09 A2999 RMK SC1AC2 SLP168

CYXE;2010-08-17 02:00;CYXE 170200Z 16004KT 15SM FEW120 16/11 A2997 RMK ACC2 SLP161

CYXE;2010-08-17 03:00;CYXE 170300Z 14005KT 15SM BKN120 14/10 A2994 RMK ACC3 SLP149

CYXE;2010-08-17 04:00;CYXE 170400Z CCA 16006KT 15SM BKN120 14/10 A2993 RMK AC5 CB + LTNG DIST S-SW SLP145

CYXE;2010-08-17 05:00;CYXE 170500Z 16005KT 15SM VCSH BKN075 OVC120 14/11 A2992 RMK ACC6AC1 CB EMBD LTGICCG SE-W SLP143

CYXE;2010-08-17 05:23;CYXE 170523Z 21006KT 15SM TS VCSH OVC075CB 15/ RMK CB8 LTGICCG

CYXE;2010-08-17 05:46;CYXE 170546Z CCA 22005KT 15SM -TSRA FEW020 BKN073CB OVC110 14/ RMK SC1CB4AC3 LTGIC SE + SW

CYXE;2010-08-17 06:00;CYXE 170600Z 20009KT 6SM TSRA FEW010 BKN073CB OVC094 13/12 A2992 RMK SF2CB3AC3 LTGIC SE + SW SLP140

CYXE;2010-08-17 06:16;CYXE 170616Z 32006KT 2SM +TSRA BKN012 OVC064CB 13/ RMK SF5CB3 LTGIC W + NW

CYXE;2010-08-17 06:41;CYXE 170641Z 00000KT 3SM TSRA OVC012 12/ RMK SC8 CB EMBD LTGIC S

CYXE;2010-08-17 06:55;CYXE 170655Z CCA 11005KT 6SM -SHRA BKN012 OVC064 12/ RETSRA RMK SC6SC2

CYXE;2010-08-17 07:00;CYXE 170700Z 14003KT 8SM -SHRA BKN015 OVC064 12/12 A2993 RETSRA RMK SC6SC2 SLP145

CYXE;2010-08-17 08:00;CYXE 170800Z 15005KT 6SM RA OVC022 12/12 A2991 RMK SC8 SLP138

CYXE;2010-08-17 08:48;CYXE 170848Z 13007KT 15SM -DZ OVC052 12/ RERA RMK SC8

CYXE;2010-08-17 09:00;CYXE 170900Z 12006KT 15SM -DZ OVC056 12/12 A2988 RERA RMK SC8 SLP126

CYXE;2010-08-17 10:00;CYXE 171000Z 13007KT 15SM OVC059 12/12 A2987 RMK SC8 SLP124

CYXE;2010-08-17 10:19;CYXE 171019Z 12005KT 15SM -DZ OVC054 12/ RMK SC8

CYXE;2010-08-17 11:00;CYXE 171100Z 10003KT 15SM OVC045 12/12 A2987 RMK SC8 SLP124

CYXE;2010-08-17 12:00;CYXE 171200Z 02005KT 15SM OVC033 12/12 A2990 RMK SC8 SLP133

CYXE;2010-08-17 12:46;CYXE 171246Z 05007KT 15SM FEW006 OVC029 12/ RMK SF2SC6

CYXE;2010-08-17 13:00;CYXE 171300Z 05007KT 15SM SCT006 OVC029 12/12 A2991 RMK SF3SC5 SLP137

CYXE;2010-08-17 13:22;CYXE 171322Z 05009KT 15SM FEW004 BKN008 OVC029 12/ RMK SF2SC4SC2

CYXE;2010-08-17 13:31;CYXE 171331Z 04008KT 6SM -DZ OVC006 12/ RMK SF8

CYXE;2010-08-17 13:37;CYXE 171337Z 05009KT 4SM -DZ BR OVC005 12/ RMK SF8

CYXE;2010-08-17 14:00;CYXE 171400Z 06009KT 6SM -DZ BR BKN006 OVC012 12/12 A2993 RMK SF5SC3 SLP143

CYXE;2010-08-17 14:38;CYXE 171438Z 06007KT 12SM BKN007 OVC025 12/ RMK SF5SC3 BR

CYXE;2010-08-17 15:00;CYXE 171500Z 05006KT 15SM SCT005 BKN012 OVC025 13/12 A2995 RMK ST4SC2SC2 SLP151

CYXE;2010-08-17 16:00;CYXE 171600Z 02006KT 15SM SCT007 BKN010 OVC040 13/12 A2996 RMK SF3SC3SC2 SLP156

CYXE;2010-08-17 17:00;CYXE 171700Z 01008KT 15SM SCT007 BKN010 OVC035 13/12 A2997 RMK SF3SC3SC2 SLP159

CYXE;2010-08-17 17:06;CYXE 171706Z 36009KT 8SM -DZ BKN007 OVC010 13/ RMK SF6SC2

CYXE;2010-08-17 17:40;CYXE 171740Z 02011KT 15SM BKN005 OVC010 12/ RMK SF6SC2

CYXE;2010-08-17 18:00;CYXE 171800Z 04011KT 10SM -DZ BKN005 OVC010 13/12 A2998 RMK SF6SC2 SLP162

CYXE;2010-08-17 18:28;CYXE 171828Z 04010KT 15SM OVC008 13/ RMK ST8

CYXE;2010-08-17 19:00;CYXE 171900Z 03010KT 15SM OVC009 13/11 A2999 RMK ST8 SLP165

CYXE;2010-08-17 19:25;CYXE 171925Z 03008KT 15SM OVC011 13/ RMK SC8

CYXE;2010-08-17 20:00;CYXE 172000Z 05005KT 15SM BKN013 OVC040 14/11 A3000 RMK SC6SC2 OBS TAKEN +04 SLP168

CYXE;2010-08-17 21:00;CYXE 172100Z 02009KT 15SM BKN020 OVC040 14/11 A3000 RMK SC6SC2 SLP168

CYXE;2010-08-17 22:00;CYXE 172200Z 04003KT 15SM FEW020 BKN040 15/11 A3001 RMK SC2SC5 SLP171

CYXE;2010-08-17 23:00;CYXE 172300Z 00000KT 15SM FEW020 SCT040 BKN300 16/11 A3000 RMK SC1SC3CI2 SLP169

CYXE;2010-08-18 00:00;CYXE 180000Z 00000KT 15SM FEW040 BKN300 16/10 A2999 RMK CU2CI2 SLP165

CYXE;2010-08-18 01:00;CYXE 180100Z 00000KT 15SM FEW040 BKN300 16/10 A2999 RMK SC1CI2 SLP164

CYXE;2010-08-18 02:00;CYXE 180200Z 25004KT 15SM FEW040 SCT300 14/11 A2998 RMK SC1CI1 SLP162

CYXE;2010-08-18 03:00;CYXE 180300Z 33004KT 15SM FEW300 11/09 A2999 RMK CI1 SLP168

CYXE;2010-08-18 04:00;CYXE 180400Z 32002KT 15SM FEW300 12/10 A2999 RMK CI1 SLP167

CYXE;2010-08-18 05:00;CYXE 180500Z 21003KT 12SM BCFG FEW300 10/10 A2998 RMK CI1 SLP166

CYXE;2010-08-18 06:00;CYXE 180600Z 22003KT 12SM BCFG FEW300 09/09 A2998 RMK CI1 SLP165

CYXE;2010-08-18 07:00;CYXE 180700Z 22004KT 15SM FEW300 09/09 A2997 RMK CI1 SLP164

CYXE;2010-08-18 08:00;CYXE 180800Z 23002KT 15SM SKC 08/08 A2997 RMK SLP164

CYXE;2010-08-18 09:00;CYXE 180900Z 19002KT 15SM SKC 07/07 A2996 RMK SLP161

CYXE;2010-08-18 10:00;CYXE 181000Z 20002KT 15SM SKC 07/07 A2996 RMK SLP159

CYXE;2010-08-18 11:00;CYXE 181100Z 20003KT 10SM R09/2200FT/N BCFG FEW080 07/07 A2996 RMK AC1 VIS W 11/2 SLP158

CYXE;2010-08-18 12:00;CYXE 181200Z 23004KT 5SM BR BCFG FEW080 06/06 A2996 RMK AC2 VIS SE 1/2 W 11/2 SLP157

CYXE;2010-08-18 13:00;CYXE 181300Z 00000KT 6SM BR BCFG FEW030 SCT080 06/06 A2994 RMK SC2AC2 VIS SE 1/2 W 1 1/2 SLP152

CYXE;2010-08-18 14:00;CYXE 181400Z 16003KT 12SM FEW095 09/09 A2994 RMK AC2 BR SLP151

CYXE;2010-08-18 15:00;CYXE 181500Z 19004KT 15SM FEW004 FEW090 SCT300 12/12 A2993 RMK CF1AC1CI0 SLP147

CYXE;2010-08-18 16:00;CYXE 181600Z 17006KT 15SM FEW005 FEW090 SCT300 15/12 A2991 RMK CF1AC1CI0 SLP141

CYXE;2010-08-18 17:00;CYXE 181700Z 17004KT 15SM FEW016 SCT090 SCT300 16/11 A2990 RMK CU2AC0CI0 SLP137

CYXE;2010-08-18 18:00;CYXE 181800Z 14006KT 15SM FEW026 SCT300 18/12 A2988 RMK CU2CI1 SLP128

CYXE;2010-08-18 19:00;CYXE 181900Z 36002KT 15SM FEW030 FEW090 SCT300 18/11 A2987 RMK CU1AC1CI1 SLP124

CYXE;2010-08-18 20:00;CYXE 182000Z 23004KT 15SM FEW035 SCT300 19/11 A2985 RMK CU1CI1 SLP120

CYXE;2010-08-18 21:00;CYXE 182100Z 08002KT 15SM FEW035 SCT300 20/11 A2984 RMK CU1CI2 SLP116

CYXE;2010-08-18 22:00;CYXE 182200Z 15003KT 15SM FEW035 FEW300 21/11 A2982 RMK CU1CI1 SLP109

CYXE;2010-08-18 23:00;CYXE 182300Z 17006KT 15SM FEW035 FEW300 20/11 A2981 RMK CU1CI0 FU ALF SLP106

CYXE;2010-08-19 00:00;CYXE 190000Z 19006KT 15SM FEW035 20/13 A2979 RMK CU1 FU ALF SLP100

CYXE;2010-08-19 01:00;CYXE 190100Z 18006KT 15SM FEW040 19/13 A2978 RMK SC1 FU ALF SLP097

CYXE;2010-08-19 02:00;CYXE 190200Z 15005KT 15SM SKC 17/12 A2978 RMK FU ALF SLP095

CYXE;2010-08-19 03:00;CYXE 190300Z 14005KT 15SM FEW300 15/12 A2978 RMK CI1 SLP094

CYXE;2010-08-19 04:00;CYXE 190400Z 14008KT 15SM FEW300 15/13 A2978 RMK CI1 SLP093

CYXE;2010-08-19 05:00;CYXE 190500Z 13007KT 15SM FEW300 15/13 A2976 RMK CI1 SLP088

CYXE;2010-08-19 06:00;CYXE 190600Z 14006KT 15SM SCT300 14/12 A2974 RMK CI1 SLP077

CYXE;2010-08-19 07:00;CYXE 190700Z 15006KT 15SM SCT300 13/12 A2973 RMK CI1 SLP074

CYXE;2010-08-19 08:00;CYXE 190800Z 13006KT 15SM SCT300 12/12 A2972 RMK CI2 SLP070

CYXE;2010-08-19 09:00;CYXE 190900Z 11006KT 15SM SCT300 12/11 A2969 RMK CI1 SLP060

CYXE;2010-08-19 10:00;CYXE 191000Z 13007KT 15SM SCT300 12/11 A2966 RMK CI1 SLP052

CYXE;2010-08-19 11:00;CYXE 191100Z 13004KT 15SM SCT300 12/11 A2965 RMK CI2 SLP048

CYXE;2010-08-19 12:00;CYXE 191200Z 14004KT 15SM BKN300 12/11 A2964 RMK CI2 SLP045

CYXE;2010-08-19 13:00;CYXE 191300Z 14005KT 15SM FEW140 BKN300 12/12 A2964 RMK AC2CI2 FU SLP043

CYXE;2010-08-19 14:00;CYXE 191400Z 16006KT 15SM BKN120 BKN300 13/12 A2962 RMK AC3CI1 FU SLP037

CYXE;2010-08-19 15:00;CYXE 191500Z 14008KT 15SM BKN120 BKN300 15/13 A2957 RMK AC3CI1 SLP021

CYXE;2010-08-19 16:00;CYXE 191600Z 16009KT 15SM VCSH SCT050 BKN120 BKN300 15/14 A2957 RMK SC4AC2CI0 FU SLP021

CYXE;2010-08-19 18:00;CYXE 191800Z 14005KT 15SM SCT050 BKN090 BKN300 21/16 A2953 RMK SC3AC2CI0 SLP004

CYXE;2010-08-19 19:00;CYXE 191900Z 18002KT 15SM FEW024 SCT090 SCT300 23/17 A2952 RMK CU2AC2CI0 SLP001

CYXE;2010-08-19 20:00;CYXE 192000Z 20012KT 15SM FEW024 SCT090 SCT300 27/18 A2948 RMK CU2AC2CI0 SLP989

CYXE;2010-08-19 21:00;CYXE 192100Z 23012KT 15SM FEW024 FEW090 SCT300 27/18 A2948 RMK CU1AC2CI0 SLP984

CYXE;2010-08-19 22:00;CYXE 192200Z 22009KT 15SM FEW110 FEW300 29/18 A2947 RMK ACC2CI0 SLP981

CYXE;2010-08-19 23:00;CYXE 192300Z 35015KT 15SM FEW040 FEW100 BKN300 25/20 A2948 RMK CU1AC1CI2 SLP984

CYXE;2010-08-20 00:00;CYXE 200000Z 02012KT 15SM FEW130 BKN300 24/19 A2949 RMK AC1CI3 SLP991

CYXE;2010-08-20 01:00;CYXE 200100Z 36007KT 15SM FEW120 BKN300 22/19 A2952 RMK AC1CI3 SLP998

CYXE;2010-08-20 02:00;CYXE 200200Z 33007KT 15SM FEW120 BKN300 19/18 A2952 RMK AC1CI3 CB TOP EMBD S SLP001

CYXE;2010-08-20 03:00;CYXE 200300Z 33008KT 15SM FEW120 BKN300 17/17 A2955 RMK AC2CI2 SLP011

CYXE;2010-08-20 04:00;CYXE 200400Z 34008KT 15SM FEW120 BKN300 17/16 A2956 RMK AC1CI2 SLP015

CYXE;2010-08-20 05:00;CYXE 200500Z 34009KT 15SM FEW120 BKN300 17/16 A2956 RMK AC1CI2 SLP017

CYXE;2010-08-20 06:00;CYXE 200600Z 27002KT 10SM FEW120 BKN300 16/15 A2958 RMK AC1CI2 FU SLP021

CYXE;2010-08-20 06:14;CYXE 200614Z 30005KT 10SM SCT030 BKN120 BKN300 15/ RMK FU2AC1CI0 FU

CYXE;2010-08-20 07:00;CYXE 200700Z 30007KT 6SM FU VV030 14/13 A2961 RMK FU8 SLP029

CYXE;2010-08-20 08:00;CYXE 200800Z 32009KT 4SM FU VV030 14/13 A2961 RMK FU8 SLP029

CYXE;2010-08-20 09:00;CYXE 200900Z 31008KT 3SM FU VV020 11/11 A2962 RMK FU8 SLP034

CYXE;2010-08-20 10:00;CYXE 201000Z 31007KT 2SM FU VV020 11/10 A2964 RMK FU8 SLP038

CYXE;2010-08-20 11:00;CYXE 201100Z 31009KT 2 1/2SM FU VV020 11/10 A2966 RMK FU8 SLP047

CYXE;2010-08-20 12:00;CYXE 201200Z 28005KT 2 1/2SM FU BKN120 OVC300 11/11 A2969 RMK FU5AC2CI0 SLP058

CYXE;2010-08-20 13:00;CYXE 201300Z 35003KT 2SM FU OVC120 12/11 A2967 RMK FU5AC2 SLP052

CYXE;2010-08-20 14:00;CYXE 201400Z 32004KT 2SM FU BKN110 13/11 A2971 RMK FU5AC2 SLP065

CYXE;2010-08-20 15:00;CYXE 201500Z 20004KT 2SM FU OVC093 13/11 A2973 RMK FU5AC2 SLP075

CYXE;2010-08-20 16:00;CYXE 201600Z 20003KT 2SM FU OVC093 15/12 A2972 RMK FU5AC2 SLP073

CYXE;2010-08-20 17:00;CYXE 201700Z 00000KT 2SM FU OVC300 18/10 A2973 RMK FU6CI0 SLP076

CYXE;2010-08-20 18:00;CYXE 201800Z 30003KT 2SM FU OVC300 18/11 A2974 RMK FU6CI0 SLP077

CYXE;2010-08-20 19:00;CYXE 201900Z 27005KT 2SM FU OVC300 20/11 A2975 RMK FU6CI0 SLP079

CYXE;2010-08-20 20:00;CYXE 202000Z 27008KT 2SM FU OVC300 20/11 A2975 RMK FU6CI0 SLP079

CYXE;2010-08-20 21:00;CYXE 202100Z 28009KT 2SM FU OVC110 20/11 A2975 RMK FU6AC2 SLP083

CYXE;2010-08-20 22:00;CYXE 202200Z 32009KT 3SM FU BKN110 OVC300 20/10 A2975 RMK FU3AC2CI1 SLP083

CYXE;2010-08-20 23:00;CYXE 202300Z 32006KT 3SM FU BKN110 OVC300 20/10 A2976 RMK FU3AC2CI1 SLP086

CYXE;2010-08-21 00:00;CYXE 210000Z 32004KT 5SM FU BKN100 BKN300 18/12 A2978 RMK FU2AC3CI1 SLP091

CYXE;2010-08-21 01:00;CYXE 210100Z 32003KT 4SM FU BKN110 OVC300 18/13 A2978 RMK FU3AC3CI0 SLP093

CYXE;2010-08-21 02:00;CYXE 210200Z 34003KT 3SM FU BKN110 OVC300 16/13 A2980 RMK FU4AC2CI0 SLP098

CYXE;2010-08-21 03:00;CYXE 210300Z 36005KT 4SM FU BKN095 OVC300 14/11 A2982 RMK FU3AC3CI0 SLP107

CYXE;2010-08-21 04:00;CYXE 210400Z 10002KT 5SM FU BKN090 OVC300 14/12 A2983 RMK FU2AC5CI0 SLP112

CYXE;2010-08-21 05:00;CYXE 210500Z 00000KT 5SM FU BKN100 OVC300 13/11 A2985 RMK AC6CI1 SLP117

CYXE;2010-08-21 06:00;CYXE 210600Z 05002KT 8SM BKN085 13/12 A2985 RMK AC5 FU SLP117

CYXE;2010-08-21 07:00;CYXE 210700Z 07005KT 8SM SCT080 13/10 A2985 RMK AC3 FU SLP117

CYXE;2010-08-21 08:00;CYXE 210800Z 12003KT 8SM SKC 12/09 A2985 RMK FU SLP116

CYXE;2010-08-21 09:00;CYXE 210900Z 08005KT 8SM SKC 11/09 A2985 RMK FU SLP116

CYXE;2010-08-21 10:00;CYXE 211000Z 12003KT 8SM SKC 10/08 A2986 RMK FU SLP119

CYXE;2010-08-21 11:00;CYXE 211100Z CCA 10005KT 8SM SKC 09/08 A2986 RMK FU SLP120

CYXE;2010-08-21 12:00;CYXE 211200Z 10007KT 4SM FU SKC 10/09 A2986 RMK FU2 SLP122

CYXE;2010-08-21 13:00;CYXE 211300Z 08007KT 4SM FU BKN300 11/09 A2987 RMK FU2CI0 SLP126

CYXE;2010-08-21 14:00;CYXE 211400Z 08006KT 8SM FEW300 13/11 A2986 RMK CI0 FU SLP122

CYXE;2010-08-21 15:00;CYXE 211500Z 11011KT 8SM SCT300 16/11 A2985 RMK CI0 FU SLP116

CYXE;2010-08-21 16:00;CYXE 211600Z 12011G18KT 8SM BKN300 18/12 A2982 RMK CI1 FU SLP106

CYXE;2010-08-21 17:00;CYXE 211700Z 13013G20KT 8SM BKN300 20/12 A2978 RMK CI2 FU SLP094

CYXE;2010-08-21 18:00;CYXE 211800Z 13015G20KT 10SM OVC300 21/14 A2977 RMK CI4 FU SLP086

CYXE;2010-08-21 19:00;CYXE 211900Z 13012KT 10SM FEW160 OVC300 23/15 A2975 RMK AC2CI1 FU SLP082

CYXE;2010-08-21 20:00;CYXE 212000Z 12010KT 10SM BKN110 OVC300 24/16 A2974 RMK AC5CI2 FU SLP076

CYXE;2010-08-21 21:00;CYXE 212100Z 14003KT 10SM FEW048 BKN110 OVC300 25/18 A2974 RMK SC2AC4CI2 FU SLP076

CYXE;2010-08-21 22:00;CYXE 212200Z 08008KT 10SM FEW053 BKN110 BKN300 24/18 A2973 RMK SC2AC2CI2 FU SLP071

CYXE;2010-08-21 23:00;CYXE 212300Z 25005KT 10SM FEW070 BKN130 BKN300 25/18 A2974 RMK AC2AC2CI2 FU SLP074

CYXE;2010-08-22 00:00;CYXE 220000Z CCA 16003KT 15SM BKN100 BKN300 24/18 A2972 RMK AC5CI1 FU ACC EMBD SLP070

CYXE;2010-08-22 01:00;CYXE 220100Z 12006KT 10SM FEW100 BKN300 23/18 A2971 RMK ACC2CI2 FU TCU EMBD ESE SLP068

CYXE;2010-08-22 02:00;CYXE 220200Z 11009KT 10SM FEW100 BKN300 21/17 A2971 RMK ACC2CI2 FU CB EMBD E SLP066

CYXE;2010-08-22 03:00;CYXE 220300Z 11007KT 10SM FEW110 BKN300 20/16 A2972 RMK AC1CI2 FU SLP067

CYXE;2010-08-22 04:00;CYXE 220400Z 01007KT 10SM FEW110 BKN300 17/16 A2974 RMK AC1CI2 FU SLP075

CYXE;2010-08-22 05:00;CYXE 220500Z 01006KT 10SM BKN300 15/15 A2975 RMK CI3 FU SLP078

CYXE;2010-08-22 06:00;CYXE 220600Z 04006KT 12SM FEW300 14/14 A2977 RMK CI0 FU SLP085

CYXE;2010-08-22 07:00;CYXE 220700Z 06010KT 12SM FEW300 13/13 A2977 RMK CI0 FU SLP085

CYXE;2010-08-22 08:00;CYXE 220800Z 06009KT 15SM FEW300 12/12 A2976 RMK CI0 FU SLP084

CYXE;2010-08-22 09:00;CYXE 220900Z 06007KT 15SM BKN300 12/12 A2977 RMK CI0 SLP085

CYXE;2010-08-22 10:00;CYXE 221000Z 04005KT 15SM FEW090 BKN300 12/12 A2975 RMK AC2CI0 SLP080

CYXE;2010-08-22 11:00;CYXE 221100Z 02007KT 15SM FEW090 BKN300 12/12 A2975 RMK AC2CI0 SLP079

CYXE;2010-08-22 12:00;CYXE 221200Z 09006KT 10SM BKN110 OVC300 12/12 A2977 RMK AC6CI1 FU SLP085

CYXE;2010-08-22 13:00;CYXE 221300Z 02005KT 8SM BKN110 OVC300 12/12 A2975 RMK AC6CI1 FU SLP080

CYXE;2010-08-22 14:00;CYXE 221400Z 02007KT 8SM BKN110 OVC300 13/13 A2974 RMK AC6CI2 FU SLP075

CYXE;2010-08-22 14:51;CYXE 221451Z 05003KT 8SM SCT006 OVC110 13/ RMK SF4AC4 FU

CYXE;2010-08-22 14:55;CYXE 221455Z 08003KT 8SM BKN006 OVC110 14/ RMK SF6AC2 FU

CYXE;2010-08-22 15:00;CYXE 221500Z 08003KT 10SM OVC006 14/13 A2977 RMK SF8 FU SLP088

CYXE;2010-08-22 15:27;CYXE 221527Z 06009KT 6SM FU OVC005 14/ RMK SF8

CYXE;2010-08-22 15:49;CYXE 221549Z 07008KT 4SM FU OVC006 14/ RMK SF8

CYXE;2010-08-22 16:00;CYXE 221600Z 06006KT 4SM FU OVC006 14/13 A2978 RMK SF8 SLP092

CYXE;2010-08-22 16:39;CYXE 221639Z 04005KT 8SM FEW007 BKN110 OVC280 15/ RMK SF2AC4CI2 FU

CYXE;2010-08-22 17:00;CYXE 221700Z 05003KT 6SM FU BKN110 OVC280 16/14 A2978 RMK AC6CI2 SLP092

CYXE;2010-08-22 18:00;CYXE 221800Z 34006KT 4SM FU OVC110 16/15 A2976 RMK AC8 SLP085

CYXE;2010-08-22 18:27;CYXE 221827Z 33008KT 4SM -SHRA FU SCT064 OVC075 16/ RMK SC4AC4

CYXE;2010-08-22 19:00;CYXE 221900Z 32008KT 6SM -SHRA FU BKN061 OVC075 16/14 A2977 RMK SC6AC2 SLP089

CYXE;2010-08-22 20:00;CYXE 222000Z 34011G17KT 10SM FEW061 BKN110 17/15 A2975 RMK SC2AC3 FU SLP083

CYXE;2010-08-22 21:00;CYXE 222100Z 32008KT 10SM SCT017 BKN060 BKN120 18/15 A2978 RMK SC3SC2AC2 SLP092

CYXE;2010-08-22 22:00;CYXE 222200Z 33008KT 10SM SCT015 BKN120 18/15 A2981 RMK SC3AC2 FU SLP101

CYXE;2010-08-22 23:00;CYXE 222300Z 32009KT 10SM BKN017 BKN063 17/15 A2983 RMK SC6SC1 FU SLP108

CYXE;2010-08-23 00:00;CYXE 230000Z 32012G17KT 10SM FEW019 BKN063 17/14 A2984 RMK SC2SC4 SLP113

CYXE;2010-08-23 01:00;CYXE 230100Z 34006KT 10SM VCSH FEW060 BKN093 16/14 A2984 RMK SC2AC5 FU SLP114

CYXE;2010-08-23 02:00;CYXE 230200Z 34002KT 10SM VCSH BKN093 OVC300 15/14 A2983 RMK AC6CI1 FU SLP111

CYXE;2010-08-23 03:00;CYXE 230300Z 34003KT 10SM VCSH BKN086 BKN120 OVC300 14/14 A2982 RMK AC5AC2CI0 FU SLP107

CYXE;2010-08-23 04:00;CYXE 230400Z 34003KT 10SM FEW063 FEW120 BKN300 13/13 A2982 RMK SC2AC1CI0 FU SLP106

CYXE;2010-08-23 05:00;CYXE 230500Z 27005KT 15SM FEW082 SCT300 12/12 A2982 RMK AC2CI0 SLP107

CYXE;2010-08-23 06:00;CYXE 230600Z 29007KT 6SM BR BKN300 12/12 A2983 RMK CI0 SLP111

CYXE;2010-08-23 06:25;CYXE 230625Z 29007KT 6SM BR SCT002 OVC300 12/ RMK SF2CI0

CYXE;2010-08-23 07:00;CYXE 230700Z 30007KT 6SM BR SCT002 OVC300 12/12 A2983 RMK SF1CI0 SLP112

CYXE;2010-08-23 08:00;CYXE 230800Z 31005KT 12SM BKN300 12/12 A2983 RMK CI0 BR SLP112

CYXE;2010-08-23 09:00;CYXE 230900Z 30004KT 12SM BKN300 11/11 A2981 RMK CI0 FU SLP104

CYXE;2010-08-23 10:00;CYXE 231000Z 30006KT 12SM BKN300 12/12 A2982 RMK CI0 FU SLP107

CYXE;2010-08-23 11:00;CYXE 231100Z 27003KT 12SM OVC029 12/12 A2984 RMK SC8 FU SLP114

CYXE;2010-08-23 12:00;CYXE 231200Z 29005KT 6SM BR SCT021 OVC033 12/12 A2985 RMK SC3SC5 SLP116

CYXE;2010-08-23 13:00;CYXE 231300Z 30008KT 8SM FEW020 BKN035 OVC100 13/13 A2986 RMK SC2SC3AC2 BR SLP119

CYXE;2010-08-23 13:20;CYXE 231320Z 31008KT 6SM BR BKN006 OVC039 13/ RMK SF6SC2

CYXE;2010-08-23 14:00;CYXE 231400Z 31011KT 6SM BR BKN005 OVC024 13/13 A2987 RMK SC6SC2 SLP122

CYXE;2010-08-23 14:05;CYXE 231405Z 31009KT 4SM BR SCT006 SCT016 OVC028 13/ RMK SF3SC1SC4

CYXE;2010-08-23 14:23;CYXE 231423Z 31010KT 4SM -SHRA BR BKN006 OVC028 13/ RMK SF6SC2

CYXE;2010-08-23 15:00;CYXE 231500Z 31010KT 4SM -SHRA BR BKN007 OVC045 14/14 A2986 RMK SF6SC2 SLP122

CYXE;2010-08-23 15:38;CYXE 231538Z 30010KT 6SM BR OVC008 14/ RMK SF8

CYXE;2010-08-23 16:00;CYXE 231600Z 31011KT 6SM BR SCT009 OVC050 15/14 A2986 RMK SF3SC3 OBS TAKEN +02 SLP121

CYXE;2010-08-23 16:39;CYXE 231639Z 30011G17KT 6SM BR BKN013 OVC037 15/ RMK SC5SC2 RAG CIG

CYXE;2010-08-23 17:00;CYXE 231700Z 30013G20KT 6SM BR BKN011 BKN025 OVC230 15/12 A2987 RMK SC5SC1CI1 RAG CIG SLP123

CYXE;2010-08-23 17:28;CYXE 231728Z 31017KT 15SM BKN016 OVC025 15/ RMK SC7SC1

CYXE;2010-08-23 18:00;CYXE 231800Z 30013G22KT 15SM OVC020 15/11 A2987 RMK SC8 SLP126

CYXE;2010-08-23 19:00;CYXE 231900Z 32010G15KT 15SM BKN024 OVC040 15/12 A2988 RMK SC6SC2 SLP128

CYXE;2010-08-23 20:00;CYXE 232000Z 31015KT 15SM SCT024 OVC038 15/11 A2989 RMK SC3SC5 OBS TAKEN +03 SLP131

CYXE;2010-08-23 20:21;CYXE 232021Z 31016G24KT 15SM -SHRA SCT024 OVC029 14/ RMK SC3SC5

CYXE;2010-08-23 21:00;CYXE 232100Z 30018G27KT 15SM FEW027 BKN032 OVC058 15/11 A2990 RMK SC2SC4SC2 SLP137

CYXE;2010-08-23 22:00;CYXE 232200Z 30019G27KT 15SM BKN027 OVC071 15/11 A2992 RMK SC6AC2 SLP143

CYXE;2010-08-23 23:00;CYXE 232300Z 29016G21KT 15SM FEW027 BKN055 OVC080 14/11 A2993 RMK SC2SC3AC2 SLP147

CYXE;2010-08-23 23:50;CYXE 232350Z 31018G25KT 8SM -SHRA FEW020 OVC035 13/ RMK SF2SC6

CYXE;2010-08-24 00:00;CYXE 240000Z 31021G27KT 10SM -SHRA FEW018 OVC035 13/11 A2995 RMK SF2SC6 SLP153

CYXE;2010-08-24 01:00;CYXE 240100Z 30013G22KT 12SM -SHRA SCT013 OVC051 12/12 A2996 RMK SF4SC4 SLP157

CYXE;2010-08-24 02:00;CYXE 240200Z 30015KT 15SM -SHRA SCT013 BKN054 12/11 A2997 RMK SF3SC4 SLP161

CYXE;2010-08-24 02:17;CYXE 240217Z 30016G21KT 15SM FEW013 BKN054 12/ RMK SF2SC5

CYXE;2010-08-24 03:00;CYXE 240300Z 29015KT 15SM SCT056 BKN280 12/11 A3000 RMK SC3CI2 SLP169

CYXE;2010-08-24 04:00;CYXE 240400Z 30015G20KT 15SM FEW061 12/11 A3000 RMK SC2 SLP171

CYXE;2010-08-24 05:00;CYXE 240500Z 30017KT 15SM BKN050 12/11 A3000 RMK SC6 SLP171

CYXE;2010-08-24 06:00;CYXE 240600Z 30017KT 15SM SCT050 12/11 A3001 RMK SC3 SLP172

CYXE;2010-08-24 07:00;CYXE 240700Z 30015KT 15SM FEW050 12/11 A3001 RMK SC1 SLP174

CYXE;2010-08-24 08:00;CYXE 240800Z 29016KT 15SM SKC 11/11 A3002 RMK SLP175

CYXE;2010-08-24 09:00;CYXE 240900Z 30014G19KT 15SM SKC 11/10 A3004 RMK SLP184

CYXE;2010-08-24 10:00;CYXE 241000Z 30012KT 15SM SKC 10/10 A3006 RMK SLP190

CYXE;2010-08-24 11:00;CYXE 241100Z 30013KT 15SM FEW020 10/09 A3008 RMK SC1 SLP197

CYXE;2010-08-24 12:00;CYXE 241200Z 30011KT 15SM FEW020 10/09 A3010 RMK SC1 SLP206

CYXE;2010-08-24 13:00;CYXE 241300Z 30009G15KT 15SM FEW020 10/09 A3012 RMK SC1 SLP214

CYXE;2010-08-24 14:00;CYXE 241400Z 30014KT 15SM FEW015 11/10 A3014 RMK CU1 SLP219

CYXE;2010-08-24 15:00;CYXE 241500Z 31014KT 15SM FEW090 13/10 A3015 RMK AC1 SLP222

CYXE;2010-08-24 16:00;CYXE 241600Z 31015KT 15SM FEW015 14/10 A3016 RMK CU1 SLP227

CYXE;2010-08-24 17:00;CYXE 241700Z 32013G18KT 15SM SKC 16/10 A3018 RMK SLP231

CYXE;2010-08-24 18:00;CYXE 241800Z 32012G17KT 15SM FEW024 17/11 A3018 RMK CU2 SLP228

CYXE;2010-08-24 19:00;CYXE 241900Z 32014G19KT 15SM BKN032 18/10 A3017 RMK CU5 SLP227

CYXE;2010-08-24 20:00;CYXE 242000Z 32013KT 15SM BKN043 20/11 A3017 RMK CU5 SLP227

CYXE;2010-08-24 21:00;CYXE 242100Z 30013KT 15SM SCT044 19/10 A3017 RMK CU4 SLP227

CYXE;2010-08-24 22:00;CYXE 242200Z 34012KT 15SM SCT053 19/09 A3017 RMK CU4 SLP227

CYXE;2010-08-24 23:00;CYXE 242300Z 34011KT 15SM SCT055 20/09 A3017 RMK CU4 SLP227

CYXE;2010-08-25 00:00;CYXE 250000Z 34009KT 15SM FEW070 SCT300 19/08 A3018 RMK CU2CI0 SLP229

CYXE;2010-08-25 01:00;CYXE 250100Z 34005KT 15SM FEW070 FEW300 18/10 A3018 RMK CU1CI0 SLP230

CYXE;2010-08-25 02:00;CYXE 250200Z 08003KT 15SM FEW300 16/09 A3018 RMK CI0 SLP229

CYXE;2010-08-25 03:00;CYXE 250300Z 14004KT 15SM FEW300 14/10 A3018 RMK CI0 SLP231

CYXE;2010-08-25 04:00;CYXE 250400Z 14005KT 15SM SKC 13/08 A3018 RMK SLP233

CYXE;2010-08-25 05:00;CYXE 250500Z 16004KT 15SM SKC 13/09 A3018 RMK SLP232

CYXE;2010-08-25 06:00;CYXE 250600Z 17005KT 15SM SKC 12/09 A3018 RMK SLP231

CYXE;2010-08-25 07:00;CYXE 250700Z 16004KT 15SM SKC 10/08 A3018 RMK SLP229

CYXE;2010-08-25 08:00;CYXE 250800Z 17004KT 15SM FEW250 09/08 A3018 RMK CI0 SLP229

CYXE;2010-08-25 09:00;CYXE 250900Z 19005KT 15SM SCT250 09/08 A3017 RMK CI1 SLP227

CYXE;2010-08-25 10:00;CYXE 251000Z 19006KT 15SM SCT250 10/08 A3017 RMK CI1 SLP228

CYXE;2010-08-25 11:00;CYXE 251100Z 19005KT 15SM BKN250 09/08 A3017 RMK CI1 SLP226

CYXE;2010-08-25 12:00;CYXE 251200Z 18003KT 15SM BKN250 09/07 A3016 RMK CI1 SLP223

CYXE;2010-08-25 13:00;CYXE 251300Z 17004KT 15SM FEW250 09/08 A3015 RMK CI1 SLP220

CYXE;2010-08-25 14:00;CYXE 251400Z 19007KT 15SM FEW250 12/09 A3014 RMK CI0 SLP217

CYXE;2010-08-25 15:00;CYXE 251500Z 19009KT 15SM SKC 16/09 A3012 RMK SLP209

CYXE;2010-08-25 16:00;CYXE 251600Z 19010KT 15SM SKC 18/10 A3010 RMK SLP202

CYXE;2010-08-25 17:00;CYXE 251700Z 18011KT 15SM SKC 21/11 A3007 RMK SLP193

CYXE;2010-08-25 18:00;CYXE 251800Z 18017KT 15SM SKC 23/10 A3004 RMK SLP180

CYXE;2010-08-25 19:00;CYXE 251900Z 19015KT 15SM SKC 24/10 A3001 RMK SLP171

CYXE;2010-08-25 20:00;CYXE 252000Z 21014KT 15SM FEW120 25/10 A2999 RMK AC1 SLP163

CYXE;2010-08-25 21:00;CYXE 252100Z 21011KT 15SM FEW120 26/11 A2997 RMK AC1 SLP154

CYXE;2010-08-25 22:00;CYXE 252200Z 19010KT 15SM FEW120 26/11 A2994 RMK AC1 SLP145

CYXE;2010-08-25 23:00;CYXE 252300Z 19011KT 15SM FEW120 FEW280 26/11 A2992 RMK AC1CI1 SLP139

CYXE;2010-08-26 00:00;CYXE 260000Z 21009KT 15SM FEW280 26/11 A2991 RMK CI1 SLP135

CYXE;2010-08-26 01:00;CYXE 260100Z 19007KT 15SM SCT280 25/12 A2989 RMK CI1 SLP127

CYXE;2010-08-26 02:00;CYXE 260200Z 19006KT 15SM BKN280 21/12 A2987 RMK CI1 SLP123

CYXE;2010-08-26 03:00;CYXE 260300Z 19006KT 15SM BKN280 20/12 A2988 RMK CI2 SLP123

CYXE;2010-08-26 04:00;CYXE 260400Z 28008KT 15SM BKN280 16/12 A2988 RMK CI2 SLP125

CYXE;2010-08-26 05:00;CYXE 260500Z 19004KT 15SM BKN280 16/12 A2988 RMK CI1 SLP123

CYXE;2010-08-26 06:00;CYXE 260600Z 16005KT 15SM SCT280 15/12 A2987 RMK CI1 SLP120

CYXE;2010-08-26 07:00;CYXE 260700Z 15007KT 15SM SCT280 14/11 A2987 RMK CI1 SLP118

CYXE;2010-08-26 08:00;CYXE 260800Z 16005KT 15SM FEW280 13/11 A2985 RMK CI1 SLP113

CYXE;2010-08-26 09:00;CYXE 260900Z 18004KT 15SM SKC 12/11 A2984 RMK SLP110

CYXE;2010-08-26 10:00;CYXE 261000Z 19004KT 15SM SKC 12/10 A2983 RMK SLP106

CYXE;2010-08-26 11:00;CYXE 261100Z 20006KT 15SM FEW100 11/10 A2983 RMK AC1 SLP104

CYXE;2010-08-26 12:00;CYXE 261200Z 06006KT 15SM FEW100 10/09 A2981 RMK AC1 SLP098

CYXE;2010-08-26 13:00;CYXE 261300Z 00000KT 15SM FEW100 09/09 A2981 RMK AC1 SLP100

CYXE;2010-08-26 14:00;CYXE 261400Z 05006KT 15SM FEW100 13/12 A2982 RMK AC1 SLP101

CYXE;2010-08-26 15:00;CYXE 261500Z 08004KT 15SM SKC 17/13 A2981 RMK SLP098

CYXE;2010-08-26 16:00;CYXE 261600Z 09008KT 15SM SKC 21/14 A2978 RMK SLP090

CYXE;2010-08-26 17:00;CYXE 261700Z 11010KT 15SM SKC 24/15 A2976 RMK SLP083

CYXE;2010-08-26 18:00;CYXE 261800Z 14013KT 15SM SKC 25/13 A2972 RMK SLP067

CYXE;2010-08-26 19:00;CYXE 261900Z 15012G17KT 15SM FEW280 27/14 A2969 RMK CI1 SLP058

CYXE;2010-08-26 20:00;CYXE 262000Z 14008KT 15SM FEW280 28/16 A2967 RMK CI1 SLP050

CYXE;2010-08-26 21:00;CYXE 262100Z 14008KT 15SM FEW280 30/18 A2964 RMK CI0 SLP037

CYXE;2010-08-26 22:00;CYXE 262200Z 18007KT 15SM FEW280 31/14 A2961 RMK CI1 SLP029

CYXE;2010-08-26 23:00;CYXE 262300Z 17003KT 15SM FEW280 31/15 A2958 RMK CI0 SLP019

CYXE;2010-08-27 00:00;CYXE 270000Z 17006KT 15SM BKN280 30/15 A2955 RMK CI2 SLP009

CYXE;2010-08-27 01:00;CYXE 270100Z 15006KT 15SM FEW160 BKN300 28/15 A2953 RMK AC1CI1 SLP001

CYXE;2010-08-27 02:00;CYXE 270200Z 13009KT 15SM FEW160 BKN300 25/14 A2950 RMK AC1CI2 SLP992

CYXE;2010-08-27 03:00;CYXE 270300Z 14008KT 15SM FEW140 BKN300 23/15 A2947 RMK AC1CI2 SLP979

CYXE;2010-08-27 04:00;CYXE 270400Z 14009KT 15SM BKN300 23/14 A2944 RMK CI2 SLP971

CYXE;2010-08-27 05:00;CYXE 270500Z 14009KT 15SM BKN300 22/14 A2941 RMK CI2 SLP961

CYXE;2010-08-27 06:00;CYXE 270600Z 16008KT 15SM BKN300 21/14 A2939 RMK CI2 SLP950

CYXE;2010-08-27 07:00;CYXE 270700Z 23005KT 15SM SCT300 20/13 A2938 RMK CI1 SLP946

CYXE;2010-08-27 08:00;CYXE 270800Z 26007KT 15SM SCT300 20/12 A2939 RMK CI1 SLP950

CYXE;2010-08-27 09:00;CYXE 270900Z 25005KT 15SM SCT300 20/12 A2940 RMK CI1 SLP953

CYXE;2010-08-27 10:00;CYXE 271000Z 32010KT 15SM SCT070 BKN300 21/13 A2941 RMK AC3CI0 SLP954

CYXE;2010-08-27 11:00;CYXE 271100Z 27003KT 15SM SCT070 BKN300 19/13 A2939 RMK AC3CI0 SLP949

CYXE;2010-08-27 12:00;CYXE 271200Z 27007KT 15SM SCT065 BKN120 BKN300 17/13 A2938 RMK AC3AC2CI0 VIRGA E SLP947

CYXE;2010-08-27 13:00;CYXE 271300Z 30009G15KT 15SM FEW065 SCT090 BKN300 15/12 A2942 RMK AC2AC2CI0 SLP959

CYXE;2010-08-27 14:00;CYXE 271400Z 30012G17KT 15SM FEW060 SCT090 BKN300 15/12 A2946 RMK SC2AC2CI0 SLP973

CYXE;2010-08-27 15:00;CYXE 271500Z 28012KT 15SM FEW020 FEW090 16/12 A2948 RMK CF1AC1 SLP986

CYXE;2010-08-27 16:00;CYXE 271600Z 29021G26KT 15SM FEW024 17/11 A2951 RMK CU2 SLP994

CYXE;2010-08-27 17:00;CYXE 271700Z 28021G27KT 15SM FEW030 19/11 A2952 RMK CU2 SLP999

CYXE;2010-08-27 18:00;CYXE 271800Z 28020G29KT 15SM FEW040 19/09 A2955 RMK CU2 SLP007

CYXE;2010-08-27 19:00;CYXE 271900Z 29020G27KT 15SM FEW044 20/09 A2956 RMK CU2 SLP011

CYXE;2010-08-27 20:00;CYXE 272000Z 29017G26KT 15SM FEW044 20/09 A2957 RMK CU2 SLP016

CYXE;2010-08-27 21:00;CYXE 272100Z 27016G28KT 15SM FEW055 SCT300 21/07 A2958 RMK CU2CI0 SLP018

CYXE;2010-08-27 22:00;CYXE 272200Z 27017G24KT 15SM FEW064 BKN300 20/06 A2959 RMK CU2CI0 SLP021

CYXE;2010-08-27 23:00;CYXE 272300Z 28016G22KT 15SM FEW068 BKN300 20/06 A2960 RMK CU2CI0 SLP023

CYXE;2010-08-28 00:00;CYXE 280000Z 28017KT 15SM FEW074 SCT300 20/05 A2961 RMK CU2CI0 SLP029

CYXE;2010-08-28 01:00;CYXE 280100Z 28013KT 15SM FEW300 18/04 A2962 RMK CI0 SLP034

CYXE;2010-08-28 02:00;CYXE 280200Z 25007KT 15SM FEW120 14/07 A2963 RMK AC1 SLP036

CYXE;2010-08-28 03:00;CYXE 280300Z 23006KT 15SM FEW120 11/07 A2964 RMK AC1 SLP046

CYXE;2010-08-28 04:00;CYXE 280400Z 23008KT 15SM FEW120 10/07 A2964 RMK AC1 SLP045

CYXE;2010-08-28 05:00;CYXE 280500Z 23007KT 15SM FEW120 10/07 A2964 RMK AC1 SLP046

CYXE;2010-08-28 06:00;CYXE 280600Z 23007KT 15SM SCT088 10/07 A2963 RMK AC3 SLP042

CYXE;2010-08-28 07:00;CYXE 280700Z 23006KT 15SM SCT088 09/07 A2964 RMK AC3 SLP045

CYXE;2010-08-28 08:00;CYXE 280800Z 21006KT 15SM SKC 09/06 A2964 RMK SLP044

CYXE;2010-08-28 09:00;CYXE 280900Z 21005KT 15SM SKC 08/06 A2964 RMK SLP045

CYXE;2010-08-28 10:00;CYXE 281000Z 25003KT 15SM SKC 07/05 A2964 RMK SLP045

CYXE;2010-08-28 11:00;CYXE 281100Z 21005KT 15SM SKC 07/05 A2963 RMK SLP041

CYXE;2010-08-28 12:00;CYXE 281200Z 20005KT 15SM SKC 07/05 A2963 RMK SLP042

CYXE;2010-08-28 13:00;CYXE 281300Z 24006KT 15SM SKC 08/06 A2965 RMK SLP048

CYXE;2010-08-28 14:00;CYXE 281400Z 25007KT 15SM SKC 09/07 A2965 RMK SLP051

CYXE;2010-08-28 15:00;CYXE 281500Z 27005KT 15SM SKC 13/08 A2965 RMK SLP053

CYXE;2010-08-28 16:00;CYXE 281600Z 30012KT 15SM SKC 16/07 A2966 RMK SLP055

CYXE;2010-08-28 17:00;CYXE 281700Z 30012KT 15SM FEW280 17/07 A2967 RMK CI0 SLP057

CYXE;2010-08-28 18:00;CYXE 281800Z 27012KT 15SM FEW048 FEW280 18/06 A2967 RMK CU1CI1 SLP055

CYXE;2010-08-28 19:00;CYXE 281900Z 27013G20KT 15SM FEW052 FEW280 19/06 A2967 RMK CU1CI0 SLP055

CYXE;2010-08-28 20:00;CYXE 282000Z 26015G21KT 15SM FEW052 FEW280 20/06 A2966 RMK CU1CI1 SLP054

CYXE;2010-08-28 21:00;CYXE 282100Z 27019G24KT 15SM FEW060 SCT290 20/05 A2966 RMK CU2CI1 SLP053

CYXE;2010-08-28 22:00;CYXE 282200Z CCA 28017G22KT 15SM FEW060 FEW120 SCT280 20/05 A2966 RMK CU2AC1CI1 SLP053

CYXE;2010-08-28 23:00;CYXE 282300Z 28010G20KT 15SM FEW062 SCT300 19/07 A2968 RMK CU2CI0 SLP059

CYXE;2010-08-29 00:00;CYXE 290000Z 28015KT 15SM FEW060 FEW120 SCT300 18/06 A2969 RMK CU1AC1CI1 SLP065

CYXE;2010-08-29 01:00;CYXE 290100Z 32008KT 15SM FEW120 SCT300 15/07 A2972 RMK AC2CI1 SLP073

CYXE;2010-08-29 02:00;CYXE 290200Z 33005KT 15SM BKN120 BKN300 12/07 A2974 RMK AC4CI1 SLP079

CYXE;2010-08-29 03:00;CYXE 290300Z 32005KT 15SM BKN120 BKN300 11/08 A2975 RMK AC5CI1 SLP087

CYXE;2010-08-29 04:00;CYXE 290400Z 32004KT 15SM BKN120 10/07 A2976 RMK AC5 SLP090

CYXE;2010-08-29 05:00;CYXE 290500Z 34008KT 15SM BKN120 09/07 A2976 RMK AC6 SLP090

CYXE;2010-08-29 06:00;CYXE 290600Z 32006KT 15SM BKN120 09/06 A2978 RMK AC6 SLP095

CYXE;2010-08-29 07:00;CYXE 290700Z 27005KT 15SM OVC120 09/07 A2981 RMK AC8 SLP103

CYXE;2010-08-29 08:00;CYXE 290800Z 31006KT 15SM OVC120 09/07 A2980 RMK AC8 SLP100

CYXE;2010-08-29 09:00;CYXE 290900Z 32006KT 15SM BKN120 09/06 A2981 RMK AC7 SLP103

CYXE;2010-08-29 10:00;CYXE 291000Z 32006KT 15SM BKN120 08/06 A2979 RMK AC7 SLP097

CYXE;2010-08-29 11:00;CYXE 291100Z 34006KT 15SM BKN120 07/06 A2978 RMK AC5 SLP092

CYXE;2010-08-29 12:00;CYXE 291200Z 31005KT 15SM BKN120 07/06 A2980 RMK AC6 SLP101

CYXE;2010-08-29 13:00;CYXE 291300Z 31004KT 15SM BKN120 08/07 A2982 RMK AC6 SLP107

CYXE;2010-08-29 14:00;CYXE 291400Z 32004KT 15SM BKN120 OVC250 08/07 A2983 RMK AC6CI1 SLP110

CYXE;2010-08-29 15:00;CYXE 291500Z 33003KT 15SM BKN120 OVC250 09/07 A2983 RMK AC6CI2 SLP114

CYXE;2010-08-29 16:00;CYXE 291600Z 33004KT 15SM BKN110 OVC250 10/07 A2983 RMK AC7CI1 SLP117

CYXE;2010-08-29 17:00;CYXE 291700Z 34004KT 15SM FEW012 BKN110 OVC250 11/08 A2983 RMK SC1AC7CI1 SLP114

CYXE;2010-08-29 18:00;CYXE 291800Z 33004KT 15SM FEW030 BKN110 12/07 A2983 RMK SC1AC6 SLP115

CYXE;2010-08-29 19:00;CYXE 291900Z 33002KT 15SM FEW020 OVC110 12/06 A2983 RMK SC2AC6 SLP114

CYXE;2010-08-29 20:00;CYXE 292000Z 28004KT 15SM FEW025 OVC110 12/06 A2984 RMK SC2AC6 SLP118

CYXE;2010-08-29 21:00;CYXE 292100Z 27006KT 15SM FEW020 OVC080 12/07 A2985 RMK SC2AC6 SLP121

CYXE;2010-08-29 21:32;CYXE 292132Z 28004KT 15SM -RA FEW020 OVC066 11/ RMK SC2AC6

CYXE;2010-08-29 22:00;CYXE 292200Z 28004KT 15SM -RA FEW020 OVC041 11/08 A2984 RMK SC2SC6 SLP118

CYXE;2010-08-29 23:00;CYXE 292300Z 23006KT 15SM -RA FEW040 OVC071 11/09 A2985 RMK SC2AC6 SLP122

CYXE;2010-08-29 23:16;CYXE 292316Z 23005KT 15SM FEW040 OVC070 11/ RMK SC2AC6

CYXE;2010-08-30 00:00;CYXE 300000Z 26006KT 15SM FEW040 OVC070 11/09 A2985 RMK SC1AC7 SLP124

CYXE;2010-08-30 01:00;CYXE 300100Z 29005KT 15SM OVC065 11/09 A2986 RMK SC8 SLP127

CYXE;2010-08-30 02:00;CYXE 300200Z 31005KT 15SM OVC065 10/08 A2988 RMK SC8 SLP132

CYXE;2010-08-30 03:00;CYXE 300300Z 25003KT 15SM OVC063 10/09 A2991 RMK SC7 SLP144

CYXE;2010-08-30 04:00;CYXE 300400Z 29004KT 15SM OVC061 10/09 A2992 RMK SC7 SLP146

CYXE;2010-08-30 05:00;CYXE 300500Z 00000KT 15SM FEW060 08/08 A2991 RMK SC2 SLP142

CYXE;2010-08-30 06:00;CYXE 300600Z 25004KT 15SM BKN062 07/07 A2992 RMK SC4 SLP148

CYXE;2010-08-30 07:00;CYXE 300700Z 19003KT 15SM SCT062 07/07 A2992 RMK SC3 SLP149

CYXE;2010-08-30 08:00;CYXE 300800Z 24003KT 15SM FEW062 07/07 A2993 RMK SC2 SLP150

CYXE;2010-08-30 09:00;CYXE 300900Z 21002KT 15SM BKN071 07/07 A2994 RMK AC5 SLP155

CYXE;2010-08-30 10:00;CYXE 301000Z 17002KT 15SM BKN071 07/07 A2994 RMK AC7 SLP153

CYXE;2010-08-30 11:00;CYXE 301100Z 32003KT 15SM OVC090 06/06 A2993 RMK AC8 SLP150

CYXE;2010-08-30 12:00;CYXE 301200Z 28002KT 15SM BKN086 07/07 A2995 RMK AC7 SLP156

CYXE;2010-08-30 13:00;CYXE 301300Z 00000KT 15SM OVC068 08/08 A2996 RMK AC8 SLP161

CYXE;2010-08-30 13:37;CYXE 301337Z 00000KT 10SM -SHRA SCT064 OVC084 08/ RMK SC4AC4

CYXE;2010-08-30 14:00;CYXE 301400Z 00000KT 10SM -SHRA FEW020 BKN059 OVC084 09/09 A2997 RMK CU1SC6AC2 SLP164

CYXE;2010-08-30 15:00;CYXE 301500Z 10003KT 15SM -SHRA FEW025 OVC057 10/09 A2997 RMK SC2SC6 SLP163

CYXE;2010-08-30 16:00;CYXE 301600Z 06002KT 15SM OVC055 11/09 A2996 RMK SC8 SLP162

CYXE;2010-08-30 17:00;CYXE 301700Z 15002KT 15SM FEW025 OVC051 12/09 A2995 RMK SC2SC6 SLP157

CYXE;2010-08-30 18:00;CYXE 301800Z 00000KT 15SM FEW023 BKN049 BKN096 13/08 A2994 RMK SC2SC3AC2 SLP152

CYXE;2010-08-30 19:00;CYXE 301900Z 13003KT 15SM SCT023 OVC049 14/08 A2993 RMK SC3SC5 SLP151

CYXE;2010-08-30 20:00;CYXE 302000Z 15004KT 15SM BKN028 OVC047 14/08 A2993 RMK SC5SC3 SLP151

CYXE;2010-08-30 21:00;CYXE 302100Z 10003KT 15SM BKN049 OVC075 14/08 A2992 RMK SC7AC1 SLP144

CYXE;2010-08-30 22:00;CYXE 302200Z 00000KT 15SM BKN051 OVC075 14/07 A2990 RMK SC6AC2 SLP139

CYXE;2010-08-30 23:00;CYXE 302300Z 00000KT 15SM FEW050 OVC074 14/09 A2990 RMK SC2AC6 SLP139

CYXE;2010-08-31 00:00;CYXE 310000Z 35004KT 15SM FEW050 OVC084 13/10 A2989 RMK SC2AC6 SLP136

CYXE;2010-08-31 01:00;CYXE 310100Z 35004KT 15SM OVC086 13/10 A2988 RMK AC7 SLP133

CYXE;2010-08-31 02:00;CYXE 310200Z CCA 34004KT 15SM OVC069 12/10 A2987 RMK AC7 SLP131

CYXE;2010-08-31 03:00;CYXE 310300Z 33005KT 15SM OVC069 11/10 A2987 RMK AC7 SLP127

CYXE;2010-08-31 04:00;CYXE 310400Z 32005KT 15SM FEW039 OVC068 11/10 A2986 RMK SC2AC5 SLP124

CYXE;2010-08-31 05:00;CYXE 310500Z 32005KT 15SM SCT043 OVC076 11/10 A2985 RMK SC3AC4 SLP121

CYXE;2010-08-31 06:00;CYXE 310600Z 32005KT 15SM SCT037 OVC076 11/10 A2983 RMK SC3AC4 SLP115

CYXE;2010-08-31 07:00;CYXE 310700Z 32006KT 15SM SCT037 OVC081 11/09 A2983 RMK SC4AC4 SLP113

CYXE;2010-08-31 08:00;CYXE 310800Z 31005KT 15SM SCT037 OVC083 10/09 A2983 RMK SC4AC4 SLP112

CYXE;2010-08-31 09:00;CYXE 310900Z 31006KT 15SM OVC052 10/09 A2982 RMK SC8 SLP109

CYXE;2010-08-31 10:00;CYXE 311000Z 30006KT 15SM OVC056 10/09 A2981 RMK SC8 SLP107

CYXE;2010-08-31 11:00;CYXE 311100Z 30006KT 15SM BKN053 OVC090 09/09 A2980 RMK SC6AC2 SLP103

CYXE;2010-08-31 12:00;CYXE 311200Z 32005KT 15SM BKN069 08/08 A2980 RMK AC5 SLP103

CYXE;2010-08-31 13:00;CYXE 311300Z 29004KT 15SM SCT056 OVC091 09/09 A2980 RMK SC4AC3 SLP104

CYXE;2010-08-31 14:00;CYXE 311400Z 29005KT 15SM SCT056 OVC090 10/09 A2981 RMK SC4AC4 SLP107

CYXE;2010-08-31 15:00;CYXE 311500Z 30007KT 15SM SCT053 OVC090 12/10 A2981 RMK SC4AC4 SLP108

CYXE;2010-08-31 16:00;CYXE 311600Z 30007KT 15SM SCT051 OVC096 13/10 A2982 RMK SC3AC4 SLP110

CYXE;2010-08-31 17:00;CYXE 311700Z 30008KT 15SM FEW060 BKN095 15/10 A2982 RMK CU2AC6 SLP109

CYXE;2010-08-31 18:00;CYXE 311800Z 29009KT 15SM FEW034 BKN220 17/10 A2980 RMK CU2CI2 SLP101

CYXE;2010-08-31 19:00;CYXE 311900Z 32007KT 15SM SCT040 BKN220 17/09 A2979 RMK CU4CI1 SLP099

CYXE;2010-08-31 20:00;CYXE 312000Z 30011KT 15SM BKN049 BKN110 18/07 A2978 RMK CU5AC1 TCU ASOCTD SLP096

CYXE;2010-08-31 21:00;CYXE 312100Z 28004KT 15SM SCT050 19/08 A2978 RMK CU4 TCU ASOCTD SLP092

CYXE;2010-08-31 22:00;CYXE 312200Z 26003KT 15SM BKN050 18/09 A2977 RMK SC6 TCU EMBD SLP091

CYXE;2010-08-31 23:00;CYXE 312300Z 24009KT 15SM SCT060 19/06 A2976 RMK CU4 TCU ASOCTD SLP088

CYXE;2010-09-01 01:00;CYXE 010100Z 23003KT 15SM FEW040 18/08 A2975 RMK SC2 SLP084

CYXE;2010-09-01 02:00;CYXE 010200Z 20005KT 15SM FEW040 15/07 A2974 RMK SC2 SLP082

CYXE;2010-09-01 03:00;CYXE 010300Z 18005KT 15SM FEW030 SCT270 13/08 A2974 RMK SC2CI0 SLP082

CYXE;2010-09-01 04:00;CYXE 010400Z 18006KT 15SM SKC 11/07 A2973 RMK SLP079

CYXE;2010-09-01 05:00;CYXE 010500Z 18007KT 15SM SKC 10/06 A2972 RMK SLP074

CYXE;2010-09-01 06:00;CYXE 010600Z 19006KT 15SM SKC 10/07 A2971 RMK SLP069

CYXE;2010-09-01 07:00;CYXE 010700Z 15003KT 15SM SKC 09/07 A2969 RMK SLP065

CYXE;2010-09-01 08:00;CYXE 010800Z 18006KT 15SM SKC 09/07 A2969 RMK SLP063

CYXE;2010-09-01 09:00;CYXE 010900Z 16005KT 15SM SKC 08/07 A2967 RMK SLP058

CYXE;2010-09-01 10:00;CYXE 011000Z 17006KT 15SM SKC 09/07 A2966 RMK SLP055

CYXE;2010-09-01 11:00;CYXE 011100Z 18006KT 15SM FEW110 FEW250 08/07 A2965 RMK AC1CI1 SLP052

CYXE;2010-09-01 12:00;CYXE 011200Z 19005KT 15SM FEW091 BKN250 08/07 A2965 RMK AC1CI1 SLP050

CYXE;2010-09-01 13:00;CYXE 011300Z 19006KT 15SM FEW092 BKN250 08/06 A2965 RMK AC2CI2 SLP049

CYXE;2010-09-01 14:00;CYXE 011400Z 20007KT 15SM FEW092 SCT250 10/07 A2965 RMK AC1CI1 SLP049

CYXE;2010-09-01 15:00;CYXE 011500Z 22007KT 15SM FEW090 FEW250 12/08 A2965 RMK AC1CI1 SLP050

CYXE;2010-09-01 16:00;CYXE 011600Z 20006KT 15SM FEW090 BKN250 14/08 A2965 RMK AC1CI1 SLP051

CYXE;2010-09-01 17:00;CYXE 011700Z 20008KT 15SM FEW090 BKN250 16/08 A2965 RMK ACC1CI1 SLP050

CYXE;2010-09-01 18:00;CYXE 011800Z 20008KT 15SM FEW036 FEW090 BKN280 18/08 A2964 RMK CU1ACC1CI1 SLP047

CYXE;2010-09-01 19:00;CYXE 011900Z 23007KT 15SM FEW030CB FEW090 BKN280 19/08 A2964 RMK CB1ACC1CI2 CB DIST N SLP047

CYXE;2010-09-01 20:00;CYXE 012000Z 25007KT 15SM FEW050TCU FEW090 BKN280 20/07 A2965 RMK TCU1ACC1CI1 CB ASOCTD SLP049

CYXE;2010-09-01 21:00;CYXE 012100Z 27004KT 15SM FEW040CB BKN280 21/08 A2965 RMK CB2CI1 CB NW-N SLP048

CYXE;2010-09-01 22:00;CYXE 012200Z 33005KT 15SM SCT035CB BKN280 20/09 A2966 RMK CB3CS1 OCNL LTNG NW-N SLP053

CYXE;2010-09-01 23:00;CYXE 012300Z 36015G20KT 15SM SCT035CB SCT110 BKN280 17/09 A2968 RMK CB3AC1CS0 OCNL LTNG SW SLP058

CYXE;2010-09-02 00:00;CYXE 020000Z 36006KT 15SM SCT035TCU SCT110 BKN280 16/12 A2969 RMK TCU3AC1CS0 SLP067

CYXE;2010-09-02 01:00;CYXE 020100Z 36010KT 15SM FEW035 SCT110 BKN280 16/12 A2972 RMK CU1AC2CI1 SLP074

CYXE;2010-09-02 02:00;CYXE 020200Z 36010KT 15SM FEW035 SCT110 BKN280 14/10 A2976 RMK CU2AC2CI0 SLP087

CYXE;2010-09-02 03:00;CYXE 020300Z CCA 36011KT 15SM SCT110 BKN280 13/10 A2981 RMK AC3CI0 SLP105

CYXE;2010-09-02 04:00;CYXE 020400Z 35011KT 15SM SCT110 BKN280 12/09 A2983 RMK AC3CI0 SLP113

CYXE;2010-09-02 05:00;CYXE 020500Z 34009KT 15SM SCT280 11/10 A2986 RMK CI2 SLP122

CYXE;2010-09-02 06:00;CYXE 020600Z 34007KT 15SM FEW280 09/08 A2988 RMK CI1 SLP129

CYXE;2010-09-02 07:00;CYXE 020700Z 32008KT 15SM FEW280 09/08 A2991 RMK CI1 SLP139

CYXE;2010-09-02 08:00;CYXE 020800Z 31008KT 15SM SCT070 09/08 A2994 RMK AC2 SLP148

CYXE;2010-09-02 09:00;CYXE 020900Z 30008KT 15SM FEW070 08/07 A2996 RMK AC1 SLP157

CYXE;2010-09-02 10:00;CYXE 021000Z 31009KT 15SM FEW070 07/06 A3000 RMK AC1 SLP168

CYXE;2010-09-02 11:00;CYXE 021100Z 30008KT 15SM SKC 06/06 A3002 RMK SLP175

CYXE;2010-09-02 12:00;CYXE 021200Z 30009KT 15SM SKC 06/06 A3005 RMK SLP189

CYXE;2010-09-02 13:00;CYXE 021300Z 30008KT 15SM SKC 06/06 A3007 RMK SLP197

CYXE;2010-09-02 14:00;CYXE 021400Z 31009KT 15SM SKC 08/07 A3009 RMK SLP204

CYXE;2010-09-02 15:00;CYXE 021500Z 31008KT 15SM SKC 10/08 A3012 RMK SLP212

CYXE;2010-09-02 16:00;CYXE 021600Z 31009KT 15SM SKC 13/08 A3013 RMK SLP216

CYXE;2010-09-02 17:00;CYXE 021700Z 32009KT 15SM FEW028 15/08 A3014 RMK CU1 SLP219

CYXE;2010-09-02 18:00;CYXE 021800Z 32015KT 15SM SCT040 17/07 A3014 RMK CU3 SLP218

CYXE;2010-09-02 19:00;CYXE 021900Z 32014G20KT 15SM SCT040 17/07 A3014 RMK CU3 SLP218

CYXE;2010-09-02 20:00;CYXE 022000Z 33012KT 15SM SCT048 18/06 A3014 RMK CU4 SLP217

CYXE;2010-09-02 21:00;CYXE 022100Z 32015KT 15SM BKN052 18/05 A3014 RMK CU6 SLP217

CYXE;2010-09-02 22:00;CYXE 022200Z 34010KT 15SM BKN064 19/06 A3014 RMK CU5 SLP217

CYXE;2010-09-02 23:00;CYXE 022300Z 34010G15KT 15SM SCT064 SCT079 19/06 A3014 RMK CU3AC1 SLP218

CYXE;2010-09-03 00:00;CYXE 030000Z CCA 32010KT 15SM FEW064 18/06 A3014 RMK CU2 SLP219

CYXE;2010-09-03 01:00;CYXE 030100Z 32005KT 15SM FEW060 16/08 A3014 RMK SC1 SLP221

CYXE;2010-09-03 02:00;CYXE 030200Z 33006KT 15SM FEW060 13/08 A3015 RMK SC1 SLP222

CYXE;2010-09-03 03:00;CYXE 030300Z 28003KT 15SM SKC 12/09 A3017 RMK SLP230

CYXE;2010-09-03 04:00;CYXE 030400Z 32002KT 15SM SKC 10/08 A3017 RMK SLP232

CYXE;2010-09-03 05:00;CYXE 030500Z 00000KT 15SM SKC 09/07 A3018 RMK SLP233

CYXE;2010-09-03 06:00;CYXE 030600Z 06002KT 15SM SKC 09/09 A3018 RMK SLP230

CYXE;2010-09-03 07:00;CYXE 030700Z 21002KT 15SM SKC 08/07 A3018 RMK SLP232

CYXE;2010-09-03 08:00;CYXE 030800Z 00000KT 15SM SKC 07/06 A3019 RMK SLP235

CYXE;2010-09-03 09:00;CYXE 030900Z 20003KT 15SM SKC 07/07 A3019 RMK SLP237

CYXE;2010-09-03 10:00;CYXE 031000Z 17002KT 15SM SKC 06/06 A3020 RMK SLP238

CYXE;2010-09-03 11:00;CYXE 031100Z 19002KT 15SM SKC 06/06 A3020 RMK SLP238

CYXE;2010-09-03 12:00;CYXE 031200Z 17002KT 15SM MIFG FEW120 FEW250 05/05 A3020 RMK AC1CI0 SLP239

CYXE;2010-09-03 13:00;CYXE 031300Z 16002KT 15SM BKN080 05/05 A3019 RMK AC6 SLP238

CYXE;2010-09-03 14:00;CYXE 031400Z 18004KT 15SM BKN080 09/08 A3019 RMK AC7 SLP237

CYXE;2010-09-03 15:00;CYXE 031500Z 19003KT 15SM BKN071 10/08 A3019 RMK AC6 SLP238

CYXE;2010-09-03 16:00;CYXE 031600Z 17004KT 15SM BKN071 13/09 A3018 RMK AC6 SLP235

CYXE;2010-09-03 17:00;CYXE 031700Z 17004KT 15SM SCT081 SCT250 17/10 A3018 RMK AC3CI0 SLP233

CYXE;2010-09-03 18:00;CYXE 031800Z 17004KT 15SM FEW081 SCT250 20/11 A3016 RMK AC1CI1 SLP222

CYXE;2010-09-03 19:00;CYXE 031900Z 18006KT 15SM FEW044 SCT250 21/09 A3014 RMK CU1CI1 SLP217

CYXE;2010-09-03 20:00;CYXE 032000Z 15002KT 15SM FEW050 SCT250 22/07 A3012 RMK CU2CI1 SLP211

CYXE;2010-09-03 21:00;CYXE 032100Z 19006KT 15SM FEW050 BKN250 22/09 A3010 RMK CU2CI1 SLP204

CYXE;2010-09-03 22:00;CYXE 032200Z 19004KT 15SM FEW064 SCT250 23/09 A3008 RMK SC2CI0 SLP197

CYXE;2010-09-03 23:00;CYXE 032300Z 15004KT 15SM FEW064 SCT110 BKN250 22/08 A3005 RMK SC2AC2CI0 SLP188

CYXE;2010-09-04 00:00;CYXE 040000Z 13006KT 15SM FEW064 SCT120 BKN250 19/10 A3004 RMK SC1AC2CI1 SLP185

CYXE;2010-09-04 01:00;CYXE 040100Z 12011KT 15SM SCT110 BKN250 20/08 A3003 RMK AC3CI1 SLP180

CYXE;2010-09-04 02:00;CYXE 040200Z 13008KT 15SM FEW110 BKN250 17/09 A3002 RMK AC2CI2 SLP177

CYXE;2010-09-04 03:00;CYXE 040300Z 14008KT 15SM FEW110 BKN250 16/09 A3001 RMK AC2CI1 SLP174

CYXE;2010-09-04 04:00;CYXE 040400Z 13010G15KT 15SM FEW110 SCT250 16/08 A3000 RMK AC2CI1 SLP169

CYXE;2010-09-04 05:00;CYXE 040500Z 14011KT 15SM FEW110 SCT250 15/08 A2998 RMK AC2CI1 SLP165

CYXE;2010-09-04 06:00;CYXE 040600Z 14009KT 15SM BKN110 15/08 A2998 RMK AC6 SLP159

CYXE;2010-09-04 07:00;CYXE 040700Z 14008KT 15SM SCT110 14/08 A2996 RMK AC2 SLP153

CYXE;2010-09-04 08:00;CYXE 040800Z 13011KT 15SM FEW110 SCT250 13/08 A2994 RMK AC2CI1 SLP146

CYXE;2010-09-04 09:00;CYXE 040900Z 13012KT 15SM SKC 13/08 A2992 RMK SLP136

CYXE;2010-09-04 10:00;CYXE 041000Z 14014KT 15SM SKC 12/08 A2989 RMK SLP127

CYXE;2010-09-04 11:00;CYXE 041100Z 14013G18KT 15SM FEW250 12/07 A2987 RMK CI1 SLP120

CYXE;2010-09-04 12:00;CYXE 041200Z 13012G18KT 15SM FEW250 11/07 A2984 RMK CI1 SLP112

CYXE;2010-09-04 13:00;CYXE 041300Z 13013KT 15SM FEW270 11/08 A2982 RMK CI1 SLP107

CYXE;2010-09-04 14:00;CYXE 041400Z 13012KT 15SM BKN280 12/08 A2980 RMK CI1 SLP101

CYXE;2010-09-04 15:00;CYXE 041500Z 13010KT 15SM FEW120 BKN280 15/09 A2978 RMK AC1CI1 SLP093

CYXE;2010-09-04 16:00;CYXE 041600Z 13013KT 15SM FEW120 BKN280 17/10 A2977 RMK AC1CI2 SLP089

CYXE;2010-09-04 17:00;CYXE 041700Z 14009KT 15SM FEW120 OVC300 19/11 A2976 RMK AC1CI2 SLP085

CYXE;2010-09-04 18:00;CYXE 041800Z 13011G18KT 15SM FEW120 BKN300 21/11 A2973 RMK AC1CI2 SLP073

CYXE;2010-09-04 19:00;CYXE 041900Z 13011G17KT 15SM FEW120 BKN300 23/11 A2969 RMK AC1CI2 SLP060

CYXE;2010-09-04 20:00;CYXE 042000Z 14016KT 15SM FEW050 FEW120 BKN300 24/11 A2967 RMK CU1AC1CI2 SLP053

CYXE;2010-09-04 21:00;CYXE 042100Z 16014KT 15SM FEW120 OVC300 25/10 A2965 RMK AC1CI2 SLP045

CYXE;2010-09-04 22:00;CYXE 042200Z 18012G18KT 15SM FEW120 BKN300 26/11 A2963 RMK AC1CI2 SLP038

CYXE;2010-09-04 23:00;CYXE 042300Z 18011KT 15SM FEW120 BKN250 26/12 A2961 RMK AC1CI2 SLP032

CYXE;2010-09-05 00:00;CYXE 050000Z 16011KT 15SM FEW120 SCT300 25/11 A2960 RMK AC2CI1 SLP027

CYXE;2010-09-05 01:00;CYXE 050100Z 12009KT 15SM SCT250 23/12 A2958 RMK CI2 SLP022

CYXE;2010-09-05 02:00;CYXE 050200Z 13015KT 15SM FEW120 BKN250 22/10 A2958 RMK AC2CI2 SLP020

CYXE;2010-09-05 03:00;CYXE 050300Z 13015KT 15SM FEW120 BKN250 20/11 A2958 RMK AC2CI1 SLP023

CYXE;2010-09-05 04:00;CYXE 050400Z 14015KT 15SM FEW120 BKN250 19/11 A2958 RMK AC2CI1 SLP022

CYXE;2010-09-05 05:00;CYXE 050500Z 14012G17KT 15SM FEW120 BKN250 17/11 A2956 RMK AC2CI1 SLP017

CYXE;2010-09-05 06:00;CYXE 050600Z 14011G17KT 15SM BKN120 BKN250 16/11 A2956 RMK AC5CI1 LTGIC DIST SW SLP011

CYXE;2010-09-05 07:00;CYXE 050700Z 20005KT 15SM BKN120 OVC250 15/11 A2958 RMK AC6CI2 LTGIC DIST SW-W SLP018

CYXE;2010-09-05 08:00;CYXE 050800Z 22005KT 15SM FEW050CB OVC110 14/11 A2957 RMK CB2AC6 LTGICCG E-SW SLP016

CYXE;2010-09-05 09:00;CYXE 050900Z 27011G16KT 15SM SCT050CB OVC100 14/12 A2956 RMK CB3AC5 LTGICCCCG N-SSW SLP012

CYXE;2010-09-05 09:32;CYXE 050932Z 30006KT 12SM -SHRA BKN040CB OVC095 14/ RMK CB6AC2 LTGICCGCC

CYXE;2010-09-05 10:00;CYXE 051000Z 03006G21KT 15SM -SHRA SCT030CB BKN100 13/12 A2958 RMK CB3AC4 LTGICCG NE-E SLP019

CYXE;2010-09-05 10:21;CYXE 051021Z 12006KT 15SM FEW030CB BKN100 12/ RMK CB2AC5 LTGIC DIST NE

CYXE;2010-09-05 11:00;CYXE 051100Z 26010KT 15SM FEW030 BKN100 BKN250 12/11 A2957 RMK SC2AC3CI1 LTGIC DIST E CB ASOCTD SLP016

CYXE;2010-09-05 12:00;CYXE 051200Z 26006KT 15SM FEW030 SCT110 BKN250 10/10 A2958 RMK SC1AC2CI2 SLP020

CYXE;2010-09-05 13:00;CYXE 051300Z 19004KT 15SM SCT017 BKN100 OVC250 11/11 A2962 RMK SC3AC2CI1 SLP033

CYXE;2010-09-05 14:00;CYXE 051400Z 25005KT 15SM BKN015 OVC100 13/12 A2962 RMK SC6AC2 SLP035

CYXE;2010-09-05 14:18;CYXE 051418Z 25006KT 15SM OVC013 13/ RMK SC8

CYXE;2010-09-05 15:00;CYXE 051500Z 24006KT 15SM OVC011 13/12 A2963 RMK SC8 SLP038

CYXE;2010-09-05 16:00;CYXE 051600Z 27004KT 15SM BKN010 13/12 A2965 RMK SC7 SLP044

CYXE;2010-09-05 16:41;CYXE 051641Z 26005KT 15SM FEW012 SCT300 15/ RMK CU2CI0

CYXE;2010-09-05 17:00;CYXE 051700Z 27005KT 15SM FEW015 SCT300 15/12 A2964 RMK CU2CI0 SLP042

CYXE;2010-09-05 18:00;CYXE 051800Z 28008KT 15SM SCT015 BKN300 18/12 A2964 RMK CU3CI0 SLP042

CYXE;2010-09-05 19:00;CYXE 051900Z 30011KT 15SM OVC024 17/12 A2965 RMK SC8 SLP044

CYXE;2010-09-05 20:00;CYXE 052000Z 34008KT 15SM OVC022 16/12 A2966 RMK SC8 SLP048

CYXE;2010-09-05 21:00;CYXE 052100Z 34007KT 15SM OVC022 16/12 A2967 RMK SC8 SLP054

CYXE;2010-09-05 22:00;CYXE 052200Z 33008KT 15SM OVC022 16/12 A2967 RMK SC8 SLP056

CYXE;2010-09-05 23:00;CYXE 052300Z 33009KT 15SM OVC027 16/12 A2968 RMK SC8 SLP059

CYXE;2010-09-06 00:00;CYXE 060000Z 35009KT 15SM BKN033 17/12 A2969 RMK SC7 SLP063

CYXE;2010-09-06 01:00;CYXE 060100Z 36007KT 15SM SCT030 BKN090 BKN280 16/12 A2969 RMK SC3AC2CI0 SLP065

CYXE;2010-09-06 02:00;CYXE 060200Z 34006KT 15SM SCT030 BKN090 BKN280 14/12 A2971 RMK SC3AC2CI0 SLP070

CYXE;2010-09-06 03:00;CYXE 060300Z 35006KT 15SM BKN024 BKN090 14/12 A2972 RMK SC5AC2 SLP074

CYXE;2010-09-06 04:00;CYXE 060400Z 31005KT 15SM SCT027 BKN090 13/12 A2973 RMK SC3AC2 SLP077

CYXE;2010-09-06 05:00;CYXE 060500Z 31005KT 15SM SCT027 BKN090 13/12 A2974 RMK SC3AC2 SLP079

CYXE;2010-09-06 05:13;CYXE 060513Z 32006KT 15SM BKN013 BKN027 13/ RMK SC5SC2

CYXE;2010-09-06 06:00;CYXE 060600Z 35007KT 15SM BKN010 OVC025 13/12 A2973 RMK SC6SC2 SLP075

CYXE;2010-09-06 07:00;CYXE 060700Z 35006KT 15SM OVC010 14/13 A2971 RMK SC8 SLP069

CYXE;2010-09-06 07:03;CYXE 060703Z 36004KT 15SM OVC008 13/ RMK SF8

CYXE;2010-09-06 07:33;CYXE 060733Z 03003KT 15SM SCT008 OVC018 13/ RMK SF3SC5

CYXE;2010-09-06 07:53;CYXE 060753Z 06006KT 10SM -RA BKN006 OVC025 13/ RMK SF6SC2

CYXE;2010-09-06 08:00;CYXE 060800Z 06007KT 8SM -RA OVC005 13/13 A2970 RMK SF8 SLP066

CYXE;2010-09-06 08:12;CYXE 060812Z 07009KT 4SM RA OVC004 13/ RMK SF8

CYXE;2010-09-06 08:47;CYXE 060847Z 06007KT 6SM -RA OVC003 13/ RERA RMK SF8

CYXE;2010-09-06 09:00;CYXE 060900Z 05008KT 8SM -RA OVC002 13/13 A2970 RERA RMK SF8 SLP066

CYXE;2010-09-06 10:00;CYXE 061000Z 03009KT 15SM -RA BKN003 OVC030 13/13 A2969 RMK SF6SC2 SLP064

CYXE;2010-09-06 11:00;CYXE 061100Z 06009KT 6SM -RA BR BKN004 OVC025 13/13 A2969 RMK SF6SC2 SLP062

CYXE;2010-09-06 11:29;CYXE 061129Z 07008KT 5SM -RA BR OVC007 12/ RMK SF8

CYXE;2010-09-06 12:00;CYXE 061200Z 08011KT 5SM -RA BR OVC005 12/12 A2969 RMK SF8 /R15/ SLP064

CYXE;2010-09-06 13:00;CYXE 061300Z 09014G19KT 3SM -RA BR OVC006 11/11 A2969 RMK SF8 SLP064

CYXE;2010-09-06 13:24;CYXE 061324Z 09013G18KT 2SM -RA BR OVC006 11/ RMK SF8

CYXE;2010-09-06 13:53;CYXE 061353Z 09013KT 5SM -RA BR OVC008 11/ RMK SF8

CYXE;2010-09-06 14:00;CYXE 061400Z 08011G17KT 5SM -RA BR OVC008 11/11 A2969 RMK SF8 SLP063

CYXE;2010-09-06 15:00;CYXE 061500Z 09014KT 10SM -RA OVC010 11/10 A2969 RMK SC8 SLP066

CYXE;2010-09-06 15:33;CYXE 061533Z 09011G19KT 8SM -RA OVC008 11/ RMK SC8

CYXE;2010-09-06 16:00;CYXE 061600Z 08014KT 4SM -RA BR OVC007 10/10 A2971 RMK SC8 SLP070

CYXE;2010-09-06 16:32;CYXE 061632Z 09016KT 10SM -RA OVC010 10/ RMK SC8

CYXE;2010-09-06 17:00;CYXE 061700Z 09017KT 15SM -RA OVC010 10/09 A2971 RMK SC8 SLP072

CYXE;2010-09-06 17:19;CYXE 061719Z 09013G21KT 15SM OVC012 10/ RMK SC8

CYXE;2010-09-06 18:00;CYXE 061800Z 09013G18KT 15SM OVC009 10/10 A2972 RMK SC8 SLP075

CYXE;2010-09-06 19:00;CYXE 061900Z 09014G19KT 15SM OVC007 11/10 A2973 RMK SC8 SLP078

CYXE;2010-09-06 19:02;CYXE 061902Z 09013G19KT 8SM -DZ OVC007 11/ RMK ST8

CYXE;2010-09-06 19:39;CYXE 061939Z 09013G20KT 2SM -DZ OVC006 11/ RMK ST8

CYXE;2010-09-06 20:00;CYXE 062000Z 10015KT 3SM -DZ OVC007 11/11 A2974 RMK ST8 SLP081

CYXE;2010-09-06 21:00;CYXE 062100Z 10018KT 4SM -DZ OVC007 12/11 A2974 RMK SC8 SLP083

CYXE;2010-09-06 22:00;CYXE 062200Z 11014KT 6SM -DZ BR OVC007 12/11 A2976 RMK SC8 SLP089

CYXE;2010-09-06 23:00;CYXE 062300Z 12013G18KT 12SM OVC008 12/11 A2978 RMK SC8 SLP095

CYXE;2010-09-06 23:40;CYXE 062340Z 11015KT 12SM OVC010 11/ RMK SC8

CYXE;2010-09-07 00:00;CYXE 070000Z 11016G21KT 15SM OVC010 12/10 A2979 RMK SC8 SLP101

CYXE;2010-09-07 01:00;CYXE 070100Z 10013KT 15SM OVC010 11/10 A2980 RMK SC8 SLP104

CYXE;2010-09-07 02:00;CYXE 070200Z 10014KT 15SM OVC014 11/09 A2983 RMK SC8 SLP112

CYXE;2010-09-07 03:00;CYXE 070300Z 09010G15KT 15SM OVC014 11/10 A2985 RMK SC8 SLP120

CYXE;2010-09-07 04:00;CYXE 070400Z 09015KT 15SM OVC014 11/09 A2986 RMK SC8 SLP123

CYXE;2010-09-07 05:00;CYXE 070500Z 11014G21KT 15SM OVC012 10/09 A2987 RMK SC8 SLP127

CYXE;2010-09-07 05:18;CYXE 070518Z 10013G21KT 15SM OVC009 10/ RMK SC8

CYXE;2010-09-07 06:00;CYXE 070600Z 11014G19KT 15SM OVC008 10/09 A2987 RMK SC8 SLP129

CYXE;2010-09-07 06:44;CYXE 070644Z 11011G20KT 15SM OVC005 10/ RMK ST8

CYXE;2010-09-07 07:00;CYXE 070700Z 12015KT 15SM OVC005 10/10 A2987 RMK ST8 SLP129

CYXE;2010-09-07 07:38;CYXE 070738Z 12011KT 15SM OVC004 10/ RMK ST8

CYXE;2010-09-07 08:00;CYXE 070800Z 12010G16KT 15SM OVC004 10/10 A2987 RMK ST8 SLP128

CYXE;2010-09-07 08:49;CYXE 070849Z 12009KT 10SM -DZ OVC004 11/ RMK ST8

CYXE;2010-09-07 09:00;CYXE 070900Z 12011KT 10SM -DZ OVC004 10/10 A2988 RMK ST8 SLP132

CYXE;2010-09-07 09:38;CYXE 070938Z 13009KT 15SM OVC004 10/ RMK ST8

CYXE;2010-09-07 10:00;CYXE 071000Z 12007KT 15SM OVC004 11/11 A2989 RMK ST8 SLP134

CYXE;2010-09-07 11:00;CYXE 071100Z 13006KT 15SM BKN006 OVC016 11/11 A2990 RMK ST7SC1 SLP138

CYXE;2010-09-07 11:22;CYXE 071122Z 14006KT 10SM -DZ OVC005 11/ RMK ST8

CYXE;2010-09-07 11:34;CYXE 071134Z 14005KT 6SM -DZ BR OVC004 11/ RMK ST8

CYXE;2010-09-07 12:00;CYXE 071200Z 15005KT 6SM -DZ BR OVC003 11/11 A2991 RMK ST8 SLP142

CYXE;2010-09-07 13:00;CYXE 071300Z 26007KT 10SM -DZ OVC003 10/10 A2993 RMK ST8 SLP149

CYXE;2010-09-07 13:35;CYXE 071335Z 25007KT 15SM BKN005 OVC023 10/ RMK ST6SC2

CYXE;2010-09-07 14:00;CYXE 071400Z 24005KT 15SM BKN006 OVC023 10/10 A2995 RMK ST6SC2 SLP154

CYXE;2010-09-07 14:32;CYXE 071432Z 23006KT 15SM BKN005 OVC023 10/ RMK SF6SC2

CYXE;2010-09-07 15:00;CYXE 071500Z 23008KT 15SM BKN005 OVC023 11/11 A2996 RMK SF6SC2 SLP161

CYXE;2010-09-07 16:00;CYXE 071600Z 24009KT 15SM OVC008 11/10 A2998 RMK SC8 SLP165

CYXE;2010-09-07 16:43;CYXE 071643Z 24006KT 15SM OVC010 11/ RMK SC8

CYXE;2010-09-07 17:00;CYXE 071700Z 25008KT 15SM OVC012 12/10 A2999 RMK SC8 SLP169

CYXE;2010-09-07 18:00;CYXE 071800Z 21006KT 15SM BKN014 OVC030 13/10 A3000 RMK SC6SC2 SLP173

CYXE;2010-09-07 18:32;CYXE 071832Z 22007KT 15SM BKN017 13/ RMK SC7

CYXE;2010-09-07 19:00;CYXE 071900Z 22009KT 15SM BKN019 BKN037 13/10 A3001 RMK SC6SC1 SLP174

CYXE;2010-09-07 20:00;CYXE 072000Z 22008KT 15SM BKN021 BKN038 14/10 A3001 RMK SC6SC1 SLP174

CYXE;2010-09-07 21:00;CYXE 072100Z 27007KT 15SM BKN023 BKN036 14/10 A3001 RMK SC6SC1 SLP175

CYXE;2010-09-07 22:00;CYXE 072200Z 26008KT 15SM BKN027 15/10 A3001 RMK SC7 SLP174

CYXE;2010-09-07 23:00;CYXE 072300Z 26005KT 15SM BKN029 15/10 A3001 RMK SC6 SLP176

CYXE;2010-09-08 00:00;CYXE 080000Z 23004KT 15SM SCT030 15/09 A3002 RMK SC4 SLP177

CYXE;2010-09-08 01:00;CYXE 080100Z 23003KT 15SM SCT030 14/10 A3003 RMK SC3 SLP180

CYXE;2010-09-08 02:00;CYXE 080200Z 22002KT 15SM FEW030 SCT300 12/09 A3004 RMK SC2CI0 SLP183

CYXE;2010-09-08 03:00;CYXE 080300Z 00000KT 15SM FEW030 FEW300 12/08 A3005 RMK SC1CI0 SLP189

CYXE;2010-09-08 04:00;CYXE 080400Z 06002KT 15SM SKC 10/08 A3005 RMK SLP188

CYXE;2010-09-08 05:00;CYXE 080500Z 11006KT 15SM FEW280 08/07 A3005 RMK CI0 SLP188

CYXE;2010-09-08 06:00;CYXE 080600Z 16004KT 15SM SKC 08/08 A3005 RMK SLP191

CYXE;2010-09-08 07:00;CYXE 080700Z 15004KT 15SM SKC 08/08 A3005 RMK SLP190

CYXE;2010-09-08 08:00;CYXE 080800Z 12003KT 15SM SCT090 07/07 A3005 RMK AC2 SLP191

CYXE;2010-09-08 09:00;CYXE 080900Z 09004KT 15SM BKN090 07/07 A3005 RMK AC6 SLP189

CYXE;2010-09-08 10:00;CYXE 081000Z 08003KT 15SM BKN088 07/07 A3004 RMK AC6 SLP187

CYXE;2010-09-08 11:00;CYXE 081100Z 06005KT 15SM BKN086 08/07 A3004 RMK AC7 SLP186

CYXE;2010-09-08 12:00;CYXE 081200Z 07005KT 15SM BKN081 08/08 A3004 RMK AC7 SLP184

CYXE;2010-09-08 13:00;CYXE 081300Z 06006KT 15SM BKN078 BKN300 08/08 A3003 RMK AC5CI1 SLP182

CYXE;2010-09-08 14:00;CYXE 081400Z 07007KT 15SM FEW078 BKN300 09/09 A3003 RMK AC2CI3 SLP183

CYXE;2010-09-08 15:00;CYXE 081500Z 08006KT 15SM FEW080 BKN300 10/10 A3003 RMK AC1CI2 SLP182

CYXE;2010-09-08 16:00;CYXE 081600Z 12007KT 15SM FEW090 FEW300 14/10 A3003 RMK AC1CI1 SLP183

CYXE;2010-09-08 17:00;CYXE 081700Z 10007KT 15SM FEW090 FEW300 16/11 A3003 RMK AC1CI1 SLP181

CYXE;2010-09-08 18:00;CYXE 081800Z 10009KT 15SM FEW300 18/11 A3001 RMK CI2 SLP173

CYXE;2010-09-08 19:00;CYXE 081900Z 13008KT 15SM FEW040 BKN300 19/10 A3000 RMK CU1CI2 SLP170

CYXE;2010-09-08 20:00;CYXE 082000Z 15010G15KT 15SM FEW045 FEW100 BKN300 19/11 A3000 RMK CU2AC1CI4 SLP169

CYXE;2010-09-08 21:00;CYXE 082100Z 15010G15KT 15SM FEW045 FEW100 OVC300 19/09 A2999 RMK SC1AC1CS6 SLP168

CYXE;2010-09-08 22:00;CYXE 082200Z 12012KT 15SM FEW045 OVC140 18/09 A2998 RMK SC1AS7 SLP163

CYXE;2010-09-08 23:00;CYXE 082300Z 12011KT 15SM FEW040 OVC120 18/09 A2996 RMK SC1AC7 SLP159

CYXE;2010-09-09 00:00;CYXE 090000Z 10012KT 15SM FEW040 OVC120 17/10 A2995 RMK SC1AC7 SLP152

CYXE;2010-09-09 01:00;CYXE 090100Z 12013KT 15SM FEW040 OVC090 16/10 A2995 RMK SC1AC7 SLP152

CYXE;2010-09-09 01:33;CYXE 090133Z 12011G17KT 15SM -RA FEW040 SCT050 OVC085 16/ RMK SC2SC2AC5

CYXE;2010-09-09 02:00;CYXE 090200Z 13009G17KT 15SM -RA FEW030 SCT050 OVC085 15/10 A2995 RMK SC2SC2AC5 SLP154

CYXE;2010-09-09 03:00;CYXE 090300Z 13010KT 15SM FEW040 OVC083 15/09 A2997 RMK SC2AC6 SLP162

CYXE;2010-09-09 04:00;CYXE 090400Z 12009KT 15SM FEW040 OVC085 14/09 A2997 RMK SC2AC6 SLP162

CYXE;2010-09-09 04:25;CYXE 090425Z 12008KT 15SM -RA FEW040 OVC080 14/ RMK SC2AC6

CYXE;2010-09-09 05:00;CYXE 090500Z 10007KT 15SM -RA FEW040 OVC070 13/11 A2997 RMK SC2AC6 SLP162

CYXE;2010-09-09 06:00;CYXE 090600Z 08009KT 15SM -RA OVC035 12/11 A2995 RMK SC8 SLP150

CYXE;2010-09-09 07:00;CYXE 090700Z 09009KT 15SM BKN035 OVC072 12/10 A2993 RMK SC5AC3 SLP144

CYXE;2010-09-09 08:00;CYXE 090800Z 12013KT 15SM OVC072 13/10 A2993 RMK AC8 SLP144

CYXE;2010-09-09 08:40;CYXE 090840Z 13015KT 15SM -RA OVC085 13/ RMK AC8

CYXE;2010-09-09 09:00;CYXE 090900Z 12013KT 15SM -RA OVC071 12/10 A2989 RMK AC8 SLP130

CYXE;2010-09-09 10:00;CYXE 091000Z 11012KT 15SM -RA OVC055 12/09 A2987 RMK SC8 SLP124

CYXE;2010-09-09 10:27;CYXE 091027Z 12010G16KT 15SM OVC036 12/ RMK SC8

CYXE;2010-09-09 10:48;CYXE 091048Z 12014G19KT 15SM -DZ OVC034 12/ RMK ST8

CYXE;2010-09-09 11:00;CYXE 091100Z 11015KT 10SM -DZ OVC034 12/10 A2986 RMK ST8 SLP121

CYXE;2010-09-09 12:00;CYXE 091200Z 10014KT 15SM -DZ OVC032 11/10 A2984 RMK SF8 SLP116

CYXE;2010-09-09 12:35;CYXE 091235Z 10013KT 6SM -RA BR OVC034 11/ RMK SC8

CYXE;2010-09-09 13:00;CYXE 091300Z 10011KT 9SM -DZ OVC034 11/10 A2983 RMK SF8 BR SLP112

CYXE;2010-09-09 13:27;CYXE 091327Z 09011KT 3SM -RA BR OVC030 10/ RMK SC8

CYXE;2010-09-09 13:53;CYXE 091353Z 10010KT 2SM -RA BR OVC025 10/ RMK SC8

CYXE;2010-09-09 14:00;CYXE 091400Z 10011KT 1 1/2SM -RA BR BKN012 OVC025 10/10 A2983 RMK SF3SC5 SLP112

CYXE;2010-09-09 14:21;CYXE 091421Z 09007KT 2 1/2SM -RA BR OVC012 10/ RMK SF8

CYXE;2010-09-09 14:47;CYXE 091447Z 06005KT 2 1/2SM -RA BR OVC017 10/ RMK SF8

CYXE;2010-09-09 15:00;CYXE 091500Z 06007KT 1 1/2SM -RA BR OVC015 10/10 A2982 RMK SF8 SLP109

CYXE;2010-09-09 15:16;CYXE 091516Z 07008KT 1SM R09/P6000FT/D RA BR OVC013 10/ RMK SF8

CYXE;2010-09-09 15:51;CYXE 091551Z 07010KT 1 1/2SM -RA BR OVC011 10/ RERA RMK SF8

CYXE;2010-09-09 16:00;CYXE 091600Z 07011KT 1 1/2SM -RA BR SCT005 OVC011 10/10 A2979 RERA RMK SF2SC6 /R10/ SLP099

CYXE;2010-09-09 16:11;CYXE 091611Z 07012KT 1 1/2SM -RA BR BKN007 OVC011 10/ RMK SF6SC2

CYXE;2010-09-09 16:19;CYXE 091619Z 08013KT 1SM R09/P6000FT/N -RA BR BKN004 OVC011 10/ RMK FG1SF6SC1

CYXE;2010-09-09 17:00;CYXE 091700Z 09012KT 2SM -RA BR BKN004 OVC011 10/10 A2977 RMK ST5SC3 SLP094

CYXE;2010-09-09 17:22;CYXE 091722Z 09012KT 3SM -RA BR BKN004 OVC011 10/ RMK ST5SC3

CYXE;2010-09-09 17:30;CYXE 091730Z 09012KT 5SM BR BKN005 OVC011 10/ RMK ST5SC3

CYXE;2010-09-09 17:51;CYXE 091751Z 08015KT 5SM -RA BR BKN005 OVC011 10/ RMK ST6SC2

CYXE;2010-09-09 18:00;CYXE 091800Z CCA 08018KT 3SM RA BR BKN005 OVC010 10/10 A2972 RMK ST6SC2 /R17/ SLP075

CYXE;2010-09-09 19:00;CYXE 091900Z 10008KT 3SM -RA BR OVC006 10/10 A2974 RERA RMK SC8 SLP082

CYXE;2010-09-09 20:00;CYXE 092000Z 08010KT 5SM -RA BR OVC006 10/10 A2971 RMK SC8 SLP074

CYXE;2010-09-09 21:00;CYXE 092100Z 08007KT 4SM -RA BR OVC006 11/11 A2969 RMK SC8 SLP067

CYXE;2010-09-09 21:27;CYXE 092127Z 09008KT 5SM BR OVC005 11/ RMK SC8

CYXE;2010-09-09 22:00;CYXE 092200Z 08007KT 3SM -DZ BR OVC005 11/11 A2967 RMK SF8 SLP060

CYXE;2010-09-09 22:16;CYXE 092216Z 08006KT 2SM -DZ BR OVC003 11/ RMK SF8

CYXE;2010-09-09 22:47;CYXE 092247Z 09003KT 1SM R09/6000FT/N -DZ BR OVC002 12/ RMK SF8

CYXE;2010-09-09 23:00;CYXE 092300Z 11004KT 1SM R09/6000FT/U -DZ BR OVC003 12/12 A2968 RMK SF8 SLP061

CYXE;2010-09-09 23:10;CYXE 092310Z 12005KT 1 1/2SM -DZ BR OVC003 12/ RMK SF8

CYXE;2010-09-09 23:35;CYXE 092335Z 13005KT 2SM -DZ BR SCT003 OVC006 12/ RMK SF3SC5

CYXE;2010-09-10 00:00;CYXE 100000Z 12005KT 2SM -DZ BR SCT003 OVC005 12/12 A2967 RMK SF3SC5 SLP059

CYXE;2010-09-10 00:31;CYXE 100031Z 13006KT 6SM -DZ BR FEW003 BKN007 OVC012 12/ RMK SF2SC2SC3

CYXE;2010-09-10 01:00;CYXE 100100Z 11005KT 4SM -DZ BR BKN004 OVC012 12/12 A2965 RMK SF6SC2 SLP054

CYXE;2010-09-10 02:00;CYXE 100200Z 09006KT 6SM -DZ BR BKN003 OVC008 12/12 A2965 RMK SF6SC2 SLP053

CYXE;2010-09-10 03:00;CYXE 100300Z 06007KT 3SM -DZ BR BKN003 OVC006 11/11 A2963 RMK SF6SC2 SLP046

CYXE;2010-09-10 03:13;CYXE 100313Z 07007KT 2SM -DZ BR OVC002 11/ RMK SF8

CYXE;2010-09-10 03:33;CYXE 100333Z 07006KT 1 1/2SM -DZ BR OVC002 11/ RMK SF8

CYXE;2010-09-10 04:00;CYXE 100400Z 06007KT 10SM OVC003 11/11 A2963 RMK SF8 BR SLP046

CYXE;2010-09-10 05:00;CYXE 100500Z 05007KT 10SM OVC004 11/11 A2962 RMK SF8 BR SLP042

CYXE;2010-09-10 05:38;CYXE 100538Z 05006KT 5SM -DZ BR OVC002 11/ RMK ST8

CYXE;2010-09-10 06:00;CYXE 100600Z 05008KT 3SM -DZ BR OVC002 11/11 A2961 RMK ST8 SLP038

CYXE;2010-09-10 07:00;CYXE 100700Z 04009KT 6SM -DZ BR BKN004 OVC045 11/11 A2959 RMK ST6SC2 SLP032

CYXE;2010-09-10 08:00;CYXE 100800Z 02012KT 8SM -DZ BKN004 OVC021 10/10 A2956 RMK ST6SC2 BR SLP023

CYXE;2010-09-10 08:32;CYXE 100832Z 03012KT 10SM BKN004 OVC011 10/ RMK ST6SC2 BR

CYXE;2010-09-10 09:00;CYXE 100900Z 03012KT 10SM BKN004 OVC011 10/10 A2955 RMK ST6SC2 BR SLP017

CYXE;2010-09-10 09:05;CYXE 100905Z 02010KT 6SM -RA OVC004 10/ RMK SC8

CYXE;2010-09-10 10:00;CYXE 101000Z 02011KT 4SM -RA OVC004 10/10 A2954 RMK SC8 SLP014

CYXE;2010-09-10 11:00;CYXE 101100Z 36009KT 4SM -RA BKN005 OVC024 09/09 A2954 RMK SC6SC2 SLP014

CYXE;2010-09-10 12:00;CYXE 101200Z 35010KT 3SM -RA OVC005 09/09 A2954 RMK SC8 /R12/ SLP014

CYXE;2010-09-10 13:00;CYXE 101300Z 34014KT 4SM -RA OVC015 09/09 A2953 RMK SC8 SLP011

CYXE;2010-09-10 13:03;CYXE 101303Z 34012KT 4SM RA BR OVC006 09/ RMK SC8

CYXE;2010-09-10 14:00;CYXE 101400Z 34014KT 4SM -RA BR OVC006 09/09 A2952 RERA RMK SF8 SLP007

CYXE;2010-09-10 15:00;CYXE 101500Z 34015KT 4SM -RA BR OVC006 09/09 A2952 RMK SF8 /R11/ SLP008

CYXE;2010-09-10 16:00;CYXE 101600Z 34014KT 4SM -RA BR OVC007 09/09 A2952 RMK SF8 SLP009

CYXE;2010-09-10 17:00;CYXE 101700Z 32013G18KT 4SM -RA BR OVC007 09/09 A2953 RERA RMK SF8 SLP012

CYXE;2010-09-10 18:00;CYXE 101800Z 32015KT 4SM RA BR OVC008 09/09 A2955 RMK SC8 /R21/ SLP019

CYXE;2010-09-10 19:00;CYXE 101900Z 32016KT 4SM RA BR BKN008 OVC024 10/10 A2956 RMK SF6SC2 SLP023

CYXE;2010-09-10 20:00;CYXE 102000Z 32016G21KT 6SM -RA BR OVC008 10/09 A2958 RERA RMK SF8 SLP029

CYXE;2010-09-10 20:17;CYXE 102017Z 32018G24KT 6SM -RA BR OVC010 10/ RMK SF8

CYXE;2010-09-10 21:00;CYXE 102100Z 32014G20KT 6SM -RA BR OVC012 10/09 A2961 RMK SF8 SLP040

CYXE;2010-09-10 22:00;CYXE 102200Z 32013G18KT 10SM -RA SCT007 OVC014 10/09 A2963 RMK SF3SC5 SLP046

CYXE;2010-09-10 23:00;CYXE 102300Z 32013KT 12SM -RA FEW007 SCT014 BKN026 OVC070 10/09 A2964 RMK SF2SC2SC2AC3 SLP050

CYXE;2010-09-10 23:15;CYXE 102315Z 32011G17KT 15SM BKN009 OVC030 10/ RMK SF6SC2

CYXE;2010-09-10 23:27;CYXE 102327Z 31012G17KT 3SM -DZ BR OVC008 10/ RMK SF8

CYXE;2010-09-10 23:43;CYXE 102343Z 32013KT 10SM -DZ BKN010 OVC050 10/ RMK SF5SC3

CYXE;2010-09-11 00:00;CYXE 110000Z 32016KT 10SM -DZ BKN012 OVC050 10/09 A2965 RMK SF5SC3 SLP055

CYXE;2010-09-11 00:10;CYXE 110010Z 32012KT 15SM FEW012 BKN016 BKN050 BKN290 10/ RMK SF2SC3SC2CI0

CYXE;2010-09-11 00:40;CYXE 110040Z 31011KT 8SM -RA BKN012 OVC050 10/ RMK SC6SC2 BR

CYXE;2010-09-11 01:00;CYXE 110100Z 32011KT 15SM SCT015 BKN065 BKN270 09/09 A2967 RMK SC4SC1CI1 SLP060

CYXE;2010-09-11 01:54;CYXE 110154Z 32012KT 15SM -DZ OVC025 09/ RMK SC8

CYXE;2010-09-11 02:00;CYXE 110200Z 31010KT 15SM -DZ BKN025 OVC050 09/08 A2968 RMK SC6SC2 SLP065

CYXE;2010-09-11 02:30;CYXE 110230Z 31010KT 15SM BKN025 OVC050 09/ RMK SC6SC2

CYXE;2010-09-11 03:00;CYXE 110300Z 31009KT 15SM SCT012 OVC055 09/09 A2970 RMK SC3SC4 SLP072

CYXE;2010-09-11 04:00;CYXE 110400Z 30005KT 15SM FEW010 OVC025 09/09 A2971 RMK SF2SC6 SLP076

CYXE;2010-09-11 05:00;CYXE 110500Z 28007KT 15SM OVC025 09/08 A2972 RMK SC8 SLP079

CYXE;2010-09-11 06:00;CYXE 110600Z 29009KT 15SM SCT038 OVC056 09/08 A2972 RMK ST3SC5 SLP079

CYXE;2010-09-11 07:00;CYXE 110700Z 26006KT 15SM BKN056 08/08 A2972 RMK SC6 SLP080

CYXE;2010-09-11 08:00;CYXE 110800Z 27007KT 15SM SCT052 07/07 A2972 RMK SC3 SLP080

CYXE;2010-09-11 09:00;CYXE 110900Z 27007KT 15SM SCT063 07/07 A2972 RMK SC4 SLP078

CYXE;2010-09-11 10:00;CYXE 111000Z 26009KT 15SM BKN061 08/07 A2973 RMK SC6 SLP081

CYXE;2010-09-11 11:00;CYXE 111100Z 27007KT 15SM OVC057 09/08 A2972 RMK SC8 SLP080

CYXE;2010-09-11 12:00;CYXE 111200Z 27008KT 15SM OVC055 09/08 A2973 RMK SC8 SLP081

CYXE;2010-09-11 13:00;CYXE 111300Z 27008KT 15SM SCT025 BKN053 09/08 A2974 RMK ST3SC3 SLP083

CYXE;2010-09-11 14:00;CYXE 111400Z 27009KT 15SM BKN018 BKN047 08/08 A2974 RMK SC5SC2 SLP086

CYXE;2010-09-11 15:00;CYXE 111500Z 31010KT 15SM OVC012 10/09 A2975 RMK SC7 SLP090

CYXE;2010-09-11 16:00;CYXE 111600Z 31016G21KT 15SM BKN014 BKN029 10/07 A2976 RMK SC5SC1 SLP092

CYXE;2010-09-11 17:00;CYXE 111700Z 31015KT 15SM FEW014 BKN025 BKN300 10/06 A2977 RMK SC1SC6CI0 SLP096

CYXE;2010-09-11 18:00;CYXE 111800Z 31014G20KT 15SM BKN029 BKN300 11/06 A2979 RMK SC6CI0 SLP101

CYXE;2010-09-11 19:00;CYXE 111900Z 31014G20KT 15SM FEW033 SCT300 12/06 A2979 RMK SC2CI0 SLP102

CYXE;2010-09-11 20:00;CYXE 112000Z 32015KT 15SM FEW030 BKN300 14/06 A2979 RMK SC2CI1 SLP103

CYXE;2010-09-11 21:00;CYXE 112100Z 31010G18KT 15SM FEW038 OVC300 15/06 A2980 RMK SC2CI2 SLP103

CYXE;2010-09-11 22:00;CYXE 112200Z 32009G15KT 15SM FEW044 BKN300 14/07 A2981 RMK SC2CI2 SLP107

CYXE;2010-09-11 23:00;CYXE 112300Z 32008KT 15SM FEW042 FEW100 BKN300 16/08 A2982 RMK SC2AC1CI2 SLP109

CYXE;2010-09-12 00:00;CYXE 120000Z 32009KT 15SM FEW045 FEW100 BKN300 14/07 A2982 RMK SC2AC1CI1 SLP109

CYXE;2010-09-12 01:00;CYXE 120100Z 31006KT 15SM SCT055 SCT100 BKN300 12/07 A2982 RMK SC3AC1CI1 SLP111

CYXE;2010-09-12 02:00;CYXE 120200Z 27006KT 15SM FEW055 FEW100 SCT300 09/07 A2983 RMK SC1AC1CI1 SLP114

CYXE;2010-09-12 03:00;CYXE 120300Z 27007KT 15SM BKN067 09/08 A2985 RMK AC6 SLP122

CYXE;2010-09-12 04:00;CYXE 120400Z 28006KT 15SM FEW067 09/07 A2985 RMK AC2 SLP123

CYXE;2010-09-12 05:00;CYXE 120500Z 27006KT 15SM FEW070 08/07 A2986 RMK AC2 SLP127

CYXE;2010-09-12 06:00;CYXE 120600Z 27007KT 15SM FEW070 08/08 A2987 RMK AC2 SLP128

CYXE;2010-09-12 07:00;CYXE 120700Z 27007KT 15SM FEW070 08/08 A2987 RMK AC2 SLP131

CYXE;2010-09-12 08:00;CYXE 120800Z 27006KT 15SM SKC 07/07 A2988 RMK SLP133

CYXE;2010-09-12 09:00;CYXE 120900Z 27007KT 15SM SKC 07/07 A2989 RMK SLP136

CYXE;2010-09-12 10:00;CYXE 121000Z 29005KT 15SM SKC 06/06 A2990 RMK SLP138

CYXE;2010-09-12 11:00;CYXE 121100Z 27006KT 15SM SKC 06/06 A2992 RMK SLP144

CYXE;2010-09-12 12:00;CYXE 121200Z 26006KT 15SM SKC 05/05 A2994 RMK SLP152

CYXE;2010-09-12 13:00;CYXE 121300Z 29007KT 15SM FEW065 05/05 A2995 RMK AC1 SLP155

CYXE;2010-09-12 14:00;CYXE 121400Z 29009KT 15SM FEW070 07/07 A2996 RMK AC1 SLP161

CYXE;2010-09-12 15:00;CYXE 121500Z 31009KT 15SM FEW015 09/08 A2998 RMK SC1 SLP169

CYXE;2010-09-12 16:00;CYXE 121600Z 30010KT 15SM FEW012 11/08 A3000 RMK CF1 SLP174

CYXE;2010-09-12 17:00;CYXE 121700Z 30010KT 15SM FEW015 13/09 A3001 RMK CF1 SLP177

CYXE;2010-09-12 18:00;CYXE 121800Z 31010G15KT 15SM FEW020 14/09 A3001 RMK CU2 SLP177

CYXE;2010-09-12 19:00;CYXE 121900Z 32012G17KT 15SM FEW030 15/08 A3001 RMK SC2 SLP175

CYXE;2010-09-12 20:00;CYXE 122000Z 32013KT 15SM SCT036 16/08 A3001 RMK SC4 SLP176

CYXE;2010-09-12 21:00;CYXE 122100Z 31011KT 15SM SCT045 16/08 A3002 RMK CU4 SLP178

CYXE;2010-09-12 22:00;CYXE 122200Z 32015KT 15SM SCT045 SCT280 16/06 A3002 RMK CU3CI1 SLP180

CYXE;2010-09-12 23:00;CYXE 122300Z 32013KT 15SM FEW045 BKN280 16/07 A3003 RMK CU1CI1 SLP182

CYXE;2010-09-13 00:00;CYXE 130000Z 36010KT 15SM FEW045 SCT280 14/06 A3004 RMK CU1CI1 SLP188

CYXE;2010-09-13 01:00;CYXE 130100Z 03006KT 15SM FEW100 BKN280 11/07 A3005 RMK AC1CI4 SLP191

CYXE;2010-09-13 02:00;CYXE 130200Z 05007KT 15SM FEW100 BKN280 09/06 A3006 RMK AC1CI4 SLP195

CYXE;2010-09-13 03:00;CYXE 130300Z 05006KT 15SM BKN120 BKN280 08/06 A3009 RMK AC5CI2 SLP205

CYXE;2010-09-13 04:00;CYXE 130400Z 05006KT 15SM BKN110 BKN280 09/06 A3009 RMK AC6CI1 SLP208

CYXE;2010-09-13 05:00;CYXE 130500Z 06006KT 15SM OVC095 08/06 A3010 RMK AC7 SLP211

CYXE;2010-09-13 06:00;CYXE 130600Z 05005KT 15SM BKN084 08/06 A3011 RMK AC6 SLP211

CYXE;2010-09-13 07:00;CYXE 130700Z 04004KT 15SM BKN074 08/06 A3013 RMK AC6 SLP217

CYXE;2010-09-13 08:00;CYXE 130800Z 05006KT 15SM SCT074 06/05 A3014 RMK AC4 SLP218

CYXE;2010-09-13 09:00;CYXE 130900Z 04005KT 15SM BKN066 07/06 A3014 RMK AC6 SLP222

CYXE;2010-09-13 10:00;CYXE 131000Z CCA 05004KT 15SM BKN066 07/06 A3016 RMK AC6 SLP227

CYXE;2010-09-13 11:00;CYXE 131100Z 06005KT 15SM BKN066 07/05 A3017 RMK AC6 SLP229

CYXE;2010-09-13 12:00;CYXE 131200Z 05005KT 15SM SCT068 BKN160 BKN300 06/05 A3017 RMK AC3AC2CI0 SLP231

CYXE;2010-09-13 13:00;CYXE 131300Z 05005KT 15SM FEW080 BKN160 BKN300 05/04 A3018 RMK AC2AC3CI0 SLP236

CYXE;2010-09-13 14:00;CYXE 131400Z 05005KT 15SM SCT080 BKN140 06/05 A3019 RMK AC3AC2 SLP239

CYXE;2010-09-13 15:00;CYXE 131500Z 06008KT 15SM FEW080 BKN140 07/05 A3020 RMK AC2AC3 SLP245

CYXE;2010-09-13 16:00;CYXE 131600Z 05006KT 15SM FEW083 BKN120 09/06 A3021 RMK AC2AC4 SLP247

CYXE;2010-09-13 17:00;CYXE 131700Z 07005KT 15SM FEW016 SCT080 BKN120 10/06 A3021 RMK SC2AC2AC3 SLP248

CYXE;2010-09-13 18:00;CYXE 131800Z 05007KT 15SM SCT023 BKN080 BKN120 11/06 A3021 RMK SC3AC2AC2 SLP245

CYXE;2010-09-13 19:00;CYXE 131900Z 05006KT 15SM SCT025 BKN080 BKN120 11/05 A3020 RMK SC4AC2AC2 SLP242

CYXE;2010-09-13 20:00;CYXE 132000Z 03005KT 15SM BKN029 BKN080 BKN120 11/05 A3020 RMK SC5AC2AC1 SLP244

CYXE;2010-09-13 21:00;CYXE 132100Z 03004KT 15SM BKN032 BKN080 BKN120 12/05 A3020 RMK SC5AC2AC1 SLP243

CYXE;2010-09-13 22:00;CYXE 132200Z 04004KT 15SM BKN037 BKN120 12/05 A3020 RMK CU5AC2 SLP243

CYXE;2010-09-13 23:00;CYXE 132300Z 05004KT 15SM SCT037 BKN120 12/04 A3020 RMK CU4AC2 SLP243

CYXE;2010-09-14 00:00;CYXE 140000Z 03004KT 15SM SCT041 BKN120 11/05 A3020 RMK SC4AC3 SLP245

CYXE;2010-09-14 01:00;CYXE 140100Z 36002KT 15SM SCT045 BKN100 11/06 A3021 RMK SC3AC3 SLP246

CYXE;2010-09-14 02:00;CYXE 140200Z 01006KT 15SM SCT045 BKN100 09/06 A3022 RMK SC3AC3 SLP249

CYXE;2010-09-14 03:00;CYXE 140300Z 04004KT 15SM BKN100 08/06 A3023 RMK AC3 SLP255

CYXE;2010-09-14 04:00;CYXE 140400Z 03003KT 15SM FEW052 06/05 A3023 RMK SC1 SLP257

CYXE;2010-09-14 05:00;CYXE 140500Z 09003KT 15SM FEW050 06/05 A3024 RMK SC1 SLP258

CYXE;2010-09-14 06:00;CYXE 140600Z 06002KT 15SM FEW050 05/05 A3024 RMK SC1 SLP259

CYXE;2010-09-14 07:00;CYXE 140700Z 06004KT 15SM SKC 04/04 A3024 RMK SLP260

CYXE;2010-09-14 08:00;CYXE 140800Z 02003KT 15SM SKC 03/03 A3025 RMK SLP262

CYXE;2010-09-14 09:00;CYXE 140900Z 01002KT 15SM SKC 04/03 A3025 RMK SLP263

CYXE;2010-09-14 10:00;CYXE 141000Z 36003KT 15SM SKC 03/03 A3026 RMK SLP265

CYXE;2010-09-14 11:00;CYXE 141100Z 35004KT 15SM FEW120 02/02 A3026 RMK AC2 SLP265

CYXE;2010-09-14 12:00;CYXE 141200Z 04002KT 15SM FEW120 BKN300 03/03 A3026 RMK AC2CI1 SLP265

CYXE;2010-09-14 13:00;CYXE 141300Z 02003KT 15SM BKN120 03/03 A3025 RMK AC6 SLP264

CYXE;2010-09-14 14:00;CYXE 141400Z 08004KT 15SM BKN120 05/05 A3025 RMK AC6 SLP263

CYXE;2010-09-14 15:00;CYXE 141500Z 07004KT 15SM BKN120 BKN300 06/05 A3024 RMK AC6CI1 SLP260

CYXE;2010-09-14 16:00;CYXE 141600Z 05006KT 15SM BKN120 OVC300 07/06 A3025 RMK AC6CI2 SLP262

CYXE;2010-09-14 17:00;CYXE 141700Z 07005KT 15SM FEW040 BKN120 OVC300 09/07 A3024 RMK SC1AC6CI1 SLP260

CYXE;2010-09-14 18:00;CYXE 141800Z 06005KT 15SM FEW040 BKN120 OVC300 10/06 A3023 RMK SC1AC6CI1 SLP256

CYXE;2010-09-14 19:00;CYXE 141900Z 10003KT 15SM FEW025 BKN120 OVC300 11/05 A3022 RMK SC2AC4CI2 SH DIST S SLP253

CYXE;2010-09-14 20:00;CYXE 142000Z 05004KT 15SM VCSH SCT040 OVC120 12/06 A3020 RMK SC4AC4 SLP247

CYXE;2010-09-14 21:00;CYXE 142100Z 07002KT 15SM VCSH BKN035 OVC120 11/05 A3019 RMK SC6AC2 SLP242

CYXE;2010-09-14 22:00;CYXE 142200Z 00000KT 15SM SCT054 OVC120 12/05 A3018 RMK SC4AS4 SLP238

CYXE;2010-09-14 23:00;CYXE 142300Z 04002KT 15SM SCT039 OVC083 12/05 A3017 RMK SC4AS4 SLP235

CYXE;2010-09-15 00:00;CYXE 150000Z 22004KT 15SM BKN039 BKN085 11/06 A3016 RMK SC5AC2 SLP233

CYXE;2010-09-15 01:00;CYXE 150100Z 27007KT 15SM BKN037 BKN085 10/06 A3017 RMK SC6AC2 SLP235

CYXE;2010-09-15 02:00;CYXE 150200Z 27004KT 15SM BKN037 BKN085 09/07 A3017 RMK SC6AC2 SLP235

CYXE;2010-09-15 03:00;CYXE 150300Z 29004KT 15SM BKN041 OVC070 08/07 A3017 RMK SC5AC3 SLP235

CYXE;2010-09-15 04:00;CYXE 150400Z 29004KT 15SM OVC066 08/07 A3017 RMK AC8 SLP236

CYXE;2010-09-15 05:00;CYXE 150500Z 26003KT 15SM OVC066 08/07 A3017 RMK AC8 SLP234

CYXE;2010-09-15 06:00;CYXE 150600Z 28002KT 15SM BKN066 07/07 A3017 RMK AC5 SLP233

CYXE;2010-09-15 07:00;CYXE 150700Z 24003KT 15SM BKN066 06/06 A3017 RMK AC6 SLP233

CYXE;2010-09-15 08:00;CYXE 150800Z 33002KT 15SM R09/4000VP6000FT/D FEW064 05/05 A3016 RMK SC2 SLP230

CYXE;2010-09-15 09:00;CYXE 150900Z 35003KT 15SM FEW060 04/04 A3015 RMK SC2 SLP227

CYXE;2010-09-15 10:00;CYXE 151000Z 00000KT 15SM R09/4000VP6000FT/D MIFG FEW060 04/04 A3014 RMK SC2 SLP224

CYXE;2010-09-15 11:00;CYXE 151100Z 00000KT 15SM MIFG SCT065 03/03 A3014 RMK SC2 SLP224

CYXE;2010-09-15 12:00;CYXE 151200Z 00000KT 15SM MIFG BKN065 04/04 A3013 RMK SC6 SLP222

CYXE;2010-09-15 13:00;CYXE 151300Z 09003KT 15SM BKN065 05/05 A3013 RMK SC6 SLP222

CYXE;2010-09-15 14:00;CYXE 151400Z 00000KT 15SM FEW040 BKN065 06/06 A3013 RMK SF2SC5 SLP220

CYXE;2010-09-15 15:00;CYXE 151500Z 18002KT 15SM FEW040 OVC066 08/07 A3012 RMK SF2AC6 SLP218

CYXE;2010-09-15 16:00;CYXE 151600Z 16005KT 15SM SCT040 OVC063 09/07 A3012 RMK SC3SC5 SLP218

CYXE;2010-09-15 16:37;CYXE 151637Z 20003KT 15SM -SHRA BKN046 OVC068 10/ RMK SC6AC2

CYXE;2010-09-15 17:00;CYXE 151700Z 19004KT 15SM -SHRA FEW022 BKN042 OVC068 11/07 A3011 RMK CU1SC6AC2 SLP215

CYXE;2010-09-15 17:08;CYXE 151708Z 18004KT 15SM FEW022 BKN042 OVC075 11/ RMK CU1SC6AC1

CYXE;2010-09-15 18:00;CYXE 151800Z 18004KT 15SM BKN028 OVC075 12/07 A3009 RMK SC6AC2 SLP206

CYXE;2010-09-15 19:00;CYXE 151900Z 20007KT 15SM BKN031 OVC042 12/06 A3008 RMK SC6SC2 SLP201

CYXE;2010-09-15 20:00;CYXE 152000Z 20007KT 15SM BKN031 OVC042 12/06 A3006 RMK SC7SC1 SLP195

CYXE;2010-09-15 21:00;CYXE 152100Z 23009KT 15SM OVC029 13/07 A3004 RMK SC8 OBS TAKEN +05 SLP188

CYXE;2010-09-15 22:00;CYXE 152200Z 24006KT 15SM BKN029 13/07 A3003 RMK SC7 SLP185

CYXE;2010-09-15 23:00;CYXE 152300Z 24006KT 15SM FEW029 OVC048 12/07 A3001 RMK SC2SC6 SLP180

CYXE;2010-09-16 00:00;CYXE 160000Z 25004KT 15SM FEW030 BKN050 12/07 A3000 RMK SC2SC6 SLP175

CYXE;2010-09-16 01:00;CYXE 160100Z 21002KT 15SM BKN052 BKN280 11/08 A2998 RMK SC6CI0 SLP169

CYXE;2010-09-16 02:00;CYXE 160200Z 19005KT 15SM BKN025 OVC048 11/08 A2996 RMK SC5SC3 SLP164

CYXE;2010-09-16 03:00;CYXE 160300Z 19004KT 15SM SCT025 OVC048 11/09 A2996 RMK SC4SC4 SLP161

CYXE;2010-09-16 04:00;CYXE 160400Z 18007KT 15SM SCT025 BKN048 OVC080 11/08 A2994 RMK SC3SC2AC2 SLP154

CYXE;2010-09-16 05:00;CYXE 160500Z 20007KT 15SM SCT045 OVC080 10/08 A2993 RMK SC3AC5 SLP152

CYXE;2010-09-16 06:00;CYXE 160600Z 20005KT 15SM SCT050 OVC090 10/08 A2992 RMK SC3AC5 SLP147

CYXE;2010-09-16 06:43;CYXE 160643Z 23004KT 15SM -SHRA BKN050 OVC090 10/ RMK SC6AC2

CYXE;2010-09-16 07:00;CYXE 160700Z 26004KT 15SM -SHRA OVC045 09/09 A2992 RMK SC8 SLP146

CYXE;2010-09-16 08:00;CYXE 160800Z 27004KT 15SM -SHRA OVC038 09/09 A2991 RMK SC8 SLP141

CYXE;2010-09-16 09:00;CYXE 160900Z 27003KT 12SM -SHRA OVC040 09/09 A2990 RMK SC8 SLP137

CYXE;2010-09-16 10:00;CYXE 161000Z 32005KT 10SM -SHRA OVC042 09/09 A2989 RMK SC8 SLP134

CYXE;2010-09-16 11:00;CYXE 161100Z 29003KT 10SM -SHRA OVC042 09/09 A2987 RMK SC8 SLP130

CYXE;2010-09-16 11:44;CYXE 161144Z 31002KT 15SM BKN050 08/ RMK SC7

CYXE;2010-09-16 12:00;CYXE 161200Z 31004KT 15SM BKN050 08/08 A2986 RMK SC7 SLP124

CYXE;2010-09-16 13:00;CYXE 161300Z 33006KT 15SM SCT050 BKN120 08/08 A2986 RMK SC3AC4 SLP125

CYXE;2010-09-16 14:00;CYXE 161400Z 36010KT 15SM SCT090 OVC140 08/07 A2987 RMK AC3AC4 SLP128

CYXE;2010-09-16 15:00;CYXE 161500Z 01009KT 15SM SCT065 OVC140 07/07 A2987 RMK SC4AS4 SLP132

CYXE;2010-09-16 16:00;CYXE 161600Z 01009KT 15SM SCT011 OVC062 08/06 A2987 RMK SF4SC4 SLP132

CYXE;2010-09-16 16:33;CYXE 161633Z 35008KT 15SM BKN014 OVC062 08/ RMK SC6SC2

CYXE;2010-09-16 17:00;CYXE 161700Z 34007KT 15SM SCT016 OVC073 08/06 A2988 RMK SC4AC4 SLP135

CYXE;2010-09-16 18:00;CYXE 161800Z 36008KT 15SM BKN016 OVC031 07/05 A2988 RMK SC6SC2 SLP136

CYXE;2010-09-16 19:00;CYXE 161900Z 34008KT 15SM SCT014 OVC031 08/05 A2989 RMK SC4SC4 SLP139

CYXE;2010-09-16 20:00;CYXE 162000Z 33012G17KT 15SM SCT019 BKN030 08/04 A2990 RMK SF4SC3 SLP141

CYXE;2010-09-16 21:00;CYXE 162100Z 31013KT 15SM FEW032 SCT120 09/02 A2989 RMK CU2AC1 SLP138

CYXE;2010-09-16 22:00;CYXE 162200Z 29015KT 15SM FEW039 SCT280 10/02 A2990 RMK CU2CI2 SLP140

CYXE;2010-09-16 23:00;CYXE 162300Z 31017G24KT 15SM FEW039 SCT280 09/M01 A2992 RMK SC2CI2 SLP146

CYXE;2010-09-17 00:00;CYXE 170000Z 32018KT 15SM FEW048 BKN280 08/M01 A2993 RMK SC2CI1 SLP153

CYXE;2010-09-17 01:00;CYXE 170100Z 31014G20KT 15SM FEW048 FEW280 06/M02 A2997 RMK SC1CI1 SLP164

CYXE;2010-09-17 02:00;CYXE 170200Z 31009KT 15SM FEW048 FEW280 04/M02 A2999 RMK SC1CI1 SLP172

CYXE;2010-09-17 03:00;CYXE 170300Z 25006KT 15SM FEW280 01/M01 A2999 RMK CI0 SLP177

CYXE;2010-09-17 04:00;CYXE 170400Z 29020G26KT 15SM OVC051 05/M01 A3001 RMK SC8 SLP182

CYXE;2010-09-17 04:24;CYXE 170424Z 31013G21KT 15SM -SHRA BKN020 03/ RMK SC6

CYXE;2010-09-17 04:43;CYXE 170443Z 31013KT 15SM FEW020 SCT280 03/ RMK SC2CI1

CYXE;2010-09-17 05:00;CYXE 170500Z 32012KT 15SM FEW033 FEW280 02/00 A3005 RMK SC2CI0 SLP196

CYXE;2010-09-17 06:00;CYXE 170600Z 28008KT 15SM FEW030 01/M01 A3007 RMK SC2 SLP205

CYXE;2010-09-17 07:00;CYXE 170700Z 28012KT 15SM FEW030 00/M01 A3009 RMK SC1 SLP211

CYXE;2010-09-17 08:00;CYXE 170800Z 28010KT 15SM SKC M00/M03 A3010 RMK SLP215

CYXE;2010-09-17 09:00;CYXE 170900Z 29010KT 15SM SKC M01/M04 A3011 RMK SLP220

CYXE;2010-09-17 10:00;CYXE 171000Z 28011KT 15SM SKC M01/M04 A3013 RMK SLP226

CYXE;2010-09-17 11:00;CYXE 171100Z 29013KT 15SM FEW030 M01/M04 A3015 RMK SC1 SLP231

CYXE;2010-09-17 12:00;CYXE 171200Z 30010KT 15SM SCT030 M01/M04 A3017 RMK SC3 SLP240

CYXE;2010-09-17 13:00;CYXE 171300Z 30010KT 15SM SCT030 M00/M03 A3018 RMK SC2 SLP245

CYXE;2010-09-17 14:00;CYXE 171400Z 31008KT 15SM FEW030 FEW250 00/M02 A3020 RMK SC1CI1 SLP250

CYXE;2010-09-17 15:00;CYXE 171500Z 31012G17KT 15SM FEW030 FEW250 02/M02 A3021 RMK SC1CI1 SLP255

CYXE;2010-09-17 16:00;CYXE 171600Z 30015G21KT 15SM FEW022 FEW250 03/M02 A3022 RMK SC1CI1 SLP258

CYXE;2010-09-17 17:00;CYXE 171700Z 30016G21KT 15SM FEW022 FEW250 04/M04 A3021 RMK SC1CI1 SLP257

CYXE;2010-09-17 18:00;CYXE 171800Z 31016G24KT 15SM FEW022 FEW250 06/M05 A3020 RMK SC1CI0 SLP252

CYXE;2010-09-17 19:00;CYXE 171900Z 30021G26KT 15SM FEW047 FEW250 06/M06 A3019 RMK SC1CI0 SLP248

CYXE;2010-09-17 20:00;CYXE 172000Z 30015G24KT 15SM FEW047 FEW100 07/M05 A3018 RMK SC1AC1 SLP245

CYXE;2010-09-17 21:00;CYXE 172100Z 30017G24KT 15SM FEW047 08/M05 A3017 RMK SC1 SLP241

CYXE;2010-09-17 22:00;CYXE 172200Z 30017KT 15SM FEW047 FEW280 08/M05 A3016 RMK SC1CI1 OBS TAKEN +05 SLP236

CYXE;2010-09-17 23:00;CYXE 172300Z 30017KT 15SM FEW047 09/M05 A3015 RMK SC1 SLP235

CYXE;2010-09-18 00:00;CYXE 180000Z 31012G20KT 15SM FEW047 08/M05 A3016 RMK SC1 SLP237

CYXE;2010-09-18 01:00;CYXE 180100Z 31009KT 15SM FEW047 06/M04 A3016 RMK SC1 SLP238

CYXE;2010-09-18 02:00;CYXE 180200Z 29008KT 15SM FEW250 02/M03 A3018 RMK CI1 SLP243

CYXE;2010-09-18 03:00;CYXE 180300Z 28007KT 15SM SKC 01/M03 A3020 RMK SLP252

CYXE;2010-09-18 04:00;CYXE 180400Z 28007KT 15SM SKC 00/M03 A3020 RMK SLP254

CYXE;2010-09-18 05:00;CYXE 180500Z 30006KT 15SM SKC M01/M03 A3020 RMK SLP254

CYXE;2010-09-18 06:00;CYXE 180600Z 28006KT 15SM FEW250 M01/M03 A3022 RMK CI1 SLP258

CYXE;2010-09-18 07:00;CYXE 180700Z 26007KT 15SM SKC M02/M03 A3022 RMK SLP259

CYXE;2010-09-18 08:00;CYXE 180800Z 25007KT 15SM SKC M01/M03 A3023 RMK SLP261

CYXE;2010-09-18 09:00;CYXE 180900Z 26006KT 15SM SKC M02/M03 A3023 RMK SLP261

CYXE;2010-09-18 10:00;CYXE 181000Z 25006KT 15SM SKC M02/M03 A3023 RMK SLP261

CYXE;2010-09-18 11:00;CYXE 181100Z 27005KT 15SM SKC M03/M04 A3023 RMK SLP260

CYXE;2010-09-18 12:00;CYXE 181200Z 24003KT 15SM SKC M03/M04 A3023 RMK SLP264

CYXE;2010-09-18 13:00;CYXE 181300Z 21005KT 15SM SKC M03/M04 A3024 RMK SLP266

CYXE;2010-09-18 14:00;CYXE 181400Z 20003KT 15SM SKC M01/M03 A3024 RMK SLP267

CYXE;2010-09-18 15:00;CYXE 181500Z 22003KT 15SM FEW300 01/M02 A3024 RMK CI0 SLP268

CYXE;2010-09-18 16:00;CYXE 181600Z 24003KT 15SM SCT300 04/M01 A3024 RMK CI0 SLP266

CYXE;2010-09-18 17:00;CYXE 181700Z 24003KT 15SM SCT300 08/M01 A3024 RMK CI0 SLP266

CYXE;2010-09-18 18:00;CYXE 181800Z 19003KT 15SM SCT300 10/M03 A3022 RMK CI1 SLP255

CYXE;2010-09-18 19:00;CYXE 181900Z 26004KT 15SM SCT300 10/M02 A3020 RMK CI1 SLP251

CYXE;2010-09-18 20:00;CYXE 182000Z 26002KT 15SM SCT300 11/M03 A3019 RMK CI2 SLP247

CYXE;2010-09-18 21:00;CYXE 182100Z 00000KT 15SM BKN300 12/M02 A3018 RMK CI3 SLP241

CYXE;2010-09-18 22:00;CYXE 182200Z 03004KT 15SM BKN300 12/M02 A3016 RMK CI3 SLP235

CYXE;2010-09-18 23:00;CYXE 182300Z 08004KT 15SM BKN300 11/M02 A3015 RMK CI3 OBS TAKEN +03 SLP233

CYXE;2010-09-19 00:00;CYXE 190000Z 06005KT 15SM OVC300 11/M01 A3015 RMK CI4 SLP234

CYXE;2010-09-19 01:00;CYXE 190100Z 07005KT 15SM FEW120 OVC300 08/M01 A3015 RMK AC1CI4 SLP234

CYXE;2010-09-19 02:00;CYXE 190200Z 09005KT 15SM BKN300 06/M01 A3016 RMK CI3 SLP236

CYXE;2010-09-19 03:00;CYXE 190300Z 09005KT 15SM BKN300 04/M01 A3017 RMK CI2 SLP242

CYXE;2010-09-19 04:00;CYXE 190400Z 11005KT 15SM BKN300 03/M02 A3018 RMK CI2 SLP244

CYXE;2010-09-19 05:00;CYXE 190500Z 13006KT 15SM BKN280 04/M01 A3018 RMK CI1 SLP244

CYXE;2010-09-19 06:00;CYXE 190600Z 13006KT 15SM SCT280 04/M01 A3018 RMK CI1 SLP239

CYXE;2010-09-19 07:00;CYXE 190700Z 15006KT 15SM SCT280 04/M01 A3018 RMK CI1 SLP238

CYXE;2010-09-19 08:00;CYXE 190800Z 14006KT 15SM SCT280 03/M01 A3017 RMK CI1 SLP237

CYXE;2010-09-19 09:00;CYXE 190900Z 14007KT 15SM SCT280 04/M01 A3017 RMK CI1 SLP235

CYXE;2010-09-19 10:00;CYXE 191000Z 16006KT 15SM SCT280 02/M01 A3018 RMK CI1 SLP237

CYXE;2010-09-19 11:00;CYXE 191100Z 14003KT 15SM SCT280 01/M01 A3016 RMK CI1 SLP232

CYXE;2010-09-19 12:00;CYXE 191200Z 12004KT 15SM FEW094 SCT280 01/M01 A3016 RMK AC2CI0 SLP235

CYXE;2010-09-19 13:00;CYXE 191300Z 12005KT 15SM SCT096 BKN280 01/M01 A3016 RMK AC3CI0 SLP235

CYXE;2010-09-19 14:00;CYXE 191400Z 12006KT 15SM SCT098 BKN300 03/01 A3017 RMK AC3CI0 SLP236

CYXE;2010-09-19 15:00;CYXE 191500Z 12008KT 15SM FEW070 BKN100 BKN300 05/01 A3016 RMK AC2AC2CI0 SLP235

CYXE;2010-09-19 16:00;CYXE 191600Z 12007KT 15SM FEW070 BKN100 BKN300 07/02 A3015 RMK AC2AC2CI0 SLP233

CYXE;2010-09-19 17:00;CYXE 191700Z 13007KT 15SM FEW080 BKN100 BKN300 09/02 A3014 RMK AC2AC3CI0 SLP228

CYXE;2010-09-19 18:00;CYXE 191800Z 13011KT 15SM FEW050 SCT100 BKN300 09/01 A3012 RMK SC1AC2CI2 SLP218

CYXE;2010-09-19 19:00;CYXE 191900Z 10012KT 15SM BKN070 11/02 A3008 RMK AC7 SLP206

CYXE;2010-09-19 20:00;CYXE 192000Z 13010G19KT 15SM FEW030 OVC063 11/02 A3007 RMK SC1SC6 SLP202

CYXE;2010-09-19 21:00;CYXE 192100Z 13013KT 15SM FEW045 OVC060 11/01 A3004 RMK SC1SC7 SLP191

CYXE;2010-09-19 22:00;CYXE 192200Z 13009G16KT 15SM OVC050 10/03 A3001 RMK SC8 SLP183

CYXE;2010-09-19 22:19;CYXE 192219Z 12013G19KT 15SM -RA OVC045 09/ RMK SC8

CYXE;2010-09-19 23:00;CYXE 192300Z 12012KT 8SM -RA FEW015 OVC025 08/05 A3001 RMK SC2SC6 BR SLP180

CYXE;2010-09-20 00:00;CYXE 200000Z 10011KT 12SM -RA FEW020 OVC030 07/06 A2996 RMK SC2SC6 SLP167

CYXE;2010-09-20 01:00;CYXE 200100Z 10015KT 8SM -RA OVC035 07/06 A2993 RMK SC8 SLP158

CYXE;2010-09-20 02:00;CYXE 200200Z 08012KT 15SM -RA BKN040 OVC090 07/06 A2992 RMK SC6AC2 SLP154

CYXE;2010-09-20 02:25;CYXE 200225Z 08012KT 15SM OVC040 07/ RMK SC8

CYXE;2010-09-20 03:00;CYXE 200300Z 09013KT 12SM -RA OVC040 07/06 A2991 RMK SC8 SLP147

CYXE;2010-09-20 04:00;CYXE 200400Z 08012KT 15SM -RA OVC040 07/06 A2989 RMK SC8 SLP141

CYXE;2010-09-20 04:30;CYXE 200430Z 07011KT 15SM -RA OVC040 07/ RMK SC8

CYXE;2010-09-20 05:00;CYXE 200500Z 09014KT 15SM -RA OVC039 07/06 A2986 RMK SC8 SLP132

CYXE;2010-09-20 06:00;CYXE 200600Z CCA 08013G18KT 15SM -RA OVC039 07/06 A2985 RMK SC8 SLP124

CYXE;2010-09-20 07:00;CYXE 200700Z 09013KT 15SM OVC035 07/06 A2980 RMK SC8 SLP110

CYXE;2010-09-20 08:00;CYXE 200800Z 09011KT 15SM OVC035 07/06 A2976 RMK SC8 SLP096

CYXE;2010-09-20 09:00;CYXE 200900Z 10009G15KT 15SM OVC035 08/06 A2974 RMK SC8 SLP085

CYXE;2010-09-20 10:00;CYXE 201000Z 11009KT 15SM OVC032 08/06 A2970 RMK SC8 SLP072

CYXE;2010-09-20 11:00;CYXE 201100Z 11009KT 15SM OVC032 08/05 A2966 RMK SC8 SLP059

CYXE;2010-09-20 12:00;CYXE 201200Z 12007KT 15SM SCT026 OVC045 08/05 A2966 RMK SC4SC4 SLP059

CYXE;2010-09-20 13:00;CYXE 201300Z 13006KT 15SM SCT026 OVC042 08/06 A2965 RMK SC4SC4 SLP057

CYXE;2010-09-20 13:13;CYXE 201313Z 14005KT 15SM -RA OVC032 08/ RMK SC8

CYXE;2010-09-20 14:00;CYXE 201400Z 12003KT 15SM -RA OVC036 08/07 A2964 RMK SC8 SLP054

CYXE;2010-09-20 15:00;CYXE 201500Z 13004KT 15SM -RA OVC024 08/07 A2964 RMK SC8 SLP053

CYXE;2010-09-20 16:00;CYXE 201600Z 09003KT 15SM -RA OVC020 09/08 A2963 RMK SC8 SLP049

CYXE;2010-09-20 17:00;CYXE 201700Z 07003KT 10SM -RA OVC020 09/08 A2962 RMK SC8 SLP048

CYXE;2010-09-20 17:29;CYXE 201729Z 04006KT 5SM -RA BR SCT004 OVC020 09/ RMK SC4SC4

CYXE;2010-09-20 17:45;CYXE 201745Z 05006KT 4SM -RA BR BKN003 OVC016 09/ RMK SC6SC2

CYXE;2010-09-20 18:00;CYXE 201800Z 04007KT 5SM -RA BR BKN003 OVC016 08/08 A2961 RMK SC6SC2 SLP041

CYXE;2010-09-20 19:00;CYXE 201900Z 03005KT 4SM -RA BR BKN003 OVC016 09/09 A2960 RMK SC6SC2 CIG RAG SLP040

CYXE;2010-09-20 19:08;CYXE 201908Z 02006KT 2SM -RA BR BKN003 OVC016 09/ RMK SC6SC2 CIG RAG

CYXE;2010-09-20 20:00;CYXE 202000Z 35006KT 3SM -RA BR BKN003 OVC016 09/09 A2961 RMK SC6SC2 CIG RAG SLP041

CYXE;2010-09-20 21:00;CYXE 202100Z 35010KT 5SM -RA BR BKN004 OVC025 09/09 A2961 RMK SC6SC2 SLP043

CYXE;2010-09-20 21:39;CYXE 202139Z 35012KT 10SM -RA BKN006 OVC025 08/ RMK SC6SC2

CYXE;2010-09-20 22:00;CYXE 202200Z 35013KT 12SM -RA BKN007 OVC025 08/07 A2964 RMK SC6SC2 SLP052

CYXE;2010-09-20 22:35;CYXE 202235Z 35013KT 15SM BKN009 OVC025 07/ RMK SC6SC2

CYXE;2010-09-20 23:00;CYXE 202300Z 36013KT 15SM BKN007 OVC025 07/07 A2967 RMK SC7SC1 SLP062

CYXE;2010-09-20 23:28;CYXE 202328Z 35013KT 15SM BKN011 OVC030 07/ RMK SC6SC2

CYXE;2010-09-21 00:00;CYXE 210000Z 35010G18KT 15SM SCT011 OVC040 07/06 A2969 RMK SC3SC5 SLP071

CYXE;2010-09-21 01:00;CYXE 210100Z 34012KT 15SM SCT011 OVC040 06/06 A2973 RMK SC4SC4 SLP082

CYXE;2010-09-21 01:15;CYXE 210115Z 33010KT 15SM BKN013 OVC040 06/ RMK SC6SC2

CYXE;2010-09-21 01:51;CYXE 210151Z 33010KT 15SM BKN009 BKN020 OVC045 06/ RMK SF5SC2SC2

CYXE;2010-09-21 02:00;CYXE 210200Z 33011KT 15SM BKN008 OVC045 06/06 A2974 RMK SF5SC3 SLP087

CYXE;2010-09-21 02:47;CYXE 210247Z 32010KT 15SM FEW008 BKN013 OVC050 06/ RMK SF2SC5SC2

CYXE;2010-09-21 03:00;CYXE 210300Z 32011G16KT 15SM -DZ FEW008 BKN013 OVC050 06/05 A2978 RMK SF1SC6SC2 SLP100

CYXE;2010-09-21 03:35;CYXE 210335Z 31010G15KT 15SM -DZ OVC016 06/ RMK SC8

CYXE;2010-09-21 04:00;CYXE 210400Z 31011KT 15SM OVC016 05/05 A2979 RMK SC8 SLP104

CYXE;2010-09-21 05:00;CYXE 210500Z 32008KT 15SM OVC016 05/05 A2980 RMK SC8 SLP108

CYXE;2010-09-21 05:11;CYXE 210511Z 32009KT 15SM OVC012 05/ RMK SC8

CYXE;2010-09-21 06:00;CYXE 210600Z 32010KT 15SM OVC016 05/05 A2981 RMK SC8 SLP112

CYXE;2010-09-21 07:00;CYXE 210700Z 32010KT 15SM OVC014 05/04 A2983 RMK SC8 SLP117

CYXE;2010-09-21 08:00;CYXE 210800Z 32010KT 15SM BKN018 OVC034 05/04 A2984 RMK ST6SC2 SLP123

CYXE;2010-09-21 09:00;CYXE 210900Z 32007KT 15SM SCT021 BKN068 05/04 A2986 RMK ST3AC3 SLP129

CYXE;2010-09-21 10:00;CYXE 211000Z 33012KT 15SM OVC022 05/04 A2987 RMK SC8 SLP133

CYXE;2010-09-21 11:00;CYXE 211100Z 35008KT 15SM OVC020 05/03 A2989 RMK SC8 SLP139

CYXE;2010-09-21 12:00;CYXE 211200Z 34003KT 15SM OVC018 04/03 A2991 RMK SC8 SLP149

CYXE;2010-09-21 13:00;CYXE 211300Z 36004KT 15SM OVC017 04/03 A2992 RMK SC8 SLP151

CYXE;2010-09-21 13:50;CYXE 211350Z 36004KT 15SM OVC013 04/ RMK SC8

CYXE;2010-09-21 14:00;CYXE 211400Z 36006KT 15SM SCT013 OVC020 04/02 A2994 RMK ST3SC5 SLP158

CYXE;2010-09-21 15:00;CYXE 211500Z 34006KT 15SM FEW013 OVC018 04/02 A2995 RMK SC2SC6 SLP162

CYXE;2010-09-21 16:00;CYXE 211600Z 32006KT 15SM OVC018 05/02 A2996 RMK SC8 SLP167

CYXE;2010-09-21 17:00;CYXE 211700Z 33006KT 15SM OVC022 05/03 A2997 RMK SC8 SLP169

CYXE;2010-09-21 18:00;CYXE 211800Z 00000KT 15SM SCT014 BKN024 06/03 A2996 RMK SC3SC4 SLP167

CYXE;2010-09-21 18:15;CYXE 211815Z 34005KT 12SM -RA BKN015 BKN024 05/ RMK SC5SC2

CYXE;2010-09-21 18:47;CYXE 211847Z 32006KT 15SM BKN020 BKN035 05/ RMK SC6SC2

CYXE;2010-09-21 19:00;CYXE 211900Z 31006KT 15SM BKN020 BKN035 06/04 A2996 RMK SC6SC1 SLP164

CYXE;2010-09-21 20:00;CYXE 212000Z 27006KT 15SM BKN019 BKN100 06/02 A2995 RMK SC6AC2 SLP163

CYXE;2010-09-21 21:00;CYXE 212100Z 28007KT 15SM BKN023 BKN100 07/02 A2994 RMK SC6AC1 SLP159

CYXE;2010-09-21 22:00;CYXE 212200Z 34003KT 15SM BKN026 BKN060 BKN300 07/01 A2994 RMK SC5SC1CI0 SLP159

CYXE;2010-09-21 23:00;CYXE 212300Z 00000KT 15SM BKN030 08/01 A2994 RMK SC7 SLP157

CYXE;2010-09-22 00:00;CYXE 220000Z 32003KT 15SM BKN030 BKN085 08/02 A2994 RMK SC5AC1 SLP157

CYXE;2010-09-22 01:00;CYXE 220100Z 23003KT 15SM BKN045 BKN085 06/03 A2995 RMK SC6AC1 SLP160

CYXE;2010-09-22 02:00;CYXE 220200Z 00000KT 15SM BKN045 BKN070 06/04 A2995 RMK SC6AC1 SLP162

CYXE;2010-09-22 03:00;CYXE 220300Z 20003KT 15SM BKN048 05/03 A2996 RMK SC6 SLP168

CYXE;2010-09-22 04:00;CYXE 220400Z 21005KT 15SM OVC050 05/03 A2997 RMK SC8 SLP171

CYXE;2010-09-22 05:00;CYXE 220500Z 22004KT 15SM OVC050 04/03 A2998 RMK SC7 SLP173

CYXE;2010-09-22 06:00;CYXE 220600Z 21005KT 15SM BKN050 05/02 A2998 RMK SC7 SLP173

CYXE;2010-09-22 07:00;CYXE 220700Z 21004KT 15SM BKN043 05/02 A2998 RMK SC7 SLP173

CYXE;2010-09-22 08:00;CYXE 220800Z 21006KT 15SM SCT053 03/01 A2998 RMK SC3 SLP172

CYXE;2010-09-22 09:00;CYXE 220900Z 23004KT 15SM SCT042 02/01 A2998 RMK SC3 SLP173

CYXE;2010-09-22 10:00;CYXE 221000Z 23004KT 15SM SCT042 00/00 A2999 RMK SC3 SLP176

CYXE;2010-09-22 11:00;CYXE 221100Z 21004KT 15SM FEW040 00/M00 A2999 RMK SC2 SLP177

CYXE;2010-09-22 12:00;CYXE 221200Z 31002KT 15SM FEW040 M00/M01 A2999 RMK SC2 SLP177

CYXE;2010-09-22 13:00;CYXE 221300Z 00000KT 15SM FEW063 M00/M00 A2999 RMK SC2 SLP177

CYXE;2010-09-22 14:00;CYXE 221400Z 13002KT 15SM FEW060 01/01 A3000 RMK SC2 SLP180

CYXE;2010-09-22 15:00;CYXE 221500Z 18004KT 15SM FEW060 04/03 A3000 RMK SC2 SLP179

CYXE;2010-09-22 16:00;CYXE 221600Z 19004KT 15SM FEW060 06/03 A3001 RMK SC2 SLP182

CYXE;2010-09-22 17:00;CYXE 221700Z 19003KT 15SM FEW025 BKN064 09/03 A3001 RMK CU1SC5 SLP182

CYXE;2010-09-22 18:00;CYXE 221800Z 17004KT 15SM SCT040 BKN064 09/01 A3000 RMK CU3SC4 SLP176

CYXE;2010-09-22 19:00;CYXE 221900Z 16006KT 15SM BKN035 BKN065 09/01 A2999 RMK SC6SC2 SLP173

CYXE;2010-09-22 20:00;CYXE 222000Z 17003KT 15SM OVC055 09/00 A2999 RMK SC8 SLP173

CYXE;2010-09-22 21:00;CYXE 222100Z 17007KT 15SM OVC057 09/01 A2999 RMK SC8 SLP175

CYXE;2010-09-22 22:00;CYXE 222200Z 17005KT 15SM OVC057 09/01 A2998 RMK SC8 SLP172

CYXE;2010-09-22 23:00;CYXE 222300Z 18002KT 15SM BKN057 09/M00 A2997 RMK SC7 SLP170

CYXE;2010-09-23 00:00;CYXE 230000Z 15003KT 15SM BKN057 09/02 A2996 RMK SC7 SLP169

CYXE;2010-09-23 01:00;CYXE 230100Z 14004KT 15SM BKN057 07/02 A2997 RMK SC7 SLP170

CYXE;2010-09-23 02:00;CYXE 230200Z 14004KT 15SM OVC053 07/02 A2997 RMK SC8 SLP172

CYXE;2010-09-23 03:00;CYXE 230300Z 14003KT 15SM OVC051 07/03 A2997 RMK SC8 SLP170

CYXE;2010-09-23 04:00;CYXE 230400Z 15003KT 15SM OVC044 07/03 A2998 RMK SC8 SLP172

CYXE;2010-09-23 05:00;CYXE 230500Z 16004KT 15SM OVC044 07/03 A2998 RMK SC8 SLP173

CYXE;2010-09-23 06:00;CYXE 230600Z 17005KT 15SM OVC044 07/03 A2998 RMK SC8 SLP168

CYXE;2010-09-23 07:00;CYXE 230700Z 16006KT 15SM BKN046 07/03 A2996 RMK SC7 SLP163

CYXE;2010-09-23 08:00;CYXE 230800Z 16007KT 15SM OVC051 07/04 A2995 RMK SC8 SLP160

CYXE;2010-09-23 09:00;CYXE 230900Z 18004KT 15SM OVC051 07/05 A2995 RMK SC8 SLP158

CYXE;2010-09-23 10:00;CYXE 231000Z 16005KT 15SM OVC051 07/05 A2994 RMK SC7 SLP156

CYXE;2010-09-23 11:00;CYXE 231100Z 16004KT 15SM OVC051 07/05 A2995 RMK SC8 SLP159

CYXE;2010-09-23 12:00;CYXE 231200Z 17006KT 15SM OVC049 07/05 A2996 RMK SC8 SLP162

CYXE;2010-09-23 13:00;CYXE 231300Z 16006KT 15SM OVC047 07/06 A2995 RMK SC8 SLP160

CYXE;2010-09-23 14:00;CYXE 231400Z 15005KT 15SM OVC041 07/06 A2995 RMK SC8 SLP159

CYXE;2010-09-23 15:00;CYXE 231500Z 15006KT 15SM OVC043 08/07 A2995 RMK SC8 SLP159

CYXE;2010-09-23 16:00;CYXE 231600Z 14007KT 15SM FEW009 OVC039 08/07 A2994 RMK SF2SC6 SLP157

CYXE;2010-09-23 17:00;CYXE 231700Z 15008KT 15SM FEW011 OVC041 09/07 A2994 RMK SC1SC7 SLP156

CYXE;2010-09-23 18:00;CYXE 231800Z 16009KT 15SM BKN015 OVC045 11/07 A2993 RMK SC5SC3 SLP152

CYXE;2010-09-23 19:00;CYXE 231900Z 16012KT 15SM FEW015 BKN021 OVC039 11/07 A2992 RMK CU1SC6SC2 SLP148

CYXE;2010-09-23 20:00;CYXE 232000Z 17008KT 15SM BKN023 BKN047 11/07 A2992 RMK SC5SC2 SLP147

CYXE;2010-09-23 21:00;CYXE 232100Z 15010KT 15SM BKN048 BKN089 12/06 A2991 RMK SC5AC2 SLP142

CYXE;2010-09-23 22:00;CYXE 232200Z 14009KT 15SM OVC033 12/06 A2990 RMK SC8 SLP140

CYXE;2010-09-23 23:00;CYXE 232300Z 17009KT 15SM BKN033 OVC049 12/05 A2989 RMK SC6SC2 SLP138

CYXE;2010-09-24 00:00;CYXE 240000Z 18008KT 15SM SCT030 OVC050 11/05 A2990 RMK SC3SC5 SLP140

CYXE;2010-09-24 01:00;CYXE 240100Z 15010KT 15SM OVC051 11/05 A2990 RMK SC8 SLP140

CYXE;2010-09-24 02:00;CYXE 240200Z 15010KT 15SM OVC053 10/06 A2990 RMK SC8 SLP142

CYXE;2010-09-24 03:00;CYXE 240300Z 13010KT 15SM OVC053 09/06 A2990 RMK SC8 SLP141

CYXE;2010-09-24 04:00;CYXE 240400Z 14010G15KT 15SM BKN053 09/06 A2990 RMK SC7 SLP142

CYXE;2010-09-24 05:00;CYXE 240500Z 14008KT 15SM SCT053 07/06 A2989 RMK SC4 SLP138

CYXE;2010-09-24 06:00;CYXE 240600Z 13007KT 15SM FEW055 07/06 A2988 RMK SC2 SLP136

CYXE;2010-09-24 07:00;CYXE 240700Z 15006KT 15SM FEW120 06/05 A2988 RMK AC2 SLP134

CYXE;2010-09-24 08:00;CYXE 240800Z 14008KT 15SM BKN047 06/06 A2986 RMK SC5 SLP127

CYXE;2010-09-24 09:00;CYXE 240900Z 14008KT 15SM SCT045 06/05 A2984 RMK SC2 SLP120

CYXE;2010-09-24 10:00;CYXE 241000Z 13006KT 15SM FEW045 SCT120 05/05 A2983 RMK SC1AC1 SLP116

CYXE;2010-09-24 11:00;CYXE 241100Z 15007KT 15SM FEW120 06/05 A2982 RMK AC1 SLP114

CYXE;2010-09-24 12:00;CYXE 241200Z 15008KT 15SM FEW250 06/05 A2982 RMK CI1 SLP113

CYXE;2010-09-24 13:00;CYXE 241300Z 16008KT 15SM FEW120 SCT250 05/05 A2982 RMK AC1CI1 SLP113

CYXE;2010-09-24 14:00;CYXE 241400Z 16007KT 15SM FEW250 06/05 A2983 RMK CI1 SLP117

CYXE;2010-09-24 15:00;CYXE 241500Z 18006KT 15SM FEW250 08/06 A2983 RMK CI1 SLP117

CYXE;2010-09-24 16:00;CYXE 241600Z 21006KT 15SM FEW100 SCT250 09/06 A2985 RMK AC2CI0 SLP124

CYXE;2010-09-24 17:00;CYXE 241700Z 23008KT 15SM FEW016 FEW250 10/06 A2987 RMK SC1CI0 SLP129

CYXE;2010-09-24 18:00;CYXE 241800Z 29006KT 15SM FEW019 FEW250 12/07 A2987 RMK SC1CI0 SLP131

CYXE;2010-09-24 18:35;CYXE 241835Z 31012KT 15SM FEW005 FEW019 SCT250 09/ RMK ST2SC1CI0

CYXE;2010-09-24 18:49;CYXE 241849Z 32010G15KT 15SM BKN009 09/ RMK ST6

CYXE;2010-09-24 19:00;CYXE 241900Z 32012KT 15SM BKN009 09/07 A2991 RMK SC7 SLP142

CYXE;2010-09-24 19:46;CYXE 241946Z 32011KT 15SM SCT012 SCT250 11/ RMK ST2CI1

CYXE;2010-09-24 20:00;CYXE 242000Z 32010KT 15SM FEW014 SCT250 11/07 A2992 RMK ST2CI0 SLP146

CYXE;2010-09-24 21:00;CYXE 242100Z 34009KT 15SM FEW110 FEW250 13/07 A2993 RMK AC1CI0 SLP152

CYXE;2010-09-24 22:00;CYXE 242200Z 32007KT 15SM FEW030 FEW120 15/08 A2994 RMK SC1AC2 SLP155

CYXE;2010-09-24 23:00;CYXE 242300Z 34006KT 15SM FEW030 FEW120 15/08 A2995 RMK SC1AC1 SLP158

CYXE;2010-09-25 00:00;CYXE 250000Z 32007KT 15SM FEW120 15/08 A2997 RMK AC1 SLP164

CYXE;2010-09-25 01:00;CYXE 250100Z 32004KT 15SM FEW250 12/08 A2999 RMK CI1 SLP169

CYXE;2010-09-25 02:00;CYXE 250200Z 30004KT 15SM FEW250 09/07 A3001 RMK CI1 SLP177

CYXE;2010-09-25 03:00;CYXE 250300Z 35004KT 15SM SKC 08/06 A3004 RMK SLP189

CYXE;2010-09-25 04:00;CYXE 250400Z 00000KT 15SM SKC 07/06 A3006 RMK SLP197

CYXE;2010-09-25 05:00;CYXE 250500Z 12003KT 15SM FEW250 05/05 A3006 RMK CI1 SLP197

CYXE;2010-09-25 06:00;CYXE 250600Z 18003KT 15SM SKC 05/05 A3007 RMK SLP201

CYXE;2010-09-25 07:00;CYXE 250700Z 19003KT 8SM BCFG FEW250 05/05 A3009 RMK CI0 SLP205

CYXE;2010-09-25 08:00;CYXE 250800Z 17003KT 10SM SCT250 04/04 A3008 RMK CI0 BR SLP204

CYXE;2010-09-25 09:00;CYXE 250900Z 17004KT 15SM SKC 04/04 A3008 RMK SLP203

CYXE;2010-09-25 10:00;CYXE 251000Z 18005KT 15SM SKC 04/04 A3007 RMK SLP201

CYXE;2010-09-25 11:00;CYXE 251100Z 17005KT 15SM SKC 04/03 A3007 RMK SLP199

CYXE;2010-09-25 12:00;CYXE 251200Z 18004KT 15SM FEW250 04/03 A3007 RMK CI0 SLP200

CYXE;2010-09-25 13:00;CYXE 251300Z 16007KT 15SM BKN250 04/03 A3004 RMK CI2 SLP190

CYXE;2010-09-25 14:00;CYXE 251400Z 19009KT 15SM SCT280 06/04 A3003 RMK CI0 SLP186

CYXE;2010-09-25 15:00;CYXE 251500Z 19009KT 15SM FEW280 09/06 A3003 RMK CI0 SLP187

CYXE;2010-09-25 16:00;CYXE 251600Z 19011KT 15SM BKN280 12/07 A3001 RMK CI0 SLP178

CYXE;2010-09-25 17:00;CYXE 251700Z 19010KT 15SM BKN280 15/07 A2999 RMK CI0 SLP172

CYXE;2010-09-25 18:00;CYXE 251800Z 19011KT 15SM SCT280 19/08 A2995 RMK CI0 SLP154

CYXE;2010-09-25 19:00;CYXE 251900Z 19012G18KT 15SM BKN280 19/07 A2992 RMK CI2 SLP145

CYXE;2010-09-25 20:00;CYXE 252000Z 20013G18KT 15SM BKN280 21/08 A2988 RMK CI2 SLP133

CYXE;2010-09-25 21:00;CYXE 252100Z 21013G18KT 15SM BKN280 23/07 A2987 RMK CI3 SLP125

CYXE;2010-09-25 22:00;CYXE 252200Z 21010KT 15SM OVC280 22/07 A2985 RMK CI5 SLP118

CYXE;2010-09-25 23:00;CYXE 252300Z 19011KT 15SM OVC280 23/08 A2981 RMK CI4 SLP106

CYXE;2010-09-26 00:00;CYXE 260000Z 19008KT 15SM OVC280 22/08 A2977 RMK CI6 SLP090

CYXE;2010-09-26 01:00;CYXE 260100Z 18009KT 15SM BKN280 19/09 A2974 RMK CI4 SLP083

CYXE;2010-09-26 02:00;CYXE 260200Z 19011KT 15SM BKN280 19/09 A2973 RMK CI3 SLP078

CYXE;2010-09-26 03:00;CYXE 260300Z 19008KT 15SM BKN280 17/08 A2972 RMK CI3 SLP074

CYXE;2010-09-26 04:00;CYXE 260400Z 19008KT 15SM BKN280 15/08 A2971 RMK CI3 SLP072

CYXE;2010-09-26 05:00;CYXE 260500Z 19007KT 15SM BKN280 14/07 A2970 RMK CI2 SLP068

CYXE;2010-09-26 06:00;CYXE 260600Z 19006KT 15SM SCT280 12/07 A2969 RMK CI1 SLP062

CYXE;2010-09-26 07:00;CYXE 260700Z 19007KT 15SM SKC 12/07 A2967 RMK SLP056

CYXE;2010-09-26 08:00;CYXE 260800Z 20008KT 15SM SKC 11/06 A2966 RMK SLP053

CYXE;2010-09-26 09:00;CYXE 260900Z 20007KT 15SM SKC 10/06 A2965 RMK SLP047

CYXE;2010-09-26 10:00;CYXE 261000Z 23007KT 15SM SKC 09/06 A2964 RMK SLP042

CYXE;2010-09-26 11:00;CYXE 261100Z 24007KT 15SM SKC 09/06 A2963 RMK SLP039

CYXE;2010-09-26 12:00;CYXE 261200Z 23008KT 15SM SKC 08/05 A2962 RMK SLP039

CYXE;2010-09-26 13:00;CYXE 261300Z 24007KT 15SM FEW250 08/06 A2963 RMK CI0 SLP040

CYXE;2010-09-26 14:00;CYXE 261400Z 24008KT 15SM FEW250 10/06 A2964 RMK CI1 SLP044

CYXE;2010-09-26 15:00;CYXE 261500Z 24009KT 15SM FEW250 13/06 A2964 RMK CI1 SLP044

CYXE;2010-09-26 16:00;CYXE 261600Z 25011KT 15SM SCT250 18/07 A2963 RMK CI2 SLP040

CYXE;2010-09-26 17:00;CYXE 261700Z 26012KT 15SM BKN250 22/07 A2961 RMK CI2 SLP035

CYXE;2010-09-26 18:00;CYXE 261800Z 25010G15KT 15SM BKN280 24/07 A2960 RMK CI2 SLP028

CYXE;2010-09-26 19:00;CYXE 261900Z 26013KT 15SM SCT280 25/08 A2961 RMK CI2 SLP031

CYXE;2010-09-26 20:00;CYXE 262000Z 26011KT 15SM SCT120 BKN280 25/09 A2961 RMK AC3CI1 SLP029

CYXE;2010-09-26 21:00;CYXE 262100Z 29006KT 15SM BKN120 BKN280 23/09 A2962 RMK AC6CI0 SLP035

CYXE;2010-09-26 22:00;CYXE 262200Z 30008KT 15SM BKN120 BKN280 23/09 A2962 RMK AC5CI1 SLP037

CYXE;2010-09-26 23:00;CYXE 262300Z 30004KT 15SM BKN120 BKN280 21/10 A2963 RMK AC6CI1 SLP038

CYXE;2010-09-27 00:00;CYXE 270000Z 30009KT 15SM BKN120 BKN280 20/10 A2966 RMK AC6CI0 SLP054

CYXE;2010-09-27 01:00;CYXE 270100Z 32012G17KT 15SM VCSH BKN090 18/10 A2970 RMK AC6 SLP065

CYXE;2010-09-27 02:00;CYXE 270200Z 34008KT 15SM VCSH BKN093 16/11 A2973 RMK AC6 SLP075

CYXE;2010-09-27 02:45;CYXE 270245Z 33013KT 15SM -RA SCT067 BKN085 16/ RMK AC3AC2

CYXE;2010-09-27 03:00;CYXE 270300Z 33012G18KT 15SM -RA FEW060 BKN087 16/10 A2978 RMK SC2AC4 SLP092

CYXE;2010-09-27 04:00;CYXE 270400Z 33009KT 15SM -RA BKN053 13/10 A2980 RMK SC6 SLP100

CYXE;2010-09-27 04:37;CYXE 270437Z 32009KT 15SM SCT053 BKN100 12/ RMK SC3AC3

CYXE;2010-09-27 05:00;CYXE 270500Z 32010KT 15SM SCT087 12/09 A2983 RMK AC4 SLP110

CYXE;2010-09-27 06:00;CYXE 270600Z 31010KT 15SM FEW087 12/09 A2987 RMK AC2 SLP122

CYXE;2010-09-27 07:00;CYXE 270700Z 31008KT 15SM FEW110 11/08 A2989 RMK AC1 SLP128

CYXE;2010-09-27 08:00;CYXE 270800Z 30009KT 15SM SKC 09/08 A2993 RMK SLP139

CYXE;2010-09-27 09:00;CYXE 270900Z 31007KT 15SM SKC 09/08 A2995 RMK SLP149

CYXE;2010-09-27 10:00;CYXE 271000Z 29008KT 15SM SKC 08/07 A2997 RMK SLP156

CYXE;2010-09-27 11:00;CYXE 271100Z 29005KT 15SM SKC 07/06 A2998 RMK SLP158

CYXE;2010-09-27 12:00;CYXE 271200Z 27006KT 15SM FEW250 06/05 A3000 RMK CI1 SLP171

CYXE;2010-09-27 13:00;CYXE 271300Z 25005KT 15SM BKN250 05/05 A3002 RMK CI2 SLP177

CYXE;2010-09-27 14:00;CYXE 271400Z 22004KT 15SM BKN250 07/07 A3002 RMK CI1 SLP178

CYXE;2010-09-27 15:00;CYXE 271500Z 22004KT 15SM BKN250 09/07 A3004 RMK CI2 SLP184

CYXE;2010-09-27 16:00;CYXE 271600Z 20003KT 15SM BKN270 12/08 A3005 RMK CI2 SLP186

CYXE;2010-09-27 17:00;CYXE 271700Z 20007KT 15SM BKN300 15/09 A3004 RMK CI2 SLP185

CYXE;2010-09-27 18:00;CYXE 271800Z 20007KT 15SM FEW140 BKN300 17/08 A3003 RMK AC1CI3 SLP178

CYXE;2010-09-27 19:00;CYXE 271900Z 21010KT 15SM FEW140 BKN300 19/08 A3001 RMK AC1CI2 SLP173

CYXE;2010-09-27 20:00;CYXE 272000Z 23009KT 15SM BKN300 21/08 A2999 RMK CI2 SLP167

CYXE;2010-09-27 21:00;CYXE 272100Z 21008KT 15SM SCT300 22/06 A2995 RMK CI2 SLP150

CYXE;2010-09-27 22:00;CYXE 272200Z 18009KT 15SM FEW300 22/06 A2992 RMK CI1 SLP142

CYXE;2010-09-27 23:00;CYXE 272300Z 18012KT 15SM FEW300 22/04 A2989 RMK CI0 SLP132

CYXE;2010-09-28 00:00;CYXE 280000Z 17008KT 15SM SKC 20/06 A2986 RMK SLP123

CYXE;2010-09-28 01:00;CYXE 280100Z 15008KT 15SM SKC 19/06 A2983 RMK SLP112

CYXE;2010-09-28 02:00;CYXE 280200Z 16010KT 15SM SKC 17/07 A2981 RMK SLP106

CYXE;2010-09-28 03:00;CYXE 280300Z 16011KT 15SM SKC 16/07 A2979 RMK SLP098

CYXE;2010-09-28 04:00;CYXE 280400Z 16010KT 15SM SKC 15/08 A2976 RMK SLP090

CYXE;2010-09-28 05:00;CYXE 280500Z 17010KT 15SM SKC 16/10 A2973 RMK SLP080

CYXE;2010-09-28 06:00;CYXE 280600Z 19010G16KT 15SM SKC 15/10 A2970 RMK SLP064

CYXE;2010-09-28 07:00;CYXE 280700Z 19011G16KT 15SM SKC 15/10 A2966 RMK SLP052

CYXE;2010-09-28 08:00;CYXE 280800Z 20010KT 15SM SKC 14/10 A2964 RMK SLP044

CYXE;2010-09-28 09:00;CYXE 280900Z 21007KT 15SM FEW250 14/10 A2962 RMK CI0 SLP035

CYXE;2010-09-28 10:00;CYXE 281000Z 20008KT 15SM SKC 14/10 A2959 RMK SLP026

CYXE;2010-09-28 11:00;CYXE 281100Z 21008KT 15SM SKC 12/10 A2958 RMK SLP021

CYXE;2010-09-28 12:00;CYXE 281200Z 22006KT 15SM FEW250 11/09 A2958 RMK CI1 SLP022

CYXE;2010-09-28 13:00;CYXE 281300Z 22007KT 15SM SCT250 10/09 A2958 RMK CI2 SLP023

CYXE;2010-09-28 14:00;CYXE 281400Z 23005KT 15SM FEW250 11/09 A2958 RMK CI1 SLP024

CYXE;2010-09-28 15:00;CYXE 281500Z 29007KT 15SM FEW300 14/10 A2959 RMK CI1 SLP027

CYXE;2010-09-28 16:00;CYXE 281600Z 33006KT 15SM FEW300 17/11 A2958 RMK CI1 SLP025

CYXE;2010-09-28 17:00;CYXE 281700Z 34006KT 15SM FEW120 FEW300 18/11 A2958 RMK AC1CI1 SLP025

CYXE;2010-09-28 18:00;CYXE 281800Z 32010KT 15SM FEW080 FEW300 20/11 A2959 RMK AC1CI0 SLP024

CYXE;2010-09-28 19:00;CYXE 281900Z 30007KT 15SM FEW040 FEW300 21/11 A2959 RMK SC1CI0 SLP023

CYXE;2010-09-28 20:00;CYXE 282000Z 31020G29KT 15SM FEW058 SCT120 SCT300 22/09 A2959 RMK SC2AC1CI0 SLP024

CYXE;2010-09-28 21:00;CYXE 282100Z 33019G30KT 15SM FEW058 BKN084 20/08 A2961 RMK SC2AC4 SLP031

CYXE;2010-09-28 22:00;CYXE 282200Z 31009G16KT 15SM FEW058 BKN085 17/08 A2962 RMK SC2AC4 SLP036

CYXE;2010-09-28 23:00;CYXE 282300Z 32012G19KT 15SM -RA FEW058 BKN088 16/09 A2965 RMK SC2AC4 SLP045

CYXE;2010-09-29 00:00;CYXE 290000Z 29012KT 15SM FEW058 BKN090 15/09 A2966 RMK SC2AC5 SLP055

CYXE;2010-09-29 00:14;CYXE 290014Z 29008KT 15SM -RA FEW058 BKN090 15/ RMK SC2AC5

CYXE;2010-09-29 00:24;CYXE 290024Z 28008KT 15SM VCSH BKN085 14/ RMK AC6

CYXE;2010-09-29 01:00;CYXE 290100Z 28011KT 15SM BKN080 15/09 A2969 RMK AC6 SLP064

CYXE;2010-09-29 02:00;CYXE 290200Z 29009KT 15SM BKN087 14/09 A2969 RMK AC6 SLP062

CYXE;2010-09-29 03:00;CYXE 290300Z 28010G15KT 15SM VCSH BKN090 13/09 A2971 RMK AC6 SLP072

CYXE;2010-09-29 04:00;CYXE 290400Z 27011KT 15SM BKN090 12/09 A2973 RMK AC6 SLP078

CYXE;2010-09-29 05:00;CYXE 290500Z 27011KT 15SM SCT090 11/09 A2974 RMK AC4 SLP079

CYXE;2010-09-29 06:00;CYXE 290600Z 28007KT 15SM SCT090 11/09 A2976 RMK AC2 SLP087

CYXE;2010-09-29 07:00;CYXE 290700Z 28010KT 15SM SKC 11/10 A2978 RMK SLP092

CYXE;2010-09-29 08:00;CYXE 290800Z 29007KT 15SM SKC 11/09 A2979 RMK SLP096

CYXE;2010-09-29 09:00;CYXE 290900Z 30010KT 15SM SKC 11/09 A2983 RMK SLP110

CYXE;2010-09-29 10:00;CYXE 291000Z 30009KT 15SM SKC 10/08 A2986 RMK SLP119

CYXE;2010-09-29 11:00;CYXE 291100Z 28007KT 15SM SKC 08/07 A2989 RMK SLP129

CYXE;2010-09-29 12:00;CYXE 291200Z 28007KT 15SM SKC 08/06 A2992 RMK SLP143

CYXE;2010-09-29 13:00;CYXE 291300Z 27006KT 15SM SKC 06/05 A2993 RMK SLP147

CYXE;2010-09-29 14:00;CYXE 291400Z 28007KT 15SM SKC 08/07 A2996 RMK SLP156

CYXE;2010-09-29 15:00;CYXE 291500Z 30010KT 15SM SKC 12/07 A2997 RMK SLP161

CYXE;2010-09-29 16:00;CYXE 291600Z 30009KT 15SM SKC 14/07 A2998 RMK SLP165

CYXE;2010-09-29 17:00;CYXE 291700Z 30016KT 15SM SKC 15/06 A2999 RMK SLP167

CYXE;2010-09-29 18:00;CYXE 291800Z 30018KT 15SM SKC 17/06 A2999 RMK SLP166

CYXE;2010-09-29 19:00;CYXE 291900Z 31019G25KT 15SM SKC 18/05 A2999 RMK SLP166

CYXE;2010-09-29 20:00;CYXE 292000Z 31017G25KT 15SM SKC 19/05 A2999 RMK SLP165

CYXE;2010-09-29 21:00;CYXE 292100Z 30017G22KT 15SM SKC 19/03 A3000 RMK SLP166

CYXE;2010-09-29 22:00;CYXE 292200Z 31014G20KT 15SM SKC 19/03 A3000 RMK SLP168

CYXE;2010-09-29 23:00;CYXE 292300Z 32013G18KT 15SM SKC 19/03 A3000 RMK CONTRAILS SLP168

CYXE;2010-09-30 00:00;CYXE 300000Z 32009KT 15SM FEW300 17/03 A3001 RMK CI0 SLP176

CYXE;2010-09-30 01:00;CYXE 300100Z 32008KT 15SM FEW300 11/04 A3002 RMK CI0 SLP179

CYXE;2010-09-30 02:00;CYXE 300200Z 29007KT 15SM SKC 09/04 A3004 RMK SLP183

CYXE;2010-09-30 03:00;CYXE 300300Z 26005KT 15SM SKC 08/04 A3005 RMK SLP190

CYXE;2010-09-30 04:00;CYXE 300400Z 26006KT 15SM SKC 06/04 A3005 RMK SLP191

CYXE;2010-09-30 05:00;CYXE 300500Z 27006KT 15SM SKC 06/03 A3006 RMK SLP194

CYXE;2010-09-30 06:00;CYXE 300600Z 25005KT 15SM SKC 05/03 A3006 RMK SLP195

CYXE;2010-09-30 07:00;CYXE 300700Z 25007KT 15SM SKC 04/03 A3007 RMK SLP197

CYXE;2010-09-30 08:00;CYXE 300800Z 26006KT 15SM SKC 04/03 A3008 RMK SLP200

CYXE;2010-09-30 09:00;CYXE 300900Z 23006KT 15SM SKC 03/02 A3009 RMK SLP202

CYXE;2010-09-30 10:00;CYXE 301000Z 22005KT 15SM FEW290 03/02 A3008 RMK CI0 SLP199

CYXE;2010-09-30 11:00;CYXE 301100Z 20002KT 15SM FEW120 FEW290 04/02 A3007 RMK AC1CI0 SLP197

CYXE;2010-09-30 12:00;CYXE 301200Z 18003KT 15SM FEW120 FEW290 03/02 A3008 RMK AC1CI0 SLP201

CYXE;2010-09-30 13:00;CYXE 301300Z 19004KT 15SM BKN120 04/03 A3008 RMK AC5 SLP201

CYXE;2010-09-30 14:00;CYXE 301400Z 22003KT 15SM BKN120 04/04 A3008 RMK AC5 SLP202

CYXE;2010-09-30 15:00;CYXE 301500Z 18002KT 15SM BKN120 06/04 A3009 RMK AC6 SLP207

CYXE;2010-09-30 16:00;CYXE 301600Z 21003KT 15SM SCT120 10/05 A3007 RMK AC3 SLP203

CYXE;2010-09-30 17:00;CYXE 301700Z 00000KT 15SM FEW120 14/04 A3007 RMK AC1 SLP201

CYXE;2010-09-30 18:00;CYXE 301800Z 22003KT 15SM FEW120 17/05 A3005 RMK AC1 SLP190

CYXE;2010-09-30 19:00;CYXE 301900Z 25003KT 15SM SKC 18/04 A3004 RMK SLP187

CYXE;2010-09-30 20:00;CYXE 302000Z 27005KT 15SM FEW060 20/04 A3003 RMK CF1 SLP183

CYXE;2010-09-30 21:00;CYXE 302100Z 25006KT 15SM FEW060 21/05 A3001 RMK CU1 SLP173

CYXE;2010-09-30 22:00;CYXE 302200Z 01009KT 15SM BKN060 21/06 A3000 RMK SC5 SLP170

CYXE;2010-09-30 23:00;CYXE 302300Z 01007KT 15SM BKN071 18/06 A3002 RMK AC5 SLP178

CYXE;2010-10-01 01:00;CYXE 010100Z 34009KT 15SM FEW070 11/04 A3009 RMK AC2 SLP204

CYXE;2010-10-01 02:00;CYXE 010200Z 36010KT 15SM SKC 11/03 A3013 RMK SLP218

CYXE;2010-10-01 03:00;CYXE 010300Z 36011KT 15SM SKC 10/03 A3016 RMK SLP230

CYXE;2010-10-01 04:00;CYXE 010400Z 36009KT 15SM SKC 08/03 A3020 RMK SLP244

CYXE;2010-10-01 05:00;CYXE 010500Z 02009KT 15SM SKC 08/04 A3023 RMK SLP255

CYXE;2010-10-01 06:00;CYXE 010600Z 36006KT 15SM SKC 05/03 A3027 RMK SLP267

CYXE;2010-10-01 07:00;CYXE 010700Z 01006KT 15SM SKC 04/02 A3030 RMK SLP275

CYXE;2010-10-01 08:00;CYXE 010800Z 04007KT 15SM SKC 03/02 A3032 RMK SLP281

CYXE;2010-10-01 08:18;CYXE 010818Z 06005KT 15SM SKC 02/

CYXE;2010-10-01 09:00;CYXE 010900Z 04006KT 15SM SKC 02/01 A3033 RMK SLP286

CYXE;2010-10-01 10:00;CYXE 011000Z 05007KT 15SM SKC 02/02 A3035 RMK SLP292

CYXE;2010-10-01 11:00;CYXE 011100Z 05005KT 15SM SKC 02/02 A3037 RMK SLP297

CYXE;2010-10-01 12:00;CYXE 011200Z 00000KT 15SM SKC 01/01 A3039 RMK SLP310

CYXE;2010-10-01 13:00;CYXE 011300Z 04003KT 15SM MIFG SKC 02/02 A3041 RMK SLP315

CYXE;2010-10-01 13:08;CYXE 011308Z 02003KT 8SM R09/3000VP6000FT/U BCFG SKC 02/ RMK FG1 VIS 3/4 W

CYXE;2010-10-01 13:33;CYXE 011333Z 05002KT 8SM R09/3500VP6000FT/U BCFG FEW004 01/ RMK FG1SF0 VIS W 1

CYXE;2010-10-01 13:51;CYXE 011351Z 00000KT 2SM R09/2800VP6000FT/U BR FEW003 01/ RMK FG2SF0 VIS NE-S 1/4

CYXE;2010-10-01 14:00;CYXE 011400Z 00000KT 1/4SM R09/P6000FT/D FG SKC 01/01 A3042 RMK FG6 SLP320

CYXE;2010-10-01 15:00;CYXE 011500Z 06004KT 1/4SM R09/1200FT/N FG SKC 04/04 A3044 RMK FG6 SLP329

CYXE;2010-10-01 15:13;CYXE 011513Z 06003KT 1/2SM R09/2800FT/N FG SKC 05/ RMK FG2

CYXE;2010-10-01 15:25;CYXE 011525Z 08002KT 8SM R09/2400FT/D PRFG SKC 05/ RMK VIS W-NE 1/2

CYXE;2010-10-01 16:00;CYXE 011600Z 10002KT 15SM R09/2600V4000FT/N SKC 07/07 A3045 RMK SLP333

CYXE;2010-10-01 17:00;CYXE 011700Z 15008KT 15SM FEW300 12/06 A3046 RMK CI0 SLP335

CYXE;2010-10-01 18:00;CYXE 011800Z 15008KT 15SM FEW300 14/06 A3046 RMK CI0 SLP332

CYXE;2010-10-01 19:00;CYXE 011900Z 14008KT 15SM SCT300 14/06 A3045 RMK CI0 SLP329

CYXE;2010-10-01 21:00;CYXE 012100Z 15008KT 15SM SCT300 17/06 A3041 RMK CI1 SLP316

CYXE;2010-10-01 22:00;CYXE 012200Z 17008KT 15SM SCT320 17/05 A3040 RMK CI0 SLP313

CYXE;2010-10-01 23:00;CYXE 012300Z 16008KT 15SM SCT320 16/04 A3038 RMK CI0 SLP307

CYXE;2010-10-02 00:00;CYXE 020000Z 15010KT 15SM SCT320 14/03 A3037 RMK CI0 SLP303

CYXE;2010-10-02 01:00;CYXE 020100Z 14007KT 15SM FEW320 12/04 A3035 RMK CI0 SLP297

CYXE;2010-10-02 02:00;CYXE 020200Z 14009KT 15SM SKC 11/03 A3035 RMK SLP297

CYXE;2010-10-02 03:00;CYXE 020300Z 16010KT 15SM SKC 11/04 A3034 RMK SLP294

CYXE;2010-10-02 04:00;CYXE 020400Z 14011KT 15SM SKC 09/04 A3033 RMK SLP291

CYXE;2010-10-02 05:00;CYXE 020500Z 15010G15KT 15SM SKC 09/04 A3032 RMK SLP288

CYXE;2010-10-02 06:00;CYXE 020600Z 16011KT 15SM SKC 09/03 A3031 RMK SLP278

CYXE;2010-10-02 07:00;CYXE 020700Z 16010KT 15SM SKC 07/03 A3030 RMK SLP275

CYXE;2010-10-02 08:00;CYXE 020800Z 16008KT 15SM SKC 06/03 A3028 RMK SLP269

CYXE;2010-10-02 09:00;CYXE 020900Z 16007KT 15SM SKC 07/03 A3026 RMK SLP261

CYXE;2010-10-02 10:00;CYXE 021000Z 16009KT 15SM SKC 08/02 A3023 RMK SLP253

CYXE;2010-10-02 11:00;CYXE 021100Z 17012G19KT 15SM SKC 09/02 A3022 RMK SLP248

CYXE;2010-10-02 12:00;CYXE 021200Z 18014KT 15SM SKC 08/03 A3020 RMK SLP242

CYXE;2010-10-02 13:00;CYXE 021300Z 18014G21KT 15SM SKC 08/03 A3019 RMK SLP238

CYXE;2010-10-02 14:00;CYXE 021400Z 17015G20KT 15SM SKC 09/03 A3016 RMK SLP227

CYXE;2010-10-02 15:00;CYXE 021500Z 17019G25KT 15SM SKC 10/03 A3013 RMK SLP217

CYXE;2010-10-02 16:00;CYXE 021600Z 17016G21KT 15SM SKC 12/04 A3010 RMK SLP209

CYXE;2010-10-02 17:00;CYXE 021700Z 17014G21KT 15SM SKC 14/05 A3008 RMK SLP202

CYXE;2010-10-02 18:00;CYXE 021800Z 18015G20KT 15SM SKC 16/05 A3005 RMK SLP190

CYXE;2010-10-02 19:00;CYXE 021900Z 19013G19KT 15SM SKC 18/06 A3004 RMK SLP184

CYXE;2010-10-02 20:00;CYXE 022000Z 19017G22KT 15SM SKC 19/06 A3000 RMK SLP172

CYXE;2010-10-02 21:00;CYXE 022100Z 18017KT 15SM FEW300 20/06 A2997 RMK CI0 SLP161

CYXE;2010-10-02 22:00;CYXE 022200Z 19012G19KT 15SM FEW300 20/07 A2996 RMK CI1 SLP155

CYXE;2010-10-02 23:00;CYXE 022300Z 19012G19KT 15SM FEW300 20/07 A2994 RMK CI1 SLP149

CYXE;2010-10-03 00:00;CYXE 030000Z 17008G15KT 15SM SCT300 18/08 A2992 RMK CI1 SLP144

CYXE;2010-10-03 01:00;CYXE 030100Z 16007KT 15SM SCT250 16/07 A2991 RMK CI1 SLP139

CYXE;2010-10-03 02:00;CYXE 030200Z 15008KT 15SM SCT250 14/07 A2989 RMK CI1 SLP134

CYXE;2010-10-03 03:00;CYXE 030300Z 16008KT 15SM SKC 14/07 A2989 RMK SLP133

CYXE;2010-10-03 04:00;CYXE 030400Z 16007KT 15SM SKC 12/07 A2987 RMK SLP129

CYXE;2010-10-03 05:00;CYXE 030500Z 17007KT 15SM SKC 12/07 A2987 RMK SLP127

CYXE;2010-10-03 06:00;CYXE 030600Z 17006KT 15SM SKC 10/07 A2986 RMK SLP122

CYXE;2010-10-03 07:00;CYXE 030700Z 19007KT 15SM SKC 11/07 A2985 RMK SLP120

CYXE;2010-10-03 08:00;CYXE 030800Z 19007KT 15SM SKC 10/07 A2985 RMK SLP119

CYXE;2010-10-03 09:00;CYXE 030900Z 18006KT 15SM SKC 09/07 A2985 RMK SLP117

CYXE;2010-10-03 10:00;CYXE 031000Z 19005KT 15SM SKC 08/06 A2986 RMK SLP119

CYXE;2010-10-03 11:00;CYXE 031100Z 19002KT 15SM SKC 06/06 A2986 RMK SLP120

CYXE;2010-10-03 12:00;CYXE 031200Z 20003KT 15SM SKC 06/06 A2987 RMK SLP126

CYXE;2010-10-03 13:00;CYXE 031300Z 00000KT 15SM SCT300 06/05 A2987 RMK CI0 BR PTCHS SLP128

CYXE;2010-10-03 14:00;CYXE 031400Z 13002KT 15SM FEW300 06/06 A2987 RMK CI0 SLP128

CYXE;2010-10-03 15:00;CYXE 031500Z 10002KT 15SM SKC 10/07 A2989 RMK SLP133

CYXE;2010-10-03 16:00;CYXE 031600Z 09005KT 15SM SKC 12/08 A2989 RMK SLP134

CYXE;2010-10-03 17:00;CYXE 031700Z 11005KT 15SM SKC 15/09 A2989 RMK SLP134

CYXE;2010-10-03 18:00;CYXE 031800Z 17004KT 15SM SKC 18/10 A2988 RMK SLP128

CYXE;2010-10-03 19:00;CYXE 031900Z 00000KT 15SM SKC 19/11 A2988 RMK SLP128

CYXE;2010-10-03 20:00;CYXE 032000Z 13002KT 15SM SKC 21/11 A2987 RMK SLP125

CYXE;2010-10-03 21:00;CYXE 032100Z 06003KT 15SM FEW280 21/11 A2986 RMK CI0 SLP121

CYXE;2010-10-03 22:00;CYXE 032200Z 09003KT 15SM FEW280 22/11 A2986 RMK CI0 SLP121

CYXE;2010-10-03 23:00;CYXE 032300Z 03005KT 15SM FEW120 FEW280 21/11 A2986 RMK AC1CI0 SLP119

CYXE;2010-10-04 00:00;CYXE 040000Z 04005KT 15SM FEW120 BKN280 18/12 A2986 RMK AC2CI1 SLP122

CYXE;2010-10-04 01:00;CYXE 040100Z 08006KT 15SM SCT120 BKN280 15/11 A2985 RMK AC3CI1 SLP119

CYXE;2010-10-04 02:00;CYXE 040200Z 05004KT 15SM OVC110 14/11 A2987 RMK AC6 SLP125

CYXE;2010-10-04 03:00;CYXE 040300Z 07004KT 15SM FEW110 13/10 A2986 RMK AC2 SLP125

CYXE;2010-10-04 04:00;CYXE 040400Z 08004KT 15SM SKC 13/10 A2987 RMK SLP127

CYXE;2010-10-04 05:00;CYXE 040500Z 05006KT 15SM FEW250 10/09 A2988 RMK CI0 SLP131

CYXE;2010-10-04 06:00;CYXE 040600Z 04007KT 15SM SCT300 10/09 A2989 RMK CI0 SLP131

CYXE;2010-10-04 07:00;CYXE 040700Z 10007KT 15SM SCT300 10/09 A2987 RMK CI1 SLP126

CYXE;2010-10-04 08:00;CYXE 040800Z 08005KT 15SM BKN300 09/09 A2987 RMK CI1 SLP123

CYXE;2010-10-04 09:00;CYXE 040900Z 06005KT 15SM SCT300 08/08 A2986 RMK CI0 SLP121

CYXE;2010-10-04 10:00;CYXE 041000Z 05006KT 15SM FEW300 07/07 A2986 RMK CI1 SLP119

CYXE;2010-10-04 11:00;CYXE 041100Z 06009KT 15SM BKN140 09/09 A2986 RMK AC5 SLP119

CYXE;2010-10-04 12:00;CYXE 041200Z 06009KT 15SM BKN140 10/09 A2986 RMK AC6 SLP120

CYXE;2010-10-04 13:00;CYXE 041300Z 07009KT 15SM BKN140 09/09 A2985 RMK AC6 SLP119

CYXE;2010-10-04 14:00;CYXE 041400Z 05010KT 15SM BKN140 10/09 A2985 RMK AC6 SLP118

CYXE;2010-10-04 15:00;CYXE 041500Z 08010KT 15SM FEW140 BKN280 11/10 A2984 RMK AC2CI1 SLP117

CYXE;2010-10-04 16:00;CYXE 041600Z 09011KT 15SM FEW140 FEW280 14/10 A2984 RMK AC1CI1 SLP116

CYXE;2010-10-04 17:00;CYXE 041700Z 10010KT 15SM FEW300 17/10 A2982 RMK CI1 SLP111

CYXE;2010-10-04 18:00;CYXE 041800Z 10011KT 15SM FEW140 FEW300 19/10 A2981 RMK AC1CI1 SLP103

CYXE;2010-10-04 19:00;CYXE 041900Z 10014KT 15SM BKN110 BKN300 20/11 A2977 RMK AC5CI1 SLP091

CYXE;2010-10-04 20:00;CYXE 042000Z 10013G18KT 15SM BKN110 BKN300 22/12 A2975 RMK AC5CI1 SLP085

CYXE;2010-10-04 21:00;CYXE 042100Z CCA 12012G17KT 15SM BKN110 BKN300 21/11 A2976 RMK AC6CI1 SLP085

CYXE;2010-10-04 22:00;CYXE 042200Z 08012KT 15SM BKN110 BKN300 20/12 A2975 RMK AC6CI1 SLP083

CYXE;2010-10-04 23:00;CYXE 042300Z CCA 07010KT 15SM BKN110 BKN300 19/12 A2973 RMK AC6CI1 SLP077

CYXE;2010-10-05 00:00;CYXE 050000Z 08009KT 15SM BKN110 19/12 A2973 RMK AC6 SLP077

CYXE;2010-10-05 01:00;CYXE 050100Z 08008KT 15SM BKN110 17/12 A2974 RMK AC5 SLP078

CYXE;2010-10-05 02:00;CYXE 050200Z 09007KT 15SM BKN110 16/11 A2973 RMK AC5 SLP077

CYXE;2010-10-05 03:00;CYXE 050300Z 10006KT 15SM BKN110 15/11 A2974 RMK AC5 SLP081

CYXE;2010-10-05 04:00;CYXE 050400Z 12003KT 15SM BKN110 14/11 A2974 RMK AC5 SLP081

CYXE;2010-10-05 05:00;CYXE 050500Z 18003KT 15SM SCT110 13/11 A2974 RMK AC3 SLP080

CYXE;2010-10-05 06:00;CYXE 050600Z 19004KT 15SM SCT100 12/10 A2975 RMK AC3 SLP082

CYXE;2010-10-05 07:00;CYXE 050700Z 24008KT 15SM FEW100 FEW250 10/09 A2976 RMK AC1CI0 SLP086

CYXE;2010-10-05 08:00;CYXE 050800Z 27005KT 15SM FEW110 FEW250 09/09 A2978 RMK AC1CI0 SLP091

CYXE;2010-10-05 09:00;CYXE 050900Z 30004KT 15SM SKC 08/08 A2978 RMK SLP093

CYXE;2010-10-05 10:00;CYXE 051000Z 27006KT 15SM SKC 07/07 A2981 RMK SLP102

CYXE;2010-10-05 11:00;CYXE 051100Z 26005KT 15SM FEW120 08/08 A2983 RMK AC2 SLP110

CYXE;2010-10-05 12:00;CYXE 051200Z 32008KT 12SM -SHRA SCT040 OVC090 10/10 A2984 RMK SC4AC4 CVCTV CLD EMBD SLP114

CYXE;2010-10-05 12:40;CYXE 051240Z 30010KT 15SM FEW025 SCT050 OVC100 10/ RMK SC2SC2AC3

CYXE;2010-10-05 13:00;CYXE 051300Z 31010KT 15SM SCT025 BKN050 OVC100 10/09 A2988 RMK SC3SC2AC2 SLP128

CYXE;2010-10-05 13:05;CYXE 051305Z 31010KT 15SM -SHRA FEW025 BKN070 OVC100 10/ RMK SC2AC4AC2 CVCTV CLD EMBD

CYXE;2010-10-05 14:00;CYXE 051400Z 31012G18KT 12SM -SHRA FEW015 BKN020 OVC070 09/09 A2993 RMK SC2SC3AC2 SLP143

CYXE;2010-10-05 15:00;CYXE 051500Z 32014G19KT 12SM -SHRA BKN020 OVC070 09/09 A2997 RMK SC5AC3 SLP161

CYXE;2010-10-05 15:20;CYXE 051520Z 31014G21KT 15SM SCT022 BKN040 OVC094 10/ RMK ST3SC2AC2

CYXE;2010-10-05 16:00;CYXE 051600Z 32013KT 15SM SCT013 BKN040 OVC094 10/09 A3000 RMK ST3SC2AC2 SLP171

CYXE;2010-10-05 17:00;CYXE 051700Z 31013G19KT 15SM SCT052 BKN085 11/09 A3004 RMK SC3AC4 SLP182

CYXE;2010-10-05 18:00;CYXE 051800Z 31017KT 15SM SCT052 BKN085 11/07 A3005 RMK SC3AC4 SLP191

CYXE;2010-10-05 19:00;CYXE 051900Z 30018G24KT 15SM FEW086 BKN280 13/07 A3008 RMK AC2CI2 SLP198

CYXE;2010-10-05 20:00;CYXE 052000Z 31017KT 15SM FEW086 SCT280 15/04 A3008 RMK AC2CI1 SLP199

CYXE;2010-10-05 21:00;CYXE 052100Z 30022G32KT 15SM FEW086 SCT280 16/M01 A3009 RMK AC2CI0 SLP202

CYXE;2010-10-05 22:00;CYXE 052200Z 30022G30KT 15SM FEW090 FEW280 15/M02 A3011 RMK AC1CI1 SLP208

CYXE;2010-10-05 23:00;CYXE 052300Z 31019G26KT 15SM SKC 14/M03 A3013 RMK SLP216

CYXE;2010-10-06 00:00;CYXE 060000Z 30015G20KT 15SM SKC 13/M04 A3015 RMK SLP225

CYXE;2010-10-06 01:00;CYXE 060100Z 28009KT 15SM SKC 10/M03 A3017 RMK SLP229

CYXE;2010-10-06 02:00;CYXE 060200Z 26007KT 15SM SKC 06/M01 A3018 RMK SLP232

CYXE;2010-10-06 03:00;CYXE 060300Z 25009KT 15SM SKC 04/M01 A3019 RMK SLP242

CYXE;2010-10-06 04:00;CYXE 060400Z 24007KT 15SM SKC 03/M00 A3021 RMK SLP248

CYXE;2010-10-06 05:00;CYXE 060500Z 22007KT 15SM SKC 03/M00 A3022 RMK SLP253

CYXE;2010-10-06 06:00;CYXE 060600Z 22008KT 15SM SKC 03/00 A3021 RMK SLP249

CYXE;2010-10-06 07:00;CYXE 060700Z 20007KT 15SM SKC 04/M00 A3020 RMK SLP247

CYXE;2010-10-06 08:00;CYXE 060800Z 22008KT 15SM SKC 04/01 A3019 RMK SLP242

CYXE;2010-10-06 09:00;CYXE 060900Z 22008KT 15SM SKC 04/02 A3018 RMK SLP236

CYXE;2010-10-06 10:00;CYXE 061000Z 21007KT 15SM SKC 04/02 A3017 RMK SLP232

CYXE;2010-10-06 11:00;CYXE 061100Z 21008KT 15SM SKC 05/02 A3015 RMK SLP227

CYXE;2010-10-06 12:00;CYXE 061200Z 22004KT 15SM FEW250 04/02 A3017 RMK CI1 SLP233

CYXE;2010-10-06 13:00;CYXE 061300Z 23007KT 15SM SCT250 04/03 A3016 RMK CI2 SLP230

CYXE;2010-10-06 14:00;CYXE 061400Z 22007KT 15SM BKN250 06/05 A3016 RMK CI2 SLP230

CYXE;2010-10-06 15:00;CYXE 061500Z 23008KT 15SM BKN300 08/06 A3017 RMK CI0 SLP238

CYXE;2010-10-06 16:00;CYXE 061600Z 23007KT 15SM BKN300 12/07 A3017 RMK CI2 SLP238

CYXE;2010-10-06 17:00;CYXE 061700Z 21009KT 15SM BKN300 14/07 A3016 RMK CI2 SLP234

CYXE;2010-10-06 18:00;CYXE 061800Z 22009KT 15SM OVC300 16/08 A3014 RMK CI2 SLP223

CYXE;2010-10-06 19:00;CYXE 061900Z 23008KT 15SM BKN300 19/08 A3014 RMK CI2 SLP223

CYXE;2010-10-06 20:00;CYXE 062000Z 25008KT 15SM BKN300 21/06 A3012 RMK CI2 SLP215

CYXE;2010-10-06 21:00;CYXE 062100Z 24009KT 15SM BKN300 22/06 A3011 RMK CI2 SLP207

CYXE;2010-10-06 22:00;CYXE 062200Z 23010KT 15SM SCT300 22/06 A3008 RMK CI2 SLP199

CYXE;2010-10-06 23:00;CYXE 062300Z 23007KT 15SM SCT300 21/06 A3006 RMK CI2 SLP192

CYXE;2010-10-07 00:00;CYXE 070000Z 23007KT 15SM BKN300 19/07 A3004 RMK CI0 SLP185

CYXE;2010-10-07 01:00;CYXE 070100Z 22008KT 15SM BKN300 14/07 A3002 RMK CI0 SLP179

CYXE;2010-10-07 02:00;CYXE 070200Z 19006KT 15SM FEW300 14/06 A3001 RMK CI0 SLP178

CYXE;2010-10-07 03:00;CYXE 070300Z 19006KT 15SM FEW300 13/05 A3001 RMK CI0 SLP176

CYXE;2010-10-07 04:00;CYXE 070400Z 19008KT 15SM SKC 12/05 A2999 RMK SLP171

CYXE;2010-10-07 05:00;CYXE 070500Z 19007KT 15SM SKC 11/05 A2999 RMK SLP170

CYXE;2010-10-07 06:00;CYXE 070600Z 19007KT 15SM SKC 09/05 A2998 RMK SLP163

CYXE;2010-10-07 07:00;CYXE 070700Z 20006KT 15SM SKC 08/05 A2996 RMK SLP157

CYXE;2010-10-07 08:00;CYXE 070800Z 20004KT 15SM SKC 08/06 A2995 RMK SLP155

CYXE;2010-10-07 09:00;CYXE 070900Z 19004KT 15SM SKC 08/06 A2994 RMK SLP147

CYXE;2010-10-07 10:00;CYXE 071000Z 19005KT 15SM SKC 07/06 A2992 RMK SLP141

CYXE;2010-10-07 11:00;CYXE 071100Z 19006KT 15SM SKC 08/07 A2991 RMK SLP138

CYXE;2010-10-07 12:00;CYXE 071200Z 19007KT 15SM SKC 08/07 A2989 RMK SLP133

CYXE;2010-10-07 13:00;CYXE 071300Z 19006KT 15SM SKC 08/07 A2988 RMK SLP129

CYXE;2010-10-07 14:00;CYXE 071400Z 18004KT 15SM SKC 07/07 A2987 RMK SLP127

CYXE;2010-10-07 15:00;CYXE 071500Z 20006KT 15SM SKC 10/09 A2987 RMK SLP127

CYXE;2010-10-07 16:00;CYXE 071600Z 20002KT 15SM SKC 13/09 A2986 RMK SLP125

CYXE;2010-10-07 17:00;CYXE 071700Z 23004KT 15SM SKC 15/11 A2985 RMK SLP121

CYXE;2010-10-07 18:00;CYXE 071800Z 23003KT 15SM SKC 18/11 A2984 RMK SLP116

CYXE;2010-10-07 19:00;CYXE 071900Z 19003KT 15SM SKC 20/12 A2983 RMK SLP110

CYXE;2010-10-07 20:00;CYXE 072000Z CCA 18002KT 15SM SKC 22/13 A2979 RMK SLP098

CYXE;2010-10-07 21:00;CYXE 072100Z 18002KT 15SM SKC 22/12 A2978 RMK SLP093

CYXE;2010-10-07 22:00;CYXE 072200Z 25003KT 15SM FEW300 23/12 A2978 RMK CI0 SLP091

CYXE;2010-10-07 23:00;CYXE 072300Z 35004KT 15SM FEW300 22/11 A2977 RMK CI0 SLP090

CYXE;2010-10-08 00:00;CYXE 080000Z 01002KT 15SM FEW300 20/11 A2977 RMK CI0 SLP089

CYXE;2010-10-08 01:00;CYXE 080100Z 04002KT 15SM FEW300 18/10 A2977 RMK CI0 SLP090

CYXE;2010-10-08 02:00;CYXE 080200Z 07004KT 15SM SKC 13/10 A2977 RMK SLP090

CYXE;2010-10-08 03:00;CYXE 080300Z 06004KT 15SM SKC 13/10 A2978 RMK SLP095

CYXE;2010-10-08 04:00;CYXE 080400Z 08004KT 15SM SKC 11/09 A2978 RMK SLP096

CYXE;2010-10-08 05:00;CYXE 080500Z 06005KT 15SM SKC 10/09 A2978 RMK SLP098

CYXE;2010-10-08 06:00;CYXE 080600Z 06006KT 15SM SKC 09/09 A2978 RMK SLP094

CYXE;2010-10-08 07:00;CYXE 080700Z 08006KT 15SM SKC 09/08 A2978 RMK SLP094

CYXE;2010-10-08 08:00;CYXE 080800Z 08007KT 15SM SKC 08/08 A2977 RMK SLP092

CYXE;2010-10-08 09:00;CYXE 080900Z 07005KT 15SM SKC 09/08 A2977 RMK SLP088

CYXE;2010-10-08 10:00;CYXE 081000Z 08005KT 15SM SKC 09/08 A2976 RMK SLP086

CYXE;2010-10-08 11:00;CYXE 081100Z 09004KT 15SM SKC 10/09 A2975 RMK SLP083

CYXE;2010-10-08 12:00;CYXE 081200Z 09002KT 15SM SKC 08/08 A2977 RMK SLP089

CYXE;2010-10-08 13:00;CYXE 081300Z 14004KT 15SM SCT300 08/08 A2977 RMK CI1 SLP091

CYXE;2010-10-08 14:00;CYXE 081400Z 13003KT 15SM FEW160 BKN300 10/09 A2978 RMK AC1CI1 SLP093

CYXE;2010-10-08 15:00;CYXE 081500Z 17005KT 15SM FEW160 BKN300 12/10 A2977 RMK AC0CI1 SLP093

CYXE;2010-10-08 16:00;CYXE 081600Z 21007KT 15SM FEW160 BKN300 14/11 A2978 RMK AC1CI1 SLP096

CYXE;2010-10-08 17:00;CYXE 081700Z 22007KT 15SM FEW160 SCT300 16/11 A2978 RMK AC1CI1 SLP097

CYXE;2010-10-08 18:00;CYXE 081800Z 23009KT 15SM SCT300 19/11 A2978 RMK CI1 SLP093

CYXE;2010-10-08 19:00;CYXE 081900Z 23010KT 15SM BKN300 21/10 A2979 RMK CI2 SLP096

CYXE;2010-10-08 20:00;CYXE 082000Z 24011KT 15SM BKN300 22/10 A2978 RMK CI2 SLP095

CYXE;2010-10-08 21:00;CYXE 082100Z 23012KT 15SM BKN300 23/10 A2978 RMK CI2 SLP092

CYXE;2010-10-08 22:00;CYXE 082200Z 23008KT 15SM OVC300 22/10 A2979 RMK CI2 SLP095

CYXE;2010-10-08 23:00;CYXE 082300Z 24007KT 15SM BKN300 22/10 A2980 RMK CI2 SLP099

CYXE;2010-10-09 00:00;CYXE 090000Z 23006KT 15SM BKN300 18/10 A2982 RMK CI2 SLP108

CYXE;2010-10-09 01:00;CYXE 090100Z 23006KT 15SM BKN300 16/10 A2984 RMK CI2 SLP115

CYXE;2010-10-09 02:00;CYXE 090200Z 27006KT 15SM BKN300 12/08 A2986 RMK CI1 SLP121

CYXE;2010-10-09 03:00;CYXE 090300Z 31007KT 15SM SCT300 13/09 A2987 RMK CI0 SLP128

CYXE;2010-10-09 04:00;CYXE 090400Z 31007KT 15SM SKC 12/10 A2989 RMK SLP134

CYXE;2010-10-09 05:00;CYXE 090500Z 31008KT 15SM SKC 12/10 A2991 RMK SLP138

CYXE;2010-10-09 06:00;CYXE 090600Z 30007KT 15SM SKC 11/10 A2993 RMK SLP145

CYXE;2010-10-09 07:00;CYXE 090700Z 31005KT 15SM SKC 09/09 A2995 RMK SLP151

CYXE;2010-10-09 08:00;CYXE 090800Z 31004KT 15SM FEW058 10/09 A2996 RMK SC2 SLP155

CYXE;2010-10-09 09:00;CYXE 090900Z 32005KT 14SM SCT056 08/08 A2998 RMK SC3 SLP159

CYXE;2010-10-09 10:00;CYXE 091000Z 31004KT 15SM FEW060 08/07 A2999 RMK SC1 SLP164

CYXE;2010-10-09 11:00;CYXE 091100Z 33008KT 15SM SKC 07/06 A3001 RMK SLP168

CYXE;2010-10-09 12:00;CYXE 091200Z 32002KT 15SM SKC 06/05 A3003 RMK SLP182

CYXE;2010-10-09 13:00;CYXE 091300Z 32003KT 15SM FEW300 05/05 A3004 RMK CI1 SLP184

CYXE;2010-10-09 14:00;CYXE 091400Z 31005KT 15SM BKN300 04/04 A3005 RMK CI0 SLP190

CYXE;2010-10-09 15:00;CYXE 091500Z 36004KT 15SM SCT300 09/07 A3006 RMK CI1 SLP194

CYXE;2010-10-09 16:00;CYXE 091600Z 35005KT 15SM SCT300 12/08 A3008 RMK CI0 SLP199

CYXE;2010-10-09 17:00;CYXE 091700Z 03007KT 15SM FEW300 15/09 A3008 RMK CI0 SLP199

CYXE;2010-10-09 18:00;CYXE 091800Z 06004KT 15SM FEW300 17/09 A3009 RMK CI0 SLP199

CYXE;2010-10-09 19:00;CYXE 091900Z 05002KT 15SM FEW300 18/09 A3007 RMK CI0 SLP195

CYXE;2010-10-09 20:00;CYXE 092000Z 07005KT 15SM FEW300 19/08 A3005 RMK CI0 SLP187

CYXE;2010-10-09 21:00;CYXE 092100Z 01004KT 15SM FEW300 20/07 A3005 RMK CI1 SLP185

CYXE;2010-10-09 22:00;CYXE 092200Z 07002KT 15SM FEW300 20/06 A3004 RMK CI1 SLP183

CYXE;2010-10-09 23:00;CYXE 092300Z 05004KT 15SM FEW300 20/06 A3004 RMK CI1 SLP183

CYXE;2010-10-10 00:00;CYXE 100000Z 05002KT 15SM SCT300 17/06 A3005 RMK CI1 SLP189

CYXE;2010-10-10 01:00;CYXE 100100Z 10005KT 15SM SCT300 14/05 A3005 RMK CI1 SLP188

CYXE;2010-10-10 02:00;CYXE 100200Z 09003KT 15SM FEW300 14/06 A3005 RMK CI1 SLP191

CYXE;2010-10-10 03:00;CYXE 100300Z 11004KT 15SM SKC 11/05 A3005 RMK SLP192

CYXE;2010-10-10 04:00;CYXE 100400Z 12006KT 15SM SKC 10/05 A3005 RMK SLP191

CYXE;2010-10-10 05:00;CYXE 100500Z 16004KT 15SM SKC 11/07 A3005 RMK SLP191

CYXE;2010-10-10 06:00;CYXE 100600Z 17004KT 15SM SKC 10/08 A3004 RMK SLP183

CYXE;2010-10-10 07:00;CYXE 100700Z 16006KT 15SM SKC 10/08 A3003 RMK SLP180

CYXE;2010-10-10 08:00;CYXE 100800Z 17005KT 15SM SKC 09/08 A3002 RMK SLP177

CYXE;2010-10-10 09:00;CYXE 100900Z 16005KT 15SM SKC 08/08 A3001 RMK SLP174

CYXE;2010-10-10 10:00;CYXE 101000Z 16006KT 15SM SKC 09/08 A3000 RMK SLP169

CYXE;2010-10-10 11:00;CYXE 101100Z 17006KT 15SM SKC 10/09 A2998 RMK SLP163

CYXE;2010-10-10 12:00;CYXE 101200Z 16006KT 15SM SKC 09/09 A2998 RMK SLP162

CYXE;2010-10-10 13:00;CYXE 101300Z 18005KT 15SM SKC 08/08 A2996 RMK SLP157

CYXE;2010-10-10 14:00;CYXE 101400Z 17006KT 15SM FEW280 09/08 A2994 RMK CI0 SLP150

CYXE;2010-10-10 15:00;CYXE 101500Z 19006KT 15SM FEW280 11/09 A2993 RMK CI1 SLP150

CYXE;2010-10-10 16:00;CYXE 101600Z 19010KT 15SM FEW120 FEW280 14/09 A2992 RMK AC1CI1 SLP146

CYXE;2010-10-10 17:00;CYXE 101700Z 19010KT 15SM FEW120 16/09 A2991 RMK AC1 SLP143

CYXE;2010-10-10 18:00;CYXE 101800Z 19012KT 15SM FEW280 18/09 A2989 RMK CI1 SLP131

CYXE;2010-10-10 19:00;CYXE 101900Z 18012KT 15SM FEW280 20/09 A2987 RMK CI1 SLP123

CYXE;2010-10-10 20:00;CYXE 102000Z 19012KT 15SM SCT280 22/09 A2982 RMK CI2 SLP108

CYXE;2010-10-10 21:00;CYXE 102100Z 21009KT 15SM BKN280 22/10 A2979 RMK CI4 SLP097

CYXE;2010-10-10 22:00;CYXE 102200Z 21012G19KT 15SM FEW300 24/09 A2977 RMK CI2 SLP090

CYXE;2010-10-10 23:00;CYXE 102300Z 22009KT 15SM FEW300 23/09 A2976 RMK CI1 SLP086

CYXE;2010-10-11 00:00;CYXE 110000Z 20008KT 15SM SCT300 21/09 A2974 RMK CI1 SLP078

CYXE;2010-10-11 01:00;CYXE 110100Z 18006KT 15SM FEW300 17/09 A2973 RMK CI1 SLP075

CYXE;2010-10-11 02:00;CYXE 110200Z 17007KT 15SM SKC 16/09 A2971 RMK SLP069

CYXE;2010-10-11 03:00;CYXE 110300Z 18009KT 15SM SKC 15/09 A2969 RMK SLP066

CYXE;2010-10-11 04:00;CYXE 110400Z 18009KT 15SM SKC 15/09 A2968 RMK SLP061

CYXE;2010-10-11 05:00;CYXE 110500Z 18009KT 15SM SKC 14/09 A2966 RMK SLP056

CYXE;2010-10-11 06:00;CYXE 110600Z 20008KT 15SM SKC 14/09 A2966 RMK SLP050

CYXE;2010-10-11 07:00;CYXE 110700Z 21006KT 15SM SKC 12/09 A2966 RMK SLP049

CYXE;2010-10-11 08:00;CYXE 110800Z 32008KT 15SM BKN120 13/09 A2967 RMK AC6 SLP052

CYXE;2010-10-11 09:00;CYXE 110900Z 34014G21KT 15SM OVC120 14/08 A2973 RMK AC8 PRESRR SLP073

CYXE;2010-10-11 10:00;CYXE 111000Z 34021G28KT 15SM BKN088 15/07 A2977 RMK AC6 SLP085

CYXE;2010-10-11 11:00;CYXE 111100Z 35015G22KT 15SM SCT065 OVC088 14/07 A2983 RMK SC3AC5 SLP103

CYXE;2010-10-11 11:27;CYXE 111127Z 35016G24KT 15SM -SHRA BKN061 OVC081 14/ RMK SC6AC2

CYXE;2010-10-11 12:00;CYXE 111200Z 34014G22KT 15SM -SHRA OVC061 12/08 A2985 RMK SC8 SLP115

CYXE;2010-10-11 13:00;CYXE 111300Z 35011KT 15SM -SHRA OVC065 10/07 A2989 RMK SC8 SLP126

CYXE;2010-10-11 14:00;CYXE 111400Z 33011KT 15SM -SHRA BKN026 OVC038 08/07 A2993 RMK SC5SC3 SLP139

CYXE;2010-10-11 14:45;CYXE 111445Z 31005KT 15SM SCT026 OVC085 09/ RMK SC4AC4

CYXE;2010-10-11 15:00;CYXE 111500Z 30004KT 15SM FEW026 OVC098 09/07 A2994 RMK SC2AC6 SLP152

CYXE;2010-10-11 16:00;CYXE 111600Z 30008KT 15SM FEW026 OVC092 09/07 A2996 RMK SC2AS6 SLP158

CYXE;2010-10-11 17:00;CYXE 111700Z 29009KT 15SM SCT092 OVC300 10/07 A2997 RMK AC3CS5 SLP161

CYXE;2010-10-11 18:00;CYXE 111800Z 29009KT 15SM BKN088 OVC300 11/06 A2999 RMK AS5CS3 SLP166

CYXE;2010-10-11 19:00;CYXE 111900Z 31009KT 15SM SCT086 OVC300 11/04 A3000 RMK AS3CS5 SLP169

CYXE;2010-10-11 20:00;CYXE 112000Z 31007KT 15SM FEW086 BKN300 12/01 A2999 RMK AC2CS4 SLP167

CYXE;2010-10-11 21:00;CYXE 112100Z 31014KT 15SM FEW100 BKN300 13/M02 A2999 RMK AC2CI4 SLP166

CYXE;2010-10-11 22:00;CYXE 112200Z 30011G17KT 15SM FEW100 BKN300 12/M02 A3000 RMK AC2CI4 SLP168

CYXE;2010-10-11 23:00;CYXE 112300Z 29008KT 15SM SCT090 OVC300 12/M01 A3001 RMK AC3CI4 SLP171

CYXE;2010-10-12 00:00;CYXE 120000Z 27006KT 15SM FEW090 BKN300 10/M00 A3001 RMK AC1CI5 SLP175

CYXE;2010-10-12 01:00;CYXE 120100Z 27008KT 15SM BKN300 08/01 A3001 RMK CI1 SLP177

CYXE;2010-10-12 02:00;CYXE 120200Z 25007KT 15SM FEW300 05/00 A3003 RMK CI1 SLP181

CYXE;2010-10-12 03:00;CYXE 120300Z 26007KT 15SM SKC 03/M01 A3003 RMK SLP189

CYXE;2010-10-12 04:00;CYXE 120400Z 26008KT 15SM SKC 03/M01 A3003 RMK SLP190

CYXE;2010-10-12 05:00;CYXE 120500Z 25007KT 15SM SKC 03/M01 A3005 RMK SLP194

CYXE;2010-10-12 05:18;CYXE 120518Z 26007KT 15SM SKC 02/

CYXE;2010-10-12 06:00;CYXE 120600Z 25007KT 15SM SKC 01/M01 A3005 RMK SLP197

CYXE;2010-10-12 07:00;CYXE 120700Z 26008KT 15SM SKC 02/M01 A3007 RMK SLP203

CYXE;2010-10-12 07:06;CYXE 120706Z 26006KT 15SM SKC 02/

CYXE;2010-10-12 08:00;CYXE 120800Z 25007KT 15SM SKC 02/00 A3008 RMK SLP206

CYXE;2010-10-12 09:00;CYXE 120900Z 23006KT 15SM SKC 01/00 A3008 RMK SLP206

CYXE;2010-10-12 10:00;CYXE 121000Z 23006KT 15SM SKC 00/M01 A3009 RMK SLP208

CYXE;2010-10-12 11:00;CYXE 121100Z 22006KT 15SM SKC 00/M00 A3009 RMK SLP210

CYXE;2010-10-12 12:00;CYXE 121200Z 22007KT 15SM SKC M00/M01 A3010 RMK SLP213

CYXE;2010-10-12 13:00;CYXE 121300Z 23009KT 15SM SCT250 00/M01 A3010 RMK CI1 SLP213

CYXE;2010-10-12 14:00;CYXE 121400Z 22006KT 15SM SCT250 M00/M01 A3009 RMK CI1 SLP211

CYXE;2010-10-12 15:00;CYXE 121500Z 23010KT 15SM FEW140 FEW300 03/01 A3009 RMK AC1CI0 SLP215

CYXE;2010-10-12 16:00;CYXE 121600Z 26010KT 15SM FEW140 SCT300 05/03 A3011 RMK AC2CI2 SLP221

CYXE;2010-10-12 17:00;CYXE 121700Z 28006KT 15SM FEW140 SCT300 09/04 A3011 RMK AC2CI2 SLP220

CYXE;2010-10-12 18:00;CYXE 121800Z 28009KT 15SM SCT100 10/03 A3013 RMK AC3 SLP222

CYXE;2010-10-12 19:00;CYXE 121900Z 30013KT 15SM FEW100 BKN300 13/M00 A3013 RMK AC1CI2 SLP223

CYXE;2010-10-12 20:00;CYXE 122000Z 29015G21KT 15SM FEW056 FEW100 15/M01 A3013 RMK SC1AC1 SLP222

CYXE;2010-10-12 21:00;CYXE 122100Z 29019KT 15SM FEW070 FEW300 15/M02 A3012 RMK CU1CI1 SLP217

CYXE;2010-10-12 22:00;CYXE 122200Z 31014G25KT 15SM FEW070 15/M02 A3012 RMK AC1 SLP218

CYXE;2010-10-12 23:00;CYXE 122300Z 30017KT 15SM FEW300 14/M04 A3013 RMK CI0 SLP220

CYXE;2010-10-13 00:00;CYXE 130000Z 29008KT 15SM FEW300 12/M03 A3014 RMK CI0 SLP226

CYXE;2010-10-13 01:00;CYXE 130100Z 26007KT 15SM FEW300 07/M03 A3015 RMK CI1 SLP230

CYXE;2010-10-13 02:00;CYXE 130200Z 25008KT 15SM SKC 05/M01 A3016 RMK SLP234

CYXE;2010-10-13 03:00;CYXE 130300Z 25007KT 15SM SKC 04/M01 A3017 RMK SLP240

CYXE;2010-10-13 04:00;CYXE 130400Z 26007KT 15SM SKC 03/M01 A3017 RMK SLP241

CYXE;2010-10-13 05:00;CYXE 130500Z 24005KT 15SM SKC 01/M01 A3017 RMK SLP240

CYXE;2010-10-13 06:00;CYXE 130600Z 22006KT 15SM SKC 01/M02 A3018 RMK SLP239

CYXE;2010-10-13 07:00;CYXE 130700Z 25008KT 15SM SKC 01/M01 A3017 RMK SLP238

CYXE;2010-10-13 08:00;CYXE 130800Z 24008KT 15SM SKC 01/M01 A3018 RMK SLP239

CYXE;2010-10-13 09:00;CYXE 130900Z 16003KT 15SM SKC M00/M02 A3016 RMK SLP232

CYXE;2010-10-13 10:00;CYXE 131000Z 19003KT 15SM SKC 01/M02 A3015 RMK SLP228

CYXE;2010-10-13 11:00;CYXE 131100Z 18005KT 15SM SKC 01/M02 A3013 RMK SLP223

CYXE;2010-10-13 12:00;CYXE 131200Z 19006KT 15SM SKC 00/M03 A3013 RMK SLP224

CYXE;2010-10-13 13:00;CYXE 131300Z 19005KT 15SM SCT280 00/M02 A3012 RMK CI1 SLP221

CYXE;2010-10-13 14:00;CYXE 131400Z 19006KT 15SM FEW280 00/M02 A3012 RMK CI1 SLP219

CYXE;2010-10-13 15:00;CYXE 131500Z 21008KT 15SM BKN280 03/M00 A3011 RMK CI2 SLP219

CYXE;2010-10-13 16:00;CYXE 131600Z 22008KT 15SM BKN300 06/01 A3010 RMK CI1 SLP215

CYXE;2010-10-13 17:00;CYXE 131700Z 22011KT 15SM BKN300 10/02 A3008 RMK CI2 SLP210

CYXE;2010-10-13 18:00;CYXE 131800Z 24010KT 15SM BKN300 13/03 A3006 RMK CI2 SLP197

CYXE;2010-10-13 19:00;CYXE 131900Z 23012KT 15SM OVC300 15/02 A3004 RMK CI2 SLP192

CYXE;2010-10-13 20:00;CYXE 132000Z 25011G16KT 15SM OVC300 17/02 A3003 RMK CI3 SLP188

CYXE;2010-10-13 21:00;CYXE 132100Z 28009KT 15SM BKN300 18/M01 A3001 RMK CI3 SLP178

CYXE;2010-10-13 22:00;CYXE 132200Z 28010KT 15SM FEW140 BKN300 17/M00 A3001 RMK AC1CI2 SLP177

CYXE;2010-10-13 23:00;CYXE 132300Z 27006KT 15SM BKN300 16/01 A3000 RMK CI3 SLP174

CYXE;2010-10-14 00:00;CYXE 140000Z 25006KT 15SM SCT300 11/01 A2999 RMK CI2 SLP177

CYXE;2010-10-14 01:00;CYXE 140100Z 25005KT 15SM SKC 08/02 A3000 RMK SLP179

CYXE;2010-10-14 02:00;CYXE 140200Z 24008KT 15SM SKC 06/01 A3000 RMK SLP178

CYXE;2010-10-14 03:00;CYXE 140300Z 26007KT 15SM SKC 05/02 A3001 RMK SLP183

CYXE;2010-10-14 04:00;CYXE 140400Z 25007KT 15SM SKC 05/01 A3001 RMK SLP183

CYXE;2010-10-14 05:00;CYXE 140500Z 28007KT 15SM SKC 04/01 A3004 RMK SLP193

CYXE;2010-10-14 06:00;CYXE 140600Z 30007KT 15SM SKC 03/00 A3004 RMK SLP191

CYXE;2010-10-14 07:00;CYXE 140700Z 31006KT 15SM SKC 03/00 A3006 RMK SLP196

CYXE;2010-10-14 08:00;CYXE 140800Z 33006KT 15SM SKC 02/00 A3005 RMK SLP194

CYXE;2010-10-14 09:00;CYXE 140900Z 23002KT 15SM SKC 02/00 A3006 RMK SLP196

CYXE;2010-10-14 10:00;CYXE 141000Z 26006KT 15SM SKC 01/M00 A3008 RMK SLP202

CYXE;2010-10-14 11:00;CYXE 141100Z 00000KT 15SM SKC 01/M00 A3008 RMK SLP202

CYXE;2010-10-14 12:00;CYXE 141200Z 00000KT 15SM SKC 01/M01 A3009 RMK SLP208

CYXE;2010-10-14 13:00;CYXE 141300Z 08006KT 15SM BKN300 M00/M01 A3007 RMK CI0 SLP204

CYXE;2010-10-14 14:00;CYXE 141400Z 09006KT 15SM BKN300 00/M01 A3007 RMK CI2 SLP203

CYXE;2010-10-14 15:00;CYXE 141500Z 12004KT 15SM OVC300 05/03 A3007 RMK CI3 SLP205

CYXE;2010-10-14 16:00;CYXE 141600Z 12012KT 15SM BKN250 09/01 A3006 RMK CI6 SLP202

CYXE;2010-10-14 17:00;CYXE 141700Z 14009KT 15SM BKN250 10/02 A3006 RMK CI6 SLP201

CYXE;2010-10-14 18:00;CYXE 141800Z 15011KT 15SM BKN300 12/02 A3004 RMK CI5 SLP189

CYXE;2010-10-14 19:00;CYXE 141900Z 14012KT 15SM BKN300 13/03 A3000 RMK CI4 SLP176

CYXE;2010-10-14 20:00;CYXE 142000Z 15010G16KT 15SM SCT300 16/03 A2996 RMK CI2 SLP164

CYXE;2010-10-14 21:00;CYXE 142100Z 15015KT 15SM SCT300 17/03 A2993 RMK CI2 SLP151

CYXE;2010-10-14 22:00;CYXE 142200Z 14013KT 15SM FEW300 17/03 A2990 RMK CI1 SLP141

CYXE;2010-10-14 23:00;CYXE 142300Z 14009KT 15SM FEW300 16/04 A2987 RMK CI1 SLP133

CYXE;2010-10-15 00:00;CYXE 150000Z 14008KT 15SM FEW100 FEW300 14/04 A2984 RMK AC1CI0 SLP123

CYXE;2010-10-15 01:00;CYXE 150100Z 14010KT 15SM FEW100 FEW300 12/04 A2981 RMK AC1CI0 SLP113

CYXE;2010-10-15 02:00;CYXE 150200Z 14011KT 15SM FEW100 FEW300 11/04 A2979 RMK AC1CI0 SLP106

CYXE;2010-10-15 03:00;CYXE 150300Z 16009KT 15SM FEW300 10/04 A2977 RMK CI0 SLP097

CYXE;2010-10-15 04:00;CYXE 150400Z 17007KT 15SM FEW300 09/03 A2975 RMK CI0 SLP090

CYXE;2010-10-15 05:00;CYXE 150500Z 17006KT 15SM SCT300 07/02 A2973 RMK CI2 SLP085

CYXE;2010-10-15 06:00;CYXE 150600Z 19008KT 15SM SCT300 08/02 A2971 RMK CI2 SLP074

CYXE;2010-10-15 07:00;CYXE 150700Z 19007KT 15SM SCT300 07/02 A2969 RMK CI2 SLP067

CYXE;2010-10-15 08:00;CYXE 150800Z 18006KT 15SM SCT300 06/01 A2966 RMK CI2 SLP058

CYXE;2010-10-15 09:00;CYXE 150900Z 19007KT 15SM SCT300 05/01 A2963 RMK CI1 SLP047

CYXE;2010-10-15 10:00;CYXE 151000Z 19007KT 15SM SCT300 05/01 A2960 RMK CI1 SLP037

CYXE;2010-10-15 11:00;CYXE 151100Z 20006KT 15SM SCT300 04/01 A2958 RMK CI1 SLP030

CYXE;2010-10-15 12:00;CYXE 151200Z 20007KT 15SM SCT300 04/M00 A2956 RMK CI1 SLP022

CYXE;2010-10-15 13:00;CYXE 151300Z 22010KT 15SM SCT140 BKN300 05/M00 A2953 RMK AC2CI2 SLP015

CYXE;2010-10-15 14:00;CYXE 151400Z 24009KT 15SM SCT140 BKN300 04/00 A2953 RMK AC2CI2 SLP015

CYXE;2010-10-15 15:00;CYXE 151500Z 26009KT 15SM SCT140 BKN300 05/01 A2956 RMK AC2CI2 SLP026

CYXE;2010-10-15 16:00;CYXE 151600Z 30011G17KT 15SM SCT140 BKN300 06/01 A2959 RMK AC2CI2 SLP036

CYXE;2010-10-15 17:00;CYXE 151700Z 32013KT 15SM SKC 09/03 A2961 RMK SLP041

CYXE;2010-10-15 18:00;CYXE 151800Z 32015KT 15SM SKC 11/04 A2965 RMK SLP054

CYXE;2010-10-15 19:00;CYXE 151900Z 33017G25KT 15SM FEW140 13/M03 A2966 RMK AC1 SLP059

CYXE;2010-10-15 20:00;CYXE 152000Z 35016G21KT 15SM BKN140 BKN300 13/M04 A2969 RMK AC4CI1 SLP067

CYXE;2010-10-15 21:00;CYXE 152100Z 32021G28KT 15SM OVC041 11/M01 A2976 RMK SC8 SLP094

CYXE;2010-10-15 21:28;CYXE 152128Z 32018G26KT 15SM -SHRA OVC035 09/ RMK SC8 CVCTV CLD EMBD

CYXE;2010-10-15 22:00;CYXE 152200Z 31019G24KT 12SM -SHRA BKN025 OVC050 06/03 A2981 RMK SC6SC2 CVCTV CLD EMBD SLP110

CYXE;2010-10-15 22:40;CYXE 152240Z 26008KT 15SM BKN030 OVC080 07/ RMK SC6AC2

CYXE;2010-10-15 23:00;CYXE 152300Z 25010KT 15SM SCT035 BKN080 06/04 A2982 RMK SC3AC3 SLP114

CYXE;2010-10-16 00:00;CYXE 160000Z 27013G18KT 15SM BKN095 BKN250 07/03 A2985 RMK AC6CI1 SLP128

CYXE;2010-10-16 01:00;CYXE 160100Z 27012KT 15SM BKN100 06/02 A2988 RMK AC6 SLP137

CYXE;2010-10-16 02:00;CYXE 160200Z 26010KT 15SM SCT075 05/00 A2990 RMK AC3 SLP143

CYXE;2010-10-16 03:00;CYXE 160300Z 27014KT 15SM FEW075 05/M01 A2992 RMK AC2 SLP152

CYXE;2010-10-16 04:00;CYXE 160400Z 28013KT 15SM SKC 04/M02 A2995 RMK SLP161

CYXE;2010-10-16 05:00;CYXE 160500Z 28011KT 15SM SKC 04/M02 A2997 RMK SLP169

CYXE;2010-10-16 05:43;CYXE 160543Z 26008KT 15SM FEW140 02/ RMK AC1

CYXE;2010-10-16 06:00;CYXE 160600Z 25009KT 15SM FEW140 02/M02 A2999 RMK AC1 SLP175

CYXE;2010-10-16 07:00;CYXE 160700Z 26009KT 15SM SKC 02/M02 A3001 RMK SLP181

CYXE;2010-10-16 08:00;CYXE 160800Z 27009KT 15SM SKC 02/M02 A3003 RMK SLP186

CYXE;2010-10-16 09:00;CYXE 160900Z 27008KT 15SM SKC 01/M03 A3005 RMK SLP197

CYXE;2010-10-16 10:00;CYXE 161000Z 27008KT 15SM SKC 00/M03 A3007 RMK SLP204

CYXE;2010-10-16 11:00;CYXE 161100Z 25009KT 15SM SKC 00/M03 A3008 RMK SLP207

CYXE;2010-10-16 12:00;CYXE 161200Z 26010KT 15SM SKC M00/M03 A3009 RMK SLP213

CYXE;2010-10-16 13:00;CYXE 161300Z 27006KT 15SM SKC M02/M03 A3010 RMK SLP217

CYXE;2010-10-16 14:00;CYXE 161400Z 25008KT 15SM SKC M01/M03 A3012 RMK SLP222

CYXE;2010-10-16 15:00;CYXE 161500Z 27005KT 15SM SKC 01/M02 A3015 RMK SLP234

CYXE;2010-10-16 16:00;CYXE 161600Z 31012KT 15SM SKC 04/M01 A3016 RMK SLP236

CYXE;2010-10-16 17:00;CYXE 161700Z 31014KT 15SM SKC 06/M02 A3016 RMK SLP236

CYXE;2010-10-16 18:00;CYXE 161800Z 30012KT 15SM FEW300 08/M02 A3016 RMK CI1 SLP234

CYXE;2010-10-16 19:00;CYXE 161900Z 31011G16KT 15SM FEW300 09/M02 A3016 RMK CI1 SLP234

CYXE;2010-10-16 20:00;CYXE 162000Z 29014G19KT 15SM FEW300 10/M02 A3014 RMK CI1 SLP230

CYXE;2010-10-16 21:00;CYXE 162100Z 30009G15KT 15SM FEW300 10/M03 A3014 RMK CI1 SLP227

CYXE;2010-10-16 22:00;CYXE 162200Z 31010KT 15SM FEW052 SCT300 10/M03 A3013 RMK CU1CI1 SLP223

CYXE;2010-10-16 23:00;CYXE 162300Z 30009KT 15SM FEW070 BKN300 10/M04 A3012 RMK CU1CI1 SLP221

CYXE;2010-10-17 00:00;CYXE 170000Z 28005KT 15SM FEW065 OVC300 07/M03 A3012 RMK SC2CI2 SLP223

CYXE;2010-10-17 01:00;CYXE 170100Z 31003KT 15SM FEW065 SCT300 04/M02 A3012 RMK SC1CI1 SLP224

CYXE;2010-10-17 02:00;CYXE 170200Z 24005KT 15SM FEW065 FEW300 02/M03 A3012 RMK SC1CI0 SLP224

CYXE;2010-10-17 03:00;CYXE 170300Z 24006KT 15SM BKN300 01/M02 A3012 RMK CI2 SLP226

CYXE;2010-10-17 04:00;CYXE 170400Z 25005KT 15SM SCT300 01/M02 A3013 RMK CI2 SLP228

CYXE;2010-10-17 05:00;CYXE 170500Z 25005KT 15SM SCT300 M01/M03 A3014 RMK CI2 SLP231

CYXE;2010-10-17 06:00;CYXE 170600Z 26006KT 15SM BKN300 M01/M03 A3014 RMK CI2 SLP230

CYXE;2010-10-17 07:00;CYXE 170700Z 24004KT 15SM BKN300 M02/M03 A3014 RMK CI2 SLP229

CYXE;2010-10-17 08:00;CYXE 170800Z 21003KT 15SM BKN300 M01/M03 A3013 RMK CI2 SLP227

CYXE;2010-10-17 09:00;CYXE 170900Z 21004KT 15SM BKN300 M02/M04 A3014 RMK CI2 SLP228

CYXE;2010-10-17 10:00;CYXE 171000Z 24004KT 15SM SCT300 M02/M04 A3014 RMK CI1 SLP227

CYXE;2010-10-17 11:00;CYXE 171100Z 20004KT 15SM SCT300 M03/M05 A3014 RMK CI1 SLP227

CYXE;2010-10-17 12:00;CYXE 171200Z 20005KT 15SM SCT300 M04/M06 A3014 RMK CI1 SLP231

CYXE;2010-10-17 13:00;CYXE 171300Z 21004KT 15SM BKN300 M04/M05 A3014 RMK CI1 SLP231

CYXE;2010-10-17 14:00;CYXE 171400Z 20005KT 15SM OVC300 M04/M06 A3014 RMK CI2 SLP232

CYXE;2010-10-17 15:00;CYXE 171500Z 20004KT 15SM OVC300 M03/M05 A3014 RMK CI3 SLP235

CYXE;2010-10-17 16:00;CYXE 171600Z 21002KT 15SM OVC300 01/M03 A3014 RMK CI4 SLP237

CYXE;2010-10-17 17:00;CYXE 171700Z 19003KT 15SM BKN300 04/M02 A3014 RMK CI3 SLP235

CYXE;2010-10-17 18:00;CYXE 171800Z 23007KT 15SM FEW300 07/M02 A3013 RMK CI2 SLP228

CYXE;2010-10-17 19:00;CYXE 171900Z 22006KT 15SM FEW300 09/M03 A3012 RMK CI1 SLP223

CYXE;2010-10-17 20:00;CYXE 172000Z 21007KT 15SM FEW300 11/M04 A3009 RMK CI1 SLP216

CYXE;2010-10-17 21:00;CYXE 172100Z 22009KT 15SM FEW120 FEW300 12/M05 A3007 RMK AC1CI1 SLP204

CYXE;2010-10-17 22:00;CYXE 172200Z 24012KT 15SM FEW120 12/M04 A3005 RMK AC1 SLP199

CYXE;2010-10-17 23:00;CYXE 172300Z 24006KT 15SM FEW120 SCT300 11/M04 A3005 RMK AC1CI1 SLP196

CYXE;2010-10-18 00:00;CYXE 180000Z 22007KT 15SM FEW120 SCT300 07/M03 A3003 RMK AC1CI1 SLP194

CYXE;2010-10-18 01:00;CYXE 180100Z 23008KT 15SM FEW072 02/M03 A3002 RMK AC2 SLP192

CYXE;2010-10-18 02:00;CYXE 180200Z 25007KT 15SM SKC 02/M03 A3003 RMK SLP194

CYXE;2010-10-18 03:00;CYXE 180300Z 24009KT 15SM SKC 01/M03 A3003 RMK SLP199

CYXE;2010-10-18 04:00;CYXE 180400Z 26008KT 15SM SKC M00/M04 A3004 RMK SLP201

CYXE;2010-10-18 05:00;CYXE 180500Z 24007KT 15SM SKC M02/M04 A3004 RMK SLP202

CYXE;2010-10-18 06:00;CYXE 180600Z 25007KT 15SM SKC M02/M04 A3004 RMK SLP196

CYXE;2010-10-18 07:00;CYXE 180700Z 26008KT 15SM SKC M02/M04 A3004 RMK SLP196

CYXE;2010-10-18 08:00;CYXE 180800Z 26008KT 15SM SKC M02/M05 A3004 RMK SLP197

CYXE;2010-10-18 09:00;CYXE 180900Z 25007KT 15SM FEW300 M03/M05 A3005 RMK CI1 SLP197

CYXE;2010-10-18 10:00;CYXE 181000Z 26007KT 15SM SKC M03/M05 A3005 RMK SLP197

CYXE;2010-10-18 11:00;CYXE 181100Z 23006KT 15SM SKC M04/M05 A3005 RMK SLP199

CYXE;2010-10-18 12:00;CYXE 181200Z 22006KT 15SM SKC M04/M06 A3006 RMK SLP205

CYXE;2010-10-18 13:00;CYXE 181300Z 22006KT 15SM FEW300 M04/M06 A3006 RMK CI0 SLP204

CYXE;2010-10-18 14:00;CYXE 181400Z 21005KT 15SM BKN300 M04/M06 A3005 RMK CI2 SLP202

CYXE;2010-10-18 15:00;CYXE 181500Z 23007KT 15SM BKN300 M01/M04 A3005 RMK CI3 SLP202

CYXE;2010-10-18 16:00;CYXE 181600Z 24005KT 15SM OVC300 01/M03 A3004 RMK CI4 SLP200

CYXE;2010-10-18 17:00;CYXE 181700Z 23006KT 15SM FEW150 OVC300 06/M03 A3002 RMK AC2CI3 SLP195

CYXE;2010-10-18 18:00;CYXE 181800Z 24005KT 15SM FEW150 OVC300 08/M03 A3001 RMK AC2CI3 SLP186

CYXE;2010-10-18 19:00;CYXE 181900Z 23006KT 15SM BKN300 10/M03 A2999 RMK CI3 SLP180

CYXE;2010-10-18 20:00;CYXE 182000Z 24009KT 15SM SCT096 OVC300 13/M03 A2997 RMK AC3CI2 SLP173

CYXE;2010-10-18 21:00;CYXE 182100Z 23010KT 15SM SCT096 BKN300 13/M04 A2994 RMK AC2CI2 SLP160

CYXE;2010-10-18 22:00;CYXE 182200Z 24008KT 15SM FEW140 SCT300 13/M03 A2992 RMK AC2CI1 SLP152

CYXE;2010-10-18 23:00;CYXE 182300Z 22006KT 15SM FEW120 FEW300 12/M03 A2991 RMK AC1CI1 SLP148

CYXE;2010-10-19 00:00;CYXE 190000Z 20006KT 15SM FEW120 FEW300 09/M04 A2989 RMK AC1CI1 SLP146

CYXE;2010-10-19 01:00;CYXE 190100Z 21007KT 15SM FEW120 SCT300 07/M04 A2989 RMK AC1CI1 SLP145

CYXE;2010-10-19 02:00;CYXE 190200Z 22008KT 15SM FEW110 SCT300 04/M03 A2987 RMK AC2CI1 SLP139

CYXE;2010-10-19 03:00;CYXE 190300Z 23006KT 15SM BKN100 05/M03 A2986 RMK AC6 SLP135

CYXE;2010-10-19 04:00;CYXE 190400Z 23007KT 15SM FEW100 FEW300 03/M03 A2985 RMK AC1CI0 SLP132

CYXE;2010-10-19 05:00;CYXE 190500Z 23008KT 15SM FEW110 SCT300 03/M03 A2984 RMK AC2CI1 SLP129

CYXE;2010-10-19 06:00;CYXE 190600Z 23007KT 15SM BKN180 BKN300 03/M03 A2983 RMK AC3CI1 SLP121

CYXE;2010-10-19 07:00;CYXE 190700Z 22007KT 15SM FEW150 OVC300 00/M04 A2983 RMK AC2CI1 SLP119

CYXE;2010-10-19 08:00;CYXE 190800Z 22006KT 15SM BKN120 OVC300 02/M03 A2981 RMK AC5CI2 SLP115

CYXE;2010-10-19 09:00;CYXE 190900Z 24007KT 15SM BKN120 OVC300 02/M02 A2981 RMK AC4CI2 SLP112

CYXE;2010-10-19 10:00;CYXE 191000Z 25007KT 15SM SCT120 OVC300 02/M02 A2980 RMK AC3CI2 SLP109

CYXE;2010-10-19 11:00;CYXE 191100Z 25006KT 15SM FEW120 OVC300 03/M02 A2981 RMK AC2CI4 SLP111

CYXE;2010-10-19 12:00;CYXE 191200Z 27008KT 15SM SCT300 02/M02 A2982 RMK CI0 SLP116

CYXE;2010-10-19 13:00;CYXE 191300Z 27008KT 15SM BKN300 03/M02 A2983 RMK CI3 SLP119

CYXE;2010-10-19 14:00;CYXE 191400Z 26008KT 15SM BKN300 03/M02 A2983 RMK CI2 SLP121

CYXE;2010-10-19 15:00;CYXE 191500Z 26007KT 15SM FEW300 05/M00 A2985 RMK CI1 SLP128

CYXE;2010-10-19 16:00;CYXE 191600Z 29009KT 15SM SCT300 09/01 A2984 RMK CI2 SLP126

CYXE;2010-10-19 17:00;CYXE 191700Z 30011KT 15SM SCT300 12/02 A2985 RMK CI2 SLP127

CYXE;2010-10-19 18:00;CYXE 191800Z 30012KT 15SM FEW300 13/02 A2984 RMK CI1 SLP122

CYXE;2010-10-19 19:00;CYXE 191900Z 31014KT 15SM FEW300 15/01 A2983 RMK CI1 SLP117

CYXE;2010-10-19 20:00;CYXE 192000Z 31016G21KT 15SM FEW300 16/01 A2982 RMK CI1 CONTRAILS SLP112

CYXE;2010-10-19 21:00;CYXE 192100Z 31015KT 15SM FEW120 SCT300 17/02 A2980 RMK AC2CI1 SLP105

CYXE;2010-10-19 22:00;CYXE 192200Z 30015G21KT 15SM FEW058 SCT140 BKN300 16/02 A2979 RMK CU1AC3CI0 SLP102

CYXE;2010-10-19 23:00;CYXE 192300Z 33008KT 15SM FEW140 13/02 A2979 RMK AC2 SLP103

CYXE;2010-10-20 00:00;CYXE 200000Z 32007KT 15SM SCT089 09/02 A2978 RMK AC3 SLP104

CYXE;2010-10-20 01:00;CYXE 200100Z 30007KT 15SM BKN081 08/02 A2978 RMK AC6 SLP104

CYXE;2010-10-20 02:00;CYXE 200200Z 28007KT 15SM BKN079 09/02 A2978 RMK AC6 SLP104

CYXE;2010-10-20 03:00;CYXE 200300Z 28008KT 15SM FEW099 07/02 A2978 RMK AC2 SLP104

CYXE;2010-10-20 04:00;CYXE 200400Z 27007KT 15SM SKC 04/01 A2979 RMK SLP106

CYXE;2010-10-20 05:00;CYXE 200500Z 30008KT 15SM SKC 06/02 A2981 RMK SLP111

CYXE;2010-10-20 06:00;CYXE 200600Z 30008KT 15SM BKN140 06/02 A2983 RMK AC6 SLP114

CYXE;2010-10-20 07:00;CYXE 200700Z 30008KT 15SM FEW140 04/01 A2984 RMK AC2 SLP119

CYXE;2010-10-20 08:00;CYXE 200800Z 30009KT 15SM FEW140 03/00 A2986 RMK AC1 SLP126

CYXE;2010-10-20 09:00;CYXE 200900Z 32009KT 15SM SKC 02/M01 A2989 RMK SLP137

CYXE;2010-10-20 10:00;CYXE 201000Z 31009KT 15SM FEW300 01/M02 A2991 RMK CI1 SLP143

CYXE;2010-10-20 11:00;CYXE 201100Z 31009KT 15SM FEW300 01/M03 A2993 RMK CI1 SLP150

CYXE;2010-10-20 12:00;CYXE 201200Z 32009KT 15SM FEW300 00/M04 A2995 RMK CI1 SLP162

CYXE;2010-10-20 13:00;CYXE 201300Z 28004KT 15SM SCT300 M02/M05 A2997 RMK CI1 SLP169

CYXE;2010-10-20 14:00;CYXE 201400Z 29008KT 15SM BKN300 M02/M05 A2997 RMK CI1 SLP171

CYXE;2010-10-20 15:00;CYXE 201500Z 32008KT 15SM SCT300 01/M04 A3000 RMK CI1 SLP180

CYXE;2010-10-20 16:00;CYXE 201600Z 31008KT 15SM FEW120 SCT300 03/M04 A3001 RMK AC1CI1 SLP185

CYXE;2010-10-20 17:00;CYXE 201700Z 33007KT 15SM FEW120 SCT300 06/M03 A3001 RMK AC1CI1 SLP186

CYXE;2010-10-20 18:00;CYXE 201800Z 30008KT 15SM FEW120 SCT300 09/M04 A3003 RMK AC2CI0 SLP186

CYXE;2010-10-20 19:00;CYXE 201900Z 31013KT 15SM FEW120 SCT300 09/M05 A3001 RMK AC1CI1 SLP182

CYXE;2010-10-20 20:00;CYXE 202000Z 32011G16KT 15SM FEW120 SCT300 10/M05 A3001 RMK AC1CI1 SLP179

CYXE;2010-10-20 21:00;CYXE 202100Z 30010G17KT 15SM FEW120 BKN300 10/M05 A3001 RMK AC1CI3 SLP180

CYXE;2010-10-20 22:00;CYXE 202200Z 30009KT 15SM FEW120 BKN300 10/M05 A3000 RMK AC1CI2 SLP179

CYXE;2010-10-20 23:00;CYXE 202300Z 28008KT 15SM FEW120 SCT300 10/M06 A3000 RMK AC1CI1 SLP178

CYXE;2010-10-21 00:00;CYXE 210000Z 27006KT 15SM FEW120 BKN300 06/M05 A2999 RMK AC1CI2 SLP180

CYXE;2010-10-21 01:00;CYXE 210100Z 31006KT 15SM FEW120 SCT300 04/M06 A2999 RMK AC1CI1 SLP180

CYXE;2010-10-21 02:00;CYXE 210200Z 24004KT 15SM FEW120 SCT300 02/M04 A2999 RMK AC1CI1 SLP180

CYXE;2010-10-21 03:00;CYXE 210300Z 23004KT 15SM FEW120 BKN300 03/M05 A3000 RMK AC1CI2 SLP183

CYXE;2010-10-21 04:00;CYXE 210400Z 19004KT 15SM BKN065 OVC095 03/M05 A3000 RMK SC5AC2 SLP183

CYXE;2010-10-21 05:00;CYXE 210500Z 14003KT 15SM OVC060 03/M03 A2999 RMK SC8 SLP180

CYXE;2010-10-21 06:00;CYXE 210600Z 12003KT 15SM BKN060 04/M02 A2997 RMK SC6 SLP168

CYXE;2010-10-21 07:00;CYXE 210700Z 19004KT 15SM BKN060 BKN080 04/M03 A2996 RMK SC5AC2 SLP164

CYXE;2010-10-21 08:00;CYXE 210800Z 15003KT 15SM SCT060 BKN090 04/M03 A2995 RMK SC3AC3 SLP162

CYXE;2010-10-21 09:00;CYXE 210900Z 16004KT 15SM SCT060 BKN090 04/M03 A2995 RMK SC3AC3 SLP159

CYXE;2010-10-21 10:00;CYXE 211000Z 16004KT 15SM FEW060 BKN100 04/M03 A2992 RMK SC2AC5 SLP151

CYXE;2010-10-21 11:00;CYXE 211100Z 15004KT 15SM SCT100 03/M03 A2990 RMK AC3 SLP145

CYXE;2010-10-21 12:00;CYXE 211200Z 17007KT 15SM FEW100 FEW300 02/M04 A2989 RMK AC1CI0 SLP142

CYXE;2010-10-21 13:00;CYXE 211300Z 13004KT 15SM FEW100 FEW300 01/M04 A2987 RMK AC1CI0 SLP136

CYXE;2010-10-21 14:00;CYXE 211400Z 12007KT 15SM FEW100 SCT300 01/M04 A2985 RMK AC1CI0 SLP131

CYXE;2010-10-21 15:00;CYXE 211500Z 16007KT 15SM FEW100 SCT300 04/M04 A2983 RMK AC1CI1 SLP125

CYXE;2010-10-21 16:00;CYXE 211600Z 17012KT 15SM FEW300 07/M04 A2980 RMK CI1 SLP114

CYXE;2010-10-21 17:00;CYXE 211700Z 18008KT 15SM FEW300 10/M03 A2978 RMK CI1 SLP109

CYXE;2010-10-21 18:00;CYXE 211800Z 20007KT 15SM FEW300 11/M03 A2977 RMK CI1 SLP098

CYXE;2010-10-21 19:00;CYXE 211900Z 19004KT 15SM FEW300 13/M01 A2975 RMK CI1 SLP092

CYXE;2010-10-21 20:00;CYXE 212000Z 19003KT 15SM FEW300 14/M00 A2972 RMK CI1 SLP083

CYXE;2010-10-21 21:00;CYXE 212100Z 18003KT 15SM SKC 15/00 A2970 RMK SLP073

CYXE;2010-10-21 22:00;CYXE 212200Z 26008KT 15SM SKC 16/02 A2971 RMK SLP075

CYXE;2010-10-21 23:00;CYXE 212300Z 24005KT 15SM SKC 15/02 A2970 RMK SLP073

CYXE;2010-10-22 00:00;CYXE 220000Z 26002KT 15SM SKC 13/02 A2970 RMK SLP073

CYXE;2010-10-22 01:00;CYXE 220100Z 26002KT 15SM SKC 10/02 A2971 RMK SLP078

CYXE;2010-10-22 02:00;CYXE 220200Z 26002KT 15SM SKC 07/02 A2972 RMK SLP080

CYXE;2010-10-22 03:00;CYXE 220300Z 32006KT 15SM SKC 05/02 A2973 RMK SLP086

CYXE;2010-10-22 04:00;CYXE 220400Z 29006KT 15SM SKC 04/01 A2974 RMK SLP091

CYXE;2010-10-22 05:00;CYXE 220500Z 31006KT 15SM SKC 04/01 A2976 RMK SLP097

CYXE;2010-10-22 06:00;CYXE 220600Z 32008KT 15SM SKC 03/00 A2977 RMK SLP099

CYXE;2010-10-22 07:00;CYXE 220700Z 27004KT 15SM SKC 01/M01 A2978 RMK SLP103

CYXE;2010-10-22 08:00;CYXE 220800Z 30004KT 15SM SKC 01/M01 A2981 RMK SLP110

CYXE;2010-10-22 09:00;CYXE 220900Z 32005KT 15SM SKC 01/M01 A2982 RMK SLP113

CYXE;2010-10-22 10:00;CYXE 221000Z 35003KT 15SM SKC 00/M01 A2985 RMK SLP124

CYXE;2010-10-22 11:00;CYXE 221100Z 02006KT 15SM SKC M00/M02 A2985 RMK SLP123

CYXE;2010-10-22 12:00;CYXE 221200Z 02006KT 15SM SKC 00/M02 A2987 RMK SLP135

CYXE;2010-10-22 13:00;CYXE 221300Z 03007KT 15SM SKC M00/M02 A2990 RMK SLP142

CYXE;2010-10-22 14:00;CYXE 221400Z CCA 05004KT 15SM SCT100 M00/M01 A2991 RMK AC3 SLP147

CYXE;2010-10-22 15:00;CYXE 221500Z 04006KT 15SM BKN100 02/00 A2994 RMK AC6 SLP160

CYXE;2010-10-22 16:00;CYXE 221600Z 05008KT 15SM FEW100 BKN300 03/01 A2995 RMK AC2CI1 SLP164

CYXE;2010-10-22 17:00;CYXE 221700Z 06011KT 15SM BKN120 BKN300 05/01 A2995 RMK AC6CI0 SLP165

CYXE;2010-10-22 18:00;CYXE 221800Z 06010KT 15SM FEW015 BKN110 OVC300 05/01 A2996 RMK SC1AC6CI0 SLP167

CYXE;2010-10-22 19:00;CYXE 221900Z 05009KT 15SM OVC110 05/01 A2996 RMK AC7 SLP166

CYXE;2010-10-22 20:00;CYXE 222000Z 06007KT 15SM OVC110 06/01 A2994 RMK AC7 SLP160

CYXE;2010-10-22 21:00;CYXE 222100Z 07009KT 15SM BKN110 OVC300 06/01 A2992 RMK AC6CI1 SLP155

CYXE;2010-10-22 22:00;CYXE 222200Z 06010KT 15SM BKN110 OVC300 07/01 A2991 RMK AC5CI1 SLP151

CYXE;2010-10-22 23:00;CYXE 222300Z 07007KT 15SM BKN110 OVC300 06/00 A2992 RMK AC5CI2 SLP153

CYXE;2010-10-23 00:00;CYXE 230000Z 07007KT 15SM SCT110 OVC300 06/00 A2991 RMK AC4CI2 SLP152

CYXE;2010-10-23 01:00;CYXE 230100Z 08010KT 15SM SCT110 BKN300 04/00 A2991 RMK AC4CI1 SLP151

CYXE;2010-10-23 02:00;CYXE 230200Z 10008KT 15SM OVC110 04/01 A2992 RMK AC6 SLP153

CYXE;2010-10-23 03:00;CYXE 230300Z 10009KT 15SM BKN100 04/01 A2991 RMK AC6 SLP151

CYXE;2010-10-23 04:00;CYXE 230400Z 11010KT 15SM BKN110 04/00 A2991 RMK AC6 SLP152

CYXE;2010-10-23 05:00;CYXE 230500Z 09009KT 15SM BKN110 04/01 A2990 RMK AC6 SLP147

CYXE;2010-10-23 06:00;CYXE 230600Z 10008KT 15SM BKN097 04/01 A2988 RMK AC6 SLP141

CYXE;2010-10-23 07:00;CYXE 230700Z 11008KT 15SM BKN080 04/01 A2987 RMK AC6 SLP137

CYXE;2010-10-23 08:00;CYXE 230800Z 11009KT 15SM SCT080 04/01 A2985 RMK AC3 SLP130

CYXE;2010-10-23 09:00;CYXE 230900Z 10009KT 15SM SCT083 03/01 A2984 RMK AC3 SLP124

CYXE;2010-10-23 10:00;CYXE 231000Z 11010KT 15SM SCT100 04/01 A2981 RMK AC4 SLP114

CYXE;2010-10-23 11:00;CYXE 231100Z 11008KT 15SM SCT100 BKN300 04/01 A2980 RMK AC3CI1 SLP113

CYXE;2010-10-23 12:00;CYXE 231200Z 12005KT 15SM SCT100 BKN300 03/01 A2979 RMK AC3CI1 SLP108

CYXE;2010-10-23 13:00;CYXE 231300Z 12005KT 15SM SCT085 BKN300 02/00 A2979 RMK AC3CI1 SLP108

CYXE;2010-10-23 14:00;CYXE 231400Z 12007KT 15SM FEW085 BKN300 01/00 A2978 RMK AC2CI1 SLP105

CYXE;2010-10-23 15:00;CYXE 231500Z 12003KT 15SM FEW120 BKN300 02/01 A2978 RMK AC2CI2 CVCTV CLD EMBD N SLP106

CYXE;2010-10-23 16:00;CYXE 231600Z 19008KT 15SM SCT120 BKN300 06/01 A2978 RMK AC2CI2 SLP108

CYXE;2010-10-23 17:00;CYXE 231700Z 18004KT 15SM FEW120 BKN300 07/02 A2978 RMK AC1CI2 SLP106

CYXE;2010-10-23 18:00;CYXE 231800Z 20002KT 15SM FEW120 SCT300 09/02 A2978 RMK AC2CI1 SLP101

CYXE;2010-10-23 19:00;CYXE 231900Z 30006KT 15SM FEW120 BKN300 09/03 A2978 RMK AC1CI2 SLP101

CYXE;2010-10-23 20:00;CYXE 232000Z 32004KT 15SM BKN300 10/03 A2978 RMK CI2 SLP101

CYXE;2010-10-23 21:00;CYXE 232100Z 02005KT 15SM SCT300 10/03 A2977 RMK CI2 SLP100

CYXE;2010-10-23 22:00;CYXE 232200Z 04007KT 15SM SCT300 10/03 A2978 RMK CI2 SLP101

CYXE;2010-10-23 23:00;CYXE 232300Z 03008KT 15SM FEW300 09/03 A2978 RMK CI1 SLP104

CYXE;2010-10-24 00:00;CYXE 240000Z 02009KT 15SM FEW300 06/03 A2979 RMK CI1 SLP109

CYXE;2010-10-24 01:00;CYXE 240100Z 01010KT 15SM FEW300 03/02 A2981 RMK CI0 SLP115

CYXE;2010-10-24 02:00;CYXE 240200Z 03009KT 15SM SKC 03/02 A2981 RMK SLP115

CYXE;2010-10-24 02:52;CYXE 240252Z 03010KT 15SM SCT020 02/ RMK SF2

CYXE;2010-10-24 03:00;CYXE 240300Z 03010KT 15SM BKN020 02/01 A2982 RMK SF2 SLP120

CYXE;2010-10-24 03:28;CYXE 240328Z 04011KT 15SM BKN007 03/ RMK SC6

CYXE;2010-10-24 03:49;CYXE 240349Z 05012G19KT 15SM OVC005 03/ RMK ST8

CYXE;2010-10-24 04:00;CYXE 240400Z 05013G19KT 15SM OVC005 03/02 A2982 RMK ST8 SLP120

CYXE;2010-10-24 04:26;CYXE 240426Z 05012KT 15SM OVC004 03/ RMK ST8

CYXE;2010-10-24 05:00;CYXE 240500Z 05011KT 15SM OVC005 03/03 A2981 RMK ST8 SLP118

CYXE;2010-10-24 05:35;CYXE 240535Z 04011G17KT 15SM OVC004 03/ RMK ST8

CYXE;2010-10-24 06:00;CYXE 240600Z 04012KT 10SM OVC003 03/02 A2980 RMK ST8 BR SLP111

CYXE;2010-10-24 07:00;CYXE 240700Z 06009KT 15SM OVC003 03/02 A2979 RMK ST8 SLP108

CYXE;2010-10-24 08:00;CYXE 240800Z 04007KT 10SM OVC003 02/02 A2979 RMK ST8 BR SLP107

CYXE;2010-10-24 08:19;CYXE 240819Z 06008KT 3SM -RA BR OVC002 02/ RMK ST8 VIS LWR W

CYXE;2010-10-24 08:32;CYXE 240832Z 05011KT 3/4SM R09/P6000FT/N -RA BR VV002 02/ RMK FG8

CYXE;2010-10-24 08:52;CYXE 240852Z 05007KT 2 1/2SM -RA BR OVC002 02/ RMK ST8 VIS LWR W

CYXE;2010-10-24 09:00;CYXE 240900Z 05008KT 2 1/2SM -RA BR OVC002 02/02 A2976 RMK ST8 VIS LWR W SLP095

CYXE;2010-10-24 09:18;CYXE 240918Z 07008KT 3/4SM R09/P6000FT/D -RA BR VV001 02/ RMK FG8

CYXE;2010-10-24 09:29;CYXE 240929Z 05006KT 2SM -RA BR OVC002 02/ RMK ST8

CYXE;2010-10-24 09:50;CYXE 240950Z 05007KT 4SM -RA BR OVC002 02/ RMK ST8

CYXE;2010-10-24 10:00;CYXE 241000Z 06010KT 5SM -RA BR OVC002 02/02 A2972 RMK ST8 SLP082

CYXE;2010-10-24 10:33;CYXE 241033Z 07007KT 6SM BR OVC002 02/ RMK ST8

CYXE;2010-10-24 11:00;CYXE 241100Z 05008KT 4SM -DZ BR OVC001 02/02 A2969 RMK ST8 VIS LWR W SLP074

CYXE;2010-10-24 11:23;CYXE 241123Z 04008KT 4SM -RA BR OVC002 02/ RMK ST8

CYXE;2010-10-24 12:00;CYXE 241200Z 06007KT 8SM -RA SCT002 OVC006 02/02 A2968 RMK ST3ST5 BR SLP070

CYXE;2010-10-24 12:09;CYXE 241209Z 06007KT 8SM -DZ OVC002 02/ RMK ST8 BR

CYXE;2010-10-24 12:37;CYXE 241237Z 06006KT 15SM OVC003 02/ RMK ST8

CYXE;2010-10-24 13:00;CYXE 241300Z 05005KT 15SM OVC002 02/02 A2966 RMK ST8 SLP065

CYXE;2010-10-24 14:00;CYXE 241400Z 05008KT 3SM BR OVC001 02/02 A2963 RMK ST8 SLP056

CYXE;2010-10-24 14:22;CYXE 241422Z 05007KT 5SM BR OVC002 02/ RMK ST8

CYXE;2010-10-24 15:00;CYXE 241500Z 07004KT 12SM OVC003 02/02 A2962 RMK ST8 SLP053

CYXE;2010-10-24 15:08;CYXE 241508Z 08006KT 12SM -SHRA OVC003 03/ RMK ST8

CYXE;2010-10-24 16:00;CYXE 241600Z 06006KT 12SM -SHRA BKN004 OVC010 03/03 A2960 RMK ST7SC1 SLP045

CYXE;2010-10-24 17:00;CYXE 241700Z 07006KT 8SM -RA OVC004 03/03 A2956 RMK ST8 SLP033

CYXE;2010-10-24 18:00;CYXE 241800Z 07009KT 12SM -RA OVC004 03/03 A2952 RMK ST8 -RA INTMT SLP016

CYXE;2010-10-24 18:49;CYXE 241849Z 07009KT 10SM -RA OVC005 04/ RMK ST8

CYXE;2010-10-24 19:00;CYXE 241900Z 07011KT 10SM -RA OVC005 04/03 A2947 RMK ST8 SLP002

CYXE;2010-10-24 20:00;CYXE 242000Z 07010KT 8SM -RA OVC006 04/04 A2942 RMK ST8 SLP986

CYXE;2010-10-24 21:00;CYXE 242100Z 10011KT 6SM -RA OVC006 05/05 A2938 RMK ST8 SLP970

CYXE;2010-10-24 22:00;CYXE 242200Z 11008KT 6SM -RA OVC006 05/05 A2937 RMK ST8 SLP964

CYXE;2010-10-24 23:00;CYXE 242300Z 09007KT 4SM -RA OVC005 05/05 A2934 RMK ST8 SLP956

CYXE;2010-10-25 00:00;CYXE 250000Z 09005KT 6SM -RA BKN004 OVC030 05/05 A2930 RMK ST6SC2 SLP941

CYXE;2010-10-25 01:00;CYXE 250100Z 05006KT 8SM -RA BKN007 OVC023 05/05 A2926 RMK SC6SC2 SLP930

CYXE;2010-10-25 01:33;CYXE 250133Z 05005KT 10SM -RA FEW007 OVC023 05/ RMK SF2SC6

CYXE;2010-10-25 02:00;CYXE 250200Z 07004KT 6SM -RA FEW007 OVC023 05/05 A2924 RMK SF2SC6 SLP921

CYXE;2010-10-25 03:00;CYXE 250300Z 07004KT 6SM -RA FEW016 OVC027 05/05 A2921 RMK SF2SC6 SLP909

CYXE;2010-10-25 04:00;CYXE 250400Z CCA 09003KT 6SM -RA FEW012 OVC030 06/06 A2917 RMK SF2SC6 SLP898

CYXE;2010-10-25 05:00;CYXE 250500Z 10003KT 5SM -RA BKN008 OVC046 06/06 A2917 RMK SC6SC2 SLP897

CYXE;2010-10-25 06:00;CYXE 250600Z 12003KT 4SM -RA BR OVC007 06/06 A2916 RMK SC8 SLP892

CYXE;2010-10-25 07:00;CYXE 250700Z 00000KT 3SM -RA BR OVC006 07/07 A2913 RMK ST8 SLP884

CYXE;2010-10-25 08:00;CYXE 250800Z 19002KT 3SM -RA BR OVC006 07/07 A2913 RMK ST8 SLP884

CYXE;2010-10-25 08:43;CYXE 250843Z 28002KT 2SM -RA BR SCT002 OVC005 07/ RMK SF3ST5

CYXE;2010-10-25 09:00;CYXE 250900Z 27002KT 1SM R09/P6000FT/N -RA BR OVC002 07/07 A2913 RMK ST8 SLP880

CYXE;2010-10-25 09:13;CYXE 250913Z 27003KT 3/4SM R09/4000V6000FT/D -DZ BR VV002 07/ RMK FG8

CYXE;2010-10-25 09:51;CYXE 250951Z 28005KT 1/2SM R09/4500FT/D FG VV001 06/ RMK FG8

CYXE;2010-10-25 10:00;CYXE 251000Z 27005KT 1/2SM R09/4000FT/N FG VV001 06/06 A2913 RMK FG8 SLP881

CYXE;2010-10-25 10:43;CYXE 251043Z 30007KT 1SM R09/P6000FT/N BR OVC006 05/ RMK FG2ST6

CYXE;2010-10-25 11:00;CYXE 251100Z 31005KT 1SM R09/4500VP6000FT/D BR OVC002 05/05 A2912 RMK FG2ST6 SLP876

CYXE;2010-10-25 11:05;CYXE 251105Z 31005KT 1/2SM R09/3500V5500FT/D FG VV001 05/ RMK FG8

CYXE;2010-10-25 12:00;CYXE 251200Z 30004KT 3/4SM R09/P6000FT/D BR VV002 05/05 A2913 RMK FG8 SLP882

CYXE;2010-10-25 13:00;CYXE 251300Z 28006KT 1/2SM R09/3500FT/N FG VV001 04/04 A2915 RMK FG8 SLP887

CYXE;2010-10-25 14:00;CYXE 251400Z 29005KT 3/4SM R09/5000FT/N BR VV001 04/04 A2916 RMK FG8 SLP892

CYXE;2010-10-25 15:00;CYXE 251500Z 28008KT 5/8SM R09/3000FT/D BR VV001 04/04 A2918 RMK FG8 SLP898

CYXE;2010-10-25 15:12;CYXE 251512Z 28008KT 3/8SM R09/3500FT/U FG VV001 04/ RMK FG8

CYXE;2010-10-25 15:42;CYXE 251542Z 28009KT 1/2SM R09/4000FT/N FG VV001 04/ RMK FG8

CYXE;2010-10-25 16:00;CYXE 251600Z 28009KT 1/2SM R09/4000FT/N -DZ FG VV001 04/04 A2919 RMK FG8 SLP901

CYXE;2010-10-25 17:00;CYXE 251700Z 30006KT 1/2SM R09/3000FT/N -DZ FG VV001 05/05 A2920 RMK FG8 SLP904

CYXE;2010-10-25 17:46;CYXE 251746Z 36007KT 1SM R09/4500VP6000FT/U -DZ BR OVC002 05/ RMK ST8

CYXE;2010-10-25 17:53;CYXE 251753Z 01008KT 2SM -DZ BR OVC002 05/ RMK ST8

CYXE;2010-10-25 18:00;CYXE 251800Z 36007KT 2SM -DZ BR OVC002 05/05 A2921 RMK ST8 SLP906

CYXE;2010-10-25 18:30;CYXE 251830Z 36011KT 1 1/2SM -DZ BR OVC003 04/ RMK ST8

CYXE;2010-10-25 18:57;CYXE 251857Z 01011KT 3SM -DZ BR OVC005 04/ RMK SF8

CYXE;2010-10-25 19:00;CYXE 251900Z 01011KT 3SM -DZ BR OVC005 04/04 A2922 RMK SF8 SLP910

CYXE;2010-10-25 19:22;CYXE 251922Z 36010KT 3SM -DZ BR OVC004 04/ RMK ST8

CYXE;2010-10-25 19:40;CYXE 251940Z 36013KT 2 1/2SM -DZ BR OVC003 03/ RMK ST8

CYXE;2010-10-25 20:00;CYXE 252000Z 35013KT 2 1/2SM -RA BR OVC005 03/03 A2924 RMK ST8 SLP917

CYXE;2010-10-25 20:32;CYXE 252032Z 36012KT 2 1/2SM -DZ BR OVC006 03/ RMK SF8

CYXE;2010-10-25 21:00;CYXE 252100Z 36013KT 2 1/2SM -DZ BR OVC005 03/03 A2926 RMK SF8 CIG VRB 4-6 SLP926

CYXE;2010-10-25 21:50;CYXE 252150Z 36013KT 6SM -DZ OVC007 03/ RMK SF8

CYXE;2010-10-25 22:00;CYXE 252200Z 36011G17KT 7SM -RA OVC007 03/03 A2929 RMK SF8 SLP934

CYXE;2010-10-25 23:00;CYXE 252300Z 36016KT 4SM -DZ OVC007 02/02 A2931 RMK SF8 SLP941

CYXE;2010-10-26 00:00;CYXE 260000Z 36013G19KT 10SM -DZ OVC008 02/01 A2934 RMK SF8 SLP954

CYXE;2010-10-26 01:00;CYXE 260100Z 34014KT 10SM -SN OVC008 01/00 A2936 RMK SC8 SLP962

CYXE;2010-10-26 02:00;CYXE 260200Z 34012KT 4SM -SN OVC008 00/00 A2938 RMK SC8 SLP967

CYXE;2010-10-26 03:00;CYXE 260300Z 35013G18KT 4SM -SN BKN008 OVC030 00/M00 A2939 RMK SC6SC2 SLP973

CYXE;2010-10-26 04:00;CYXE 260400Z 35014KT 10SM -SN OVC012 00/M00 A2939 RMK SC8 SLP975

CYXE;2010-10-26 05:00;CYXE 260500Z 34013G19KT 15SM -SN OVC012 00/M00 A2940 RMK SC8 SLP977

CYXE;2010-10-26 06:00;CYXE 260600Z 35013G21KT 10SM -SN OVC010 00/M01 A2941 RMK SC8 SLP979

CYXE;2010-10-26 07:00;CYXE 260700Z 35016KT 15SM -SN OVC013 00/M01 A2941 RMK SC8 SLP979

CYXE;2010-10-26 08:00;CYXE 260800Z 35017G22KT 15SM -SN SCT013 OVC040 M00/M01 A2941 RMK SC3SC5 SLP981

CYXE;2010-10-26 09:00;CYXE 260900Z 35014G20KT 5SM -SN OVC040 M00/M01 A2943 RMK SC8 SLP989

CYXE;2010-10-26 10:00;CYXE 261000Z 35014G19KT 10SM -SN BKN015 OVC034 M00/M01 A2943 RMK SC5SC3 SLP990

CYXE;2010-10-26 11:00;CYXE 261100Z 36019KT 15SM -SN BKN016 OVC040 M00/M02 A2944 RMK SC6SC2 SLP991

CYXE;2010-10-26 11:22;CYXE 261122Z 35018KT 5SM -SN BKN013 OVC040 M00/ RMK SC5SC3

CYXE;2010-10-26 11:43;CYXE 261143Z 34017G22KT 2 1/2SM -SN OVC009 M01/ RMK SC8

CYXE;2010-10-26 12:00;CYXE 261200Z 34018KT 2SM -SN OVC009 M01/M01 A2945 RMK SC8 SLP995

CYXE;2010-10-26 13:00;CYXE 261300Z 35020KT 2SM -SN OVC011 M01/M02 A2946 RMK SC8 SLP998

CYXE;2010-10-26 13:17;CYXE 261317Z 35016G21KT 2SM -SN OVC009 M01/ RMK SC8

CYXE;2010-10-26 13:31;CYXE 261331Z 35018G25KT 1 1/2SM -SN OVC009 M01/ RMK SF8

CYXE;2010-10-26 14:00;CYXE 261400Z 34016G24KT 1 1/2SM -SN OVC010 M01/M02 A2947 RMK SC8 SLP001

CYXE;2010-10-26 14:12;CYXE 261412Z 34019G24KT 1SM R09/P6000FT/D -SN OVC009 M01/ RMK SC8

CYXE;2010-10-26 14:43;CYXE 261443Z 34018G25KT 3/4SM R09/P6000FT/N -SN BLSN VV007 M01/ RMK SN8

CYXE;2010-10-26 15:00;CYXE 261500Z 35018KT 3/4SM R09/P6000FT/N -SN BLSN VV008 M01/M02 A2947 RMK SN8 SLP006

CYXE;2010-10-26 15:29;CYXE 261529Z 34022G28KT 1 1/2SM -SN BLSN VV007 M01/ RMK SN8

CYXE;2010-10-26 16:00;CYXE 261600Z 35020G27KT 1SM R09/P6000FT/N -SN BLSN OVC009 M01/M03 A2948 RMK ST8 SLP008

CYXE;2010-10-26 17:00;CYXE 261700Z 34017G22KT 1SM R09/P6000FT/D -SN BLSN OVC009 M01/M02 A2949 RMK ST8 SLP010

CYXE;2010-10-26 17:17;CYXE 261717Z 34018G25KT 1SM R09/P6000FT/U -SN BLSN VV006 M01/ RMK SN8

CYXE;2010-10-26 18:00;CYXE 261800Z 34016G24KT 1SM R09/P6000FT/N -SN BLSN VV006 M01/M02 A2949 RMK SN8 SLP011

CYXE;2010-10-26 19:00;CYXE 261900Z 34021G27KT 3/4SM R09/6000FT/N -SN BLSN VV006 M01/M02 A2949 RMK SN8 SLP012

CYXE;2010-10-26 19:18;CYXE 261918Z 34019G27KT 5/8SM R09/5000FT/N -SN BLSN VV005 M01/ RMK SN8

CYXE;2010-10-26 19:31;CYXE 261931Z 34019G26KT 1/2SM R09/5000FT/D SN BLSN VV004 M01/ RMK SN8

CYXE;2010-10-26 20:00;CYXE 262000Z 34017G24KT 3/4SM R09/6000FT/U -SN BLSN VV006 M01/M02 A2950 RMK SN8 /S01/ SLP016

CYXE;2010-10-26 20:17;CYXE 262017Z 33017G22KT 1SM R09/P6000FT/N -SN BLSN VV007 M01/ RMK SN8

CYXE;2010-10-26 20:35;CYXE 262035Z 34017G26KT 3/4SM R09/P6000FT/D -SN BLSN VV006 M01/ RMK SN8

CYXE;2010-10-26 20:44;CYXE 262044Z 34019G24KT 5/8SM R09/5500FT/D -SN BLSN VV006 M01/ RMK SN8

CYXE;2010-10-26 21:00;CYXE 262100Z 34017G24KT 5/8SM R09/5500FT/N -SN BLSN VV006 M01/M02 A2952 RMK SN8 SLP020

CYXE;2010-10-26 21:17;CYXE 262117Z 33016G22KT 3/4SM R09/6000FT/U -SN BLSN VV006 M01/ RMK SN8

CYXE;2010-10-26 22:00;CYXE 262200Z 34016G21KT 3/4SM R09/P6000FT/N -SN BLSN VV006 M01/M02 A2953 RMK SN8 SLP026

CYXE;2010-10-26 22:13;CYXE 262213Z 34018G26KT 1SM R09/P6000FT/U -SN DRSN VV007 M01/ RMK SN8

CYXE;2010-10-26 22:27;CYXE 262227Z 34017G29KT 1 1/2SM -SN DRSN VV008 M01/ RMK SN8

CYXE;2010-10-26 23:00;CYXE 262300Z 34018G27KT 1 1/2SM -SN DRSN OVC011 M01/M02 A2956 RMK SN2SC6 SLP033

CYXE;2010-10-26 23:34;CYXE 262334Z 35023G28KT 1SM R09/P6000FT/D -SN DRSN VV010 M01/ RMK SN8

CYXE;2010-10-27 00:00;CYXE 270000Z 35022G29KT 1 1/2SM -SN DRSN VV010 M01/M03 A2957 RMK SN8 /S02/ SLP041

CYXE;2010-10-27 00:04;CYXE 270004Z 34020G31KT 5SM -SN DRSN BKN012 OVC040 M01/ RMK SC6SC2

CYXE;2010-10-27 00:29;CYXE 270029Z 34020G27KT 12SM -SN DRSN OVC017 M01/ RMK SC8

CYXE;2010-10-27 01:00;CYXE 270100Z 35023G30KT 15SM DRSN BKN017 OVC050 M01/M03 A2960 RMK SC6SC2 SLP048

CYXE;2010-10-27 02:00;CYXE 270200Z 35020G26KT 15SM DRSN BKN020 OVC050 M01/M03 A2962 RMK SC6SC2 SLP056

CYXE;2010-10-27 03:00;CYXE 270300Z 35021G29KT 15SM DRSN OVC020 M01/M04 A2964 RMK SC8 SLP063

CYXE;2010-10-27 04:00;CYXE 270400Z 34018G25KT 15SM DRSN OVC018 M01/M04 A2965 RMK SC8 SLP067

CYXE;2010-10-27 05:00;CYXE 270500Z 34019G26KT 15SM DRSN OVC018 M01/M04 A2967 RMK SC8 SLP074

CYXE;2010-10-27 06:00;CYXE 270600Z 35020G30KT 15SM DRSN OVC016 M02/M04 A2970 RMK SC8 SLP084

CYXE;2010-10-27 06:16;CYXE 270616Z 35019G28KT 15SM -SN OVC014 M02/ RMK SC8

CYXE;2010-10-27 06:46;CYXE 270646Z 35021G27KT 15SM OVC014 M02/ RMK SC8

CYXE;2010-10-27 07:00;CYXE 270700Z 36023G28KT 15SM OVC014 M02/M05 A2972 RMK SC8 SLP092

CYXE;2010-10-27 07:06;CYXE 270706Z 36025G30KT 15SM OVC017 M02/ RMK SC8

CYXE;2010-10-27 08:00;CYXE 270800Z 35022G29KT 15SM DRSN OVC015 M02/M05 A2974 RMK SC8 SLP099

CYXE;2010-10-27 09:00;CYXE 270900Z 35021G26KT 15SM DRSN OVC021 M02/M06 A2977 RMK SC8 SLP110

CYXE;2010-10-27 10:00;CYXE 271000Z 34017G25KT 15SM DRSN OVC024 M02/M06 A2980 RMK SC8 SLP119

CYXE;2010-10-27 11:00;CYXE 271100Z CCA 34019G24KT 15SM DRSN OVC029 M03/M06 A2983 RMK SC8 SLP130

CYXE;2010-10-27 12:00;CYXE 271200Z 34018KT 15SM DRSN OVC023 M03/M07 A2986 RMK SC7 SLP140

CYXE;2010-10-27 13:00;CYXE 271300Z 33019KT 15SM OVC022 M03/M07 A2991 RMK SC8 SLP156

CYXE;2010-10-27 14:00;CYXE 271400Z 35015G21KT 15SM BKN020 M04/M07 A2994 RMK SC7 SLP166

CYXE;2010-10-27 15:00;CYXE 271500Z 35014KT 15SM OVC016 M04/M07 A2997 RMK SC8 SLP180

CYXE;2010-10-27 16:00;CYXE 271600Z 33017G25KT 15SM BKN018 OVC082 M04/M07 A3000 RMK SC7AC1 SLP189

CYXE;2010-10-27 17:00;CYXE 271700Z 35013G19KT 15SM BKN020 M03/M07 A3002 RMK SC7 SLP195

CYXE;2010-10-27 18:00;CYXE 271800Z 34015KT 15SM BKN020 M03/M07 A3004 RMK SC6 SLP204

CYXE;2010-10-27 19:00;CYXE 271900Z 32015KT 15SM BKN020 M03/M07 A3006 RMK SC6 SLP211

CYXE;2010-10-27 20:00;CYXE 272000Z 31014KT 15SM BKN022 BKN300 M03/M07 A3008 RMK SC5CI1 SLP217

CYXE;2010-10-27 21:00;CYXE 272100Z 31015KT 15SM FEW022 BKN300 M03/M07 A3010 RMK SC2CI2 SLP224

CYXE;2010-10-27 22:00;CYXE 272200Z 32013G18KT 15SM SCT330 M03/M07 A3013 RMK CI2 SLP234

CYXE;2010-10-27 23:00;CYXE 272300Z 31011KT 15SM BKN330 M03/M08 A3016 RMK CI2 SLP242

CYXE;2010-10-28 00:00;CYXE 280000Z 30008KT 15SM FEW300 M05/M08 A3018 RMK CI0 SLP252

CYXE;2010-10-28 01:00;CYXE 280100Z 30010KT 15SM FEW300 M06/M08 A3019 RMK CI0 SLP258

CYXE;2010-10-28 02:00;CYXE 280200Z 30008KT 15SM SKC M07/M09 A3021 RMK SLP263

CYXE;2010-10-28 03:00;CYXE 280300Z 29007KT 15SM SKC M08/M10 A3023 RMK SLP275

CYXE;2010-10-28 04:00;CYXE 280400Z 25005KT 15SM SKC M10/M10 A3024 RMK SLP278

CYXE;2010-10-28 05:00;CYXE 280500Z 27006KT 15SM SKC M10/M11 A3025 RMK SLP280

CYXE;2010-10-28 06:00;CYXE 280600Z 26006KT 15SM SKC M10/M11 A3026 RMK SLP285

CYXE;2010-10-28 07:00;CYXE 280700Z 24004KT 15SM SKC M12/M13 A3026 RMK SLP284

CYXE;2010-10-28 08:00;CYXE 280800Z 26006KT 15SM SKC M11/M12 A3026 RMK SLP283

CYXE;2010-10-28 09:00;CYXE 280900Z 26005KT 15SM SKC M11/M12 A3027 RMK SLP287

CYXE;2010-10-28 10:00;CYXE 281000Z 24003KT 15SM SKC M13/M13 A3027 RMK SLP288

CYXE;2010-10-28 11:00;CYXE 281100Z 23004KT 15SM SKC M12/M13 A3027 RMK SLP287

CYXE;2010-10-28 12:00;CYXE 281200Z 22004KT 6SM BR SKC M12/M13 A3026 RMK SLP286

CYXE;2010-10-28 13:00;CYXE 281300Z 23005KT 6SM BR FEW250 M12/M13 A3025 RMK CI0 SLP283

CYXE;2010-10-28 13:12;CYXE 281312Z 22006KT 6SM BR SCT004 M12/ RMK SF2

CYXE;2010-10-28 13:18;CYXE 281318Z 22005KT 1 1/2SM BR BKN002 M12/ RMK SF3 FROIN

CYXE;2010-10-28 13:24;CYXE 281324Z 22006KT 5/8SM R09/4500VP6000FT/D BR OVC001 M11/ RMK FG2SF2

CYXE;2010-10-28 13:30;CYXE 281330Z 23008KT 1/2SM R09/4500VP6000FT/U FZFG SKC M10/ RMK FG7 FROIN

CYXE;2010-10-28 13:38;CYXE 281338Z 23006KT 3/8SM R09/3000VP6000FT/D FZFG VV001 M10/ RMK FG8 FROIN

CYXE;2010-10-28 14:00;CYXE 281400Z 22010KT 3/8SM R09/3500V5000FT/D FZFG VV001 M10/M11 A3025 RMK FG8 FROIN SLP283

CYXE;2010-10-28 14:27;CYXE 281427Z 23006KT 1SM R09/4500VP6000FT/U BR OVC001 M09/ RMK FG2ST6 FROIN

CYXE;2010-10-28 14:35;CYXE 281435Z 22008KT 2 1/2SM BR OVC002 M09/ RMK ST8

CYXE;2010-10-28 14:44;CYXE 281444Z 21006KT 4SM BR OVC002 M09/ RMK ST8

CYXE;2010-10-28 15:00;CYXE 281500Z 22007KT 6SM BR OVC003 M08/M09 A3026 RMK ST8 SLP286

CYXE;2010-10-28 15:09;CYXE 281509Z 22007KT 6SM BR OVC004 M08/ RMK ST8

CYXE;2010-10-28 15:34;CYXE 281534Z 25008KT 5SM BR OVC003 M08/ RMK ST8

CYXE;2010-10-28 16:00;CYXE 281600Z 25006KT 4SM BR OVC003 M07/M08 A3026 RMK ST8 SLP286

CYXE;2010-10-28 16:51;CYXE 281651Z CCA 23006KT 6SM BR OVC005 M06/ RMK ST8

CYXE;2010-10-28 17:00;CYXE 281700Z 23006KT 8SM OVC005 M06/M07 A3025 RMK ST8 BR SLP283

CYXE;2010-10-28 18:00;CYXE 281800Z 21006KT 10SM BKN006 OVC085 M05/M06 A3023 RMK ST6AC1 BR SLP274

CYXE;2010-10-28 18:28;CYXE 281828Z 20006KT 15SM SCT007 BKN080 M04/ RMK ST3AC3

CYXE;2010-10-28 19:00;CYXE 281900Z 21005KT 15SM FEW008 BKN080 M04/M05 A3020 RMK SF2AC4 SLP265

CYXE;2010-10-28 20:00;CYXE 282000Z 21008KT 15SM FEW090 FEW300 M03/M05 A3018 RMK AC2CI0 SLP260

CYXE;2010-10-28 21:00;CYXE 282100Z 25006KT 15SM FEW100 SCT300 M01/M05 A3018 RMK AC2CI0 SLP255

CYXE;2010-10-28 22:00;CYXE 282200Z 25005KT 15SM FEW096 SCT300 M01/M05 A3017 RMK AC2CI0 SLP253

CYXE;2010-10-28 23:00;CYXE 282300Z 23004KT 15SM SCT300 M02/M05 A3016 RMK CI2 SLP249

CYXE;2010-10-29 00:00;CYXE 290000Z 27002KT 15SM SCT300 M04/M06 A3015 RMK CI1 SLP247

CYXE;2010-10-29 01:00;CYXE 290100Z 20004KT 15SM SCT300 M06/M07 A3013 RMK CI1 SLP242

CYXE;2010-10-29 02:00;CYXE 290200Z 19005KT 15SM SCT300 M06/M06 A3013 RMK CI0 SLP240

CYXE;2010-10-29 03:00;CYXE 290300Z 16002KT 10SM SCT120 BKN300 M05/M07 A3010 RMK AC3CI1 BR SLP229

CYXE;2010-10-29 04:00;CYXE 290400Z 13002KT 10SM BKN120 M05/M06 A3008 RMK AC4 BR SLP222

CYXE;2010-10-29 05:00;CYXE 290500Z 10002KT 12SM BKN120 M05/M06 A3006 RMK AC4 BR SLP217

CYXE;2010-10-29 06:00;CYXE 290600Z CCA 00000KT 12SM OVC120 M05/M06 A3007 RMK AC7 BR SLP218

CYXE;2010-10-29 07:00;CYXE 290700Z 10003KT 15SM OVC095 M04/M06 A3003 RMK AC7 SLP203

CYXE;2010-10-29 08:00;CYXE 290800Z 08003KT 15SM OVC095 M04/M06 A3000 RMK AC8 SLP193

CYXE;2010-10-29 09:00;CYXE 290900Z 09005KT 15SM OVC095 M04/M06 A2999 RMK AC8 SLP186

CYXE;2010-10-29 10:00;CYXE 291000Z 10004KT 15SM OVC090 M04/M06 A2997 RMK AC8 SLP179

CYXE;2010-10-29 11:00;CYXE 291100Z 07004KT 15SM SCT060 OVC080 M04/M05 A2994 RMK SC3AC5 SLP169

CYXE;2010-10-29 12:00;CYXE 291200Z 07004KT 15SM FEW060 OVC080 M04/M05 A2993 RMK SC2AC6 SLP168

CYXE;2010-10-29 13:00;CYXE 291300Z 06005KT 12SM FEW055 OVC062 M03/M04 A2992 RMK SC2SC6 BR SLP163

CYXE;2010-10-29 14:00;CYXE 291400Z 10006KT 8SM OVC045 M03/M04 A2990 RMK SC8 BR SLP157

CYXE;2010-10-29 15:00;CYXE 291500Z 12005KT 12SM BKN050 OVC280 M02/M04 A2990 RMK SC6CI1 BR SLP156

CYXE;2010-10-29 16:00;CYXE 291600Z 11005KT 15SM SCT050 BKN090 OVC280 M02/M04 A2988 RMK SC3AC4CI0 SLP150

CYXE;2010-10-29 17:00;CYXE 291700Z 07004KT 15SM SCT070 OVC088 M01/M03 A2988 RMK AC3AS4 SLP150

CYXE;2010-10-29 18:00;CYXE 291800Z 05003KT 15SM BKN088 BKN097 M00/M03 A2987 RMK AC5AC2 SLP144

CYXE;2010-10-29 19:00;CYXE 291900Z 05003KT 15SM BKN099 OVC280 00/M03 A2987 RMK AC4CI3 SLP145

CYXE;2010-10-29 20:00;CYXE 292000Z 03005KT 15SM SCT100 BKN160 01/M02 A2986 RMK AC3AC2 SLP142

CYXE;2010-10-29 21:00;CYXE 292100Z 01004KT 15SM SCT100 BKN160 00/M02 A2987 RMK AC2AC2 SLP142

CYXE;2010-10-29 22:00;CYXE 292200Z 02004KT 15SM BKN100 M00/M02 A2987 RMK AC3 SLP143

CYXE;2010-10-29 23:00;CYXE 292300Z 35002KT 15SM FEW120 M01/M03 A2988 RMK AC2 SLP146

CYXE;2010-10-30 00:00;CYXE 300000Z 27004KT 15SM FEW120 M03/M04 A2989 RMK AC2 SLP152

CYXE;2010-10-30 01:00;CYXE 300100Z 29005KT 15SM SKC M04/M05 A2990 RMK SLP156

CYXE;2010-10-30 02:00;CYXE 300200Z 31003KT 8SM SKC M05/M05 A2991 RMK BR SLP157

CYXE;2010-10-30 03:00;CYXE 300300Z 25003KT 15SM SKC M06/M06 A2991 RMK SLP159

CYXE;2010-10-30 04:00;CYXE 300400Z 24004KT 8SM SKC M07/M07 A2992 RMK BR SLP162

CYXE;2010-10-30 05:00;CYXE 300500Z 25006KT 6SM BR SKC M07/M07 A2992 RMK SLP165

CYXE;2010-10-30 06:00;CYXE 300600Z 21005KT 8SM SKC M07/M08 A2992 RMK BR SLP162

CYXE;2010-10-30 07:00;CYXE 300700Z 25003KT 5SM BR FEW005 M07/M08 A2993 RMK ST0 SLP166

CYXE;2010-10-30 07:42;CYXE 300742Z 28004KT 4SM BR OVC002 M07/ RMK ST6

CYXE;2010-10-30 08:00;CYXE 300800Z 33003KT 1/4SM R09/2400FT/N FZFG VV001 M07/M08 A2994 RMK FG8 SLP170

CYXE;2010-10-30 08:08;CYXE 300808Z 32003KT 0SM R09/1200V1600FT/N FZFG VV000 M07/ RMK FG8

CYXE;2010-10-30 09:00;CYXE 300900Z 26002KT 0SM R09/2000FT/N FZFG VV000 M08/M09 A2996 RMK FG8 SLP176

CYXE;2010-10-30 09:24;CYXE 300924Z 23004KT 1/4SM R09/2800FT/N FZFG VV001 M08/ RMK FG8 MOON DMLY VIS

CYXE;2010-10-30 10:00;CYXE 301000Z 25004KT 1/4SM R09/2000V3000FT/D FZFG VV001 M09/M10 A2996 RMK FG8 SLP179

CYXE;2010-10-30 10:11;CYXE 301011Z 25004KT 1/8SM R09/1600FT/N FZFG VV001 M09/ RMK FG8

CYXE;2010-10-30 10:31;CYXE 301031Z 26002KT 0SM R09/2400FT/N FZFG VV000 M08/ RMK FG8

CYXE;2010-10-30 11:00;CYXE 301100Z 25003KT 1/8SM R09/3000FT/N FZFG VV001 M08/M09 A2996 RMK FG8 SLP178

CYXE;2010-10-30 11:31;CYXE 301131Z 22004KT 1/4SM R09/2800FT/N FZFG VV001 M08/ RMK FG8

CYXE;2010-10-30 12:00;CYXE 301200Z 22004KT 1/2SM R09/P6000FT/U FZFG VV001 M09/M09 A2996 RMK FG8 SLP181

CYXE;2010-10-30 12:11;CYXE 301211Z 23004KT 1SM R09/P6000FT/N BR VV002 M09/ RMK FG8

CYXE;2010-10-30 12:21;CYXE 301221Z 21003KT 1/2SM R09/P6000FT/N FZFG VV001 M09/ RMK FG8

CYXE;2010-10-30 12:25;CYXE 301225Z 20004KT 1/4SM R09/P6000FT/N FZFG VV001 M09/ RMK FG8

CYXE;2010-10-30 12:42;CYXE 301242Z 22003KT 2SM R09/2600FT/N BR OVC002 M09/ RMK ST8 VIS W LWR

CYXE;2010-10-30 13:00;CYXE 301300Z 22003KT 1 1/2SM BR OVC003 M09/M09 A2996 RMK ST7 SLP180

CYXE;2010-10-30 13:23;CYXE 301323Z 22004KT 2SM BR BKN002 M09/ RMK ST6

CYXE;2010-10-30 14:00;CYXE 301400Z 22003KT 2SM BR BKN001 M09/M09 A2995 RMK SF2 FROIN SLP177

CYXE;2010-10-30 14:45;CYXE 301445Z 20004KT 3SM BR SCT002 M08/ RMK SF2

CYXE;2010-10-30 15:00;CYXE 301500Z 19004KT 3SM BR SCT002 M07/M08 A2994 RMK SF2 SLP175

CYXE;2010-10-30 15:35;CYXE 301535Z 18003KT 2 1/2SM BR OVC002 M06/ RMK ST8

CYXE;2010-10-30 15:50;CYXE 301550Z 19003KT 1/2SM R09/2000FT/N FZFG OVC001 M05/ RMK ST6

CYXE;2010-10-30 16:00;CYXE 301600Z 19003KT 1/2SM R09/2000FT/N FZFG OVC001 M05/M06 A2994 RMK ST6 SLP175

CYXE;2010-10-30 17:00;CYXE 301700Z 21004KT 1 1/2SM BR BKN002 M03/M03 A2995 RMK ST5 SLP176

CYXE;2010-10-30 17:30;CYXE 301730Z 21003KT 4SM BR SCT002 RMK SF3

CYXE;2010-10-30 18:00;CYXE 301800Z 18005KT 6SM BR SCT002 BKN290 M01/M01 A2995 RMK SF1CI0 SLP173

CYXE;2010-10-30 19:00;CYXE 301900Z 18005KT 10SM FEW002 BKN290 00/00 A2992 RMK SF0CI0 SLP166

CYXE;2010-10-30 20:00;CYXE 302000Z 16006KT 15SM SCT300 04/01 A2990 RMK CI0 SLP158

CYXE;2010-10-30 21:00;CYXE 302100Z 14007KT 15SM SCT300 05/00 A2988 RMK CI0 SLP148

CYXE;2010-10-30 22:00;CYXE 302200Z 16005KT 15SM FEW300 06/00 A2987 RMK CI0 SLP143

CYXE;2010-10-30 23:00;CYXE 302300Z 18006KT 15SM SCT300 05/00 A2987 RMK CI0 SLP142

CYXE;2010-10-31 00:00;CYXE 310000Z 14006KT 15SM SCT300 03/M00 A2986 RMK CI0 SLP140

CYXE;2010-10-31 01:00;CYXE 310100Z 15007KT 15SM FEW300 02/M00 A2985 RMK CI0 SLP139

CYXE;2010-10-31 02:00;CYXE 310200Z 14006KT 15SM FEW300 01/M01 A2985 RMK CI0 SLP137

CYXE;2010-10-31 03:00;CYXE 310300Z 15007KT 15SM FEW300 00/M01 A2985 RMK CI0 SLP138

CYXE;2010-10-31 04:00;CYXE 310400Z 16008KT 15SM SKC 01/M01 A2985 RMK SLP138

CYXE;2010-10-31 05:00;CYXE 310500Z 16009KT 15SM SKC 01/M00 A2985 RMK SLP138

CYXE;2010-10-31 06:00;CYXE 310600Z 16009KT 15SM SKC 01/M00 A2983 RMK SLP127

CYXE;2010-10-31 07:00;CYXE 310700Z 16010KT 15SM SKC 01/M01 A2982 RMK SLP124

CYXE;2010-10-31 08:00;CYXE 310800Z 16007KT 15SM SKC 01/M01 A2981 RMK SLP122

CYXE;2010-10-31 09:00;CYXE 310900Z CCA 16006KT 15SM SKC 01/M01 A2979 RMK SLP112

CYXE;2010-10-31 10:00;CYXE 311000Z 15004KT 15SM SKC 00/M01 A2978 RMK SLP108

CYXE;2010-10-31 11:00;CYXE 311100Z 18005KT 15SM SKC M00/M01 A2978 RMK SLP106

CYXE;2010-10-31 12:00;CYXE 311200Z 16008KT 15SM SKC M00/M01 A2976 RMK SLP103

CYXE;2010-10-31 13:00;CYXE 311300Z 16009KT 15SM SKC M01/M02 A2976 RMK SLP102

CYXE;2010-10-31 14:00;CYXE 311400Z 16008KT 15SM SKC M01/M02 A2976 RMK SLP102

CYXE;2010-10-31 15:00;CYXE 311500Z 17010KT 15SM SKC 01/M01 A2977 RMK SLP105

CYXE;2010-10-31 16:00;CYXE 311600Z 18010KT 15SM SKC 03/M00 A2978 RMK SLP109

CYXE;2010-10-31 17:00;CYXE 311700Z 18011KT 15SM SKC 04/00 A2978 RMK SLP109

CYXE;2010-10-31 18:00;CYXE 311800Z 20009KT 15SM SKC 06/02 A2977 RMK SLP104

CYXE;2010-10-31 19:00;CYXE 311900Z 19007KT 15SM FEW290 08/03 A2978 RMK CI0 SLP106

CYXE;2010-10-31 20:00;CYXE 312000Z 21009KT 15SM FEW290 11/04 A2978 RMK CI0 SLP105

CYXE;2010-10-31 21:00;CYXE 312100Z 19011KT 15SM FEW290 11/05 A2978 RMK CI0 SLP105

CYXE;2010-10-31 22:00;CYXE 312200Z 20008KT 15SM FEW290 12/05 A2980 RMK CI1 SLP109

CYXE;2010-10-31 23:00;CYXE 312300Z 21005KT 15SM FEW140 FEW300 11/05 A2982 RMK AC1CI0 SLP116

CYXE;2010-11-01 01:00;CYXE 010100Z 22004KT 15SM FEW140 08/05 A2986 RMK AC1 SLP133

CYXE;2010-11-01 02:00;CYXE 010200Z 18005KT 15SM SKC 05/03 A2987 RMK SLP138

CYXE;2010-11-01 03:00;CYXE 010300Z 15004KT 15SM SKC 04/04 A2988 RMK SLP142

CYXE;2010-11-01 04:00;CYXE 010400Z 19006KT 15SM SKC 04/03 A2990 RMK SLP149

CYXE;2010-11-01 05:00;CYXE 010500Z 25004KT 15SM FEW300 02/01 A2993 RMK CI0 SLP158

CYXE;2010-11-01 06:00;CYXE 010600Z 19006KT 15SM FEW300 00/00 A2995 RMK CI0 SLP165

CYXE;2010-11-01 07:00;CYXE 010700Z 19006KT 15SM SKC 01/01 A2996 RMK SLP167

CYXE;2010-11-01 08:00;CYXE 010800Z 19005KT 15SM SKC 00/M00 A2998 RMK SLP174

CYXE;2010-11-01 09:00;CYXE 010900Z 20005KT 15SM FEW300 M00/M00 A3000 RMK CI1 SLP178

CYXE;2010-11-01 10:00;CYXE 011000Z 22006KT 15SM FEW300 M01/M02 A3001 RMK CI1 SLP183

CYXE;2010-11-01 11:00;CYXE 011100Z 22004KT 15SM FEW300 M01/M02 A3002 RMK CI1 SLP185

CYXE;2010-11-01 12:00;CYXE 011200Z 20005KT 15SM SKC M01/M02 A3003 RMK SLP192

CYXE;2010-11-01 13:00;CYXE 011300Z 19006KT 15SM SKC M01/M01 A3003 RMK SLP193

CYXE;2010-11-01 14:00;CYXE 011400Z 20007KT 15SM FEW300 M00/M01 A3003 RMK CI0 SLP193

CYXE;2010-11-01 15:00;CYXE 011500Z 21008KT 15SM BKN300 01/M00 A3004 RMK CI2 SLP196

CYXE;2010-11-01 16:00;CYXE 011600Z 21008KT 15SM BKN300 03/01 A3003 RMK CI5 SLP193

CYXE;2010-11-01 17:00;CYXE 011700Z 20008KT 15SM BKN180 OVC300 05/02 A3002 RMK AC3CI3 SLP191

CYXE;2010-11-01 18:00;CYXE 011800Z 20006KT 15SM BKN180 BKN300 06/02 A3002 RMK AC3CI3 SLP189

CYXE;2010-11-01 19:00;CYXE 011900Z 19008KT 15SM SCT180 BKN300 09/03 A3000 RMK AC3CI3 SLP183

CYXE;2010-11-01 20:00;CYXE 012000Z 18010G17KT 15SM SCT180 BKN300 10/02 A2996 RMK AC3CI3 SLP171

CYXE;2010-11-01 21:00;CYXE 012100Z 18010G18KT 15SM FEW180 BKN300 11/02 A2993 RMK AC2CI4 SLP156

CYXE;2010-11-01 22:00;CYXE 012200Z 19011KT 15SM FEW180 BKN300 11/01 A2991 RMK AC2CI4 SLP150

CYXE;2010-11-01 23:00;CYXE 012300Z 18013KT 15SM FEW140 BKN180 OVC300 10/01 A2989 RMK AC1AC4CI2 SLP144

CYXE;2010-11-02 00:00;CYXE 020000Z 18012KT 15SM BKN180 BKN300 10/02 A2988 RMK AC4CI2 SLP140

CYXE;2010-11-02 01:00;CYXE 020100Z 19012KT 15SM SCT180 BKN300 10/02 A2986 RMK AC3CI2 SLP133

CYXE;2010-11-02 02:00;CYXE 020200Z 19010KT 15SM SCT150 BKN300 09/02 A2986 RMK AC3CI2 SLP132

CYXE;2010-11-02 03:00;CYXE 020300Z 19008KT 15SM BKN150 OVC300 08/02 A2983 RMK AC5CI2 SLP122

CYXE;2010-11-02 04:00;CYXE 020400Z 21009KT 15SM BKN140 BKN300 08/03 A2983 RMK AC3CI2 SLP122

CYXE;2010-11-02 05:00;CYXE 020500Z 19007KT 15SM SCT140 BKN300 06/02 A2981 RMK AC3CI2 SLP116

CYXE;2010-11-02 06:00;CYXE 020600Z 24008KT 15SM FEW140 SCT300 07/03 A2981 RMK AC2CI1 SLP114

CYXE;2010-11-02 07:00;CYXE 020700Z 25010KT 15SM FEW140 BKN300 07/03 A2981 RMK AC2CI1 SLP113

CYXE;2010-11-02 08:00;CYXE 020800Z 25012KT 15SM SCT300 07/03 A2981 RMK CI1 SLP112

CYXE;2010-11-02 09:00;CYXE 020900Z 25013KT 15SM BKN140 BKN300 07/03 A2981 RMK AC4CI1 SLP111

CYXE;2010-11-02 10:00;CYXE 021000Z 27009KT 15SM SKC 05/02 A2984 RMK SLP119

CYXE;2010-11-02 11:00;CYXE 021100Z 27007KT 15SM SKC 04/02 A2985 RMK SLP123

CYXE;2010-11-02 12:00;CYXE 021200Z 30009KT 15SM SKC 05/02 A2990 RMK SLP144

CYXE;2010-11-02 13:00;CYXE 021300Z 31009KT 15SM FEW050 04/01 A2994 RMK SC1 SLP157

CYXE;2010-11-02 14:00;CYXE 021400Z 30008KT 15SM FEW080 03/00 A2996 RMK AC1 SLP164

CYXE;2010-11-02 15:00;CYXE 021500Z 31008KT 15SM FEW080 03/01 A3001 RMK AC1 SLP181

CYXE;2010-11-02 16:00;CYXE 021600Z 29008KT 15SM FEW080 06/01 A3005 RMK AC1 SLP195

CYXE;2010-11-02 17:00;CYXE 021700Z 29011KT 15SM FEW100 09/02 A3007 RMK AC1 SLP202

CYXE;2010-11-02 18:00;CYXE 021800Z 30013G18KT 15SM SCT100 10/02 A3009 RMK AC2 SLP206

CYXE;2010-11-02 19:00;CYXE 021900Z 30012G19KT 15SM FEW100 11/01 A3009 RMK AC2 SLP208

CYXE;2010-11-02 20:00;CYXE 022000Z 31014G21KT 15SM FEW100 12/01 A3010 RMK AC1 SLP209

CYXE;2010-11-02 21:00;CYXE 022100Z 31015G21KT 15SM FEW120 13/01 A3009 RMK AC1 SLP206

CYXE;2010-11-02 22:00;CYXE 022200Z 31014G21KT 15SM FEW120 12/M01 A3010 RMK AC1 SLP208

CYXE;2010-11-02 23:00;CYXE 022300Z 30010KT 15SM SKC 10/M00 A3013 RMK SLP216

CYXE;2010-11-03 00:00;CYXE 030000Z 27009KT 15SM SKC 07/M01 A3014 RMK SLP226

CYXE;2010-11-03 01:00;CYXE 030100Z 27010KT 15SM SKC 06/M01 A3016 RMK SLP232

CYXE;2010-11-03 02:00;CYXE 030200Z 26010KT 15SM SKC 04/M02 A3018 RMK SLP239

CYXE;2010-11-03 03:00;CYXE 030300Z 27010KT 15SM SKC 04/M02 A3018 RMK SLP245

CYXE;2010-11-03 04:00;CYXE 030400Z 26010KT 15SM SKC 04/M02 A3019 RMK SLP247

CYXE;2010-11-03 05:00;CYXE 030500Z 27011KT 15SM SKC 04/M02 A3019 RMK SLP248

CYXE;2010-11-03 06:00;CYXE 030600Z 28011G16KT 15SM SKC 05/M03 A3021 RMK SLP247

CYXE;2010-11-03 07:00;CYXE 030700Z 27010KT 15SM SKC 03/M03 A3023 RMK SLP255

CYXE;2010-11-03 08:00;CYXE 030800Z 30014KT 15SM SKC 06/M03 A3024 RMK SLP259

CYXE;2010-11-03 09:00;CYXE 030900Z 29012KT 15SM SKC 05/M03 A3027 RMK SLP268

CYXE;2010-11-03 10:00;CYXE 031000Z 30017KT 15SM SKC 06/M03 A3027 RMK SLP267

CYXE;2010-11-03 11:00;CYXE 031100Z 31012G17KT 15SM SKC 05/M03 A3029 RMK SLP275

CYXE;2010-11-03 12:00;CYXE 031200Z 30011KT 15SM SKC 04/M03 A3031 RMK SLP284

CYXE;2010-11-03 13:00;CYXE 031300Z 30015KT 15SM SKC 04/M03 A3032 RMK SLP288

CYXE;2010-11-03 14:00;CYXE 031400Z 30014KT 15SM SKC 04/M03 A3034 RMK SLP295

CYXE;2010-11-03 15:00;CYXE 031500Z 31011KT 15SM SKC 04/M02 A3036 RMK SLP305

CYXE;2010-11-03 16:00;CYXE 031600Z 31014KT 15SM SKC 06/M02 A3038 RMK SLP311

CYXE;2010-11-03 17:00;CYXE 031700Z 31015G21KT 15SM SKC 07/M01 A3040 RMK SLP317

CYXE;2010-11-03 18:00;CYXE 031800Z 31014G20KT 15SM SKC 08/M01 A3042 RMK SLP323

CYXE;2010-11-03 19:00;CYXE 031900Z 30015KT 15SM SKC 09/M01 A3043 RMK SLP326

CYXE;2010-11-03 20:00;CYXE 032000Z 29014KT 15SM SKC 10/M01 A3042 RMK SLP323

CYXE;2010-11-03 21:00;CYXE 032100Z 30016KT 15SM SKC 10/M01 A3041 RMK SLP319

CYXE;2010-11-03 22:00;CYXE 032200Z 30012G17KT 15SM SKC 10/M01 A3042 RMK SLP322

CYXE;2010-11-03 23:00;CYXE 032300Z 30010KT 15SM SKC 08/M02 A3042 RMK SLP322

CYXE;2010-11-04 00:00;CYXE 040000Z 30008KT 15SM SKC 05/M02 A3043 RMK SLP328

CYXE;2010-11-04 01:00;CYXE 040100Z 28007KT 15SM SKC 03/M03 A3043 RMK SLP329

CYXE;2010-11-04 01:29;CYXE 040129Z 27007KT 15SM SKC 01/

CYXE;2010-11-04 02:00;CYXE 040200Z 28010KT 15SM SKC 01/M03 A3044 RMK SLP330

CYXE;2010-11-04 03:00;CYXE 040300Z 29007KT 15SM SKC 01/M03 A3045 RMK SLP337

CYXE;2010-11-04 04:00;CYXE 040400Z 30006KT 15SM SKC M01/M04 A3045 RMK SLP337

CYXE;2010-11-04 05:00;CYXE 040500Z 30006KT 15SM SKC M02/M04 A3045 RMK SLP337

CYXE;2010-11-04 06:00;CYXE 040600Z 27008KT 15SM SKC M03/M04 A3045 RMK SLP336

CYXE;2010-11-04 07:00;CYXE 040700Z 26005KT 15SM SKC M04/M05 A3045 RMK SLP336

CYXE;2010-11-04 08:00;CYXE 040800Z 27006KT 15SM SKC M04/M06 A3043 RMK SLP331

CYXE;2010-11-04 09:00;CYXE 040900Z 20005KT 15SM SKC M04/M06 A3042 RMK SLP326

CYXE;2010-11-04 10:00;CYXE 041000Z 20006KT 15SM SKC M04/M05 A3041 RMK SLP324

CYXE;2010-11-04 11:00;CYXE 041100Z 21004KT 15SM SKC M05/M06 A3039 RMK SLP318

CYXE;2010-11-04 12:00;CYXE 041200Z 21004KT 15SM SKC M05/M06 A3038 RMK SLP318

CYXE;2010-11-04 13:00;CYXE 041300Z 19004KT 15SM SKC M05/M06 A3037 RMK SLP314

CYXE;2010-11-04 14:00;CYXE 041400Z 16003KT 15SM FEW300 M06/M06 A3034 RMK CI0 SLP304

CYXE;2010-11-04 15:00;CYXE 041500Z 16003KT 15SM FEW300 M04/M05 A3034 RMK CI0 SLP303

CYXE;2010-11-04 16:00;CYXE 041600Z 20007KT 15SM SKC M01/M04 A3032 RMK SLP298

CYXE;2010-11-04 17:00;CYXE 041700Z 19005KT 15SM SKC 02/M03 A3030 RMK SLP290

CYXE;2010-11-04 18:00;CYXE 041800Z 18008KT 15SM SKC 05/M01 A3027 RMK SLP277

CYXE;2010-11-04 19:00;CYXE 041900Z 17009KT 15SM SKC 08/M02 A3023 RMK SLP265

CYXE;2010-11-04 20:00;CYXE 042000Z 18007KT 15SM SKC 10/M02 A3019 RMK SLP252

CYXE;2010-11-04 21:00;CYXE 042100Z 16009KT 15SM SKC 10/M02 A3016 RMK SLP238

CYXE;2010-11-04 22:00;CYXE 042200Z 16008KT 15SM SKC 10/M03 A3012 RMK SLP223

CYXE;2010-11-04 23:00;CYXE 042300Z 16009KT 15SM FEW300 09/M03 A3009 RMK CI1 SLP214

CYXE;2010-11-05 00:00;CYXE 050000Z 15009KT 15SM FEW300 06/M03 A3006 RMK CI1 VIA YEG FSS SLP205

CYXE;2010-11-05 01:00;CYXE 050100Z 15009KT 15SM SKC 05/M03 A3004 RMK SLP198

CYXE;2010-11-05 02:00;CYXE 050200Z 16011KT 15SM SKC 05/M03 A3000 RMK SLP186

CYXE;2010-11-05 03:00;CYXE 050300Z 16011KT 15SM SKC 04/M03 A2997 RMK SLP177

CYXE;2010-11-05 04:00;CYXE 050400Z 16010KT 15SM SKC 04/M04 A2994 RMK SLP165

CYXE;2010-11-05 05:00;CYXE 050500Z 16007KT 15SM SKC 03/M04 A2992 RMK SLP160

CYXE;2010-11-05 06:00;CYXE 050600Z 18012KT 15SM SKC 05/M04 A2989 RMK SLP142

CYXE;2010-11-05 07:00;CYXE 050700Z 19012KT 15SM SKC 04/M03 A2986 RMK SLP131

CYXE;2010-11-05 08:00;CYXE 050800Z 19009KT 15SM SKC 04/M03 A2983 RMK SLP124

CYXE;2010-11-05 09:00;CYXE 050900Z 19007KT 15SM SKC 03/M03 A2982 RMK SLP115

CYXE;2010-11-05 10:00;CYXE 051000Z 18009KT 15SM SKC 03/M03 A2978 RMK SLP102

CYXE;2010-11-05 11:00;CYXE 051100Z 20008KT 15SM SKC 02/M03 A2976 RMK SLP097

CYXE;2010-11-05 12:00;CYXE 051200Z 19008KT 15SM SKC 01/M03 A2974 RMK SLP090

CYXE;2010-11-05 13:00;CYXE 051300Z 19008KT 15SM SKC 01/M02 A2972 RMK SLP086

CYXE;2010-11-05 14:00;CYXE 051400Z 19008KT 15SM SCT100 01/M02 A2971 RMK AC3 SLP081

CYXE;2010-11-05 15:00;CYXE 051500Z 20011KT 15SM FEW100 03/M01 A2969 RMK AC2 SLP076

CYXE;2010-11-05 16:00;CYXE 051600Z 21010KT 15SM FEW100 SCT300 04/M01 A2968 RMK AC2CI1 SLP073

CYXE;2010-11-05 17:00;CYXE 051700Z 22010KT 15SM FEW100 SCT300 07/00 A2967 RMK AC1CI2 SLP070

CYXE;2010-11-05 18:00;CYXE 051800Z 20008KT 15SM FEW100 SCT300 10/02 A2965 RMK AC1CI2 SLP056

CYXE;2010-11-05 19:00;CYXE 051900Z 21010KT 15SM FEW100 SCT300 11/02 A2962 RMK AC1CI2 SLP047

CYXE;2010-11-05 20:00;CYXE 052000Z 22014KT 15SM FEW100 SCT300 15/03 A2958 RMK AC2CI1 SLP034

CYXE;2010-11-05 21:00;CYXE 052100Z 23009KT 15SM SCT120 BKN280 15/04 A2958 RMK AC4CI3 SLP030

CYXE;2010-11-05 22:00;CYXE 052200Z 21009KT 15SM SCT120 OVC280 15/04 A2954 RMK AC4CI4 SLP019

CYXE;2010-11-05 23:00;CYXE 052300Z 22009KT 15SM BKN120 BKN280 13/04 A2954 RMK AC6CI2 SLP019

CYXE;2010-11-06 00:00;CYXE 060000Z 23008KT 15SM BKN120 OVC280 12/04 A2954 RMK AC5CI2 SLP021

CYXE;2010-11-06 01:00;CYXE 060100Z 23007KT 15SM BKN120 OVC280 10/04 A2955 RMK AC6CI2 SLP022

CYXE;2010-11-06 02:00;CYXE 060200Z 25007KT 15SM OVC120 09/04 A2956 RMK AC8 SLP025

CYXE;2010-11-06 03:00;CYXE 060300Z 31006KT 15SM SCT120 OVC280 07/02 A2957 RMK AC3CI2 SLP033

CYXE;2010-11-06 04:00;CYXE 060400Z 31010KT 15SM FEW120 BKN280 06/02 A2959 RMK AC2CI2 SLP039

CYXE;2010-11-06 05:00;CYXE 060500Z 32007KT 15SM BKN120 05/01 A2961 RMK AC6 SLP046

CYXE;2010-11-06 06:00;CYXE 060600Z 32010KT 15SM BKN120 05/01 A2964 RMK AC6 SLP054

CYXE;2010-11-06 07:00;CYXE 060700Z 31007KT 15SM BKN120 04/00 A2968 RMK AC5 SLP065

CYXE;2010-11-06 08:00;CYXE 060800Z 34005KT 15SM SCT120 02/M01 A2970 RMK AC3 SLP073

CYXE;2010-11-06 09:00;CYXE 060900Z 30005KT 15SM FEW120 01/M03 A2973 RMK AC2 SLP084

CYXE;2010-11-06 10:00;CYXE 061000Z 31008KT 15SM SKC M00/M03 A2976 RMK SLP094

CYXE;2010-11-06 11:00;CYXE 061100Z 30007KT 15SM SKC M02/M04 A2978 RMK SLP101

CYXE;2010-11-06 12:00;CYXE 061200Z 32007KT 15SM SKC M01/M03 A2981 RMK SLP113

CYXE;2010-11-06 13:00;CYXE 061300Z 32005KT 15SM SCT120 M02/M04 A2982 RMK AC2 SLP116

CYXE;2010-11-06 14:00;CYXE 061400Z 32003KT 15SM FEW050 FEW120 M02/M04 A2985 RMK SC1AC1 SLP126

CYXE;2010-11-06 15:00;CYXE 061500Z 30003KT 15SM FEW120 FEW300 M02/M04 A2987 RMK AC1CI0 SLP140

CYXE;2010-11-06 16:00;CYXE 061600Z 36002KT 15SM FEW120 01/M03 A2989 RMK AC1 SLP144

CYXE;2010-11-06 17:00;CYXE 061700Z 03002KT 15SM FEW120 05/M03 A2988 RMK AC1 SLP141

CYXE;2010-11-06 18:00;CYXE 061800Z 05003KT 15SM FEW250 07/M03 A2989 RMK CI0 SLP140

CYXE;2010-11-06 19:00;CYXE 061900Z 14004KT 15SM FEW120 FEW250 08/M06 A2987 RMK AC1CI0 SLP134

CYXE;2010-11-06 20:00;CYXE 062000Z 11003KT 15SM FEW120 SCT250 10/M05 A2986 RMK AC1CI1 SLP130

CYXE;2010-11-06 21:00;CYXE 062100Z 17005KT 15SM FEW120 BKN250 09/M05 A2984 RMK AC1CI2 SLP125

CYXE;2010-11-06 22:00;CYXE 062200Z 16005KT 15SM FEW120 BKN250 08/M05 A2983 RMK AC2CI3 SLP122

CYXE;2010-11-06 23:00;CYXE 062300Z 11005KT 15SM SCT120 OVC250 07/M04 A2982 RMK AC2CI3 SLP117

CYXE;2010-11-07 00:00;CYXE 070000Z 10006KT 15SM FEW120 BKN250 03/M05 A2979 RMK AC2CI2 SLP112

CYXE;2010-11-07 01:00;CYXE 070100Z 12007KT 15SM FEW120 BKN250 04/M05 A2977 RMK AC2CI2 SLP107

CYXE;2010-11-07 02:00;CYXE 070200Z 14008KT 15SM FEW110 BKN250 05/M04 A2976 RMK AC2CI2 SLP104

CYXE;2010-11-07 03:00;CYXE 070300Z 12007KT 15SM SCT050 BKN250 04/M03 A2974 RMK SC3CI1 SLP094

CYXE;2010-11-07 03:15;CYXE 070315Z 11007KT 15SM -SHRA FEW060 SCT100 BKN250 04/ RMK SC2AC2CI1 CVCTV CLD EMBD

CYXE;2010-11-07 03:42;CYXE 070342Z 11007KT 15SM SCT090 BKN250 03/ RMK AC2CI2

CYXE;2010-11-07 04:00;CYXE 070400Z 12008KT 15SM FEW090 SCT250 04/M02 A2971 RMK AC2CI1 SLP087

CYXE;2010-11-07 05:00;CYXE 070500Z 12007KT 15SM FEW090 SCT250 04/M02 A2968 RMK AC1CI1 SLP075

CYXE;2010-11-07 06:00;CYXE 070600Z 11004KT 15SM SCT095 04/M01 A2967 RMK AC2 SLP065

CYXE;2010-11-07 07:00;CYXE 070700Z 10004KT 15SM FEW090 01/M02 A2966 RMK AC2 SLP062

CYXE;2010-11-07 08:00;CYXE 070800Z 08004KT 15SM SKC 01/M02 A2964 RMK SLP057

CYXE;2010-11-07 09:00;CYXE 070900Z 00000KT 15SM SKC 01/M02 A2964 RMK SLP057

CYXE;2010-11-07 10:00;CYXE 071000Z 23005KT 15SM FEW030 M02/M03 A2965 RMK SC1 SLP061

CYXE;2010-11-07 11:00;CYXE 071100Z 25003KT 15SM SKC M01/M01 A2966 RMK SLP062

CYXE;2010-11-07 12:00;CYXE 071200Z 25003KT 15SM SKC M02/M03 A2966 RMK SLP069

CYXE;2010-11-07 13:00;CYXE 071300Z 23007KT 15SM SKC M03/M04 A2967 RMK SLP071

CYXE;2010-11-07 14:00;CYXE 071400Z 28003KT 15SM SKC M04/M04 A2967 RMK SLP073

CYXE;2010-11-07 15:00;CYXE 071500Z 00000KT 15SM FEW060 FEW300 M03/M03 A2966 RMK SC1CI0 SLP070

CYXE;2010-11-07 16:00;CYXE 071600Z 25002KT 15SM FEW100 SCT300 M00/M01 A2968 RMK AC2CI0 SLP075

CYXE;2010-11-07 17:00;CYXE 071700Z 17002KT 15SM FEW100 SCT300 04/00 A2968 RMK AC2CI0 SLP074

CYXE;2010-11-07 18:00;CYXE 071800Z 05002KT 15SM FEW050 BKN300 06/01 A2967 RMK SC1CI1 SLP068

CYXE;2010-11-07 19:00;CYXE 071900Z 08004KT 15SM FEW050 BKN300 08/01 A2966 RMK SC1CI1 SLP063

CYXE;2010-11-07 20:00;CYXE 072000Z 07005KT 15SM FEW100 SCT280 09/02 A2965 RMK AC1CI2 SLP060

CYXE;2010-11-07 21:00;CYXE 072100Z 08006KT 15SM FEW120 SCT280 11/02 A2963 RMK AC1CI2 SLP051

CYXE;2010-11-07 22:00;CYXE 072200Z 09005KT 15SM FEW120 BKN280 11/03 A2963 RMK AC1CI2 SLP051

CYXE;2010-11-07 23:00;CYXE 072300Z 06007KT 15SM FEW120 BKN280 09/04 A2962 RMK AC1CI2 SLP049

CYXE;2010-11-08 00:00;CYXE 080000Z 08008KT 15SM FEW120 BKN280 06/03 A2962 RMK AC1CI2 SLP053

CYXE;2010-11-08 01:00;CYXE 080100Z 07007KT 15SM BKN110 BKN280 06/04 A2961 RMK AC5CI1 SLP050

CYXE;2010-11-08 02:00;CYXE 080200Z 06007KT 15SM BKN110 06/04 A2960 RMK AC6 SLP047

CYXE;2010-11-08 03:00;CYXE 080300Z 07007KT 15SM BKN100 06/04 A2959 RMK AC6 SLP043

CYXE;2010-11-08 04:00;CYXE 080400Z 06007KT 15SM BKN100 06/04 A2958 RMK AC6 SLP039

CYXE;2010-11-08 05:00;CYXE 080500Z 05007KT 15SM OVC100 05/04 A2958 RMK AC6 SLP039

CYXE;2010-11-08 06:00;CYXE 080600Z 07007KT 15SM BKN100 05/04 A2957 RMK AC6 SLP031

CYXE;2010-11-08 07:00;CYXE 080700Z 08005KT 15SM OVC085 05/04 A2956 RMK AC8 SLP027

CYXE;2010-11-08 08:00;CYXE 080800Z 34004KT 15SM OVC090 05/04 A2958 RMK AC8 SLP034

CYXE;2010-11-08 12:00;CYXE 081200Z 06008KT 15SM FEW050 BKN110 04/03 A2956 RMK SC2AC2 SLP029

CYXE;2010-11-08 13:00;CYXE 081300Z 14002KT 15SM FEW050 BKN082 03/03 A2961 RMK SC2AC2 SLP044

CYXE;2010-11-08 14:00;CYXE 081400Z 32004KT 15SM OVC082 03/03 A2961 RMK AC8 SLP046

CYXE;2010-11-08 15:00;CYXE 081500Z 31005KT 15SM FEW087 BKN100 OVC250 02/02 A2962 RMK AC2AC3CI2 SLP051

CYXE;2010-11-08 16:00;CYXE 081600Z 33005KT 15SM -RA FEW004 OVC082 04/03 A2965 RMK SF2AC6 SLP060

CYXE;2010-11-08 17:00;CYXE 081700Z 34006KT 15SM -RA BKN005 OVC075 04/03 A2966 RMK SC6AC2 SLP064

CYXE;2010-11-08 18:00;CYXE 081800Z 34007KT 15SM -RA OVC005 04/04 A2967 RMK SC8 SLP067

CYXE;2010-11-08 19:00;CYXE 081900Z 01006KT 12SM -RA OVC005 04/04 A2967 RMK SC8 SLP066

CYXE;2010-11-08 20:00;CYXE 082000Z 02007KT 12SM -RA OVC005 04/04 A2967 RMK SC8 SLP067

CYXE;2010-11-08 21:00;CYXE 082100Z 36009KT 15SM -RA OVC006 04/04 A2967 RMK SC8 SLP066

CYXE;2010-11-08 22:00;CYXE 082200Z 36005KT 15SM -RA OVC005 04/04 A2971 RMK SC8 SLP079

CYXE;2010-11-08 23:00;CYXE 082300Z 36007KT 12SM -RA OVC007 04/03 A2971 RMK SC8 SLP079

CYXE;2010-11-09 00:00;CYXE 090000Z 35007KT 12SM -RA OVC006 03/03 A2971 RMK SC8 SLP082

CYXE;2010-11-09 00:40;CYXE 090040Z 34006KT 10SM -RA BKN004 OVC020 04/ RMK SF6SC2

CYXE;2010-11-09 01:00;CYXE 090100Z 34007KT 10SM -RA BKN005 OVC020 03/03 A2973 RMK SF6SC2 CIG RGD SLP087

CYXE;2010-11-09 02:00;CYXE 090200Z 36012KT 12SM -RA OVC006 03/03 A2973 RMK SF8 SLP088

CYXE;2010-11-09 03:00;CYXE 090300Z 35012KT 12SM -RA SCT006 OVC022 03/03 A2973 RMK SF4SC4 SLP091

CYXE;2010-11-09 03:19;CYXE 090319Z 34011KT 12SM -RA SCT007 OVC010 03/ RMK SF3SC5

CYXE;2010-11-09 03:39;CYXE 090339Z 35011KT 12SM -RA BKN005 OVC020 03/ RMK SF6SC2

CYXE;2010-11-09 04:00;CYXE 090400Z 35010G15KT 10SM -RA BKN006 OVC020 03/02 A2974 RMK SF6SC2 SLP093

CYXE;2010-11-09 04:40;CYXE 090440Z 35007KT 10SM -RASN OVC006 02/ RMK SF8

CYXE;2010-11-09 04:45;CYXE 090445Z 34007KT 8SM RASN OVC006 02/ RMK SF8

CYXE;2010-11-09 04:54;CYXE 090454Z 33008KT 3SM -RASN OVC004 01/ RERA RMK SN2SF6

CYXE;2010-11-09 05:00;CYXE 090500Z 34008KT 2 1/2SM -RASN OVC004 01/01 A2975 RERA RMK SN2SF6 SLP098

CYXE;2010-11-09 05:10;CYXE 090510Z 33008KT 2SM -RASN OVC004 00/ RMK SN2SF6

CYXE;2010-11-09 06:00;CYXE 090600Z 34008KT 2SM -SN OVC004 00/00 A2974 RMK SN2SF6 SLP095

CYXE;2010-11-09 06:08;CYXE 090608Z 34010KT 5SM -SN BKN003 OVC020 00/ RMK SF5SC3

CYXE;2010-11-09 06:48;CYXE 090648Z 35010KT 3SM -SN BKN005 OVC020 00/ RMK SF6SC2

CYXE;2010-11-09 07:00;CYXE 090700Z 35009KT 3SM -SN BKN005 OVC020 00/00 A2975 RMK SF6SC2 SLP098

CYXE;2010-11-09 08:00;CYXE 090800Z 35011KT 2SM -SN OVC004 00/00 A2974 RMK SN2SF6 SLP095

CYXE;2010-11-09 09:00;CYXE 090900Z 36011KT 12SM -SN BKN003 OVC012 00/00 A2974 RMK SF5SC3 SLP096

CYXE;2010-11-09 10:00;CYXE 091000Z 35013KT 6SM -SN SCT005 OVC021 00/00 A2974 RMK SF3SC5 SLP094

CYXE;2010-11-09 10:31;CYXE 091031Z 35010KT 2 1/2SM -SN BKN006 OVC015 00/ RMK SF5SC3

CYXE;2010-11-09 11:00;CYXE 091100Z 34008KT 1 1/2SM -SN OVC005 00/00 A2977 RMK SF8 SLP103

CYXE;2010-11-09 11:10;CYXE 091110Z 34009KT 1 1/4SM -SN OVC005 00/ RMK SN2SF6

CYXE;2010-11-09 11:35;CYXE 091135Z 33009KT 1 1/4SM -SN OVC003 00/ RMK SN3SF5

CYXE;2010-11-09 11:45;CYXE 091145Z 33010KT 3/4SM R09/P6000FT/D -SN VV002 00/ RMK SN8

CYXE;2010-11-09 12:00;CYXE 091200Z 33011KT 3/4SM R09/P6000FT/N -SN VV002 00/00 A2978 RMK SN8 /S02/ SLP107

CYXE;2010-11-09 13:00;CYXE 091300Z 34012KT 3/4SM R09/P6000FT/U -SN VV003 00/00 A2978 RMK SN8 SLP108

CYXE;2010-11-09 13:46;CYXE 091346Z 34009KT 1 1/2SM -SN BKN006 OVC040 00/ RMK SF6SC2

CYXE;2010-11-09 14:00;CYXE 091400Z 34010KT 1 1/2SM -SN BKN006 OVC038 00/00 A2979 RMK SF6SC2 SLP111

CYXE;2010-11-09 14:36;CYXE 091436Z 34010KT 3/4SM R09/P6000FT/D -SN VV006 00/ RMK SN8

CYXE;2010-11-09 15:00;CYXE 091500Z 35011KT 3/4SM R09/P6000FT/D -SN VV005 00/00 A2980 RMK SN8 SLP116

CYXE;2010-11-09 16:00;CYXE 091600Z 34009KT 1 1/2SM -SN OVC007 00/00 A2983 RMK SC8 SLP126

CYXE;2010-11-09 17:00;CYXE 091700Z 35009KT 10SM -SN BKN007 OVC050 00/00 A2984 RMK SC7SC1 SLP128

CYXE;2010-11-09 17:35;CYXE 091735Z 36008KT 15SM -SN SCT007 OVC040 00/ RMK ST3SC4

CYXE;2010-11-09 18:00;CYXE 091800Z 36008KT 15SM -SN BKN008 OVC036 01/00 A2983 RMK ST5SC3 SLP126

CYXE;2010-11-09 18:16;CYXE 091816Z 36011KT 15SM BKN008 OVC040 01/ RMK ST7SC1

CYXE;2010-11-09 19:00;CYXE 091900Z 01009KT 15SM OVC009 01/00 A2983 RMK ST8 SLP126

CYXE;2010-11-09 20:00;CYXE 092000Z 36010KT 15SM OVC009 00/M00 A2984 RMK SC8 SLP130

CYXE;2010-11-09 20:21;CYXE 092021Z 35010G15KT 15SM OVC012 00/ RMK SC8

CYXE;2010-11-09 21:00;CYXE 092100Z 35008KT 15SM OVC012 00/00 A2985 RMK SC8 SLP135

CYXE;2010-11-09 22:00;CYXE 092200Z 35006KT 15SM BKN010 01/M00 A2985 RMK SC7 SLP134

CYXE;2010-11-09 22:16;CYXE 092216Z 34004KT 15SM OVC008 01/ RMK SC8

CYXE;2010-11-09 23:00;CYXE 092300Z 03010KT 15SM BKN008 01/M00 A2985 RMK SC6 SLP134

CYXE;2010-11-09 23:34;CYXE 092334Z 36006KT 15SM BKN011 00/ RMK SC7

CYXE;2010-11-10 00:00;CYXE 100000Z 36006KT 15SM OVC013 00/M00 A2986 RMK SC8 SLP138

CYXE;2010-11-10 01:00;CYXE 100100Z 01008KT 15SM OVC013 00/M01 A2987 RMK SC8 SLP142

CYXE;2010-11-10 02:00;CYXE 100200Z 01008KT 15SM OVC010 M00/M01 A2988 RMK SC8 SLP143

CYXE;2010-11-10 03:00;CYXE 100300Z 36009KT 15SM OVC008 M00/M01 A2988 RMK SC8 SLP146

CYXE;2010-11-10 04:00;CYXE 100400Z 01009KT 15SM OVC008 M01/M02 A2988 RMK SC8 SLP146

CYXE;2010-11-10 05:00;CYXE 100500Z 36006KT 15SM OVC011 M01/M02 A2989 RMK SC8 SLP149

CYXE;2010-11-10 06:00;CYXE 100600Z 35009KT 15SM OVC014 M01/M02 A2989 RMK SC8 SLP150

CYXE;2010-11-10 07:00;CYXE 100700Z 35008KT 15SM OVC014 M01/M02 A2990 RMK SC8 SLP151

CYXE;2010-11-10 08:00;CYXE 100800Z 35010KT 15SM OVC012 M01/M02 A2990 RMK SC8 SLP153

CYXE;2010-11-10 09:00;CYXE 100900Z 36010KT 15SM -SN OVC009 M01/M03 A2990 RMK SC8 SLP153

CYXE;2010-11-10 10:00;CYXE 101000Z 01013KT 15SM -SN OVC008 M02/M03 A2991 RMK SC8 SLP154

CYXE;2010-11-10 11:00;CYXE 101100Z 36013KT 15SM -SN OVC008 M02/M03 A2990 RMK SC8 SLP151

CYXE;2010-11-10 12:00;CYXE 101200Z 01012KT 15SM -SN OVC008 M02/M03 A2991 RMK SC8 SLP156

CYXE;2010-11-10 13:00;CYXE 101300Z 35011KT 15SM OVC007 M03/M04 A2991 RMK SF8 SLP157

CYXE;2010-11-10 13:24;CYXE 101324Z 36010KT 15SM -SHSN OVC007 M03/ RMK SF8

CYXE;2010-11-10 14:00;CYXE 101400Z 36012KT 15SM -SHSN OVC007 M03/M04 A2992 RMK SC8 SLP161

CYXE;2010-11-10 14:43;CYXE 101443Z 36011KT 15SM OVC007 M03/ RMK SC8

CYXE;2010-11-10 15:00;CYXE 101500Z 01012G17KT 15SM OVC007 M03/M04 A2994 RMK SC8 SLP166

CYXE;2010-11-10 15:50;CYXE 101550Z 36014KT 15SM OVC010 M02/ RMK SC8

CYXE;2010-11-10 16:00;CYXE 101600Z 35014KT 15SM OVC010 M02/M04 A2995 RMK SC8 SLP169

CYXE;2010-11-10 17:00;CYXE 101700Z 35011KT 15SM OVC012 M02/M04 A2996 RMK SC8 SLP173

CYXE;2010-11-10 18:00;CYXE 101800Z 36014KT 15SM OVC014 M02/M04 A2996 RMK SC8 SLP175

CYXE;2010-11-10 19:00;CYXE 101900Z 34014KT 15SM OVC014 M02/M04 A2995 RMK SC8 SLP171

CYXE;2010-11-10 20:00;CYXE 102000Z 36013KT 15SM BKN014 OVC067 M02/M04 A2995 RMK SC5AC2 SLP172

CYXE;2010-11-10 20:17;CYXE 102017Z 36012KT 15SM FEW015 BKN300 M01/ RMK SC2CI2

CYXE;2010-11-10 21:00;CYXE 102100Z 36008KT 15SM FEW015 BKN300 M01/M04 A2996 RMK SF2CI4 SLP173

CYXE;2010-11-10 22:00;CYXE 102200Z 01006KT 15SM FEW015 BKN300 M01/M04 A2998 RMK SC2CI3 SLP179

CYXE;2010-11-10 23:00;CYXE 102300Z 35005KT 15SM FEW100 BKN300 M02/M04 A2999 RMK AC1CI4 SLP183

CYXE;2010-11-11 00:00;CYXE 110000Z 32004KT 15SM BKN300 M03/M04 A3000 RMK CI3 SLP189

CYXE;2010-11-11 01:00;CYXE 110100Z 32007KT 15SM BKN300 M02/M04 A3001 RMK CI2 SLP194

CYXE;2010-11-11 02:00;CYXE 110200Z 32006KT 15SM BKN300 M02/M05 A3002 RMK CI2 SLP197

CYXE;2010-11-11 03:00;CYXE 110300Z 31008KT 15SM SCT300 M03/M04 A3003 RMK CI2 SLP199

CYXE;2010-11-11 04:00;CYXE 110400Z 32008KT 15SM FEW300 M03/M05 A3004 RMK CI0 SLP202

CYXE;2010-11-11 05:00;CYXE 110500Z 32006KT 15SM FEW300 M04/M06 A3004 RMK CI0 SLP204

CYXE;2010-11-11 06:00;CYXE 110600Z 31005KT 15SM SKC M04/M05 A3005 RMK SLP209

CYXE;2010-11-11 07:00;CYXE 110700Z 30008KT 15SM SKC M05/M06 A3006 RMK SLP211

CYXE;2010-11-11 08:00;CYXE 110800Z 30009KT 15SM FEW058 M04/M05 A3006 RMK SC2 SLP210

CYXE;2010-11-11 09:00;CYXE 110900Z 31010KT 15SM FEW058 M05/M05 A3006 RMK SC1 SLP211

CYXE;2010-11-11 10:00;CYXE 111000Z 31011KT 15SM SKC M05/M06 A3007 RMK SLP214

CYXE;2010-11-11 11:00;CYXE 111100Z 30009KT 15SM SKC M05/M06 A3007 RMK SLP215

CYXE;2010-11-11 12:00;CYXE 111200Z 31008KT 15SM SCT079 M05/M06 A3008 RMK AC2 SLP219

CYXE;2010-11-11 13:00;CYXE 111300Z 30011KT 15SM OVC079 M03/M04 A3008 RMK AC8 SLP219

CYXE;2010-11-11 14:00;CYXE 111400Z 28008KT 15SM OVC074 M03/M04 A3009 RMK AC8 SLP222

CYXE;2010-11-11 15:00;CYXE 111500Z 28006KT 6SM BR OVC074 M03/M03 A3009 RMK AC8 SLP221

CYXE;2010-11-11 16:00;CYXE 111600Z 26005KT 15SM FEW058 OVC080 M02/M03 A3010 RMK SC2AC6 SLP223

CYXE;2010-11-11 17:00;CYXE 111700Z 27007KT 15SM OVC063 M01/M02 A3010 RMK SC7 SLP225

CYXE;2010-11-11 18:00;CYXE 111800Z 27010KT 15SM BKN068 01/M03 A3010 RMK AC7 SLP223

CYXE;2010-11-11 19:00;CYXE 111900Z 25009KT 15SM OVC078 01/M02 A3010 RMK AC7 SLP223

CYXE;2010-11-11 20:00;CYXE 112000Z 24009KT 15SM OVC075 01/M02 A3010 RMK AC7 SLP224

CYXE;2010-11-11 21:00;CYXE 112100Z 25007KT 15SM OVC075 01/M01 A3011 RMK AC8 SLP227

CYXE;2010-11-11 22:00;CYXE 112200Z 23005KT 15SM BKN073 01/M01 A3011 RMK AC7 SLP227

CYXE;2010-11-11 23:00;CYXE 112300Z 23006KT 15SM BKN080 01/M01 A3012 RMK AC6 SLP228

CYXE;2010-11-12 00:00;CYXE 120000Z 21007KT 15SM SCT080 M01/M02 A3011 RMK AC4 SLP228

CYXE;2010-11-12 01:00;CYXE 120100Z 21007KT 15SM BKN062 00/M01 A3011 RMK SC7 SLP228

CYXE;2010-11-12 02:00;CYXE 120200Z 23007KT 15SM FEW060 M02/M03 A3011 RMK SC2 SLP227

CYXE;2010-11-12 03:00;CYXE 120300Z 26007KT 15SM FEW060 M04/M05 A3011 RMK SC1 SLP228

CYXE;2010-11-12 04:00;CYXE 120400Z 28004KT 15SM FEW060 M05/M05 A3012 RMK SC1 SLP230

CYXE;2010-11-12 05:00;CYXE 120500Z 26003KT 6SM BR SKC M05/M05 A3013 RMK SLP234

CYXE;2010-11-12 06:00;CYXE 120600Z 24005KT 15SM SKC M06/M07 A3014 RMK SLP238

CYXE;2010-11-12 07:00;CYXE 120700Z 22005KT 15SM SKC M06/M07 A3015 RMK SLP240

CYXE;2010-11-12 08:00;CYXE 120800Z 23005KT 15SM SKC M07/M08 A3015 RMK SLP240

CYXE;2010-11-12 09:00;CYXE 120900Z 22004KT 15SM SKC M07/M07 A3016 RMK SLP243

CYXE;2010-11-12 10:00;CYXE 121000Z 25003KT 10SM SKC M08/M08 A3016 RMK BR SLP245

CYXE;2010-11-12 11:00;CYXE 121100Z 26002KT 10SM SKC M08/M09 A3017 RMK BR SLP248

CYXE;2010-11-12 11:45;CYXE 121145Z 00000KT 6SM BR FEW002 M07/ RMK ST2 BCFG

CYXE;2010-11-12 12:00;CYXE 121200Z 02002KT 6SM R09/4500VP6000FT/U BR SCT003 M08/M08 A3018 RMK ST4 BCFG SLP254

CYXE;2010-11-12 12:38;CYXE 121238Z 06002KT 3/4SM R09/P6000FT/U BR BKN002 M08/ RMK ST5

CYXE;2010-11-12 13:00;CYXE 121300Z 04002KT 3/8SM R09/2800VP6000FT/D FZFG VV001 M07/M08 A3020 RMK FG8 SLP259

CYXE;2010-11-12 13:26;CYXE 121326Z 00000KT 1/8SM R09/1200V1800FT/D FZFG VV001 M07/ RMK FG8

CYXE;2010-11-12 14:00;CYXE 121400Z 00000KT 1/8SM R09/1100FT/N FZFG VV001 M07/M08 A3022 RMK FG8 SLP266

CYXE;2010-11-12 15:00;CYXE 121500Z CCA 08005KT 1/8SM R09/1000FT/N FZFG VV001 M07/M07 A3023 RMK FG8 SLP273

CYXE;2010-11-12 15:20;CYXE 121520Z 08005KT 1/8SM R09/1000FT/N FZFG OVC210 M07/ RMK FG4CI2

CYXE;2010-11-12 15:54;CYXE 121554Z 06005KT 3/8SM R09/1000FT/N FZFG OVC210 M07/ RMK FG3CI2

CYXE;2010-11-12 16:00;CYXE 121600Z 06006KT 3/8SM R09/1000FT/N FZFG OVC210 M07/M07 A3025 RMK FG3CI2 SLP277

CYXE;2010-11-12 16:10;CYXE 121610Z CCA 06005KT 1/8SM R09/1000FT/N FZFG OVC210 M06/ RMK FG6CI1

CYXE;2010-11-12 16:43;CYXE 121643Z 05003KT 1/4SM R09/1100FT/N FZFG OVC210 M06/ RMK FG7CI1 VIS S 1/2

CYXE;2010-11-12 17:00;CYXE 121700Z 05004KT 1/4SM R09/1400FT/N FZFG OVC120 M06/M07 A3026 RMK FG6AC2 VIS S 1/2 SLP282

CYXE;2010-11-12 17:03;CYXE 121703Z 05003KT 1/8SM R09/1200V1800FT/U FZFG VV001 M06/ RMK FG8

CYXE;2010-11-12 18:00;CYXE 121800Z 07003KT 1/4SM R09/1600V2200FT/N -SG FZFG OVC120 M06/M06 A3027 RMK FG6AC2 VIS S 1/2 SLP288

CYXE;2010-11-12 18:37;CYXE 121837Z 07005KT 3/8SM R09/1200FT/N -SG FZFG VV001 M05/ RMK FG8

CYXE;2010-11-12 18:46;CYXE 121846Z 06006KT 1/2SM R09/3000FT/N FZFG VV001 M04/ RMK FG8 VIS NE-SE 1/4

CYXE;2010-11-12 19:00;CYXE 121900Z CCA 07005KT 1/4SM R09/2800V4500FT/N -SG FZFG VV001 M04/M04 A3027 RMK FG8 SLP287

CYXE;2010-11-12 19:27;CYXE 121927Z 09006KT 3/8SM R09/2200V3500FT/D -SG FZFG VV001 M04/ RMK FG8

CYXE;2010-11-12 20:00;CYXE 122000Z 07006KT 3/8SM R09/1400FT/N -SN FZFG OVC001 M04/M04 A3027 RMK FG6SF2 SLP287

CYXE;2010-11-12 20:22;CYXE 122022Z 10003KT 3/8SM R09/2600FT/N -SN FZFG OVC002 M04/ RMK FG6SF2 CIG VRB 1-3

CYXE;2010-11-12 20:39;CYXE 122039Z 09003KT 1/2SM R09/3000V6000FT/D -SN FZFG OVC001 M04/ RMK FG6SF2

CYXE;2010-11-12 21:00;CYXE 122100Z 07003KT 1/4SM R09/2000FT/N -SN FZFG VV001 M04/M04 A3028 RMK FG8 OBS TAKEN +02 SLP290

CYXE;2010-11-12 22:00;CYXE 122200Z 05003KT 1/4SM R09/2200FT/N -SN FZFG VV001 M04/M04 A3030 RMK FG8 SLP295

CYXE;2010-11-12 22:43;CYXE 122243Z 06003KT 3/4SM R09/5000FT/D -SN BR OVC002 M04/ RMK ST8

CYXE;2010-11-12 23:00;CYXE 122300Z 04003KT 1/2SM R09/2800V5500FT/U -SN FZFG OVC001 M04/M04 A3032 RMK ST8 SLP300

CYXE;2010-11-13 00:00;CYXE 130000Z 03004KT 1/2SM R09/4000FT/D -SN FZFG VV001 M04/M04 A3032 RMK FG8 SLP304

CYXE;2010-11-13 00:11;CYXE 130011Z 02003KT 1/4SM R09/4000FT/N -SN FZFG VV001 M04/ RMK FG8

CYXE;2010-11-13 01:00;CYXE 130100Z 09003KT 1/2SM R09/P6000FT/D -SN FZFG VV001 M04/M04 A3033 RMK FG8 SLP308

CYXE;2010-11-13 01:20;CYXE 130120Z 08003KT 3/4SM R09/P6000FT/D -SN BR OVC001 M04/ RMK ST8

CYXE;2010-11-13 02:00;CYXE 130200Z 03002KT 1SM R09/P6000FT/U -SN BR OVC002 M04/M04 A3034 RMK ST8 SLP309

CYXE;2010-11-13 03:00;CYXE 130300Z 16002KT 1SM R09/P6000FT/N -SN BR OVC001 M04/M04 A3033 RMK ST8 SLP307

CYXE;2010-11-13 03:46;CYXE 130346Z 00000KT 3/4SM R09/3000VP6000FT/D BR OVC001 M04/ RMK ST8

CYXE;2010-11-13 04:00;CYXE 130400Z 00000KT 1/2SM R09/3500VP6000FT/U FZFG VV001 M04/M04 A3034 RMK FG8 SLP309

CYXE;2010-11-13 04:51;CYXE 130451Z 19003KT 3/4SM R09/P6000FT/U BR OVC002 M04/ RMK ST8

CYXE;2010-11-13 05:00;CYXE 130500Z 16003KT 1 1/2SM BR OVC002 M04/M04 A3033 RMK ST8 SLP306

CYXE;2010-11-13 05:34;CYXE 130534Z 20004KT 1/2SM R09/P6000FT/D FZFG VV002 M04/ RMK FG8

CYXE;2010-11-13 06:00;CYXE 130600Z 20002KT 1/2SM R09/4000VP6000FT/D FZFG VV001 M04/M05 A3032 RMK FG8 SLP304

CYXE;2010-11-13 06:29;CYXE 130629Z 21003KT 1/4SM R09/4500VP6000FT/U FZFG VV001 M05/ RMK FG8

CYXE;2010-11-13 07:00;CYXE 130700Z 21004KT 1/4SM R09/2800V4500FT/U FZFG VV001 M05/M05 A3032 RMK FG8 SLP304

CYXE;2010-11-13 07:53;CYXE 130753Z 21004KT 1/8SM R09/2600V4000FT/N FZFG VV001 M05/ RMK FG8

CYXE;2010-11-13 08:00;CYXE 130800Z 21004KT 1/8SM R09/2600V4000FT/N FZFG VV001 M05/M05 A3031 RMK FG8 SLP300

CYXE;2010-11-13 09:00;CYXE 130900Z 25006KT 1/8SM R09/2600V4000FT/N FZFG VV001 M05/M06 A3031 RMK FG8 SLP299

CYXE;2010-11-13 10:00;CYXE 131000Z 22003KT 1/8SM R09/3000FT/N FZFG VV001 M05/M06 A3029 RMK FG8 SLP291

CYXE;2010-11-13 11:00;CYXE 131100Z 21004KT 1/8SM R09/3000V4500FT/U FZFG VV001 M05/M05 A3026 RMK FG8 SLP283

CYXE;2010-11-13 12:00;CYXE 131200Z 18005KT 1/8SM R09/2200FT/N FZFG VV001 M05/M05 A3025 RMK FG8 SLP276

CYXE;2010-11-13 12:10;CYXE 131210Z 20005KT 1/4SM R09/2200FT/N FZFG VV001 M05/ RMK FG8

CYXE;2010-11-13 12:27;CYXE 131227Z 21005KT 1/8SM R09/2400FT/N FZFG VV001 M05/ RMK FG8

CYXE;2010-11-13 12:43;CYXE 131243Z 19005KT 1/4SM R09/2600VP6000FT/U FZFG VV001 M05/ RMK FG8

CYXE;2010-11-13 13:00;CYXE 131300Z 22005KT 1/4SM R09/2400FT/N FZFG VV001 M05/M05 A3023 RMK FG8 SLP269

CYXE;2010-11-13 13:21;CYXE 131321Z 20005KT 1/2SM R09/3000FT/N FZFG VV001 M05/ RMK FG8

CYXE;2010-11-13 14:00;CYXE 131400Z 21005KT 1/2SM R09/3500FT/U FZFG VV001 M05/M05 A3020 RMK FG8 SLP262

CYXE;2010-11-13 14:25;CYXE 131425Z 21005KT 1/4SM R09/2200FT/N FZFG VV001 M05/ RMK FG8

CYXE;2010-11-13 15:00;CYXE 131500Z 21005KT 1/4SM R09/2000FT/U FZFG VV001 M05/M05 A3019 RMK FG8 SLP257

CYXE;2010-11-13 15:44;CYXE 131544Z 21004KT 1/2SM R09/4500VP6000FT/U FZFG VV002 M04/ RMK FG8

CYXE;2010-11-13 16:00;CYXE 131600Z 20005KT 3/4SM R09/P6000FT/U BR OVC002 M04/M05 A3016 RMK ST8 SLP248

CYXE;2010-11-13 16:41;CYXE 131641Z 21006KT 1 1/2SM BR OVC002 M04/ RMK FG2ST6

CYXE;2010-11-13 17:00;CYXE 131700Z 21006KT 2SM BR OVC002 M04/M04 A3013 RMK ST6 SLP238

CYXE;2010-11-13 17:12;CYXE 131712Z 21006KT 3SM BR OVC003 M04/ RMK ST6

CYXE;2010-11-13 17:51;CYXE 131751Z 21008KT 3SM BR OVC002 M04/ RMK ST8

CYXE;2010-11-13 18:00;CYXE 131800Z 22007KT 3SM BR OVC002 M03/M04 A3011 RMK ST8 SLP230

CYXE;2010-11-13 18:15;CYXE 131815Z 21007KT 1 1/2SM BR OVC002 M03/ RMK ST8

CYXE;2010-11-13 19:00;CYXE 131900Z 21008KT 2 1/2SM BR OVC002 M02/M03 A3009 RMK ST8 SLP221

CYXE;2010-11-13 19:18;CYXE 131918Z 22007KT 3SM BR OVC003 M02/ RMK ST8

CYXE;2010-11-13 19:51;CYXE 131951Z 22007KT 4SM BR OVC004 M02/ RMK SF6

CYXE;2010-11-13 20:00;CYXE 132000Z 21008KT 4SM BR BKN004 M02/M02 A3005 RMK SF6 SLP211

CYXE;2010-11-13 20:23;CYXE 132023Z 21007KT 3SM BR OVC003 M02/ RMK SF7

CYXE;2010-11-13 21:00;CYXE 132100Z 19006KT 3SM BR OVC003 M01/M01 A3001 RMK SF7 SLP193

CYXE;2010-11-13 21:45;CYXE 132145Z 20007KT 2SM BR OVC002 M01/ RMK SF8

CYXE;2010-11-13 22:00;CYXE 132200Z 21005KT 3SM BR BKN002 OVC220 M01/M01 A2998 RMK SF6CI1 VIS W-NE 11/2 SLP184

CYXE;2010-11-13 22:08;CYXE 132208Z 21005KT 4SM BR SCT003 BKN220 M01/ RMK SF3CI2 VIS W-NE 2

CYXE;2010-11-13 23:00;CYXE 132300Z 16004KT 5SM BR SCT004 OVC220 M02/M02 A2995 RMK SF3CI5 SLP174

CYXE;2010-11-14 00:00;CYXE 140000Z 18005KT 6SM BR SCT003 BKN100 OVC200 M01/M01 A2993 RMK SF3AC2CI2 SLP166

CYXE;2010-11-14 00:27;CYXE 140027Z 20005KT 12SM SCT003 OVC100 M01/ RMK SF3AC3 BR

CYXE;2010-11-14 01:00;CYXE 140100Z 19007KT 12SM SCT003 OVC100 M01/M01 A2992 RMK ST3AC3 BR SLP162

CYXE;2010-11-14 02:00;CYXE 140200Z 18007KT 10SM FEW003 OVC100 M00/M00 A2989 RMK ST2AC4 BR SLP153

CYXE;2010-11-14 03:00;CYXE 140300Z 18006KT 15SM OVC120 M00/M00 A2986 RMK AC6 SLP142

CYXE;2010-11-14 04:00;CYXE 140400Z 18006KT 15SM OVC080 M01/M01 A2984 RMK AC8 SLP134

CYXE;2010-11-14 05:00;CYXE 140500Z 19006KT 15SM BKN066 M01/M01 A2981 RMK SC7 SLP126

CYXE;2010-11-14 06:00;CYXE 140600Z 19005KT 15SM FEW065 BKN090 M01/M01 A2979 RMK SC2AC3 SLP118

CYXE;2010-11-14 07:00;CYXE 140700Z 21004KT 15SM OVC055 M01/M01 A2978 RMK SC7 SLP114

CYXE;2010-11-14 08:00;CYXE 140800Z 24004KT 15SM BKN030 OVC068 M00/M01 A2976 RMK SC6AC2 SLP108

CYXE;2010-11-14 09:00;CYXE 140900Z 27004KT 15SM OVC020 M00/M00 A2975 RMK SC8 SLP101

CYXE;2010-11-14 10:00;CYXE 141000Z 26007KT 15SM OVC018 M00/M00 A2975 RMK SC8 SLP100

CYXE;2010-11-14 11:00;CYXE 141100Z 27004KT 15SM OVC020 M00/M00 A2974 RMK SC8 SLP097

CYXE;2010-11-14 11:24;CYXE 141124Z 27004KT 15SM SCT030 OVC065 M00/ RMK SC3SC4

CYXE;2010-11-14 12:00;CYXE 141200Z 29005KT 15SM FEW035 OVC065 M01/M01 A2973 RMK SC2SC6 SLP095

CYXE;2010-11-14 13:00;CYXE 141300Z 30006KT 15SM FEW030 OVC055 M01/M01 A2972 RMK SC2SC6 SLP092

CYXE;2010-11-14 14:00;CYXE 141400Z 30007KT 15SM FEW010 SCT025 OVC060 M01/M01 A2972 RMK SC2SC2SC5 SLP092

CYXE;2010-11-14 14:14;CYXE 141414Z 32005KT 15SM BKN010 OVC060 M00/ RMK ST6SC2

CYXE;2010-11-14 14:30;CYXE 141430Z 32005KT 15SM OVC008 M00/ RMK ST8

CYXE;2010-11-14 15:00;CYXE 141500Z 34003KT 15SM OVC008 M00/M01 A2972 RMK ST8 SLP091

CYXE;2010-11-14 15:21;CYXE 141521Z 34003KT 10SM OVC006 M00/ RMK ST8 BR

CYXE;2010-11-14 15:52;CYXE 141552Z 36004KT 8SM OVC004 M00/ RMK ST8 BR

CYXE;2010-11-14 16:00;CYXE 141600Z 36004KT 8SM OVC004 00/M00 A2971 RMK ST8 BR SLP087

CYXE;2010-11-14 16:16;CYXE 141616Z 02004KT 1SM R09/P6000FT/D BR OVC002 00/ RMK ST8

CYXE;2010-11-14 16:20;CYXE 141620Z 03004KT 1/2SM R09/P6000FT/D FZFG OVC002 00/ RMK FG2ST6

CYXE;2010-11-14 16:42;CYXE 141642Z 00000KT 1/4SM R09/2600FT/N FZFG VV001 M00/ RMK FG8

CYXE;2010-11-14 16:54;CYXE 141654Z 00000KT 1/2SM R09/2200FT/N FZFG VV001 M00/ RMK FG8

CYXE;2010-11-14 17:00;CYXE 141700Z 00000KT 1/2SM R09/2200FT/N FZFG VV001 M00/M00 A2971 RMK FG8 SLP086

CYXE;2010-11-14 17:42;CYXE 141742Z 00000KT 3/8SM R09/1800FT/N FZFG VV001 M00/ RMK FG8

CYXE;2010-11-14 18:00;CYXE 141800Z 00000KT 3/8SM R09/1600FT/N FZFG VV001 M00/M00 A2970 RMK FG8 SLP085

CYXE;2010-11-14 18:34;CYXE 141834Z 33004KT 1/2SM R09/2200V3000FT/U FG VV002 00/ RMK FG8

CYXE;2010-11-14 18:52;CYXE 141852Z 33003KT 1SM R09/3000VP6000FT/N BR VV002 00/ RMK FG8

CYXE;2010-11-14 19:00;CYXE 141900Z 32003KT 1 1/2SM R09/3000VP6000FT/N BR VV002 00/00 A2969 RMK FG8 SLP080

CYXE;2010-11-14 19:04;CYXE 141904Z 30003KT 3SM BR OVC004 00/ RMK ST8 CIG RAG

CYXE;2010-11-14 19:16;CYXE 141916Z 31003KT 5SM BR OVC006 00/ RMK ST8 CIG RAG

CYXE;2010-11-14 20:00;CYXE 142000Z 31004KT 6SM BR OVC006 00/00 A2968 RMK ST8 SLP078

CYXE;2010-11-14 21:00;CYXE 142100Z 35007KT 8SM OVC008 01/00 A2967 RMK ST8 BR SLP073

CYXE;2010-11-14 21:38;CYXE 142138Z 31006KT 8SM OVC005 01/ RMK ST8 BR

CYXE;2010-11-14 22:00;CYXE 142200Z 32006KT 8SM OVC005 01/00 A2966 RMK ST8 BR SLP070

CYXE;2010-11-14 22:04;CYXE 142204Z 32008KT 8SM OVC004 00/ RMK ST8 BR

CYXE;2010-11-14 22:25;CYXE 142225Z 30006KT 6SM BR OVC003 00/ RMK ST8

CYXE;2010-11-14 23:00;CYXE 142300Z 33007KT 5SM BR OVC002 M00/M00 A2966 RMK ST8 SLP070

CYXE;2010-11-14 23:40;CYXE 142340Z 29008KT 1 1/2SM BR OVC001 M00/ RMK FG2ST6

CYXE;2010-11-15 00:00;CYXE 150000Z 30009KT 1SM R09/P6000FT/D BR OVC001 M00/M00 A2966 RMK FG6ST2 SLP071

CYXE;2010-11-15 00:22;CYXE 150022Z 32006KT 1SM R09/P6000FT/U -SN BR OVC002 M00/ RMK FG6ST2

CYXE;2010-11-15 00:31;CYXE 150031Z 33006KT 1 1/2SM -SN BR OVC002 M00/ RMK FG5ST3

CYXE;2010-11-15 01:00;CYXE 150100Z 35005KT 2SM BR OVC002 M00/M00 A2965 RMK ST8 SLP067

CYXE;2010-11-15 01:46;CYXE 150146Z 34004KT 4SM BR OVC003 M00/ RMK ST8

CYXE;2010-11-15 01:55;CYXE 150155Z 35003KT 4SM BR OVC002 M00/ RMK ST8

CYXE;2010-11-15 02:00;CYXE 150200Z 02003KT 4SM BR OVC002 M00/M00 A2965 RMK ST8 SLP066

CYXE;2010-11-15 02:20;CYXE 150220Z 00000KT 4SM BR OVC004 M00/ RMK ST8

CYXE;2010-11-15 02:38;CYXE 150238Z 32003KT 6SM BR OVC006 00/ RMK ST8

CYXE;2010-11-15 03:00;CYXE 150300Z 33002KT 6SM BR OVC006 00/M00 A2965 RMK ST8 SLP066

CYXE;2010-11-15 04:00;CYXE 150400Z 30005KT 6SM BR OVC006 00/M00 A2965 RMK ST8 SLP066

CYXE;2010-11-15 04:12;CYXE 150412Z 31004KT 6SM BR OVC005 00/ RMK ST8

CYXE;2010-11-15 05:00;CYXE 150500Z 29003KT 4SM BR OVC005 00/M00 A2965 RMK ST8 SLP068

CYXE;2010-11-15 05:21;CYXE 150521Z 24003KT 4SM BR OVC004 00/ RMK ST8

CYXE;2010-11-15 05:40;CYXE 150540Z 24004KT 4SM BR OVC003 M00/ RMK ST8

CYXE;2010-11-15 06:00;CYXE 150600Z 26005KT 2SM BR OVC002 M00/M00 A2965 RMK ST8 SLP066

CYXE;2010-11-15 06:08;CYXE 150608Z 26004KT 1SM R09/P6000FT/N BR VV002 M00/ RMK FG8

CYXE;2010-11-15 06:45;CYXE 150645Z 22005KT 3/4SM R09/P6000FT/D BR VV001 M00/ RMK FG8

CYXE;2010-11-15 06:53;CYXE 150653Z 21005KT 1/2SM R09/4500VP6000FT/D FZFG VV001 M00/ RMK FG8

CYXE;2010-11-15 07:00;CYXE 150700Z 22005KT 1/2SM R09/5000FT/N FZFG VV001 M00/M00 A2965 RMK FG8 SLP068

CYXE;2010-11-15 07:16;CYXE 150716Z 22005KT 1/4SM R09/3500FT/N FZFG VV001 M00/ RMK FG8

CYXE;2010-11-15 08:00;CYXE 150800Z 23006KT 1/4SM R09/2600FT/N FZFG VV001 M01/M01 A2965 RMK FG8 SLP068

CYXE;2010-11-15 08:40;CYXE 150840Z 24006KT 1/8SM R09/2800FT/N FZFG VV001 M01/ RMK FG8

CYXE;2010-11-15 09:00;CYXE 150900Z 24004KT 1/8SM R09/3000FT/N FZFG VV001 M01/M01 A2965 RMK FG8 SLP068

CYXE;2010-11-15 09:47;CYXE 150947Z 23004KT 0SM R09/1200FT/N FZFG VV000 M01/ RMK FG8

CYXE;2010-11-15 10:00;CYXE 151000Z 23004KT 0SM R09/1600FT/N FZFG VV000 M02/M02 A2966 RMK FG8 SLP069

CYXE;2010-11-15 10:14;CYXE 151014Z 23003KT 1/4SM R09/1600FT/N FZFG VV001 M02/ RMK FG8

CYXE;2010-11-15 10:30;CYXE 151030Z 23003KT 1SM R09/2800V5000FT/N BR OVC001 M02/ RMK ST8 VIS SW 3 NW 1/2

CYXE;2010-11-15 10:52;CYXE 151052Z 24004KT 8SM -SN FEW002 OVC050 M02/ RMK ST2SC6 BR

CYXE;2010-11-15 11:00;CYXE 151100Z 23004KT 10SM -SN FEW002 OVC050 M02/M02 A2966 RMK ST2SC6 BR SLP069

CYXE;2010-11-15 12:00;CYXE 151200Z 26004KT 10SM -SN OVC040 M01/M01 A2966 RMK SC8 BR SLP071

CYXE;2010-11-15 12:52;CYXE 151252Z 26004KT 10SM -RASN BKN035 OVC070 M01/ RMK SC6AC2

CYXE;2010-11-15 13:00;CYXE 151300Z 26005KT 10SM -RASN FEW004 BKN025 OVC070 M01/M01 A2967 RMK SF2SC4AC2 BR SLP073

CYXE;2010-11-15 13:23;CYXE 151323Z 26005KT 8SM -RA BKN005 OVC050 M01/ RMK SF6SC2 BR

CYXE;2010-11-15 13:48;CYXE 151348Z 26005KT 4SM -FZRA BR OVC003 M00/ RMK SF8

CYXE;2010-11-15 14:00;CYXE 151400Z 26005KT 2 1/2SM -SN -FZRA BR OVC003 M00/M00 A2968 RMK SF8 SLP076

CYXE;2010-11-15 14:32;CYXE 151432Z 27005KT 2SM -RASN BR OVC004 00/ RMK SF8

CYXE;2010-11-15 15:00;CYXE 151500Z 29008KT 2 1/2SM -RASN BR OVC005 00/00 A2968 RMK SF8 SLP077

CYXE;2010-11-15 15:11;CYXE 151511Z 30007KT 3SM -RASN BR OVC004 00/ RMK ST8

CYXE;2010-11-15 16:00;CYXE 151600Z 30008KT 3SM -RA BR BKN004 OVC020 00/00 A2969 RMK SF5SC3 SLP078

CYXE;2010-11-15 16:04;CYXE 151604Z 30007KT 3SM -RA BR SCT004 OVC021 01/ RMK SF3SC5

CYXE;2010-11-15 17:00;CYXE 151700Z 29007KT 3SM -RA BR FEW004 BKN009 OVC020 01/01 A2969 RMK SF2SC2SC3 SLP080

CYXE;2010-11-15 18:00;CYXE 151800Z 30008KT 4SM -RASN BR OVC006 01/01 A2969 RMK SF8 SLP081

CYXE;2010-11-15 19:00;CYXE 151900Z 30010KT 6SM -RASN BR BKN006 OVC030 01/01 A2969 RMK SF6SC2 OBS TAKEN +06 SLP080

CYXE;2010-11-15 20:00;CYXE 152000Z 30008KT 8SM -RASN BKN006 OVC030 01/01 A2969 RMK SF6SC2 SLP081

CYXE;2010-11-15 20:26;CYXE 152026Z 30009KT 15SM OVC009 01/ RMK SF8

CYXE;2010-11-15 21:00;CYXE 152100Z 30008KT 15SM FEW008 OVC012 01/00 A2970 RMK SF2SC6 SLP083

CYXE;2010-11-15 22:00;CYXE 152200Z 30009KT 6SM -DZ BR OVC008 01/00 A2970 RMK ST8 SLP084

CYXE;2010-11-15 22:15;CYXE 152215Z 30009KT 3SM -DZ BR OVC009 01/ RMK ST8

CYXE;2010-11-15 22:32;CYXE 152232Z 30007KT 4SM -DZ BR OVC014 01/ RMK ST8

CYXE;2010-11-15 23:00;CYXE 152300Z 30006KT 6SM -DZ BR OVC017 01/00 A2969 RMK ST8 SLP081

CYXE;2010-11-15 23:10;CYXE 152310Z 30006KT 12SM OVC017 01/ RMK ST8 BR

CYXE;2010-11-16 00:00;CYXE 160000Z 30010KT 12SM OVC019 01/00 A2970 RMK SC8 BR SLP083

CYXE;2010-11-16 01:00;CYXE 160100Z 30008KT 15SM OVC019 01/00 A2969 RMK SC8 SLP081

CYXE;2010-11-16 02:00;CYXE 160200Z 30006KT 15SM OVC019 01/M00 A2968 RMK SC8 SLP077

CYXE;2010-11-16 03:00;CYXE 160300Z 28004KT 15SM OVC019 01/M00 A2966 RMK SC8 SLP070

CYXE;2010-11-16 04:00;CYXE 160400Z 29007KT 15SM OVC017 00/M01 A2966 RMK SC8 SLP069

CYXE;2010-11-16 05:00;CYXE 160500Z 30006KT 15SM OVC014 01/M01 A2964 RMK SC8 SLP063

CYXE;2010-11-16 06:00;CYXE 160600Z 33004KT 15SM OVC014 00/M01 A2962 RMK SC8 SLP056

CYXE;2010-11-16 07:00;CYXE 160700Z 35004KT 15SM OVC014 00/M01 A2961 RMK SC8 SLP050

CYXE;2010-11-16 08:00;CYXE 160800Z 34005KT 15SM OVC015 00/M01 A2960 RMK SC8 SLP049

CYXE;2010-11-16 09:00;CYXE 160900Z CCA 01003KT 15SM OVC015 00/M01 A2961 RMK SC8 SLP053

CYXE;2010-11-16 10:00;CYXE 161000Z 34004KT 15SM OVC015 00/M01 A2963 RMK SC8 SLP059

CYXE;2010-11-16 10:27;CYXE 161027Z 01007KT 15SM -SN OVC009 00/ RMK SC8

CYXE;2010-11-16 11:00;CYXE 161100Z 01014KT 8SM -RASN OVC007 M00/M01 A2964 RMK SF8 SLP060

CYXE;2010-11-16 11:44;CYXE 161144Z 02015G20KT 15SM -RASN BKN010 OVC020 M01/ RMK SF6SC2

CYXE;2010-11-16 12:00;CYXE 161200Z 03016G21KT 15SM -SN BKN010 OVC020 M01/M03 A2966 RMK SF6SC2 SLP071

CYXE;2010-11-16 12:13;CYXE 161213Z 03016G22KT 15SM BKN009 OVC025 M01/ RMK SF7SC1

CYXE;2010-11-16 12:21;CYXE 161221Z 02017G22KT 15SM BKN010 OVC030 M01/ RMK SF7SC1

CYXE;2010-11-16 12:27;CYXE 161227Z 03016G21KT 15SM OVC008 M01/ RMK SF8

CYXE;2010-11-16 13:00;CYXE 161300Z 02018KT 15SM OVC008 M02/M03 A2969 RMK SF8 SLP081

CYXE;2010-11-16 13:29;CYXE 161329Z 02020G25KT 15SM BKN012 OVC022 M02/ RMK SF6SC2

CYXE;2010-11-16 14:00;CYXE 161400Z 02017G24KT 15SM OVC014 M02/M04 A2972 RMK SC8 SLP090

CYXE;2010-11-16 15:00;CYXE 161500Z 03021KT 15SM OVC014 M03/M05 A2977 RMK SC8 PRESRR SLP108

CYXE;2010-11-16 16:00;CYXE 161600Z 36021KT 15SM -SN OVC009 M04/M06 A2982 RMK SC8 SLP123

CYXE;2010-11-16 16:38;CYXE 161638Z 36019G25KT 10SM -SN DRSN BKN007 OVC015 M04/ RMK SF6SC2

CYXE;2010-11-16 16:55;CYXE 161655Z 01020G27KT 4SM -FZDZ OVC007 M06/ RMK ST8

CYXE;2010-11-16 17:00;CYXE 161700Z 36022G27KT 4SM -FZDZ OVC007 M06/M07 A2987 RMK ST8 SLP141

CYXE;2010-11-16 17:25;CYXE 161725Z 01019G25KT 15SM BKN010 M06/ RMK SC6

CYXE;2010-11-16 18:00;CYXE 161800Z 36019G26KT 15SM BKN012 M06/M08 A2992 RMK SC6 SLP163

CYXE;2010-11-16 19:00;CYXE 161900Z 36018G24KT 15SM BKN013 BKN300 M06/M09 A2996 RMK SC6CI1 SLP174

CYXE;2010-11-16 20:00;CYXE 162000Z 01016G21KT 15SM OVC019 M07/M10 A3000 RMK SC7 SLP187

CYXE;2010-11-16 20:37;CYXE 162037Z 02016G21KT 12SM -SN OVC019 M06/ RMK SC8

CYXE;2010-11-16 21:00;CYXE 162100Z 02016KT 12SM -SN OVC021 M07/M10 A3002 RMK SC8 SLP198

CYXE;2010-11-16 22:00;CYXE 162200Z 36017KT 10SM -SN OVC018 M07/M10 A3006 RMK SC8 SLP210

CYXE;2010-11-16 23:00;CYXE 162300Z CCA 01014KT 8SM -SHSN OVC021 M07/M10 A3009 RMK SC8 SLP220

CYXE;2010-11-16 23:01;CYXE 162301Z 01014KT 4SM -SHSN DRSN OVC021 M07/ RMK SC8

CYXE;2010-11-16 23:04;CYXE 162304Z 36010G16KT 2SM -SHSN DRSN OVC021 M07/ RMK SC8

CYXE;2010-11-16 23:13;CYXE 162313Z 35013G18KT 8SM -SHSN DRSN OVC019 M07/ RMK SC8

CYXE;2010-11-17 00:00;CYXE 170000Z 35013KT 10SM -SHSN DRSN OVC024 M07/M11 A3014 RMK SC8 SLP239

CYXE;2010-11-17 01:00;CYXE 170100Z 34010KT 12SM -SHSN DRSN OVC028 M07/M11 A3016 RMK SC8 SLP247

CYXE;2010-11-17 02:00;CYXE 170200Z 34009KT 8SM -SHSN DRSN OVC028 M07/M11 A3018 RMK SC8 SLP254

CYXE;2010-11-17 03:00;CYXE 170300Z 33010KT 12SM -SHSN DRSN OVC030 M07/M11 A3021 RMK SC8 SLP263

CYXE;2010-11-17 04:00;CYXE 170400Z 35008KT 15SM -SHSN OVC032 M07/M11 A3023 RMK SC8 SLP271

CYXE;2010-11-17 05:00;CYXE 170500Z 33010KT 12SM -SHSN OVC029 M07/M12 A3025 RMK SC8 SLP277

CYXE;2010-11-17 06:00;CYXE 170600Z 34011KT 15SM -SHSN OVC030 M08/M12 A3027 RMK SC8 SLP288

CYXE;2010-11-17 07:00;CYXE 170700Z 35011KT 15SM OVC033 M08/M12 A3029 RMK SC8 SLP294

CYXE;2010-11-17 08:00;CYXE 170800Z 36010KT 15SM -SN OVC025 M08/M12 A3031 RMK SC8 SLP301

CYXE;2010-11-17 09:00;CYXE 170900Z 01013KT 15SM -SN OVC035 M09/M13 A3033 RMK SC8 SLP310

CYXE;2010-11-17 10:00;CYXE 171000Z 02014KT 15SM -SN OVC025 M09/M12 A3035 RMK SC8 SLP316

CYXE;2010-11-17 11:00;CYXE 171100Z 02012KT 15SM -SN OVC030 M10/M14 A3036 RMK SC8 SLP319

CYXE;2010-11-17 12:00;CYXE 171200Z 02011KT 15SM -SN OVC030 M10/M14 A3036 RMK SC8 SLP323

CYXE;2010-11-17 13:00;CYXE 171300Z 02006KT 12SM -SN OVC025 M10/M14 A3038 RMK SC8 SLP327

CYXE;2010-11-17 14:00;CYXE 171400Z 36007KT 10SM -SN OVC025 M10/M14 A3040 RMK SC8 SLP336

CYXE;2010-11-17 14:21;CYXE 171421Z 06006KT 2 1/2SM -SN BR OVC015 M10/ RMK SC8

CYXE;2010-11-17 14:26;CYXE 171426Z 07005KT 1 1/2SM -SN BR OVC015 M10/ RMK FG2SC6

CYXE;2010-11-17 14:32;CYXE 171432Z 06004KT 6SM -SN BR OVC015 M10/ RMK SC8

CYXE;2010-11-17 14:48;CYXE 171448Z 02006KT 1 1/2SM R09/4500VP6000FT/D -SN BR OVC015 M10/ RMK FG2SC6

CYXE;2010-11-17 15:00;CYXE 171500Z 35003KT 2SM R09/4500VP6000FT/U -SN BR OVC015 M10/M12 A3040 RMK FG1SC7 SLP336

CYXE;2010-11-17 15:23;CYXE 171523Z 03005KT 6SM -SN BR OVC016 M10/ RMK SC8

CYXE;2010-11-17 15:34;CYXE 171534Z 03006KT 1SM R09/P6000FT/N -SHSN OVC015 M10/ RMK SC8

CYXE;2010-11-17 16:00;CYXE 171600Z 03008KT 3SM -SHSN OVC016 M10/M13 A3040 RMK SC8 VIS VRB 1-5 SLP337

CYXE;2010-11-17 17:00;CYXE 171700Z 07007KT 3SM -SHSN OVC016 M10/M13 A3041 RMK SC8 VIS VRB 1-5 SLP338

CYXE;2010-11-17 18:00;CYXE 171800Z 10005KT 3SM -SHSN OVC017 M10/M14 A3043 RMK SC8 SLP344

CYXE;2010-11-17 19:00;CYXE 171900Z 09006KT 6SM -SN OVC022 M10/M14 A3040 RMK SC8 SLP337

CYXE;2010-11-17 20:00;CYXE 172000Z 07011KT 5SM -SHSN BKN024 M10/M13 A3039 RMK SC7 SLP333

CYXE;2010-11-17 21:00;CYXE 172100Z 07006KT 6SM -SHSN OVC024 M10/M14 A3039 RMK SC7 SLP333

CYXE;2010-11-17 22:00;CYXE 172200Z 10010KT 6SM -SHSN OVC020 M10/M14 A3037 RMK SC7 SLP327

CYXE;2010-11-17 23:00;CYXE 172300Z 10007KT 8SM -SHSN OVC023 M11/M14 A3037 RMK SC8 SLP325

CYXE;2010-11-18 00:00;CYXE 180000Z 08009KT 10SM -SHSN OVC026 M11/M14 A3037 RMK SC8 SLP327

CYXE;2010-11-18 01:00;CYXE 180100Z 07012KT 10SM -SHSN OVC024 M11/M14 A3035 RMK SC8 SLP319

CYXE;2010-11-18 02:00;CYXE 180200Z 06013KT 10SM -SHSN OVC024 M11/M14 A3034 RMK SC8 SLP317

CYXE;2010-11-18 03:00;CYXE 180300Z 10013KT 12SM -SHSN OVC019 M11/M15 A3032 RMK SC8 SLP312

CYXE;2010-11-18 04:00;CYXE 180400Z 09013KT 15SM -SHSN BKN019 M12/M15 A3030 RMK SC6 SLP305

CYXE;2010-11-18 05:00;CYXE 180500Z 09014KT 15SM -SHSN OVC023 M12/M15 A3028 RMK SC6 SLP299

CYXE;2010-11-18 06:00;CYXE 180600Z 10013KT 15SM -SHSN OVC020 M12/M15 A3027 RMK SC8 SLP295

CYXE;2010-11-18 07:00;CYXE 180700Z 11013KT 10SM -SHSN OVC020 M11/M14 A3024 RMK SC8 SLP284

CYXE;2010-11-18 08:00;CYXE 180800Z 10014G19KT 10SM -SHSN OVC021 M11/M14 A3021 RMK SC8 SLP273

CYXE;2010-11-18 09:00;CYXE 180900Z 10012G17KT 5SM -SHSN DRSN OVC020 M11/M14 A3018 RMK SC8 SLP261

CYXE;2010-11-18 09:05;CYXE 180905Z 09018KT 2SM -SHSN DRSN OVC020 M11/ RMK SC8

CYXE;2010-11-18 10:00;CYXE 181000Z 10014KT 2SM -SHSN DRSN OVC020 M11/M13 A3014 RMK SC8 SLP250

CYXE;2010-11-18 10:11;CYXE 181011Z 10016KT 1 1/2SM -SHSN DRSN OVC020 M11/ RMK SC8

CYXE;2010-11-18 11:00;CYXE 181100Z 09015KT 1 1/2SM -SHSN DRSN OVC020 M11/M13 A3011 RMK SC8 SLP238

CYXE;2010-11-18 12:00;CYXE 181200Z 10019KT 1 1/2SM -SN BLSN OVC020 M11/M13 A3007 RMK SC8 SLP225

CYXE;2010-11-18 12:12;CYXE 181212Z 10021KT 3/4SM R09/P6000FT/D -SN BLSN VV015 M12/ RMK SN8

CYXE;2010-11-18 13:00;CYXE 181300Z 09019G24KT 1SM R09/P6000FT/N -SN BLSN OVC020 M12/M14 A3003 RMK SC8 SLP213

CYXE;2010-11-18 13:26;CYXE 181326Z 09016G22KT 1SM R09/P6000FT/D -SN BLSN VV007 M12/ RMK SN8

CYXE;2010-11-18 14:00;CYXE 181400Z 08018KT 3/4SM R09/P6000FT/D -SN BLSN VV004 M12/M14 A3002 RMK SN8 SLP208

CYXE;2010-11-18 15:00;CYXE 181500Z 08020G25KT 5/8SM R09/P6000FT/N -SN BLSN VV005 M12/M14 A2996 RMK SN8 SLP189

CYXE;2010-11-18 16:00;CYXE 181600Z 07020KT 1/2SM R09/4500FT/N -SN BLSN VV004 M12/M13 A2993 RMK SN8 SLP177

CYXE;2010-11-18 17:00;CYXE 181700Z 08021KT 5/8SM R09/6000FT/N -SN BLSN VV008 M12/M13 A2988 RMK SN8 SLP163

CYXE;2010-11-18 17:10;CYXE 181710Z 08019G24KT 3/4SM R09/P6000FT/U -SN BLSN VV008 M12/ RMK SN8

CYXE;2010-11-18 18:00;CYXE 181800Z 07017G22KT 1/2SM R09/5500FT/D -SN BLSN VV003 M11/M13 A2989 RMK SN8 SLP165

CYXE;2010-11-18 19:00;CYXE 181900Z 07024KT 1/2SM R09/3500FT/N -SN BLSN VV001 M12/M13 A2982 RMK SN8 PRESFR SLP142

CYXE;2010-11-18 19:13;CYXE 181913Z 08024KT 1/2SM R09/4000FT/N -SN BLSN VV002 M12/ RMK SN8

CYXE;2010-11-18 19:44;CYXE 181944Z 08020G26KT 3/4SM R09/3500V5500FT/N -SN BLSN VV004 M12/ RMK SN8

CYXE;2010-11-18 20:00;CYXE 182000Z 07022G27KT 3/4SM R09/4000VP6000FT/U -SN BLSN VV006 M12/M13 A2981 RMK SN8 SLP139

CYXE;2010-11-18 20:29;CYXE 182029Z 07021KT 1SM R09/P6000FT/U -SN BLSN VV005 M12/ RMK SN8

CYXE;2010-11-18 21:00;CYXE 182100Z 07021KT 1SM R09/5500FT/D -SN BLSN VV009 M12/M13 A2979 RMK SN8 SLP129

CYXE;2010-11-18 21:20;CYXE 182120Z 07020G26KT 1/2SM R09/5000FT/U -SN BLSN VV005 M12/ RMK SN8

CYXE;2010-11-18 21:51;CYXE 182151Z 06017G22KT 1 1/2SM -SN BLSN VV008 M12/ RMK SN8

CYXE;2010-11-18 22:00;CYXE 182200Z 07019KT 1 1/2SM -SN BLSN VV008 M12/M13 A2981 RMK SN8 SLP136

CYXE;2010-11-18 22:21;CYXE 182221Z 06017G24KT 3/4SM R09/P6000FT/N -SN BLSN VV007 M11/ RMK SN8 VIS VRB 1/2-1

CYXE;2010-11-18 23:00;CYXE 182300Z 04016KT 3/4SM R09/P6000FT/N -SN BLSN VV006 M13/M14 A2983 RMK SN8 VIS VRB 1/2-1 SLP140

CYXE;2010-11-18 23:32;CYXE 182332Z 04018G25KT 1/2SM R09/P6000FT/U -SN BLSN VV004 M13/ RMK SN8 VIS VRB 1/4-3/4

CYXE;2010-11-19 00:00;CYXE 190000Z 04019KT 1/2SM R09/4000FT/N -SN BLSN VV004 M13/M15 A2984 RMK SN8 VIS VRB 1/4-3/4 SLP148

CYXE;2010-11-19 01:00;CYXE 190100Z 04021G26KT 1/2SM -SN BLSN VV006 M14/M15 A2984 RMK SN8 VIS VRB 1/2-3/4 SLP148

CYXE;2010-11-19 02:00;CYXE 190200Z 03016G21KT 1SM -SN BLSN VV007 M14/M16 A2987 RMK SN8 VIS VRB 1/2-11/2 /S02/ SLP155

CYXE;2010-11-19 03:00;CYXE 190300Z 03017KT 2SM -SN BLSN BKN018 OVC084 M15/M16 A2989 RMK SN2SC2AC2 /S03/ SLP165

CYXE;2010-11-19 04:00;CYXE 190400Z 03015KT 1 1/2SM -SN BLSN OVC012 M15/M17 A2991 RMK SN2SC3 SLP173

CYXE;2010-11-19 05:00;CYXE 190500Z 02012G17KT 6SM -SN BLSN BKN021 M16/M17 A2994 RMK SN2SC2 SLP181

CYXE;2010-11-19 06:00;CYXE 190600Z 02012KT 2 1/2SM -SN DRSN BKN020 M16/M17 A2996 RMK SN1SC4 OCNL BLSN SLP189

CYXE;2010-11-19 06:26;CYXE 190626Z 35009KT 8SM -SN DRSN BKN020 M17/ RMK SC4

CYXE;2010-11-19 07:00;CYXE 190700Z 35010KT 15SM -SN DRSN SCT020 M18/M19 A2998 RMK SC3 SLP198

CYXE;2010-11-19 08:00;CYXE 190800Z 34007KT 8SM -SN BKN020 M19/M20 A3000 RMK SC5 SLP203

CYXE;2010-11-19 09:00;CYXE 190900Z 34011KT 15SM -SN SCT020 M21/M23 A3002 RMK SC2 SLP214

CYXE;2010-11-19 09:22;CYXE 190922Z 34007KT 15SM SCT020 M20/ RMK SC2

CYXE;2010-11-19 10:00;CYXE 191000Z 34006KT 15SM FEW020 M21/M22 A3003 RMK SC1 SLP219

CYXE;2010-11-19 11:00;CYXE 191100Z 30009KT 15SM FEW020 M23/M23 A3005 RMK SC1 SLP225

CYXE;2010-11-19 12:00;CYXE 191200Z 27007KT 15SM FEW020 M24/M25 A3007 RMK SC1 SLP235

CYXE;2010-11-19 13:00;CYXE 191300Z 31007KT 15SM SKC M25/M26 A3008 RMK SLP239

CYXE;2010-11-19 13:48;CYXE 191348Z 31007KT 15SM FEW270 M26/ RMK CI1

CYXE;2010-11-19 14:00;CYXE 191400Z 30007KT 15SM FEW270 M26/M31 A3011 RMK CI1 SLP247

CYXE;2010-11-19 15:00;CYXE 191500Z 31008KT 15SM FEW270 M24/M28 A3013 RMK CI0 SLP257

CYXE;2010-11-19 16:00;CYXE 191600Z 28003KT 15SM FEW010 FEW270 M23/M27 A3016 RMK SF1CI0 SLP265

CYXE;2010-11-19 17:00;CYXE 191700Z 31003KT 15SM FEW015 FEW270 M21/M25 A3018 RMK SF1CI0 SLP273

CYXE;2010-11-19 18:00;CYXE 191800Z 35003KT 15SM SCT025 M19/M22 A3019 RMK SC3 SLP276

CYXE;2010-11-19 19:00;CYXE 191900Z 00000KT 15SM FEW025 M18/M21 A3021 RMK SC1 SLP280

CYXE;2010-11-19 20:00;CYXE 192000Z 00000KT 15SM SKC M16/M20 A3022 RMK SLP283

CYXE;2010-11-19 21:00;CYXE 192100Z 00000KT 15SM FEW025 M17/M21 A3023 RMK SC1 SLP289

CYXE;2010-11-19 22:00;CYXE 192200Z 00000KT 15SM FEW250 M17/M21 A3023 RMK CI1 SLP291

CYXE;2010-11-19 23:00;CYXE 192300Z 00000KT 15SM FEW250 M18/M21 A3023 RMK CI1 SLP292

CYXE;2010-11-20 00:00;CYXE 200000Z 00000KT 15SM FEW025 FEW250 M20/M23 A3025 RMK SC1CI1 SLP302

CYXE;2010-11-20 01:00;CYXE 200100Z 00000KT 6SM IC SKC M22/M25 A3026 RMK IC SLP305

CYXE;2010-11-20 02:00;CYXE 200200Z 00000KT 4SM IC SKC M23/M26 A3028 RMK IC SLP313

CYXE;2010-11-20 03:00;CYXE 200300Z 00000KT 4SM IC SKC M22/M26 A3029 RMK IC1 VIS W 11/2 SLP317

CYXE;2010-11-20 04:00;CYXE 200400Z 00000KT 4SM IC SCT001 M24/M27 A3031 RMK SF1 SLP323

CYXE;2010-11-20 05:00;CYXE 200500Z 00000KT 6SM IC FEW002 FEW120 SCT250 M23/M26 A3032 RMK SF1AC2CI0 SLP328

CYXE;2010-11-20 06:00;CYXE 200600Z 00000KT 10SM FEW002 SCT120 M24/M27 A3033 RMK SF1AC2 SLP329

CYXE;2010-11-20 07:00;CYXE 200700Z 00000KT 6SM IC PRFG BKN120 M24/M28 A3032 RMK AC6 VIS W 3 SLP327

CYXE;2010-11-20 08:00;CYXE 200800Z 00000KT 10SM SCT025 OVC120 M23/M27 A3034 RMK SC3AC4 BR PTCHS SLP331

CYXE;2010-11-20 09:00;CYXE 200900Z 00000KT 10SM -SN OVC085 M21/M25 A3034 RMK AC8 SLP328

CYXE;2010-11-20 10:00;CYXE 201000Z 00000KT 12SM -SN OVC072 M21/M24 A3034 RMK AC8 SLP328

CYXE;2010-11-20 11:00;CYXE 201100Z 00000KT 15SM BKN083 M20/M23 A3034 RMK AC6 SLP327

CYXE;2010-11-20 11:15;CYXE 201115Z 00000KT 15SM BKN080 RMK AC4 IC

CYXE;2010-11-20 12:00;CYXE 201200Z 00000KT 15SM BKN070 M21/M24 A3034 RMK AC3 IC SLP329

CYXE;2010-11-20 13:00;CYXE 201300Z 00000KT 15SM FEW009 BKN078 M20/M24 A3033 RMK SF1AC6 SLP327

CYXE;2010-11-20 14:00;CYXE 201400Z 00000KT 15SM FEW009 OVC076 M19/M23 A3033 RMK SF1AC7 SLP327

CYXE;2010-11-20 15:00;CYXE 201500Z 00000KT 15SM BKN053 M19/M22 A3034 RMK SC7 SLP332

CYXE;2010-11-20 16:00;CYXE 201600Z 00000KT 15SM SCT056 OVC082 M19/M22 A3034 RMK SC4AC4 SLP330

CYXE;2010-11-20 17:00;CYXE 201700Z 18002KT 15SM -SN SCT002 OVC052 M18/M21 A3033 RMK ST3SC4 SLP327

CYXE;2010-11-20 18:00;CYXE 201800Z 00000KT 15SM OVC054 M17/M20 A3031 RMK SC6 SLP319

CYXE;2010-11-20 19:00;CYXE 201900Z 20002KT 4SM -SN BR OVC042 M17/M19 A3029 RMK SC6 SLP315

CYXE;2010-11-20 20:00;CYXE 202000Z 00000KT 6SM -SN SCT013 OVC035 M16/M19 A3027 RMK SF3SC5 SLP306

CYXE;2010-11-20 20:27;CYXE 202027Z 00000KT 2SM -SN SCT006 OVC025 M16/ RMK SF4SC4

CYXE;2010-11-20 21:00;CYXE 202100Z 23003KT 1 1/2SM -SN SCT004 OVC041 M16/M18 A3025 RMK SF4SC4 SLP297

CYXE;2010-11-20 21:34;CYXE 202134Z 25002KT 4SM -SN BKN028 OVC046 M16/ RMK SC6SC2

CYXE;2010-11-20 22:00;CYXE 202200Z 26004KT 6SM -SN BKN028 BKN098 OVC250 M16/M18 A3024 RMK SC5AC1CI1 SLP294

CYXE;2010-11-20 23:00;CYXE 202300Z 32002KT 15SM -SN FEW056 SCT064 BKN088 OVC250 M17/M20 A3022 RMK SC2SC2AC2CI0 SLP288

CYXE;2010-11-21 00:00;CYXE 210000Z 01002KT 15SM -SN FEW050 SCT069 OVC091 M17/M19 A3020 RMK SC1AC2AC4 SLP280

CYXE;2010-11-21 01:00;CYXE 210100Z 00000KT 15SM -SN BKN055 OVC091 M17/M19 A3020 RMK SC6AC2 SLP279

CYXE;2010-11-21 02:00;CYXE 210200Z 36002KT 15SM -SN SCT055 OVC089 M17/M20 A3018 RMK SC3AC4 SLP274

CYXE;2010-11-21 02:20;CYXE 210220Z 05002KT 15SM OVC089 M17/ RMK AC8

CYXE;2010-11-21 03:00;CYXE 210300Z 00000KT 15SM -SN OVC093 M17/M19 A3015 RMK AC8 SLP263

CYXE;2010-11-21 04:00;CYXE 210400Z 15003KT 15SM -SN OVC089 M16/M18 A3015 RMK AC8 SLP263

CYXE;2010-11-21 05:00;CYXE 210500Z 00000KT 15SM -SN OVC061 M17/M19 A3015 RMK SC8 SLP262

CYXE;2010-11-21 06:00;CYXE 210600Z 00000KT 12SM -SN OVC066 M16/M19 A3013 RMK AC8 SLP254

CYXE;2010-11-21 07:00;CYXE 210700Z 00000KT 10SM -SN OVC095 M16/M19 A3012 RMK AC8 SLP250

CYXE;2010-11-21 08:00;CYXE 210800Z 00000KT 15SM -SN OVC078 M16/M19 A3009 RMK AC8 SLP242

CYXE;2010-11-21 09:00;CYXE 210900Z 02003KT 15SM -SN OVC073 M16/M19 A3007 RMK AC8 SLP232

CYXE;2010-11-21 10:00;CYXE 211000Z 02005KT 5SM -SN OVC034 M16/M19 A3004 RMK SC8 SLP222

CYXE;2010-11-21 10:51;CYXE 211051Z 03003KT 2 1/2SM -SN OVC030 M16/ RMK SC8

CYXE;2010-11-21 11:00;CYXE 211100Z 03003KT 2 1/2SM -SN OVC030 M16/M19 A3003 RMK SC8 SLP218

CYXE;2010-11-21 12:00;CYXE 211200Z 04004KT 2SM -SN VV010 M16/M19 A3001 RMK SN8 SLP212

CYXE;2010-11-21 13:00;CYXE 211300Z 04002KT 1 1/2SM -SN VV007 M16/M18 A3001 RMK SN8 SLP210

CYXE;2010-11-21 14:00;CYXE 211400Z 01005KT 1 1/2SM -SN VV008 M16/M19 A3000 RMK SN8 SLP207

CYXE;2010-11-21 14:23;CYXE 211423Z 36006KT 2SM -SN VV009 M16/ RMK SN8

CYXE;2010-11-21 15:00;CYXE 211500Z 01007KT 3SM BR OVC014 M16/M19 A2999 RMK SC8 SLP205

CYXE;2010-11-21 16:00;CYXE 211600Z 02005KT 3SM -SN BKN014 OVC065 M16/M19 A2999 RMK SC5SC3 SLP204

CYXE;2010-11-21 16:22;CYXE 211622Z 02005KT 6SM BR BKN013 OVC065 M16/ RMK SC5SC3

CYXE;2010-11-21 16:48;CYXE 211648Z 36006KT 4SM -SN BR BKN013 OVC065 M16/ RMK SC5SC3

CYXE;2010-11-21 17:00;CYXE 211700Z 01006KT 4SM -SN BR BKN013 OVC065 M16/M19 A2999 RMK SC5SC3 SLP203

CYXE;2010-11-21 17:42;CYXE 211742Z 01007KT 8SM SCT013 M16/ RMK ST2 BR

CYXE;2010-11-21 18:00;CYXE 211800Z 01006KT 15SM SCT013 M16/M20 A2999 RMK ST2 SLP203

CYXE;2010-11-21 19:00;CYXE 211900Z 34006KT 12SM FEW023 SCT250 M16/M20 A2998 RMK ST1CI1 SLP202

CYXE;2010-11-21 20:00;CYXE 212000Z 34007KT 15SM FEW023 BKN250 M16/M20 A2998 RMK SC1CI1 SLP200

CYXE;2010-11-21 21:00;CYXE 212100Z 36005KT 15SM BKN250 M17/M21 A2997 RMK CI2 SLP198

CYXE;2010-11-21 22:00;CYXE 212200Z 35005KT 15SM OVC250 M18/M21 A2998 RMK CI4 SLP201

CYXE;2010-11-21 23:00;CYXE 212300Z 36003KT 15SM FEW030 OVC250 M18/M21 A2999 RMK SC2CI4 SLP204

CYXE;2010-11-21 23:15;CYXE 212315Z 01003KT 15SM -SN SCT030 OVC250 M18/ RMK SC3CI4

CYXE;2010-11-22 00:00;CYXE 220000Z 36004KT 15SM -SN SCT020 OVC250 M18/M21 A3000 RMK SC3CI4 SLP209

CYXE;2010-11-22 01:00;CYXE 220100Z 32003KT 6SM IC OVC250 M18/M21 A3001 RMK IC2CI4 SLP212

CYXE;2010-11-22 02:00;CYXE 220200Z 31002KT 8SM OVC250 M18/M21 A3001 RMK IC2CI4 IC SLP213

CYXE;2010-11-22 03:00;CYXE 220300Z 34002KT 8SM OVC250 M18/M21 A3002 RMK IC2CI5 IC SLP215

CYXE;2010-11-22 04:00;CYXE 220400Z 00000KT 8SM OVC250 M18/M21 A3002 RMK CI5 IC SLP217

CYXE;2010-11-22 05:00;CYXE 220500Z 00000KT 8SM OVC250 M18/M21 A3003 RMK IC2CI4 IC SLP219

CYXE;2010-11-22 06:00;CYXE 220600Z 32003KT 8SM OVC250 M18/M21 A3005 RMK CI4 IC SLP224

CYXE;2010-11-22 07:00;CYXE 220700Z 32003KT 6SM IC OVC250 M17/M20 A3006 RMK CI5 SLP229

CYXE;2010-11-22 08:00;CYXE 220800Z 32002KT 10SM OVC250 M18/M20 A3008 RMK CI5 IC SLP234

CYXE;2010-11-22 09:00;CYXE 220900Z 00000KT 6SM IC OVC250 M17/M20 A3009 RMK CI4 SLP238

CYXE;2010-11-22 10:00;CYXE 221000Z 12002KT 10SM FEW010 BKN250 M17/M20 A3009 RMK SF1CI2 IC SLP240

CYXE;2010-11-22 11:00;CYXE 221100Z 06003KT 15SM FEW011 BKN250 M19/M22 A3008 RMK SF1CI2 IC SLP236

CYXE;2010-11-22 12:00;CYXE 221200Z 06005KT 15SM FEW011 BKN250 M20/M23 A3008 RMK SF1CI2 IC SLP237

CYXE;2010-11-22 13:00;CYXE 221300Z 05006KT 15SM FEW010 BKN250 M21/M24 A3008 RMK SF1CI2 SLP239

CYXE;2010-11-22 14:00;CYXE 221400Z 05005KT 15SM BKN250 M20/M23 A3009 RMK CI2 SLP240

CYXE;2010-11-22 14:14;CYXE 221414Z 05004KT 8SM -SN FEW030 SCT075 M19/ RMK SC2AC2

CYXE;2010-11-22 14:34;CYXE 221434Z 07006KT 4SM -SN SCT022 BKN073 M19/ RMK SC4AC2

CYXE;2010-11-22 15:00;CYXE 221500Z 07004KT 3SM -SN BKN020 BKN060 M18/M21 A3010 RMK SC5SC2 SLP244

CYXE;2010-11-22 16:00;CYXE 221600Z 06005KT 3SM -SN OVC052 M18/M21 A3012 RMK SC8 SLP252

CYXE;2010-11-22 17:00;CYXE 221700Z 07005KT 3SM -SN BKN065 OVC300 M17/M20 A3014 RMK SC5CS2 SLP258

CYXE;2010-11-22 18:00;CYXE 221800Z 08002KT 6SM -SN BKN065 OVC300 M17/M19 A3015 RMK SC5CS2 SLP260

CYXE;2010-11-22 18:50;CYXE 221850Z 03006KT 4SM IC SCT036 OVC300 M17/ RMK SC3CS2

CYXE;2010-11-22 19:00;CYXE 221900Z 04007KT 6SM IC FEW036 BKN300 M17/M20 A3014 RMK SC2CS2 SLP258

CYXE;2010-11-22 20:00;CYXE 222000Z 05005KT 8SM FEW030 BKN300 M17/M20 A3014 RMK SC2CS2 SLP257

CYXE;2010-11-22 21:00;CYXE 222100Z 05008KT 6SM IC SCT047 BKN300 M16/M20 A3014 RMK SC3CS2 SLP257

CYXE;2010-11-22 22:00;CYXE 222200Z 04009KT 6SM IC FEW050 SCT100 OVC300 M17/M20 A3015 RMK SC2AS2CS3 SLP259

CYXE;2010-11-22 23:00;CYXE 222300Z 02009KT 6SM IC BKN100 OVC300 M18/M21 A3015 RMK AS5CS3 SLP260

CYXE;2010-11-23 00:00;CYXE 230000Z 03008KT 6SM IC BKN100 OVC300 M18/M21 A3016 RMK AS5CS3 SLP266

CYXE;2010-11-23 01:00;CYXE 230100Z 03007KT 6SM IC BKN100 OVC250 M18/M22 A3017 RMK AS6CS2 SLP270

CYXE;2010-11-23 02:00;CYXE 230200Z 03008KT 6SM IC BKN100 OVC250 M19/M22 A3018 RMK AS6CS2 SLP273

CYXE;2010-11-23 03:00;CYXE 230300Z 03008KT 8SM BKN100 OVC250 M19/M23 A3017 RMK AS6CS2 IC SLP271

CYXE;2010-11-23 04:00;CYXE 230400Z 03006KT 8SM BKN110 OVC250 M20/M24 A3018 RMK AC6CS2 IC SLP274

CYXE;2010-11-23 05:00;CYXE 230500Z 03006KT 10SM BKN110 OVC250 M21/M24 A3018 RMK AS6CS2 IC SLP274

CYXE;2010-11-23 06:00;CYXE 230600Z 02006KT 10SM FEW110 BKN250 M21/M25 A3019 RMK AC2CI2 SLP276

CYXE;2010-11-23 07:00;CYXE 230700Z 02007KT 5SM IC BKN250 M21/M25 A3020 RMK CI4 SLP279

CYXE;2010-11-23 08:00;CYXE 230800Z 01005KT 4SM IC BKN250 M21/M25 A3018 RMK CI2 SLP275

CYXE;2010-11-23 09:00;CYXE 230900Z 01003KT 6SM IC BKN250 M21/M25 A3017 RMK CI2 SLP271

CYXE;2010-11-23 10:00;CYXE 231000Z 34003KT 8SM BKN250 M21/M25 A3017 RMK CI2 IC SLP271

CYXE;2010-11-23 11:00;CYXE 231100Z 31004KT 8SM SCT250 M23/M26 A3016 RMK CI2 IC SLP266

CYXE;2010-11-23 12:00;CYXE 231200Z 32004KT 12SM FEW250 M24/M28 A3015 RMK CI0 IC SLP265

CYXE;2010-11-23 13:00;CYXE 231300Z 29003KT 15SM FEW250 M25/M29 A3015 RMK CI0 IC SLP265

CYXE;2010-11-23 14:00;CYXE 231400Z 29007KT 15SM FEW250 M28/M32 A3015 RMK CI1 IC SLP265

CYXE;2010-11-23 15:00;CYXE 231500Z 29005KT 15SM FEW250 M30/M34 A3015 RMK CI2 SLP271

CYXE;2010-11-23 16:00;CYXE 231600Z 28005KT 15SM BKN250 M29/M33 A3016 RMK CI0 SLP275

CYXE;2010-11-23 17:00;CYXE 231700Z 30005KT 15SM BKN250 M27/M31 A3014 RMK CI0 SLP266

CYXE;2010-11-23 18:00;CYXE 231800Z 29005KT 15SM BKN250 M26/M30 A3014 RMK CI0 SLP265

CYXE;2010-11-23 19:00;CYXE 231900Z 29004KT 15SM BKN250 M25/M29 A3013 RMK CI2 SLP262

CYXE;2010-11-23 20:00;CYXE 232000Z 29006KT 15SM SCT250 M24/M29 A3010 RMK CI1 SLP252

CYXE;2010-11-23 21:00;CYXE 232100Z 29004KT 15SM SCT250 M24/M30 A3009 RMK CI2 SLP248

CYXE;2010-11-23 22:00;CYXE 232200Z 27004KT 15SM SCT120 BKN250 M24/M29 A3008 RMK AC3CI3 SLP246

CYXE;2010-11-23 23:00;CYXE 232300Z 22005KT 15SM SCT120 BKN250 M23/M28 A3008 RMK AC3CI3 SLP245

CYXE;2010-11-24 00:00;CYXE 240000Z 23007KT 15SM SCT120 BKN250 M23/M27 A3008 RMK AC3CI3 SLP246

CYXE;2010-11-24 01:00;CYXE 240100Z 24004KT 15SM SCT075 BKN120 M22/M27 A3006 RMK AC3AC3 SLP240

CYXE;2010-11-24 01:41;CYXE 240141Z 24005KT 15SM BKN042 M22/ RMK SC7

CYXE;2010-11-24 02:00;CYXE 240200Z 25005KT 15SM BKN042 M21/M27 A3006 RMK SC7 SLP240

CYXE;2010-11-24 02:31;CYXE 240231Z 25006KT 15SM -SN OVC034 M21/ RMK SC8

CYXE;2010-11-24 03:00;CYXE 240300Z 25005KT 15SM -SN OVC028 M21/M26 A3006 RMK SC8 SLP240

CYXE;2010-11-24 04:00;CYXE 240400Z 29004KT 3SM -SN OVC014 M21/M25 A3004 RMK SC8 SLP235

CYXE;2010-11-24 04:10;CYXE 240410Z 31003KT 1 1/2SM -SN VV014 M21/ RMK SN8

CYXE;2010-11-24 05:00;CYXE 240500Z 35004KT 2SM -SN VV014 M21/M25 A3001 RMK SN8 SLP226

CYXE;2010-11-24 06:00;CYXE 240600Z 29003KT 5SM -SN OVC016 M21/M25 A3001 RMK SC8 SLP223

CYXE;2010-11-24 07:00;CYXE 240700Z 30005KT 6SM -SN OVC019 M21/M25 A3001 RMK SC8 SLP223

CYXE;2010-11-24 08:00;CYXE 240800Z 32003KT 10SM -SN FEW015 OVC059 M21/M25 A3000 RMK SC2SC6 SLP217

CYXE;2010-11-24 09:00;CYXE 240900Z 30005KT 8SM -SN FEW020 OVC060 M21/M25 A3000 RMK SC2SC6 SLP215

CYXE;2010-11-24 10:00;CYXE 241000Z 30005KT 10SM -SN FEW018 OVC071 M21/M25 A2999 RMK SC2AC6 SLP213

CYXE;2010-11-24 11:00;CYXE 241100Z 31004KT 8SM -SN BKN022 OVC070 M20/M25 A2998 RMK SC5AC3 SLP209

CYXE;2010-11-24 12:00;CYXE 241200Z 31006KT 10SM -SN SCT022 OVC074 M20/M25 A2996 RMK SC3AC5 SLP203

CYXE;2010-11-24 13:00;CYXE 241300Z 34006KT 10SM -SN SCT024 BKN071 M20/M25 A2996 RMK SC3AC3 SLP201

CYXE;2010-11-24 14:00;CYXE 241400Z 33005KT 2SM -SN OVC020 M20/M25 A2996 RMK SN2SC6 SLP200

CYXE;2010-11-24 15:00;CYXE 241500Z 33009KT 4SM -SN OVC023 M21/M25 A2995 RMK SC8 SLP195

CYXE;2010-11-24 16:00;CYXE 241600Z 32010KT 4SM -SN BKN017 OVC052 M21/M25 A2995 RMK SC7SC1 SLP196

CYXE;2010-11-24 17:00;CYXE 241700Z 32007KT 3SM -SN FEW025 OVC071 M20/M26 A2994 RMK SC2AS6 SLP193

CYXE;2010-11-24 17:43;CYXE 241743Z 31009KT 1 1/2SM -SN DRSN OVC070 M20/ RMK SN2AS6

CYXE;2010-11-24 18:00;CYXE 241800Z 32009KT 1 1/2SM -SN DRSN FEW035 OVC070 M20/M26 A2993 RMK SN2SC1AS6 SLP190

CYXE;2010-11-24 18:16;CYXE 241816Z 31009KT 3SM -SN DRSN FEW035 SCT070 OVC220 M20/ RMK SC1AS3CS2

CYXE;2010-11-24 19:00;CYXE 241900Z 30006KT 15SM -SN BKN020 OVC220 M20/M25 A2992 RMK SC5CI2 SLP185

CYXE;2010-11-24 20:00;CYXE 242000Z 31008KT 15SM -SN SCT020 OVC220 M20/M26 A2989 RMK SC3CI3 SLP177

CYXE;2010-11-24 21:00;CYXE 242100Z 29005KT 15SM FEW020 OVC220 M21/M27 A2989 RMK SC2CI2 SLP175

CYXE;2010-11-24 22:00;CYXE 242200Z 29006KT 15SM SCT250 M22/M27 A2987 RMK CI2 SLP171

CYXE;2010-11-24 23:00;CYXE 242300Z 29008KT 15SM FEW250 M22/M28 A2987 RMK CI2 SLP171

CYXE;2010-11-25 00:00;CYXE 250000Z 28007KT 15SM FEW250 M23/M28 A2987 RMK CI1 SLP169

CYXE;2010-11-25 01:00;CYXE 250100Z 24005KT 15SM FEW250 M26/M30 A2987 RMK CI1 SLP169

CYXE;2010-11-25 02:00;CYXE 250200Z 27007KT 15SM FEW070 M26/M30 A2985 RMK AC1 SLP164

CYXE;2010-11-25 03:00;CYXE 250300Z 23007KT 15SM SKC M26/M31 A2984 RMK SLP162

CYXE;2010-11-25 04:00;CYXE 250400Z 23008KT 15SM SKC M25/M30 A2982 RMK SLP157

CYXE;2010-11-25 05:00;CYXE 250500Z 22008KT 15SM SKC M26/M30 A2981 RMK SLP153

CYXE;2010-11-25 06:00;CYXE 250600Z 22007KT 15SM -SN SKC M26/M30 A2979 RMK SLP145

CYXE;2010-11-25 07:00;CYXE 250700Z 24008KT 15SM SKC M26/M30 A2979 RMK SLP144

CYXE;2010-11-25 08:00;CYXE 250800Z 25007KT 15SM SKC M27/M32 A2976 RMK SLP136

CYXE;2010-11-25 09:00;CYXE 250900Z 22008KT 15SM SKC M28/M32 A2976 RMK SLP136

CYXE;2010-11-25 10:00;CYXE 251000Z 21005KT 15SM SKC M27/M31 A2975 RMK SLP133

CYXE;2010-11-25 11:00;CYXE 251100Z 21007KT 15SM SKC M27/M31 A2972 RMK SLP125

CYXE;2010-11-25 12:00;CYXE 251200Z 21007KT 15SM SKC M27/M31 A2972 RMK SLP122

CYXE;2010-11-25 13:00;CYXE 251300Z 23010KT 15SM SKC M27/M32 A2970 RMK SLP117

CYXE;2010-11-25 14:00;CYXE 251400Z 22009KT 15SM FEW300 M26/M31 A2968 RMK CI0 SLP109

CYXE;2010-11-25 15:00;CYXE 251500Z 21010KT 15SM BKN300 M25/M30 A2967 RMK CI2 SLP108

CYXE;2010-11-25 16:00;CYXE 251600Z 21010KT 15SM BKN300 M24/M29 A2965 RMK CI2 SLP103

CYXE;2010-11-25 17:00;CYXE 251700Z 21008KT 15SM BKN300 M21/M27 A2964 RMK CI2 SLP098

CYXE;2010-11-25 18:00;CYXE 251800Z 20007KT 15SM OVC300 M19/M24 A2961 RMK CS6 SLP080

CYXE;2010-11-25 19:00;CYXE 251900Z 19008KT 15SM SCT080 OVC250 M17/M22 A2957 RMK AC3CS3 SLP069

CYXE;2010-11-25 19:47;CYXE 251947Z 21009KT 3SM -SN BKN044 OVC094 M15/ RMK SC6AC2

CYXE;2010-11-25 20:00;CYXE 252000Z 21008KT 2SM -SN BKN044 OVC094 M15/M19 A2955 RMK SC6AC2 SLP062

CYXE;2010-11-25 20:19;CYXE 252019Z 23014KT 1SM R09/P6000FT/D -SN OVC044 M14/ RMK SN4SC4

CYXE;2010-11-25 20:33;CYXE 252033Z 23010KT 1 1/2SM -SN DRSN BKN008 OVC030 M14/ RMK SN2SC2SC3

CYXE;2010-11-25 21:00;CYXE 252100Z 22012KT 3SM -SN BKN010 OVC043 M13/M16 A2954 RMK SN2SC2SC3 SLP056

CYXE;2010-11-25 21:18;CYXE 252118Z 23010KT 5SM -SN DRSN OVC022 M13/ RMK SC8

CYXE;2010-11-25 22:00;CYXE 252200Z 23010KT 10SM -SN DRSN BKN024 OVC050 M12/M14 A2953 RMK SC5SC3 SLP052

CYXE;2010-11-25 23:00;CYXE 252300Z 23008KT 15SM SCT010 OVC032 M10/M13 A2952 RMK SC4SC4 SLP051

CYXE;2010-11-25 23:07;CYXE 252307Z 23008KT 15SM FEW008 BKN012 OVC032 M10/ RMK SF2SC3SC2

CYXE;2010-11-25 23:19;CYXE 252319Z 24008KT 15SM BKN007 OVC030 M10/ RMK ST6SC2

CYXE;2010-11-25 23:26;CYXE 252326Z 23007KT 10SM -SN SCT008 OVC018 M10/ RMK ST4SC4

CYXE;2010-11-25 23:49;CYXE 252349Z 24007KT 2 1/2SM -SN OVC020 M09/ RMK SC8

CYXE;2010-11-26 00:00;CYXE 260000Z 24008KT 2 1/2SM -SN OVC020 M09/M10 A2953 RMK SC8 SLP049

CYXE;2010-11-26 00:03;CYXE 260003Z 24007KT 3SM -SN -FZDZ OVC020 M09/ RMK SC8

CYXE;2010-11-26 00:16;CYXE 260016Z 24006KT 2 1/2SM -SN -FZRA OVC020 M09/ RMK SC8

CYXE;2010-11-26 00:38;CYXE 260038Z 24007KT 1SM R09/P6000FT/D -SN VV015 M08/ REFZRA RMK SN8

CYXE;2010-11-26 00:46;CYXE 260046Z 24007KT 3SM -SN OVC020 M08/ REFZRA RMK SC8

CYXE;2010-11-26 01:00;CYXE 260100Z 24007KT 3SM -SN OVC020 M08/M09 A2954 REFZRA RMK SC8 SLP050

CYXE;2010-11-26 01:06;CYXE 260106Z 24008KT 1SM R09/P6000FT/D -SN VV015 M08/ RMK SN8

CYXE;2010-11-26 02:00;CYXE 260200Z 27005KT 3SM -SN OVC020 M06/M07 A2956 RMK SC8 /S01/ SLP059

CYXE;2010-11-26 02:19;CYXE 260219Z 32010KT 15SM SCT060 M06/ RMK SC4

CYXE;2010-11-26 03:00;CYXE 260300Z 30010KT 15SM BKN028 OVC060 M07/M09 A2959 RMK SC6SC1 SLP067

CYXE;2010-11-26 04:00;CYXE 260400Z 29010KT 15SM OVC026 M07/M09 A2962 RMK SC8 SLP078

CYXE;2010-11-26 05:00;CYXE 260500Z 29008KT 15SM OVC026 M06/M07 A2965 RMK SC8 SLP085

CYXE;2010-11-26 06:00;CYXE 260600Z 28006KT 15SM SCT023 OVC030 M04/M06 A2967 RMK SC3SC5 SLP087

CYXE;2010-11-26 07:00;CYXE 260700Z 25006KT 15SM OVC029 M04/M05 A2969 RMK SC8 SLP094

CYXE;2010-11-26 08:00;CYXE 260800Z 27006KT 15SM FEW035 M06/M06 A2970 RMK SC1 SLP099

CYXE;2010-11-26 09:00;CYXE 260900Z 25008KT 15SM SKC M09/M09 A2972 RMK SLP104

CYXE;2010-11-26 10:00;CYXE 261000Z 26008KT 15SM SKC M11/M11 A2974 RMK SLP109

CYXE;2010-11-26 11:00;CYXE 261100Z 26006KT 15SM SKC M12/M13 A2974 RMK SLP111

CYXE;2010-11-26 12:00;CYXE 261200Z 24006KT 15SM FEW280 M14/M15 A2976 RMK CI0 SLP119

CYXE;2010-11-26 13:00;CYXE 261300Z 21006KT 15SM FEW280 M11/M12 A2978 RMK CI0 SLP124

CYXE;2010-11-26 14:00;CYXE 261400Z 23009KT 15SM SCT280 M12/M12 A2978 RMK CI2 SLP124

CYXE;2010-11-26 15:00;CYXE 261500Z 23007KT 15SM OVC280 M10/M11 A2978 RMK CI6 SLP122

CYXE;2010-11-26 16:00;CYXE 261600Z 21005KT 15SM OVC280 M10/M11 A2979 RMK CI6 SLP124

CYXE;2010-11-26 17:00;CYXE 261700Z 18005KT 15SM FEW120 BKN280 M10/M11 A2978 RMK AC2CI5 SLP123

CYXE;2010-11-26 18:00;CYXE 261800Z 21006KT 15SM FEW120 BKN280 M08/M10 A2978 RMK AC2CI5 SLP120

CYXE;2010-11-26 19:00;CYXE 261900Z 18005KT 15SM BKN280 M07/M10 A2976 RMK CI3 SLP113

CYXE;2010-11-26 20:00;CYXE 262000Z 17005KT 15SM BKN280 M05/M08 A2975 RMK CI3 SLP108

CYXE;2010-11-26 21:00;CYXE 262100Z 19006KT 15SM BKN280 M04/M08 A2975 RMK CI3 SLP109

CYXE;2010-11-26 22:00;CYXE 262200Z 17004KT 15SM BKN280 M04/M08 A2974 RMK CI3 SLP103

CYXE;2010-11-26 23:00;CYXE 262300Z 15006KT 15SM FEW100 BKN280 M05/M08 A2972 RMK AC2CI2 SLP099

CYXE;2010-11-27 00:00;CYXE 270000Z 16006KT 15SM FEW100 BKN280 M07/M09 A2973 RMK AC2CI2 SLP105

CYXE;2010-11-27 01:00;CYXE 270100Z 15007KT 15SM BKN280 M06/M08 A2971 RMK CI3 SLP099

CYXE;2010-11-27 02:00;CYXE 270200Z 16008KT 15SM BKN280 M07/M09 A2969 RMK CI2 SLP093

CYXE;2010-11-27 03:00;CYXE 270300Z 13006KT 15SM BKN280 M09/M11 A2968 RMK CI2 SLP090

CYXE;2010-11-27 04:00;CYXE 270400Z 12006KT 15SM SCT280 M10/M11 A2966 RMK CI2 SLP082

CYXE;2010-11-27 05:00;CYXE 270500Z 15005KT 15SM FEW280 M10/M11 A2965 RMK CI0 SLP081

CYXE;2010-11-27 06:00;CYXE 270600Z 12007KT 15SM SKC M11/M12 A2964 RMK SLP073

CYXE;2010-11-27 07:00;CYXE 270700Z 16005KT 15SM SKC M10/M11 A2963 RMK SLP072

CYXE;2010-11-27 08:00;CYXE 270800Z 15004KT 15SM SKC M11/M12 A2963 RMK SLP071

CYXE;2010-11-27 09:00;CYXE 270900Z 15007KT 15SM SKC M11/M12 A2961 RMK SLP062

CYXE;2010-11-27 10:00;CYXE 271000Z 18005KT 15SM SKC M12/M13 A2961 RMK SLP060

CYXE;2010-11-27 11:00;CYXE 271100Z 21005KT 15SM SKC M12/M13 A2960 RMK SLP057

CYXE;2010-11-27 12:00;CYXE 271200Z 23008KT 15SM SKC M14/M14 A2959 RMK SLP057

CYXE;2010-11-27 13:00;CYXE 271300Z 26008KT 15SM SKC M14/M15 A2960 RMK SLP061

CYXE;2010-11-27 14:00;CYXE 271400Z 29008KT 15SM FEW020 M17/M18 A2962 RMK SC1 SLP067

CYXE;2010-11-27 15:00;CYXE 271500Z 28003KT 15SM FEW110 FEW250 M18/M19 A2964 RMK AC1CI1 SLP080

CYXE;2010-11-27 15:28;CYXE 271528Z 30003KT 4SM IC BKN009 OVC250 M17/ RMK SF3CI2

CYXE;2010-11-27 15:33;CYXE 271533Z 00000KT 4SM IC BKN009 OVC250 M17/ RMK ST6CI1 VIS W-NE 11/2

CYXE;2010-11-27 16:00;CYXE 271600Z 00000KT 4SM IC FEW003 OVC008 M16/M16 A2965 RMK SF2ST6 SLP083

CYXE;2010-11-27 16:55;CYXE 271655Z 21005KT 15SM -SN OVC005 M11/ RMK ST8

CYXE;2010-11-27 17:00;CYXE 271700Z 21005KT 15SM -SN OVC005 M11/M12 A2964 RMK ST8 SLP081

CYXE;2010-11-27 17:44;CYXE 271744Z 25002KT 15SM FEW005 OVC008 M10/ RMK SF2ST6

CYXE;2010-11-27 18:00;CYXE 271800Z 00000KT 15SM OVC008 M09/M10 A2964 RMK ST8 SLP076

CYXE;2010-11-27 18:24;CYXE 271824Z 00000KT 15SM OVC013 M09/ RMK ST8

CYXE;2010-11-27 19:00;CYXE 271900Z 29004KT 6SM BR OVC013 M08/M09 A2965 RMK ST8 SLP080

CYXE;2010-11-27 20:00;CYXE 272000Z 27002KT 6SM BR OVC008 M06/M07 A2965 RMK ST8 SLP078

CYXE;2010-11-27 20:49;CYXE 272049Z 28009KT 4SM BR OVC011 M04/ RMK ST8

CYXE;2010-11-27 21:00;CYXE 272100Z 30012KT 6SM BR OVC009 M03/M04 A2965 RMK ST8 SLP075

CYXE;2010-11-27 22:00;CYXE 272200Z 30004KT 8SM OVC007 M03/M04 A2967 RMK ST8 BR SLP080

CYXE;2010-11-27 23:00;CYXE 272300Z 32005KT 8SM OVC009 M03/M03 A2967 RMK ST8 BR SLP081

CYXE;2010-11-28 00:00;CYXE 280000Z 30004KT 8SM OVC009 M03/M03 A2967 RMK ST8 BR SLP084

CYXE;2010-11-28 01:00;CYXE 280100Z 32005KT 10SM OVC009 M02/M03 A2967 RMK ST8 BR SLP084

CYXE;2010-11-28 02:00;CYXE 280200Z 33007KT 12SM OVC008 M03/M03 A2967 RMK ST8 BR SLP084

CYXE;2010-11-28 03:00;CYXE 280300Z 36003KT 15SM OVC007 M03/M03 A2968 RMK ST8 SLP089

CYXE;2010-11-28 04:00;CYXE 280400Z 00000KT 10SM OVC008 M03/M04 A2969 RMK ST8 BR SLP092

CYXE;2010-11-28 05:00;CYXE 280500Z 24004KT 8SM OVC010 M04/M05 A2970 RMK ST8 BR SLP095

CYXE;2010-11-28 06:00;CYXE 280600Z 26005KT 10SM OVC012 M05/M06 A2970 RMK ST8 BR SLP092

CYXE;2010-11-28 07:00;CYXE 280700Z 27004KT 15SM OVC012 M05/M06 A2971 RMK ST8 SLP095

CYXE;2010-11-28 07:40;CYXE 280740Z 27005KT 15SM FEW005 OVC012 M05/ RMK SF2ST6

CYXE;2010-11-28 08:00;CYXE 280800Z 30005KT 10SM OVC012 M04/M05 A2972 RMK ST8 BR SLP098

CYXE;2010-11-28 08:32;CYXE 280832Z 31006KT 10SM SCT005 OVC010 M04/ RMK SF4ST4 BR

CYXE;2010-11-28 09:00;CYXE 280900Z 30007KT 10SM SCT005 OVC010 M04/M05 A2973 RMK SF4ST4 BR SLP097

CYXE;2010-11-28 09:40;CYXE 280940Z 30007KT 10SM OVC017 M04/ RMK SC8 BR

CYXE;2010-11-28 10:00;CYXE 281000Z 28005KT 10SM OVC017 M04/M05 A2974 RMK SC8 BR SLP100

CYXE;2010-11-28 11:00;CYXE 281100Z 31005KT 10SM SCT005 OVC017 M04/M05 A2974 RMK SF4SC4 BR SLP099

CYXE;2010-11-28 12:00;CYXE 281200Z 31007KT 8SM OVC017 M05/M05 A2974 RMK SC8 BR SLP102

CYXE;2010-11-28 13:00;CYXE 281300Z 30008KT 10SM OVC019 M05/M05 A2976 RMK SC8 BR SLP107

CYXE;2010-11-28 14:00;CYXE 281400Z 31009KT 6SM BR OVC019 M05/M05 A2976 RMK SC8 SLP109

CYXE;2010-11-28 15:00;CYXE 281500Z 32006KT 6SM BR OVC019 M05/M05 A2977 RMK ST8 SLP110

CYXE;2010-11-28 16:00;CYXE 281600Z 33006KT 15SM OVC019 M04/M05 A2979 RMK ST8 SLP118

CYXE;2010-11-28 17:00;CYXE 281700Z 30006KT 15SM OVC019 M04/M05 A2982 RMK ST8 SLP126

CYXE;2010-11-28 18:00;CYXE 281800Z 31008KT 15SM OVC023 M04/M05 A2982 RMK ST8 SLP130

CYXE;2010-11-28 19:00;CYXE 281900Z 31007KT 15SM OVC023 M04/M06 A2982 RMK SC8 SLP129

CYXE;2010-11-28 20:00;CYXE 282000Z 32009KT 15SM OVC027 M04/M06 A2983 RMK SC8 SLP132

CYXE;2010-11-28 21:00;CYXE 282100Z 31007KT 15SM OVC029 M04/M05 A2984 RMK SC8 SLP136

CYXE;2010-11-28 22:00;CYXE 282200Z 33007KT 15SM OVC029 M04/M05 A2986 RMK SC8 SLP142

CYXE;2010-11-28 23:00;CYXE 282300Z 32007KT 15SM OVC025 M03/M06 A2989 RMK SC8 SLP153

CYXE;2010-11-29 00:00;CYXE 290000Z 32007KT 15SM OVC023 M04/M06 A2991 RMK SC7 SLP161

CYXE;2010-11-29 01:00;CYXE 290100Z 31005KT 15SM OVC023 M05/M06 A2993 RMK SC7 SLP168

CYXE;2010-11-29 02:00;CYXE 290200Z 31006KT 15SM OVC021 M04/M06 A2995 RMK SC8 SLP173

CYXE;2010-11-29 03:00;CYXE 290300Z 32011KT 15SM OVC015 M04/M06 A2997 RMK SC8 SLP181

CYXE;2010-11-29 04:00;CYXE 290400Z 30014KT 15SM OVC015 M06/M07 A2998 RMK SC8 SLP185

CYXE;2010-11-29 05:00;CYXE 290500Z 30010KT 15SM OVC019 M06/M07 A3001 RMK SC8 SLP192

CYXE;2010-11-29 05:31;CYXE 290531Z 32008KT 15SM OVC013 M05/ RMK SC8

CYXE;2010-11-29 06:00;CYXE 290600Z 32011KT 15SM OVC010 M05/M07 A3003 RMK SC8 SLP201

CYXE;2010-11-29 07:00;CYXE 290700Z 32012KT 15SM OVC012 M06/M08 A3004 RMK SC8 SLP206

CYXE;2010-11-29 07:14;CYXE 290714Z 32013KT 15SM -SN OVC012 M06/ RMK SC8

CYXE;2010-11-29 08:00;CYXE 290800Z 33013KT 15SM OVC012 M06/M08 A3006 RMK SC8 SLP211

CYXE;2010-11-29 09:00;CYXE 290900Z 33008KT 15SM OVC012 M07/M09 A3008 RMK SC8 SLP219

CYXE;2010-11-29 10:00;CYXE 291000Z 32010KT 15SM OVC012 M07/M09 A3009 RMK SC8 SLP224

CYXE;2010-11-29 11:00;CYXE 291100Z 32012KT 15SM -SN OVC012 M07/M09 A3010 RMK SC8 SLP227

CYXE;2010-11-29 12:00;CYXE 291200Z 32014KT 15SM -SN OVC014 M08/M10 A3011 RMK SC8 SLP232

CYXE;2010-11-29 13:00;CYXE 291300Z 32011KT 15SM -SN OVC014 M08/M10 A3014 RMK SC8 SLP239

CYXE;2010-11-29 13:42;CYXE 291342Z 32007KT 15SM -SN OVC018 M08/ RMK SC8

CYXE;2010-11-29 14:00;CYXE 291400Z 32009KT 15SM -SN OVC020 M08/M10 A3016 RMK SC8 SLP246

CYXE;2010-11-29 15:00;CYXE 291500Z 30006KT 15SM -SN OVC018 M08/M10 A3017 RMK SC8 SLP253

CYXE;2010-11-29 16:00;CYXE 291600Z 27005KT 8SM -SN OVC020 M08/M10 A3017 RMK SC8 SLP253

CYXE;2010-11-29 17:00;CYXE 291700Z 25006KT 6SM -SN OVC024 M07/M09 A3018 RMK SC8 SLP256

CYXE;2010-11-29 18:00;CYXE 291800Z 26006KT 3SM -SN OVC024 M07/M09 A3018 RMK SC8 SLP256

CYXE;2010-11-29 19:00;CYXE 291900Z 27007KT 4SM -SN OVC028 M06/M08 A3018 RMK SC8 SLP255

CYXE;2010-11-29 20:00;CYXE 292000Z 30006KT 15SM -SN OVC026 M06/M08 A3017 RMK SC8 SLP253

CYXE;2010-11-29 21:00;CYXE 292100Z 31005KT 15SM -SN OVC022 M06/M08 A3017 RMK SC8 SLP253

CYXE;2010-11-29 21:51;CYXE 292151Z 32005KT 15SM OVC020 M06/ RMK SC8

CYXE;2010-11-29 22:00;CYXE 292200Z 33005KT 15SM OVC020 M06/M08 A3018 RMK SC8 SLP255

CYXE;2010-11-29 23:00;CYXE 292300Z 30005KT 15SM OVC022 M06/M08 A3020 RMK SC8 SLP261

CYXE;2010-11-30 00:00;CYXE 300000Z 31008KT 15SM OVC022 M06/M08 A3020 RMK SC8 SLP263

CYXE;2010-11-30 00:39;CYXE 300039Z 30005KT 15SM -SN OVC022 M06/ RMK SC8

CYXE;2010-11-30 01:00;CYXE 300100Z 30006KT 15SM -SN OVC016 M06/M08 A3021 RMK SC8 SLP265

CYXE;2010-11-30 02:00;CYXE 300200Z 33008KT 15SM -SN OVC018 M06/M08 A3022 RMK SC8 SLP268

CYXE;2010-11-30 03:00;CYXE 300300Z 34007KT 15SM -SN OVC022 M07/M09 A3023 RMK SC7 SLP273

CYXE;2010-11-30 04:00;CYXE 300400Z 33009KT 15SM -SN BKN022 M08/M11 A3022 RMK SC7 SLP272

CYXE;2010-11-30 05:00;CYXE 300500Z 34004KT 15SM -SN OVC022 M08/M11 A3022 RMK SC8 SLP272

CYXE;2010-11-30 05:32;CYXE 300532Z 33006KT 15SM OVC020 M08/ RMK SC8

CYXE;2010-11-30 06:00;CYXE 300600Z 36005KT 15SM OVC020 M08/M11 A3023 RMK SC8 SLP276

CYXE;2010-11-30 06:05;CYXE 300605Z 34005KT 15SM -SN OVC020 M08/ RMK SC8

CYXE;2010-11-30 07:00;CYXE 300700Z 33003KT 15SM -SN OVC020 M09/M11 A3023 RMK SC8 SLP276

CYXE;2010-11-30 08:00;CYXE 300800Z 34007KT 15SM -SN OVC018 M09/M11 A3023 RMK SC8 SLP276

CYXE;2010-11-30 09:00;CYXE 300900Z 35003KT 15SM -SN OVC018 M09/M10 A3023 RMK SC8 SLP274

CYXE;2010-11-30 10:00;CYXE 301000Z 33004KT 8SM -SN OVC016 M10/M11 A3023 RMK SC8 SLP273

CYXE;2010-11-30 11:00;CYXE 301100Z 33004KT 6SM -SN OVC016 M10/M11 A3022 RMK SC8 SLP271

CYXE;2010-11-30 11:09;CYXE 301109Z 34004KT 6SM -SN OVC014 M10/ RMK SC8

CYXE;2010-11-30 12:00;CYXE 301200Z 36002KT 6SM -SN OVC014 M10/M11 A3022 RMK SC8 SLP270

CYXE;2010-11-30 13:00;CYXE 301300Z 03005KT 4SM -SN OVC012 M10/M12 A3021 RMK SC8 SLP268

CYXE;2010-11-30 14:00;CYXE 301400Z 16003KT 10SM -SN OVC012 M10/M12 A3021 RMK SC8 SLP268

CYXE;2010-11-30 15:00;CYXE 301500Z 00000KT 12SM -SN OVC014 M10/M12 A3020 RMK SC7 SLP266

CYXE;2010-11-30 16:00;CYXE 301600Z 28002KT 8SM -SN OVC014 M10/M12 A3018 RMK SC8 SLP261

CYXE;2010-11-30 17:00;CYXE 301700Z 24003KT 6SM -SN OVC014 M10/M12 A3018 RMK SC8 SLP261

CYXE;2010-11-30 18:00;CYXE 301800Z 19004KT 6SM -SN OVC012 M10/M12 A3017 RMK SC8 SLP257

CYXE;2010-11-30 19:00;CYXE 301900Z 19004KT 6SM -SN OVC012 M10/M12 A3016 RMK SC8 SLP252

CYXE;2010-11-30 20:00;CYXE 302000Z 18004KT 6SM -SN OVC012 M10/M12 A3015 RMK SC8 SLP250

CYXE;2010-11-30 21:00;CYXE 302100Z 18005KT 10SM -SN OVC012 M10/M12 A3011 RMK SC8 SLP236

CYXE;2010-11-30 22:00;CYXE 302200Z 14007KT 12SM -SN OVC012 M10/M12 A3009 RMK SC8 SLP231

CYXE;2010-11-30 23:00;CYXE 302300Z 14007KT 15SM -SN OVC012 M10/M12 A3009 RMK SC8 SLP230

CYXE;2010-11-30 23:22;CYXE 302322Z 12009KT 15SM OVC012 M10/ RMK SC8

CYXE;2010-12-01 06:00;CYXE 010600Z 12009KT 15SM BKN100 BKN250 M15/M16 A2997 RMK AC5CI2 SLP193

CYXE;2010-12-01 07:00;CYXE 010700Z 12013KT 8SM BKN100 OVC250 M14/M15 A2995 RMK AC5CI3 SLP184

CYXE;2010-12-01 07:25;CYXE 010725Z 12012KT 4SM IC OVC100 M14/ RMK AC8

CYXE;2010-12-01 07:40;CYXE 010740Z 12011KT 3SM -SN OVC100 M14/ RMK SN3AC5

CYXE;2010-12-01 08:00;CYXE 010800Z 11011KT 3SM -SN OVC100 M14/M15 A2992 RMK SN3AC5 SLP176

CYXE;2010-12-01 08:45;CYXE 010845Z 11010KT 12SM OVC100 M13/ RMK AC8

CYXE;2010-12-01 09:00;CYXE 010900Z 12009KT 15SM FEW007 BKN100 M13/M15 A2991 RMK ST2AC6 SLP171

CYXE;2010-12-01 10:00;CYXE 011000Z 11009KT 15SM FEW006 BKN100 M13/M15 A2991 RMK ST2AC5 SLP169

CYXE;2010-12-01 11:00;CYXE 011100Z 10011KT 15SM FEW100 BKN250 M13/M15 A2990 RMK AC2CI2 SLP168

CYXE;2010-12-01 13:00;CYXE 011300Z 09009KT 15SM SCT099 BKN250 M16/M17 A2991 RMK AC3CI1 SLP170

CYXE;2010-12-01 14:00;CYXE 011400Z 08010KT 15SM SCT099 BKN250 M16/M18 A2990 RMK AC3CI1 SLP169

CYXE;2010-12-01 15:00;CYXE 011500Z 05007KT 15SM SCT160 BKN250 M17/M18 A2992 RMK AC2CI0 SLP178

CYXE;2010-12-01 17:00;CYXE 011700Z 06011KT 15SM BKN072 BKN250 M17/M18 A2995 RMK AC5CI0 SLP189

CYXE;2010-12-01 18:00;CYXE 011800Z 06011KT 15SM BKN072 BKN250 M16/M19 A2995 RMK AC5CI0 SLP190

CYXE;2010-12-01 19:00;CYXE 011900Z 07010KT 15SM SCT070 BKN140 BKN250 M15/M19 A2996 RMK AC3AC2CI0 SLP191

CYXE;2010-12-01 20:00;CYXE 012000Z 03007KT 15SM FEW028 BKN140 BKN250 M15/M19 A2998 RMK SC2AC4CI1 SLP199

CYXE;2010-12-01 21:00;CYXE 012100Z 05008KT 15SM BKN019 OVC070 M14/M17 A2999 RMK SC6AC2 SLP201

CYXE;2010-12-01 22:00;CYXE 012200Z 05008KT 15SM BKN018 OVC065 M14/M16 A3000 RMK SC5SC2 SLP203

CYXE;2010-12-01 23:00;CYXE 012300Z 05007KT 15SM SCT020 OVC100 M14/M16 A3002 RMK SC2AC5 SLP210

CYXE;2010-12-02 00:00;CYXE 020000Z 04008KT 15SM BKN020 OVC100 M13/M16 A3003 RMK SC5AC2 SLP216

CYXE;2010-12-02 01:00;CYXE 020100Z 06009KT 15SM BKN020 OVC100 M13/M16 A3004 RMK SC5AC3 SLP217

CYXE;2010-12-02 02:00;CYXE 020200Z 08006KT 15SM OVC015 M13/M15 A3004 RMK SC8 SLP219

CYXE;2010-12-02 03:00;CYXE 020300Z 05004KT 15SM OVC012 M13/M15 A3005 RMK SC8 SLP223

CYXE;2010-12-02 04:00;CYXE 020400Z 02004KT 15SM OVC010 M13/M15 A3007 RMK SC8 SLP228

CYXE;2010-12-02 04:13;CYXE 020413Z 03004KT 15SM -SN OVC012 M13/ RMK SC8

CYXE;2010-12-02 05:00;CYXE 020500Z 05004KT 15SM -SN OVC010 M13/M14 A3006 RMK SC8 SLP226

CYXE;2010-12-02 06:00;CYXE 020600Z 23003KT 15SM -SN OVC010 M12/M14 A3007 RMK SC8 SLP229

CYXE;2010-12-02 07:00;CYXE 020700Z 29004KT 15SM -SN OVC013 M12/M14 A3008 RMK SC8 SLP233

CYXE;2010-12-02 08:00;CYXE 020800Z 36003KT 15SM -SN SCT033 OVC050 M12/M14 A3008 RMK ST3SC5 SLP232

CYXE;2010-12-02 09:00;CYXE 020900Z 00000KT 15SM -SN OVC046 M12/M14 A3009 RMK SC8 SLP233

CYXE;2010-12-02 09:09;CYXE 020909Z 00000KT 15SM OVC046 M12/ RMK SC8

CYXE;2010-12-02 10:00;CYXE 021000Z 00000KT 15SM OVC046 M12/M13 A3008 RMK SC8 SLP232

CYXE;2010-12-02 11:00;CYXE 021100Z 00000KT 15SM OVC042 M12/M13 A3008 RMK SC8 SLP230

CYXE;2010-12-02 12:00;CYXE 021200Z 24004KT 15SM OVC040 M11/M13 A3009 RMK SC8 SLP232

CYXE;2010-12-02 13:00;CYXE 021300Z 21003KT 15SM BKN044 OVC120 M11/M13 A3007 RMK SC6AC2 SLP228

CYXE;2010-12-02 14:00;CYXE 021400Z 23006KT 15SM BKN042 OVC120 M12/M13 A3007 RMK SC6AC2 SLP227

CYXE;2010-12-02 15:00;CYXE 021500Z 24005KT 15SM OVC040 M12/M14 A3007 RMK SC8 SLP225

CYXE;2010-12-02 16:00;CYXE 021600Z 24005KT 15SM OVC040 M12/M14 A3008 RMK SC8 SLP230

CYXE;2010-12-02 16:43;CYXE 021643Z 27004KT 15SM FEW007 OVC040 M11/ RMK SF2SC6

CYXE;2010-12-02 17:00;CYXE 021700Z 28005KT 15SM FEW007 OVC038 M11/M13 A3009 RMK SF1SC7 SLP232

CYXE;2010-12-02 18:00;CYXE 021800Z 21006KT 15SM OVC038 M11/M13 A3006 RMK SC8 SLP223

CYXE;2010-12-02 19:00;CYXE 021900Z 23005KT 15SM FEW022 OVC036 M11/M14 A3005 RMK SF2SC6 SLP218

CYXE;2010-12-02 20:00;CYXE 022000Z 24002KT 15SM SCT018 OVC036 M11/M14 A3005 RMK SF4SC4 SLP217

CYXE;2010-12-02 21:00;CYXE 022100Z 25004KT 15SM OVC020 M11/M13 A3004 RMK SC8 SLP216

CYXE;2010-12-02 22:00;CYXE 022200Z 00000KT 15SM BKN020 OVC035 M10/M13 A3004 RMK SC5SC2 SLP214

CYXE;2010-12-03 00:00;CYXE 030000Z 00000KT 15SM OVC016 M10/M13 A3004 RMK SC8 SLP215

CYXE;2010-12-03 00:21;CYXE 030021Z 00000KT 15SM OVC012 M10/ RMK SC8

CYXE;2010-12-03 01:00;CYXE 030100Z 00000KT 15SM OVC012 M10/M13 A3004 RMK SC8 SLP214

CYXE;2010-12-03 02:00;CYXE 030200Z 00000KT 15SM OVC012 M10/M13 A3003 RMK SC8 SLP212

CYXE;2010-12-03 03:00;CYXE 030300Z 34002KT 15SM OVC012 M10/M13 A3004 RMK SC8 SLP212

CYXE;2010-12-03 03:52;CYXE 030352Z 01004KT 15SM OVC008 M10/ RMK SC8

CYXE;2010-12-03 04:00;CYXE 030400Z 01004KT 15SM OVC008 M10/M12 A3003 RMK SF8 SLP209

CYXE;2010-12-03 04:51;CYXE 030451Z 02003KT 10SM OVC005 M10/ RMK SF8 BR

CYXE;2010-12-03 05:00;CYXE 030500Z 04003KT 8SM -SN OVC005 M10/M11 A3003 RMK ST8 BR SLP210

CYXE;2010-12-03 06:00;CYXE 030600Z 05006KT 12SM OVC008 M10/M11 A3003 RMK ST8 BR SLP209

CYXE;2010-12-03 07:00;CYXE 030700Z 11002KT 15SM OVC009 M09/M11 A3004 RMK ST8 SLP213

CYXE;2010-12-03 08:00;CYXE 030800Z 09002KT 15SM OVC010 M09/M11 A3004 RMK ST8 SLP214

CYXE;2010-12-03 09:00;CYXE 030900Z 04004KT 15SM OVC010 M09/M11 A3005 RMK ST8 SLP215

CYXE;2010-12-03 10:00;CYXE 031000Z 05005KT 15SM -SN OVC012 M09/M11 A3005 RMK SC8 SLP215

CYXE;2010-12-03 11:00;CYXE 031100Z 05004KT 15SM -SN OVC014 M09/M11 A3006 RMK SC8 SLP220

CYXE;2010-12-03 12:00;CYXE 031200Z 04004KT 15SM -SN OVC012 M09/M10 A3008 RMK SC8 SLP225

CYXE;2010-12-03 13:00;CYXE 031300Z 04003KT 15SM -SN OVC012 M09/M10 A3009 RMK SC8 SLP229

CYXE;2010-12-03 14:00;CYXE 031400Z 01003KT 15SM -SN OVC015 M09/M10 A3010 RMK SC8 SLP233

CYXE;2010-12-03 15:00;CYXE 031500Z 02004KT 15SM -SN OVC013 M08/M10 A3011 RMK SC8 SLP237

CYXE;2010-12-03 17:00;CYXE 031700Z 03005KT 10SM -SN OVC013 M08/M09 A3016 RMK SC8 SLP251

CYXE;2010-12-03 18:00;CYXE 031800Z 01004KT 12SM -SN OVC013 M08/M09 A3017 RMK SC8 SLP256

CYXE;2010-12-03 19:00;CYXE 031900Z 36007KT 12SM -SN OVC013 M07/M09 A3018 RMK SC8 SLP260

CYXE;2010-12-03 20:00;CYXE 032000Z 01006KT 15SM -SN OVC013 M07/M09 A3019 RMK SC8 SLP261

CYXE;2010-12-03 21:00;CYXE 032100Z 34007KT 15SM -SN OVC013 M07/M09 A3019 RMK SC8 SLP263

CYXE;2010-12-03 22:00;CYXE 032200Z 35006KT 15SM -SN OVC011 M07/M09 A3021 RMK SC8 SLP269

CYXE;2010-12-03 23:00;CYXE 032300Z 34002KT 15SM -SN OVC013 M07/M09 A3023 RMK SC8 SLP275

CYXE;2010-12-04 00:00;CYXE 040000Z 00000KT 15SM -SN OVC013 M07/M09 A3025 RMK SC8 SLP283

CYXE;2010-12-04 01:00;CYXE 040100Z 23004KT 15SM -SN OVC015 M07/M09 A3027 RMK SC8 SLP290

CYXE;2010-12-04 02:00;CYXE 040200Z 23005KT 6SM -SN OVC012 M08/M09 A3028 RMK SN2SC6 SLP293

CYXE;2010-12-04 02:50;CYXE 040250Z 24005KT 10SM -SN OVC025 M09/ RMK SC8

CYXE;2010-12-04 03:00;CYXE 040300Z 24005KT 12SM -SN OVC025 M08/M09 A3029 RMK SC8 SLP298

CYXE;2010-12-04 04:00;CYXE 040400Z 25004KT 4SM -SN OVC015 M08/M09 A3030 RMK SN2SC6 SLP301

CYXE;2010-12-04 05:00;CYXE 040500Z 28006KT 12SM -SN SCT015 BKN050 OVC080 M08/M09 A3031 RMK SC3SC3AC2 SLP303

CYXE;2010-12-04 06:00;CYXE 040600Z 29006KT 12SM -SN FEW015 OVC053 M08/M09 A3032 RMK SC2SC6 SLP307

CYXE;2010-12-04 07:00;CYXE 040700Z 29006KT 12SM -SN OVC040 M09/M10 A3033 RMK SC8 SLP311

CYXE;2010-12-04 08:00;CYXE 040800Z 29006KT 12SM -SN BKN023 OVC070 M09/M10 A3034 RMK SC6AC2 SLP313

CYXE;2010-12-04 09:00;CYXE 040900Z 30006KT 6SM BR OVC023 M09/M10 A3035 RMK SC8 SLP318

CYXE;2010-12-04 10:00;CYXE 041000Z 30006KT 8SM OVC017 M08/M09 A3036 RMK SC8 BR SLP319

CYXE;2010-12-04 11:00;CYXE 041100Z 29007KT 12SM OVC011 M07/M09 A3036 RMK SC8 BR SLP320

CYXE;2010-12-04 11:12;CYXE 041112Z 30010KT 15SM -SN OVC011 M07/ RMK SC8

CYXE;2010-12-04 12:00;CYXE 041200Z 31008KT 15SM OVC011 M08/M09 A3036 RMK SC8 SLP320

CYXE;2010-12-04 13:00;CYXE 041300Z 31007KT 15SM OVC010 M08/M10 A3036 RMK SC8 SLP321

CYXE;2010-12-04 13:34;CYXE 041334Z 29006KT 15SM OVC009 M09/ RMK SC8

CYXE;2010-12-04 14:00;CYXE 041400Z CCA 27005KT 15SM -SN OVC007 M09/M10 A3037 RMK SC8 SLP322

CYXE;2010-12-04 14:41;CYXE 041441Z 26013KT 15SM -SN OVC005 M10/ RMK SC8

CYXE;2010-12-04 15:00;CYXE 041500Z 26013KT 12SM -SN OVC004 M11/M11 A3038 RMK SC8 SLP328

CYXE;2010-12-04 15:49;CYXE 041549Z 24010KT 10SM -SN OVC006 M12/ RMK SC8

CYXE;2010-12-04 16:00;CYXE 041600Z 24011KT 5SM -SN OVC007 M12/M13 A3039 RMK SC8 SLP331

CYXE;2010-12-04 17:00;CYXE 041700Z 25010KT 5SM -SN OVC006 M11/M12 A3038 RMK SC8 SLP330

CYXE;2010-12-04 17:40;CYXE 041740Z 25015KT 2SM -SN DRSN OVC006 M12/ RMK SC8

CYXE;2010-12-04 18:00;CYXE 041800Z 25012KT 3SM -SN DRSN OVC006 M12/M13 A3037 RMK SC8 SLP328

CYXE;2010-12-04 19:00;CYXE 041900Z 23012KT 3SM -SN DRSN OVC006 M10/M11 A3035 RMK SC8 SLP320

CYXE;2010-12-04 21:00;CYXE 042100Z 25015KT 15SM -SN DRSN OVC009 M08/M09 A3032 RMK SC8 SLP308

CYXE;2010-12-04 22:00;CYXE 042200Z 24016KT 15SM -SN DRSN OVC009 M08/M09 A3032 RMK SC8 SLP308

CYXE;2010-12-04 22:50;CYXE 042250Z 24017KT 15SM -SN DRSN OVC010 M08/ RMK SC8

CYXE;2010-12-04 23:00;CYXE 042300Z 24016KT 15SM -SN DRSN OVC010 M08/M09 A3032 RMK SC8 SLP309

CYXE;2010-12-05 00:00;CYXE 050000Z 24016KT 15SM DRSN BKN010 M08/M10 A3032 RMK SC5 SLP306

CYXE;2010-12-05 00:31;CYXE 050031Z 23014KT 15SM FEW010 M09/ RMK SC2

CYXE;2010-12-05 01:00;CYXE 050100Z 23015KT 15SM DRSN FEW010 M09/M11 A3032 RMK SC1 SLP305

CYXE;2010-12-05 02:00;CYXE 050200Z 22013KT 8SM DRSN FEW010 M11/M12 A3032 RMK SC2 BR SLP305

CYXE;2010-12-05 03:00;CYXE 050300Z 23010KT 6SM BR SKC M12/M13 A3033 RMK SLP314

CYXE;2010-12-05 04:00;CYXE 050400Z 22010KT 6SM BR FEW025 M14/M14 A3032 RMK SC1 SLP312

CYXE;2010-12-05 05:00;CYXE 050500Z 23009KT 4SM BR FEW025 M15/M15 A3032 RMK SC1 SLP310

CYXE;2010-12-05 06:00;CYXE 050600Z 23007KT 15SM SKC M16/M17 A3033 RMK SLP318

CYXE;2010-12-05 07:00;CYXE 050700Z 24007KT 15SM SKC M17/M17 A3034 RMK SLP321

CYXE;2010-12-05 08:00;CYXE 050800Z 23006KT 15SM SKC M17/M18 A3034 RMK SLP320

CYXE;2010-12-05 09:00;CYXE 050900Z 24006KT 15SM SKC M18/M19 A3035 RMK SLP322

CYXE;2010-12-05 10:00;CYXE 051000Z 21006KT 15SM SKC M19/M20 A3034 RMK SLP319

CYXE;2010-12-05 11:00;CYXE 051100Z 23006KT 15SM SKC M19/M19 A3034 RMK SLP321

CYXE;2010-12-05 12:00;CYXE 051200Z 22007KT 15SM SKC M19/M20 A3034 RMK SLP321

CYXE;2010-12-05 12:10;CYXE 051210Z 22006KT 15SM FEW008 M19/ RMK SF0

CYXE;2010-12-05 13:00;CYXE 051300Z 21007KT 15SM FEW008 M18/M19 A3034 RMK SF0 SLP322

CYXE;2010-12-05 14:00;CYXE 051400Z 19004KT 15SM FEW120 M18/M19 A3035 RMK AC2 SLP325

CYXE;2010-12-05 15:00;CYXE 051500Z 21006KT 15SM SCT300 M18/M19 A3035 RMK CI1 SLP325

CYXE;2010-12-05 22:00;CYXE 052200Z 21005KT 15SM BKN300 M12/M14 A3033 RMK CI2 SLP320

CYXE;2010-12-05 23:00;CYXE 052300Z 22008KT 15SM BKN300 M13/M15 A3032 RMK CI2 SLP316

CYXE;2010-12-06 00:00;CYXE 060000Z 21008KT 15SM SCT300 M13/M15 A3033 RMK CI1 SLP320

CYXE;2010-12-06 01:00;CYXE 060100Z 22008KT 15SM SKC M13/M15 A3032 RMK SLP319

CYXE;2010-12-06 02:00;CYXE 060200Z 22007KT 15SM SKC M15/M16 A3032 RMK SLP318

CYXE;2010-12-06 03:00;CYXE 060300Z 23007KT 15SM SKC M15/M16 A3031 RMK SLP315

CYXE;2010-12-06 04:00;CYXE 060400Z 22006KT 15SM SKC M16/M18 A3031 RMK SLP315

CYXE;2010-12-06 04:46;CYXE 060446Z 22005KT 15SM FEW008 M17/ RMK SF1

CYXE;2010-12-06 05:00;CYXE 060500Z 21006KT 15SM FEW008 M16/M17 A3032 RMK SF1 SLP316

CYXE;2010-12-06 06:00;CYXE 060600Z 21007KT 15SM SKC M16/M17 A3031 RMK SLP312

CYXE;2010-12-06 07:00;CYXE 060700Z 20005KT 15SM SKC M17/M18 A3029 RMK SLP308

CYXE;2010-12-06 08:00;CYXE 060800Z 20006KT 15SM SKC M18/M19 A3028 RMK SLP305

CYXE;2010-12-06 09:00;CYXE 060900Z 21004KT 15SM SKC M17/M18 A3028 RMK SLP303

CYXE;2010-12-06 10:00;CYXE 061000Z 21004KT 15SM SKC M18/M19 A3028 RMK SLP301

CYXE;2010-12-06 11:00;CYXE 061100Z 21005KT 15SM SKC M19/M20 A3027 RMK SLP299

CYXE;2010-12-06 12:00;CYXE 061200Z 20005KT 15SM SKC M20/M20 A3027 RMK SLP299

CYXE;2010-12-06 13:00;CYXE 061300Z 21004KT 15SM SKC M20/M21 A3027 RMK BR PTCHS SLP299

CYXE;2010-12-06 14:00;CYXE 061400Z 19003KT 15SM SKC M20/M21 A3025 RMK SLP295

CYXE;2010-12-06 15:00;CYXE 061500Z 21005KT 15SM SKC M22/M22 A3026 RMK SLP299

CYXE;2010-12-06 16:00;CYXE 061600Z 23005KT 15SM SKC M20/M24 A3026 RMK SLP299

CYXE;2010-12-06 17:00;CYXE 061700Z 24003KT 15SM SKC M19/M22 A3025 RMK SLP297

CYXE;2010-12-06 18:00;CYXE 061800Z 27002KT 15SM SKC M18/M21 A3024 RMK SLP291

CYXE;2010-12-06 19:00;CYXE 061900Z 24004KT 15SM FEW220 M16/M19 A3023 RMK CI1 SLP289

CYXE;2010-12-06 20:00;CYXE 062000Z 24002KT 15SM FEW220 M14/M18 A3022 RMK CI1 SLP285

CYXE;2010-12-06 21:00;CYXE 062100Z 00000KT 15SM FEW110 FEW220 M14/M18 A3021 RMK AC1CI2 SLP278

CYXE;2010-12-06 22:00;CYXE 062200Z 00000KT 15SM FEW110 FEW220 M15/M19 A3022 RMK AC1CI2 SLP281

CYXE;2010-12-06 23:00;CYXE 062300Z 29002KT 15SM FEW110 OVC230 M16/M19 A3021 RMK AC1CI3 SLP280

CYXE;2010-12-07 00:00;CYXE 070000Z 28003KT 15SM FEW110 SCT230 M17/M20 A3022 RMK AC2CI1 SLP285

CYXE;2010-12-07 01:00;CYXE 070100Z 08002KT 15SM FEW110 SCT230 M18/M21 A3020 RMK AC2CI1 SLP280

CYXE;2010-12-07 02:00;CYXE 070200Z 04004KT 15SM FEW110 BKN230 M17/M20 A3019 RMK AC2CI1 SLP278

CYXE;2010-12-07 03:00;CYXE 070300Z 05004KT 15SM SCT025 BKN110 M16/M19 A3020 RMK SC3AC0 SLP279

CYXE;2010-12-07 04:00;CYXE 070400Z 00000KT 15SM FEW025 BKN110 M17/M20 A3020 RMK SC2AC2 SLP281

CYXE;2010-12-07 05:00;CYXE 070500Z 31007KT 15SM FEW250 M19/M22 A3024 RMK CI2 SLP293

CYXE;2010-12-07 06:00;CYXE 070600Z 03002KT 12SM SKC M21/M24 A3024 RMK SLP294

CYXE;2010-12-07 07:00;CYXE 070700Z 03003KT 12SM SKC M20/M23 A3024 RMK SLP294

CYXE;2010-12-07 08:00;CYXE 070800Z 10002KT 12SM SKC M20/M23 A3024 RMK SLP293

CYXE;2010-12-07 09:00;CYXE 070900Z 10003KT 10SM SKC M20/M23 A3024 RMK SLP290

CYXE;2010-12-07 10:00;CYXE 071000Z 05003KT 10SM SKC M21/M24 A3026 RMK SLP296

CYXE;2010-12-07 11:00;CYXE 071100Z 03005KT 10SM SKC M22/M25 A3027 RMK SLP299

CYXE;2010-12-07 12:00;CYXE 071200Z 05002KT 10SM SKC M22/M25 A3028 RMK SLP308

CYXE;2010-12-07 13:00;CYXE 071300Z 01002KT 8SM SKC M22/M26 A3028 RMK SLP308

CYXE;2010-12-07 14:00;CYXE 071400Z 03003KT 3SM IC SKC M22/M26 A3028 RMK SLP308

CYXE;2010-12-07 16:00;CYXE 071600Z 06003KT 10SM FEW120 BKN250 M21/M24 A3030 RMK AC1CI2 IC SLP314

CYXE;2010-12-07 17:00;CYXE 071700Z CCA 02003KT 4SM IC BR FEW120 BKN250 M21/M24 A3032 RMK AC1CI2 SLP320

CYXE;2010-12-07 18:00;CYXE 071800Z 05003KT 4SM IC BR FEW120 BKN250 M18/M21 A3032 RMK AC1CI2 SLP322

CYXE;2010-12-07 19:00;CYXE 071900Z 07003KT 10SM FEW120 BKN250 M17/M20 A3031 RMK AC1CI2 IC SLP317

CYXE;2010-12-07 20:00;CYXE 072000Z 06005KT 10SM FEW120 BKN250 M16/M18 A3030 RMK AC2CI2 SLP316

CYXE;2010-12-07 21:00;CYXE 072100Z 05008KT 10SM FEW120 BKN250 M15/M18 A3030 RMK AC1CI2 SLP313

CYXE;2010-12-07 22:00;CYXE 072200Z 06008KT 15SM FEW120 SCT250 M15/M18 A3030 RMK AC2CI1 SLP313

CYXE;2010-12-07 23:00;CYXE 072300Z 05007KT 8SM FEW120 SCT250 M17/M20 A3031 RMK AC2CI0 SLP315

CYXE;2010-12-08 00:00;CYXE 080000Z 07007KT 12SM FEW120 SCT250 M18/M21 A3031 RMK AC2CI0 SLP319

CYXE;2010-12-08 01:00;CYXE 080100Z 07008KT 12SM FEW120 SCT250 M18/M21 A3031 RMK AC2CI0 SLP320

CYXE;2010-12-08 02:00;CYXE 080200Z 07005KT 8SM FEW250 M19/M23 A3029 RMK CI0 SLP313

CYXE;2010-12-08 03:00;CYXE 080300Z 07002KT 8SM FEW250 M20/M23 A3029 RMK CI0 SLP315

CYXE;2010-12-08 04:00;CYXE 080400Z 09004KT 8SM SKC M20/M24 A3026 RMK SLP303

CYXE;2010-12-08 04:37;CYXE 080437Z 11005KT 8SM SCT008 M19/ RMK ST2

CYXE;2010-12-08 05:00;CYXE 080500Z 11006KT 8SM BKN008 M17/M20 A3024 RMK ST6 SLP298

CYXE;2010-12-08 06:00;CYXE 080600Z 14005KT 8SM OVC006 M17/M19 A3025 RMK ST8 IC SLP294

CYXE;2010-12-08 07:00;CYXE 080700Z 13008KT 3SM IC OVC004 M17/M19 A3022 RMK ST8 SLP285

CYXE;2010-12-08 08:00;CYXE 080800Z 12005KT 10SM BKN004 M18/M20 A3018 RMK ST5 IC SLP274

CYXE;2010-12-08 08:26;CYXE 080826Z 16003KT 15SM SCT005 M18/ RMK SF2 IC

CYXE;2010-12-08 09:00;CYXE 080900Z 12005KT 15SM SCT008 M18/M21 A3016 RMK SF2 IC SLP262

CYXE;2010-12-08 09:44;CYXE 080944Z 11005KT 15SM OVC007 M18/ RMK ST7 IC

CYXE;2010-12-08 10:00;CYXE 081000Z 12007KT 15SM OVC005 M18/M21 A3012 RMK ST8 IC SLP249

CYXE;2010-12-08 11:00;CYXE 081100Z 12007KT 12SM OVC006 M18/M20 A3008 RMK ST7 IC SLP238

CYXE;2010-12-08 12:00;CYXE 081200Z 12009KT 15SM OVC005 M17/M19 A3002 RMK ST6 IC PRESFR SLP216

CYXE;2010-12-08 13:00;CYXE 081300Z 12009KT 15SM OVC008 M17/M19 A3000 RMK ST7 IC SLP208

CYXE;2010-12-08 14:00;CYXE 081400Z 13009KT 6SM IC OVC008 M16/M18 A2996 RMK ST8 SLP198

CYXE;2010-12-08 14:03;CYXE 081403Z 13010KT 6SM IC FEW004 OVC070 M16/ RMK SF2AC6

CYXE;2010-12-08 15:00;CYXE 081500Z 12011KT 6SM IC FEW025 OVC110 M15/M18 A2990 RMK SC2AC6 PRESFR SLP176

CYXE;2010-12-08 15:33;CYXE 081533Z 12010KT 8SM OVC089 M15/ RMK AC8 BR

CYXE;2010-12-08 15:51;CYXE 081551Z 13011KT 4SM -SN BR OVC004 M15/ RMK ST8

CYXE;2010-12-08 16:00;CYXE 081600Z 13011KT 4SM -SN BR OVC004 M15/M17 A2986 RMK ST8 SLP162

CYXE;2010-12-08 16:02;CYXE 081602Z 13013KT 4SM -SN BR OVC005 M15/ RMK ST8

CYXE;2010-12-08 16:14;CYXE 081614Z 12014KT 7SM -SN OVC003 OVC090 M15/ RMK ST6AC2 BR

CYXE;2010-12-08 16:26;CYXE 081626Z 14012G17KT 5SM -SHGS -FZRA BR OVC005 OVC090 M14/ RMK ST6AC2

CYXE;2010-12-08 17:00;CYXE 081700Z 14011KT 5SM -SHGS -FZRA BR OVC005 OVC090 M14/M16 A2982 RMK ST6AC2 SLP149

CYXE;2010-12-08 17:16;CYXE 081716Z CCA 13013KT 4SM -PL -FZRA BR OVC006 OVC090 M14/ RMK ST7AC1

CYXE;2010-12-08 18:00;CYXE 081800Z 14013KT 8SM -PL -FZRA BKN006 OVC090 M13/M15 A2975 RMK SF3AC5 BR SLP121

CYXE;2010-12-08 19:00;CYXE 081900Z 13010KT 10SM -PL -FZRA SCT006 OVC090 M12/M13 A2968 RMK SF2AC6 SLP097

CYXE;2010-12-08 19:16;CYXE 081916Z 14010KT 15SM -FZRA FEW006 SCT038 OVC090 M11/ RMK SF2SC2AC5

CYXE;2010-12-08 19:25;CYXE 081925Z 16008KT 15SM SCT048 OVC090 M11/ REFZRA RMK SC3AC5

CYXE;2010-12-08 20:00;CYXE 082000Z 15012KT 15SM BKN048 OVC068 M10/M12 A2963 REFZRA RMK SC5AC3 SLP082

CYXE;2010-12-08 21:00;CYXE 082100Z 15008KT 15SM FEW048 OVC078 M10/M12 A2958 RMK SC2AC6 SLP060

CYXE;2010-12-08 22:00;CYXE 082200Z 14009KT 15SM OVC097 M09/M11 A2953 RMK AC8 SLP044

CYXE;2010-12-09 00:00;CYXE 090000Z 09007KT 15SM BKN095 OVC120 M09/M10 A2947 RMK AC5AC3 SLP022

CYXE;2010-12-09 01:00;CYXE 090100Z 08004KT 15SM OVC093 M09/M10 A2945 RMK AC8 SLP015

CYXE;2010-12-09 02:00;CYXE 090200Z 03004KT 15SM FEW016 OVC095 M09/M10 A2945 RMK SC2AC6 SLP014

CYXE;2010-12-09 03:00;CYXE 090300Z 34006KT 15SM -FZRA BKN045 OVC095 M08/M10 A2945 RMK ST5AC3 SLP012

CYXE;2010-12-09 04:00;CYXE 090400Z 34008KT 12SM -FZRA OVC029 M08/M09 A2944 RMK SC8 SLP009

CYXE;2010-12-09 05:00;CYXE 090500Z 30010KT 12SM -FZRA FEW004 BKN065 OVC084 M08/M10 A2947 RMK SF1AC4AC3 SLP020

CYXE;2010-12-09 05:06;CYXE 090506Z 32010KT 8SM -SN FEW009 BKN018 OVC065 M09/ REFZRA RMK SF2SC3AC3

CYXE;2010-12-09 06:00;CYXE 090600Z 30012KT 10SM -SN BKN013 OVC050 M09/M11 A2952 REFZRA RMK SC5SC3 SLP034

CYXE;2010-12-09 07:00;CYXE 090700Z 31012KT 15SM -SN SCT022 OVC050 M10/M11 A2953 RMK SC4SC4 SLP038

CYXE;2010-12-09 08:00;CYXE 090800Z 31013G18KT 4SM -SN OVC025 M10/M12 A2953 RMK SC8 SLP040

CYXE;2010-12-09 08:21;CYXE 090821Z 30013KT 2 1/2SM -SN OVC030 M11/ RMK SN2SC6

CYXE;2010-12-09 09:00;CYXE 090900Z 30015KT 1 1/4SM -SN VV010 M11/M12 A2956 RMK SN8 SLP049

CYXE;2010-12-09 09:46;CYXE 090946Z 31015KT 4SM -SN OVC030 M11/ RMK SN2SC6

CYXE;2010-12-09 10:00;CYXE 091000Z 30017KT 8SM -SN OVC020 M11/M13 A2958 RMK SC8 SLP056

CYXE;2010-12-09 10:49;CYXE 091049Z 31015KT 15SM BKN030 M12/ RMK SC6

CYXE;2010-12-09 11:00;CYXE 091100Z 31013KT 15SM SCT030 M12/M14 A2961 RMK SC3 SLP064

CYXE;2010-12-09 12:00;CYXE 091200Z 30013KT 15SM FEW085 SCT250 M12/M14 A2963 RMK AC2CI1 SLP071

CYXE;2010-12-09 13:00;CYXE 091300Z 31010KT 15SM SCT085 BKN250 M12/M15 A2965 RMK AC2CI1 SLP079

CYXE;2010-12-09 14:00;CYXE 091400Z 30010KT 15SM DRSN SCT250 M13/M15 A2968 RMK CI0 SLP088

CYXE;2010-12-09 15:00;CYXE 091500Z 30008KT 15SM DRSN FEW090 SCT250 M13/M15 A2971 RMK AC2CI0 OBS TAKEN +06 SLP100

CYXE;2010-12-09 16:00;CYXE 091600Z 31008KT 15SM SCT020 BKN050 M12/M14 A2973 RMK SC3SC3 SLP106

CYXE;2010-12-09 17:00;CYXE 091700Z 30009KT 15SM BKN035 M11/M13 A2975 RMK SC7 SLP113

CYXE;2010-12-09 18:00;CYXE 091800Z 31012KT 15SM BKN018 OVC035 M10/M13 A2977 RMK SC6SC2 SLP118

CYXE;2010-12-09 18:36;CYXE 091836Z 30012KT 15SM -SN DRSN BKN018 OVC034 M10/ RMK SC6SC2

CYXE;2010-12-09 19:00;CYXE 091900Z 32012G17KT 15SM -SN DRSN BKN018 OVC034 M10/M14 A2977 RMK SC6SC2 SLP118

CYXE;2010-12-09 19:24;CYXE 091924Z 32012KT 15SM DRSN SCT018 BKN034 M11/ RMK SC3SC2

CYXE;2010-12-09 20:00;CYXE 092000Z 31012KT 15SM FEW018 BKN034 M11/M15 A2978 RMK SC2SC5 SLP123

CYXE;2010-12-09 21:00;CYXE 092100Z 31010KT 15SM FEW015 BKN037 M10/M14 A2979 RMK SC2SC6 SLP129

CYXE;2010-12-09 22:00;CYXE 092200Z 32009KT 15SM FEW015 BKN037 M11/M14 A2981 RMK SF1SC5 SLP133

CYXE;2010-12-09 23:00;CYXE 092300Z 31004KT 15SM FEW015 FEW037 M13/M16 A2983 RMK SF1SC1 SLP140

CYXE;2010-12-10 00:00;CYXE 100000Z 32004KT 15SM FEW040 M14/M16 A2983 RMK SC1 SLP146

CYXE;2010-12-10 01:00;CYXE 100100Z 32005KT 15SM -SN BKN025 M16/M17 A2984 RMK SC2 SLP148

CYXE;2010-12-10 02:00;CYXE 100200Z 34004KT 15SM -SN OVC025 M16/M18 A2985 RMK SC7 SLP151

CYXE;2010-12-10 03:00;CYXE 100300Z 02006KT 15SM OVC023 M14/M16 A2986 RMK SC8 SLP156

CYXE;2010-12-10 04:00;CYXE 100400Z 06009KT 15SM OVC023 M13/M16 A2986 RMK SC8 SLP156

CYXE;2010-12-10 05:00;CYXE 100500Z 06010KT 15SM OVC021 M13/M16 A2987 RMK SC8 SLP158

CYXE;2010-12-10 06:00;CYXE 100600Z 04011KT 15SM OVC021 M14/M17 A2987 RMK SC8 SLP158

CYXE;2010-12-10 07:00;CYXE 100700Z 06013KT 15SM OVC020 M15/M18 A2986 RMK SC8 SLP155

CYXE;2010-12-10 08:00;CYXE 100800Z 05010KT 15SM SCT025 BKN085 M16/M18 A2987 RMK SC2AC3 SLP156

CYXE;2010-12-10 09:00;CYXE 100900Z 05005KT 15SM FEW025 BKN100 M17/M19 A2990 RMK SC1AC5 SLP169

CYXE;2010-12-10 10:00;CYXE 101000Z 04007KT 15SM FEW045 OVC095 M17/M18 A2991 RMK SC2AC6 SLP173

CYXE;2010-12-10 11:00;CYXE 101100Z 05007KT 15SM BKN045 OVC095 M17/M18 A2991 RMK SC5AC2 SLP172

CYXE;2010-12-10 12:00;CYXE 101200Z 06011KT 15SM BKN040 OVC095 M16/M18 A2992 RMK SC6AC2 SLP177

CYXE;2010-12-10 12:23;CYXE 101223Z 05009KT 15SM FEW007 OVC038 M16/ RMK SF1SC7

CYXE;2010-12-10 13:00;CYXE 101300Z 05010KT 15SM FEW006 OVC040 M16/M18 A2992 RMK SF2SC6 SLP179

CYXE;2010-12-10 14:00;CYXE 101400Z 05009KT 12SM -SN BKN018 OVC042 M16/M18 A2995 RMK SC5SC3 SLP187

CYXE;2010-12-10 15:00;CYXE 101500Z 08011KT 12SM -SN FEW014 BKN019 OVC043 M16/M18 A2996 RMK SF2SC3SC3 SLP193

CYXE;2010-12-10 16:00;CYXE 101600Z 06011KT 12SM -SN FEW019 OVC043 M17/M20 A3000 RMK SF2SC6 SLP205

CYXE;2010-12-10 17:00;CYXE 101700Z 06011KT 3SM -SN OVC021 M18/M20 A3004 RMK SC8 SLP217

CYXE;2010-12-10 17:02;CYXE 101702Z 06012KT 1SM R09/P6000FT/N -SN OVC021 M18/ RMK SC8

CYXE;2010-12-10 18:00;CYXE 101800Z 05010KT 2SM -SN OVC020 M18/M24 A3005 RMK SC8 SLP226

CYXE;2010-12-10 18:25;CYXE 101825Z 06010KT 4SM -SN BKN020 OVC040 M18/ RMK SC6SC2

CYXE;2010-12-10 19:00;CYXE 101900Z 04009KT 8SM -SN BKN030 OVC067 M18/M23 A3006 RMK SC6AC2 SLP229

CYXE;2010-12-10 20:00;CYXE 102000Z 05008KT 12SM -SN BKN015 OVC090 M18/M23 A3009 RMK ST6AC2 SLP236

CYXE;2010-12-10 20:36;CYXE 102036Z 05008KT 3SM -SN FEW009 OVC062 M19/ RMK SF2SC6

CYXE;2010-12-10 21:00;CYXE 102100Z 05008KT 2SM -SN FEW007 BKN027 OVC065 M19/M23 A3011 RMK SF2SC3AC2 SLP248

CYXE;2010-12-10 21:47;CYXE 102147Z 04009KT 6SM -SN BKN018 OVC063 M19/ RMK ST5SC3

CYXE;2010-12-10 22:00;CYXE 102200Z 04008KT 6SM -SN BKN021 OVC063 M19/M24 A3014 RMK ST5SC3 SLP256

CYXE;2010-12-10 23:00;CYXE 102300Z 04007KT 4SM -SN OVC031 M19/M23 A3017 RMK SC8 SLP266

CYXE;2010-12-11 00:00;CYXE 110000Z 03007KT 6SM -SN OVC020 M19/M24 A3020 RMK SC8 SLP277

CYXE;2010-12-11 01:00;CYXE 110100Z 04005KT 15SM SCT025 BKN075 M20/M24 A3023 RMK SC3AC2 SLP286

CYXE;2010-12-11 02:00;CYXE 110200Z 07004KT 15SM FEW025 FEW075 M21/M25 A3025 RMK SC1AC2 SLP293

CYXE;2010-12-11 03:00;CYXE 110300Z 08004KT 15SM BKN025 M22/M26 A3027 RMK SC3 SLP304

CYXE;2010-12-11 04:00;CYXE 110400Z 06002KT 15SM -SN SCT025 BKN054 M21/M25 A3029 RMK SC4SC3 SLP310

CYXE;2010-12-11 05:00;CYXE 110500Z 07002KT 15SM -SN BKN038 M21/M25 A3030 RMK SC6 SLP313

CYXE;2010-12-11 07:00;CYXE 110700Z 05004KT 15SM -SN FEW020 OVC065 M21/M25 A3033 RMK SC1SC7 SLP327

CYXE;2010-12-11 08:00;CYXE 110800Z 07004KT 15SM -SN BKN035 OVC090 M21/M25 A3035 RMK SC6AC2 SLP332

CYXE;2010-12-11 09:00;CYXE 110900Z 05003KT 15SM -SN FEW015 BKN085 M22/M26 A3036 RMK SC2AC5 SLP339

CYXE;2010-12-11 10:00;CYXE 111000Z 05003KT 15SM -SN OVC020 M22/M26 A3037 RMK SC8 SLP342

CYXE;2010-12-11 11:00;CYXE 111100Z 08002KT 15SM -SN FEW020 OVC080 M22/M25 A3038 RMK SC2AC6 SLP344

CYXE;2010-12-11 12:00;CYXE 111200Z 06003KT 15SM -SN OVC075 M21/M25 A3038 RMK AC8 SLP343

CYXE;2010-12-11 13:00;CYXE 111300Z 07003KT 15SM -SN FEW016 OVC066 M21/M25 A3039 RMK SF2AC6 SLP347

CYXE;2010-12-11 14:00;CYXE 111400Z 07003KT 15SM -SN SCT046 OVC077 M21/M24 A3039 RMK SC4AC4 SLP346

CYXE;2010-12-11 14:31;CYXE 111431Z 04004KT 15SM -SN FEW005 OVC053 M20/ RMK SF2SC6

CYXE;2010-12-11 15:00;CYXE 111500Z 05004KT 15SM -SN SCT004 OVC051 M20/M24 A3040 RMK SF4SC4 SLP354

CYXE;2010-12-11 15:40;CYXE 111540Z 10004KT 2SM -SN OVC024 M20/ RMK SC8

CYXE;2010-12-11 16:00;CYXE 111600Z 10003KT 4SM -SN OVC024 M20/M24 A3041 RMK SC8 SLP356

CYXE;2010-12-11 16:14;CYXE 111614Z 09004KT 3SM -SN FEW006 OVC024 M20/ RMK SF2SC6 VIS VRB 2-4

CYXE;2010-12-11 17:00;CYXE 111700Z 09005KT 1SM R09/P6000FT/N -SN VV004 M20/M24 A3043 RMK SN8 VIS VRB 1/2-11/2 SLP362

CYXE;2010-12-11 18:00;CYXE 111800Z 08004KT 2SM -SN SCT012 OVC046 M20/M24 A3044 RMK SF4SC4 VIS VRB 1-3 SLP364

CYXE;2010-12-11 19:00;CYXE 111900Z 08005KT 1 1/2SM -SN VV013 M20/M23 A3042 RMK SN8 SLP359

CYXE;2010-12-11 20:00;CYXE 112000Z 08005KT 3SM -SN OVC029 M20/M23 A3042 RMK SN3SC5 VIS VRB 2-4 /S01/ SLP359

CYXE;2010-12-11 21:00;CYXE 112100Z 06006KT 5SM -SN OVC014 M20/M23 A3043 RMK SC8 SLP361

CYXE;2010-12-11 21:29;CYXE 112129Z 07007KT 8SM -SN BKN023 M20/ RMK SC7

CYXE;2010-12-11 22:00;CYXE 112200Z 07006KT 8SM -SN OVC020 M20/M24 A3043 RMK SC7 SLP363

CYXE;2010-12-11 23:00;CYXE 112300Z 08008KT 8SM -SN OVC018 M20/M24 A3045 RMK SC8 SLP367

CYXE;2010-12-12 00:00;CYXE 120000Z 07009KT 6SM -SN BKN018 OVC045 M21/M25 A3045 RMK SC6SC2 SLP369

CYXE;2010-12-12 01:00;CYXE 120100Z 07007KT 15SM -SN FEW018 SCT040 OVC075 M21/M25 A3044 RMK SC2SC2AC5 SLP367

CYXE;2010-12-12 02:00;CYXE 120200Z 07006KT 15SM -SN FEW020 BKN075 M22/M26 A3045 RMK SC2AC4 SLP370

CYXE;2010-12-12 03:00;CYXE 120300Z 07005KT 15SM -SN FEW020 BKN075 M22/M25 A3045 RMK SC2AC4 SLP368

CYXE;2010-12-12 04:40;CYXE 120440Z 06008KT 15SM FEW020 SCT060 M23/ RMK SC2SC2

CYXE;2010-12-12 05:00;CYXE 120500Z 07007KT 15SM SCT060 M24/M27 A3044 RMK SC3 SLP365

CYXE;2010-12-12 06:00;CYXE 120600Z 07006KT 15SM FEW060 M23/M27 A3045 RMK SC2 SLP371

CYXE;2010-12-12 07:00;CYXE 120700Z 07006KT 15SM FEW060 M25/M28 A3044 RMK SC2 SLP367

CYXE;2010-12-12 08:00;CYXE 120800Z 08005KT 15SM BKN053 M23/M26 A3043 RMK SC6 SLP364

CYXE;2010-12-12 09:00;CYXE 120900Z 12007KT 15SM OVC053 M21/M24 A3043 RMK SC8 SLP360

CYXE;2010-12-12 10:00;CYXE 121000Z 14006KT 15SM OVC047 M21/M24 A3042 RMK SC8 SLP357

CYXE;2010-12-12 11:00;CYXE 121100Z 12007KT 15SM OVC045 M20/M24 A3041 RMK SC8 SLP354

CYXE;2010-12-12 13:00;CYXE 121300Z 12009KT 15SM BKN041 M20/M24 A3035 RMK SC6 SLP334

CYXE;2010-12-12 14:00;CYXE 121400Z 13010KT 15SM SCT040 BKN120 M22/M26 A3034 RMK SC3AC1 SLP331

CYXE;2010-12-12 15:00;CYXE 121500Z 13007KT 15SM FEW040 FEW120 BKN280 M22/M26 A3032 RMK SC1AC1CI1 SLP325

CYXE;2010-12-12 16:00;CYXE 121600Z 12009KT 15SM SCT120 BKN280 M22/M25 A3030 RMK AC2CI2 SLP319

CYXE;2010-12-12 17:00;CYXE 121700Z 12010KT 15SM SCT120 OVC280 M21/M25 A3028 RMK AC2CI3 SLP312

CYXE;2010-12-12 17:24;CYXE 121724Z 13010KT 15SM -SN BKN120 OVC280 M20/ RMK AS5CI2

CYXE;2010-12-12 18:00;CYXE 121800Z 12012KT 15SM -SN DRSN OVC120 M19/M23 A3024 RMK AS8 SLP298

CYXE;2010-12-12 19:00;CYXE 121900Z 13015KT 15SM -SN DRSN OVC120 M19/M23 A3021 RMK AS8 SLP289

CYXE;2010-12-12 20:00;CYXE 122000Z 13012G17KT 15SM -SN DRSN OVC120 M18/M22 A3017 RMK AS7 SLP275

CYXE;2010-12-12 21:00;CYXE 122100Z 13015G20KT 6SM -SN BLSN OVC120 M17/M21 A3014 RMK AS7 SLP258

CYXE;2010-12-12 22:00;CYXE 122200Z 13011G16KT 12SM -SN DRSN OVC100 M17/M21 A3014 REBLSN RMK AS8 SLP258

CYXE;2010-12-12 23:00;CYXE 122300Z 13013G21KT 15SM DRSN OVC090 M17/M21 A3010 RMK AS8 SLP247

CYXE;2010-12-13 00:00;CYXE 130000Z 14015KT 15SM DRSN OVC075 M17/M21 A3006 RMK AC8 SLP232

CYXE;2010-12-13 01:00;CYXE 130100Z 14014KT 15SM DRSN OVC075 M17/M20 A3003 RMK AC8 SLP221

CYXE;2010-12-13 02:00;CYXE 130200Z 13015G21KT 15SM DRSN OVC070 M16/M20 A3001 RMK AC8 SLP214

CYXE;2010-12-13 02:08;CYXE 130208Z 14017KT 10SM -SN DRSN OVC060 M16/ RMK SC8

CYXE;2010-12-13 03:00;CYXE 130300Z 13012G18KT 2 1/2SM -SN DRSN BKN017 OVC060 M15/M18 A2998 RMK SC6SC2 SLP204

CYXE;2010-12-13 03:44;CYXE 130344Z 14009G19KT 4SM -SN DRSN BKN022 OVC055 M15/ RMK SC5SC3

CYXE;2010-12-13 04:00;CYXE 130400Z 14013G21KT 4SM -SN DRSN BKN020 OVC045 M15/M18 A2995 RMK SC5SC3 SLP193

CYXE;2010-12-13 04:38;CYXE 130438Z 13015KT 1 1/2SM -SN DRSN OVC018 M15/ RMK SC8

CYXE;2010-12-13 05:00;CYXE 130500Z 13011G16KT 1SM R09/P6000FT/N -SN DRSN BKN018 OVC040 M15/M18 A2995 RMK SN2SC4SC2 /S02/ SLP194

CYXE;2010-12-13 05:05;CYXE 130505Z 13014KT 1SM R09/P6000FT/U -SN DRSN VV005 M15/ RMK SN8

CYXE;2010-12-13 05:17;CYXE 130517Z 14012G17KT 1SM R09/P6000FT/D -SN DRSN OVC016 M15/ RMK SN3SC5

CYXE;2010-12-13 06:00;CYXE 130600Z 14011KT 2SM -SN DRSN OVC018 M14/M17 A2993 RMK SC8 SLP183

CYXE;2010-12-13 06:14;CYXE 130614Z 15016KT 6SM -SN DRSN OVC018 M14/ RMK SC8

CYXE;2010-12-13 07:00;CYXE 130700Z 14010KT 6SM -SN DRSN BKN015 OVC050 M14/M17 A2993 RMK SC6SC2 SLP184

CYXE;2010-12-13 08:00;CYXE 130800Z 15014G19KT 10SM -SN DRSN OVC016 M14/M17 A2990 RMK SC8 SLP174

CYXE;2010-12-13 09:00;CYXE 130900Z 15013KT 15SM -SN DRSN BKN021 OVC050 M14/M17 A2988 RMK SC6SC2 SLP166

CYXE;2010-12-13 10:00;CYXE 131000Z 16008KT 15SM -SN OVC016 M14/M18 A2989 RMK SC8 SLP170

CYXE;2010-12-13 10:42;CYXE 131042Z 15008KT 15SM -SN OVC012 M14/ RMK SC8

CYXE;2010-12-13 11:00;CYXE 131100Z 15006KT 6SM -SN OVC012 M14/M17 A2988 RMK SC8 SLP165

CYXE;2010-12-13 12:00;CYXE 131200Z 14010KT 6SM -SN OVC012 M14/M16 A2985 RMK SC8 SLP156

CYXE;2010-12-13 13:00;CYXE 131300Z 14008KT 3SM -SN OVC012 M14/M16 A2985 RMK SC8 SLP156

CYXE;2010-12-13 14:00;CYXE 131400Z 16007KT 4SM -SN OVC009 M13/M15 A2984 RMK ST8 SLP152

CYXE;2010-12-13 14:28;CYXE 131428Z 16006KT 2 1/2SM -SN OVC009 M13/ RMK ST8

CYXE;2010-12-13 15:00;CYXE 131500Z 16006KT 2SM -SN OVC008 M13/M14 A2983 RMK ST8 SLP148

CYXE;2010-12-13 15:47;CYXE 131547Z 16006KT 1 1/2SM -SN OVC005 M13/ RMK ST8

CYXE;2010-12-13 16:00;CYXE 131600Z 16006KT 1 1/2SM -SN VV004 M13/M13 A2985 RMK SN8 SLP153

CYXE;2010-12-13 16:19;CYXE 131619Z 15007KT 2SM -SN OVC006 M12/ RMK ST8

CYXE;2010-12-13 17:00;CYXE 131700Z 14005KT 3SM -SN OVC006 M12/M13 A2984 RMK ST8 SLP149

CYXE;2010-12-13 18:00;CYXE 131800Z 15004KT 2 1/2SM -SN OVC006 M11/M12 A2983 RMK ST8 SLP144

CYXE;2010-12-13 19:00;CYXE 131900Z 16006KT 4SM -SN BKN007 OVC025 M11/M12 A2983 RMK SF6SC2 SLP143

CYXE;2010-12-13 20:00;CYXE 132000Z 17003KT 6SM -SN OVC009 M10/M11 A2982 RMK SC8 SLP141

CYXE;2010-12-13 20:46;CYXE 132046Z 16005KT 6SM -SN OVC010 M10/ RMK SC8

CYXE;2010-12-13 21:00;CYXE 132100Z 18005KT 12SM -SN OVC010 M10/M11 A2981 RMK SC7 SLP137

CYXE;2010-12-13 21:34;CYXE 132134Z 00000KT 15SM BKN010 OVC015 M10/ RMK SC6SC2

CYXE;2010-12-13 22:00;CYXE 132200Z 00000KT 15SM BKN010 OVC015 M09/M11 A2984 RMK SC6SC2 SLP145

CYXE;2010-12-13 23:00;CYXE 132300Z 19004KT 15SM BKN013 OVC060 M09/M11 A2983 RMK SC5SC3 SLP144

CYXE;2010-12-14 00:00;CYXE 140000Z 18002KT 15SM BKN013 BKN070 M09/M11 A2983 RMK SC6AC2 SLP144

CYXE;2010-12-14 00:42;CYXE 140042Z 16005KT 15SM SCT009 BKN013 BKN070 M10/ RMK SC3SC3AC1

CYXE;2010-12-14 01:00;CYXE 140100Z 00000KT 15SM FEW009 BKN012 M10/M11 A2984 RMK SC2SC6 SLP146

CYXE;2010-12-14 02:00;CYXE 140200Z 16002KT 15SM BKN012 BKN090 M10/M11 A2983 RMK SC5AC1 OBS TAKEN +04 SLP144

CYXE;2010-12-14 03:00;CYXE 140300Z 19005KT 15SM SCT008 BKN012 M09/M11 A2982 RMK SC3SC2 SLP138

CYXE;2010-12-14 03:48;CYXE 140348Z 18008KT 15SM BKN006 BKN090 M10/ RMK SF5AC0

CYXE;2010-12-14 04:00;CYXE 140400Z 19008KT 8SM BKN006 BKN090 M10/M11 A2980 RMK SF5AC0 BR SLP132

CYXE;2010-12-14 04:20;CYXE 140420Z 21008KT 4SM BR OVC004 M10/ RMK SF6

CYXE;2010-12-14 04:28;CYXE 140428Z 21005KT 4SM -SG BR OVC004 M10/ RMK ST8

CYXE;2010-12-14 05:00;CYXE 140500Z 18003KT 2SM -SG BR OVC003 M10/M10 A2983 RMK ST8 SLP141

CYXE;2010-12-14 05:47;CYXE 140547Z 18006KT 3/4SM R09/P6000FT/N -SG BR OVC003 M10/ RMK ST8

CYXE;2010-12-14 05:50;CYXE 140550Z CCA 18006KT 3/4SM R09/P6000FT/N -SG BR OVC003 M10/ RMK ST8 VIS VRB 1/2-1

CYXE;2010-12-14 06:00;CYXE 140600Z 19005KT 1SM R09/P6000FT/N -SG BR OVC002 M10/M10 A2982 RMK ST8 VIS VRB 1/2-11/2 SLP138

CYXE;2010-12-14 06:31;CYXE 140631Z 18008KT 3/4SM R09/P6000FT/D BR OVC001 M10/ RMK ST8

CYXE;2010-12-14 07:00;CYXE 140700Z 20007KT 3/4SM R09/P6000FT/D BR VV001 M10/M10 A2980 RMK FG8 SLP132

CYXE;2010-12-14 08:00;CYXE 140800Z 18006KT 3SM BR OVC002 M09/M10 A2978 RMK ST8 SLP125

CYXE;2010-12-14 08:24;CYXE 140824Z 18006KT 3/4SM R09/P6000FT/D BR VV001 M09/ RMK FG8

CYXE;2010-12-14 08:37;CYXE 140837Z 18007KT 0SM R09/2600VP6000FT/D FZFG VV000 M09/ RMK FG8

CYXE;2010-12-14 09:00;CYXE 140900Z 18006KT 0SM R09/2200FT/N FZFG VV000 M09/M10 A2977 RMK FG8 SLP118

CYXE;2010-12-14 09:38;CYXE 140938Z 18006KT 1/4SM R09/P6000FT/N FZFG VV001 M09/ RMK FG8

CYXE;2010-12-14 10:00;CYXE 141000Z 18006KT 1/2SM R09/P6000FT/D FZFG VV001 M09/M10 A2975 RMK FG8 SLP114

CYXE;2010-12-14 10:18;CYXE 141018Z 18007KT 1 1/2SM BR VV002 M10/ RMK FG8

CYXE;2010-12-14 10:30;CYXE 141030Z 18007KT 2 1/2SM BR OVC002 M10/ RMK ST8

CYXE;2010-12-14 11:00;CYXE 141100Z 19005KT 2SM BR OVC002 M10/M10 A2973 RMK ST8 VIS VRB 1-3 SLP106

CYXE;2010-12-14 12:00;CYXE 141200Z 15007KT 3SM BR OVC002 M10/M11 A2970 RMK ST8 SLP096

CYXE;2010-12-14 12:19;CYXE 141219Z 15007KT 1SM R09/P6000FT/N BR VV002 M10/ RMK FG8

CYXE;2010-12-14 13:00;CYXE 141300Z 15008KT 5SM BR OVC003 M10/M11 A2967 RMK ST8 SLP085

CYXE;2010-12-14 13:15;CYXE 141315Z 14007KT 1SM R09/P6000FT/D BR OVC003 M10/ RMK ST8

CYXE;2010-12-14 13:33;CYXE 141333Z 14006KT 1/2SM R09/3000V4500FT/N FZFG VV001 M10/ RMK FG8

CYXE;2010-12-14 14:00;CYXE 141400Z 15007KT 1/2SM R09/P6000FT/U FZFG VV001 M09/M10 A2963 RMK FG8 SLP073

CYXE;2010-12-14 15:00;CYXE 141500Z 16008KT 1/2SM R09/5000FT/U FZFG VV001 M09/M09 A2961 RMK FG8 SLP065

CYXE;2010-12-14 15:17;CYXE 141517Z 14009KT 1SM R09/P6000FT/U BR VV002 M09/ RMK FG8

CYXE;2010-12-14 15:31;CYXE 141531Z 14007KT 2 1/2SM BR OVC004 M09/ RMK ST8

CYXE;2010-12-14 16:00;CYXE 141600Z 15007KT 5SM BR OVC007 M09/M09 A2959 RMK ST8 SLP057

CYXE;2010-12-14 17:00;CYXE 141700Z 13009KT 4SM BR OVC008 M08/M08 A2956 RMK ST8 SLP046

CYXE;2010-12-14 17:37;CYXE 141737Z 15008KT 4SM -SN BR OVC008 M08/ RMK ST8

CYXE;2010-12-14 18:00;CYXE 141800Z 15009KT 6SM -SN BR OVC009 M08/M08 A2953 RMK ST8 SLP036

CYXE;2010-12-14 19:00;CYXE 141900Z 14013KT 6SM -SN BR OVC009 M07/M08 A2949 RMK SF8 SLP023

CYXE;2010-12-14 20:00;CYXE 142000Z 13013KT 8SM -SN OVC009 M07/M08 A2945 RMK ST8 BR SLP011

CYXE;2010-12-14 21:00;CYXE 142100Z 13012G17KT 12SM -SN OVC010 M07/M08 A2942 RMK ST7 BR SLP997

CYXE;2010-12-14 21:14;CYXE 142114Z 13015KT 15SM -SN SCT010 OVC089 M07/ RMK SF3AC5

CYXE;2010-12-14 22:00;CYXE 142200Z 14019KT 10SM -SN DRSN FEW010 BKN090 OVC120 M07/M08 A2939 RMK SF2AC5AC2 SLP989

CYXE;2010-12-14 23:00;CYXE 142300Z 14021G26KT 6SM -SN DRSN -FZRA FEW008 OVC070 M06/M08 A2938 RMK SF2AC6 SLP983

CYXE;2010-12-15 00:00;CYXE 150000Z 14018G24KT 6SM -FZRA FEW008 OVC032 M05/M06 A2935 RMK SF2SC6 SLP973

CYXE;2010-12-15 00:27;CYXE 150027Z 14019G25KT 4SM FZRA SCT009 OVC023 M05/ RMK SF4SC4

CYXE;2010-12-15 00:36;CYXE 150036Z 14017G24KT 3SM -PL FZRA BKN008 OVC023 M05/ RMK SF6SC2

CYXE;2010-12-15 00:48;CYXE 150048Z 14020KT 2SM -PL -FZRA BR BKN008 OVC019 M05/ REFZRA RMK SF6SC2

CYXE;2010-12-15 01:00;CYXE 150100Z 13019G24KT 2SM -PL -FZRA BR BKN008 OVC019 M05/M06 A2932 REFZRA RMK SF6SC2 SLP964

CYXE;2010-12-15 02:00;CYXE 150200Z 14010G18KT 1SM R09/P6000FT/N -SN DRSN VV007 M05/M06 A2930 REFZRA RMK SN8 OBS TAKEN +07 SLP957

CYXE;2010-12-15 02:42;CYXE 150242Z 15015KT 3/4SM R09/P6000FT/N -SN DRSN VV003 M04/ RMK SN8

CYXE;2010-12-15 03:20;CYXE 150320Z 14012G17KT 3/8SM R09/4000VP6000FT/U SN DRSN VV001 M04/ RMK SN8

CYXE;2010-12-15 03:34;CYXE 150334Z 14013KT 1 1/2SM -SN DRSN VV002 M04/ RESN RMK SN8

CYXE;2010-12-15 03:49;CYXE 150349Z 14012KT 2SM -SN DRSN OVC008 M04/ RESN RMK SN3SF5

CYXE;2010-12-15 04:00;CYXE 150400Z 14013KT 3SM -SN DRSN OVC008 M04/M04 A2924 RESN RMK SF8 SLP933

CYXE;2010-12-15 04:15;CYXE 150415Z 14010G17KT 10SM -SN DRSN BKN008 OVC019 M04/ RMK SF6SC2

CYXE;2010-12-15 04:49;CYXE 150449Z 15011KT 15SM -SN OVC010 M03/ RMK SF8

CYXE;2010-12-15 05:00;CYXE 150500Z 15011KT 12SM -SN OVC010 M03/M04 A2923 RMK SF8 OBS TAKEN +06 SLP931

CYXE;2010-12-15 05:21;CYXE 150521Z 15012KT 12SM -SN SCT010 OVC040 M03/ RMK SF4SC4

CYXE;2010-12-15 06:00;CYXE 150600Z 16012KT 12SM -SN FEW010 BKN039 OVC051 M03/M04 A2924 RMK SF2SC4SC2 SLP933

CYXE;2010-12-15 06:15;CYXE 150615Z 14011KT 12SM BKN041 OVC050 M03/ RMK SC6SC2 BR

CYXE;2010-12-15 07:00;CYXE 150700Z 15011KT 12SM BKN050 OVC100 M03/M04 A2924 RMK SC5AC3 BR SLP932

CYXE;2010-12-15 08:00;CYXE 150800Z 17011KT 8SM FEW012 SCT050 OVC086 M03/M04 A2925 RMK SF2SC2AC4 BR SLP935

CYXE;2010-12-15 09:00;CYXE 150900Z 22012KT 12SM OVC100 M02/M03 A2929 RMK AC8 SLP946

CYXE;2010-12-15 10:00;CYXE 151000Z 23013KT 15SM SCT100 M02/M04 A2933 RMK AC3 SLP961

CYXE;2010-12-15 11:00;CYXE 151100Z 23012KT 15SM FEW100 M04/M05 A2935 RMK AC2 SLP968

CYXE;2010-12-15 12:00;CYXE 151200Z 23011KT 15SM FEW100 M05/M06 A2938 RMK AC2 SLP979

CYXE;2010-12-15 13:00;CYXE 151300Z 22008KT 15SM FEW100 M05/M07 A2940 RMK AC2 SLP985

CYXE;2010-12-15 14:00;CYXE 151400Z 21009KT 15SM FEW100 M05/M06 A2943 RMK AC2 SLP994

CYXE;2010-12-15 15:00;CYXE 151500Z 18008KT 15SM FEW100 M06/M07 A2946 RMK AC1 SLP008

CYXE;2010-12-15 16:00;CYXE 151600Z 19008KT 15SM FEW090 M06/M07 A2949 RMK AC2 SLP016

CYXE;2010-12-15 17:00;CYXE 151700Z 19007KT 15SM FEW090 SCT250 M05/M07 A2952 RMK AC2CI1 SLP025

CYXE;2010-12-15 18:00;CYXE 151800Z 19006KT 15SM FEW090 BKN230 M05/M07 A2955 RMK AC2CI2 SLP035

CYXE;2010-12-15 19:00;CYXE 151900Z 17008KT 15SM BKN090 BKN230 M04/M06 A2957 RMK AC3CI2 FEW ACC SLP043

CYXE;2010-12-15 20:00;CYXE 152000Z 18005KT 15SM FEW060 BKN085 OVC230 M03/M06 A2961 RMK SC2AC2CI2 SLP055

CYXE;2010-12-15 21:00;CYXE 152100Z 14003KT 15SM BKN052 BKN100 BKN230 M02/M05 A2963 RMK SC5AC1CI1 SLP061

CYXE;2010-12-15 22:00;CYXE 152200Z 00000KT 15SM SCT058 SCT120 BKN230 M03/M06 A2968 RMK SC3AC1CI1 SLP076

CYXE;2010-12-15 23:00;CYXE 152300Z 14004KT 15SM FEW058 SCT120 BKN230 M04/M06 A2971 RMK SC2AC2CI1 OBS TAKEN +05 SLP087

CYXE;2010-12-16 00:00;CYXE 160000Z 11004KT 15SM FEW120 SCT230 M09/M09 A2975 RMK AC1CI2 SLP109

CYXE;2010-12-16 01:00;CYXE 160100Z 13003KT 15SM FEW230 M07/M08 A2977 RMK CI1 SLP117

CYXE;2010-12-16 02:00;CYXE 160200Z 00000KT 15SM SKC M09/M10 A2982 RMK SLP132

CYXE;2010-12-16 03:00;CYXE 160300Z 00000KT 6SM BR SKC M11/M11 A2984 RMK SLP143

CYXE;2010-12-16 04:00;CYXE 160400Z 10006KT 4SM BR FEW025 M10/M12 A2987 RMK SC1 SLP154

CYXE;2010-12-16 04:22;CYXE 160422Z 12005KT 4SM BR BKN010 M10/ RMK SF7

CYXE;2010-12-16 04:38;CYXE 160438Z 07004KT 4SM BR BKN009 M13/ RMK SF7

CYXE;2010-12-16 05:00;CYXE 160500Z 01003KT 4SM BR SCT003 M14/M14 A2991 RMK SF3 VIS W-NNE 11/2 SLP166

CYXE;2010-12-16 06:00;CYXE 160600Z 07009KT 4SM BR BKN002 OVC012 M14/M15 A2994 RMK ST5ST0 VIS NW-N 3/4 SLP179

CYXE;2010-12-16 06:08;CYXE 160608Z 07006KT 1/2SM R09/P6000FT/D FZFG VV002 M13/ RMK FG8

CYXE;2010-12-16 07:00;CYXE 160700Z 07003KT 3/4SM R09/3000VP6000FT/U BR BKN007 OVC013 M10/M11 A2999 RMK ST5SC3 SLP193

CYXE;2010-12-16 07:27;CYXE 160727Z CCA 34004KT 1SM R09/P6000FT/U BR OVC002 M11/ RMK ST8 VIS NW-N 3/4

CYXE;2010-12-16 08:00;CYXE 160800Z 07005KT 1SM R09/P6000FT/U BR BKN002 OVC016 M10/M10 A3001 RMK ST6SC2 SLP199

CYXE;2010-12-16 08:24;CYXE 160824Z 06004KT 4SM -SN BR SCT002 OVC013 M09/ RMK ST3SC5 VIS NW 2

CYXE;2010-12-16 09:00;CYXE 160900Z 06007KT 3SM -SN BR OVC004 M08/M09 A3003 RMK ST8 VIS NW 2 SLP203

CYXE;2010-12-16 09:24;CYXE 160924Z 36005KT 1SM R09/P6000FT/N -SN BR OVC002 M08/ RMK ST8 VIS NW 3/4

CYXE;2010-12-16 09:32;CYXE 160932Z 36005KT 3/4SM R09/P6000FT/N BR OVC002 M08/ RMK ST8 VIS NW 1/2

CYXE;2010-12-16 10:00;CYXE 161000Z 36004KT 1SM R09/P6000FT/D BR OVC002 M08/M09 A3005 RMK ST8 SLP210

CYXE;2010-12-16 10:46;CYXE 161046Z 05006KT 1 1/2SM -SN BR OVC002 M07/ RMK ST8

CYXE;2010-12-16 11:00;CYXE 161100Z 05007KT 1SM R09/P6000FT/D -SN BR OVC002 M07/M08 A3007 RMK ST8 SLP216

CYXE;2010-12-16 11:24;CYXE 161124Z 04007KT 3/4SM R09/P6000FT/U -SN BR OVC002 M07/ RMK ST8

CYXE;2010-12-16 12:00;CYXE 161200Z 03007KT 3/4SM R09/P6000FT/N -SN BR OVC002 M07/M07 A3009 RMK ST8 SLP228

CYXE;2010-12-16 12:07;CYXE 161207Z 03007KT 1 1/2SM -SN BR OVC002 M07/ RMK ST8

CYXE;2010-12-16 12:49;CYXE 161249Z 04009KT 3SM BR OVC004 M07/ RMK ST8

CYXE;2010-12-16 13:00;CYXE 161300Z 03008KT 4SM BR OVC004 M07/M08 A3011 RMK ST8 SLP235

CYXE;2010-12-16 14:00;CYXE 161400Z 04010KT 6SM BR OVC004 M08/M09 A3014 RMK ST8 SLP245

CYXE;2010-12-16 15:00;CYXE 161500Z 05011KT 3SM BR OVC004 M09/M10 A3018 RMK ST8 SLP260

CYXE;2010-12-16 15:16;CYXE 161516Z 05011KT 3SM -FZDZ BR OVC005 M09/ RMK ST8

CYXE;2010-12-16 16:00;CYXE 161600Z 05011KT 3SM -FZDZ BR OVC004 M09/M10 A3020 RMK ST8 SLP268

CYXE;2010-12-16 16:49;CYXE 161649Z 03009KT 4SM -SN BR OVC006 RMK ST8

CYXE;2010-12-16 17:00;CYXE 161700Z 04009KT 3SM -SN BR OVC006 M10/M10 A3023 REFZDZ RMK ST8 SLP277

CYXE;2010-12-16 18:00;CYXE 161800Z 03010KT 6SM -SN BR OVC008 M10/M10 A3024 RMK ST8 SLP283

CYXE;2010-12-16 18:22;CYXE 161822Z 03009KT 8SM -SN SCT009 OVC022 M10/ RMK ST4SC4 BR

CYXE;2010-12-16 19:00;CYXE 161900Z 01009KT 10SM -SN FEW010 OVC022 M10/M11 A3024 RMK ST2SC6 BR SLP284

CYXE;2010-12-16 20:29;CYXE 162029Z 03011KT 15SM SCT011 BKN032 OVC240 M10/ RMK ST3SC2CI1

CYXE;2010-12-16 21:00;CYXE 162100Z 03008KT 15SM FEW013 BKN032 OVC240 M10/M11 A3027 RMK SF2SC4CI2 SLP289

CYXE;2010-12-16 21:36;CYXE 162136Z 04009KT 6SM -SN FEW012 OVC027 M10/ RMK SF2SC6

CYXE;2010-12-16 22:00;CYXE 162200Z 05007KT 5SM -SN FEW012 OVC027 M10/M11 A3028 RMK SF2SC6 SLP294

CYXE;2010-12-16 23:00;CYXE 162300Z 03010KT 10SM -SN BKN016 OVC069 M10/M11 A3029 RMK SC5AC3 SLP298

CYXE;2010-12-17 00:00;CYXE 170000Z 03005KT 15SM -SN BKN023 BKN240 M12/M13 A3030 RMK SC5CI1 SLP300

CYXE;2010-12-17 00:12;CYXE 170012Z 36005KT 15SM -SN BKN013 OVC023 M12/ RMK SC6SC2

CYXE;2010-12-17 00:31;CYXE 170031Z 35006KT 15SM -SN SCT004 OVC010 M12/ RMK SF3ST5

CYXE;2010-12-17 01:00;CYXE 170100Z 35007KT 15SM -SN FEW004 OVC012 M11/M12 A3031 RMK SF2ST6 SLP305

CYXE;2010-12-17 01:46;CYXE 170146Z 36009KT 15SM -SN OVC008 M10/ RMK SF8

CYXE;2010-12-17 02:00;CYXE 170200Z 35009KT 15SM -SN OVC008 M10/M12 A3031 RMK SF8 SLP304

CYXE;2010-12-17 03:00;CYXE 170300Z 36012KT 6SM -SN DRSN OVC007 M10/M11 A3031 RMK SF8 SLP305

CYXE;2010-12-17 03:52;CYXE 170352Z 35012KT 4SM -SN DRSN OVC004 M12/ RMK SF8

CYXE;2010-12-17 04:18;CYXE 170418Z 35009KT 4SM -SN OVC006 M12/ RMK SF8

CYXE;2010-12-17 05:00;CYXE 170500Z 34011KT 6SM -SN OVC005 M13/M14 A3032 RMK SF8 SLP310

CYXE;2010-12-17 05:07;CYXE 170507Z 33009KT 10SM -SN SCT005 M14/ RMK SF4

CYXE;2010-12-17 05:47;CYXE 170547Z 34007KT 12SM FEW005 M16/ RMK SF2 BR

CYXE;2010-12-17 06:00;CYXE 170600Z 34007KT 12SM FEW005 M17/M18 A3032 RMK SF2 BR SLP315

CYXE;2010-12-17 07:00;CYXE 170700Z 30007KT 12SM FEW005 M20/M21 A3032 RMK ST2 BR SLP315

CYXE;2010-12-17 08:00;CYXE 170800Z 31008KT 12SM FEW005 FEW100 M20/M21 A3032 RMK SF1AC1 SLP312

CYXE;2010-12-17 09:00;CYXE 170900Z 30006KT 15SM SCT100 M19/M20 A3031 RMK AC3 SLP313

CYXE;2010-12-17 10:00;CYXE 171000Z 30007KT 15SM BKN100 M17/M18 A3031 RMK AC6 SLP312

CYXE;2010-12-17 11:00;CYXE 171100Z 29009KT 15SM BKN100 M18/M19 A3030 RMK AC5 SLP308

CYXE;2010-12-17 13:00;CYXE 171300Z 30006KT 15SM BKN030 M17/M18 A3029 RMK SC6 SLP304

CYXE;2010-12-17 14:00;CYXE 171400Z 31007KT 15SM BKN030 M16/M17 A3028 RMK SC6 SLP301

CYXE;2010-12-17 15:00;CYXE 171500Z 30008KT 15SM FEW038 SCT120 BKN240 M16/M17 A3026 RMK SC2AC2CI2 SLP294

CYXE;2010-12-17 16:00;CYXE 171600Z 31010KT 15SM FEW040 SCT120 OVC240 M16/M17 A3026 RMK SC2AC2CI3 SLP294

CYXE;2010-12-17 17:00;CYXE 171700Z 31007KT 15SM FEW040 FEW120 OVC240 M15/M16 A3026 RMK SC1AC2CI2 SLP292

CYXE;2010-12-17 18:00;CYXE 171800Z 31009KT 15SM SCT120 OVC240 M14/M15 A3024 RMK AC2CI2 SLP289

CYXE;2010-12-17 19:00;CYXE 171900Z 32008KT 15SM FEW067 SCT120 OVC240 M13/M15 A3022 RMK AC2AC2CI2 SLP283

CYXE;2010-12-17 20:00;CYXE 172000Z 33011KT 15SM FEW070 SCT120 OVC240 M12/M14 A3021 RMK AC1AC2CI2 SLP280

CYXE;2010-12-17 21:00;CYXE 172100Z 33011KT 15SM FEW070 SCT120 OVC240 M12/M15 A3021 RMK AC2AC2CI3 SLP278

CYXE;2010-12-17 22:00;CYXE 172200Z 32010KT 15SM FEW080 SCT120 OVC240 M13/M16 A3019 RMK AC2AC2CI1 SLP273

CYXE;2010-12-17 23:00;CYXE 172300Z 32006KT 15SM FEW020 SCT110 OVC240 M14/M16 A3018 RMK SC2AC2CI0 CONTRAILS SLP270

CYXE;2010-12-18 00:00;CYXE 180000Z 34008KT 15SM BKN016 BKN240 M13/M15 A3018 RMK SC6CI0 SLP268

CYXE;2010-12-18 01:00;CYXE 180100Z 32006KT 15SM -SN BKN014 OVC028 M13/M16 A3017 RMK SC6SC2 SLP265

CYXE;2010-12-18 02:00;CYXE 180200Z 32008KT 15SM -SN OVC015 M13/M15 A3016 RMK SC8 SLP261

CYXE;2010-12-18 03:00;CYXE 180300Z 34007KT 15SM -SN OVC013 M13/M16 A3016 RMK SC8 SLP259

CYXE;2010-12-18 04:00;CYXE 180400Z 33007KT 15SM -SN OVC013 M13/M15 A3015 RMK SC8 SLP258

CYXE;2010-12-18 05:00;CYXE 180500Z 31007KT 15SM -SN OVC013 M13/M15 A3014 RMK SC8 SLP254

CYXE;2010-12-18 06:00;CYXE 180600Z 32012KT 15SM -SN OVC015 M13/M16 A3013 RMK SC8 SLP249

CYXE;2010-12-18 07:00;CYXE 180700Z 32011KT 15SM -SN OVC013 M14/M16 A3012 RMK SC8 SLP245

CYXE;2010-12-18 08:00;CYXE 180800Z 31010KT 15SM -SN BKN011 OVC040 M14/M17 A3011 RMK SC6SC2 SLP241

CYXE;2010-12-18 09:00;CYXE 180900Z 32012KT 15SM -SN OVC011 M15/M17 A3010 RMK SC8 SLP237

CYXE;2010-12-18 11:00;CYXE 181100Z 32009KT 15SM -SN OVC015 M15/M17 A3008 RMK SC8 SLP230

CYXE;2010-12-18 12:00;CYXE 181200Z 32009KT 15SM -SN OVC013 M15/M17 A3006 RMK SC8 SLP226

CYXE;2010-12-18 13:00;CYXE 181300Z 32010KT 15SM -SN OVC013 M15/M17 A3004 RMK SC8 SLP219

CYXE;2010-12-18 14:00;CYXE 181400Z 31009KT 15SM -SN OVC013 M15/M17 A3003 RMK SC8 SLP216

CYXE;2010-12-18 15:00;CYXE 181500Z 31008KT 15SM -SN OVC010 M16/M17 A3002 RMK SC8 SLP213

CYXE;2010-12-18 15:41;CYXE 181541Z 31009KT 15SM -SN OVC009 M15/ RMK SC8

CYXE;2010-12-18 16:00;CYXE 181600Z 32011KT 15SM -SN OVC009 M15/M17 A3001 RMK SC8 SLP210

CYXE;2010-12-18 17:00;CYXE 181700Z 31010KT 6SM -SN OVC009 M16/M17 A3001 RMK SC8 SLP210

CYXE;2010-12-18 18:00;CYXE 181800Z 31009KT 15SM -SN OVC009 M16/M18 A3000 RMK SC8 SLP204

CYXE;2010-12-18 18:36;CYXE 181836Z 31010KT 2SM -SN OVC006 M16/ RMK SC8

CYXE;2010-12-18 19:00;CYXE 181900Z 30009KT 6SM -SN SCT009 OVC014 M15/M16 A2999 RMK SF3SC5 SLP201

CYXE;2010-12-18 19:36;CYXE 181936Z 30010KT 2SM -SN OVC009 M15/ RMK SC8

CYXE;2010-12-18 19:42;CYXE 181942Z 29010KT 1SM R09/P6000FT/D -SN VV004 M15/ RMK SN8

CYXE;2010-12-18 20:00;CYXE 182000Z 31011KT 3/4SM R09/P6000FT/D -SN VV003 M15/M16 A2996 RMK SN8 SLP194

CYXE;2010-12-18 20:17;CYXE 182017Z 31011KT 1 1/2SM -SN OVC003 M15/ RMK SF8

CYXE;2010-12-18 21:00;CYXE 182100Z 29012KT 4SM -SN OVC006 M15/M16 A2994 RMK SN3SC5 SLP186

CYXE;2010-12-18 21:34;CYXE 182134Z 30011KT 10SM -SN DRSN OVC009 M15/ RMK SF8

CYXE;2010-12-18 22:00;CYXE 182200Z 29011KT 10SM -SN DRSN OVC009 M15/M17 A2994 RMK SF6 SLP184

CYXE;2010-12-18 23:00;CYXE 182300Z 31011KT 15SM -SN DRSN OVC010 M15/M17 A2991 RMK ST8 SLP174

CYXE;2010-12-18 23:50;CYXE 182350Z 32013KT 15SM -SN DRSN OVC017 M15/ RMK SC8

CYXE;2010-12-19 00:00;CYXE 190000Z 32012KT 15SM -SN DRSN OVC017 M15/M17 A2988 RMK SC8 SLP164

CYXE;2010-12-19 01:00;CYXE 190100Z 32011KT 15SM -SN BKN012 OVC027 M15/M16 A2986 RMK SC6SC2 SLP159

CYXE;2010-12-19 02:00;CYXE 190200Z 30011KT 12SM -SN OVC010 M15/M16 A2987 RMK SC8 SLP163

CYXE;2010-12-19 03:00;CYXE 190300Z 28010KT 15SM -SN BKN010 OVC023 M14/M16 A2986 RMK SC5SC3 SLP157

CYXE;2010-12-19 03:45;CYXE 190345Z 28010KT 2 1/2SM -SN DRSN OVC009 M14/ RMK SN2SC6

CYXE;2010-12-19 04:00;CYXE 190400Z 29009KT 2SM -SN DRSN OVC009 M14/M16 A2986 RMK SN2SC6 SLP156

CYXE;2010-12-19 05:00;CYXE 190500Z 29011KT 2SM -SN DRSN OVC007 M14/M15 A2984 RMK SN2SC6 /S01/ SLP150

CYXE;2010-12-19 05:14;CYXE 190514Z 30009KT 6SM -SN DRSN SCT007 OVC012 M14/ RMK SF3SC5

CYXE;2010-12-19 05:42;CYXE 190542Z 32013KT 10SM -SN OVC017 M13/ RMK SC8

CYXE;2010-12-19 06:00;CYXE 190600Z 32012KT 10SM -SN OVC017 M13/M15 A2982 RMK SC8 SLP142

CYXE;2010-12-19 07:00;CYXE 190700Z 33017KT 15SM -SN OVC019 M13/M15 A2978 RMK SC8 SLP130

CYXE;2010-12-19 07:27;CYXE 190727Z 32014KT 15SM -SN OVC014 M13/ RMK SC8

CYXE;2010-12-19 08:00;CYXE 190800Z 32011G16KT 15SM -SN OVC019 M13/M14 A2976 RMK SC8 SLP123

CYXE;2010-12-19 08:44;CYXE 190844Z 30012KT 15SM -SN OVC013 M13/ RMK SC8

CYXE;2010-12-19 09:00;CYXE 190900Z 29012KT 15SM -SN OVC013 M12/M14 A2974 RMK SC8 SLP113

CYXE;2010-12-19 10:00;CYXE 191000Z 29015KT 15SM -SN OVC017 M12/M14 A2973 RMK SC8 SLP110

CYXE;2010-12-19 11:00;CYXE 191100Z 29012KT 15SM -SN FEW011 BKN018 OVC045 M12/M14 A2972 RMK SF2SC4SC2 SLP107

CYXE;2010-12-19 12:00;CYXE 191200Z 31011KT 15SM -SN SCT013 OVC041 M12/M14 A2970 RMK SF4SC4 SLP101

CYXE;2010-12-19 13:00;CYXE 191300Z 29013KT 10SM -SN FEW011 BKN029 OVC093 M12/M14 A2969 RMK SF2SC5AC2 SLP097

CYXE;2010-12-19 14:00;CYXE 191400Z 29015KT 4SM -SN DRSN FEW011 OVC023 M12/M14 A2968 RMK SC2SC6 SLP094

CYXE;2010-12-19 15:00;CYXE 191500Z 30012KT 6SM -SN DRSN OVC022 M12/M14 A2969 RMK SC8 SLP097

CYXE;2010-12-19 17:00;CYXE 191700Z 30011KT 3SM -SN DRSN OVC020 M12/M14 A2969 RMK SN2SC6 VIS VRB 2-4 SLP097

CYXE;2010-12-19 17:34;CYXE 191734Z 30012KT 3SM -SN DRSN BKN012 OVC020 M12/ RMK SC5SC3

CYXE;2010-12-19 18:00;CYXE 191800Z 30012KT 3SM -SN DRSN OVC012 M12/M14 A2968 RMK SN2SC6 VIS VRB 2-4 SLP094

CYXE;2010-12-19 19:00;CYXE 191900Z 29011KT 5SM -SN DRSN BKN012 OVC020 M12/M14 A2968 RMK SC6SC2 SLP092

CYXE;2010-12-19 20:00;CYXE 192000Z 29011KT 5SM -SN BKN014 OVC020 M12/M14 A2967 RMK SC6SC2 SLP091

CYXE;2010-12-19 21:00;CYXE 192100Z 29009KT 6SM -SN OVC017 M12/M14 A2967 RMK SC8 SLP090

CYXE;2010-12-19 22:00;CYXE 192200Z 29008KT 15SM -SN OVC019 M12/M14 A2968 RMK SC8 SLP091

CYXE;2010-12-19 23:00;CYXE 192300Z 29007KT 15SM -SN BKN019 OVC090 M12/M14 A2969 RMK SC6AC2 SLP094

CYXE;2010-12-20 02:00;CYXE 200200Z 25003KT 15SM -SN SCT020 OVC030 M13/M14 A2969 RMK SC3SC5 SLP096

CYXE;2010-12-20 03:00;CYXE 200300Z 26002KT 15SM -SN FEW020 OVC030 M13/M14 A2969 RMK SC2SC6 SLP094

CYXE;2010-12-20 04:00;CYXE 200400Z 28004KT 15SM -SN FEW020 OVC086 M13/M15 A2969 RMK SC2AC6 SLP096

CYXE;2010-12-20 05:00;CYXE 200500Z 32003KT 15SM -SN OVC088 M13/M15 A2970 RMK AC8 SLP099

CYXE;2010-12-20 06:00;CYXE 200600Z 00000KT 15SM -SN OVC084 M13/M15 A2971 RMK AC8 SLP104

CYXE;2010-12-20 07:00;CYXE 200700Z 19002KT 15SM -SN BKN088 M15/M16 A2972 RMK AC6 SLP105

CYXE;2010-12-20 08:00;CYXE 200800Z 19004KT 15SM -SN BKN085 M16/M17 A2973 RMK AC5 SLP109

CYXE;2010-12-20 08:10;CYXE 200810Z 21006KT 15SM SCT085 M17/ RMK AC3

CYXE;2010-12-20 09:00;CYXE 200900Z 20002KT 15SM SCT085 M17/M18 A2974 RMK AC3 SLP117

CYXE;2010-12-20 10:00;CYXE 201000Z 22004KT 15SM FEW085 M19/M24 A2975 RMK AC2 SLP120

CYXE;2010-12-20 11:00;CYXE 201100Z 23002KT 15SM FEW085 FEW200 M21/M24 A2976 RMK AC1CI1 SLP121

CYXE;2010-12-20 11:43;CYXE 201143Z 18002KT 15SM FEW003 SCT200 M21/ RMK ST1CI1

CYXE;2010-12-20 12:00;CYXE 201200Z 18002KT 15SM FEW003 SCT200 M21/M25 A2976 RMK ST1CI1 ST OVR CITY SLP127

CYXE;2010-12-20 13:00;CYXE 201300Z 00000KT 15SM FEW003 SCT200 M21/M24 A2978 RMK ST1CI1 ST OVR CITY SLP132

CYXE;2010-12-20 14:00;CYXE 201400Z 17003KT 8SM FEW001 SCT120 BKN220 M21/M24 A2980 RMK SF1AC2CI1 BR SLP139

CYXE;2010-12-20 15:00;CYXE 201500Z 00000KT 15SM FEW120 SCT220 M21/M25 A2982 RMK AC2CI0 SLP145

CYXE;2010-12-20 15:18;CYXE 201518Z 21003KT 1/2SM R09/P6000FT/D FZFG OVC120 M22/ RMK FG2AC6 VIS N-E 2

CYXE;2010-12-20 15:26;CYXE 201526Z 21002KT 3SM BR FEW004 BKN120 OVC270 M21/ RMK FG1SF2AC4CI1 VIS NW-N 3/4

CYXE;2010-12-20 15:44;CYXE 201544Z 22002KT 1 1/2SM -SN BR FEW002 BKN120 M22/ RMK FG2SF1AC5

CYXE;2010-12-20 16:00;CYXE 201600Z 23004KT 2 1/2SM -SN BR FEW001 FEW025 BKN120 OVC270 M22/M26 A2984 RMK SF1SC2AC4CI1 SLP154

CYXE;2010-12-20 16:13;CYXE 201613Z 22003KT 4SM BR SCT002 BKN120 BKN270 M22/ RMK SF3AC2CI0

CYXE;2010-12-20 17:00;CYXE 201700Z 24005KT 4SM BR SCT002 BKN120 OVC270 M21/M25 A2988 RMK SF2AC4CI1 SLP166

CYXE;2010-12-20 18:00;CYXE 201800Z 00000KT 8SM SCT002 SCT025 BKN120 BKN270 M20/M23 A2989 RMK SF2SC1AC3CI0 BR SLP169

CYXE;2010-12-20 19:00;CYXE 201900Z 06002KT 8SM FEW003 BKN097 OVC270 M18/M21 A2988 RMK SF1AC5CI1 IC BR SLP168

CYXE;2010-12-20 20:00;CYXE 202000Z 05003KT 8SM SCT003 BKN100 BKN270 M17/M19 A2988 RMK SF2AC5CI0 VIS N 3BR SLP168

CYXE;2010-12-20 21:00;CYXE 202100Z 04003KT 10SM FEW003 BKN095 BKN270 M17/M19 A2991 RMK SF2AC5CI0 BR SLP177

CYXE;2010-12-20 22:00;CYXE 202200Z 03005KT 10SM BKN100 BKN300 M16/M18 A2992 RMK AC5CI2 BR SLP181

CYXE;2010-12-20 23:00;CYXE 202300Z 05005KT 10SM FEW100 BKN300 M18/M20 A2995 RMK AC2CI1 BR SLP189

CYXE;2010-12-21 00:00;CYXE 210000Z 06003KT 10SM FEW100 BKN300 M19/M21 A2998 RMK AC1CI1 BR SLP205

CYXE;2010-12-21 01:00;CYXE 210100Z 08003KT 8SM SCT300 M19/M21 A2999 RMK CI2 BR SLP208

CYXE;2010-12-21 03:00;CYXE 210300Z 06005KT 5SM -SN BR OVC011 M17/M20 A3000 RMK SC8 SLP210

CYXE;2010-12-21 03:28;CYXE 210328Z 07004KT 8SM -SN OVC008 M17/ RMK SC7 BR

CYXE;2010-12-21 04:00;CYXE 210400Z 08003KT 10SM -SN OVC011 M17/M19 A3001 RMK SC6 SLP213

CYXE;2010-12-21 04:20;CYXE 210420Z 07002KT 15SM BKN011 M17/ RMK SC3

CYXE;2010-12-21 04:50;CYXE 210450Z 00000KT 15SM OVC008 M17/ RMK SC7

CYXE;2010-12-21 05:00;CYXE 210500Z 00000KT 15SM BKN008 M17/M20 A3002 RMK SC7 SLP218

CYXE;2010-12-21 05:40;CYXE 210540Z 00000KT 6SM -SN OVC009 M18/ RMK ST8

CYXE;2010-12-21 06:00;CYXE 210600Z 00000KT 6SM -SN OVC007 M18/M21 A3005 RMK ST8 SLP227

CYXE;2010-12-21 06:34;CYXE 210634Z 29002KT 4SM IC BR FEW001 BKN005 M19/ RMK SF2SF4 VIS N-E 2

CYXE;2010-12-21 06:44;CYXE 210644Z 27002KT 4SM IC BR FEW001 BKN004 M19/ RMK SF1SF5 VIS N-E 2

CYXE;2010-12-21 08:24;CYXE 210824Z 14005KT 4SM IC BR SCT005 M19/ RMK SF3

CYXE;2010-12-21 08:31;CYXE 210831Z 15003KT 3SM IC BR OVC004 M19/ RMK SF8

CYXE;2010-12-21 08:45;CYXE 210845Z 14004KT 2SM IC BR OVC003 M18/ RMK SF8 TOWER OBS

CYXE;2010-12-21 09:00;CYXE 210900Z 13004KT 1 1/2SM IC BR OVC003 M18/M21 A3009 RMK SF7 TOWER OBS SLP241

CYXE;2010-12-21 09:11;CYXE 210911Z 13005KT 1SM R09/P6000FT/N IC BR OVC002 M18/ RMK FG2SF6 VIS SW 5/8 TOWER OBS

CYXE;2010-12-21 10:00;CYXE 211000Z 13002KT 1 1/2SM IC BR OVC002 M17/M19 A3010 RMK SF8 TOWER OBS SLP245

CYXE;2010-12-21 10:31;CYXE 211031Z 13003KT 2SM IC BR OVC002 M17/ RMK SF8 TOWER OBS

CYXE;2010-12-21 10:46;CYXE 211046Z 14003KT 3SM IC BR OVC003 M17/ RMK SF6

CYXE;2010-12-21 11:00;CYXE 211100Z 16003KT 2 1/2SM IC BR OVC003 M17/M19 A3012 RMK SF6 TOWER OBS SLP249

CYXE;2010-12-21 11:40;CYXE 211140Z 17002KT 3SM IC BR BKN003 OVC270 M17/ RMK SF6CS1

CYXE;2010-12-21 11:50;CYXE 211150Z 00000KT 3SM IC BR SCT002 OVC270 M17/ RMK SF3CS2

CYXE;2010-12-21 12:00;CYXE 211200Z 00000KT 3SM IC BR SCT003 OVC270 M17/M20 A3013 RMK SF3CS2 SLP256

CYXE;2010-12-21 13:00;CYXE 211300Z 08003KT 2SM IC BR FEW010 BKN270 M20/M22 A3013 RMK SF2CI2 SLP256

CYXE;2010-12-21 13:24;CYXE 211324Z 10004KT 3SM IC BR FEW001 SCT270 M20/ RMK SF2CI2 VIS NW-NE 11/2

CYXE;2010-12-21 14:00;CYXE 211400Z 11003KT 4SM IC BR FEW012 FEW100 SCT270 M19/M22 A3014 RMK SC1AC1CI0 VIS W-NE 11/2 SLP260

CYXE;2010-12-21 15:00;CYXE 211500Z 11006KT 4SM IC BR FEW270 M21/M24 A3016 RMK CI1 SLP266

CYXE;2010-12-21 15:45;CYXE 211545Z 12005KT 4SM BR SCT003 BKN270 M19/ RMK SF2CI0

CYXE;2010-12-21 16:00;CYXE 211600Z 13004KT 10SM FEW004 SCT270 M18/M21 A3018 RMK SF1CI1 BR SLP273

CYXE;2010-12-21 17:00;CYXE 211700Z 13003KT 10SM FEW004 FEW270 M17/M19 A3019 RMK SF1CI0 BR SLP278

CYXE;2010-12-21 18:00;CYXE 211800Z 13008KT 15SM FEW009 SCT270 M15/M16 A3020 RMK SF1CI0 SLP276

CYXE;2010-12-21 19:00;CYXE 211900Z 13009KT 15SM FEW010 M14/M15 A3019 RMK SF1 SLP273

CYXE;2010-12-21 20:00;CYXE 212000Z 12007KT 15SM FEW270 M14/M15 A3020 RMK CI1 SLP277

CYXE;2010-12-21 21:00;CYXE 212100Z 12009KT 15SM FEW270 M14/M16 A3020 RMK CI1 SLP278

CYXE;2010-12-21 22:00;CYXE 212200Z 12009KT 15SM FEW300 M14/M16 A3021 RMK CI1 SLP279

CYXE;2010-12-21 23:00;CYXE 212300Z 11006KT 15SM FEW300 M15/M17 A3022 RMK CI1 SLP283

CYXE;2010-12-22 00:00;CYXE 220000Z 11010KT 15SM FEW300 M15/M17 A3022 RMK CI1 SLP284

CYXE;2010-12-22 01:00;CYXE 220100Z 12009KT 15SM FEW300 M15/M18 A3023 RMK CI0 SLP285

CYXE;2010-12-22 02:00;CYXE 220200Z 12010KT 15SM SKC M16/M19 A3023 RMK SLP285

CYXE;2010-12-22 03:00;CYXE 220300Z 13010KT 15SM SKC M16/M19 A3022 RMK SLP286

CYXE;2010-12-22 04:00;CYXE 220400Z 13008KT 15SM SKC M16/M19 A3022 RMK SLP287

CYXE;2010-12-22 05:00;CYXE 220500Z 13008KT 15SM SKC M16/M19 A3022 RMK SLP287

CYXE;2010-12-22 06:00;CYXE 220600Z 12008KT 15SM SKC M17/M20 A3023 RMK SLP285

CYXE;2010-12-22 07:00;CYXE 220700Z 16007KT 15SM SKC M17/M19 A3023 RMK SLP286

CYXE;2010-12-22 08:00;CYXE 220800Z 14007KT 15SM SKC M17/M19 A3023 RMK SLP286

CYXE;2010-12-22 09:00;CYXE 220900Z 13006KT 15SM SKC M17/M20 A3023 RMK SLP285

CYXE;2010-12-22 11:00;CYXE 221100Z 12007KT 15SM FEW250 M17/M20 A3022 RMK CI1 SLP283

CYXE;2010-12-22 12:00;CYXE 221200Z 13006KT 15SM SCT250 M17/M20 A3022 RMK CI1 SLP282

CYXE;2010-12-22 13:00;CYXE 221300Z 14004KT 15SM SCT250 M16/M19 A3022 RMK CI1 SLP283

CYXE;2010-12-22 14:00;CYXE 221400Z 14009KT 15SM FEW250 M16/M18 A3021 RMK CI1 SLP279

CYXE;2010-12-22 15:00;CYXE 221500Z 14006KT 15SM FEW250 M16/M19 A3021 RMK CI1 SLP278

CYXE;2010-12-22 16:00;CYXE 221600Z 13008KT 15SM SKC M15/M18 A3021 RMK SLP279

CYXE;2010-12-22 17:00;CYXE 221700Z 14007KT 15SM SKC M14/M17 A3022 RMK SLP281

CYXE;2010-12-22 18:00;CYXE 221800Z 13006KT 15SM SKC M13/M16 A3021 RMK SLP279

CYXE;2010-12-22 19:00;CYXE 221900Z 14008KT 15SM SKC M12/M15 A3020 RMK SLP275

CYXE;2010-12-22 20:00;CYXE 222000Z 14007KT 15SM SKC M12/M15 A3019 RMK SLP272

CYXE;2010-12-22 21:00;CYXE 222100Z 14008KT 15SM SKC M11/M14 A3019 RMK SLP271

CYXE;2010-12-22 22:00;CYXE 222200Z 13008KT 15SM SKC M12/M15 A3020 RMK SLP273

CYXE;2010-12-22 23:00;CYXE 222300Z 12009KT 15SM SKC M13/M15 A3020 RMK SLP274

CYXE;2010-12-23 00:00;CYXE 230000Z 13009KT 15SM SKC M13/M15 A3020 RMK SLP275

CYXE;2010-12-23 01:00;CYXE 230100Z 13011KT 15SM SKC M13/M15 A3019 RMK SLP272

CYXE;2010-12-23 02:00;CYXE 230200Z 13009KT 15SM SKC M14/M16 A3019 RMK SLP272

CYXE;2010-12-23 03:00;CYXE 230300Z 12009KT 15SM SKC M14/M17 A3019 RMK SLP271

CYXE;2010-12-23 04:00;CYXE 230400Z 13011KT 15SM SKC M14/M17 A3018 RMK SLP269

CYXE;2010-12-23 05:00;CYXE 230500Z 13011KT 15SM SKC M15/M18 A3019 RMK SLP272

CYXE;2010-12-23 06:00;CYXE 230600Z 13009KT 15SM -SN SKC M15/M18 A3019 RMK SLP271

CYXE;2010-12-23 07:00;CYXE 230700Z 13008KT 15SM -SN SKC M16/M18 A3020 RMK SLP272

CYXE;2010-12-23 08:00;CYXE 230800Z 13008KT 15SM SKC M16/M19 A3020 RMK SLP272

CYXE;2010-12-23 09:00;CYXE 230900Z 12010KT 15SM SKC M17/M19 A3020 RMK SLP272

CYXE;2010-12-23 10:00;CYXE 231000Z 13010KT 15SM SKC M17/M20 A3021 RMK SLP276

CYXE;2010-12-23 11:00;CYXE 231100Z 11006KT 15SM SKC M17/M20 A3021 RMK SLP276

CYXE;2010-12-23 12:00;CYXE 231200Z 12008KT 15SM SKC M17/M20 A3021 RMK SLP279

CYXE;2010-12-23 12:07;CYXE 231207Z 12009KT 15SM FEW008 M17/ RMK SF1

CYXE;2010-12-23 12:12;CYXE 231212Z 11007KT 4SM IC BR FEW008 M17/ RMK SF2

CYXE;2010-12-23 12:22;CYXE 231222Z 11006KT 4SM IC BR BKN005 M17/ RMK SF5 VIS NW-E 2

CYXE;2010-12-23 12:27;CYXE 231227Z 11008KT 2SM IC BR FEW005 BKN009 M17/ RMK SF2SF3 VIS S 4

CYXE;2010-12-23 12:35;CYXE 231235Z 11007KT 2SM IC BR BKN004 M17/ RMK SF5 VIS S 4

CYXE;2010-12-23 13:00;CYXE 231300Z 12009KT 2SM -SN BR OVC003 M16/M18 A3022 RMK SF6 VIS S 4 SLP282

CYXE;2010-12-23 13:21;CYXE 231321Z 12008KT 1 1/2SM -SN BR OVC003 M15/ RMK SF6 VIS S 4

CYXE;2010-12-23 14:00;CYXE 231400Z 12007KT 1 1/2SM -SN BR OVC003 M14/M15 A3023 RMK ST6 SLP283

CYXE;2010-12-23 14:14;CYXE 231414Z 12009KT 1SM R09/P6000FT/U -SN BR OVC002 M13/ RMK ST6

CYXE;2010-12-23 14:45;CYXE 231445Z 13010KT 2SM -SN BR OVC003 M13/ RMK ST6

CYXE;2010-12-23 15:00;CYXE 231500Z 13009KT 2SM -SN BR OVC003 M13/M14 A3023 RMK ST6 SLP282

CYXE;2010-12-23 16:00;CYXE 231600Z 12009KT 2SM -SN BR OVC004 M12/M14 A3023 RMK ST6 SLP282

CYXE;2010-12-23 17:00;CYXE 231700Z 12009KT 2SM -SN BR OVC005 M12/M12 A3023 RMK ST6 SLP284

CYXE;2010-12-23 18:00;CYXE 231800Z 13008KT 4SM -SN BR OVC011 M11/M11 A3024 RMK ST6 SLP287

CYXE;2010-12-23 19:00;CYXE 231900Z 13009KT 6SM -SN BKN013 M10/M11 A3023 RMK ST5 SLP284

CYXE;2010-12-23 20:00;CYXE 232000Z 13008KT 6SM -SN BKN013 M10/M11 A3023 RMK ST5 BR SLP282

CYXE;2010-12-23 21:00;CYXE 232100Z 10010KT 8SM -SN BKN013 M10/M12 A3024 RMK ST5 SLP285

CYXE;2010-12-23 22:00;CYXE 232200Z 10010KT 15SM -SN SCT013 BKN100 OVC250 M11/M13 A3025 RMK SC3AC2CI0 SLP288

CYXE;2010-12-23 23:00;CYXE 232300Z 10010KT 15SM FEW013 BKN110 OVC250 M13/M14 A3025 RMK SC2AC2CI0 SLP290

CYXE;2010-12-24 00:00;CYXE 240000Z 11008KT 15SM FEW013 SCT060 SCT110 BKN250 M13/M14 A3027 RMK SC2SC2AC1CI0 SLP298

CYXE;2010-12-24 01:00;CYXE 240100Z 12010KT 15SM -SN BKN060 BKN250 M12/M13 A3028 RMK SC6CI0 SLP302

CYXE;2010-12-24 02:00;CYXE 240200Z 11010KT 15SM -SN OVC060 M12/M13 A3027 RMK SC8 SLP299

CYXE;2010-12-24 03:00;CYXE 240300Z 12010KT 15SM -SN OVC060 M11/M12 A3028 RMK SC8 SLP297

CYXE;2010-12-24 04:00;CYXE 240400Z 12011KT 15SM -SN BKN008 OVC060 M10/M11 A3029 RMK SF5SC3 SLP301

CYXE;2010-12-24 05:00;CYXE 240500Z 12008KT 15SM -SN OVC007 M10/M11 A3029 RMK SF8 SLP302

CYXE;2010-12-24 06:00;CYXE 240600Z 10006KT 15SM -SN OVC007 M10/M11 A3030 RMK ST8 SLP303

CYXE;2010-12-24 06:15;CYXE 240615Z 11007KT 15SM OVC007 M10/ RMK ST8

CYXE;2010-12-24 06:42;CYXE 240642Z 12006KT 15SM SCT009 OVC014 M10/ RMK SF3SC5

CYXE;2010-12-24 07:00;CYXE 240700Z 11008KT 15SM SCT009 OVC014 M10/M11 A3030 RMK SF3SC5 SLP301

CYXE;2010-12-24 07:14;CYXE 240714Z 12009KT 15SM SCT014 OVC023 M09/ RMK SC3SC5

CYXE;2010-12-24 08:00;CYXE 240800Z 13008KT 15SM BKN014 OVC023 M09/M11 A3031 RMK SC6SC2 SLP304

CYXE;2010-12-24 09:00;CYXE 240900Z 11011KT 15SM BKN014 BKN023 M09/M11 A3030 RMK SC5SC2 SLP302

CYXE;2010-12-24 10:00;CYXE 241000Z 13009KT 15SM OVC012 M09/M11 A3032 RMK SC8 SLP309

CYXE;2010-12-24 11:00;CYXE 241100Z 12011KT 15SM OVC012 M09/M11 A3032 RMK SC8 SLP310

CYXE;2010-12-24 12:00;CYXE 241200Z 13009KT 15SM OVC010 M09/M10 A3032 RMK SC8 SLP311

CYXE;2010-12-24 12:22;CYXE 241222Z 13009KT 15SM OVC008 M09/ RMK ST8

CYXE;2010-12-24 13:00;CYXE 241300Z 13008KT 10SM OVC007 M09/M10 A3033 RMK ST8 BR SLP314

CYXE;2010-12-24 14:00;CYXE 241400Z 14007KT 10SM OVC007 M08/M09 A3036 RMK ST8 BR SLP322

CYXE;2010-12-24 15:00;CYXE 241500Z 12009KT 8SM -SN OVC007 M08/M09 A3034 RMK ST8 BR SLP314

CYXE;2010-12-24 16:00;CYXE 241600Z 15013KT 8SM OVC009 M08/M09 A3034 RMK ST8 BR SLP316

CYXE;2010-12-24 17:00;CYXE 241700Z 13010KT 8SM OVC007 M08/M09 A3036 RMK ST8 BR SLP320

CYXE;2010-12-24 18:00;CYXE 241800Z 15010KT 6SM BR OVC007 M08/M09 A3035 RMK ST8 SLP317

CYXE;2010-12-24 19:00;CYXE 241900Z 16009KT 6SM BR OVC007 M07/M08 A3034 RMK ST8 SLP313

CYXE;2010-12-24 20:00;CYXE 242000Z 16008KT 4SM BR OVC006 M07/M08 A3032 RMK ST8 SLP308

CYXE;2010-12-24 21:00;CYXE 242100Z 16008KT 6SM BR OVC008 M06/M07 A3030 RMK ST8 SLP300

CYXE;2010-12-24 22:00;CYXE 242200Z 16013KT 6SM BR OVC009 M06/M08 A3030 RMK ST8 SLP299

CYXE;2010-12-24 23:00;CYXE 242300Z 17011KT 6SM BR OVC009 M06/M08 A3029 RMK ST8 SLP297

CYXE;2010-12-24 23:44;CYXE 242344Z 17009KT 6SM BR OVC010 M07/ RMK ST7

CYXE;2010-12-25 00:00;CYXE 250000Z 16009KT 10SM SCT010 M07/M09 A3029 RMK ST3 BR SLP297

CYXE;2010-12-25 01:00;CYXE 250100Z 16007KT 10SM BKN012 M08/M09 A3028 RMK ST4 BR SLP294

CYXE;2010-12-25 01:52;CYXE 250152Z 15008KT 10SM BKN010 M08/ RMK ST5 BR

CYXE;2010-12-25 02:00;CYXE 250200Z 15007KT 8SM BKN010 M08/M09 A3027 RMK ST5 BR SLP289

CYXE;2010-12-25 02:50;CYXE 250250Z 14009KT 8SM SCT012 M08/ RMK ST2 BR

CYXE;2010-12-25 03:00;CYXE 250300Z 14010KT 8SM FEW012 M08/M09 A3025 RMK ST2 BR SLP281

CYXE;2010-12-25 04:00;CYXE 250400Z 15011KT 8SM FEW012 M07/M09 A3023 RMK ST1 BR SLP274

CYXE;2010-12-25 05:00;CYXE 250500Z 14010KT 15SM FEW250 M08/M09 A3020 RMK CI0 SLP266

CYXE;2010-12-25 06:00;CYXE 250600Z 16009KT 15SM FEW250 M08/M09 A3021 RMK CI0 SLP268

CYXE;2010-12-25 07:00;CYXE 250700Z 16015KT 15SM FEW250 M07/M09 A3018 RMK CI0 SLP259

CYXE;2010-12-25 08:00;CYXE 250800Z 16010KT 15SM FEW250 M08/M09 A3018 RMK CI0 SLP259

CYXE;2010-12-25 09:00;CYXE 250900Z 15009KT 15SM FEW250 M08/M10 A3019 RMK CI0 SLP260

CYXE;2010-12-25 10:00;CYXE 251000Z 17011KT 15SM FEW250 M08/M09 A3017 RMK CI0 SLP254

CYXE;2010-12-25 11:00;CYXE 251100Z 17010KT 15SM FEW250 M08/M10 A3014 RMK CI0 SLP245

CYXE;2010-12-25 12:00;CYXE 251200Z 15013KT 15SM FEW250 M08/M11 A3009 RMK CI0 SLP227

CYXE;2010-12-25 13:00;CYXE 251300Z 15010KT 15SM FEW250 M09/M11 A3007 RMK CI0 SLP222

CYXE;2010-12-25 15:00;CYXE 251500Z 15008KT 15SM SCT250 M08/M10 A3003 RMK CI0 SLP208

CYXE;2010-12-25 16:00;CYXE 251600Z 15008KT 15SM BKN250 M08/M10 A3002 RMK CI4 SLP205

CYXE;2010-12-25 17:00;CYXE 251700Z 16010KT 15SM OVC250 M07/M10 A3001 RMK CI5 SLP199

CYXE;2010-12-25 18:00;CYXE 251800Z 17016G22KT 15SM OVC250 M05/M09 A2999 RMK CI4 SLP189

CYXE;2010-12-25 19:00;CYXE 251900Z 18016KT 15SM OVC250 M04/M08 A2996 RMK CI4 SLP180

CYXE;2010-12-25 20:00;CYXE 252000Z 17021KT 15SM OVC250 M04/M08 A2992 RMK CI4 SLP167

CYXE;2010-12-25 21:00;CYXE 252100Z 17015G20KT 15SM FEW140 OVC250 M04/M08 A2990 RMK AC1CI3 SLP159

CYXE;2010-12-25 22:00;CYXE 252200Z 17013G18KT 15SM FEW150 OVC250 M04/M08 A2989 RMK AC1CI3 SLP156

CYXE;2010-12-25 23:00;CYXE 252300Z 17013KT 15SM BKN250 M05/M08 A2987 RMK CI3 SLP151

CYXE;2010-12-26 01:00;CYXE 260100Z 18012G17KT 15SM BKN250 M05/M08 A2983 RMK CI2 SLP138

CYXE;2010-12-26 02:00;CYXE 260200Z 17012KT 15SM BKN250 M05/M08 A2983 RMK CI2 SLP135

CYXE;2010-12-26 03:00;CYXE 260300Z 17014KT 15SM SCT250 M05/M08 A2979 RMK CI2 SLP124

CYXE;2010-12-26 04:00;CYXE 260400Z 18013KT 15SM SCT250 M05/M08 A2978 RMK CI2 SLP120

CYXE;2010-12-26 05:00;CYXE 260500Z 18011KT 15SM SCT250 M05/M08 A2977 RMK CI2 SLP116

CYXE;2010-12-26 06:00;CYXE 260600Z 17012KT 15SM SCT250 M05/M08 A2974 RMK CI2 SLP105

CYXE;2010-12-26 07:00;CYXE 260700Z 17008KT 15SM SCT250 M06/M09 A2974 RMK CI2 SLP104

CYXE;2010-12-26 09:00;CYXE 260900Z 17009KT 15SM SCT250 M06/M09 A2970 RMK CI0 SLP089

CYXE;2010-12-26 10:00;CYXE 261000Z 16008KT 15SM FEW250 M06/M09 A2969 RMK CI0 SLP084

CYXE;2010-12-26 11:00;CYXE 261100Z 17010KT 15SM FEW250 M06/M09 A2966 RMK CI0 SLP077

CYXE;2010-12-26 12:00;CYXE 261200Z 17009KT 15SM SKC M07/M09 A2966 RMK SLP076

CYXE;2010-12-26 13:00;CYXE 261300Z 18008KT 15SM SKC M07/M09 A2965 RMK SLP073

CYXE;2010-12-26 14:00;CYXE 261400Z 17010KT 15SM SKC M06/M09 A2963 RMK SLP067

CYXE;2010-12-26 15:00;CYXE 261500Z 16005KT 15SM SCT300 M06/M09 A2961 RMK CI2 SLP061

CYXE;2010-12-26 16:00;CYXE 261600Z 14006KT 15SM FEW110 BKN300 M07/M10 A2961 RMK AC1CI2 SLP058

CYXE;2010-12-26 17:00;CYXE 261700Z 15006KT 15SM FEW095 BKN300 M06/M09 A2960 RMK AC1CI2 SLP055

CYXE;2010-12-26 18:00;CYXE 261800Z 16005KT 15SM FEW095 BKN300 M04/M08 A2958 RMK AC1CI3 SLP048

CYXE;2010-12-26 19:00;CYXE 261900Z 17013KT 15SM BKN300 M03/M08 A2956 RMK CI3 SLP040

CYXE;2010-12-26 20:00;CYXE 262000Z 18010KT 15SM BKN300 M03/M08 A2953 RMK CI2 SLP032

CYXE;2010-12-26 21:00;CYXE 262100Z 17009KT 15SM BKN300 M04/M08 A2952 RMK CI3 SLP026

CYXE;2010-12-26 22:00;CYXE 262200Z 18010KT 15SM BKN120 OVC300 M04/M08 A2951 RMK AC5CI2 SLP023

CYXE;2010-12-26 23:00;CYXE 262300Z 19006KT 15SM BKN120 OVC300 M04/M08 A2951 RMK AC3CI2 SLP024

CYXE;2010-12-27 00:00;CYXE 270000Z 19007KT 15SM BKN120 BKN300 M05/M07 A2950 RMK AC3CI2 SLP021

CYXE;2010-12-27 01:00;CYXE 270100Z 18009KT 15SM SCT120 BKN300 M05/M08 A2949 RMK AC2CI2 SLP019

CYXE;2010-12-27 02:00;CYXE 270200Z 19007KT 15SM FEW120 BKN300 M05/M08 A2948 RMK AC2CI2 SLP016

CYXE;2010-12-27 03:00;CYXE 270300Z 19009KT 15SM FEW100 BKN300 M05/M07 A2948 RMK AC2CI2 SLP014

CYXE;2010-12-27 04:00;CYXE 270400Z 18008KT 15SM SCT100 BKN250 M05/M07 A2946 RMK AC3CI2 SLP009

CYXE;2010-12-27 05:00;CYXE 270500Z 18007KT 15SM SCT100 OVC250 M04/M07 A2945 RMK AC3CI2 SLP006

CYXE;2010-12-27 07:00;CYXE 270700Z 20009KT 15SM FEW120 SCT250 M03/M05 A2944 RMK AC2CI0 SLP998

CYXE;2010-12-27 08:00;CYXE 270800Z 22014KT 15SM SCT120 BKN250 M02/M04 A2943 RMK AC3CI0 SLP994

CYXE;2010-12-27 09:00;CYXE 270900Z 24013KT 15SM SCT120 BKN250 M01/M03 A2943 RMK AC3CI0 SLP994

CYXE;2010-12-27 10:00;CYXE 271000Z 25011KT 15SM FEW120 SCT250 M03/M04 A2944 RMK AC2CI0 SLP997

CYXE;2010-12-27 11:00;CYXE 271100Z 30020KT 15SM SCT120 BKN250 M06/M08 A2945 RMK AC3CI0 SLP001

CYXE;2010-12-27 11:39;CYXE 271139Z 31015KT 12SM -SN DRSN SCT013 OVC120 M08/ RMK SC3AC3

CYXE;2010-12-27 13:00;CYXE 271300Z 29013KT 12SM DRSN BKN013 OVC120 M08/M10 A2950 RMK SC5AC2 UA/TOPS 033 SLP022

CYXE;2010-12-27 15:00;CYXE 271500Z 31012KT 15SM OVC011 M08/M10 A2950 RMK SC8 SLP024

CYXE;2010-12-27 16:00;CYXE 271600Z 30013G19KT 15SM SCT012 OVC300 M10/M11 A2952 RMK SC2CI4 SLP029

CYXE;2010-12-27 17:00;CYXE 271700Z 29013KT 15SM BKN300 M10/M12 A2953 RMK CI3 SLP032

CYXE;2010-12-27 18:00;CYXE 271800Z 28016KT 15SM FEW300 M09/M12 A2953 RMK CI1 SLP032

CYXE;2010-12-27 19:00;CYXE 271900Z 29019KT 15SM FEW300 M09/M12 A2952 RMK CI1 SLP031

CYXE;2010-12-27 20:00;CYXE 272000Z 28015KT 15SM FEW300 M09/M12 A2954 RMK CI1 SLP037

CYXE;2010-12-27 21:00;CYXE 272100Z 26011KT 15SM FEW025 FEW300 M10/M13 A2955 RMK SC1CI0 SLP038

CYXE;2010-12-27 22:00;CYXE 272200Z 25011KT 15SM SCT025 SCT300 M10/M13 A2956 RMK SF2CI0 SLP043

CYXE;2010-12-27 23:00;CYXE 272300Z 27013KT 15SM FEW025 FEW300 M10/M12 A2957 RMK SC1CI0 SLP044

CYXE;2010-12-27 23:52;CYXE 272352Z 26009KT 15SM BKN020 M10/ RMK SC6

CYXE;2010-12-28 00:00;CYXE 280000Z 26011KT 15SM OVC020 M09/M12 A2958 RMK SC7 SLP053

CYXE;2010-12-28 01:00;CYXE 280100Z 25011KT 15SM OVC018 M08/M10 A2957 RMK SC7 SLP051

CYXE;2010-12-28 02:00;CYXE 280200Z 25013KT 15SM SCT018 BKN060 M08/M10 A2956 RMK SC3SC3 SLP045

CYXE;2010-12-28 03:00;CYXE 280300Z 26011KT 15SM SCT055 M08/M11 A2956 RMK SC3 SLP045

CYXE;2010-12-28 04:00;CYXE 280400Z 26012KT 15SM FEW055 M09/M11 A2956 RMK SC2 SLP044

CYXE;2010-12-28 05:00;CYXE 280500Z 26010KT 15SM FEW055 M10/M11 A2955 RMK SC1 SLP041

CYXE;2010-12-28 07:00;CYXE 280700Z 26010KT 15SM SCT022 M11/M12 A2957 RMK SC3 SLP053

CYXE;2010-12-28 08:00;CYXE 280800Z 25009KT 15SM FEW020 M11/M13 A2958 RMK SC2 SLP054

CYXE;2010-12-28 09:00;CYXE 280900Z 25009KT 15SM SCT040 M12/M13 A2956 RMK SC3 SLP050

CYXE;2010-12-28 10:00;CYXE 281000Z 24009KT 15SM SKC M14/M15 A2956 RMK SLP047

CYXE;2010-12-28 11:00;CYXE 281100Z 22008KT 15SM SKC M13/M14 A2954 RMK SLP043

CYXE;2010-12-28 12:00;CYXE 281200Z 23008KT 15SM SKC M14/M16 A2954 RMK SLP042

CYXE;2010-12-28 13:00;CYXE 281300Z 23009KT 15SM SKC M14/M16 A2952 RMK SLP035

CYXE;2010-12-28 14:00;CYXE 281400Z 23009KT 15SM SKC M15/M17 A2949 RMK SLP027

CYXE;2010-12-28 15:00;CYXE 281500Z 22008KT 15SM FEW300 M14/M16 A2946 RMK CI1 SLP015

CYXE;2010-12-28 16:00;CYXE 281600Z 21007KT 15SM SCT300 M13/M15 A2945 RMK CI1 SLP011

CYXE;2010-12-28 17:00;CYXE 281700Z 22010KT 15SM SCT300 M13/M16 A2943 RMK CI3 SLP007

CYXE;2010-12-28 18:00;CYXE 281800Z 23010KT 15SM FEW120 BKN280 M11/M14 A2941 RMK AC2CI2 SLP998

CYXE;2010-12-28 19:00;CYXE 281900Z 22011KT 15SM FEW120 BKN300 M09/M13 A2938 RMK AC1CI1 SLP986

CYXE;2010-12-28 20:00;CYXE 282000Z 22011KT 15SM FEW120 BKN300 M09/M13 A2935 RMK AC1CI1 SLP979

CYXE;2010-12-28 21:00;CYXE 282100Z 24005KT 15SM FEW120 BKN300 M09/M13 A2932 RMK AC2CI1 SLP964

CYXE;2010-12-28 22:00;CYXE 282200Z 20002KT 15SM SCT120 BKN300 M09/M13 A2930 RMK AC2CI1 SLP959

CYXE;2010-12-28 23:00;CYXE 282300Z 28005KT 15SM BKN120 BKN300 M10/M13 A2931 RMK AC6CI0 SLP961

CYXE;2010-12-29 00:00;CYXE 290000Z 23009KT 15SM BKN120 BKN300 M12/M15 A2932 RMK AC4CI0 SLP968

CYXE;2010-12-29 01:00;CYXE 290100Z 27007KT 15SM FEW120 M15/M17 A2932 RMK AC2 SLP968

CYXE;2010-12-29 02:00;CYXE 290200Z 28006KT 15SM SKC M16/M17 A2932 RMK SLP968

CYXE;2010-12-29 03:00;CYXE 290300Z 31008KT 15SM SKC M15/M16 A2933 RMK SLP973

CYXE;2010-12-29 04:00;CYXE 290400Z 30006KT 15SM SKC M16/M17 A2934 RMK SLP978

CYXE;2010-12-29 05:00;CYXE 290500Z 30009KT 15SM FEW300 M16/M17 A2936 RMK CI1 SLP984

CYXE;2010-12-29 05:08;CYXE 290508Z 31010KT 15SM BKN004 M16/ RMK SF5

CYXE;2010-12-29 05:19;CYXE 290519Z 32012KT 15SM OVC003 M15/ RMK ST8

CYXE;2010-12-29 06:00;CYXE 290600Z 32012KT 15SM OVC004 M13/M14 A2937 RMK ST8 SLP986

CYXE;2010-12-29 06:13;CYXE 290613Z 32011KT 15SM OVC006 M13/ RMK ST8

CYXE;2010-12-29 07:00;CYXE 290700Z 34007KT 15SM -SN OVC008 M12/M13 A2937 RMK ST8 SLP984

CYXE;2010-12-29 08:00;CYXE 290800Z 32013KT 12SM -SN OVC010 M12/M13 A2938 RMK ST8 SLP987

CYXE;2010-12-29 09:00;CYXE 290900Z 32008KT 12SM -SN OVC012 M12/M13 A2939 RMK ST8 SLP989

CYXE;2010-12-29 10:00;CYXE 291000Z 33012KT 12SM -SN OVC014 M12/M14 A2939 RMK SC8 SLP990

CYXE;2010-12-29 11:00;CYXE 291100Z 34015KT 12SM -SN OVC016 M12/M14 A2939 RMK SC8 SLP991

CYXE;2010-12-29 12:00;CYXE 291200Z 30011KT 4SM -SN OVC016 M12/M14 A2942 RMK SC8 SLP001

CYXE;2010-12-29 13:00;CYXE 291300Z 32013KT 12SM -SN DRSN OVC018 M14/M17 A2943 RMK SC8 SLP006

CYXE;2010-12-29 13:37;CYXE 291337Z 33012KT 15SM SCT020 M16/ RMK SC3

CYXE;2010-12-29 14:00;CYXE 291400Z 33008KT 15SM SCT020 M17/M19 A2946 RMK SC2 SLP014

CYXE;2010-12-29 15:00;CYXE 291500Z 32009KT 15SM FEW020 FEW300 M19/M21 A2947 RMK SC1CI0 SLP027

CYXE;2010-12-29 16:00;CYXE 291600Z 31008KT 15SM FEW300 M20/M22 A2951 RMK CI0 SLP039

CYXE;2010-12-29 17:00;CYXE 291700Z 32008KT 15SM BKN300 M20/M21 A2953 RMK CI2 SLP046

CYXE;2010-12-29 18:00;CYXE 291800Z 32011KT 15SM BKN300 M19/M24 A2954 RMK CI2 SLP049

CYXE;2010-12-29 19:00;CYXE 291900Z 32010KT 15SM OVC300 M19/M23 A2954 RMK CI3 SLP049

CYXE;2010-12-29 20:00;CYXE 292000Z 32010KT 15SM OVC300 M19/M24 A2955 RMK CI3 SLP053

CYXE;2010-12-29 21:00;CYXE 292100Z 32012KT 15SM BKN300 M19/M24 A2957 RMK CS4 SLP060

CYXE;2010-12-29 22:00;CYXE 292200Z 30010KT 15SM BKN300 M20/M24 A2960 RMK CS4 SLP068

CYXE;2010-12-29 23:00;CYXE 292300Z 31011KT 15SM BKN300 M20/M24 A2963 RMK CS2 SLP078

CYXE;2010-12-30 00:00;CYXE 300000Z 30009KT 15SM BKN300 M21/M25 A2967 RMK CI2 SLP093

CYXE;2010-12-30 01:00;CYXE 300100Z 31011KT 15SM FEW300 M21/M25 A2969 RMK CI1 SLP100

CYXE;2010-12-30 02:00;CYXE 300200Z 32015KT 15SM SKC M20/M24 A2971 RMK SLP106

CYXE;2010-12-30 03:00;CYXE 300300Z 33013KT 15SM SKC M20/M24 A2973 RMK SLP118

CYXE;2010-12-30 04:00;CYXE 300400Z 33012KT 15SM SKC M20/M24 A2976 RMK SLP128

CYXE;2010-12-30 05:00;CYXE 300500Z 31007KT 15SM SKC M21/M25 A2978 RMK SLP137

CYXE;2010-12-30 06:00;CYXE 300600Z 31007KT 15SM BKN300 M21/M25 A2983 RMK CI2 SLP153

CYXE;2010-12-30 07:00;CYXE 300700Z 31006KT 15SM BKN300 M22/M27 A2986 RMK CI2 SLP163

CYXE;2010-12-30 08:00;CYXE 300800Z 29006KT 15SM BKN300 M23/M27 A2988 RMK CI2 SLP171

CYXE;2010-12-30 09:00;CYXE 300900Z 29008KT 15SM BKN300 M24/M28 A2991 RMK CI1 SLP184

CYXE;2010-12-30 10:00;CYXE 301000Z 30007KT 15SM SCT300 M25/M29 A2994 RMK CI1 SLP193

CYXE;2010-12-30 11:00;CYXE 301100Z 30009KT 15SM BKN300 M25/M29 A2995 RMK CI2 SLP198

CYXE;2010-12-30 12:00;CYXE 301200Z 30008KT 15SM BKN300 M24/M28 A2997 RMK CI2 SLP208

CYXE;2010-12-30 13:00;CYXE 301300Z 30008KT 15SM BKN300 M24/M28 A3001 RMK CI1 SLP218

CYXE;2010-12-30 14:00;CYXE 301400Z 31007KT 15SM BKN300 M25/M29 A3003 RMK CI1 SLP226

CYXE;2010-12-30 15:00;CYXE 301500Z 31006KT 15SM SCT300 M24/M28 A3005 RMK CI1 SLP232

CYXE;2010-12-30 16:00;CYXE 301600Z 32006KT 15SM SCT300 M23/M27 A3007 RMK CI1 SLP240

CYXE;2010-12-30 17:00;CYXE 301700Z 32008KT 15SM BKN300 M22/M26 A3010 RMK CI1 SLP248

CYXE;2010-12-30 18:00;CYXE 301800Z 34007KT 15SM BKN300 M21/M25 A3010 RMK CI2 SLP250

CYXE;2010-12-30 19:00;CYXE 301900Z 32007KT 15SM BKN300 M20/M25 A3010 RMK CI2 SLP250

CYXE;2010-12-30 20:00;CYXE 302000Z 31007KT 15SM -SN SCT100 BKN300 M19/M24 A3010 RMK AC3CI0 SLP250

CYXE;2010-12-30 21:00;CYXE 302100Z 31008KT 15SM FEW093 BKN300 M20/M25 A3011 RMK AC2CI1 SLP253

CYXE;2010-12-30 22:00;CYXE 302200Z 31008KT 15SM FEW093 BKN300 M21/M26 A3012 RMK AC1CI3 SLP255

CYXE;2010-12-30 23:00;CYXE 302300Z 30007KT 15SM BKN300 M22/M27 A3015 RMK CI3 SLP265

CYXE;2010-12-31 00:00;CYXE 310000Z 30009KT 15SM SCT300 M23/M28 A3016 RMK CI2 SLP272

CYXE;2010-12-31 01:00;CYXE 310100Z 32006KT 15SM SKC M23/M28 A3016 RMK SLP274

CYXE;2010-12-31 02:00;CYXE 310200Z 31006KT 15SM SKC M24/M29 A3017 RMK SLP275

CYXE;2010-12-31 03:00;CYXE 310300Z 32004KT 15SM SKC M24/M29 A3018 RMK SLP281

CYXE;2010-12-31 04:00;CYXE 310400Z 00000KT 15SM SCT300 M24/M29 A3019 RMK CI2 SLP284

CYXE;2010-12-31 05:00;CYXE 310500Z 26004KT 15SM SKC M25/M30 A3019 RMK SLP285

CYXE;2010-12-31 06:00;CYXE 310600Z 27006KT 15SM SCT300 M26/M30 A3020 RMK CI1 SLP288

CYXE;2010-12-31 07:00;CYXE 310700Z 27006KT 15SM SCT300 M26/M31 A3020 RMK CI0 SLP287

CYXE;2010-12-31 08:00;CYXE 310800Z 25006KT 15SM SCT300 M27/M32 A3020 RMK CI0 SLP287

CYXE;2010-12-31 09:00;CYXE 310900Z 25007KT 15SM FEW300 M27/M31 A3020 RMK CI0 SLP287

CYXE;2010-12-31 10:00;CYXE 311000Z 24006KT 15SM BKN300 M26/M30 A3020 RMK CI2 SLP286

CYXE;2010-12-31 11:00;CYXE 311100Z 24006KT 15SM BKN300 M26/M30 A3019 RMK CI1 SLP283

CYXE;2010-12-31 12:00;CYXE 311200Z 23005KT 15SM SCT300 M28/M32 A3018 RMK CI1 SLP284

CYXE;2010-12-31 13:00;CYXE 311300Z 20005KT 15SM BKN300 M25/M29 A3018 RMK CI2 SLP283

CYXE;2010-12-31 14:00;CYXE 311400Z 20002KT 15SM BKN300 M25/M29 A3017 RMK CI3 SLP280

CYXE;2010-12-31 15:00;CYXE 311500Z 21004KT 15SM OVC300 M24/M28 A3017 RMK CI5 SLP276

CYXE;2010-12-31 16:00;CYXE 311600Z 21006KT 15SM FEW120 OVC300 M24/M28 A3017 RMK AC1CI4 SLP276

CYXE;2010-12-31 17:00;CYXE 311700Z 21005KT 15SM FEW120 BKN300 M22/M28 A3017 RMK AC1CI4 SLP276

CYXE;2010-12-31 18:00;CYXE 311800Z 21005KT 15SM BKN300 M21/M27 A3015 RMK CI3 SLP271

CYXE;2010-12-31 19:00;CYXE 311900Z 22007KT 15SM SCT300 M20/M27 A3014 RMK CI2 SLP265

CYXE;2010-12-31 20:00;CYXE 312000Z 22008KT 15SM FEW300 M19/M26 A3011 RMK CI1 SLP258

CYXE;2010-12-31 21:00;CYXE 312100Z 23007KT 15SM FEW300 M19/M26 A3010 RMK CI1 SLP252

CYXE;2010-12-31 22:00;CYXE 312200Z 22006KT 15SM FEW300 M19/M26 A3010 RMK CI0 SLP251

CYXE;2010-12-31 23:00;CYXE 312300Z 21006KT 15SM FEW300 M21/M27 A3009 RMK CI0 SLP249

