CYYC;2008-01-01 01:00;CYYC 010100Z 17004KT 15SM SCT260 M09/M12 A3034 RMK CI0 SLP351

CYYC;2008-01-01 02:00;CYYC 010200Z 09003KT 15SM SKC M14/M15 A3036 RMK SLP358

CYYC;2008-01-01 03:00;CYYC 010300Z 00000KT 15SM SKC M15/M17 A3037 RMK SLP375

CYYC;2008-01-01 04:00;CYYC 010400Z 00000KT 15SM SKC M17/M17 A3039 RMK SLP380

CYYC;2008-01-01 05:00;CYYC 010500Z 00000KT 15SM SKC M16/M17 A3040 RMK SLP384

CYYC;2008-01-01 06:00;CYYC 010600Z 20003KT 15SM SKC M17/M17 A3041 RMK SLP387

CYYC;2008-01-01 07:00;CYYC 010700Z 21004KT 15SM SKC M14/M15 A3042 RMK SLP388

CYYC;2008-01-01 08:00;CYYC 010800Z 21003KT 15SM SKC M14/M15 A3042 RMK SLP390

CYYC;2008-01-01 09:00;CYYC 010900Z 18003KT 15SM SKC M14/M15 A3042 RMK SLP381

CYYC;2008-01-01 10:00;CYYC 011000Z 19004KT 15SM SKC M14/M16 A3043 RMK SLP384

CYYC;2008-01-01 11:00;CYYC 011100Z 21002KT 15SM SKC M16/M19 A3044 RMK SLP386

CYYC;2008-01-01 12:00;CYYC 011200Z 00000KT 15SM SCT210 M15/M17 A3044 RMK CI2 SNOW COVER/ TRACE LOOSE SLP394

CYYC;2008-01-01 13:00;CYYC 011300Z 00000KT 15SM FEW230 M11/M16 A3045 RMK CI1 SLP396

CYYC;2008-01-01 14:00;CYYC 011400Z 00000KT 15SM SKC M13/M17 A3046 RMK SLP398

CYYC;2008-01-01 15:00;CYYC 011500Z 06005KT 30SM BKN260 M15/M17 A3046 RMK CI0 SLP408

CYYC;2008-01-01 16:00;CYYC 011600Z 33002KT 40SM FEW160 BKN260 M12/M17 A3047 RMK AC1CI0 SLP414

CYYC;2008-01-01 17:00;CYYC 011700Z 00000KT 40SM FEW160 OVC260 M11/M15 A3049 RMK AC1CI1 SLP419

CYYC;2008-01-01 18:00;CYYC 011800Z 00000KT 40SM FEW170 BKN260 M09/M13 A3049 RMK AC1CI1 SLP413

CYYC;2008-01-01 19:00;CYYC 011900Z 00000KT 40SM BKN170 BKN260 M06/M13 A3047 RMK AC3CI0 SLP406

CYYC;2008-01-01 20:00;CYYC 012000Z 13009KT 40SM BKN140 BKN260 M07/M14 A3044 RMK AC6CI0 SLP399

CYYC;2008-01-01 21:00;CYYC 012100Z 14010KT 40SM BKN120 BKN160 BKN260 M08/M14 A3041 RMK AC5AC2CI1 SLP380

CYYC;2008-01-01 22:00;CYYC 012200Z 14012KT 40SM BKN110 BKN160 OVC260 M09/M15 A3037 RMK AC6AC1CI1 SLP370

CYYC;2008-01-01 23:00;CYYC 012300Z 17012KT 40SM BKN110 BKN160 OVC260 M09/M14 A3035 RMK AC6AC1CI1 SLP362

CYYC;2008-01-02 00:00;CYYC 020000Z 17013G19KT 40SM SCT100 OVC230 M10/M13 A3032 RMK AC2CI6 SLP354

CYYC;2008-01-02 01:00;CYYC 020100Z 17013KT 15SM FEW100 OVC220 M10/M13 A3026 RMK AC2CI6 SLP336

CYYC;2008-01-02 02:00;CYYC 020200Z 17011G17KT 15SM BKN120 OVC220 M10/M13 A3021 RMK AC6CI2 SLP319

CYYC;2008-01-02 03:00;CYYC 020300Z 16007KT 15SM BKN130 OVC170 M10/M12 A3015 RMK AC6AC2 SLP292

CYYC;2008-01-02 04:00;CYYC 020400Z 18010KT 15SM OVC160 M08/M12 A3009 RMK AC8 SLP275

CYYC;2008-01-02 05:00;CYYC 020500Z 17011KT 15SM OVC170 M06/M11 A3003 RMK AC8 SLP256

CYYC;2008-01-02 06:00;CYYC 020600Z 16007KT 15SM BKN190 OVC200 M08/M11 A2996 RMK AC7CI1 PRESFR SLP215

CYYC;2008-01-02 07:00;CYYC 020700Z 22006KT 15SM BKN190 BKN240 M09/M12 A2992 RMK AC6CI1 SLP203

CYYC;2008-01-02 08:00;CYYC 020800Z 19005KT 15SM FEW190 FEW240 M09/M13 A2986 RMK AC1CI0 SLP185

CYYC;2008-01-02 09:00;CYYC 020900Z 20006KT 15SM FEW190 FEW240 M10/M14 A2981 RMK AC1CI1 CLDS TR SLP165

CYYC;2008-01-02 10:00;CYYC 021000Z 22009KT 15SM SKC M11/M15 A2976 RMK SLP151

CYYC;2008-01-02 11:00;CYYC 021100Z 19006KT 15SM SKC M09/M14 A2973 RMK SLP141

CYYC;2008-01-02 12:00;CYYC 021200Z 21006KT 15SM SKC M09/M15 A2969 RMK SNOW COVER/ TRACE LOOSE SLP123

CYYC;2008-01-02 13:00;CYYC 021300Z 17004KT 15SM SKC M06/M13 A2965 RMK SLP113

CYYC;2008-01-02 14:00;CYYC 021400Z 07003KT 15SM BKN250 M07/M13 A2963 RMK CI2 SLP105

CYYC;2008-01-02 15:00;CYYC 021500Z 03006KT 30SM OVC260 M09/M14 A2960 RMK CI2 SLP093

CYYC;2008-01-02 16:00;CYYC 021600Z 00000KT 40SM OVC260 M09/M14 A2957 RMK CI2 SLP084

CYYC;2008-01-02 17:00;CYYC 021700Z 34008KT 30SM FEW100 BKN260 M06/M13 A2959 RMK AC1CI4 SLP090

CYYC;2008-01-02 18:00;CYYC 021800Z 13004KT 30SM FEW090 BKN260 M03/M11 A2959 RMK AC1CI3 SLP077

CYYC;2008-01-02 19:00;CYYC 021900Z 31004KT 20SM FEW090 FEW220 BKN260 04/M08 A2958 RMK AC1CI1CI0 SLP073

CYYC;2008-01-02 20:00;CYYC 022000Z 23014G19KT 20SM FEW080 SCT220 BKN260 07/M07 A2958 RMK AC1CI2CI3 SLP073

CYYC;2008-01-02 21:00;CYYC 022100Z 25027G34KT 30SM FEW080 SCT200 BKN260 07/M07 A2956 RMK AC1CI1CI3 SLP056

CYYC;2008-01-02 22:00;CYYC 022200Z 26020G30KT 20SM FEW080 FEW200 BKN260 06/M07 A2958 RMK AC1CI1CI1 SLP062

CYYC;2008-01-02 23:00;CYYC 022300Z 26015G21KT 20SM FEW080 FEW200 BKN260 03/M06 A2960 RMK AC1CI1CI1 SLP068

CYYC;2008-01-03 00:00;CYYC 030000Z 25015KT 20SM FEW080 FEW200 BKN260 02/M07 A2960 RMK AC1CI1CI1 SLP077

CYYC;2008-01-03 01:00;CYYC 030100Z 26023G30KT 15SM BKN250 02/M08 A2961 RMK CI1 SLP078

CYYC;2008-01-03 02:00;CYYC 030200Z 27017G24KT 15SM BKN250 02/M09 A2963 RMK CI5 SLP086

CYYC;2008-01-03 03:00;CYYC 030300Z 28008KT 15SM BKN250 02/M09 A2966 RMK CI6 SLP098

CYYC;2008-01-03 04:00;CYYC 030400Z 29003KT 15SM BKN240 01/M10 A2969 RMK CI6 SLP106

CYYC;2008-01-03 05:00;CYYC 030500Z 30009KT 15SM OVC240 01/M09 A2970 RMK CI6 SLP111

CYYC;2008-01-03 06:00;CYYC 030600Z 22006KT 15SM OVC240 M01/M10 A2970 RMK CI6 SLP108

CYYC;2008-01-03 07:00;CYYC 030700Z 28008KT 15SM OVC240 M01/M09 A2971 RMK CI6 SLP110

CYYC;2008-01-03 08:00;CYYC 030800Z 19005KT 15SM OVC210 M01/M09 A2969 RMK CI6 SLP105

CYYC;2008-01-03 09:00;CYYC 030900Z 25003KT 15SM OVC230 M03/M09 A2970 RMK CI6 SLP094

CYYC;2008-01-03 10:00;CYYC 031000Z 22004KT 15SM OVC230 M05/M10 A2970 RMK CI6 SLP094

CYYC;2008-01-03 11:00;CYYC 031100Z 12004KT 15SM OVC240 M07/M10 A2969 RMK CI7 SLP092

CYYC;2008-01-03 12:00;CYYC 031200Z 10003KT 15SM OVC240 M05/M09 A2968 RMK CI6 SNOW COVER/ TRACE LOOSE SLP098

CYYC;2008-01-03 13:00;CYYC 031300Z 00000KT 15SM OVC250 M06/M10 A2966 RMK CI6 SLP094

CYYC;2008-01-03 14:00;CYYC 031400Z 04003KT 15SM BKN250 M08/M11 A2964 RMK CI4 SLP087

CYYC;2008-01-03 15:00;CYYC 031500Z 12004KT 15SM BKN250 M07/M10 A2961 RMK CI4 SLP078

CYYC;2008-01-03 16:00;CYYC 031600Z 13002KT 30SM FEW046 FEW160 BKN250 M07/M10 A2960 RMK SC1AC1CI4 SLP074

CYYC;2008-01-03 17:00;CYYC 031700Z 00000KT 30SM FEW046 FEW160 BKN210 M06/M09 A2960 RMK SC1AC1CI4 SLP073

CYYC;2008-01-03 18:00;CYYC 031800Z 20005KT 30SM FEW046 FEW160 BKN250 M03/M08 A2957 RMK SC1AC1CI3 SLP062

CYYC;2008-01-03 19:00;CYYC 031900Z 20010KT 30SM FEW047 FEW160 BKN250 M01/M06 A2954 RMK CU1AC1CI2 SLP051

CYYC;2008-01-03 20:00;CYYC 032000Z 22009KT 30SM FEW041 FEW160 BKN250 00/M07 A2950 RMK CU1AC1CI2 SLP040

CYYC;2008-01-03 21:00;CYYC 032100Z 21009KT 20SM FEW040 FEW170 BKN250 02/M06 A2947 RMK CU1AC1CI2 SLP022

CYYC;2008-01-03 22:00;CYYC 032200Z 19004KT 20SM FEW038 FEW200 BKN250 03/M05 A2944 RMK CU1CI2CI2 SLP014

CYYC;2008-01-03 23:00;CYYC 032300Z 20004KT 15SM FEW035 FEW200 BKN250 03/M04 A2942 RMK CU1CI2CI2 SLP006

CYYC;2008-01-04 00:00;CYYC 040000Z 19006KT 15SM FEW026 FEW200 SCT250 01/M04 A2939 RMK CU1CI1CI2 SLP998

CYYC;2008-01-04 01:00;CYYC 040100Z 18010KT 15SM FEW025 FEW200 SCT250 02/M05 A2936 RMK CU1CI1CI1 SLP990

CYYC;2008-01-04 02:00;CYYC 040200Z 17008KT 15SM SCT250 01/M05 A2933 RMK CI2 SLP981

CYYC;2008-01-04 03:00;CYYC 040300Z 18007KT 15SM BKN250 M00/M05 A2930 RMK CI2 SLP973

CYYC;2008-01-04 04:00;CYYC 040400Z 18010KT 15SM FEW250 01/M05 A2926 RMK CI1 SLP961

CYYC;2008-01-04 05:00;CYYC 040500Z 18015KT 15SM FEW250 02/M05 A2923 RMK CI1 SLP952

CYYC;2008-01-04 06:00;CYYC 040600Z 21007KT 15SM FEW250 M00/M05 A2923 RMK CI1 SLP942

CYYC;2008-01-04 07:00;CYYC 040700Z 14004KT 15SM SCT240 M02/M07 A2921 RMK CI2 SLP938

CYYC;2008-01-04 08:00;CYYC 040800Z 18009KT 15SM FEW090 SCT240 M01/M06 A2921 RMK AC1CI2 SLP937

CYYC;2008-01-04 09:00;CYYC 040900Z 18007KT 15SM FEW092 SCT200 BKN250 M02/M07 A2921 RMK AC1CI2CI0 SLP930

CYYC;2008-01-04 10:00;CYYC 041000Z 19010KT 15SM FEW200 SCT250 M03/M06 A2922 RMK CI1CI0 SLP934

CYYC;2008-01-04 11:00;CYYC 041100Z 21008KT 15SM FEW095 FEW250 M05/M08 A2924 RMK AC1CI0 SLP940

CYYC;2008-01-04 12:00;CYYC 041200Z CCA 23005KT 15SM FEW095 FEW250 M02/M08 A2925 RMK AC1CI0 SNOW COVER/ TRACE LOOSE SLP944

CYYC;2008-01-04 13:00;CYYC 041300Z 19006KT 15SM FEW250 M02/M07 A2923 RMK CI0 SLP940

CYYC;2008-01-04 14:00;CYYC 041400Z 17003KT 15SM FEW250 M03/M07 A2922 RMK CI1 CI TR SLP936

CYYC;2008-01-04 15:00;CYYC 041500Z 24006KT 20SM FEW160 FEW250 M04/M09 A2921 RMK AC2CI1 SLP937

CYYC;2008-01-04 16:00;CYYC 041600Z 12009KT 30SM FEW020 SCT190 BKN250 M05/M08 A2921 RMK SC1AC2CI2 SLP936

CYYC;2008-01-04 17:00;CYYC 041700Z 14007KT 30SM FEW037 FEW190 BKN250 M02/M07 A2921 RMK SC1AC2CI2 SLP935

CYYC;2008-01-04 18:00;CYYC 041800Z 18002KT 40SM FEW045 FEW220 BKN250 02/M06 A2921 RMK CU1CI1CI4 SLP929

CYYC;2008-01-04 19:00;CYYC 041900Z 14005KT 40SM FEW046 FEW090 BKN250 03/M07 A2917 RMK CU1AC1CI4 SLP914

CYYC;2008-01-04 20:00;CYYC 042000Z 13010KT 30SM FEW046 FEW180 BKN250 03/M05 A2913 RMK CU1AC1CI4 SLP904

CYYC;2008-01-04 21:00;CYYC 042100Z 13010KT 30SM FEW042 FEW190 OVC250 04/M05 A2911 RMK CU1AC2CI3 SLP891

CYYC;2008-01-04 22:00;CYYC 042200Z 13008KT 30SM FEW042 FEW180 OVC250 04/M04 A2906 RMK CU1AC2CI2 SLP877

CYYC;2008-01-04 23:00;CYYC 042300Z 13014KT 30SM FEW044 SCT220 OVC250 03/M04 A2904 RMK CU1CI2CI2 SLP870

CYYC;2008-01-05 00:00;CYYC 050000Z 16013KT 30SM FEW044 BKN180 OVC210 03/M03 A2901 RMK CU1AC6CI1 SLP859

CYYC;2008-01-05 01:00;CYYC 050100Z 16011KT 15SM FEW150 BKN180 OVC220 02/M03 A2897 RMK AC2AC3CI2 SLP846

CYYC;2008-01-05 02:00;CYYC 050200Z 17010KT 15SM FEW180 BKN210 OVC240 02/M03 A2892 RMK AC2CI4CI2 SLP833

CYYC;2008-01-05 03:00;CYYC 050300Z 16005KT 15SM FEW150 OVC240 01/M03 A2889 RMK AC2CI6 SLP824

CYYC;2008-01-05 04:00;CYYC 050400Z 21004KT 15SM FEW150 OVC210 00/M03 A2888 RMK AC2CI6 SLP820

CYYC;2008-01-05 05:00;CYYC 050500Z 19008KT 15SM FEW160 OVC230 M00/M03 A2884 RMK AC2CI6 SLP808

CYYC;2008-01-05 06:00;CYYC 050600Z 13003KT 15SM FEW160 OVC220 M02/M04 A2883 RMK AC2CI5 SLP799

CYYC;2008-01-05 07:00;CYYC 050700Z 18006KT 15SM FEW180 FEW240 M02/M04 A2885 RMK AC1CI2 SLP803

CYYC;2008-01-05 08:00;CYYC 050800Z 22008KT 15SM FEW180 FEW220 M04/M05 A2882 RMK AC1CI1 SLP796

CYYC;2008-01-05 09:00;CYYC 050900Z 21008KT 15SM SCT140 M02/M05 A2882 RMK AC2 SLP792

CYYC;2008-01-05 10:00;CYYC 051000Z 23007KT 15SM FEW180 M02/M06 A2884 RMK AC2 SLP798

CYYC;2008-01-05 11:00;CYYC 051100Z 18012KT 15SM FEW180 M00/M06 A2885 RMK AC2 SLP800

CYYC;2008-01-05 12:00;CYYC 051200Z 21008KT 15SM FEW180 M04/M07 A2884 RMK AC1 SNOW COVER/ TRACE LOOSE/ AC TR SLP804

CYYC;2008-01-05 13:00;CYYC 051300Z 19009KT 15SM FEW220 M06/M08 A2885 RMK CI1 SLP807

CYYC;2008-01-05 14:00;CYYC 051400Z 21009KT 15SM SKC M05/M08 A2884 RMK SLP804

CYYC;2008-01-05 15:00;CYYC 051500Z 22012KT 30SM FEW030 FEW140 M01/M06 A2885 RMK SC1AC1 SLP806

CYYC;2008-01-05 16:00;CYYC 051600Z 19008KT 30SM FEW030 FEW140 FEW210 M00/M06 A2886 RMK SC1AC1CI1 DIST SH SW SLP808

CYYC;2008-01-05 17:00;CYYC 051700Z CCA 19010KT 30SM FEW030 FEW110 SCT210 01/M06 A2887 RMK CU1AC1CI1 DIST SH SW SLP810

CYYC;2008-01-05 18:00;CYYC 051800Z 20007KT 30SM FEW030 FEW110 BKN200 04/M06 A2888 RMK CU1AC2CI4 DIST SH SW SLP813

CYYC;2008-01-05 19:00;CYYC 051900Z 05005KT 30SM FEW030 FEW110 BKN180 04/M06 A2891 RMK CU1AC1AC6 DIST SH SW SLP821

CYYC;2008-01-05 19:31;CYYC 051931Z 26018G26KT 40SM FEW030 FEW110 BKN190 06/ RMK CU1AC1AC6 DIST SH SW / TCU ASOCTD / WSHFT 1921Z

CYYC;2008-01-05 20:00;CYYC 052000Z 27016G21KT 30SM FEW030 SCT180 BKN210 06/M09 A2891 RMK CU1AC3CS3 DIST SH SW / TCU ASOCTD SLP821

CYYC;2008-01-05 21:00;CYYC 052100Z 26011KT 30SM FEW030 BKN160 BKN210 05/M09 A2895 RMK CU1AC5CS2 DIST SH SW SLP833

CYYC;2008-01-05 22:00;CYYC 052200Z 27010G18KT 40SM FEW030 BKN170 BKN210 05/M10 A2897 RMK CU1AC6CS1 DIST SH SW / TCU ASOCTD SLP839

CYYC;2008-01-05 23:00;CYYC 052300Z 27014KT 40SM FEW035 BKN170 BKN210 04/M09 A2900 RMK CU1AC6CS1 DIST SH SW SLP849

CYYC;2008-01-06 00:00;CYYC 060000Z 26010KT 40SM FEW035 BKN160 BKN230 03/M10 A2903 RMK CU1AC7CI1 DIST SH SW SLP868

CYYC;2008-01-06 01:00;CYYC 060100Z 26005KT 20SM FEW040 BKN160 OVC230 01/M10 A2905 RMK SC1AC6CI1 DIST SH SW SLP874

CYYC;2008-01-06 02:00;CYYC 060200Z 24006KT 15SM OVC160 M01/M11 A2906 RMK AC7 SLP878

CYYC;2008-01-06 03:00;CYYC 060300Z 25004KT 15SM OVC150 M01/M12 A2908 RMK AC7 SLP887

CYYC;2008-01-06 04:00;CYYC 060400Z 23006KT 15SM OVC190 M03/M12 A2908 RMK AC7 SLP888

CYYC;2008-01-06 05:00;CYYC 060500Z 24006KT 15SM OVC170 M03/M12 A2908 RMK AC7 SLP889

CYYC;2008-01-06 06:00;CYYC 060600Z 23008KT 15SM BKN170 BKN250 M02/M11 A2909 RMK AC5CI1 SLP885

CYYC;2008-01-06 07:00;CYYC 060700Z 24005KT 15SM BKN150 BKN250 M03/M11 A2911 RMK AC2CI1 SLP891

CYYC;2008-01-06 08:00;CYYC 060800Z 26006KT 15SM BKN160 OVC230 M03/M10 A2911 RMK AC6CI2 SLP891

CYYC;2008-01-06 09:00;CYYC 060900Z 25005KT 15SM BKN160 OVC230 M03/M10 A2913 RMK AC6CI1 SLP898

CYYC;2008-01-06 10:00;CYYC 061000Z 28008KT 15SM BKN170 OVC220 M01/M11 A2914 RMK AC6CI1 SLP902

CYYC;2008-01-06 11:00;CYYC 061100Z 28012KT 15SM BKN160 OVC220 M00/M11 A2915 RMK AC6CI1 SLP904

CYYC;2008-01-06 12:00;CYYC 061200Z 27013KT 15SM BKN130 OVC220 M00/M12 A2915 RMK AC6CI1 SNOW COVER/ TRACE LOOSE SLP907

CYYC;2008-01-06 13:00;CYYC 061300Z 28014KT 15SM OVC140 M00/M12 A2917 RMK AC7 SLP913

CYYC;2008-01-06 14:00;CYYC 061400Z 25008KT 15SM BKN140 OVC160 M02/M12 A2919 RMK AC7AC1 SLP919

CYYC;2008-01-06 15:00;CYYC 061500Z CCA 25008KT 30SM BKN150 BKN230 M02/M13 A2920 RMK AC5CI1 SLP929

CYYC;2008-01-06 16:00;CYYC 061600Z 27010KT 40SM FEW040 BKN150 BKN230 M02/M13 A2921 RMK SC1AC5CI1 SLP933

CYYC;2008-01-06 17:00;CYYC 061700Z 25009KT 40SM FEW040 BKN150 BKN240 M01/M13 A2923 RMK SC1AC5CI1 SLP941

CYYC;2008-01-06 18:00;CYYC 061800Z 26010KT 40SM FEW040 BKN170 BKN230 M00/M12 A2925 RMK SC1AC5CI1 SLP947

CYYC;2008-01-06 19:00;CYYC 061900Z 28011G17KT 40SM FEW040 BKN160 BKN240 M01/M13 A2925 RMK SC1AC6CI1 VIRGA S-W SLP948

CYYC;2008-01-06 20:00;CYYC 062000Z 29011G17KT 40SM FEW040 SCT070 BKN160 01/M13 A2926 RMK SC1AC3AC3 VIRGA N SLP952

CYYC;2008-01-06 21:00;CYYC 062100Z CCA 31007KT 40SM FEW040 FEW070 BKN160 BKN250 01/M11 A2928 RMK CU1AC2AC3CI0 ACSL SLP959

CYYC;2008-01-06 22:00;CYYC 062200Z 27011KT 40SM FEW050 FEW070 FEW140 SCT240 03/M13 A2930 RMK CU1AC1AC1CI0 SLP965

CYYC;2008-01-06 23:00;CYYC 062300Z 26013KT 40SM FEW050 FEW090 FEW240 01/M14 A2933 RMK CU1AC1CI0 SLP972

CYYC;2008-01-07 00:00;CYYC 070000Z 25010KT 40SM FEW040 FEW110 FEW240 M02/M14 A2935 RMK SC1AC1CI1 SLP981

CYYC;2008-01-07 01:00;CYYC 070100Z CCA 26013KT 30SM FEW040 SCT088 SCT240 M02/M14 A2937 RMK SC1AC4CI1 SLP987

CYYC;2008-01-07 02:00;CYYC 070200Z 26012KT 15SM BKN088 BKN240 M02/M14 A2938 RMK AC6CI1 SLP990

CYYC;2008-01-07 03:00;CYYC 070300Z 27011G17KT 15SM BKN090 M02/M15 A2939 RMK AC6 SLP997

CYYC;2008-01-07 04:00;CYYC 070400Z 27009KT 15SM SCT090 M03/M15 A2940 RMK AC2 SLP001

CYYC;2008-01-07 05:00;CYYC 070500Z 28012G19KT 15SM FEW090 M03/M15 A2942 RMK AC1 SLP007

CYYC;2008-01-07 06:00;CYYC 070600Z 29010G15KT 15SM SKC M03/M15 A2943 RMK SLP013

CYYC;2008-01-07 07:00;CYYC 070700Z 27011G17KT 15SM FEW100 BKN160 M03/M15 A2945 RMK AC1AC2 SLP019

CYYC;2008-01-07 08:00;CYYC 070800Z 26014KT 15SM FEW060 BKN100 M03/M15 A2946 RMK SC1AC2 SLP023

CYYC;2008-01-07 09:00;CYYC 070900Z 27016KT 15SM BKN075 M03/M15 A2947 RMK AC5 SLP025

CYYC;2008-01-07 10:00;CYYC 071000Z 27015KT 15SM BKN075 M04/M16 A2950 RMK AC3 SLP032

CYYC;2008-01-07 11:00;CYYC 071100Z 28010G18KT 15SM BKN075 M03/M15 A2951 RMK AC6 VIRGA SLP036

CYYC;2008-01-07 12:00;CYYC 071200Z 28014G19KT 15SM OVC075 M03/M16 A2953 RMK AC7 SNOW COVER/TRACE LOOSE SLP048

CYYC;2008-01-07 13:00;CYYC 071300Z 27012G20KT 15SM BKN065 OVC085 M03/M15 A2955 RMK SC6AC2 VIRGA ALQDS SLP055

CYYC;2008-01-07 14:00;CYYC 071400Z 27011G18KT 15SM BKN065 BKN085 M03/M16 A2958 RMK SC4AC2 SLP064

CYYC;2008-01-07 15:00;CYYC 071500Z 29009KT 30SM SCT080 BKN120 M04/M15 A2961 RMK AC2AC2 SLP077

CYYC;2008-01-07 16:00;CYYC 071600Z 30007KT 40SM SCT095 BKN120 M04/M16 A2962 RMK AC2AC1 VIRGA SLP081

CYYC;2008-01-07 17:00;CYYC 071700Z CCA 00000KT 40SM BKN083 BKN120 M03/M15 A2964 RMK AC2AC1 SLP088

CYYC;2008-01-07 18:00;CYYC 071800Z CCA 28009KT 40SM BKN085 BKN120 M01/M15 A2965 RMK AC2AC1 SLP091

CYYC;2008-01-07 19:00;CYYC 071900Z 27008KT 40SM FEW085 FEW120 M00/M15 A2965 RMK AC1AC0 SLP091

CYYC;2008-01-07 20:00;CYYC 072000Z 26006KT 40SM FEW085 FEW120 00/M15 A2965 RMK AC1AC1 SLP091

CYYC;2008-01-07 21:00;CYYC 072100Z 25005KT 40SM FEW080 FEW140 FEW250 01/M15 A2966 RMK AC1AC1CI0 SLP091

CYYC;2008-01-07 22:00;CYYC 072200Z 23004KT 40SM FEW080 FEW140 FEW240 00/M15 A2968 RMK AC1AC1CI1 SLP096

CYYC;2008-01-07 23:00;CYYC 072300Z 00000KT 40SM FEW080 FEW240 00/M15 A2970 RMK AC1CI1 SLP102

CYYC;2008-01-08 00:00;CYYC 080000Z 00000KT 30SM FEW080 FEW240 M03/M16 A2971 RMK AC1CI1 SLP113

CYYC;2008-01-08 01:00;CYYC 080100Z 00000KT 15SM FEW240 M05/M16 A2972 RMK CI1 SLP116

CYYC;2008-01-08 02:00;CYYC 080200Z 26002KT 15SM SKC M05/M16 A2973 RMK SLP119

CYYC;2008-01-08 03:00;CYYC 080300Z 00000KT 15SM SKC M07/M16 A2973 RMK SLP129

CYYC;2008-01-08 04:00;CYYC 080400Z 36004KT 15SM SKC M11/M17 A2973 RMK SLP129

CYYC;2008-01-08 05:00;CYYC 080500Z 36004KT 15SM SKC M11/M17 A2974 RMK SLP130

CYYC;2008-01-08 06:00;CYYC 080600Z 32003KT 15SM SKC M13/M18 A2974 RMK SLP136

CYYC;2008-01-08 07:00;CYYC 080700Z 00000KT 15SM FEW220 M16/M19 A2973 RMK CI1 SLP133

CYYC;2008-01-08 08:00;CYYC 080800Z 00000KT 15SM SKC M13/M17 A2972 RMK SLP129

CYYC;2008-01-08 09:00;CYYC 080900Z 00000KT 15SM SKC M14/M17 A2971 RMK SLP123

CYYC;2008-01-08 10:00;CYYC 081000Z 23002KT 15SM SKC M12/M16 A2969 RMK SLP119

CYYC;2008-01-08 11:00;CYYC 081100Z 00000KT 15SM SKC M14/M17 A2968 RMK SLP115

CYYC;2008-01-08 12:00;CYYC 081200Z CCA 00000KT 15SM FEW180 M16/M18 A2967 RMK AC1 SNOW COVER/TRACE LOOSE SLP117

CYYC;2008-01-08 13:00;CYYC 081300Z 00000KT 15SM FEW240 M15/M18 A2966 RMK CI1 SLP114

CYYC;2008-01-08 14:00;CYYC 081400Z 00000KT 15SM BKN230 M15/M18 A2964 RMK CI0 SLP109

CYYC;2008-01-08 15:00;CYYC 081500Z 18002KT 20SM FEW200 BKN240 M14/M17 A2962 RMK CI1CI0 SLP103

CYYC;2008-01-08 16:00;CYYC 081600Z 24003KT 40SM FEW090 BKN200 BKN250 M13/M16 A2962 RMK AC1CI2CI0 SLP102

CYYC;2008-01-08 17:00;CYYC 081700Z 22002KT 40SM FEW085 BKN190 BKN250 M12/M14 A2959 RMK AC1AC5CI2 SLP094

CYYC;2008-01-08 18:00;CYYC 081800Z 21002KT 40SM FEW085 BKN190 BKN250 M09/M12 A2956 RMK AC1AC3CI2 SLP081

CYYC;2008-01-08 19:00;CYYC 081900Z 19003KT 40SM FEW085 BKN180 BKN250 M06/M12 A2953 RMK AC1AC3CI1 SLP072

CYYC;2008-01-08 20:00;CYYC 082000Z 20004KT 40SM FEW085 BKN180 BKN250 M04/M12 A2951 RMK AC1AC6CI1 LWR AC TR / VIRGA SLP066

CYYC;2008-01-08 21:00;CYYC 082100Z 20002KT 40SM FEW085 BKN180 BKN250 M03/M12 A2948 RMK AC1AC4CI1 LWR AC TR SLP051

CYYC;2008-01-08 22:00;CYYC 082200Z 20004KT 40SM FEW085 BKN180 BKN250 M04/M12 A2947 RMK AC1AC3CI1 LWR AC TR SLP047

CYYC;2008-01-08 23:00;CYYC 082300Z 17003KT 30SM FEW085 BKN180 BKN250 M05/M11 A2948 RMK AC1AC4CI1 SLP050

CYYC;2008-01-09 00:00;CYYC 090000Z 10004KT 30SM FEW085 BKN180 BKN250 M06/M12 A2947 RMK AC1AC4CI1 SLP051

CYYC;2008-01-09 01:00;CYYC 090100Z 21004KT 15SM FEW180 BKN250 M07/M12 A2948 RMK AC1CI0 SLP055

CYYC;2008-01-09 02:00;CYYC 090200Z 34003KT 15SM BKN130 M09/M13 A2949 RMK AC6 SLP057

CYYC;2008-01-09 03:00;CYYC 090300Z 00000KT 15SM SCT070 OVC100 M09/M12 A2949 RMK AC4AC4 SLP063

CYYC;2008-01-09 04:00;CYYC 090400Z 19004KT 15SM FEW065 SCT080 BKN130 M06/M12 A2949 RMK SC1AC3AC2 SLP062

CYYC;2008-01-09 05:00;CYYC 090500Z 29005KT 15SM FEW080 OVC120 M04/M13 A2949 RMK AC2AC6 SLP063

CYYC;2008-01-09 06:00;CYYC 090600Z 21004KT 15SM FEW080 OVC140 M06/M13 A2950 RMK AC2AC6 SLP053

CYYC;2008-01-09 07:00;CYYC 090700Z 33003KT 15SM BKN120 OVC180 M04/M13 A2951 RMK AC6AC2 SLP056

CYYC;2008-01-09 08:00;CYYC 090800Z 33008KT 15SM FEW140 SCT250 M05/M13 A2952 RMK AC1CI0 SLP059

CYYC;2008-01-09 09:00;CYYC 090900Z 32008KT 15SM FEW250 M07/M14 A2955 RMK CI0 SLP063

CYYC;2008-01-09 10:00;CYYC 091000Z 36008KT 15SM SKC M07/M14 A2958 RMK SLP073

CYYC;2008-01-09 11:00;CYYC 091100Z 35009KT 15SM FEW230 M08/M14 A2960 RMK CI1 SLP079

CYYC;2008-01-09 12:00;CYYC 091200Z 36004KT 15SM FEW250 M11/M16 A2963 RMK CI0 SNOW COVER/ TRACE LOOSE SLP103

CYYC;2008-01-09 13:00;CYYC 091300Z 00000KT 15SM FEW250 M13/M16 A2965 RMK CI1 SLP108

CYYC;2008-01-09 14:00;CYYC 091400Z 01004KT 15SM FEW085 FEW240 M14/M16 A2967 RMK AC1CI0 SLP116

CYYC;2008-01-09 15:00;CYYC 091500Z 36002KT 30SM FEW085 BKN250 M13/M16 A2970 RMK AC0CI0 SLP132

CYYC;2008-01-09 16:00;CYYC 091600Z 00000KT 40SM FEW085 FEW210 BKN260 M13/M16 A2972 RMK AC1CI0CI0 SLP139

CYYC;2008-01-09 17:00;CYYC 091700Z 00000KT 40SM FEW080 FEW210 BKN260 M10/M13 A2975 RMK AC1CI0CI0 SLP147

CYYC;2008-01-09 18:00;CYYC 091800Z 20003KT 40SM FEW080 FEW210 BKN260 M06/M13 A2976 RMK AC1CI0CI0 SLP141

CYYC;2008-01-09 19:00;CYYC 091900Z 00000KT 40SM FEW080 FEW210 FEW260 M03/M12 A2976 RMK AC1CI1CI0 SLP139

CYYC;2008-01-09 20:00;CYYC 092000Z 19003KT 40SM FEW080 FEW210 FEW260 M02/M12 A2975 RMK AC1CI1CI1 SLP138

CYYC;2008-01-09 21:00;CYYC 092100Z 20006KT 40SM FEW080 FEW260 M01/M12 A2975 RMK AC1CI1 SLP130

CYYC;2008-01-09 22:00;CYYC 092200Z 20007KT 30SM FEW080 FEW260 M01/M12 A2976 RMK AC1CI1 SLP133

CYYC;2008-01-09 23:00;CYYC 092300Z 18005KT 30SM FEW080 FEW260 M04/M12 A2977 RMK AC1CI1 SLP136

CYYC;2008-01-10 00:00;CYYC 100000Z 18006KT 30SM FEW084 BKN260 M06/M12 A2977 RMK AC1CI0 SLP151

CYYC;2008-01-10 01:00;CYYC 100100Z 17006KT 15SM FEW084 BKN260 M06/M11 A2978 RMK AC1CI0 SLP152

CYYC;2008-01-10 02:00;CYYC 100200Z 16003KT 15SM FEW140 SCT260 M07/M11 A2976 RMK AC1CI0 SLP146

CYYC;2008-01-10 03:00;CYYC 100300Z 15004KT 15SM FEW140 BKN250 M08/M11 A2974 RMK AC1CI1 SLP146

CYYC;2008-01-10 04:00;CYYC 100400Z 21008KT 15SM FEW140 SCT250 M08/M11 A2973 RMK AC1CI1 SLP141

CYYC;2008-01-10 05:00;CYYC 100500Z 27015KT 15SM FEW250 M02/M12 A2970 RMK CI0 SLP134

CYYC;2008-01-10 06:00;CYYC 100600Z 21004KT 15SM SKC M07/M13 A2969 RMK SLP116

CYYC;2008-01-10 07:00;CYYC 100700Z 16005KT 15SM SKC M06/M13 A2967 RMK SLP112

CYYC;2008-01-10 08:00;CYYC 100800Z 21004KT 15SM SKC M07/M13 A2966 RMK SLP109

CYYC;2008-01-10 09:00;CYYC 100900Z 21007KT 15SM SKC M09/M13 A2965 RMK SLP097

CYYC;2008-01-10 10:00;CYYC 101000Z 20004KT 15SM SKC M07/M14 A2961 RMK SLP084

CYYC;2008-01-10 11:00;CYYC 101100Z 20005KT 15SM FEW090 FEW220 M09/M14 A2959 RMK AC1CI0 SLP080

CYYC;2008-01-10 12:00;CYYC 101200Z 19002KT 15SM FEW110 SCT240 M10/M14 A2956 RMK AC1CI1 SNOW COVER/ TRACE LOOSE SLP073

CYYC;2008-01-10 13:00;CYYC 101300Z 21005KT 15SM FEW110 BKN230 M09/M13 A2952 RMK AC2CI3 SLP063

CYYC;2008-01-10 14:00;CYYC 101400Z 21004KT 12SM BKN028 OVC040 M06/M12 A2950 RMK SC6SC2 SLP057

CYYC;2008-01-10 14:11;CYYC 101411Z 23004KT 4SM -SN BKN020 OVC034 M06/ RMK SC7SC1

CYYC;2008-01-10 15:00;CYYC 101500Z 22002KT 15SM BKN064 BKN170 BKN250 M05/M09 A2947 RMK SC6AC1CI2 SLP038

CYYC;2008-01-10 16:00;CYYC 101600Z CCA 19006KT 30SM FEW046 BKN094 BKN170 BKN250 M05/M07 A2944 RMK CU1AC6AC1CI2 ACSL SW-W SLP030

CYYC;2008-01-10 17:00;CYYC 101700Z 18004KT 40SM FEW047 BKN110 BKN170 BKN250 M05/M08 A2943 RMK CU1AC6AC1CI1 ACSL S SLP028

CYYC;2008-01-10 18:00;CYYC 101800Z 21005KT 40SM FEW047 BKN088 BKN110 M04/M08 A2942 RMK CU1AC6AC1 SLP020

CYYC;2008-01-10 19:00;CYYC 101900Z 21006KT 40SM FEW047 BKN098 BKN120 M03/M07 A2940 RMK CU1AC6AC1 SLP014

CYYC;2008-01-10 20:00;CYYC 102000Z 27016KT 40SM FEW048 SCT098 BKN120 01/M11 A2940 RMK CU1AC4AC3 SLP012

CYYC;2008-01-10 21:00;CYYC 102100Z 27011G18KT 40SM FEW048 FEW097 BKN110 01/M12 A2939 RMK CU1AC2AC5 SLP004

CYYC;2008-01-10 22:00;CYYC 102200Z 28010G18KT 40SM FEW048 SCT082 BKN093 01/M12 A2941 RMK CU1AC3AC3 SLP008

CYYC;2008-01-10 23:00;CYYC 102300Z 33008KT 40SM FEW050 BKN062 BKN090 01/M12 A2942 RMK CU1SC5AC2 SLP014

CYYC;2008-01-11 00:00;CYYC 110000Z 27007KT 40SM FEW050 BKN062 00/M12 A2944 RMK SC1SC6 SLP025

CYYC;2008-01-11 01:00;CYYC 110100Z 28003KT 15SM FEW046 BKN068 M01/M12 A2946 RMK SC1AC7 SLP029

CYYC;2008-01-11 02:00;CYYC 110200Z 03005KT 15SM FEW068 SCT180 BKN220 M04/M10 A2947 RMK AC1AC3CI3 SLP032

CYYC;2008-01-11 03:00;CYYC 110300Z 35004KT 15SM SCT080 BKN170 OVC220 M05/M10 A2949 RMK AC3AC3CI1 VIRGA W SLP042

CYYC;2008-01-11 04:00;CYYC 110400Z 32002KT 15SM BKN082 OVC170 M05/M11 A2951 RMK AC6AC2 SLP048

CYYC;2008-01-11 05:00;CYYC 110500Z 35003KT 15SM BKN080 OVC170 M05/M11 A2952 RMK AC6AC2 SLP053

CYYC;2008-01-11 06:00;CYYC 110600Z 08003KT 15SM FEW085 BKN150 OVC220 M06/M11 A2954 RMK AC2AC4CI2 SLP061

CYYC;2008-01-11 07:00;CYYC 110700Z 00000KT 15SM SCT120 OVC220 M06/M10 A2955 RMK AC4CI3 SLP064

CYYC;2008-01-11 08:00;CYYC 110800Z 22002KT 15SM FEW140 SCT250 M05/M10 A2956 RMK AC2CI1 SLP067

CYYC;2008-01-11 09:00;CYYC 110900Z 00000KT 15SM FEW140 FEW250 M08/M11 A2958 RMK AC1CI0 SLP068

CYYC;2008-01-11 10:00;CYYC 111000Z 34004KT 15SM FEW240 M11/M14 A2960 RMK CI1 SLP074

CYYC;2008-01-11 11:00;CYYC 111100Z 00000KT 15SM FEW180 FEW220 M12/M14 A2961 RMK AC1CI1 BOTH CLDS TR SLP077

CYYC;2008-01-11 12:00;CYYC 111200Z 00000KT 15SM FEW180 FEW210 M11/M13 A2961 RMK AC1CI1 SNOW COVER/ TRACE LOOSE SLP085

CYYC;2008-01-11 13:00;CYYC 111300Z 36003KT 15SM FEW180 FEW210 M13/M14 A2963 RMK AC1CI1 SLP089

CYYC;2008-01-11 14:00;CYYC 111400Z 00000KT 15SM FEW150 FEW220 M12/M14 A2964 RMK AC1CI1 CI TR SLP093

CYYC;2008-01-11 15:00;CYYC 111500Z 14003KT 20SM FEW150 FEW240 M13/M15 A2964 RMK AC1CI0 SLP109

CYYC;2008-01-11 16:00;CYYC 111600Z 09004KT 40SM FEW160 FEW180 FEW230 M11/M13 A2967 RMK AC1AC1CI1 ACSL S + SW SLP117

CYYC;2008-01-11 17:00;CYYC 111700Z 00000KT 30SM FEW160 FEW180 FEW230 FEW270 M06/M10 A2970 RMK AC1AC1CI1CI0 SLP126

CYYC;2008-01-11 18:00;CYYC 111800Z 17002KT 40SM FEW160 FEW180 FEW230 M02/M09 A2972 RMK AC1AC1CI1 SLP120

CYYC;2008-01-11 19:00;CYYC 111900Z 19004KT 30SM FEW048 FEW170 FEW240 00/M09 A2972 RMK CU1AC1CI1 SLP121

CYYC;2008-01-11 20:00;CYYC 112000Z 19003KT 25SM FEW050 FEW170 FEW250 02/M08 A2973 RMK CU1AC1CI1 SLP123

CYYC;2008-01-11 21:00;CYYC 112100Z 21004KT 25SM FEW049 FEW170 FEW230 FEW260 03/M08 A2974 RMK SC1AC1CI1CI0 SLP120

CYYC;2008-01-11 22:00;CYYC 112200Z 18002KT 25SM FEW049 FEW180 FEW230 FEW260 03/M08 A2974 RMK SC1AC1CI1CI0 SLP122

CYYC;2008-01-11 23:00;CYYC 112300Z 18004KT 20SM FEW050 FEW160 SCT240 02/M09 A2977 RMK SC1AC1CI1 SLP130

CYYC;2008-01-12 00:00;CYYC 120000Z 18005KT 20SM FEW050 FEW160 FEW180 SCT240 M01/M10 A2979 RMK SC1AC1AC1CI0 SLP148

CYYC;2008-01-12 01:00;CYYC 120100Z 18005KT 15SM FEW150 M01/M10 A2980 RMK AC1 SLP150

CYYC;2008-01-12 02:00;CYYC 120200Z 22003KT 15SM BKN110 M02/M09 A2981 RMK AC4 SLP153

CYYC;2008-01-12 03:00;CYYC 120300Z 18002KT 15SM BKN100 BKN220 M02/M09 A2981 RMK AC3CI1 SLP161

CYYC;2008-01-12 04:00;CYYC 120400Z 29003KT 15SM FEW140 M01/M09 A2983 RMK AC2 SLP166

CYYC;2008-01-12 05:00;CYYC 120500Z 01003KT 15SM FEW140 M03/M10 A2984 RMK AC1 AC TR SLP171

CYYC;2008-01-12 06:00;CYYC 120600Z 35005KT 15SM SKC M05/M10 A2985 RMK SLP164

CYYC;2008-01-12 07:00;CYYC 120700Z 02004KT 15SM SKC M07/M11 A2987 RMK SLP170

CYYC;2008-01-12 08:00;CYYC 120800Z 05002KT 15SM SKC M07/M11 A2988 RMK SLP172

CYYC;2008-01-12 09:00;CYYC 120900Z 32002KT 15SM SKC M07/M11 A2988 RMK SLP169

CYYC;2008-01-12 10:00;CYYC 121000Z 31003KT 15SM SKC M01/M10 A2989 RMK SLP172

CYYC;2008-01-12 11:00;CYYC 121100Z 00000KT 15SM SKC M05/M11 A2989 RMK SLP173

CYYC;2008-01-12 12:00;CYYC 121200Z 21004KT 15SM SKC M04/M10 A2990 RMK SNOW COVER/ TRACE LOOSE SLP177

CYYC;2008-01-12 13:00;CYYC 121300Z 25002KT 15SM SKC M06/M11 A2989 RMK SLP176

CYYC;2008-01-12 14:00;CYYC 121400Z 32002KT 15SM SKC M05/M11 A2989 RMK SLP176

CYYC;2008-01-12 15:00;CYYC 121500Z 29005KT 40SM FEW240 FEW270 M03/M11 A2988 RMK CI1CI0 SLP172

CYYC;2008-01-12 16:00;CYYC 121600Z 17003KT 40SM FEW240 FEW260 M04/M11 A2988 RMK CI1CI0 SLP172

CYYC;2008-01-12 17:00;CYYC 121700Z 17004KT 40SM FEW240 FEW260 M02/M09 A2989 RMK CI1CI0 SLP173

CYYC;2008-01-12 18:00;CYYC 121800Z 21004KT 40SM FEW240 SCT260 01/M08 A2989 RMK CI1CI0 SLP173

CYYC;2008-01-12 19:00;CYYC 121900Z 22007KT 40SM FEW240 BKN260 03/M08 A2987 RMK CI1CI1 SLP168

CYYC;2008-01-12 20:00;CYYC 122000Z 21006KT 40SM FEW220 BKN260 04/M08 A2985 RMK CI1CI1 SLP161

CYYC;2008-01-12 21:00;CYYC 122100Z 19004KT 30SM FEW180 SCT250 05/M09 A2984 RMK AC1CI1 ACSL S-SW SLP154

CYYC;2008-01-12 22:00;CYYC 122200Z 16007KT 30SM FEW180 SCT250 04/M08 A2985 RMK AC1CI1 ACSL S-SW SLP155

CYYC;2008-01-12 23:00;CYYC 122300Z 15006KT 30SM FEW180 BKN250 02/M09 A2984 RMK AC1CI1 ACSL S-W SLP152

CYYC;2008-01-13 00:00;CYYC 130000Z 16006KT 30SM FEW180 SCT250 M01/M08 A2983 RMK AC1CI1 ACSL S-W SLP153

CYYC;2008-01-13 01:00;CYYC 130100Z 17007KT 15SM FEW170 FEW250 M02/M08 A2982 RMK AC1CI1 ACSL SW SLP152

CYYC;2008-01-13 02:00;CYYC 130200Z 18003KT 15SM FEW170 M03/M07 A2982 RMK AC1 SLP151

CYYC;2008-01-13 03:00;CYYC 130300Z 18004KT 15SM FEW100 FEW150 M04/M08 A2982 RMK AC1AC1 SLP153

CYYC;2008-01-13 04:00;CYYC 130400Z 23005KT 15SM BKN089 BKN092 01/M08 A2982 RMK AC6AC2 SLP153

CYYC;2008-01-13 05:00;CYYC 130500Z 27012G17KT 15SM SCT090 BKN150 BKN240 03/M08 A2982 RMK AC3AC2CI0 SLP152

CYYC;2008-01-13 06:00;CYYC 130600Z 30010KT 15SM FEW150 03/M08 A2985 RMK AC1 SLP147

CYYC;2008-01-13 07:00;CYYC 130700Z 32007KT 15SM FEW150 SCT220 01/M09 A2988 RMK AC2CI1 SLP158

CYYC;2008-01-13 08:00;CYYC 130800Z 27014KT 15SM SCT120 BKN220 03/M09 A2990 RMK AC2CI1 SLP164

CYYC;2008-01-13 09:00;CYYC 130900Z 30012G19KT 15SM FEW150 FEW250 03/M09 A2992 RMK AC1CI0 SLP167

CYYC;2008-01-13 10:00;CYYC 131000Z 32008KT 15SM FEW150 FEW230 01/M09 A2993 RMK AC1CI1 SLP170

CYYC;2008-01-13 11:00;CYYC 131100Z 28016G21KT 15SM FEW150 FEW220 03/M09 A2995 RMK AC1CI1 AC+CI TR SLP175

CYYC;2008-01-13 12:00;CYYC 131200Z 28015KT 15SM SKC 03/M09 A2997 RMK SNOW COVER/ TRACE LOOSE SLP192

CYYC;2008-01-13 13:00;CYYC 131300Z 28011KT 15SM SKC 03/M09 A2998 RMK SLP196

CYYC;2008-01-13 14:00;CYYC 131400Z 27011G16KT 15SM SKC 03/M09 A3000 RMK SLP200

CYYC;2008-01-13 15:00;CYYC 131500Z 28008KT 40SM FEW180 FEW240 03/M09 A3001 RMK AC1CI0 SLP210

CYYC;2008-01-13 16:00;CYYC 131600Z 32006KT 40SM FEW180 FEW240 01/M09 A3003 RMK AC1CI0 SLP216

CYYC;2008-01-13 17:00;CYYC 131700Z 04002KT 40SM FEW160 FEW180 BKN260 01/M08 A3005 RMK AC1AC1CI1 SLP221

CYYC;2008-01-13 18:00;CYYC 131800Z 16002KT 40SM FEW190 FEW220 SCT260 05/M08 A3007 RMK AC1CC0CI1 SLP217

CYYC;2008-01-13 19:00;CYYC 131900Z 23006KT 40SM FEW190 BKN250 07/M08 A3008 RMK AC1CI1 SLP220

CYYC;2008-01-13 20:00;CYYC 132000Z 19007KT 40SM FEW170 FEW220 BKN260 07/M08 A3006 RMK AC1CC1CI2 SLP216

CYYC;2008-01-13 21:00;CYYC 132100Z 18005KT 40SM FEW120 FEW170 BKN250 06/M09 A3007 RMK AC1AC2CI2 SLP218

CYYC;2008-01-13 22:00;CYYC 132200Z 28003KT 40SM FEW130 FEW170 BKN250 05/M08 A3008 RMK AC1AC2CI2 SLP221

CYYC;2008-01-13 23:00;CYYC 132300Z 25004KT 40SM FEW050 FEW170 BKN250 04/M08 A3008 RMK CU1AC1CI2 SLP222

CYYC;2008-01-14 00:00;CYYC 140000Z 21006KT 40SM FEW049 FEW180 BKN250 00/M08 A3008 RMK CU1AC2CI1 SLP230

CYYC;2008-01-14 01:00;CYYC 140100Z 08004KT 15SM FEW170 BKN240 M01/M08 A3006 RMK AC1CI2 SLP224

CYYC;2008-01-14 02:00;CYYC 140200Z 16002KT 15SM FEW170 BKN230 01/M07 A3005 RMK AC1CI6 SLP220

CYYC;2008-01-14 03:00;CYYC 140300Z CCA 20007KT 15SM OVC180 02/M08 A3003 RMK AC7 SLP209

CYYC;2008-01-14 04:00;CYYC 140400Z 20006KT 15SM FEW070 OVC180 M00/M08 A3003 RMK CU1AC6 SLP208

CYYC;2008-01-14 05:00;CYYC 140500Z 23017KT 15SM FEW100 BKN180 04/M08 A2999 RMK AC1AC5 SLP198

CYYC;2008-01-14 06:00;CYYC 140600Z 21010G15KT 15SM FEW120 BKN180 03/M08 A2999 RMK AC1AC4 SLP189

CYYC;2008-01-14 07:00;CYYC 140700Z 18006KT 15SM SCT180 BKN250 M00/M08 A2995 RMK AC3CI1 SLP179

CYYC;2008-01-14 08:00;CYYC 140800Z 17003KT 15SM SCT180 BKN250 M00/M08 A2994 RMK AC2CI0 SLP174

CYYC;2008-01-14 09:00;CYYC 140900Z 20006KT 15SM FEW180 BKN250 M03/M09 A2991 RMK AC2CI0 SLP170

CYYC;2008-01-14 10:00;CYYC 141000Z 21005KT 15SM FEW180 BKN250 M01/M09 A2989 RMK AC1CI1 AC TR SLP164

CYYC;2008-01-14 11:00;CYYC 141100Z 15006KT 15SM FEW180 BKN250 M00/M08 A2987 RMK AC1CI4 SLP158

CYYC;2008-01-14 12:00;CYYC 141200Z 18007KT 15SM FEW180 BKN250 M03/M08 A2985 RMK AC2CI4 SNOW COVER/TRACE LOOSE SLP156

CYYC;2008-01-14 13:00;CYYC 141300Z 18008KT 15SM BKN250 M03/M08 A2981 RMK CI6 SLP145

CYYC;2008-01-14 14:00;CYYC 141400Z 15005KT 15SM FEW180 BKN240 01/M08 A2979 RMK AC1CI4 SLP139

CYYC;2008-01-14 15:00;CYYC 141500Z 18007KT 20SM FEW080 FEW180 BKN260 01/M09 A2977 RMK AC1AC1CI2 SLP120

CYYC;2008-01-14 16:00;CYYC 141600Z 18006KT 40SM FEW085 FEW180 BKN260 02/M09 A2975 RMK AC1AC1CI2 SLP115

CYYC;2008-01-14 17:00;CYYC 141700Z 20008KT 40SM FEW085 FEW180 BKN260 03/M08 A2974 RMK AC1AC1CI2 SLP113

CYYC;2008-01-14 18:00;CYYC 141800Z 19006KT 40SM FEW085 FEW180 BKN260 05/M07 A2971 RMK AC1AC1CI2 SLP091

CYYC;2008-01-14 19:00;CYYC 141900Z 20008KT 40SM FEW085 FEW180 BKN260 08/M06 A2966 RMK AC1AC1CI2 SLP076

CYYC;2008-01-14 20:00;CYYC 142000Z 18004KT 40SM FEW085 FEW180 BKN260 08/M06 A2963 RMK AC1AC2CI3 SLP066

CYYC;2008-01-14 21:00;CYYC 142100Z 16002KT 40SM FEW090 FEW160 BKN260 08/M06 A2957 RMK AC1AC2CI2 SLP047

CYYC;2008-01-14 22:00;CYYC 142200Z 18005KT 30SM FEW090 FEW160 BKN260 10/M07 A2954 RMK AC1AC1CI2 SLP038

CYYC;2008-01-14 23:00;CYYC 142300Z 34005KT 10SM FEW090 BKN160 BKN260 06/M07 A2950 RMK AC1AC2CI2 SLP025

CYYC;2008-01-15 00:00;CYYC 150000Z 34008KT 30SM FEW090 BKN160 BKN260 03/M06 A2946 RMK AC1AC2CI2 SLP018

CYYC;2008-01-15 01:00;CYYC 150100Z 24019G28KT 10SM BKN160 10/M07 A2941 RMK AC4 SLP002

CYYC;2008-01-15 02:00;CYYC 150200Z 17009KT 15SM OVC160 07/M07 A2938 RMK AC6 SLP993

CYYC;2008-01-15 03:00;CYYC 150300Z 18013G18KT 15SM OVC160 06/M05 A2936 RMK AC6 SLP972

CYYC;2008-01-15 04:00;CYYC 150400Z 19003KT 15SM OVC160 06/M06 A2935 RMK AC7 SLP969

CYYC;2008-01-15 05:00;CYYC 150500Z 24011G17KT 15SM BKN160 05/M05 A2934 RMK AC6 SLP968

CYYC;2008-01-15 06:00;CYYC 150600Z 26008KT 15SM SCT120 03/M06 A2935 RMK AC2 SLP966

CYYC;2008-01-15 06:18;CYYC 150618Z CCB 33037G46KT 2 1/2SM BR BKN040 02/ RMK SC6 WSHFT 0618

CYYC;2008-01-15 06:32;CYYC 150632Z 34023G38KT 3SM BR BKN060 M00/ RMK SC6

CYYC;2008-01-15 07:00;CYYC 150700Z CCB 34030G37KT 3SM BLDU BKN020 BKN040 M01/M07 A2949 RMK SC3SC3 PRESRR SLP009

CYYC;2008-01-15 07:25;CYYC 150725Z 33029G40KT 3SM -SN BKN025 OVC040 M02/ RMK SC4SC3

CYYC;2008-01-15 08:00;CYYC 150800Z 34028G37KT 8SM -SN SCT025 OVC040 M03/M09 A2953 RMK SC3SC5 SLP022

CYYC;2008-01-15 09:00;CYYC 150900Z 34029G42KT 8SM -SN BKN040 OVC075 M04/M09 A2955 RMK SC4AC4 SLP043

CYYC;2008-01-15 10:00;CYYC 151000Z 33027G38KT 8SM -SN FEW020 OVC055 M05/M10 A2962 RMK CF1SC8 PRESRR SLP064

CYYC;2008-01-15 11:00;CYYC 151100Z 33031G38KT 15SM -SN FEW020 OVC055 M05/M11 A2967 RMK CF1SC8 PRESRR SLP079

CYYC;2008-01-15 12:00;CYYC 151200Z CCA 33029G42KT 15SM -SN OVC070 M06/M13 A2974 RMK AC8 PRESRR/SNOW COVER/TRACELOOSE SLP118

CYYC;2008-01-15 13:00;CYYC 151300Z 33028G41KT 15SM OVC080 M06/M14 A2981 RMK AC8 PRESRR SLP141

CYYC;2008-01-15 14:00;CYYC 151400Z 34025G31KT 15SM BKN100 OVC240 M07/M14 A2987 RMK AC5CI0 SLP159

CYYC;2008-01-15 15:00;CYYC 151500Z 33021G26KT 20SM FEW100 SCT240 M08/M14 A2993 RMK AC1CI0 SLP184

CYYC;2008-01-15 16:00;CYYC 151600Z 33016G21KT 40SM FEW100 FEW240 M08/M14 A2999 RMK AC0CI1 SLP201

CYYC;2008-01-15 17:00;CYYC 151700Z 33017KT 40SM FEW100 M07/M14 A3001 RMK AC1 SLP209

CYYC;2008-01-15 18:00;CYYC 151800Z 34015G21KT 40SM FEW100 M06/M15 A3005 RMK AC1 SLP226

CYYC;2008-01-15 19:00;CYYC 151900Z 33018KT 40SM FEW045 FEW100 M05/M15 A3006 RMK SC1AC1 SLP229

CYYC;2008-01-15 20:00;CYYC 152000Z 34016G24KT 40SM FEW045 FEW090 FEW240 M05/M16 A3007 RMK SC1AC1CI0 SLP233

CYYC;2008-01-15 21:00;CYYC 152100Z 35019G24KT 40SM FEW045 FEW090 FEW240 M05/M16 A3009 RMK SC1AC0CI1 SLP249

CYYC;2008-01-15 22:00;CYYC 152200Z 36019G27KT 20SM FEW045 BKN090 BKN240 M06/M16 A3011 RMK SC1AC0CI1 VIRGA SW SLP257

CYYC;2008-01-15 23:00;CYYC 152300Z 01015G21KT 30SM FEW045 FEW080 M07/M16 A3013 RMK SC1AC0 SLP261

CYYC;2008-01-16 00:00;CYYC 160000Z 36013G19KT 30SM FEW035 FEW080 M09/M16 A3016 RMK SC1AC1 SLP281

CYYC;2008-01-16 02:00;CYYC 160200Z 34007KT 15SM FEW085 M13/M17 A3021 RMK AC1 SLP296

CYYC;2008-01-16 03:00;CYYC 160300Z 27002KT 15SM SKC M11/M16 A3023 RMK SLP313

CYYC;2008-01-16 04:00;CYYC 160400Z 29004KT 15SM SKC M12/M17 A3025 RMK SLP318

CYYC;2008-01-16 05:00;CYYC 160500Z 24006KT 15SM SKC M13/M17 A3025 RMK SLP318

CYYC;2008-01-16 06:00;CYYC 160600Z 23005KT 15SM SKC M13/M18 A3024 RMK SLP318

CYYC;2008-01-16 07:00;CYYC 160700Z 22004KT 15SM SKC M13/M18 A3023 RMK SLP315

CYYC;2008-01-16 08:00;CYYC 160800Z 21005KT 15SM SKC M15/M18 A3021 RMK SLP308

CYYC;2008-01-16 09:00;CYYC 160900Z 23007KT 15SM SKC M13/M17 A3020 RMK SLP303

CYYC;2008-01-16 10:00;CYYC 161000Z 17003KT 15SM SKC M15/M17 A3018 RMK SLP297

CYYC;2008-01-16 11:00;CYYC 161100Z 21005KT 15SM SKC M16/M18 A3017 RMK SLP292

CYYC;2008-01-16 12:00;CYYC 161200Z 20006KT 15SM SKC M17/M19 A3017 RMK SNOW COVER/ TRACE LOOSE SLP303

CYYC;2008-01-16 13:00;CYYC 161300Z 20006KT 15SM SKC M17/M19 A3013 RMK SLP290

CYYC;2008-01-16 14:00;CYYC 161400Z 19006KT 15SM SKC M15/M18 A3011 RMK SLP285

CYYC;2008-01-16 15:00;CYYC 161500Z 20002KT 30SM FEW080 BKN240 M13/M18 A3010 RMK AC1CI0 SLP275

CYYC;2008-01-16 16:00;CYYC 161600Z 20004KT 40SM BKN075 BKN200 BKN250 M12/M17 A3009 RMK AC1CI0CI0 SLP273

CYYC;2008-01-16 17:00;CYYC 161700Z 23008KT 40SM BKN053 BKN200 M09/M15 A3006 RMK SC7CI1 SLP263

CYYC;2008-01-16 18:00;CYYC 161800Z 23011KT 40SM BKN056 BKN200 M07/M16 A3005 RMK SC6CI1 SLP250

CYYC;2008-01-16 19:00;CYYC 161900Z 22010KT 40SM BKN054 BKN200 M06/M16 A3000 RMK SC2CI0 SLP236

CYYC;2008-01-16 20:00;CYYC 162000Z 23006KT 40SM BKN058 BKN200 M03/M15 A2997 RMK SC6CI0 SLP228

CYYC;2008-01-16 21:00;CYYC 162100Z 26008KT 40SM FEW058 FEW090 BKN200 M00/M13 A2994 RMK SC1AC1CI2 SLP204

CYYC;2008-01-16 22:00;CYYC 162200Z 30011KT 40SM BKN040 BKN090 BKN200 01/M11 A2995 RMK SC7AC1CI1 SLP209

CYYC;2008-01-16 23:00;CYYC 162300Z 29007KT 40SM BKN035 BKN080 OVC200 01/M10 A2995 RMK SC6AC1CI1 SLP209

CYYC;2008-01-17 00:00;CYYC 170000Z 27007KT 40SM BKN056 BKN077 OVC200 00/M11 A2992 RMK SC6AC1CI1 SLP204

CYYC;2008-01-17 01:00;CYYC 170100Z 26013KT 15SM FEW060 BKN070 OVC200 00/M11 A2990 RMK SC1AC2CI0 SLP198

CYYC;2008-01-17 02:00;CYYC 170200Z 25011KT 15SM BKN063 BKN075 M00/M11 A2988 RMK SC6AC1 SLP192

CYYC;2008-01-17 03:00;CYYC 170300Z 27014G19KT 15SM BKN048 OVC065 01/M11 A2985 RMK SC5SC3 SLP172

CYYC;2008-01-17 04:00;CYYC 170400Z 29011G16KT 15SM BKN041 OVC066 02/M10 A2986 RMK SC6AC2 VIRGA S-W SLP174

CYYC;2008-01-17 05:00;CYYC 170500Z 31008KT 15SM BKN036 BKN057 OVC068 01/M10 A2985 RMK SC5SC2AC2 VIRGA W SLP172

CYYC;2008-01-17 06:00;CYYC 170600Z 34009KT 15SM BKN042 OVC067 M00/M09 A2987 RMK SC6AC2 SLP170

CYYC;2008-01-17 07:00;CYYC 170700Z 32007KT 15SM SCT060 OVC086 M01/M08 A2985 RMK SC4AC4 SLP164

CYYC;2008-01-17 08:00;CYYC 170800Z 31008KT 15SM BKN050 OVC074 00/M08 A2984 RMK SC5AC3 SLP161

CYYC;2008-01-17 09:00;CYYC 170900Z 28007KT 15SM SCT060 BKN160 BKN250 M00/M10 A2980 RMK SC1AC1CI0 SLP136

CYYC;2008-01-17 10:00;CYYC 171000Z 23004KT 15SM BKN072 OVC160 M01/M10 A2979 RMK AC7AC1 SLP133

CYYC;2008-01-17 11:00;CYYC 171100Z 19006KT 15SM OVC072 M02/M10 A2977 RMK AC8 SLP129

CYYC;2008-01-17 12:00;CYYC 171200Z 05003KT 15SM OVC087 M00/M09 A2977 RMK AC8 SNOW COVER/ TRACE LOOSE SLP124

CYYC;2008-01-17 13:00;CYYC 171300Z CCA 33007KT 15SM BKN036 BKN054 OVC080 01/M09 A2978 RMK SC5SC2AC2 VIRGA ALQADS SLP129

CYYC;2008-01-17 14:00;CYYC 171400Z 32010G17KT 12SM FEW036 SCT065 OVC090 01/M04 A2983 RMK SC2SC2AC4 VIRGA ALQDS SLP143

CYYC;2008-01-17 14:51;CYYC 171451Z CCA 32014KT 6SM -SN FEW030 BKN065 BKN100 01/ RMK SC2SC2AC2 PCPN VRY LGT

CYYC;2008-01-17 15:00;CYYC 171500Z 32018G24KT 2 1/2SM -SN FEW010 SCT020 BKN080 OVC100 M00/M02 A2987 RMK SC1SC3AC2AC2 SLP159

CYYC;2008-01-17 15:04;CYYC 171504Z 35023G31KT 1SM -SN FEW002 BKN020 OVC080 M01/ RMK SC2SC3AC2 RVR RWY34 5000FT

CYYC;2008-01-17 15:08;CYYC 171508Z CCA 34019G31KT 3/4SM -SN BKN002 OVC020 M01/ RMK SC5SC3 RVR RWY34 4500FT

CYYC;2008-01-17 15:15;CYYC 171515Z 35015G25KT 1 1/4SM -SN FEW002 BKN005 OVC020 M01/ RMK SC2SC2SC3

CYYC;2008-01-17 15:21;CYYC 171521Z 35017G24KT 2 1/2SM -SN FEW002 BKN005 OVC020 M01/ RMK SC2SC4SC2

CYYC;2008-01-17 15:44;CYYC 171544Z 34016G21KT 5SM -SN FEW005 BKN012 OVC030 M02/ RMK SC2SC4SC2 PCPN VRY LGT

CYYC;2008-01-17 16:00;CYYC 171600Z 34015G20KT 7SM -SN FEW015 BKN020 OVC030 M02/M03 A2990 RMK SC2SC4SC2 VIS SW-NW 2/FROIN SLP169

CYYC;2008-01-17 16:10;CYYC 171610Z 33017G24KT 7SM -SN SCT012 BKN020 BKN032 OVC080 M02/ RMK SC4SC2SC2AC1

CYYC;2008-01-17 16:20;CYYC 171620Z 33017G24KT 2SM -SN BKN011 BKN020 OVC080 M02/ RMK SC5SC2AC1 VIS N-NE 4/VIS VRB SW 2-5

CYYC;2008-01-17 16:34;CYYC 171634Z 32017KT 12SM -SN FEW008 BKN010 OVC020 M02/ RMK SC2SC5SC2 PCPN VRY LGT

CYYC;2008-01-17 16:46;CYYC 171646Z 33016KT 25SM FEW006 FEW008 FEW020 OVC095 M02/ RMK CF1SC1SC1AC6

CYYC;2008-01-17 17:00;CYYC 171700Z 33018KT 25SM FEW006 FEW010 OVC080 M02/M04 A2994 RMK CF1SC1AC8 SLP180

CYYC;2008-01-17 18:00;CYYC 171800Z 33016G21KT 25SM FEW012 FEW025 FEW060 BKN080 M01/M04 A2996 RMK SC1SC1SC2AC6 CF ASOCTD SLP195

CYYC;2008-01-17 19:00;CYYC 171900Z 32017KT 25SM FEW025 FEW080 BKN120 M00/M04 A2998 RMK SC1AC1AC6 CF ASOCTD SLP199

CYYC;2008-01-17 20:00;CYYC 172000Z 33020G28KT 25SM SCT026 SCT100 BKN120 M01/M05 A2998 RMK SC3AC1AC2 SLP201

CYYC;2008-01-17 21:00;CYYC 172100Z 33017KT 25SM FEW028 BKN130 M00/M05 A2998 RMK SC2AC6 DIST SH N-SE SLP201

CYYC;2008-01-17 22:00;CYYC 172200Z 34013G19KT 25SM FEW030 SCT070 BKN120 M01/M05 A3001 RMK SC1AC3AC3 SLP209

CYYC;2008-01-17 22:48;CYYC 172248Z 34016G22KT 15SM -SN BKN035 OVC060 M02/ RMK SC7SC1 PCPN VRY LGT

CYYC;2008-01-17 23:00;CYYC 172300Z 33019KT 5SM -SN BKN035 OVC060 M02/M04 A3003 RMK SC7SC1 SLP215

CYYC;2008-01-17 23:08;CYYC 172308Z 33018KT 1 1/2SM -SN FEW011 OVC036 M02/ RMK SC1SC7

CYYC;2008-01-17 23:17;CYYC 172317Z 33020KT 3/4SM -SN SCT009 BKN020 OVC036 M03/ RMK SC4SC2SC2

CYYC;2008-01-17 23:23;CYYC 172323Z 33015G24KT 1 1/2SM -SN BKN008 OVC036 M03/ RMK SC6SC2

CYYC;2008-01-17 23:48;CYYC 172348Z 33017G22KT 6SM -SN SCT009 OVC030 M03/ RMK SC3SC5 PCN VRY LGT

CYYC;2008-01-18 00:00;CYYC 180000Z 34018KT 15SM -SN FEW020 SCT032 OVC060 M03/M05 A3005 RMK SC2SC2SC4 PCPN VRY LGT SLP226

CYYC;2008-01-18 01:00;CYYC 180100Z 34012KT 8SM -SN SCT015 BKN025 OVC060 M03/M04 A3007 RMK SC3SC3SC1 SLP232

CYYC;2008-01-18 01:18;CYYC 180118Z 34007KT 15SM FEW020 SCT050 OVC070 M03/ RMK SC2SC2AC3

CYYC;2008-01-18 01:50;CYYC 180150Z 35009KT 7SM -SN SCT015 OVC020 M03/ RMK SC3SC5

CYYC;2008-01-18 02:00;CYYC 180200Z 35010KT 3SM -SN FEW009 SCT015 OVC020 M03/M04 A3009 RMK SC1SC3SC5 SLP238

CYYC;2008-01-18 02:20;CYYC 180220Z 03004KT 1 1/2SM -SN FEW009 SCT015 OVC022 M04/ RMK SC2SC2SC4

CYYC;2008-01-18 03:00;CYYC 180300Z 34011KT 5SM -SN FEW017 BKN038 OVC075 M04/M05 A3010 RMK SC1SC6AC2 /S01/ SLP245

CYYC;2008-01-18 04:00;CYYC 180400Z 33008KT 5SM -SN FEW020 BKN058 OVC085 M04/M05 A3011 RMK SC1SC6AC1 SLP248

CYYC;2008-01-18 05:00;CYYC 180500Z 31009KT 12SM -SN BKN030 BKN043 OVC080 M04/M05 A3011 RMK SC5SC2AC1 SN VRY LGT SLP249

CYYC;2008-01-18 05:18;CYYC 180518Z CCA 33012KT 1SM -SN BKN008 OVC020 M04/ RMK SN6SC2SC1 RVR RWY34 6000 FT

CYYC;2008-01-18 05:29;CYYC 180529Z 34012G22KT 5/8SM -SN DRSN VV005 M04/ RMK SN8 RVR RWY34 2800 FT

CYYC;2008-01-18 05:35;CYYC 180535Z 35016G22KT 3/8SM SN DRSN VV005 M04/ RMK SN8 RVR RWY34 2800 FT

CYYC;2008-01-18 05:37;CYYC 180537Z CCA 36019KT 1/8SM +SN DRSN VV003 M04/ RMK SN8 RVR RWY34 2800 FT

CYYC;2008-01-18 05:50;CYYC 180550Z 35015G20KT 3/8SM SN DRSN VV005 M04/ RESN RMK SN8 RVR RWY16 3000 FT

CYYC;2008-01-18 06:00;CYYC 180600Z 36015KT 1/8SM +SN +BLSN VV004 M04/M04 A3013 RMK SN8 /S03/ RVR RWY16 2600 FT SLP260

CYYC;2008-01-18 06:28;CYYC 180628Z 35014G19KT 3/4SM -SN BLSN BKN010 OVC026 M04/ RESN RMK SN4SC2SC2 RVR RWY16 6000 FT

CYYC;2008-01-18 06:47;CYYC 180647Z 35010KT 5/8SM -SN BKN007 OVC019 M04/ RESN REBLSN RMK SN5SC2SC1 RVR RWY16 3000 FT

CYYC;2008-01-18 07:00;CYYC 180700Z 35017KT 5/8SM -SN DRSN BKN008 OVC019 M04/M05 A3016 RESN REBLSN RMK SN6SC2SC1 RVR RWY16 5000 FT SLP267

CYYC;2008-01-18 07:20;CYYC 180720Z 34011G17KT 1/8SM +SN +BLSN VV003 M04/ RMK SN8 RVR RWY16 5000 FT

CYYC;2008-01-18 07:50;CYYC 180750Z 02023KT 3/8SM SN BLSN VV007 M05/ RESN RMK SN8

CYYC;2008-01-18 08:00;CYYC 180800Z 02019G26KT 5/8SM -SN BLSN BKN009 OVC031 M06/M07 A3021 RESN RMK SN4SC3SC1 SLP282

CYYC;2008-01-18 08:25;CYYC 180825Z 01016G22KT 1SM -SN BLSN BKN012 OVC030 M08/ RMK SN3SC3SC2 RVR

CYYC;2008-01-18 08:45;CYYC 180845Z 03015KT 3SM -SN DRSN BKN021 OVC066 M08/ REBLSN RMK SC6AC2

CYYC;2008-01-18 09:00;CYYC 180900Z 02017KT 4SM -SN DRSN FEW006 BKN029 OVC070 M10/M10 A3025 REBLSN RMK SC2SC4AC2 /S02/ SLP305

CYYC;2008-01-18 10:00;CYYC 181000Z 03008KT 8SM -SN OVC007 M11/M12 A3028 RMK SC8 SLP315

CYYC;2008-01-18 11:00;CYYC 181100Z 36007KT 6SM -SN FEW009 OVC024 M12/M13 A3029 RMK SC2SC6 /S03/ SN VRY LGT SLP320

CYYC;2008-01-18 12:00;CYYC 181200Z 00000KT 8SM -SN OVC020 M11/M13 A3031 RMK SC8 SNOW COVER/ MUCH LOOSE SLP335

CYYC;2008-01-18 13:00;CYYC 181300Z 33005KT 8SM -SN FEW013 OVC015 M11/M13 A3031 RMK SC2SC6 SN VRY LGT SLP335

CYYC;2008-01-18 14:00;CYYC 181400Z 31003KT 7SM -SN FEW017 OVC021 M10/M13 A3030 RMK SC1SC7 SLP333

CYYC;2008-01-18 15:00;CYYC 181500Z 00000KT 8SM -SN OVC017 M10/M12 A3030 RMK SC8 PCPN VRY LGT SLP331

CYYC;2008-01-18 16:00;CYYC 181600Z 23004KT 25SM -SN OVC017 M09/M11 A3029 RMK SC8 PCPN VRY LGT SLP329

CYYC;2008-01-18 17:00;CYYC 181700Z 21003KT 25SM -SN OVC021 M09/M11 A3029 RMK SC8 PCPN VRY LGT SLP327

CYYC;2008-01-18 18:00;CYYC 181800Z 19007KT 25SM -SN FEW014 OVC019 M08/M10 A3027 RMK SC1SC8 PCPN VRY LGT SLP320

CYYC;2008-01-18 19:00;CYYC 181900Z 23006KT 40SM -SN FEW011 OVC016 M08/M10 A3025 RMK SC1SC7 PCPN VRY LGT SLP313

CYYC;2008-01-18 19:25;CYYC 181925Z 22006KT 40SM FEW011 BKN018 M08/ RMK SC1SC6

CYYC;2008-01-18 20:00;CYYC 182000Z 19005KT 40SM FEW018 BKN080 BKN100 M07/M10 A3022 RMK SC1AC5AC1 SLP302

CYYC;2008-01-18 21:00;CYYC 182100Z 18008KT 30SM BKN080 OVC100 M07/M10 A3019 RMK AC5AC2 SLP294

CYYC;2008-01-18 22:00;CYYC 182200Z 20011KT 30SM FEW080 FEW095 BKN120 M07/M11 A3015 RMK AC1AC1AC0 SLP283

CYYC;2008-01-18 23:00;CYYC 182300Z 19008KT 40SM FEW060 FEW075 BKN120 BKN260 M08/M11 A3013 RMK SC1AC2AC1CI0 SLP277

CYYC;2008-01-19 00:00;CYYC 190000Z 18007KT 30SM FEW056 FEW090 SCT120 BKN140 M08/M11 A3011 RMK SC1AC1AC2AC3 SLP271

CYYC;2008-01-19 01:00;CYYC 190100Z 18006KT 15SM FEW050 BKN080 BKN140 M09/M11 A3009 RMK SC1AC6AC1 SLP266

CYYC;2008-01-19 02:00;CYYC 190200Z 18005KT 15SM BKN040 OVC120 M09/M11 A3008 RMK SC6AC1 SLP262

CYYC;2008-01-19 03:00;CYYC 190300Z 17003KT 15SM SCT048 BKN063 OVC080 M09/M11 A3006 RMK SC3SC3AC2 SLP255

CYYC;2008-01-19 04:00;CYYC 190400Z 19003KT 15SM BKN045 OVC060 M09/M11 A3004 RMK SC6SC2 SLP249

CYYC;2008-01-19 05:00;CYYC 190500Z 17004KT 15SM FEW060 BKN075 OVC085 M11/M12 A3002 RMK SC1AC6AC2 SLP243

CYYC;2008-01-19 06:00;CYYC 190600Z 19002KT 15SM BKN065 OVC080 M09/M11 A3001 RMK SC7AC1 SLP235

CYYC;2008-01-19 07:00;CYYC 190700Z 19004KT 15SM BKN059 OVC070 M09/M10 A2998 RMK SC7AC1 SLP225

CYYC;2008-01-19 08:00;CYYC 190800Z 00000KT 15SM BKN048 OVC067 M08/M10 A2996 RMK SC6AC2 VIRGA S-W SLP219

CYYC;2008-01-19 09:00;CYYC 190900Z 19003KT 15SM BKN063 OVC069 M08/M10 A2994 RMK SC6AC2 SLP205

CYYC;2008-01-19 10:00;CYYC 191000Z 00000KT 15SM BKN074 OVC110 M08/M10 A2993 RMK AC6AC2 SLP202

CYYC;2008-01-19 11:00;CYYC 191100Z 18003KT 15SM OVC064 M08/M10 A2992 RMK SC8 SLP200

CYYC;2008-01-19 12:00;CYYC 191200Z 00000KT 15SM BKN031 OVC055 M08/M09 A2992 RMK SC5SC3 SNOW COVER/ MUCH LOOSE SLP200

CYYC;2008-01-19 13:00;CYYC 191300Z 00000KT 10SM -SN BKN035 OVC063 M07/M09 A2992 RMK SC6SC2 SLP200

CYYC;2008-01-19 14:00;CYYC 191400Z 05003KT 3SM -SN BKN015 OVC031 M07/M08 A2993 RMK SC6SC2 SLP204

CYYC;2008-01-19 14:12;CYYC 191412Z 07003KT 1SM -SN BKN011 OVC025 M07/ RMK SN6SC2SC1 RVR RWY16 6000 FT

CYYC;2008-01-19 15:00;CYYC 191500Z 09004KT 1SM -SN BKN008 OVC015 M08/M09 A2994 RMK SN6SC1SC2 RVR RWY16 6000FT SLP211

CYYC;2008-01-19 15:09;CYYC 191509Z 09003KT 1 1/2SM -SN FEW008 SCT015 OVC062 M08/ RMK SN2SC1SC2SC4

CYYC;2008-01-19 15:34;CYYC 191534Z CCA 09003KT 1SM -SN BKN008 OVC020 M08/ RMK SN5SC2SC2 RVR RWY16 6000FT

CYYC;2008-01-19 16:00;CYYC 191600Z 07005KT 1SM -SN BKN011 OVC016 M08/M09 A2997 RMK SN6SC2SC1 VIS VRB 3/4-11/4/RVR RWY16 6000FT SLP220

CYYC;2008-01-19 16:30;CYYC 191630Z CCA 06003KT 3/4SM -SN OVC010 M08/ RMK SN6SC2 RVR RWY16 6000FT

CYYC;2008-01-19 17:00;CYYC 191700Z 06007KT 3/4SM -SN OVC009 M09/M10 A3002 RMK SN6SC2 PRESRR//SO2/ RVR RWY34 6000FT SLP234

CYYC;2008-01-19 18:00;CYYC 191800Z 05008KT 3/4SM -SN OVC009 M09/M10 A3006 RMK SN6SC2 /SO3/RVR RWY34 6000FT SLP252

CYYC;2008-01-19 19:00;CYYC 191900Z 03009KT 3/4SM -SN VV007 M08/M09 A3007 RESN RMK SN8 RVR RWY34 6000FT SLP258

CYYC;2008-01-19 20:00;CYYC 192000Z CCA 03014KT 3/4SM -SN OVC010 M09/M10 A3010 RESN RMK SN6SC2 /SO2/ RVE RWY34 6000FT SLP265

CYYC;2008-01-19 20:28;CYYC 192028Z CCA 04014KT 1SM -SN OVC010 M10/ RMK SN5SC3 RVR RWY34 6000FT

CYYC;2008-01-19 20:51;CYYC 192051Z CCA 03012KT 1/2SM SN OVC009 M10/ RMK SN6SC2 RVR RWY34 6000FT

CYYC;2008-01-19 21:00;CYYC 192100Z 03014KT 5/8SM -SN OVC006 M10/M12 A3013 RESN RMK SN7SC1 RVR RWY28 4500FT SLP278

CYYC;2008-01-19 22:00;CYYC 192200Z CCA 02013KT 3/4SM -SN OVC008 M12/M14 A3016 RMK SN6SC2 RVR RWY28 6000FT SLP286

CYYC;2008-01-19 23:00;CYYC 192300Z CCB 02015KT 3/4SM -SN OVC006 M13/M15 A3018 RESN RMK SN6SC2 /SO3/RVR RWY28 6000FT SLP294

CYYC;2008-01-20 00:00;CYYC 200000Z 01009KT 3/4SM -SN OVC009 M14/M15 A3022 RMK SN6SC2 RVR RWY28 6000FT SLP312

CYYC;2008-01-20 00:15;CYYC 200015Z 02009KT 1SM -SN BKN010 OVC015 M14/ RMK SN5SC2SC2 RVR RWY28 6000FT

CYYC;2008-01-20 01:00;CYYC 200100Z 01011KT 1 1/4SM -SN BKN011 BKN019 OVC080 M15/M16 A3026 RMK SN3SC2SC2AS1 SLP324

CYYC;2008-01-20 01:51;CYYC 200151Z 03010KT 5SM -SN SCT020 OVC045 M15/ RMK SC4SC4

CYYC;2008-01-20 02:00;CYYC 200200Z 03012KT 5SM -SN SCT021 OVC048 M16/M17 A3028 RMK SC3SC5 SLP332

CYYC;2008-01-20 02:44;CYYC 200244Z 02011KT 10SM FEW045 BKN079 OVC086 M16/ RMK SC1AS4AC3

CYYC;2008-01-20 03:00;CYYC 200300Z 02009KT 10SM BKN010 OVC080 M16/M17 A3030 RMK SC7AS1 SLP348

CYYC;2008-01-20 03:50;CYYC 200350Z 02011KT 10SM OVC009 M17/ RMK SC8

CYYC;2008-01-20 04:00;CYYC 200400Z 02011KT 10SM OVC009 M17/M18 A3032 RMK SC8 SLP353

CYYC;2008-01-20 05:00;CYYC 200500Z 02009KT 7SM OVC009 M17/M18 A3033 RMK SC8 BR SLP357

CYYC;2008-01-20 05:40;CYYC 200540Z 36009KT 3SM BR OVC010 M18/ RMK ST8

CYYC;2008-01-20 06:00;CYYC 200600Z 35010KT 3SM BR OVC010 M18/M19 A3035 RMK ST8 SLP370

CYYC;2008-01-20 06:27;CYYC 200627Z 36011KT 8SM OVC010 M18/ RMK ST8

CYYC;2008-01-20 07:00;CYYC 200700Z 36009KT 7SM OVC008 M18/M19 A3037 RMK ST8 SLP374

CYYC;2008-01-20 08:00;CYYC 200800Z 03005KT 7SM BKN009 OVC016 M19/M20 A3037 RMK SC5SC3 BR SLP376

CYYC;2008-01-20 09:00;CYYC 200900Z 04004KT 7SM OVC011 M19/M19 A3037 RMK SC8 BR SLP377

CYYC;2008-01-20 10:00;CYYC 201000Z 30003KT 7SM OVC012 M18/M19 A3037 RMK SC8 BR SLP377

CYYC;2008-01-20 11:00;CYYC 201100Z CCA 36004KT 7SM OVC012 M17/M18 A3036 RMK SC8 BR SLP374

CYYC;2008-01-20 12:00;CYYC 201200Z 01010KT 7SM OVC014 M17/M18 A3037 RMK SC8 BR/ SNOW COVER/ MUCH LOOSE SLP378

CYYC;2008-01-20 13:00;CYYC 201300Z CCA 01010KT 7SM BKN012 OVC170 M19/M20 A3038 RMK SC5AC2 BR SLP383

CYYC;2008-01-20 14:00;CYYC 201400Z 01010KT 10SM FEW014 BKN180 OVC240 M19/M21 A3040 RMK SC1AC4CI1 SLP387

CYYC;2008-01-20 15:00;CYYC 201500Z 36006KT 15SM FEW014 SCT170 M21/M21 A3041 RMK SC1AC2 SLP404

CYYC;2008-01-20 16:00;CYYC 201600Z 32004KT 20SM FEW038 SCT180 BKN260 M22/M22 A3043 RMK SC2AC0CI0 FROIN SLP410

CYYC;2008-01-20 17:00;CYYC 201700Z 32006KT 20SM BKN030 OVC180 M19/M23 A3044 RMK SC6AC1 FROIN SLP413

CYYC;2008-01-20 17:25;CYYC 201725Z 30006KT 25SM -SN OVC030 M18/ RMK SC8 PCPN VRY LGT

CYYC;2008-01-20 18:00;CYYC 201800Z 32004KT 25SM -SN OVC028 M18/M20 A3045 RMK SC8 PCPN VRY LGT SLP414

CYYC;2008-01-20 19:00;CYYC 201900Z 24003KT 25SM -SN OVC030 M16/M20 A3042 RMK SC8 PCPN VRY LGT SLP407

CYYC;2008-01-20 20:00;CYYC 202000Z 24004KT 25SM -SN OVC030 M15/M20 A3040 RMK SC7 PCPN VRY LGT SLP399

CYYC;2008-01-20 21:00;CYYC 202100Z 22004KT 25SM BKN032 M14/M20 A3037 RMK SC6 SLP382

CYYC;2008-01-20 22:00;CYYC 202200Z 24006KT 30SM FEW032 FEW260 M15/M20 A3035 RMK SC1CI1 SLP376

CYYC;2008-01-20 23:00;CYYC 202300Z 24006KT 30SM FEW032 FEW260 M15/M21 A3033 RMK SC1CI1 SLP372

CYYC;2008-01-21 00:00;CYYC 210000Z 22005KT 30SM FEW260 M17/M22 A3031 RMK CI1 SLP366

CYYC;2008-01-21 01:00;CYYC 210100Z 20007KT 15SM SKC M18/M22 A3031 RMK SLP366

CYYC;2008-01-21 02:00;CYYC 210200Z 20006KT 15SM SKC M18/M22 A3032 RMK SLP368

CYYC;2008-01-21 03:00;CYYC 210300Z 22005KT 15SM SKC M20/M24 A3031 RMK SLP374

CYYC;2008-01-21 04:00;CYYC 210400Z 21007KT 15SM SKC M22/M25 A3029 RMK SLP369

CYYC;2008-01-21 05:00;CYYC 210500Z 21008KT 15SM FEW240 M21/M25 A3026 RMK CI1 SLP359

CYYC;2008-01-21 06:00;CYYC 210600Z 18004KT 15SM FEW240 M21/M24 A3025 RMK CI1 SLP348

CYYC;2008-01-21 07:00;CYYC 210700Z 20006KT 15SM SKC M22/M26 A3023 RMK SLP342

CYYC;2008-01-21 08:00;CYYC 210800Z 20005KT 15SM SKC M22/M26 A3021 RMK SLP336

CYYC;2008-01-21 09:00;CYYC 210900Z 22004KT 15SM SKC M20/M25 A3019 RMK SLP323

CYYC;2008-01-21 10:00;CYYC 211000Z 19007KT 15SM SKC M21/M25 A3017 RMK SLP316

CYYC;2008-01-21 11:00;CYYC 211100Z 20005KT 15SM SKC M21/M25 A3015 RMK SLP312

CYYC;2008-01-21 12:00;CYYC 211200Z CCA 19005KT 15SM SKC M20/M25 A3014 RMK SNOW COVER/MUCH LOOSE SLP309

CYYC;2008-01-21 13:00;CYYC 211300Z 20006KT 15SM SKC M20/M25 A3012 RMK SLP304

CYYC;2008-01-21 14:00;CYYC 211400Z 20003KT 15SM FEW170 M19/M24 A3012 RMK AC0 SLP303

CYYC;2008-01-21 15:00;CYYC 211500Z 26005KT 40SM FEW100 BKN160 M16/M23 A3010 RMK AC1AC0 SLP293

CYYC;2008-01-21 16:00;CYYC 211600Z 22004KT 40SM FEW100 BKN150 M17/M23 A3009 RMK AC1AC0 SLP291

CYYC;2008-01-21 17:00;CYYC 211700Z 27008KT 40SM FEW100 BKN150 M11/M20 A3008 RMK AC1AC6 SLP287

CYYC;2008-01-21 18:00;CYYC 211800Z 25007KT 40SM FEW100 BKN150 M10/M19 A3007 RMK AC1AC2 SLP277

CYYC;2008-01-21 19:00;CYYC 211900Z 26009KT 40SM BKN061 BKN100 BKN150 M08/M16 A3007 RMK SC4AC1AC2 SLP275

CYYC;2008-01-21 20:00;CYYC 212000Z 30014G20KT 7SM -SN OVC052 M04/M09 A3005 RMK SC7 SLP270

CYYC;2008-01-21 20:15;CYYC 212015Z 30015KT 10SM OVC052 M04/ RMK SC7 SH SW

CYYC;2008-01-21 21:00;CYYC 212100Z 30015KT 10SM FEW052 OVC092 M04/M07 A3003 RMK SC1AC6 SH SW SLP252

CYYC;2008-01-21 22:00;CYYC 212200Z 27007KT 20SM FEW043 OVC090 M04/M08 A3003 RMK SC1AC6 VIRGA SLP250

CYYC;2008-01-21 23:00;CYYC 212300Z 30007KT 20SM FEW040 OVC068 M04/M07 A3004 RMK SC1AC6 VIRGA SLP254

CYYC;2008-01-22 00:00;CYYC 220000Z 32008KT 10SM SCT042 OVC070 M03/M06 A3005 RMK SC3AC5 SH SW SLP257

CYYC;2008-01-22 01:00;CYYC 220100Z 34012KT 15SM BKN031 OVC065 M02/M05 A3006 RMK SC6SC2 SLP259

CYYC;2008-01-22 02:00;CYYC 220200Z 22006KT 15SM FEW031 OVC053 M05/M08 A3006 RMK SC1SC8 VIRGA SLP262

CYYC;2008-01-22 03:00;CYYC 220300Z 25007KT 15SM BKN060 BKN080 M04/M07 A3005 RMK SC5AC2 SLP252

CYYC;2008-01-22 04:00;CYYC 220400Z 27005KT 15SM BKN060 OVC080 M03/M06 A3004 RMK SC6AC1 SLP249

CYYC;2008-01-22 05:00;CYYC 220500Z 24004KT 15SM OVC068 M03/M07 A3003 RMK AC7 SLP247

CYYC;2008-01-22 06:00;CYYC 220600Z 28005KT 15SM OVC067 M02/M06 A3003 RMK AC7 SLP234

CYYC;2008-01-22 07:00;CYYC 220700Z 23006KT 15SM OVC070 M03/M07 A3003 RMK AC7 SLP232

CYYC;2008-01-22 08:00;CYYC 220800Z 27003KT 15SM BKN060 OVC080 M02/M07 A3001 RMK SC5AC2 SLP226

CYYC;2008-01-22 09:00;CYYC 220900Z 00000KT 15SM BKN060 BKN100 M04/M08 A3000 RMK SC5AC1 SLP215

CYYC;2008-01-22 10:00;CYYC 221000Z 31008KT 15SM BKN060 BKN100 M00/M06 A3002 RMK SC5AC1 SLP221

CYYC;2008-01-22 11:00;CYYC 221100Z 15003KT 15SM BKN080 BKN250 M03/M08 A3002 RMK AC4CI0 SLP222

CYYC;2008-01-22 12:00;CYYC 221200Z CCA 24004KT 15SM BKN080 BKN250 M02/M07 A3001 RMK AC4CI0 SNOW COVER/MUCH LOOSE SLP218

CYYC;2008-01-22 13:00;CYYC 221300Z 30009KT 15SM SCT060 BKN080 OVC100 01/M06 A3001 RMK SC3AC3AC1 SLP217

CYYC;2008-01-22 14:00;CYYC 221400Z 31011KT 15SM FEW060 SCT080 BKN120 M01/M07 A3002 RMK SC2AC2AC1 SLP221

CYYC;2008-01-22 15:00;CYYC 221500Z 30009KT 30SM FEW060 BKN091 BKN120 M02/M07 A3003 RMK SC1AC3AC2 VIRGA SLP223

CYYC;2008-01-22 16:00;CYYC 221600Z 32011KT 40SM BKN090 BKN110 M00/M06 A3004 RMK AC1AC6 SLP227

CYYC;2008-01-22 17:00;CYYC 221700Z 35021G29KT 20SM BKN055 BKN080 OVC110 M01/M05 A3008 RMK SC3AC1AC3 SLP240

CYYC;2008-01-22 18:00;CYYC 221800Z 33022G30KT 30SM FEW090 M01/M06 A3010 RMK AC2 SLP245

CYYC;2008-01-22 19:00;CYYC 221900Z 33016G21KT 40SM FEW090 M00/M06 A3010 RMK AC1 SLP245

CYYC;2008-01-22 20:00;CYYC 222000Z 35018G24KT 30SM FEW090 M01/M06 A3012 RMK AC1 SLP250

CYYC;2008-01-22 21:00;CYYC 222100Z 36025KT 30SM FEW090 M02/M07 A3014 RMK AC1 SLP262

CYYC;2008-01-22 22:00;CYYC 222200Z CCA 36019G24KT 30SM FEW090 M04/M08 A3016 RMK AC1 SLP268

CYYC;2008-01-22 23:00;CYYC 222300Z 01016KT 30SM FEW045 FEW080 M05/M08 A3020 RMK SC1AC1 SLP280

CYYC;2008-01-23 00:00;CYYC 230000Z 36012KT 30SM FEW045 FEW080 FEW240 M07/M09 A3022 RMK SC1AC1CI1 SLP295

CYYC;2008-01-23 01:00;CYYC 230100Z 00000KT 20SM FEW080 FEW240 M09/M10 A3023 RMK AC1CI0 SLP297

CYYC;2008-01-23 02:00;CYYC 230200Z 00000KT 15SM FEW090 M09/M10 A3023 RMK AC1 SLP297

CYYC;2008-01-23 03:00;CYYC 230300Z 15002KT 15SM FEW100 M09/M10 A3023 RMK AC1 SLP302

CYYC;2008-01-23 03:45;CYYC 230345Z 17005KT 15SM BKN014 M11/ RMK SC6

CYYC;2008-01-23 04:00;CYYC 230400Z 20005KT 15SM OVC014 M11/M11 A3021 RMK SC6 SLP296

CYYC;2008-01-23 05:00;CYYC 230500Z 16005KT 15SM OVC014 M08/M10 A3021 RMK SC7 SLP295

CYYC;2008-01-23 06:00;CYYC 230600Z 15006KT 15SM OVC012 M08/M10 A3018 RMK SC8 SLP281

CYYC;2008-01-23 07:00;CYYC 230700Z 18007KT 15SM OVC011 M08/M10 A3015 RMK SC8 SLP272

CYYC;2008-01-23 07:43;CYYC 230743Z 18012KT 15SM OVC009 M08/ RMK SC8

CYYC;2008-01-23 08:00;CYYC 230800Z 19013KT 15SM OVC009 M08/M09 A3010 RMK SC8 SLP258

CYYC;2008-01-23 09:00;CYYC 230900Z 18011KT 15SM OVC008 M08/M09 A3007 RMK SC8 SLP247

CYYC;2008-01-23 10:00;CYYC 231000Z 18008KT 15SM SCT009 BKN170 OVC240 M10/M11 A3005 RMK SC3AC2CS1 HALO SLP240

CYYC;2008-01-23 11:00;CYYC 231100Z 20008KT 15SM FEW020 BKN130 OVC240 M11/M12 A3003 RMK SC1AS4CS1 SLP233

CYYC;2008-01-23 12:00;CYYC 231200Z 19007KT 15SM SCT160 SCT240 M12/M13 A3000 RMK AC2CI1 SNOW COVER/ MUCH LOOSE SLP231

CYYC;2008-01-23 13:00;CYYC 231300Z 20006KT 15SM FEW160 FEW250 M13/M14 A2997 RMK AC1CI0 AC TR SLP222

CYYC;2008-01-23 14:00;CYYC 231400Z 19006KT 12SM FEW160 SCT250 M14/M14 A2995 RMK AC1CI2 AC TR SLP216

CYYC;2008-01-23 15:00;CYYC 231500Z 21006KT 30SM FEW160 FEW250 M15/M16 A2992 RMK AC1CI1 CLDS TR SLP213

CYYC;2008-01-23 16:00;CYYC 231600Z 21004KT 30SM FEW160 M14/M15 A2990 RMK AC1 SLP207

CYYC;2008-01-23 17:00;CYYC 231700Z 21007KT 40SM FEW260 M12/M14 A2989 RMK CI1 SLP204

CYYC;2008-01-23 18:00;CYYC 231800Z 21005KT 40SM FEW260 M07/M12 A2988 RMK CI1 SLP186

CYYC;2008-01-23 19:00;CYYC 231900Z 26004KT 40SM FEW260 M01/M09 A2986 RMK CI1 SLP179

CYYC;2008-01-23 20:00;CYYC 232000Z 00000KT 40SM FEW260 03/M09 A2984 RMK CI1 SLP173

CYYC;2008-01-23 21:00;CYYC 232100Z 33005KT 40SM FEW120 FEW260 03/M07 A2982 RMK AC1CI0 SLP149

CYYC;2008-01-23 22:00;CYYC 232200Z 00000KT 40SM FEW120 FEW260 03/M07 A2981 RMK AC1CI0 SLP147

CYYC;2008-01-23 23:00;CYYC 232300Z 36007KT 40SM FEW260 M00/M07 A2981 RMK CI1 SLP148

CYYC;2008-01-24 00:00;CYYC 240000Z 34005KT 40SM FEW120 FEW260 M02/M09 A2981 RMK AC1CI1 SLP160

CYYC;2008-01-24 01:00;CYYC 240100Z 01003KT 15SM FEW120 FEW260 M03/M10 A2982 RMK AC1CI1 SLP162

CYYC;2008-01-24 02:00;CYYC 240200Z 32004KT 15SM SKC M05/M11 A2981 RMK SLP160

CYYC;2008-01-24 03:00;CYYC 240300Z CCA 34005KT 40SM FEW120 FEW260 M02/M09 A2981 RMK AC1CI1 SLP165

CYYC;2008-01-24 04:00;CYYC 240400Z 07002KT 15SM SKC M06/M13 A2981 RMK SLP163

CYYC;2008-01-24 05:00;CYYC 240500Z 35004KT 15SM SKC M08/M12 A2981 RMK SLP163

CYYC;2008-01-24 06:00;CYYC 240600Z 32002KT 15SM SKC M09/M13 A2980 RMK SLP160

CYYC;2008-01-24 07:00;CYYC 240700Z 30004KT 15SM SKC M09/M13 A2981 RMK SLP163

CYYC;2008-01-24 08:00;CYYC 240800Z 32003KT 15SM SKC M09/M13 A2980 RMK SLP159

CYYC;2008-01-24 09:00;CYYC 240900Z 33004KT 15SM SKC M12/M15 A2979 RMK SLP147

CYYC;2008-01-24 10:00;CYYC 241000Z 34004KT 15SM SKC M12/M15 A2981 RMK SLP151

CYYC;2008-01-24 11:00;CYYC 241100Z 33004KT 15SM SKC M12/M15 A2981 RMK SLP151

CYYC;2008-01-24 12:00;CYYC 241200Z 31004KT 15SM FEW240 M11/M15 A2981 RMK CI1 SNOW COVER/ MUCH LOOSE SLP159

CYYC;2008-01-24 13:00;CYYC 241300Z 28002KT 15SM FEW240 M11/M14 A2983 RMK CI1 SLP164

CYYC;2008-01-24 14:00;CYYC 241400Z 36004KT 15SM FEW240 M13/M16 A2983 RMK CI2 SLP165

CYYC;2008-01-24 15:00;CYYC 241500Z 33005KT 40SM FEW180 FEW240 M13/M16 A2984 RMK AC1CI1 SLP172

CYYC;2008-01-24 16:00;CYYC 241600Z 32005KT 40SM FEW120 FEW260 M14/M16 A2985 RMK AC1CI1 SLP175

CYYC;2008-01-24 17:00;CYYC 241700Z 32005KT 40SM FEW120 FEW260 M13/M16 A2985 RMK AC1CI1 SLP175

CYYC;2008-01-24 18:00;CYYC 241800Z 00000KT 40SM BKN260 M10/M14 A2985 RMK CI1 SLP180

CYYC;2008-01-24 19:00;CYYC 241900Z 00000KT 40SM BKN260 M07/M13 A2985 RMK CI1 SLP178

CYYC;2008-01-24 20:00;CYYC 242000Z 04002KT 40SM FEW160 BKN260 M06/M10 A2984 RMK AC1CI1 SLP175

CYYC;2008-01-24 21:00;CYYC 242100Z 00000KT 40SM FEW160 BKN260 M05/M10 A2983 RMK AC1CI1 SLP170

CYYC;2008-01-24 22:00;CYYC 242200Z 04003KT 30SM BKN260 M05/M09 A2983 RMK CI2 SLP171

CYYC;2008-01-24 23:00;CYYC 242300Z 07010KT 30SM BKN260 M07/M10 A2985 RMK CI2 SLP175

CYYC;2008-01-25 00:00;CYYC 250000Z 08005KT 30SM BKN260 M11/M12 A2986 RMK CI2 SLP190

CYYC;2008-01-25 01:00;CYYC 250100Z CCA 04002KT 8SM SCT260 M12/M12 A2987 RMK CI1 BR/CONTRAIL SLP192

CYYC;2008-01-25 02:00;CYYC 250200Z 02004KT 4SM BR BKN220 M14/M14 A2988 RMK CI2 SLP195

CYYC;2008-01-25 02:05;CYYC 250205Z CCA 03006KT 2 1/2SM -SG BR FEW010 BKN220 M14/ RMK ST2CI3

CYYC;2008-01-25 02:17;CYYC 250217Z 03004KT 5SM -SN FEW002 OVC010 M14/ RMK ST2SC6

CYYC;2008-01-25 02:37;CYYC 250237Z 04004KT 2 1/2SM -SG BR BKN002 OVC009 M14/ RMK ST6SC2

CYYC;2008-01-25 02:55;CYYC 250255Z 05002KT 1/2SM -SG FZFG OVC001 M14/ RMK FG7ST1 RVR RWY16 3000 FT

CYYC;2008-01-25 03:00;CYYC 250300Z 05002KT 1/2SM -SG FZFG OVC001 M14/M14 A2988 RMK FG7ST1 VIS S-W 1/4 /RVR RWY16 3000 FT SLP205

CYYC;2008-01-25 03:12;CYYC 250312Z CCA 04002KT 1SM -SG BR OVC002 M14/ RMK FG5ST3 RVR RWY28 4500 FT

CYYC;2008-01-25 03:16;CYYC 250316Z 00000KT 1SM -SG BR OVC003 M13/ RMK FG3ST5 VIS E 13/4 /RVR RWY34 6000 FT

CYYC;2008-01-25 03:47;CYYC 250347Z 09003KT 2 1/2SM -SG BR OVC003 M13/ RMK FG5ST3 VIS W 2

CYYC;2008-01-25 03:51;CYYC 250351Z 09002KT 2 1/2SM -SG BR OVC002 M12/ RMK ST8 VIS W 2

CYYC;2008-01-25 04:00;CYYC 250400Z 11005KT 3/4SM -SG BR OVC002 M12/M13 A2987 RMK ST8 RVR RWY34 4000 FT SLP200

CYYC;2008-01-25 04:03;CYYC 250403Z 11004KT 1/2SM -SG FZFG VV002 M12/ RMK FG8 RVR RWY34 4500 FT

CYYC;2008-01-25 04:10;CYYC 250410Z 12006KT 1/4SM -SG FZFG VV002 M12/ RMK FG8 RVR RWY16 6000 FT

CYYC;2008-01-25 04:39;CYYC 250439Z 14005KT 1/4SM FZFG VV003 M12/ RMK FG8 RVR RWY16 2000 FT

CYYC;2008-01-25 04:53;CYYC 250453Z 14005KT 1/8SM FZFG VV001 M12/ RMK FG8 RVR RWY16 2400 FT

CYYC;2008-01-25 05:00;CYYC 250500Z CCA 13006KT 1/8SM FZFG VV001 M12/M12 A2986 RMK FG8 RVR RWY34 3500 FT/ ICING SLP197

CYYC;2008-01-25 05:40;CYYC 250540Z 16006KT 1/4SM -SG FZFG VV002 M12/ RMK FG8 RVR RWY34 3000 FT

CYYC;2008-01-25 06:00;CYYC 250600Z 16005KT 3/8SM -SG FZFG VV002 M12/M12 A2985 RMK FG8 RVR RWY34 6000 FT SLP182

CYYC;2008-01-25 06:21;CYYC 250621Z 17005KT 1 3/4SM -SG BR OVC003 M11/ RMK FG4ST4 VIS E 21/2

CYYC;2008-01-25 06:51;CYYC 250651Z 18007KT 2 1/2SM -SN BR BKN007 OVC009 M12/ RMK ST7SC1

CYYC;2008-01-25 07:00;CYYC 250700Z 18006KT 2 1/2SM -SN BR FEW002 OVC007 OVC009 M12/M12 A2982 RMK SF1ST7SC1 SF TR SLP175

CYYC;2008-01-25 08:00;CYYC 250800Z 19007KT 2SM -SN BR FEW003 OVC008 M12/M12 A2980 RMK ST2SC6 SLP168

CYYC;2008-01-25 08:36;CYYC 250836Z 18007KT 1 1/2SM -SG BR OVC003 M12/ RMK ST8

CYYC;2008-01-25 08:47;CYYC 250847Z 17006KT 1SM -SG BR OVC002 M12/ RMK FG4ST4 RVR RWY34 6000 FT

CYYC;2008-01-25 09:00;CYYC 250900Z 17006KT 1SM -SG BR OVC002 M12/M12 A2978 RMK FG4ST4 RVR RWY16 6000 FT SLP152

CYYC;2008-01-25 10:00;CYYC 251000Z CCA 18008KT 1SM -SG BR OVC002 M12/M12 A2976 RMK FG4ST4 RVR RWY34 6000 FT SLP146

CYYC;2008-01-25 11:00;CYYC 251100Z 19007KT 5/8SM -SG BR OVC002 M12/M12 A2974 RMK FG7ST1 RVR RWY16 6000 FT SLP140

CYYC;2008-01-25 12:00;CYYC 251200Z 19008KT 5/8SM -SG BR OVC002 M12/M12 A2971 RMK FG7ST1 RVR RWY16 6000 FT/ SNOW COVER/ MUCH LOOSE SLP138

CYYC;2008-01-25 12:14;CYYC 251214Z 19008KT 3/4SM BR OVC003 M12/ RMK FG6ST2 RVR RWY34 6000 FT

CYYC;2008-01-25 13:00;CYYC 251300Z CCA 23006KT 3/4SM BR OVC003 M13/M13 A2969 RMK FG5ST3 RVR RWY16 6000 FT SLP133

CYYC;2008-01-25 13:36;CYYC 251336Z 19006KT 3SM BR BKN005 BKN210 M14/ RMK ST5CI1

CYYC;2008-01-25 13:47;CYYC 251347Z 20005KT 2 1/2SM BR BKN002 BKN008 M15/ RMK ST6SC2

CYYC;2008-01-25 14:00;CYYC 251400Z 19005KT 2 1/2SM BR BKN002 BKN008 M15/M16 A2966 RMK ST5SC2 ICGIC SLP124

CYYC;2008-01-25 14:15;CYYC 251415Z 22004KT 4SM BR FEW005 SCT012 SCT210 M16/ RMK ST2SC2CI0 VIS W 21/2

CYYC;2008-01-25 14:25;CYYC 251425Z 22007KT 6SM BR FEW005 FEW030 FEW210 M16/ RMK ST1SC1CI1 VIS W 3

CYYC;2008-01-25 15:00;CYYC 251500Z 19008KT 5SM BR FEW260 M16/M17 A2964 RMK CI1 SLP125

CYYC;2008-01-25 16:00;CYYC 251600Z 22005KT 40SM FEW120 FEW260 M16/M16 A2964 RMK AC1CI1 BR SLP124

CYYC;2008-01-25 17:00;CYYC 251700Z 20005KT 40SM FEW100 FEW260 M14/M15 A2964 RMK AC1CI1 SLP123

CYYC;2008-01-25 18:00;CYYC 251800Z 19004KT 40SM FEW100 FEW260 M11/M11 A2962 RMK AC1CI1 SLP105

CYYC;2008-01-25 19:00;CYYC 251900Z 19004KT 40SM FEW260 M08/M08 A2960 RMK CI1 SLP099

CYYC;2008-01-25 20:00;CYYC 252000Z 18003KT 40SM FEW260 M05/M06 A2959 RMK CI1 SLP095

CYYC;2008-01-25 21:00;CYYC 252100Z 08005KT 40SM FEW020 M02/M07 A2959 RMK CU1 SLP081

CYYC;2008-01-25 22:00;CYYC 252200Z 19004KT 40SM FEW032 FEW260 00/M08 A2956 RMK CU1CI0 SLP073

CYYC;2008-01-25 23:00;CYYC 252300Z 14007KT 30SM FEW028 BKN260 M03/M09 A2956 RMK SC1CI5 SLP073

CYYC;2008-01-26 00:00;CYYC 260000Z 18006KT 40SM FEW024 BKN260 M04/M10 A2956 RMK CF1CI2 SLP073

CYYC;2008-01-26 01:00;CYYC 260100Z 21005KT 15SM FEW032 BKN200 M02/M12 A2955 RMK SC1CI2 SLP071

CYYC;2008-01-26 02:00;CYYC 260200Z 27016KT 15SM BKN180 M01/M11 A2954 RMK AC2 SLP069

CYYC;2008-01-26 03:00;CYYC 260300Z 25013KT 15SM SCT200 M02/M11 A2953 RMK CI1 SLP067

CYYC;2008-01-26 04:00;CYYC 260400Z 27010KT 15SM FEW190 M02/M12 A2951 RMK AC0 SLP062

CYYC;2008-01-26 05:00;CYYC 260500Z 26011G16KT 15SM FEW180 SCT230 M01/M11 A2950 RMK AC2CI1 SLP058

CYYC;2008-01-26 06:00;CYYC 260600Z 28013G19KT 15SM SCT180 SCT230 M01/M11 A2950 RMK AC2CI1 SLP048

CYYC;2008-01-26 07:00;CYYC 260700Z 26023G28KT 15SM SCT220 M01/M11 A2949 RMK CI2 SLP044

CYYC;2008-01-26 08:00;CYYC 260800Z 26027G32KT 15SM BKN220 M01/M12 A2948 RMK CI1 SLP043

CYYC;2008-01-26 09:00;CYYC 260900Z 26023G28KT 15SM FEW170 SCT240 M01/M12 A2949 RMK AC1CI2 SLP034

CYYC;2008-01-26 10:00;CYYC 261000Z 26017G22KT 15SM BKN150 M01/M11 A2950 RMK AC5 SLP037

CYYC;2008-01-26 11:00;CYYC 261100Z 26022G28KT 15SM OVC140 M00/M11 A2949 RMK AC6 SLP034

CYYC;2008-01-26 12:00;CYYC 261200Z 26025G32KT 15SM FEW140 OVC200 00/M11 A2949 RMK AC2CI3 SLP032

CYYC;2008-01-26 13:00;CYYC 261300Z 26022G28KT 15SM BKN230 00/M11 A2949 RMK CI6 SLP034

CYYC;2008-01-26 14:00;CYYC 261400Z 26020G29KT 15SM FEW100 OVC190 M00/M11 A2949 RMK AC1AC7 SLP033

CYYC;2008-01-26 15:00;CYYC 261500Z 29010G20KT 30SM FEW100 SCT150 OVC250 M00/M11 A2951 RMK AC1AC2CI3 SLP039

CYYC;2008-01-26 16:00;CYYC 261600Z 29012G17KT 40SM FEW100 BKN140 BKN250 01/M10 A2952 RMK AC1AC7CI1 VIRGA SLP040

CYYC;2008-01-26 17:00;CYYC 261700Z 27023G34KT 40SM FEW090 BKN140 BKN250 01/M10 A2951 RMK AC1AC6CI1 LWR AC TR SLP037

CYYC;2008-01-26 18:00;CYYC 261800Z CCA 25022G30KT 40SM FEW090 BKN140 BKN220 02/M10 A2951 RMK AC1AC5CI2 LWR AC TR SLP035

CYYC;2008-01-26 19:00;CYYC 261900Z 24006KT 40SM FEW090 BKN160 BKN220 02/M10 A2951 RMK AC1AC5CI2 SLP034

CYYC;2008-01-26 20:00;CYYC 262000Z 14006KT 40SM FEW090 BKN160 BKN220 01/M08 A2947 RMK AC1AC7CI1 SLP023

CYYC;2008-01-26 21:00;CYYC 262100Z 13007KT 40SM FEW080 BKN150 BKN210 01/M09 A2946 RMK AC1AC6CI2 SLP018

CYYC;2008-01-26 22:00;CYYC 262200Z CCA 12002KT 40SM FEW080 SCT150 BKN210 00/M08 A2946 RMK AC1AC2CI5 SLP018

CYYC;2008-01-26 23:00;CYYC 262300Z 12002KT 20SM FEW080 FEW150 BKN210 03/M07 A2945 RMK AC1AC1CI4 SLP016

CYYC;2008-01-27 00:00;CYYC 270000Z 26013KT 20SM FEW080 FEW150 FEW210 BKN260 02/M11 A2946 RMK AC1AC1CI2CI0 SLP015

CYYC;2008-01-27 01:00;CYYC 270100Z 25013KT 20SM FEW150 OVC200 01/M11 A2944 RMK AC1CI2 SLP008

CYYC;2008-01-27 02:00;CYYC 270200Z 25005KT 15SM BKN200 BKN260 M01/M12 A2943 RMK CI2CI0 SLP005

CYYC;2008-01-27 03:00;CYYC 270300Z 02003KT 15SM BKN230 M03/M12 A2941 RMK CI2 SLP002

CYYC;2008-01-27 04:00;CYYC 270400Z 00000KT 15SM BKN240 M02/M12 A2940 RMK CI2 SLP000

CYYC;2008-01-27 05:00;CYYC 270500Z CCA 34002KT 15SM SCT240 M02/M11 A2938 RMK CI2 SLP993

CYYC;2008-01-27 06:00;CYYC 270600Z 35003KT 15SM FEW180 BKN200 M06/M12 A2936 RMK AC1CI2 SLP990

CYYC;2008-01-27 07:00;CYYC 270700Z 01005KT 15SM BKN220 M09/M12 A2936 RMK CI2 SLP988

CYYC;2008-01-27 08:00;CYYC 270800Z 31006KT 15SM FEW240 M10/M13 A2933 RMK CI1 SLP981

CYYC;2008-01-27 09:00;CYYC 270900Z 34002KT 15SM FEW240 M11/M13 A2930 RMK CI1 SLP977

CYYC;2008-01-27 10:00;CYYC 271000Z 00000KT 15SM FEW240 M12/M13 A2930 RMK CI1 SLP977

CYYC;2008-01-27 11:00;CYYC 271100Z 00000KT 15SM FEW180 FEW240 M13/M14 A2930 RMK AC1CI1 SLP976

CYYC;2008-01-27 12:00;CYYC 271200Z CCA 34004KT 15SM FEW100 FEW240 M13/M14 A2930 RMK AC1CI1 SNOW COVER MED PACK SLP977

CYYC;2008-01-27 13:00;CYYC 271300Z 33012KT 15SM FEW100 BKN240 M07/M10 A2932 RMK AC1CI1 SLP982

CYYC;2008-01-27 14:00;CYYC 271400Z 34011KT 15SM FEW100 SCT240 M08/M12 A2933 RMK AC1CI0 SLP985

CYYC;2008-01-27 15:00;CYYC 271500Z 33017KT 20SM FEW050 FEW100 BKN220 M08/M11 A2936 RMK SC1AC1CI1 SLP995

CYYC;2008-01-27 15:30;CYYC 271530Z 35015G24KT 20SM BKN011 OVC100 M09/ RMK SC6AC1

CYYC;2008-01-27 15:35;CYYC 271535Z 35017G24KT 20SM BKN009 OVC100 M09/ RMK SC6AC1

CYYC;2008-01-27 16:00;CYYC 271600Z 35022G27KT 5SM BR OVC008 M09/M10 A2942 RMK SC8 SLP013

CYYC;2008-01-27 16:18;CYYC 271618Z 36024G30KT 5SM -SN BR OVC010 M11/ RMK SC8

CYYC;2008-01-27 16:45;CYYC 271645Z CCA 35027KT 2 1/2SM -SN BR OVC014 M12/ RMK SC8

CYYC;2008-01-27 17:00;CYYC 271700Z 35025G32KT 2 1/2SM -SN BR OVC014 M13/M15 A2943 RMK SC8 SLP019

CYYC;2008-01-27 17:19;CYYC 271719Z 34024G34KT 4SM -SN OVC014 M13/ RMK SC8

CYYC;2008-01-27 18:00;CYYC 271800Z 35022G34KT 5SM -SN OVC017 M15/M17 A2945 RMK SC8 SLP043

CYYC;2008-01-27 19:00;CYYC 271900Z 35027KT 2 1/2SM -SN OVC020 M16/M18 A2947 RMK SC8 SLP050

CYYC;2008-01-27 19:55;CYYC 271955Z 35026KT 3/4SM -SN OVC018 M17/ RMK SN5SC3 RVR RWY34 5000 FEET

CYYC;2008-01-27 20:00;CYYC 272000Z 35028KT 3/4SM -SN OVC018 M17/M20 A2947 RMK SN5SC3 RVR RWY34 4500 FEET SLP049

CYYC;2008-01-27 20:08;CYYC 272008Z 35024G32KT 1/2SM -SN BLSN OVC018 M18/ RMK SN5SC3 RVR RWY34 3000 FEET

CYYC;2008-01-27 20:14;CYYC 272014Z 35025G33KT 3/8SM -SN BLSN VV006 M18/ RMK SN8 RVR RWY34 3000 FEET

CYYC;2008-01-27 21:00;CYYC 272100Z 35023KT 1/2SM -SN BLSN VV006 M19/M21 A2946 RMK SN8 RVR RWY34 4000 FEET SLP060

CYYC;2008-01-27 22:00;CYYC 272200Z 36025G30KT 3/4SM -SN BLSN VV010 M20/M21 A2946 RMK SN8 RVR RWY34 4000 FEET SLP061

CYYC;2008-01-27 23:00;CYYC 272300Z 36022KT 1SM -SN VV010 M21/M23 A2949 RMK SN8 RVR RWY34 6000+ FEET SLP068

CYYC;2008-01-28 00:00;CYYC 280000Z 36018G24KT 1SM -SN VV010 M22/M24 A2952 RMK SN8 RVR RWY34 6000+ FEET SLP090

CYYC;2008-01-28 00:17;CYYC 280017Z 35021G27KT 1/2SM SN VV006 M23/ RMK SN8 RVR RWY34 6000 FEET

CYYC;2008-01-28 01:00;CYYC 280100Z CCA 36020G26KT 1SM -SN VV007 M23/M28 A2953 RMK SN8 RVR RWY34 6000+ FEET SLP092

CYYC;2008-01-28 02:00;CYYC 280200Z 35023G30KT 3/4SM -SN VV007 M24/M29 A2952 RMK SN8 RVR RWY34 6000 FEET SLP088

CYYC;2008-01-28 03:00;CYYC 280300Z CCA 36024KT 1SM -SN BLSN BKN009 OVC020 M25/M30 A2953 RMK SC6SC2 RVR RWY34 6000+ FEET SLP088

CYYC;2008-01-28 04:00;CYYC 280400Z 35027G32KT 3/4SM -SN BLSN BKN015 OVC030 M26/M31 A2954 RMK SC6SC2 RVR RWY34 6000+ FEET/VIS S-W 11/2 SLP091

CYYC;2008-01-28 05:00;CYYC 280500Z 36021G29KT 1SM -SN BLSN BKN015 OVC030 M27/M32 A2954 RMK SC6SC2 RVR RWY34 6000+ FEET/VIS S-W 2 SLP092

CYYC;2008-01-28 06:00;CYYC 280600Z 35027G34KT 1SM -SN BLSN BKN015 BKN030 OVC140 M27/M33 A2955 RMK SC6SC2AC1 SLP108

CYYC;2008-01-28 06:20;CYYC 280620Z 36025G30KT 4SM -SN BLSN BKN020 OVC040 M27/ RMK SC6SC2

CYYC;2008-01-28 07:00;CYYC 280700Z 34025G31KT 3/4SM -SN BLSN OVC030 M28/M33 A2954 RMK SC8 SLP106

CYYC;2008-01-28 07:14;CYYC 280714Z 35023G32KT 4SM -SN BLSN BKN030 OVC060 M28/ RMK SC6SC2

CYYC;2008-01-28 08:00;CYYC 280800Z 35025G31KT 4SM -SN BLSN BKN030 OVC060 M29/M34 A2954 RMK SC3SC4 SLP107

CYYC;2008-01-28 08:51;CYYC 280851Z 35023KT 1SM -SN BLSN BKN015 OVC030 M29/ RMK SC6SC2

CYYC;2008-01-28 09:00;CYYC 280900Z 35025KT 1SM -SN BLSN BKN019 OVC042 M29/M34 A2955 RMK SC6SC2 SLP119

CYYC;2008-01-28 10:00;CYYC 281000Z 35021G30KT 3/4SM -SN BLSN BKN015 OVC040 M29/M34 A2956 RMK SC6SC2 SLP123

CYYC;2008-01-28 10:31;CYYC 281031Z 35020G28KT 1 1/2SM -SN BLSN BKN010 OVC025 M29/ RMK SC6SC2

CYYC;2008-01-28 11:00;CYYC 281100Z 35024G29KT 3SM -SN BLSN BKN015 OVC035 M30/M35 A2956 RMK SC6SC2 SLP123

CYYC;2008-01-28 12:00;CYYC 281200Z 35018KT 2 1/2SM -SN OVC020 M30/M35 A2958 RMK SC7 SNOW COVER/MUCH LOOSE/S01/ SLP134

CYYC;2008-01-28 13:00;CYYC 281300Z 35022G27KT 7SM -SN SCT020 BKN180 M31/M37 A2958 RMK SC2AC2 SLP134

CYYC;2008-01-28 14:00;CYYC 281400Z 34018KT 10SM -SN SCT030 BKN170 BKN220 M31/M37 A2959 RMK SC2AC3CI0 SLP139

CYYC;2008-01-28 14:45;CYYC 281445Z 34014G19KT 12SM FEW035 BKN180 M32/ RMK SC2AC3

CYYC;2008-01-28 15:00;CYYC 281500Z 34012KT 12SM FEW030 SCT150 M32/M38 A2961 RMK SC2AC2 SLP153

CYYC;2008-01-28 16:00;CYYC 281600Z 34012KT 30SM FEW040 FEW150 M33/M38 A2964 RMK SC1AC1 SLP161

CYYC;2008-01-28 17:00;CYYC 281700Z 34015KT 30SM FEW080 FEW150 M32/M38 A2965 RMK AC1AC1 SLP165

CYYC;2008-01-28 18:00;CYYC 281800Z 34018KT 20SM FEW027 FEW035 SCT062 M31/M37 A2965 RMK SC1SC2SC0 SLP171

CYYC;2008-01-28 19:00;CYYC 281900Z 33015G21KT 20SM DRSN FEW030 FEW085 M30/M36 A2967 RMK SC1AC1 SLP176

CYYC;2008-01-28 20:00;CYYC 282000Z 33018KT 20SM DRSN FEW040 FEW100 M29/M36 A2966 RMK SC1AC1 SLP174

CYYC;2008-01-28 21:00;CYYC 282100Z 35013KT 20SM DRSN FEW080 FEW150 M29/M36 A2967 RMK AC1AC1 SLP175

CYYC;2008-01-28 21:52;CYYC 282152Z 35012KT 20SM FEW065 FEW080 SCT150 M29/ RMK SC1AC1AC1

CYYC;2008-01-28 22:00;CYYC 282200Z 35010KT 20SM FEW065 FEW090 SCT150 BKN240 M29/M36 A2969 RMK SC1AC1AC1CI0 SLP182

CYYC;2008-01-28 23:00;CYYC 282300Z 36011KT 15SM BKN048 OVC080 M29/M36 A2971 RMK SC5AC2 SLP188

CYYC;2008-01-28 23:45;CYYC 282345Z 36009KT 4SM IC BKN031 OVC046 M29/ RMK SC6SC2

CYYC;2008-01-29 00:00;CYYC 290000Z 35008KT 5SM IC BKN029 OVC044 M29/M36 A2973 RMK SC5SC2 SLP199

CYYC;2008-01-29 01:00;CYYC 290100Z 35006KT 12SM FEW030 BKN078 BKN096 M30/M36 A2973 RMK SC2AC2AC1 SLP200

CYYC;2008-01-29 02:00;CYYC 290200Z 35005KT 15SM FEW060 FEW240 M31/M37 A2974 RMK SC1CI0 SLP202

CYYC;2008-01-29 03:00;CYYC 290300Z 00000KT 15SM SCT065 M31/M36 A2974 RMK SC2 SLP208

CYYC;2008-01-29 04:00;CYYC 290400Z 07002KT 15SM FEW065 FEW110 M31/M36 A2974 RMK SC1AC1 SLP207

CYYC;2008-01-29 05:00;CYYC 290500Z 06003KT 15SM FEW018 FEW110 M32/M36 A2974 RMK SC1AC0 SLP209

CYYC;2008-01-29 06:00;CYYC 290600Z 07003KT 15SM SKC M32/M36 A2974 RMK SLP209

CYYC;2008-01-29 07:00;CYYC 290700Z 06002KT 15SM SKC M31/M36 A2974 RMK SLP208

CYYC;2008-01-29 08:00;CYYC 290800Z 13005KT 15SM SKC M31/M37 A2974 RMK SLP207

CYYC;2008-01-29 09:00;CYYC 290900Z 16005KT 3SM HZ FEW004 M33/M37 A2974 RMK SC2 SLP204

CYYC;2008-01-29 10:00;CYYC 291000Z 18006KT 8SM SKC M32/M37 A2973 RMK VIS LWR DUE TO HTG VPR SLP203

CYYC;2008-01-29 11:00;CYYC 291100Z 18008KT 12SM SKC M32/M36 A2972 RMK HTG VPR SLP198

CYYC;2008-01-29 12:00;CYYC 291200Z CCA 18008KT 10SM SCT240 M32/M36 A2971 RMK CI1 HTG VPR / SNOW COVER MED PACK SLP193

CYYC;2008-01-29 13:00;CYYC 291300Z 17010KT 8SM FEW009 SCT120 BKN150 M31/M36 A2970 RMK SC1AC4AC1 HTG VPR SLP190

CYYC;2008-01-29 14:00;CYYC 291400Z 19008KT 8SM BKN110 M31/M36 A2968 RMK AC3 HTG VPR SLP185

CYYC;2008-01-29 15:00;CYYC 291500Z CCA 18009KT 8SM BKN110 M31/M35 A2967 RMK AC2 BR S-NW VIS S-NW 21/2 SLP182

CYYC;2008-01-29 15:18;CYYC 291518Z 18011KT 2 1/2SM IC BKN110 M31/ RMK AC2

CYYC;2008-01-29 16:00;CYYC 291600Z 18008KT 2SM IC BKN120 M31/M35 A2965 RMK AC2 SLP177

CYYC;2008-01-29 16:39;CYYC 291639Z 17010KT 2SM IC BKN080 OVC120 M31/ RMK AC5AC1

CYYC;2008-01-29 17:00;CYYC 291700Z 18009KT 2 1/2SM IC BKN070 OVC120 M30/M35 A2964 RMK AC5AC1 SLP171

CYYC;2008-01-29 18:00;CYYC 291800Z 17012KT 3SM IC BKN070 OVC120 M30/M35 A2962 RMK AC5AC1 SLP163

CYYC;2008-01-29 19:00;CYYC 291900Z CCA 16012KT 20SM FEW070 BKN120 M29/M34 A2958 RMK AC1AC6 SLP152

CYYC;2008-01-29 19:35;CYYC 291935Z 16015KT 40SM FEW070 BKN120 M28/ RMK AC1AC7

CYYC;2008-01-29 20:00;CYYC 292000Z 16015G20KT 30SM FEW060 BKN100 M28/M34 A2956 RMK SC1AC7 VIRGA SLP145

CYYC;2008-01-29 21:00;CYYC 292100Z 17015KT 30SM FEW060 BKN100 M28/M34 A2954 RMK SC1AC7 VIRGA SLP133

CYYC;2008-01-29 22:00;CYYC 292200Z 16012KT 30SM FEW070 BKN100 M27/M33 A2953 RMK AC1AC7 VIRGA SLP129

CYYC;2008-01-29 23:00;CYYC 292300Z 16015KT 30SM FEW070 BKN090 M27/M32 A2952 RMK AC1AC7 VIRGA SLP126

CYYC;2008-01-30 00:00;CYYC 300000Z 16012KT 20SM FEW013 FEW070 BKN090 BKN180 M27/M32 A2951 RMK SC1AC1AC4AC1 SLP122

CYYC;2008-01-30 01:00;CYYC 300100Z 16012KT 10SM FEW013 BKN140 M27/M32 A2951 RMK SC1AC5 SLP121

CYYC;2008-01-30 01:43;CYYC 300143Z 15010KT 7SM SCT012 OVC120 M27/ RMK SC2AC5

CYYC;2008-01-30 02:00;CYYC 300200Z 16010KT 3SM IC FEW012 OVC120 M27/M32 A2951 RMK SC1AC4 SLP121

CYYC;2008-01-30 03:00;CYYC 300300Z 14009KT 3SM IC FEW012 SCT084 OVC120 M28/M32 A2952 RMK SC1AC2AC2 SLP124

CYYC;2008-01-30 04:00;CYYC 300400Z 15008KT 5SM IC FEW018 FEW040 OVC080 M28/M32 A2953 RMK SC1SC2AC4 SLP127

CYYC;2008-01-30 05:00;CYYC 300500Z 17007KT 5SM IC FEW011 FEW040 OVC065 M27/M32 A2953 RMK SC1SC2SC5 SLP126

CYYC;2008-01-30 06:00;CYYC 300600Z 13007KT 4SM IC FEW014 BKN056 OVC067 M28/M32 A2953 RMK SF1SC5AC2 SLP127

CYYC;2008-01-30 07:00;CYYC 300700Z 13006KT 3SM IC FEW040 BKN048 OVC068 M28/M32 A2954 RMK SC2SC6AC1 SLP130

CYYC;2008-01-30 08:00;CYYC 300800Z 13008KT 5SM IC SCT055 OVC068 M28/M32 A2955 RMK SC3AC5 VIS W 3 SLP132

CYYC;2008-01-30 08:46;CYYC 300846Z 13006KT 4SM IC SCT005 OVC048 M28/ RMK SC3SC5 VIS W 3

CYYC;2008-01-30 09:00;CYYC 300900Z 14005KT 3SM IC SCT005 OVC059 M28/M32 A2955 RMK SC2SC6 SLP129

CYYC;2008-01-30 10:00;CYYC 301000Z 16007KT 5SM IC OVC082 M27/M31 A2954 RMK AC8 SLP128

CYYC;2008-01-30 11:00;CYYC 301100Z CCA 18007KT 8SM FEW011 OVC082 M27/M31 A2954 RMK SC1AC7 SLP127

CYYC;2008-01-30 11:33;CYYC 301133Z 18005KT 15SM FEW082 FEW230 M27/ RMK AC1CI2

CYYC;2008-01-30 12:00;CYYC 301200Z CCA 19005KT 15SM FEW230 M28/M32 A2955 RMK CI1 SNOW COVER MED PACK SLP130

CYYC;2008-01-30 13:00;CYYC 301300Z 18007KT 4SM IC BKN088 M27/M31 A2955 RMK AC3 SLP130

CYYC;2008-01-30 14:00;CYYC 301400Z 14005KT 10SM FEW088 M28/M32 A2957 RMK AC1 SLP134

CYYC;2008-01-30 15:00;CYYC 301500Z 15006KT 10SM FEW088 SCT180 M28/M32 A2957 RMK AC1AC0 VIS N-NE+SW 3 SLP138

CYYC;2008-01-30 16:00;CYYC 301600Z 17005KT 5SM IC FEW088 SCT200 M28/M32 A2957 RMK AC1CI0 SLP138

CYYC;2008-01-30 17:00;CYYC 301700Z 18006KT 4SM IC FEW090 BKN180 M26/M31 A2958 RMK AC1AC0 SLP140

CYYC;2008-01-30 17:42;CYYC 301742Z 18006KT 30SM FEW180 M25/ RMK AC0 VIS SW 4

CYYC;2008-01-30 18:00;CYYC 301800Z 16004KT 30SM FEW180 M25/M30 A2958 RMK AC1 VIS SW 3 SLP134

CYYC;2008-01-30 19:00;CYYC 301900Z 16003KT 30SM FEW180 FEW230 M23/M29 A2959 RMK AC1CI0 SLP138

CYYC;2008-01-30 20:00;CYYC 302000Z 17004KT 30SM FEW080 FEW180 SCT230 M22/M29 A2959 RMK AC1AC1CI0 SLP137

CYYC;2008-01-30 21:00;CYYC 302100Z 14003KT 20SM FEW080 BKN250 M21/M28 A2959 RMK AC1CI0 SLP134

CYYC;2008-01-30 22:00;CYYC 302200Z 18007KT 20SM FEW080 FEW160 FEW250 M20/M26 A2958 RMK AC1AC1CI0 SLP130

CYYC;2008-01-30 23:00;CYYC 302300Z 19010KT 15SM FEW080 BKN170 M20/M26 A2957 RMK AC1AC2 SLP129

CYYC;2008-01-31 00:00;CYYC 310000Z 19009KT 30SM FEW080 FEW170 BKN230 M20/M26 A2956 RMK AC1AC1CI0 SLP122

CYYC;2008-01-31 01:00;CYYC 310100Z 18006KT 15SM FEW080 FEW170 BKN220 M19/M25 A2953 RMK AC1AC1CI3 SLP113

CYYC;2008-01-31 02:00;CYYC 310200Z 18005KT 15SM BKN170 M18/M23 A2952 RMK AC7 SLP109

CYYC;2008-01-31 03:00;CYYC 310300Z 18006KT 15SM FEW090 OVC150 M17/M22 A2951 RMK AC1AC7 SLP098

CYYC;2008-01-31 04:00;CYYC 310400Z 19007KT 15SM FEW090 OVC150 M17/M21 A2949 RMK AC1AC7 SLP094

CYYC;2008-01-31 05:00;CYYC 310500Z 21008KT 15SM SCT150 M16/M21 A2948 RMK AC3 SLP091

CYYC;2008-01-31 06:00;CYYC 310600Z 19006KT 15SM FEW150 BKN230 M15/M20 A2947 RMK AC2CI3 SLP079

CYYC;2008-01-31 07:00;CYYC 310700Z 18002KT 15SM SCT160 BKN220 M13/M18 A2946 RMK AC2CI4 SLP076

CYYC;2008-01-31 08:00;CYYC 310800Z 19005KT 15SM SCT150 BKN220 M12/M17 A2943 RMK AC2CI4 SLP066

CYYC;2008-01-31 09:00;CYYC 310900Z 19006KT 15SM SCT140 BKN210 M12/M17 A2941 RMK AC2CI4 SLP046

CYYC;2008-01-31 10:00;CYYC 311000Z 18002KT 15SM FEW170 BKN220 M11/M16 A2939 RMK AC2CI3 SLP041

CYYC;2008-01-31 11:00;CYYC 311100Z 00000KT 15SM FEW140 BKN220 M12/M16 A2937 RMK AC2CI3 SLP034

CYYC;2008-01-31 12:00;CYYC 311200Z CCA 31002KT 15SM SCT100 OVC220 M11/M15 A2931 RMK AC4CI4 SNOW COVER/ MUCH LOOSE SLP010

CYYC;2008-01-31 13:00;CYYC 311300Z 00000KT 15SM FEW100 BKN150 OVC220 M11/M15 A2929 RMK AC2AC4CI2 SLP004

CYYC;2008-01-31 14:00;CYYC 311400Z CCA 33004KT 15SM FEW100 BKN170 BKN220 M13/M19 A2927 RMK AC1AC4CI2 SLP997

CYYC;2008-01-31 15:00;CYYC 311500Z 34003KT 20SM FEW120 BKN200 M15/M17 A2925 RMK AC1CI0 SLP990

CYYC;2008-01-31 16:00;CYYC 311600Z 35005KT 20SM FEW120 BKN160 M15/M17 A2926 RMK AC1AC3 SLP993

CYYC;2008-01-31 17:00;CYYC 311700Z 04006KT 40SM FEW100 BKN160 M15/M18 A2925 RMK AC1AC2 SLP991

CYYC;2008-01-31 18:00;CYYC 311800Z 03011KT 30SM FEW090 SCT160 M18/M20 A2929 RMK AC1AC1 SLP006

CYYC;2008-01-31 19:00;CYYC 311900Z 36015KT 20SM FEW090 FEW160 M19/M22 A2930 RMK AC1AC1 SLP010

CYYC;2008-01-31 20:00;CYYC 312000Z 36015G20KT 20SM FEW090 FEW160 M18/M21 A2932 RMK AC1AC0 SLP014

CYYC;2008-01-31 21:00;CYYC 312100Z 36014KT 20SM FEW090 FEW120 M18/M25 A2933 RMK AC1AC1 SLP013

CYYC;2008-01-31 22:00;CYYC 312200Z 36013KT 20SM FEW090 FEW120 M18/M24 A2934 RMK AC1AC1 SLP018

CYYC;2008-01-31 23:00;CYYC 312300Z 36011KT 20SM SCT094 BKN140 M18/M24 A2937 RMK AC2AC1 SLP027

CYYC;2008-02-01 01:00;CYYC 010100Z 01011KT 15SM FEW094 FEW140 M20/M25 A2942 RMK AC1AC0 SLP046

CYYC;2008-02-01 02:00;CYYC 010200Z 36011KT 15SM FEW200 M21/M26 A2945 RMK CI0 SLP055

CYYC;2008-02-01 03:00;CYYC 010300Z 36008KT 15SM FEW110 BKN200 M23/M28 A2946 RMK AC1CI2 SLP073

CYYC;2008-02-01 04:00;CYYC 010400Z 36007KT 15SM FEW110 BKN200 M23/M28 A2947 RMK AC1CI2 SLP077

CYYC;2008-02-01 05:00;CYYC 010500Z 34007KT 15SM FEW150 FEW220 M24/M28 A2948 RMK AC1CI1 SLP080

CYYC;2008-02-01 06:00;CYYC 010600Z 00000KT 15SM FEW180 SCT220 M23/M28 A2950 RMK AC1CI1 SLP091

CYYC;2008-02-01 07:00;CYYC 010700Z 00000KT 15SM FEW150 BKN200 M23/M28 A2951 RMK AC1CI2 SLP094

CYYC;2008-02-01 08:00;CYYC 010800Z 00000KT 15SM SCT170 BKN220 M23/M28 A2950 RMK AC2CI2 SLP092

CYYC;2008-02-01 09:00;CYYC 010900Z 18004KT 15SM SCT150 BKN220 M23/M26 A2951 RMK AC3CI2 SLP092

CYYC;2008-02-01 10:00;CYYC 011000Z 19003KT 15SM SCT150 OVC220 M22/M26 A2951 RMK AC3CI2 SLP092

CYYC;2008-02-01 11:00;CYYC 011100Z 12006KT 15SM BKN170 OVC220 M23/M27 A2950 RMK AC5CI2 SLP090

CYYC;2008-02-01 12:00;CYYC 011200Z 14003KT 15SM BKN140 OVC210 M22/M26 A2951 RMK AC6CI2 SNOW COVER/ MEDIUM PACK SLP093

CYYC;2008-02-01 13:00;CYYC 011300Z 00000KT 15SM BKN160 OVC210 M24/M27 A2953 RMK AC5CI2 SLP098

CYYC;2008-02-01 14:00;CYYC 011400Z 04002KT 15SM FEW120 BKN200 M24/M27 A2955 RMK AC2CI2 SLP105

CYYC;2008-02-01 15:00;CYYC 011500Z 04006KT 8SM FEW140 BKN200 M25/M29 A2958 RMK AC1CI1 SLP130

CYYC;2008-02-01 16:00;CYYC 011600Z 06002KT 8SM FEW080 FEW140 BKN180 M25/M30 A2961 RMK AC1AC1AC1 SLP139

CYYC;2008-02-01 17:00;CYYC 011700Z 00000KT 30SM FEW080 BKN150 M24/M29 A2962 RMK AC1AC2 SLP142

CYYC;2008-02-01 18:00;CYYC 011800Z 18003KT 30SM FEW080 BKN150 M21/M26 A2963 RMK AC1AC2 SLP139

CYYC;2008-02-01 19:00;CYYC 011900Z 18006KT 30SM FEW080 FEW140 M18/M24 A2961 RMK AC1AC0 SLP134

CYYC;2008-02-01 20:00;CYYC 012000Z 17004KT 30SM FEW080 FEW140 M15/M22 A2960 RMK AC1AC0 SLP132

CYYC;2008-02-01 21:00;CYYC 012100Z 13002KT 20SM FEW080 FEW140 FEW210 M12/M20 A2961 RMK AC1AC1CI0 SLP119

CYYC;2008-02-01 22:00;CYYC 012200Z 20003KT 20SM FEW080 FEW140 FEW210 M11/M19 A2961 RMK AC1AC1CI0 SLP120

CYYC;2008-02-01 23:00;CYYC 012300Z 13004KT 8SM FEW080 FEW140 FEW210 M12/M19 A2962 RMK AC1AC1CI0 SLP123

CYYC;2008-02-02 00:00;CYYC 020000Z 14006KT 8SM FEW080 FEW140 FEW210 M15/M21 A2964 RMK AC1AC1CI0 SLP133

CYYC;2008-02-02 01:00;CYYC 020100Z 15005KT 8SM FEW080 FEW140 SCT210 M18/M23 A2965 RMK AC1AC1CI1 SLP136

CYYC;2008-02-02 02:00;CYYC 020200Z 14005KT 10SM BKN140 BKN220 M18/M23 A2964 RMK AC2CI0 SLP135

CYYC;2008-02-02 03:00;CYYC 020300Z 15005KT 15SM SCT150 BKN190 BKN230 M18/M23 A2964 RMK AC3AC1CI1 SLP144

CYYC;2008-02-02 04:00;CYYC 020400Z 15003KT 15SM BKN140 M19/M23 A2964 RMK AC6 SLP144

CYYC;2008-02-02 05:00;CYYC 020500Z 19005KT 15SM SCT190 M18/M22 A2963 RMK AC2 SLP140

CYYC;2008-02-02 06:00;CYYC 020600Z 19007KT 15SM BKN190 M17/M21 A2963 RMK AC4 SLP129

CYYC;2008-02-02 07:00;CYYC 020700Z 20007KT 12SM BKN200 M17/M21 A2962 RMK CI3 SLP127

CYYC;2008-02-02 08:00;CYYC 020800Z 19007KT 15SM FEW220 M17/M20 A2961 RMK CI1 SLP124

CYYC;2008-02-02 09:00;CYYC 020900Z 35018G26KT 15SM SCT150 M19/M24 A2965 RMK AC2 SLP130

CYYC;2008-02-02 10:00;CYYC 021000Z 34014KT 15SM FEW130 SCT170 M19/M25 A2967 RMK AC1AC2 SLP134

CYYC;2008-02-02 11:00;CYYC 021100Z 35013KT 15SM SKC M18/M23 A2966 RMK SLP132

CYYC;2008-02-02 12:00;CYYC 021200Z CCB 36008KT 15SM FEW210 M17/M21 A2966 RMK CI1 SNOW COVER MEDIUM PACK SLP135

CYYC;2008-02-02 13:00;CYYC 021300Z CCA 33004KT 15SM FEW120 M15/M18 A2967 RMK AC1 SLP136

CYYC;2008-02-02 14:00;CYYC 021400Z 21006KT 15SM SCT100 M19/M22 A2967 RMK AC3 SLP138

CYYC;2008-02-02 15:00;CYYC 021500Z 19003KT 40SM FEW015 SCT042 BKN085 M14/M17 A2967 RMK CU1SC4AC3 SLP137

CYYC;2008-02-02 16:00;CYYC 021600Z 22005KT 40SM FEW016 SCT044 BKN260 M14/M18 A2967 RMK CU1SC3CI0 SLP137

CYYC;2008-02-02 17:00;CYYC 021700Z 20007KT 40SM SCT044 SCT220 BKN260 M12/M17 A2967 RMK SC3CI1CI0 DIST SH SW SLP137

CYYC;2008-02-02 18:00;CYYC 021800Z 21004KT 40SM FEW044 FEW100 SCT230 M09/M14 A2966 RMK SC1AC1CI1 DIST SH SW SLP124

CYYC;2008-02-02 19:00;CYYC 021900Z 22006KT 40SM FEW100 FEW220 M07/M13 A2964 RMK AC1CI1 SLP119

CYYC;2008-02-02 20:00;CYYC 022000Z 19006KT 40SM FEW190 BKN260 M05/M14 A2961 RMK AC2CI4 SLP110

CYYC;2008-02-02 21:00;CYYC 022100Z CCA 18009KT 40SM FEW180 BKN260 M05/M16 A2959 RMK AC1CI0 DIST SH SW SLP099

CYYC;2008-02-02 22:00;CYYC 022200Z 17009KT 40SM FEW048 FEW180 FEW260 M05/M17 A2959 RMK CU1AC1CI0 DIST SH SWCU TR SLP097

CYYC;2008-02-02 23:00;CYYC 022300Z 16010KT 40SM FEW040 FEW240 M06/M16 A2958 RMK CU1CI1 DIST SH SW SLP094

CYYC;2008-02-03 00:00;CYYC 030000Z 15006KT 40SM FEW024 FEW260 M09/M16 A2957 RMK CU1CI1 DIST SH SW SLP093

CYYC;2008-02-03 01:00;CYYC 030100Z 15006KT 40SM FEW020 FEW260 M11/M17 A2957 RMK SC1CI1 SLP092

CYYC;2008-02-03 02:00;CYYC 030200Z 15004KT 15SM FEW140 SCT200 BKN260 M12/M16 A2956 RMK AC2CI2CI0 SLP089

CYYC;2008-02-03 03:00;CYYC 030300Z 11003KT 15SM BKN140 M14/M16 A2955 RMK AC4 SLP088

CYYC;2008-02-03 04:00;CYYC 030400Z 15004KT 15SM FEW140 FEW220 M13/M16 A2954 RMK AC1CI1 SLP085

CYYC;2008-02-03 05:00;CYYC 030500Z 10002KT 15SM FEW150 M17/M19 A2953 RMK AC2 SLP082

CYYC;2008-02-03 06:00;CYYC 030600Z 18003KT 15SM SCT097 M16/M17 A2952 RMK AC2 SLP075

CYYC;2008-02-03 07:00;CYYC 030700Z 00000KT 15SM FEW160 M16/M17 A2952 RMK AC1 SLP074

CYYC;2008-02-03 08:00;CYYC 030800Z 36004KT 15SM BKN100 M20/M21 A2952 RMK AC5 SLP073

CYYC;2008-02-03 09:00;CYYC 030900Z 02002KT 15SM BKN075 M19/M20 A2950 RMK AC5 SLP065

CYYC;2008-02-03 10:00;CYYC 031000Z 00000KT 15SM FEW085 M16/M17 A2950 RMK AC1 SLP067

CYYC;2008-02-03 11:00;CYYC 031100Z 34005KT 15SM SKC M20/M21 A2950 RMK SLP067

CYYC;2008-02-03 12:00;CYYC 031200Z CCA 35007KT 15SM SKC M20/M21 A2951 RMK SNOW COVER MEDIUM PACK SLP077

CYYC;2008-02-03 13:00;CYYC 031300Z 34009KT 15SM FEW200 M18/M19 A2952 RMK CI0 SLP079

CYYC;2008-02-03 14:00;CYYC 031400Z 34011KT 15SM FEW140 BKN160 M17/M18 A2954 RMK AC1AC5 SLP085

CYYC;2008-02-03 15:00;CYYC 031500Z 34008KT 20SM SCT090 BKN100 BKN140 M17/M18 A2955 RMK AC4AC2AC1 SLP094

CYYC;2008-02-03 16:00;CYYC 031600Z 35008KT 25SM FEW055 FEW100 FEW260 M16/M18 A2958 RMK SC1AC1CI0 SLP101

CYYC;2008-02-03 17:00;CYYC 031700Z 34009KT 25SM FEW140 FEW260 M15/M16 A2959 RMK AC1CI1 SLP106

CYYC;2008-02-03 18:00;CYYC 031800Z 35014KT 25SM FEW080 FEW250 M13/M16 A2961 RMK AC1CI1 SLP111

CYYC;2008-02-03 19:00;CYYC 031900Z 35015KT 25SM SCT022 BKN078 M12/M15 A2962 RMK SC4AC2 SLP113

CYYC;2008-02-03 20:00;CYYC 032000Z 34014KT 20SM -SN FEW010 SCT019 OVC072 M12/M14 A2962 RMK SC1SC3AC4 PCPN VRY LGT SLP113

CYYC;2008-02-03 21:00;CYYC 032100Z CCA 36012KT 20SM -SN SCT017 OVC023 M11/M14 A2963 RMK SC3SC4 PCPN VRY LGT SLP119

CYYC;2008-02-03 22:00;CYYC 032200Z 01012KT 12SM -SN OVC020 M12/M14 A2965 RMK SC8 SLP126

CYYC;2008-02-03 22:29;CYYC 032229Z 36014KT 5SM -SN FEW008 FEW016 OVC024 M12/ RMK SC1SC1SC7 LO CLD OVR RWY

CYYC;2008-02-03 23:00;CYYC 032300Z 36012KT 5SM -SN BR FEW008 FEW016 OVC026 M12/M14 A2967 RMK SC1SC1SC7 LO CLD OVR RWY SLP132

CYYC;2008-02-04 00:00;CYYC 040000Z 36011KT 5SM -SN BR SCT012 BKN020 OVC072 M12/M14 A2970 RMK SC3SC3AC2 SLP147

CYYC;2008-02-04 01:00;CYYC 040100Z 36012KT 5SM -SN BR SCT021 BKN040 OVC070 M13/M14 A2973 RMK SC3SC2AC3 SLP157

CYYC;2008-02-04 02:00;CYYC 040200Z 01010KT 5SM -SN BR SCT010 BKN021 BKN038 OVC068 M13/M15 A2977 RMK SC4SC1SC2AC2 SLP168

CYYC;2008-02-04 02:03;CYYC 040203Z 36012KT 2 1/2SM -SN BR SCT010 BKN038 OVC068 M13/ RMK FG2SC2SC1AC3

CYYC;2008-02-04 03:00;CYYC 040300Z 36011KT 3SM -SN BR SCT015 BKN030 OVC080 M14/M15 A2980 RMK SC3SC3AC2 SLP178

CYYC;2008-02-04 04:00;CYYC 040400Z 36008KT 3SM -SN BR FEW015 BKN030 OVC080 M14/M15 A2982 RMK SC2SC2AC4 SLP185

CYYC;2008-02-04 04:24;CYYC 040424Z 35007KT 2 1/2SM -SN BR SCT015 BKN030 OVC080 M14/ RMK SC2SC3AC2

CYYC;2008-02-04 05:00;CYYC 040500Z 34006KT 2 1/2SM -SN BR SCT030 BKN080 OVC180 M14/M15 A2984 RMK SC3AC4AC1 SLP192

CYYC;2008-02-04 06:00;CYYC 040600Z 01005KT 2 1/2SM -SN BR BKN045 OVC080 M14/M16 A2986 RMK SC3AC4 SLP196

CYYC;2008-02-04 07:00;CYYC 040700Z 00000KT 4SM -SN BR OVC045 M15/M16 A2987 RMK SC7 SLP198

CYYC;2008-02-04 08:00;CYYC 040800Z 00000KT 10SM -SN BKN045 BKN080 M16/M17 A2987 RMK SC3AC1 SLP199

CYYC;2008-02-04 09:00;CYYC 040900Z CCA 34002KT 8SM -SN FEW045 SCT180 BKN210 M17/M18 A2987 RMK SC1AC1CI0 SLP202

CYYC;2008-02-04 10:00;CYYC 041000Z 00000KT 10SM -SN BKN180 M18/M19 A2988 RMK AC2 SLP204

CYYC;2008-02-04 10:10;CYYC 041010Z 00000KT 15SM FEW080 BKN180 M18/ RMK AC1AC2

CYYC;2008-02-04 11:00;CYYC 041100Z 00000KT 6SM BR BKN250 M19/M19 A2989 RMK CI1 SLP206

CYYC;2008-02-04 12:00;CYYC 041200Z CCA 00000KT 6SM BR BKN250 M21/M21 A2988 RMK CI1 SLP213

CYYC;2008-02-04 13:00;CYYC 041300Z 19003KT 6SM BR BCFG FEW060 SCT180 BKN250 M21/M22 A2988 RMK SC1AC1CI0 SC TR SLP214

CYYC;2008-02-04 14:00;CYYC 041400Z 00000KT 8SM FEW060 SCT140 BKN220 M21/M22 A2989 RMK SC1AC1CI0 SLP216

CYYC;2008-02-04 15:00;CYYC 041500Z 20002KT 6SM BR FEW060 FEW140 SCT220 M20/M21 A2990 RMK SC1AC1CI0 SLP221

CYYC;2008-02-04 15:28;CYYC 041528Z CCA 21003KT 2SM BR FEW060 FEW140 SCT220 M20/ RMK SC1AC1CI0 VIS W 3

CYYC;2008-02-04 15:43;CYYC 041543Z 21002KT 5SM BR FEW140 BKN240 M20/ RMK AC1CI0

CYYC;2008-02-04 15:56;CYYC 041556Z 21002KT 1 1/2SM IC FEW240 M20/ RMK CI0

CYYC;2008-02-04 16:00;CYYC 041600Z CCA 22003KT 4SM IC FEW240 M20/M21 A2990 RMK CI0 VIS VRB 1-4 SLP221

CYYC;2008-02-04 17:00;CYYC 041700Z 20002KT 3SM IC FEW250 M18/M19 A2990 RMK CI0 VIS VRB 1-5 / VIS N 11/2 SLP221

CYYC;2008-02-04 18:00;CYYC 041800Z 18009KT 3SM BR BKN160 M16/M16 A2990 RMK AC2 VIS VRB 1-5 SLP214

CYYC;2008-02-04 19:00;CYYC 041900Z 14006KT 5SM BR FEW160 FEW250 M15/M15 A2988 RMK AC1CI1 SLP207

CYYC;2008-02-04 20:00;CYYC 042000Z 16007KT 6SM BR SCT160 SCT250 M15/M15 A2986 RMK AC1CI1 SLP202

CYYC;2008-02-04 21:00;CYYC 042100Z 16009KT 6SM BR BKN150 M14/M16 A2984 RMK AC3 SLP196

CYYC;2008-02-04 22:00;CYYC 042200Z 17011KT 6SM BR SCT150 BKN250 M14/M16 A2983 RMK AC2CI1 SLP191

CYYC;2008-02-04 23:00;CYYC 042300Z 17009KT 6SM BR SCT150 BKN250 M14/M16 A2983 RMK AC2CI0 SLP191

CYYC;2008-02-05 00:00;CYYC 050000Z 18008KT 8SM FEW080 FEW150 SCT250 M15/M16 A2983 RMK AC1AC0CI0 SLP199

CYYC;2008-02-05 01:00;CYYC 050100Z 19007KT 7SM FEW080 FEW150 FEW250 M16/M17 A2984 RMK AC1AC1CI0 SLP200

CYYC;2008-02-05 02:00;CYYC 050200Z 18005KT 10SM FEW180 M16/M18 A2984 RMK AC0 SLP201

CYYC;2008-02-05 03:00;CYYC 050300Z 00000KT 15SM FEW180 M17/M18 A2985 RMK AC1 SLP206

CYYC;2008-02-05 04:00;CYYC 050400Z 04003KT 15SM SKC M17/M18 A2985 RMK SLP209

CYYC;2008-02-05 05:00;CYYC 050500Z 05003KT 15SM SKC M16/M19 A2986 RMK SLP210

CYYC;2008-02-05 06:00;CYYC 050600Z 35004KT 15SM FEW230 M16/M19 A2985 RMK CI1 SLP201

CYYC;2008-02-05 07:00;CYYC 050700Z 30002KT 15SM BKN230 M12/M17 A2985 RMK CI0 SLP201

CYYC;2008-02-05 08:00;CYYC 050800Z 19003KT 15SM FEW230 M11/M17 A2985 RMK CI1 SLP201

CYYC;2008-02-05 09:00;CYYC 050900Z 18007KT 15SM SCT230 M13/M17 A2984 RMK CI0 SLP190

CYYC;2008-02-05 10:00;CYYC 051000Z 19006KT 15SM FEW230 M13/M17 A2984 RMK CI0 SLP188

CYYC;2008-02-05 11:00;CYYC 051100Z 15003KT 15SM FEW120 M12/M17 A2982 RMK AC1 SLP184

CYYC;2008-02-05 12:00;CYYC 051200Z CCA 18003KT 15SM SKC M12/M17 A2980 RMK SNOW COVER/MUCH LOOSE SLP175

CYYC;2008-02-05 13:00;CYYC 051300Z 17004KT 15SM BKN250 M11/M17 A2978 RMK CI2 SLP169

CYYC;2008-02-05 14:00;CYYC 051400Z 19004KT 15SM BKN230 M12/M16 A2976 RMK CI1 SLP163

CYYC;2008-02-05 15:00;CYYC 051500Z 16003KT 40SM FEW080 FEW180 BKN210 M10/M15 A2974 RMK AC1AC1CI0 LWR AC TR SLP155

CYYC;2008-02-05 16:00;CYYC 051600Z CCA 18003KT 40SM FEW080 FEW180 BKN250 M10/M16 A2972 RMK AC1AC1CI0 SLP149

CYYC;2008-02-05 17:00;CYYC 051700Z 22003KT 40SM FEW080 FEW180 BKN240 M08/M15 A2970 RMK AC1AC1CI0 SLP141

CYYC;2008-02-05 18:00;CYYC 051800Z CCA 18004KT 40SM FEW080 FEW180 BKN240 M05/M13 A2968 RMK AC1AC1CI1 SLP123

CYYC;2008-02-05 19:00;CYYC 051900Z 19005KT 40SM BKN090 BKN180 BKN240 M03/M11 A2964 RMK AC3AC1CI1 SLP111

CYYC;2008-02-05 20:00;CYYC 052000Z 20009KT 40SM FEW080 BKN110 BKN190 BKN240 M03/M10 A2959 RMK AC1AC3AC4CI1 SLP097

CYYC;2008-02-05 21:00;CYYC 052100Z 20009KT 40SM FEW080 BKN110 BKN190 BKN240 M03/M10 A2954 RMK AC1AC4AC3CI1 SLP069

CYYC;2008-02-05 22:00;CYYC 052200Z 20008KT 40SM FEW080 FEW110 BKN190 BKN240 M03/M08 A2950 RMK AC1AC2AC2CI3 SLP057

CYYC;2008-02-05 23:00;CYYC 052300Z 18005KT 40SM FEW080 FEW140 BKN190 BKN250 M02/M09 A2947 RMK AC1AC2AC2CI4 SLP046

CYYC;2008-02-06 00:00;CYYC 060000Z 17008KT 15SM FEW080 FEW140 SCT190 BKN250 M01/M08 A2943 RMK AC1AC1AC2CI4 SLP025

CYYC;2008-02-06 01:00;CYYC 060100Z 19008KT 30SM FEW080 FEW140 BKN250 M01/M08 A2939 RMK AC1AC1CI1 LWR AC TR SLP011

CYYC;2008-02-06 02:00;CYYC 060200Z CCA 21008KT 15SM BKN250 M04/M09 A2937 RMK CI3 SLP005

CYYC;2008-02-06 03:00;CYYC 060300Z 14008KT 15SM FEW140 BKN240 M03/M09 A2936 RMK AC2CI2 SLP000

CYYC;2008-02-06 04:00;CYYC 060400Z 19004KT 15SM FEW210 FEW240 M03/M08 A2935 RMK CI1CI0 SLP997

CYYC;2008-02-06 05:00;CYYC 060500Z 26006KT 15SM FEW120 FEW240 M03/M11 A2935 RMK AC1CI1 CLDS TR SLP999

CYYC;2008-02-06 06:00;CYYC 060600Z 24010KT 15SM SKC M05/M12 A2932 RMK SLP983

CYYC;2008-02-06 07:00;CYYC 060700Z 20004KT 15SM SKC M04/M13 A2930 RMK SLP975

CYYC;2008-02-06 08:00;CYYC 060800Z 21007KT 15SM SKC M05/M14 A2930 RMK SLP975

CYYC;2008-02-06 09:00;CYYC 060900Z 24009KT 15SM FEW180 FEW240 M05/M14 A2929 RMK AC1CI0 SLP970

CYYC;2008-02-06 10:00;CYYC 061000Z 28004KT 15SM FEW120 SCT170 SCT240 M04/M13 A2932 RMK AC1AC2CI1 SLP978

CYYC;2008-02-06 11:00;CYYC 061100Z 27018KT 15SM SCT099 BKN120 BKN210 M01/M11 A2931 RMK AC3AC2CI0 SLP976

CYYC;2008-02-06 12:00;CYYC 061200Z 32008KT 15SM BKN110 BKN170 OVC210 M01/M11 A2937 RMK AC5AC2CI2 SNOW COVER/MEDIUM PACK SLP988

CYYC;2008-02-06 13:00;CYYC 061300Z 27010KT 15SM BKN140 BKN170 OVC210 M02/M12 A2939 RMK AC6AC2CI1 SLP994

CYYC;2008-02-06 14:00;CYYC 061400Z 28014KT 15SM SCT170 OVC240 M01/M12 A2943 RMK AC4CI3 SLP006

CYYC;2008-02-06 15:00;CYYC 061500Z 26014KT 30SM FEW080 BKN170 OVC240 M02/M12 A2947 RMK AC1AC3CI4 SLP030

CYYC;2008-02-06 16:00;CYYC 061600Z 26014KT 20SM FEW080 SCT170 BKN240 M03/M13 A2952 RMK AC1AC2CI1 SLP043

CYYC;2008-02-06 17:00;CYYC 061700Z 26015KT 40SM FEW080 SCT140 BKN240 M02/M15 A2956 RMK AC1AC1CI1 SLP056

CYYC;2008-02-06 18:00;CYYC 061800Z 26013KT 40SM FEW080 FEW140 SCT240 M01/M14 A2959 RMK AC1AC1CI0 SLP070

CYYC;2008-02-06 19:00;CYYC 061900Z 27016G21KT 40SM FEW090 FEW140 BKN220 BKN260 M00/M15 A2960 RMK AC1AC1CI0CI0 SLP075

CYYC;2008-02-06 20:00;CYYC 062000Z 27016G24KT 40SM FEW090 BKN200 BKN260 M00/M15 A2960 RMK AC1CI2CI0 SLP075

CYYC;2008-02-06 21:00;CYYC 062100Z 26016KT 40SM FEW040 FEW080 BKN180 M01/M14 A2961 RMK SC1AC1AC7 SLP077

CYYC;2008-02-06 22:00;CYYC 062200Z 28020G25KT 20SM FEW040 FEW080 FEW180 M01/M15 A2962 RMK SC1AC1AC1 SC+LWR AC TR SLP080

CYYC;2008-02-06 23:00;CYYC 062300Z 27019KT 20SM FEW080 FEW180 M01/M15 A2963 RMK AC1AC1 SLP085

CYYC;2008-02-07 00:00;CYYC 070000Z 27012KT 30SM FEW080 FEW180 FEW250 M03/M15 A2964 RMK AC1AC1CI0 SLP083

CYYC;2008-02-07 01:00;CYYC 070100Z 27007KT 30SM FEW080 FEW180 BKN260 M04/M15 A2965 RMK AC1AC1CI0 SLP088

CYYC;2008-02-07 02:00;CYYC 070200Z 27008KT 15SM FEW080 BKN220 M04/M15 A2965 RMK AC1CI3 SLP087

CYYC;2008-02-07 03:00;CYYC 070300Z 28006KT 15SM SCT140 OVC220 M05/M15 A2962 RMK AC2CI2 SLP084

CYYC;2008-02-07 04:00;CYYC 070400Z 34003KT 15SM BKN170 OVC240 M05/M15 A2960 RMK AC3CI2 SLP077

CYYC;2008-02-07 05:00;CYYC 070500Z 18005KT 15SM BKN140 BKN180 OVC220 M06/M13 A2956 RMK AC3AC1CI2 SLP064

CYYC;2008-02-07 06:00;CYYC 070600Z 16005KT 15SM FEW085 BKN130 OVC240 M07/M14 A2952 RMK AC1AC4CI2 SLP051

CYYC;2008-02-07 07:00;CYYC 070700Z 18006KT 15SM BKN110 OVC180 M05/M14 A2948 RMK AC6AC2 SLP038

CYYC;2008-02-07 08:00;CYYC 070800Z 19006KT 15SM BKN100 OVC170 M07/M13 A2945 RMK AC6AC2 SLP028

CYYC;2008-02-07 09:00;CYYC 070900Z 18006KT 15SM BKN110 OVC170 M06/M12 A2939 RMK AC6AC2 SLP004

CYYC;2008-02-07 10:00;CYYC 071000Z 21004KT 15SM BKN130 OVC170 M08/M12 A2935 RMK AC6AC2 SLP990

CYYC;2008-02-07 11:00;CYYC 071100Z 18003KT 15SM BKN120 OVC170 M07/M12 A2930 RMK AC6AC2 SLP977

CYYC;2008-02-07 12:00;CYYC 071200Z 21004KT 15SM OVC130 M07/M12 A2927 RMK AC8 SNOW COVER/MEDIUM PACK SLP964

CYYC;2008-02-07 13:00;CYYC 071300Z 22007KT 15SM BKN100 OVC130 M06/M12 A2924 RMK AC7AC1 SLP957

CYYC;2008-02-07 14:00;CYYC 071400Z 00000KT 15SM BKN090 OVC140 M06/M13 A2922 RMK AC6AC1 SLP951

CYYC;2008-02-07 15:00;CYYC 071500Z 35005KT 40SM FEW044 BKN095 OVC140 M07/M13 A2922 RMK CU1AC6AC1 SLP950

CYYC;2008-02-07 16:00;CYYC 071600Z 28003KT 40SM FEW044 BKN097 OVC210 M07/M13 A2924 RMK SC1AC4CI2 SLP956

CYYC;2008-02-07 17:00;CYYC 071700Z 32008KT 40SM FEW044 BKN097 BKN120 OVC210 M03/M12 A2927 RMK SC1AC4AC1CI2 SLP966

CYYC;2008-02-07 18:00;CYYC 071800Z 29009KT 40SM FEW046 SCT098 BKN120 OVC210 M01/M11 A2929 RMK CU1AC4AC2CI1 SLP968

CYYC;2008-02-07 19:00;CYYC 071900Z 30012KT 40SM FEW068 SCT180 OVC210 00/M11 A2931 RMK AC2AC2CI3 SLP974

CYYC;2008-02-07 20:00;CYYC 072000Z 34007KT 40SM BKN075 BKN130 BKN210 00/M11 A2935 RMK AC5AC1CI1 SLP986

CYYC;2008-02-07 21:00;CYYC 072100Z 33006KT 40SM FEW046 FEW076 SCT180 BKN210 00/M12 A2936 RMK CU1AC1AC3CI2 SLP991

CYYC;2008-02-07 22:00;CYYC 072200Z 02006KT 40SM FEW046 FEW076 FEW180 SCT210 M00/M11 A2939 RMK CU1AC1AC1CI2 SLP999

CYYC;2008-02-07 23:00;CYYC 072300Z 06006KT 40SM FEW045 FEW076 FEW180 FEW210 M01/M10 A2941 RMK CU1AC1AC1CI0 SLP005

CYYC;2008-02-08 00:00;CYYC 080000Z 12007KT 30SM FEW044 FEW180 M05/M09 A2943 RMK CU1AC1 SLP024

CYYC;2008-02-08 01:00;CYYC 080100Z 18003KT 20SM FEW044 FEW160 M07/M10 A2945 RMK CU1AC1 SLP030

CYYC;2008-02-08 02:00;CYYC 080200Z 17007KT 15SM FEW160 M09/M12 A2945 RMK AC1 SLP030

CYYC;2008-02-08 03:00;CYYC 080300Z 18008KT 15SM FEW150 FEW240 M07/M11 A2943 RMK AC1CI0 SLP028

CYYC;2008-02-08 04:00;CYYC 080400Z 20008KT 15SM FEW190 SCT240 M06/M10 A2943 RMK AC2CI1 SLP026

CYYC;2008-02-08 05:00;CYYC 080500Z 22006KT 15SM BKN150 M05/M12 A2942 RMK AC5 SLP024

CYYC;2008-02-08 06:00;CYYC 080600Z 19009KT 15SM FEW190 BKN240 M05/M13 A2941 RMK AC2CI4 SLP006

CYYC;2008-02-08 07:00;CYYC 080700Z 16006KT 15SM FEW170 BKN220 M05/M13 A2940 RMK AC2CI3 SLP003

CYYC;2008-02-08 08:00;CYYC 080800Z 18009KT 15SM FEW190 BKN220 M05/M13 A2939 RMK AC2CI2 SLP000

CYYC;2008-02-08 09:00;CYYC 080900Z 19005KT 15SM FEW190 FEW230 M08/M13 A2939 RMK AC1CI1 SLP002

CYYC;2008-02-08 10:00;CYYC 081000Z 19007KT 15SM SKC M09/M14 A2938 RMK SLP000

CYYC;2008-02-08 11:00;CYYC 081100Z 21011KT 15SM FEW140 M09/M14 A2937 RMK AC1 SLP997

CYYC;2008-02-08 12:00;CYYC 081200Z 21007KT 15SM FEW150 M07/M13 A2936 RMK AC2 SNOW COVER/MEDIUM PACK SLP000

CYYC;2008-02-08 13:00;CYYC 081300Z 35021G26KT 15SM BKN140 M16/M18 A2946 RMK AC3 SLP031

CYYC;2008-02-08 13:55;CYYC 081355Z 36028KT 15SM OVC010 M18/ RMK SC8

CYYC;2008-02-08 14:00;CYYC 081400Z 36023G29KT 15SM OVC010 M18/M19 A2951 RMK SC8 SLP046

CYYC;2008-02-08 14:34;CYYC 081434Z 35023G29KT 12SM -SN OVC015 M18/ RMK SC7

CYYC;2008-02-08 15:00;CYYC 081500Z CCA 34022G28KT 8SM -SN FEW011 OVC015 M18/M21 A2955 RMK SF1SC8 PRESRR SLP086

CYYC;2008-02-08 16:00;CYYC 081600Z 35024G30KT 15SM -SN OVC025 M19/M22 A2962 RMK SC8 PCPN VRY LGT SLP106

CYYC;2008-02-08 17:00;CYYC 081700Z 36023KT 8SM FEW018 OVC032 M19/M22 A2965 RMK SC1SC7 SLP115

CYYC;2008-02-08 17:03;CYYC 081703Z 35021G26KT 2 1/2SM -SN FEW009 OVC032 M19/ RMK SC2SC6

CYYC;2008-02-08 17:14;CYYC 081714Z 36018G26KT 4SM -SN FEW009 OVC032 M19/ RMK SC2SC6

CYYC;2008-02-08 17:54;CYYC 081754Z 36013G25KT 2 1/2SM -SN OVC022 M19/ RMK SC8

CYYC;2008-02-08 18:00;CYYC 081800Z CCA 01016KT 1 1/2SM -SN DRSN VV009 M20/M22 A2970 RMK SN8 SLP137

CYYC;2008-02-08 18:29;CYYC 081829Z 36016KT 1 1/2SM -SN DRSN OVC015 OVC021 M20/ RMK SN2SC6SC1

CYYC;2008-02-08 18:44;CYYC 081844Z 36017KT 3/4SM -SN DRSN VV008 M20/ RMK SN8 RVR RWY 34 6000+ FT

CYYC;2008-02-08 19:00;CYYC 081900Z 36010G15KT 1SM -SN DRSN VV008 M20/M25 A2974 RMK SN8 RVR RWY 34 6000+ FT SLP148

CYYC;2008-02-08 19:11;CYYC 081911Z 35015KT 1 1/2SM -SN DRSN OVC013 M20/ RMK SN4SC4

CYYC;2008-02-08 19:39;CYYC 081939Z 36018KT 4SM -SN DRSN FEW013 BKN018 OVC078 M20/ RMK SC2SC3AC2

CYYC;2008-02-08 19:45;CYYC 081945Z CCA 36020KT 1SM -SN BLSN BKN010 OVC018 M19/ RMK SN2SC3SC2 RVR RWY 34 6000+ FT

CYYC;2008-02-08 19:52;CYYC 081952Z CCA 35018KT 1/2SM -SN BLSN OVC010 M20/ RMK SN5SC2 RVR RWY 34 4500FT

CYYC;2008-02-08 20:00;CYYC 082000Z 35018KT 3/4SM -SN BLSN OVC012 M20/M25 A2974 RMK SN3SC4 RVR RWY 34 6000+ FT / VIS E 11/2 SLP149

CYYC;2008-02-08 20:12;CYYC 082012Z 36015G21KT 1 1/2SM -SN BLSN OVC014 M20/ RMK SN2SC5

CYYC;2008-02-08 20:54;CYYC 082054Z CCA 36014KT 1/2SM -SN BLSN VV006 M21/ RMK SN8 RVR RWY 34 3500FT

CYYC;2008-02-08 21:00;CYYC 082100Z 36017KT 1/2SM -SN BLSN VV009 M21/M25 A2978 RMK SN8 RVR RWY 34 3000FT / PRESUNSTDY SLP170

CYYC;2008-02-08 21:13;CYYC 082113Z 35015G20KT 1 1/2SM -SN BLSN BKN010 OVC021 M21/ RMK SN3SC3SC1

CYYC;2008-02-08 21:39;CYYC 082139Z 36013G19KT 5SM -SN BLSN SCT012 OVC030 M21/ RMK SC3SC4

CYYC;2008-02-08 22:00;CYYC 082200Z 36013KT 4SM -SN BLSN BKN015 OVC031 M21/M26 A2982 RMK SC5SC3 SLP182

CYYC;2008-02-08 22:33;CYYC 082233Z 01012KT 4SM -SN DRSN FEW015 OVC029 M21/ REBLSN RMK SC2SC6

CYYC;2008-02-08 23:00;CYYC 082300Z 01013KT 3SM -SN DRSN SCT026 OVC031 M21/M26 A2987 REBLSN RMK SC3SC4 SLP198

CYYC;2008-02-09 00:00;CYYC 090000Z 03014KT 2 1/2SM -SN BLSN SCT008 OVC016 M22/M26 A2991 RMK SN2SC2SC2 /S02/ VIS N + E LWR SLP215

CYYC;2008-02-09 00:24;CYYC 090024Z 03012KT 3SM -SN BLSN FEW010 SCT016 BKN051 BKN100 M22/ RMK SC1SC2SC2AC1 VIS N 2 + S 5

CYYC;2008-02-09 01:00;CYYC 090100Z 02010KT 6SM -SN DRSN FEW017 BKN048 OVC071 M22/M27 A2995 REBLSN RMK SC2SC3AC1 VIS N-E 2 / OCNL BLSN SLP227

CYYC;2008-02-09 01:37;CYYC 090137Z 03009KT 2SM -SN DRSN SCT021 OVC051 M23/ RMK SC3SC5 OCNL BLSN

CYYC;2008-02-09 01:50;CYYC 090150Z CCA 04009KT 2SM -SN DRSN BKN010 OVC019 M23/ RMK SC6SC2 VIS N-NE 11/2

CYYC;2008-02-09 02:00;CYYC 090200Z 03007KT 1SM -SN DRSN BKN007 OVC018 M23/M27 A2998 RMK SC6SC2 SLP236

CYYC;2008-02-09 02:29;CYYC 090229Z CCB 03008KT 3/4SM -SN DRSN BKN010 OVC022 M23/ RMK SC7SC1 RVR RWY34 6000 FT

CYYC;2008-02-09 02:51;CYYC 090251Z 03008KT 3/4SM -SN DRSN BKN007 OVC019 M23/ RMK SN3SC4SC1 RVR RWY16 6000 FT

CYYC;2008-02-09 03:00;CYYC 090300Z 03007KT 3/4SM -SN DRSN BKN008 OVC022 M23/M27 A3001 RMK SN2SC5SC1 RVR RWY16 6000 FT/ VIS S 1 MILE SLP269

CYYC;2008-02-09 04:00;CYYC 090400Z 04004KT 1 3/4SM -SN FEW020 BKN028 OVC064 M23/M27 A3002 RMK SC2SC4SC2 SLP272

CYYC;2008-02-09 05:00;CYYC 090500Z 04003KT 1SM -SN BKN010 OVC023 M23/M27 A3005 RMK SN2SC4SC2 RVR RWY16 6000 FT SLP281

CYYC;2008-02-09 06:00;CYYC 090600Z 04003KT 3SM -SN BKN021 OVC053 M23/M27 A3007 RMK SC6SC2 /S01/ SLP293

CYYC;2008-02-09 07:00;CYYC 090700Z 34006KT 15SM -SN FEW035 FEW085 FEW220 M25/M29 A3009 RMK SC1AC1CI1 SC TR SLP299

CYYC;2008-02-09 07:09;CYYC 090709Z 34007KT 15SM FEW040 FEW085 FEW230 M25/ RMK SC1AC1CI1

CYYC;2008-02-09 08:00;CYYC 090800Z 02007KT 15SM FEW021 FEW080 FEW230 M26/M29 A3010 RMK SC1AC1CI0 SLP303

CYYC;2008-02-09 09:00;CYYC 090900Z 02008KT 15SM FEW025 BKN230 M26/M30 A3013 RMK SC1CI2 SLP320

CYYC;2008-02-09 10:00;CYYC 091000Z 03005KT 15SM BKN180 BKN240 M28/M32 A3016 RMK AC2CI2 SLP330

CYYC;2008-02-09 11:00;CYYC 091100Z 01002KT 15SM BKN180 OVC240 M28/M32 A3018 RMK AC2CI3 SLP337

CYYC;2008-02-09 12:00;CYYC 091200Z 36002KT 15SM SCT180 BKN240 M29/M33 A3020 RMK AC2CI2 SNOW COVER/MUCH LOOSE SLP352

CYYC;2008-02-09 13:00;CYYC 091300Z 34006KT 10SM SCT170 BKN240 M29/M34 A3022 RMK AC2CI2 SLP358

CYYC;2008-02-09 14:00;CYYC 091400Z 35007KT 15SM FEW080 SCT140 BKN240 M29/M33 A3025 RMK AC1AC2CI2 SLP366

CYYC;2008-02-09 15:00;CYYC 091500Z 34005KT 15SM SCT130 BKN240 M29/M34 A3027 RMK AC3CI2 SLP378

CYYC;2008-02-09 16:00;CYYC 091600Z 32004KT 15SM OVC120 M28/M32 A3028 RMK AC7 SLP381

CYYC;2008-02-09 17:00;CYYC 091700Z CCA 00000KT 15SM FEW024 BKN120 M27/M31 A3029 RMK CU1AC6 SLP385

CYYC;2008-02-09 18:00;CYYC 091800Z 36002KT 15SM FEW025 FEW250 M26/M30 A3030 RMK CU1CI0 SLP385

CYYC;2008-02-09 19:00;CYYC 091900Z 06002KT 15SM FEW025 OVC250 M25/M30 A3031 RMK CU1CI5 SLP386

CYYC;2008-02-09 20:00;CYYC 092000Z 00000KT 6SM IC FEW026 SCT043 BKN060 OVC240 M23/M30 A3030 RMK CU1SC2SC2CS2 SLP383

CYYC;2008-02-09 20:33;CYYC 092033Z 05002KT 2 1/2SM IC BKN013 BKN025 BKN040 OVC240 M24/ RMK SC4CU1SC2CS1

CYYC;2008-02-09 20:48;CYYC 092048Z 09004KT 2SM -SN BKN012 BKN022 OVC250 M24/ RMK SC4SC1CS2 VIS W 1

CYYC;2008-02-09 21:00;CYYC 092100Z 10004KT 2SM -SN BKN012 BKN022 OVC250 M24/M29 A3029 RMK SC4SC2CS1 VIS S + W 1 SLP381

CYYC;2008-02-09 21:19;CYYC 092119Z 10004KT 3SM -SN BKN013 BKN028 OVC250 M24/ RMK SC3SC2CS1

CYYC;2008-02-09 22:00;CYYC 092200Z 12006KT 10SM -SN FEW014 BKN020 BKN031 OVC240 M24/M29 A3029 RMK SC1SC5SC1CS1 SLP382

CYYC;2008-02-09 23:00;CYYC 092300Z CCA 11008KT 6SM -SN FEW010 BKN018 OVC240 M24/M29 A3030 RMK SC1SC4CS1 OCNL DRSN SLP386

CYYC;2008-02-10 00:00;CYYC 100000Z 11008KT 6SM -SN DRSN SCT013 BKN025 OVC240 M25/M29 A3031 RMK SC2SC3CS1 SLP396

CYYC;2008-02-10 01:00;CYYC 100100Z 13008KT 8SM -SN FEW010 BKN040 OVC240 M24/M29 A3032 RMK SC1SC6CI2 OCNL DRSN SLP397

CYYC;2008-02-10 02:00;CYYC 100200Z 15011KT 2SM -SN BKN015 OVC033 M25/M29 A3030 RMK SC6SC2 SLP391

CYYC;2008-02-10 02:13;CYYC 100213Z 15010KT 1 1/2SM -SN DRSN FEW008 BKN010 OVC017 M24/ RMK SF2SC6SC1

CYYC;2008-02-10 02:37;CYYC 100237Z 17011KT 4SM -SN DRSN FEW008 BKN012 OVC070 M24/ RMK SF1SC6AC2

CYYC;2008-02-10 03:00;CYYC 100300Z 17013KT 10SM -SN DRSN FEW012 BKN085 OVC100 M24/M29 A3027 RMK SC2AC5AC1 SLP380

CYYC;2008-02-10 04:00;CYYC 100400Z 17014KT 15SM -SN DRSN FEW030 BKN080 OVC095 M24/M29 A3023 RMK SC1AC4AC2 SLP367

CYYC;2008-02-10 04:08;CYYC 100408Z 16015KT 15SM DRSN FEW040 BKN095 OVC120 M24/ RMK SC1AC4AC2

CYYC;2008-02-10 05:00;CYYC 100500Z 16016KT 15SM DRSN FEW050 OVC140 M24/M29 A3017 RMK SC1AC6 SLP351

CYYC;2008-02-10 06:00;CYYC 100600Z 17018KT 15SM DRSN FEW050 OVC150 M24/M28 A3011 RMK SC1AC7 /S01/ SLP318

CYYC;2008-02-10 07:00;CYYC 100700Z 16015G24KT 6SM -SN DRSN BKN029 OVC140 M24/M28 A3006 RMK SC7AC1 SLP304

CYYC;2008-02-10 08:00;CYYC 100800Z 17017KT 4SM -SN DRSN OVC026 M23/M28 A3001 RMK SC8 SLP288

CYYC;2008-02-10 09:00;CYYC 100900Z 17017G22KT 4SM -SN DRSN OVC020 M23/M27 A2996 RMK SC8 SLP261

CYYC;2008-02-10 10:00;CYYC 101000Z CCA 16021KT 5SM -SN DRSN OVC016 M23/M27 A2990 RMK SC8 SLP243

CYYC;2008-02-10 11:00;CYYC 101100Z 17020KT 5SM -SN DRSN BKN015 BKN180 OVC210 M23/M27 A2985 RMK SC6AC1CI1 SLP228

CYYC;2008-02-10 12:00;CYYC 101200Z 17016KT 8SM -SN DRSN FEW017 BKN150 OVC210 M23/M27 A2980 RMK SC2AC5CI1 /S01/ SNOW COVER/MUCH LOOSE SLP205

CYYC;2008-02-10 13:00;CYYC 101300Z 18014KT 15SM -SN DRSN FEW040 SCT140 OVC210 M23/M27 A2977 RMK SC2AC2CI2 SLP196

CYYC;2008-02-10 13:22;CYYC 101322Z 18017KT 15SM DRSN FEW150 OVC220 M23/ RMK AC2CI5

CYYC;2008-02-10 14:00;CYYC 101400Z 19010KT 15SM DRSN FEW150 BKN220 M23/M27 A2974 RMK AC2CI3 SLP187

CYYC;2008-02-10 15:00;CYYC 101500Z 18011KT 20SM BKN210 BKN240 M23/M26 A2973 RMK CI5CI2 SLP181

CYYC;2008-02-10 16:00;CYYC 101600Z 19008KT 20SM FEW030 BKN210 BKN250 M22/M27 A2972 RMK SC1CI5CI2 SLP177

CYYC;2008-02-10 17:00;CYYC 101700Z 00000KT 30SM FEW030 SCT210 BKN250 M21/M25 A2973 RMK SC1CI4CI2 SLP181

CYYC;2008-02-10 18:00;CYYC 101800Z 00000KT 30SM FEW030 FEW180 BKN210 M20/M25 A2973 RMK SC1AC1CI6 SLP177

CYYC;2008-02-10 19:00;CYYC 101900Z 00000KT 30SM FEW030 SCT091 BKN210 M19/M24 A2972 RMK SC1AC3CI3 SLP173

CYYC;2008-02-10 20:00;CYYC 102000Z 00000KT 30SM BKN095 BKN160 OVC210 M17/M22 A2970 RMK AC5AC2CI1 SLP166

CYYC;2008-02-10 21:00;CYYC 102100Z 13004KT 30SM SCT094 BKN150 OVC210 M16/M20 A2966 RMK AC3AC2CI2 SLP145

CYYC;2008-02-10 22:00;CYYC 102200Z 14004KT 25SM FEW040 SCT088 OVC100 M15/M19 A2966 RMK SC1AC3AC5 SLP144

CYYC;2008-02-10 23:00;CYYC 102300Z 10005KT 20SM SCT088 BKN100 BKN210 M15/M19 A2967 RMK AC3AC2CI1 SH S-SW SLP147

CYYC;2008-02-11 00:00;CYYC 110000Z 12004KT 15SM FEW086 FEW110 SCT210 M16/M20 A2969 RMK AC1AC2CI1 DIST SH SW SLP155

CYYC;2008-02-11 01:00;CYYC 110100Z 12005KT 15SM SCT110 BKN170 M18/M22 A2969 RMK AC3AC2 SLP155

CYYC;2008-02-11 02:00;CYYC 110200Z 13003KT 15SM BKN140 BKN160 M17/M21 A2969 RMK AC5AC2 SLP155

CYYC;2008-02-11 03:00;CYYC 110300Z CCA 19002KT 15SM BKN140 BKN160 M17/M21 A2969 RMK AC4AC2 SLP157

CYYC;2008-02-11 04:00;CYYC 110400Z 16002KT 15SM BKN190 M17/M21 A2969 RMK AC6 SLP157

CYYC;2008-02-11 05:00;CYYC 110500Z 19002KT 15SM BKN160 BKN180 M18/M21 A2973 RMK AC5AC2 SLP167

CYYC;2008-02-11 06:00;CYYC 110600Z 23003KT 15SM FEW100 BKN150 M17/M20 A2975 RMK AC1AC6 SLP173

CYYC;2008-02-11 07:00;CYYC 110700Z 36015KT 15SM BKN090 BKN150 M15/M19 A2980 RMK AC5AC1 SLP188

CYYC;2008-02-11 08:00;CYYC 110800Z 32015KT 15SM BKN010 BKN090 M11/M14 A2983 RMK SC4AC2 SLP195

CYYC;2008-02-11 09:00;CYYC 110900Z 31012KT 10SM SCT010 BKN090 M09/M10 A2985 RMK SC3AC2 SLP190

CYYC;2008-02-11 10:00;CYYC 111000Z 32002KT 15SM FEW120 M10/M10 A2988 RMK AC1 SLP197

CYYC;2008-02-11 11:00;CYYC 111100Z 21004KT 15SM SKC M10/M11 A2988 RMK SLP199

CYYC;2008-02-11 12:00;CYYC 111200Z 21005KT 15SM SKC M13/M14 A2990 RMK SLP214

CYYC;2008-02-11 13:00;CYYC 111300Z 20004KT 15SM SKC M11/M12 A2992 RMK FROIN SLP218

CYYC;2008-02-11 14:00;CYYC 111400Z 20007KT 15SM SKC M10/M11 A2990 RMK SLP213

CYYC;2008-02-11 15:00;CYYC 111500Z 19004KT 40SM FEW090 BKN260 M10/M11 A2992 RMK AC1CI1 SLP216

CYYC;2008-02-11 16:00;CYYC 111600Z 19005KT 40SM FEW090 FEW210 BKN250 M08/M09 A2991 RMK AC1CI0CI1 SLP213

CYYC;2008-02-11 17:00;CYYC 111700Z 18004KT 40SM FEW090 FEW210 BKN250 M06/M09 A2990 RMK AC1CI0CI1 SLP211

CYYC;2008-02-11 18:00;CYYC 111800Z 18008KT 40SM FEW090 BKN210 BKN250 M04/M08 A2988 RMK AC1CI2CI3 SLP193

CYYC;2008-02-11 19:00;CYYC 111900Z 20007KT 40SM FEW090 OVC180 M02/M07 A2987 RMK AC1AC7 SLP191

CYYC;2008-02-11 20:00;CYYC 112000Z 18008KT 40SM FEW090 BKN180 OVC260 01/M07 A2984 RMK AC1AC6CI2 SLP182

CYYC;2008-02-11 21:00;CYYC 112100Z 27013KT 40SM FEW090 BKN180 OVC240 03/M07 A2981 RMK AC1AC6CI2 VIRGA SLP149

CYYC;2008-02-11 22:00;CYYC 112200Z 28017G22KT 40SM BKN088 BKN180 OVC240 03/M07 A2981 RMK AC5AC2CI1 VIRGA SLP149

CYYC;2008-02-11 23:00;CYYC 112300Z 28009KT 40SM FEW088 SCT180 OVC240 02/M07 A2983 RMK AC1AC2CI2 SLP155

CYYC;2008-02-12 00:00;CYYC 120000Z 28009KT 40SM FEW080 BKN120 BKN240 02/M08 A2983 RMK AC1AC2CI2 SLP163

CYYC;2008-02-12 01:00;CYYC 120100Z 26016KT 40SM FEW080 BKN120 OVC240 02/M08 A2982 RMK AC1AC2CI2 SLP160

CYYC;2008-02-12 02:00;CYYC 120200Z 28011G16KT 15SM FEW110 OVC240 02/M08 A2984 RMK AC1CI2 SLP165

CYYC;2008-02-12 03:00;CYYC 120300Z 33009KT 15SM BKN210 01/M08 A2985 RMK CI2 SLP166

CYYC;2008-02-12 04:00;CYYC 120400Z 27010G15KT 15SM BKN190 02/M08 A2987 RMK AC5 SLP172

CYYC;2008-02-12 05:00;CYYC 120500Z 27014G19KT 15SM BKN190 02/M08 A2988 RMK AC6 SLP175

CYYC;2008-02-12 06:00;CYYC 120600Z 27013KT 15SM FEW100 BKN190 02/M07 A2989 RMK AC2AC2 SLP169

CYYC;2008-02-12 07:00;CYYC 120700Z 29008KT 15SM BKN160 02/M07 A2990 RMK AC2 SLP174

CYYC;2008-02-12 08:00;CYYC 120800Z 03006KT 15SM BKN085 BKN150 M01/M07 A2994 RMK AC4AC2 SLP184

CYYC;2008-02-12 09:00;CYYC 120900Z 35007KT 15SM BKN090 M03/M08 A2998 RMK AC6 SLP197

CYYC;2008-02-12 10:00;CYYC 121000Z 36015KT 15SM BKN090 BKN210 01/M08 A3000 RMK AC6CI0 SLP204

CYYC;2008-02-12 11:00;CYYC 121100Z 33010KT 15SM SCT090 BKN210 M03/M08 A3002 RMK AC2CI1 SLP209

CYYC;2008-02-12 12:00;CYYC 121200Z 34007KT 15SM BKN090 BKN130 M04/M09 A3002 RMK AC5AC2 SNOW COVER/MUCH LOOSE SLP215

CYYC;2008-02-12 13:00;CYYC 121300Z 32006KT 15SM BKN120 BKN240 M05/M09 A3002 RMK AC4CI2 SLP215

CYYC;2008-02-12 14:00;CYYC 121400Z 20002KT 15SM SCT120 BKN240 M05/M08 A3002 RMK AC2CI2 SLP215

CYYC;2008-02-12 15:00;CYYC 121500Z 00000KT 40SM SCT120 BKN240 M04/M08 A3000 RMK AC2CI2 VIRGA SLP211

CYYC;2008-02-12 16:00;CYYC 121600Z 20002KT 40SM FEW090 FEW140 BKN240 M04/M07 A2998 RMK AC1AC1CI1 SLP203

CYYC;2008-02-12 17:00;CYYC 121700Z 19004KT 40SM FEW090 FEW140 SCT240 M02/M07 A2995 RMK AC1AC1CI0 SLP195

CYYC;2008-02-12 18:00;CYYC 121800Z 18008KT 40SM FEW080 FEW140 BKN200 00/M06 A2991 RMK AC1AC1CI3 SLP171

CYYC;2008-02-12 19:00;CYYC 121900Z 16010KT 40SM FEW080 SCT190 BKN260 01/M05 A2986 RMK AC1AC2CI1 SLP157

CYYC;2008-02-12 20:00;CYYC 122000Z 17012KT 40SM FEW080 SCT190 BKN260 01/M06 A2983 RMK AC1AC2CI1 SLP146

CYYC;2008-02-12 21:00;CYYC 122100Z 17011KT 40SM FEW080 SCT200 BKN260 01/M06 A2977 RMK AC1CI2CI2 SLP128

CYYC;2008-02-12 22:00;CYYC 122200Z 16013KT 40SM FEW080 SCT200 BKN260 00/M06 A2973 RMK AC1CI2CI1 SLP116

CYYC;2008-02-12 23:00;CYYC 122300Z 17010KT 30SM FEW080 BKN200 OVC260 00/M06 A2967 RMK AC1CI3CI2 SLP099

CYYC;2008-02-13 00:00;CYYC 130000Z 16008KT 20SM FEW080 SCT200 BKN260 M01/M05 A2964 RMK AC1CI2CI0 SLP085

CYYC;2008-02-13 01:00;CYYC 130100Z 19003KT 30SM FEW080 SCT190 BKN260 M03/M06 A2959 RMK AC1AC2CI0 SLP072

CYYC;2008-02-13 02:00;CYYC 130200Z 15005KT 15SM FEW220 BKN260 M04/M06 A2954 RMK CI2CI0 SLP055

CYYC;2008-02-13 03:00;CYYC 130300Z 21002KT 15SM FEW160 BKN210 M04/M06 A2950 RMK AC2CI2 SLP044

CYYC;2008-02-13 04:00;CYYC 130400Z 19002KT 15SM SCT160 BKN210 M04/M06 A2945 RMK AC3CI2 SLP028

CYYC;2008-02-13 05:00;CYYC 130500Z 00000KT 15SM SCT110 BKN170 BKN210 M04/M06 A2942 RMK AC4AC1CI1 SLP017

CYYC;2008-02-13 06:00;CYYC 130600Z 03012G18KT 15SM BKN070 OVC140 01/M03 A2941 RMK AC6AC2 VIRGA S SLP998

CYYC;2008-02-13 06:45;CYYC 130645Z 36018G25KT 3/4SM -SN VV005 M02/ RMK SN8 RVR RWY16 4500 FT

CYYC;2008-02-13 06:49;CYYC 130649Z 35017G22KT 1/2SM SN DRSN VV005 M02/ RMK SN8 RVR RWY16 6000 FT

CYYC;2008-02-13 06:53;CYYC 130653Z 35015G22KT 1/2SM SN DRSN VV004 M02/ RMK SN8 RVR RWY16 2600 FT

CYYC;2008-02-13 06:55;CYYC 130655Z 35014G20KT 1/8SM +SN DRSN VV003 M02/ RMK SN8 RVR RWY16 2400 FT

CYYC;2008-02-13 07:00;CYYC 130700Z 35013G18KT 1/8SM +SN DRSN VV003 M02/M02 A2943 RMK SN8 /S01/ RVR RWY34 2000 FT SLP005

CYYC;2008-02-13 07:10;CYYC 130710Z 34013KT 2 1/2SM -SN DRSN BKN016 OVC031 M01/ RESN RMK SC6SC2

CYYC;2008-02-13 07:27;CYYC 130727Z 34012KT 2SM -SN DRSN BKN013 OVC029 M02/ RESN RMK SC6SC2

CYYC;2008-02-13 08:00;CYYC 130800Z 33011KT 2SM -SN DRSN BKN010 OVC020 M02/M02 A2942 RESN RMK SC6SC2 /S02/ SLP002

CYYC;2008-02-13 08:06;CYYC 130806Z 32012KT 2SM -SN DRSN BKN007 OVC020 M02/ RMK SC7SC1

CYYC;2008-02-13 08:36;CYYC 130836Z 33016KT 5/8SM -SN DRSN BKN007 OVC012 M02/ RMK SN5SC2SC2 RVR RWY16 600 FT

CYYC;2008-02-13 08:54;CYYC 130854Z 33016KT 1 1/4SM -SN DRSN OVC025 M02/ RMK SC8

CYYC;2008-02-13 09:00;CYYC 130900Z 33017KT 1 1/4SM -SN DRSN FEW010 OVC021 M02/M02 A2945 RMK SC2SC6 /S03/ SLP015

CYYC;2008-02-13 09:27;CYYC 130927Z 34021G26KT 1SM -SN DRSN BKN009 OVC033 M02/ RMK SN4SC3SC1 RVR RWY16 6000 FT

CYYC;2008-02-13 10:00;CYYC 131000Z 34028G35KT 5/8SM -SN DRSN OVC009 M02/M02 A2949 RMK SN4SC4 RVR RWY34 5000 FT SLP027

CYYC;2008-02-13 11:00;CYYC 131100Z CCA 34026G33KT 5/8SM -SN DRSN OVC009 M02/M02 A2951 RMK SN4SC4 RVR RWY34 5500 FT SLP034

CYYC;2008-02-13 11:21;CYYC 131121Z 34027G33KT 1/8SM SN +BLSN VV009 M02/ RMK SN8 RVR RWY16 4500 FT

CYYC;2008-02-13 11:29;CYYC 131129Z 34029G35KT 3/8SM SN BLSN VV010 M02/ RMK SN8 RVR RWY16 4000 FT

CYYC;2008-02-13 11:35;CYYC 131135Z 34028G33KT 3/8SM SN BLSN VV008 M02/ RMK SN8 RVR RWY16 3000 FT

CYYC;2008-02-13 12:00;CYYC 131200Z 34024G29KT 3/8SM SN BLSN VV009 M02/M02 A2954 RMK SN8 /S05/ RVR RWY34 5000 FT/ SNOW COVER/MUCH LOOSE SLP048

CYYC;2008-02-13 13:00;CYYC 131300Z 33027G32KT 1 3/4SM -SN BLSN BKN030 OVC065 M02/M02 A2958 RESN RMK SN2SC4SC2 /S01/ SLP061

CYYC;2008-02-13 13:21;CYYC 131321Z 34024KT 3SM -SN DRSN FEW032 SCT050 OVC068 M02/ REBLSN RMK SC2SC2AC4

CYYC;2008-02-13 14:00;CYYC 131400Z 34017G22KT 6SM -SN DRSN FEW030 SCT050 OVC077 M02/M03 A2964 REBLSN RMK SC2SC2AC4 SLP077

CYYC;2008-02-13 15:00;CYYC 131500Z 35017G22KT 15SM FEW031 BKN060 OVC080 M02/M04 A2967 RMK SC0SC3AC5 SLP099

CYYC;2008-02-13 15:38;CYYC 131538Z 35013G18KT 15SM -SN BKN034 BKN060 OVC080 M02/ RMK SC2SC2AC3

CYYC;2008-02-13 16:00;CYYC 131600Z 36011KT 20SM -SN BKN030 BKN058 BKN080 M02/M04 A2971 RMK SC5SC2AC1 SLP111

CYYC;2008-02-13 17:00;CYYC 131700Z 01008KT 20SM -SN BKN028 BKN059 BKN080 M02/M04 A2975 RMK SC4SC2AC1 SLP122

CYYC;2008-02-13 17:45;CYYC 131745Z CCA 34012KT 30SM FEW028 BKN071 BKN095 M01/ RMK SC1AC3AC1

CYYC;2008-02-13 18:00;CYYC 131800Z 35018KT 30SM FEW028 BKN069 BKN095 M01/M05 A2977 RMK SC1AC3AC1 SLP125

CYYC;2008-02-13 19:00;CYYC 131900Z 34019G26KT 30SM FEW028 FEW069 FEW120 M01/M05 A2979 RMK SC1AC1AC1 SLP131

CYYC;2008-02-13 20:00;CYYC 132000Z 34014G20KT 30SM FEW028 FEW069 FEW120 M01/M05 A2980 RMK SC1AC1AC1 SLP134

CYYC;2008-02-13 21:00;CYYC 132100Z 34019G26KT 20SM FEW030 FEW070 FEW260 M00/M06 A2981 RMK SC1AC1CI0 SLP143

CYYC;2008-02-13 22:00;CYYC 132200Z 35014KT 20SM FEW030 SCT070 SCT260 M01/M05 A2984 RMK SC1AC1CI1 SLP152

CYYC;2008-02-13 23:00;CYYC 132300Z 35012KT 20SM FEW030 BKN083 BKN120 M01/M06 A2987 RMK SC1AC2AC1 SLP160

CYYC;2008-02-14 00:00;CYYC 140000Z CCA 01008KT 30SM FEW030 FEW070 BKN090 M01/M06 A2989 RMK SC1AC2AC0 VIRGA SLP171

CYYC;2008-02-14 01:00;CYYC 140100Z 05005KT 30SM FEW030 BKN086 M05/M07 A2992 RMK SC1AC3 VIRGA SLP180

CYYC;2008-02-14 01:27;CYYC 140127Z CCA 05004KT 20SM FEW006 FEW030 BKN084 M05/ RMK ST1SC1AC2

CYYC;2008-02-14 01:32;CYYC 140132Z 06005KT 20SM BKN006 BKN030 BKN084 M05/ RMK ST6SC1AC1

CYYC;2008-02-14 02:00;CYYC 140200Z 08007KT 4SM BR BKN005 M05/M06 A2994 RMK ST7 SLP188

CYYC;2008-02-14 02:45;CYYC 140245Z 18002KT 4SM BR OVC003 M05/ RMK ST7

CYYC;2008-02-14 03:00;CYYC 140300Z 17002KT 5SM BR OVC003 M05/M06 A2996 RMK ST8 SLP202

CYYC;2008-02-14 03:24;CYYC 140324Z 27004KT 10SM FEW009 OVC080 M05/ RMK SC2AC5

CYYC;2008-02-14 04:00;CYYC 140400Z 23005KT 12SM FEW020 OVC072 M05/M06 A2997 RMK SC2AC6 SLP205

CYYC;2008-02-14 05:00;CYYC 140500Z 18005KT 15SM FEW030 OVC079 M04/M06 A2998 RMK SC2AC5 SLP208

CYYC;2008-02-14 06:00;CYYC 140600Z 21007KT 15SM BKN083 M05/M07 A2998 RMK AC6 SLP207

CYYC;2008-02-14 07:00;CYYC 140700Z 16004KT 15SM FEW062 BKN072 M06/M07 A2995 RMK SC2AC5 SLP198

CYYC;2008-02-14 08:00;CYYC 140800Z 14003KT 15SM BKN068 M06/M07 A2995 RMK AC6 SLP199

CYYC;2008-02-14 09:00;CYYC 140900Z 20004KT 6SM BR FEW080 FEW220 M08/M09 A2995 RMK AC1CI1 SLP200

CYYC;2008-02-14 10:00;CYYC 141000Z 18005KT 2SM BR FEW040 BKN070 BKN220 M09/M10 A2994 RMK SC2AC2CI1 VIS N-E 5/8 SLP198

CYYC;2008-02-14 10:52;CYYC 141052Z 22002KT 10SM FEW180 FEW210 M10/ RMK AC1CI1

CYYC;2008-02-14 11:00;CYYC 141100Z 21002KT 12SM FEW180 FEW210 M10/M10 A2992 RMK AC1CI1 SLP190

CYYC;2008-02-14 12:00;CYYC 141200Z 21003KT 15SM BKN150 OVC220 M10/M11 A2988 RMK AC6CI2 SNOW COVER/MEDIUM PACK SLP182

CYYC;2008-02-14 13:00;CYYC 141300Z 18005KT 15SM OVC150 M08/M09 A2986 RMK AC7 SLP176

CYYC;2008-02-14 14:00;CYYC 141400Z 19005KT 15SM BKN110 OVC210 M06/M09 A2986 RMK AC6CI2 SLP174

CYYC;2008-02-14 15:00;CYYC 141500Z 22003KT 40SM BKN075 OVC100 M05/M10 A2987 RMK AC7AC1 VIRGA SLP175

CYYC;2008-02-14 16:00;CYYC 141600Z 32002KT 40SM BKN072 OVC100 M03/M10 A2986 RMK AC7AC1 VIRGA SLP172

CYYC;2008-02-14 17:00;CYYC 141700Z 02004KT 40SM BKN070 OVC100 M03/M07 A2986 RMK AC6AC1 VIRGA SLP171

CYYC;2008-02-14 18:00;CYYC 141800Z 30007KT 40SM FEW090 BKN120 01/M08 A2986 RMK AC1AC2 SLP163

CYYC;2008-02-14 19:00;CYYC 141900Z 33009KT 40SM FEW080 FEW140 SCT250 02/M07 A2986 RMK AC1AC1CI1 SLP163

CYYC;2008-02-14 20:00;CYYC 142000Z 27011KT 40SM FEW090 SCT120 BKN250 03/M07 A2985 RMK AC0AC1CI0 SLP159

CYYC;2008-02-14 21:00;CYYC 142100Z 30008KT 40SM BKN060 BKN085 04/M07 A2983 RMK SC3AC2 SLP154

CYYC;2008-02-14 22:00;CYYC 142200Z 26004KT 40SM BKN054 BKN085 04/M06 A2984 RMK SC6AC2 SLP155

CYYC;2008-02-14 23:00;CYYC 142300Z 15006KT 40SM BKN061 OVC240 02/M05 A2985 RMK SC7CI0 SLP160

CYYC;2008-02-15 00:00;CYYC 150000Z 16005KT 40SM BKN065 BKN240 02/M05 A2986 RMK SC6CI0 SLP168

CYYC;2008-02-15 01:00;CYYC 150100Z 18006KT 40SM FEW070 SCT180 BKN220 01/M06 A2985 RMK AC1AC2CI0 SLP166

CYYC;2008-02-15 02:00;CYYC 150200Z 18008KT 15SM BKN180 00/M06 A2985 RMK AC1 SLP164

CYYC;2008-02-15 03:00;CYYC 150300Z 19006KT 15SM FEW180 BKN210 M01/M07 A2984 RMK AC1CI1 SLP159

CYYC;2008-02-15 04:00;CYYC 150400Z 19004KT 15SM FEW180 BKN210 M03/M07 A2984 RMK AC1CI2 SLP157

CYYC;2008-02-15 05:00;CYYC 150500Z 22004KT 15SM FEW210 M02/M07 A2985 RMK CI0 SLP160

CYYC;2008-02-15 06:00;CYYC 150600Z 20005KT 15SM FEW230 M03/M08 A2985 RMK CI1 CI TR SLP157

CYYC;2008-02-15 07:00;CYYC 150700Z 21009KT 15SM FEW230 M03/M08 A2983 RMK CI1 SLP150

CYYC;2008-02-15 08:00;CYYC 150800Z 17003KT 15SM FEW230 M02/M07 A2983 RMK CI2 SLP151

CYYC;2008-02-15 09:00;CYYC 150900Z 29008KT 15SM FEW230 03/M06 A2983 RMK CI1 SLP137

CYYC;2008-02-15 10:00;CYYC 151000Z 25002KT 15SM FEW230 02/M06 A2982 RMK CI1 SLP135

CYYC;2008-02-15 11:00;CYYC 151100Z 14002KT 15SM FEW180 FEW230 01/M05 A2982 RMK AC1CI1 SLP134

CYYC;2008-02-15 12:00;CYYC 151200Z 00000KT 15SM FEW200 SCT240 03/M05 A2982 RMK CI2CI1 SNOW COVER/MEDIUM PACK SLP135

CYYC;2008-02-15 13:00;CYYC 151300Z 26016KT 15SM FEW200 BKN240 06/M03 A2981 RMK CI2CI2 SLP132

CYYC;2008-02-15 14:00;CYYC 151400Z 26017G25KT 15SM SCT220 06/M03 A2980 RMK CI2 SLP130

CYYC;2008-02-15 15:00;CYYC 151500Z 26014KT 40SM FEW035 FEW090 SCT140 BKN220 06/M03 A2979 RMK SC1AC1AC2CI0 SLP125

CYYC;2008-02-15 16:00;CYYC 151600Z 26018KT 40SM FEW090 BKN130 BKN220 07/M03 A2980 RMK AC1AC7CI1 SLP128

CYYC;2008-02-15 17:00;CYYC 151700Z 25024G29KT 40SM FEW090 BKN120 BKN220 08/M02 A2977 RMK AC1AC7CI1 VIRGA SLP120

CYYC;2008-02-15 18:00;CYYC 151800Z 23017KT 40SM FEW090 BKN130 BKN220 08/M02 A2977 RMK AC1AC7CI1 SLP119

CYYC;2008-02-15 19:00;CYYC 151900Z 20008KT 40SM FEW080 FEW120 FEW240 09/M02 A2975 RMK AC1AC1CI1 LWR AC TR SLP112

CYYC;2008-02-15 20:00;CYYC 152000Z 24014KT 40SM FEW080 FEW120 SCT240 11/M01 A2972 RMK AC1AC1CI1 SLP103

CYYC;2008-02-15 21:00;CYYC 152100Z 23007KT 40SM FEW080 FEW120 FEW240 11/00 A2967 RMK AC1AC1CI1 SLP072

CYYC;2008-02-15 22:00;CYYC 152200Z 26013G21KT 40SM FEW080 FEW120 FEW240 11/M02 A2965 RMK AC1AC1CI1 AC LYRS TR SLP064

CYYC;2008-02-15 23:00;CYYC 152300Z 26022KT 30SM FEW080 FEW120 FEW240 11/M03 A2963 RMK AC1AC1CI1 SLP058

CYYC;2008-02-16 00:00;CYYC 160000Z CCA 26017G28KT 30SM FEW080 FEW120 FEW240 09/M03 A2960 RMK AC1AC1CI0 SLP049

CYYC;2008-02-16 01:00;CYYC 160100Z 26023G35KT 40SM FEW080 FEW120 FEW240 08/M03 A2957 RMK AC1AC1CI0 SLP042

CYYC;2008-02-16 02:00;CYYC 160200Z 26026G36KT 15SM FEW190 BKN210 07/M03 A2955 RMK AC1CI0 SLP036

CYYC;2008-02-16 03:00;CYYC 160300Z 26029KT 15SM FEW190 BKN210 07/M03 A2954 RMK AC1CI1 SLP027

CYYC;2008-02-16 04:00;CYYC 160400Z 31018G28KT 15SM FEW190 SCT220 BKN240 06/M03 A2957 RMK AC1CS1CI2 SLP036

CYYC;2008-02-16 05:00;CYYC 160500Z 35016G21KT 15SM FEW210 SCT260 03/M03 A2962 RMK CI1CI2 SLP051

CYYC;2008-02-16 06:00;CYYC 160600Z 31010KT 15SM FEW180 BKN210 04/M04 A2963 RMK AC1CI4 SLP058

CYYC;2008-02-16 07:00;CYYC 160700Z CCA 02004KT 15SM BKN140 BKN210 01/M04 A2967 RMK AC5CI1 SLP071

CYYC;2008-02-16 08:00;CYYC 160800Z 36005KT 15SM FEW064 SCT170 BKN200 02/M04 A2970 RMK SC1AC2CI2 SLP080

CYYC;2008-02-16 09:00;CYYC 160900Z 34006KT 15SM FEW160 FEW210 01/M05 A2970 RMK AC1CI2 SLP084

CYYC;2008-02-16 10:00;CYYC 161000Z 35005KT 15SM FEW170 M01/M06 A2972 RMK AC1 ACSL S SLP089

CYYC;2008-02-16 11:00;CYYC 161100Z 33002KT 15SM FEW100 M01/M06 A2970 RMK AC1 SLP084

CYYC;2008-02-16 12:00;CYYC 161200Z CCA 20005KT 15SM FEW250 M03/M06 A2971 RMK CI0 SNOW COVER / MEDIUM PACK SLP095

CYYC;2008-02-16 13:00;CYYC 161300Z 17002KT 15SM SKC M03/M06 A2973 RMK SLP101

CYYC;2008-02-16 14:00;CYYC 161400Z 29004KT 15SM FEW160 M05/M08 A2974 RMK AC1 SLP104

CYYC;2008-02-16 15:00;CYYC 161500Z 24003KT 40SM FEW012 FEW150 M02/M07 A2973 RMK CU1AC1 SLP107

CYYC;2008-02-16 16:00;CYYC 161600Z 02002KT 40SM FEW012 FEW150 FEW240 M02/M06 A2977 RMK CU1AC1CI1 SLP117

CYYC;2008-02-16 17:00;CYYC 161700Z 36004KT 40SM FEW012 BKN090 BKN240 00/M04 A2979 RMK CU1AC6CI0 DIST SH N SLP123

CYYC;2008-02-16 18:00;CYYC 161800Z CCA 04014KT 40SM FEW028 FEW040 BKN090 BKN240 01/M06 A2982 RMK CU1SC2AC2CI0 AS ASOCTD SLP135

CYYC;2008-02-16 19:00;CYYC 161900Z CCA 35019G24KT 40SM FEW009 FEW020 BKN030 BKN060 BKN090 M01/M06 A2986 RMK SC2CU1SC2SC2AS1 WSHFT 1841 SLP148

CYYC;2008-02-16 19:06;CYYC 161906Z 35017G25KT 25SM -SN FEW009 SCT018 BKN030 BKN060 OVC090 M01/ RMK SC1SC3SC2SC1AS1

CYYC;2008-02-16 19:19;CYYC 161919Z 35019G24KT 2 1/2SM -SN BKN001 BKN019 OVC070 M02/ RMK SC5SC2AS1 VIS NW-S 12/ LO CLD 10 FT

CYYC;2008-02-16 19:25;CYYC 161925Z 36017G24KT 2SM -SN BKN015 OVC038 M02/ RMK SN3SC2SC2 VIS NW-S 12

CYYC;2008-02-16 19:32;CYYC 161932Z CCA 35018G26KT 2SM -SN BKN016 OVC029 M02/ RMK SN3SC3SC2 VIS NE-S 5

CYYC;2008-02-16 20:00;CYYC 162000Z 35016KT 2 1/2SM -SN FEW015 BKN020 OVC038 M02/M05 A2989 RMK SC2SC4SC2 VIS NE -SE 5 SLP157

CYYC;2008-02-16 20:10;CYYC 162010Z 33017G25KT 6SM -SN FEW015 BKN020 OVC038 M02/ RMK SC2SC4SC2

CYYC;2008-02-16 21:00;CYYC 162100Z 32019G28KT 10SM -SN FEW016 FEW029 OVC035 M01/M06 A2990 RMK SC1SC1SC7 SLP172

CYYC;2008-02-16 21:24;CYYC 162124Z 32016G21KT 20SM FEW030 OVC042 M00/ RMK SC2SC6

CYYC;2008-02-16 22:00;CYYC 162200Z 32017KT 20SM SCT025 BKN050 00/M08 A2992 RMK SC3SC4 VIRGA NE SLP178

CYYC;2008-02-16 23:00;CYYC 162300Z CCA 33011G18KT 20SM SCT040 BKN058 00/M08 A2995 RMK SC3SC4 VIRGA SE-SW SLP186

CYYC;2008-02-17 00:00;CYYC 170000Z 32010G15KT 20SM FEW082 SCT240 M01/M10 A2998 RMK AC2CI0 VIRGA NE-NW SLP205

CYYC;2008-02-17 01:00;CYYC 170100Z 34011KT 20SM FEW070 BKN090 BKN110 BKN250 M02/M10 A3001 RMK AC1AC5AC2CI0 SLP213

CYYC;2008-02-17 02:00;CYYC 170200Z 31009KT 15SM FEW080 BKN090 M02/M10 A3005 RMK AC2AC4 SLP225

CYYC;2008-02-17 03:00;CYYC 170300Z 31007KT 15SM FEW080 M04/M11 A3008 RMK AC2 SLP244

CYYC;2008-02-17 04:00;CYYC 170400Z 31008KT 15SM FEW080 M06/M11 A3010 RMK AC1 SLP251

CYYC;2008-02-17 05:00;CYYC 170500Z 30007KT 15SM FEW080 M06/M11 A3012 RMK AC1 SLP257

CYYC;2008-02-17 06:00;CYYC 170600Z 32010KT 15SM SKC M06/M11 A3015 RMK SLP264

CYYC;2008-02-17 07:00;CYYC 170700Z 32008KT 15SM FEW100 M07/M12 A3014 RMK AC1 SLP262

CYYC;2008-02-17 08:00;CYYC 170800Z 33011KT 15SM FEW100 M07/M12 A3017 RMK AC1 SLP271

CYYC;2008-02-17 09:00;CYYC 170900Z 31010KT 15SM FEW100 M07/M12 A3018 RMK AC1 SLP281

CYYC;2008-02-17 10:00;CYYC 171000Z 31010KT 15SM FEW100 M06/M12 A3018 RMK AC1 SLP281

CYYC;2008-02-17 11:00;CYYC 171100Z 31005KT 15SM FEW100 M08/M13 A3019 RMK AC1 SLP284

CYYC;2008-02-17 12:00;CYYC 171200Z CCA 26002KT 15SM SKC M08/M13 A3018 RMK SNOW COVER / HARD PACK SLP281

CYYC;2008-02-17 13:00;CYYC 171300Z 20004KT 15SM FEW160 M09/M13 A3017 RMK AC1 SLP278

CYYC;2008-02-17 14:00;CYYC 171400Z 00000KT 15SM FEW160 FEW190 SCT260 M10/M13 A3016 RMK AC1AC0CI1 SLP276

CYYC;2008-02-17 15:00;CYYC 171500Z 00000KT 40SM FEW120 FEW140 FEW250 M10/M14 A3015 RMK AC1AC1CI1 CC ASOCTD SLP280

CYYC;2008-02-17 16:00;CYYC 171600Z 21007KT 40SM FEW110 FEW160 FEW260 M08/M11 A3014 RMK AC1AC1CI1 SLP276

CYYC;2008-02-17 17:00;CYYC 171700Z 23006KT 40SM FEW120 FEW230 M04/M10 A3012 RMK AC1CI1 SLP271

CYYC;2008-02-17 18:00;CYYC 171800Z 22008KT 40SM FEW080 BKN260 M02/M10 A3009 RMK AC1CI3 SLP248

CYYC;2008-02-17 19:00;CYYC 171900Z 22009KT 40SM FEW042 OVC060 M01/M12 A3006 RMK SC2SC5 SLP238

CYYC;2008-02-17 20:00;CYYC 172000Z 21010KT 40SM BKN058 OVC090 M00/M11 A3003 RMK SC5AC2 SLP229

CYYC;2008-02-17 21:00;CYYC 172100Z 24006KT 40SM BKN082 01/M11 A3001 RMK AC7 SLP216

CYYC;2008-02-17 22:00;CYYC 172200Z 34014KT 40SM FEW075 BKN095 04/M10 A3000 RMK AC2AC4 SLP215

CYYC;2008-02-17 23:00;CYYC 172300Z 32011KT 40SM BKN075 04/M11 A3000 RMK AC6 SLP214

CYYC;2008-02-18 00:00;CYYC 180000Z 36009KT 40SM FEW045 SCT070 02/M09 A3001 RMK CU1AC2 CU TR SLP217

CYYC;2008-02-18 01:00;CYYC 180100Z 03005KT 40SM FEW250 M02/M09 A3002 RMK CI1 SLP219

CYYC;2008-02-18 02:00;CYYC 180200Z 36006KT 15SM FEW250 M02/M09 A3002 RMK CI1 SLP220

CYYC;2008-02-18 03:00;CYYC 180300Z 20003KT 15SM FEW250 M03/M09 A3003 RMK CI0 SLP233

CYYC;2008-02-18 04:00;CYYC 180400Z 02003KT 15SM FEW250 M05/M10 A3004 RMK CI1 SLP236

CYYC;2008-02-18 05:00;CYYC 180500Z 36003KT 15SM FEW250 M08/M11 A3004 RMK CI1 SLP238

CYYC;2008-02-18 06:00;CYYC 180600Z 00000KT 15SM SKC M08/M11 A3004 RMK SLP235

CYYC;2008-02-18 07:00;CYYC 180700Z 36002KT 15SM FEW220 M08/M12 A3005 RMK CI1 SLP237

CYYC;2008-02-18 08:00;CYYC 180800Z 32004KT 15SM FEW220 M07/M11 A3005 RMK CI1 SLP237

CYYC;2008-02-18 09:00;CYYC 180900Z 00000KT 15SM FEW220 M07/M11 A3005 RMK CI1 SLP229

CYYC;2008-02-18 10:00;CYYC 181000Z 00000KT 15SM FEW230 M06/M10 A3005 RMK CI1 SLP229

CYYC;2008-02-18 11:00;CYYC 181100Z 32007KT 15SM FEW250 M06/M10 A3004 RMK CC1 SLP227

CYYC;2008-02-18 12:00;CYYC 181200Z CCA 31007KT 15SM FEW120 BKN250 M05/M09 A3004 RMK AC1CI2 SNOW COVER / HARD PACK SLP222

CYYC;2008-02-18 13:00;CYYC 181300Z 31003KT 15SM FEW110 SCT260 M04/M08 A3003 RMK AC1CI0 SLP221

CYYC;2008-02-18 14:00;CYYC 181400Z 31010KT 15SM FEW260 M03/M08 A3003 RMK CI0 SLP219

CYYC;2008-02-18 15:00;CYYC 181500Z 20004KT 40SM FEW110 FEW250 M06/M10 A3002 RMK AC1CI0 SLP227

CYYC;2008-02-18 16:00;CYYC 181600Z 21004KT 40SM FEW120 FEW250 M04/M07 A3002 RMK AC1CI0 SLP225

CYYC;2008-02-18 17:00;CYYC 181700Z 23005KT 40SM FEW120 FEW260 01/M06 A3001 RMK AC1CI0 SLP223

CYYC;2008-02-18 18:00;CYYC 181800Z 22006KT 40SM FEW130 FEW260 04/M06 A3000 RMK AC1CI0 SLP209

CYYC;2008-02-18 19:00;CYYC 181900Z 23006KT 40SM FEW130 FEW260 06/M06 A2998 RMK AC1CI1 SLP204

CYYC;2008-02-18 20:00;CYYC 182000Z 24008KT 40SM FEW130 FEW260 07/M06 A2995 RMK AC1CI1 SLP195

CYYC;2008-02-18 21:00;CYYC 182100Z 23007KT 40SM FEW130 FEW260 09/M06 A2992 RMK AC1CI1 SLP176

CYYC;2008-02-18 22:00;CYYC 182200Z 30003KT 40SM FEW130 FEW260 10/M07 A2992 RMK AC1CI1 SLP174

CYYC;2008-02-18 23:00;CYYC 182300Z 02007KT 40SM FEW140 FEW260 09/M07 A2990 RMK AC1CI1 SLP170

CYYC;2008-02-19 00:00;CYYC 190000Z 07003KT 40SM FEW140 FEW260 08/M08 A2990 RMK AC1CI1 SLP166

CYYC;2008-02-19 01:00;CYYC 190100Z 18004KT 40SM FEW150 04/M06 A2988 RMK AC1 SLP162

CYYC;2008-02-19 02:00;CYYC 190200Z 22004KT 15SM FEW150 02/M06 A2987 RMK AC1 SLP159

CYYC;2008-02-19 03:00;CYYC 190300Z 22004KT 15SM SKC 02/M05 A2986 RMK SLP163

CYYC;2008-02-19 04:00;CYYC 190400Z 22005KT 15SM FEW150 02/M06 A2985 RMK AC1 SLP161

CYYC;2008-02-19 05:00;CYYC 190500Z 21005KT 15SM FEW150 01/M06 A2985 RMK AC1 SLP161

CYYC;2008-02-19 06:00;CYYC 190600Z 20004KT 15SM FEW150 M00/M07 A2985 RMK AC1 SLP148

CYYC;2008-02-19 07:00;CYYC 190700Z 20004KT 15SM FEW150 02/M09 A2984 RMK AC1 SLP144

CYYC;2008-02-19 08:00;CYYC 190800Z 26004KT 15SM FEW150 FEW200 02/M11 A2984 RMK AC1CI0 SLP143

CYYC;2008-02-19 09:00;CYYC 190900Z 35002KT 15SM FEW200 01/M11 A2983 RMK CI1 SLP132

CYYC;2008-02-19 10:00;CYYC 191000Z 01003KT 15SM FEW200 M04/M10 A2983 RMK CI0 SLP132

CYYC;2008-02-19 11:00;CYYC 191100Z 27003KT 15SM FEW200 M02/M10 A2983 RMK CI0 SLP132

CYYC;2008-02-19 12:00;CYYC 191200Z 00000KT 15SM SCT220 M00/M05 A2982 RMK CI1 SLP131

CYYC;2008-02-19 13:00;CYYC 191300Z 01003KT 15SM BKN200 M03/M11 A2982 RMK CI3 SLP132

CYYC;2008-02-19 14:00;CYYC 191400Z 31005KT 15SM FEW200 BKN240 M03/M10 A2981 RMK CI2CI0 SLP130

CYYC;2008-02-19 15:00;CYYC 191500Z 30005KT 40SM FEW200 BKN240 M01/M11 A2982 RMK CI2CI0 SLP140

CYYC;2008-02-19 16:00;CYYC 191600Z 35005KT 40SM FEW200 BKN260 00/M10 A2983 RMK CI2CI1 SLP143

CYYC;2008-02-19 17:00;CYYC 191700Z 24002KT 40SM FEW200 OVC260 03/M09 A2984 RMK CI1CI1 SLP146

CYYC;2008-02-19 18:00;CYYC 191800Z 20003KT 40SM FEW200 BKN260 05/M09 A2982 RMK CI2CI1 SLP137

CYYC;2008-02-19 19:00;CYYC 191900Z 23004KT 40SM FEW200 BKN260 08/M11 A2983 RMK CI2CI1 SLP140

CYYC;2008-02-19 20:00;CYYC 192000Z 27004KT 40SM FEW200 BKN260 09/M11 A2982 RMK CI2CI1 SLP135

CYYC;2008-02-19 21:00;CYYC 192100Z 15007KT 40SM FEW200 BKN260 08/M06 A2981 RMK CI2CI2 SLP126

CYYC;2008-02-19 22:00;CYYC 192200Z 13009KT 30SM FEW230 BKN260 05/M06 A2981 RMK CI2CI1 SLP127

CYYC;2008-02-19 23:00;CYYC 192300Z 14009KT 30SM BKN250 03/M03 A2981 RMK CI2 SLP127

CYYC;2008-02-20 00:00;CYYC 200000Z 13008KT 25SM BKN250 M01/M04 A2981 RMK CI2 SLP141

CYYC;2008-02-20 01:00;CYYC 200100Z 13008KT 6SM BR FEW010 BKN250 M05/M06 A2983 RMK SC1CI2 SLP146

CYYC;2008-02-20 02:00;CYYC 200200Z 15009KT 4SM BR FEW130 SCT250 M05/M06 A2983 RMK AC2CI0 SLP146

CYYC;2008-02-20 03:00;CYYC 200300Z CCA 18004KT 4SM BR FEW250 M06/M07 A2982 RMK CI1 SLP154

CYYC;2008-02-20 04:00;CYYC 200400Z 15004KT 4SM BR FEW250 M07/M08 A2982 RMK CI1 SLP154

CYYC;2008-02-20 04:42;CYYC 200442Z 16007KT 1 1/4SM BR OVC002 M06/ RMK ST7

CYYC;2008-02-20 04:54;CYYC 200454Z 16008KT 3/4SM BR OVC001 M06/ RMK FG2ST6 RVR RWY34 5000 FT/ VIS S 1/2 MILE

CYYC;2008-02-20 05:00;CYYC 200500Z 17008KT 5/8SM BR OVC001 M06/M06 A2983 RMK FG7ST1 RVR RWY34 3000 FT/ VIS S 1/4 / E 5/8 SLP155

CYYC;2008-02-20 05:20;CYYC 200520Z 17007KT 1SM BR OVC002 M06/ RMK FG5ST3 RVR RWY34 4500 FT

CYYC;2008-02-20 05:27;CYYC 200527Z 18006KT 1 1/4SM BR OVC003 M06/ RMK FG4ST4 CIG VRB 2-4

CYYC;2008-02-20 05:45;CYYC 200545Z 19009KT 3/4SM BR OVC001 M06/ RMK FG6ST2 RVR RWY34 2600 FT

CYYC;2008-02-20 05:54;CYYC 200554Z 19007KT 5/8SM BR OVC001 M06/ RMK FG6ST2 RVR RWY34 2400 FT

CYYC;2008-02-20 06:00;CYYC 200600Z 19007KT 5/8SM BR BKN001 M06/M06 A2981 RMK FG5ST2 RVR RWY34 2800 FT SLP141

CYYC;2008-02-20 06:13;CYYC 200613Z 19007KT 2SM BR FEW006 SCT110 BKN240 M06/ RMK ST2AC1CI1

CYYC;2008-02-20 06:29;CYYC 200629Z 19006KT 2SM BR OVC002 M06/ RMK ST7 VIS W 1

CYYC;2008-02-20 06:48;CYYC 200648Z 18006KT 1 3/4SM BR OVC001 M06/ RMK FG3ST5

CYYC;2008-02-20 07:00;CYYC 200700Z 19007KT 1 3/4SM BR OVC001 M06/M06 A2981 RMK FG2ST6 SLP139

CYYC;2008-02-20 08:00;CYYC 200800Z 17004KT 2SM BR SCT004 M07/M08 A2982 RMK ST3 SLP142

CYYC;2008-02-20 08:30;CYYC 200830Z 19003KT 5SM BR FEW070 FEW230 M07/ RMK AC1CI0

CYYC;2008-02-20 09:00;CYYC 200900Z 35002KT 10SM FEW080 FEW230 M08/M08 A2982 RMK AC1CI0 SLP144

CYYC;2008-02-20 10:00;CYYC 201000Z 33003KT 12SM FEW080 FEW230 M08/M09 A2982 RMK AC1CI0 SLP144

CYYC;2008-02-20 11:00;CYYC 201100Z 35006KT 15SM FEW090 FEW240 M09/M10 A2982 RMK AC1CI0 SLP144

CYYC;2008-02-20 12:00;CYYC 201200Z 34007KT 15SM FEW240 M07/M10 A2983 RMK CI0 SLP157

CYYC;2008-02-20 13:00;CYYC 201300Z 36006KT 15SM FEW240 M06/M10 A2983 RMK CI1 CI TR SLP158

CYYC;2008-02-20 14:00;CYYC 201400Z 34003KT 20SM FEW200 FEW250 M05/M10 A2984 RMK CI1CI0 SLP159

CYYC;2008-02-20 15:00;CYYC 201500Z 30004KT 40SM FEW210 BKN240 M06/M10 A2985 RMK CI1CI2 SLP168

CYYC;2008-02-20 16:00;CYYC 201600Z 31003KT 40SM FEW210 BKN240 M04/M08 A2986 RMK CI1CI2 SLP173

CYYC;2008-02-20 17:00;CYYC 201700Z 33002KT 40SM FEW210 BKN260 M00/M06 A2987 RMK CI1CI2 SLP176

CYYC;2008-02-20 18:00;CYYC 201800Z 34008KT 30SM FEW210 BKN260 03/M08 A2987 RMK CI1CI2 SLP165

CYYC;2008-02-20 19:00;CYYC 201900Z 28006KT 30SM SCT260 06/M09 A2986 RMK CI2 SLP162

CYYC;2008-02-20 20:00;CYYC 202000Z 01004KT 25SM FEW260 08/M09 A2985 RMK CI1 SLP159

CYYC;2008-02-20 21:00;CYYC 202100Z 02004KT 25SM FEW260 09/M08 A2984 RMK CI1 SLP148

CYYC;2008-02-20 22:00;CYYC 202200Z 06005KT 25SM FEW260 09/M08 A2983 RMK CI1 SLP146

CYYC;2008-02-20 23:00;CYYC 202300Z 12008KT 20SM FEW260 07/M04 A2983 RMK CI1 SLP145

CYYC;2008-02-21 00:00;CYYC 210000Z 13007KT 10SM FEW260 05/M04 A2984 RMK CI1 SLP153

CYYC;2008-02-21 01:00;CYYC 210100Z 13007KT 40SM FEW250 01/M04 A2983 RMK CI0 SLP151

CYYC;2008-02-21 02:00;CYYC 210200Z 16004KT 20SM FEW250 M00/M06 A2983 RMK CI1 SLP149

CYYC;2008-02-21 03:00;CYYC 210300Z 17002KT 15SM FEW250 M01/M06 A2982 RMK CI1 CI TR SLP150

CYYC;2008-02-21 04:00;CYYC 210400Z 18005KT 15SM SKC M02/M05 A2981 RMK SLP149

CYYC;2008-02-21 05:00;CYYC 210500Z 19005KT 15SM SKC M03/M06 A2981 RMK SLP149

CYYC;2008-02-21 06:00;CYYC 210600Z 19006KT 15SM SKC M03/M06 A2980 RMK SLP136

CYYC;2008-02-21 07:00;CYYC 210700Z 24002KT 15SM SKC M03/M06 A2979 RMK SLP133

CYYC;2008-02-21 08:00;CYYC 210800Z 22002KT 15SM SKC M04/M07 A2978 RMK SLP131

CYYC;2008-02-21 09:00;CYYC 210900Z 32004KT 15SM FEW210 M06/M10 A2977 RMK CI0 SLP123

CYYC;2008-02-21 10:00;CYYC 211000Z 32003KT 15SM FEW210 M06/M09 A2977 RMK CI0 SLP122

CYYC;2008-02-21 11:00;CYYC 211100Z 00000KT 15SM FEW240 M06/M08 A2976 RMK CI0 SLP119

CYYC;2008-02-21 12:00;CYYC 211200Z 00000KT 15SM FEW240 M07/M10 A2976 RMK CI0 SLP124

CYYC;2008-02-21 13:00;CYYC 211300Z 02003KT 15SM SKC M06/M09 A2976 RMK SLP124

CYYC;2008-02-21 14:00;CYYC 211400Z 36003KT 20SM FEW250 M04/M08 A2976 RMK CI0 SLP124

CYYC;2008-02-21 15:00;CYYC 211500Z 34002KT 40SM FEW250 M04/M08 A2976 RMK CI0 SLP128

CYYC;2008-02-21 16:00;CYYC 211600Z 33003KT 40SM FEW260 M03/M07 A2977 RMK CI1 SLP130

CYYC;2008-02-21 17:00;CYYC 211700Z 00000KT 40SM FEW260 01/M05 A2976 RMK CI1 SLP128

CYYC;2008-02-21 18:00;CYYC 211800Z 34002KT 40SM FEW260 05/M06 A2975 RMK CI1 SLP115

CYYC;2008-02-21 19:00;CYYC 211900Z 26002KT 40SM FEW260 09/M07 A2974 RMK CI1 SLP113

CYYC;2008-02-21 20:00;CYYC 212000Z 16003KT 40SM FEW260 09/M07 A2973 RMK CI1 SLP110

CYYC;2008-02-21 21:00;CYYC 212100Z 16002KT 40SM FEW260 10/M07 A2972 RMK CI1 SLP102

CYYC;2008-02-21 22:00;CYYC 212200Z 16005KT 40SM FEW260 11/M08 A2971 RMK CI1 SLP100

CYYC;2008-02-21 23:00;CYYC 212300Z 13007KT 30SM FEW260 10/M07 A2971 RMK CI1 SLP098

CYYC;2008-02-22 00:00;CYYC 220000Z 16007KT 30SM FEW260 08/M06 A2970 RMK CI1 SLP100

CYYC;2008-02-22 01:00;CYYC 220100Z 15008KT 30SM FEW160 FEW220 04/M05 A2969 RMK AC1CI1 SLP098

CYYC;2008-02-22 02:00;CYYC 220200Z 14006KT 15SM FEW160 FEW220 02/M04 A2970 RMK AC1CI1 SLP099

CYYC;2008-02-22 03:00;CYYC 220300Z 15004KT 15SM FEW180 FEW250 01/M04 A2969 RMK AC1CI0 SLP104

CYYC;2008-02-22 04:00;CYYC 220400Z 14004KT 15SM FEW250 M01/M05 A2969 RMK CI0 SLP104

CYYC;2008-02-22 05:00;CYYC 220500Z 15004KT 15SM FEW180 FEW250 M01/M04 A2969 RMK AC1CI0 SLP103

CYYC;2008-02-22 06:00;CYYC 220600Z 33003KT 15SM FEW240 M05/M07 A2969 RMK CI1 CI TR SLP099

CYYC;2008-02-22 07:00;CYYC 220700Z 34004KT 15SM FEW240 M06/M08 A2968 RMK CI1 CI TR SLP096

CYYC;2008-02-22 08:00;CYYC 220800Z 01002KT 15SM FEW240 M06/M08 A2968 RMK CI1 SLP094

CYYC;2008-02-22 09:00;CYYC 220900Z 31003KT 15SM FEW240 M05/M08 A2968 RMK CI1 SLP086

CYYC;2008-02-22 10:00;CYYC 221000Z 34004KT 15SM FEW240 M05/M09 A2967 RMK CI1 SLP085

CYYC;2008-02-22 11:00;CYYC 221100Z CCA 31003KT 15SM FEW240 M07/M10 A2967 RMK CI1 SLP083

CYYC;2008-02-22 12:00;CYYC 221200Z 00000KT 15SM SKC M05/M08 A2967 RMK SLP086

CYYC;2008-02-22 13:00;CYYC 221300Z 03002KT 15SM SKC M07/M09 A2966 RMK SLP085

CYYC;2008-02-22 14:00;CYYC 221400Z 32003KT 20SM FEW240 M05/M08 A2967 RMK CI0 SLP087

CYYC;2008-02-22 15:00;CYYC 221500Z 29003KT 40SM FEW180 SCT250 M05/M08 A2968 RMK AC1CI0 SLP100

CYYC;2008-02-22 16:00;CYYC 221600Z 00000KT 40SM FEW180 BKN260 M03/M06 A2969 RMK AC1CI0 SLP103

CYYC;2008-02-22 17:00;CYYC 221700Z 00000KT 40SM FEW180 BKN260 01/M04 A2969 RMK AC1CI1 SLP103

CYYC;2008-02-22 18:00;CYYC 221800Z 32003KT 40SM BKN260 03/M05 A2970 RMK CI1 SLP102

CYYC;2008-02-22 19:00;CYYC 221900Z 04004KT 40SM BKN260 06/M05 A2970 RMK CI1 SLP103

CYYC;2008-02-22 20:00;CYYC 222000Z 01006KT 40SM BKN260 07/M05 A2969 RMK CI1 SLP099

CYYC;2008-02-22 21:00;CYYC 222100Z 02006KT 40SM BKN260 07/M05 A2968 RMK CI1 SLP092

CYYC;2008-02-22 22:00;CYYC 222200Z 06005KT 30SM BKN260 08/M04 A2968 RMK CI1 SLP092

CYYC;2008-02-22 23:00;CYYC 222300Z 04005KT 20SM BKN260 07/M04 A2968 RMK CI1 SLP092

CYYC;2008-02-23 00:00;CYYC 230000Z 09006KT 30SM FEW200 BKN260 04/M03 A2969 RMK CI1CI1 SLP098

CYYC;2008-02-23 01:00;CYYC 230100Z 10005KT 30SM FEW180 BKN260 02/M04 A2969 RMK AC0CI1 SLP100

CYYC;2008-02-23 02:00;CYYC 230200Z 08002KT 15SM BKN260 M01/M04 A2970 RMK CI0 SLP101

CYYC;2008-02-23 03:00;CYYC 230300Z 09003KT 15SM FEW250 M01/M04 A2970 RMK CI0 SLP111

CYYC;2008-02-23 04:00;CYYC 230400Z 33002KT 15SM FEW250 M03/M06 A2971 RMK CI0 SLP113

CYYC;2008-02-23 05:00;CYYC 230500Z 34005KT 15SM FEW180 FEW250 M05/M07 A2972 RMK AC1CI1 BOTH CLDS TR SLP115

CYYC;2008-02-23 06:00;CYYC 230600Z 36004KT 15SM FEW180 FEW250 M05/M07 A2972 RMK AC1CI1 SLP109

CYYC;2008-02-23 07:00;CYYC 230700Z 00000KT 15SM FEW250 M06/M07 A2972 RMK CI1 SLP111

CYYC;2008-02-23 08:00;CYYC 230800Z 35004KT 15SM FEW200 FEW250 M07/M09 A2973 RMK CI1CI1 SLP114

CYYC;2008-02-23 09:00;CYYC 230900Z 28002KT 15SM FEW200 FEW250 M07/M08 A2974 RMK CI1CI1 SLP113

CYYC;2008-02-23 10:00;CYYC 231000Z 31003KT 15SM FEW250 M07/M09 A2974 RMK CI1 SLP114

CYYC;2008-02-23 11:00;CYYC 231100Z 34003KT 15SM FEW250 M07/M09 A2974 RMK CI1 SLP115

CYYC;2008-02-23 12:00;CYYC 231200Z 34005KT 15SM FEW250 M07/M09 A2976 RMK CI1 SLP124

CYYC;2008-02-23 13:00;CYYC 231300Z 32004KT 15SM FEW250 M08/M10 A2977 RMK CI1 SLP127

CYYC;2008-02-23 14:00;CYYC 231400Z 33006KT 20SM FEW140 FEW250 M07/M09 A2978 RMK AC1CI1 SLP131

CYYC;2008-02-23 15:00;CYYC 231500Z 34006KT 40SM FEW140 FEW220 BKN260 M06/M08 A2980 RMK AC1CI0CI0 SLP145

CYYC;2008-02-23 16:00;CYYC 231600Z 35008KT 40SM FEW140 FEW220 BKN260 M03/M06 A2981 RMK AC1CI1CI1 SLP150

CYYC;2008-02-23 17:00;CYYC 231700Z 34009KT 40SM FEW140 BKN260 01/M05 A2983 RMK AC1CI1 SLP154

CYYC;2008-02-23 18:00;CYYC 231800Z 33014KT 40SM FEW120 BKN260 04/M06 A2984 RMK AC1CI1 SLP149

CYYC;2008-02-23 19:00;CYYC 231900Z 33010KT 40SM FEW120 BKN260 05/M07 A2985 RMK AC1CI1 SLP152

CYYC;2008-02-23 20:00;CYYC 232000Z 36013KT 40SM FEW100 BKN260 07/M07 A2984 RMK AC1CI1 SLP151

CYYC;2008-02-23 21:00;CYYC 232100Z 01012KT 40SM FEW100 BKN260 07/M07 A2985 RMK AC1CI1 SLP151

CYYC;2008-02-23 22:00;CYYC 232200Z 01012KT 30SM FEW090 SCT260 07/M07 A2985 RMK AC1CI0 SLP153

CYYC;2008-02-23 23:00;CYYC 232300Z 03010KT 20SM FEW090 BKN260 06/M07 A2987 RMK AC2CI0 SLP158

CYYC;2008-02-24 00:00;CYYC 240000Z 03011KT 20SM SCT090 BKN260 05/M06 A2988 RMK AC2CI0 SLP167

CYYC;2008-02-24 01:00;CYYC 240100Z 03007KT 15SM BKN094 BKN260 00/M06 A2989 RMK AC2CI0 SLP170

CYYC;2008-02-24 02:00;CYYC 240200Z 27002KT 15SM BKN098 BKN260 M00/M06 A2991 RMK AC2CI0 SLP175

CYYC;2008-02-24 03:00;CYYC 240300Z 27003KT 15SM FEW075 BKN090 OVC240 M00/M06 A2991 RMK AC2AC2CI1 SLP184

CYYC;2008-02-24 04:00;CYYC 240400Z 34004KT 15SM BKN073 BKN110 M01/M06 A2992 RMK AC3AC1 SLP185

CYYC;2008-02-24 05:00;CYYC 240500Z 32006KT 15SM OVC078 M01/M06 A2992 RMK AC6 SLP187

CYYC;2008-02-24 06:00;CYYC 240600Z 01005KT 15SM BKN084 M03/M06 A2992 RMK AC6 SLP175

CYYC;2008-02-24 07:00;CYYC 240700Z 35005KT 15SM SCT100 M03/M06 A2991 RMK AC2 SLP173

CYYC;2008-02-24 08:00;CYYC 240800Z 35004KT 15SM FEW110 M05/M08 A2991 RMK AC1 SLP171

CYYC;2008-02-24 09:00;CYYC 240900Z 34004KT 15SM FEW110 M06/M08 A2991 RMK AC1 SLP174

CYYC;2008-02-24 10:00;CYYC 241000Z 34003KT 15SM FEW110 M08/M09 A2991 RMK AC1 SLP175

CYYC;2008-02-24 11:00;CYYC 241100Z 34005KT 12SM FEW065 FEW110 SCT240 M07/M09 A2992 RMK SC2AC1CC0 SLP176

CYYC;2008-02-24 12:00;CYYC 241200Z 34005KT 12SM OVC068 M07/M08 A2991 RMK AC7 SLP177

CYYC;2008-02-24 13:00;CYYC 241300Z 36005KT 12SM FEW070 OVC096 M06/M08 A2991 RMK AC2AC5 SLP177

CYYC;2008-02-24 14:00;CYYC 241400Z 36005KT 7SM FEW078 OVC097 M05/M07 A2991 RMK AC2AC6 BR SLP177

CYYC;2008-02-24 15:00;CYYC 241500Z 32004KT 8SM FEW050 SCT075 BKN100 M06/M08 A2992 RMK SC1AC2AC1 SLP187

CYYC;2008-02-24 16:00;CYYC 241600Z 36003KT 10SM SCT050 BKN070 BKN100 M04/M06 A2992 RMK SC3AC2AC1 SLP188

CYYC;2008-02-24 17:00;CYYC 241700Z 03003KT 8SM BKN060 BKN100 M03/M06 A2994 RMK SC6AC1 VIRGA SLP192

CYYC;2008-02-24 18:00;CYYC 241800Z 01003KT 8SM BKN060 BKN100 M02/M07 A2994 RMK SC6AC1 VIRGA SLP190

CYYC;2008-02-24 19:00;CYYC 241900Z 05006KT 15SM BKN060 BKN100 M01/M07 A2994 RMK SC5AC1 VIRGA SLP190

CYYC;2008-02-24 20:00;CYYC 242000Z 09004KT 15SM FEW030 BKN060 BKN085 01/M06 A2994 RMK SC1SC4AC3 VIRGA SLP190

CYYC;2008-02-24 20:31;CYYC 242031Z 07005KT 15SM -SN FEW017 BKN060 BKN085 M00/ RMK SC2SC4AC2

CYYC;2008-02-24 21:00;CYYC 242100Z 08006KT 15SM -SN BKN017 OVC060 M00/M04 A2994 RMK SC6SC2 SLP194

CYYC;2008-02-24 21:38;CYYC 242138Z 11007KT 7SM -SN BKN012 OVC060 M01/ RMK SC7SC1

CYYC;2008-02-24 22:00;CYYC 242200Z 08006KT 8SM -SN BKN012 OVC060 M01/M03 A2994 RMK SC6SC2 SLP194

CYYC;2008-02-24 23:00;CYYC 242300Z 10006KT 15SM BKN012 OVC052 M01/M04 A2995 RMK SC4SC3 SLP198

CYYC;2008-02-24 23:20;CYYC 242320Z 09006KT 8SM -SN BKN012 OVC052 M01/ RMK SC4SC4

CYYC;2008-02-25 00:00;CYYC 250000Z 09006KT 7SM -SN BKN012 OVC052 M02/M04 A2997 RMK SC4SC3 SLP206

CYYC;2008-02-25 01:00;CYYC 250100Z 11006KT 8SM -SN SCT010 BKN051 OVC080 M02/M04 A2998 RMK SC1SC6AC1 SLP210

CYYC;2008-02-25 01:28;CYYC 250128Z 11005KT 6SM -SN SCT007 OVC051 M03/ RMK SC2SC6

CYYC;2008-02-25 02:00;CYYC 250200Z 10006KT 5SM -SN BKN005 OVC050 M03/M04 A3000 RMK SC5SC3 SLP216

CYYC;2008-02-25 02:07;CYYC 250207Z 10005KT 2 1/2SM -SN BKN005 OVC050 M03/ RMK SC6SC2

CYYC;2008-02-25 02:38;CYYC 250238Z 12004KT 3SM -SN BKN007 OVC050 M03/ RMK SC6SC2

CYYC;2008-02-25 03:00;CYYC 250300Z 13003KT 2 1/2SM -SN BKN007 OVC050 M03/M04 A3002 RMK SC7SC1 SLP225

CYYC;2008-02-25 04:00;CYYC 250400Z 14004KT 2 1/2SM -SN BKN010 OVC030 M03/M05 A3003 RMK SC6SC2 SLP229

CYYC;2008-02-25 05:00;CYYC 250500Z 15004KT 2 1/2SM -SN BKN010 OVC020 M03/M04 A3004 RMK SC6SC2 SLP233

CYYC;2008-02-25 06:00;CYYC 250600Z 17005KT 3SM -SN OVC016 M03/M04 A3005 RMK SC8 SLP230

CYYC;2008-02-25 07:00;CYYC 250700Z 18007KT 4SM -SN OVC014 M03/M05 A3006 RMK SC8 SLP232

CYYC;2008-02-25 08:00;CYYC 250800Z 18005KT 4SM -SN OVC015 M04/M05 A3006 RMK SC8 SLP234

CYYC;2008-02-25 09:00;CYYC 250900Z 15005KT 7SM BKN015 M06/M06 A3009 RMK SC3 SLP245

CYYC;2008-02-25 10:00;CYYC 251000Z 14005KT 6SM BR SCT015 M06/M07 A3010 RMK SC2 SLP248

CYYC;2008-02-25 10:50;CYYC 251050Z 17004KT 1/2SM FZFG OVC005 M06/ RMK FG6SC1

CYYC;2008-02-25 11:00;CYYC 251100Z 19006KT 1/4SM FZFG VV002 M06/M07 A3010 RMK FG8 SLP250

CYYC;2008-02-25 12:00;CYYC 251200Z 20005KT 1/4SM FZFG VV002 M06/M07 A3011 RMK FG8 SNOW COVER/ TRACE LOOSE SLP257

CYYC;2008-02-25 13:00;CYYC 251300Z 00000KT 1/4SM FZFG VV002 M06/M07 A3014 RMK FG8 SLP266

CYYC;2008-02-25 14:00;CYYC 251400Z 28002KT 1/2SM FZFG VV002 M06/M07 A3016 RMK FG8 SLP271

CYYC;2008-02-25 15:00;CYYC 251500Z 21004KT 1/4SM FZFG VV002 M06/M07 A3017 RMK FG8 FROIN / RVR RWY 34 1800FT SLP278

CYYC;2008-02-25 15:13;CYYC 251513Z 22004KT 1/2SM FZFG VV002 M06/ RMK FG8 FROIN / RVR RWY 34 2200FT

CYYC;2008-02-25 16:00;CYYC 251600Z 23005KT 1/2SM FZFG VV002 M06/M07 A3019 RMK FG8 FROIN / RVR RWY 34 6000+ SLP283

CYYC;2008-02-25 16:26;CYYC 251626Z 23005KT 1 1/2SM BR OVC002 M06/ RMK FG6ST2 FROIN / VIS NE 1/2 + W 2

CYYC;2008-02-25 16:41;CYYC 251641Z 22004KT 2 1/2SM BR SCT003 M06/ RMK FG2ST2

CYYC;2008-02-25 16:50;CYYC 251650Z 22003KT 3SM BR BKN003 M05/ RMK FG1SC2 ST ASOCTD

CYYC;2008-02-25 17:00;CYYC 251700Z 22003KT 5SM BR FEW003 M05/M05 A3020 RMK SC2 VIS LWR SE SLP286

CYYC;2008-02-25 18:00;CYYC 251800Z 20006KT 15SM FEW011 M02/M03 A3021 RMK SC1 SLP288

CYYC;2008-02-25 19:00;CYYC 251900Z 20010KT 30SM SKC M01/M05 A3021 RMK SLP287

CYYC;2008-02-25 20:00;CYYC 252000Z 18010KT 30SM SKC 00/M06 A3021 RMK SLP286

CYYC;2008-02-25 21:00;CYYC 252100Z 16009KT 25SM FEW270 02/M05 A3021 RMK CI1 SLP283

CYYC;2008-02-25 22:00;CYYC 252200Z 16011KT 25SM FEW075 BKN270 02/M06 A3023 RMK CU1CI0 SLP289

CYYC;2008-02-25 23:00;CYYC 252300Z 16010KT 20SM FEW270 02/M05 A3023 RMK CI0 SLP290

CYYC;2008-02-26 00:00;CYYC 260000Z 18010KT 20SM FEW180 SCT260 01/M04 A3023 RMK AC1CI0 SLP292

CYYC;2008-02-26 01:00;CYYC 260100Z 18011KT 30SM FEW170 FEW260 00/M04 A3021 RMK AC1CI1 SLP287

CYYC;2008-02-26 02:00;CYYC 260200Z 18009KT 20SM FEW250 M01/M04 A3021 RMK CI1 SLP287

CYYC;2008-02-26 03:00;CYYC 260300Z 18007KT 15SM FEW250 M03/M05 A3021 RMK CI1 SLP292

CYYC;2008-02-26 04:00;CYYC 260400Z 18007KT 15SM SKC M03/M05 A3021 RMK SLP291

CYYC;2008-02-26 05:00;CYYC 260500Z 18007KT 15SM SKC M05/M07 A3019 RMK SLP287

CYYC;2008-02-26 06:00;CYYC 260600Z 19004KT 15SM SKC M04/M05 A3019 RMK SLP280

CYYC;2008-02-26 07:00;CYYC 260700Z 00000KT 15SM SKC M03/M07 A3019 RMK SLP281

CYYC;2008-02-26 08:00;CYYC 260800Z 32011KT 15SM SKC M04/M08 A3022 RMK SLP289

CYYC;2008-02-26 09:00;CYYC 260900Z 31008KT 15SM SKC M04/M09 A3022 RMK SLP286

CYYC;2008-02-26 10:00;CYYC 261000Z 33008KT 15SM SKC M04/M09 A3023 RMK SLP289

CYYC;2008-02-26 11:00;CYYC 261100Z 32007KT 15SM SKC M03/M10 A3024 RMK SLP292

CYYC;2008-02-26 12:00;CYYC 261200Z 32009KT 15SM SKC M05/M10 A3024 RMK SNOW COVER/TRACE LOOSE SLP295

CYYC;2008-02-26 13:00;CYYC 261300Z 05003KT 15SM FEW180 M06/M11 A3023 RMK AC1 SLP291

CYYC;2008-02-26 14:00;CYYC 261400Z 05003KT 40SM FEW180 SCT250 M06/M11 A3023 RMK AC1CI1 AC TR/ CONTRAILS SLP292

CYYC;2008-02-26 15:00;CYYC 261500Z 34002KT 40SM FEW040 FEW120 SCT260 M02/M10 A3026 RMK SC1AC1CI0 SLP303

CYYC;2008-02-26 16:00;CYYC 261600Z 36003KT 40SM FEW040 FEW120 SCT260 02/M07 A3026 RMK SC1AC1CI0 SLP305

CYYC;2008-02-26 17:00;CYYC 261700Z 30004KT 40SM FEW040 SCT130 SCT260 04/M08 A3026 RMK SC1AC2CI0 SLP304

CYYC;2008-02-26 18:00;CYYC 261800Z 26010KT 40SM FEW040 FEW130 BKN260 06/M10 A3025 RMK SC1AC2CI1 SLP287

CYYC;2008-02-26 19:00;CYYC 261900Z 26006KT 40SM FEW150 BKN270 07/M10 A3022 RMK AC1CI2 SLP280

CYYC;2008-02-26 20:00;CYYC 262000Z 21005KT 40SM FEW040 FEW150 FEW280 08/M11 A3020 RMK SC1AC1CI0 SLP272

CYYC;2008-02-26 21:00;CYYC 262100Z 21005KT 40SM FEW040 FEW150 FEW280 08/M11 A3018 RMK SC1AC1CI0 SLP262

CYYC;2008-02-26 22:00;CYYC 262200Z 19007KT 40SM FEW040 FEW150 FEW280 08/M11 A3014 RMK CU1AC1CI0 SLP251

CYYC;2008-02-26 23:00;CYYC 262300Z 18010KT 40SM FEW040 FEW150 SCT250 07/M10 A3012 RMK CU1AC1CI2 SLP246

CYYC;2008-02-27 00:00;CYYC 270000Z 15012KT 40SM FEW040 FEW160 BKN250 05/M08 A3010 RMK CU1AC1CI1 SLP240

CYYC;2008-02-27 01:00;CYYC 270100Z 15009KT 40SM FEW040 FEW160 BKN250 03/M07 A3009 RMK SC1AC1CI0 SLP236

CYYC;2008-02-27 02:00;CYYC 270200Z 16009KT 30SM FEW040 FEW160 FEW250 02/M07 A3008 RMK SC1AC1CI1 SLP235

CYYC;2008-02-27 03:00;CYYC 270300Z 16005KT 15SM FEW160 FEW250 M00/M07 A3007 RMK AC1CI1 BOTH CLDS TR SLP235

CYYC;2008-02-27 04:00;CYYC 270400Z 14005KT 15SM FEW160 FEW250 M01/M06 A3006 RMK AC1CI1 SLP231

CYYC;2008-02-27 05:00;CYYC 270500Z 19005KT 15SM FEW180 SCT250 M01/M06 A3003 RMK AC1CI2 SLP223

CYYC;2008-02-27 06:00;CYYC 270600Z 15004KT 15SM SKC M01/M06 A3002 RMK SLP205

CYYC;2008-02-27 07:00;CYYC 270700Z 16003KT 15SM FEW240 M02/M06 A2999 RMK CI1 SLP195

CYYC;2008-02-27 08:00;CYYC 270800Z 16004KT 15SM BKN240 M01/M05 A2995 RMK CI2 SLP183

CYYC;2008-02-27 09:00;CYYC 270900Z 20004KT 15SM SCT140 BKN210 M01/M05 A2993 RMK AC2CI1 SLP172

CYYC;2008-02-27 10:00;CYYC 271000Z 19004KT 15SM SCT160 BKN210 M02/M06 A2990 RMK AC2CI2 SLP163

CYYC;2008-02-27 11:00;CYYC 271100Z 19002KT 15SM SCT160 BKN210 M00/M06 A2987 RMK AC2CI2 SLP155

CYYC;2008-02-27 12:00;CYYC 271200Z 20004KT 15SM SCT120 OVC210 M00/M06 A2985 RMK AC3CI3 SNOW COVER/TRACE LOOSE SLP146

CYYC;2008-02-27 13:00;CYYC 271300Z 23005KT 15SM SCT120 OVC210 03/M05 A2983 RMK AC4CI3 SLP140

CYYC;2008-02-27 14:00;CYYC 271400Z 26013KT 20SM FEW080 BKN130 OVC210 07/M04 A2982 RMK AC1AC5CI2 SLP136

CYYC;2008-02-27 15:00;CYYC 271500Z 25006KT 40SM FEW080 SCT140 OVC250 05/M05 A2981 RMK AC1AC3CI5 SLP133

CYYC;2008-02-27 16:00;CYYC 271600Z 31007KT 40SM FEW065 BKN140 OVC250 07/M04 A2980 RMK SC1AC5CI3 SLP128

CYYC;2008-02-27 17:00;CYYC 271700Z 31006KT 40SM FEW060 SCT170 BKN250 10/M04 A2980 RMK SC1AC3CI2 SLP128

CYYC;2008-02-27 18:00;CYYC 271800Z 32006KT 40SM FEW060 FEW120 BKN180 BKN240 10/M04 A2979 RMK SC1AC1AC6CI1 SLP117

CYYC;2008-02-27 19:00;CYYC 271900Z 27007KT 40SM FEW065 FEW120 BKN190 BKN230 12/M04 A2976 RMK SC1AC1AC5CI1 SLP110

CYYC;2008-02-27 20:00;CYYC 272000Z 29013KT 40SM FEW065 FEW120 BKN190 BKN230 13/M05 A2974 RMK SC1AC1AC3CI1 SLP104

CYYC;2008-02-27 21:00;CYYC 272100Z 25016G21KT 40SM FEW065 SCT180 BKN240 14/M05 A2972 RMK SC1AC2CI2 SLP089

CYYC;2008-02-27 22:00;CYYC 272200Z 26019G29KT 40SM FEW060 BKN140 BKN240 12/M05 A2971 RMK SC1AC6CI2 SLP088

CYYC;2008-02-27 23:00;CYYC 272300Z 27021G26KT 40SM FEW055 BKN140 BKN180 11/M05 A2971 RMK SC1AC6AC2 SLP086

CYYC;2008-02-28 00:00;CYYC 280000Z 26025KT 30SM FEW055 FEW140 FEW180 SCT240 11/M05 A2970 RMK SC1AC1AC1CI2 SLP087

CYYC;2008-02-28 01:00;CYYC 280100Z 27014KT 30SM FEW050 FEW140 FEW230 09/M05 A2969 RMK SC1AC1CI1 SLP083

CYYC;2008-02-28 02:00;CYYC 280200Z 27015KT 30SM FEW043 FEW140 FEW220 08/M06 A2970 RMK SC1ACC1CI1 SLP087

CYYC;2008-02-28 03:00;CYYC 280300Z 28014G19KT 15SM FEW050 07/M06 A2972 RMK SC1 SLP090

CYYC;2008-02-28 04:00;CYYC 280400Z 29010KT 15SM SKC 06/M07 A2973 RMK SLP095

CYYC;2008-02-28 05:00;CYYC 280500Z 27013G19KT 15SM SKC 06/M06 A2975 RMK SLP099

CYYC;2008-02-28 06:00;CYYC 280600Z 27013KT 15SM SKC 06/M07 A2975 RMK SLP096

CYYC;2008-02-28 07:00;CYYC 280700Z 36007KT 15SM FEW099 FEW230 02/M06 A2976 RMK AC1CI1 SLP098

CYYC;2008-02-28 08:00;CYYC 280800Z 36007KT 15SM FEW170 FEW230 M02/M07 A2976 RMK AC1CI0 SLP100

CYYC;2008-02-28 09:00;CYYC 280900Z 33008KT 15SM FEW087 FEW160 SCT240 00/M04 A2977 RMK AC2AC1CI0 SLP107

CYYC;2008-02-28 10:00;CYYC 281000Z 36010KT 15SM FEW086 SCT140 SCT240 M01/M04 A2979 RMK AC1AC2CI0 SLP113

CYYC;2008-02-28 11:00;CYYC 281100Z 36009KT 15SM OVC034 M01/M02 A2982 RMK SC8 SLP122

CYYC;2008-02-28 11:24;CYYC 281124Z 35010KT 3/4SM -SN OVC006 M01/ RMK SC8 RVR RWY34 4000 FT

CYYC;2008-02-28 11:27;CYYC 281127Z 36010KT 3/4SM -SN DRSN OVC004 M01/ RMK SN4SC4 RVR RWY34 5500 FT

CYYC;2008-02-28 11:31;CYYC 281131Z 35014G19KT 5/8SM -SN DRSN BKN005 OVC015 M01/ RMK SN4SC3SC1 RVR RWY34 2800 FT

CYYC;2008-02-28 12:00;CYYC 281200Z 01018G26KT 5/8SM -SN DRSN BKN005 OVC009 M02/M02 A2988 RMK SN4SC3SC1 RVR RWY34 3000 FT /S01/ SNOW COVER/MUCH LOOSE SLP150

CYYC;2008-02-28 12:28;CYYC 281228Z 36017G22KT 3/4SM -SN DRSN BKN007 OVC016 M02/ RMK SN2SC4SC2 RVR RWY34 4000 FT

CYYC;2008-02-28 12:39;CYYC 281239Z CCA 36017G22KT 1SM -SN DRSN BKN008 BKN012 OVC024 M02/ RMK SC5SC2SC1 RVR RWY34 6000 FT

CYYC;2008-02-28 13:00;CYYC 281300Z 35011G16KT 1SM -SN DRSN BKN008 OVC021 M02/M03 A2991 RMK SC6SC2 RVR RWY34 4500 FT SLP159

CYYC;2008-02-28 14:00;CYYC 281400Z 33009KT 1SM -SN DRSN BKN009 OVC024 M03/M03 A2993 RMK SC6SC2 RVR RWY34 6000 FT /S01/ SLP166

CYYC;2008-02-28 14:14;CYYC 281414Z 34010KT 3/4SM -SN DRSN BKN007 OVC020 M03/ RMK SC6SC2 RVR RWY16 6000 FT

CYYC;2008-02-28 14:38;CYYC 281438Z 33006KT 1 1/2SM -SN BKN007 OVC021 M03/ RMK SC3SC4 OCNL DRSN

CYYC;2008-02-28 14:43;CYYC 281443Z 34006KT 3SM -SN SCT007 OVC023 M03/ RMK SC2SC5 OCNL DRSN

CYYC;2008-02-28 15:00;CYYC 281500Z 33005KT 1 1/2SM -SN SCT011 OVC026 M03/M03 A2995 RMK SC2SC4 /S02/ SLP182

CYYC;2008-02-28 15:21;CYYC 281521Z CCA 30005KT 1 1/4SM -SN BKN009 OVC011 M02/ RMK SC6SC2 VIS W 3/4

CYYC;2008-02-28 15:42;CYYC 281542Z 30005KT 2SM -SN FEW009 SCT015 OVC018 M02/ RMK SC2SC2SC3

CYYC;2008-02-28 16:00;CYYC 281600Z 28005KT 4SM -SN FEW010 FEW018 OVC049 M02/M02 A2997 RMK SF1SC2SC5 SLP187

CYYC;2008-02-28 17:00;CYYC 281700Z 25007KT 15SM -SN FEW009 FEW028 OVC042 M01/M03 A2998 RMK SF1SC2SC6 SLP191

CYYC;2008-02-28 17:19;CYYC 281719Z 26006KT 15SM FEW022 SCT042 OVC058 M01/ RMK SF1SC3SC5

CYYC;2008-02-28 18:00;CYYC 281800Z CCA 25004KT 15SM FEW022 BKN048 BKN068 M00/M03 A2999 RMK SC2SC5AC1 /S03/ SLP196

CYYC;2008-02-28 19:00;CYYC 281900Z 25004KT 15SM FEW011 FEW042 BKN071 M00/M03 A2999 RMK SF1SC2AC5 SLP196

CYYC;2008-02-28 20:00;CYYC 282000Z 25008KT 15SM FEW014 FEW042 BKN072 01/M03 A2999 RMK SF1SC2AC4 CU ASOCTD SLP194

CYYC;2008-02-28 21:00;CYYC 282100Z 00000KT 15SM FEW025 FEW063 SCT074 02/M04 A2997 RMK CU1SC2AC2 SLP191

CYYC;2008-02-28 22:00;CYYC 282200Z 20002KT 20SM FEW028 FEW080 03/M06 A2997 RMK SC1AC1 SLP192

CYYC;2008-02-28 23:00;CYYC 282300Z 17007KT 20SM FEW029 FEW080 FEW230 03/M06 A2997 RMK SC1AC1CI1 SLP193

CYYC;2008-02-29 00:00;CYYC 290000Z 19008KT 20SM FEW030 FEW080 FEW230 02/M06 A2995 RMK SC1AC1CI1 SLP188

CYYC;2008-02-29 01:00;CYYC 290100Z 18007KT 30SM FEW024 FEW080 FEW240 00/M06 A2997 RMK SC1AC1CI0 SLP195

CYYC;2008-02-29 02:00;CYYC 290200Z 15006KT 15SM FEW023 FEW240 M01/M06 A2994 RMK SC1CI1 SLP186

CYYC;2008-02-29 03:00;CYYC 290300Z 16006KT 15SM SKC M04/M07 A2995 RMK SLP197

CYYC;2008-02-29 04:00;CYYC 290400Z 18009KT 15SM SKC M02/M05 A2995 RMK SLP198

CYYC;2008-02-29 05:00;CYYC 290500Z 17004KT 15SM SKC M04/M06 A2996 RMK SLP199

CYYC;2008-02-29 06:00;CYYC 290600Z 17002KT 15SM SKC M04/M06 A2993 RMK SLP189

CYYC;2008-02-29 07:00;CYYC 290700Z 19007KT 15SM FEW230 M04/M05 A2991 RMK CI0 SLP183

CYYC;2008-02-29 08:00;CYYC 290800Z 20007KT 15SM FEW220 M04/M05 A2989 RMK CI1 SLP175

CYYC;2008-02-29 09:00;CYYC 290900Z 20005KT 15SM FEW180 SCT220 M05/M06 A2987 RMK AC1CI1 SLP164

CYYC;2008-02-29 10:00;CYYC 291000Z 18006KT 15SM FEW180 BKN210 M04/M06 A2984 RMK AC1CI2 SLP155

CYYC;2008-02-29 11:00;CYYC 291100Z 19006KT 15SM FEW190 BKN210 M04/M06 A2981 RMK AC1CI3 SLP146

CYYC;2008-02-29 12:00;CYYC 291200Z 16005KT 15SM OVC210 M04/M05 A2978 RMK CI6 SNOW COVER/TRACE LOOSE SLP131

CYYC;2008-02-29 13:00;CYYC 291300Z 19010KT 15SM SCT230 M02/M05 A2975 RMK CI2 SLP122

CYYC;2008-02-29 14:00;CYYC 291400Z 21004KT 40SM FEW180 BKN240 M04/M06 A2973 RMK AC1CI2 SLP115

CYYC;2008-02-29 15:00;CYYC 291500Z 21005KT 40SM FEW075 FEW180 BKN210 M03/M06 A2971 RMK AC1AC1CI4 SLP115

CYYC;2008-02-29 16:00;CYYC 291600Z 20008KT 40SM FEW075 SCT180 BKN210 04/M05 A2969 RMK AC1AC2CI3 SLP108

CYYC;2008-02-29 17:00;CYYC 291700Z 23005KT 40SM FEW075 BKN160 BKN210 03/M04 A2968 RMK AC1AC5CI2 SLP105

CYYC;2008-02-29 18:00;CYYC 291800Z 19009KT 40SM FEW080 BKN170 BKN230 04/M03 A2966 RMK AC1AC6CI2 SLP087

CYYC;2008-02-29 19:00;CYYC 291900Z 19006KT 40SM FEW080 BKN150 BKN230 06/M04 A2966 RMK AC1AC6CI1 SLP087

CYYC;2008-02-29 20:00;CYYC 292000Z 20005KT 40SM FEW080 BKN140 BKN230 06/M04 A2963 RMK AC1AC7CI0 SLP079

CYYC;2008-02-29 21:00;CYYC 292100Z 23003KT 40SM FEW080 BKN140 OVC230 07/M02 A2961 RMK AC1AC6CI2 SLP064

CYYC;2008-02-29 22:00;CYYC 292200Z 20005KT 40SM FEW080 SCT140 BKN220 13/M06 A2959 RMK AC1AC2CI4 SLP059

CYYC;2008-02-29 23:00;CYYC 292300Z 22005KT 40SM FEW090 FEW140 BKN240 13/M06 A2957 RMK AC1AC1CI1 SLP052

CYYC;2008-03-01 01:00;CYYC 010100Z 14005KT 40SM FEW090 FEW140 FEW240 08/M04 A2953 RMK AC1AC1CI1 SLP031

CYYC;2008-03-01 02:00;CYYC 010200Z 14006KT 20SM FEW090 FEW140 FEW240 06/M04 A2951 RMK AC1AC1CI1 SLP026

CYYC;2008-03-01 03:00;CYYC 010300Z 12002KT 15SM SKC 04/M04 A2949 RMK SLP025

CYYC;2008-03-01 04:00;CYYC 010400Z 22002KT 15SM SCT220 03/M03 A2947 RMK CI0 SLP019

CYYC;2008-03-01 05:00;CYYC 010500Z 30002KT 15SM SCT220 01/M04 A2945 RMK CI1 SLP015

CYYC;2008-03-01 06:00;CYYC 010600Z 23002KT 15SM BKN230 M01/M04 A2943 RMK CI2 SLP004

CYYC;2008-03-01 07:00;CYYC 010700Z 26003KT 15SM SCT240 06/M06 A2942 RMK CI1 SLP999

CYYC;2008-03-01 08:00;CYYC 010800Z 33004KT 15SM BKN250 00/M05 A2941 RMK CI5 SLP995

CYYC;2008-03-01 09:00;CYYC 010900Z 25011G16KT 15SM BKN250 08/M06 A2939 RMK CI5 SLP971

CYYC;2008-03-01 10:00;CYYC 011000Z 21006G16KT 15SM BKN230 07/M05 A2936 RMK CI2 SLP963

CYYC;2008-03-01 11:00;CYYC 011100Z 23010KT 15SM SKC 06/M04 A2934 RMK SLP957

CYYC;2008-03-01 12:00;CYYC 011200Z CCA 23015KT 15SM FEW140 SCT240 06/M03 A2933 RMK AC1CI1 SNOW COVER / TRACE WET SLP946

CYYC;2008-03-01 13:00;CYYC 011300Z 23011KT 15SM FEW140 BKN240 05/M03 A2933 RMK AC1CI2 SLP946

CYYC;2008-03-01 14:00;CYYC 011400Z 24010KT 20SM FEW130 FEW180 BKN200 06/M03 A2936 RMK AC1AC2CI3 SLP957

CYYC;2008-03-01 15:00;CYYC 011500Z 35014G21KT 40SM BKN040 BKN100 01/M05 A2948 RMK SC7AC1 VIRGA SW / PRESRR PAST HR SLP017

CYYC;2008-03-01 16:00;CYYC 011600Z CCA 34019KT 40SM BKN020 BKN040 BKN095 01/M03 A2954 RMK SC2SC4AC1 PRESRR SLP036

CYYC;2008-03-01 17:00;CYYC 011700Z 34014KT 40SM FEW020 BKN050 BKN095 00/M03 A2955 RMK SC1SC6AC1 VIRGA SLP038

CYYC;2008-03-01 18:00;CYYC 011800Z 30008KT 40SM FEW030 BKN059 BKN080 01/M03 A2958 RMK SC1SC6AC1 VIRGA SLP059

CYYC;2008-03-01 19:00;CYYC 011900Z 34009KT 40SM FEW030 BKN059 BKN090 04/M05 A2959 RMK SC1SC4AC1 VIRGA NE-SW SLP061

CYYC;2008-03-01 20:00;CYYC 012000Z 27007KT 40SM FEW060 SCT090 BKN180 06/M05 A2959 RMK SC1AC3AC0 VIRGA ALQDS SLP062

CYYC;2008-03-01 21:00;CYYC 012100Z 27017G25KT 40SM FEW060 SCT090 BKN190 07/M15 A2958 RMK SC1AC2AC2 SH NE-S SLP039

CYYC;2008-03-01 22:00;CYYC 012200Z 26019G26KT 40SM FEW060 FEW090 FEW190 07/M13 A2960 RMK SC1AC2AC0 SH E-SW SLP044

CYYC;2008-03-01 23:00;CYYC 012300Z 29018G25KT 40SM FEW060 FEW090 FEW190 07/M17 A2963 RMK SC1AC1AC1 SC TR SLP053

CYYC;2008-03-02 00:00;CYYC 020000Z 29024KT 40SM FEW060 FEW090 06/M15 A2966 RMK SC1AC1 SLP072

CYYC;2008-03-02 01:00;CYYC 020100Z 29012KT 40SM FEW060 FEW090 SCT180 04/M14 A2970 RMK SC1AC1AC0 SLP083

CYYC;2008-03-02 02:00;CYYC 020200Z 28015KT 30SM FEW060 FEW090 BKN160 04/M14 A2974 RMK SC1AC1AC2 SLP095

CYYC;2008-03-02 03:00;CYYC 020300Z 28011KT 15SM BKN120 03/M13 A2977 RMK AC2 SLP118

CYYC;2008-03-02 04:00;CYYC 020400Z 28011KT 15SM FEW090 OVC110 02/M13 A2980 RMK AC2AC0 SLP128

CYYC;2008-03-02 05:00;CYYC 020500Z CCA 28013KT 15SM OVC074 02/M12 A2983 RMK AC6 VIRGA E-SE SLP138

CYYC;2008-03-02 06:00;CYYC 020600Z 34011G17KT 15SM VCSH FEW060 BKN074 01/M11 A2988 RMK SC1AC6 SH SE/VIRGA OVR RWY/PRESRR/WSHFT 0540 SLP160

CYYC;2008-03-02 07:00;CYYC 020700Z 32005KT 15SM FEW050 BKN060 BKN110 BKN140 M01/M09 A2990 RMK SC1SC6AC1AC1 VIRGA SE-N SLP167

CYYC;2008-03-02 08:00;CYYC 020800Z 00000KT 15SM OVC062 M02/M09 A2992 RMK SC6 VIRGA SE SLP172

CYYC;2008-03-02 09:00;CYYC 020900Z 32003KT 15SM FEW045 BKN065 BKN150 M02/M10 A2995 RMK SC1SC2AC1 VIRGA SE SLP181

CYYC;2008-03-02 10:00;CYYC 021000Z 02012G17KT 12SM FEW060 FEW150 M05/M07 A3000 RMK SC1AC2 SC TR/BR SLP196

CYYC;2008-03-02 10:38;CYYC 021038Z 01010KT 3SM BR BKN006 M05/ RMK SC7

CYYC;2008-03-02 10:47;CYYC 021047Z 02012KT 5SM BR OVC004 M05/ RMK ST8

CYYC;2008-03-02 10:49;CYYC 021049Z 02012KT 2 1/2SM BR OVC003 M05/ RMK ST8

CYYC;2008-03-02 11:00;CYYC 021100Z 02009KT 2 1/2SM BR OVC004 M05/M06 A3004 RMK ST8 SLP209

CYYC;2008-03-02 11:44;CYYC 021144Z 36013KT 3SM BR SCT004 OVC007 M07/ RMK ST4SC4

CYYC;2008-03-02 12:00;CYYC 021200Z CCA 36016KT 15SM FEW004 OVC006 M07/M09 A3009 RMK SC2SC6 PRESRR SLP240

CYYC;2008-03-02 12:35;CYYC 021235Z 01012KT 15SM FEW007 OVC010 M07/ RMK SC2SC6

CYYC;2008-03-02 13:00;CYYC 021300Z 02012KT 15SM FEW008 OVC010 M08/M10 A3014 RMK SC2SC6 SLP253

CYYC;2008-03-02 13:30;CYYC 021330Z 03011KT 12SM OVC009 M08/ RMK SC8 VIRGA OVR RWY E-S

CYYC;2008-03-02 13:44;CYYC 021344Z 02012KT 15SM OVC011 M08/ RMK SC7 VIRGA OVR RWY E-S

CYYC;2008-03-02 14:00;CYYC 021400Z 03012KT 15SM OVC012 M08/M11 A3017 RMK SC7 VIRGA E-S SLP262

CYYC;2008-03-02 14:49;CYYC 021449Z 34009KT 8SM -SN OVC015 M09/ RMK SC7

CYYC;2008-03-02 15:00;CYYC 021500Z 34008KT 8SM -SN OVC015 M09/M11 A3021 RMK SC8 SLP286

CYYC;2008-03-02 15:28;CYYC 021528Z 36008KT 7SM -SN OVC010 M09/ RMK SC8

CYYC;2008-03-02 16:00;CYYC 021600Z 34009KT 7SM -SN BKN010 OVC015 M09/M10 A3023 RMK SC3SC4 SLP292

CYYC;2008-03-02 16:18;CYYC 021618Z 34009KT 15SM FEW010 FEW015 BKN075 M08/ RMK SC1SC1AC3

CYYC;2008-03-02 17:00;CYYC 021700Z 28002KT 15SM FEW010 FEW088 M06/M08 A3023 RMK SC1AC1 VIRGA SE SLP292

CYYC;2008-03-02 18:00;CYYC 021800Z 23006KT 15SM FEW010 FEW090 M03/M08 A3023 RMK SC1AC1 SLP287

CYYC;2008-03-02 19:00;CYYC 021900Z 30003KT 15SM FEW030 M01/M09 A3022 RMK SC1 SLP285

CYYC;2008-03-02 20:00;CYYC 022000Z 00000KT 15SM FEW030 M01/M08 A3020 RMK SC1 SLP279

CYYC;2008-03-02 21:00;CYYC 022100Z 21008KT 15SM FEW030 M00/M08 A3018 RMK SC1 SLP271

CYYC;2008-03-02 22:00;CYYC 022200Z 17012KT 15SM FEW030 FEW260 M00/M08 A3015 RMK SC1CI1 SLP263

CYYC;2008-03-02 23:00;CYYC 022300Z 19011KT 15SM FEW030 FEW240 M01/M07 A3013 RMK SC1CI1 SLP256

CYYC;2008-03-03 00:00;CYYC 030000Z 18010KT 15SM FEW030 FEW240 M01/M07 A3012 RMK SC1CI1 SLP259

CYYC;2008-03-03 01:00;CYYC 030100Z 17007KT 30SM FEW030 FEW160 FEW240 M02/M07 A3010 RMK SC1AC1CI0 SLP254

CYYC;2008-03-03 02:00;CYYC 030200Z 16009KT 30SM FEW080 FEW160 FEW240 M04/M07 A3009 RMK AC1AC1CI1 SLP251

CYYC;2008-03-03 03:00;CYYC 030300Z 15006KT 15SM FEW080 FEW240 M05/M07 A3006 RMK AC1CI1 SLP248

CYYC;2008-03-03 04:00;CYYC 030400Z 16005KT 10SM FEW080 FEW240 M05/M07 A3005 RMK AC1CI1 SLP242

CYYC;2008-03-03 05:00;CYYC 030500Z 17003KT 15SM BKN220 M06/M07 A3002 RMK CI0 SLP235

CYYC;2008-03-03 06:00;CYYC 030600Z 25006KT 15SM FEW180 BKN210 M03/M07 A2999 RMK AC1CI2 SLP209

CYYC;2008-03-03 07:00;CYYC 030700Z 27003KT 15SM BKN150 M02/M09 A2996 RMK AC4 SLP202

CYYC;2008-03-03 08:00;CYYC 030800Z 25011KT 15SM BKN150 BKN210 01/M13 A2994 RMK AC5CI1 SLP194

CYYC;2008-03-03 09:00;CYYC 030900Z 26013G19KT 15SM SCT150 BKN220 01/M13 A2991 RMK AC3CI2 SLP172

CYYC;2008-03-03 10:00;CYYC 031000Z 26013KT 15SM BKN220 01/M13 A2987 RMK CI5 SLP160

CYYC;2008-03-03 11:00;CYYC 031100Z 27013G20KT 15SM SCT170 BKN220 01/M12 A2984 RMK AC2CI1 SLP152

CYYC;2008-03-03 12:00;CYYC 031200Z 24011G16KT 15SM FEW170 SCT220 01/M11 A2980 RMK AC1CI1 SLP135

CYYC;2008-03-03 13:00;CYYC 031300Z 18006KT 15SM FEW090 SCT160 BKN220 01/M11 A2977 RMK AC2AC2CI1 SLP125

CYYC;2008-03-03 14:00;CYYC 031400Z 24011KT 30SM BKN075 BKN160 OVC220 02/M11 A2974 RMK AC4AC2CI0 SLP118

CYYC;2008-03-03 15:00;CYYC 031500Z 16002KT 30SM FEW046 BKN075 BKN140 02/M10 A2971 RMK CU1AC5AC2 SLP110

CYYC;2008-03-03 16:00;CYYC 031600Z 28022G29KT 30SM FEW046 SCT061 BKN075 OVC110 04/M10 A2968 RMK CU1SC2AC3AC2 SLP101

CYYC;2008-03-03 17:00;CYYC 031700Z 27017G22KT 30SM FEW046 SCT055 BKN110 OVC200 04/M11 A2966 RMK CU1SC2AC2CC2 SLP095

CYYC;2008-03-03 18:00;CYYC 031800Z 27024G31KT 40SM FEW046 FEW055 BKN120 OVC210 05/M11 A2964 RMK CU1SC1AC4CS2 SLP078

CYYC;2008-03-03 19:00;CYYC 031900Z 27022G31KT 40SM FEW047 SCT082 BKN130 OVC240 06/M11 A2962 RMK CU1AC2AC2CI2 CS ASOCTD SLP071

CYYC;2008-03-03 20:00;CYYC 032000Z 27022G28KT 40SM FEW050 SCT082 SCT140 BKN250 07/M10 A2959 RMK CU1AC3AC1CI2 ACSL ASOCTD SLP063

CYYC;2008-03-03 21:00;CYYC 032100Z 26019G28KT 40SM FEW050 SCT110 BKN140 BKN250 07/M11 A2956 RMK SC1AC2AC2CI1 SLP039

CYYC;2008-03-03 22:00;CYYC 032200Z 28020KT 40SM FEW050 SCT130 BKN180 BKN230 07/M11 A2956 RMK SC1AC2AC2CI1 ACSL ASOCTD SLP040

CYYC;2008-03-03 23:00;CYYC 032300Z 27014KT 40SM FEW048 SCT086 BKN140 OVC230 06/M11 A2955 RMK SC1AC3AC2CI1 ACSL ASOCTD SLP038

CYYC;2008-03-04 00:00;CYYC 040000Z 27013KT 40SM FEW048 FEW085 BKN170 BKN230 05/M11 A2955 RMK SC1AC2AC3CI1 ACSL ASOCTD SLP038

CYYC;2008-03-04 01:00;CYYC 040100Z 35008KT 40SM FEW047 FEW082 SCT170 BKN220 04/M09 A2956 RMK SC1AC2AC2CI2 SLP042

CYYC;2008-03-04 02:00;CYYC 040200Z 09004KT 15SM FEW062 BKN110 OVC210 02/M07 A2958 RMK SC2AC3CI1 SLP049

CYYC;2008-03-04 03:00;CYYC 040300Z 00000KT 15SM BKN060 OVC110 01/M07 A2960 RMK SC4AC3 SLP061

CYYC;2008-03-04 04:00;CYYC 040400Z 05004KT 15SM OVC060 01/M06 A2961 RMK SC7 SLP065

CYYC;2008-03-04 05:00;CYYC 040500Z 05003KT 15SM OVC050 M00/M05 A2963 RMK SC8 SLP071

CYYC;2008-03-04 06:00;CYYC 040600Z 35003KT 15SM BKN050 OVC080 00/M06 A2965 RMK SC6AC2 SLP076

CYYC;2008-03-04 07:00;CYYC 040700Z 02006KT 15SM FEW020 BKN050 OVC080 00/M05 A2967 RMK SC2SC6AC1 SLP082

CYYC;2008-03-04 08:00;CYYC 040800Z 04003KT 15SM BKN060 OVC100 M01/M05 A2969 RMK SC6AC2 SLP088

CYYC;2008-03-04 09:00;CYYC 040900Z 30006KT 3SM -SN OVC025 M00/M04 A2972 RMK SC8 SLP100

CYYC;2008-03-04 09:47;CYYC 040947Z 31008KT 6SM BR FEW025 BKN055 OVC075 M01/ RMK SC1SC6AC1

CYYC;2008-03-04 10:00;CYYC 041000Z 32009KT 7SM -SN SCT025 BKN055 OVC075 M01/M02 A2975 RMK SC2SC4AC1 SLP107

CYYC;2008-03-04 10:45;CYYC 041045Z 36018KT 2 1/2SM -SN OVC020 M02/ RMK SC8

CYYC;2008-03-04 11:00;CYYC 041100Z 02018KT 2 1/2SM -SN OVC020 M02/M03 A2979 RMK SC8 SLP121

CYYC;2008-03-04 12:00;CYYC 041200Z 36017KT 2SM -SN BKN015 OVC030 M05/M05 A2986 RMK SC6SC2 SNOW CVR/TRACE LOOSE SLP156

CYYC;2008-03-04 13:00;CYYC 041300Z 36014KT 4SM -SN BKN015 OVC070 M05/M06 A2991 RMK SC6AC2 SLP172

CYYC;2008-03-04 14:00;CYYC 041400Z 35011KT 7SM -SN OVC018 M05/M06 A2996 RMK SC8 SLP185

CYYC;2008-03-04 15:00;CYYC 041500Z 35008KT 15SM FEW011 BKN016 OVC029 M05/M06 A2998 RMK SF1SC5SC2 CIG LWR E SLP205

CYYC;2008-03-04 15:22;CYYC 041522Z 35009KT 8SM -SN FEW011 BKN018 OVC023 M04/ RMK SF1SC5SC2

CYYC;2008-03-04 16:00;CYYC 041600Z 36010KT 8SM -SN FEW012 FEW018 OVC028 M04/M06 A3001 RMK SC1SC2SC6 SLP213

CYYC;2008-03-04 17:00;CYYC 041700Z 35017KT 10SM -SN FEW013 SCT019 BKN037 M03/M06 A3004 RMK SC1SC3SC3 SLP221

CYYC;2008-03-04 18:00;CYYC 041800Z 36013G18KT 8SM -SN BKN018 OVC024 M04/M07 A3006 RMK SC5SC2 SLP233

CYYC;2008-03-04 19:00;CYYC 041900Z 34011KT 15SM SCT022 BKN028 M03/M07 A3007 RMK SC4SC3 SLP235

CYYC;2008-03-04 20:00;CYYC 042000Z 33010G16KT 15SM SCT023 BKN028 M02/M07 A3008 RMK SC3SC4 SLP238

CYYC;2008-03-04 21:00;CYYC 042100Z 34009KT 10SM VCSH FEW024 BKN033 BKN055 M01/M06 A3008 RMK SC2SC2SC1 SH ALQDS SLP235

CYYC;2008-03-04 22:00;CYYC 042200Z 36010G15KT 15SM FEW028 SCT038 SCT055 M01/M06 A3007 RMK CU2SC2SC1 SH S-SW SLP234

CYYC;2008-03-04 23:00;CYYC 042300Z 35010KT 15SM FEW036 SCT042 SCT068 00/M10 A3007 RMK CU1SC2AC1 SH S-W + NE SLP232

CYYC;2008-03-05 00:00;CYYC 050000Z 36007KT 15SM FEW041 SCT067 00/M10 A3007 RMK SC2AC2 SH S-SW SLP237

CYYC;2008-03-05 01:00;CYYC 050100Z CCA 07004KT 15SM FEW040 FEW065 FEW100 M02/M09 A3007 RMK SC1SC1AC1 SH S-SW / ACLS ASOCTD SLP236

CYYC;2008-03-05 02:00;CYYC 050200Z 14007KT 15SM FEW032 FEW110 M05/M10 A3007 RMK SC1AC1 SLP238

CYYC;2008-03-05 03:00;CYYC 050300Z 20008KT 15SM FEW110 M03/M07 A3007 RMK AC1 SLP242

CYYC;2008-03-05 04:00;CYYC 050400Z 21007KT 15SM FEW220 M04/M06 A3006 RMK CI1 SLP239

CYYC;2008-03-05 05:00;CYYC 050500Z 22006KT 15SM BKN092 BKN220 M04/M06 A3006 RMK AC2CI2 SLP237

CYYC;2008-03-05 06:00;CYYC 050600Z 23010KT 15SM FEW060 BKN100 OVC220 M03/M07 A3006 RMK SC2AC3CI2 SLP238

CYYC;2008-03-05 07:00;CYYC 050700Z 01008KT 15SM FEW033 BKN052 OVC090 M04/M07 A3009 RMK SC2SC4AC2 SLP248

CYYC;2008-03-05 08:00;CYYC 050800Z 35004KT 15SM FEW050 BKN080 OVC100 M04/M07 A3010 RMK SC2AC4AC2 SLP251

CYYC;2008-03-05 09:00;CYYC 050900Z 35006KT 15SM FEW040 FEW100 M06/M08 A3011 RMK SC1AC1 SLP254

CYYC;2008-03-05 10:00;CYYC 051000Z 31009KT 15SM FEW100 M06/M09 A3011 RMK AC1 SLP253

CYYC;2008-03-05 11:00;CYYC 051100Z 27005KT 15SM BKN100 OVC220 M05/M08 A3011 RMK AC3CI1 SLP253

CYYC;2008-03-05 12:00;CYYC 051200Z CCA 31007KT 15SM FEW100 M05/M10 A3011 RMK AC1 SNOW COVER/TRACE LOOSE SLP251

CYYC;2008-03-05 13:00;CYYC 051300Z 31008KT 15SM FEW100 M05/M11 A3012 RMK AC1 AC TR SLP253

CYYC;2008-03-05 14:00;CYYC 051400Z 30006KT 40SM FEW100 FEW250 M05/M12 A3012 RMK AC1CI1 CI TR SLP255

CYYC;2008-03-05 15:00;CYYC 051500Z 18003KT 40SM SCT084 BKN210 M04/M11 A3013 RMK AC3CC1 SLP262

CYYC;2008-03-05 16:00;CYYC 051600Z 30006KT 40SM FEW060 BKN082 M02/M10 A3014 RMK SC2AC4 SLP264

CYYC;2008-03-05 17:00;CYYC 051700Z 29006KT 40SM FEW048 BKN082 M00/M12 A3014 RMK SC1AC5 SLP265

CYYC;2008-03-05 18:00;CYYC 051800Z 33011KT 40SM FEW052 BKN080 BKN250 00/M11 A3013 RMK SC1AC4CI1 SLP254

CYYC;2008-03-05 19:00;CYYC 051900Z 33011G18KT 40SM FEW050 SCT081 BKN230 02/M10 A3013 RMK CU1AC2CS2 SLP254

CYYC;2008-03-05 20:00;CYYC 052000Z 35011G18KT 40SM FEW050 SCT110 BKN230 02/M10 A3010 RMK CU1AC1CS3 SLP246

CYYC;2008-03-05 21:00;CYYC 052100Z 01008KT 40SM FEW050 SCT140 BKN230 03/M10 A3009 RMK CU1AC1CS3 SLP241

CYYC;2008-03-05 22:00;CYYC 052200Z 01007KT 40SM FEW050 FEW081 SCT110 BKN240 03/M10 A3007 RMK CU1AC1AC1CS3 SLP236

CYYC;2008-03-05 23:00;CYYC 052300Z 01005KT 40SM FEW052 BKN085 BKN240 02/M10 A3005 RMK CU1AC6CS1 SLP230

CYYC;2008-03-06 00:00;CYYC 060000Z 09003KT 40SM FEW046 BKN088 BKN250 02/M10 A3004 RMK CU1AC7CI1 SLP224

CYYC;2008-03-06 01:00;CYYC 060100Z 09004KT 40SM FEW043 BKN078 01/M09 A3005 RMK CU1AS7 SLP225

CYYC;2008-03-06 02:00;CYYC 060200Z 14005KT 20SM BKN054 OVC068 M00/M08 A3007 RMK SC5AS3 VIRGA ALQDS SLP233

CYYC;2008-03-06 03:00;CYYC 060300Z 16004KT 15SM BKN060 OVC070 M00/M08 A3008 RMK SC6AC2 VIRGA ALQDS SLP242

CYYC;2008-03-06 04:00;CYYC 060400Z 20006KT 15SM BKN064 OVC082 00/M07 A3007 RMK SC6AC2 VIRGA ALQDS SLP238

CYYC;2008-03-06 05:00;CYYC 060500Z 25002KT 15SM BKN050 OVC070 00/M08 A3008 RMK SC6AC2 VIRGA S SLP240

CYYC;2008-03-06 06:00;CYYC 060600Z 11005KT 15SM FEW060 SCT080 OVC100 M02/M06 A3007 RMK SC2AC2AC4 SLP234

CYYC;2008-03-06 07:00;CYYC 060700Z 11004KT 15SM OVC110 M02/M05 A3007 RMK AC8 SLP232

CYYC;2008-03-06 08:00;CYYC 060800Z 06003KT 15SM FEW060 OVC110 M02/M04 A3007 RMK SC2AC6 SLP233

CYYC;2008-03-06 09:00;CYYC 060900Z 00000KT 15SM OVC100 M03/M04 A3007 RMK AC7 SLP229

CYYC;2008-03-06 10:00;CYYC 061000Z 22005KT 15SM FEW110 FEW240 M03/M05 A3006 RMK AC1CC1 CC TR SLP225

CYYC;2008-03-06 11:00;CYYC 061100Z 22005KT 15SM FEW110 FEW240 M03/M05 A3005 RMK AC1CC0 SLP222

CYYC;2008-03-06 12:00;CYYC 061200Z 21004KT 15SM FEW092 SCT100 BKN240 M04/M06 A3004 RMK AC1AC1CI1 SNOW COVER/LOOSE TRACE SLP221

CYYC;2008-03-06 13:00;CYYC 061300Z 21007KT 15SM FEW100 FEW250 M04/M07 A3004 RMK AC1CI0 SLP222

CYYC;2008-03-06 14:00;CYYC 061400Z 23003KT 30SM FEW095 SCT220 BKN250 M04/M08 A3004 RMK AC2CC2CI1 SLP221

CYYC;2008-03-06 15:00;CYYC 061500Z 00000KT 40SM BKN098 BKN250 M03/M07 A3005 RMK AC3CI1 SLP226

CYYC;2008-03-06 16:00;CYYC 061600Z 17002KT 40SM FEW100 FEW250 M00/M06 A3005 RMK AC1CI1 SLP227

CYYC;2008-03-06 17:00;CYYC 061700Z 15003KT 40SM FEW100 FEW250 03/M07 A3005 RMK AC1CI1 SLP228

CYYC;2008-03-06 18:00;CYYC 061800Z 14004KT 40SM FEW100 FEW250 04/M07 A3005 RMK AC1CI1 SLP218

CYYC;2008-03-06 19:00;CYYC 061900Z 16004KT 40SM FEW250 06/M08 A3005 RMK CI1 SLP218

CYYC;2008-03-06 20:00;CYYC 062000Z 18006KT 40SM FEW250 07/M08 A3004 RMK CI1 SLP216

CYYC;2008-03-06 21:00;CYYC 062100Z 17003KT 40SM FEW180 FEW250 08/M08 A3002 RMK AC1CI0 SLP205

CYYC;2008-03-06 22:00;CYYC 062200Z 16010KT 40SM FEW180 FEW250 10/M07 A3001 RMK AC1CI0 SLP200

CYYC;2008-03-06 23:00;CYYC 062300Z 16010KT 40SM FEW180 FEW250 09/M06 A2999 RMK AC1CI0 SLP196

CYYC;2008-03-07 00:00;CYYC 070000Z 16012KT 40SM FEW180 BKN250 08/M07 A2998 RMK AC1CI0 SLP192

CYYC;2008-03-07 01:00;CYYC 070100Z 16008KT 40SM FEW160 BKN250 06/M06 A2997 RMK AC1CI0 SLP190

CYYC;2008-03-07 02:00;CYYC 070200Z 15007KT 30SM FEW160 BKN250 04/M05 A2997 RMK AC1CI0 SLP190

CYYC;2008-03-07 03:00;CYYC 070300Z 16008KT 15SM FEW160 FEW250 02/M04 A2996 RMK AC1CI0 SLP193

CYYC;2008-03-07 04:00;CYYC 070400Z 17004KT 15SM SKC M01/M05 A2994 RMK SLP188

CYYC;2008-03-07 05:00;CYYC 070500Z 18005KT 15SM FEW160 BKN240 M01/M04 A2994 RMK AC1CI2 SLP186

CYYC;2008-03-07 06:00;CYYC 070600Z CCA 24007KT 15SM BKN230 04/M09 A2992 RMK CI3 SLP167

CYYC;2008-03-07 07:00;CYYC 070700Z 29005KT 15SM BKN240 07/M12 A2991 RMK CI3 SLP165

CYYC;2008-03-07 08:00;CYYC 070800Z 29008KT 15SM FEW190 BKN240 07/M13 A2991 RMK AC1CI2 SLP164

CYYC;2008-03-07 09:00;CYYC 070900Z 28012KT 15SM FEW190 BKN240 08/M14 A2991 RMK AC1CI3 SLP150

CYYC;2008-03-07 10:00;CYYC 071000Z 34004KT 15SM FEW240 07/M14 A2990 RMK CI0 SLP148

CYYC;2008-03-07 11:00;CYYC 071100Z 29006KT 15SM FEW240 08/M14 A2989 RMK CI0 SLP144

CYYC;2008-03-07 12:00;CYYC 071200Z 33009KT 15SM FEW240 04/M13 A2989 RMK CI0 SLP151

CYYC;2008-03-07 13:00;CYYC 071300Z 30010KT 15SM FEW180 FEW240 07/M13 A2990 RMK AC1CI1 BOTH CLDS TR SLP154

CYYC;2008-03-07 14:00;CYYC 071400Z 25017KT 40SM FEW090 BKN170 OVC240 07/M12 A2989 RMK AC1AC2CI2 SLP150

CYYC;2008-03-07 15:00;CYYC 071500Z 29007KT 40SM FEW090 BKN150 BKN250 07/M11 A2991 RMK AC1AC2CI2 SLP164

CYYC;2008-03-07 16:00;CYYC 071600Z 30003KT 40SM FEW090 BKN150 BKN250 08/M10 A2990 RMK AC1AC1CI0 SLP160

CYYC;2008-03-07 17:00;CYYC 071700Z 25003KT 40SM FEW100 BKN170 10/M10 A2991 RMK AC1AC1 SLP162

CYYC;2008-03-07 18:00;CYYC 071800Z 03015KT 40SM FEW100 FEW170 08/M10 A2994 RMK AC1AC1 SLP167

CYYC;2008-03-07 19:00;CYYC 071900Z 01010KT 40SM FEW100 FEW170 08/M09 A2994 RMK AC1AC1 SLP167

CYYC;2008-03-07 20:00;CYYC 072000Z 02007KT 40SM FEW090 FEW170 FEW260 09/M09 A2992 RMK AC1AC1CI1 SLP162

CYYC;2008-03-07 21:00;CYYC 072100Z 01005KT 40SM FEW090 FEW170 FEW260 10/M09 A2990 RMK AC1AC1CI1 SLP147

CYYC;2008-03-07 22:00;CYYC 072200Z 04004KT 40SM FEW090 FEW250 10/M09 A2989 RMK AC1CI1 SLP144

CYYC;2008-03-07 23:00;CYYC 072300Z 10013KT 30SM FEW090 BKN260 09/M05 A2990 RMK AC1CI0 SLP147

CYYC;2008-03-08 00:00;CYYC 080000Z 10012KT 30SM FEW090 BKN260 07/M04 A2990 RMK AC1CI0 SLP153

CYYC;2008-03-08 01:00;CYYC 080100Z 09010KT 30SM FEW090 BKN260 06/M04 A2990 RMK AC1CI0 SLP155

CYYC;2008-03-08 02:00;CYYC 080200Z 08005KT 30SM FEW090 FEW260 02/M04 A2992 RMK AC1CI0 SLP159

CYYC;2008-03-08 03:00;CYYC 080300Z 11005KT 15SM SKC 01/M05 A2993 RMK SLP169

CYYC;2008-03-08 04:00;CYYC 080400Z 12004KT 15SM SKC 00/M05 A2993 RMK SLP170

CYYC;2008-03-08 05:00;CYYC 080500Z 18002KT 15SM SKC 00/M05 A2993 RMK SLP170

CYYC;2008-03-08 06:00;CYYC 080600Z 21002KT 15SM SKC M01/M05 A2993 RMK SLP172

CYYC;2008-03-08 07:00;CYYC 080700Z 00000KT 15SM SKC M04/M06 A2993 RMK SLP172

CYYC;2008-03-08 08:00;CYYC 080800Z 19002KT 15SM SKC M05/M07 A2993 RMK SLP171

CYYC;2008-03-08 09:00;CYYC 080900Z 00000KT 15SM SKC M05/M07 A2993 RMK SLP174

CYYC;2008-03-08 10:00;CYYC 081000Z 21006KT 15SM SKC M05/M07 A2990 RMK SLP166

CYYC;2008-03-08 11:00;CYYC 081100Z 19002KT 15SM SKC M05/M07 A2991 RMK SLP168

CYYC;2008-03-08 12:00;CYYC 081200Z 24003KT 15SM SKC M05/M07 A2991 RMK SLP171

CYYC;2008-03-08 13:00;CYYC 081300Z 21007KT 15SM FEW230 M03/M06 A2990 RMK CI1 SLP168

CYYC;2008-03-08 14:00;CYYC 081400Z 21003KT 40SM FEW230 M03/M07 A2990 RMK CI1 SLP169

CYYC;2008-03-08 15:00;CYYC 081500Z 35002KT 40SM FEW030 FEW230 M00/M06 A2991 RMK SC1CI1 SLP173

CYYC;2008-03-08 16:00;CYYC 081600Z 32002KT 40SM FEW030 FEW230 04/M04 A2993 RMK SC1CI1 SLP178

CYYC;2008-03-08 17:00;CYYC 081700Z 31008KT 40SM FEW050 FEW230 08/M06 A2994 RMK SC1CI1 SLP182

CYYC;2008-03-08 18:00;CYYC 081800Z 36010KT 40SM FEW060 FEW220 10/M07 A2996 RMK SC1CI1 SLP178

CYYC;2008-03-08 19:00;CYYC 081900Z 02010G15KT 40SM FEW030 FEW230 10/M07 A2996 RMK SC1CI1 CC ASOCTD SLP180

CYYC;2008-03-08 20:00;CYYC 082000Z 05005KT 40SM FEW050 FEW150 FEW240 10/M07 A2996 RMK SC1AC1CI0 SLP180

CYYC;2008-03-08 21:00;CYYC 082100Z 03007KT 40SM FEW050 FEW230 10/M06 A2996 RMK SC1CI1 SLP185

CYYC;2008-03-08 22:00;CYYC 082200Z 03006KT 40SM FEW050 FEW240 11/M07 A2996 RMK SC1CI1 SLP184

CYYC;2008-03-08 23:00;CYYC 082300Z 03004KT 40SM FEW100 11/M07 A2996 RMK AC1 SLP183

CYYC;2008-03-09 00:00;CYYC 090000Z 10005KT 40SM FEW100 07/M06 A2997 RMK AC1 SLP193

CYYC;2008-03-09 01:00;CYYC 090100Z 14005KT 40SM FEW100 06/M06 A2999 RMK AC2 SLP198

CYYC;2008-03-09 02:00;CYYC 090200Z 14004KT 15SM FEW060 FEW080 06/M06 A2999 RMK SC1AC1 SLP199

CYYC;2008-03-09 03:00;CYYC 090300Z 22002KT 15SM FEW060 BKN080 05/M05 A2999 RMK SC1AC3 SLP196

CYYC;2008-03-09 04:00;CYYC 090400Z 21009KT 15SM BKN084 03/M05 A3000 RMK AC5 SLP197

CYYC;2008-03-09 05:00;CYYC 090500Z 18002KT 15SM FEW082 04/M06 A3001 RMK AC2 SLP202

CYYC;2008-03-09 06:00;CYYC 090600Z 22004KT 15SM FEW082 FEW260 04/M06 A3002 RMK AC1CI0 SLP193

CYYC;2008-03-09 07:00;CYYC 090700Z 00000KT 15SM FEW082 FEW260 03/M06 A3003 RMK AC1CI0 SLP195

CYYC;2008-03-09 08:00;CYYC 090800Z 33002KT 15SM SKC 02/M06 A3004 RMK SLP200

CYYC;2008-03-09 09:00;CYYC 090900Z 32003KT 15SM FEW170 SCT260 02/M06 A3006 RMK AC2CI0 SLP208

CYYC;2008-03-09 10:00;CYYC 091000Z 33004KT 15SM SKC 04/M07 A3006 RMK SLP208

CYYC;2008-03-09 11:00;CYYC 091100Z 34007KT 15SM SKC 04/M07 A3007 RMK SLP211

CYYC;2008-03-09 12:00;CYYC 091200Z 35006KT 15SM FEW160 01/M06 A3008 RMK AC1 SLP225

CYYC;2008-03-09 13:00;CYYC 091300Z 34009KT 15SM FEW160 M01/M07 A3009 RMK AC1 SLP227

CYYC;2008-03-09 14:00;CYYC 091400Z 32008KT 40SM FEW160 FEW260 M03/M08 A3009 RMK AC1CI1 SLP228

CYYC;2008-03-09 15:00;CYYC 091500Z 32007KT 40SM FEW150 M02/M08 A3009 RMK AC1 SLP232

CYYC;2008-03-09 16:00;CYYC 091600Z 33004KT 40SM SKC 03/M07 A3007 RMK SLP227

CYYC;2008-03-09 17:00;CYYC 091700Z 22004KT 40SM FEW210 07/M09 A3006 RMK CI1 SLP223

CYYC;2008-03-09 18:00;CYYC 091800Z 17007KT 40SM FEW220 08/M08 A3005 RMK CI1 SLP203

CYYC;2008-03-09 19:00;CYYC 091900Z 16009KT 40SM FEW210 09/M08 A3003 RMK CI1 SLP197

CYYC;2008-03-09 20:00;CYYC 092000Z 16010G16KT 40SM FEW065 FEW230 10/M07 A3000 RMK CU1CI1 SLP190

CYYC;2008-03-09 21:00;CYYC 092100Z 17004KT 40SM FEW240 11/M11 A2998 RMK CI1 SLP178

CYYC;2008-03-09 22:00;CYYC 092200Z 21005KT 40SM FEW240 12/M11 A2995 RMK CI1 SLP170

CYYC;2008-03-09 23:00;CYYC 092300Z 19004KT 40SM FEW100 SCT250 12/M11 A2994 RMK AC1CI1 AC TR SLP166

CYYC;2008-03-10 00:00;CYYC 100000Z CCA 19005KT 40SM FEW120 SCT220 BKN240 10/M11 A2992 RMK AC1CI2CI0 AC TR/VIRGA SW-NW SLP164

CYYC;2008-03-10 01:00;CYYC 100100Z 27007KT 40SM SCT170 BKN200 BKN250 10/M10 A2992 RMK AC4CI2CI0 VIRGA SW-NW SLP163

CYYC;2008-03-10 01:12;CYYC 100112Z CCA 23004KT 40SM FEW040 FEW100 BKN120 BKN200 BKN240 10/ RMK SC1AC2AC3CI2CI0 VIRGA E+SW/VIS NE 10/SC TR

CYYC;2008-03-10 02:00;CYYC 100200Z 21005KT 15SM SCT120 BKN180 BKN240 09/M09 A2992 RMK AC2AC2CI0 SLP163

CYYC;2008-03-10 03:00;CYYC 100300Z 20004KT 15SM SCT120 BKN180 BKN240 08/M08 A2992 RMK AC2AC4CI0 SLP168

CYYC;2008-03-10 04:00;CYYC 100400Z 28016KT 15SM BKN180 BKN240 08/M07 A2992 RMK AC4CI2 SLP169

CYYC;2008-03-10 05:00;CYYC 100500Z 28022G29KT 15SM OVC240 08/M06 A2994 RMK CI6 SLP175

CYYC;2008-03-10 06:00;CYYC 100600Z 30013G20KT 15SM SCT210 OVC240 09/M06 A2997 RMK CI2CI5 SLP171

CYYC;2008-03-10 07:00;CYYC 100700Z 35006KT 15SM BKN210 OVC240 07/M06 A2999 RMK CI5CI2 SLP177

CYYC;2008-03-10 08:00;CYYC 100800Z 33008KT 15SM OVC160 07/M06 A3001 RMK AC7 SLP184

CYYC;2008-03-10 09:00;CYYC 100900Z 34006KT 15SM OVC150 07/M06 A3003 RMK AC7 SLP191

CYYC;2008-03-10 10:00;CYYC 101000Z 29004KT 15SM OVC180 07/M06 A3004 RMK AC7 SLP192

CYYC;2008-03-10 11:00;CYYC 101100Z 27009KT 15SM BKN180 BKN240 07/M06 A3004 RMK AC4CI2 SLP193

CYYC;2008-03-10 12:00;CYYC 101200Z 16006KT 15SM FEW200 OVC240 03/M06 A3005 RMK CI1CI7 SLP203

CYYC;2008-03-10 13:00;CYYC 101300Z 14006KT 15SM BKN250 01/M06 A3006 RMK CI6 SLP206

CYYC;2008-03-10 14:00;CYYC 101400Z 00000KT 40SM FEW110 BKN240 02/M05 A3006 RMK AC1CI3 SLP208

CYYC;2008-03-10 15:00;CYYC 101500Z 00000KT 30SM FEW040 SCT170 BKN220 01/M04 A3006 RMK SC1AC3CI2 SLP212

CYYC;2008-03-10 16:00;CYYC 101600Z 14004KT 30SM FEW040 FEW160 BKN240 05/M04 A3004 RMK SC1AC2CI3 SLP206

CYYC;2008-03-10 17:00;CYYC 101700Z 19007KT 30SM FEW045 FEW160 BKN240 06/M04 A3002 RMK SC1AC2CI2 SLP201

CYYC;2008-03-10 18:00;CYYC 101800Z 19010KT 40SM FEW045 FEW160 SCT250 09/M05 A3001 RMK SC1AC1CI2 SLP184

CYYC;2008-03-10 19:00;CYYC 101900Z 18008KT 40SM FEW045 FEW180 SCT250 11/M05 A3001 RMK SC1AC1CI1 SLP184

CYYC;2008-03-10 20:00;CYYC 102000Z 15004KT 40SM FEW045 SCT130 BKN250 11/M04 A2995 RMK SC1AC2CI1 SLP167

CYYC;2008-03-10 21:00;CYYC 102100Z 17004KT 40SM FEW050 SCT130 BKN250 11/M04 A2993 RMK SC1AC2CI2 SLP155

CYYC;2008-03-10 22:00;CYYC 102200Z 15005KT 40SM FEW050 SCT110 BKN240 12/M04 A2990 RMK SC1AC3CI2 SLP148

CYYC;2008-03-10 23:00;CYYC 102300Z 00000KT 40SM FEW050 SCT150 BKN240 14/M03 A2989 RMK SC1AC3CI2 SLP143

CYYC;2008-03-11 00:00;CYYC 110000Z 23011KT 40SM FEW050 SCT170 BKN240 14/M02 A2987 RMK SC1AC3CI2 VIRGA E SLP135

CYYC;2008-03-11 01:00;CYYC 110100Z 24006KT 40SM FEW050 SCT170 BKN240 13/M01 A2986 RMK SC1AC3CI2 SLP134

CYYC;2008-03-11 02:00;CYYC 110200Z 17002KT 40SM BKN140 10/M03 A2986 RMK AC6 SLP133

CYYC;2008-03-11 03:00;CYYC 110300Z 24006KT 15SM BKN130 11/M02 A2986 RMK AC6 SLP140

CYYC;2008-03-11 04:00;CYYC 110400Z 26013KT 15SM BKN130 BKN180 OVC240 11/M01 A2985 RMK AC4AC3CI0 SLP136

CYYC;2008-03-11 05:00;CYYC 110500Z 26013KT 15SM OVC110 11/M01 A2985 RMK AC7 SLP137

CYYC;2008-03-11 06:00;CYYC 110600Z 25004KT 15SM OVC120 11/M01 A2984 RMK AC8 VIRGA SLP121

CYYC;2008-03-11 07:00;CYYC 110700Z 24005KT 15SM OVC120 10/M01 A2985 RMK AC8 VIRGA SLP123

CYYC;2008-03-11 08:00;CYYC 110800Z 25006KT 15SM OVC140 10/M02 A2983 RMK AC8 SLP118

CYYC;2008-03-11 09:00;CYYC 110900Z 31006KT 15SM BKN140 OVC160 10/M02 A2983 RMK AC6AC2 SLP117

CYYC;2008-03-11 10:00;CYYC 111000Z 27013KT 15SM OVC140 10/M02 A2981 RMK AC8 SLP110

CYYC;2008-03-11 11:00;CYYC 111100Z 24004KT 15SM BKN140 OVC190 08/M02 A2979 RMK AC6AC2 SLP105

CYYC;2008-03-11 12:00;CYYC 111200Z 18006KT 15SM BKN140 OVC190 08/M02 A2977 RMK AC4AC3 SLP095

CYYC;2008-03-11 13:00;CYYC 111300Z 22013KT 15SM BKN160 OVC190 09/M02 A2973 RMK AC4AC3 SLP083

CYYC;2008-03-11 14:00;CYYC 111400Z 18008KT 40SM BKN170 BKN240 10/M03 A2973 RMK AC4CI2 SLP083

CYYC;2008-03-11 15:00;CYYC 111500Z CCB 22017KT 40SM FEW080 BKN170 BKN200 10/M04 A2968 RMK AC1AC2CI4 SLP064

CYYC;2008-03-11 16:00;CYYC 111600Z 22010G15KT 40SM FEW080 SCT160 BKN200 11/M04 A2968 RMK AC1AC2CI1 SLP064

CYYC;2008-03-11 17:00;CYYC 111700Z 23008KT 40SM FEW080 SCT160 BKN190 BKN220 11/M03 A2968 RMK AC1AC2AC4CI1 SLP066

CYYC;2008-03-11 18:00;CYYC 111800Z 18006KT 40SM FEW080 FEW160 BKN170 BKN220 11/M02 A2966 RMK AC1AC2AC3CI2 SLP057

CYYC;2008-03-11 19:00;CYYC 111900Z 31007KT 40SM FEW080 FEW170 12/M03 A2964 RMK AC1AC1 SLP051

CYYC;2008-03-11 20:00;CYYC 112000Z 27028G33KT 40SM SCT065 BKN120 BKN170 11/M04 A2962 RMK SC2AC4AC1 SH E-NW SLP045

CYYC;2008-03-11 21:00;CYYC 112100Z 28018G24KT 40SM BKN075 BKN120 11/M06 A2963 RMK AC6AC1 SH ALQDS SLP046

CYYC;2008-03-11 22:00;CYYC 112200Z 28018G30KT 40SM SCT040 BKN080 BKN120 10/M08 A2965 RMK SC3AC2AC2 SH NW-S SLP053

CYYC;2008-03-11 23:00;CYYC 112300Z 27022G31KT 40SM SCT040 SCT080 BKN140 10/M09 A2965 RMK SC2AC1AC5 SH N-SE SLP054

CYYC;2008-03-12 00:00;CYYC 120000Z 26022G28KT 40SM SCT040 SCT080 BKN160 09/M09 A2964 RMK SC2AC1AC3 VIRGA E SLP056

CYYC;2008-03-12 01:00;CYYC 120100Z 27023G31KT 40SM FEW080 FEW160 SCT240 08/M11 A2965 RMK AC1AC1CI0 SLP061

CYYC;2008-03-12 02:00;CYYC 120200Z 28016KT 20SM FEW060 FEW090 FEW240 06/M11 A2968 RMK SC1AC1CI0 SC TR SLP070

CYYC;2008-03-12 03:00;CYYC 120300Z 26015KT 15SM FEW150 FEW240 05/M11 A2970 RMK AC1CI1 CLDS TR SLP080

CYYC;2008-03-12 04:00;CYYC 120400Z 27016KT 15SM FEW150 FEW250 04/M10 A2971 RMK AC1CI1 CLDS TR SLP084

CYYC;2008-03-12 05:00;CYYC 120500Z 26015KT 15SM SKC 04/M09 A2972 RMK SLP087

CYYC;2008-03-12 06:00;CYYC 120600Z 29006KT 15SM FEW150 FEW250 03/M10 A2973 RMK AC1CI1 CLDS TR SLP091

CYYC;2008-03-12 07:00;CYYC 120700Z 26018KT 15SM FEW150 BKN250 03/M11 A2972 RMK AC1CI1 SLP089

CYYC;2008-03-12 08:00;CYYC 120800Z 27014G22KT 15SM BKN110 OVC240 04/M11 A2973 RMK AC5CI2 SLP091

CYYC;2008-03-12 09:00;CYYC 120900Z 27016G24KT 15SM BKN170 OVC240 04/M11 A2973 RMK AC4CI2 SLP092

CYYC;2008-03-12 10:00;CYYC 121000Z 27015G25KT 15SM BKN150 OVC240 04/M11 A2973 RMK AC4CI1 SLP090

CYYC;2008-03-12 11:00;CYYC 121100Z 27017G26KT 15SM BKN150 OVC240 04/M11 A2973 RMK AC4CI1 SLP090

CYYC;2008-03-12 12:00;CYYC 121200Z 27016G24KT 15SM BKN120 OVC210 04/M11 A2973 RMK AC5CI2 SLP092

CYYC;2008-03-12 13:00;CYYC 121300Z 28014G21KT 15SM FEW095 SCT170 BKN240 03/M11 A2973 RMK AC1AC2CI1 SLP092

CYYC;2008-03-12 14:00;CYYC 121400Z 26012G18KT 40SM FEW047 SCT082 BKN120 BKN230 03/M11 A2972 RMK SC1AC3AC2CI1 SLP091

CYYC;2008-03-12 15:00;CYYC 121500Z 27014KT 40SM FEW048 SCT085 BKN120 04/M12 A2973 RMK SC1AC3AC4 VIRGA NE-E SLP099

CYYC;2008-03-12 16:00;CYYC 121600Z 27021G27KT 40SM FEW048 SCT085 BKN140 BKN210 04/M12 A2973 RMK SC1AC3AC2CI1 VIRGA E SLP100

CYYC;2008-03-12 17:00;CYYC 121700Z 28018G26KT 40SM FEW050 SCT095 BKN140 BKN210 05/M12 A2973 RMK SC1AC3AC1CI2 VIRGA E SLP101

CYYC;2008-03-12 18:00;CYYC 121800Z 28014G20KT 40SM FEW050 SCT092 BKN120 BKN210 06/M13 A2973 RMK SC1AC2AC2CI1 VIRGA E SLP099

CYYC;2008-03-12 19:00;CYYC 121900Z 27017G26KT 40SM FEW050 FEW080 BKN120 BKN210 06/M13 A2972 RMK SC1CU1AC4CI1 SLP097

CYYC;2008-03-12 20:00;CYYC 122000Z 26017KT 40SM FEW050 FEW085 BKN120 BKN210 07/M13 A2972 RMK SC1CU1AC5CI1 SLP096

CYYC;2008-03-12 21:00;CYYC 122100Z 27018G26KT 40SM FEW052 FEW085 BKN120 BKN210 08/M13 A2970 RMK SC1AC2AC3CI1 SH E SLP086

CYYC;2008-03-12 22:00;CYYC 122200Z 26016G25KT 40SM FEW052 FEW090 SCT120 SCT210 08/M14 A2971 RMK SC1AC2AC1CI1 SH N-NE-E SLP088

CYYC;2008-03-12 23:00;CYYC 122300Z 26018G26KT 40SM FEW045 SCT094 SCT130 08/M14 A2972 RMK SC1AC2AC1 SH N-E-SE SLP091

CYYC;2008-03-13 00:00;CYYC 130000Z 28016G21KT 40SM FEW095 FEW130 07/M15 A2973 RMK AC1AC1 SLP095

CYYC;2008-03-13 01:00;CYYC 130100Z CCA 28014G19KT 40SM FEW042 FEW090 FEW130 06/M14 A2974 RMK SC1AC1AC1 VIRGA N + E SLP098

CYYC;2008-03-13 02:00;CYYC 130200Z 32010G16KT 20SM FEW050 BKN099 04/M14 A2976 RMK SC2AC3 VIRGA N-E SLP104

CYYC;2008-03-13 03:00;CYYC 130300Z 32008KT 15SM FEW050 OVC098 04/M13 A2979 RMK SC2AC5 VIRGA N-E-S SLP121

CYYC;2008-03-13 04:00;CYYC 130400Z 32006KT 15SM FEW050 OVC087 03/M15 A2980 RMK SC1AC3 SLP125

CYYC;2008-03-13 05:00;CYYC 130500Z 34007KT 15SM FEW070 SCT080 01/M14 A2981 RMK AC2AC1 SLP127

CYYC;2008-03-13 06:00;CYYC 130600Z 05008KT 15SM BKN082 M00/M08 A2982 RMK AC5 SLP136

CYYC;2008-03-13 07:00;CYYC 130700Z 34004KT 15SM SCT085 M02/M07 A2983 RMK AC2 SLP137

CYYC;2008-03-13 08:00;CYYC 130800Z 00000KT 15SM FEW090 M04/M08 A2982 RMK AC1 SLP136

CYYC;2008-03-13 09:00;CYYC 130900Z 04004KT 15SM SKC M05/M08 A2982 RMK SLP138

CYYC;2008-03-13 10:00;CYYC 131000Z 32003KT 15SM SKC M05/M08 A2982 RMK SLP138

CYYC;2008-03-13 11:00;CYYC 131100Z 00000KT 15SM SKC M07/M09 A2981 RMK SLP135

CYYC;2008-03-13 12:00;CYYC 131200Z 00000KT 15SM SKC M08/M11 A2981 RMK SLP141

CYYC;2008-03-13 13:00;CYYC 131300Z 00000KT 15SM FEW080 FEW140 M09/M11 A2981 RMK AC1AC1 SLP140

CYYC;2008-03-13 14:00;CYYC 131400Z 00000KT 40SM FEW012 BKN041 BKN085 M07/M09 A2980 RMK SF1SC6AC1 SLP139

CYYC;2008-03-13 15:00;CYYC 131500Z 00000KT 40SM FEW032 BKN046 M05/M08 A2981 RMK SC2SC4 SH NE SLP140

CYYC;2008-03-13 16:00;CYYC 131600Z 22005KT 40SM FEW036 BKN050 BKN080 M01/M06 A2980 RMK SC1SC4AC1 DIST SH N-SE SLP139

CYYC;2008-03-13 17:00;CYYC 131700Z 19005KT 40SM FEW038 BKN052 BKN260 M01/M07 A2980 RMK CU1SC4CI1 DIST SH E SLP138

CYYC;2008-03-13 18:00;CYYC 131800Z 18004KT 40SM BKN036 BKN052 BKN260 00/M07 A2979 RMK CU5SC2CI1 SLP133

CYYC;2008-03-13 19:00;CYYC 131900Z 14008KT 40SM BKN042 01/M08 A2978 RMK CU7 SLP131

CYYC;2008-03-13 20:00;CYYC 132000Z 14008KT 40SM BKN052 01/M08 A2977 RMK CU7 SLP127

CYYC;2008-03-13 21:00;CYYC 132100Z 18004KT 40SM BKN054 03/M09 A2975 RMK CU6 SC ASOCTD SLP120

CYYC;2008-03-13 22:00;CYYC 132200Z CCA 13007KT 30SM SCT055 03/M09 A2974 RMK CU3 SC ASOCTD SLP117

CYYC;2008-03-13 23:00;CYYC 132300Z 10008KT 30SM FEW055 03/M10 A2973 RMK CU2 SC ASOCTD SLP116

CYYC;2008-03-14 00:00;CYYC 140000Z 12011KT 30SM FEW055 02/M09 A2973 RMK CU1 SLP119

CYYC;2008-03-14 01:00;CYYC 140100Z 11008KT 30SM FEW051 FEW085 FEW260 02/M09 A2973 RMK CU1AC1CI0 SLP120

CYYC;2008-03-14 02:00;CYYC 140200Z 11009KT 15SM FEW055 FEW090 FEW250 M00/M09 A2973 RMK SC1AC1CI0 SLP121

CYYC;2008-03-14 03:00;CYYC 140300Z 11008KT 15SM BKN053 OVC150 M01/M09 A2974 RMK SC6AC2 SLP124

CYYC;2008-03-14 04:00;CYYC 140400Z 12010KT 15SM BKN057 OVC100 M01/M09 A2974 RMK SC6AC1 SLP125

CYYC;2008-03-14 05:00;CYYC 140500Z 13007KT 15SM BKN060 BKN100 M03/M09 A2974 RMK SC5AC1 SLP124

CYYC;2008-03-14 06:00;CYYC 140600Z 12006KT 15SM SCT050 BKN140 M02/M08 A2974 RMK SC2AC2 SLP117

CYYC;2008-03-14 07:00;CYYC 140700Z 14006KT 15SM SCT060 BKN150 M04/M08 A2973 RMK SC3AC1 SLP115

CYYC;2008-03-14 08:00;CYYC 140800Z 15005KT 15SM BKN140 OVC220 M05/M08 A2972 RMK AC6CI1 SLP112

CYYC;2008-03-14 09:00;CYYC 140900Z 14006KT 15SM BKN170 BKN220 M05/M07 A2971 RMK AC2CI1 SLP106

CYYC;2008-03-14 10:00;CYYC 141000Z 11006KT 15SM BKN120 OVC230 M05/M08 A2970 RMK AC2CI2 SLP105

CYYC;2008-03-14 11:00;CYYC 141100Z 11007KT 30SM BKN110 OVC230 M06/M08 A2969 RMK AC2CI2 SLP102

CYYC;2008-03-14 12:00;CYYC 141200Z 12007KT 15SM SCT020 BKN087 M06/M08 A2969 RMK SC3AC3 SLP103

CYYC;2008-03-14 13:00;CYYC 141300Z 13006KT 15SM SCT021 BKN087 BKN220 M06/M08 A2969 RMK SC3AC2CI1 SLP103

CYYC;2008-03-14 14:00;CYYC 141400Z 12005KT 20SM FEW021 SCT087 BKN240 M06/M08 A2969 RMK SC1AC0CI1 SLP103

CYYC;2008-03-14 15:00;CYYC 141500Z 14004KT 20SM FEW021 FEW087 BKN180 BKN240 M05/M07 A2969 RMK SC0AC1AC1CI1 LWR AC TR SLP107

CYYC;2008-03-14 16:00;CYYC 141600Z 15008KT 30SM SCT023 SCT087 BKN170 BKN240 M03/M05 A2969 RMK SC2AC1AC1CI1 LWR AC TR SLP108

CYYC;2008-03-14 17:00;CYYC 141700Z CCA 16008KT 30SM FEW016 FEW024 BKN150 M01/M05 A2970 RMK SC1SC1AC5 SLP109

CYYC;2008-03-14 18:00;CYYC 141800Z 14008KT 30SM SCT016 SCT024 BKN150 BKN240 M00/M05 A2969 RMK SC2SC1AC5CI1 SLP101

CYYC;2008-03-14 19:00;CYYC 141900Z 15007KT 30SM FEW017 SCT120 BKN240 01/M04 A2968 RMK SC1AC1CS2 SLP099

CYYC;2008-03-14 20:00;CYYC 142000Z 14009KT 20SM BKN022 OVC240 02/M04 A2967 RMK SC4CS0 SLP096

CYYC;2008-03-14 21:00;CYYC 142100Z 12013KT 20SM BKN021 OVC240 02/M03 A2967 RMK SC3CS1 SLP093

CYYC;2008-03-14 22:00;CYYC 142200Z CCA 12013KT 20SM BKN015 OVC240 02/M02 A2967 RMK SC2CS2 SLP094

CYYC;2008-03-14 23:00;CYYC 142300Z 11013KT 20SM SCT015 OVC110 01/M02 A2967 RMK SC1AC6 SLP095

CYYC;2008-03-15 00:00;CYYC 150000Z 12014KT 20SM FEW015 BKN100 OVC220 01/M02 A2968 RMK SC2AC6CI1 SLP101

CYYC;2008-03-15 01:00;CYYC 150100Z 12011KT 20SM FEW015 BKN080 OVC220 00/M02 A2969 RMK SC2AC2CI1 SLP104

CYYC;2008-03-15 02:00;CYYC 150200Z 12011KT 12SM FEW020 BKN072 BKN087 OVC220 M01/M02 A2970 RMK SC2AC3AS2CI1 SLP107

CYYC;2008-03-15 02:45;CYYC 150245Z 13013KT 12SM BKN012 BKN018 OVC040 M01/ RMK SC5SC2SC1

CYYC;2008-03-15 03:00;CYYC 150300Z 13011KT 12SM OVC011 M01/M02 A2971 RMK SC8 SLP113

CYYC;2008-03-15 04:00;CYYC 150400Z 14010KT 12SM BKN014 OVC018 M01/M03 A2971 RMK SC5SC3 SLP114

CYYC;2008-03-15 05:00;CYYC 150500Z 15009KT 15SM BKN021 OVC030 M01/M04 A2972 RMK SC7SC1 SLP115

CYYC;2008-03-15 06:00;CYYC 150600Z 14010KT 15SM OVC019 M01/M05 A2972 RMK SC8 SLP110

CYYC;2008-03-15 07:00;CYYC 150700Z 14009KT 15SM FEW018 OVC030 M01/M05 A2972 RMK SC2SC6 SLP109

CYYC;2008-03-15 07:41;CYYC 150741Z 14006KT 7SM -SN BKN016 OVC032 M02/ RMK SC6SC2

CYYC;2008-03-15 08:00;CYYC 150800Z 13006KT 5SM -SN BKN018 OVC035 M02/M04 A2972 RMK SC7SC1 SLP110

CYYC;2008-03-15 09:00;CYYC 150900Z 16005KT 3SM -SN FEW018 OVC030 M03/M04 A2973 RMK SC2SC6 VIS E 2 SLP112

CYYC;2008-03-15 10:00;CYYC 151000Z 12005KT 12SM -SN FEW028 OVC041 M03/M03 A2972 RMK SC1SC6 SN VRY LGT SLP109

CYYC;2008-03-15 10:04;CYYC 151004Z 11005KT 12SM FEW028 OVC044 M03/ RMK SC1SC6

CYYC;2008-03-15 11:00;CYYC 151100Z 05002KT 12SM BKN012 OVC027 M03/M04 A2973 RMK SC6SC2 SLP111

CYYC;2008-03-15 12:00;CYYC 151200Z CCA 11003KT 12SM BKN019 OVC023 M03/M04 A2973 RMK SC6SC2 SNOW COVER/ONE LOOSE/S01/ SLP113

CYYC;2008-03-15 13:00;CYYC 151300Z 06002KT 10SM BKN017 OVC024 M03/M04 A2974 RMK SC6SC2 SLP116

CYYC;2008-03-15 13:47;CYYC 151347Z 07003KT 6SM -SN BKN010 OVC035 M03/ RMK SC4SC4

CYYC;2008-03-15 14:00;CYYC 151400Z 08002KT 7SM -SN BKN011 OVC035 M03/M04 A2974 RMK SC5SC3 SLP118

CYYC;2008-03-15 15:00;CYYC 151500Z 00000KT 3SM -SN BKN012 OVC037 M03/M04 A2976 RMK SC5SC3 SLP127

CYYC;2008-03-15 16:00;CYYC 151600Z 34005KT 3SM -SN BKN009 OVC030 M02/M03 A2977 RMK SC5SC3 SLP129

CYYC;2008-03-15 16:07;CYYC 151607Z 34007KT 1 1/2SM -SN BKN008 OVC030 M02/ RMK SC5SC3

CYYC;2008-03-15 17:00;CYYC 151700Z 36006KT 1 1/2SM -SN BKN007 OVC027 M02/M03 A2977 RMK SC5SC3 SLP131

CYYC;2008-03-15 18:00;CYYC 151800Z 36006KT 1 1/2SM -SN BKN007 OVC027 M01/M02 A2977 RMK SC5SC3 SLP130

CYYC;2008-03-15 19:00;CYYC 151900Z 36004KT 3SM -SN BKN009 OVC027 M01/M02 A2977 RMK SC6SC2 SLP128

CYYC;2008-03-15 20:00;CYYC 152000Z 33003KT 5SM -SN BKN012 OVC030 M00/M02 A2976 RMK SC6SC2 SLP126

CYYC;2008-03-15 20:10;CYYC 152010Z 33002KT 8SM BKN012 OVC030 M00/ RMK SC6SC2

CYYC;2008-03-15 21:00;CYYC 152100Z 36002KT 10SM OVC025 00/M03 A2975 RMK SC7 SLP121

CYYC;2008-03-15 22:00;CYYC 152200Z 00000KT 15SM OVC027 01/M03 A2975 RMK SC8 SLP121

CYYC;2008-03-15 23:00;CYYC 152300Z 22002KT 15SM BKN025 01/M04 A2975 RMK SC7 SLP121

CYYC;2008-03-16 00:00;CYYC 160000Z 00000KT 15SM BKN038 01/M03 A2975 RMK SC7 SLP121

CYYC;2008-03-16 00:50;CYYC 160050Z 08004KT 15SM -SG SCT025 BKN039 01/ RMK SC3SC4

CYYC;2008-03-16 01:00;CYYC 160100Z 08005KT 8SM -SG SCT025 BKN039 01/M04 A2975 RMK SC3SC4 SLP121

CYYC;2008-03-16 02:00;CYYC 160200Z 04007KT 12SM -SN BKN034 OVC040 00/M03 A2976 RMK SC7SC1 SLP124

CYYC;2008-03-16 02:28;CYYC 160228Z 01010KT 12SM OVC033 M01/ RMK SC8

CYYC;2008-03-16 02:50;CYYC 160250Z 01011KT 4SM -SN OVC016 M01/ RMK SC8

CYYC;2008-03-16 03:00;CYYC 160300Z 01010G15KT 2SM -SN BKN008 OVC017 M02/M02 A2978 RMK SN3SC4SC1 SLP134

CYYC;2008-03-16 03:07;CYYC 160307Z 01009KT 1 1/4SM -SN BKN007 OVC019 M02/ RMK SN3SC4SC1

CYYC;2008-03-16 03:30;CYYC 160330Z 03011KT 1/2SM SN VV004 M02/ RMK SN8 RVR RWY34 4500 FT

CYYC;2008-03-16 03:55;CYYC 160355Z 04012KT 1/2SM SN VV003 M03/ RMK SN8 RVR RWY16 4000 FT

CYYC;2008-03-16 04:00;CYYC 160400Z 04011KT 3/8SM SN VV003 M03/M03 A2979 RMK SN8 RVR RWY16 4000 FT SLP139

CYYC;2008-03-16 04:23;CYYC 160423Z 04011KT 1 1/4SM -SN BKN006 OVC022 M03/ RESN RMK SN5SC2SC1

CYYC;2008-03-16 05:00;CYYC 160500Z 04009KT 1 3/4SM -SN BKN017 OVC030 M03/M03 A2980 RESN RMK SC6SC2 /S01/ SLP141

CYYC;2008-03-16 05:27;CYYC 160527Z 04009KT 1 1/4SM -SN OVC006 M04/ RMK SC8

CYYC;2008-03-16 06:00;CYYC 160600Z 01008KT 1 1/4SM -SN OVC007 M04/M04 A2981 RMK SC8 /S02/ SLP148

CYYC;2008-03-16 06:18;CYYC 160618Z 01009KT 2SM -SN OVC006 M04/ RMK SC8

CYYC;2008-03-16 07:00;CYYC 160700Z 02007KT 2 1/4SM -SN OVC008 M05/M05 A2981 RMK SC8 SLP148

CYYC;2008-03-16 07:54;CYYC 160754Z 36013KT 3/8SM SN VV003 M05/ RMK SN8 RVR RWY16 5500 FT

CYYC;2008-03-16 08:00;CYYC 160800Z 35011KT 1SM -SN BKN008 OVC018 M05/M05 A2982 RESN RMK SN4SC3SC1 RVR RWY16 6000 FT SLP151

CYYC;2008-03-16 09:00;CYYC 160900Z 01014KT 4SM -SN DRSN BKN009 OVC019 M05/M06 A2984 RMK SC5SC3 /S01/ SLP158

CYYC;2008-03-16 10:00;CYYC 161000Z 01017G22KT 3SM -SN DRSN FEW009 OVC012 M09/M10 A2986 RMK SC1SC7 SLP163

CYYC;2008-03-16 11:00;CYYC 161100Z 36017KT 12SM -SN DRSN FEW009 BKN014 OVC023 M11/M13 A2988 RMK SC1SC6SC2 SN VRY LGT SLP171

CYYC;2008-03-16 11:09;CYYC 161109Z 35015G22KT 10SM -SN DRSN BKN016 OVC023 M12/ RMK SC6SC2 SN VEY LGT

CYYC;2008-03-16 12:00;CYYC 161200Z 36016G21KT 10SM DRSN OVC022 M12/M14 A2990 RMK SC8 SNOW COVER/MUCH LOOSE SLP188

CYYC;2008-03-16 13:00;CYYC 161300Z CCA 35018KT 12SM DRSN FEW017 OVC022 M12/M14 A2992 RMK SC2SC6 SLP194

CYYC;2008-03-16 14:00;CYYC 161400Z 36015KT 10SM OVC020 M13/M14 A2996 RMK SC8 SLP205

CYYC;2008-03-16 14:20;CYYC 161420Z 35013KT 6SM -SN OVC020 M12/ RMK SC8

CYYC;2008-03-16 15:00;CYYC 161500Z 35015KT 4SM -SN OVC020 M13/M14 A2999 RMK SC8 SLP221

CYYC;2008-03-16 16:00;CYYC 161600Z 36008KT 2SM -SN OVC025 M12/M14 A2999 RMK SC8 SLP223

CYYC;2008-03-16 16:28;CYYC 161628Z 35007KT 4SM -SN OVC033 M12/ RMK SC8

CYYC;2008-03-16 17:00;CYYC 161700Z 35005KT 4SM -SN OVC037 M12/M13 A3000 RMK SC7 SLP224

CYYC;2008-03-16 17:31;CYYC 161731Z 36005KT 4SM -SN BKN037 M11/ RMK SC3

CYYC;2008-03-16 18:00;CYYC 161800Z CCA 02002KT 15SM FEW038 FEW080 M11/M13 A2999 RMK SC1AC1 SLP224

CYYC;2008-03-16 19:00;CYYC 161900Z 00000KT 20SM FEW030 FEW080 M09/M12 A2997 RMK SC1AC1 SLP219

CYYC;2008-03-16 20:00;CYYC 162000Z 17007KT 20SM FEW030 M07/M10 A2995 RMK SC0 SLP213

CYYC;2008-03-16 21:00;CYYC 162100Z 17008KT 20SM FEW030 M06/M09 A2993 RMK SC1 SLP196

CYYC;2008-03-16 22:00;CYYC 162200Z 16006KT 20SM FEW030 FEW120 M04/M08 A2990 RMK SC1AC0 SLP189

CYYC;2008-03-16 23:00;CYYC 162300Z 17011KT 20SM FEW030 FEW240 M03/M08 A2988 RMK SC1CI0 SLP181

CYYC;2008-03-17 00:00;CYYC 170000Z 16010KT 20SM FEW040 FEW240 M03/M08 A2985 RMK SC1CI0 SLP177

CYYC;2008-03-17 01:00;CYYC 170100Z 16011KT 15SM FEW040 BKN240 M04/M08 A2983 RMK SC1CI2 SLP169

CYYC;2008-03-17 02:00;CYYC 170200Z CCA 17012G17KT 10SM FEW040 BKN240 M05/M08 A2979 RMK SC1CI2 SC TR SLP158

CYYC;2008-03-17 03:00;CYYC 170300Z 17012KT 10SM FEW040 BKN240 M06/M08 A2976 RMK SC1CI2 SC TR SLP147

CYYC;2008-03-17 04:00;CYYC 170400Z 17009KT 15SM FEW180 BKN240 M06/M08 A2976 RMK AC1CI2 SLP147

CYYC;2008-03-17 05:00;CYYC 170500Z 18005KT 15SM BKN060 BKN180 M06/M07 A2969 RMK SC4AC2 PRESFR SLP126

CYYC;2008-03-17 06:00;CYYC 170600Z 20007KT 10SM BKN100 M05/M07 A2965 RMK AC6 SLP107

CYYC;2008-03-17 07:00;CYYC 170700Z 22006KT 15SM FEW060 BKN100 BKN210 M03/M07 A2963 RMK SC1AC4CI1 SC TR SLP101

CYYC;2008-03-17 08:00;CYYC 170800Z 28016KT 15SM BKN160 BKN210 02/M09 A2962 RMK AC5CI0 SLP098

CYYC;2008-03-17 09:00;CYYC 170900Z 27011G16KT 15SM BKN180 BKN210 01/M10 A2962 RMK AC5CI0 SLP080

CYYC;2008-03-17 10:00;CYYC 171000Z 26011KT 15SM BKN140 01/M10 A2963 RMK AC4 SLP081

CYYC;2008-03-17 11:00;CYYC 171100Z 26014KT 15SM BKN140 01/M10 A2963 RMK AC5 SLP081

CYYC;2008-03-17 12:00;CYYC 171200Z 27012G17KT 15SM FEW140 01/M11 A2964 RMK AC1 SLP083

CYYC;2008-03-17 13:00;CYYC 171300Z 29008KT 15SM FEW140 00/M11 A2965 RMK AC1 SLP087

CYYC;2008-03-17 14:00;CYYC 171400Z 28009KT 40SM FEW060 FEW150 00/M11 A2966 RMK SC1AC1 CLDS TR SLP089

CYYC;2008-03-17 15:00;CYYC 171500Z 27016G21KT 40SM FEW060 BKN190 BKN220 02/M10 A2967 RMK SC1AC3CI1 SLP095

CYYC;2008-03-17 16:00;CYYC 171600Z 27016G21KT 40SM FEW060 BKN190 BKN240 03/M10 A2968 RMK SC1AC2CI1 SLP099

CYYC;2008-03-17 17:00;CYYC 171700Z 26019G29KT 40SM FEW050 FEW190 FEW250 04/M10 A2969 RMK CU1AC1CI0 CU+AC TR SLP103

CYYC;2008-03-17 18:00;CYYC 171800Z 26019G27KT 40SM FEW050 FEW170 FEW230 06/M11 A2969 RMK CU1AC1CI1 ALL CLDS TR SLP098

CYYC;2008-03-17 19:00;CYYC 171900Z 28017G25KT 40SM FEW050 FEW140 FEW230 06/M12 A2969 RMK CU1AC1CI0 AC TR SLP097

CYYC;2008-03-17 20:00;CYYC 172000Z 27018G24KT 40SM FEW050 SCT120 BKN230 07/M13 A2969 RMK CU1AC2CI0 SLP096

CYYC;2008-03-17 21:00;CYYC 172100Z 31010G18KT 40SM FEW055 FEW090 SCT240 08/M13 A2967 RMK CU2AC1CI0 SLP079

CYYC;2008-03-17 22:00;CYYC 172200Z 29011KT 40SM FEW055 BKN092 BKN220 07/M13 A2968 RMK CU2AC2CI1 SLP080

CYYC;2008-03-17 23:00;CYYC 172300Z 26021G26KT 40SM FEW055 BKN110 BKN240 07/M13 A2968 RMK CU2AC1CI1 SLP082

CYYC;2008-03-18 00:00;CYYC 180000Z 27017G24KT 40SM FEW060 SCT110 BKN180 07/M12 A2970 RMK CU1AC2AC1 SLP088

CYYC;2008-03-18 01:00;CYYC 180100Z 26017KT 40SM FEW060 FEW065 SCT150 SCT240 06/M12 A2971 RMK CU1SC2AC1CI0 VIRGA E SLP093

CYYC;2008-03-18 02:00;CYYC 180200Z 26013G19KT 40SM FEW060 SCT240 04/M11 A2973 RMK SC1CI1 VIRGA NE-SE SLP099

CYYC;2008-03-18 03:00;CYYC 180300Z 27014KT 15SM FEW060 FEW240 02/M10 A2976 RMK SC1CI1 SC TR SLP114

CYYC;2008-03-18 04:00;CYYC 180400Z CCA 03008KT 15SM FEW080 SCT240 M01/M10 A2978 RMK AC1CI1 AC TR SLP121

CYYC;2008-03-18 05:00;CYYC 180500Z 00000KT 15SM FEW180 M01/M10 A2980 RMK AC1 SLP126

CYYC;2008-03-18 06:00;CYYC 180600Z 06004KT 15SM FEW180 M04/M11 A2980 RMK AC1 SLP134

CYYC;2008-03-18 07:00;CYYC 180700Z 00000KT 15SM FEW180 M04/M10 A2981 RMK AC1 SLP137

CYYC;2008-03-18 08:00;CYYC 180800Z 08003KT 15SM FEW180 M06/M11 A2982 RMK AC1 SLP139

CYYC;2008-03-18 09:00;CYYC 180900Z 03004KT 15SM FEW180 M05/M11 A2983 RMK AC1 SLP142

CYYC;2008-03-18 10:00;CYYC 181000Z 30005KT 15SM BKN100 M03/M10 A2983 RMK AC5 VIRGA SLP142

CYYC;2008-03-18 11:00;CYYC 181100Z 21006KT 15SM BKN150 M04/M10 A2983 RMK AC5 VIRGA SLP142

CYYC;2008-03-18 12:00;CYYC 181200Z CCA 00000KT 15SM FEW150 BKN250 M05/M09 A2983 RMK AC2CI0 SNOW CVR/TRACE LOOSE SLP143

CYYC;2008-03-18 13:00;CYYC 181300Z 22004KT 15SM BKN150 M04/M10 A2984 RMK AC1 SLP144

CYYC;2008-03-18 14:00;CYYC 181400Z 04002KT 40SM FEW150 FEW260 M06/M10 A2984 RMK AC1CI0 SLP144

CYYC;2008-03-18 15:00;CYYC 181500Z 33004KT 40SM FEW042 FEW064 FEW260 M04/M10 A2983 RMK CU1CU1CI1 SLP148

CYYC;2008-03-18 16:00;CYYC 181600Z 32003KT 40SM FEW045 FEW064 FEW260 01/M07 A2983 RMK CU1CU1CI1 SLP147

CYYC;2008-03-18 17:00;CYYC 181700Z 18003KT 40SM FEW058 04/M10 A2982 RMK CU1 SLP144

CYYC;2008-03-18 18:00;CYYC 181800Z 21004KT 40SM FEW068 FEW220 06/M11 A2979 RMK CU1CC1 SLP130

CYYC;2008-03-18 19:00;CYYC 181900Z 13006KT 40SM FEW068 06/M10 A2978 RMK CU1 SLP125

CYYC;2008-03-18 20:00;CYYC 182000Z 23004KT 40SM FEW068 06/M12 A2976 RMK CU2 VIRGA W SLP119

CYYC;2008-03-18 21:00;CYYC 182100Z 30002KT 40SM SCT079 06/M11 A2973 RMK CU4 VIRGA ALQDS SLP109

CYYC;2008-03-18 22:00;CYYC 182200Z 21004KT 40SM BKN077 07/M11 A2972 RMK CU6 VIRGA ALQDS SLP106

CYYC;2008-03-18 23:00;CYYC 182300Z 30005KT 40SM BKN082 07/M12 A2971 RMK CU6 VIRGA ALQDS / TCU ASOCTD SLP104

CYYC;2008-03-19 00:00;CYYC 190000Z 25003KT 40SM SCT081 07/M12 A2971 RMK CU3 SH N-E-SE / TCU ASOCTD SLP100

CYYC;2008-03-19 01:00;CYYC 190100Z 29009KT 30SM FEW080TCU FEW140 05/M12 A2971 RMK TCU2CU1 SH NW-NE-E-SE-S SLP101

CYYC;2008-03-19 02:00;CYYC 190200Z 31010G15KT 40SM FEW070 BKN160 BKN240 03/M11 A2973 RMK AC1AC3CI2 SLP106

CYYC;2008-03-19 03:00;CYYC 190300Z 32008KT 15SM FEW070 BKN082 OVC130 03/M09 A2975 RMK AC1AC5AC1 SLP119

CYYC;2008-03-19 04:00;CYYC 190400Z 31010KT 15SM FEW070 BKN082 OVC160 01/M09 A2977 RMK AC2AC4AC1 SLP126

CYYC;2008-03-19 05:00;CYYC 190500Z 32009KT 15SM FEW080 FEW230 00/M09 A2980 RMK AC1CI0 AC TR SLP133

CYYC;2008-03-19 06:00;CYYC 190600Z 32008KT 15SM FEW090 M01/M08 A2982 RMK AC1 AC TR SLP134

CYYC;2008-03-19 07:00;CYYC 190700Z 31008KT 15SM FEW090 M01/M08 A2983 RMK AC1 SLP137

CYYC;2008-03-19 08:00;CYYC 190800Z 27002KT 15SM FEW083 M02/M08 A2984 RMK AC1 SLP142

CYYC;2008-03-19 09:00;CYYC 190900Z 30005KT 15SM FEW083 M02/M10 A2985 RMK AC1 AC TR SLP148

CYYC;2008-03-19 10:00;CYYC 191000Z 00000KT 15SM SKC M01/M11 A2986 RMK SLP150

CYYC;2008-03-19 11:00;CYYC 191100Z 32003KT 15SM SKC M01/M12 A2987 RMK SLP155

CYYC;2008-03-19 12:00;CYYC 191200Z 31006KT 15SM SKC M01/M12 A2989 RMK SNOW COVER/TRACE LOOSE SLP158

CYYC;2008-03-19 13:00;CYYC 191300Z 30008KT 15SM FEW170 FEW250 M01/M12 A2990 RMK AC1CI1 BOTH CLDS TR SLP161

CYYC;2008-03-19 14:00;CYYC 191400Z 29009KT 40SM FEW140 FEW250 M01/M12 A2991 RMK AC1CI0 SLP165

CYYC;2008-03-19 15:00;CYYC 191500Z 28011KT 40SM FEW250 00/M13 A2991 RMK CI0 SLP171

CYYC;2008-03-19 16:00;CYYC 191600Z 30008KT 40SM FEW250 02/M12 A2993 RMK CI1 SLP176

CYYC;2008-03-19 17:00;CYYC 191700Z 31010KT 40SM FEW220 04/M14 A2993 RMK CI1 SLP175

CYYC;2008-03-19 18:00;CYYC 191800Z 36004KT 40SM FEW073 FEW210 04/M14 A2992 RMK AC1CI1 SLP173

CYYC;2008-03-19 19:00;CYYC 191900Z 36005KT 40SM FEW080 FEW210 06/M14 A2991 RMK AC1CI1 SLP169

CYYC;2008-03-19 20:00;CYYC 192000Z 18004KT 40SM FEW080 FEW210 05/M16 A2989 RMK AC1CI0 SLP163

CYYC;2008-03-19 21:00;CYYC 192100Z 10007KT 40SM FEW095 SCT210 07/M15 A2986 RMK AC2CI0 SLP150

CYYC;2008-03-19 22:00;CYYC 192200Z 20008KT 40SM BKN090 06/M16 A2985 RMK AC3 VIRGA SLP148

CYYC;2008-03-19 23:00;CYYC 192300Z 19008KT 40SM SCT090 BKN120 07/M14 A2985 RMK AC2AC0 VIRGA SLP145

CYYC;2008-03-20 00:00;CYYC 200000Z 00000KT 40SM FEW090 BKN110 05/M15 A2983 RMK AC2AC1 VIRGA SLP142

CYYC;2008-03-20 01:00;CYYC 200100Z 16007KT 40SM FEW090 SCT110 04/M14 A2982 RMK AC2AC0 SLP139

CYYC;2008-03-20 02:00;CYYC 200200Z 23002KT 20SM FEW090 BKN120 OVC250 03/M14 A2981 RMK AC2AC4CI2 SLP136

CYYC;2008-03-20 03:00;CYYC 200300Z 09008KT 15SM FEW090 BKN110 02/M13 A2981 RMK AC2AC5 SLP138

CYYC;2008-03-20 04:00;CYYC 200400Z 07004KT 15SM BKN093 OVC110 01/M13 A2981 RMK AC6AC1 SLP138

CYYC;2008-03-20 05:00;CYYC 200500Z 33005KT 15SM FEW079 OVC094 01/M12 A2982 RMK AC1AC7 VIRGA S SLP139

CYYC;2008-03-20 06:00;CYYC 200600Z 07002KT 15SM BKN076 OVC088 01/M11 A2982 RMK AC6AC2 SLP137

CYYC;2008-03-20 07:00;CYYC 200700Z 04007KT 15SM BKN062 BKN078 BKN210 01/M10 A2981 RMK SC5AC2CI0 SLP134

CYYC;2008-03-20 08:00;CYYC 200800Z 34007KT 15SM FEW065 SCT085 BKN240 M01/M11 A2981 RMK SC1AC1CI1 SLP132

CYYC;2008-03-20 09:00;CYYC 200900Z 32002KT 15SM BKN100 M03/M12 A2981 RMK AC3 SLP136

CYYC;2008-03-20 10:00;CYYC 201000Z 29005KT 15SM FEW077 BKN110 M05/M12 A2981 RMK AC1AC3 SLP136

CYYC;2008-03-20 11:00;CYYC 201100Z 32006KT 15SM FEW069 OVC085 M04/M11 A2982 RMK AC1AC6 SLP138

CYYC;2008-03-20 12:00;CYYC 201200Z 35006KT 15SM OVC110 M05/M11 A2984 RMK AC8 SLP148

CYYC;2008-03-20 13:00;CYYC 201300Z 01005KT 15SM BKN100 OVC210 M04/M10 A2985 RMK AC5CI1 SLP151

CYYC;2008-03-20 14:00;CYYC 201400Z 35006KT 40SM FEW060 FEW070 SCT120 OVC210 M05/M11 A2986 RMK SC1AC2AC2CI0 VIRGA E SLP155

CYYC;2008-03-20 15:00;CYYC 201500Z 33003KT 40SM FEW060 SCT110 BKN240 M05/M11 A2987 RMK SC1AC2CI1 VIRGA E/SC TR SLP164

CYYC;2008-03-20 16:00;CYYC 201600Z 32005KT 40SM FEW060 FEW240 M03/M11 A2988 RMK SC1CI1 VIRGA E SLP169

CYYC;2008-03-20 17:00;CYYC 201700Z 35008KT 40SM FEW250 02/M12 A2990 RMK CI1 CS ASOCTD SLP173

CYYC;2008-03-20 18:00;CYYC 201800Z 36005KT 40SM FEW060 FEW250 03/M12 A2990 RMK CU1CI1 SLP164

CYYC;2008-03-20 19:00;CYYC 201900Z 02006KT 40SM FEW068 FEW250 05/M12 A2990 RMK CU1CI1 SLP164

CYYC;2008-03-20 20:00;CYYC 202000Z 01006KT 40SM FEW072 FEW250 05/M13 A2989 RMK CU1CI1 SLP163

CYYC;2008-03-20 21:00;CYYC 202100Z 20003KT 40SM FEW078 FEW120 FEW240 06/M14 A2988 RMK CU1AC1CI1 VIRGA SW+NW SLP161

CYYC;2008-03-20 22:00;CYYC 202200Z 17003KT 40SM FEW080 SCT160 BKN210 07/M14 A2988 RMK CU1AC3CI1 VIRGA S-W+NW-N SLP160

CYYC;2008-03-20 23:00;CYYC 202300Z 14008KT 40SM FEW060 BKN080 BKN240 05/M13 A2989 RMK CU1AC6CI1 DIST SH S/VIRGA SW-NE SLP162

CYYC;2008-03-21 00:00;CYYC 210000Z 18004KT 40SM BKN062 BKN076 05/M13 A2990 RMK SC5AC2 VIRGA SE-SW/NW-NE SLP171

CYYC;2008-03-21 01:00;CYYC 210100Z 10006KT 40SM FEW060 FEW075 BKN160 BKN250 04/M13 A2990 RMK CU1AC1AC6CI1 VIRGA SE/W-N SLP172

CYYC;2008-03-21 02:00;CYYC 210200Z 13009KT 20SM FEW080 BKN170 OVC220 01/M11 A2991 RMK AC2AC5CI1 SLP174

CYYC;2008-03-21 03:00;CYYC 210300Z 13010KT 15SM SCT087 01/M10 A2992 RMK AC2 SLP185

CYYC;2008-03-21 04:00;CYYC 210400Z 14011KT 15SM FEW090 M00/M08 A2993 RMK AC1 AC TR SLP187

CYYC;2008-03-21 05:00;CYYC 210500Z 18009KT 15SM FEW170 M02/M08 A2994 RMK AC1 AC TR SLP189

CYYC;2008-03-21 06:00;CYYC 210600Z 16010KT 15SM FEW220 M02/M07 A2994 RMK CI1 CI TR SLP183

CYYC;2008-03-21 07:00;CYYC 210700Z 20004KT 15SM FEW220 M03/M07 A2994 RMK CI1 SLP185

CYYC;2008-03-21 08:00;CYYC 210800Z 21004KT 15SM FEW140 FEW230 M04/M07 A2994 RMK AC1CI1 BOTH CLDS TR SLP185

CYYC;2008-03-21 09:00;CYYC 210900Z 01002KT 15SM FEW250 M05/M08 A2994 RMK CI0 SLP185

CYYC;2008-03-21 10:00;CYYC 211000Z 31004KT 15SM FEW170 FEW250 M07/M09 A2994 RMK AC1CI0 SLP184

CYYC;2008-03-21 11:00;CYYC 211100Z 35003KT 15SM FEW240 M07/M10 A2995 RMK CI1 SLP186

CYYC;2008-03-21 12:00;CYYC 211200Z 07004KT 15SM FEW250 M05/M09 A2996 RMK CI1 SLP194

CYYC;2008-03-21 13:00;CYYC 211300Z 34004KT 20SM BKN250 M05/M09 A2998 RMK CI2 SLP199

CYYC;2008-03-21 14:00;CYYC 211400Z 00000KT 40SM FEW080 FEW140 BKN250 M04/M09 A3000 RMK AC1AC0CI0 SLP204

CYYC;2008-03-21 15:00;CYYC 211500Z 32005KT 40SM FEW080 FEW120 FEW250 M01/M08 A3001 RMK AC1AC1CI0 SLP210

CYYC;2008-03-21 16:00;CYYC 211600Z 32009KT 40SM FEW090 FEW250 02/M09 A3003 RMK AC1CI0 SLP216

CYYC;2008-03-21 17:00;CYYC 211700Z 33010KT 40SM FEW090 FEW250 04/M11 A3005 RMK AC1CI0 SLP223

CYYC;2008-03-21 18:00;CYYC 211800Z 01011KT 40SM FEW090 BKN260 05/M11 A3007 RMK AC1CI0 SLP227

CYYC;2008-03-21 19:00;CYYC 211900Z 02011KT 40SM FEW090 BKN220 05/M11 A3009 RMK AC1CI0 SLP232

CYYC;2008-03-21 20:00;CYYC 212000Z 03010G15KT 40SM FEW090 BKN200 06/M10 A3009 RMK AC1CI1 SH DIST SW SLP233

CYYC;2008-03-21 21:00;CYYC 212100Z 04011KT 40SM FEW080 BKN200 06/M09 A3012 RMK AC1CI0 SH SW SLP245

CYYC;2008-03-21 22:00;CYYC 212200Z 03010KT 40SM FEW058 FEW080 BKN200 05/M09 A3014 RMK SC1AC1CI0 SH SW / SC TR SLP251

CYYC;2008-03-21 23:00;CYYC 212300Z 02007KT 40SM FEW060TCU BKN080 BKN200 05/M10 A3016 RMK TCU1AC3CI0 SH S-NW / TCU E SLP257

CYYC;2008-03-22 00:00;CYYC 220000Z 04006KT 40SM FEW060TCU BKN080 BKN200 05/M10 A3018 RMK TCU1AC3CI0 SH S-NW / TCU E SLP270

CYYC;2008-03-22 01:00;CYYC 220100Z 36002KT 30SM FEW055CB BKN085 BKN200 04/M09 A3021 RMK CB1AC6CI0 SH S-NW / CB E SLP278

CYYC;2008-03-22 02:00;CYYC 220200Z 25005KT 30SM FEW045TCU BKN110 BKN200 03/M08 A3023 RMK TCU2AC2CI1 CB E / VIRGA S SLP285

CYYC;2008-03-22 03:00;CYYC 220300Z 24004KT 15SM FEW045 SCT110 BKN200 01/M07 A3025 RMK CU2AC2CI1 SLP292

CYYC;2008-03-22 04:00;CYYC 220400Z 23004KT 15SM FEW130 FEW230 01/M08 A3027 RMK AC1CI0 SLP299

CYYC;2008-03-22 05:00;CYYC 220500Z 30002KT 15SM FEW079 M02/M08 A3029 RMK AC1 SLP304

CYYC;2008-03-22 06:00;CYYC 220600Z 35003KT 15SM FEW080 M04/M09 A3030 RMK AC1 SLP310

CYYC;2008-03-22 07:00;CYYC 220700Z 21002KT 15SM FEW100 M04/M08 A3032 RMK AC1 SLP315

CYYC;2008-03-22 08:00;CYYC 220800Z 20005KT 15SM FEW065TCU FEW100 M02/M08 A3034 RMK TCU1AC1 SLP321

CYYC;2008-03-22 09:00;CYYC 220900Z 28003KT 15SM SKC M03/M09 A3035 RMK SLP323

CYYC;2008-03-22 10:00;CYYC 221000Z 33002KT 15SM SKC M04/M10 A3036 RMK SLP325

CYYC;2008-03-22 11:00;CYYC 221100Z 34003KT 15SM SKC M03/M09 A3037 RMK SLP328

CYYC;2008-03-22 12:00;CYYC 221200Z 34002KT 15SM SKC M03/M09 A3038 RMK SLP336

CYYC;2008-03-22 13:00;CYYC 221300Z 31006KT 15SM FEW060 M01/M10 A3039 RMK SC1 SLP339

CYYC;2008-03-22 14:00;CYYC 221400Z 34003KT 40SM FEW260 M02/M10 A3040 RMK CI0 SLP342

CYYC;2008-03-22 15:00;CYYC 221500Z 32004KT 40SM FEW260 00/M09 A3041 RMK CI0 SLP347

CYYC;2008-03-22 16:00;CYYC 221600Z 32006KT 40SM FEW250 03/M10 A3042 RMK CI0 SLP350

CYYC;2008-03-22 17:00;CYYC 221700Z 34005KT 40SM SCT250 04/M12 A3043 RMK CI0 SLP352

CYYC;2008-03-22 18:00;CYYC 221800Z 00000KT 40SM FEW070 SCT250 05/M12 A3043 RMK AC1CI0 SLP352

CYYC;2008-03-22 19:00;CYYC 221900Z 35004KT 40SM FEW070 SCT250 06/M11 A3041 RMK AC1CI0 SLP347

CYYC;2008-03-22 20:00;CYYC 222000Z 25003KT 40SM FEW075 SCT250 07/M12 A3040 RMK CU1CI0 SLP343

CYYC;2008-03-22 21:00;CYYC 222100Z 16006KT 40SM FEW075 FEW250 07/M12 A3037 RMK CU1CI0 SLP330

CYYC;2008-03-22 22:00;CYYC 222200Z 18008G17KT 40SM FEW080 FEW210 08/M12 A3035 RMK CU1CI0 SLP322

CYYC;2008-03-22 23:00;CYYC 222300Z 15011KT 40SM FEW088 FEW210 09/M13 A3032 RMK AC0CI0 SLP314

CYYC;2008-03-23 00:00;CYYC 230000Z 16011G18KT 40SM FEW090 FEW210 08/M13 A3030 RMK AC0CI1 SLP305

CYYC;2008-03-23 01:00;CYYC 230100Z 14013KT 40SM FEW090 BKN240 07/M12 A3029 RMK AC1CI0 SLP302

CYYC;2008-03-23 02:00;CYYC 230200Z 27004KT 30SM FEW090 BKN240 04/M15 A3028 RMK AC1CI0 SLP299

CYYC;2008-03-23 03:00;CYYC 230300Z 29005KT 15SM FEW240 03/M14 A3027 RMK CI0 SLP295

CYYC;2008-03-23 04:00;CYYC 230400Z 31002KT 15SM FEW240 02/M13 A3026 RMK CI0 SLP290

CYYC;2008-03-23 05:00;CYYC 230500Z 30003KT 15SM FEW240 02/M13 A3022 RMK CI0 SLP280

CYYC;2008-03-23 06:00;CYYC 230600Z 21006KT 15SM FEW240 M02/M13 A3022 RMK CS0 SLP277

CYYC;2008-03-23 07:00;CYYC 230700Z 20003KT 15SM SKC M02/M13 A3019 RMK SLP268

CYYC;2008-03-23 08:00;CYYC 230800Z 21003KT 15SM SKC M04/M12 A3016 RMK SLP259

CYYC;2008-03-23 09:00;CYYC 230900Z 00000KT 15SM SKC M07/M13 A3013 RMK SLP252

CYYC;2008-03-23 10:00;CYYC 231000Z 36003KT 15SM SKC M08/M13 A3008 RMK SLP237

CYYC;2008-03-23 11:00;CYYC 231100Z 00000KT 15SM FEW260 M08/M13 A3006 RMK CI0 SLP230

CYYC;2008-03-23 12:00;CYYC 231200Z 33002KT 15SM SCT260 M08/M13 A3004 RMK CS0 SLP219

CYYC;2008-03-23 13:00;CYYC 231300Z 19002KT 30SM SCT250 M08/M13 A3001 RMK CS2 SLP210

CYYC;2008-03-23 14:00;CYYC 231400Z 21003KT 30SM FEW200 OVC250 M08/M13 A2997 RMK CI2CI5 SLP200

CYYC;2008-03-23 15:00;CYYC 231500Z 20005KT 30SM SCT100 BKN210 OVC250 M05/M10 A2994 RMK AS3CS2CI2 SLP189

CYYC;2008-03-23 16:00;CYYC 231600Z 21007KT 40SM BKN099 BKN210 OVC250 M02/M11 A2991 RMK AS5CS2CI1 SLP180

CYYC;2008-03-23 17:00;CYYC 231700Z 19007KT 40SM FEW040 BKN140 OVC240 M01/M11 A2987 RMK SC1AC5CI2 VIRGA NE SLP167

CYYC;2008-03-23 18:00;CYYC 231800Z 17006KT 40SM FEW045 FEW090 BKN160 OVC240 02/M10 A2984 RMK CU1AC2AC4CI2 CU TR SLP149

CYYC;2008-03-23 19:00;CYYC 231900Z 15006KT 40SM FEW050 FEW100 SCT170 OVC240 04/M11 A2979 RMK CU1AC2AC2CI3 CU TR SLP135

CYYC;2008-03-23 20:00;CYYC 232000Z 13006KT 40SM FEW050 SCT140 BKN240 07/M08 A2974 RMK CU1AC3CI2 SLP118

CYYC;2008-03-23 21:00;CYYC 232100Z 22004KT 40SM FEW050 FEW170 SCT250 12/M08 A2968 RMK CU1AC1CI1 CU TR SLP088

CYYC;2008-03-23 22:00;CYYC 232200Z 27010G15KT 40SM FEW050 FEW170 SCT250 13/M08 A2966 RMK CU1AC1CI1 SLP082

CYYC;2008-03-23 23:00;CYYC 232300Z 27012G18KT 40SM FEW060 FEW170 BKN250 11/M08 A2964 RMK CU1AC2CI1 SLP076

CYYC;2008-03-24 00:00;CYYC 240000Z CCB 23022G27KT 40SM FEW090 BKN170 BKN250 10/M08 A2961 RMK AC1AC2CI2 SLP069

CYYC;2008-03-24 01:00;CYYC 240100Z 23021G26KT 20SM BKN160 BKN240 08/M08 A2959 RMK AC3CI2 SLP063

CYYC;2008-03-24 02:00;CYYC 240200Z 24018G24KT 30SM FEW160 06/M07 A2957 RMK AC1 SLP056

CYYC;2008-03-24 03:00;CYYC 240300Z 23018G24KT 15SM FEW160 04/M06 A2955 RMK AC0 SLP049

CYYC;2008-03-24 04:00;CYYC 240400Z 24018KT 15SM SKC 04/M06 A2954 RMK SLP048

CYYC;2008-03-24 05:00;CYYC 240500Z 23015KT 15SM FEW160 03/M06 A2952 RMK AC1 SLP041

CYYC;2008-03-24 06:00;CYYC 240600Z 23018KT 15SM FEW160 03/M06 A2950 RMK AC1 SLP025

CYYC;2008-03-24 07:00;CYYC 240700Z 22011KT 15SM FEW160 03/M07 A2950 RMK AC1 SLP025

CYYC;2008-03-24 08:00;CYYC 240800Z 20005KT 15SM FEW160 01/M07 A2951 RMK AC1 SLP027

CYYC;2008-03-24 09:00;CYYC 240900Z 34006KT 15SM FEW160 M00/M08 A2952 RMK AC2 SLP023

CYYC;2008-03-24 10:00;CYYC 241000Z 25005KT 15SM BKN100 00/M06 A2951 RMK AC6 SLP021

CYYC;2008-03-24 11:00;CYYC 241100Z 34013KT 15SM BKN080 01/M07 A2953 RMK AC6 SLP027

CYYC;2008-03-24 12:00;CYYC 241200Z 32013KT 15SM OVC060 00/M07 A2956 RMK SC7 SLP038

CYYC;2008-03-24 12:39;CYYC 241239Z 30026G31KT 1 1/2SM -SN SCT005 OVC015 M02/ RMK SC3SC5

CYYC;2008-03-24 13:00;CYYC 241300Z 32020G26KT 1SM -SN BKN005 OVC015 M03/M04 A2962 RMK SC5SC3 SLP056

CYYC;2008-03-24 13:25;CYYC 241325Z 32015KT 3/4SM -SN DRSN BKN004 OVC014 M03/ RMK SC6SC2

CYYC;2008-03-24 13:48;CYYC 241348Z 32014KT 3SM -SN DRSN FEW019 OVC045 M03/ RMK SC2SC6 VIS RPDLY IMPROVING

CYYC;2008-03-24 14:00;CYYC 241400Z 32017G22KT 30SM -SN DRSN FEW030 SCT045 OVC084 M03/M04 A2965 RMK SC2SC2AC3 SLP066

CYYC;2008-03-24 14:20;CYYC 241420Z 32017G23KT 40SM DRSN FEW030 SCT050 OVC082 M03/ RMK SC1SC3AC3

CYYC;2008-03-24 14:47;CYYC 241447Z 33016KT 5/8SM -SN DRSN BKN004 OVC016 M04/ RMK SN6SC2SC1 RVR RWY16 5000 FT

CYYC;2008-03-24 14:52;CYYC 241452Z 33014KT 30SM -SHSN DRSN FEW010 SCT050 OVC070 M04/ RMK SC1SC3AC3 VIS E 13/4

CYYC;2008-03-24 15:00;CYYC 241500Z 32012G17KT 40SM -SHSN DRSN FEW012 SCT055 BKN076 M03/M04 A2968 RMK SC1SC3AC3 VIS E 10/ CVCTD CLD EMBD SLP092

CYYC;2008-03-24 15:39;CYYC 241539Z 30012KT 40SM FEW015 BKN062 BKN080 M02/ RMK SC1SC4AC2

CYYC;2008-03-24 16:00;CYYC 241600Z 29011KT 40SM FEW050 BKN085 BKN110 M02/M05 A2969 RMK SC2AC3AS2 SLP095

CYYC;2008-03-24 17:00;CYYC 241700Z 29011KT 40SM BKN078 BKN091 M00/M08 A2971 RMK AC5AC2 VIRGA SE SLP101

CYYC;2008-03-24 18:00;CYYC 241800Z 31016G21KT 40SM FEW082 OVC091 00/M12 A2973 RMK AS2AC6 VIRGA SE-SW SLP105

CYYC;2008-03-24 19:00;CYYC 241900Z 32015G20KT 40SM FEW030 BKN090 OVC110 01/M11 A2976 RMK CU1AC5AC3 CU TR SLP114

CYYC;2008-03-24 20:00;CYYC 242000Z 32012KT 40SM BKN063 OVC085 01/M08 A2978 RMK SC5AC3 VIRGA SE-SW SLP122

CYYC;2008-03-24 21:00;CYYC 242100Z 28019KT 40SM FEW040 SCT060 BKN078 OVC210 02/M09 A2980 RMK CU1SC3AC3CI1 SH DIST SE SLP135

CYYC;2008-03-24 22:00;CYYC 242200Z 30014KT 40SM FEW040 BKN064 BKN072 OVC220 03/M11 A2981 RMK CU1SC5AC2CI1 VIRGA NE+ SE SLP138

CYYC;2008-03-24 23:00;CYYC 242300Z 31011G20KT 40SM FEW050 BKN087 OVC220 03/M13 A2983 RMK CU1AC6CI1 SLP144

CYYC;2008-03-25 00:00;CYYC 250000Z 30010G15KT 40SM FEW050 FEW080 BKN096 OVC220 03/M13 A2985 RMK CU1AC2AC4CI2 VIRGA SE-SW SLP147

CYYC;2008-03-25 01:00;CYYC 250100Z 31013G19KT 40SM FEW060 BKN092 BKN230 02/M13 A2986 RMK SC1AC4CI1 SLP151

CYYC;2008-03-25 02:00;CYYC 250200Z 35011G16KT 40SM BKN080 M00/M08 A2988 RMK AC5 VIRGA ALQDS SLP158

CYYC;2008-03-25 03:00;CYYC 250300Z 29006KT 15SM BKN090 M02/M09 A2990 RMK AC2 SLP178

CYYC;2008-03-25 04:00;CYYC 250400Z 28006KT 15SM SCT080 BKN180 M01/M13 A2991 RMK AC3AC2 SLP181

CYYC;2008-03-25 05:00;CYYC 250500Z 29006KT 15SM BKN100 M01/M15 A2992 RMK AC6 SLP184

CYYC;2008-03-25 06:00;CYYC 250600Z 31006KT 15SM OVC080 M01/M15 A2993 RMK AC7 SLP181

CYYC;2008-03-25 07:00;CYYC 250700Z 30005KT 15SM BKN060 M02/M14 A2994 RMK SC7 SLP184

CYYC;2008-03-25 08:00;CYYC 250800Z 26012KT 15SM OVC070 M01/M16 A2994 RMK AC7 VIRGA SLP185

CYYC;2008-03-25 09:00;CYYC 250900Z CCA 27010G15KT 15SM OVC075 M01/M15 A2995 RMK AC7 VIRGA SLP187

CYYC;2008-03-25 10:00;CYYC 251000Z 30004KT 15SM OVC075 M01/M15 A2995 RMK AC7 VIRGA SLP187

CYYC;2008-03-25 11:00;CYYC 251100Z 26004KT 15SM BKN100 M02/M15 A2995 RMK AC6 VIRGA SLP186

CYYC;2008-03-25 12:00;CYYC 251200Z CCA 26011KT 15SM BKN073 M02/M16 A2995 RMK AC6 VIRGA/ SNOW CVR/TRACE LOOSE SLP187

CYYC;2008-03-25 13:00;CYYC 251300Z 26009KT 40SM BKN080 M03/M15 A2995 RMK AC4 SLP186

CYYC;2008-03-25 14:00;CYYC 251400Z 27012KT 40SM SCT080 SCT200 M03/M16 A2994 RMK AC2CI1 SLP185

CYYC;2008-03-25 15:00;CYYC 251500Z 28010KT 40SM FEW080 FEW200 M02/M16 A2995 RMK AC1CI1 SLP193

CYYC;2008-03-25 16:00;CYYC 251600Z 27010KT 40SM FEW080 FEW200 M00/M16 A2995 RMK AC1CI1 SLP193

CYYC;2008-03-25 17:00;CYYC 251700Z 27007KT 40SM FEW090 01/M18 A2995 RMK AC1 SLP193

CYYC;2008-03-25 18:00;CYYC 251800Z 23005KT 40SM FEW072 FEW095 02/M17 A2994 RMK CU1AC1 SLP184

CYYC;2008-03-25 19:00;CYYC 251900Z 21003KT 40SM FEW085 FEW100 04/M17 A2993 RMK CU1AC1 SLP180

CYYC;2008-03-25 20:00;CYYC 252000Z 28005KT 40SM FEW100 04/M21 A2991 RMK CU1 TCU ASOCTD SW + NW SLP176

CYYC;2008-03-25 21:00;CYYC 252100Z 24011KT 40SM SCT120TCU BKN170 04/M21 A2989 RMK TCU4AC1 TCU CVCTNG RPDLY SLP165

CYYC;2008-03-25 22:00;CYYC 252200Z 27008G16KT 40SM FEW100 SCT140 BKN170 BKN210 04/M23 A2989 RMK CU1AC3AC2CI1 SLP164

CYYC;2008-03-25 23:00;CYYC 252300Z 25005KT 40SM BKN130 BKN170 BKN220 05/M22 A2989 RMK AC5AC1CI1 SLP163

CYYC;2008-03-26 00:00;CYYC 260000Z 26014KT 40SM FEW055 BKN110 BKN160 04/M21 A2989 RMK CU1AC5AC1 SLP163

CYYC;2008-03-26 01:00;CYYC 260100Z 26009G15KT 40SM FEW055 FEW100 SCT130 BKN260 04/M21 A2989 RMK CU1AC1AC2CI0 SLP165

CYYC;2008-03-26 02:00;CYYC 260200Z 27008KT 30SM FEW060 FEW100 BKN160 01/M20 A2990 RMK SC1AC2AC1 VIRGA E SLP167

CYYC;2008-03-26 03:00;CYYC 260300Z 27008KT 15SM FEW160 M00/M19 A2991 RMK AC1 AC TR SLP177

CYYC;2008-03-26 04:00;CYYC 260400Z 28006KT 15SM FEW160 M01/M18 A2991 RMK AC1 AC TR SLP178

CYYC;2008-03-26 05:00;CYYC 260500Z 32005KT 15SM SKC M03/M17 A2991 RMK SLP178

CYYC;2008-03-26 06:00;CYYC 260600Z 29004KT 15SM SKC M04/M17 A2990 RMK SLP175

CYYC;2008-03-26 07:00;CYYC 260700Z 00000KT 15SM SKC M07/M16 A2990 RMK SLP175

CYYC;2008-03-26 08:00;CYYC 260800Z 05003KT 15SM FEW160 FEW220 M08/M16 A2990 RMK AC1CI0 SLP173

CYYC;2008-03-26 09:00;CYYC 260900Z 32005KT 15SM FEW160 FEW220 M08/M16 A2989 RMK AC1CI0 SLP173

CYYC;2008-03-26 10:00;CYYC 261000Z 00000KT 15SM FEW160 M09/M16 A2987 RMK AC1 SLP168

CYYC;2008-03-26 11:00;CYYC 261100Z 00000KT 15SM FEW160 FEW230 M08/M15 A2987 RMK AC1CI1 BOTH CLDS TR SLP167

CYYC;2008-03-26 12:00;CYYC 261200Z 00000KT 15SM FEW140 FEW230 M09/M15 A2986 RMK AC1CI1 SNOW COVER/TRACE LOOSE SLP163

CYYC;2008-03-26 13:00;CYYC 261300Z 00000KT 20SM FEW140 SCT250 M08/M15 A2986 RMK AC1CI1 AC TR SLP162

CYYC;2008-03-26 14:00;CYYC 261400Z 24002KT 40SM FEW130 FEW250 M07/M14 A2985 RMK AC1CI0 SLP161

CYYC;2008-03-26 15:00;CYYC 261500Z 00000KT 40SM FEW130 FEW250 M04/M12 A2985 RMK AC1CI0 SLP160

CYYC;2008-03-26 16:00;CYYC 261600Z 19002KT 40SM FEW140 FEW250 M01/M11 A2985 RMK AC1CI0 SLP160

CYYC;2008-03-26 17:00;CYYC 261700Z 25006KT 40SM FEW065 FEW160 FEW260 02/M14 A2985 RMK CF1AC1CI0 SLP158

CYYC;2008-03-26 18:00;CYYC 261800Z CCA 18006KT 40SM FEW075 FEW160 FEW260 04/M16 A2984 RMK CU1AC1CI0 SLP150

CYYC;2008-03-26 19:00;CYYC 261900Z 26003KT 40SM FEW075 FEW160 FEW260 04/M15 A2982 RMK CU1AC1CI0 SLP145

CYYC;2008-03-26 20:00;CYYC 262000Z 09007KT 40SM FEW075 FEW260 04/M16 A2980 RMK CU1CI1 SLP139

CYYC;2008-03-26 21:00;CYYC 262100Z 00000KT 30SM FEW075 FEW260 05/M16 A2979 RMK CU2CI1 LRG CU ASOCTD SLP135

CYYC;2008-03-26 22:00;CYYC 262200Z 17005KT 30SM FEW044 SCT100 SCT250 05/M16 A2978 RMK SC1CU3CI0 DIST SH SW-NW / LRG CU ASOCTD SLP134

CYYC;2008-03-26 23:00;CYYC 262300Z 16008KT 30SM FEW044 SCT100 BKN250 05/M16 A2977 RMK SC1CU3CI0 DIST SH SW-NW SLP131

CYYC;2008-03-27 00:00;CYYC 270000Z 14008KT 30SM FEW042 FEW095 SCT170 BKN240 04/M16 A2977 RMK SC1CU2AC1CI1 DIST SH SW-NW SLP130

CYYC;2008-03-27 01:00;CYYC 270100Z 12007KT 30SM FEW050 FEW080 BKN190 BKN240 04/M16 A2977 RMK SC1AC2AC3CI0 SLP130

CYYC;2008-03-27 02:00;CYYC 270200Z 11009KT 30SM FEW077 SCT100 BKN240 02/M16 A2977 RMK AC1AC3CI1 SLP131

CYYC;2008-03-27 03:00;CYYC 270300Z 11010KT 15SM FEW110 FEW230 00/M16 A2977 RMK AC1CI1 SLP130

CYYC;2008-03-27 04:00;CYYC 270400Z 16005KT 15SM FEW160 FEW230 M01/M16 A2977 RMK AC1CI1 BOTH CLDS TR SLP131

CYYC;2008-03-27 05:00;CYYC 270500Z 16003KT 15SM FEW160 M02/M16 A2976 RMK AC1 AC TR SLP129

CYYC;2008-03-27 06:00;CYYC 270600Z 15004KT 15SM FEW210 M03/M16 A2976 RMK CI1 SLP121

CYYC;2008-03-27 07:00;CYYC 270700Z 09004KT 15SM FEW210 M03/M16 A2975 RMK CI1 SLP119

CYYC;2008-03-27 08:00;CYYC 270800Z 14005KT 15SM FEW180 BKN230 M04/M16 A2976 RMK AC1CI1 SLP120

CYYC;2008-03-27 09:00;CYYC 270900Z 11005KT 15SM FEW080 SCT190 BKN240 M05/M15 A2976 RMK AC1AC2CI1 SLP121

CYYC;2008-03-27 10:00;CYYC 271000Z 14004KT 15SM FEW070 BKN120 OVC230 M06/M14 A2975 RMK AC2AC3CI1 SLP119

CYYC;2008-03-27 11:00;CYYC 271100Z 00000KT 15SM FEW060 BKN092 OVC230 M06/M14 A2976 RMK SC2AC4CI1 SLP121

CYYC;2008-03-27 12:00;CYYC 271200Z 07003KT 15SM BKN065 BKN073 OVC090 M05/M13 A2977 RMK SC5AC2AC1 VIRGA E SLP126

CYYC;2008-03-27 13:00;CYYC 271300Z 05003KT 12SM BKN040 BKN076 OVC095 M05/M12 A2979 RMK SC5AS2AC1 VIRGA E SLP131

CYYC;2008-03-27 14:00;CYYC 271400Z 06004KT 40SM FEW040 BKN056 OVC120 M04/M11 A2980 RMK SC2SC4AC1 SH N / VIRGA ALQDS SLP135

CYYC;2008-03-27 14:33;CYYC 271433Z 08008KT 30SM -SHSN FEW020 BKN052 BKN120 M03/ RMK SC2SC5AC1 CVCTV CLD EMBD

CYYC;2008-03-27 15:00;CYYC 271500Z 07004KT 40SM FEW020TCU BKN057 BKN110 OVC220 M02/M10 A2981 RMK TCU1SC4AC1CS2 SH NE + SW SLP142

CYYC;2008-03-27 16:00;CYYC 271600Z 08003KT 40SM FEW025TCU SCT065 BKN075 OVC220 01/M08 A2982 RMK TCU1SC3AC1CI2 VIRGA E SLP145

CYYC;2008-03-27 17:00;CYYC 271700Z 25002KT 40SM FEW030TCU FEW040 FEW093 SCT130 OVC230 02/M08 A2983 RMK TCU1CU1AC2AC2CI2 SLP149

CYYC;2008-03-27 18:00;CYYC 271800Z 01007KT 40SM FEW042 SCT063 BKN082 OVC230 02/M08 A2985 RMK CU2SC2AC2CI1 VIRGA E SLP153

CYYC;2008-03-27 19:00;CYYC 271900Z 06006KT 40SM FEW048 SCT081 BKN120 OVC230 02/M09 A2985 RMK CU2AC1AC2CI2 TCU ASOCTD / SH NE + SE + SW SLP155

CYYC;2008-03-27 19:42;CYYC 271942Z 02008KT 30SM -SHSN BKN038TCU BKN066 OVC120 02/ RMK TCU6AC1AC2

CYYC;2008-03-27 20:00;CYYC 272000Z 04009KT 12SM -SHSN SCT044 BKN057 BKN120 OVC230 03/M08 A2985 RMK CU3SC2AC1CI2 TCU ASOCTD SLP156

CYYC;2008-03-27 20:25;CYYC 272025Z 03007G16KT 20SM SCT042 BKN077 BKN120 OVC230 03/ RMK CU4AC2AC1CI0 SH E-SE + S-SW

CYYC;2008-03-27 21:00;CYYC 272100Z 03014KT 20SM SCT045 BKN078 OVC230 03/M08 A2985 RMK CU4AC2CI2 SH SW SLP158

CYYC;2008-03-27 22:00;CYYC 272200Z 03007KT 20SM FEW050 SCT160 BKN230 03/M09 A2986 RMK CU2AC2CI2 SH S-SW-NW SLP159

CYYC;2008-03-27 23:00;CYYC 272300Z 04009KT 15SM FEW045TCU SCT180 OVC210 03/M08 A2987 RMK TCU2AC2CI2 SH S-SW-NW SLP162

CYYC;2008-03-28 00:00;CYYC 280000Z 06005KT 15SM FEW040TCU SCT100 OVC170 02/M09 A2988 RMK TCU2AC2AC4 SH S-SW-NW SLP168

CYYC;2008-03-28 00:40;CYYC 280040Z 32016KT 6SM -SHSN SCT050TCU BKN100 OVC170 M00/ RMK TCU3AC2AC3 VIS W 3

CYYC;2008-03-28 01:00;CYYC 280100Z 30010KT 3SM -SHSN FEW013 BKN018 OVC075 M02/M04 A2990 RMK SC1SC6AC1 VIS W 1 / CVCTV CLD EMBD SLP175

CYYC;2008-03-28 02:00;CYYC 280200Z 04010KT 30SM -SHSN FEW018 BKN077 OVC110 M01/M05 A2989 RMK SC2AC4AC2 PCPN VRY LGT / CVCTV CLD EMBD SLP172

CYYC;2008-03-28 02:32;CYYC 280232Z CCA 33009KT 15SM FEW040 BKN087 OVC110 M02/ RMK SC2AC4AC2 VIRGA E/ CVCTV CLD EMBD

CYYC;2008-03-28 03:00;CYYC 280300Z 27006KT 15SM FEW040 BKN088 OVC110 M02/M05 A2990 RMK SC1AC5AC2 VIRGA E/ CVCTV CLD EMBD SLP178

CYYC;2008-03-28 04:00;CYYC 280400Z 25006KT 15SM BKN076 OVC110 M02/M05 A2991 RMK AC6AC2 VIRGA E-S SLP179

CYYC;2008-03-28 05:00;CYYC 280500Z 01004KT 15SM BKN053 OVC074 M02/M05 A2991 RMK SC6AC2 SLP179

CYYC;2008-03-28 06:00;CYYC 280600Z 00000KT 15SM BKN069 OVC090 M03/M06 A2990 RMK AC6AC2 VIRGA E-S SLP173

CYYC;2008-03-28 07:00;CYYC 280700Z 35002KT 15SM BKN100 OVC140 M03/M07 A2991 RMK AC6AC2 VIRGA E SLP175

CYYC;2008-03-28 08:00;CYYC 280800Z 32002KT 15SM BKN110 OVC130 M03/M06 A2990 RMK AC7AC1 VIRGA SE SLP173

CYYC;2008-03-28 09:00;CYYC 280900Z 36006KT 15SM BKN120 BKN210 M05/M07 A2990 RMK AC6CI1 SLP173

CYYC;2008-03-28 10:00;CYYC 281000Z 32007KT 15SM BKN170 BKN210 M05/M08 A2989 RMK AC6CI1 SLP171

CYYC;2008-03-28 11:00;CYYC 281100Z 32010KT 15SM SCT062 BKN130 OVC210 M06/M08 A2989 RMK SC3AC3CI1 SLP170

CYYC;2008-03-28 12:00;CYYC 281200Z 32008KT 8SM SCT001 BKN140 OVC220 M07/M08 A2988 RMK ST3AC3CI1 BR/ SNOW COVER/TRACE LOOSE SLP173

CYYC;2008-03-28 12:14;CYYC 281214Z 32008KT 8SM FEW003 BKN160 BKN220 M07/ RMK ST2AS3CI0 BR

CYYC;2008-03-28 13:00;CYYC 281300Z 03003KT 30SM FEW070 BKN120 OVC220 M08/M08 A2988 RMK AC2AC3CS1 SLP172

CYYC;2008-03-28 13:13;CYYC 281313Z 35003KT 40SM FEW004 FEW064 M09/ RMK ST1SC1 VIS N-E 1/2 FOG BANK

CYYC;2008-03-28 13:20;CYYC 281320Z 36004KT 1/2SM FZFG FEW002 FEW064 M09/ RMK ST1SC1 RVR RWY34 6000 FT / VIS SW 3

CYYC;2008-03-28 13:48;CYYC 281348Z 36004KT 30SM BCFG FEW002 FEW064 M09/ RMK ST1SC0 FOG BANK N-E / VIS S 3

CYYC;2008-03-28 14:00;CYYC 281400Z CCA 34004KT 40SM FEW002 FEW064 M09/M09 A2987 RMK ST1SC1 FOG BANK N-SE / VIS NE-SE 3 / FROIN SLP170

CYYC;2008-03-28 15:00;CYYC 281500Z 33002KT 40SM FEW065 M08/M09 A2987 RMK SC1 SLP175

CYYC;2008-03-28 16:00;CYYC 281600Z CCA 28002KT 40SM FEW065 FEW090 M03/M09 A2986 RMK SC1AC1 SLP171

CYYC;2008-03-28 17:00;CYYC 281700Z 32010KT 40SM FEW065 FEW090 FEW160 00/M12 A2985 RMK SC1AC1AC1 SLP167

CYYC;2008-03-28 18:00;CYYC 281800Z 33005KT 40SM FEW070 FEW100 FEW180 01/M16 A2983 RMK CU1AC1AC1 SLP148

CYYC;2008-03-28 19:00;CYYC 281900Z 04005KT 40SM FEW070 FEW100 01/M16 A2981 RMK AC2AC1 SLP141

CYYC;2008-03-28 20:00;CYYC 282000Z 03003KT 40SM BKN080 BKN100 01/M18 A2978 RMK AC3AC1 CVCTV CLD EMBD / VIRGA SLP133

CYYC;2008-03-28 21:00;CYYC 282100Z 16005KT 40SM BKN090 03/M18 A2976 RMK AC4 CVCTV CLD EMBD / VIRGA SLP125

CYYC;2008-03-28 22:00;CYYC 282200Z 11003KT 40SM BKN090 BKN150 02/M19 A2974 RMK AC3AC2 VIRGA ALQDS SLP120

CYYC;2008-03-28 23:00;CYYC 282300Z 12005KT 40SM BKN080 BKN150 02/M19 A2974 RMK AC3AC2 VIRGA SLP118

CYYC;2008-03-29 00:00;CYYC 290000Z 02011KT 40SM BKN080 BKN150 01/M13 A2973 RMK AC1AC2 VIRGA SLP120

CYYC;2008-03-29 01:00;CYYC 290100Z 05010KT 30SM BKN080 BKN160 00/M13 A2973 RMK AC1AC2 SLP119

CYYC;2008-03-29 02:00;CYYC 290200Z 06008KT 30SM FEW080 SCT160 OVC210 M02/M11 A2972 RMK AC1AC2CI2 SLP118

CYYC;2008-03-29 03:00;CYYC 290300Z 06008KT 15SM FEW160 SCT240 M04/M09 A2974 RMK AC1CI2 SLP131

CYYC;2008-03-29 04:00;CYYC 290400Z 07007KT 15SM FEW090 BKN160 BKN230 M05/M09 A2974 RMK AC1AC5CI1 SLP132

CYYC;2008-03-29 05:00;CYYC 290500Z 06008KT 15SM FEW090 BKN160 OVC210 M05/M08 A2974 RMK AC1AC6CI1 SLP131

CYYC;2008-03-29 06:00;CYYC 290600Z CCA 06007KT 15SM BKN080 OVC094 M05/M08 A2973 RMK AC6AC2 SLP118

CYYC;2008-03-29 07:00;CYYC 290700Z 02005KT 15SM BKN063 OVC081 M05/M07 A2974 RMK SC6AC2 SLP119

CYYC;2008-03-29 08:00;CYYC 290800Z 01009KT 15SM BKN057 OVC078 M05/M07 A2974 RMK SC6AC2 SLP119

CYYC;2008-03-29 09:00;CYYC 290900Z 03005KT 12SM FEW015 BKN041 OVC062 M05/M07 A2976 RMK SC1SC6SC2 VIRGA S/ CVCTV CLD EMBD SLP125

CYYC;2008-03-29 10:00;CYYC 291000Z 01009KT 15SM BKN061 OVC084 M05/M07 A2976 RMK SC5AC3 VIRGA S/ CVTCV CLD EMBD SLP125

CYYC;2008-03-29 11:00;CYYC 291100Z 02008KT 15SM BKN055 OVC076 M05/M07 A2977 RMK SC6AC2 SLP129

CYYC;2008-03-29 12:00;CYYC 291200Z 01008KT 15SM BKN056 OVC082 M05/M07 A2979 RMK SC5AC3 SLP139

CYYC;2008-03-29 13:00;CYYC 291300Z 01011KT 7SM FEW015 BKN019 OVC044 M06/M07 A2981 RMK SC2SC6SC1 BR SLP146

CYYC;2008-03-29 13:09;CYYC 291309Z 01010KT 6SM -SN BR FEW011 OVC019 M06/ RMK SC2SC6 VIS W 4

CYYC;2008-03-29 14:00;CYYC 291400Z 02012KT 6SM -SN BR SCT011 OVC015 M05/M07 A2984 RMK SC3SC5 SLP153

CYYC;2008-03-29 15:00;CYYC 291500Z 03011KT 6SM -SN BR SCT013 OVC022 M05/M07 A2986 RMK SC3SC5 PCPN VRY LGT SLP170

CYYC;2008-03-29 16:00;CYYC 291600Z 03010G15KT 6SM -SN SCT016 OVC030 M05/M07 A2989 RMK SC3SC5 SLP179

CYYC;2008-03-29 17:00;CYYC 291700Z 05010KT 3SM -SN SCT014 OVC023 M04/M07 A2990 RMK SC3SC5 SLP182

CYYC;2008-03-29 18:00;CYYC 291800Z 01013G18KT 10SM -SN FEW021 BKN030 OVC065 M03/M08 A2991 RMK SC1SC6SC2 SLP186

CYYC;2008-03-29 19:00;CYYC 291900Z 03011KT 10SM -SN FEW026 OVC033 M04/M09 A2993 RMK SC1SC6 SLP191

CYYC;2008-03-29 20:00;CYYC 292000Z 02008KT 10SM -SN BKN028 OVC220 M03/M10 A2994 RMK SC6CS1 PCPN VRY LGT SLP195

CYYC;2008-03-29 21:00;CYYC 292100Z 01010G15KT 10SM -SN FEW020 BKN031 BKN230 M02/M10 A2995 RMK SC2SC4CS0 PCPN VRY LGT SLP199

CYYC;2008-03-29 21:32;CYYC 292132Z 36008KT 12SM FEW032 BKN043 M02/ RMK SC2SC5

CYYC;2008-03-29 22:00;CYYC 292200Z 02003KT 15SM BKN049 BKN220 M01/M11 A2995 RMK SC6CI0 SLP200

CYYC;2008-03-29 23:00;CYYC 292300Z 02006KT 15SM SCT041 SCT120 OVC230 M01/M12 A2996 RMK SC3AC1CI2 SH ALQDS SLP202

CYYC;2008-03-30 00:00;CYYC 300000Z 10009KT 15SM BKN044 BKN120 M02/M12 A2996 RMK SC6AC1 SH N-NE + SW-W SLP203

CYYC;2008-03-30 01:00;CYYC 300100Z 09008KT 15SM BKN044 BKN120 M02/M11 A2997 RMK SC6AC1 SLP204

CYYC;2008-03-30 02:00;CYYC 300200Z 09007KT 15SM SCT041 BKN120 BKN200 M03/M11 A2997 RMK SC3AC1CI0 SLP205

CYYC;2008-03-30 03:00;CYYC 300300Z 09008KT 15SM OVC042 M04/M11 A2999 RMK SC8 SLP215

CYYC;2008-03-30 04:00;CYYC 300400Z 08011KT 15SM OVC045 M05/M11 A3000 RMK SC8 SLP218

CYYC;2008-03-30 05:00;CYYC 300500Z CCB 12009KT 15SM OVC040 M06/M09 A3000 RMK SC8 SLP220

CYYC;2008-03-30 05:48;CYYC 300548Z 12009KT 3SM -SN BKN014 OVC028 M06/ RMK SC6SC2

CYYC;2008-03-30 06:00;CYYC 300600Z 11009KT 3SM -SN BKN010 OVC025 M06/M08 A2999 RMK SC6SC2 VIS E+W 11/4 SLP217

CYYC;2008-03-30 06:17;CYYC 300617Z 09009KT 2SM -SN FEW010 OVC034 M07/ RMK SC2SC6

CYYC;2008-03-30 07:00;CYYC 300700Z 09010KT 1 1/2SM -SN BKN011 OVC027 M07/M07 A3000 RMK SN4SC3SC1 SLP218

CYYC;2008-03-30 08:00;CYYC 300800Z 08009KT 1 1/2SM -SN BKN010 OVC022 M07/M07 A2999 RMK SN4SC2SC2 /S01/ VIS W 1 SLP215

CYYC;2008-03-30 08:09;CYYC 300809Z 07007KT 1SM -SN BKN009 OVC024 M07/ RMK SN4SC2SC2 RVR RWY34 6000 FT

CYYC;2008-03-30 09:00;CYYC 300900Z CCA 10006KT 1/2SM SN BKN008 OVC019 M08/M08 A3000 RMK SN6SC2SC1 /S02/ RVR RWY34 6000 FT SLP219

CYYC;2008-03-30 10:00;CYYC 301000Z CCA 06006KT 1/2SM SN BKN004 OVC014 M08/M08 A2999 RMK SN6SC2SC1 RVR RWY34 5000 FT SLP218

CYYC;2008-03-30 10:50;CYYC 301050Z 05006KT 5/8SM -SN BKN007 OVC021 M08/ RESN RMK SN4SC2SC2 RVR RWY34 6000 FT

CYYC;2008-03-30 11:00;CYYC 301100Z CCA 05007KT 5/8SM -SN BKN009 OVC023 M08/M09 A2999 RESN RMK SN4SC2SC2 /S03/ RVR RWY16 6000 FT SLP218

CYYC;2008-03-30 12:00;CYYC 301200Z 04007KT 3/4SM -SN BKN009 OVC024 M09/M09 A3000 RMK SN4SC3SC1 /S08/ RVR RWY34 6000 FT SLP219

CYYC;2008-03-30 12:28;CYYC 301228Z 03008KT 1SM -SN BKN011 OVC022 M09/ RMK SN4SC2SC2 RVR RWY16 6000 FT/ VIS W 3/4

CYYC;2008-03-30 13:00;CYYC 301300Z 03007KT 1 1/2SM -SN BKN010 OVC021 M09/M10 A3000 RMK SN4SC2SC2 SLP221

CYYC;2008-03-30 13:16;CYYC 301316Z 03006KT 2 1/2SM -SN BKN016 OVC030 M09/ RMK SC6SC2

CYYC;2008-03-30 14:00;CYYC 301400Z 02006KT 2 1/2SM -SN BKN015 OVC030 M10/M10 A3001 RMK SC6SC2 SLP224

CYYC;2008-03-30 15:00;CYYC 301500Z 02006KT 1 1/2SM -SN BKN015 OVC024 M09/M10 A3003 RMK SC3SC2 SLP234

CYYC;2008-03-30 16:00;CYYC 301600Z 01005KT 5SM -SN BKN011 OVC024 M10/M10 A3004 RMK SC2SC2 SLP237

CYYC;2008-03-30 17:00;CYYC 301700Z 34005KT 5SM -SN BKN011 OVC024 M09/M10 A3004 RMK SC2SC3 VIS NE-S 21/2 SLP238

CYYC;2008-03-30 18:00;CYYC 301800Z 36004KT 5SM -SN SCT015 BKN058 M08/M09 A3004 RMK SC2SC1 SLP239

CYYC;2008-03-30 19:00;CYYC 301900Z 01003KT 8SM -SN BKN015 BKN058 M08/M09 A3003 RMK SC3SC2 SLP237

CYYC;2008-03-30 20:00;CYYC 302000Z 03004KT 8SM -SN BKN016 BKN058 M07/M09 A3003 RMK SC6SC1 SLP236

CYYC;2008-03-30 20:18;CYYC 302018Z 03003KT 10SM BKN017 BKN058 M06/ RMK SC3SC1

CYYC;2008-03-30 21:00;CYYC 302100Z 09003KT 10SM BKN018 BKN120 M06/M08 A3002 RMK SC6AC1 SLP231

CYYC;2008-03-30 21:29;CYYC 302129Z 04007KT 8SM -SN BKN017 M06/ RMK SC7

CYYC;2008-03-30 21:45;CYYC 302145Z 05005KT 10SM BKN017 M06/ RMK SC6

CYYC;2008-03-30 22:00;CYYC 302200Z 11002KT 10SM VCSH BKN017 M05/M08 A3001 RMK SC6 SLP229

CYYC;2008-03-30 22:06;CYYC 302206Z 07002KT 8SM -SHSN BKN017 M05/ RMK SC6

CYYC;2008-03-30 23:00;CYYC 302300Z 10007KT 5SM -SHSN SCT019 M05/M08 A3001 RMK SC3 SLP228

CYYC;2008-03-31 00:00;CYYC 310000Z 06004KT 8SM -SHSN BKN022 M06/M09 A3002 RMK SC7 SLP234

CYYC;2008-03-31 01:00;CYYC 310100Z 09006KT 6SM -SHSN BKN029 M06/M10 A3003 RMK SC6 SLP236

CYYC;2008-03-31 02:00;CYYC 310200Z 12004KT 6SM -SN FEW029 BKN080 M07/M09 A3004 RMK SC2AC0 SLP240

CYYC;2008-03-31 02:28;CYYC 310228Z 11004KT 8SM FEW029 BKN080 M07/ RMK SC2AC0

CYYC;2008-03-31 03:00;CYYC 310300Z 12004KT 15SM FEW030 SCT080 M08/M10 A3005 RMK SC1AC0 SLP249

CYYC;2008-03-31 04:00;CYYC 310400Z 10002KT 15SM FEW030 FEW080 M09/M10 A3006 RMK SC1AC0 SLP252

CYYC;2008-03-31 05:00;CYYC 310500Z 00000KT 10SM FEW250 M09/M10 A3006 RMK CI1 SLP253

CYYC;2008-03-31 06:00;CYYC 310600Z 00000KT 8SM FEW250 M10/M11 A3006 RMK CI1 SLP254

CYYC;2008-03-31 07:00;CYYC 310700Z 00000KT 10SM FEW250 M11/M13 A3006 RMK CI1 SLP253

CYYC;2008-03-31 08:00;CYYC 310800Z 08002KT 8SM SKC M12/M14 A3006 RMK SLP255

CYYC;2008-03-31 09:00;CYYC 310900Z 00000KT 8SM SKC M13/M14 A3007 RMK SLP257

CYYC;2008-03-31 10:00;CYYC 311000Z 36002KT 10SM SKC M14/M15 A3006 RMK SLP255

CYYC;2008-03-31 11:00;CYYC 311100Z 14004KT 10SM SKC M13/M13 A3007 RMK SLP257

CYYC;2008-03-31 11:23;CYYC 311123Z CCA 16005KT 1SM BR BKN002 M11/ RMK SC5 RVR RWY34 3500FT

CYYC;2008-03-31 11:38;CYYC 311138Z 13005KT 1/2SM FZFG OVC002 M10/ RMK SC6 RVR RWY28 3500FT

CYYC;2008-03-31 11:49;CYYC 311149Z 12005KT 3/4SM BR OVC002 M10/ RMK SC6 RVR RWY34 4000FT

CYYC;2008-03-31 12:00;CYYC 311200Z CCA 11003KT 3/4SM BR BKN003 M11/M12 A3007 RMK SC5 RVR RWY34 6000FT/SNOW CVR/MUCH LOOSE SLP254

CYYC;2008-03-31 12:27;CYYC 311227Z 14003KT 1/4SM FZFG OVC003 M11/ RMK SC6 RVR RWY34 4000FT

CYYC;2008-03-31 12:53;CYYC 311253Z 00000KT 3/4SM BR BKN003 OVC024 M11/ RMK SC5SC2 RVR RWY34 3000FT

CYYC;2008-03-31 13:00;CYYC 311300Z 00000KT 3/4SM BR BKN003 OVC024 M11/M11 A3008 RMK SC3SC3 RVR RWY34 3000FT SLP257

CYYC;2008-03-31 13:12;CYYC 311312Z 00000KT 1SM -SN BR BKN003 OVC024 M11/ RMK SC3SC3 RVR RWY34 5500FT / VIS W 13/4

CYYC;2008-03-31 13:20;CYYC 311320Z CCA 00000KT 1 3/4SM -SN BR BKN006 OVC024 M11/ RMK SC3SC4

CYYC;2008-03-31 13:46;CYYC 311346Z 00000KT 3SM -SN BR FEW008 OVC024 M10/ RMK SC2SC6

CYYC;2008-03-31 14:00;CYYC 311400Z 17002KT 3SM -SN BR FEW007 OVC023 M10/M10 A3008 RMK SC1SC6 SLP259

CYYC;2008-03-31 15:00;CYYC 311500Z 19003KT 3SM -SN BR FEW007 OVC023 M09/M09 A3009 RMK SC1SC7 SLP262

CYYC;2008-03-31 16:00;CYYC 311600Z 15003KT 3SM -SN BR FEW007 OVC022 M08/M08 A3010 RMK SC1SC6 SLP264

CYYC;2008-03-31 17:00;CYYC 311700Z 15006KT 4SM -SN BR BKN009 OVC022 M07/M08 A3012 RMK SC5SC2 SLP270

CYYC;2008-03-31 18:00;CYYC 311800Z 16008KT 5SM -SN BR BKN009 OVC180 M07/M08 A3012 RMK SC6AC1 SLP273

CYYC;2008-03-31 18:19;CYYC 311819Z 14007KT 6SM BR BKN011 OVC180 M07/ RMK SC6AC1

CYYC;2008-03-31 19:00;CYYC 311900Z 17007KT 8SM OVC012 M06/M08 A3012 RMK SC7 SLP272

CYYC;2008-03-31 19:32;CYYC 311932Z 16006KT 8SM BKN016 OVC180 M06/ RMK SC5AC1

CYYC;2008-03-31 20:00;CYYC 312000Z 15004KT 10SM BKN016 BKN190 M05/M08 A3011 RMK SC5AC1 SLP271

CYYC;2008-03-31 21:00;CYYC 312100Z 13006KT 8SM BKN018 OVC180 M03/M07 A3011 RMK SC6AC1 SLP269

CYYC;2008-03-31 22:00;CYYC 312200Z 16007KT 8SM BKN023 OVC100 M04/M07 A3011 RMK SC4AC4 SLP270

CYYC;2008-03-31 23:00;CYYC 312300Z CCA 14006KT 10SM BKN023 OVC100 M04/M07 A3010 RMK SC2AC6 SLP266

CYYC;2008-04-01 01:00;CYYC 010100Z 13006KT 8SM FEW020 OVC075 M03/M07 A3011 RMK SC1AC8 SLP265

CYYC;2008-04-01 02:00;CYYC 010200Z 10005KT 8SM FEW060 OVC090 M04/M07 A3011 RMK SC1AC6 SLP265

CYYC;2008-04-01 03:00;CYYC 010300Z 11005KT 15SM FEW060 BKN090 M04/M07 A3012 RMK SC1AC6 SLP266

CYYC;2008-04-01 04:00;CYYC 010400Z 14006KT 10SM SCT020 BKN080 M04/M06 A3013 RMK SC2AC3 SLP269

CYYC;2008-04-01 05:00;CYYC 010500Z 14008KT 8SM BKN020 OVC080 M06/M07 A3013 RMK SC6AC2 SLP269

CYYC;2008-04-01 06:00;CYYC 010600Z 16007KT 8SM FEW020 BKN080 M07/M08 A3011 RMK SC1AC5 SLP265

CYYC;2008-04-01 07:00;CYYC 010700Z 16004KT 8SM FEW020 BKN080 M09/M10 A3010 RMK SC1AC3 SLP262

CYYC;2008-04-01 08:00;CYYC 010800Z 20003KT 8SM FEW020 SCT080 M08/M09 A3010 RMK SC1AC2 SLP260

CYYC;2008-04-01 09:00;CYYC 010900Z 22003KT 8SM FEW020 SCT080 M09/M09 A3009 RMK SC1AC2 SLP255

CYYC;2008-04-01 09:39;CYYC 010939Z 22004KT 1 1/2SM BR BKN005 OVC020 M08/ RMK SC6SC2

CYYC;2008-04-01 10:00;CYYC 011000Z 25003KT 1 1/2SM BR OVC005 M09/M09 A3008 RMK SC8 FROIN SLP251

CYYC;2008-04-01 11:00;CYYC 011100Z 21005KT 1 1/2SM BR OVC005 M08/M08 A3006 RMK SC7 FROIN SLP246

CYYC;2008-04-01 11:42;CYYC 011142Z 22006KT 3SM BR BKN005 M09/ RMK SC2

CYYC;2008-04-01 12:00;CYYC 011200Z CCA 22008KT 15SM FEW005 M10/M10 A3006 RMK SC1 SNOW CVR/MUCH LOOSE SLP244

CYYC;2008-04-01 13:00;CYYC 011300Z 22010KT 30SM FEW060 M10/M11 A3004 RMK SC0 SLP240

CYYC;2008-04-01 14:00;CYYC 011400Z 22006KT 40SM FEW100 M09/M11 A3003 RMK AC1 SLP237

CYYC;2008-04-01 15:00;CYYC 011500Z 23006KT 40SM SKC M07/M11 A3003 RMK SLP231

CYYC;2008-04-01 16:00;CYYC 011600Z 22009KT 40SM SKC M05/M11 A3002 RMK SLP228

CYYC;2008-04-01 17:00;CYYC 011700Z 20004KT 40SM FEW045 M02/M10 A3001 RMK CU1 SLP225

CYYC;2008-04-01 18:00;CYYC 011800Z 26009KT 40SM FEW048 00/M13 A2999 RMK CU1 SLP211

CYYC;2008-04-01 19:00;CYYC 011900Z 23006KT 40SM FEW077 FEW090 01/M15 A2997 RMK CU1AC1 SLP205

CYYC;2008-04-01 20:00;CYYC 012000Z 29009KT 40SM FEW076 03/M16 A2995 RMK CU1 SLP199

CYYC;2008-04-01 21:00;CYYC 012100Z 31010KT 40SM FEW079 02/M16 A2993 RMK CU2 SLP192

CYYC;2008-04-01 22:00;CYYC 012200Z 29008KT 40SM FEW080 03/M17 A2992 RMK CU2 SLP188

CYYC;2008-04-01 23:00;CYYC 012300Z 26009KT 40SM SCT080 03/M15 A2991 RMK AC3 SLP185

CYYC;2008-04-02 00:00;CYYC 020000Z 25009KT 40SM SCT084 02/M16 A2991 RMK AC3 SLP184

CYYC;2008-04-02 01:00;CYYC 020100Z 34009KT 40SM FEW080 SCT220 02/M16 A2990 RMK AC2CI0 SLP182

CYYC;2008-04-02 02:00;CYYC 020200Z 26013KT 40SM FEW060 FEW170 BKN250 01/M15 A2990 RMK SC1AC1CI1 VIRGA NE SLP182

CYYC;2008-04-02 03:00;CYYC 020300Z 26010KT 15SM FEW170 SCT210 BKN250 M01/M14 A2992 RMK AC1CI1CI0 SLP188

CYYC;2008-04-02 04:00;CYYC 020400Z 27010KT 15SM SCT210 M02/M14 A2993 RMK CI1 SLP191

CYYC;2008-04-02 05:00;CYYC 020500Z 34007KT 15SM FEW210 FEW250 M04/M14 A2994 RMK CI1CI0 SLP194

CYYC;2008-04-02 06:00;CYYC 020600Z 32006KT 15SM FEW230 M05/M13 A2994 RMK CI1 SLP190

CYYC;2008-04-02 07:00;CYYC 020700Z 33006KT 15SM FEW240 M05/M13 A2995 RMK CI0 SLP193

CYYC;2008-04-02 08:00;CYYC 020800Z 32009KT 15SM FEW250 M05/M13 A2995 RMK CI0 SLP193

CYYC;2008-04-02 09:00;CYYC 020900Z 32009KT 15SM FEW240 M06/M14 A2995 RMK CI1 CI TR SLP192

CYYC;2008-04-02 10:00;CYYC 021000Z 32010KT 15SM FEW210 M06/M14 A2995 RMK CI1 SLP192

CYYC;2008-04-02 11:00;CYYC 021100Z 32007KT 15SM FEW190 SCT210 M06/M14 A2995 RMK AC1CI1 SLP192

CYYC;2008-04-02 12:00;CYYC 021200Z 33002KT 15SM FEW190 SCT240 M07/M13 A2995 RMK AC1CI1 SNOW COVER/TRACE LOOSE SLP195

CYYC;2008-04-02 13:00;CYYC 021300Z 28003KT 40SM FEW085 FEW170 FEW250 M06/M13 A2995 RMK AC1AC1CI0 SLP195

CYYC;2008-04-02 14:00;CYYC 021400Z 00000KT 40SM SKC M04/M13 A2995 RMK SLP196

CYYC;2008-04-02 15:00;CYYC 021500Z 29011KT 40SM SKC M02/M14 A2995 RMK SLP193

CYYC;2008-04-02 16:00;CYYC 021600Z 28012KT 40SM SKC 00/M14 A2996 RMK SLP195

CYYC;2008-04-02 17:00;CYYC 021700Z 26006KT 40SM FEW065 01/M14 A2996 RMK CF1 SLP196

CYYC;2008-04-02 18:00;CYYC 021800Z 24007KT 40SM FEW068 03/M15 A2995 RMK CF1 SLP191

CYYC;2008-04-02 19:00;CYYC 021900Z 26011KT 40SM FEW100 FEW260 03/M15 A2993 RMK AC1CI1 SLP184

CYYC;2008-04-02 20:00;CYYC 022000Z 28010G15KT 40SM FEW100 04/M14 A2991 RMK AC1 SLP179

CYYC;2008-04-02 21:00;CYYC 022100Z 25004KT 40SM FEW080 FEW100 04/M14 A2990 RMK CF1AC1 SLP172

CYYC;2008-04-02 22:00;CYYC 022200Z 30008G16KT 40SM FEW100 FEW250 05/M14 A2990 RMK AC1CI1 SLP172

CYYC;2008-04-02 23:00;CYYC 022300Z 27008KT 40SM FEW100 FEW250 07/M13 A2985 RMK AC1CI1 SLP159

CYYC;2008-04-03 00:00;CYYC 030000Z 25004G16KT 40SM SKC 07/M13 A2985 RMK SLP152

CYYC;2008-04-03 01:00;CYYC 030100Z 28011KT 40SM SKC 07/M14 A2984 RMK SLP151

CYYC;2008-04-03 02:00;CYYC 030200Z 27011KT 40SM SKC 05/M13 A2984 RMK SLP150

CYYC;2008-04-03 03:00;CYYC 030300Z 26010KT 15SM SKC 03/M12 A2985 RMK SLP151

CYYC;2008-04-03 04:00;CYYC 030400Z 26013KT 15SM SKC 02/M12 A2985 RMK SLP152

CYYC;2008-04-03 05:00;CYYC 030500Z 27010KT 15SM SKC 01/M12 A2986 RMK SLP154

CYYC;2008-04-03 06:00;CYYC 030600Z 27010KT 15SM SKC 01/M12 A2986 RMK SLP152

CYYC;2008-04-03 07:00;CYYC 030700Z 27012KT 15SM SKC 01/M12 A2986 RMK SLP151

CYYC;2008-04-03 08:00;CYYC 030800Z 27012KT 15SM SKC 01/M11 A2986 RMK SLP151

CYYC;2008-04-03 09:00;CYYC 030900Z 30008KT 15SM SKC 01/M11 A2986 RMK SLP151

CYYC;2008-04-03 10:00;CYYC 031000Z 28010KT 15SM SKC 01/M11 A2986 RMK SLP151

CYYC;2008-04-03 11:00;CYYC 031100Z 31010KT 15SM SKC 01/M11 A2988 RMK SLP155

CYYC;2008-04-03 12:00;CYYC 031200Z 27013KT 15SM FEW210 02/M11 A2988 RMK CI1 SLP152

CYYC;2008-04-03 13:00;CYYC 031300Z 30009KT 40SM SCT200 OVC230 01/M11 A2989 RMK CI4CI3 SLP155

CYYC;2008-04-03 14:00;CYYC 031400Z 32010KT 40SM SCT200 BKN230 00/M10 A2990 RMK CI2CI2 SLP159

CYYC;2008-04-03 15:00;CYYC 031500Z 34004KT 40SM FEW150 SCT200 OVC230 01/M10 A2991 RMK AC2CI2CI2 SLP170

CYYC;2008-04-03 16:00;CYYC 031600Z 03003KT 40SM FEW150 SCT200 OVC220 03/M09 A2991 RMK AC2CI2CI3 SLP169

CYYC;2008-04-03 17:00;CYYC 031700Z 24003KT 40SM FEW043 FEW170 OVC200 06/M10 A2990 RMK CU1AC1CI6 SLP165

CYYC;2008-04-03 18:00;CYYC 031800Z 28010KT 40SM FEW043 FEW120 BKN200 08/M11 A2988 RMK CU1AC1CI6 SLP153

CYYC;2008-04-03 19:00;CYYC 031900Z 28011KT 40SM FEW043 FEW080 SCT170 BKN230 09/M11 A2986 RMK CU1AC1AC2CI2 SLP147

CYYC;2008-04-03 20:00;CYYC 032000Z 27010G16KT 40SM FEW043 FEW080 BKN160 BKN230 09/M11 A2985 RMK CU1AC1AC5CI1 SLP141

CYYC;2008-04-03 21:00;CYYC 032100Z 25011G18KT 40SM FEW043 FEW085 BKN160 BKN230 10/M10 A2983 RMK CU1AC2AC2CS2 ACSL S SLP129

CYYC;2008-04-03 22:00;CYYC 032200Z 25016G25KT 40SM FEW050 SCT080 BKN160 BKN230 11/M09 A2981 RMK CU1AC4AC1CS1 SLP123

CYYC;2008-04-03 23:00;CYYC 032300Z 27017G24KT 40SM FEW050 SCT080 BKN120 OVC230 10/M09 A2981 RMK CU1AC3AS2CS1 SLP124

CYYC;2008-04-04 00:00;CYYC 040000Z 28016G24KT 40SM FEW055 FEW080 OVC130 09/M09 A2982 RMK CU1AC2AS5 SLP126

CYYC;2008-04-04 01:00;CYYC 040100Z 30016KT 40SM FEW055 SCT076 BKN130 09/M09 A2983 RMK CU1AC4AS2 SLP130

CYYC;2008-04-04 02:00;CYYC 040200Z 31013G18KT 40SM FEW055 BKN065 OVC080 07/M09 A2984 RMK SC1SC4AC2 SLP133

CYYC;2008-04-04 03:00;CYYC 040300Z 30008KT 15SM FEW060 BKN074 BKN090 06/M08 A2986 RMK SC1AC5AC1 SLP146

CYYC;2008-04-04 04:00;CYYC 040400Z 31009KT 15SM BKN087 OVC100 06/M08 A2988 RMK AC6AC1 SLP152

CYYC;2008-04-04 05:00;CYYC 040500Z 36007KT 15SM BKN084 BKN100 03/M08 A2989 RMK AC5AC1 SLP155

CYYC;2008-04-04 06:00;CYYC 040600Z 36006KT 15SM FEW120 02/M06 A2989 RMK AC1 SLP155

CYYC;2008-04-04 07:00;CYYC 040700Z 33005KT 15SM FEW120 01/M05 A2990 RMK AC1 SLP156

CYYC;2008-04-04 08:00;CYYC 040800Z 34004KT 15SM FEW230 M01/M05 A2990 RMK CI2 SLP156

CYYC;2008-04-04 09:00;CYYC 040900Z 34004KT 15SM SCT230 M02/M06 A2989 RMK CI2 SLP158

CYYC;2008-04-04 10:00;CYYC 041000Z 26002KT 15SM SCT160 BKN250 M03/M06 A2989 RMK AC2CI2 SLP157

CYYC;2008-04-04 11:00;CYYC 041100Z 00000KT 15SM BKN150 BKN240 M05/M08 A2988 RMK AC3CI2 SLP155

CYYC;2008-04-04 12:00;CYYC 041200Z 03004KT 15SM FEW160 OVC240 M06/M07 A2988 RMK AC2CI3 SLP158

CYYC;2008-04-04 13:00;CYYC 041300Z 35006KT 30SM FEW090 FEW160 BKN210 M06/M07 A2987 RMK AC1AC1CI2 SLP156

CYYC;2008-04-04 14:00;CYYC 041400Z 35003KT 30SM FEW045 FEW180 BKN250 M04/M06 A2985 RMK SC1AC1CI3 SLP151

CYYC;2008-04-04 15:00;CYYC 041500Z 01003KT 30SM FEW045 FEW170 BKN240 M02/M04 A2985 RMK SC1AC1CS4 SLP146

CYYC;2008-04-04 16:00;CYYC 041600Z 16003KT 30SM FEW160 OVC200 01/M03 A2984 RMK AC1CS4 SLP143

CYYC;2008-04-04 17:00;CYYC 041700Z 13003KT 25SM FEW160 BKN240 03/M04 A2983 RMK AC1CS2 SLP139

CYYC;2008-04-04 18:00;CYYC 041800Z 07005KT 30SM FEW030 FEW160 OVC240 05/M05 A2980 RMK CU1AC1CS2 SLP127

CYYC;2008-04-04 19:00;CYYC 041900Z 00000KT 30SM FEW040 FEW140 OVC240 06/M05 A2981 RMK CU1AC1CS2 SLP129

CYYC;2008-04-04 20:00;CYYC 042000Z 05003KT 30SM FEW040 FEW140 BKN220 07/M05 A2976 RMK CU1AC1CS2 SLP114

CYYC;2008-04-04 21:00;CYYC 042100Z 12002KT 25SM FEW058 FEW140 OVC240 07/M06 A2974 RMK CU2AC1CS1 SLP107

CYYC;2008-04-04 22:00;CYYC 042200Z 00000KT 25SM FEW059 OVC240 08/M06 A2971 RMK CU2CS1 SLP099

CYYC;2008-04-04 23:00;CYYC 042300Z 08008KT 25SM FEW062 OVC240 08/M06 A2970 RMK CU2CS0 SLP094

CYYC;2008-04-05 00:00;CYYC 050000Z CCA 07008KT 20SM BKN055 OVC240 07/M06 A2969 RMK SC5CS1 VIRGA W SLP095

CYYC;2008-04-05 01:00;CYYC 050100Z 05013KT 20SM BKN050 OVC240 06/M04 A2969 RMK SC6CS1 VIRGA ALQDS SLP096

CYYC;2008-04-05 02:00;CYYC 050200Z 07011KT 10SM VCSH BKN045 OVC058 05/M04 A2970 RMK SC6SC2 SH ALQDS/ CVCTV CLD EMBD SLP098

CYYC;2008-04-05 03:00;CYYC 050300Z 08007KT 15SM BKN055 OVC110 03/M04 A2971 RMK SC6AC1 SLP103

CYYC;2008-04-05 04:00;CYYC 050400Z 07007KT 15SM OVC045 03/M04 A2972 RMK SC8 SLP106

CYYC;2008-04-05 05:00;CYYC 050500Z 10008KT 2SM -SN OVC031 01/M01 A2974 RMK SC8 SLP111

CYYC;2008-04-05 05:06;CYYC 050506Z 09008KT 4SM -SN OVC036 01/ RMK SC8 VIS W 21/2

CYYC;2008-04-05 05:40;CYYC 050540Z 14007KT 1 3/4SM -SN BKN008 OVC023 M00/ RMK SC5SC3

CYYC;2008-04-05 06:00;CYYC 050600Z 13004KT 1 3/4SM -SN OVC006 M00/M00 A2973 RMK SC8 SLP106

CYYC;2008-04-05 07:00;CYYC 050700Z 13008KT 1 3/4SM -SN BR OVC006 M00/M01 A2972 RMK SC8 VIS W 1 SLP102

CYYC;2008-04-05 08:00;CYYC 050800Z 12007KT 2SM -SN BKN006 OVC030 M01/M02 A2972 RMK SC7SC1 SLP101

CYYC;2008-04-05 09:00;CYYC 050900Z 14008KT 1 1/2SM -SN BKN006 OVC025 M01/M02 A2971 RMK SC7SC1 /S01/ SLP096

CYYC;2008-04-05 09:25;CYYC 050925Z 13008KT 1SM -SN BKN006 OVC017 M01/ RMK SC7SC1 RVR RWY34 6000 FT

CYYC;2008-04-05 10:00;CYYC 051000Z 14007KT 1 1/4SM -SN BKN006 OVC020 M01/M02 A2970 RMK SC7SC1 VIS E 2 SLP093

CYYC;2008-04-05 10:05;CYYC 051005Z 14006KT 2SM -SN FEW007 OVC020 M01/ RMK SC2SC6

CYYC;2008-04-05 11:00;CYYC 051100Z 14006KT 1 3/4SM -SN SCT007 OVC020 M01/M02 A2969 RMK SC3SC5 VIS E 11/4 SLP091

CYYC;2008-04-05 12:00;CYYC 051200Z 15006KT 1 1/2SM -SN SCT005 OVC015 M01/M02 A2969 RMK SN2SC2SC4 /S02/ SNOW COVER/MUCH LOOSE SLP089

CYYC;2008-04-05 13:00;CYYC 051300Z 15006KT 2SM -SN SCT006 OVC012 M02/M02 A2969 RMK SC3SC5 /S01/ SLP089

CYYC;2008-04-05 13:36;CYYC 051336Z CCA 16005KT 1SM -SN FEW008 BKN014 OVC028 M02/ RMK SC2SC5SC2

CYYC;2008-04-05 14:00;CYYC 051400Z 17007KT 2SM -SN FEW006 BKN015 OVC022 M02/M03 A2969 RMK SF2SC4SC2 SLP089

CYYC;2008-04-05 15:00;CYYC 051500Z 18007KT 3SM -SN FEW006 BKN018 OVC027 M02/M02 A2969 RMK SF2SC4SC2 SLP097

CYYC;2008-04-05 15:36;CYYC 051536Z 18006KT 5SM BR BKN006 OVC021 M01/ RMK SC6SC2

CYYC;2008-04-05 16:00;CYYC 051600Z CCA 19007KT 8SM BKN006 OVC025 M01/M02 A2970 RMK SC4SC3 /S02/ SLP098

CYYC;2008-04-05 17:00;CYYC 051700Z 17007KT 8SM FEW011 SCT025 BKN052 M01/M02 A2970 RMK SC2SC1SC2 SLP098

CYYC;2008-04-05 18:00;CYYC 051800Z 15009KT 10SM BKN014 BKN075 00/M00 A2970 RMK SC3AC1 SLP100

CYYC;2008-04-05 19:00;CYYC 051900Z 17011KT 10SM OVC015 01/M01 A2969 RMK SC8 SLP099

CYYC;2008-04-05 20:00;CYYC 052000Z 18010KT 10SM BKN016 02/M00 A2968 RMK SC7 SLP094

CYYC;2008-04-05 21:00;CYYC 052100Z 17010KT 15SM BKN016 04/01 A2967 RMK SC5 SLP087

CYYC;2008-04-05 22:00;CYYC 052200Z 15008KT 15SM FEW023 SCT040TCU SCT090 BKN200 04/M01 A2966 RMK SC2TCU2AC1CI0 SLP083

CYYC;2008-04-05 23:00;CYYC 052300Z 17005KT 15SM FEW038 SCT120 BKN240 06/M02 A2964 RMK CU2AC1CI0 SH NW / TCU ASOCTD SLP078

CYYC;2008-04-06 00:00;CYYC 060000Z 13010KT 15SM BKN056 BKN120 06/M02 A2963 RMK CU6AC1 SH W / TCU ASOCTD SLP070

CYYC;2008-04-06 01:00;CYYC 060100Z 13011KT 15SM VCSH SCT060TCU BKN078 BKN230 05/M00 A2962 RMK TCU3AC1CI0 SH ALQDS SLP067

CYYC;2008-04-06 02:00;CYYC 060200Z 14003KT 20SM SCT048 SCT060CB BKN080 BKN220 04/M02 A2963 RMK SC3CB1AC2CI1 CB S/ SH ALQDS SLP068

CYYC;2008-04-06 03:00;CYYC 060300Z 18010KT 15SM FEW060 SCT090 OVC240 03/M01 A2963 RMK SC1AC2CI2 SLP073

CYYC;2008-04-06 04:00;CYYC 060400Z 16004KT 15SM FEW100 BKN220 00/M02 A2963 RMK AC1CI3 SLP073

CYYC;2008-04-06 05:00;CYYC 060500Z 22004KT 15SM FEW140 OVC220 01/M01 A2963 RMK AC2CI4 SLP074

CYYC;2008-04-06 06:00;CYYC 060600Z 26003KT 15SM SCT210 01/M01 A2963 RMK CI2 SLP075

CYYC;2008-04-06 07:00;CYYC 060700Z 33005KT 15SM BKN220 M01/M02 A2964 RMK CI2 SLP079

CYYC;2008-04-06 08:00;CYYC 060800Z 33007KT 15SM FEW230 M02/M03 A2965 RMK CI1 SLP083

CYYC;2008-04-06 08:37;CYYC 060837Z 32004KT 12SM BKN005 OVC100 M02/ RMK ST6AC1

CYYC;2008-04-06 09:00;CYYC 060900Z 36004KT 10SM OVC004 M02/M02 A2965 RMK ST8 SLP083

CYYC;2008-04-06 09:24;CYYC 060924Z 35002KT 5SM BR OVC003 M02/ RMK ST8 CIG VRB 2-4

CYYC;2008-04-06 10:00;CYYC 061000Z 00000KT 3SM BR OVC003 M02/M02 A2965 RMK ST8 VIS W 2 SLP082

CYYC;2008-04-06 10:09;CYYC 061009Z 00000KT 1 1/4SM BR OVC002 M02/ RMK ST8

CYYC;2008-04-06 11:00;CYYC 061100Z 00000KT 1/4SM FZFG VV001 M02/M03 A2966 RMK FG8 RVR RWY16 1600 FT SLP085

CYYC;2008-04-06 11:40;CYYC 061140Z 22004KT 1 1/4SM BR OVC003 M02/ RMK FG5ST3

CYYC;2008-04-06 12:00;CYYC 061200Z 23006KT 1 1/4SM BR OVC003 M02/M03 A2966 RMK ST8 VIS E 1/ RVR RWY16 2800 FT SLP082

CYYC;2008-04-06 12:54;CYYC 061254Z 21002KT 1/8SM FZFG VV001 M03/ RMK FG8 RVR RWY16 1200 FT

CYYC;2008-04-06 13:00;CYYC 061300Z 24002KT 0SM FZFG VV001 M03/M04 A2967 RMK FG8 RVR RWY16 1000 FT SLP083

CYYC;2008-04-06 14:00;CYYC 061400Z CCA 20005KT 1/4SM FZFG VV002 M04/M04 A2968 RMK FG8 VIS S 3/4 / RVR RWY 16 3500FT SLP086

CYYC;2008-04-06 14:12;CYYC 061412Z 21004KT 1/2SM FZFG VV002 M03/ RMK FG8 VIS S 1 + SW 2 / RVR RWY 16 1400FT

CYYC;2008-04-06 14:19;CYYC 061419Z CCA 20004KT 3SM BR SCT005 BKN260 M03/ RMK FG2ST2CI1 VIS N-SE 3/4 / SW 30 / RVR RWY 16 3000FT

CYYC;2008-04-06 15:00;CYYC 061500Z 19006KT 40SM BCFG FEW100 BKN260 M02/M03 A2968 RMK AC1CI2 FG N SLP095

CYYC;2008-04-06 16:00;CYYC 061600Z 17005KT 40SM FEW048 FEW120 BKN260 00/M02 A2969 RMK SC1AC2CI2 SLP098

CYYC;2008-04-06 17:00;CYYC 061700Z 13004KT 40SM FEW048 SCT100 BKN260 04/M02 A2970 RMK SC1AC2CI2 SLP100

CYYC;2008-04-06 18:00;CYYC 061800Z CCA 11004KT 40SM FEW045 SCT091 BKN250 06/M04 A2970 RMK CU2AC2CI1 SH W SLP090

CYYC;2008-04-06 19:00;CYYC 061900Z 13007KT 40SM FEW050TCU FEW090 SCT110 BKN240 08/M05 A2969 RMK TCU2AC1AC1CI1 SH S-SW-W-N SLP088

CYYC;2008-04-06 19:56;CYYC 061956Z 26009KT 30SM -SHSN BKN040TCU 05/ RMK TCU7 VIS LWR NW-NE

CYYC;2008-04-06 20:00;CYYC 062000Z 29009KT 30SM -SHSN BKN040TCU 05/M05 A2969 RMK TCU7 VIS LWR NW-NE SLP087

CYYC;2008-04-06 21:00;CYYC 062100Z 01002KT 30SM VCSH SCT040TCU BKN078 OVC230 06/M03 A2970 RMK TCU3AC2CI2 SH ALQDS / CB ASOCTD SLP097

CYYC;2008-04-06 22:00;CYYC 062200Z 16007KT 30SM FEW040CB SCT100 OVC230 07/M04 A2970 RMK CB2AC1CI2 SH ALQDS SLP096

CYYC;2008-04-06 23:00;CYYC 062300Z 10008KT 30SM FEW043TCU SCT100 OVC230 07/M03 A2970 RMK TCU2AC1CI2 SH ALQDS SLP095

CYYC;2008-04-07 00:00;CYYC 070000Z 11011KT 30SM SCT062TCU SCT110 OVC230 07/M03 A2970 RMK TCU3AC1CI2 SH ALQDS SLP093

CYYC;2008-04-07 01:00;CYYC 070100Z 07012KT 40SM SCT076TCU BKN130 BKN230 06/M03 A2971 RMK TCU3AC1CI2 SH ALQDS / CB ASOCTD SLP096

CYYC;2008-04-07 02:00;CYYC 070200Z 09010KT 30SM FEW060CB BKN100 BKN240 04/M01 A2972 RMK CB2AC2CI0 VIRGA/CB N-SE SLP099

CYYC;2008-04-07 03:00;CYYC 070300Z 11006KT 15SM FEW060 SCT080 BKN240 04/00 A2973 RMK SC2AC1CI0 VIRGA S-W SLP109

CYYC;2008-04-07 04:00;CYYC 070400Z 09002KT 15SM FEW080 03/M01 A2974 RMK AC1 SLP113

CYYC;2008-04-07 05:00;CYYC 070500Z 23002KT 15SM FEW080 00/M02 A2975 RMK AC1 SLP114

CYYC;2008-04-07 06:00;CYYC 070600Z 32002KT 15SM FEW100 M01/M02 A2975 RMK AC1 AURBO SLP112

CYYC;2008-04-07 07:00;CYYC 070700Z 00000KT 15SM FEW100 M03/M03 A2975 RMK AC1 SLP111

CYYC;2008-04-07 08:00;CYYC 070800Z 36003KT 15SM FEW240 M04/M05 A2975 RMK CI1 SLP112

CYYC;2008-04-07 09:00;CYYC 070900Z 00000KT 15SM FEW240 M05/M06 A2976 RMK CI1 SLP120

CYYC;2008-04-07 10:00;CYYC 071000Z 00000KT 15SM FEW240 M05/M06 A2976 RMK CI1 SLP120

CYYC;2008-04-07 11:00;CYYC 071100Z 16003KT 15SM BKN240 M03/M05 A2976 RMK CI1 SLP121

CYYC;2008-04-07 12:00;CYYC 071200Z 19002KT 15SM OVC240 M04/M07 A2976 RMK CI2 SLP118

CYYC;2008-04-07 13:00;CYYC 071300Z 00000KT 40SM FEW080 BKN240 M04/M07 A2977 RMK AC1CI0 SLP119

CYYC;2008-04-07 14:00;CYYC 071400Z 01005KT 40SM FEW080 BKN250 M02/M05 A2978 RMK AC1CI1 AC TR SLP122

CYYC;2008-04-07 15:00;CYYC 071500Z 32002KT 40SM FEW080 FEW200 SCT250 01/M03 A2979 RMK AC1CI1CI0 AC+ LWR CI TR SLP125

CYYC;2008-04-07 16:00;CYYC 071600Z CCA 00000KT 40SM FEW040 FEW200 SCT250 06/M04 A2980 RMK CU1CI1CI0 CU+LWR CI TR SLP129

CYYC;2008-04-07 17:00;CYYC 071700Z 32005KT 40SM FEW045 FEW200 SCT250 07/M07 A2981 RMK CU1CI1CI0 CU+LWR CI TR SLP130

CYYC;2008-04-07 18:00;CYYC 071800Z 02002KT 40SM FEW045 FEW250 07/M06 A2980 RMK CU1CI0 SLP128

CYYC;2008-04-07 19:00;CYYC 071900Z 07006KT 40SM FEW062 FEW250 08/M06 A2980 RMK CU2CI0 DIST SH SSW SLP126

CYYC;2008-04-07 20:00;CYYC 072000Z 09011KT 40SM FEW070TCU FEW250 08/M06 A2979 RMK TCU2CI0 SLP125

CYYC;2008-04-07 21:00;CYYC 072100Z 29003KT 10SM VCSH FEW040TCU SCT058CB BKN240 05/M04 A2981 RMK TCU1CB2CI2 HVY SH S-W SLP138

CYYC;2008-04-07 21:14;CYYC 072114Z 28016KT 10SM -SHRASN FEW030TCU BKN046CB 04/ RMK TCU2CB5

CYYC;2008-04-07 21:26;CYYC 072126Z 30017KT 4SM -SHSN SCT010 OVC025CB 03/ RMK SC3CB4 VIS W 2

CYYC;2008-04-07 21:30;CYYC 072130Z 29017KT 4SM -SHSN SCT012 OVC023CB 02/ RMK SC3CB5 VIS W 2

CYYC;2008-04-07 22:00;CYYC 072200Z 01007KT 6SM -SHSN SCT015 BKN023 OVC050CB 02/M02 A2982 RMK SC3SC2CB2 VIS W 3 SLP142

CYYC;2008-04-07 22:30;CYYC 072230Z 34006KT 10SM FEW040 SCT060 BKN150 04/ RMK CU1SC2AC2 SH DIST SW-W

CYYC;2008-04-07 23:00;CYYC 072300Z 02004KT 30SM FEW040 FEW060TCU SCT070CB BKN150 05/00 A2982 RMK SC2TCU1CB1AC2 SLP140

CYYC;2008-04-08 00:00;CYYC 080000Z 25007KT 30SM FEW040 BKN060CB BKN170 06/M04 A2982 RMK SC2CB2AC2 SH SE-SW SLP141

CYYC;2008-04-08 01:00;CYYC 080100Z 17007KT 20SM SCT051 BKN057CB BKN170 06/M04 A2982 RMK SC3CB2AC2 SH DIST SE SLP141

CYYC;2008-04-08 02:00;CYYC 080200Z 15012KT 15SM VCSH FEW060CB SCT160 BKN240 04/M03 A2983 RMK CB2AC1CI1 CB ALQDS/VCSH E/VIRGA W SLP144

CYYC;2008-04-08 03:00;CYYC 080300Z 21010KT 15SM VCSH FEW060CB SCT080 BKN240 03/M01 A2985 RMK CB1AC2CI0 CB E+SW/VCSH E+SW/VIRGA W-NW SLP145

CYYC;2008-04-08 04:00;CYYC 080400Z 21006KT 15SM FEW060CB FEW080 FEW240 01/M02 A2985 RMK CB1AC1CI0 SLP146

CYYC;2008-04-08 05:00;CYYC 080500Z 20005KT 15SM SCT130 01/M02 A2985 RMK AC2 SLP145

CYYC;2008-04-08 06:00;CYYC 080600Z 00000KT 15SM FEW130 FEW250 M01/M03 A2985 RMK AC1CI0 SLP142

CYYC;2008-04-08 07:00;CYYC 080700Z 07002KT 15SM SKC M01/M03 A2985 RMK SLP142

CYYC;2008-04-08 08:00;CYYC 080800Z 28003KT 15SM FEW150 M02/M04 A2985 RMK AC1 SLP142

CYYC;2008-04-08 09:00;CYYC 080900Z 33002KT 15SM BKN180 M03/M04 A2983 RMK AC0 SLP144

CYYC;2008-04-08 11:00;CYYC 081100Z CCA 25002KT 15SM SCT100 M04/M06 A2982 RMK AC1 SLP141

CYYC;2008-04-08 12:00;CYYC 081200Z 05002KT 15SM FEW100 BKN250 M04/M07 A2982 RMK AC2CI0 SLP140

CYYC;2008-04-08 13:00;CYYC 081300Z CCA 34004KT 40SM FEW100 FEW250 M03/M07 A2983 RMK AC1CI0 SLP142

CYYC;2008-04-08 14:00;CYYC 081400Z 32005KT 40SM FEW100 FEW250 M00/M06 A2983 RMK AC1CC0 SLP143

CYYC;2008-04-08 15:00;CYYC 081500Z 32004KT 40SM FEW110 FEW150 FEW230 M03/M05 A2983 RMK AC1AC1CC1 SLP145

CYYC;2008-04-08 16:00;CYYC 081600Z 30008KT 40SM FEW060 FEW097 FEW150 FEW240 05/M08 A2983 RMK CU1AC1AC1CI1 SLP144

CYYC;2008-04-08 17:00;CYYC 081700Z 32004KT 40SM FEW060 FEW100 FEW150 FEW240 06/M08 A2982 RMK CU1AC1AC1CI1 SLP143

CYYC;2008-04-08 18:00;CYYC 081800Z CCA 02003KT 40SM FEW065 FEW100 FEW240 07/M09 A2981 RMK CU1AC1CI1 TCU ASOCTD SLP130

CYYC;2008-04-08 19:00;CYYC 081900Z 18002KT 30SM FEW068 FEW100 FEW240 08/M10 A2979 RMK CU1AC1CI1 TCU ASOCTD / SH SW SLP125

CYYC;2008-04-08 20:00;CYYC 082000Z 14004KT 25SM FEW072 FEW240 09/M10 A2978 RMK CU2CI1 TCU ASOCTD / SH SW SLP120

CYYC;2008-04-08 21:00;CYYC 082100Z CCA 35003KT 20SM FEW070 FEW240 07/M10 A2976 RMK CU2CI1 TCU ASOCTD / SH SW-NW SLP116

CYYC;2008-04-08 22:00;CYYC 082200Z 23004KT 20SM SCT080 BKN120CB 10/M10 A2975 RMK CU4CB2 SH ALQDS SLP113

CYYC;2008-04-08 23:00;CYYC 082300Z 28006KT 30SM VCSH BKN050TCU BKN120 BKN240 07/M08 A2976 RMK TCU5AC1CI1 VIS LWR NW-NE / CB ASOCTD / SH ALQDS SLP116

CYYC;2008-04-09 00:00;CYYC 090000Z 20008KT 20SM FEW050CB SCT140 BKN220 07/M07 A2976 RMK CB2AC2CI1 SH + CB ALQDS SLP117

CYYC;2008-04-09 01:00;CYYC 090100Z 19005KT 20SM FEW050CB FEW150 BKN220 07/M07 A2975 RMK CB2AC1CI1 SH + CB ALQDS SLP115

CYYC;2008-04-09 02:00;CYYC 090200Z 35005KT 40SM FEW050CB SCT095 BKN250 05/M05 A2976 RMK CB1AC2CI2 SH DIST E+SW SLP117

CYYC;2008-04-09 03:00;CYYC 090300Z 04012KT 15SM FEW065 FEW110 SCT250 02/M01 A2977 RMK SC1AC1CI0 SLP127

CYYC;2008-04-09 04:00;CYYC 090400Z 05010KT 15SM SKC 01/M02 A2978 RMK SLP129

CYYC;2008-04-09 05:00;CYYC 090500Z 36003KT 15SM SKC M00/M03 A2977 RMK SLP128

CYYC;2008-04-09 06:00;CYYC 090600Z 36005KT 15SM SKC M01/M03 A2977 RMK SLP119

CYYC;2008-04-09 07:00;CYYC 090700Z 30003KT 15SM SKC M03/M04 A2977 RMK SLP118

CYYC;2008-04-09 08:00;CYYC 090800Z 31003KT 15SM SKC M03/M05 A2976 RMK SLP115

CYYC;2008-04-09 09:00;CYYC 090900Z 33008KT 15SM SKC M04/M06 A2976 RMK SLP117

CYYC;2008-04-09 10:00;CYYC 091000Z 31006KT 15SM FEW250 M06/M07 A2975 RMK CI1 SLP116

CYYC;2008-04-09 11:00;CYYC 091100Z 32003KT 15SM FEW250 M05/M06 A2974 RMK CI1 CI TR SLP113

CYYC;2008-04-09 12:00;CYYC 091200Z 00000KT 15SM FEW210 M05/M07 A2974 RMK CI1 SLP112

CYYC;2008-04-09 13:00;CYYC 091300Z 00000KT 40SM FEW160 BKN220 M05/M07 A2974 RMK AS2CI1 SLP111

CYYC;2008-04-09 14:00;CYYC 091400Z 30003KT 40SM BKN210 M02/M06 A2974 RMK CI2 SLP112

CYYC;2008-04-09 15:00;CYYC 091500Z 00000KT 40SM BKN200 01/M04 A2974 RMK CI2 SLP112

CYYC;2008-04-09 16:00;CYYC 091600Z 26005KT 40SM SCT200 BKN260 05/M07 A2974 RMK CS2CI1 SLP110

CYYC;2008-04-09 17:00;CYYC 091700Z CCA 25009KT 40SM FEW060 BKN230 07/M09 A2974 RMK CU1CS2 SLP110

CYYC;2008-04-09 18:00;CYYC 091800Z 20004KT 40SM FEW065 FEW180 BKN240 07/M09 A2973 RMK CU1AC1CS2 SLP103

CYYC;2008-04-09 19:00;CYYC 091900Z 22004KT 40SM FEW075 BKN230 08/M10 A2972 RMK CU2CS1 SLP101

CYYC;2008-04-09 20:00;CYYC 092000Z 18006KT 40SM SCT075 BKN230 08/M11 A2972 RMK CU3CS1 VIRGA SW-NW SLP099

CYYC;2008-04-09 21:00;CYYC 092100Z 20007KT 40SM SCT082 BKN220 09/M10 A2972 RMK CU4CI1 VIRGA ALQDS SLP102

CYYC;2008-04-09 22:00;CYYC 092200Z 20008KT 40SM SCT085 BKN210 10/M10 A2971 RMK CU3CI1 VIRGA ALQDS / TCU ASOCTD SLP100

CYYC;2008-04-09 23:00;CYYC 092300Z 19006KT 40SM SCT085 BKN210 09/M11 A2971 RMK CU3CI2 SH NW-NE + S-SW / TCU ASOCTD SLP100

CYYC;2008-04-10 00:00;CYYC 100000Z 04010KT 40SM BKN088 BKN130 OVC220 08/M08 A2971 RMK CU5AC1CI1 SH NW-NE + W / TCU ASOCTD SLP102

CYYC;2008-04-10 01:00;CYYC 100100Z 07004KT 30SM BKN082 BKN160 OVC220 07/M08 A2973 RMK AC6AC1CI1 SH ALQDS / TCU ASOCTD SLP108

CYYC;2008-04-10 02:00;CYYC 100200Z 13007KT 30SM FEW063 SCT073 BKN110 OVC230 07/M08 A2974 RMK SC2AC2AC2CI1 CB ASOCTD S/ SH ALQDS SLP111

CYYC;2008-04-10 03:00;CYYC 100300Z 35002KT 15SM FEW065 BKN090 OVC230 06/M07 A2976 RMK SC1AC6CI1 CB ASOCTD S/ SH DIST S-W SLP113

CYYC;2008-04-10 04:00;CYYC 100400Z 28012KT 10SM VCSH BKN051 OVC090 05/M05 A2979 RMK SC6AC2 SH ALQDS/ VIS LWR W SLP121

CYYC;2008-04-10 05:00;CYYC 100500Z 31006KT 15SM FEW090 BKN170 04/M06 A2979 RMK AC2AC2 SLP122

CYYC;2008-04-10 06:00;CYYC 100600Z 35012KT 15SM FEW092 FEW170 03/M04 A2980 RMK AC1AC1 SLP121

CYYC;2008-04-10 06:07;CYYC 100607Z 35011KT 15SM FEW095 FEW180 02/ RMK AC1AC1

CYYC;2008-04-10 07:00;CYYC 100700Z 36009KT 15SM FEW100 00/M02 A2981 RMK AC1 SLP124

CYYC;2008-04-10 08:00;CYYC 100800Z 32010KT 15SM FEW078 BKN110 BKN220 M00/M02 A2982 RMK AC2AC1CI1 SLP127

CYYC;2008-04-10 09:00;CYYC 100900Z 32010KT 12SM BKN075 OVC097 M00/M02 A2984 RMK AC7AC1 SLP136

CYYC;2008-04-10 10:00;CYYC 101000Z 34009KT 12SM BKN065 OVC110 M00/M02 A2985 RMK SC5AC2 SLP140

CYYC;2008-04-10 11:00;CYYC 101100Z 34012KT 7SM -SN BKN010 OVC060 M00/M01 A2986 RMK SC7SC1 VIS LWR W SLP145

CYYC;2008-04-10 11:05;CYYC 101105Z 34013KT 7SM -SN OVC009 M00/ RMK SC8 VIS LWR W

CYYC;2008-04-10 12:00;CYYC 101200Z 34010KT 7SM -SN BKN009 OVC025 00/M01 A2988 RMK SC7SC1 SN VRY LGT SLP152

CYYC;2008-04-10 12:46;CYYC 101246Z 32007KT 1 1/4SM -SN BKN009 OVC023 00/ RMK SC6SC2

CYYC;2008-04-10 13:00;CYYC 101300Z 28005KT 1 1/4SM -SN OVC009 M00/M01 A2990 RMK SN2SC6 VIS W 3/4 SLP159

CYYC;2008-04-10 13:10;CYYC 101310Z 27006KT 1SM -SN OVC010 M00/ RMK SN3SC5 RVR RWY16 6000 FT

CYYC;2008-04-10 13:30;CYYC 101330Z CCB 26005KT 1/2SM SN VV003 M00/ RMK SN8 RVR RWY 16 5500FT

CYYC;2008-04-10 13:35;CYYC 101335Z 25005KT 1/8SM +SN VV003 M00/ RMK SN8 RVR RWY 16 5000FT

CYYC;2008-04-10 14:00;CYYC 101400Z 27007KT 1/8SM +SN VV002 M01/M01 A2992 RMK SN8 RVR RWY 28 2600FT /S04/ SLP165

CYYC;2008-04-10 15:00;CYYC 101500Z 27005KT 1/8SM +SN VV003 M00/M01 A2993 RMK SN8 RVR RWY34 2800T /S11/ SLP174

CYYC;2008-04-10 15:36;CYYC 101536Z 27004KT 1/4SM +SN VV004 M00/ RMK SN8 RVR RWY 34 2800FT

CYYC;2008-04-10 16:00;CYYC 101600Z 30006KT 1/8SM +SN VV003 M00/M01 A2996 RMK SN8 RVR RWY 34 2200FT /S15/ SLP181

CYYC;2008-04-10 17:00;CYYC 101700Z 31004KT 1/4SM +SN VV003 M00/M01 A2998 RMK SN8 RVR RWY 34 2600FT /S19/ SLP187

CYYC;2008-04-10 17:29;CYYC 101729Z 32004KT 1/2SM SN VV004 M00/ RESN RMK SN8 RVR RWY 34 3000FT

CYYC;2008-04-10 17:51;CYYC 101751Z CCA 34004KT 3/4SM -SN OVC007 M00/ RESN RMK SN6SC2 RVR RWY 34 6000FT

CYYC;2008-04-10 18:00;CYYC 101800Z 36005KT 3SM -SN OVC007 00/M01 A2999 RESN RMK SC8 /S23/ SLP197

CYYC;2008-04-10 18:28;CYYC 101828Z 05006KT 3SM -SN SCT008 OVC017 M00/ RMK SC3SC5

CYYC;2008-04-10 19:00;CYYC 101900Z 04006KT 10SM FEW018TCU FEW052 BKN087 BKN200 00/M00 A2999 RMK TCU2SC1AC2CI1 WND EST SLP198

CYYC;2008-04-10 20:00;CYYC 102000Z CCA 06007KT 12SM FEW009 FEW018TCU SCT150 BKN210 01/M00 A2999 RMK SF1TCU2AC2CI2 WND EST SLP197

CYYC;2008-04-10 21:00;CYYC 102100Z CCA 06005KT 10SM FEW015 FEW020CB SCT150 OVC210 01/00 A2999 RMK SC1CB1AC2CI2 WND EST / DIST SH SW-NW SLP202

CYYC;2008-04-10 21:31;CYYC 102131Z CCA 22005KT 3SM -SHSN FEW009 FEW014 BKN036 BKN210 02/ RMK SF1SC2SC3CI2 WND EST / CB EMBD

CYYC;2008-04-10 22:00;CYYC 102200Z CCB 27006KT 8SM -SHSN FEW011 FEW022 BKN081 BKN210 01/00 A3002 RMK SF1SC1AC4CI1 WND EST / SW-W VIS 3 / CB EMBD SLP209

CYYC;2008-04-10 22:16;CYYC 102216Z 30010KT 2 1/2SM -SHSN BKN008 BKN025 OVC210 01/ RMK SC5SC2CI1 WND EST / CB EMBD / VIS W 1

CYYC;2008-04-10 22:29;CYYC 102229Z 30013KT 1SM -SHSN BKN005 OVC012 M00/ RMK SC6SC2 CVCTV CLD EMBD

CYYC;2008-04-10 23:00;CYYC 102300Z 33007KT 1 1/2SM -SHSN FEW003 BKN005 OVC018 M00/M01 A3002 RMK SC2SC3SC2 CVCTV CLD EMBD SLP211

CYYC;2008-04-10 23:07;CYYC 102307Z 00000KT 5SM -SHSN FEW005 SCT021 OVC050 M00/ RMK SC2SC2SC3 CB ASOCTD

CYYC;2008-04-10 23:29;CYYC 102329Z CCA 24008KT 12SM FEW018 BKN078 00/ RMK SC2AC5 CB ASOCTD

CYYC;2008-04-11 00:00;CYYC 110000Z 25005KT 15SM FEW018 SCT078 BKN100 BKN210 01/01 A3003 RMK SC1AC2AC2CI2 CB ASOCTD N SLP213

CYYC;2008-04-11 01:00;CYYC 110100Z 27008KT 20SM FEW020 BKN060 BKN110 02/M01 A3006 RMK SC1SC5AC1 CB + SH NNE SLP222

CYYC;2008-04-11 02:00;CYYC 110200Z 32004KT 20SM FEW030 BKN110 BKN220 02/M02 A3006 RMK SC2AC4CI1 SLP222

CYYC;2008-04-11 03:00;CYYC 110300Z 29003KT 20SM FEW088 BKN100 02/M02 A3008 RMK AC2AC5 SLP231

CYYC;2008-04-11 04:00;CYYC 110400Z 27004KT 15SM FEW080 SCT110 M01/M03 A3010 RMK AC2AC1 SLP238

CYYC;2008-04-11 05:00;CYYC 110500Z 00000KT 15SM SCT079 M02/M05 A3011 RMK AC2 SLP242

CYYC;2008-04-11 06:00;CYYC 110600Z 32009KT 15SM FEW058 BKN094 M00/M02 A3014 RMK SC1AC2 SLP255

CYYC;2008-04-11 07:00;CYYC 110700Z 29003KT 15SM SCT098 01/M02 A3015 RMK AC2 SLP258

CYYC;2008-04-11 08:00;CYYC 110800Z 22003KT 15SM FEW090 M02/M03 A3016 RMK AC1 AC TR SLP260

CYYC;2008-04-11 09:00;CYYC 110900Z 02003KT 15SM SKC M04/M06 A3017 RMK SLP270

CYYC;2008-04-11 10:00;CYYC 111000Z 00000KT 15SM BKN210 BKN250 M04/M05 A3018 RMK CI3CI0 SLP274

CYYC;2008-04-11 11:00;CYYC 111100Z 00000KT 15SM FEW170 BKN210 M07/M07 A3019 RMK AC1CI2 SLP276

CYYC;2008-04-11 12:00;CYYC 111200Z 35003KT 15SM SCT170 OVC210 01/M07 A3020 RMK AC3CI3 SNOW COVER/MUCH LOOSE SLP270

CYYC;2008-04-11 13:00;CYYC 111300Z 34003KT 20SM BKN170 OVC220 01/M08 A3020 RMK AC5CI3 SLP272

CYYC;2008-04-11 14:00;CYYC 111400Z 32004KT 40SM FEW041 BKN180 BKN220 01/M08 A3022 RMK CU1AC7CI1 SLP277

CYYC;2008-04-11 15:00;CYYC 111500Z 05003KT 40SM FEW041 BKN180 BKN220 00/M07 A3024 RMK CU1AC6CI1 SLP286

CYYC;2008-04-11 16:00;CYYC 111600Z 08005KT 40SM FEW041 SCT160 BKN230 01/M06 A3025 RMK CU1AC2CI2 SLP288

CYYC;2008-04-11 17:00;CYYC 111700Z 09003KT 40SM FEW042 FEW220 03/M05 A3025 RMK CU1CI2 SLP288

CYYC;2008-04-11 18:00;CYYC 111800Z 12004KT 40SM FEW042 FEW220 05/M05 A3023 RMK CU1CI1 SLP278

CYYC;2008-04-11 19:00;CYYC 111900Z 13009KT 40SM FEW042 FEW220 04/M02 A3022 RMK CU1CI1 SLP274

CYYC;2008-04-11 20:00;CYYC 112000Z 13008KT 40SM FEW042 FEW220 05/M05 A3021 RMK CU1CI1 SLP271

CYYC;2008-04-11 21:00;CYYC 112100Z 14011KT 40SM FEW045 FEW080 FEW220 06/M04 A3019 RMK CU1AC1CI0 SLP268

CYYC;2008-04-11 22:00;CYYC 112200Z 14009KT 40SM FEW082 FEW220 07/M05 A3018 RMK AC1CI1 SLP266

CYYC;2008-04-11 23:00;CYYC 112300Z 14008KT 40SM FEW082 FEW240 08/M04 A3017 RMK AC1CI0 SLP262

CYYC;2008-04-12 00:00;CYYC 120000Z 18009KT 40SM FEW086 SCT220 SCT250 09/M04 A3016 RMK AC1CC1CI0 SLP247

CYYC;2008-04-12 01:00;CYYC 120100Z CCA 27014KT 40SM FEW085 FEW160 SCT210 10/M06 A3017 RMK AC1AC1CI0 ACSL W SLP248

CYYC;2008-04-12 02:00;CYYC 120200Z 26008KT 40SM FEW085 FEW160 BKN250 09/M06 A3017 RMK AC1AC1CI1 SLP248

CYYC;2008-04-12 03:00;CYYC 120300Z 31005KT 15SM FEW085 SCT250 08/M05 A3019 RMK AC1CI1 SLP259

CYYC;2008-04-12 04:00;CYYC 120400Z 28006KT 15SM FEW250 06/M05 A3021 RMK CI1 CI TR SLP265

CYYC;2008-04-12 05:00;CYYC 120500Z 31006KT 15SM FEW240 05/M05 A3021 RMK CI1 SLP267

CYYC;2008-04-12 06:00;CYYC 120600Z 32008KT 15SM SKC 03/M05 A3022 RMK SLP269

CYYC;2008-04-12 07:00;CYYC 120700Z 32002KT 15SM SKC 01/M05 A3023 RMK SLP273

CYYC;2008-04-12 08:00;CYYC 120800Z 30005KT 15SM SKC 02/M06 A3024 RMK SLP276

CYYC;2008-04-12 09:00;CYYC 120900Z 35006KT 15SM SKC 01/M05 A3024 RMK SLP280

CYYC;2008-04-12 10:00;CYYC 121000Z 32003KT 15SM SKC M00/M05 A3025 RMK SLP281

CYYC;2008-04-12 11:00;CYYC 121100Z 03002KT 15SM SCT220 M01/M04 A3025 RMK CI2 SLP282

CYYC;2008-04-12 12:00;CYYC 121200Z 00000KT 15SM FEW240 M02/M04 A3025 RMK CI0 SNOW COVER/MUCH LOOSE SLP283

CYYC;2008-04-12 13:00;CYYC 121300Z 29002KT 40SM FEW250 M01/M04 A3027 RMK CI0 SLP289

CYYC;2008-04-12 14:00;CYYC 121400Z 18005KT 40SM FEW120 FEW250 M00/M04 A3028 RMK AC1CI1 SLP291

CYYC;2008-04-12 15:00;CYYC 121500Z 21007KT 40SM FEW120 FEW250 05/M03 A3028 RMK AC1CI1 SLP286

CYYC;2008-04-12 16:00;CYYC 121600Z 19005KT 40SM FEW120 FEW250 08/M03 A3029 RMK AC1CI1 SLP288

CYYC;2008-04-12 17:00;CYYC 121700Z 18004KT 40SM FEW160 FEW250 10/M00 A3028 RMK AC1CI0 SLP285

CYYC;2008-04-12 18:00;CYYC 121800Z 16008KT 40SM BKN091 11/M01 A3027 RMK AC4 SLP281

CYYC;2008-04-12 19:00;CYYC 121900Z 14008KT 40SM FEW094 FEW250 13/M01 A3026 RMK AC1CI0 SLP276

CYYC;2008-04-12 20:00;CYYC 122000Z 13008KT 40SM FEW096 FEW120 FEW260 15/M01 A3025 RMK AC1AC1CI0 SLP272

CYYC;2008-04-12 21:00;CYYC 122100Z 13009KT 40SM FEW100 FEW140 FEW260 16/M01 A3024 RMK AC1AC1CI0 ACSL E + N SLP266

CYYC;2008-04-12 22:00;CYYC 122200Z 11007KT 40SM FEW100 FEW140 BKN260 16/M01 A3023 RMK AC1AC1CI0 ACSL N SLP261

CYYC;2008-04-12 23:00;CYYC 122300Z 14009KT 40SM FEW100 SCT260 17/M00 A3019 RMK AC1CI1 SLP251

CYYC;2008-04-13 00:00;CYYC 130000Z 14010KT 40SM FEW100 FEW240 17/M01 A3019 RMK AC1CI1 SLP249

CYYC;2008-04-13 01:00;CYYC 130100Z 14010KT 40SM FEW240 16/M00 A3016 RMK CI0 SLP242

CYYC;2008-04-13 02:00;CYYC 130200Z 14010KT 40SM FEW240 15/M00 A3015 RMK CI0 SLP237

CYYC;2008-04-13 03:00;CYYC 130300Z 16010KT 15SM FEW240 12/M01 A3014 RMK CI0 SLP230

CYYC;2008-04-13 04:00;CYYC 130400Z 18008KT 15SM SKC 11/M01 A3014 RMK SLP230

CYYC;2008-04-13 05:00;CYYC 130500Z 17007KT 15SM SKC 09/M02 A3012 RMK SLP223

CYYC;2008-04-13 06:00;CYYC 130600Z 18006KT 15SM SKC 08/M02 A3009 RMK SLP208

CYYC;2008-04-13 07:00;CYYC 130700Z 17003KT 15SM SKC 06/M02 A3006 RMK SLP200

CYYC;2008-04-13 08:00;CYYC 130800Z 20006KT 15SM SKC 07/M01 A3004 RMK SLP192

CYYC;2008-04-13 09:00;CYYC 130900Z 20006KT 15SM SKC 05/M01 A3001 RMK SLP181

CYYC;2008-04-13 10:00;CYYC 131000Z 20006KT 15SM SKC 05/M01 A2999 RMK SLP173

CYYC;2008-04-13 11:00;CYYC 131100Z 20005KT 15SM SKC 03/M01 A2997 RMK SLP167

CYYC;2008-04-13 12:00;CYYC 131200Z CCA 22002KT 15SM OVC240 04/M01 A2995 RMK CI4 SLP158

CYYC;2008-04-13 13:00;CYYC 131300Z 24002KT 40SM FEW180 BKN240 03/M01 A2994 RMK AC2CI3 SLP156

CYYC;2008-04-13 14:00;CYYC 131400Z 22005KT 40SM FEW190 BKN240 06/M01 A2994 RMK AC1CI6 ACSL W SLP154

CYYC;2008-04-13 15:00;CYYC 131500Z 23004KT 40SM FEW190 BKN240 07/M01 A2994 RMK AC1CI6 ACSL W SLP156

CYYC;2008-04-13 16:00;CYYC 131600Z 20004KT 40SM FEW100 BKN230 10/00 A2993 RMK AC1CI6 SLP153

CYYC;2008-04-13 17:00;CYYC 131700Z 18007KT 40SM FEW080 BKN230 14/M01 A2991 RMK AC1CI6 SLP147

CYYC;2008-04-13 18:00;CYYC 131800Z 18011KT 40SM FEW045 FEW170 BKN230 17/M01 A2989 RMK CF1AC2CI4 SLP131

CYYC;2008-04-13 19:00;CYYC 131900Z 20007KT 40SM FEW048 FEW170 BKN230 17/M03 A2987 RMK CF1AC1CI5 SLP126

CYYC;2008-04-13 20:00;CYYC 132000Z 18006KT 40SM FEW048 FEW160 BKN240 18/M03 A2985 RMK CF1AC1CI4 ACSL N-S SLP120

CYYC;2008-04-13 21:00;CYYC 132100Z 16007KT 40SM FEW048 SCT220 BKN240 19/M03 A2982 RMK CU1CI3CC1 SLP110

CYYC;2008-04-13 22:00;CYYC 132200Z 27009G16KT 40SM FEW050 SCT220 BKN240 22/M05 A2979 RMK CU1CI3CC1 SLP100

CYYC;2008-04-13 23:00;CYYC 132300Z 25012G18KT 40SM FEW060 FEW200 FEW240 23/M04 A2977 RMK CU1CI1CC1 SLP095

CYYC;2008-04-14 00:00;CYYC 140000Z 25012G18KT 40SM FEW070 FEW200 FEW240 21/M04 A2975 RMK CU1CI1CC1 SLP081

CYYC;2008-04-14 01:00;CYYC 140100Z 26012KT 30SM FEW065 FEW200 SCT240 21/M03 A2972 RMK CU1CC1CI1 SLP074

CYYC;2008-04-14 02:00;CYYC 140200Z 20006KT 30SM FEW180 BKN250 19/M03 A2970 RMK AC1CI2 SLP068

CYYC;2008-04-14 03:00;CYYC 140300Z 23005KT 15SM FEW180 BKN250 16/M02 A2970 RMK AC1CI2 SLP067

CYYC;2008-04-14 04:00;CYYC 140400Z CCA 20007KT 15SM FEW150 FEW250 14/M02 A2968 RMK AC1CI1 AC TR SLP063

CYYC;2008-04-14 05:00;CYYC 140500Z 19005KT 15SM SKC 12/M02 A2968 RMK SLP063

CYYC;2008-04-14 06:00;CYYC 140600Z 02019G27KT 15SM SCT170 06/M01 A2970 RMK AC2 SLP069

CYYC;2008-04-14 07:00;CYYC 140700Z 35014G20KT 15SM FEW120 05/M04 A2975 RMK AC2 SLP083

CYYC;2008-04-14 08:00;CYYC 140800Z 36011KT 15SM FEW120 03/M04 A2973 RMK AC2 SLP077

CYYC;2008-04-14 09:00;CYYC 140900Z 33013KT 15SM FEW120 02/M05 A2973 RMK AC0 SLP082

CYYC;2008-04-14 10:00;CYYC 141000Z CCA 33014KT 15SM FEW120 FEW250 01/M04 A2972 RMK AC1CI0 SLP079

CYYC;2008-04-14 11:00;CYYC 141100Z 34008KT 15SM FEW120 FEW250 M00/M04 A2971 RMK AC1CI0 SLP075

CYYC;2008-04-14 12:00;CYYC 141200Z 34008KT 15SM FEW120 FEW220 M00/M05 A2970 RMK AC1CI0 SLP071

CYYC;2008-04-14 13:00;CYYC 141300Z 32003KT 20SM FEW120 BKN220 M01/M04 A2967 RMK AC1CI2 SLP063

CYYC;2008-04-14 14:00;CYYC 141400Z 33005KT 40SM FEW140 BKN240 01/M04 A2967 RMK AC2CI1 SLP062

CYYC;2008-04-14 15:00;CYYC 141500Z 34012KT 20SM BKN049 BKN100 OVC220 03/M03 A2967 RMK SC5AC2CI1 SLP064

CYYC;2008-04-14 16:00;CYYC 141600Z 36009KT 20SM BKN049 OVC210 04/M03 A2965 RMK SC6CI1 SLP059

CYYC;2008-04-14 17:00;CYYC 141700Z CCA 34007KT 5SM -SHSN BKN021 OVC033 03/M02 A2964 RMK SC6SC2 CVCTV CLD EMBD SLP055

CYYC;2008-04-14 17:33;CYYC 141733Z 26004KT 15SM SCT040 BKN065 OVC083 05/ RMK SC3SC2AC2

CYYC;2008-04-14 18:00;CYYC 141800Z 10002KT 15SM FEW045 BKN081 05/M03 A2961 RMK SC1AC6 SLP055

CYYC;2008-04-14 19:00;CYYC 141900Z 30002KT 15SM BKN072 OVC120 06/M02 A2960 RMK AC7AC1 SH DIST SW SLP050

CYYC;2008-04-14 20:00;CYYC 142000Z 11006KT 10SM BKN043 BKN048 OVC090 07/M02 A2955 RMK SC6SC2AC1 SH DIST SW SLP036

CYYC;2008-04-14 21:00;CYYC 142100Z 12003KT 10SM BKN063 BKN071 OVC120 07/M02 A2955 RMK SC5AC2AC1 SH DIST SW SLP034

CYYC;2008-04-14 22:00;CYYC 142200Z 14009KT 15SM FEW080 BKN140 09/M02 A2951 RMK AC2AC4 SLP022

CYYC;2008-04-14 23:00;CYYC 142300Z 12007KT 20SM SCT055 BKN150 09/M02 A2949 RMK SC2AC2 SLP017

CYYC;2008-04-15 00:00;CYYC 150000Z 08006KT 20SM SCT077 BKN082 BKN220 09/M02 A2946 RMK AC3AC2CI0 VIRGA S-W SLP007

CYYC;2008-04-15 01:00;CYYC 150100Z 04007KT 15SM SCT079 BKN086 08/M02 A2946 RMK AC4AC2 SH DIST S-W SLP005

CYYC;2008-04-15 01:25;CYYC 150125Z 36015KT 8SM -SHRA BKN080 07/ RMK AC6

CYYC;2008-04-15 02:00;CYYC 150200Z 35014KT 10SM -SHRA BKN080 03/02 A2950 RMK AC6 SLP019

CYYC;2008-04-15 03:00;CYYC 150300Z 33008KT 10SM -SHRA BKN080 03/02 A2951 RMK AC6 SLP027

CYYC;2008-04-15 03:37;CYYC 150337Z 33009KT 8SM BKN080 BKN220 02/ RMK AC4CI0

CYYC;2008-04-15 04:00;CYYC 150400Z 34009KT 6SM BR SCT012 BKN080 02/02 A2952 RMK ST3AC2 SLP028

CYYC;2008-04-15 05:00;CYYC 150500Z 36009KT 6SM BR BKN010 BKN080 03/02 A2953 RMK ST5AC2 SLP031

CYYC;2008-04-15 06:00;CYYC 150600Z 32005KT 5SM BR BKN010 BKN050 BKN220 02/01 A2952 RMK ST4SC2CI0 SLP028

CYYC;2008-04-15 07:00;CYYC 150700Z 32006KT 4SM BR FEW010 FEW050 BKN210 01/01 A2952 RMK ST1SC2CI2 SLP028

CYYC;2008-04-15 08:00;CYYC 150800Z 35006KT 3SM BR BKN120 BKN210 00/M00 A2953 RMK AC5CI0 SLP031

CYYC;2008-04-15 09:00;CYYC 150900Z 31003KT 3SM BR BKN100 BKN210 M00/M00 A2953 RMK AC5CI0 SLP033

CYYC;2008-04-15 10:00;CYYC 151000Z 31005KT 4SM BR BKN100 01/01 A2953 RMK AC6 SLP031

CYYC;2008-04-15 11:00;CYYC 151100Z 27004KT 15SM FEW080 BKN100 01/M01 A2953 RMK AC1AC5 SLP033

CYYC;2008-04-15 12:00;CYYC 151200Z 33009KT 15SM FEW080 BKN100 M01/M03 A2956 RMK AC1AC6 SLP039

CYYC;2008-04-15 13:00;CYYC 151300Z 36012KT 15SM FEW008 FEW010 FEW080 FEW250 M01/M02 A2958 RMK SF1SC2AC1CI0 SLP045

CYYC;2008-04-15 13:45;CYYC 151345Z 36009KT 15SM BKN007 BKN012 M02/ RMK SC6SC1

CYYC;2008-04-15 14:00;CYYC 151400Z 35005KT 15SM FEW008 SCT220 M01/M02 A2958 RMK SC1CI1 SLP047

CYYC;2008-04-15 15:00;CYYC 151500Z 32005KT 15SM FEW013 SCT230 01/M02 A2959 RMK SC1CI1 SLP057

CYYC;2008-04-15 16:00;CYYC 151600Z 30003KT 15SM FEW016 SCT170 BKN220 02/M03 A2960 RMK SC1AC2CI2 SLP059

CYYC;2008-04-15 17:00;CYYC 151700Z 00000KT 20SM FEW024 SCT160 BKN200 BKN230 03/M04 A2960 RMK CU1AC2CS1CI2 SLP060

CYYC;2008-04-15 18:00;CYYC 151800Z 22004KT 30SM FEW055 SCT160 BKN210 05/M07 A2959 RMK CU2AC1CI1 SLP054

CYYC;2008-04-15 19:00;CYYC 151900Z 33005KT 20SM SCT058 BKN120 BKN250 05/M06 A2959 RMK CU4AC1CI0 DIST SH ALQDS / CB SW SLP053

CYYC;2008-04-15 20:00;CYYC 152000Z 32018G29KT 20SM BKN051 BKN080 OVC180 04/M06 A2960 RMK SC6AC2AC1 SH ALQDS / TCU EMBD SLP055

CYYC;2008-04-15 21:00;CYYC 152100Z 01008G16KT 30SM FEW058TCU SCT120 BKN220 05/M06 A2961 RMK TCU2AC1CI1 CB NE + SE / SH ALQDS SLP062

CYYC;2008-04-15 22:00;CYYC 152200Z 02017G22KT 30SM FEW046 SCT120 OVC220 04/M03 A2963 RMK SC2AC2CI2 CB E / SH E + S-SW SLP067

CYYC;2008-04-15 23:00;CYYC 152300Z 02013KT 30SM FEW040 FEW080 SCT160 BKN240 04/M04 A2965 RMK SC2AC1AC1CI2 CB S / SH SE-SW + W-NW SLP076

CYYC;2008-04-16 00:00;CYYC 160000Z 35019KT 15SM VCSH BKN042 OVC120 04/M04 A2969 RMK SC6AC2 SH SW SLP094

CYYC;2008-04-16 01:00;CYYC 160100Z 34015KT 12SM BKN043 OVC180 01/M04 A2974 RMK SC7AC1 SH S SLP108

CYYC;2008-04-16 02:00;CYYC 160200Z 34007KT 15SM FEW045 BKN071 OVC087 02/M04 A2977 RMK SC2AC6AC1 SH ALQDS SLP117

CYYC;2008-04-16 03:00;CYYC 160300Z 32007KT 15SM BKN091 OVC110 01/M05 A2979 RMK AC6AS2 VIRGA ALQDS SLP130

CYYC;2008-04-16 04:00;CYYC 160400Z 27005KT 15SM FEW110 FEW240 00/M04 A2982 RMK AC1CI0 SLP139

CYYC;2008-04-16 05:00;CYYC 160500Z 27005KT 15SM FEW098 M00/M04 A2984 RMK AC2 SLP144

CYYC;2008-04-16 06:00;CYYC 160600Z 31005KT 15SM FEW100 M01/M06 A2985 RMK AC1 AC TR SLP146

CYYC;2008-04-16 07:00;CYYC 160700Z CCA 29004KT 15SM FEW140 M02/M07 A2986 RMK AC1 SLP151

CYYC;2008-04-16 08:00;CYYC 160800Z 00000KT 15SM FEW140 M02/M07 A2988 RMK AC1 AC TR SLP157

CYYC;2008-04-16 09:00;CYYC 160900Z 27002KT 15SM FEW140 M02/M07 A2990 RMK AC1 SLP165

CYYC;2008-04-16 10:00;CYYC 161000Z 26003KT 15SM SKC M03/M06 A2990 RMK SLP167

CYYC;2008-04-16 11:00;CYYC 161100Z 21005KT 15SM FEW120 M04/M07 A2990 RMK AC1 AC TR SLP165

CYYC;2008-04-16 12:00;CYYC 161200Z 20006KT 20SM FEW120 FEW250 M00/M08 A2989 RMK AC1CI1 BOTH CLDS TR SLP164

CYYC;2008-04-16 13:00;CYYC 161300Z 20009KT 30SM FEW120 FEW250 M04/M07 A2989 RMK AC1CI1 BOTH CLDS TR SLP163

CYYC;2008-04-16 14:00;CYYC 161400Z 22007KT 40SM FEW043 FEW250 M02/M06 A2989 RMK CU1CI1 SLP163

CYYC;2008-04-16 15:00;CYYC 161500Z 22008KT 40SM FEW045 FEW190 FEW240 M00/M07 A2988 RMK CU1AC1CI1 SLP163

CYYC;2008-04-16 16:00;CYYC 161600Z CCA 23008KT 40SM FEW045 FEW190 BKN240 03/M08 A2988 RMK CU1AC1CI2 SLP163

CYYC;2008-04-16 17:00;CYYC 161700Z 27017KT 40SM FEW050 SCT160 BKN240 05/M09 A2988 RMK CU1AC2CI2 SLP162

CYYC;2008-04-16 18:00;CYYC 161800Z 32008G15KT 40SM FEW065 FEW140 BKN230 06/M11 A2986 RMK CU1AC2CI2 SLP150

CYYC;2008-04-16 19:00;CYYC 161900Z 31004G15KT 40SM FEW070 FEW170 BKN230 08/M09 A2985 RMK CU1AC1CI2 ACSL SW SLP146

CYYC;2008-04-16 20:00;CYYC 162000Z 33006KT 40SM FEW081 SCT160 SCT230 09/M10 A2984 RMK CU2AC1CI1 SLP142

CYYC;2008-04-16 21:00;CYYC 162100Z 00000KT 40SM FEW087 FEW100 SCT140 BKN230 10/M08 A2983 RMK CU2AC1AC1CI1 SLP135

CYYC;2008-04-16 22:00;CYYC 162200Z 02004KT 40SM BKN079 BKN140 11/M07 A2982 RMK CU6AC1 SLP132

CYYC;2008-04-16 23:00;CYYC 162300Z 30005KT 40SM FEW042 SCT075 BKN110 BKN220 11/M07 A2981 RMK CU1AC4AC1CI1 SLP129

CYYC;2008-04-17 00:00;CYYC 170000Z 32004KT 40SM FEW042 SCT079 BKN160 BKN220 11/M07 A2981 RMK CU1AC4AC1CI1 SLP124

CYYC;2008-04-17 01:00;CYYC 170100Z 10005KT 40SM FEW046 BKN084 BKN220 10/M07 A2982 RMK CU1AC5CI0 SLP126

CYYC;2008-04-17 02:00;CYYC 170200Z 34012G19KT 20SM SCT084 BKN093 BKN240 11/M07 A2981 RMK AC2AC2CI1 SLP123

CYYC;2008-04-17 03:00;CYYC 170300Z 27017KT 20SM SCT086 SCT240 08/M07 A2983 RMK AC2CI0 SLP133

CYYC;2008-04-17 04:00;CYYC 170400Z 27018KT 15SM FEW088 07/M06 A2985 RMK AC1 AC TR SLP139

CYYC;2008-04-17 05:00;CYYC 170500Z 27017G22KT 15SM SKC 07/M07 A2985 RMK SLP142

CYYC;2008-04-17 06:00;CYYC 170600Z 26014G21KT 15SM SKC 07/M07 A2986 RMK SLP138

CYYC;2008-04-17 07:00;CYYC 170700Z 27014KT 15SM SKC 07/M07 A2987 RMK SLP141

CYYC;2008-04-17 08:00;CYYC 170800Z 27014KT 15SM SKC 07/M06 A2987 RMK SLP140

CYYC;2008-04-17 09:00;CYYC 170900Z 27011KT 15SM SKC 06/M06 A2986 RMK SLP134

CYYC;2008-04-17 10:00;CYYC 171000Z 26011KT 15SM SKC 06/M06 A2984 RMK SLP129

CYYC;2008-04-17 11:00;CYYC 171100Z 20006KT 15SM SKC 05/M06 A2984 RMK SLP127

CYYC;2008-04-17 12:00;CYYC 171200Z 18009KT 15SM BKN250 03/M06 A2982 RMK CI2 SLP123

CYYC;2008-04-17 12:51;CYYC 171251Z 19010KT 15SM FEW210 BKN250 02/ RMK CI1CI2

CYYC;2008-04-17 13:00;CYYC 171300Z 19009KT 15SM FEW200 BKN250 02/M06 A2980 RMK CS2CI2 SLP118

CYYC;2008-04-17 14:00;CYYC 171400Z CCA 09003KT 30SM FEW040 BKN210 04/M06 A2980 RMK SC1CS6 SLP116

CYYC;2008-04-17 15:00;CYYC 171500Z 17004KT 30SM FEW035 BKN230 04/M06 A2979 RMK CU1CS6 SLP113

CYYC;2008-04-17 16:00;CYYC 171600Z 27019G24KT 30SM FEW050 BKN200 11/M05 A2977 RMK CU1CS6 SLP107

CYYC;2008-04-17 17:00;CYYC 171700Z 27021G29KT 40SM FEW065 OVC220 11/M06 A2976 RMK CU1CS7 SLP105

CYYC;2008-04-17 18:00;CYYC 171800Z 26020G28KT 40SM FEW065 FEW230 13/M06 A2974 RMK CU1CS2 SLP087

CYYC;2008-04-17 19:00;CYYC 171900Z 28018G26KT 40SM FEW075 BKN230 14/M07 A2973 RMK CU1CI2 SLP084

CYYC;2008-04-17 20:00;CYYC 172000Z 27021G28KT 40SM FEW080 BKN210 13/M08 A2972 RMK CU1CS6 SLP083

CYYC;2008-04-17 21:00;CYYC 172100Z 27021G26KT 30SM FEW090 SCT220 BKN310 16/M09 A2971 RMK CU1CS3CI0 SLP074

CYYC;2008-04-17 22:00;CYYC 172200Z 24018KT 30SM FEW090 FEW220 FEW310 16/M08 A2971 RMK CU1CS1CI0 SLP073

CYYC;2008-04-17 23:00;CYYC 172300Z 27017G24KT 30SM FEW090 FEW220 FEW310 15/M09 A2970 RMK CU1CS1CI0 SLP072

CYYC;2008-04-18 00:00;CYYC 180000Z 27015G21KT 20SM FEW090 FEW220 FEW310 15/M12 A2969 RMK CU1CS1CI0 SLP074

CYYC;2008-04-18 01:00;CYYC 180100Z 26017KT 20SM FEW090 FEW220 FEW310 14/M12 A2970 RMK CU1CS1CI0 SLP076

CYYC;2008-04-18 02:00;CYYC 180200Z 31010G17KT 20SM FEW090 SCT130 13/M11 A2972 RMK CU1AC2 SLP081

CYYC;2008-04-18 03:00;CYYC 180300Z 01015KT 20SM FEW080 BKN130 OVC250 09/M10 A2976 RMK CU1AC4CI0 SLP104

CYYC;2008-04-18 04:00;CYYC 180400Z 05005KT 15SM FEW130 BKN210 OVC250 06/M04 A2979 RMK AC2CI3CI1 SLP114

CYYC;2008-04-18 05:00;CYYC 180500Z 04009KT 15SM FEW210 SCT250 04/M05 A2981 RMK CI2CI0 SLP118

CYYC;2008-04-18 06:00;CYYC 180600Z 35005KT 15SM FEW120 FEW250 03/M06 A2982 RMK AC1CI0 SLP119

CYYC;2008-04-18 07:00;CYYC 180700Z 09009KT 15SM BKN240 01/M08 A2981 RMK CI2 SLP116

CYYC;2008-04-18 08:00;CYYC 180800Z 10002KT 15SM BKN230 M01/M08 A2982 RMK CI2 SLP119

CYYC;2008-04-18 09:00;CYYC 180900Z CCB 00000KT 15SM FEW120 BKN240 M01/M09 A2981 RMK AC1CI3 SLP119

CYYC;2008-04-18 10:00;CYYC 181000Z 05006KT 15SM BKN220 M02/M07 A2980 RMK CI4 SLP115

CYYC;2008-04-18 11:00;CYYC 181100Z 06006KT 15SM BKN055 OVC220 M00/M08 A2979 RMK SC6CI2 SLP113

CYYC;2008-04-18 12:00;CYYC 181200Z 06012KT 15SM OVC059 M01/M10 A2980 RMK SC8 SLP116

CYYC;2008-04-18 13:00;CYYC 181300Z 05012KT 30SM OVC062 M01/M10 A2981 RMK SC8 SLP119

CYYC;2008-04-18 14:00;CYYC 181400Z 05009KT 20SM BKN061 OVC070 M01/M09 A2983 RMK SC6AC2 SLP125

CYYC;2008-04-18 15:00;CYYC 181500Z 04010KT 15SM FEW025 OVC043 M01/M09 A2984 RMK SC2SC6 SLP138

CYYC;2008-04-18 16:00;CYYC 181600Z 05011KT 15SM -SN BKN023 OVC037 M00/M08 A2985 RMK SC5SC3 PCPN VRY LGT SLP143

CYYC;2008-04-18 16:12;CYYC 181612Z 05012KT 3SM -SN OVC023 M01/ RMK SC8

CYYC;2008-04-18 16:23;CYYC 181623Z 05012KT 1 1/2SM -SN SCT009 OVC019 M01/ RMK SN2SC2SC5

CYYC;2008-04-18 16:37;CYYC 181637Z 06009KT 3/4SM -SN VV008 M02/ RMK SN8

CYYC;2008-04-18 16:55;CYYC 181655Z 06010KT 1/2SM SN VV006 M02/ RMK SN8

CYYC;2008-04-18 17:00;CYYC 181700Z 05010KT 1/2SM SN VV005 M03/M04 A2986 RMK SN8 SLP146

CYYC;2008-04-18 17:40;CYYC 181740Z 05009KT 5/8SM -SN VV007 M03/ RESN RMK SN8 RVR RWY 34 4500FT

CYYC;2008-04-18 18:00;CYYC 181800Z 04011KT 3/4SM -SN VV007 M02/M03 A2986 RESN RMK SN8 RVR RWY 34 4500FT /S02/ SLP156

CYYC;2008-04-18 18:34;CYYC 181834Z 04006KT 1/2SM SN VV008 M02/ RESN RMK SN8 RVR RWY 34 3000FT /S02/

CYYC;2008-04-18 19:00;CYYC 181900Z 03009KT 1/2SM SN VV007 M02/M02 A2986 RMK SN8 RVR RWY 34 5500FT /S02/ SLP156

CYYC;2008-04-18 19:25;CYYC 181925Z 03008KT 3/4SM -SN OVC008 M02/ RESN RMK SN4SC4 RVR RWY 34 6000FT

CYYC;2008-04-18 20:00;CYYC 182000Z 04010KT 1/2SM SN VV007 M01/M02 A2986 RMK SN8 RVR RWY 34 4000FT /S04/ SLP156

CYYC;2008-04-18 20:39;CYYC 182039Z 05015KT 1/2SM SN VV003 M02/ RMK SN8 RVR RWY 34 2800FT

CYYC;2008-04-18 20:48;CYYC 182048Z 05015KT 1/4SM +SN VV003 M02/ RMK SN8 RVR RWY 34 2600FT

CYYC;2008-04-18 21:00;CYYC 182100Z 04014G20KT 1/4SM +SN DRSN VV004 M02/M02 A2987 RMK SN8 RVR RWY 34 2600FT /S08/ SLP167

CYYC;2008-04-18 21:21;CYYC 182121Z CCA 04017KT 5/8SM -SN DRSN VV008 M02/ RESN RMK SN8 RVR RWY 34 3500FT

CYYC;2008-04-18 22:00;CYYC 182200Z 02021KT 1/2SM SN DRSN VV005 M03/M03 A2989 RMK SN8 RVR RWY 34 2600FT /S10/ SLP173

CYYC;2008-04-18 23:00;CYYC 182300Z 01021G27KT 5/8SM -SN DRSN VV008 M05/M05 A2990 RESN RMK SN8 RVR RWY 34 3000FT /S11/ SLP175

CYYC;2008-04-18 23:25;CYYC 182325Z 01021G27KT 3/4SM -SN DRSN OVC012 M05/ RMK SN4SC3 RVR RWY 34 6000FT

CYYC;2008-04-18 23:35;CYYC 182335Z CCA 02020G27KT 1 1/2SM -SN DRSN FEW009 OVC011 M05/ RMK SN2SF1SC5

CYYC;2008-04-18 23:52;CYYC 182352Z 01018G27KT 1 1/2SM -SN BLSN FEW009 OVC012 M05/ RMK SN2SF1SC6

CYYC;2008-04-19 00:00;CYYC 190000Z 01020KT 2 1/2SM -SN BLSN SCT009 BKN012 OVC016 M05/M06 A2993 RMK SC3SC2SC3 SLP189

CYYC;2008-04-19 00:11;CYYC 190011Z 36021G26KT 1 1/2SM -SN BLSN FEW009 OVC014 M06/ RMK SC2SC6

CYYC;2008-04-19 00:34;CYYC 190034Z 01017G26KT 1 1/2SM -SN BLSN FEW014 OVC023 M06/ RMK SC2SC6

CYYC;2008-04-19 01:00;CYYC 190100Z 36020KT 2SM -SN BLSN FEW014 OVC027 M06/M07 A2995 RMK SC1SC7 SLP195

CYYC;2008-04-19 01:50;CYYC 190150Z 35021KT 1 1/4SM -SN BLSN BKN010 OVC020 M06/ RMK SN2SC5SC1

CYYC;2008-04-19 02:00;CYYC 190200Z 35017G24KT 1 1/4SM -SN BLSN BKN010 OVC028 M07/M08 A2997 RMK SN6SC2SC1 VIS E 5/8 SLP202

CYYC;2008-04-19 02:14;CYYC 190214Z 35019KT 5/8SM -SN BLSN BKN010 OVC025 M07/ RMK SN6SC1SC1 RVR RWY16 6000 FT

CYYC;2008-04-19 03:00;CYYC 190300Z 35017KT 5/8SM -SN BLSN BKN010 OVC025 M07/M08 A3000 RMK SN5SC2SC1 RVR RWY16 6000 FT SLP216

CYYC;2008-04-19 04:00;CYYC 190400Z 35016KT 3/4SM -SN BLSN BKN010 OVC027 M07/M08 A3001 RMK SN4SC2SC2 RVR RWY16 6000 FT SLP221

CYYC;2008-04-19 04:46;CYYC 190446Z 35016KT 1/2SM SN BLSN VV006 M07/ RMK SN8 RVR RWY16 6000 FT

CYYC;2008-04-19 05:00;CYYC 190500Z 34016KT 1/2SM SN DRSN VV006 M07/M08 A3002 REBLSN RMK SN8 /S02/ RVR RWY34 6000 FT SLP223

CYYC;2008-04-19 06:00;CYYC 190600Z 36019G24KT 1/2SM SN BLSN VV006 M08/M09 A3003 RMK SN8 /S03/ RVR RWY16 4500 FT SLP231

CYYC;2008-04-19 06:51;CYYC 190651Z 35016G22KT 3/4SM -SN DRSN BKN008 OVC024 M09/ RESN REBLSN RMK SN6SC1SC1 RVR RW16 6000 FT

CYYC;2008-04-19 07:00;CYYC 190700Z 35017KT 3/4SM -SN DRSN BKN008 OVC024 M09/M09 A3004 RESN REBLSN RMK SN6SC1SC1 RVR RWY16 6000 FT SLP233

CYYC;2008-04-19 07:28;CYYC 190728Z 35017G22KT 1 1/4SM -SN DRSN BKN014 OVC028 M09/ RMK SN4SC3SC1

CYYC;2008-04-19 08:00;CYYC 190800Z 34018KT 1 1/4SM -SN DRSN BKN010 OVC021 M09/M10 A3005 RMK SN4SC3SC1 /S01/ RVR RWY28 4500 FT SLP238

CYYC;2008-04-19 09:00;CYYC 190900Z 35018G24KT 1 1/2SM -SN DRSN BKN011 OVC021 M09/M11 A3005 RMK SN3SC4SC1 SLP240

CYYC;2008-04-19 10:00;CYYC 191000Z CCA 34017KT 2SM -SN DRSN BKN013 OVC037 M10/M11 A3005 RMK SN2SC4SC2 SLP241

CYYC;2008-04-19 11:00;CYYC 191100Z 34016G21KT 2 1/2SM -SN DRSN FEW013 BKN018 OVC037 M10/M12 A3006 RMK SC2SC6SC1 SLP244

CYYC;2008-04-19 12:00;CYYC 191200Z CCA 35018KT 2SM -SN DRSN FEW012 BKN018 OVC025 M11/M12 A3006 RMK SC2SC4SC2 /S04/ SNOW COVER/MUCH LOOSE SLP249

CYYC;2008-04-19 12:14;CYYC 191214Z 34018G24KT 1 1/4SM -SN DRSN BKN008 OVC021 M11/ RMK SN3SC4SC1

CYYC;2008-04-19 12:31;CYYC 191231Z 35019G24KT 5/8SM -SN DRSN BKN008 OVC021 M11/ RMK SN6SC2SC1 RVR RWY16 6000 FT

CYYC;2008-04-19 12:45;CYYC 191245Z 35020G25KT 1SM -SN BKN010 OVC024 M11/ RMK SN4SC3SC1 RVR RWY16 6000 FT

CYYC;2008-04-19 12:50;CYYC 191250Z 35020G25KT 3SM -SN DRSN FEW012 BKN018 OVC052 M11/ RMK SC2SC6SC1

CYYC;2008-04-19 13:00;CYYC 191300Z 35021G26KT 1 3/4SM -SN DRSN SCT012 OVC018 M11/M13 A3006 RMK SN2SC2SC4 SLP251

CYYC;2008-04-19 13:12;CYYC 191312Z 35020G25KT 3SM -SN DRSN BKN018 OVC033 M11/ RMK SC6SC2

CYYC;2008-04-19 13:25;CYYC 191325Z 35020G25KT 1SM -SN DRSN BKN009 OVC023 M11/ RMK SN4SC2SC2 RVR RWY16 6000 FT

CYYC;2008-04-19 14:00;CYYC 191400Z CCB 34017KT 1SM -SN DRSN BKN008 OVC017 M11/M13 A3007 RMK SN2SC4SC2 RVR RWY 16 6000FT SLP254

CYYC;2008-04-19 14:33;CYYC 191433Z 35019KT 3/4SM -SN DRSN VV006 M11/ RMK SN8 RVR RWY 34 6000FT

CYYC;2008-04-19 15:00;CYYC 191500Z 35017KT 3/4SM -SN DRSN VV008 M11/M13 A3008 RMK SN8 RVR RWY 34 6000FT SLP261

CYYC;2008-04-19 16:00;CYYC 191600Z 35016KT 3/4SM -SN DRSN VV007 M11/M13 A3009 RMK SN8 /S01/ RVR RWY 34 5500FT SLP263

CYYC;2008-04-19 16:40;CYYC 191640Z CCA 35016KT 1 1/4SM -SN DRSN OVC012 M11/ RMK SN4SC4 RVR RWY 34 6000FT

CYYC;2008-04-19 17:00;CYYC 191700Z 34017KT 1 1/4SM -SN DRSN OVC011 M11/M13 A3008 RMK SN2SC6 /S02/ SLP262

CYYC;2008-04-19 18:00;CYYC 191800Z CCA 35020KT 1 1/2SM -SN DRSN SCT008 OVC013 M11/M13 A3009 RMK SN2SC2SC2 /S03/ OCNL BLSN SLP265

CYYC;2008-04-19 18:13;CYYC 191813Z 36019KT 2 1/2SM -SN DRSN FEW008 SCT012 BKN021 BKN240 M11/ RMK SF1SC2SC2CI1 OCNL BLSN

CYYC;2008-04-19 19:00;CYYC 191900Z 35016KT 5SM -SN DRSN FEW014 SCT020 BKN078 M11/M13 A3007 RMK SC2SC2AC1 PCPN VRY LGT SLP260

CYYC;2008-04-19 19:24;CYYC 191924Z CCA 36017KT 3SM -SN DRSN SCT006 BKN016 M11/ RMK SC3SC2 VIS S-SW LWR

CYYC;2008-04-19 20:00;CYYC 192000Z 34020G25KT 5SM -SN DRSN FEW006 SCT023 BKN077 M11/M14 A3006 RMK SC2SC2AC2 PCPN VRY LGT SLP255

CYYC;2008-04-19 21:00;CYYC 192100Z 36017KT 5SM -SN DRSN FEW015 SCT023 OVC077 M10/M13 A3006 RMK SC2SC2AC2 PCPN VRY LGT SLP256

CYYC;2008-04-19 21:36;CYYC 192136Z 36018KT 1SM -SN DRSN SCT005 BKN014 OVC017 M10/ RMK SN2SC2SC2SC2

CYYC;2008-04-19 21:47;CYYC 192147Z 36017G24KT 2SM -SN BLSN FEW006 SCT012 OVC018 M10/ RMK SC1SC2SC3

CYYC;2008-04-19 22:00;CYYC 192200Z 36020G25KT 2 1/2SM -SN BLSN FEW012 BKN020 M10/M13 A3005 RMK CU1SC4 SLP252

CYYC;2008-04-19 22:07;CYYC 192207Z 01019G25KT 4SM -SN BLSN FEW010 SCT017 M11/ RMK CU1SC2

CYYC;2008-04-19 23:00;CYYC 192300Z 01016G21KT 6SM -SN BLSN FEW014 FEW023 OVC063 M10/M13 A3005 RMK SC1SC2SC3 SLP252

CYYC;2008-04-19 23:21;CYYC 192321Z 02017KT 2SM -SN BLSN FEW006 BKN015 OVC060 M11/ RMK SC2SC4SC1 VIS S-W 3/4

CYYC;2008-04-19 23:26;CYYC 192326Z 02015KT 4SM -SN BLSN FEW008 BKN018 OVC060 M11/ RMK SF2SC3SC2

CYYC;2008-04-20 00:00;CYYC 200000Z 02016KT 3SM -SN DRSN FEW007 BKN012 OVC026 M11/M13 A3006 RMK SC2SC5SC2 /S01/ OCNL BLSN SLP256

CYYC;2008-04-20 00:36;CYYC 200036Z 02015G20KT 1SM -SN DRSN FEW005 BKN010 OVC026 M11/ RMK SC2SC5SC1 OCNL BLSN / RVR RWY 34 5000FT

CYYC;2008-04-20 00:48;CYYC 200048Z 36015KT 2 1/2SM -SN DRSN BKN009 BKN013 OVC020 M11/ RMK SC5SC2SC1 OCNL BLSN

CYYC;2008-04-20 01:00;CYYC 200100Z 36015KT 4SM -SN DRSN FEW005 BKN015 OVC034 M11/M13 A3005 RMK SF1SC4SC2 OCNL BLSN SLP255

CYYC;2008-04-20 02:00;CYYC 200200Z 02014KT 1 1/2SM -SN DRSN BKN010 OVC023 M11/M13 A3006 RMK SC6SC2 SLP259

CYYC;2008-04-20 02:20;CYYC 200220Z 01013G21KT 1 1/4SM -SN DRSN BKN014 OVC029 M12/ RMK SC6SC2

CYYC;2008-04-20 02:44;CYYC 200244Z 36017KT 2 1/2SM -SN DRSN FEW014 BKN021 OVC038 M12/ RMK SC2SC6SC1

CYYC;2008-04-20 03:00;CYYC 200300Z 36015KT 2 1/2SM -SN DRSN FEW012 BKN020 OVC035 M12/M13 A3006 RMK SC2SC5SC1 SLP262

CYYC;2008-04-20 04:00;CYYC 200400Z 35014KT 2SM -SN DRSN FEW013 BKN024 OVC030 M12/M13 A3007 RMK SC2SC5SC1 SLP265

CYYC;2008-04-20 04:37;CYYC 200437Z 35017KT 1 1/4SM -SN DRSN BKN008 OVC023 M12/ RMK SC5SC3

CYYC;2008-04-20 05:00;CYYC 200500Z 35017KT 1 1/4SM -SN DRSN BKN012 OVC029 M12/M13 A3006 RMK SC5SC3 SLP259

CYYC;2008-04-20 06:00;CYYC 200600Z 35016KT 1 1/4SM -SN DRSN BKN014 OVC031 M12/M13 A3004 RMK SC6SC2 /S01/ SLP253

CYYC;2008-04-20 07:00;CYYC 200700Z 35018KT 4SM -SN DRSN BKN020 BKN037 OVC100 M12/M14 A3002 RMK SC5SC2AC2 SLP246

CYYC;2008-04-20 08:00;CYYC 200800Z 34017KT 5SM -SN DRSN FEW037 BKN048 OVC100 M12/M14 A3001 RMK SC2SC5AC2 SLP243

CYYC;2008-04-20 09:00;CYYC 200900Z 34016G22KT 3SM -SN DRSN BKN027 OVC049 M12/M14 A3000 RMK SC6SC2 SLP237

CYYC;2008-04-20 10:00;CYYC 201000Z 33017KT 3SM -SN DRSN BKN055 OVC084 M12/M14 A2998 RMK SC6AC2 SLP231

CYYC;2008-04-20 11:00;CYYC 201100Z 33017KT 3SM -SN DRSN BKN027 OVC048 M12/M14 A2996 RMK SC5SC3 SLP225

CYYC;2008-04-20 12:00;CYYC 201200Z CCA 33019G24KT 3SM -SN DRSN BKN023 OVC043 M12/M14 A2993 RMK SC6SC2 /S01/ SNOW COVER/MUCH LOOSE SLP213

CYYC;2008-04-20 12:38;CYYC 201238Z 33019G25KT 1 1/2SM -SN DRSN BKN014 OVC032 M12/ RMK SC5SC3

CYYC;2008-04-20 13:00;CYYC 201300Z 33018G24KT 1 1/2SM -SN DRSN BKN012 OVC029 M12/M14 A2994 RMK SC6SC2 OCNL BLSN SLP217

CYYC;2008-04-20 13:10;CYYC 201310Z CCA 33019G24KT 1SM -SN DRSN BKN011 OVC026 M12/ RMK SC6SC2 OCNL BLSN/ RVR RWY16 6000 FT

CYYC;2008-04-20 13:24;CYYC 201324Z 33019G24KT 3/4SM -SN DRSN BKN010 OVC025 M12/ RMK SN3SC3SC2 RVR RWY6000 FT/ OCNL BLSN

CYYC;2008-04-20 13:41;CYYC 201341Z 33020KT 1 1/2SM -SN DRSN OVC011 M12/ RMK SN2SC6 OCNL BLSN

CYYC;2008-04-20 14:00;CYYC 201400Z 33018KT 1 1/2SM -SN DRSN OVC012 M12/M14 A2994 RMK SN2SC6 OCNL BLSN SLP217

CYYC;2008-04-20 14:24;CYYC 201424Z 33021KT 3/4SM -SN DRSN OVC009 M12/ RMK SN3SC5

CYYC;2008-04-20 15:00;CYYC 201500Z 33018G25KT 1SM -SN BLSN OVC012 M12/M14 A2993 RMK SN4SC4 SLP216

CYYC;2008-04-20 15:16;CYYC 201516Z 32019G24KT 1 1/2SM -SN BLSN OVC011 M12/ RMK SN2SC6

CYYC;2008-04-20 15:47;CYYC 201547Z CCA 32021KT 1SM -SN BLSN OVC008 M12/ RMK SN2SC5 RVR RWY 34 6000FT

CYYC;2008-04-20 16:00;CYYC 201600Z 32022G27KT 1SM -SN BLSN OVC008 M12/M13 A2993 RMK SN2SC5 /S02/ RVR RWY 34 6000FT SLP217

CYYC;2008-04-20 16:17;CYYC 201617Z 32022KT 4SM -SN BLSN FEW010 BKN013 OVC022 M11/ RMK SC2SC3SC2

CYYC;2008-04-20 16:43;CYYC 201643Z 33022KT 6SM -SN BLSN FEW013 FEW019 BKN045 OVC210 M11/ RMK SF1SC2SC2CI2

CYYC;2008-04-20 17:00;CYYC 201700Z 34025G30KT 6SM -SN BLSN FEW012 BKN022 OVC210 M11/M14 A2991 RMK SC2SC3CS1 SLP211

CYYC;2008-04-20 18:00;CYYC 201800Z CCA 33022G28KT 6SM -SN BLSN FEW012 SCT023 BKN034 OVC210 M10/M14 A2991 RMK SC1SC2SC2CS2 SLP207

CYYC;2008-04-20 19:00;CYYC 201900Z 33022G27KT 6SM -SN BLSN FEW017 BKN030 OVC220 M09/M13 A2991 RMK SC1SC4CI2 SLP207

CYYC;2008-04-20 19:36;CYYC 201936Z 34025G32KT 12SM DRSN FEW018 SCT028 BKN072 OVC220 M09/ REBLSN RMK SC1SC2AC2CI1 HVY DRSN

CYYC;2008-04-20 20:00;CYYC 202000Z 33022G28KT 15SM DRSN FEW017 SCT024 BKN062 BKN220 M09/M13 A2990 REBLSN RMK SF1SC2SC2CI0 HVY DRSN SLP203

CYYC;2008-04-20 21:00;CYYC 202100Z 33023KT 15SM DRSN FEW024 SCT045 BKN076 OVC220 M08/M12 A2991 RMK SF2SC2AC1CI1 SLP202

CYYC;2008-04-20 22:00;CYYC 202200Z 34021KT 15SM DRSN FEW026 FEW038 OVC230 M08/M12 A2989 RMK SF1SC2CI3 SLP198

CYYC;2008-04-20 23:00;CYYC 202300Z 36020KT 15SM DRSN FEW026 FEW037 SCT110 OVC220 M08/M12 A2991 RMK SF1SC2AC2CS2 SLP202

CYYC;2008-04-21 00:00;CYYC 210000Z 36021KT 15SM FEW024 SCT065 OVC220 M07/M11 A2991 RMK SF1SC4CS2 OCNL DRSN SLP203

CYYC;2008-04-21 01:00;CYYC 210100Z 36017KT 15SM SCT054 OVC210 M08/M11 A2993 RMK SC3CI3 SLP208

CYYC;2008-04-21 02:00;CYYC 210200Z 36017G22KT 15SM FEW040 BKN070 BKN100 M08/M12 A2992 RMK SC1AC5AC1 SC TR SLP207

CYYC;2008-04-21 03:00;CYYC 210300Z 35018G26KT 15SM FEW040 BKN070 BKN150 M09/M13 A2994 RMK SC1AC4AC2 SC TR SLP215

CYYC;2008-04-21 04:00;CYYC 210400Z 33012KT 15SM FEW040 BKN070 BKN150 M09/M13 A2997 RMK SC1AC5AC1 SLP224

CYYC;2008-04-21 05:00;CYYC 210500Z 33017KT 15SM FEW030 BKN080 OVC120 M10/M14 A2996 RMK SC1AC5AC2 SLP221

CYYC;2008-04-21 06:00;CYYC 210600Z 33013G18KT 15SM FEW030 OVC080 M10/M13 A2995 RMK SC1AC7 SLP217

CYYC;2008-04-21 07:00;CYYC 210700Z 32014KT 15SM OVC050 M10/M15 A2993 RMK SC8 SLP212

CYYC;2008-04-21 08:00;CYYC 210800Z 33017KT 10SM OVC053 M10/M15 A2991 RMK SC8 SLP205

CYYC;2008-04-21 09:00;CYYC 210900Z 32021KT 15SM OVC045 M10/M16 A2989 RMK SC8 SLP195

CYYC;2008-04-21 10:00;CYYC 211000Z 32017KT 15SM OVC045 M10/M16 A2989 RMK SC8 SLP193

CYYC;2008-04-21 11:00;CYYC 211100Z 32015KT 15SM OVC045 M10/M16 A2990 RMK SC8 SLP196

CYYC;2008-04-21 12:00;CYYC 211200Z CCA 31010G16KT 7SM OVC025 M10/M14 A2989 RMK SC8 SNOW CVR/MUCH LOOSE SLP192

CYYC;2008-04-21 12:22;CYYC 211222Z 30008KT 2 1/2SM -SN OVC020 M11/ RMK SC8

CYYC;2008-04-21 13:00;CYYC 211300Z 30010KT 3SM -SN OVC030 M10/M13 A2987 RMK SC8 SLP188

CYYC;2008-04-21 14:00;CYYC 211400Z 29011KT 3SM -SN BKN021 OVC036 M10/M13 A2986 RMK SC7SC1 VIS S 2 SLP184

CYYC;2008-04-21 14:35;CYYC 211435Z 27010KT 1 3/4SM -SN BKN017 OVC033 M10/ RMK SC7SC1

CYYC;2008-04-21 15:00;CYYC 211500Z 30013KT 2 1/2SM -SN BKN020 OVC033 M10/M13 A2984 RMK SC6SC2 SLP176

CYYC;2008-04-21 15:24;CYYC 211524Z 29011G16KT 4SM -SN DRSN BKN022 OVC032 M09/ RMK SC6SC2

CYYC;2008-04-21 16:00;CYYC 211600Z 29009KT 5SM -SN BKN022 OVC035 M09/M13 A2982 RMK SC6SC2 SLP170

CYYC;2008-04-21 16:31;CYYC 211631Z 27006KT 1 3/4SM -SN BKN015 OVC026 M09/ RMK SC6SC2

CYYC;2008-04-21 17:00;CYYC 211700Z 25009KT 2SM -SN BKN020 OVC031 M09/M11 A2980 RMK SC6SC2 SLP165

CYYC;2008-04-21 18:00;CYYC 211800Z 24008KT 4SM -SN BKN022 OVC032 M08/M11 A2978 RMK SC7SC1 SLP155

CYYC;2008-04-21 19:00;CYYC 211900Z 23003KT 5SM -SN BKN017 OVC034 M08/M12 A2977 RMK SC6SC2 SLP150

CYYC;2008-04-21 20:00;CYYC 212000Z 18005KT 8SM -SN OVC024 M07/M11 A2976 RMK SC8 SLP147

CYYC;2008-04-21 20:24;CYYC 212024Z 16011KT 2SM -SN BKN012 OVC022 M08/ RMK SC6SC2

CYYC;2008-04-21 21:00;CYYC 212100Z 17013KT 2 1/2SM -SN DRSN BKN014 OVC022 M08/M10 A2975 RMK SC5SC3 VIS S 4 SLP145

CYYC;2008-04-21 21:24;CYYC 212124Z 20011KT 4SM -SN DRSN BKN019 OVC026 M08/ RMK SC6SC2

CYYC;2008-04-21 22:00;CYYC 212200Z 19011KT 7SM -SN BKN030 OVC041 M07/M11 A2975 RMK SC7SC1 SLP143

CYYC;2008-04-21 23:00;CYYC 212300Z 18008KT 3SM -SN BKN015 OVC027 M08/M10 A2975 RMK SC6SC2 VIS S 2 MILES SLP145

CYYC;2008-04-21 23:03;CYYC 212303Z 17009KT 1 3/4SM -SN BKN014 OVC027 M08/ RMK SC6SC2

CYYC;2008-04-21 23:42;CYYC 212342Z 19006KT 3/4SM -SN BKN009 OVC017 M08/ RMK SN3SC3SC2 VIS S-W 5/8

CYYC;2008-04-22 00:00;CYYC 220000Z CCA 19007KT 5/8SM -SN BKN007 OVC018 M08/M09 A2976 RMK SN5SC2SC1 /S01/ RVR RWY16 4500 FT SLP150

CYYC;2008-04-22 00:16;CYYC 220016Z 19008KT 1/2SM SN BKN005 OVC017 M08/ RMK SN6SC1SC1 RVR RWY34 3500 FT

CYYC;2008-04-22 00:43;CYYC 220043Z 18006KT 1SM -SN BKN009 OVC024 M08/ RESN RMK SN4SC3SC1 RVR RWY34 5000 FT

CYYC;2008-04-22 01:00;CYYC 220100Z 18008KT 1 3/4SM -SN BKN009 BKN014 OVC025 M08/M09 A2977 RESN RMK SC5SC2SC1 SLP151

CYYC;2008-04-22 02:00;CYYC 220200Z CCA 19006KT 1SM -SN OVC013 M08/M09 A2977 RMK ST8 RVR RWY16 4000FT SLP153

CYYC;2008-04-22 03:00;CYYC 220300Z 29003KT 3SM -SN OVC017 M08/M09 A2978 RMK SC8 SLP155

CYYC;2008-04-22 03:14;CYYC 220314Z 29002KT 2 1/2SM -SN OVC020 M08/ RMK SC8

CYYC;2008-04-22 03:30;CYYC 220330Z 35008KT 1SM -SN BKN007 OVC020 M08/ RMK SC6SC2 RVR RWY34 6000 FT

CYYC;2008-04-22 04:00;CYYC 220400Z 36007KT 1 1/2SM -SN BKN014 OVC025 M09/M09 A2980 RMK SC4SC4 SLP159

CYYC;2008-04-22 05:00;CYYC 220500Z 03004KT 1 1/2SM -SN BKN008 OVC020 M09/M10 A2980 RMK SC6SC2 SLP160

CYYC;2008-04-22 06:00;CYYC 220600Z 32004KT 2 1/2SM -SN OVC010 M09/M10 A2980 RMK SC8 /S01/ SLP161

CYYC;2008-04-22 07:00;CYYC 220700Z 29005KT 3SM -SN SCT010 OVC035 M09/M11 A2980 RMK SC2SC5 SLP160

CYYC;2008-04-22 08:00;CYYC 220800Z 30014G19KT 8SM DRSN FEW010 SCT035 OVC100 M08/M11 A2979 RMK CF1SC3AC3 SLP158

CYYC;2008-04-22 09:00;CYYC 220900Z 27010KT 8SM DRSN FEW010 SCT035 OVC100 M09/M11 A2979 RMK CF1SC3AC3 SLP158

CYYC;2008-04-22 10:00;CYYC 221000Z 24009KT 8SM BKN050 M09/M11 A2979 RMK SC6 SLP157

CYYC;2008-04-22 11:00;CYYC 221100Z 23009KT 8SM BKN050 M09/M11 A2979 RMK SC6 SLP158

CYYC;2008-04-22 12:00;CYYC 221200Z CCA 22009KT 10SM OVC040 M09/M11 A2980 RMK SC7 SNOW CVR/MUCH LOOSE SLP159

CYYC;2008-04-22 12:29;CYYC 221229Z 23009KT 8SM -SN OVC033 M09/ RMK SC8

CYYC;2008-04-22 13:00;CYYC 221300Z 23009KT 5SM -SN OVC025 M09/M11 A2982 RMK SC8 SLP165

CYYC;2008-04-22 14:00;CYYC 221400Z 22007KT 6SM -SN FEW025 SCT038 BKN044 OVC210 M09/M11 A2983 RMK SC2SC1SC2CS1 SLP169

CYYC;2008-04-22 15:00;CYYC 221500Z 23008KT 10SM -SN FEW025 SCT035 OVC160 M08/M10 A2984 RMK SC2SC1AS3 SLP172

CYYC;2008-04-22 15:47;CYYC 221547Z 28003KT 2SM -SN BKN015 OVC019 M08/ RMK SC6SC2

CYYC;2008-04-22 16:00;CYYC 221600Z 27004KT 3SM -SN FEW012 BKN015 OVC150 M07/M09 A2985 RMK SF1SC5AS2 SLP175

CYYC;2008-04-22 16:38;CYYC 221638Z 30005KT 2SM -SN FEW012 BKN015 OVC150 M07/ RMK SC2SC3AS2

CYYC;2008-04-22 16:46;CYYC 221646Z 31005KT 1 1/2SM -SN SCT008 BKN010 OVC150 M07/ RMK SC3SC2AS2

CYYC;2008-04-22 17:00;CYYC 221700Z 32004KT 3SM -SN FEW009 SCT016 BKN020 OVC140 M07/M08 A2986 RMK SF1SC2SC2AS2 SLP178

CYYC;2008-04-22 18:00;CYYC 221800Z 32005KT 5SM -SN FEW008 FEW021 BKN040 BKN140 OVC200 M06/M08 A2988 RMK SF1SC2SC2AS1CS1 SLP185

CYYC;2008-04-22 19:00;CYYC 221900Z CCA 26004KT 20SM -SN FEW016 BKN021 BKN160 OVC210 M04/M08 A2989 RMK SC1SC4AS2CS1 PCPN VRY LGT SLP190

CYYC;2008-04-22 20:00;CYYC 222000Z 01006KT 3SM -SN FEW012 OVC019 M04/M06 A2993 RMK SC2SC6 SLP200

CYYC;2008-04-22 21:00;CYYC 222100Z 34010KT 15SM FEW036 BKN064 OVC160 M02/M08 A2994 RMK SC2SC4AS2 SLP199

CYYC;2008-04-22 22:00;CYYC 222200Z 36010KT 30SM FEW033 FEW076 FEW120 BKN220 M01/M13 A2994 RMK SC1AC2AC1CS4 SLP200

CYYC;2008-04-22 23:00;CYYC 222300Z 04013KT 25SM FEW058 FEW150 BKN240 M01/M11 A2995 RMK SC1AS1CI2 SLP204

CYYC;2008-04-23 00:00;CYYC 230000Z 02010KT 20SM FEW034 FEW077 FEW110 SCT240 M02/M11 A2997 RMK SC1AC1AC1CI2 SLP210

CYYC;2008-04-23 01:00;CYYC 230100Z 07006KT 20SM SCT046 SCT074 BKN240 M02/M11 A2999 RMK SC2AC1CI2 SLP218

CYYC;2008-04-23 02:00;CYYC 230200Z 09003KT 20SM SCT050 BKN080 BKN220 M03/M12 A3001 RMK SC2AC1CI2 SLP223

CYYC;2008-04-23 03:00;CYYC 230300Z 00000KT 15SM FEW050 FEW085 OVC220 M04/M12 A3002 RMK SC1AC2CI6 SLP230

CYYC;2008-04-23 04:00;CYYC 230400Z 00000KT 15SM FEW090 OVC200 M04/M12 A3004 RMK AC2CI6 SLP234

CYYC;2008-04-23 05:00;CYYC 230500Z 05002KT 15SM OVC057 M04/M10 A3005 RMK SC8 SLP237

CYYC;2008-04-23 06:00;CYYC 230600Z 07003KT 15SM OVC057 M04/M09 A3005 RMK SC8 SLP237

CYYC;2008-04-23 07:00;CYYC 230700Z 10003KT 15SM OVC076 M05/M10 A3005 RMK AC8 SLP239

CYYC;2008-04-23 08:00;CYYC 230800Z 07005KT 15SM FEW058 OVC076 M05/M09 A3004 RMK SC2AC6 SLP235

CYYC;2008-04-23 09:00;CYYC 230900Z 12004KT 15SM OVC052 M05/M10 A3003 RMK SC8 SLP224

CYYC;2008-04-23 10:00;CYYC 231000Z 13004KT 15SM OVC049 M05/M10 A3002 RMK SC8 SLP221

CYYC;2008-04-23 11:00;CYYC 231100Z 12006KT 15SM OVC048 M05/M10 A3001 RMK SC8 SLP218

CYYC;2008-04-23 12:00;CYYC 231200Z 14009KT 15SM OVC048 M05/M11 A2999 RMK SC8 SNOW COVER/MUCH LOOSE SLP213

CYYC;2008-04-23 13:00;CYYC 231300Z 14008KT 15SM OVC049 M05/M11 A2997 RMK SC8 SLP208

CYYC;2008-04-23 14:00;CYYC 231400Z 15008KT 15SM FEW015 OVC051 M05/M09 A2997 RMK SF1SC8 SLP208

CYYC;2008-04-23 15:00;CYYC 231500Z 16010G15KT 15SM OVC054 M05/M08 A2996 RMK SC8 SLP205

CYYC;2008-04-23 16:00;CYYC 231600Z 18014KT 15SM FEW035 OVC053 M04/M08 A2995 RMK SF1SC8 SLP202

CYYC;2008-04-23 17:00;CYYC 231700Z 17015G20KT 15SM FEW032 BKN053 OVC220 M04/M09 A2994 RMK CU2SC5CI1 SLP197

CYYC;2008-04-23 18:00;CYYC 231800Z 17016G21KT 15SM BKN028 OVC120 M04/M08 A2993 RMK SC6AC1 SLP193

CYYC;2008-04-23 18:25;CYYC 231825Z 15016KT 4SM -SN OVC020 M04/ RMK SC8

CYYC;2008-04-23 19:00;CYYC 231900Z 15014G19KT 8SM -SN BKN015 BKN021 BKN120 M04/M06 A2992 RMK SC6SC2AC1 SLP189

CYYC;2008-04-23 20:00;CYYC 232000Z 14015KT 4SM -SN FEW018 OVC022 M05/M07 A2991 RMK SC2SC6 SLP187

CYYC;2008-04-23 21:00;CYYC 232100Z CCA 14016KT 12SM -SN OVC021 M04/M07 A2990 RMK SC8 SLP182

CYYC;2008-04-23 22:00;CYYC 232200Z 13006KT 8SM -SN OVC020 M04/M07 A2989 RMK SC8 SLP179

CYYC;2008-04-23 23:00;CYYC 232300Z 13014KT 3SM -SN FEW013 OVC016 M04/M06 A2989 RMK SC2SC6 SLP180

CYYC;2008-04-24 00:00;CYYC 240000Z 13014KT 8SM OVC016 M05/M06 A2990 RMK SC8 SLP184

CYYC;2008-04-24 01:00;CYYC 240100Z 13016KT 2 1/2SM -SN SCT012 BKN017 OVC024 M05/M06 A2990 RMK SC3SC4SC1 OCNL DRSN SLP186

CYYC;2008-04-24 01:12;CYYC 240112Z 13013G18KT 1SM -SN DRSN SCT012 OVC015 M05/ RMK SN2SC2SC5

CYYC;2008-04-24 01:28;CYYC 240128Z 13014KT 1 1/2SM -SN DRSN SCT008 OVC012 M05/ RMK SN3SC1SC4

CYYC;2008-04-24 01:47;CYYC 240147Z 13015KT 3SM -SN DRSN BKN008 OVC022 M06/ RMK SC6SC2

CYYC;2008-04-24 02:00;CYYC 240200Z 13013G18KT 8SM -SN DRSN BKN009 OVC020 M06/M07 A2990 RMK SC7SC1 SLP186

CYYC;2008-04-24 02:25;CYYC 240225Z 14011G16KT 4SM -SN DRSN OVC012 M06/ RMK SC8

CYYC;2008-04-24 03:00;CYYC 240300Z 13012KT 3SM -SN DRSN BKN009 OVC012 M06/M07 A2991 RMK SC6SC2 SLP190

CYYC;2008-04-24 04:00;CYYC 240400Z 14012KT 7SM -SN DRSN BKN009 OVC012 M06/M07 A2993 RMK SC6SC2 SLP195

CYYC;2008-04-24 05:00;CYYC 240500Z 13011KT 3SM -SN DRSN OVC006 M06/M07 A2993 RMK SC8 SLP196

CYYC;2008-04-24 06:00;CYYC 240600Z 13011KT 2SM -SN DRSN OVC006 M06/M07 A2993 RMK SC8 /S01/ SLP195

CYYC;2008-04-24 06:54;CYYC 240654Z 12006KT 3SM -SN BKN017 OVC038 M06/ RMK SC5SC3

CYYC;2008-04-24 07:00;CYYC 240700Z 12008KT 3SM -SN BKN017 OVC032 M06/M07 A2993 RMK SC5SC3 SLP195

CYYC;2008-04-24 08:00;CYYC 240800Z 13008KT 3SM -SN FEW012 BKN017 OVC039 M06/M07 A2994 RMK SC1SC6SC2 SLP198

CYYC;2008-04-24 08:33;CYYC 240833Z 12006KT 1 3/4SM -SN BKN008 OVC024 M06/ RMK SC6SC2

CYYC;2008-04-24 09:00;CYYC 240900Z 12005KT 2 1/2SM -SN FEW008 BKN017 OVC044 M07/M07 A2994 RMK SC2SC5SC1 SLP199

CYYC;2008-04-24 10:00;CYYC 241000Z 09003KT 2 1/2SM -SN BKN008 OVC014 M06/M07 A2994 RMK SC6SC2 SLP200

CYYC;2008-04-24 11:00;CYYC 241100Z 11004KT 5SM -SN BKN009 OVC025 M07/M07 A2995 RMK SC6SC2 SLP202

CYYC;2008-04-24 12:00;CYYC 241200Z 10003KT 4SM -SN BKN009 OVC020 M07/M07 A2996 RMK SC7SC1 SNOW COVER/MUCH LOOSE SLP207

CYYC;2008-04-24 13:00;CYYC 241300Z 09003KT 3SM -SN OVC007 M07/M07 A2997 RMK SC8 SLP211

CYYC;2008-04-24 13:27;CYYC 241327Z 09004KT 2 1/2SM -SN OVC008 M06/ RMK SC8

CYYC;2008-04-24 14:00;CYYC 241400Z 09003KT 2 1/2SM -SN OVC010 M06/M07 A2998 RMK SC8 SLP214

CYYC;2008-04-24 14:19;CYYC 241419Z 10002KT 3SM -SN FEW010 BKN015 BKN023 M06/ RMK SC2SC3SC1

CYYC;2008-04-24 14:35;CYYC 241435Z 09002KT 3SM -SN BKN008 BKN011 OVC018 M06/ RMK SC5SC1SC1

CYYC;2008-04-24 15:00;CYYC 241500Z 00000KT 2 1/2SM -SN SCT010 BKN017 OVC030 M06/M06 A2999 RMK SC2SC3SC1 SLP219

CYYC;2008-04-24 16:00;CYYC 241600Z 04003KT 2SM -SN BKN012 OVC018 M05/M06 A2999 RMK SC5SC2 SLP219

CYYC;2008-04-24 17:00;CYYC 241700Z 10003KT 3SM -SN SCT012 BKN017 OVC220 M05/M06 A2999 RMK SC3SC3CS1 SLP219

CYYC;2008-04-24 17:25;CYYC 241725Z 09003KT 3SM -SN BKN013 OVC016 M04/ RMK SC6SC2

CYYC;2008-04-24 18:00;CYYC 241800Z 08004KT 8SM -SN BKN015 OVC019 M04/M06 A2999 RMK SC5SC3 SLP217

CYYC;2008-04-24 19:00;CYYC 241900Z 10005KT 6SM -SN SCT012 OVC016 M03/M05 A2999 RMK SC3SC5 SLP217

CYYC;2008-04-24 20:00;CYYC 242000Z 09006KT 6SM -SN FEW013 OVC018 M03/M06 A2999 RMK SC2SC6 PCPN VRY LGT SLP216

CYYC;2008-04-24 20:33;CYYC 242033Z 08008KT 12SM OVC020 M03/ RMK SC8

CYYC;2008-04-24 21:00;CYYC 242100Z 10008KT 12SM FEW014 OVC020 M03/M06 A2999 RMK SC2SC6 SLP215

CYYC;2008-04-24 22:00;CYYC 242200Z 12008KT 12SM BKN016 OVC020 M03/M05 A2998 RMK SC5SC3 SLP211

CYYC;2008-04-24 23:00;CYYC 242300Z 10009KT 12SM OVC017 M03/M06 A2998 RMK SC8 SLP211

CYYC;2008-04-25 00:00;CYYC 250000Z 14007KT 12SM OVC017 M02/M05 A2998 RMK SC8 SLP211

CYYC;2008-04-25 01:00;CYYC 250100Z 09008KT 12SM OVC020 M03/M06 A2998 RMK SC8 SLP212

CYYC;2008-04-25 02:00;CYYC 250200Z 08008KT 10SM OVC017 M03/M06 A2999 RMK SC8 SLP213

CYYC;2008-04-25 03:00;CYYC 250300Z 08006KT 10SM OVC018 M03/M06 A2999 RMK SC8 SLP215

CYYC;2008-04-25 04:00;CYYC 250400Z 09006KT 10SM OVC018 M03/M06 A3000 RMK SC8 SLP217

CYYC;2008-04-25 05:00;CYYC 250500Z 10006KT 15SM OVC018 M04/M06 A2998 RMK SC8 SLP211

CYYC;2008-04-25 06:00;CYYC 250600Z CCA 14006KT 10SM OVC017 M04/M05 A2997 RMK SC8 SLP207

CYYC;2008-04-25 06:51;CYYC 250651Z 13007KT 1/2SM SN VV008 M05/ RMK SN8 RVR RWY16 5500 FT

CYYC;2008-04-25 06:55;CYYC 250655Z 14006KT 3/4SM -SN OVC010 M05/ RESN RMK SN6SC2 RVR RWY34 6000 FT

CYYC;2008-04-25 07:00;CYYC 250700Z 12007KT 1SM -SN BKN010 OVC015 M05/M05 A2994 RESN RMK SC6SC2 RVR RWY34 6000 FT SLP198

CYYC;2008-04-25 07:05;CYYC 250705Z 12004KT 1 1/4SM -SN OVC010 M05/ RMK SC8

CYYC;2008-04-25 08:00;CYYC 250800Z 35007KT 1 3/4SM -SN OVC010 M04/M05 A2997 RMK SC8 /S01/ SLP206

CYYC;2008-04-25 08:50;CYYC 250850Z 01007KT 4SM -SN OVC012 M04/ RMK SC8

CYYC;2008-04-25 09:00;CYYC 250900Z 02008KT 4SM -SN OVC012 M04/M05 A2998 RMK SC8 SLP209

CYYC;2008-04-25 10:00;CYYC 251000Z 02006KT 3SM -SN OVC014 M05/M05 A2998 RMK SC8 VIS W-N 2 SLP208

CYYC;2008-04-25 11:00;CYYC 251100Z 35009KT 4SM -SN FEW007 BKN012 OVC030 M05/M05 A2998 RMK SC1SC6SC2 SLP210

CYYC;2008-04-25 12:00;CYYC 251200Z CCA 30008KT 4SM -SN BKN014 BKN090 OVC180 M07/M07 A2999 RMK SC5AC2AC1 /S02/ SNOW COVER/MUCH LOOSE SLP216

CYYC;2008-04-25 12:14;CYYC 251214Z 29003KT 4SM -SN SCT017 BKN084 OVC090 M06/ RMK SC3AC4AC1

CYYC;2008-04-25 13:00;CYYC 251300Z 35004KT 5SM -SN SCT040 BKN072 OVC090 M06/M07 A3000 RMK SC3AC3AC2 SLP218

CYYC;2008-04-25 13:27;CYYC 251327Z 33006KT 11SM FEW040 BKN077 OVC085 M06/ RMK SC1AC4AC2

CYYC;2008-04-25 14:00;CYYC 251400Z 34005KT 10SM FEW030 SCT085 BKN220 M06/M07 A3001 RMK SC1AC2CI1 SLP222

CYYC;2008-04-25 15:00;CYYC 251500Z 31009KT 15SM DRSN BKN031 BKN085 M05/M06 A3003 RMK SC6AC1 SLP228

CYYC;2008-04-25 15:35;CYYC 251535Z 35012KT 15SM DRSN BKN010 BKN030 M04/ RMK SC4SC2

CYYC;2008-04-25 16:00;CYYC 251600Z 36011KT 10SM FEW012 BKN030 BKN087 BKN260 M04/M06 A3004 RMK SC2SC3AC1CI0 SLP232

CYYC;2008-04-25 17:00;CYYC 251700Z 35009KT 15SM FEW020 FEW100 BKN240 M04/M06 A3006 RMK SC2AC1CI1 SLP236

CYYC;2008-04-25 18:00;CYYC 251800Z 36009KT 10SM -SHSN FEW015 BKN060 BKN100 M03/M05 A3006 RMK CU1SC4AC1 SLP237

CYYC;2008-04-25 19:00;CYYC 251900Z 36008KT 15SM FEW015 FEW060 FEW100 M02/M05 A3006 RMK CU1SC1AC1 SLP235

CYYC;2008-04-25 20:00;CYYC 252000Z 03007KT 15SM FEW015 FEW050 FEW150 M01/M05 A3005 RMK CU1SC1AC1 SLP234

CYYC;2008-04-25 21:00;CYYC 252100Z 04006KT 15SM FEW020 FEW050 SCT150 M01/M06 A3007 RMK CU1SC1AC1 SLP238

CYYC;2008-04-25 22:00;CYYC 252200Z 05006KT 15SM FEW020 BKN037 OVC060 M00/M06 A3010 RMK CU1SC4SC2 VIRGA SLP246

CYYC;2008-04-25 22:11;CYYC 252211Z CCA 04006KT 6SM -SHSN FEW016 OVC025 M01/ RMK CU2SC6 VIS N-E 1

CYYC;2008-04-25 23:00;CYYC 252300Z 02007KT 7SM -SHSN FEW016 SCT025 OVC039 M01/M04 A3011 RMK CU2SC2SC3 SLP250

CYYC;2008-04-25 23:45;CYYC 252345Z 04006KT 15SM FEW016 BKN048 BKN090 M01/ RMK CU2SC4AC1 SH S-N

CYYC;2008-04-26 00:00;CYYC 260000Z 04006KT 8SM FEW016 SCT036 OVC048 M01/M04 A3013 RMK CU1SC3SC3 SH W SLP263

CYYC;2008-04-26 00:17;CYYC 260017Z 02007KT 5SM -SHSN FEW015 BKN028 OVC048 M01/ RMK CU2SC3SC2

CYYC;2008-04-26 01:00;CYYC 260100Z 05004KT 6SM -SHSN FEW015 FEW030 SCT053 M01/M05 A3014 RMK CU1SC2SC1 PCPN VRY LGT SLP266

CYYC;2008-04-26 02:00;CYYC 260200Z 00000KT 8SM -SHSN FEW025 FEW055 BKN100 BKN240 M01/M05 A3015 RMK CU1SC2AC2CI1 SHSN VRY LGT SLP268

CYYC;2008-04-26 02:38;CYYC 260238Z 00000KT 9SM FEW036 BKN044 BKN100 BKN240 M01/ RMK SC1SC4AC1CI0 BR

CYYC;2008-04-26 03:00;CYYC 260300Z 09002KT 9SM BKN038 OVC090 M02/M05 A3016 RMK SC5AC2 BR SLP271

CYYC;2008-04-26 04:00;CYYC 260400Z 14003KT 10SM BKN035 BKN090 BKN210 M03/M06 A3017 RMK SC5AC1CI0 SLP273

CYYC;2008-04-26 05:00;CYYC 260500Z 18005KT 9SM FEW040 BKN210 M03/M05 A3017 RMK SC2CI1 SLP275

CYYC;2008-04-26 06:00;CYYC 260600Z 18005KT 10SM FEW045 SCT180 BKN220 M03/M06 A3017 RMK SC2AC2CI1 SLP273

CYYC;2008-04-26 07:00;CYYC 260700Z 18005KT 10SM FEW060 SCT090 BKN210 M04/M07 A3019 RMK SC2AC2CI1 SLP280

CYYC;2008-04-26 08:00;CYYC 260800Z 19005KT 9SM FEW180 SCT240 M04/M07 A3019 RMK AC1CI2 SLP280

CYYC;2008-04-26 09:00;CYYC 260900Z 20005KT 7SM FEW180 SCT240 M05/M07 A3020 RMK AC1CI1 SLP284

CYYC;2008-04-26 10:00;CYYC 261000Z 21004KT 7SM FEW180 SCT240 M05/M08 A3022 RMK AC1CI1 SLP289

CYYC;2008-04-26 11:00;CYYC 261100Z 27002KT 8SM FEW240 M06/M07 A3023 RMK CI1 BR SLP293

CYYC;2008-04-26 12:00;CYYC 261200Z 18003KT 10SM FEW240 M06/M08 A3024 RMK CI1 SNOW COVER MUCH LOOSE SLP300

CYYC;2008-04-26 13:00;CYYC 261300Z 00000KT 40SM FEW250 M05/M08 A3026 RMK CI0 SLP305

CYYC;2008-04-26 14:00;CYYC 261400Z 17002KT 40SM SKC M02/M07 A3028 RMK SLP311

CYYC;2008-04-26 15:00;CYYC 261500Z 29008KT 40SM SKC 03/M07 A3029 RMK SLP306

CYYC;2008-04-26 16:00;CYYC 261600Z 27010KT 40SM SKC 04/M07 A3029 RMK SLP307

CYYC;2008-04-26 17:00;CYYC 261700Z 27010KT 40SM SKC 06/M06 A3029 RMK SLP307

CYYC;2008-04-26 18:00;CYYC 261800Z 30006KT 40SM SKC 08/M10 A3030 RMK SLP303

CYYC;2008-04-26 19:00;CYYC 261900Z 32008KT 40SM SKC 08/M09 A3029 RMK SLP302

CYYC;2008-04-26 20:00;CYYC 262000Z 00000KT 40SM SKC 10/M08 A3029 RMK SLP301

CYYC;2008-04-26 21:00;CYYC 262100Z 07004KT 40SM SKC 11/M07 A3028 RMK SLP296

CYYC;2008-04-26 22:00;CYYC 262200Z 10006KT 40SM SKC 12/M08 A3027 RMK SLP293

CYYC;2008-04-26 23:00;CYYC 262300Z 20004KT 40SM SKC 12/M07 A3026 RMK SLP289

CYYC;2008-04-27 00:00;CYYC 270000Z 16007KT 30SM SKC 13/M06 A3025 RMK SLP283

CYYC;2008-04-27 01:00;CYYC 270100Z 19007KT 30SM SKC 12/M06 A3023 RMK SLP276

CYYC;2008-04-27 02:00;CYYC 270200Z 17010KT 30SM FEW250 10/M04 A3022 RMK CI1 CI TR SLP273

CYYC;2008-04-27 03:00;CYYC 270300Z CCA 16007KT 30SM FEW250 05/M04 A3022 RMK CI1 CI TR SLP272

CYYC;2008-04-27 04:00;CYYC 270400Z 16007KT 15SM FEW250 06/M04 A3022 RMK CI1 CI TR SLP273

CYYC;2008-04-27 05:00;CYYC 270500Z 18004KT 15SM SKC 03/M05 A3022 RMK SLP272

CYYC;2008-04-27 06:00;CYYC 270600Z 08005KT 15SM SKC 02/M03 A3023 RMK SLP272

CYYC;2008-04-27 07:00;CYYC 270700Z 36002KT 15SM SKC 00/M03 A3024 RMK SLP274

CYYC;2008-04-27 08:00;CYYC 270800Z 00000KT 15SM FEW250 M01/M03 A3022 RMK CI1 CI TR SLP269

CYYC;2008-04-27 09:00;CYYC 270900Z 00000KT 15SM FEW250 M01/M04 A3022 RMK CI1 CI TR SLP267

CYYC;2008-04-27 10:00;CYYC 271000Z 20003KT 15SM FEW250 M01/M04 A3021 RMK CI1 CI TR SLP264

CYYC;2008-04-27 11:00;CYYC 271100Z 21007KT 15SM FEW250 M02/M04 A3020 RMK CI1 CI TR SLP262

CYYC;2008-04-27 12:00;CYYC 271200Z 21007KT 15SM BKN250 M01/M05 A3019 RMK CI0 SNOW COVER/TRACE LOOSE SLP254

CYYC;2008-04-27 13:00;CYYC 271300Z 22009KT 30SM BKN250 01/M06 A3018 RMK CI2 SLP251

CYYC;2008-04-27 14:00;CYYC 271400Z 25005KT 40SM FEW260 04/M06 A3017 RMK CI0 SLP249

CYYC;2008-04-27 15:00;CYYC 271500Z 20004KT 40SM FEW260 07/M04 A3016 RMK CI0 SLP244

CYYC;2008-04-27 16:00;CYYC 271600Z 21004KT 40SM SCT260 11/M07 A3015 RMK CI0 SLP242

CYYC;2008-04-27 17:00;CYYC 271700Z 17003KT 40SM BKN260 12/M07 A3014 RMK CI0 SLP238

CYYC;2008-04-27 18:00;CYYC 271800Z 15008KT 30SM FEW160 SCT220 BKN260 13/M05 A3012 RMK AC1CS0CI0 SLP226

CYYC;2008-04-27 19:00;CYYC 271900Z 14010KT 30SM FEW160 SCT260 14/M04 A3010 RMK AC1CI0 SLP221

CYYC;2008-04-27 20:00;CYYC 272000Z 16010G16KT 30SM FEW160 FEW190 BKN260 15/M06 A3008 RMK AC1AC1CI1 ACSL W SLP214

CYYC;2008-04-27 21:00;CYYC 272100Z 18010G15KT 25SM FEW180 SCT210 BKN240 17/M04 A3006 RMK AC1CI1CI1 ACSL W SLP203

CYYC;2008-04-27 22:00;CYYC 272200Z 13010KT 25SM FEW130 FEW180 SCT210 BKN240 18/M03 A3003 RMK AC1AC1CI1CI1 SLP195

CYYC;2008-04-27 23:00;CYYC 272300Z 15003KT 25SM FEW110 SCT140 OVC210 17/M03 A3001 RMK AC1AC2CS2 SLP189

CYYC;2008-04-28 00:00;CYYC 280000Z 12003KT 20SM BKN120 BKN230 18/M04 A2999 RMK AC5CI1 SLP179

CYYC;2008-04-28 01:00;CYYC 280100Z 10006KT 25SM FEW068 SCT120 BKN200 16/M02 A2998 RMK AC1AC3CI3 SLP175

CYYC;2008-04-28 02:00;CYYC 280200Z 10006KT 30SM BKN120 BKN240 16/M05 A2997 RMK AC5CI1 SLP171

CYYC;2008-04-28 03:00;CYYC 280300Z 12007KT 40SM FEW160 SCT240 11/00 A2996 RMK AC2CI1 SLP166

CYYC;2008-04-28 04:00;CYYC 280400Z 07003KT 15SM BKN140 BKN240 10/02 A2996 RMK AC5CI1 SLP166

CYYC;2008-04-28 05:00;CYYC 280500Z 15004KT 15SM BKN170 10/00 A2994 RMK AC6 SLP161

CYYC;2008-04-28 06:00;CYYC 280600Z 26002KT 15SM BKN180 OVC240 11/M02 A2992 RMK AC6CI2 SLP143

CYYC;2008-04-28 07:00;CYYC 280700Z 27011KT 15SM OVC200 13/M04 A2990 RMK CI7 SLP139

CYYC;2008-04-28 08:00;CYYC 280800Z 27014G19KT 15SM OVC180 13/M04 A2990 RMK AC7 SLP138

CYYC;2008-04-28 09:00;CYYC 280900Z 28014G20KT 15SM OVC140 12/M04 A2989 RMK AC8 SLP125

CYYC;2008-04-28 10:00;CYYC 281000Z 32010G17KT 15SM BKN150 OVC220 11/M03 A2989 RMK AC5CI1 SLP127

CYYC;2008-04-28 11:00;CYYC 281100Z 33008KT 15SM BKN140 OVC220 10/M03 A2989 RMK AC5CI1 SLP127

CYYC;2008-04-28 12:00;CYYC 281200Z CCA 36007KT 15SM FEW080 SCT140 07/M03 A2991 RMK AC1AC2 SNOW COVER/TRACE LOOSE SLP140

CYYC;2008-04-28 13:00;CYYC 281300Z 00000KT 40SM FEW080 FEW140 05/M03 A2992 RMK AC1AC2 SLP141

CYYC;2008-04-28 14:00;CYYC 281400Z 33002KT 40SM FEW080 FEW140 08/M01 A2991 RMK AC1AC1 SLP139

CYYC;2008-04-28 15:00;CYYC 281500Z 03004KT 40SM FEW085 FEW140 12/M02 A2990 RMK AC1AC1 SLP140

CYYC;2008-04-28 16:00;CYYC 281600Z 04007KT 40SM FEW085 FEW160 13/M01 A2989 RMK AC1AC0 SLP137

CYYC;2008-04-28 17:00;CYYC 281700Z 14005KT 40SM FEW140 14/M02 A2987 RMK AC1 SLP130

CYYC;2008-04-28 18:00;CYYC 281800Z 14003KT 40SM FEW084 FEW140 16/M02 A2985 RMK CU1AC1 CU TR SLP117

CYYC;2008-04-28 19:00;CYYC 281900Z 17009KT 40SM FEW094 FEW150 17/M01 A2981 RMK CU1AC1 SLP105

CYYC;2008-04-28 20:00;CYYC 282000Z 16010G16KT 40SM FEW095 SCT150 18/M01 A2980 RMK CU2AC1 SLP100

CYYC;2008-04-28 21:00;CYYC 282100Z 24007KT 40SM FEW087 18/M01 A2977 RMK CU2 SLP084

CYYC;2008-04-28 22:00;CYYC 282200Z 06005KT 30SM FEW087 FEW250 19/M03 A2975 RMK CU2CI1 CI TR SLP077

CYYC;2008-04-28 23:00;CYYC 282300Z 26008KT 30SM FEW087 FEW250 19/M05 A2973 RMK CU2CI0 SLP070

CYYC;2008-04-29 00:00;CYYC 290000Z 27012G17KT 30SM FEW080 FEW110 FEW250 19/M05 A2971 RMK CU2AC1CI0 AC TR SLP067

CYYC;2008-04-29 01:00;CYYC 290100Z 28010KT 30SM FEW080 FEW110 FEW250 18/M05 A2969 RMK CU1AC0CI0 SLP061

CYYC;2008-04-29 02:00;CYYC 290200Z 25005KT 20SM FEW090 BKN250 17/M04 A2967 RMK AC1CI2 SLP055

CYYC;2008-04-29 03:00;CYYC 290300Z 19005KT 20SM FEW090 OVC250 15/M05 A2966 RMK AC1CI5 SLP048

CYYC;2008-04-29 04:00;CYYC 290400Z 18004KT 15SM BKN240 13/M04 A2965 RMK CI3 SLP046

CYYC;2008-04-29 05:00;CYYC 290500Z 20008KT 15SM BKN240 12/M02 A2963 RMK CI2 SLP039

CYYC;2008-04-29 06:00;CYYC 290600Z 22007KT 15SM FEW240 11/M03 A2961 RMK CI1 SLP032

CYYC;2008-04-29 07:00;CYYC 290700Z 19007KT 15SM FEW240 11/M03 A2960 RMK CI1 CONTRAILS SLP029

CYYC;2008-04-29 08:00;CYYC 290800Z 20006KT 15SM FEW180 10/M03 A2960 RMK AC1 SLP029

CYYC;2008-04-29 09:00;CYYC 290900Z 26005KT 15SM FEW180 09/M03 A2960 RMK AC1 SLP028

CYYC;2008-04-29 10:00;CYYC 291000Z 22004KT 15SM BKN220 09/M02 A2959 RMK CI5 SLP024

CYYC;2008-04-29 11:00;CYYC 291100Z 20005KT 15SM OVC220 08/M01 A2958 RMK CI7 SLP023

CYYC;2008-04-29 12:00;CYYC 291200Z 13002KT 15SM OVC220 06/M01 A2957 RMK CI7 SLP021

CYYC;2008-04-29 13:00;CYYC 291300Z 18006KT 30SM FEW180 SCT220 BKN250 07/M01 A2957 RMK AC1CI4CI0 SLP020

CYYC;2008-04-29 14:00;CYYC 291400Z 16006KT 30SM FEW160 SCT220 BKN250 09/M00 A2956 RMK AC1CI4CI0 SLP017

CYYC;2008-04-29 15:00;CYYC 291500Z 19009G15KT 30SM FEW180 SCT210 BKN250 12/M01 A2953 RMK AC1CI2CI2 SLP004

CYYC;2008-04-29 16:00;CYYC 291600Z 20014G20KT 40SM FEW040 SCT190 BKN240 15/M02 A2951 RMK CU1AC3CI2 SLP997

CYYC;2008-04-29 17:00;CYYC 291700Z 20018KT 40SM FEW055 FEW170 SCT200 BKN240 15/M02 A2950 RMK CU1AC1CC2CI2 SLP994

CYYC;2008-04-29 18:00;CYYC 291800Z 18016KT 40SM FEW075 FEW110 FEW170 BKN230 17/M02 A2947 RMK CU1AC1AC1CI3 SLP982

CYYC;2008-04-29 19:00;CYYC 291900Z 17017G24KT 40SM FEW068 BKN074 OVC210 14/M03 A2947 RMK CU1AC7CI1 SLP983

CYYC;2008-04-29 20:00;CYYC 292000Z 19013KT 40SM FEW027 FEW060 SCT095 BKN210 15/M02 A2945 RMK SC2CU1AC2CI2 SLP977

CYYC;2008-04-29 21:00;CYYC 292100Z 20018KT 40SM SCT060 BKN110 OVC220 16/M04 A2944 RMK SC3AC2CI2 TCU ASOCTD SLP975

CYYC;2008-04-29 22:00;CYYC 292200Z 19017KT 40SM FEW050 BKN087 OVC110 15/M05 A2943 RMK CU1AC6AC2 VIRGA NE-S SLP973

CYYC;2008-04-29 23:00;CYYC 292300Z 17015KT 40SM FEW050 FEW094 SCT110 OVC220 15/M02 A2942 RMK CU1AC2AC2CI2 SLP971

CYYC;2008-04-30 00:00;CYYC 300000Z 17011G17KT 40SM FEW050 FEW061 BKN085 OVC110 14/M05 A2943 RMK CU1SC2AC6AC1 SLP980

CYYC;2008-04-30 01:00;CYYC 300100Z 20009G15KT 40SM FEW050 SCT100 BKN130 OVC210 13/M04 A2943 RMK CU1AC3AC4CI1 SLP978

CYYC;2008-04-30 02:00;CYYC 300200Z 21005KT 40SM FEW050 BKN140 OVC220 12/M04 A2941 RMK CU1AC6CI2 TCU ASOCTD E SLP973

CYYC;2008-04-30 03:00;CYYC 300300Z 25008KT 20SM FEW060 BKN170 OVC220 11/M03 A2943 RMK SC1AC6CI1 SLP977

CYYC;2008-04-30 04:00;CYYC 300400Z 29008KT 15SM FEW060 BKN130 OVC210 09/M06 A2942 RMK SC1AC6CI1 SLP974

CYYC;2008-04-30 05:00;CYYC 300500Z 28020G27KT 15SM OVC130 08/M05 A2943 RMK AC8 VIRGA S-W SLP977

CYYC;2008-04-30 06:00;CYYC 300600Z 31012G18KT 15SM FEW082 OVC120 07/M01 A2946 RMK AC1AC7 SLP983

CYYC;2008-04-30 07:00;CYYC 300700Z 33011G16KT 15SM BKN058 OVC090 07/00 A2946 RMK SC6AC2 VIRGA ALQDS/ ACC EMBD SLP983

CYYC;2008-04-30 08:00;CYYC 300800Z 33020G25KT 15SM OVC049 05/M02 A2949 RMK SC8 SLP991

CYYC;2008-04-30 09:00;CYYC 300900Z 32013KT 12SM BKN023 OVC048 03/M00 A2951 RMK SC6SC2 SLP009

CYYC;2008-04-30 09:49;CYYC 300949Z 31015G20KT 10SM -RA BKN016 OVC042 01/ RMK SC6SC2

CYYC;2008-04-30 09:55;CYYC 300955Z 31013G18KT 10SM -SN BKN010 OVC036 M01/ RMK SC6SC2

CYYC;2008-04-30 10:00;CYYC 301000Z 31013G18KT 9SM -SN BKN010 OVC034 01/01 A2953 RMK SC6SC2 SLP014

CYYC;2008-04-30 10:46;CYYC 301046Z 34010KT 9SM -SN BKN026 OVC043 01/ RMK SC7SC1

CYYC;2008-04-30 11:00;CYYC 301100Z 35009KT 12SM -SN BKN039 OVC052 01/01 A2954 RMK SC7SC1 SN VRY LGT SLP018

CYYC;2008-04-30 12:00;CYYC 301200Z CCA 34012KT 20SM -SN BKN048 OVC065 02/00 A2956 RMK SC7SC1 SN VRY LGT SLP029

CYYC;2008-04-30 12:14;CYYC 301214Z 34010G15KT 30SM BKN050 OVC068 02/ RMK SC7AC1

CYYC;2008-04-30 13:00;CYYC 301300Z 32008KT 40SM BKN058 OVC065 02/M01 A2955 RMK SC7SC1 SLP026

CYYC;2008-04-30 14:00;CYYC 301400Z 31005KT 40SM BKN072 03/M01 A2956 RMK AC7 SLP029

CYYC;2008-04-30 15:00;CYYC 301500Z 26006KT 40SM SCT075 BKN100 BKN200 04/M01 A2956 RMK AC3AC2CI1 SLP032

CYYC;2008-04-30 16:00;CYYC 301600Z 29008KT 40SM FEW045 SCT078 BKN095 BKN210 06/M06 A2956 RMK CU1AC3AC2CI0 SLP032

CYYC;2008-04-30 17:00;CYYC 301700Z 28012KT 40SM FEW060 FEW081 SCT100 BKN220 07/M08 A2957 RMK CU1AC2AC1CI1 SLP035

CYYC;2008-04-30 18:00;CYYC 301800Z 30007KT 40SM FEW065 FEW082 SCT110 BKN210 08/M08 A2957 RMK CU2AC1AC1CI1 SLP033

CYYC;2008-04-30 19:00;CYYC 301900Z 35006KT 40SM FEW072 SCT120 SCT250 09/M09 A2956 RMK CU1AC1CI1 SLP031

CYYC;2008-04-30 20:00;CYYC 302000Z 23006KT 40SM FEW075 SCT084 BKN210 11/M09 A2958 RMK CU2AC1CI1 SLP038

CYYC;2008-04-30 21:00;CYYC 302100Z 27005KT 40SM FEW060 BKN088 10/M09 A2960 RMK CU1CU7 SLP049

CYYC;2008-04-30 22:00;CYYC 302200Z 34004KT 40SM FEW060 SCT090 BKN110 BKN210 10/M09 A2961 RMK CU1AC3AC2CI1 SLP052

CYYC;2008-04-30 23:00;CYYC 302300Z 13003KT 40SM FEW055 BKN081TCU OVC110 10/M08 A2963 RMK CU1TCU6AC1 SLP058

CYYC;2008-05-01 01:00;CYYC 010100Z 14006KT 40SM BKN062CB OVC100 08/M05 A2968 RMK CB6AC2 CB + SH ALQDS SLP079

CYYC;2008-05-01 02:00;CYYC 010200Z 05008KT 40SM SCT065CB BKN086 BKN110 OVC210 06/M01 A2972 RMK CB4AC2AC2CI0 HVY SH ALQDS SLP091

CYYC;2008-05-01 03:00;CYYC 010300Z 09008KT 20SM FEW080CB BKN130 OVC220 06/M01 A2975 RMK CB2AC4CI1 VIRGA N-E-S SLP104

CYYC;2008-05-01 04:00;CYYC 010400Z 03008KT 15SM FEW076 BKN090 OVC120 04/00 A2978 RMK AC2AC4AC1 SLP115

CYYC;2008-05-01 05:00;CYYC 010500Z 04007KT 15SM BKN040 OVC086 04/02 A2981 RMK SC7AC1 SLP123

CYYC;2008-05-01 05:25;CYYC 010525Z 04007KT 15SM -RA FEW010 BKN016 OVC097 04/ RMK SC2SC4AC2

CYYC;2008-05-01 05:43;CYYC 010543Z 05005KT 15SM BKN036 BKN050 OVC086 03/ RMK SC5SC2AC1

CYYC;2008-05-01 06:00;CYYC 010600Z 08004KT 12SM -SHRA OVC023 03/02 A2984 RMK SC8 SLP132

CYYC;2008-05-01 06:25;CYYC 010625Z 25006KT 7SM -SHRASN OVC010 02/ RMK SC8

CYYC;2008-05-01 06:48;CYYC 010648Z CCA 24007KT 1SM -SHSN BKN005 OVC013 00/ RMK SN2SC5SC1 RVR RWY34 4500 FT

CYYC;2008-05-01 07:00;CYYC 010700Z 22006KT 3/4SM -SHSN OVC003 00/M01 A2986 RMK SN6SC2 RVR RWY34 6000 FT/ VIS E 5/8 SLP140

CYYC;2008-05-01 07:27;CYYC 010727Z 22004KT 1/8SM +SN VV002 00/ RMK SN8 RVR RWY34 4500 FT

CYYC;2008-05-01 07:31;CYYC 010731Z 22003KT 1/2SM SN VV005 00/ RESN RMK SN8 RVR RW34 5500 FT

CYYC;2008-05-01 07:37;CYYC 010737Z 19003KT 1 3/4SM -SN BKN016 OVC025 00/ RESN RMK SN1SC6SC2

CYYC;2008-05-01 07:42;CYYC 010742Z 19004KT 4SM -SN BKN018 OVC024 00/ RESN RMK SC6SC2

CYYC;2008-05-01 08:00;CYYC 010800Z CCA 17003KT 5SM -SN FEW010 BKN020 OVC040 00/M01 A2987 RESN RMK SC2SC6SC1 /S01/ SLP144

CYYC;2008-05-01 09:00;CYYC 010900Z 22006KT 12SM -SN SCT016 OVC024 01/M01 A2991 RMK SC4SC4 SLP158

CYYC;2008-05-01 09:10;CYYC 010910Z 26007KT 12SM BKN028 OVC043 01/ RMK SC6SC2

CYYC;2008-05-01 10:00;CYYC 011000Z 22003KT 15SM OVC031 01/M01 A2991 RMK SC8 SLP159

CYYC;2008-05-01 11:00;CYYC 011100Z 21003KT 15SM FEW040 BKN140 01/M01 A2994 RMK SC2AC3 SLP167

CYYC;2008-05-01 12:00;CYYC 011200Z CCA 25006KT 20SM FEW040 BKN110 01/M01 A2994 RMK SC2AC2 /S04/ SNOW COVER/MUCH LOOSE SLP171

CYYC;2008-05-01 13:00;CYYC 011300Z 00000KT 30SM FEW020 FEW045 BKN110 01/M00 A2997 RMK SC1SC1AC3 SLP180

CYYC;2008-05-01 14:00;CYYC 011400Z 00000KT 20SM FEW020 FEW045 FEW110 02/02 A3000 RMK SC2SC1AC1 SLP189

CYYC;2008-05-01 15:00;CYYC 011500Z 00000KT 20SM FEW020 FEW110 SCT210 03/02 A3002 RMK CU1AC1CI0 SLP199

CYYC;2008-05-01 16:00;CYYC 011600Z 21002KT 20SM FEW020 FEW110 BKN220 04/01 A3002 RMK CU1AC1CI2 SLP201

CYYC;2008-05-01 17:00;CYYC 011700Z 00000KT 40SM FEW020 BKN220 06/M01 A3003 RMK CU1CI3 SLP202

CYYC;2008-05-01 18:00;CYYC 011800Z 06002KT 40SM FEW035 BKN210 07/M03 A3003 RMK CU1CI2 SLP202

CYYC;2008-05-01 19:00;CYYC 011900Z 09004KT 40SM FEW035 BKN210 09/M04 A3005 RMK CU1CI2 SLP206

CYYC;2008-05-01 20:00;CYYC 012000Z 15002KT 40SM FEW060 BKN200 10/M06 A3005 RMK CU1CI2 SLP208

CYYC;2008-05-01 21:00;CYYC 012100Z 07002KT 40SM FEW076 BKN200 11/M06 A3006 RMK CU1CI2 SLP208

CYYC;2008-05-01 22:00;CYYC 012200Z 06005KT 30SM FEW079 BKN220 11/M06 A3006 RMK CU1CI2 SLP210

CYYC;2008-05-01 23:00;CYYC 012300Z 11003KT 40SM FEW079 FEW160 BKN200 11/M05 A3007 RMK CU1AC1CI2 SH SW / TCU ASOCTD SLP212

CYYC;2008-05-02 00:00;CYYC 020000Z 06004KT 40SM FEW079TCU FEW160 BKN200 11/M04 A3009 RMK TCU1AC1CI2 SH SW + NW / TCU ASOCTD SLP219

CYYC;2008-05-02 01:00;CYYC 020100Z 09008KT 40SM FEW070TCU SCT130 OVC200 11/M04 A3009 RMK TCU1AC2CI2 SH SW + NW SLP220

CYYC;2008-05-02 02:00;CYYC 020200Z 08011KT 30SM FEW070 BKN140 OVC220 10/M03 A3010 RMK AC1AC4CI1 SLP222

CYYC;2008-05-02 03:00;CYYC 020300Z 09014KT 30SM FEW080 BKN130 OVC220 08/01 A3012 RMK AC1AC4CI2 VIRGA SW SLP232

CYYC;2008-05-02 04:00;CYYC 020400Z 08011KT 15SM FEW080 BKN110 OVC220 06/02 A3015 RMK AC1AC6CI1 SLP242

CYYC;2008-05-02 05:00;CYYC 020500Z 08009KT 15SM BKN150 BKN220 05/02 A3017 RMK AC5CI1 SLP247

CYYC;2008-05-02 06:00;CYYC 020600Z 00000KT 15SM FEW085 SCT120 BKN240 04/02 A3019 RMK AC1AC2CI1 SLP255

CYYC;2008-05-02 07:00;CYYC 020700Z 12004KT 15SM BKN120 OVC240 04/02 A3019 RMK AC6CI1 SLP256

CYYC;2008-05-02 08:00;CYYC 020800Z 16002KT 15SM FEW085 BKN190 OVC240 03/02 A3020 RMK AC1AC6CI1 SLP258

CYYC;2008-05-02 09:00;CYYC 020900Z 34004KT 15SM FEW080 BKN100 OVC240 02/02 A3020 RMK AC1AC6CI1 SLP257

CYYC;2008-05-02 10:00;CYYC 021000Z 32003KT 15SM BKN093 OVC110 03/02 A3020 RMK AC6AC2 SLP255

CYYC;2008-05-02 11:00;CYYC 021100Z 00000KT 15SM FEW080 BKN090 OVC150 03/02 A3020 RMK AC1AC5AC1 SLP257

CYYC;2008-05-02 12:00;CYYC 021200Z 04002KT 6SM BR SCT035 BKN062 OVC120 02/02 A3021 RMK SC3SC3AC2 SLP258

CYYC;2008-05-02 13:00;CYYC 021300Z 09003KT 5SM BR FEW050 OVC130 03/02 A3021 RMK SC2AC6 SLP259

CYYC;2008-05-02 14:00;CYYC 021400Z 00000KT 6SM BR FEW085 BKN140 BKN220 04/03 A3022 RMK AC1AC4CI1 SLP261

CYYC;2008-05-02 15:00;CYYC 021500Z 00000KT 12SM FEW140 SCT170 BKN220 05/03 A3022 RMK AC1AC2CI1 SLP262

CYYC;2008-05-02 16:00;CYYC 021600Z 17002KT 12SM FEW020 FEW160 FEW230 08/03 A3022 RMK CU1AC1CI1 SLP263

CYYC;2008-05-02 17:00;CYYC 021700Z 14006KT 25SM SCT030 SCT230 09/02 A3021 RMK CU3CI0 SLP259

CYYC;2008-05-02 18:00;CYYC 021800Z 13008G16KT 30SM SCT038 BKN230 10/02 A3020 RMK CU4CI0 SLP254

CYYC;2008-05-02 19:00;CYYC 021900Z 17008KT 30SM SCT042 BKN230 11/01 A3018 RMK CU3CI1 SLP248

CYYC;2008-05-02 20:00;CYYC 022000Z 17009G16KT 30SM SCT050 SCT230 12/01 A3016 RMK CU3CI0 SLP243

CYYC;2008-05-02 21:00;CYYC 022100Z 13009G17KT 30SM SCT038 BKN230 13/01 A3014 RMK CU4CI0 SLP232

CYYC;2008-05-02 22:00;CYYC 022200Z 14011G17KT 25SM SCT057 13/00 A3012 RMK CU4 SLP226

CYYC;2008-05-02 23:00;CYYC 022300Z 14012KT 20SM SCT057 12/M00 A3011 RMK CU3 SLP222

CYYC;2008-05-03 00:00;CYYC 030000Z 13017KT 20SM FEW054 13/00 A3009 RMK CU2 SLP217

CYYC;2008-05-03 01:00;CYYC 030100Z 14013G18KT 20SM FEW052 12/00 A3007 RMK CU1 SLP211

CYYC;2008-05-03 02:00;CYYC 030200Z 13015KT 25SM FEW053 11/M00 A3007 RMK CU1 SLP209

CYYC;2008-05-03 03:00;CYYC 030300Z 14012KT 20SM FEW240 09/00 A3006 RMK CI0 SLP206

CYYC;2008-05-03 04:00;CYYC 030400Z 14009KT 15SM FEW240 08/00 A3006 RMK CI0 SLP206

CYYC;2008-05-03 05:00;CYYC 030500Z 16011KT 15SM FEW220 07/00 A3005 RMK CI1 SLP202

CYYC;2008-05-03 06:00;CYYC 030600Z 17010KT 15SM FEW180 BKN210 06/00 A3002 RMK AC2CI2 SLP190

CYYC;2008-05-03 07:00;CYYC 030700Z 18006KT 15SM FEW180 OVC210 05/00 A3001 RMK AC2CI4 SLP185

CYYC;2008-05-03 08:00;CYYC 030800Z 18004KT 15SM SCT210 04/M00 A2999 RMK CI2 SLP180

CYYC;2008-05-03 09:00;CYYC 030900Z 06002KT 15SM FEW230 02/M00 A2998 RMK CI0 SLP176

CYYC;2008-05-03 10:00;CYYC 031000Z 12003KT 15SM FEW230 01/M01 A2997 RMK CI1 SLP173

CYYC;2008-05-03 11:00;CYYC 031100Z 05004KT 15SM FEW140 FEW230 00/M01 A2997 RMK AC1CI0 AC TR SLP173

CYYC;2008-05-03 12:00;CYYC 031200Z 33004KT 8SM FEW140 FEW230 M00/M02 A2997 RMK AC1CI0 BR SLP178

CYYC;2008-05-03 13:00;CYYC 031300Z 34003KT 40SM FEW160 FEW220 FEW260 01/M02 A2998 RMK AC1CC1CI1 AC+CI TR SLP179

CYYC;2008-05-03 14:00;CYYC 031400Z 33005KT 40SM SCT140 04/M02 A2998 RMK AC2 SLP181

CYYC;2008-05-03 15:00;CYYC 031500Z 32008KT 40SM BKN140 07/M02 A2998 RMK AC5 SLP177

CYYC;2008-05-03 16:00;CYYC 031600Z 01011KT 40SM FEW045 SCT110 BKN140 09/M02 A2999 RMK CU1AC2AC2 SLP178

CYYC;2008-05-03 17:00;CYYC 031700Z 36009G16KT 40SM FEW050 FEW120 FEW240 11/M00 A2998 RMK CU1AC2CI1 SLP176

CYYC;2008-05-03 18:00;CYYC 031800Z 01007KT 40SM FEW050 FEW160 12/00 A2998 RMK CU1AC1 SLP172

CYYC;2008-05-03 19:00;CYYC 031900Z 34007G15KT 40SM FEW055 FEW160 FEW260 13/M00 A2997 RMK CU1AC1CI0 SLP169

CYYC;2008-05-03 20:00;CYYC 032000Z 35010G15KT 40SM FEW055 FEW160 SCT260 13/M01 A2996 RMK CU2AC1CI0 SLP167

CYYC;2008-05-03 21:00;CYYC 032100Z 36009G17KT 40SM SCT081 SCT240 13/M03 A2995 RMK CU3CI1 SLP167

CYYC;2008-05-03 22:00;CYYC 032200Z 01005KT 30SM FEW079 FEW240 15/M03 A2994 RMK CU2CI1 SLP164

CYYC;2008-05-03 23:00;CYYC 032300Z 02014KT 30SM FEW078 FEW240 15/M03 A2995 RMK CU2CI1 SLP165

CYYC;2008-05-04 00:00;CYYC 040000Z 34012KT 30SM FEW050TCU FEW077 15/M02 A2995 RMK TCU1CU2 SLP168

CYYC;2008-05-04 01:00;CYYC 040100Z 01010KT 25SM FEW078 FEW260 14/M02 A2995 RMK CU1CI0 SH SW SLP169

CYYC;2008-05-04 02:00;CYYC 040200Z 02010KT 20SM FEW080 FEW250 13/M02 A2996 RMK AC1CI0 SLP170

CYYC;2008-05-04 03:00;CYYC 040300Z 36005KT 20SM FEW110 FEW250 11/M01 A2997 RMK AC1CI1 CI TR SLP170

CYYC;2008-05-04 04:00;CYYC 040400Z 31004KT 15SM FEW140 FEW250 10/M02 A2998 RMK AC1CI1 AC TR SLP174

CYYC;2008-05-04 05:00;CYYC 040500Z 34005KT 15SM FEW140 FEW250 06/M01 A2999 RMK AC1CI1 AC+CI TR SLP176

CYYC;2008-05-04 06:00;CYYC 040600Z 34004KT 15SM FEW150 FEW250 04/M02 A3000 RMK AC1CI1 SLP181

CYYC;2008-05-04 07:00;CYYC 040700Z 00000KT 15SM SKC 04/M02 A3001 RMK SLP184

CYYC;2008-05-04 08:00;CYYC 040800Z 36005KT 15SM SKC 03/M02 A3001 RMK SLP184

CYYC;2008-05-04 09:00;CYYC 040900Z 29003KT 15SM SKC 03/M02 A3000 RMK SLP182

CYYC;2008-05-04 10:00;CYYC 041000Z 00000KT 15SM SKC 02/M02 A3000 RMK SLP181

CYYC;2008-05-04 11:00;CYYC 041100Z 00000KT 15SM SCT110 03/M02 A3000 RMK AC2 SLP182

CYYC;2008-05-04 12:00;CYYC 041200Z 26002KT 20SM SCT090 03/M02 A3001 RMK AC2 SLP184

CYYC;2008-05-04 13:00;CYYC 041300Z 24004KT 40SM FEW090 04/M02 A3002 RMK AC2 SLP186

CYYC;2008-05-04 14:00;CYYC 041400Z 32010KT 40SM FEW090 SCT120 10/M01 A3003 RMK AC2AC1 SLP190

CYYC;2008-05-04 15:00;CYYC 041500Z 33014KT 40SM FEW100 FEW180 11/M01 A3003 RMK AC1AC1 SLP184

CYYC;2008-05-04 16:00;CYYC 041600Z 36012KT 40SM FEW080 FEW100 FEW260 12/00 A3002 RMK CU1AC1CI1 SLP183

CYYC;2008-05-04 17:00;CYYC 041700Z 35006KT 40SM FEW080 FEW260 13/00 A3001 RMK CU1CI0 SLP180

CYYC;2008-05-04 18:00;CYYC 041800Z CCA 36005KT 40SM FEW060 FEW260 14/00 A3000 RMK CU1CI0 SLP180

CYYC;2008-05-04 19:00;CYYC 041900Z 00000KT 40SM FEW066 BKN260 15/M01 A2999 RMK CU1CS1 SLP175

CYYC;2008-05-04 20:00;CYYC 042000Z 31006KT 40SM FEW066 OVC230 17/M01 A2996 RMK CU1CS3 SLP168

CYYC;2008-05-04 21:00;CYYC 042100Z 05006KT 40SM FEW067 OVC230 17/M00 A2995 RMK CU2CS2 SLP162

CYYC;2008-05-04 22:00;CYYC 042200Z 09004KT 40SM FEW070 OVC230 18/M01 A2995 RMK CU1CS4 SLP160

CYYC;2008-05-04 23:00;CYYC 042300Z 07007KT 40SM FEW075 SCT170 OVC210 17/M00 A2994 RMK CU1AC2CS3 SLP157

CYYC;2008-05-05 00:00;CYYC 050000Z 05008KT 40SM FEW075 SCT170 OVC210 17/M01 A2994 RMK AC1AC2CS2 SLP156

CYYC;2008-05-05 01:00;CYYC 050100Z 05007KT 40SM FEW100 SCT160 OVC210 16/01 A2994 RMK AC2AC2CS2 SLP158

CYYC;2008-05-05 02:00;CYYC 050200Z CCA 03013G18KT 30SM SCT100 BKN180 14/M01 A2996 RMK AC2AC1 VIRGA SLP164

CYYC;2008-05-05 03:00;CYYC 050300Z CCA 04008KT 30SM FEW100 BKN180 13/M00 A2998 RMK AC2AC1 CONTRAILS SLP164

CYYC;2008-05-05 04:00;CYYC 050400Z 05005KT 15SM SCT100 BKN180 11/00 A2999 RMK AC2AC2 VIRGA SLP168

CYYC;2008-05-05 05:00;CYYC 050500Z 09005KT 15SM FEW086 SCT180 10/M02 A2999 RMK AC2AC1 SLP169

CYYC;2008-05-05 06:00;CYYC 050600Z 03003KT 15SM FEW100 09/M01 A3001 RMK AC1 SLP176

CYYC;2008-05-05 07:00;CYYC 050700Z 00000KT 15SM BKN160 08/M00 A3001 RMK AC5 SLP176

CYYC;2008-05-05 08:00;CYYC 050800Z 27003KT 15SM SCT160 BKN210 07/M01 A3001 RMK AC3CI0 SLP177

CYYC;2008-05-05 09:00;CYYC 050900Z 19002KT 15SM FEW160 BKN210 07/M01 A3001 RMK AC1CI1 AC TR SLP176

CYYC;2008-05-05 10:00;CYYC 051000Z 22004KT 15SM BKN160 BKN210 06/M00 A2999 RMK AC4CI0 SLP171

CYYC;2008-05-05 11:00;CYYC 051100Z 00000KT 15SM SCT160 BKN230 06/M01 A2999 RMK AC2CI2 SLP170

CYYC;2008-05-05 12:00;CYYC 051200Z 22002KT 20SM SCT180 BKN230 04/M01 A2998 RMK AC3CI2 SLP169

CYYC;2008-05-05 13:00;CYYC 051300Z 14003KT 30SM FEW080 BKN140 BKN230 05/00 A2998 RMK AC1AS5CI1 AC TR SLP169

CYYC;2008-05-05 14:00;CYYC 051400Z 17010KT 30SM FEW150 OVC250 09/M02 A2998 RMK AC2CI3 SLP168

CYYC;2008-05-05 15:00;CYYC 051500Z 16009KT 30SM FEW085 BKN150 OVC240 11/M03 A2997 RMK AC1AC5CI2 SLP160

CYYC;2008-05-05 16:00;CYYC 051600Z 17012G20KT 30SM FEW060 BKN160 OVC240 12/M02 A2995 RMK CU1AC5CI2 SLP154

CYYC;2008-05-05 17:00;CYYC 051700Z 16013G18KT 30SM FEW060 SCT091 BKN160 OVC240 13/M02 A2993 RMK CU1AC3AC2CI2 SLP150

CYYC;2008-05-05 18:00;CYYC 051800Z 17012G19KT 30SM FEW060 SCT081 BKN140 OVC240 13/M02 A2992 RMK CU1AC3AC2CI2 SLP148

CYYC;2008-05-05 19:00;CYYC 051900Z 19010G15KT 20SM SCT060 BKN072 OVC210 15/M01 A2991 RMK SC3AC3CI1 SLP145

CYYC;2008-05-05 20:00;CYYC 052000Z 27007KT 20SM FEW045 BKN075 BKN140 OVC240 15/M00 A2990 RMK CU1AC4AC2CI2 SLP140

CYYC;2008-05-05 21:00;CYYC 052100Z 22002KT 25SM FEW045 SCT077 BKN140 BKN220 15/M00 A2988 RMK CU1AC2AC2CI1 SLP132

CYYC;2008-05-05 22:00;CYYC 052200Z 24007KT 25SM FEW050 SCT082 BKN140 OVC220 15/M00 A2986 RMK CU1AC4AC2CI2 SH DIST SW SLP127

CYYC;2008-05-05 23:00;CYYC 052300Z 21010G15KT 30SM FEW050 SCT084 BKN140 OVC220 15/01 A2984 RMK CU1AC3AC2CI2 SH DIST S-SW SLP119

CYYC;2008-05-06 00:00;CYYC 060000Z 25014KT 30SM FEW050 BKN092 OVC220 14/02 A2984 RMK CU1AC6CI2 SH DIST S-W SLP124

CYYC;2008-05-06 01:00;CYYC 060100Z 24009KT 20SM FEW050 SCT072 BKN110 OVC220 13/02 A2984 RMK CU1AC3AC2CI2 SH DIST S-W SLP123

CYYC;2008-05-06 02:00;CYYC 060200Z 24006KT 30SM BKN080 BKN250 13/03 A2984 RMK AC5CI0 SH DIST SW SLP123

CYYC;2008-05-06 03:00;CYYC 060300Z 29005KT 25SM BKN070 OVC240 12/02 A2984 RMK AC4CI2 SH DIST SW SLP118

CYYC;2008-05-06 04:00;CYYC 060400Z 00000KT 15SM BKN075 BKN240 12/01 A2985 RMK AC5CI1 VIRGA SLP120

CYYC;2008-05-06 05:00;CYYC 060500Z 27008KT 15SM BKN069 10/03 A2985 RMK AC6 VIRGA SLP121

CYYC;2008-05-06 06:00;CYYC 060600Z 27014KT 15SM BKN069 09/04 A2986 RMK AC6 SLP125

CYYC;2008-05-06 07:00;CYYC 060700Z 26011KT 15SM OVC095 08/05 A2986 RMK AC6 SLP126

CYYC;2008-05-06 08:00;CYYC 060800Z 29009KT 15SM OVC060 08/04 A2986 RMK SC6 SLP126

CYYC;2008-05-06 09:00;CYYC 060900Z 29010KT 15SM BKN080 OVC100 08/03 A2986 RMK AC5AC2 SLP124

CYYC;2008-05-06 10:00;CYYC 061000Z 31011KT 15SM OVC067 07/03 A2986 RMK AC6 SLP124

CYYC;2008-05-06 11:00;CYYC 061100Z 34007KT 15SM OVC070 07/01 A2987 RMK AC6 SLP128

CYYC;2008-05-06 12:00;CYYC 061200Z 36009KT 15SM BKN055 OVC140 06/01 A2988 RMK SC6AC2 SLP134

CYYC;2008-05-06 13:00;CYYC 061300Z 01012KT 15SM BKN050 OVC140 07/02 A2989 RMK SC6AS2 SLP138

CYYC;2008-05-06 14:00;CYYC 061400Z CCA 02014KT 12SM -SHRA BKN046 OVC100 07/03 A2992 RMK SC6AC2 CVCTV CLD EMBD SLP147

CYYC;2008-05-06 15:00;CYYC 061500Z 03010KT 15SM FEW024 OVC039 06/04 A2993 RMK SC2SC6 SLP155

CYYC;2008-05-06 16:00;CYYC 061600Z CCA 02006KT 12SM -SHRA BKN026 OVC038 06/05 A2995 RMK SC6SC2 CVCTV CLD EMBD SLP160

CYYC;2008-05-06 17:00;CYYC 061700Z CCA 31007KT 15SM -SHRA FEW014 BKN025 OVC032 07/06 A2995 RMK SF2SC4SC2 PCPN VRY LGT / CVCTV CLD EMBD SLP162

CYYC;2008-05-06 18:00;CYYC 061800Z 31009KT 15SM -SHRA FEW019 SCT025 OVC034 08/06 A2996 RMK SF1SC4SC4 PCPN VRY LGT / CVCTV CLD EMBD SLP167

CYYC;2008-05-06 18:30;CYYC 061830Z 31008KT 12SM SCT025 SCT036 OVC071 09/ RMK SC3SC1AC2 SH NW

CYYC;2008-05-06 19:00;CYYC 061900Z 29007KT 20SM FEW019 FEW031 OVC061 09/06 A2996 RMK SC2SC1SC4 SLP168

CYYC;2008-05-06 20:00;CYYC 062000Z 32005KT 20SM FEW025 BKN058 BKN070 10/04 A2995 RMK CU2SC2AC1 SLP164

CYYC;2008-05-06 21:00;CYYC 062100Z 36014KT 20SM FEW025TCU OVC035 09/04 A2995 RMK TCU2SC6 SLP165

CYYC;2008-05-06 22:00;CYYC 062200Z 36012KT 20SM -SHRA SCT030TCU OVC042 09/06 A2996 RMK TCU3SC4 SLP167

CYYC;2008-05-06 23:00;CYYC 062300Z 01008KT 15SM FEW027 OVC058 08/05 A2995 RMK CU2SC6 SLP165

CYYC;2008-05-07 00:00;CYYC 070000Z 07005KT 20SM SCT041 BKN074 10/04 A2995 RMK SC3AC3 TCU ASOCTD SLP167

CYYC;2008-05-07 01:00;CYYC 070100Z 09006KT 20SM FEW027 BKN052 BKN080 BKN210 09/04 A2995 RMK SC2SC3AC1CI1 SH W SLP166

CYYC;2008-05-07 02:00;CYYC 070200Z 06002KT 20SM FEW040 SCT070 BKN082 BKN250 09/03 A2995 RMK SC1AC3AC2CI1 SH DIST W SLP166

CYYC;2008-05-07 03:00;CYYC 070300Z 20006KT 20SM FEW020TCU BKN082 OVC220 08/05 A2995 RMK TCU1AC5CI2 SH DIST SW SLP169

CYYC;2008-05-07 04:00;CYYC 070400Z 20006KT 15SM FEW080 BKN120 OVC220 07/05 A2996 RMK AC2AC4CI1 SLP170

CYYC;2008-05-07 05:00;CYYC 070500Z 26005KT 15SM SCT063 BKN100 BKN240 06/05 A2995 RMK SC3AC2CI1 SLP169

CYYC;2008-05-07 06:00;CYYC 070600Z 34003KT 15SM BKN068 BKN220 05/04 A2995 RMK AC5CI2 SLP172

CYYC;2008-05-07 07:00;CYYC 070700Z 00000KT 12SM FEW240 04/04 A2994 RMK CI0 SLP169

CYYC;2008-05-07 08:00;CYYC 070800Z 18005KT 12SM FEW240 02/02 A2994 RMK CI0 SLP167

CYYC;2008-05-07 09:00;CYYC 070900Z 22002KT 6SM BR SKC 04/04 A2992 RMK SLP161

CYYC;2008-05-07 10:00;CYYC 071000Z 00000KT 5SM BR FEW230 02/02 A2992 RMK CI2 SLP159

CYYC;2008-05-07 11:00;CYYC 071100Z 36005KT 5SM BR FEW230 02/02 A2991 RMK CI2 SLP157

CYYC;2008-05-07 12:00;CYYC 071200Z 36004KT 3SM BR SCT230 00/00 A2991 RMK CI2 SLP160

CYYC;2008-05-07 13:00;CYYC 071300Z 34004KT 4SM BR FEW240 01/00 A2992 RMK CI2 SLP163

CYYC;2008-05-07 14:00;CYYC 071400Z 32003KT 20SM FEW220 OVC260 02/02 A2992 RMK CI0CI0 VIS SW-W 10/BR SLP163

CYYC;2008-05-07 15:00;CYYC 071500Z 00000KT 20SM FEW160 SCT210 OVC230 05/04 A2992 RMK AC0CI0CI0 BR SLP158

CYYC;2008-05-07 16:00;CYYC 071600Z 15003KT 25SM FEW140 FEW180 OVC220 08/05 A2990 RMK AC1AC0CI0 SLP153

CYYC;2008-05-07 17:00;CYYC 071700Z 19006KT 25SM FEW020 SCT160 OVC220 10/04 A2989 RMK CU2AC1CS0 SLP151

CYYC;2008-05-07 18:00;CYYC 071800Z CCA 15012KT 25SM BKN028 OVC240 11/04 A2988 RMK CU6CS0 SLP141

CYYC;2008-05-07 19:00;CYYC 071900Z 17004KT 25SM BKN030 BKN190 OVC260 12/04 A2985 RMK CU6AC1CS0 SLP133

CYYC;2008-05-07 20:00;CYYC 072000Z 16006KT 25SM BKN036TCU BKN080 OVC190 13/04 A2983 RMK TCU5AC2AS0 SLP126

CYYC;2008-05-07 20:43;CYYC 072043Z 17010KT 30SM -SHRA OVC040TCU RMK TCU8 VIS SW 10

CYYC;2008-05-07 20:50;CYYC 072050Z CCB 25013G19KT 30SM -SHRA OVC040TCU RMK TCU8 WSHFT2047/VIS SW 8/SH OCNL

CYYC;2008-05-07 21:00;CYYC 072100Z 27019G24KT 30SM -SHRA BKN040 OVC060 09/03 A2982 RMK SC7SC1 VIS SW 8/SH OCNL/CVCTV CLD EMBD SLP125

CYYC;2008-05-07 21:03;CYYC 072103Z 26017G24KT 8SM -SHRA BKN040 OVC044 RMK SC5SC3 VIS LWR E/CVCTV CLD EMBD

CYYC;2008-05-07 21:08;CYYC 072108Z 25014G22KT 8SM -SHRA BKN038 OVC044 RMK SC5SC3 LTNG NE/CB EMBD

CYYC;2008-05-07 21:15;CYYC 072115Z 23017KT 6SM -TSRA BKN038 OVC044 RMK SC5SC3 CB EMBD

CYYC;2008-05-07 21:48;CYYC 072148Z CCA 25009G18KT 15SM -SHRA BKN025 BKN046 OVC240 RETS RMK SC6SC2CI0 CB EMBD

CYYC;2008-05-07 22:00;CYYC 072200Z 23007KT 15SM -SHRA BKN025 BKN045 BKN160 OVC240 07/05 A2981 RETS RMK SC6SC2AS1CI0 CB EMBD SLP123

CYYC;2008-05-07 22:32;CYYC 072232Z 14004KT 25SM FEW030 SCT050 BKN080 BKN250 RMK SC2SC2AC1CI0

CYYC;2008-05-07 23:00;CYYC 072300Z 06007KT 25SM FEW012 FEW080 SCT160 BKN200 10/07 A2980 RMK CU1AC2AS1CI1 VIS LWR E/CU TR/CS ASOCTD SLP118

CYYC;2008-05-08 00:00;CYYC 080000Z 12012KT 25SM FEW022 FEW090 BKN180 BKN220 11/05 A2979 RMK CU1AC2AS2CI1 DIST SH E/VIS LWR E SLP116

CYYC;2008-05-08 01:00;CYYC 080100Z 15017KT 25SM FEW019 FEW038 SCT095 BKN200 09/05 A2976 RMK SC1SC1AS1CI0 DIST SH E/VIS LWR E SLP109

CYYC;2008-05-08 02:00;CYYC 080200Z 14010KT 15SM FEW030 BKN055 OVC100 09/05 A2976 RMK CU1SC5AC2 SLP109

CYYC;2008-05-08 03:00;CYYC 080300Z CCA 14013KT 15SM SCT020 BKN048 OVC100 08/05 A2976 RMK SC3SC2AC2 ACC ASOCTD NE SLP102

CYYC;2008-05-08 04:00;CYYC 080400Z 12006KT 12SM SCT018 BKN048 OVC140 07/06 A2975 RMK SC3SC3AC2 SLP101

CYYC;2008-05-08 05:00;CYYC 080500Z 13008KT 10SM -RA BKN017 OVC040 07/06 A2975 RMK SC6SC2 SLP100

CYYC;2008-05-08 06:00;CYYC 080600Z 26006KT 8SM -RA OVC034 05/04 A2975 RMK SC8 SLP095

CYYC;2008-05-08 07:00;CYYC 080700Z 03003KT 15SM -RA BKN023 OVC040 05/04 A2973 RMK SC6SC2 SLP090

CYYC;2008-05-08 08:00;CYYC 080800Z 36005KT 15SM -RA FEW016 OVC022 05/05 A2973 RMK SF1SC8 RA VRY LGT SLP089

CYYC;2008-05-08 08:55;CYYC 080855Z 35006KT 15SM FEW016 OVC028 05/ RMK SF1SC8

CYYC;2008-05-08 09:00;CYYC 080900Z 35008KT 15SM FEW016 BKN027 OVC038 05/05 A2971 RMK SF1SC6SC2 SLP086

CYYC;2008-05-08 09:31;CYYC 080931Z 34011KT 6SM -RA FEW014 OVC020 03/ RMK SC2SC6

CYYC;2008-05-08 10:00;CYYC 081000Z 33013KT 4SM -RA SCT013 OVC027 02/02 A2970 RMK SC4SC4 SLP084

CYYC;2008-05-08 11:00;CYYC 081100Z 34013KT 10SM -RA FEW015 OVC018 02/02 A2969 RMK SC2SC6 SLP080

CYYC;2008-05-08 12:00;CYYC 081200Z 35011KT 7SM -RA FEW011 OVC015 02/02 A2968 RMK SC1SC7 SLP076

CYYC;2008-05-08 13:00;CYYC 081300Z 36018KT 3SM -RA BR OVC012 02/02 A2968 RMK SC8 VIS W 2 SLP075

CYYC;2008-05-08 13:10;CYYC 081310Z 36018KT 1 1/2SM -RA BR OVC011 02/ RMK SC8

CYYC;2008-05-08 13:15;CYYC 081315Z 36018KT 1 1/2SM -DZ BR OVC011 02/ RMK ST8

CYYC;2008-05-08 13:30;CYYC 081330Z CCA 36015KT 3SM -DZ BR OVC010 02/ RMK ST8

CYYC;2008-05-08 13:46;CYYC 081346Z CCA 35011KT 3SM -DZ BR FEW005 OVC010 02/ RMK ST2ST6

CYYC;2008-05-08 14:00;CYYC 081400Z 36011KT 3SM -DZ BR SCT005 OVC010 02/02 A2968 RMK ST3ST5 SLP076

CYYC;2008-05-08 14:08;CYYC 081408Z 35012G17KT 3SM -DZ BR SCT004 OVC007 02/ RMK ST3ST5

CYYC;2008-05-08 15:00;CYYC 081500Z 36009KT 3SM -RA BR FEW002 OVC005 02/02 A2968 RMK ST2SC6 SLP079

CYYC;2008-05-08 15:43;CYYC 081543Z 34008KT 5SM -RA BR FEW002 OVC004 03/ RMK ST2SC6 PCPN INTMT

CYYC;2008-05-08 16:00;CYYC 081600Z 01006KT 5SM -RA BR FEW002 OVC003 03/03 A2968 RMK ST2SC6 INTMT/VRY LGT RA SLP080

CYYC;2008-05-08 16:14;CYYC 081614Z 05003KT 1/2SM -RA FG SCT001 OVC002 04/ RMK ST3SC5

CYYC;2008-05-08 16:20;CYYC 081620Z 10002KT 1/2SM DZ FG BKN001 OVC002 04/ RMK ST5SC3

CYYC;2008-05-08 16:33;CYYC 081633Z 00000KT 1SM -DZ BR BKN001 OVC002 04/ RMK ST5SC3

CYYC;2008-05-08 16:50;CYYC 081650Z CCA 07007KT 1SM -RA BR SCT001 OVC003 04/ RMK ST4SC4

CYYC;2008-05-08 16:53;CYYC 081653Z 09009KT 1/2SM -RA FG SCT001 OVC003 04/ RMK ST4SC4

CYYC;2008-05-08 17:00;CYYC 081700Z 09010KT 1/2SM -RA FG SCT001 OVC003 04/04 A2970 RMK ST4SC4 SLP084

CYYC;2008-05-08 18:00;CYYC 081800Z 08011KT 1/2SM -RA FG FEW002 OVC003 05/05 A2971 RMK ST2SC6 INTMT/VRY LGT RA SLP092

CYYC;2008-05-08 18:06;CYYC 081806Z 08013KT 4SM -RA BR FEW002 OVC003 04/ RMK ST2SC6 RA INTMT/VRY LGT

CYYC;2008-05-08 18:20;CYYC 081820Z 09012KT 10SM FEW003 BKN007 OVC025 05/ RMK ST2SC5SC1 BR

CYYC;2008-05-08 18:39;CYYC 081839Z 07010G15KT 15SM SCT007 OVC020 05/ RMK SC3SC5

CYYC;2008-05-08 19:00;CYYC 081900Z 05010KT 20SM FEW007 FEW010 OVC020 05/05 A2972 RMK SC1SC2SC6 SLP093

CYYC;2008-05-08 20:00;CYYC 082000Z 04011KT 15SM FEW009 FEW015 BKN020 OVC075 07/06 A2975 RMK SC1SC1SC6AC1 DIST SH W-NE SLP102

CYYC;2008-05-08 20:49;CYYC 082049Z 05017KT 15SM -SHRA SCT007 BKN020 05/ RMK CU3SC4

CYYC;2008-05-08 21:00;CYYC 082100Z 05018KT 15SM SCT007 BKN020 06/05 A2976 RMK CU3SC4 OCNL SH SLP107

CYYC;2008-05-08 21:06;CYYC 082106Z 06015G21KT 15SM SCT006 BKN020 BKN110 BKN180 06/ RMK CU3SC2AC1AC1

CYYC;2008-05-08 21:27;CYYC 082127Z 05018G24KT 15SM BKN005 BKN110 06/ RMK SC6AC2 VIRGA ALQDS/CVCTV CLD EMBD

CYYC;2008-05-08 21:34;CYYC 082134Z 05022KT 15SM -SHRA FEW003 BKN005 OVC110 06/ RMK ST2SC4AC1 VIS LWR E+W/CVCTV CLD EMBD

CYYC;2008-05-08 21:42;CYYC 082142Z 05021KT 10SM -TSRA FEW002 BKN003 OVC100 05/ RMK ST2SC5AC1 CB EMBD

CYYC;2008-05-08 22:00;CYYC 082200Z 05019KT 3SM TSRA BR FEW001 OVC002 04/04 A2979 RMK ST2SC6 CB EMBD SLP117

CYYC;2008-05-08 22:35;CYYC 082235Z 06017G25KT 5SM -SHRA FEW002 OVC005 03/ RETSRA RMK ST2SC6 CB EMBD

CYYC;2008-05-08 22:51;CYYC 082251Z CCA 05008G15KT 7SM -SHSN FEW002 OVC005 01/ RETSRA RMK ST2SC6 CVCTV EMBD

CYYC;2008-05-08 23:00;CYYC 082300Z 03007KT 7SM -SHRA FEW002 OVC005 01/01 A2982 RETSRA RMK ST2SC6 CVCTV CLD EMBD SLP126

CYYC;2008-05-09 00:00;CYYC 090000Z 06011KT 15SM -SHRA FEW003 OVC007 04/04 A2985 RMK ST2SC6 RA INTMT/VRY LGT SLP144

CYYC;2008-05-09 00:19;CYYC 090019Z 07013KT 15SM FEW002 SCT005 OVC009 04/ RMK ST2SC2SC5 CVCTV CLD EMBD

CYYC;2008-05-09 00:53;CYYC 090053Z 04015KT 15SM -SHRA FEW002 OVC010 03/ RMK ST2SC6 CVCTV CLD EMBD

CYYC;2008-05-09 01:00;CYYC 090100Z 04013KT 15SM -SHRA FEW003 OVC010 03/03 A2987 RMK ST2SC6 SLP151

CYYC;2008-05-09 01:41;CYYC 090141Z 02016KT 5SM -RA BR OVC004 02/ RMK SC8

CYYC;2008-05-09 01:51;CYYC 090151Z 02015G20KT 3SM -SN BR OVC004 01/ RMK SC8

CYYC;2008-05-09 01:53;CYYC 090153Z 02015KT 1/2SM SN VV003 01/ RMK SN8 RVR RWY16 5000 FT

CYYC;2008-05-09 02:00;CYYC 090200Z 02012G18KT 1/2SM SN VV004 01/00 A2989 RMK SN8 RVR RWY16 6000 FT SLP158

CYYC;2008-05-09 02:15;CYYC 090215Z 03016KT 2 1/2SM -SN OVC004 01/ RESN RMK SC8

CYYC;2008-05-09 03:00;CYYC 090300Z CCA 03017KT 1 1/2SM -SN OVC004 01/00 A2991 RESN RMK SC8 VIS E 1 SLP171

CYYC;2008-05-09 04:00;CYYC 090400Z 01011G17KT 1 1/2SM -SN OVC004 00/00 A2994 RMK SC8 SLP179

CYYC;2008-05-09 04:48;CYYC 090448Z 01011G16KT 1 1/4SM -SN BKN004 OVC008 00/ RMK SN4SC2SC2

CYYC;2008-05-09 05:00;CYYC 090500Z 36013KT 1 1/4SM -SN BKN004 OVC008 00/M00 A2996 RMK SN3SC3SC2 /S01/ SLP184

CYYC;2008-05-09 05:20;CYYC 090520Z 36015KT 1SM -SN OVC003 00/ RMK SN4SC4 RVR RWY16 3000 FT

CYYC;2008-05-09 06:00;CYYC 090600Z 36014KT 1 1/2SM -SN BKN004 OVC009 00/M01 A2996 RMK SN2SC5SC1 /S02/ SLP186

CYYC;2008-05-09 06:44;CYYC 090644Z 36014KT 1SM -SN BKN003 OVC010 00/ RMK SN4SC3SC1 RVR RWY16 4500 FT

CYYC;2008-05-09 07:00;CYYC 090700Z 36014KT 1SM -SN BKN004 OVC010 00/M01 A2998 RMK SN4SC3SC1 RVR RWY16 5500 FT/ CIG VRB 3-5 SLP190

CYYC;2008-05-09 08:00;CYYC 090800Z 35013KT 1SM -SN OVC004 00/M01 A2999 RMK SN3SC5 /S01/ RVR RWY34 6000 FT SLP193

CYYC;2008-05-09 09:00;CYYC 090900Z 36013KT 3/4SM -SN BKN004 OVC010 00/M01 A2999 RMK SN5SC2SC1 RVR RWY34 3500 FT SLP193

CYYC;2008-05-09 09:36;CYYC 090936Z 35014KT 3SM -SN BKN008 OVC017 00/ RMK SC5SC3

CYYC;2008-05-09 10:00;CYYC 091000Z 35015KT 3SM -SN FEW009 BKN016 OVC021 01/M02 A3000 RMK SC2SC4SC2 SLP196

CYYC;2008-05-09 11:00;CYYC 091100Z 36013KT 10SM -SN FEW020 BKN055 OVC081 01/M01 A3001 RMK SC1SC6AC2 SLP200

CYYC;2008-05-09 12:00;CYYC 091200Z 35011KT 15SM -SN FEW060 OVC079 00/M02 A3003 RMK SC2AC6 SNOW COVER/MUCH LOOSE SLP208

CYYC;2008-05-09 12:22;CYYC 091222Z 36011KT 15SM FEW065 OVC078 00/ RMK SC2AC6

CYYC;2008-05-09 13:00;CYYC 091300Z 35010KT 20SM FEW062 OVC078 00/M02 A3004 RMK SC2AC5 SLP212

CYYC;2008-05-09 14:00;CYYC 091400Z 35010KT 25SM FEW055 BKN070 BKN250 00/M02 A3006 RMK SC1AC2CI1 SLP217

CYYC;2008-05-09 15:00;CYYC 091500Z 33008KT 25SM FEW058 BKN075 BKN250 01/01 A3006 RMK SC1AC2CI0 SLP223

CYYC;2008-05-09 16:00;CYYC 091600Z 34009KT 25SM FEW012 FEW260 02/M02 A3007 RMK CU1CI1 SLP228

CYYC;2008-05-09 17:00;CYYC 091700Z 34010KT 30SM FEW016 FEW250 03/M02 A3007 RMK CU1CI1 SLP228

CYYC;2008-05-09 18:00;CYYC 091800Z 35010KT 30SM FEW026TCU 05/M02 A3008 RMK TCU1 SLP228

CYYC;2008-05-09 19:00;CYYC 091900Z 35009KT 30SM FEW030TCU 05/M03 A3009 RMK TCU1 SLP229

CYYC;2008-05-09 20:00;CYYC 092000Z 36006KT 30SM FEW050TCU 06/M06 A3009 RMK TCU1 SLP229

CYYC;2008-05-09 21:00;CYYC 092100Z 01005KT 30SM FEW046 07/M04 A3007 RMK CU1 SLP222

CYYC;2008-05-09 22:00;CYYC 092200Z 09003KT 30SM FEW050 07/M06 A3008 RMK CU1 SLP224

CYYC;2008-05-09 23:00;CYYC 092300Z 26002KT 30SM FEW056 FEW240 07/M06 A3007 RMK CU1CI1 SLP220

CYYC;2008-05-10 00:00;CYYC 100000Z 17002KT 30SM FEW062 08/M07 A3007 RMK CU1 SLP217

CYYC;2008-05-10 01:00;CYYC 100100Z 10002KT 30SM FEW065 08/M09 A3006 RMK SC1 SLP216

CYYC;2008-05-10 02:00;CYYC 100200Z 00000KT 30SM FEW060 07/M09 A3005 RMK CU1 CU TR SLP212

CYYC;2008-05-10 03:00;CYYC 100300Z 11005KT 30SM SKC 07/M07 A3005 RMK SLP211

CYYC;2008-05-10 04:00;CYYC 100400Z 22007KT 15SM SKC 05/M04 A3006 RMK SLP213

CYYC;2008-05-10 05:00;CYYC 100500Z 20005KT 15SM SKC 04/M04 A3005 RMK SLP210

CYYC;2008-05-10 06:00;CYYC 100600Z 18006KT 15SM SKC 02/M04 A3003 RMK SLP205

CYYC;2008-05-10 07:00;CYYC 100700Z 18007KT 15SM SKC 02/M03 A3002 RMK SLP202

CYYC;2008-05-10 08:00;CYYC 100800Z 19005KT 15SM SKC 01/M03 A3001 RMK SLP199

CYYC;2008-05-10 09:00;CYYC 100900Z 18006KT 15SM SKC 01/M04 A2999 RMK SLP190

CYYC;2008-05-10 10:00;CYYC 101000Z 18006KT 15SM SKC M00/M03 A2997 RMK SLP185

CYYC;2008-05-10 11:00;CYYC 101100Z 20006KT 15SM FEW250 M00/M03 A2995 RMK CI0 SLP180

CYYC;2008-05-10 12:00;CYYC 101200Z 20007KT 30SM FEW050 BKN240 M00/M02 A2994 RMK CU1CI1 CU TR SLP175

CYYC;2008-05-10 13:00;CYYC 101300Z 19006KT 40SM FEW050 OVC240 M00/M02 A2993 RMK CU1CI5 CU TR SLP172

CYYC;2008-05-10 14:00;CYYC 101400Z 20008KT 40SM FEW012 SCT200 OVC240 02/M01 A2991 RMK CU1CI2CI0 SLP166

CYYC;2008-05-10 15:00;CYYC 101500Z 22010KT 40SM FEW022 FEW180 BKN220 OVC250 05/M00 A2990 RMK SC1AC2CI1CI0 SC TR SLP155

CYYC;2008-05-10 16:00;CYYC 101600Z 23012KT 40SM FEW034 FEW120 BKN150 OVC220 08/M01 A2989 RMK SC1AC2AS2CI0 DIST SH S-NW/VIS LWR S+NW SLP150

CYYC;2008-05-10 17:00;CYYC 101700Z 22004KT 40SM -RA SCT030 SCT040 BKN090 BKN250 08/M01 A2988 RMK SC4CU1AC1CI0 VIS LWR S/PCPN VRY LGT SLP149

CYYC;2008-05-10 17:09;CYYC 101709Z CCA 16003KT 40SM SCT030 BKN070 BKN120 09/ RMK SC3AC1AS1 DIST SH S/VIRGA N-SE/VIS LWR S/CVCTV ASOCTD

CYYC;2008-05-10 18:00;CYYC 101800Z 16009KT 40SM BKN045 10/M02 A2987 RMK SC6 DIST SH NE-S/VIS LWR NE-/CVCTV ASOCTD SLP144

CYYC;2008-05-10 19:00;CYYC 101900Z 19010KT 40SM FEW052 FEW082 BKN130 BKN260 12/M02 A2985 RMK CU1AC2AS1CI0 SLP136

CYYC;2008-05-10 20:00;CYYC 102000Z 19008KT 40SM FEW050 FEW082 BKN120 BKN220 12/M02 A2982 RMK CU1AS2AS1CI0 SLP129

CYYC;2008-05-10 21:00;CYYC 102100Z 23008KT 40SM FEW062 FEW065 SCT100 BKN240 13/M02 A2980 RMK SC1CU2AS1CI0 SLP117

CYYC;2008-05-10 22:00;CYYC 102200Z 25013KT 40SM SCT065 BKN110 13/M03 A2979 RMK CU3AS2 SLP114

CYYC;2008-05-10 23:00;CYYC 102300Z 27011G18KT 40SM FEW065 FEW120 SCT220 BKN260 14/M03 A2978 RMK CU1AC1CI0CI0 DIST SH E/VIS E 10 SLP109

CYYC;2008-05-11 00:00;CYYC 110000Z 27015G20KT 40SM FEW065 FEW120 SCT200 BKN260 13/M03 A2977 RMK CU1AC1CI1CI0 DIST SH E/VIS E 8 SLP107

CYYC;2008-05-11 01:00;CYYC 110100Z 25018KT 40SM FEW060 SCT130 BKN230 12/M03 A2977 RMK CU1AS1CI0 DIST SH E/VIS E 10 SLP107

CYYC;2008-05-11 02:00;CYYC 110200Z 26016KT 40SM FEW060 FEW140 BKN220 12/M02 A2976 RMK CU1AC1CI1 SLP104

CYYC;2008-05-11 03:00;CYYC 110300Z 26009KT 40SM FEW060 FEW140 BKN240 10/M02 A2975 RMK CU1AC1CI1 CU TR SLP097

CYYC;2008-05-11 04:00;CYYC 110400Z 26008KT 15SM FEW140 BKN250 09/M01 A2975 RMK AC1CI1 SLP096

CYYC;2008-05-11 05:00;CYYC 110500Z 27006KT 15SM SCT170 BKN250 09/M02 A2974 RMK AC2CI2 SLP093

CYYC;2008-05-11 06:00;CYYC 110600Z 27008KT 15SM FEW140 BKN220 08/M02 A2972 RMK AC1CI3 SLP082

CYYC;2008-05-11 07:00;CYYC 110700Z 27007KT 15SM BKN240 08/M02 A2970 RMK CI2 SLP078

CYYC;2008-05-11 08:00;CYYC 110800Z 35003KT 15SM BKN240 06/M01 A2969 RMK CI2 SLP075

CYYC;2008-05-11 09:00;CYYC 110900Z 36007KT 15SM FEW250 03/M00 A2969 RMK CI1 SLP074

CYYC;2008-05-11 10:00;CYYC 111000Z 35006KT 15SM BKN095 05/M01 A2967 RMK AC5 SLP070

CYYC;2008-05-11 11:00;CYYC 111100Z 31005KT 20SM SCT093 BKN240 04/M01 A2967 RMK AC2CI2 SLP068

CYYC;2008-05-11 12:00;CYYC 111200Z 22003KT 20SM SCT072 OVC220 04/M00 A2967 RMK AC4CI2 SLP066

CYYC;2008-05-11 13:00;CYYC 111300Z 31003KT 20SM BKN055 BKN080 OVC220 05/00 A2966 RMK SC5AC2CI1 ACC ASOCTD SLP064

CYYC;2008-05-11 14:00;CYYC 111400Z 31006KT 20SM FEW055 SCT110 BKN210 07/01 A2966 RMK SC1AC2CS2 SLP063

CYYC;2008-05-11 15:00;CYYC 111500Z 35008KT 25SM FEW030 FEW110 BKN210 08/01 A2965 RMK CU1AC2CS2 SLP059

CYYC;2008-05-11 16:00;CYYC 111600Z 35008KT 25SM FEW030 FEW110 BKN210 08/01 A2965 RMK CU1AC2CS2 SLP059

CYYC;2008-05-11 17:00;CYYC 111700Z 02009KT 30SM SCT042 BKN140 BKN210 11/02 A2964 RMK CU4AC1CS1 SLP053

CYYC;2008-05-11 18:00;CYYC 111800Z 01007KT 20SM BKN046 BKN170 BKN220 10/02 A2964 RMK CU5AC1CI1 DIST SH SW SLP053

CYYC;2008-05-11 19:00;CYYC 111900Z CCA 35010KT 20SM BKN053 BKN220 11/01 A2964 RMK CU6CS1 DIST SH SW SLP053

CYYC;2008-05-11 20:00;CYYC 112000Z 35012KT 20SM BKN057 BKN088 BKN220 12/02 A2965 RMK CU5AC2CS1 SH SW + SE / LRG CU ASOCTD SLP057

CYYC;2008-05-11 21:00;CYYC 112100Z CCA 36011G17KT 20SM SCT054 BKN082 13/02 A2965 RMK CU3AC2 SH SW SLP060

CYYC;2008-05-11 22:00;CYYC 112200Z 02011G18KT 20SM SCT059 BKN082 12/02 A2966 RMK CU4AC3 SH SW SLP063

CYYC;2008-05-11 23:00;CYYC 112300Z 01015G22KT 20SM SCT054 BKN080 BKN230 12/01 A2967 RMK CU4CU1CI1 SH S-W / TCU ASOCTD SLP066

CYYC;2008-05-12 00:00;CYYC 120000Z 36019G25KT 20SM FEW058TCU FEW170 BKN220 11/02 A2968 RMK TCU2AC1CI2 SH SW SLP074

CYYC;2008-05-12 01:00;CYYC 120100Z 34014G22KT 20SM FEW057 FEW080 SCT150 BKN220 10/00 A2970 RMK CU1AC1AC2CI2 SH SW-NW / CB ASOCTD SW-NW SLP080

CYYC;2008-05-12 02:00;CYYC 120200Z 35015KT 20SM FEW040 BKN140 OVC250 10/01 A2972 RMK SC1AC5CI0 SLP084

CYYC;2008-05-12 03:00;CYYC 120300Z 34014KT 20SM FEW060 SCT120 BKN250 08/01 A2974 RMK SC1AC2CI0 TCU ASOCTD E/VIRGA SW SLP092

CYYC;2008-05-12 04:00;CYYC 120400Z 34012KT 15SM FEW040 BKN120 06/02 A2977 RMK SC2AC1 SLP102

CYYC;2008-05-12 05:00;CYYC 120500Z 31008KT 15SM BKN060 OVC120 05/03 A2979 RMK SC5AC2 SLP106

CYYC;2008-05-12 06:00;CYYC 120600Z 31014KT 15SM BKN060 OVC080 05/02 A2980 RMK SC5AC2 SLP113

CYYC;2008-05-12 07:00;CYYC 120700Z 32015KT 15SM BKN060 OVC080 05/03 A2981 RMK SC6AC2 SLP117

CYYC;2008-05-12 08:00;CYYC 120800Z CCA 32008KT 15SM BKN060 BKN110 04/02 A2982 RMK SC5AC1 VIRGA SW SLP119

CYYC;2008-05-12 09:00;CYYC 120900Z 31013KT 15SM SCT060 BKN110 04/02 A2983 RMK SC2AC2 SLP121

CYYC;2008-05-12 10:00;CYYC 121000Z 31012KT 15SM FEW060 FEW110 03/01 A2984 RMK SC1AC0 SLP125

CYYC;2008-05-12 11:00;CYYC 121100Z 32010KT 15SM FEW060 FEW110 02/01 A2986 RMK SC1AC1 SLP131

CYYC;2008-05-12 12:00;CYYC 121200Z 31009KT 40SM FEW060 FEW110 02/00 A2987 RMK SC1AC1 SLP141

CYYC;2008-05-12 13:00;CYYC 121300Z 33011KT 20SM SCT090 04/01 A2989 RMK AC2 ACC ASOCTD W SLP148

CYYC;2008-05-12 14:00;CYYC 121400Z 33013KT 30SM SCT032 BKN080 BKN240 05/01 A2991 RMK SC3AC2CI0 SLP155

CYYC;2008-05-12 15:00;CYYC 121500Z 34016KT 30SM FEW030 FEW045 BKN100 BKN240 06/02 A2994 RMK CU1SC2AC2CI0 SLP165

CYYC;2008-05-12 16:00;CYYC 121600Z 36013G19KT 30SM FEW033 FEW042 BKN110 BKN240 08/02 A2994 RMK CU2SC1AC2CI0 SLP166

CYYC;2008-05-12 17:00;CYYC 121700Z 34017G24KT 20SM SCT046 BKN110 09/00 A2993 RMK CU4AC1 SLP161

CYYC;2008-05-12 17:25;CYYC 121725Z 34020KT 20SM -SHRA FEW047 BKN053TCU BKN110 BKN240 08/ RMK CU2TCU4AC1CI0

CYYC;2008-05-12 18:00;CYYC 121800Z 32013G18KT 20SM -SHRA FEW045 BKN053TCU BKN110 BKN250 07/03 A2995 RMK CU1TCU5AC1CI0 SLP170

CYYC;2008-05-12 18:26;CYYC 121826Z 33010G20KT 20SM -SHRA FEW030 SCT055TCU BKN110 BKN240 06/ RERA RMK CU1TCU3AC2CI1 ICE PELLET SHOWES REPORTED EAST OF AIRPORT

CYYC;2008-05-12 18:33;CYYC 121833Z 31009KT 20SM FEW055TCU SCT071CB BKN110 BKN240 06/ RERA RMK TCU2CB2AC2CI1 CB S+NE/ VIRGA S

CYYC;2008-05-12 19:00;CYYC 121900Z 34006KT 20SM VCSH FEW051TCU SCT065CB BKN110 BKN220 08/02 A2995 RERA RMK TCU2CB2AC2CI1 SH S-W SLP171

CYYC;2008-05-12 20:00;CYYC 122000Z 32010KT 20SM -SHRAPL SCT044TCU BKN065CB BKN110 09/01 A2995 RMK TCU3CB2AC1 SLP169

CYYC;2008-05-12 20:15;CYYC 122015Z 33023KT 20SM -SHRA SCT055TCU BKN065CB BKN110 07/ RMK TCU3CB2AC1

CYYC;2008-05-12 21:00;CYYC 122100Z 30018KT 25SM -SHRA FEW055TCU SCT065CB BKN120 10/02 A2996 RMK TCU2CB2AC2 SHRA VRY LGT SLP173

CYYC;2008-05-12 21:46;CYYC 122146Z 33013G20KT 25SM FEW040 SCT080TCU BKN120 11/ RMK CU1TCU3AC1 VIRGA NE

CYYC;2008-05-12 22:00;CYYC 122200Z 33010G18KT 25SM FEW040 BKN080TCU BKN120 11/00 A2996 RMK CU1TCU4AC1 SLP172

CYYC;2008-05-12 23:00;CYYC 122300Z 34012KT 30SM FEW045 BKN090TCU BKN120 11/M03 A2996 RMK CU1TCU5AC1 SLP173

CYYC;2008-05-13 00:00;CYYC 130000Z 02012G17KT 30SM FEW050 FEW080CB 12/M01 A2997 RMK CU1CB2 SLP175

CYYC;2008-05-13 01:00;CYYC 130100Z 36010KT 30SM FEW050 FEW080CB 11/M02 A2997 RMK CU1CB1 SLP174

CYYC;2008-05-13 02:00;CYYC 130200Z 04005KT 30SM FEW050 FEW080CB 10/M01 A2997 RMK CU1CB1 SLP175

CYYC;2008-05-13 03:00;CYYC 130300Z 14002KT 30SM FEW050 FEW080CB 08/M02 A2997 RMK CU1CB1 SLP175

CYYC;2008-05-13 04:00;CYYC 130400Z 17003KT 15SM FEW050 FEW080 07/M03 A2997 RMK SC1AC1 SLP174

CYYC;2008-05-13 05:00;CYYC 130500Z 16005KT 15SM FEW050 FEW080 06/M01 A2997 RMK SC1AC1 SLP176

CYYC;2008-05-13 06:00;CYYC 130600Z 19006KT 15SM SKC 06/M01 A2996 RMK SLP174

CYYC;2008-05-13 07:00;CYYC 130700Z 19006KT 15SM SKC 05/M01 A2994 RMK SLP168

CYYC;2008-05-13 08:00;CYYC 130800Z 19005KT 15SM SKC 05/M01 A2991 RMK SLP158

CYYC;2008-05-13 09:00;CYYC 130900Z 19006KT 15SM FEW240 04/M01 A2991 RMK CI1 SLP153

CYYC;2008-05-13 10:00;CYYC 131000Z 20005KT 15SM BKN210 04/M00 A2990 RMK CI2 SLP151

CYYC;2008-05-13 11:00;CYYC 131100Z 21006KT 15SM SCT210 03/M01 A2988 RMK CI2 SLP144

CYYC;2008-05-13 12:00;CYYC 131200Z 21008KT 40SM FEW090 BKN210 03/M01 A2986 RMK AC1CI2 SLP138

CYYC;2008-05-13 13:00;CYYC 131300Z 19005KT 40SM FEW090 OVC180 04/M00 A2985 RMK AC1AS6 SLP135

CYYC;2008-05-13 14:00;CYYC 131400Z 21008KT 40SM FEW090 SCT180 OVC250 06/00 A2983 RMK AC1AS2CI3 SLP127

CYYC;2008-05-13 15:00;CYYC 131500Z 22008KT 40SM FEW080 FEW140 FEW180 BKN230 10/M01 A2983 RMK AC1AC1AC2CS2 SLP120

CYYC;2008-05-13 16:00;CYYC 131600Z 24010KT 40SM SCT100 SCT150 SCT200 BKN230 12/M02 A2982 RMK AC2AC2CC1CS2 SLP119

CYYC;2008-05-13 17:00;CYYC 131700Z 26007KT 40SM FEW040 FEW065 SCT100 OVC220 13/M02 A2980 RMK CU2SC1AC1CS2 SLP112

CYYC;2008-05-13 18:00;CYYC 131800Z 25013G18KT 40SM FEW065 SCT097 OVC230 15/M01 A2977 RMK CU2AC1CS2 SLP096

CYYC;2008-05-13 19:00;CYYC 131900Z 26015KT 40SM BKN079 BKN120 BKN230 15/M01 A2976 RMK CU5AC1CS1 SLP094

CYYC;2008-05-13 20:00;CYYC 132000Z 26016KT 40SM BKN080 OVC230 15/M01 A2975 RMK CU5CS1 SLP090

CYYC;2008-05-13 21:00;CYYC 132100Z 26011G16KT 40SM SCT077 OVC200 16/M00 A2974 RMK CU3CS2 SLP086

CYYC;2008-05-13 22:00;CYYC 132200Z 25009G21KT 40SM FEW078 FEW130 OVC220 17/00 A2973 RMK CU2AC1CS2 CU ASOCTD SLP083

CYYC;2008-05-13 23:00;CYYC 132300Z 28012G18KT 40SM FEW045 FEW080 FEW120 OVC210 16/M01 A2971 RMK CU1AC1AC1CS3 SLP079

CYYC;2008-05-14 00:00;CYYC 140000Z 26020KT 40SM FEW045 FEW078 FEW170 OVC210 15/M00 A2973 RMK CU1AC1AS2CS4 SLP087

CYYC;2008-05-14 01:00;CYYC 140100Z 27018G26KT 40SM FEW045 FEW075 BKN130 OVC210 14/M01 A2973 RMK CU1AC1AS6CS1 SLP085

CYYC;2008-05-14 02:00;CYYC 140200Z 27020G26KT 30SM FEW060 BKN110 OVC220 13/M01 A2973 RMK CU1AS6CI2 VIRGA SW SLP086

CYYC;2008-05-14 03:00;CYYC 140300Z 27014G25KT 40SM FEW060 BKN092 OVC210 12/M01 A2974 RMK CU1AS6CI2 VIRGA SW SLP085

CYYC;2008-05-14 04:00;CYYC 140400Z 27021G30KT 15SM FEW075 OVC090 12/M00 A2976 RMK AC1AS7 VIRGA SW SLP090

CYYC;2008-05-14 05:00;CYYC 140500Z 26019KT 15SM FEW088 BKN100 OVC240 11/00 A2978 RMK AC2AS4CI1 SLP096

CYYC;2008-05-14 06:00;CYYC 140600Z 28015KT 15SM OVC072 11/M00 A2980 RMK AC8 SLP098

CYYC;2008-05-14 07:00;CYYC 140700Z 28008KT 15SM OVC076 10/00 A2981 RMK AC8 SLP102

CYYC;2008-05-14 08:00;CYYC 140800Z 29011KT 15SM OVC077 10/M00 A2983 RMK AC8 SLP108

CYYC;2008-05-14 09:00;CYYC 140900Z 31007KT 15SM OVC075 10/00 A2986 RMK AC8 SLP123

CYYC;2008-05-14 10:00;CYYC 141000Z 31009KT 15SM OVC087 08/00 A2988 RMK AC7 SLP129

CYYC;2008-05-14 11:00;CYYC 141100Z 34008KT 15SM OVC081 09/M00 A2993 RMK AC7 SLP142

CYYC;2008-05-14 12:00;CYYC 141200Z 31008KT 20SM BKN080 OVC120 09/M00 A2996 RMK AC6AC2 SLP159

CYYC;2008-05-14 13:00;CYYC 141300Z 31007KT 40SM BKN070 BKN120 OVC220 09/00 A2999 RMK AC6AC1CI1 VIRGA NE SLP168

CYYC;2008-05-14 14:00;CYYC 141400Z 34008KT 40SM BKN080 OVC220 10/00 A3002 RMK AC5CI2 VIRGA W SLP176

CYYC;2008-05-14 15:00;CYYC 141500Z 36005KT 40SM FEW084 SCT130 BKN200 11/00 A3004 RMK AC2AC1CI2 SLP186

CYYC;2008-05-14 16:00;CYYC 141600Z 04005KT 40SM FEW084 FEW130 BKN250 11/00 A3005 RMK AC1AC1CI2 SLP189

CYYC;2008-05-14 17:00;CYYC 141700Z 15002KT 40SM FEW065 FEW086 BKN230 13/00 A3005 RMK CU1AC1CI3 SLP190

CYYC;2008-05-14 18:00;CYYC 141800Z 22005KT 40SM SCT065 BKN230 14/01 A3005 RMK CU3CI0 SLP186

CYYC;2008-05-14 19:00;CYYC 141900Z CCA 29009KT 40SM FEW079 BKN230 16/M01 A3005 RMK CU2CI0 SLP186

CYYC;2008-05-14 20:00;CYYC 142000Z 29003KT 40SM FEW082 FEW160 SCT230 17/M01 A3004 RMK CU2AC1CI0 SLP183

CYYC;2008-05-14 21:00;CYYC 142100Z 23009KT 40SM BKN083 BKN160 BKN230 18/M00 A3005 RMK CU5AC1CI0 SLP183

CYYC;2008-05-14 22:00;CYYC 142200Z 27005G15KT 40SM BKN081 BKN160 BKN230 17/M00 A3005 RMK CU6AC1CI0 SLP182

CYYC;2008-05-14 23:00;CYYC 142300Z 32010KT 40SM BKN091 18/M01 A3006 RMK AC6 SLP187

CYYC;2008-05-15 00:00;CYYC 150000Z 33014G21KT 40SM BKN088 BKN240 19/M00 A3008 RMK AC6CI1 SLP193

CYYC;2008-05-15 01:00;CYYC 150100Z 34014G20KT 40SM FEW042 BKN095 BKN230 17/M01 A3011 RMK CU1AC6CI0 SLP203

CYYC;2008-05-15 02:00;CYYC 150200Z 34015KT 40SM SCT087 BKN110 BKN240 17/M00 A3013 RMK AC4AC1CI0 SLP208

CYYC;2008-05-15 03:00;CYYC 150300Z 35009KT 40SM BKN086 BKN120 BKN240 16/01 A3015 RMK AC5AC1CI0 SLP220

CYYC;2008-05-15 04:00;CYYC 150400Z 33004KT 15SM BKN077 BKN120 OVC240 15/02 A3018 RMK AC6AC1CI0 SLP230

CYYC;2008-05-15 05:00;CYYC 150500Z 30005KT 15SM OVC075 15/02 A3021 RMK AC8 SLP237

CYYC;2008-05-15 06:00;CYYC 150600Z 31006KT 15SM OVC061 14/03 A3023 RMK SC8 SLP245

CYYC;2008-05-15 07:00;CYYC 150700Z 34007KT 15SM OVC060 14/04 A3025 RMK SC8 SLP251

CYYC;2008-05-15 08:00;CYYC 150800Z 31006KT 15SM OVC057 14/04 A3026 RMK SC8 SLP253

CYYC;2008-05-15 09:00;CYYC 150900Z 26004KT 15SM OVC060 14/03 A3026 RMK SC8 SLP249

CYYC;2008-05-15 10:00;CYYC 151000Z 26009KT 15SM OVC063 14/03 A3025 RMK SC8 SLP246

CYYC;2008-05-15 11:00;CYYC 151100Z 26009KT 15SM OVC065 13/03 A3025 RMK SC8 SLP247

CYYC;2008-05-15 12:00;CYYC 151200Z 25004KT 40SM BKN065 13/03 A3025 RMK SC3 SLP247

CYYC;2008-05-15 13:00;CYYC 151300Z 16003KT 40SM FEW080 FEW250 14/03 A3026 RMK AC1CI1 CLDS TR SLP250

CYYC;2008-05-15 14:00;CYYC 151400Z 26006KT 40SM FEW220 15/03 A3026 RMK CI1 SLP252

CYYC;2008-05-15 15:00;CYYC 151500Z 28011KT 40SM FEW050 18/04 A3027 RMK SC1 SLP252

CYYC;2008-05-15 16:00;CYYC 151600Z 30007KT 40SM FEW060 FEW084 20/04 A3027 RMK SC1AC1 SLP251

CYYC;2008-05-15 17:00;CYYC 151700Z 25007KT 40SM FEW070 21/04 A3025 RMK CU1 SLP245

CYYC;2008-05-15 18:00;CYYC 151800Z 32007G16KT 40SM FEW080 22/02 A3023 RMK CU1 SLP235

CYYC;2008-05-15 19:00;CYYC 151900Z 28009G17KT 40SM FEW086 FEW150 FEW240 23/02 A3021 RMK CU1AC1CI1 SLP227

CYYC;2008-05-15 20:00;CYYC 152000Z 29008G16KT 40SM FEW140 23/02 A3019 RMK AC1 SLP222

CYYC;2008-05-15 21:00;CYYC 152100Z 30011KT 40SM FEW070 25/09 A3018 RMK CU1 SLP213

CYYC;2008-05-15 22:00;CYYC 152200Z 25011G16KT 40SM FEW160 27/14 A3015 RMK AC1 SLP205

CYYC;2008-05-15 23:00;CYYC 152300Z 26019G27KT 40SM SKC 26/00 A3014 RMK SLP201

CYYC;2008-05-16 00:00;CYYC 160000Z 27016G25KT 40SM FEW160 26/00 A3013 RMK AC1 SLP198

CYYC;2008-05-16 01:00;CYYC 160100Z 26025G30KT 40SM FEW220 25/00 A3013 RMK CI1 HZ SLP198

CYYC;2008-05-16 02:00;CYYC 160200Z 26017G27KT 40SM SKC 24/M00 A3014 RMK SLP199

CYYC;2008-05-16 03:00;CYYC 160300Z 27014KT 40SM SKC 22/M01 A3014 RMK SLP199

CYYC;2008-05-16 04:00;CYYC 160400Z 28017KT 40SM SKC 21/M02 A3017 RMK SLP207

CYYC;2008-05-16 05:00;CYYC 160500Z 28017KT 15SM SKC 19/M02 A3018 RMK SLP210

CYYC;2008-05-16 06:00;CYYC 160600Z 29015G20KT 15SM SKC 19/M01 A3020 RMK SLP217

CYYC;2008-05-16 07:00;CYYC 160700Z 31010G15KT 15SM SKC 15/01 A3021 RMK SLP220

CYYC;2008-05-16 08:00;CYYC 160800Z 29007KT 15SM SKC 13/02 A3022 RMK SLP223

CYYC;2008-05-16 09:00;CYYC 160900Z 30004KT 15SM SKC 13/01 A3023 RMK SLP233

CYYC;2008-05-16 10:00;CYYC 161000Z 31007KT 15SM SKC 13/02 A3025 RMK SLP237

CYYC;2008-05-16 11:00;CYYC 161100Z 23002KT 15SM SKC 12/M00 A3025 RMK SLP238

CYYC;2008-05-16 12:00;CYYC 161200Z 27007KT 30SM SKC 15/M03 A3026 RMK SLP239

CYYC;2008-05-16 13:00;CYYC 161300Z 00000KT 40SM SKC 15/M03 A3027 RMK SLP242

CYYC;2008-05-16 14:00;CYYC 161400Z 30004KT 40SM SKC 17/M02 A3027 RMK SLP244

CYYC;2008-05-16 15:00;CYYC 161500Z 28006KT 40SM FEW250 19/M01 A3028 RMK CI1 SLP244

CYYC;2008-05-16 16:00;CYYC 161600Z 31008KT 40SM FEW160 FEW220 BKN260 22/M04 A3027 RMK AC1CI0CI0 SLP241

CYYC;2008-05-16 17:00;CYYC 161700Z 27007KT 40SM FEW190 FEW240 22/M02 A3025 RMK AC1CI0 SLP236

CYYC;2008-05-16 18:00;CYYC 161800Z 31007KT 40SM FEW140 FEW220 23/M04 A3023 RMK AC1CI1 SLP227

CYYC;2008-05-16 19:00;CYYC 161900Z 22007KT 40SM SKC 24/M02 A3021 RMK SLP219

CYYC;2008-05-16 20:00;CYYC 162000Z 16004KT 40SM FEW220 25/M05 A3019 RMK CI1 SLP214

CYYC;2008-05-16 21:00;CYYC 162100Z 31015KT 40SM FEW200 26/M05 A3017 RMK CI1 SLP211

CYYC;2008-05-16 22:00;CYYC 162200Z 27007KT 40SM FEW240 26/M03 A3016 RMK CI1 SLP207

CYYC;2008-05-16 23:00;CYYC 162300Z 34005G16KT 40SM FEW250 27/M02 A3015 RMK CI1 SLP204

CYYC;2008-05-17 00:00;CYYC 170000Z 02009G15KT 40SM FEW260 26/M03 A3014 RMK CI0 SLP198

CYYC;2008-05-17 01:00;CYYC 170100Z 03009KT 40SM FEW260 26/00 A3014 RMK CI0 SLP197

CYYC;2008-05-17 02:00;CYYC 170200Z 00000KT 30SM FEW260 26/05 A3013 RMK CI1 CI TR SLP195

CYYC;2008-05-17 03:00;CYYC 170300Z 30007KT 30SM FEW140 FEW260 23/03 A3015 RMK AC1CI1 AC+CI TR SLP200

CYYC;2008-05-17 04:00;CYYC 170400Z 29010KT 20SM FEW260 21/M05 A3018 RMK CI1 CI TR SLP207

CYYC;2008-05-17 05:00;CYYC 170500Z 30005KT 15SM SKC 17/M03 A3018 RMK SLP209

CYYC;2008-05-17 06:00;CYYC 170600Z 32004KT 15SM SKC 15/M03 A3020 RMK SLP222

CYYC;2008-05-17 07:00;CYYC 170700Z 03009KT 15SM SKC 13/00 A3024 RMK SLP233

CYYC;2008-05-17 08:00;CYYC 170800Z 32011KT 15SM SKC 11/M01 A3023 RMK SLP230

CYYC;2008-05-17 09:00;CYYC 170900Z 31008KT 15SM SKC 10/01 A3023 RMK SLP232

CYYC;2008-05-17 10:00;CYYC 171000Z 29004KT 15SM FEW260 10/02 A3023 RMK CI0 SLP232

CYYC;2008-05-17 11:00;CYYC 171100Z 31005KT 20SM SCT260 08/02 A3022 RMK CI0 SLP231

CYYC;2008-05-17 12:00;CYYC 171200Z 29003KT 40SM FEW140 SCT260 10/M02 A3022 RMK AC1CI0 SLP231

CYYC;2008-05-17 13:00;CYYC 171300Z 22002KT 30SM FEW140 SCT260 11/M01 A3021 RMK AC1CI0 SLP228

CYYC;2008-05-17 14:00;CYYC 171400Z 00000KT 40SM FEW140 BKN220 OVC240 13/01 A3020 RMK AC1CI3CI0 SLP225

CYYC;2008-05-17 15:00;CYYC 171500Z 00000KT 40SM FEW160 BKN240 OVC260 16/01 A3018 RMK AC1CI0CI0 SLP213

CYYC;2008-05-17 16:00;CYYC 171600Z 36002KT 40SM FEW180 SCT220 OVC250 21/M01 A3016 RMK AC1CI0CI0 SLP207

CYYC;2008-05-17 17:00;CYYC 171700Z 00000KT 40SM FEW170 FEW190 OVC220 22/M01 A3014 RMK AC1AC1CI0 SLP200

CYYC;2008-05-17 18:00;CYYC 171800Z 16006KT 40SM FEW180 SCT220 OVC240 24/M02 A3011 RMK AC1CI2CI1 SLP191

CYYC;2008-05-17 19:00;CYYC 171900Z 20006KT 40SM FEW120 FEW180 OVC220 24/M01 A3009 RMK AC1AC2CI2 LO AC TR SLP184

CYYC;2008-05-17 20:00;CYYC 172000Z 20003KT 40SM FEW070 FEW140 BKN200 OVC240 25/M03 A3006 RMK AC1AC1CI5CI1 LO AC TR SLP173

CYYC;2008-05-17 21:00;CYYC 172100Z 19006KT 40SM FEW120 FEW160 OVC220 26/M01 A3002 RMK AC1AC1CI5 SLP161

CYYC;2008-05-17 22:00;CYYC 172200Z 17010KT 40SM FEW070 SCT180 BKN220 OVC240 27/00 A2998 RMK AC1AC2CI3CI0 SLP148

CYYC;2008-05-17 23:00;CYYC 172300Z 19007KT 40SM FEW150 BKN180 OVC210 27/M02 A2995 RMK AC1AC5CI1 SLP139

CYYC;2008-05-18 00:00;CYYC 180000Z 23011KT 40SM FEW140 FEW160 OVC200 27/M01 A2991 RMK AC1AC1CI4 SLP125

CYYC;2008-05-18 01:00;CYYC 180100Z 26010KT 40SM BKN190 BKN230 27/M02 A2989 RMK AC3CI1 VIRGA SW SLP117

CYYC;2008-05-18 02:00;CYYC 180200Z 26007KT 40SM BKN170 BKN230 26/M00 A2987 RMK AC3CI2 SLP113

CYYC;2008-05-18 03:00;CYYC 180300Z 24006KT 40SM SCT170 BKN240 26/M00 A2986 RMK AC3CI2 SLP099

CYYC;2008-05-18 04:00;CYYC 180400Z 27012KT 15SM SCT150 BKN210 23/M01 A2985 RMK AC3CI2 SLP097

CYYC;2008-05-18 05:00;CYYC 180500Z 27015KT 15SM FEW150 SCT240 22/M01 A2985 RMK AC1CI2 SLP097

CYYC;2008-05-18 06:00;CYYC 180600Z 25008KT 15SM FEW190 FEW250 21/00 A2985 RMK AC1CI1 CI TR SLP091

CYYC;2008-05-18 07:00;CYYC 180700Z 25006KT 15SM FEW180 FEW240 18/02 A2983 RMK AC1CI1 SLP084

CYYC;2008-05-18 08:00;CYYC 180800Z 12002KT 15SM FEW250 17/04 A2981 RMK CI2 SLP078

CYYC;2008-05-18 09:00;CYYC 180900Z 23008KT 15SM FEW240 17/06 A2979 RMK CI1 SLP072

CYYC;2008-05-18 10:00;CYYC 181000Z 15005KT 15SM SCT240 15/06 A2977 RMK CI2 SLP066

CYYC;2008-05-18 11:00;CYYC 181100Z 17002KT 15SM SCT180 OVC220 15/07 A2975 RMK AC3CI2 SLP060

CYYC;2008-05-18 12:00;CYYC 181200Z 26013KT 30SM FEW085 FEW190 BKN220 19/04 A2973 RMK AC1AC2CI4 SLP050

CYYC;2008-05-18 13:00;CYYC 181300Z 26009KT 30SM FEW085 FEW190 BKN200 19/05 A2973 RMK AC1AC2CI4 SLP049

CYYC;2008-05-18 14:00;CYYC 181400Z 36010KT 40SM FEW060 FEW130 BKN170 BKN210 20/05 A2974 RMK CU1AC1AC4CI2 SLP053

CYYC;2008-05-18 15:00;CYYC 181500Z 36011G16KT 40SM FEW065 SCT160 BKN230 19/04 A2977 RMK CU1AC3CI2 SLP064

CYYC;2008-05-18 16:00;CYYC 181600Z 36010KT 40SM FEW065 FEW160 BKN230 20/04 A2976 RMK CU1AC1CI3 SLP061

CYYC;2008-05-18 17:00;CYYC 181700Z 02011G19KT 40SM FEW070 FEW130 SCT180 BKN230 21/06 A2976 RMK CU1AC2AC1CI1 SLP060

CYYC;2008-05-18 18:00;CYYC 181800Z 01014KT 40SM FEW070 SCT140 SCT250 20/06 A2976 RMK AC2AC2CI1 SLP065

CYYC;2008-05-18 19:00;CYYC 181900Z 04011G20KT 40SM FEW070 FEW160 FEW250 21/07 A2975 RMK AC2AC1CI1 SLP062

CYYC;2008-05-18 20:00;CYYC 182000Z 33003KT 30SM FEW070 SCT120 SCT160 21/06 A2976 RMK CU1AC3AC1 SLP064

CYYC;2008-05-18 21:00;CYYC 182100Z 02004KT 40SM FEW076 SCT160 SCT220 23/06 A2974 RMK CU2AC1CI1 TCU BND N SLP059

CYYC;2008-05-18 22:00;CYYC 182200Z 35007KT 40SM BKN082 BKN100 BKN230 22/06 A2973 RMK CU5AC1CI1 TCU BND NW / WND SHFT AT 2158Z SLP055

CYYC;2008-05-18 23:00;CYYC 182300Z 07006KT 40SM SCT083 BKN098 BKN230 22/07 A2973 RMK CU3CU2CI1 TCU ASOCTD SLP055

CYYC;2008-05-19 00:00;CYYC 190000Z CCA 02009G15KT 40SM FEW096 FEW180 SCT210 19/09 A2975 RMK CU2AC1CC1 SH NW / TCU ASOCTD SLP064

CYYC;2008-05-19 01:00;CYYC 190100Z CCA 01003KT 40SM FEW075CB FEW100 SCT200 20/08 A2976 RMK CB1CU2CC1 CB + SH NE SLP068

CYYC;2008-05-19 02:00;CYYC 190200Z CCA 02004KT 30SM FEW080 BKN220 19/07 A2978 RMK AC2CI1 CB ASOCTD NE SLP073

CYYC;2008-05-19 03:00;CYYC 190300Z 33008KT 30SM FEW030CB FEW080 SCT220 19/05 A2981 RMK CB1AC1CI1 CB NE-E/CB+AC TR SLP086

CYYC;2008-05-19 04:00;CYYC 190400Z 36010KT 30SM FEW080 SCT230 14/06 A2986 RMK AC1CI0 SLP101

CYYC;2008-05-19 05:00;CYYC 190500Z 35012KT 15SM FEW110 BKN230 13/05 A2989 RMK AC2CI0 SLP109

CYYC;2008-05-19 06:00;CYYC 190600Z 34007KT 15SM FEW110 SCT230 12/03 A2990 RMK AC2CI0 SLP126

CYYC;2008-05-19 07:00;CYYC 190700Z 31007KT 15SM FEW100 FEW230 12/02 A2991 RMK AC2CI0 SLP127

CYYC;2008-05-19 08:00;CYYC 190800Z 29006KT 15SM SCT100 11/02 A2994 RMK AC2 SLP136

CYYC;2008-05-19 09:00;CYYC 190900Z 31006KT 15SM FEW100 11/02 A2995 RMK AC1 SLP140

CYYC;2008-05-19 10:00;CYYC 191000Z 29006KT 15SM FEW100 10/02 A2996 RMK AC1 SLP142

CYYC;2008-05-19 11:00;CYYC 191100Z 29005KT 15SM FEW100 SCT250 09/03 A2997 RMK AC1CI2 SLP145

CYYC;2008-05-19 12:00;CYYC 191200Z CCB 27006KT 30SM FEW100 FEW190 BKN240 11/M02 A2998 RMK AC1AS1CI2 CONTRAILS/AC TR SLP154

CYYC;2008-05-19 13:00;CYYC 191300Z 29002KT 30SM FEW100 BKN190 BKN240 12/M02 A2998 RMK AC1AS3CI1 AC TR SLP156

CYYC;2008-05-19 14:00;CYYC 191400Z 23004KT 30SM SCT100 BKN190 BKN240 14/M01 A2999 RMK AC3AC2CI2 SLP158

CYYC;2008-05-19 15:00;CYYC 191500Z 32005KT 30SM SCT069 BKN180 OVC240 15/M02 A2999 RMK AC3AC2CI2 SLP154

CYYC;2008-05-19 16:00;CYYC 191600Z 00000KT 40SM FEW070 BKN160 OVC240 16/M01 A2998 RMK AC1AC4CI2 SLP150

CYYC;2008-05-19 17:00;CYYC 191700Z 13002KT 30SM FEW080 SCT120 OVC240 16/M01 A2998 RMK AC2AC2CI3 ACSL E SLP151

CYYC;2008-05-19 18:00;CYYC 191800Z CCA 19006KT 40SM FEW040 SCT080 BKN190 BKN240 16/M01 A2996 RMK CU1AC3AC2CI1 CU TR SLP152

CYYC;2008-05-19 19:00;CYYC 191900Z 19013KT 40SM FEW040 FEW080 BKN150 OVC240 18/00 A2995 RMK CU1AC2AC2CI2 CU TR SLP147

CYYC;2008-05-19 20:00;CYYC 192000Z 18012G17KT 40SM FEW040 SCT084 BKN140 OVC240 18/01 A2993 RMK CU1AC4AC2CI2 CU TR SLP143

CYYC;2008-05-19 21:00;CYYC 192100Z 19010G15KT 40SM FEW045 BKN100 OVC240 18/02 A2991 RMK CU1AC6CI2 CU TR SLP134

CYYC;2008-05-19 22:00;CYYC 192200Z 15011KT 40SM FEW045 BKN089 OVC210 18/02 A2990 RMK CU1AC6CI2 CU TR SLP130

CYYC;2008-05-19 23:00;CYYC 192300Z 16009KT 40SM FEW050 BKN085 OVC220 18/04 A2989 RMK CU1AC6CI2 SLP126

CYYC;2008-05-20 00:00;CYYC 200000Z 17006KT 40SM FEW050 BKN092 OVC210 18/04 A2987 RMK SC1AC6CI1 SLP121

CYYC;2008-05-20 01:00;CYYC 200100Z 13005KT 40SM BKN078 OVC210 18/05 A2986 RMK AC7CI1 SLP118

CYYC;2008-05-20 02:00;CYYC 200200Z 15005KT 30SM BKN080 OVC250 18/05 A2986 RMK AC6CI1 SLP116

CYYC;2008-05-20 03:00;CYYC 200300Z 13005KT 30SM FEW080 BKN150 OVC240 16/06 A2985 RMK AC1AS3CI1 SLP108

CYYC;2008-05-20 04:00;CYYC 200400Z 20003KT 15SM BKN140 OVC240 16/05 A2985 RMK AS5CI2 SLP108

CYYC;2008-05-20 05:00;CYYC 200500Z 23005KT 15SM OVC110 16/05 A2984 RMK AS7 SLP106

CYYC;2008-05-20 06:00;CYYC 200600Z 25002KT 15SM OVC095 16/06 A2983 RMK AC7 SLP100

CYYC;2008-05-20 07:00;CYYC 200700Z 23007KT 15SM BKN090 OVC180 15/06 A2981 RMK AC6AS1 SLP095

CYYC;2008-05-20 08:00;CYYC 200800Z 22004KT 15SM BKN090 OVC160 15/06 A2980 RMK AC5AS2 SLP090

CYYC;2008-05-20 09:00;CYYC 200900Z 21006KT 15SM BKN090 OVC160 14/06 A2979 RMK AC4AS3 SLP086

CYYC;2008-05-20 10:00;CYYC 201000Z 33003KT 15SM BKN140 13/06 A2977 RMK AC6 SLP082

CYYC;2008-05-20 11:00;CYYC 201100Z 27003KT 15SM BKN140 13/06 A2977 RMK AC6 SLP080

CYYC;2008-05-20 12:00;CYYC 201200Z 00000KT 30SM BKN130 12/06 A2976 RMK AC6 SLP078

CYYC;2008-05-20 13:00;CYYC 201300Z 18004KT 30SM BKN170 12/07 A2974 RMK AC6 SLP074

CYYC;2008-05-20 14:00;CYYC 201400Z 23002KT 40SM FEW050 SCT140 OVC170 14/06 A2973 RMK SC1AC2AC4 SLP070

CYYC;2008-05-20 15:00;CYYC 201500Z 22002KT 40SM FEW050 BKN140 BKN170 OVC240 13/07 A2972 RMK SC1AC5AC2CI1 SLP067

CYYC;2008-05-20 16:00;CYYC 201600Z 23002KT 40SM SCT140 SCT180 BKN220 14/07 A2970 RMK AC4AC1CI2 SLP060

CYYC;2008-05-20 17:00;CYYC 201700Z 12005KT 30SM SCT100 BKN180 OVC250 17/08 A2968 RMK AC3AC2CI1 SLP054

CYYC;2008-05-20 18:00;CYYC 201800Z 16009KT 30SM SCT100 BKN180 BKN250 21/06 A2965 RMK AC3AC2CI1 SLP032

CYYC;2008-05-20 19:00;CYYC 201900Z 16010KT 30SM FEW100 SCT170 BKN250 22/06 A2962 RMK AC2AC2CI1 SLP023

CYYC;2008-05-20 20:00;CYYC 202000Z 15008KT 30SM SCT100 BKN130 OVC250 23/06 A2959 RMK AC4AC2CI1 SLP014

CYYC;2008-05-20 21:00;CYYC 202100Z 16012G18KT 30SM SCT081 BKN110 OVC250 22/05 A2956 RMK AC3AC3CI1 SLP002

CYYC;2008-05-20 22:00;CYYC 202200Z 16012G17KT 40SM FEW050 BKN086 OVC120 23/06 A2953 RMK CU1AC6AC2 SLP993

CYYC;2008-05-20 22:27;CYYC 202227Z 18014G31KT 30SM -RA FEW022 SCT027 OVC075 18/ RMK CU1SC3AC5

CYYC;2008-05-20 23:00;CYYC 202300Z CCA 19019G24KT 40SM FEW043 FEW078 BKN100 OVC160 19/08 A2953 RMK CU1AC2AC5AC2 SH N SLP993

CYYC;2008-05-21 00:00;CYYC 210000Z 16019G30KT 40SM FEW045 FEW075 OVC130 17/08 A2953 RMK CU1AC2AC6 SLP002

CYYC;2008-05-21 01:00;CYYC 210100Z 16012G18KT 40SM FEW045 BKN120 BKN160 17/09 A2951 RMK CU1AC5AC2 SLP995

CYYC;2008-05-21 02:00;CYYC 210200Z 15010G17KT 40SM FEW050 BKN110 BKN170 16/09 A2950 RMK SC1AC3AC2 SLP993

CYYC;2008-05-21 03:00;CYYC 210300Z 16012KT 40SM FEW050 SCT090 BKN170 BKN240 15/10 A2950 RMK SC1AC3AC2CI1 SC TR SLP991

CYYC;2008-05-21 04:00;CYYC 210400Z 14014KT 20SM FEW050 FEW090 BKN170 OVC240 14/10 A2949 RMK SC1AC2AC2CI1 SLP990

CYYC;2008-05-21 05:00;CYYC 210500Z 17009KT 15SM FEW090 FEW170 FEW250 13/09 A2949 RMK AC1AC1CI0 SLP988

CYYC;2008-05-21 06:00;CYYC 210600Z 20003KT 15SM FEW100 FEW190 SCT250 11/09 A2950 RMK AC1AC1CI1 SLP989

CYYC;2008-05-21 07:00;CYYC 210700Z 27009KT 15SM FEW190 BKN250 12/08 A2951 RMK AC2CI1 SLP990

CYYC;2008-05-21 08:00;CYYC 210800Z 34014G19KT 15SM BKN015 BKN130 11/10 A2951 RMK SC5AC2 CLDS RPDLY MOVG FROM N TO S SLP990

CYYC;2008-05-21 08:06;CYYC 210806Z 33015KT 15SM OVC013 11/ RMK SC7

CYYC;2008-05-21 09:00;CYYC 210900Z 34013KT 15SM OVC019 11/09 A2953 RMK SC8 SLP994

CYYC;2008-05-21 10:00;CYYC 211000Z 34020G25KT 15SM OVC015 10/08 A2953 RMK SC8 SLP996

CYYC;2008-05-21 10:56;CYYC 211056Z 33017KT 8SM -RA OVC022 09/ RMK SC8

CYYC;2008-05-21 11:00;CYYC 211100Z 32018KT 6SM -RA OVC021 09/07 A2955 RMK SC8 SLP001

CYYC;2008-05-21 12:00;CYYC 211200Z 32016G22KT 5SM RA BKN021 OVC039 07/07 A2957 RMK SC5SC3 SLP022

CYYC;2008-05-21 13:00;CYYC 211300Z 32028G33KT 4SM RA OVC033 06/05 A2959 RMK SC8 SLP026

CYYC;2008-05-21 14:00;CYYC 211400Z 33020G29KT 6SM RA OVC025 06/05 A2960 RMK SC8 SLP031

CYYC;2008-05-21 15:00;CYYC 211500Z 33018G28KT 15SM -RA FEW018 BKN032 OVC045 06/05 A2961 RERA RMK SC2SC4SC2 SLP038

CYYC;2008-05-21 16:00;CYYC 211600Z 32020G26KT 15SM -RA BKN017 BKN024 OVC043 07/07 A2962 RMK SC5SC1SC2 SLP042

CYYC;2008-05-21 17:00;CYYC 211700Z 32018G27KT 15SM -RA BKN023 OVC057 07/07 A2963 RMK SC6SC2 PCPN VRY LGT SLP046

CYYC;2008-05-21 18:00;CYYC 211800Z 32022G27KT 15SM -RA BKN025 OVC058 08/08 A2964 RMK SC6SC2 PCPN VRY LGT SLP053

CYYC;2008-05-21 18:35;CYYC 211835Z 34020G26KT 15SM BKN024 BKN029 OVC052 08/ RMK SC6SC2SC1

CYYC;2008-05-21 19:00;CYYC 211900Z 33016G25KT 15SM SCT025 OVC058 08/08 A2966 RMK SC3SC5 SLP060

CYYC;2008-05-21 20:00;CYYC 212000Z 34017G27KT 20SM BKN026 OVC050 08/05 A2967 RMK SC6SC2 SLP064

CYYC;2008-05-21 21:00;CYYC 212100Z 33020G27KT 20SM SCT024 OVC061 09/05 A2968 RMK CU3SC5 SLP065

CYYC;2008-05-21 22:00;CYYC 212200Z 34020G27KT 20SM BKN030 OVC062 09/05 A2969 RMK CU6SC2 SLP070

CYYC;2008-05-21 23:00;CYYC 212300Z 34019G26KT 20SM BKN029 OVC062 09/04 A2971 RMK SC6SC2 SLP075

CYYC;2008-05-22 00:00;CYYC 220000Z 35016G22KT 20SM BKN022 OVC060 09/05 A2972 RMK SC6SC2 SLP084

CYYC;2008-05-22 01:00;CYYC 220100Z 35017G24KT 25SM FEW023 SCT031 OVC065 09/05 A2973 RMK SC2SC2SC5 SLP087

CYYC;2008-05-22 02:00;CYYC 220200Z 34018KT 25SM FEW015 BKN029 OVC082 08/04 A2975 RMK SC2SC5AC1 SLP093

CYYC;2008-05-22 03:00;CYYC 220300Z 34015KT 20SM FEW030 BKN050 BKN080 OVC140 08/05 A2976 RMK SC2SC3AC2AC1 SLP100

CYYC;2008-05-22 04:00;CYYC 220400Z 35018KT 20SM FEW035 SCT060 BKN180 07/04 A2976 RMK SC2SC2AC2 SLP100

CYYC;2008-05-22 05:00;CYYC 220500Z 35016G21KT 15SM FEW035 BKN059 OVC080 07/04 A2979 RMK SC2SC5AC2 SLP109

CYYC;2008-05-22 05:46;CYYC 220546Z 34012G20KT 12SM -RA BKN030 OVC044 06/ RMK SC6SC2

CYYC;2008-05-22 06:00;CYYC 220600Z 34014G20KT 12SM -RA FEW012 BKN025 OVC040 06/05 A2979 RMK SF1SC6SC2 SLP112

CYYC;2008-05-22 07:00;CYYC 220700Z 33014KT 15SM -RA FEW012 BKN025 OVC049 06/05 A2979 RMK SF2SC6SC1 SLP112

CYYC;2008-05-22 08:00;CYYC 220800Z 33015KT 15SM -RA FEW012 OVC036 06/05 A2979 RMK SF1SC7 SLP112

CYYC;2008-05-22 09:00;CYYC 220900Z 33017KT 15SM -RA FEW020 BKN035 OVC044 06/05 A2980 RMK SF1SC6SC2 SLP114

CYYC;2008-05-22 10:00;CYYC 221000Z 34016KT 15SM -RA FEW021 BKN039 OVC100 06/05 A2981 RMK SC2SC5AC1 SLP117

CYYC;2008-05-22 10:07;CYYC 221007Z 34014G19KT 15SM FEW021 BKN039 OVC100 06/ RMK SC1SC6AC1

CYYC;2008-05-22 11:00;CYYC 221100Z 34016KT 20SM FEW025 BKN041 OVC080 06/05 A2981 RMK SC1SC6AC1 SLP119

CYYC;2008-05-22 12:00;CYYC 221200Z 34014G20KT 20SM FEW016 OVC029 06/05 A2982 RMK SC2SC6 SLP120

CYYC;2008-05-22 12:12;CYYC 221212Z 34012G19KT 15SM -RA FEW016 OVC032 06/ RMK SC2SC6

CYYC;2008-05-22 13:00;CYYC 221300Z 36014KT 6SM -RA BR BKN015 OVC031 06/05 A2983 RMK SC5SC3 SLP124

CYYC;2008-05-22 14:00;CYYC 221400Z 34014G19KT 10SM -RA FEW010 BKN016 OVC025 06/06 A2984 RMK SF1SC5SC2 BR SLP125

CYYC;2008-05-22 15:00;CYYC 221500Z 35013G20KT 10SM -RA FEW011 FEW015 OVC020 07/06 A2985 RMK SF1SC1SC6 SLP132

CYYC;2008-05-22 16:00;CYYC 221600Z 35015G22KT 12SM -RA FEW010 BKN020 OVC025 07/06 A2986 RMK SF2SC3SC3 SLP135

CYYC;2008-05-22 17:00;CYYC 221700Z 35016KT 12SM OVC024 07/05 A2987 RMK SC8 SLP138

CYYC;2008-05-22 18:00;CYYC 221800Z 35014G20KT 12SM -RA FEW014 OVC025 07/06 A2988 RMK SC1SC7 SLP145

CYYC;2008-05-22 19:00;CYYC 221900Z 36015KT 12SM -RA FEW010 OVC020 07/06 A2989 RMK SC2SC6 SLP150

CYYC;2008-05-22 20:00;CYYC 222000Z 36013G19KT 12SM -RA FEW012 SCT020 OVC028 07/06 A2990 RMK SC1SC3SC4 SLP152

CYYC;2008-05-22 21:00;CYYC 222100Z 02014KT 12SM -RA FEW009 SCT012 OVC021 07/06 A2991 RMK SC1SC3SC5 SLP156

CYYC;2008-05-22 22:00;CYYC 222200Z 05007KT 10SM -RA FEW008 SCT015 OVC020 07/06 A2992 RMK SC1SC2SC5 SLP158

CYYC;2008-05-22 23:00;CYYC 222300Z 04011KT 10SM -RA FEW007 OVC020 07/06 A2992 RMK SC2SC6 SLP160

CYYC;2008-05-22 23:26;CYYC 222326Z 07012KT 12SM -RA BKN005 OVC020 06/ RMK SC5SC3

CYYC;2008-05-22 23:42;CYYC 222342Z 07009KT 15SM -RA FEW005 SCT014 OVC019 07/ RMK SC2SC2SC4

CYYC;2008-05-23 00:00;CYYC 230000Z 07010KT 15SM -RA FEW008 SCT014 OVC018 06/06 A2993 RMK SC1SC2SC5 SLP164

CYYC;2008-05-23 01:00;CYYC 230100Z 10008KT 10SM -RA FEW007 SCT015 OVC020 06/05 A2996 RMK SC2SC2SC4 SLP172

CYYC;2008-05-23 01:32;CYYC 230132Z 09004KT 4SM RA FEW009 OVC014 06/ RMK SF2SC6

CYYC;2008-05-23 02:00;CYYC 230200Z 00000KT 6SM RA SCT009 BKN013 OVC030 06/06 A2997 RMK SC3SC4SC1 SLP176

CYYC;2008-05-23 03:00;CYYC 230300Z 28007KT 10SM RA FEW009 SCT013 OVC045 06/06 A2999 RMK SC2SC2SC4 SLP184

CYYC;2008-05-23 04:00;CYYC 230400Z 30005KT 15SM -RA FEW020 BKN050 OVC083 06/05 A2999 RERA RMK SC1SC5AC2 RA VRY LGT SLP186

CYYC;2008-05-23 05:00;CYYC 230500Z 32003KT 10SM -RA FEW017 BKN045 OVC067 06/05 A3001 RMK SF1SC6AC1 SLP191

CYYC;2008-05-23 06:00;CYYC 230600Z 29006KT 10SM -RA FEW020 BKN036 OVC052 05/05 A3002 RMK SC1SC6SC2 SLP195

CYYC;2008-05-23 07:00;CYYC 230700Z 35007KT 12SM -RA FEW020 BKN050 OVC067 06/05 A3003 RMK SC2SC6AC1 SLP198

CYYC;2008-05-23 08:00;CYYC 230800Z 35009KT 10SM -RA FEW020 OVC031 06/05 A3003 RMK SC1SC7 SLP197

CYYC;2008-05-23 09:00;CYYC 230900Z 35012KT 15SM -RA FEW023 BKN050 OVC077 05/05 A3001 RMK SF1SC6AC2 SLP192

CYYC;2008-05-23 10:00;CYYC 231000Z 35012KT 15SM -RA FEW030 SCT058 OVC078 06/05 A3002 RMK SC1SC3AC4 SLP194

CYYC;2008-05-23 10:25;CYYC 231025Z 35013KT 15SM FEW023 BKN057 OVC081 06/ RMK SF1SC5AC2

CYYC;2008-05-23 11:00;CYYC 231100Z 34009KT 15SM FEW030 BKN052 OVC100 06/05 A3003 RMK SF1SC4AC2 SLP196

CYYC;2008-05-23 12:00;CYYC 231200Z 35013KT 20SM FEW030 BKN061 OVC100 06/05 A3004 RMK SC2SC3AC2 SLP203

CYYC;2008-05-23 13:00;CYYC 231300Z 36015KT 6SM BR FEW011 BKN060 BKN100 06/06 A3005 RMK SC2SC3AC2 SLP206

CYYC;2008-05-23 14:00;CYYC 231400Z 01013KT 10SM FEW008 BKN060 BKN110 BKN240 07/07 A3006 RMK SC1SC4AC2CI0 DIST SH SW-W/BR SLP208

CYYC;2008-05-23 15:00;CYYC 231500Z 01010KT 15SM FEW009 BKN050 08/07 A3007 RMK SC1SC6 SLP211

CYYC;2008-05-23 16:00;CYYC 231600Z 02012KT 20SM SCT015 BKN065 09/07 A3008 RMK SC3SC4 SLP213

CYYC;2008-05-23 17:00;CYYC 231700Z 02013KT 20SM FEW018 BKN052 10/07 A3008 RMK SC2SC5 CU EMBD SLP215

CYYC;2008-05-23 18:00;CYYC 231800Z 03014KT 20SM BKN019 BKN250 12/08 A3008 RMK CU6CI1 SLP208

CYYC;2008-05-23 19:00;CYYC 231900Z 05015KT 25SM SCT020 SCT062 BKN240 12/08 A3006 RMK CU4SC1CI0 SC TR SLP201

CYYC;2008-05-23 20:00;CYYC 232000Z 05016KT 25SM BKN025TCU 14/09 A3005 RMK TCU6 SLP199

CYYC;2008-05-23 20:52;CYYC 232052Z 06015G20KT 20SM -SHRA SCT039TCU OVC060TCU 13/ RMK TCU3TCU5 SH VRY LGT/OCNL

CYYC;2008-05-23 21:00;CYYC 232100Z 05015G20KT 20SM -SHRA SCT042TCU OVC060TCU 13/06 A3004 RMK TCU4TCU4 SLP193

CYYC;2008-05-23 22:00;CYYC 232200Z 06013G18KT 25SM -SHRA FEW030TCU BKN040TCU OVC080 13/07 A3003 RMK TCU1TCU6AC1 SH VRY LGT SLP189

CYYC;2008-05-23 23:00;CYYC 232300Z 09006KT 15SM -SHRA FEW020TCU OVC040 11/07 A3004 RMK TCU1SC7 CVCTV EMBD IN SC SLP192

CYYC;2008-05-24 00:00;CYYC 240000Z 09011KT 20SM -RA OVC040 11/07 A3004 RMK SC8 SLP195

CYYC;2008-05-24 01:00;CYYC 240100Z 00000KT 12SM -RA OVC037 10/08 A3005 RMK SC8 SLP199

CYYC;2008-05-24 02:00;CYYC 240200Z 32003KT 7SM -RA FEW017 BKN036 OVC057 09/08 A3006 RMK SC1SC6SC2 SLP201

CYYC;2008-05-24 03:00;CYYC 240300Z CCA 32006KT 6SM -RA BKN035 OVC040 09/08 A3005 RMK SC6SC2 SLP199

CYYC;2008-05-24 04:00;CYYC 240400Z 34008KT 6SM -RA BKN047 OVC057 09/08 A3005 RMK SC7SC1 SLP197

CYYC;2008-05-24 05:00;CYYC 240500Z 32012KT 12SM -RA OVC056 09/08 A3002 RMK SC8 SLP189

CYYC;2008-05-24 06:00;CYYC 240600Z 36009KT 15SM -RA OVC056 09/08 A3002 RMK SC8 SLP182

CYYC;2008-05-24 07:00;CYYC 240700Z 36011KT 10SM -RA OVC036 08/08 A3002 RMK SC8 SLP183

CYYC;2008-05-24 08:00;CYYC 240800Z 36011G16KT 10SM -RA OVC060 08/08 A2998 RMK SC8 SLP172

CYYC;2008-05-24 09:00;CYYC 240900Z CCA 35010KT 6SM -RA OVC048 08/08 A2999 RMK SC8 SLP172

CYYC;2008-05-24 10:00;CYYC 241000Z 34010KT 7SM -RA BKN060 OVC070 08/08 A2997 RMK SC7AC1 SLP166

CYYC;2008-05-24 11:00;CYYC 241100Z 35011KT 10SM -RA OVC063 08/08 A2997 RMK SC8 SLP165

CYYC;2008-05-24 12:00;CYYC 241200Z 36014G20KT 10SM -RA OVC061 09/08 A2996 RMK SC8 SLP164

CYYC;2008-05-24 13:00;CYYC 241300Z 36010G15KT 7SM -RA OVC051 08/08 A2997 RMK SC8 SLP166

CYYC;2008-05-24 14:00;CYYC 241400Z 36015KT 8SM -RA SCT030 OVC040 08/08 A2997 RMK SC3SC5 SLP168

CYYC;2008-05-24 15:00;CYYC 241500Z 01011KT 7SM -RA FEW008 SCT024 OVC040 09/08 A2999 RMK SC1SC3SC5 BR SLP178

CYYC;2008-05-24 15:35;CYYC 241535Z 36012KT 5SM -RA BR BKN008 OVC025 RMK SC5SC3

CYYC;2008-05-24 15:48;CYYC 241548Z 36018KT 6SM -RA BR FEW007 BKN025 OVC050 RMK SC2SC2SC3

CYYC;2008-05-24 16:00;CYYC 241600Z 36018KT 12SM -RA SCT007 BKN028 OVC050 09/09 A2997 RMK SC3SC2SC3 BR SLP170

CYYC;2008-05-24 17:00;CYYC 241700Z 36018G24KT 10SM -RA BKN008 BKN018 OVC045 09/09 A2997 RMK SC5SC1SC2 SLP170

CYYC;2008-05-24 18:00;CYYC 241800Z 01019KT 15SM -RA BKN008 OVC048 10/09 A2998 RMK SC6SC2 SLP171

CYYC;2008-05-24 18:25;CYYC 241825Z 36021KT 20SM -RA SCT009 OVC050 10/ RMK SC3SC5 RA VRY LGT

CYYC;2008-05-24 18:49;CYYC 241849Z 36018G24KT 7SM -RA BKN009 OVC030 OVC045 10/ RMK SC5SC1SC2

CYYC;2008-05-24 19:00;CYYC 241900Z 36020G25KT 8SM -RA SCT009 BKN025 OVC045 10/09 A2999 RMK SC4SC1SC3 SLP175

CYYC;2008-05-24 20:00;CYYC 242000Z 36016KT 7SM -RA FEW009 BKN015 OVC030 10/09 A3000 RMK SC2SC3SC2 SLP178

CYYC;2008-05-24 21:00;CYYC 242100Z 36018KT 7SM -RA SCT025 OVC042 10/09 A2999 RMK SC3SC5 SLP175

CYYC;2008-05-24 22:00;CYYC 242200Z 36015G20KT 8SM -RA FEW012 OVC020 10/09 A3002 RMK SC2SC6 SLP186

CYYC;2008-05-24 23:00;CYYC 242300Z 34016KT 12SM FEW030 OVC040 10/09 A3001 RMK SC2SC6 SLP181

CYYC;2008-05-25 00:00;CYYC 250000Z 34012KT 20SM -RA OVC048 10/08 A3002 RMK SC8 SLP184

CYYC;2008-05-25 01:00;CYYC 250100Z 32017KT 20SM -RA FEW015 BKN050 OVC080 10/09 A3000 RMK SC1SC5AC3 SLP180

CYYC;2008-05-25 02:00;CYYC 250200Z 33011G16KT 12SM -RA FEW030 OVC056 10/09 A3000 RMK SC1SC7 SLP180

CYYC;2008-05-25 03:00;CYYC 250300Z 34015KT 12SM -RA BKN056 OVC140 11/09 A2999 RMK SC7AC1 SLP174

CYYC;2008-05-25 04:00;CYYC 250400Z 34016KT 15SM -RA FEW030 BKN060 OVC100 11/09 A3000 RMK SC1SC4AC3 SLP176

CYYC;2008-05-25 05:00;CYYC 250500Z 34014KT 15SM -RA FEW060 OVC100 11/09 A3001 RMK SC2AC6 RA VRY LGT SLP179

CYYC;2008-05-25 05:22;CYYC 250522Z 35015KT 15SM FEW060 OVC080 11/ RMK SC2AC6

CYYC;2008-05-25 06:00;CYYC 250600Z 34016KT 15SM FEW060 BKN085 11/09 A3001 RMK SC2AC5 SLP179

CYYC;2008-05-25 07:00;CYYC 250700Z 35015KT 15SM FEW065 OVC100 11/09 A3001 RMK SC1AC7 SLP179

CYYC;2008-05-25 08:00;CYYC 250800Z CCA 35016KT 15SM FEW080 OVC110 11/08 A3001 RMK AC1AC7 SLP179

CYYC;2008-05-25 09:00;CYYC 250900Z 35015KT 15SM BKN069 OVC110 10/08 A3002 RMK AC6AC2 SLP183

CYYC;2008-05-25 10:00;CYYC 251000Z 35014KT 15SM FEW070 BKN110 10/08 A3002 RMK AC2AC6 SLP185

CYYC;2008-05-25 11:00;CYYC 251100Z 35016G21KT 15SM BKN069 OVC110 09/08 A3004 RMK AC5AC3 SLP191

CYYC;2008-05-25 12:00;CYYC 251200Z 36017KT 20SM SCT013 BKN072 OVC110 08/07 A3006 RMK SF3AC3AC1 SLP198

CYYC;2008-05-25 13:00;CYYC 251300Z 35019G25KT 12SM -RA SCT013 BKN019 OVC060 08/07 A3007 RMK SC3SC3SC2 SLP202

CYYC;2008-05-25 13:44;CYYC 251344Z 36019KT 12SM -RA FEW008 BKN011 OVC019 08/ RMK SF1SC5SC3

CYYC;2008-05-25 14:00;CYYC 251400Z 35018KT 12SM -RA FEW008 BKN011 OVC019 08/07 A3008 RMK SF1SC6SC2 PCPN VRY LGT SLP206

CYYC;2008-05-25 15:00;CYYC 251500Z 35018KT 12SM -RA FEW008 OVC011 08/07 A3009 RMK SF1SC8 PCPN VRY LGT SLP210

CYYC;2008-05-25 16:00;CYYC 251600Z 35016KT 10SM -RA FEW008 OVC012 08/07 A3010 RMK SF1SC7 SLP213

CYYC;2008-05-25 16:13;CYYC 251613Z 35016KT 10SM -RA OVC008 08/ RMK SC8

CYYC;2008-05-25 17:00;CYYC 251700Z 35015KT 8SM -RA BKN009 OVC013 08/07 A3011 RMK SC6SC2 SLP217

CYYC;2008-05-25 17:29;CYYC 251729Z 35015KT 8SM -RA SCT008 OVC018 08/ RMK SC3SC5

CYYC;2008-05-25 18:00;CYYC 251800Z 35013KT 8SM -RA FEW008 BKN012 OVC022 08/07 A3012 RMK SC1SC4SC3 SLP219

CYYC;2008-05-25 19:00;CYYC 251900Z 35016KT 7SM -RA FEW007 OVC011 08/07 A3012 RMK SC2SC6 SLP219

CYYC;2008-05-25 20:00;CYYC 252000Z 36013KT 7SM -RA FEW009 BKN012 OVC017 08/07 A3012 RMK SF1SC5SC3 SLP220

CYYC;2008-05-25 21:00;CYYC 252100Z 35011KT 10SM -RA BKN013 OVC021 08/07 A3012 RMK SC5SC3 SLP221

CYYC;2008-05-25 22:00;CYYC 252200Z 36017KT 8SM -RA FEW008 BKN012 OVC021 08/08 A3013 RMK SF1SC6SC2 SLP223

CYYC;2008-05-25 22:12;CYYC 252212Z 36016KT 10SM -RA FEW012 BKN027 OVC035 08/ RMK SC2SC5SC1

CYYC;2008-05-25 22:22;CYYC 252222Z 36013G19KT 8SM -RA FEW009 BKN011 OVC023 08/ RMK SF1SC6SC2

CYYC;2008-05-25 23:00;CYYC 252300Z 01012KT 12SM -RA BKN012 BKN018 OVC023 08/07 A3013 RMK SC5SC2SC1 SLP224

CYYC;2008-05-25 23:38;CYYC 252338Z 01011G16KT 8SM -RA FEW014 SCT023 OVC043 08/ RMK SC2SC2SC4

CYYC;2008-05-26 00:00;CYYC 260000Z 01012KT 10SM -RA BKN012 BKN019 OVC036 08/07 A3014 RMK SC5SC2SC2 SLP230

CYYC;2008-05-26 01:00;CYYC 260100Z 03011G16KT 8SM -RA FEW012 OVC022 07/07 A3014 RMK SF2SC6 SLP230

CYYC;2008-05-26 02:00;CYYC 260200Z 02009KT 15SM -RA OVC030 07/07 A3014 RMK SC8 SLP231

CYYC;2008-05-26 03:00;CYYC 260300Z 01008KT 4SM -RA FEW007 SCT025 OVC040 07/07 A3014 RMK SC1SC2SC6 SLP235

CYYC;2008-05-26 04:00;CYYC 260400Z 01007KT 6SM -RA SCT015 OVC060 07/07 A3016 RMK SC3SC5 SLP239

CYYC;2008-05-26 05:00;CYYC 260500Z 02005KT 6SM -RA BKN015 OVC060 07/07 A3016 RMK SC6SC2 SLP241

CYYC;2008-05-26 06:00;CYYC 260600Z 02005KT 6SM -RA SCT005 OVC015 07/07 A3017 RMK ST3SC5 SLP244

CYYC;2008-05-26 07:00;CYYC 260700Z 02005KT 5SM -RA BR BKN007 OVC020 06/06 A3017 RMK ST5SC3 SLP244

CYYC;2008-05-26 08:00;CYYC 260800Z 05005KT 4SM -RA BR BKN005 OVC015 06/06 A3017 RMK ST6SC2 SLP245

CYYC;2008-05-26 09:00;CYYC 260900Z 07006KT 4SM -RA BR BKN005 OVC012 06/06 A3017 RMK ST6SC2 SLP243

CYYC;2008-05-26 10:00;CYYC 261000Z 07006KT 5SM -RA BR BKN005 OVC020 06/06 A3017 RMK ST6SC2 SLP243

CYYC;2008-05-26 11:00;CYYC 261100Z 07004KT 5SM -RA BR BKN007 OVC010 06/06 A3016 RMK ST6SC2 SLP242

CYYC;2008-05-26 12:00;CYYC 261200Z 09008KT 5SM -RA BR BKN010 OVC020 06/06 A3017 RMK ST6SC2 SLP244

CYYC;2008-05-26 13:00;CYYC 261300Z 08006KT 3SM -RA BR BKN007 OVC025 05/05 A3017 RMK SC6SC2 SLP246

CYYC;2008-05-26 14:00;CYYC 261400Z 08008KT 10SM -RA BKN005 OVC010 05/05 A3019 RMK SC6SC2 SLP250

CYYC;2008-05-26 14:27;CYYC 261427Z 08008KT 12SM BKN008 OVC020 06/ RMK SC6SC2

CYYC;2008-05-26 15:00;CYYC 261500Z 09008KT 12SM BKN009 OVC022 06/05 A3019 RMK SC5SC3 SLP254

CYYC;2008-05-26 15:37;CYYC 261537Z 08007KT 4SM BR OVC004 05/ RMK SC8

CYYC;2008-05-26 15:44;CYYC 261544Z 08008KT 3SM BR BKN003 BKN007 OVC012 05/ RMK ST6SC1SC1

CYYC;2008-05-26 15:52;CYYC 261552Z 06007KT 3SM BR BKN004 OVC010 06/ RMK ST7SC1 VIS N-E 11/2 MILES

CYYC;2008-05-26 16:00;CYYC 261600Z 07007KT 5SM BR BKN004 OVC012 06/05 A3020 RMK ST7SC1 VIS W 3 MILES SLP257

CYYC;2008-05-26 16:47;CYYC 261647Z CCA 08008KT 3SM -DZ BR OVC004 06/ RMK ST8

CYYC;2008-05-26 17:00;CYYC 261700Z 08008KT 1SM -DZ BR OVC003 05/05 A3021 RMK ST8 RVR RWY34 6000 FT SLP259

CYYC;2008-05-26 17:22;CYYC 261722Z 10008KT 1 1/4SM -DZ BR OVC003 06/ RMK ST8

CYYC;2008-05-26 17:44;CYYC 261744Z 09007KT 1 3/4SM -DZ BR OVC004 06/ RMK ST8 CIG VRB 3-5

CYYC;2008-05-26 17:53;CYYC 261753Z 09006KT 4SM -DZ BR OVC007 06/ RMK ST8 CIG VRB 6-8

CYYC;2008-05-26 18:00;CYYC 261800Z 11008KT 3SM -DZ BR OVC006 06/06 A3022 RMK ST8 VIS W 2 MILES SLP264

CYYC;2008-05-26 18:28;CYYC 261828Z 09005KT 5SM -RA BKN010 OVC018 06/ RMK SC6SC2

CYYC;2008-05-26 19:00;CYYC 261900Z 14010KT 5SM -RA BKN010 OVC020 06/06 A3023 RMK SC6SC2 SLP266

CYYC;2008-05-26 20:00;CYYC 262000Z 13006KT 12SM -RA BKN015 OVC024 07/05 A3023 RMK SC5SC3 SLP267

CYYC;2008-05-26 21:00;CYYC 262100Z 13007KT 15SM -RA BKN015 OVC028 07/05 A3023 RMK SC6SC2 SLP266

CYYC;2008-05-26 21:06;CYYC 262106Z 13007KT 15SM -RA OVC013 07/ RMK SC8

CYYC;2008-05-26 21:28;CYYC 262128Z 13011KT 3SM -RA BR FEW008 OVC014 07/ RMK SC2SC6

CYYC;2008-05-26 22:00;CYYC 262200Z 12009KT 1 1/4SM -RA BR OVC005 07/07 A3023 RMK SC8 SLP267

CYYC;2008-05-26 23:00;CYYC 262300Z 10009KT 1 1/4SM -RA BR OVC005 07/07 A3024 RMK SC8 VIS S-W 2 MILES SLP269

CYYC;2008-05-26 23:41;CYYC 262341Z 13011KT 4SM -RA BR BKN008 BKN014 OVC025 07/ RMK SC6SC2SC1

CYYC;2008-05-27 00:00;CYYC 270000Z 14010KT 4SM -RA BR BKN011 OVC056 08/08 A3024 RMK SC5SC3 RA VRY LGT SLP269

CYYC;2008-05-27 00:42;CYYC 270042Z 13010KT 10SM SCT015 OVC057 08/ RMK SC4SC4

CYYC;2008-05-27 01:00;CYYC 270100Z 14010KT 12SM FEW013 OVC050 08/07 A3024 RMK CF2SC6 SLP269

CYYC;2008-05-27 02:00;CYYC 270200Z 13008KT 10SM FEW018 SCT040 08/06 A3024 RMK SC1SC2 SLP268

CYYC;2008-05-27 03:00;CYYC 270300Z 14006KT 10SM FEW018 FEW040 FEW240 07/06 A3024 RMK SC1SC1CI1 AC+CI TR SLP270

CYYC;2008-05-27 04:00;CYYC 270400Z 13005KT 8SM FEW018 FEW040 FEW240 07/06 A3024 RMK SC1SC1CI1 SLP271

CYYC;2008-05-27 05:00;CYYC 270500Z 15006KT 8SM FEW040 FEW240 05/05 A3026 RMK SC1CI1 SLP275

CYYC;2008-05-27 06:00;CYYC 270600Z 14006KT 15SM BKN045 05/05 A3026 RMK SC6 SLP278

CYYC;2008-05-27 07:00;CYYC 270700Z 14005KT 15SM BKN045 05/04 A3025 RMK SC3 SLP277

CYYC;2008-05-27 08:00;CYYC 270800Z 14002KT 8SM FEW045 04/04 A3024 RMK SC2 SLP274

CYYC;2008-05-27 09:00;CYYC 270900Z 14004KT 8SM BKN045 04/04 A3024 RMK SC6 SLP272

CYYC;2008-05-27 10:00;CYYC 271000Z 17004KT 8SM OVC060 04/04 A3023 RMK SC7 SLP269

CYYC;2008-05-27 11:00;CYYC 271100Z 14004KT 6SM BR OVC060 06/05 A3023 RMK SC7 SLP270

CYYC;2008-05-27 12:00;CYYC 271200Z 14005KT 6SM BR FEW060 FEW240 04/04 A3023 RMK SC1CI0 SLP266

CYYC;2008-05-27 13:00;CYYC 271300Z 17008KT 5SM BR FEW030 BKN055 07/07 A3023 RMK CF1SC4 SLP267

CYYC;2008-05-27 14:00;CYYC 271400Z 17009KT 20SM FEW030 FEW058 SCT260 08/06 A3023 RMK CU1SC2CI0 SLP266

CYYC;2008-05-27 15:00;CYYC 271500Z 17011KT 15SM FEW020 SCT045 SCT260 09/06 A3022 RMK CU1SC2CI0 SLP260

CYYC;2008-05-27 16:00;CYYC 271600Z 18014KT 20SM FEW020 BKN051 BKN250 10/06 A3022 RMK CU2SC3CI0 SLP260

CYYC;2008-05-27 17:00;CYYC 271700Z 17015KT 30SM BKN037 BKN052 BKN250 12/05 A3022 RMK CU5SC1CI0 SLP258

CYYC;2008-05-27 18:00;CYYC 271800Z 16013G19KT 30SM BKN048 BKN056 11/02 A3020 RMK CU6SC1 SLP251

CYYC;2008-05-27 19:00;CYYC 271900Z CCA 15015G20KT 30SM BKN043 BKN056 12/03 A3021 RMK CU6SC1 SLP253

CYYC;2008-05-27 20:00;CYYC 272000Z 18017KT 40SM BKN048 14/04 A3020 RMK SC6 SLP251

CYYC;2008-05-27 21:00;CYYC 272100Z 16016KT 40SM BKN051 13/03 A3019 RMK SC6 SLP247

CYYC;2008-05-27 22:00;CYYC 272200Z 18016KT 40SM BKN050 14/03 A3017 RMK SC5 SLP243

CYYC;2008-05-27 23:00;CYYC 272300Z 17014G20KT 40SM BKN052 14/02 A3017 RMK SC5 SLP241

CYYC;2008-05-28 00:00;CYYC 280000Z 15015G21KT 30SM SCT057 14/02 A3015 RMK SC4 SLP232

CYYC;2008-05-28 01:00;CYYC 280100Z 15014G20KT 30SM SCT060 14/02 A3013 RMK SC3 SLP227

CYYC;2008-05-28 02:00;CYYC 280200Z CCA 17013KT 20SM FEW050 SCT110 12/02 A3012 RMK SC2AC1 SLP224

CYYC;2008-05-28 03:00;CYYC 280300Z 18012KT 20SM FEW050 BKN110 11/02 A3011 RMK SC2AC2 SLP216

CYYC;2008-05-28 04:00;CYYC 280400Z 17013KT 20SM BKN062 11/02 A3011 RMK SC5 SLP214

CYYC;2008-05-28 05:00;CYYC 280500Z 18013G18KT 15SM BKN063 BKN120 10/04 A3010 RMK SC6AC1 SLP211

CYYC;2008-05-28 06:00;CYYC 280600Z 18010KT 15SM BKN063 OVC120 10/04 A3009 RMK SC7AC1 SLP206

CYYC;2008-05-28 07:00;CYYC 280700Z 18012KT 15SM OVC060 10/04 A3007 RMK SC8 SLP201

CYYC;2008-05-28 08:00;CYYC 280800Z 17011KT 15SM OVC055 09/05 A3006 RMK SC8 SLP197

CYYC;2008-05-28 09:00;CYYC 280900Z 16008KT 15SM BKN058 09/05 A3004 RMK SC7 SLP188

CYYC;2008-05-28 10:00;CYYC 281000Z 16008KT 15SM BKN056 BKN120 08/05 A3002 RMK SC5AC1 SLP183

CYYC;2008-05-28 11:00;CYYC 281100Z 16011KT 20SM FEW056 FEW120 07/05 A3000 RMK SC2AC1 SLP178

CYYC;2008-05-28 12:00;CYYC 281200Z 17008KT 40SM FEW060 FEW240 06/05 A3000 RMK SC1CI0 SC TR SLP178

CYYC;2008-05-28 13:00;CYYC 281300Z 16008KT 40SM FEW240 07/05 A2999 RMK CI1 CI TR SLP175

CYYC;2008-05-28 14:00;CYYC 281400Z 14008KT 40SM SKC 08/05 A2998 RMK SLP172

CYYC;2008-05-28 15:00;CYYC 281500Z 16011KT 40SM FEW020 FEW250 10/05 A2997 RMK CF1CI1 SLP166

CYYC;2008-05-28 16:00;CYYC 281600Z 14012KT 40SM FEW024 11/04 A2996 RMK CF1 SLP163

CYYC;2008-05-28 17:00;CYYC 281700Z 16013KT 40SM FEW028 12/04 A2995 RMK CU1 SLP158

CYYC;2008-05-28 18:00;CYYC 281800Z 14010KT 40SM FEW032 13/05 A2994 RMK CU1 SLP151

CYYC;2008-05-28 19:00;CYYC 281900Z 16011G17KT 40SM FEW038 14/05 A2993 RMK CU1 TCU EMBD DIST SW SLP148

CYYC;2008-05-28 20:00;CYYC 282000Z 15008G15KT 40SM FEW040 15/05 A2992 RMK CU1 TCU DIST SW SLP146

CYYC;2008-05-28 21:00;CYYC 282100Z 14011KT 40SM FEW042 15/05 A2990 RMK CU1 TCU DIST SW SLP137

CYYC;2008-05-28 22:00;CYYC 282200Z 14008KT 40SM FEW046 16/04 A2988 RMK CU1 TCU DIST SW SLP132

CYYC;2008-05-28 23:00;CYYC 282300Z 14006KT 40SM FEW046 17/04 A2986 RMK CU1 SLP126

CYYC;2008-05-29 00:00;CYYC 290000Z 13009KT 40SM FEW050 17/04 A2985 RMK CU1 SLP122

CYYC;2008-05-29 01:00;CYYC 290100Z 15010G15KT 40SM FEW045 FEW230 17/06 A2984 RMK CU1CI1 SLP117

CYYC;2008-05-29 02:00;CYYC 290200Z 13010KT 30SM FEW050 FEW110 FEW250 15/05 A2983 RMK SC1AC1CI0 SC+AC TR SLP116

CYYC;2008-05-29 03:00;CYYC 290300Z 13009KT 30SM FEW110 14/06 A2983 RMK AC2 SLP112

CYYC;2008-05-29 04:00;CYYC 290400Z 13009KT 20SM FEW110 13/06 A2984 RMK AC2 SLP116

CYYC;2008-05-29 05:00;CYYC 290500Z 14010KT 15SM BKN110 12/06 A2984 RMK AC3 SLP115

CYYC;2008-05-29 06:00;CYYC 290600Z 16009KT 15SM FEW110 11/07 A2983 RMK AC2 SLP113

CYYC;2008-05-29 07:00;CYYC 290700Z 11004KT 15SM FEW110 10/06 A2983 RMK AC1 AC TR SLP111

CYYC;2008-05-29 08:00;CYYC 290800Z 16005KT 15SM FEW140 08/06 A2981 RMK AC1 AC TR SLP107

CYYC;2008-05-29 09:00;CYYC 290900Z 19005KT 15SM FEW140 09/06 A2980 RMK AC1 AC TR SLP102

CYYC;2008-05-29 10:00;CYYC 291000Z 23002KT 15SM FEW140 08/06 A2979 RMK AC1 AC TR SLP099

CYYC;2008-05-29 11:00;CYYC 291100Z 22003KT 20SM FEW140 08/06 A2978 RMK AC1 AC TR SLP097

CYYC;2008-05-29 12:00;CYYC 291200Z 33004KT 40SM FEW140 07/05 A2979 RMK AC1 AC TR SLP098

CYYC;2008-05-29 13:00;CYYC 291300Z 00000KT 40SM FEW210 08/06 A2978 RMK CI1 CI TR SLP097

CYYC;2008-05-29 14:00;CYYC 291400Z 00000KT 40SM FEW250 11/07 A2979 RMK CI1 SLP099

CYYC;2008-05-29 15:00;CYYC 291500Z 09003KT 40SM FEW100 FEW250 14/06 A2979 RMK AC1CI1 SLP092

CYYC;2008-05-29 16:00;CYYC 291600Z 32002KT 40SM FEW160 FEW240 17/06 A2978 RMK AC1CI0 SLP090

CYYC;2008-05-29 17:00;CYYC 291700Z 33003KT 40SM FEW056 FEW250 18/04 A2978 RMK CU1CI0 CONTRAIL SLP090

CYYC;2008-05-29 18:00;CYYC 291800Z 34004KT 40SM FEW056 SCT200 20/05 A2978 RMK CU1CI0 SLP085

CYYC;2008-05-29 19:00;CYYC 291900Z 04007KT 40SM FEW056TCU FEW078 FEW180 BKN240 20/05 A2977 RMK TCU1AC1AC1CI0 DIST SH NW SLP082

CYYC;2008-05-29 20:00;CYYC 292000Z 14003KT 40SM FEW060TCU FEW082 SCT250 21/06 A2976 RMK TCU2AC1CI0 DIST SH SW+NW SLP078

CYYC;2008-05-29 21:00;CYYC 292100Z 33004KT 40SM BKN075TCU BKN180 BKN250 21/03 A2974 RMK TCU6AC1CI1 SH SW+NW-N SLP073

CYYC;2008-05-29 21:33;CYYC 292133Z 02006KT 40SM -SHRA BKN080TCU 21/ RMK TCU6 PCPN VRY LGT/CB EMBD

CYYC;2008-05-29 22:00;CYYC 292200Z 12005KT 40SM -SHRA BKN080TCU BKN140 BKN250 22/00 A2973 RMK TCU6AC1CI0 SH OCNL/CB EMBD SLP071

CYYC;2008-05-29 22:12;CYYC 292212Z CCA 11004KT 40SM BKN080TCU BKN120 BKN250 22/ RMK TCU5AC1CI0 OCNL SH/CB EMBD/SH SW+NE-NW

CYYC;2008-05-29 23:00;CYYC 292300Z 13006KT 40SM BKN085TCU BKN120 BKN240 21/04 A2972 RMK TCU6AC1CI0 DIST SH N+S SLP068

CYYC;2008-05-29 23:02;CYYC 292302Z 14005KT 40SM -SHRA BKN085TCU BKN120 BKN240 21/ RMK TCU6AC1CI0 PCPN VRY LGT

CYYC;2008-05-29 23:18;CYYC 292318Z 19004KT 40SM BKN082TCU BKN120 BKN240 21/ RMK TCU5AC2CI0 DIST SH SW+NE-E/OCNL SH

CYYC;2008-05-30 00:00;CYYC 300000Z 05004KT 40SM SCT086TCU BKN120 BKN240 22/01 A2972 RMK TCU3AC2CI0 DIST SH N-S SLP069

CYYC;2008-05-30 01:00;CYYC 300100Z 09007KT 40SM BKN086TCU BKN120 BKN250 21/05 A2973 RMK TCU5AC2CI0 SH NW-S SLP072

CYYC;2008-05-30 02:00;CYYC 300200Z 05009KT 40SM FEW068 BKN100 20/05 A2976 RMK CU2AC4 SLP079

CYYC;2008-05-30 03:00;CYYC 300300Z 02021KT 30SM FEW068 BKN110 16/08 A2981 RMK CU2AC4 CB PRSNT S/ VIRGA SE-SW SLP095

CYYC;2008-05-30 04:00;CYYC 300400Z 01013G19KT 20SM FEW060 SCT120 BKN240 13/08 A2984 RMK CU1AC2CI1 SLP106

CYYC;2008-05-30 05:00;CYYC 300500Z 01009KT 15SM FEW075 11/08 A2985 RMK AC1 SLP110

CYYC;2008-05-30 06:00;CYYC 300600Z 27004KT 15SM SCT089 12/08 A2987 RMK AC3 SLP117

CYYC;2008-05-30 07:00;CYYC 300700Z 26005KT 15SM FEW089 12/07 A2988 RMK AC2 SLP120

CYYC;2008-05-30 08:00;CYYC 300800Z 27005KT 15SM FEW110 11/07 A2988 RMK AC1 SLP121

CYYC;2008-05-30 09:00;CYYC 300900Z 00000KT 15SM BKN087 12/07 A2989 RMK AC6 SLP120

CYYC;2008-05-30 10:00;CYYC 301000Z 00000KT 15SM BKN085 11/07 A2990 RMK AC6 SLP123

CYYC;2008-05-30 11:00;CYYC 301100Z 34009KT 20SM FEW060 OVC092 11/08 A2992 RMK SC2AC5 SLP129

CYYC;2008-05-30 12:00;CYYC 301200Z 32006KT 40SM FEW060 BKN100 10/06 A2993 RMK SC2AC5 SLP138

CYYC;2008-05-30 13:00;CYYC 301300Z 32006KT 40SM FEW040 BKN095 10/06 A2995 RMK CU1AC6 SLP144

CYYC;2008-05-30 14:00;CYYC 301400Z 33007KT 40SM FEW024 SCT085 SCT240 12/07 A2997 RMK CU1AC2CI0 SLP149

CYYC;2008-05-30 15:00;CYYC 301500Z 01012KT 40SM FEW028 FEW092 FEW250 14/06 A2998 RMK CU1AC1CI0 SLP158

CYYC;2008-05-30 16:00;CYYC 301600Z 02007KT 40SM FEW030TCU FEW082 FEW240 15/07 A2998 RMK TCU1AC1CI1 SLP157

CYYC;2008-05-30 17:00;CYYC 301700Z 36006KT 40SM FEW040TCU FEW084 15/06 A2999 RMK TCU1AC1 SLP160

CYYC;2008-05-30 18:00;CYYC 301800Z 06007KT 40SM BKN040TCU 16/07 A2999 RMK TCU5 DIST SH SW-NW SLP163

CYYC;2008-05-30 18:37;CYYC 301837Z 29016G25KT 40SM -SHRA BKN046TCU 13/ RMK TCU7 PCPN VRY LGT/VIS LWR W/CB EMBD

CYYC;2008-05-30 18:45;CYYC 301845Z 27023KT 40SM -TSRA FEW022 BKN042CB 12/ RMK SC1CB7 VIS S+W 10

CYYC;2008-05-30 19:00;CYYC 301900Z 23019G27KT 40SM +TSRA FEW015CB BKN045CB 12/07 A3002 RMK CB2CB5 VIS SE-S+W 5 SLP170

CYYC;2008-05-30 19:06;CYYC 301906Z 19006G18KT 40SM -SHRA SCT012CB BKN046CB BKN080 11/ RETSRA RMK CB4CB2AC1 VIS SE 10/VIS LWR S+NW

CYYC;2008-05-30 19:45;CYYC 301945Z 09005KT 40SM FEW013 BKN045CB BKN085 15/ RETSRA RMK SC1CB5AC2 DIST SH SE-SW+NW/ VIS LWR SE-SW

CYYC;2008-05-30 20:00;CYYC 302000Z 05006KT 40SM SCT042CB BKN085 15/09 A3000 RERA RMK CB4AC2 DIST SH SE+SW+NW SLP165

CYYC;2008-05-30 21:00;CYYC 302100Z 09007KT 40SM FEW042TCU FEW084 BKN240 17/07 A3000 RMK TCU1AC2CI1 DIST SH E-SE+W SLP166

CYYC;2008-05-30 22:00;CYYC 302200Z 07002KT 40SM FEW052TCU SCT080 BKN200 17/06 A2999 RMK TCU2AC2CI0 DIST SH ALQDS SLP163

CYYC;2008-05-30 23:00;CYYC 302300Z 04003KT 40SM SCT050TCU BKN062TCU BKN120 BKN250 17/06 A2999 RMK TCU3TCU2AC1CI0 DIST SH S-N SLP162

CYYC;2008-05-31 00:00;CYYC 310000Z 09002KT 40SM BKN060TCU BKN080 BKN130 18/06 A2999 RMK TCU5AC2AC0 DIST SH SE+NW/VIS LWR S+N/CB EMBD SLP161

CYYC;2008-05-31 00:24;CYYC 310024Z 07002KT 40SM TS BKN060CB BKN080 17/ RMK CB6AC1 VIS LWR S+W/LTGCG W

CYYC;2008-05-31 00:26;CYYC 310026Z 07002KT 40SM -TSRA BKN060CB BKN080 17/ RMK CB6AC1 VIS LWR SE+W/LTGCC W

CYYC;2008-05-31 00:45;CYYC 310045Z 23018KT 20SM -TSRA FEW044CB BKN060CB 14/ RMK CB2CB5 VIS SW 5/VIS SE 7/ VIS E 40/LTGCG SE

CYYC;2008-05-31 00:48;CYYC 310048Z 26016G25KT 3SM +TSRA FEW018CB SCT044CB BKN060CB 13/ RMK CB1CB3CB4 VIS SW 2/VIS NE-E 30

CYYC;2008-05-31 00:53;CYYC 310053Z CCA 27019G25KT 1SM +TSRA FEW009CB BKN045CB OVC060CB 12/ RMK CB2CB2CB3 VIS NW 10/VIS NE-E 25

CYYC;2008-05-31 01:00;CYYC 310100Z 22018G24KT 3SM TSRA SCT009CB BKN045CB OVC060CB 12/08 A3003 RERA RMK CB3CB2CB2 WSHFT 0058/VIS NW-E 20 SLP173

CYYC;2008-05-31 01:20;CYYC 310120Z 14007G20KT 30SM -TSRA FEW009CB BKN040CB BKN060CB 12/ RERA RMK CB2CB3CB2 VIS 2 SE/WSHFT 0115

CYYC;2008-05-31 01:30;CYYC 310130Z 13006KT 30SM -SHRA FEW009CB FEW021CB BKN050CB BKN070 12/ RETSRA RMK CB1CB1CB6AC1 VIS 3 SE/VIS LWR NW+E

CYYC;2008-05-31 02:00;CYYC 310200Z CCA 11006KT 40SM SCT040CB BKN120 BKN240 14/09 A3001 RERA RMK CB4AC2CI0 SLP167

CYYC;2008-05-31 03:00;CYYC 310300Z 03002KT 40SM FEW060CB SCT120 13/09 A3002 RMK CB2AC1 SLP175

CYYC;2008-05-31 04:00;CYYC 310400Z 06002KT 30SM FEW060 SCT110 SCT250 11/09 A3003 RMK SC2AC1CI0 SLP178

CYYC;2008-05-31 05:00;CYYC 310500Z 11002KT 15SM FEW070 FEW110 11/08 A3004 RMK AC1AC0 SLP179

CYYC;2008-05-31 06:00;CYYC 310600Z 22004KT 15SM FEW110 10/09 A3004 RMK AC1 SLP181

CYYC;2008-05-31 07:00;CYYC 310700Z 20005KT 15SM SKC 09/08 A3003 RMK SLP180

CYYC;2008-05-31 08:00;CYYC 310800Z 20007KT 15SM SKC 08/07 A3002 RMK SLP176

CYYC;2008-05-31 09:00;CYYC 310900Z 20009KT 15SM SKC 08/07 A3001 RMK SLP173

CYYC;2008-05-31 10:00;CYYC 311000Z CCB 22005KT 15SM SKC 09/07 A3000 RMK SLP170

CYYC;2008-05-31 11:00;CYYC 311100Z 23008KT 20SM FEW100 08/06 A3000 RMK AC1 AC TR SLP169

CYYC;2008-05-31 12:00;CYYC 311200Z 21005KT 40SM FEW060 FEW100 06/05 A3000 RMK SC1AC1 BOTH CLDS TR SLP170

CYYC;2008-05-31 13:00;CYYC 311300Z 00000KT 40SM FEW060 FEW100 10/06 A3001 RMK SC1AC1 CLDS TR SLP173

CYYC;2008-05-31 14:00;CYYC 311400Z 34002KT 40SM FEW040 14/06 A3002 RMK SC1 SLP176

CYYC;2008-05-31 15:00;CYYC 311500Z 34014G20KT 40SM FEW044 FEW230 16/04 A3004 RMK CU1CI1 SLP176

CYYC;2008-05-31 16:00;CYYC 311600Z 36015KT 40SM FEW040 16/06 A3004 RMK CU1 SLP177

CYYC;2008-05-31 17:00;CYYC 311700Z 01012KT 40SM FEW045 17/07 A3004 RMK CU1 SLP176

CYYC;2008-05-31 18:00;CYYC 311800Z 02010G17KT 40SM FEW048 18/06 A3003 RMK CU1 SLP178

CYYC;2008-05-31 19:00;CYYC 311900Z 01008G15KT 40SM FEW052 19/05 A3003 RMK CU1 SLP176

CYYC;2008-05-31 20:00;CYYC 312000Z 05005KT 40SM FEW062 FEW120 19/03 A3003 RMK CU2AC1 SLP176

CYYC;2008-05-31 21:00;CYYC 312100Z 16004KT 40SM BKN065TCU BKN170 BKN220 19/05 A3002 RMK TCU7AC1CI1 CB EMBD SLP174

CYYC;2008-05-31 22:00;CYYC 312200Z 11005KT 40SM BKN067TCU BKN100 19/04 A3001 RMK TCU6AC1 CB EMBD SLP172

CYYC;2008-05-31 23:00;CYYC 312300Z CCA 11010KT 40SM SCT072 BKN090 BKN220 20/04 A3000 RMK CU4AC1CI1 SH SW-NE/TCU EMBD/CF ASOCTD/CI TR SLP169

CYYC;2008-06-01 01:00;CYYC 010100Z 09002KT 30SM SCT074TCU BKN100 BKN120 19/05 A2999 RMK TCU3AC2AC2 SH ALQDS/CB EMBD SLP166

CYYC;2008-06-01 02:00;CYYC 010200Z 06010G15KT 30SM SCT065CB SCT110 18/06 A2999 RMK CB3AC1 SLP166

CYYC;2008-06-01 03:00;CYYC 010300Z 08008KT 30SM FEW065CB BKN110 14/06 A3000 RMK CB1AC2 SLP164

CYYC;2008-06-01 04:00;CYYC 010400Z 07007KT 30SM FEW060 BKN110 BKN240 13/06 A3002 RMK SC2AC2CI1 SLP169

CYYC;2008-06-01 05:00;CYYC 010500Z 05009KT 15SM SCT085 BKN220 12/07 A3005 RMK AC2CI2 SLP178

CYYC;2008-06-01 06:00;CYYC 010600Z 03004KT 15SM BKN110 BKN240 11/08 A3006 RMK AC3CI1 CI TR SLP186

CYYC;2008-06-01 07:00;CYYC 010700Z 01002KT 15SM SCT100 SCT250 11/07 A3007 RMK AC2CI1 CI TR SLP188

CYYC;2008-06-01 08:00;CYYC 010800Z 36002KT 15SM SCT100 SCT250 10/07 A3007 RMK AC2CI1 CI TR SLP190

CYYC;2008-06-01 09:00;CYYC 010900Z 34005KT 15SM SCT080 BKN110 09/07 A3007 RMK AC3AC2 SLP191

CYYC;2008-06-01 10:00;CYYC 011000Z 35004KT 15SM FEW140 FEW250 08/06 A3007 RMK AC1CI1 AC TR SLP191

CYYC;2008-06-01 11:00;CYYC 011100Z 33005KT 15SM FEW080 BKN110 BKN240 07/05 A3007 RMK AC2AC1CI2 SLP190

CYYC;2008-06-01 12:00;CYYC 011200Z 01004KT 30SM FEW080 SCT120 BKN250 06/05 A3007 RMK AC1AC2CI0 SLP193

CYYC;2008-06-01 13:00;CYYC 011300Z 00000KT 20SM FEW080 SCT120 BKN250 07/06 A3008 RMK AC1AC1CI2 SLP197

CYYC;2008-06-01 14:00;CYYC 011400Z 03005KT 30SM FEW120 SCT250 10/08 A3008 RMK AC1CI1 SLP197

CYYC;2008-06-01 15:00;CYYC 011500Z 11007KT 30SM FEW120 BKN250 14/06 A3008 RMK AC1CI1 SLP193

CYYC;2008-06-01 16:00;CYYC 011600Z 12009KT 25SM FEW035 FEW160 BKN250 15/06 A3007 RMK CU1AC1CI2 SLP192

CYYC;2008-06-01 17:00;CYYC 011700Z 12011KT 25SM FEW040 FEW160 BKN240 16/07 A3007 RMK CU1AC1CS2 SLP190

CYYC;2008-06-01 18:00;CYYC 011800Z 13010G15KT 20SM FEW040 FEW180 OVC230 17/07 A3005 RMK CU1AC1CS3 SLP182

CYYC;2008-06-01 19:00;CYYC 011900Z 13009G15KT 20SM FEW050 FEW130 FEW160 OVC230 17/07 A3004 RMK CU1AC1AC1CS4 CB SW SLP179

CYYC;2008-06-01 20:00;CYYC 012000Z 15010G15KT 20SM FEW050 FEW130 FEW160 OVC230 18/07 A3002 RMK CU1AC1AC1CS3 SLP172

CYYC;2008-06-01 21:00;CYYC 012100Z 14008G18KT 20SM BKN051 BKN180 OVC230 18/08 A2999 RMK CU6AC1CS1 SLP164

CYYC;2008-06-01 22:00;CYYC 012200Z 14008G18KT 25SM BKN053 BKN170 OVC230 19/08 A2998 RMK CU6AC1CS1 SLP161

CYYC;2008-06-01 23:00;CYYC 012300Z 16013G18KT 25SM BKN055TCU BKN110 OVC200 19/08 A2997 RMK TCU5AC1CS1 SH SW + W SLP157

CYYC;2008-06-02 00:00;CYYC 020000Z 16013KT 20SM BKN065TCU BKN110 OVC200 17/07 A2997 RMK TCU6AC1CI1 SH SW-NW SLP161

CYYC;2008-06-02 00:08;CYYC 020008Z 16011KT 20SM -SHRA BKN059TCU BKN110 OVC200 17/ RMK TCU6AC1CI1

CYYC;2008-06-02 00:31;CYYC 020031Z 19012G18KT 20SM BKN064TCU OVC200 16/ RMK TCU6CS1 SH ALQDS

CYYC;2008-06-02 01:00;CYYC 020100Z 18013KT 20SM BKN058TCU BKN080 BKN200 16/06 A2997 RMK TCU6AC1CS1 SH ALQDS SLP162

CYYC;2008-06-02 02:00;CYYC 020200Z 19013KT 20SM VCSH BKN068 BKN120 OVC250 14/07 A2998 RMK AC6AS1CI0 SLP165

CYYC;2008-06-02 02:33;CYYC 020233Z 18011KT 15SM -SHRA BKN050 BKN120 OVC250 13/ RMK SC6AS2CI0

CYYC;2008-06-02 03:00;CYYC 020300Z 20008KT 8SM -SHRA BKN050 BKN120 OVC250 12/09 A2998 RMK SC7AC1CI0 SLP163

CYYC;2008-06-02 04:00;CYYC 020400Z 16003KT 20SM BKN060 OVC090 12/09 A2998 RMK SC4AC4 SLP162

CYYC;2008-06-02 05:00;CYYC 020500Z 25002KT 15SM SCT060 OVC090 12/09 A2998 RMK SC3AC4 SLP161

CYYC;2008-06-02 06:00;CYYC 020600Z 18003KT 15SM SCT070 OVC100 11/10 A2996 RMK AC3AC4 SLP153

CYYC;2008-06-02 06:15;CYYC 020615Z 12004KT 15SM -RA BKN040 OVC100 12/ RMK SC4AC4

CYYC;2008-06-02 07:00;CYYC 020700Z 12009KT 10SM -RA BKN050 OVC100 11/10 A2995 RMK SC6AC2 SLP150

CYYC;2008-06-02 08:00;CYYC 020800Z 12007KT 15SM -RA BKN050 OVC100 11/10 A2993 RMK SC4AC3 SLP143

CYYC;2008-06-02 09:00;CYYC 020900Z 13006KT 15SM -RA OVC026 11/10 A2992 RMK SC8 SLP135

CYYC;2008-06-02 10:00;CYYC 021000Z 12008KT 6SM BR BKN026 OVC040 11/10 A2990 RMK SC4SC3 SLP130

CYYC;2008-06-02 11:00;CYYC 021100Z 11006KT 6SM BR BKN010 OVC040 11/10 A2990 RMK SC6SC2 SLP129

CYYC;2008-06-02 12:00;CYYC 021200Z 13008KT 6SM BR OVC010 10/10 A2989 RMK SC8 SLP129

CYYC;2008-06-02 12:24;CYYC 021224Z 13010KT 3SM BR BKN006 OVC015 10/ RMK ST6SC2

CYYC;2008-06-02 12:40;CYYC 021240Z 13012KT 3SM -DZ BR BKN006 OVC012 10/ RMK ST6SC2

CYYC;2008-06-02 13:00;CYYC 021300Z 14010KT 3SM -DZ BR BKN006 OVC015 10/10 A2988 RMK ST6SC2 SLP126

CYYC;2008-06-02 13:15;CYYC 021315Z 14011KT 2 1/2SM -DZ BR BKN006 OVC015 10/ RMK ST5SC3

CYYC;2008-06-02 13:40;CYYC 021340Z 14011KT 3SM -DZ BR OVC004 10/ RMK ST8

CYYC;2008-06-02 14:00;CYYC 021400Z 16007KT 4SM -DZ BR BKN004 OVC007 10/10 A2988 RMK ST7SC1 SLP125

CYYC;2008-06-02 14:41;CYYC 021441Z 15008KT 6SM -DZ BR OVC006 11/ RMK ST8

CYYC;2008-06-02 14:50;CYYC 021450Z 16010KT 5SM BR OVC007 10/ RMK ST8

CYYC;2008-06-02 15:00;CYYC 021500Z 16007KT 5SM BR OVC008 10/10 A2988 RMK ST8 SLP131

CYYC;2008-06-02 16:00;CYYC 021600Z 16006KT 10SM BKN008 OVC012 11/10 A2986 RMK SC5SC3 SLP127

CYYC;2008-06-02 17:00;CYYC 021700Z 11008KT 12SM BKN009 OVC016 11/10 A2985 RMK SC6SC2 SLP123

CYYC;2008-06-02 17:34;CYYC 021734Z 14006KT 15SM BKN016 OVC021 12/ RMK SC6SC2

CYYC;2008-06-02 18:00;CYYC 021800Z 13005KT 15SM BKN012 OVC016 12/10 A2984 RMK SC7SC1 SLP117

CYYC;2008-06-02 18:08;CYYC 021808Z 15004KT 15SM OVC009 12/ RMK SC8

CYYC;2008-06-02 19:00;CYYC 021900Z 10008KT 15SM BKN014 OVC020 13/10 A2982 RMK SC6SC2 SLP111

CYYC;2008-06-02 20:00;CYYC 022000Z 09009KT 15SM OVC033 13/10 A2981 RMK SC7 SLP108

CYYC;2008-06-02 21:00;CYYC 022100Z 09009KT 15SM BKN017 14/10 A2980 RMK SC7 SLP100

CYYC;2008-06-02 21:54;CYYC 022154Z 07011KT 20SM TS BKN047 OVC055CB 14/ RMK SC5CB3 CB SW

CYYC;2008-06-02 22:00;CYYC 022200Z 07012KT 20SM TS BKN045 OVC055CB 14/10 A2979 RMK SC5CB3 CB S-W SLP098

CYYC;2008-06-02 23:00;CYYC 022300Z 10009KT 20SM TS VCSH SCT045 OVC059CB 13/10 A2979 RMK SC4CB4 HVY SH S-W-N SLP096

CYYC;2008-06-02 23:48;CYYC 022348Z 22006KT 10SM VCSH FEW029 OVC045CB 11/ RETS RMK SC2CB6 HVY SH S-W-N

CYYC;2008-06-03 00:00;CYYC 030000Z 26007KT 10SM VCSH FEW019 OVC025CB 12/08 A2979 RETS RMK SC2CB6 HVY SH ALQDS SLP100

CYYC;2008-06-03 00:23;CYYC 030023Z 29010KT 7SM -SHRA OVC035CB 10/ RMK CB8

CYYC;2008-06-03 01:00;CYYC 030100Z 32006KT 12SM -SHRA BKN053 OVC065CB 10/09 A2977 RMK SC7CB1 SLP096

CYYC;2008-06-03 01:47;CYYC 030147Z 34006KT 10SM FEW015 OVC068 10/ RMK ST1AC8

CYYC;2008-06-03 02:00;CYYC 030200Z 34004KT 20SM SCT040 OVC070 10/09 A2977 RMK SC2AC6 SH DSNT NW-N/VIRGA W SLP096

CYYC;2008-06-03 03:00;CYYC 030300Z 33003KT 20SM FEW015 BKN050 OVC080 10/09 A2977 RMK CF1SC5AC2 SLP095

CYYC;2008-06-03 04:00;CYYC 030400Z 27003KT 15SM FEW011 BKN050 OVC080 10/09 A2976 RMK SC2SC5AC2 SLP094

CYYC;2008-06-03 05:00;CYYC 030500Z 30004KT 15SM FEW015 BKN054 OVC080 10/09 A2975 RMK SC2SC5AC2 SLP090

CYYC;2008-06-03 06:00;CYYC 030600Z 03002KT 5SM BR BKN007 OVC030 10/10 A2973 RMK ST4SC4 SLP080

CYYC;2008-06-03 07:00;CYYC 030700Z 05004KT 2 1/2SM -RA BR BKN007 OVC015 10/10 A2973 RMK ST6SC2 SLP079

CYYC;2008-06-03 08:00;CYYC 030800Z 08010KT 5SM -RA BR BKN005 OVC015 10/10 A2971 RMK ST6SC2 SLP075

CYYC;2008-06-03 09:00;CYYC 030900Z CCA 05005KT 2 1/2SM -RA BR BKN003 OVC015 09/09 A2970 RMK ST6SC2 SLP071

CYYC;2008-06-03 10:00;CYYC 031000Z 02004KT 2 1/2SM -RA BR BKN003 OVC010 08/08 A2970 RMK ST6SC2 SLP070

CYYC;2008-06-03 11:00;CYYC 031100Z 31007KT 2 1/2SM -RA BR BKN010 OVC057 08/08 A2968 RMK ST6SC2 SLP065

CYYC;2008-06-03 12:00;CYYC 031200Z 34006KT 2 1/2SM -RA BR BKN015 OVC030 08/08 A2969 RMK SC6SC2 SLP070

CYYC;2008-06-03 12:30;CYYC 031230Z 35006KT 5SM BR FEW010 OVC019 08/ RMK ST1SC7

CYYC;2008-06-03 13:00;CYYC 031300Z 36007KT 8SM FEW010 OVC021 09/08 A2969 RMK ST1SC7 SLP071

CYYC;2008-06-03 14:00;CYYC 031400Z 35009KT 20SM FEW012 FEW030 BKN092 BKN130 09/07 A2968 RMK SF1SC2AC4AC1 SLP068

CYYC;2008-06-03 15:00;CYYC 031500Z 35011KT 20SM FEW012 SCT036 BKN076 BKN130 10/07 A2968 RMK SF1SC3AC4AC1 SLP066

CYYC;2008-06-03 16:00;CYYC 031600Z 35010KT 20SM FEW015 BKN024 OVC049 10/07 A2968 RMK SF1SC5SC2 SLP066

CYYC;2008-06-03 17:00;CYYC 031700Z 34012KT 20SM FEW012 BKN022 OVC035 10/07 A2967 RMK SF1SC6SC2 SLP064

CYYC;2008-06-03 17:26;CYYC 031726Z 35014KT 15SM -RA FEW015 OVC021 10/ RMK CU1SC8

CYYC;2008-06-03 18:00;CYYC 031800Z CCA 36012KT 10SM -RA OVC018 10/08 A2968 RMK SC8 SLP066

CYYC;2008-06-03 18:40;CYYC 031840Z 34010KT 2 1/2SM -RA BR SCT010 OVC016 09/ RMK SC4SC4

CYYC;2008-06-03 19:00;CYYC 031900Z 36013KT 3SM -RA BR BKN010 OVC016 09/08 A2968 RMK SF5SC3 SLP067

CYYC;2008-06-03 20:00;CYYC 032000Z 35011KT 4SM -RA BR OVC013 09/09 A2968 RMK SC8 SLP066

CYYC;2008-06-03 20:45;CYYC 032045Z 36011KT 10SM FEW009 OVC012 10/ RMK SF1SC7

CYYC;2008-06-03 20:53;CYYC 032053Z 35010KT 10SM -RA FEW009 BKN012 OVC017 10/ RMK SF1SC5SC2

CYYC;2008-06-03 21:00;CYYC 032100Z 35011KT 10SM -RA FEW009 BKN011 OVC017 10/09 A2967 RMK SF1SC5SC2 SLP066

CYYC;2008-06-03 21:16;CYYC 032116Z 34009KT 12SM BKN012 BKN018 OVC030 11/ RMK SC5SC2SC2

CYYC;2008-06-03 22:00;CYYC 032200Z 34009KT 20SM OVC014 12/09 A2966 RMK SC7 SLP063

CYYC;2008-06-03 22:18;CYYC 032218Z 34009KT 20SM BKN015 BKN039 BKN050 12/ RMK SC5SC2SC1

CYYC;2008-06-03 23:00;CYYC 032300Z 34008KT 20SM BKN016 BKN030 12/09 A2966 RMK SC6SC2 SLP061

CYYC;2008-06-04 00:00;CYYC 040000Z 02010KT 20SM BKN018 OVC032 12/09 A2966 RMK SC6SC2 SH N-SE SLP058

CYYC;2008-06-04 00:15;CYYC 040015Z 02010KT 15SM -RA FEW018 BKN029 OVC037 12/ RMK SC2SC2SC3

CYYC;2008-06-04 01:00;CYYC 040100Z 36007KT 6SM -RA BR FEW009 FEW016 BKN031 OVC048 11/10 A2966 RMK SF1SC1SC4SC3 SLP058

CYYC;2008-06-04 02:00;CYYC 040200Z 34003KT 15SM -RA FEW012 SCT060 OVC082 10/10 A2965 RMK SF1SC3AC3 SLP056

CYYC;2008-06-04 02:49;CYYC 040249Z 04003KT 15SM FEW020 SCT060 OVC100 11/ RMK CU1SC3AC4

CYYC;2008-06-04 03:00;CYYC 040300Z 04002KT 15SM FEW020TCU SCT060 OVC100 11/10 A2964 RMK TCU1SC3AC3 TCU E SLP053

CYYC;2008-06-04 04:00;CYYC 040400Z 00000KT 15SM FEW030 BKN056 OVC085 10/09 A2965 RMK SC1SC5AC2 SLP054

CYYC;2008-06-04 05:00;CYYC 040500Z 32003KT 15SM FEW030 BKN060 OVC080 10/09 A2965 RMK SC1SC7AC1 SLP054

CYYC;2008-06-04 06:00;CYYC 040600Z 36004KT 15SM FEW060 OVC084 10/09 A2965 RMK SC2AC6 SLP057

CYYC;2008-06-04 07:00;CYYC 040700Z 36005KT 15SM FEW060 OVC089 09/09 A2966 RMK SC1AC7 SLP059

CYYC;2008-06-04 08:00;CYYC 040800Z 35005KT 15SM OVC099 08/08 A2966 RMK AC8 SLP061

CYYC;2008-06-04 09:00;CYYC 040900Z 36002KT 15SM BKN090 OVC220 08/07 A2967 RMK AC5CI1 SLP066

CYYC;2008-06-04 10:00;CYYC 041000Z 35010KT 10SM BKN100 BKN240 07/06 A2968 RMK AC2CI2 BR SLP069

CYYC;2008-06-04 11:00;CYYC 041100Z 31005KT 10SM FEW070 BKN100 OVC240 07/07 A2969 RMK AC1AC5CI2 SLP071

CYYC;2008-06-04 12:00;CYYC 041200Z 28003KT 15SM FEW100 BKN240 07/07 A2970 RMK AC2CI1 SLP073

CYYC;2008-06-04 13:00;CYYC 041300Z 00000KT 12SM FEW070 BKN100 BKN240 07/07 A2971 RMK AC1AC4CI1 VIRGA E SLP078

CYYC;2008-06-04 14:00;CYYC 041400Z 30002KT 30SM SCT038 BKN058 10/09 A2973 RMK SC3SC2 SLP082

CYYC;2008-06-04 15:00;CYYC 041500Z CCA 32006KT 30SM FEW014 FEW060 SCT077 BKN240 13/10 A2974 RMK CU1SC1AC2CI1 SH E SLP082

CYYC;2008-06-04 15:55;CYYC 041555Z CCA 35007KT 30SM -SHRA FEW020 BKN041 BKN077 BKN240 13/ RMK CU1SC5AC1CI1 CVCTV CLD EMBD

CYYC;2008-06-04 16:00;CYYC 041600Z 35006KT 25SM -SHRA FEW020 BKN045 BKN077 OVC240 12/09 A2976 RMK CU1SC5AC1CI1 TCU ASOCTD SLP087

CYYC;2008-06-04 17:00;CYYC 041700Z 30004KT 30SM FEW016 SCT058 BKN073 BKN240 13/08 A2976 RMK SF1SC3AC2CI1 SH E + SE-SW + W SLP089

CYYC;2008-06-04 17:56;CYYC 041756Z 14008KT 30SM TS FEW026 FEW038CB SCT064 OVC089 14/ RMK CU1CB2SC2AC4 CB + HVY SH E / LTG CLDCG

CYYC;2008-06-04 18:00;CYYC 041800Z 15007KT 30SM TS FEW026 FEW038CB SCT064TCU OVC089 13/08 A2979 RMK CU1CB2TCU2AC3 CB + HVY SH NE / LTG CLDCG SLP099

CYYC;2008-06-04 18:22;CYYC 041822Z 16002KT 30SM -TSRA FEW028 SCT046CB BKN061 BKN092 BKN140 13/ RMK CU1CB3SC2AC2AC1 TS NE / LTGCG

CYYC;2008-06-04 19:00;CYYC 041900Z 09002KT 30SM -TSRA FEW028 SCT054CB BKN094 BKN140 12/07 A2978 RMK CU1CB4AC2AC1 TS N SLP096

CYYC;2008-06-04 19:21;CYYC 041921Z 00000KT 30SM FEW025 FEW054CB BKN094 BKN250 13/ RETS RMK CU1CB2AC2CI1 TS NW

CYYC;2008-06-04 20:00;CYYC 042000Z 36002KT 30SM FEW045 FEW055CB SCT100 SCT130 BKN240 16/06 A2978 RETS RMK CU1CB1AC2AC1CI1 CB NW-NE-E SLP098

CYYC;2008-06-04 21:00;CYYC 042100Z CCA 02015KT 30SM FEW045 FEW055CB SCT120 BKN220 15/10 A2980 RMK CU1CB2AC2CI2 CB + SH NW-NE-SE SLP104

CYYC;2008-06-04 22:00;CYYC 042200Z 02009KT 30SM FEW055CB FEW100 SCT160 BKN230 13/09 A2980 RMK CB1AC2AC2CI1 SLP105

CYYC;2008-06-04 23:00;CYYC 042300Z 09006KT 30SM FEW055CB SCT100 BKN140 BKN230 15/08 A2981 RMK CB1AC2AC2CI1 CB + SH ALQDS SLP106

CYYC;2008-06-05 00:00;CYYC 050000Z CCA 17005KT 20SM FEW055 FEW100 BKN140 BKN210 15/07 A2980 RMK CU1AC1AC4CI1 CB ASOCTD SLP104

CYYC;2008-06-05 01:00;CYYC 050100Z 16007KT 20SM FEW055 FEW140 SCT240 16/06 A2979 RMK CU1AC1CI1 CB ASOCTD SLP102

CYYC;2008-06-05 02:00;CYYC 050200Z 19004KT 20SM FEW055 SCT140 BKN250 16/06 A2980 RMK CU1AC1CI1 SLP105

CYYC;2008-06-05 03:00;CYYC 050300Z 17008KT 20SM FEW055 SCT140 BKN250 14/08 A2980 RMK CU1AC1CI0 SLP099

CYYC;2008-06-05 04:00;CYYC 050400Z 19004KT 20SM FEW060 FEW100 SCT250 13/07 A2981 RMK CU1AC1CI1 SLP101

CYYC;2008-06-05 05:00;CYYC 050500Z 18005KT 15SM FEW250 11/07 A2981 RMK CI1 SLP100

CYYC;2008-06-05 06:00;CYYC 050600Z 19005KT 15SM FEW140 FEW250 11/07 A2980 RMK AC1CI1 AC+CI TR SLP101

CYYC;2008-06-05 07:00;CYYC 050700Z 15002KT 15SM FEW120 10/07 A2979 RMK AC1 AC TR SLP100

CYYC;2008-06-05 08:00;CYYC 050800Z 18005KT 15SM FEW120 08/07 A2979 RMK AC1 AC TR SLP098

CYYC;2008-06-05 09:00;CYYC 050900Z 18003KT 15SM SKC 07/06 A2978 RMK SLP098

CYYC;2008-06-05 10:00;CYYC 051000Z 00000KT 15SM FEW120 08/07 A2978 RMK AC1 SLP097

CYYC;2008-06-05 11:00;CYYC 051100Z 00000KT 20SM FEW120 06/05 A2977 RMK AC1 AC TR SLP094

CYYC;2008-06-05 12:00;CYYC 051200Z 19002KT 20SM FEW120 05/05 A2976 RMK AC1 AC TR SLP094

CYYC;2008-06-05 13:00;CYYC 051300Z 00000KT 40SM FEW120 SCT250 08/06 A2976 RMK AC1CI0 SLP092

CYYC;2008-06-05 14:00;CYYC 051400Z 22005KT 40SM FEW250 10/07 A2975 RMK CI0 SLP091

CYYC;2008-06-05 15:00;CYYC 051500Z 18005KT 40SM FEW030 FEW240 12/08 A2974 RMK SC1CI0 CU ASOCTD SLP078

CYYC;2008-06-05 16:00;CYYC 051600Z 17007KT 40SM FEW034 FEW240 15/07 A2972 RMK CU1CI0 SLP073

CYYC;2008-06-05 17:00;CYYC 051700Z 14011KT 40SM FEW044TCU FEW190 BKN250 17/08 A2971 RMK TCU1AC1CI0 DIST SH SW-W SLP069

CYYC;2008-06-05 18:00;CYYC 051800Z 15013KT 40SM FEW036TCU BKN240 18/07 A2968 RMK TCU1CI0 DIST SH S-N SLP056

CYYC;2008-06-05 19:00;CYYC 051900Z 17018G24KT 40SM BKN054TCU OVC200 20/07 A2966 RMK TCU6CI0 SLP048

CYYC;2008-06-05 20:00;CYYC 052000Z 17011G17KT 40SM FEW021 BKN042TCU 17/04 A2965 RMK SC2TCU6 SLP047

CYYC;2008-06-05 21:00;CYYC 052100Z 17020G25KT 40SM FEW060TCU FEW090 FEW200 19/05 A2963 RMK TCU1AC1CI0 SH S SLP038

CYYC;2008-06-05 21:26;CYYC 052126Z 19019G27KT 30SM -SHRA SCT042TCU BKN062TCU 17/ RMK TCU3TCU4 VIS S 10/CB EMBD

CYYC;2008-06-05 22:00;CYYC 052200Z 18007KT 30SM BKN054TCU BKN080 18/05 A2961 RMK TCU5AC2 OCNL SH SLP032

CYYC;2008-06-05 23:00;CYYC 052300Z 14011G16KT 40SM FEW064TCU FEW100 BKN250 20/04 A2957 RMK TCU1AC2CI0 CC ASOCTD SLP022

CYYC;2008-06-06 00:00;CYYC 060000Z 17015G24KT 40SM FEW068TCU FEW110 BKN250 20/03 A2954 RMK TCU2AC1CI0 SLP011

CYYC;2008-06-06 01:00;CYYC 060100Z 16017G28KT 40SM FEW044 SCT080 BKN160 BKN220 18/05 A2953 RMK CU1AC2AC1CI0 TCU ASOCTD SLP008

CYYC;2008-06-06 02:00;CYYC 060200Z 18013KT 40SM FEW050 SCT110 OVC230 17/03 A2952 RMK CU1AC2CI3 SLP003

CYYC;2008-06-06 03:00;CYYC 060300Z 18005KT 40SM FEW050 FEW110 OVC230 15/04 A2951 RMK CU1AC2CI4 SLP997

CYYC;2008-06-06 04:00;CYYC 060400Z 18009KT 20SM FEW140 OVC210 14/04 A2950 RMK AC2CI6 SLP994

CYYC;2008-06-06 05:00;CYYC 060500Z 19007KT 15SM BKN190 OVC210 13/04 A2949 RMK AC5CI3 SLP990

CYYC;2008-06-06 06:00;CYYC 060600Z 18006KT 15SM BKN160 OVC210 11/04 A2948 RMK AC6CI2 SLP983

CYYC;2008-06-06 07:00;CYYC 060700Z 18006KT 15SM BKN110 OVC210 11/04 A2947 RMK AC6CI2 SLP980

CYYC;2008-06-06 08:00;CYYC 060800Z 25003KT 15SM OVC130 11/04 A2954 RMK AC7 SLP001

CYYC;2008-06-06 09:00;CYYC 060900Z 24005KT 15SM OVC100 11/04 A2944 RMK AC8 SLP969

CYYC;2008-06-06 10:00;CYYC 061000Z 28005KT 15SM BKN100 OVC210 10/02 A2944 RMK AC5CI3 SLP970

CYYC;2008-06-06 11:00;CYYC 061100Z 30004KT 15SM SCT055 BKN080 OVC100 10/03 A2944 RMK SC3AC4AC1 SLP970

CYYC;2008-06-06 12:00;CYYC 061200Z 31010KT 20SM FEW055 BKN092 09/03 A2945 RMK SC2AC4 SLP973

CYYC;2008-06-06 13:00;CYYC 061300Z 32010KT 40SM FEW055 BKN071 BKN100 10/04 A2944 RMK SC2AC4AC1 SLP972

CYYC;2008-06-06 13:45;CYYC 061345Z CCA 32010KT 40SM -RA FEW020 BKN050 BKN070 09/ RMK SC2SC3AC2

CYYC;2008-06-06 14:00;CYYC 061400Z 32011KT 40SM -SHRA FEW016 FEW042 BKN056 BKN070 09/06 A2946 RMK SC1SC1SC3AC2 CVCTV ASOCTD SLP976

CYYC;2008-06-06 14:21;CYYC 061421Z 32011KT 40SM FEW016 FEW045 BKN058 BKN070 09/ RMK SC1SC1SC4AC1 DIST SH N+NE+SE+SW/CU ASOCTD/OCNL SH

CYYC;2008-06-06 15:00;CYYC 061500Z 33013KT 40SM FEW045 SCT062 BKN090 10/05 A2946 RMK SC1SC2AC4 SH N+NE-SE/CU ASOCTD SLP983

CYYC;2008-06-06 16:00;CYYC 061600Z 33016KT 40SM FEW030 FEW070 SCT086 BKN100 11/05 A2948 RMK CU1AC1AC4AC2 DIST SH ALQDS/CU TR SLP989

CYYC;2008-06-06 17:00;CYYC 061700Z 35015KT 30SM FEW030TCU BKN100 BKN250 13/05 A2948 RMK TCU2AC2CI0 DIST SH ALQDS SLP988

CYYC;2008-06-06 17:45;CYYC 061745Z 35010G16KT 40SM -SHRA BKN032TCU BKN110 12/ RMK TCU5AC2 VIS S+W 10

CYYC;2008-06-06 18:00;CYYC 061800Z 34006G24KT 40SM BKN032TCU BKN110 09/05 A2947 RMK TCU6AC2 PCPN VRY LGT SLP993

CYYC;2008-06-06 18:18;CYYC 061818Z 36010KT 40SM SCT032TCU BKN070 11/ RMK TCU3AC4 DIST SH E+SW-W

CYYC;2008-06-06 18:22;CYYC 061822Z 35010KT 30SM -SHRA FEW016TCU SCT032TCU BKN068 12/ RMK TCU2TCU2AC3 PCPN VRY LGT

CYYC;2008-06-06 18:39;CYYC 061839Z 34012KT 30SM FEW022TCU SCT032TCU BKN062 13/ RMK TCU1TCU3SC3 SH NE-W/VIS S 8

CYYC;2008-06-06 18:49;CYYC 061849Z 33016KT 40SM -SHRA SCT030TCU BKN062 12/ RMK TCU4SC3 PCPN VRY LGT/VIS LWR E+S

CYYC;2008-06-06 19:00;CYYC 061900Z 31018KT 40SM -SHRA BKN030TCU BKN062 11/05 A2946 RMK TCU5SC2 VIS E+S LWR SLP990

CYYC;2008-06-06 19:32;CYYC 061932Z CCA 36010G16KT 40SM SCT030TCU BKN070 12/ RMK TCU4AC3 SH ALQDSVIS SW-S 7

CYYC;2008-06-06 20:00;CYYC 062000Z 02012KT 40SM FEW030TCU BKN055 BKN070 13/06 A2948 RMK TCU2SC2AC2 SH ALQDS/VIS LWR E-S SLP994

CYYC;2008-06-06 20:25;CYYC 062025Z 34017G24KT 30SM -SHRA BKN030TCU BKN062 10/ RMK TCU5SC2

CYYC;2008-06-06 20:41;CYYC 062041Z CCA 26011G20KT 20SM -TSRA BKN030TCU OVC050 10/ RMK TCU6SC2 CB EMBD/LTNG S

CYYC;2008-06-06 21:00;CYYC 062100Z 36015KT 20SM -TSRA FEW020CB BKN030CB 10/07 A2949 RMK CB2CB5 LTNG SE/VIS SE LWR SLP998

CYYC;2008-06-06 21:06;CYYC 062106Z 36012G17KT 30SM -SHRA SCT012CB BKN030CB 09/ RETS RMK CB3CB4 VIS SE LWR

CYYC;2008-06-06 21:18;CYYC 062118Z 01009KT 30SM SCT014CB BKN022CB 10/ RETS RMK CB3CB4 SH ALQDS/VIS SE LWR

CYYC;2008-06-06 22:00;CYYC 062200Z 13007KT 30SM FEW032CB BKN050 BKN100 11/07 A2950 RMK CB1SC6AS0 SH ALQDS SLP002

CYYC;2008-06-06 23:00;CYYC 062300Z 18012KT 30SM BKN040 OVC090 11/08 A2951 RMK SC6AS0 SH ALQDS SLP004

CYYC;2008-06-06 23:12;CYYC 062312Z 20011KT 30SM -SHRA BKN040 OVC090 10/ RMK SC7AS0

CYYC;2008-06-06 23:36;CYYC 062336Z CCA 20013KT 30SM FEW028 BKN040 11/ RMK SC2SC5 SH E-NW/CU ASOCTD

CYYC;2008-06-06 23:38;CYYC 062338Z 20010KT 30SM -SHRA SCT028 BKN040 11/ RMK SC3SC3 CU ASOCTD

CYYC;2008-06-07 00:00;CYYC 070000Z 19008KT 30SM SCT028 BKN060 12/07 A2951 RMK SC3SC3 CB ASOCTD/OCNL SH SLP006

CYYC;2008-06-07 00:07;CYYC 070007Z 21007KT 30SM FEW030CB OVC060 13/ RMK CB2SC5 SH ALQDS/

CYYC;2008-06-07 01:00;CYYC 070100Z 32012KT 30SM BKN050 12/01 A2952 RMK SC7 SH E-SW SLP009

CYYC;2008-06-07 02:00;CYYC 070200Z 35009KT 40SM BKN065 BKN100 12/03 A2953 RMK SC5AC2 SLP011

CYYC;2008-06-07 03:00;CYYC 070300Z 36010KT 40SM SCT065 BKN072 BKN100 10/05 A2955 RMK SC3AC2AC2 VIRGA S/ CB PRSNT S SLP020

CYYC;2008-06-07 04:00;CYYC 070400Z 34007KT 20SM FEW065 BKN081 OVC100 10/04 A2956 RMK SC2AC4AC2 SLP023

CYYC;2008-06-07 05:00;CYYC 070500Z 34006KT 15SM BKN074 OVC100 10/04 A2957 RMK AC6AC2 SLP027

CYYC;2008-06-07 06:00;CYYC 070600Z 33011G19KT 15SM OVC077 09/03 A2958 RMK AC8 SLP033

CYYC;2008-06-07 06:35;CYYC 070635Z 33015G20KT 12SM -RA OVC051 08/ RMK SC8

CYYC;2008-06-07 07:00;CYYC 070700Z 32013G19KT 12SM -RA OVC043 08/05 A2959 RMK SC8 SLP035

CYYC;2008-06-07 08:00;CYYC 070800Z 30010KT 12SM -RA OVC039 07/05 A2959 RMK SC8 SLP035

CYYC;2008-06-07 09:00;CYYC 070900Z 29014KT 12SM -RA OVC040 07/05 A2960 RMK SC8 SLP041

CYYC;2008-06-07 10:00;CYYC 071000Z 30013KT 12SM -RA OVC034 07/05 A2960 RMK SC8 SLP041

CYYC;2008-06-07 11:00;CYYC 071100Z 29013KT 12SM -RA OVC034 07/05 A2960 RMK SC8 SLP041

CYYC;2008-06-07 12:00;CYYC 071200Z CCA 30015KT 10SM -RA OVC037 07/05 A2960 RMK SC8 SLP041

CYYC;2008-06-07 13:00;CYYC 071300Z 31014G19KT 5SM -RA BR OVC025 07/06 A2962 RMK SC8 SLP046

CYYC;2008-06-07 13:15;CYYC 071315Z 30014KT 2 1/2SM RA OVC028 06/ RMK SC8 VIS W 3

CYYC;2008-06-07 14:00;CYYC 071400Z 31013G19KT 12SM -RA OVC018 07/06 A2963 RERA RMK SC8 SLP050

CYYC;2008-06-07 14:21;CYYC 071421Z CCA 32013KT 8SM -RA OVC014 07/ RERA RMK SC8

CYYC;2008-06-07 14:49;CYYC 071449Z 32012G17KT 2 1/2SM +RA OVC010 07/ RMK SC8

CYYC;2008-06-07 14:54;CYYC 071454Z 31011G17KT 2 1/2SM +RA BR OVC008 07/ RMK SC8

CYYC;2008-06-07 15:00;CYYC 071500Z 31013KT 2 1/2SM +RA BR OVC008 07/07 A2967 RMK SC8 SLP067

CYYC;2008-06-07 15:14;CYYC 071514Z 29006KT 4SM +RA BR OVC008 07/ RMK SC8

CYYC;2008-06-07 15:21;CYYC 071521Z CCA 27007KT 15SM -RA BKN009 OVC011 07/ RERA RMK SC6SC2 PCPN VRY LGT

CYYC;2008-06-07 15:48;CYYC 071548Z CCA 25010KT 30SM OVC008 07/ RERA RMK SC8

CYYC;2008-06-07 16:00;CYYC 071600Z 29007KT 30SM BKN008 OVC010 07/07 A2968 RERA RMK SC6SC2 /R14/ SLP070

CYYC;2008-06-07 16:22;CYYC 071622Z 33013KT 30SM SCT008 OVC012 09/ RMK SC3SC5

CYYC;2008-06-07 16:52;CYYC 071652Z 33013KT 30SM -RA SCT011 OVC015 09/ RMK SC3SC5 PCPN VRY LGT

CYYC;2008-06-07 17:00;CYYC 071700Z 33011G17KT 30SM -RA FEW012 OVC016 09/07 A2969 RMK SC2SC6 PCPN VRY LGT SLP073

CYYC;2008-06-07 18:00;CYYC 071800Z 33018G25KT 30SM BKN015 OVC030 09/06 A2971 RMK SC6SC2 PCPN VRY LGT/INTMT SLP079

CYYC;2008-06-07 19:00;CYYC 071900Z 31027G33KT 30SM -RA FEW030 BKN040 OVC065 08/06 A2971 RMK SC2SC3SC2 PCPN VRY LGT/INTMT SLP078

CYYC;2008-06-07 20:00;CYYC 072000Z 32021G26KT 25SM -RA FEW008 SCT030 BKN060 OVC120 10/08 A2973 RMK CU1SC3SC3AC1 PCPN VRY LGT/INTMT/CU TR SLP086

CYYC;2008-06-07 20:48;CYYC 072048Z 32018KT 2 1/2SM -RA SCT020 BKN038 OVC060 09/ RMK SC4SC2SC2 VIS N-NE 10

CYYC;2008-06-07 21:00;CYYC 072100Z 32017G24KT 10SM -RA SCT020 BKN035 OVC060 09/07 A2976 RMK SC4SC2SC2 PCPN INTMT SLP098

CYYC;2008-06-07 21:35;CYYC 072135Z 09010KT 2SM RA FEW015 BKN021 OVC034 06/ RMK SC2SC3SC3 VIS S-NW 10

CYYC;2008-06-07 21:40;CYYC 072140Z 08011KT 2SM +RA FEW015 BKN021 OVC034 06/ RMK SC2SC3SC2 CB ASOCTD

CYYC;2008-06-07 22:00;CYYC 072200Z 12007KT 1 3/4SM RA FEW015 BKN021 OVC034 07/06 A2981 RERA RMK SC2SC3SC3 CB ASOCTD SLP113

CYYC;2008-06-07 22:10;CYYC 072210Z 12004KT 3SM -RA FEW011 SCT015 BKN021 OVC032 07/ RERA RMK SC2SC2SC2SC2 CB ASOCTD

CYYC;2008-06-07 22:21;CYYC 072221Z 09002KT 3SM -RA BR FEW005 BKN011 OVC030 07/ RERA RMK SC2SC3SC3

CYYC;2008-06-07 23:00;CYYC 072300Z 36002KT 4SM RA BR SCT011 OVC023 07/07 A2984 RMK SC3SC5 SLP122

CYYC;2008-06-07 23:33;CYYC 072333Z CCA 33005KT 5SM TSRA BR BKN010 OVC024 07/ RMK SC5SC3 CB EMBD

CYYC;2008-06-07 23:50;CYYC 072350Z 31008KT 6SM TSRA BR BKN016 OVC030 07/ RMK SC6SC2 CB EMBD

CYYC;2008-06-08 00:00;CYYC 080000Z 30008KT 10SM -SHRA BKN018 OVC030 07/06 A2984 RETSRA RMK SC6SC2 CB EMBD SLP129

CYYC;2008-06-08 01:00;CYYC 080100Z 33008KT 30SM -SHRA OVC030 07/07 A2985 RMK SC8 CB EMBD SLP133

CYYC;2008-06-08 02:00;CYYC 080200Z 28012G17KT 5SM -SHRA BR OVC036 07/06 A2983 RMK SC8 SLP128

CYYC;2008-06-08 03:00;CYYC 080300Z 28006KT 15SM -SHRA BKN058 OVC070 08/06 A2986 RMK SC6AC2 SLP136

CYYC;2008-06-08 04:00;CYYC 080400Z 29003KT 15SM -RA BKN059 OVC082 07/06 A2987 RMK SC6AC2 SLP141

CYYC;2008-06-08 05:00;CYYC 080500Z 28003KT 15SM -RA BKN057 OVC075 07/06 A2987 RMK SC6AC2 SLP141

CYYC;2008-06-08 06:00;CYYC 080600Z 35004KT 15SM -RA FEW025 OVC052 07/06 A2987 RMK SF1SC7 24 HR AMT OF RRT

CYYC;2008-06-08 07:00;CYYC 080700Z 29008KT 15SM -RA SCT052 BKN120 07/06 A2986 RMK SC3AC2 RA VRY LGT SLP134

CYYC;2008-06-08 07:25;CYYC 080725Z 28007KT 15SM FEW052 BKN120 07/ RMK SC2AC4

CYYC;2008-06-08 08:00;CYYC 080800Z 31004KT 15SM FEW055 OVC110 08/06 A2986 RMK SC2AC4 SLP133

CYYC;2008-06-08 09:00;CYYC 080900Z 30009KT 15SM FEW055 BKN110 OVC190 07/06 A2985 RMK SC2AC3AC1 SLP131

CYYC;2008-06-08 10:00;CYYC 081000Z 33007KT 15SM FEW065 SCT110 OVC180 08/06 A2986 RMK SC2AC2AC2 SLP134

CYYC;2008-06-08 11:00;CYYC 081100Z 31007KT 10SM FEW110 OVC190 07/06 A2987 RMK AC2AC6 SLP137

CYYC;2008-06-08 12:00;CYYC 081200Z 34008KT 40SM FEW039 BKN052 OVC110 08/06 A2989 RMK SC2SC6AC1 SLP145

CYYC;2008-06-08 13:00;CYYC 081300Z 32011KT 40SM FEW022 OVC043 08/07 A2990 RMK SC2SC6 SH DIST W SLP149

CYYC;2008-06-08 13:21;CYYC 081321Z CCA 31013KT 20SM -SHRA FEW022 OVC046 08/ RMK SC2SC6 CVCTV CLD EMBD

CYYC;2008-06-08 14:00;CYYC 081400Z 33014G19KT 15SM -SHRA FEW026 BKN040 OVC085 08/07 A2990 RMK SC1SC6AC2 CVCTV CLD EMBD SLP149

CYYC;2008-06-08 15:00;CYYC 081500Z CCA 32014G20KT 15SM -SHRA BKN048 OVC085 08/07 A2991 RMK SC6AC2 CVCTV CLD EMBD SLP151

CYYC;2008-06-08 16:00;CYYC 081600Z 33012G19KT 15SM -SHRA FEW016 OVC054 09/07 A2991 RMK SF1SC8 CVCTV CLD EMBD SLP151

CYYC;2008-06-08 17:00;CYYC 081700Z 34010KT 15SM -RA FEW015 OVC052 10/08 A2992 RMK SC2SC6 SLP154

CYYC;2008-06-08 18:00;CYYC 081800Z 33009KT 30SM -SHRA BKN018 OVC059 11/08 A2992 RMK CU5SC3 PCPN VRY LGT SLP152

CYYC;2008-06-08 19:00;CYYC 081900Z 01007KT 20SM BKN021 OVC060 11/08 A2992 RMK CU7SC1 PCPN VRY LGT / SCT SH ALQDS SLP152

CYYC;2008-06-08 20:00;CYYC 082000Z 02008KT 20SM BKN025 OVC040 12/08 A2991 RMK CU6SC2 SH SE+SW SLP150

CYYC;2008-06-08 21:00;CYYC 082100Z 02009KT 30SM SCT026 BKN049 BKN120 13/08 A2991 RMK CU4SC2AC1 SH S-NW / CB EMBD SLP144

CYYC;2008-06-08 21:49;CYYC 082149Z 28017KT 15SM -SHRA FEW010 BKN022 OVC040 10/ RMK SF1CU6SC2 CB EMBD

CYYC;2008-06-08 22:00;CYYC 082200Z 29014G20KT 6SM -SHRA FEW006 BKN022 OVC040 09/07 A2992 RMK SF1CU7SC1 CB EMBD SLP148

CYYC;2008-06-08 23:00;CYYC 082300Z 33006KT 10SM -SHRA FEW006 BKN022 OVC040 09/07 A2993 RMK SC2CU4SC2 TCU EMBD SLP152

CYYC;2008-06-09 00:00;CYYC 090000Z 33003KT 20SM -SHRA FEW006 SCT022 OVC087 10/08 A2993 RMK SC1CU2AC5 SLP155

CYYC;2008-06-09 00:20;CYYC 090020Z 29004KT 20SM FEW022 BKN047 OVC087 10/ RMK CU1SC4AC3 SH NE-SW

CYYC;2008-06-09 00:54;CYYC 090054Z CCA 27009KT 20SM -SHRA FEW022 BKN029 OVC040 10/ RMK CU2SC2SC3 TCU ASOCTD

CYYC;2008-06-09 01:00;CYYC 090100Z 27010KT 20SM -SHRA FEW022 BKN029 OVC040 10/08 A2994 RMK CU2SC2SC3 TCU ASOCTD SLP159

CYYC;2008-06-09 02:00;CYYC 090200Z 24006KT 30SM FEW022 BKN029 OVC040 10/07 A2994 RMK CU2SC2SC2 TCU ASOCTD/SH N-NW SLP159

CYYC;2008-06-09 03:00;CYYC 090300Z 36016KT 30SM FEW030 OVC130 08/06 A2994 RMK SC2AC6 SH N-NE SLP162

CYYC;2008-06-09 04:00;CYYC 090400Z 34008KT 15SM FEW030 BKN130 BKN230 07/06 A2996 RMK SC2AC4CI1 SH DSNT E SLP169

CYYC;2008-06-09 05:00;CYYC 090500Z 32008KT 15SM FEW040 BKN180 07/05 A2997 RMK SC2AC4 SLP170

CYYC;2008-06-09 06:00;CYYC 090600Z 29005KT 15SM SCT060 BKN080 07/05 A2996 RMK SC3AC3 SLP167

CYYC;2008-06-09 07:00;CYYC 090700Z 27003KT 15SM SCT060 BKN080 07/05 A2995 RMK SC3AC3 SLP165

CYYC;2008-06-09 08:00;CYYC 090800Z 01002KT 15SM BKN065 07/06 A2993 RMK SC6 SLP159

CYYC;2008-06-09 09:00;CYYC 090900Z 00000KT 15SM FEW045 BKN100 07/05 A2993 RMK SC1AC4 VIRGA S-SE SLP153

CYYC;2008-06-09 10:00;CYYC 091000Z 25003KT 15SM FEW045 SCT100 05/05 A2992 RMK SC1AC2 SLP151

CYYC;2008-06-09 11:00;CYYC 091100Z 26003KT 40SM FEW080 BKN250 05/05 A2992 RMK AC1CI1 AC TR SLP149

CYYC;2008-06-09 12:00;CYYC 091200Z 00000KT 40SM FEW080 BKN250 03/03 A2991 RMK AC1CI1 SLP156

CYYC;2008-06-09 13:00;CYYC 091300Z 00000KT 40SM FEW080 SCT250 06/05 A2991 RMK AC1CI1 AC TR SLP157

CYYC;2008-06-09 14:00;CYYC 091400Z 22003KT 40SM FEW020 FEW080 FEW250 07/05 A2990 RMK CU1AC1CI1 CU+AC TR SLP153

CYYC;2008-06-09 15:00;CYYC 091500Z CCA 02002KT 40SM FEW040 FEW080 FEW250 10/05 A2989 RMK CU1AC1CI1 CU CVCTNG RPDLY NW SLP142

CYYC;2008-06-09 16:00;CYYC 091600Z 09002KT 40SM FEW040 FEW080 FEW250 11/05 A2988 RMK CU1AC1CI1 LRG CU ASOCTD SLP140

CYYC;2008-06-09 17:00;CYYC 091700Z 05002KT 40SM FEW038 FEW250 13/05 A2986 RMK CU2CI1 SLP134

CYYC;2008-06-09 18:00;CYYC 091800Z 11003KT 40SM SCT045 SCT250 13/03 A2984 RMK CU3CI1 DIST SCT SH SW-W SLP122

CYYC;2008-06-09 19:00;CYYC 091900Z 07005KT 40SM BKN046 BKN078 BKN250 14/04 A2982 RMK CU5AC1CI0 DIST SCT SH SW-W / TCU ASOCTD SLP116

CYYC;2008-06-09 20:00;CYYC 092000Z 09006KT 40SM BKN049 BKN078 BKN250 13/05 A2980 RMK CU5CU2CI0 SH SW + W / TCU ASOCTD SLP110

CYYC;2008-06-09 21:00;CYYC 092100Z 10008KT 30SM BKN057TCU BKN076 BKN250 14/04 A2979 RMK TCU6AC1CI1 SH SW-NW SLP102

CYYC;2008-06-09 22:00;CYYC 092200Z 13011KT 20SM FEW048 BKN061CB BKN090 BKN250 14/04 A2977 RMK CU2CB3AC1CI1 CB + SH SW-W SLP096

CYYC;2008-06-09 23:00;CYYC 092300Z CCA 24011KT 15SM BKN051CB BKN078 11/06 A2978 RMK CB7AC1 SH SE-SW-W-NW / LTGCG NW SLP099

CYYC;2008-06-09 23:11;CYYC 092311Z CCA 23010KT 10SM -SHRA BKN040CB BKN078 11/ RMK CB7AC1 SH SE-SW-W-NW / LTGCG NW

CYYC;2008-06-10 00:00;CYYC 100000Z 13007KT 15SM -SHRA FEW017 SCT038CB BKN060 BKN078 11/07 A2976 RMK SF1CB3SC2AC2 CB ALQDS SLP103

CYYC;2008-06-10 00:36;CYYC 100036Z 09009KT 15SM SCT044 BKN072 OVC200 10/ RMK SC3AC2CI1 CB + SH ALQDS

CYYC;2008-06-10 01:00;CYYC 100100Z 11007KT 15SM SCT039 BKN068 BKN220 11/06 A2974 RMK SC4AC2CI1 CB + SH ALQDS SLP096

CYYC;2008-06-10 02:00;CYYC 100200Z 09009KT 15SM VCSH FEW037 BKN050 OVC070 10/07 A2973 RMK CU2SC4AC2 SH ALQDS / CB EMBD SLP093

CYYC;2008-06-10 03:00;CYYC 100300Z 13013KT 15SM FEW019 FEW036 BKN062 OVC080 10/07 A2973 RMK SF1SC2SC4AC2 CB E + W / SH ALQDS SLP083

CYYC;2008-06-10 04:00;CYYC 100400Z 14013KT 20SM SCT040 BKN160 08/06 A2973 RMK SC3AC3 SH DSNT SW SLP083

CYYC;2008-06-10 05:00;CYYC 100500Z 09002KT 15SM BKN055 BKN100 OVC140 08/06 A2972 RMK SC5AC2AS1 SLP081

CYYC;2008-06-10 06:00;CYYC 100600Z 05007KT 15SM FEW015 BKN055 08/07 A2972 RMK SC1SC7 SLP080

CYYC;2008-06-10 07:00;CYYC 100700Z 05006KT 15SM FEW030 OVC050 07/07 A2972 RMK SC2SC6 SLP078

CYYC;2008-06-10 08:00;CYYC 100800Z 04005KT 5SM BR BKN030 OVC050 07/07 A2971 RMK ST6SC2 SLP076

CYYC;2008-06-10 09:00;CYYC 100900Z 05007KT 2 1/2SM -SHRA BKN007 OVC030 07/07 A2970 RMK ST6SC2 SLP072

CYYC;2008-06-10 10:00;CYYC 101000Z 07009KT 3SM -SHRA BKN007 OVC030 07/07 A2969 RMK ST6SC2 SLP069

CYYC;2008-06-10 11:00;CYYC 101100Z 06008KT 3SM -RA BKN003 OVC030 07/07 A2969 RMK ST6SC2 SLP069

CYYC;2008-06-10 12:00;CYYC 101200Z 07010KT 8SM BKN015 OVC030 07/07 A2970 RMK SC6SC2 SLP076

CYYC;2008-06-10 12:33;CYYC 101233Z 07010KT 6SM -RA BKN015 OVC030 07/ RMK SC6SC2

CYYC;2008-06-10 12:48;CYYC 101248Z 07008KT 2 1/2SM -RA SCT015 OVC032 07/ RMK SC3SC5

CYYC;2008-06-10 13:00;CYYC 101300Z 07008KT 5SM -RA SCT015 OVC033 07/07 A2971 RMK SC2SC6 SLP079

CYYC;2008-06-10 13:41;CYYC 101341Z 07008KT 5SM -RA OVC010 07/ RMK SC8

CYYC;2008-06-10 14:00;CYYC 101400Z 05006KT 5SM -RA BKN007 OVC020 07/07 A2973 RMK SC6SC2 SLP084

CYYC;2008-06-10 14:10;CYYC 101410Z 06007KT 5SM -RA BKN007 OVC020 07/ RMK SC4SC4

CYYC;2008-06-10 15:00;CYYC 101500Z 05006KT 6SM -RA BR BKN008 OVC020 07/07 A2974 RMK SC4SC4 SLP090

CYYC;2008-06-10 16:00;CYYC 101600Z 33006KT 8SM -RA FEW009 FEW012 OVC021 07/07 A2974 RMK SF1SC1SC6 PCPN VRY LGT SLP092

CYYC;2008-06-10 17:00;CYYC 101700Z 35005KT 7SM -RA FEW007 BKN010 OVC018 08/07 A2973 RMK SC2SC5SC1 SLP089

CYYC;2008-06-10 18:00;CYYC 101800Z 04006KT 8SM -RA FEW008 BKN012 OVC026 08/07 A2976 RMK SF2SC5SC2 PCPN VRY LGT SLP099

CYYC;2008-06-10 18:45;CYYC 101845Z 04006KT 4SM -RA BR FEW006 BKN008 OVC019 08/ RMK SF2SC6SC1 VIS W 2 1/2

CYYC;2008-06-10 19:00;CYYC 101900Z 03009KT 2 1/2SM -RA BR FEW006 BKN012 OVC022 08/08 A2978 RMK SF2SC4SC2 VIS S 4 + W 1 1/2 SLP104

CYYC;2008-06-10 19:18;CYYC 101918Z CCA 35013KT 3SM -RA BR FEW007 BKN016 OVC021 07/ RMK SC2SC4SC2

CYYC;2008-06-10 20:00;CYYC 102000Z 33011KT 15SM -RA FEW012 OVC017 08/07 A2977 RMK SC2SC6 SLP103

CYYC;2008-06-10 20:46;CYYC 102046Z 33011KT 20SM BKN023 BKN040 BKN072 11/ RMK SC5SC1AC1

CYYC;2008-06-10 21:00;CYYC 102100Z 35010KT 20SM FEW017 OVC028 10/07 A2978 RMK SC2SC5 SLP103

CYYC;2008-06-10 22:00;CYYC 102200Z 36010KT 20SM BKN020 OVC040 10/08 A2980 RMK SC6SC2 SLP109

CYYC;2008-06-10 23:00;CYYC 102300Z 36015KT 20SM -RA FEW016 OVC032 10/08 A2981 RMK SC2SC6 SLP112

CYYC;2008-06-11 00:00;CYYC 110000Z 36012KT 15SM -RA FEW012 FEW018 OVC038 09/08 A2981 RERA RMK SF1CU1SC7 SLP118

CYYC;2008-06-11 00:27;CYYC 110027Z 01015KT 15SM -RA BKN013 OVC043 09/ RMK SC6SC2 PCPN VRY LGT

CYYC;2008-06-11 00:51;CYYC 110051Z 36013G19KT 15SM -RA SCT015 BKN027 OVC039 09/ RMK SC3SC2SC2

CYYC;2008-06-11 01:00;CYYC 110100Z 36014KT 12SM -RA BKN012 OVC020 09/08 A2983 RMK SC6SC2 SLP123

CYYC;2008-06-11 02:00;CYYC 110200Z 34016G22KT 10SM -RA BKN012 OVC020 08/07 A2984 RMK SC6SC2 SLP125

CYYC;2008-06-11 03:00;CYYC 110300Z 33013KT 4SM RA BKN012 OVC022 07/07 A2985 RMK SC6SC2 SLP133

CYYC;2008-06-11 04:00;CYYC 110400Z 02011G16KT 4SM -RA BKN011 OVC035 08/08 A2988 RERA RMK SC6SC2 SLP143

CYYC;2008-06-11 04:31;CYYC 110431Z 01014KT 8SM -RA OVC007 08/ RMK SC8

CYYC;2008-06-11 05:00;CYYC 110500Z 02012KT 6SM -RA BKN009 BKN014 OVC020 08/08 A2989 RMK SC5SC2SC2 SLP145

CYYC;2008-06-11 05:37;CYYC 110537Z 01012KT 8SM -RA FEW004 BKN006 OVC010 08/ RMK SF2SC6SC1

CYYC;2008-06-11 06:00;CYYC 110600Z 02011G18KT 4SM -RA FEW004 BKN008 OVC028 08/08 A2989 RMK SF1SC6SC2 /R14/ SLP146

CYYC;2008-06-11 07:00;CYYC 110700Z 01011KT 7SM RA BKN009 OVC035 08/07 A2989 RMK SC6SC2 SLP145

CYYC;2008-06-11 08:00;CYYC 110800Z 02013G18KT 7SM -RA OVC006 08/07 A2989 RERA RMK SC8 SLP145

CYYC;2008-06-11 09:00;CYYC 110900Z 01012G20KT 4SM RA BKN008 OVC028 08/07 A2989 RMK SC6SC2 SLP141

CYYC;2008-06-11 10:00;CYYC 111000Z 36020KT 7SM -RA BKN009 OVC020 08/07 A2989 RERA RMK SC6SC2 SLP141

CYYC;2008-06-11 11:00;CYYC 111100Z CCA 01013G18KT 15SM -RA BKN008 OVC015 08/07 A2989 RMK SC6SC2 SLP142

CYYC;2008-06-11 12:00;CYYC 111200Z 36015G20KT 7SM -RA BKN008 OVC020 08/08 A2990 RMK SC7SC1 SLP147

CYYC;2008-06-11 13:00;CYYC 111300Z 03016G22KT 2SM RA BR BKN008 OVC016 08/08 A2991 RMK SC6SC2 SLP149

CYYC;2008-06-11 13:54;CYYC 111354Z 01013KT 15SM -RA FEW007 BKN015 OVC037 08/ RERA RMK SC2SC2SC3 BR

CYYC;2008-06-11 14:00;CYYC 111400Z 01012G17KT 15SM -RA FEW007 SCT015 OVC037 08/07 A2991 RERA RMK SC1SC3SC4 BR SLP151

CYYC;2008-06-11 14:29;CYYC 111429Z 36013G18KT 3SM RA BR FEW008 BKN014 OVC037 08/ RMK SC1SC5SC2

CYYC;2008-06-11 14:44;CYYC 111444Z 02013KT 2 1/2SM RA BR SCT006 BKN013 OVC030 08/ RMK SC3SC4SC1

CYYC;2008-06-11 15:00;CYYC 111500Z 02012KT 6SM RA BR BKN005 BKN013 OVC020 08/08 A2992 RMK SC5SC2SC1 SLP155

CYYC;2008-06-11 15:14;CYYC 111514Z 02014KT 12SM -RA SCT005 OVC028 08/ RERA RMK SC4SC4 BR

CYYC;2008-06-11 16:00;CYYC 111600Z 36013G18KT 15SM -RA SCT008 OVC032 09/08 A2992 RERA RMK SC3SC5 BR SLP157

CYYC;2008-06-11 17:00;CYYC 111700Z 35018KT 15SM FEW010 BKN035 OVC046 10/08 A2993 RMK SC2SC3SC3 SLP160

CYYC;2008-06-11 17:27;CYYC 111727Z 36017G22KT 12SM -RA SCT011 OVC030 09/ RMK SC3SC5

CYYC;2008-06-11 18:00;CYYC 111800Z 36015G20KT 20SM -RA FEW011 SCT021 BKN030 OVC065 10/08 A2994 RMK CF1SC2SC3SC2 PCPN VRY LGT/INTMT SLP159

CYYC;2008-06-11 19:00;CYYC 111900Z 36019G24KT 20SM -RA FEW015 BKN020 OVC046 10/08 A2995 RMK CF2SC4SC2 PCPN VRY LGT/INTMT SLP162

CYYC;2008-06-11 20:00;CYYC 112000Z 04016KT 20SM -RA FEW009 BKN020 BKN060 OVC090 10/04 A2996 RMK SC1SC4SC2AC2 PCPN VRY LGT/INTMT/CU ASOCTD SLP166

CYYC;2008-06-11 21:00;CYYC 112100Z CCA 05015G22KT 25SM FEW020 SCT030 OVC095 11/04 A2999 RMK CU1SC2AC5 INTMT RA SLP175

CYYC;2008-06-11 21:45;CYYC 112145Z 06019G29KT 20SM -SHRA FEW020 BKN032 OVC090 09/ RMK CU2SC3AC3

CYYC;2008-06-11 22:00;CYYC 112200Z 05015G21KT 20SM FEW035 SCT060 OVC090 09/03 A3001 RMK SC2SC2AS3 SLP181

CYYC;2008-06-11 23:00;CYYC 112300Z 01009KT 25SM FEW030 FEW058 FEW080 OVC100 11/03 A3000 RMK CU1SC1AC1AS4 CU TR SLP179

CYYC;2008-06-12 00:00;CYYC 120000Z 35009KT 25SM FEW030 OVC070 11/03 A3001 RMK CU1AS6 CU TR/DIST SH SE-SW SLP183

CYYC;2008-06-12 00:17;CYYC 120017Z 36011KT 20SM -SHRA SCT030 OVC070 10/ RMK SC3AS2 CU ASOCTD

CYYC;2008-06-12 00:36;CYYC 120036Z CCA 36011KT 25SM FEW015 FEW021 BKN040 OVC080 11/ RMK SC1SC2SC3AS1 CU ASOCTD

CYYC;2008-06-12 01:00;CYYC 120100Z 35007KT 30SM FEW039 OVC070 11/04 A3001 RMK SC2AS3 DIST SH S-SW SLP182

CYYC;2008-06-12 02:00;CYYC 120200Z 34008KT 30SM FEW040 BKN140 OVC220 11/05 A3002 RMK CU1AS5CS2 SLP185

CYYC;2008-06-12 03:00;CYYC 120300Z 34005KT 40SM FEW045 BKN140 OVC220 10/04 A3002 RMK CU1AS5CS2 SLP186

CYYC;2008-06-12 04:00;CYYC 120400Z 33006KT 20SM BKN044 OVC070 09/07 A3002 RMK SC6AC2 SLP187

CYYC;2008-06-12 05:00;CYYC 120500Z 35006KT 15SM -RA BKN035 OVC060 07/06 A3003 RMK SC6SC2 SLP190

CYYC;2008-06-12 05:18;CYYC 120518Z 31011G20KT 10SM -TSRA BKN045 OVC055CB 07/ RMK SC5CB3

CYYC;2008-06-12 05:41;CYYC 120541Z 31006KT 4SM +TSRA BKN034 OVC046CB 06/ RMK SC5CB3 LTGCC ALQDS

CYYC;2008-06-12 05:45;CYYC 120545Z CCA 31011KT 4SM TSRAGR BKN023 OVC044CB 05/ RERA RMK SC5CB3 HAIL DIAM 6MM

CYYC;2008-06-12 06:00;CYYC 120600Z 33008KT 12SM -TSRA BKN040 BKN055CB OVC130 07/05 A3002 RERAGR RMK SC5CB2AC1 SLP189

CYYC;2008-06-12 06:34;CYYC 120634Z 31009KT 15SM -SHRA FEW040 OVC130 07/ RETS RMK SC1AC6

CYYC;2008-06-12 06:43;CYYC 120643Z 30010KT 15SM FEW040 OVC130 07/ RETS RMK SC1AS7

CYYC;2008-06-12 07:00;CYYC 120700Z 30009KT 15SM FEW040 OVC150 07/05 A3001 RETS RMK SC1AS7 SLP186

CYYC;2008-06-12 08:00;CYYC 120800Z 33011KT 15SM FEW040 OVC089 07/05 A3000 RMK SC2AC6 SLP182

CYYC;2008-06-12 09:00;CYYC 120900Z 32015G21KT 15SM BKN044 OVC064 07/06 A3000 RMK SC6SC2 SLP180

CYYC;2008-06-12 10:00;CYYC 121000Z 04005KT 15SM BKN027 OVC038 07/06 A3000 RMK SC6SC2 SLP181

CYYC;2008-06-12 11:00;CYYC 121100Z 00000KT 20SM BKN030 OVC061 07/06 A3000 RMK SC7SC1 SLP180

CYYC;2008-06-12 12:00;CYYC 121200Z 30004KT 30SM FEW045TCU SCT060 BKN180 06/05 A2999 RMK TCU2SC2AC2 SLP178

CYYC;2008-06-12 13:00;CYYC 121300Z 31003KT 20SM FEW040 FEW060 BKN120 BKN240 08/06 A2998 RMK SC1CU1AC3CC0 SLP175

CYYC;2008-06-12 14:00;CYYC 121400Z 31014G19KT 40SM FEW040 SCT120 BKN180 BKN230 09/06 A2998 RMK SC1AC3AC2CI1 SLP175

CYYC;2008-06-12 15:00;CYYC 121500Z 32015G20KT 40SM FEW040 BKN120 BKN230 11/06 A2998 RMK SC1AC3CI1 TCU ASOCTD SLP170

CYYC;2008-06-12 16:00;CYYC 121600Z 32020KT 40SM FEW040 FEW050 FEW120 SCT260 13/07 A2997 RMK SC1CU1AC1CI0 SLP167

CYYC;2008-06-12 17:00;CYYC 121700Z 33018KT 40SM FEW050 FEW120 FEW260 14/07 A2996 RMK CU1AC1CI1 SLP162

CYYC;2008-06-12 18:00;CYYC 121800Z 34016G22KT 40SM FEW040 FEW120 FEW260 15/06 A2995 RMK CU1AC1CI1 SLP158

CYYC;2008-06-12 19:00;CYYC 121900Z 34014G20KT 40SM FEW046 FEW090 16/06 A2994 RMK CU2AC1 SLP154

CYYC;2008-06-12 20:00;CYYC 122000Z 34016G22KT 40SM SCT046 SCT090 17/06 A2992 RMK CU3AC1 SLP149

CYYC;2008-06-12 21:00;CYYC 122100Z 34011G19KT 40SM FEW061 FEW090 FEW260 18/06 A2991 RMK CU2AC1CI1 SLP141

CYYC;2008-06-12 22:00;CYYC 122200Z CCA 35015KT 40SM SCT056TCU SCT260 17/07 A2990 RMK TCU3CI1 SH S-SW + NW SLP138

CYYC;2008-06-12 22:29;CYYC 122229Z 30027G35KT 40SM -TSRA BKN056CB BKN260 14/ RMK CB6CI1

CYYC;2008-06-12 23:00;CYYC 122300Z 35017G22KT 40SM VCSH BKN056CB BKN090 13/06 A2993 RETS RMK CB5AC1 TS SE / SH NE-SE SLP146

CYYC;2008-06-13 00:00;CYYC 130000Z 33011KT 40SM FEW056CB FEW120 FEW230 18/06 A2990 RMK CB1AC1CI1 CB + SH E-SE + NW SLP137

CYYC;2008-06-13 01:00;CYYC 130100Z 34008G15KT 40SM VCSH FEW061CB BKN120 BKN230 17/06 A2989 RMK CB2AC2CI1 SH E OVR AD SLP135

CYYC;2008-06-13 02:00;CYYC 130200Z 36006KT 40SM FEW060 BKN120 BKN250 15/06 A2988 RMK CU1AC1CI1 SLP131

CYYC;2008-06-13 03:00;CYYC 130300Z 19002KT 30SM FEW060 BKN140 BKN250 15/06 A2988 RMK CU1AC1CI1 SLP126

CYYC;2008-06-13 04:00;CYYC 130400Z 00000KT 20SM FEW060 BKN110 BKN240 13/05 A2988 RMK CU1AC2CI1 SLP127

CYYC;2008-06-13 05:00;CYYC 130500Z 11003KT 15SM BKN110 BKN240 11/06 A2988 RMK AC2CI1 SLP126

CYYC;2008-06-13 06:00;CYYC 130600Z 14003KT 15SM BKN110 12/06 A2986 RMK AC4 SLP121

CYYC;2008-06-13 07:00;CYYC 130700Z 22003KT 15SM BKN140 10/06 A2984 RMK AC2 SLP114

CYYC;2008-06-13 08:00;CYYC 130800Z 19003KT 15SM BKN098 10/06 A2982 RMK AC3 SLP108

CYYC;2008-06-13 09:00;CYYC 130900Z 24004KT 15SM BKN100 10/05 A2982 RMK AC5 SLP105

CYYC;2008-06-13 10:00;CYYC 131000Z 27007KT 15SM BKN130 13/03 A2982 RMK AC6 SLP104

CYYC;2008-06-13 11:00;CYYC 131100Z 27010KT 20SM OVC130 13/03 A2982 RMK AC6 SLP103

CYYC;2008-06-13 12:00;CYYC 131200Z 31008KT 40SM FEW064 BKN074 OVC130 14/04 A2982 RMK SC2AC3AC2 SLP097

CYYC;2008-06-13 13:00;CYYC 131300Z 31007KT 30SM BKN057 OVC068 13/05 A2983 RMK SC6AC2 VIRGA E SLP101

CYYC;2008-06-13 13:47;CYYC 131347Z 29009KT 40SM -SHRA SCT050 OVC080 14/ RMK SC4AC3

CYYC;2008-06-13 14:00;CYYC 131400Z 31005KT 40SM SCT071 OVC080 14/06 A2983 RMK AC4AC3 SLP102

CYYC;2008-06-13 15:00;CYYC 131500Z 32007KT 40SM FEW050 FEW070 SCT170 BKN220 15/06 A2983 RMK CU1AC2AC2CI2 SLP103

CYYC;2008-06-13 16:00;CYYC 131600Z 36009KT 40SM FEW050 FEW070 FEW180 SCT200 16/07 A2984 RMK CU1AC1AC1CI1 SLP105

CYYC;2008-06-13 17:00;CYYC 131700Z 34007KT 40SM FEW055 FEW180 FEW210 17/06 A2983 RMK CU1AC1CI1 TCU + SH S-SW SLP104

CYYC;2008-06-13 18:00;CYYC 131800Z 36007KT 40SM FEW055 BKN088 BKN220 17/07 A2982 RMK CU1ACC4CI1 SH S SLP102

CYYC;2008-06-13 18:45;CYYC 131845Z 36007KT 40SM TS FEW058 SCT075CB BKN220 17/ RMK CU2CB2CI1 SH SE

CYYC;2008-06-13 19:00;CYYC 131900Z 09004KT 40SM TS SCT060CB BKN091 BKN210 17/07 A2980 RMK CB4AC2CI1 SH SE / LTGCG SE SLP095

CYYC;2008-06-13 19:04;CYYC 131904Z 16006KT 40SM -TSRA SCT065CB BKN091 BKN210 17/ RMK CB4AC2CI1 SH SE

CYYC;2008-06-13 19:14;CYYC 131914Z 16012KT 40SM -TSRAGS BKN055CB BKN091 BKN210 17/ RMK CB5AC2CI1

CYYC;2008-06-13 19:34;CYYC 131934Z 14009KT 40SM TS SCT055CB BKN100 BKN210 15/ RMK CB4AC2CI1 TS E / CB ALQDS

CYYC;2008-06-13 20:00;CYYC 132000Z 09009KT 40SM SCT055CB SCT220 17/08 A2979 RETS RMK CB4CI1 TS E / CB + SH ALQDS SLP092

CYYC;2008-06-13 20:20;CYYC 132020Z 13007KT 30SM TS SCT060CB BKN083 BKN220 17/ RMK CB3AC2CI1 TS S-SW / CB + SH ALQDS

CYYC;2008-06-13 21:00;CYYC 132100Z 19010G17KT 30SM -TSRA BKN057CB BKN075 BKN096 15/08 A2978 RMK CB6AC1AC1 TS S / VIS S 6 SLP093

CYYC;2008-06-13 21:17;CYYC 132117Z 17008G15KT 30SM TS SCT058CB BKN080 BKN096 BKN220 14/ RMK CB3AC2AC1CI1 TS SE + NE / SH N-NE + SE

CYYC;2008-06-13 21:48;CYYC 132148Z 14011KT 30SM SCT058CB SCT080 BKN240 18/ RETS RMK CB3AC1CI1 TS NE-SE / SH NE-SE + SW / LTGCG NE

CYYC;2008-06-13 22:00;CYYC 132200Z 09013KT 40SM SCT080CB BKN100 BKN240 15/09 A2979 RETS RMK CB4AC2CI1 TS E / SH N + E SLP095

CYYC;2008-06-13 22:22;CYYC 132222Z 10007KT 40SM -SHRA BKN080CB BKN100 BKN240 15/ RMK CB5AC1CI1 LTGCG SE / TS E

CYYC;2008-06-13 22:33;CYYC 132233Z 08006KT 40SM -SHRAGS BKN060CB BKN100 BKN240 15/ RMK CB6AC1CI1 TS E

CYYC;2008-06-13 22:41;CYYC 132241Z 07010KT 40SM VCSH SCT060CB SCT095 15/ RMK CB3AC1 CB + SH N-NE-SE

CYYC;2008-06-13 23:00;CYYC 132300Z 06008KT 40SM SCT058TCU SCT083 16/10 A2979 RMK TCU3AC1 CB + SH N-NE-E SLP095

CYYC;2008-06-14 00:00;CYYC 140000Z 36023KT 40SM -SHRA FEW017 BKN046CB BKN086 12/10 A2984 RMK SC2CB6AC1 SLP111

CYYC;2008-06-14 00:17;CYYC 140017Z 32022G27KT 30SM -TSRA FEW028 BKN048CB BKN063 11/ RMK SC2CB6SC1

CYYC;2008-06-14 00:49;CYYC 140049Z CCA 35022G27KT 30SM FEW015 SCT048CB SCT150 11/ RETS RMK SC2CB2AC1 TS E

CYYC;2008-06-14 01:00;CYYC 140100Z 35019G27KT 40SM FEW018 SCT048CB SCT090 11/09 A2985 RETS RMK SC2CB2AC1 TS E SLP117

CYYC;2008-06-14 02:00;CYYC 140200Z 36021KT 20SM -SHRA SCT025 BKN044CB BKN090 10/07 A2988 RMK SC3CB2AC1 SLP124

CYYC;2008-06-14 02:37;CYYC 140237Z 36016KT 20SM FEW030 SCT062CB BKN074 09/ RMK SC2CB1AC2 VIRGA SW

CYYC;2008-06-14 03:00;CYYC 140300Z 36019G24KT 20SM FEW019 SCT035 BKN050CB BKN090 09/07 A2988 RMK SC2SC2CB2AC1 VIRGA E+SW SLP131

CYYC;2008-06-14 04:00;CYYC 140400Z 33006KT 20SM FEW040 SCT060CB BKN110 08/06 A2991 RMK SC2CB1AC2 SLP140

CYYC;2008-06-14 05:00;CYYC 140500Z 29003KT 15SM FEW045 SCT110 07/05 A2990 RMK SC1AC2 SLP137

CYYC;2008-06-14 06:00;CYYC 140600Z 27006KT 15SM FEW065 FEW120 07/05 A2990 RMK SC1AC2 SLP136

CYYC;2008-06-14 07:00;CYYC 140700Z 25007KT 15SM FEW090 SCT170 07/05 A2991 RMK AC2AC1 SLP139

CYYC;2008-06-14 08:00;CYYC 140800Z 31006KT 15SM BKN056 OVC110 08/05 A2992 RMK SC7AC1 SLP142

CYYC;2008-06-14 09:00;CYYC 140900Z 29006KT 15SM BKN054 OVC090 08/05 A2994 RMK SC6AC2 SH SW SLP152

CYYC;2008-06-14 09:27;CYYC 140927Z 22005KT 12SM -SHRA SCT036 OVC054 07/ RMK SC3SC5 TCU EMBD

CYYC;2008-06-14 10:00;CYYC 141000Z 00000KT 15SM -SHRA FEW050 BKN099 OVC120 07/06 A2993 RMK SC2AC5AC1 SHRA VRY LGT SLP150

CYYC;2008-06-14 10:08;CYYC 141008Z 29002KT 15SM SCT052 OVC110 07/ RMK SC4AC3

CYYC;2008-06-14 11:00;CYYC 141100Z 31007KT 15SM OVC050 06/05 A2996 RMK SC8 SLP159

CYYC;2008-06-14 12:00;CYYC 141200Z 32007KT 20SM BKN038 OVC060 06/04 A2997 RMK SC6SC2 SLP169

CYYC;2008-06-14 13:00;CYYC 141300Z 30009KT 40SM BKN059 07/04 A2999 RMK SC7 SLP175

CYYC;2008-06-14 14:00;CYYC 141400Z 34009KT 40SM FEW042 FEW059 BKN069 09/04 A3001 RMK CU1SC1AC6 VIRGA SW SLP180

CYYC;2008-06-14 15:00;CYYC 141500Z 33013KT 40SM FEW018 FEW040 BKN056 09/03 A3001 RMK SF1CU1SC6 SLP185

CYYC;2008-06-14 16:00;CYYC 141600Z 36011G16KT 40SM FEW026 FEW045 FEW056 BKN072 10/04 A3002 RMK CU1CU1SC1AC3 SLP187

CYYC;2008-06-14 17:00;CYYC 141700Z 34010KT 40SM SCT032 SCT058 11/04 A3003 RMK CU3SC1 SLP190

CYYC;2008-06-14 18:00;CYYC 141800Z 36012KT 40SM SCT037 SCT070 12/04 A3003 RMK CU3AC1 TCU NW SLP191

CYYC;2008-06-14 19:00;CYYC 141900Z 01009G15KT 40SM SCT046 BKN074 13/05 A3003 RMK CU4AC1 TCU NW SLP191

CYYC;2008-06-14 20:00;CYYC 142000Z 03012KT 40SM FEW056 FEW093 13/04 A3004 RMK CU2AC1 TCU NW-NE / SH NE SLP192

CYYC;2008-06-14 21:00;CYYC 142100Z 01010KT 40SM SCT048 SCT093 13/05 A3005 RMK CU4AC1 TCU NW SLP193

CYYC;2008-06-14 22:00;CYYC 142200Z 05006KT 40SM FEW043CB BKN059 13/05 A3005 RMK CB1CU4 CB CVCTNG RPDLY SW SLP193

CYYC;2008-06-14 23:00;CYYC 142300Z 11003KT 40SM SCT048 SCT100 14/05 A3005 RMK CU4AC1 TCU SW-W SLP193

CYYC;2008-06-15 00:00;CYYC 150000Z 35004KT 40SM SCT060 BKN100 13/04 A3004 RMK CU3AC1 CB S + W / DIST CB BND N-NEE SLP191

CYYC;2008-06-15 01:00;CYYC 150100Z 10004KT 40SM BKN067 14/04 A3004 RMK CU5 CB S / DIST CB BND N-E SLP191

CYYC;2008-06-15 02:00;CYYC 150200Z 06007KT 30SM FEW050 BKN090 13/05 A3005 RMK CU2AC1 SLP193

CYYC;2008-06-15 03:00;CYYC 150300Z 06006KT 30SM FEW055 FEW090 12/05 A3006 RMK CU1AC1 SLP195

CYYC;2008-06-15 04:00;CYYC 150400Z 06004KT 20SM FEW055 FEW090 10/04 A3007 RMK CU1AC1 SLP200

CYYC;2008-06-15 05:00;CYYC 150500Z 08003KT 15SM FEW080 10/03 A3008 RMK AC1 AC TR SLP203

CYYC;2008-06-15 06:00;CYYC 150600Z 00000KT 15SM FEW080 09/05 A3008 RMK AC1 AC TR SLP206

CYYC;2008-06-15 07:00;CYYC 150700Z 32002KT 15SM SKC 07/05 A3008 RMK SLP206

CYYC;2008-06-15 08:00;CYYC 150800Z 21004KT 15SM SKC 07/04 A3008 RMK SLP205

CYYC;2008-06-15 09:00;CYYC 150900Z CCA 25002KT 15SM SKC 06/04 A3008 RMK SLP208

CYYC;2008-06-15 10:00;CYYC 151000Z 00000KT 15SM SKC 05/03 A3007 RMK SLP206

CYYC;2008-06-15 11:00;CYYC 151100Z 19002KT 20SM FEW050 FEW090 04/03 A3007 RMK SC1AC1 AC TR SLP205

CYYC;2008-06-15 12:00;CYYC 151200Z 33006KT 40SM FEW050 FEW060 FEW090 06/03 A3008 RMK SC1CU1AC1 AC TR SLP208

CYYC;2008-06-15 13:00;CYYC 151300Z 33012KT 40SM FEW050 FEW060 FEW100 06/04 A3010 RMK SC1CU1AC1 AC TR SLP214

CYYC;2008-06-15 14:00;CYYC 151400Z 35012KT 40SM FEW012 FEW070 FEW100 08/05 A3012 RMK CU1AC1AC1 CU TR SLP218

CYYC;2008-06-15 15:00;CYYC 151500Z 36010G15KT 40SM FEW016 FEW050 FEW100 10/06 A3012 RMK CU1SC1AC1 CU TR SLP216

CYYC;2008-06-15 16:00;CYYC 151600Z 05006KT 40SM SCT020 11/06 A3012 RMK CU3 SLP217

CYYC;2008-06-15 17:00;CYYC 151700Z 01004KT 40SM BKN022 12/06 A3011 RMK CU6 SLP214

CYYC;2008-06-15 18:00;CYYC 151800Z 09003KT 40SM SCT024 13/06 A3011 RMK CU4 SLP212

CYYC;2008-06-15 19:00;CYYC 151900Z 10004KT 40SM FEW030 13/04 A3009 RMK CU2 SLP208

CYYC;2008-06-15 20:00;CYYC 152000Z 00000KT 40SM SCT040 15/05 A3008 RMK CU4 SLP205

CYYC;2008-06-15 21:00;CYYC 152100Z 16002KT 40SM FEW040 15/05 A3007 RMK CU2 SLP202

CYYC;2008-06-15 22:00;CYYC 152200Z 09007KT 40SM SCT052 16/04 A3006 RMK CU3 SLP199

CYYC;2008-06-15 23:00;CYYC 152300Z 13009KT 40SM SCT050 SCT060 16/05 A3006 RMK CU3SC1 SLP197

CYYC;2008-06-16 00:00;CYYC 160000Z 14007KT 40SM SCT050 SCT062 17/05 A3005 RMK CU3SC1 DIST SH S-W SLP190

CYYC;2008-06-16 01:00;CYYC 160100Z 11004KT 40SM FEW045TCU 17/05 A3004 RMK TCU1 SLP188

CYYC;2008-06-16 02:00;CYYC 160200Z 13009KT 40SM FEW060TCU 16/05 A3004 RMK TCU1 SLP189

CYYC;2008-06-16 03:00;CYYC 160300Z 10008KT 40SM FEW060TCU 15/06 A3005 RMK TCU1 SLP186

CYYC;2008-06-16 04:00;CYYC 160400Z 10008KT 40SM FEW080 14/06 A3005 RMK AC1 SLP187

CYYC;2008-06-16 05:00;CYYC 160500Z 09006KT 15SM FEW080 13/05 A3005 RMK AC1 SLP188

CYYC;2008-06-16 06:00;CYYC 160600Z 12007KT 15SM SKC 11/06 A3005 RMK SLP187

CYYC;2008-06-16 07:00;CYYC 160700Z 14006KT 15SM SKC 10/06 A3004 RMK SLP186

CYYC;2008-06-16 08:00;CYYC 160800Z 15004KT 15SM SKC 09/06 A3003 RMK SLP183

CYYC;2008-06-16 09:00;CYYC 160900Z 20006KT 15SM SKC 09/07 A3003 RMK SLP181

CYYC;2008-06-16 10:00;CYYC 161000Z 18005KT 15SM SKC 09/07 A3002 RMK SLP178

CYYC;2008-06-16 11:00;CYYC 161100Z 22004KT 40SM SKC 07/05 A3001 RMK SLP177

CYYC;2008-06-16 12:00;CYYC 161200Z 22004KT 40SM FEW090 07/05 A3002 RMK AC1 SLP178

CYYC;2008-06-16 13:00;CYYC 161300Z 00000KT 40SM FEW090 08/06 A3001 RMK AC1 SLP176

CYYC;2008-06-16 14:00;CYYC 161400Z 23002KT 40SM FEW090 12/06 A3001 RMK AC1 SLP177

CYYC;2008-06-16 15:00;CYYC 161500Z 00000KT 40SM FEW100 16/06 A3000 RMK AC1 SLP163

CYYC;2008-06-16 16:00;CYYC 161600Z 15002KT 40SM FEW065 FEW100 18/01 A3000 RMK CU1AC2 SLP163

CYYC;2008-06-16 17:00;CYYC 161700Z 15005KT 40SM FEW070 SCT120 20/02 A3000 RMK CU1AC3 SLP161

CYYC;2008-06-16 18:00;CYYC 161800Z 14002KT 40SM FEW082 SCT130 20/02 A2999 RMK CU1AC3 SLP159

CYYC;2008-06-16 19:00;CYYC 161900Z 13004KT 40SM FEW083 FEW098 BKN130 20/01 A2998 RMK CU1AC1AC3 SLP156

CYYC;2008-06-16 20:00;CYYC 162000Z 13008KT 40SM FEW083 FEW098 SCT130 SCT200 21/03 A2997 RMK CU1AC1AC2CI1 SLP153

CYYC;2008-06-16 21:00;CYYC 162100Z 15008KT 40SM FEW090 FEW100 SCT130 21/02 A2996 RMK CU2AC1AC2 CB NW + NNE / SH NNE SLP150

CYYC;2008-06-16 22:00;CYYC 162200Z 15011KT 40SM FEW088 FEW100 FEW130 21/01 A2995 RMK CU1AC1AC1 CB NW + NE / SH NE SLP147

CYYC;2008-06-16 23:00;CYYC 162300Z 17009G15KT 40SM FEW090 FEW130 22/02 A2995 RMK CU1AC1 CB+ SH NW-NE SLP145

CYYC;2008-06-17 00:00;CYYC 170000Z 16008KT 40SM FEW090 FEW130 23/02 A2993 RMK CU1AC1 VIRGA NW / DIST CB N SLP141

CYYC;2008-06-17 01:00;CYYC 170100Z 17014KT 40SM FEW096 FEW130 22/03 A2993 RMK CU1AC1 TCU + SH N SLP140

CYYC;2008-06-17 02:00;CYYC 170200Z CCA 17010G15KT 40SM FEW096 FEW130 21/03 A2993 RMK CU1AC1 CB + SH NE SLP140

CYYC;2008-06-17 03:00;CYYC 170300Z 15007KT 30SM FEW120 19/04 A2993 RMK AC1 CB + SH NE SLP132

CYYC;2008-06-17 04:00;CYYC 170400Z 14006KT 40SM FEW120 17/05 A2993 RMK AC1 SLP133

CYYC;2008-06-17 05:00;CYYC 170500Z 14007KT 15SM FEW060 FEW120 16/06 A2994 RMK SC1AC1 SLP135

CYYC;2008-06-17 06:00;CYYC 170600Z 14003KT 15SM FEW060 FEW120 16/05 A2994 RMK SC1AC1 SLP135

CYYC;2008-06-17 07:00;CYYC 170700Z 13005KT 15SM FEW060 FEW120 16/06 A2993 RMK SC1AC1 SLP133

CYYC;2008-06-17 08:00;CYYC 170800Z 00000KT 15SM SKC 15/07 A2993 RMK SLP132

CYYC;2008-06-17 09:00;CYYC 170900Z 35003KT 15SM FEW050 14/07 A2993 RMK SC1 SLP130

CYYC;2008-06-17 10:00;CYYC 171000Z 33004KT 15SM FEW050 13/07 A2992 RMK SC1 SLP129

CYYC;2008-06-17 11:00;CYYC 171100Z 14002KT 15SM FEW060 12/07 A2992 RMK SC1 SLP129

CYYC;2008-06-17 12:00;CYYC 171200Z 00000KT 40SM FEW090 BKN250 09/04 A2993 RMK AC1CC1 AC TR SLP137

CYYC;2008-06-17 13:00;CYYC 171300Z 18002KT 40SM BKN250 11/02 A2993 RMK CC1 SLP136

CYYC;2008-06-17 14:00;CYYC 171400Z 19003KT 40SM FEW190 BKN220 BKN250 14/05 A2992 RMK AC1CC1CI1 ACSL W SLP134

CYYC;2008-06-17 15:00;CYYC 171500Z 22005KT 40SM FEW040 SCT220 17/05 A2992 RMK CU1CI1 SLP127

CYYC;2008-06-17 16:00;CYYC 171600Z 20005KT 40SM FEW048 FEW220 19/08 A2991 RMK CU1CI1 SLP125

CYYC;2008-06-17 17:00;CYYC 171700Z 18004KT 40SM FEW070 FEW220 21/03 A2990 RMK CU1CI1 SLP122

CYYC;2008-06-17 18:00;CYYC 171800Z CCA 17004KT 40SM FEW080 FEW180 FEW220 23/03 A2988 RMK CU1AC1CI1 ACSL S SLP111

CYYC;2008-06-17 19:00;CYYC 171900Z 18004KT 40SM FEW080 FEW180 FEW220 23/04 A2987 RMK CU1AC1CI0 ACSL SE SLP107

CYYC;2008-06-17 20:00;CYYC 172000Z 18012G17KT 40SM FEW080 FEW180 FEW220 23/03 A2985 RMK CU1AC1CI1 ACSL SE SLP102

CYYC;2008-06-17 21:00;CYYC 172100Z 15011KT 40SM FEW110 FEW140 FEW180 SCT250 24/01 A2984 RMK CU2AC1AC1CI0 ACSL NE-SE SLP094

CYYC;2008-06-17 22:00;CYYC 172200Z 19005KT 40SM SCT130 SCT180 BKN220 23/M01 A2982 RMK CU3AC1CI0 SCT SH SWW-NW SLP089

CYYC;2008-06-17 23:00;CYYC 172300Z 30010KT 40SM FEW095TCU BKN120 24/M02 A2982 RMK TCU2AC6 CB SW / SH SW-NW-NE SLP090

CYYC;2008-06-18 00:00;CYYC 180000Z 29011G16KT 40SM FEW088TCU BKN120 22/00 A2984 RMK TCU1AC6 CB NE + SW / SCT SH SW-NW-NE-E SLP104

CYYC;2008-06-18 01:00;CYYC 180100Z 31019G30KT 40SM SCT100CB SCT120 21/03 A2988 RMK CB3AC1 LTGCG E / SH SW-NW-NE-E SLP117

CYYC;2008-06-18 02:00;CYYC 180200Z 34013G20KT 30SM SCT080CB SCT140 17/03 A2991 RMK CB3AC1 SLP128

CYYC;2008-06-18 03:00;CYYC 180300Z 30012G17KT 30SM SCT080CB BKN110 18/03 A2993 RMK CB3AC2 SH NW SLP134

CYYC;2008-06-18 04:00;CYYC 180400Z 29013G20KT 20SM FEW080CB BKN110 17/02 A2996 RMK CB2AC4 VIRGA NE SLP143

CYYC;2008-06-18 04:11;CYYC 180411Z 28015KT 15SM TS SCT080CB BKN110 18/ RMK CB4AC2 LTGCG NE-E/ VIRGA NE

CYYC;2008-06-18 04:53;CYYC 180453Z 01014G21KT 15SM FEW080CB SCT120 12/ RETS RMK CB2AC2 CB SE

CYYC;2008-06-18 05:00;CYYC 180500Z 36014KT 15SM FEW080CB FEW120 12/09 A3004 RETS RMK CB1AC2 CB SE SLP165

CYYC;2008-06-18 06:00;CYYC 180600Z 34011KT 15SM FEW120 11/08 A3006 RMK AC1 SLP178

CYYC;2008-06-18 07:00;CYYC 180700Z 35010KT 15SM FEW120 11/09 A3006 RMK AC1 AC TR SLP179

CYYC;2008-06-18 08:00;CYYC 180800Z 28005KT 15SM BKN110 10/09 A3006 RMK AC6 SLP179

CYYC;2008-06-18 09:00;CYYC 180900Z 22006KT 15SM OVC120 11/09 A3007 RMK AC7 SLP181

CYYC;2008-06-18 10:00;CYYC 181000Z 23004KT 15SM BKN120 BKN230 10/08 A3008 RMK AC4CI1 SLP183

CYYC;2008-06-18 11:00;CYYC 181100Z 28002KT 15SM BKN100 10/08 A3007 RMK AC6 SLP182

CYYC;2008-06-18 12:00;CYYC 181200Z 20003KT 30SM FEW087 BKN110 09/08 A3008 RMK AC2AC4 SLP188

CYYC;2008-06-18 13:00;CYYC 181300Z 21002KT 30SM FEW090 SCT120 11/09 A3007 RMK AC2AC1 SLP187

CYYC;2008-06-18 14:00;CYYC 181400Z 00000KT 40SM FEW050 FEW120 13/09 A3007 RMK CU1AC1 SLP185

CYYC;2008-06-18 15:00;CYYC 181500Z 18005KT 40SM FEW050 FEW120 SCT300 15/09 A3006 RMK CU1AC1CI0 SLP182

CYYC;2008-06-18 16:00;CYYC 181600Z 16011KT 40SM FEW060 FEW120 FEW300 16/05 A3005 RMK CU1AC1CI0 SLP177

CYYC;2008-06-18 17:00;CYYC 181700Z 17012KT 40SM FEW040 FEW070TCU FEW140 FEW180 BKN260 17/07 A3003 RMK CF1TCU1AC1AC1CI2 ACSL N SLP172

CYYC;2008-06-18 18:00;CYYC 181800Z 15011G17KT 40SM FEW044 FEW070TCU FEW140 BKN260 18/07 A3001 RMK CU1TCU1AC1CS2 ACSL N SLP168

CYYC;2008-06-18 19:00;CYYC 181900Z 13012KT 40SM FEW055 FEW065TCU SCT140 OVC260 19/05 A2999 RMK CU1TCU2AC1CI1 CB + SH NW SLP161

CYYC;2008-06-18 20:00;CYYC 182000Z 17011G19KT 40SM SCT060 OVC240 20/05 A2996 RMK CU4CI1 CB NW-N / SH NW + N SLP152

CYYC;2008-06-18 21:00;CYYC 182100Z 17010G15KT 40SM SCT070 SCT160 BKN240 19/03 A2994 RMK CU3AC1CI1 CB + SH NE SLP142

CYYC;2008-06-18 22:00;CYYC 182200Z 17012G17KT 40SM BKN070 BKN240 19/02 A2992 RMK CU5CI1 CB + SH NW + NE SLP135

CYYC;2008-06-18 23:00;CYYC 182300Z 20007G15KT 40SM BKN076 BKN240 20/01 A2990 RMK CU6CI1 CB + SH N + NE SLP130

CYYC;2008-06-19 00:00;CYYC 190000Z 34007KT 40SM BKN072 BKN150 BKN240 20/02 A2990 RMK CU5AC1CI1 CB N + NE / SH NW - E SLP130

CYYC;2008-06-19 01:00;CYYC 190100Z 02011KT 40SM FEW044TCU BKN110 BKN200 18/06 A2993 RMK TCU2AC3CI1 SH SW + NW-NE SLP138

CYYC;2008-06-19 02:00;CYYC 190200Z 01011KT 30SM FEW060CB BKN089 BKN100 16/08 A2996 RMK CB2AC3AC2 VIRGA E+S SLP147

CYYC;2008-06-19 03:00;CYYC 190300Z 03010KT 30SM FEW060CB BKN100 14/09 A2998 RMK CB1AC6 SLP159

CYYC;2008-06-19 04:00;CYYC 190400Z 36013KT 20SM FEW080 OVC100 13/09 A3000 RMK AC2AC6 VIRGA NE+SW SLP165

CYYC;2008-06-19 05:00;CYYC 190500Z 36011KT 15SM FEW080 BKN110 OVC170 11/08 A3005 RMK AC1AC5AC1 SLP179

CYYC;2008-06-19 06:00;CYYC 190600Z 36004KT 15SM FEW080 BKN120 10/09 A3006 RMK AC1AC5 SLP185

CYYC;2008-06-19 07:00;CYYC 190700Z 34006KT 15SM FEW085 BKN120 10/08 A3007 RMK AC2AC5 SLP190

CYYC;2008-06-19 08:00;CYYC 190800Z 33008KT 15SM FEW085 BKN110 09/06 A3008 RMK AC1AC6 SLP193

CYYC;2008-06-19 09:00;CYYC 190900Z 28003KT 15SM FEW085 BKN110 08/05 A3008 RMK AC1AC6 SLP196

CYYC;2008-06-19 10:00;CYYC 191000Z 26004KT 15SM FEW085 BKN120 BKN220 08/06 A3008 RMK AC1AC5CI1 SLP196

CYYC;2008-06-19 11:00;CYYC 191100Z 26005KT 20SM FEW085 BKN110 BKN220 09/05 A3009 RMK AC1AC5CI1 SLP197

CYYC;2008-06-19 12:00;CYYC 191200Z 21004KT 30SM FEW085 BKN100 BKN220 08/06 A3009 RMK AC1AC4CI1 CI TR SLP198

CYYC;2008-06-19 13:00;CYYC 191300Z 23003KT 40SM FEW080 FEW120 09/06 A3010 RMK AC1AC1 SLP199

CYYC;2008-06-19 14:00;CYYC 191400Z 22004KT 40SM FEW080 FEW120 FEW200 11/07 A3010 RMK AC1AC1CC0 SLP201

CYYC;2008-06-19 15:00;CYYC 191500Z 00000KT 40SM FEW050 FEW084 FEW230 14/08 A3011 RMK CU1AC1CI1 SLP205

CYYC;2008-06-19 16:00;CYYC 191600Z 01004KT 40SM FEW050 FEW230 14/03 A3010 RMK CU1CI0 SLP203

CYYC;2008-06-19 17:00;CYYC 191700Z 36004KT 40SM FEW062 FEW230 15/02 A3011 RMK CU1CI0 SLP204

CYYC;2008-06-19 18:00;CYYC 191800Z 01007KT 40SM FEW060 FEW230 16/04 A3011 RMK CU1CI0 SLP206

CYYC;2008-06-19 19:00;CYYC 191900Z 02002KT 40SM FEW060 FEW210 FEW240 16/04 A3011 RMK CU1CC1CI0 SLP206

CYYC;2008-06-19 20:00;CYYC 192000Z 14003KT 40SM FEW060 FEW200 FEW240 17/04 A3009 RMK CU1CC1CI1 SLP202

CYYC;2008-06-19 21:00;CYYC 192100Z 05005G16KT 40SM FEW074 FEW180 FEW200 SCT240 17/02 A3009 RMK CU1AC1CC1CI0 ACSL N + E + S SLP200

CYYC;2008-06-19 22:00;CYYC 192200Z 14008KT 40SM FEW076 FEW090 FEW180 SCT210 BKN250 18/03 A3008 RMK CU1AC1AC1CC1CI1 ACSL ALQDS SLP197

CYYC;2008-06-19 23:00;CYYC 192300Z 14010KT 40SM FEW078 FEW099 FEW180 SCT210 BKN250 20/04 A3006 RMK CU1AC1AC1CC2CI0 ACSL SW SLP192

CYYC;2008-06-20 00:00;CYYC 200000Z 11010KT 40SM FEW081 SCT096 BKN180 BKN260 18/05 A3006 RMK CU2AC2AC2CI0 ACSL ASOCTD SLP189

CYYC;2008-06-20 01:00;CYYC 200100Z 11011KT 40SM FEW077 BKN094 BKN200 18/04 A3006 RMK CU1AC4CC0 SLP189

CYYC;2008-06-20 02:00;CYYC 200200Z 11009KT 40SM FEW070 SCT080 BKN250 18/05 A3006 RMK CU1AC2CI0 SLP191

CYYC;2008-06-20 03:00;CYYC 200300Z 10005KT 40SM FEW070 FEW090 SCT250 17/06 A3007 RMK CU1AC1CI0 CC ASOCTD SLP185

CYYC;2008-06-20 04:00;CYYC 200400Z 10005KT 40SM FEW070 FEW090 SCT250 16/06 A3008 RMK CU1AC2CI0 SLP190

CYYC;2008-06-20 05:00;CYYC 200500Z 31003KT 15SM FEW100 SCT250 16/05 A3011 RMK AC1CI1 AC TR SLP197

CYYC;2008-06-20 06:00;CYYC 200600Z 31003KT 15SM FEW120 SCT250 14/03 A3011 RMK AC1CI1 AC TR SLP203

CYYC;2008-06-20 07:00;CYYC 200700Z 30002KT 15SM FEW120 SCT250 13/03 A3012 RMK AC1CI1 SLP205

CYYC;2008-06-20 08:00;CYYC 200800Z 31004KT 15SM SCT250 13/04 A3012 RMK CI2 SLP206

CYYC;2008-06-20 09:00;CYYC 200900Z 01002KT 15SM SCT240 10/03 A3013 RMK CI2 SLP213

CYYC;2008-06-20 10:00;CYYC 201000Z 04002KT 15SM BKN230 09/04 A3014 RMK CI2 SLP215

CYYC;2008-06-20 11:00;CYYC 201100Z 08002KT 40SM FEW140 BKN240 09/03 A3014 RMK AC1CI2 SLP215

CYYC;2008-06-20 12:00;CYYC 201200Z 02002KT 40SM FEW140 SCT240 08/03 A3016 RMK AC1CI1 SLP223

CYYC;2008-06-20 13:00;CYYC 201300Z 05002KT 40SM FEW140 SCT250 10/06 A3017 RMK AC1CI1 SLP227

CYYC;2008-06-20 14:00;CYYC 201400Z 09003KT 40SM FEW180 BKN250 14/05 A3018 RMK AC1CI0 SLP228

CYYC;2008-06-20 15:00;CYYC 201500Z 00000KT 40SM FEW160 FEW250 16/06 A3019 RMK AC1CI0 SLP224

CYYC;2008-06-20 16:00;CYYC 201600Z 15004KT 40SM FEW058 FEW160 FEW250 18/04 A3019 RMK CU1AC1CI0 SLP224

CYYC;2008-06-20 17:00;CYYC 201700Z 24002KT 40SM FEW058 FEW120 FEW160 FEW250 18/04 A3019 RMK CU1AC1AC1CI0 SLP224

CYYC;2008-06-20 18:00;CYYC 201800Z 28004KT 40SM FEW065 FEW250 20/04 A3018 RMK CU2CI0 SC ASOCTD SLP220

CYYC;2008-06-20 19:00;CYYC 201900Z 14004KT 40SM FEW080 SCT100 BKN250 20/02 A3017 RMK CU2AC2CI0 SLP218

CYYC;2008-06-20 20:00;CYYC 202000Z 16007KT 40SM FEW080 FEW110 FEW200 BKN250 20/04 A3017 RMK CU1AC1CI1CI0 SLP217

CYYC;2008-06-20 21:00;CYYC 202100Z 18010KT 40SM FEW080 FEW160 SCT210 OVC240 22/03 A3016 RMK CU2AC1CI1CI0 SLP215

CYYC;2008-06-20 22:00;CYYC 202200Z 19003KT 40SM FEW080 SCT110 BKN230 22/04 A3015 RMK CU2AC1CI0 SLP211

CYYC;2008-06-20 23:00;CYYC 202300Z 19007KT 40SM FEW082 BKN120 OVC250 22/04 A3014 RMK CU2AS3CI1 DIST SH NW-N SLP209

CYYC;2008-06-21 00:00;CYYC 210000Z 22003KT 40SM FEW082 FEW120 FEW160 BKN220 22/01 A3013 RMK CU1AC1AC1CI1 ACSL SLP209

CYYC;2008-06-21 01:00;CYYC 210100Z 20004KT 40SM FEW084 FEW120 SCT170 BKN240 22/02 A3013 RMK CU1AC1AS1CI0 SLP208

CYYC;2008-06-21 02:00;CYYC 210200Z 17010KT 40SM FEW082 SCT180 BKN250 21/06 A3013 RMK CU1AC1CI0 SLP208

CYYC;2008-06-21 03:00;CYYC 210300Z 16009KT 40SM FEW080 FEW180 BKN270 20/07 A3014 RMK CU1AC2CI0 SLP203

CYYC;2008-06-21 04:00;CYYC 210400Z 13007KT 40SM FEW080 FEW170 BKN270 18/07 A3015 RMK CU1AC1CI1 SLP208

CYYC;2008-06-21 05:00;CYYC 210500Z 16007KT 15SM FEW170 SCT250 17/07 A3017 RMK AC1CI1 SLP213

CYYC;2008-06-21 06:00;CYYC 210600Z 19009KT 15SM FEW170 FEW260 16/08 A3017 RMK AC1CI0 SLP216

CYYC;2008-06-21 07:00;CYYC 210700Z 18006KT 15SM FEW170 FEW260 14/08 A3017 RMK AC1CI1 SLP215

CYYC;2008-06-21 08:00;CYYC 210800Z 19005KT 15SM FEW120 FEW250 13/08 A3017 RMK AC1CI0 SLP216

CYYC;2008-06-21 09:00;CYYC 210900Z 20003KT 15SM FEW120 FEW250 13/07 A3017 RMK AC1CI0 SLP215

CYYC;2008-06-21 10:00;CYYC 211000Z 18004KT 15SM FEW140 SCT250 11/08 A3016 RMK AC1CI0 SLP213

CYYC;2008-06-21 11:00;CYYC 211100Z 21006KT 40SM FEW120 SCT250 10/07 A3017 RMK AC1CI0 SLP214

CYYC;2008-06-21 12:00;CYYC 211200Z 00000KT 30SM FEW150 BKN260 09/07 A3016 RMK AC1CI1 SLP218

CYYC;2008-06-21 13:00;CYYC 211300Z 21002KT 20SM FEW150 BKN250 11/08 A3017 RMK AC1CI0 SLP219

CYYC;2008-06-21 14:00;CYYC 211400Z 19002KT 40SM FEW150 BKN250 14/06 A3016 RMK AC1CI0 SLP218

CYYC;2008-06-21 15:00;CYYC 211500Z 18004KT 40SM FEW150 BKN240 17/07 A3016 RMK AC1CI1 SLP208

CYYC;2008-06-21 16:00;CYYC 211600Z 18008KT 40SM FEW150 BKN240 19/08 A3016 RMK AC1CI1 SLP210

CYYC;2008-06-21 17:00;CYYC 211700Z 17007KT 40SM FEW170 OVC250 21/10 A3014 RMK AC2CI2 SLP204

CYYC;2008-06-21 18:00;CYYC 211800Z 16009KT 40SM FEW050 FEW140 OVC250 22/10 A3013 RMK CF1AC1CI2 SLP198

CYYC;2008-06-21 19:00;CYYC 211900Z 16008G15KT 40SM FEW055 FEW130 FEW180 OVC250 24/10 A3012 RMK CU1AC1AC1CI2 ACSL S SLP194

CYYC;2008-06-21 20:00;CYYC 212000Z 14009G16KT 40SM FEW055 FEW130 FEW180 OVC250 25/09 A3010 RMK CU1AC1AC1CI2 SLP188

CYYC;2008-06-21 21:00;CYYC 212100Z CCA 13010G17KT 40SM FEW065 FEW160 FEW200 OVC250 25/07 A3007 RMK CU1AC1CI1CI2 ACSL S-W SLP177

CYYC;2008-06-21 22:00;CYYC 212200Z 14014KT 40SM FEW075 FEW160 FEW210 OVC250 26/07 A3005 RMK CU1AC1CI1CI2 SLP171

CYYC;2008-06-21 23:00;CYYC 212300Z 16016KT 40SM FEW080 FEW100 FEW150 OVC250 27/07 A3003 RMK CU1AC1AC1CI2 SLP165

CYYC;2008-06-22 00:00;CYYC 220000Z 14019KT 40SM FEW080 FEW100 FEW190 OVC250 26/08 A3001 RMK CU1AC1AC1CI2 SLP158

CYYC;2008-06-22 01:00;CYYC 220100Z 14015G20KT 30SM FEW080 FEW120 FEW180 OVC240 26/08 A3000 RMK CU1AC1AC1CI2 SLP155

CYYC;2008-06-22 02:00;CYYC 220200Z 14012G19KT 20SM FEW080 FEW180 BKN260 25/08 A2998 RMK CU1AC2CI0 SLP151

CYYC;2008-06-22 03:00;CYYC 220300Z 13013G19KT 30SM FEW080 FEW140 BKN260 24/09 A2996 RMK CU1AC2CI1 SLP136

CYYC;2008-06-22 04:00;CYYC 220400Z 13012KT 30SM FEW085 BKN240 21/11 A2996 RMK AC2CI2 SLP134

CYYC;2008-06-22 05:00;CYYC 220500Z 16010G15KT 15SM SCT130 OVC240 21/11 A2993 RMK AC3CI1 SLP127

CYYC;2008-06-22 06:00;CYYC 220600Z 18006KT 15SM FEW090 BKN180 OVC240 20/11 A2991 RMK AC2AC3CI2 SLP115

CYYC;2008-06-22 07:00;CYYC 220700Z 18015KT 15SM SCT140 OVC240 20/10 A2990 RMK AC3CI3 SLP113

CYYC;2008-06-22 08:00;CYYC 220800Z 18011KT 15SM SCT140 OVC240 18/11 A2987 RMK AC3CI2 SLP103

CYYC;2008-06-22 09:00;CYYC 220900Z 18011KT 15SM BKN110 OVC220 18/10 A2986 RMK AC5CI2 SLP096

CYYC;2008-06-22 10:00;CYYC 221000Z 17009KT 15SM BKN110 OVC220 17/10 A2984 RMK AC5CI2 SLP090

CYYC;2008-06-22 11:00;CYYC 221100Z 16009KT 15SM BKN100 OVC220 17/10 A2981 RMK AC6CI2 SLP080

CYYC;2008-06-22 12:00;CYYC 221200Z 18014KT 40SM FEW080 BKN110 OVC220 17/10 A2980 RMK AC2AC5CI1 SLP076

CYYC;2008-06-22 13:00;CYYC 221300Z 18015G20KT 40SM FEW080 BKN110 OVC230 17/10 A2979 RMK AC1AC4CI2 SLP072

CYYC;2008-06-22 14:00;CYYC 221400Z 23009KT 40SM -SHRA FEW080 BKN130 BKN220 17/10 A2981 RMK AC2AC3CI2 PCPN VRY LGT SLP077

CYYC;2008-06-22 14:22;CYYC 221422Z 23006KT 40SM FEW090 BKN130 BKN220 17/ RMK AC2AC5CI1 DIST SH S+NW

CYYC;2008-06-22 14:35;CYYC 221435Z 29013KT 40SM -SHRA SCT045 BKN130 BKN220 17/ RMK SC3AC3CI1 PCPN VRY LGT

CYYC;2008-06-22 15:00;CYYC 221500Z 29013G19KT 40SM FEW035 SCT140 BKN200 18/08 A2980 RMK SC2AC2CI2 SH NW-NE SLP078

CYYC;2008-06-22 16:00;CYYC 221600Z CCA 29015KT 40SM BKN040 BKN065 BKN140 16/10 A2987 RMK SC5SC2AC1 DIST SH SW-W/ PRESRR SLP101

CYYC;2008-06-22 16:35;CYYC 221635Z 30015KT 20SM -RA SCT040 OVC066 16/ RMK SC3AC5

CYYC;2008-06-22 17:00;CYYC 221700Z 31012G18KT 15SM -RA FEW038 OVC050 14/10 A2992 RMK SC2SC6 SLP115

CYYC;2008-06-22 18:00;CYYC 221800Z 36011G16KT 40SM -RA SCT030 BKN045 BKN070 13/11 A2992 RMK SC3SC3AC1 SLP133

CYYC;2008-06-22 18:21;CYYC 221821Z 35013G19KT 40SM FEW015 FEW030 SCT045 14/ RMK CF1CU1SC2

CYYC;2008-06-22 19:00;CYYC 221900Z 36011KT 40SM FEW016 FEW070 BKN220 14/11 A2996 RMK CU1AC2CI2 SLP143

CYYC;2008-06-22 20:00;CYYC 222000Z 34014KT 40SM FEW022 FEW120 FEW220 16/10 A2995 RMK CU1AC1CI1 SLP141

CYYC;2008-06-22 21:00;CYYC 222100Z 09006KT 40SM FEW024 FEW120 FEW220 17/10 A2996 RMK CU1AC1CI1 SLP143

CYYC;2008-06-22 22:00;CYYC 222200Z 10005KT 40SM FEW037 FEW060 FEW120 SCT220 17/10 A2997 RMK CU1CU1AC1CI0 TCU ASOCTD SLP146

CYYC;2008-06-22 23:00;CYYC 222300Z 12004KT 40SM FEW034 FEW140 FEW220 19/10 A2997 RMK CU1AC1CI0 DIST SH SW SLP145

CYYC;2008-06-23 00:00;CYYC 230000Z 09009KT 40SM SCT070 SCT140 BKN240 18/10 A2997 RMK CU4AC1CI0 SLP145

CYYC;2008-06-23 01:00;CYYC 230100Z 07008KT 40SM SCT050 SCT140 SCT240 18/11 A2998 RMK CU3AC1CI0 TCU ASOCTD/TR AC SLP148

CYYC;2008-06-23 02:00;CYYC 230200Z 10009KT 40SM FEW050TCU FEW085 SCT250 17/10 A2998 RMK TCU1AC2CI1 TCU TR SLP148

CYYC;2008-06-23 03:00;CYYC 230300Z 11007KT 20SM FEW050 SCT085 BKN260 16/10 A2998 RMK SC1AC2CI1 SLP151

CYYC;2008-06-23 04:00;CYYC 230400Z 10006KT 20SM FEW060 FEW090 SCT260 15/10 A3000 RMK SC1AC2CI1 SLP157

CYYC;2008-06-23 05:00;CYYC 230500Z 00000KT 15SM FEW140 BKN260 14/10 A3002 RMK AC1CI2 SLP162

CYYC;2008-06-23 06:00;CYYC 230600Z 00000KT 15SM SCT240 13/09 A3003 RMK CI2 SLP180

CYYC;2008-06-23 07:00;CYYC 230700Z 14003KT 15SM SCT240 11/08 A3004 RMK CI2 SLP183

CYYC;2008-06-23 08:00;CYYC 230800Z 12006KT 15SM SCT240 11/08 A3004 RMK CI2 SLP183

CYYC;2008-06-23 09:00;CYYC 230900Z 14004KT 15SM SCT240 09/08 A3004 RMK CI2 SLP182

CYYC;2008-06-23 10:00;CYYC 231000Z 15003KT 15SM FEW140 SCT230 10/08 A3004 RMK AC1CI2 SLP183

CYYC;2008-06-23 11:00;CYYC 231100Z 34004KT 20SM FEW100 BKN230 09/08 A3004 RMK AC1CI2 SLP183

CYYC;2008-06-23 12:00;CYYC 231200Z 33004KT 30SM FEW140 BKN250 09/07 A3004 RMK AC1CI2 SLP183

CYYC;2008-06-23 13:00;CYYC 231300Z 24002KT 40SM FEW140 FEW250 10/08 A3005 RMK AC1CI1 SLP185

CYYC;2008-06-23 14:00;CYYC 231400Z 00000KT 40SM FEW140 FEW250 14/08 A3003 RMK AC1CI0 SLP179

CYYC;2008-06-23 15:00;CYYC 231500Z 32002KT 40SM FEW028 FEW140 FEW250 16/09 A3003 RMK CU1AC1CI0 ALL CLD TR SLP170

CYYC;2008-06-23 16:00;CYYC 231600Z 32007KT 40SM FEW055 FEW150 FEW250 18/05 A3002 RMK CU1AC1CI0 ALL CLD TR SLP168

CYYC;2008-06-23 17:00;CYYC 231700Z 36005KT 40SM FEW055 FEW150 FEW250 19/04 A3002 RMK CU1AC1CI0 ALL CLD TR SLP167

CYYC;2008-06-23 18:00;CYYC 231800Z 31007KT 40SM FEW055 FEW150 FEW250 20/03 A3001 RMK CU1AC1CI0 SLP164

CYYC;2008-06-23 19:00;CYYC 231900Z 07004KT 40SM FEW060 FEW150 FEW250 20/04 A3001 RMK CU1AC1CI0 DIST SH SW-W SLP162

CYYC;2008-06-23 20:00;CYYC 232000Z 36006KT 40SM BKN070 BKN140 BKN250 20/03 A3000 RMK CU5AC1CI0 DIST SH S-NW/TCU EMBD SLP160

CYYC;2008-06-23 21:00;CYYC 232100Z 06007KT 40SM BKN080TCU BKN160 BKN240 20/05 A2999 RMK TCU5AC1CI0 DIST SH S-NW SLP162

CYYC;2008-06-23 22:00;CYYC 232200Z 00000KT 40SM BKN070TCU BKN130 BKN240 20/04 A2999 RMK TCU5AC1CI0 DIST SH SW-N/CONTRAILS SLP160

CYYC;2008-06-23 23:00;CYYC 232300Z 36006KT 40SM FEW070TCU SCT090TCU BKN130 OVC240 20/06 A2998 RMK TCU1TCU2AC2CI1 VIRGA SW-NE SLP158

CYYC;2008-06-24 00:00;CYYC 240000Z 04006KT 40SM SCT070TCU BKN095 OVC240 20/06 A2997 RMK TCU3AC3CI1 DIST SH SW+NW SLP154

CYYC;2008-06-24 01:00;CYYC 240100Z 16005KT 40SM SCT070TCU BKN100 BKN240 20/06 A2996 RMK TCU3AC2CI0 ACSL SW SLP152

CYYC;2008-06-24 02:00;CYYC 240200Z 16006KT 40SM FEW070TCU BKN120 BKN240 20/05 A2996 RMK TCU2AC3CI1 SLP151

CYYC;2008-06-24 03:00;CYYC 240300Z 15005KT 40SM FEW050 BKN120 OVC210 18/06 A2996 RMK CU2AC4CI2 SLP142

CYYC;2008-06-24 04:00;CYYC 240400Z 14006KT 40SM FEW068 BKN130 OVC220 17/07 A2995 RMK ACC1AC5CI2 SLP141

CYYC;2008-06-24 05:00;CYYC 240500Z 20004KT 15SM FEW080 BKN098 OVC210 17/06 A2996 RMK AC2AC6CI1 SLP142

CYYC;2008-06-24 06:00;CYYC 240600Z 01005KT 15SM FEW077 BKN098 OVC240 18/06 A2994 RMK AC2AC4CI1 SLP133

CYYC;2008-06-24 07:00;CYYC 240700Z 21006KT 15SM BKN081 BKN140 OVC240 16/06 A2995 RMK AC6AC1CI1 SLP136

CYYC;2008-06-24 08:00;CYYC 240800Z 16006KT 15SM BKN065 BKN080 OVC140 16/06 A2995 RMK SC5AC2AC1 SLP135

CYYC;2008-06-24 09:00;CYYC 240900Z 20006KT 15SM -RA BKN044 OVC069 13/10 A2996 RMK SC6AC2 SLP144

CYYC;2008-06-24 10:00;CYYC 241000Z 28004KT 15SM -RA BKN075 OVC094 12/10 A2994 RMK AC6AC2 RA VRY LGT SLP139

CYYC;2008-06-24 11:00;CYYC 241100Z 28004KT 10SM -RA BKN057 BKN061 OVC100 11/10 A2994 RMK SC6SC2AC1 SLP139

CYYC;2008-06-24 12:00;CYYC 241200Z 30007KT 10SM -RA OVC052 11/10 A2994 RMK SC8 SLP141

CYYC;2008-06-24 13:00;CYYC 241300Z 27005KT 10SM -RA FEW017 OVC026 10/10 A2994 RMK SC1SC7 SLP142

CYYC;2008-06-24 13:30;CYYC 241330Z 35012G27KT 5SM +RA BR SCT008 BKN011 OVC020 10/ RMK SC3SC4SC1

CYYC;2008-06-24 14:00;CYYC 241400Z 34009KT 6SM -RA BR SCT008 BKN015 OVC042 10/10 A2996 RERA RMK SC3SC4SC1 SLP148

CYYC;2008-06-24 15:00;CYYC 241500Z 33006KT 12SM -RA FEW010 SCT035 OVC060 11/11 A2996 RMK SC2SC2SC3 SLP152

CYYC;2008-06-24 15:27;CYYC 241527Z 32009KT 12SM FEW009 BKN013 OVC019 12/ RMK SC2SC3SC2

CYYC;2008-06-24 16:00;CYYC 241600Z 33014KT 12SM FEW016 BKN026 OVC050 12/10 A2997 RMK SC2SC4SC2 SLP153

CYYC;2008-06-24 16:26;CYYC 241626Z 33013KT 12SM -SHRA FEW019 BKN026 OVC037 11/ RMK SC2SC3SC2 CVCTV CLD EMBD

CYYC;2008-06-24 17:00;CYYC 241700Z CCA 34015KT 30SM -SHRA FEW018 BKN024 OVC036 11/10 A2999 RMK SF2SC3SC3 CVCTV CLD EMBD SLP159

CYYC;2008-06-24 17:19;CYYC 241719Z 33015KT 30SM FEW018 BKN028 OVC039 12/ RMK SC2SC3SC2

CYYC;2008-06-24 17:36;CYYC 241736Z 31013G19KT 30SM -SHRA FEW018 SCT028 BKN037 OVC051 12/ RMK SC1SC2SC2SC2 CVCTV CLD EMBD

CYYC;2008-06-24 18:00;CYYC 241800Z 32012KT 30SM SCT015 BKN025 BKN050 13/11 A3000 RMK SC3SC2SC2 SH SW SLP161

CYYC;2008-06-24 19:00;CYYC 241900Z 35014KT 40SM SCT046 BKN053 BKN220 14/09 A3001 RMK CU3SC2CI1 SLP164

CYYC;2008-06-24 20:00;CYYC 242000Z 36010G16KT 40SM SCT033 SCT053 SCT220 16/10 A3001 RMK CU3SC1CI1 SLP164

CYYC;2008-06-24 21:00;CYYC 242100Z 02007KT 30SM SCT038 BKN210 16/10 A3000 RMK CU3CI0 SLP163

CYYC;2008-06-24 22:00;CYYC 242200Z 02007KT 30SM BKN036 BKN077 OVC220 16/10 A2999 RMK SC6AC1CI2 SH W-NW SLP162

CYYC;2008-06-24 22:04;CYYC 242204Z 02007KT 30SM -SHRA BKN036 BKN077 OVC220 16/ RMK SC6AC1CI2 CVCTV CLD EMBD

CYYC;2008-06-24 22:34;CYYC 242234Z 02006KT 40SM FEW038 BKN086 BKN220 15/ RMK SC2AC2CI0 CB + SH E

CYYC;2008-06-24 23:00;CYYC 242300Z 04009KT 30SM FEW036CB FEW120 BKN220 17/11 A2999 RMK CB1AC2CI1 CB + SH E + SW SLP160

CYYC;2008-06-25 00:00;CYYC 250000Z 12004KT 30SM FEW035 FEW120 FEW220 17/10 A2999 RMK CU1AC1CI1 CB + SH S SLP162

CYYC;2008-06-25 01:00;CYYC 250100Z 11006KT 40SM FEW035 FEW110 FEW210 17/09 A2998 RMK CU2AC1CI0 CB + SH SE-S SLP160

CYYC;2008-06-25 02:00;CYYC 250200Z 12005KT 25SM FEW050 FEW110 17/09 A2997 RMK SC1AC1 SLP157

CYYC;2008-06-25 03:00;CYYC 250300Z 10007KT 30SM FEW060TCU FEW120 16/09 A2998 RMK TCU1AC2 SH DIST NNW SLP160

CYYC;2008-06-25 04:00;CYYC 250400Z 14005KT 30SM FEW060TCU FEW080 SCT120 14/11 A2999 RMK TCU1AC2AC1 SH DIST NNW SLP163

CYYC;2008-06-25 05:00;CYYC 250500Z 03011G17KT 15SM FEW040 FEW090 13/09 A3000 RMK SC1AC1 SLP166

CYYC;2008-06-25 06:00;CYYC 250600Z 09005KT 15SM FEW050 FEW110 11/08 A2999 RMK SC1AC1 SC TR SLP169

CYYC;2008-06-25 07:00;CYYC 250700Z 23002KT 15SM FEW140 FEW250 11/09 A2999 RMK AC1CI1 SLP169

CYYC;2008-06-25 08:00;CYYC 250800Z 22004KT 15SM FEW140 FEW250 10/08 A2999 RMK AC1CI0 SLP168

CYYC;2008-06-25 09:00;CYYC 250900Z 32010KT 15SM FEW140 FEW250 09/08 A3001 RMK AC1CI0 SLP172

CYYC;2008-06-25 10:00;CYYC 251000Z 33004KT 15SM FEW140 FEW230 08/07 A3000 RMK AC1CI0 SLP170

CYYC;2008-06-25 11:00;CYYC 251100Z 34005KT 20SM FEW140 SCT230 08/08 A3000 RMK AC2CI1 SLP170

CYYC;2008-06-25 12:00;CYYC 251200Z 22002KT 40SM FEW080 FEW140 FEW250 08/07 A3001 RMK AC1AC1CI1 SLP173

CYYC;2008-06-25 13:00;CYYC 251300Z 21003KT 30SM FEW080 SCT140 10/08 A3001 RMK AC2AC2 SLP172

CYYC;2008-06-25 14:00;CYYC 251400Z 19004KT 30SM FEW050 BKN120 11/08 A3001 RMK SC1AC6 SH SW SLP172

CYYC;2008-06-25 15:00;CYYC 251500Z 23005KT 40SM FEW050 SCT100 BKN120 12/08 A3000 RMK CU1AC3AC2 SLP164

CYYC;2008-06-25 16:00;CYYC 251600Z CCA 00000KT 40SM FEW055 FEW100 FEW120 BKN260 14/08 A2999 RMK CU1AC1AC1CI1 SLP163

CYYC;2008-06-25 17:00;CYYC 251700Z 07002KT 40SM FEW055 FEW080 FEW160 BKN260 16/08 A2998 RMK CU1AC1AC1CI0 UPR AC TR SLP160

CYYC;2008-06-25 18:00;CYYC 251800Z 06003KT 40SM FEW060 FEW085 BKN260 18/09 A2997 RMK CU1AC1CI0 SLP153

CYYC;2008-06-25 19:00;CYYC 251900Z 07005KT 40SM FEW065 FEW090 SCT210 BKN260 18/08 A2995 RMK CU2AC1CI1CI0 SLP147

CYYC;2008-06-25 20:00;CYYC 252000Z 09004KT 40SM SCT052 SCT090 BKN230 18/08 A2993 RMK CU3AC1CS1 SLP143

CYYC;2008-06-25 21:00;CYYC 252100Z 12010KT 40SM SCT069 SCT110 OVC220 20/10 A2991 RMK CU3AC1CS2 TCU NE SLP133

CYYC;2008-06-25 22:00;CYYC 252200Z 16010KT 40SM FEW075 FEW110 BKN220 21/09 A2989 RMK CU1AC2CS2 CB DIST NE SLP128

CYYC;2008-06-25 23:00;CYYC 252300Z 13009KT 40SM FEW075 FEW110 BKN220 21/10 A2987 RMK CU1AC1CI2 SLP122

CYYC;2008-06-26 00:00;CYYC 260000Z 12009KT 40SM FEW075 FEW110 BKN240 21/08 A2986 RMK CU2AC1CI2 CB NE SLP115

CYYC;2008-06-26 01:00;CYYC 260100Z 13009KT 40SM FEW078 FEW120 BKN240 21/09 A2985 RMK CU2AC1CI2 TCU OVR AD / DIST CB E SLP111

CYYC;2008-06-26 02:00;CYYC 260200Z CCA 27006KT 40SM FEW070 FEW080TCU SCT120 BKN250 21/05 A2985 RMK CU2TCU1AC2CI0 DIST CB/SH E SLP112

CYYC;2008-06-26 03:00;CYYC 260300Z 29006KT 40SM FEW060 FEW080TCU FEW120 BKN250 20/02 A2985 RMK CU1TCU1AC2CI0 TCU TR SLP109

CYYC;2008-06-26 04:00;CYYC 260400Z 26004KT 40SM FEW060 FEW120 SCT250 18/02 A2985 RMK CU1AC0CI0 SLP110

CYYC;2008-06-26 05:00;CYYC 260500Z 31005KT 15SM FEW080 FEW120 SCT250 16/02 A2986 RMK AC1AC0CI0 SLP113

CYYC;2008-06-26 06:00;CYYC 260600Z 34004KT 15SM FEW110 FEW250 13/04 A2987 RMK AC1CI1 AC+CI TR SLP118

CYYC;2008-06-26 07:00;CYYC 260700Z 33007KT 15SM FEW110 FEW250 12/09 A2988 RMK AC1CI1 SLP121

CYYC;2008-06-26 08:00;CYYC 260800Z 32005KT 15SM FEW250 11/09 A2988 RMK CI1 SLP120

CYYC;2008-06-26 09:00;CYYC 260900Z 36007KT 15SM FEW250 10/09 A2988 RMK CI1 SLP123

CYYC;2008-06-26 10:00;CYYC 261000Z 22002KT 15SM FEW200 BKN260 08/08 A2989 RMK CI1CI1 SLP125

CYYC;2008-06-26 11:00;CYYC 261100Z 32003KT 15SM FEW080 FEW200 BKN250 08/08 A2988 RMK AC1CI2CI2 SLP123

CYYC;2008-06-26 12:00;CYYC 261200Z 00000KT 40SM FEW080 SCT220 BKN250 08/07 A2988 RMK AC1CI2CI1 SLP125

CYYC;2008-06-26 13:00;CYYC 261300Z 24002KT 30SM FEW080 SCT220 BKN250 10/08 A2986 RMK AC1CI3CI2 SLP118

CYYC;2008-06-26 14:00;CYYC 261400Z 18005KT 40SM FEW040 BKN150 BKN220 13/09 A2984 RMK SC1AC5CI2 SC TR SLP112

CYYC;2008-06-26 15:00;CYYC 261500Z 19006KT 40SM FEW040 BKN140 BKN220 14/07 A2984 RMK SC1AC5CI0 SLP101

CYYC;2008-06-26 16:00;CYYC 261600Z 19006KT 40SM FEW040 SCT120 BKN160 14/08 A2982 RMK SC1AC3AC2 SC TR SLP096

CYYC;2008-06-26 17:00;CYYC 261700Z 20005KT 40SM FEW028 BKN110 15/08 A2980 RMK CU1AC6 CU TR SLP089

CYYC;2008-06-26 18:00;CYYC 261800Z 18007KT 40SM FEW030 BKN120 18/09 A2976 RMK CU1AC5 VIRGA N-S SLP080

CYYC;2008-06-26 19:00;CYYC 261900Z 16006KT 40SM FEW050 BKN140 BKN220 20/07 A2974 RMK CU1AS4CI1 SLP072

CYYC;2008-06-26 20:00;CYYC 262000Z 22006KT 40SM FEW060 BKN100 BKN230 20/07 A2973 RMK CU2AS2CI0 SLP069

CYYC;2008-06-26 21:00;CYYC 262100Z 27009KT 40SM FEW072 SCT080 BKN100 BKN230 22/04 A2971 RMK CU2AC1AS1CI0 DIST SH N-E SLP060

CYYC;2008-06-26 22:00;CYYC 262200Z 30013G21KT 40SM FEW076 SCT090 BKN110 20/01 A2974 RMK CU2AC1AC3 DIST SH S-E SLP068

CYYC;2008-06-26 23:00;CYYC 262300Z 34016G24KT 40SM FEW048 SCT082 BKN100 18/07 A2979 RMK CU2AC1AC4 DIST SH N-S/PRESRR SLP083

CYYC;2008-06-27 00:00;CYYC 270000Z 36030G38KT 40SM FEW022 SCT085 BKN120 13/08 A2985 RMK CU2AC2AC1 PRESRR/BLDU SLP122

CYYC;2008-06-27 01:00;CYYC 270100Z 35021G27KT 40SM FEW022 12/07 A2988 RMK CU1 SLP134

CYYC;2008-06-27 02:00;CYYC 270200Z CCA 35013KT 40SM FEW070 FEW110 12/06 A2991 RMK CU1AC1 BOTH CLDS TR SLP141

CYYC;2008-06-27 03:00;CYYC 270300Z 35011G16KT 40SM FEW070 FEW110 12/06 A2993 RMK CU1AC1 SLP146

CYYC;2008-06-27 04:00;CYYC 270400Z 34007KT 40SM FEW050 FEW110 FEW250 11/05 A2997 RMK CU1AC1CI1 ALL CLDS TR SLP156

CYYC;2008-06-27 05:00;CYYC 270500Z 34006KT 15SM FEW250 10/05 A2998 RMK CI1 CI TR SLP161

CYYC;2008-06-27 06:00;CYYC 270600Z 26002KT 15SM SKC 09/05 A3001 RMK SLP171

CYYC;2008-06-27 07:00;CYYC 270700Z 00000KT 15SM SKC 08/05 A3003 RMK SLP176

CYYC;2008-06-27 08:00;CYYC 270800Z 00000KT 15SM SKC 07/05 A3005 RMK SLP182

CYYC;2008-06-27 09:00;CYYC 270900Z 00000KT 15SM SKC 06/05 A3006 RMK SLP186

CYYC;2008-06-27 10:00;CYYC 271000Z 20003KT 15SM FEW085 07/05 A3006 RMK AC1 AC TR SLP188

CYYC;2008-06-27 11:00;CYYC 271100Z 21003KT 20SM FEW090 FEW250 06/04 A3007 RMK AC1CI0 SLP190

CYYC;2008-06-27 12:00;CYYC 271200Z 21003KT 40SM FEW040 FEW090 07/05 A3008 RMK CU1AC1 BOTH CLDS TR SLP207

CYYC;2008-06-27 13:00;CYYC 271300Z 24004KT 40SM FEW090 FEW260 10/06 A3010 RMK AC1CI1 SLP212

CYYC;2008-06-27 14:00;CYYC 271400Z 30004KT 40SM FEW260 12/07 A3012 RMK CI1 SLP218

CYYC;2008-06-27 15:00;CYYC 271500Z 31010KT 40SM FEW050 FEW260 14/04 A3013 RMK CU1CI1 SLP214

CYYC;2008-06-27 16:00;CYYC 271600Z 34006KT 40SM FEW040 15/05 A3013 RMK CU1 SLP216

CYYC;2008-06-27 17:00;CYYC 271700Z 32008G15KT 40SM FEW056 15/04 A3013 RMK CU1 SLP214

CYYC;2008-06-27 18:00;CYYC 271800Z 36008KT 40SM FEW057 FEW260 16/04 A3013 RMK CU1CI1 SLP213

CYYC;2008-06-27 19:00;CYYC 271900Z 01003KT 40SM FEW062 17/04 A3012 RMK CU1 SLP211

CYYC;2008-06-27 20:00;CYYC 272000Z 36005KT 40SM FEW066 18/05 A3012 RMK CU1 SLP211

CYYC;2008-06-27 21:00;CYYC 272100Z 04007KT 40SM FEW068 FEW260 19/05 A3012 RMK CU1CI1 SLP211

CYYC;2008-06-27 22:00;CYYC 272200Z 08005KT 40SM FEW070 FEW270 20/05 A3012 RMK CU1CI1 SLP212

CYYC;2008-06-27 23:00;CYYC 272300Z 07004KT 40SM FEW070 20/06 A3012 RMK CU1 SLP213

CYYC;2008-06-28 00:00;CYYC 280000Z CCA 11009KT 30SM FEW070 19/06 A3013 RMK CU1 SLP214

CYYC;2008-06-28 01:00;CYYC 280100Z 13007KT 30SM FEW070 19/06 A3014 RMK CU1 SLP216

CYYC;2008-06-28 02:00;CYYC 280200Z 14009KT 40SM FEW070 19/07 A3015 RMK CU1 CU TR SLP219

CYYC;2008-06-28 03:00;CYYC 280300Z 12008KT 40SM SKC 17/07 A3016 RMK SLP216

CYYC;2008-06-28 04:00;CYYC 280400Z 11007KT 40SM SKC 16/08 A3017 RMK SLP221

CYYC;2008-06-28 05:00;CYYC 280500Z 12007KT 15SM SKC 15/08 A3020 RMK SLP229

CYYC;2008-06-28 06:00;CYYC 280600Z 14007KT 15SM SKC 12/07 A3022 RMK SLP241

CYYC;2008-06-28 07:00;CYYC 280700Z 17005KT 15SM SKC 13/07 A3022 RMK SLP242

CYYC;2008-06-28 08:00;CYYC 280800Z CCA 18004KT 15SM SKC 12/07 A3023 RMK SLP245

CYYC;2008-06-28 09:00;CYYC 280900Z 18004KT 15SM SKC 10/07 A3023 RMK SLP245

CYYC;2008-06-28 10:00;CYYC 281000Z 17002KT 15SM FEW140 11/07 A3024 RMK AC1 AC TR SLP247

CYYC;2008-06-28 11:00;CYYC 281100Z 18005KT 15SM FEW140 10/07 A3023 RMK AC1 AC TR SLP245

CYYC;2008-06-28 12:00;CYYC 281200Z 20004KT 40SM SKC 09/07 A3024 RMK SLP249

CYYC;2008-06-28 13:00;CYYC 281300Z 20004KT 40SM SKC 11/07 A3025 RMK SLP252

CYYC;2008-06-28 14:00;CYYC 281400Z 20005KT 40SM SKC 13/08 A3026 RMK SLP254

CYYC;2008-06-28 15:00;CYYC 281500Z 20005KT 40SM FEW260 15/07 A3025 RMK CI1 SLP247

CYYC;2008-06-28 16:00;CYYC 281600Z 19008KT 40SM FEW260 19/08 A3026 RMK CI1 SLP249

CYYC;2008-06-28 17:00;CYYC 281700Z 18010KT 40SM SKC 20/08 A3025 RMK SLP246

CYYC;2008-06-28 18:00;CYYC 281800Z 15011KT 40SM SKC 22/07 A3023 RMK SLP238

CYYC;2008-06-28 19:00;CYYC 281900Z 17014KT 40SM SKC 24/08 A3022 RMK SLP234

CYYC;2008-06-28 20:00;CYYC 282000Z 15012G18KT 40SM SKC 24/08 A3020 RMK SLP228

CYYC;2008-06-28 21:00;CYYC 282100Z 16006G15KT 40SM FEW070 FEW260 25/07 A3019 RMK CF1CI1 SLP222

CYYC;2008-06-28 22:00;CYYC 282200Z 15012G17KT 40SM FEW070 26/08 A3018 RMK CF1 SLP218

CYYC;2008-06-28 23:00;CYYC 282300Z 13013KT 40SM FEW072 FEW190 FEW240 26/09 A3016 RMK CF1AC1CI1 SLP214

CYYC;2008-06-29 00:00;CYYC 290000Z 14011G16KT 30SM FEW072 FEW170 FEW240 26/09 A3014 RMK CF1AC1CI1 SLP206

CYYC;2008-06-29 01:00;CYYC 290100Z 16013KT 30SM FEW170 FEW240 26/09 A3013 RMK AC1CI1 SLP202

CYYC;2008-06-29 02:00;CYYC 290200Z 16013KT 30SM FEW170 FEW250 25/09 A3012 RMK AC1CI1 CLDS TR SLP200

CYYC;2008-06-29 03:00;CYYC 290300Z 15008KT 40SM FEW180 FEW250 24/09 A3012 RMK AC1CI1 CLDS TR SLP192

CYYC;2008-06-29 04:00;CYYC 290400Z 16009KT 40SM FEW180 FEW250 22/11 A3012 RMK AC1CI1 CLDS TR SLP192

CYYC;2008-06-29 05:00;CYYC 290500Z 16008KT 15SM FEW180 FEW250 19/11 A3012 RMK AC1CI1 SLP192

CYYC;2008-06-29 06:00;CYYC 290600Z 15005KT 15SM FEW250 18/11 A3010 RMK CI1 CI TR SLP186

CYYC;2008-06-29 07:00;CYYC 290700Z 16004KT 15SM FEW250 17/11 A3009 RMK CI1 CI TR SLP183

CYYC;2008-06-29 08:00;CYYC 290800Z 21004KT 15SM FEW250 16/10 A3009 RMK CI1 CI TR SLP183

CYYC;2008-06-29 09:00;CYYC 290900Z 18006KT 15SM FEW250 14/10 A3009 RMK CI0 SLP183

CYYC;2008-06-29 10:00;CYYC 291000Z 19006KT 15SM FEW250 13/10 A3009 RMK CI0 SLP183

CYYC;2008-06-29 11:00;CYYC 291100Z 18005KT 20SM SKC 12/09 A3010 RMK SLP185

CYYC;2008-06-29 12:00;CYYC 291200Z 20004KT 30SM FEW220 12/08 A3010 RMK CI1 CI TR SLP189

CYYC;2008-06-29 13:00;CYYC 291300Z 19003KT 40SM FEW220 15/10 A3011 RMK CI1 SLP190

CYYC;2008-06-29 14:00;CYYC 291400Z 00000KT 40SM FEW230 19/10 A3012 RMK CI1 SLP194

CYYC;2008-06-29 15:00;CYYC 291500Z 00000KT 40SM FEW230 23/11 A3013 RMK CI0 SLP185

CYYC;2008-06-29 16:00;CYYC 291600Z 00000KT 40SM FEW200 FEW230 25/12 A3012 RMK CC0CI0 SLP184

CYYC;2008-06-29 17:00;CYYC 291700Z 00000KT 40SM FEW230 FEW250 28/12 A3012 RMK CC0CI0 SLP183

CYYC;2008-06-29 18:00;CYYC 291800Z 00000KT 40SM FEW230 SCT250 29/09 A3011 RMK CC0CI0 SLP177

CYYC;2008-06-29 19:00;CYYC 291900Z 15006KT 30SM FEW260 30/09 A3009 RMK CI1 SLP172

CYYC;2008-06-29 20:00;CYYC 292000Z 11008KT 30SM FEW260 30/08 A3008 RMK CI1 SLP169

CYYC;2008-06-29 21:00;CYYC 292100Z 11006KT 30SM FEW095 FEW260 30/07 A3007 RMK CU1CI1 SLP170

CYYC;2008-06-29 22:00;CYYC 292200Z 13010KT 30SM FEW095 FEW260 30/08 A3006 RMK CU1CI1 SLP167

CYYC;2008-06-29 23:00;CYYC 292300Z 15010G15KT 30SM FEW095 FEW250 30/10 A3005 RMK CU1CI1 SLP163

CYYC;2008-06-30 00:00;CYYC 300000Z CCA 15011G16KT 30SM FEW090 FEW250 30/09 A3004 RMK CU1CI1 SLP161

CYYC;2008-06-30 01:00;CYYC 300100Z 15013KT 30SM FEW090 BKN250 30/10 A3003 RMK CU1CI1 SLP157

CYYC;2008-06-30 02:00;CYYC 300200Z 14010KT 40SM FEW140 BKN250 28/13 A3002 RMK AC1CI1 SLP154

CYYC;2008-06-30 03:00;CYYC 300300Z 14008KT 40SM FEW140 BKN250 26/14 A3000 RMK AC1CI2 SLP139

CYYC;2008-06-30 04:00;CYYC 300400Z 13005KT 40SM FEW140 BKN250 24/15 A3001 RMK AC1CI2 SLP140

CYYC;2008-06-30 05:00;CYYC 300500Z 13006KT 15SM FEW140 BKN250 22/14 A3001 RMK AC1CI2 SLP140

CYYC;2008-06-30 06:00;CYYC 300600Z 15005KT 15SM FEW250 19/14 A3001 RMK CI1 CI TR SLP141

CYYC;2008-06-30 07:00;CYYC 300700Z 00000KT 15SM FEW250 20/14 A3001 RMK CI1 CI TR SLP140

CYYC;2008-06-30 08:00;CYYC 300800Z 31006KT 15SM FEW250 17/12 A3001 RMK CI1 CI TR SLP140

CYYC;2008-06-30 09:00;CYYC 300900Z 01003KT 15SM SKC 16/11 A3001 RMK SLP144

CYYC;2008-06-30 10:00;CYYC 301000Z 29005KT 15SM SKC 17/10 A3001 RMK SLP146

CYYC;2008-06-30 11:00;CYYC 301100Z 32004KT 15SM FEW090 FEW220 17/10 A3002 RMK AC1CI1 BOTH CLDS TR SLP148

CYYC;2008-06-30 12:00;CYYC 301200Z 00000KT 40SM FEW090 FEW240 16/09 A3002 RMK AC1CI1 BOTH CLDS TR SLP147

CYYC;2008-06-30 13:00;CYYC 301300Z 00000KT 40SM FEW050TCU FEW090 FEW240 18/11 A3003 RMK TCU1AC1CI0 TCU DIST NW SLP150

CYYC;2008-06-30 14:00;CYYC 301400Z 00000KT 40SM FEW050CB FEW090 SCT240 20/11 A3003 RMK CB1AC1CI0 CB DIST NW SLP151

CYYC;2008-06-30 15:00;CYYC 301500Z 33009KT 40SM FEW050CB BKN240 24/11 A3004 RMK CB1CI0 CB DIST NW SLP151

CYYC;2008-06-30 16:00;CYYC 301600Z 34009KT 40SM FEW055 SCT240 26/12 A3004 RMK CU1CI0 SLP150

CYYC;2008-06-30 17:00;CYYC 301700Z 33010KT 30SM FEW060 BKN240 28/13 A3004 RMK CU1CI0 SLP149

CYYC;2008-06-30 18:00;CYYC 301800Z 33008KT 30SM FEW065TCU BKN240 29/13 A3003 RMK TCU1CI0 SLP149

CYYC;2008-06-30 19:00;CYYC 301900Z 36011G16KT 30SM FEW065TCU FEW140 BKN240 29/16 A3003 RMK TCU1AC1CI0 SLP148

CYYC;2008-06-30 20:00;CYYC 302000Z 03013KT 30SM FEW065TCU FEW140 BKN240 27/17 A3003 RMK TCU1AC2CI1 LRG TCU ASOCTD SLP148

CYYC;2008-06-30 21:00;CYYC 302100Z 35017KT 30SM FEW070CB SCT110 BKN150 BKN230 26/16 A3006 RMK CB2AC2AC2CI2 SH SW + W-N SLP171

CYYC;2008-06-30 22:00;CYYC 302200Z 01011KT 30SM FEW070CB BKN110 BKN160 BKN230 23/13 A3004 RMK CB2AC2AC2CI1 LTGCG S / SCT SH S + SW-NW-NE SLP164

CYYC;2008-06-30 22:16;CYYC 302216Z 36007KT 30SM TS BKN120 BKN160 OVC240 24/ RMK AC5AC2CI1 CB EMBD / LTGCG W / SH ALQDS

CYYC;2008-06-30 22:25;CYYC 302225Z 18002KT 30SM -TSRA FEW097 BKN120 OVC240 24/ RMK AC2AC5CI1 CB EMBD / LTGCG W

CYYC;2008-06-30 23:00;CYYC 302300Z 02012G18KT 30SM TS FEW100CB BKN120 OVC240 23/13 A3003 RMK CB2AC5CI1 CB ALQDS / LTGCG W SLP159

CYYC;2008-06-30 23:31;CYYC 302331Z 27015G21KT 20SM -TSRA FEW100CB BKN120 OVC240 22/ RMK CB2AC5CI1 CB ALQDS / LTGCG W

CYYC;2008-07-01 00:23;CYYC 010023Z 02007KT 20SM FEW095CB BKN140 OVC210 20/ RETS RMK CB2AC4CI2

CYYC;2008-07-01 01:00;CYYC 010100Z 34011G17KT 30SM FEW095CB BKN120 OVC210 21/14 A3005 RETS RMK CB1AC6CI2 SH W + NW-NE + E SLP169

CYYC;2008-07-01 01:41;CYYC 010141Z 33011G19KT 20SM -SHRA BKN120 OVC250 20/ RMK AC6CI0

CYYC;2008-07-01 02:00;CYYC 010200Z 32008KT 20SM BKN140 OVC250 21/15 A3007 RMK AC6CI0 SLP175

CYYC;2008-07-01 03:00;CYYC 010300Z 32004KT 20SM SCT140 BKN160 BKN250 21/13 A3003 RMK AC3AC2CI0 SLP154

CYYC;2008-07-01 04:00;CYYC 010400Z 23005KT 30SM FEW120 BKN160 OVC250 21/11 A3005 RMK AC1AC5CI2 SLP158

CYYC;2008-07-01 05:00;CYYC 010500Z 09002KT 15SM OVC180 19/14 A3008 RMK AC6 SH + LTNG DSNT S SLP168

CYYC;2008-07-01 06:00;CYYC 010600Z 27003KT 15SM FEW110 BKN180 OVC250 17/13 A3010 RMK AC1AC6CI0 SLP177

CYYC;2008-07-01 07:00;CYYC 010700Z 28006KT 15SM BKN120 17/12 A3011 RMK AC4 SLP179

CYYC;2008-07-01 08:00;CYYC 010800Z 20004KT 15SM FEW120 16/12 A3010 RMK AC2 SLP178

CYYC;2008-07-01 09:00;CYYC 010900Z 31002KT 15SM FEW120 SCT160 15/12 A3011 RMK AC2AC1 SLP186

CYYC;2008-07-01 10:00;CYYC 011000Z 34006KT 15SM FEW120 SCT160 15/13 A3011 RMK AC2AC1 SLP187

CYYC;2008-07-01 11:00;CYYC 011100Z 35007KT 15SM FEW060 FEW120 SCT180 BKN250 15/13 A3011 RMK SC1AC2AC1CI1 CB+ACC ASOCTD E SLP187

CYYC;2008-07-01 12:00;CYYC 011200Z 35005KT 15SM FEW120 FEW180 BKN250 15/12 A3012 RMK AC1AS2CI0 ACC ASOCTD E SLP198

CYYC;2008-07-01 13:00;CYYC 011300Z 36008KT 20SM FEW120 FEW180 BKN250 17/12 A3013 RMK AC1AS2CI0 ACC ASOCTD NW SLP199

CYYC;2008-07-01 14:00;CYYC 011400Z CCA 34008KT 20SM FEW120 SCT180 BKN250 17/13 A3014 RMK AC1AC3CI0 ACC ASOCTD NW SLP204

CYYC;2008-07-01 15:00;CYYC 011500Z 35008KT 20SM FEW056 FEW120 BKN170 BKN240 19/13 A3016 RMK SC1AC2AC3CI0 ACC ASOCTD SLP205

CYYC;2008-07-01 16:00;CYYC 011600Z 01011KT 20SM FEW061TCU SCT120 BKN170 BKN240 20/11 A3015 RMK TCU2AC2AC2CI0 SLP204

CYYC;2008-07-01 17:00;CYYC 011700Z 35007KT 20SM FEW061TCU SCT100 BKN170 BKN240 20/10 A3016 RMK TCU1ACC2AC2CI1 SLP205

CYYC;2008-07-01 18:00;CYYC 011800Z 01004KT 20SM SCT066 BKN140 BKN170 OVC240 20/10 A3017 RMK AC3AC2AC1CI1 SLP211

CYYC;2008-07-01 19:00;CYYC 011900Z 04006KT 15SM BKN067 BKN160 OVC230 21/09 A3017 RMK AC5AC2CI1 SLP213

CYYC;2008-07-01 20:00;CYYC 012000Z 17002KT 20SM BKN070 BKN140 OVC230 20/10 A3017 RMK AC5AC2CI1 SLP213

CYYC;2008-07-01 21:00;CYYC 012100Z 23014KT 15SM FEW040 SCT070 BKN160 OVC230 20/13 A3017 RMK CU1AC3AC2CI1 SLP217

CYYC;2008-07-01 22:00;CYYC 012200Z 23011KT 15SM FEW040 BKN074 BKN140 OVC210 19/13 A3018 RMK CU1AC5AC1CS1 SLP218

CYYC;2008-07-01 23:00;CYYC 012300Z 25009KT 15SM FEW045 SCT078 BKN095 OVC200 20/13 A3016 RMK CU1AC4ACC2CS2 SLP213

CYYC;2008-07-02 00:00;CYYC 020000Z 23008KT 15SM FEW045 FEW079 BKN180 OVC230 19/12 A3016 RMK CU1AC2AC2CS2 SLP212

CYYC;2008-07-02 01:00;CYYC 020100Z 23007KT 25SM SCT082 BKN160 OVC200 19/12 A3015 RMK AC3AC2CS2 SLP209

CYYC;2008-07-02 02:00;CYYC 020200Z 22004KT 30SM FEW085 BKN160 OVC220 19/11 A3014 RMK AC2AS4CS2 SLP206

CYYC;2008-07-02 03:00;CYYC 020300Z 19004KT 20SM SCT079 BKN160 OVC240 19/12 A3014 RMK AC3AS2CS3 SLP201

CYYC;2008-07-02 04:00;CYYC 020400Z 19004KT 20SM FEW080 BKN160 OVC230 18/12 A3014 RMK AC2AS2CI3 SLP203

CYYC;2008-07-02 05:00;CYYC 020500Z 19002KT 15SM SCT083 BKN180 OVC240 17/12 A3014 RMK AC3AC2CI2 SLP203

CYYC;2008-07-02 06:00;CYYC 020600Z 19003KT 15SM BKN085 OVC240 16/13 A3015 RMK AC6CI1 SLP205

CYYC;2008-07-02 07:00;CYYC 020700Z 19003KT 15SM BKN100 BKN180 OVC240 17/13 A3014 RMK AC6AC2CI0 SLP204

CYYC;2008-07-02 08:00;CYYC 020800Z 00000KT 15SM SCT100 BKN180 BKN240 14/13 A3015 RMK AC3AC2CI1 SLP206

CYYC;2008-07-02 09:00;CYYC 020900Z 12006KT 15SM FEW100 BKN180 BKN240 14/12 A3014 RMK AC2AC2CI1 SLP207

CYYC;2008-07-02 10:00;CYYC 021000Z 16004KT 10SM BKN160 OVC220 15/13 A3014 RMK AS6CS2 SLP207

CYYC;2008-07-02 11:00;CYYC 021100Z 15005KT 10SM BKN100 BKN180 OVC240 14/14 A3013 RMK AC5AC1CI1 SLP205

CYYC;2008-07-02 12:00;CYYC 021200Z 17006KT 10SM BKN140 BKN180 OVC220 14/13 A3013 RMK AC5AC2CI1 SLP204

CYYC;2008-07-02 13:00;CYYC 021300Z 14006KT 10SM SCT088 BKN160 OVC220 16/13 A3013 RMK AC3AC3CI2 SLP203

CYYC;2008-07-02 14:00;CYYC 021400Z 18004KT 15SM FEW030 SCT090 OVC120 16/13 A3013 RMK SC1AC3AC5 VIS S LWR IN FOG SLP204

CYYC;2008-07-02 15:00;CYYC 021500Z 18008KT 15SM BKN083 OVC120 16/13 A3013 RMK AC5AC3 SLP203

CYYC;2008-07-02 16:00;CYYC 021600Z 19006KT 15SM FEW083 OVC120 16/12 A3013 RMK AC2AC6 SLP201

CYYC;2008-07-02 16:42;CYYC 021642Z 19006KT 15SM -SHRA SCT083 OVC120 16/ RMK AC3AC5 CVCTV CLD EMBD

CYYC;2008-07-02 17:00;CYYC 021700Z 21007KT 15SM -SHRA BKN081 OVC120 16/14 A3012 RMK AC5AC3 CVCTV CLD EMBD SLP199

CYYC;2008-07-02 18:00;CYYC 021800Z 19011KT 25SM -SHRA FEW040 BKN076 OVC120 16/13 A3011 RMK SC1AC6AC2 CVCTV CLD EMBD / PCPN VRY LGT SLP200

CYYC;2008-07-02 18:51;CYYC 021851Z 18015KT 25SM FEW040 BKN090 OVC120 16/ RMK CU1AC6AC2

CYYC;2008-07-02 19:00;CYYC 021900Z 19013G18KT 25SM FEW040 BKN080 OVC120 15/11 A3012 RMK CU1AC6AC2 SLP201

CYYC;2008-07-02 20:00;CYYC 022000Z 19014G19KT 25SM FEW040 BKN075 OVC110 16/11 A3010 RMK CU1AC6AC2 SLP197

CYYC;2008-07-02 21:00;CYYC 022100Z 18010G15KT 25SM FEW040 BKN070 BKN110 BKN210 18/12 A3010 RMK CU1AC5AC2CI1 SLP195

CYYC;2008-07-02 22:00;CYYC 022200Z 17015KT 25SM FEW040 BKN083 BKN110 BKN240 21/11 A3007 RMK CU1AC5AC1CI0 SLP188

CYYC;2008-07-02 23:00;CYYC 022300Z 15012KT 20SM FEW040 BKN083 BKN110 BKN230 21/11 A3008 RMK CU1AC5AC2CI0 CB SW + NW SLP189

CYYC;2008-07-03 00:00;CYYC 030000Z 15008KT 15SM FEW035 FEW083 SCT140 BKN230 20/11 A3008 RMK CU1AC2AC2CI4 CB SW-NW SLP185

CYYC;2008-07-03 01:00;CYYC 030100Z 18006KT 15SM FEW035 SCT150 BKN220 20/14 A3006 RMK CU1AC3CS2 SLP180

CYYC;2008-07-03 02:00;CYYC 030200Z 18007KT 15SM FEW040 SCT140 BKN250 19/14 A3005 RMK CU1AC2CI2 SLP176

CYYC;2008-07-03 03:00;CYYC 030300Z 18007KT 15SM FEW040 SCT130 BKN250 18/14 A3004 RMK CU1AC2CI2 SLP172

CYYC;2008-07-03 04:00;CYYC 030400Z 15006KT 15SM FEW060 BKN140 OVC240 17/14 A3004 RMK SC1AS4CS2 SLP172

CYYC;2008-07-03 05:00;CYYC 030500Z 14007KT 15SM FEW100 SCT160 BKN240 15/14 A3004 RMK AC2AS2CS1 SLP171

CYYC;2008-07-03 06:00;CYYC 030600Z 16005KT 15SM FEW120 BKN250 15/14 A3004 RMK AC1CI2 SLP175

CYYC;2008-07-03 07:00;CYYC 030700Z 14005KT 15SM FEW140 FEW250 14/13 A3003 RMK AC1CI1 SLP172

CYYC;2008-07-03 08:00;CYYC 030800Z 13004KT 10SM FEW160 FEW250 13/13 A3002 RMK AC1CI1 SLP171

CYYC;2008-07-03 09:00;CYYC 030900Z 18003KT 10SM FEW160 SCT250 12/11 A3002 RMK AC1CI2 SLP169

CYYC;2008-07-03 10:00;CYYC 031000Z CCA 16003KT 1/8SM FG VV001 12/12 A3002 RMK FG8 RVR RWY34 1600 FT SLP169

CYYC;2008-07-03 11:00;CYYC 031100Z 19003KT 1/4SM FG VV001 12/12 A3001 RMK FG8 RVR RWY16 1600 FT SLP167

CYYC;2008-07-03 12:00;CYYC 031200Z 20004KT 10SM SCT220 11/09 A3001 RMK CI2 SLP164

CYYC;2008-07-03 12:15;CYYC 031215Z 21003KT 10SM SCT240 11/ RMK CI2 VIS N-E 11/2 IN FG BANK

CYYC;2008-07-03 13:00;CYYC 031300Z 22002KT 25SM FEW035 FEW240 12/11 A3001 RMK CF1CI1 SLP165

CYYC;2008-07-03 14:00;CYYC 031400Z 00000KT 25SM FEW230 14/13 A3000 RMK CI1 SLP162

CYYC;2008-07-03 15:00;CYYC 031500Z 19004KT 25SM FEW230 18/14 A2999 RMK CI1 SLP153

CYYC;2008-07-03 16:00;CYYC 031600Z 19007KT 25SM FEW230 20/14 A2999 RMK CI1 SLP151

CYYC;2008-07-03 17:00;CYYC 031700Z 17008KT 25SM FEW040 FEW230 22/13 A2997 RMK CU1CI1 SLP147

CYYC;2008-07-03 18:00;CYYC 031800Z 19008KT 25SM FEW044 FEW230 25/13 A2996 RMK CU1CI1 SLP138

CYYC;2008-07-03 19:00;CYYC 031900Z 14009KT 25SM FEW052 FEW220 27/14 A2996 RMK CU1CI1 SLP136

CYYC;2008-07-03 20:00;CYYC 032000Z 20005KT 20SM FEW060 FEW180 SCT210 BKN260 27/13 A2994 RMK CU1AC1CI1CI0 SLP131

CYYC;2008-07-03 21:00;CYYC 032100Z 15009G16KT 20SM FEW060 FEW180 FEW210 BKN260 27/13 A2992 RMK CU1AC1CI1CI0 SLP122

CYYC;2008-07-03 22:00;CYYC 032200Z 17011KT 20SM FEW065 FEW140 FEW180 BKN250 28/13 A2990 RMK CU1AC2AC1CI1 SLP117

CYYC;2008-07-03 23:00;CYYC 032300Z CCA 14013KT 20SM FEW065 FEW140 FEW180 BKN220 28/13 A2989 RMK CU1AC1AC1CI1 CB + SH W SLP114

CYYC;2008-07-04 00:00;CYYC 040000Z 15009KT 20SM FEW065 FEW130 SCT170 BKN230 26/15 A2988 RMK CU1AC1AC4CI1 CB + SH W SLP113

CYYC;2008-07-04 01:00;CYYC 040100Z 15010KT 20SM FEW065 SCT160 SCT180 BKN230 27/15 A2986 RMK CU1AC3AC1CI2 SLP106

CYYC;2008-07-04 02:00;CYYC 040200Z 16010KT 20SM FEW065 SCT150 BKN240 25/15 A2985 RMK CU1AC3CI2 SLP103

CYYC;2008-07-04 03:00;CYYC 040300Z 15008KT 20SM FEW065 SCT150 BKN240 24/15 A2982 RMK CU1AC3CI2 SLP086

CYYC;2008-07-04 04:00;CYYC 040400Z 16008KT 20SM FEW070 SCT150 BKN240 22/15 A2982 RMK AC1AC3CI2 SLP086

CYYC;2008-07-04 05:00;CYYC 040500Z 17007KT 15SM FEW080 SCT150 BKN240 21/15 A2983 RMK AC2AC2CI2 SLP088

CYYC;2008-07-04 06:00;CYYC 040600Z 00000KT 15SM FEW150 BKN250 22/15 A2982 RMK AC1CI2 SLP080

CYYC;2008-07-04 07:00;CYYC 040700Z 09004KT 15SM FEW150 BKN220 19/15 A2982 RMK AC1CI2 SLP078

CYYC;2008-07-04 08:00;CYYC 040800Z CCA 32004KT 15SM FEW160 BKN230 18/14 A2980 RMK AC1CI2 SLP074

CYYC;2008-07-04 09:00;CYYC 040900Z 00000KT 15SM FEW150 BKN230 15/13 A2979 RMK AC1CI2 SLP073

CYYC;2008-07-04 10:00;CYYC 041000Z 29002KT 15SM FEW150 BKN240 15/13 A2980 RMK AC2CI2 SLP076

CYYC;2008-07-04 11:00;CYYC 041100Z 34006KT 15SM FEW150 OVC240 16/11 A2980 RMK AC2CI6 SLP076

CYYC;2008-07-04 12:00;CYYC 041200Z 35004KT 20SM FEW150 OVC240 16/10 A2979 RMK AC2CI5 SLP073

CYYC;2008-07-04 13:00;CYYC 041300Z 34004KT 15SM FEW150 BKN240 17/11 A2980 RMK AC2CI4 SLP076

CYYC;2008-07-04 14:00;CYYC 041400Z 32006KT 20SM FEW130 FEW160 BKN220 OVC250 18/11 A2980 RMK AC1AC1CI4CI1 SLP077

CYYC;2008-07-04 15:00;CYYC 041500Z 18006KT 25SM FEW024TCU FEW170 BKN210 OVC250 18/12 A2981 RMK TCU1AC2CI6CI0 VIS LWR SE-S/TCU TR SLP082

CYYC;2008-07-04 16:00;CYYC 041600Z 11003KT 25SM FEW024TCU BKN140 OVC200 19/12 A2977 RMK TCU1AC6CI2 SLP070

CYYC;2008-07-04 17:00;CYYC 041700Z 14006KT 30SM SCT140 BKN160 BKN200 BKN240 20/13 A2977 RMK AC3AS2CI1CI0 SLP068

CYYC;2008-07-04 18:00;CYYC 041800Z 15004KT 30SM FEW150 BKN200 BKN250 23/13 A2975 RMK AC2CI2CI0 SLP056

CYYC;2008-07-04 19:00;CYYC 041900Z 19007KT 30SM FEW150 BKN200 BKN250 25/13 A2973 RMK AC1CI1CI0 SLP052

CYYC;2008-07-04 20:00;CYYC 042000Z 19005KT 30SM FEW060 FEW140 SCT180 BKN220 28/14 A2971 RMK CU1AC1AC1CI0 SLP044

CYYC;2008-07-04 21:00;CYYC 042100Z 16008KT 30SM FEW060 FEW130 SCT180 BKN220 27/12 A2971 RMK CU1AC1AC2CI1 CS ASOCTD SLP044

CYYC;2008-07-04 22:00;CYYC 042200Z 16014G19KT 30SM SCT058TCU BKN075 BKN120 27/12 A2967 RMK TCU3AC3AC1 DIST SH SW-NE SLP034

CYYC;2008-07-04 22:30;CYYC 042230Z 20015KT 20SM -SHRA FEW052TCU BKN080 25/ RMK TCU2AC5

CYYC;2008-07-04 23:00;CYYC 042300Z 32005KT 20SM -SHRA FEW011 SCT021TCU OVC062 21/16 A2967 RERA RMK SC1TCU2SC3 SLP034

CYYC;2008-07-04 23:26;CYYC 042326Z 25003KT 30SM FEW016 SCT036TCU BKN060 23/ RMK SC1TCU2SC3 DIST SH ALQDS

CYYC;2008-07-04 23:46;CYYC 042346Z 19004KT 30SM -SHRA FEW016 SCT032TCU BKN060 BKN120 24/ RMK SC1TCU2SC2AC1

CYYC;2008-07-05 00:00;CYYC 050000Z 17004KT 30SM FEW016 BKN036TCU BKN100 24/16 A2965 RMK SC1TCU4AC2 DIST SH ALQDS/CB EMBD SLP028

CYYC;2008-07-05 00:06;CYYC 050006Z 16003KT 25SM TS BKN036CB BKN100 OVC250 24/ RMK CB5AC2CI0

CYYC;2008-07-05 00:09;CYYC 050009Z 16003KT 25SM -TSRA BKN036CB BKN100 OVC250 24/ RMK CB5AC2CI0

CYYC;2008-07-05 00:21;CYYC 050021Z 27020G32KT 3SM -TSRA BKN012CB BKN060 OVC120 17/ RERA RMK CB5SC2AC1 LTNG OVRHD/WSHFT 0012

CYYC;2008-07-05 01:00;CYYC 050100Z 10002KT 25SM FEW012TCU BKN024 BKN080 BKN120 OVC220 21/13 A2965 RETSRA RMK TCU2SC2AC1AC0CI0 DIST SH ALQDS SLP028

CYYC;2008-07-05 02:00;CYYC 050200Z 23011KT 20SM FEW040 FEW070CB BKN170 BKN250 21/15 A2963 RMK CU2CB1AC3CI1 SLP022

CYYC;2008-07-05 03:00;CYYC 050300Z 32019G25KT 20SM FEW040 SCT070CB BKN120 OVC250 22/10 A2968 RMK CU1CB2AC3CI1 VIRGA S-W SLP039

CYYC;2008-07-05 04:00;CYYC 050400Z CCA 33010KT 15SM FEW070CB BKN120 OVC240 20/10 A2971 RMK CB1AC5CI1 SH ALQDS SLP047

CYYC;2008-07-05 05:00;CYYC 050500Z 32013KT 15SM -TSRA SCT050CB OVC100 18/11 A2973 RMK CB4AC3 SLP053

CYYC;2008-07-05 05:40;CYYC 050540Z 33007KT 15SM FEW090 BKN130 17/ RETS RMK AC2AC3

CYYC;2008-07-05 06:00;CYYC 050600Z 31008KT 15SM FEW130 17/12 A2974 RETS RMK AC1 SLP061

CYYC;2008-07-05 07:00;CYYC 050700Z 35006KT 15SM FEW086 SCT140 16/11 A2977 RMK AC1AC1 SLP068

CYYC;2008-07-05 08:00;CYYC 050800Z 36006KT 15SM FEW082 SCT140 16/10 A2980 RMK AC1AC1 SLP078

CYYC;2008-07-05 09:00;CYYC 050900Z 31009KT 15SM FEW085 SCT140 14/10 A2980 RMK AC1AC1 SLP076

CYYC;2008-07-05 10:00;CYYC 051000Z 31007KT 15SM FEW085 FEW160 17/10 A2979 RMK AC1AC0 SLP073

CYYC;2008-07-05 11:00;CYYC 051100Z 24002KT 20SM FEW085 FEW140 SCT250 13/10 A2979 RMK AC1AC1CI1 SLP074

CYYC;2008-07-05 12:00;CYYC 051200Z CCA 21004KT 20SM FEW085 FEW140 SCT250 13/10 A2980 RMK AC1AC1CI1 SLP084

CYYC;2008-07-05 13:00;CYYC 051300Z CCA 35002KT 30SM FEW050 FEW110 FEW240 14/10 A2981 RMK CU1AC1CI0 CU TR SLP086

CYYC;2008-07-05 14:00;CYYC 051400Z 31005KT 40SM FEW050 FEW120 FEW240 18/09 A2981 RMK CU1AC1CI0 TR CU SLP087

CYYC;2008-07-05 15:00;CYYC 051500Z 29012KT 40SM FEW040 FEW120 FEW240 20/07 A2981 RMK CU1AC1CI0 ACSL E/ALL CLD TR SLP080

CYYC;2008-07-05 16:00;CYYC 051600Z 28012KT 40SM FEW040 FEW120 21/09 A2981 RMK CU1AC1 SLP081

CYYC;2008-07-05 17:00;CYYC 051700Z 33010KT 40SM FEW050 22/08 A2982 RMK CU1 SLP085

CYYC;2008-07-05 18:00;CYYC 051800Z 35006KT 40SM FEW058 FEW170 22/07 A2983 RMK CU2AC1 TR AC SLP091

CYYC;2008-07-05 19:00;CYYC 051900Z 06007KT 40SM FEW072 FEW110 FEW170 23/09 A2982 RMK CU2AC1AC1 TR AC SLP089

CYYC;2008-07-05 20:00;CYYC 052000Z 09004KT 40SM BKN080 BKN120 22/10 A2983 RMK CU6AC1 TCU EMBD/DIST SH SE-S SLP091

CYYC;2008-07-05 20:33;CYYC 052033Z 08008KT 40SM -SHRA SCT078 BKN082TCU BKN100 21/ RMK CF3TCU2AC1

CYYC;2008-07-05 21:00;CYYC 052100Z 10010KT 40SM SCT080 BKN100 22/10 A2982 RMK CU4AC2 TCU ASOCTD SLP093

CYYC;2008-07-05 22:00;CYYC 052200Z 11007KT 30SM FEW080 SCT100 BKN120 22/09 A2982 RMK CF1CU4AC1 TR TCU ASOCTD/VIRGA SW SLP091

CYYC;2008-07-05 23:00;CYYC 052300Z 12007KT 30SM FEW092 FEW110 FEW180 24/10 A2980 RMK CU1CU1AC1 DIST SH SW SLP087

CYYC;2008-07-06 00:00;CYYC 060000Z 16009KT 30SM FEW065 FEW080 FEW170 24/10 A2980 RMK SC2CU1AC1 DIST SH S-W/TR CU SLP085

CYYC;2008-07-06 01:00;CYYC 060100Z 15009KT 40SM -SHRA FEW040 SCT065 BKN120 BKN250 23/10 A2980 RMK CU1SC3AC4CI0 TCU ASOCTD SLP085

CYYC;2008-07-06 01:38;CYYC 060138Z 23009KT 40SM FEW042 SCT095 BKN120 23/ RMK CU1AC3AC2

CYYC;2008-07-06 02:00;CYYC 060200Z 23011KT 40SM FEW040 FEW090 FEW120 FEW250 23/10 A2980 RMK CU1AC1AC1CI1 VIRGA NE SLP085

CYYC;2008-07-06 03:00;CYYC 060300Z 23007KT 40SM FEW048 FEW090 FEW120 BKN250 21/09 A2980 RMK CU1AC1AC1CI0 SLP080

CYYC;2008-07-06 04:00;CYYC 060400Z 19005KT 40SM FEW040 FEW090 SCT140 BKN250 19/08 A2981 RMK SC1AC1AC1CI0 ACSL SLP082

CYYC;2008-07-06 05:00;CYYC 060500Z 23007KT 15SM FEW040 FEW100 BKN250 19/06 A2981 RMK SC1AC1CI0 SLP083

CYYC;2008-07-06 06:00;CYYC 060600Z 27011G16KT 15SM FEW140 BKN250 18/07 A2982 RMK AC1CI0 SLP085

CYYC;2008-07-06 07:00;CYYC 060700Z ///// SKC RMK ALTM MISG

CYYC;2008-07-06 08:00;CYYC 060800Z 06005KT 15SM FEW120 FEW140 15/08 A2984 RMK AC1AC1 SLP093

CYYC;2008-07-06 09:00;CYYC 060900Z 32005KT 15SM FEW120 14/08 A2985 RMK AC1 SLP102

CYYC;2008-07-06 10:00;CYYC 061000Z 35003KT 15SM FEW140 14/08 A2985 RMK AC2 SLP102

CYYC;2008-07-06 11:00;CYYC 061100Z 36008KT 15SM FEW040 FEW140 FEW250 12/08 A2986 RMK SC1AC1CI0 SLP108

CYYC;2008-07-06 12:00;CYYC 061200Z 34003KT 30SM FEW040 BKN110 BKN130 12/10 A2987 RMK SC1AC6AC1 SLP110

CYYC;2008-07-06 13:00;CYYC 061300Z CCA 35004KT 40SM FEW020 BKN110 BKN250 13/12 A2988 RMK CU1AC6CI0 SLP113

CYYC;2008-07-06 14:00;CYYC 061400Z 36005KT 40SM FEW020 SCT140 BKN230 13/12 A2988 RMK CU1AC4CI1 SLP113

CYYC;2008-07-06 15:00;CYYC 061500Z 04003KT 40SM FEW045 SCT140 BKN230 15/13 A2989 RMK CU1AC3CI2 SLP116

CYYC;2008-07-06 16:00;CYYC 061600Z 01004KT 30SM FEW050 FEW140 SCT180 BKN230 17/13 A2988 RMK SC1AC2AC2CI2 SLP114

CYYC;2008-07-06 17:00;CYYC 061700Z 05003KT 30SM FEW050 FEW140 BKN220 18/12 A2988 RMK SC1AC1CI2 SLP114

CYYC;2008-07-06 18:00;CYYC 061800Z 08003KT 40SM FEW050 FEW140 SCT180 BKN220 20/12 A2986 RMK CU2AC1AC1CI2 SLP104

CYYC;2008-07-06 19:00;CYYC 061900Z 06006KT 40SM SCT062 BKN120 BKN180 OVC220 21/12 A2985 RMK CU3AC2AC1CI1 TCU EMBD SLP102

CYYC;2008-07-06 19:40;CYYC 061940Z 15005KT 40SM TS VCSH SCT044CB SCT080 SCT120 OVC220 19/ RMK CB3AC1AC1CI2 CB + SH W

CYYC;2008-07-06 20:00;CYYC 062000Z 12002KT 40SM TS VCSH FEW044CB SCT080 OVC220 20/12 A2984 RMK CB2AC1CI2 CB NE + E / SH E / LTGCG E SLP098

CYYC;2008-07-06 20:43;CYYC 062043Z 10009KT 40SM FEW043CB SCT097 OVC220 21/ RMK CB1AC4CI2 CB NE-E / SH NE + E + SW

CYYC;2008-07-06 21:00;CYYC 062100Z 09009KT 40SM FEW043CB SCT100 SCT140 OVC220 20/08 A2984 RMK CB1AC4AC1CI2 CB NE-E / SH NE + E + SW SLP101

CYYC;2008-07-06 22:00;CYYC 062200Z 08010KT 40SM SCT061TCU BKN082 BKN140 OVC220 20/12 A2981 RMK TCU3AC2AC1CI2 DIST CB NE / SH SSW + W + N SLP092

CYYC;2008-07-06 23:00;CYYC 062300Z 08010KT 40SM BKN059TCU BKN096 BKN200 20/12 A2981 RMK TCU5AC2CI1 CB NE / SH NE SLP094

CYYC;2008-07-07 00:00;CYYC 070000Z 08010KT 40SM FEW060CB FEW100 SCT200 20/12 A2982 RMK CB1AC1CI1 CB + SH E SLP099

CYYC;2008-07-07 01:00;CYYC 070100Z 05010KT 40SM VCSH FEW055CB SCT100 BKN210 18/13 A2984 RMK CB1AC2CI1 CB E + NW / SH NE-SE SLP105

CYYC;2008-07-07 02:00;CYYC 070200Z 01015KT 30SM BKN080 BKN120 BKN240 16/11 A2989 RMK AC4AC1CI0 CB E+W/LTGCG W SLP119

CYYC;2008-07-07 02:32;CYYC 070232Z 03013KT 20SM TS BKN060CB BKN082 15/ RMK CB4AC2 CB E+W+SW / LTGCG W / SH W

CYYC;2008-07-07 02:42;CYYC 070242Z 02012G17KT 15SM -TSRA SCT020 OVC082CB 15/ RMK SC2CB5 LTGCG W+E

CYYC;2008-07-07 03:00;CYYC 070300Z 36014G21KT 8SM -TSRA FEW020 OVC040CB 15/13 A2995 RMK SC2CB6 LTGCG + IC / LTG ALQDS / PRESRR / VIS SW 20 SLP148

CYYC;2008-07-07 04:00;CYYC 070400Z 36012G21KT 15SM FEW020 FEW040CB BKN090 12/10 A2996 RETS RMK CU1CB1AC6 CB SW+E+S / SH SW+NE SLP151

CYYC;2008-07-07 04:45;CYYC 070445Z 27006KT 15SM -SHRA BKN067 12/ RMK AC6

CYYC;2008-07-07 05:00;CYYC 070500Z 27006KT 15SM -SHRA BKN067 BKN090 12/10 A2999 RMK AC6AC1 VIRGA N SLP160

CYYC;2008-07-07 05:11;CYYC 070511Z 25007KT 15SM BKN067 BKN090 12/ RMK AC4AC1

CYYC;2008-07-07 06:00;CYYC 070600Z 25009KT 15SM FEW080 FEW160 11/10 A2999 RMK AC1AC0 SLP160

CYYC;2008-07-07 07:00;CYYC 070700Z 26006KT 15SM FEW060 SCT100 BKN240 11/09 A2999 RMK SC1AC2CI1 SLP159

CYYC;2008-07-07 08:00;CYYC 070800Z 25006KT 15SM FEW240 11/09 A2998 RMK CI1 SLP157

CYYC;2008-07-07 09:00;CYYC 070900Z 26005KT 15SM FEW240 11/08 A2999 RMK CI0 SLP157

CYYC;2008-07-07 10:00;CYYC 071000Z 26004KT 15SM FEW120 FEW240 12/08 A2999 RMK AC2CI0 SLP157

CYYC;2008-07-07 11:00;CYYC 071100Z 33006KT 15SM FEW090 10/08 A2999 RMK AC1 VIRGA NE SLP158

CYYC;2008-07-07 12:00;CYYC 071200Z 32006KT 40SM FEW090 09/07 A3000 RMK AC1 VIRGA NE SLP165

CYYC;2008-07-07 13:00;CYYC 071300Z 24002KT 40SM FEW090 BKN130 10/08 A3002 RMK AC1AC7 SLP169

CYYC;2008-07-07 14:00;CYYC 071400Z 00000KT 40SM FEW050 BKN100 BKN240 12/09 A3002 RMK CU1AC6CI1 CU TR SLP169

CYYC;2008-07-07 15:00;CYYC 071500Z 33006KT 40SM FEW050 FEW110 FEW240 15/10 A3001 RMK CU1AC1CI0 SLP167

CYYC;2008-07-07 16:00;CYYC 071600Z 04004KT 40SM FEW050 FEW110 FEW250 16/09 A3001 RMK CU1AC1CI1 AC+CI TR SLP166

CYYC;2008-07-07 17:00;CYYC 071700Z 23003KT 40SM FEW050 FEW110 SCT250 17/08 A3001 RMK CU2AC1CI0 SLP168

CYYC;2008-07-07 18:00;CYYC 071800Z 07005KT 40SM FEW045 BKN180 BKN250 17/09 A3000 RMK CU2AC5CI1 CI TR SLP167

CYYC;2008-07-07 19:00;CYYC 071900Z 09005KT 30SM FEW050 BKN180 BKN250 18/09 A2999 RMK CU2AC5CI0 SLP164

CYYC;2008-07-07 20:00;CYYC 072000Z 07006KT 25SM SCT043 BKN160 BKN250 18/10 A2998 RMK CU4AC2CI1 SLP161

CYYC;2008-07-07 21:00;CYYC 072100Z 09008KT 25SM SCT042 BKN110 BKN180 OVC250 19/10 A2996 RMK CU3AC2AC1CI1 SLP150

CYYC;2008-07-07 21:09;CYYC 072109Z 11007KT 20SM TS VCSH FEW047 BKN070CB BKN180 OVC250 19/ RMK CU2CB3AC2CI1 SH N

CYYC;2008-07-07 21:20;CYYC 072120Z 10009KT 20SM TS VCSH FEW042 BKN070CB BKN120 OVC220 19/ RMK CU2CB5AC1CI1 LTGCC W-N/ HVY SH N

CYYC;2008-07-07 21:25;CYYC 072125Z 11008KT 20SM TS VCSH FEW042 BKN070CB BKN097 OVC220 18/ RMK CU2CB5AC1CI1 LTGCC SW-W-N/ HVY SH N

CYYC;2008-07-07 21:31;CYYC 072131Z 09014KT 15SM -TSRA FEW040 BKN064CB OVC120 18/ RMK CU1CB6AC1 LTGCC SW-W-N/ HVY SH N

CYYC;2008-07-07 21:39;CYYC 072139Z 09011G18KT 10SM +TSRA BKN042CB BKN070 OVC120 17/ RMK CB6AC1AC1 FUNNEL CLOUD REPORTED NW OF ARPT/ LTGCC S-W-N

CYYC;2008-07-07 21:47;CYYC 072147Z 03012G19KT 8SM +TSRA BKN036CB BKN070 OVC110 15/ RMK CB6AC1AC1 FUNNEL CLOUD REPORTED NW OF ARPT/ +TS/LTGCG ALQDS

CYYC;2008-07-07 21:53;CYYC 072153Z CCA 33013G19KT 5/8SM +TSRA BKN036CB BKN070 OVC110 12/ RMK CB6AC1AC1 FUNNEL CLOUD REPORTED NW OF ARPT/ +TS/LTGCG ALQDS

CYYC;2008-07-07 21:57;CYYC 072157Z 33022G28KT 5/8SM TSRAGR BKN036CB BKN070 OVC110 11/ RETS RMK CB6AC1AC1 FUNNEL CLOUD REPORTED NW OF ARPT/ +TS/LTGCG ALQDS/HAIL DIAM 9.0MM

CYYC;2008-07-07 22:00;CYYC 072200Z 35022G28KT 2SM TSRAGR BKN036CB BKN070 OVC110 12/12 A3003 RETS RMK CB6AC1AC1 FUNNEL CLOUD REPORTED NW OF ARPT/LTGCG ALQDS/HAIL DIAM 9.0MM SLP169

CYYC;2008-07-07 22:11;CYYC 072211Z 08006KT 6SM TSRA FEW025 BKN042CB OVC100 13/ RERAGR RMK SC1CB7AC1 LTGCG ALQDS

CYYC;2008-07-07 22:28;CYYC 072228Z 08012G17KT 15SM TS FEW040 BKN070CB OVC100 14/ RERAGR RMK SC1CB5AC2 LTGCG NE-SE

CYYC;2008-07-07 23:00;CYYC 072300Z 08007KT 20SM TS FEW030TCU SCT070CB BKN099 BKN240 16/10 A2999 RERAGR RMK TCU1CB3AC2CI1 /R16/ SLP159

CYYC;2008-07-07 23:39;CYYC 072339Z 36004KT 20SM FEW040TCU BKN100 BKN180 17/ RETS RMK TCU2AC2AC1

CYYC;2008-07-08 00:00;CYYC 080000Z 02007KT 20SM FEW040TCU SCT110 BKN240 17/10 A3001 RETS RMK TCU2AC2CI0 SLP171

CYYC;2008-07-08 01:00;CYYC 080100Z 03008KT 20SM FEW040 SCT100 BKN160 17/10 A3001 RMK CU1AC2AC2 SLP172

CYYC;2008-07-08 02:00;CYYC 080200Z 03006KT 20SM FEW045 BKN110 BKN240 17/12 A3003 RMK CU1AC4CI0 SLP176

CYYC;2008-07-08 03:00;CYYC 080300Z 05004KT 20SM BKN090 17/12 A3004 RMK AC6 SLP174

CYYC;2008-07-08 04:00;CYYC 080400Z 05003KT 20SM BKN060 BKN100 16/12 A3006 RMK SC5AC2 SH + VIRGA NW-E SLP180

CYYC;2008-07-08 05:00;CYYC 080500Z 00000KT 15SM -SHRA BKN060 BKN090 15/12 A3007 RMK SC4AC2 SLP184

CYYC;2008-07-08 06:00;CYYC 080600Z 00000KT 15SM -SHRA BKN090 OVC110 16/10 A3008 RMK AC6AC2 SLP187

CYYC;2008-07-08 06:47;CYYC 080647Z 23002KT 15SM FEW050 BKN090 OVC120 15/ RMK SC1AC6AC2

CYYC;2008-07-08 07:00;CYYC 080700Z 18004KT 15SM OVC100 15/11 A3009 RMK AC7 SLP190

CYYC;2008-07-08 08:00;CYYC 080800Z 26004KT 15SM FEW080 OVC100 15/12 A3009 RMK AC1AC7 SLP192

CYYC;2008-07-08 09:00;CYYC 080900Z 29003KT 15SM FEW070 OVC100 14/12 A3010 RMK AC2AC5 SLP194

CYYC;2008-07-08 10:00;CYYC 081000Z 25002KT 15SM FEW065 BKN080 14/11 A3010 RMK SC2AC5 SLP195

CYYC;2008-07-08 11:00;CYYC 081100Z 00000KT 15SM FEW080 BKN100 13/11 A3011 RMK AC1AC4 SLP196

CYYC;2008-07-08 12:00;CYYC 081200Z 36004KT 20SM FEW070 SCT100 12/10 A3012 RMK AC2AC0 SLP204

CYYC;2008-07-08 13:00;CYYC 081300Z 33006KT 25SM FEW050 FEW100 12/09 A3012 RMK SC1AC1 SLP205

CYYC;2008-07-08 14:00;CYYC 081400Z 34004KT 25SM FEW050 FEW230 13/08 A3011 RMK SC1CI1 SLP203

CYYC;2008-07-08 15:00;CYYC 081500Z 33003KT 25SM FEW140 FEW230 14/08 A3011 RMK AC1CI1 SLP202

CYYC;2008-07-08 16:00;CYYC 081600Z 05002KT 25SM FEW043 FEW230 16/07 A3010 RMK CU1CI1 SLP199

CYYC;2008-07-08 17:00;CYYC 081700Z 00000KT 30SM FEW046 FEW160 FEW230 17/08 A3009 RMK CU1AC1CI0 SLP195

CYYC;2008-07-08 18:00;CYYC 081800Z 12005KT 30SM FEW048 FEW160 FEW230 19/09 A3008 RMK CU1AC1CI1 SLP186

CYYC;2008-07-08 19:00;CYYC 081900Z 13006KT 30SM FEW048 FEW160 19/09 A3005 RMK CU1AC1 SLP177

CYYC;2008-07-08 20:00;CYYC 082000Z 12005KT 30SM FEW050 FEW180 20/10 A3004 RMK CU1AC2 SLP173

CYYC;2008-07-08 21:00;CYYC 082100Z 14006KT 25SM FEW081 FEW100 BKN230 20/09 A3002 RMK CU1AC2CI1 SLP163

CYYC;2008-07-08 22:00;CYYC 082200Z 13008KT 25SM FEW071 SCT100 OVC230 21/10 A3000 RMK CU1AC4CI1 SLP158

CYYC;2008-07-08 23:00;CYYC 082300Z 15007KT 20SM FEW071 BKN100 OVC230 21/10 A2999 RMK CU2AC4CI1 SLP156

CYYC;2008-07-09 00:00;CYYC 090000Z 23009KT 20SM FEW072 BKN100 OVC230 23/09 A2998 RMK CU1AC5CI2 SLP150

CYYC;2008-07-09 01:00;CYYC 090100Z 26013KT 20SM FEW070 FEW100 SCT230 23/06 A2997 RMK CU1AC1CI1 SLP146

CYYC;2008-07-09 02:00;CYYC 090200Z 27011KT 20SM FEW050 FEW120 FEW250 22/06 A2997 RMK CU1AC1CI0 SLP147

CYYC;2008-07-09 03:00;CYYC 090300Z 27009KT 20SM FEW050 FEW120 FEW250 21/06 A2998 RMK CU1AC1CI0 CU TR SLP150

CYYC;2008-07-09 04:00;CYYC 090400Z 29005KT 20SM FEW050 FEW110 FEW250 18/06 A3000 RMK CU1AC1CI0 CU TR SLP155

CYYC;2008-07-09 05:00;CYYC 090500Z 24002KT 15SM FEW110 BKN250 17/06 A3001 RMK AC1CI0 SLP158

CYYC;2008-07-09 06:00;CYYC 090600Z 22003KT 15SM FEW240 16/06 A3001 RMK CI0 SLP159

CYYC;2008-07-09 07:00;CYYC 090700Z 03004KT 15SM FEW240 12/08 A3002 RMK CI1 SLP162

CYYC;2008-07-09 08:00;CYYC 090800Z 33006KT 15SM SCT090 BKN240 13/07 A3001 RMK AC2CI2 SLP159

CYYC;2008-07-09 09:00;CYYC 090900Z 25003KT 15SM SCT100 BKN240 13/08 A3000 RMK AC3CI2 SLP159

CYYC;2008-07-09 10:00;CYYC 091000Z 18002KT 15SM SCT110 BKN220 12/09 A3000 RMK AC3CI2 SLP158

CYYC;2008-07-09 11:00;CYYC 091100Z 12003KT 15SM SCT100 OVC210 12/08 A2997 RMK AC4CI4 SLP151

CYYC;2008-07-09 12:00;CYYC 091200Z CCA 18003KT 20SM SCT100 OVC220 11/08 A2996 RMK AC3CI3 SLP143

CYYC;2008-07-09 13:00;CYYC 091300Z 22003KT 20SM FEW040 SCT100 BKN220 12/08 A2995 RMK CU1AC4CI3 SLP142

CYYC;2008-07-09 14:00;CYYC 091400Z 21004KT 30SM FEW050 FEW100 BKN200 14/08 A2994 RMK SC1AC1CI5 SLP138

CYYC;2008-07-09 15:00;CYYC 091500Z 20004KT 30SM FEW050 FEW100 SCT180 SCT230 16/09 A2993 RMK SC1AC1AC2CI1 SLP128

CYYC;2008-07-09 16:00;CYYC 091600Z 19011KT 30SM FEW050 FEW100 SCT180 BKN230 20/08 A2991 RMK SC1AC1AC2CC2 SLP122

CYYC;2008-07-09 17:00;CYYC 091700Z 13006KT 30SM FEW050 SCT180 BKN230 22/09 A2988 RMK CU1AC2CC2 SLP114

CYYC;2008-07-09 18:00;CYYC 091800Z 27005KT 40SM FEW077 FEW170 FEW230 23/07 A2987 RMK CU1AC1CC1 SLP105

CYYC;2008-07-09 19:00;CYYC 091900Z CCA 23010KT 40SM FEW082 FEW170 FEW240 25/09 A2985 RMK CU2AC1CI1 SLP099

CYYC;2008-07-09 20:00;CYYC 092000Z 25015G20KT 40SM FEW087 FEW110 FEW230 25/04 A2984 RMK CU2AC1CI1 SLP095

CYYC;2008-07-09 21:00;CYYC 092100Z 36023G34KT 30SM BKN089TCU BKN120 BKN230 21/14 A2986 RMK TCU6AC1CI1 CB N / CLDS CVCTNG RPDLY SLP111

CYYC;2008-07-09 22:00;CYYC 092200Z 01015G21KT 30SM FEW090 FEW160 SCT230 20/14 A2986 RMK CU1AC1CC1 CB E SLP111

CYYC;2008-07-09 23:00;CYYC 092300Z 04013G18KT 20SM FEW024 FEW180 BKN200 20/14 A2986 RMK CU1AC1CC4 CB E SLP111

CYYC;2008-07-10 00:00;CYYC 100000Z 04011G16KT 20SM FEW024 FEW160 BKN200 BKN240 20/14 A2985 RMK CU1AC1CC2CI2 DIST CB E SLP110

CYYC;2008-07-10 01:00;CYYC 100100Z 04008KT 20SM FEW028 FEW160 FEW200 SCT240 20/13 A2984 RMK CU1AC1CC1CI1 SLP106

CYYC;2008-07-10 02:00;CYYC 100200Z 06008KT 20SM FEW030 FEW160 FEW250 20/13 A2983 RMK CU1AC1CI1 CU TR SLP103

CYYC;2008-07-10 03:00;CYYC 100300Z 07006KT 20SM FEW035 SCT110 BKN240 18/13 A2983 RMK CU1AC3CI1 SLP097

CYYC;2008-07-10 04:00;CYYC 100400Z 10005KT 20SM FEW080 BKN110 OVC230 18/13 A2981 RMK AC2AC5CI1 SLP093

CYYC;2008-07-10 05:00;CYYC 100500Z 00000KT 15SM FEW080 SCT120 OVC240 17/14 A2981 RMK AC1AC3CI3 SLP092

CYYC;2008-07-10 06:00;CYYC 100600Z 05007KT 15SM FEW130 BKN220 16/14 A2980 RMK AC2CI2 SLP082

CYYC;2008-07-10 07:00;CYYC 100700Z 03007KT 15SM FEW050 SCT110 SCT240 14/13 A2980 RMK SC1AC2CI1 SC TR SLP080

CYYC;2008-07-10 08:00;CYYC 100800Z 32017KT 10SM FEW007 OVC040 14/13 A2981 RMK SF2SC6 SLP085

CYYC;2008-07-10 08:16;CYYC 100816Z CCA 01023G29KT 10SM -SHRA BKN023 OVC045CB 11/ RMK SC6CB2 LTGCG E

CYYC;2008-07-10 08:54;CYYC 100854Z 36012G18KT 10SM BKN032 OVC060CB 11/ RMK SC5CB2 LTGIC E-SE

CYYC;2008-07-10 09:00;CYYC 100900Z 36014KT 12SM BKN034 OVC060CB 10/10 A2982 RMK SC6CB2 LTGIC E-SE SLP098

CYYC;2008-07-10 10:00;CYYC 101000Z 02013G18KT 15SM FEW017 BKN058 BKN071 10/10 A2981 RMK SF1SC5AC2 SLP097

CYYC;2008-07-10 11:00;CYYC 101100Z 35008KT 15SM FEW017 BKN059 OVC084 10/10 A2983 RMK SF1SC5AC2 SLP102

CYYC;2008-07-10 12:00;CYYC 101200Z 33005KT 20SM FEW018 BKN043 OVC084 11/10 A2984 RMK SF2SC5AC2 SLP106

CYYC;2008-07-10 13:00;CYYC 101300Z 35009KT 20SM BKN019 OVC060 09/08 A2984 RMK SC6SC2 SLP106

CYYC;2008-07-10 14:00;CYYC 101400Z 34006KT 20SM FEW019 OVC053 10/07 A2983 RMK SC2SC6 SLP103

CYYC;2008-07-10 15:00;CYYC 101500Z 34005KT 20SM FEW019 FEW026 OVC052 10/07 A2983 RMK SF1SC1SC7 SLP106

CYYC;2008-07-10 16:00;CYYC 101600Z 33007KT 20SM FEW020 FEW035 OVC052 11/08 A2982 RMK SF1SC2SC6 SLP104

CYYC;2008-07-10 17:00;CYYC 101700Z 36008KT 20SM FEW020 BKN040 OVC052 11/07 A2981 RMK SC2SC4SC2 SLP101

CYYC;2008-07-10 18:00;CYYC 101800Z 01006KT 20SM FEW022 BKN042 OVC072 12/07 A2980 RMK SC2SC6AC1 SLP095

CYYC;2008-07-10 19:00;CYYC 101900Z 03009KT 20SM FEW026 SCT032 OVC040 12/07 A2978 RMK SC2SC1SC5 SLP090

CYYC;2008-07-10 20:00;CYYC 102000Z 36012KT 20SM FEW019 OVC036 11/06 A2978 RMK SC1SC7 SLP089

CYYC;2008-07-10 20:56;CYYC 102056Z 03015KT 15SM -RA FEW027 BKN038 OVC059 10/ RMK SC1SC7SC1

CYYC;2008-07-10 21:00;CYYC 102100Z 02014G19KT 12SM -RA FEW027 BKN035 OVC059 10/08 A2976 RMK SC1SC7SC1 SLP092

CYYC;2008-07-10 21:34;CYYC 102134Z 03013KT 20SM FEW018 OVC035 10/ RMK SF1SC8 SH NE

CYYC;2008-07-10 22:00;CYYC 102200Z CCA 01014KT 20SM FEW019 OVC043 10/07 A2978 RMK SC1SC7 SH NE SLP100

CYYC;2008-07-10 22:13;CYYC 102213Z 32016G24KT 12SM -TSRA BKN016 OVC042 09/ RMK SC5SC3 CB EMBD / LTGIC / HVY SH SW-NW / VIS W 7

CYYC;2008-07-10 22:18;CYYC 102218Z CCA 31008G24KT 4SM +TSRAGS BKN016 OVC042 09/ RMK SC5SC3 CB EMBD / LTGCG ALQDS

CYYC;2008-07-10 22:22;CYYC 102222Z 31008G24KT 4SM +TSRAGS FEW007 BKN015 OVC038 09/ RMK SC2SC5SC2 CB EMBD / LTGCG ALQDS VIS E 11/2

CYYC;2008-07-10 22:31;CYYC 102231Z 35009G18KT 12SM -TSRA FEW009 SCT016 BKN029 OVC065 07/ RERA RMK SF2SC2SC1SC3 CB EMBD / LTGCG E

CYYC;2008-07-10 23:00;CYYC 102300Z 36013G20KT 15SM -SHRA FEW009 FEW028 BKN060 08/07 A2981 RETSRA RMK SF1SC2SC6 CB E / HVY SH NE / PRES UNSTDY SLP107

CYYC;2008-07-11 00:00;CYYC 110000Z 28004KT 20SM -RA FEW014 OVC051 08/07 A2983 RMK SF1SC7 SLP119

CYYC;2008-07-11 01:00;CYYC 110100Z 35012KT 20SM -RA FEW022 BKN040 OVC100 09/08 A2981 RMK SF1SC6AC2 SLP113

CYYC;2008-07-11 01:21;CYYC 110121Z 35009G17KT 20SM FEW026 FEW051 OVC100 09/ RMK SC1SC2AC6

CYYC;2008-07-11 02:00;CYYC 110200Z 31012KT 20SM FEW017 OVC023 09/07 A2983 RMK SF1SC8 SLP121

CYYC;2008-07-11 03:00;CYYC 110300Z 36012KT 30SM FEW017 OVC037 09/08 A2985 RMK SC1SC7 SLP127

CYYC;2008-07-11 04:00;CYYC 110400Z 34013G18KT 20SM FEW015 OVC026 08/07 A2988 RMK SC2SC6 SLP136

CYYC;2008-07-11 05:00;CYYC 110500Z 33014G19KT 15SM FEW015 OVC026 07/05 A2990 RMK SC1SC7 SLP142

CYYC;2008-07-11 05:48;CYYC 110548Z CCA 32013G18KT 15SM -RA FEW015 OVC031 06/ RMK SC2SC6

CYYC;2008-07-11 06:00;CYYC 110600Z 32014KT 10SM -RA BKN026 OVC042 06/06 A2992 RMK SC7SC1 SLP153

CYYC;2008-07-11 07:00;CYYC 110700Z 32008KT 10SM -RA OVC038 07/05 A2995 RMK SC8 SLP161

CYYC;2008-07-11 08:00;CYYC 110800Z 32004KT 12SM -RA BKN039 OVC054 07/06 A2999 RMK SC6SC2 SLP172

CYYC;2008-07-11 09:00;CYYC 110900Z 29008KT 15SM -RA BKN052 OVC084 08/05 A3000 RMK SC7AC1 SLP181

CYYC;2008-07-11 09:33;CYYC 110933Z 30009KT 15SM BKN054 BKN076 OVC098 08/ RMK SC5AC2AC1

CYYC;2008-07-11 10:00;CYYC 111000Z 30013G19KT 15SM FEW080 OVC100 08/04 A3002 RMK AC2AC6 SLP187

CYYC;2008-07-11 11:00;CYYC 111100Z 31014KT 20SM FEW080 BKN110 OVC240 08/03 A3004 RMK AC2AC4CI2 SLP193

CYYC;2008-07-11 12:00;CYYC 111200Z 30011G16KT 40SM FEW060 SCT110 BKN230 08/03 A3006 RMK SC1AC2CI2 SLP203

CYYC;2008-07-11 13:00;CYYC 111300Z 31014KT 40SM FEW080 SCT140 BKN250 09/03 A3007 RMK AC1AC1CI2 SLP207

CYYC;2008-07-11 14:00;CYYC 111400Z 31013KT 40SM FEW035 FEW080 FEW250 10/03 A3009 RMK CU1AC1CI1 SLP212

CYYC;2008-07-11 15:00;CYYC 111500Z 32012G21KT 40SM FEW040 FEW090 FEW250 12/03 A3011 RMK CU1AC1CI1 SLP214

CYYC;2008-07-11 16:00;CYYC 111600Z 33019G27KT 40SM FEW045 SCT068 SCT210 13/02 A3012 RMK CU1AC4CI1 ACSL ASOCTD SLP218

CYYC;2008-07-11 17:00;CYYC 111700Z 34019G25KT 40SM FEW060 FEW070 13/00 A3014 RMK CU2AC1 ACSL SE-S SLP223

CYYC;2008-07-11 18:00;CYYC 111800Z 34012G17KT 40SM FEW065 SCT070 SCT095 14/03 A3014 RMK CF1CU4AC1 TCU ASOCTD SLP225

CYYC;2008-07-11 19:00;CYYC 111900Z 31013KT 40SM FEW070 FEW100 15/02 A3014 RMK CU2AC1 TR TCU ASOCTD SLP226

CYYC;2008-07-11 20:00;CYYC 112000Z 30010KT 40SM FEW058 FEW060 SCT090 SCT140 16/04 A3014 RMK CF1CU1CU2AC1 TR TCU ASOCTD SLP226

CYYC;2008-07-11 21:00;CYYC 112100Z 28007G15KT 40SM FEW068 BKN072 16/02 A3014 RMK CF1CU4 SLP220

CYYC;2008-07-11 22:00;CYYC 112200Z 30007KT 40SM FEW068 BKN075 16/03 A3014 RMK CF1CU5 SLP220

CYYC;2008-07-11 23:00;CYYC 112300Z 28014KT 40SM FEW072 SCT085 SCT120 18/03 A3013 RMK CF1CU2AC1 SLP219

CYYC;2008-07-12 00:00;CYYC 120000Z 28011KT 40SM FEW072 FEW080 FEW100 17/01 A3013 RMK CF1CU2AC1 SLP216

CYYC;2008-07-12 01:00;CYYC 120100Z 30011KT 40SM FEW078 FEW090 18/02 A3012 RMK CU1AC1 TR ACSL N-E SLP213

CYYC;2008-07-12 02:00;CYYC 120200Z 32011KT 40SM FEW070 FEW090 18/02 A3013 RMK CU1AC1 BOTH CLDS TR SLP217

CYYC;2008-07-12 03:00;CYYC 120300Z 31007KT 40SM FEW070 FEW090 16/02 A3014 RMK CU1AC1 BOTH CLDS SLP214

CYYC;2008-07-12 04:00;CYYC 120400Z 27005KT 40SM FEW070 FEW100 14/04 A3015 RMK CU1AC1 CU TR SLP217

CYYC;2008-07-12 05:00;CYYC 120500Z 29007KT 15SM FEW100 13/03 A3017 RMK AC1 AC TR SLP222

CYYC;2008-07-12 06:00;CYYC 120600Z 28010KT 15SM FEW100 14/02 A3017 RMK AC1 AC TR SLP225

CYYC;2008-07-12 07:00;CYYC 120700Z 27010G15KT 15SM FEW100 13/02 A3018 RMK AC1 AC TR SLP228

CYYC;2008-07-12 08:00;CYYC 120800Z 28011KT 15SM FEW100 13/01 A3018 RMK AC1 AC TR SLP228

CYYC;2008-07-12 09:00;CYYC 120900Z 28005KT 15SM SKC 12/02 A3019 RMK SLP231

CYYC;2008-07-12 10:00;CYYC 121000Z 34004KT 15SM FEW080 12/02 A3019 RMK AC1 AC TR SLP233

CYYC;2008-07-12 11:00;CYYC 121100Z 32005KT 15SM FEW080 10/03 A3020 RMK AC1 SLP236

CYYC;2008-07-12 12:00;CYYC 121200Z 31004KT 40SM FEW085 FEW250 10/03 A3022 RMK AC1CI1 BOTH CLDS TR SLP243

CYYC;2008-07-12 13:00;CYYC 121300Z 30005KT 40SM FEW090 FEW250 12/03 A3022 RMK AC1CI1 BOTH CLDS TR SLP244

CYYC;2008-07-12 14:00;CYYC 121400Z 29003KT 40SM FEW090 FEW250 14/04 A3022 RMK AC1CI1 ALL CLD TR SLP243

CYYC;2008-07-12 15:00;CYYC 121500Z 31004KT 40SM FEW250 16/05 A3021 RMK CI0 SLP233

CYYC;2008-07-12 16:00;CYYC 121600Z 33004KT 40SM FEW090 OVC250 17/05 A3021 RMK AC1CI1 TR ACSL SW SLP233

CYYC;2008-07-12 17:00;CYYC 121700Z 35002KT 40SM FEW100 FEW240 18/04 A3021 RMK AC1CI0 TR ACSL S-NW SLP231

CYYC;2008-07-12 18:00;CYYC 121800Z 00000KT 40SM FEW055 FEW100 FEW240 19/06 A3018 RMK CU1AC1CI0 TR CU/TR ACSL S-NW SLP223

CYYC;2008-07-12 19:00;CYYC 121900Z 27005KT 40SM FEW058 FEW100 FEW240 20/05 A3017 RMK CU1AC1CI0 ALL CLD TR/ ACSL S-N SLP219

CYYC;2008-07-12 20:00;CYYC 122000Z 22003KT 40SM FEW060 FEW100 FEW240 21/07 A3015 RMK CU1AC1CI0 TR ACSL ALQDS SLP214

CYYC;2008-07-12 21:00;CYYC 122100Z 19005KT 40SM FEW060 FEW100 SCT240 22/05 A3013 RMK CU1AC1CI1 TR ACSL ALQDS SLP203

CYYC;2008-07-12 22:00;CYYC 122200Z 18004KT 40SM FEW070 FEW100 OVC240 23/07 A3012 RMK CU1AC2CI0 ACSL ALQDS SLP199

CYYC;2008-07-12 23:00;CYYC 122300Z 13008KT 40SM FEW070 FEW160 OVC240 23/09 A3009 RMK CU1AC2CI1 ACSL ALQDS/CC ASOCTD SLP192

CYYC;2008-07-13 00:00;CYYC 130000Z 13011G17KT 40SM FEW060 SCT140 OVC200 23/09 A3008 RMK SC1AC3CI1 ACSL ALQDS SLP187

CYYC;2008-07-13 01:00;CYYC 130100Z 15010G15KT 40SM FEW060 SCT140 BKN200 21/08 A3006 RMK SC1AC2CI1 ACSL ALQDS SLP182

CYYC;2008-07-13 02:00;CYYC 130200Z 15009KT 40SM FEW060 FEW110 BKN220 21/09 A3006 RMK CU1AC2CI2 ACSL SSW SLP180

CYYC;2008-07-13 03:00;CYYC 130300Z 16007KT 40SM FEW060 FEW110 BKN220 20/09 A3005 RMK CU1AC2CI2 SLP173

CYYC;2008-07-13 04:00;CYYC 130400Z 00000KT 40SM FEW060 FEW110 BKN230 18/09 A3006 RMK CU1AC2CI2 SLP174

CYYC;2008-07-13 05:00;CYYC 130500Z 18007KT 15SM FEW080 FEW140 BKN230 17/09 A3005 RMK AC1AC2CI2 SLP173

CYYC;2008-07-13 06:00;CYYC 130600Z 22003KT 15SM SCT110 BKN240 17/09 A3005 RMK AC2CI2 SLP170

CYYC;2008-07-13 07:00;CYYC 130700Z 19002KT 15SM FEW110 SCT250 14/09 A3005 RMK AC2CI1 SLP171

CYYC;2008-07-13 08:00;CYYC 130800Z 25002KT 15SM FEW140 BKN250 13/08 A3004 RMK AC2CI2 SLP169

CYYC;2008-07-13 09:00;CYYC 130900Z 00000KT 15SM SCT140 BKN250 14/09 A3003 RMK AC2CI2 SLP166

CYYC;2008-07-13 10:00;CYYC 131000Z 00000KT 15SM SCT140 BKN240 12/08 A3003 RMK AC2CI2 SLP165

CYYC;2008-07-13 11:00;CYYC 131100Z 00000KT 20SM FEW140 BKN230 11/06 A3003 RMK AC2CI2 SLP164

CYYC;2008-07-13 12:00;CYYC 131200Z 21003KT 40SM FEW110 SCT250 10/07 A3001 RMK AC2CI2 SLP163

CYYC;2008-07-13 13:00;CYYC 131300Z 00000KT 40SM FEW050 FEW110 SCT250 12/07 A3001 RMK SC1AC2CI0 SLP162

CYYC;2008-07-13 14:00;CYYC 131400Z 00000KT 40SM FEW050 BKN110 BKN140 13/09 A3001 RMK SC1AC4AC2 DIST SH NE SLP162

CYYC;2008-07-13 15:00;CYYC 131500Z 34008KT 40SM FEW110 16/08 A3002 RMK AC1 ACSL SLP161

CYYC;2008-07-13 16:00;CYYC 131600Z 36010KT 40SM FEW032 FEW110 18/10 A3000 RMK CU1AC1 ACSL SLP157

CYYC;2008-07-13 17:00;CYYC 131700Z 02008KT 40SM FEW032 FEW150 18/10 A3000 RMK CU1AC2 SLP155

CYYC;2008-07-13 18:00;CYYC 131800Z 01008KT 40SM FEW032 FEW160 19/11 A2998 RMK CU1AC1 SLP150

CYYC;2008-07-13 19:00;CYYC 131900Z 04005KT 40SM FEW036TCU FEW150 20/11 A2997 RMK TCU1AC1 DIST SH W-N SLP145

CYYC;2008-07-13 20:00;CYYC 132000Z 04004KT 40SM FEW070TCU SCT120 SCT240 20/12 A2995 RMK TCU1AC2CI0 DIST SH SW-N SLP140

CYYC;2008-07-13 21:00;CYYC 132100Z 09009KT 40SM FEW036TCU FEW120 21/12 A2993 RMK TCU1AC1 SLP131

CYYC;2008-07-13 22:00;CYYC 132200Z 10004KT 30SM FEW040TCU FEW130 21/12 A2991 RMK TCU1AC1 DIST SH NW-N SLP126

CYYC;2008-07-13 23:00;CYYC 132300Z 11005KT 40SM FEW040 FEW140 FEW220 22/11 A2989 RMK CU1AC1CI1 DIST SH W-NE SLP120

CYYC;2008-07-14 00:00;CYYC 140000Z 07007KT 30SM FEW043TCU FEW070 22/12 A2988 RMK TCU2AC1 DIST SH W-N SLP120

CYYC;2008-07-14 01:00;CYYC 140100Z 09007KT 40SM FEW036 FEW080 FEW230 22/12 A2986 RMK CU1AC1CI1 DIST SH W+N-NE SLP113

CYYC;2008-07-14 02:00;CYYC 140200Z 05006KT 30SM SCT060 SCT080CB 21/13 A2987 RMK SC2CB1 CB N-NE SLP116

CYYC;2008-07-14 03:00;CYYC 140300Z 04013G19KT 30SM FEW040 FEW080CB BKN120 16/10 A2990 RMK CF1CB1AC3 CB W - E / SH DSNT NW-NE / CF TR SLP126

CYYC;2008-07-14 04:00;CYYC 140400Z CCA 36010G15KT 30SM FEW060CB FEW120 13/10 A2990 RMK CB1AC1 CB W - E / SH NE / LTGCC NW / VIRGA W SLP126

CYYC;2008-07-14 05:00;CYYC 140500Z 34014KT 15SM -TSRA BKN060CB BKN120 13/10 A2992 RMK CB6AC0 LTGCC+LTGCG SLP133

CYYC;2008-07-14 05:10;CYYC 140510Z 26012KT 1SM +TSRA OVC015CB 12/ RMK CB8 LTGCC+LTGCG

CYYC;2008-07-14 05:17;CYYC 140517Z 18004KT 5SM TSRA FEW015 OVC040CB 10/ RMK CF2CB6 LTGCC+LTGCG ALQDS

CYYC;2008-07-14 06:00;CYYC 140600Z 31005KT 15SM FEW040CB BKN110 11/11 A2994 RETS RMK CB2AC4 LTGCC+LTGCG + SH DSNT N-E SLP143

CYYC;2008-07-14 07:00;CYYC 140700Z 21002KT 15SM BKN060 12/10 A2994 RMK SC6 SLP143

CYYC;2008-07-14 08:00;CYYC 140800Z 27002KT 15SM OVC062 12/11 A2994 RMK SC7 SLP144

CYYC;2008-07-14 08:52;CYYC 140852Z 33003KT 15SM -RA OVC062 12/ RMK SC8

CYYC;2008-07-14 09:00;CYYC 140900Z CCA 36004KT 15SM -RA OVC063 12/11 A2996 RMK SC8 LTNG DSNT NE SLP146

CYYC;2008-07-14 10:00;CYYC 141000Z 34007KT 15SM BKN063 11/09 A2996 RMK SC6 LTNG DSNT E SLP145

CYYC;2008-07-14 11:00;CYYC 141100Z CCA 32002KT 15SM FEW060 10/09 A2995 RMK SC2 CB ASOCTD E / SH DSNT E SLP143

CYYC;2008-07-14 12:00;CYYC 141200Z 23005KT 30SM BKN080 10/08 A2994 RMK AC4 SLP141

CYYC;2008-07-14 13:00;CYYC 141300Z 22005KT 40SM FEW090 11/08 A2994 RMK AC1 SLP139

CYYC;2008-07-14 14:00;CYYC 141400Z 21005KT 40SM FEW012 FEW060 13/09 A2993 RMK CU1SC1 SLP136

CYYC;2008-07-14 15:00;CYYC 141500Z 21004KT 40SM FEW024TCU FEW060 15/09 A2993 RMK TCU1SC1 DIST SH N SLP138

CYYC;2008-07-14 16:00;CYYC 141600Z 02002KT 40SM FEW036TCU FEW060 17/08 A2994 RMK TCU1SC1 DIST SH N SLP141

CYYC;2008-07-14 17:00;CYYC 141700Z 02015KT 40SM FEW020TCU BKN044 BKN130 15/10 A2996 RMK TCU1SC4AC1 DIST SH N SLP146

CYYC;2008-07-14 18:00;CYYC 141800Z 03018KT 40SM FEW020TCU BKN040 14/10 A2997 RMK TCU1SC4 DIST SH S-NW SLP160

CYYC;2008-07-14 19:00;CYYC 141900Z 01012KT 40SM FEW018 FEW042 14/10 A2998 RMK CU2SC0 DIST SH SW-N SLP161

CYYC;2008-07-14 20:00;CYYC 142000Z 04007KT 30SM SCT024 SCT220 15/10 A2998 RMK CU3CI1 DIST SH W-N SLP163

CYYC;2008-07-14 21:00;CYYC 142100Z 02008KT 40SM BKN030 15/09 A2998 RMK CU7 SLP161

CYYC;2008-07-14 22:00;CYYC 142200Z 02012KT 40SM BKN035 BKN250 16/10 A2998 RMK CU6CI0 SLP160

CYYC;2008-07-14 23:00;CYYC 142300Z 06008KT 30SM SCT032 BKN039 16/09 A2999 RMK CU3SC4 SLP162

CYYC;2008-07-15 00:00;CYYC 150000Z 07008KT 30SM FEW032 BKN042 17/09 A2999 RMK CU2SC6 SLP163

CYYC;2008-07-15 01:00;CYYC 150100Z 03006KT 30SM BKN040 OVC230 16/09 A2999 RMK SC6CI0 SLP164

CYYC;2008-07-15 02:00;CYYC 150200Z 08008KT 20SM BKN040 BKN240 16/10 A3000 RMK SC3CI2 SLP168

CYYC;2008-07-15 03:00;CYYC 150300Z 08006KT 20SM BKN060 15/10 A3002 RMK SC6 SLP168

CYYC;2008-07-15 04:00;CYYC 150400Z 09004KT 20SM BKN061 15/10 A3004 RMK SC6 SLP174

CYYC;2008-07-15 05:00;CYYC 150500Z 11005KT 15SM SCT060 14/10 A3004 RMK SC2 SLP176

CYYC;2008-07-15 06:00;CYYC 150600Z 14004KT 15SM BKN060 14/10 A3005 RMK SC6 SLP184

CYYC;2008-07-15 07:00;CYYC 150700Z 14005KT 15SM BKN060 14/10 A3005 RMK SC5 SLP182

CYYC;2008-07-15 08:00;CYYC 150800Z 15007KT 15SM BKN050 14/10 A3003 RMK SC6 SLP176

CYYC;2008-07-15 09:00;CYYC 150900Z 13005KT 15SM OVC050 14/10 A3004 RMK SC7 SLP177

CYYC;2008-07-15 09:36;CYYC 150936Z 20006KT 15SM -RA OVC050 13/ RMK SC8 LTGCG SE

CYYC;2008-07-15 10:00;CYYC 151000Z 18004KT 15SM -RA OVC043 12/11 A3005 RMK SC8 LTGCG DSNT E-S SLP181

CYYC;2008-07-15 11:00;CYYC 151100Z 16007KT 15SM -RA SCT040 BKN075 OVC120 12/11 A3006 RMK SC2AC3AC2 CB ASOCTD N+SE SLP182

CYYC;2008-07-15 11:22;CYYC 151122Z 15009KT 15SM SCT040 OVC080 12/ RMK SC2AC5

CYYC;2008-07-15 12:00;CYYC 151200Z 13009KT 15SM FEW030 SCT060 OVC080 11/10 A3004 RMK CF1SC2AC5 SH DIST E SLP181

CYYC;2008-07-15 13:00;CYYC 151300Z 13008KT 20SM FEW030 BKN046 OVC085 11/08 A3005 RMK CF1SC6AC1 SH N + W SLP184

CYYC;2008-07-15 14:00;CYYC 151400Z 12010KT 20SM FEW025 BKN046 OVC085 11/08 A3006 RMK CF1SC6AC1 SH N SLP186

CYYC;2008-07-15 15:00;CYYC 151500Z 13007KT 20SM FEW025 BKN046 BKN075 OVC120 12/08 A3005 RMK SC1SC6AC1AC1 SLP186

CYYC;2008-07-15 16:00;CYYC 151600Z 13009KT 20SM FEW025 BKN052 OVC075 12/09 A3005 RMK SC1SC6AC1 SLP186

CYYC;2008-07-15 17:00;CYYC 151700Z 15012KT 20SM FEW025 BKN050 BKN065 13/08 A3005 RMK SC1SC6SC1 SLP185

CYYC;2008-07-15 18:00;CYYC 151800Z 15010KT 20SM FEW030 BKN048 BKN065 BKN220 14/09 A3003 RMK SC1SC6SC1CI1 TCU N + W-NW SLP177

CYYC;2008-07-15 19:00;CYYC 151900Z 04009KT 20SM SCT030 SCT048 BKN140 BKN220 16/09 A3002 RMK CU3SC1AC1CI1 CB W + NW SLP173

CYYC;2008-07-15 20:00;CYYC 152000Z 16010KT 20SM -SHRA FEW032 BKN058CB BKN070 BKN220 15/10 A2999 RMK CU1CB5AC1CI1 SLP165

CYYC;2008-07-15 20:49;CYYC 152049Z 16013G18KT 20SM FEW032 SCT042CB BKN100 BKN220 15/ RMK CU1CB2AC3CI1

CYYC;2008-07-15 21:00;CYYC 152100Z CCA 16015KT 20SM FEW032 SCT042CB BKN130 BKN220 15/10 A2998 RMK CU1CB2AC3CI1 CB ALQDS / SH S + W SLP156

CYYC;2008-07-15 22:00;CYYC 152200Z 09005KT 20SM FEW030 BKN088 BKN110 BKN220 15/11 A2998 RMK CU1AC5AC2CI1 CB + SH ALQDS SLP156

CYYC;2008-07-15 23:00;CYYC 152300Z 23008KT 20SM -SHRA FEW026 BKN043CB BKN065 OVC100 15/10 A3001 RMK SC2CB3SC2AC2 CB ALQDS SLP167

CYYC;2008-07-15 23:20;CYYC 152320Z 03015G25KT 25SM FEW026 SCT043CB BKN088 BKN100 13/ RMK SC2CB2AC2AC2 WND SHFT @ 2312Z / CB + SH ALQDS

CYYC;2008-07-16 00:00;CYYC 160000Z 08011KT 25SM FEW026 FEW043CB SCT085 BKN140 15/12 A3001 RMK SC1CB2AC2AC2 CB + SH ALQDS SLP173

CYYC;2008-07-16 01:00;CYYC 160100Z 09005KT 25SM FEW030 FEW075 BKN120 BKN220 15/11 A3002 RMK SC1AC1AC4CI1 CB ALQDS / VIRGA W SLP174

CYYC;2008-07-16 02:00;CYYC 160200Z 06006KT 20SM FEW040 FEW120 FEW210 15/12 A3003 RMK CU2AC1CI1 AC+CI TR SLP179

CYYC;2008-07-16 03:00;CYYC 160300Z 11002KT 20SM FEW050CB FEW120 14/12 A3003 RMK CB1AC1 SLP178

CYYC;2008-07-16 04:00;CYYC 160400Z 21006KT 20SM FEW050CB FEW110 FEW220 13/11 A3004 RMK CB1AC1CI0 SLP182

CYYC;2008-07-16 05:00;CYYC 160500Z 27004KT 15SM FEW090 FEW140 12/11 A3007 RMK AC1AC1 SLP191

CYYC;2008-07-16 06:00;CYYC 160600Z 32006KT 15SM SCT088 BKN130 11/10 A3010 RMK AC4AC1 SLP207

CYYC;2008-07-16 06:30;CYYC 160630Z 36010KT 12SM -RA SCT061 BKN074 BKN100 11/ RMK SC3AC2AC1

CYYC;2008-07-16 07:00;CYYC 160700Z 13006KT 15SM FEW060 FEW110 FEW180 10/09 A3005 RMK SC1AC1AC1 SLP189

CYYC;2008-07-16 08:00;CYYC 160800Z 04002KT 15SM FEW090 FEW140 11/09 A3009 RMK AC2AC1 SLP203

CYYC;2008-07-16 09:00;CYYC 160900Z 20003KT 15SM BKN076 BKN130 10/10 A3010 RMK AC5AC2 SLP206

CYYC;2008-07-16 10:00;CYYC 161000Z 32006KT 15SM FEW090 BKN120 10/09 A3010 RMK AC2AC3 SH DIST S-W SLP205

CYYC;2008-07-16 10:16;CYYC 161016Z 33006KT 15SM -SHRA SCT080 BKN120 10/ RMK AC3AC2 ACC EMBD

CYYC;2008-07-16 11:00;CYYC 161100Z 16006KT 15SM -SHRA FEW070CB FEW090 BKN120 09/08 A3008 RMK CB1AC2AC2 SH VRY LGT SLP199

CYYC;2008-07-16 11:15;CYYC 161115Z 19002KT 15SM FEW070CB FEW090 BKN120 09/ RMK CB1AC2AC2 CB TR

CYYC;2008-07-16 12:00;CYYC 161200Z 06003KT 20SM FEW050 FEW110 09/07 A3008 RMK CU1AC2 SLP201

CYYC;2008-07-16 13:00;CYYC 161300Z 33006KT 30SM FEW050 FEW120 09/07 A3009 RMK CU1AC2 SLP204

CYYC;2008-07-16 14:00;CYYC 161400Z 34003KT 30SM FEW050 FEW120 FEW200 10/09 A3010 RMK CU1AC1CC1 SLP207

CYYC;2008-07-16 15:00;CYYC 161500Z 36003KT 40SM FEW017 SCT028 SCT120 13/10 A3011 RMK CF1SC2AC1 SLP207

CYYC;2008-07-16 16:00;CYYC 161600Z 36005KT 40SM FEW018 FEW030 FEW120 14/10 A3012 RMK CU1SC1AC1 DIST TCU NW SLP209

CYYC;2008-07-16 17:00;CYYC 161700Z 33006KT 30SM FEW025 FEW040 FEW120 15/10 A3012 RMK CU1SC1AC1 DIST CB N / TCU NW SLP209

CYYC;2008-07-16 18:00;CYYC 161800Z 35005KT 30SM FEW030 FEW160 17/10 A3012 RMK CU1AC1 TCU SW + NW SLP208

CYYC;2008-07-16 19:00;CYYC 161900Z CCA 03006KT 30SM FEW036 FEW070 18/10 A3010 RMK CU1AC1 CB NW CVCTNG RPDLY SLP202

CYYC;2008-07-16 20:00;CYYC 162000Z 01005KT 30SM FEW040 SCT220 18/09 A3011 RMK CU2CI1 CB + SH W-N SLP205

CYYC;2008-07-16 20:25;CYYC 162025Z CCA 02009KT 30SM TS SCT038CB SCT085 BKN220 17/ RMK CB4AC1CI1 LTGCG W / SH W

CYYC;2008-07-16 20:36;CYYC 162036Z 02010G16KT 20SM -TSRA BKN038CB BKN085 BKN220 17/ RMK CB5AC2CI1 LTGCG W

CYYC;2008-07-16 21:00;CYYC 162100Z 02007G15KT 20SM -TSRA BKN040CB BKN100 BKN220 15/08 A3010 RMK CB5AC2CI1 LTGCG S SLP203

CYYC;2008-07-16 21:11;CYYC 162111Z 03007KT 20SM TS SCT040CB BKN120 BKN220 16/ RMK CB3AC2CI1 LTGCG S / SH S + SW

CYYC;2008-07-16 21:54;CYYC 162154Z 08005KT 20SM FEW040CB SCT120 BKN160 BKN220 18/ RETS RMK CB1AC3AC1CI1 CB + SH NW-N + SE + S

CYYC;2008-07-16 22:00;CYYC 162200Z 05002KT 20SM FEW048 BKN120 BKN160 BKN220 18/18 A3013 RETS RMK CU2AC3AC1CI1 CB + SH N + SE + S SLP212

CYYC;2008-07-16 23:00;CYYC 162300Z 02010G16KT 30SM FEW042 SCT130 SCT220 18/09 A3011 RMK CU2AC1CI1 CB ALQDS / SH NE + E + SE SLP208

CYYC;2008-07-17 00:00;CYYC 170000Z 36008KT 30SM FEW040 FEW130 FEW240 19/08 A3012 RMK CU1AC1CI1 DIST CB NE + SE + S + NW SLP208

CYYC;2008-07-17 01:00;CYYC 170100Z 06007KT 30SM FEW048 FEW130 FEW240 18/08 A3012 RMK CU1AC1CI1 DIST CB NE - SE SLP210

CYYC;2008-07-17 02:00;CYYC 170200Z 04006KT 30SM FEW050CB FEW130 FEW180 17/08 A3013 RMK CB1AC1AC1 SLP211

CYYC;2008-07-17 03:00;CYYC 170300Z 06004KT 30SM FEW060CB FEW075 FEW130 16/09 A3014 RMK CB1AC1AC2 SLP214

CYYC;2008-07-17 04:00;CYYC 170400Z 06002KT 30SM FEW070 FEW130 FEW240 14/09 A3016 RMK AC1AC1CI1 SLP220

CYYC;2008-07-17 05:00;CYYC 170500Z 08002KT 15SM FEW080 FEW130 FEW240 13/09 A3016 RMK AC1AC1CI1 SLP221

CYYC;2008-07-17 06:00;CYYC 170600Z 25002KT 15SM FEW090 13/09 A3016 RMK AC1 AC TR SLP220

CYYC;2008-07-17 07:00;CYYC 170700Z 24002KT 15SM FEW090 12/09 A3016 RMK AC1 AC TR SLP219

CYYC;2008-07-17 08:00;CYYC 170800Z 00000KT 15SM FEW100 FEW240 10/09 A3015 RMK AC1CI1 AC+CI TR SLP218

CYYC;2008-07-17 09:00;CYYC 170900Z 00000KT 15SM SKC 10/08 A3014 RMK SLP220

CYYC;2008-07-17 10:00;CYYC 171000Z 32003KT 15SM SKC 08/07 A3014 RMK SLP219

CYYC;2008-07-17 11:00;CYYC 171100Z 00000KT 15SM SKC 08/07 A3014 RMK SLP218

CYYC;2008-07-17 12:00;CYYC 171200Z 31003KT 30SM SKC 08/07 A3014 RMK SLP217

CYYC;2008-07-17 13:00;CYYC 171300Z 20005KT 30SM FEW100 09/08 A3013 RMK AC1 AC TR SLP214

CYYC;2008-07-17 14:00;CYYC 171400Z 20003KT 40SM SKC 11/09 A3013 RMK SLP214

CYYC;2008-07-17 15:00;CYYC 171500Z 19008KT 40SM SKC 14/10 A3012 RMK SLP206

CYYC;2008-07-17 16:00;CYYC 171600Z 17011KT 40SM FEW045 16/10 A3011 RMK CU1 SLP201

CYYC;2008-07-17 17:00;CYYC 171700Z 16010G16KT 40SM FEW050 18/11 A3010 RMK CU1 SLP199

CYYC;2008-07-17 18:00;CYYC 171800Z 15010G15KT 40SM FEW050 19/11 A3009 RMK CU1 SLP192

CYYC;2008-07-17 19:00;CYYC 171900Z 16011KT 40SM FEW055 FEW075 20/12 A3008 RMK CU1AC1 LRG CU ASOCTD SLP190

CYYC;2008-07-17 20:00;CYYC 172000Z 14010G17KT 40SM FEW055TCU FEW085 21/11 A3007 RMK TCU1AC1 SLP186

CYYC;2008-07-17 21:00;CYYC 172100Z 15009G16KT 40SM FEW060CB FEW095 22/10 A3005 RMK CB1AC1 CB S + NW SLP179

CYYC;2008-07-17 22:00;CYYC 172200Z 15013KT 30SM FEW060CB SCT100 BKN190 21/09 A3004 RMK CB2AC1AC2 CB S + SW + NWN SLP174

CYYC;2008-07-17 23:00;CYYC 172300Z CCA 14014KT 30SM FEW060CB SCT100 BKN220 21/11 A3002 RMK CB1AC2CC2 CB S + NW-N SLP168

CYYC;2008-07-18 00:00;CYYC 180000Z 15015KT 30SM FEW060CB FEW170 FEW220 22/09 A2998 RMK CB1AC1CC1 CB ALQDS SLP156

CYYC;2008-07-18 01:00;CYYC 180100Z 14011G17KT 30SM FEW060CB FEW140 FEW180 22/11 A2995 RMK CB1AC1AC1 CB + SH N + S SLP148

CYYC;2008-07-18 02:00;CYYC 180200Z 15012G17KT 30SM FEW060CB FEW140 FEW180 21/09 A2995 RMK CB1AC1AC1 CB + SH N + SE + W SLP148

CYYC;2008-07-18 03:00;CYYC 180300Z CCA 14011KT 30SM FEW044CB FEW140 SCT220 19/08 A2994 RMK CB2AC1CI0 CB + SH NW+SE SLP138

CYYC;2008-07-18 03:36;CYYC 180336Z 17006KT 25SM TS SCT040CB BKN120 BKN220 18/ RMK CB3AC2CI0 LTGCC W + N

CYYC;2008-07-18 04:00;CYYC 180400Z 24007KT 20SM TS BKN040CB BKN110 OVC220 18/08 A2999 RMK CB5AC2CI0 LTGCG W + N / SH DIST ALQDS SLP154

CYYC;2008-07-18 05:00;CYYC 180500Z 36007KT 15SM TS BKN040CB BKN080 BKN120 BKN220 16/11 A2999 RMK CB5AC2AC1CI1 LTGCG W + N SLP154

CYYC;2008-07-18 05:38;CYYC 180538Z 34008KT 15SM FEW040CB SCT080 SCT120 SCT220 15/ RMK CB2AC1AC1CI1 LTNG NE

CYYC;2008-07-18 06:00;CYYC 180600Z CCA 01008G15KT 15SM FEW040CB FEW080 SCT120 SCT220 14/11 A3000 RETS RMK CB2AC1AC1CI1 LTNG NE SLP158

CYYC;2008-07-18 07:00;CYYC 180700Z 00000KT 15SM FEW040CB FEW080 FEW220 12/09 A3000 RMK CB2AC1CI1 LTNG ALQDS SLP159

CYYC;2008-07-18 07:52;CYYC 180752Z 27003KT 15SM -SHRA FEW040CB BKN090 OVC160 13/ RMK CB2AC4AC1 LTGIC SE-W

CYYC;2008-07-18 08:00;CYYC 180800Z 28003KT 15SM -SHRA SCT040CB BKN070 OVC160 13/09 A2998 RMK CB3AC3AC1 LTGCG E-SE-W SLP153

CYYC;2008-07-18 08:31;CYYC 180831Z 02007KT 15SM SCT060CB BKN110 BKN160 12/ RMK CB3AC2AC2 LTGIC E

CYYC;2008-07-18 09:00;CYYC 180900Z 08006KT 15SM FEW060CB BKN081 BKN140 13/09 A2997 RMK CB2AC4AC2 LTGIC DIST E SLP148

CYYC;2008-07-18 10:00;CYYC 181000Z 31006KT 15SM BKN080 BKN120 12/10 A2999 RMK AC5AC2 SLP153

CYYC;2008-07-18 11:00;CYYC 181100Z 11002KT 15SM FEW065CB BKN069 BKN150 13/10 A2998 RMK CB1AC5AC2 SLP149

CYYC;2008-07-18 12:00;CYYC 181200Z CCA 30003KT 20SM FEW070 SCT150 BKN230 12/10 A2997 RMK AC2AC2CI1 SLP148

CYYC;2008-07-18 13:00;CYYC 181300Z 32007KT 40SM BKN058 BKN110 OVC220 11/10 A2999 RMK SC5AC2CI1 SLP153

CYYC;2008-07-18 14:00;CYYC 181400Z 29004KT 40SM SCT050TCU BKN110 OVC200 13/10 A2997 RMK TCU3AC2CI2 TCU W-N SLP148

CYYC;2008-07-18 15:00;CYYC 181500Z 34007KT 40SM FEW040TCU BKN054 BKN110 OVC200 13/10 A2998 RMK TCU1SC6AC2CI0 DIST SH N/VIRGA S SLP153

CYYC;2008-07-18 16:00;CYYC 181600Z 06002KT 40SM FEW040CB FEW060 FEW110 BKN200 14/10 A2996 RMK CB1SC1AC1CI1 CB BND NW-NE/SH E SLP148

CYYC;2008-07-18 17:00;CYYC 181700Z 15003KT 40SM FEW032 FEW110 SCT240 17/10 A2995 RMK CU1AC1CI2 ACSL W-N/CB BND NW-N/DIST CB+SH NE SLP144

CYYC;2008-07-18 18:00;CYYC 181800Z 00000KT 30SM FEW030 SCT110 BKN230 17/09 A2995 RMK CU2AC2CI1 DIST CB SW+W-NE SLP143

CYYC;2008-07-18 19:00;CYYC 181900Z 08009G16KT 25SM FEW027 FEW032 BKN040 BKN110 BKN230 18/10 A2993 RMK CF1SC2CU3AC1CC1 SLP137

CYYC;2008-07-18 19:44;CYYC 181944Z 03012KT 20SM TS FEW023 SCT036CB OVC042 14/ RMK CF2CB2SC5 CB W-N/LTGCG

CYYC;2008-07-18 20:00;CYYC 182000Z CCA 01012G18KT 20SM TS SCT038CB OVC048 13/06 A2997 RMK CB3SC5 CB+LTGCG+SH SW-N/VIS LWR NW SLP150

CYYC;2008-07-18 20:11;CYYC 182011Z 36017KT 20SM -TSRA SCT040CB OVC054 13/ RMK CB4SC4 LTGCG SW-N

CYYC;2008-07-18 21:00;CYYC 182100Z 02010KT 15SM -TSRA OVC052CB 10/09 A2997 RERA RMK CB8 LTGCG ALQDS/VIS LWR S SLP161

CYYC;2008-07-18 22:00;CYYC 182200Z 08013KT 20SM -TSRA BKN064CB 11/09 A2993 RMK CB7 SLP149

CYYC;2008-07-18 22:11;CYYC 182211Z 11010G16KT 20SM -SHRA BKN064CB BKN085 11/ RETS RMK CB6AC2

CYYC;2008-07-18 22:31;CYYC 182231Z 11009KT 25SM BKN064CB BKN100 12/ RETS RMK CB5AC2 CB ALQDS/SH S-N

CYYC;2008-07-18 23:00;CYYC 182300Z 32013G18KT 30SM SCT064CB BKN110 OVC200 12/09 A2996 RMK CB3AC2CS2 CB ALQDS/DIST SH ALQDS SLP160

CYYC;2008-07-19 00:00;CYYC 190000Z 36002KT 30SM FEW100CB SCT130 OVC220 13/10 A2996 RMK CB2AC2CI4 CB ALQDS/DIST SH S-NE SLP157

CYYC;2008-07-19 00:28;CYYC 190028Z 18002KT 25SM -SHRA OVC070 13/ RMK AC8 CB NE

CYYC;2008-07-19 01:00;CYYC 190100Z 32005KT 25SM -SHRA FEW070 BKN086 13/10 A2995 RMK AC2AC5 CB NW/PCPN VRY LGT SLP154

CYYC;2008-07-19 01:21;CYYC 190121Z 30003KT 20SM FEW070 BKN082 13/ RMK AC2AC5 CB+SH ALQDS

CYYC;2008-07-19 02:00;CYYC 190200Z 24010G15KT 20SM FEW040 FEW080 OVC110 11/09 A2996 RMK CU1AC2AC6 SH S-W/ CB EMBD SLP158

CYYC;2008-07-19 03:00;CYYC 190300Z 29005KT 20SM BKN099 OVC110 12/08 A2997 RMK AC6AC2 SH DIST S SLP161

CYYC;2008-07-19 04:00;CYYC 190400Z 27011G21KT 20SM FEW070CB BKN100 OVC160 12/07 A2994 RMK CB2AC5AC1 SH DIST S-W SLP150

CYYC;2008-07-19 05:00;CYYC 190500Z 26011KT 15SM FEW080 OVC150 12/06 A2993 RMK AC2AC6 SLP148

CYYC;2008-07-19 06:00;CYYC 190600Z 26005KT 15SM SCT090 BKN230 11/07 A2995 RMK AC4CI3 SLP149

CYYC;2008-07-19 07:00;CYYC 190700Z 25004KT 15SM BKN100 12/06 A2994 RMK AC7 SLP146

CYYC;2008-07-19 08:00;CYYC 190800Z 33004KT 15SM SCT120 BKN220 11/08 A2994 RMK AC4CI2 SLP145

CYYC;2008-07-19 09:00;CYYC 190900Z 31003KT 15SM SCT110 BKN230 11/07 A2993 RMK AC2CI2 SLP152

CYYC;2008-07-19 10:00;CYYC 191000Z 00000KT 15SM SCT110 BKN240 09/07 A2994 RMK AC2CI2 SLP156

CYYC;2008-07-19 11:00;CYYC 191100Z CCB 31004KT 20SM SCT110 BKN240 09/07 A2994 RMK AC2CI1 SLP155

CYYC;2008-07-19 12:00;CYYC 191200Z CCA 30002KT 40SM FEW120 SCT250 09/06 A2994 RMK AC2CI0 SLP154

CYYC;2008-07-19 13:00;CYYC 191300Z 30004KT 40SM FEW120 FEW250 10/06 A2994 RMK AC1CI0 SLP154

CYYC;2008-07-19 14:00;CYYC 191400Z 00000KT 40SM FEW120 FEW250 14/07 A2995 RMK AC1CI0 SLP156

CYYC;2008-07-19 15:00;CYYC 191500Z 29004KT 40SM FEW160 FEW250 15/07 A2996 RMK CU1CI0 SLP154

CYYC;2008-07-19 16:00;CYYC 191600Z 31008KT 40SM FEW040 FEW160 FEW220 17/07 A2996 RMK CU1AC1CI1 ALL CLD TR SLP155

CYYC;2008-07-19 17:00;CYYC 191700Z 35004KT 40SM FEW040 FEW160 FEW220 18/08 A2997 RMK CU1AC1CI1 ALL CLD TR SLP156

CYYC;2008-07-19 18:00;CYYC 191800Z 34007KT 40SM FEW040 FEW160 FEW220 18/08 A2996 RMK CU1AC1CI1 TR AC/TR CI SLP149

CYYC;2008-07-19 19:00;CYYC 191900Z 35004KT 40SM FEW056 FEW064 18/07 A2995 RMK CF1CU2 SLP147

CYYC;2008-07-19 20:00;CYYC 192000Z CCA 25003KT 40SM FEW062 FEW082 FEW220 20/07 A2994 RMK CF1CU2CI1 TR CI SLP144

CYYC;2008-07-19 21:00;CYYC 192100Z 31003KT 40SM FEW080 FEW140 20/04 A2993 RMK CU2AC1 TR AC SLP137

CYYC;2008-07-19 22:00;CYYC 192200Z 20004KT 40SM FEW076 FEW220 21/05 A2991 RMK CU1CI1 ALL CLD TR SLP133

CYYC;2008-07-19 23:00;CYYC 192300Z 12004KT 40SM FEW074 FEW220 22/07 A2990 RMK CU1CI1 ALL CLD TR SLP130

CYYC;2008-07-20 00:00;CYYC 200000Z 23008KT 40SM FEW070 FEW200 22/07 A2989 RMK CU1CI1 ALL CLD TR SLP125

CYYC;2008-07-20 01:00;CYYC 200100Z 15011KT 40SM FEW065 FEW200 22/08 A2989 RMK CU1CI1 ALL CLD TR SLP123

CYYC;2008-07-20 02:00;CYYC 200200Z 15010KT 40SM FEW060 FEW200 20/09 A2990 RMK CU1CI1 SLP126

CYYC;2008-07-20 03:00;CYYC 200300Z 15008KT 40SM FEW050 FEW200 19/10 A2992 RMK CU1CI1 SLP130

CYYC;2008-07-20 04:00;CYYC 200400Z 16006KT 40SM FEW040 FEW200 17/10 A2993 RMK CU1CI1 SLP134

CYYC;2008-07-20 05:00;CYYC 200500Z 23003KT 20SM FEW030 FEW200 17/11 A2994 RMK CU1CI1 SLP137

CYYC;2008-07-20 06:00;CYYC 200600Z 18005KT 15SM FEW200 16/11 A2994 RMK CI1 SLP138

CYYC;2008-07-20 07:00;CYYC 200700Z 19005KT 15SM SKC 15/10 A2994 RMK SLP138

CYYC;2008-07-20 08:00;CYYC 200800Z 19004KT 15SM SKC 14/10 A2995 RMK SLP139

CYYC;2008-07-20 09:00;CYYC 200900Z 26003KT 15SM SKC 11/10 A2995 RMK SLP142

CYYC;2008-07-20 10:00;CYYC 201000Z 29002KT 15SM FEW075 11/09 A2995 RMK AC1 SLP142

CYYC;2008-07-20 11:00;CYYC 201100Z 00000KT 15SM FEW075 10/07 A2995 RMK AC1 SLP143

CYYC;2008-07-20 12:00;CYYC 201200Z 19002KT 30SM FEW075 FEW200 09/07 A2996 RMK AC1CI1 SLP148

CYYC;2008-07-20 13:00;CYYC 201300Z 20003KT 40SM FEW200 11/08 A2996 RMK CI0 SLP149

CYYC;2008-07-20 14:00;CYYC 201400Z 00000KT 40SM FEW200 14/09 A2996 RMK CI1 SLP149

CYYC;2008-07-20 15:00;CYYC 201500Z 18002KT 30SM FEW200 18/09 A2998 RMK CI1 SLP146

CYYC;2008-07-20 16:00;CYYC 201600Z 00000KT 40SM FEW200 20/09 A2997 RMK CI1 SLP145

CYYC;2008-07-20 17:00;CYYC 201700Z 18003KT 30SM FEW250 22/09 A2997 RMK CI1 SLP145

CYYC;2008-07-20 18:00;CYYC 201800Z 22004KT 30SM FEW065 FEW230 23/06 A2997 RMK CU1CI1 SLP141

CYYC;2008-07-20 19:00;CYYC 201900Z 28005KT 40SM FEW072 FEW250 24/06 A2996 RMK CU1CI0 SLP137

CYYC;2008-07-20 20:00;CYYC 202000Z 00000KT 40SM FEW070 FEW250 24/07 A2994 RMK CU1CI0 SLP133

CYYC;2008-07-20 21:00;CYYC 202100Z 12009KT 40SM FEW076 FEW250 25/07 A2994 RMK CU1CI0 SLP134

CYYC;2008-07-20 22:00;CYYC 202200Z 14007KT 40SM FEW062 FEW250 25/09 A2994 RMK CU1CI0 SLP132

CYYC;2008-07-20 23:00;CYYC 202300Z 14009KT 40SM FEW060 FEW250 25/10 A2993 RMK CU1CI0 SLP130

CYYC;2008-07-21 00:00;CYYC 210000Z 12009G15KT 40SM FEW062 FEW250 25/10 A2992 RMK CU1CI0 SLP129

CYYC;2008-07-21 01:00;CYYC 210100Z 15009KT 40SM FEW056 FEW250 24/11 A2991 RMK CU1CI1 SLP126

CYYC;2008-07-21 02:00;CYYC 210200Z 15011KT 30SM FEW080 FEW250 23/09 A2990 RMK AC1CI0 SLP125

CYYC;2008-07-21 03:00;CYYC 210300Z 16009KT 30SM FEW080 SCT250 22/10 A2990 RMK AC1CI0 SLP116

CYYC;2008-07-21 04:00;CYYC 210400Z 15009KT 30SM FEW080 FEW250 21/11 A2991 RMK AC1CI0 CONTRAILS SLP118

CYYC;2008-07-21 05:00;CYYC 210500Z 18010KT 15SM SKC 20/11 A2991 RMK SLP117

CYYC;2008-07-21 06:00;CYYC 210600Z 20005KT 15SM SKC 18/12 A2991 RMK SLP117

CYYC;2008-07-21 07:00;CYYC 210700Z 17004KT 15SM SKC 16/12 A2990 RMK SLP116

CYYC;2008-07-21 08:00;CYYC 210800Z 17004KT 15SM SKC 16/12 A2990 RMK SLP114

CYYC;2008-07-21 09:00;CYYC 210900Z 31006KT 15SM SKC 15/11 A2989 RMK SLP113

CYYC;2008-07-21 10:00;CYYC 211000Z 22005KT 15SM SKC 14/11 A2990 RMK SLP114

CYYC;2008-07-21 11:00;CYYC 211100Z 22003KT 15SM SKC 13/10 A2988 RMK SLP110

CYYC;2008-07-21 12:00;CYYC 211200Z 21002KT 30SM SKC 13/10 A2988 RMK SLP113

CYYC;2008-07-21 13:00;CYYC 211300Z 00000KT 40SM FEW090 14/10 A2988 RMK AC1 SLP112

CYYC;2008-07-21 14:00;CYYC 211400Z 19002KT 40SM SKC 17/11 A2988 RMK SLP112

CYYC;2008-07-21 15:00;CYYC 211500Z 20005KT 30SM SKC 23/08 A2987 RMK SLP097

CYYC;2008-07-21 16:00;CYYC 211600Z 21007KT 30SM SKC 23/12 A2987 RMK SLP097

CYYC;2008-07-21 17:00;CYYC 211700Z 24008KT 30SM SKC 26/10 A2986 RMK SLP095

CYYC;2008-07-21 18:00;CYYC 211800Z 22004KT 30SM SKC 28/09 A2985 RMK SLP091

CYYC;2008-07-21 19:00;CYYC 211900Z 24006KT 30SM SKC 28/09 A2984 RMK SLP088

CYYC;2008-07-21 20:00;CYYC 212000Z 21004KT 30SM SKC 29/08 A2982 RMK SLP082

CYYC;2008-07-21 21:00;CYYC 212100Z 21009KT 30SM FEW050 29/06 A2981 RMK CU1 CU TR SLP079

CYYC;2008-07-21 22:00;CYYC 212200Z 18007KT 25SM FEW050 30/08 A2979 RMK CU1 CU TR SLP073

CYYC;2008-07-21 23:00;CYYC 212300Z 12010G15KT 25SM FEW055 29/09 A2979 RMK CU1 CU TR SLP072

CYYC;2008-07-22 00:00;CYYC 220000Z 14009KT 20SM FEW055 29/07 A2978 RMK CU1 CU TR SLP069

CYYC;2008-07-22 01:00;CYYC 220100Z 13011KT 20SM FEW055 27/10 A2977 RMK CU1 CU TR SLP067

CYYC;2008-07-22 02:00;CYYC 220200Z 13010KT 20SM FEW055 27/11 A2977 RMK CU1 CU TR SLP067

CYYC;2008-07-22 03:00;CYYC 220300Z 13006KT 20SM FEW055 24/13 A2977 RMK CU1 CU TR SLP062

CYYC;2008-07-22 04:00;CYYC 220400Z 13002KT 20SM FEW070 FEW240 24/13 A2979 RMK AC1CI0 SLP067

CYYC;2008-07-22 05:00;CYYC 220500Z 31003KT 15SM FEW070 FEW240 22/14 A2980 RMK AC1CI0 SLP069

CYYC;2008-07-22 06:00;CYYC 220600Z 32011KT 15SM FEW080 19/15 A2982 RMK AC1 SLP077

CYYC;2008-07-22 07:00;CYYC 220700Z 32013KT 15SM FEW080 19/15 A2984 RMK AC1 SLP082

CYYC;2008-07-22 08:00;CYYC 220800Z 32012KT 15SM FEW100 18/16 A2984 RMK AC1 SLP084

CYYC;2008-07-22 09:00;CYYC 220900Z CCA 34012KT 15SM FEW100 17/16 A2985 RMK AC1 SLP091

CYYC;2008-07-22 10:00;CYYC 221000Z 33012KT 15SM FEW100 BKN250 16/15 A2986 RMK AC1CI0 SLP094

CYYC;2008-07-22 11:00;CYYC 221100Z 32010KT 15SM SCT120 BKN250 15/14 A2989 RMK AC2CI2 SLP101

CYYC;2008-07-22 12:00;CYYC 221200Z 33009KT 15SM FEW060CB BKN120 BKN180 15/13 A2991 RMK CB1AC4AC1 SLP111

CYYC;2008-07-22 13:00;CYYC 221300Z 34010KT 20SM SCT120 BKN250 15/13 A2992 RMK AC2CI1 SLP116

CYYC;2008-07-22 14:00;CYYC 221400Z 35016G21KT 25SM FEW120 SCT250 16/13 A2994 RMK AC2CI0 SLP122

CYYC;2008-07-22 15:00;CYYC 221500Z 35019KT 25SM FEW012 FEW120 FEW250 16/13 A2997 RMK CU1AC1CI1 SLP138

CYYC;2008-07-22 16:00;CYYC 221600Z 35016KT 25SM FEW015 FEW050 FEW110 FEW220 17/13 A2997 RMK CU1SC1AC2CI1 SLP138

CYYC;2008-07-22 17:00;CYYC 221700Z CCA 34014KT 25SM FEW020 OVC035 17/12 A2999 RMK CU1SC7 SLP144

CYYC;2008-07-22 18:00;CYYC 221800Z 35013KT 25SM FEW028 BKN040 18/11 A2998 RMK CU1SC6 SLP147

CYYC;2008-07-22 19:00;CYYC 221900Z 36015KT 25SM FEW030 FEW040 BKN075 BKN200 18/11 A2997 RMK CU2SC1AC2CI1 SLP144

CYYC;2008-07-22 20:00;CYYC 222000Z 02015KT 25SM FEW032 FEW042 SCT160 SCT200 19/12 A2997 RMK CU1SC1AC2CI1 SLP142

CYYC;2008-07-22 21:00;CYYC 222100Z 02012KT 25SM BKN037 BKN180 19/12 A2997 RMK CU5AC2 SLP145

CYYC;2008-07-22 22:00;CYYC 222200Z 02011KT 25SM FEW030 OVC033 19/13 A2996 RMK CU1SC8 SLP142

CYYC;2008-07-22 23:00;CYYC 222300Z 02009KT 15SM FEW028 OVC034 19/12 A2997 RMK CU1SC8 SLP145

CYYC;2008-07-23 00:00;CYYC 230000Z CCA 01010KT 15SM FEW032 OVC037 18/12 A2996 RMK CU1SC8 CU TR SLP146

CYYC;2008-07-23 01:00;CYYC 230100Z 01010KT 15SM FEW036 OVC050 18/12 A2997 RMK CU2SC6 SLP147

CYYC;2008-07-23 02:00;CYYC 230200Z 35013G18KT 15SM BKN035 OVC040 16/12 A2998 RMK SC6SC2 SLP152

CYYC;2008-07-23 03:00;CYYC 230300Z 35014G19KT 15SM OVC035 15/12 A3000 RMK SC8 SLP162

CYYC;2008-07-23 04:00;CYYC 230400Z 36014G21KT 15SM BKN048 OVC060 14/12 A3001 RMK SC6SC2 SLP164

CYYC;2008-07-23 04:36;CYYC 230436Z 34011G17KT 15SM BKN011 OVC037 13/ RMK SC6SC2

CYYC;2008-07-23 05:00;CYYC 230500Z 30010G15KT 15SM SCT014 OVC041 13/12 A3002 RMK SC4SC4 SLP168

CYYC;2008-07-23 05:07;CYYC 230507Z 34011KT 15SM -RA FEW014 OVC039 13/ RMK SC2SC6

CYYC;2008-07-23 06:00;CYYC 230600Z 33014KT 10SM -RA OVC029 12/11 A3003 RMK SC8 SLP172

CYYC;2008-07-23 07:00;CYYC 230700Z 33010G16KT 15SM -RA BKN038 OVC053 12/11 A3002 RMK SC6SC2 RA VRY LGT SLP170

CYYC;2008-07-23 07:08;CYYC 230708Z 33010G16KT 15SM SCT040 OVC050 12/ RMK SC4SC4

CYYC;2008-07-23 08:00;CYYC 230800Z 34010G16KT 15SM OVC042 12/09 A3002 RMK SC8 SLP171

CYYC;2008-07-23 09:00;CYYC 230900Z 35007KT 15SM OVC048 12/09 A3002 RMK SC8 SLP167

CYYC;2008-07-23 10:00;CYYC 231000Z 31008KT 15SM OVC039 12/09 A3002 RMK SC8 SLP169

CYYC;2008-07-23 11:00;CYYC 231100Z 34007KT 15SM OVC040 13/09 A3002 RMK SC8 SLP167

CYYC;2008-07-23 12:00;CYYC 231200Z 33006KT 15SM BKN041 OVC100 12/09 A3003 RMK SC6AC2 SLP172

CYYC;2008-07-23 13:00;CYYC 231300Z 34006KT 30SM FEW060 OVC110 12/09 A3004 RMK SC1AC6 SLP176

CYYC;2008-07-23 14:00;CYYC 231400Z 33004KT 30SM FEW060 BKN110 12/09 A3004 RMK SC1AC6 SLP176

CYYC;2008-07-23 15:00;CYYC 231500Z 33005KT 30SM FEW060 SCT130 13/10 A3004 RMK SC1AC3 SLP178

CYYC;2008-07-23 16:00;CYYC 231600Z 34004KT 40SM FEW020 FEW130 15/10 A3004 RMK CU1AC1 DIST TCU S-W SLP180

CYYC;2008-07-23 17:00;CYYC 231700Z 00000KT 40SM FEW028 FEW140 17/09 A3004 RMK CU1AC1 DIST TCU S-W SLP179

CYYC;2008-07-23 18:00;CYYC 231800Z 09003KT 40SM FEW038 FEW140 18/09 A3004 RMK CU2AC1 DIST TCU S-W SLP177

CYYC;2008-07-23 19:00;CYYC 231900Z 10002KT 40SM FEW040 FEW160 18/09 A3002 RMK CU2AC1 DIST TCU S-W SLP172

CYYC;2008-07-23 20:00;CYYC 232000Z 00000KT 40SM FEW042 FEW160 20/10 A3001 RMK CU2AC1 SLP169

CYYC;2008-07-23 21:00;CYYC 232100Z 02005KT 40SM FEW042 SCT160 20/10 A3001 RMK CU2AC0 SLP164

CYYC;2008-07-23 22:00;CYYC 232200Z 05007KT 40SM FEW050 BKN120 19/10 A3001 RMK CU2AC2 SLP162

CYYC;2008-07-23 23:00;CYYC 232300Z 11006KT 40SM SCT050TCU BKN100 19/09 A3000 RMK TCU3AC4 SH SE+SW-W SLP161

CYYC;2008-07-23 23:16;CYYC 232316Z 12006KT 40SM -SHRA SCT050TCU BKN100 19/ RMK TCU3AC4

CYYC;2008-07-23 23:38;CYYC 232338Z 12005KT 40SM SCT050TCU BKN100 19/ RMK TCU3AC4

CYYC;2008-07-24 00:00;CYYC 240000Z 16005KT 40SM SCT050TCU BKN090 19/10 A3001 RMK TCU3AC4 SH SW-W SLP166

CYYC;2008-07-24 01:00;CYYC 240100Z 24007KT 25SM FEW038 BKN060 OVC085 17/10 A3001 RMK CU2SC3AC3 SLP166

CYYC;2008-07-24 01:27;CYYC 240127Z 27006KT 20SM -SHRA BKN035 OVC053CB 16/ RMK SC6CB2

CYYC;2008-07-24 02:00;CYYC 240200Z 23008KT 20SM -SHRA BKN040 BKN051CB OVC078 16/11 A3003 RMK SC6CB2AS1 SLP170

CYYC;2008-07-24 03:00;CYYC 240300Z 30011KT 5SM -SHRA FEW029 BKN065 BKN070CB OVC090 13/12 A3004 RMK SF1SC4CB2AS1 VIS E 20 SLP183

CYYC;2008-07-24 04:00;CYYC 240400Z 32014KT 15SM -SHRA BKN060CB BKN070CB OVC090 12/11 A3005 RMK CB6CB2AC1 SLP185

CYYC;2008-07-24 05:00;CYYC 240500Z 33011KT 15SM -SHRA FEW045 SCT060CB OVC070 12/10 A3006 RMK SC2CB1AC5 SLP190

CYYC;2008-07-24 06:00;CYYC 240600Z 31010KT 15SM -SHRA SCT044 BKN076 OVC110 11/11 A3006 RMK SC3AC3AC1 SLP184

CYYC;2008-07-24 06:18;CYYC 240618Z 32011KT 15SM FEW060 BKN070 OVC110 11/ RMK SC2AC6AC1

CYYC;2008-07-24 07:00;CYYC 240700Z 31008KT 15SM FEW060 OVC069 11/10 A3005 RMK SC2AC6 SLP181

CYYC;2008-07-24 08:00;CYYC 240800Z 26005KT 15SM BKN064 OVC110 12/10 A3004 RMK SC7AC1 SLP180

CYYC;2008-07-24 09:00;CYYC 240900Z 30006KT 15SM OVC056 11/09 A3005 RMK SC8 SLP178

CYYC;2008-07-24 10:00;CYYC 241000Z 36007KT 15SM BKN042 OVC060 12/10 A3007 RMK SC6SC2 SLP185

CYYC;2008-07-24 11:00;CYYC 241100Z 34006KT 15SM OVC042 11/10 A3009 RMK SC8 SLP190

CYYC;2008-07-24 12:00;CYYC 241200Z 33006KT 15SM -RA OVC060 11/10 A3010 RMK SC8 SLP198

CYYC;2008-07-24 13:00;CYYC 241300Z 17004KT 40SM -RA FEW060 BKN073 OVC140 11/09 A3010 RMK SC2AC4AC2 SLP198

CYYC;2008-07-24 13:33;CYYC 241333Z 27003KT 40SM FEW065 BKN097 OVC220 11/ RMK SC1AC5CI2

CYYC;2008-07-24 14:00;CYYC 241400Z 00000KT 40SM FEW065 BKN097 BKN220 12/10 A3012 RMK SC1AC4CI2 SLP205

CYYC;2008-07-24 15:00;CYYC 241500Z 23002KT 40SM FEW065 FEW100 SCT220 13/10 A3012 RMK SC1AC2CI0 SLP211

CYYC;2008-07-24 16:00;CYYC 241600Z 26006KT 40SM FEW120 FEW220 15/10 A3013 RMK AC1CI1 SLP212

CYYC;2008-07-24 17:00;CYYC 241700Z 26003KT 40SM FEW032 FEW140 FEW220 17/09 A3013 RMK CU1AC1CI1 SLP212

CYYC;2008-07-24 18:00;CYYC 241800Z 23004KT 40SM FEW040 FEW220 18/08 A3013 RMK CU1CI1 SLP210

CYYC;2008-07-24 19:00;CYYC 241900Z CCA 00000KT 40SM FEW048 FEW220 19/07 A3012 RMK CU1CI1 CU+CI TR SLP208

CYYC;2008-07-24 20:00;CYYC 242000Z 19003KT 40SM FEW052 FEW220 21/06 A3012 RMK CU1CI1 SLP208

CYYC;2008-07-24 21:00;CYYC 242100Z 35008KT 40SM FEW062 21/07 A3012 RMK CU1 SLP203

CYYC;2008-07-24 22:00;CYYC 242200Z 34005KT 40SM FEW070 22/06 A3012 RMK CU1 SLP203

CYYC;2008-07-24 23:00;CYYC 242300Z 03008KT 40SM FEW064 22/06 A3012 RMK CU1 SLP203

CYYC;2008-07-25 00:00;CYYC 250000Z 09006KT 40SM FEW068 22/06 A3012 RMK CU1 SLP201

CYYC;2008-07-25 01:00;CYYC 250100Z 09006KT 40SM FEW060 21/06 A3012 RMK CU1 SLP201

CYYC;2008-07-25 02:00;CYYC 250200Z 12006KT 40SM FEW065 21/05 A3011 RMK CU1 CU TR SLP200

CYYC;2008-07-25 03:00;CYYC 250300Z 16007KT 40SM FEW065 19/09 A3012 RMK CU1 CU TR SLP202

CYYC;2008-07-25 04:00;CYYC 250400Z 19005KT 30SM FEW065 18/10 A3014 RMK CU1 CU TR SLP207

CYYC;2008-07-25 05:00;CYYC 250500Z 18009KT 15SM FEW050 17/09 A3014 RMK CU1 CU TR SLP209

CYYC;2008-07-25 06:00;CYYC 250600Z 17007KT 15SM SKC 15/09 A3015 RMK SLP211

CYYC;2008-07-25 07:00;CYYC 250700Z 18005KT 15SM SKC 14/09 A3015 RMK SLP210

CYYC;2008-07-25 08:00;CYYC 250800Z 18007KT 15SM SKC 13/09 A3015 RMK SLP210

CYYC;2008-07-25 09:00;CYYC 250900Z 18005KT 15SM SKC 13/08 A3015 RMK SLP209

CYYC;2008-07-25 10:00;CYYC 251000Z 18003KT 15SM SKC 12/08 A3015 RMK SLP209

CYYC;2008-07-25 11:00;CYYC 251100Z 19005KT 15SM SKC 11/08 A3014 RMK SLP208

CYYC;2008-07-25 12:00;CYYC 251200Z 00000KT 40SM SKC 10/09 A3015 RMK SLP212

CYYC;2008-07-25 13:00;CYYC 251300Z 19004KT 40SM SKC 11/09 A3015 RMK SLP212

CYYC;2008-07-25 14:00;CYYC 251400Z 00000KT 40SM FEW180 12/09 A3015 RMK AC1 HZ SW SLP213

CYYC;2008-07-25 15:00;CYYC 251500Z 18002KT 40SM FEW050 FEW200 14/10 A3015 RMK SC1CI1 HZ SW SLP211

CYYC;2008-07-25 16:00;CYYC 251600Z 18002KT 40SM FEW034 FEW200 17/09 A3015 RMK CU1CI1 HZ SW SLP212

CYYC;2008-07-25 17:00;CYYC 251700Z 18004KT 40SM FEW040 FEW220 20/10 A3014 RMK CU1CI1 HZ SW SLP208

CYYC;2008-07-25 18:00;CYYC 251800Z 15008KT 40SM FEW048 21/10 A3013 RMK CU1 HZ SW SLP200

CYYC;2008-07-25 19:00;CYYC 251900Z 16009KT 40SM FEW048 23/11 A3012 RMK CU1 HZ SW SLP197

CYYC;2008-07-25 20:00;CYYC 252000Z 16009KT 40SM FEW048 FEW230 24/11 A3010 RMK CU1CI1 HZ SW SLP192

CYYC;2008-07-25 21:00;CYYC 252100Z 16006G15KT 40SM FEW062 FEW230 24/09 A3009 RMK CU1CI0 SLP185

CYYC;2008-07-25 22:00;CYYC 252200Z 15013KT 40SM FEW065 BKN210 25/07 A3008 RMK SC1CI0 CU EMBD SLP181

CYYC;2008-07-25 23:00;CYYC 252300Z 13010G18KT 40SM FEW065 FEW120 OVC250 24/07 A3006 RMK SC1AC1CI0 CU EMBD/ACSL SLP177

CYYC;2008-07-26 00:00;CYYC 260000Z 16012G17KT 40SM FEW065 FEW120 BKN250 24/05 A3006 RMK SC1AC1CI0 SLP178

CYYC;2008-07-26 01:00;CYYC 260100Z 16012G18KT 40SM FEW060 FEW220 OVC250 23/08 A3004 RMK SC1CI0CI0 SLP173

CYYC;2008-07-26 02:00;CYYC 260200Z 16010KT 40SM FEW060 BKN250 22/07 A3004 RMK CU1CI1 CU TR SLP172

CYYC;2008-07-26 03:00;CYYC 260300Z 14009KT 40SM FEW060 BKN250 20/09 A3003 RMK CU1CI1 CU TR SLP168

CYYC;2008-07-26 04:00;CYYC 260400Z 14009KT 20SM FEW180 BKN230 OVC250 18/11 A3004 RMK AC1CI5CI2 AC TR SLP169

CYYC;2008-07-26 05:00;CYYC 260500Z 15009KT 15SM FEW220 BKN250 18/09 A3002 RMK CI2CI0 SLP165

CYYC;2008-07-26 06:00;CYYC 260600Z 16007KT 15SM SCT100 SCT250 17/10 A3002 RMK AC2CI0 SLP159

CYYC;2008-07-26 07:00;CYYC 260700Z 18005KT 15SM FEW110 OVC240 16/10 A3001 RMK AC2CI4 SLP155

CYYC;2008-07-26 08:00;CYYC 260800Z 17005KT 15SM FEW140 BKN250 16/10 A2999 RMK AC1CI2 SLP151

CYYC;2008-07-26 09:00;CYYC 260900Z 15006KT 15SM FEW250 15/09 A2998 RMK CI1 SLP145

CYYC;2008-07-26 10:00;CYYC 261000Z 15005KT 15SM SCT250 12/09 A2997 RMK CI2 SLP141

CYYC;2008-07-26 11:00;CYYC 261100Z 18004KT 15SM FEW140 SCT250 13/09 A2996 RMK AC1CI1 AC TR SLP138

CYYC;2008-07-26 12:00;CYYC 261200Z 20004KT 20SM FEW140 OVC250 13/09 A2995 RMK AC1CI6 SLP137

CYYC;2008-07-26 13:00;CYYC 261300Z 01002KT 20SM SCT140 OVC240 13/09 A2994 RMK AC3CI3 SLP135

CYYC;2008-07-26 14:00;CYYC 261400Z 00000KT 20SM SCT140 OVC200 15/10 A2994 RMK AC3CI2 SLP134

CYYC;2008-07-26 15:00;CYYC 261500Z 00000KT 20SM FEW140 OVC230 17/10 A2993 RMK AC2CI4 SLP130

CYYC;2008-07-26 16:00;CYYC 261600Z 20003KT 20SM FEW120 OVC230 20/11 A2992 RMK AC2CI2 SLP126

CYYC;2008-07-26 17:00;CYYC 261700Z 16006KT 15SM FEW040 SCT140 OVC200 22/13 A2991 RMK SC1AC2CI2 SLP123

CYYC;2008-07-26 18:00;CYYC 261800Z 00000KT 15SM FEW140 OVC200 24/11 A2990 RMK AC2CI2 SLP115

CYYC;2008-07-26 19:00;CYYC 261900Z 14005KT 15SM FEW070 FEW140 OVC200 26/07 A2989 RMK CU1AC1CI1 SLP113

CYYC;2008-07-26 20:00;CYYC 262000Z 17005KT 15SM FEW060TCU FEW160 OVC220 27/12 A2987 RMK TCU1AC1CI1 SLP107

CYYC;2008-07-26 21:00;CYYC 262100Z 12006KT 15SM FEW070TCU FEW160 OVC220 27/08 A2986 RMK TCU1AC1CI1 SLP100

CYYC;2008-07-26 22:00;CYYC 262200Z 13010KT 15SM FEW065TCU FEW160 OVC220 25/11 A2985 RMK TCU2AC1CI1 DIST SH SW-W SLP095

CYYC;2008-07-26 22:32;CYYC 262232Z 13008KT 15SM TS SCT060CB OVC200 24/ RMK CB4CI2 CBSW-NE/LTGCG/SH SW-NW

CYYC;2008-07-26 23:00;CYYC 262300Z 16007KT 15SM TS SCT055CB BKN110 OVC200 24/11 A2985 RMK CB4AC2CI1 CB+SH SW-NW/CB N/LTGCG SLP096

CYYC;2008-07-26 23:14;CYYC 262314Z 22007KT 15SM -TSRA SCT055CB BKN100 OVC200 25/ RMK CB4AC2CI1 CB SW-N/LTGCG

CYYC;2008-07-26 23:28;CYYC 262328Z 29014G21KT 15SM -TSRA SCT055CB BKN070 OVC200 21/ RMK CB4AC2CI2 CBSW-N/LTGCG/WSHFT 2324

CYYC;2008-07-27 00:00;CYYC 270000Z 04002G26KT 10SM TSRA BKN050CB OVC200 22/09 A2984 RMK CB6CI1 CB OVRHD SLP101

CYYC;2008-07-27 00:21;CYYC 270021Z 35022G29KT 15SM SCT050CB BKN110 BKN200 19/ RETSRA RMK CB3AC2CI1 CB+SH E-SW

CYYC;2008-07-27 00:28;CYYC 270028Z 36019G27KT 15SM TS SCT050CB BKN110 OVC200 18/ RERA RMK CB4AC2CI2 CB+SH E-SW

CYYC;2008-07-27 00:52;CYYC 270052Z 36010G20KT 15SM -TSRA BKN080CB BKN100 OVC200 18/ RMK CB5AC2CI1 LTGIC OVRHD

CYYC;2008-07-27 01:00;CYYC 270100Z 03005KT 10SM -TSRA BKN080CB BKN100 OVC200 18/13 A2988 RMK CB5AC2CI1 LTGCG SLP114

CYYC;2008-07-27 02:00;CYYC 270200Z CCA 36004KT 10SM -TSRA BKN080CB BKN100 OVC200 18/13 A2985 RMK CB5AC2CI1 CB NE SLP104

CYYC;2008-07-27 02:11;CYYC 270211Z CCB 07002KT 25SM TS BKN080CB BKN100 OVC200 18/ RMK CB5AC2CI1 CB NE

CYYC;2008-07-27 02:32;CYYC 270232Z 32006KT 25SM SCT040 OVC140 18/ RETS RMK SC4AC3

CYYC;2008-07-27 03:00;CYYC 270300Z 32007KT 15SM FEW024 BKN120 OVC220 18/12 A2985 RMK CU1AC4CI2 SLP104

CYYC;2008-07-27 04:00;CYYC 270400Z 31014KT 25SM SCT120 OVC240 18/11 A2987 RMK AC3CI4 DIST SH W-NW SLP111

CYYC;2008-07-27 05:00;CYYC 270500Z 33008KT 15SM FEW100 BKN200 17/12 A2986 RMK CU2CI4 SLP107

CYYC;2008-07-27 06:00;CYYC 270600Z CCA 25002KT 15SM -TSRA SCT090 OVC200 17/10 A2986 RMK AC4CI4 CB W SLP101

CYYC;2008-07-27 07:00;CYYC 270700Z CCB 25002KT 15SM -TSRA FEW032CB SCT090 BKN200 18/11 A2985 RMK CB1AC2CI2 LTG W + E SLP095

CYYC;2008-07-27 07:24;CYYC 270724Z 31010G16KT 10SM TSRA FEW032CB BKN090 OVC220 15/ RMK CB2AC4CI2

CYYC;2008-07-27 08:00;CYYC 270800Z 23007KT 10SM TSRA FEW016CB BKN090 OVC220 16/12 A2985 RMK CB2AC5CI1 LTG W SLP097

CYYC;2008-07-27 09:00;CYYC 270900Z 23009G15KT 10SM -TSRA FEW012CB OVC090 14/13 A2987 RMK CB2AC6 SLP104

CYYC;2008-07-27 09:25;CYYC 270925Z 00000KT 15SM -SHRA FEW012CB OVC090 15/ RETS RMK CB1AC7

CYYC;2008-07-27 10:00;CYYC 271000Z 11011KT 10SM -SHRA BKN064 OVC085 15/11 A2984 RETS RMK SC5AC3 SLP094

CYYC;2008-07-27 10:23;CYYC 271023Z 12004KT 10SM -TSRA FEW020CB BKN130 OVC200 16/ RMK CB2AC4CI2

CYYC;2008-07-27 10:53;CYYC 271053Z 00000KT 15SM FEW012CB SCT090 15/ RETS RMK CB1AC3

CYYC;2008-07-27 11:00;CYYC 271100Z 25004KT 15SM FEW012CB BKN090 15/12 A2984 RETS RMK CB1AC4 SLP093

CYYC;2008-07-27 12:00;CYYC 271200Z CCA 30007KT 30SM FEW016 SCT090 15/11 A2985 RMK CU2AC2 DIST SH NE-E SLP102

CYYC;2008-07-27 13:00;CYYC 271300Z 32006KT 40SM FEW020 FEW090 SCT220 15/10 A2986 RMK CU1AC1CI1 SLP104

CYYC;2008-07-27 14:00;CYYC 271400Z 32006KT 30SM FEW080 SCT180 BKN240 16/10 A2985 RMK AC2AC1CI2 DIST SH NW SLP100

CYYC;2008-07-27 15:00;CYYC 271500Z 31006KT 30SM FEW028 SCT210 18/10 A2985 RMK CU1CI0 CU TR SLP102

CYYC;2008-07-27 16:00;CYYC 271600Z 28003KT 30SM FEW032 FEW120 FEW210 19/11 A2984 RMK CU1AC1CI0 SLP100

CYYC;2008-07-27 17:00;CYYC 271700Z 00000KT 40SM FEW036 FEW110 BKN210 20/12 A2982 RMK CU1AC1CI0 DIST SH SW SLP095

CYYC;2008-07-27 18:00;CYYC 271800Z 16002KT 40SM FEW044 FEW110 SCT190 OVC210 21/10 A2982 RMK CU1AC1AC1CI0 DIST SH SW-W SLP087

CYYC;2008-07-27 19:00;CYYC 271900Z 20003KT 40SM FEW052TCU FEW150 FEW220 22/09 A2980 RMK TCU1AC1CI0 DIST SH SW-W SLP082

CYYC;2008-07-27 20:00;CYYC 272000Z 15004KT 30SM FEW052TCU SCT120 BKN140 BKN240 23/11 A2978 RMK TCU1AC3AC2CI1 DIST SH S-E/VIS LWR W SLP077

CYYC;2008-07-27 20:19;CYYC 272019Z 00000KT 30SM TS FEW040CB BKN110 BKN200 22/ RMK CB2AC4CI0 DIST SH S-E

CYYC;2008-07-27 20:41;CYYC 272041Z 00000KT 30SM -TSRA SCT048CB BKN080 BKN140 22/ RMK CB4AC2AC2 LTGCG W

CYYC;2008-07-27 21:00;CYYC 272100Z 02008KT 30SM -TSRA SCT044CB BKN060 BKN080 21/10 A2977 RMK CB4SC2AC2 VIS LWR SW-W SLP077

CYYC;2008-07-27 21:08;CYYC 272108Z 29011KT 30SM -TSRA BKN040CB BKN080 18/ RMK CB6AC2 WSHFT 2105/VIS SW- W 8

CYYC;2008-07-27 21:33;CYYC 272133Z 02003KT 30SM TS FEW018CB SCT040CB BKN060 BKN110 19/ RERA RMK CB2CB2SC2AC1 SH N-E/VIS N-E 7

CYYC;2008-07-27 22:00;CYYC 272200Z 01011G18KT 40SM FEW020CB FEW110 FEW210 19/14 A2980 RETSRA RMK CB2AC1CI1 LTGCG E/SH W-E/VIS N-E 7 SLP084

CYYC;2008-07-27 22:02;CYYC 272202Z 01012KT 40SM -SHRA FEW032CB FEW110 FEW210 20/ RMK CB2AC1CI1 PCPN VRY LGT/VIS N-E 7

CYYC;2008-07-27 22:21;CYYC 272221Z 36009G15KT 40SM FEW032CB FEW120 FEW210 20/ RMK CB1AC1CI1 DIST SH N-E

CYYC;2008-07-27 23:00;CYYC 272300Z 07011KT 40SM FEW032CB FEW110 FEW220 22/13 A2977 RMK CB1AC2CI1 DIST SH NW-E SLP077

CYYC;2008-07-28 00:00;CYYC 280000Z 03009KT 30SM TS FEW032CB BKN120 BKN220 20/11 A2979 RMK CB2AS2CI0 DIST SH W-W/LTGCG W SLP083

CYYC;2008-07-28 00:21;CYYC 280021Z 36023G31KT 40SM FEW032CB BKN060 BKN110 BKN220 17/ RETS RMK CB2SC2AC2CI0 DIST SH W-E

CYYC;2008-07-28 01:00;CYYC 280100Z 34013G21KT 40SM FEW016CB BKN060 BKN080 BKN220 15/11 A2982 RETS RMK CB2SC2AS1CI0 DIST SH W-E SLP092

CYYC;2008-07-28 01:12;CYYC 280112Z CCA 35013KT 40SM TS SCT016CB BKN080 BKN220 14/ RMK CB4AS2CI0 DIST SH W-E

CYYC;2008-07-28 01:45;CYYC 280145Z 03010KT 20SM -TSRAGR BKN020CB BKN080 BKN220 14/ RMK CB6AC1CI0 TS MOVG SE / HAIL DIAM 5 MM

CYYC;2008-07-28 02:00;CYYC 280200Z 27007KT 20SM TS BKN040CB BKN120 14/11 A2981 REGR RMK CB5AC1 SH NW+NE / VIRGA N SLP089

CYYC;2008-07-28 03:00;CYYC 280300Z 23006KT 20SM -SHRA BKN080CB BKN120 14/12 A2983 RETS RMK CB4AC2 SH SW+N-E / VIRGA N/LTGCG SW SLP100

CYYC;2008-07-28 03:06;CYYC 280306Z CCA 27004KT 20SM -TSRA BKN080CB BKN120 14/ RMK CB4AC2 LTGCC

CYYC;2008-07-28 04:00;CYYC 280400Z 27006KT 15SM -TSRA BKN080CB BKN120 15/12 A2982 RMK CB5AC2 LTGCC +LTGCG/TS MOVG SE SLP099

CYYC;2008-07-28 04:20;CYYC 280420Z 24006KT 15SM BKN080CB BKN120 14/ RETS RMK CB4AC2 SH NE-S

CYYC;2008-07-28 05:00;CYYC 280500Z 27003KT 15SM SCT080CB BKN140 14/11 A2981 RETS RMK CB2AC2 LTNG SE / SH E-S SLP096

CYYC;2008-07-28 06:00;CYYC 280600Z 23010KT 15SM FEW050 OVC120 14/12 A2982 RMK CF1AC7 SLP094

CYYC;2008-07-28 07:00;CYYC 280700Z 21008KT 15SM OVC080 14/11 A2983 RMK AC8 SLP096

CYYC;2008-07-28 08:00;CYYC 280800Z 22008KT 15SM -SHRA OVC080 14/10 A2984 RMK AC8 SLP099

CYYC;2008-07-28 08:45;CYYC 280845Z 23007KT 15SM BKN075 OVC180 14/ RMK AC6AS2

CYYC;2008-07-28 09:00;CYYC 280900Z 24003KT 15SM BKN080 BKN180 14/10 A2984 RMK AC6AS1 SLP101

CYYC;2008-07-28 10:00;CYYC 281000Z 00000KT 15SM BKN090 14/10 A2985 RMK AC6 SLP102

CYYC;2008-07-28 11:00;CYYC 281100Z 32003KT 15SM BKN100 12/10 A2985 RMK AC6 SLP103

CYYC;2008-07-28 12:00;CYYC 281200Z 31004KT 30SM BKN100 12/09 A2985 RMK AC4 SH DIST N SLP110

CYYC;2008-07-28 13:00;CYYC 281300Z 30004KT 30SM FEW060 BKN090 12/09 A2988 RMK SC2AC2 SLP117

CYYC;2008-07-28 14:00;CYYC 281400Z 34003KT 40SM FEW016 BKN078 BKN180 13/10 A2990 RMK CF1AC6AC2 SLP124

CYYC;2008-07-28 15:00;CYYC 281500Z 35012KT 40SM FEW026 BKN080 BKN220 16/09 A2991 RMK SC2AC6CI1 DIST SH N SLP134

CYYC;2008-07-28 16:00;CYYC 281600Z CCA 34010G17KT 40SM FEW026 SCT080 BKN220 15/09 A2992 RMK SC1AC2CI0 DIST SH N-NE SLP136

CYYC;2008-07-28 17:00;CYYC 281700Z 34011KT 40SM FEW028 FEW160 FEW230 17/10 A2993 RMK CU1AC1CI1 SLP140

CYYC;2008-07-28 18:00;CYYC 281800Z 36008KT 40SM FEW036 FEW240 18/09 A2994 RMK CU1CS1 SLP141

CYYC;2008-07-28 19:00;CYYC 281900Z 34007KT 40SM FEW036 FEW200 FEW250 19/11 A2995 RMK CU1CI1CS1 SLP142

CYYC;2008-07-28 20:00;CYYC 282000Z 27004KT 40SM SCT040 SCT085 19/09 A2994 RMK CU3AC1 SLP141

CYYC;2008-07-28 21:00;CYYC 282100Z 03003KT 40SM FEW044 20/09 A2994 RMK CU2 SLP139

CYYC;2008-07-28 22:00;CYYC 282200Z 00000KT 40SM FEW044 21/08 A2993 RMK CU1 SLP135

CYYC;2008-07-28 23:00;CYYC 282300Z 13005KT 40SM FEW050 FEW250 22/10 A2992 RMK CU1CI0 SLP132

CYYC;2008-07-29 00:00;CYYC 290000Z 20004KT 40SM FEW056 FEW250 23/10 A2991 RMK CU1CI1 SLP125

CYYC;2008-07-29 01:00;CYYC 290100Z 19006KT 40SM FEW052 FEW250 22/09 A2991 RMK CU1CI0 SLP125

CYYC;2008-07-29 02:00;CYYC 290200Z 17009KT 30SM FEW040 BKN250 21/11 A2991 RMK CU1CI0 SLP125

CYYC;2008-07-29 03:00;CYYC 290300Z CCA 15009KT 30SM FEW070 FEW250 19/11 A2991 RMK CU1CI1 CU TR / CONTRAILS SLP126

CYYC;2008-07-29 04:00;CYYC 290400Z 14005KT 30SM FEW070 FEW250 18/11 A2992 RMK CU1CI0 SLP129

CYYC;2008-07-29 05:00;CYYC 290500Z 13008KT 15SM FEW250 16/11 A2992 RMK CI1 SLP130

CYYC;2008-07-29 06:00;CYYC 290600Z 14006KT 15SM SCT250 16/10 A2992 RMK CI0 SLP132

CYYC;2008-07-29 07:00;CYYC 290700Z 14005KT 15SM SKC 14/10 A2992 RMK SLP132

CYYC;2008-07-29 08:00;CYYC 290800Z 14004KT 15SM SKC 13/10 A2992 RMK SLP130

CYYC;2008-07-29 09:00;CYYC 290900Z 24002KT 15SM FEW120 12/10 A2990 RMK AC1 SLP127

CYYC;2008-07-29 10:00;CYYC 291000Z 20004KT 15SM FEW120 11/10 A2990 RMK AC1 SLP126

CYYC;2008-07-29 11:00;CYYC 291100Z 28002KT 15SM SCT120 11/10 A2989 RMK AC1 SLP124

CYYC;2008-07-29 12:00;CYYC 291200Z CCA 00000KT 30SM FEW250 11/09 A2990 RMK CI1 SLP123

CYYC;2008-07-29 13:00;CYYC 291300Z 34002KT 40SM FEW100 FEW250 11/09 A2989 RMK AC1CI0 SLP120

CYYC;2008-07-29 14:00;CYYC 291400Z 34002KT 40SM FEW100 SCT250 13/10 A2988 RMK AC1CI0 SLP118

CYYC;2008-07-29 15:00;CYYC 291500Z 00000KT 40SM FEW100 FEW250 16/10 A2987 RMK AC1CI0 SLP111

CYYC;2008-07-29 16:00;CYYC 291600Z 20003KT 40SM FEW100 FEW250 20/09 A2986 RMK AC1CI1 SLP108

CYYC;2008-07-29 17:00;CYYC 291700Z 17006KT 40SM FEW100 21/07 A2985 RMK AC1 SLP103

CYYC;2008-07-29 18:00;CYYC 291800Z 13006KT 40SM FEW064 FEW100 FEW240 23/09 A2983 RMK CU1AC1CI1 SLP092

CYYC;2008-07-29 19:00;CYYC 291900Z 13006KT 40SM FEW056 FEW100 FEW240 23/08 A2981 RMK CU1AC1CI1 SLP086

CYYC;2008-07-29 20:00;CYYC 292000Z 12008KT 40SM FEW060 FEW100 23/08 A2979 RMK CU1AC1 SLP081

CYYC;2008-07-29 21:00;CYYC 292100Z 14008KT 40SM FEW056 25/10 A2977 RMK CU1 SLP075

CYYC;2008-07-29 22:00;CYYC 292200Z 14009KT 40SM FEW060 25/10 A2976 RMK CU1 SLP070

CYYC;2008-07-29 23:00;CYYC 292300Z 11010KT 40SM FEW064 26/10 A2973 RMK CU1 SLP063

CYYC;2008-07-30 00:00;CYYC 300000Z 08009KT 40SM FEW060 26/09 A2971 RMK CU1 SLP056

CYYC;2008-07-30 01:00;CYYC 300100Z 04007KT 35SM FEW064 FEW110 26/09 A2970 RMK CU1AC1 SLP051

CYYC;2008-07-30 02:00;CYYC 300200Z 01007KT 35SM FEW060CB SCT110 22/12 A2970 RMK CB1AC2 SLP051

CYYC;2008-07-30 03:00;CYYC 300300Z 32003KT 20SM FEW060CB BKN110 21/12 A2970 RMK CB1AC4 SLP049

CYYC;2008-07-30 04:00;CYYC 300400Z 27013G20KT 15SM FEW070CB OVC120 21/06 A2970 RMK CB1AC6 SLP050

CYYC;2008-07-30 05:00;CYYC 300500Z 26018G26KT 15SM BKN150 OVC220 19/05 A2970 RMK AC7CI1 SLP050

CYYC;2008-07-30 06:00;CYYC 300600Z 26011G17KT 15SM BKN180 BKN240 18/06 A2969 RMK AC5CI2 SLP042

CYYC;2008-07-30 07:00;CYYC 300700Z 27007KT 15SM FEW180 SCT240 17/05 A2968 RMK AC1CI2 SLP038

CYYC;2008-07-30 08:00;CYYC 300800Z 25004KT 15SM FEW240 16/06 A2969 RMK CI0 SLP041

CYYC;2008-07-30 09:00;CYYC 300900Z 22007KT 15SM FEW240 15/06 A2969 RMK CI0 CI TR SLP042

CYYC;2008-07-30 10:00;CYYC 301000Z 22005KT 15SM FEW100 SCT240 14/06 A2968 RMK AC1CI2 AC TR SLP039

CYYC;2008-07-30 11:00;CYYC 301100Z 26003KT 15SM FEW097 SCT250 15/05 A2968 RMK AC1CI1 SLP040

CYYC;2008-07-30 12:00;CYYC 301200Z 05002KT 20SM BKN100 BKN240 14/06 A2967 RMK AC5CI1 SLP037

CYYC;2008-07-30 13:00;CYYC 301300Z 08002KT 20SM FEW060 BKN100 OVC220 13/09 A2967 RMK SC1AC6CI1 SC TR SLP035

CYYC;2008-07-30 13:57;CYYC 301357Z 27002KT 15SM -RA SCT065 OVC100 14/ RMK SC4AC4

CYYC;2008-07-30 14:00;CYYC 301400Z 27002KT 15SM -RA SCT065 OVC100 14/08 A2969 RMK SC4AC4 SLP042

CYYC;2008-07-30 14:53;CYYC 301453Z 26010G17KT 30SM FEW065 BKN100 BKN200 13/ RMK SC2AC5CI0

CYYC;2008-07-30 15:00;CYYC 301500Z 26006G15KT 30SM VCSH FEW065 BKN100 BKN200 14/08 A2970 RMK SC2AC5CI0 SLP055

CYYC;2008-07-30 16:00;CYYC 301600Z 26008KT 40SM FEW030 FEW060 BKN120 15/07 A2972 RMK CU1SC2AC6 DIST SH NW-SE SLP061

CYYC;2008-07-30 17:00;CYYC 301700Z 27015KT 40SM FEW040 FEW060 BKN120 BKN180 16/06 A2972 RMK CU1SC1AC4AC2 DIST SH NE-SE SLP061

CYYC;2008-07-30 18:00;CYYC 301800Z 27016KT 40SM FEW050 SCT140 BKN180 18/06 A2974 RMK CU1AC3AC2 SLP064

CYYC;2008-07-30 19:00;CYYC 301900Z 28019KT 40SM FEW060 FEW120 FEW180 SCT220 19/02 A2973 RMK CU1AC1AC2CI0 SLP063

CYYC;2008-07-30 20:00;CYYC 302000Z 26023G31KT 40SM FEW060 FEW140 FEW220 19/00 A2974 RMK CU1AC1CI0 TCU ASOCTD/DIST SH SW SLP065

CYYC;2008-07-30 21:00;CYYC 302100Z 25024G31KT 40SM FEW080TCU FEW140 SCT220 19/M01 A2975 RMK TCU1AC1CI1 DIST SH SW+N SLP069

CYYC;2008-07-30 22:00;CYYC 302200Z 27019G26KT 40SM FEW080TCU FEW140 FEW220 20/M01 A2975 RMK TCU1AC1CI0 DIST SH S-SW SLP071

CYYC;2008-07-30 23:00;CYYC 302300Z 26014G22KT 40SM FEW050 SCT090TCU BKN220 19/00 A2977 RMK CF1TCU3CI1 DIST SH N-NE SLP077

CYYC;2008-07-31 00:00;CYYC 310000Z 36012G20KT 40SM FEW060 FEW090TCU FEW110 FEW220 16/07 A2981 RMK CF1TCU1AC1CI0 DIST SH N-NE SLP097

CYYC;2008-07-31 01:00;CYYC 310100Z 31006KT 40SM FEW090TCU FEW110 FEW220 18/06 A2982 RMK TCU1AC1CI0 DIST SH N+E/ALL CLD TR SLP098

CYYC;2008-07-31 02:00;CYYC 310200Z 26016G24KT 40SM FEW060 FEW120 FEW250 18/01 A2983 RMK CU1AC1CI1 CU+CI TR SLP101

CYYC;2008-07-31 03:00;CYYC 310300Z 26010G19KT 30SM FEW060 FEW140 16/01 A2985 RMK CU1AC1 BOTH CLDS TR SLP111

CYYC;2008-07-31 04:00;CYYC 310400Z 27008KT 20SM FEW060 FEW140 15/01 A2987 RMK CU1AC1 BOTH CLDS TR SLP117

CYYC;2008-07-31 05:00;CYYC 310500Z 29009KT 15SM FEW140 14/01 A2989 RMK AC1 AC TR SLP124

CYYC;2008-07-31 06:00;CYYC 310600Z 28011KT 15SM FEW140 13/M00 A2990 RMK AC1 AC TR SLP129

CYYC;2008-07-31 07:00;CYYC 310700Z 28007KT 15SM SKC 13/M01 A2992 RMK SLP134

CYYC;2008-07-31 08:00;CYYC 310800Z 27008KT 15SM SKC 12/M01 A2992 RMK SLP133

CYYC;2008-07-31 09:00;CYYC 310900Z 28007KT 15SM SKC 12/M01 A2992 RMK SLP135

CYYC;2008-07-31 10:00;CYYC 311000Z 31004KT 15SM SCT250 10/01 A2991 RMK CI1 SLP131

CYYC;2008-07-31 11:00;CYYC 311100Z 31004KT 15SM SCT250 08/01 A2991 RMK CI1 SLP131

CYYC;2008-07-31 12:00;CYYC 311200Z 28002KT 20SM FEW170 BKN250 07/02 A2991 RMK AC1CI2 SLP141

CYYC;2008-07-31 13:00;CYYC 311300Z 23004KT 40SM FEW040 BKN160 BKN250 10/03 A2990 RMK CU1AC4CI1 ACSL S SLP139

CYYC;2008-07-31 14:00;CYYC 311400Z CCA 23005KT 40SM FEW045 SCT160 BKN240 14/02 A2991 RMK CU1AC2CI2 ACSL S-NW SLP142

CYYC;2008-07-31 15:00;CYYC 311500Z 21006KT 40SM FEW045 FEW160 FEW240 14/03 A2991 RMK CU1AC1CI0 TR ACSL S-W SLP133

CYYC;2008-07-31 16:00;CYYC 311600Z 20006KT 40SM FEW050 FEW160 FEW240 16/03 A2991 RMK CU1AC1CI0 TR ACSL W/WND ESTD SLP133

CYYC;2008-07-31 17:00;CYYC 311700Z 19005KT 40SM FEW065 FEW160 BKN220 18/01 A2990 RMK CU1AC2CI1 TR ACSL S-W SLP128

CYYC;2008-07-31 18:00;CYYC 311800Z 24004KT 40SM FEW070 FEW160 BKN220 18/01 A2988 RMK CU1AC2CI1 TR ACSL ALQDS SLP121

CYYC;2008-07-31 19:00;CYYC 311900Z 19003KT 40SM FEW070 FEW140 BKN240 20/02 A2986 RMK CU1AC1CI2 TR CU/TR ACSL ALQDS SLP114

CYYC;2008-07-31 20:00;CYYC 312000Z 20006KT 40SM FEW075 FEW140 OVC220 20/01 A2984 RMK CU1AC1CS3 TR CU/TR ACSL E-NW SLP108

CYYC;2008-07-31 21:00;CYYC 312100Z 17008KT 40SM FEW075 FEW140 OVC220 21/03 A2982 RMK CU1AC2CS5 TR CU/ACSL S-N SLP097

CYYC;2008-07-31 22:00;CYYC 312200Z 17010KT 40SM FEW070 SCT140 OVC200 21/05 A2980 RMK CU1AC3CS4 TR CU/ACSL ALQDS SLP091

CYYC;2008-07-31 23:00;CYYC 312300Z 12009G16KT 40SM FEW070 FEW140 BKN200 21/05 A2978 RMK CU1AC2CI2 TR CU/ACSL ALQDS SLP085

CYYC;2008-08-01 01:00;CYYC 010100Z 12013KT 40SM FEW060 FEW140 FEW220 21/06 A2976 RMK CU1AC1CI1 ACSL ASOCTD SLP080

CYYC;2008-08-01 02:00;CYYC 010200Z 11009KT 40SM FEW140 FEW240 20/07 A2974 RMK AC1CI0 SLP076

CYYC;2008-08-01 03:00;CYYC 010300Z 13008KT 40SM FEW140 FEW240 19/07 A2975 RMK AC1CI1 CI TR SLP071

CYYC;2008-08-01 04:00;CYYC 010400Z 13006KT 20SM FEW140 17/07 A2975 RMK AC1 AC TR SLP072

CYYC;2008-08-01 05:00;CYYC 010500Z 00000KT 15SM FEW140 16/06 A2975 RMK AC1 AC TR SLP071

CYYC;2008-08-01 06:00;CYYC 010600Z 29003KT 15SM FEW140 14/07 A2974 RMK AC1 AC TR SLP069

CYYC;2008-08-01 07:00;CYYC 010700Z 00000KT 15SM FEW240 12/08 A2974 RMK CI1 CI TR SLP068

CYYC;2008-08-01 08:00;CYYC 010800Z 00000KT 15SM FEW240 11/07 A2973 RMK CI1 SLP067

CYYC;2008-08-01 09:00;CYYC 010900Z 17002KT 15SM SKC 11/07 A2973 RMK SLP066

CYYC;2008-08-01 10:00;CYYC 011000Z 00000KT 15SM SKC 10/07 A2972 RMK SLP063

CYYC;2008-08-01 11:00;CYYC 011100Z 27003KT 15SM FEW120 09/06 A2971 RMK AC1 AC TR SLP061

CYYC;2008-08-01 12:00;CYYC 011200Z 36003KT 20SM FEW110 SCT240 08/06 A2970 RMK AC1CI1 SLP058

CYYC;2008-08-01 13:00;CYYC 011300Z 21004KT 30SM FEW110 09/06 A2970 RMK AC1 SLP058

CYYC;2008-08-01 14:00;CYYC 011400Z 13002KT 40SM FEW030 FEW110 FEW240 12/07 A2970 RMK CU1AC1CI1 SLP057

CYYC;2008-08-01 15:00;CYYC 011500Z 20004KT 40SM FEW030 FEW110 SCT240 15/08 A2969 RMK CU1AC1CI2 VIS LWR SW SLP050

CYYC;2008-08-01 16:00;CYYC 011600Z 19004KT 40SM FEW050 FEW110 SCT210 18/07 A2968 RMK CU1AC1CI2 TR CU SLP049

CYYC;2008-08-01 17:00;CYYC 011700Z 18007KT 40SM FEW055TCU FEW140 FEW210 21/07 A2966 RMK TCU1AC1CI1 ALL CLD TR/TCU SW-NW SLP042

CYYC;2008-08-01 18:00;CYYC 011800Z 20016G21KT 40SM FEW060TCU FEW160 FEW220 23/08 A2964 RMK TCU1AC1CI1 ALL CLD TR/DIST TCU S-N SLP030

CYYC;2008-08-01 19:00;CYYC 011900Z 22021G30KT 40SM FEW080TCU FEW160 FEW220 24/06 A2964 RMK TCU1AC1CI1 DIST CB SW SLP029

CYYC;2008-08-01 20:00;CYYC 012000Z 24017G25KT 40SM FEW080TCU SCT140 SCT250 22/03 A2965 RMK TCU2AC2CI0 DIST CB SW-W SLP033

CYYC;2008-08-01 21:00;CYYC 012100Z 27021G28KT 40SM FEW080TCU FEW140 FEW220 21/03 A2970 RMK TCU1AC1CI1 VIS LWR SW SLP055

CYYC;2008-08-01 22:00;CYYC 012200Z 28022G31KT 40SM FEW080TCU FEW140 FEW220 20/05 A2971 RMK TCU1AC1CI0 SLP059

CYYC;2008-08-01 23:00;CYYC 012300Z 27021G26KT 40SM FEW080TCU FEW140 FEW220 21/05 A2972 RMK TCU1AC1CI1 TR AC SLP063

CYYC;2008-08-02 00:00;CYYC 020000Z 27016KT 40SM FEW070TCU FEW120 FEW200 21/04 A2974 RMK TCU1AC1CI0 TR AC SLP074

CYYC;2008-08-02 01:00;CYYC 020100Z 30014G20KT 20SM FEW065TCU FEW120 SCT240 20/04 A2976 RMK TCU1AC1CI2 TR TCU/ACSL W-N SLP079

CYYC;2008-08-02 02:00;CYYC 020200Z 29011G20KT 20SM FEW060 FEW120 SCT240 18/03 A2978 RMK CU1AC1CI0 SLP084

CYYC;2008-08-02 03:00;CYYC 020300Z 25011G17KT 20SM FEW060 FEW110 FEW240 17/03 A2979 RMK CU1AC1CI0 SLP086

CYYC;2008-08-02 04:00;CYYC 020400Z 25015G20KT 15SM FEW060 FEW110 16/03 A2980 RMK CU1AC1 CU TR SLP091

CYYC;2008-08-02 05:00;CYYC 020500Z 26012G17KT 15SM FEW110 15/02 A2982 RMK AC1 AC TR SLP095

CYYC;2008-08-02 06:00;CYYC 020600Z 30003KT 15SM BKN120 12/04 A2984 RMK AC3 SLP099

CYYC;2008-08-02 07:00;CYYC 020700Z 02003KT 15SM BKN110CB BKN180 11/04 A2984 RMK CB4AC1 SLP101

CYYC;2008-08-02 08:00;CYYC 020800Z 32003KT 15SM OVC140 12/06 A2983 RMK AC6 SLP098

CYYC;2008-08-02 09:00;CYYC 020900Z 08004KT 15SM BKN120 OVC210 11/08 A2985 RMK AC5CI2 SLP106

CYYC;2008-08-02 10:00;CYYC 021000Z 00000KT 15SM BKN150 11/08 A2986 RMK AC6 SLP110

CYYC;2008-08-02 11:00;CYYC 021100Z 13004KT 15SM BKN140 11/07 A2986 RMK AC6 SLP111

CYYC;2008-08-02 12:00;CYYC 021200Z 20003KT 30SM FEW040 BKN140 BKN220 11/07 A2988 RMK CU1AC3CI1 CU TR SLP118

CYYC;2008-08-02 13:00;CYYC 021300Z 18004KT 40SM FEW045 FEW140 FEW250 10/07 A2988 RMK CU1AC1CI0 CU+AC TR SLP120

CYYC;2008-08-02 14:00;CYYC 021400Z 04002KT 40SM FEW045 FEW140 FEW250 12/08 A2990 RMK CU1AC1CI1 ALL CLD TR SLP124

CYYC;2008-08-02 15:00;CYYC 021500Z 36003KT 40SM FEW045 FEW140 14/06 A2990 RMK CU1AC1 ALL CLD TR SLP126

CYYC;2008-08-02 16:00;CYYC 021600Z 35003KT 40SM FEW045 FEW140 16/06 A2990 RMK CU1AC1 ALL CLD TR SLP128

CYYC;2008-08-02 17:00;CYYC 021700Z 03009KT 40SM FEW045 FEW140 17/07 A2991 RMK CU1AC1 TR AC SLP129

CYYC;2008-08-02 18:00;CYYC 021800Z 01004KT 40SM FEW050 FEW150 17/06 A2992 RMK CU1AC1 TR AC SLP135

CYYC;2008-08-02 19:00;CYYC 021900Z 33007KT 40SM FEW055 FEW150 18/05 A2991 RMK CU2AC1 TR AC/TCU+DIST SH NW SLP134

CYYC;2008-08-02 20:00;CYYC 022000Z 03010KT 40SM FEW055 FEW150 FEW200 18/07 A2991 RMK CU2AC1CI0 TCU+DIST SH NW SLP133

CYYC;2008-08-02 21:00;CYYC 022100Z 05005KT 40SM FEW060TCU FEW110 SCT200 18/04 A2991 RMK TCU2AC1CI0 DIST SH SW-W+NW SLP134

CYYC;2008-08-02 22:00;CYYC 022200Z 04005KT 40SM FEW060TCU SCT120 SCT200 19/05 A2992 RMK TCU2AC2CI1 DIST SH S-SW+W-NW SLP136

CYYC;2008-08-02 23:00;CYYC 022300Z 03010G15KT 20SM BKN060TCU BKN200 18/07 A2992 RMK TCU6CI0 VIRGA SW/SH W-N SLP138

CYYC;2008-08-02 23:26;CYYC 022326Z 34010KT 20SM -SHRA BKN058TCU BKN140 BKN200 17/ RMK TCU6AC1CI1

CYYC;2008-08-03 00:00;CYYC 030000Z 36008KT 20SM -SHRA FEW058 SCT080TCU BKN120 BKN200 16/07 A2994 RMK SC2TCU2AC1CI1 PCPN VRY LGT SLP145

CYYC;2008-08-03 00:20;CYYC 030020Z 06007KT 20SM VCSH FEW060 SCT080TCU SCT120 BKN220 18/ RMK SC2TCU1AC1CI1 SH NE-E

CYYC;2008-08-03 01:00;CYYC 030100Z 02006KT 20SM FEW070TCU FEW120 FEW200 18/05 A2993 RMK TCU1AC1CI0 CB SE/DIST SH SW+N SLP142

CYYC;2008-08-03 02:00;CYYC 030200Z 07007KT 30SM FEW040 FEW100 FEW200 17/08 A2994 RMK CU1AC1CI0 DIST SH NW / SE-SW SLP146

CYYC;2008-08-03 03:00;CYYC 030300Z 07004KT 30SM FEW032CB FEW100 16/08 A2996 RMK CB1AC1 DIST SH SE-SW / CB SE-SW SLP149

CYYC;2008-08-03 04:00;CYYC 030400Z 04006KT 25SM FEW020CB FEW100 14/09 A3000 RMK CB2AC1 DIST SH SE-SW / LTNG / CB SE-SW+NW SLP160

CYYC;2008-08-03 05:00;CYYC 030500Z 34005KT 15SM FEW065 SCT080 12/08 A3001 RMK SC2AC1 CB + LTNG S+NW SLP163

CYYC;2008-08-03 05:47;CYYC 030547Z CCA 33004KT 15SM -SHRA SCT060 BKN080 13/ RMK SC4AC1

CYYC;2008-08-03 06:00;CYYC 030600Z CCA 35004KT 15SM -SHRA SCT060 BKN080 12/10 A3003 RMK SC4AC1 CB + LTNG SW SLP173

CYYC;2008-08-03 06:30;CYYC 030630Z 34005KT 15SM SCT060 BKN080 12/ RMK SC4AC2

CYYC;2008-08-03 07:00;CYYC 030700Z 36006KT 15SM SCT060 BKN080 12/10 A3003 RMK SC4AC1 SLP175

CYYC;2008-08-03 08:00;CYYC 030800Z 28007KT 15SM BKN060 BKN080 12/09 A3004 RMK SC5AC2 SLP177

CYYC;2008-08-03 09:00;CYYC 030900Z 28003KT 15SM BKN060 BKN080 12/08 A3003 RMK SC5AC2 SLP174

CYYC;2008-08-03 10:00;CYYC 031000Z 27004KT 15SM SCT060 BKN100 BKN220 12/07 A3003 RMK SC3AC2CI1 SLP172

CYYC;2008-08-03 11:00;CYYC 031100Z 28002KT 15SM FEW065 SCT160 12/07 A3002 RMK SC1AC2 SLP169

CYYC;2008-08-03 12:00;CYYC 031200Z 23009KT 25SM FEW065 SCT160 11/07 A3002 RMK SC2AC2 VIRGA NW-NE SLP174

CYYC;2008-08-03 13:00;CYYC 031300Z 22012KT 30SM BKN065 BKN190 10/08 A3003 RMK SC5AC0 DIST PCPN ALQS SLP177

CYYC;2008-08-03 14:00;CYYC 031400Z 23008KT 20SM VCSH BKN065 BKN160 11/08 A3004 RMK SC6AC1 SH SE-SW SLP181

CYYC;2008-08-03 15:00;CYYC 031500Z 23008KT 30SM BKN060 BKN080 12/08 A3006 RMK SC6AC1 TCU ASOCTD/DIST SH NE-S SLP186

CYYC;2008-08-03 16:00;CYYC 031600Z 24005KT 30SM FEW062 BKN095 OVC200 12/08 A3006 RMK SC2AC4CI1 TCU ASOCTD NW/DIST SH E-S SLP186

CYYC;2008-08-03 17:00;CYYC 031700Z 25007KT 20SM FEW060TCU BKN110 OVC200 14/09 A3005 RMK TCU2AC4CI2 SLP185

CYYC;2008-08-03 18:00;CYYC 031800Z 22009KT 20SM FEW050TCU SCT110 BKN180 OVC200 16/09 A3005 RMK TCU1AC2AC2CI2 CB SW/DIST SH SE-SW SLP182

CYYC;2008-08-03 19:00;CYYC 031900Z 23005KT 30SM FEW048TCU SCT110 BKN160 OVC200 17/07 A3004 RMK TCU2AC2AC2CI2 DIST SH NW SLP180

CYYC;2008-08-03 20:00;CYYC 032000Z 20007KT 30SM SCT048TCU BKN095 OVC200 17/08 A3004 RMK TCU4AC2CI2 DIST SH SW/CB+SH NW-N SLP179

CYYC;2008-08-03 20:08;CYYC 032008Z 21006KT 20SM TSRA BKN040CB BKN090 OVC200 16/ RMK CB6AC2CI1

CYYC;2008-08-03 20:11;CYYC 032011Z 26006KT 20SM TSRAGR BKN040CB BKN090 OVC200 14/ RMK CB6AC2CI1 LTG OVHD/SHGR DIAM 5MM

CYYC;2008-08-03 20:20;CYYC 032020Z 27005G28KT 20SM TSRA BKN040CB OVC090 13/ REGR RMK CB6AC2 LTG OVRHD

CYYC;2008-08-03 20:32;CYYC 032032Z 19005KT 30SM TS VCSH BKN040CB BKN100 14/ RERAGR RMK CB6AC2 LTGCG

CYYC;2008-08-03 20:56;CYYC 032056Z 19007KT 20SM SCT040CB SCT110 BKN180 14/ RETSRAGR RMK CB3AC1AC3 CB+SH NE-SW/CB N

CYYC;2008-08-03 21:00;CYYC 032100Z 19007KT 20SM SCT040CB SCT110 BKN180 14/10 A3004 RETSRAGR RMK CB3AC1AC3 CB+SH NE-SW/CB N SLP180

CYYC;2008-08-03 22:00;CYYC 032200Z 19009KT 20SM FEW040CB FEW065 SCT160 BKN240 18/09 A3003 RMK CB2CU1AC1CI2 CB ALQDS/DIST SH SW-E SLP179

CYYC;2008-08-03 22:38;CYYC 032238Z 31003KT 15SM TS VCSH BKN050CB BKN130 BKN240 17/ RMK CB5AC1CI1 SH SW-NE

CYYC;2008-08-03 22:52;CYYC 032252Z 33012G19KT 15SM -TSRA BKN050CB BKN130 BKN240 15/ RMK CB6AC1CI1 LTGCG

CYYC;2008-08-03 23:00;CYYC 032300Z 32016G25KT 15SM -TSRA BKN060CB BKN140 BKN240 14/09 A3006 RMK CB5AC2CI1 LTGCG/PCPN VRY LGT SLP189

CYYC;2008-08-03 23:21;CYYC 032321Z 33017KT 15SM -SHRA SCT050CB BKN100 BKN240 14/ RETS RMK CB3AC3CI1 PCPN VRY LGT/CB ALQDS

CYYC;2008-08-04 00:00;CYYC 040000Z 31006KT 20SM -SHRA FEW050CB BKN110 BKN210 17/08 A3005 RETS RMK CB2AC3CI1 CB ALQDS/PCPN VRY LGT SLP185

CYYC;2008-08-04 00:16;CYYC 040016Z 29005KT 30SM FEW050CB BKN085 BKN110 BKN210 16/ RMK CB2AC2AC1CI1 DIST CB+SH NW-S

CYYC;2008-08-04 01:00;CYYC 040100Z 34019G25KT 30SM FEW065 FEW180 BKN220 14/08 A3008 RMK SC1AC2CI2 TCU ASOCTD/DIST SH W-NE SLP193

CYYC;2008-08-04 02:00;CYYC 040200Z CCA 33004KT 30SM FEW040CB BKN080 BKN120 13/08 A3007 RMK CB1AC4AS2 CB SE-SW SLP191

CYYC;2008-08-04 03:00;CYYC 040300Z 28005KT 30SM FEW040CB FEW080 SCT120 BKN240 13/08 A3008 RMK CB1AC1AC2CI1 CB NE+S-SW+NW/SH DIST NE/CB+AC TR SLP199

CYYC;2008-08-04 04:00;CYYC 040400Z 27006KT 15SM FEW040CB FEW080 FEW120 13/06 A3010 RMK CB1AC1AC1 CB SW/CB+AC TR SLP203

CYYC;2008-08-04 05:00;CYYC 040500Z 25005KT 15SM FEW065 FEW120 12/06 A3010 RMK SC1AC1 SLP203

CYYC;2008-08-04 06:00;CYYC 040600Z 25005KT 15SM FEW070 FEW130 12/07 A3010 RMK AC1AC2 SLP200

CYYC;2008-08-04 07:00;CYYC 040700Z 29003KT 15SM SCT130 12/07 A3010 RMK AC2 SLP200

CYYC;2008-08-04 08:00;CYYC 040800Z 28007KT 15SM SCT130 12/07 A3010 RMK AC3 SLP201

CYYC;2008-08-04 09:00;CYYC 040900Z 30006KT 15SM FEW130 12/07 A3010 RMK AC1 SLP203

CYYC;2008-08-04 10:00;CYYC 041000Z 30006KT 15SM FEW130 11/06 A3010 RMK AC1 SLP204

CYYC;2008-08-04 11:00;CYYC 041100Z 33002KT 15SM FEW130 10/07 A3010 RMK AC1 SLP204

CYYC;2008-08-04 12:00;CYYC 041200Z 23002KT 30SM FEW130 10/06 A3010 RMK AC1 SLP204

CYYC;2008-08-04 13:00;CYYC 041300Z 00000KT 40SM SCT130 11/06 A3011 RMK AC2 SLP208

CYYC;2008-08-04 14:00;CYYC 041400Z 00000KT 40SM BKN130 12/07 A3012 RMK AC4 SLP211

CYYC;2008-08-04 15:00;CYYC 041500Z 00000KT 40SM FEW130 15/08 A3013 RMK AC2 SLP211

CYYC;2008-08-04 16:00;CYYC 041600Z 24006KT 40SM FEW040 FEW130 18/09 A3012 RMK CU1AC2 SLP209

CYYC;2008-08-04 17:00;CYYC 041700Z 25006KT 40SM FEW040 FEW110 19/06 A3013 RMK CU1AC1 SLP211

CYYC;2008-08-04 18:00;CYYC 041800Z 32005KT 40SM FEW040 FEW110 20/06 A3012 RMK CU1AC1 SLP203

CYYC;2008-08-04 19:00;CYYC 041900Z 04004KT 40SM FEW045 FEW110 21/06 A3012 RMK CU1AC1 SLP202

CYYC;2008-08-04 20:00;CYYC 042000Z 25002KT 40SM FEW056 FEW110 21/05 A3011 RMK CU1AC1 SLP199

CYYC;2008-08-04 21:00;CYYC 042100Z 15005KT 40SM FEW066 FEW110 22/05 A3011 RMK CU2AC1 SLP196

CYYC;2008-08-04 22:00;CYYC 042200Z 05005KT 40SM FEW089 FEW110 23/06 A3010 RMK CU2AC1 SLP194

CYYC;2008-08-04 23:00;CYYC 042300Z 11006KT 40SM FEW087 FEW100 23/07 A3009 RMK CU2AC1 SLP192

CYYC;2008-08-05 00:00;CYYC 050000Z 13008KT 40SM FEW081 FEW100 23/06 A3009 RMK CU2AC1 SLP190

CYYC;2008-08-05 01:00;CYYC 050100Z 13011KT 40SM FEW080 FEW100 FEW240 22/07 A3008 RMK CU1AC1CI1 SLP189

CYYC;2008-08-05 02:00;CYYC 050200Z 13012KT 40SM FEW080 FEW100 FEW240 21/07 A3009 RMK CU1AC1CI1 SLP191

CYYC;2008-08-05 03:00;CYYC 050300Z 14006KT 40SM FEW090 FEW250 20/07 A3009 RMK AC1CI0 SLP189

CYYC;2008-08-05 04:00;CYYC 050400Z 16006KT 15SM FEW090 FEW250 17/08 A3011 RMK AC1CI0 SLP194

CYYC;2008-08-05 05:00;CYYC 050500Z 16007KT 15SM FEW090 FEW250 18/07 A3012 RMK AC1CI0 SLP196

CYYC;2008-08-05 06:00;CYYC 050600Z 19004KT 15SM SCT240 16/08 A3012 RMK CI2 SLP198

CYYC;2008-08-05 07:00;CYYC 050700Z 18004KT 15SM FEW240 14/08 A3012 RMK CI1 SLP197

CYYC;2008-08-05 08:00;CYYC 050800Z 20004KT 15SM FEW240 13/08 A3011 RMK CI1 SLP195

CYYC;2008-08-05 09:00;CYYC 050900Z 22003KT 15SM FEW120 FEW240 13/08 A3011 RMK AC1CI1 SLP195

CYYC;2008-08-05 10:00;CYYC 051000Z 30003KT 15SM FEW120 12/08 A3012 RMK AC1 SLP198

CYYC;2008-08-05 11:00;CYYC 051100Z 34014G19KT 15SM BKN110 12/09 A3017 RMK AC6 SLP211

CYYC;2008-08-05 12:00;CYYC 051200Z 34014G19KT 20SM BKN100 12/10 A3018 RMK AC6 SLP220

CYYC;2008-08-05 13:00;CYYC 051300Z 33009KT 30SM SCT100 11/09 A3020 RMK AC2 SLP224

CYYC;2008-08-05 14:00;CYYC 051400Z 31010KT 40SM FEW100 13/09 A3020 RMK AC2 SLP226

CYYC;2008-08-05 15:00;CYYC 051500Z 32009KT 40SM FEW100 15/09 A3021 RMK AC1 SLP228

CYYC;2008-08-05 16:00;CYYC 051600Z 31005KT 40SM FEW100 17/09 A3021 RMK AC1 SLP229

CYYC;2008-08-05 17:00;CYYC 051700Z 36008KT 40SM FEW036 FEW100 19/09 A3021 RMK CU1AC1 CU TR SLP229

CYYC;2008-08-05 18:00;CYYC 051800Z 35009KT 40SM FEW040 FEW100 19/08 A3021 RMK CU1AC1 SLP231

CYYC;2008-08-05 19:00;CYYC 051900Z 02009KT 40SM FEW044 FEW220 21/10 A3021 RMK CU1CI1 CI TR SLP231

CYYC;2008-08-05 20:00;CYYC 052000Z 36005KT 40SM FEW044 FEW220 21/08 A3021 RMK CU1CI1 CI TR SLP231

CYYC;2008-08-05 21:00;CYYC 052100Z 04006KT 40SM FEW048 21/09 A3022 RMK CU1 SLP232

CYYC;2008-08-05 22:00;CYYC 052200Z 02008KT 40SM FEW052 22/10 A3021 RMK CU1 SLP229

CYYC;2008-08-05 23:00;CYYC 052300Z 04007KT 40SM FEW052 23/10 A3021 RMK CU1 SLP229

CYYC;2008-08-06 00:00;CYYC 060000Z 05005KT 40SM FEW052 22/09 A3021 RMK CU1 SLP231

CYYC;2008-08-06 01:00;CYYC 060100Z 06008KT 40SM FEW048 22/09 A3021 RMK CU1 SLP232

CYYC;2008-08-06 02:00;CYYC 060200Z 05009KT 20SM FEW048 21/10 A3022 RMK CU1 CU TR SLP234

CYYC;2008-08-06 03:00;CYYC 060300Z 10003KT 20SM FEW050 19/10 A3023 RMK SC1 SC TR SLP238

CYYC;2008-08-06 04:00;CYYC 060400Z 09003KT 15SM FEW050 18/09 A3025 RMK SC1 SC TR SLP243

CYYC;2008-08-06 05:00;CYYC 060500Z 06003KT 15SM FEW050 18/10 A3025 RMK SC1 SC TR SLP244

CYYC;2008-08-06 06:00;CYYC 060600Z 33003KT 15SM FEW070 15/10 A3026 RMK AC1 AC TR SLP250

CYYC;2008-08-06 07:00;CYYC 060700Z 00000KT 15SM FEW070 14/10 A3027 RMK AC1 AC TR SLP252

CYYC;2008-08-06 08:00;CYYC 060800Z 02003KT 15SM SKC 12/09 A3027 RMK SLP251

CYYC;2008-08-06 09:00;CYYC 060900Z 36003KT 15SM SKC 11/09 A3027 RMK SLP253

CYYC;2008-08-06 10:00;CYYC 061000Z 00000KT 15SM SKC 11/08 A3027 RMK SLP253

CYYC;2008-08-06 11:00;CYYC 061100Z 00000KT 15SM SKC 11/08 A3026 RMK SLP252

CYYC;2008-08-06 12:00;CYYC 061200Z 00000KT 20SM FEW110 10/08 A3026 RMK AC1 AC TR SLP251

CYYC;2008-08-06 13:00;CYYC 061300Z 00000KT 30SM SKC 10/08 A3026 RMK SLP251

CYYC;2008-08-06 14:00;CYYC 061400Z 20003KT 30SM SKC 12/09 A3026 RMK SLP249

CYYC;2008-08-06 15:00;CYYC 061500Z 20005KT 30SM SKC 16/10 A3025 RMK SLP243

CYYC;2008-08-06 16:00;CYYC 061600Z 16009KT 30SM SKC 19/10 A3024 RMK SLP239

CYYC;2008-08-06 17:00;CYYC 061700Z 15012KT 30SM FEW040 21/10 A3023 RMK CU1 SLP236

CYYC;2008-08-06 18:00;CYYC 061800Z 14017G24KT 30SM FEW052 23/09 A3021 RMK CU1 SLP226

CYYC;2008-08-06 19:00;CYYC 061900Z 16014G20KT 30SM FEW056 24/10 A3020 RMK CU1 SLP222

CYYC;2008-08-06 20:00;CYYC 062000Z 15018KT 30SM FEW060 24/10 A3018 RMK CU1 SLP217

CYYC;2008-08-06 21:00;CYYC 062100Z 15018KT 30SM FEW064 25/09 A3017 RMK CU1 SLP213

CYYC;2008-08-06 22:00;CYYC 062200Z 14014G21KT 30SM FEW064 26/09 A3015 RMK CU1 SLP207

CYYC;2008-08-06 23:00;CYYC 062300Z 15013G21KT 30SM FEW064 26/10 A3014 RMK CU1 SLP204

CYYC;2008-08-07 00:00;CYYC 070000Z 15015KT 30SM FEW072 26/08 A3013 RMK CU1 SLP200

CYYC;2008-08-07 01:00;CYYC 070100Z CCA 15016KT 30SM FEW064 FEW220 25/10 A3012 RMK CU1CI1 CU TR SLP197

CYYC;2008-08-07 02:00;CYYC 070200Z 14012KT 20SM FEW056 FEW120 FEW230 24/10 A3010 RMK CU1AC1CI0 CU TR SLP193

CYYC;2008-08-07 03:00;CYYC 070300Z 14008KT 20SM FEW050 FEW110 FEW250 21/11 A3011 RMK CU1AC1CI1 CU TR SLP191

CYYC;2008-08-07 04:00;CYYC 070400Z 14007KT 15SM SCT140 BKN240 21/10 A3011 RMK AC2CI2 SLP192

CYYC;2008-08-07 05:00;CYYC 070500Z 16008KT 15SM SCT150 BKN250 19/10 A3011 RMK AC2CI2 SLP191

CYYC;2008-08-07 06:00;CYYC 070600Z 18005KT 15SM FEW240 17/10 A3010 RMK CI1 SLP186

CYYC;2008-08-07 07:00;CYYC 070700Z 17009KT 15SM FEW150 BKN240 18/09 A3009 RMK AC2CI2 SLP182

CYYC;2008-08-07 08:00;CYYC 070800Z 15009KT 15SM FEW140 BKN210 18/08 A3007 RMK AC1CI3 SLP177

CYYC;2008-08-07 09:00;CYYC 070900Z 16007KT 15SM FEW160 FEW240 16/08 A3006 RMK AC1CI0 AC TR SLP168

CYYC;2008-08-07 10:00;CYYC 071000Z 16007KT 15SM FEW160 FEW240 14/09 A3005 RMK AC1CI1 AC TR SLP164

CYYC;2008-08-07 11:00;CYYC 071100Z 18003KT 15SM BKN170 BKN240 15/09 A3004 RMK AC2CI2 SLP163

CYYC;2008-08-07 12:00;CYYC 071200Z 19003KT 20SM BKN170 OVC240 15/09 A3004 RMK AC5CI2 SLP160

CYYC;2008-08-07 13:00;CYYC 071300Z 18003KT 30SM FEW085 BKN170 BKN240 14/10 A3003 RMK AC1AC4CI2 SLP158

CYYC;2008-08-07 14:00;CYYC 071400Z 19004KT 30SM FEW085 BKN170 BKN240 15/10 A3001 RMK AC1AC5CI2 SLP153

CYYC;2008-08-07 15:00;CYYC 071500Z 20006KT 25SM FEW080 BKN170 BKN220 17/10 A3000 RMK AC2AC3CI0 SLP153

CYYC;2008-08-07 16:00;CYYC 071600Z 22008KT 25SM FEW050 BKN150 BKN180 19/10 A3001 RMK SC2AC3AC2 DIST SH SW SLP156

CYYC;2008-08-07 17:00;CYYC 071700Z 22006KT 25SM FEW060 SCT130 BKN160 BKN220 20/10 A3000 RMK SC2AC2AC2CI0 DIST SH NE-SW SLP153

CYYC;2008-08-07 18:00;CYYC 071800Z 17006KT 30SM FEW060 FEW120 FEW220 24/12 A3000 RMK CU1AC1CI0 SLP146

CYYC;2008-08-07 19:00;CYYC 071900Z 18011G16KT 30SM FEW070 FEW150 FEW220 28/11 A2998 RMK CU1AC1CI1 TR CU+CI SLP142

CYYC;2008-08-07 20:00;CYYC 072000Z 18011G17KT 30SM FEW075 FEW180 FEW240 30/11 A2996 RMK CU1AC1CI1 TCU ASOCTD SLP135

CYYC;2008-08-07 21:00;CYYC 072100Z 14014G19KT 30SM FEW075TCU FEW160 BKN220 30/10 A2995 RMK TCU1AC1CI3 DIST CB NW SLP123

CYYC;2008-08-07 22:00;CYYC 072200Z 15012KT 30SM FEW075TCU SCT160 BKN220 29/10 A2994 RMK TCU1AC2CS3 DIST CB NW SLP120

CYYC;2008-08-07 23:00;CYYC 072300Z 15011KT 30SM FEW075TCU FEW140 OVC220 29/12 A2992 RMK TCU1AC2CS3 DIST CB W-NW SLP115

CYYC;2008-08-08 00:00;CYYC 080000Z 16011G16KT 30SM FEW070TCU FEW140 SCT200 29/11 A2991 RMK TCU1AC2CI0 ACSL SW-N SLP112

CYYC;2008-08-08 01:00;CYYC 080100Z 17011KT 30SM FEW070 FEW160 FEW200 28/12 A2990 RMK CU1AC1CI0 TR ACSL W SLP109

CYYC;2008-08-08 02:00;CYYC 080200Z 15008KT 25SM FEW070 FEW160 26/13 A2989 RMK CU1AC1 BOTH CLDS TR SLP106

CYYC;2008-08-08 03:00;CYYC 080300Z 14005KT 25SM FEW045CB FEW150 FEW240 24/13 A2988 RMK CB1AC1CI1 VIRGA W/ AC+CI TR SLP109

CYYC;2008-08-08 04:00;CYYC 080400Z 13003KT 15SM FEW040CB FEW150 FEW240 23/14 A2989 RMK CB1AC1CI1 AC+CI TR SLP111

CYYC;2008-08-08 05:00;CYYC 080500Z 32002KT 15SM FEW120 21/15 A2988 RMK AC1 AC TR SLP109

CYYC;2008-08-08 06:00;CYYC 080600Z 33002KT 15SM FEW150 19/15 A2988 RMK AC1 AC TR SLP104

CYYC;2008-08-08 07:00;CYYC 080700Z 36005KT 15SM FEW110 FEW240 17/14 A2988 RMK AC2CI1 SLP105

CYYC;2008-08-08 08:00;CYYC 080800Z 33006KT 15SM FEW110 FEW240 17/13 A2988 RMK AC1CI1 SLP105

CYYC;2008-08-08 09:00;CYYC 080900Z 31005KT 15SM FEW110 FEW240 16/13 A2987 RMK AC1CI1 SLP097

CYYC;2008-08-08 10:00;CYYC 081000Z 32004KT 15SM FEW140 15/12 A2988 RMK AC1 AC TR SLP099

CYYC;2008-08-08 11:00;CYYC 081100Z 35007KT 15SM FEW110 15/13 A2989 RMK AC1 AC TR SLP103

CYYC;2008-08-08 12:00;CYYC 081200Z 32009KT 20SM FEW080 BKN110 16/12 A2990 RMK ACC2AC4 SLP108

CYYC;2008-08-08 13:00;CYYC 081300Z 31008KT 30SM FEW040 FEW070 SCT110 16/12 A2991 RMK CU1ACC1AC1 SLP110

CYYC;2008-08-08 14:00;CYYC 081400Z 32010KT 25SM FEW040 FEW110 FEW200 18/13 A2990 RMK CU1AC1CI1 ALL CLD TR SLP108

CYYC;2008-08-08 15:00;CYYC 081500Z 33010KT 20SM FEW110 20/13 A2991 RMK ACC1 SLP112

CYYC;2008-08-08 16:00;CYYC 081600Z 34009KT 20SM FEW120 FEW220 22/13 A2991 RMK AC1CI1 SLP114

CYYC;2008-08-08 17:00;CYYC 081700Z CCA 36008KT 20SM FEW140 FEW220 24/13 A2992 RMK AC1CI1 SLP116

CYYC;2008-08-08 18:00;CYYC 081800Z 02009KT 20SM FEW050 FEW160 SCT220 24/13 A2993 RMK CU1AC2CI1 TR CU SLP120

CYYC;2008-08-08 19:00;CYYC 081900Z 04007KT 20SM FEW050 FEW160 BKN220 24/14 A2992 RMK CU1AC1CS3 TR CU+AC/CC ASOCTD SLP119

CYYC;2008-08-08 20:00;CYYC 082000Z 03007KT 20SM FEW060TCU FEW160 BKN220 26/13 A2990 RMK TCU1AC1CS2 TR TCU SW-NW SLP113

CYYC;2008-08-08 21:00;CYYC 082100Z 04006KT 20SM FEW070TCU FEW200 27/13 A2989 RMK TCU1CI2 TR TCU SW-NW SLP108

CYYC;2008-08-08 22:00;CYYC 082200Z 09003KT 15SM FEW070TCU FEW160 OVC210 28/14 A2988 RMK TCU1AC1CI3 TR TCU SW-NW SLP105

CYYC;2008-08-08 23:00;CYYC 082300Z 14005KT 15SM FEW070TCU FEW160 BKN200 28/14 A2986 RMK TCU1AC2CI1 TR TCU S-NW SLP099

CYYC;2008-08-09 00:00;CYYC 090000Z 11006KT 15SM FEW070TCU FEW160 SCT200 29/12 A2984 RMK TCU1AC1CI1 SLP088

CYYC;2008-08-09 01:00;CYYC 090100Z 12006KT 15SM FEW070TCU FEW160 FEW200 27/14 A2984 RMK TCU1AC1CI1 TR TCU/CB NW SLP086

CYYC;2008-08-09 02:00;CYYC 090200Z 10004KT 20SM FEW060 FEW075CB FEW140 FEW250 26/13 A2983 RMK CU1CB1AC1CI0 CU TR SLP085

CYYC;2008-08-09 03:00;CYYC 090300Z 06002KT 20SM FEW060 FEW075CB SCT110 BKN250 23/15 A2983 RMK CU1CB2AC1CI0 SLP086

CYYC;2008-08-09 04:00;CYYC 090400Z 34007KT 15SM SCT080CB BKN140 BKN240 23/15 A2985 RMK CB4AC2CI0 LTGCC S-W SLP090

CYYC;2008-08-09 05:00;CYYC 090500Z CCA 30011G17KT 15SM BKN084CB BKN140 OVC240 21/13 A2989 RMK CB5AC2CI0 LTGCG S-W-N SLP103

CYYC;2008-08-09 05:54;CYYC 090554Z 32015G22KT 15SM TS BKN088CB OVC110 18/ RMK CB6AC2 LTGCG S-W-N

CYYC;2008-08-09 06:00;CYYC 090600Z 32014KT 15SM TS BKN088CB OVC110 18/13 A2987 RMK CB6AC2 LTGCG S-W-N SLP100

CYYC;2008-08-09 07:00;CYYC 090700Z 34010G16KT 15SM TS FEW080CB BKN110 BKN240 18/12 A2986 RMK CB2AC2CI1 LTGCG SSE SLP097

CYYC;2008-08-09 08:00;CYYC 090800Z 23007KT 15SM TS FEW080CB SCT130 SCT250 16/12 A2988 RMK CB2AC1CI0 LTGCG E-SE SLP103

CYYC;2008-08-09 09:00;CYYC 090900Z 32007KT 15SM FEW085 FEW130 16/12 A2986 RETS RMK AC1AC2 SLP099

CYYC;2008-08-09 10:00;CYYC 091000Z 34003KT 15SM FEW090 15/11 A2987 RMK AC1 AC TR SLP103

CYYC;2008-08-09 11:00;CYYC 091100Z 24006KT 15SM FEW085 FEW120 FEW240 14/12 A2989 RMK AC1AC1CI0 SLP107

CYYC;2008-08-09 12:00;CYYC 091200Z 25008KT 20SM FEW085 BKN120 OVC220 15/11 A2989 RMK AC2AC3CI2 SLP107

CYYC;2008-08-09 13:00;CYYC 091300Z 20004KT 40SM FEW070 BKN190 OVC230 15/12 A2989 RMK AC2AC3CI2 SLP108

CYYC;2008-08-09 14:00;CYYC 091400Z 29002KT 40SM FEW070 BKN110 BKN220 16/12 A2987 RMK AC2AC4CI1 DIST SH E-SE+NW SLP100

CYYC;2008-08-09 15:00;CYYC 091500Z 14007KT 40SM FEW070 FEW110 FEW220 19/12 A2988 RMK AC1AC1CI0 SLP106

CYYC;2008-08-09 16:00;CYYC 091600Z 17006KT 40SM FEW070 FEW110 FEW220 21/12 A2988 RMK AC1AC1CI1 SLP106

CYYC;2008-08-09 17:00;CYYC 091700Z 17007KT 40SM FEW060 FEW110 FEW220 24/12 A2987 RMK CU1AC1CI1 ALL CLD TR SLP102

CYYC;2008-08-09 18:00;CYYC 091800Z 16014KT 40SM FEW060 FEW110 FEW220 25/12 A2987 RMK CU1AC1CI1 ALL CLD TR SLP100

CYYC;2008-08-09 19:00;CYYC 091900Z 18011G16KT 40SM FEW060 FEW180 FEW250 26/12 A2986 RMK CU1AC1CI1 ALL CLD TR SLP098

CYYC;2008-08-09 20:00;CYYC 092000Z 19008KT 40SM FEW075 FEW190 SCT250 27/11 A2985 RMK CU1AC2CI1 TR CU SLP094

CYYC;2008-08-09 21:00;CYYC 092100Z 14009KT 30SM FEW075TCU FEW180 FEW250 28/11 A2982 RMK TCU1AC1CI1 TR TCU SW-NW SLP083

CYYC;2008-08-09 22:00;CYYC 092200Z 14009G15KT 30SM FEW080 FEW180 FEW230 29/11 A2979 RMK CU1AC1CI0 TCU ASOCTD SW-NW SLP074

CYYC;2008-08-09 23:00;CYYC 092300Z 17013G18KT 30SM FEW080 FEW180 FEW230 29/06 A2976 RMK CU1AC1CI1 TCU ASOCTD W/TR AC SLP066

CYYC;2008-08-10 00:00;CYYC 100000Z 16016G22KT 30SM FEW082TCU FEW180 SCT220 28/08 A2975 RMK TCU1AC1CI1 SLP058

CYYC;2008-08-10 01:00;CYYC 100100Z 18018G26KT 20SM FEW082TCU SCT220 27/08 A2974 RMK TCU1CI2 SLP056

CYYC;2008-08-10 02:00;CYYC 100200Z 27022G35KT 20SM FEW048TCU BKN120 21/09 A2981 RMK TCU2AC4 SLP077

CYYC;2008-08-10 03:00;CYYC 100300Z CCA 22008KT 25SM FEW044 BKN120 20/09 A2982 RMK SC2AC2 DIST SH SW+NW SLP088

CYYC;2008-08-10 04:00;CYYC 100400Z 24006KT 15SM FEW080 SCT130 19/08 A2984 RMK CU1AC2 SLP095

CYYC;2008-08-10 05:00;CYYC 100500Z 26003KT 15SM FEW032 FEW130 17/09 A2984 RMK CU1AC1 SLP093

CYYC;2008-08-10 06:00;CYYC 100600Z 27003KT 15SM SKC 17/09 A2983 RMK SLP088

CYYC;2008-08-10 07:00;CYYC 100700Z 05003KT 15SM SKC 15/10 A2983 RMK SLP087

CYYC;2008-08-10 08:00;CYYC 100800Z 20006KT 15SM SKC 13/10 A2982 RMK SLP086

CYYC;2008-08-10 09:00;CYYC 100900Z 16005KT 15SM SKC 13/10 A2982 RMK SLP086

CYYC;2008-08-10 10:00;CYYC 101000Z 00000KT 15SM SKC 13/09 A2982 RMK SLP087

CYYC;2008-08-10 11:00;CYYC 101100Z 22005KT 15SM SKC 12/09 A2982 RMK SLP087

CYYC;2008-08-10 12:00;CYYC 101200Z 21007KT 20SM FEW250 12/09 A2982 RMK CS2 SLP087

CYYC;2008-08-10 13:00;CYYC 101300Z 20007KT 35SM FEW020 SCT240 13/08 A2984 RMK CU1CS2 SLP092

CYYC;2008-08-10 14:00;CYYC 101400Z CCA 21004KT 40SM FEW040 BKN230 16/04 A2984 RMK CU1CI3 SLP092

CYYC;2008-08-10 15:00;CYYC 101500Z 00000KT 40SM FEW040 BKN220 16/05 A2986 RMK CU1CI6 SLP106

CYYC;2008-08-10 16:00;CYYC 101600Z 36007KT 40SM FEW040 BKN200 17/07 A2987 RMK CU1CI6 SLP110

CYYC;2008-08-10 17:00;CYYC 101700Z 22004KT 40SM FEW040 FEW180 BKN210 18/07 A2988 RMK SC1AC2CI5 CU ASOCTD SLP112

CYYC;2008-08-10 18:00;CYYC 101800Z 29009KT 40SM FEW040 BKN180 BKN210 19/05 A2988 RMK SC1AC5CI2 SLP115

CYYC;2008-08-10 19:00;CYYC 101900Z 28009KT 40SM FEW040 BKN170 BKN210 19/04 A2989 RMK SC1AC6CI1 SLP116

CYYC;2008-08-10 20:00;CYYC 102000Z 26007KT 40SM FEW050 SCT170 OVC210 20/04 A2989 RMK SC1AC3CI3 CU ASOCTD SLP117

CYYC;2008-08-10 21:00;CYYC 102100Z 12002KT 40SM FEW055 SCT110 BKN170 BKN210 20/05 A2989 RMK CU1AC3AC2CI2 SLP119

CYYC;2008-08-10 22:00;CYYC 102200Z 27015KT 30SM FEW055 SCT075 BKN110 BKN210 19/04 A2989 RMK CF1AC3AC2CI2 SLP119

CYYC;2008-08-10 23:00;CYYC 102300Z 28017G25KT 30SM FEW055 SCT075 BKN120 BKN210 18/04 A2989 RMK CF1AC3AC2CI2 SLP119

CYYC;2008-08-11 00:00;CYYC 110000Z 27020G25KT 30SM FEW045 SCT100 BKN160 BKN220 17/03 A2987 RMK SC1AC3AC2CI1 DIST SH SW SLP119

CYYC;2008-08-11 01:00;CYYC 110100Z 26014KT 40SM FEW045 BKN083 BKN120 BKN220 18/03 A2986 RMK CU1AC5AC1CI1 SH SSW + N SLP117

CYYC;2008-08-11 02:00;CYYC 110200Z 23014G19KT 30SM FEW050 BKN080 BKN120 17/03 A2987 RMK CU1AC6AC2 SH SSW + NE / VIRGA SW+N SLP120

CYYC;2008-08-11 03:00;CYYC 110300Z 25015KT 30SM BKN080 BKN120 16/03 A2988 RMK AC5AC2 SH DIST SSW + NNE / VIRGA ALQDS SLP118

CYYC;2008-08-11 04:00;CYYC 110400Z 26016KT 15SM BKN080 BKN100 15/02 A2988 RMK AC5AC2 VIRGA SLP118

CYYC;2008-08-11 05:00;CYYC 110500Z 27016KT 15SM FEW080 BKN100 14/01 A2986 RMK AC2AC2 SLP113

CYYC;2008-08-11 06:00;CYYC 110600Z 27016G21KT 15SM SCT130 14/01 A2986 RMK AC2 SLP110

CYYC;2008-08-11 07:00;CYYC 110700Z 27016G21KT 15SM FEW090 SCT130 14/00 A2986 RMK AC1AC2 SLP111

CYYC;2008-08-11 08:00;CYYC 110800Z 27016G21KT 15SM SCT100 14/00 A2987 RMK AC2 SLP114

CYYC;2008-08-11 09:00;CYYC 110900Z 27016KT 15SM FEW100 13/00 A2987 RMK AC2 SLP113

CYYC;2008-08-11 10:00;CYYC 111000Z 26016KT 15SM SCT210 13/00 A2987 RMK CI0 SLP112

CYYC;2008-08-11 11:00;CYYC 111100Z 27011KT 15SM FEW190 12/01 A2986 RMK AC1 SLP110

CYYC;2008-08-11 12:00;CYYC 111200Z CCA 27010G15KT 30SM FEW190 BKN240 13/01 A2985 RMK AC1CI1 AC TR SLP113

CYYC;2008-08-11 13:00;CYYC 111300Z 27011G16KT 30SM FEW080 FEW180 BKN240 14/01 A2984 RMK AC1AS2CI0 AC TR SLP109

CYYC;2008-08-11 14:00;CYYC 111400Z 27012KT 30SM FEW080 SCT150 BKN240 14/02 A2985 RMK AC1AC2CI1 AC TR SLP110

CYYC;2008-08-11 15:00;CYYC 111500Z 27010KT 40SM FEW055 BKN160 BKN250 15/03 A2984 RMK CU1AC2CI1 CU TR SLP106

CYYC;2008-08-11 16:00;CYYC 111600Z 28017KT 40SM FEW055 BKN160 BKN250 16/02 A2986 RMK CU1AC2CI1 SLP112

CYYC;2008-08-11 17:00;CYYC 111700Z 29014G20KT 40SM FEW055 BKN140 BKN240 18/02 A2986 RMK CU1AC5CI1 CU TR SLP114

CYYC;2008-08-11 18:00;CYYC 111800Z 30012G17KT 40SM FEW055 BKN110 BKN210 19/03 A2986 RMK CU1AC5CI2 SLP111

CYYC;2008-08-11 19:00;CYYC 111900Z 34013G18KT 40SM FEW050 BKN078 BKN180 17/04 A2988 RMK CU1AC5AC2 SLP118

CYYC;2008-08-11 20:00;CYYC 112000Z 34007KT 40SM FEW050 SCT090 BKN240 18/04 A2988 RMK CU1AC3CI2 SLP117

CYYC;2008-08-11 21:00;CYYC 112100Z 36005KT 40SM FEW060 FEW080 BKN170 19/06 A2988 RMK CU1AC2AC2 SLP121

CYYC;2008-08-11 22:00;CYYC 112200Z 04008KT 40SM FEW060 BKN074 BKN170 17/06 A2989 RMK CU1AC5AC2 SLP123

CYYC;2008-08-11 23:00;CYYC 112300Z 02006KT 40SM FEW060 SCT080 BKN170 19/07 A2989 RMK CU1AC4AC1 SLP123

CYYC;2008-08-12 00:00;CYYC 120000Z 04011KT 40SM FEW065 BKN110 BKN170 17/07 A2991 RMK CU1AC5AC2 SLP132

CYYC;2008-08-12 01:00;CYYC 120100Z 03009KT 40SM FEW060 BKN081 BKN170 16/06 A2992 RMK CU1AC6AC2 SH DIST W SLP136

CYYC;2008-08-12 02:00;CYYC 120200Z 03007KT 40SM FEW060 BKN081 BKN170 15/07 A2994 RMK CU1AC6AC2 SH DIST W SLP141

CYYC;2008-08-12 03:00;CYYC 120300Z 35005KT 30SM BKN080 BKN120 14/08 A2996 RMK AC5AC2 SH DIST NE/VIRGA SLP152

CYYC;2008-08-12 04:00;CYYC 120400Z 34006KT 15SM FEW080 BKN100 13/08 A2997 RMK AC2AC2 SLP154

CYYC;2008-08-12 05:00;CYYC 120500Z 29004KT 15SM BKN080 BKN100 13/08 A2998 RMK AC5AC2 SLP158

CYYC;2008-08-12 06:00;CYYC 120600Z 30004KT 15SM FEW050 OVC080 13/08 A2998 RMK CF1AC7 SLP155

CYYC;2008-08-12 07:00;CYYC 120700Z 30004KT 15SM OVC070 13/09 A2999 RMK AC7 SLP156

CYYC;2008-08-12 08:00;CYYC 120800Z 30007KT 15SM OVC070 13/08 A2999 RMK AC7 SLP157

CYYC;2008-08-12 09:00;CYYC 120900Z 32016KT 15SM SCT040 BKN080 13/08 A2999 RMK SC3AC3 SLP158

CYYC;2008-08-12 10:00;CYYC 121000Z 33016G22KT 15SM SCT040 BKN080 13/08 A2998 RMK SC2AC3 SLP155

CYYC;2008-08-12 11:00;CYYC 121100Z 31007KT 15SM FEW100 11/08 A2998 RMK AC1 SLP155

CYYC;2008-08-12 12:00;CYYC 121200Z 29008KT 15SM SCT070 12/08 A2998 RMK AC3 SLP158

CYYC;2008-08-12 13:00;CYYC 121300Z 30009KT 40SM FEW070 FEW090 12/08 A2997 RMK AC1AC1 SLP156

CYYC;2008-08-12 14:00;CYYC 121400Z 32009KT 40SM FEW043 BKN068 13/08 A2998 RMK CU1AC5 SLP157

CYYC;2008-08-12 15:00;CYYC 121500Z 32008KT 40SM FEW043 BKN068 15/08 A2998 RMK CU1AC5 SLP160

CYYC;2008-08-12 16:00;CYYC 121600Z 29009KT 40SM FEW044 FEW070 BKN210 OVC250 15/04 A2998 RMK CU1AC1CI5CI0 SLP159

CYYC;2008-08-12 17:00;CYYC 121700Z 34007KT 40SM FEW050 FEW160 BKN210 OVC250 17/07 A2998 RMK CU1AC1CI5CI0 SLP158

CYYC;2008-08-12 18:00;CYYC 121800Z 32011KT 40SM FEW055 FEW160 BKN230 OVC260 18/07 A2997 RMK CU1AC1CI5CI0 SLP151

CYYC;2008-08-12 19:00;CYYC 121900Z 34010KT 40SM FEW055 FEW160 BKN230 BKN260 19/07 A2995 RMK CU1AC1CI4CI0 SLP145

CYYC;2008-08-12 20:00;CYYC 122000Z 32008KT 40SM FEW060 FEW160 BKN230 BKN260 20/06 A2993 RMK CU1AC1CI4CI0 SLP139

CYYC;2008-08-12 21:00;CYYC 122100Z 32006KT 40SM FEW065 FEW160 BKN230 BKN260 21/06 A2991 RMK CU1AC1CI3CI0 SLP127

CYYC;2008-08-12 22:00;CYYC 122200Z 33005KT 40SM FEW070 FEW160 BKN230 BKN260 21/07 A2989 RMK CU1AC1CI2CI0 SLP119

CYYC;2008-08-12 23:00;CYYC 122300Z 24007KT 40SM FEW070 FEW220 SCT260 23/07 A2987 RMK CU1CI1CI0 SLP113

CYYC;2008-08-13 00:00;CYYC 130000Z 17003KT 40SM FEW070 FEW220 SCT260 22/07 A2986 RMK CU1CI1CI0 SLP110

CYYC;2008-08-13 01:00;CYYC 130100Z 06009KT 40SM FEW070 FEW180 BKN260 21/10 A2987 RMK CU1AC1CI0 SLP112

CYYC;2008-08-13 02:00;CYYC 130200Z 04009KT 40SM FEW060 FEW140 SCT250 20/10 A2989 RMK CU1AC1CI0 CU TR SLP120

CYYC;2008-08-13 03:00;CYYC 130300Z 04006KT 40SM FEW060 FEW140 SCT250 18/12 A2991 RMK CU1AC1CI0 CU TR SLP129

CYYC;2008-08-13 04:00;CYYC 130400Z 03005KT 15SM FEW050 FEW140 SCT250 16/12 A2993 RMK CU1AC1CI0 CU TR SLP135

CYYC;2008-08-13 05:00;CYYC 130500Z 34004KT 15SM FEW140 FEW250 15/11 A2994 RMK AC1CI0 AC TR SLP137

CYYC;2008-08-13 06:00;CYYC 130600Z 31003KT 15SM FEW140 FEW250 14/11 A2995 RMK AC1CI1 AC+CI TR SLP144

CYYC;2008-08-13 07:00;CYYC 130700Z 26002KT 15SM FEW140 13/11 A2996 RMK AC1 AC TR SLP146

CYYC;2008-08-13 08:00;CYYC 130800Z 36003KT 15SM FEW140 12/10 A2996 RMK AC1 AC TR SLP147

CYYC;2008-08-13 09:00;CYYC 130900Z 29002KT 15SM FEW150 11/10 A2996 RMK AC1 AC TR SLP147

CYYC;2008-08-13 10:00;CYYC 131000Z 00000KT 15SM FEW150 11/10 A2997 RMK AC1 AC TR SLP148

CYYC;2008-08-13 11:00;CYYC 131100Z 03002KT 15SM FEW130 SCT250 10/09 A2998 RMK AC1CI0 AC TR SLP151

CYYC;2008-08-13 12:00;CYYC 131200Z 00000KT 20SM FEW080 FEW130 BKN250 09/08 A2999 RMK AC1AC0CI1 SLP157

CYYC;2008-08-13 13:00;CYYC 131300Z 35002KT 40SM FEW080 SCT130 BKN240 10/09 A3001 RMK AC1AC1CC2 SLP165

CYYC;2008-08-13 14:00;CYYC 131400Z 25004KT 40SM FEW100 BKN130 BKN240 12/10 A3003 RMK AC2AC1CC1 SLP170

CYYC;2008-08-13 15:00;CYYC 131500Z 21003KT 40SM BKN100 14/11 A3004 RMK AC4 SLP174

CYYC;2008-08-13 16:00;CYYC 131600Z 21002KT 40SM FEW024 BKN100 17/11 A3006 RMK CU1AC4 CU TR SLP179

CYYC;2008-08-13 17:00;CYYC 131700Z CCA 36010KT 40SM FEW036 FEW080 SCT100 20/10 A3006 RMK CU1AC1AC2 CU TR SLP181

CYYC;2008-08-13 18:00;CYYC 131800Z CCB 36005KT 40SM FEW040 FEW080 SCT100 20/10 A3007 RMK CU1AC1AC2 WND ESTD SLP182

CYYC;2008-08-13 19:00;CYYC 131900Z 32009KT 40SM FEW040 FEW080 BKN100 20/09 A3007 RMK CU1AC2AC2 WND ESTD SLP182

CYYC;2008-08-13 20:00;CYYC 132000Z 32005KT 40SM FEW048 FEW080 BKN100 20/08 A3007 RMK CU1AC2AC2 WND ESTD SLP181

CYYC;2008-08-13 21:00;CYYC 132100Z 32005KT 35SM FEW048 SCT100 SCT220 21/09 A3006 RMK CU1AC2CI0 WND ESTD SLP182

CYYC;2008-08-13 22:00;CYYC 132200Z 00000KT 35SM FEW048 FEW100 SCT220 22/09 A3006 RMK CU2AC0CI0 WND ESTD SLP180

CYYC;2008-08-13 23:00;CYYC 132300Z 10005KT 35SM FEW058 SCT120 24/10 A3006 RMK CU2AC1 SLP180

CYYC;2008-08-14 00:00;CYYC 140000Z 33007KT 35SM FEW060 FEW120 22/09 A3006 RMK CU1AC1 AC TR SLP183

CYYC;2008-08-14 01:00;CYYC 140100Z 30010KT 35SM FEW060 FEW100 22/10 A3007 RMK CU1AC1 AC TR SLP187

CYYC;2008-08-14 02:00;CYYC 140200Z 09005KT 40SM FEW060 BKN100 BKN250 21/10 A3009 RMK CU1AC3CI0 SLP192

CYYC;2008-08-14 03:00;CYYC 140300Z 07005KT 40SM FEW050 SCT100 BKN250 19/11 A3011 RMK CU1AC2CI1 CU TR SLP198

CYYC;2008-08-14 04:00;CYYC 140400Z 06002KT 15SM FEW080 FEW110 SCT250 18/10 A3013 RMK AC1AC1CI0 SLP204

CYYC;2008-08-14 05:00;CYYC 140500Z 34002KT 15SM SCT072 SCT095 BKN250 17/11 A3015 RMK AC2AC1CI0 SLP209

CYYC;2008-08-14 06:00;CYYC 140600Z 36004KT 15SM BKN084 BKN240 16/11 A3016 RMK AC5CI0 SLP211

CYYC;2008-08-14 07:00;CYYC 140700Z 33004KT 15SM SCT085 13/10 A3018 RMK AC2 SLP217

CYYC;2008-08-14 08:00;CYYC 140800Z 31005KT 15SM FEW085 SCT240 14/10 A3019 RMK AC2CI1 SLP221

CYYC;2008-08-14 09:00;CYYC 140900Z 32006KT 15SM FEW085 FEW210 13/10 A3020 RMK AC1CI0 SLP227

CYYC;2008-08-14 10:00;CYYC 141000Z 33004KT 15SM FEW090 12/10 A3021 RMK AC1 SLP230

CYYC;2008-08-14 11:00;CYYC 141100Z 32006KT 15SM FEW090 12/09 A3022 RMK AC1 SLP233

CYYC;2008-08-14 12:00;CYYC 141200Z 31003KT 15SM FEW082 FEW140 12/09 A3023 RMK AC1AC1 SLP239

CYYC;2008-08-14 13:00;CYYC 141300Z 00000KT 40SM FEW085 FEW240 12/09 A3025 RMK AC1CI1 CI TR SLP244

CYYC;2008-08-14 14:00;CYYC 141400Z 35004KT 40SM FEW020 FEW085 FEW240 14/09 A3026 RMK CU1AC1CI1 CU+CI TR SLP247

CYYC;2008-08-14 15:00;CYYC 141500Z 31002KT 40SM FEW085 FEW240 18/10 A3027 RMK AC1CI1 SLP248

CYYC;2008-08-14 16:00;CYYC 141600Z 32009KT 40SM FEW044 FEW085 FEW240 21/10 A3028 RMK CU1AC1CI0 CU+AC TR SLP250

CYYC;2008-08-14 17:00;CYYC 141700Z 35008KT 40SM FEW052 FEW085 FEW240 22/09 A3028 RMK CU1AC1CI0 CU+AC TR SLP252

CYYC;2008-08-14 18:00;CYYC 141800Z 36009KT 40SM FEW052 FEW085 FEW240 23/09 A3028 RMK CU1AC1CI0 CU+AC TR/CONTRAILS SLP250

CYYC;2008-08-14 19:00;CYYC 141900Z CCA 35006KT 40SM FEW052 SCT240 24/10 A3028 RMK CU1CI0 SLP250

CYYC;2008-08-14 20:00;CYYC 142000Z 36005KT 40SM FEW056 SCT240 24/10 A3027 RMK CU1CI0 CU TR SLP248

CYYC;2008-08-14 21:00;CYYC 142100Z 35006KT 40SM FEW056 SCT240 25/10 A3028 RMK CU1CI0 SLP250

CYYC;2008-08-14 22:00;CYYC 142200Z 36008KT 40SM FEW060 SCT220 26/10 A3027 RMK CU1CI0 SLP249

CYYC;2008-08-14 23:00;CYYC 142300Z 01010KT 40SM FEW060 SCT220 25/10 A3026 RMK CU1CI0 CU TR SLP246

CYYC;2008-08-15 00:00;CYYC 150000Z CCA 10007KT 40SM FEW060 FEW220 25/10 A3026 RMK CU1CI0 CU TR SLP246

CYYC;2008-08-15 01:00;CYYC 150100Z 00000KT 40SM FEW056 FEW220 25/11 A3026 RMK CU1CI0 SLP245

CYYC;2008-08-15 02:00;CYYC 150200Z 05005KT 40SM FEW060 FEW250 24/12 A3026 RMK CU1CI1 BOTH CLDS TR SLP245

CYYC;2008-08-15 03:00;CYYC 150300Z 09004KT 40SM FEW250 21/11 A3026 RMK CI1 CI TR SLP243

CYYC;2008-08-15 04:00;CYYC 150400Z 00000KT 15SM FEW250 20/11 A3027 RMK CI1 CI TR SLP246

CYYC;2008-08-15 05:00;CYYC 150500Z 00000KT 15SM FEW250 19/11 A3027 RMK CI1 SLP246

CYYC;2008-08-15 06:00;CYYC 150600Z 00000KT 15SM FEW250 17/11 A3028 RMK CI1 CI TR SLP247

CYYC;2008-08-15 07:00;CYYC 150700Z 22002KT 15SM SKC 16/11 A3027 RMK SLP246

CYYC;2008-08-15 08:00;CYYC 150800Z 09002KT 15SM SKC 14/10 A3027 RMK SLP245

CYYC;2008-08-15 09:00;CYYC 150900Z 34004KT 15SM SKC 13/10 A3027 RMK SLP246

CYYC;2008-08-15 10:00;CYYC 151000Z 00000KT 15SM SKC 13/10 A3026 RMK SLP245

CYYC;2008-08-15 11:00;CYYC 151100Z 00000KT 15SM SKC 12/09 A3027 RMK SLP247

CYYC;2008-08-15 12:00;CYYC 151200Z 00000KT 20SM FEW260 11/09 A3027 RMK CI0 SLP248

CYYC;2008-08-15 13:00;CYYC 151300Z 00000KT 40SM FEW260 12/09 A3027 RMK CI1 CI TR SLP248

CYYC;2008-08-15 14:00;CYYC 151400Z 00000KT 40SM FEW260 14/10 A3027 RMK CI1 CI TR SLP247

CYYC;2008-08-15 15:00;CYYC 151500Z 20004KT 40SM SKC 17/11 A3027 RMK SLP246

CYYC;2008-08-15 16:00;CYYC 151600Z 19007KT 40SM SKC 21/11 A3025 RMK SLP240

CYYC;2008-08-15 17:00;CYYC 151700Z 18009KT 40SM SKC 24/11 A3025 RMK SLP239

CYYC;2008-08-15 18:00;CYYC 151800Z 18009KT 40SM SKC 25/11 A3024 RMK SLP228

CYYC;2008-08-15 19:00;CYYC 151900Z 18010KT 40SM SKC 27/11 A3022 RMK SLP224

CYYC;2008-08-15 20:00;CYYC 152000Z 14012KT 40SM SKC 27/11 A3021 RMK SLP219

CYYC;2008-08-15 21:00;CYYC 152100Z 15009KT 40SM FEW064 28/11 A3019 RMK CU1 SLP215

CYYC;2008-08-15 22:00;CYYC 152200Z 14010KT 40SM FEW072 FEW220 28/10 A3018 RMK CU1CI1 SLP211

CYYC;2008-08-15 23:00;CYYC 152300Z 14010G15KT 40SM FEW068 FEW220 28/11 A3016 RMK CU1CI1 SLP205

CYYC;2008-08-16 00:00;CYYC 160000Z 14014G19KT 40SM FEW068 FEW220 28/12 A3015 RMK CU1CI1 SLP201

CYYC;2008-08-16 01:00;CYYC 160100Z CCA 14013KT 40SM FEW068 FEW220 27/10 A3013 RMK CU1CI1 CU TR SLP195

CYYC;2008-08-16 02:00;CYYC 160200Z 15010KT 40SM FEW070 FEW250 26/10 A3012 RMK CU1CI0 CU TR SLP192

CYYC;2008-08-16 03:00;CYYC 160300Z 14009KT 40SM FEW070 FEW240 23/12 A3011 RMK CU1CI1 CU TR SLP188

CYYC;2008-08-16 04:00;CYYC 160400Z 15009KT 15SM FEW140 FEW240 22/12 A3011 RMK AC1CI1 AC TR SLP188

CYYC;2008-08-16 05:00;CYYC 160500Z 16007KT 15SM FEW140 FEW240 20/11 A3010 RMK AC1CI1 AC TR SLP183

CYYC;2008-08-16 06:00;CYYC 160600Z 17013KT 15SM FEW140 FEW250 19/10 A3008 RMK AC1CI1 AC TR SLP170

CYYC;2008-08-16 07:00;CYYC 160700Z 17008KT 15SM FEW250 18/10 A3006 RMK CI1 SLP163

CYYC;2008-08-16 08:00;CYYC 160800Z 17006KT 15SM FEW250 17/10 A3004 RMK CI0 SLP158

CYYC;2008-08-16 09:00;CYYC 160900Z 19007KT 15SM FEW250 15/10 A3003 RMK CI0 SLP157

CYYC;2008-08-16 10:00;CYYC 161000Z CCA 21005KT 15SM FEW250 16/10 A3003 RMK CI0 SLP155

CYYC;2008-08-16 11:00;CYYC 161100Z 21006KT 15SM FEW250 15/10 A3001 RMK CI1 SLP151

CYYC;2008-08-16 12:00;CYYC 161200Z 34005KT 20SM SCT250 12/10 A3001 RMK CI1 SLP154

CYYC;2008-08-16 13:00;CYYC 161300Z 17003KT 40SM SCT250 14/10 A3000 RMK CI1 SLP150

CYYC;2008-08-16 14:00;CYYC 161400Z 00000KT 40SM FEW120 SCT250 18/11 A3001 RMK AC1CI0 TR AC SLP152

CYYC;2008-08-16 15:00;CYYC 161500Z 01005KT 40SM FEW120 FEW250 23/12 A3002 RMK AC1CI0 TR AC SLP149

CYYC;2008-08-16 16:00;CYYC 161600Z 36013KT 40SM FEW120 FEW250 25/11 A3003 RMK AC1CI1 TR AC SLP152

CYYC;2008-08-16 17:00;CYYC 161700Z 02014G20KT 40SM FEW060 FEW120 FEW250 25/11 A3005 RMK CU1AC1CI1 ALL CLD TR SLP156

CYYC;2008-08-16 18:00;CYYC 161800Z 36014G20KT 40SM FEW065 FEW150 FEW250 27/10 A3004 RMK CU1AC1CI1 ALL CLD TR SLP155

CYYC;2008-08-16 19:00;CYYC 161900Z 01011G17KT 30SM FEW070 FEW250 28/10 A3003 RMK CU1CI1 ALL CLD TR SLP152

CYYC;2008-08-16 20:00;CYYC 162000Z 02006KT 30SM FEW075 FEW120 FEW250 28/10 A3002 RMK CU1AC1CI1 ALL CLD TR SLP150

CYYC;2008-08-16 21:00;CYYC 162100Z 02012KT 30SM FEW075 FEW250 29/10 A3002 RMK CU1CI1 ALL CLD TR SLP151

CYYC;2008-08-16 22:00;CYYC 162200Z 04009KT 30SM FEW070 FEW250 29/12 A3001 RMK CU1CI1 ALL CLD TR SLP149

CYYC;2008-08-16 23:00;CYYC 162300Z 36009KT 30SM FEW070 FEW150 FEW250 28/10 A3001 RMK CU1AC1CI1 ALL CLD TR SLP148

CYYC;2008-08-17 00:00;CYYC 170000Z 02009KT 30SM FEW065 FEW150 FEW250 27/11 A3002 RMK CU1AC1CI1 ALL CLD TR SLP156

CYYC;2008-08-17 01:00;CYYC 170100Z 05008KT 25SM FEW060 FEW150 FEW250 27/12 A3001 RMK CU1AC1CI1 ALL CLD TR SLP155

CYYC;2008-08-17 02:00;CYYC 170200Z 05005KT 30SM FEW060 FEW150 FEW250 25/13 A3002 RMK CU1AC1CI1 ALL CLD TR SLP156

CYYC;2008-08-17 03:00;CYYC 170300Z 05004KT 25SM FEW036 FEW100 23/13 A3003 RMK SC1AC1 SLP151

CYYC;2008-08-17 04:00;CYYC 170400Z 05003KT 15SM FEW036 FEW100 22/13 A3004 RMK SC1AC1 SLP154

CYYC;2008-08-17 05:00;CYYC 170500Z 34004KT 15SM FEW028 20/13 A3004 RMK SC1 SLP155

CYYC;2008-08-17 06:00;CYYC 170600Z 36003KT 15SM FEW016 18/13 A3004 RMK SC1 SLP157

CYYC;2008-08-17 07:00;CYYC 170700Z 28002KT 15SM FEW120 17/13 A3005 RMK AC2 SLP159

CYYC;2008-08-17 08:00;CYYC 170800Z 32002KT 15SM FEW120 16/12 A3005 RMK AC2 SLP160

CYYC;2008-08-17 09:00;CYYC 170900Z 00000KT 15SM SCT120 16/12 A3005 RMK AC4 SLP160

CYYC;2008-08-17 10:00;CYYC 171000Z 02002KT 15SM SCT120 16/13 A3004 RMK AC3 SLP158

CYYC;2008-08-17 11:00;CYYC 171100Z 12006KT 15SM SCT120 16/13 A3003 RMK AC3 SLP153

CYYC;2008-08-17 12:00;CYYC 171200Z 00000KT 15SM FEW120 15/12 A3003 RMK AC2 SLP158

CYYC;2008-08-17 13:00;CYYC 171300Z 23003KT 30SM FEW120 15/12 A3004 RMK AC2 SLP159

CYYC;2008-08-17 14:00;CYYC 171400Z 21004KT 30SM FEW120 16/13 A3003 RMK AC2 SLP157

CYYC;2008-08-17 15:00;CYYC 171500Z 22006KT 30SM FEW120 19/12 A3003 RMK AC2 SLP157

CYYC;2008-08-17 16:00;CYYC 171600Z 16008KT 30SM FEW120 21/12 A3002 RMK AC1 SLP155

CYYC;2008-08-17 17:00;CYYC 171700Z 14011KT 30SM FEW120 24/13 A3001 RMK AC2 SLP151

CYYC;2008-08-17 18:00;CYYC 171800Z 15017G22KT 30SM FEW120 27/12 A2999 RMK CU1 SLP140

CYYC;2008-08-17 19:00;CYYC 171900Z 16016G21KT 30SM FEW060TCU FEW120 28/13 A2997 RMK TCU1AC1 TR TCU SW-W SLP135

CYYC;2008-08-17 20:00;CYYC 172000Z 15016G21KT 30SM FEW065TCU FEW120 29/13 A2996 RMK TCU1AC1 TR TCU S-NW SLP130

CYYC;2008-08-17 21:00;CYYC 172100Z 14016G21KT 25SM FEW065TCU FEW200 29/13 A2994 RMK TCU1CI1 CB S-SW+NW-N SLP122

CYYC;2008-08-17 22:00;CYYC 172200Z 16013G19KT 25SM FEW065CB FEW120 BKN200 30/14 A2991 RMK CB1AC1CI2 CB S-N SLP114

CYYC;2008-08-17 23:00;CYYC 172300Z 16013G21KT 25SM FEW065CB SCT180 OVC250 29/13 A2991 RMK CB2AC2CI3 CB SE-NE SLP112

CYYC;2008-08-18 00:00;CYYC 180000Z 15010G16KT 20SM FEW060CB BKN170 OVC250 28/13 A2990 RMK CB2AC2CI2 CB S-NE/LTGCG+DIST SH S SLP110

CYYC;2008-08-18 00:58;CYYC 180058Z 16011KT 25SM TS SCT055CB BKN170 OVC250 27/ RMK CB3AC2CI2 LTGCG/DIST SH SE-N

CYYC;2008-08-18 01:00;CYYC 180100Z 16010KT 25SM TS SCT055CB BKN170 OVC250 27/14 A2989 RMK CB3AC2CI2 LTGCG/DIST SH SE-N SLP107

CYYC;2008-08-18 01:20;CYYC 180120Z 25013G19KT 25SM -TSRA SCT055CB BKN110 OVC250 27/ RMK CB4AC2CI1 LTGCG

CYYC;2008-08-18 02:00;CYYC 180200Z 18008KT 30SM TS BKN060CB BKN120 OVC250 23/15 A2990 RMK CB6AC1CI0 TS MOVG SE/SH SE/VIS SE 10/AC + CI TR SLP112

CYYC;2008-08-18 03:00;CYYC 180300Z 23006KT 15SM FEW060CB BKN140 BKN250 23/16 A2991 RETS RMK CB2AC4CI0 LTGCG SE / SH NE-SE SLP115

CYYC;2008-08-18 04:00;CYYC 180400Z 08007KT 15SM BKN140 22/15 A2993 RMK AC6 VIRGA SLP123

CYYC;2008-08-18 05:00;CYYC 180500Z 14009KT 15SM BKN180 22/13 A2993 RMK AC6 SLP121

CYYC;2008-08-18 06:00;CYYC 180600Z CCA 20004KT 15SM FEW180 FEW250 20/13 A2991 RMK AC1CI1 SLP109

CYYC;2008-08-18 07:00;CYYC 180700Z 20006KT 15SM FEW180 19/13 A2989 RMK AC1 SLP104

CYYC;2008-08-18 08:00;CYYC 180800Z 20004KT 15SM FEW180 19/13 A2989 RMK AC1 SLP103

CYYC;2008-08-18 09:00;CYYC 180900Z 21007KT 15SM FEW180 18/13 A2989 RMK AC1 SLP101

CYYC;2008-08-18 10:00;CYYC 181000Z 21008KT 15SM SKC 18/12 A2988 RMK SLP098

CYYC;2008-08-18 11:00;CYYC 181100Z 16006KT 15SM SKC 15/12 A2986 RMK SLP092

CYYC;2008-08-18 12:00;CYYC 181200Z 20003KT 15SM FEW160 FEW250 16/12 A2986 RMK AC1CI0 SLP095

CYYC;2008-08-18 13:00;CYYC 181300Z 19002KT 20SM FEW160 OVC250 15/11 A2985 RMK AC1CI0 SLP092

CYYC;2008-08-18 14:00;CYYC 181400Z 19006KT 20SM FEW250 17/12 A2984 RMK CI1 SLP090

CYYC;2008-08-18 15:00;CYYC 181500Z 20004KT 20SM FEW180 FEW250 20/12 A2984 RMK AC1CI2 AC TR SLP089

CYYC;2008-08-18 16:00;CYYC 181600Z 19004KT 20SM FEW250 23/12 A2983 RMK CI0 SLP086

CYYC;2008-08-18 17:00;CYYC 181700Z 18006KT 20SM FEW250 25/13 A2982 RMK CI0 SLP084

CYYC;2008-08-18 18:00;CYYC 181800Z 19007KT 20SM SKC 28/13 A2981 RMK SLP072

CYYC;2008-08-18 19:00;CYYC 181900Z 17007KT 20SM FEW068 30/13 A2978 RMK CU1 CU TR SLP064

CYYC;2008-08-18 20:00;CYYC 182000Z 17012KT 20SM FEW076 FEW250 32/13 A2976 RMK CU1CI1 TCU PRSNT W/ BOTH CLDS TR SLP058

CYYC;2008-08-18 21:00;CYYC 182100Z 14014KT 20SM FEW076TCU FEW250 33/12 A2975 RMK TCU1CI0 TCU TR SLP049

CYYC;2008-08-18 22:00;CYYC 182200Z 16015G20KT 20SM FEW078TCU FEW250 34/10 A2972 RMK TCU1CI0 CB ASOCTD NW SLP041

CYYC;2008-08-18 23:00;CYYC 182300Z 14017G27KT 20SM FEW078TCU FEW250 33/08 A2970 RMK TCU1CI0 TCU TR SLP033

CYYC;2008-08-19 00:00;CYYC 190000Z 14014KT 20SM FEW076TCU SCT160 BKN250 32/08 A2967 RMK TCU2AC1CI1 SLP026

CYYC;2008-08-19 01:00;CYYC 190100Z 14017KT 20SM FEW076TCU FEW160 BKN250 31/08 A2965 RMK TCU2AC1CI0 SLP020

CYYC;2008-08-19 02:00;CYYC 190200Z 14015KT 25SM FEW080TCU FEW160 FEW250 29/09 A2965 RMK TCU1AC1CI0 SLP018

CYYC;2008-08-19 03:00;CYYC 190300Z 16012KT 25SM FEW160 FEW250 26/08 A2965 RMK AC1CI0 SLP023

CYYC;2008-08-19 04:00;CYYC 190400Z 17012KT 15SM FEW250 25/07 A2966 RMK CI1 SLP024

CYYC;2008-08-19 05:00;CYYC 190500Z 19007KT 15SM FEW150 23/08 A2966 RMK AC1 SLP024

CYYC;2008-08-19 06:00;CYYC 190600Z 14006KT 15SM FEW140 22/08 A2965 RMK AC1 SLP017

CYYC;2008-08-19 07:00;CYYC 190700Z 20004KT 15SM SKC 21/08 A2965 RMK SLP016

CYYC;2008-08-19 08:00;CYYC 190800Z 18006KT 15SM SKC 19/09 A2964 RMK SLP014

CYYC;2008-08-19 09:00;CYYC 190900Z 34004KT 15SM FEW160 16/09 A2964 RMK AC1 SLP012

CYYC;2008-08-19 10:00;CYYC 191000Z 00000KT 15SM FEW160 FEW250 18/08 A2964 RMK AC1CI1 SLP011

CYYC;2008-08-19 11:00;CYYC 191100Z 32013KT 15SM FEW160 FEW250 20/09 A2964 RMK AC1CI0 SLP014

CYYC;2008-08-19 12:00;CYYC 191200Z 31012G18KT 15SM FEW160 OVC250 21/11 A2968 RMK AC1CI4 SLP020

CYYC;2008-08-19 13:00;CYYC 191300Z 36010KT 25SM BKN140 OVC250 20/11 A2965 RMK AC4CI2 SLP013

CYYC;2008-08-19 14:00;CYYC 191400Z 02005KT 40SM FEW050 BKN140 BKN260 20/12 A2967 RMK CU1AC6CI1 SLP018

CYYC;2008-08-19 15:00;CYYC 191500Z 34013G20KT 40SM FEW050 SCT140 BKN260 19/13 A2966 RMK CU1AC2CI0 SLP027

CYYC;2008-08-19 16:00;CYYC 191600Z 34011KT 25SM FEW120 BKN150 OVC260 20/14 A2967 RMK AC1AC5CI2 SLP029

CYYC;2008-08-19 17:00;CYYC 191700Z 04006KT 25SM FEW120 BKN150 OVC260 20/14 A2968 RMK AC1AC5CI2 SLP032

CYYC;2008-08-19 18:00;CYYC 191800Z 35003KT 25SM FEW120 BKN150 OVC240 22/14 A2968 RMK AC1AC4CI1 SLP033

CYYC;2008-08-19 19:00;CYYC 191900Z 08003KT 20SM BKN140 OVC260 23/14 A2967 RMK AC4CI2 SLP030

CYYC;2008-08-19 20:00;CYYC 192000Z 19007G15KT 20SM SCT180 OVC220 25/13 A2965 RMK AC3CI2 SLP026

CYYC;2008-08-19 21:00;CYYC 192100Z 16007KT 20SM FEW055 BKN170 BKN210 25/07 A2964 RMK SC1AC5CI1 SLP023

CYYC;2008-08-19 22:00;CYYC 192200Z 17012KT 20SM FEW060 BKN160 OVC210 26/08 A2963 RMK SC1AC6CI2 SLP020

CYYC;2008-08-19 23:00;CYYC 192300Z 16008KT 30SM BKN110 BKN150 OVC210 26/07 A2963 RMK AC5AC2CI2 SLP018

CYYC;2008-08-20 00:00;CYYC 200000Z 17014G22KT 30SM FEW110 BKN130 OVC200 24/08 A2961 RMK AC1AC6CI2 SLP008

CYYC;2008-08-20 01:00;CYYC 200100Z 14010G15KT 30SM BKN120 BKN140 BKN200 23/09 A2961 RMK AC6AC2CI1 SLP007

CYYC;2008-08-20 01:10;CYYC 200110Z 16011KT 30SM -SHRA FEW078 BKN120 BKN210 23/ RMK AC2AC5CI1

CYYC;2008-08-20 01:29;CYYC 200129Z 14005KT 30SM FEW078 BKN120 BKN210 22/ RMK AC2AC4CI1

CYYC;2008-08-20 02:00;CYYC 200200Z 32004KT 30SM FEW070CB BKN130 BKN240 22/11 A2959 RMK CB2AC3CI1 VIRGA SW SLP002

CYYC;2008-08-20 03:00;CYYC 200300Z 32014G21KT 20SM FEW070CB BKN140 BKN240 20/15 A2962 RMK CB1AC4CI1 SLP020

CYYC;2008-08-20 04:00;CYYC 200400Z 31015KT 15SM FEW065 OVC110 18/11 A2964 RMK SC2AC6 SLP027

CYYC;2008-08-20 05:00;CYYC 200500Z 27008KT 15SM FEW080 OVC130 18/07 A2965 RMK AC2AC4 SLP030

CYYC;2008-08-20 06:00;CYYC 200600Z 35003KT 15SM FEW085 BKN140 OVC250 16/08 A2964 RMK AC1AC3CI2 SLP028

CYYC;2008-08-20 07:00;CYYC 200700Z 27003KT 15SM FEW085 BKN140 OVC250 17/07 A2965 RMK AC1AC2CI3 SLP031

CYYC;2008-08-20 08:00;CYYC 200800Z 33007KT 15SM FEW090 SCT140 OVC240 17/07 A2964 RMK AC1AC1CI3 SLP027

CYYC;2008-08-20 09:00;CYYC 200900Z 31005KT 15SM BKN100 OVC220 15/09 A2964 RMK AC5CI1 SLP026

CYYC;2008-08-20 10:00;CYYC 201000Z 29003KT 15SM OVC100 15/09 A2964 RMK AC6 SLP026

CYYC;2008-08-20 11:00;CYYC 201100Z 32006KT 15SM SCT120 14/10 A2964 RMK AC2 SLP023

CYYC;2008-08-20 12:00;CYYC 201200Z 00000KT 20SM FEW090 SCT140 BKN240 13/10 A2964 RMK AC2AC2CI0 SLP027

CYYC;2008-08-20 13:00;CYYC 201300Z 14002KT 20SM FEW100 OVC250 12/10 A2963 RMK AC2CI2 CC ASOCTD SLP025

CYYC;2008-08-20 14:00;CYYC 201400Z 21003KT 20SM FEW090 SCT140 BKN240 14/10 A2962 RMK AC1AC2CI0 SLP022

CYYC;2008-08-20 15:00;CYYC 201500Z 19003KT 20SM FEW014 FEW100 BKN140 15/11 A2962 RMK CU1AC2AC3 VIRGA S-SW SLP023

CYYC;2008-08-20 15:37;CYYC 201537Z 21003KT 20SM -SHRA FEW014 FEW100 BKN140 15/ RMK CU1AC2AC3

CYYC;2008-08-20 15:50;CYYC 201550Z 21003KT 20SM FEW014 FEW100 BKN140 16/ RMK CU1AC2AC3

CYYC;2008-08-20 16:00;CYYC 201600Z 20005KT 20SM FEW060 BKN090 16/12 A2960 RMK CU1AC6 DIST SH S-SW/CU TR SLP018

CYYC;2008-08-20 16:25;CYYC 201625Z 19006KT 20SM -SHRA FEW060 BKN090 16/ RMK CU1AC6

CYYC;2008-08-20 17:00;CYYC 201700Z 19008KT 20SM -SHRA FEW016 BKN080 15/11 A2960 RMK CU2AC6 SLP018

CYYC;2008-08-20 17:26;CYYC 201726Z 20008KT 20SM FEW024 SCT090 BKN160 16/ RMK CU1AC2AC4

CYYC;2008-08-20 18:00;CYYC 201800Z 21007KT 30SM FEW028 BKN140 17/10 A2959 RMK CU1AC6 SLP015

CYYC;2008-08-20 19:00;CYYC 201900Z 19006KT 30SM FEW040 SCT140 BKN160 19/09 A2958 RMK CU1AC3AC3 SLP012

CYYC;2008-08-20 20:00;CYYC 202000Z 19009KT 30SM FEW044 SCT120 BKN140 20/09 A2956 RMK CU1AC3AC3 SLP007

CYYC;2008-08-20 21:00;CYYC 202100Z 18008KT 30SM FEW052 SCT120 BKN160 21/08 A2955 RMK CU1AC2AC4 SLP999

CYYC;2008-08-20 22:00;CYYC 202200Z 16004KT 30SM FEW052 SCT075 BKN130 21/09 A2955 RMK CU1AC2AC4 SLP998

CYYC;2008-08-20 23:00;CYYC 202300Z 14004KT 30SM FEW052 SCT070 BKN110 21/09 A2953 RMK CU1AC2AC4 DIST SH SW-W-NW SLP994

CYYC;2008-08-21 00:00;CYYC 210000Z 28015G21KT 30SM FEW048 FEW060 BKN120 19/08 A2954 RMK CU1SC2AC2 SH SW+N SLP000

CYYC;2008-08-21 01:00;CYYC 210100Z 27012KT 30SM FEW048 SCT120 20/08 A2953 RMK CU2AC1 CB NE+W+NW/SH SW SLP998

CYYC;2008-08-21 02:00;CYYC 210200Z 26006KT 30SM FEW040 FEW060CB FEW120 SCT250 19/07 A2953 RMK CU1CB1AC1CI0 CB W+N SLP998

CYYC;2008-08-21 03:00;CYYC 210300Z 25006KT 20SM FEW040 FEW060CB FEW120 SCT250 16/07 A2954 RMK CU1CB1AC2CI1 CU+CB TR SLP000

CYYC;2008-08-21 04:00;CYYC 210400Z 26004KT 15SM FEW070 FEW120 BKN240 16/07 A2953 RMK AC1AC1CI2 SLP998

CYYC;2008-08-21 05:00;CYYC 210500Z 22002KT 15SM SCT090 BKN240 14/07 A2953 RMK AC2CI2 SLP998

CYYC;2008-08-21 06:00;CYYC 210600Z 29002KT 15SM FEW110 FEW220 15/07 A2953 RMK AC1CI1 SLP997

CYYC;2008-08-21 07:00;CYYC 210700Z 29005KT 15SM SCT110 SCT220 13/08 A2954 RMK AC2CI1 SLP000

CYYC;2008-08-21 08:00;CYYC 210800Z 32011KT 15SM FEW090 FEW140 BKN240 12/12 A2954 RMK AC1AC1CI3 SLP001

CYYC;2008-08-21 09:00;CYYC 210900Z 34010KT 10SM FEW010 FEW120 BKN240 13/12 A2953 RMK ST1AC1CI2 DIST SH S-W SLP995

CYYC;2008-08-21 09:56;CYYC 210956Z 32006KT 2SM BR OVC002 12/ RMK ST8 VIS E 5

CYYC;2008-08-21 10:00;CYYC 211000Z CCA 32005KT 2SM BR OVC002 12/12 A2955 RMK ST8 VIS E- SE 5 SLP001

CYYC;2008-08-21 11:00;CYYC 211100Z 03006KT 4SM BR OVC006 13/13 A2953 RMK ST8 SLP996

CYYC;2008-08-21 12:00;CYYC 211200Z 00000KT 5SM BR OVC008 13/13 A2954 RMK ST8 SLP002

CYYC;2008-08-21 12:12;CYYC 211212Z 00000KT 5SM BR BKN010 BKN016 OVC024CB 13/ RMK ST5SC2CB1

CYYC;2008-08-21 13:00;CYYC 211300Z 29005KT 5SM BR BKN010 BKN030 OVC063 13/12 A2953 RMK ST5SC2SC1 SLP998

CYYC;2008-08-21 13:35;CYYC 211335Z 23005KT 5SM -SHRA BR SCT010 BKN040 OVC069 13/ RMK ST3SC3AC2 TCU EMBD

CYYC;2008-08-21 14:00;CYYC 211400Z 25003KT 5SM -SHRA BR SCT010 BKN040 OVC069 13/12 A2954 RMK ST3SC3AC2 TCU EMBD SLP000

CYYC;2008-08-21 15:00;CYYC 211500Z 34003KT 5SM -SHRA BR FEW020 BKN060 13/12 A2953 RMK SF2SC6 TCU EMBD SLP000

CYYC;2008-08-21 15:37;CYYC 211537Z 29005KT 40SM FEW020 BKN060 14/ RMK CU2SC5

CYYC;2008-08-21 16:00;CYYC 211600Z 29006KT 40SM FEW020CB BKN060 14/09 A2952 RMK CB2SC6 CB W-SW SLP998

CYYC;2008-08-21 17:00;CYYC 211700Z 33008KT 40SM -SHRA FEW016CB BKN060 13/11 A2953 RMK CB2SC6 CB W-SW SLP000

CYYC;2008-08-21 17:42;CYYC 211742Z 31008KT 40SM FEW016 SCT060 BKN085 BKN220 15/ RMK CU2SC2AC2CI0

CYYC;2008-08-21 18:00;CYYC 211800Z 31008KT 40SM FEW024CB SCT060 BKN085 BKN220 16/10 A2953 RMK CB2SC2AC2CI0 CB W-SW SLP999

CYYC;2008-08-21 19:00;CYYC 211900Z 35008KT 40SM FEW036CB SCT110 BKN220 18/10 A2952 RMK CB2AC2CI0 CB S-SW-W SLP996

CYYC;2008-08-21 20:00;CYYC 212000Z 35016KT 40SM FEW016 SCT050 OVC070 13/10 A2956 RMK CU2SC2AC4 DIST SH S SLP009

CYYC;2008-08-21 20:28;CYYC 212028Z 34013KT 25SM -SHRA BKN050 OVC075 11/ RMK SC5AC3

CYYC;2008-08-21 21:00;CYYC 212100Z 34013KT 30SM BKN050 OVC075 12/10 A2959 RMK SC5AC3 SLP026

CYYC;2008-08-21 21:45;CYYC 212145Z 33017KT 30SM -SHRA FEW020 BKN060 OVC075 11/ RMK SF1SC5AC2

CYYC;2008-08-21 22:00;CYYC 212200Z 32019G24KT 25SM -SHRA FEW020 BKN060 OVC075 11/10 A2962 RMK SF1SC5AC2 SLP035

CYYC;2008-08-21 23:00;CYYC 212300Z 31013KT 10SM -SHRA FEW015 OVC060 10/09 A2964 RMK SF1SC7 SLP044

CYYC;2008-08-22 00:00;CYYC 220000Z 33019G26KT 10SM FEW015 OVC060 09/09 A2968 RMK SF1SC7 CVCTV CLD EMBD SLP062

CYYC;2008-08-22 01:00;CYYC 220100Z CCA 31020G25KT 10SM -SHRA FEW025 OVC040 09/08 A2970 RMK SF1SC7 CVCTV CLD EMBD SLP068

CYYC;2008-08-22 02:00;CYYC 220200Z 33019G29KT 7SM -RA VCFG FEW020 OVC048 09/08 A2974 RMK SF2SC6 FOG BANK S-W SLP080

CYYC;2008-08-22 03:00;CYYC 220300Z 33018G24KT 8SM -RA FEW020 OVC048 08/08 A2978 RMK SF2SC6 SLP097

CYYC;2008-08-22 04:00;CYYC 220400Z 32017G24KT 9SM -RA FEW027 OVC040 08/08 A2982 RMK SC2SC6 SLP109

CYYC;2008-08-22 05:00;CYYC 220500Z 33014G19KT 12SM -RA FEW017 BKN040 OVC075 08/08 A2985 RMK SC2SC6AC1 SLP119

CYYC;2008-08-22 06:00;CYYC 220600Z 33019KT 10SM -RA BKN022 OVC039 08/07 A2989 RMK SC6SC2 SLP134

CYYC;2008-08-22 07:00;CYYC 220700Z 35011G16KT 10SM -RA OVC020 08/07 A2992 RMK SC8 SLP142

CYYC;2008-08-22 08:00;CYYC 220800Z 34011KT 10SM -RA OVC022 08/07 A2994 RMK SC8 SLP150

CYYC;2008-08-22 09:00;CYYC 220900Z 34007KT 10SM -RA OVC024 08/07 A2997 RMK SC8 SLP167

CYYC;2008-08-22 10:00;CYYC 221000Z 34013KT 12SM -RA OVC015 08/07 A2999 RMK SC8 RA VRY LGT SLP174

CYYC;2008-08-22 10:08;CYYC 221008Z 33012KT 15SM OVC016 08/ RMK SC8

CYYC;2008-08-22 11:00;CYYC 221100Z 34009KT 15SM OVC015 08/07 A3001 RMK SC8 SLP179

CYYC;2008-08-22 12:00;CYYC 221200Z 35008KT 15SM OVC013 08/08 A3002 RMK SC8 SLP187

CYYC;2008-08-22 12:12;CYYC 221212Z 35008KT 15SM SCT009 OVC019 08/ RMK SC3SC5

CYYC;2008-08-22 13:00;CYYC 221300Z 03006KT 20SM BKN014 OVC020 08/07 A3004 RMK SC6SC2 SLP193

CYYC;2008-08-22 13:38;CYYC 221338Z 04003KT 20SM -RA BKN008 OVC016 08/ RMK SC5SC3 PCPN VRY LGT

CYYC;2008-08-22 14:00;CYYC 221400Z 00000KT 15SM -RA BKN008 BKN016 08/07 A3006 RMK SC5SC2 PCPN VRY LGT/INTMT/BR SLP199

CYYC;2008-08-22 14:11;CYYC 221411Z 00000KT 15SM SCT009 OVC015 08/ RMK SC3SC5 BR

CYYC;2008-08-22 15:00;CYYC 221500Z 32007KT 20SM FEW009 OVC015 09/07 A3008 RMK SC2SC6 SLP208

CYYC;2008-08-22 16:00;CYYC 221600Z 33006KT 25SM BKN015 10/07 A3008 RMK SC7 CVCTV CLD ASOCTD SLP210

CYYC;2008-08-22 17:00;CYYC 221700Z 32003KT 25SM BKN016 12/08 A3009 RMK SC7 CVCTV CLD EMBD SLP212

CYYC;2008-08-22 18:00;CYYC 221800Z 15002KT 30SM SCT022 13/09 A3009 RMK CU3 SLP207

CYYC;2008-08-22 19:00;CYYC 221900Z 16004KT 30SM FEW024 15/09 A3008 RMK CU1 CF ASOCTD SLP204

CYYC;2008-08-22 20:00;CYYC 222000Z 20005KT 30SM FEW028 16/09 A3007 RMK CU1 SLP200

CYYC;2008-08-22 21:00;CYYC 222100Z 10005KT 40SM FEW034 FEW260 17/09 A3006 RMK CU1CI1 SLP191

CYYC;2008-08-22 22:00;CYYC 222200Z 14008KT 40SM FEW035 FEW260 18/10 A3005 RMK CU1CI0 SLP187

CYYC;2008-08-22 23:00;CYYC 222300Z 16010KT 40SM FEW040 BKN260 19/09 A3004 RMK CU1CI1 CU TR SLP184

CYYC;2008-08-23 00:00;CYYC 230000Z 14009KT 40SM FEW040 BKN250 18/09 A3003 RMK CU1CI3 SLP179

CYYC;2008-08-23 01:00;CYYC 230100Z 14008KT 40SM FEW040 BKN210 BKN250 17/09 A3003 RMK CU1CI5CI2 CU TR SLP178

CYYC;2008-08-23 02:00;CYYC 230200Z 13008KT 40SM FEW040 SCT180 BKN240 16/09 A3003 RMK CU1AC3CI3 CU TR SLP178

CYYC;2008-08-23 03:00;CYYC 230300Z 14007KT 20SM FEW045 BKN160 OVC240 15/10 A3004 RMK SC1AC5CI2 SLP185

CYYC;2008-08-23 04:00;CYYC 230400Z 15008KT 15SM FEW160 BKN240 15/09 A3006 RMK AC2CI3 SLP190

CYYC;2008-08-23 05:00;CYYC 230500Z 16007KT 15SM FEW160 SCT250 13/09 A3006 RMK AC1CI1 AC TR SLP191

CYYC;2008-08-23 06:00;CYYC 230600Z 18006KT 15SM FEW160 FEW250 12/09 A3006 RMK AC1CI1 AC TR SLP188

CYYC;2008-08-23 07:00;CYYC 230700Z 18003KT 15SM SCT150 BKN240 12/09 A3006 RMK AC2CI1 SLP188

CYYC;2008-08-23 08:00;CYYC 230800Z 17004KT 15SM FEW140 11/09 A3006 RMK AC1 SLP188

CYYC;2008-08-23 09:00;CYYC 230900Z 20003KT 15SM FEW140 FEW250 10/09 A3006 RMK CU1CI0 SLP189

CYYC;2008-08-23 10:00;CYYC 231000Z 00000KT 15SM FEW250 10/09 A3005 RMK CI1 CI TR SLP186

CYYC;2008-08-23 11:00;CYYC 231100Z 00000KT 15SM SKC 08/07 A3006 RMK SLP187

CYYC;2008-08-23 12:00;CYYC 231200Z 00000KT 15SM FEW250 07/06 A3006 RMK CI1 CI TR SLP189

CYYC;2008-08-23 13:00;CYYC 231300Z 09004KT 40SM SKC 09/05 A3006 RMK SLP191

CYYC;2008-08-23 14:00;CYYC 231400Z 00000KT 40SM FEW120 FEW200 10/07 A3008 RMK AC1CI1 SLP196

CYYC;2008-08-23 15:00;CYYC 231500Z 00000KT 40SM FEW120 FEW200 12/08 A3008 RMK AC1CI1 SLP196

CYYC;2008-08-23 16:00;CYYC 231600Z 00000KT 40SM FEW120 FEW200 FEW250 15/07 A3008 RMK AC1CI1CI0 SLP195

CYYC;2008-08-23 17:00;CYYC 231700Z 02002KT 40SM FEW200 SCT260 18/07 A3008 RMK CI1CI0 SLP194

CYYC;2008-08-23 18:00;CYYC 231800Z 07003KT 40SM FEW100 FEW220 BKN260 20/05 A3007 RMK AC1CI1CI0 SLP186

CYYC;2008-08-23 19:00;CYYC 231900Z CCA 00000KT 40SM FEW120 SCT250 21/05 A3006 RMK AC1CI0 SLP182

CYYC;2008-08-23 20:00;CYYC 232000Z 23003KT 40SM FEW140 FEW250 21/04 A3005 RMK AC1CI0 SLP179

CYYC;2008-08-23 21:00;CYYC 232100Z 19008KT 40SM FEW055 FEW160 BKN190 BKN220 21/05 A3005 RMK CU1AC1AC4CI2 ACSL/U TR SLP178

CYYC;2008-08-23 22:00;CYYC 232200Z 17006KT 40SM FEW064 FEW100 BKN170 OVC220 22/07 A3003 RMK CU1AC1AC6CI1 CU+ACSL TR SLP173

CYYC;2008-08-23 23:00;CYYC 232300Z 15004KT 40SM FEW064 FEW140 SCT180 BKN220 22/07 A3001 RMK CU1AC1AC1CI1 CU+ACSL TR SLP167

CYYC;2008-08-24 00:00;CYYC 240000Z 16009KT 40SM FEW060 FEW120 BKN220 22/07 A3001 RMK CU1AC1CI2 CU+ACSL TR SLP168

CYYC;2008-08-24 01:00;CYYC 240100Z 14006KT 40SM FEW056 FEW100 SCT200 BKN220 22/08 A3000 RMK CU1AC1CI1CI0 CU+ACSL ASOCTD SLP164

CYYC;2008-08-24 02:00;CYYC 240200Z 15007KT 40SM FEW048 FEW100 SCT220 20/08 A2999 RMK CU1AC1CI1 CU+ACSL TR SLP162

CYYC;2008-08-24 03:00;CYYC 240300Z 12006KT 40SM FEW040 FEW100 FEW200 18/09 A2999 RMK CU1AC1CI1 CU+ACSL TR SLP160

CYYC;2008-08-24 04:00;CYYC 240400Z 13006KT 15SM FEW200 18/09 A3000 RMK CI1 SLP163

CYYC;2008-08-24 05:00;CYYC 240500Z 15005KT 15SM SKC 15/09 A3000 RMK SLP161

CYYC;2008-08-24 06:00;CYYC 240600Z 14004KT 15SM SKC 16/10 A2998 RMK SLP149

CYYC;2008-08-24 07:00;CYYC 240700Z 14005KT 15SM FEW250 13/09 A2997 RMK CI0 SLP146

CYYC;2008-08-24 08:00;CYYC 240800Z 18003KT 15SM FEW250 13/09 A2995 RMK CI0 SLP140

CYYC;2008-08-24 09:00;CYYC 240900Z 19003KT 15SM FEW250 12/09 A2994 RMK CI0 SLP139

CYYC;2008-08-24 10:00;CYYC 241000Z 18002KT 15SM SCT250 11/09 A2993 RMK CI2 SLP136

CYYC;2008-08-24 11:00;CYYC 241100Z 00000KT 15SM SKC 11/09 A2993 RMK SLP134

CYYC;2008-08-24 12:00;CYYC 241200Z 00000KT 20SM SCT250 11/09 A2991 RMK CI2 SLP129

CYYC;2008-08-24 13:00;CYYC 241300Z 00000KT 40SM FEW120 SCT250 10/08 A2990 RMK AC1CC2 ACSL SLP127

CYYC;2008-08-24 14:00;CYYC 241400Z 00000KT 40SM FEW050 FEW170 FEW250 12/09 A2989 RMK SC1AC1CI0 SLP124

CYYC;2008-08-24 15:00;CYYC 241500Z 18003KT 40SM FEW100 BKN200 14/10 A2988 RMK AC1CI2 SLP118

CYYC;2008-08-24 16:00;CYYC 241600Z 20003KT 40SM FEW100 FEW160 OVC220 15/10 A2988 RMK AC1AC1CI1 SLP117

CYYC;2008-08-24 17:00;CYYC 241700Z 17005KT 40SM FEW040 FEW090 SCT130 OVC200 20/10 A2986 RMK CU1AC1AC1CI1 CU TR SLP113

CYYC;2008-08-24 18:00;CYYC 241800Z 18006KT 40SM FEW130 SCT170 OVC220 23/10 A2985 RMK AC1AC2CI1 SLP098

CYYC;2008-08-24 19:00;CYYC 241900Z 18006KT 40SM FEW110 SCT180 BKN240 24/09 A2982 RMK AC2AC2CI4 SLP090

CYYC;2008-08-24 20:00;CYYC 242000Z 20003KT 40SM FEW080 BKN170 BKN220 25/10 A2980 RMK AC1AC6CI2 SLP085

CYYC;2008-08-24 21:00;CYYC 242100Z 20010KT 40SM FEW080 BKN160 25/05 A2979 RMK AC1AC7 SLP082

CYYC;2008-08-24 22:00;CYYC 242200Z 20009KT 40SM FEW100 BKN140 BKN220 24/06 A2977 RMK AC1AC7CI1 ACSL TR SLP076

CYYC;2008-08-24 23:00;CYYC 242300Z 19004KT 40SM FEW110 BKN140 BKN240 24/09 A2975 RMK AC1AC6CI1 SLP070

CYYC;2008-08-25 00:00;CYYC 250000Z 17004KT 40SM FEW110 BKN150 BKN220 24/08 A2973 RMK AC1AC6CI1 ACSL SLP064

CYYC;2008-08-25 01:00;CYYC 250100Z 15006KT 40SM FEW150 BKN200 23/09 A2971 RMK AC2CI6 SLP057

CYYC;2008-08-25 02:00;CYYC 250200Z 15002KT 30SM FEW150 BKN190 OVC230 22/11 A2969 RMK AC1AC6CI0 SLP052

CYYC;2008-08-25 03:00;CYYC 250300Z 19003KT 15SM BKN220 21/10 A2969 RMK CI6 SLP048

CYYC;2008-08-25 04:00;CYYC 250400Z 20003KT 15SM BKN240 19/11 A2969 RMK CI6 SLP047

CYYC;2008-08-25 05:00;CYYC 250500Z 21004KT 15SM BKN250 18/11 A2967 RMK CI5 SLP042

CYYC;2008-08-25 06:00;CYYC 250600Z 20007KT 15SM SCT250 17/11 A2966 RMK CI2 SLP032

CYYC;2008-08-25 07:00;CYYC 250700Z 18007KT 15SM FEW120 FEW250 17/07 A2966 RMK AC1CI1 SLP033

CYYC;2008-08-25 08:00;CYYC 250800Z 22006KT 15SM FEW120 FEW220 17/07 A2965 RMK AC1CI1 AC TR SLP030

CYYC;2008-08-25 09:00;CYYC 250900Z 19006KT 15SM FEW120 FEW230 14/06 A2966 RMK AC1CI2 AC TR SLP034

CYYC;2008-08-25 10:00;CYYC 251000Z 24004KT 15SM FEW230 14/07 A2966 RMK CI2 SLP035

CYYC;2008-08-25 11:00;CYYC 251100Z 11002KT 15SM FEW250 12/07 A2967 RMK CI1 CONTRAILS SLP037

CYYC;2008-08-25 12:00;CYYC 251200Z 26003KT 15SM FEW250 11/06 A2967 RMK CI1 CONTRAILS SLP043

CYYC;2008-08-25 13:00;CYYC 251300Z 14003KT 30SM FEW120 BKN250 12/05 A2968 RMK AC1CI1 SLP045

CYYC;2008-08-25 14:00;CYYC 251400Z 21004KT 40SM FEW050 SCT120 BKN210 BKN250 11/06 A2968 RMK SC1AC2CC1CI2 CC TR SLP046

CYYC;2008-08-25 15:00;CYYC 251500Z 21005KT 40SM FEW050 SCT120 BKN240 15/06 A2969 RMK SC1AC3CI2 SLP048

CYYC;2008-08-25 16:00;CYYC 251600Z 21005KT 40SM FEW050 BKN120 BKN240 21/07 A2969 RMK CU1AC2CI2 SLP048

CYYC;2008-08-25 17:00;CYYC 251700Z 21003KT 40SM FEW050 SCT120 BKN240 21/08 A2970 RMK CU1AC2CI2 SLP049

CYYC;2008-08-25 18:00;CYYC 251800Z 06010KT 40SM FEW050 SCT130 BKN250 21/09 A2970 RMK CU1AC2CI2 SLP048

CYYC;2008-08-25 19:00;CYYC 251900Z 05011KT 40SM FEW050 SCT110 BKN240 19/09 A2970 RMK CU1AC3CI4 SLP048

CYYC;2008-08-25 20:00;CYYC 252000Z 05007KT 40SM FEW050 SCT100 BKN240 19/08 A2969 RMK CU1AC3CI3 SLP046

CYYC;2008-08-25 21:00;CYYC 252100Z 04004KT 40SM FEW055 SCT100 BKN250 21/09 A2968 RMK CU1AC2CI2 SLP045

CYYC;2008-08-25 22:00;CYYC 252200Z 09009KT 40SM FEW055 BKN160 BKN250 21/09 A2967 RMK CU1AC4CI2 SLP041

CYYC;2008-08-25 23:00;CYYC 252300Z 09009KT 40SM FEW050 BKN130 OVC240 20/08 A2966 RMK CU1AC5CI3 SLP038

CYYC;2008-08-26 00:00;CYYC 260000Z 06007KT 40SM FEW055 BKN150 OVC230 19/10 A2965 RMK CU1AC4CI3 SLP044

CYYC;2008-08-26 01:00;CYYC 260100Z 04004KT 30SM FEW050 BKN110 OVC230 18/10 A2966 RMK CU1AC5CI2 ACSL SW SLP045

CYYC;2008-08-26 02:00;CYYC 260200Z 35008KT 30SM FEW050 BKN140 BKN230 16/11 A2965 RMK CU1AC6CI1 TCU ASOCTD NW SLP043

CYYC;2008-08-26 03:00;CYYC 260300Z 33014KT 15SM FEW050 FEW090 OVC180 15/11 A2968 RMK CF1AC1AS8 SH DIST S SLP051

CYYC;2008-08-26 04:00;CYYC 260400Z 34023G29KT 15SM FEW050 OVC160 12/09 A2971 RMK SC2AC6 SLP060

CYYC;2008-08-26 05:00;CYYC 260500Z CCA 33017G22KT 15SM -RA FEW030 OVC050 12/09 A2974 RMK SC2SC6 SLP070

CYYC;2008-08-26 06:00;CYYC 260600Z 35017KT 15SM FEW040 OVC050 11/09 A2974 RMK SC1SC8 SLP071

CYYC;2008-08-26 06:27;CYYC 260627Z 35013G18KT 15SM -RA OVC050 10/ RMK SC8

CYYC;2008-08-26 07:00;CYYC 260700Z 02013KT 15SM -RA BKN050 OVC080 10/09 A2975 RMK SC5AC3 SLP074

CYYC;2008-08-26 07:46;CYYC 260746Z 34010KT 15SM FEW050 BKN080 OVC170 10/ RMK CF1AC5AC2

CYYC;2008-08-26 08:00;CYYC 260800Z 35007KT 15SM FEW050 BKN100 OVC180 10/09 A2976 RMK CF1AC5AC2 SLP078

CYYC;2008-08-26 09:00;CYYC 260900Z CCA 35008KT 15SM FEW015 BKN040 OVC090 10/09 A2975 RMK ST2SC2AC4 SLP075

CYYC;2008-08-26 10:00;CYYC 261000Z 34010G15KT 15SM -RA FEW015 OVC055 10/09 A2976 RMK ST1SC8 SLP078

CYYC;2008-08-26 11:00;CYYC 261100Z CCA 34014KT 15SM -RA FEW020 OVC055 09/08 A2977 RMK SC2SC6 SLP082

CYYC;2008-08-26 12:00;CYYC 261200Z 34008KT 15SM -RA FEW020 OVC040 09/08 A2979 RMK SC1SC7 SLP092

CYYC;2008-08-26 13:00;CYYC 261300Z 34011KT 7SM -RA BKN016 OVC040 09/08 A2979 RMK SC4SC4 SLP094

CYYC;2008-08-26 14:00;CYYC 261400Z 31012G19KT 7SM -RA FEW011 SCT018 BKN029 OVC039 08/07 A2981 RMK SF1SC2SC3SC2 SLP100

CYYC;2008-08-26 15:00;CYYC 261500Z 31015KT 7SM -RA FEW017 OVC029 08/07 A2983 RMK SF1SC8 SLP112

CYYC;2008-08-26 16:00;CYYC 261600Z CCA 31014KT 12SM -RA FEW018 OVC042 08/06 A2984 RMK SF1SC8 PCPN VRY LGT SLP117

CYYC;2008-08-26 17:00;CYYC 261700Z 30016KT 12SM -RA FEW013 OVC048 08/05 A2986 RMK CU1SC8 PCPN VRY LGT SLP122

CYYC;2008-08-26 18:00;CYYC 261800Z 29011KT 15SM -RA FEW015 OVC047 09/05 A2986 RMK CU1SC8 PCPN VRY LGT SLP129

CYYC;2008-08-26 18:24;CYYC 261824Z 28010KT 20SM FEW017 OVC047 09/ RMK CU1SC8

CYYC;2008-08-26 18:29;CYYC 261829Z 26010KT 20SM -RA FEW017 OVC047 09/ RMK CU1SC8

CYYC;2008-08-26 19:00;CYYC 261900Z 26012KT 20SM FEW016 SCT040 BKN081 09/07 A2986 RMK CU1SC3AC4 SLP129

CYYC;2008-08-26 20:00;CYYC 262000Z 29009KT 20SM FEW040 BKN150 BKN220 11/04 A2985 RMK CU1AC5CI1 SLP127

CYYC;2008-08-26 21:00;CYYC 262100Z 25005KT 40SM FEW048 FEW150 FEW240 13/05 A2984 RMK CU1AC1CI1 CB NW SLP115

CYYC;2008-08-26 22:00;CYYC 262200Z 28003KT 40SM FEW050 BKN200 15/04 A2983 RMK CU1CI1 CB + SH NW SLP113

CYYC;2008-08-26 22:51;CYYC 262251Z 33016KT 40SM -SHRA BKN046 BKN200 12/ RMK CU6CI1 CB + SH NW

CYYC;2008-08-26 22:56;CYYC 262256Z 34012G26KT 30SM -TSRAGS BKN046CB BKN200 10/ RMK CB6CI1

CYYC;2008-08-26 23:00;CYYC 262300Z 08002G26KT 40SM -TSRA BKN053CB BKN078 BKN200 10/04 A2982 RERA RMK CB5AC1CI0 SLP110

CYYC;2008-08-26 23:11;CYYC 262311Z 08007KT 40SM TS SCT053CB SCT078 BKN200 10/ RERA RMK CB3AC1CI0 CB + SH SE

CYYC;2008-08-26 23:35;CYYC 262335Z CCA 11006KT 40SM FEW050 SCT086 BKN230 11/ RETS RMK CU2AC2CI0 CB + SH SE

CYYC;2008-08-26 23:36;CYYC 262336Z 11006KT 40SM FEW050 SCT086 BKN230 11/ RETS RMK CU2AC2CI0 CB + SH SE

CYYC;2008-08-27 00:00;CYYC 270000Z 10008KT 40SM FEW050 SCT086 SCT230 12/07 A2981 RETS RMK CU1AC2CI0 CB + SH NE + SE SLP109

CYYC;2008-08-27 01:00;CYYC 270100Z 29010KT 30SM FEW050 FEW082 FEW230 15/04 A2980 RMK CU1AC1CI0 CB E + SE SLP105

CYYC;2008-08-27 02:00;CYYC 270200Z 26012G17KT 30SM FEW040 FEW055CB FEW110 SCT250 14/01 A2980 RMK SC1CB1AC1CI1 CB+AC TR/ CB E+ESE SLP105

CYYC;2008-08-27 03:00;CYYC 270300Z 25010KT 15SM FEW060 SCT140 BKN240 12/01 A2980 RMK SC1AC2CI2 SLP107

CYYC;2008-08-27 04:00;CYYC 270400Z 23007KT 15SM FEW140 FEW220 11/00 A2978 RMK AC1CI1 AC TR SLP103

CYYC;2008-08-27 05:00;CYYC 270500Z 23005KT 15SM FEW140 SCT220 11/00 A2977 RMK AC1CI2 SLP098

CYYC;2008-08-27 06:00;CYYC 270600Z 19005KT 15SM FEW140 FEW180 SCT220 10/02 A2974 RMK AC1AC1CI2 SLP088

CYYC;2008-08-27 07:00;CYYC 270700Z 19004KT 15SM SCT140 BKN220 10/02 A2972 RMK AC3CI2 SLP082

CYYC;2008-08-27 08:00;CYYC 270800Z 20005KT 15SM BKN130 BKN220 10/02 A2970 RMK AC5CI2 SLP076

CYYC;2008-08-27 09:00;CYYC 270900Z 13002KT 15SM FEW090 BKN140 OVC220 09/03 A2967 RMK AC1AC5CI2 SLP060

CYYC;2008-08-27 10:00;CYYC 271000Z 19003KT 15SM BKN082 BKN140 OVC220 10/04 A2966 RMK AC5AC1CI2 SLP055

CYYC;2008-08-27 11:00;CYYC 271100Z 20004KT 15SM BKN090 OVC220 09/04 A2964 RMK AC6CI1 SLP049

CYYC;2008-08-27 12:00;CYYC 271200Z 21006KT 15SM BKN090 OVC220 10/03 A2962 RMK AC6CI1 SLP042

CYYC;2008-08-27 13:00;CYYC 271300Z 20006KT 30SM OVC090 10/02 A2961 RMK AC8 SLP038

CYYC;2008-08-27 14:00;CYYC 271400Z 13002KT 40SM SCT100 10/03 A2961 RMK AC3 SLP038

CYYC;2008-08-27 15:00;CYYC 271500Z 25008KT 30SM FEW090 12/03 A2961 RMK AC2 SLP037

CYYC;2008-08-27 16:00;CYYC 271600Z 26011G16KT 40SM FEW100 14/03 A2961 RMK AC2 SLP036

CYYC;2008-08-27 17:00;CYYC 271700Z 27014G19KT 40SM FEW056 FEW100 16/01 A2962 RMK CU1AC2 SLP039

CYYC;2008-08-27 18:00;CYYC 271800Z 29010G17KT 40SM FEW070 SCT140 16/01 A2963 RMK CU2AC1 VIRGA SW SLP040

CYYC;2008-08-27 19:00;CYYC 271900Z 31015KT 40SM BKN070 BKN140 16/00 A2964 RMK CU5AC1 SLP043

CYYC;2008-08-27 20:00;CYYC 272000Z 02010G17KT 40SM SCT070 BKN140 15/04 A2965 RMK CU3AC2 SLP046

CYYC;2008-08-27 21:00;CYYC 272100Z CCA 01006KT 40SM SCT070 BKN100 15/05 A2967 RMK CU3AC2 VIRGA N+SE SLP055

CYYC;2008-08-27 22:00;CYYC 272200Z 36007KT 40SM FEW048 SCT100 16/04 A2969 RMK CU2AC2 DIST SH ALQDS SLP061

CYYC;2008-08-27 23:00;CYYC 272300Z 02012KT 40SM -SHRA BKN080 BKN110 15/07 A2972 RMK CU5AC1 SLP071

CYYC;2008-08-27 23:24;CYYC 272324Z 02006KT 40SM FEW080 SCT110 SCT220 14/ RMK CU2AC1CI0

CYYC;2008-08-28 00:00;CYYC 280000Z 33003KT 40SM FEW080 SCT110 SCT220 15/05 A2974 RMK CU2AC1CI1 SH NE-E-SE SLP079

CYYC;2008-08-28 01:00;CYYC 280100Z 05005KT 40SM FEW080 FEW110 13/08 A2977 RMK CU1AC1 SLP089

CYYC;2008-08-28 02:00;CYYC 280200Z 15002KT 20SM FEW050 FEW110 SCT250 12/08 A2979 RMK CU1AC1CI0 SLP094

CYYC;2008-08-28 03:00;CYYC 280300Z 26005KT 20SM FEW050 FEW110 FEW250 12/02 A2981 RMK CU1AC1CI0 CU+AC TR SLP106

CYYC;2008-08-28 04:00;CYYC 280400Z 31006KT 15SM FEW110 FEW250 11/03 A2983 RMK AC1CI1 AC+CI TR SLP112

CYYC;2008-08-28 05:00;CYYC 280500Z 31006KT 15SM SKC 10/02 A2985 RMK SLP117

CYYC;2008-08-28 06:00;CYYC 280600Z 33003KT 15SM SKC 08/02 A2985 RMK SLP120

CYYC;2008-08-28 07:00;CYYC 280700Z 27008KT 15SM SKC 11/00 A2986 RMK SLP122

CYYC;2008-08-28 08:00;CYYC 280800Z 26009KT 15SM SKC 11/M00 A2985 RMK SLP120

CYYC;2008-08-28 09:00;CYYC 280900Z 27002KT 15SM FEW240 11/M00 A2985 RMK CI1 SLP115

CYYC;2008-08-28 10:00;CYYC 281000Z 18005KT 15SM FEW240 07/01 A2983 RMK CI1 SLP111

CYYC;2008-08-28 11:00;CYYC 281100Z 19007KT 15SM FEW170 SCT240 09/01 A2981 RMK AC1CI2 AC TR SLP105

CYYC;2008-08-28 12:00;CYYC 281200Z 19004KT 15SM SCT120 BKN240 07/01 A2981 RMK AC2CI3 SLP109

CYYC;2008-08-28 13:00;CYYC 281300Z 20007KT 30SM FEW070 SCT120 BKN220 09/02 A2981 RMK AC1AC2CI3 SLP109

CYYC;2008-08-28 14:00;CYYC 281400Z 00000KT 40SM FEW070 BKN120 10/02 A2982 RMK AC1AC5 SLP110

CYYC;2008-08-28 15:00;CYYC 281500Z 19004KT 40SM FEW070 SCT120 11/03 A2981 RMK AC1AC2 SLP106

CYYC;2008-08-28 16:00;CYYC 281600Z 24007KT 40SM FEW052 FEW120 16/02 A2979 RMK CU1AC2 SLP100

CYYC;2008-08-28 17:00;CYYC 281700Z 26014G20KT 40SM FEW056 FEW090 17/02 A2980 RMK CU1AC2 SLP104

CYYC;2008-08-28 18:00;CYYC 281800Z 26014G22KT 40SM FEW060 FEW090 18/02 A2980 RMK CU1AC2 SLP098

CYYC;2008-08-28 19:00;CYYC 281900Z 28017G25KT 40SM FEW064 FEW100 19/02 A2979 RMK CU2AC1 SLP095

CYYC;2008-08-28 20:00;CYYC 282000Z 27018G30KT 40SM FEW068 FEW110 20/02 A2980 RMK CU2AC1 SLP098

CYYC;2008-08-28 21:00;CYYC 282100Z 26019G28KT 40SM FEW068 FEW110 20/03 A2980 RMK CU2AC1 VIRGA N-NE SLP092

CYYC;2008-08-28 22:00;CYYC 282200Z 26023G28KT 40SM FEW068 FEW110 FEW230 20/02 A2981 RMK CU2AC1CI1 VIRGA N-NE-E SLP095

CYYC;2008-08-28 23:00;CYYC 282300Z 28021G28KT 40SM FEW072 FEW110 20/02 A2981 RMK CU1AC1 AC TR / ACSL SLP097

CYYC;2008-08-29 00:00;CYYC 290000Z CCA 27024KT 40SM FEW076 FEW110 20/00 A2982 RMK CU1AC1 AC TR / ACSL SLP106

CYYC;2008-08-29 01:00;CYYC 290100Z 28018G26KT 40SM FEW072 FEW110 19/01 A2984 RMK CU1AC1 ACSL SLP110

CYYC;2008-08-29 02:00;CYYC 290200Z 26018KT 40SM FEW060 FEW110 SCT250 17/03 A2985 RMK CU1AC1CI0 SLP116

CYYC;2008-08-29 03:00;CYYC 290300Z 27014KT 15SM FEW050 SCT110 BKN240 16/02 A2988 RMK SC1AC2CI2 SLP125

CYYC;2008-08-29 04:00;CYYC 290400Z 26011KT 15SM FEW050 FEW110 BKN250 15/03 A2989 RMK SC1AC2CI2 SLP129

CYYC;2008-08-29 05:00;CYYC 290500Z 26007KT 15SM SCT100 OVC220 15/03 A2990 RMK AC3CI3 SLP132

CYYC;2008-08-29 06:00;CYYC 290600Z 27006KT 15SM FEW090 SCT170 BKN240 14/03 A2990 RMK AC1AC2CI2 SLP126

CYYC;2008-08-29 07:00;CYYC 290700Z 00000KT 15SM FEW130 SCT220 11/04 A2990 RMK AC1CI2 SLP127

CYYC;2008-08-29 08:00;CYYC 290800Z 17004KT 15SM FEW094 SCT110 BKN220 11/05 A2990 RMK AC2AC1CI2 SLP125

CYYC;2008-08-29 09:00;CYYC 290900Z 20005KT 15SM SCT110 BKN220 11/05 A2988 RMK AC2CI2 SLP123

CYYC;2008-08-29 10:00;CYYC 291000Z 16002KT 15SM FEW110 SCT240 10/05 A2987 RMK AC1CI1 SLP119

CYYC;2008-08-29 11:00;CYYC 291100Z 00000KT 15SM FEW140 BKN230 08/05 A2986 RMK AC1CI2 SLP115

CYYC;2008-08-29 12:00;CYYC 291200Z 18006KT 15SM FEW070 FEW110 BKN230 08/05 A2985 RMK AC1AC2CI2 SLP116

CYYC;2008-08-29 13:00;CYYC 291300Z 19007KT 20SM FEW070 BKN150 BKN240 10/05 A2985 RMK AC1AC4CI0 SLP115

CYYC;2008-08-29 14:00;CYYC 291400Z 25005KT 40SM SCT110 BKN140 BKN220 11/06 A2985 RMK AC3AC3CI1 SLP116

CYYC;2008-08-29 15:00;CYYC 291500Z 20005KT 40SM SCT100 BKN140 12/07 A2985 RMK AC4AC3 SLP112

CYYC;2008-08-29 16:00;CYYC 291600Z 23005KT 40SM BKN073 14/06 A2984 RMK AC7 SLP109

CYYC;2008-08-29 17:00;CYYC 291700Z 20006KT 40SM FEW073 FEW150 18/08 A2983 RMK AC1AC1 SLP106

CYYC;2008-08-29 18:00;CYYC 291800Z 19006KT 40SM SCT072 BKN150 20/08 A2981 RMK AC4AC2 SLP091

CYYC;2008-08-29 19:00;CYYC 291900Z 16009KT 40SM FEW052 BKN070 BKN250 21/09 A2978 RMK SC1AC6CI1 SLP084

CYYC;2008-08-29 20:00;CYYC 292000Z 18006KT 40SM FEW060 BKN080 BKN200 22/08 A2975 RMK CU2AC4CI1 SLP074

CYYC;2008-08-29 21:00;CYYC 292100Z 20007KT 40SM SCT060 BKN080 22/08 A2973 RMK SC4AC3 SLP066

CYYC;2008-08-29 22:00;CYYC 292200Z 26007KT 40SM FEW062 FEW090 BKN210 23/08 A2970 RMK SC2AC1CI2 SLP057

CYYC;2008-08-29 23:00;CYYC 292300Z 26008KT 40SM FEW060 FEW150 BKN220 23/08 A2967 RMK CU1AC1CI6 DIST SH SW/CU TR SLP048

CYYC;2008-08-30 00:00;CYYC 300000Z 24015KT 40SM FEW060 FEW220 FEW260 23/07 A2964 RMK CU1CI1CI0 DIST SH SW SLP039

CYYC;2008-08-30 01:00;CYYC 300100Z 23015KT 40SM FEW058 FEW100 FEW240 21/07 A2962 RMK CU1AC1CI0 DIST SH SW-W/CU TR SLP032

CYYC;2008-08-30 02:00;CYYC 300200Z 24009KT 40SM FEW060 FEW110 SCT240 20/07 A2959 RMK SC1AC1CI1 AC TR SLP023

CYYC;2008-08-30 03:00;CYYC 300300Z 18008KT 15SM FEW060 FEW110 BKN240 19/07 A2957 RMK SC1AC1CI2 SLP014

CYYC;2008-08-30 04:00;CYYC 300400Z 24010KT 15SM FEW180 SCT250 17/07 A2958 RMK AC1CI1 SLP016

CYYC;2008-08-30 05:00;CYYC 300500Z 25007KT 15SM FEW140 FEW230 15/09 A2956 RMK AC1CI1 SLP011

CYYC;2008-08-30 06:00;CYYC 300600Z 26017G22KT 15SM FEW140 FEW180 FEW220 15/08 A2957 RMK AC1AC1CI1 SLP007

CYYC;2008-08-30 07:00;CYYC 300700Z 34010KT 15SM FEW090 FEW140 15/07 A2958 RMK AC1AC1 SLP009

CYYC;2008-08-30 08:00;CYYC 300800Z 32014KT 15SM FEW098 SCT140 14/08 A2960 RMK AC1AC2 SLP015

CYYC;2008-08-30 09:00;CYYC 300900Z 33008KT 15SM FEW100 SCT180 11/08 A2963 RMK AC1AC2 DIST SH S-W SLP030

CYYC;2008-08-30 10:00;CYYC 301000Z 32010KT 15SM FEW100 10/07 A2965 RMK AC1 SLP037

CYYC;2008-08-30 11:00;CYYC 301100Z 34008KT 15SM FEW100 09/07 A2967 RMK AC1 SLP042

CYYC;2008-08-30 12:00;CYYC 301200Z 36005KT 15SM FEW070 FEW140 FEW230 08/06 A2968 RMK AC1AC1CI0 SLP051

CYYC;2008-08-30 13:00;CYYC 301300Z 34007KT 20SM SCT068 BKN140 08/06 A2972 RMK AC4AC0 SLP062

CYYC;2008-08-30 14:00;CYYC 301400Z 34012KT 40SM SCT060 09/07 A2974 RMK SC4 SLP069

CYYC;2008-08-30 15:00;CYYC 301500Z 33009KT 40SM SCT064 08/05 A2976 RMK SC4 SLP085

CYYC;2008-08-30 16:00;CYYC 301600Z 36010KT 40SM BKN050 09/04 A2978 RMK SC5 SLP089

CYYC;2008-08-30 17:00;CYYC 301700Z 03005KT 40SM BKN048 11/05 A2978 RMK SC5 SLP089

CYYC;2008-08-30 18:00;CYYC 301800Z 01004KT 40SM BKN040 12/05 A2979 RMK SC6 SLP093

CYYC;2008-08-30 19:00;CYYC 301900Z 11002KT 40SM FEW028 BKN045 BKN060 12/05 A2978 RMK CU1SC5SC1 CU TR SLP092

CYYC;2008-08-30 20:00;CYYC 302000Z 11003KT 40SM FEW028 SCT046 SCT060 13/05 A2978 RMK CU1SC3SC1 CU TR SLP090

CYYC;2008-08-30 21:00;CYYC 302100Z 09007KT 40SM FEW032 FEW046 14/05 A2978 RMK CU1SC2 SLP095

CYYC;2008-08-30 22:00;CYYC 302200Z 14007KT 30SM FEW040 SCT100 15/04 A2978 RMK CU1AC2 SLP095

CYYC;2008-08-30 23:00;CYYC 302300Z 09007KT 30SM FEW040 SCT100 15/04 A2979 RMK CU2AC2 VIRGA S-W SLP097

CYYC;2008-08-31 00:00;CYYC 310000Z 14006KT 30SM FEW036 BKN045 BKN100 14/05 A2980 RMK CU1SC5AC0 SLP104

CYYC;2008-08-31 01:00;CYYC 310100Z 05011KT 25SM -SHRA FEW024 OVC040 11/06 A2981 RMK CU1SC7 CVCTV CLD EMBD SLP109

CYYC;2008-08-31 02:00;CYYC 310200Z 09004KT 15SM -SHRA BKN048 OVC076 10/07 A2982 RMK SC6AC2 SLP112

CYYC;2008-08-31 03:00;CYYC 310300Z 35003KT 10SM -SHRA SCT036 OVC043 10/07 A2985 RMK SC3SC5 SLP128

CYYC;2008-08-31 04:00;CYYC 310400Z 35008KT 7SM -RA FEW033 OVC039 07/07 A2987 RMK SC1SC7 SLP134

CYYC;2008-08-31 05:00;CYYC 310500Z 35010KT 4SM -RA BR FEW011 BKN029 OVC037 07/07 A2990 RMK SF1SC6SC2 SLP142

CYYC;2008-08-31 06:00;CYYC 310600Z CCA 01011KT 3SM RA BR FEW009 FEW017 BKN028 OVC037 07/07 A2990 RERA RMK SF1SF2SC3SC3 SLP145

CYYC;2008-08-31 07:00;CYYC 310700Z 04009KT 4SM -RA BR FEW008 SCT021 OVC032 07/07 A2991 RERA RMK SF1SC2SC5 SLP147

CYYC;2008-08-31 07:28;CYYC 310728Z 02007KT 5SM -RA BR FEW007 BKN012 OVC020 07/ RMK SF2SC3SC3

CYYC;2008-08-31 07:48;CYYC 310748Z 02011KT 5SM -RA BR FEW012 SCT019 OVC031 06/ RMK SF2SC2SC4

CYYC;2008-08-31 08:00;CYYC 310800Z 01010KT 5SM -RA BR FEW013 SCT019 OVC030 06/06 A2992 RMK SF2SC2SC4 SLP151

CYYC;2008-08-31 09:00;CYYC 310900Z 34010KT 6SM -RA BR FEW007 SCT022 OVC040 05/05 A2992 RMK SF2SC2SC4 SLP150

CYYC;2008-08-31 10:00;CYYC 311000Z 34008KT 6SM -RA BR FEW007 SCT022 OVC040 05/05 A2992 RMK SF2SC2SC4 SLP151

CYYC;2008-08-31 11:00;CYYC 311100Z 35006KT 10SM -RA FEW007 BKN012 OVC031 05/05 A2993 RMK SF1SC4SC3 PCPN VRY LGT SLP154

CYYC;2008-08-31 11:25;CYYC 311125Z 34010KT 10SM -RA BKN009 OVC012 04/ RMK SF6SC2 PCPN VRY LGT

CYYC;2008-08-31 12:00;CYYC 311200Z 34009KT 6SM -RA BR OVC009 04/04 A2993 RMK SC8 SLP158

CYYC;2008-08-31 13:00;CYYC 311300Z 35006KT 8SM -RA OVC008 04/04 A2994 RMK SC8 SLP161

CYYC;2008-08-31 14:00;CYYC 311400Z 09005KT 8SM -RA OVC008 04/04 A2996 RMK SC8 SLP165

CYYC;2008-08-31 14:52;CYYC 311452Z 09006KT 8SM -RA OVC013 05/ RMK SC8

CYYC;2008-08-31 15:00;CYYC 311500Z 10007KT 8SM -RA OVC011 05/05 A2996 RMK SC8 SLP170

CYYC;2008-08-31 16:00;CYYC 311600Z 13004KT 4SM -RA BR OVC014 05/05 A2997 RMK SC8 SLP174

CYYC;2008-08-31 16:39;CYYC 311639Z CCA 12005KT 4SM -RA BR OVC020 05/ RMK SC8

CYYC;2008-08-31 17:00;CYYC 311700Z CCA 11004KT 4SM -RA BR OVC020 05/05 A2998 RMK SC8 SLP176

CYYC;2008-08-31 17:12;CYYC 311712Z 10005KT 3SM -RA BR OVC011 05/ RMK SC8

CYYC;2008-08-31 17:31;CYYC 311731Z 12005KT 3SM -RA BR OVC008 05/ RMK SC8

CYYC;2008-08-31 18:00;CYYC 311800Z 11005KT 5SM -RA BR OVC015 05/05 A2998 RMK SC8 SLP181

CYYC;2008-08-31 19:00;CYYC 311900Z 12002KT 4SM -RA BR FEW011 OVC020 05/05 A2998 RMK SF1SC7 PCPN VRY LGT SLP181

CYYC;2008-08-31 20:00;CYYC 312000Z 06006KT 4SM -RA BR SCT010 OVC030 05/05 A2998 RMK SF3SC5 SLP182

CYYC;2008-08-31 21:00;CYYC 312100Z 04004KT 5SM -RA BR FEW010 OVC025 06/05 A2999 RMK SF2SC6 PCPN VRY LGT SLP185

CYYC;2008-08-31 21:45;CYYC 312145Z 04006KT 10SM FEW012 OVC025 06/ RMK SF1SC7

CYYC;2008-08-31 22:00;CYYC 312200Z 04007KT 15SM FEW016 OVC025 06/05 A2999 RMK SC2SC6 SLP185

CYYC;2008-08-31 23:00;CYYC 312300Z 07004KT 25SM SCT020 OVC040 06/05 A3000 RMK SC3SC5 SLP189

CYYC;2008-08-31 23:46;CYYC 312346Z 03004KT 25SM -RA FEW010 OVC016 06/ RMK SF2SC6 PCPN VRY LGT

CYYC;2008-09-01 01:00;CYYC 010100Z 02007KT 25SM FEW015 OVC022 06/04 A2999 RMK SF2SC6 SLP187

CYYC;2008-09-01 02:00;CYYC 010200Z 04005KT 20SM FEW015 OVC030 06/05 A3000 RMK CF2SC6 SLP192

CYYC;2008-09-01 03:00;CYYC 010300Z 05002KT 15SM -RA FEW010 BKN030 OVC080 06/05 A3002 RMK CF1SC6AC1 SLP196

CYYC;2008-09-01 03:38;CYYC 010338Z 04003KT 15SM FEW010 SCT030 BKN080 06/ RMK CF1SC3AC3

CYYC;2008-09-01 04:00;CYYC 010400Z 05002KT 15SM FEW010 SCT030 BKN075 06/04 A3003 RMK CF1SC3AC3 SLP200

CYYC;2008-09-01 05:00;CYYC 010500Z 04003KT 15SM FEW015 SCT040 OVC080 06/05 A3003 RMK CF1SC3AC4 SLP199

CYYC;2008-09-01 06:00;CYYC 010600Z 34002KT 15SM FEW015 FEW040 OVC090 06/05 A3004 RMK CF1SC2AC5 SLP203

CYYC;2008-09-01 07:00;CYYC 010700Z CCA 32003KT 15SM FEW015 BKN040 OVC090 06/05 A3004 RMK CF1SC5AC2 TCU ASOCTD SW SLP204

CYYC;2008-09-01 08:00;CYYC 010800Z 31003KT 15SM FEW015 BKN050 OVC100 06/05 A3003 RMK CF1SC5AC2 SLP202

CYYC;2008-09-01 09:00;CYYC 010900Z 32005KT 15SM FEW015 BKN050 OVC100 06/05 A3003 RMK CF1SC5AC2 SLP200

CYYC;2008-09-01 10:00;CYYC 011000Z 33004KT 15SM FEW050 OVC100 06/04 A3004 RMK SC1AC6 SLP204

CYYC;2008-09-01 11:00;CYYC 011100Z 35004KT 15SM FEW050 OVC100 05/04 A3004 RMK SC1AC6 SLP204

CYYC;2008-09-01 12:00;CYYC 011200Z 32004KT 15SM BKN100 OVC240 04/03 A3005 RMK AC6CI2 SLP207

CYYC;2008-09-01 13:00;CYYC 011300Z 01002KT 15SM FEW100 FEW240 04/03 A3006 RMK AC1CI1 AC TR SLP210

CYYC;2008-09-01 14:00;CYYC 011400Z 33002KT 20SM FEW070 FEW110 BKN240 04/03 A3007 RMK AC1AC1CI1 SLP213

CYYC;2008-09-01 15:00;CYYC 011500Z CCA 00000KT 20SM FEW070 SCT100 BKN180 BKN240 06/04 A3008 RMK AC1AC3AC2CI1 SLP218

CYYC;2008-09-01 16:00;CYYC 011600Z 04002KT 20SM FEW032 FEW070 SCT100 BKN180 BKN240 07/03 A3009 RMK CU1AC1AC2AC2CI1 CU TR SLP220

CYYC;2008-09-01 17:00;CYYC 011700Z 15003KT 20SM FEW034 BKN100 BKN240 09/04 A3010 RMK CU2AC3CI1 SLP222

CYYC;2008-09-01 18:00;CYYC 011800Z 28003KT 30SM FEW035 SCT100 BKN180 BKN240 10/03 A3009 RMK CU2AC2AC2CI1 SLP214

CYYC;2008-09-01 19:00;CYYC 011900Z 00000KT 30SM SCT038 BKN140 BKN220 10/02 A3008 RMK CU3AC2CI2 SLP213

CYYC;2008-09-01 20:00;CYYC 012000Z 34002KT 30SM SCT038 BKN140 BKN230 10/02 A3008 RMK CU3AC2CI2 SLP212

CYYC;2008-09-01 21:00;CYYC 012100Z 15003KT 30SM SCT048 SCT150 BKN240 12/03 A3009 RMK CU4AC1CI2 AC TR SLP211

CYYC;2008-09-01 22:00;CYYC 012200Z 08007KT 30SM SCT048 BKN110 BKN240 11/02 A3009 RMK CU4AC1CI2 TCU PRSNT SLP212

CYYC;2008-09-01 23:00;CYYC 012300Z 12006KT 30SM FEW042 SCT059CB BKN110 BKN240 12/01 A3008 RMK CU2CB2AC1CI1 SH DIST W SLP210

CYYC;2008-09-02 00:00;CYYC 020000Z 12007KT 20SM FEW050TCU SCT100 BKN250 12/01 A3009 RMK TCU2AC2CI1 SLP215

CYYC;2008-09-02 01:00;CYYC 020100Z 14007KT 20SM FEW045 FEW110 BKN250 11/03 A3010 RMK CU1AC1CI1 SLP217

CYYC;2008-09-02 02:00;CYYC 020200Z 20006KT 20SM FEW090 BKN250 10/03 A3010 RMK AC2CI1 SLP218

CYYC;2008-09-02 03:00;CYYC 020300Z 17005KT 15SM FEW090 FEW250 09/04 A3011 RMK AC1CI0 SLP225

CYYC;2008-09-02 04:00;CYYC 020400Z 18006KT 15SM SKC 07/04 A3013 RMK SLP229

CYYC;2008-09-02 05:00;CYYC 020500Z 19006KT 15SM FEW250 07/04 A3013 RMK CI0 SLP229

CYYC;2008-09-02 06:00;CYYC 020600Z 18005KT 15SM FEW090 06/04 A3014 RMK AC1 SLP231

CYYC;2008-09-02 07:00;CYYC 020700Z 19005KT 15SM FEW090 05/04 A3013 RMK AC1 SLP229

CYYC;2008-09-02 08:00;CYYC 020800Z 18006KT 15SM SKC 05/04 A3013 RMK SLP230

CYYC;2008-09-02 09:00;CYYC 020900Z 20005KT 15SM SKC 04/03 A3013 RMK SLP227

CYYC;2008-09-02 10:00;CYYC 021000Z 21003KT 15SM SKC 04/03 A3013 RMK SLP227

CYYC;2008-09-02 11:00;CYYC 021100Z 22003KT 15SM SKC 03/03 A3013 RMK SLP228

CYYC;2008-09-02 12:00;CYYC 021200Z 20002KT 15SM FEW250 03/02 A3013 RMK CI1 SLP230

CYYC;2008-09-02 13:00;CYYC 021300Z 18004KT 40SM FEW090 FEW250 02/01 A3013 RMK AC1CI1 SLP231

CYYC;2008-09-02 14:00;CYYC 021400Z 21006KT 40SM FEW090 FEW250 03/02 A3014 RMK AC1CI1 SLP235

CYYC;2008-09-02 15:00;CYYC 021500Z 20006KT 40SM FEW090 FEW250 06/04 A3015 RMK AC1CI1 SLP236

CYYC;2008-09-02 16:00;CYYC 021600Z 21010KT 40SM FEW020 FEW100 FEW250 10/04 A3014 RMK CU1AC1CI0 CU+AC TR SLP235

CYYC;2008-09-02 17:00;CYYC 021700Z 24007KT 40SM FEW032 FEW100 FEW250 13/04 A3014 RMK CU1AC1CI1 CU + AC TR SLP235

CYYC;2008-09-02 18:00;CYYC 021800Z 34004KT 40SM FEW056 FEW100 FEW250 15/03 A3014 RMK CU1AC1CI1 CU+AC TR SLP224

CYYC;2008-09-02 19:00;CYYC 021900Z 33004KT 40SM FEW070 FEW250 16/01 A3013 RMK CU2CI1 SLP222

CYYC;2008-09-02 20:00;CYYC 022000Z 25005KT 40SM FEW078 16/01 A3012 RMK CU2 SLP218

CYYC;2008-09-02 21:00;CYYC 022100Z 27007KT 40SM FEW078 SCT096 16/M01 A3011 RMK CU2AC1 SLP217

CYYC;2008-09-02 22:00;CYYC 022200Z 19006G15KT 40SM FEW076 SCT095 17/M01 A3010 RMK CU2AC2 SLP214

CYYC;2008-09-02 23:00;CYYC 022300Z 24002KT 40SM FEW080 SCT095 BKN250 16/M01 A3009 RMK CU2AC2CI0 SLP209

CYYC;2008-09-03 00:00;CYYC 030000Z 24007KT 40SM FEW080 FEW100 BKN250 16/M02 A3008 RMK CU2AC1CI2 AC TR SLP208

CYYC;2008-09-03 01:00;CYYC 030100Z 25005KT 40SM FEW080 FEW100 BKN250 16/M02 A3008 RMK CU1AC1CI2 SLP206

CYYC;2008-09-03 02:00;CYYC 030200Z 20004KT 40SM FEW070 SCT210 BKN250 15/00 A3007 RMK AC1CI2CI0 SLP205

CYYC;2008-09-03 03:00;CYYC 030300Z 24004KT 15SM FEW070 SCT180 BKN250 13/01 A3008 RMK AC1AC2CI1 SLP207

CYYC;2008-09-03 04:00;CYYC 030400Z 24003KT 15SM FEW180 FEW210 BKN250 12/01 A3008 RMK AC1CI1CI0 SLP206

CYYC;2008-09-03 05:00;CYYC 030500Z 23004KT 15SM FEW180 BKN250 10/01 A3007 RMK AC2CI1 SLP204

CYYC;2008-09-03 06:00;CYYC 030600Z 21004KT 15SM FEW150 SCT250 09/01 A3007 RMK AC1CI1 SLP195

CYYC;2008-09-03 07:00;CYYC 030700Z 19004KT 15SM FEW180 SCT250 08/02 A3006 RMK AC1CI1 SLP194

CYYC;2008-09-03 08:00;CYYC 030800Z 22003KT 15SM SCT150 BKN240 08/03 A3006 RMK AC2CI1 SLP192

CYYC;2008-09-03 09:00;CYYC 030900Z 00000KT 15SM SCT140 BKN240 07/03 A3005 RMK AC2CI2 SLP191

CYYC;2008-09-03 10:00;CYYC 031000Z 00000KT 15SM SCT100 BKN240 07/04 A3005 RMK AC4CI2 SLP189

CYYC;2008-09-03 11:00;CYYC 031100Z 05002KT 15SM SCT110 BKN240 08/03 A3005 RMK AC4CI2 SLP189

CYYC;2008-09-03 12:00;CYYC 031200Z 00000KT 15SM FEW110 OVC210 08/02 A3005 RMK AC2CI4 SLP187

CYYC;2008-09-03 13:00;CYYC 031300Z 34008KT 20SM FEW080 BKN150 OVC240 07/03 A3005 RMK AC2AC3CI2 SLP187

CYYC;2008-09-03 14:00;CYYC 031400Z 29008KT 30SM FEW080 BKN150 OVC240 07/04 A3006 RMK AC2AC2CI2 SLP191

CYYC;2008-09-03 15:00;CYYC 031500Z 34008KT 40SM SCT080 OVC150 09/05 A3006 RMK AC3AC5 SLP198

CYYC;2008-09-03 16:00;CYYC 031600Z 32012KT 40SM SCT050 BKN100 OVC140 11/03 A3006 RMK SC3AC3AC1 SLP198

CYYC;2008-09-03 16:37;CYYC 031637Z 29012KT 30SM -SHRA SCT050 BKN100 OVC140 10/ RMK SC4AC2AC1 CVC CLD EMBD

CYYC;2008-09-03 17:00;CYYC 031700Z 00000KT 30SM -SHRA FEW050 BKN080 BKN100 11/04 A3006 RMK SC2AC2AC2 PCPN VRY LGT SLP197

CYYC;2008-09-03 17:19;CYYC 031719Z 00000KT 30SM FEW050 BKN075 12/ RMK SC2AC2

CYYC;2008-09-03 18:00;CYYC 031800Z 27006KT 40SM FEW032 BKN075 13/05 A3006 RMK CU2AC3 SLP197

CYYC;2008-09-03 19:00;CYYC 031900Z 36006KT 40SM SCT040 BKN080 13/06 A3006 RMK CU3AC2 SLP194

CYYC;2008-09-03 19:30;CYYC 031930Z 35010KT 40SM -SHRA SCT040 BKN080 13/ RMK CU3AC2

CYYC;2008-09-03 20:00;CYYC 032000Z 36012G17KT 40SM SCT040 BKN075 12/06 A3005 RMK CU4AC2 DIST SH SE+SW SLP193

CYYC;2008-09-03 21:00;CYYC 032100Z 36014G20KT 40SM SCT040 BKN075 BKN100 12/06 A3007 RMK CU3AC2AC1 SLP202

CYYC;2008-09-03 22:00;CYYC 032200Z 35020G27KT 30SM SCT030 BKN075 BKN100 11/07 A3009 RMK CU3AC2AC1 SLP208

CYYC;2008-09-03 23:00;CYYC 032300Z 34018G26KT 25SM SCT020CB SCT075 BKN220 09/05 A3010 RMK CB3AC1CI0 CB NE-E-SE-S SLP212

CYYC;2008-09-04 00:00;CYYC 040000Z 33017KT 25SM SCT018CB SCT070 BKN220 09/05 A3012 RMK CB3AC1CI0 CB NE-E-SE-S SLP225

CYYC;2008-09-04 01:00;CYYC 040100Z 32011KT 25SM FEW016 SCT070 OVC100 09/05 A3014 RMK CU1AC3AC4 SLP230

CYYC;2008-09-04 02:00;CYYC 040200Z 31007KT 30SM FEW050 BKN140 OVC220 08/05 A3013 RMK SC2AC4CI2 SLP229

CYYC;2008-09-04 03:00;CYYC 040300Z 29004KT 15SM FEW050 BKN140 OVC220 07/05 A3014 RMK SC1AC4CI2 SLP233

CYYC;2008-09-04 04:00;CYYC 040400Z 30005KT 15SM FEW080 BKN150 OVC220 07/04 A3015 RMK AC1AC4CI2 SLP235

CYYC;2008-09-04 05:00;CYYC 040500Z 27003KT 15SM FEW090 SCT140 BKN230 06/04 A3016 RMK AC1AC2CI2 SLP238

CYYC;2008-09-04 06:00;CYYC 040600Z CCA 31004KT 15SM FEW082 SCT150 SCT240 05/04 A3016 RMK AC2AC2CI0 SLP236

CYYC;2008-09-04 07:00;CYYC 040700Z 00000KT 15SM FEW150 FEW240 05/03 A3015 RMK AC1CI0 SLP233

CYYC;2008-09-04 08:00;CYYC 040800Z 36002KT 15SM FEW140 FEW240 04/03 A3015 RMK AC1CI1 AC+CI TR SLP233

CYYC;2008-09-04 09:00;CYYC 040900Z 00000KT 15SM FEW240 04/02 A3014 RMK CI1 SLP232

CYYC;2008-09-04 10:00;CYYC 041000Z 21002KT 15SM SKC 04/02 A3015 RMK SLP233

CYYC;2008-09-04 11:00;CYYC 041100Z 34002KT 15SM SKC 03/02 A3015 RMK SLP233

CYYC;2008-09-04 12:00;CYYC 041200Z 33003KT 15SM FEW240 03/02 A3015 RMK CI1 CI TR SLP240

CYYC;2008-09-04 13:00;CYYC 041300Z 00000KT 40SM FEW200 FEW250 02/01 A3015 RMK CI1CI0 SLP240

CYYC;2008-09-04 14:00;CYYC 041400Z 00000KT 40SM FEW200 SCT250 04/02 A3015 RMK CI1CI0 SLP242

CYYC;2008-09-04 15:00;CYYC 041500Z 33003KT 40SM BKN250 06/03 A3016 RMK CI2 SLP241

CYYC;2008-09-04 16:00;CYYC 041600Z 30006KT 40SM FEW020 BKN230 10/04 A3015 RMK CU1CI2 CU TR SLP239

CYYC;2008-09-04 17:00;CYYC 041700Z CCA 35004KT 40SM FEW032 BKN220 12/04 A3015 RMK CU1CI2 CU TR SLP239

CYYC;2008-09-04 18:00;CYYC 041800Z 31004KT 40SM FEW040 FEW160 BKN220 12/04 A3014 RMK CU1AC2CI1 SLP230

CYYC;2008-09-04 19:00;CYYC 041900Z 34003KT 40SM FEW044 SCT160 BKN220 14/02 A3014 RMK CU2AC1CI0 SLP228

CYYC;2008-09-04 20:00;CYYC 042000Z 03005KT 40SM SCT052 BKN160 BKN220 14/01 A3013 RMK CU4AC0CI0 SLP225

CYYC;2008-09-04 21:00;CYYC 042100Z 34005KT 40SM BKN060 14/M00 A3013 RMK CU5 SLP225

CYYC;2008-09-04 22:00;CYYC 042200Z 01007KT 40SM FEW070 SCT090 14/01 A3012 RMK CU2AC2 SLP222

CYYC;2008-09-04 23:00;CYYC 042300Z 32005KT 40SM FEW070 SCT090 15/00 A3011 RMK CU2AC2 SLP219

CYYC;2008-09-05 00:00;CYYC 050000Z CCA 08003KT 40SM FEW064 FEW090 15/M01 A3010 RMK CU1AC1 CU TR SLP215

CYYC;2008-09-05 01:00;CYYC 050100Z 30002KT 40SM FEW060 FEW100 14/M01 A3010 RMK CU1AC2 CU TR SLP215

CYYC;2008-09-05 02:00;CYYC 050200Z 07003KT 40SM BKN100 BKN250 13/00 A3009 RMK AC6CI1 SLP212

CYYC;2008-09-05 03:00;CYYC 050300Z 09004KT 15SM BKN110 OVC240 13/01 A3009 RMK AC6CI2 SLP212

CYYC;2008-09-05 04:00;CYYC 050400Z 12004KT 15SM FEW082 BKN110 OVC240 12/02 A3010 RMK AC1AC6CI1 SLP214

CYYC;2008-09-05 05:00;CYYC 050500Z 14003KT 15SM BKN096 OVC220 11/02 A3009 RMK AC6CI1 SLP210

CYYC;2008-09-05 06:00;CYYC 050600Z 00000KT 15SM BKN096 OVC220 10/03 A3008 RMK AC6CI1 SLP201

CYYC;2008-09-05 07:00;CYYC 050700Z 00000KT 15SM BKN100 OVC220 10/05 A3008 RMK AC6CI1 SLP200

CYYC;2008-09-05 08:00;CYYC 050800Z 00000KT 15SM BKN130 OVC220 09/05 A3007 RMK AC6CI1 SLP199

CYYC;2008-09-05 09:00;CYYC 050900Z 36004KT 15SM BKN130 OVC220 07/04 A3006 RMK AC6CI1 SLP197

CYYC;2008-09-05 10:00;CYYC 051000Z 31003KT 15SM FEW090 BKN130 OVC220 07/04 A3006 RMK AC1AC6CI1 SLP195

CYYC;2008-09-05 11:00;CYYC 051100Z 32005KT 15SM FEW090 BKN140 OVC220 06/03 A3005 RMK AC1AC6CI1 SLP192

CYYC;2008-09-05 12:00;CYYC 051200Z 27003KT 15SM FEW080 BKN140 OVC220 05/03 A3003 RMK AC2AC5CI1 SLP189

CYYC;2008-09-05 13:00;CYYC 051300Z 32008KT 40SM FEW070 SCT140 BKN240 04/02 A3004 RMK AC2AC2CI1 SLP190

CYYC;2008-09-05 14:00;CYYC 051400Z 32009KT 40SM FEW110 FEW140 OVC200 05/03 A3005 RMK AC1AC1CI0 SLP193

CYYC;2008-09-05 15:00;CYYC 051500Z 34006KT 40SM FEW130 BKN160 OVC200 07/04 A3005 RMK AC1AC0CI0 SLP193

CYYC;2008-09-05 16:00;CYYC 051600Z 22004KT 40SM FEW110 BKN120 BKN180 10/06 A3004 RMK AC1AC1AC0 SLP192

CYYC;2008-09-05 17:00;CYYC 051700Z 21005KT 40SM FEW090 BKN140 OVC220 11/04 A3004 RMK AC1AC0CI1 SLP190

CYYC;2008-09-05 18:00;CYYC 051800Z 36004KT 40SM FEW032 FEW090 OVC160 13/05 A3003 RMK CU1AC1AC0 CU TR SLP184

CYYC;2008-09-05 19:00;CYYC 051900Z 36006KT 40SM FEW040 SCT120 OVC200 14/05 A3003 RMK CU1AC2CI1 CU TR SLP184

CYYC;2008-09-05 20:00;CYYC 052000Z 02009KT 30SM FEW040 FEW120 SCT160 OVC220 15/04 A3002 RMK CU1AC1AC0CI0 CU TR SLP181

CYYC;2008-09-05 21:00;CYYC 052100Z 36009KT 30SM FEW040 SCT100 OVC220 14/04 A3002 RMK CU2AC1CI0 SLP182

CYYC;2008-09-05 22:00;CYYC 052200Z 34006KT 30SM FEW040 BKN062 OVC100 14/04 A3002 RMK CU2SC3AS1 DIST SH SW SLP181

CYYC;2008-09-05 22:05;CYYC 052205Z 32007KT 30SM -SHRA BKN040 OVC100 14/ RMK CU5AS2

CYYC;2008-09-05 22:36;CYYC 052236Z CCA 32005KT 30SM SCT042 OVC070 14/ RMK CU4AS2 DIST SH SE-SW

CYYC;2008-09-05 23:00;CYYC 052300Z 32010KT 25SM -SHRA SCT042 OVC050 13/04 A3003 RMK CU3CU5 PCPN VRY LGT SLP184

CYYC;2008-09-06 00:00;CYYC 060000Z 35002KT 25SM -SHRA FEW028 OVC042 12/07 A3005 RMK CU2SC6 PCPN VRY LGT SLP199

CYYC;2008-09-06 00:24;CYYC 060024Z 24004KT 30SM FEW028 BKN040 BKN090 12/ RMK CU2SC4AC1 DIST SH E-W

CYYC;2008-09-06 01:00;CYYC 060100Z 28003KT 30SM FEW038 BKN050 OVC090 11/07 A3006 RMK SC2SC5AC2 SLP202

CYYC;2008-09-06 01:07;CYYC 060107Z 28004KT 30SM -SHRA FEW026 BKN050 OVC090 11/ RMK SC2SC5AC2 CVCTV CLD EMBD

CYYC;2008-09-06 02:00;CYYC 060200Z 35013KT 12SM -SHRA FEW020 BKN052 OVC060CB 09/07 A3008 RMK SC2SC6CB1 SLP208

CYYC;2008-09-06 03:00;CYYC 060300Z 33006KT 15SM -SHRA FEW050 BKN070 OVC120 08/07 A3009 RMK SC2AC4AC2 SLP215

CYYC;2008-09-06 03:49;CYYC 060349Z 31006KT 15SM FEW080 BKN140 BKN230 09/ RMK AC2AC3CI2

CYYC;2008-09-06 04:00;CYYC 060400Z 29006KT 15SM FEW056 FEW080 BKN140 OVC230 08/07 A3011 RMK SC1AC2AC3CI2 SLP220

CYYC;2008-09-06 05:00;CYYC 060500Z 30008KT 15SM BKN038 OVC080 09/06 A3011 RMK SC7AC1 SLP222

CYYC;2008-09-06 06:00;CYYC 060600Z 31009KT 15SM OVC055 09/06 A3012 RMK SC8 SLP216

CYYC;2008-09-06 07:00;CYYC 060700Z 32008KT 15SM BKN063 OVC160 08/06 A3012 RMK SC7AC1 SLP217

CYYC;2008-09-06 08:00;CYYC 060800Z 32008KT 15SM FEW075 FEW140 BKN160 07/05 A3013 RMK AC1AC1AC1 SLP220

CYYC;2008-09-06 09:00;CYYC 060900Z 33004KT 15SM SCT170 06/05 A3013 RMK AC2 SLP222

CYYC;2008-09-06 10:00;CYYC 061000Z 32007KT 15SM SCT140 06/05 A3014 RMK AC2 SLP224

CYYC;2008-09-06 11:00;CYYC 061100Z 30005KT 15SM FEW140 FEW250 05/04 A3015 RMK AC0CI0 SLP229

CYYC;2008-09-06 12:00;CYYC 061200Z 35004KT 15SM FEW080 FEW140 FEW250 05/04 A3015 RMK AC1AC0CI0 SLP235

CYYC;2008-09-06 13:00;CYYC 061300Z 31005KT 20SM FEW120 FEW250 05/03 A3016 RMK AC1CI0 SLP236

CYYC;2008-09-06 14:00;CYYC 061400Z 00000KT 40SM FEW030 FEW250 04/03 A3018 RMK SC1CI1 SLP242

CYYC;2008-09-06 15:00;CYYC 061500Z 01002KT 40SM FEW012 FEW250 07/04 A3018 RMK CU1CI1 SLP245

CYYC;2008-09-06 16:00;CYYC 061600Z 00000KT 40SM FEW018 FEW250 10/06 A3018 RMK CU1CI1 SLP246

CYYC;2008-09-06 17:00;CYYC 061700Z 32004KT 40SM FEW020 SCT250 10/05 A3018 RMK CU2CI0 SLP247

CYYC;2008-09-06 18:00;CYYC 061800Z 33006KT 40SM BKN028TCU 12/04 A3020 RMK TCU7 SLP246

CYYC;2008-09-06 19:00;CYYC 061900Z 03005KT 40SM SCT040TCU 12/03 A3017 RMK TCU4 SLP237

CYYC;2008-09-06 20:00;CYYC 062000Z 33003KT 40SM FEW044TCU FEW160 BKN200 13/02 A3016 RMK TCU2AC1CC0 SLP233

CYYC;2008-09-06 21:00;CYYC 062100Z 27004KT 40SM FEW050TCU BKN140 BKN260 14/02 A3015 RMK TCU2AC1CI0 SLP231

CYYC;2008-09-06 22:00;CYYC 062200Z 08002KT 40SM -SHRA SCT052TCU BKN160 BKN260 14/02 A3015 RMK TCU3AC0CI0 PCPN VRY LGT SLP229

CYYC;2008-09-06 22:11;CYYC 062211Z 05004KT 40SM FEW052TCU BKN140 BKN260 14/ RMK TCU2AC0CI0

CYYC;2008-09-06 23:00;CYYC 062300Z 34002KT 40SM BKN050TCU BKN120 OVC160 13/02 A3015 RMK TCU5AS1AC1 DIST SH W SLP229

CYYC;2008-09-06 23:50;CYYC 062350Z 32019G27KT 12SM -SHRA BKN055TCU OVC080 10/ RMK TCU6AS2 PCPN VRY LGT

CYYC;2008-09-07 00:00;CYYC 070000Z 31014G20KT 12SM -SHRA FEW020TCU BKN050TCU OVC080 10/06 A3018 RMK TCU1TCU6AS2 PCPN VRU LGT SLP247

CYYC;2008-09-07 01:00;CYYC 070100Z 36006KT 12SM -SHRA FEW018 BKN030 OVC050 09/06 A3020 RMK SC1SC4SC3 CVCTV CLD EMBD SLP253

CYYC;2008-09-07 02:00;CYYC 070200Z 35007KT 12SM -SHRA FEW018 BKN030 OVC060 09/07 A3020 RMK SC1SC4SC3 CVCTV CLD EMBD SLP254

CYYC;2008-09-07 02:31;CYYC 070231Z 06003KT 12SM FEW030 SCT050 OVC070 09/ RMK SC1SC3AC5

CYYC;2008-09-07 03:00;CYYC 070300Z 00000KT 15SM FEW050 OVC080 08/06 A3021 RMK SC2AC6 SLP257

CYYC;2008-09-07 04:00;CYYC 070400Z 28003KT 15SM FEW060 SCT075 08/06 A3022 RMK SC1AC4 SC TR SLP259

CYYC;2008-09-07 05:00;CYYC 070500Z 30003KT 15SM FEW050 SCT075 08/06 A3022 RMK SC1AC2 SLP260

CYYC;2008-09-07 06:00;CYYC 070600Z 36002KT 15SM FEW050 SCT080 07/05 A3022 RMK SC1AC4 SLP256

CYYC;2008-09-07 07:00;CYYC 070700Z 03004KT 15SM FEW040 SCT090 06/06 A3023 RMK SC2AC2 SLP259

CYYC;2008-09-07 08:00;CYYC 070800Z 35004KT 15SM FEW040 BKN085 07/06 A3024 RMK SC2AC3 SLP262

CYYC;2008-09-07 09:00;CYYC 070900Z 33004KT 15SM FEW040 BKN085 07/06 A3025 RMK SC1AC4 SLP263

CYYC;2008-09-07 10:00;CYYC 071000Z 30003KT 15SM FEW028 SCT040 BKN080 07/06 A3025 RMK SC1SC2AC3 SLP263

CYYC;2008-09-07 11:00;CYYC 071100Z 34005KT 15SM FEW025 SCT050 BKN090 07/06 A3026 RMK SC2SC2AC3 SLP265

CYYC;2008-09-07 12:00;CYYC 071200Z 25002KT 15SM FEW025 SCT050 OVC090 07/06 A3025 RMK SC2SC2AC4 SLP270

CYYC;2008-09-07 13:00;CYYC 071300Z 27002KT 20SM SCT025 BKN050 OVC100 07/06 A3026 RMK SC4SC2AC2 SLP273

CYYC;2008-09-07 14:00;CYYC 071400Z 36004KT 40SM SCT016 BKN030 BKN080 07/06 A3027 RMK SC3SC2AC2 SLP275

CYYC;2008-09-07 15:00;CYYC 071500Z 31004KT 30SM FEW016 SCT080 BKN110 08/06 A3027 RMK CU1AC3AC2 SLP278

CYYC;2008-09-07 16:00;CYYC 071600Z 32004KT 30SM FEW020 BKN080 BKN110 09/06 A3027 RMK CU2AC3AC2 SLP279

CYYC;2008-09-07 17:00;CYYC 071700Z 33003KT 30SM FEW015 SCT020 BKN060 OVC110 09/06 A3027 RMK CU2SC2SC1AC3 SLP278

CYYC;2008-09-07 18:00;CYYC 071800Z 32003KT 30SM FEW016 BKN030 OVC110 10/06 A3027 RMK CU2SC2AC3 SLP275

CYYC;2008-09-07 19:00;CYYC 071900Z 29002KT 30SM SCT020 SCT050 OVC110 11/07 A3026 RMK CU3SC1AC4 SLP273

CYYC;2008-09-07 19:47;CYYC 071947Z 36003KT 30SM -SHRA BKN025 BKN040 OVC080 11/ RMK CU5SC2AC2

CYYC;2008-09-07 20:00;CYYC 072000Z 36002KT 30SM BKN025 BKN050 OVC080 11/06 A3026 RMK CU6SC1AC1 PCPN VRY LGT/TCU ASOCTD SLP271

CYYC;2008-09-07 20:17;CYYC 072017Z 34003KT 30SM SCT022 BKN050 11/ RMK CU4SC3 TCU ASOCTD

CYYC;2008-09-07 21:00;CYYC 072100Z 08004KT 30SM FEW025TCU FEW050 BKN100 BKN260 12/06 A3024 RMK TCU2SC1AC1CI0 SLP263

CYYC;2008-09-07 22:00;CYYC 072200Z 01002KT 30SM BKN030TCU BKN050 BKN084 BKN240 13/05 A3023 RMK TCU5SC1AC1CI1 DIST SH SW-N SLP260

CYYC;2008-09-07 22:21;CYYC 072221Z 28002KT 30SM -SHRA FEW030TCU BKN050 13/ RMK TCU2SC5

CYYC;2008-09-07 23:00;CYYC 072300Z 35014KT 5SM -TSRA BKN034TCU OVC060 10/08 A3024 RMK TCU5SC3 CB EMBD/WSHFT 2242 SLP263

CYYC;2008-09-07 23:13;CYYC 072313Z CCA 02010G18KT 5SM -SHRA FEW010 BKN034TCU OVC060 09/ RETS RMK ST1TCU4SC3 CB EMBD/WSHFT 2308

CYYC;2008-09-07 23:37;CYYC 072337Z 02006KT 20SM FEW020 BKN035TCU BKN060 09/ RETS RMK SC1TCU5SC2

CYYC;2008-09-08 00:00;CYYC 080000Z 00000KT 30SM FEW010TCU FEW060 SCT250 10/07 A3024 RETS RMK TCU2SC1CI0 DIST SH E- W SLP264

CYYC;2008-09-08 01:00;CYYC 080100Z 22006KT 30SM FEW024TCU FEW120 12/06 A3023 RMK TCU1AC1 DIST SH SE SLP262

CYYC;2008-09-08 02:00;CYYC 080200Z 25006KT 30SM FEW100 10/06 A3022 RMK AC1 SLP260

CYYC;2008-09-08 03:00;CYYC 080300Z 25006KT 15SM FEW100 09/06 A3022 RMK AC1 SLP260

CYYC;2008-09-08 04:00;CYYC 080400Z 23005KT 15SM FEW100 08/06 A3023 RMK AC1 SLP262

CYYC;2008-09-08 05:00;CYYC 080500Z 23004KT 15SM FEW100 08/06 A3022 RMK AC1 SLP260

CYYC;2008-09-08 06:00;CYYC 080600Z 22005KT 15SM FEW100 07/06 A3021 RMK AC1 SLP255

CYYC;2008-09-08 07:00;CYYC 080700Z 18005KT 15SM FEW100 06/05 A3020 RMK AC1 SLP252

CYYC;2008-09-08 08:00;CYYC 080800Z 23004KT 15SM FEW100 06/06 A3019 RMK AC1 SLP248

CYYC;2008-09-08 09:00;CYYC 080900Z 22003KT 15SM FEW100 04/04 A3017 RMK AC1 SLP242

CYYC;2008-09-08 10:00;CYYC 081000Z 20004KT 15SM SKC 04/04 A3015 RMK SLP236

CYYC;2008-09-08 11:00;CYYC 081100Z 19004KT 15SM SKC 04/03 A3013 RMK SLP229

CYYC;2008-09-08 12:00;CYYC 081200Z 20004KT 15SM FEW100 04/03 A3011 RMK AC1 SLP223

CYYC;2008-09-08 13:00;CYYC 081300Z 20005KT 30SM FEW100 FEW250 03/02 A3008 RMK AC1CI0 CONTRAILS SLP216

CYYC;2008-09-08 14:00;CYYC 081400Z 19003KT 40SM FEW080 FEW220 BKN260 04/03 A3007 RMK AC1CI1CI0 AC TR SLP211

CYYC;2008-09-08 15:00;CYYC 081500Z 23002KT 40SM BKN230 OVC260 07/05 A3006 RMK CI3CI1 SLP204

CYYC;2008-09-08 16:00;CYYC 081600Z 00000KT 40SM SCT200 OVC250 10/06 A3005 RMK CI4CI1 SLP199

CYYC;2008-09-08 17:00;CYYC 081700Z 20003KT 40SM SCT130 OVC240 12/05 A3003 RMK AS3CS5 SLP195

CYYC;2008-09-08 18:00;CYYC 081800Z 20005KT 40SM FEW130 BKN220 OVC250 14/05 A3002 RMK AS2CS3CI3 HALO SLP182

CYYC;2008-09-08 19:00;CYYC 081900Z 21004KT 40SM SCT170 BKN220 OVC250 15/05 A3000 RMK AS3CS3CI2 HALO SLP175

CYYC;2008-09-08 20:00;CYYC 082000Z 22004KT 40SM FEW070 SCT170 BKN220 OVC250 16/03 A2996 RMK AC1AS3CS3CI2 HALO/ AC TR SLP165

CYYC;2008-09-08 21:00;CYYC 082100Z 22007KT 40SM FEW080 SCT140 BKN250 17/03 A2993 RMK AC1AC2CI2 SLP150

CYYC;2008-09-08 22:00;CYYC 082200Z 22002KT 40SM FEW090 SCT160 BKN240 17/06 A2991 RMK AC1AC2CI2 SLP145

CYYC;2008-09-08 23:00;CYYC 082300Z 21004KT 40SM FEW080 BKN140 BKN240 17/04 A2989 RMK AC2AC2CI2 ACSL W SLP138

CYYC;2008-09-09 00:00;CYYC 090000Z 20005KT 40SM FEW080 BKN140 BKN240 18/06 A2987 RMK AC2AC2CI2 ACSL W SLP130

CYYC;2008-09-09 01:00;CYYC 090100Z 19005KT 40SM FEW080 BKN130 BKN240 17/05 A2986 RMK AC2AC3CI1 SLP126

CYYC;2008-09-09 02:00;CYYC 090200Z 18004KT 40SM FEW120 SCT160 BKN250 15/05 A2985 RMK AC2AC2CI1 CONTRAILS / VIRGA SLP123

CYYC;2008-09-09 03:00;CYYC 090300Z 14004KT 15SM FEW120 SCT150 BKN250 13/04 A2985 RMK AC1AC2CI1 SLP124

CYYC;2008-09-09 04:00;CYYC 090400Z 19002KT 15SM FEW120 FEW150 BKN240 13/05 A2985 RMK AC1AC2CI1 AC TR SLP123

CYYC;2008-09-09 05:00;CYYC 090500Z 20003KT 15SM FEW120 FEW150 BKN240 12/05 A2983 RMK AC1AC2CI0 AC TR SLP118

CYYC;2008-09-09 06:00;CYYC 090600Z 20003KT 15SM FEW150 SCT240 10/06 A2981 RMK AC2CI0 SLP106

CYYC;2008-09-09 07:00;CYYC 090700Z 20003KT 15SM FEW150 SCT240 10/06 A2981 RMK AC2CI0 SLP106

CYYC;2008-09-09 08:00;CYYC 090800Z 34004KT 15SM FEW120 08/05 A2980 RMK AC1 SLP101

CYYC;2008-09-09 09:00;CYYC 090900Z 35003KT 15SM SCT110 07/05 A2979 RMK AC2 SLP097

CYYC;2008-09-09 10:00;CYYC 091000Z 20003KT 15SM BKN095 08/05 A2978 RMK AC3 SLP094

CYYC;2008-09-09 11:00;CYYC 091100Z 35005KT 15SM BKN095 10/05 A2978 RMK AC6 SLP094

CYYC;2008-09-09 12:00;CYYC 091200Z 32007KT 15SM BKN095 11/04 A2978 RMK AC6 SLP089

CYYC;2008-09-09 13:00;CYYC 091300Z 32012KT 40SM BKN090 09/05 A2978 RMK AC6 SLP088

CYYC;2008-09-09 14:00;CYYC 091400Z 31008KT 40SM FEW090 FEW180 SCT210 09/05 A2977 RMK AC2AC1CI1 SLP086

CYYC;2008-09-09 15:00;CYYC 091500Z 34009KT 40SM SCT086 BKN180 BKN210 10/05 A2977 RMK AC4AC1CI1 SLP095

CYYC;2008-09-09 16:00;CYYC 091600Z 03009KT 40SM FEW086 FEW180 BKN210 12/07 A2978 RMK AC2AC1CI1 SLP096

CYYC;2008-09-09 17:00;CYYC 091700Z 05009KT 40SM FEW055 FEW086 FEW190 BKN230 14/07 A2977 RMK CU1AC2AC1CI2 SLP095

CYYC;2008-09-09 18:00;CYYC 091800Z 01012KT 40SM FEW055 FEW084 SCT180 BKN210 15/07 A2979 RMK SC2AC1AC1CI2 SLP098

CYYC;2008-09-09 19:00;CYYC 091900Z 35018KT 40SM BKN048 BKN067 OVC210 11/06 A2981 RMK SC5AC2CI1 SLP102

CYYC;2008-09-09 19:22;CYYC 091922Z 36020G25KT 20SM -SHRA FEW021 BKN049 OVC077 10/ RMK SF1SC6AC2 CVCTV CLD EMBD

CYYC;2008-09-09 20:00;CYYC 092000Z 36015G24KT 20SM -SHRA FEW015 BKN045 OVC073 09/08 A2982 RMK SC2SC6AC1 CVCTV CLD EMBD SLP107

CYYC;2008-09-09 21:00;CYYC 092100Z 36013G19KT 15SM BKN021 OVC048 09/08 A2984 RMK SC6SC2 SLP125

CYYC;2008-09-09 22:00;CYYC 092200Z 34012KT 15SM SCT015 OVC061 08/06 A2985 RMK SC3SC5 SLP130

CYYC;2008-09-09 22:10;CYYC 092210Z 34013KT 15SM -SHRA FEW015 OVC056 08/ RMK SC2SC6

CYYC;2008-09-09 22:51;CYYC 092251Z 33010G16KT 15SM FEW014 FEW027 OVC044 08/ RMK SF1SC1SC7

CYYC;2008-09-09 23:00;CYYC 092300Z 35011KT 20SM FEW016 OVC045 08/07 A2987 RMK SC1SC7 SLP137

CYYC;2008-09-09 23:46;CYYC 092346Z 34009KT 15SM -SHRA BKN026 OVC043 08/ RMK SC6SC2 CVCTV CLD EMBD

CYYC;2008-09-10 00:00;CYYC 100000Z 35010G16KT 12SM -SHRA BKN021 OVC043 08/06 A2989 RMK SC7SC1 CVCTV CLD EMBD SLP141

CYYC;2008-09-10 00:43;CYYC 100043Z 34011KT 20SM SCT024 BKN036 OVC062 09/ RMK SC3SC3SC2

CYYC;2008-09-10 01:00;CYYC 100100Z 34011KT 20SM FEW024 SCT031 SCT090 OVC150 09/05 A2990 RMK SC2SC1AC1AC4 SLP144

CYYC;2008-09-10 02:00;CYYC 100200Z 33009KT 20SM BKN047 OVC090 08/05 A2991 RMK SC6AC2 SLP147

CYYC;2008-09-10 03:00;CYYC 100300Z 31009KT 15SM BKN065 OVC085 08/06 A2993 RMK SC5AC3 SLP157

CYYC;2008-09-10 04:00;CYYC 100400Z 31012KT 15SM BKN047 BKN060 OVC090 08/05 A2995 RMK SC6SC1AC1 SLP163

CYYC;2008-09-10 05:00;CYYC 100500Z 32010KT 15SM FEW060 FEW095 BKN170 07/05 A2995 RMK SC1AC2AC2 SLP163

CYYC;2008-09-10 06:00;CYYC 100600Z 34011KT 15SM SCT040 OVC100 07/05 A2997 RMK SC3AC3 SLP163

CYYC;2008-09-10 07:00;CYYC 100700Z 33010KT 15SM SCT058 BKN100 07/05 A2998 RMK SC2AC2 SLP168

CYYC;2008-09-10 08:00;CYYC 100800Z 32010KT 15SM SCT050 BKN110 06/05 A3000 RMK SC3AC2 SLP173

CYYC;2008-09-10 09:00;CYYC 100900Z 31008KT 15SM FEW030 BKN140 06/05 A3001 RMK SC2AC3 SLP187

CYYC;2008-09-10 10:00;CYYC 101000Z 31009KT 15SM SCT045 BKN130 05/04 A3002 RMK SC3AC2 SLP190

CYYC;2008-09-10 11:00;CYYC 101100Z 32009KT 15SM FEW050 BKN130 BKN220 05/03 A3002 RMK SC2AC2CI1 SLP190

CYYC;2008-09-10 12:00;CYYC 101200Z 34005KT 15SM FEW040 FEW250 04/03 A3003 RMK SC1CI0 SLP198

CYYC;2008-09-10 13:00;CYYC 101300Z 32004KT 40SM FEW040 FEW070 04/02 A3004 RMK SC1AC1 SLP201

CYYC;2008-09-10 14:00;CYYC 101400Z 33003KT 40SM FEW070 04/02 A3006 RMK AC1 SLP206

CYYC;2008-09-10 15:00;CYYC 101500Z 34002KT 40SM FEW075 06/04 A3007 RMK AC1 SLP211

CYYC;2008-09-10 16:00;CYYC 101600Z 30004KT 40SM FEW016 FEW075 FEW220 08/04 A3008 RMK CU1AC1CI0 CU+AC TR SLP213

CYYC;2008-09-10 17:00;CYYC 101700Z 34003KT 40SM FEW028 FEW075 FEW220 10/05 A3009 RMK CU2AC1CI1 SLP216

CYYC;2008-09-10 18:00;CYYC 101800Z 06003KT 40SM FEW030 12/04 A3009 RMK CU2 SLP210

CYYC;2008-09-10 19:00;CYYC 101900Z 33005KT 40SM FEW036 13/03 A3007 RMK CU2 SLP206

CYYC;2008-09-10 20:00;CYYC 102000Z 25003KT 40SM FEW045 14/03 A3006 RMK CU2 SLP202

CYYC;2008-09-10 21:00;CYYC 102100Z 20004KT 40SM FEW048 FEW100 14/03 A3005 RMK CU2AC1 SLP195

CYYC;2008-09-10 22:00;CYYC 102200Z 20007KT 40SM FEW056 FEW240 15/03 A3003 RMK CU1CI1 CU TR SLP189

CYYC;2008-09-10 23:00;CYYC 102300Z 21002KT 40SM FEW060 FEW240 15/01 A3003 RMK CU1CI1 SLP189

CYYC;2008-09-11 00:00;CYYC 110000Z 17007KT 40SM FEW052 FEW240 15/02 A3002 RMK CU1CI1 SLP185

CYYC;2008-09-11 01:00;CYYC 110100Z 17008KT 40SM FEW240 14/03 A3002 RMK CI1 SLP185

CYYC;2008-09-11 02:00;CYYC 110200Z 16008KT 40SM FEW200 FEW250 12/03 A3002 RMK CI1CI0 SLP185

CYYC;2008-09-11 03:00;CYYC 110300Z 18007KT 15SM FEW200 FEW250 11/03 A3003 RMK CI1CI0 SLP191

CYYC;2008-09-11 04:00;CYYC 110400Z 17006KT 15SM FEW200 FEW250 10/03 A3004 RMK CI1CI0 SLP194

CYYC;2008-09-11 05:00;CYYC 110500Z 21003KT 15SM FEW250 08/03 A3004 RMK CI1 CI TR SLP193

CYYC;2008-09-11 06:00;CYYC 110600Z 18005KT 15SM SKC 07/04 A3001 RMK SLP182

CYYC;2008-09-11 07:00;CYYC 110700Z 21006KT 15SM SKC 07/04 A3001 RMK SLP182

CYYC;2008-09-11 08:00;CYYC 110800Z 20008KT 15SM SKC 07/03 A3000 RMK SLP178

CYYC;2008-09-11 09:00;CYYC 110900Z 18005KT 15SM FEW090 07/03 A2999 RMK AC1 AC TR SLP173

CYYC;2008-09-11 10:00;CYYC 111000Z 18006KT 15SM FEW090 06/03 A3000 RMK AC1 AC TR SLP174

CYYC;2008-09-11 11:00;CYYC 111100Z 20005KT 15SM FEW100 06/03 A3000 RMK AC1 AC TR SLP175

CYYC;2008-09-11 12:00;CYYC 111200Z 32003KT 15SM FEW110 SCT240 09/03 A3001 RMK AC2CI2 SLP174

CYYC;2008-09-11 13:00;CYYC 111300Z 21004KT 40SM SCT250 09/03 A3001 RMK CI1 SLP174

CYYC;2008-09-11 14:00;CYYC 111400Z 33003KT 40SM BKN250 10/04 A3002 RMK CI2 SLP178

CYYC;2008-09-11 15:00;CYYC 111500Z 32004KT 40SM FEW120 BKN250 12/04 A3003 RMK AC1CI2 SLP182

CYYC;2008-09-11 16:00;CYYC 111600Z 32002KT 40SM FEW130 BKN250 15/06 A3002 RMK AC1CI2 SLP181

CYYC;2008-09-11 17:00;CYYC 111700Z 25003KT 40SM FEW140 BKN220 18/06 A3002 RMK AC1CI2 AC TR SLP179

CYYC;2008-09-11 18:00;CYYC 111800Z 22006KT 40SM FEW140 BKN220 20/07 A3001 RMK AC1CI2 SLP169

CYYC;2008-09-11 19:00;CYYC 111900Z 21007KT 40SM FEW180 BKN220 20/06 A2999 RMK AC1CI2 SLP164

CYYC;2008-09-11 20:00;CYYC 112000Z 21008KT 40SM FEW060 FEW180 BKN220 21/06 A2997 RMK CU1AC1CI2 CU TR SLP157

CYYC;2008-09-11 21:00;CYYC 112100Z CCA 20006KT 40SM FEW064 FEW180 BKN220 23/06 A2995 RMK CU1AC1CI2 CU+AC TR SLP146

CYYC;2008-09-11 22:00;CYYC 112200Z 18003KT 40SM FEW070 FEW220 23/05 A2993 RMK CU1CI1 CU TR SLP139

CYYC;2008-09-11 23:00;CYYC 112300Z CCA 19004KT 40SM FEW070 SCT220 23/06 A2990 RMK CU1CI1 CU TR SLP130

CYYC;2008-09-12 00:00;CYYC 120000Z 18005KT 40SM FEW068 BKN220 23/06 A2987 RMK CU1CI2 CU TR SLP118

CYYC;2008-09-12 01:00;CYYC 120100Z 17006KT 40SM FEW064 SCT220 21/06 A2986 RMK CU1CI1 CU TR SLP115

CYYC;2008-09-12 02:00;CYYC 120200Z 18007KT 40SM FEW064 SCT250 19/06 A2986 RMK CU1CI0 SLP114

CYYC;2008-09-12 03:00;CYYC 120300Z 18007KT 20SM FEW250 18/06 A2986 RMK CI0 SLP116

CYYC;2008-09-12 04:00;CYYC 120400Z 16004KT 15SM FEW250 15/06 A2985 RMK CI0 SLP114

CYYC;2008-09-12 05:00;CYYC 120500Z 21005KT 15SM FEW250 15/06 A2985 RMK CI0 SLP111

CYYC;2008-09-12 06:00;CYYC 120600Z 25012KT 15SM FEW250 17/04 A2983 RMK CI0 SLP096

CYYC;2008-09-12 07:00;CYYC 120700Z CCA 23006KT 15SM FEW240 13/04 A2983 RMK CI0 SLP094

CYYC;2008-09-12 08:00;CYYC 120800Z 21007KT 15SM FEW240 13/05 A2981 RMK CI0 SLP090

CYYC;2008-09-12 09:00;CYYC 120900Z 20005KT 15SM FEW240 13/04 A2980 RMK CI1 SLP086

CYYC;2008-09-12 10:00;CYYC 121000Z 23008KT 15SM FEW240 13/04 A2979 RMK CI1 SLP082

CYYC;2008-09-12 11:00;CYYC 121100Z 22007KT 15SM FEW170 FEW240 13/04 A2979 RMK AC1CI1 AC TR SLP082

CYYC;2008-09-12 12:00;CYYC 121200Z 20008KT 15SM FEW140 SCT230 13/04 A2978 RMK AC2CI1 SLP080

CYYC;2008-09-12 13:00;CYYC 121300Z 35009KT 30SM FEW060 BKN100 BKN240 11/06 A2985 RMK SC1AC2CI2 SLP099

CYYC;2008-09-12 14:00;CYYC 121400Z 35008KT 30SM FEW060 FEW100 BKN250 10/07 A2987 RMK SC1AC1CI2 SLP106

CYYC;2008-09-12 15:00;CYYC 121500Z 36004KT 30SM FEW060 FEW090 OVC220 11/07 A2989 RMK SC1AC2CI4 SLP129

CYYC;2008-09-12 16:00;CYYC 121600Z 28008KT 30SM BKN045 BKN110 OVC220 12/08 A2990 RMK SC5AC2CI0 SLP131

CYYC;2008-09-12 16:17;CYYC 121617Z 35011KT 30SM BKN045 BKN110 OVC220 12/ RMK SC6AC2CI0 WSHFT 1604

CYYC;2008-09-12 17:00;CYYC 121700Z 36010KT 30SM FEW022 BKN046 BKN110 13/08 A2990 RMK SC2SC5AC1 SLP132

CYYC;2008-09-12 18:00;CYYC 121800Z 02011KT 30SM SCT025 OVC045 13/07 A2991 RMK CU4SC4 SLP132

CYYC;2008-09-12 19:00;CYYC 121900Z 02012KT 30SM FEW020 BKN025 OVC038 12/06 A2991 RMK CU1SC5SC2 SLP133

CYYC;2008-09-12 20:00;CYYC 122000Z 03011G16KT 30SM OVC030 11/05 A2990 RMK SC8 SLP131

CYYC;2008-09-12 20:31;CYYC 122031Z CCA 03013KT 30SM -SHRA FEW020 OVC035 10/ RMK CU2SC6 PCPN VRY LGT

CYYC;2008-09-12 20:50;CYYC 122050Z 35011KT 5SM -SHRAPL FEW022 OVC036 10/ RMK CU2SC6

CYYC;2008-09-12 21:00;CYYC 122100Z 33010KT 4SM -SHRA FEW016 OVC040 09/07 A2994 RMK CU2SC6 SLP155

CYYC;2008-09-12 21:42;CYYC 122142Z 36011KT 15SM -SHRA FEW009 FEW015 BKN030 OVC085 08/ RMK SF1CU2SC5AC1

CYYC;2008-09-12 22:00;CYYC 122200Z 35009G16KT 20SM -SHRA FEW008 FEW015 SCT030 OVC050 08/07 A2993 RMK SF1CU2SC2SC4 SLP150

CYYC;2008-09-12 23:00;CYYC 122300Z 36009KT 15SM -RA FEW020 BKN032 09/07 A2994 RMK SC2SC5 SLP153

CYYC;2008-09-13 00:00;CYYC 130000Z 25008KT 8SM -RA SCT020 OVC045 07/06 A2997 RMK SC3SC5 SLP167

CYYC;2008-09-13 01:00;CYYC 130100Z 28004KT 10SM -RA FEW009 BKN038 OVC060 07/06 A2999 RMK SC1SC5SC2 SLP173

CYYC;2008-09-13 02:00;CYYC 130200Z 29011KT 12SM -RA FEW030 OVC047 07/06 A3002 RMK SC1SC7 SLP182

CYYC;2008-09-13 03:00;CYYC 130300Z 30013G20KT 12SM -RA FEW030 BKN058 OVC077 06/04 A3004 RMK SC2SC5AC2 SLP194

CYYC;2008-09-13 04:00;CYYC 130400Z 29006KT 15SM OVC074 06/03 A3006 RMK AC8 SLP202

CYYC;2008-09-13 05:00;CYYC 130500Z 30012G18KT 15SM BKN058 OVC075 06/03 A3007 RMK SC6AC2 SLP206

CYYC;2008-09-13 06:00;CYYC 130600Z 32012G18KT 15SM FEW050 OVC072 06/03 A3009 RMK SC2AC6 SLP212

CYYC;2008-09-13 07:00;CYYC 130700Z 32014KT 15SM FEW050 OVC074 06/03 A3012 RMK SC1AC7 SLP219

CYYC;2008-09-13 08:00;CYYC 130800Z 32011KT 15SM BKN078 05/03 A3013 RMK AC7 SLP224

CYYC;2008-09-13 09:00;CYYC 130900Z 31011KT 15SM SCT082 04/02 A3014 RMK AC2 SLP236

CYYC;2008-09-13 10:00;CYYC 131000Z 31009KT 15SM FEW085 05/01 A3015 RMK AC2 SLP240

CYYC;2008-09-13 11:00;CYYC 131100Z 32008KT 15SM SKC 04/01 A3016 RMK SLP242

CYYC;2008-09-13 12:00;CYYC 131200Z 23003KT 15SM FEW250 04/01 A3017 RMK CI1 CI TR SLP250

CYYC;2008-09-13 13:00;CYYC 131300Z 00000KT 40SM FEW250 02/00 A3018 RMK CI1 CI TR SLP251

CYYC;2008-09-13 14:00;CYYC 131400Z 00000KT 40SM SKC 03/02 A3018 RMK SLP253

CYYC;2008-09-13 15:00;CYYC 131500Z 20002KT 40SM SKC 06/03 A3019 RMK SLP255

CYYC;2008-09-13 16:00;CYYC 131600Z 27003KT 40SM SKC 08/04 A3020 RMK SLP256

CYYC;2008-09-13 17:00;CYYC 131700Z 18004KT 40SM FEW024 FEW100 11/04 A3020 RMK CU1AC1 SLP257

CYYC;2008-09-13 18:00;CYYC 131800Z 17006KT 40SM FEW032 FEW100 11/03 A3019 RMK CU1AC1 SLP248

CYYC;2008-09-13 19:00;CYYC 131900Z 17007KT 40SM FEW036 FEW100 FEW220 13/04 A3018 RMK CU1AC1CI1 CU+CI TR SLP244

CYYC;2008-09-13 20:00;CYYC 132000Z 20010KT 40SM FEW044 FEW200 14/03 A3017 RMK CU1CI1 CU TR SLP241

CYYC;2008-09-13 21:00;CYYC 132100Z CCA 19005KT 40SM FEW048 FEW100 FEW200 15/03 A3015 RMK CU1AC1CI0 CU TR SLP231

CYYC;2008-09-13 22:00;CYYC 132200Z 18007KT 40SM FEW100 BKN220 15/02 A3013 RMK AC1CI1 SLP226

CYYC;2008-09-13 23:00;CYYC 132300Z 21006KT 40SM FEW100 BKN240 16/02 A3012 RMK AC1CI2 ACSL SLP221

CYYC;2008-09-14 00:00;CYYC 140000Z 18003KT 40SM FEW100 BKN220 16/03 A3010 RMK AC1CI2 ACSL TR SLP213

CYYC;2008-09-14 01:00;CYYC 140100Z 18006KT 40SM FEW120 BKN230 15/04 A3010 RMK AC1CS3 ACSL SLP213

CYYC;2008-09-14 02:00;CYYC 140200Z 17006KT 40SM FEW120 BKN200 12/04 A3010 RMK AC1CI2 SLP213

CYYC;2008-09-14 03:00;CYYC 140300Z 18006KT 15SM FEW180 BKN240 12/04 A3011 RMK AC1CS1 CONTRAILS SLP217

CYYC;2008-09-14 04:00;CYYC 140400Z 20006KT 15SM FEW180 FEW240 11/05 A3011 RMK AC1CS1 SLP219

CYYC;2008-09-14 05:00;CYYC 140500Z 20005KT 15SM FEW240 10/05 A3011 RMK CI1 SLP219

CYYC;2008-09-14 06:00;CYYC 140600Z 20005KT 15SM SKC 08/04 A3011 RMK SLP215

CYYC;2008-09-14 07:00;CYYC 140700Z 20003KT 15SM SKC 08/05 A3012 RMK SLP218

CYYC;2008-09-14 08:00;CYYC 140800Z 20005KT 15SM SKC 07/04 A3012 RMK SLP219

CYYC;2008-09-14 09:00;CYYC 140900Z 20006KT 15SM SKC 06/04 A3012 RMK SLP218

CYYC;2008-09-14 10:00;CYYC 141000Z 16003KT 15SM SCT240 04/02 A3011 RMK CI1 SLP217

CYYC;2008-09-14 11:00;CYYC 141100Z 18002KT 15SM FEW240 06/02 A3012 RMK CI1 SLP220

CYYC;2008-09-14 12:00;CYYC 141200Z 00000KT 15SM BKN240 07/02 A3013 RMK CI2 SLP219

CYYC;2008-09-14 13:00;CYYC 141300Z 00000KT 40SM FEW140 FEW220 06/01 A3014 RMK AC1CI1 SLP221

CYYC;2008-09-14 14:00;CYYC 141400Z 31003KT 40SM FEW220 07/02 A3015 RMK CI1 SLP225

CYYC;2008-09-14 15:00;CYYC 141500Z 00000KT 40SM FEW220 09/03 A3016 RMK CI1 SLP232

CYYC;2008-09-14 16:00;CYYC 141600Z 00000KT 40SM FEW250 13/05 A3016 RMK CI1 SLP232

CYYC;2008-09-14 17:00;CYYC 141700Z 01006KT 40SM FEW240 16/05 A3017 RMK CI1 SLP233

CYYC;2008-09-14 18:00;CYYC 141800Z 27002KT 40SM FEW240 18/02 A3016 RMK CI1 SLP225

CYYC;2008-09-14 19:00;CYYC 141900Z 19005KT 40SM FEW220 19/03 A3016 RMK CI1 SLP223

CYYC;2008-09-14 20:00;CYYC 142000Z 00000KT 40SM FEW250 20/04 A3015 RMK CI0 SLP221

CYYC;2008-09-14 21:00;CYYC 142100Z 09003KT 40SM FEW250 20/03 A3014 RMK CI0 SLP219

CYYC;2008-09-14 22:00;CYYC 142200Z 20003KT 40SM FEW180 BKN250 21/03 A3013 RMK AC1CI0 SLP216

CYYC;2008-09-14 23:00;CYYC 142300Z 19006KT 40SM FEW180 OVC240 21/04 A3012 RMK AC1CI0 SLP213

CYYC;2008-09-15 00:00;CYYC 150000Z 16005KT 40SM FEW180 SCT200 OVC260 20/05 A3011 RMK AC1CI2CI0 SLP207

CYYC;2008-09-15 01:00;CYYC 150100Z 17006KT 40SM FEW190 BKN220 20/06 A3010 RMK AC1CI1 SLP204

CYYC;2008-09-15 02:00;CYYC 150200Z 12004KT 40SM FEW190 FEW220 18/05 A3011 RMK AC1CI0 SLP207

CYYC;2008-09-15 03:00;CYYC 150300Z 13004KT 15SM FEW250 14/06 A3012 RMK CI0 SLP216

CYYC;2008-09-15 04:00;CYYC 150400Z 14003KT 15SM SCT250 13/07 A3014 RMK CI0 SLP220

CYYC;2008-09-15 05:00;CYYC 150500Z 36005KT 15SM FEW250 09/06 A3014 RMK CI0 SLP221

CYYC;2008-09-15 06:00;CYYC 150600Z 32004KT 15SM BKN250 10/07 A3014 RMK CI0 SLP214

CYYC;2008-09-15 07:00;CYYC 150700Z 35004KT 15SM BKN250 09/06 A3014 RMK CI0 SLP214

CYYC;2008-09-15 08:00;CYYC 150800Z 25002KT 15SM BKN250 08/05 A3014 RMK CI0 SLP214

CYYC;2008-09-15 09:00;CYYC 150900Z 20002KT 15SM SCT250 08/04 A3013 RMK CI0 SLP211

CYYC;2008-09-15 10:00;CYYC 151000Z 20005KT 15SM BKN250 07/03 A3012 RMK CS0 SLP209

CYYC;2008-09-15 11:00;CYYC 151100Z 21006KT 15SM BKN250 08/03 A3012 RMK CS0 SLP207

CYYC;2008-09-15 12:00;CYYC 151200Z 22004KT 15SM BKN250 07/02 A3011 RMK CS0 SLP204

CYYC;2008-09-15 13:00;CYYC 151300Z 20003KT 15SM BKN250 06/02 A3010 RMK CS0 SLP203

CYYC;2008-09-15 14:00;CYYC 151400Z 35003KT 40SM FEW250 07/03 A3011 RMK CI1 SLP204

CYYC;2008-09-15 15:00;CYYC 151500Z 00000KT 40SM FEW250 12/05 A3011 RMK CI0 SLP208

CYYC;2008-09-15 16:00;CYYC 151600Z 00000KT 40SM FEW250 17/05 A3011 RMK CI0 SLP208

CYYC;2008-09-15 17:00;CYYC 151700Z 28003KT 40SM FEW250 21/04 A3011 RMK CI1 CI TR SLP206

CYYC;2008-09-15 18:00;CYYC 151800Z 35005KT 40SM FEW250 23/03 A3011 RMK CI1 CI TR SLP197

CYYC;2008-09-15 19:00;CYYC 151900Z 02004KT 40SM FEW250 24/02 A3009 RMK CI1 CI TR SLP193

CYYC;2008-09-15 20:00;CYYC 152000Z 04007KT 40SM SKC 25/01 A3008 RMK SLP190

CYYC;2008-09-15 21:00;CYYC 152100Z 36006KT 40SM SKC 25/00 A3007 RMK SLP183

CYYC;2008-09-15 22:00;CYYC 152200Z 22002KT 40SM SKC 26/M01 A3006 RMK SLP180

CYYC;2008-09-15 23:00;CYYC 152300Z 16002KT 40SM SKC 26/01 A3004 RMK SLP175

CYYC;2008-09-16 00:00;CYYC 160000Z 12006KT 40SM SKC 26/03 A3004 RMK SLP172

CYYC;2008-09-16 01:00;CYYC 160100Z 14005KT 40SM SKC 22/05 A3003 RMK SLP171

CYYC;2008-09-16 02:00;CYYC 160200Z 00000KT 40SM SKC 19/05 A3004 RMK SLP172

CYYC;2008-09-16 03:00;CYYC 160300Z 17005KT 40SM SKC 19/04 A3005 RMK SLP177

CYYC;2008-09-16 04:00;CYYC 160400Z 12004KT 15SM SKC 17/04 A3006 RMK SLP180

CYYC;2008-09-16 05:00;CYYC 160500Z 18002KT 15SM SKC 13/06 A3006 RMK SLP181

CYYC;2008-09-16 06:00;CYYC 160600Z 35007KT 15SM SKC 11/06 A3006 RMK SLP180

CYYC;2008-09-16 07:00;CYYC 160700Z 30003KT 15SM SKC 10/05 A3007 RMK SLP182

CYYC;2008-09-16 08:00;CYYC 160800Z 29003KT 15SM SKC 10/04 A3007 RMK SLP183

CYYC;2008-09-16 09:00;CYYC 160900Z 32004KT 15SM SKC 09/04 A3008 RMK SLP186

CYYC;2008-09-16 10:00;CYYC 161000Z 25002KT 15SM SKC 08/04 A3008 RMK SLP186

CYYC;2008-09-16 11:00;CYYC 161100Z 32006KT 15SM SKC 09/02 A3009 RMK SLP189

CYYC;2008-09-16 12:00;CYYC 161200Z 31007KT 15SM SKC 10/02 A3009 RMK SLP187

CYYC;2008-09-16 13:00;CYYC 161300Z 00000KT 30SM FEW150 FEW250 09/02 A3009 RMK AC1CI1 SLP187

CYYC;2008-09-16 14:00;CYYC 161400Z 00000KT 40SM SCT260 09/02 A3009 RMK CI0 SLP188

CYYC;2008-09-16 15:00;CYYC 161500Z 34002KT 40SM SCT260 11/04 A3011 RMK CI0 SLP200

CYYC;2008-09-16 16:00;CYYC 161600Z 31008KT 40SM FEW260 17/05 A3011 RMK CI0 SLP201

CYYC;2008-09-16 17:00;CYYC 161700Z 33010KT 40SM FEW260 19/06 A3011 RMK CI0 SLP201

CYYC;2008-09-16 18:00;CYYC 161800Z CCA 34010G15KT 40SM FEW260 21/06 A3010 RMK CI0 SLP197

CYYC;2008-09-16 19:00;CYYC 161900Z 01012KT 40SM BKN260 22/06 A3010 RMK CI0 SLP196

CYYC;2008-09-16 20:00;CYYC 162000Z 01011G16KT 40SM SCT260 22/07 A3010 RMK CI0 SLP197

CYYC;2008-09-16 21:00;CYYC 162100Z 01011KT 30SM FEW060 SCT260 23/07 A3010 RMK CU1CI0 SLP196

CYYC;2008-09-16 22:00;CYYC 162200Z CCA 05006KT 25SM FEW060 FEW240 23/06 A3010 RMK CU1CI1 SLP195

CYYC;2008-09-16 23:00;CYYC 162300Z 02009KT 20SM FEW060 BKN240 24/06 A3009 RMK CU1CI1 SLP193

CYYC;2008-09-17 00:00;CYYC 170000Z 01008KT 30SM FEW060 BKN240 23/08 A3009 RMK CU1CI2 SLP191

CYYC;2008-09-17 01:00;CYYC 170100Z 03005KT 25SM BKN240 21/09 A3010 RMK CI1 SLP193

CYYC;2008-09-17 02:00;CYYC 170200Z 04005KT 30SM BKN250 18/08 A3011 RMK CI1 SLP196

CYYC;2008-09-17 03:00;CYYC 170300Z 34003KT 15SM SCT250 17/08 A3013 RMK CI1 SLP210

CYYC;2008-09-17 04:00;CYYC 170400Z 34007KT 15SM FEW250 16/08 A3014 RMK CI0 SLP214

CYYC;2008-09-17 05:00;CYYC 170500Z 36005KT 15SM SKC 15/08 A3015 RMK SLP216

CYYC;2008-09-17 06:00;CYYC 170600Z 32003KT 15SM SKC 13/08 A3015 RMK SLP211

CYYC;2008-09-17 07:00;CYYC 170700Z 35002KT 15SM SKC 11/07 A3015 RMK SLP210

CYYC;2008-09-17 08:00;CYYC 170800Z 00000KT 15SM SKC 09/07 A3014 RMK SLP207

CYYC;2008-09-17 09:00;CYYC 170900Z 10003KT 15SM SKC 08/06 A3013 RMK SLP209

CYYC;2008-09-17 10:00;CYYC 171000Z 00000KT 15SM SKC 07/06 A3013 RMK SLP207

CYYC;2008-09-17 11:00;CYYC 171100Z 27002KT 15SM SKC 06/05 A3011 RMK SLP203

CYYC;2008-09-17 12:00;CYYC 171200Z 21003KT 15SM FEW240 06/05 A3011 RMK CI0 SLP202

CYYC;2008-09-17 13:00;CYYC 171300Z 26002KT 20SM FEW240 06/05 A3010 RMK CI0 SLP200

CYYC;2008-09-17 14:00;CYYC 171400Z 18004KT 40SM SCT240 05/04 A3010 RMK CI0 SLP199

CYYC;2008-09-17 15:00;CYYC 171500Z 19006KT 40SM SCT240 08/06 A3009 RMK CI1 SLP203

CYYC;2008-09-17 16:00;CYYC 171600Z 20006KT 40SM SCT240 12/07 A3008 RMK CI1 SLP198

CYYC;2008-09-17 17:00;CYYC 171700Z 18004KT 40SM SCT240 14/07 A3007 RMK CI1 SLP195

CYYC;2008-09-17 18:00;CYYC 171800Z 20004KT 30SM BKN250 17/08 A3005 RMK CI2 SLP180

CYYC;2008-09-17 19:00;CYYC 171900Z 18007KT 30SM SCT250 19/09 A3003 RMK CI2 SLP174

CYYC;2008-09-17 20:00;CYYC 172000Z 15006KT 30SM SCT250 22/09 A3001 RMK CI2 SLP168

CYYC;2008-09-17 21:00;CYYC 172100Z 18004KT 30SM FEW250 24/08 A3000 RMK CI2 SLP161

CYYC;2008-09-17 22:00;CYYC 172200Z CCA 16004KT 30SM SCT250 25/04 A2997 RMK CI2 SLP152

CYYC;2008-09-17 23:00;CYYC 172300Z 20005KT 30SM BKN250 26/04 A2996 RMK CI2 SLP148

CYYC;2008-09-18 00:00;CYYC 180000Z 15005KT 30SM BKN250 25/04 A2995 RMK CI2 SLP144

CYYC;2008-09-18 01:00;CYYC 180100Z 18005KT 30SM SCT250 23/05 A2995 RMK CI2 SLP143

CYYC;2008-09-18 02:00;CYYC 180200Z 18006KT 30SM FEW200 SCT250 21/05 A2994 RMK CI1CI1 SLP142

CYYC;2008-09-18 03:00;CYYC 180300Z CCA 22007KT 15SM FEW250 19/06 A2995 RMK CI1 SLP151

CYYC;2008-09-18 04:00;CYYC 180400Z 34003KT 15SM FEW220 BKN250 19/02 A2996 RMK CI2CI1 SLP153

CYYC;2008-09-18 05:00;CYYC 180500Z 27003KT 15SM SCT180 OVC240 17/01 A2996 RMK AC2CI2 SLP154

CYYC;2008-09-18 06:00;CYYC 180600Z 27007KT 15SM SCT180 OVC240 20/M01 A2996 RMK AC2CI3 SLP138

CYYC;2008-09-18 07:00;CYYC 180700Z 36002KT 15SM SCT200 OVC240 17/01 A2996 RMK CI2CI3 SLP139

CYYC;2008-09-18 08:00;CYYC 180800Z 28004KT 15SM FEW200 BKN250 16/00 A2996 RMK CI2CI1 SLP139

CYYC;2008-09-18 09:00;CYYC 180900Z 21004KT 15SM FEW200 BKN250 13/01 A2996 RMK CI2CI1 SLP139

CYYC;2008-09-18 10:00;CYYC 181000Z 21002KT 15SM FEW160 SCT200 BKN250 12/02 A2995 RMK AC2CI2CI0 SLP138

CYYC;2008-09-18 11:00;CYYC 181100Z 00000KT 15SM FEW160 BKN240 09/02 A2995 RMK AC2CI2 SLP138

CYYC;2008-09-18 12:00;CYYC 181200Z 18003KT 15SM FEW160 BKN220 09/03 A2995 RMK AC2CI2 SLP139

CYYC;2008-09-18 13:00;CYYC 181300Z 16005KT 15SM FEW085 FEW160 OVC240 11/03 A2994 RMK AC1AC2CI2 SLP137

CYYC;2008-09-18 14:00;CYYC 181400Z 17003KT 20SM FEW085 FEW160 OVC240 11/04 A2994 RMK AC1AC2CI2 SLP138

CYYC;2008-09-18 15:00;CYYC 181500Z CCA 13004KT 20SM FEW160 SCT180 OVC220 14/04 A2995 RMK AC1AC2CI3 SLP142

CYYC;2008-09-18 16:00;CYYC 181600Z CCA 31003KT 20SM FEW140 BKN160 OVC220 17/06 A2996 RMK AC2AC3CI3 SLP145

CYYC;2008-09-18 17:00;CYYC 181700Z 00000KT 20SM FEW160 BKN180 OVC220 21/05 A2997 RMK AC2AC3CI2 SLP148

CYYC;2008-09-18 18:00;CYYC 181800Z 29003KT 20SM FEW160 BKN180 OVC240 20/06 A2998 RMK AC2AC3CI2 SLP141

CYYC;2008-09-18 19:00;CYYC 181900Z 23007KT 20SM BKN160 OVC220 22/06 A2997 RMK AC6CI2 SLP139

CYYC;2008-09-18 20:00;CYYC 182000Z 22007KT 20SM BKN160 OVC220 23/05 A2997 RMK AC6CI1 SLP138

CYYC;2008-09-18 21:00;CYYC 182100Z 22005KT 20SM SCT160 OVC220 23/07 A2996 RMK AC4CI2 SLP140

CYYC;2008-09-18 22:00;CYYC 182200Z 21004KT 30SM FEW056 SCT160 OVC220 23/09 A2994 RMK CU1AC4CI2 SLP136

CYYC;2008-09-18 23:00;CYYC 182300Z 22004KT 30SM FEW050 SCT150 BKN220 22/10 A2993 RMK CU1AC4CI2 SLP133

CYYC;2008-09-19 00:00;CYYC 190000Z 20006KT 30SM FEW040 SCT150 BKN200 21/11 A2993 RMK CU1AC3CI2 SLP139

CYYC;2008-09-19 01:00;CYYC 190100Z 20005KT 20SM FEW036 FEW160 BKN200 19/10 A2993 RMK CU1AC2CI3 SLP138

CYYC;2008-09-19 02:00;CYYC 190200Z 22007KT 20SM FEW140 OVC230 19/10 A2993 RMK AC2CI6 SLP140

CYYC;2008-09-19 03:00;CYYC 190300Z 20008KT 15SM FEW140 OVC240 18/10 A2994 RMK AC1CI7 SLP139

CYYC;2008-09-19 04:00;CYYC 190400Z 18004KT 15SM FEW140 OVC240 18/09 A2994 RMK AC1CI7 SLP141

CYYC;2008-09-19 05:00;CYYC 190500Z 36006KT 15SM SCT160 OVC240 15/08 A2996 RMK AC3CI5 SLP146

CYYC;2008-09-19 06:00;CYYC 190600Z 34008KT 15SM SCT160 OVC240 13/07 A2998 RMK AC3CI5 SLP151

CYYC;2008-09-19 07:00;CYYC 190700Z 33006KT 15SM SCT160 BKN240 14/09 A2998 RMK AC4CI2 SLP153

CYYC;2008-09-19 08:00;CYYC 190800Z 33007KT 15SM SCT170 OVC240 14/07 A2999 RMK AC3CI4 SLP156

CYYC;2008-09-19 09:00;CYYC 190900Z 34005KT 15SM BKN180 OVC240 12/08 A2999 RMK AC5CI2 SLP154

CYYC;2008-09-19 10:00;CYYC 191000Z 34004KT 15SM FEW180 BKN220 10/07 A3000 RMK AC2CI2 SLP155

CYYC;2008-09-19 11:00;CYYC 191100Z 36005KT 15SM FEW180 SCT230 10/06 A3001 RMK AC1CI2 SLP158

CYYC;2008-09-19 12:00;CYYC 191200Z 34005KT 15SM FEW150 SCT220 09/06 A3002 RMK AC1CI1 SLP170

CYYC;2008-09-19 13:00;CYYC 191300Z 36004KT 20SM FEW080 FEW150 BKN240 08/05 A3002 RMK AC2AC1CI2 SLP172

CYYC;2008-09-19 14:00;CYYC 191400Z 36002KT 25SM FEW080 FEW130 BKN210 08/06 A3003 RMK AC1AC1CI0 SLP173

CYYC;2008-09-19 15:00;CYYC 191500Z 00000KT 25SM FEW180 FEW210 SCT250 11/06 A3003 RMK AC1CI0CI0 HZ SW SLP176

CYYC;2008-09-19 16:00;CYYC 191600Z 35004KT 30SM FEW220 14/07 A3004 RMK CI0 SLP179

CYYC;2008-09-19 17:00;CYYC 191700Z 07006KT 25SM FEW220 17/06 A3004 RMK CI0 HZ SW SLP179

CYYC;2008-09-19 18:00;CYYC 191800Z 07003KT 25SM FEW180 FEW220 18/06 A3005 RMK AC1CI1 HZ SW SLP177

CYYC;2008-09-19 19:00;CYYC 191900Z 08008KT 30SM FEW200 FEW240 19/06 A3005 RMK CI1CI1 SLP177

CYYC;2008-09-19 20:00;CYYC 192000Z 12012KT 30SM FEW140 FEW240 21/06 A3004 RMK AC1CI0 SLP174

CYYC;2008-09-19 21:00;CYYC 192100Z 09012KT 30SM FEW120 22/06 A3002 RMK AC1 SLP165

CYYC;2008-09-19 22:00;CYYC 192200Z 10011KT 30SM FEW058 FEW140 23/05 A3002 RMK SC1AC1 SLP164

CYYC;2008-09-19 23:00;CYYC 192300Z 11009KT 30SM FEW058 FEW230 22/05 A3002 RMK SC1CI0 SLP165

CYYC;2008-09-20 00:00;CYYC 200000Z 11011KT 30SM FEW060 FEW230 22/06 A3002 RMK SC1CI0 SLP168

CYYC;2008-09-20 01:00;CYYC 200100Z 11008KT 30SM FEW065 FEW250 20/06 A3002 RMK SC1CI0 SLP168

CYYC;2008-09-20 02:00;CYYC 200200Z 11009KT 20SM FEW065 SCT250 18/06 A3002 RMK SC1CI2 SC TR SLP168

CYYC;2008-09-20 03:00;CYYC 200300Z 12011KT 15SM SCT250 16/06 A3003 RMK CI2 SLP178

CYYC;2008-09-20 04:00;CYYC 200400Z 12013KT 15SM FEW250 14/06 A3003 RMK CI1 SLP179

CYYC;2008-09-20 05:00;CYYC 200500Z 13005KT 15SM FEW250 12/06 A3004 RMK CI1 SLP182

CYYC;2008-09-20 06:00;CYYC 200600Z 14006KT 15SM FEW250 10/05 A3004 RMK CI0 SLP180

CYYC;2008-09-20 07:00;CYYC 200700Z 15005KT 15SM SKC 09/05 A3004 RMK SLP178

CYYC;2008-09-20 08:00;CYYC 200800Z 14005KT 15SM SKC 09/05 A3002 RMK SLP173

CYYC;2008-09-20 09:00;CYYC 200900Z 13006KT 15SM SKC 08/05 A3000 RMK SLP164

CYYC;2008-09-20 10:00;CYYC 201000Z 15006KT 15SM SKC 07/04 A3000 RMK SLP163

CYYC;2008-09-20 11:00;CYYC 201100Z 20002KT 15SM SKC 07/04 A2999 RMK SLP160

CYYC;2008-09-20 12:00;CYYC 201200Z 17003KT 15SM SKC 06/04 A2997 RMK SLP158

CYYC;2008-09-20 13:00;CYYC 201300Z 18004KT 20SM FEW240 05/04 A2996 RMK CI1 SLP153

CYYC;2008-09-20 14:00;CYYC 201400Z 19005KT 30SM FEW140 SCT240 06/05 A2995 RMK AC1CI0 SLP152

CYYC;2008-09-20 15:00;CYYC 201500Z 20005KT 30SM FEW140 SCT240 08/06 A2994 RMK AC1CI0 SLP152

CYYC;2008-09-20 16:00;CYYC 201600Z 21006KT 30SM FEW140 SCT240 11/06 A2993 RMK AC1CI0 SLP147

CYYC;2008-09-20 17:00;CYYC 201700Z 18003KT 30SM BKN220 15/08 A2992 RMK CI0 SLP144

CYYC;2008-09-20 18:00;CYYC 201800Z 20004KT 30SM FEW100 BKN240 17/08 A2991 RMK AC1CI0 SLP134

CYYC;2008-09-20 19:00;CYYC 201900Z 18007KT 30SM FEW090 SCT240 19/09 A2989 RMK AC1CI0 SLP128

CYYC;2008-09-20 20:00;CYYC 202000Z 16006KT 30SM FEW048 SCT240 21/09 A2987 RMK CU1CI0 SLP122

CYYC;2008-09-20 21:00;CYYC 202100Z 15008KT 30SM FEW056 SCT240 23/09 A2985 RMK CU1CI0 SLP109

CYYC;2008-09-20 22:00;CYYC 202200Z 15010KT 30SM FEW060 FEW160 BKN240 23/08 A2984 RMK CU1AC1CI1 CU TR SLP105

CYYC;2008-09-20 23:00;CYYC 202300Z 16008KT 30SM FEW060 SCT180 OVC240 23/08 A2982 RMK CU1AC2CI2 SLP101

CYYC;2008-09-21 00:00;CYYC 210000Z 12009KT 30SM FEW056 SCT180 OVC240 23/09 A2982 RMK CU1AC2CI2 SLP101

CYYC;2008-09-21 01:00;CYYC 210100Z 11009KT 25SM FEW044 SCT180 OVC220 20/09 A2981 RMK CU1AC2CI2 SLP100

CYYC;2008-09-21 02:00;CYYC 210200Z 11008KT 20SM FEW044 FEW180 SCT220 17/09 A2982 RMK CU1AC1CI2 SLP101

CYYC;2008-09-21 03:00;CYYC 210300Z 13008KT 15SM FEW220 15/09 A2983 RMK CI1 SLP113

CYYC;2008-09-21 04:00;CYYC 210400Z 14009KT 15SM FEW120 13/08 A2983 RMK AC1 SLP113

CYYC;2008-09-21 05:00;CYYC 210500Z 18002KT 15SM FEW120 14/08 A2981 RMK AC1 SLP107

CYYC;2008-09-21 06:00;CYYC 210600Z 20002KT 15SM FEW150 FEW250 13/08 A2980 RMK AC2CI0 SLP093

CYYC;2008-09-21 07:00;CYYC 210700Z 00000KT 15SM SCT140 11/08 A2977 RMK AC2 SLP086

CYYC;2008-09-21 08:00;CYYC 210800Z 07002KT 15SM FEW150 09/07 A2978 RMK AC1 SLP087

CYYC;2008-09-21 09:00;CYYC 210900Z 35004KT 15SM BKN160 09/07 A2975 RMK AC5 SLP075

CYYC;2008-09-21 10:00;CYYC 211000Z 35006KT 15SM BKN140 08/07 A2972 RMK AC6 SLP066

CYYC;2008-09-21 11:00;CYYC 211100Z 35004KT 15SM BKN140 BKN260 10/08 A2971 RMK AC5CI0 SLP063

CYYC;2008-09-21 12:00;CYYC 211200Z 00000KT 15SM FEW120 SCT160 09/08 A2971 RMK AC1AC1 SLP062

CYYC;2008-09-21 13:00;CYYC 211300Z 00000KT 15SM BKN110 OVC210 08/08 A2973 RMK AC5CI1 SLP066

CYYC;2008-09-21 13:13;CYYC 211313Z 24002KT 20SM TS BKN110 OVC210 08/ RMK AC5CI1 CB EMBD / LTGCC S

CYYC;2008-09-21 13:38;CYYC 211338Z 00000KT 20SM BKN082 OVC220 09/ RETS RMK AC6CI1

CYYC;2008-09-21 13:41;CYYC 211341Z CCA 00000KT 20SM -SHRA BKN082 OVC220 09/ RETS RMK AC6CI1 CVCTV CLD EMBD

CYYC;2008-09-21 14:00;CYYC 211400Z 32002KT 20SM -SHRA FEW044 BKN082 OVC210 09/08 A2972 RMK SC1AC6CI1 SH OCNL/VRY LGT/CVCTV CLD EMBD SLP065

CYYC;2008-09-21 14:04;CYYC 211404Z 34004KT 20SM -TSRA FEW044 BKN090 OVC210 10/ RMK SC1AC6CI0 CB EMBD/PCPN VRY LGT

CYYC;2008-09-21 14:19;CYYC 211419Z 34008KT 20SM FEW044 BKN080 OVC210 09/ RETS RMK SC1AC6CI0 CB EMBD/VIRGA/VIS LWR SW

CYYC;2008-09-21 14:22;CYYC 211422Z CCA 34012KT 20SM -SHRA FEW044 BKN080 OVC210 09/ RETS RMK SC2AC6CI0 CB EMBD

CYYC;2008-09-21 15:00;CYYC 211500Z 35004KT 20SM -SHRA SCT030 BKN090 OVC210 10/09 A2971 RETS RMK SC3AC3CI0 CB EMBD/VIS LWR SW SLP069

CYYC;2008-09-21 15:29;CYYC 211529Z 31004KT 20SM FEW030 BKN085 BKN170 OVC190 11/ RMK SC2AC4AC0AC0

CYYC;2008-09-21 16:00;CYYC 211600Z 32008KT 20SM SCT080 BKN160 BKN190 OVC250 12/09 A2969 RMK AC4AC2AC1CI0 SLP064

CYYC;2008-09-21 16:05;CYYC 211605Z 31006KT 20SM -SHRA FEW070 BKN075 OVC160 12/ RMK AC1AC4AS2

CYYC;2008-09-21 17:00;CYYC 211700Z 32009KT 20SM -SHRA SCT017 BKN075 OVC140 12/10 A2969 RMK SC3AC3AS1 CVCTV CLD EMBD SLP062

CYYC;2008-09-21 18:00;CYYC 211800Z 36010KT 20SM -SHRA BKN020 OVC080 13/11 A2968 RMK SC6AC2 SLP058

CYYC;2008-09-21 18:45;CYYC 211845Z 36010G15KT 20SM SCT009 BKN082 OVC120 13/ RMK SC3AC4AC0

CYYC;2008-09-21 19:00;CYYC 211900Z 34010KT 20SM FEW009 BKN085 OVC230 13/10 A2965 RMK SC2AC5CI1 SLP049

CYYC;2008-09-21 20:00;CYYC 212000Z 36006KT 30SM FEW016 BKN082 OVC120 14/10 A2966 RMK CF1AC6AC2 SLP052

CYYC;2008-09-21 20:35;CYYC 212035Z 03009KT 30SM -SHRA FEW016 BKN072 OVC140 14/ RMK CF1AC7AC1 CVCTV CLD EMBD

CYYC;2008-09-21 21:00;CYYC 212100Z 04007KT 25SM -SHRA FEW012 BKN072 OVC090 13/11 A2965 RMK CF1AC7AC1 SLP053

CYYC;2008-09-21 22:00;CYYC 212200Z 01009KT 20SM -RA FEW019 OVC065 12/11 A2965 RMK SC1SC7 SLP052

CYYC;2008-09-21 23:00;CYYC 212300Z 01012KT 20SM -RA FEW011 OVC060 12/11 A2966 RMK SC2SC6 SLP055

CYYC;2008-09-22 00:00;CYYC 220000Z 35010KT 15SM FEW009 OVC060 11/10 A2966 RMK SC1SC8 SLP059

CYYC;2008-09-22 00:52;CYYC 220052Z 35006KT 12SM FEW008 OVC055 11/ RMK SC2SC6

CYYC;2008-09-22 01:00;CYYC 220100Z 35006KT 12SM FEW008 FEW041 OVC055 11/11 A2967 RMK SC2SC1SC6 BR SLP064

CYYC;2008-09-22 02:00;CYYC 220200Z 35009KT 8SM -RA BKN012 OVC050 11/10 A2968 RMK SC7SC1 SLP065

CYYC;2008-09-22 03:00;CYYC 220300Z 33013G18KT 6SM -RA BKN012 OVC020 10/09 A2969 RMK SC4SC4 SLP070

CYYC;2008-09-22 04:00;CYYC 220400Z 33018G25KT 8SM -RA FEW012 OVC028 08/07 A2969 RMK ST1SC7 SLP071

CYYC;2008-09-22 05:00;CYYC 220500Z 33017G22KT 8SM -RA FEW012 OVC048 08/07 A2970 RMK ST1SC7 SLP073

CYYC;2008-09-22 06:00;CYYC 220600Z 32014KT 15SM -RA FEW015 OVC038 08/06 A2970 RMK CF1SC7 SLP073

CYYC;2008-09-22 07:00;CYYC 220700Z 34012KT 15SM -RA FEW015 OVC060 07/06 A2970 RMK CF1SC7 SLP073

CYYC;2008-09-22 08:00;CYYC 220800Z 32015KT 15SM -RA BKN050 OVC070 07/05 A2970 RMK SC4AC3 SLP073

CYYC;2008-09-22 09:00;CYYC 220900Z 31010G16KT 15SM BKN075 OVC100 07/06 A2970 RMK AC4AC3 SLP074

CYYC;2008-09-22 10:00;CYYC 221000Z 32016KT 15SM FEW015 BKN080 OVC250 07/05 A2971 RMK CF1AC6CI0 SLP075

CYYC;2008-09-22 11:00;CYYC 221100Z 32012G17KT 15SM FEW015 BKN085 OVC250 07/05 A2972 RMK CF1AC6CI0 SLP078

CYYC;2008-09-22 12:00;CYYC 221200Z 33012KT 15SM OVC097 07/05 A2972 RMK AC7 SLP084

CYYC;2008-09-22 13:00;CYYC 221300Z 34011G17KT 15SM OVC095 07/04 A2973 RMK AC6 SLP086

CYYC;2008-09-22 14:00;CYYC 221400Z 31010KT 20SM FEW088 OVC120 07/04 A2974 RMK AC2AC6 SLP090

CYYC;2008-09-22 15:00;CYYC 221500Z 32012KT 20SM FEW053 BKN120 BKN230 08/04 A2976 RMK SC2AC4CI0 SLP095

CYYC;2008-09-22 16:00;CYYC 221600Z 32013G20KT 25SM OVC055 09/03 A2977 RMK SC7 SLP098

CYYC;2008-09-22 17:00;CYYC 221700Z 32013KT 25SM BKN060 BKN130 10/03 A2978 RMK SC6AC1 SLP101

CYYC;2008-09-22 18:00;CYYC 221800Z 33010G15KT 30SM FEW030 BKN051 BKN085 OVC240 11/03 A2978 RMK CU1SC6AC2CI0 SLP102

CYYC;2008-09-22 19:00;CYYC 221900Z CCA 34006KT 30SM FEW030 BKN050 BKN085 BKN240 12/03 A2978 RMK CU1SC6AC2CI1 CU+CI TR SLP103

CYYC;2008-09-22 20:00;CYYC 222000Z 01004KT 30SM FEW030 BKN050 OVC110 12/04 A2978 RMK CU1SC6AC1 SLP103

CYYC;2008-09-22 21:00;CYYC 222100Z 20004KT 30SM FEW030 BKN055 BKN110 OVC240 12/03 A2979 RMK CU1SC5AC2CI1 CU TR SLP104

CYYC;2008-09-22 22:00;CYYC 222200Z 15005KT 30SM FEW035 BKN060 BKN150 OVC240 13/04 A2978 RMK CU2SC3AC2CI1 SLP102

CYYC;2008-09-22 23:00;CYYC 222300Z 19007KT 30SM FEW035 FEW042CB BKN130 BKN240 13/05 A2979 RMK CU2CB1AC2CI0 SH+CB W SLP106

CYYC;2008-09-23 00:00;CYYC 230000Z 18005KT 30SM FEW040CB SCT060 BKN130 BKN240 12/05 A2981 RMK CB1SC2AC3CI0 HVY SH DIST W/ LTGIC W SLP111

CYYC;2008-09-23 01:00;CYYC 230100Z 32011KT 20SM -SHRA SCT037CB SCT060 OVC110 09/06 A2983 RMK CB3SC1AC3 LTGIC W SLP118

CYYC;2008-09-23 02:00;CYYC 230200Z CCA 07005KT 30SM SCT035 OVC080 08/06 A2984 RMK SC3AC4 SH NE / VIRGA S-SW SLP120

CYYC;2008-09-23 03:00;CYYC 230300Z 35007KT 15SM FEW020 OVC060 08/06 A2987 RMK CF1SC8 SLP137

CYYC;2008-09-23 03:23;CYYC 230323Z 01013G18KT 15SM -SHRA SCT030 OVC060 08/ RMK SC3SC5

CYYC;2008-09-23 04:00;CYYC 230400Z 36013G18KT 15SM -RA SCT010 BKN030 OVC090 07/06 A2990 RMK SC2SC5AC1 SLP146

CYYC;2008-09-23 05:00;CYYC 230500Z 36012G18KT 15SM -RA SCT040 BKN060 OVC090 06/05 A2991 RMK SC2SC3AC2 SLP151

CYYC;2008-09-23 06:00;CYYC 230600Z 03010KT 3SM -RA SCT015 OVC030 05/05 A2994 RMK SC3SC5 SLP162

CYYC;2008-09-23 07:00;CYYC 230700Z 36002KT 5SM -RA BR OVC020 05/05 A2996 RMK SC8 SLP168

CYYC;2008-09-23 08:00;CYYC 230800Z 25006KT 8SM -RA SCT020 BKN040 OVC060 05/05 A2997 RMK SC3SC3SC2 SLP171

CYYC;2008-09-23 09:00;CYYC 230900Z 32009KT 15SM -RA OVC030 05/04 A3000 RMK SC8 SLP180

CYYC;2008-09-23 10:00;CYYC 231000Z 28005KT 15SM -RA FEW030 BKN090 BKN120 05/03 A3001 RMK SC2AC3AC1 SLP183

CYYC;2008-09-23 11:00;CYYC 231100Z 26004KT 15SM FEW030 BKN090 04/02 A3003 RMK SC2AC4 SLP189

CYYC;2008-09-23 12:00;CYYC 231200Z 28007KT 15SM OVC075 04/01 A3003 RMK AC7 /R10/ SLP193

CYYC;2008-09-23 13:00;CYYC 231300Z 25004KT 15SM OVC060 05/02 A3004 RMK SC7 SLP195

CYYC;2008-09-23 14:00;CYYC 231400Z 22005KT 30SM BKN056 OVC075 04/02 A3006 RMK SC5AC2 SLP202

CYYC;2008-09-23 15:00;CYYC 231500Z 25004KT 30SM FEW063 OVC075 05/02 A3008 RMK SC2AC5 SLP215

CYYC;2008-09-23 16:00;CYYC 231600Z 23004KT 30SM SCT063 OVC089 05/02 A3009 RMK SC3AC4 SLP219

CYYC;2008-09-23 17:00;CYYC 231700Z 23007KT 30SM SCT072 BKN087 06/03 A3010 RMK AC3AC3 SLP222

CYYC;2008-09-23 18:00;CYYC 231800Z 23008KT 40SM FEW050TCU SCT071 BKN084 07/01 A3010 RMK TCU1AC2AC2 SLP222

CYYC;2008-09-23 19:00;CYYC 231900Z 21011KT 40SM FEW050TCU SCT067 BKN089 08/M01 A3009 RMK TCU1AC3AC3 SLP219

CYYC;2008-09-23 20:00;CYYC 232000Z 19007KT 40SM FEW050TCU SCT075 BKN087 10/M02 A3008 RMK TCU1AC2AC2 SH SE-SW + NE SLP216

CYYC;2008-09-23 21:00;CYYC 232100Z 27011KT 40SM FEW050 SCT071 SCT086 BKN210 11/M05 A3007 RMK CU1AC2AC1CI0 SH SE SLP206

CYYC;2008-09-23 22:00;CYYC 232200Z 27010G18KT 40SM SCT086 11/M05 A3007 RMK AC3 SLP207

CYYC;2008-09-23 23:00;CYYC 232300Z 27013G20KT 40SM FEW087 11/M06 A3007 RMK AC2 SLP208

CYYC;2008-09-24 00:00;CYYC 240000Z 26011KT 30SM FEW088 11/M07 A3008 RMK AC1 SLP212

CYYC;2008-09-24 01:00;CYYC 240100Z 26010KT 20SM FEW088 FEW220 09/M06 A3008 RMK AC1CI1 SLP213

CYYC;2008-09-24 02:00;CYYC 240200Z 25006KT 20SM FEW070 FEW220 08/M06 A3009 RMK AC1CI1 BOTH CLDS TR SLP216

CYYC;2008-09-24 03:00;CYYC 240300Z 27008KT 15SM FEW070 FEW220 07/M06 A3010 RMK AC1CI1 BOTH CLDS TR SLP226

CYYC;2008-09-24 04:00;CYYC 240400Z 26006KT 15SM SKC 06/M06 A3011 RMK SLP227

CYYC;2008-09-24 05:00;CYYC 240500Z 26007KT 15SM SKC 05/M06 A3011 RMK SLP228

CYYC;2008-09-24 06:00;CYYC 240600Z 18003KT 15SM SKC 05/M06 A3012 RMK SLP229

CYYC;2008-09-24 07:00;CYYC 240700Z 27006KT 15SM SKC 04/M06 A3011 RMK SLP228

CYYC;2008-09-24 08:00;CYYC 240800Z 00000KT 15SM SKC 03/M05 A3011 RMK SLP226

CYYC;2008-09-24 09:00;CYYC 240900Z 18004KT 15SM SKC 01/M04 A3011 RMK SLP227

CYYC;2008-09-24 10:00;CYYC 241000Z 20004KT 15SM BKN210 01/M04 A3010 RMK CI2 SLP223

CYYC;2008-09-24 11:00;CYYC 241100Z 22004KT 15SM BKN220 00/M03 A3009 RMK CI2 SLP220

CYYC;2008-09-24 12:00;CYYC 241200Z 00000KT 15SM FEW090 BKN200 M01/M04 A3008 RMK AC1CI3 SLP221

CYYC;2008-09-24 13:00;CYYC 241300Z 00000KT 20SM SCT100 BKN160 BKN240 M00/M03 A3008 RMK AC2AC2CI0 SLP221

CYYC;2008-09-24 14:00;CYYC 241400Z 20002KT 40SM BKN100 BKN220 01/M03 A3007 RMK AC6CI1 SLP217

CYYC;2008-09-24 15:00;CYYC 241500Z 00000KT 40SM BKN090 BKN120 03/M01 A3006 RMK AC5AC2 SLP212

CYYC;2008-09-24 16:00;CYYC 241600Z 00000KT 40SM BKN075 OVC090 04/M01 A3005 RMK AC5AC2 SLP209

CYYC;2008-09-24 17:00;CYYC 241700Z 20005KT 40SM SCT075 BKN090 06/M01 A3003 RMK AC4AC2 SLP205

CYYC;2008-09-24 18:00;CYYC 241800Z 18005KT 40SM SCT070 BKN090 08/M02 A3002 RMK AC4AC2 SLP192

CYYC;2008-09-24 19:00;CYYC 241900Z 16010KT 40SM FEW090 BKN110 09/M02 A3000 RMK AC2AC4 SLP186

CYYC;2008-09-24 20:00;CYYC 242000Z 16008KT 40SM SCT120 BKN170 BKN220 09/M02 A2997 RMK AC3AC2CI1 SLP177

CYYC;2008-09-24 21:00;CYYC 242100Z 17007KT 40SM SCT120 BKN170 OVC220 09/M01 A2995 RMK AC4AC2CI1 SLP173

CYYC;2008-09-24 22:00;CYYC 242200Z 14005KT 40SM SCT140 BKN170 BKN200 10/00 A2993 RMK AC3AC2CI1 SLP167

CYYC;2008-09-24 23:00;CYYC 242300Z 18006KT 40SM SCT130 BKN170 OVC200 10/01 A2991 RMK AC3AC2CI1 SLP161

CYYC;2008-09-25 00:00;CYYC 250000Z 15007KT 40SM FEW130 BKN150 BKN220 10/02 A2988 RMK AC2AC2CI1 SLP152

CYYC;2008-09-25 01:00;CYYC 250100Z 18004KT 30SM FEW130 BKN240 09/03 A2983 RMK AC2CI1 SLP134

CYYC;2008-09-25 02:00;CYYC 250200Z 16003KT 15SM FEW110 BKN140 OVC220 07/03 A2986 RMK AC2AC4CI1 SLP145

CYYC;2008-09-25 03:00;CYYC 250300Z 12003KT 15SM FEW110 BKN140 OVC210 08/03 A2985 RMK AC2AC5CI1 SLP138

CYYC;2008-09-25 04:00;CYYC 250400Z 18002KT 15SM FEW120 BKN170 OVC230 07/03 A2983 RMK AC2AC3CI2 SLP132

CYYC;2008-09-25 05:00;CYYC 250500Z 00000KT 15SM FEW130 BKN170 OVC230 07/04 A2981 RMK AC2AC5CI1 SLP126

CYYC;2008-09-25 06:00;CYYC 250600Z 00000KT 15SM FEW090 BKN160 OVC240 06/04 A2980 RMK AC1AC6CI1 SLP115

CYYC;2008-09-25 07:00;CYYC 250700Z 29003KT 15SM FEW120 BKN180 BKN240 06/03 A2979 RMK AC2AC4CI1 SLP113

CYYC;2008-09-25 08:00;CYYC 250800Z 12004KT 15SM FEW120 SCT180 BKN240 07/03 A2979 RMK AC2AC2CI2 SLP112

CYYC;2008-09-25 09:00;CYYC 250900Z 31002KT 15SM FEW120 SCT180 BKN250 06/03 A2980 RMK AC1AC1CI2 SLP114

CYYC;2008-09-25 10:00;CYYC 251000Z 21008KT 15SM SKC 05/02 A2979 RMK SLP111

CYYC;2008-09-25 11:00;CYYC 251100Z 21006KT 15SM SKC 04/01 A2980 RMK SLP115

CYYC;2008-09-25 12:00;CYYC 251200Z 00000KT 15SM FEW140 FEW230 06/02 A2981 RMK AC1CI1 SLP117

CYYC;2008-09-25 13:00;CYYC 251300Z 00000KT 15SM FEW100 SCT240 04/01 A2983 RMK AC1CI2 ACSL S SLP122

CYYC;2008-09-25 14:00;CYYC 251400Z 22004KT 30SM FEW016 FEW100 05/01 A2984 RMK CU1AC2 SLP126

CYYC;2008-09-25 15:00;CYYC 251500Z 22004KT 40SM FEW040 FEW110 13/03 A2986 RMK CU1AC2 SLP126

CYYC;2008-09-25 16:00;CYYC 251600Z 26007KT 40SM FEW048 FEW110 15/03 A2986 RMK CU1AC1 SLP127

CYYC;2008-09-25 17:00;CYYC 251700Z 01009KT 40SM FEW032 FEW110 13/05 A2989 RMK CU1AC1 SLP136

CYYC;2008-09-25 18:00;CYYC 251800Z 03009KT 40SM FEW032 FEW110 13/04 A2990 RMK CU1AC1 SLP143

CYYC;2008-09-25 19:00;CYYC 251900Z 02005KT 40SM FEW036 FEW110 14/05 A2990 RMK CU1AC1 SLP143

CYYC;2008-09-25 20:00;CYYC 252000Z 07006KT 30SM FEW040 15/05 A2990 RMK CU1 SLP143

CYYC;2008-09-25 21:00;CYYC 252100Z 04007KT 30SM FEW090 16/06 A2990 RMK CU2 SLP140

CYYC;2008-09-25 22:00;CYYC 252200Z 07008KT 30SM FEW080 SCT110 15/05 A2990 RMK CU2AC1 SLP141

CYYC;2008-09-25 23:00;CYYC 252300Z 08011KT 25SM SCT090 SCT110 15/04 A2991 RMK CU3AC1 TCU SW-W-NW/ DIST SH SW-W-NW SLP143

CYYC;2008-09-26 00:00;CYYC 260000Z 01006KT 25SM BKN085 14/04 A2994 RMK CU5 SH ALQDS/CB EMBD SLP156

CYYC;2008-09-26 00:35;CYYC 260035Z CCA 02005KT 25SM -SHRA BKN050 BKN120 13/ RMK SC5AC2 CVC CLD EMBD

CYYC;2008-09-26 01:00;CYYC 260100Z 05005KT 10SM -SHRA BKN050 11/06 A2998 RMK SC7 CVC CLD EMBD SLP170

CYYC;2008-09-26 02:00;CYYC 260200Z 09013KT 15SM -SHRA BKN073 OVC110 10/07 A2997 RMK AC6AC2 SHRA VRY LGT SLP167

CYYC;2008-09-26 02:25;CYYC 260225Z 07007KT 15SM SCT077 OVC100 10/ RMK AC4AC3

CYYC;2008-09-26 03:00;CYYC 260300Z 35006KT 15SM SCT077 BKN110 08/06 A3000 RMK AC3AC2 SLP175

CYYC;2008-09-26 04:00;CYYC 260400Z 33005KT 15SM SCT062 BKN150 BKN210 07/06 A3001 RMK SC3AC2CI1 SLP179

CYYC;2008-09-26 05:00;CYYC 260500Z 35005KT 15SM FEW070 SCT110 BKN230 07/04 A3003 RMK AC2AC2CI1 SLP183

CYYC;2008-09-26 06:00;CYYC 260600Z 33006KT 15SM BKN059 OVC110 07/04 A3004 RMK SC6AC2 SLP193

CYYC;2008-09-26 07:00;CYYC 260700Z 32004KT 15SM FEW060 BKN085 06/04 A3006 RMK SC2AC6 SLP198

CYYC;2008-09-26 08:00;CYYC 260800Z 35004KT 15SM FEW060 OVC090 06/04 A3007 RMK SC2AC6 SLP201

CYYC;2008-09-26 09:00;CYYC 260900Z 34005KT 15SM SCT050 BKN070 OVC140 05/04 A3008 RMK SC3AC3AC1 SLP203

CYYC;2008-09-26 10:00;CYYC 261000Z 34004KT 15SM FEW060 BKN086 05/03 A3009 RMK SC2AC2 SLP206

CYYC;2008-09-26 11:00;CYYC 261100Z 00000KT 15SM SCT062 BKN086 04/04 A3010 RMK SC2AC2 SLP209

CYYC;2008-09-26 12:00;CYYC 261200Z 34003KT 15SM SCT058 BKN086 04/03 A3012 RMK SC3AC2 SLP221

CYYC;2008-09-26 13:00;CYYC 261300Z 31002KT 15SM SCT061 BKN090 04/03 A3014 RMK SC3AC2 SLP228

CYYC;2008-09-26 14:00;CYYC 261400Z 00000KT 30SM BKN058 BKN140 04/03 A3016 RMK SC7AC1 SLP234

CYYC;2008-09-26 15:00;CYYC 261500Z 00000KT 30SM BKN052 05/04 A3017 RMK SC7 SLP244

CYYC;2008-09-26 16:00;CYYC 261600Z 00000KT 40SM FEW058 FEW072 06/04 A3017 RMK SC2AC1 SLP246

CYYC;2008-09-26 17:00;CYYC 261700Z 18004KT 40SM FEW058 FEW072 FEW240 08/06 A3018 RMK SC1AC1CI1 SLP248

CYYC;2008-09-26 18:00;CYYC 261800Z 16006KT 30SM FEW020 FEW070 FEW170 FEW240 10/06 A3018 RMK CU1AC1AC1CI1 SLP243

CYYC;2008-09-26 19:00;CYYC 261900Z 15009KT 30SM FEW024 FEW090 FEW170 FEW240 12/06 A3017 RMK CU1AC1AC1CI1 SLP241

CYYC;2008-09-26 20:00;CYYC 262000Z 14009KT 40SM FEW036 FEW260 14/06 A3014 RMK CU1CI0 SLP232

CYYC;2008-09-26 21:00;CYYC 262100Z 16010G15KT 40SM FEW040 FEW190 FEW260 15/04 A3014 RMK CU1AC1CI0 SLP224

CYYC;2008-09-26 22:00;CYYC 262200Z 16012KT 40SM FEW045 OVC220 15/04 A3012 RMK CU1CI2 SLP219

CYYC;2008-09-26 23:00;CYYC 262300Z 14011KT 40SM FEW050 BKN180 OVC240 14/04 A3011 RMK CU1AC5CI0 SLP215

CYYC;2008-09-27 00:00;CYYC 270000Z 13009G15KT 40SM FEW050 OVC150 14/04 A3009 RMK SC1AC7 SLP213

CYYC;2008-09-27 01:00;CYYC 270100Z 14011KT 40SM OVC150 13/05 A3009 RMK AC8 SLP213

CYYC;2008-09-27 02:00;CYYC 270200Z 14010KT 15SM FEW090 BKN180 OVC220 12/05 A3008 RMK AC2AC4CI2 SLP209

CYYC;2008-09-27 03:00;CYYC 270300Z 15008KT 15SM FEW090 BKN190 OVC240 10/05 A3007 RMK AC2AC5CI1 SLP210

CYYC;2008-09-27 04:00;CYYC 270400Z 16008KT 15SM FEW100 BKN180 OVC220 10/05 A3006 RMK AC2AC2CI2 SLP207

CYYC;2008-09-27 05:00;CYYC 270500Z 17008KT 15SM FEW180 SCT240 08/05 A3004 RMK AC1CI0 SLP200

CYYC;2008-09-27 06:00;CYYC 270600Z 17006KT 15SM FEW180 FEW240 06/04 A3002 RMK AC1CI0 SLP190

CYYC;2008-09-27 07:00;CYYC 270700Z 18007KT 15SM FEW180 FEW240 06/05 A3000 RMK AC1CI0 SLP182

CYYC;2008-09-27 08:00;CYYC 270800Z 20004KT 15SM FEW180 BKN220 06/05 A2998 RMK AC2CI2 SLP177

CYYC;2008-09-27 09:00;CYYC 270900Z 19004KT 15SM SCT190 BKN220 06/05 A2996 RMK AC2CI2 SLP163

CYYC;2008-09-27 10:00;CYYC 271000Z 20004KT 15SM SCT190 BKN220 06/04 A2994 RMK AC2CI2 SLP156

CYYC;2008-09-27 11:00;CYYC 271100Z 17004KT 15SM FEW090 BKN140 OVC220 06/04 A2991 RMK AC2AC3CI2 SLP147

CYYC;2008-09-27 12:00;CYYC 271200Z 20003KT 15SM FEW090 BKN180 OVC220 06/03 A2991 RMK AC1AC5CI2 SLP145

CYYC;2008-09-27 13:00;CYYC 271300Z 21006KT 15SM FEW090 BKN180 OVC230 06/03 A2989 RMK AC1AC5CI2 SLP139

CYYC;2008-09-27 14:00;CYYC 271400Z CCA 26002KT 30SM FEW012 FEW180 06/02 A2989 RMK CU1AC2 CU TR SLP139

CYYC;2008-09-27 15:00;CYYC 271500Z 20002KT 40SM FEW016 FEW180 07/03 A2988 RMK CU1AC1 CU TR SLP141

CYYC;2008-09-27 16:00;CYYC 271600Z 22004KT 40SM FEW036 FEW180 12/03 A2989 RMK CU1AC1 CU TR SLP143

CYYC;2008-09-27 17:00;CYYC 271700Z 25006KT 40SM FEW060 FEW180 BKN240 16/01 A2989 RMK CU1AC2CI2 SLP143

CYYC;2008-09-27 18:00;CYYC 271800Z 27009G15KT 40SM FEW064 SCT170 BKN220 16/00 A2988 RMK CU1AC2CI2 SLP134

CYYC;2008-09-27 19:00;CYYC 271900Z 28013G20KT 40SM FEW072 SCT180 BKN220 18/M00 A2989 RMK CU1AC2CI2 SLP135

CYYC;2008-09-27 20:00;CYYC 272000Z 26013G19KT 40SM FEW080 FEW180 BKN240 17/M02 A2990 RMK CU1AC2CI2 SLP139

CYYC;2008-09-27 21:00;CYYC 272100Z 28020KT 40SM FEW084 SCT180 BKN220 19/M02 A2990 RMK CU1AC3CI0 SLP136

CYYC;2008-09-27 22:00;CYYC 272200Z 31018G25KT 40SM FEW084 SCT180 SCT220 18/M02 A2995 RMK CU1AC2CI0 SLP150

CYYC;2008-09-27 23:00;CYYC 272300Z 36015G21KT 40SM FEW090 FEW180 14/03 A2998 RMK CU1AC1 CU TR SLP161

CYYC;2008-09-28 00:00;CYYC 280000Z 02018G24KT 40SM FEW080 FEW180 12/04 A3002 RMK CU1AC2 SLP187

CYYC;2008-09-28 01:00;CYYC 280100Z 01012KT 30SM FEW024 FEW160 10/04 A3005 RMK CU1AC2 SLP195

CYYC;2008-09-28 02:00;CYYC 280200Z 01007KT 30SM FEW028 FEW160 FEW260 07/03 A3008 RMK CU1AC1CI0 SLP204

CYYC;2008-09-28 03:00;CYYC 280300Z 33008KT 15SM SCT240 07/03 A3010 RMK CI1 SLP219

CYYC;2008-09-28 04:00;CYYC 280400Z 21005KT 15SM FEW160 BKN240 08/03 A3012 RMK AC2CI1 SLP226

CYYC;2008-09-28 05:00;CYYC 280500Z 25008KT 15SM FEW096 BKN220 07/04 A3014 RMK AC1CI4 SLP232

CYYC;2008-09-28 06:00;CYYC 280600Z 24006KT 15SM FEW091 BKN210 07/03 A3016 RMK AC1CI5 SLP228

CYYC;2008-09-28 07:00;CYYC 280700Z 23006KT 15SM FEW089 OVC220 07/04 A3017 RMK AC1CI5 SLP231

CYYC;2008-09-28 08:00;CYYC 280800Z 35006KT 15SM FEW089 OVC220 07/04 A3019 RMK AC1CI5 SLP238

CYYC;2008-09-28 09:00;CYYC 280900Z 36003KT 15SM FEW089 OVC160 05/04 A3023 RMK AC1AC6 SLP250

CYYC;2008-09-28 10:00;CYYC 281000Z 36005KT 15SM FEW082 BKN170 03/02 A3023 RMK AC1AC4 SLP252

CYYC;2008-09-28 11:00;CYYC 281100Z 34003KT 15SM FEW240 03/02 A3025 RMK CI0 SLP257

CYYC;2008-09-28 12:00;CYYC 281200Z 00000KT 15SM SKC 02/01 A3026 RMK SLP278

CYYC;2008-09-28 13:00;CYYC 281300Z 00000KT 20SM FEW092 01/00 A3028 RMK AC1 SLP283

CYYC;2008-09-28 14:00;CYYC 281400Z 18004KT 30SM FEW250 01/M00 A3029 RMK CI1 SLP286

CYYC;2008-09-28 15:00;CYYC 281500Z 19003KT 40SM FEW260 03/01 A3029 RMK CI1 SLP292

CYYC;2008-09-28 16:00;CYYC 281600Z 00000KT 40SM FEW250 08/04 A3030 RMK CI1 SLP295

CYYC;2008-09-28 17:00;CYYC 281700Z 13008KT 40SM FEW250 11/03 A3031 RMK CI1 SLP297

CYYC;2008-09-28 18:00;CYYC 281800Z 15011KT 40SM FEW250 12/02 A3030 RMK CI1 SLP282

CYYC;2008-09-28 19:00;CYYC 281900Z 18010KT 40SM FEW240 14/03 A3028 RMK CI0 SLP277

CYYC;2008-09-28 20:00;CYYC 282000Z 19008KT 40SM FEW250 15/04 A3026 RMK CI1 SLP271

CYYC;2008-09-28 21:00;CYYC 282100Z 21007KT 40SM FEW260 16/01 A3026 RMK CI1 SLP264

CYYC;2008-09-28 22:00;CYYC 282200Z 13003KT 40SM FEW250 17/01 A3025 RMK CI0 SLP262

CYYC;2008-09-28 23:00;CYYC 282300Z 18004KT 40SM FEW260 17/01 A3024 RMK CI0 SLP259

CYYC;2008-09-29 00:00;CYYC 290000Z 17006KT 40SM FEW250 16/02 A3024 RMK CI0 SLP262

CYYC;2008-09-29 01:00;CYYC 290100Z 15008KT 40SM FEW220 BKN260 14/02 A3024 RMK CI1CI0 SLP264

CYYC;2008-09-29 02:00;CYYC 290200Z 16006KT 15SM FEW220 FEW260 10/02 A3025 RMK CI1CI0 SLP265

CYYC;2008-09-29 03:00;CYYC 290300Z 21004KT 15SM SKC 12/02 A3025 RMK SLP272

CYYC;2008-09-29 04:00;CYYC 290400Z 18004KT 15SM SKC 11/02 A3026 RMK SLP274

CYYC;2008-09-29 05:00;CYYC 290500Z 21005KT 15SM SKC 10/02 A3026 RMK SLP274

CYYC;2008-09-29 06:00;CYYC 290600Z 18004KT 15SM SKC 08/02 A3026 RMK SLP267

CYYC;2008-09-29 07:00;CYYC 290700Z 21004KT 15SM SKC 08/03 A3026 RMK SLP268

CYYC;2008-09-29 08:00;CYYC 290800Z 25002KT 15SM SKC 06/03 A3026 RMK SLP266

CYYC;2008-09-29 09:00;CYYC 290900Z 19004KT 15SM SKC 06/02 A3025 RMK SLP262

CYYC;2008-09-29 10:00;CYYC 291000Z 20006KT 15SM SKC 06/02 A3024 RMK SLP259

CYYC;2008-09-29 11:00;CYYC 291100Z 20004KT 15SM SKC 05/01 A3024 RMK SLP259

CYYC;2008-09-29 12:00;CYYC 291200Z 21004KT 15SM SKC 06/01 A3024 RMK SLP259

CYYC;2008-09-29 13:00;CYYC 291300Z 22003KT 15SM SKC 05/01 A3024 RMK SLP257

CYYC;2008-09-29 14:00;CYYC 291400Z 19005KT 40SM FEW140 07/01 A3024 RMK AC1 AC TR SLP258

CYYC;2008-09-29 15:00;CYYC 291500Z 18002KT 40SM FEW140 11/04 A3025 RMK AC1 AC TR SLP260

CYYC;2008-09-29 16:00;CYYC 291600Z 22004KT 40SM FEW140 15/03 A3025 RMK AC1 AC TR SLP259

CYYC;2008-09-29 17:00;CYYC 291700Z 21005KT 40SM SKC 18/06 A3023 RMK SLP255

CYYC;2008-09-29 18:00;CYYC 291800Z 20004KT 40SM SKC 20/05 A3023 RMK SLP245

CYYC;2008-09-29 19:00;CYYC 291900Z 15004KT 40SM SKC 21/05 A3022 RMK SLP242

CYYC;2008-09-29 20:00;CYYC 292000Z 13006KT 40SM SKC 23/05 A3021 RMK SLP241

CYYC;2008-09-29 21:00;CYYC 292100Z 14007KT 40SM SKC 24/07 A3019 RMK SLP229

CYYC;2008-09-29 22:00;CYYC 292200Z 18008KT 40SM FEW045 24/07 A3018 RMK CU1 CU TR SLP225

CYYC;2008-09-29 23:00;CYYC 292300Z 16009KT 40SM FEW050 24/06 A3016 RMK CU1 CU TR SLP221

CYYC;2008-09-30 00:00;CYYC 300000Z 18009KT 40SM FEW050 22/07 A3016 RMK CU1 CU TR SLP223

CYYC;2008-09-30 01:00;CYYC 300100Z 16008KT 40SM SKC 20/07 A3017 RMK SLP224

CYYC;2008-09-30 02:00;CYYC 300200Z 14007KT 15SM SKC 17/06 A3018 RMK SLP228

CYYC;2008-09-30 03:00;CYYC 300300Z 17009KT 15SM SKC 17/06 A3019 RMK SLP231

CYYC;2008-09-30 04:00;CYYC 300400Z 00000KT 15SM SKC 15/06 A3019 RMK SLP233

CYYC;2008-09-30 05:00;CYYC 300500Z 17004KT 15SM SKC 14/05 A3020 RMK SLP234

CYYC;2008-09-30 06:00;CYYC 300600Z 21005KT 15SM SKC 13/06 A3020 RMK SLP228

CYYC;2008-09-30 07:00;CYYC 300700Z 29002KT 15SM SKC 10/05 A3021 RMK SLP231

CYYC;2008-09-30 08:00;CYYC 300800Z 24002KT 15SM SKC 08/05 A3021 RMK SLP231

CYYC;2008-09-30 09:00;CYYC 300900Z 35002KT 15SM SKC 09/04 A3021 RMK SLP234

CYYC;2008-09-30 10:00;CYYC 301000Z 09002KT 15SM SKC 07/04 A3022 RMK SLP237

CYYC;2008-09-30 11:00;CYYC 301100Z 21004KT 15SM SKC 07/04 A3023 RMK SLP238

CYYC;2008-09-30 12:00;CYYC 301200Z 26002KT 15SM SKC 07/04 A3024 RMK SLP247

CYYC;2008-09-30 13:00;CYYC 301300Z 00000KT 15SM SKC 07/03 A3024 RMK SLP247

CYYC;2008-09-30 14:00;CYYC 301400Z CCA 32006KT 40SM SKC 08/03 A3024 RMK SLP248

CYYC;2008-09-30 15:00;CYYC 301500Z 33003KT 40SM SKC 10/04 A3025 RMK SLP254

CYYC;2008-09-30 16:00;CYYC 301600Z 00000KT 40SM SKC 13/05 A3025 RMK SLP254

CYYC;2008-09-30 17:00;CYYC 301700Z 07002KT 40SM SKC 18/07 A3025 RMK SLP255

CYYC;2008-09-30 18:00;CYYC 301800Z 13002KT 40SM SKC 19/07 A3024 RMK SLP244

CYYC;2008-09-30 19:00;CYYC 301900Z 11005KT 40SM SKC 21/06 A3023 RMK SLP239

CYYC;2008-09-30 20:00;CYYC 302000Z 12004KT 40SM SKC 22/06 A3021 RMK SLP235

CYYC;2008-09-30 21:00;CYYC 302100Z 13007KT 40SM SKC 24/08 A3020 RMK SLP228

CYYC;2008-09-30 22:00;CYYC 302200Z 15008KT 40SM SKC 24/06 A3019 RMK SLP226

CYYC;2008-09-30 23:00;CYYC 302300Z 14007KT 30SM SKC 24/06 A3018 RMK SLP224

CYYC;2008-10-01 01:00;CYYC 010100Z 14008KT 40SM SKC 20/07 A3017 RMK SLP222

CYYC;2008-10-01 02:00;CYYC 010200Z 14009KT 40SM SKC 17/08 A3017 RMK SLP224

CYYC;2008-10-01 03:00;CYYC 010300Z 15009KT 15SM SKC 16/07 A3017 RMK SLP230

CYYC;2008-10-01 04:00;CYYC 010400Z 16006KT 15SM SKC 14/07 A3017 RMK SLP229

CYYC;2008-10-01 05:00;CYYC 010500Z 15006KT 15SM SKC 12/07 A3016 RMK SLP225

CYYC;2008-10-01 06:00;CYYC 010600Z 16004KT 15SM SKC 11/07 A3015 RMK SLP216

CYYC;2008-10-01 07:00;CYYC 010700Z 20005KT 15SM SKC 11/07 A3014 RMK SLP213

CYYC;2008-10-01 08:00;CYYC 010800Z 34005KT 15SM SKC 09/06 A3014 RMK SLP211

CYYC;2008-10-01 09:00;CYYC 010900Z 19002KT 15SM SKC 07/05 A3014 RMK SLP210

CYYC;2008-10-01 10:00;CYYC 011000Z 20005KT 15SM SKC 06/04 A3013 RMK SLP207

CYYC;2008-10-01 11:00;CYYC 011100Z 19003KT 15SM SKC 08/04 A3012 RMK SLP206

CYYC;2008-10-01 12:00;CYYC 011200Z 00000KT 15SM SKC 08/03 A3011 RMK SLP202

CYYC;2008-10-01 13:00;CYYC 011300Z 14002KT 15SM SKC 09/04 A3011 RMK SLP202

CYYC;2008-10-01 14:00;CYYC 011400Z 15002KT 30SM FEW100 09/03 A3011 RMK AC1 SLP202

CYYC;2008-10-01 15:00;CYYC 011500Z 17002KT 40SM FEW100 11/06 A3012 RMK AC1 SLP208

CYYC;2008-10-01 16:00;CYYC 011600Z 12003KT 40SM FEW080 16/07 A3012 RMK AC1 SLP209

CYYC;2008-10-01 17:00;CYYC 011700Z 19002KT 40SM FEW160 19/08 A3011 RMK AC1 SLP206

CYYC;2008-10-01 18:00;CYYC 011800Z 00000KT 40SM SKC 23/05 A3010 RMK SLP191

CYYC;2008-10-01 19:00;CYYC 011900Z 22003KT 40SM FEW160 25/04 A3008 RMK AC1 SLP185

CYYC;2008-10-01 20:00;CYYC 012000Z 19003KT 40SM FEW230 25/05 A3007 RMK CI1 SLP182

CYYC;2008-10-01 21:00;CYYC 012100Z 11004KT 40SM FEW088 26/03 A3005 RMK CU1 SLP176

CYYC;2008-10-01 22:00;CYYC 012200Z 11004KT 40SM FEW080 FEW250 27/02 A3004 RMK CU1CI1 SLP172

CYYC;2008-10-01 23:00;CYYC 012300Z 11002KT 40SM FEW080 FEW180 27/02 A3003 RMK CU1AC1 SLP169

CYYC;2008-10-02 00:00;CYYC 020000Z 11005KT 40SM FEW078 FEW220 26/02 A3002 RMK CU1CI1 SLP164

CYYC;2008-10-02 01:00;CYYC 020100Z 14006KT 40SM FEW080 FEW240 24/02 A3001 RMK CU1CI1 SLP163

CYYC;2008-10-02 02:00;CYYC 020200Z 10005KT 15SM FEW080 19/03 A3001 RMK CU1 CU TR SLP162

CYYC;2008-10-02 03:00;CYYC 020300Z 15003KT 15SM FEW100 18/03 A3001 RMK AC1 SLP168

CYYC;2008-10-02 04:00;CYYC 020400Z 21002KT 15SM SKC 16/02 A3001 RMK SLP167

CYYC;2008-10-02 05:00;CYYC 020500Z 00000KT 15SM SKC 11/05 A3000 RMK SLP164

CYYC;2008-10-02 06:00;CYYC 020600Z 36005KT 15SM SKC 09/04 A2999 RMK SLP155

CYYC;2008-10-02 07:00;CYYC 020700Z 30002KT 15SM SKC 10/04 A2997 RMK SLP151

CYYC;2008-10-02 08:00;CYYC 020800Z 30003KT 15SM SKC 09/04 A2997 RMK SLP149

CYYC;2008-10-02 09:00;CYYC 020900Z 29002KT 15SM SKC 08/04 A2996 RMK SLP142

CYYC;2008-10-02 10:00;CYYC 021000Z 21003KT 15SM SKC 09/04 A2994 RMK SLP138

CYYC;2008-10-02 11:00;CYYC 021100Z 00000KT 15SM SKC 08/04 A2994 RMK SLP136

CYYC;2008-10-02 12:00;CYYC 021200Z 00000KT 15SM SKC 10/05 A2993 RMK SLP130

CYYC;2008-10-02 13:00;CYYC 021300Z 00000KT 15SM FEW120 FEW230 10/04 A2992 RMK AC1CI1 BOTH CLDS TR SLP127

CYYC;2008-10-02 14:00;CYYC 021400Z 00000KT 40SM FEW240 10/05 A2991 RMK CI0 SLP126

CYYC;2008-10-02 15:00;CYYC 021500Z 00000KT 40SM FEW240 13/07 A2990 RMK CI0 SLP129

CYYC;2008-10-02 16:00;CYYC 021600Z 00000KT 40SM SCT250 16/07 A2989 RMK CI0 SLP126

CYYC;2008-10-02 17:00;CYYC 021700Z 17003KT 40SM SCT250 19/08 A2988 RMK CI0 SLP123

CYYC;2008-10-02 18:00;CYYC 021800Z 15002KT 40SM FEW250 22/09 A2987 RMK CI0 SLP118

CYYC;2008-10-02 19:00;CYYC 021900Z 00000KT 40SM FEW060 SCT260 24/08 A2985 RMK CU1CI0 SLP112

CYYC;2008-10-02 20:00;CYYC 022000Z 00000KT 40SM FEW065 FEW260 25/07 A2984 RMK CU1CI0 SLP107

CYYC;2008-10-02 21:00;CYYC 022100Z 10005KT 30SM FEW065 SCT260 25/06 A2981 RMK CU1CI0 SLP093

CYYC;2008-10-02 22:00;CYYC 022200Z 13005KT 30SM FEW065 SCT260 25/06 A2978 RMK CU1CI0 SLP082

CYYC;2008-10-02 23:00;CYYC 022300Z 11008KT 30SM FEW070 FEW230 25/06 A2976 RMK CU1CI1 SLP078

CYYC;2008-10-03 00:00;CYYC 030000Z 12006KT 30SM FEW070 FEW210 SCT240 23/05 A2974 RMK CU1CI1CI1 SLP070

CYYC;2008-10-03 01:00;CYYC 030100Z 13006KT 30SM FEW170 FEW200 FEW240 20/06 A2973 RMK CU1CI1CI0 SLP066

CYYC;2008-10-03 02:00;CYYC 030200Z 16006KT 15SM FEW180 SCT220 18/06 A2972 RMK AC2CI1 SLP064

CYYC;2008-10-03 03:00;CYYC 030300Z 17005KT 15SM FEW220 FEW250 16/06 A2972 RMK CI1CI0 SLP066

CYYC;2008-10-03 04:00;CYYC 030400Z 16006KT 15SM FEW220 FEW250 14/07 A2970 RMK CI1CI0 SLP062

CYYC;2008-10-03 05:00;CYYC 030500Z 16006KT 15SM FEW250 12/07 A2969 RMK CI0 SLP057

CYYC;2008-10-03 06:00;CYYC 030600Z 19006KT 15SM FEW250 14/07 A2968 RMK CI0 SLP044

CYYC;2008-10-03 07:00;CYYC 030700Z 18005KT 15SM FEW240 13/07 A2966 RMK CI1 CI TR SLP039

CYYC;2008-10-03 08:00;CYYC 030800Z 20006KT 15SM FEW240 14/07 A2966 RMK CI1 CI TR SLP038

CYYC;2008-10-03 09:00;CYYC 030900Z 21007KT 15SM FEW240 13/07 A2966 RMK CI1 CI TR SLP033

CYYC;2008-10-03 10:00;CYYC 031000Z 22002KT 15SM FEW240 11/06 A2965 RMK CI1 CI TR SLP031

CYYC;2008-10-03 11:00;CYYC 031100Z 22002KT 15SM FEW240 09/06 A2965 RMK CI1 CI TR SLP032

CYYC;2008-10-03 12:00;CYYC 031200Z 18004KT 15SM BKN130 BKN240 09/06 A2965 RMK AC3CI1 SLP039

CYYC;2008-10-03 13:00;CYYC 031300Z 16003KT 15SM BKN130 BKN220 11/07 A2965 RMK AC5CI1 SLP039

CYYC;2008-10-03 14:00;CYYC 031400Z 21002KT 30SM BKN110 BKN220 11/08 A2966 RMK AC5CI1 SLP042

CYYC;2008-10-03 15:00;CYYC 031500Z CCA 36003KT 30SM BKN100 16/06 A2966 RMK AC7 VIRGA ALQDS / SENT VIA YBW SLP041

CYYC;2008-10-03 16:00;CYYC 031600Z 33007KT 30SM BKN100 OVC120 15/08 A2969 RMK AC6AC2 VIRGA ALQDS SLP051

CYYC;2008-10-03 16:26;CYYC 031626Z 31005KT 30SM -SHRA BKN090 OVC110 16/ RMK AC6AC2

CYYC;2008-10-03 17:00;CYYC 031700Z 34008KT 40SM FEW070 SCT090 BKN120 BKN200 18/08 A2970 RMK CU1AC2AC2CI1 SLP053

CYYC;2008-10-03 18:00;CYYC 031800Z 31009KT 40SM FEW044 SCT090 BKN140 BKN220 19/08 A2969 RMK CU1AC3AC2CI1 SLP051

CYYC;2008-10-03 19:00;CYYC 031900Z 02009KT 40SM FEW056 SCT150 BKN210 21/07 A2967 RMK CU1AC4CI0 SLP047

CYYC;2008-10-03 20:00;CYYC 032000Z 33004KT 40SM FEW056 SCT150 BKN220 21/07 A2965 RMK CU1AC2CI1 SLP040

CYYC;2008-10-03 21:00;CYYC 032100Z 33003KT 40SM FEW060 FEW150 SCT220 21/05 A2964 RMK CU1AC1CI1 SLP032

CYYC;2008-10-03 22:00;CYYC 032200Z 11005KT 40SM FEW075 FEW150 FEW220 21/06 A2962 RMK CU1AC1CI0 SLP026

CYYC;2008-10-03 23:00;CYYC 032300Z 12005KT 40SM FEW060 FEW150 21/06 A2960 RMK CU1AC1 SLP021

CYYC;2008-10-04 00:00;CYYC 040000Z 15006KT 40SM FEW060 FEW130 FEW220 19/06 A2959 RMK CU1AC1CI2 CU+AC TR SLP023

CYYC;2008-10-04 01:00;CYYC 040100Z 09008KT 30SM FEW052 FEW120 SCT240 18/06 A2958 RMK CU1AC2CI0 CU TR SLP020

CYYC;2008-10-04 02:00;CYYC 040200Z 12008KT 15SM FEW080 BKN110 BKN230 16/07 A2957 RMK AC2AC1CI1 SLP017

CYYC;2008-10-04 03:00;CYYC 040300Z 17009KT 15SM FEW140 SCT250 15/05 A2957 RMK AC1CI1 SLP012

CYYC;2008-10-04 04:00;CYYC 040400Z 21006KT 15SM FEW250 14/04 A2957 RMK CI0 SLP012

CYYC;2008-10-04 05:00;CYYC 040500Z 22006KT 15SM FEW170 FEW250 12/04 A2956 RMK AC1CI0 AC TR SLP009

CYYC;2008-10-04 06:00;CYYC 040600Z 18005KT 15SM FEW160 FEW250 11/04 A2955 RMK AC1CI1 BOTH CLDS TR SLP006

CYYC;2008-10-04 07:00;CYYC 040700Z 20002KT 15SM SKC 11/04 A2954 RMK SLP002

CYYC;2008-10-04 08:00;CYYC 040800Z 16004KT 15SM SKC 08/04 A2954 RMK SLP002

CYYC;2008-10-04 09:00;CYYC 040900Z 35003KT 15SM SKC 08/04 A2953 RMK SLP001

CYYC;2008-10-04 10:00;CYYC 041000Z 27002KT 15SM SKC 06/03 A2951 RMK SLP997

CYYC;2008-10-04 11:00;CYYC 041100Z 17003KT 15SM SKC 06/03 A2950 RMK SLP993

CYYC;2008-10-04 12:00;CYYC 041200Z 00000KT 15SM FEW230 04/02 A2949 RMK CI1 CI TR SLP995

CYYC;2008-10-04 13:00;CYYC 041300Z 21007KT 15SM FEW220 05/03 A2949 RMK CI1 SLP996

CYYC;2008-10-04 14:00;CYYC 041400Z 00000KT 20SM FEW150 BKN210 05/03 A2948 RMK AC1CI2 SLP993

CYYC;2008-10-04 15:00;CYYC 041500Z 19005KT 30SM SCT160 BKN210 06/04 A2949 RMK AC2CI2 SLP000

CYYC;2008-10-04 16:00;CYYC 041600Z 19003KT 30SM BKN120 OVC200 08/04 A2948 RMK AC5CI2 SLP997

CYYC;2008-10-04 17:00;CYYC 041700Z 19004KT 30SM FEW100 BKN130 OVC220 10/04 A2948 RMK AC2AC4CI1 DIST SH ALQDS SLP996

CYYC;2008-10-04 18:00;CYYC 041800Z 17005KT 30SM BKN073 BKN130 OVC220 12/05 A2948 RMK AC5AC2CI1 SH NE + SE-SW SLP991

CYYC;2008-10-04 19:00;CYYC 041900Z 19005KT 20SM BKN066 BKN100 OVC240 14/06 A2946 RMK AC5AC2CI1 SH ALQDS SLP987

CYYC;2008-10-04 19:22;CYYC 041922Z 18006KT 20SM -SHRA BKN071 BKN100 OVC240 14/ RMK AC5AC2CI1 CVCTV CLD EMBD

CYYC;2008-10-04 20:00;CYYC 042000Z 18005KT 10SM -RA FEW037 BKN064 OVC100 13/10 A2945 RMK SC1SC6AC2 SLP984

CYYC;2008-10-04 21:00;CYYC 042100Z 13009KT 15SM -RA BKN058 OVC071 13/11 A2946 RMK SC6AC2 SLP989

CYYC;2008-10-04 22:00;CYYC 042200Z 15006KT 10SM -RA BKN030 OVC050 13/11 A2945 RMK SC6SC2 SLP986

CYYC;2008-10-04 23:00;CYYC 042300Z 12006KT 15SM FEW050 OVC081 14/11 A2943 RMK SC2AC5 SH N-E SLP980

CYYC;2008-10-05 00:00;CYYC 050000Z 14004KT 20SM FEW065 SCT090 BKN180 BKN240 13/11 A2944 RMK SC1AC2AC2CI1 SH NE-SE SLP987

CYYC;2008-10-05 01:00;CYYC 050100Z 12006KT 20SM FEW060 SCT180 BKN240 13/10 A2945 RMK SC1AC2CI2 SLP990

CYYC;2008-10-05 02:00;CYYC 050200Z 13007KT 30SM BKN077 BKN110 11/10 A2945 RMK AC5AC1 SLP991

CYYC;2008-10-05 03:00;CYYC 050300Z 13004KT 15SM FEW077 09/09 A2945 RMK AC1 SLP993

CYYC;2008-10-05 04:00;CYYC 050400Z 18003KT 15SM FEW075 09/09 A2945 RMK AC2 SLP993

CYYC;2008-10-05 04:44;CYYC 050444Z 18003KT 3SM BR VV004 08/ RMK FG8

CYYC;2008-10-05 04:49;CYYC 050449Z 00000KT 1/2SM FG VV001 09/ RMK FG8

CYYC;2008-10-05 05:00;CYYC 050500Z 17002KT 1/2SM FG VV001 09/09 A2945 RMK FG8 SLP991

CYYC;2008-10-05 05:13;CYYC 050513Z 22004KT 1/4SM FG VV001 09/ RMK FG8

CYYC;2008-10-05 05:37;CYYC 050537Z 23005KT 1/8SM FG VV001 09/ RMK FG8

CYYC;2008-10-05 06:00;CYYC 050600Z 21005KT 1/8SM FG VV001 09/09 A2945 RMK FG8 SLP984

CYYC;2008-10-05 07:00;CYYC 050700Z 21006KT 1/4SM FG SKC 08/08 A2945 RMK FG6 SLP984

CYYC;2008-10-05 07:11;CYYC 050711Z 20006KT 3SM BR SKC 08/ RMK FG3

CYYC;2008-10-05 08:00;CYYC 050800Z 19006KT 15SM SKC 08/08 A2945 RMK SLP984

CYYC;2008-10-05 09:00;CYYC 050900Z 19006KT 15SM SKC 06/06 A2946 RMK SLP989

CYYC;2008-10-05 10:00;CYYC 051000Z 21005KT 15SM SKC 05/05 A2946 RMK SLP991

CYYC;2008-10-05 11:00;CYYC 051100Z 18004KT 15SM SKC 05/04 A2946 RMK SLP991

CYYC;2008-10-05 12:00;CYYC 051200Z 20005KT 15SM SKC 04/04 A2947 RMK SLP996

CYYC;2008-10-05 13:00;CYYC 051300Z 22003KT 15SM FEW070 04/04 A2947 RMK AC1 SLP997

CYYC;2008-10-05 14:00;CYYC 051400Z 20002KT 40SM FEW040 FEW100 FEW250 04/03 A2947 RMK SC1AC1CI1 SLP998

CYYC;2008-10-05 15:00;CYYC 051500Z 17002KT 40SM FEW040 FEW120 FEW240 06/04 A2948 RMK SC1AC1CI0 CU EMBD SLP001

CYYC;2008-10-05 16:00;CYYC 051600Z 26003KT 40SM FEW040 FEW160 FEW250 11/05 A2948 RMK SC1AC1CI0 CU EMBD SLP003

CYYC;2008-10-05 17:00;CYYC 051700Z 25013G18KT 40SM FEW050 FEW120 FEW230 15/03 A2948 RMK SC1AC1CI0 CU EMBD SLP003

CYYC;2008-10-05 18:00;CYYC 051800Z 27014G24KT 40SM FEW050 FEW120 FEW250 16/03 A2948 RMK SC1AC1CI0 DIST SH CU EMBD SLP989

CYYC;2008-10-05 19:00;CYYC 051900Z 28021G29KT 40SM FEW060 FEW160 FEW230 16/01 A2949 RMK CU1AC1CI0 SLP991

CYYC;2008-10-05 20:00;CYYC 052000Z 29021G28KT 40SM FEW068 FEW090 FEW230 17/00 A2949 RMK CU1AC1CI0 SLP993

CYYC;2008-10-05 21:00;CYYC 052100Z 27021G29KT 40SM FEW068TCU BKN090 BKN160 BKN250 16/M01 A2950 RMK TCU1AC5AC2CI0 SLP000

CYYC;2008-10-05 22:00;CYYC 052200Z 28022G27KT 40SM FEW066TCU BKN080 BKN200 15/M01 A2952 RMK TCU2AC5CI1 DIST SH SW-SE SLP007

CYYC;2008-10-05 23:00;CYYC 052300Z 27018G25KT 40SM FEW064TCU BKN075 OVC200 15/M02 A2953 RMK TCU1AC6CI0 DIST SH ALQDS SLP010

CYYC;2008-10-06 00:00;CYYC 060000Z 27021G28KT 40SM FEW058 BKN095 OVC240 13/M02 A2956 RMK CU1AC6CI0 DIST SH ALQDS SLP027

CYYC;2008-10-06 00:09;CYYC 060009Z 27021G26KT 40SM -SHRA FEW038 FEW060 BKN092 OVC240 13/ RMK SC1CU2AC5CI0 PCPN VRY LGT

CYYC;2008-10-06 00:29;CYYC 060029Z CCA 26018KT 30SM SCT035 BKN092 OVC240 13/ RMK SC3AC4CI0 DIST SH ALQDS/CU ASOCTD

CYYC;2008-10-06 00:33;CYYC 060033Z 26021G27KT 30SM -SHRA SCT035 BKN092 BKN240 12/ RMK SC3AC4CI1

CYYC;2008-10-06 01:00;CYYC 060100Z 28018G29KT 30SM -SHRA FEW038 BKN060 BKN090 11/M00 A2961 RMK SC2SC2AC2 PCPN VRY LGT/CU ASOCTD SLP043

CYYC;2008-10-06 02:00;CYYC 060200Z 34007KT 20SM -SHRA FEW038 BKN085 BKN100 10/02 A2964 RMK SC2AC4AC2 PCPN VRY LGT / CVCTV CLD EMBD SLP050

CYYC;2008-10-06 02:34;CYYC 060234Z 27004KT 15SM FEW038 BKN085 BKN120 10/ RMK SC2AC4AC2 VIRGA N

CYYC;2008-10-06 03:00;CYYC 060300Z 27004KT 15SM FEW045 SCT085 BKN120 10/M02 A2965 RMK SC1AC2AC4 VIRGA N SLP061

CYYC;2008-10-06 04:00;CYYC 060400Z 33010KT 15SM FEW045 BKN085 BKN170 09/M04 A2968 RMK SC1AC4AC2 SLP070

CYYC;2008-10-06 05:00;CYYC 060500Z 34010KT 15SM BKN068 BKN085 BKN170 09/M04 A2971 RMK AC6AC1AC1 SLP079

CYYC;2008-10-06 06:00;CYYC 060600Z 33006KT 15SM FEW085 BKN170 07/02 A2974 RMK AC2AC5 SLP081

CYYC;2008-10-06 07:00;CYYC 060700Z 03007KT 15SM FEW068 BKN160 06/02 A2977 RMK AC2AC4 SLP091

CYYC;2008-10-06 08:00;CYYC 060800Z 31003KT 15SM SCT087 BKN160 05/02 A2979 RMK AC3AC3 SLP098

CYYC;2008-10-06 09:00;CYYC 060900Z 32003KT 15SM SCT055 BKN081 06/02 A2979 RMK SC3AC3 SLP102

CYYC;2008-10-06 10:00;CYYC 061000Z 00000KT 15SM OVC110 06/02 A2984 RMK AC7 SLP116

CYYC;2008-10-06 11:00;CYYC 061100Z 26003KT 15SM BKN110 05/02 A2987 RMK AC6 SLP125

CYYC;2008-10-06 12:00;CYYC 061200Z 22003KT 15SM BKN090 BKN110 04/02 A2991 RMK AC5AC1 SLP149

CYYC;2008-10-06 13:00;CYYC 061300Z 00000KT 15SM FEW092 03/01 A2992 RMK AC1 SLP154

CYYC;2008-10-06 14:00;CYYC 061400Z 00000KT 30SM FEW050 FEW080 02/01 A2994 RMK SC1AC1 AC TR SLP159

CYYC;2008-10-06 15:00;CYYC 061500Z 20003KT 40SM FEW050 FEW080 04/01 A2996 RMK SC1AC1 BOTH CLDS TR SLP172

CYYC;2008-10-06 16:00;CYYC 061600Z 18007KT 40SM FEW060 08/M01 A2997 RMK SC1 SC TR SLP175

CYYC;2008-10-06 17:00;CYYC 061700Z 18010KT 40SM FEW040 10/01 A2998 RMK CU1 CU TR SLP179

CYYC;2008-10-06 18:00;CYYC 061800Z 16002KT 40SM FEW040 10/M01 A2999 RMK CU1 CU TR SLP177

CYYC;2008-10-06 19:00;CYYC 061900Z 24007KT 40SM FEW040 FEW090 12/M06 A2999 RMK CU1AC1 AC TR SLP176

CYYC;2008-10-06 20:00;CYYC 062000Z 27010G19KT 40SM FEW050 FEW078 12/M07 A2998 RMK CU1AC1 AC TR SLP173

CYYC;2008-10-06 21:00;CYYC 062100Z 22010G17KT 40SM FEW050 13/M07 A2996 RMK CU1 SLP165

CYYC;2008-10-06 22:00;CYYC 062200Z 25010KT 40SM FEW055 14/M07 A2997 RMK CU1 CU TR SLP166

CYYC;2008-10-06 23:00;CYYC 062300Z 27005KT 40SM FEW060 FEW240 13/M07 A2996 RMK CU1CI1 BOTH CLDS TR SLP165

CYYC;2008-10-07 00:00;CYYC 070000Z 28007KT 40SM FEW060 FEW240 12/M07 A2996 RMK CU1CI1 BOTH CLDS TR SLP167

CYYC;2008-10-07 01:00;CYYC 070100Z 26006KT 40SM FEW060 FEW100 FEW240 10/M05 A2996 RMK CU1AC1CI1 ACSL SW/ ALL CLDS TR SLP167

CYYC;2008-10-07 02:00;CYYC 070200Z 25005KT 15SM FEW100 FEW240 09/M04 A2995 RMK AC1CI1 SLP165

CYYC;2008-10-07 03:00;CYYC 070300Z 25003KT 15SM FEW100 SCT250 08/M05 A2995 RMK AC1CI2 SLP170

CYYC;2008-10-07 04:00;CYYC 070400Z 23006KT 15SM FEW100 BKN220 07/M04 A2993 RMK AC1CI3 SLP166

CYYC;2008-10-07 05:00;CYYC 070500Z 20005KT 15SM BKN130 BKN220 07/M03 A2990 RMK AC3CI3 SLP156

CYYC;2008-10-07 06:00;CYYC 070600Z CCA 18005KT 15SM BKN120 BKN220 07/M03 A2986 RMK AC5CI2 SLP133

CYYC;2008-10-07 07:00;CYYC 070700Z 17004KT 15SM BKN120 07/M03 A2983 RMK AC6 SLP123

CYYC;2008-10-07 08:00;CYYC 070800Z 16006KT 15SM BKN120 07/M02 A2980 RMK AC6 SLP114

CYYC;2008-10-07 09:00;CYYC 070900Z 16002KT 15SM BKN120 BKN230 06/M02 A2977 RMK AC4CI2 SLP099

CYYC;2008-10-07 10:00;CYYC 071000Z 14003KT 15SM SCT120 BKN230 05/M01 A2974 RMK AC2CI3 SLP090

CYYC;2008-10-07 11:00;CYYC 071100Z 18008KT 15SM FEW120 BKN220 07/M01 A2972 RMK AC2CI3 SLP083

CYYC;2008-10-07 12:00;CYYC 071200Z 18008KT 15SM FEW120 BKN220 08/02 A2968 RMK AC2CI3 SLP067

CYYC;2008-10-07 13:00;CYYC 071300Z 17008KT 15SM BKN250 07/02 A2964 RMK CI6 SLP052

CYYC;2008-10-07 14:00;CYYC 071400Z 15010G15KT 30SM FEW040 BKN250 08/03 A2960 RMK CU1CI6 SLP040

CYYC;2008-10-07 15:00;CYYC 071500Z 16006KT 30SM FEW040 FEW250 07/03 A2959 RMK CU1CI2 SLP041

CYYC;2008-10-07 16:00;CYYC 071600Z 15007KT 30SM FEW040 FEW250 11/04 A2958 RMK CU1CI1 SLP037

CYYC;2008-10-07 17:00;CYYC 071700Z 29004KT 30SM FEW040 FEW250 14/04 A2958 RMK CU1CI1 SLP037

CYYC;2008-10-07 18:00;CYYC 071800Z CCA 25010KT 30SM FEW045 SCT100 16/02 A2958 RMK SC2AC1 SH W-NW SLP025

CYYC;2008-10-07 18:24;CYYC 071824Z CCA 27041G50KT 20SM -SHRA FEW040 BKN100 07/ RMK SC2AC6 DRDU ASOCTD / CVCTV CLD EMBD

CYYC;2008-10-07 19:00;CYYC 071900Z 25019G36KT 20SM -SHRA BKN020 BKN058 06/04 A2964 RMK SC6SC2 CVCTV CLD EMBD SLP046

CYYC;2008-10-07 19:43;CYYC 071943Z CCA 25008KT 30SM FEW020 BKN092 07/ RMK SC2AC4 SH W

CYYC;2008-10-07 20:00;CYYC 072000Z 23009G15KT 30SM FEW030 BKN140 09/03 A2962 RMK SC2AC5 SLP038

CYYC;2008-10-07 21:00;CYYC 072100Z 26022G32KT 40SM FEW050 BKN170 12/M02 A2962 RMK SC1AC6 SLP047

CYYC;2008-10-07 22:00;CYYC 072200Z 25024G34KT 40SM FEW050 FEW170 13/M05 A2963 RMK CU1AC2 SLP051

CYYC;2008-10-07 23:00;CYYC 072300Z 26026KT 40SM FEW050 FEW130 FEW170 13/M05 A2965 RMK CU1AC1AC1 SLP056

CYYC;2008-10-08 00:00;CYYC 080000Z 26016KT 40SM FEW050 BKN130 12/M04 A2969 RMK CU1AC6 SLP069

CYYC;2008-10-08 01:00;CYYC 080100Z 27019G25KT 40SM FEW050 BKN110 11/M06 A2973 RMK SC1AC6 SLP080

CYYC;2008-10-08 02:00;CYYC 080200Z 27014G20KT 15SM FEW070 BKN130 10/M05 A2977 RMK AC2AC5 SLP092

CYYC;2008-10-08 03:00;CYYC 080300Z 26016KT 15SM SCT130 BKN220 08/M03 A2980 RMK AC2CI2 SLP114

CYYC;2008-10-08 04:00;CYYC 080400Z 26015G20KT 15SM FEW130 BKN220 08/M04 A2982 RMK AC2CI2 SLP121

CYYC;2008-10-08 05:00;CYYC 080500Z 27014G20KT 15SM FEW130 BKN240 07/M05 A2985 RMK AC1CI2 SLP130

CYYC;2008-10-08 06:00;CYYC 080600Z 27017KT 15SM FEW130 SCT240 07/M06 A2986 RMK AC1CI1 SLP126

CYYC;2008-10-08 07:00;CYYC 080700Z 27017KT 15SM FEW140 SCT250 07/M06 A2991 RMK AC1CI1 SLP140

CYYC;2008-10-08 08:00;CYYC 080800Z 27014G19KT 15SM SCT180 OVC210 07/M07 A2992 RMK AC3CI4 SLP142

CYYC;2008-10-08 09:00;CYYC 080900Z 27017KT 15SM SCT190 BKN210 06/M08 A2993 RMK AC3CI2 SLP157

CYYC;2008-10-08 10:00;CYYC 081000Z 27013G18KT 15SM FEW220 05/M08 A2995 RMK CI1 CI TR SLP161

CYYC;2008-10-08 11:00;CYYC 081100Z 26014KT 15SM FEW220 04/M09 A2996 RMK CI1 CI TR SLP165

CYYC;2008-10-08 12:00;CYYC 081200Z 27011G17KT 15SM FEW170 FEW240 05/M09 A2997 RMK AC1CI0 SLP171

CYYC;2008-10-08 13:00;CYYC 081300Z 27013KT 15SM SCT150 BKN220 05/M08 A2998 RMK AC2CI2 SLP175

CYYC;2008-10-08 14:00;CYYC 081400Z 26015KT 40SM FEW090 BKN130 BKN220 05/M05 A2999 RMK AC1AC2CI2 SLP176

CYYC;2008-10-08 15:00;CYYC 081500Z 27015G20KT 40SM FEW040 SCT120 06/M05 A3000 RMK SC1AC1 SC TR SLP186

CYYC;2008-10-08 16:00;CYYC 081600Z 27017KT 40SM FEW040 FEW120 BKN160 BKN240 08/M06 A3002 RMK SC1AC2AC0CI0 SC TR SLP192

CYYC;2008-10-08 17:00;CYYC 081700Z 27019G24KT 40SM SCT060 BKN120 BKN240 07/M06 A3003 RMK SC4AC3CI1 VIRGA ALQDS SLP196

CYYC;2008-10-08 18:00;CYYC 081800Z 27012G17KT 40SM SCT060 BKN120 BKN240 07/M05 A3004 RMK SC3AC4CI1 CU ASOCTD/VIRGA NE-SW SLP200

CYYC;2008-10-08 19:00;CYYC 081900Z 30010G16KT 30SM FEW068 FEW090 SCT130 09/M08 A3004 RMK CU1AC1AC0 DIST SH NE-S SLP199

CYYC;2008-10-08 19:26;CYYC 081926Z CCA 32008KT 40SM -SHSN SCT060 BKN130 08/ RMK SC4AC3 CU ASOCTD/PCPN VRY LGT

CYYC;2008-10-08 20:00;CYYC 082000Z 04006KT 40SM BKN060 BKN130 07/M06 A3003 RMK SC6AC2 CU ASOCTD/DIST SH N-SW SLP195

CYYC;2008-10-08 21:00;CYYC 082100Z 24012G21KT 40SM BKN058 BKN080 09/M09 A3002 RMK SC5AC2 TCU ASOCTD/DIST SH ALQDS SLP190

CYYC;2008-10-08 22:00;CYYC 082200Z 02014KT 40SM FEW019 BKN060 BKN120 06/M05 A3004 RMK SC2SC3AC2 TCU ASOCTD SLP198

CYYC;2008-10-08 23:00;CYYC 082300Z 09005KT 40SM FEW030 BKN050 BKN120 06/M06 A3006 RMK SC2SC4AC2 DIST SH ALQDS SLP205

CYYC;2008-10-09 00:00;CYYC 090000Z 00000KT 40SM FEW030 BKN042 06/M07 A3008 RMK SC1SC6 DIST SH ALQDS/CU ASOCTD SLP219

CYYC;2008-10-09 01:00;CYYC 090100Z 35009KT 40SM FEW040 FEW062 FEW180 05/M08 A3008 RMK SC1SC1AC0 VIRGA SW-N SLP218

CYYC;2008-10-09 02:00;CYYC 090200Z 36009KT 15SM FEW040 FEW120 05/M08 A3009 RMK SC1AC1 SLP221

CYYC;2008-10-09 03:00;CYYC 090300Z 29005KT 15SM FEW085 03/M07 A3010 RMK AC1 SLP228

CYYC;2008-10-09 04:00;CYYC 090400Z 32005KT 15SM BKN070 BKN086 03/M07 A3011 RMK AC5AC2 SLP231

CYYC;2008-10-09 05:00;CYYC 090500Z 29005KT 15SM SCT084 02/M07 A3012 RMK AC3 SLP234

CYYC;2008-10-09 06:00;CYYC 090600Z 34005KT 15SM FEW065 SCT073 01/M07 A3012 RMK SC1AC2 SLP236

CYYC;2008-10-09 07:00;CYYC 090700Z 32006KT 15SM SCT084 01/M08 A3012 RMK AC2 SLP235

CYYC;2008-10-09 08:00;CYYC 090800Z 32008KT 15SM SCT085 01/M08 A3011 RMK AC3 SLP233

CYYC;2008-10-09 09:00;CYYC 090900Z 32008KT 15SM FEW085 SCT120 M00/M09 A3011 RMK AC1AC2 SLP234

CYYC;2008-10-09 10:00;CYYC 091000Z 34008KT 15SM FEW084 M02/M09 A3011 RMK AC1 SLP234

CYYC;2008-10-09 11:00;CYYC 091100Z 32007KT 15SM FEW084 M01/M09 A3011 RMK AC1 AC TR SLP234

CYYC;2008-10-09 12:00;CYYC 091200Z 32006KT 15SM FEW110 M02/M09 A3011 RMK AC1 AC TR SLP240

CYYC;2008-10-09 13:00;CYYC 091300Z 33006KT 15SM FEW086 M05/M09 A3012 RMK AC1 AC TR SLP243

CYYC;2008-10-09 14:00;CYYC 091400Z 29002KT 30SM FEW086 M04/M09 A3013 RMK AC1 SLP245

CYYC;2008-10-09 15:00;CYYC 091500Z 19003KT 40SM FEW085 M03/M08 A3014 RMK AC1 SLP253

CYYC;2008-10-09 16:00;CYYC 091600Z 00000KT 40SM FEW085 01/M07 A3014 RMK AC1 SLP254

CYYC;2008-10-09 17:00;CYYC 091700Z 35003KT 40SM FEW085 03/M09 A3014 RMK AC1 SLP253

CYYC;2008-10-09 18:00;CYYC 091800Z 00000KT 40SM FEW052 FEW085 FEW240 04/M09 A3012 RMK CU1AC1CI1 SLP243

CYYC;2008-10-09 19:00;CYYC 091900Z 03002KT 40SM FEW052 FEW085 05/M09 A3011 RMK CU1AC1 SLP239

CYYC;2008-10-09 20:00;CYYC 092000Z 30003KT 40SM FEW056 FEW085 05/M08 A3009 RMK CU1AC1 SLP233

CYYC;2008-10-09 21:00;CYYC 092100Z 27005KT 40SM FEW064 FEW085 FEW240 06/M11 A3008 RMK CU1AC1CI1 AC TR SLP225

CYYC;2008-10-09 22:00;CYYC 092200Z 36003KT 40SM FEW070 FEW240 06/M10 A3007 RMK CU1CI2 SLP223

CYYC;2008-10-09 23:00;CYYC 092300Z 02004KT 40SM FEW070 FEW240 06/M09 A3008 RMK CU1CI2 SLP225

CYYC;2008-10-10 00:00;CYYC 100000Z 02006KT 30SM FEW068 FEW240 05/M11 A3009 RMK CU1CI2 CU TR SLP233

CYYC;2008-10-10 01:00;CYYC 100100Z 05005KT 30SM FEW052 FEW085 FEW240 04/M10 A3011 RMK CU1AC1CI1 SLP238

CYYC;2008-10-10 02:00;CYYC 100200Z 04004KT 15SM FEW060 FEW100 FEW240 02/M09 A3012 RMK SC1AC1CI0 SC+AC TR SLP241

CYYC;2008-10-10 03:00;CYYC 100300Z 34007KT 15SM FEW250 M01/M09 A3014 RMK CI1 CI TR SLP258

CYYC;2008-10-10 04:00;CYYC 100400Z 33006KT 15SM FEW180 FEW250 M01/M09 A3015 RMK AC1CI0 SLP263

CYYC;2008-10-10 05:00;CYYC 100500Z 32004KT 15SM FEW180 FEW250 M02/M09 A3017 RMK AC1CI0 SLP269

CYYC;2008-10-10 06:00;CYYC 100600Z 33007KT 15SM BKN078 M01/M09 A3019 RMK AC6 SLP267

CYYC;2008-10-10 07:00;CYYC 100700Z 33004KT 15SM BKN080 M00/M09 A3020 RMK AC7 SLP270

CYYC;2008-10-10 08:00;CYYC 100800Z 32007KT 15SM BKN067 M01/M08 A3020 RMK AC5 SLP272

CYYC;2008-10-10 09:00;CYYC 100900Z 32008KT 15SM SCT067 M01/M08 A3022 RMK AC3 SLP275

CYYC;2008-10-10 10:00;CYYC 101000Z 31008KT 15SM FEW080 M02/M08 A3023 RMK AC1 AC TR SLP277

CYYC;2008-10-10 11:00;CYYC 101100Z 34006KT 15SM BKN056 BKN090 M03/M08 A3024 RMK SC5AC1 SLP282

CYYC;2008-10-10 12:00;CYYC 101200Z 32008KT 15SM FEW060 FEW090 M03/M08 A3026 RMK SC1AC2 SC TR SLP291

CYYC;2008-10-10 13:00;CYYC 101300Z 32008KT 15SM FEW180 FEW250 M03/M08 A3027 RMK AC1CI0 SLP296

CYYC;2008-10-10 14:00;CYYC 101400Z 32008KT 30SM FEW180 FEW250 M03/M08 A3029 RMK AC2CI0 SLP301

CYYC;2008-10-10 15:00;CYYC 101500Z 32006KT 30SM FEW050 FEW160 M03/M08 A3030 RMK CU2AC1 SLP315

CYYC;2008-10-10 16:00;CYYC 101600Z 33009KT 30SM BKN060 M00/M06 A3032 RMK SC3 SLP321

CYYC;2008-10-10 17:00;CYYC 101700Z 34015KT 30SM FEW060 02/M06 A3032 RMK SC2 SLP322

CYYC;2008-10-10 18:00;CYYC 101800Z 35012G17KT 30SM FEW040 FEW160 04/M07 A3033 RMK CU2AC1 ACSL SLP316

CYYC;2008-10-10 19:00;CYYC 101900Z 36017KT 30SM FEW044 04/M07 A3032 RMK CU2 SLP314

CYYC;2008-10-10 20:00;CYYC 102000Z 35019G25KT 30SM FEW050 FEW160 04/M09 A3032 RMK CU2AC1 SLP314

CYYC;2008-10-10 21:00;CYYC 102100Z 36017G24KT 30SM FEW056 04/M09 A3031 RMK CU1 SLP310

CYYC;2008-10-10 22:00;CYYC 102200Z 36017G22KT 30SM FEW058 05/M08 A3031 RMK CU1 DIST SH S-SW-W SLP311

CYYC;2008-10-10 23:00;CYYC 102300Z CCA 36018G24KT 30SM FEW060 04/M10 A3032 RMK CU1 DIST SH SW SLP314

CYYC;2008-10-11 00:00;CYYC 110000Z 36014KT 30SM FEW052 04/M09 A3033 RMK CU1 DIST SH SW SLP320

CYYC;2008-10-11 01:00;CYYC 110100Z 01006KT 30SM FEW032 01/M09 A3033 RMK CU1 DIST SH SW SLP320

CYYC;2008-10-11 02:00;CYYC 110200Z 36007KT 15SM FEW045 M01/M09 A3035 RMK SC1 SLP325

CYYC;2008-10-11 03:00;CYYC 110300Z CCA 35007KT 15SM FEW100 M03/M09 A3037 RMK AC1 AC TR SLP343

CYYC;2008-10-11 04:00;CYYC 110400Z 35006KT 15SM FEW100 M03/M09 A3039 RMK AC2 SLP348

CYYC;2008-10-11 05:00;CYYC 110500Z 32005KT 15SM FEW058 FEW100 M03/M09 A3039 RMK SC1AC1 SC TR SLP349

CYYC;2008-10-11 06:00;CYYC 110600Z 32006KT 15SM BKN065 BKN090 M02/M07 A3038 RMK SC5AC2 SLP336

CYYC;2008-10-11 07:00;CYYC 110700Z 34004KT 15SM BKN065 M03/M08 A3037 RMK SC5 SLP334

CYYC;2008-10-11 08:00;CYYC 110800Z 00000KT 15SM SCT056 M04/M07 A3037 RMK SC3 SLP332

CYYC;2008-10-11 09:00;CYYC 110900Z 06003KT 15SM SCT056 M05/M08 A3037 RMK SC3 SLP335

CYYC;2008-10-11 10:00;CYYC 111000Z 00000KT 15SM FEW056 FEW210 M05/M08 A3036 RMK SC1CI0 SLP331

CYYC;2008-10-11 11:00;CYYC 111100Z 36002KT 15SM FEW056 FEW210 M05/M07 A3035 RMK SC1CI1 SLP330

CYYC;2008-10-11 12:00;CYYC 111200Z 00000KT 15SM FEW056 FEW210 M07/M09 A3036 RMK SC1CI0 SC TR SLP336

CYYC;2008-10-11 13:00;CYYC 111300Z 27002KT 15SM FEW240 M07/M09 A3036 RMK CI1 CI TR SLP337

CYYC;2008-10-11 14:00;CYYC 111400Z 00000KT 30SM FEW100 FEW240 M08/M10 A3036 RMK AC1CI1 BOTH CLDS TR SLP335

CYYC;2008-10-11 15:00;CYYC 111500Z 19005KT 40SM FEW240 M05/M07 A3035 RMK CI1 SLP340

CYYC;2008-10-11 16:00;CYYC 111600Z 20004KT 40SM FEW100 M02/M05 A3035 RMK AC1 SLP338

CYYC;2008-10-11 17:00;CYYC 111700Z 20006KT 40SM FEW100 01/M05 A3033 RMK AC1 SLP333

CYYC;2008-10-11 18:00;CYYC 111800Z 19006KT 40SM FEW090 FEW250 02/M06 A3032 RMK AC1CI1 SLP316

CYYC;2008-10-11 19:00;CYYC 111900Z 17010KT 40SM FEW090 FEW250 04/M07 A3030 RMK AC1CI1 SLP311

CYYC;2008-10-11 20:00;CYYC 112000Z 16011KT 40SM FEW090 FEW250 04/M07 A3027 RMK AC1CI1 SLP303

CYYC;2008-10-11 21:00;CYYC 112100Z 18009KT 40SM FEW090 FEW250 06/M07 A3025 RMK AC1CI1 SLP291

CYYC;2008-10-11 22:00;CYYC 112200Z 16011KT 40SM FEW090 FEW250 05/M09 A3023 RMK AC1CI1 SLP284

CYYC;2008-10-11 23:00;CYYC 112300Z 16011G18KT 30SM FEW260 05/M08 A3021 RMK CI1 SLP280

CYYC;2008-10-12 00:00;CYYC 120000Z 16015KT 30SM FEW260 04/M08 A3020 RMK CI1 SLP281

CYYC;2008-10-12 01:00;CYYC 120100Z 17011G18KT 30SM FEW260 02/M07 A3021 RMK CI1 SLP283

CYYC;2008-10-12 02:00;CYYC 120200Z 17014KT 15SM SKC 01/M07 A3022 RMK SLP285

CYYC;2008-10-12 03:00;CYYC 120300Z 17009KT 15SM SKC M00/M08 A3021 RMK SLP285

CYYC;2008-10-12 04:00;CYYC 120400Z 17009KT 15SM SKC M02/M09 A3020 RMK SLP282

CYYC;2008-10-12 05:00;CYYC 120500Z 17009KT 15SM SKC M03/M08 A3020 RMK SLP282

CYYC;2008-10-12 06:00;CYYC 120600Z 17005KT 15SM SKC M03/M08 A3018 RMK SLP269

CYYC;2008-10-12 07:00;CYYC 120700Z 16007KT 15SM SKC M04/M09 A3017 RMK SLP267

CYYC;2008-10-12 08:00;CYYC 120800Z 18006KT 15SM SKC M05/M09 A3017 RMK SLP266

CYYC;2008-10-12 09:00;CYYC 120900Z 18005KT 15SM SKC M05/M09 A3017 RMK SLP265

CYYC;2008-10-12 10:00;CYYC 121000Z 21002KT 15SM SKC M05/M09 A3017 RMK SLP264

CYYC;2008-10-12 11:00;CYYC 121100Z 23002KT 15SM SKC M06/M09 A3016 RMK SLP262

CYYC;2008-10-12 12:00;CYYC 121200Z 20002KT 15SM SKC M08/M11 A3016 RMK SLP268

CYYC;2008-10-12 13:00;CYYC 121300Z 17003KT 15SM SKC M07/M10 A3017 RMK SLP272

CYYC;2008-10-12 14:00;CYYC 121400Z 21006KT 40SM FEW250 M07/M09 A3018 RMK CI1 SLP273

CYYC;2008-10-12 15:00;CYYC 121500Z 19007KT 40SM FEW100 FEW200 FEW250 M05/M08 A3017 RMK AC1CI1CI1 SLP274

CYYC;2008-10-12 16:00;CYYC 121600Z 22007KT 30SM FEW110 FEW220 M03/M09 A3016 RMK AC1CI1 SLP269

CYYC;2008-10-12 17:00;CYYC 121700Z 16004KT 40SM FEW110 FEW250 02/M07 A3016 RMK AC1CI1 SLP269

CYYC;2008-10-12 18:00;CYYC 121800Z 17005KT 40SM FEW130 FEW180 06/M07 A3015 RMK AC1AC1 SLP255

CYYC;2008-10-12 19:00;CYYC 121900Z 16006KT 40SM FEW100 08/M07 A3015 RMK AC2 SLP255

CYYC;2008-10-12 20:00;CYYC 122000Z 16004KT 30SM FEW110 BKN120 10/M07 A3014 RMK AC2AC3 DIST SH SW-NW SLP251

CYYC;2008-10-12 21:00;CYYC 122100Z 18003KT 30SM SCT038 BKN120 10/M01 A3012 RMK SC4AC2 DIST SH SW-NW SLP240

CYYC;2008-10-12 22:00;CYYC 122200Z 31004KT 30SM BKN036 BKN120 11/02 A3011 RMK SC6AC2 SLP238

CYYC;2008-10-12 23:00;CYYC 122300Z 30008KT 30SM FEW026 BKN040 10/04 A3012 RMK SC1SC7 SLP239

CYYC;2008-10-12 23:47;CYYC 122347Z 32005KT 30SM -RA BKN035 BKN058 09/ RMK SC6SC2

CYYC;2008-10-13 00:00;CYYC 130000Z 30006KT 30SM -RA SCT035 BKN058 09/05 A3011 RMK SC4SC3 PCPN VRY LGT SLP243

CYYC;2008-10-13 00:51;CYYC 130051Z 26004KT 30SM BKN050 09/ RMK SC7

CYYC;2008-10-13 01:00;CYYC 130100Z 26003KT 15SM BKN052 09/05 A3012 RMK SC7 SLP246

CYYC;2008-10-13 02:00;CYYC 130200Z 00000KT 15SM FEW050 BKN100 08/05 A3012 RMK SC2AC2 SLP246

CYYC;2008-10-13 03:00;CYYC 130300Z 00000KT 15SM FEW070 BKN100 06/04 A3013 RMK AC2AC2 SLP249

CYYC;2008-10-13 04:00;CYYC 130400Z 33002KT 15SM FEW070 SCT100 05/02 A3013 RMK AC2AC1 SLP250

CYYC;2008-10-13 05:00;CYYC 130500Z 00000KT 15SM FEW070 FEW100 04/02 A3013 RMK AC1AC1 SLP251

CYYC;2008-10-13 06:00;CYYC 130600Z 22003KT 15SM FEW070 FEW100 02/01 A3013 RMK AC1AC1 SLP238

CYYC;2008-10-13 07:00;CYYC 130700Z 00000KT 15SM FEW060 BKN070 03/02 A3013 RMK SC2AC2 SLP239

CYYC;2008-10-13 08:00;CYYC 130800Z 33005KT 15SM SCT050 04/03 A3012 RMK SC2 SLP236

CYYC;2008-10-13 09:00;CYYC 130900Z 00000KT 15SM FEW050 03/02 A3011 RMK SC1 SLP225

CYYC;2008-10-13 10:00;CYYC 131000Z 00000KT 15SM FEW050 02/01 A3010 RMK SC1 SLP222

CYYC;2008-10-13 11:00;CYYC 131100Z 00000KT 15SM FEW150 01/00 A3009 RMK AC1 SLP218

CYYC;2008-10-13 12:00;CYYC 131200Z 00000KT 15SM FEW120 00/M00 A3009 RMK AC1 SLP222

CYYC;2008-10-13 13:00;CYYC 131300Z 22002KT 15SM FEW110 00/M01 A3007 RMK AC1 FROIN SLP216

CYYC;2008-10-13 14:00;CYYC 131400Z 19005KT 40SM FEW070 BKN100 BKN240 01/M00 A3005 RMK AC2AC4CI0 SLP211

CYYC;2008-10-13 15:00;CYYC 131500Z 20005KT 40SM FEW110 SCT250 01/M01 A3005 RMK AC2CI0 SLP211

CYYC;2008-10-13 16:00;CYYC 131600Z 18004KT 40SM FEW070 FEW110 SCT250 07/03 A3003 RMK AC1AC2CI0 SLP206

CYYC;2008-10-13 17:00;CYYC 131700Z 17008KT 40SM FEW100 SCT250 10/03 A3000 RMK AC2CI0 SLP198

CYYC;2008-10-13 18:00;CYYC 131800Z 19007KT 40SM FEW070 SCT110 BKN240 13/04 A2998 RMK AC1AC1CI2 SLP178

CYYC;2008-10-13 19:00;CYYC 131900Z 23010G15KT 40SM FEW090 BKN110 BKN230 16/03 A2995 RMK AC2AC2CI2 SLP169

CYYC;2008-10-13 20:00;CYYC 132000Z 24017KT 40SM FEW090 SCT170 BKN240 16/03 A2994 RMK AC2AC2CI2 SLP164

CYYC;2008-10-13 21:00;CYYC 132100Z 25017KT 30SM FEW070 SCT160 BKN240 18/02 A2992 RMK AC2AC2CI2 SLP147

CYYC;2008-10-13 22:00;CYYC 132200Z 25016G21KT 40SM FEW080 SCT160 BKN240 17/01 A2991 RMK AC2AC2CI1 SLP144

CYYC;2008-10-13 23:00;CYYC 132300Z 26018G25KT 20SM FEW070 SCT082 BKN220 16/01 A2992 RMK AC1AC3CI2 SLP147

CYYC;2008-10-14 00:00;CYYC 140000Z 34013KT 20SM SCT070 BKN240 11/04 A2995 RMK AC3CI2 SLP173

CYYC;2008-10-14 01:00;CYYC 140100Z 34011KT 40SM FEW070 BKN095 BKN240 10/04 A2995 RMK AC2AC3CI1 SLP172

CYYC;2008-10-14 02:00;CYYC 140200Z 01005KT 15SM BKN090 09/04 A2995 RMK AC6 SLP171

CYYC;2008-10-14 03:00;CYYC 140300Z 00000KT 15SM OVC090 08/04 A2993 RMK AC7 SLP169

CYYC;2008-10-14 04:00;CYYC 140400Z 00000KT 15SM OVC080 08/04 A2992 RMK AC7 SLP165

CYYC;2008-10-14 05:00;CYYC 140500Z 06004KT 15SM OVC075 07/04 A2991 RMK AC7 SLP161

CYYC;2008-10-14 06:00;CYYC 140600Z 33007KT 15SM -RA OVC075 06/03 A2990 RMK AC8 SLP143

CYYC;2008-10-14 07:00;CYYC 140700Z 01005KT 15SM -RA OVC050 06/05 A2990 RMK SC8 SLP144

CYYC;2008-10-14 08:00;CYYC 140800Z 36009KT 5SM -RA OVC030 05/05 A2991 RMK SC8 SLP147

CYYC;2008-10-14 09:00;CYYC 140900Z 03003KT 15SM -RA FEW030 BKN060 OVC080 05/05 A2989 RMK SC2SC5AC2 SLP136

CYYC;2008-10-14 10:00;CYYC 141000Z 34012G17KT 5SM -RA BR OVC018 05/04 A2993 RMK SC8 SLP146

CYYC;2008-10-14 10:32;CYYC 141032Z 34016KT 2 1/2SM -RA BR SCT007 OVC018 01/ RMK ST2SC6

CYYC;2008-10-14 11:00;CYYC 141100Z 34018KT 5SM -RA BR SCT007 OVC020 01/01 A2999 RMK ST2SC6 SLP164

CYYC;2008-10-14 11:45;CYYC 141145Z 33017G25KT 2 1/2SM -RA BR SCT007 OVC015 01/ RMK ST3SC5

CYYC;2008-10-14 12:00;CYYC 141200Z 35017G22KT 5SM -RA BR FEW007 BKN015 OVC030 01/01 A3004 RMK ST2SC5SC2 SLP201

CYYC;2008-10-14 13:00;CYYC 141300Z 34016KT 15SM FEW020 BKN075 BKN160 01/M00 A3007 RMK SC1AC5AS1 SLP212

CYYC;2008-10-14 14:00;CYYC 141400Z 31010KT 20SM FEW030 SCT075 01/M01 A3009 RMK SC1AC2 SLP218

CYYC;2008-10-14 15:00;CYYC 141500Z 36011KT 30SM FEW030 SCT060 01/M02 A3014 RMK CU1SC3 SLP243

CYYC;2008-10-14 16:00;CYYC 141600Z 33008KT 30SM BKN060 02/M01 A3017 RMK SC5 SLP250

CYYC;2008-10-14 17:00;CYYC 141700Z 35008KT 40SM SCT060 03/M03 A3017 RMK SC4 SLP251

CYYC;2008-10-14 18:00;CYYC 141800Z 33005KT 40SM FEW055 FEW110 04/M05 A3018 RMK CU2AC1 SLP253

CYYC;2008-10-14 19:00;CYYC 141900Z 35007KT 40SM FEW036 SCT052 05/M04 A3017 RMK CU1SC2 SLP252

CYYC;2008-10-14 20:00;CYYC 142000Z 35005KT 40SM FEW036 SCT050 04/M04 A3017 RMK CU1SC3 SLP251

CYYC;2008-10-14 21:00;CYYC 142100Z 04003KT 40SM FEW032 FEW050 04/M04 A3016 RMK CU1SC2 SLP249

CYYC;2008-10-14 22:00;CYYC 142200Z 09002KT 40SM FEW040 06/M04 A3016 RMK CU2 SLP248

CYYC;2008-10-14 23:00;CYYC 142300Z 08003KT 30SM FEW040 05/M04 A3017 RMK CU1 SLP251

CYYC;2008-10-15 00:00;CYYC 150000Z 10006KT 30SM FEW036 FEW050 05/M04 A3018 RMK CU1SC2 SLP260

CYYC;2008-10-15 01:00;CYYC 150100Z 09006KT 20SM FEW028 FEW046 03/M04 A3019 RMK CU1SC2 SLP264

CYYC;2008-10-15 02:00;CYYC 150200Z 08003KT 15SM FEW030 FEW046 02/M04 A3021 RMK SC1SC1 SLP270

CYYC;2008-10-15 03:00;CYYC 150300Z 02002KT 15SM FEW050 SCT082 02/M03 A3023 RMK SC1AC2 SLP280

CYYC;2008-10-15 04:00;CYYC 150400Z 21002KT 15SM FEW080 01/M03 A3024 RMK AC2 SLP284

CYYC;2008-10-15 05:00;CYYC 150500Z 35002KT 15SM FEW071 01/M03 A3025 RMK AC2 SLP288

CYYC;2008-10-15 06:00;CYYC 150600Z 00000KT 15SM FEW071 FEW240 00/M03 A3026 RMK AC1CI1 BOTH CLDS TR SLP289

CYYC;2008-10-15 07:00;CYYC 150700Z 34002KT 15SM FEW080 FEW240 M00/M03 A3025 RMK AC1CI0 AC TR SLP288

CYYC;2008-10-15 08:00;CYYC 150800Z 20002KT 15SM FEW240 M01/M03 A3025 RMK CI1 CI TR SLP287

CYYC;2008-10-15 09:00;CYYC 150900Z 21005KT 15SM FEW220 M02/M04 A3025 RMK CI1 SLP290

CYYC;2008-10-15 10:00;CYYC 151000Z 02003KT 15SM FEW220 M03/M05 A3025 RMK CI1 SLP289

CYYC;2008-10-15 11:00;CYYC 151100Z 34004KT 15SM BKN240 M04/M06 A3025 RMK CS2 HALO SLP289

CYYC;2008-10-15 12:00;CYYC 151200Z 33004KT 15SM FEW240 M03/M06 A3025 RMK CI0 SLP289

CYYC;2008-10-15 13:00;CYYC 151300Z 32003KT 15SM SCT240 M04/M07 A3024 RMK CI2 HALO SLP288

CYYC;2008-10-15 14:00;CYYC 151400Z 00000KT 40SM FEW210 SCT240 M03/M06 A3024 RMK CI0CI0 SLP286

CYYC;2008-10-15 15:00;CYYC 151500Z 00000KT 40SM FEW100 FEW180 OVC210 M03/M06 A3023 RMK AC1AC1CI0 SLP289

CYYC;2008-10-15 16:00;CYYC 151600Z 16003KT 40SM FEW160 FEW180 BKN220 M00/M03 A3022 RMK AC1AC1CI0 SLP284

CYYC;2008-10-15 17:00;CYYC 151700Z 22002KT 40SM FEW160 SCT200 02/M05 A3021 RMK AC1CI0 SLP282

CYYC;2008-10-15 18:00;CYYC 151800Z 19006KT 40SM FEW130 SCT160 OVC220 04/M04 A3019 RMK AC1AC1CI0 SLP266

CYYC;2008-10-15 19:00;CYYC 151900Z 14007KT 40SM FEW130 SCT160 OVC200 06/M03 A3017 RMK AC1AC1CI0 SLP258

CYYC;2008-10-15 20:00;CYYC 152000Z 14008KT 40SM FEW180 BKN200 07/M02 A3014 RMK AC1CI1 SLP250

CYYC;2008-10-15 21:00;CYYC 152100Z 16007KT 40SM FEW190 FEW220 08/M03 A3012 RMK AC1CI0 SLP239

CYYC;2008-10-15 22:00;CYYC 152200Z 18007KT 40SM FEW190 FEW220 08/M05 A3009 RMK AC1CI1 SLP232

CYYC;2008-10-15 23:00;CYYC 152300Z 18007KT 40SM FEW200 08/M05 A3008 RMK CI1 SLP229

CYYC;2008-10-16 00:00;CYYC 160000Z 16007KT 40SM FEW200 07/M04 A3007 RMK CI1 SLP227

CYYC;2008-10-16 01:00;CYYC 160100Z 14005KT 15SM FEW120 FEW240 04/M04 A3007 RMK AC1CI1 SLP226

CYYC;2008-10-16 02:00;CYYC 160200Z 13005KT 15SM FEW120 FEW240 04/M04 A3006 RMK AC1CI1 SLP224

CYYC;2008-10-16 03:00;CYYC 160300Z 14005KT 15SM FEW250 03/M04 A3005 RMK CI0 SLP224

CYYC;2008-10-16 03:06;CYYC 160306Z 14005KT 15SM FEW250 02/ RMK CI0

CYYC;2008-10-16 04:00;CYYC 160400Z 00000KT 15SM SCT240 01/M04 A3005 RMK CI1 SLP224

CYYC;2008-10-16 05:00;CYYC 160500Z 27002KT 15SM BKN210 M00/M04 A3004 RMK CS2 HALO SLP221

CYYC;2008-10-16 06:00;CYYC 160600Z 32004KT 15SM SCT180 OVC220 M00/M04 A3004 RMK AS2CS2 SLP212

CYYC;2008-10-16 07:00;CYYC 160700Z 36003KT 15SM SCT130 OVC220 M01/M04 A3003 RMK AS2CS2 SLP210

CYYC;2008-10-16 08:00;CYYC 160800Z 34002KT 15SM SCT140 OVC220 01/M06 A3003 RMK AS3CS2 SLP210

CYYC;2008-10-16 09:00;CYYC 160900Z 35005KT 15SM SCT140 BKN220 03/M06 A3004 RMK AS2CI2 SLP205

CYYC;2008-10-16 10:00;CYYC 161000Z 33008KT 15SM FEW140 BKN230 02/M07 A3004 RMK AC2CI5 SLP203

CYYC;2008-10-16 11:00;CYYC 161100Z 35007KT 15SM FEW160 BKN220 01/M07 A3004 RMK AC1CI4 SLP204

CYYC;2008-10-16 12:00;CYYC 161200Z 36008KT 15SM FEW140 BKN220 M00/M07 A3003 RMK AC1CI2 SLP208

CYYC;2008-10-16 13:00;CYYC 161300Z 34005KT 15SM BKN100 OVC230 01/M08 A3004 RMK AC5CI2 SLP211

CYYC;2008-10-16 14:00;CYYC 161400Z 35004KT 30SM BKN120 OVC230 00/M07 A3005 RMK AC5CI2 SLP214

CYYC;2008-10-16 15:00;CYYC 161500Z 03003KT 40SM FEW094 SCT120 BKN230 00/M06 A3006 RMK AC2AC1CI0 SLP220

CYYC;2008-10-16 16:00;CYYC 161600Z 34002KT 40SM FEW100 FEW130 FEW230 04/M06 A3006 RMK AC1AC1CI1 SLP222

CYYC;2008-10-16 17:00;CYYC 161700Z 26002KT 40SM FEW045 FEW140 FEW230 08/M05 A3006 RMK CU1AC1CI1 SLP223

CYYC;2008-10-16 18:00;CYYC 161800Z 27008KT 40SM FEW050 FEW120 FEW230 09/M07 A3005 RMK CU1AC1CI1 SLP212

CYYC;2008-10-16 19:00;CYYC 161900Z 27009G15KT 40SM FEW050 FEW110 10/M07 A3004 RMK CU1AC1 SLP208

CYYC;2008-10-16 20:00;CYYC 162000Z 27009KT 40SM FEW055 FEW075 11/M06 A3003 RMK CU1AC1 ACSL SW-NW SLP206

CYYC;2008-10-16 21:00;CYYC 162100Z 27012KT 40SM FEW060 FEW080 11/M05 A3003 RMK CU1AC1 SLP194

CYYC;2008-10-16 22:00;CYYC 162200Z 26012G18KT 40SM FEW060 FEW080 FEW210 12/M05 A3003 RMK CU1AC1CI1 SLP194

CYYC;2008-10-16 23:00;CYYC 162300Z 28015KT 40SM FEW060 FEW080 FEW210 11/M04 A3003 RMK CU1AC1CI1 SLP194

CYYC;2008-10-17 00:00;CYYC 170000Z 27009KT 40SM FEW060 BKN240 10/M04 A3001 RMK CU1CI2 SLP196

CYYC;2008-10-17 01:00;CYYC 170100Z 25011KT 40SM FEW060 BKN200 09/M04 A3001 RMK CU1CI2 SLP195

CYYC;2008-10-17 02:00;CYYC 170200Z 26007KT 15SM FEW050 BKN210 08/M04 A3002 RMK SC1CI2 SLP197

CYYC;2008-10-17 03:00;CYYC 170300Z 18003KT 15SM SCT120 BKN240 05/M03 A3001 RMK AC2CI2 SLP201

CYYC;2008-10-17 04:00;CYYC 170400Z 12002KT 15SM SCT100 OVC230 05/M03 A3000 RMK AC3CI2 SLP198

CYYC;2008-10-17 05:00;CYYC 170500Z 21007KT 15SM BKN100 OVC230 07/M03 A2998 RMK AC5CI2 SLP192

CYYC;2008-10-17 06:00;CYYC 170600Z 21005KT 15SM SCT090 BKN240 06/M03 A2996 RMK AC3CI2 SLP171

CYYC;2008-10-17 07:00;CYYC 170700Z 15002KT 15SM FEW100 BKN240 03/M02 A2994 RMK AC2CI3 SLP166

CYYC;2008-10-17 08:00;CYYC 170800Z 19004KT 15SM FEW090 BKN180 OVC220 06/M02 A2992 RMK AC1AC4CI2 SLP159

CYYC;2008-10-17 09:00;CYYC 170900Z 21003KT 15SM BKN120 OVC230 06/M02 A2991 RMK AC6CI2 SLP151

CYYC;2008-10-17 10:00;CYYC 171000Z 22006KT 15SM BKN130 OVC220 07/M02 A2990 RMK AC6CI2 SLP146

CYYC;2008-10-17 11:00;CYYC 171100Z 18005KT 15SM BKN120 OVC230 06/M01 A2987 RMK AC6CI2 SLP137

CYYC;2008-10-17 12:00;CYYC 171200Z 22015KT 15SM BKN160 OVC230 08/M01 A2985 RMK AC6CI2 SLP129

CYYC;2008-10-17 13:00;CYYC 171300Z 23007KT 15SM BKN140 OVC230 09/M01 A2987 RMK AC5CI2 SLP134

CYYC;2008-10-17 14:00;CYYC 171400Z 24005KT 30SM SCT160 BKN240 08/M00 A2987 RMK AC2CI1 SLP135

CYYC;2008-10-17 15:00;CYYC 171500Z 26003KT 40SM FEW032 FEW160 BKN240 08/M00 A2988 RMK CU1AC1CI3 SLP145

CYYC;2008-10-17 16:00;CYYC 171600Z 16003KT 40SM FEW048 SCT140 BKN240 12/01 A2988 RMK CU1AC3CI1 SLP147

CYYC;2008-10-17 17:00;CYYC 171700Z 18002KT 40SM FEW044 FEW140 SCT240 13/02 A2988 RMK CU1AC1CI1 SLP146

CYYC;2008-10-17 18:00;CYYC 171800Z 16004KT 40SM FEW056 FEW140 FEW240 17/03 A2987 RMK CU1AC1CI1 CI TR SLP129

CYYC;2008-10-17 19:00;CYYC 171900Z 23011G17KT 40SM FEW068 BKN140 19/02 A2986 RMK CU1AC2 SLP125

CYYC;2008-10-17 20:00;CYYC 172000Z 22006KT 40SM FEW068 FEW090 FEW240 20/03 A2985 RMK CU1AC1CI1 CI TR SLP121

CYYC;2008-10-17 21:00;CYYC 172100Z 27024G30KT 40SM FEW072 SCT090 19/01 A2984 RMK CU1AC2 SLP113

CYYC;2008-10-17 22:00;CYYC 172200Z 28021G28KT 40SM FEW072 SCT120 19/01 A2984 RMK CU1AC2 ACSL SLP113

CYYC;2008-10-17 23:00;CYYC 172300Z 29015KT 30SM FEW064 SCT120 18/02 A2985 RMK CU1AC2 SLP118

CYYC;2008-10-18 00:00;CYYC 180000Z 29016G22KT 30SM FEW056 BKN120 16/02 A2985 RMK CU1AC2 SLP120

CYYC;2008-10-18 01:00;CYYC 180100Z 27010KT 30SM FEW044 BKN120 13/02 A2985 RMK CU1AC2 SLP119

CYYC;2008-10-18 02:00;CYYC 180200Z 24007KT 15SM FEW100 BKN240 12/02 A2986 RMK AC2CI2 SLP123

CYYC;2008-10-18 03:00;CYYC 180300Z 07005KT 15SM FEW100 SCT250 08/02 A2985 RMK AC1CI0 SLP132

CYYC;2008-10-18 04:00;CYYC 180400Z 01003KT 15SM BKN200 09/02 A2987 RMK CI3 SLP136

CYYC;2008-10-18 05:00;CYYC 180500Z 24002KT 15SM FEW100 FEW220 08/02 A2987 RMK AC1CI1 SLP137

CYYC;2008-10-18 06:00;CYYC 180600Z 22004KT 15SM SCT240 08/02 A2987 RMK CI2 SLP125

CYYC;2008-10-18 07:00;CYYC 180700Z 01004KT 15SM FEW100 BKN240 07/02 A2987 RMK AC1CI2 SLP126

CYYC;2008-10-18 08:00;CYYC 180800Z 35009KT 15SM BKN230 06/01 A2988 RMK CI2 SLP128

CYYC;2008-10-18 09:00;CYYC 180900Z 35008KT 15SM SCT087 BKN230 06/01 A2989 RMK AC4CI2 SLP131

CYYC;2008-10-18 10:00;CYYC 181000Z 35010KT 15SM SCT110 BKN230 05/01 A2988 RMK AC4CI2 SLP129

CYYC;2008-10-18 11:00;CYYC 181100Z 35008KT 15SM SCT055 BKN110 BKN220 05/M01 A2989 RMK SC3AC2CI1 SLP133

CYYC;2008-10-18 12:00;CYYC 181200Z 36010KT 15SM BKN058 BKN100 OVC210 05/M02 A2991 RMK SC5AC2CI1 SLP144

CYYC;2008-10-18 13:00;CYYC 181300Z 36009KT 15SM BKN041 OVC100 04/M03 A2991 RMK SC6AC2 SLP144

CYYC;2008-10-18 14:00;CYYC 181400Z 36013KT 20SM FEW018 BKN044 OVC060 02/M00 A2991 RMK CU1SC6SC2 SLP145

CYYC;2008-10-18 15:00;CYYC 181500Z 34008KT 20SM FEW013 BKN046 OVC058 02/00 A2994 RMK SF1SC7SC1 SLP169

CYYC;2008-10-18 15:18;CYYC 181518Z 35009KT 10SM -RA FEW009 OVC045 02/ RMK SF2SC6

CYYC;2008-10-18 15:25;CYYC 181525Z CCA 35009KT 3SM -SHSN BKN008 BKN014 OVC038 01/ RMK SC5SC2SC2 CVCTV VLD EMBD / VIS N 11/2 + S 5 + W 2

CYYC;2008-10-18 15:37;CYYC 181537Z CCA 34007KT 10SM -SHSN SCT008 BKN025 OVC041 01/ RMK SC2SC2SC3 CVCTV CLD EMBD / VIS LWR S

CYYC;2008-10-18 16:00;CYYC 181600Z 32004KT 12SM -SN FEW005 BKN008 OVC025 02/01 A2991 RMK SF2SC5SC2 SLP162

CYYC;2008-10-18 17:00;CYYC 181700Z 36007KT 15SM -SN FEW004 BKN008 OVC028 02/02 A2996 RMK SF2SC5SC1 PCPN VRY LGT SLP175

CYYC;2008-10-18 17:23;CYYC 181723Z 02008KT 15SM FEW008 BKN011 BKN027 OVC035 02/ RMK SF1SC4SC2SC1

CYYC;2008-10-18 17:39;CYYC 181739Z 02007KT 20SM FEW011 SCT034 BKN250 02/ RMK SC2SC2CI2

CYYC;2008-10-18 18:00;CYYC 181800Z 36004KT 20SM FEW010 SCT034 BKN250 03/01 A2995 RMK SC2SC2CI2 SLP174

CYYC;2008-10-18 19:00;CYYC 181900Z 01005KT 25SM FEW011 SCT018 BKN038 BKN240 04/01 A2996 RMK SF1SC3SC2CI1 SLP175

CYYC;2008-10-18 20:00;CYYC 182000Z 01003KT 20SM BKN024 BKN230 05/00 A2995 RMK SC6CI1 SLP174

CYYC;2008-10-18 21:00;CYYC 182100Z 01002KT 20SM BKN030 BKN230 05/M01 A2996 RMK SC5CI1 SLP176

CYYC;2008-10-18 22:00;CYYC 182200Z 26002KT 20SM FEW031 FEW230 06/M01 A2995 RMK SC1CI1 SLP173

CYYC;2008-10-18 23:00;CYYC 182300Z 32002KT 20SM FEW032 FEW230 07/M01 A2997 RMK SC1CI1 SLP178

CYYC;2008-10-19 00:00;CYYC 190000Z 00000KT 20SM BKN037 BKN230 06/M01 A2998 RMK SC4CI1 SLP182

CYYC;2008-10-19 01:00;CYYC 190100Z 02004KT 20SM SCT035 BKN230 04/M00 A3000 RMK SC3CI0 SLP188

CYYC;2008-10-19 02:00;CYYC 190200Z 34004KT 15SM SCT035 BKN170 04/M01 A3002 RMK SC3AC0 SLP194

CYYC;2008-10-19 03:00;CYYC 190300Z 30002KT 15SM FEW053 BKN170 04/00 A3004 RMK SC2AC2 SLP209

CYYC;2008-10-19 04:00;CYYC 190400Z 05002KT 15SM FEW090 BKN140 OVC240 03/00 A3006 RMK AC2AC4CI1 SLP217

CYYC;2008-10-19 05:00;CYYC 190500Z 34007KT 15SM FEW056 BKN100 OVC150 02/00 A3010 RMK SC2AC3AC1 SLP228

CYYC;2008-10-19 05:17;CYYC 190517Z 36015G20KT 15SM -RA FEW018 BKN028 OVC058 03/ RMK SC2SC5SC1

CYYC;2008-10-19 06:00;CYYC 190600Z 01006KT 15SM -RA OVC027 02/01 A3013 RMK SC8 PCPN VRY LGT SLP246

CYYC;2008-10-19 07:00;CYYC 190700Z 35006KT 15SM OVC034 02/00 A3015 RMK SC8 SLP250

CYYC;2008-10-19 08:00;CYYC 190800Z 32003KT 15SM OVC040 02/M00 A3017 RMK SC8 SLP257

CYYC;2008-10-19 09:00;CYYC 190900Z 31005KT 15SM OVC048 02/M01 A3019 RMK SC8 SLP260

CYYC;2008-10-19 10:00;CYYC 191000Z 27002KT 15SM -SN OVC048 03/M03 A3019 RMK SC8 VRY LGT PCPN SLP261

CYYC;2008-10-19 10:35;CYYC 191035Z 27003KT 15SM OVC049 03/ RMK SC8

CYYC;2008-10-19 11:00;CYYC 191100Z 34005KT 15SM -SN OVC049 03/M02 A3021 RMK SC8 PCPN VRY LGT SLP266

CYYC;2008-10-19 11:43;CYYC 191143Z 33004KT 15SM OVC050 02/ RMK SC6

CYYC;2008-10-19 12:00;CYYC 191200Z 31003KT 15SM BKN051 02/M04 A3022 RMK SC6 SLP271

CYYC;2008-10-19 13:00;CYYC 191300Z 32002KT 15SM BKN050 BKN075 02/M06 A3024 RMK SC5AC2 SLP277

CYYC;2008-10-19 14:00;CYYC 191400Z 30002KT 40SM BKN048 BKN062 02/M05 A3025 RMK SC5SC2 SLP280

CYYC;2008-10-19 15:00;CYYC 191500Z 00000KT 40SM SCT048 BKN060 02/M06 A3026 RMK SC3SC4 SLP288

CYYC;2008-10-19 16:00;CYYC 191600Z 13004KT 40SM BKN046 03/M05 A3027 RMK SC7 SLP290

CYYC;2008-10-19 17:00;CYYC 191700Z 12006KT 40SM BKN042 03/M07 A3027 RMK SC7 SLP290

CYYC;2008-10-19 18:00;CYYC 191800Z 13006KT 40SM BKN040 04/M07 A3026 RMK SC7 SLP290

CYYC;2008-10-19 19:00;CYYC 191900Z 17009KT 40SM BKN042 05/M05 A3026 RMK SC7 SLP288

CYYC;2008-10-19 20:00;CYYC 192000Z 19013G18KT 40SM FEW040 FEW240 07/M05 A3023 RMK SC1CI1 SLP280

CYYC;2008-10-19 21:00;CYYC 192100Z 16012KT 40SM FEW250 07/M05 A3022 RMK CI1 SLP268

CYYC;2008-10-19 22:00;CYYC 192200Z 17013KT 40SM FEW250 07/M04 A3020 RMK CI1 SLP262

CYYC;2008-10-19 23:00;CYYC 192300Z 17010G16KT 40SM FEW140 BKN250 07/M03 A3019 RMK AC1CI1 SLP259

CYYC;2008-10-20 00:00;CYYC 200000Z 17011G16KT 30SM FEW120 BKN200 07/M02 A3017 RMK AC1CI1 SLP251

CYYC;2008-10-20 01:00;CYYC 200100Z 16010G15KT 15SM FEW200 05/M02 A3015 RMK CI0 SLP247

CYYC;2008-10-20 02:00;CYYC 200200Z 15010KT 15SM FEW200 04/M02 A3014 RMK CI1 SLP243

CYYC;2008-10-20 03:00;CYYC 200300Z 17011KT 15SM SKC 02/M02 A3013 RMK SLP244

CYYC;2008-10-20 04:00;CYYC 200400Z 16012KT 15SM SKC 02/M01 A3012 RMK SLP243

CYYC;2008-10-20 05:00;CYYC 200500Z 16013KT 15SM SKC 01/M02 A3009 RMK SLP234

CYYC;2008-10-20 06:00;CYYC 200600Z 16010KT 15SM SKC 00/M02 A3006 RMK SLP222

CYYC;2008-10-20 07:00;CYYC 200700Z 16009KT 15SM BKN240 M01/M02 A3002 RMK CI1 SLP209

CYYC;2008-10-20 08:00;CYYC 200800Z 16009KT 15SM SCT240 M01/M02 A3000 RMK CI1 SLP202

CYYC;2008-10-20 09:00;CYYC 200900Z 16009KT 15SM FEW180 BKN220 M02/M02 A2997 RMK AC2CI2 SLP187

CYYC;2008-10-20 10:00;CYYC 201000Z 16010KT 15SM BKN240 M01/M02 A2994 RMK CI5 SLP177

CYYC;2008-10-20 11:00;CYYC 201100Z 17010KT 15SM OVC220 M01/M02 A2990 RMK CI6 SLP165

CYYC;2008-10-20 12:00;CYYC 201200Z 18005KT 15SM BKN180 OVC220 M01/M01 A2987 RMK AC6CI2 SLP151

CYYC;2008-10-20 13:00;CYYC 201300Z 15003KT 15SM BKN170 OVC210 M01/M02 A2984 RMK AC6CI2 SLP141

CYYC;2008-10-20 14:00;CYYC 201400Z 18006KT 20SM SCT170 BKN240 M00/M01 A2980 RMK AC3CI2 SLP129

CYYC;2008-10-20 15:00;CYYC 201500Z 19005KT 40SM FEW040 SCT190 BKN240 00/M01 A2976 RMK CU1AC3CI3 SLP119

CYYC;2008-10-20 16:00;CYYC 201600Z 19005KT 40SM FEW040 SCT170 BKN240 01/M01 A2974 RMK CU1AC4CI3 SLP111

CYYC;2008-10-20 17:00;CYYC 201700Z 18004KT 40SM FEW040 BKN180 BKN220 04/M01 A2971 RMK CU1AC5CI2 SLP104

CYYC;2008-10-20 18:00;CYYC 201800Z 23004KT 40SM FEW040 SCT180 BKN240 08/M01 A2969 RMK CU1AC3CI2 SLP088

CYYC;2008-10-20 19:00;CYYC 201900Z 19003KT 30SM FEW040 SCT180 BKN250 11/00 A2966 RMK CU1AC2CI2 SLP078

CYYC;2008-10-20 20:00;CYYC 202000Z 23002KT 40SM FEW045 FEW180 SCT250 15/02 A2962 RMK CU1AC1CI2 SLP064

CYYC;2008-10-20 21:00;CYYC 202100Z 26007KT 20SM FEW045 SCT160 BKN250 16/M00 A2957 RMK CU1AC2CI2 SLP036

CYYC;2008-10-20 22:00;CYYC 202200Z 27009KT 30SM FEW045 FEW080 SCT170 OVC220 15/M02 A2957 RMK CU1AC1AC3CI2 SLP035

CYYC;2008-10-20 23:00;CYYC 202300Z 30007KT 30SM FEW045 SCT077 BKN170 BKN220 14/M01 A2957 RMK CU1AC3AC2CI2 SLP036

CYYC;2008-10-21 00:00;CYYC 210000Z 31007KT 20SM FEW045 FEW080 SCT170 BKN240 12/M02 A2956 RMK CU1AC1AC2CI1 SLP036

CYYC;2008-10-21 01:00;CYYC 210100Z 26013KT 15SM FEW040 SCT100 BKN240 11/M03 A2958 RMK SC1AC2CI1 SLP042

CYYC;2008-10-21 02:00;CYYC 210200Z 27024G31KT 15SM FEW080 SCT100 08/M02 A2961 RMK AC2AC2 SLP050

CYYC;2008-10-21 03:00;CYYC 210300Z 25019KT 15SM VCSH BKN080 BKN100 09/M03 A2963 RMK AC6AC1 VIRGA ALQDS SLP062

CYYC;2008-10-21 04:00;CYYC 210400Z 25013KT 15SM BKN090 07/M00 A2965 RMK AC6 VIRGA ALQDS SLP071

CYYC;2008-10-21 05:00;CYYC 210500Z 26015G20KT 15SM BKN110 06/M01 A2967 RMK AC6 SLP075

CYYC;2008-10-21 06:00;CYYC 210600Z 27014G19KT 15SM BKN160 07/M02 A2969 RMK AC6 SLP078

CYYC;2008-10-21 07:00;CYYC 210700Z 32011G18KT 15SM FEW090 BKN160 06/M02 A2975 RMK AC1AC6 AURBO SLP095

CYYC;2008-10-21 08:00;CYYC 210800Z 33008KT 15SM FEW090 BKN170 05/M03 A2979 RMK AC1AC4 SLP107

CYYC;2008-10-21 09:00;CYYC 210900Z 34012KT 15SM FEW060 FEW090 SCT170 04/M01 A2983 RMK SC1AC1AC2 SLP118

CYYC;2008-10-21 10:00;CYYC 211000Z 32008KT 15SM FEW060 FEW090 SCT170 03/M01 A2987 RMK SC1AC2AC0 SLP129

CYYC;2008-10-21 11:00;CYYC 211100Z 31007KT 15SM FEW060 BKN100 04/M01 A2990 RMK SC1AC6 SLP139

CYYC;2008-10-21 12:00;CYYC 211200Z 29006KT 15SM FEW060 BKN100 05/M01 A2994 RMK SC2AC5 SLP159

CYYC;2008-10-21 13:00;CYYC 211300Z CCA 30009KT 15SM FEW060 SCT100 BKN250 04/M01 A2997 RMK SC2AC2CI0 SH DIST S SLP168

CYYC;2008-10-21 14:00;CYYC 211400Z 28004KT 30SM FEW060 SCT100 BKN250 04/M02 A2999 RMK SC2AC2CI0 SH NE-E-SE+W-NW SLP176

CYYC;2008-10-21 14:16;CYYC 211416Z 26004KT 30SM -RASN BKN050 BKN100 04/ RMK SC5AC2

CYYC;2008-10-21 14:35;CYYC 211435Z 30003KT 30SM FEW060 SCT100 04/ RMK SC2AC2

CYYC;2008-10-21 15:00;CYYC 211500Z 23005KT 40SM FEW028 FEW080 04/M02 A3003 RMK CU1AC2 SH SE SLP197

CYYC;2008-10-21 16:00;CYYC 211600Z 23006KT 40SM FEW028 FEW080 SCT200 05/M03 A3006 RMK CU1AC2CI1 CU TR SLP207

CYYC;2008-10-21 17:00;CYYC 211700Z 27010KT 40SM FEW048 BKN110 BKN200 06/M05 A3009 RMK CU1AC4CI0 VIRGA ALQDS SLP216

CYYC;2008-10-21 18:00;CYYC 211800Z 01014KT 40SM FEW040 BKN100 07/M04 A3013 RMK CU1AC5 SH SW SLP231

CYYC;2008-10-21 19:00;CYYC 211900Z CCA 32010KT 40SM FEW056 FEW110 08/M06 A3015 RMK CU1AC1 SH S SLP239

CYYC;2008-10-21 19:56;CYYC 211956Z 31015G28KT 40SM -RASN FEW048 BKN100 07/ RMK CU1AC5 VIS NE 3 MI

CYYC;2008-10-21 20:00;CYYC 212000Z 29004G24KT 40SM FEW048 SCT100 07/M05 A3017 RMK CU1AC3 SH NE-E-SE SLP245

CYYC;2008-10-21 21:00;CYYC 212100Z 29013G19KT 40SM FEW068 09/M07 A3018 RMK CU1 SLP247

CYYC;2008-10-21 22:00;CYYC 212200Z 25014KT 40SM FEW068 10/M09 A3020 RMK CU1 SLP254

CYYC;2008-10-21 23:00;CYYC 212300Z 26019G24KT 40SM FEW072 09/M09 A3022 RMK CU1 SLP259

CYYC;2008-10-22 00:00;CYYC 220000Z 27019G24KT 30SM FEW064 FEW240 07/M09 A3025 RMK CU1CI1 SLP277

CYYC;2008-10-22 01:00;CYYC 220100Z 27016KT 20SM FEW060 FEW110 05/M10 A3027 RMK CU1AC1 SLP284

CYYC;2008-10-22 02:00;CYYC 220200Z 27018KT 15SM SKC 05/M10 A3030 RMK SLP293

CYYC;2008-10-22 03:00;CYYC 220300Z 27014KT 15SM SKC 04/M10 A3032 RMK SLP305

CYYC;2008-10-22 04:00;CYYC 220400Z 27014KT 15SM SKC 04/M10 A3034 RMK SLP311

CYYC;2008-10-22 05:00;CYYC 220500Z 27014KT 15SM SKC 04/M11 A3035 RMK SLP315

CYYC;2008-10-22 06:00;CYYC 220600Z 27012G17KT 15SM SKC 04/M11 A3036 RMK SLP315

CYYC;2008-10-22 07:00;CYYC 220700Z 31006KT 15SM SKC 03/M11 A3035 RMK SLP313

CYYC;2008-10-22 08:00;CYYC 220800Z 27007KT 15SM SKC 03/M11 A3037 RMK SLP318

CYYC;2008-10-22 09:00;CYYC 220900Z 14002KT 15SM SKC 03/M11 A3037 RMK SLP315

CYYC;2008-10-22 10:00;CYYC 221000Z 20007KT 15SM SKC M01/M10 A3035 RMK SLP310

CYYC;2008-10-22 11:00;CYYC 221100Z 20007KT 15SM SKC M00/M10 A3034 RMK SLP306

CYYC;2008-10-22 12:00;CYYC 221200Z 21003KT 15SM SKC M02/M10 A3033 RMK SLP313

CYYC;2008-10-22 13:00;CYYC 221300Z 20003KT 15SM SKC M02/M10 A3030 RMK SLP304

CYYC;2008-10-22 14:00;CYYC 221400Z 18002KT 15SM FEW030 FEW250 M03/M09 A3029 RMK SC1CI0 SLP302

CYYC;2008-10-22 15:00;CYYC 221500Z 19007KT 40SM FEW040 FEW100 M01/M06 A3028 RMK SC1AC1 SLP300

CYYC;2008-10-22 16:00;CYYC 221600Z 19004KT 40SM FEW080 FEW200 03/M08 A3026 RMK AC1CI1 SLP294

CYYC;2008-10-22 17:00;CYYC 221700Z 21004KT 40SM FEW150 SCT220 BKN250 06/M08 A3025 RMK AC1CI2CI0 SLP289

CYYC;2008-10-22 18:00;CYYC 221800Z 18007KT 40SM FEW140 FEW180 OVC220 08/M08 A3023 RMK AC1AC1CI2 SLP267

CYYC;2008-10-22 19:00;CYYC 221900Z 18008KT 40SM FEW180 FEW220 BKN260 10/M07 A3021 RMK AC1CI1CI0 SLP261

CYYC;2008-10-22 20:00;CYYC 222000Z 19009KT 40SM FEW240 13/M05 A3016 RMK CI1 SLP248

CYYC;2008-10-22 21:00;CYYC 222100Z 18008KT 40SM FEW250 15/M03 A3013 RMK CI1 SLP226

CYYC;2008-10-22 22:00;CYYC 222200Z 18010KT 40SM FEW180 FEW230 16/M02 A3010 RMK AC1CI1 SLP216

CYYC;2008-10-22 23:00;CYYC 222300Z 19008KT 40SM FEW120 BKN230 16/M02 A3007 RMK AC1CI0 SLP208

CYYC;2008-10-23 00:00;CYYC 230000Z 25004KT 40SM FEW100 BKN240 16/M02 A3005 RMK AC1CI0 SLP204

CYYC;2008-10-23 01:00;CYYC 230100Z 27003KT 15SM FEW060 BKN230 13/M03 A3003 RMK SC1CI0 SLP196

CYYC;2008-10-23 02:00;CYYC 230200Z 21005KT 15SM FEW140 BKN220 10/M03 A2999 RMK AC2CI2 SLP186

CYYC;2008-10-23 03:00;CYYC 230300Z 21002KT 15SM FEW180 BKN240 10/M03 A2996 RMK AC1CI2 SLP178

CYYC;2008-10-23 04:00;CYYC 230400Z 19007KT 15SM BKN240 08/M03 A2992 RMK CI2 SLP166

CYYC;2008-10-23 05:00;CYYC 230500Z 24004KT 15SM SCT240 08/M03 A2990 RMK CI1 SLP161

CYYC;2008-10-23 06:00;CYYC 230600Z 00000KT 15SM FEW240 05/M03 A2986 RMK CI1 SLP139

CYYC;2008-10-23 07:00;CYYC 230700Z 10003KT 15SM SCT240 04/M03 A2980 RMK CI2 SLP120

CYYC;2008-10-23 08:00;CYYC 230800Z 15005KT 15SM SCT240 04/M03 A2977 RMK CI2 SLP111

CYYC;2008-10-23 09:00;CYYC 230900Z 32007KT 15SM BKN240 07/M04 A2977 RMK CI2 SLP094

CYYC;2008-10-23 10:00;CYYC 231000Z 20010G15KT 15SM BKN240 07/M04 A2974 RMK CI2 SLP084

CYYC;2008-10-23 11:00;CYYC 231100Z 32003KT 15SM BKN240 09/M05 A2975 RMK CI2 SLP089

CYYC;2008-10-23 12:00;CYYC 231200Z CCA 29010G16KT 15SM BKN230 14/M06 A2976 RMK CI3 SLP080

CYYC;2008-10-23 13:00;CYYC 231300Z 30008KT 15SM FEW180 BKN240 11/M05 A2980 RMK AC1CI3 SLP093

CYYC;2008-10-23 14:00;CYYC 231400Z 02019G34KT 30SM FEW060 FEW160 BKN210 07/00 A2986 RMK SC1AC2CI1 SLP113

CYYC;2008-10-23 15:00;CYYC 231500Z 36006KT 40SM FEW065 FEW150 SCT190 BKN210 05/00 A2993 RMK SC1AC1AC2CI0 PRESRR SLP160

CYYC;2008-10-23 16:00;CYYC 231600Z 36012KT 40SM FEW070 FEW150 BKN240 06/01 A2995 RMK AC1AC1CC4 SLP165

CYYC;2008-10-23 17:00;CYYC 231700Z 36009KT 40SM FEW080 FEW140 BKN200 BKN240 06/01 A2995 RMK CU1AC2CC2CI1 SLP166

CYYC;2008-10-23 18:00;CYYC 231800Z 11003KT 40SM SCT100 SCT140 BKN240 07/01 A2997 RMK AC3AC1CI2 SLP177

CYYC;2008-10-23 19:00;CYYC 231900Z 19008KT 40SM FEW100 FEW140 BKN230 09/02 A2995 RMK AC2AC1CI3 SLP173

CYYC;2008-10-23 20:00;CYYC 232000Z 17009KT 40SM FEW100 FEW230 10/02 A2995 RMK AC1CI1 SLP171

CYYC;2008-10-23 21:00;CYYC 232100Z 17013KT 40SM FEW077 11/01 A2994 RMK AC1 SLP159

CYYC;2008-10-23 22:00;CYYC 232200Z 18013G18KT 40SM FEW060 12/00 A2994 RMK CU1 SLP158

CYYC;2008-10-23 23:00;CYYC 232300Z 27015G22KT 40SM FEW060 12/M08 A2996 RMK CU1 SLP165

CYYC;2008-10-24 00:00;CYYC 240000Z 26013KT 40SM SKC 11/M08 A2998 RMK SLP162

CYYC;2008-10-24 01:00;CYYC 240100Z 25008KT 40SM SKC 09/M08 A2998 RMK SLP164

CYYC;2008-10-24 02:00;CYYC 240200Z 22005KT 15SM SKC 07/M08 A2998 RMK SLP163

CYYC;2008-10-24 03:00;CYYC 240300Z 23003KT 15SM SKC 06/M08 A2998 RMK SLP185

CYYC;2008-10-24 04:00;CYYC 240400Z 27007KT 15SM SKC 05/M09 A2999 RMK SLP187

CYYC;2008-10-24 05:00;CYYC 240500Z 26009KT 15SM SKC 07/M09 A2999 RMK SLP187

CYYC;2008-10-24 06:00;CYYC 240600Z 10002KT 15SM SKC 08/M09 A2999 RMK SLP182

CYYC;2008-10-24 07:00;CYYC 240700Z 10003KT 15SM FEW240 08/M10 A2996 RMK CI1 CI TR SLP173

CYYC;2008-10-24 08:00;CYYC 240800Z 20007KT 15SM SCT220 03/M08 A2995 RMK CI3 SLP170

CYYC;2008-10-24 09:00;CYYC 240900Z 18008KT 15SM FEW180 BKN240 04/M08 A2989 RMK AC2CI2 SLP145

CYYC;2008-10-24 10:00;CYYC 241000Z 20009KT 15SM SCT180 BKN230 04/M08 A2988 RMK AC3CI2 SLP142

CYYC;2008-10-24 11:00;CYYC 241100Z 18006KT 15SM SCT160 BKN230 03/M07 A2986 RMK AC3CI2 SLP137

CYYC;2008-10-24 12:00;CYYC 241200Z 00000KT 15SM SCT160 OVC220 05/M09 A2984 RMK AC3CI2 SLP126

CYYC;2008-10-24 13:00;CYYC 241300Z 00000KT 15SM SCT130 OVC220 05/M10 A2984 RMK AC3CI3 SLP126

CYYC;2008-10-24 14:00;CYYC 241400Z 20002KT 30SM BKN130 06/M08 A2981 RMK AC6 SLP117

CYYC;2008-10-24 15:00;CYYC 241500Z 25013G18KT 40SM FEW076 BKN140 BKN180 11/M08 A2981 RMK CU1AC5AC2 SLP115

CYYC;2008-10-24 16:00;CYYC 241600Z 27012G17KT 40SM FEW064 FEW140 BKN180 BKN220 11/M06 A2981 RMK CU1AC2AC3CI2 SLP116

CYYC;2008-10-24 17:00;CYYC 241700Z 27014KT 40SM FEW064 FEW090 BKN180 BKN220 11/M05 A2981 RMK CU1AC2AC3CI2 SLP116

CYYC;2008-10-24 18:00;CYYC 241800Z 25011KT 40SM FEW060 FEW090 SCT180 BKN220 12/M04 A2980 RMK CU1AC2AC2CI2 SLP109

CYYC;2008-10-24 19:00;CYYC 241900Z 26015G21KT 40SM FEW064 FEW090 BKN220 12/M04 A2977 RMK CU1AC1CI6 SLP100

CYYC;2008-10-24 20:00;CYYC 242000Z 24011KT 40SM FEW072 FEW180 BKN220 14/M04 A2974 RMK CU1AC2CI3 SLP091

CYYC;2008-10-24 21:00;CYYC 242100Z 19005KT 40SM FEW072 FEW180 BKN200 14/M04 A2972 RMK CU1AC2CI3 SLP082

CYYC;2008-10-24 22:00;CYYC 242200Z 27026G34KT 30SM FEW084 FEW160 BKN200 15/M06 A2970 RMK CU1AC2CI3 SLP077

CYYC;2008-10-24 23:00;CYYC 242300Z 27020G27KT 30SM FEW080 FEW140 BKN220 15/M06 A2969 RMK CU1AC2CI2 SLP073

CYYC;2008-10-25 00:00;CYYC 250000Z 27012KT 30SM FEW072 FEW140 BKN200 12/M05 A2968 RMK CU1AC2CI1 SLP071

CYYC;2008-10-25 01:00;CYYC 250100Z CCA 26015KT 15SM FEW064 FEW140 SCT200 11/M05 A2969 RMK CU1AC1CI0 SLP072

CYYC;2008-10-25 02:00;CYYC 250200Z 30004KT 15SM FEW070 09/M05 A2969 RMK AC1 SLP073

CYYC;2008-10-25 03:00;CYYC 250300Z 29009KT 15SM FEW099 09/M05 A2968 RMK AC1 SLP067

CYYC;2008-10-25 04:00;CYYC 250400Z 30007KT 15SM FEW100 08/M04 A2968 RMK AC1 SLP066

CYYC;2008-10-25 05:00;CYYC 250500Z 26007KT 15SM FEW100 08/M05 A2968 RMK AC1 AC TR SLP065

CYYC;2008-10-25 06:00;CYYC 250600Z 28008KT 15SM FEW100 08/M04 A2967 RMK AC1 AC TR SLP064

CYYC;2008-10-25 07:00;CYYC 250700Z 26007KT 15SM FEW100 08/M05 A2967 RMK AC1 SLP063

CYYC;2008-10-25 08:00;CYYC 250800Z 24005KT 15SM FEW100 07/M05 A2967 RMK AC1 AC TR SLP064

CYYC;2008-10-25 09:00;CYYC 250900Z 29011G16KT 15SM FEW100 09/M05 A2968 RMK AC1 AC TR SLP064

CYYC;2008-10-25 10:00;CYYC 251000Z 29012KT 15SM FEW085 08/M05 A2969 RMK AC1 SLP067

CYYC;2008-10-25 11:00;CYYC 251100Z 28013KT 15SM FEW085 08/M05 A2971 RMK AC1 SLP071

CYYC;2008-10-25 12:00;CYYC 251200Z CCA 28014G20KT 15SM FEW090 07/M05 A2973 RMK AC1 SLP084

CYYC;2008-10-25 13:00;CYYC 251300Z 35008KT 15SM SCT095 02/M05 A2977 RMK AC3 VIRGA S SLP095

CYYC;2008-10-25 14:00;CYYC 251400Z 03006KT 20SM FEW025 FEW100 SCT130 01/M05 A2980 RMK CU1AC1AC2 SLP106

CYYC;2008-10-25 15:00;CYYC 251500Z 00000KT 20SM FEW032 FEW100 02/M06 A2983 RMK CU1AC1 SLP130

CYYC;2008-10-25 16:00;CYYC 251600Z 01007KT 40SM FEW036 FEW100 04/M05 A2984 RMK CU1AC1 SLP134

CYYC;2008-10-25 17:00;CYYC 251700Z 27024G35KT 40SM FEW050 FEW120 08/M11 A2985 RMK CU1AC1 SLP136

CYYC;2008-10-25 18:00;CYYC 251800Z 26020G28KT 40SM FEW050 FEW120 09/M11 A2985 RMK CU1AC1 SLP130

CYYC;2008-10-25 19:00;CYYC 251900Z 27022G32KT 40SM FEW050 SCT110 08/M13 A2985 RMK CU1AC2 SH N-NE SLP131

CYYC;2008-10-25 20:00;CYYC 252000Z 28026G34KT 40SM FEW050 SCT110 09/M12 A2987 RMK CU1AC3 SH NW-SE SLP136

CYYC;2008-10-25 20:19;CYYC 252019Z 34026G32KT 40SM FEW030 BKN090 06/ RMK CU1AC5 SH NW-SE / WSHFT 2008Z

CYYC;2008-10-25 21:00;CYYC 252100Z 01021KT 40SM FEW030 BKN100 03/M06 A2995 RMK CU1AC4 SH E SLP171

CYYC;2008-10-25 22:00;CYYC 252200Z 36020G25KT 40SM FEW050 BKN100 03/M10 A2998 RMK CU1AC3 VIRGA SLP181

CYYC;2008-10-25 23:00;CYYC 252300Z 36016KT 40SM FEW050 SCT120 03/M14 A3003 RMK CU1AC1 SLP194

CYYC;2008-10-26 00:00;CYYC 260000Z 01012KT 40SM FEW050 FEW120 02/M15 A3006 RMK SC1AC1 SLP216

CYYC;2008-10-26 01:00;CYYC 260100Z 35008KT 40SM FEW050 FEW090 FEW220 M00/M15 A3011 RMK SC1AC1CI1 SLP230

CYYC;2008-10-26 02:00;CYYC 260200Z 33005KT 15SM FEW120 M01/M15 A3016 RMK AC1 SLP246

CYYC;2008-10-26 03:00;CYYC 260300Z 34007KT 15SM FEW120 M02/M15 A3021 RMK AC1 SLP279

CYYC;2008-10-26 04:00;CYYC 260400Z 33007KT 15SM FEW120 M02/M14 A3026 RMK AC1 SLP293

CYYC;2008-10-26 05:00;CYYC 260500Z 36013G20KT 15SM FEW120 M04/M09 A3033 RMK AC1 SLP315

CYYC;2008-10-26 06:00;CYYC 260600Z 34007KT 15SM SKC M05/M09 A3039 RMK PRESRR SLP338

CYYC;2008-10-26 06:41;CYYC 260641Z 33007KT 15SM BKN032 M05/ RMK SC5

CYYC;2008-10-26 07:00;CYYC 260700Z 32009KT 15SM SCT035 M05/M09 A3044 RMK SC3 SLP353

CYYC;2008-10-26 08:00;CYYC 260800Z 34014KT 15SM FEW040 M04/M09 A3048 RMK SC2 SLP364

CYYC;2008-10-26 09:00;CYYC 260900Z 33014G20KT 15SM FEW050 M03/M12 A3053 RMK SC2 SLP390

CYYC;2008-10-26 10:00;CYYC 261000Z 31010KT 15SM FEW060 M04/M12 A3056 RMK SC1 SLP400

CYYC;2008-10-26 11:00;CYYC 261100Z 30007KT 15SM FEW050 M05/M13 A3058 RMK SC1 SLP406

CYYC;2008-10-26 12:00;CYYC 261200Z 31007KT 15SM FEW050 M06/M13 A3060 RMK SC1 SLP420

CYYC;2008-10-26 13:00;CYYC 261300Z 24003KT 15SM FEW050 M06/M13 A3062 RMK SC1 SLP426

CYYC;2008-10-26 14:00;CYYC 261400Z 28004KT 40SM FEW050 M06/M14 A3063 RMK SC1 SLP430

CYYC;2008-10-26 15:00;CYYC 261500Z 00000KT 40SM FEW050 M08/M13 A3064 RMK SC1 SLP442

CYYC;2008-10-26 16:00;CYYC 261600Z 24003KT 40SM FEW240 M04/M13 A3065 RMK CI1 SLP446

CYYC;2008-10-26 17:00;CYYC 261700Z 17003KT 40SM FEW120 FEW250 M02/M16 A3065 RMK AC1CI1 SLP445

CYYC;2008-10-26 18:00;CYYC 261800Z 14007KT 40SM FEW200 FEW250 M01/M14 A3063 RMK CI1CI0 SLP434

CYYC;2008-10-26 19:00;CYYC 261900Z 16012G18KT 40SM FEW250 00/M14 A3060 RMK CI0 CONTRAIL SLP424

CYYC;2008-10-26 20:00;CYYC 262000Z 17012KT 40SM FEW250 01/M13 A3057 RMK CI1 SLP416

CYYC;2008-10-26 21:00;CYYC 262100Z 17009G17KT 40SM FEW200 FEW250 01/M10 A3054 RMK CI1CI1 SLP397

CYYC;2008-10-26 22:00;CYYC 262200Z 15009G15KT 40SM FEW200 FEW250 02/M12 A3051 RMK CI1CI0 SLP389

CYYC;2008-10-26 23:00;CYYC 262300Z 16010G15KT 40SM FEW180 FEW240 02/M11 A3049 RMK AC1CI0 SLP381

CYYC;2008-10-27 00:00;CYYC 270000Z 16013KT 40SM FEW200 FEW250 01/M12 A3047 RMK CI1CI0 SLP376

CYYC;2008-10-27 01:00;CYYC 270100Z 16009KT 15SM FEW200 FEW250 M00/M13 A3044 RMK CI1CI0 SLP368

CYYC;2008-10-27 02:00;CYYC 270200Z 17010KT 15SM SKC M01/M13 A3043 RMK SLP364

CYYC;2008-10-27 03:00;CYYC 270300Z 17011KT 15SM SKC M02/M13 A3041 RMK SLP364

CYYC;2008-10-27 04:00;CYYC 270400Z 18010KT 15SM SKC M03/M13 A3039 RMK SLP357

CYYC;2008-10-27 05:00;CYYC 270500Z 17007KT 15SM SKC M04/M13 A3037 RMK SLP351

CYYC;2008-10-27 06:00;CYYC 270600Z 17006KT 15SM FEW140 M03/M13 A3034 RMK AC1 SLP329

CYYC;2008-10-27 07:00;CYYC 270700Z 19006KT 15SM SKC M04/M12 A3032 RMK SLP323

CYYC;2008-10-27 08:00;CYYC 270800Z 20007KT 15SM SKC M04/M12 A3029 RMK SLP314

CYYC;2008-10-27 09:00;CYYC 270900Z 23002KT 15SM SKC M04/M12 A3027 RMK SLP305

CYYC;2008-10-27 10:00;CYYC 271000Z 21006KT 15SM SKC M04/M11 A3026 RMK SLP300

CYYC;2008-10-27 11:00;CYYC 271100Z 19005KT 15SM SKC M04/M11 A3025 RMK SLP296

CYYC;2008-10-27 12:00;CYYC 271200Z 20003KT 15SM SKC M04/M10 A3023 RMK SLP291

CYYC;2008-10-27 13:00;CYYC 271300Z 00000KT 15SM SKC M03/M10 A3023 RMK SLP289

CYYC;2008-10-27 14:00;CYYC 271400Z 20006KT 20SM FEW120 FEW230 M01/M10 A3021 RMK AC1CI0 AC TR SLP285

CYYC;2008-10-27 15:00;CYYC 271500Z 00000KT 40SM FEW120 FEW230 M02/M09 A3021 RMK AC1CI0 AC TR SLP286

CYYC;2008-10-27 16:00;CYYC 271600Z 00000KT 40SM FEW240 04/M08 A3022 RMK CI1 CI TR SLP289

CYYC;2008-10-27 17:00;CYYC 271700Z 00000KT 40SM FEW240 08/M09 A3023 RMK CI1 CI TR SLP290

CYYC;2008-10-27 18:00;CYYC 271800Z 24005KT 40SM FEW250 11/M09 A3021 RMK CI1 CI TR SLP269

CYYC;2008-10-27 19:00;CYYC 271900Z 19003KT 40SM FEW250 16/M10 A3020 RMK CI0 SLP265

CYYC;2008-10-27 20:00;CYYC 272000Z 17005KT 40SM SCT240 17/M10 A3019 RMK CI2 SLP262

CYYC;2008-10-27 21:00;CYYC 272100Z CCA 19004KT 40SM BKN240 17/M08 A3018 RMK CI1 SLP251

CYYC;2008-10-27 22:00;CYYC 272200Z 14004KT 40SM BKN250 17/M07 A3018 RMK CI2 SLP250

CYYC;2008-10-27 23:00;CYYC 272300Z 14004KT 40SM FEW220 BKN250 16/M07 A3018 RMK CI1CI1 SLP251

CYYC;2008-10-28 00:00;CYYC 280000Z 19006KT 40SM FEW200 BKN250 15/M08 A3018 RMK CI1CI1 SLP254

CYYC;2008-10-28 01:00;CYYC 280100Z 19002KT 40SM SCT250 12/M09 A3019 RMK CI0 SLP257

CYYC;2008-10-28 02:00;CYYC 280200Z 26004KT 15SM FEW250 10/M09 A3020 RMK CI0 SLP259

CYYC;2008-10-28 03:00;CYYC 280300Z 29003KT 15SM SKC 06/M06 A3020 RMK SLP271

CYYC;2008-10-28 04:00;CYYC 280400Z 00000KT 15SM SKC 04/M08 A3021 RMK SLP272

CYYC;2008-10-28 05:00;CYYC 280500Z 15002KT 15SM SKC 05/M08 A3021 RMK SLP273

CYYC;2008-10-28 06:00;CYYC 280600Z 21006KT 15SM SKC 04/M08 A3021 RMK SLP258

CYYC;2008-10-28 07:00;CYYC 280700Z 21005KT 15SM SKC 03/M08 A3021 RMK SLP257

CYYC;2008-10-28 08:00;CYYC 280800Z 23005KT 15SM SKC 02/M08 A3021 RMK SLP256

CYYC;2008-10-28 09:00;CYYC 280900Z 00000KT 15SM FEW250 01/M07 A3021 RMK CI1 SLP254

CYYC;2008-10-28 10:00;CYYC 281000Z 19003KT 15SM FEW220 01/M07 A3019 RMK CI1 SLP248

CYYC;2008-10-28 11:00;CYYC 281100Z 01003KT 15SM SKC M00/M07 A3019 RMK SLP248

CYYC;2008-10-28 12:00;CYYC 281200Z 00000KT 15SM FEW230 M01/M07 A3016 RMK CI0 SLP244

CYYC;2008-10-28 13:00;CYYC 281300Z 23003KT 15SM BKN250 01/M07 A3015 RMK CI2 SLP240

CYYC;2008-10-28 14:00;CYYC 281400Z 18002KT 20SM BKN240 01/M06 A3014 RMK CI2 SLP236

CYYC;2008-10-28 15:00;CYYC 281500Z 20002KT 40SM BKN240 03/M06 A3013 RMK CI2 SLP239

CYYC;2008-10-28 16:00;CYYC 281600Z 06002KT 30SM FEW180 BKN240 07/M04 A3013 RMK AC2CI2 SLP239

CYYC;2008-10-28 17:00;CYYC 281700Z 23003KT 30SM FEW180 BKN250 11/M05 A3012 RMK AC2CI3 SLP235

CYYC;2008-10-28 18:00;CYYC 281800Z 20007KT 30SM FEW180 BKN240 14/M04 A3010 RMK AC2CI2 SLP215

CYYC;2008-10-28 19:00;CYYC 281900Z 20003KT 40SM FEW180 BKN220 13/M03 A3009 RMK AC2CI4 SLP211

CYYC;2008-10-28 20:00;CYYC 282000Z 00000KT 40SM OVC200 13/M03 A3007 RMK CI5 SLP205

CYYC;2008-10-28 21:00;CYYC 282100Z 21003KT 40SM FEW180 OVC220 13/M02 A3006 RMK AC2CI4 SLP204

CYYC;2008-10-28 22:00;CYYC 282200Z 20005KT 40SM FEW180 OVC220 11/M02 A3005 RMK AC1CI5 SLP201

CYYC;2008-10-28 23:00;CYYC 282300Z 22002KT 30SM OVC240 11/M02 A3004 RMK CI7 SLP198

CYYC;2008-10-29 00:00;CYYC 290000Z 25002KT 30SM FEW180 OVC240 11/M02 A3002 RMK AC1CI6 SLP199

CYYC;2008-10-29 01:00;CYYC 290100Z 00000KT 15SM OVC240 09/M01 A3001 RMK CI6 SLP197

CYYC;2008-10-29 02:00;CYYC 290200Z 00000KT 15SM BKN240 09/M01 A3000 RMK CI4 SLP194

CYYC;2008-10-29 03:00;CYYC 290300Z 05002KT 15SM BKN240 09/M01 A2999 RMK CI5 SLP185

CYYC;2008-10-29 04:00;CYYC 290400Z 26006KT 15SM BKN240 10/M02 A2997 RMK CI5 SLP179

CYYC;2008-10-29 05:00;CYYC 290500Z 30003KT 15SM FEW190 BKN240 11/M02 A2996 RMK AC1CI3 SLP177

CYYC;2008-10-29 06:00;CYYC 290600Z 36005KT 15SM FEW190 BKN240 08/M02 A2995 RMK AC1CI3 SLP158

CYYC;2008-10-29 07:00;CYYC 290700Z 31007KT 15SM FEW190 BKN240 14/M05 A2995 RMK AC1CI3 SLP158

CYYC;2008-10-29 08:00;CYYC 290800Z 30012G17KT 15SM FEW190 BKN240 16/M05 A2993 RMK AC1CI2 SLP152

CYYC;2008-10-29 09:00;CYYC 290900Z 29005KT 15SM FEW160 BKN240 14/M05 A2992 RMK AC2CI2 SLP140

CYYC;2008-10-29 10:00;CYYC 291000Z 23002KT 15SM FEW180 BKN240 10/M04 A2990 RMK AC2CI3 SLP135

CYYC;2008-10-29 11:00;CYYC 291100Z 22004KT 15SM FEW160 OVC240 08/M03 A2988 RMK AC1CI4 SLP128

CYYC;2008-10-29 12:00;CYYC 291200Z 19003KT 15SM OVC230 07/M03 A2986 RMK CI6 SLP133

CYYC;2008-10-29 13:00;CYYC 291300Z 35004KT 15SM FEW160 OVC240 06/M03 A2985 RMK AC1CI4 SLP130

CYYC;2008-10-29 14:00;CYYC 291400Z 22006KT 40SM FEW160 SCT210 BKN260 06/M03 A2985 RMK AC1CI0CI0 SLP127

CYYC;2008-10-29 15:00;CYYC 291500Z 08008KT 40SM FEW120 FEW180 SCT220 07/M03 A2982 RMK AC1AC1CI0 SLP121

CYYC;2008-10-29 16:00;CYYC 291600Z 30002KT 40SM FEW180 FEW220 09/M02 A2982 RMK AC1CI1 SLP119

CYYC;2008-10-29 17:00;CYYC 291700Z 22002KT 40SM FEW160 FEW220 14/M01 A2979 RMK AC1CI1 SLP111

CYYC;2008-10-29 18:00;CYYC 291800Z 17006KT 40SM FEW090 FEW180 BKN220 BKN250 17/M01 A2977 RMK AC1AC2CI1CI0 HZ SW+N SLP091

CYYC;2008-10-29 19:00;CYYC 291900Z 20006KT 40SM FEW050 BKN100 BKN220 18/M01 A2975 RMK SC1AC4CI2 HZ N SLP084

CYYC;2008-10-29 20:00;CYYC 292000Z 00000KT 40SM FEW080 BKN100 BKN240 18/M00 A2971 RMK AC1AC6CI1 HZ N DSIPTNG SLP073

CYYC;2008-10-29 21:00;CYYC 292100Z 00000KT 40SM SCT100 BKN180 BKN240 17/00 A2968 RMK AC3AC4CI1 SLP052

CYYC;2008-10-29 22:00;CYYC 292200Z 00000KT 40SM FEW070 SCT100 BKN180 16/M00 A2967 RMK AC1AC3AC4 SLP049

CYYC;2008-10-29 23:00;CYYC 292300Z 24002KT 40SM FEW060 BKN100 BKN170 20/M05 A2966 RMK SC1AC5AC2 SLP045

CYYC;2008-10-30 00:00;CYYC 300000Z 00000KT 40SM FEW060 FEW120 BKN220 OVC250 17/M06 A2967 RMK SC1AC1CI0CI0 VIRGA E SLP057

CYYC;2008-10-30 01:00;CYYC 300100Z 29006KT 15SM FEW050 BKN100 BKN220 16/M10 A2967 RMK SC2AC3CI0 SLP058

CYYC;2008-10-30 02:00;CYYC 300200Z 30022G28KT 15SM FEW250 16/M10 A2967 RMK CI0 SLP057

CYYC;2008-10-30 03:00;CYYC 300300Z 29016G24KT 15SM FEW240 15/M09 A2969 RMK CI1 SLP067

CYYC;2008-10-30 04:00;CYYC 300400Z 29010G19KT 15SM SCT240 15/M09 A2972 RMK CI1 SLP077

CYYC;2008-10-30 05:00;CYYC 300500Z 26019G24KT 15SM FEW240 14/M09 A2974 RMK CI0 SLP083

CYYC;2008-10-30 06:00;CYYC 300600Z 27010G15KT 15SM SKC 12/M09 A2978 RMK SLP086

CYYC;2008-10-30 07:00;CYYC 300700Z 34015G20KT 15SM FEW220 05/M02 A2988 RMK CI1 SLP119

CYYC;2008-10-30 08:00;CYYC 300800Z 36013KT 15SM FEW220 03/M02 A2991 RMK CI1 CI TR SLP128

CYYC;2008-10-30 09:00;CYYC 300900Z 35008KT 15SM FEW220 02/M02 A2995 RMK CI1 CI TR SLP160

CYYC;2008-10-30 10:00;CYYC 301000Z 29002KT 15SM FEW220 01/M02 A2998 RMK CI1 CI TR SLP170

CYYC;2008-10-30 11:00;CYYC 301100Z 23003KT 15SM FEW240 00/M02 A3001 RMK CI1 SLP178

CYYC;2008-10-30 12:00;CYYC 301200Z 24004KT 15SM BKN210 00/M02 A3002 RMK CI4 SLP188

CYYC;2008-10-30 13:00;CYYC 301300Z 00000KT 15SM SCT220 M02/M04 A3004 RMK CI2 SLP193

CYYC;2008-10-30 14:00;CYYC 301400Z 05002KT 30SM SCT220 M02/M04 A3005 RMK CI1 SLP196

CYYC;2008-10-30 15:00;CYYC 301500Z 01003KT 30SM SCT210 BKN260 M03/M05 A3006 RMK CI2CI0 SLP207

CYYC;2008-10-30 16:00;CYYC 301600Z 00000KT 30SM FEW100 FEW210 BKN260 M01/M03 A3006 RMK AC1CI2CI1 SLP209

CYYC;2008-10-30 17:00;CYYC 301700Z 17004KT 30SM FEW100 FEW210 BKN260 03/M02 A3006 RMK AC1CI1CI1 SLP209

CYYC;2008-10-30 18:00;CYYC 301800Z 14007KT 40SM FEW110 FEW210 OVC260 04/M03 A3006 RMK AC1CI2CI3 SLP205

CYYC;2008-10-30 19:00;CYYC 301900Z 15010KT 40SM FEW110 BKN220 OVC260 04/M04 A3005 RMK AC1CI4CI1 SLP201

CYYC;2008-10-30 20:00;CYYC 302000Z 17011KT 40SM FEW095 BKN200 BKN260 05/M04 A3005 RMK AC1CI4CI1 ACSL ASOCTD SW + NW SLP200

CYYC;2008-10-30 21:00;CYYC 302100Z 17012KT 40SM FEW090 FEW200 BKN260 06/M04 A3003 RMK AC1CC2CI0 SLP205

CYYC;2008-10-30 22:00;CYYC 302200Z 15011KT 40SM FEW090 FEW200 BKN260 06/M03 A3003 RMK AC1CC2CI0 SLP204

CYYC;2008-10-30 23:00;CYYC 302300Z 17009KT 30SM FEW090 FEW180 BKN240 06/M03 A3003 RMK AC1AC2CI1 SLP206

CYYC;2008-10-31 00:00;CYYC 310000Z 14007KT 30SM FEW040 FEW180 OVC240 05/M03 A3004 RMK SC1AC1CI1 SLP211

CYYC;2008-10-31 01:00;CYYC 310100Z 13007KT 20SM FEW040 FEW140 BKN240 03/M04 A3006 RMK SC1AC2CI1 SLP219

CYYC;2008-10-31 02:00;CYYC 310200Z 14008KT 15SM FEW097 FEW240 02/M03 A3006 RMK AC2CI0 SLP220

CYYC;2008-10-31 03:00;CYYC 310300Z 13008KT 15SM FEW092 FEW140 FEW240 02/M03 A3007 RMK AC1AC1CI1 SLP232

CYYC;2008-10-31 04:00;CYYC 310400Z 12006KT 15SM FEW140 FEW240 01/M03 A3009 RMK AC1CI1 SLP239

CYYC;2008-10-31 05:00;CYYC 310500Z 15005KT 15SM FEW140 FEW230 M01/M03 A3009 RMK AC1CI1 SLP239

CYYC;2008-10-31 06:00;CYYC 310600Z 16005KT 15SM FEW140 SCT230 M01/M03 A3011 RMK AC1CI0 SLP238

CYYC;2008-10-31 07:00;CYYC 310700Z CCA 19005KT 15SM FEW150 BKN250 01/M03 A3011 RMK AC2CI1 SLP238

CYYC;2008-10-31 08:00;CYYC 310800Z 21006KT 15SM SCT180 BKN250 01/M03 A3011 RMK AC2CI2 SLP238

CYYC;2008-10-31 09:00;CYYC 310900Z 20006KT 15SM FEW180 BKN230 01/M02 A3010 RMK AC1CI2 SLP231

CYYC;2008-10-31 10:00;CYYC 311000Z 21007KT 15SM FEW140 BKN230 01/M02 A3009 RMK AC1CI2 SLP227

CYYC;2008-10-31 11:00;CYYC 311100Z 19007KT 15SM FEW160 BKN230 02/M02 A3008 RMK AC2CI2 SLP224

CYYC;2008-10-31 12:00;CYYC 311200Z 22005KT 15SM SCT150 OVC230 02/M02 A3008 RMK AC3CI2 SLP223

CYYC;2008-10-31 13:00;CYYC 311300Z 20008KT 15SM BKN140 OVC230 04/M02 A3006 RMK AC5CI2 SLP218

CYYC;2008-10-31 14:00;CYYC 311400Z 21009KT 15SM SCT120 BKN160 OVC230 04/M02 A3006 RMK AC4AC2CI0 SLP219

CYYC;2008-10-31 15:00;CYYC 311500Z 22006KT 20SM BKN140 OVC240 05/M02 A3007 RMK AC6CI0 SLP222

CYYC;2008-10-31 16:00;CYYC 311600Z 00000KT 30SM SCT140 BKN240 08/M00 A3007 RMK AC3CI2 SLP221

CYYC;2008-10-31 17:00;CYYC 311700Z 22002KT 30SM FEW100 BKN140 BKN240 10/00 A3006 RMK AC2AC3CI1 SLP218

CYYC;2008-10-31 18:00;CYYC 311800Z 18004KT 30SM FEW100 SCT120 BKN220 12/01 A3006 RMK AC2AC2CI1 SLP209

CYYC;2008-10-31 19:00;CYYC 311900Z 00000KT 30SM FEW100 SCT120 BKN220 15/02 A3004 RMK AC2AC2CI2 SLP202

CYYC;2008-10-31 20:00;CYYC 312000Z 18004KT 30SM SCT100 BKN120 BKN220 15/02 A3002 RMK AC4AC1CI0 SLP198

CYYC;2008-10-31 21:00;CYYC 312100Z 17005KT 25SM FEW100 OVC240 16/02 A3001 RMK AC2CI1 SLP186

CYYC;2008-10-31 22:00;CYYC 312200Z 17005KT 25SM SCT110 OVC250 15/02 A3000 RMK AC3CI2 SLP181

CYYC;2008-10-31 23:00;CYYC 312300Z 16002KT 25SM BKN100 BKN120 OVC250 15/02 A2999 RMK AC5AC2CI0 SLP178

CYYC;2008-11-01 01:00;CYYC 010100Z 13007KT 15SM OVC100 13/01 A2997 RMK AC8 SLP173

CYYC;2008-11-01 02:00;CYYC 010200Z 15005KT 15SM SCT084 BKN099 OVC210 12/01 A2996 RMK AC3AC2CI2 SLP170

CYYC;2008-11-01 03:00;CYYC 010300Z 14005KT 15SM FEW080 BKN180 OVC210 11/01 A2994 RMK AC2AC6CI1 SLP163

CYYC;2008-11-01 04:00;CYYC 010400Z 23003KT 15SM BKN140 OVC210 09/01 A2994 RMK AC6CI2 SLP163

CYYC;2008-11-01 05:00;CYYC 010500Z 20003KT 15SM BKN140 OVC210 09/02 A2994 RMK AC5CI2 SLP162

CYYC;2008-11-01 06:00;CYYC 010600Z 21004KT 15SM FEW110 BKN220 10/02 A2993 RMK AC2CI1 SLP150

CYYC;2008-11-01 07:00;CYYC 010700Z 24008KT 15SM FEW180 BKN220 10/02 A2993 RMK AC2CI2 SLP149

CYYC;2008-11-01 08:00;CYYC 010800Z 25004KT 15SM SCT120 BKN210 10/02 A2994 RMK AC2CI2 SLP151

CYYC;2008-11-01 09:00;CYYC 010900Z 00000KT 15SM FEW120 BKN210 08/02 A2994 RMK AC2CI2 SLP149

CYYC;2008-11-01 10:00;CYYC 011000Z 24008KT 15SM BKN130 OVC210 12/02 A2993 RMK AC5CI2 SLP148

CYYC;2008-11-01 11:00;CYYC 011100Z 23007KT 15SM BKN130 OVC210 12/01 A2993 RMK AC5CI2 SLP148

CYYC;2008-11-01 12:00;CYYC 011200Z CCA 24006KT 15SM FEW130 11/01 A2994 RMK AC1 AC TR SLP149

CYYC;2008-11-01 13:00;CYYC 011300Z 26012KT 15SM FEW130 12/01 A2995 RMK AC1 AC TR SLP152

CYYC;2008-11-01 14:00;CYYC 011400Z 27009KT 20SM FEW170 FEW220 11/00 A2996 RMK AC1CI1 SLP155

CYYC;2008-11-01 15:00;CYYC 011500Z 02004KT 40SM FEW036 FEW170 FEW220 09/M00 A2998 RMK CU1AC1CI1 SLP170

CYYC;2008-11-01 16:00;CYYC 011600Z 00000KT 40SM FEW040 FEW170 FEW220 09/02 A3000 RMK CU1AC1CI1 SLP175

CYYC;2008-11-01 17:00;CYYC 011700Z 36008KT 40SM FEW040 FEW170 FEW220 11/01 A3000 RMK CU1AC1CI1 SLP177

CYYC;2008-11-01 18:00;CYYC 011800Z 36005KT 40SM FEW052 FEW170 FEW250 14/01 A3000 RMK CU1AC1CI0 SLP171

CYYC;2008-11-01 19:00;CYYC 011900Z 12004KT 40SM FEW060 FEW180 16/01 A3000 RMK CU1AC0 SLP170

CYYC;2008-11-01 20:00;CYYC 012000Z 11004KT 40SM FEW060 FEW180 FEW220 16/01 A2998 RMK CU1AC1CI1 SLP163

CYYC;2008-11-01 21:00;CYYC 012100Z 15007KT 40SM FEW064 FEW180 FEW220 16/M00 A2995 RMK CU1AC1CI1 SLP155

CYYC;2008-11-01 22:00;CYYC 012200Z 14006KT 40SM FEW064 FEW160 FEW250 16/00 A2993 RMK CU1AC1CI0 CU+AC TR SLP149

CYYC;2008-11-01 23:00;CYYC 012300Z CCA 14011KT 40SM FEW060 FEW160 FEW250 15/01 A2994 RMK CU1AC1CI1 CU+AC TR SLP151

CYYC;2008-11-02 00:00;CYYC 020000Z 13009KT 30SM FEW044 FEW150 BKN230 12/01 A2990 RMK CU1AC1CI2 CU TR SLP139

CYYC;2008-11-02 01:00;CYYC 020100Z 13010KT 20SM FEW048 FEW150 BKN230 12/00 A2988 RMK CU1AC1CI2 SLP133

CYYC;2008-11-02 02:00;CYYC 020200Z 16012KT 15SM OVC240 10/00 A2987 RMK CI5 SLP129

CYYC;2008-11-02 03:00;CYYC 020300Z 17009KT 15SM BKN200 10/00 A2984 RMK CI5 SLP124

CYYC;2008-11-02 04:00;CYYC 020400Z 18008KT 15SM SCT150 BKN210 09/00 A2983 RMK AC2CI2 SLP120

CYYC;2008-11-02 05:00;CYYC 020500Z 18005KT 15SM FEW150 BKN260 07/00 A2981 RMK AC1CI3 SLP114

CYYC;2008-11-02 06:00;CYYC 020600Z 16009KT 15SM FEW150 BKN260 07/00 A2978 RMK AC1CI3 SLP098

CYYC;2008-11-02 07:00;CYYC 020700Z 00000KT 15SM SCT140 BKN250 06/00 A2976 RMK AC3CI2 SLP091

CYYC;2008-11-02 08:00;CYYC 020800Z 18004KT 15SM SCT140 BKN250 06/00 A2972 RMK AC3CI2 SLP079

CYYC;2008-11-02 09:00;CYYC 020900Z 18004KT 15SM SCT140 BKN250 06/01 A2969 RMK AC3CI3 SLP066

CYYC;2008-11-02 10:00;CYYC 021000Z 18004KT 15SM SCT140 BKN250 06/02 A2967 RMK AC3CI3 SLP060

CYYC;2008-11-02 11:00;CYYC 021100Z 20005KT 15SM FEW150 BKN180 OVC220 05/01 A2968 RMK AC1AC5CI2 SLP063

CYYC;2008-11-02 12:00;CYYC 021200Z 20007KT 15SM OVC140 07/02 A2964 RMK AC8 SLP054

CYYC;2008-11-02 13:00;CYYC 021300Z 20006KT 15SM OVC170 07/02 A2962 RMK AC8 SLP047

CYYC;2008-11-02 14:00;CYYC 021400Z 19007KT 30SM BKN100 07/02 A2960 RMK AC7 SLP041

CYYC;2008-11-02 15:00;CYYC 021500Z 20005KT 30SM BKN090 07/02 A2961 RMK AC7 SLP045

CYYC;2008-11-02 16:00;CYYC 021600Z 20006KT 40SM FEW040 SCT090 BKN120 OVC250 07/02 A2959 RMK SC1AC3AC4CI0 VIRGA S-N SLP041

CYYC;2008-11-02 17:00;CYYC 021700Z 20006KT 40SM FEW050 SCT120 BKN150 BKN210 09/02 A2958 RMK SC1AC3AC2CI0 VIRGA SW-SE SLP036

CYYC;2008-11-02 18:00;CYYC 021800Z CCA 23005KT 40SM FEW050 BKN120 11/02 A2956 RMK SC1AC6 VIRGA SW-SE SLP026

CYYC;2008-11-02 19:00;CYYC 021900Z 23002KT 40SM FEW050 BKN120 BKN250 13/03 A2955 RMK SC1AC5CI0 VIRGA W SLP022

CYYC;2008-11-02 20:00;CYYC 022000Z 22002KT 40SM FEW045 SCT120 BKN180 BKN230 16/04 A2953 RMK CU1AC1AC1CI0 SLP017

CYYC;2008-11-02 21:00;CYYC 022100Z 00000KT 40SM FEW050 SCT120 OVC200 17/04 A2952 RMK CU1AC4CI1 SLP005

CYYC;2008-11-02 22:00;CYYC 022200Z 35005KT 40SM FEW050 SCT120 OVC230 16/03 A2950 RMK SC1AC4CI2 DIST SH SW SLP000

CYYC;2008-11-02 23:00;CYYC 022300Z 04004KT 40SM FEW040 BKN120 OVC240 14/03 A2950 RMK SC1AC5CI1 ACSL SLP999

CYYC;2008-11-03 00:00;CYYC 030000Z 00000KT 40SM FEW040 FEW120 OVC210 13/03 A2950 RMK SC1AC2CI2 SLP002

CYYC;2008-11-03 01:00;CYYC 030100Z 34002KT 15SM FEW040 BKN160 BKN220 11/02 A2950 RMK SC1AC5CI1 SLP002

CYYC;2008-11-03 02:00;CYYC 030200Z 27005KT 15SM OVC110 12/02 A2951 RMK AC8 SLP005

CYYC;2008-11-03 03:00;CYYC 030300Z 27010KT 15SM OVC110 13/02 A2950 RMK AC8 SLP003

CYYC;2008-11-03 04:00;CYYC 030400Z 32009KT 15SM OVC120 12/02 A2950 RMK AC8 SLP003

CYYC;2008-11-03 05:00;CYYC 030500Z 29007KT 15SM OVC110 12/02 A2951 RMK AC8 SLP005

CYYC;2008-11-03 06:00;CYYC 030600Z 27015KT 15SM OVC160 11/01 A2951 RMK AC8 SLP003

CYYC;2008-11-03 07:00;CYYC 030700Z 30005KT 15SM FEW180 BKN210 10/01 A2951 RMK AC2CI2 SLP003

CYYC;2008-11-03 08:00;CYYC 030800Z 29010G17KT 15SM FEW180 BKN200 11/00 A2951 RMK AC2CI2 SLP004

CYYC;2008-11-03 09:00;CYYC 030900Z 28016KT 15SM SCT100 BKN220 10/00 A2953 RMK AC3CI2 SLP004

CYYC;2008-11-03 10:00;CYYC 031000Z 26020G28KT 15SM BKN092 BKN220 10/M04 A2953 RMK AC5CI1 SLP003

CYYC;2008-11-03 11:00;CYYC 031100Z CCA 27021G29KT 15SM BKN094 BKN220 10/M05 A2953 RMK AC5CI1 SLP004

CYYC;2008-11-03 12:00;CYYC 031200Z 27022G31KT 15SM BKN110 10/M06 A2955 RMK AC6 SLP017

CYYC;2008-11-03 13:00;CYYC 031300Z 27019G25KT 15SM FEW087 BKN110 10/M06 A2958 RMK AC2AC4 SLP026

CYYC;2008-11-03 14:00;CYYC 031400Z 29014G22KT 20SM FEW035 BKN120 OVC210 09/M06 A2960 RMK CU1AC7CI1 SLP031

CYYC;2008-11-03 15:00;CYYC 031500Z 28015KT 30SM FEW040 BKN085 BKN210 09/M06 A2961 RMK SC1AC5CI2 VIRGA E SLP040

CYYC;2008-11-03 16:00;CYYC 031600Z 27016G25KT 40SM FEW040 SCT110 BKN210 09/M07 A2962 RMK SC1AC2CI3 SLP043

CYYC;2008-11-03 17:00;CYYC 031700Z 26019G24KT 40SM FEW040 FEW110 FEW240 09/M10 A2963 RMK SC1AC2CI1 SLP044

CYYC;2008-11-03 18:00;CYYC 031800Z CCA 29013G21KT 40SM FEW045 FEW110 FEW240 10/M10 A2965 RMK SC1AC1CI1 SC+CI TR SLP054

CYYC;2008-11-03 19:00;CYYC 031900Z 27019G24KT 40SM FEW045 FEW110 FEW240 10/M10 A2964 RMK SC1AC1CI1 SC+CI TR SLP051

CYYC;2008-11-03 20:00;CYYC 032000Z 27020G25KT 40SM FEW045 FEW120 FEW250 10/M10 A2964 RMK SC1AC1CI1 ALL CLDS TR SLP051

CYYC;2008-11-03 21:00;CYYC 032100Z 25020G25KT 40SM FEW045 FEW140 FEW230 10/M10 A2964 RMK SC1AC1CI1 ALL CLDS TR SLP052

CYYC;2008-11-03 22:00;CYYC 032200Z 27017G22KT 40SM FEW045 FEW140 FEW230 10/M09 A2964 RMK SC1AC1CI1 SC+AC TR SLP052

CYYC;2008-11-03 23:00;CYYC 032300Z 27012G17KT 40SM FEW045 FEW110 FEW240 08/M09 A2965 RMK SC1AC1CI1 SC+AC TR SLP054

CYYC;2008-11-04 00:00;CYYC 040000Z 28009KT 40SM FEW045 FEW140 SCT220 07/M08 A2965 RMK SC1AC1CI1 SC TR SLP059

CYYC;2008-11-04 01:00;CYYC 040100Z 29006KT 15SM FEW050 BKN130 BKN220 07/M08 A2965 RMK SC1AC5CI1 SC TR SLP061

CYYC;2008-11-04 02:00;CYYC 040200Z 30006KT 15SM FEW140 BKN220 06/M08 A2965 RMK AC1CI2 SLP059

CYYC;2008-11-04 03:00;CYYC 040300Z 27009KT 15SM FEW140 06/M08 A2964 RMK AC1 SLP058

CYYC;2008-11-04 04:00;CYYC 040400Z 36006KT 15SM FEW120 03/M07 A2964 RMK AC1 SLP057

CYYC;2008-11-04 05:00;CYYC 040500Z 33008KT 15SM FEW120 03/M08 A2964 RMK AC1 SLP058

CYYC;2008-11-04 06:00;CYYC 040600Z 30003KT 15SM FEW120 FEW240 02/M08 A2964 RMK AC1CI1 SLP061

CYYC;2008-11-04 07:00;CYYC 040700Z 00000KT 15SM FEW120 FEW240 01/M07 A2964 RMK AC1CI0 SLP061

CYYC;2008-11-04 08:00;CYYC 040800Z 00000KT 15SM FEW120 FEW240 M01/M07 A2963 RMK AC1CI0 SLP058

CYYC;2008-11-04 09:00;CYYC 040900Z 00000KT 15SM SKC M02/M07 A2962 RMK SLP063

CYYC;2008-11-04 10:00;CYYC 041000Z 35005KT 15SM SKC M02/M08 A2961 RMK SLP060

CYYC;2008-11-04 11:00;CYYC 041100Z 00000KT 15SM SKC M03/M08 A2960 RMK SLP057

CYYC;2008-11-04 12:00;CYYC 041200Z 36005KT 15SM SKC M04/M08 A2960 RMK SLP063

CYYC;2008-11-04 13:00;CYYC 041300Z 00000KT 15SM SCT210 M05/M08 A2961 RMK CI1 SLP065

CYYC;2008-11-04 14:00;CYYC 041400Z CCA 30005KT 15SM FEW130 BKN230 M06/M09 A2960 RMK AC1CI2 SLP063

CYYC;2008-11-04 15:00;CYYC 041500Z 02004KT 40SM FEW120 OVC200 M03/M08 A2961 RMK AC1CI6 SLP064

CYYC;2008-11-04 16:00;CYYC 041600Z 00000KT 40SM BKN120 OVC200 M03/M07 A2960 RMK AC6CI2 HZ+VIRGA SW SLP063

CYYC;2008-11-04 17:00;CYYC 041700Z 00000KT 30SM FEW078 OVC120 M01/M06 A2962 RMK AC2AC6 VIRGA S-W/HZ SW SLP067

CYYC;2008-11-04 18:00;CYYC 041800Z 36002KT 30SM BKN052 OVC120 01/M07 A2962 RMK SC5AS3 VIRGA E-W SLP068

CYYC;2008-11-04 19:00;CYYC 041900Z 10009KT 30SM BKN060 OVC110 03/M05 A2961 RMK SC5AS3 VIRGA SE-S SLP065

CYYC;2008-11-04 20:00;CYYC 042000Z 14007KT 25SM BKN060 OVC120 03/M05 A2961 RMK SC5AC3 SLP064

CYYC;2008-11-04 21:00;CYYC 042100Z 09004KT 30SM FEW032 BKN050 OVC120 04/M05 A2961 RMK CU1SC6AC2 SLP068

CYYC;2008-11-04 22:00;CYYC 042200Z 09005KT 30SM BKN050 OVC080 04/M05 A2961 RMK SC6AC2 CU ASOCTD SLP068

CYYC;2008-11-04 23:00;CYYC 042300Z 09004KT 30SM SCT036 BKN085 OVC100 04/M05 A2963 RMK SC4AC2AC2 CU ASOCTD SLP072

CYYC;2008-11-05 00:00;CYYC 050000Z 10006KT 15SM OVC036 04/M04 A2964 RMK SC8 SLP082

CYYC;2008-11-05 01:00;CYYC 050100Z 11003KT 15SM OVC030 03/M03 A2967 RMK SC8 SLP090

CYYC;2008-11-05 01:17;CYYC 050117Z 16004KT 3SM -RA SCT010 OVC030 02/ RMK SC3SC5

CYYC;2008-11-05 01:23;CYYC 050123Z 16005KT 2 1/2SM -RA BKN010 OVC030 02/ RMK SC6SC2

CYYC;2008-11-05 01:32;CYYC 050132Z 17006KT 2 1/2SM -RASN BKN010 OVC030 02/ RMK SC7SC1

CYYC;2008-11-05 01:52;CYYC 050152Z 17003KT 2SM -RASN OVC008 01/ RMK SC8

CYYC;2008-11-05 02:00;CYYC 050200Z 20003KT 1 3/4SM -RASN BR OVC007 00/00 A2968 RMK SC8 SLP095

CYYC;2008-11-05 02:28;CYYC 050228Z 22002KT 1 3/4SM -SN BR OVC007 00/ RMK SC8

CYYC;2008-11-05 02:47;CYYC 050247Z CCA 20002KT 1SM -SN BR BKN007 OVC025 00/ RMK SN4SC2SC2 RVR RWY34 6000 FT

CYYC;2008-11-05 03:00;CYYC 050300Z 20002KT 1SM -SN BKN008 OVC024 00/M00 A2969 RMK SN3SC4SC1 RVR RWY34 6000 FT SLP101

CYYC;2008-11-05 03:33;CYYC 050333Z 00000KT 2SM -SN BKN012 OVC027 00/ RMK SN2SC5SC2

CYYC;2008-11-05 04:00;CYYC 050400Z 00000KT 2SM -SN BKN010 OVC025 00/00 A2969 RMK SN4SC2SC2 SLP103

CYYC;2008-11-05 04:49;CYYC 050449Z 04005KT 2SM -SN BKN007 OVC011 00/ RMK SC6SC2

CYYC;2008-11-05 05:00;CYYC 050500Z 03005KT 2SM -SN BKN003 BKN007 OVC012 00/M00 A2970 RMK ST5SC2SC1 SLP106

CYYC;2008-11-05 05:49;CYYC 050549Z 03004KT 2 1/2SM -SN FEW003 BKN012 OVC028 01/ RMK ST2SC5SC1

CYYC;2008-11-05 06:00;CYYC 050600Z 04004KT 2 1/2SM -SN FEW003 BKN015 OVC028 01/00 A2971 RMK ST2SC6SC1 /S01/ SLP103

CYYC;2008-11-05 07:00;CYYC 050700Z 04004KT 2 1/2SM -SN FEW004 BKN014 OVC022 00/M00 A2972 RMK ST2SC6SC1 SLP106

CYYC;2008-11-05 08:00;CYYC 050800Z 05005KT 2 1/2SM -SN FEW004 BKN011 OVC022 00/M00 A2975 RMK SF2SC6SC1 SLP113

CYYC;2008-11-05 09:00;CYYC 050900Z CCA 05005KT 1SM -SN BKN006 OVC017 00/M01 A2976 RMK SN3SC4SC1 /S01/ RVR RWY16 6000 FT SLP116

CYYC;2008-11-05 09:08;CYYC 050908Z 05004KT 3/4SM -SN BKN003 OVC014 00/ RMK SN4SC3SC1 RVR RWY16 6000 FT

CYYC;2008-11-05 10:00;CYYC 051000Z 04004KT 3/4SM -SN BKN003 OVC010 M00/M00 A2978 RMK SN4SC2SC2 SLP122

CYYC;2008-11-05 11:00;CYYC 051100Z CCA 03002KT 3/4SM -SN BKN003 BKN009 OVC024 M00/M01 A2981 RMK SN2SC3SC2SC1 /S02/ RVR RWY16 6000 FT SLP131

CYYC;2008-11-05 11:10;CYYC 051110Z 04002KT 1 1/2SM -SN FEW005 BKN016 OVC028 M00/ RMK SC2SC4SC2

CYYC;2008-11-05 11:48;CYYC 051148Z 04003KT 3SM -SN SCT006 BKN009 OVC028 M00/ RMK SC4SC2SC2

CYYC;2008-11-05 12:00;CYYC 051200Z 04003KT 3SM -SN FEW006 BKN009 OVC024 M00/M01 A2981 RMK SC2SC4SC2 /S07/ SLP135

CYYC;2008-11-05 12:14;CYYC 051214Z 04003KT 3SM -SN SCT003 BKN005 OVC022 M00/ RMK SC3SC4SC1

CYYC;2008-11-05 13:00;CYYC 051300Z 04003KT 3SM -SN BKN006 BKN016 OVC036 M00/M01 A2983 RMK SC5SC2SC1 /S01/ SLP141

CYYC;2008-11-05 14:00;CYYC 051400Z 05002KT 3SM -SN SCT003 BKN007 BKN012 OVC036 M00/M00 A2986 RMK ST3SC3SC1SC1 SLP149

CYYC;2008-11-05 14:43;CYYC 051443Z 07003KT 2SM -SN BKN004 OVC022 M00/ RMK SC6SC2

CYYC;2008-11-05 15:00;CYYC 051500Z 06003KT 2SM -SN BR BKN003 OVC020 M00/M01 A2988 RMK SC6SC2 SLP163

CYYC;2008-11-05 15:53;CYYC 051553Z CCA 07002KT 1 1/4SM -SN BR BKN003 OVC013 M00/ RMK SC6SC2

CYYC;2008-11-05 16:00;CYYC 051600Z 07002KT 1 1/4SM -SN BR BKN003 OVC013 M00/M00 A2989 RMK SC6SC2 SLP168

CYYC;2008-11-05 16:39;CYYC 051639Z 10003KT 3/4SM -SN BR BKN003 OVC010 M00/ RMK SC7SC1 RVR RWY16 6000FT

CYYC;2008-11-05 16:48;CYYC 051648Z 11002KT 1SM -SN BR BKN003 OVC010 M00/ RMK SC7SC1 RVR RWY16 6000FT

CYYC;2008-11-05 17:00;CYYC 051700Z 12003KT 1SM -SN BR FEW002 BKN004 OVC015 M00/M00 A2991 RMK SC2SC6SC1 RVR RWY28 6OOOFT SLP174

CYYC;2008-11-05 17:33;CYYC 051733Z 12003KT 2SM -SN BR OVC004 00/ RMK SC8 VIS E 1

CYYC;2008-11-05 18:00;CYYC 051800Z 12003KT 2SM -SN BR BKN005 OVC018 00/00 A2993 RMK SC7SC1 /S02/ SLP181

CYYC;2008-11-05 19:00;CYYC 051900Z 14005KT 4SM -SN BR OVC005 00/00 A2994 RMK SC8 PCPN VRY LGT SLP183

CYYC;2008-11-05 20:00;CYYC 052000Z 14005KT 12SM OVC008 01/00 A2995 RMK SC8 SLP186

CYYC;2008-11-05 21:00;CYYC 052100Z 15006KT 25SM FEW007 BKN011 OVC020 01/M00 A2997 RMK SC2SC3SC3 SLP194

CYYC;2008-11-05 21:14;CYYC 052114Z 15007KT 25SM FEW007 SCT013 OVC020 01/ RMK SC2SC2SC4

CYYC;2008-11-05 22:00;CYYC 052200Z 16005KT 25SM FEW008 SCT013 OVC018 01/M00 A2999 RMK SC1SC3SC4 SLP199

CYYC;2008-11-05 23:00;CYYC 052300Z 15007KT 15SM FEW006 SCT010 OVC014 01/M00 A3001 RMK SC2SC2SC4 SLP205

CYYC;2008-11-06 00:00;CYYC 060000Z 15005KT 25SM FEW007 OVC012 01/00 A3003 RMK SC2SC6 SLP215

CYYC;2008-11-06 01:00;CYYC 060100Z 17004KT 15SM SCT008 OVC058 01/00 A3005 RMK SC4SC4 SLP221

CYYC;2008-11-06 02:00;CYYC 060200Z 11003KT 5SM BR SCT008 OVC055 01/00 A3006 RMK SC3SC5 SLP226

CYYC;2008-11-06 02:24;CYYC 060224Z 14003KT 2 1/2SM -SN BR SCT009 OVC050 01/ RMK SC4SC4

CYYC;2008-11-06 03:00;CYYC 060300Z 00000KT 4SM -SN FEW010 BKN056 OVC100 00/M00 A3007 RMK SC2SC4AC2 SLP232

CYYC;2008-11-06 04:00;CYYC 060400Z 25002KT 6SM -SN FEW008 BKN015 OVC060 01/00 A3009 RMK SC2SC4SC2 SLP237

CYYC;2008-11-06 04:28;CYYC 060428Z 27002KT 6SM -SN BKN008 BKN014 OVC087 01/ RMK SC5SC2AC1 CLDS LWR EAST

CYYC;2008-11-06 05:00;CYYC 060500Z 29004KT 7SM -SN BKN008 BKN016 OVC070 01/00 A3012 RMK SC5SC2AC1 SLP246

CYYC;2008-11-06 06:00;CYYC 060600Z 31004KT 15SM -SN BKN016 OVC060 00/M01 A3014 RMK SC6SC2 SLP254

CYYC;2008-11-06 06:20;CYYC 060620Z 32005KT 15SM BKN017 BKN020 OVC064 M00/ RMK SC5SC2SC1

CYYC;2008-11-06 07:00;CYYC 060700Z 34008KT 15SM BKN015 OVC064 01/M01 A3015 RMK SC6SC2 SLP258

CYYC;2008-11-06 08:00;CYYC 060800Z 32005KT 15SM BKN016 OVC050 00/M01 A3017 RMK SC6SC2 SLP262

CYYC;2008-11-06 09:00;CYYC 060900Z 31002KT 15SM BKN016 OVC050 00/M01 A3018 RMK SC7SC1 SLP266

CYYC;2008-11-06 10:00;CYYC 061000Z 27002KT 15SM OVC017 01/M02 A3019 RMK SC8 SLP270

CYYC;2008-11-06 11:00;CYYC 061100Z 25004KT 15SM OVC016 00/M01 A3020 RMK SC8 SLP272

CYYC;2008-11-06 12:00;CYYC 061200Z 25006KT 15SM OVC015 M00/M02 A3021 RMK SC8 SNOW COVER/ MUCH LOOSE SLP278

CYYC;2008-11-06 13:00;CYYC 061300Z 23006KT 15SM OVC011 M01/M02 A3021 RMK SC7 SLP279

CYYC;2008-11-06 14:00;CYYC 061400Z 19005KT 15SM FEW016 M02/M03 A3022 RMK SC2 SLP280

CYYC;2008-11-06 15:00;CYYC 061500Z 18005KT 30SM FEW011 FEW150 M02/M03 A3023 RMK SC2AC1 SLP287

CYYC;2008-11-06 16:00;CYYC 061600Z 19006KT 30SM FEW010 FEW220 M01/M02 A3022 RMK SC1CI0 SLP284

CYYC;2008-11-06 17:00;CYYC 061700Z 16008KT 30SM FEW010 FEW220 00/M02 A3021 RMK CU1CI0 SLP281

CYYC;2008-11-06 18:00;CYYC 061800Z 17008KT 30SM FEW010 SCT220 01/M01 A3021 RMK CU1CI0 SLP276

CYYC;2008-11-06 19:00;CYYC 061900Z 16009KT 30SM FEW012 BKN250 01/M02 A3017 RMK CU1CI1 SLP265

CYYC;2008-11-06 20:00;CYYC 062000Z 16008KT 30SM FEW120 SCT180 BKN220 02/M03 A3016 RMK AC1AC2CI2 SLP261

CYYC;2008-11-06 21:00;CYYC 062100Z 15009KT 30SM SCT160 BKN220 02/M03 A3013 RMK AC3CI2 SLP247

CYYC;2008-11-06 22:00;CYYC 062200Z 16011KT 30SM FEW160 OVC220 01/M03 A3010 RMK AC2CI4 SLP239

CYYC;2008-11-06 23:00;CYYC 062300Z 15010KT 30SM FEW180 OVC220 01/M01 A3007 RMK AC2CI6 SLP229

CYYC;2008-11-07 00:00;CYYC 070000Z 16007KT 30SM FEW008 SCT090 BKN180 OVC220 01/M01 A3004 RMK CU1AC4AC2CI2 CU TR SLP217

CYYC;2008-11-07 00:43;CYYC 070043Z CCA 17006KT 15SM SHPL SCT050 OVC080 01/ RMK SC4AC4 CVCTV CLD EMBD

CYYC;2008-11-07 01:00;CYYC 070100Z 14007KT 15SM -SHPL BKN050 OVC075 01/M02 A3002 RMK SC5AC3 CVCTV CLD EMBD SLP213

CYYC;2008-11-07 01:25;CYYC 070125Z 14006KT 15SM SCT050 OVC090 01/ RMK SC3AC5

CYYC;2008-11-07 02:00;CYYC 070200Z 16004KT 15SM SCT080 OVC110 01/M02 A2998 RMK AC4AC4 SLP201

CYYC;2008-11-07 03:00;CYYC 070300Z 21004KT 15SM FEW080 BKN190 OVC230 00/M02 A2993 RMK AC1AC4CI2 SLP184

CYYC;2008-11-07 04:00;CYYC 070400Z CCA 22006KT 15SM FEW140 BKN210 OVC240 00/M02 A2991 RMK AC2CI5CI2 SLP177

CYYC;2008-11-07 05:00;CYYC 070500Z 20009KT 15SM SCT120 OVC240 01/M02 A2989 RMK AC3CI4 SLP172

CYYC;2008-11-07 06:00;CYYC 070600Z 23005KT 15SM BKN130 OVC220 01/M02 A2990 RMK AC5CI2 SLP169

CYYC;2008-11-07 07:00;CYYC 070700Z 16005KT 15SM FEW150 SCT240 01/M02 A2992 RMK AC2CI1 SLP174

CYYC;2008-11-07 08:00;CYYC 070800Z 27014KT 15SM FEW140 FEW230 07/M02 A2994 RMK AC1CI0 SLP179

CYYC;2008-11-07 09:00;CYYC 070900Z 29015KT 15SM FEW074 FEW120 FEW240 07/M02 A2996 RMK AC1AC1CI0 SLP180

CYYC;2008-11-07 10:00;CYYC 071000Z 32011G17KT 15SM BKN081 BKN120 BKN230 07/M02 A2999 RMK AC5AC1CI1 SLP188

CYYC;2008-11-07 11:00;CYYC 071100Z 35009KT 15SM BKN085 BKN120 BKN230 03/M01 A3002 RMK AC5AC2CI1 SLP198

CYYC;2008-11-07 12:00;CYYC 071200Z CCA 34006KT 15SM BKN088 BKN120 BKN230 03/M01 A3005 RMK AC6AC1CI1 SNOW COVER/ MUCH LOOSE SLP218

CYYC;2008-11-07 13:00;CYYC 071300Z 33006KT 15SM FEW088 FEW230 01/M02 A3006 RMK AC1CI0 SLP222

CYYC;2008-11-07 14:00;CYYC 071400Z 32009KT 30SM FEW085 02/M03 A3007 RMK AC1 SLP225

CYYC;2008-11-07 15:00;CYYC 071500Z 31004KT 40SM FEW110 FEW220 00/M03 A3009 RMK AC1CI0 SLP235

CYYC;2008-11-07 16:00;CYYC 071600Z 00000KT 40SM FEW120 FEW220 02/M02 A3010 RMK AC1CI0 SLP238

CYYC;2008-11-07 17:00;CYYC 071700Z 21002KT 40SM FEW120 SCT220 04/M00 A3011 RMK AC2CI1 SLP242

CYYC;2008-11-07 18:00;CYYC 071800Z 20002KT 40SM FEW080 SCT220 07/M02 A3011 RMK AC2CI1 SLP232

CYYC;2008-11-07 19:00;CYYC 071900Z 20004KT 40SM FEW080 FEW220 08/M01 A3011 RMK AC1CI1 SLP232

CYYC;2008-11-07 20:00;CYYC 072000Z 19005KT 40SM FEW080 FEW220 09/M01 A3010 RMK AC1CI1 SLP228

CYYC;2008-11-07 21:00;CYYC 072100Z 18004KT 40SM FEW080 FEW220 10/M00 A3009 RMK AC1CI1 SLP212

CYYC;2008-11-07 22:00;CYYC 072200Z 21002KT 40SM FEW080 FEW220 11/M00 A3008 RMK AC1CI1 SLP210

CYYC;2008-11-07 23:00;CYYC 072300Z 16005KT 40SM FEW080 FEW220 07/01 A3008 RMK AC1CI1 SLP209

CYYC;2008-11-08 00:00;CYYC 080000Z 19005KT 30SM FEW080 SCT220 05/00 A3008 RMK AC1CI2 SLP223

CYYC;2008-11-08 01:00;CYYC 080100Z 20005KT 15SM FEW075 FEW220 05/01 A3008 RMK AC1CI1 SLP222

CYYC;2008-11-08 02:00;CYYC 080200Z 00000KT 15SM FEW250 03/01 A3008 RMK CI1 SLP222

CYYC;2008-11-08 03:00;CYYC 080300Z 33003KT 15SM FEW240 02/M01 A3007 RMK CI1 CI TR SLP227

CYYC;2008-11-08 04:00;CYYC 080400Z 02002KT 15SM FEW240 00/M01 A3006 RMK CI1 CI TR SLP224

CYYC;2008-11-08 05:00;CYYC 080500Z 00000KT 15SM SKC M00/M02 A3005 RMK SLP221

CYYC;2008-11-08 06:00;CYYC 080600Z 00000KT 15SM SCT240 M00/M02 A3003 RMK CI1 SLP208

CYYC;2008-11-08 07:00;CYYC 080700Z 00000KT 15SM FEW240 M01/M03 A3002 RMK CI0 SLP205

CYYC;2008-11-08 08:00;CYYC 080800Z 20002KT 15SM BKN220 M02/M03 A3000 RMK CI2 SLP198

CYYC;2008-11-08 09:00;CYYC 080900Z 24002KT 15SM BKN230 M01/M03 A2998 RMK CI2 SLP186

CYYC;2008-11-08 10:00;CYYC 081000Z 18003KT 15SM BKN240 M01/M03 A2995 RMK CI4 SLP178

CYYC;2008-11-08 11:00;CYYC 081100Z 19003KT 15SM FEW240 M02/M03 A2993 RMK CI1 SLP171

CYYC;2008-11-08 12:00;CYYC 081200Z CCA 28002KT 15SM FEW160 BKN210 M02/M03 A2991 RMK AC1CI3 SNOW COVER/TRACE LOOSE SLP169

CYYC;2008-11-08 13:00;CYYC 081300Z 00000KT 15SM FEW220 M03/M04 A2988 RMK CI0 SLP161

CYYC;2008-11-08 14:00;CYYC 081400Z 17002KT 20SM FEW150 BKN240 M02/M04 A2985 RMK AC1CI2 SLP153

CYYC;2008-11-08 15:00;CYYC 081500Z 15004KT 30SM FEW150 BKN200 M02/M03 A2984 RMK AC1CS2 SLP149

CYYC;2008-11-08 16:00;CYYC 081600Z 16002KT 40SM SCT160 BKN200 M00/M02 A2982 RMK AC2CS2 SLP144

CYYC;2008-11-08 17:00;CYYC 081700Z 00000KT 40SM FEW065 SCT160 BKN210 01/M02 A2980 RMK SC2AC2CS1 SLP136

CYYC;2008-11-08 18:00;CYYC 081800Z 25003KT 40SM FEW065 BKN090 BKN210 03/M01 A2979 RMK SC1AC6CS1 SLP128

CYYC;2008-11-08 19:00;CYYC 081900Z 14003KT 40SM FEW065 BKN090 BKN160 BKN220 04/M00 A2977 RMK SC1AC5AC2CI1 SLP123

CYYC;2008-11-08 20:00;CYYC 082000Z 12003KT 40SM BKN083 BKN140 BKN240 04/00 A2975 RMK AC5AC2CI1 SLP117

CYYC;2008-11-08 21:00;CYYC 082100Z 17005KT 40SM FEW083 BKN120 BKN240 03/00 A2974 RMK AC2AC2CI2 SLP114

CYYC;2008-11-08 22:00;CYYC 082200Z 16003KT 40SM FEW083 BKN110 BKN260 03/01 A2973 RMK AC2AC2CI1 SLP110

CYYC;2008-11-08 23:00;CYYC 082300Z 15003KT 40SM FEW050 FEW110 BKN280 03/01 A2971 RMK SC1AC2CI2 SLP104

CYYC;2008-11-09 00:00;CYYC 090000Z 15003KT 40SM FEW050 FEW140 FEW260 02/00 A2970 RMK SC1AC1CI0 ACSL SLP101

CYYC;2008-11-09 01:00;CYYC 090100Z CCA 24002KT 20SM FEW050 SCT140 BKN260 02/00 A2969 RMK SC1AC2CI2 SLP100

CYYC;2008-11-09 02:00;CYYC 090200Z 19003KT 15SM FEW050 OVC140 02/01 A2968 RMK SC1AC8 SLP095

CYYC;2008-11-09 03:00;CYYC 090300Z 18004KT 15SM SCT140 OVC230 02/00 A2966 RMK AC4CI2 SLP089

CYYC;2008-11-09 04:00;CYYC 090400Z 20005KT 15SM FEW140 OVC240 04/00 A2965 RMK AC2CI4 SLP086

CYYC;2008-11-09 05:00;CYYC 090500Z 27008KT 15SM SCT180 BKN240 07/00 A2965 RMK AC3CI2 SLP084

CYYC;2008-11-09 06:00;CYYC 090600Z 23006KT 15SM FEW078 SCT220 05/00 A2965 RMK AC1CI2 SLP074

CYYC;2008-11-09 07:00;CYYC 090700Z 00000KT 15SM BKN230 03/M00 A2965 RMK CI4 SLP074

CYYC;2008-11-09 08:00;CYYC 090800Z 36003KT 15SM FEW200 SCT240 03/M01 A2965 RMK CI1CI2 SLP074

CYYC;2008-11-09 09:00;CYYC 090900Z CCA 03002KT 15SM FEW200 FEW240 05/M01 A2966 RMK CI1CI1 SLP075

CYYC;2008-11-09 10:00;CYYC 091000Z 31003KT 15SM FEW200 FEW240 04/M01 A2966 RMK CI1CI1 SLP076

CYYC;2008-11-09 11:00;CYYC 091100Z 30004KT 15SM FEW160 05/M01 A2965 RMK AC1 SLP074

CYYC;2008-11-09 12:00;CYYC 091200Z 35006KT 15SM SKC 03/M01 A2965 RMK SLP076

CYYC;2008-11-09 13:00;CYYC 091300Z 24006KT 15SM SKC 04/M02 A2964 RMK SLP073

CYYC;2008-11-09 14:00;CYYC 091400Z 26009KT 20SM FEW140 FEW230 02/M02 A2964 RMK AC1CI1 SLP072

CYYC;2008-11-09 15:00;CYYC 091500Z 33005KT 40SM FEW100 FEW240 05/M03 A2964 RMK AC1CI1 SLP068

CYYC;2008-11-09 16:00;CYYC 091600Z 23004KT 40SM FEW040 FEW100 FEW220 07/M03 A2964 RMK SC1AC1CI1 SLP068

CYYC;2008-11-09 17:00;CYYC 091700Z 27004KT 40SM FEW040 FEW120 FEW200 09/M01 A2963 RMK SC1AC1CI1 SLP067

CYYC;2008-11-09 18:00;CYYC 091800Z 18007KT 40SM FEW048 FEW120 FEW230 11/M02 A2963 RMK CU1AC1CI1 SLP055

CYYC;2008-11-09 19:00;CYYC 091900Z 27012KT 40SM FEW050 FEW120 FEW240 12/M02 A2962 RMK SC1AC1CI1 CU ASOCTD SLP050

CYYC;2008-11-09 20:00;CYYC 092000Z 27007KT 40SM FEW050 FEW120 FEW230 13/M03 A2961 RMK SC1AC1CI1 SLP048

CYYC;2008-11-09 21:00;CYYC 092100Z 26007KT 40SM FEW055 FEW120 FEW180 FEW240 13/M03 A2960 RMK SC1AC1AC1CI1 SLP041

CYYC;2008-11-09 22:00;CYYC 092200Z 27006KT 40SM FEW050 FEW100 FEW180 FEW240 13/M03 A2960 RMK SC1AC1AC1CI0 SLP039

CYYC;2008-11-09 23:00;CYYC 092300Z 18002KT 40SM FEW045 FEW170 FEW230 08/M03 A2960 RMK SC1AC2CI0 SLP040

CYYC;2008-11-10 00:00;CYYC 100000Z 16006KT 40SM FEW050 FEW160 FEW200 08/M02 A2960 RMK SC1AC1CI0 SLP050

CYYC;2008-11-10 01:00;CYYC 100100Z 21004KT 15SM FEW050 FEW140 FEW240 06/M02 A2960 RMK SC1AC1CI0 SLP052

CYYC;2008-11-10 02:00;CYYC 100200Z 00000KT 15SM FEW130 FEW150 05/M02 A2960 RMK AC1AC1 SLP050

CYYC;2008-11-10 03:00;CYYC 100300Z 18002KT 15SM FEW230 05/M04 A2959 RMK CI1 SLP048

CYYC;2008-11-10 04:00;CYYC 100400Z 23004KT 15SM FEW230 05/M03 A2959 RMK CI0 SLP048

CYYC;2008-11-10 05:00;CYYC 100500Z 20003KT 15SM SKC 02/M04 A2960 RMK SLP051

CYYC;2008-11-10 06:00;CYYC 100600Z 21003KT 15SM SKC 04/M05 A2962 RMK SLP051

CYYC;2008-11-10 07:00;CYYC 100700Z 00000KT 15SM SKC 04/M05 A2962 RMK SLP053

CYYC;2008-11-10 08:00;CYYC 100800Z 32002KT 15SM SKC 03/M05 A2963 RMK SLP056

CYYC;2008-11-10 09:00;CYYC 100900Z 36002KT 15SM SKC 01/M05 A2964 RMK SLP060

CYYC;2008-11-10 10:00;CYYC 101000Z 34009KT 15SM SKC 02/M05 A2967 RMK SLP070

CYYC;2008-11-10 11:00;CYYC 101100Z 36008KT 15SM SKC M01/M05 A2968 RMK SLP072

CYYC;2008-11-10 12:00;CYYC 101200Z 36006KT 15SM SKC M03/M04 A2969 RMK SLP090

CYYC;2008-11-10 13:00;CYYC 101300Z 36008KT 1/4SM FZFG VV001 M04/M04 A2970 RMK FG8 VIS SE-SW 15 SLP095

CYYC;2008-11-10 13:19;CYYC 101319Z 34008KT 1/2SM FZFG SKC M04/ RMK FG6

CYYC;2008-11-10 13:35;CYYC 101335Z 35007KT 15SM FEW240 M04/ RMK CI1 VIS NW-NE 3

CYYC;2008-11-10 14:00;CYYC 101400Z 35007KT 15SM BCFG BKN240 M04/M04 A2971 RMK CI1 VIS NE-SE 3 SLP097

CYYC;2008-11-10 14:18;CYYC 101418Z CCA 32006KT 1/2SM FZFG SKC M04/ RMK FG6 VIS S-SW 6

CYYC;2008-11-10 14:37;CYYC 101437Z 33006KT 3/8SM FZFG BKN001 OVC003 M04/ RMK FG7ST1ST0 VIS W 3/ RVR RWY34 2800 FT

CYYC;2008-11-10 14:48;CYYC 101448Z 33006KT 1/8SM FZFG VV001 M04/ RMK FG8 RVR RWY16 4000 FT

CYYC;2008-11-10 15:00;CYYC 101500Z 32005KT 1/8SM FZFG VV001 M04/M04 A2972 RMK FG8 RVR RWY16 3500 FT SLP105

CYYC;2008-11-10 15:37;CYYC 101537Z 32003KT 1/2SM FZFG OVC002 M04/ RMK FG6ST2 RVR RWY16 2000 FT

CYYC;2008-11-10 15:47;CYYC 101547Z 32003KT 1/8SM FZFG VV001 M04/ RMK FG8 RVR RWY28 1200 FT

CYYC;2008-11-10 16:00;CYYC 101600Z 35002KT 1/8SM FZFG VV001 M04/M04 A2972 RMK FG8 RVR RWY34 1200 FT SLP105

CYYC;2008-11-10 17:00;CYYC 101700Z 00000KT 1/8SM FZFG VV001 M04/M04 A2972 RMK FG8 RVR RWY16 1200 FT SLP104

CYYC;2008-11-10 17:27;CYYC 101727Z 00000KT 3/8SM FZFG BKN001 BKN002 BKN240 M03/ RMK FG6ST1ST1CI1 RVR RWY16 2200 FT

CYYC;2008-11-10 17:51;CYYC 101751Z 00000KT 40SM FEW050 FEW110 SCT240 M01/ RMK SC1AC2CI1

CYYC;2008-11-10 18:00;CYYC 101800Z 12002KT 40SM FEW030 FEW100 SCT240 M01/M01 A2970 RMK SF1AC1CI1 SLP099

CYYC;2008-11-10 19:00;CYYC 101900Z 16002KT 40SM FEW040 SCT110 BKN250 02/M01 A2970 RMK SC1AC2CI1 SC TR SLP098

CYYC;2008-11-10 20:00;CYYC 102000Z 14005KT 40SM FEW050 SCT110 BKN250 05/M01 A2969 RMK SC1AC2CI1 SC TR SLP095

CYYC;2008-11-10 21:00;CYYC 102100Z 15005KT 40SM FEW050 SCT110 BKN240 03/M01 A2968 RMK SC1AC2CI2 SC TR SLP088

CYYC;2008-11-10 22:00;CYYC 102200Z 18004KT 40SM FEW050 SCT110 BKN240 03/M01 A2968 RMK SC1AC2CI2 SC TR SLP087

CYYC;2008-11-10 23:00;CYYC 102300Z 12004KT 40SM FEW050 SCT110 BKN240 01/M01 A2968 RMK SC1AC2CI2 SLP088

CYYC;2008-11-11 00:00;CYYC 110000Z 18005KT 6SM BR FEW040 SCT100 BKN210 M01/M02 A2968 RMK SC1AC2CI2 SLP099

CYYC;2008-11-11 01:00;CYYC 110100Z 19005KT 6SM BR FEW040 SCT180 BKN210 M01/M01 A2967 RMK SC1AC3CI2 VIS W 4 SLP096

CYYC;2008-11-11 02:00;CYYC 110200Z 19008KT 6SM BR FEW040 SCT120 OVC210 M01/M01 A2966 RMK SC1AC3CI3 SLP094

CYYC;2008-11-11 03:00;CYYC 110300Z 18007KT 10SM BCFG SCT160 BKN230 M02/M02 A2965 RMK AC3CI2 SLP090

CYYC;2008-11-11 04:00;CYYC 110400Z 24008KT 15SM FEW160 BKN230 03/M02 A2965 RMK AC2CI2 SLP092

CYYC;2008-11-11 05:00;CYYC 110500Z 27013G25KT 15SM BKN130 06/M05 A2966 RMK AC6 VIRGA SLP094

CYYC;2008-11-11 06:00;CYYC 110600Z 23014G21KT 15SM BKN100 06/M03 A2968 RMK AC6 VIRGA ALQDS SLP087

CYYC;2008-11-11 07:00;CYYC 110700Z 25010G15KT 15SM BKN150 04/M04 A2969 RMK AC6 SLP091

CYYC;2008-11-11 08:00;CYYC 110800Z 36009KT 15SM SCT130 00/M03 A2973 RMK AC3 SLP103

CYYC;2008-11-11 09:00;CYYC 110900Z 36008KT 15SM FEW130 M03/M04 A2974 RMK AC1 SLP113

CYYC;2008-11-11 10:00;CYYC 111000Z 35005KT 15SM FEW230 M04/M04 A2976 RMK CI0 SLP119

CYYC;2008-11-11 11:00;CYYC 111100Z CCA 36003KT 15SM SCT160 M04/M05 A2976 RMK AC2 SLP119

CYYC;2008-11-11 12:00;CYYC 111200Z 00000KT 15SM FEW160 M04/M05 A2974 RMK AC1 SLP122

CYYC;2008-11-11 13:00;CYYC 111300Z 20007KT 15SM FEW120 M03/M04 A2972 RMK AC2 SLP117

CYYC;2008-11-11 14:00;CYYC 111400Z 18004KT 15SM BKN140 M02/M03 A2971 RMK AC6 SLP114

CYYC;2008-11-11 15:00;CYYC 111500Z 19004KT 40SM FEW100 BKN120 BKN180 OVC250 M02/M04 A2970 RMK AC2AC2AC1CI0 SLP106

CYYC;2008-11-11 16:00;CYYC 111600Z 00000KT 30SM FEW078 SCT100 BKN140 OVC250 M02/M03 A2968 RMK AC2AC2AC1CI0 SLP101

CYYC;2008-11-11 17:00;CYYC 111700Z 19004KT 40SM SCT072 BKN120 OVC230 01/M03 A2967 RMK AC4AC3CI0 SLP097

CYYC;2008-11-11 18:00;CYYC 111800Z 20005KT 40SM FEW030 BKN062 BKN100 OVC230 03/M05 A2965 RMK SC1SC6AC1CI1 VIRGA E SLP072

CYYC;2008-11-11 19:00;CYYC 111900Z CCA 19003KT 40SM FEW030 BKN072 BKN240 03/M05 A2964 RMK SC1AC7CI1 VIRGA N-S SLP068

CYYC;2008-11-11 20:00;CYYC 112000Z 18006KT 40SM FEW032 BKN050 BKN070 BKN250 04/M05 A2963 RMK SC1SC5AC2CI1 VIRGA N-S SLP064

CYYC;2008-11-11 21:00;CYYC 112100Z 20004KT 40SM FEW032 BKN058 BKN250 04/M05 A2961 RMK SC1SC7CI1 VIRGA E/VIS LWR E SLP066

CYYC;2008-11-11 22:00;CYYC 112200Z 19004KT 40SM FEW032 SCT150 BKN200 05/M05 A2960 RMK SC1AC4CI0 VIS LWR E SLP063

CYYC;2008-11-11 23:00;CYYC 112300Z 19004KT 40SM FEW040 SCT120 BKN210 BKN250 05/M04 A2961 RMK SC1AC1CI0CI0 SLP067

CYYC;2008-11-12 00:00;CYYC 120000Z 18002KT 40SM FEW040 FEW120 FEW250 02/M05 A2963 RMK SC1AC1CI0 SLP079

CYYC;2008-11-12 01:00;CYYC 120100Z 21003KT 15SM FEW120 03/M06 A2963 RMK AC1 SLP080

CYYC;2008-11-12 02:00;CYYC 120200Z 20003KT 15SM SKC 04/M06 A2965 RMK SLP085

CYYC;2008-11-12 03:00;CYYC 120300Z 24007KT 15SM SKC 03/M06 A2964 RMK SLP080

CYYC;2008-11-12 04:00;CYYC 120400Z 15003KT 15SM SKC 04/M06 A2965 RMK SLP081

CYYC;2008-11-12 05:00;CYYC 120500Z 20005KT 15SM SKC M00/M06 A2965 RMK SLP081

CYYC;2008-11-12 06:00;CYYC 120600Z 19007KT 15SM BKN210 00/M06 A2962 RMK CI4 SLP070

CYYC;2008-11-12 07:00;CYYC 120700Z 19009KT 15SM FEW180 BKN210 01/M06 A2960 RMK AS2CI2 SLP063

CYYC;2008-11-12 08:00;CYYC 120800Z 19007KT 15SM SCT140 OVC210 01/M06 A2958 RMK AS3CI2 SLP056

CYYC;2008-11-12 09:00;CYYC 120900Z 17008KT 15SM FEW061 SCT074 BKN140 OVC210 01/M06 A2949 RMK SC2AC2AC2CI2 SLP020

CYYC;2008-11-12 10:00;CYYC 121000Z 17006KT 15SM FEW064 BKN079 BKN140 OVC210 01/M05 A2945 RMK SC2AC3AC2CI1 SLP009

CYYC;2008-11-12 11:00;CYYC 121100Z 18004KT 15SM FEW065 BKN160 OVC220 01/M05 A2938 RMK SC2AC4CI1 SLP987

CYYC;2008-11-12 12:00;CYYC 121200Z 17003KT 15SM FEW100 BKN180 OVC220 01/M05 A2937 RMK AC2AC3CI3 SLP981

CYYC;2008-11-12 13:00;CYYC 121300Z 31005KT 15SM BKN170 OVC240 00/M04 A2934 RMK AC5CI3 SLP973

CYYC;2008-11-12 14:00;CYYC 121400Z 18005KT 15SM SCT120 OVC240 01/M03 A2930 RMK AC4CI4 SLP960

CYYC;2008-11-12 15:00;CYYC 121500Z 27005KT 30SM SCT130 BKN230 03/M03 A2928 RMK AC4CI3 SLP947

CYYC;2008-11-12 16:00;CYYC 121600Z 24021KT 30SM FEW140 BKN230 09/M02 A2926 RMK AC2CI5 SLP939

CYYC;2008-11-12 17:00;CYYC 121700Z 28012KT 30SM FEW160 BKN180 BKN240 10/M02 A2931 RMK AC1AC4CI2 SLP954

CYYC;2008-11-12 18:00;CYYC 121800Z 29012KT 30SM FEW190 FEW230 10/M02 A2934 RMK AC2CI1 DIST SH SW SLP960

CYYC;2008-11-12 19:00;CYYC 121900Z 28019G26KT 30SM FEW040 FEW190 SCT250 13/M02 A2934 RMK CU1AC2CI0 DIST SH SW SLP961

CYYC;2008-11-12 20:00;CYYC 122000Z 27024G30KT 30SM FEW036 FEW180 FEW250 13/M04 A2934 RMK CU1AC1CI1 DIST SH SW/CC ASOCTD SLP962

CYYC;2008-11-12 21:00;CYYC 122100Z 27018G31KT 30SM FEW036 FEW180 FEW250 13/M04 A2936 RMK CU1AC1CI1 DIST SH SW SLP963

CYYC;2008-11-12 22:00;CYYC 122200Z 29019KT 30SM FEW032 FEW200 SCT220 13/M05 A2937 RMK CU1CI1CI2 DIST SH SW SLP964

CYYC;2008-11-12 23:00;CYYC 122300Z 27013KT 30SM FEW030 FEW100 FEW220 12/M04 A2936 RMK SC1AC1CI1 DIST SH SW-W SLP962

CYYC;2008-11-13 00:00;CYYC 130000Z CCA 26006KT 30SM FEW030 FEW100 09/M04 A2937 RMK SC1AC1 DIST SH SW-W SLP972

CYYC;2008-11-13 01:00;CYYC 130100Z 02003KT 15SM FEW100 FEW160 06/M04 A2938 RMK AC1AC1 SLP974

CYYC;2008-11-13 02:00;CYYC 130200Z 26011KT 15SM FEW120 05/M03 A2937 RMK AC1 SLP973

CYYC;2008-11-13 03:00;CYYC 130300Z 24007KT 15SM FEW090 06/M03 A2937 RMK AC1 AC TR SLP973

CYYC;2008-11-13 04:00;CYYC 130400Z 25010KT 15SM FEW090 06/M03 A2936 RMK AC1 AC TR SLP970

CYYC;2008-11-13 05:00;CYYC 130500Z 28010G15KT 15SM FEW090 06/M03 A2937 RMK AC1 AC TR SLP972

CYYC;2008-11-13 06:00;CYYC 130600Z 26015KT 15SM FEW140 06/M04 A2938 RMK AC1 AC TR SLP965

CYYC;2008-11-13 07:00;CYYC 130700Z 26010KT 15SM FEW140 06/M04 A2939 RMK AC1 AC TR SLP969

CYYC;2008-11-13 08:00;CYYC 130800Z 27005KT 15SM FEW140 05/M05 A2940 RMK AC1 AC TR SLP972

CYYC;2008-11-13 09:00;CYYC 130900Z 25010KT 15SM FEW100 05/M05 A2942 RMK AC1 AC TR SLP977

CYYC;2008-11-13 10:00;CYYC 131000Z 27012KT 15SM SKC 05/M03 A2943 RMK SLP982

CYYC;2008-11-13 11:00;CYYC 131100Z 27010KT 15SM SKC 05/M04 A2945 RMK SLP986

CYYC;2008-11-13 12:00;CYYC 131200Z 33003KT 15SM FEW070 FEW240 03/M04 A2946 RMK AC1CI1 AC TR SLP001

CYYC;2008-11-13 13:00;CYYC 131300Z 29004KT 15SM FEW070 FEW090 FEW240 03/M04 A2948 RMK AC1AC1CI1 LWR AC TR SLP006

CYYC;2008-11-13 14:00;CYYC 131400Z 36007KT 15SM FEW070 SCT100 00/M05 A2951 RMK AC2AC1 SLP017

CYYC;2008-11-13 15:00;CYYC 131500Z 23006KT 30SM FEW100 SCT170 01/M05 A2954 RMK AC2AC1 SLP037

CYYC;2008-11-13 16:00;CYYC 131600Z 01002KT 30SM FEW100 BKN170 02/M05 A2956 RMK AC2AC3 SLP043

CYYC;2008-11-13 17:00;CYYC 131700Z 35006KT 40SM FEW100 BKN160 01/M05 A2959 RMK AC1AC6 SLP051

CYYC;2008-11-13 18:00;CYYC 131800Z CCA 31007KT 40SM FEW044 FEW110 SCT120 BKN160 05/M07 A2962 RMK CU1AC1AC3AC4 CU TR/DIST SH NE+NW SLP056

CYYC;2008-11-13 18:46;CYYC 131846Z 32011KT 30SM -SHSN FEW048 BKN090 BKN120 04/ RMK CU1AC5AC2 PCPN VRY LGT

CYYC;2008-11-13 19:00;CYYC 131900Z 32009KT 30SM -SHSN FEW048 BKN090 BKN120 04/M08 A2965 RMK CU1AC5AC2 PCPN VRY LGT SLP068

CYYC;2008-11-13 19:23;CYYC 131923Z 33008KT 30SM FEW048 BKN080 BKN120 04/ RMK CU1AC5AC2

CYYC;2008-11-13 20:00;CYYC 132000Z 30008KT 30SM FEW052 BKN080 BKN120 04/M09 A2967 RMK CU1AC5AC2 SLP072

CYYC;2008-11-13 21:00;CYYC 132100Z 27013KT 30SM FEW048 SCT120 BKN160 05/M08 A2971 RMK CU1AC2AC2 SLP089

CYYC;2008-11-13 22:00;CYYC 132200Z 31015G25KT 30SM FEW060 BKN070 BKN160 05/M10 A2976 RMK CU1AC5AC2 PCPN ALQDS SLP104

CYYC;2008-11-13 23:00;CYYC 132300Z CCA 34017KT 30SM FEW060 FEW075 BKN140 04/M10 A2981 RMK CU1AC2AC2 PRESRR/SH SE-S-SW-W SLP121

CYYC;2008-11-14 00:00;CYYC 140000Z 32013KT 30SM FEW080 SCT100 BKN160 03/M10 A2987 RMK AC2AC2AC1 PRESRR SLP153

CYYC;2008-11-14 01:00;CYYC 140100Z 35010KT 15SM FEW090 BKN120 02/M11 A2992 RMK AC2AC2 SLP167

CYYC;2008-11-14 02:00;CYYC 140200Z 33012G17KT 15SM BKN090 01/M10 A2998 RMK AC5 PRESRR SLP184

CYYC;2008-11-14 03:00;CYYC 140300Z 34009KT 15SM BKN085 00/M08 A3003 RMK AC6 SLP215

CYYC;2008-11-14 04:00;CYYC 140400Z 34010KT 15SM OVC092 M00/M07 A3007 RMK AC7 SLP227

CYYC;2008-11-14 05:00;CYYC 140500Z 32005KT 15SM BKN090 M01/M07 A3011 RMK AC6 SLP240

CYYC;2008-11-14 06:00;CYYC 140600Z 33010KT 15SM SCT090 M02/M07 A3015 RMK AC2 SLP253

CYYC;2008-11-14 07:00;CYYC 140700Z 31007KT 15SM FEW097 M02/M08 A3018 RMK AC2 SLP261

CYYC;2008-11-14 08:00;CYYC 140800Z 31005KT 15SM FEW095 M02/M10 A3021 RMK AC2 SLP270

CYYC;2008-11-14 09:00;CYYC 140900Z 30007KT 15SM FEW090 M01/M12 A3022 RMK AC2 SLP278

CYYC;2008-11-14 10:00;CYYC 141000Z 28007KT 15SM BKN085 M01/M13 A3024 RMK AC5 SLP283

CYYC;2008-11-14 11:00;CYYC 141100Z 30008KT 15SM OVC085 01/M14 A3028 RMK AC7 SLP295

CYYC;2008-11-14 12:00;CYYC 141200Z 29006KT 15SM BKN077 OVC220 00/M13 A3030 RMK AC6CI1 SLP306

CYYC;2008-11-14 13:00;CYYC 141300Z 36005KT 15SM BKN079 OVC220 M00/M11 A3032 RMK AC7CI1 SLP313

CYYC;2008-11-14 14:00;CYYC 141400Z 35005KT 15SM SCT079 SCT220 M02/M11 A3034 RMK AC2CI1 SLP319

CYYC;2008-11-14 15:00;CYYC 141500Z 35005KT 30SM FEW079 SCT220 M02/M11 A3037 RMK AC1CI0 SLP337

CYYC;2008-11-14 16:00;CYYC 141600Z 35004KT 40SM FEW079 SCT220 M02/M10 A3038 RMK AC1CI0 SLP341

CYYC;2008-11-14 17:00;CYYC 141700Z 00000KT 40SM SCT220 M00/M10 A3038 RMK CI2 SLP342

CYYC;2008-11-14 18:00;CYYC 141800Z 11002KT 40SM BKN200 01/M10 A3038 RMK CI2 SLP340

CYYC;2008-11-14 19:00;CYYC 141900Z 17008KT 40SM FEW150 BKN220 02/M10 A3036 RMK AC2CI1 SLP333

CYYC;2008-11-14 20:00;CYYC 142000Z 16010G15KT 40SM SCT150 BKN220 02/M09 A3033 RMK AC2CI1 SLP324

CYYC;2008-11-14 21:00;CYYC 142100Z 14011KT 40SM FEW150 BKN220 03/M09 A3030 RMK AC2CI1 ACSL PRSNT SLP309

CYYC;2008-11-14 22:00;CYYC 142200Z 16011KT 40SM SCT150 BKN200 02/M10 A3028 RMK AC3CI0 ACSL PRSNT SLP302

CYYC;2008-11-14 23:00;CYYC 142300Z CCA 15011KT 30SM FEW110 BKN180 BKN200 02/M10 A3025 RMK AC2AC1CI0 ACSL PRSNT SLP292

CYYC;2008-11-15 00:00;CYYC 150000Z 17009KT 30SM FEW100 SCT150 OVC250 M00/M09 A3023 RMK AC2AC1CI0 ACSL PRSNT SLP284

CYYC;2008-11-15 01:00;CYYC 150100Z 17008KT 15SM SCT120 BKN220 M01/M09 A3021 RMK AC3CI0 SLP278

CYYC;2008-11-15 02:00;CYYC 150200Z 15006KT 15SM FEW100 BKN210 BKN240 M02/M08 A3017 RMK AC2CI1CI1 SLP268

CYYC;2008-11-15 03:00;CYYC 150300Z 18005KT 15SM FEW110 BKN220 M02/M08 A3015 RMK AC1CI5 SLP265

CYYC;2008-11-15 04:00;CYYC 150400Z 14003KT 15SM FEW110 OVC220 M02/M08 A3011 RMK AC1CI6 SLP253

CYYC;2008-11-15 05:00;CYYC 150500Z 19007KT 15SM SCT120 OVC210 M02/M08 A3008 RMK AC3CI4 SLP245

CYYC;2008-11-15 06:00;CYYC 150600Z 17004KT 15SM BKN110 OVC210 M01/M08 A3005 RMK AC5CI2 SLP221

CYYC;2008-11-15 07:00;CYYC 150700Z 19006KT 15SM FEW120 BKN190 OVC230 00/M09 A3000 RMK AC2AC3CI2 SLP207

CYYC;2008-11-15 08:00;CYYC 150800Z 22009KT 15SM FEW120 BKN170 OVC230 03/M07 A2997 RMK AC1AC4CI2 SLP197

CYYC;2008-11-15 09:00;CYYC 150900Z 24004KT 15SM SCT180 OVC210 06/M06 A2994 RMK AC3CI4 SLP174

CYYC;2008-11-15 10:00;CYYC 151000Z 27015G21KT 15SM FEW180 OVC240 10/M03 A2995 RMK AC2CI5 SLP176

CYYC;2008-11-15 11:00;CYYC 151100Z 24017G22KT 15SM FEW120 OVC240 09/M03 A2992 RMK AC1CI6 SLP166

CYYC;2008-11-15 12:00;CYYC 151200Z 23012KT 15SM FEW120 OVC240 09/M02 A2990 RMK AC1CI6 SLP160

CYYC;2008-11-15 13:00;CYYC 151300Z 23008KT 15SM SCT250 09/M02 A2991 RMK CI1 SLP162

CYYC;2008-11-15 14:00;CYYC 151400Z 05004KT 15SM FEW095 BKN250 07/M02 A2990 RMK AC2CI2 SLP160

CYYC;2008-11-15 15:00;CYYC 151500Z 01006KT 30SM SCT095 OVC250 03/M03 A2995 RMK AC3CI2 SLP188

CYYC;2008-11-15 16:00;CYYC 151600Z 36010KT 30SM BKN090 OVC250 01/M05 A2999 RMK AC5CI2 SLP200

CYYC;2008-11-15 17:00;CYYC 151700Z 01005KT 30SM BKN090 OVC250 03/M04 A3001 RMK AC6CI2 SLP205

CYYC;2008-11-15 18:00;CYYC 151800Z 00000KT 30SM BKN090 OVC110 04/M03 A3001 RMK AC5AC2 SLP206

CYYC;2008-11-15 19:00;CYYC 151900Z 00000KT 30SM SCT090 BKN110 06/M03 A3001 RMK AC3AC2 SLP205

CYYC;2008-11-15 20:00;CYYC 152000Z 12002KT 30SM BKN100 BKN120 07/M01 A3002 RMK AC5AC0 SLP207

CYYC;2008-11-15 21:00;CYYC 152100Z 10009KT 30SM FEW090 BKN220 08/01 A3001 RMK AC2CI1 SLP191

CYYC;2008-11-15 22:00;CYYC 152200Z 13010KT 30SM FEW090 FEW220 08/M00 A3002 RMK AC1CI1 SLP192

CYYC;2008-11-15 23:00;CYYC 152300Z 14008KT 30SM FEW090 07/M00 A3003 RMK AC2 ACSL PRSNT SW-W SLP195

CYYC;2008-11-16 00:00;CYYC 160000Z 15005KT 30SM FEW090 BKN190 04/M01 A3006 RMK AC2AC2 SLP207

CYYC;2008-11-16 01:00;CYYC 160100Z 02004KT 15SM FEW120 BKN180 02/M01 A3008 RMK AC2AC2 SLP216

CYYC;2008-11-16 02:00;CYYC 160200Z 00000KT 15SM SCT100 BKN120 03/M00 A3010 RMK AC3AC2 SLP220

CYYC;2008-11-16 03:00;CYYC 160300Z 32005KT 15SM BKN054 OVC064 04/M00 A3011 RMK SC6SC2 SLP235

CYYC;2008-11-16 03:31;CYYC 160331Z 31005KT 15SM -RA BKN042 OVC054 04/ RMK SC6SC2

CYYC;2008-11-16 04:00;CYYC 160400Z 01003KT 15SM -RA FEW022 OVC047 04/01 A3013 RMK SF1SC8 SLP242

CYYC;2008-11-16 05:00;CYYC 160500Z 08008KT 12SM -RA OVC029 03/M00 A3016 RMK SC8 SLP249

CYYC;2008-11-16 06:00;CYYC 160600Z 07005KT 3SM -RA BR OVC024 01/00 A3018 RMK SC8 SLP260

CYYC;2008-11-16 06:28;CYYC 160628Z CCA 05006KT 2 1/2SM -SN BR OVC025 01/ RMK SC8

CYYC;2008-11-16 07:00;CYYC 160700Z 05008KT 4SM -SN OVC025 00/M00 A3018 RMK SC8 SLP261

CYYC;2008-11-16 07:21;CYYC 160721Z 05006KT 2SM -SN OVC028 00/ RMK SC8

CYYC;2008-11-16 07:35;CYYC 160735Z 03005KT 1 1/2SM -SN BKN011 OVC026 00/ RMK SC6SC2

CYYC;2008-11-16 07:50;CYYC 160750Z 02003KT 1SM -SN BKN008 OVC022 M00/ RMK SC6SC2 VIS NE 11/2

CYYC;2008-11-16 08:00;CYYC 160800Z 02005KT 1SM -SN BKN007 OVC023 M00/M00 A3019 RMK SC7SC1 RVR RWY 16 6000+ FT / VIS NE 11/2 SLP264

CYYC;2008-11-16 09:00;CYYC 160900Z 02005KT 1SM -SN FEW005 BKN008 OVC023 M01/M01 A3018 RMK SF1SC7SC1 RVR RWY 16 6000+ FT SLP258

CYYC;2008-11-16 09:40;CYYC 160940Z 03004KT 1 1/2SM -SN FEW006 BKN011 BKN026 OVC032 M01/ RMK SF1SC6SC2SC1

CYYC;2008-11-16 10:00;CYYC 161000Z 03003KT 1 1/2SM -SN FEW005 BKN009 OVC024 M01/M01 A3018 RMK SF2SC6SC1 /S01/ SLP259

CYYC;2008-11-16 11:00;CYYC 161100Z 00000KT 1SM -SN FEW004 BKN009 BKN012 OVC023 M01/M01 A3019 RMK SF2SC5SC1SC1 /S02/ RVR RWY 16 6000+ FT SLP261

CYYC;2008-11-16 12:00;CYYC 161200Z 00000KT 1 1/2SM -SN FEW007 SCT012 OVC036 M01/M01 A3019 RMK SF2SC2SC3 /S04/ SLP267

CYYC;2008-11-16 12:32;CYYC 161232Z 00000KT 4SM -SN FEW006 FEW011 OVC036 M01/ RMK SF1SF1SC6

CYYC;2008-11-16 13:00;CYYC 161300Z 00000KT 5SM -SN FEW006 FEW011 OVC039 M01/M01 A3020 RMK SF1SF2SC6 CIG LWR N SLP271

CYYC;2008-11-16 13:22;CYYC 161322Z 15002KT 2SM -SN FEW006 FEW015 OVC040 M02/ RMK SF1SC2SC6

CYYC;2008-11-16 14:00;CYYC 161400Z 15003KT 1 1/2SM -SN FEW007 FEW011 OVC039 M01/M01 A3021 RMK SF1SC1SC6 /SO1/ SLP273

CYYC;2008-11-16 14:51;CYYC 161451Z 14004KT 1 1/2SM -SN BR SCT005 BKN011 BKN025 OVC035 M01/ RMK SF3SC2SC2SC1

CYYC;2008-11-16 15:00;CYYC 161500Z 16004KT 1 1/4SM -SN BR SCT005 BKN012 BKN025 OVC035 M01/M02 A3020 RMK SF3SC3SC1SC1 FROIN SLP272

CYYC;2008-11-16 15:51;CYYC 161551Z 16004KT 2SM -SN BR FEW003 SCT010 OVC042 M01/ RMK SF2SC2SC4 VIS LWR E

CYYC;2008-11-16 16:00;CYYC 161600Z 16004KT 2SM -SN FEW003 BKN011 OVC042 M01/M01 A3021 RMK SF2SC2SC3 VIS LWR E SLP274

CYYC;2008-11-16 16:11;CYYC 161611Z 15003KT 1 1/2SM -SN BR FEW003 BKN011 OVC042 M01/ RMK ST2SC3SC2 VIS LWR E

CYYC;2008-11-16 17:00;CYYC 161700Z 13003KT 2SM -SN BR FEW003 BKN012 OVC045 M01/M01 A3021 RMK ST2SC5SC2 VIS LWR E SLP276

CYYC;2008-11-16 18:00;CYYC 161800Z CCA 15003KT 4SM -SN BR FEW004 SCT014 OVC046 M01/M02 A3020 RMK ST2SC2SC4 PCPN VRY LGT/S02/ SLP276

CYYC;2008-11-16 18:36;CYYC 161836Z 16003KT 5SM BR FEW008 OVC038 M01/ RMK ST1SC8

CYYC;2008-11-16 19:00;CYYC 161900Z 16004KT 8SM FEW006 OVC034 M01/M01 A3020 RMK ST2SC6 BR SLP274

CYYC;2008-11-16 19:05;CYYC 161905Z 14004KT 8SM -SN FEW006 OVC033 M01/ RMK ST2SC6 LWR CLD SW/BR

CYYC;2008-11-16 19:12;CYYC 161912Z 17004KT 8SM -SN BKN006 OVC032 M01/ RMK ST5SC3 VIS LWR S-W

CYYC;2008-11-16 20:00;CYYC 162000Z 14005KT 8SM -SN OVC006 M01/M01 A3019 RMK ST8 SLP271

CYYC;2008-11-16 20:33;CYYC 162033Z 11004KT 10SM BKN006 OVC020 M01/ RMK ST6SC2

CYYC;2008-11-16 21:00;CYYC 162100Z 13004KT 8SM BKN006 OVC020 M01/M01 A3018 RMK ST7SC1 SLP269

CYYC;2008-11-16 21:03;CYYC 162103Z 13005KT 10SM -SN BKN006 OVC020 M00/ RMK ST6SC2 PCPN VRY LGT

CYYC;2008-11-16 21:51;CYYC 162151Z 10004KT 12SM FEW008 OVC020 M01/ RMK ST2SC6

CYYC;2008-11-16 22:00;CYYC 162200Z 11004KT 15SM -SN SCT006 OVC020 M01/M01 A3018 RMK ST3SC5 PCPN VRY LGT SLP271

CYYC;2008-11-16 22:28;CYYC 162228Z 11005KT 12SM SCT007 OVC020 M01/ RMK ST4SC4

CYYC;2008-11-16 23:00;CYYC 162300Z 11005KT 15SM BKN006 OVC020 M01/M01 A3019 RMK ST5SC3 SLP274

CYYC;2008-11-16 23:47;CYYC 162347Z 09006KT 2 1/2SM BR BKN005 OVC022 M01/ RMK ST6SC2 VIS N 5

CYYC;2008-11-17 00:00;CYYC 170000Z 09006KT 2 1/2SM BR OVC005 M01/M01 A3021 RMK ST8 VIS N 5 SLP280

CYYC;2008-11-17 00:38;CYYC 170038Z CCA 10007KT 2SM -SN BR OVC004 M01/ RMK ST8

CYYC;2008-11-17 01:00;CYYC 170100Z 10008KT 2SM -SN BR OVC003 M01/M01 A3021 RMK ST8 SLP281

CYYC;2008-11-17 02:00;CYYC 170200Z 13007KT 2SM -SN BR OVC003 M01/M01 A3022 RMK ST8 SLP284

CYYC;2008-11-17 02:15;CYYC 170215Z 13007KT 2SM -FZRA BR OVC002 M01/ RMK ST8 RIME ON ICE ACCRETION

CYYC;2008-11-17 02:39;CYYC 170239Z CCA 13008KT 1SM -FZRA BR OVC004 M01/ RMK SC8 RVR RWY 34 6000 FT

CYYC;2008-11-17 02:45;CYYC 170245Z CCB 13008KT 1SM -SN -FZRA BR OVC003 M01/ RMK SC8 RVR RWY 34 6000 FT

CYYC;2008-11-17 03:00;CYYC 170300Z 13010KT 1SM -FZDZ BR OVC004 M01/M01 A3021 RMK ST8 RVR RWY 34 6000 FT SLP282

CYYC;2008-11-17 04:00;CYYC 170400Z 14009KT 1SM -FZDZ BR OVC004 M01/M01 A3020 RMK ST8 RVR RWY 34 6000 FT / PCPN VRY LGT SLP280

CYYC;2008-11-17 05:00;CYYC 170500Z 14009KT 3/4SM -FZDZ BR OVC003 M01/M01 A3020 RMK FG2ST6 RVR RWY 34 6000 FT SLP280

CYYC;2008-11-17 05:17;CYYC 170517Z 16011KT 3/4SM -FZDZ BR OVC002 M01/ RMK FG3ST5 RVR RWY 34 6000 FT

CYYC;2008-11-17 05:46;CYYC 170546Z 15009KT 1SM -FZDZ BR OVC003 M01/ RMK FG2ST6 RVR RWY 34 6000 FT

CYYC;2008-11-17 06:00;CYYC 170600Z 14010KT 1SM -FZDZ BR OVC003 M01/M01 A3021 RMK FG1ST7 RVR RWY 34 6000 FT SLP283

CYYC;2008-11-17 07:00;CYYC 170700Z 15011KT 1SM -FZDZ BR OVC003 M01/M01 A3020 RMK FG1ST7 RVR RWY 34 6000 FT SLP278

CYYC;2008-11-17 08:00;CYYC 170800Z 15010G15KT 1 1/2SM -FZDZ BR OVC004 M01/M01 A3019 RMK ST8 SLP276

CYYC;2008-11-17 09:00;CYYC 170900Z 15010G15KT 1 1/2SM -FZDZ BR OVC004 M01/M01 A3016 RMK ST8 SLP264

CYYC;2008-11-17 10:00;CYYC 171000Z 15009KT 1 1/2SM -FZDZ BR OVC004 M01/M01 A3015 RMK ST8 PCPN VRY LGT SLP261

CYYC;2008-11-17 11:00;CYYC 171100Z 15009KT 1 1/2SM -FZDZ BR OVC003 M01/M01 A3013 RMK ST8 PCPN VRY LGT SLP254

CYYC;2008-11-17 11:49;CYYC 171149Z 16011KT 3/4SM -FZDZ BR OVC002 M01/ RMK FG3ST5

CYYC;2008-11-17 12:00;CYYC 171200Z 15007KT 1/2SM -FZDZ FZFG OVC002 M01/M01 A3013 RMK FG4ST4 SLP252

CYYC;2008-11-17 13:00;CYYC 171300Z CCA 16008KT 1/2SM FZFG BKN002 OVC005 M01/M01 A3011 REFZDZ RMK FG3ST3ST2 RVR RWY 36 6000 FT SLP246

CYYC;2008-11-17 13:18;CYYC 171318Z CCA 16011KT 1/4SM FZFG BKN002 OVC005 M01/ RMK FG3ST3ST2 RVR RWY 34 3000 FT

CYYC;2008-11-17 13:45;CYYC 171345Z 16011KT 1SM BR OVC003 M01/ RMK FG2ST6 VIS W 1/2 / RVR RWY 34 6000 FT

CYYC;2008-11-17 14:00;CYYC 171400Z 16013KT 1SM BR OVC003 M01/M01 A3009 RMK FG2ST6 VIS W 1/2 / RVR RWY 34 6000 FT SLP241

CYYC;2008-11-17 14:44;CYYC 171444Z 17012KT 1 1/2SM BR OVC002 M01/ RMK FG2ST6

CYYC;2008-11-17 14:49;CYYC 171449Z 16012KT 1 1/2SM BR OVC003 M01/ RMK FG2ST6 CIG VRB 2-4

CYYC;2008-11-17 15:00;CYYC 171500Z 17012KT 1 1/4SM BR OVC002 M01/M01 A3009 RMK FG2ST6 SLP239

CYYC;2008-11-17 15:28;CYYC 171528Z 16012KT 3/4SM BR OVC002 M01/ RMK FG5ST3 RVR RWY34 6000 FT

CYYC;2008-11-17 16:00;CYYC 171600Z 18010KT 5/8SM BR OVC002 M01/M01 A3008 RMK FG7ST1 RVR RWY34 6000 FT/ CIG VRB 1-3 SLP236

CYYC;2008-11-17 16:12;CYYC 171612Z 18010KT 1/2SM FZFG VV001 M01/ RMK FG8 RVR RWY34 5500 FT

CYYC;2008-11-17 17:00;CYYC 171700Z 17012KT 1/2SM FZFG VV001 M01/M01 A3006 RMK FG8 RVR RWY34 4000 FT SLP230

CYYC;2008-11-17 17:05;CYYC 171705Z 18011KT 3/8SM FZFG VV001 M01/ RMK FG8 RVR RWY34 3000 FT

CYYC;2008-11-17 18:00;CYYC 171800Z CCA 17010KT 5/8SM BR VV002 M01/M01 A3003 RMK FG8 RVR RWY16 3500 FT/ CIG VRB 1-3 SLP220

CYYC;2008-11-17 18:21;CYYC 171821Z 20010KT 3SM BR OVC004 M01/ RMK FG2ST6 VIS W 4

CYYC;2008-11-17 18:44;CYYC 171844Z 17005KT 1 1/4SM BR OVC003 M01/ RMK FG2ST6 VIS S-W 4 MILES

CYYC;2008-11-17 19:00;CYYC 171900Z 17009KT 1SM BR OVC003 M01/M01 A3001 RMK FG4ST4 RVR RWY34 6000 FT/ VIS W 2 MILES SLP212

CYYC;2008-11-17 19:34;CYYC 171934Z 20013KT 2SM BR OVC003 M01/ RMK ST8

CYYC;2008-11-17 20:00;CYYC 172000Z 18009KT 4SM BR OVC003 M01/M01 A2997 RMK ST8 SLP201

CYYC;2008-11-17 21:00;CYYC 172100Z 19008KT 4SM BR OVC003 M00/M01 A2994 RMK ST8 SLP188

CYYC;2008-11-17 22:00;CYYC 172200Z 17006KT 3SM BR OVC003 00/00 A2992 RMK ST8 SLP181

CYYC;2008-11-17 22:09;CYYC 172209Z 19006KT 1SM BR OVC002 M00/ RMK ST8 RVR RWY34 6000 FT

CYYC;2008-11-17 23:00;CYYC 172300Z 19007KT 1 1/2SM BR OVC002 M00/M00 A2990 RMK ST8 SLP176

CYYC;2008-11-17 23:44;CYYC 172344Z 18006KT 3/4SM BR OVC001 M00/ RMK FG6ST2 VIS S-W 1/2

CYYC;2008-11-18 00:00;CYYC 180000Z 20008KT 3/4SM BR OVC001 M00/M00 A2989 RMK FG6ST2 RVR RWY16 4500 FT SLP170

CYYC;2008-11-18 00:53;CYYC 180053Z 20005KT 6SM BR FEW003 SCT100 BKN210 M01/ RMK ST2AC2CI1

CYYC;2008-11-18 01:00;CYYC 180100Z 18006KT 5SM BR FEW004 SCT090 BKN210 M01/M01 A2986 RMK ST2AC2CI1 VIS LWR SE SLP160

CYYC;2008-11-18 01:31;CYYC 180131Z CCA 19005KT 2SM BR BKN003 OVC085 M01/ RMK FG3ST3AC1 VIS N-E-SE 1/2 / VIS S 5

CYYC;2008-11-18 01:56;CYYC 180156Z 19004KT 7SM FEW004 SCT100 BKN240 M01/ RMK SF2AC2CI0

CYYC;2008-11-18 02:00;CYYC 180200Z 25004KT 9SM FEW005 FEW100 BKN240 M01/M01 A2983 RMK SF2AC1CI0 SLP151

CYYC;2008-11-18 03:00;CYYC 180300Z 20004KT 10SM FEW100 FEW240 M01/M01 A2982 RMK AC1CI0 SLP143

CYYC;2008-11-18 04:00;CYYC 180400Z 00000KT 15SM FEW100 BKN250 M01/M02 A2980 RMK AC1CI2 SLP138

CYYC;2008-11-18 05:00;CYYC 180500Z 00000KT 15SM BKN250 M00/M02 A2978 RMK CI2 SLP133

CYYC;2008-11-18 06:00;CYYC 180600Z 16002KT 15SM BKN250 M00/M02 A2977 RMK CI5 SLP128

CYYC;2008-11-18 07:00;CYYC 180700Z 20002KT 15SM BKN250 01/M01 A2978 RMK CI4 SLP129

CYYC;2008-11-18 08:00;CYYC 180800Z 00000KT 15SM BKN250 04/M02 A2976 RMK CI6 SLP123

CYYC;2008-11-18 09:00;CYYC 180900Z 21004KT 15SM BKN250 03/M02 A2975 RMK CI6 SLP116

CYYC;2008-11-18 10:00;CYYC 181000Z 27003KT 15SM BKN250 04/M02 A2975 RMK CI6 SLP115

CYYC;2008-11-18 11:00;CYYC 181100Z 27005KT 15SM BKN250 06/M03 A2976 RMK CI6 SLP118

CYYC;2008-11-18 12:00;CYYC 181200Z 32007KT 15SM BKN250 08/M03 A2977 RMK CI4 SLP113

CYYC;2008-11-18 13:00;CYYC 181300Z 25003KT 15SM BKN250 05/M03 A2977 RMK CI6 SLP115

CYYC;2008-11-18 14:00;CYYC 181400Z 00000KT 15SM BKN250 08/M03 A2979 RMK CI3 SLP119

CYYC;2008-11-18 15:00;CYYC 181500Z 29002KT 40SM FEW150 BKN220 OVC250 08/M02 A2980 RMK AC1CI1CI0 SLP126

CYYC;2008-11-18 16:00;CYYC 181600Z 35003KT 40SM FEW050 SCT180 BKN240 03/M02 A2983 RMK SC1AC4CI2 DIST SH SW SLP135

CYYC;2008-11-18 17:00;CYYC 181700Z 32012KT 40SM FEW050 FEW160 BKN240 09/M02 A2987 RMK SC1AC1CI4 DIST SH SW SLP146

CYYC;2008-11-18 18:00;CYYC 181800Z 34014KT 40SM FEW050 FEW240 03/M01 A2990 RMK SC1CI1 DIST SH SW SLP167

CYYC;2008-11-18 19:00;CYYC 181900Z 34015KT 40SM FEW012 FEW040 FEW240 02/M00 A2993 RMK CU1SC1CI1 DIST SH SW SLP175

CYYC;2008-11-18 20:00;CYYC 182000Z 36014G19KT 40SM SCT010 BKN100 01/00 A2996 RMK SC4AC3 DIST SH E-S SLP184

CYYC;2008-11-18 20:11;CYYC 182011Z 35017KT 30SM OVC009 01/ RMK SC8 DIST SH NE-S

CYYC;2008-11-18 20:42;CYYC 182042Z 35013KT 20SM OVC006 01/ RMK SC8 DIST SH ALQDS

CYYC;2008-11-18 21:00;CYYC 182100Z 36015KT 20SM OVC006 01/00 A2998 RMK SC8 SH ALQDS SLP192

CYYC;2008-11-18 22:00;CYYC 182200Z 36011KT 20SM OVC007 02/01 A3001 RMK SC8 SH ALQDS SLP201

CYYC;2008-11-18 22:49;CYYC 182249Z CCA 01005KT 20SM FEW011 02/ RMK SC1 VIS LWR SW/DIST SH E-SW5

CYYC;2008-11-18 23:00;CYYC 182300Z 35004KT 20SM FEW011 02/01 A3003 RMK SC1 VIS LWR SW/DIST SH E-SW SLP209

CYYC;2008-11-19 00:00;CYYC 190000Z 33003KT 20SM FEW015 FEW041 02/01 A3007 RMK SC1SC1 DIST SH SW-W SLP217

CYYC;2008-11-19 01:00;CYYC 190100Z 29005KT 15SM FEW041 FEW080 FEW110 01/00 A3009 RMK SC1AC1AC1 SLP222

CYYC;2008-11-19 02:00;CYYC 190200Z 02004KT 15SM BKN033 BKN080 BKN110 01/00 A3012 RMK SC6AC1AC1 SLP232

CYYC;2008-11-19 03:00;CYYC 190300Z 04005KT 15SM OVC024 01/00 A3015 RMK SC8 SLP246

CYYC;2008-11-19 04:00;CYYC 190400Z 00000KT 15SM OVC026 01/00 A3019 RMK SC8 SLP256

CYYC;2008-11-19 04:54;CYYC 190454Z 03008KT 8SM -SN OVC018 OVC026 01/ RMK SC6SC2

CYYC;2008-11-19 05:00;CYYC 190500Z 03008KT 2SM -SN BKN004 OVC010 00/00 A3022 RMK SN2SC3SC3 VIS W 3/4 SLP267

CYYC;2008-11-19 05:05;CYYC 190505Z 04009KT 1/4SM +SN VV003 00/ RMK SN8 RVR RWY34 4000 FT

CYYC;2008-11-19 05:20;CYYC 190520Z CCB 02004KT 1SM -SN BKN010 OVC024 00/ RESN RMK SN3SC4SC1 RVR RWY16 6000 FT

CYYC;2008-11-19 05:35;CYYC 190535Z 02005KT 1 1/4SM -SN BKN006 OVC017 00/ RESN RMK SN4SC3SC1

CYYC;2008-11-19 05:41;CYYC 190541Z 02004KT 1/2SM SN VV005 00/ RMK SN8 RVR RWY16 6000 FT

CYYC;2008-11-19 06:00;CYYC 190600Z 36004KT 1 3/4SM -SN BKN005 OVC025 00/00 A3025 RESN RMK SN3SC3SC2 /S01/ SLP286

CYYC;2008-11-19 06:23;CYYC 190623Z 35006KT 1/2SM SN VV017 00/ RMK SN8 RVR RWY16 6000 FT

CYYC;2008-11-19 06:47;CYYC 190647Z 34010KT 3SM -SN BKN025 OVC039 M00/ RESN RMK SC6SC2

CYYC;2008-11-19 07:00;CYYC 190700Z 35009KT 2SM -SN FEW010 OVC023 M00/M01 A3028 RESN RMK SC2SC6 SLP298

CYYC;2008-11-19 07:03;CYYC 190703Z CCA 35009KT 1/2SM SN VV008 M00/ RMK SN8 RVR RWY16 6000 FT

CYYC;2008-11-19 07:41;CYYC 190741Z 03004KT 5/8SM -SN BKN010 OVC019 M01/ RESN RMK SN6SC2SC1 RVR RWY16 6000 FT

CYYC;2008-11-19 08:00;CYYC 190800Z 06005KT 1/2SM SN BKN006 OVC012 M01/M01 A3031 RMK SN6SC2SC1 RVR RWY16 6000 FT /S01/ SLP305

CYYC;2008-11-19 08:06;CYYC 190806Z 06004KT 3SM -SN BKN011 OVC021 M01/ RESN RMK SN2SC6SC1

CYYC;2008-11-19 09:00;CYYC 190900Z 04005KT 5SM -SN OVC024 M01/M02 A3032 RESN RMK SC8 /S02/ SLP319

CYYC;2008-11-19 10:00;CYYC 191000Z 04006KT 8SM -SN BKN020 OVC048 M02/M03 A3036 RMK SC5SC3 SLP329

CYYC;2008-11-19 10:03;CYYC 191003Z CCA 04007KT 10SM FEW020 OVC047 M02/ RMK SC2SC6

CYYC;2008-11-19 11:00;CYYC 191100Z 03010KT 15SM FEW021 OVC039 M03/M05 A3038 RMK SC1SC7 SLP335

CYYC;2008-11-19 12:00;CYYC 191200Z 04005KT 15SM FEW017 OVC036 M03/M04 A3041 RMK SC2SC6 SNOW COVER/MUCH LOOSE SLP350

CYYC;2008-11-19 13:00;CYYC 191300Z 05003KT 15SM OVC035 M03/M04 A3043 RMK SC8 SLP357

CYYC;2008-11-19 14:00;CYYC 191400Z 04003KT 15SM BKN023 OVC040 M03/M05 A3046 RMK SC6SC2 SLP365

CYYC;2008-11-19 14:32;CYYC 191432Z 00000KT 15SM -SN SCT020 BKN032 OVC035 M03/ RMK SC3SC2SC3

CYYC;2008-11-19 15:00;CYYC 191500Z 35006KT 15SM FEW011 SCT020 OVC030 M03/M05 A3048 RMK SC1SC2SC5 VIRGA ALQDS SLP378

CYYC;2008-11-19 16:00;CYYC 191600Z 03007KT 20SM FEW011 OVC030 M04/M06 A3051 RMK CF1SC8 SLP386

CYYC;2008-11-19 16:27;CYYC 191627Z 04006KT 20SM -SN OVC029 M04/ RMK SC8 PCPN VRY LGT

CYYC;2008-11-19 17:00;CYYC 191700Z 03006KT 20SM SCT020 OVC028 M04/M06 A3054 RMK SC4SC4 SLP394

CYYC;2008-11-19 17:04;CYYC 191704Z 03004KT 20SM -SN FEW020 SCT025 OVC028 M04/ RMK SC1SC3SC4 PCPN VRY LGT

CYYC;2008-11-19 18:00;CYYC 191800Z 36007KT 20SM -SN FEW020 OVC025 M04/M06 A3056 RMK SC2SC6 SLP406

CYYC;2008-11-19 19:00;CYYC 191900Z 35002KT 20SM OVC025 M04/M06 A3057 RMK SC8 SLP408

CYYC;2008-11-19 20:00;CYYC 192000Z 35004KT 20SM -SN FEW013 OVC024 M04/M06 A3057 RMK SC1SC8 PCPN VRY LGT SLP409

CYYC;2008-11-19 21:00;CYYC 192100Z 01004KT 20SM FEW013 OVC023 M03/M06 A3058 RMK SC1SC7 SLP415

CYYC;2008-11-19 22:00;CYYC 192200Z 04006KT 20SM OVC021 M04/M06 A3059 RMK SC8 DIST SH SW SLP418

CYYC;2008-11-19 23:00;CYYC 192300Z 05005KT 20SM SCT013 OVC020 M04/M06 A3060 RMK SC3SC5 SLP422

CYYC;2008-11-20 00:00;CYYC 200000Z 06004KT 15SM FEW018 OVC026 M05/M06 A3062 RMK SC2SC6 SLP434

CYYC;2008-11-20 01:00;CYYC 200100Z 12002KT 15SM FEW028 M06/M07 A3063 RMK SC1 SLP438

CYYC;2008-11-20 02:00;CYYC 200200Z 15005KT 15SM FEW014 FEW020 M08/M09 A3065 RMK SC1SC0 SLP442

CYYC;2008-11-20 03:00;CYYC 200300Z 16007KT 15SM BKN019 M06/M07 A3064 RMK SC7 SLP443

CYYC;2008-11-20 04:00;CYYC 200400Z 18008KT 15SM OVC016 M05/M07 A3063 RMK SC8 SLP438

CYYC;2008-11-20 05:00;CYYC 200500Z 17010KT 12SM OVC017 M05/M07 A3062 RMK SC8 SLP435

CYYC;2008-11-20 06:00;CYYC 200600Z 18013KT 12SM OVC019 M05/M06 A3061 RMK SC8 SLP431

CYYC;2008-11-20 07:00;CYYC 200700Z 16010KT 15SM SCT019 M07/M08 A3058 RMK SC2 SLP421

CYYC;2008-11-20 08:00;CYYC 200800Z 17010KT 15SM FEW020 SCT085 M08/M08 A3057 RMK SC1AC2 SLP419

CYYC;2008-11-20 09:00;CYYC 200900Z 18012KT 15SM FEW030 FEW085 M08/M08 A3055 RMK SC1AC1 SLP413

CYYC;2008-11-20 10:00;CYYC 201000Z 16011KT 10SM SCT004 BKN020 BKN085 M09/M09 A3053 RMK ST4SC2AC1 SLP407

CYYC;2008-11-20 11:00;CYYC 201100Z 17012KT 10SM FEW004 BKN025 BKN085 M09/M09 A3049 RMK ST2SC3AC2 SLP397

CYYC;2008-11-20 12:00;CYYC 201200Z 17013KT 6SM BR BKN005 BKN025 OVC085 M08/M08 A3047 RMK ST6SC1AC1 SNOW COVER/MUCH LOOSE SLP388

CYYC;2008-11-20 13:00;CYYC 201300Z 17014G19KT 6SM BR BKN008 BKN040 OVC090 M07/M08 A3043 RMK ST5SC2AC2 SLP377

CYYC;2008-11-20 14:00;CYYC 201400Z 17015KT 10SM BKN008 BKN012 M07/M08 A3040 RMK SC5SC1 SLP368

CYYC;2008-11-20 14:34;CYYC 201434Z 16016G22KT 12SM FEW020 FEW220 M06/ RMK SF1CI0

CYYC;2008-11-20 15:00;CYYC 201500Z 16014G21KT 20SM FEW020 FEW140 FEW220 M06/M08 A3037 RMK SF1AC1CI0 SF TR/ACSL PRSNT SW SLP354

CYYC;2008-11-20 16:00;CYYC 201600Z 15008KT 40SM FEW020 FEW140 FEW220 M07/M08 A3034 RMK SF1AC2CI1 SLP344

CYYC;2008-11-20 17:00;CYYC 201700Z 16022KT 30SM FEW020 FEW140 FEW220 M07/M09 A3030 RMK SF1AC2CI1 SLP332

CYYC;2008-11-20 18:00;CYYC 201800Z 16017G24KT 30SM FEW008 FEW140 FEW220 M07/M09 A3026 RMK CU1AC2CI1 SLP314

CYYC;2008-11-20 19:00;CYYC 201900Z 16021G29KT 30SM FEW015 FEW140 FEW220 M06/M08 A3020 RMK CU1AC2CI1 PRESFR SLP294

CYYC;2008-11-20 20:00;CYYC 202000Z 16019G28KT 30SM FEW015 SCT220 M05/M07 A3014 RMK CU2CI1 SLP277

CYYC;2008-11-20 21:00;CYYC 202100Z 16024G29KT 30SM FEW016 SCT220 M04/M07 A3008 RMK CU2CI1 SLP252

CYYC;2008-11-20 22:00;CYYC 202200Z 16016G24KT 25SM BKN016 OVC180 M04/M06 A3004 RMK SC6AC2 SLP239

CYYC;2008-11-20 23:00;CYYC 202300Z 16014G19KT 25SM BKN018 BKN180 OVC220 M04/M06 A3000 RMK SC6AC1CI1 SLP227

CYYC;2008-11-21 00:00;CYYC 210000Z 16015G21KT 20SM OVC020 M04/M06 A2995 RMK SC8 SLP206

CYYC;2008-11-21 01:00;CYYC 210100Z 15010G17KT 15SM BKN021 M04/M07 A2991 RMK SC6 SLP194

CYYC;2008-11-21 02:00;CYYC 210200Z 15012G20KT 15SM SCT021 BKN090 BKN120 M05/M07 A2986 RMK SC3AC2AC1 SLP180

CYYC;2008-11-21 03:00;CYYC 210300Z 15010KT 15SM FEW050 SCT170 BKN240 M05/M07 A2981 RMK SC1AC2CI0 SLP156

CYYC;2008-11-21 04:00;CYYC 210400Z 17009KT 12SM OVC011 M05/M06 A2978 RMK ST8 SLP146

CYYC;2008-11-21 04:50;CYYC 210450Z 17008KT 12SM OVC009 M04/ RMK ST8

CYYC;2008-11-21 05:00;CYYC 210500Z 18012KT 12SM OVC009 M04/M06 A2974 RMK ST8 SLP135

CYYC;2008-11-21 06:00;CYYC 210600Z 18010KT 12SM OVC008 M04/M06 A2971 RMK ST8 SLP121

CYYC;2008-11-21 06:19;CYYC 210619Z 19009KT 15SM SCT009 SCT080 OVC150 M05/ RMK SF3AC1AC3

CYYC;2008-11-21 07:00;CYYC 210700Z 18005KT 15SM FEW009 FEW040 OVC200 M05/M06 A2969 RMK SF1SC2CI5 SLP115

CYYC;2008-11-21 08:00;CYYC 210800Z 21007KT 15SM FEW020 FEW160 OVC210 M05/M06 A2966 RMK SF1AC2CI5 SLP105

CYYC;2008-11-21 09:00;CYYC 210900Z 27010G17KT 15SM FEW040 SCT210 M01/M06 A2964 RMK SC1CI1 SLP090

CYYC;2008-11-21 10:00;CYYC 211000Z 26013KT 15SM OVC200 04/M05 A2967 RMK CI6 SLP098

CYYC;2008-11-21 11:00;CYYC 211100Z 28020G25KT 15SM OVC200 05/M05 A2969 RMK CI7 SLP104

CYYC;2008-11-21 12:00;CYYC 211200Z 28015G21KT 15SM FEW180 BKN220 04/M06 A2972 RMK AC1CI2 SNOW COVER/MUCH LOOSE SLP108

CYYC;2008-11-21 13:00;CYYC 211300Z 36010G15KT 15SM BKN091 BKN180 BKN220 01/M04 A2978 RMK AC5AC1CI0 SLP125

CYYC;2008-11-21 14:00;CYYC 211400Z 36010KT 15SM SCT091 BKN220 00/M05 A2985 RMK AC2CI2 SLP147

CYYC;2008-11-21 15:00;CYYC 211500Z CCA 32010KT 30SM FEW028 SCT095 BKN220 02/M06 A2989 RMK CU1AC3CI1 CU TR SLP172

CYYC;2008-11-21 16:00;CYYC 211600Z 31007KT 40SM FEW028 FEW090 BKN220 01/M05 A2993 RMK CU1AC2CI1 CU TR SLP184

CYYC;2008-11-21 17:00;CYYC 211700Z 34007KT 40SM FEW024 FEW090 SCT220 02/M04 A2996 RMK CU1AC2CI2 CU TR SLP194

CYYC;2008-11-21 18:00;CYYC 211800Z 01005KT 40SM FEW016 FEW090 SCT200 02/M02 A2997 RMK CU1AC1CI2 CU+AC TR SLP199

CYYC;2008-11-21 19:00;CYYC 211900Z 00000KT 40SM FEW024 FEW090 BKN220 04/M02 A2997 RMK CU1AC1CI3 SLP198

CYYC;2008-11-21 20:00;CYYC 212000Z 13006KT 30SM FEW028 FEW090 BKN250 04/M02 A2995 RMK CU1AC1CI3 SLP194

CYYC;2008-11-21 21:00;CYYC 212100Z 15012KT 30SM FEW020 FEW090 BKN250 03/M02 A2993 RMK CU1AC1CI2 SLP178

CYYC;2008-11-21 22:00;CYYC 212200Z 16011KT 30SM FEW020 FEW180 BKN250 03/M02 A2993 RMK CU1AC1CI2 CU TR SLP177

CYYC;2008-11-21 23:00;CYYC 212300Z 17011KT 30SM FEW016 FEW180 BKN200 02/M02 A2990 RMK CU1AC1CI2 SLP169

CYYC;2008-11-22 00:00;CYYC 220000Z 14004KT 30SM FEW012 FEW180 SCT200 M00/M03 A2986 RMK CU1AC1CI2 SLP153

CYYC;2008-11-22 01:00;CYYC 220100Z 18007KT 15SM FEW140 FEW200 M01/M04 A2983 RMK AC1CI0 SLP143

CYYC;2008-11-22 02:00;CYYC 220200Z 16005KT 15SM SCT200 M01/M03 A2981 RMK CI1 SLP136

CYYC;2008-11-22 03:00;CYYC 220300Z 21003KT 15SM BKN240 M01/M03 A2978 RMK CI2 SLP127

CYYC;2008-11-22 04:00;CYYC 220400Z 21005KT 15SM BKN210 M02/M04 A2974 RMK CI5 SLP116

CYYC;2008-11-22 05:00;CYYC 220500Z 19007KT 15SM SCT210 BKN240 M02/M04 A2972 RMK CI3CI2 SLP110

CYYC;2008-11-22 06:00;CYYC 220600Z 20007KT 15SM BKN230 M02/M05 A2967 RMK CI6 SLP091

CYYC;2008-11-22 07:00;CYYC 220700Z 18005KT 15SM SCT120 BKN230 M01/M04 A2965 RMK AC3CI3 SLP084

CYYC;2008-11-22 08:00;CYYC 220800Z 00000KT 15SM BKN110 BKN230 M01/M04 A2959 RMK AC5CI2 SLP066

CYYC;2008-11-22 09:00;CYYC 220900Z 20006KT 15SM FEW120 BKN240 M01/M05 A2955 RMK AC2CI2 SLP046

CYYC;2008-11-22 10:00;CYYC 221000Z 22009KT 15SM FEW120 FEW250 01/M06 A2955 RMK AC1CI1 AC TR SLP047

CYYC;2008-11-22 11:00;CYYC 221100Z 23003KT 15SM FEW140 BKN240 M00/M07 A2957 RMK AC1CI2 SLP051

CYYC;2008-11-22 12:00;CYYC 221200Z 23006KT 15SM SCT230 02/M08 A2956 RMK CI2 SNOW COVER/ONE LOOSE SLP050

CYYC;2008-11-22 13:00;CYYC 221300Z 25017G22KT 15SM FEW240 03/M09 A2957 RMK CI0 SLP052

CYYC;2008-11-22 14:00;CYYC 221400Z 25028KT 15SM FEW100 03/M09 A2955 RMK AC1 SLP046

CYYC;2008-11-22 15:00;CYYC 221500Z 25023G28KT 30SM FEW030 FEW120 03/M09 A2957 RMK SC1AC1 ACSL SLP054

CYYC;2008-11-22 16:00;CYYC 221600Z 25023G30KT 30SM FEW040 FEW160 FEW220 03/M09 A2959 RMK CU1AC1CI1 ACSL SLP060

CYYC;2008-11-22 17:00;CYYC 221700Z 26025G31KT 40SM FEW040 FEW160 FEW220 04/M09 A2964 RMK CU1AC1CI1 ACSL SLP073

CYYC;2008-11-22 18:00;CYYC 221800Z 27016G25KT 40SM FEW040 FEW160 BKN260 04/M09 A2969 RMK CU1AC1CI5 ACSL / PRESRR SLP095

CYYC;2008-11-22 19:00;CYYC 221900Z 27004KT 40SM FEW040 FEW160 BKN270 05/M09 A2973 RMK CU1AC2CI3 SH OVR MTS / ACSL SLP107

CYYC;2008-11-22 20:00;CYYC 222000Z 27012G18KT 40SM FEW040 FEW160 BKN230 05/M09 A2975 RMK CU1AC1CI6 SH OVR MTS / ACSL SLP112

CYYC;2008-11-22 21:00;CYYC 222100Z 28013KT 40SM FEW040 FEW160 BKN220 05/M09 A2976 RMK CU1AC1CI7 SH OVR MTS SLP117

CYYC;2008-11-22 22:00;CYYC 222200Z 28008KT 40SM FEW040 FEW160 BKN210 04/M09 A2978 RMK CU1AC1CI6 SLP124

CYYC;2008-11-22 23:00;CYYC 222300Z 27008KT 40SM FEW040 BKN190 04/M08 A2982 RMK CU1AC6 SLP134

CYYC;2008-11-23 00:00;CYYC 230000Z 26010KT 30SM FEW040 BKN190 03/M09 A2984 RMK SC1AC6 SLP142

CYYC;2008-11-23 01:00;CYYC 230100Z 26008KT 15SM FEW040 BKN190 03/M09 A2987 RMK SC1AC7 SLP151

CYYC;2008-11-23 02:00;CYYC 230200Z 24005KT 15SM SCT190 03/M10 A2989 RMK AC3 SLP156

CYYC;2008-11-23 03:00;CYYC 230300Z 28008KT 15SM SKC 02/M10 A2992 RMK SLP170

CYYC;2008-11-23 04:00;CYYC 230400Z 29005KT 15SM SKC 01/M10 A2994 RMK SLP178

CYYC;2008-11-23 05:00;CYYC 230500Z 27012KT 15SM SKC 01/M11 A2996 RMK SLP183

CYYC;2008-11-23 06:00;CYYC 230600Z 27016KT 15SM SKC 01/M11 A2997 RMK SLP187

CYYC;2008-11-23 07:00;CYYC 230700Z 27014KT 15SM SKC 01/M11 A2998 RMK SLP191

CYYC;2008-11-23 08:00;CYYC 230800Z 27011KT 15SM SKC 00/M12 A3000 RMK SLP198

CYYC;2008-11-23 09:00;CYYC 230900Z 26009KT 15SM SKC 01/M13 A3001 RMK SLP202

CYYC;2008-11-23 10:00;CYYC 231000Z 20002KT 15SM SKC 01/M12 A3003 RMK SLP207

CYYC;2008-11-23 11:00;CYYC 231100Z 27009KT 15SM SKC 00/M12 A3004 RMK SLP210

CYYC;2008-11-23 12:00;CYYC 231200Z 00000KT 15SM SKC M01/M13 A3006 RMK SLP221

CYYC;2008-11-23 13:00;CYYC 231300Z 00000KT 15SM SKC M03/M12 A3008 RMK SLP229

CYYC;2008-11-23 14:00;CYYC 231400Z 28003KT 15SM FEW240 M03/M12 A3008 RMK CI1 SLP230

CYYC;2008-11-23 15:00;CYYC 231500Z 30008KT 40SM FEW100 BKN210 00/M11 A3011 RMK AC1CI1 SLP240

CYYC;2008-11-23 16:00;CYYC 231600Z 31008KT 40SM FEW110 BKN200 00/M11 A3013 RMK AC1CI0 SLP247

CYYC;2008-11-23 17:00;CYYC 231700Z 09004KT 40SM FEW200 M02/M09 A3016 RMK CI1 SLP255

CYYC;2008-11-23 18:00;CYYC 231800Z 00000KT 40SM FEW200 02/M08 A3016 RMK CI1 SLP257

CYYC;2008-11-23 19:00;CYYC 231900Z 09003KT 40SM FEW240 04/M09 A3015 RMK CI1 SLP255

CYYC;2008-11-23 20:00;CYYC 232000Z 26007KT 40SM FEW250 05/M10 A3014 RMK CI1 SLP253

CYYC;2008-11-23 21:00;CYYC 232100Z 19006KT 40SM FEW250 05/M08 A3014 RMK CI1 SLP246

CYYC;2008-11-23 22:00;CYYC 232200Z 18007KT 40SM FEW250 04/M09 A3012 RMK CI1 SLP241

CYYC;2008-11-23 23:00;CYYC 232300Z 16005KT 40SM FEW100 FEW250 01/M08 A3012 RMK AC1CI0 SLP241

CYYC;2008-11-24 00:00;CYYC 240000Z 16004KT 40SM FEW100 FEW250 M01/M09 A3011 RMK AC1CI0 SLP248

CYYC;2008-11-24 01:00;CYYC 240100Z 18004KT 15SM FEW110 FEW250 M01/M09 A3010 RMK AC1CI1 SLP243

CYYC;2008-11-24 02:00;CYYC 240200Z 18004KT 15SM SKC M02/M08 A3007 RMK SLP235

CYYC;2008-11-24 03:00;CYYC 240300Z 20005KT 15SM SCT250 M02/M07 A3005 RMK CI2 SLP224

CYYC;2008-11-24 04:00;CYYC 240400Z 19005KT 15SM FEW250 M03/M08 A3003 RMK CI2 SLP219

CYYC;2008-11-24 05:00;CYYC 240500Z 20006KT 15SM FEW250 M03/M07 A3001 RMK CI1 SLP213

CYYC;2008-11-24 06:00;CYYC 240600Z 19004KT 15SM FEW250 M04/M09 A2999 RMK CI1 SLP204

CYYC;2008-11-24 07:00;CYYC 240700Z 21004KT 15SM FEW130 SCT250 M03/M08 A2998 RMK AC1CI1 SLP201

CYYC;2008-11-24 08:00;CYYC 240800Z 21006KT 15SM FEW130 BKN220 M01/M09 A2995 RMK AC2CI2 SLP194

CYYC;2008-11-24 09:00;CYYC 240900Z 22006KT 15SM SCT120 BKN160 02/M11 A2992 RMK AC3AC2 SLP170

CYYC;2008-11-24 10:00;CYYC 241000Z 26008KT 15SM BKN120 05/M12 A2991 RMK AC6 VIRGA SLP166

CYYC;2008-11-24 11:00;CYYC 241100Z 19004KT 15SM BKN150 04/M10 A2988 RMK AC6 VIRGA SLP158

CYYC;2008-11-24 12:00;CYYC 241200Z 27017KT 15SM BKN250 07/M13 A2987 RMK CI5 SLP151

CYYC;2008-11-24 13:00;CYYC 241300Z 27012G19KT 15SM BKN210 07/M13 A2987 RMK CI6 SLP150

CYYC;2008-11-24 14:00;CYYC 241400Z 25010G19KT 15SM SCT150 BKN210 07/M13 A2987 RMK AC3CI3 SLP150

CYYC;2008-11-24 15:00;CYYC 241500Z 19007KT 40SM FEW080 FEW190 SCT240 05/M11 A2984 RMK AC1AC1CI0 SLP146

CYYC;2008-11-24 16:00;CYYC 241600Z 21004KT 40SM SCT180 BKN210 06/M12 A2984 RMK AS3CI2 VIRGA SE SLP146

CYYC;2008-11-24 17:00;CYYC 241700Z 27016KT 40SM SCT160 BKN240 10/M13 A2983 RMK AS3CI2 VIRGA SE SLP143

CYYC;2008-11-24 18:00;CYYC 241800Z CCA 29013G18KT 40SM SCT160 BKN240 09/M12 A2985 RMK AC3CI3 VIRGA SE SLP144

CYYC;2008-11-24 19:00;CYYC 241900Z 29016KT 40SM SCT160 BKN240 10/M11 A2983 RMK AC3CI3 ACSL S/ VIRGA SE SLP139

CYYC;2008-11-24 20:00;CYYC 242000Z 27010KT 40SM FEW180 BKN240 10/M10 A2982 RMK AC2CI5 ACSL S SLP136

CYYC;2008-11-24 21:00;CYYC 242100Z 27004KT 40SM FEW180 BKN240 10/M08 A2981 RMK AC2CI4 ACSL S SLP121

CYYC;2008-11-24 22:00;CYYC 242200Z 21003KT 40SM FEW180 BKN240 09/M07 A2981 RMK AC2CI5 SLP122

CYYC;2008-11-24 23:00;CYYC 242300Z 18004KT 40SM FEW180 BKN240 09/M10 A2982 RMK AC1CI4 SLP125

CYYC;2008-11-25 00:00;CYYC 250000Z 26013G20KT 40SM FEW180 BKN240 10/M09 A2984 RMK AC1CI4 SLP125

CYYC;2008-11-25 01:00;CYYC 250100Z 28008KT 15SM FEW180 FEW250 09/M10 A2985 RMK AC1CI2 AC TR SLP129

CYYC;2008-11-25 02:00;CYYC 250200Z 25010G15KT 15SM FEW230 09/M09 A2985 RMK CI1 SLP129

CYYC;2008-11-25 03:00;CYYC 250300Z CCA 27004KT 15SM SCT230 09/M09 A2987 RMK CI2 SLP140

CYYC;2008-11-25 04:00;CYYC 250400Z 26011KT 15SM FEW230 07/M08 A2988 RMK CI1 SLP145

CYYC;2008-11-25 05:00;CYYC 250500Z 26017KT 15SM FEW230 07/M09 A2988 RMK CI1 SLP145

CYYC;2008-11-25 06:00;CYYC 250600Z 27002KT 15SM FEW140 FEW250 07/M08 A2990 RMK AC1CI1 AC TR SLP147

CYYC;2008-11-25 07:00;CYYC 250700Z 36003KT 15SM FEW140 FEW250 07/M09 A2991 RMK AC1CI1 SLP151

CYYC;2008-11-25 08:00;CYYC 250800Z 14008KT 15SM FEW250 05/M08 A2992 RMK CI1 SLP153

CYYC;2008-11-25 09:00;CYYC 250900Z 25012KT 15SM SKC 07/M09 A2991 RMK SLP152

CYYC;2008-11-25 10:00;CYYC 251000Z 25012KT 15SM SKC 06/M09 A2991 RMK SLP152

CYYC;2008-11-25 11:00;CYYC 251100Z 22009KT 15SM SKC 03/M09 A2994 RMK SLP159

CYYC;2008-11-25 12:00;CYYC 251200Z 17008KT 15SM SKC 07/M10 A2990 RMK SLP147

CYYC;2008-11-25 13:00;CYYC 251300Z 22007KT 15SM SCT250 06/M10 A2989 RMK CI0 SLP145

CYYC;2008-11-25 14:00;CYYC 251400Z 22003KT 15SM BKN250 04/M09 A2989 RMK CI1 SLP143

CYYC;2008-11-25 15:00;CYYC 251500Z 24003KT 40SM SCT100 BKN240 01/M08 A2989 RMK AC3CI0 SLP153

CYYC;2008-11-25 16:00;CYYC 251600Z 00000KT 40SM FEW160 BKN240 05/M09 A2989 RMK AC2CI1 SLP153

CYYC;2008-11-25 17:00;CYYC 251700Z 21004KT 40SM FEW120 BKN220 BKN250 03/M08 A2988 RMK AC2CI2CI0 SLP151

CYYC;2008-11-25 18:00;CYYC 251800Z 21004KT 40SM FEW130 FEW180 BKN220 04/M06 A2987 RMK AC1AC1CI6 SLP146

CYYC;2008-11-25 19:00;CYYC 251900Z 18002KT 40SM FEW050 FEW140 BKN220 06/M06 A2985 RMK SC1AC1CI6 SLP139

CYYC;2008-11-25 20:00;CYYC 252000Z 21005KT 40SM FEW170 FEW200 BKN230 06/M05 A2984 RMK AC1CI1CI6 SLP135

CYYC;2008-11-25 21:00;CYYC 252100Z 20005KT 40SM FEW180 BKN220 06/M05 A2982 RMK AC1CI7 SLP124

CYYC;2008-11-25 22:00;CYYC 252200Z 18002KT 40SM FEW150 FEW170 BKN240 05/M04 A2981 RMK AC1AC1CI6 SLP120

CYYC;2008-11-25 23:00;CYYC 252300Z 16003KT 40SM FEW150 SCT180 BKN220 BKN240 05/M04 A2980 RMK AC1AC3CI2CI2 VIS E LWR SLP117

CYYC;2008-11-26 00:00;CYYC 260000Z CCA 27003KT 15SM PRFG BKN180 BKN220 05/M04 A2978 RMK AC5CI2 FG BNK SW SLP112

CYYC;2008-11-26 01:00;CYYC 260100Z 25002KT 15SM FEW100 FEW180 BKN200 03/M03 A2977 RMK AC1AC2CI5 SLP108

CYYC;2008-11-26 02:00;CYYC 260200Z 22002KT 15SM FEW200 BKN220 02/M04 A2977 RMK CI2CI5 HZ SW SLP107

CYYC;2008-11-26 03:00;CYYC 260300Z 00000KT 15SM BKN240 03/M04 A2976 RMK CI7 SLP115

CYYC;2008-11-26 04:00;CYYC 260400Z 31015KT 15SM BKN240 07/M06 A2977 RMK CI7 SLP118

CYYC;2008-11-26 05:00;CYYC 260500Z 30013G18KT 15SM OVC240 07/M06 A2980 RMK CI7 SLP126

CYYC;2008-11-26 06:00;CYYC 260600Z 27013KT 15SM BKN240 07/M06 A2982 RMK CI2 SLP126

CYYC;2008-11-26 07:00;CYYC 260700Z 27015KT 15SM BKN240 07/M06 A2983 RMK CI2 SLP131

CYYC;2008-11-26 08:00;CYYC 260800Z 27010G15KT 15SM FEW180 FEW240 06/M07 A2984 RMK AC1CI1 AC TR SLP132

CYYC;2008-11-26 09:00;CYYC 260900Z 36010KT 15SM SCT140 BKN240 03/M04 A2989 RMK AC3CI1 SLP155

CYYC;2008-11-26 10:00;CYYC 261000Z 35008KT 15SM SCT100 BKN230 02/M04 A2994 RMK AC3CI2 SLP169

CYYC;2008-11-26 11:00;CYYC 261100Z 35007KT 15SM BKN075 BKN095 OVC210 01/M04 A2995 RMK AC5AC1CI2 SLP174

CYYC;2008-11-26 12:00;CYYC 261200Z 36004KT 15SM BKN069 BKN080 OVC140 01/M05 A2999 RMK AC5AC2AC1 SNOW COVER/TRACE LOOSE SLP193

CYYC;2008-11-26 13:00;CYYC 261300Z 28003KT 15SM BKN070 BKN080 OVC210 01/M05 A3003 RMK AC5AC1CI2 SLP205

CYYC;2008-11-26 14:00;CYYC 261400Z 35007KT 15SM BKN077 BKN090 OVC160 01/M07 A3005 RMK AC6AC2AC1 SLP211

CYYC;2008-11-26 15:00;CYYC 261500Z 32007KT 40SM FEW050 FEW080 FEW120 M00/M09 A3007 RMK SC1AC1AC0 SLP225

CYYC;2008-11-26 16:00;CYYC 261600Z 30003KT 40SM FEW050 FEW180 00/M09 A3008 RMK SC1AC1 VIRGA SW SLP230

CYYC;2008-11-26 17:00;CYYC 261700Z 22006KT 40SM FEW060 02/M06 A3010 RMK SC1 SLP234

CYYC;2008-11-26 18:00;CYYC 261800Z 22007KT 40SM FEW060 03/M06 A3011 RMK SC1 SLP231

CYYC;2008-11-26 19:00;CYYC 261900Z 20007KT 40SM FEW060 04/M06 A3011 RMK SC1 SLP230

CYYC;2008-11-26 20:00;CYYC 262000Z 18008KT 40SM FEW060 04/M07 A3011 RMK SC1 SLP229

CYYC;2008-11-26 21:00;CYYC 262100Z 19009KT 40SM FEW050 FEW250 05/M07 A3011 RMK SC1CI1 SLP233

CYYC;2008-11-26 22:00;CYYC 262200Z 18008KT 40SM FEW250 04/M06 A3011 RMK CI1 SLP232

CYYC;2008-11-26 23:00;CYYC 262300Z 19007KT 40SM FEW250 03/M07 A3011 RMK CI1 SLP233

CYYC;2008-11-27 00:00;CYYC 270000Z 18005KT 40SM FEW250 M01/M07 A3010 RMK CI1 SLP242

CYYC;2008-11-27 01:00;CYYC 270100Z 18006KT 15SM SKC M01/M06 A3010 RMK SLP242

CYYC;2008-11-27 02:00;CYYC 270200Z 31003KT 15SM SKC M02/M06 A3011 RMK SLP244

CYYC;2008-11-27 03:00;CYYC 270300Z 27003KT 15SM SKC M03/M07 A3011 RMK SLP250

CYYC;2008-11-27 04:00;CYYC 270400Z 00000KT 15SM SKC M05/M08 A3011 RMK SLP250

CYYC;2008-11-27 05:00;CYYC 270500Z 00000KT 15SM SKC M05/M08 A3011 RMK SLP249

CYYC;2008-11-27 06:00;CYYC 270600Z 20002KT 15SM SKC M06/M09 A3011 RMK SLP249

CYYC;2008-11-27 07:00;CYYC 270700Z 36004KT 15SM SKC M07/M11 A3010 RMK SLP247

CYYC;2008-11-27 08:00;CYYC 270800Z 30003KT 15SM SKC M06/M11 A3008 RMK SLP241

CYYC;2008-11-27 09:00;CYYC 270900Z CCA 17002KT 15SM SKC M08/M12 A3006 RMK SLP233

CYYC;2008-11-27 10:00;CYYC 271000Z 00000KT 15SM SKC M08/M12 A3006 RMK SLP230

CYYC;2008-11-27 11:00;CYYC 271100Z 30002KT 15SM SKC M08/M12 A3004 RMK SLP225

CYYC;2008-11-27 12:00;CYYC 271200Z CCA 32002KT 15SM SKC M08/M11 A3002 RMK SNOW COVER/TRACE LOOSE SLP223

CYYC;2008-11-27 13:00;CYYC 271300Z 32004KT 15SM SKC M06/M12 A3001 RMK SLP220

CYYC;2008-11-27 14:00;CYYC 271400Z 00000KT 15SM SKC M08/M13 A3000 RMK SLP217

CYYC;2008-11-27 15:00;CYYC 271500Z 00000KT 30SM FEW120 M08/M12 A2997 RMK AC1 SLP212

CYYC;2008-11-27 16:00;CYYC 271600Z 09002KT 40SM FEW120 FEW220 M07/M11 A2996 RMK AC1CI1 SLP208

CYYC;2008-11-27 17:00;CYYC 271700Z 00000KT 40SM FEW120 FEW220 M03/M10 A2994 RMK AC1CI0 SLP201

CYYC;2008-11-27 18:00;CYYC 271800Z 00000KT 40SM FEW120 BKN240 M01/M10 A2992 RMK AC1CI2 ACSL PRSNT SW SLP187

CYYC;2008-11-27 19:00;CYYC 271900Z 17002KT 30SM FEW120 BKN240 02/M08 A2988 RMK AC1CI2 ACSL PRSNT SW SLP174

CYYC;2008-11-27 20:00;CYYC 272000Z 19003KT 30SM FEW150 FEW170 OVC240 03/M10 A2985 RMK AC1AC1CI2 ACSL PRSNT S-SW SLP165

CYYC;2008-11-27 21:00;CYYC 272100Z 22007KT 30SM FEW170 SCT200 OVC240 02/M10 A2982 RMK AC2CI1CI0 SLP151

CYYC;2008-11-27 22:00;CYYC 272200Z 20005KT 30SM BKN160 OVC200 01/M10 A2978 RMK AC5CI1 SLP140

CYYC;2008-11-27 23:00;CYYC 272300Z 30010KT 30SM BKN150 BKN180 OVC200 00/M10 A2977 RMK AC5AC1CI0 SLP136

CYYC;2008-11-28 00:00;CYYC 280000Z 21007KT 20SM SCT140 BKN160 BKN200 01/M11 A2975 RMK AC4AC2CI1 SLP128

CYYC;2008-11-28 01:00;CYYC 280100Z 00000KT 15SM BKN160 BKN200 00/M11 A2974 RMK AC5CI2 SLP126

CYYC;2008-11-28 02:00;CYYC 280200Z 22003KT 15SM SCT160 BKN200 04/M14 A2971 RMK AC4CI3 SLP116

CYYC;2008-11-28 03:00;CYYC 280300Z 26015G20KT 15SM BKN140 OVC220 06/M17 A2969 RMK AC6CI2 SLP102

CYYC;2008-11-28 04:00;CYYC 280400Z 27014G21KT 15SM BKN110 OVC220 06/M15 A2970 RMK AC6CI2 SLP105

CYYC;2008-11-28 05:00;CYYC 280500Z 28017G25KT 15SM BKN110 OVC220 05/M13 A2972 RMK AC7CI1 SLP110

CYYC;2008-11-28 06:00;CYYC 280600Z 32011KT 15SM FEW180 SCT230 04/M12 A2976 RMK AC2CI1 SLP117

CYYC;2008-11-28 07:00;CYYC 280700Z 29011KT 15SM FEW180 02/M13 A2980 RMK AC1 AC TR SLP128

CYYC;2008-11-28 08:00;CYYC 280800Z 31012KT 15SM FEW180 02/M14 A2983 RMK AC1 AC TR SLP137

CYYC;2008-11-28 09:00;CYYC 280900Z 31009KT 15SM FEW180 M01/M12 A2985 RMK AC1 AC TR SLP152

CYYC;2008-11-28 10:00;CYYC 281000Z 32008KT 15SM FEW200 M00/M12 A2988 RMK CI1 CI TR SLP160

CYYC;2008-11-28 11:00;CYYC 281100Z 31010KT 15SM SKC M02/M12 A2990 RMK SLP167

CYYC;2008-11-28 12:00;CYYC 281200Z 34008KT 15SM SKC M03/M11 A2992 RMK SNOW COVER/TRACE LOOSE SLP180

CYYC;2008-11-28 13:00;CYYC 281300Z 30006KT 15SM FEW070 SCT240 02/M11 A2993 RMK AC1CI1 SLP183

CYYC;2008-11-28 14:00;CYYC 281400Z 36007KT 15SM FEW140 BKN210 M01/M10 A2996 RMK AC2CI3 SLP193

CYYC;2008-11-28 15:00;CYYC 281500Z 36009KT 30SM FEW190 BKN210 M01/M09 A2998 RMK AC2CI4 SLP192

CYYC;2008-11-28 16:00;CYYC 281600Z 32006KT 40SM SCT180 BKN200 01/M09 A2999 RMK AC4CI3 SLP195

CYYC;2008-11-28 17:00;CYYC 281700Z 01004KT 40SM BKN180 OVC200 M00/M07 A3000 RMK AC6CC2 SLP199

CYYC;2008-11-28 18:00;CYYC 281800Z 06004KT 40SM SCT180 OVC200 02/M08 A3000 RMK AC4CC4 SLP196

CYYC;2008-11-28 19:00;CYYC 281900Z 00000KT 30SM FEW130 SCT180 OVC200 04/M08 A2997 RMK AC1AC2CC2 SLP188

CYYC;2008-11-28 20:00;CYYC 282000Z 15004KT 30SM FEW160 BKN200 05/M08 A2996 RMK AC2CC2 SLP186

CYYC;2008-11-28 21:00;CYYC 282100Z 17007KT 30SM SCT180 BKN200 04/M08 A2995 RMK AC3CC2 SLP182

CYYC;2008-11-28 22:00;CYYC 282200Z 17007KT 30SM FEW140 BKN180 BKN210 03/M07 A2993 RMK AC2AC4CI1 SLP178

CYYC;2008-11-28 23:00;CYYC 282300Z 17006KT 30SM FEW040 FEW120 BKN170 OVC210 03/M07 A2994 RMK CU1AC2AC3CI2 SLP179

CYYC;2008-11-29 00:00;CYYC 290000Z CCA 16006KT 15SM FEW032 BKN110 BKN170 OVC210 02/M06 A2992 RMK CU1AC5AC2CI0 SLP178

CYYC;2008-11-29 01:00;CYYC 290100Z 16006KT 15SM SCT100 BKN150 01/M07 A2989 RMK AC3AC2 SLP169

CYYC;2008-11-29 02:00;CYYC 290200Z 18007KT 15SM FEW100 BKN140 01/M07 A2989 RMK AC2AC3 SLP170

CYYC;2008-11-29 03:00;CYYC 290300Z 18006KT 15SM FEW160 FEW240 M00/M07 A2985 RMK AC1CI0 AC TR SLP157

CYYC;2008-11-29 04:00;CYYC 290400Z 00000KT 15SM FEW090 FEW240 00/M07 A2987 RMK AC1CI0 AC TR SLP162

CYYC;2008-11-29 05:00;CYYC 290500Z 33004KT 15SM FEW140 FEW230 00/M07 A2986 RMK AC1CI1 AC TR SLP158

CYYC;2008-11-29 06:00;CYYC 290600Z 30006KT 15SM FEW140 FEW230 04/M06 A2984 RMK AC1CI1 AC TR SLP141

CYYC;2008-11-29 07:00;CYYC 290700Z 36009KT 15SM FEW240 03/M06 A2985 RMK CI0 SLP145

CYYC;2008-11-29 07:04;CYYC 290704Z 36010KT 15SM FEW240 01/ RMK CI0

CYYC;2008-11-29 08:00;CYYC 290800Z 35006KT 15SM SKC 00/M06 A2986 RMK SLP148

CYYC;2008-11-29 09:00;CYYC 290900Z 33008KT 15SM SKC 01/M06 A2986 RMK SLP150

CYYC;2008-11-29 10:00;CYYC 291000Z 32008KT 15SM SKC 04/M06 A2988 RMK SLP157

CYYC;2008-11-29 11:00;CYYC 291100Z 34005KT 15SM SKC 01/M07 A2988 RMK SLP155

CYYC;2008-11-29 12:00;CYYC 291200Z 36008KT 15SM FEW200 01/M06 A2990 RMK CI2 SNOW COVER/TRACE LOOSE SLP166

CYYC;2008-11-29 13:00;CYYC 291300Z 36010KT 15SM FEW190 M01/M06 A2992 RMK AC2 SLP174

CYYC;2008-11-29 14:00;CYYC 291400Z 34009KT 15SM FEW160 SCT240 M02/M07 A2994 RMK AC1CI2 SLP179

CYYC;2008-11-29 15:00;CYYC 291500Z 35008KT 20SM FEW130 SCT160 00/M07 A2996 RMK AC1AC2 SLP191

CYYC;2008-11-29 16:00;CYYC 291600Z 29003KT 30SM FEW180 BKN250 00/M06 A2997 RMK AC2CI1 SLP195

CYYC;2008-11-29 17:00;CYYC 291700Z 00000KT 30SM FEW024 FEW150 BKN220 02/M05 A2998 RMK CU1AC2CI2 SLP198

CYYC;2008-11-29 18:00;CYYC 291800Z 22006KT 40SM FEW036 FEW140 BKN220 05/M04 A3000 RMK CU1AC2CI2 SLP193

CYYC;2008-11-29 19:00;CYYC 291900Z 20004KT 40SM FEW044 FEW140 FEW220 07/M05 A2999 RMK CU1AC2CI0 SLP188

CYYC;2008-11-29 20:00;CYYC 292000Z 12002KT 40SM FEW048 FEW140 BKN220 06/M05 A2998 RMK CU1AC2CI0 SLP187

CYYC;2008-11-29 21:00;CYYC 292100Z 05004KT 30SM FEW044 FEW160 BKN180 06/M05 A2999 RMK CU1AC1AC2 CU TR SLP191

CYYC;2008-11-29 22:00;CYYC 292200Z 04004KT 30SM FEW044 FEW110 BKN180 BKN220 05/M05 A2998 RMK CU1AC2AC1CI0 CU TR SLP189

CYYC;2008-11-29 23:00;CYYC 292300Z CCA 05005KT 30SM FEW028 FEW170 03/M04 A3000 RMK CU1AC1 ACSL PRSNT SW/CU TR SLP194

CYYC;2008-11-29 23:48;CYYC 292348Z CCA 05003KT 30SM FEW020 FEW150 00/ RMK CU1AC1 CU TR

CYYC;2008-11-30 00:00;CYYC 300000Z 05003KT 20SM FEW020 FEW150 M00/M05 A3002 RMK CU1AC1 CU TR SLP210

CYYC;2008-11-30 01:00;CYYC 300100Z 00000KT 15SM FEW150 00/M05 A3003 RMK AC1 SLP214

CYYC;2008-11-30 02:00;CYYC 300200Z 07002KT 15SM FEW150 M02/M05 A3005 RMK AC1 SLP220

CYYC;2008-11-30 03:00;CYYC 300300Z 36002KT 15SM BKN090 M04/M06 A3006 RMK AC7 SLP232

CYYC;2008-11-30 04:00;CYYC 300400Z 00000KT 15SM BKN093 M02/M05 A3007 RMK AC7 SLP234

CYYC;2008-11-30 05:00;CYYC 300500Z 22006KT 15SM BKN098 M01/M05 A3007 RMK AC6 SLP236

CYYC;2008-11-30 06:00;CYYC 300600Z 36004KT 15SM BKN083 M02/M05 A3009 RMK AC6 SLP233

CYYC;2008-11-30 07:00;CYYC 300700Z 32004KT 15SM BKN086 BKN097 01/M06 A3011 RMK AC5AC2 SLP240

CYYC;2008-11-30 08:00;CYYC 300800Z 36006KT 15SM SCT084 M02/M07 A3012 RMK AC3 SLP241

CYYC;2008-11-30 09:00;CYYC 300900Z 31002KT 15SM FEW100 M02/M07 A3012 RMK AC1 SLP240

CYYC;2008-11-30 10:00;CYYC 301000Z 00000KT 15SM FEW091 BKN180 M04/M07 A3012 RMK AC1AC2 SLP241

CYYC;2008-11-30 11:00;CYYC 301100Z 22003KT 15SM FEW180 M05/M08 A3012 RMK AC1 SLP242

CYYC;2008-11-30 12:00;CYYC 301200Z 18004KT 15SM BKN170 M04/M07 A3012 RMK AC4 SLP256

CYYC;2008-11-30 13:00;CYYC 301300Z 18003KT 15SM FEW180 M04/M08 A3013 RMK AC1 SLP258

CYYC;2008-11-30 14:00;CYYC 301400Z 02004KT 15SM FEW170 M06/M09 A3014 RMK AC1 SLP261

CYYC;2008-11-30 15:00;CYYC 301500Z 29002KT 40SM FEW050 FEW090 FEW250 M06/M08 A3015 RMK SC1AC1CI0 SLP270

CYYC;2008-11-30 16:00;CYYC 301600Z 01003KT 40SM FEW050 FEW090 FEW160 M04/M07 A3015 RMK SC1AC1AC1 SLP271

CYYC;2008-11-30 17:00;CYYC 301700Z 00000KT 40SM FEW050 FEW100 FEW240 M02/M06 A3016 RMK SC1AC1CI1 SLP274

CYYC;2008-11-30 18:00;CYYC 301800Z 01002KT 40SM FEW050 FEW100 OVC250 02/M04 A3016 RMK SC1AC1CI1 SLP263

CYYC;2008-11-30 19:00;CYYC 301900Z 06002KT 40SM FEW050 FEW190 FEW250 05/M06 A3014 RMK SC1AC1CI0 SLP257

CYYC;2008-11-30 20:00;CYYC 302000Z 13004KT 40SM FEW050 FEW190 FEW250 06/M06 A3013 RMK SC1AC1CI0 SLP252

CYYC;2008-11-30 21:00;CYYC 302100Z 16007KT 40SM FEW050 BKN160 BKN250 05/M05 A3012 RMK SC1AC6CI0 SLP242

CYYC;2008-11-30 22:00;CYYC 302200Z 16008KT 40SM FEW050 FEW140 SCT160 BKN250 05/M05 A3007 RMK SC1AC1AC0CI0 SLP229

CYYC;2008-11-30 23:00;CYYC 302300Z 16006KT 40SM FEW050 FEW120 OVC250 03/M05 A3007 RMK SC1AC1CI0 SLP229

CYYC;2008-11-30 23:20;CYYC 302320Z 15007KT 40SM FEW050 FEW110 BKN250 02/ RMK SC1AC1CI0

CYYC;2008-12-01 01:00;CYYC 010100Z 16005KT 15SM BKN085 OVC240 01/M05 A3002 RMK AC6CI2 SLP216

CYYC;2008-12-01 02:00;CYYC 010200Z 13006KT 15SM SCT086 OVC240 01/M05 A2997 RMK AC3CI5 SLP203

CYYC;2008-12-01 03:00;CYYC 010300Z 17005KT 15SM FEW085 BKN240 00/M05 A2994 RMK AC1CI7 SLP191

CYYC;2008-12-01 04:00;CYYC 010400Z 20006KT 15SM OVC220 01/M04 A2990 RMK CI8 SLP180

CYYC;2008-12-01 05:00;CYYC 010500Z 20008KT 15SM FEW180 OVC230 03/M04 A2987 RMK AC2CI6 SLP170

CYYC;2008-12-01 06:00;CYYC 010600Z 21007KT 15SM FEW180 OVC230 04/M03 A2983 RMK AC1CI8 SLP136

CYYC;2008-12-01 07:00;CYYC 010700Z 18003KT 15SM FEW140 FEW180 OVC230 05/M03 A2978 RMK AC1AC1CI8 SLP123

CYYC;2008-12-01 08:00;CYYC 010800Z 23007KT 15SM FEW130 FEW180 OVC240 12/00 A2972 RMK AC1AC1CI8 SLP105

CYYC;2008-12-01 09:00;CYYC 010900Z 24020G26KT 15SM FEW100 OVC260 11/M00 A2970 RMK AC1CI8 SLP078

CYYC;2008-12-01 10:00;CYYC 011000Z 22008KT 15SM FEW100 OVC260 07/M01 A2967 RMK AC1CI8 SLP070

CYYC;2008-12-01 11:00;CYYC 011100Z 22008KT 15SM OVC250 06/M01 A2964 RMK CI8 SLP061

CYYC;2008-12-01 12:00;CYYC 011200Z 27002KT 15SM BKN250 06/M01 A2961 RMK CI6 SLP060

CYYC;2008-12-01 13:00;CYYC 011300Z 16006KT 15SM BKN260 06/M01 A2959 RMK CI2 SLP053

CYYC;2008-12-01 14:00;CYYC 011400Z 16008KT 15SM BKN260 04/M01 A2956 RMK CI5 SLP045

CYYC;2008-12-01 15:00;CYYC 011500Z 14002KT 40SM FEW070 FEW180 OVC250 03/M01 A2954 RMK AC1AC2CI5 SLP039

CYYC;2008-12-01 16:00;CYYC 011600Z 22006KT 40SM FEW070 SCT140 BKN250 04/M01 A2952 RMK AC1AC2CI4 SLP034

CYYC;2008-12-01 17:00;CYYC 011700Z 25004KT 40SM FEW060 SCT140 BKN240 06/M01 A2951 RMK SC1AC3CI4 SC TR SLP031

CYYC;2008-12-01 18:00;CYYC 011800Z 26022G29KT 40SM FEW050 FEW140 BKN240 14/M02 A2948 RMK CU1AC2CI3 CU TR SLP000

CYYC;2008-12-01 19:00;CYYC 011900Z CCA 24020G26KT 40SM FEW050 FEW140 BKN240 15/M02 A2945 RMK CU1AC2CI2 CU TR SLP992

CYYC;2008-12-01 20:00;CYYC 012000Z 28019G30KT 40SM FEW050 FEW140 SCT240 14/M02 A2945 RMK CU1AC1CI1 CU TR SLP991

CYYC;2008-12-01 21:00;CYYC 012100Z 29017G24KT 40SM FEW050 FEW080 FEW240 14/M02 A2944 RMK CU1AC1CI1 ACSL SSE SLP978

CYYC;2008-12-01 22:00;CYYC 012200Z 30016G21KT 20SM FEW050 FEW080 FEW230 13/M01 A2945 RMK SC1AC1CI1 SC TR SLP979

CYYC;2008-12-01 23:00;CYYC 012300Z 36018G24KT 20SM FEW080 FEW210 03/M01 A2952 RMK AC2CI1 SLP000

CYYC;2008-12-01 23:27;CYYC 012327Z 36016KT 20SM FEW080 FEW210 02/ RMK AC2CI1 VIRGA S

CYYC;2008-12-02 00:00;CYYC 020000Z CCA 36015KT 20SM FEW080 BKN210 01/M02 A2956 RMK AC2CI2 PRESRR SLP043

CYYC;2008-12-02 01:00;CYYC 020100Z 36023G28KT 15SM BKN028 00/M04 A2958 RMK SC6 SLP048

CYYC;2008-12-02 02:00;CYYC 020200Z 34022G36KT 15SM BKN035 OVC081 M01/M05 A2962 RMK SC6AC2 SLP060

CYYC;2008-12-02 02:22;CYYC 020222Z 34023G30KT 2 1/2SM -SN OVC040 M02/ RMK SC8

CYYC;2008-12-02 02:45;CYYC 020245Z 34027KT 5SM -SN OVC045 M02/ RMK SC8

CYYC;2008-12-02 03:00;CYYC 020300Z 34021G31KT 5SM -SN OVC050 M02/M07 A2965 RMK SC8 SLP082

CYYC;2008-12-02 04:00;CYYC 020400Z 33020G29KT 8SM -SN OVC055 M01/M08 A2968 RMK SC8 SLP092

CYYC;2008-12-02 05:00;CYYC 020500Z 33020G25KT 15SM OVC060 M01/M09 A2970 RMK SC7 SLP098

CYYC;2008-12-02 06:00;CYYC 020600Z 34020KT 15SM BKN055 OVC070 M01/M10 A2972 RMK SC4AC3 SLP092

CYYC;2008-12-02 07:00;CYYC 020700Z 33018G25KT 15SM SCT045 OVC075 M02/M10 A2975 RMK SC3AC5 SLP101

CYYC;2008-12-02 08:00;CYYC 020800Z 33013G21KT 15SM OVC060 M02/M10 A2977 RMK SC8 VIS SE 5 SLP107

CYYC;2008-12-02 09:00;CYYC 020900Z 33012G18KT 15SM FEW060 OVC090 M02/M10 A2980 RMK SC2AC6 SLP117

CYYC;2008-12-02 10:00;CYYC 021000Z 34014KT 15SM FEW050 BKN080 OVC120 M03/M10 A2982 RMK SC2AC3AC2 SLP124

CYYC;2008-12-02 11:00;CYYC 021100Z 35012KT 15SM BKN040 OVC120 M03/M09 A2984 RMK SC5AC3 SLP129

CYYC;2008-12-02 12:00;CYYC 021200Z CCA 34010G16KT 15SM BKN040 OVC120 M04/M08 A2985 RMK SC6AC2 SNOW COVER/ TRACE LOOSE SLP156

CYYC;2008-12-02 12:43;CYYC 021243Z 34011G16KT 4SM -SN SCT018 OVC040 M04/ RMK SC3SC5

CYYC;2008-12-02 13:00;CYYC 021300Z 35009KT 5SM -SN SCT017 OVC030 M05/M07 A2987 RMK SC3SC5 SLP164

CYYC;2008-12-02 13:15;CYYC 021315Z 35010KT 2 1/2SM -SN SCT012 OVC025 M05/ RMK SC3SC5

CYYC;2008-12-02 13:25;CYYC 021325Z 34009KT 1 1/2SM -SN BKN009 OVC025 M05/ RMK SC5SC3

CYYC;2008-12-02 13:40;CYYC 021340Z 35008KT 2SM -SN BKN014 OVC030 M05/ RMK SC5SC3

CYYC;2008-12-02 13:52;CYYC 021352Z 36011KT 2SM -SN BKN017 OVC035 M05/ RMK SC5SC3

CYYC;2008-12-02 14:00;CYYC 021400Z 35007KT 2SM -SN BKN010 BKN020 OVC060 M05/M06 A2989 RMK SC5SC2SC1 SLP171

CYYC;2008-12-02 14:15;CYYC 021415Z 34007KT 5SM -SN FEW010 BKN030 OVC090 M05/ RMK SC2SC3AC2

CYYC;2008-12-02 15:00;CYYC 021500Z 33007KT 15SM SCT065 BKN090 M05/M07 A2992 RMK SC3AC4 SLP187

CYYC;2008-12-02 16:00;CYYC 021600Z 35006KT 20SM FEW040 BKN065 BKN100 M05/M07 A2994 RMK SC2SC2AC2 SLP195

CYYC;2008-12-02 17:00;CYYC 021700Z 32009KT 20SM BKN040 BKN070 M05/M07 A2998 RMK SC5AC2 SLP206

CYYC;2008-12-02 18:00;CYYC 021800Z 34014G19KT 25SM FEW018 FEW042 BKN060 OVC100 M04/M07 A3001 RMK SC1SC2SC5AC1 SLP217

CYYC;2008-12-02 19:00;CYYC 021900Z 33015KT 20SM SCT018 BKN032 OVC090 M04/M08 A3002 RMK SC3SC2AC1 SLP220

CYYC;2008-12-02 20:00;CYYC 022000Z 34013KT 25SM FEW019 BKN050 BKN120 M04/M08 A3004 RMK SC1SC2AC1 SLP225

CYYC;2008-12-02 21:00;CYYC 022100Z 34015KT 25SM BKN022 BKN130 M04/M09 A3005 RMK SC5AC2 DIST SH N-E+SW SLP230

CYYC;2008-12-02 22:00;CYYC 022200Z 35015KT 25SM FEW022 FEW110 FEW220 M04/M09 A3006 RMK SC1AC1CI0 DIST SH SW-E SLP235

CYYC;2008-12-02 23:00;CYYC 022300Z CCA 34011KT 15SM -SN FEW022 BKN050 M04/M08 A3010 RMK SC2SC5 VIS S 25 SLP246

CYYC;2008-12-02 23:16;CYYC 022316Z 34012KT 6SM -SN FEW007 FEW020 BKN040 BKN050 M04/ RMK SC1SC2SC3SC2

CYYC;2008-12-02 23:40;CYYC 022340Z 33011KT 15SM FEW006 FEW020 BKN050 M04/ RMK SC1SC1SC1 SH ALQDS

CYYC;2008-12-03 00:00;CYYC 030000Z 33011KT 15SM FEW042 FEW060 M05/M08 A3014 RMK SC1SC0 SH ALQDS SLP268

CYYC;2008-12-03 01:00;CYYC 030100Z 33010KT 15SM BKN040 M05/M09 A3017 RMK SC7 SLP277

CYYC;2008-12-03 02:00;CYYC 030200Z 34006KT 15SM FEW040 FEW075 M06/M10 A3019 RMK SC1AC1 SLP283

CYYC;2008-12-03 03:00;CYYC 030300Z 31006KT 15SM FEW080 FEW150 FEW220 M07/M11 A3021 RMK AC1AC1CI1 SLP297

CYYC;2008-12-03 04:00;CYYC 030400Z 34010G16KT 15SM SCT100 BKN220 M07/M11 A3022 RMK AC2CI2 SLP300

CYYC;2008-12-03 05:00;CYYC 030500Z 33011KT 15SM BKN090 M07/M11 A3024 RMK AC5 SLP305

CYYC;2008-12-03 06:00;CYYC 030600Z 35006KT 15SM BKN090 M07/M12 A3026 RMK AC4 SLP313

CYYC;2008-12-03 07:00;CYYC 030700Z 31004KT 15SM FEW090 M09/M12 A3027 RMK AC2 SLP318

CYYC;2008-12-03 08:00;CYYC 030800Z 32005KT 15SM FEW084 M08/M12 A3028 RMK AC2 SLP319

CYYC;2008-12-03 09:00;CYYC 030900Z 33006KT 15SM FEW082 M09/M12 A3028 RMK AC1 SLP323

CYYC;2008-12-03 10:00;CYYC 031000Z 29007KT 15SM BKN078 M08/M12 A3030 RMK AC6 SLP327

CYYC;2008-12-03 11:00;CYYC 031100Z 32006KT 15SM FEW058 OVC077 M08/M12 A3030 RMK SC1AC6 SLP329

CYYC;2008-12-03 12:00;CYYC 031200Z 34011KT 15SM FEW060 BKN078 M08/M12 A3031 RMK SC1AC6 SNOW COVER/ TRACE LOOSE SLP331

CYYC;2008-12-03 13:00;CYYC 031300Z 32008KT 15SM BKN078 M09/M13 A3034 RMK AC6 SLP340

CYYC;2008-12-03 14:00;CYYC 031400Z 31007KT 15SM OVC079 M09/M13 A3032 RMK AC7 SLP336

CYYC;2008-12-03 15:00;CYYC 031500Z 30007KT 20SM BKN080 M09/M13 A3033 RMK AC7 SLP345

CYYC;2008-12-03 16:00;CYYC 031600Z 31008KT 30SM BKN080 M08/M13 A3034 RMK AC7 SLP348

CYYC;2008-12-03 17:00;CYYC 031700Z 32009KT 30SM OVC080 M08/M13 A3036 RMK AC7 SLP353

CYYC;2008-12-03 18:00;CYYC 031800Z 31010KT 30SM FEW020 BKN084 M07/M13 A3036 RMK CU1AC6 SLP354

CYYC;2008-12-03 19:00;CYYC 031900Z 33017KT 30SM FEW024 BKN080 M07/M12 A3035 RMK CU1AC2 SLP350

CYYC;2008-12-03 20:00;CYYC 032000Z 32016KT 30SM FEW030 SCT080 M06/M13 A3034 RMK CU2AC1 SLP348

CYYC;2008-12-03 21:00;CYYC 032100Z 33017G22KT 30SM FEW030 FEW080 M07/M15 A3035 RMK CU2AC1 SLP349

CYYC;2008-12-03 22:00;CYYC 032200Z 35015G21KT 30SM FEW030 FEW079 M07/M14 A3036 RMK CU2AC1 ACSL ALQDS SLP352

CYYC;2008-12-03 23:00;CYYC 032300Z 35010G15KT 30SM FEW024 FEW070 M08/M14 A3037 RMK CU1AC2 ACSL ALQDS SLP357

CYYC;2008-12-04 00:00;CYYC 040000Z 35008KT 20SM FEW024 FEW070 M09/M15 A3038 RMK CU1AC2 SLP364

CYYC;2008-12-04 01:00;CYYC 040100Z 34009KT 15SM SCT070 M10/M15 A3040 RMK AC3 SLP370

CYYC;2008-12-04 02:00;CYYC 040200Z 33009KT 15SM FEW070 M10/M15 A3041 RMK AC2 SLP373

CYYC;2008-12-04 03:00;CYYC 040300Z 34010KT 15SM FEW070 M10/M16 A3043 RMK AC2 SLP383

CYYC;2008-12-04 04:00;CYYC 040400Z 30006KT 15SM FEW070 M12/M16 A3044 RMK AC2 SLP387

CYYC;2008-12-04 05:00;CYYC 040500Z 31006KT 15SM BKN060 M12/M16 A3045 RMK SC3 SLP390

CYYC;2008-12-04 06:00;CYYC 040600Z 30002KT 15SM FEW058 FEW090 M13/M16 A3045 RMK SC1AC1 AC TR SLP393

CYYC;2008-12-04 07:00;CYYC 040700Z 28004KT 15SM FEW060 FEW090 M13/M16 A3046 RMK SC1AC1 BOTH CLDS TR SLP395

CYYC;2008-12-04 08:00;CYYC 040800Z 00000KT 15SM FEW070 M13/M16 A3046 RMK AC1 AC TR SLP394

CYYC;2008-12-04 09:00;CYYC 040900Z 32002KT 15SM SKC M14/M17 A3045 RMK SLP395

CYYC;2008-12-04 10:00;CYYC 041000Z 00000KT 15SM SKC M15/M18 A3045 RMK SLP394

CYYC;2008-12-04 11:00;CYYC 041100Z 22006KT 15SM SKC M15/M17 A3042 RMK SLP386

CYYC;2008-12-04 12:00;CYYC 041200Z 20007KT 15SM SKC M15/M17 A3037 RMK SNOW COVER/TRACE LOOSE SLP371

CYYC;2008-12-04 13:00;CYYC 041300Z 21006KT 15SM SKC M15/M17 A3036 RMK SLP368

CYYC;2008-12-04 14:00;CYYC 041400Z 20006KT 15SM FEW240 M15/M17 A3035 RMK CI1 SLP366

CYYC;2008-12-04 15:00;CYYC 041500Z 19006KT 20SM FEW240 M16/M18 A3033 RMK CI1 SLP359

CYYC;2008-12-04 16:00;CYYC 041600Z 22008KT 40SM BKN250 M15/M18 A3029 RMK CI2 SLP347

CYYC;2008-12-04 17:00;CYYC 041700Z 22008KT 40SM FEW140 OVC250 M14/M16 A3026 RMK AC1CI2 SLP336

CYYC;2008-12-04 18:00;CYYC 041800Z 21009KT 40SM FEW140 BKN190 OVC210 M12/M16 A3022 RMK AC2AC3CI3 SLP316

CYYC;2008-12-04 19:00;CYYC 041900Z 22008KT 40SM FEW140 SCT190 OVC220 M09/M15 A3018 RMK AC2AC2CI3 SLP305

CYYC;2008-12-04 20:00;CYYC 042000Z 26006KT 40SM SCT140 BKN180 OVC220 M08/M15 A3013 RMK AC3AC2CI2 SLP290

CYYC;2008-12-04 21:00;CYYC 042100Z 22009KT 40SM FEW120 SCT180 OVC210 M06/M15 A3008 RMK AC2AC2CS3 ACSL S-SW-W SLP265

CYYC;2008-12-04 22:00;CYYC 042200Z CCA 22007KT 40SM FEW080 BKN130 OVC210 M05/M13 A3006 RMK AC2AC4CS2 ACSL SW-W SLP257

CYYC;2008-12-04 23:00;CYYC 042300Z 18004KT 40SM FEW070 SCT140 OVC200 M04/M12 A3001 RMK AC1AC2CS2 SLP242

CYYC;2008-12-05 00:00;CYYC 050000Z CCA 20006KT 30SM FEW080 FEW100 SCT180 BKN200 M05/M13 A2998 RMK AC1AC2AC1CI0 SLP226

CYYC;2008-12-05 01:00;CYYC 050100Z 19007KT 15SM FEW110 M05/M12 A2994 RMK AC2 SLP214

CYYC;2008-12-05 02:00;CYYC 050200Z 21010KT 15SM FEW070 SCT130 M03/M12 A2987 RMK AC2AC1 SLP195

CYYC;2008-12-05 03:00;CYYC 050300Z 16003KT 15SM FEW040 BKN072 OVC130 03/M10 A2985 RMK SC2AC5AC1 SLP170

CYYC;2008-12-05 04:00;CYYC 050400Z 26019G25KT 15SM OVC069 04/M09 A2981 RMK AC8 SLP159

CYYC;2008-12-05 05:00;CYYC 050500Z 26017G24KT 15SM SCT070 OVC180 05/M09 A2979 RMK AC4AC3 SLP151

CYYC;2008-12-05 06:00;CYYC 050600Z 26022KT 15SM SCT068 OVC170 06/M08 A2978 RMK AC4AC3 SLP136

CYYC;2008-12-05 07:00;CYYC 050700Z 26019G24KT 15SM BKN068 OVC140 06/M08 A2977 RMK AC6AC2 SLP133

CYYC;2008-12-05 08:00;CYYC 050800Z 27022KT 15SM BKN063 OVC100 06/M07 A2976 RMK SC6AC2 SLP132

CYYC;2008-12-05 09:00;CYYC 050900Z 27021G30KT 15SM OVC072 06/M07 A2976 RMK AC8 SLP121

CYYC;2008-12-05 10:00;CYYC 051000Z 27022G28KT 15SM BKN073 OVC110 07/M07 A2975 RMK AC6AC2 SLP120

CYYC;2008-12-05 11:00;CYYC 051100Z 27019G26KT 15SM BKN072 OVC140 06/M07 A2976 RMK AC6AC2 SLP122

CYYC;2008-12-05 12:00;CYYC 051200Z CCA 27019G25KT 15SM BKN077 OVC140 06/M07 A2976 RMK AC6AC2 SNOW COVER/TRACE LOOSE SLP119

CYYC;2008-12-05 13:00;CYYC 051300Z 27015G21KT 15SM BKN068 OVC140 06/M06 A2976 RMK AC6AC2 SLP120

CYYC;2008-12-05 14:00;CYYC 051400Z 34011KT 15SM FEW064 BKN070 OVC140 06/M06 A2980 RMK SC2AC4AC2 SLP130

CYYC;2008-12-05 15:00;CYYC 051500Z 33006KT 15SM OVC070 05/M05 A2981 RMK AC8 SLP127

CYYC;2008-12-05 16:00;CYYC 051600Z 36005KT 30SM FEW050 FEW080 SCT110 02/M05 A2983 RMK SC2AC1AC0 SLP132

CYYC;2008-12-05 17:00;CYYC 051700Z 33006KT 30SM FEW060 SCT080 BKN110 04/M05 A2984 RMK SC2AC2AC2 SLP135

CYYC;2008-12-05 18:00;CYYC 051800Z 01006KT 40SM FEW060 BKN080 OVC110 06/M03 A2985 RMK SC1AC5AC2 SLP137

CYYC;2008-12-05 19:00;CYYC 051900Z 30008KT 40SM SCT060 BKN080 OVC100 06/M04 A2985 RMK SC3AC3AC2 SLP138

CYYC;2008-12-05 20:00;CYYC 052000Z 36004KT 30SM SCT060 BKN100 OVC150 06/00 A2985 RMK SC3AC2AC1 SLP138

CYYC;2008-12-05 21:00;CYYC 052100Z 04011KT 30SM FEW050 SCT100 BKN150 OVC210 05/01 A2986 RMK SC2AC2AC3CI1 SLP141

CYYC;2008-12-05 22:00;CYYC 052200Z 04009KT 30SM FEW040 SCT110 OVC160 04/01 A2987 RMK SC2AC2AC3 SLP143

CYYC;2008-12-05 22:37;CYYC 052237Z 02009KT 30SM BKN014 BKN090 OVC160 03/ RMK SC5AC2AC1

CYYC;2008-12-05 23:00;CYYC 052300Z 03007KT 30SM BKN013 OVC090 02/01 A2989 RMK SC6AC2 SLP149

CYYC;2008-12-06 00:00;CYYC 060000Z 03007KT 15SM BKN015 OVC020 02/00 A2990 RMK SC5SC3 SLP160

CYYC;2008-12-06 00:29;CYYC 060029Z 06003KT 15SM BKN008 BKN015 OVC020 01/ RMK SC5SC2SC2

CYYC;2008-12-06 01:00;CYYC 060100Z 05005KT 15SM BKN008 BKN015 OVC020 01/01 A2991 RMK SC5SC2SC2 SLP163

CYYC;2008-12-06 01:43;CYYC 060143Z 05006KT 15SM FEW010 BKN020 OVC075 01/ RMK SC2SC3AC2

CYYC;2008-12-06 02:00;CYYC 060200Z 04004KT 15SM FEW010 BKN020 BKN040 OVC060 01/M00 A2991 RMK SC2SC3SC2SC1 SLP163

CYYC;2008-12-06 03:00;CYYC 060300Z 08002KT 15SM -SN OVC010 00/00 A2992 RMK SC8 SLP169

CYYC;2008-12-06 03:35;CYYC 060335Z 11002KT 15SM -SN BKN004 OVC009 00/ RMK SC6SC2

CYYC;2008-12-06 04:00;CYYC 060400Z CCA 11003KT 15SM -SN OVC004 00/00 A2993 RMK SC8 SLP172

CYYC;2008-12-06 05:00;CYYC 060500Z 12004KT 1/2SM FZFG VV002 00/00 A2993 RMK FG8 RVR RWY16 3000 FT SLP174

CYYC;2008-12-06 05:10;CYYC 060510Z 12004KT 3/8SM FZFG VV001 00/ RMK FG8 RVR RWY34 3000 FT

CYYC;2008-12-06 06:00;CYYC 060600Z 15005KT 3/8SM FZFG VV001 00/00 A2994 RMK FG8 RVR RWY16 2200 FT SLP176

CYYC;2008-12-06 06:50;CYYC 060650Z 16004KT 1SM BR OVC002 00/ RMK FG7ST1 RVR RWY16 4000 FT

CYYC;2008-12-06 07:00;CYYC 060700Z 16006KT 3SM BR OVC004 00/00 A2995 RMK ST8 SLP181

CYYC;2008-12-06 07:47;CYYC 060747Z 17006KT 3SM BR OVC003 M00/ RMK ST8

CYYC;2008-12-06 07:51;CYYC 060751Z 17006KT 2SM BR OVC002 M00/ RMK ST8

CYYC;2008-12-06 08:00;CYYC 060800Z 16007KT 2SM BR OVC002 M00/M01 A2995 RMK ST8 SLP180

CYYC;2008-12-06 09:00;CYYC 060900Z 17007KT 2 1/2SM BR OVC003 M00/M01 A2993 RMK ST8 SLP174

CYYC;2008-12-06 10:00;CYYC 061000Z 18007KT 2 1/2SM BR BKN003 OVC014 M00/M00 A2992 RMK ST5SC3 SLP170

CYYC;2008-12-06 11:00;CYYC 061100Z 18006KT 3SM BR OVC007 M00/M00 A2991 RMK ST8 SLP167

CYYC;2008-12-06 12:00;CYYC 061200Z 18010KT 3SM BR OVC004 M00/M00 A2990 RMK ST8 SLP169

CYYC;2008-12-06 13:00;CYYC 061300Z 18009KT 3SM BR OVC004 M00/M00 A2988 RMK ST8 SLP162

CYYC;2008-12-06 14:00;CYYC 061400Z 18008KT 1SM BR OVC001 M01/M01 A2986 RMK FG6ST2 RVR RWY34 4000 FT SLP156

CYYC;2008-12-06 14:13;CYYC 061413Z 18008KT 1/8SM FZFG VV001 M01/ RMK FG8 RVR RWY34 3000 FT

CYYC;2008-12-06 14:44;CYYC 061444Z 18010KT 3SM BR OVC002 M01/ RMK ST8 VIS W-N 11/2

CYYC;2008-12-06 15:00;CYYC 061500Z CCA 18007KT 2 1/2SM -FZRA BR OVC002 M01/M01 A2983 RMK ST8 VIS SW-NW 1 SLP148

CYYC;2008-12-06 15:07;CYYC 061507Z 17006KT 1SM -FZRA BR OVC002 M01/ RMK ST8 RVR RWY 16 6000+FT

CYYC;2008-12-06 16:00;CYYC 061600Z 20006KT 1 1/2SM BR BKN003 OVC008 M01/M01 A2982 RMK ST5SC2 SLP143

CYYC;2008-12-06 17:00;CYYC 061700Z 18006KT 1 3/4SM BR BKN004 OVC010 M01/M01 A2980 RMK SC6SC2 VIS SW-NW 4 SLP138

CYYC;2008-12-06 17:24;CYYC 061724Z 18006KT 4SM BR BKN004 BKN010 BKN080 M01/ RMK SC5SC1AC2 VIS N-SE 11/2

CYYC;2008-12-06 17:48;CYYC 061748Z 20006KT 4SM BR SCT004 SCT080 BKN130 M00/ RMK SC4AC1AC3

CYYC;2008-12-06 18:00;CYYC 061800Z 19007KT 4SM BR FEW004 SCT080 BKN130 00/M00 A2975 RMK SC1AC2AC4 SLP119

CYYC;2008-12-06 19:00;CYYC 061900Z 19003KT 15SM FEW004 FEW080 SCT130 BKN240 02/00 A2972 RMK SC1AC1AC2CI0 SLP108

CYYC;2008-12-06 20:00;CYYC 062000Z 21007KT 15SM FEW015 FEW130 FEW230 05/00 A2969 RMK SC1AC1CI1 ACSL SW SLP101

CYYC;2008-12-06 21:00;CYYC 062100Z 21008KT 20SM FEW020 FEW130 FEW230 07/M00 A2966 RMK SC1AC0CI0 SLP078

CYYC;2008-12-06 22:00;CYYC 062200Z 21006KT 20SM FEW020 SCT140 BKN270 09/M00 A2966 RMK SC1AC2CI0 SLP077

CYYC;2008-12-06 23:00;CYYC 062300Z 29014KT 20SM FEW020 FEW140 FEW250 10/M01 A2967 RMK SC1AC1CI0 ACSL / ACC ASOCTD S SLP082

CYYC;2008-12-07 00:00;CYYC 070000Z 34009KT 20SM FEW020 FEW140 FEW230 02/00 A2972 RMK SC1AC1CI1 SLP106

CYYC;2008-12-07 01:00;CYYC 070100Z 04002KT 15SM FEW140 FEW250 02/M01 A2973 RMK AC1CI1 SLP109

CYYC;2008-12-07 02:00;CYYC 070200Z 36005KT 15SM SKC 01/M02 A2972 RMK SLP107

CYYC;2008-12-07 03:00;CYYC 070300Z 31003KT 15SM SCT160 BKN210 M02/M03 A2973 RMK AC2CI0 SLP114

CYYC;2008-12-07 04:00;CYYC 070400Z 03003KT 15SM FEW095 OVC140 M02/M03 A2973 RMK AC1AC6 SLP115

CYYC;2008-12-07 05:00;CYYC 070500Z 00000KT 15SM OVC130 M01/M02 A2973 RMK AC7 SLP116

CYYC;2008-12-07 06:00;CYYC 070600Z 13003KT 15SM FEW110 OVC160 M01/M02 A2973 RMK AC1AC7 SLP112

CYYC;2008-12-07 07:00;CYYC 070700Z 06006KT 15SM FEW067 BKN090 OVC100 00/M01 A2974 RMK AC2AC6AC1 VIRGA E SLP116

CYYC;2008-12-07 08:00;CYYC 070800Z 20004KT 15SM FEW065 BKN086 OVC110 00/M01 A2972 RMK SC1AC6AC2 VIRGA ALQDS SLP110

CYYC;2008-12-07 09:00;CYYC 070900Z 19005KT 15SM SCT120 OVC150 01/M01 A2970 RMK AC3AC5 SLP092

CYYC;2008-12-07 10:00;CYYC 071000Z 00000KT 15SM OVC210 02/M02 A2969 RMK CI8 SLP087

CYYC;2008-12-07 11:00;CYYC 071100Z 34009KT 15SM BKN120 OVC210 00/M03 A2968 RMK AC6CI2 SLP086

CYYC;2008-12-07 12:00;CYYC 071200Z 34010KT 15SM FEW190 BKN210 00/M03 A2969 RMK AC2CI4 SLP094

CYYC;2008-12-07 13:00;CYYC 071300Z 35008KT 15SM SCT170 OVC220 M01/M03 A2968 RMK AC3CI4 SLP091

CYYC;2008-12-07 14:00;CYYC 071400Z 36008KT 15SM BKN100 OVC210 M01/M03 A2967 RMK AC7CI1 SLP089

CYYC;2008-12-07 15:00;CYYC 071500Z 04007KT 15SM BKN046 OVC120 M00/M03 A2966 RMK SC6AC2 SLP092

CYYC;2008-12-07 16:00;CYYC 071600Z 04006KT 20SM OVC030 01/M02 A2966 RMK SC8 SLP091

CYYC;2008-12-07 16:13;CYYC 071613Z 04006KT 15SM -SN FEW010 BKN018 OVC030 01/ RMK ST2SC4SC2 PCPN VRY LGT

CYYC;2008-12-07 16:34;CYYC 071634Z 03005KT 3SM -SN FEW010 BKN014 OVC020 01/ RMK SC2SC3SC2

CYYC;2008-12-07 16:38;CYYC 071638Z 04006KT 2 1/2SM -SN BKN010 OVC020 01/ RMK SC6SC2

CYYC;2008-12-07 16:46;CYYC 071646Z 03006KT 1 1/2SM -SN BKN007 OVC015 00/ RMK SC6SC2

CYYC;2008-12-07 16:51;CYYC 071651Z 03007KT 1SM -SN OVC007 00/ RMK SC8

CYYC;2008-12-07 17:00;CYYC 071700Z 02007KT 1SM -SN OVC006 00/M01 A2966 RMK SC8 RVR RWY16 6000 FT SLP091

CYYC;2008-12-07 17:39;CYYC 071739Z CCA 03009KT 5/8SM -SN OVC004 M00/ RMK SC8 RVR RWY34 3500 FT

CYYC;2008-12-07 18:00;CYYC 071800Z 03008KT 5/8SM -SN BR OVC004 M01/M01 A2966 RMK SC8 /S01/ RVR RWY28 4500 FT SLP089

CYYC;2008-12-07 18:09;CYYC 071809Z CCA 04008KT 5/8SM -SN BR OVC003 M01/ RMK SC8 RVR RWY28 5500 FT

CYYC;2008-12-07 18:34;CYYC 071834Z CCA 02008KT 1/2SM SN FZFG OVC003 M01/ RMK SC8 RVR RWY28 3500 FT

CYYC;2008-12-07 18:53;CYYC 071853Z 02007KT 3/8SM SN FZFG OVC003 M01/ RMK SN4SC4 RVR RWY28 3000 FT

CYYC;2008-12-07 19:00;CYYC 071900Z 02006KT 3/8SM SN FZFG OVC003 M01/M01 A2965 RMK SN4SC4 /S03/ RVR RWY34 3500 FT SLP086

CYYC;2008-12-07 19:42;CYYC 071942Z 01007KT 1/2SM SN FZFG OVC002 M01/ RMK SN4SC4 RVR RWY28 3000 FT

CYYC;2008-12-07 20:00;CYYC 072000Z 36008KT 1/2SM SN FZFG OVC002 M01/M01 A2965 RMK SN4SC4 /S07/ RVR RWY28 3000 FT SLP087

CYYC;2008-12-07 20:27;CYYC 072027Z CCA 36008KT 1/4SM +SN FZFG OVC002 M01/ RMK SN6SC2 RVR RWY28 2600 FT

CYYC;2008-12-07 20:35;CYYC 072035Z CCA 36009KT 3/8SM SN OVC002 M01/ RESN RMK SN6SC2 RVR RWY34 3500 FT

CYYC;2008-12-07 21:00;CYYC 072100Z 35005KT 3/8SM SN OVC003 M01/M01 A2966 RESN RMK SN5SC3 /S11/ RVR RWY28 35OO FT SLP087

CYYC;2008-12-07 22:00;CYYC 072200Z 02006KT 5/8SM -SN OVC004 M01/M01 A2967 RESN RMK SN4SC4 /S13/ RVR RWY34 5500 FT SLP092

CYYC;2008-12-07 22:33;CYYC 072233Z CCA 01005KT 5/8SM -SN OVC006 M01/ RMK SN4SC4 RVR RWY28 6000 FT

CYYC;2008-12-07 22:38;CYYC 072238Z 02005KT 3/4SM -SN OVC007 M01/ RMK SN3SC5 RVR RWY34 6000FT

CYYC;2008-12-07 22:50;CYYC 072250Z 02005KT 1 1/4SM -SN SCT003 OVC008 M01/ RMK SC3SC5

CYYC;2008-12-07 23:00;CYYC 072300Z 02005KT 1 1/4SM -SN SCT003 BKN009 OVC013 M01/M01 A2970 RMK SC4SC2SC2 SLP099

CYYC;2008-12-07 23:16;CYYC 072316Z 03006KT 2SM -SN SCT003 BKN009 OVC013 M01/ RMK ST4SC2SC2

CYYC;2008-12-08 00:00;CYYC 080000Z 03005KT 2SM -SN FEW003 OVC010 M02/M02 A2972 RMK ST1SC7 /S14/ SLP112

CYYC;2008-12-08 00:24;CYYC 080024Z 04006KT 1 3/4SM -SN BKN005 BKN010 OVC020 M02/ RMK ST5SC2SC2

CYYC;2008-12-08 00:35;CYYC 080035Z 04005KT 1 3/4SM -SN FEW003 OVC010 M02/ RMK ST2SC6

CYYC;2008-12-08 01:00;CYYC 080100Z 05005KT 2SM -SN SCT004 OVC010 M03/M03 A2975 RMK ST3SC5 SLP120

CYYC;2008-12-08 02:00;CYYC 080200Z 03008KT 5SM -SN FEW005 FEW012 BKN024 OVC035 M04/M04 A2977 RMK ST1ST2SC3SC2 SLP127

CYYC;2008-12-08 03:00;CYYC 080300Z 03007KT 5SM -SN BKN016 OVC060 M04/M04 A2979 RMK SC6SC2 SLP138

CYYC;2008-12-08 04:00;CYYC 080400Z 03006KT 3/4SM -SN BR BKN003 OVC010 M04/M04 A2981 RMK SC6SC2 SLP143

CYYC;2008-12-08 04:14;CYYC 080414Z 03006KT 1 1/2SM -SN BR OVC003 M04/ RMK SC8

CYYC;2008-12-08 05:00;CYYC 080500Z 05002KT 1 1/2SM -SN BR OVC004 M04/M04 A2982 RMK SC8 SLP146

CYYC;2008-12-08 05:47;CYYC 080547Z 34004KT 1/2SM -SN FZFG VV002 M04/ RMK FG8

CYYC;2008-12-08 06:00;CYYC 080600Z CCA 32002KT 1/4SM SN FZFG VV002 M04/M04 A2984 RMK FG8 /S01/ SLP157

CYYC;2008-12-08 06:40;CYYC 080640Z 09003KT 3/4SM -SN BR OVC003 M04/ RMK FG6SC2 RVR RWY 34 2800

CYYC;2008-12-08 07:00;CYYC 080700Z 08004KT 1 1/2SM -SN BR OVC003 M04/M04 A2986 RMK FG5SC3 RVR RWY 34 6000+ SLP162

CYYC;2008-12-08 07:20;CYYC 080720Z 10004KT 2 1/2SM -SN BR OVC005 M04/ RMK FG3SC5

CYYC;2008-12-08 07:42;CYYC 080742Z 06004KT 3/4SM -SN BR OVC003 M05/ RMK FG5SC3 RVR RWY 34 6000+ FT

CYYC;2008-12-08 08:00;CYYC 080800Z 07005KT 3/4SM -SN BR OVC003 M05/M05 A2988 RMK FG5SC3 RVR RWY 34 6000+ FT SLP168

CYYC;2008-12-08 09:00;CYYC 080900Z 06003KT 1SM -SN BR OVC005 M06/M06 A2990 RMK FG5SC3 RVR RWY 34 6000+ FT SLP182

CYYC;2008-12-08 10:00;CYYC 081000Z 05003KT 1/4SM SN FZFG OVC006 M06/M06 A2992 RMK FG6SC2 RVR RWY 34 3000+ FT SLP188

CYYC;2008-12-08 10:42;CYYC 081042Z 03003KT 1 1/2SM -SN BR OVC015 M06/ RMK FG3SC5

CYYC;2008-12-08 11:00;CYYC 081100Z 00000KT 1 1/2SM -SN BR OVC015 M06/M06 A2993 RMK FG2SC6 SLP191

CYYC;2008-12-08 12:00;CYYC 081200Z 00000KT 2 1/2SM -SN BR OVC015 M06/M06 A2994 RMK SC8 SLP197

CYYC;2008-12-08 13:00;CYYC 081300Z 00000KT 3SM -SN BR SCT009 OVC018 M06/M06 A2994 RMK SC3SC5 SLP197

CYYC;2008-12-08 13:11;CYYC 081311Z 00000KT 3SM -SN BR BKN010 OVC018 M06/ RMK SC6SC2

CYYC;2008-12-08 14:00;CYYC 081400Z 08002KT 4SM -SN BR OVC010 M06/M06 A2996 RMK SC8 SLP202

CYYC;2008-12-08 14:25;CYYC 081425Z 11004KT 2 1/2SM -SN BR OVC009 M06/ RMK SC8

CYYC;2008-12-08 15:00;CYYC 081500Z 13004KT 2SM -SN BR OVC009 M06/M07 A2996 RMK SC8 SLP205

CYYC;2008-12-08 16:00;CYYC 081600Z 16006KT 3SM -SN OVC009 M06/M07 A2997 RMK SC8 SLP209

CYYC;2008-12-08 17:00;CYYC 081700Z 15005KT 3SM -SN BR BKN009 OVC095 M07/M07 A2997 RMK SC6AC2 SLP208

CYYC;2008-12-08 18:00;CYYC 081800Z 16005KT 4SM -SN BR BKN009 OVC088 M07/M07 A2997 RMK SC5AC3 SLP211

CYYC;2008-12-08 19:00;CYYC 081900Z 18007KT 4SM -SN BR FEW009 OVC079 M06/M07 A2994 RMK SC2AC6 SLP203

CYYC;2008-12-08 20:00;CYYC 082000Z 19006KT 6SM -SN FEW035 OVC080 M05/M06 A2993 RMK SC2AC6 SLP198

CYYC;2008-12-08 21:00;CYYC 082100Z 18005KT 10SM SCT060 OVC079 M04/M06 A2992 RMK SC3AC4 SLP192

CYYC;2008-12-08 22:00;CYYC 082200Z 18007KT 10SM FEW060 OVC071 M04/M06 A2992 RMK SC2AC5 SLP193

CYYC;2008-12-08 23:00;CYYC 082300Z 19005KT 10SM FEW060 OVC076 M04/M05 A2993 RMK SC2AC6 SLP196

CYYC;2008-12-09 00:00;CYYC 090000Z 18005KT 10SM FEW060 OVC080 M04/M05 A2992 RMK SC2AC6 SLP192

CYYC;2008-12-09 01:00;CYYC 090100Z 21006KT 10SM FEW060 BKN080 OVC100 M04/M05 A2994 RMK SC2AC4AC2 SLP199

CYYC;2008-12-09 02:00;CYYC 090200Z 01008KT 9SM FEW060 OVC080 M04/M05 A2996 RMK SC2AC6 VIRGA S SLP204

CYYC;2008-12-09 03:00;CYYC 090300Z 32007KT 15SM SCT090 BKN120 M03/M03 A2998 RMK AC3AC2 SLP211

CYYC;2008-12-09 04:00;CYYC 090400Z 36007KT 15SM SCT090 BKN120 M04/M04 A3000 RMK AC3AC3 SLP218

CYYC;2008-12-09 04:46;CYYC 090446Z 36014KT 1SM -SN BR BKN002 OVC120 M07/ RMK SC6AC0

CYYC;2008-12-09 05:00;CYYC 090500Z 35015KT 1SM -SN BR OVC002 M07/M08 A3002 RMK SC6 SLP223

CYYC;2008-12-09 05:29;CYYC 090529Z 36014KT 1 1/2SM -SN BR OVC005 M07/ RMK SC8

CYYC;2008-12-09 06:00;CYYC 090600Z 35012G17KT 1SM -SN BR OVC003 M07/M07 A3006 RMK SC8 SLP248

CYYC;2008-12-09 07:00;CYYC 090700Z 36007KT 1 1/2SM -SN BR OVC004 M07/M07 A3009 RMK SC8 SLP255

CYYC;2008-12-09 08:00;CYYC 090800Z 05005KT 1 1/2SM -SN BR OVC006 M08/M08 A3006 RMK SC8 SLP245

CYYC;2008-12-09 09:00;CYYC 090900Z 09003KT 1 1/2SM -SN BR OVC006 M08/M09 A3006 RMK FG5SC3 SLP244

CYYC;2008-12-09 10:00;CYYC 091000Z 11005KT 1 1/2SM -SN BR OVC005 M08/M09 A3003 RMK FG5SC3 SLP234

CYYC;2008-12-09 11:00;CYYC 091100Z CCA 13007KT 1SM -SN BR OVC003 M08/M08 A3001 RMK FG6SC2 RVR RWY 16 6000+ FT SLP228

CYYC;2008-12-09 11:16;CYYC 091116Z 12005KT 1/2SM SN FZFG VV003 M08/ RMK FG8 RVR RWY 16 5000 FT

CYYC;2008-12-09 12:00;CYYC 091200Z 11005KT 1/2SM SN FZFG VV002 M08/M08 A3003 RMK FG8 RVR RWY 16 4500 FT/SNOW COVER/MUCH LOOSE SLP233

CYYC;2008-12-09 13:00;CYYC 091300Z CCA 11005KT 1/2SM SN FZFG VV003 M08/M09 A3003 RMK FG8 RVR RWY 16 4500 FT/ PCPN LGT -SN SLP233

CYYC;2008-12-09 14:00;CYYC 091400Z 16007KT 1/2SM SN FZFG VV003 M08/M08 A3001 RMK FG8 RVR RWY 16 4000 FT/ PCPN LGT -SN SLP228

CYYC;2008-12-09 14:48;CYYC 091448Z 16008KT 1SM -SN FZFG OVC001 M08/ RESN RMK FG6SC2 RIME ON ICE ACCRETION

CYYC;2008-12-09 15:00;CYYC 091500Z 16008KT 1 1/4SM -SN BR BKN002 OVC005 M08/M08 A2997 RESN RMK FG5SC1SC2 SLP212

CYYC;2008-12-09 15:26;CYYC 091526Z 16008KT 1 1/4SM BR BKN002 OVC006 M08/ RMK FG3SC2SC3

CYYC;2008-12-09 15:29;CYYC 091529Z 15007KT 1 1/4SM -SN BR BKN003 OVC007 M08/ RMK FG3SC2SC3

CYYC;2008-12-09 16:00;CYYC 091600Z 16008KT 1SM -SN BR BKN002 OVC007 M08/M09 A2994 RMK FG3SC2SC2 RIME ON ICE ACCRETION/RVR RWY16 6000 FT SLP202

CYYC;2008-12-09 16:12;CYYC 091612Z 17007KT 3/4SM -SN BR BKN002 OVC010 M08/ RMK FG4SC2SC2 RIME ON ICE ACCRETION/RVR RWY28 4000 FT

CYYC;2008-12-09 16:39;CYYC 091639Z 16009KT 1SM -SN BR BKN002 OVC008 M08/ RMK FG3SC2SC2 RVR RWY16 6000 FT

CYYC;2008-12-09 17:00;CYYC 091700Z 17009KT 1SM -SN BR SCT002 BKN008 OVC070 M08/M09 A2991 RMK FG3SC1SC2AC2 RIME ON ICE ACCRETI0N/RVR RWY28 6000 FT SLP192

CYYC;2008-12-09 17:14;CYYC 091714Z 16007KT 1 1/2SM -SN BR SCT007 OVC066 M08/ RMK FG2SC2AC4

CYYC;2008-12-09 18:00;CYYC 091800Z 17006KT 2 1/2SM BR FEW008 OVC065 M08/M08 A2988 RMK SC2SC6 /S01/ SLP187

CYYC;2008-12-09 19:00;CYYC 091900Z 18008KT 2 1/2SM BR FEW007 SCT028 OVC062 M08/M08 A2985 RMK SC1SC3SC5 SLP175

CYYC;2008-12-09 20:00;CYYC 092000Z 17006KT 2 1/2SM BR FEW002 FEW004 SCT045 OVC060 M08/M08 A2979 RMK ST1ST1SC3SC4 SLP159

CYYC;2008-12-09 21:00;CYYC 092100Z 19006KT 3SM BR FEW004 FEW040 SCT110 OVC160 M08/M08 A2975 RMK ST1SC1AC3AC5 PRESFR SLP141

CYYC;2008-12-09 22:00;CYYC 092200Z 19006KT 10SM FEW040 BKN110 OVC140 M07/M07 A2972 RMK SC1AC4AC3 BR SLP132

CYYC;2008-12-09 23:00;CYYC 092300Z 18004KT 12SM FEW050 BKN130 OVC240 M06/M06 A2970 RMK SC1AC6CI1 SLP127

CYYC;2008-12-10 00:00;CYYC 100000Z 20004KT 15SM FEW050 BKN140 OVC250 M04/M05 A2967 RMK SC1AC6CI1 SLP109

CYYC;2008-12-10 01:00;CYYC 100100Z 00000KT 15SM BKN140 M03/M04 A2966 RMK AC7 SLP105

CYYC;2008-12-10 02:00;CYYC 100200Z 18007KT 15SM BKN160 M01/M03 A2965 RMK AC7 SLP102

CYYC;2008-12-10 03:00;CYYC 100300Z 28028G36KT 15SM OVC170 06/03 A2967 RMK AC8 SLP093

CYYC;2008-12-10 04:00;CYYC 100400Z 27021G27KT 15SM SCT170 OVC240 06/03 A2964 RMK AC3CI5 SLP082

CYYC;2008-12-10 05:00;CYYC 100500Z 28023G28KT 15SM FEW170 SCT250 06/04 A2968 RMK AC2CI2 SLP095

CYYC;2008-12-10 06:00;CYYC 100600Z 31015G28KT 15SM FEW170 BKN250 06/05 A2973 RMK AC1CI3 SLP115

CYYC;2008-12-10 07:00;CYYC 100700Z 30003KT 15SM FEW170 OVC240 03/01 A2979 RMK AC2CI3 SLP132

CYYC;2008-12-10 08:00;CYYC 100800Z 00000KT 15SM FEW170 BKN240 04/M06 A2983 RMK AC1CI2 SLP146

CYYC;2008-12-10 09:00;CYYC 100900Z 28009KT 15SM FEW160 OVC230 04/M06 A2988 RMK AC2CI4 SLP168

CYYC;2008-12-10 10:00;CYYC 101000Z 26014KT 15SM FEW160 OVC210 04/M06 A2989 RMK AC1CI6 SLP172

CYYC;2008-12-10 11:00;CYYC 101100Z 26013KT 15SM FEW140 OVC210 05/M06 A2991 RMK AC2CI5 SLP179

CYYC;2008-12-10 12:00;CYYC 101200Z 26014KT 15SM FEW140 OVC210 04/M06 A2993 RMK AC1CI6 SNOW COVER/MUCH LOOSE SLP180

CYYC;2008-12-10 13:00;CYYC 101300Z 26012KT 15SM FEW140 BKN230 04/M07 A2994 RMK AC1CI5 SLP184

CYYC;2008-12-10 14:00;CYYC 101400Z 25006KT 15SM FEW140 OVC240 03/M07 A2996 RMK AC2CI4 SLP190

CYYC;2008-12-10 15:00;CYYC 101500Z 26005KT 15SM FEW140 BKN200 BKN240 03/M06 A2997 RMK AC2CI2CI0 SLP182

CYYC;2008-12-10 16:00;CYYC 101600Z 25012KT 40SM FEW040 FEW100 BKN230 03/M07 A2999 RMK SC1AC2CI2 SLP188

CYYC;2008-12-10 17:00;CYYC 101700Z 24012KT 40SM FEW040 FEW140 OVC240 04/M07 A3000 RMK SC1AC1CI4 SLP191

CYYC;2008-12-10 18:00;CYYC 101800Z 26011KT 40SM FEW040 SCT180 OVC210 04/M06 A3001 RMK SC1AC2CI1 SLP196

CYYC;2008-12-10 19:00;CYYC 101900Z 36003KT 40SM FEW050 FEW085 BKN160 BKN240 04/M06 A3001 RMK SC1AC1AC5CI0 DIST SH SW SLP195

CYYC;2008-12-10 20:00;CYYC 102000Z 03007KT 40SM FEW050 BKN160 OVC220 02/M05 A3002 RMK SC1AC5CI2 DIST SH SW SLP199

CYYC;2008-12-10 21:00;CYYC 102100Z 35007KT 40SM FEW050 FEW074 BKN180 OVC240 00/M05 A3002 RMK SC1AC1AC5CI1 DIST SH SW SLP206

CYYC;2008-12-10 22:00;CYYC 102200Z 36005KT 40SM FEW050 BKN070 OVC240 01/M05 A3003 RMK SC1AC5CI1 DIST SH SW SLP208

CYYC;2008-12-10 23:00;CYYC 102300Z 36003KT 40SM FEW065 SCT120 OVC240 00/M06 A3003 RMK SC2AC0CI0 DIST SH SW SLP210

CYYC;2008-12-11 00:00;CYYC 110000Z 21004KT 15SM FEW065 FEW120 BKN240 M01/M06 A3003 RMK SC1AC1CI0 DIST SH N-E+SW SLP211

CYYC;2008-12-11 01:00;CYYC 110100Z 21004KT 15SM FEW120 SCT240 01/M07 A3003 RMK AC1CI0 SLP211

CYYC;2008-12-11 02:00;CYYC 110200Z 28006KT 15SM FEW100 SCT240 01/M07 A3002 RMK AC1CI0 SLP208

CYYC;2008-12-11 03:00;CYYC 110300Z 36008KT 15SM FEW110 M02/M08 A3004 RMK AC1 SLP219

CYYC;2008-12-11 04:00;CYYC 110400Z 30004KT 15SM SCT110 M04/M08 A3006 RMK AC3 SLP226

CYYC;2008-12-11 05:00;CYYC 110500Z 01011G16KT 15SM FEW020 BKN090 BKN120 M04/M07 A3014 RMK SC2AC3AC2 SLP248

CYYC;2008-12-11 06:00;CYYC 110600Z 34014KT 15SM FEW020 SCT077 OVC120 M02/M04 A3016 RMK SC1AC3AC2 SLP257

CYYC;2008-12-11 07:00;CYYC 110700Z 35013KT 15SM FEW030 BKN090 OVC120 M02/M06 A3017 RMK SC1AC4AC2 SLP262

CYYC;2008-12-11 08:00;CYYC 110800Z 33005KT 15SM FEW040 SCT076 OVC100 M03/M06 A3018 RMK SC1AC3AC3 SLP265

CYYC;2008-12-11 09:00;CYYC 110900Z 27003KT 15SM BKN071 OVC110 M03/M06 A3019 RMK AC6AC2 SLP275

CYYC;2008-12-11 10:00;CYYC 111000Z 21006KT 15SM BKN058 OVC078 M03/M06 A3020 RMK SC5AC3 SLP278

CYYC;2008-12-11 11:00;CYYC 111100Z 21006KT 15SM BKN062 BKN070 OVC110 M03/M06 A3021 RMK SC5AC2AC1 SLP281

CYYC;2008-12-11 12:00;CYYC 111200Z 22008KT 15SM FEW065 BKN087 OVC110 M03/M06 A3021 RMK SC2AC5AC2 SNOW COVER/MEDIUM PACK SLP285

CYYC;2008-12-11 13:00;CYYC 111300Z 22004KT 15SM FEW065 FEW070 OVC096 M03/M06 A3021 RMK SC1AC1AC6 SLP286

CYYC;2008-12-11 14:00;CYYC 111400Z 23006KT 15SM FEW070 BKN094 M04/M07 A3022 RMK AC2AC2 SLP288

CYYC;2008-12-11 15:00;CYYC 111500Z 23003KT 30SM FEW090 M06/M08 A3023 RMK AC2 SLP298

CYYC;2008-12-11 16:00;CYYC 111600Z 05003KT 40SM FEW090 M07/M08 A3024 RMK AC1 AC TR SLP300

CYYC;2008-12-11 17:00;CYYC 111700Z 19002KT 40SM FEW100 M06/M08 A3024 RMK AC0 SLP301

CYYC;2008-12-11 18:00;CYYC 111800Z 23003KT 40SM FEW090 M06/M09 A3024 RMK AC0 SLP300

CYYC;2008-12-11 19:00;CYYC 111900Z 20005KT 40SM FEW090 FEW120 M03/M08 A3021 RMK AC1AC0 SLP291

CYYC;2008-12-11 20:00;CYYC 112000Z 19006KT 40SM FEW090 SCT120 M02/M08 A3017 RMK AC1AC0 SLP279

CYYC;2008-12-11 21:00;CYYC 112100Z 18009KT 40SM FEW028 FEW090 SCT120 M01/M08 A3011 RMK CU1AC1AC0 CU TR SLP251

CYYC;2008-12-11 22:00;CYYC 112200Z 17010KT 40SM FEW028 FEW120 BKN250 M01/M09 A3008 RMK CU1AC2CI0 SLP240

CYYC;2008-12-11 23:00;CYYC 112300Z 19008KT 30SM FEW024 FEW120 BKN250 M02/M08 A3005 RMK CU1AC2CI0 CU TR SLP231

CYYC;2008-12-12 00:00;CYYC 120000Z 18007KT 20SM FEW016 SCT180 BKN200 M04/M08 A3002 RMK CU1AC2CI0 CU TR SLP222

CYYC;2008-12-12 01:00;CYYC 120100Z 18006KT 15SM FEW100 SCT190 BKN230 M05/M08 A2997 RMK AC1AC0CI0 SLP208

CYYC;2008-12-12 02:00;CYYC 120200Z 25014KT 15SM FEW170 SCT200 OVC240 01/M09 A2993 RMK AC0CI0CI0 SLP194

CYYC;2008-12-12 03:00;CYYC 120300Z 26018G25KT 15SM BKN170 OVC240 02/M08 A2990 RMK AC6CI2 SLP177

CYYC;2008-12-12 04:00;CYYC 120400Z 26020G25KT 15SM BKN190 OVC240 03/M08 A2988 RMK AC5CI2 SLP170

CYYC;2008-12-12 05:00;CYYC 120500Z 26015KT 15SM BKN160 OVC240 02/M07 A2985 RMK AC5CI2 SLP163

CYYC;2008-12-12 06:00;CYYC 120600Z 26017KT 15SM SCT160 OVC230 03/M07 A2983 RMK AC3CI4 SLP151

CYYC;2008-12-12 07:00;CYYC 120700Z 27021KT 15SM FEW160 OVC210 03/M07 A2981 RMK AC2CI5 SLP144

CYYC;2008-12-12 08:00;CYYC 120800Z 27019G25KT 15SM SCT160 OVC200 04/M07 A2978 RMK AC2CI4 SLP135

CYYC;2008-12-12 09:00;CYYC 120900Z 27021G26KT 15SM BKN190 OVC230 04/M08 A2975 RMK AC5CI2 SLP115

CYYC;2008-12-12 10:00;CYYC 121000Z 26019G25KT 15SM BKN190 OVC220 04/M07 A2973 RMK AC5CI2 SLP108

CYYC;2008-12-12 11:00;CYYC 121100Z 26012KT 15SM OVC210 03/M07 A2970 RMK CI8 SLP101

CYYC;2008-12-12 12:00;CYYC 121200Z 15004KT 15SM BKN130 OVC210 03/M07 A2969 RMK AC5CI3 SNOW COVER/MEDUIM PACK SLP099

CYYC;2008-12-12 13:00;CYYC 121300Z 06004KT 15SM BKN150 OVC220 01/M07 A2966 RMK AC5CI3 SLP089

CYYC;2008-12-12 14:00;CYYC 121400Z 08009KT 15SM BKN160 OVC210 M03/M07 A2964 RMK AC6CI2 SLP085

CYYC;2008-12-12 15:00;CYYC 121500Z 10008KT 15SM SCT120 OVC160 M02/M07 A2963 RMK AC3AC5 SLP076

CYYC;2008-12-12 16:00;CYYC 121600Z 08008KT 40SM SCT060 BKN120 OVC160 M02/M06 A2962 RMK SC4AC2AC2 SLP072

CYYC;2008-12-12 17:00;CYYC 121700Z 05007KT 30SM FEW018 BKN050 OVC080 M03/M06 A2962 RMK CU1SC6AC2 SLP073

CYYC;2008-12-12 18:00;CYYC 121800Z 08008KT 10SM BKN018 OVC050 M03/M05 A2961 RMK SC5SC3 SLP070

CYYC;2008-12-12 18:20;CYYC 121820Z 08006KT 3SM -SHSN OVC018 M03/ RMK SC8

CYYC;2008-12-12 18:28;CYYC 121828Z 08006KT 2SM -SHSN OVC018 M03/ RMK SC8

CYYC;2008-12-12 18:39;CYYC 121839Z 07004KT 1 1/2SM -SHSN VV006 M04/ RMK SN8

CYYC;2008-12-12 19:00;CYYC 121900Z 07007KT 1SM -SHSN VV010 M03/M04 A2956 RMK SN8 RVR RWY16 6000 FT SLP056

CYYC;2008-12-12 19:21;CYYC 121921Z 06007KT 3/4SM -SHSN VV008 M03/ RMK SN8 RVR RWY34 6000/RVR RWY28 5500

CYYC;2008-12-12 20:00;CYYC 122000Z CCA 04013KT 5/8SM -SHSN VV008 M03/M04 A2954 RMK SN8 RVR RWY34 6000FT/RVR RWY28 6000 FT SLP050

CYYC;2008-12-12 20:43;CYYC 122043Z 05011G16KT 1/2SM -SHSN BLSN VV005 M04/ RMK SN8

CYYC;2008-12-12 21:00;CYYC 122100Z 05013KT 1/2SM SN VV005 M04/M05 A2954 RMK SN8 RVR RWY34 3500/RVR RWY28 3500/S01/ SLP045

CYYC;2008-12-12 22:00;CYYC 122200Z CCA 05014KT 1/2SM SN DRSN VV004 M04/M05 A2954 RMK SN8 RVR RWY34 3500/RVR RWY28 3000/S01/ SLP045

CYYC;2008-12-12 23:00;CYYC 122300Z 05017KT 1/2SM SN DRSN VV006 M06/M07 A2954 RMK SN8 RVR RWY34 6000 FT/RVR RWY28 3000 FT/S01/ SLP046

CYYC;2008-12-13 00:00;CYYC 130000Z 04018KT 5/8SM -SN DRSN VV007 M07/M08 A2956 RMK SN8 SLP058

CYYC;2008-12-13 00:47;CYYC 130047Z CCA 04018KT 1/2SM SN BLSN VV004 M07/ RMK SN8 RVR RWY34 6000 FT/RVR RWY28 3000 FT

CYYC;2008-12-13 01:00;CYYC 130100Z 03015KT 1/2SM SN BLSN VV004 M08/M08 A2958 RMK SN8 RVR RWY34 5000 FT SLP063

CYYC;2008-12-13 02:00;CYYC 130200Z 02017KT 1/2SM SN BLSN VV004 M08/M09 A2960 RMK SN8 RVR RWY34 6000 FT/ /SO2/ SLP070

CYYC;2008-12-13 03:00;CYYC 130300Z 03020G25KT 1/2SM SN DRSN VV006 M11/M12 A2962 REBLSN RMK SN8 RVR RWY34 6000 FT SLP090

CYYC;2008-12-13 03:15;CYYC 130315Z 03017G22KT 1 1/4SM -SN DRSN OVC009 M11/ RESN RMK SN7SC1

CYYC;2008-12-13 03:26;CYYC 130326Z 03015KT 2SM -SN DRSN BKN012 OVC034 M11/ RESN RMK SN6SC2SC1

CYYC;2008-12-13 04:00;CYYC 130400Z 02017KT 2SM -SN DRSN BKN007 OVC020 M11/M13 A2963 RESN RMK SN6SC2SC1 /S03/ SLP094

CYYC;2008-12-13 04:52;CYYC 130452Z 02016G21KT 1 1/4SM -SN DRSN BKN006 OVC022 M13/ RMK SN6SC1SC1

CYYC;2008-12-13 05:00;CYYC 130500Z 02016G24KT 1 1/4SM -SN DRSN BKN006 OVC026 M13/M15 A2967 RMK SN6SC1SC1 SLP107

CYYC;2008-12-13 05:45;CYYC 130545Z 02016KT 3/4SM -SN DRSN BKN006 OVC017 M13/ RMK SN7SC1SC1 RVR RWY34 4500 FT

CYYC;2008-12-13 06:00;CYYC 130600Z 02012G17KT 1 1/2SM -SN DRSN BKN008 BKN027 OVC037 M14/M15 A2969 RMK SN4SC1SC2SC2 /S05/ SLP121

CYYC;2008-12-13 07:00;CYYC 130700Z 02013KT 2 1/4SM -SN DRSN BKN013 OVC033 M14/M16 A2971 RMK SN2SC4SC2 SLP128

CYYC;2008-12-13 08:00;CYYC 130800Z 01012KT 1 1/2SM -SN DRSN BKN008 OVC023 M14/M16 A2974 RMK SN4SC2SC2 SLP136

CYYC;2008-12-13 09:00;CYYC 130900Z 02024G29KT 1 1/2SM -SN DRSN BKN009 OVC020 M17/M18 A2977 RMK SN4SC2SC2 /S01/ SLP154

CYYC;2008-12-13 10:00;CYYC 131000Z 02021G29KT 1 3/4SM -SN DRSN BKN009 OVC048 M19/M21 A2983 RMK SN4SC2SC2 SLP172

CYYC;2008-12-13 11:00;CYYC 131100Z CCA 01019G24KT 2SM -SN DRSN BKN017 BKN021 OVC072 M19/M22 A2985 RMK SC5SC2AC2 /S02/ SLP178

CYYC;2008-12-13 12:00;CYYC 131200Z 02018G24KT 4SM -SN DRSN BKN018 BKN027 OVC080 M21/M22 A2986 RMK SC5SC2AC2 SNOW COVER/MEDIUM PACK SLP197

CYYC;2008-12-13 13:00;CYYC 131300Z 02014KT 5SM -SN DRSN BKN078 BKN081 OVC120 M21/M23 A2989 RMK AC5AC2AC1 SLP206

CYYC;2008-12-13 14:00;CYYC 131400Z 02012KT 8SM -SN DRSN BKN077 OVC083 M22/M24 A2993 RMK AC6AC2 SLP219

CYYC;2008-12-13 14:50;CYYC 131450Z 02013KT 10SM FEW018 SCT079 OVC081 M22/ RMK CU1AC3AC5

CYYC;2008-12-13 15:00;CYYC 131500Z 02010G15KT 10SM FEW018 SCT079 OVC081 M22/M25 A2995 RMK CU1AC3AC5 SLP237

CYYC;2008-12-13 15:17;CYYC 131517Z 02012KT 4SM BR FEW016 OVC079 M22/ RMK CU1AC8

CYYC;2008-12-13 15:23;CYYC 131523Z 01010G15KT 1 1/2SM -SN VV008 M22/ RMK SN8

CYYC;2008-12-13 15:42;CYYC 131542Z 02014G19KT 1SM -SN DRSN OVC020 M22/ RMK SN6SC2

CYYC;2008-12-13 16:00;CYYC 131600Z 02014G19KT 1 1/4SM -SN DRSN OVC020 M23/M25 A2998 RMK SN6SC2 SLP245

CYYC;2008-12-13 16:36;CYYC 131636Z CCA 01013KT 3SM -SN DRSN OVC030 M23/ RMK SN6SC2

CYYC;2008-12-13 17:00;CYYC 131700Z 01011G16KT 3SM -SN DRSN OVC030 M24/M29 A3001 RMK SN5SC2 SLP254

CYYC;2008-12-13 18:00;CYYC 131800Z CCA 01013KT 3SM -SN DRSN OVC020 M23/M28 A3003 RMK SC8 /S01/ SLP270

CYYC;2008-12-13 19:00;CYYC 131900Z 36014KT 5SM -SN DRSN OVC050 M24/M29 A3004 RMK SC6 SLP272

CYYC;2008-12-13 19:36;CYYC 131936Z 01011G16KT 5SM IC DRSN SCT040 OVC100 M24/ RMK SC4AC2

CYYC;2008-12-13 20:00;CYYC 132000Z 01012KT 5SM IC DRSN SCT040 BKN100 M24/M29 A3004 RMK SC3AC2 SLP273

CYYC;2008-12-13 21:00;CYYC 132100Z CCA 36015KT 6SM IC DRSN FEW040 SCT090 OVC110 M24/M29 A3006 RMK SC2AC2AC4 SLP284

CYYC;2008-12-13 22:00;CYYC 132200Z 02012KT 6SM -SN DRSN FEW040 BKN060 OVC090 M24/M29 A3007 RMK SC2SC4AC2 PCPN VRY LGT SLP290

CYYC;2008-12-13 23:00;CYYC 132300Z 01011KT 4SM -SN DRSN OVC040 M24/M29 A3008 RMK SC8 SLP292

CYYC;2008-12-14 00:00;CYYC 140000Z CCA 04007KT 4SM -SN DRSN OVC035 M25/M29 A3012 RMK SC8 SLP315

CYYC;2008-12-14 01:00;CYYC 140100Z 35008KT 5SM -SN DRSN SCT050 OVC100 M25/M29 A3012 RMK SC3AC5 SLP315

CYYC;2008-12-14 02:00;CYYC 140200Z 04005KT 5SM -SN DRSN FEW050 OVC110 M25/M30 A3014 RMK SC2AS6 PCPN VRY LGT SLP320

CYYC;2008-12-14 03:00;CYYC 140300Z 36009KT 12SM -SN FEW050 OVC110 M26/M30 A3016 RMK SC2AC6 SLP331

CYYC;2008-12-14 04:00;CYYC 140400Z 35007KT 10SM -SN FEW045 OVC110 M26/M30 A3017 RMK SC1AC7 SLP335

CYYC;2008-12-14 04:34;CYYC 140434Z 36009KT 2SM -SN SCT013 BKN028 OVC100 M26/ RMK SC2SC2AC2

CYYC;2008-12-14 05:00;CYYC 140500Z 36010KT 2SM -SN BKN016 BKN031 OVC100 M27/M31 A3019 RMK SC5SC2AC1 SLP340

CYYC;2008-12-14 05:20;CYYC 140520Z 36010KT 3SM -SN DRSN FEW016 FEW031 OVC100 M27/ RMK SC1SC2AC4

CYYC;2008-12-14 06:00;CYYC 140600Z 35007KT 8SM -SN DRSN FEW030 OVC110 M27/M31 A3020 RMK SC1AC6 SLP349

CYYC;2008-12-14 07:00;CYYC 140700Z 34009KT 6SM -SN DRSN FEW042 BKN110 OVC230 M27/M32 A3018 RMK SC1AC5CS1 SLP345

CYYC;2008-12-14 08:00;CYYC 140800Z CCA 34007KT 8SM -SN DRSN FEW025 FEW040 BKN110 M28/M32 A3019 RMK SC1SC2AC3 SLP347

CYYC;2008-12-14 09:00;CYYC 140900Z 34009KT 6SM IC FEW038 SCT065 OVC230 M28/M33 A3019 RMK SC1SC2CS1 SLP347

CYYC;2008-12-14 10:00;CYYC 141000Z 34008KT 6SM IC FEW020 FEW040 SCT140 OVC230 M28/M33 A3020 RMK SC1SC2AC2CS2 SLP350

CYYC;2008-12-14 11:00;CYYC 141100Z 33006KT 15SM FEW013 BKN053 BKN130 OVC230 M29/M33 A3020 RMK SF1SC5AC1CS1 SLP352

CYYC;2008-12-14 12:00;CYYC 141200Z 31006KT 15SM SCT082 BKN100 OVC200 M29/M34 A3021 RMK AC2AC3CS1 SLP359

CYYC;2008-12-14 13:00;CYYC 141300Z 30005KT 6SM IC SCT016 BKN033 BKN210 M29/M34 A3021 RMK SC2SC2CI1 SLP359

CYYC;2008-12-14 14:00;CYYC 141400Z 31004KT 12SM FEW018 BKN060 BKN075 OVC210 M29/M34 A3022 RMK SC1SC5AC1CI1 PCPN VRY LGT SLP362

CYYC;2008-12-14 15:00;CYYC 141500Z 32007KT 12SM FEW110 M29/M34 A3022 RMK AC1 FROIN SLP364

CYYC;2008-12-14 16:00;CYYC 141600Z 34007KT 20SM FEW110 FEW260 M29/M34 A3022 RMK AC1CI1 FROIN SLP365

CYYC;2008-12-14 17:00;CYYC 141700Z 32007KT 25SM FEW230 M29/M34 A3025 RMK CI0 SLP372

CYYC;2008-12-14 18:00;CYYC 141800Z 33009KT 25SM FEW120 BKN230 M28/M34 A3025 RMK AC0CI0 SLP376

CYYC;2008-12-14 19:00;CYYC 141900Z 33008KT 30SM SCT100 M28/M34 A3024 RMK AC0 SLP372

CYYC;2008-12-14 20:00;CYYC 142000Z 34008KT 30SM FEW110 FEW250 M27/M33 A3024 RMK AC1CI0 SLP372

CYYC;2008-12-14 21:00;CYYC 142100Z 32006KT 30SM FEW160 M26/M33 A3023 RMK AC1 SLP366

CYYC;2008-12-14 22:00;CYYC 142200Z 35005KT 30SM FEW160 M26/M33 A3023 RMK AC1 SLP366

CYYC;2008-12-14 23:00;CYYC 142300Z 34004KT 30SM FEW160 M27/M32 A3023 RMK AC1 SLP366

CYYC;2008-12-15 00:00;CYYC 150000Z 27003KT 15SM FEW160 M27/M32 A3024 RMK AC1 SLP372

CYYC;2008-12-15 01:00;CYYC 150100Z 00000KT 15SM SKC M28/M32 A3025 RMK SLP377

CYYC;2008-12-15 02:00;CYYC 150200Z 36002KT 15SM SKC M29/M31 A3026 RMK SLP379

CYYC;2008-12-15 03:00;CYYC 150300Z 33007KT 15SM FEW150 M29/M33 A3027 RMK AC1 SLP386

CYYC;2008-12-15 04:00;CYYC 150400Z 31002KT 15SM FEW150 SCT220 M29/M34 A3028 RMK AC1CI1 SLP390

CYYC;2008-12-15 05:00;CYYC 150500Z 29005KT 15SM FEW150 SCT220 M28/M32 A3030 RMK AC1CI1 SLP396

CYYC;2008-12-15 06:00;CYYC 150600Z 31009KT 15SM FEW150 SCT260 M27/M32 A3030 RMK AC1CI1 SLP395

CYYC;2008-12-15 07:00;CYYC 150700Z 31008KT 15SM FEW018 FEW260 M28/M32 A3030 RMK SC1CI1 SLP393

CYYC;2008-12-15 08:00;CYYC 150800Z 33005KT 15SM FEW018 FEW260 M27/M32 A3028 RMK SC1CI1 SLP389

CYYC;2008-12-15 09:00;CYYC 150900Z 32005KT 15SM FEW018 M28/M33 A3029 RMK SC1 SLP389

CYYC;2008-12-15 10:00;CYYC 151000Z 31004KT 15SM SKC M27/M33 A3030 RMK SLP392

CYYC;2008-12-15 11:00;CYYC 151100Z 30008KT 15SM FEW180 FEW260 M27/M33 A3030 RMK AC1CI1 SLP392

CYYC;2008-12-15 12:00;CYYC 151200Z CCA 29007KT 15SM FEW057 M27/M33 A3030 RMK SC1 SNOW COVER LOOSE PACK SLP392

CYYC;2008-12-15 13:00;CYYC 151300Z 22004KT 15SM SKC M29/M33 A3029 RMK SLP389

CYYC;2008-12-15 14:00;CYYC 151400Z 27002KT 15SM SKC M30/M34 A3029 RMK SLP389

CYYC;2008-12-15 15:00;CYYC 151500Z 20004KT 12SM FEW120 FEW210 M30/M34 A3029 RMK AC1CI1 BOTH CLDS TR SLP397

CYYC;2008-12-15 16:00;CYYC 151600Z 21004KT 30SM SKC M29/M33 A3029 RMK SLP395

CYYC;2008-12-15 17:00;CYYC 151700Z 22006KT 30SM FEW240 M28/M32 A3028 RMK CI1 CI TR SLP394

CYYC;2008-12-15 18:00;CYYC 151800Z 22008KT 40SM SKC M26/M31 A3027 RMK SLP380

CYYC;2008-12-15 19:00;CYYC 151900Z 22008KT 40SM SKC M24/M31 A3024 RMK SLP370

CYYC;2008-12-15 19:06;CYYC 151906Z 22008KT 40SM SKC M25/

CYYC;2008-12-15 20:00;CYYC 152000Z 22007KT 40SM SKC M23/M30 A3020 RMK SLP358

CYYC;2008-12-15 21:00;CYYC 152100Z 23009KT 40SM SKC M23/M29 A3015 RMK SLP334

CYYC;2008-12-15 22:00;CYYC 152200Z 22008KT 40SM FEW240 M22/M29 A3011 RMK CI1 CI TR SLP322

CYYC;2008-12-15 23:00;CYYC 152300Z 23008KT 40SM FEW220 M23/M29 A3008 RMK CI1 CI TR SLP313

CYYC;2008-12-16 00:00;CYYC 160000Z 21005KT 40SM FEW240 M23/M29 A3006 RMK CI1 CI TR SLP301

CYYC;2008-12-16 01:00;CYYC 160100Z 21006KT 15SM FEW240 M24/M29 A3003 RMK CI1 CI TR SLP293

CYYC;2008-12-16 02:00;CYYC 160200Z 20005KT 15SM SCT130 SCT220 M24/M29 A3001 RMK AC3CI1 SLP285

CYYC;2008-12-16 03:00;CYYC 160300Z 20004KT 15SM BKN150 OVC220 M24/M29 A2997 RMK AC6CI1 SLP274

CYYC;2008-12-16 04:00;CYYC 160400Z 20005KT 15SM OVC140 M20/M26 A2993 RMK AC8 SLP262

CYYC;2008-12-16 05:00;CYYC 160500Z 24006KT 15SM OVC120 M18/M25 A2989 RMK AC8 SLP250

CYYC;2008-12-16 06:00;CYYC 160600Z 23003KT 15SM FEW030 BKN060 OVC120 M16/M25 A2985 RMK SC2SC3AC2 SLP217

CYYC;2008-12-16 07:00;CYYC 160700Z 19003KT 15SM BKN045 OVC060 M16/M23 A2982 RMK SC4SC3 SLP206

CYYC;2008-12-16 08:00;CYYC 160800Z 25009KT 15SM BKN040 OVC060 M14/M22 A2978 RMK SC4SC3 SLP194

CYYC;2008-12-16 08:12;CYYC 160812Z 24006KT 15SM -SN BKN020 OVC040 M14/ RMK SC4SC3

CYYC;2008-12-16 09:00;CYYC 160900Z CCA 23007KT 5SM -SN OVC015 M14/M20 A2976 RMK SC8 SLP176

CYYC;2008-12-16 09:14;CYYC 160914Z 22007KT 1 1/2SM -SN OVC010 M14/ RMK SC8

CYYC;2008-12-16 10:00;CYYC 161000Z 22004KT 1 1/2SM -SN OVC011 M13/M16 A2975 RMK SC8 SLP171

CYYC;2008-12-16 11:00;CYYC 161100Z 27008KT 1 1/2SM -SN BKN012 OVC023 M11/M12 A2974 RMK SC7SC1 SLP169

CYYC;2008-12-16 12:00;CYYC 161200Z 32010KT 1 1/2SM -SN BKN015 OVC040 M09/M10 A2973 RMK SC6SC2 SNOW COVER/MUCH LOOSE SLP157

CYYC;2008-12-16 12:28;CYYC 161228Z 34017KT 1/2SM SN OVC005 M08/ RMK SC8

CYYC;2008-12-16 13:00;CYYC 161300Z 34013G21KT 1 1/2SM -SN BKN030 OVC050 M08/M09 A2975 RMK SN2SC3SC2 SLP162

CYYC;2008-12-16 13:16;CYYC 161316Z 35014KT 3SM -SN BKN030 OVC050 M08/ RMK SC6SC2

CYYC;2008-12-16 14:00;CYYC 161400Z 35013G19KT 3SM -SN FEW015 BKN040 OVC080 M09/M12 A2977 RMK ST1SC6AC0 SLP168

CYYC;2008-12-16 15:00;CYYC 161500Z 34010G15KT 8SM -SN FEW012 FEW040 SCT062 BKN080 M11/M13 A2977 RMK SC1SC1SC1AC0 SLP175

CYYC;2008-12-16 16:00;CYYC 161600Z 35007KT 20SM -SN FEW010 FEW030 SCT040 OVC220 M12/M13 A2977 RMK SC1SC1SC1CI0 PCPN VRY LGT/FROIN SLP175

CYYC;2008-12-16 16:29;CYYC 161629Z 35005KT 15SM -SN SCT012 BKN030 OVC170 M12/ RMK SC4SC2AC0 VIS SW-W 21/2

CYYC;2008-12-16 16:33;CYYC 161633Z 35005KT 2 1/2SM -SN BKN012 BKN030 OVC170 M12/ RMK SC5SC1AC1 VIS N-E 10

CYYC;2008-12-16 16:42;CYYC 161642Z 36003KT 1 1/4SM -SN OVC009 M11/ RMK SN2SC6 FROIN

CYYC;2008-12-16 16:48;CYYC 161648Z CCC 36003KT 5/8SM -SN OVC007 M12/ RMK SN4SC4 RVR RWY34 6000FT

CYYC;2008-12-16 17:00;CYYC 161700Z 36002KT 3/4SM -SN OVC007 M12/M13 A2977 RMK SN3SC5 FROIN/S01/RVR RWY28 6000FT SLP175

CYYC;2008-12-16 17:06;CYYC 161706Z 00000KT 1 1/4SM -SN BKN007 OVC015 M11/ RMK SN2SC5SC1

CYYC;2008-12-16 17:10;CYYC 161710Z 00000KT 1 1/2SM -SN SCT007 BKN015 BKN020 M11/ RMK SC4SC2SC1

CYYC;2008-12-16 17:16;CYYC 161716Z CCA 00000KT 3SM -SN SCT007 BKN015 BKN020 M12/ RMK SC3SC2SC1

CYYC;2008-12-16 18:00;CYYC 161800Z 20003KT 20SM FEW010 SCT016 OVC020 M12/M13 A2976 RMK SC1SC3SC1 FROIN SLP163

CYYC;2008-12-16 19:00;CYYC 161900Z 16008KT 20SM -SN FEW012 BKN020 M12/M13 A2975 RMK SC1SC1 PCPN VRY LGT SLP159

CYYC;2008-12-16 20:00;CYYC 162000Z 18007KT 15SM -SN FEW008 FEW025 BKN038 M12/M13 A2972 RMK SC1SC1SC1 SLP150

CYYC;2008-12-16 21:00;CYYC 162100Z 18009KT 5SM -SN FEW010 FEW021 BKN030 M11/M13 A2969 RMK SC2SC1SC0 SLP133

CYYC;2008-12-16 22:00;CYYC 162200Z 18008KT 40SM FEW040 SCT070 M12/M13 A2965 RMK SC1AC0 SLP122

CYYC;2008-12-16 23:00;CYYC 162300Z 18006KT 40SM FEW060 FEW240 M12/M13 A2963 RMK SC1CI1 SLP115

CYYC;2008-12-17 00:00;CYYC 170000Z 17006KT 15SM FEW060 FEW240 M16/M16 A2960 RMK SC1CI1 FROIN SLP100

CYYC;2008-12-17 01:00;CYYC 170100Z 19004KT 15SM FEW170 M13/M13 A2957 RMK AC1 SLP091

CYYC;2008-12-17 02:00;CYYC 170200Z 20003KT 15SM BKN110 M14/M15 A2954 RMK AC7 SLP083

CYYC;2008-12-17 03:00;CYYC 170300Z 18002KT 15SM BKN160 OVC240 M13/M14 A2953 RMK AC6CI2 SLP076

CYYC;2008-12-17 04:00;CYYC 170400Z 16003KT 15SM BKN140 OVC220 M13/M14 A2950 RMK AC6CI2 SLP067

CYYC;2008-12-17 05:00;CYYC 170500Z 22005KT 15SM BKN110 OVC210 M12/M13 A2949 RMK AC6CI2 SLP063

CYYC;2008-12-17 06:00;CYYC 170600Z 03002KT 15SM BKN060 BKN075 OVC140 M12/M13 A2950 RMK SC5AC2AC1 SLP064

CYYC;2008-12-17 07:00;CYYC 170700Z 32004KT 15SM BKN062 OVC085 M09/M12 A2951 RMK SC5AC3 SLP069

CYYC;2008-12-17 08:00;CYYC 170800Z 35011KT 15SM BKN045 OVC078 M08/M09 A2953 RMK SC5AC3 SLP075

CYYC;2008-12-17 09:00;CYYC 170900Z 34010KT 3SM -SN BKN015 OVC028 M09/M10 A2953 RMK SC6SC2 SLP071

CYYC;2008-12-17 09:06;CYYC 170906Z 35010KT 2SM -SN BKN011 OVC024 M09/ RMK SC6SC2

CYYC;2008-12-17 10:00;CYYC 171000Z 33012KT 1 3/4SM -SN BKN010 OVC021 M09/M10 A2955 RMK SN5SC2SC1 VIS E 5/8 SLP077

CYYC;2008-12-17 10:45;CYYC 171045Z CCA 35016KT 3/4SM -SN DRSN BKN011 OVC025 M09/ RMK SN5SC2SC1 RVR RWY16 6000 FT

CYYC;2008-12-17 11:00;CYYC 171100Z 35021KT 3/4SM -SN DRSN BKN012 OVC025 M09/M10 A2956 RMK SN5SC2SC1 RVR RWY34 6000 FT /S01/ SLP080

CYYC;2008-12-17 12:00;CYYC 171200Z CCA 36020G25KT 3/4SM -SN DRSN BKN011 OVC027 M10/M11 A2958 RMK SN6SC2SC1 RVR RWY34 6000 FT /S02/ SNOW COVER/MUCH LOOSE SLP096

CYYC;2008-12-17 13:00;CYYC 171300Z 35019G25KT 3/4SM -SN DRSN BKN012 OVC032 M10/M12 A2960 RMK SN6SC1SC1 RVR RWY16 6000 FT SLP102

CYYC;2008-12-17 13:05;CYYC 171305Z 35019KT 5/8SM -SN DRSN BKN008 OVC021 M10/ RMK SN6SC1SC1 RVR RWY34 6000 FT

CYYC;2008-12-17 14:00;CYYC 171400Z 36024G30KT 1/2SM SN DRSN VV006 M11/M12 A2962 RMK SN8 RVR RWY16 6000 FT SLP109

CYYC;2008-12-17 14:09;CYYC 171409Z 35024G30KT 3/8SM SN BLSN VV008 M11/ RMK SN8 RVR RWY34 6000 FT

CYYC;2008-12-17 14:41;CYYC 171441Z CCA 35023G29KT 1 1/2SM -SN BLSN OVC007 M12/ RESN RMK SN4SC4

CYYC;2008-12-17 15:00;CYYC 171500Z 35021G28KT 1 1/2SM -SN BLSN BKN007 BKN010 OVC024 M12/M13 A2964 RESN RMK SN4SC1SC2SC1 SLP118

CYYC;2008-12-17 15:18;CYYC 171518Z 35022KT 1 1/2SM -SN BLSN BKN010 OVC020 M12/ RMK SN4SC2SC2

CYYC;2008-12-17 15:44;CYYC 171544Z 34021G30KT 3SM -SN BLSN SCT010 BKN025 OVC050 M12/ RMK SC3SC4SC1 VIS LWR E

CYYC;2008-12-17 16:00;CYYC 171600Z 34021KT 1 1/2SM -SN BLSN BKN006 OVC020 M12/M14 A2969 RMK SN4SC2SC2 SLP132

CYYC;2008-12-17 16:46;CYYC 171646Z 34022G28KT 2 1/2SM -SN BLSN FEW006 BKN020 OVC040 M13/ RMK SC2SC5SC2 FROIN

CYYC;2008-12-17 17:00;CYYC 171700Z 34017G25KT 3SM -SN BLSN FEW015 OVC020 M13/M15 A2974 RMK SC2SC6 FROIN/S01/ SLP146

CYYC;2008-12-17 18:00;CYYC 171800Z 34019G25KT 5SM -SN BLSN SCT015 OVC025 M13/M15 A2977 RMK SC3SC5 SLP161

CYYC;2008-12-17 19:00;CYYC 171900Z 34019KT 12SM -SN BKN015 OVC030 M13/M15 A2978 RMK SC5SC0 BLSN SLP164

CYYC;2008-12-17 20:00;CYYC 172000Z 36020G25KT 5SM -SN BLSN FEW008 SCT020 OVC050 M13/M15 A2981 RMK SC1SC3SC3 SLP173

CYYC;2008-12-17 20:49;CYYC 172049Z 35015KT 20SM FEW025 OVC042 M14/ RMK SC2SC2

CYYC;2008-12-17 21:00;CYYC 172100Z 35014KT 20SM FEW025 OVC042 M14/M16 A2983 RMK SC2SC2 CF ASOCTD SLP178

CYYC;2008-12-17 21:23;CYYC 172123Z 35012KT 15SM -SN SCT015 OVC043 M14/ RMK SC4SC3

CYYC;2008-12-17 22:00;CYYC 172200Z 36013KT 25SM -SN FEW010 SCT018 OVC058 M15/M17 A2985 RMK SC1SC3SC0 PCPN VRY LGT SLP184

CYYC;2008-12-17 22:28;CYYC 172228Z 36012KT 30SM FEW020 OVC045 M15/ RMK SC1SC0

CYYC;2008-12-17 23:00;CYYC 172300Z 36012KT 30SM FEW042 BKN062 M16/M18 A2987 RMK SC1SC0 SLP193

CYYC;2008-12-18 00:00;CYYC 180000Z 01009KT 20SM FEW042 BKN070 M18/M19 A2990 RMK SC1AC0 SLP211

CYYC;2008-12-18 01:00;CYYC 180100Z 36009KT 15SM FEW042 SCT070 M19/M20 A2991 RMK SC1AC0 SLP216

CYYC;2008-12-18 02:00;CYYC 180200Z 30003KT 15SM FEW080 FEW260 M19/M20 A2994 RMK AC1CI0 SLP223

CYYC;2008-12-18 03:00;CYYC 180300Z 34005KT 15SM BKN016 BKN060 OVC100 M21/M22 A2994 RMK SC5SC2AC1 SLP232

CYYC;2008-12-18 03:34;CYYC 180334Z 35005KT 15SM BKN013 OVC040 M20/ RMK SC6SC2

CYYC;2008-12-18 03:53;CYYC 180353Z 36004KT 5SM -SN OVC014 M19/ RMK SC8

CYYC;2008-12-18 04:00;CYYC 180400Z 33005KT 4SM -SN BKN014 OVC030 M19/M20 A2996 RMK SC6SC1 SLP237

CYYC;2008-12-18 05:00;CYYC 180500Z 33005KT 10SM -SN SCT014 OVC038 M20/M21 A2996 RMK SC4SC3 SLP237

CYYC;2008-12-18 05:30;CYYC 180530Z 34005KT 12SM FEW009 BKN038 OVC170 M21/ RMK SC2SC3AC2

CYYC;2008-12-18 06:00;CYYC 180600Z 32006KT 10SM SCT008 BKN027 OVC110 M21/M22 A2996 RMK SC4SC2AC2 SLP241

CYYC;2008-12-18 07:00;CYYC 180700Z 33004KT 10SM SCT030 BKN060 OVC081 M20/M21 A2995 RMK SC3SC3AC2 SLP239

CYYC;2008-12-18 08:00;CYYC 180800Z 32005KT 3SM -SN BKN010 OVC024 M20/M21 A2995 RMK SC6SC2 SLP237

CYYC;2008-12-18 08:07;CYYC 180807Z 33005KT 2SM -SN BKN009 OVC024 M20/ RMK SC6SC2

CYYC;2008-12-18 09:00;CYYC 180900Z 32004KT 1 3/4SM -SN BKN009 OVC026 M19/M21 A2993 RMK SC6SC2 SLP231

CYYC;2008-12-18 10:00;CYYC 181000Z 35003KT 2 1/4SM -SN BKN009 OVC027 M19/M20 A2993 RMK SC6SC2 SLP230

CYYC;2008-12-18 10:15;CYYC 181015Z 34003KT 2 1/4SM -SN BKN012 OVC025 M19/ RMK SC6SC2

CYYC;2008-12-18 11:00;CYYC 181100Z 34005KT 2 1/4SM -SN BKN010 OVC026 M19/M21 A2993 RMK SC6SC2 SLP231

CYYC;2008-12-18 12:00;CYYC 181200Z 35006KT 2 1/4SM -SN BKN012 OVC025 M20/M21 A2993 RMK SC6SC2 /S01/ SNOW COVER/MUCH LOOSE SLP235

CYYC;2008-12-18 13:00;CYYC 181300Z 01004KT 2 1/4SM -SN BKN014 OVC030 M20/M21 A2991 RMK SC6SC2 SLP230

CYYC;2008-12-18 14:00;CYYC 181400Z 35005KT 5SM -SN BKN045 OVC060 M21/M22 A2990 RMK SC6SC2 SLP228

CYYC;2008-12-18 15:00;CYYC 181500Z 04005KT 5SM -SN BKN030 BKN130 OVC220 M21/M22 A2991 RMK SC5AC2CI1 SLP235

CYYC;2008-12-18 15:39;CYYC 181539Z 03004KT 7SM FEW030 SCT060 OVC120 M22/ RMK SC2SC2AC4

CYYC;2008-12-18 16:00;CYYC 181600Z 02004KT 4SM -SN FEW030 BKN050 OVC100 M22/M23 A2991 RMK SC2SC4AC2 SLP236

CYYC;2008-12-18 16:23;CYYC 181623Z 36004KT 2 1/2SM -SN OVC034 M22/ RMK SC8

CYYC;2008-12-18 16:42;CYYC 181642Z 36004KT 1 1/2SM -SN OVC025 M21/ RMK SC8

CYYC;2008-12-18 16:55;CYYC 181655Z 35005KT 1SM -SN OVC025 M22/ RMK SC8

CYYC;2008-12-18 17:00;CYYC 181700Z 35006KT 3/4SM -SN OVC020 M21/M23 A2991 RMK SC8 SLP235

CYYC;2008-12-18 17:41;CYYC 181741Z 34005KT 3/4SM -SN VV014 M21/ RMK SN8

CYYC;2008-12-18 18:00;CYYC 181800Z 34004KT 3/4SM -SN VV010 M21/M22 A2992 RMK SN8 SLP239

CYYC;2008-12-18 18:18;CYYC 181818Z 34005KT 1 1/2SM -SN OVC020 M22/ RMK SC6

CYYC;2008-12-18 18:30;CYYC 181830Z 35006KT 4SM -SN BKN020 M22/ RMK SC5

CYYC;2008-12-18 19:00;CYYC 181900Z 33005KT 10SM FEW020 BKN100 M21/M23 A2990 RMK SC2AC2 SLP235

CYYC;2008-12-18 20:00;CYYC 182000Z 35007KT 15SM FEW020 FEW060 BKN100 M21/M25 A2989 RMK CU1SC2AC2 SLP230

CYYC;2008-12-18 20:55;CYYC 182055Z 35006KT 10SM -SN FEW020 SCT060 BKN100 M22/ RMK CU1SC2AC2

CYYC;2008-12-18 21:00;CYYC 182100Z 35006KT 10SM -SN FEW020 FEW060 BKN110 M22/M26 A2987 RMK CU1SC2AC3 CU TR SLP222

CYYC;2008-12-18 21:50;CYYC 182150Z 06006KT 8SM FEW016 SCT060 OVC100 M22/ RMK CU1SC4AC4

CYYC;2008-12-18 22:00;CYYC 182200Z 03007KT 4SM -SN FEW016 BKN060 OVC100 M22/M26 A2987 RMK CU1SC5AC3 SLP222

CYYC;2008-12-18 22:16;CYYC 182216Z 02008KT 2 1/2SM -SN SCT020 BKN040 OVC060 M22/ RMK SC3SC2SC2

CYYC;2008-12-18 23:00;CYYC 182300Z 03007KT 3SM -SN BKN020 BKN040 OVC060 M22/M26 A2987 RMK SC5SC2SC1 SLP221

CYYC;2008-12-19 00:00;CYYC 190000Z 33015KT 5SM -SN DRSN FEW016 SCT030 OVC050 M24/M29 A3010 RMK CU1SC3SC3 SLP307

CYYC;2008-12-19 01:00;CYYC 190100Z CCA 03007KT 3SM -SN SCT011 OVC025 M22/M26 A2990 RMK SC2SC6 SLP231

CYYC;2008-12-19 01:38;CYYC 190138Z 35007KT 2SM -SN SCT009 OVC025 M22/ RMK SC3SC5

CYYC;2008-12-19 02:00;CYYC 190200Z 35009KT 2SM -SN SCT009 OVC025 M22/M26 A2990 RMK SC3SC5 SLP231

CYYC;2008-12-19 02:56;CYYC 190256Z 35009KT 3SM -SN BKN011 BKN048 OVC064 M23/ RMK SC5SC2SC1

CYYC;2008-12-19 03:00;CYYC 190300Z 35009KT 3SM -SN BKN011 BKN047 OVC062 M23/M26 A2990 RMK SC5SC2SC1 SLP237

CYYC;2008-12-19 03:52;CYYC 190352Z 33008KT 5SM -SN BKN026 OVC056 M24/ RMK SC6SC2

CYYC;2008-12-19 04:00;CYYC 190400Z 33007KT 5SM -SN BKN028 OVC053 M24/M27 A2991 RMK SC6SC2 SLP240

CYYC;2008-12-19 05:00;CYYC 190500Z 32007KT 5SM -SN BKN015 OVC045 M25/M28 A2992 RMK SC6SC2 SLP242

CYYC;2008-12-19 06:00;CYYC 190600Z 32005KT 7SM -SN FEW015 BKN079 OVC090 M25/M29 A2993 RMK SC2AC4AC2 /S01/ SLP249

CYYC;2008-12-19 07:00;CYYC 190700Z 32010KT 8SM -SN BKN042 OVC094 M25/M29 A2992 RMK SC5AC3 SLP247

CYYC;2008-12-19 08:00;CYYC 190800Z 32008KT 8SM -SN BKN033 OVC048 M25/M29 A2994 RMK SC6SC2 SLP253

CYYC;2008-12-19 09:00;CYYC 190900Z 34011KT 8SM -SN BKN025 OVC037 M25/M29 A2995 RMK SC6SC2 SLP256

CYYC;2008-12-19 10:00;CYYC 191000Z 34009KT 12SM -SN FEW038 BKN072 OVC140 M25/M29 A2997 RMK SC2AC6AC1 SLP263

CYYC;2008-12-19 11:00;CYYC 191100Z 32008KT 12SM -SN FEW045 OVC073 M25/M29 A2999 RMK SC2AC6 SLP267

CYYC;2008-12-19 12:00;CYYC 191200Z 34012KT 5SM -SN FEW045 OVC075 M24/M29 A2999 RMK SC2AC6 SNOW COVER/MUCH LOOSE SLP271

CYYC;2008-12-19 13:00;CYYC 191300Z 34012KT 5SM -SN BKN057 OVC082 M24/M29 A3000 RMK SC5AC2 SLP273

CYYC;2008-12-19 14:00;CYYC 191400Z 33013KT 8SM -SN DRSN FEW057 BKN078 OVC100 M25/M30 A3002 RMK SC2AC4AC1 SLP279

CYYC;2008-12-19 15:00;CYYC 191500Z 33012KT 4SM -SN DRSN FEW067 BKN078 OVC100 M25/M29 A3004 RMK AC2AC3AC2 SLP290

CYYC;2008-12-19 16:00;CYYC 191600Z 32011KT 5SM -SN DRSN FEW020 FEW040 OVC080 M25/M30 A3006 RMK CU1SC1AC2 SLP297

CYYC;2008-12-19 17:00;CYYC 191700Z 33012KT 5SM -SN DRSN FEW030 FEW050 SCT080 OVC160 M25/M30 A3009 RMK SC1SC1AC2AC2 SLP305

CYYC;2008-12-19 18:00;CYYC 191800Z CCA 33015KT 5SM -SN DRSN FEW016 SCT030 OVC050 M24/M29 A3010 RMK CU1SC3SC3 SLP315

CYYC;2008-12-19 19:00;CYYC 191900Z 33012KT 5SM -SN DRSN FEW018 SCT030 BKN050 OVC180 M24/M30 A3011 RMK CU1SC2SC2AC0 SLP316

CYYC;2008-12-19 20:00;CYYC 192000Z 34012KT 5SM -SN DRSN FEW030 SCT050 OVC120 M24/M30 A3010 RMK SC1SC2AC1 SLP315

CYYC;2008-12-19 20:25;CYYC 192025Z 34011KT 5SM IC DRSN SCT050 OVC120 M24/ RMK SC2AC2

CYYC;2008-12-19 21:00;CYYC 192100Z 34010KT 6SM IC DRSN FEW030 OVC120 M24/M30 A3011 RMK SC2AC2 SLP315

CYYC;2008-12-19 22:00;CYYC 192200Z 34007KT 6SM IC DRSN SCT050 BKN120 M24/M30 A3012 RMK SC1AC2 SLP319

CYYC;2008-12-19 23:00;CYYC 192300Z 34005KT 6SM IC FEW040 SCT090 OVC150 M24/M29 A3014 RMK SC1AC2AC2 SLP325

CYYC;2008-12-20 00:00;CYYC 200000Z 34004KT 5SM IC FEW040 SCT080 OVC160 M24/M29 A3016 RMK SC2AC2AC2 SLP332

CYYC;2008-12-20 01:00;CYYC 200100Z 32006KT 5SM IC BKN060 BKN080 OVC140 M24/M29 A3017 RMK SC5AC2AC1 SLP336

CYYC;2008-12-20 02:00;CYYC 200200Z 32005KT 5SM IC FEW030 BKN060 OVC140 M25/M29 A3017 RMK SC1SC5AC2 SLP335

CYYC;2008-12-20 03:00;CYYC 200300Z 33006KT 12SM SCT093 BKN110 OVC230 M25/M30 A3017 RMK AC3AC1CI1 SLP340

CYYC;2008-12-20 04:00;CYYC 200400Z 34006KT 6SM IC BKN049 OVC093 M26/M30 A3018 RMK SC6AC2 SLP341

CYYC;2008-12-20 05:00;CYYC 200500Z 31007KT 8SM SCT026 OVC057 M26/M31 A3018 RMK SC3SC5 SLP343

CYYC;2008-12-20 06:00;CYYC 200600Z 31007KT 12SM FEW055 FEW090 BKN240 M27/M31 A3019 RMK SC2AC1CI2 SLP346

CYYC;2008-12-20 07:00;CYYC 200700Z 32006KT 15SM FEW043 FEW090 BKN240 M27/M32 A3019 RMK SC2AC1CI2 SLP347

CYYC;2008-12-20 07:44;CYYC 200744Z 31007KT 15SM FEW037 FEW090 BKN240 M26/ RMK SC2AC1CI2

CYYC;2008-12-20 08:00;CYYC 200800Z 31010KT 12SM SCT042 BKN230 M27/M31 A3019 RMK SC3CI2 SLP346

CYYC;2008-12-20 09:00;CYYC 200900Z 32007KT 10SM SCT024 SCT040 BKN230 M27/M31 A3020 RMK SC3SC1CI1 SLP349

CYYC;2008-12-20 10:00;CYYC 201000Z 30005KT 12SM FEW024 BKN230 M27/M32 A3020 RMK SC2CI2 SLP349

CYYC;2008-12-20 11:00;CYYC 201100Z 27004KT 12SM FEW035 BKN230 M29/M33 A3020 RMK SC2CI2 SLP350

CYYC;2008-12-20 12:00;CYYC 201200Z 33003KT 15SM BKN094 BKN220 M29/M32 A3019 RMK AC5CI2 SNOW COVER/MUCH LOOSE SLP352

CYYC;2008-12-20 13:00;CYYC 201300Z 20003KT 15SM FEW055 BKN140 OVC220 M29/M32 A3019 RMK SC2AS3CI2 SLP352

CYYC;2008-12-20 14:00;CYYC 201400Z 22004KT 15SM FEW160 SCT230 M28/M32 A3020 RMK AC2CI1 SLP353

CYYC;2008-12-20 15:00;CYYC 201500Z 00000KT 15SM FEW040 FEW130 FEW240 M30/M34 A3020 RMK SC1AC1CI2 SLP356

CYYC;2008-12-20 16:00;CYYC 201600Z 00000KT 40SM FEW220 M28/M33 A3020 RMK CI1 SLP358

CYYC;2008-12-20 17:00;CYYC 201700Z 00000KT 40SM FEW190 M28/M31 A3021 RMK AC1 SLP359

CYYC;2008-12-20 18:00;CYYC 201800Z 24002KT 40SM FEW190 M25/M30 A3021 RMK AC1 SLP357

CYYC;2008-12-20 19:00;CYYC 201900Z 00000KT 40SM SKC M26/M30 A3021 RMK SLP357

CYYC;2008-12-20 20:00;CYYC 202000Z 00000KT 40SM SKC M23/M29 A3021 RMK SLP356

CYYC;2008-12-20 21:00;CYYC 202100Z 00000KT 40SM SKC M22/M28 A3021 RMK SLP349

CYYC;2008-12-20 22:00;CYYC 202200Z 20002KT 40SM SKC M20/M27 A3022 RMK SLP353

CYYC;2008-12-20 23:00;CYYC 202300Z 23005KT 40SM SKC M20/M26 A3023 RMK SLP357

CYYC;2008-12-21 00:00;CYYC 210000Z 21002KT 40SM SKC M23/M28 A3025 RMK SLP369

CYYC;2008-12-21 01:00;CYYC 210100Z CCA 21003KT 15SM SKC M23/M27 A3025 RMK FROIN SLP370

CYYC;2008-12-21 02:00;CYYC 210200Z CCA 00000KT 15SM SKC M25/M30 A3025 RMK FROIN SLP371

CYYC;2008-12-21 03:00;CYYC 210300Z CCA 32003KT 15SM SKC M27/M30 A3026 RMK SLP380

CYYC;2008-12-21 04:00;CYYC 210400Z 20003KT 15SM SKC M27/M31 A3026 RMK FROIN SLP381

CYYC;2008-12-21 05:00;CYYC 210500Z 00000KT 15SM SKC M28/M32 A3026 RMK FROIN SLP380

CYYC;2008-12-21 06:00;CYYC 210600Z 18003KT 15SM SKC M27/M30 A3026 RMK FROIN SLP377

CYYC;2008-12-21 07:00;CYYC 210700Z 21002KT 15SM SKC M28/M31 A3026 RMK FROIN SLP374

CYYC;2008-12-21 08:00;CYYC 210800Z 00000KT 15SM SKC M28/M32 A3024 RMK FROIN SLP370

CYYC;2008-12-21 09:00;CYYC 210900Z 18002KT 15SM SKC M29/M34 A3023 RMK FROIN SLP363

CYYC;2008-12-21 10:00;CYYC 211000Z 16002KT 15SM SKC M30/M34 A3022 RMK FROIN SLP360

CYYC;2008-12-21 11:00;CYYC 211100Z 20006KT 15SM FEW240 M27/M31 A3020 RMK CI0 FROIN SLP353

CYYC;2008-12-21 12:00;CYYC 211200Z 18004KT 15SM BKN240 M29/M33 A3018 RMK CI2 FROIN SLP346

CYYC;2008-12-21 13:00;CYYC 211300Z 18004KT 15SM BKN240 M30/M34 A3017 RMK CC2 FROIN SLP341

CYYC;2008-12-21 14:00;CYYC 211400Z 20004KT 15SM FEW190 BKN220 M27/M31 A3013 RMK AC2CI2 FROIN SLP331

CYYC;2008-12-21 15:00;CYYC 211500Z 19007KT 15SM SCT170 BKN190 M26/M29 A3012 RMK AC2AC1 FROIN SLP324

CYYC;2008-12-21 16:00;CYYC 211600Z 19005KT 30SM BKN160 M26/M30 A3010 RMK AC3 FROIN SLP319

CYYC;2008-12-21 17:00;CYYC 211700Z 20006KT 30SM FEW110 BKN160 M25/M29 A3009 RMK AC2AC1 FROIN SLP315

CYYC;2008-12-21 18:00;CYYC 211800Z 17011KT 30SM FEW095 FEW110 SCT160 M23/M26 A3006 RMK AC1AC1AC0 SLP302

CYYC;2008-12-21 19:00;CYYC 211900Z 17011KT 40SM FEW095 BKN100 BKN160 M22/M27 A3004 RMK AC1AC5AC2 SLP293

CYYC;2008-12-21 20:00;CYYC 212000Z 17010G15KT 40SM SCT084 BKN100 M21/M27 A2998 RMK AC4AC3 SLP277

CYYC;2008-12-21 21:00;CYYC 212100Z 17011KT 40SM FEW084 BKN120 M21/M27 A2994 RMK AC2AC2 SLP260

CYYC;2008-12-21 22:00;CYYC 212200Z 18013KT 40SM FEW080 BKN100 OVC120 M19/M25 A2992 RMK AC2AC2AC2 SLP252

CYYC;2008-12-21 23:00;CYYC 212300Z 14010KT 40SM FEW062 BKN080 M20/M24 A2990 RMK SC1AC7 SLP246

CYYC;2008-12-22 00:00;CYYC 220000Z 14007KT 15SM SCT060 OVC080 M20/M24 A2988 RMK SC4AC4 SLP234

CYYC;2008-12-22 01:00;CYYC 220100Z 17010KT 15SM SCT042 OVC060 M19/M23 A2985 RMK SC3SC5 SLP227

CYYC;2008-12-22 01:06;CYYC 220106Z 16012KT 2 1/2SM -SN FEW010 SCT020 OVC040 M19/ RMK SC1SC2SC5

CYYC;2008-12-22 01:18;CYYC 220118Z 16012KT 2 1/2SM -SN BKN010 OVC040 M19/ RMK SC5SC3

CYYC;2008-12-22 01:43;CYYC 220143Z 14007KT 2 1/2SM -SN FEW010 BKN020 OVC050 M19/ RMK SC2SC2SC3

CYYC;2008-12-22 02:00;CYYC 220200Z 12008KT 2 1/2SM -SN FEW010 BKN020 OVC050 M19/M23 A2983 RMK SC2SC5SC1 SLP219

CYYC;2008-12-22 02:20;CYYC 220220Z 14008KT 2 1/2SM -SN BKN012 OVC020 M20/ RMK SC5SC3

CYYC;2008-12-22 03:00;CYYC 220300Z 13007KT 1SM -SN BKN010 OVC025 M20/M24 A2982 RMK SC6SC2 SLP209

CYYC;2008-12-22 04:00;CYYC 220400Z 13006KT 1 1/2SM -SN BKN015 OVC040 M21/M24 A2980 RMK SC6SC2 SLP204

CYYC;2008-12-22 05:00;CYYC 220500Z 11007KT 1SM -SN BKN010 OVC025 M21/M24 A2979 RMK SC6SC2 SLP202

CYYC;2008-12-22 05:49;CYYC 220549Z CCA 09004KT 1SM -SN BKN008 OVC020 M22/ RMK SC6SC2 RVR RWY 16 6000+ TF

CYYC;2008-12-22 06:00;CYYC 220600Z CCA 09005KT 1SM -SN BKN009 OVC018 M22/M25 A2978 RMK SC6SC2 RVR RWY 16 6000+ TF /SO1/ SLP194

CYYC;2008-12-22 06:24;CYYC 220624Z 09006KT 1 1/2SM -SN OVC015 M22/ RMK SC8

CYYC;2008-12-22 07:00;CYYC 220700Z 03004KT 1 1/2SM -SN OVC020 M22/M26 A2978 RMK SC8 SLP194

CYYC;2008-12-22 07:51;CYYC 220751Z 36006KT 5SM -SN BKN040 OVC080 M23/ RMK SC7AC1

CYYC;2008-12-22 08:00;CYYC 220800Z 34006KT 8SM -SN BKN035 OVC080 M23/M26 A2979 RMK SC7AC1 SLP196

CYYC;2008-12-22 08:36;CYYC 220836Z 36006KT 1 1/2SM -SN OVC030 M22/ RMK SC8

CYYC;2008-12-22 09:00;CYYC 220900Z 35007KT 1 1/2SM -SN OVC030 M22/M25 A2979 RMK SC8 SLP194

CYYC;2008-12-22 10:00;CYYC 221000Z 34015KT 1 1/2SM -SN OVC035 M22/M26 A2980 RMK SC8 SLP196

CYYC;2008-12-22 11:00;CYYC 221100Z 34014KT 3SM -SN OVC040 M22/M26 A2980 RMK SC8 SLP198

CYYC;2008-12-22 12:00;CYYC 221200Z CCA 35014KT 1 1/2SM -SN BKN015 OVC030 M21/M25 A2981 RMK SC5SC3 SNOW CVR/ MUCH LOOSE SLP198

CYYC;2008-12-22 13:00;CYYC 221300Z 34015KT 1 1/2SM -SN BKN020 OVC050 M21/M26 A2981 RMK SC4SC4 SLP198

CYYC;2008-12-22 13:38;CYYC 221338Z 34018KT 5SM -SN BKN015 OVC030 M22/ RMK SC4SC4

CYYC;2008-12-22 14:00;CYYC 221400Z 34016KT 3SM -SN BKN030 OVC090 M22/M26 A2981 RMK SC4AC4 SLP199

CYYC;2008-12-22 14:46;CYYC 221446Z 34018G24KT 2SM -SN DRSN BKN011 OVC023 M22/ RMK SC6SC2

CYYC;2008-12-22 15:00;CYYC 221500Z 34017KT 1 1/2SM -SN DRSN BKN010 OVC021 M22/M26 A2982 RMK SN6SC2SC1 SLP203

CYYC;2008-12-22 15:13;CYYC 221513Z 34015KT 1/2SM SN DRSN BKN007 OVC022 M22/ RMK SN6SC1SC1 RVR RWY16 6000 FT

CYYC;2008-12-22 16:00;CYYC 221600Z 34015KT 5/8SM -SN DRSN BKN009 BKN018 OVC036 M22/M26 A2982 RESN RMK SN6SC1SC1SC1 RVR RWY16 6000 FT /S01/ SLP203

CYYC;2008-12-22 16:11;CYYC 221611Z 34015KT 1 1/2SM -SN DRSN BKN015 BKN022 OVC032 M22/ RMK SN4SC2SC1SC1

CYYC;2008-12-22 16:24;CYYC 221624Z 33017KT 3SM -SN DRSN BKN017 OVC040 M21/ RMK SN4SC2SC2

CYYC;2008-12-22 17:00;CYYC 221700Z 33015KT 3SM -SN DRSN BKN023 OVC041 M21/M26 A2983 RMK SN4SC2SC2 SLP207

CYYC;2008-12-22 18:00;CYYC 221800Z 34014KT 8SM -SN DRSN BKN042 OVC051 M21/M26 A2984 RMK SC6SC2 /S02/ SLP210

CYYC;2008-12-22 19:00;CYYC 221900Z 34015KT 10SM -SN DRSN FEW042 BKN051 BKN210 M20/M25 A2982 RMK SC2SC3CI0 SLP205

CYYC;2008-12-22 19:29;CYYC 221929Z 35013KT 12SM DRSN FEW040 SCT060 BKN210 M20/ RMK SC2SC2CI1

CYYC;2008-12-22 20:00;CYYC 222000Z 35017KT 12SM DRSN SCT040 SCT088 BKN210 M20/M25 A2981 RMK SC3AC1CI1 SLP201

CYYC;2008-12-22 21:00;CYYC 222100Z 35016KT 12SM DRSN FEW040 BKN085 BKN210 M20/M24 A2980 RMK SC2AC3CI1 SLP197

CYYC;2008-12-22 22:00;CYYC 222200Z 35013KT 15SM DRSN FEW050 SCT068 BKN085 M20/M24 A2981 RMK SC2AC2AC3 SLP198

CYYC;2008-12-22 23:00;CYYC 222300Z 35016KT 15SM DRSN FEW060 OVC088 M19/M24 A2982 RMK SC2AC6 SLP202

CYYC;2008-12-23 00:00;CYYC 230000Z 36009KT 15SM FEW050 BKN091 OVC120 M20/M24 A2982 RMK SC2AC5AC2 SLP202

CYYC;2008-12-23 01:00;CYYC 230100Z 36010KT 15SM FEW050 BKN086 OVC110 M21/M25 A2982 RMK SC2AC4AC2 SLP201

CYYC;2008-12-23 02:00;CYYC 230200Z 36010KT 15SM SCT048 BKN090 OVC120 M22/M26 A2981 RMK SC4AC2AC2 SLP199

CYYC;2008-12-23 03:00;CYYC 230300Z 34008KT 15SM BKN050 OVC090 M21/M25 A2981 RMK SC6AC1 SLP200

CYYC;2008-12-23 04:00;CYYC 230400Z 33004KT 15SM OVC050 M20/M24 A2981 RMK SC7 SLP200

CYYC;2008-12-23 04:50;CYYC 230450Z 33003KT 15SM -SN BKN050 OVC090 M20/ RMK SC7AC1

CYYC;2008-12-23 05:00;CYYC 230500Z 34003KT 15SM -SN BKN050 OVC090 M20/M25 A2980 RMK SC7AC1 SLP199

CYYC;2008-12-23 06:00;CYYC 230600Z 07002KT 15SM -SN SCT050 OVC090 M20/M24 A2979 RMK SC2AC5 SLP193

CYYC;2008-12-23 07:00;CYYC 230700Z 00000KT 15SM -SN FEW050 OVC090 M20/M25 A2977 RMK SC2AC6 SLP186

CYYC;2008-12-23 07:20;CYYC 230720Z 00000KT 15SM BKN090 M20/ RMK AC6

CYYC;2008-12-23 08:00;CYYC 230800Z 19002KT 15SM BKN090 M20/M24 A2974 RMK AC6 SLP176

CYYC;2008-12-23 09:00;CYYC 230900Z 19005KT 15SM BKN090 M19/M22 A2971 RMK AC6 SLP162

CYYC;2008-12-23 10:00;CYYC 231000Z 17004KT 15SM OVC085 M19/M22 A2969 RMK AC7 SLP156

CYYC;2008-12-23 11:00;CYYC 231100Z 17006KT 15SM OVC080 M19/M22 A2967 RMK AC7 SLP150

CYYC;2008-12-23 12:00;CYYC 231200Z CCA 17006KT 15SM OVC080 M19/M23 A2964 RMK AC8 SNOW CVR/ MUCH LOOSE SLP137

CYYC;2008-12-23 13:00;CYYC 231300Z 13005KT 15SM BKN075 M19/M23 A2963 RMK AC7 SLP132

CYYC;2008-12-23 14:00;CYYC 231400Z 17005KT 15SM OVC075 M19/M23 A2962 RMK AC7 SLP128

CYYC;2008-12-23 15:00;CYYC 231500Z 17009KT 15SM BKN072 M19/M23 A2960 RMK AC7 SLP123

CYYC;2008-12-23 16:00;CYYC 231600Z 19008KT 30SM BKN073 M19/M23 A2959 RMK AC6 SLP120

CYYC;2008-12-23 17:00;CYYC 231700Z 20006KT 40SM FEW074 M19/M23 A2958 RMK AC1 SLP117

CYYC;2008-12-23 18:00;CYYC 231800Z 19006KT 40SM FEW030 FEW100 M18/M23 A2956 RMK SC1AC1 SLP108

CYYC;2008-12-23 19:00;CYYC 231900Z 19006KT 40SM FEW040 FEW230 M16/M22 A2953 RMK SC1CI1 SLP098

CYYC;2008-12-23 20:00;CYYC 232000Z 18006KT 40SM SKC M15/M21 A2949 RMK SLP087

CYYC;2008-12-23 21:00;CYYC 232100Z 19008KT 40SM SKC M14/M20 A2947 RMK SLP068

CYYC;2008-12-23 22:00;CYYC 232200Z 19009KT 40SM SKC M13/M19 A2945 RMK SLP064

CYYC;2008-12-23 23:00;CYYC 232300Z 19009KT 40SM FEW030 M13/M18 A2945 RMK SC1 SLP064

CYYC;2008-12-24 00:00;CYYC 240000Z 20008KT 15SM SKC M13/M18 A2945 RMK SLP061

CYYC;2008-12-24 01:00;CYYC 240100Z 20007KT 15SM SKC M13/M18 A2945 RMK SLP059

CYYC;2008-12-24 02:00;CYYC 240200Z 20006KT 15SM SKC M15/M19 A2944 RMK SLP058

CYYC;2008-12-24 03:00;CYYC 240300Z 19003KT 15SM SKC M14/M19 A2943 RMK SLP056

CYYC;2008-12-24 04:00;CYYC 240400Z 20007KT 15SM SKC M14/M18 A2943 RMK SLP055

CYYC;2008-12-24 05:00;CYYC 240500Z 18005KT 15SM SKC M17/M20 A2943 RMK SLP056

CYYC;2008-12-24 06:00;CYYC 240600Z 00000KT 15SM FEW240 M16/M20 A2944 RMK CI1 SLP058

CYYC;2008-12-24 07:00;CYYC 240700Z 21002KT 15SM FEW250 M15/M19 A2943 RMK CI0 SLP056

CYYC;2008-12-24 08:00;CYYC 240800Z 17004KT 15SM FEW240 M14/M20 A2942 RMK CI1 SLP053

CYYC;2008-12-24 09:00;CYYC 240900Z 00000KT 15SM SCT210 M14/M19 A2941 RMK CI2 SLP040

CYYC;2008-12-24 11:00;CYYC 241100Z 23006KT 15SM BKN210 M11/M18 A2942 RMK CI2 SLP041

CYYC;2008-12-24 12:00;CYYC 241200Z 20009KT 15SM FEW160 BKN220 M12/M19 A2940 RMK AC1CI2 SNOW COVER/MEDIUM PACK SLP033

CYYC;2008-12-24 13:00;CYYC 241300Z 17007KT 15SM FEW160 BKN220 M13/M19 A2939 RMK AC1CI3 SLP030

CYYC;2008-12-24 14:00;CYYC 241400Z CCA 20008KT 15SM FEW160 BKN230 M13/M19 A2939 RMK AC1CI3 SLP029

CYYC;2008-12-24 15:00;CYYC 241500Z 24008KT 15SM FEW170 OVC220 M11/M19 A2938 RMK AC2CI3 SLP024

CYYC;2008-12-24 16:00;CYYC 241600Z 24006KT 40SM FEW084 BKN150 BKN220 M12/M18 A2937 RMK AC1AC4CI1 SLP022

CYYC;2008-12-24 17:00;CYYC 241700Z 00000KT 40SM FEW040 OVC080 M10/M17 A2937 RMK CF1AC6 VIRGA SW SLP021

CYYC;2008-12-24 17:30;CYYC 241730Z 24014KT 40SM FEW040 BKN072 OVC084 M07/ RMK CF1AC6AC2 WSHFT 1722/VIRGA SW

CYYC;2008-12-24 18:00;CYYC 241800Z 25009G21KT 40SM FEW040 BKN072 M07/M16 A2935 RMK CF1AC6 VIRGA SW-N SLP012

CYYC;2008-12-24 19:00;CYYC 241900Z 25021G27KT 40SM DRSN FEW030 FEW040 BKN080 M06/M16 A2932 RMK SC1CF1AC6 VIRGA SW-NW SLP001

CYYC;2008-12-24 20:00;CYYC 242000Z 26023G29KT 40SM DRSN FEW040 BKN080 BKN230 M05/M15 A2931 RMK SC1AC6CI1 VIRGA SW-NW SLP999

CYYC;2008-12-24 21:00;CYYC 242100Z 30011G20KT 40SM DRSN FEW040 BKN073 BKN230 M04/M16 A2930 RMK SC1AC6CI1 VIRGA SW-NW SLP989

CYYC;2008-12-24 22:00;CYYC 242200Z 21005KT 40SM FEW040 BKN100 M06/M15 A2930 RMK SC1AC7 DIST SH SW SLP989

CYYC;2008-12-24 23:00;CYYC 242300Z 22003KT 40SM FEW040 BKN100 M05/M13 A2930 RMK SC1AC7 DIST SH SW SLP987

CYYC;2008-12-25 00:00;CYYC 250000Z 18002KT 15SM FEW040 FEW120 BKN160 M08/M13 A2929 RMK SC1AC2AC6 SLP988

CYYC;2008-12-25 01:00;CYYC 250100Z 18004KT 15SM FEW040 SCT120 BKN160 M09/M13 A2928 RMK SC1AC3AC3 SLP983

CYYC;2008-12-25 02:00;CYYC 250200Z 25005KT 15SM FEW120 M10/M13 A2926 RMK AC2 SLP979

CYYC;2008-12-25 03:00;CYYC 250300Z 21004KT 15SM FEW120 FEW210 M14/M16 A2925 RMK AC1CI1 SLP979

CYYC;2008-12-25 04:00;CYYC 250400Z 24003KT 15SM FEW170 M14/M17 A2924 RMK AC2 SLP976

CYYC;2008-12-25 05:00;CYYC 250500Z 00000KT 15SM FEW170 M15/M18 A2923 RMK AC1 SLP972

CYYC;2008-12-25 06:00;CYYC 250600Z 22004KT 15SM FEW130 M13/M17 A2922 RMK AC1 AC TR SLP962

CYYC;2008-12-25 07:00;CYYC 250700Z 01002KT 15SM FEW130 M15/M18 A2921 RMK AC1 AC TR SLP961

CYYC;2008-12-25 08:00;CYYC 250800Z 26003KT 15SM FEW130 M14/M17 A2921 RMK AC1 SLP958

CYYC;2008-12-25 09:00;CYYC 250900Z 21011KT 15SM BKN200 M14/M17 A2922 RMK CI3 SLP962

CYYC;2008-12-25 10:00;CYYC 251000Z 04002KT 15SM SCT160 BKN220 M10/M15 A2921 RMK AC3CI1 SLP959

CYYC;2008-12-25 11:00;CYYC 251100Z 34010KT 15SM BKN160 BKN220 M08/M15 A2922 RMK AC5CI2 SLP962

CYYC;2008-12-25 12:00;CYYC 251200Z 34007KT 15SM BKN170 OVC220 M10/M15 A2922 RMK AC5CI2 SNOW COVER/MEDIUM PACK SLP961

CYYC;2008-12-25 13:00;CYYC 251300Z 34005KT 15SM BKN170 OVC220 M10/M16 A2924 RMK AC5CI2 SLP967

CYYC;2008-12-25 14:00;CYYC 251400Z 36008KT 15SM FEW160 SCT230 M12/M17 A2926 RMK AC1CI1 SLP973

CYYC;2008-12-25 15:00;CYYC 251500Z 31004KT 15SM SCT180 M13/M17 A2929 RMK AC3 SLP997

CYYC;2008-12-25 16:00;CYYC 251600Z 00000KT 40SM SCT160 BKN180 OVC200 M13/M17 A2933 RMK AC3AC3CI0 SLP008

CYYC;2008-12-25 17:00;CYYC 251700Z 34006KT 40SM FEW067 SCT160 BKN180 M13/M18 A2935 RMK AC2AC2AC2 SLP015

CYYC;2008-12-25 18:00;CYYC 251800Z 35005KT 40SM BKN072 BKN180 M11/M15 A2938 RMK AC5AC2 SLP024

CYYC;2008-12-25 19:00;CYYC 251900Z 34014KT 40SM BKN070 BKN180 BKN210 M09/M14 A2938 RMK AC6AC1CI1 SLP023

CYYC;2008-12-25 20:00;CYYC 252000Z 34016G21KT 40SM BKN068 BKN120 BKN140 M09/M13 A2938 RMK AC6AC1AC1 SLP024

CYYC;2008-12-25 21:00;CYYC 252100Z 35014KT 40SM SCT070 BKN140 BKN210 M10/M13 A2939 RMK AC4AC2CI1 SLP028

CYYC;2008-12-25 22:00;CYYC 252200Z 35015KT 40SM BKN070 BKN130 M10/M13 A2943 RMK AC5AC2 SLP041

CYYC;2008-12-25 23:00;CYYC 252300Z 34010G15KT 30SM BKN072 BKN120 M10/M13 A2945 RMK AC6AC2 SLP046

CYYC;2008-12-26 00:00;CYYC 260000Z 36009KT 30SM BKN072 OVC110 M11/M13 A2948 RMK AC6AC2 SLP055

CYYC;2008-12-26 01:00;CYYC 260100Z 35009KT 15SM OVC072 M11/M13 A2950 RMK AC8 SLP062

CYYC;2008-12-26 02:00;CYYC 260200Z 33010KT 15SM OVC070 M11/M13 A2953 RMK AC8 SLP070

CYYC;2008-12-26 03:00;CYYC 260300Z 33010KT 15SM BKN069 OVC160 M11/M14 A2955 RMK AC6AC1 SLP084

CYYC;2008-12-26 04:00;CYYC 260400Z 33006KT 15SM FEW050 OVC069 M12/M14 A2959 RMK SC1AC8 SLP095

CYYC;2008-12-26 05:00;CYYC 260500Z 31005KT 15SM FEW050 BKN069 BKN220 M13/M15 A2961 RMK SC1AC5CI1 SLP101

CYYC;2008-12-26 06:00;CYYC 260600Z CCA 00000KT 15SM FEW050 FEW080 SCT220 M15/M17 A2963 RMK SC1AC2CI1 SLP114

CYYC;2008-12-26 07:00;CYYC 260700Z 31004KT 15SM FEW070 FEW230 M16/M17 A2964 RMK AC1CI1 SLP117

CYYC;2008-12-26 08:00;CYYC 260800Z 31006KT 15SM FEW070 FEW220 M15/M17 A2964 RMK AC1CI0 SLP116

CYYC;2008-12-26 09:00;CYYC 260900Z 00000KT 15SM SKC M17/M19 A2964 RMK SLP119

CYYC;2008-12-26 10:00;CYYC 261000Z 31002KT 15SM SKC M18/M19 A2965 RMK SLP123

CYYC;2008-12-26 11:00;CYYC 261100Z 15002KT 15SM FEW230 M20/M20 A2966 RMK CI0 SLP127

CYYC;2008-12-26 12:00;CYYC 261200Z 00000KT 15SM FEW230 M21/M22 A2967 RMK CI0 SNOW COVER/MEDIUM PACK SLP139

CYYC;2008-12-26 13:00;CYYC 261300Z 00000KT 15SM FEW230 M21/M22 A2967 RMK CI0 SLP139

CYYC;2008-12-26 14:00;CYYC 261400Z 35003KT 15SM SKC M22/M23 A2968 RMK SLP140

CYYC;2008-12-26 15:00;CYYC 261500Z 00000KT 25SM FEW120 M23/M23 A2968 RMK AC1 AC TR SLP142

CYYC;2008-12-26 16:00;CYYC 261600Z 20002KT 40SM FEW120 FEW220 M22/M22 A2969 RMK AC1CI1 AC+CI TR SLP145

CYYC;2008-12-26 17:00;CYYC 261700Z 21007KT 40SM SKC M19/M20 A2968 RMK SLP142

CYYC;2008-12-26 18:00;CYYC 261800Z 19005KT 40SM FEW120 M17/M18 A2966 RMK AC1 AC TR SLP135

CYYC;2008-12-26 19:00;CYYC 261900Z 18009KT 40SM FEW120 M14/M16 A2963 RMK AC1 SLP124

CYYC;2008-12-26 20:00;CYYC 262000Z 18005KT 40SM FEW120 M14/M16 A2959 RMK AC1 AC TR SLP112

CYYC;2008-12-26 21:00;CYYC 262100Z 18006KT 40SM FEW220 M13/M16 A2958 RMK CI0 SLP101

CYYC;2008-12-26 22:00;CYYC 262200Z 18006KT 40SM SCT220 M13/M16 A2956 RMK CI1 SLP095

CYYC;2008-12-26 23:00;CYYC 262300Z 18006KT 40SM FEW120 BKN220 M14/M17 A2954 RMK AC1CI2 ACSL W SLP091

CYYC;2008-12-27 00:00;CYYC 270000Z 19005KT 30SM FEW120 BKN220 M16/M17 A2953 RMK AC1CI1 ACSL W SLP097

CYYC;2008-12-27 01:00;CYYC 270100Z 18005KT 15SM SCT220 M15/M17 A2951 RMK CI1 SLP089

CYYC;2008-12-27 02:00;CYYC 270200Z 00000KT 15SM FEW180 SCT240 M16/M18 A2948 RMK AC2CI1 SLP080

CYYC;2008-12-27 03:00;CYYC 270300Z 20005KT 15SM BKN140 BKN180 M13/M16 A2945 RMK AC5AC2 SLP066

CYYC;2008-12-27 04:00;CYYC 270400Z 14004KT 15SM FEW140 SCT180 BKN230 M10/M16 A2942 RMK AC2AC2CI2 SLP057

CYYC;2008-12-27 05:00;CYYC 270500Z 19004KT 15SM SCT110 BKN230 M08/M15 A2938 RMK AC3CI2 SLP045

CYYC;2008-12-27 06:00;CYYC 270600Z 24009KT 15SM FEW110 FEW240 M03/M13 A2934 RMK AC1CI0 PRESFR SLP004

CYYC;2008-12-27 07:00;CYYC 270700Z 26018G24KT 15SM FEW230 M03/M13 A2933 RMK CI1 SLP001

CYYC;2008-12-27 08:00;CYYC 270800Z 27005KT 15SM SCT130 BKN230 M02/M13 A2930 RMK AC4CI2 SLP993

CYYC;2008-12-27 09:00;CYYC 270900Z 25016G25KT 15SM BKN130 OVC230 M02/M12 A2929 RMK AC5CI2 SLP979

CYYC;2008-12-27 10:00;CYYC 271000Z 26022G30KT 15SM BKN110 BKN180 OVC230 M01/M11 A2928 RMK AC5AC1CI1 SLP977

CYYC;2008-12-27 11:00;CYYC 271100Z 28024G31KT 15SM BKN110 BKN180 OVC220 00/M11 A2930 RMK AC5AC2CI1 SLP982

CYYC;2008-12-27 12:00;CYYC 271200Z 28014G19KT 15SM BKN100 OVC180 M00/M11 A2931 RMK AC5AC3 SNOW COVER/MEDIUM PACK SLP989

CYYC;2008-12-27 13:00;CYYC 271300Z 29008KT 15SM BKN110 OVC180 M01/M11 A2932 RMK AC6AC2 SLP992

CYYC;2008-12-27 14:00;CYYC 271400Z 27013KT 15SM FEW110 OVC190 M00/M10 A2931 RMK AC2AC6 SLP989

CYYC;2008-12-27 15:00;CYYC 271500Z 32002KT 15SM FEW110 BKN190 00/M10 A2931 RMK AC2AC5 SLP985

CYYC;2008-12-27 16:00;CYYC 271600Z 27021G28KT 40SM FEW110 BKN190 BKN200 01/M10 A2931 RMK AC2AC5CI1 SLP983

CYYC;2008-12-27 17:00;CYYC 271700Z 27024G32KT 40SM FEW110 BKN180 BKN200 01/M10 A2933 RMK AC2AC3CI1 SLP989

CYYC;2008-12-27 18:00;CYYC 271800Z 26023G33KT 40SM DRSN FEW110 BKN180 OVC200 01/M09 A2935 RMK AC2AC5CI1 SLP982

CYYC;2008-12-27 19:00;CYYC 271900Z CCA 26024G30KT 40SM DRSN FEW050 FEW110 BKN180 BKN210 01/M09 A2934 RMK CU1AC2AC4CI0 CU TR SLP978

CYYC;2008-12-27 20:00;CYYC 272000Z 27023G29KT 40SM DRSN FEW040 BKN180 02/M08 A2933 RMK CU1AC7 CU TR SLP975

CYYC;2008-12-27 21:00;CYYC 272100Z 27016G25KT 40SM DRSN FEW044 BKN180 BKN220 03/M09 A2934 RMK CU1AC6CI1 CU TR SLP973

CYYC;2008-12-27 22:00;CYYC 272200Z 25003KT 40SM FEW036 BKN180 BKN220 01/M08 A2935 RMK CU1AC5CI0 CU TR SLP977

CYYC;2008-12-27 23:00;CYYC 272300Z 15004KT 30SM FEW036 SCT180 BKN240 M00/M08 A2936 RMK CU1AC4CI2 SLP979

CYYC;2008-12-28 00:00;CYYC 280000Z 03003KT 30SM FEW044 BKN180 OVC220 02/M09 A2936 RMK CU1AC5CI3 SLP981

CYYC;2008-12-28 01:00;CYYC 280100Z 27023KT 15SM FEW048 SCT180 BKN220 03/M09 A2938 RMK CU1AC2CI2 SLP986

CYYC;2008-12-28 02:00;CYYC 280200Z 27012KT 15SM FEW180 SCT220 02/M09 A2941 RMK AC2CI2 SLP994

CYYC;2008-12-28 03:00;CYYC 280300Z 31007KT 15SM FEW096 FEW180 SCT240 02/M09 A2942 RMK AC1AC1CC2 SLP999

CYYC;2008-12-28 04:00;CYYC 280400Z 27009KT 15SM FEW085 FEW180 BKN220 02/M09 A2942 RMK AC2AC1CC2 SLP001

CYYC;2008-12-28 05:00;CYYC 280500Z 34015G20KT 15SM FEW085 SCT190 BKN220 M04/M09 A2945 RMK AC2AC1CC1 SLP009

CYYC;2008-12-28 06:00;CYYC 280600Z 32014KT 15SM FEW091 SCT160 BKN220 M04/M09 A2950 RMK AC2AC1CC2 SLP035

CYYC;2008-12-28 07:00;CYYC 280700Z 33012KT 15SM FEW092 SCT160 BKN220 M06/M08 A2952 RMK AC2AC1CC2 SLP042

CYYC;2008-12-28 08:00;CYYC 280800Z 35010KT 15SM OVC015 M06/M08 A2952 RMK SC8 SLP043

CYYC;2008-12-28 09:00;CYYC 280900Z 35008KT 15SM OVC018 M06/M08 A2952 RMK SC8 SLP044

CYYC;2008-12-28 10:00;CYYC 281000Z 34007KT 15SM OVC023 M06/M07 A2956 RMK SC8 SLP056

CYYC;2008-12-28 11:00;CYYC 281100Z 34006KT 15SM OVC026 M06/M07 A2957 RMK SC8 SLP058

CYYC;2008-12-28 11:52;CYYC 281152Z 34006KT 2SM -SN FEW009 OVC030 M06/ RMK SC2SC6

CYYC;2008-12-28 12:00;CYYC 281200Z 34006KT 2SM -SN FEW008 OVC026 M06/M07 A2957 RMK SC2SC6 SLP061

CYYC;2008-12-28 13:00;CYYC 281300Z 34006KT 1/2SM SN SCT005 OVC018 M06/M07 A2958 RMK SC3SC5 SLP064

CYYC;2008-12-28 13:39;CYYC 281339Z 35006KT 2SM -SN SCT012 OVC024 M06/ RESN RMK SC3SC5

CYYC;2008-12-28 14:00;CYYC 281400Z 35006KT 2SM -SN SCT013 OVC025 M07/M07 A2958 RESN RMK SC3SC5 /S02/ SLP064

CYYC;2008-12-28 15:00;CYYC 281500Z 01007KT 2 1/2SM -SN FEW012 SCT026 OVC050 M07/M07 A2958 RMK SC2SC1SC5 FROIN SLP067

CYYC;2008-12-28 15:11;CYYC 281511Z 02007KT 2SM -SN BKN012 BKN015 OVC050 M07/ RMK SC5SC1SC2

CYYC;2008-12-28 15:27;CYYC 281527Z 02006KT 2SM -SN BKN009 BKN015 OVC050 M07/ RMK SC6SC1SC2

CYYC;2008-12-28 16:00;CYYC 281600Z 02008KT 1 1/2SM -SN OVC009 M07/M07 A2960 RMK SN2SC6 FROIN/S03/ SLP071

CYYC;2008-12-28 16:14;CYYC 281614Z 02007KT 3/4SM -SN OVC006 M07/ RMK SN6SC2 RVR RWY28 6000 FT

CYYC;2008-12-28 16:43;CYYC 281643Z 01008KT 1 1/4SM -SN OVC006 M07/ RMK SN5SC3

CYYC;2008-12-28 17:00;CYYC 281700Z 01009KT 1 1/4SM -SN OVC007 M07/M07 A2961 RMK SN5SC3 FROIN/S04/ SLP076

CYYC;2008-12-28 17:41;CYYC 281741Z 02008KT 1 1/2SM -SN OVC008 M07/ RMK SN3SC5

CYYC;2008-12-28 17:50;CYYC 281750Z 02008KT 3SM -SN SCT008 OVC016 M07/ RMK SC4SC4

CYYC;2008-12-28 18:00;CYYC 281800Z 02009KT 3SM -SN FEW008 BKN012 OVC016 M07/M07 A2963 RMK SC2SC3SC2 FROIN/S05/ SLP093

CYYC;2008-12-28 18:10;CYYC 281810Z 02008KT 2SM -SN OVC009 M07/ RMK SN2SC6

CYYC;2008-12-28 18:26;CYYC 281826Z 01008KT 3SM -SN SCT009 OVC020 M07/ RMK SC4SC3

CYYC;2008-12-28 19:00;CYYC 281900Z 01007KT 3SM -SN SCT015 OVC024 M07/M08 A2964 RMK SC4SC3 SLP096

CYYC;2008-12-28 20:00;CYYC 282000Z 36004KT 10SM -SN SCT010 OVC025 M07/M08 A2965 RMK SC4SC2 SLP099

CYYC;2008-12-28 21:00;CYYC 282100Z 02004KT 12SM -SN FEW008 SCT020 M08/M09 A2968 RMK SC1SC1 PCPN VRY LGT SLP115

CYYC;2008-12-28 21:15;CYYC 282115Z 04002KT 30SM FEW008 FEW020 M08/ RMK SC1SC1 DIST SH SW-W

CYYC;2008-12-28 22:00;CYYC 282200Z 00000KT 30SM FEW020 FEW090 FEW110 M09/M10 A2971 RMK SC1AC1AC0 DIST SH SW-W SLP124

CYYC;2008-12-28 22:27;CYYC 282227Z 00000KT 30SM -SN FEW010 FEW095 FEW140 M08/ RMK SC1AC0AC0

CYYC;2008-12-28 23:00;CYYC 282300Z 00000KT 30SM BCFG FEW010 FEW095 FEW140 M09/M09 A2973 RMK SC1AC1AC0 DIST SH SW-W/FG PTCHS NE-S SLP131

CYYC;2008-12-28 23:49;CYYC 282349Z 00000KT 2SM BR FEW011 BKN095 OVC140 M10/ RMK SC2AC3AC2 VIS S+W 10

CYYC;2008-12-29 00:00;CYYC 290000Z 00000KT 2SM BR PRFG FEW011 BKN100 OVC200 M11/M11 A2977 RMK SC2AC3CI1 VIS S+W 15/FG BNK SW-W SLP148

CYYC;2008-12-29 00:07;CYYC 290007Z 00000KT 15SM PRFG BKN024 OVC200 M10/ RMK SC6CI0 FG BNK ALQDS/FROIN

CYYC;2008-12-29 01:00;CYYC 290100Z 11004KT 15SM FEW010 OVC020 M09/M10 A2980 RMK ST1SC7 SLP158

CYYC;2008-12-29 01:21;CYYC 290121Z 11007KT 15SM BKN009 OVC020 M08/ RMK ST5SC3

CYYC;2008-12-29 01:39;CYYC 290139Z 10006KT 2 1/2SM BR FEW002 BKN008 OVC020 M08/ RMK ST2ST3SC3

CYYC;2008-12-29 01:47;CYYC 290147Z 10005KT 2SM BR BKN001 BKN012 OVC020 M08/ RMK ST5ST2SC2

CYYC;2008-12-29 02:00;CYYC 290200Z 11006KT 1 1/2SM BR OVC001 M08/M08 A2983 RMK FG3ST5 RIME ON ICE ACCRETION SLP166

CYYC;2008-12-29 02:55;CYYC 290255Z 13007KT 1/2SM FZFG VV002 M08/ RMK FG8

CYYC;2008-12-29 03:00;CYYC 290300Z 12007KT 3/8SM FZFG VV002 M08/M08 A2984 RMK FG8 SLP171

CYYC;2008-12-29 04:00;CYYC 290400Z 13007KT 3/8SM FZFG VV003 M08/M08 A2985 RMK FG8 SLP176

CYYC;2008-12-29 04:37;CYYC 290437Z 15008KT 3/4SM BR OVC003 M08/ RMK ST8

CYYC;2008-12-29 05:00;CYYC 290500Z 15007KT 1SM BR OVC003 M08/M08 A2986 RMK ST8 SLP179

CYYC;2008-12-29 05:40;CYYC 290540Z 17008KT 1 1/2SM BR OVC005 M08/ RMK ST8

CYYC;2008-12-29 06:00;CYYC 290600Z 18009KT 1 1/2SM BR OVC004 M08/M08 A2987 RMK ST8 SLP182

CYYC;2008-12-29 07:00;CYYC 290700Z 18009KT 1 1/2SM BR OVC003 M08/M09 A2988 RMK ST8 SLP185

CYYC;2008-12-29 08:00;CYYC 290800Z 18005KT 1SM BR OVC003 M09/M09 A2988 RMK ST8 RVR RWY 34 6000 FT SLP184

CYYC;2008-12-29 09:00;CYYC 290900Z 20009KT 1SM BR OVC003 M09/M09 A2987 RMK ST8 RVR RWY 34 6000 FT SLP187

CYYC;2008-12-29 10:00;CYYC 291000Z 20008KT 3/4SM BR OVC004 M09/M10 A2986 RMK ST8 RVR RWY 34 6000 FT SLP184

CYYC;2008-12-29 10:40;CYYC 291040Z 19006KT 3/8SM FZFG OVC002 M10/ RMK ST8 RVR RWY 34 6000 FT

CYYC;2008-12-29 11:00;CYYC 291100Z 23007KT 3/8SM FZFG OVC002 M11/M11 A2985 RMK ST8 FROIN / RVR RWY 34 6000FT SLP179

CYYC;2008-12-29 12:00;CYYC 291200Z CCA 22007KT 3SM BR FEW002 OVC220 M13/M13 A2983 RMK ST2CI5 SNOW COVER LOOSE SLP180

CYYC;2008-12-29 13:00;CYYC 291300Z 20006KT 15SM FEW003 OVC210 M13/M14 A2981 RMK ST1CI7 SLP173

CYYC;2008-12-29 14:00;CYYC 291400Z 21006KT 15SM FEW004 FEW180 OVC200 M14/M14 A2980 RMK ST1AC1CI7 SLP169

CYYC;2008-12-29 15:00;CYYC 291500Z 21005KT 15SM FEW020 BKN170 OVC230 M14/M15 A2975 RMK SC2AC3CI2 SLP152

CYYC;2008-12-29 16:00;CYYC 291600Z 17002KT 30SM FEW040 BKN180 OVC230 M15/M16 A2973 RMK SC2AC3CI3 SLP146

CYYC;2008-12-29 17:00;CYYC 291700Z 00000KT 30SM FEW040 BKN160 OVC230 M14/M15 A2970 RMK SC2AC3CI2 SLP135

CYYC;2008-12-29 18:00;CYYC 291800Z 14007KT 30SM FEW050 BKN140 OVC230 M14/M15 A2971 RMK SC1AC5CI2 SLP138

CYYC;2008-12-29 19:00;CYYC 291900Z 13005KT 20SM FEW050 BKN120 OVC230 M12/M13 A2966 RMK SC1AC6CI2 SLP123

CYYC;2008-12-29 20:00;CYYC 292000Z 20005KT 20SM BKN100 OVC230 M12/M13 A2962 RMK AS6CI2 SLP108

CYYC;2008-12-29 21:00;CYYC 292100Z 18004KT 30SM BKN130 OVC230 M12/M13 A2958 RMK AS6CI2 SLP091

CYYC;2008-12-29 22:00;CYYC 292200Z 18002KT 30SM BKN140 OVC230 M11/M12 A2955 RMK AS6CI2 SLP080

CYYC;2008-12-29 23:00;CYYC 292300Z 12004KT 20SM BKN140 OVC220 M10/M11 A2957 RMK AC6CI2 SLP086

CYYC;2008-12-30 00:00;CYYC 300000Z 09007KT 20SM BKN130 OVC220 M12/M13 A2958 RMK AC6CI2 SLP093

CYYC;2008-12-30 01:00;CYYC 300100Z 00000KT 15SM OVC140 M12/M13 A2956 RMK AC8 SLP089

CYYC;2008-12-30 02:00;CYYC 300200Z 05003KT 15SM OVC130 M13/M14 A2957 RMK AC8 SLP092

CYYC;2008-12-30 03:00;CYYC 300300Z 06002KT 8SM SCT010 BKN140 OVC210 M14/M15 A2962 RMK ST2AC2CI2 SLP112

CYYC;2008-12-30 03:23;CYYC 300323Z 36006KT 6SM BR SCT002 BKN010 OVC140 M14/ RMK ST2SC3AC2

CYYC;2008-12-30 03:34;CYYC 300334Z 34013KT 2 1/2SM BR BKN003 OVC010 M14/ RMK ST6SC2

CYYC;2008-12-30 03:40;CYYC 300340Z 34011KT 1SM -SN BR BKN003 OVC007 M13/ RMK ST6SC2

CYYC;2008-12-30 04:00;CYYC 300400Z 34014KT 3SM -SN BR BKN003 OVC007 M15/M16 A2966 RMK ST4SC4 SLP125

CYYC;2008-12-30 04:18;CYYC 300418Z 34011KT 1SM -SN BR BKN003 OVC008 M15/ RMK ST4SC4

CYYC;2008-12-30 04:36;CYYC 300436Z 33010KT 3/4SM -SN BR OVC008 M14/ RMK SC8

CYYC;2008-12-30 05:00;CYYC 300500Z 34013KT 3/4SM -SN BR OVC010 M14/M14 A2970 RMK SC8 SLP138

CYYC;2008-12-30 06:00;CYYC 300600Z 34014KT 1 1/2SM -SN BR OVC015 M14/M15 A2974 RMK SC8 SLP155

CYYC;2008-12-30 06:40;CYYC 300640Z CCA 32011KT 1SM -SN DRSN BR BKN005 OVC016 M14/ RMK ST5SC3 RVR RWY34 6000+ FT

CYYC;2008-12-30 07:00;CYYC 300700Z 34009KT 1/2SM SN DRSN OVC016 M13/M14 A2978 RMK SN6SC2 RVR RWY34 5500+ FT /S01/ SLP168

CYYC;2008-12-30 08:00;CYYC 300800Z 36008KT 8SM -SN SCT015 BKN100 BKN180 M13/M14 A2981 RMK SC3AC2AS2 /S02/ SLP176

CYYC;2008-12-30 08:48;CYYC 300848Z 32005KT 8SM BKN025 BKN035 OVC100 M13/ RMK SC3SC2AC2

CYYC;2008-12-30 09:00;CYYC 300900Z 32005KT 8SM BKN025 BKN035 OVC100 M13/M15 A2986 RMK SC4SC3AC0 SLP193

CYYC;2008-12-30 10:00;CYYC 301000Z 33004KT 15SM BKN023 OVC100 M13/M15 A2989 RMK SC6AC2 SLP202

CYYC;2008-12-30 11:00;CYYC 301100Z 33005KT 15SM OVC020 M13/M15 A2993 RMK SC8 SLP214

CYYC;2008-12-30 12:00;CYYC 301200Z CCA 33006KT 15SM OVC020 M13/M15 A2995 RMK SC8 SNOW CVR/MUCH LOOSE SLP224

CYYC;2008-12-30 13:00;CYYC 301300Z 32007KT 15SM OVC020 M13/M15 A2998 RMK SC8 SLP235

CYYC;2008-12-30 13:42;CYYC 301342Z 33007KT 15SM -SN SCT012 OVC020 M13/ RMK ST3SC5

CYYC;2008-12-30 14:00;CYYC 301400Z 34008KT 8SM -SN BKN014 OVC020 M13/M15 A3002 RMK ST4SC4 PCPN VRY LGT SLP245

CYYC;2008-12-30 14:34;CYYC 301434Z CCA 36008KT 8SM -SN SCT008 BKN011 OVC020 M13/ RMK ST4SC2SC2 PCPN VRY LGT

CYYC;2008-12-30 14:43;CYYC 301443Z 35007KT 8SM -SN BKN008 BKN011 OVC020 M13/ RMK ST6ST1SC1 PCPN VRY LGT

CYYC;2008-12-30 15:00;CYYC 301500Z 36007KT 8SM -SN OVC008 M13/M15 A3004 RMK ST8 PCPN VRY LGT/FROIN SLP261

CYYC;2008-12-30 16:00;CYYC 301600Z 35007KT 3SM -SN OVC006 M13/M14 A3008 RMK ST8 SLP273

CYYC;2008-12-30 17:00;CYYC 301700Z 36005KT 3SM -SN OVC009 M14/M15 A3010 RMK SC8 SLP280

CYYC;2008-12-30 18:00;CYYC 301800Z 03005KT 3SM -SN OVC007 M14/M15 A3012 RMK SC8 SLP288

CYYC;2008-12-30 18:09;CYYC 301809Z 03006KT 1 3/4SM -SN OVC007 M14/ RMK SC8

CYYC;2008-12-30 18:38;CYYC 301838Z 04005KT 4SM -SN OVC009 M14/ RMK SC8

CYYC;2008-12-30 19:00;CYYC 301900Z 07002KT 8SM -SN OVC009 M14/M15 A3013 RMK SC8 PCPN VRY LGT SLP291

CYYC;2008-12-30 19:32;CYYC 301932Z 06002KT 20SM -SN OVC010 M14/ RMK SC8 PCPN VRY LGT

CYYC;2008-12-30 19:40;CYYC 301940Z 08003KT 25SM OVC010 M14/ RMK SC7

CYYC;2008-12-30 20:00;CYYC 302000Z 00000KT 8SM -SN OVC011 M14/M15 A3013 RMK SC6 SLP290

CYYC;2008-12-30 20:17;CYYC 302017Z 11006KT 2SM -SN OVC010 M14/ RMK SC6 VIS W 10

CYYC;2008-12-30 20:26;CYYC 302026Z 11006KT 5SM -SN OVC010 M14/ RMK SC6 VIS W 10

CYYC;2008-12-30 21:00;CYYC 302100Z 16007KT 3SM -SN FEW003 BKN010 M14/M15 A3012 RMK SC1SC6 SLP289

CYYC;2008-12-30 21:05;CYYC 302105Z 16007KT 2SM -SN FEW003 BKN010 M14/ RMK SC1SC3 VIS W 10

CYYC;2008-12-30 21:13;CYYC 302113Z 15007KT 3SM -SN FEW003 BKN010 M14/ RMK SC1SC3

CYYC;2008-12-30 21:47;CYYC 302147Z 15006KT 15SM FEW010 FEW240 M14/ RMK SC1CI0

CYYC;2008-12-30 22:00;CYYC 302200Z 17008KT 15SM FEW010 FEW250 M14/M16 A3012 RMK SC1CI0 SLP289

CYYC;2008-12-30 23:00;CYYC 302300Z 16009KT 30SM FEW100 FEW250 M15/M16 A3012 RMK AC1CI1 SLP288

CYYC;2008-12-31 00:00;CYYC 310000Z 18010KT 15SM FEW050 FEW110 FEW220 M15/M16 A3011 RMK SC1AC1CI1 SLP286

CYYC;2008-12-31 01:00;CYYC 310100Z 19009KT 15SM FEW220 M17/M18 A3010 RMK CI1 FROIN SLP284

CYYC;2008-12-31 02:00;CYYC 310200Z 18007KT 15SM FEW240 M17/M18 A3008 RMK CI1 FROIN SLP276

CYYC;2008-12-31 03:00;CYYC 310300Z 18006KT 15SM FEW170 FEW240 M17/M18 A3005 RMK AC1CI1 AC TR SLP266

CYYC;2008-12-31 04:00;CYYC 310400Z 20005KT 15SM FEW170 FEW210 M18/M18 A3003 RMK AC1CI2 SLP262

CYYC;2008-12-31 05:00;CYYC 310500Z 17006KT 8SM FEW220 M19/M20 A2999 RMK CI1 HZ SLP248

CYYC;2008-12-31 06:00;CYYC 310600Z 19006KT 10SM FEW230 M17/M18 A2995 RMK CI1 HZ SLP234

CYYC;2008-12-31 07:00;CYYC 310700Z 18003KT 10SM FEW230 M18/M19 A2990 RMK CI1 SLP220

CYYC;2008-12-31 08:00;CYYC 310800Z 19006KT 15SM FEW130 SCT240 M17/M18 A2985 RMK AC2CI1 SLP205

CYYC;2008-12-31 09:00;CYYC 310900Z 18006KT 12SM BKN094 OVC120 M15/M16 A2973 RMK AC6AC2 PRESFR SLP153

CYYC;2008-12-31 10:00;CYYC 311000Z 21010KT 12SM OVC130 M15/M16 A2970 RMK AC8 SLP145

CYYC;2008-12-31 11:00;CYYC 311100Z 19007KT 15SM BKN130 OVC210 M16/M17 A2964 RMK AC5CI3 SLP125

CYYC;2008-12-31 12:00;CYYC 311200Z 14011KT 15SM SCT130 OVC230 M14/M16 A2954 RMK AC4CI4 SNOW COVER/MEDIUM PACK SLP088

CYYC;2008-12-31 13:00;CYYC 311300Z 16008KT 15SM FEW180 OVC210 M12/M15 A2946 RMK AC2CI6 SLP064

CYYC;2008-12-31 14:00;CYYC 311400Z 18018G24KT 15SM FEW180 BKN210 M12/M14 A2938 RMK AC2CI3 SLP038

CYYC;2008-12-31 15:00;CYYC 311500Z 18014KT 15SM DRSN FEW050 FEW180 M08/M12 A2933 RMK SC1AC1 PRESFR SLP007

CYYC;2008-12-31 16:00;CYYC 311600Z 20003KT 30SM FEW050 FEW140 FEW180 SCT220 M11/M13 A2930 RMK SC1AC1AC1CI0 SLP000

CYYC;2008-12-31 17:00;CYYC 311700Z 33003KT 30SM FEW050 BKN120 M09/M12 A2929 RMK SC1AC6 DIST SH SW SLP995

CYYC;2008-12-31 18:00;CYYC 311800Z 34002KT 30SM FEW050 FEW120 M10/M13 A2930 RMK SC1AC1 DIST SH SW SLP001

CYYC;2008-12-31 19:00;CYYC 311900Z 25010G15KT 30SM FEW030 FEW120 M02/M10 A2928 RMK CU1AC1 DSIT SH SW/WSHFT 1840 SLP995

CYYC;2008-12-31 20:00;CYYC 312000Z 26011KT 30SM FEW036 FEW140 M02/M11 A2930 RMK CU1AC1 DIST SH SW SLP001

CYYC;2008-12-31 21:00;CYYC 312100Z 28014KT 30SM FEW044 BKN150 M01/M12 A2933 RMK SC1AC6 DIST SH SW SLP992

CYYC;2008-12-31 22:00;CYYC 312200Z 28007KT 30SM FEW045 SCT120 BKN160 M00/M11 A2936 RMK SC1AC3AC4 DIST SH SW SLP002

CYYC;2008-12-31 23:00;CYYC 312300Z 30014G24KT 30SM DRSN FEW045 BKN120 M01/M12 A2941 RMK SC1AC6 DIST SH SW SLP017

CYYC;2008-12-31 23:02;CYYC 312302Z CCB 35011G21KT 30SM DRSN FEW045 BKN120 M05/ RMK SC1AC6 DIST SH SW/WSHFT 2300

