CYYC;2009-01-01 07:00;CYYC 010700Z 18003KT 15SM SCT130 M19/M19 A2962 RMK AC2 SLP113

CYYC;2009-01-01 08:00;CYYC 010800Z 00000KT 15SM FEW130 SCT240 M18/M18 A2963 RMK AC1CI1 SLP115

CYYC;2009-01-01 09:00;CYYC 010900Z 13006KT 15SM FEW120 SCT240 M19/M20 A2964 RMK AC1CI1 SLP109

CYYC;2009-01-01 10:00;CYYC 011000Z 13005KT 15SM FEW130 M19/M20 A2966 RMK AC1 AC TR SLP114

CYYC;2009-01-01 11:00;CYYC 011100Z 21004KT 15SM FEW130 M20/M23 A2966 RMK AC1 AC TR SLP115

CYYC;2009-01-01 12:00;CYYC 011200Z 18003KT 15SM FEW140 M20/M23 A2965 RMK AC1 SNOW COVER/MEDIUM PACK SLP132

CYYC;2009-01-01 13:00;CYYC 011300Z 14002KT 15SM FEW130 FEW240 M23/M25 A2964 RMK AC1CI1 SLP127

CYYC;2009-01-01 14:00;CYYC 011400Z CCA 17003KT 15SM FEW130 FEW240 M22/M24 A2962 RMK AC1CI1 AC+CI TR SLP120

CYYC;2009-01-01 15:00;CYYC 011500Z 21010KT 15SM FEW170 SCT190 M18/M20 A2960 RMK AC1AC2 SLP112

CYYC;2009-01-01 16:00;CYYC 011600Z 23011KT 40SM FEW180 BKN190 M09/M18 A2957 RMK AC2AC2 SLP105

CYYC;2009-01-01 17:00;CYYC 011700Z 21010KT 40SM FEW140 BKN170 BKN190 M08/M17 A2956 RMK AS2AS3AS2 SLP100

CYYC;2009-01-01 18:00;CYYC 011800Z 21008KT 40SM FEW110 BKN140 BKN170 BKN220 M07/M16 A2953 RMK AS2AS3AS2CI0 SLP079

CYYC;2009-01-01 19:00;CYYC 011900Z 22006KT 40SM BKN100 BKN120 M07/M15 A2949 RMK AS5AS2 SLP067

CYYC;2009-01-01 20:00;CYYC 012000Z 18005KT 40SM OVC090 M08/M14 A2945 RMK AS7 SLP055

CYYC;2009-01-01 21:00;CYYC 012100Z 13006KT 40SM FEW060 OVC090 M07/M14 A2942 RMK SC2AS6 SLP040

CYYC;2009-01-01 22:00;CYYC 012200Z 13009KT 40SM FEW040 BKN060 OVC075 M09/M14 A2941 RMK SC2SC4AC2 SLP038

CYYC;2009-01-01 23:00;CYYC 012300Z 14009KT 5SM -SHSN FEW030 BKN040 OVC060 M08/M13 A2940 RMK SC2SC4SC2 SLP034

CYYC;2009-01-01 23:13;CYYC 012313Z 14008KT 2 1/2SM -SHSN SCT013 OVC025 M08/ RMK SC3SC5

CYYC;2009-01-01 23:38;CYYC 012338Z 13006KT 2 1/2SM -SHSN BKN010 OVC025 M08/ RMK SC5SC3

CYYC;2009-01-01 23:45;CYYC 012345Z 14009KT 1 1/2SM -SHSN VV009 M08/ RMK SN8

CYYC;2009-01-02 00:00;CYYC 020000Z 16006KT 1 1/2SM -SHSN VV009 M08/M08 A2938 RMK SN8 SLP030

CYYC;2009-01-02 01:00;CYYC 020100Z 16004KT 2 1/2SM -SHSN BKN011 OVC030 M08/M09 A2937 RMK SC5SC3 SLP025

CYYC;2009-01-02 02:00;CYYC 020200Z CCA 11002KT 2 1/2SM -SN BKN010 OVC025 M08/M08 A2935 RMK SC5SC3 /S01/ SLP019

CYYC;2009-01-02 02:24;CYYC 020224Z 07004KT 4SM -SN OVC018 M08/ RMK SC8

CYYC;2009-01-02 02:50;CYYC 020250Z 36015KT 3SM -SN DRSN OVC009 M16/ RMK SC8

CYYC;2009-01-02 03:00;CYYC 020300Z 36016KT 2SM -SN DRSN OVC011 M17/M18 A2938 RMK SC8 SLP038

CYYC;2009-01-02 04:00;CYYC 020400Z 35022KT 1 3/4SM -SN BLSN OVC014 M20/M21 A2941 RMK SN5SC3 SLP047

CYYC;2009-01-02 04:29;CYYC 020429Z 36020KT 2SM -SN BLSN OVC017 M20/ RMK SN5SC3

CYYC;2009-01-02 05:00;CYYC 020500Z 36018G23KT 3SM -SN OVC017 M20/M22 A2944 REBLSN RMK SN4SC4 VIS S 4 SLP056

CYYC;2009-01-02 06:00;CYYC 020600Z 36021G26KT 4SM -SN DRSN OVC018 M22/M23 A2948 RMK SC8 /S02/ SLP065

CYYC;2009-01-02 07:00;CYYC 020700Z 34018KT 8SM -SN DRSN OVC018 M22/M24 A2949 RMK SC8 SLP070

CYYC;2009-01-02 08:00;CYYC 020800Z 34021KT 8SM -SN DRSN OVC018 M22/M24 A2950 RMK SC8 SLP071

CYYC;2009-01-02 09:00;CYYC 020900Z 35022KT 10SM -SN DRSN OVC017 M23/M25 A2950 RMK SC8 SLP074

CYYC;2009-01-02 10:00;CYYC 021000Z 34022KT 10SM -SN DRSN OVC016 M23/M27 A2950 RMK SC8 SLP075

CYYC;2009-01-02 11:00;CYYC 021100Z 35020KT 10SM -SN DRSN OVC015 M23/M27 A2951 RMK SC8 SLP077

CYYC;2009-01-02 12:00;CYYC 021200Z CCA 35017KT 10SM -SN DRSN OVC015 M23/M27 A2951 RMK SC8 SNOW COVER/MUCH LOOSE SLP080

CYYC;2009-01-02 13:00;CYYC 021300Z 34014KT 15SM -SN DRSN OVC017 M24/M28 A2949 RMK SC8 SN VRY LGT SLP075

CYYC;2009-01-02 13:13;CYYC 021313Z 34016KT 15SM DRSN OVC016 M24/ RMK SC8

CYYC;2009-01-02 14:00;CYYC 021400Z 35013KT 15SM DRSN OVC016 M24/M28 A2954 RMK SC8 SLP088

CYYC;2009-01-02 15:00;CYYC 021500Z 34012KT 15SM DRSN BKN016 OVC020 M24/M29 A2953 RMK SC6SC2 CIG VRB 15-17 SLP099

CYYC;2009-01-02 16:00;CYYC 021600Z 34014KT 20SM DRSN BKN019 BKN030 OVC070 M24/M29 A2953 RMK SC5SC2AC1 SLP100

CYYC;2009-01-02 17:00;CYYC 021700Z 36014KT 10SM DRSN SCT019 BKN026 OVC070 M24/M29 A2955 RMK SC4SC3AC1 SLP107

CYYC;2009-01-02 18:00;CYYC 021800Z 35011KT 10SM DRSN FEW020 SCT026 OVC080 M24/M29 A2958 RMK SC2SC2AC4 SLP127

CYYC;2009-01-02 19:00;CYYC 021900Z 34014KT 6SM -SHSN DRSN SCT030 OVC080 M24/M30 A2960 RMK SC4AC3 SLP133

CYYC;2009-01-02 19:17;CYYC 021917Z 34014KT 3SM -SHSN DRSN BKN016 OVC030 M24/ RMK SC5SC3

CYYC;2009-01-02 20:00;CYYC 022000Z 35014KT 3SM -SHSN DRSN BKN017 OVC034 M24/M29 A2961 RMK SC5SC3 SLP135

CYYC;2009-01-02 20:20;CYYC 022020Z 35015KT 2 1/2SM -SN DRSN BKN018 OVC032 M24/ RMK SC5SC3

CYYC;2009-01-02 21:00;CYYC 022100Z 35016KT 3SM -SN DRSN BKN025 OVC040 M24/M28 A2962 RMK SC5SC3 SLP139

CYYC;2009-01-02 21:07;CYYC 022107Z 35015KT 4SM -SN DRSN BKN030 OVC040 M24/ RMK SC5SC3

CYYC;2009-01-02 22:00;CYYC 022200Z CCA 35011KT 5SM -SN DRSN FEW030 BKN050 OVC090 M24/M30 A2964 RMK SC2SC3AC1 SLP148

CYYC;2009-01-02 22:33;CYYC 022233Z 35010KT 8SM FEW030 SCT050 OVC090 M25/ RMK SC1SC2AC3

CYYC;2009-01-02 23:00;CYYC 022300Z 35008KT 10SM FEW040 BKN080 M25/M30 A2967 RMK SC2AC2 SLP157

CYYC;2009-01-03 00:00;CYYC 030000Z 35004KT 10SM FEW040 SCT070 BKN090 M25/M29 A2970 RMK SC2AC2AC2 SLP170

CYYC;2009-01-03 01:00;CYYC 030100Z 03005KT 10SM BKN090 M25/M30 A2973 RMK AC5 SLP179

CYYC;2009-01-03 02:00;CYYC 030200Z 03008KT 15SM SCT070 M27/M31 A2975 RMK AC2 SLP187

CYYC;2009-01-03 03:00;CYYC 030300Z 01004KT 15SM FEW068 M27/M32 A2979 RMK AC2 SLP206

CYYC;2009-01-03 04:00;CYYC 030400Z 32002KT 15SM BKN065 M26/M30 A2980 RMK SC5 SLP211

CYYC;2009-01-03 05:00;CYYC 030500Z 32002KT 15SM SCT065 OVC079 M26/M29 A2981 RMK SC3AC3 SLP212

CYYC;2009-01-03 06:00;CYYC 030600Z 19003KT 15SM FEW065 SCT079 M26/M30 A2982 RMK SC1AC1 SLP217

CYYC;2009-01-03 07:00;CYYC 030700Z 18003KT 15SM FEW080 M27/M30 A2983 RMK AC1 AC TR SLP219

CYYC;2009-01-03 08:00;CYYC 030800Z 20004KT 15SM FEW078 M27/M30 A2983 RMK AC1 SLP218

CYYC;2009-01-03 09:00;CYYC 030900Z 19005KT 15SM SKC M27/M30 A2985 RMK SLP227

CYYC;2009-01-03 10:00;CYYC 031000Z 19006KT 15SM SKC M27/M31 A2986 RMK SLP232

CYYC;2009-01-03 11:00;CYYC 031100Z 22006KT 15SM SKC M27/M31 A2987 RMK SLP234

CYYC;2009-01-03 12:00;CYYC 031200Z 20006KT 15SM SKC M27/M31 A2988 RMK SNOW COVER/MEDIUM PACK SLP241

CYYC;2009-01-03 13:00;CYYC 031300Z 22002KT 15SM SKC M28/M32 A2988 RMK SLP242

CYYC;2009-01-03 14:00;CYYC 031400Z 20003KT 15SM SKC M28/M32 A2989 RMK SLP245

CYYC;2009-01-03 15:00;CYYC 031500Z 19008KT 40SM SKC M28/M32 A2989 RMK SLP251

CYYC;2009-01-03 16:00;CYYC 031600Z CCA 21006KT 40SM SKC M27/M30 A2990 RMK FROIN SLP253

CYYC;2009-01-03 17:00;CYYC 031700Z 22005KT 40SM SKC M25/M28 A2991 RMK FROIN SLP256

CYYC;2009-01-03 18:00;CYYC 031800Z 21004KT 40SM SKC M21/M25 A2991 RMK SLP243

CYYC;2009-01-03 19:00;CYYC 031900Z 24002KT 40SM SKC M20/M25 A2990 RMK SLP242

CYYC;2009-01-03 20:00;CYYC 032000Z 19002KT 40SM FEW140 M17/M24 A2989 RMK AC1 SLP237

CYYC;2009-01-03 21:00;CYYC 032100Z 20005KT 40SM FEW040 FEW140 M13/M22 A2987 RMK SC1AC1 SLP220

CYYC;2009-01-03 22:00;CYYC 032200Z 21003KT 40SM FEW030 FEW140 M13/M23 A2987 RMK SC1AC1 SLP220

CYYC;2009-01-03 23:00;CYYC 032300Z 19005KT 40SM FEW030 FEW160 M12/M23 A2988 RMK SC1AC1 SLP222

CYYC;2009-01-04 00:00;CYYC 040000Z 22006KT 40SM FEW040 FEW090 M13/M23 A2989 RMK SC1AC1 SLP227

CYYC;2009-01-04 01:00;CYYC 040100Z 25007KT 40SM FEW040 FEW120 M11/M23 A2990 RMK SC1AC1 SLP230

CYYC;2009-01-04 02:00;CYYC 040200Z 25008KT 15SM FEW150 M13/M23 A2990 RMK AC1 SLP230

CYYC;2009-01-04 03:00;CYYC 040300Z 27006KT 15SM SCT150 M12/M22 A2989 RMK AC2 SLP228

CYYC;2009-01-04 04:00;CYYC 040400Z 00000KT 15SM BKN130 M09/M21 A2989 RMK AC6 SLP228

CYYC;2009-01-04 05:00;CYYC 040500Z 26013KT 15SM FEW120 M09/M20 A2989 RMK AC1 SLP226

CYYC;2009-01-04 06:00;CYYC 040600Z CCA 27016KT 15SM DRSN FEW120 M08/M20 A2988 RMK AC1 SLP208

CYYC;2009-01-04 07:00;CYYC 040700Z 27019G24KT 15SM DRSN SKC M08/M20 A2989 RMK SLP209

CYYC;2009-01-04 08:00;CYYC 040800Z 27017KT 15SM DRSN SKC M08/M20 A2989 RMK SLP211

CYYC;2009-01-04 09:00;CYYC 040900Z 27017KT 15SM DRSN SKC M08/M20 A2989 RMK SLP200

CYYC;2009-01-04 10:00;CYYC 041000Z 27017KT 15SM DRSN SKC M08/M19 A2990 RMK SLP201

CYYC;2009-01-04 11:00;CYYC 041100Z 27019KT 15SM DRSN SKC M08/M19 A2990 RMK SLP201

CYYC;2009-01-04 12:00;CYYC 041200Z 27018KT 15SM DRSN SKC M08/M19 A2990 RMK SNOW COVER/ MEDIUM PACK SLP201

CYYC;2009-01-04 13:00;CYYC 041300Z 27017KT 15SM DRSN SKC M08/M19 A2989 RMK SLP200

CYYC;2009-01-04 14:00;CYYC 041400Z 29008KT 15SM SKC M08/M19 A2990 RMK SLP201

CYYC;2009-01-04 15:00;CYYC 041500Z 12005KT 15SM FEW140 FEW240 M09/M19 A2989 RMK AC1CI1 SLP198

CYYC;2009-01-04 16:00;CYYC 041600Z 00000KT 30SM FEW036 FEW090 M11/M20 A2989 RMK CU1AC1 SLP197

CYYC;2009-01-04 17:00;CYYC 041700Z 17006KT 40SM FEW048 FEW100 M06/M18 A2988 RMK CU1AC1 SLP195

CYYC;2009-01-04 18:00;CYYC 041800Z 18011KT 40SM FEW044 FEW110 M06/M17 A2986 RMK CU1AC1 SLP177

CYYC;2009-01-04 19:00;CYYC 041900Z 18006KT 40SM FEW032 FEW110 M07/M16 A2982 RMK SC1AC1 SLP164

CYYC;2009-01-04 20:00;CYYC 042000Z 19007KT 40SM FEW040 FEW250 M06/M15 A2978 RMK CU1CI1 SLP151

CYYC;2009-01-04 21:00;CYYC 042100Z 18009KT 40SM FEW040 FEW250 M04/M16 A2974 RMK SC1CI1 DIST SH SW SLP132

CYYC;2009-01-04 22:00;CYYC 042200Z 18004KT 40SM FEW040 FEW250 M06/M15 A2970 RMK SC1CI0 DIST SH SW SLP122

CYYC;2009-01-04 23:00;CYYC 042300Z 18005KT 40SM FEW036 FEW100 FEW250 M06/M15 A2967 RMK SC1AC1CI0 SLP111

CYYC;2009-01-05 00:00;CYYC 050000Z 18004KT 40SM FEW040 FEW120 FEW240 M09/M15 A2964 RMK SC1AC1CI0 SLP103

CYYC;2009-01-05 01:00;CYYC 050100Z 19003KT 15SM FEW100 BKN230 M08/M14 A2959 RMK AC1CI0 SLP089

CYYC;2009-01-05 02:00;CYYC 050200Z 00000KT 15SM SCT120 OVC200 M09/M15 A2952 RMK AC2CI0 SLP069

CYYC;2009-01-05 03:00;CYYC 050300Z 16004KT 15SM BKN090 M09/M14 A2946 RMK AC6 PRESFR SLP042

CYYC;2009-01-05 04:00;CYYC 050400Z 19002KT 15SM BKN100 M08/M13 A2942 RMK AC6 SLP029

CYYC;2009-01-05 05:00;CYYC 050500Z CCA 15004KT 15SM OVC100 M08/M12 A2934 RMK AC7 PRESFR SLP006

CYYC;2009-01-05 06:00;CYYC 050600Z 00000KT 15SM SCT100 BKN170 M08/M13 A2931 RMK AC2AC4 SLP984

CYYC;2009-01-05 07:00;CYYC 050700Z 19009KT 15SM SCT100 BKN170 M08/M13 A2927 RMK AC2AC4 SLP972

CYYC;2009-01-05 08:00;CYYC 050800Z 21018G26KT 15SM FEW170 BKN240 M06/M13 A2920 RMK AC2CI2 SLP950

CYYC;2009-01-05 09:00;CYYC 050900Z CCA 27012KT 15SM FEW170 SCT240 M05/M13 A2919 RMK AC1CI2 SLP937

CYYC;2009-01-05 10:00;CYYC 051000Z 26015G24KT 15SM FEW120 BKN240 M02/M13 A2916 RMK AC1CI2 SLP927

CYYC;2009-01-05 11:00;CYYC 051100Z 25020G27KT 15SM DRSN BKN230 M02/M13 A2915 RMK CI2 SLP924

CYYC;2009-01-05 12:00;CYYC 051200Z CCA 26028G33KT 15SM DRSN BKN220 M02/M12 A2913 RMK CI2 SNOW CVR/MUCH LOOSE SLP919

CYYC;2009-01-05 13:00;CYYC 051300Z 27023G33KT 15SM DRSN BKN210 M02/M12 A2914 RMK CI2 SLP921

CYYC;2009-01-05 14:00;CYYC 051400Z 27021G28KT 15SM DRSN SCT210 M03/M13 A2917 RMK CI2 SLP929

CYYC;2009-01-05 15:00;CYYC 051500Z 27020G29KT 15SM DRSN SCT070 BKN220 M03/M13 A2920 RMK AC3CI2 SLP941

CYYC;2009-01-05 16:00;CYYC 051600Z 27018KT 40SM DRSN FEW070 FEW120 BKN220 M02/M13 A2920 RMK AC2AC1CI1 SLP943

CYYC;2009-01-05 17:00;CYYC 051700Z 27017G25KT 40SM DRSN FEW040 FEW080 FEW120 BKN230 M02/M13 A2922 RMK SC1AC1AC1CI1 SC TR SLP949

CYYC;2009-01-05 18:00;CYYC 051800Z 27018G24KT 40SM DRSN FEW045 FEW080 FEW120 BKN220 M01/M12 A2924 RMK SC1AC1AC1CI2 SC TR SLP953

CYYC;2009-01-05 19:00;CYYC 051900Z 27017G24KT 40SM DRSN FEW045 FEW080 SCT180 BKN230 M00/M11 A2925 RMK SC1AC1AC2CI2 SLP956

CYYC;2009-01-05 20:00;CYYC 052000Z 27017G25KT 40SM DRSN FEW050 FEW080 SCT180 BKN240 00/M11 A2925 RMK SC1AC1AC2CI2 SLP958

CYYC;2009-01-05 21:00;CYYC 052100Z 27016KT 40SM DRSN FEW050 FEW080 SCT180 BKN240 01/M11 A2926 RMK SC1AC1AC2CI2 SLP954

CYYC;2009-01-05 22:00;CYYC 052200Z 27014KT 40SM FEW045 FEW090 FEW180 FEW240 01/M11 A2927 RMK CU1AC1AC1CI1 SLP955

CYYC;2009-01-05 23:00;CYYC 052300Z 26013KT 40SM FEW045 FEW180 01/M10 A2928 RMK SC1AC1 SC+AC TR SLP959

CYYC;2009-01-06 00:00;CYYC 060000Z 27020G25KT 40SM DRSN FEW040 FEW070 00/M10 A2932 RMK SC1AC1 SC TR SLP973

CYYC;2009-01-06 01:00;CYYC 060100Z 26013KT 15SM FEW040 FEW080 SCT170 M01/M10 A2934 RMK SC1AC1AC2 SC TR SLP977

CYYC;2009-01-06 02:00;CYYC 060200Z 26013G18KT 15SM FEW080 FEW170 M01/M11 A2936 RMK AC1AC1 LWR AC TR SLP983

CYYC;2009-01-06 03:00;CYYC 060300Z 27010G15KT 15SM FEW080 FEW170 M01/M11 A2938 RMK AC1AC1 SLP994

CYYC;2009-01-06 04:00;CYYC 060400Z 26004KT 15SM SKC M02/M12 A2939 RMK SLP998

CYYC;2009-01-06 05:00;CYYC 060500Z CCA 24006KT 15SM FEW045 00/M12 A2940 RMK CU1 SLP000

CYYC;2009-01-06 06:00;CYYC 060600Z 27015KT 15SM FEW050 M00/M11 A2942 RMK CU1 SLP004

CYYC;2009-01-06 07:00;CYYC 060700Z 26013KT 15SM SKC M01/M11 A2942 RMK SLP007

CYYC;2009-01-06 08:00;CYYC 060800Z 27015KT 15SM SKC M01/M11 A2944 RMK SLP013

CYYC;2009-01-06 09:00;CYYC 060900Z 27015KT 15SM FEW120 M01/M11 A2946 RMK AC1 SLP019

CYYC;2009-01-06 10:00;CYYC 061000Z 27013KT 15SM FEW120 M01/M11 A2949 RMK AC1 SLP026

CYYC;2009-01-06 11:00;CYYC 061100Z 27009KT 15SM FEW120 M01/M11 A2951 RMK AC1 SLP032

CYYC;2009-01-06 11:45;CYYC 061145Z 36010G15KT 15SM FEW120 M07/ RMK AC1 WSHFT 1140

CYYC;2009-01-06 12:00;CYYC 061200Z 35009KT 15SM FEW120 FEW250 M08/M12 A2957 RMK AC1CI0 SNOW CVR/MUCH LOOSE SLP065

CYYC;2009-01-06 13:00;CYYC 061300Z 34008KT 15SM FEW100 FEW250 M07/M11 A2958 RMK AC1CI0 SLP069

CYYC;2009-01-06 14:00;CYYC 061400Z 32006KT 15SM FEW100 M07/M10 A2959 RMK AC1 SLP072

CYYC;2009-01-06 15:00;CYYC 061500Z 32005KT 20SM FEW100 BKN230 M10/M11 A2961 RMK AC1CI2 SLP085

CYYC;2009-01-06 16:00;CYYC 061600Z CCA 00000KT 40SM FEW100 BKN230 M10/M12 A2963 RMK AC1CI2 SLP091

CYYC;2009-01-06 17:00;CYYC 061700Z 00000KT 40SM FEW050 FEW100 BKN210 M09/M11 A2964 RMK SC1AC2CI3 SLP094

CYYC;2009-01-06 18:00;CYYC 061800Z 00000KT 40SM FEW050 FEW100 BKN220 M09/M11 A2964 RMK SC1AC2CS3 SLP095

CYYC;2009-01-06 19:00;CYYC 061900Z 18002KT 40SM FEW050 FEW140 BKN230 M08/M10 A2962 RMK SC1AC2CS4 SLP088

CYYC;2009-01-06 20:00;CYYC 062000Z 00000KT 40SM FEW050 FEW100 BKN140 BKN220 M07/M09 A2961 RMK SC1AC2AC2CS2 SLP083

CYYC;2009-01-06 21:00;CYYC 062100Z 11006KT 40SM FEW050 BKN110 BKN220 M05/M08 A2958 RMK SC1AC5CS2 SLP067

CYYC;2009-01-06 22:00;CYYC 062200Z 10006KT 40SM FEW050 BKN120 BKN220 M06/M08 A2957 RMK SC1AS6CS1 SLP065

CYYC;2009-01-06 23:00;CYYC 062300Z 12008KT 40SM FEW050 FEW080 OVC140 M06/M08 A2956 RMK SC1AC2AS5 SLP063

CYYC;2009-01-07 00:00;CYYC 070000Z 14010KT 30SM BKN060 BKN080 OVC140 M06/M09 A2954 RMK SC5AC2AS1 SLP065

CYYC;2009-01-07 01:00;CYYC 070100Z 13010KT 15SM BKN027 OVC060 M07/M09 A2952 RMK SC6SC2 SLP060

CYYC;2009-01-07 01:47;CYYC 070147Z 13008KT 15SM FEW010 OVC026 M07/ RMK SC1SC8

CYYC;2009-01-07 02:00;CYYC 070200Z 13008KT 15SM FEW010 OVC025 M07/M09 A2953 RMK SC1SC8 SLP062

CYYC;2009-01-07 02:20;CYYC 070220Z 14010KT 10SM -SN OVC025 M07/ RMK SC8

CYYC;2009-01-07 03:00;CYYC 070300Z 14010G15KT 6SM -SN BKN025 OVC050 M08/M09 A2949 RMK SC7SC1 SLP052

CYYC;2009-01-07 04:00;CYYC 070400Z 14010KT 15SM -SN BKN024 OVC090 M08/M09 A2947 RMK SC5AC3 SLP047

CYYC;2009-01-07 04:28;CYYC 070428Z 14012KT 15SM BKN019 OVC090 M08/ RMK SC6AC2

CYYC;2009-01-07 04:51;CYYC 070451Z 15009KT 15SM BKN012 OVC019 M08/ RMK SC7SC1

CYYC;2009-01-07 05:00;CYYC 070500Z 16008KT 15SM BKN014 OVC020 M08/M09 A2945 RMK SC6SC2 SLP040

CYYC;2009-01-07 06:00;CYYC 070600Z 15007KT 15SM OVC010 M08/M09 A2942 RMK SC8 SLP030

CYYC;2009-01-07 06:47;CYYC 070647Z 16008KT 4SM BR OVC006 M08/ RMK ST8

CYYC;2009-01-07 07:00;CYYC 070700Z CCA 16006KT 3SM BR OVC006 M08/M08 A2942 RMK ST8 SLP027

CYYC;2009-01-07 07:25;CYYC 070725Z 15010KT 3SM BR OVC004 M08/ RMK ST8

CYYC;2009-01-07 07:46;CYYC 070746Z 15009KT 2SM BR OVC003 M08/ RMK ST8

CYYC;2009-01-07 08:00;CYYC 070800Z 14008KT 1 3/4SM BR OVC003 M08/M08 A2939 RMK ST8 SLP018

CYYC;2009-01-07 08:23;CYYC 070823Z 15009KT 1SM -SG BR OVC002 M08/ RMK ST8 RVR RWY16 6000 FT

CYYC;2009-01-07 08:50;CYYC 070850Z 14008KT 3/4SM -SG BR OVC003 M08/ RMK FG5ST3 RVR RWY16 6000 FT

CYYC;2009-01-07 09:00;CYYC 070900Z 14007KT 5/8SM -SG BR OVC003 M08/M08 A2938 RMK FG6ST2 RVR RWY34 6000 FT SLP007

CYYC;2009-01-07 09:20;CYYC 070920Z 15008KT 1/2SM -SG FZFG OVC002 M09/ RMK FG7ST1 RVR RWY16 4000 FT

CYYC;2009-01-07 09:28;CYYC 070928Z CCA 14006KT 1/4SM -SG FZFG VV001 M09/ RMK FG8 RVR RWY34 3500 FT

CYYC;2009-01-07 10:00;CYYC 071000Z 12008KT 1/8SM -SG FZFG VV001 M09/M09 A2937 RMK FG8 RVR RWY16 2800 FT SLP006

CYYC;2009-01-07 10:49;CYYC 071049Z 12007KT 1/8SM FZFG VV001 M10/ RMK FG8 RVR RWY16 2800 FT

CYYC;2009-01-07 11:00;CYYC 071100Z 13009KT 1/8SM FZFG VV001 M11/M11 A2937 RMK FG8 RVR RWY16 2600 FT SLP005

CYYC;2009-01-07 12:00;CYYC 071200Z CCA 12007KT 1/8SM FZFG VV001 M12/M12 A2937 RMK FG8 RVR RWY34 2200 FT/ RIME/ SNOW COVER/MEDIUM PACK SLP012

CYYC;2009-01-07 12:15;CYYC 071215Z CCA 11008KT 1/4SM FZFG VV002 M12/ RMK FG8 RVR RWY34 2200 FT /RIME

CYYC;2009-01-07 13:00;CYYC 071300Z 15006KT 1/8SM FZFG VV000 M12/M12 A2939 RMK FG8 RVR RWY16 2000 FT SLP016

CYYC;2009-01-07 14:00;CYYC 071400Z 14005KT 1/4SM FZFG VV004 M12/M12 A2940 RMK FG8 RVR RWY16 1600 FT/ CIG VRB 3-5 SLP019

CYYC;2009-01-07 14:13;CYYC 071413Z 14007KT 0SM FZFG VV001 M12/ RMK FG8 RVR RWY28 2000 FT

CYYC;2009-01-07 14:39;CYYC 071439Z 14007KT 1/4SM -SN FZFG VV001 M12/ RMK FG8 RVR RWY16 1600 FT

CYYC;2009-01-07 15:00;CYYC 071500Z 14006KT 1/4SM -SN FZFG VV002 M13/M13 A2940 RMK FG8 RVR RWY16 1600 FT SLP023

CYYC;2009-01-07 16:00;CYYC 071600Z 15005KT 1/2SM -SN FZFG OVC006 M12/M12 A2942 RMK FG6SC2 RVR RWY16 5500 FT / RIME SLP032

CYYC;2009-01-07 16:35;CYYC 071635Z 15003KT 3/4SM -SN BR OVC006 M12/ RMK FG6SC2 RVR RWY16 6000+FT / VIS W 2

CYYC;2009-01-07 17:00;CYYC 071700Z 18006KT 1SM -SN BR OVC006 M12/M12 A2943 RMK FG5SC3 RVR RWY16 6000+FT / VIS W 2 / RIME SLP034

CYYC;2009-01-07 18:00;CYYC 071800Z 19005KT 1SM -SN BR OVC007 M11/M11 A2944 RMK FG4SC4 RVR RWY16 6000+FT / VIS SW 4 SLP038

CYYC;2009-01-07 18:39;CYYC 071839Z 19004KT 4SM -SN OVC007 M11/ RMK SC8

CYYC;2009-01-07 19:00;CYYC 071900Z 17004KT 3SM -SN OVC007 M11/M11 A2943 RMK SC8 SLP035

CYYC;2009-01-07 20:00;CYYC 072000Z 12005KT 3SM -SN BR BKN007 OVC011 M11/M12 A2942 RMK SC6SC2 VIS E-S 11/2 SLP030

CYYC;2009-01-07 20:16;CYYC 072016Z CCA 11003KT 3SM -SN -FZDZ BR BKN006 OVC010 M11/ RMK ST6SC2 VIS NE-S 11/2

CYYC;2009-01-07 20:42;CYYC 072042Z CCA 10004KT 2SM -SN BR BKN007 OVC010 M11/ RMK SC6SC2 RVR RWY16 4500FT / VIS NE-SE 1

CYYC;2009-01-07 21:00;CYYC 072100Z 09004KT 2SM -SN BR FEW002 OVC006 M11/M12 A2942 RMK SC1SC7 SLP031

CYYC;2009-01-07 21:26;CYYC 072126Z CCA 09003KT 1/2SM -SN FZFG FEW002 OVC006 M11/ RMK SC1SC7 RVR RWY16 3500FT

CYYC;2009-01-07 22:00;CYYC 072200Z 09003KT 1/2SM -SN FZFG SCT002 OVC009 M11/M12 A2943 RMK SC3SC5 RVR RWY16 4500FT / SN VRY LGT SLP035

CYYC;2009-01-07 23:00;CYYC 072300Z 09002KT 3SM -SN BR SCT002 OVC007 M12/M12 A2945 RMK SC3SC3 RVR RWY16 4500FT / SN VRY LGT SLP042

CYYC;2009-01-07 23:18;CYYC 072318Z 09002KT 3SM -SN BR SCT006 SCT080 SCT140 M12/ RMK SC2AC1AC1

CYYC;2009-01-08 00:00;CYYC 080000Z 08002KT 3SM -SN BR BKN006 BKN120 BKN200 M13/M13 A2948 RMK SC4AC1CI1 SLP059

CYYC;2009-01-08 01:00;CYYC 080100Z 19004KT 4SM -SN BKN005 BKN210 M12/M13 A2945 RMK SC4CI1 SN VRY LGT SLP051

CYYC;2009-01-08 02:00;CYYC 080200Z 19004KT 5SM -SN FEW005 FEW110 BKN200 M12/M13 A2945 RMK SC2AC1CS2 SN VRY LGT SLP049

CYYC;2009-01-08 03:00;CYYC 080300Z 14003KT 5SM -SN BKN170 OVC240 M12/M12 A2944 RMK AS5CS3 HALO SLP045

CYYC;2009-01-08 04:00;CYYC 080400Z 16004KT 5SM -SN BKN180 OVC220 M12/M13 A2944 RMK AS6CS2 SLP046

CYYC;2009-01-08 05:00;CYYC 080500Z 16004KT 4SM -SN OVC150 M12/M13 A2943 RMK AC8 SLP043

CYYC;2009-01-08 06:00;CYYC 080600Z 16004KT 4SM -SN BR OVC150 M12/M12 A2942 RMK AC8 SLP036

CYYC;2009-01-08 07:00;CYYC 080700Z 15004KT 2SM -SN BR BKN002 OVC110 M12/M13 A2942 RMK ST6AC2 SLP035

CYYC;2009-01-08 07:19;CYYC 080719Z 15003KT 2SM BR OVC001 M12/ RMK ST8

CYYC;2009-01-08 07:44;CYYC 080744Z 18004KT 4SM BR FEW002 BKN170 OVC230 M12/ RMK ST1AC5CS2

CYYC;2009-01-08 08:00;CYYC 080800Z 18003KT 4SM BR FEW002 OVC170 M12/M13 A2939 RMK ST2AC6 SLP027

CYYC;2009-01-08 09:00;CYYC 080900Z 15002KT 4SM BR BKN120 OVC180 M12/M12 A2937 RMK AC5AC2 SLP018

CYYC;2009-01-08 10:00;CYYC 081000Z 15003KT 4SM BR FEW110 BKN170 OVC230 M12/M12 A2936 RMK AC2AC5CS2 SLP015

CYYC;2009-01-08 11:00;CYYC 081100Z 17005KT 4SM BR FEW110 OVC230 M13/M14 A2934 RMK AC2CS6 SLP011

CYYC;2009-01-08 12:00;CYYC 081200Z 13003KT 5SM BR OVC160 M12/M13 A2932 RMK AC8 SNOW COVER/MEDIUM PACK SLP005

CYYC;2009-01-08 13:00;CYYC 081300Z 31002KT 5SM BR BKN095 BKN160 OVC230 M12/M12 A2931 RMK AC5AC2CI1 SLP002

CYYC;2009-01-08 14:00;CYYC 081400Z 36007KT 6SM BR BKN092 BKN190 OVC230 M12/M13 A2933 RMK AC5AC2CI1 SLP008

CYYC;2009-01-08 14:29;CYYC 081429Z 36010KT 6SM -SN BR SCT095 BKN180 OVC230 M13/ RMK AC4AC3CI1

CYYC;2009-01-08 15:00;CYYC 081500Z 36009KT 6SM -SN BR SCT090 BKN160 OVC200 M13/M14 A2935 RMK AC4AC2CI1 SLP014

CYYC;2009-01-08 15:15;CYYC 081515Z 36008KT 3SM -SN BR FEW008 BKN080 BKN160 OVC200 M13/ RMK SC2AC3AC2CI0

CYYC;2009-01-08 15:39;CYYC 081539Z 36010KT 2 1/2SM -SN BR FEW008 BKN090 BKN160 OVC200 M13/ RMK SC2AC3AC2CI0

CYYC;2009-01-08 16:00;CYYC 081600Z 35010KT 4SM -SN BR SCT010 BKN100 BKN120 OVC200 M13/M14 A2938 RMK SC3AC2AC2CI0 SLP023

CYYC;2009-01-08 17:00;CYYC 081700Z 35010KT 4SM -SN BR SCT011 BKN060 OVC120 M13/M14 A2941 RMK SC4SC2AC2 SLP033

CYYC;2009-01-08 18:00;CYYC 081800Z 35010KT 5SM -SN BR FEW011 BKN060 OVC080 M14/M14 A2944 RMK SC2SC3AS2 SLP049

CYYC;2009-01-08 19:00;CYYC 081900Z 33010KT 5SM -SN BR FEW011 BKN060 OVC080 M14/M15 A2947 RMK SC2SC3AS2 SLP057

CYYC;2009-01-08 20:00;CYYC 082000Z 35011KT 5SM -SN BR FEW020 BKN060 OVC130 M14/M15 A2949 RMK SC2SC3AS2 SLP064

CYYC;2009-01-08 20:20;CYYC 082020Z 34011KT 2 1/2SM -SN BR SCT020 BKN060 OVC130 M14/ RMK SC4SC3AS1

CYYC;2009-01-08 20:49;CYYC 082049Z 34013KT 1 1/4SM -SN SCT011 BKN020 OVC060 M15/ RMK SC4SC3SC1

CYYC;2009-01-08 21:00;CYYC 082100Z 36014KT 1SM -SN SCT011 OVC020 M15/M16 A2953 RMK SC4SC4 RVR RWY 34 6000 FT SLP082

CYYC;2009-01-08 21:35;CYYC 082135Z 34013KT 1SM -SN BKN009 OVC023 M15/ RMK SC5SC3

CYYC;2009-01-08 22:00;CYYC 082200Z 36012G17KT 1SM -SN DRSN BKN010 OVC024 M16/M17 A2959 RMK SC5SC3 RVR RWY 34 6000 FT SLP100

CYYC;2009-01-08 23:00;CYYC 082300Z 36017KT 1SM -SN DRSN BKN013 OVC024 M16/M17 A2964 RMK SC5SC3 /S02/ RVR RWY 34 6000FT SLP115

CYYC;2009-01-08 23:16;CYYC 082316Z CCA 36013KT 3SM -SN DRSN BKN021 OVC040 M16/ RMK SC5SC3

CYYC;2009-01-08 23:42;CYYC 082342Z 36014KT 8SM DRSN BKN021 OVC040 M16/ RMK SC5SC3

CYYC;2009-01-09 00:00;CYYC 090000Z CCA 36014KT 8SM DRSN BKN019 OVC040 M16/M17 A2970 RMK SC5SC3 SLP142

CYYC;2009-01-09 01:00;CYYC 090100Z CCA 34011KT 4SM -SN DRSN OVC016 M15/M17 A2976 RMK SC8 PRESRR SLP159

CYYC;2009-01-09 02:00;CYYC 090200Z 35012KT 4SM -SN DRSN OVC020 M15/M17 A2980 RMK SC8 VIS VRB 3-5 SLP172

CYYC;2009-01-09 02:21;CYYC 090221Z 36010KT 2SM -SN DRSN BKN009 OVC019 M15/ RMK SC6SC2

CYYC;2009-01-09 03:00;CYYC 090300Z 32012KT 10SM -SN DRSN FEW025 BKN100 BKN220 M15/M17 A2986 RMK SC1AC5CI2 SLP199

CYYC;2009-01-09 03:31;CYYC 090331Z 36010KT 12SM FEW025 OVC098 M15/ RMK SC1AC6

CYYC;2009-01-09 04:00;CYYC 090400Z 35008KT 10SM FEW030 OVC096 M16/M18 A2992 RMK SC1AC6 SLP216

CYYC;2009-01-09 05:00;CYYC 090500Z 36007KT 10SM FEW095 BKN110 M16/M18 A2995 RMK AC2AC4 SLP226

CYYC;2009-01-09 06:00;CYYC 090600Z 36005KT 12SM SCT083 OVC110 M16/M18 A2999 RMK AC3AC4 SLP245

CYYC;2009-01-09 07:00;CYYC 090700Z 36004KT 12SM BKN071 OVC110 M15/M17 A3003 RMK AC6AC2 SLP256

CYYC;2009-01-09 08:00;CYYC 090800Z 00000KT 12SM BKN079 BKN110 M15/M17 A3006 RMK AC6AC2 SLP265

CYYC;2009-01-09 09:00;CYYC 090900Z 20004KT 12SM BKN077 OVC089 M14/M16 A3006 RMK AC6AC2 SLP271

CYYC;2009-01-09 10:00;CYYC 091000Z 20008KT 12SM FEW062 SCT079 M15/M17 A3009 RMK SC1AC2 SLP279

CYYC;2009-01-09 11:00;CYYC 091100Z 19008KT 12SM FEW065 FEW080 M16/M17 A3011 RMK SC1AC1 SC TR SLP284

CYYC;2009-01-09 12:00;CYYC 091200Z 22008KT 15SM FEW230 M15/M16 A3013 RMK CI1 SNOW COVER/MUCH LOOSE SLP295

CYYC;2009-01-09 13:00;CYYC 091300Z 00000KT 15SM FEW230 M16/M17 A3012 RMK CI1 CI TR SLP294

CYYC;2009-01-09 14:00;CYYC 091400Z 19008KT 15SM SKC M15/M16 A3011 RMK SLP290

CYYC;2009-01-09 15:00;CYYC 091500Z 19005KT 15SM SCT240 M17/M18 A3011 RMK CI2 SLP289

CYYC;2009-01-09 16:00;CYYC 091600Z 21006KT 40SM FEW180 BKN220 M14/M15 A3009 RMK AC2CC2 ACSL W SLP284

CYYC;2009-01-09 17:00;CYYC 091700Z 18005KT 40SM FEW180 BKN200 M15/M16 A3010 RMK AC2CI2 ACSL W SLP286

CYYC;2009-01-09 18:00;CYYC 091800Z 18006KT 40SM FEW180 BKN200 M11/M13 A3006 RMK AC2CI2 ACSL SLP266

CYYC;2009-01-09 19:00;CYYC 091900Z 19007KT 40SM SCT180 BKN200 M10/M12 A3003 RMK AC3CI3 SLP256

CYYC;2009-01-09 20:00;CYYC 092000Z 20008KT 40SM FEW160 BKN180 OVC220 M07/M10 A2999 RMK AC2AC3CI2 SLP244

CYYC;2009-01-09 21:00;CYYC 092100Z 20005KT 40SM FEW016 FEW140 BKN160 OVC240 M06/M10 A2996 RMK CU1AC2AC5CI0 SLP222

CYYC;2009-01-09 22:00;CYYC 092200Z 26023KT 40SM FEW032 FEW160 BKN180 OVC220 02/M10 A2994 RMK CU1AC2AC5CI0 CU TR SLP215

CYYC;2009-01-09 23:00;CYYC 092300Z 25013KT 40SM FEW036 SCT170 BKN220 01/M10 A2996 RMK CU1AC3CI2 SLP222

CYYC;2009-01-10 00:00;CYYC 100000Z 26015G22KT 30SM FEW028 FEW150 BKN210 02/M08 A2996 RMK CU1AC2CI4 CU TR SLP210

CYYC;2009-01-10 01:00;CYYC 100100Z 25016G21KT 15SM FEW180 SCT200 BKN220 02/M08 A2997 RMK AC2CI2CI2 SLP213

CYYC;2009-01-10 02:00;CYYC 100200Z 24016KT 15SM FEW180 BKN220 01/M09 A2995 RMK AC2CI4 SLP207

CYYC;2009-01-10 02:31;CYYC 100231Z 24017G25KT 15SM FEW180 BKN220 02/ RMK AC2CI4

CYYC;2009-01-10 03:00;CYYC 100300Z 24020G25KT 15SM DRSN BKN140 OVC210 02/M09 A2993 RMK AC6CI2 SLP203

CYYC;2009-01-10 04:00;CYYC 100400Z 26021KT 15SM DRSN BKN130 OVC210 02/M09 A2993 RMK AC7CI1 SLP201

CYYC;2009-01-10 05:00;CYYC 100500Z 26024G29KT 15SM DRSN BKN140 OVC210 02/M09 A2992 RMK AC6CI2 SLP200

CYYC;2009-01-10 06:00;CYYC 100600Z CCA 27020G25KT 15SM DRSN FEW120 BKN240 02/M09 A2991 RMK AC2CI3 SLP188

CYYC;2009-01-10 07:00;CYYC 100700Z 29011G18KT 15SM DRSN FEW120 SCT230 01/M09 A2991 RMK AC2CI2 SLP187

CYYC;2009-01-10 08:00;CYYC 100800Z CCA 26022G27KT 15SM DRSN SCT170 BKN230 01/M09 A2989 RMK AC3CI2 SLP182

CYYC;2009-01-10 09:00;CYYC 100900Z 27024G30KT 15SM DRSN SCT160 BKN230 02/M09 A2992 RMK AC4CI2 SLP184

CYYC;2009-01-10 10:00;CYYC 101000Z 25029G35KT 15SM DRSN FEW130 SCT170 BKN210 01/M08 A2990 RMK AC2AC2CI2 SLP179

CYYC;2009-01-10 11:00;CYYC 101100Z CCA 27023G30KT 15SM DRSN FEW140 FEW230 02/M09 A2995 RMK AC1CI1 SLP193

CYYC;2009-01-10 12:00;CYYC 101200Z 27015G20KT 15SM DRSN FEW140 FEW230 02/M09 A2996 RMK AC1CI2 SNOW COVER/MUCH LOOSE SLP187

CYYC;2009-01-10 13:00;CYYC 101300Z 28004KT 15SM FEW140 FEW230 01/M10 A2997 RMK AC1CI1 AC TR SLP190

CYYC;2009-01-10 14:00;CYYC 101400Z 29009KT 15SM FEW160 FEW240 00/M09 A2996 RMK AC1CI0 SLP187

CYYC;2009-01-10 15:00;CYYC 101500Z 29016G21KT 15SM FEW160 FEW240 01/M09 A2997 RMK AC1CI0 SLP190

CYYC;2009-01-10 16:00;CYYC 101600Z 27016KT 40SM FEW032 FEW160 01/M09 A2997 RMK CU1AC1 CU TR SLP191

CYYC;2009-01-10 17:00;CYYC 101700Z 27014KT 40SM FEW032 FEW160 FEW240 02/M09 A3000 RMK CU1AC1CI1 CU+CI TR SLP199

CYYC;2009-01-10 18:00;CYYC 101800Z 26017KT 40SM FEW044 FEW160 FEW240 02/M09 A3001 RMK CU1AC2CI1 CU+CI TR SLP204

CYYC;2009-01-10 19:00;CYYC 101900Z 26019KT 40SM FEW052 FEW160 FEW240 04/M09 A3001 RMK CU1AC2CI1 CU+CI TR SLP204

CYYC;2009-01-10 20:00;CYYC 102000Z 29016KT 40SM FEW052 FEW160 SCT240 04/M09 A3002 RMK CU1AC2CI1 CU TR SLP206

CYYC;2009-01-10 21:00;CYYC 102100Z 26011KT 40SM FEW048 FEW160 BKN240 04/M08 A3003 RMK CU1AC2CI2 CU TR SLP209

CYYC;2009-01-10 22:00;CYYC 102200Z 27008KT 40SM FEW048 FEW160 BKN240 03/M09 A3004 RMK CU1AC2CI2 SLP210

CYYC;2009-01-10 23:00;CYYC 102300Z CCA 26009G15KT 40SM FEW048 FEW100 BKN240 03/M09 A3006 RMK CU1AC2CI2 CU TR SLP217

CYYC;2009-01-10 23:40;CYYC 102340Z 36006KT 40SM FEW028 FEW100 BKN240 M01/ RMK CU1AC2CI3

CYYC;2009-01-11 00:00;CYYC 110000Z 01005KT 30SM FEW024 FEW100 BKN240 M02/M08 A3008 RMK CU1AC1CI5 CU TR SLP236

CYYC;2009-01-11 01:00;CYYC 110100Z 34005KT 15SM OVC220 M04/M08 A3010 RMK CI7 SLP241

CYYC;2009-01-11 02:00;CYYC 110200Z 33005KT 15SM OVC210 M02/M10 A3010 RMK CI6 SLP241

CYYC;2009-01-11 03:00;CYYC 110300Z 34002KT 15SM BKN170 OVC210 M03/M10 A3012 RMK AC5CS1 SLP249

CYYC;2009-01-11 04:00;CYYC 110400Z 15002KT 15SM OVC160 M04/M09 A3010 RMK AC6 SLP245

CYYC;2009-01-11 05:00;CYYC 110500Z 17004KT 15SM OVC150 M02/M09 A3009 RMK AC6 SLP240

CYYC;2009-01-11 06:00;CYYC 110600Z 18005KT 15SM FEW120 SCT160 BKN210 M04/M10 A3007 RMK AC1AC2CI2 SLP232

CYYC;2009-01-11 07:00;CYYC 110700Z 27003KT 15SM BKN120 BKN210 M04/M09 A3006 RMK AC6CI1 SLP228

CYYC;2009-01-11 08:00;CYYC 110800Z 19005KT 15SM BKN120 BKN210 M04/M09 A3003 RMK AC6CI1 SLP221

CYYC;2009-01-11 09:00;CYYC 110900Z 18008KT 15SM SCT120 BKN210 M05/M09 A2999 RMK AC2CI2 SLP202

CYYC;2009-01-11 10:00;CYYC 111000Z 16004KT 15SM BKN180 BKN230 M03/M09 A2995 RMK AC5CI1 SLP192

CYYC;2009-01-11 11:00;CYYC 111100Z CCA 19004KT 15SM FEW140 BKN230 M04/M09 A2991 RMK AC1CI4 SLP178

CYYC;2009-01-11 12:00;CYYC 111200Z 17005KT 15SM FEW070 BKN120 M04/M08 A2987 RMK AC2AC3 SLP169

CYYC;2009-01-11 13:00;CYYC 111300Z 21007KT 15SM FEW075 BKN140 M03/M08 A2984 RMK AC1AC5 SLP160

CYYC;2009-01-11 14:00;CYYC 111400Z 23008KT 15SM FEW140 FEW220 M00/M08 A2982 RMK AC1CI1 SLP155

CYYC;2009-01-11 15:00;CYYC 111500Z 28007KT 15SM FEW062 03/M07 A2982 RMK SC1 SLP141

CYYC;2009-01-11 16:00;CYYC 111600Z 31010KT 40SM FEW030 FEW100 FEW230 02/M07 A2983 RMK SC1AC1CI1 DIST SH SW SLP145

CYYC;2009-01-11 17:00;CYYC 111700Z 30006KT 40SM FEW040 FEW100 FEW240 03/M07 A2985 RMK SC1AC1CI1 DIST SH SW+ NE SLP152

CYYC;2009-01-11 18:00;CYYC 111800Z 27018G24KT 40SM FEW040 FEW100 FEW240 05/M06 A2988 RMK SC1AC1CI0 DIST SH SW SLP163

CYYC;2009-01-11 19:00;CYYC 111900Z 26017G25KT 40SM FEW040 FEW120 FEW220 05/M06 A2989 RMK SC1AC1CI0 DIST SH SW+NE-N/CF ASOCTD SLP166

CYYC;2009-01-11 20:00;CYYC 112000Z 27017G22KT 40SM FEW050 FEW080 BKN110 BKN250 05/M06 A2990 RMK SC1AC1AC5CI0 DIST SH SW+NE SLP170

CYYC;2009-01-11 21:00;CYYC 112100Z 26020KT 40SM FEW050 BKN095 BKN250 05/M06 A2993 RMK SC1AC7CI1 DIST SH N-SW SLP180

CYYC;2009-01-11 22:00;CYYC 112200Z CCA 28016KT 40SM FEW044 BKN050 05/M07 A2997 RMK SC1SC7 DIST SH SW+N-E SLP192

CYYC;2009-01-11 23:00;CYYC 112300Z 28015KT 40SM FEW042 SCT065 BKN250 05/M08 A3001 RMK SC2SC2CI0 DIST SH ALQDS SLP206

CYYC;2009-01-12 00:00;CYYC 120000Z 31012KT 40SM FEW060 SCT082 SCT250 03/M07 A3006 RMK SC1AC3CI1 DIST SH SW-SE SLP228

CYYC;2009-01-12 01:00;CYYC 120100Z 35014KT 15SM FEW050 BKN080 BKN250 02/M07 A3011 RMK SC1AC6CI1 SLP242

CYYC;2009-01-12 02:00;CYYC 120200Z 33013KT 15SM FEW070 BKN080 00/M06 A3015 RMK AC1AC6 SLP254

CYYC;2009-01-12 03:00;CYYC 120300Z 34012KT 15SM BKN080 00/M06 A3019 RMK AC6 SLP266

CYYC;2009-01-12 04:00;CYYC 120400Z 34008KT 15SM BKN100 M01/M06 A3022 RMK AC5 SLP277

CYYC;2009-01-12 05:00;CYYC 120500Z 36008KT 15SM BKN100 M05/M06 A3025 RMK AC4 VIRGA SE SLP285

CYYC;2009-01-12 06:00;CYYC 120600Z 00000KT 15SM BKN090 M06/M07 A3027 RMK AC4 SLP301

CYYC;2009-01-12 07:00;CYYC 120700Z 16002KT 15SM FEW060 BKN100 M05/M06 A3029 RMK SC1AC6 SLP308

CYYC;2009-01-12 08:00;CYYC 120800Z 13006KT 15SM FEW014 BKN080 M05/M06 A3031 RMK SC2AC5 SLP312

CYYC;2009-01-12 09:00;CYYC 120900Z 18004KT 15SM FEW014 BKN080 M07/M08 A3032 RMK SC1AC5 SLP319

CYYC;2009-01-12 10:00;CYYC 121000Z 18006KT 15SM FEW100 M08/M08 A3031 RMK AC1 SLP318

CYYC;2009-01-12 11:00;CYYC 121100Z 20005KT 15SM FEW100 M07/M07 A3031 RMK AC1 SLP317

CYYC;2009-01-12 12:00;CYYC 121200Z CCA 20006KT 15SM FEW180 M07/M07 A3032 RMK AC1 SNOW CVR/MUCH LOOSE SLP322

CYYC;2009-01-12 13:00;CYYC 121300Z 19005KT 15SM SKC M07/M07 A3032 RMK FROIN SLP322

CYYC;2009-01-12 14:00;CYYC 121400Z 18005KT 15SM FEW160 SCT250 M10/M10 A3032 RMK AC1CS0 SLP322

CYYC;2009-01-12 15:00;CYYC 121500Z 18004KT 20SM FEW150 SCT240 M09/M09 A3030 RMK AC1CI2 SLP324

CYYC;2009-01-12 16:00;CYYC 121600Z 20006KT 40SM FEW150 SCT240 M09/M10 A3028 RMK AC1CI2 AC TR SLP317

CYYC;2009-01-12 17:00;CYYC 121700Z 21005KT 40SM FEW070 FEW150 BKN250 M06/M07 A3026 RMK AC1AC1CI2 SLP312

CYYC;2009-01-12 18:00;CYYC 121800Z 20005KT 40SM FEW070 FEW130 BKN240 M05/M07 A3024 RMK AC1AC2CI3 SLP305

CYYC;2009-01-12 19:00;CYYC 121900Z 22003KT 40SM FEW070 SCT130 BKN240 M03/M07 A3021 RMK AC1AC3CI2 SLP295

CYYC;2009-01-12 20:00;CYYC 122000Z 18003KT 40SM FEW080 FEW130 SCT220 BKN260 M02/M07 A3016 RMK AC1AC1CI2CI0 SLP280

CYYC;2009-01-12 21:00;CYYC 122100Z 18005KT 40SM FEW080 FEW130 BKN250 M00/M06 A3011 RMK AC1AC1CI2 SLP253

CYYC;2009-01-12 22:00;CYYC 122200Z 00000KT 40SM FEW070 FEW120 BKN250 M00/M06 A3007 RMK AC1AC1CI2 SLP243

CYYC;2009-01-12 23:00;CYYC 122300Z 18003KT 30SM FEW060 FEW080 SCT120 BKN220 M01/M08 A3002 RMK SC1AC1AC2CI3 SLP226

CYYC;2009-01-13 00:00;CYYC 130000Z 20005KT 30SM FEW060 SCT081 BKN160 OVC220 M02/M07 A2998 RMK SC1AC3AC2CI2 SC TR SLP211

CYYC;2009-01-13 01:00;CYYC 130100Z 17005KT 15SM FEW060 FEW082 BKN210 M04/M08 A2991 RMK SC1AC2CI3 SC TR SLP191

CYYC;2009-01-13 02:00;CYYC 130200Z 19007KT 15SM FEW082 FEW130 OVC240 00/M08 A2986 RMK AC1AC2CI5 SLP174

CYYC;2009-01-13 03:00;CYYC 130300Z CCA 26024G31KT 15SM BKN240 07/M07 A2981 RMK CI4 WSHFT 0255 SLP140

CYYC;2009-01-13 04:00;CYYC 130400Z 28026G34KT 15SM FEW100 BKN240 07/M07 A2982 RMK AC1CI4 SLP143

CYYC;2009-01-13 05:00;CYYC 130500Z 27026G31KT 15SM BKN230 07/M06 A2983 RMK CI2 SLP146

CYYC;2009-01-13 06:00;CYYC 130600Z 27020G27KT 15SM FEW100 BKN230 07/M06 A2982 RMK AC1CI2 SLP139

CYYC;2009-01-13 07:00;CYYC 130700Z 27019G28KT 15SM BKN220 07/M05 A2981 RMK CI4 SLP137

CYYC;2009-01-13 08:00;CYYC 130800Z 27023KT 15SM BKN220 07/M05 A2980 RMK CI2 SLP134

CYYC;2009-01-13 09:00;CYYC 130900Z 27022KT 15SM BKN220 07/M05 A2978 RMK CI2 SLP118

CYYC;2009-01-13 10:00;CYYC 131000Z CCA 26031G38KT 15SM FEW100 FEW160 BKN220 07/M05 A2975 RMK AC1AC1CI2 SLP111

CYYC;2009-01-13 11:00;CYYC 131100Z 26029G37KT 15SM FEW100 FEW160 BKN220 07/M04 A2975 RMK AC1AC1CI1 SLP110

CYYC;2009-01-13 12:00;CYYC 131200Z CCA 27029G37KT 15SM BKN220 07/M04 A2975 RMK CI1 SNOW COVER/HARD PACK SLP110

CYYC;2009-01-13 13:00;CYYC 131300Z 27029G37KT 15SM SCT240 08/M05 A2977 RMK CI1 SLP117

CYYC;2009-01-13 14:00;CYYC 131400Z 27026G34KT 15SM FEW240 07/M04 A2980 RMK CI1 SLP126

CYYC;2009-01-13 15:00;CYYC 131500Z 27023G29KT 40SM FEW140 SCT260 07/M04 A2982 RMK AC1CI0 SLP124

CYYC;2009-01-13 15:44;CYYC 131544Z CCA 34022G33KT 40SM FEW040 SCT080 BKN160 BKN270 07/ RMK SC1AC3AC1CI0 WSHFT 1542Z

CYYC;2009-01-13 16:00;CYYC 131600Z 33015G20KT 40SM FEW040 SCT093 BKN250 06/M04 A2991 RMK SC1AC3CI0 SLP151

CYYC;2009-01-13 17:00;CYYC 131700Z 31009KT 40SM FEW030 BKN093 BKN250 05/M02 A2995 RMK SC1AC5CI0 SLP163

CYYC;2009-01-13 18:00;CYYC 131800Z 34010KT 40SM FEW030 BKN095 BKN250 05/M03 A2997 RMK SC1AC4CI0 SLP178

CYYC;2009-01-13 19:00;CYYC 131900Z 02015KT 40SM FEW040 FEW095 FEW240 01/M01 A3000 RMK SC1AC1CI0 SLP187

CYYC;2009-01-13 20:00;CYYC 132000Z 36013KT 40SM FEW040 FEW100 FEW240 02/M01 A3000 RMK SC1AC1CI1 SLP186

CYYC;2009-01-13 21:00;CYYC 132100Z 36015KT 40SM FEW040 SCT098 01/M02 A3004 RMK SC1AC3 SLP208

CYYC;2009-01-13 22:00;CYYC 132200Z 36010G18KT 40SM FEW015 BKN090 01/M02 A3008 RMK CU1AC7 SLP219

CYYC;2009-01-13 23:00;CYYC 132300Z 34008KT 40SM FEW025 BKN090 BKN120 01/M02 A3011 RMK SC2AC5AC1 SLP228

CYYC;2009-01-14 00:00;CYYC 140000Z 35010KT 30SM SCT025 BKN040 OVC088 01/M02 A3014 RMK SC3SC3AC2 SLP242

CYYC;2009-01-14 01:00;CYYC 140100Z 32003KT 15SM SCT029 BKN040 OVC088 00/M02 A3017 RMK SC3SC3AC2 SLP251

CYYC;2009-01-14 02:00;CYYC 140200Z 36008KT 15SM BKN037 OVC050 00/M02 A3018 RMK SC5SC3 SLP254

CYYC;2009-01-14 03:00;CYYC 140300Z 35014KT 15SM OVC036 M00/M03 A3021 RMK SC8 SLP270

CYYC;2009-01-14 04:00;CYYC 140400Z 35009KT 15SM OVC039 M01/M03 A3022 RMK SC8 SLP272

CYYC;2009-01-14 05:00;CYYC 140500Z 09010KT 15SM OVC038 M07/M07 A3023 RMK SC8 SLP276

CYYC;2009-01-14 05:17;CYYC 140517Z 10009KT 7SM OVC004 M08/ RMK ST8 BR

CYYC;2009-01-14 06:00;CYYC 140600Z 09009KT 7SM OVC004 M10/M10 A3026 RMK ST8 BR SLP303

CYYC;2009-01-14 06:13;CYYC 140613Z 09008KT 7SM BKN005 OVC013 M10/ RMK ST7SC1 BR

CYYC;2009-01-14 07:00;CYYC 140700Z 14004KT 5SM BR BKN005 OVC030 M10/M11 A3026 RMK ST7SC1 SLP304

CYYC;2009-01-14 08:00;CYYC 140800Z 14005KT 6SM BR BKN005 OVC030 M10/M10 A3028 RMK ST7SC1 SLP309

CYYC;2009-01-14 08:03;CYYC 140803Z 14006KT 6SM BR BKN006 OVC030 M10/ RMK ST7SC1

CYYC;2009-01-14 09:00;CYYC 140900Z 15007KT 3SM BR BKN007 OVC028 M10/M11 A3027 RMK ST7SC1 SLP314

CYYC;2009-01-14 09:11;CYYC 140911Z 14006KT 2SM BR BKN012 OVC028 M10/ RMK ST6SC2

CYYC;2009-01-14 09:16;CYYC 140916Z 15006KT 1 3/4SM -SN BR BKN012 OVC026 M10/ RMK SC6SC2

CYYC;2009-01-14 10:00;CYYC 141000Z 16005KT 2 1/2SM -SN BR BKN014 BKN030 OVC080 M10/M11 A3028 RMK SC5SC2AC1 SLP316

CYYC;2009-01-14 10:07;CYYC 141007Z 15005KT 3SM -SN BR BKN030 BKN062 OVC080 M10/ RMK SC5SC2AC1

CYYC;2009-01-14 11:00;CYYC 141100Z 16006KT 5SM -SN BR FEW008 OVC028 M10/M11 A3028 RMK SC2SC6 SN VRY LGT SLP315

CYYC;2009-01-14 12:00;CYYC 141200Z 13008KT 5SM -SN BR FEW008 OVC025 M11/M12 A3029 RMK SC2SC6 SNOW COVER/MUCH LOOSE SLP321

CYYC;2009-01-14 13:00;CYYC 141300Z 16007KT 5SM -SN BR FEW008 BKN022 OVC067 M11/M12 A3027 RMK SC2SC6AC1 SLP316

CYYC;2009-01-14 14:00;CYYC 141400Z 16007KT 5SM -SN BR FEW009 BKN022 OVC060 M12/M12 A3026 RMK SC1SC6SC1 SLP314

CYYC;2009-01-14 15:00;CYYC 141500Z 16009KT 3SM -SN DRSN BKN019 BKN033 OVC055 M11/M12 A3025 RMK SC5SC2SC1 SLP307

CYYC;2009-01-14 15:17;CYYC 141517Z 16006KT 2SM -SN DRSN BKN017 BKN033 OVC055 M11/ RMK SC5SC2SC1 VIS NE-SE 1

CYYC;2009-01-14 16:00;CYYC 141600Z 17007KT 1SM -SN DRSN FEW009 BKN012 OVC033 M12/M12 A3025 RMK SC2SC5SC1 RVR RWY16 6000+FT SLP307

CYYC;2009-01-14 16:48;CYYC 141648Z 17007KT 3/4SM -SN BKN008 OVC022 M11/ RMK SC5SC3 RVR RWY16 6000FT

CYYC;2009-01-14 17:00;CYYC 141700Z 18008KT 3/4SM -SN BKN009 OVC020 M10/M11 A3025 RMK SN2SC5SC2 RVR RWY16 6000+FT SLP309

CYYC;2009-01-14 18:00;CYYC 141800Z CCA 16006KT 5/8SM -SN BKN010 OVC022 M10/M11 A3026 RMK SN1SC6SC2 RVR RWY16 6000+FT /S02/ SLP327

CYYC;2009-01-14 19:00;CYYC 141900Z 16007KT 5/8SM -SN BKN008 OVC020 M10/M11 A3026 RMK SN1SC5SC2 RVR RWY16 6000+FT SLP325

CYYC;2009-01-14 20:00;CYYC 142000Z 19007KT 1SM -SN BKN008 OVC024 M10/M11 A3026 RMK SC5SC3 RVR RWY16 6000+FT /S01/ SLP324

CYYC;2009-01-14 20:40;CYYC 142040Z 19006KT 4SM -SN SCT008 BKN022 OVC056 M09/ RMK SC3SC3SC2

CYYC;2009-01-14 21:00;CYYC 142100Z 17006KT 4SM -SN FEW008 BKN024 OVC062 M09/M09 A3025 RMK SC2SC2SC3 SLP318

CYYC;2009-01-14 22:00;CYYC 142200Z 17006KT 3SM -SN FEW008 BKN022 OVC033 M07/M08 A3025 RMK SC2SC2SC4 SLP318

CYYC;2009-01-14 23:00;CYYC 142300Z 14006KT 3SM -SN FEW008 SCT018 OVC040 M07/M08 A3026 RMK SC1SC2SC5 SLP323

CYYC;2009-01-15 00:00;CYYC 150000Z CCA 18008KT 4SM -SN FEW008 SCT018 OVC060 M07/M08 A3025 RMK SC1SC2SC5 /S02/ SLP320

CYYC;2009-01-15 01:00;CYYC 150100Z 19006KT 3SM -SN FEW006 SCT018 OVC060 M06/M07 A3026 RMK SC1SC3SC5 SLP324

CYYC;2009-01-15 01:51;CYYC 150151Z 20006KT 2 1/2SM -SN BKN006 OVC015 M05/ RMK SC5SC3

CYYC;2009-01-15 02:00;CYYC 150200Z 21007KT 2 1/2SM -SN BKN006 OVC020 M05/M05 A3027 RMK SC6SC2 SLP325

CYYC;2009-01-15 02:39;CYYC 150239Z 22005KT 7SM -SN BKN007 OVC020 M04/ RMK SC6SC2

CYYC;2009-01-15 03:00;CYYC 150300Z 22004KT 7SM -SN BKN007 OVC020 M04/M04 A3027 RMK SC6SC2 SLP322

CYYC;2009-01-15 04:00;CYYC 150400Z 24004KT 10SM -SN SCT009 OVC022 M01/M01 A3027 RMK SC3SC5 SLP322

CYYC;2009-01-15 05:00;CYYC 150500Z 21004KT 12SM -SN SCT020 OVC035 M01/M01 A3028 RMK SC3SC5 SLP324

CYYC;2009-01-15 05:25;CYYC 150525Z 20004KT 12SM FEW020 OVC042 M01/ RMK SC2SC6

CYYC;2009-01-15 06:00;CYYC 150600Z CCA 20005KT 12SM FEW050 OVC089 M01/M01 A3027 RMK SC2AC6 SLP315

CYYC;2009-01-15 07:00;CYYC 150700Z 20006KT 15SM FEW086 FEW250 M02/M02 A3026 RMK AC2CI1 CI TR SLP311

CYYC;2009-01-15 08:00;CYYC 150800Z 21007KT 15SM FEW086 FEW250 M02/M03 A3023 RMK AC1CI1 CI TR SLP304

CYYC;2009-01-15 09:00;CYYC 150900Z 00000KT 15SM SCT057 BKN090 BKN240 M05/M05 A3023 RMK SC2AC2CI0 SLP306

CYYC;2009-01-15 10:00;CYYC 151000Z 19002KT 12SM FEW240 M06/M06 A3022 RMK CI1 CI TR SLP302

CYYC;2009-01-15 11:00;CYYC 151100Z 21005KT 15SM SKC M05/M06 A3020 RMK SLP296

CYYC;2009-01-15 12:00;CYYC 151200Z 36002KT 15SM SKC M08/M08 A3020 RMK SNOW COVER/MUCH LOOSE SLP296

CYYC;2009-01-15 13:00;CYYC 151300Z 34004KT 15SM SKC M06/M06 A3020 RMK SLP296

CYYC;2009-01-15 14:00;CYYC 151400Z 31002KT 15SM SKC M07/M07 A3019 RMK SLP295

CYYC;2009-01-15 15:00;CYYC 151500Z 34002KT 15SM FEW120 FEW240 M06/M07 A3020 RMK AC1CI1 SLP291

CYYC;2009-01-15 16:00;CYYC 151600Z 19002KT 40SM FEW120 FEW200 FEW250 M05/M06 A3020 RMK AC1CI1CI0 SLP290

CYYC;2009-01-15 17:00;CYYC 151700Z 14002KT 40SM FEW250 M02/M04 A3021 RMK CI0 SLP293

CYYC;2009-01-15 18:00;CYYC 151800Z 26005KT 40SM SKC 05/M01 A3021 RMK SLP271

CYYC;2009-01-15 19:00;CYYC 151900Z 25004KT 40SM BKN250 06/M02 A3019 RMK CI0 SLP267

CYYC;2009-01-15 20:00;CYYC 152000Z 27007KT 40SM SCT250 07/M01 A3017 RMK CI0 SLP260

CYYC;2009-01-15 21:00;CYYC 152100Z 21006KT 40SM FEW220 SCT260 07/M01 A3015 RMK CI1CI0 SLP257

CYYC;2009-01-15 22:00;CYYC 152200Z 00000KT 40SM FEW220 06/M01 A3015 RMK CI1 SLP256

CYYC;2009-01-15 23:00;CYYC 152300Z 21002KT 40SM FEW200 FEW260 05/M01 A3014 RMK CI1CI1 SLP253

CYYC;2009-01-16 00:00;CYYC 160000Z 05002KT 40SM FEW120 FEW220 FEW260 00/M04 A3016 RMK AC1CI1CI1 SLP273

CYYC;2009-01-16 01:00;CYYC 160100Z 15002KT 40SM FEW220 FEW260 03/M03 A3017 RMK CI1CI1 SLP274

CYYC;2009-01-16 02:00;CYYC 160200Z 00000KT 15SM FEW250 02/M04 A3017 RMK CI1 SLP274

CYYC;2009-01-16 03:00;CYYC 160300Z 20003KT 15SM SKC 01/M05 A3016 RMK SLP270

CYYC;2009-01-16 04:00;CYYC 160400Z 23003KT 15SM SKC 06/M05 A3016 RMK SLP268

CYYC;2009-01-16 05:00;CYYC 160500Z 23007KT 15SM SKC 06/M06 A3014 RMK SLP264

CYYC;2009-01-16 06:00;CYYC 160600Z 31003KT 15SM SKC 01/M07 A3012 RMK SLP241

CYYC;2009-01-16 07:00;CYYC 160700Z 00000KT 15SM SKC 02/M08 A3011 RMK SLP238

CYYC;2009-01-16 08:00;CYYC 160800Z 00000KT 15SM SKC 06/M09 A3009 RMK SLP230

CYYC;2009-01-16 09:00;CYYC 160900Z 32002KT 15SM SKC 07/M09 A3008 RMK SLP214

CYYC;2009-01-16 10:00;CYYC 161000Z 33004KT 15SM FEW220 07/M09 A3007 RMK CI1 SLP210

CYYC;2009-01-16 11:00;CYYC 161100Z 26003KT 15SM SCT220 09/M10 A3005 RMK CI2 SLP205

CYYC;2009-01-16 12:00;CYYC 161200Z 29015KT 15SM BKN230 10/M09 A3005 RMK CI4 SNOW COVER/MUCH LOOSE SLP207

CYYC;2009-01-16 13:00;CYYC 161300Z 33009KT 15SM BKN230 08/M08 A3005 RMK CI2 SLP209

CYYC;2009-01-16 14:00;CYYC 161400Z 29008KT 15SM FEW130 BKN180 OVC220 10/M09 A3005 RMK AC1AC5CI2 SLP209

CYYC;2009-01-16 15:00;CYYC 161500Z 27016KT 15SM FEW120 BKN150 BKN210 09/M08 A3003 RMK AC1AC6CI1 SLP203

CYYC;2009-01-16 16:00;CYYC 161600Z 27017G24KT 40SM FEW150 SCT210 BKN240 09/M09 A3006 RMK AC1CI0CI0 SLP210

CYYC;2009-01-16 17:00;CYYC 161700Z 29016KT 40SM FEW150 FEW240 09/M08 A3011 RMK AC1CI1 SLP226

CYYC;2009-01-16 18:00;CYYC 161800Z 32009KT 40SM FEW150 FEW240 09/M07 A3014 RMK AC1CI1 SLP240

CYYC;2009-01-16 19:00;CYYC 161900Z 33009KT 40SM FEW250 07/M05 A3017 RMK CI1 SLP249

CYYC;2009-01-16 20:00;CYYC 162000Z 33010KT 40SM FEW220 07/M04 A3019 RMK CI1 SLP256

CYYC;2009-01-16 21:00;CYYC 162100Z 32006KT 40SM FEW250 07/M03 A3020 RMK CI1 SLP256

CYYC;2009-01-16 22:00;CYYC 162200Z 35004KT 40SM FEW240 05/M04 A3023 RMK CI1 SLP265

CYYC;2009-01-16 23:00;CYYC 162300Z 01004KT 40SM FEW240 06/M04 A3025 RMK CI1 SLP270

CYYC;2009-01-17 00:00;CYYC 170000Z 35010KT 40SM FEW090 FEW240 04/M04 A3028 RMK AC1CI1 SLP285

CYYC;2009-01-17 01:00;CYYC 170100Z 31009KT 15SM FEW220 05/M05 A3029 RMK CI1 SLP289

CYYC;2009-01-17 02:00;CYYC 170200Z 26003KT 15SM SKC 03/M05 A3031 RMK SLP293

CYYC;2009-01-17 03:00;CYYC 170300Z 24007KT 15SM SKC 02/M05 A3030 RMK SLP296

CYYC;2009-01-17 04:00;CYYC 170400Z 19004KT 15SM SKC M01/M07 A3031 RMK SLP298

CYYC;2009-01-17 05:00;CYYC 170500Z 21003KT 15SM SKC M02/M07 A3031 RMK SLP299

CYYC;2009-01-17 06:00;CYYC 170600Z 28004KT 15SM SKC 02/M08 A3032 RMK SLP302

CYYC;2009-01-17 07:00;CYYC 170700Z 27002KT 15SM SKC 06/M08 A3032 RMK SLP304

CYYC;2009-01-17 08:00;CYYC 170800Z 33004KT 15SM SKC 05/M07 A3034 RMK SLP308

CYYC;2009-01-17 09:00;CYYC 170900Z 32011KT 15SM SKC 04/M07 A3035 RMK SLP311

CYYC;2009-01-17 10:00;CYYC 171000Z 32011KT 15SM SKC 03/M07 A3036 RMK SLP316

CYYC;2009-01-17 11:00;CYYC 171100Z 25003KT 15SM SKC 00/M07 A3037 RMK SLP318

CYYC;2009-01-17 12:00;CYYC 171200Z 29007KT 15SM SKC 01/M07 A3037 RMK SNOW COVER/MEDIUM PACK SLP328

CYYC;2009-01-17 13:00;CYYC 171300Z 22004KT 15SM SKC M00/M08 A3037 RMK SLP329

CYYC;2009-01-17 14:00;CYYC 171400Z 00000KT 15SM SKC M04/M08 A3037 RMK SLP328

CYYC;2009-01-17 15:00;CYYC 171500Z 00000KT 30SM SKC M02/M08 A3036 RMK SLP333

CYYC;2009-01-17 16:00;CYYC 171600Z 00000KT 40SM FEW240 M01/M09 A3037 RMK CI1 SLP334

CYYC;2009-01-17 17:00;CYYC 171700Z 21005KT 40SM FEW240 M00/M07 A3038 RMK CI1 SLP337

CYYC;2009-01-17 18:00;CYYC 171800Z 18004KT 40SM FEW240 01/M06 A3038 RMK CI1 SLP335

CYYC;2009-01-17 19:00;CYYC 171900Z 00000KT 40SM FEW240 03/M06 A3037 RMK CI1 SLP332

CYYC;2009-01-17 20:00;CYYC 172000Z 21003KT 40SM FEW240 06/M05 A3035 RMK CI1 SLP327

CYYC;2009-01-17 21:00;CYYC 172100Z 18003KT 40SM FEW240 06/M03 A3035 RMK CI1 SLP313

CYYC;2009-01-17 22:00;CYYC 172200Z 23007KT 40SM FEW240 10/M04 A3035 RMK CI1 SLP313

CYYC;2009-01-17 23:00;CYYC 172300Z 24007KT 40SM FEW240 10/M06 A3035 RMK CI1 SLP313

CYYC;2009-01-18 00:00;CYYC 180000Z 24007KT 40SM FEW240 08/M06 A3034 RMK CI1 SLP310

CYYC;2009-01-18 01:00;CYYC 180100Z CCA 27008KT 15SM SKC 09/M06 A3032 RMK SLP305

CYYC;2009-01-18 02:00;CYYC 180200Z 28011KT 15SM SKC 11/M06 A3033 RMK SLP309

CYYC;2009-01-18 03:00;CYYC 180300Z 30009KT 15SM SKC 08/M06 A3036 RMK SLP322

CYYC;2009-01-18 04:00;CYYC 180400Z 29003KT 15SM SKC 07/M06 A3037 RMK SLP325

CYYC;2009-01-18 05:00;CYYC 180500Z 28006KT 15SM SKC 05/M07 A3037 RMK SLP325

CYYC;2009-01-18 06:00;CYYC 180600Z 23005KT 15SM SKC 05/M07 A3038 RMK SLP330

CYYC;2009-01-18 07:00;CYYC 180700Z 28010KT 15SM FEW160 10/M07 A3037 RMK AC1 SLP327

CYYC;2009-01-18 08:00;CYYC 180800Z 22006KT 15SM BKN260 09/M07 A3038 RMK CI2 SLP330

CYYC;2009-01-18 09:00;CYYC 180900Z CCA 29005KT 15SM SCT260 06/M07 A3040 RMK CI0 SLP327

CYYC;2009-01-18 10:00;CYYC 181000Z 22002KT 15SM FEW260 06/M07 A3042 RMK CI1 SLP334

CYYC;2009-01-18 11:00;CYYC 181100Z 25007KT 15SM FEW260 06/M07 A3042 RMK CI0 SLP333

CYYC;2009-01-18 12:00;CYYC 181200Z CCA 29004KT 15SM FEW260 05/M08 A3042 RMK CI0 SNOW COVER / MEDIUM SNOW PACK SLP331

CYYC;2009-01-18 13:00;CYYC 181300Z 32006KT 15SM FEW260 04/M08 A3042 RMK CI0 SLP333

CYYC;2009-01-18 14:00;CYYC 181400Z 18002KT 15SM SCT260 02/M08 A3042 RMK CI0 SLP333

CYYC;2009-01-18 15:00;CYYC 181500Z 20002KT 20SM BKN240 M00/M09 A3044 RMK CI2 SLP348

CYYC;2009-01-18 16:00;CYYC 181600Z 00000KT 40SM BKN260 03/M08 A3044 RMK CI2 SLP348

CYYC;2009-01-18 17:00;CYYC 181700Z 18002KT 40SM BKN260 02/M07 A3046 RMK CI2 SLP354

CYYC;2009-01-18 18:00;CYYC 181800Z 21006KT 40SM BKN260 06/M05 A3047 RMK CI2 SLP352

CYYC;2009-01-18 19:00;CYYC 181900Z 20003KT 40SM BKN260 06/M03 A3046 RMK CI1 CONTRAILS SLP351

CYYC;2009-01-18 20:00;CYYC 182000Z 33003KT 40SM BKN260 10/M04 A3044 RMK CI1 SLP345

CYYC;2009-01-18 21:00;CYYC 182100Z 25009KT 40SM SCT260 14/M07 A3043 RMK CI0 SLP328

CYYC;2009-01-18 22:00;CYYC 182200Z 28014KT 40SM SCT260 14/M07 A3043 RMK CI0 SLP326

CYYC;2009-01-18 23:00;CYYC 182300Z 27007KT 40SM FEW260 13/M07 A3043 RMK CI0 SLP328

CYYC;2009-01-19 00:00;CYYC 190000Z 00000KT 40SM FEW230 12/M08 A3044 RMK CI0 SLP333

CYYC;2009-01-19 01:00;CYYC 190100Z 29006KT 25SM FEW230 10/M08 A3044 RMK CI0 SLP333

CYYC;2009-01-19 02:00;CYYC 190200Z 30005KT 15SM SKC 09/M08 A3043 RMK SLP332

CYYC;2009-01-19 03:00;CYYC 190300Z 31003KT 15SM SKC 07/M08 A3044 RMK SLP348

CYYC;2009-01-19 04:00;CYYC 190400Z 32004KT 15SM SKC 03/M07 A3044 RMK SLP350

CYYC;2009-01-19 05:00;CYYC 190500Z 00000KT 15SM SKC 03/M07 A3045 RMK SLP351

CYYC;2009-01-19 06:00;CYYC 190600Z 00000KT 15SM SKC 02/M07 A3045 RMK SLP352

CYYC;2009-01-19 07:00;CYYC 190700Z 00000KT 15SM SKC 06/M08 A3045 RMK SLP352

CYYC;2009-01-19 08:00;CYYC 190800Z 00000KT 15SM SKC M03/M09 A3045 RMK SLP350

CYYC;2009-01-19 09:00;CYYC 190900Z 18003KT 15SM SKC M02/M08 A3044 RMK SLP342

CYYC;2009-01-19 10:00;CYYC 191000Z 19003KT 15SM SKC M02/M09 A3045 RMK SLP343

CYYC;2009-01-19 11:00;CYYC 191100Z 00000KT 15SM SKC M01/M08 A3044 RMK SLP341

CYYC;2009-01-19 12:00;CYYC 191200Z 18005KT 15SM SKC M03/M09 A3043 RMK SLP342

CYYC;2009-01-19 13:00;CYYC 191300Z 20004KT 15SM SKC M04/M10 A3042 RMK SLP339

CYYC;2009-01-19 14:00;CYYC 191400Z 22002KT 15SM SKC M04/M10 A3041 RMK SLP335

CYYC;2009-01-19 15:00;CYYC 191500Z 20004KT 40SM SKC M05/M11 A3041 RMK SLP344

CYYC;2009-01-19 16:00;CYYC 191600Z CCA 33002KT 40SM SKC 00/M09 A3040 RMK SLP342

CYYC;2009-01-19 17:00;CYYC 191700Z 19004KT 40SM SKC M00/M08 A3039 RMK SLP339

CYYC;2009-01-19 18:00;CYYC 191800Z 19004KT 40SM SKC 03/M07 A3038 RMK SLP332

CYYC;2009-01-19 19:00;CYYC 191900Z 18004KT 40SM SKC 06/M05 A3036 RMK SLP327

CYYC;2009-01-19 20:00;CYYC 192000Z 19004KT 40SM SKC 08/M03 A3034 RMK SLP321

CYYC;2009-01-19 21:00;CYYC 192100Z 22002KT 40SM SKC 10/M04 A3032 RMK SLP304

CYYC;2009-01-19 22:00;CYYC 192200Z 22002KT 40SM SKC 10/M02 A3030 RMK SLP299

CYYC;2009-01-19 23:00;CYYC 192300Z 35015KT 40SM SKC 09/M06 A3031 RMK SLP303

CYYC;2009-01-20 00:00;CYYC 200000Z 33012KT 40SM SKC 10/M07 A3031 RMK SLP305

CYYC;2009-01-20 01:00;CYYC 200100Z 33009KT 20SM SKC 09/M08 A3031 RMK SLP303

CYYC;2009-01-20 02:00;CYYC 200200Z 32004KT 15SM SKC 03/M06 A3030 RMK SLP301

CYYC;2009-01-20 03:00;CYYC 200300Z 30007KT 15SM SKC 04/M07 A3030 RMK SLP311

CYYC;2009-01-20 04:00;CYYC 200400Z 04002KT 15SM SKC 01/M07 A3029 RMK SLP309

CYYC;2009-01-20 05:00;CYYC 200500Z 00000KT 15SM SKC M13/M14 A3011 RMK VIA YEG FIC SLP233

CYYC;2009-01-20 06:00;CYYC 200600Z 30010KT 15SM SKC 03/M08 A3030 RMK SLP302

CYYC;2009-01-20 07:00;CYYC 200700Z 20003KT 15SM SKC M02/M08 A3028 RMK SLP298

CYYC;2009-01-20 08:00;CYYC 200800Z 05002KT 15SM SKC M03/M09 A3028 RMK SLP298

CYYC;2009-01-20 09:00;CYYC 200900Z 00000KT 15SM SKC M06/M11 A3028 RMK SLP297

CYYC;2009-01-20 10:00;CYYC 201000Z 00000KT 15SM SKC M05/M10 A3027 RMK SLP295

CYYC;2009-01-20 11:00;CYYC 201100Z 21002KT 15SM SKC M05/M09 A3026 RMK SLP291

CYYC;2009-01-20 12:00;CYYC 201200Z 00000KT 15SM SKC M07/M11 A3024 RMK SLP283

CYYC;2009-01-20 13:00;CYYC 201300Z 34004KT 15SM SKC M07/M10 A3022 RMK SLP279

CYYC;2009-01-20 14:00;CYYC 201400Z CCA 31006KT 15SM SKC M05/M10 A3021 RMK FROIN SLP275

CYYC;2009-01-20 15:00;CYYC 201500Z 31004KT 40SM SCT260 M05/M09 A3021 RMK CI0 SLP279

CYYC;2009-01-20 16:00;CYYC 201600Z 29003KT 40SM SCT140 BKN220 M04/M09 A3019 RMK AC1CI1 SLP275

CYYC;2009-01-20 17:00;CYYC 201700Z 00000KT 40SM SCT140 BKN220 M01/M08 A3019 RMK AC2CI1 SLP273

CYYC;2009-01-20 18:00;CYYC 201800Z 00000KT 40SM SCT140 BKN220 00/M07 A3018 RMK AC2CI2 SLP264

CYYC;2009-01-20 19:00;CYYC 201900Z 18002KT 40SM SCT140 BKN220 03/M04 A3016 RMK AC1CI1 SLP258

CYYC;2009-01-20 20:00;CYYC 202000Z 00000KT 40SM SCT140 BKN220 05/M06 A3014 RMK AC1CI2 SLP252

CYYC;2009-01-20 21:00;CYYC 202100Z 00000KT 40SM BKN140 04/M04 A3011 RMK AC2 SLP248

CYYC;2009-01-20 22:00;CYYC 202200Z 00000KT 30SM BKN120 06/M04 A3010 RMK AC2 SLP243

CYYC;2009-01-20 23:00;CYYC 202300Z 00000KT 30SM SCT120 05/M04 A3008 RMK AC2 SLP238

CYYC;2009-01-21 00:00;CYYC 210000Z 19004KT 30SM SCT120 04/M05 A3008 RMK AC2 SLP237

CYYC;2009-01-21 01:00;CYYC 210100Z 20006KT 15SM SCT110 00/M06 A3005 RMK AC2 SLP229

CYYC;2009-01-21 02:00;CYYC 210200Z 33003KT 15SM FEW110 M02/M06 A3004 RMK AC2 SLP226

CYYC;2009-01-21 03:00;CYYC 210300Z 22002KT 15SM FEW100 M01/M07 A3002 RMK AC1 SLP221

CYYC;2009-01-21 04:00;CYYC 210400Z 34002KT 15SM FEW100 M01/M07 A3001 RMK AC1 SLP218

CYYC;2009-01-21 05:00;CYYC 210500Z 27003KT 15SM FEW100 M01/M07 A3001 RMK AC1 SLP218

CYYC;2009-01-21 06:00;CYYC 210600Z 36004KT 15SM SKC M03/M08 A3001 RMK SLP212

CYYC;2009-01-21 07:00;CYYC 210700Z 32007KT 15SM FEW250 M02/M09 A3000 RMK CI0 SLP210

CYYC;2009-01-21 08:00;CYYC 210800Z 29005KT 15SM FEW240 M02/M09 A3000 RMK CI0 SLP209

CYYC;2009-01-21 09:00;CYYC 210900Z 31006KT 15SM FEW240 M02/M09 A2998 RMK CI1 CI TR SLP197

CYYC;2009-01-21 10:00;CYYC 211000Z 36002KT 15SM SKC M05/M11 A2998 RMK SLP196

CYYC;2009-01-21 11:00;CYYC 211100Z 36003KT 15SM SKC M05/M10 A2998 RMK SLP196

CYYC;2009-01-21 12:00;CYYC 211200Z 34003KT 15SM SKC M05/M11 A2996 RMK SNOW COVER/HARD PACK SLP194

CYYC;2009-01-21 13:00;CYYC 211300Z 00000KT 40SM SKC M06/M11 A2995 RMK SLP190

CYYC;2009-01-21 14:00;CYYC 211400Z 33003KT 15SM FEW110 M01/M10 A2994 RMK AC1 AC TR SLP188

CYYC;2009-01-21 15:00;CYYC 211500Z 19003KT 30SM FEW110 M04/M10 A2994 RMK AC1 SLP193

CYYC;2009-01-21 16:00;CYYC 211600Z 25002KT 40SM BKN110 M03/M10 A2994 RMK AC1 SLP192

CYYC;2009-01-21 17:00;CYYC 211700Z 20003KT 40SM BKN110 M01/M08 A2994 RMK AC1 SLP193

CYYC;2009-01-21 18:00;CYYC 211800Z 00000KT 40SM BKN110 01/M08 A2993 RMK AC1 SLP184

CYYC;2009-01-21 19:00;CYYC 211900Z 00000KT 40SM BKN110 02/M07 A2993 RMK AC1 SLP182

CYYC;2009-01-21 20:00;CYYC 212000Z 00000KT 40SM BKN120 06/M06 A2989 RMK AC2 SLP172

CYYC;2009-01-21 21:00;CYYC 212100Z 00000KT 40SM BKN120 06/M05 A2988 RMK AC1 SLP157

CYYC;2009-01-21 22:00;CYYC 212200Z 06005KT 40SM BKN120 04/M04 A2987 RMK AC1 SLP154

CYYC;2009-01-21 23:00;CYYC 212300Z 34004KT 40SM BKN120 04/M06 A2986 RMK AC1 SLP152

CYYC;2009-01-22 00:00;CYYC 220000Z 17003KT 30SM BKN120 00/M05 A2984 RMK AC1 SLP157

CYYC;2009-01-22 01:00;CYYC 220100Z 36003KT 15SM SCT120 M02/M07 A2983 RMK AC1 SLP153

CYYC;2009-01-22 02:00;CYYC 220200Z 00000KT 15SM FEW110 M02/M07 A2982 RMK AC0 SLP150

CYYC;2009-01-22 03:00;CYYC 220300Z 18002KT 15SM FEW100 M04/M08 A2979 RMK AC1 SLP146

CYYC;2009-01-22 04:00;CYYC 220400Z 00000KT 15SM BKN090 M05/M08 A2977 RMK AC4 SLP138

CYYC;2009-01-22 05:00;CYYC 220500Z 19002KT 15SM BKN090 M04/M08 A2975 RMK AC6 SLP132

CYYC;2009-01-22 06:00;CYYC 220600Z 35004KT 15SM BKN085 M05/M09 A2975 RMK AC6 SLP122

CYYC;2009-01-22 07:00;CYYC 220700Z 00000KT 15SM BKN075 M05/M08 A2973 RMK AC6 SLP116

CYYC;2009-01-22 08:00;CYYC 220800Z 00000KT 15SM OVC080 M06/M09 A2972 RMK AC6 SLP115

CYYC;2009-01-22 09:00;CYYC 220900Z 34024G29KT 15SM FEW080 FEW240 M02/M09 A2980 RMK AC1CI1 PRESRR SLP132

CYYC;2009-01-22 10:00;CYYC 221000Z 35025G30KT 15SM FEW085 FEW240 M06/M10 A2987 RMK AC1CI1 SLP152

CYYC;2009-01-22 11:00;CYYC 221100Z 35022G27KT 15SM OVC030 M07/M09 A2990 RMK SC8 SLP163

CYYC;2009-01-22 12:00;CYYC 221200Z 36028KT 15SM OVC020 M07/M09 A2995 RMK SC8 SNOW COVER/HARD PACK SLP199

CYYC;2009-01-22 13:00;CYYC 221300Z 35023G29KT 15SM OVC020 M08/M12 A3000 RMK SC8 SLP214

CYYC;2009-01-22 14:00;CYYC 221400Z 35023G32KT 15SM FEW012 OVC025 M09/M13 A3005 RMK SF1SC7 SLP228

CYYC;2009-01-22 15:00;CYYC 221500Z 36027G33KT 15SM FEW012 OVC025 M11/M15 A3009 RMK SF1SC7 SLP260

CYYC;2009-01-22 15:28;CYYC 221528Z 36025G31KT 4SM -SN OVC016 M12/ RMK SC8

CYYC;2009-01-22 16:00;CYYC 221600Z 36018G25KT 4SM -SN OVC016 M12/M15 A3015 RMK SC8 SLP279

CYYC;2009-01-22 17:00;CYYC 221700Z 35022G31KT 4SM -SN OVC007 M13/M16 A3019 RMK SC8 SLP289

CYYC;2009-01-22 18:00;CYYC 221800Z 36020G29KT 2SM -SN DRSN OVC007 M14/M17 A3022 RMK SC8 SLP311

CYYC;2009-01-22 18:52;CYYC 221852Z 36022G27KT 4SM -SN DRSN OVC020 M15/ RMK SC8

CYYC;2009-01-22 19:00;CYYC 221900Z 36023KT 4SM -SN DRSN OVC020 M15/M18 A3025 RMK SC8 SLP318

CYYC;2009-01-22 20:00;CYYC 222000Z 36021KT 5SM -SN DRSN FEW018 BKN040 OVC050 M16/M19 A3026 RMK SF1SC5SC2 SLP323

CYYC;2009-01-22 21:00;CYYC 222100Z CCA 36021KT 6SM -SN DRSN FEW018 BKN050 OVC090 M16/M20 A3026 RMK SF1SC5AC2 SLP325

CYYC;2009-01-22 22:00;CYYC 222200Z CCA 36023KT 4SM -SN DRSN SCT020 BKN030 OVC050 M17/M20 A3030 RMK SC3SC2SC1 SLP335

CYYC;2009-01-22 22:38;CYYC 222238Z 35022G27KT 2 1/2SM -SN DRSN SCT011 BKN028 OVC040 M17/ RMK SC4SC2SC1

CYYC;2009-01-22 23:00;CYYC 222300Z 36018KT 3SM -SN DRSN SCT020 BKN030 OVC050 M17/M20 A3032 RMK SC4SC2SC1 SLP342

CYYC;2009-01-23 00:00;CYYC 230000Z 36016KT 5SM -SN DRSN FEW030 BKN050 BKN060 M18/M21 A3036 RMK SC2SC2SC1 SLP367

CYYC;2009-01-23 01:00;CYYC 230100Z 36018KT 5SM -SN DRSN SCT050 BKN070 BKN090 M18/M21 A3039 RMK SC4AC1AC1 SLP376

CYYC;2009-01-23 02:00;CYYC 230200Z 35017KT 4SM -SN DRSN SCT030 BKN060 OVC090 M19/M22 A3043 RMK SC3SC2AC2 SLP389

CYYC;2009-01-23 03:00;CYYC 230300Z 36019G25KT 5SM -SN DRSN FEW030 OVC095 M19/M21 A3045 RMK SC2AC6 SLP408

CYYC;2009-01-23 04:00;CYYC 230400Z 36012KT 8SM -SN DRSN FEW025 SCT069 BKN090 M20/M22 A3047 RMK SC2AC2AC2 SLP414

CYYC;2009-01-23 05:00;CYYC 230500Z 36013KT 15SM -SN DRSN FEW040 SCT090 BKN120 M21/M24 A3049 RMK SC1AC2AC1 SLP421

CYYC;2009-01-23 06:00;CYYC 230600Z 34009KT 15SM -SN FEW040 BKN070 OVC110 M21/M24 A3051 RMK SC1AC4AC2 SLP437

CYYC;2009-01-23 07:00;CYYC 230700Z 01010KT 15SM -SN FEW050 BKN092 OVC110 M21/M24 A3052 RMK SC1AC6AC2 SN VRY LGT SLP440

CYYC;2009-01-23 08:00;CYYC 230800Z 01011G16KT 15SM -SN FEW030 BKN090 OVC110 M21/M24 A3054 RMK SC1AC4AC3 SLP446

CYYC;2009-01-23 09:00;CYYC 230900Z 02011KT 3SM -SN BKN026 OVC044 M22/M25 A3055 RMK SC6SC2 SLP455

CYYC;2009-01-23 10:00;CYYC 231000Z 36007KT 3SM -SN FEW015 BKN026 OVC110 M22/M25 A3056 RMK SC2SC5AC2 VIS E 2 SLP458

CYYC;2009-01-23 11:00;CYYC 231100Z 35008KT 3SM -SN BKN026 BKN060 OVC110 M23/M26 A3058 RMK SC5SC1AC2 SLP463

CYYC;2009-01-23 12:00;CYYC 231200Z 36004KT 12SM -SN FEW060 BKN084 OVC120 M23/M26 A3057 RMK SC1AC6AC2 /S01/ SNOW COVER/MUCH LOOSE SLP466

CYYC;2009-01-23 13:00;CYYC 231300Z 35005KT 12SM -SN FEW021 SCT042 BKN084 OVC220 M23/M29 A3057 RMK SC2SC2AC2CI1 SLP465

CYYC;2009-01-23 14:00;CYYC 231400Z 32002KT 15SM -SN FEW042 OVC084 M23/M28 A3057 RMK SC1AC7 SLP465

CYYC;2009-01-23 15:00;CYYC 231500Z 00000KT 15SM -SN OVC085 M23/M27 A3057 RMK AC8 SLP467

CYYC;2009-01-23 16:00;CYYC 231600Z 06003KT 5SM -SN BKN085 M23/M27 A3057 RMK AC6 SLP466

CYYC;2009-01-23 17:00;CYYC 231700Z 09002KT 25SM -SN FEW030 BKN085 M22/M27 A3055 RMK CU1AC4 VIS S-SW 4 SLP462

CYYC;2009-01-23 18:00;CYYC 231800Z 09004KT 25SM -SN FEW030 BKN085 M22/M26 A3055 RMK CU1AC2 VIS S-SW 4 SLP462

CYYC;2009-01-23 18:52;CYYC 231852Z 13005KT 25SM FEW020 SCT095 M21/ RMK CU1AC2 VIS S-SW 4

CYYC;2009-01-23 19:00;CYYC 231900Z 14005KT 25SM FEW020 SCT095 M21/M25 A3052 RMK CU1AC2 VIS S-SW 4 SLP452

CYYC;2009-01-23 20:00;CYYC 232000Z 12005KT 25SM FEW020 FEW095 FEW200 M21/M26 A3049 RMK CU1AC2CI0 VIS S-SW 5 SLP443

CYYC;2009-01-23 20:40;CYYC 232040Z 11006KT 25SM FEW016 FEW095 FEW200 M21/ RMK CU1AC2CI0 VIS S-SW 5

CYYC;2009-01-23 21:00;CYYC 232100Z 11006KT 25SM FEW016 FEW085 FEW200 M21/M26 A3046 RMK CU1AC1CI0 SLP431

CYYC;2009-01-23 22:00;CYYC 232200Z CCA 10007KT 25SM FEW020 FEW085 BKN180 M22/M27 A3046 RMK CU1AC2AC0 CU TR SLP429

CYYC;2009-01-23 23:00;CYYC 232300Z 11007KT 25SM FEW020 SCT180 M22/M27 A3046 RMK CU1AC2 SLP431

CYYC;2009-01-24 00:00;CYYC 240000Z 11006KT 20SM FEW020 SCT180 BKN220 M23/M27 A3047 RMK CU1AC3CI2 CU TR SLP436

CYYC;2009-01-24 01:00;CYYC 240100Z 14006KT 10SM SCT150 BKN180 BKN210 M23/M27 A3046 RMK AC3AC2CI0 SLP434

CYYC;2009-01-24 02:00;CYYC 240200Z 16005KT 8SM FEW011 BKN130 OVC180 M23/M27 A3045 RMK CU1AC5AC2 SLP431

CYYC;2009-01-24 03:00;CYYC 240300Z 16005KT 10SM BKN097 OVC110 M23/M27 A3043 RMK AC5AC3 SLP424

CYYC;2009-01-24 04:00;CYYC 240400Z 14004KT 4SM BR OVC100 M23/M27 A3042 RMK AC8 SLP420

CYYC;2009-01-24 04:20;CYYC 240420Z 16004KT 8SM BKN130 OVC220 M23/ RMK AC6CI2 BR

CYYC;2009-01-24 05:00;CYYC 240500Z 18004KT 8SM FEW095 OVC160 M23/M27 A3041 RMK AC2AC6 BR SLP418

CYYC;2009-01-24 06:00;CYYC 240600Z 20003KT 7SM FEW095 OVC150 M23/M27 A3040 RMK AC2AC6 BR SLP413

CYYC;2009-01-24 07:00;CYYC 240700Z 00000KT 10SM FEW100 BKN150 BKN220 M23/M27 A3041 RMK AC2AC3CI0 SLP416

CYYC;2009-01-24 08:00;CYYC 240800Z 11002KT 10SM FEW100 BKN220 M23/M27 A3042 RMK AC2CI1 SLP417

CYYC;2009-01-24 09:00;CYYC 240900Z 00000KT 10SM SCT090 BKN230 M24/M27 A3040 RMK AC3CI1 SLP413

CYYC;2009-01-24 10:00;CYYC 241000Z 02002KT 7SM FEW100 BKN230 M25/M29 A3041 RMK AC2CI1 BR SLP415

CYYC;2009-01-24 11:00;CYYC 241100Z 00000KT 7SM FEW100 BKN230 M25/M28 A3039 RMK AC2CI1 BR SLP411

CYYC;2009-01-24 12:00;CYYC 241200Z 36003KT 15SM OVC120 M25/M29 A3039 RMK AC7 SNOW COVER/MEDIUM PACK SLP412

CYYC;2009-01-24 13:00;CYYC 241300Z 34004KT 15SM BKN110 OVC240 M25/M29 A3038 RMK AC6CI2 SLP410

CYYC;2009-01-24 14:00;CYYC 241400Z 34003KT 15SM BKN100 OVC210 M24/M28 A3038 RMK AC7CI1 SLP411

CYYC;2009-01-24 15:00;CYYC 241500Z 34004KT 15SM BKN096 M23/M28 A3039 RMK AC5 SLP412

CYYC;2009-01-24 16:00;CYYC 241600Z 33004KT 25SM BKN100 BKN200 M23/M28 A3040 RMK AC4CI0 VIS S-SW 8 SLP414

CYYC;2009-01-24 17:00;CYYC 241700Z 35004KT 25SM SCT100 BKN210 M23/M28 A3039 RMK AC4CI1 SLP412

CYYC;2009-01-24 18:00;CYYC 241800Z 36004KT 25SM FEW100 BKN200 M22/M27 A3039 RMK AC2CI2 SLP408

CYYC;2009-01-24 19:00;CYYC 241900Z 34005KT 25SM FEW180 BKN200 M22/M27 A3037 RMK AC2CI2 SLP404

CYYC;2009-01-24 20:00;CYYC 242000Z 36007KT 25SM FEW180 BKN200 M21/M27 A3035 RMK AC1CI1 SLP396

CYYC;2009-01-24 21:00;CYYC 242100Z 35006KT 25SM FEW180 SCT220 M21/M26 A3034 RMK AC1CI1 SLP390

CYYC;2009-01-24 22:00;CYYC 242200Z 35006KT 25SM FEW180 SCT240 M20/M27 A3033 RMK AC1CI0 SLP389

CYYC;2009-01-24 23:00;CYYC 242300Z 35004KT 25SM FEW180 SCT240 M21/M27 A3033 RMK AC2CI0 SLP389

CYYC;2009-01-25 00:00;CYYC 250000Z 32004KT 25SM FEW090 FEW240 M21/M27 A3032 RMK AC2CI0 SLP387

CYYC;2009-01-25 01:00;CYYC 250100Z 25002KT 15SM FEW090 M21/M27 A3032 RMK AC1 SLP385

CYYC;2009-01-25 02:00;CYYC 250200Z 21004KT 15SM FEW090 M21/M26 A3031 RMK AC1 SLP382

CYYC;2009-01-25 03:00;CYYC 250300Z 00000KT 15SM FEW260 M23/M27 A3030 RMK CI0 SLP380

CYYC;2009-01-25 04:00;CYYC 250400Z 32003KT 15SM FEW260 M23/M28 A3029 RMK CI0 SLP377

CYYC;2009-01-25 05:00;CYYC 250500Z 30002KT 15SM FEW100 M23/M27 A3028 RMK AC1 SLP374

CYYC;2009-01-25 06:00;CYYC 250600Z 00000KT 15SM FEW100 M24/M28 A3027 RMK AC1 SLP370

CYYC;2009-01-25 07:00;CYYC 250700Z 22003KT 15SM FEW100 M23/M28 A3027 RMK AC1 SLP369

CYYC;2009-01-25 08:00;CYYC 250800Z 22004KT 15SM SKC M24/M28 A3026 RMK SLP365

CYYC;2009-01-25 09:00;CYYC 250900Z 21004KT 15SM SKC M24/M29 A3025 RMK SLP359

CYYC;2009-01-25 10:00;CYYC 251000Z 00000KT 15SM SKC M23/M27 A3024 RMK SLP356

CYYC;2009-01-25 11:00;CYYC 251100Z 22002KT 15SM SKC M23/M27 A3021 RMK SLP348

CYYC;2009-01-25 12:00;CYYC 251200Z 23004KT 15SM SKC M23/M28 A3020 RMK SNOW COVER/MEDIUM PACK SLP340

CYYC;2009-01-25 13:00;CYYC 251300Z 24006KT 15SM SKC M22/M27 A3018 RMK SLP335

CYYC;2009-01-25 14:00;CYYC 251400Z 23004KT 15SM SKC M18/M28 A3018 RMK SLP333

CYYC;2009-01-25 15:00;CYYC 251500Z 33005KT 15SM FEW160 FEW220 M17/M28 A3017 RMK AC1CI1 SLP324

CYYC;2009-01-25 16:00;CYYC 251600Z 27008KT 40SM FEW090 FEW220 M17/M28 A3017 RMK AC1CI1 SLP324

CYYC;2009-01-25 17:00;CYYC 251700Z 30011KT 40SM FEW160 FEW240 M15/M27 A3018 RMK AC1CI1 SLP326

CYYC;2009-01-25 18:00;CYYC 251800Z 31011G16KT 40SM FEW110 FEW210 M12/M26 A3017 RMK AC1CI1 SLP317

CYYC;2009-01-25 19:00;CYYC 251900Z 31015KT 40SM FEW050 FEW140 M10/M26 A3016 RMK SC1AC1 SLP313

CYYC;2009-01-25 20:00;CYYC 252000Z 33015KT 40SM FEW050 FEW140 M09/M25 A3014 RMK SC1AC1 SLP308

CYYC;2009-01-25 21:00;CYYC 252100Z 35010KT 40SM FEW050 M09/M23 A3013 RMK SC1 SLP302

CYYC;2009-01-25 22:00;CYYC 252200Z 01011KT 40SM FEW050 M11/M22 A3013 RMK SC1 SLP302

CYYC;2009-01-25 23:00;CYYC 252300Z 03005KT 40SM FEW050 M13/M23 A3015 RMK SC1 SLP308

CYYC;2009-01-26 00:00;CYYC 260000Z 04004KT 40SM FEW050 M14/M25 A3017 RMK SC1 SLP321

CYYC;2009-01-26 01:00;CYYC 260100Z 34005KT 15SM FEW050 FEW250 M16/M26 A3019 RMK CF1CI1 SLP325

CYYC;2009-01-26 02:00;CYYC 260200Z 00000KT 15SM SKC M16/M26 A3019 RMK SLP327

CYYC;2009-01-26 03:00;CYYC 260300Z 29003KT 15SM SKC M18/M25 A3020 RMK SLP327

CYYC;2009-01-26 04:00;CYYC 260400Z 00000KT 15SM SKC M21/M27 A3020 RMK SLP328

CYYC;2009-01-26 05:00;CYYC 260500Z 00000KT 15SM SKC M21/M27 A3020 RMK SLP328

CYYC;2009-01-26 06:00;CYYC 260600Z 00000KT 15SM SKC M22/M27 A3021 RMK SLP327

CYYC;2009-01-26 07:00;CYYC 260700Z 29004KT 15SM SKC M21/M27 A3020 RMK SLP324

CYYC;2009-01-26 08:00;CYYC 260800Z 00000KT 15SM SKC M22/M28 A3020 RMK SLP324

CYYC;2009-01-26 09:00;CYYC 260900Z CCA 20002KT 15SM SKC M22/M27 A3020 RMK SLP321

CYYC;2009-01-26 10:00;CYYC 261000Z 19003KT 15SM SKC M23/M27 A3019 RMK SLP319

CYYC;2009-01-26 11:00;CYYC 261100Z 00000KT 15SM SKC M23/M28 A3017 RMK SLP314

CYYC;2009-01-26 12:00;CYYC 261200Z 27002KT 15SM SKC M21/M26 A3017 RMK SLP315

CYYC;2009-01-26 13:00;CYYC 261300Z 00000KT 15SM SKC M22/M27 A3015 RMK SLP310

CYYC;2009-01-26 14:00;CYYC 261400Z 19002KT 15SM SKC M21/M26 A3013 RMK SLP304

CYYC;2009-01-26 15:00;CYYC 261500Z 18003KT 40SM SKC M21/M27 A3013 RMK SLP309

CYYC;2009-01-26 16:00;CYYC 261600Z 19009KT 40SM SKC M19/M26 A3012 RMK SLP306

CYYC;2009-01-26 17:00;CYYC 261700Z 20008KT 40SM SKC M16/M23 A3010 RMK SLP300

CYYC;2009-01-26 18:00;CYYC 261800Z 19006KT 40SM SKC M12/M23 A3008 RMK SLP285

CYYC;2009-01-26 19:00;CYYC 261900Z 19008KT 40SM SKC M11/M23 A3005 RMK SLP274

CYYC;2009-01-26 20:00;CYYC 262000Z 20006KT 40SM FEW140 FEW250 M09/M21 A3001 RMK AC1CI1 BOTH CLDS TR SLP262

CYYC;2009-01-26 21:00;CYYC 262100Z 19010KT 40SM FEW140 FEW250 M07/M20 A2997 RMK AC1CI1 BOTH CLDS TR SLP239

CYYC;2009-01-26 22:00;CYYC 262200Z 19009KT 40SM FEW140 FEW250 M07/M22 A2995 RMK AC1CI1 BOTH CLDS TR SLP232

CYYC;2009-01-26 23:00;CYYC 262300Z 19007KT 40SM FEW250 M07/M22 A2993 RMK CI0 SLP227

CYYC;2009-01-27 00:00;CYYC 270000Z 19006KT 40SM FEW210 BKN250 M09/M22 A2992 RMK CI1CI1 SLP221

CYYC;2009-01-27 01:00;CYYC 270100Z 21005KT 15SM BKN230 M10/M22 A2989 RMK CI2 SLP213

CYYC;2009-01-27 02:00;CYYC 270200Z 20007KT 15SM BKN220 M10/M22 A2987 RMK CI2 SLP205

CYYC;2009-01-27 03:00;CYYC 270300Z 19008KT 15SM BKN210 M11/M21 A2983 RMK CI2 SLP192

CYYC;2009-01-27 04:00;CYYC 270400Z 20007KT 15SM FEW180 BKN210 M10/M22 A2980 RMK AC1CI2 SLP183

CYYC;2009-01-27 05:00;CYYC 270500Z 19004KT 15SM FEW180 FEW210 M11/M22 A2977 RMK AC1CI1 SLP173

CYYC;2009-01-27 06:00;CYYC 270600Z 16003KT 15SM SKC M12/M21 A2974 RMK SLP152

CYYC;2009-01-27 07:00;CYYC 270700Z 21007KT 15SM FEW130 FEW220 M10/M21 A2970 RMK AC1CI1 SLP139

CYYC;2009-01-27 08:00;CYYC 270800Z 20007KT 15SM BKN150 M05/M22 A2966 RMK AC4 SLP128

CYYC;2009-01-27 09:00;CYYC 270900Z 21002KT 15SM SCT150 M01/M21 A2962 RMK AC2 SLP083

CYYC;2009-01-27 10:00;CYYC 271000Z 26023G31KT 15SM BKN120 00/M18 A2957 RMK AC6 SLP070

CYYC;2009-01-27 11:00;CYYC 271100Z 27026G36KT 15SM SCT120 BKN210 01/M17 A2957 RMK AC3CI1 SLP069

CYYC;2009-01-27 12:00;CYYC 271200Z 25020G36KT 15SM BKN100 BKN180 00/M17 A2954 RMK AC6AC0 SNOW COVER/MEDIUM PACK SLP056

CYYC;2009-01-27 13:00;CYYC 271300Z CCA 25025G36KT 15SM BKN090 00/M13 A2952 RMK AC6 SLP051

CYYC;2009-01-27 14:00;CYYC 271400Z 26019G26KT 15SM BKN090 BKN180 00/M12 A2950 RMK AC4AC2 SLP044

CYYC;2009-01-27 15:00;CYYC 271500Z 28024G36KT 40SM FEW068 SCT088 OVC180 02/M11 A2949 RMK AC2AC2AC2 SLP040

CYYC;2009-01-27 16:00;CYYC 271600Z 26028KT 40SM FEW068 SCT100 BKN160 02/M11 A2950 RMK AC2AC2AC4 SLP044

CYYC;2009-01-27 17:00;CYYC 271700Z 27018G25KT 40SM FEW050 FEW100 FEW180 01/M11 A2953 RMK SC1AC1AC2 SLP053

CYYC;2009-01-27 18:00;CYYC 271800Z CCA 26029G36KT 40SM FEW050 FEW090 FEW180 02/M11 A2950 RMK CU1AC1AC1 SLP045

CYYC;2009-01-27 18:47;CYYC 271847Z CCA 25038G46KT 40SM DRDU FEW050 FEW160 SCT220 02/ RMK CU1AC1CI2

CYYC;2009-01-27 19:00;CYYC 271900Z 26038G46KT 40SM DRDU FEW050 FEW150 BKN220 02/M11 A2947 RMK CU1AC1CI1 SLP036

CYYC;2009-01-27 20:00;CYYC 272000Z 26030G37KT 40SM DRDU FEW050 FEW150 BKN200 02/M11 A2947 RMK CU1AC1CI5 SLP038

CYYC;2009-01-27 21:00;CYYC 272100Z 27026G39KT 40SM FEW050 FEW150 BKN190 01/M11 A2949 RMK CU1AC1AC6 SLP029

CYYC;2009-01-27 22:00;CYYC 272200Z 26025KT 40SM FEW050 FEW150 FEW190 01/M12 A2948 RMK CU1AC1AC1 SLP026

CYYC;2009-01-27 23:00;CYYC 272300Z 27024G32KT 40SM FEW050 FEW150 FEW190 01/M13 A2948 RMK CU1AC1AC1 SLP026

CYYC;2009-01-28 00:00;CYYC 280000Z 27021G28KT 40SM FEW040 FEW150 BKN210 M00/M13 A2950 RMK SC1AC1CI4 ACSL SLP032

CYYC;2009-01-28 01:00;CYYC 280100Z 27017KT 40SM FEW040 BKN190 M01/M14 A2952 RMK SC1AC6 SLP037

CYYC;2009-01-28 02:00;CYYC 280200Z 27020KT 15SM FEW040 BKN170 M01/M14 A2954 RMK SC1AC6 SLP044

CYYC;2009-01-28 03:00;CYYC 280300Z 27017G25KT 15SM BKN180 OVC210 M02/M14 A2956 RMK AC7CI1 SLP052

CYYC;2009-01-28 04:00;CYYC 280400Z 27017G26KT 15SM BKN170 BKN220 M02/M14 A2959 RMK AC2CI2 SLP060

CYYC;2009-01-28 05:00;CYYC 280500Z 27019G26KT 15SM BKN170 BKN220 M02/M14 A2959 RMK AC3CI2 SLP061

CYYC;2009-01-28 06:00;CYYC 280600Z 27020G26KT 15SM SCT170 OVC210 M02/M14 A2962 RMK AC3CI4 SLP073

CYYC;2009-01-28 07:00;CYYC 280700Z 27017G24KT 15SM BKN190 OVC230 M02/M13 A2963 RMK AC5CI2 SLP075

CYYC;2009-01-28 08:00;CYYC 280800Z 27020G27KT 15SM BKN090 BKN170 OVC230 M02/M14 A2964 RMK AC5AC2CI2 SLP079

CYYC;2009-01-28 09:00;CYYC 280900Z CCA 27018G25KT 15SM SCT084 OVC170 M03/M14 A2966 RMK AC3AC5 SLP090

CYYC;2009-01-28 10:00;CYYC 281000Z 26019G25KT 15SM FEW085 BKN110 M02/M14 A2968 RMK AC2AC6 SLP095

CYYC;2009-01-28 11:00;CYYC 281100Z 26020G26KT 15SM OVC092 M02/M13 A2970 RMK AC7 VIRGA S SLP101

CYYC;2009-01-28 12:00;CYYC 281200Z 25019G27KT 15SM BKN088 OVC130 M02/M14 A2972 RMK AC6AC2 SNOW COVER/MEDIUM PACK SLP109

CYYC;2009-01-28 13:00;CYYC 281300Z 26025G31KT 15SM OVC083 M01/M13 A2973 RMK AC7 SLP112

CYYC;2009-01-28 14:00;CYYC 281400Z 25023G28KT 15SM FEW083 BKN180 BKN230 M02/M13 A2974 RMK AC2AC3CI1 SLP117

CYYC;2009-01-28 15:00;CYYC 281500Z 27020KT 40SM SCT100 BKN150 BKN190 M01/M13 A2977 RMK AC3AC1AC2 SLP130

CYYC;2009-01-28 16:00;CYYC 281600Z 27016G22KT 40SM SCT088 SCT100 SCT190 M01/M13 A2980 RMK AC1AC1AC1 VIRGA SE-N SLP140

CYYC;2009-01-28 17:00;CYYC 281700Z 27021G29KT 40SM FEW080 FEW100 FEW170 M01/M13 A2984 RMK AC1AC1AC1 SLP150

CYYC;2009-01-28 18:00;CYYC 281800Z 27024G30KT 40SM FEW040 FEW080 FEW140 00/M13 A2986 RMK SC1AC1AC1 VIRGA SE SLP158

CYYC;2009-01-28 19:00;CYYC 281900Z 26023G29KT 40SM FEW040 FEW080 FEW140 01/M13 A2987 RMK SC1AC2AC1 VIRGA NE SLP163

CYYC;2009-01-28 20:00;CYYC 282000Z 26021G32KT 40SM FEW040 BKN060 BKN170 02/M12 A2988 RMK SC1SC2AC1 VIRGA N-E SLP164

CYYC;2009-01-28 21:00;CYYC 282100Z 31017G26KT 40SM FEW030 BKN078 BKN170 02/M13 A2990 RMK SC2AC2AC2 SLP170

CYYC;2009-01-28 22:00;CYYC 282200Z 04007KT 40SM FEW030 BKN080 BKN170 M01/M08 A2992 RMK SC2AC4AC1 VIRGA SE SLP178

CYYC;2009-01-28 23:00;CYYC 282300Z 04003KT 40SM FEW030 BKN058 M01/M09 A2997 RMK SC2SC6 CIG RAG SLP191

CYYC;2009-01-29 00:00;CYYC 290000Z 18002KT 40SM FEW030 BKN060 M01/M09 A2999 RMK SC2SC5 VIRGA E SLP207

CYYC;2009-01-29 01:00;CYYC 290100Z 16004KT 30SM FEW030 FEW060 BKN085 M01/M10 A3001 RMK SC1SC1AC2 SLP212

CYYC;2009-01-29 02:00;CYYC 290200Z 27010KT 15SM FEW030 FEW060 BKN100 M01/M13 A3002 RMK SC1SC1AC2 SLP216

CYYC;2009-01-29 03:00;CYYC 290300Z 31010KT 15SM SCT150 BKN210 M02/M14 A3004 RMK AC2CI3 SLP224

CYYC;2009-01-29 04:00;CYYC 290400Z 32005KT 15SM FEW170 BKN210 M04/M13 A3004 RMK AC2CI5 SLP224

CYYC;2009-01-29 05:00;CYYC 290500Z 33002KT 15SM FEW170 OVC210 M04/M14 A3004 RMK AC2CI6 SLP224

CYYC;2009-01-29 06:00;CYYC 290600Z 00000KT 15SM SCT190 OVC220 M06/M14 A3003 RMK AC3CI4 SLP224

CYYC;2009-01-29 07:00;CYYC 290700Z 00000KT 15SM BKN140 OVC210 M05/M13 A3002 RMK AC6CI2 SLP222

CYYC;2009-01-29 08:00;CYYC 290800Z 16005KT 15SM BKN120 OVC210 M06/M13 A3001 RMK AC6CI2 SLP217

CYYC;2009-01-29 09:00;CYYC 290900Z 00000KT 15SM FEW120 OVC210 M06/M13 A2999 RMK AC2CI6 SLP208

CYYC;2009-01-29 10:00;CYYC 291000Z 21002KT 15SM SCT150 OVC210 M06/M13 A2997 RMK AC3CI4 SLP201

CYYC;2009-01-29 11:00;CYYC 291100Z 21003KT 15SM FEW130 SCT160 OVC220 M05/M12 A2994 RMK AC2AC2CI4 SLP192

CYYC;2009-01-29 12:00;CYYC 291200Z 22003KT 15SM SCT150 OVC210 M06/M12 A2992 RMK AC3CI5 SNOW COVER/MEDIUM PACK SLP189

CYYC;2009-01-29 13:00;CYYC 291300Z 18002KT 15SM SCT160 OVC210 M04/M11 A2990 RMK AC4CI3 SLP181

CYYC;2009-01-29 14:00;CYYC 291400Z 18002KT 15SM FEW062 SCT081 BKN160 OVC220 M02/M10 A2988 RMK SC2AC2AC2CI2 SLP177

CYYC;2009-01-29 15:00;CYYC 291500Z 28005KT 25SM BKN060 BKN100 BKN120 M02/M10 A2988 RMK SC5AC2AC1 SLP168

CYYC;2009-01-29 16:00;CYYC 291600Z 29003KT 40SM BKN075 BKN130 BKN200 01/M09 A2987 RMK AC5AC2CI1 SLP167

CYYC;2009-01-29 17:00;CYYC 291700Z 28012KT 40SM SCT050 BKN070 03/M09 A2987 RMK SC3AC1 SLP166

CYYC;2009-01-29 18:00;CYYC 291800Z 28017G22KT 40SM SCT050 OVC060 05/M08 A2987 RMK SC3SC2 SLP161

CYYC;2009-01-29 19:00;CYYC 291900Z 27012G19KT 40SM FEW050 BKN070 OVC200 07/M07 A2987 RMK SC2AC3CI1 SLP161

CYYC;2009-01-29 20:00;CYYC 292000Z 27015KT 40SM FEW050 BKN080 BKN120 07/M07 A2985 RMK SC2AC2AC1 SLP156

CYYC;2009-01-29 21:00;CYYC 292100Z 27019G25KT 40SM FEW050 FEW070 BKN090 08/M06 A2984 RMK SC1AC1AC3 ACSL SW SLP147

CYYC;2009-01-29 22:00;CYYC 292200Z CCA 26020G30KT 40SM FEW050 FEW070 BKN090 08/M06 A2984 RMK SC1AC1AC3 ACSL SW-W SLP148

CYYC;2009-01-29 23:00;CYYC 292300Z 26024G30KT 40SM FEW050 FEW070 BKN090 08/M05 A2986 RMK SC2AC1AC2 ACSL W-NW SLP154

CYYC;2009-01-30 00:00;CYYC 300000Z 26024G31KT 40SM FEW050 FEW090 BKN200 07/M05 A2987 RMK SC1AC2CI0 ACSL SW-W SLP159

CYYC;2009-01-30 01:00;CYYC 300100Z 27023G30KT 25SM SCT090 07/M05 A2989 RMK AC2 SLP164

CYYC;2009-01-30 02:00;CYYC 300200Z 26020G28KT 15SM FEW090 07/M05 A2989 RMK AC0 SLP165

CYYC;2009-01-30 03:00;CYYC 300300Z 26021KT 15SM FEW230 06/M05 A2990 RMK CI0 SLP165

CYYC;2009-01-30 04:00;CYYC 300400Z 25019G27KT 15SM FEW230 06/M05 A2992 RMK CI1 SLP169

CYYC;2009-01-30 05:00;CYYC 300500Z 26023G29KT 15SM FEW230 06/M05 A2993 RMK CI1 SLP173

CYYC;2009-01-30 06:00;CYYC 300600Z CCA 27022G27KT 15SM FEW230 07/M05 A2994 RMK CI1 SLP167

CYYC;2009-01-30 07:00;CYYC 300700Z 27022G27KT 15SM BKN220 07/M06 A2993 RMK CI3 SLP166

CYYC;2009-01-30 08:00;CYYC 300800Z 26021G27KT 15SM OVC230 07/M06 A2992 RMK CI6 SLP163

CYYC;2009-01-30 09:00;CYYC 300900Z 26018G24KT 15SM OVC240 07/M06 A2992 RMK CI6 SLP158

CYYC;2009-01-30 10:00;CYYC 301000Z 26024G30KT 15SM OVC210 08/M06 A2992 RMK CI6 SLP157

CYYC;2009-01-30 11:00;CYYC 301100Z 26023G29KT 15SM BKN180 OVC210 08/M06 A2993 RMK AC5CI3 SLP159

CYYC;2009-01-30 12:00;CYYC 301200Z 26021G29KT 15SM BKN190 OVC210 08/M06 A2992 RMK AC6CI2 SNOW COVER/MEDIUM PACK SLP156

CYYC;2009-01-30 13:00;CYYC 301300Z 25015G21KT 15SM BKN190 OVC210 08/M06 A2993 RMK AC6CI2 SLP161

CYYC;2009-01-30 14:00;CYYC 301400Z 26027G33KT 15SM BKN190 OVC210 09/M07 A2990 RMK AC6CI2 SLP151

CYYC;2009-01-30 15:00;CYYC 301500Z 24014KT 30SM SCT190 OVC210 09/M07 A2990 RMK AC4CI4 SLP150

CYYC;2009-01-30 16:00;CYYC 301600Z 24017KT 40SM SCT200 OVC220 09/M08 A2988 RMK CI3CI5 SLP145

CYYC;2009-01-30 17:00;CYYC 301700Z 23022KT 40SM FEW200 OVC220 10/M09 A2984 RMK CI2CI6 SLP130

CYYC;2009-01-30 18:00;CYYC 301800Z 24026G33KT 40SM BKN220 OVC230 09/M08 A2982 RMK CI5CI3 SLP120

CYYC;2009-01-30 19:00;CYYC 301900Z 24017KT 40SM FEW150 FEW180 SCT220 OVC240 09/M09 A2979 RMK AC1AC1CI2CI4 SLP112

CYYC;2009-01-30 20:00;CYYC 302000Z 24018KT 40SM SCT190 OVC240 09/M08 A2977 RMK AC3CI5 SLP106

CYYC;2009-01-30 21:00;CYYC 302100Z 18014KT 40SM FEW056 FEW130 SCT180 BKN210 OVC240 08/M06 A2972 RMK CU1AC2AC2CI2CI2 SLP088

CYYC;2009-01-30 22:00;CYYC 302200Z 17013KT 40SM FEW048 SCT180 OVC210 07/M05 A2970 RMK CU1AC4CI3 SLP082

CYYC;2009-01-30 23:00;CYYC 302300Z 19015G20KT 40SM FEW060 FEW160 SCT190 BKN210 08/M06 A2964 RMK CU1AC2AC2CI3 SLP064

CYYC;2009-01-31 00:00;CYYC 310000Z 18014KT 30SM FEW052 FEW170 BKN210 07/M06 A2962 RMK CU1AC2CI2 SLP050

CYYC;2009-01-31 01:00;CYYC 310100Z 21013KT 15SM FEW052 FEW180 SCT220 07/M06 A2958 RMK CU1AC1CI0 CU TR SLP040

CYYC;2009-01-31 02:00;CYYC 310200Z 24026KT 15SM FEW200 10/M09 A2953 RMK CI0 SLP025

CYYC;2009-01-31 03:00;CYYC 310300Z 21007KT 15SM FEW150 06/M07 A2949 RMK AC1 AC TR SLP008

CYYC;2009-01-31 04:00;CYYC 310400Z 26008KT 15SM FEW150 06/M08 A2945 RMK AC1 SLP997

CYYC;2009-01-31 05:00;CYYC 310500Z 23007KT 15SM BKN095 07/M06 A2941 RMK AC5 SLP984

CYYC;2009-01-31 06:00;CYYC 310600Z 26020G28KT 15SM FEW085 OVC110 07/M07 A2942 RMK AC2AC6 VIRGA S-W SLP979

CYYC;2009-01-31 07:00;CYYC 310700Z 29019G24KT 15SM FEW035 BKN090 OVC190 06/M06 A2945 RMK SC2AC4AC2 VIRGA S-W SLP989

CYYC;2009-01-31 07:21;CYYC 310721Z 35036G42KT 5SM -SN SCT010 OVC045 M01/ RMK SC4SC4

CYYC;2009-01-31 08:00;CYYC 310800Z 35031G42KT 10SM -SN SCT025 BKN062 OVC160 M03/M05 A2956 RMK SC4SC2AC2 PRESRR SLP024

CYYC;2009-01-31 09:00;CYYC 310900Z 35018G28KT 8SM -SN SCT027 BKN062 OVC120 M04/M05 A2960 RMK SC4SC2AC2 PRESRR SLP059

CYYC;2009-01-31 10:00;CYYC 311000Z 29008KT 15SM -SN SCT050 OVC160 M04/M06 A2964 RMK SC4AC3 SLP071

CYYC;2009-01-31 10:18;CYYC 311018Z 32011KT 15SM BKN091 OVC150 M03/ RMK AC6AC2

CYYC;2009-01-31 11:00;CYYC 311100Z 31012KT 15SM FEW063 BKN096 OVC150 M03/M06 A2965 RMK SC1AC6AC2 SLP077

CYYC;2009-01-31 12:00;CYYC 311200Z 00000KT 15SM SCT096 BKN110 M04/M06 A2967 RMK AC3AC4 SNOW COVER/MUCH LOOSE SLP086

CYYC;2009-01-31 13:00;CYYC 311300Z 23004KT 15SM FEW120 M05/M08 A2967 RMK AC1 AC TR SLP086

CYYC;2009-01-31 14:00;CYYC 311400Z 26013KT 15SM FEW120 FEW230 M04/M13 A2968 RMK AC1CI1 AC TR SLP089

CYYC;2009-01-31 15:00;CYYC 311500Z 26009KT 30SM FEW090 BKN120 M03/M14 A2969 RMK AC2AC1 SLP095

CYYC;2009-01-31 16:00;CYYC 311600Z 26012G17KT 30SM FEW040 FEW070 SCT090 M02/M14 A2971 RMK SC1AC2AC1 SLP101

CYYC;2009-01-31 17:00;CYYC 311700Z 27016KT 30SM FEW030 FEW090 SCT120 M02/M12 A2972 RMK SC1AC2AC1 SLP103

CYYC;2009-01-31 18:00;CYYC 311800Z 26015KT 30SM FEW040 FEW090 BKN150 M01/M10 A2973 RMK SC1AC2AC2 SLP101

CYYC;2009-01-31 19:00;CYYC 311900Z 24010KT 30SM FEW120 BKN150 00/M11 A2973 RMK AC2AC2 VIRGA S SLP102

CYYC;2009-01-31 20:00;CYYC 312000Z 29025KT 30SM FEW040 SCT070 BKN090 M01/M13 A2974 RMK SC2AC2AC2 VIRGA S-SW SLP105

CYYC;2009-01-31 21:00;CYYC 312100Z 30016KT 30SM FEW060 SCT110 BKN140 M01/M15 A2974 RMK SC1AC2AC1 VIRGA ALQDS SLP120

CYYC;2009-01-31 22:00;CYYC 312200Z 29015KT 40SM FEW070 FEW120 M00/M16 A2975 RMK AC1AC2 DIST SH SW SLP125

CYYC;2009-01-31 23:00;CYYC 312300Z 29011KT 30SM FEW090 FEW120 00/M17 A2977 RMK AC1AC2 DIST SH S-SW SLP130

CYYC;2009-02-01 01:00;CYYC 010100Z 26015KT 15SM FEW090 BKN130 M03/M15 A2980 RMK AC1AC2 SLP142

CYYC;2009-02-01 02:00;CYYC 010200Z 27012KT 15SM FEW120 M03/M15 A2982 RMK AC1 SLP148

CYYC;2009-02-01 03:00;CYYC 010300Z 34007KT 15SM FEW120 M05/M16 A2985 RMK AC1 SLP164

CYYC;2009-02-01 04:00;CYYC 010400Z 32007KT 15SM FEW110 M07/M17 A2988 RMK AC2 SLP174

CYYC;2009-02-01 05:00;CYYC 010500Z 31005KT 15SM SCT100 M08/M17 A2992 RMK AC2 SLP186

CYYC;2009-02-01 06:00;CYYC 010600Z 28011KT 15SM FEW100 M05/M18 A2994 RMK AC1 SLP194

CYYC;2009-02-01 07:00;CYYC 010700Z 27012KT 15SM FEW110 M04/M17 A2996 RMK AC1 SLP200

CYYC;2009-02-01 08:00;CYYC 010800Z 27010KT 15SM FEW110 M05/M17 A2998 RMK AC1 SLP204

CYYC;2009-02-01 09:00;CYYC 010900Z 28007KT 15SM FEW110 M05/M18 A2999 RMK AC1 SLP212

CYYC;2009-02-01 10:00;CYYC 011000Z 29005KT 15SM SKC M07/M17 A3002 RMK SLP220

CYYC;2009-02-01 11:00;CYYC 011100Z 00000KT 15SM SKC M09/M17 A3005 RMK SLP229

CYYC;2009-02-01 12:00;CYYC 011200Z CCA 23002KT 15SM SKC M08/M17 A3006 RMK SNOW COVER/MUCH LOOSE SLP239

CYYC;2009-02-01 13:00;CYYC 011300Z 00000KT 15SM SKC M11/M17 A3007 RMK SLP243

CYYC;2009-02-01 14:00;CYYC 011400Z 21005KT 15SM SCT230 M10/M17 A3007 RMK CI0 SLP244

CYYC;2009-02-01 15:00;CYYC 011500Z 18004KT 40SM FEW090 FEW180 FEW240 M09/M17 A3008 RMK AC1AC1CI0 SLP253

CYYC;2009-02-01 16:00;CYYC 011600Z 18004KT 40SM FEW040 FEW180 FEW210 M10/M16 A3009 RMK SC1AC0CI0 SLP256

CYYC;2009-02-01 17:00;CYYC 011700Z 18005KT 40SM FEW040 FEW120 SCT220 M07/M14 A3010 RMK SC1AC1CI0 SLP259

CYYC;2009-02-01 18:00;CYYC 011800Z 21007KT 40SM FEW050 FEW110 SCT180 BKN250 M04/M14 A3009 RMK SC1AC1AC0CI0 SLP250

CYYC;2009-02-01 19:00;CYYC 011900Z 15005KT 40SM FEW050 FEW110 SCT180 BKN240 M00/M14 A3007 RMK SC1AC1AC0CI0 SLP242

CYYC;2009-02-01 20:00;CYYC 012000Z 27013KT 40SM FEW050 FEW160 SCT240 01/M14 A3005 RMK SC1AC0CI0 SLP236

CYYC;2009-02-01 21:00;CYYC 012100Z 26015KT 40SM FEW050 FEW160 FEW210 01/M14 A3003 RMK SC1AC1CI0 SLP223

CYYC;2009-02-01 22:00;CYYC 012200Z 27011KT 40SM FEW050 BKN140 01/M14 A3002 RMK SC1AC2 SLP218

CYYC;2009-02-01 23:00;CYYC 012300Z 25012KT 40SM FEW050 BKN140 BKN250 01/M13 A3000 RMK SC1AS5CI1 DIST SH SW SLP214

CYYC;2009-02-02 00:00;CYYC 020000Z 26010G17KT 40SM FEW050 OVC120 00/M13 A3000 RMK SC1AS7 DIST SH SW SLP217

CYYC;2009-02-02 01:00;CYYC 020100Z 21009KT 15SM FEW050 FEW120 BKN190 M01/M12 A2999 RMK SC1AC1AS0 SLP213

CYYC;2009-02-02 02:00;CYYC 020200Z 23010KT 15SM OVC180 M01/M12 A2997 RMK AS6 SLP209

CYYC;2009-02-02 03:00;CYYC 020300Z 00000KT 15SM OVC150 M02/M12 A2996 RMK AS6 SLP207

CYYC;2009-02-02 04:00;CYYC 020400Z 00000KT 15SM BKN210 M01/M12 A2995 RMK CI4 SLP203

CYYC;2009-02-02 05:00;CYYC 020500Z 26011KT 15SM SCT210 M01/M12 A2993 RMK CI2 SLP199

CYYC;2009-02-02 06:00;CYYC 020600Z 27013KT 15SM BKN180 M00/M12 A2994 RMK AC2 SLP189

CYYC;2009-02-02 07:00;CYYC 020700Z 00000KT 15SM SCT160 BKN210 M01/M12 A2993 RMK AC3CI2 SLP186

CYYC;2009-02-02 08:00;CYYC 020800Z 22007KT 15SM BKN180 M02/M12 A2992 RMK AC4 SLP183

CYYC;2009-02-02 09:00;CYYC 020900Z 00000KT 15SM OVC120 M04/M11 A2990 RMK AC6 SLP176

CYYC;2009-02-02 10:00;CYYC 021000Z 00000KT 15SM OVC090 M04/M11 A2989 RMK AC7 SLP172

CYYC;2009-02-02 11:00;CYYC 021100Z 00000KT 15SM OVC080 M03/M10 A2986 RMK AC7 SLP163

CYYC;2009-02-02 12:00;CYYC 021200Z CCA 20005KT 15SM BKN060 OVC090 M03/M09 A2986 RMK SC3AC4 SNOW COVER/HARD PACK SLP160

CYYC;2009-02-02 13:00;CYYC 021300Z 00000KT 15SM FEW060 SCT150 BKN240 M01/M10 A2984 RMK SC2AC2CI2 SLP154

CYYC;2009-02-02 14:00;CYYC 021400Z 18003KT 15SM SCT120 BKN240 M02/M10 A2982 RMK AC3CI2 SLP149

CYYC;2009-02-02 15:00;CYYC 021500Z 00000KT 40SM FEW080 SCT150 OVC220 M02/M09 A2981 RMK AC1AC3CI5 SLP145

CYYC;2009-02-02 16:00;CYYC 021600Z 26005KT 40SM FEW070 SCT150 OVC230 00/M09 A2982 RMK AC1AC3CI5 SLP146

CYYC;2009-02-02 17:00;CYYC 021700Z 00000KT 40SM FEW070 FEW150 OVC210 00/M08 A2981 RMK AC1AC2CI6 SLP144

CYYC;2009-02-02 18:00;CYYC 021800Z 19003KT 40SM FEW060 SCT150 OVC210 02/M09 A2982 RMK SC1AC3CI5 SLP138

CYYC;2009-02-02 19:00;CYYC 021900Z 19003KT 40SM FEW060 BKN170 OVC230 03/M08 A2981 RMK SC1AC5CI2 SLP136

CYYC;2009-02-02 20:00;CYYC 022000Z 27019KT 40SM FEW060 BKN170 OVC230 07/M05 A2980 RMK SC1AC5CI3 WND DCTN ESTD SLP134

CYYC;2009-02-02 21:00;CYYC 022100Z CCA 27020G25KT 40SM FEW060 SCT170 OVC240 08/M05 A2982 RMK SC1AC3CI5 WND DCTN ESTD SLP135

CYYC;2009-02-02 22:00;CYYC 022200Z 26021G26KT 40SM FEW065 SCT170 OVC230 08/M05 A2984 RMK SC1AC3CI4 SLP141

CYYC;2009-02-02 23:00;CYYC 022300Z 27017G27KT 40SM FEW065 SCT180 OVC240 08/M05 A2987 RMK SC1AC3CI4 SLP153

CYYC;2009-02-03 00:00;CYYC 030000Z 26017KT 40SM FEW065 FEW180 OVC240 07/M05 A2990 RMK SC1AC2CI4 SLP165

CYYC;2009-02-03 01:00;CYYC 030100Z 25017KT 40SM FEW065 FEW180 BKN240 06/M05 A2993 RMK SC1AC2CI4 SC TR SLP175

CYYC;2009-02-03 02:00;CYYC 030200Z 26011KT 15SM FEW070 FEW180 BKN240 05/M05 A2997 RMK AC1AC2CI2 SLP185

CYYC;2009-02-03 03:00;CYYC 030300Z 26011KT 15SM FEW070 FEW180 BKN240 05/M05 A2998 RMK AC1AC2CI2 SLP194

CYYC;2009-02-03 04:00;CYYC 030400Z 29008KT 15SM FEW150 SCT240 06/M05 A3001 RMK AC1CI2 SLP203

CYYC;2009-02-03 05:00;CYYC 030500Z 04002KT 15SM FEW180 SCT240 02/M05 A3004 RMK AC1CI2 SLP210

CYYC;2009-02-03 06:00;CYYC 030600Z 27006KT 15SM FEW250 05/M05 A3004 RMK CI1 SLP210

CYYC;2009-02-03 07:00;CYYC 030700Z 27006KT 15SM FEW250 05/M05 A3004 RMK CI1 SLP210

CYYC;2009-02-03 08:00;CYYC 030800Z 17003KT 15SM BKN090 M01/M06 A3005 RMK AC6 SLP213

CYYC;2009-02-03 09:00;CYYC 030900Z 21002KT 15SM BKN090 BKN120 M00/M05 A3006 RMK AC4AC2 SLP214

CYYC;2009-02-03 10:00;CYYC 031000Z 00000KT 15SM BKN120 BKN210 01/M05 A3005 RMK AC4CI2 SLP212

CYYC;2009-02-03 11:00;CYYC 031100Z 22004KT 15SM BKN120 BKN210 00/M05 A3004 RMK AC4CI2 SLP209

CYYC;2009-02-03 12:00;CYYC 031200Z 22004KT 15SM BKN130 BKN210 M01/M05 A3003 RMK AC5CI2 SNOW COVER/TRACE LOOSE SLP206

CYYC;2009-02-03 13:00;CYYC 031300Z 17005KT 15SM SCT130 BKN210 M01/M05 A3003 RMK AC2CI2 SLP206

CYYC;2009-02-03 14:00;CYYC 031400Z 23006KT 15SM BKN130 OVC210 M00/M05 A3002 RMK AC4CI3 SLP203

CYYC;2009-02-03 15:00;CYYC 031500Z 21004KT 40SM FEW130 BKN210 M00/M05 A3003 RMK AC2CI5 SLP207

CYYC;2009-02-03 16:00;CYYC 031600Z 19004KT 40SM FEW130 BKN210 BKN250 M00/M05 A3004 RMK AC1CI5CS2 SLP210

CYYC;2009-02-03 17:00;CYYC 031700Z 19004KT 40SM FEW140 BKN220 BKN250 02/M04 A3005 RMK AC1CI6CS1 SLP213

CYYC;2009-02-03 18:00;CYYC 031800Z 25008KT 40SM FEW140 BKN210 BKN250 06/M06 A3005 RMK AC1CI5CS2 SLP209

CYYC;2009-02-03 19:00;CYYC 031900Z 20006KT 40SM FEW160 BKN190 BKN240 07/M06 A3006 RMK AC1AS7CS1 SLP210

CYYC;2009-02-03 20:00;CYYC 032000Z 00000KT 40SM FEW160 BKN210 06/M06 A3003 RMK AC2CS5 SLP203

CYYC;2009-02-03 21:00;CYYC 032100Z 23010KT 40SM FEW160 BKN220 09/M09 A3003 RMK AC2CS5 SLP204

CYYC;2009-02-03 22:00;CYYC 032200Z 23004KT 40SM FEW160 OVC240 07/M07 A3001 RMK AC2CS6 ACSL S SLP199

CYYC;2009-02-03 23:00;CYYC 032300Z 20004KT 40SM FEW140 OVC250 05/M07 A3000 RMK AC1CS6 SLP194

CYYC;2009-02-04 00:00;CYYC 040000Z 19004KT 40SM FEW140 OVC220 06/M08 A2997 RMK AC1CS7 SLP189

CYYC;2009-02-04 01:00;CYYC 040100Z 21008KT 40SM FEW140 BKN190 06/M08 A2996 RMK AC2AS5 SLP184

CYYC;2009-02-04 02:00;CYYC 040200Z 19011KT 15SM FEW140 OVC190 06/M09 A2993 RMK AC2AS4 SLP177

CYYC;2009-02-04 03:00;CYYC 040300Z 20010KT 15SM FEW170 OVC250 05/M09 A2991 RMK AC1CI4 SLP166

CYYC;2009-02-04 04:00;CYYC 040400Z 20007KT 15SM OVC250 05/M10 A2988 RMK CS6 SLP159

CYYC;2009-02-04 05:00;CYYC 040500Z 22011KT 15SM SCT220 OVC250 05/M10 A2985 RMK CS3CI3 SLP149

CYYC;2009-02-04 06:00;CYYC 040600Z 20006KT 15SM FEW220 OVC250 05/M11 A2983 RMK CS2CI6 SLP132

CYYC;2009-02-04 07:00;CYYC 040700Z 20013KT 15SM FEW220 OVC250 04/M10 A2980 RMK CS2CI6 SLP123

CYYC;2009-02-04 08:00;CYYC 040800Z 19011KT 15SM FEW220 OVC250 04/M09 A2979 RMK CS2CI5 SLP120

CYYC;2009-02-04 09:00;CYYC 040900Z 20005KT 15SM OVC250 04/M07 A2979 RMK CI6 SLP115

CYYC;2009-02-04 10:00;CYYC 041000Z 21008KT 15SM OVC250 04/M06 A2978 RMK CI6 SLP110

CYYC;2009-02-04 11:00;CYYC 041100Z 20007KT 15SM OVC250 03/M06 A2977 RMK CI6 SLP109

CYYC;2009-02-04 12:00;CYYC 041200Z 18006KT 15SM OVC250 01/M06 A2977 RMK CI6 SNOW COVER/HARD PACK SLP116

CYYC;2009-02-04 13:00;CYYC 041300Z 17004KT 15SM OVC250 M01/M07 A2976 RMK CI6 SLP113

CYYC;2009-02-04 14:00;CYYC 041400Z 00000KT 15SM OVC250 M00/M07 A2975 RMK CI6 SLP110

CYYC;2009-02-04 15:00;CYYC 041500Z 19005KT 40SM FEW140 OVC230 04/M08 A2974 RMK AC2CS5 SLP101

CYYC;2009-02-04 16:00;CYYC 041600Z 00000KT 40SM FEW140 BKN210 03/M08 A2975 RMK AC2CS5 ACSL S SLP105

CYYC;2009-02-04 17:00;CYYC 041700Z 14007KT 40SM SCT160 BKN250 03/M07 A2974 RMK AC3CS4 SLP102

CYYC;2009-02-04 18:00;CYYC 041800Z 20010KT 40SM SCT160 BKN210 BKN250 09/M08 A2973 RMK AC3CS1CI2 SLP091

CYYC;2009-02-04 19:00;CYYC 041900Z 28002KT 40SM FEW140 BKN210 BKN260 10/M07 A2973 RMK AC2CI2CI1 SLP092

CYYC;2009-02-04 20:00;CYYC 042000Z 27014KT 40SM FEW140 FEW210 BKN280 13/M07 A2972 RMK AC1CI2CI1 SLP089

CYYC;2009-02-04 21:00;CYYC 042100Z 32005KT 40SM FEW140 FEW230 BKN280 14/M07 A2973 RMK AC1CI1CI0 SLP087

CYYC;2009-02-04 22:00;CYYC 042200Z 01004KT 40SM FEW150 FEW200 BKN280 12/M06 A2975 RMK AC1CI2CI0 SLP094

CYYC;2009-02-04 23:00;CYYC 042300Z 35004KT 40SM FEW150 FEW220 BKN260 11/M05 A2977 RMK AC1CI2CI3 SLP098

CYYC;2009-02-05 00:00;CYYC 050000Z 27012KT 40SM FEW140 FEW190 BKN260 12/M07 A2977 RMK AC1AC2CI2 SLP106

CYYC;2009-02-05 01:00;CYYC 050100Z 29008KT 40SM FEW140 FEW190 SCT260 09/M07 A2977 RMK AC1AC1CI0 SLP106

CYYC;2009-02-05 02:00;CYYC 050200Z 29009KT 15SM BKN240 08/M07 A2976 RMK CI0 SLP105

CYYC;2009-02-05 03:00;CYYC 050300Z 15004KT 15SM SCT220 BKN250 08/M08 A2976 RMK CS1CI0 HALO SLP104

CYYC;2009-02-05 04:00;CYYC 050400Z 27007KT 15SM FEW250 08/M08 A2975 RMK CI0 SLP102

CYYC;2009-02-05 05:00;CYYC 050500Z 26007KT 15SM FEW210 FEW250 06/M08 A2975 RMK CI1CI0 SLP100

CYYC;2009-02-05 06:00;CYYC 050600Z 23004KT 15SM FEW250 03/M06 A2974 RMK CI1 SLP097

CYYC;2009-02-05 07:00;CYYC 050700Z 18003KT 15SM FEW250 00/M06 A2973 RMK CI1 SLP095

CYYC;2009-02-05 08:00;CYYC 050800Z 00000KT 15SM SCT250 02/M07 A2971 RMK CI2 SLP088

CYYC;2009-02-05 09:00;CYYC 050900Z 26002KT 15SM BKN240 00/M07 A2970 RMK CI2 SLP083

CYYC;2009-02-05 10:00;CYYC 051000Z 08002KT 15SM BKN230 M01/M07 A2969 RMK CI3 SLP079

CYYC;2009-02-05 11:00;CYYC 051100Z 26005KT 15SM BKN220 M02/M07 A2968 RMK CI4 SLP076

CYYC;2009-02-05 12:00;CYYC 051200Z 20002KT 15SM BKN220 M02/M07 A2968 RMK CI4 SNOW COVER/HARD PACK SLP081

CYYC;2009-02-05 13:00;CYYC 051300Z 22003KT 15SM BKN220 M02/M07 A2967 RMK CI4 SLP079

CYYC;2009-02-05 14:00;CYYC 051400Z 00000KT 15SM FEW210 SCT250 M01/M09 A2967 RMK CI1CI0 SLP079

CYYC;2009-02-05 15:00;CYYC 051500Z 22003KT 30SM SCT210 BKN250 00/M09 A2967 RMK CI2CI2 SLP080

CYYC;2009-02-05 16:00;CYYC 051600Z 24003KT 40SM FEW140 BKN250 01/M09 A2968 RMK AC2CI2 SLP084

CYYC;2009-02-05 17:00;CYYC 051700Z 24004KT 40SM FEW140 BKN240 01/M07 A2968 RMK AC2CI2 SLP082

CYYC;2009-02-05 18:00;CYYC 051800Z 20003KT 40SM FEW140 BKN240 03/M05 A2967 RMK AC2CI2 SLP081

CYYC;2009-02-05 19:00;CYYC 051900Z 21004KT 40SM FEW140 SCT180 BKN210 BKN240 07/M06 A2966 RMK AC2AC2CI2CI0 SLP080

CYYC;2009-02-05 20:00;CYYC 052000Z 14005KT 40SM FEW140 SCT180 BKN220 BKN240 11/M10 A2963 RMK AC1AC2CI2CI0 SLP069

CYYC;2009-02-05 21:00;CYYC 052100Z 23007KT 40SM FEW150 SCT190 BKN220 BKN240 12/M09 A2962 RMK AC1AC2CI2CI1 SLP056

CYYC;2009-02-05 22:00;CYYC 052200Z 16002KT 40SM FEW150 SCT180 BKN250 12/M09 A2960 RMK AC1AC2CI2 SLP050

CYYC;2009-02-05 23:00;CYYC 052300Z 20007KT 40SM FEW060 FEW150 SCT180 BKN210 10/M06 A2959 RMK CU1AC1AC2CI2 CU TR SLP047

CYYC;2009-02-06 00:00;CYYC 060000Z 18007KT 30SM FEW068 SCT180 BKN210 BKN250 09/M08 A2958 RMK CU1AC3CI2CI1 CU TR SLP049

CYYC;2009-02-06 01:00;CYYC 060100Z 09003KT 15SM FEW068 FEW180 BKN240 08/M09 A2957 RMK CU1AC2CI0 ACSL ALQDS SLP047

CYYC;2009-02-06 02:00;CYYC 060200Z 21010KT 15SM FEW180 SCT240 05/M06 A2956 RMK AC1CI0 SLP043

CYYC;2009-02-06 03:00;CYYC 060300Z 09011KT 15SM FEW190 BKN250 03/M06 A2956 RMK AC1CI1 SLP048

CYYC;2009-02-06 03:51;CYYC 060351Z 36004KT 15SM FEW160 BKN250 01/ RMK AC2CI1

CYYC;2009-02-06 04:00;CYYC 060400Z 35010KT 15SM SCT160 BKN250 01/M05 A2956 RMK AS3CI1 SLP049

CYYC;2009-02-06 05:00;CYYC 060500Z 34007KT 15SM SCT140 OVC250 M01/M06 A2956 RMK AC4CI2 SLP047

CYYC;2009-02-06 06:00;CYYC 060600Z 03004KT 15SM BKN190 OVC220 M01/M05 A2955 RMK AC5CI2 SLP044

CYYC;2009-02-06 07:00;CYYC 060700Z 07003KT 15SM BKN190 OVC230 M02/M05 A2955 RMK AC5CI2 SLP044

CYYC;2009-02-06 08:00;CYYC 060800Z 05005KT 15SM BKN150 OVC230 M02/M06 A2956 RMK AC5CI2 SLP047

CYYC;2009-02-06 09:00;CYYC 060900Z 03004KT 15SM BKN140 OVC230 M03/M05 A2955 RMK AC5CI2 SLP037

CYYC;2009-02-06 10:00;CYYC 061000Z 35005KT 15SM BKN150 OVC230 M03/M05 A2954 RMK AC6CI2 SLP033

CYYC;2009-02-06 11:00;CYYC 061100Z 00000KT 15SM BKN140 OVC220 M03/M05 A2954 RMK AC6CI2 SLP034

CYYC;2009-02-06 12:00;CYYC 061200Z 28003KT 15SM BKN140 OVC220 M03/M06 A2954 RMK AC6CI2 SNOW COVER/HARD PACK SLP036

CYYC;2009-02-06 13:00;CYYC 061300Z 33006KT 15SM BKN150 OVC240 M03/M06 A2953 RMK AC6CI2 SLP033

CYYC;2009-02-06 14:00;CYYC 061400Z 35008KT 15SM FEW150 BKN210 OVC250 M03/M06 A2954 RMK AC2CI4CI2 SLP036

CYYC;2009-02-06 15:00;CYYC 061500Z 35006KT 25SM SCT150 BKN210 OVC250 M04/M06 A2955 RMK AC4CI2CI1 SLP049

CYYC;2009-02-06 16:00;CYYC 061600Z 32010KT 30SM SCT150 BKN210 OVC230 M03/M06 A2956 RMK AC4CI2CI1 SLP054

CYYC;2009-02-06 17:00;CYYC 061700Z 33010KT 30SM FEW100 SCT150 OVC180 M01/M06 A2957 RMK AC1AC3AC3 SLP057

CYYC;2009-02-06 18:00;CYYC 061800Z 34009KT 30SM SCT100 BKN120 OVC180 M01/M06 A2959 RMK AC3AC2AC2 SLP065

CYYC;2009-02-06 19:00;CYYC 061900Z 36017KT 30SM SCT080 BKN110 OVC150 M02/M06 A2963 RMK AC4AC3AC1 SLP076

CYYC;2009-02-06 20:00;CYYC 062000Z 34021G27KT 30SM SCT080 BKN120 OVC150 M02/M06 A2964 RMK AC3AC3AC2 SLP081

CYYC;2009-02-06 21:00;CYYC 062100Z 34022G27KT 30SM FEW050 BKN080 OVC120 M02/M06 A2966 RMK SC1AC5AC2 SLP095

CYYC;2009-02-06 22:00;CYYC 062200Z 34019G25KT 30SM FEW050 FEW080 SCT110 OVC120 M01/M05 A2970 RMK SC1AC2AC2AC3 CU TR SLP106

CYYC;2009-02-06 23:00;CYYC 062300Z 35023KT 30SM BKN067 BKN080 OVC120 M01/M05 A2974 RMK AC5AC2AC1 SLP117

CYYC;2009-02-07 00:00;CYYC 070000Z 35019G27KT 20SM FEW024 BKN070 OVC090 M02/M04 A2978 RMK CU1AC6AC2 SLP134

CYYC;2009-02-07 01:00;CYYC 070100Z 36017KT 10SM SCT060 BKN080 OVC130 M02/M04 A2982 RMK SC4AC3AC1 SLP146

CYYC;2009-02-07 02:00;CYYC 070200Z 35014KT 10SM FEW028 SCT060 BKN090 M02/M04 A2986 RMK CU2SC2AC2 SLP161

CYYC;2009-02-07 03:00;CYYC 070300Z 35011KT 12SM FEW095 BKN110 OVC240 M02/M05 A2989 RMK AC2AC4CI2 SLP177

CYYC;2009-02-07 04:00;CYYC 070400Z 36007KT 15SM FEW100 FEW250 M03/M06 A2992 RMK AC1CI0 SLP186

CYYC;2009-02-07 05:00;CYYC 070500Z 00000KT 15SM FEW120 FEW250 M04/M06 A2994 RMK AC1CI0 AC TR SLP191

CYYC;2009-02-07 06:00;CYYC 070600Z 00000KT 15SM SKC M06/M08 A2994 RMK SLP194

CYYC;2009-02-07 07:00;CYYC 070700Z 20005KT 15SM SKC M06/M07 A2995 RMK SLP197

CYYC;2009-02-07 08:00;CYYC 070800Z 20006KT 15SM SKC M06/M07 A2994 RMK SLP196

CYYC;2009-02-07 09:00;CYYC 070900Z 20007KT 15SM SKC M06/M08 A2994 RMK SLP197

CYYC;2009-02-07 10:00;CYYC 071000Z CCA 19009KT 15SM SKC M06/M08 A2994 RMK SLP197

CYYC;2009-02-07 11:00;CYYC 071100Z 21006KT 15SM SKC M06/M08 A2991 RMK SLP187

CYYC;2009-02-07 12:00;CYYC 071200Z 18005KT 15SM SKC M09/M09 A2990 RMK SNOW COVER/HARD PACK SLP184

CYYC;2009-02-07 13:00;CYYC 071300Z 19007KT 15SM SKC M07/M08 A2987 RMK SLP177

CYYC;2009-02-07 14:00;CYYC 071400Z 18007KT 15SM SKC M09/M10 A2986 RMK SLP174

CYYC;2009-02-07 15:00;CYYC 071500Z 16003KT 40SM FEW240 M06/M10 A2986 RMK CI1 FROIN SLP169

CYYC;2009-02-07 16:00;CYYC 071600Z 20005KT 40SM FEW140 BKN240 M03/M09 A2986 RMK AC1CI0 ACSL W SLP168

CYYC;2009-02-07 17:00;CYYC 071700Z 27016KT 40SM FEW048 FEW140 BKN240 03/M09 A2986 RMK CU1AC1CI0 SLP169

CYYC;2009-02-07 18:00;CYYC 071800Z 28012G18KT 40SM FEW052 FEW140 BKN220 05/M09 A2987 RMK CU1AC2CI1 CU TR SLP164

CYYC;2009-02-07 19:00;CYYC 071900Z 27018KT 40SM FEW060 FEW140 BKN220 06/M09 A2987 RMK CU1AC2CI1 CU TR SLP163

CYYC;2009-02-07 20:00;CYYC 072000Z 27020G25KT 40SM FEW060 FEW140 BKN200 07/M09 A2987 RMK CU1AC2CI1 ACSL S-SW-W/CU TR SLP162

CYYC;2009-02-07 21:00;CYYC 072100Z 26017KT 40SM FEW060 FEW140 BKN200 07/M08 A2985 RMK CU1AC2CI1 CU TR SLP150

CYYC;2009-02-07 22:00;CYYC 072200Z 25015G22KT 40SM FEW060 FEW110 BKN200 08/M07 A2984 RMK CU1AC2CI1 ACSL S-SW-W SLP147

CYYC;2009-02-07 23:00;CYYC 072300Z 26018KT 40SM FEW056 FEW130 BKN210 07/M08 A2984 RMK CU1AC2CI2 ACSL S-SW-W SLP148

CYYC;2009-02-08 00:00;CYYC 080000Z 26015KT 40SM FEW052 FEW090 SCT150 BKN210 06/M08 A2984 RMK CU1AC2AC2CI1 ACSL SW/CU TR SLP154

CYYC;2009-02-08 01:00;CYYC 080100Z 26014KT 30SM FEW052 FEW090 BKN250 05/M08 A2984 RMK CU1AC2CI2 SLP153

CYYC;2009-02-08 02:00;CYYC 080200Z 27013G19KT 15SM SCT090 BKN200 BKN240 05/M08 A2984 RMK AC2CI1CI1 SLP154

CYYC;2009-02-08 03:00;CYYC 080300Z 25011G17KT 40SM FEW085 BKN240 04/M08 A2983 RMK AC2CI2 SLP149

CYYC;2009-02-08 04:00;CYYC 080400Z 26012G17KT 40SM FEW085 BKN240 04/M08 A2983 RMK AC2CI2 SLP147

CYYC;2009-02-08 05:00;CYYC 080500Z 25012KT 15SM FEW085 BKN240 04/M08 A2982 RMK AC1CI2 SLP144

CYYC;2009-02-08 06:00;CYYC 080600Z 26010KT 15SM SCT240 04/M08 A2980 RMK CI2 SLP123

CYYC;2009-02-08 07:00;CYYC 080700Z 27011G17KT 15SM FEW240 05/M08 A2978 RMK CI1 SLP118

CYYC;2009-02-08 08:00;CYYC 080800Z 29007KT 15SM FEW240 04/M08 A2978 RMK CI1 SLP116

CYYC;2009-02-08 09:00;CYYC 080900Z 29003KT 15SM BKN240 02/M08 A2977 RMK CI1 SLP112

CYYC;2009-02-08 10:00;CYYC 081000Z 17005KT 15SM BKN240 02/M08 A2974 RMK CI1 SLP104

CYYC;2009-02-08 11:00;CYYC 081100Z 19004KT 15SM BKN240 03/M08 A2973 RMK CI3 SLP100

CYYC;2009-02-08 12:00;CYYC 081200Z 22003KT 15SM SCT250 01/M08 A2971 RMK CI2 SLP095

CYYC;2009-02-08 13:00;CYYC 081300Z 00000KT 15SM FEW250 03/M08 A2969 RMK CI1 SLP090

CYYC;2009-02-08 14:00;CYYC 081400Z 20004KT 15SM BKN250 M01/M08 A2967 RMK CI2 SLP083

CYYC;2009-02-08 15:00;CYYC 081500Z 00000KT 40SM FEW090 FEW100 FEW210 M02/M08 A2965 RMK AC1AC1CI0 SLP082

CYYC;2009-02-08 16:00;CYYC 081600Z 20007KT 40SM FEW100 SCT200 BKN250 M00/M07 A2964 RMK AC1CI2CI0 SLP078

CYYC;2009-02-08 17:00;CYYC 081700Z 23008KT 40SM FEW150 FEW180 BKN210 BKN250 01/M07 A2962 RMK AC1AC1CI2CI0 SLP070

CYYC;2009-02-08 18:00;CYYC 081800Z 22006KT 40SM FEW150 FEW180 SCT220 BKN250 06/M06 A2960 RMK AC1AC1CI1CI0 SLP050

CYYC;2009-02-08 19:00;CYYC 081900Z 20007KT 40SM FEW160 SCT210 BKN260 07/M06 A2956 RMK AC1CI1CI0 SLP040

CYYC;2009-02-08 20:00;CYYC 082000Z 23004KT 40SM FEW100 FEW220 09/M06 A2953 RMK AC1CI1 SLP030

CYYC;2009-02-08 21:00;CYYC 082100Z 16006KT 40SM FEW090 FEW130 FEW230 07/M04 A2950 RMK AC1AC1CI0 SLP018

CYYC;2009-02-08 22:00;CYYC 082200Z 14007KT 40SM FEW100 07/M05 A2948 RMK AC1 SLP012

CYYC;2009-02-08 23:00;CYYC 082300Z 18004KT 40SM FEW130 FEW230 08/M06 A2946 RMK AC1CI1 SLP008

CYYC;2009-02-09 00:00;CYYC 090000Z 14004KT 40SM FEW110 FEW230 05/M05 A2944 RMK AC1CI1 SLP002

CYYC;2009-02-09 01:00;CYYC 090100Z 18003KT 40SM FEW120 FEW230 02/M06 A2942 RMK AC1CI1 SLP997

CYYC;2009-02-09 02:00;CYYC 090200Z 21003KT 15SM FEW150 FEW220 01/M06 A2940 RMK AC1CI1 SLP990

CYYC;2009-02-09 03:00;CYYC 090300Z 17003KT 15SM FEW150 FEW220 M02/M05 A2939 RMK AC1CI1 SLP997

CYYC;2009-02-09 04:00;CYYC 090400Z 29002KT 15SM FEW150 FEW220 M01/M05 A2937 RMK AC1CI1 SLP991

CYYC;2009-02-09 05:00;CYYC 090500Z 34004KT 15SM FEW150 BKN230 M01/M07 A2936 RMK AC1CI1 SLP989

CYYC;2009-02-09 06:00;CYYC 090600Z 31002KT 15SM FEW150 BKN220 M01/M06 A2935 RMK AC1CI4 SLP971

CYYC;2009-02-09 07:00;CYYC 090700Z 34004KT 15SM BKN150 BKN220 01/M06 A2934 RMK AC5CI1 SLP968

CYYC;2009-02-09 08:00;CYYC 090800Z 05003KT 15SM BKN150 BKN220 02/M06 A2932 RMK AC6CI1 SLP964

CYYC;2009-02-09 09:00;CYYC 090900Z 35006KT 15SM BKN150 02/M07 A2931 RMK AC6 SLP951

CYYC;2009-02-09 10:00;CYYC 091000Z 35006KT 15SM BKN150 02/M07 A2931 RMK AC6 SLP951

CYYC;2009-02-09 11:00;CYYC 091100Z 32009KT 15SM BKN160 BKN220 01/M07 A2930 RMK AC6CI1 SLP949

CYYC;2009-02-09 12:00;CYYC 091200Z CCA 33004KT 15SM FEW160 BKN220 00/M07 A2930 RMK AC1CI2 SNOW COVER/TRACE LOOSE SLP954

CYYC;2009-02-09 13:00;CYYC 091300Z 33009KT 15SM FEW080 BKN220 01/M08 A2931 RMK AC1CI1 SLP956

CYYC;2009-02-09 14:00;CYYC 091400Z 32010KT 15SM FEW120 SCT230 00/M08 A2932 RMK AC1CI1 SLP959

CYYC;2009-02-09 15:00;CYYC 091500Z 30009KT 40SM FEW150 FEW210 SCT260 01/M09 A2933 RMK AC1CI2CI0 SLP972

CYYC;2009-02-09 16:00;CYYC 091600Z 32009KT 40SM FEW130 BKN210 BKN260 01/M08 A2935 RMK AC1CI2CI1 SLP978

CYYC;2009-02-09 17:00;CYYC 091700Z 34005KT 40SM FEW150 BKN210 BKN260 M01/M07 A2936 RMK AC2CI2CI1 SLP981

CYYC;2009-02-09 18:00;CYYC 091800Z 32014KT 40SM FEW190 BKN220 BKN260 03/M08 A2936 RMK AC2CI2CI1 SLP980

CYYC;2009-02-09 19:00;CYYC 091900Z 32016KT 40SM FEW190 BKN220 BKN260 04/M07 A2937 RMK AC2CI2CI1 SLP983

CYYC;2009-02-09 20:00;CYYC 092000Z 32013KT 40SM FEW190 SCT220 BKN260 05/M06 A2936 RMK AC1CI2CI1 SLP980

CYYC;2009-02-09 21:00;CYYC 092100Z 36013KT 40SM FEW050 FEW140 FEW250 04/M05 A2939 RMK SC1AC1CI1 SC TR SLP982

CYYC;2009-02-09 22:00;CYYC 092200Z 01009KT 40SM FEW050 FEW140 FEW250 04/M04 A2940 RMK SC1AC1CI1 SC+AC TR SLP987

CYYC;2009-02-09 23:00;CYYC 092300Z 35012KT 40SM FEW050 FEW220 FEW270 04/M05 A2942 RMK SC1CI1CI0 SC+LWR CI TR SLP992

CYYC;2009-02-10 00:00;CYYC 100000Z 36008KT 40SM FEW050 FEW160 FEW220 SCT270 02/M05 A2944 RMK SC1AC1CI1CI0 SC+AC TR SLP009

CYYC;2009-02-10 01:00;CYYC 100100Z 35006KT 20SM FEW050 FEW080 FEW170 SCT250 01/M05 A2947 RMK SC1AC1AC1CI1 SC+LWR AC TR SLP016

CYYC;2009-02-10 02:00;CYYC 100200Z 32006KT 15SM FEW170 FEW210 FEW270 00/M05 A2948 RMK AC1CI1CI0 AC TR SLP019

CYYC;2009-02-10 03:00;CYYC 100300Z 24004KT 15SM FEW150 FEW210 M01/M06 A2949 RMK AC1CI1 SLP028

CYYC;2009-02-10 04:00;CYYC 100400Z 27004KT 15SM FEW150 M01/M08 A2950 RMK AC1 SLP030

CYYC;2009-02-10 05:00;CYYC 100500Z 28007KT 15SM BKN070 01/M11 A2951 RMK AC4 SLP032

CYYC;2009-02-10 06:00;CYYC 100600Z 32005KT 15SM SCT070 M00/M12 A2951 RMK AC2 SLP031

CYYC;2009-02-10 07:00;CYYC 100700Z 31008KT 15SM BKN060 00/M11 A2952 RMK SC6 SLP034

CYYC;2009-02-10 08:00;CYYC 100800Z 29011KT 15SM BKN060 BKN080 01/M11 A2953 RMK SC5AC1 SLP036

CYYC;2009-02-10 09:00;CYYC 100900Z 30007KT 15SM SCT060 BKN080 00/M11 A2954 RMK SC3AC3 SLP040

CYYC;2009-02-10 10:00;CYYC 101000Z 31010KT 15SM FEW060 BKN090 01/M11 A2956 RMK SC2AC5 VIRGA SLP045

CYYC;2009-02-10 11:00;CYYC 101100Z 30011G18KT 15SM SCT050 BKN080 00/M13 A2958 RMK SC3AC3 VIRGA SLP052

CYYC;2009-02-10 12:00;CYYC 101200Z CCA 31008KT 15SM SCT060 OVC090 M02/M06 A2961 RMK SC3AC4 SNOW COVER/TRACE LOOSE VIRGA SLP070

CYYC;2009-02-10 13:00;CYYC 101300Z 30005KT 15SM OVC055 M03/M06 A2963 RMK SC7 SLP077

CYYC;2009-02-10 13:25;CYYC 101325Z 35009KT 3SM -SN SCT015 BKN040 OVC060 M03/ RMK ST2SC3SC2 VIS SW 15/VIRGA ALQDS

CYYC;2009-02-10 14:00;CYYC 101400Z 34006KT 8SM -SN FEW015 OVC035 M03/M05 A2965 RMK CF1SC8 SLP083

CYYC;2009-02-10 15:00;CYYC 101500Z 33012KT 40SM -SN SCT015 BKN035 OVC120 M04/M06 A2968 RMK SC3SC2AC2 SLP100

CYYC;2009-02-10 15:39;CYYC 101539Z 34009KT 1SM -SN BKN006 OVC018 M04/ RMK SC5SC3 VIS W 2 / RVR RWY34 6000+

CYYC;2009-02-10 16:00;CYYC 101600Z 34006KT 1SM -SN BKN009 OVC021 M04/M05 A2969 RMK SC6SC2 RVR RWY34 6000+FT SLP105

CYYC;2009-02-10 16:14;CYYC 101614Z 34007KT 5/8SM -SN BKN008 OVC021 M04/ RMK SC7SC1 RVR RWY34 6000+FT

CYYC;2009-02-10 17:00;CYYC 101700Z 36014KT 3/4SM -SN DRSN BKN007 OVC021 M05/M06 A2972 RMK SC6SC2 RVR RWY34 5500FT /S01/ SLP113

CYYC;2009-02-10 18:00;CYYC 101800Z 34008KT 3/4SM -SN DRSN BKN007 OVC015 M05/M06 A2974 RMK SC5SC3 RVR RWY34 6000+FT /S02/ SLP122

CYYC;2009-02-10 19:00;CYYC 101900Z CCA 34011KT 3/4SM -SN DRSN BKN007 OVC022 M05/M06 A2975 RMK SN1SC5SC2 RVR RWY34 6000+FT /S01/ SLP125

CYYC;2009-02-10 19:25;CYYC 101925Z 34006KT 6SM -SN FEW007 BKN021 OVC050 M05/ RMK SC2SC2SC1

CYYC;2009-02-10 20:00;CYYC 102000Z 33005KT 40SM FEW007 BKN035 BKN055 M04/M07 A2975 RMK SC1SC5SC2 SH NE SLP124

CYYC;2009-02-10 21:00;CYYC 102100Z 35005KT 20SM -SN FEW015 BKN050 BKN080 M04/M07 A2975 RMK SC2SC2AC1 SH NE SLP125

CYYC;2009-02-10 22:00;CYYC 102200Z 01006KT 20SM FEW015 FEW035 BKN060 M05/M08 A2976 RMK CU1SC2SC1 SLP128

CYYC;2009-02-10 23:00;CYYC 102300Z 04005KT 30SM FEW015 FEW045 FEW060 BKN080 M05/M08 A2977 RMK CU1SC2SC1AC1 SLP129

CYYC;2009-02-11 00:00;CYYC 110000Z 00000KT 30SM FEW015 FEW045 BKN094 M04/M08 A2978 RMK CU1SC1AC6 SLP139

CYYC;2009-02-11 01:00;CYYC 110100Z 00000KT 30SM FEW020 FEW045 FEW090 M05/M08 A2979 RMK SC1SC1AC1 SLP141

CYYC;2009-02-11 02:00;CYYC 110200Z 15004KT 15SM FEW060 SCT081 M08/M09 A2981 RMK SC1AC3 SLP146

CYYC;2009-02-11 03:00;CYYC 110300Z 18005KT 15SM FEW080 BKN140 M07/M09 A2982 RMK AC2AC1 SLP159

CYYC;2009-02-11 04:00;CYYC 110400Z 18005KT 15SM FEW110 FEW240 M09/M09 A2982 RMK AC1CI0 SLP159

CYYC;2009-02-11 05:00;CYYC 110500Z 21003KT 15SM SKC M08/M09 A2983 RMK SLP161

CYYC;2009-02-11 06:00;CYYC 110600Z 18003KT 15SM FEW240 M12/M13 A2983 RMK CI0 SLP169

CYYC;2009-02-11 07:00;CYYC 110700Z 00000KT 15SM SKC M14/M15 A2983 RMK SLP169

CYYC;2009-02-11 08:00;CYYC 110800Z 29003KT 15SM SKC M14/M16 A2984 RMK SLP172

CYYC;2009-02-11 09:00;CYYC 110900Z 00000KT 15SM FEW240 M15/M16 A2984 RMK CI1 CI TR SLP177

CYYC;2009-02-11 10:00;CYYC 111000Z CCA 00000KT 15SM FEW240 M15/M17 A2985 RMK CI1 SLP181

CYYC;2009-02-11 11:00;CYYC 111100Z 28003KT 15SM FEW240 M16/M17 A2985 RMK CI1 CI TR SLP180

CYYC;2009-02-11 12:00;CYYC 111200Z 30003KT 15SM FEW240 M15/M16 A2986 RMK CI1 SNOW COVER/MUCH LOOSE SLP184

CYYC;2009-02-11 13:00;CYYC 111300Z 00000KT 15SM FEW240 M16/M18 A2986 RMK CI1 SLP186

CYYC;2009-02-11 14:00;CYYC 111400Z 28004KT 15SM FEW240 M15/M17 A2987 RMK CI1 SLP188

CYYC;2009-02-11 15:00;CYYC 111500Z 30002KT 40SM FEW140 FEW260 M15/M17 A2988 RMK AC1CI1 FROIN SLP197

CYYC;2009-02-11 16:00;CYYC 111600Z 32005KT 40SM FEW180 FEW260 M12/M16 A2989 RMK AC1CI1 SLP198

CYYC;2009-02-11 17:00;CYYC 111700Z 32006KT 40SM FEW180 FEW260 M10/M15 A2990 RMK AC1CI0 SLP201

CYYC;2009-02-11 18:00;CYYC 111800Z 31005KT 40SM FEW260 M08/M12 A2990 RMK CI1 SLP201

CYYC;2009-02-11 19:00;CYYC 111900Z 30005KT 40SM FEW260 M06/M11 A2990 RMK CI0 SLP200

CYYC;2009-02-11 20:00;CYYC 112000Z 35006KT 40SM FEW260 M06/M11 A2989 RMK CI0 SLP196

CYYC;2009-02-11 21:00;CYYC 112100Z 35005KT 40SM FEW020 FEW260 M05/M11 A2988 RMK CF1CI0 SLP193

CYYC;2009-02-11 22:00;CYYC 112200Z 02003KT 40SM FEW020 SCT260 M05/M11 A2988 RMK CF1CI1 SLP194

CYYC;2009-02-11 23:00;CYYC 112300Z 06005KT 40SM FEW020 FEW065 FEW260 M05/M10 A2989 RMK CF1SC1CI1 SLP196

CYYC;2009-02-12 00:00;CYYC 120000Z 07004KT 30SM FEW065 FEW260 M06/M10 A2990 RMK SC1CI1 SLP203

CYYC;2009-02-12 01:00;CYYC 120100Z 08003KT 30SM FEW250 M08/M11 A2992 RMK CI1 SLP208

CYYC;2009-02-12 02:00;CYYC 120200Z 08002KT 15SM FEW150 FEW250 M09/M10 A2993 RMK AC1CI1 SLP211

CYYC;2009-02-12 03:00;CYYC 120300Z 00000KT 15SM OVC100 M09/M11 A2994 RMK AC7 SLP221

CYYC;2009-02-12 04:00;CYYC 120400Z 33002KT 15SM OVC086 M09/M11 A2995 RMK AC8 SLP223

CYYC;2009-02-12 05:00;CYYC 120500Z 00000KT 15SM OVC090 M11/M13 A2996 RMK AC8 SLP225

CYYC;2009-02-12 06:00;CYYC 120600Z 00000KT 15SM OVC090 M11/M13 A2996 RMK AC7 SLP218

CYYC;2009-02-12 07:00;CYYC 120700Z 00000KT 15SM BKN088 M13/M15 A2996 RMK AC4 SLP219

CYYC;2009-02-12 08:00;CYYC 120800Z 00000KT 15SM OVC086 M11/M13 A2996 RMK AC7 SLP219

CYYC;2009-02-12 09:00;CYYC 120900Z 00000KT 15SM OVC085 M13/M15 A2996 RMK AC7 SLP216

CYYC;2009-02-12 10:00;CYYC 121000Z 20002KT 15SM BKN083 M12/M14 A2996 RMK AC7 SLP216

CYYC;2009-02-12 11:00;CYYC 121100Z 35002KT 15SM SCT083 BKN170 M13/M15 A2996 RMK AC3AC2 SLP218

CYYC;2009-02-12 12:00;CYYC 121200Z 32003KT 15SM OVC083 M13/M15 A2998 RMK AC7 SNOW COVER/MUCH LOOSE SLP224

CYYC;2009-02-12 13:00;CYYC 121300Z 32003KT 15SM OVC084 M12/M15 A2999 RMK AC8 SLP227

CYYC;2009-02-12 14:00;CYYC 121400Z 33004KT 15SM OVC084 M11/M15 A3001 RMK AC7 SLP233

CYYC;2009-02-12 15:00;CYYC 121500Z 34007KT 40SM OVC080 M10/M14 A3002 RMK AC7 SLP239

CYYC;2009-02-12 16:00;CYYC 121600Z 35008KT 40SM OVC085 M09/M13 A3003 RMK AC7 SLP243

CYYC;2009-02-12 17:00;CYYC 121700Z 35009KT 40SM OVC085 M09/M12 A3004 RMK AC7 SLP247

CYYC;2009-02-12 18:00;CYYC 121800Z 01007KT 40SM FEW050 OVC090 M08/M12 A3006 RMK SC1AC7 SLP253

CYYC;2009-02-12 19:00;CYYC 121900Z 03007KT 40SM FEW050 OVC090 M08/M12 A3006 RMK SC1AC5 SLP254

CYYC;2009-02-12 20:00;CYYC 122000Z 05004KT 40SM FEW015 SCT050 SCT075 OVC090 M07/M11 A3005 RMK CU2SC1AC1AC2 SLP250

CYYC;2009-02-12 21:00;CYYC 122100Z 03006KT 30SM FEW016 SCT080 OVC110 M08/M11 A3005 RMK CU2AC1AC2 SLP252

CYYC;2009-02-12 22:00;CYYC 122200Z 05005KT 30SM FEW016 SCT110 OVC210 M07/M10 A3006 RMK SC2AC1CI1 SLP254

CYYC;2009-02-12 23:00;CYYC 122300Z 04007KT 30SM FEW015 SCT080 OVC210 M08/M10 A3006 RMK SC2AC2CI1 SLP257

CYYC;2009-02-13 00:00;CYYC 130000Z 05006KT 30SM SCT016 BKN080 OVC210 M08/M11 A3008 RMK SC3AC2CI0 SLP265

CYYC;2009-02-13 01:00;CYYC 130100Z 05007KT 20SM BKN020 OVC090 M09/M11 A3010 RMK SC5AC2 SLP270

CYYC;2009-02-13 01:33;CYYC 130133Z 04004KT 8SM -SN BKN023 OVC100 M09/ RMK SC5AC2

CYYC;2009-02-13 02:00;CYYC 130200Z 03004KT 8SM -SN SCT023 BKN090 M09/M12 A3012 RMK SC3AC2 SLP275

CYYC;2009-02-13 03:00;CYYC 130300Z 02004KT 7SM -SN FEW025 OVC100 M10/M12 A3012 RMK SC1AC7 SLP278

CYYC;2009-02-13 04:00;CYYC 130400Z 04004KT 6SM -SN BKN048 OVC098 M10/M12 A3013 RMK SC5AC3 SLP281

CYYC;2009-02-13 05:00;CYYC 130500Z 04004KT 4SM -SN SCT025 BKN044 OVC098 M10/M12 A3016 RMK SC3SC3AC2 SLP288

CYYC;2009-02-13 06:00;CYYC 130600Z 03004KT 4SM -SN BR BKN065 OVC100 M11/M12 A3017 RMK SC6AC2 SLP292

CYYC;2009-02-13 07:00;CYYC 130700Z 04003KT 4SM -SN BR FEW032 SCT062 OVC097 M11/M13 A3018 RMK SC2SC2AC4 SLP295

CYYC;2009-02-13 08:00;CYYC 130800Z 04004KT 4SM -SN BR FEW060 OVC094 M12/M13 A3018 RMK SC2AC6 SLP297

CYYC;2009-02-13 09:00;CYYC 130900Z CCA 05004KT 4SM -SN BR SCT058 OVC098 M12/M13 A3019 RMK SC3AC5 SLP299

CYYC;2009-02-13 10:00;CYYC 131000Z 06003KT 5SM -SN BR SCT058 OVC097 M13/M14 A3020 RMK SC3AC5 SLP302

CYYC;2009-02-13 11:00;CYYC 131100Z 06003KT 5SM -SN BR FEW056 OVC097 M13/M14 A3020 RMK SC2AC6 SLP302

CYYC;2009-02-13 12:00;CYYC 131200Z 07003KT 5SM -SN BR FEW060 OVC095 M14/M15 A3020 RMK SC2AC6 SNOW COVER/MUCH LOOSE SLP308

CYYC;2009-02-13 13:00;CYYC 131300Z 12003KT 5SM -SN BR BKN055 OVC095 M14/M15 A3020 RMK SC5AC3 SLP309

CYYC;2009-02-13 14:00;CYYC 131400Z 00000KT 3SM -SN BR BKN020 OVC039 M14/M15 A3020 RMK SC6SC2 SLP307

CYYC;2009-02-13 14:28;CYYC 131428Z 00000KT 2SM -SN BR SCT020 BKN050 OVC089 M13/ RMK SC4SC2AC2

CYYC;2009-02-13 15:00;CYYC 131500Z 00000KT 2SM -SN SCT015 BKN050 OVC089 M13/M14 A3019 RMK SC4SC2AC2 SLP305

CYYC;2009-02-13 15:35;CYYC 131535Z 19004KT 3SM -SN SCT015 BKN050 OVC089 M13/ RMK SC3SC2AC2

CYYC;2009-02-13 16:00;CYYC 131600Z 19004KT 3SM -SN SCT020 BKN050 OVC089 M12/M14 A3019 RMK SC4SC3AC1 SLP304

CYYC;2009-02-13 16:27;CYYC 131627Z 18002KT 2SM -SN BKN012 OVC050 M12/ RMK SC5SC3

CYYC;2009-02-13 17:00;CYYC 131700Z 12002KT 2SM -SN BR FEW008 BKN011 OVC024 M12/M13 A3019 RMK SF1SC4SC2 SLP304

CYYC;2009-02-13 18:00;CYYC 131800Z 12005KT 2SM -SN BR BKN013 OVC025 M11/M13 A3018 RMK SC5SC2 SLP301

CYYC;2009-02-13 18:28;CYYC 131828Z 11005KT 5SM -SN SCT013 OVC049 RMK SC4SC2

CYYC;2009-02-13 19:00;CYYC 131900Z 13005KT 5SM -SN FEW013 OVC048 M11/M13 A3017 RMK SC2SC4 SLP298

CYYC;2009-02-13 20:00;CYYC 132000Z 12006KT 4SM -SN SCT016 BKN031 OVC050 M11/M13 A3015 RMK SC3SC2SC2 SLP292

CYYC;2009-02-13 21:00;CYYC 132100Z 12007KT 10SM -SN FEW013 FEW031 BKN040 BKN250 M11/M14 A3014 RMK CF1SC2SC1CI0 TR CF SLP286

CYYC;2009-02-13 22:00;CYYC 132200Z 14006KT 20SM -SN FEW014 SCT025 BKN250 M11/M14 A3013 RMK SC2SC1CI0 SLP283

CYYC;2009-02-13 23:00;CYYC 132300Z 14006KT 15SM -SN FEW013 SCT020 BKN250 M12/M14 A3012 RMK SC2SC2CI0 SLP280

CYYC;2009-02-14 00:00;CYYC 140000Z 13006KT 4SM -SN BR SCT013 BKN250 M13/M15 A3011 RMK SC3CI0 SLP284

CYYC;2009-02-14 01:00;CYYC 140100Z 12006KT 8SM -SN FEW011 SCT019 BKN250 M14/M15 A3011 RMK SC1SC2CI0 SLP283

CYYC;2009-02-14 02:00;CYYC 140200Z 12004KT 6SM -SN BR BKN015 BKN072 M15/M15 A3011 RMK SC6AC1 SLP283

CYYC;2009-02-14 02:09;CYYC 140209Z 12004KT 6SM -SN BR BKN013 OVC069 M14/ RMK SC7AC1

CYYC;2009-02-14 02:32;CYYC 140232Z 13004KT 6SM -SN BR BKN008 OVC013 M14/ RMK ST5SC3

CYYC;2009-02-14 03:00;CYYC 140300Z CCA 13004KT 4SM -SN BR OVC008 M14/M15 A3010 RMK SC8 VIS W 3 SLP279

CYYC;2009-02-14 04:00;CYYC 140400Z 12004KT 3SM -SN BR BKN010 BKN030 OVC070 M14/M15 A3009 RMK SC5SC2AC1 SLP277

CYYC;2009-02-14 05:00;CYYC 140500Z 13004KT 3SM -SN BR BKN013 OVC030 M14/M15 A3009 RMK SC6SC2 SLP277

CYYC;2009-02-14 06:00;CYYC 140600Z 13004KT 4SM -SN BR SCT013 BKN030 OVC074 M14/M15 A3008 RMK SC3SC2AC2 /S01/ SLP271

CYYC;2009-02-14 07:00;CYYC 140700Z 16004KT 5SM -SN BR FEW030 OVC077 M14/M15 A3008 RMK SC2AC6 SLP270

CYYC;2009-02-14 08:00;CYYC 140800Z 14003KT 6SM -SN BR OVC076 M14/M15 A3007 RMK AC8 SLP267

CYYC;2009-02-14 09:00;CYYC 140900Z 13004KT 5SM -SN BR OVC077 M14/M16 A3006 RMK AC8 SLP262

CYYC;2009-02-14 10:00;CYYC 141000Z 13005KT 4SM -SN BR OVC074 M14/M16 A3005 RMK AC8 SLP259

CYYC;2009-02-14 11:00;CYYC 141100Z CCA 13003KT 5SM -SN BR FEW040 OVC071 M15/M16 A3004 RMK SC2AC6 SLP256

CYYC;2009-02-14 12:00;CYYC 141200Z 13005KT 5SM -SN FEW040 OVC068 M15/M16 A3004 RMK SC2AC6 SNOW COVER/MUCH LOOSE SLP258

CYYC;2009-02-14 13:00;CYYC 141300Z 12004KT 4SM -SN BR OVC065 M15/M16 A3003 RMK SC8 SLP256

CYYC;2009-02-14 14:00;CYYC 141400Z 14003KT 3SM -SN BR OVC064 M14/M16 A3003 RMK SC8 SLP255

CYYC;2009-02-14 15:00;CYYC 141500Z 13005KT 3SM -SN BR FEW015 OVC065 M14/M16 A3003 RMK SF2SC6 SLP257

CYYC;2009-02-14 15:53;CYYC 141553Z 14006KT 2 1/2SM -SN BR FEW006 BKN020 OVC050 M14/ RMK SF2SC4SC2

CYYC;2009-02-14 16:00;CYYC 141600Z 14006KT 2SM -SN BR FEW006 BKN020 OVC050 M14/M16 A3003 RMK SF2SC4SC1 SLP258

CYYC;2009-02-14 16:17;CYYC 141617Z 13005KT 3SM -SN BR SCT020 BKN030 OVC065 M14/ RMK SC3SC3SC1

CYYC;2009-02-14 17:00;CYYC 141700Z 15006KT 3SM -SN BR FEW015 BKN030 OVC070 M14/M15 A3004 RMK SC2SC3AC2 SLP260

CYYC;2009-02-14 18:00;CYYC 141800Z 16006KT 4SM -SN FEW015 SCT030 OVC070 M13/M15 A3004 RMK SC1SC2AC4 SLP258

CYYC;2009-02-14 19:00;CYYC 141900Z 16008KT 4SM -SN FEW015 FEW030 OVC068 M13/M15 A3004 RMK SC1SC2AC5 SLP258

CYYC;2009-02-14 20:00;CYYC 142000Z 16009KT 4SM -SN SCT015 BKN030 OVC070 M13/M15 A3003 RMK SC3SC2AC2 SLP255

CYYC;2009-02-14 21:00;CYYC 142100Z 14008KT 5SM -SN FEW015 SCT030 OVC070 M13/M15 A3002 RMK SC2SC1AC4 SLP251

CYYC;2009-02-14 22:00;CYYC 142200Z 13008KT 4SM -SN FEW015 SCT030 BKN055 OVC070 M13/M15 A3001 RMK SC2SC2SC2AC2 SLP249

CYYC;2009-02-14 23:00;CYYC 142300Z 13008KT 3SM -SN FEW015 SCT030 SCT055 OVC068 M13/M15 A3002 RMK SC2SC2SC1AC3 SLP250

CYYC;2009-02-14 23:51;CYYC 142351Z 13007KT 2 1/2SM -SN SCT013 BKN030 OVC070 M14/ RMK SC3SC2AC2

CYYC;2009-02-15 00:00;CYYC 150000Z 13007KT 2 1/2SM -SN SCT013 BKN030 OVC070 M14/M15 A3002 RMK SC3SC2AC2 SLP255

CYYC;2009-02-15 00:32;CYYC 150032Z 13006KT 4SM -SN FEW015 SCT025 OVC070 M14/ RMK SC2SC2AC4

CYYC;2009-02-15 01:00;CYYC 150100Z 13007KT 4SM -SN FEW015 FEW030 OVC070 M14/M16 A3002 RMK SC1SC2AC5 SLP255

CYYC;2009-02-15 02:00;CYYC 150200Z 14010KT 5SM -SN FEW015 OVC066 M14/M16 A3002 RMK SC1AC6 SLP254

CYYC;2009-02-15 03:00;CYYC 150300Z 14007KT 8SM -SN FEW012 BKN070 M15/M16 A3003 RMK SC1AC3 PCPN VRY LGT SLP258

CYYC;2009-02-15 04:00;CYYC 150400Z 15005KT 8SM -SN FEW012 BKN068 M15/M16 A3002 RMK SC1AC5 PCPN VRY LGT SLP257

CYYC;2009-02-15 04:34;CYYC 150434Z 16005KT 12SM FEW012 FEW050 BKN068 RMK SC1SC1AC5

CYYC;2009-02-15 05:00;CYYC 150500Z 15004KT 12SM FEW012 FEW050 BKN068 M15/M16 A3002 RMK SC1SC1AC5 SLP257

CYYC;2009-02-15 06:00;CYYC 150600Z 14003KT 12SM FEW013 BKN069 M14/M16 A3002 RMK SC1AC6 SLP253

CYYC;2009-02-15 07:00;CYYC 150700Z 15004KT 12SM FEW013 BKN069 M14/M16 A3002 RMK SC1AC6 SLP254

CYYC;2009-02-15 08:00;CYYC 150800Z 15004KT 10SM VCSH FEW012 OVC072 M14/M16 A3002 RMK SC1AC7 SH S SLP254

CYYC;2009-02-15 09:00;CYYC 150900Z 17004KT 10SM FEW010 OVC075 M15/M16 A3002 RMK SC1AC6 SLP253

CYYC;2009-02-15 10:00;CYYC 151000Z 00000KT 10SM FEW010 OVC075 M14/M16 A3001 RMK SC1AC6 SLP249

CYYC;2009-02-15 11:00;CYYC 151100Z 00000KT 10SM FEW010 OVC079 M14/M16 A3001 RMK SC1AC6 SLP249

CYYC;2009-02-15 12:00;CYYC 151200Z 09002KT 12SM FEW010 OVC073 M15/M16 A3001 RMK SC1AC6 SLP249

CYYC;2009-02-15 13:00;CYYC 151300Z 10003KT 12SM FEW010 OVC073 M15/M16 A3000 RMK SC1AC6 SLP247

CYYC;2009-02-15 14:00;CYYC 151400Z 00000KT 15SM FEW010 SCT083 OVC097 M15/M16 A3000 RMK SC1AC3AC5 SLP246

CYYC;2009-02-15 15:00;CYYC 151500Z 00000KT 15SM -SN FEW008 SCT052 BKN080 OVC120 M15/M16 A3000 RMK SC1SC3AC2AC0 PCPN VRY LGT SLP249

CYYC;2009-02-15 16:00;CYYC 151600Z 00000KT 15SM -SN FEW008 SCT060 BKN100 BKN160 M16/M17 A3000 RMK SC1SC2AC2AC0 PCPN VRY LGT SLP250

CYYC;2009-02-15 17:00;CYYC 151700Z 00000KT 20SM -SN FEW008 BKN100 OVC200 M14/M16 A3000 RMK SC1AC6CI1 PCPN VRY LGT SLP248

CYYC;2009-02-15 18:00;CYYC 151800Z 00000KT 30SM BKN090 BKN200 M12/M15 A2999 RMK AC6CI0 SLP240

CYYC;2009-02-15 19:00;CYYC 151900Z 10002KT 30SM SCT095 BKN150 M12/M15 A2998 RMK AC3AC2 SLP236

CYYC;2009-02-15 20:00;CYYC 152000Z 11003KT 30SM FEW140 FEW250 M11/M14 A2995 RMK AC2CI0 SLP229

CYYC;2009-02-15 21:00;CYYC 152100Z 11005KT 30SM FEW170 FEW250 M11/M15 A2993 RMK AC1CI1 SLP220

CYYC;2009-02-15 22:00;CYYC 152200Z 11006KT 30SM FEW170 FEW250 M11/M15 A2993 RMK AC1CI1 SLP219

CYYC;2009-02-15 23:00;CYYC 152300Z 10007KT 30SM FEW250 M12/M15 A2993 RMK CI1 SLP219

CYYC;2009-02-16 00:00;CYYC 160000Z 11007KT 30SM FEW100 FEW250 M13/M16 A2993 RMK AC1CI1 SLP223

CYYC;2009-02-16 01:00;CYYC 160100Z 12004KT 30SM FEW060 FEW100 M15/M16 A2992 RMK SC1AC1 SLP220

CYYC;2009-02-16 02:00;CYYC 160200Z 09003KT 15SM FEW080 FEW110 M16/M17 A2991 RMK AC1AC1 SLP216

CYYC;2009-02-16 03:00;CYYC 160300Z 08003KT 5SM BR SCT005 BKN080 M17/M18 A2990 RMK ST2AC2 SLP219

CYYC;2009-02-16 04:00;CYYC 160400Z 20004KT 4SM BR SCT012 BKN080 M17/M18 A2990 RMK ST2AC2 SLP217

CYYC;2009-02-16 05:00;CYYC 160500Z 16002KT 5SM BR BKN012 M18/M19 A2989 RMK ST2 SLP215

CYYC;2009-02-16 06:00;CYYC 160600Z 20003KT 4SM BR SCT025 BKN070 M19/M20 A2987 RMK SC1AC1 SLP205

CYYC;2009-02-16 07:00;CYYC 160700Z 19004KT 5SM BR FEW030 FEW070 M17/M18 A2985 RMK SC1AC0 SLP200

CYYC;2009-02-16 08:00;CYYC 160800Z 19005KT 8SM FEW030 FEW070 M18/M18 A2983 RMK SC1AC1 SLP194

CYYC;2009-02-16 09:00;CYYC 160900Z 22004KT 8SM SKC M21/M22 A2981 RMK SLP184

CYYC;2009-02-16 10:00;CYYC 161000Z 22004KT 8SM SKC M21/M22 A2981 RMK SLP184

CYYC;2009-02-16 11:00;CYYC 161100Z 18005KT 8SM SKC M20/M21 A2977 RMK SLP174

CYYC;2009-02-16 12:00;CYYC 161200Z 20007KT 15SM SKC M18/M19 A2976 RMK SNOW COVER/MUCH LOOSE SLP168

CYYC;2009-02-16 13:00;CYYC 161300Z 20004KT 15SM SKC M19/M20 A2974 RMK SLP162

CYYC;2009-02-16 14:00;CYYC 161400Z 19005KT 15SM FEW100 FEW250 M19/M20 A2973 RMK AC1CI1 FROIN SLP158

CYYC;2009-02-16 15:00;CYYC 161500Z 19005KT 40SM FEW060 FEW110 M19/M20 A2972 RMK SC1AC1 BOTH CLDS TR SLP161

CYYC;2009-02-16 16:00;CYYC 161600Z 00000KT 40SM FEW060 M18/M20 A2971 RMK SC1 SC TR SLP159

CYYC;2009-02-16 17:00;CYYC 161700Z 21003KT 40SM FEW060 FEW210 M13/M18 A2969 RMK SC1CI1 SC+CI TR SLP153

CYYC;2009-02-16 18:00;CYYC 161800Z 17002KT 40SM FEW060 FEW220 M10/M13 A2969 RMK SC1CI1 SC+CI TR SLP138

CYYC;2009-02-16 19:00;CYYC 161900Z 20002KT 40SM FEW060 FEW220 M05/M12 A2968 RMK SC1CI1 BOTH CLDS TR SLP136

CYYC;2009-02-16 20:00;CYYC 162000Z 04002KT 40SM FEW060 FEW230 M05/M11 A2966 RMK SC1CI0 SC TR SLP130

CYYC;2009-02-16 21:00;CYYC 162100Z 06002KT 40SM FEW060 FEW250 M04/M13 A2966 RMK SC1CI0 SC TR SLP122

CYYC;2009-02-16 22:00;CYYC 162200Z 09003KT 40SM FEW060 FEW250 M04/M11 A2964 RMK SC1CI0 SLP118

CYYC;2009-02-16 23:00;CYYC 162300Z 04003KT 40SM FEW140 BKN250 M04/M11 A2964 RMK AC1CI2 AC TR SLP116

CYYC;2009-02-17 00:00;CYYC 170000Z 04004KT 40SM FEW210 BKN250 M04/M11 A2963 RMK CI1CI2 SLP107

CYYC;2009-02-17 01:00;CYYC 170100Z 03004KT 20SM SCT250 M07/M12 A2962 RMK CI2 SLP106

CYYC;2009-02-17 02:00;CYYC 170200Z 01002KT 15SM FEW220 FEW250 M10/M13 A2964 RMK CI1CI0 LWR CI TR SLP112

CYYC;2009-02-17 03:00;CYYC 170300Z 33005KT 15SM SKC M11/M13 A2964 RMK SLP125

CYYC;2009-02-17 04:00;CYYC 170400Z 30002KT 15SM FEW240 M12/M15 A2965 RMK CI1 SLP126

CYYC;2009-02-17 05:00;CYYC 170500Z 33003KT 15SM SKC M13/M16 A2964 RMK SLP124

CYYC;2009-02-17 06:00;CYYC 170600Z CCA 33006KT 15SM SCT210 M14/M17 A2964 RMK CI0 SLP113

CYYC;2009-02-17 07:00;CYYC 170700Z 33005KT 15SM FEW210 M14/M17 A2963 RMK CI0 SLP111

CYYC;2009-02-17 08:00;CYYC 170800Z 36002KT 15SM FEW210 M15/M18 A2963 RMK CI0 SLP111

CYYC;2009-02-17 09:00;CYYC 170900Z 00000KT 15SM FEW210 M16/M18 A2963 RMK CI0 SLP106

CYYC;2009-02-17 10:00;CYYC 171000Z 00000KT 15SM SCT210 M16/M19 A2963 RMK CI1 SLP105

CYYC;2009-02-17 11:00;CYYC 171100Z 20002KT 15SM SCT210 M16/M18 A2963 RMK CI1 SLP106

CYYC;2009-02-17 12:00;CYYC 171200Z CCA 19003KT 15SM BKN210 M15/M17 A2963 RMK CI1 SNOW COVER/MUCH LOOSE SLP104

CYYC;2009-02-17 13:00;CYYC 171300Z 00000KT 15SM OVC210 M15/M17 A2964 RMK CI1 SLP106

CYYC;2009-02-17 14:00;CYYC 171400Z 00000KT 15SM FEW100 BKN220 M13/M16 A2963 RMK AC1CI1 TR AC SLP105

CYYC;2009-02-17 15:00;CYYC 171500Z 21003KT 40SM FEW100 SCT210 BKN280 M12/M15 A2964 RMK AC1CI1CI0 CONTRAILS SLP112

CYYC;2009-02-17 16:00;CYYC 171600Z 36005KT 40SM FEW110 SCT210 BKN280 M11/M15 A2966 RMK AC1CI0CI0 CC ASOCTD SLP118

CYYC;2009-02-17 17:00;CYYC 171700Z 30003KT 40SM FEW110 FEW210 BKN280 M06/M13 A2967 RMK AC1CI1CI0 SLP121

CYYC;2009-02-17 18:00;CYYC 171800Z 32004KT 40SM FEW110 FEW210 FEW260 M04/M13 A2968 RMK AC1CI1CI0 SLP119

CYYC;2009-02-17 19:00;CYYC 171900Z 33006KT 40SM FEW100 FEW210 BKN260 M03/M15 A2969 RMK AC2CI1CI0 SLP122

CYYC;2009-02-17 20:00;CYYC 172000Z 36003KT 40SM BKN090 BKN260 M02/M13 A2969 RMK AC5CI0 SLP121

CYYC;2009-02-17 21:00;CYYC 172100Z 07002KT 40SM BKN090 BKN220 M01/M11 A2969 RMK AC5CI1 SLP123

CYYC;2009-02-17 22:00;CYYC 172200Z 04006KT 40SM BKN089 M02/M10 A2970 RMK AC5 SLP125

CYYC;2009-02-17 23:00;CYYC 172300Z 06003KT 40SM BKN095 M03/M10 A2971 RMK AC6 ACSL SW SLP130

CYYC;2009-02-18 00:00;CYYC 180000Z 13004KT 40SM BKN091 M04/M11 A2973 RMK AC6 ACSL SLP141

CYYC;2009-02-18 01:00;CYYC 180100Z 12002KT 40SM BKN090 BKN210 M05/M11 A2976 RMK AC7CI1 ACSL SW SLP149

CYYC;2009-02-18 02:00;CYYC 180200Z 16002KT 15SM BKN086 M06/M11 A2978 RMK AC7 VIRGA SLP155

CYYC;2009-02-18 03:00;CYYC 180300Z 20003KT 15SM OVC086 M05/M13 A2980 RMK AC8 VIRGA S SLP159

CYYC;2009-02-18 04:00;CYYC 180400Z 20004KT 15SM OVC082 M05/M13 A2981 RMK AC8 SLP163

CYYC;2009-02-18 05:00;CYYC 180500Z 22004KT 15SM OVC083 M05/M13 A2982 RMK AC8 SLP166

CYYC;2009-02-18 06:00;CYYC 180600Z 00000KT 15SM BKN080 OVC140 M07/M11 A2983 RMK AC7AC1 SLP161

CYYC;2009-02-18 07:00;CYYC 180700Z 36002KT 15SM BKN079 OVC140 M08/M11 A2985 RMK AC6AC1 SLP167

CYYC;2009-02-18 08:00;CYYC 180800Z 34003KT 15SM OVC079 M07/M11 A2987 RMK AC7 SLP174

CYYC;2009-02-18 09:00;CYYC 180900Z 31002KT 15SM BKN078 OVC170 M08/M11 A2988 RMK AC6AC1 SLP177

CYYC;2009-02-18 10:00;CYYC 181000Z 00000KT 15SM OVC076 M08/M10 A2989 RMK AC8 SLP181

CYYC;2009-02-18 11:00;CYYC 181100Z 22003KT 15SM BKN074 OVC170 M09/M11 A2990 RMK AC5AC2 SLP184

CYYC;2009-02-18 12:00;CYYC 181200Z 27002KT 15SM BKN074 OVC190 M08/M12 A2992 RMK AC5AC2 SNOW COVER/MUCH LOOSE SLP194

CYYC;2009-02-18 13:00;CYYC 181300Z 20003KT 15SM SCT075 OVC190 M08/M12 A2993 RMK AC3AC4 SLP198

CYYC;2009-02-18 14:00;CYYC 181400Z 28002KT 15SM FEW076 SCT130 OVC190 M08/M13 A2995 RMK AC2AC2AC3 SLP203

CYYC;2009-02-18 15:00;CYYC 181500Z 18002KT 40SM BKN075 BKN130 BKN190 M07/M11 A2997 RMK AC5AC1AC1 SLP212

CYYC;2009-02-18 16:00;CYYC 181600Z 28002KT 40SM BKN073 BKN130 BKN200 M06/M11 A3000 RMK AC5AC2CI1 SLP221

CYYC;2009-02-18 17:00;CYYC 181700Z 32007KT 40SM BKN075 BKN130 BKN200 M02/M11 A3002 RMK AC6AC1CI1 SLP229

CYYC;2009-02-18 18:00;CYYC 181800Z 32004KT 40SM SCT070 BKN190 00/M11 A3003 RMK AC4AS2 SLP226

CYYC;2009-02-18 19:00;CYYC 181900Z 33017KT 40SM FEW070 BKN210 00/M10 A3004 RMK AC2CS2 SLP229

CYYC;2009-02-18 20:00;CYYC 182000Z 34012KT 40SM FEW040 FEW070 BKN200 01/M09 A3004 RMK SC1AC1CS3 SLP229

CYYC;2009-02-18 21:00;CYYC 182100Z 35007KT 40SM FEW040 FEW070 SCT210 01/M09 A3004 RMK SC1AC1CI3 SLP229

CYYC;2009-02-18 22:00;CYYC 182200Z 35005KT 40SM FEW040 FEW070 BKN190 01/M09 A3004 RMK SC1AC1AC2 SLP229

CYYC;2009-02-18 23:00;CYYC 182300Z 04002KT 40SM FEW040 FEW070 BKN200 01/M09 A3004 RMK SC1AC1CI1 SLP230

CYYC;2009-02-19 00:00;CYYC 190000Z CCA 08004KT 40SM FEW040 FEW090 BKN200 M00/M08 A3005 RMK SC1AC1CI1 SLP233

CYYC;2009-02-19 01:00;CYYC 190100Z 15006KT 40SM FEW090 FEW200 M02/M08 A3006 RMK AC1CI0 SLP236

CYYC;2009-02-19 02:00;CYYC 190200Z 16005KT 20SM FEW180 M04/M09 A3006 RMK AC1 SLP239

CYYC;2009-02-19 03:00;CYYC 190300Z 18004KT 15SM FEW200 M04/M09 A3007 RMK CI1 CI TR SLP248

CYYC;2009-02-19 04:00;CYYC 190400Z 20004KT 15SM FEW200 M06/M10 A3007 RMK CI1 CI TR SLP248

CYYC;2009-02-19 05:00;CYYC 190500Z 22003KT 15SM FEW180 SCT250 M08/M10 A3007 RMK AC1CI1 SLP248

CYYC;2009-02-19 06:00;CYYC 190600Z 00000KT 15SM FEW170 BKN250 M09/M12 A3007 RMK AC2CI2 SLP243

CYYC;2009-02-19 07:00;CYYC 190700Z 00000KT 15SM SCT140 BKN250 M08/M11 A3008 RMK AC2CI2 SLP245

CYYC;2009-02-19 08:00;CYYC 190800Z 00000KT 15SM SCT150 BKN250 M08/M11 A3007 RMK AC2CI2 SLP242

CYYC;2009-02-19 09:00;CYYC 190900Z 00000KT 15SM BKN130 BKN180 OVC210 M09/M11 A3006 RMK AC5AC2CI1 SLP240

CYYC;2009-02-19 10:00;CYYC 191000Z 00000KT 15SM BKN120 OVC180 M08/M10 A3006 RMK AC6AC1 SLP238

CYYC;2009-02-19 11:00;CYYC 191100Z 00000KT 15SM BKN097 OVC120 M07/M10 A3005 RMK AC6AC2 SLP236

CYYC;2009-02-19 12:00;CYYC 191200Z 00000KT 15SM BKN100 OVC240 M08/M10 A3005 RMK AC5CI2 SNOW COVER/ TRACE LOOSE SLP234

CYYC;2009-02-19 13:00;CYYC 191300Z 02006KT 15SM FEW070 SCT100 BKN190 OVC240 M06/M10 A3006 RMK AC2AC2AC2CI2 SLP238

CYYC;2009-02-19 14:00;CYYC 191400Z 05006KT 15SM FEW100 SCT180 BKN250 M05/M10 A3006 RMK AC2AC2CI2 SLP237

CYYC;2009-02-19 15:00;CYYC 191500Z 34005KT 30SM SCT090 BKN180 BKN250 M06/M11 A3007 RMK AC3AC2CI0 SLP244

CYYC;2009-02-19 16:00;CYYC 191600Z 36006KT 40SM FEW030 FEW090 SCT180 BKN250 M05/M10 A3007 RMK SC1AC2AC1CI1 ACSL SW-W/SC TR SLP246

CYYC;2009-02-19 17:00;CYYC 191700Z 34005KT 40SM FEW030 FEW070 FEW160 BKN240 M02/M08 A3007 RMK SC1AC1AC1CI2 SC TR SLP246

CYYC;2009-02-19 18:00;CYYC 191800Z 34016KT 40SM FEW040 SCT160 BKN210 M00/M07 A3009 RMK SC1AC2CI1 SC TR SLP249

CYYC;2009-02-19 19:00;CYYC 191900Z 35014KT 40SM FEW040 SCT140 BKN170 BKN210 M00/M08 A3009 RMK SC1AC4AC1CI0 SC TR SLP249

CYYC;2009-02-19 20:00;CYYC 192000Z 36016KT 40SM FEW040 BKN130 BKN210 M01/M08 A3008 RMK SC1AC4CI0 SLP246

CYYC;2009-02-19 21:00;CYYC 192100Z 02010G16KT 40SM FEW040 BKN130 BKN190 BKN200 M01/M07 A3007 RMK SC1AC4AC1CI0 SLP246

CYYC;2009-02-19 22:00;CYYC 192200Z 35017KT 40SM FEW040 FEW130 BKN170 BKN200 M02/M07 A3006 RMK SC1AC2AC2CI0 SLP240

CYYC;2009-02-19 23:00;CYYC 192300Z 35017G22KT 30SM FEW045 FEW090 BKN160 M02/M07 A3006 RMK SC1AC2AC2 SLP241

CYYC;2009-02-19 23:52;CYYC 192352Z 35014KT 20SM -SN FEW025 SCT040 BKN070 M03/ RMK SC2SC2AC2

CYYC;2009-02-20 00:00;CYYC 200000Z 36012KT 20SM -SN FEW025 BKN040 OVC070 M04/M06 A3006 RMK SC2SC3AC2 SLP244

CYYC;2009-02-20 00:27;CYYC 200027Z 36011KT 5SM -SN SCT028 BKN050 OVC070 M04/ RMK SC3SC2AC2

CYYC;2009-02-20 01:00;CYYC 200100Z 36008KT 3SM -SN BR SCT018 OVC050 M04/M06 A3007 RMK SC4SC3 SLP246

CYYC;2009-02-20 01:21;CYYC 200121Z 35006KT 2 1/2SM -SN BR SCT019 OVC035 M04/ RMK SC4SC3

CYYC;2009-02-20 02:00;CYYC 200200Z 36008KT 2 1/2SM -SN BR BKN023 OVC047 M04/M05 A3007 RMK SC5SC3 SLP247

CYYC;2009-02-20 02:53;CYYC 200253Z 33003KT 4SM -SN BR BKN025 OVC060 M05/ RMK SC5SC3 VIS W 3

CYYC;2009-02-20 03:00;CYYC 200300Z 34004KT 3SM -SN BR SCT020 BKN034 OVC060 M05/M06 A3007 RMK SC3SC3SC2 VIS S 21/4 SLP247

CYYC;2009-02-20 04:00;CYYC 200400Z 29003KT 3SM -SN BR FEW025 OVC059 M05/M06 A3008 RMK SC2SC6 SLP248

CYYC;2009-02-20 05:00;CYYC 200500Z 34005KT 4SM -SN BR BKN030 OVC058 M05/M06 A3007 RMK SC5SC3 SLP246

CYYC;2009-02-20 05:51;CYYC 200551Z 31005KT 15SM BKN033 OVC051 M05/ RMK SC6SC2

CYYC;2009-02-20 06:00;CYYC 200600Z 30005KT 15SM BKN033 OVC050 M05/M07 A3006 RMK SC6SC2 /S01/ SLP233

CYYC;2009-02-20 07:00;CYYC 200700Z 30004KT 15SM BKN034 OVC050 M04/M07 A3006 RMK SC7SC1 SLP232

CYYC;2009-02-20 08:00;CYYC 200800Z 32003KT 15SM BKN033 OVC048 M04/M08 A3006 RMK SC6SC2 SLP233

CYYC;2009-02-20 09:00;CYYC 200900Z 36002KT 15SM BKN024 OVC054 M05/M08 A3006 RMK SC6SC2 SLP237

CYYC;2009-02-20 10:00;CYYC 201000Z 01004KT 15SM BKN019 OVC033 M06/M08 A3009 RMK SC7SC1 SLP244

CYYC;2009-02-20 11:00;CYYC 201100Z 01003KT 15SM BKN016 OVC034 M06/M08 A3010 RMK SC6SC2 SLP249

CYYC;2009-02-20 12:00;CYYC 201200Z 34003KT 15SM FEW019 BKN040 M07/M09 A3011 RMK SC2SC6 SNOW COVER/MUCH LOOSE SLP261

CYYC;2009-02-20 13:00;CYYC 201300Z 32002KT 15SM SCT040 BKN075 M09/M11 A3013 RMK SC2AC2 SLP265

CYYC;2009-02-20 14:00;CYYC 201400Z 00000KT 15SM FEW045 FEW250 M13/M14 A3014 RMK SC2CI0 SLP268

CYYC;2009-02-20 15:00;CYYC 201500Z 00000KT 40SM SCT015 BKN250 M13/M14 A3014 RMK SC3CI0 SLP281

CYYC;2009-02-20 16:00;CYYC 201600Z 22006KT 40SM FEW040 BKN250 M10/M11 A3016 RMK SC1CI0 SLP286

CYYC;2009-02-20 17:00;CYYC 201700Z 23007KT 40SM BKN250 M06/M09 A3017 RMK CI1 SLP290

CYYC;2009-02-20 18:00;CYYC 201800Z 22008KT 40SM BKN250 M04/M08 A3018 RMK CI1 SLP280

CYYC;2009-02-20 19:00;CYYC 201900Z 32008KT 40SM FEW150 BKN230 M02/M11 A3016 RMK AC1CI1 SLP275

CYYC;2009-02-20 20:00;CYYC 202000Z 31007KT 40SM FEW150 SCT210 BKN240 M01/M12 A3016 RMK AC1CI0CI0 SLP274

CYYC;2009-02-20 21:00;CYYC 202100Z 32004KT 40SM FEW150 BKN210 M00/M12 A3012 RMK AC0CI0 SLP253

CYYC;2009-02-20 22:00;CYYC 202200Z 15004KT 40SM BKN210 02/M12 A3010 RMK CI1 SLP247

CYYC;2009-02-20 23:00;CYYC 202300Z 12006KT 40SM FEW170 BKN210 01/M08 A3010 RMK AC1CI1 SLP248

CYYC;2009-02-21 00:00;CYYC 210000Z 15007KT 30SM FEW170 OVC210 M01/M09 A3010 RMK AC1CI1 SLP252

CYYC;2009-02-21 01:00;CYYC 210100Z 14006KT 30SM FEW170 OVC210 M03/M09 A3010 RMK AC1CI1 SLP253

CYYC;2009-02-21 02:00;CYYC 210200Z 18007KT 15SM SCT240 M04/M10 A3009 RMK CI0 SLP248

CYYC;2009-02-21 03:00;CYYC 210300Z 20007KT 15SM SKC M04/M10 A3009 RMK SLP260

CYYC;2009-02-21 04:00;CYYC 210400Z 20006KT 15SM SKC M05/M10 A3009 RMK SLP262

CYYC;2009-02-21 05:00;CYYC 210500Z 15002KT 15SM SKC M05/M10 A3010 RMK SLP263

CYYC;2009-02-21 06:00;CYYC 210600Z 22003KT 15SM SKC M07/M11 A3009 RMK SLP255

CYYC;2009-02-21 07:00;CYYC 210700Z 20005KT 15SM SKC M06/M10 A3008 RMK SLP252

CYYC;2009-02-21 08:00;CYYC 210800Z 21003KT 15SM SKC M09/M11 A3008 RMK SLP250

CYYC;2009-02-21 09:00;CYYC 210900Z 00000KT 15SM SKC M10/M12 A3007 RMK SLP245

CYYC;2009-02-21 10:00;CYYC 211000Z 00000KT 15SM SKC M10/M12 A3007 RMK SLP244

CYYC;2009-02-21 11:00;CYYC 211100Z 20002KT 15SM SKC M10/M12 A3006 RMK SLP241

CYYC;2009-02-21 12:00;CYYC 211200Z 20003KT 15SM SKC M10/M12 A3006 RMK SNOW COVER/TRACE LOOSE SLP241

CYYC;2009-02-21 13:00;CYYC 211300Z 20003KT 15SM SKC M10/M13 A3005 RMK SLP240

CYYC;2009-02-21 14:00;CYYC 211400Z 18002KT 20SM FEW220 M10/M12 A3005 RMK CI1 CI TR SLP240

CYYC;2009-02-21 15:00;CYYC 211500Z 21002KT 40SM FEW220 M09/M12 A3005 RMK CI1 SLP243

CYYC;2009-02-21 16:00;CYYC 211600Z 00000KT 40SM FEW220 M07/M10 A3006 RMK CI1 SLP247

CYYC;2009-02-21 17:00;CYYC 211700Z CCA 18003KT 40SM FEW220 M02/M08 A3006 RMK CI0 SLP247

CYYC;2009-02-21 18:00;CYYC 211800Z 18007KT 40SM FEW220 00/M08 A3006 RMK CI0 SLP238

CYYC;2009-02-21 19:00;CYYC 211900Z 17005KT 40SM FEW220 01/M08 A3005 RMK CI0 SLP234

CYYC;2009-02-21 20:00;CYYC 212000Z 14008KT 40SM FEW170 FEW220 02/M09 A3004 RMK AC1CI1 SLP230

CYYC;2009-02-21 21:00;CYYC 212100Z 17009KT 40SM FEW170 FEW220 01/M08 A3003 RMK AC1CI1 SLP227

CYYC;2009-02-21 22:00;CYYC 212200Z 14007KT 40SM FEW170 FEW220 01/M09 A3004 RMK AC1CI1 CI TR SLP230

CYYC;2009-02-21 23:00;CYYC 212300Z CCA 13007KT 40SM FEW170 SCT200 01/M09 A3003 RMK AC2CI0 ACSL W SLP227

CYYC;2009-02-22 00:00;CYYC 220000Z 10006KT 40SM BKN190 M03/M09 A3003 RMK AC3 ACSL S-SW-W SLP234

CYYC;2009-02-22 01:00;CYYC 220100Z 12007KT 30SM FEW120 SCT180 BKN210 M04/M09 A3004 RMK AC2AC1CI1 SLP237

CYYC;2009-02-22 02:00;CYYC 220200Z 11007KT 15SM BKN130 M06/M09 A3005 RMK AC5 SLP241

CYYC;2009-02-22 03:00;CYYC 220300Z 12006KT 10SM FEW130 BKN210 M08/M10 A3006 RMK AC2CI2 SLP253

CYYC;2009-02-22 04:00;CYYC 220400Z 12004KT 10SM FEW130 BKN230 M09/M11 A3007 RMK AC1CI2 SLP256

CYYC;2009-02-22 05:00;CYYC 220500Z 09002KT 12SM FEW240 M10/M11 A3008 RMK CI1 SLP257

CYYC;2009-02-22 06:00;CYYC 220600Z 00000KT 12SM SKC M10/M11 A3008 RMK SLP248

CYYC;2009-02-22 07:00;CYYC 220700Z 04002KT 12SM SKC M11/M13 A3009 RMK SLP251

CYYC;2009-02-22 08:00;CYYC 220800Z 34002KT 10SM SKC M11/M12 A3009 RMK SLP250

CYYC;2009-02-22 09:00;CYYC 220900Z CCA 00000KT 10SM SKC M12/M13 A3008 RMK SLP249

CYYC;2009-02-22 10:00;CYYC 221000Z 00000KT 10SM FEW250 M13/M14 A3008 RMK CI0 SLP249

CYYC;2009-02-22 10:55;CYYC 221055Z 12004KT 6SM BR FEW002 FEW007 M13/ RMK SF1SF1

CYYC;2009-02-22 11:00;CYYC 221100Z 13004KT 2SM BR BKN002 M12/M13 A3007 RMK SF6 SLP247

CYYC;2009-02-22 11:16;CYYC 221116Z 16002KT 1SM BR OVC002 M12/ RMK ST8

CYYC;2009-02-22 11:29;CYYC 221129Z 16002KT 1/4SM FZFG OVC001 M11/ RMK FG6ST2

CYYC;2009-02-22 12:00;CYYC 221200Z CCA 17003KT 1/8SM FZFG VV001 M11/M12 A3007 RMK FG8 SNOW COVER/TRACE LOOSE RVR RWY 16 1400FT SLP252

CYYC;2009-02-22 13:00;CYYC 221300Z 17002KT 1/8SM FZFG VV001 M12/M12 A3007 RMK FG8 RVR RWY 16 2400FT SLP250

CYYC;2009-02-22 14:00;CYYC 221400Z 22003KT 1/8SM FZFG VV001 M12/M12 A3006 RMK FG8 RVR RWY 16 1600FT SLP246

CYYC;2009-02-22 15:00;CYYC 221500Z 00000KT 1/8SM FZFG SCT160 M12/M13 A3006 RMK FG3AC0 RIME ON ICE ACCRETION/RVR RWY28 1100FT SLP255

CYYC;2009-02-22 15:07;CYYC 221507Z CCA 04002KT 1/2SM FZFG FEW200 M13/ RMK FG1CI1 RVR RWY28 1100FT

CYYC;2009-02-22 15:12;CYYC 221512Z 00000KT 1/2SM FZFG FEW190 SCT220 M13/ RMK FG1AC1CI1 VIS E-N 2 1/2/RVR RWY28 1100FT

CYYC;2009-02-22 15:19;CYYC 221519Z CCA 00000KT 1SM FZFG FEW190 SCT220 M13/ RMK FG1AC1CI1 VIS SW 1/4/VIS W 3/VIS E 1/2/RVR RWY28 1800FT

CYYC;2009-02-22 15:30;CYYC 221530Z 02002KT 3SM BR FEW190 SCT240 M12/ RMK AC1CI1 VIS E 1/2

CYYC;2009-02-22 16:00;CYYC 221600Z 00000KT 6SM BR FEW160 BKN180 BKN250 M11/M11 A3006 RMK AC1AC5CI1 SLP255

CYYC;2009-02-22 17:00;CYYC 221700Z 00000KT 12SM BKN140 BKN210 M08/M08 A3006 RMK AC1CI0 BR SLP254

CYYC;2009-02-22 18:00;CYYC 221800Z 06002KT 15SM FEW140 BKN210 M05/M06 A3004 RMK AC1CI0 SLP242

CYYC;2009-02-22 19:00;CYYC 221900Z 04006KT 25SM FEW150 FEW190 BKN210 OVC240 M04/M07 A3004 RMK AC1AC1CI0CI0 SLP242

CYYC;2009-02-22 20:00;CYYC 222000Z 04006KT 30SM FEW150 SCT190 OVC230 M03/M07 A3002 RMK AC1AC2CI0 SLP237

CYYC;2009-02-22 21:00;CYYC 222100Z 05005KT 30SM FEW160 SCT200 M03/M07 A3001 RMK AC1CI0 SLP231

CYYC;2009-02-22 22:00;CYYC 222200Z 04006KT 30SM FEW160 FEW200 M04/M08 A2999 RMK AC1CI0 SLP224

CYYC;2009-02-22 23:00;CYYC 222300Z 05005KT 30SM FEW160 OVC250 M05/M08 A2998 RMK AC1CI1 SLP220

CYYC;2009-02-23 00:00;CYYC 230000Z 05003KT 25SM SCT170 BKN210 OVC240 M06/M08 A2997 RMK AC3CI3CI1 SLP221

CYYC;2009-02-23 01:00;CYYC 230100Z 11003KT 20SM FEW100 SCT210 OVC240 M08/M10 A2995 RMK AC1CI2CI0 SLP214

CYYC;2009-02-23 02:00;CYYC 230200Z 09003KT 8SM OVC110 M09/M10 A2993 RMK AC8 BR SLP207

CYYC;2009-02-23 03:00;CYYC 230300Z 05003KT 5SM BR BKN090 M09/M10 A2992 RMK AC6 SLP210

CYYC;2009-02-23 04:00;CYYC 230400Z 35004KT 5SM BR OVC090 M09/M10 A2991 RMK AC7 SLP206

CYYC;2009-02-23 05:00;CYYC 230500Z 36006KT 5SM BR BKN040 OVC090 M08/M10 A2990 RMK SC6AC2 SLP203

CYYC;2009-02-23 06:00;CYYC 230600Z 36006KT 5SM BR SCT040 OVC100 M08/M10 A2989 RMK SC2AC5 SLP187

CYYC;2009-02-23 07:00;CYYC 230700Z 35014KT 5SM BR SCT070 OVC180 M08/M10 A2989 RMK AC2AC5 SLP186

CYYC;2009-02-23 08:00;CYYC 230800Z 35017KT 3SM BR FEW010 SCT070 OVC180 M10/M11 A2990 RMK ST1AC2AC4 SLP190

CYYC;2009-02-23 08:14;CYYC 230814Z 35016KT 1 1/2SM BR BKN005 OVC020 M10/ RMK ST6SC2

CYYC;2009-02-23 09:00;CYYC 230900Z 35017KT 1 1/2SM BR OVC006 M09/M10 A2991 RMK ST8 SLP193

CYYC;2009-02-23 10:00;CYYC 231000Z 36018KT 3SM BR OVC007 M09/M10 A2991 RMK ST8 SLP193

CYYC;2009-02-23 11:00;CYYC 231100Z 36015KT 2 1/2SM BR OVC007 M09/M09 A2992 RMK ST8 SLP195

CYYC;2009-02-23 12:00;CYYC 231200Z CCA 35015KT 4SM BR BKN010 OVC020 M09/M10 A2993 RMK ST6SC2 SNOW COVER/TRACE LOOSE SLP203

CYYC;2009-02-23 13:00;CYYC 231300Z 34013G19KT 5SM -SN BR BKN010 OVC020 M09/M11 A2994 RMK ST5SC2 SLP206

CYYC;2009-02-23 14:00;CYYC 231400Z 34013G18KT 5SM -SN BR BKN014 OVC020 M09/M11 A2994 RMK ST5SC2 SLP207

CYYC;2009-02-23 15:00;CYYC 231500Z 35014KT 8SM -SN OVC012 M08/M10 A2995 RMK SC8 BR SLP213

CYYC;2009-02-23 16:00;CYYC 231600Z 36013KT 5SM -SN BR OVC014 M08/M10 A2995 RMK SC8 SLP213

CYYC;2009-02-23 17:00;CYYC 231700Z 36015KT 4SM -SN OVC013 M09/M11 A2994 RMK SC8 SLP211

CYYC;2009-02-23 17:48;CYYC 231748Z 36011KT 4SM -SN FEW013 BKN023 OVC036 M08/ RMK SF2SC6SC1

CYYC;2009-02-23 18:00;CYYC 231800Z 35010KT 3SM -SN SCT012 OVC026 M08/M11 A2994 RMK SC4SC4 VIS S-W 2 SLP208

CYYC;2009-02-23 18:07;CYYC 231807Z 34011KT 1 3/4SM -SN BKN012 OVC026 M09/ RMK SN1SC6SC2

CYYC;2009-02-23 18:17;CYYC 231817Z CCA 35010KT 1SM -SN DRSN BKN012 OVC026 M08/ RMK SN2SC5SC1 RVR RWY34 6000 FT

CYYC;2009-02-23 18:26;CYYC 231826Z 35010KT 3/4SM -SN DRSN BKN010 OVC023 M09/ RMK SN2SC4SC2 RVR RWY34 6000 FT

CYYC;2009-02-23 18:30;CYYC 231830Z 35010KT 3/4SM -SN DRSN BKN008 OVC021 M09/ RMK SN2SC4SC2 RVR RWY34 6000 FT

CYYC;2009-02-23 18:46;CYYC 231846Z 36010KT 1 1/4SM -SN DRSN BKN010 OVC022 M08/ RMK SN2SC5SC2

CYYC;2009-02-23 19:00;CYYC 231900Z 36010KT 1SM -SN DRSN BKN011 OVC029 M09/M10 A2993 RMK SN2SC5SC2 RVR RWY16 6000 FT SLP204

CYYC;2009-02-23 19:12;CYYC 231912Z 36010KT 3/4SM -SN DRSN BKN009 OVC026 M09/ RMK SN3SC3SC2 RVR RWY16 6000 FT

CYYC;2009-02-23 20:00;CYYC 232000Z 01006KT 1 1/4SM -SN BKN014 OVC028 M08/M10 A2992 RMK SN2SC4SC2 SLP202

CYYC;2009-02-23 20:29;CYYC 232029Z 03007KT 4SM -SN FEW014 FEW028 OVC032 M08/ RMK SC1SC2SC6

CYYC;2009-02-23 21:00;CYYC 232100Z 02005KT 12SM -SN SCT013 OVC028 M08/M10 A2990 RMK SC4SC4 SLP195

CYYC;2009-02-23 22:00;CYYC 232200Z 04003KT 10SM -SN OVC016 M08/M10 A2989 RMK SC8 SLP193

CYYC;2009-02-23 23:00;CYYC 232300Z 05005KT 10SM -SN OVC016 M08/M11 A2988 RMK SC8 SLP191

CYYC;2009-02-24 00:00;CYYC 240000Z 04009KT 6SM -SN BR BKN016 OVC022 M08/M10 A2988 RMK SC6SC2 /S01/ SLP188

CYYC;2009-02-24 01:00;CYYC 240100Z 03009KT 6SM -SN BR OVC019 M09/M11 A2987 RMK SC8 SLP186

CYYC;2009-02-24 01:08;CYYC 240108Z 01010KT 1 1/2SM -SN BR OVC019 M09/ RMK SC8 VIS E 1/ VIS W 3

CYYC;2009-02-24 01:42;CYYC 240142Z 04009KT 4SM -SN BR BKN019 OVC023 M09/ RMK SC6SC2

CYYC;2009-02-24 02:00;CYYC 240200Z 03010KT 5SM -SN BR OVC023 M10/M11 A2987 RMK SC8 SLP185

CYYC;2009-02-24 03:00;CYYC 240300Z 04005KT 8SM -SN SCT010 OVC023 M10/M11 A2986 RMK ST2SC6 SLP183

CYYC;2009-02-24 04:00;CYYC 240400Z 05006KT 5SM -SN SCT015 OVC023 M10/M11 A2987 RMK ST2SC6 SLP185

CYYC;2009-02-24 05:00;CYYC 240500Z 07004KT 5SM -SN SCT010 OVC025 M10/M11 A2986 RMK ST2SC6 SLP183

CYYC;2009-02-24 05:32;CYYC 240532Z 07006KT 1 1/2SM -SN SCT007 BKN013 OVC024 M10/ RMK ST2SC3SC2

CYYC;2009-02-24 06:00;CYYC 240600Z CCA 08006KT 4SM -SN SCT007 BKN012 OVC024 M10/M11 A2985 RMK ST2SC4SC2 /S01/ SLP180

CYYC;2009-02-24 06:25;CYYC 240625Z 07005KT 1 1/2SM -SN BKN009 OVC024 M10/ RMK SN2ST5SC2

CYYC;2009-02-24 07:00;CYYC 240700Z 07004KT 1 1/2SM -SN BKN015 OVC023 M10/M11 A2983 RMK ST4SC4 SLP173

CYYC;2009-02-24 07:36;CYYC 240736Z 08006KT 1 1/2SM -SN OVC007 M10/ RMK SC8

CYYC;2009-02-24 08:00;CYYC 240800Z 09004KT 1 1/2SM -SN OVC007 M10/M11 A2981 RMK SC8 SLP168

CYYC;2009-02-24 09:00;CYYC 240900Z 09006KT 1 1/2SM -SN OVC005 M11/M11 A2976 RMK SC8 SLP148

CYYC;2009-02-24 10:00;CYYC 241000Z 08006KT 1 1/2SM -SN OVC008 M11/M12 A2976 RMK SC8 SLP149

CYYC;2009-02-24 10:38;CYYC 241038Z 07006KT 3/4SM -SN OVC005 M11/ RMK SC8

CYYC;2009-02-24 11:00;CYYC 241100Z 07007KT 1/2SM SN VV004 M12/M13 A2975 RMK SN8 /S03/ SLP146

CYYC;2009-02-24 12:00;CYYC 241200Z CCA 07008KT 3/4SM -SN OVC015 M12/M13 A2974 RESN RMK SN5SC3 /S01/ SNOW COVER/MUCH LOOSE - RVR RWY16 6000+ FT SLP146

CYYC;2009-02-24 13:00;CYYC 241300Z 06006KT 1SM -SN OVC020 M13/M13 A2973 RMK SN3SC5 RVR RWY34 6000+ FT /S01/ SLP142

CYYC;2009-02-24 13:16;CYYC 241316Z 06005KT 5SM -SN SCT015 OVC050 M13/ RMK SC3SC5

CYYC;2009-02-24 14:00;CYYC 241400Z 07006KT 6SM -SN FEW015 OVC050 M13/M14 A2972 RMK SC2SC5 SLP139

CYYC;2009-02-24 15:00;CYYC 241500Z 03005KT 7SM -SN FEW015 OVC048 M13/M14 A2972 RMK SC2SC6 /S02/ SLP142

CYYC;2009-02-24 15:25;CYYC 241525Z 05006KT 5SM -SN BKN008 OVC048 M13/ RMK SC5SC3 RVR RWY34 6000+FT

CYYC;2009-02-24 16:00;CYYC 241600Z 04009KT 2 1/2SM -SN FEW005 BKN010 OVC015 M13/M14 A2973 RMK SC2SC4SC2 RVR RWY34 6000+FT SLP145

CYYC;2009-02-24 17:00;CYYC 241700Z 04010KT 2 1/2SM -SN FEW005 BKN012 OVC019 M14/M15 A2975 RMK SC1SC5SC2 SLP149

CYYC;2009-02-24 18:00;CYYC 241800Z CCA 02010KT 2 1/4SM -SN DRSN BKN014 OVC049 M14/M15 A2976 RMK SC5SC3 /S03/ SLP157

CYYC;2009-02-24 18:21;CYYC 241821Z 01008KT 3SM -SN SCT017 OVC048 M14/ RMK SC3SC5

CYYC;2009-02-24 19:00;CYYC 241900Z 02009KT 3SM -SN FEW015 OVC048 M14/M15 A2978 RMK SC2SC6 SLP162

CYYC;2009-02-24 20:00;CYYC 242000Z 03009KT 4SM -SN FEW006 SCT019 OVC045 M14/M15 A2978 RMK SC2SC2SC4 SLP163

CYYC;2009-02-24 21:00;CYYC 242100Z 03011KT 7SM -SN DRSN FEW006 FEW019 SCT045 BKN220 M14/M16 A2978 RMK SC1SC1SC2CI1 SLP166

CYYC;2009-02-24 22:00;CYYC 242200Z 02012KT 8SM -SN DRSN FEW006 FEW019 SCT045 BKN180 M15/M17 A2980 RMK SC1SC2SC2AC2 SLP171

CYYC;2009-02-24 23:00;CYYC 242300Z 02012KT 8SM -SN DRSN FEW011 FEW022 BKN180 M16/M17 A2984 RMK SC1SC1AC2 SLP182

CYYC;2009-02-25 00:00;CYYC 250000Z 03013KT 15SM -SN DRSN BKN013 OVC040 M16/M18 A2986 RMK SC5SC2 PCPN VRY LGT SLP199

CYYC;2009-02-25 01:00;CYYC 250100Z 02011KT 7SM -SN BKN013 BKN020 OVC040 M17/M18 A2989 RMK SC5SC2SC1 SLP207

CYYC;2009-02-25 02:00;CYYC 250200Z 02012KT 6SM -SN BKN014 OVC021 M17/M18 A2991 RMK SC5SC2 SLP215

CYYC;2009-02-25 03:00;CYYC 250300Z 03011KT 6SM -SN SCT016 OVC023 M17/M19 A2993 RMK SC4SC4 SLP226

CYYC;2009-02-25 04:00;CYYC 250400Z 04008KT 4SM -SN FEW015 BKN018 OVC029 M18/M19 A2995 RMK SC2SC6SC1 SLP232

CYYC;2009-02-25 05:00;CYYC 250500Z 03008KT 3SM -SN BKN012 OVC028 M18/M19 A2996 RMK SC6SC2 VIS S 2 SLP236

CYYC;2009-02-25 05:21;CYYC 250521Z 03009KT 3SM -SN FEW014 OVC031 M18/ RMK SC2SC6

CYYC;2009-02-25 06:00;CYYC 250600Z 02009KT 3SM -SN FEW032 OVC046 M18/M20 A2998 RMK SC2SC6 /S01/ SLP246

CYYC;2009-02-25 07:00;CYYC 250700Z 04008KT 5SM -SN OVC047 M19/M20 A2999 RMK SC8 SLP250

CYYC;2009-02-25 08:00;CYYC 250800Z 02010KT 4SM -SN OVC047 M19/M21 A3000 RMK SC8 SLP253

CYYC;2009-02-25 09:00;CYYC 250900Z 01011KT 4SM -SN OVC049 M20/M21 A3001 RMK SC8 SLP258

CYYC;2009-02-25 10:00;CYYC 251000Z 35011KT 4SM -SN BKN045 OVC071 M20/M22 A3002 RMK SC7AC1 SLP260

CYYC;2009-02-25 11:00;CYYC 251100Z 35010KT 3SM -SN SCT015 OVC028 M20/M21 A3002 RMK SC3SC5 SLP262

CYYC;2009-02-25 12:00;CYYC 251200Z CCA 35009KT 6SM -SN FEW015 BKN048 OVC053 M21/M22 A3003 RMK SC2SC6SC1 /S01/ SNOW COVER/MUCH LOOSE SLP270

CYYC;2009-02-25 13:00;CYYC 251300Z 34009KT 6SM -SN OVC046 M21/M22 A3004 RMK SC8 SLP273

CYYC;2009-02-25 14:00;CYYC 251400Z 35010KT 4SM -SN BKN018 OVC040 M21/M22 A3006 RMK SC6SC2 SLP279

CYYC;2009-02-25 14:23;CYYC 251423Z 35009KT 2SM -SN BKN010 OVC025 M21/ RMK SC7SC1

CYYC;2009-02-25 14:42;CYYC 251442Z 35010KT 3/4SM -SN DRSN BKN009 OVC022 M21/ RMK SN2SC5SC2 RVR RWY34 6000+FT

CYYC;2009-02-25 15:00;CYYC 251500Z 35010KT 3/4SM -SN DRSN BKN007 OVC018 M21/M22 A3007 RMK SN2SC5SC2 RVR RWY34 6000+FT SLP288

CYYC;2009-02-25 15:29;CYYC 251529Z CCA 35011KT 1 1/4SM -SN DRSN FEW007 BKN015 OVC029 M21/ RMK SC2SC5SC1

CYYC;2009-02-25 15:53;CYYC 251553Z 34009KT 5SM -SN DRSN FEW006 SCT018 OVC030 M21/ RMK SC1SC3SC3

CYYC;2009-02-25 16:00;CYYC 251600Z 34009KT 7SM -SN FEW006 SCT018 OVC056 M21/M22 A3004 RMK SC1SC2SC5 SLP278

CYYC;2009-02-25 17:00;CYYC 251700Z 35010KT 6SM -SN FEW011 SCT020 OVC056 M20/M22 A3010 RMK SC2SC2SC2 SLP297

CYYC;2009-02-25 18:00;CYYC 251800Z 01009KT 4SM -SN FEW010 SCT020 BKN030 OVC055 M21/M23 A3011 RMK SC2SC2SC2SC1 SLP300

CYYC;2009-02-25 19:00;CYYC 251900Z CCA 01009KT 8SM -SN FEW010 FEW025 OVC055 M20/M25 A3011 RMK SC1SC1SC6 SLP301

CYYC;2009-02-25 19:40;CYYC 251940Z 03009KT 5SM -SN BKN014 BKN025 OVC055 M20/ RMK SC5SC2SC1

CYYC;2009-02-25 20:00;CYYC 252000Z 03009KT 5SM -SN BKN014 OVC025 M20/M25 A3011 RMK SC5SC2 SLP301

CYYC;2009-02-25 21:00;CYYC 252100Z 02010KT 5SM -SN BKN014 OVC028 M21/M25 A3011 RMK SC5SC2 SLP303

CYYC;2009-02-25 21:50;CYYC 252150Z 03009KT 6SM -SN FEW014 SCT025 OVC055 M21/ RMK SC2SC2SC2

CYYC;2009-02-25 22:00;CYYC 252200Z 04009KT 6SM -SN FEW016 FEW026 BKN055 M20/M26 A3011 RMK SC1SC1SC3 SLP304

CYYC;2009-02-25 23:00;CYYC 252300Z CCA 04008KT 10SM -SN FEW015 FEW026 FEW055 M21/M26 A3012 RMK SC1SC1SC1 PCPN VRY LGT SLP305

CYYC;2009-02-26 00:00;CYYC 260000Z 04007KT 10SM -SN FEW015 FEW030 FEW220 M22/M25 A3013 RMK SC1SC1CS0 PCPN VRY LGT SLP314

CYYC;2009-02-26 01:00;CYYC 260100Z 03006KT 10SM -SN FEW015 FEW030 BKN054 M22/M26 A3014 RMK SC1SC1SC6 PCPN VRY LGT SLP316

CYYC;2009-02-26 02:00;CYYC 260200Z 03005KT 7SM -SN FEW015 OVC053 M22/M26 A3014 RMK SC1SC7 PCPN VRY LGT SLP318

CYYC;2009-02-26 03:00;CYYC 260300Z 02004KT 10SM -SN OVC051 M22/M25 A3014 RMK SC8 SLP319

CYYC;2009-02-26 04:00;CYYC 260400Z 03003KT 10SM -SN OVC047 M22/M25 A3014 RMK SC8 SLP317

CYYC;2009-02-26 05:00;CYYC 260500Z 04003KT 7SM -SN OVC048 M22/M25 A3013 RMK SC8 SLP314

CYYC;2009-02-26 06:00;CYYC 260600Z 05004KT 8SM -SN BKN048 OVC085 M22/M26 A3012 RMK SC6AC2 SLP312

CYYC;2009-02-26 06:22;CYYC 260622Z 06003KT 10SM FEW050 OVC078 M22/ RMK SC2AC6

CYYC;2009-02-26 07:00;CYYC 260700Z 09004KT 10SM SCT049 OVC090 M21/M25 A3011 RMK SC4AC4 SLP309

CYYC;2009-02-26 08:00;CYYC 260800Z 11006KT 10SM BKN048 OVC090 M22/M25 A3011 RMK SC7AC1 SLP307

CYYC;2009-02-26 09:00;CYYC 260900Z 13007KT 10SM FEW048 OVC083 M22/M25 A3009 RMK SC2AC6 SLP302

CYYC;2009-02-26 10:00;CYYC 261000Z 13007KT 3SM -SN BKN006 OVC040 M22/M25 A3008 RMK ST5SC3 SLP298

CYYC;2009-02-26 11:00;CYYC 261100Z 13007KT 3SM -SN FEW007 BKN015 OVC033 M22/M27 A3006 RMK ST2SC5SC1 SLP292

CYYC;2009-02-26 12:00;CYYC 261200Z 13008KT 10SM -SN FEW040 OVC083 M22/M27 A3005 RMK SC2AC6 SNOW COVER/MUCH LOOSE SLP287

CYYC;2009-02-26 13:00;CYYC 261300Z 13007KT 10SM -SN FEW015 FEW044 OVC082 M23/M27 A3005 RMK SC1SC2AC6 SLP286

CYYC;2009-02-26 14:00;CYYC 261400Z 14010KT 4SM -SN FEW015 BKN048 OVC083 M23/M27 A3003 RMK SC2SC5AC2 SLP281

CYYC;2009-02-26 15:00;CYYC 261500Z 14008KT 3SM -SN FEW005 BKN040 OVC080 M23/M27 A3002 RMK SC2SC3AC1 SLP278

CYYC;2009-02-26 16:00;CYYC 261600Z 15006KT 5SM -SN FEW005 SCT040 BKN078 M23/M27 A3001 RMK SC1SC2AC2 SLP277

CYYC;2009-02-26 16:27;CYYC 261627Z 15010KT 5SM IC FEW005 FEW040 SCT220 M22/ RMK SC1SC2CI0

CYYC;2009-02-26 17:00;CYYC 261700Z 15009KT 5SM IC FEW015 FEW040 FEW200 M22/M26 A3001 RMK SC1SC2CI0 LWR SC TR SLP277

CYYC;2009-02-26 18:00;CYYC 261800Z 17011KT 25SM FEW040 FEW200 M21/M26 A3000 RMK SC1CI0 SLP270

CYYC;2009-02-26 19:00;CYYC 261900Z 15010KT 25SM FEW020 M21/M25 A3000 RMK CU1 SLP268

CYYC;2009-02-26 19:42;CYYC 261942Z CCA 16011KT 30SM FEW020 FEW075 M20/ RMK CU1AC1

CYYC;2009-02-26 20:00;CYYC 262000Z 16011KT 30SM FEW020 FEW075 M20/M25 A2998 RMK CU1AC1 SLP262

CYYC;2009-02-26 21:00;CYYC 262100Z 16010KT 40SM FEW210 M20/M24 A2995 RMK CI1 SLP251

CYYC;2009-02-26 22:00;CYYC 262200Z 15011KT 40SM FEW016 FEW210 M20/M24 A2994 RMK CU1CI1 SLP248

CYYC;2009-02-26 23:00;CYYC 262300Z 16012KT 30SM FEW210 M20/M24 A2992 RMK CI1 SLP242

CYYC;2009-02-27 00:00;CYYC 270000Z 17011KT 30SM FEW016 FEW075 FEW210 M20/M24 A2991 RMK CU1AC1CI1 SLP236

CYYC;2009-02-27 01:00;CYYC 270100Z 16011KT 30SM FEW016 FEW075 FEW210 M20/M24 A2991 RMK CU1AC1CI1 ALL CLDS TR SLP235

CYYC;2009-02-27 02:00;CYYC 270200Z 17011KT 25SM FEW012 FEW210 M21/M25 A2989 RMK CU1CI1 SLP231

CYYC;2009-02-27 03:00;CYYC 270300Z 17010KT 15SM SKC M21/M24 A2989 RMK SLP234

CYYC;2009-02-27 04:00;CYYC 270400Z 18007KT 15SM FEW080 M22/M25 A2988 RMK AC1 AC TR SLP230

CYYC;2009-02-27 05:00;CYYC 270500Z 18007KT 15SM SKC M21/M24 A2986 RMK SLP225

CYYC;2009-02-27 06:00;CYYC 270600Z 19012KT 15SM SKC M21/M25 A2985 RMK SLP216

CYYC;2009-02-27 07:00;CYYC 270700Z 18005KT 15SM SKC M22/M25 A2986 RMK SLP220

CYYC;2009-02-27 08:00;CYYC 270800Z 21008KT 15SM SKC M21/M24 A2986 RMK SLP220

CYYC;2009-02-27 09:00;CYYC 270900Z 19007KT 15SM SKC M20/M24 A2987 RMK SLP218

CYYC;2009-02-27 10:00;CYYC 271000Z 22005KT 15SM SKC M20/M23 A2988 RMK SLP221

CYYC;2009-02-27 11:00;CYYC 271100Z 26002KT 15SM SKC M21/M24 A2988 RMK SLP223

CYYC;2009-02-27 12:00;CYYC 271200Z 36003KT 15SM SKC M22/M26 A2992 RMK SNOW COVER/MUCH LOOSE SLP238

CYYC;2009-02-27 13:00;CYYC 271300Z 36004KT 15SM SKC M21/M23 A2995 RMK SLP247

CYYC;2009-02-27 14:00;CYYC 271400Z 36003KT 40SM FEW250 M14/M19 A2998 RMK CI1 SLP257

CYYC;2009-02-27 15:00;CYYC 271500Z 03006KT 40SM FEW220 M13/M16 A3001 RMK CI1 SLP257

CYYC;2009-02-27 16:00;CYYC 271600Z 34005KT 40SM FEW220 M12/M16 A3004 RMK CI0 SLP267

CYYC;2009-02-27 17:00;CYYC 271700Z 36006KT 40SM FEW220 M09/M13 A3007 RMK CI0 SLP277

CYYC;2009-02-27 18:00;CYYC 271800Z 34008KT 40SM SCT240 M06/M12 A3010 RMK CI1 SLP282

CYYC;2009-02-27 19:00;CYYC 271900Z 34009KT 40SM FEW120 BKN240 M04/M13 A3013 RMK AC1CI1 SLP291

CYYC;2009-02-27 20:00;CYYC 272000Z 34009KT 40SM BKN240 M04/M14 A3015 RMK CI1 SLP295

CYYC;2009-02-27 21:00;CYYC 272100Z 35011KT 40SM BKN240 M04/M13 A3016 RMK CI1 SLP297

CYYC;2009-02-27 22:00;CYYC 272200Z 36011KT 40SM BKN240 M04/M13 A3018 RMK CI2 SLP302

CYYC;2009-02-27 23:00;CYYC 272300Z 02006KT 40SM FEW032 FEW110 BKN240 M05/M13 A3020 RMK CU1AC1CI2 CU+AC TR SLP308

CYYC;2009-02-28 00:00;CYYC 280000Z 34003KT 40SM FEW036 FEW110 BKN230 M05/M14 A3022 RMK CU1AC1CI2 CU TR SLP320

CYYC;2009-02-28 01:00;CYYC 280100Z 05007KT 40SM FEW028 FEW110 BKN230 M08/M15 A3024 RMK CU1AC1CI2 CU TR SLP326

CYYC;2009-02-28 02:00;CYYC 280200Z 04004KT 30SM FEW210 M09/M15 A3026 RMK CI1 SLP335

CYYC;2009-02-28 03:00;CYYC 280300Z 35002KT 15SM FEW220 M12/M16 A3029 RMK CI1 SLP343

CYYC;2009-02-28 04:00;CYYC 280400Z 36005KT 15SM FEW057 FEW220 M14/M17 A3031 RMK SC1CI0 SLP349

CYYC;2009-02-28 05:00;CYYC 280500Z 36005KT 15SM FEW060 FEW110 FEW250 M16/M19 A3032 RMK SC1AC1CI1 ALL CLDS TR SLP353

CYYC;2009-02-28 06:00;CYYC 280600Z 36003KT 15SM FEW110 FEW250 M16/M18 A3034 RMK AC1CI1 BOTH CLDS TR SLP355

CYYC;2009-02-28 07:00;CYYC 280700Z 35003KT 15SM FEW110 M18/M20 A3034 RMK AC1 AC TR SLP357

CYYC;2009-02-28 08:00;CYYC 280800Z 36004KT 15SM FEW110 M18/M19 A3035 RMK AC1 SLP358

CYYC;2009-02-28 09:00;CYYC 280900Z 36004KT 15SM SKC M19/M20 A3037 RMK SLP367

CYYC;2009-02-28 10:00;CYYC 281000Z 01003KT 15SM SKC M20/M21 A3037 RMK SLP368

CYYC;2009-02-28 11:00;CYYC 281100Z 35003KT 15SM SKC M19/M21 A3038 RMK SLP370

CYYC;2009-02-28 12:00;CYYC 281200Z 33004KT 15SM SKC M20/M21 A3038 RMK SNOW COVER/MUCH LOOSE SLP376

CYYC;2009-02-28 13:00;CYYC 281300Z 33002KT 15SM SKC M21/M22 A3040 RMK SLP382

CYYC;2009-02-28 14:00;CYYC 281400Z 04002KT 40SM FEW110 FEW240 M22/M26 A3040 RMK AC1CI1 AC+CI TR SLP382

CYYC;2009-02-28 15:00;CYYC 281500Z 00000KT 40SM FEW110 FEW240 M21/M25 A3040 RMK AC1CI1 SLP396

CYYC;2009-02-28 16:00;CYYC 281600Z 00000KT 40SM FEW110 FEW240 M19/M23 A3041 RMK AC1CI1 SLP399

CYYC;2009-02-28 17:00;CYYC 281700Z 00000KT 40SM FEW110 FEW240 M17/M22 A3042 RMK AC1CI1 SLP400

CYYC;2009-02-28 18:00;CYYC 281800Z 00000KT 40SM FEW110 FEW220 M11/M17 A3041 RMK AC1CI0 SLP387

CYYC;2009-02-28 19:00;CYYC 281900Z 16010KT 40SM FEW150 BKN220 M09/M18 A3039 RMK AC0CI0 SLP382

CYYC;2009-02-28 20:00;CYYC 282000Z 16012KT 40SM FEW150 BKN210 M09/M17 A3036 RMK AC2CI0 ACSL S-SW SLP373

CYYC;2009-02-28 21:00;CYYC 282100Z 16013KT 40SM FEW150 BKN210 M10/M17 A3032 RMK AC1CI2 ACSL SW SLP358

CYYC;2009-02-28 22:00;CYYC 282200Z 16010KT 40SM FEW170 BKN210 M10/M17 A3029 RMK AC2CI1 SLP349

CYYC;2009-02-28 23:00;CYYC 282300Z 14012KT 40SM SCT170 BKN210 M11/M16 A3027 RMK AC2CI2 SLP343

CYYC;2009-03-01 01:00;CYYC 010100Z 16013KT 30SM FEW150 SCT180 OVC220 M13/M17 A3021 RMK AC1AC3CI2 SLP326

CYYC;2009-03-01 02:00;CYYC 010200Z 16011KT 40SM FEW150 BKN170 OVC220 M13/M17 A3020 RMK AC2AC3CI2 SLP325

CYYC;2009-03-01 03:00;CYYC 010300Z 16009KT 15SM OVC160 M13/M16 A3017 RMK AC8 SLP315

CYYC;2009-03-01 04:00;CYYC 010400Z 17009KT 15SM OVC160 M13/M16 A3015 RMK AC8 SLP309

CYYC;2009-03-01 05:00;CYYC 010500Z 17008KT 15SM OVC150 M13/M15 A3010 RMK AC8 SLP295

CYYC;2009-03-01 06:00;CYYC 010600Z 18006KT 15SM BKN160 M13/M15 A3008 RMK AC7 SLP269

CYYC;2009-03-01 07:00;CYYC 010700Z 19006KT 15SM BKN160 M13/M15 A3005 RMK AC6 SLP260

CYYC;2009-03-01 08:00;CYYC 010800Z 19006KT 15SM OVC150 M12/M14 A3001 RMK AC8 SLP248

CYYC;2009-03-01 09:00;CYYC 010900Z 20011KT 15SM OVC140 M09/M12 A2997 RMK AC8 SLP221

CYYC;2009-03-01 10:00;CYYC 011000Z 20011KT 15SM BKN140 M07/M11 A2995 RMK AC7 SLP215

CYYC;2009-03-01 11:00;CYYC 011100Z 21009KT 15SM BKN140 OVC210 M06/M10 A2993 RMK AC6CS2 SLP209

CYYC;2009-03-01 12:00;CYYC 011200Z 22006KT 15SM SCT140 OVC210 M06/M09 A2991 RMK AC3CS4 SNOW COVER/MUCH LOOSE SLP200

CYYC;2009-03-01 13:00;CYYC 011300Z 23003KT 15SM OVC210 M05/M08 A2990 RMK CS7 SLP198

CYYC;2009-03-01 13:47;CYYC 011347Z 36011KT 15SM BKN210 M10/ RMK CS6 WSHFT 1344

CYYC;2009-03-01 14:00;CYYC 011400Z 36010KT 15SM BKN210 M11/M13 A2992 RMK CS6 SLP202

CYYC;2009-03-01 15:00;CYYC 011500Z 35010KT 30SM FEW060 FEW180 BKN210 M10/M13 A2991 RMK SC1AC2CI6 ACSL TR SLP209

CYYC;2009-03-01 16:00;CYYC 011600Z 36005KT 30SM FEW120 SCT190 BKN220 M09/M12 A2992 RMK AC2AC2CI3 VIRGA SW-W SLP210

CYYC;2009-03-01 17:00;CYYC 011700Z 00000KT 30SM FEW060 FEW080 BKN120 BKN210 M07/M11 A2992 RMK SC1AC2AC5CI1 VIRGA SW-W SLP211

CYYC;2009-03-01 18:00;CYYC 011800Z 20002KT 30SM FEW060 SCT072 BKN120 BKN210 M05/M09 A2992 RMK SC1AC4AC3CI1 VIRGA SW-W SLP206

CYYC;2009-03-01 19:00;CYYC 011900Z 19005KT 30SM BKN050 M03/M07 A2991 RMK SC7 SLP202

CYYC;2009-03-01 20:00;CYYC 012000Z 20006KT 30SM BKN060 BKN120 M01/M06 A2990 RMK SC7AC1 VIRGA SW SLP199

CYYC;2009-03-01 21:00;CYYC 012100Z 20007KT 30SM FEW075 BKN090 M00/M05 A2986 RMK AC2AC5 SLP171

CYYC;2009-03-01 22:00;CYYC 012200Z 20005KT 30SM FEW060 FEW090 BKN120 BKN180 02/M05 A2984 RMK SC1AC2AC4AC2 SLP162

CYYC;2009-03-01 23:00;CYYC 012300Z 16004KT 30SM FEW060 BKN100 BKN180 02/M04 A2984 RMK SC1AC6AC1 SLP164

CYYC;2009-03-02 00:00;CYYC 020000Z 13004KT 30SM FEW060 BKN120 02/M03 A2983 RMK SC1AC7 SLP152

CYYC;2009-03-02 01:00;CYYC 020100Z 15003KT 30SM FEW060 BKN120 BKN250 M01/M06 A2980 RMK SC1AC4CI0 SLP144

CYYC;2009-03-02 02:00;CYYC 020200Z 15006KT 10SM SCT120 BKN210 BKN250 M04/M07 A2982 RMK AC2CI1CI0 SLP149

CYYC;2009-03-02 03:00;CYYC 020300Z 17010KT 8SM BKN210 M07/M09 A2983 RMK CI4 SLP169

CYYC;2009-03-02 04:00;CYYC 020400Z 10002KT 8SM SCT180 BKN210 M07/M09 A2981 RMK AC2CI2 SLP163

CYYC;2009-03-02 05:00;CYYC 020500Z 15005KT 8SM SCT150 BKN180 BKN210 M06/M08 A2980 RMK AC2AC2CI2 SLP162

CYYC;2009-03-02 06:00;CYYC 020600Z 19006KT 8SM BKN150 BKN180 M06/M08 A2981 RMK AC4AC2 SLP154

CYYC;2009-03-02 07:00;CYYC 020700Z 20003KT 15SM BKN130 BKN150 M06/M08 A2979 RMK AC4AC2 SLP149

CYYC;2009-03-02 08:00;CYYC 020800Z 00000KT 15SM FEW130 SCT180 M06/M08 A2978 RMK AC2AC0 SLP146

CYYC;2009-03-02 09:00;CYYC 020900Z 00000KT 15SM FEW120 SCT180 M06/M08 A2977 RMK AC2AC0 SLP136

CYYC;2009-03-02 10:00;CYYC 021000Z 04002KT 15SM FEW120 SCT180 M08/M10 A2977 RMK AC2AC0 SLP135

CYYC;2009-03-02 11:00;CYYC 021100Z 00000KT 15SM FEW120 BKN210 M09/M10 A2976 RMK AC1CI0 SLP133

CYYC;2009-03-02 12:00;CYYC 021200Z CCA 32002KT 15SM SCT120 BKN210 M07/M09 A2975 RMK AC2CI0 SNOW COVER/MUCH LOOSE SLP127

CYYC;2009-03-02 13:00;CYYC 021300Z 00000KT 15SM BKN140 M05/M07 A2975 RMK AC4 SLP125

CYYC;2009-03-02 14:00;CYYC 021400Z 35003KT 30SM FEW150 BKN250 M05/M07 A2973 RMK AC1CI0 SLP120

CYYC;2009-03-02 15:00;CYYC 021500Z 19003KT 40SM FEW060 FEW110 SCT250 M04/M06 A2973 RMK SC1AC1CI0 SLP128

CYYC;2009-03-02 16:00;CYYC 021600Z 20002KT 40SM FEW060 FEW110 SCT250 M01/M05 A2972 RMK SC1AC1CI1 SC TR SLP124

CYYC;2009-03-02 17:00;CYYC 021700Z 10002KT 40SM FEW060 SCT160 BKN250 03/M02 A2970 RMK SC1AC2CI1 SC TR SLP120

CYYC;2009-03-02 18:00;CYYC 021800Z 00000KT 40SM FEW060 SCT160 BKN250 07/00 A2969 RMK SC1AC2CI2 SC TR SLP095

CYYC;2009-03-02 19:00;CYYC 021900Z 19005KT 40SM FEW060 FEW080 SCT170 BKN250 09/01 A2978 RMK SC1AC1AC2CI2 SLP123

CYYC;2009-03-02 19:43;CYYC 021943Z 16008KT 40SM FEW065 SCT160 BKN250 10/ RMK SC1AC2CI2 ALTIMTER 29.66

CYYC;2009-03-02 20:00;CYYC 022000Z 17006KT 40SM FEW060 FEW080 SCT150 BKN250 09/01 A2964 RMK SC1AC1AC1CI2 SC TR SLP082

CYYC;2009-03-02 21:00;CYYC 022100Z 18008KT 40SM FEW060 BKN120 BKN250 08/02 A2963 RMK SC1AC6CI1 SC TR SLP072

CYYC;2009-03-02 22:00;CYYC 022200Z 18005KT 40SM FEW060 BKN120 BKN230 09/02 A2961 RMK SC1AC5CI1 SC TR SLP067

CYYC;2009-03-02 23:00;CYYC 022300Z 18005KT 40SM FEW060 SCT180 BKN240 11/02 A2961 RMK SC1AC4CI2 SLP068

CYYC;2009-03-03 00:00;CYYC 030000Z 18008KT 40SM FEW060 FEW140 SCT230 11/01 A2961 RMK SC1AC1CI1 SC TR SLP063

CYYC;2009-03-03 01:00;CYYC 030100Z 17003KT 40SM FEW060 FEW080 FEW180 SCT230 06/M00 A2960 RMK SC1AC1AC1CI1 SC TR SLP061

CYYC;2009-03-03 02:00;CYYC 030200Z 18005KT 15SM FEW060 FEW120 FEW230 07/M00 A2961 RMK SC1AC1CI1 SLP064

CYYC;2009-03-03 03:00;CYYC 030300Z 00000KT 15SM FEW060 FEW120 FEW230 05/M00 A2962 RMK SC1AC1CI0 SLP071

CYYC;2009-03-03 04:00;CYYC 030400Z CCA 15002KT 15SM SCT180 BKN210 06/M02 A2959 RMK AC3CI2 VIRGA SLP062

CYYC;2009-03-03 05:00;CYYC 030500Z 16008KT 15SM FEW150 BKN210 03/M02 A2958 RMK AC1CI0 VIRGA SLP060

CYYC;2009-03-03 06:00;CYYC 030600Z 18008KT 15SM BKN210 04/M02 A2959 RMK CI6 SLP063

CYYC;2009-03-03 07:00;CYYC 030700Z 21006KT 15SM BKN150 04/M02 A2956 RMK AC6 SLP054

CYYC;2009-03-03 08:00;CYYC 030800Z 23002KT 15SM BKN150 03/M02 A2954 RMK AC6 SLP047

CYYC;2009-03-03 09:00;CYYC 030900Z 19005KT 15SM OVC060 03/M02 A2954 RMK SC8 VIRGA ALQDS SLP047

CYYC;2009-03-03 10:00;CYYC 031000Z 32009G15KT 15SM VCSH BKN040 OVC060 03/M02 A2955 RMK SC4SC4 SH SE SLP051

CYYC;2009-03-03 10:44;CYYC 031044Z 32002KT 8SM -RA BKN022 OVC040 04/ RMK SC4SC4 SH SE

CYYC;2009-03-03 11:00;CYYC 031100Z 32006KT 5SM -RA OVC015 03/M01 A2957 RMK SC8 SLP056

CYYC;2009-03-03 11:44;CYYC 031144Z 36012KT 3SM -RA OVC010 02/ RMK SC8

CYYC;2009-03-03 12:00;CYYC 031200Z CCA 36014KT 1SM -RASN OVC008 01/01 A2957 RMK SC8 SNOW COVER/MUCH LOOSE RVR RWY34 6000 FT SLP039

CYYC;2009-03-03 12:41;CYYC 031241Z 36010KT 3/4SM -SN OVC006 00/ RMK SC8 RVR RWY34 5500 FT

CYYC;2009-03-03 13:00;CYYC 031300Z 35010KT 1/2SM SN OVC004 00/00 A2958 RMK SC8 RVR RWY28 5500 FT /S02/ SLP041

CYYC;2009-03-03 14:00;CYYC 031400Z 35011KT 1 1/2SM -SN BKN010 OVC025 00/00 A2957 RMK SC6SC2 SLP039

CYYC;2009-03-03 14:49;CYYC 031449Z 32010KT 4SM -SN BKN008 OVC015 01/ RMK SC6SC2

CYYC;2009-03-03 15:00;CYYC 031500Z 32009KT 5SM -SN BKN005 BKN017 OVC034 01/01 A2958 RMK SC4SC2SC2 SLP053

CYYC;2009-03-03 15:36;CYYC 031536Z 31009KT 3SM -SN SCT005 BKN013 OVC029 01/ RMK SC3SC2SC2

CYYC;2009-03-03 16:00;CYYC 031600Z 30008KT 6SM -RA FEW007 BKN017 OVC043 01/01 A2960 RMK SC1SC4SC3 SLP057

CYYC;2009-03-03 17:00;CYYC 031700Z 31006KT 10SM -RA FEW007 BKN017 OVC037 02/01 A2961 RMK SC1SC4SC3 PCPN VRY LGT SLP060

CYYC;2009-03-03 18:00;CYYC 031800Z 29004KT 15SM FEW015 SCT037 BKN090 BKN150 03/01 A2960 RMK SC2SC2AC2AC1 SLP058

CYYC;2009-03-03 19:00;CYYC 031900Z 31007KT 30SM FEW012 SCT030 BKN055 03/00 A2962 RMK CU1SC3SC4 SLP062

CYYC;2009-03-03 20:00;CYYC 032000Z 30007KT 30SM FEW015 BKN072 BKN150 04/01 A2961 RMK CU1AC5AC1 SLP061

CYYC;2009-03-03 21:00;CYYC 032100Z 33008KT 30SM FEW015 SCT070 BKN150 04/01 A2962 RMK CU1AC2AC1 SH DIST SW SLP062

CYYC;2009-03-03 22:00;CYYC 032200Z 36006KT 30SM FEW020 FEW070 FEW250 05/01 A2961 RMK CU1AC1CI1 SLP061

CYYC;2009-03-03 23:00;CYYC 032300Z 01005KT 30SM FEW020 FEW100 FEW250 05/M01 A2961 RMK CU1AC1CI1 SCSL SLP060

CYYC;2009-03-04 00:00;CYYC 040000Z 05003KT 30SM FEW020 BKN030 BKN140 04/M00 A2962 RMK CU1SC5AC1 SLP067

CYYC;2009-03-04 01:00;CYYC 040100Z 14007KT 30SM FEW020 BKN027 BKN140 01/M00 A2964 RMK CU1SC5AC1 SLP071

CYYC;2009-03-04 02:00;CYYC 040200Z 13004KT 20SM FEW020 SCT030 BKN090 BKN180 02/M00 A2963 RMK SC1SC3AC1AC1 SLP068

CYYC;2009-03-04 03:00;CYYC 040300Z 11004KT 15SM SCT180 BKN210 01/M01 A2962 RMK AC3CI2 SLP072

CYYC;2009-03-04 04:00;CYYC 040400Z 16002KT 15SM FEW080 SCT160 BKN240 00/M01 A2963 RMK AC1AC2CI2 SLP073

CYYC;2009-03-04 05:00;CYYC 040500Z 03002KT 15SM BKN027 BKN150 00/M01 A2963 RMK SC6AC1 SLP075

CYYC;2009-03-04 06:00;CYYC 040600Z 05002KT 15SM FEW030 SCT190 BKN240 M01/M02 A2963 RMK SC1AC2CI2 SLP075

CYYC;2009-03-04 07:00;CYYC 040700Z 36004KT 15SM SCT120 OVC210 M02/M02 A2963 RMK AC3CI2 SLP073

CYYC;2009-03-04 08:00;CYYC 040800Z CCA 35003KT 15SM FEW120 FEW190 BKN240 M01/M02 A2962 RMK AC1AC2CI2 SLP072

CYYC;2009-03-04 09:00;CYYC 040900Z 36005KT 15SM SCT110 BKN240 M03/M03 A2962 RMK AC2CI1 SLP071

CYYC;2009-03-04 10:00;CYYC 041000Z 19002KT 7SM BKN110 OVC240 M03/M03 A2964 RMK AC5CI2 BR SLP076

CYYC;2009-03-04 11:00;CYYC 041100Z 00000KT 6SM BR SCT081 BKN230 M03/M04 A2961 RMK AC2CI2 SLP068

CYYC;2009-03-04 12:00;CYYC 041200Z 33002KT 6SM BR FEW090 SCT120 BKN230 M04/M04 A2961 RMK AC1AC2CI2 SNOW COVER/TRACE LOOSE SLP068

CYYC;2009-03-04 13:00;CYYC 041300Z 36004KT 7SM PRFG FEW080 SCT120 BKN240 M05/M05 A2961 RMK AC1AC2CI2 FG BNK S-W SLP068

CYYC;2009-03-04 14:00;CYYC 041400Z 23002KT 6SM BR FEW080 FEW120 SCT240 M05/M06 A2959 RMK AC1AC1CI1 SLP064

CYYC;2009-03-04 15:00;CYYC 041500Z 23008KT 40SM FEW030 FEW110 M04/M04 A2959 RMK SC1AC1 FROIN SLP067

CYYC;2009-03-04 16:00;CYYC 041600Z 19005KT 40SM FEW030 FEW140 FEW280 M01/M03 A2957 RMK SC1AC1CI1 SLP062

CYYC;2009-03-04 17:00;CYYC 041700Z 23005KT 40SM FEW030 FEW280 01/M02 A2956 RMK CU1CI1 SLP057

CYYC;2009-03-04 18:00;CYYC 041800Z 25002KT 40SM FEW030 FEW250 04/M01 A2954 RMK CU1CI1 SLP041

CYYC;2009-03-04 19:00;CYYC 041900Z 00000KT 40SM FEW030 FEW140 05/M02 A2951 RMK CU1AC1 SLP034

CYYC;2009-03-04 20:00;CYYC 042000Z 30007KT 40SM FEW040 FEW090 FEW290 06/M04 A2948 RMK CU1AC1CI1 SLP024

CYYC;2009-03-04 21:00;CYYC 042100Z 27012G21KT 40SM FEW040 FEW070 FEW270 07/M07 A2945 RMK CU1AC1CI1 SLP007

CYYC;2009-03-04 22:00;CYYC 042200Z 26018KT 40SM FEW040 FEW100 FEW290 07/M07 A2943 RMK CU1AC1CI1 SLP002

CYYC;2009-03-04 23:00;CYYC 042300Z 27017KT 40SM FEW040 FEW080 SCT270 07/M09 A2942 RMK CU1AC1CI1 SH DIST SW SLP999

CYYC;2009-03-05 00:00;CYYC 050000Z 27012G17KT 30SM FEW040 FEW080 BKN240 05/M08 A2942 RMK CU1AC1CI6 SH DIST SW SLP003

CYYC;2009-03-05 01:00;CYYC 050100Z 25008KT 40SM FEW040 FEW110 BKN190 04/M08 A2942 RMK SC1AC1AC6 SLP000

CYYC;2009-03-05 02:00;CYYC 050200Z 22004KT 20SM FEW110 BKN170 03/M08 A2942 RMK AC1AC6 SLP000

CYYC;2009-03-05 03:00;CYYC 050300Z 20007KT 15SM BKN090 BKN180 OVC240 03/M07 A2941 RMK AC5AC2CI1 SLP001

CYYC;2009-03-05 04:00;CYYC 050400Z 22007KT 15SM FEW100 SCT180 OVC210 02/M07 A2939 RMK AC2AC2CI3 SLP995

CYYC;2009-03-05 05:00;CYYC 050500Z 22008KT 15SM FEW098 BKN110 OVC210 02/M07 A2939 RMK AC1AC5CI2 SLP995

CYYC;2009-03-05 06:00;CYYC 050600Z 23006KT 15SM BKN100 OVC210 02/M07 A2939 RMK AC6CI2 SLP984

CYYC;2009-03-05 07:00;CYYC 050700Z 22005KT 15SM BKN100 OVC210 02/M07 A2939 RMK AC6CI2 SLP985

CYYC;2009-03-05 07:52;CYYC 050752Z 35029G39KT 15SM FEW020 SCT045 OVC067 M03/ RMK SC2SC2AC4 WSHFT AT 0747Z

CYYC;2009-03-05 08:00;CYYC 050800Z 35027G34KT 15SM FEW014 FEW025 BKN065 OVC078 M04/M06 A2946 RMK SF1SC2SC4AC2 SLP006

CYYC;2009-03-05 08:42;CYYC 050842Z 34022G32KT 3SM -SN FEW014 BKN019 OVC037 M06/ RMK SF1SC6SC2

CYYC;2009-03-05 09:00;CYYC 050900Z 34030G36KT 4SM -SN BKN022 OVC046 M07/M10 A2951 RMK SC6SC2 SLP036

CYYC;2009-03-05 10:00;CYYC 051000Z 34031G36KT 3SM -SN BKN017 OVC033 M08/M11 A2954 RMK SC5SC3 VIS S 2 SLP043

CYYC;2009-03-05 11:00;CYYC 051100Z 34029G34KT 1 1/4SM -SN BKN010 OVC021 M09/M11 A2956 RMK SC6SC2 SLP051

CYYC;2009-03-05 12:00;CYYC 051200Z 35026G35KT 2 1/2SM -SN DRSN FEW010 BKN018 OVC035 M10/M13 A2960 RMK SC2SC6SC1 SNOW COVER/MUCH LOOSE SLP072

CYYC;2009-03-05 13:00;CYYC 051300Z 34034G40KT 8SM -SN DRSN BKN036 OVC057 M11/M15 A2964 RMK SC6SC2 SLP083

CYYC;2009-03-05 14:00;CYYC 051400Z 35033G38KT 11SM -SN DRSN FEW015 OVC061 M12/M16 A2967 RMK SF1SC8 SLP093

CYYC;2009-03-05 15:00;CYYC 051500Z 34029KT 30SM -SN FEW015 OVC057 M12/M16 A2970 RMK SF1SC8 SLP115

CYYC;2009-03-05 16:00;CYYC 051600Z 35026G32KT 4SM -SN DRSN FEW015 SCT025 BKN040 OVC060 M13/M16 A2973 RMK SF1SC3SC2SC2 SLP124

CYYC;2009-03-05 17:00;CYYC 051700Z 35028G34KT 5SM -SN DRSN FEW016 BKN025 OVC057 M13/M16 A2976 RMK SC2SC3SC3 SLP134

CYYC;2009-03-05 17:44;CYYC 051744Z 35023G29KT 10SM FEW015 SCT025 OVC067 M13/ RMK SC2SC2AC3

CYYC;2009-03-05 18:00;CYYC 051800Z 36023G28KT 10SM FEW015 SCT025 OVC067 M12/M16 A2980 RMK SC2SC2AC4 SLP151

CYYC;2009-03-05 18:30;CYYC 051830Z 36024KT 6SM -SN FEW028 SCT040 OVC067 M13/ RMK SC2SC2AC4

CYYC;2009-03-05 19:00;CYYC 051900Z 35022KT 5SM -SN FEW025 BKN040 OVC050 M13/M17 A2982 RMK SF2SC3SC2 SLP155

CYYC;2009-03-05 20:00;CYYC 052000Z 36019G25KT 5SM -SN FEW015 BKN040 BKN180 M13/M17 A2983 RMK SC2SC3AC1 SLP160

CYYC;2009-03-05 21:00;CYYC 052100Z 36016G22KT 5SM -SN FEW016 BKN025 BKN070 M13/M16 A2985 RMK SC2SC2AC1 SLP182

CYYC;2009-03-05 21:40;CYYC 052140Z 36017G22KT 2 1/2SM -SN DRSN BKN010 OVC021 M14/ RMK SC5SC3

CYYC;2009-03-05 21:47;CYYC 052147Z 35019G25KT 1SM -SN BLSN BKN007 OVC020 M14/ RMK SC5SC3

CYYC;2009-03-05 22:00;CYYC 052200Z 34020G25KT 3/4SM -SN BLSN BKN009 OVC025 M14/M16 A2986 RMK SC6SC2 SLP185

CYYC;2009-03-05 22:18;CYYC 052218Z 35022KT 3SM -SN BLSN BKN017 OVC030 M14/ RMK SC5SC3

CYYC;2009-03-05 23:00;CYYC 052300Z 36021KT 6SM -SN DRSN BKN022 OVC030 M13/M17 A2986 REBLSN RMK SC5SC3 SLP187

CYYC;2009-03-05 23:36;CYYC 052336Z 36020KT 10SM FEW020 BKN040 OVC070 M13/ RMK SF1SC5AC3

CYYC;2009-03-06 00:00;CYYC 060000Z 36020KT 15SM FEW030 SCT040 BKN050 OVC070 M13/M17 A2987 RMK SF1SC3SC3AC1 SF TR SLP195

CYYC;2009-03-06 01:00;CYYC 060100Z 35017KT 15SM SCT050 OVC060 M13/M17 A2991 RMK SC3SC4 SLP205

CYYC;2009-03-06 02:00;CYYC 060200Z 36012KT 15SM FEW060 SCT070 M14/M18 A2993 RMK SC2AC2 SLP213

CYYC;2009-03-06 03:00;CYYC 060300Z CCA 35007KT 15SM FEW080 FEW190 SCT250 M14/M18 A2996 RMK AC1AC1CI0 LWR AC TR SLP229

CYYC;2009-03-06 04:00;CYYC 060400Z 34006KT 15SM FEW190 FEW250 M15/M19 A2997 RMK AC1CI0 SLP233

CYYC;2009-03-06 05:00;CYYC 060500Z 33007KT 15SM FEW150 FEW250 M15/M19 A2998 RMK AC1CI0 SLP237

CYYC;2009-03-06 06:00;CYYC 060600Z 34005KT 15SM FEW130 SCT250 M15/M19 A2999 RMK AC2CI0 SLP243

CYYC;2009-03-06 07:00;CYYC 060700Z 30005KT 15SM FEW130 FEW250 M16/M20 A2999 RMK AC1CI0 SLP243

CYYC;2009-03-06 08:00;CYYC 060800Z 25002KT 15SM FEW130 SCT250 M16/M19 A2998 RMK AC1CI1 SLP240

CYYC;2009-03-06 09:00;CYYC 060900Z 04002KT 15SM FEW190 FEW250 M16/M19 A2997 RMK AC1CI0 SLP239

CYYC;2009-03-06 10:00;CYYC 061000Z 00000KT 15SM FEW190 FEW250 M17/M19 A2997 RMK AC1CI1 AC TR SLP237

CYYC;2009-03-06 11:00;CYYC 061100Z 16003KT 15SM FEW240 M18/M20 A2995 RMK CI1 CI TR SLP231

CYYC;2009-03-06 12:00;CYYC 061200Z 18006KT 15SM FEW240 M18/M19 A2994 RMK CI1 CI TR/ SNOW COVER/HARD PACK SLP229

CYYC;2009-03-06 13:00;CYYC 061300Z 19004KT 15SM FEW240 M18/M19 A2993 RMK CI1 CI TR SLP227

CYYC;2009-03-06 14:00;CYYC 061400Z 19005KT 40SM SKC M18/M20 A2992 RMK SLP224

CYYC;2009-03-06 15:00;CYYC 061500Z 21005KT 40SM FEW250 M18/M19 A2992 RMK CI0 SLP225

CYYC;2009-03-06 16:00;CYYC 061600Z 18008KT 40SM FEW170 FEW250 M16/M18 A2991 RMK AC1CI1 AC+CI TR SLP223

CYYC;2009-03-06 17:00;CYYC 061700Z 20009KT 40SM FEW250 M13/M17 A2991 RMK CI1 SLP221

CYYC;2009-03-06 18:00;CYYC 061800Z 18009KT 40SM FEW250 M11/M17 A2988 RMK CI1 SLP204

CYYC;2009-03-06 19:00;CYYC 061900Z 17009KT 40SM FEW250 M10/M17 A2986 RMK CI1 SLP196

CYYC;2009-03-06 20:00;CYYC 062000Z 19011KT 40SM FEW210 M08/M16 A2983 RMK CI1 SLP188

CYYC;2009-03-06 21:00;CYYC 062100Z 19013KT 40SM SCT210 M08/M15 A2980 RMK CI0 SLP170

CYYC;2009-03-06 22:00;CYYC 062200Z 16010KT 40SM SCT240 M06/M14 A2977 RMK CI0 SLP161

CYYC;2009-03-06 23:00;CYYC 062300Z 16009KT 40SM SCT240 M05/M14 A2975 RMK CI0 SLP154

CYYC;2009-03-07 00:00;CYYC 070000Z 18011KT 40SM FEW210 M05/M12 A2973 RMK CI0 SLP142

CYYC;2009-03-07 01:00;CYYC 070100Z 17011KT 40SM FEW180 SCT210 M06/M13 A2971 RMK AC2CI0 SLP137

CYYC;2009-03-07 02:00;CYYC 070200Z 18007KT 20SM FEW180 FEW210 M08/M12 A2969 RMK AC1CI0 SLP132

CYYC;2009-03-07 03:00;CYYC 070300Z 19008KT 15SM SCT160 BKN250 M07/M12 A2966 RMK AC2CI1 SLP124

CYYC;2009-03-07 04:00;CYYC 070400Z 19004KT 15SM SCT150 BKN250 M08/M12 A2963 RMK AC2CI2 SLP113

CYYC;2009-03-07 05:00;CYYC 070500Z 19006KT 15SM SKC M08/M12 A2959 RMK SLP103

CYYC;2009-03-07 06:00;CYYC 070600Z 20006KT 15SM SKC M08/M11 A2956 RMK SLP078

CYYC;2009-03-07 07:00;CYYC 070700Z 20006KT 15SM SKC M08/M12 A2953 RMK SLP069

CYYC;2009-03-07 08:00;CYYC 070800Z 22007KT 15SM SKC M06/M11 A2949 RMK SLP057

CYYC;2009-03-07 09:00;CYYC 070900Z 22004KT 15SM FEW160 BKN210 M07/M11 A2946 RMK AC1CI2 SLP040

CYYC;2009-03-07 10:00;CYYC 071000Z 24010G15KT 15SM FEW160 BKN210 M03/M11 A2943 RMK AC2CI3 SLP029

CYYC;2009-03-07 11:00;CYYC 071100Z 27004KT 15SM SCT190 OVC210 M01/M11 A2939 RMK AC3CI3 SLP017

CYYC;2009-03-07 12:00;CYYC 071200Z 26020G28KT 15SM SCT180 OVC220 01/M11 A2935 RMK AC3CI4 SNOW COVER/HARD PACK SLP983

CYYC;2009-03-07 13:00;CYYC 071300Z 24015G20KT 15SM BKN100 OVC220 02/M11 A2932 RMK AC5CI3 SLP975

CYYC;2009-03-07 14:00;CYYC 071400Z 29013KT 40SM FEW100 OVC220 01/M10 A2935 RMK AC2CI6 SLP984

CYYC;2009-03-07 15:00;CYYC 071500Z 27019G28KT 40SM SCT110 BKN220 02/M11 A2937 RMK AC3CI2 SLP993

CYYC;2009-03-07 16:00;CYYC 071600Z 27016KT 40SM FEW030 SCT220 02/M11 A2939 RMK SC2CI1 SLP001

CYYC;2009-03-07 17:00;CYYC 071700Z 28017KT 40SM FEW040 FEW100 02/M11 A2941 RMK SC1AC2 SLP006

CYYC;2009-03-07 18:00;CYYC 071800Z 27017G24KT 40SM FEW040 FEW100 03/M13 A2941 RMK SC1AC1 SLP008

CYYC;2009-03-07 19:00;CYYC 071900Z CCA 28016G22KT 40SM FEW040 FEW110 03/M14 A2942 RMK SC1AC1 AC TR SLP011

CYYC;2009-03-07 20:00;CYYC 072000Z CCA 27019G25KT 40SM FEW050 FEW110 FEW210 03/M16 A2943 RMK SC1AC1CI1 DIST SH SW-W/ AC+CI TR SLP013

CYYC;2009-03-07 21:00;CYYC 072100Z 25013KT 40SM FEW050 FEW110 04/M13 A2942 RMK SC2AC1 DIST SH SW-W SLP007

CYYC;2009-03-07 22:00;CYYC 072200Z 25014KT 40SM FEW060 04/M16 A2942 RMK SC2 SLP008

CYYC;2009-03-07 23:00;CYYC 072300Z 25011KT 40SM SCT140 BKN220 02/M13 A2943 RMK AS3CI1 DIST SH SW SLP010

CYYC;2009-03-08 00:00;CYYC 080000Z CCA 11012KT 30SM FEW120 BKN150 BKN210 M01/M06 A2945 RMK AS2AS2CI2 DIST SH S-SW-W SLP015

CYYC;2009-03-08 01:00;CYYC 080100Z 15009KT 30SM BKN070 OVC120 M02/M06 A2947 RMK AS5AS2 SLP020

CYYC;2009-03-08 02:00;CYYC 080200Z 01004KT 15SM BKN075 OVC090 M02/M05 A2947 RMK AS5AS2 SLP022

CYYC;2009-03-08 03:00;CYYC 080300Z 05006KT 15SM FEW015 BKN020 OVC038 M03/M05 A2949 RMK SC1SC4SC3 SLP031

CYYC;2009-03-08 03:53;CYYC 080353Z 34030G37KT 1/2SM SN FEW002 BKN012 OVC020 M05/ RMK SF1SC5SC2 WSHFT 0343 RVR RWY 34 1200FT

CYYC;2009-03-08 04:00;CYYC 080400Z CCB 36023G37KT 1/8SM +SN FZFG OVC005 M06/M07 A2955 RMK SN6SC2 RVR RWY34 700FT PRESRR SLP048

CYYC;2009-03-08 05:00;CYYC 080500Z 01012KT 1/8SM +SN FZFG OVC009 M07/M07 A2959 RMK SN6SC2 /S07/ SLP061

CYYC;2009-03-08 06:00;CYYC 080600Z CCA 02013KT 3/4SM -SN BR BKN006 OVC022 M07/M07 A2962 RMK SN2SC5SC2 RVR RWY34 4000FT /S09/ SLP079

CYYC;2009-03-08 06:22;CYYC 080622Z 02029G38KT 1/8SM -SN +BLSN FZFG OVC011 M09/ RMK SN6SC2 RVR RWY34 900FT

CYYC;2009-03-08 07:00;CYYC 080700Z 02023G32KT 1/8SM -SN +BLSN FZFG OVC006 M11/M12 A2966 RMK SN6SC2 RVR RWY34 1800FT SLP092

CYYC;2009-03-08 08:00;CYYC 080800Z CCA 36026G32KT 1/4SM -SN +BLSN FZFG OVC044 M13/M14 A2971 RMK SN6SC2 RVR RWY34 1600FT SLP108

CYYC;2009-03-08 09:00;CYYC 080900Z CCA 36027KT 1/4SM -SN +BLSN FZFG OVC039 M14/M15 A2976 RMK SN6SC2 RVR RWY34 3500FT SLP138

CYYC;2009-03-08 09:34;CYYC 080934Z CCA 35027KT 5/8SM -SN BLSN BR OVC036 M15/ RMK SN6SC2 RVR RWY34 4000FT

CYYC;2009-03-08 10:00;CYYC 081000Z 35019G25KT 1SM -SN BLSN BR BKN022 OVC036 M15/M16 A2981 RMK SN2SC5SC2 RVR RWY34 6000FT SLP151

CYYC;2009-03-08 10:50;CYYC 081050Z 34018G24KT 5SM -SN BLSN BR FEW022 SCT036 OVC049 M15/ RMK SC2SC2SC4

CYYC;2009-03-08 11:00;CYYC 081100Z CCA 34020G27KT 10SM -SN FEW022 SCT035 OVC042 M16/M18 A2984 REBLSN RMK SC2SC2SC4 SLP160

CYYC;2009-03-08 11:48;CYYC 081148Z 34019G28KT 15SM SCT042 BKN073 M16/ RMK SC4AC3

CYYC;2009-03-08 12:00;CYYC 081200Z 34018G25KT 15SM SCT042 BKN073 M16/M19 A2986 RMK SC3AC3 SNOW COVER/MUCH LOOSE SLP184

CYYC;2009-03-08 13:00;CYYC 081300Z 34019G24KT 15SM BKN055 M17/M21 A2989 RMK SC6 SLP192

CYYC;2009-03-08 14:00;CYYC 081400Z 34011KT 30SM FEW055 FEW150 FEW250 M17/M23 A2992 RMK SC1AC1CI0 SLP201

CYYC;2009-03-08 15:00;CYYC 081500Z 34011KT 25SM FEW040 FEW058 FEW150 OVC250 M17/M22 A2994 RMK SC1SC1AC1CI0 SLP214

CYYC;2009-03-08 16:00;CYYC 081600Z 34010KT 25SM FEW025 SCT040 SCT062 OVC250 M16/M21 A2998 RMK SC1SC2SC1CI0 SLP225

CYYC;2009-03-08 17:00;CYYC 081700Z 35015KT 30SM FEW025 BKN062 BKN150 OVC210 M16/M22 A3000 RMK SC1SC3AC0CI0 SLP231

CYYC;2009-03-08 18:00;CYYC 081800Z 36019KT 30SM FEW062 BKN100 OVC220 M16/M22 A3001 RMK SC2AC0CI0 SLP242

CYYC;2009-03-08 19:00;CYYC 081900Z 36015KT 10SM BKN015 OVC070 M15/M21 A3002 RMK SC5AC2 SLP245

CYYC;2009-03-08 19:23;CYYC 081923Z 35014KT 10SM -SN SCT015 BKN020 OVC070 M15/ RMK SC3SC2AC1 PCPN VRY LGT

CYYC;2009-03-08 20:00;CYYC 082000Z 36015KT 12SM -SN FEW015 OVC020 M15/M21 A3003 RMK SC2SC5 PCPN VRY LGT/INTMT SLP248

CYYC;2009-03-08 20:34;CYYC 082034Z 01016KT 25SM BKN012 OVC050 M15/ RMK SC5SC3

CYYC;2009-03-08 21:00;CYYC 082100Z 36016KT 25SM FEW016 SCT020 OVC050 M16/M21 A3003 RMK SC2SC2SC4 SLP258

CYYC;2009-03-08 22:00;CYYC 082200Z 01016KT 30SM FEW012 SCT040 BKN060 OVC230 M16/M22 A3004 RMK SC2SC2SC1CI0 SLP261

CYYC;2009-03-08 22:54;CYYC 082254Z 02017KT 6SM -SN OVC014 M16/ RMK SC8

CYYC;2009-03-08 23:00;CYYC 082300Z 02016KT 6SM -SN BLSN OVC014 M16/M21 A3006 RMK SC8 SLP268

CYYC;2009-03-08 23:43;CYYC 082343Z 36017KT 12SM SCT017 OVC022 M17/ RMK SC3SC2

CYYC;2009-03-09 00:00;CYYC 090000Z 02015G20KT 30SM FEW018 OVC025 M17/M23 A3008 RMK SC2SC3 SLP281

CYYC;2009-03-09 00:14;CYYC 090014Z 01016KT 30SM -SN FEW020 OVC030 M17/ RMK SC2SC4

CYYC;2009-03-09 00:45;CYYC 090045Z 01016KT 30SM OVC024 M17/ RMK SC7

CYYC;2009-03-09 01:00;CYYC 090100Z 36015KT 30SM FEW022 SCT024 OVC040 M17/M23 A3010 RMK SC1SC2SC4 SLP287

CYYC;2009-03-09 02:00;CYYC 090200Z 03008KT 15SM BKN060 OVC230 M19/M22 A3013 RMK SC4CI0 SLP296

CYYC;2009-03-09 03:00;CYYC 090300Z 02006KT 15SM FEW060 SCT120 BKN220 M19/M23 A3014 RMK SC2AC2CI1 SLP307

CYYC;2009-03-09 04:00;CYYC 090400Z 00000KT 8SM FEW018 SCT060 BKN120 M20/M24 A3016 RMK SC2SC2AC1 SLP314

CYYC;2009-03-09 05:00;CYYC 090500Z 04007KT 6SM -SN FEW018 SCT040 BKN100 M20/M24 A3018 RMK SC2SC2AC0 SLP318

CYYC;2009-03-09 06:00;CYYC 090600Z 36003KT 8SM -SN FEW030 SCT080 OVC250 M21/M25 A3019 RMK SC1AC2CI0 SLP324

CYYC;2009-03-09 06:42;CYYC 090642Z 34005KT 15SM FEW030 SCT070 OVC250 M21/ RMK SC1AC3CI0

CYYC;2009-03-09 07:00;CYYC 090700Z 34006KT 15SM BKN060 OVC250 M21/M26 A3019 RMK SC3CI0 SLP326

CYYC;2009-03-09 08:00;CYYC 090800Z 33006KT 15SM SCT030 BKN120 M21/M26 A3019 RMK SC2AC2 SLP326

CYYC;2009-03-09 09:00;CYYC 090900Z 35006KT 8SM FEW040 SCT070 BKN120 M22/M27 A3019 RMK SC1AC2AC1 SLP329

CYYC;2009-03-09 10:00;CYYC 091000Z 02008KT 8SM FEW040 FEW070 BKN120 M24/M28 A3019 RMK SC1AC1AC1 SC TR SLP329

CYYC;2009-03-09 11:00;CYYC 091100Z 04005KT 8SM FEW040 FEW070 SCT120 M24/M29 A3019 RMK SC1AC1AC1 SC TR SLP329

CYYC;2009-03-09 12:00;CYYC 091200Z CCA 36003KT 8SM SCT048 BKN070 OVC100 M25/M29 A3019 RMK SC2AC2AC2 SNOW COVER/MUCH LOOSE SLP334

CYYC;2009-03-09 12:34;CYYC 091234Z 04003KT 1 1/2SM -SN BKN020 BKN040 OVC070 M24/ RMK CF3SC3AC1

CYYC;2009-03-09 13:00;CYYC 091300Z 05002KT 3SM -SN SCT015 OVC040 M24/M28 A3020 RMK CF2SC6 SLP336

CYYC;2009-03-09 14:00;CYYC 091400Z 05006KT 3SM -SN BKN018 OVC038 M24/M28 A3020 RMK SC6SC2 SLP337

CYYC;2009-03-09 15:00;CYYC 091500Z 05007KT 4SM -SN BKN030 OVC047 M25/M29 A3021 RMK SC6SC2 SLP343

CYYC;2009-03-09 16:00;CYYC 091600Z 07005KT 3SM -SN BKN026 OVC040 M24/M29 A3021 RMK SC6SC2 SLP344

CYYC;2009-03-09 17:00;CYYC 091700Z 08004KT 2SM -SN SCT009 OVC019 M24/M29 A3022 RMK SC4SC4 SLP345

CYYC;2009-03-09 17:49;CYYC 091749Z 06003KT 2SM -SN BKN009 OVC019 M24/ RMK SC6SC2

CYYC;2009-03-09 18:00;CYYC 091800Z 07005KT 1 1/2SM -SN BKN009 OVC026 M23/M28 A3021 RMK SC6SC2 VIS S 11/4 SLP345

CYYC;2009-03-09 18:52;CYYC 091852Z 06005KT 3SM -SN BKN013 OVC024 M23/ RMK SC6SC2

CYYC;2009-03-09 19:00;CYYC 091900Z 05005KT 3SM -SN BKN010 OVC019 M23/M28 A3020 RMK SC6SC2 SLP342

CYYC;2009-03-09 20:00;CYYC 092000Z 06006KT 3SM -SN BKN010 OVC024 M23/M28 A3019 RMK SC6SC2 SLP339

CYYC;2009-03-09 21:00;CYYC 092100Z 09008KT 4SM -SN FEW014 BKN025 OVC040 M23/M28 A3018 RMK SC1SC6SC2 SLP335

CYYC;2009-03-09 22:00;CYYC 092200Z 10007KT 5SM -SN SCT028 OVC038 M23/M28 A3017 RMK SC3SC5 SLP331

CYYC;2009-03-09 23:00;CYYC 092300Z 09009KT 7SM -SN FEW030 BKN038 OVC210 M23/M28 A3017 RMK SC1SC5CI2 SLP332

CYYC;2009-03-10 00:00;CYYC 100000Z 10008KT 7SM -SN FEW014 SCT038 BKN180 OVC210 M23/M28 A3017 RMK SC1SC2AC2CI0 /S01/ SLP336

CYYC;2009-03-10 01:00;CYYC 100100Z 08008KT 9SM -SN FEW020 SCT033 BKN140 BKN210 M24/M29 A3018 RMK SC1SC2AC2CI1 SLP339

CYYC;2009-03-10 02:00;CYYC 100200Z 09008KT 5SM -SN FEW018 SCT030 BKN160 M25/M28 A3019 RMK SF2SC2AC1 SLP342

CYYC;2009-03-10 03:00;CYYC 100300Z 08005KT 3SM -SN FEW015 SCT025 BKN160 M25/M29 A3021 RMK SF1SC3AC2 SLP352

CYYC;2009-03-10 04:00;CYYC 100400Z 10006KT 4SM -SN FEW015 SCT060 BKN160 M25/M29 A3021 RMK SF1SC2AC1 SLP353

CYYC;2009-03-10 05:00;CYYC 100500Z 10004KT 2 1/2SM -SN SCT010 OVC025 M25/M29 A3021 RMK SC3SC4 SLP353

CYYC;2009-03-10 06:00;CYYC 100600Z 11003KT 1 1/2SM -SN SCT010 OVC025 M25/M29 A3021 RMK SC3SC4 SLP349

CYYC;2009-03-10 07:00;CYYC 100700Z 09003KT 1 1/2SM -SN SCT012 OVC030 M25/M29 A3021 RMK SC3SC4 SLP350

CYYC;2009-03-10 08:00;CYYC 100800Z 07003KT 1 1/2SM -SN BKN014 OVC030 M25/M29 A3021 RMK SC4SC3 SLP349

CYYC;2009-03-10 09:00;CYYC 100900Z 04004KT 1 1/2SM -SN BKN014 OVC032 M25/M29 A3021 RMK SC5SC2 SLP351

CYYC;2009-03-10 10:00;CYYC 101000Z 05003KT 1 1/2SM -SN BKN023 OVC042 M25/M30 A3020 RMK SC5SC2 SLP348

CYYC;2009-03-10 11:00;CYYC 101100Z 00000KT 1 1/2SM -SN BKN014 OVC026 M25/M30 A3020 RMK SC5SC2 SLP348

CYYC;2009-03-10 12:00;CYYC 101200Z 13002KT 1 1/2SM -SN BKN014 OVC026 M25/M29 A3021 RMK SC5SC2 SNOW COVER /MUCH LOOSE SLP351

CYYC;2009-03-10 12:30;CYYC 101230Z 00000KT 3SM -SN BKN014 OVC045 M25/ RMK SC3SC4

CYYC;2009-03-10 13:00;CYYC 101300Z 11002KT 3SM -SN BKN012 OVC030 M25/M29 A3022 RMK SC4SC4 SLP353

CYYC;2009-03-10 13:24;CYYC 101324Z 09002KT 1 1/2SM -SN BKN020 OVC040 M25/ RMK SC6SC2

CYYC;2009-03-10 14:00;CYYC 101400Z 08003KT 2 1/4SM -SN FEW014 SCT020 OVC038 M25/M30 A3023 RMK SC1SC4SC4 SLP358

CYYC;2009-03-10 14:45;CYYC 101445Z 06002KT 5SM -SN FEW015 SCT040 BKN210 M26/ RMK SC1SC1CI0

CYYC;2009-03-10 15:00;CYYC 101500Z 06002KT 5SM -SN FEW010 SCT030 SCT040 M25/M29 A3024 RMK SC1SC1SC0 SLP363

CYYC;2009-03-10 16:00;CYYC 101600Z 06002KT 5SM -SN FEW010 FEW027 FEW038 M24/M29 A3024 RMK SC1SC1SC1 HVYR SH SE-SW SLP365

CYYC;2009-03-10 17:00;CYYC 101700Z 04002KT 8SM -SN FEW010 FEW030 M24/M30 A3025 RMK SC1SC1 HVYR SH SE-W SLP366

CYYC;2009-03-10 17:36;CYYC 101736Z CCA 05002KT 10SM FEW010 FEW030 M24/ RMK SC1SC1 SH SE-SW / VIS SE-SW 4

CYYC;2009-03-10 18:00;CYYC 101800Z 00000KT 10SM FEW010 FEW030 M24/M30 A3025 RMK SC1SC1 SH SE-SW SLP363

CYYC;2009-03-10 19:00;CYYC 101900Z 07003KT 10SM VCSH FEW016 M23/M29 A3024 RMK SC1 SH SE-SW / VIS SE-SW 3 SLP362

CYYC;2009-03-10 20:00;CYYC 102000Z 05002KT 6SM -SN SCT016 BKN020 M22/M28 A3024 RMK SC3SC1 SLP361

CYYC;2009-03-10 21:00;CYYC 102100Z 14008KT 10SM -SN FEW011 BKN020 M22/M28 A3022 RMK SC1SC3 PCPN VRY LGT SLP351

CYYC;2009-03-10 22:00;CYYC 102200Z 15010KT 20SM FEW015 FEW025 M22/M29 A3021 RMK SC1SC1 SLP350

CYYC;2009-03-10 23:00;CYYC 102300Z 15010KT 30SM FEW020 M22/M28 A3021 RMK SC1 SLP348

CYYC;2009-03-11 00:00;CYYC 110000Z 17014KT 30SM DRSN FEW020 M22/M28 A3019 RMK SC1 SLP343

CYYC;2009-03-11 01:00;CYYC 110100Z 17010KT 40SM FEW030 M22/M28 A3018 RMK SC1 SLP340

CYYC;2009-03-11 02:00;CYYC 110200Z 18008KT 30SM SKC M23/M30 A3018 RMK SLP340

CYYC;2009-03-11 03:00;CYYC 110300Z 19010KT 15SM SKC M23/M30 A3018 RMK SLP340

CYYC;2009-03-11 04:00;CYYC 110400Z 19012KT 15SM SKC M24/M30 A3016 RMK SLP336

CYYC;2009-03-11 05:00;CYYC 110500Z 21010KT 15SM SKC M24/M29 A3016 RMK SLP334

CYYC;2009-03-11 06:00;CYYC 110600Z 21006KT 15SM SKC M24/M29 A3015 RMK SLP328

CYYC;2009-03-11 07:00;CYYC 110700Z 22007KT 15SM SKC M23/M29 A3014 RMK SLP326

CYYC;2009-03-11 08:00;CYYC 110800Z 19007KT 15SM SKC M25/M29 A3013 RMK SLP323

CYYC;2009-03-11 09:00;CYYC 110900Z 20006KT 15SM SKC M26/M30 A3011 RMK SLP315

CYYC;2009-03-11 10:00;CYYC 111000Z 22004KT 15SM FEW180 M25/M29 A3011 RMK AC1 SLP314

CYYC;2009-03-11 11:00;CYYC 111100Z 18003KT 15SM FEW180 FEW240 M26/M30 A3011 RMK AC1CI0 AC TR SLP313

CYYC;2009-03-11 12:00;CYYC 111200Z 22002KT 15SM FEW240 M25/M29 A3011 RMK CI1 SNOW COVER/MUCH LOOSE SLP315

CYYC;2009-03-11 13:00;CYYC 111300Z 00000KT 15SM FEW240 M26/M29 A3012 RMK CI1 SLP317

CYYC;2009-03-11 14:00;CYYC 111400Z 27003KT 40SM BKN200 M17/M25 A3012 RMK CI0 FROIN SLP317

CYYC;2009-03-11 15:00;CYYC 111500Z 02002KT 40SM FEW130 BKN190 M19/M28 A3012 RMK AC2AC0 SLP310

CYYC;2009-03-11 16:00;CYYC 111600Z 01005KT 40SM FEW120 FEW190 M17/M24 A3013 RMK AC1AC0 SLP313

CYYC;2009-03-11 17:00;CYYC 111700Z 00000KT 40SM FEW140 M14/M23 A3014 RMK AC1 SLP318

CYYC;2009-03-11 18:00;CYYC 111800Z 04002KT 40SM FEW180 M13/M20 A3015 RMK AC1 SLP313

CYYC;2009-03-11 19:00;CYYC 111900Z 06004KT 40SM SKC M11/M23 A3016 RMK SLP314

CYYC;2009-03-11 20:00;CYYC 112000Z 07005KT 40SM FEW180 M11/M24 A3015 RMK AC1 SLP313

CYYC;2009-03-11 21:00;CYYC 112100Z 14007KT 40SM FEW290 M10/M23 A3013 RMK CI1 SLP303

CYYC;2009-03-11 22:00;CYYC 112200Z 16010KT 40SM SKC M10/M25 A3012 RMK SLP300

CYYC;2009-03-11 23:00;CYYC 112300Z 16010KT 40SM SKC M11/M24 A3010 RMK SLP295

CYYC;2009-03-12 00:00;CYYC 120000Z 16009KT 40SM FEW140 M11/M23 A3009 RMK AC1 SLP291

CYYC;2009-03-12 01:00;CYYC 120100Z 18009KT 40SM FEW160 M11/M21 A3008 RMK AC1 SLP288

CYYC;2009-03-12 02:00;CYYC 120200Z 16006KT 15SM FEW230 M13/M21 A3008 RMK CI0 SLP287

CYYC;2009-03-12 03:00;CYYC 120300Z 18006KT 15SM FEW230 M14/M20 A3008 RMK CI1 CI TR SLP284

CYYC;2009-03-12 04:00;CYYC 120400Z 20007KT 15SM FEW210 M14/M20 A3008 RMK CI1 SLP284

CYYC;2009-03-12 05:00;CYYC 120500Z 21003KT 15SM BKN210 M15/M20 A3009 RMK CI2 SLP287

CYYC;2009-03-12 06:00;CYYC 120600Z 00000KT 15SM FEW220 M16/M20 A3009 RMK CI1 CI TR SLP280

CYYC;2009-03-12 07:00;CYYC 120700Z 20004KT 15SM SCT150 BKN220 M15/M20 A3010 RMK AC2CI2 SLP282

CYYC;2009-03-12 08:00;CYYC 120800Z 20003KT 15SM FEW150 BKN210 M15/M19 A3010 RMK AC2CI2 SLP283

CYYC;2009-03-12 09:00;CYYC 120900Z 18004KT 15SM FEW150 BKN210 M15/M20 A3010 RMK AC1CI2 SLP276

CYYC;2009-03-12 10:00;CYYC 121000Z 29004KT 15SM FEW150 FEW210 M09/M17 A3010 RMK AC1CI0 AC TR SLP275

CYYC;2009-03-12 11:00;CYYC 121100Z 22005KT 15SM FEW210 M10/M17 A3008 RMK CI0 SLP271

CYYC;2009-03-12 12:00;CYYC 121200Z 00000KT 15SM FEW210 M14/M19 A3008 RMK CI0 SNOW COVER/MEDIUM PACK SLP271

CYYC;2009-03-12 13:00;CYYC 121300Z 20002KT 15SM FEW230 M13/M19 A3008 RMK CI0 SLP270

CYYC;2009-03-12 14:00;CYYC 121400Z 19007KT 40SM FEW100 FEW160 FEW230 M13/M18 A3008 RMK AC1AC1CI1 SLP269

CYYC;2009-03-12 15:00;CYYC 121500Z 18002KT 40SM BKN220 M10/M16 A3008 RMK CI0 SLP267

CYYC;2009-03-12 16:00;CYYC 121600Z 22003KT 40SM FEW040 FEW070 FEW180 FEW220 M06/M16 A3007 RMK SC1AC1AC1CI0 SLP266

CYYC;2009-03-12 17:00;CYYC 121700Z 15002KT 40SM FEW040 FEW220 FEW250 M01/M12 A3007 RMK SC1CI1CI1 SLP265

CYYC;2009-03-12 18:00;CYYC 121800Z 20004KT 40SM FEW040 FEW100 FEW240 00/M11 A3007 RMK SC1AC1CI1 SLP253

CYYC;2009-03-12 19:00;CYYC 121900Z 19004KT 40SM FEW040 FEW240 02/M09 A3007 RMK SC1CI0 SLP253

CYYC;2009-03-12 20:00;CYYC 122000Z 27009KT 40SM FEW040 FEW250 04/M08 A3006 RMK SC1CI0 SLP248

CYYC;2009-03-12 21:00;CYYC 122100Z 26010KT 40SM FEW040 FEW250 05/M08 A3004 RMK SC1CI0 SLP234

CYYC;2009-03-12 22:00;CYYC 122200Z 00000KT 40SM FEW040 FEW250 06/M08 A3002 RMK SC1CI0 SLP227

CYYC;2009-03-12 23:00;CYYC 122300Z 18007KT 40SM FEW040 FEW250 04/M06 A3000 RMK SC1CI0 SLP223

CYYC;2009-03-13 00:00;CYYC 130000Z 19010KT 40SM FEW040 FEW250 04/M07 A2999 RMK SC1CI1 SLP216

CYYC;2009-03-13 01:00;CYYC 130100Z 18008KT 40SM FEW040 FEW250 03/M06 A2998 RMK SC1CI1 SLP211

CYYC;2009-03-13 02:00;CYYC 130200Z 26015KT 20SM FEW250 04/M07 A2996 RMK CI0 SLP206

CYYC;2009-03-13 03:00;CYYC 130300Z 27015G21KT 15SM FEW250 03/M08 A2996 RMK CI0 SLP200

CYYC;2009-03-13 04:00;CYYC 130400Z 27015KT 15SM FEW250 03/M08 A2996 RMK CI0 SLP202

CYYC;2009-03-13 05:00;CYYC 130500Z CCA 27018G23KT 15SM FEW250 03/M08 A2997 RMK CI0 SLP203

CYYC;2009-03-13 06:00;CYYC 130600Z 25016KT 15SM FEW250 03/M08 A2997 RMK CI0 SLP191

CYYC;2009-03-13 07:00;CYYC 130700Z 28018G25KT 15SM FEW240 03/M08 A2995 RMK CI1 SLP186

CYYC;2009-03-13 08:00;CYYC 130800Z 26021G26KT 15SM BKN200 03/M07 A2993 RMK CI3 SLP179

CYYC;2009-03-13 09:00;CYYC 130900Z 25014KT 15SM BKN200 04/M07 A2990 RMK CI3 SLP160

CYYC;2009-03-13 10:00;CYYC 131000Z 27020G26KT 15SM BKN200 04/M07 A2988 RMK CI2 SLP152

CYYC;2009-03-13 11:00;CYYC 131100Z 27020G25KT 15SM FEW140 BKN240 05/M06 A2984 RMK AC2CI3 SLP141

CYYC;2009-03-13 12:00;CYYC 131200Z CCA 27021G27KT 15SM FEW140 BKN240 05/M06 A2982 RMK AC1CI5 SNOW COVER/MEDIUM PACK SLP127

CYYC;2009-03-13 13:00;CYYC 131300Z 27022G27KT 15SM FEW140 OVC200 05/M06 A2979 RMK AC1CI6 SLP120

CYYC;2009-03-13 14:00;CYYC 131400Z 27020KT 40SM FEW050 SCT110 BKN200 06/M06 A2978 RMK SC1AC4CI3 SLP117

CYYC;2009-03-13 15:00;CYYC 131500Z 25005KT 40SM FEW044 BKN100 OVC220 06/M06 A2977 RMK SC1AC6CI0 VIRGA S-N SLP113

CYYC;2009-03-13 16:00;CYYC 131600Z 23007KT 40SM FEW044 BKN110 BKN170 OVC210 06/M06 A2975 RMK SC1AC5AC2CI0 VIRGA SW-N SLP107

CYYC;2009-03-13 17:00;CYYC 131700Z 29008KT 40SM FEW048 BKN100 OVC200 07/M05 A2974 RMK SC1AS6CI2 VIRGA SW-N SLP103

CYYC;2009-03-13 18:00;CYYC 131800Z 28017G27KT 40SM FEW050 BKN110 OVC200 07/M05 A2973 RMK SC1AS6CI1 DIST SH SW SLP097

CYYC;2009-03-13 19:00;CYYC 131900Z 24014KT 40SM FEW050 BKN120 OVC220 07/M05 A2971 RMK SC1AS7CI0 DIST SH SW SLP093

CYYC;2009-03-13 20:00;CYYC 132000Z 26020G25KT 40SM FEW050 BKN140 OVC200 09/M04 A2968 RMK SC1AC7CI0 DIST SH SW SLP082

CYYC;2009-03-13 21:00;CYYC 132100Z 25028G34KT 40SM FEW060 SCT110 BKN210 09/M05 A2964 RMK SC2AC2CI0 DIST SH SW/CU ASOCTD SLP061

CYYC;2009-03-13 22:00;CYYC 132200Z 27011G20KT 40SM FEW060 FEW110 OVC230 11/M04 A2966 RMK SC1AC1CI0 CU ASOCTD SLP069

CYYC;2009-03-13 23:00;CYYC 132300Z 26010G18KT 40SM FEW060 FEW190 OVC230 11/M05 A2964 RMK SC1AC1CI0 SLP062

CYYC;2009-03-14 00:00;CYYC 140000Z 25013KT 40SM FEW060 FEW180 OVC240 10/M05 A2962 RMK SC1AC1CI0 DIST SH SW SLP052

CYYC;2009-03-14 01:00;CYYC 140100Z 26013KT 40SM FEW052 FEW070 FEW180 OVC220 09/M05 A2961 RMK SC1AC1AC1CI2 SLP049

CYYC;2009-03-14 02:00;CYYC 140200Z 25019G25KT 20SM FEW060 FEW180 BKN220 08/M06 A2959 RMK SC1AC1CI2 SC TR SLP041

CYYC;2009-03-14 03:00;CYYC 140300Z 25016KT 15SM FEW160 FEW220 08/M06 A2958 RMK AC1CI1 AC TR SLP039

CYYC;2009-03-14 04:00;CYYC 140400Z 25013KT 15SM FEW240 07/M06 A2956 RMK CI0 SLP035

CYYC;2009-03-14 05:00;CYYC 140500Z 11004KT 15SM FEW240 04/M04 A2956 RMK CI0 SLP034

CYYC;2009-03-14 06:00;CYYC 140600Z 26005KT 15SM FEW240 04/M06 A2955 RMK CI1 SLP032

CYYC;2009-03-14 07:00;CYYC 140700Z 20006KT 15SM FEW240 02/M05 A2953 RMK CI1 SLP026

CYYC;2009-03-14 08:00;CYYC 140800Z 05003KT 15SM FEW240 02/M06 A2951 RMK CI1 SLP021

CYYC;2009-03-14 09:00;CYYC 140900Z 24006KT 15SM FEW090 FEW240 04/M07 A2949 RMK AC1CI1 AC TR SLP010

CYYC;2009-03-14 10:00;CYYC 141000Z 25007KT 15SM FEW230 02/M07 A2948 RMK CI1 SLP005

CYYC;2009-03-14 11:00;CYYC 141100Z 24005KT 15SM FEW230 03/M07 A2946 RMK CI1 SLP001

CYYC;2009-03-14 12:00;CYYC 141200Z 20006KT 15SM FEW230 02/M07 A2945 RMK CI1 SNOW COVER/MEDIUM PACK SLP999

CYYC;2009-03-14 13:00;CYYC 141300Z 20007KT 15SM SCT240 M01/M07 A2944 RMK CI1 SLP994

CYYC;2009-03-14 14:00;CYYC 141400Z 23005KT 40SM FEW030 FEW210 M00/M07 A2943 RMK SC1CI0 SLP991

CYYC;2009-03-14 15:00;CYYC 141500Z 21002KT 40SM FEW030 FEW090 FEW230 00/M07 A2942 RMK SC1AC1CI1 SLP992

CYYC;2009-03-14 16:00;CYYC 141600Z 23002KT 40SM FEW030 FEW140 BKN290 04/M06 A2941 RMK CU1AC1CI0 SLP988

CYYC;2009-03-14 17:00;CYYC 141700Z 14002KT 40SM FEW030 BKN260 05/M05 A2941 RMK CU1CI1 SLP990

CYYC;2009-03-14 18:00;CYYC 141800Z 22004KT 40SM FEW033 SCT260 07/M08 A2940 RMK CU1CI1 SLP978

CYYC;2009-03-14 18:13;CYYC 141813Z 27013KT 40SM FEW040 SCT260 08/ RMK CU1CI2 WSHFT 1804Z

CYYC;2009-03-14 19:00;CYYC 141900Z 28020G26KT 40SM FEW040 SCT260 08/M08 A2938 RMK CU1CI2 SLP974

CYYC;2009-03-14 20:00;CYYC 142000Z 28016G22KT 40SM FEW040 BKN250 09/M08 A2937 RMK CU1CI2 SLP971

CYYC;2009-03-14 21:00;CYYC 142100Z 27009G17KT 40SM FEW040 BKN250 09/M08 A2936 RMK CU1CI2 SLP964

CYYC;2009-03-14 22:00;CYYC 142200Z 14007KT 40SM FEW040 BKN250 07/M06 A2936 RMK CU1CI2 SLP965

CYYC;2009-03-14 23:00;CYYC 142300Z 20007KT 40SM FEW040 SCT160 OVC250 08/M07 A2936 RMK CU1AC3CI4 SLP964

CYYC;2009-03-15 00:00;CYYC 150000Z 14002KT 40SM FEW050 FEW140 OVC230 06/M06 A2936 RMK CU1AC2CI6 SLP969

CYYC;2009-03-15 01:00;CYYC 150100Z 13003KT 40SM FEW050 FEW140 BKN200 04/M04 A2934 RMK CU1AC1CI6 SLP964

CYYC;2009-03-15 02:00;CYYC 150200Z 22004KT 40SM FEW050 BKN220 03/M05 A2933 RMK CU1CI5 SLP962

CYYC;2009-03-15 03:00;CYYC 150300Z 00000KT 15SM FEW045 SCT230 01/M04 A2932 RMK CF1CI2 SLP966

CYYC;2009-03-15 04:00;CYYC 150400Z 20003KT 15SM FEW230 01/M04 A2931 RMK CI1 SLP964

CYYC;2009-03-15 05:00;CYYC 150500Z 20007KT 15SM FEW230 M01/M05 A2931 RMK CI1 SLP962

CYYC;2009-03-15 06:00;CYYC 150600Z 22008KT 15SM FEW230 00/M07 A2930 RMK CI1 SLP952

CYYC;2009-03-15 07:00;CYYC 150700Z 22005KT 15SM FEW230 00/M08 A2929 RMK CI1 SLP949

CYYC;2009-03-15 08:00;CYYC 150800Z 21007KT 15SM FEW250 M00/M08 A2930 RMK CI0 SLP951

CYYC;2009-03-15 09:00;CYYC 150900Z 25003KT 15SM SCT240 M01/M08 A2929 RMK CI1 SLP946

CYYC;2009-03-15 10:00;CYYC 151000Z 00000KT 15SM SCT230 M03/M07 A2927 RMK CI2 SLP942

CYYC;2009-03-15 11:00;CYYC 151100Z 08004KT 15SM FEW230 M05/M07 A2927 RMK CI1 SLP942

CYYC;2009-03-15 11:24;CYYC 151124Z 02007KT 2 1/2SM BR FEW230 M07/ RMK CI1

CYYC;2009-03-15 11:36;CYYC 151136Z 02005KT 3/8SM FZFG SKC M07/ RMK FG5 RVR RWY 34 1600FT

CYYC;2009-03-15 12:00;CYYC 151200Z 01003KT 1/8SM FZFG VV001 M08/M08 A2928 RMK FG8 SNOW COVER/TRACE LOOSE RVR RWY 34 1400FT SLP956

CYYC;2009-03-15 13:00;CYYC 151300Z 00000KT 1/8SM FZFG VV001 M08/M08 A2927 RMK FG8 RIME ON INDICATOR RVR RWY 34 1100FT SLP953

CYYC;2009-03-15 14:00;CYYC 151400Z 34002KT 1/8SM FZFG VV001 M08/M08 A2925 RMK FG8 RIME ON ICE ACCRETION/RVR RWY28 1000FT SLP949

CYYC;2009-03-15 15:00;CYYC 151500Z 05003KT 1/8SM FZFG OVC080 M08/M09 A2924 RMK FG7AC0 RIME ON ICE ACCRETION/RVR RWY34 1200FT SLP951

CYYC;2009-03-15 15:09;CYYC 151509Z CCA 05003KT 1/4SM SG+ OVC220 M08/ RMK FG5CI0 RVR RWY28 1800FT

CYYC;2009-03-15 15:13;CYYC 151513Z 04002KT 1/4SM FZFG BKN200 M08/ RMK FG3CI0 RVR RWY34 2400FT

CYYC;2009-03-15 15:19;CYYC 151519Z 01003KT 1SM BR FEW160 BKN200 M08/ RMK FG2AC1CI0 RVR RWY28 4500FT

CYYC;2009-03-15 15:26;CYYC 151526Z 05002KT 1SM -SG BR BKN160 BKN220 M07/ RMK FG2AC2CI0 RVR RWY34 6000FT

CYYC;2009-03-15 15:37;CYYC 151537Z 06003KT 1 1/2SM BR FEW090 BKN160 OVC220 M07/ RMK FG2AC1AC2CI0

CYYC;2009-03-15 15:45;CYYC 151545Z 04002KT 3SM BR FEW090 BKN140 BKN230 M07/ RMK FG2AC1AC2CI0 VIS SW-W 1/2

CYYC;2009-03-15 16:00;CYYC 151600Z 00000KT 3SM BR FEW100 BKN140 OVC200 M07/M07 A2924 RMK FG2AC1AC3CI1 VIS SW-W 1/2 SLP951

CYYC;2009-03-15 16:12;CYYC 151612Z 00000KT 3SM BR FEW110 BKN180 OVC220 M06/ RMK FG1AC1AC3CI0 VIS SW 1

CYYC;2009-03-15 17:00;CYYC 151700Z 03003KT 6SM BR BKN160 OVC200 M06/M06 A2924 RMK AC5CI2 SLP950

CYYC;2009-03-15 18:00;CYYC 151800Z 04004KT 10SM FEW140 BKN160 BKN200 M03/M04 A2923 RMK AC1AC4CI0 SLP942

CYYC;2009-03-15 19:00;CYYC 151900Z 03005KT 15SM FEW050 FEW180 M01/M02 A2922 RMK SC1AC0 SH SW SLP938

CYYC;2009-03-15 20:00;CYYC 152000Z 09008KT 25SM FEW050 BKN180 OVC220 00/M02 A2922 RMK SC1AC0CI0 SLP938

CYYC;2009-03-15 21:00;CYYC 152100Z 07005KT 25SM FEW050 FEW160 SCT180 BKN250 00/M02 A2921 RMK SC1AC1AC0CI0 SLP932

CYYC;2009-03-15 22:00;CYYC 152200Z 09009KT 25SM FEW050 SCT080 BKN180 02/M02 A2920 RMK SC1AC3AC1 SLP928

CYYC;2009-03-15 23:00;CYYC 152300Z 19013KT 25SM FEW050 SCT130 BKN140 OVC180 06/M08 A2918 RMK SC1AC3AC2AC2 SLP923

CYYC;2009-03-16 00:00;CYYC 160000Z 19008KT 30SM FEW050 FEW090 BKN100 03/M02 A2919 RMK SC1AC2AC5 SLP929

CYYC;2009-03-16 01:00;CYYC 160100Z CCA 03009KT 30SM FEW100 BKN120 M02/M03 A2922 RMK AC2AC2 SLP939

CYYC;2009-03-16 02:00;CYYC 160200Z 07007KT 3SM BR SCT002 BKN140 M04/M04 A2920 RMK ST3AC1 VIS 11/2 NE-SE SLP932

CYYC;2009-03-16 02:18;CYYC 160218Z 04003KT 3/4SM BR BKN002 BKN140 M04/ RMK ST5AC1 VIS 3 SE-SW

CYYC;2009-03-16 02:38;CYYC 160238Z 05007KT 1/2SM FZFG OVC005 M04/ RMK FG6SC2

CYYC;2009-03-16 03:00;CYYC 160300Z CCA 08009KT 3/8SM FZFG VV002 M04/M04 A2919 RMK FG8 RVR RWY34 3000 FT SLP939

CYYC;2009-03-16 04:00;CYYC 160400Z 02006KT 1/2SM FZFG VV002 M04/M04 A2922 RMK FG8 RVR RWY34 6000+ FT SLP951

CYYC;2009-03-16 04:17;CYYC 160417Z 36004KT 1 1/2SM BR OVC005 M04/ RMK FG6ST2 RVR RWY34 6000+ FT

CYYC;2009-03-16 04:47;CYYC 160447Z 04010G16KT 1 1/2SM -SN BR BKN005 OVC020 M04/ RMK FG3ST2SC3

CYYC;2009-03-16 05:00;CYYC 160500Z CCA 01014KT 1 1/2SM -SN BR BKN004 OVC020 M04/M05 A2925 RMK FG3ST3SC2 PRESRR SLP960

CYYC;2009-03-16 06:00;CYYC 160600Z 02006KT 1 1/2SM -SN BR OVC003 M06/M06 A2928 RMK FG5ST3 SLP967

CYYC;2009-03-16 07:00;CYYC 160700Z 04007KT 1/2SM SN FZFG OVC002 M06/M06 A2931 RMK FG6ST2 -SN SLP977

CYYC;2009-03-16 07:10;CYYC 160710Z CCA 02009KT 1/4SM SN FZFG VV002 M06/ RMK FG8 -SN PCPN VRY LGT/RVR RWY34 5500 FT

CYYC;2009-03-16 08:00;CYYC 160800Z 02007KT 1/4SM SN FZFG VV002 M06/M07 A2935 RMK FG8 -SN PCPN VRY LGT/RVR RWY34 3500 FT SLP989

CYYC;2009-03-16 08:33;CYYC 160833Z 01006KT 3/4SM -SN BR VV002 M06/ RMK FG8 PCPN VRY LGT / RVR RWY34 5500 FT

CYYC;2009-03-16 08:40;CYYC 160840Z 36008KT 1 1/2SM -SN BR VV004 M06/ RMK FG8

CYYC;2009-03-16 09:00;CYYC 160900Z 36006KT 1 1/2SM -SN BR VV004 M06/M07 A2941 RMK FG8 SLP007

CYYC;2009-03-16 10:00;CYYC 161000Z 32005KT 1 1/2SM -SN BR OVC006 M06/M06 A2944 RMK FG6SC2 SLP017

CYYC;2009-03-16 11:00;CYYC 161100Z 15002KT 1 1/2SM -SN BR OVC006 M06/M06 A2946 RMK FG6SC2 SLP024

CYYC;2009-03-16 12:00;CYYC 161200Z CCA 13004KT 1 1/2SM -SN BR OVC005 M06/M06 A2949 RMK FG6SC2 SNOW COVER/TRACE LOOSE SLP034

CYYC;2009-03-16 13:00;CYYC 161300Z 18007KT 1SM -SN BR OVC005 M06/M07 A2952 RMK FG6SC2 RVR RWY34 6000+ FT SLP042

CYYC;2009-03-16 13:52;CYYC 161352Z CCA 16007KT 1/2SM -SG FZFG OVC003 M07/ RMK FG6ST2 RVR RWY34 5000 FT

CYYC;2009-03-16 14:00;CYYC 161400Z 14005KT 1/4SM -SG FZFG VV004 M07/M07 A2955 RMK FG8 RVR RWY16 6000 FT/ CIG VRB 2-6 SLP051

CYYC;2009-03-16 14:18;CYYC 161418Z CCA 18005KT 3/4SM -SN BR BKN003 OVC007 M07/ RMK FG3ST2SC2 RVR RWY16 6000 FT

CYYC;2009-03-16 14:52;CYYC 161452Z CCB 15004KT 1SM BR BKN004 BKN012 M07/ RMK FG2ST3SC2 VIS W 21/2/ RVR RWY16 2000 FT

CYYC;2009-03-16 15:00;CYYC 161500Z 14004KT 1SM BR BKN003 BKN012 M08/M08 A2956 RMK FG2ST3SC2 RVR RWY16 4000 FT SLP069

CYYC;2009-03-16 15:28;CYYC 161528Z 15004KT 5/8SM BR BKN003 OVC009 M07/ RMK FG2ST4SC1 RVR RWY16 2200 FT/ VIS W 2

CYYC;2009-03-16 16:00;CYYC 161600Z 14003KT 5/8SM BR BKN003 OVC009 M07/M07 A2957 RMK FG5ST2SC1 RVR RWY16 2200 FT/ VIS W 1 SLP073

CYYC;2009-03-16 16:26;CYYC 161626Z 16005KT 3/4SM BR OVC004 M07/ RMK FG4ST3 RVR RWY34 3500 FT/ CIG VRB 3-5

CYYC;2009-03-16 17:00;CYYC 161700Z 13003KT 3/4SM -SN BR BKN005 OVC009 M06/M06 A2958 RMK FG4ST3SC1 RVR RWY34 6000 FT/ VIS S-W 1 SLP075

CYYC;2009-03-16 17:40;CYYC 161740Z 12004KT 1 3/4SM -SN BR BKN004 OVC008 M06/ RMK FG2ST3SC2 VIS W 2/ CIG VRB 3-5

CYYC;2009-03-16 18:00;CYYC 161800Z 12004KT 2SM -SN BR BKN003 OVC008 M06/M06 A2959 RMK FG1ST4SC2 VIS W 3 SLP078

CYYC;2009-03-16 18:26;CYYC 161826Z 09006KT 2 1/2SM BR BKN006 BKN010 M05/ RMK FG1ST5SC2 VIS W 3

CYYC;2009-03-16 19:00;CYYC 161900Z 11005KT 2 1/2SM BR BKN005 OVC010 M05/M06 A2960 RMK ST5SC2 VIS W 31/2 SLP082

CYYC;2009-03-16 19:35;CYYC 161935Z 10006KT 4SM BR FEW005 SCT011 BKN120 M05/ RMK ST2SC2AC2

CYYC;2009-03-16 20:00;CYYC 162000Z 10007KT 5SM BR FEW011 SCT120 M04/M05 A2960 RMK SC1AC2 SLP083

CYYC;2009-03-16 21:00;CYYC 162100Z 07008KT 10SM FEW030 FEW080 FEW140 M04/M06 A2961 RMK SC1AC1AC0 SLP086

CYYC;2009-03-16 22:00;CYYC 162200Z 08010KT 10SM FEW030 SCT050 BKN130 M04/M06 A2963 RMK CU1SC1AC2 CU TR SLP092

CYYC;2009-03-16 23:00;CYYC 162300Z 06006KT 10SM FEW030 FEW050 SCT082 BKN130 M05/M06 A2967 RMK CU1SC1AC2AC1 CU TR SLP103

CYYC;2009-03-17 00:00;CYYC 170000Z 09004KT 10SM FEW010 SCT050 BKN150 M05/M07 A2969 RMK SC2SC2AC2 SLP115

CYYC;2009-03-17 01:00;CYYC 170100Z 08004KT 10SM FEW009 SCT050 OVC120 M05/M07 A2972 RMK SC2SC2AC2 SLP123

CYYC;2009-03-17 02:00;CYYC 170200Z 12004KT 5SM BR FEW015 SCT080 BKN140 M06/M07 A2976 RMK CF1AC2AS1 SLP134

CYYC;2009-03-17 03:00;CYYC 170300Z CCB 11004KT 5SM -SN BR FEW010 SCT180 M07/M08 A2978 RMK CF1AC2 PCPN VRY LGT SLP149

CYYC;2009-03-17 03:48;CYYC 170348Z 17003KT 5SM BR SKC M07/

CYYC;2009-03-17 04:00;CYYC 170400Z 19003KT 5SM BR SKC M07/M08 A2979 RMK SLP153

CYYC;2009-03-17 05:00;CYYC 170500Z 11004KT 5SM BR FEW170 M08/M09 A2980 RMK AC0 SLP156

CYYC;2009-03-17 06:00;CYYC 170600Z 12002KT 5SM BR SCT170 M08/M09 A2980 RMK AC1 SLP156

CYYC;2009-03-17 07:00;CYYC 170700Z 19002KT 4SM BR BKN170 M08/M09 A2981 RMK AC6 SLP159

CYYC;2009-03-17 08:00;CYYC 170800Z 17003KT 4SM BR FEW010 BKN170 M08/M09 A2982 RMK CF1AC6 SLP162

CYYC;2009-03-17 09:00;CYYC 170900Z 10002KT 5SM BR BKN150 M08/M09 A2983 RMK AC6 SLP163

CYYC;2009-03-17 10:00;CYYC 171000Z 11002KT 8SM BKN140 OVC250 M08/M09 A2982 RMK AC6CI0 SLP160

CYYC;2009-03-17 11:00;CYYC 171100Z 05002KT 8SM FEW140 BKN250 M08/M08 A2982 RMK AC2CI0 SLP161

CYYC;2009-03-17 12:00;CYYC 171200Z CCA 00000KT 8SM SCT130 BKN250 M09/M09 A2983 RMK AC3CI0 SNOW COVER/TRACE LOOSE SLP165

CYYC;2009-03-17 13:00;CYYC 171300Z 36002KT 10SM BKN130 M08/M09 A2983 RMK AC6 SLP166

CYYC;2009-03-17 14:00;CYYC 171400Z 08002KT 8SM FEW015 FEW030 BKN170 M08/M09 A2985 RMK CU1SC2AC2 FROIN SLP173

CYYC;2009-03-17 15:00;CYYC 171500Z 01006KT 15SM FEW015 FEW030 BKN190 M07/M08 A2987 RMK CU1SC2AC4 SLP180

CYYC;2009-03-17 16:00;CYYC 171600Z 04006KT 5SM BR FEW015 FEW120 SCT160 M08/M10 A2989 RMK CU1AC1AC1 SLP188

CYYC;2009-03-17 17:00;CYYC 171700Z 03006KT 5SM BR FEW015 FEW120 BKN170 M08/M09 A2991 RMK CU1AC1AC3 SLP194

CYYC;2009-03-17 18:00;CYYC 171800Z 05008KT 4SM BR FEW015 FEW110 BKN180 M07/M08 A2993 RMK CU1AC1AC4 SLP202

CYYC;2009-03-17 19:00;CYYC 171900Z 05009KT 2 1/2SM BR SCT007 SCT020 BKN180 M07/M08 A2994 RMK SC3SC1AC1 SLP205

CYYC;2009-03-17 19:31;CYYC 171931Z 06006KT 4SM BR BKN008 BKN020 M07/ RMK SC5SC1

CYYC;2009-03-17 20:00;CYYC 172000Z 06004KT 4SM BR BKN007 BKN180 M07/M08 A2995 RMK SC5AC1 SLP208

CYYC;2009-03-17 20:17;CYYC 172017Z 08005KT 5SM BR FEW007 SCT180 M06/ RMK SC2AC0

CYYC;2009-03-17 21:00;CYYC 172100Z 11006KT 5SM BR FEW008 BKN140 BKN180 M05/M08 A2994 RMK SC2AC2AC1 SLP204

CYYC;2009-03-17 22:00;CYYC 172200Z 12007KT 7SM FEW008 BKN150 M03/M07 A2995 RMK SC2AC4 VIRGA SW-NW SLP205

CYYC;2009-03-17 23:00;CYYC 172300Z 17005KT 7SM FEW008 BKN150 M04/M07 A2996 RMK SC2AC4 VIRGA S SLP209

CYYC;2009-03-18 00:00;CYYC 180000Z 13005KT 5SM BR FEW015 SCT150 M02/M06 A2997 RMK CU1AC1 SLP211

CYYC;2009-03-18 01:00;CYYC 180100Z 16006KT 7SM FEW015 FEW090 M03/M06 A2998 RMK CU1AC1 SLP215

CYYC;2009-03-18 02:00;CYYC 180200Z 19005KT 8SM FEW030 FEW090 FEW220 M04/M06 A3000 RMK SC1AC1CI0 FG BNK DIST S+W SLP219

CYYC;2009-03-18 03:00;CYYC 180300Z 04006KT 10SM FEW080 M05/M07 A3001 RMK AC1 SLP227

CYYC;2009-03-18 04:00;CYYC 180400Z 09005KT 10SM FEW080 M06/M08 A3002 RMK AC1 AC TR SLP231

CYYC;2009-03-18 05:00;CYYC 180500Z 00000KT 10SM FEW070 M06/M09 A3004 RMK AC1 AC TR SLP236

CYYC;2009-03-18 06:00;CYYC 180600Z 13008KT 15SM SKC M08/M10 A3006 RMK SLP247

CYYC;2009-03-18 06:53;CYYC 180653Z 02007KT 3/4SM BR VV001 M11/ RMK FG8 RVR RWY16 1800 FT

CYYC;2009-03-18 07:00;CYYC 180700Z 04007KT 1/2SM FZFG OVC001 M11/M11 A3008 RMK FG7ST0 RIME/ RVR RWY34 3000 FT SLP255

CYYC;2009-03-18 07:12;CYYC 180712Z 02004KT 3/8SM FZFG BKN001 OVC003 M11/ RMK FG7ST1ST1 RIME/ RVR RWY34 2200 FT

CYYC;2009-03-18 08:00;CYYC 180800Z 05003KT 1/8SM FZFG VV001 M11/M11 A3009 RMK FG8 RVR RWY16 1400 FT SLP258

CYYC;2009-03-18 09:00;CYYC 180900Z 04005KT 1/8SM FZFG VV001 M11/M11 A3011 RMK FG8 RVR RWY34 2200 FT SLP268

CYYC;2009-03-18 10:00;CYYC 181000Z 36002KT 1/8SM FZFG VV001 M11/M12 A3013 RMK FG8 RVR RWY16 2500 FT SLP272

CYYC;2009-03-18 11:00;CYYC 181100Z 00000KT 1/8SM FZFG VV001 M12/M12 A3013 RMK FG8 RVR RWY16 1800 FT SLP274

CYYC;2009-03-18 12:00;CYYC 181200Z 00000KT 3/8SM FZFG SKC M12/M13 A3014 RMK FG6 RVR RWY34 3000 FT/ SNOW COVER/MEDIUM PACK SLP276

CYYC;2009-03-18 12:19;CYYC 181219Z CCA 09003KT 6SM BR FEW070 BKN210 M12/ RMK AC2CI2 FG RPDLY DSIPTNG

CYYC;2009-03-18 12:36;CYYC 181236Z 11003KT 1SM BR SKC M12/ RMK FG6

CYYC;2009-03-18 12:49;CYYC 181249Z 13003KT 7SM PRFG FEW090 SCT210 M12/ RMK AC2CI1 FG BNK OVR NOSEHILL VIS 4

CYYC;2009-03-18 13:00;CYYC 181300Z 22006KT 7SM PRFG FEW090 SCT210 M12/M13 A3015 RMK AC2CI2 FG BNK S-W-N/ FROIN SLP279

CYYC;2009-03-18 14:00;CYYC 181400Z 22005KT 40SM FEW050 FEW100 SCT220 M10/M10 A3015 RMK SC1AC1CI0 FROIN SLP280

CYYC;2009-03-18 15:00;CYYC 181500Z 19003KT 40SM FEW050 FEW100 BKN220 M06/M06 A3015 RMK SC1AC1CI5 FROIN SLP274

CYYC;2009-03-18 16:00;CYYC 181600Z 19003KT 40SM FEW190 M04/M06 A3015 RMK AC2 SLP275

CYYC;2009-03-18 17:00;CYYC 181700Z 17006KT 40SM FEW030 FEW200 M01/M07 A3015 RMK SC1CI2 VIRGA W SLP275

CYYC;2009-03-18 18:00;CYYC 181800Z 18010KT 40SM FEW030 FEW200 03/M12 A3013 RMK SC1CI2 SLP260

CYYC;2009-03-18 19:00;CYYC 181900Z 20012KT 40SM FEW030 FEW200 04/M12 A3011 RMK SC1CI2 SLP253

CYYC;2009-03-18 20:00;CYYC 182000Z 20005KT 40SM FEW030 FEW230 04/M12 A3008 RMK CU1CI1 SLP245

CYYC;2009-03-18 21:00;CYYC 182100Z 14011KT 40SM FEW030 FEW180 FEW250 04/M09 A3006 RMK CU1AC1CI1 SLP236

CYYC;2009-03-18 22:00;CYYC 182200Z 17010G16KT 40SM FEW030 FEW140 FEW270 05/M07 A3004 RMK CU1AC1CI0 ACSL SLP229

CYYC;2009-03-18 23:00;CYYC 182300Z 15011KT 40SM FEW030 FEW140 FEW270 04/M05 A3002 RMK CU1AC1CI0 ACSL SLP223

CYYC;2009-03-19 00:00;CYYC 190000Z 15008KT 40SM FEW030 FEW140 BKN200 05/M06 A2999 RMK CU1AC1CI2 VIRGA / ACSL SLP213

CYYC;2009-03-19 01:00;CYYC 190100Z 22007KT 40SM FEW030 FEW140 BKN200 BKN250 06/M10 A2998 RMK CU1AC1CI6CI0 SLP209

CYYC;2009-03-19 02:00;CYYC 190200Z 26017KT 20SM FEW070 OVC240 05/M09 A2998 RMK AC1CI5 SLP209

CYYC;2009-03-19 03:00;CYYC 190300Z 31010KT 15SM FEW070 BKN230 04/M08 A2997 RMK AC1CI5 SLP200

CYYC;2009-03-19 04:00;CYYC 190400Z 21009KT 15SM OVC240 02/M07 A2998 RMK CI6 SLP201

CYYC;2009-03-19 05:00;CYYC 190500Z 20008KT 15SM OVC240 02/M07 A2998 RMK CI5 SLP201

CYYC;2009-03-19 06:00;CYYC 190600Z 19009KT 15SM OVC200 01/M06 A2997 RMK CI7 SLP190

CYYC;2009-03-19 07:00;CYYC 190700Z 17006KT 15SM OVC200 01/M06 A2996 RMK CI7 SLP187

CYYC;2009-03-19 08:00;CYYC 190800Z 19003KT 15SM SCT190 OVC230 M01/M05 A2996 RMK AC4CI3 SLP187

CYYC;2009-03-19 09:00;CYYC 190900Z 19004KT 15SM FEW190 OVC220 00/M06 A2996 RMK AC2CI6 SLP184

CYYC;2009-03-19 10:00;CYYC 191000Z 16004KT 15SM BKN170 OVC220 00/M06 A2994 RMK AC5CI3 SLP178

CYYC;2009-03-19 11:00;CYYC 191100Z 19006KT 15SM BKN150 OVC220 M00/M06 A2992 RMK AC6CI2 SLP172

CYYC;2009-03-19 12:00;CYYC 191200Z 19007KT 15SM BKN130 OVC210 01/M06 A2990 RMK AC6CI2 SNOW COVER/HARD PACK SLP163

CYYC;2009-03-19 13:00;CYYC 191300Z 22006KT 15SM BKN150 OVC220 01/M06 A2990 RMK AC6CI2 SLP161

CYYC;2009-03-19 14:00;CYYC 191400Z 26005KT 40SM FEW110 BKN140 OVC250 01/M05 A2988 RMK AC2AC6CI0 SLP156

CYYC;2009-03-19 15:00;CYYC 191500Z 26007KT 40SM BKN140 BKN240 01/M06 A2985 RMK AC7CI1 SLP148

CYYC;2009-03-19 16:00;CYYC 191600Z 24009KT 40SM FEW040 BKN140 BKN220 04/M06 A2984 RMK SC1AC7CI1 SLP143

CYYC;2009-03-19 17:00;CYYC 191700Z 20007KT 40SM FEW040 BKN160 BKN220 04/M06 A2983 RMK SC1AC7CI1 SLP139

CYYC;2009-03-19 18:00;CYYC 191800Z 21008KT 40SM FEW050 BKN160 BKN220 06/M06 A2982 RMK SC1AC7CI1 SLP131

CYYC;2009-03-19 19:00;CYYC 191900Z 16005KT 40SM FEW050 BKN120 BKN210 07/M06 A2980 RMK SC1AC7CI1 SLP125

CYYC;2009-03-19 20:00;CYYC 192000Z 23011KT 40SM FEW050 BKN120 BKN200 09/M06 A2978 RMK SC1AC6CI1 SLP121

CYYC;2009-03-19 21:00;CYYC 192100Z 19005KT 40SM FEW050 FEW160 FEW200 11/M06 A2977 RMK SC1AC1CI1 SLP110

CYYC;2009-03-19 22:00;CYYC 192200Z 18008KT 40SM FEW050 FEW090 FEW200 11/M05 A2976 RMK SC1AC1CI1 ACSL SLP106

CYYC;2009-03-19 23:00;CYYC 192300Z 20007KT 40SM FEW050 FEW090 FEW220 12/M05 A2975 RMK SC1AC1CI1 ACSL SLP105

CYYC;2009-03-20 00:00;CYYC 200000Z 27012G17KT 40SM FEW050 FEW090 FEW200 12/M05 A2975 RMK SC1AC1CI1 ACSL/DIST SH SW SLP101

CYYC;2009-03-20 01:00;CYYC 200100Z CCA 27019G24KT 40SM FEW050 FEW100 FEW220 10/M06 A2974 RMK SC1AC1CI1 ACSL SLP098

CYYC;2009-03-20 02:00;CYYC 200200Z 27016G21KT 40SM FEW050 FEW090 FEW220 08/M05 A2975 RMK CU1AC1CI1 CU+CI TR SLP101

CYYC;2009-03-20 03:00;CYYC 200300Z 27011G16KT 15SM FEW090 FEW220 06/M05 A2977 RMK AC1CI1 BOTH CLDS TR SLP113

CYYC;2009-03-20 04:00;CYYC 200400Z 27013G18KT 15SM FEW090 FEW220 06/M05 A2978 RMK AC1CI1 BOTH CLDS TR SLP116

CYYC;2009-03-20 05:00;CYYC 200500Z 29011KT 15SM SKC 06/M05 A2980 RMK SLP122

CYYC;2009-03-20 06:00;CYYC 200600Z 30003KT 15SM SKC 05/M05 A2980 RMK SLP119

CYYC;2009-03-20 07:00;CYYC 200700Z 25007KT 15SM SKC 06/M06 A2979 RMK SLP117

CYYC;2009-03-20 08:00;CYYC 200800Z 30008KT 15SM FEW240 05/M06 A2981 RMK CI1 SLP123

CYYC;2009-03-20 09:00;CYYC 200900Z 03004KT 15SM FEW240 02/M04 A2982 RMK CI1 SLP126

CYYC;2009-03-20 10:00;CYYC 201000Z 21008KT 15SM FEW240 00/M05 A2983 RMK CI1 SLP127

CYYC;2009-03-20 11:00;CYYC 201100Z 20003KT 15SM FEW240 01/M06 A2981 RMK CI1 SLP123

CYYC;2009-03-20 12:00;CYYC 201200Z 00000KT 15SM FEW240 M01/M05 A2983 RMK CI1 SNOW COVER/MEDIUM PACK SLP129

CYYC;2009-03-20 13:00;CYYC 201300Z 30002KT 20SM FEW170 SCT240 00/M06 A2983 RMK AC1CI1 SLP130

CYYC;2009-03-20 14:00;CYYC 201400Z 18004KT 40SM FEW150 SCT170 BKN240 M01/M06 A2982 RMK AC2AC1CI1 SLP127

CYYC;2009-03-20 15:00;CYYC 201500Z 14004KT 40SM FEW150 BKN250 02/M04 A2981 RMK AC2CI1 SLP128

CYYC;2009-03-20 16:00;CYYC 201600Z 19005KT 40SM FEW028 FEW150 SCT250 04/M04 A2981 RMK CU1AC2CI1 CU TR SLP128

CYYC;2009-03-20 17:00;CYYC 201700Z 19006KT 40SM FEW040 FEW150 BKN250 06/M04 A2981 RMK CU1AC2CI0 CU TR SLP128

CYYC;2009-03-20 18:00;CYYC 201800Z 17005KT 40SM FEW048 FEW150 BKN250 08/M04 A2979 RMK CU1AC1CI1 CU TR SLP115

CYYC;2009-03-20 19:00;CYYC 201900Z 16004KT 40SM FEW060 FEW150 SCT220 10/M05 A2977 RMK CU1AC1CI0 CU TR SLP108

CYYC;2009-03-20 20:00;CYYC 202000Z 18006KT 40SM FEW064 FEW150 FEW220 11/M05 A2975 RMK CU1AC1CI0 CU TR SLP103

CYYC;2009-03-20 21:00;CYYC 202100Z CCA 17007KT 40SM FEW064 FEW140 FEW220 12/M04 A2973 RMK CU1AC1CI0 SLP093

CYYC;2009-03-20 22:00;CYYC 202200Z 10011KT 40SM FEW060 FEW150 FEW220 12/M04 A2971 RMK CU1AC1CI0 CU TR SLP087

CYYC;2009-03-20 23:00;CYYC 202300Z 11009KT 40SM FEW048 FEW140 SCT220 10/M01 A2970 RMK CU1AC2CI0 SLP084

CYYC;2009-03-21 00:00;CYYC 210000Z 11010KT 40SM FEW040 FEW140 BKN220 10/M00 A2969 RMK CU1AC2CI0 SLP085

CYYC;2009-03-21 01:00;CYYC 210100Z 16005KT 40SM FEW036 FEW140 SCT240 09/00 A2967 RMK CU1AC2CI0 SLP079

CYYC;2009-03-21 02:00;CYYC 210200Z 18011KT 30SM FEW060 FEW110 SCT240 08/M03 A2966 RMK SC1AC1CI1 SC TR SLP076

CYYC;2009-03-21 03:00;CYYC 210300Z 18010KT 15SM FEW090 FEW240 06/M02 A2965 RMK AC1CI1 AC TR SLP074

CYYC;2009-03-21 04:00;CYYC 210400Z 18012KT 15SM FEW090 FEW240 06/M02 A2964 RMK AC1CI1 BOTH CLDS TR SLP071

CYYC;2009-03-21 05:00;CYYC 210500Z 18011KT 15SM FEW240 05/M03 A2964 RMK CI1 CI TR SLP070

CYYC;2009-03-21 06:00;CYYC 210600Z 17013KT 15SM FEW240 04/M02 A2963 RMK CI1 CI TR SLP060

CYYC;2009-03-21 07:00;CYYC 210700Z 19010KT 15SM SKC 04/M02 A2963 RMK SLP059

CYYC;2009-03-21 08:00;CYYC 210800Z 19012KT 15SM SKC 04/M02 A2963 RMK SLP060

CYYC;2009-03-21 09:00;CYYC 210900Z 18012KT 15SM SKC 04/M02 A2964 RMK SLP056

CYYC;2009-03-21 10:00;CYYC 211000Z 18009KT 15SM SCT250 04/M03 A2964 RMK CI1 SLP057

CYYC;2009-03-21 11:00;CYYC 211100Z 06003KT 15SM SCT250 02/M03 A2965 RMK CI1 SLP061

CYYC;2009-03-21 12:00;CYYC 211200Z 05007KT 15SM SKC M00/M04 A2967 RMK SLP078

CYYC;2009-03-21 13:00;CYYC 211300Z 36002KT 20SM SCT220 M01/M04 A2968 RMK CI2 SLP082

CYYC;2009-03-21 14:00;CYYC 211400Z CCA 09004KT 40SM FEW150 SCT220 M01/M04 A2970 RMK AC2CI1 SLP087

CYYC;2009-03-21 15:00;CYYC 211500Z 36003KT 40SM FEW150 BKN220 01/M02 A2971 RMK AC2CI1 SLP095

CYYC;2009-03-21 16:00;CYYC 211600Z 33005KT 40SM FEW180 BKN200 05/M02 A2973 RMK AC2CI2 SLP101

CYYC;2009-03-21 17:00;CYYC 211700Z 03003KT 40SM FEW120 SCT180 BKN200 07/M01 A2974 RMK AC1AC1CI2 SLP103

CYYC;2009-03-21 18:00;CYYC 211800Z 33004KT 40SM FEW040 FEW140 SCT180 BKN200 09/M01 A2975 RMK CU1AC1AC2CI1 CU TR SLP100

CYYC;2009-03-21 19:00;CYYC 211900Z 01016KT 40SM FEW020 SCT140 BKN200 04/M01 A2977 RMK CU1AC2CI1 CU TR SLP106

CYYC;2009-03-21 20:00;CYYC 212000Z 36020KT 8SM SCT011 BKN150 OVC200 02/M01 A2979 RMK SC4AC2CI0 SLP112

CYYC;2009-03-21 20:10;CYYC 212010Z 36018G26KT 7SM BKN009 OVC150 00/ RMK SC6AC2

CYYC;2009-03-21 21:00;CYYC 212100Z 36017G22KT 7SM BKN009 OVC150 M00/M02 A2980 RMK SC6AC2 SLP129

CYYC;2009-03-21 21:50;CYYC 212150Z 01018KT 7SM OVC011 M00/ RMK SC8

CYYC;2009-03-21 22:00;CYYC 212200Z 36021KT 7SM OVC011 M00/M03 A2980 RMK SC8 SLP130

CYYC;2009-03-21 22:50;CYYC 212250Z 01015KT 7SM OVC013 00/ RMK SC8

CYYC;2009-03-21 23:00;CYYC 212300Z 36026KT 7SM OVC013 M00/M03 A2982 RMK SC8 SLP135

CYYC;2009-03-21 23:43;CYYC 212343Z 36014KT 10SM OVC015 M00/ RMK SC8

CYYC;2009-03-22 00:00;CYYC 220000Z 36015KT 15SM OVC015 M00/M03 A2982 RMK SC8 SLP145

CYYC;2009-03-22 01:00;CYYC 220100Z 36012KT 10SM OVC016 M01/M04 A2983 RMK SC8 SLP147

CYYC;2009-03-22 02:00;CYYC 220200Z 36012KT 10SM OVC014 M01/M04 A2982 RMK SC7 SLP145

CYYC;2009-03-22 03:00;CYYC 220300Z 34009KT 10SM BKN014 OVC110 M02/M04 A2982 RMK SC7AC1 SLP143

CYYC;2009-03-22 04:00;CYYC 220400Z 35010KT 8SM BKN013 OVC075 M02/M04 A2980 RMK SC6AC2 SLP136

CYYC;2009-03-22 04:25;CYYC 220425Z 36009KT 4SM -SN BR OVC013 M02/ RMK SC8

CYYC;2009-03-22 04:44;CYYC 220444Z 35008KT 1 1/2SM -SN BR OVC013 M02/ RMK SC8

CYYC;2009-03-22 05:00;CYYC 220500Z 35005KT 1 1/4SM -SN BR BKN011 OVC025 M02/M03 A2980 RMK SC6SC2 SLP136

CYYC;2009-03-22 05:33;CYYC 220533Z CCA 02008KT 3/4SM -SN BR OVC013 M03/ RMK SN3SC5 RVR RWY 34 6000FT

CYYC;2009-03-22 06:00;CYYC 220600Z CCA 01008KT 1 1/4SM -SN BR BKN013 OVC024 M03/M03 A2977 RMK SC6SC2 /S02/ SLP115

CYYC;2009-03-22 06:22;CYYC 220622Z 02005KT 1 3/4SM -SN BR SCT013 OVC020 M03/ RMK SC3SC5

CYYC;2009-03-22 06:52;CYYC 220652Z CCA 02006KT 3/4SM -SN BR OVC014 M03/ RMK SN3SC5 RVR RWY 34 5000FT

CYYC;2009-03-22 07:00;CYYC 220700Z 01005KT 1SM -SN BR BKN014 OVC019 M03/M04 A2977 RMK SN3SC3SC2 /S01/ RVR RWY 34 6000FT SLP117

CYYC;2009-03-22 07:21;CYYC 220721Z CCA 35009KT 5/8SM -SN BR OVC011 M04/ RMK SN6SC2 RVR RWY 34 4000FT

CYYC;2009-03-22 08:00;CYYC 220800Z 35011KT 3/8SM SN FZFG VV003 M04/M04 A2973 RMK SN8 RVR RWY 34 2600FT /S04/ SLP105

CYYC;2009-03-22 09:00;CYYC 220900Z CCA 36008KT 1SM -SN BR BKN010 OVC021 M04/M04 A2973 RESN RMK SN2SC5SC2 RVR RWY 6000FT /S06/ SLP117

CYYC;2009-03-22 10:00;CYYC 221000Z 36011KT 1 1/4SM -SN BR FEW010 OVC024 M04/M05 A2971 RMK SC2SC6 /S07/ SLP112

CYYC;2009-03-22 10:52;CYYC 221052Z 36009KT 1 1/2SM -SN BR OVC024 M05/ RMK SC8

CYYC;2009-03-22 11:00;CYYC 221100Z 01009KT 1 3/4SM -SN BR OVC024 M05/M05 A2969 RMK SC8 /S08/ SLP105

CYYC;2009-03-22 11:34;CYYC 221134Z CCA 36014KT 3/4SM -SN BR BKN018 OVC024 M05/ RMK SN3SC2SC2 RVR RWY 34 3500FT

CYYC;2009-03-22 12:00;CYYC 221200Z 35014KT 2SM -SN BR SCT018 OVC026 M05/M06 A2968 RMK SC3SC5 SNOW COVER/MUCH LOOSE /S10/ SLP103

CYYC;2009-03-22 13:00;CYYC 221300Z 34011G16KT 1 3/4SM -SN BR OVC025 M05/M06 A2968 RMK SC8 SLP103

CYYC;2009-03-22 13:14;CYYC 221314Z 33011KT 1 1/4SM -SN BR OVC026 M05/ RMK SC8

CYYC;2009-03-22 13:51;CYYC 221351Z CCA 32011KT 1SM -SN BR FEW007 FEW020 OVC027 M05/ RMK SC2SC1SC6 RVR RWY28 6000FT

CYYC;2009-03-22 14:00;CYYC 221400Z 33011KT 1 1/4SM -SN BR FEW007 FEW020 OVC027 M05/M06 A2969 RMK SC2SC1SC6 RESN/S02/ SLP105

CYYC;2009-03-22 14:12;CYYC 221412Z 32010KT 1 1/4SM -SN BR BKN007 OVC027 M05/ RMK SC6SC2

CYYC;2009-03-22 15:00;CYYC 221500Z 33008KT 1 1/4SM -SN BR OVC007 M05/M05 A2971 RMK SC8 /S03/ SLP114

CYYC;2009-03-22 15:38;CYYC 221538Z 35011KT 1SM -SN BR OVC005 M05/ RMK SC8 RVR RWY34 6000FT

CYYC;2009-03-22 16:00;CYYC 221600Z 34011KT 3/4SM -SN BR OVC005 M05/M05 A2972 RMK SN2SC6 /S04/RVR RWY28 450OFT SLP117

CYYC;2009-03-22 16:22;CYYC 221622Z 35014KT 1SM -SN BR SCT005 OVC008 M04/ RMK SC4SC4 RVR RWY28 6000FT

CYYC;2009-03-22 16:25;CYYC 221625Z 34013KT 1 1/2SM -SN BR SCT005 BKN009 OVC015 M04/ RMK SC4SC3SC1

CYYC;2009-03-22 16:31;CYYC 221631Z 34014KT 3SM -SN BR SCT006 BKN010 OVC015 M04/ RMK SC3SC3SC2

CYYC;2009-03-22 16:45;CYYC 221645Z 34012KT 3SM -SN BR FEW006 SCT010 BKN025 OVC044 M04/ RMK SC2SC2SC2SC2

CYYC;2009-03-22 17:00;CYYC 221700Z CCA 32011KT 5SM -SN DRSN BR FEW010 SCT025 OVC044 M04/M05 A2972 RMK SC2SC2SC5 /S05/ SLP117

CYYC;2009-03-22 17:20;CYYC 221720Z 34015KT 2 1/2SM -SN BLSN SCT010 OVC044 M04/ RMK SC4SC4

CYYC;2009-03-22 17:25;CYYC 221725Z 34014KT 1 1/2SM -SN BLSN SCT008 BKN020 OVC044 M04/ RMK SC4SC2SC2

CYYC;2009-03-22 18:00;CYYC 221800Z 34015KT 1 1/2SM -SN BLSN BKN008 OVC020 M04/M05 A2970 RMK SC6SC2 /S06/ SLP112

CYYC;2009-03-22 18:20;CYYC 221820Z 34016KT 3SM -SN BLSN BKN009 OVC020 M04/ RMK SC6SC2

CYYC;2009-03-22 18:32;CYYC 221832Z 34016KT 5SM -SN BLSN BKN010 OVC020 M03/ RMK SC5SC2

CYYC;2009-03-22 18:47;CYYC 221847Z 35016KT 8SM -SN BKN012 BKN020 OVC075 M03/ RMK SC5SC2AC0 BLSN

CYYC;2009-03-22 19:00;CYYC 221900Z 35017KT 15SM -SN BKN012 BKN020 OVC070 M03/M05 A2970 RMK SC5SC1AC0 BLSN/S07/ SLP111

CYYC;2009-03-22 19:22;CYYC 221922Z 36014KT 25SM SCT012 BKN020 BKN075 M03/ RMK SC4SC1AC0

CYYC;2009-03-22 19:26;CYYC 221926Z 36016KT 20SM -SN BKN012 BKN020 BKN075 M03/ RMK SC5SC1AC0

CYYC;2009-03-22 20:00;CYYC 222000Z 34017KT 20SM -SN BKN012 OVC020 M03/M06 A2971 RMK SC6SC2 BLSN SLP115

CYYC;2009-03-22 21:00;CYYC 222100Z 36020G25KT 25SM SCT014 BKN180 BKN250 M03/M05 A2969 RMK SC4AC0CI0 SLP109

CYYC;2009-03-22 22:00;CYYC 222200Z 36017KT 25SM SCT010 OVC040 M03/M05 A2974 RMK SC4SC4 SLP124

CYYC;2009-03-22 22:32;CYYC 222232Z 35015KT 25SM BKN012 OVC040 M03/ RMK SC6SC2

CYYC;2009-03-22 23:00;CYYC 222300Z 35017KT 25SM BKN012 OVC039 M03/M05 A2978 RMK SC6SC2 SLP134

CYYC;2009-03-23 00:00;CYYC 230000Z 36020KT 25SM FEW015 OVC048 M03/M05 A2979 RMK SC2SC6 SLP145

CYYC;2009-03-23 01:00;CYYC 230100Z CCA 35022G27KT 25SM DRSN FEW015 FEW045 OVC050 M04/M06 A2982 RMK CF1SC1SC6 SLP152

CYYC;2009-03-23 02:00;CYYC 230200Z 35022G27KT 15SM DRSN SCT020 BKN080 M04/M06 A2984 RMK SC2AC3 SLP158

CYYC;2009-03-23 02:50;CYYC 230250Z 35021G30KT 15SM -SN DRSN BKN020 M04/ RMK SC6

CYYC;2009-03-23 03:00;CYYC 230300Z 35021G28KT 15SM -SN DRSN BKN020 OVC080 M04/M06 A2986 RMK SC6AC1 SLP171

CYYC;2009-03-23 04:00;CYYC 230400Z 36020G26KT 15SM -SN DRSN OVC020 M04/M07 A2989 RMK SC7 SLP178

CYYC;2009-03-23 04:50;CYYC 230450Z 35015KT 15SM DRSN OVC020 M04/ RMK SC7

CYYC;2009-03-23 05:00;CYYC 230500Z 35015KT 15SM DRSN OVC020 M04/M07 A2991 RMK SC7 SLP185

CYYC;2009-03-23 06:00;CYYC 230600Z 34020G27KT 15SM DRSN OVC019 M04/M07 A2992 RMK SC7 SLP189

CYYC;2009-03-23 07:00;CYYC 230700Z 34028KT 15SM DRSN OVC017 M04/M07 A2992 RMK SC7 SLP189

CYYC;2009-03-23 08:00;CYYC 230800Z 34019G25KT 15SM DRSN OVC018 M04/M07 A2993 RMK SC7 SLP192

CYYC;2009-03-23 09:00;CYYC 230900Z 34015G21KT 15SM BKN018 M04/M07 A2993 RMK SC3 SLP191

CYYC;2009-03-23 10:00;CYYC 231000Z 34012KT 15SM SCT018 SCT190 M05/M08 A2996 RMK SC2AC1 SLP199

CYYC;2009-03-23 11:00;CYYC 231100Z 34009KT 15SM SCT020 SCT190 M06/M08 A2998 RMK SC2AC1 SLP206

CYYC;2009-03-23 12:00;CYYC 231200Z 33008KT 15SM BKN020 M07/M09 A3001 RMK SC6 SLP225

CYYC;2009-03-23 13:00;CYYC 231300Z 36011KT 15SM BKN015 M07/M08 A3003 RMK SC6 SLP231

CYYC;2009-03-23 13:10;CYYC 231310Z 35009KT 15SM BKN014 M07/ RMK SC6

CYYC;2009-03-23 14:00;CYYC 231400Z 35009KT 15SM OVC013 M07/M08 A3007 RMK SC7 SLP243

CYYC;2009-03-23 15:00;CYYC 231500Z 35009KT 15SM FEW013 BKN017 M07/M09 A3009 RMK SC2SC4 SLP254

CYYC;2009-03-23 16:00;CYYC 231600Z 36011KT 15SM FEW015 SCT040 BKN090 M07/M09 A3009 RMK SC1SC2AC1 SLP255

CYYC;2009-03-23 17:00;CYYC 231700Z 36007KT 15SM FEW060 M07/M08 A3009 RMK SC0 SLP254

CYYC;2009-03-23 18:00;CYYC 231800Z 36008KT 15SM FEW090 FEW220 M05/M07 A3010 RMK AC1CI1 BOTH CLDS TR SLP254

CYYC;2009-03-23 19:00;CYYC 231900Z 35012KT 20SM FEW110 M03/M08 A3009 RMK AC1 AC TR SLP252

CYYC;2009-03-23 20:00;CYYC 232000Z 35010KT 20SM FEW090 M03/M07 A3009 RMK AC1 AC TR SLP250

CYYC;2009-03-23 21:00;CYYC 232100Z 36006KT 20SM FEW080 M02/M07 A3008 RMK AC1 AC TR SLP242

CYYC;2009-03-23 22:00;CYYC 232200Z 02004KT 20SM FEW080 M01/M06 A3007 RMK AC1 AC TR SLP240

CYYC;2009-03-23 23:00;CYYC 232300Z 05007KT 20SM FEW080 M01/M06 A3007 RMK AC1 AC TR SLP240

CYYC;2009-03-24 00:00;CYYC 240000Z 10006KT 20SM FEW090 FEW230 M02/M06 A3009 RMK AC1CI1 AC+CI TR SLP250

CYYC;2009-03-24 01:00;CYYC 240100Z 04005KT 20SM FEW090 FEW230 M03/M08 A3009 RMK AC1CI0 AC TR SLP250

CYYC;2009-03-24 02:00;CYYC 240200Z 05002KT 15SM FEW100 FEW250 M05/M08 A3009 RMK AC1CI0 SLP252

CYYC;2009-03-24 03:00;CYYC 240300Z 00000KT 15SM FEW100 M05/M08 A3010 RMK AC1 SLP260

CYYC;2009-03-24 04:00;CYYC 240400Z 14002KT 15SM FEW100 M06/M08 A3011 RMK AC1 SLP262

CYYC;2009-03-24 05:00;CYYC 240500Z 18003KT 15SM FEW050 FEW070 M07/M08 A3011 RMK SC1AC1 SC TR SLP261

CYYC;2009-03-24 06:00;CYYC 240600Z 00000KT 15SM FEW020 FEW050 BKN075 M07/M09 A3010 RMK SC1SC1AC6 SC+SC TR SLP259

CYYC;2009-03-24 07:00;CYYC 240700Z 03002KT 15SM SCT020 BKN070 M09/M10 A3009 RMK SC2AC2 SLP256

CYYC;2009-03-24 08:00;CYYC 240800Z 14004KT 15SM BKN016 OVC070 M08/M09 A3009 RMK SC6AC0 SLP254

CYYC;2009-03-24 09:00;CYYC 240900Z 14005KT 15SM OVC020 M06/M08 A3007 RMK SC7 SLP244

CYYC;2009-03-24 10:00;CYYC 241000Z 14006KT 15SM OVC016 M05/M07 A3006 RMK SC8 SLP240

CYYC;2009-03-24 11:00;CYYC 241100Z 14008KT 15SM OVC016 M05/M07 A3005 RMK SC8 SLP235

CYYC;2009-03-24 12:00;CYYC 241200Z CCA 14007KT 5SM BR FEW007 OVC015 M06/M07 A3004 RMK SC1SC7 SNOW COVER/MUCH LOOSE SLP230

CYYC;2009-03-24 12:40;CYYC 241240Z 14007KT 3SM BR SCT007 OVC014 M06/ RMK SC2SC5

CYYC;2009-03-24 13:00;CYYC 241300Z 14007KT 3SM BR BKN007 OVC014 M06/M07 A3004 RMK SC5SC2 SLP231

CYYC;2009-03-24 14:00;CYYC 241400Z 14008KT 4SM BR OVC006 M06/M07 A3004 RMK SC8 SLP230

CYYC;2009-03-24 15:00;CYYC 241500Z 14007KT 3SM BR OVC007 M06/M07 A3004 RMK SC8 SLP235

CYYC;2009-03-24 16:00;CYYC 241600Z 14009KT 3SM BR OVC006 M06/M07 A3003 RMK ST8 SLP232

CYYC;2009-03-24 17:00;CYYC 241700Z 16010KT 3SM BR OVC006 M05/M06 A3001 RMK ST8 SLP227

CYYC;2009-03-24 18:00;CYYC 241800Z 15010KT 4SM BR OVC008 M05/M06 A3000 RMK SC8 SLP222

CYYC;2009-03-24 19:00;CYYC 241900Z 14009KT 4SM BR OVC010 M04/M05 A2999 RMK SC8 SLP218

CYYC;2009-03-24 20:00;CYYC 242000Z 14011KT 6SM BR BKN011 OVC020 M03/M06 A2997 RMK SC6SC2 SLP212

CYYC;2009-03-24 21:00;CYYC 242100Z 15011G16KT 5SM BR BKN012 OVC017 M03/M05 A2994 RMK SC6SC2 SLP198

CYYC;2009-03-24 21:50;CYYC 242150Z 16013KT 7SM SCT016 OVC065 M02/ RMK SC4SC2

CYYC;2009-03-24 22:00;CYYC 242200Z 15013KT 7SM BKN016 OVC065 M02/M05 A2992 RMK SC5SC2 SLP193

CYYC;2009-03-24 23:00;CYYC 242300Z 16012KT 10SM BKN015 OVC025 M02/M05 A2990 RMK SC7SC1 SLP186

CYYC;2009-03-24 23:50;CYYC 242350Z 14011KT 10SM BKN013 OVC020 M02/ RMK SC6SC2

CYYC;2009-03-25 00:00;CYYC 250000Z 17010KT 10SM BKN013 OVC020 M02/M05 A2988 RMK SC7SC1 SLP176

CYYC;2009-03-25 01:00;CYYC 250100Z 15010KT 10SM OVC014 M02/M05 A2987 RMK SC8 SLP173

CYYC;2009-03-25 01:22;CYYC 250122Z 14008KT 10SM BKN016 OVC025 M02/ RMK SC6SC2

CYYC;2009-03-25 02:00;CYYC 250200Z 11009KT 10SM OVC016 M03/M05 A2986 RMK SC8 SLP170

CYYC;2009-03-25 03:00;CYYC 250300Z 12010KT 10SM OVC018 M03/M06 A2985 RMK SC8 SLP167

CYYC;2009-03-25 04:00;CYYC 250400Z 13009KT 12SM OVC020 M03/M06 A2985 RMK SC8 SLP166

CYYC;2009-03-25 05:00;CYYC 250500Z 13010KT 12SM OVC024 M04/M07 A2984 RMK SC8 SLP163

CYYC;2009-03-25 06:00;CYYC 250600Z 12013KT 12SM OVC024 M05/M08 A2983 RMK SC8 SLP161

CYYC;2009-03-25 07:00;CYYC 250700Z 11014KT 12SM BKN015 OVC018 M06/M08 A2982 RMK SC7SC1 SLP157

CYYC;2009-03-25 08:00;CYYC 250800Z 11010KT 10SM FEW008 OVC010 M07/M08 A2982 RMK SC2SC6 SLP156

CYYC;2009-03-25 09:00;CYYC 250900Z 10008KT 10SM OVC010 M08/M09 A2981 RMK SC8 SLP153

CYYC;2009-03-25 09:39;CYYC 250939Z 10007KT 1 3/4SM -SN OVC016 M08/ RMK SN1SC7

CYYC;2009-03-25 10:00;CYYC 251000Z 10006KT 2 1/4SM -SN OVC017 M09/M10 A2980 RMK SC8 SLP151

CYYC;2009-03-25 11:00;CYYC 251100Z 10005KT 2 1/2SM -SN BKN017 OVC028 M09/M10 A2979 RMK SC6SC2 SLP149

CYYC;2009-03-25 12:00;CYYC 251200Z 08005KT 2 1/2SM -SN BKN021 OVC038 M10/M11 A2981 RMK SC6SC2 VIS S-W 3/ SNOW COVER/MUCH LOOSE SLP155

CYYC;2009-03-25 13:00;CYYC 251300Z 05004KT 2 1/2SM -SN FEW015 OVC030 M10/M11 A2982 RMK SC2SC6 SLP159

CYYC;2009-03-25 13:30;CYYC 251330Z 04005KT 1 1/2SM -SN SCT010 OVC028 M10/ RMK SC3SC5

CYYC;2009-03-25 14:00;CYYC 251400Z 02005KT 1 1/2SM -SN FEW011 OVC027 M10/M11 A2984 RMK SC2SC6 SLP165

CYYC;2009-03-25 14:49;CYYC 251449Z 02008KT 4SM -SN FEW011 OVC031 M10/ RMK SC2SC6

CYYC;2009-03-25 15:00;CYYC 251500Z 03010KT 5SM -SN FEW009 BKN031 OVC058 M10/M11 A2987 RMK SC2SC4SC2 SLP180

CYYC;2009-03-25 15:27;CYYC 251527Z 03010KT 4SM -SN DRSN BKN008 OVC031 M10/ RMK SC5SC3

CYYC;2009-03-25 16:00;CYYC 251600Z CCA 01010KT 5SM -SN BKN008 BKN030 OVC080 M10/M11 A2990 RMK SC4SC2AC2 HALO SLP190

CYYC;2009-03-25 16:45;CYYC 251645Z 35011KT 15SM FEW010 FEW030 BKN077 OVC220 M09/ RMK SC2SC1AC3CS2

CYYC;2009-03-25 17:00;CYYC 251700Z 35011KT 20SM FEW010 FEW030 BKN090 OVC220 M09/M12 A2993 RMK SC1SC1AC3CS2 SLP199

CYYC;2009-03-25 18:00;CYYC 251800Z 34015KT 20SM DRSN FEW010 FEW030 OVC080 M08/M12 A2996 RMK SC1SC1AC7 SLP211

CYYC;2009-03-25 19:00;CYYC 251900Z 36022KT 20SM DRSN FEW015 FEW075 OVC100 M08/M12 A2998 RMK SC1AC2AC5 SLP218

CYYC;2009-03-25 20:00;CYYC 252000Z CCA 35024KT 20SM DRSN FEW015 FEW075 OVC120 M07/M12 A3001 RMK SC1AC2AC5 HALO / AS ASOCTD SLP225

CYYC;2009-03-25 21:00;CYYC 252100Z 35024KT 20SM DRSN FEW015 FEW075 BKN110 M07/M12 A3003 RMK SC1AC1AC6 SLP237

CYYC;2009-03-25 22:00;CYYC 252200Z 35021KT 30SM DRSN FEW015 FEW120 BKN250 M06/M11 A3006 RMK SC1AC2CS2 SH DIST SW SLP246

CYYC;2009-03-25 23:00;CYYC 252300Z 36023KT 30SM DRSN FEW015 BKN120 BKN250 M06/M12 A3008 RMK CU1AC5CS0 SLP254

CYYC;2009-03-26 00:00;CYYC 260000Z 36020KT 30SM DRSN FEW018 SCT120 BKN250 M06/M11 A3011 RMK CU1AC2CS0 SLP268

CYYC;2009-03-26 01:00;CYYC 260100Z 35014KT 30SM FEW018 SCT170 BKN250 M07/M12 A3014 RMK CU1AC1CI0 SLP278

CYYC;2009-03-26 02:00;CYYC 260200Z 35013KT 20SM FEW040 FEW180 SCT250 M08/M12 A3017 RMK SC1AC1CI1 SC+AC TR SLP287

CYYC;2009-03-26 03:00;CYYC 260300Z 32010KT 15SM FEW110 FEW250 M10/M14 A3019 RMK AC1CI0 AC TR SLP302

CYYC;2009-03-26 04:00;CYYC 260400Z 33009KT 15SM SKC M10/M14 A3021 RMK SLP308

CYYC;2009-03-26 05:00;CYYC 260500Z 34010KT 15SM SKC M11/M15 A3024 RMK SLP315

CYYC;2009-03-26 06:00;CYYC 260600Z 34007KT 15SM SKC M12/M15 A3025 RMK SLP322

CYYC;2009-03-26 07:00;CYYC 260700Z 25003KT 15SM SKC M12/M16 A3026 RMK SLP327

CYYC;2009-03-26 08:00;CYYC 260800Z 31006KT 15SM SKC M12/M16 A3027 RMK SLP330

CYYC;2009-03-26 09:00;CYYC 260900Z 32009KT 15SM SKC M13/M17 A3027 RMK SLP331

CYYC;2009-03-26 10:00;CYYC 261000Z 00000KT 15SM SKC M14/M16 A3027 RMK SLP331

CYYC;2009-03-26 11:00;CYYC 261100Z 00000KT 15SM SKC M15/M17 A3027 RMK SLP331

CYYC;2009-03-26 12:00;CYYC 261200Z 00000KT 15SM FEW240 M15/M18 A3027 RMK CI1 SNOW COVER/MEDIUM PACK SLP333

CYYC;2009-03-26 13:00;CYYC 261300Z 18002KT 30SM FEW240 M16/M18 A3027 RMK CI1 SLP331

CYYC;2009-03-26 14:00;CYYC 261400Z 22004KT 40SM FEW240 M15/M17 A3027 RMK CI1 SLP331

CYYC;2009-03-26 15:00;CYYC 261500Z 19006KT 40SM FEW140 FEW240 M12/M15 A3027 RMK AC1CI1 AC TR SLP331

CYYC;2009-03-26 16:00;CYYC 261600Z 21007KT 40SM FEW140 FEW240 M09/M15 A3026 RMK AC1CI1 AC TR SLP329

CYYC;2009-03-26 17:00;CYYC 261700Z CCA 19009KT 40SM FEW140 FEW240 M07/M13 A3024 RMK AC1CI1 AC TR SLP321

CYYC;2009-03-26 18:00;CYYC 261800Z 18014KT 40SM FEW240 M05/M14 A3021 RMK CI0 SLP301

CYYC;2009-03-26 19:00;CYYC 261900Z 17010G16KT 40SM FEW070 FEW180 FEW220 M03/M14 A3019 RMK AC1AC1CI1 ALL CLDS TR SLP297

CYYC;2009-03-26 20:00;CYYC 262000Z 17018KT 40SM FEW180 FEW230 M03/M12 A3016 RMK AC1CI1 AC+CI TR SLP287

CYYC;2009-03-26 21:00;CYYC 262100Z 18018KT 40SM FEW180 FEW230 M02/M11 A3013 RMK AC1CI1 SLP272

CYYC;2009-03-26 22:00;CYYC 262200Z 17017KT 40SM FEW230 M01/M10 A3010 RMK CI1 SLP263

CYYC;2009-03-26 23:00;CYYC 262300Z 17014KT 40SM FEW230 M01/M10 A3006 RMK CI1 SLP253

CYYC;2009-03-27 00:00;CYYC 270000Z 16017KT 40SM FEW150 SCT200 M01/M10 A3004 RMK AC1CI1 AC TR SLP241

CYYC;2009-03-27 01:00;CYYC 270100Z 17016KT 40SM FEW190 SCT210 M02/M10 A3000 RMK AC0CI1 SLP230

CYYC;2009-03-27 02:00;CYYC 270200Z 17014KT 30SM FEW190 FEW250 M03/M09 A2997 RMK AC1CI1 AC TR SLP220

CYYC;2009-03-27 03:00;CYYC 270300Z 18008KT 15SM FEW250 M04/M09 A2993 RMK CI1 SLP206

CYYC;2009-03-27 04:00;CYYC 270400Z 18007KT 15SM FEW250 M05/M09 A2990 RMK CI1 SLP197

CYYC;2009-03-27 05:00;CYYC 270500Z 18004KT 15SM FEW250 M07/M10 A2986 RMK CI0 SLP184

CYYC;2009-03-27 06:00;CYYC 270600Z 19005KT 15SM FEW250 M07/M10 A2982 RMK CI0 SLP160

CYYC;2009-03-27 07:00;CYYC 270700Z 18004KT 15SM FEW170 FEW250 M07/M10 A2979 RMK AC1CI1 SLP150

CYYC;2009-03-27 08:00;CYYC 270800Z 18003KT 15SM FEW200 SCT250 M06/M10 A2975 RMK CI2CI2 SLP138

CYYC;2009-03-27 09:00;CYYC 270900Z 18003KT 15SM SCT160 BKN220 M05/M10 A2973 RMK AC3CI2 SLP123

CYYC;2009-03-27 10:00;CYYC 271000Z 18006KT 15SM SCT140 BKN180 OVC240 M02/M10 A2971 RMK AC3AC2CI2 SLP116

CYYC;2009-03-27 11:00;CYYC 271100Z 25004KT 15SM SCT140 BKN180 OVC220 01/M09 A2970 RMK AC3AC2CI2 SLP113

CYYC;2009-03-27 12:00;CYYC 271200Z 04002KT 15SM FEW150 SCT180 OVC210 M00/M08 A2969 RMK AC2AC2CI4 SNOW COVER/MEDIUM PACK SLP101

CYYC;2009-03-27 13:00;CYYC 271300Z 30009KT 30SM FEW150 BKN240 02/M08 A2969 RMK AC2CI5 SLP099

CYYC;2009-03-27 14:00;CYYC 271400Z 28016KT 40SM FEW040 SCT120 BKN240 03/M07 A2969 RMK CU1AC2CI2 SLP101

CYYC;2009-03-27 15:00;CYYC 271500Z 28019G24KT 40SM FEW044 FEW120 SCT240 03/M08 A2971 RMK CU1AC2CI1 CU TR SLP105

CYYC;2009-03-27 16:00;CYYC 271600Z 27014KT 40SM FEW044 FEW120 04/M07 A2971 RMK CU1AC2 SLP107

CYYC;2009-03-27 17:00;CYYC 271700Z CCA 29013G18KT 40SM FEW050 FEW160 SCT240 05/M07 A2974 RMK CU1AC2CI1 CU TR SLP114

CYYC;2009-03-27 18:00;CYYC 271800Z 35018G25KT 40SM FEW050 SCT080 BKN150 BKN240 02/M06 A2979 RMK SC2AC2AC1CI0 SLP139

CYYC;2009-03-27 19:00;CYYC 271900Z 01016G21KT 40SM FEW045 FEW065 SCT090 BKN110 01/M03 A2981 RMK SC1SC2AC2AC0 SLP144

CYYC;2009-03-27 20:00;CYYC 272000Z 03012KT 40SM FEW060 SCT090 BKN230 02/M05 A2980 RMK SC2AC1CI0 SLP142

CYYC;2009-03-27 21:00;CYYC 272100Z 05007KT 40SM FEW060 FEW090 02/M07 A2979 RMK SC2AC1 SLP137

CYYC;2009-03-27 22:00;CYYC 272200Z 12006KT 40SM FEW060 SCT090 03/M06 A2977 RMK SC1AC2 SLP132

CYYC;2009-03-27 23:00;CYYC 272300Z 14006KT 40SM FEW060 FEW090 SCT180 BKN200 03/M06 A2978 RMK SC1AC2AC1CI0 SLP134

CYYC;2009-03-28 00:00;CYYC 280000Z 14010KT 40SM FEW060 FEW090 SCT180 BKN210 02/M05 A2978 RMK SC1AC2AC1CI0 SC TR SLP127

CYYC;2009-03-28 01:00;CYYC 280100Z 18007KT 40SM FEW060 SCT180 BKN210 01/M04 A2977 RMK SC1AC2CI1 SC TR SLP123

CYYC;2009-03-28 02:00;CYYC 280200Z 17007KT 20SM FEW080 FEW190 SCT250 00/M03 A2976 RMK AC1AC1CI1 SLP119

CYYC;2009-03-28 03:00;CYYC 280300Z 18008KT 15SM FEW080 FEW190 BKN210 M00/M03 A2976 RMK AC1AC2CI4 SLP118

CYYC;2009-03-28 04:00;CYYC 280400Z 20004KT 15SM FEW190 OVC230 M00/M03 A2976 RMK AC2CI6 SLP117

CYYC;2009-03-28 05:00;CYYC 280500Z 30004KT 15SM SCT140 OVC230 00/M06 A2976 RMK AC4CI3 SLP119

CYYC;2009-03-28 06:00;CYYC 280600Z 02004KT 15SM SCT120 OVC230 M02/M05 A2977 RMK AC4CI3 SLP126

CYYC;2009-03-28 07:00;CYYC 280700Z 34012KT 15SM SCT160 OVC220 M03/M06 A2978 RMK AC4CI3 SLP129

CYYC;2009-03-28 08:00;CYYC 280800Z 34010KT 15SM BKN160 OVC220 M03/M05 A2981 RMK AC6CI2 SLP136

CYYC;2009-03-28 09:00;CYYC 280900Z 02011KT 3SM BR OVC002 M03/M03 A2982 RMK ST8 SLP142

CYYC;2009-03-28 10:00;CYYC 281000Z 05012KT 6SM BR OVC005 M03/M03 A2981 RMK ST8 SLP139

CYYC;2009-03-28 11:00;CYYC 281100Z 04006KT 4SM BR OVC005 M03/M03 A2981 RMK ST8 SLP141

CYYC;2009-03-28 11:11;CYYC 281111Z 05006KT 4SM BR OVC007 M03/ RMK ST8 VIS N 3

CYYC;2009-03-28 12:00;CYYC 281200Z 06003KT 4SM BR BKN007 OVC017 M03/M03 A2982 RMK ST7SC1 SNOW COVER/MEDIUM PACK SLP145

CYYC;2009-03-28 12:27;CYYC 281227Z 05002KT 2 1/2SM BR BKN004 OVC009 M03/ RMK ST7SC1 CIG 200 FT EAST

CYYC;2009-03-28 13:00;CYYC 281300Z 09002KT 1 1/2SM -SN BR BKN004 OVC011 M03/M03 A2983 RMK ST6SC2 SLP146

CYYC;2009-03-28 13:13;CYYC 281313Z 10003KT 1SM -SN BR BKN004 BKN011 OVC028 M03/ RMK ST5SC2SC1 RVR RWY16 6000 FT

CYYC;2009-03-28 13:24;CYYC 281324Z 09003KT 5/8SM -SN BR BKN008 OVC019 M03/ RMK SN2ST3SC3 RVR RWY16 6000 FT

CYYC;2009-03-28 14:00;CYYC 281400Z 13003KT 1SM -SN BR BKN007 OVC016 M03/M03 A2982 RMK ST6SC2 RVR RWY 16 6000 FT SLP144

CYYC;2009-03-28 15:00;CYYC 281500Z 14003KT 1SM -SN BR BKN009 BKN020 OVC030 M03/M03 A2982 RMK ST6SC2SC1 SLP147

CYYC;2009-03-28 15:10;CYYC 281510Z 13003KT 3SM -SN BR FEW004 SCT010 OVC027 M03/ RMK ST2SC2SC4

CYYC;2009-03-28 16:00;CYYC 281600Z 13004KT 3SM -SN BR FEW008 SCT010 OVC020 M03/M03 A2981 RMK ST2SC2SC4 SLP144

CYYC;2009-03-28 16:13;CYYC 281613Z CCA 14005KT 3SM -SN BR BKN007 OVC020 M03/ RMK ST5SC3

CYYC;2009-03-28 17:00;CYYC 281700Z 15005KT 3SM -SN BR BKN009 OVC020 M02/M04 A2980 RMK ST6SC2 SLP141

CYYC;2009-03-28 18:00;CYYC 281800Z 14007KT 5SM -SN BR OVC007 M02/M03 A2978 RMK ST8 /S01/ SLP134

CYYC;2009-03-28 19:00;CYYC 281900Z 13007KT 5SM -SN BR BKN009 OVC027 M01/M03 A2976 RMK ST5SC2 SLP127

CYYC;2009-03-28 19:12;CYYC 281912Z 15008KT 7SM SCT009 OVC026 M01/ RMK ST4SC3

CYYC;2009-03-28 19:44;CYYC 281944Z 16009KT 8SM -SN OVC016 M01/ RMK SC8 PCPN VRY LGT

CYYC;2009-03-28 20:00;CYYC 282000Z 16012KT 8SM -SN BKN017 OVC026 M01/M04 A2973 RMK SC5SC2 PCPN VRY LGT SLP120

CYYC;2009-03-28 20:50;CYYC 282050Z 14012KT 25SM BKN013 OVC020 M01/ RMK SC5SC3

CYYC;2009-03-28 21:00;CYYC 282100Z 14012KT 25SM BKN012 OVC020 M01/M03 A2970 RMK SC5SC3 SLP108

CYYC;2009-03-28 21:36;CYYC 282136Z 14010KT 30SM SCT012 OVC020 M01/ RMK SC3SC4

CYYC;2009-03-28 22:00;CYYC 282200Z 17011KT 30SM FEW013 OVC020 M00/M03 A2968 RMK SC2SC6 SLP100

CYYC;2009-03-28 23:00;CYYC 282300Z 15010G15KT 30SM OVC017 M01/M04 A2966 RMK SC8 VIRGA N-E SLP095

CYYC;2009-03-29 00:00;CYYC 290000Z 17009KT 30SM OVC017 M01/M04 A2964 RMK SC8 SLP087

CYYC;2009-03-29 01:00;CYYC 290100Z 13007KT 30SM OVC017 M01/M03 A2964 RMK SC8 VIRGA N-E SLP084

CYYC;2009-03-29 01:51;CYYC 290151Z 09006KT 25SM FEW009 OVC022 M00/ RMK SF1SC7

CYYC;2009-03-29 02:00;CYYC 290200Z 07009KT 25SM FEW009 OVC022 M01/M02 A2963 RMK SF1SC7 SLP081

CYYC;2009-03-29 03:00;CYYC 290300Z 07006KT 9SM FEW009 FEW015 OVC026 M01/M02 A2962 RMK SF1SC1SC6 SLP080

CYYC;2009-03-29 03:21;CYYC 290321Z 06006KT 4SM -SN BR FEW009 FEW015 OVC026 M02/ RMK SF1SC2SC6

CYYC;2009-03-29 03:40;CYYC 290340Z 05007KT 1 1/2SM -SN BR SCT016 OVC022 M02/ RMK SC3SC5

CYYC;2009-03-29 04:00;CYYC 290400Z 05007KT 1 1/4SM -SN BR BKN016 OVC022 M02/M02 A2962 RMK SC6SC2 /S01/ SLP079

CYYC;2009-03-29 04:46;CYYC 290446Z CCA 06008KT 3/4SM -SN BR OVC015 M02/ RMK SN2SC6 RVR RWY 34 5000FT

CYYC;2009-03-29 05:00;CYYC 290500Z 05009KT 3/4SM -SN BR OVC013 M02/M02 A2961 RMK SN2SC6 /S03/ RVR RWY 34 4000FT SLP076

CYYC;2009-03-29 05:29;CYYC 290529Z CCA 06009KT 3/4SM -SN BR SCT009 OVC015 M02/ RMK SN2SC2SC5 RVR RWY 34 4000FT

CYYC;2009-03-29 06:00;CYYC 290600Z 06009KT 3/4SM -SN BR SCT009 OVC014 M03/M03 A2961 RMK SN2SC2SC5 /S05/ RVR RWY 34 4500FT SLP075

CYYC;2009-03-29 07:00;CYYC 290700Z 05012KT 1 1/4SM -SN BR FEW009 BKN014 OVC020 M03/M03 A2961 RMK SC2SC5SC2 /S01/ SLP075

CYYC;2009-03-29 08:00;CYYC 290800Z 05013KT 1 3/4SM -SN BR FEW009 BKN014 OVC021 M03/M04 A2961 RMK SC1SC4SC3 SLP077

CYYC;2009-03-29 08:17;CYYC 290817Z 05014KT 3SM -SN BR SCT014 OVC038 M03/ RMK SC4SC4

CYYC;2009-03-29 08:44;CYYC 290844Z 04015KT 2SM -SN BR FEW010 SCT014 OVC023 M04/ RMK SC2SC2SC4

CYYC;2009-03-29 08:53;CYYC 290853Z 04015KT 1 1/4SM -SN BR FEW010 BKN014 OVC022 M04/ RMK SC2SC2SC3

CYYC;2009-03-29 09:00;CYYC 290900Z 04014KT 1 1/4SM -SN BR FEW010 BKN014 OVC020 M04/M04 A2962 RMK SC2SC2SC3 /S02/ SLP079

CYYC;2009-03-29 10:00;CYYC 291000Z 04018KT 3/4SM -SN BR OVC014 M04/M04 A2964 RMK SN2SC6 /S04/ RVR RWY 34 4000FT SLP084

CYYC;2009-03-29 10:46;CYYC 291046Z CCA 04019G24KT 1SM -SN BLSN BR FEW009 BKN015 OVC023 M04/ RMK SC1SC5SC2 RVR RWY 34 5000FT

CYYC;2009-03-29 11:00;CYYC 291100Z CCA 04020G25KT 3/4SM -SN BLSN BR FEW009 BKN015 OVC023 M04/M05 A2966 RMK SN2SC1SC3SC2 RVR RWY 34 4500FT /S06/ SLP093

CYYC;2009-03-29 11:31;CYYC 291131Z CCA 04018KT 3/8SM SN FZFG OVC013 M04/ RMK SN6SC2 RVR RWY 34 2200FT

CYYC;2009-03-29 12:00;CYYC 291200Z 05015KT 3/8SM SN FZFG OVC014 M04/M05 A2969 RMK SN6SC2 SNOW COVER/MUCH LOOSE RVR RWY 34 3500FT /S07/ SLP105

CYYC;2009-03-29 12:14;CYYC 291214Z CCA 05015KT 3/4SM -SN BR BKN014 OVC020 M04/ RMK SN2SC3SC2 RVR RWY 34 6000FT

CYYC;2009-03-29 12:24;CYYC 291224Z 02014KT 1 3/4SM -SN BR FEW009 BKN013 OVC020 M04/ RMK SC2SC4SC2

CYYC;2009-03-29 12:40;CYYC 291240Z 02015KT 3SM -SN BR BKN009 OVC013 M04/ RESN RMK SC5SC3

CYYC;2009-03-29 13:00;CYYC 291300Z 02014KT 5SM -SN BR BKN009 BKN013 OVC021 M04/M05 A2972 RESN RMK SC5SC2SC2 /S01/ SLP114

CYYC;2009-03-29 13:16;CYYC 291316Z 01014KT 2 1/2SM -SN BR SCT009 BKN013 OVC025 M04/ RMK SC3SC3SC2

CYYC;2009-03-29 13:24;CYYC 291324Z 01014KT 1SM -SN BR SCT009 BKN013 OVC021 M04/ RMK SC3SC3SC2 RVR RWY 34 6000FT

CYYC;2009-03-29 13:30;CYYC 291330Z 36015G21KT 2SM -SN BR FEW009 BKN013 OVC045 M04/ RMK SC2SC4SC2

CYYC;2009-03-29 13:40;CYYC 291340Z 36015KT 4SM -SN BR FEW005 SCT011 BKN020 OVC045 M04/ RMK SC2SC2SC2SC2

CYYC;2009-03-29 13:54;CYYC 291354Z 36015KT 15SM -SN FEW013 SCT024 OVC040 M05/ RMK SC2SC2SC4 PCPN VRY LGT

CYYC;2009-03-29 14:00;CYYC 291400Z 36016KT 15SM -SN FEW012 SCT024 OVC040 M05/M06 A2975 RMK SC2SC2SC4 PCPN VRY LGT SLP124

CYYC;2009-03-29 14:17;CYYC 291417Z 36015KT 25SM FEW024 BKN040 OVC060 M05/ RMK SC2SC5SC2

CYYC;2009-03-29 15:00;CYYC 291500Z 36013KT 25SM SCT040 OVC044 M05/M06 A2980 RMK SC3SC5 SLP143

CYYC;2009-03-29 16:00;CYYC 291600Z 35013KT 25SM SCT050 BKN086 BKN160 OVC200 M05/M07 A2983 RMK SC4AC2AC1CI0 SLP154

CYYC;2009-03-29 17:00;CYYC 291700Z 35013KT 30SM SCT082 OVC160 M04/M07 A2986 RMK AC4AC2 SLP163

CYYC;2009-03-29 18:00;CYYC 291800Z 35011KT 30SM FEW082 OVC120 M03/M07 A2989 RMK AC2AC4 SLP175

CYYC;2009-03-29 19:00;CYYC 291900Z 35011KT 30SM BKN080 OVC120 M02/M06 A2990 RMK AC6AC2 SLP178

CYYC;2009-03-29 20:00;CYYC 292000Z 34012KT 30SM FEW020 FEW080 OVC120 M01/M06 A2991 RMK SC1AC2AC2 SLP182

CYYC;2009-03-29 21:00;CYYC 292100Z 36014KT 30SM FEW025 SCT080 BKN160 M01/M08 A2994 RMK SC1AC1AC0 DIST SH SW SLP190

CYYC;2009-03-29 22:00;CYYC 292200Z 35012KT 30SM FEW030 FEW130 FEW250 M01/M09 A2996 RMK SC1AC0CI0 DIST SH SW-W SLP196

CYYC;2009-03-29 23:00;CYYC 292300Z 36011KT 30SM FEW036 FEW130 SCT250 M01/M09 A2998 RMK SC1AC1CI0 DIST SH S-SW SLP203

CYYC;2009-03-30 00:00;CYYC 300000Z 34007KT 30SM FEW040 FEW180 FEW250 M01/M10 A3000 RMK SC1AC1CI0 DIST SH SW SLP212

CYYC;2009-03-30 01:00;CYYC 300100Z 33007KT 30SM FEW030 FEW110 FEW130 BKN210 M02/M10 A3000 RMK SC1AC1AC1CI0 DIST SH SW SLP214

CYYC;2009-03-30 02:00;CYYC 300200Z 30004KT 40SM SCT120 BKN210 M02/M10 A3001 RMK AC1CI1 SLP216

CYYC;2009-03-30 03:00;CYYC 300300Z 25002KT 15SM FEW120 BKN210 M03/M10 A3002 RMK AC1CI0 SLP224

CYYC;2009-03-30 04:00;CYYC 300400Z 18002KT 15SM FEW120 FEW220 M05/M11 A3002 RMK AC1CI0 SLP225

CYYC;2009-03-30 05:00;CYYC 300500Z 27002KT 15SM SCT140 M08/M12 A3003 RMK AC2 SLP227

CYYC;2009-03-30 06:00;CYYC 300600Z 20003KT 15SM FEW140 M10/M13 A3001 RMK AC1 SLP229

CYYC;2009-03-30 07:00;CYYC 300700Z 20006KT 15SM FEW140 M09/M12 A3000 RMK AC1 SLP224

CYYC;2009-03-30 08:00;CYYC 300800Z 20007KT 15SM SKC M09/M12 A2999 RMK SLP222

CYYC;2009-03-30 09:00;CYYC 300900Z 20008KT 15SM SKC M09/M11 A2997 RMK SLP211

CYYC;2009-03-30 10:00;CYYC 301000Z 21008KT 15SM SKC M08/M12 A2996 RMK SLP207

CYYC;2009-03-30 11:00;CYYC 301100Z 18005KT 15SM FEW220 M11/M14 A2994 RMK CI1 SLP202

CYYC;2009-03-30 12:00;CYYC 301200Z 21005KT 15SM SCT240 M11/M13 A2993 RMK CI0 SLP199

CYYC;2009-03-30 13:00;CYYC 301300Z 20005KT 30SM FEW100 BKN210 M11/M13 A2992 RMK AC1CI0 SLP195

CYYC;2009-03-30 14:00;CYYC 301400Z 20006KT 40SM BKN240 M11/M13 A2991 RMK CI1 SLP191

CYYC;2009-03-30 15:00;CYYC 301500Z 21002KT 40SM FEW170 BKN230 M08/M12 A2990 RMK AC2CI3 SLP187

CYYC;2009-03-30 16:00;CYYC 301600Z 21002KT 40SM FEW050 FEW140 BKN230 M04/M10 A2988 RMK CU1AC2CI3 CU TR SLP182

CYYC;2009-03-30 17:00;CYYC 301700Z 21007KT 40SM FEW050 FEW160 BKN240 M01/M08 A2987 RMK CU1AC1CI2 CU+AC TR SLP178

CYYC;2009-03-30 18:00;CYYC 301800Z 21004KT 40SM FEW050 SCT230 01/M09 A2985 RMK CU1CI1 CU TR SLP165

CYYC;2009-03-30 19:00;CYYC 301900Z 27013KT 40SM FEW050 FEW250 03/M10 A2983 RMK CU1CI0 CU TR SLP160

CYYC;2009-03-30 20:00;CYYC 302000Z 29014KT 40SM FEW050 FEW110 FEW250 03/M09 A2982 RMK CU1AC1CI1 CU+AC TR SLP157

CYYC;2009-03-30 21:00;CYYC 302100Z 26010KT 30SM FEW055 FEW110 FEW240 04/M09 A2980 RMK CU1AC1CI1 CU+AC TR SLP142

CYYC;2009-03-30 22:00;CYYC 302200Z 27014KT 30SM FEW055 FEW082 SCT240 05/M09 A2978 RMK CU1AC1CI2 CU TR SLP137

CYYC;2009-03-30 23:00;CYYC 302300Z 27013KT 30SM FEW055 FEW082 BKN160 BKN240 04/M09 A2977 RMK CU1AC1AS3CI1 SLP133

CYYC;2009-03-31 00:00;CYYC 310000Z 27012KT 30SM FEW120 BKN190 BKN230 04/M08 A2975 RMK AC2AC3CI2 SLP130

CYYC;2009-03-31 01:00;CYYC 310100Z 27014KT 30SM FEW090 BKN160 BKN240 03/M09 A2975 RMK AC2AC3CI2 SLP128

CYYC;2009-03-31 02:00;CYYC 310200Z 27015KT 30SM SCT090 BKN160 BKN240 02/M09 A2974 RMK AC2AC2CI2 SLP126

CYYC;2009-03-31 03:00;CYYC 310300Z 27013KT 15SM SCT120 BKN150 02/M09 A2974 RMK AC2AC2 SLP126

CYYC;2009-03-31 04:00;CYYC 310400Z 27009KT 15SM BKN090 BKN150 01/M09 A2974 RMK AC6AC0 SLP126

CYYC;2009-03-31 05:00;CYYC 310500Z 27008KT 15SM BKN100 02/M09 A2974 RMK AC5 SLP125

CYYC;2009-03-31 06:00;CYYC 310600Z 27013KT 15SM FEW150 FEW240 01/M10 A2973 RMK AC1CI0 SLP107

CYYC;2009-03-31 07:00;CYYC 310700Z 27013KT 15SM FEW180 01/M10 A2972 RMK AC1 SLP105

CYYC;2009-03-31 08:00;CYYC 310800Z 26012KT 15SM FEW210 00/M10 A2970 RMK CI1 SLP098

CYYC;2009-03-31 09:00;CYYC 310900Z 26012KT 15SM FEW210 00/M10 A2968 RMK CI1 SLP087

CYYC;2009-03-31 10:00;CYYC 311000Z 26010KT 15SM FEW210 00/M10 A2965 RMK CI1 SLP079

CYYC;2009-03-31 11:00;CYYC 311100Z 25007KT 15SM FEW240 00/M10 A2963 RMK CI1 SLP071

CYYC;2009-03-31 12:00;CYYC 311200Z 19006KT 15SM BKN240 M02/M10 A2961 RMK CI2 SLP068

CYYC;2009-03-31 13:00;CYYC 311300Z 20008KT 30SM FEW180 BKN220 M02/M10 A2958 RMK AC2CI1 VIRGA SW SLP058

CYYC;2009-03-31 14:00;CYYC 311400Z 18004KT 40SM FEW140 SCT180 BKN240 M04/M09 A2957 RMK AC2AC1CI2 VIRGA S-SW SLP055

CYYC;2009-03-31 15:00;CYYC 311500Z 19005KT 40SM FEW025 SCT180 BKN220 M01/M08 A2955 RMK CU1AC3CI3 SLP049

CYYC;2009-03-31 16:00;CYYC 311600Z 20003KT 40SM FEW030 FEW180 BKN220 01/M08 A2953 RMK CU1AC1CI2 SLP043

CYYC;2009-03-31 17:00;CYYC 311700Z 24009KT 40SM FEW040 SCT160 BKN210 03/M08 A2951 RMK CU1AC3CI2 VIRGA SE SLP036

CYYC;2009-03-31 18:00;CYYC 311800Z 29006KT 40SM FEW040 SCT090 BKN190 04/M07 A2950 RMK CU1AC3AS4 VIRGA SLP025

CYYC;2009-03-31 19:00;CYYC 311900Z 27017KT 40SM FEW040 SCT070 BKN180 06/M08 A2949 RMK CU1AC2AC3 SLP021

CYYC;2009-03-31 20:00;CYYC 312000Z 32009G15KT 40SM FEW040 SCT080 BKN170 05/M07 A2949 RMK CU1AC4AS3 SH DIST SW SLP022

CYYC;2009-03-31 21:00;CYYC 312100Z 01010KT 40SM FEW040 SCT090 BKN180 05/M08 A2950 RMK CU1AC3AS2 SH DIST SW SLP024

CYYC;2009-03-31 22:00;CYYC 312200Z 02014KT 40SM FEW040 SCT090 BKN180 BKN240 04/M06 A2950 RMK CU1AC1AC1CI0 SH DIST SW SLP024

CYYC;2009-03-31 23:00;CYYC 312300Z 33012KT 40SM FEW040 SCT066 BKN130 BKN180 03/M08 A2951 RMK CU1AC2AC2AC1 SH DIST SW SLP028

CYYC;2009-04-01 01:00;CYYC 010100Z 36010KT 40SM FEW040 BKN095 BKN190 01/M05 A2955 RMK CU1AC5AC1 SH DIST SW SLP047

CYYC;2009-04-01 02:00;CYYC 010200Z 34013KT 20SM FEW040 FEW070 BKN160 BKN220 01/M07 A2957 RMK SC1AC2AC2CI1 SLP052

CYYC;2009-04-01 03:00;CYYC 010300Z 35018KT 15SM BKN048 OVC085 00/M06 A2961 RMK SC6AC2 SLP070

CYYC;2009-04-01 03:51;CYYC 010351Z 34018G25KT 10SM -SN OVC027 M01/ RMK SC8

CYYC;2009-04-01 04:00;CYYC 010400Z 33021KT 10SM -SN BKN033 OVC074 M01/M03 A2964 RMK SC6AC2 SLP081

CYYC;2009-04-01 05:00;CYYC 010500Z 33018KT 15SM -SN FEW020 BKN035 OVC067 M01/M03 A2967 RMK SF1SC7AC1 SN VRY LGT SLP090

CYYC;2009-04-01 05:33;CYYC 010533Z 34018KT 4SM -SN OVC029 M01/ RMK SC8

CYYC;2009-04-01 05:35;CYYC 010535Z 34018KT 3SM -SN BKN012 OVC028 M01/ RMK SC5SC3

CYYC;2009-04-01 05:40;CYYC 010540Z 34019G24KT 2 1/2SM -SN BKN010 OVC023 M02/ RMK SC5SC3

CYYC;2009-04-01 06:00;CYYC 010600Z 34019G24KT 1 3/4SM -SN BKN014 OVC028 M02/M03 A2969 RMK SC6SC2 SLP095

CYYC;2009-04-01 06:13;CYYC 010613Z 34016G21KT 4SM -SN FEW028 OVC067 M02/ RMK SC2AC6

CYYC;2009-04-01 07:00;CYYC 010700Z 35014KT 6SM -SN BKN016 OVC040 M02/M03 A2971 RMK SC6SC2 SLP101

CYYC;2009-04-01 07:29;CYYC 010729Z 34012KT 3SM -SN BKN011 OVC026 M02/ RMK SN2SC6SC1

CYYC;2009-04-01 08:00;CYYC 010800Z 34013KT 3SM -SN BKN010 OVC022 M02/M03 A2973 RMK SN2SC6SC1 VIS NE 11/2 SLP107

CYYC;2009-04-01 09:00;CYYC 010900Z 35013KT 3SM -SN BKN014 OVC022 M02/M03 A2975 RMK SN2SC5SC2 /S01/ SLP113

CYYC;2009-04-01 10:00;CYYC 011000Z 34010KT 8SM -SN BKN012 OVC020 M02/M03 A2976 RMK SC6SC2 SLP116

CYYC;2009-04-01 11:00;CYYC 011100Z 35011G16KT 3SM -SN OVC011 M02/M03 A2977 RMK SN2SC6 VIS S-W 2 SLP119

CYYC;2009-04-01 11:11;CYYC 011111Z 35012KT 1 1/2SM -SN BKN010 OVC018 M03/ RMK SN3SC4SC1

CYYC;2009-04-01 12:00;CYYC 011200Z 33011KT 2 1/2SM -SN BKN010 OVC018 M03/M04 A2978 RMK SN2SC5SC1 /S02/ SNOW COVER/MUCH LOOSE SLP131

CYYC;2009-04-01 12:44;CYYC 011244Z 32009KT 6SM -SN OVC024 M03/ RMK SC8

CYYC;2009-04-01 13:00;CYYC 011300Z 32008KT 5SM -SN FEW024 BKN047 OVC067 M03/M05 A2980 RMK SC2SC6AC1 SLP135

CYYC;2009-04-01 13:37;CYYC 011337Z 33010KT 20SM FEW020 BKN037 OVC090 M03/ RMK SC2SC5AC1

CYYC;2009-04-01 14:00;CYYC 011400Z CCA 32010G15KT 20SM BKN039 BKN080 M03/M05 A2979 RMK SC5AC2 SH S-SW SLP134

CYYC;2009-04-01 15:00;CYYC 011500Z 33009KT 30SM FEW040 FEW052 BKN080 BKN140 M03/M06 A2978 RMK SC1SC2AC2AC1 SLP134

CYYC;2009-04-01 16:00;CYYC 011600Z 32008KT 30SM FEW030 SCT045 SCT140 M03/M07 A2979 RMK SC1SC2AC1 SLP136

CYYC;2009-04-01 17:00;CYYC 011700Z 36008KT 30SM FEW030 SCT055 BKN081 M02/M09 A2978 RMK SC1SC3AC2 SLP132

CYYC;2009-04-01 18:00;CYYC 011800Z 31003KT 30SM FEW030 FEW081 BKN140 M01/M08 A2977 RMK CU1AC2AC1 SLP128

CYYC;2009-04-01 19:00;CYYC 011900Z 10002KT 30SM FEW031 FEW100 BKN240 00/M07 A2974 RMK CU1AC1CI0 SLP119

CYYC;2009-04-01 20:00;CYYC 012000Z CCA 09002KT 30SM SCT034 SCT080 BKN140 M00/M07 A2971 RMK CU3AC1AC2 SH DIST SW SLP111

CYYC;2009-04-01 21:00;CYYC 012100Z 14006KT 30SM SCT024 BKN040 BKN140 00/M06 A2969 RMK CU4SC2AC1 SH DIST SW SLP102

CYYC;2009-04-01 22:00;CYYC 012200Z 18006KT 30SM SCT024 SCT040 SCT180 01/M05 A2968 RMK CU3SC1AC0 SLP098

CYYC;2009-04-01 23:00;CYYC 012300Z 18009KT 30SM FEW029 SCT040 BKN190 01/M05 A2966 RMK CU2SC2AC0 SLP093

CYYC;2009-04-02 00:00;CYYC 020000Z 17009KT 30SM FEW029 FEW040 BKN130 BKN210 01/M05 A2964 RMK CU1SC1AC4CS1 SLP085

CYYC;2009-04-02 01:00;CYYC 020100Z 17007KT 40SM FEW030 FEW050 SCT100 BKN210 M00/M05 A2963 RMK SC1SC1AC2CS1 SLP080

CYYC;2009-04-02 02:00;CYYC 020200Z 14006KT 20SM FEW040 BKN100 OVC240 M01/M04 A2962 RMK SC1AC3CS2 SC TR SLP077

CYYC;2009-04-02 03:00;CYYC 020300Z 16005KT 15SM FEW100 BKN240 M02/M04 A2961 RMK AC2CI2 SLP078

CYYC;2009-04-02 04:00;CYYC 020400Z 17005KT 15SM SCT091 BKN240 M02/M04 A2961 RMK AC3CI1 SLP076

CYYC;2009-04-02 05:00;CYYC 020500Z 16005KT 15SM SCT110 BKN240 M03/M05 A2959 RMK AC2CI2 SLP071

CYYC;2009-04-02 06:00;CYYC 020600Z 17004KT 15SM FEW110 FEW240 M04/M05 A2958 RMK AC1CI1 AC TR SLP065

CYYC;2009-04-02 07:00;CYYC 020700Z 20004KT 15SM FEW240 M04/M05 A2957 RMK CI1 SLP062

CYYC;2009-04-02 08:00;CYYC 020800Z 13002KT 12SM FEW240 M05/M06 A2956 RMK CI1 SLP059

CYYC;2009-04-02 09:00;CYYC 020900Z 27004KT 12SM FEW240 M05/M06 A2955 RMK CI1 SLP056

CYYC;2009-04-02 10:00;CYYC 021000Z 00000KT 12SM FEW240 M06/M07 A2954 RMK CI0 SLP053

CYYC;2009-04-02 11:00;CYYC 021100Z 00000KT 11SM FEW240 M08/M08 A2954 RMK CI0 SLP053

CYYC;2009-04-02 12:00;CYYC 021200Z 30002KT 10SM FEW180 FEW220 M08/M10 A2954 RMK AC2CI0 SNOW COVER/TRACE LOOSE SLP057

CYYC;2009-04-02 13:00;CYYC 021300Z 29002KT 30SM FEW110 SCT240 M08/M09 A2955 RMK AC1CI1 AC TR SLP060

CYYC;2009-04-02 14:00;CYYC 021400Z 29004KT 40SM FEW180 SCT210 M07/M10 A2955 RMK AC1CI0 SLP060

CYYC;2009-04-02 15:00;CYYC 021500Z 32005KT 40SM FEW180 BKN210 M05/M10 A2955 RMK AC1CI0 SLP058

CYYC;2009-04-02 16:00;CYYC 021600Z 32003KT 40SM FEW180 BKN210 M02/M08 A2954 RMK AC1CI1 SLP056

CYYC;2009-04-02 17:00;CYYC 021700Z 35005KT 40SM FEW160 BKN210 00/M08 A2954 RMK AC1CI1 SLP055

CYYC;2009-04-02 18:00;CYYC 021800Z 06007KT 40SM FEW050 FEW120 FEW160 SCT180 BKN210 00/M06 A2954 RMK SC1AC0AC1AC2CI0 SC TR SLP050

CYYC;2009-04-02 19:00;CYYC 021900Z 05005KT 40SM FEW060 BKN180 BKN220 01/M05 A2954 RMK SC1AC2CI1 SC TR SLP049

CYYC;2009-04-02 20:00;CYYC 022000Z 04005KT 40SM FEW060 FEW090 BKN160 BKN210 01/M05 A2954 RMK SC1AC1AC2CI0 SLP050

CYYC;2009-04-02 21:00;CYYC 022100Z 06007KT 40SM FEW060 SCT140 BKN200 01/M05 A2954 RMK SC1AC2CI1 SLP051

CYYC;2009-04-02 22:00;CYYC 022200Z 07007KT 30SM FEW060 SCT150 BKN200 01/M03 A2955 RMK SC1AC3CI1 SLP054

CYYC;2009-04-02 23:00;CYYC 022300Z 09007KT 25SM FEW024 BKN150 BKN240 00/M06 A2956 RMK CU1AC3CI1 CU TR SLP057

CYYC;2009-04-03 00:00;CYYC 030000Z 06006KT 30SM FEW020 FEW130 BKN150 BKN220 00/M05 A2957 RMK CU1AC1AC2CI1 SLP066

CYYC;2009-04-03 01:00;CYYC 030100Z 05005KT 25SM FEW020 FEW120 BKN140 BKN230 M02/M03 A2958 RMK CU1AC1AC2CI0 CU TR SLP070

CYYC;2009-04-03 01:47;CYYC 030147Z 04007KT 8SM PRFG FEW020 SCT140 BKN230 M03/ RMK SF2AC1CI2 VIS E 11/2 IN FG

CYYC;2009-04-03 01:54;CYYC 030154Z 03006KT 2 1/2SM BR SCT002 BKN110 BKN240 M04/ RMK ST3AC2CI0 VIS N-E 5/8 IN THICK FG

CYYC;2009-04-03 02:00;CYYC 030200Z 03007KT 2 1/2SM BR SCT002 BKN110 BKN220 M04/M04 A2959 RMK ST3AC2CI1 VIS N-E-SE 1/2 IN THK FG SLP074

CYYC;2009-04-03 02:06;CYYC 030206Z 04006KT 3/8SM FZFG OVC002 M04/ RMK ST7 RVR RWY16 6000 FT/ VIS W 13/4

CYYC;2009-04-03 02:12;CYYC 030212Z 04006KT 1/4SM FZFG BKN001 OVC004 M04/ RMK FG6ST1ST1 RVR RWY16 4000 FT/ VIS W 5/8

CYYC;2009-04-03 02:26;CYYC 030226Z 06005KT 3/8SM FZFG OVC002 M04/ RMK FG6ST2 RVR RWY34 4000 FT/ VIS W 3/4

CYYC;2009-04-03 02:45;CYYC 030245Z 05005KT 1/2SM FZFG OVC002 M04/ RMK FG6ST2 RVR RWY34 3000 FT/ VIS S 1/8/ W 3/4

CYYC;2009-04-03 03:00;CYYC 030300Z 03007KT 5/8SM BR OVC002 M04/M05 A2961 RMK FG5ST3 RVR RWY34 4500 FT SLP083

CYYC;2009-04-03 03:35;CYYC 030335Z 36004KT 1/4SM FZFG OVC001 M04/ RMK FG7ST1 RVR RWY16 2800 FT/ RIME

CYYC;2009-04-03 04:00;CYYC 030400Z 36004KT 1/4SM FZFG VV001 M04/M04 A2962 RMK FG8 RVR RWY16 2600 FT/ RIME SLP085

CYYC;2009-04-03 04:46;CYYC 030446Z 34003KT 1/2SM FZFG OVC002 M04/ RMK FG7ST1 RVR RWY16 3500 FT/ VIS W 5/8

CYYC;2009-04-03 05:00;CYYC 030500Z 34003KT 1/2SM FZFG OVC002 M04/M04 A2962 RMK FG7ST1 RVR RWY16 3500 FT/ VIS S 1/4 SLP086

CYYC;2009-04-03 05:47;CYYC 030547Z 03003KT 1 1/4SM BR OVC002 M03/ RMK FG5ST3 CIG VRB 1-3

CYYC;2009-04-03 05:52;CYYC 030552Z 02004KT 1 3/4SM BR OVC003 M03/ RMK FG4ST4 VIS E 11/4

CYYC;2009-04-03 06:00;CYYC 030600Z 35005KT 2SM BR OVC003 M03/M03 A2963 RMK FG2ST6 CIG 200 FT NE SLP080

CYYC;2009-04-03 07:00;CYYC 030700Z 04003KT 2 1/2SM BR OVC003 M03/M03 A2964 RMK ST8 VIS 3 NE SLP082

CYYC;2009-04-03 07:14;CYYC 030714Z 00000KT 4SM BR OVC005 M03/ RMK ST8 VIS S-W 3

CYYC;2009-04-03 08:00;CYYC 030800Z 31002KT 3SM BR OVC005 M03/M03 A2964 RMK ST8 SLP085

CYYC;2009-04-03 09:00;CYYC 030900Z 04003KT 3SM BR OVC005 M03/M03 A2965 RMK ST8 SLP086

CYYC;2009-04-03 09:04;CYYC 030904Z 05003KT 3SM BR BKN007 OVC016 M03/ RMK ST7SC1

CYYC;2009-04-03 10:00;CYYC 031000Z 34004KT 4SM BR BKN009 OVC017 M03/M03 A2966 RMK ST5SC3 SLP089

CYYC;2009-04-03 11:00;CYYC 031100Z 05006KT 4SM BR FEW006 BKN009 OVC018 M03/M03 A2968 RMK SF1ST4SC3 SLP094

CYYC;2009-04-03 11:57;CYYC 031157Z CCA 03005KT 1SM BR OVC003 M03/ RMK ST8 RVR RWY34 6000 FT

CYYC;2009-04-03 12:00;CYYC 031200Z 02005KT 1SM BR OVC003 M03/M04 A2970 RMK ST8 RVR RWY34 6000 FT/ SNOW COVER TRACE LOOSE SLP104

CYYC;2009-04-03 13:00;CYYC 031300Z CCA 02006KT 1SM BR OVC003 M04/M04 A2972 RMK FG3ST5 RVR RWY16 6000 FT SLP112

CYYC;2009-04-03 13:37;CYYC 031337Z 02005KT 1 1/2SM BR OVC003 M03/ RMK FG2ST6 RIME

CYYC;2009-04-03 13:49;CYYC 031349Z 03005KT 1 1/2SM BR OVC004 M03/ RMK FG2ST6 RIME

CYYC;2009-04-03 14:00;CYYC 031400Z 05005KT 1SM BR OVC003 M03/M04 A2975 RMK FG3ST5 RVR RWY 34 6000FT/RIME SLP120

CYYC;2009-04-03 14:25;CYYC 031425Z 03004KT 1 1/2SM -SN BR OVC003 M03/ RMK FG3ST5 PCPN VRY LGT

CYYC;2009-04-03 14:37;CYYC 031437Z CCA 03005KT 1SM -SN BR OVC003 M03/ RMK FG3ST5 RVR RWY34 6000 FT/PCPN VRY LGT

CYYC;2009-04-03 14:51;CYYC 031451Z 06003KT 3/4SM -SN BR OVC002 M03/ RMK FG4ST4 RVR RWY34 6000 FT/PCPN VRY LGT

CYYC;2009-04-03 15:00;CYYC 031500Z 06003KT 5/8SM -SN BR OVC002 M03/M04 A2978 RMK FG4ST4 RVR RWY34 6000 FT/PCPN VRY LGT SLP138

CYYC;2009-04-03 15:14;CYYC 031514Z 06003KT 1/2SM -SN FZFG OVC002 M03/ RMK FG4ST4 RVR RWY28 2600 FT/PCPN VRY LGT

CYYC;2009-04-03 15:22;CYYC 031522Z  07006KT 1/8SM -SN FZFG VV001 M03/ RMK FG8 RVR RWY3Y 5500FR/PCPN VRY LGT

CYYC;2009-04-03 15:43;CYYC 031543Z CCA 07006KT 1/8SM -SN FZFG VV001 M03/ RMK FG8 RVR RWY34 5500 FT

CYYC;2009-04-03 15:55;CYYC 031555Z 06006KT 3/4SM -SN BR VV002 M04/ RMK FG8 RVR RWY34 6000 FT

CYYC;2009-04-03 16:00;CYYC 031600Z CCA 06005KT 1SM -SG BR VV003 M04/M04 A2980 RMK FG8 RVR RWY34 6OOO FT SLP145

CYYC;2009-04-03 16:11;CYYC 031611Z 05005KT 1 1/2SM -SG BR OVC004 M04/ RMK FG4ST4

CYYC;2009-04-03 16:35;CYYC 031635Z 07002KT 3SM -SN BR OVC006 M03/ RMK SC8

CYYC;2009-04-03 16:47;CYYC 031647Z 06005KT 4SM -SN BR OVC006 M03/ RMK SC8

CYYC;2009-04-03 17:00;CYYC 031700Z 07006KT 5SM -SN BR OVC007 M03/M04 A2983 RMK SC8 SLP153

CYYC;2009-04-03 17:30;CYYC 031730Z 04005KT 5SM -SN BR BKN010 OVC015 M02/ RMK SC6SC2

CYYC;2009-04-03 18:00;CYYC 031800Z 06006KT 5SM -SN BR BKN012 BKN015 OVC025 M02/M04 A2985 RMK SC5SC2SC1 SLP160

CYYC;2009-04-03 18:19;CYYC 031819Z 08005KT 7SM SCT012 BKN015 OVC025 M02/ RMK SC3SC2SC2

CYYC;2009-04-03 19:00;CYYC 031900Z 04002KT 8SM SCT014 BKN020 OVC024 M01/M04 A2986 RMK SC4SC2SC2 SLP165

CYYC;2009-04-03 20:00;CYYC 032000Z 05004KT 10SM SCT016 BKN020 OVC025 M01/M04 A2988 RMK SC4SC2SC2 SLP170

CYYC;2009-04-03 21:00;CYYC 032100Z 05008KT 8SM -SN FEW018 BKN025 OVC030 M01/M04 A2990 RMK SC2SC4SC2 SLP175

CYYC;2009-04-03 22:00;CYYC 032200Z 04008KT 8SM -SN SCT025 OVC030 M01/M05 A2992 RMK SC3SC5 PCPN VRY LGT SLP181

CYYC;2009-04-03 22:19;CYYC 032219Z 03006KT 8SM OVC030 M01/ RMK SC8

CYYC;2009-04-03 23:00;CYYC 032300Z 06006KT 8SM FEW024 OVC030 M01/M05 A2993 RMK SC2SC6 SLP186

CYYC;2009-04-04 00:00;CYYC 040000Z 05008KT 8SM OVC032 M01/M05 A2995 RMK SC7 SLP194

CYYC;2009-04-04 01:00;CYYC 040100Z 05006KT 8SM BKN036 BKN220 M01/M07 A2997 RMK SC5CI0 SLP200

CYYC;2009-04-04 02:00;CYYC 040200Z 07004KT 12SM BKN037 BKN090 M02/M07 A3000 RMK SC5AC1 SLP208

CYYC;2009-04-04 03:00;CYYC 040300Z 06003KT 12SM BKN037 BKN090 M03/M07 A3003 RMK SC5AC1 SLP224

CYYC;2009-04-04 04:00;CYYC 040400Z 07003KT 12SM FEW190 SCT240 M03/M07 A3005 RMK AC2CI0 SLP232

CYYC;2009-04-04 05:00;CYYC 040500Z 05003KT 12SM FEW190 FEW240 M04/M06 A3007 RMK AC1CI0 SLP239

CYYC;2009-04-04 06:00;CYYC 040600Z 31005KT 12SM OVC044 M04/M07 A3009 RMK SC8 SLP246

CYYC;2009-04-04 07:00;CYYC 040700Z 34006KT 12SM OVC043 M04/M07 A3010 RMK SC8 SLP250

CYYC;2009-04-04 08:00;CYYC 040800Z 36004KT 12SM OVC043 M05/M07 A3012 RMK SC8 SLP254

CYYC;2009-04-04 09:00;CYYC 040900Z 32003KT 12SM OVC041 M04/M07 A3013 RMK SC8 SLP260

CYYC;2009-04-04 10:00;CYYC 041000Z 09002KT 15SM OVC039 M04/M07 A3015 RMK SC8 SLP264

CYYC;2009-04-04 11:00;CYYC 041100Z 35005KT 15SM OVC040 M04/M06 A3017 RMK SC8 SLP270

CYYC;2009-04-04 12:00;CYYC 041200Z 05002KT 12SM OVC040 M04/M05 A3019 RMK SC8 SNOW COVER/TRACE LOOSE SLP277

CYYC;2009-04-04 12:10;CYYC 041210Z 06002KT 12SM BKN005 OVC040 M04/ RMK SC6SC2

CYYC;2009-04-04 13:00;CYYC 041300Z 08004KT 1SM BR OVC003 M04/M04 A3020 RMK ST8 RVR RWY16 5500 FT SLP281

CYYC;2009-04-04 13:06;CYYC 041306Z 09004KT 1/2SM FZFG OVC002 M04/ RMK FG6ST2 RVR RWY16 3500 FT

CYYC;2009-04-04 13:09;CYYC 041309Z 08004KT 3/8SM FZFG OVC002 M04/ RMK FG7ST1 RVR RWY34 3500 FT

CYYC;2009-04-04 13:41;CYYC 041341Z CCA 00000KT 1/8SM FZFG VV001 M04/ RMK FG8 RVR RWY16 3000 FT

CYYC;2009-04-04 14:00;CYYC 041400Z 00000KT 3/8SM FZFG VV001 M04/M04 A3022 RMK FG8 RVR RWY16 3500 FT SLP287

CYYC;2009-04-04 14:10;CYYC 041410Z 00000KT 5/8SM FZFG VV002 M04/ RMK FG8 RVR RWY16 6000 FT

CYYC;2009-04-04 14:28;CYYC 041428Z 00000KT 1SM FZFG OVC003 M04/ RMK FG6ST2 RVR RWY34 6000 FT

CYYC;2009-04-04 15:00;CYYC 041500Z CCA 27002KT 1 1/2SM BR OVC004 M04/M04 A3025 RMK FG6ST2 SLP301

CYYC;2009-04-04 15:10;CYYC 041510Z 30002KT 2 1/2SM BR BKN005 OVC040 M04/ RMK FG3ST2SC2

CYYC;2009-04-04 15:26;CYYC 041526Z 30002KT 3SM BR BKN005 OVC040 M03/ RMK FG2ST2SC3

CYYC;2009-04-04 15:43;CYYC 041543Z 00000KT 3SM BR SCT005 OVC040 M03/ RMK FG2ST2SC3

CYYC;2009-04-04 16:00;CYYC 041600Z 00000KT 4SM BR SCT005 OVC040 M03/M04 A3026 RMK ST3SC4 SLP304

CYYC;2009-04-04 17:00;CYYC 041700Z CCA 12005KT 7SM FEW012 OVC040 M01/M04 A3026 RMK SC1SC6 SLP307

CYYC;2009-04-04 18:00;CYYC 041800Z 17006KT 7SM SCT020 BKN040 01/M06 A3027 RMK SC3SC2 SLP305

CYYC;2009-04-04 19:00;CYYC 041900Z 13004KT 15SM SCT036 01/M07 A3026 RMK SC4 SLP303

CYYC;2009-04-04 20:00;CYYC 042000Z 17010KT 15SM BKN037 02/M06 A3027 RMK SC5 SLP306

CYYC;2009-04-04 21:00;CYYC 042100Z 13007KT 15SM SCT032 SCT160 02/M05 A3027 RMK SC3AC1 SLP302

CYYC;2009-04-04 22:00;CYYC 042200Z 14010KT 15SM FEW030 03/M05 A3027 RMK SC2 SLP302

CYYC;2009-04-04 23:00;CYYC 042300Z 15007KT 15SM FEW028 03/M04 A3026 RMK CU1 SLP300

CYYC;2009-04-05 00:00;CYYC 050000Z 13007KT 15SM FEW028 03/M04 A3026 RMK CU1 SLP299

CYYC;2009-04-05 01:00;CYYC 050100Z 14008KT 12SM FEW075 03/M04 A3027 RMK AC1 SLP301

CYYC;2009-04-05 02:00;CYYC 050200Z 12007KT 20SM FEW075 01/M04 A3028 RMK AC1 SLP303

CYYC;2009-04-05 03:00;CYYC 050300Z 10006KT 15SM FEW075 FEW250 00/M03 A3029 RMK AC1CI1 SLP311

CYYC;2009-04-05 04:00;CYYC 050400Z 13007KT 15SM SKC M02/M04 A3029 RMK SLP313

CYYC;2009-04-05 05:00;CYYC 050500Z 15007KT 15SM SKC M02/M05 A3030 RMK SLP315

CYYC;2009-04-05 06:00;CYYC 050600Z 14006KT 15SM SKC M03/M06 A3030 RMK SLP313

CYYC;2009-04-05 07:00;CYYC 050700Z 14005KT 15SM SKC M04/M06 A3030 RMK SLP314

CYYC;2009-04-05 08:00;CYYC 050800Z 16005KT 15SM SKC M03/M06 A3030 RMK SLP314

CYYC;2009-04-05 09:00;CYYC 050900Z 16005KT 15SM SKC M05/M07 A3031 RMK SLP316

CYYC;2009-04-05 10:00;CYYC 051000Z 17003KT 15SM SKC M05/M06 A3031 RMK SLP316

CYYC;2009-04-05 11:00;CYYC 051100Z 16003KT 15SM FEW250 M05/M07 A3031 RMK CI1 SLP316

CYYC;2009-04-05 12:00;CYYC 051200Z 19003KT 15SM SKC M06/M07 A3031 RMK SNOW COVER/TRACE LOOSE SLP318

CYYC;2009-04-05 13:00;CYYC 051300Z 20003KT 30SM FEW250 M06/M08 A3031 RMK CI1 SLP318

CYYC;2009-04-05 14:00;CYYC 051400Z 20002KT 40SM FEW250 M06/M08 A3032 RMK CI1 DIST FU S-SW SLP320

CYYC;2009-04-05 15:00;CYYC 051500Z 18002KT 40SM FEW250 M04/M05 A3032 RMK CI1 DIST HZ S-SW SLP323

CYYC;2009-04-05 16:00;CYYC 051600Z 20005KT 40SM FEW250 M01/M04 A3032 RMK CI0 DIST HZ S-SW SLP324

CYYC;2009-04-05 17:00;CYYC 051700Z CCA 14008KT 40SM FEW190 FEW250 02/M04 A3031 RMK AC0CI0 DIST HZ S-SW SLP321

CYYC;2009-04-05 18:00;CYYC 051800Z 18012KT 40SM FEW250 03/M03 A3031 RMK CI0 SLP315

CYYC;2009-04-05 19:00;CYYC 051900Z 15012KT 40SM FEW250 04/M02 A3031 RMK CI0 SLP314

CYYC;2009-04-05 20:00;CYYC 052000Z 14011KT 40SM FEW250 05/M02 A3030 RMK CI0 SLP312

CYYC;2009-04-05 21:00;CYYC 052100Z 16011G18KT 40SM FEW200 FEW220 07/M02 A3028 RMK CI1CI0 DIST HZ SW SLP301

CYYC;2009-04-05 22:00;CYYC 052200Z 15014KT 40SM FEW250 08/M03 A3026 RMK CI0 DIST HZ SW SLP295

CYYC;2009-04-05 23:00;CYYC 052300Z 16013G19KT 40SM FEW250 09/M05 A3024 RMK CI0 DIST HZ SW SLP288

CYYC;2009-04-06 00:00;CYYC 060000Z 16014G19KT 40SM FEW250 09/M04 A3023 RMK CI0 DIST HZ SW SLP281

CYYC;2009-04-06 01:00;CYYC 060100Z 16012G17KT 40SM SCT250 08/M04 A3021 RMK CI0 DIST HZ SW SLP276

CYYC;2009-04-06 02:00;CYYC 060200Z CCA 15010KT 40SM FEW210 BKN250 06/M03 A3020 RMK CI1CI1 CONTRAILS SLP271

CYYC;2009-04-06 03:00;CYYC 060300Z 15007KT 15SM BKN250 03/M03 A3019 RMK CI1 SLP271

CYYC;2009-04-06 04:00;CYYC 060400Z 17008KT 15SM SKC 03/M03 A3018 RMK SLP268

CYYC;2009-04-06 05:00;CYYC 060500Z 17010KT 15SM BKN240 03/M03 A3015 RMK CI1 SLP260

CYYC;2009-04-06 06:00;CYYC 060600Z 16004KT 15SM BKN220 00/M04 A3012 RMK CI4 SLP243

CYYC;2009-04-06 07:00;CYYC 060700Z 20008KT 15SM SCT210 BKN240 01/M03 A3010 RMK CI2CI3 SLP237

CYYC;2009-04-06 08:00;CYYC 060800Z 20004KT 15SM BKN210 01/M03 A3009 RMK CI7 SLP234

CYYC;2009-04-06 09:00;CYYC 060900Z 26004KT 15SM SCT180 BKN210 03/M04 A3008 RMK AS2CI4 SLP221

CYYC;2009-04-06 10:00;CYYC 061000Z 27017G24KT 15SM BKN170 08/M07 A3007 RMK AS6 SLP216

CYYC;2009-04-06 11:00;CYYC 061100Z 27011G22KT 15SM SCT170 BKN210 07/M07 A3006 RMK AS3CI3 SLP214

CYYC;2009-04-06 12:00;CYYC 061200Z 28010G17KT 15SM BKN210 08/M07 A3006 RMK CI6 SLP204

CYYC;2009-04-06 13:00;CYYC 061300Z 29008KT 40SM BKN220 07/M06 A3007 RMK CI7 SLP208

CYYC;2009-04-06 14:00;CYYC 061400Z 36006KT 40SM FEW140 BKN230 OVC260 04/M04 A3010 RMK AC1CI6CI0 AC TR SLP216

CYYC;2009-04-06 15:00;CYYC 061500Z 32010KT 40SM FEW140 BKN210 OVC260 06/M05 A3011 RMK AC1CI6CI0 AC TR SLP231

CYYC;2009-04-06 16:00;CYYC 061600Z 01007KT 40SM FEW180 BKN210 OVC260 06/M05 A3010 RMK AC1CI6CI0 SLP229

CYYC;2009-04-06 17:00;CYYC 061700Z 08004KT 40SM FEW180 BKN210 BKN250 07/M04 A3010 RMK AC2CI5CI0 SLP229

CYYC;2009-04-06 18:00;CYYC 061800Z 08003KT 40SM FEW190 BKN210 BKN250 07/M04 A3009 RMK AC2CI6CI1 SLP226

CYYC;2009-04-06 19:00;CYYC 061900Z 16004KT 40SM SCT180 BKN210 BKN250 08/M04 A3007 RMK AC3CI4CI1 SLP219

CYYC;2009-04-06 20:00;CYYC 062000Z 16008KT 40SM SCT180 BKN230 BKN250 09/M03 A3005 RMK AC3CI4CI1 SLP213

CYYC;2009-04-06 21:00;CYYC 062100Z 14008KT 40SM FEW180 BKN230 BKN250 11/M04 A3001 RMK AC2CI6CI1 SLP189

CYYC;2009-04-06 22:00;CYYC 062200Z 14008KT 40SM FEW050 FEW180 BKN230 BKN250 11/M04 A2999 RMK CU1AC2CI4CI0 CU TR SLP182

CYYC;2009-04-06 23:00;CYYC 062300Z 16008KT 40SM FEW180 BKN230 BKN250 12/M05 A2996 RMK AC2CI4CI0 SLP174

CYYC;2009-04-07 00:00;CYYC 070000Z 14008KT 40SM FEW180 BKN250 12/M04 A2994 RMK AC1CI2 AC TR SLP156

CYYC;2009-04-07 01:00;CYYC 070100Z 19006KT 40SM FEW050 FEW180 BKN200 BKN250 13/M04 A2992 RMK CU1AC1CI3CI0 CU TR SLP150

CYYC;2009-04-07 02:00;CYYC 070200Z 20007KT 40SM FEW120 BKN220 11/M03 A2991 RMK AC1CI1 SLP148

CYYC;2009-04-07 03:00;CYYC 070300Z 27010KT 15SM FEW120 FEW220 10/M08 A2991 RMK AC1CI0 SLP154

CYYC;2009-04-07 04:00;CYYC 070400Z 36008KT 15SM FEW120 05/M04 A2994 RMK AC1 SLP162

CYYC;2009-04-07 05:00;CYYC 070500Z 31011KT 15SM SKC 06/M06 A2995 RMK SLP166

CYYC;2009-04-07 06:00;CYYC 070600Z 31011KT 15SM SKC 06/M07 A2995 RMK SLP169

CYYC;2009-04-07 07:00;CYYC 070700Z 27003KT 15SM SKC 05/M07 A2995 RMK SLP168

CYYC;2009-04-07 08:00;CYYC 070800Z 02003KT 15SM FEW140 BKN250 01/M05 A2995 RMK AC1CI0 SLP168

CYYC;2009-04-07 09:00;CYYC 070900Z 07002KT 15SM FEW140 BKN220 00/M04 A2995 RMK AC1CI0 SLP174

CYYC;2009-04-07 10:00;CYYC 071000Z 33006KT 15SM FEW180 BKN210 01/M07 A2995 RMK AC1CI2 SLP173

CYYC;2009-04-07 11:00;CYYC 071100Z 21004KT 15SM FEW140 BKN210 M00/M06 A2996 RMK AC1CI2 SLP177

CYYC;2009-04-07 12:00;CYYC 071200Z CCA 19003KT 15SM FEW140 BKN210 M01/M05 A2996 RMK AC1CI1 SNOW COVER/TRACE LOOSE SLP176

CYYC;2009-04-07 13:00;CYYC 071300Z 18002KT 30SM FEW140 BKN210 M01/M06 A2996 RMK AC1CI0 SLP176

CYYC;2009-04-07 14:00;CYYC 071400Z 05005KT 40SM FEW140 BKN230 00/M05 A2997 RMK AC1CI1 SLP178

CYYC;2009-04-07 15:00;CYYC 071500Z 33003KT 40SM FEW140 FEW260 02/M05 A2996 RMK AC1CI0 SLP176

CYYC;2009-04-07 16:00;CYYC 071600Z 36006KT 40SM FEW140 FEW280 07/M05 A2997 RMK AC1CI0 CONTRAILS SLP178

CYYC;2009-04-07 17:00;CYYC 071700Z 04007KT 40SM FEW140 FEW190 SCT250 07/M03 A2997 RMK AC1AC0CI0 SLP177

CYYC;2009-04-07 18:00;CYYC 071800Z 04006KT 40SM FEW140 FEW180 FEW270 09/M03 A2996 RMK AC1AC1CI0 SLP172

CYYC;2009-04-07 19:00;CYYC 071900Z 06004KT 40SM FEW180 FEW270 09/M03 A2995 RMK AC1CI0 SLP168

CYYC;2009-04-07 20:00;CYYC 072000Z 07004KT 40SM FEW180 FEW270 10/M02 A2993 RMK AC0CI0 SLP162

CYYC;2009-04-07 21:00;CYYC 072100Z 07007KT 40SM SCT170 BKN270 10/M00 A2992 RMK AC1CI0 SLP162

CYYC;2009-04-07 22:00;CYYC 072200Z 11007KT 40SM SCT140 BKN270 11/M01 A2989 RMK AC1CI0 CONTRAILS SLP155

CYYC;2009-04-07 23:00;CYYC 072300Z 13006KT 40SM FEW140 BKN270 11/M02 A2988 RMK AC1CI0 CC ASOCTD SLP150

CYYC;2009-04-08 00:00;CYYC 080000Z 11007KT 40SM FEW150 BKN270 11/M02 A2986 RMK AC1CI1 ACSL W SLP141

CYYC;2009-04-08 01:00;CYYC 080100Z 10007KT 40SM FEW130 BKN270 11/M02 A2984 RMK AC1CI1 ACSL W SLP135

CYYC;2009-04-08 02:00;CYYC 080200Z 07005KT 40SM FEW140 FEW260 07/M01 A2982 RMK AC1CI0 AC TR SLP129

CYYC;2009-04-08 03:00;CYYC 080300Z 01003KT 20SM FEW140 FEW260 06/M01 A2982 RMK AC1CI0 AC TR SLP132

CYYC;2009-04-08 04:00;CYYC 080400Z 02005KT 15SM SKC 05/M02 A2982 RMK SLP131

CYYC;2009-04-08 05:00;CYYC 080500Z 36004KT 15SM SKC 04/M02 A2982 RMK SLP130

CYYC;2009-04-08 06:00;CYYC 080600Z 35006KT 15SM SKC 02/M03 A2981 RMK SLP123

CYYC;2009-04-08 07:00;CYYC 080700Z 07007KT 15SM SKC 01/M04 A2980 RMK SLP119

CYYC;2009-04-08 08:00;CYYC 080800Z 00000KT 15SM SKC 01/M04 A2979 RMK SLP116

CYYC;2009-04-08 09:00;CYYC 080900Z 00000KT 15SM SKC 00/M04 A2977 RMK SLP110

CYYC;2009-04-08 10:00;CYYC 081000Z 00000KT 15SM FEW240 M00/M04 A2976 RMK CI1 SLP106

CYYC;2009-04-08 11:00;CYYC 081100Z 01003KT 15SM FEW220 M01/M04 A2975 RMK CI1 SLP103

CYYC;2009-04-08 12:00;CYYC 081200Z 34004KT 15SM FEW130 FEW220 M02/M04 A2973 RMK AC1CI1 SNOW COVER/TRACE LOOSE SLP100

CYYC;2009-04-08 13:00;CYYC 081300Z 33006KT 20SM FEW130 SCT220 M03/M05 A2971 RMK AC1CI2 AC TR SLP093

CYYC;2009-04-08 14:00;CYYC 081400Z 34003KT 40SM FEW140 BKN230 M02/M04 A2971 RMK AC1CS2 SLP093

CYYC;2009-04-08 15:00;CYYC 081500Z 00000KT 40SM BKN250 M01/M03 A2970 RMK CS2 SLP094

CYYC;2009-04-08 16:00;CYYC 081600Z 33002KT 40SM BKN210 02/M02 A2969 RMK CS3 SLP091

CYYC;2009-04-08 17:00;CYYC 081700Z 30003KT 40SM BKN210 03/M02 A2968 RMK CS5 SLP089

CYYC;2009-04-08 18:00;CYYC 081800Z 04004KT 40SM BKN210 06/M02 A2968 RMK CS2 SLP083

CYYC;2009-04-08 19:00;CYYC 081900Z 05003KT 40SM BKN210 07/M01 A2967 RMK CS3 SLP081

CYYC;2009-04-08 20:00;CYYC 082000Z 07005KT 40SM BKN200 07/M01 A2966 RMK CS4 SLP078

CYYC;2009-04-08 21:00;CYYC 082100Z 09004KT 40SM BKN200 08/01 A2966 RMK CS5 SLP075

CYYC;2009-04-08 22:00;CYYC 082200Z 12003KT 30SM FEW035 BKN200 09/M01 A2965 RMK CU1CS6 SLP073

CYYC;2009-04-08 23:00;CYYC 082300Z 12007KT 30SM FEW044 FEW160 BKN220 11/M00 A2964 RMK CU1AC1CI2 SLP069

CYYC;2009-04-09 00:00;CYYC 090000Z 07003KT 30SM FEW044 FEW160 BKN200 11/00 A2963 RMK CU1AC2CI4 SLP064

CYYC;2009-04-09 01:00;CYYC 090100Z 06003KT 30SM FEW044 BKN170 OVC220 10/01 A2963 RMK CU1AC3CI1 SLP064

CYYC;2009-04-09 02:00;CYYC 090200Z 03003KT 30SM FEW080 BKN160 OVC240 08/02 A2963 RMK AC1AC2CI2 SLP064

CYYC;2009-04-09 03:00;CYYC 090300Z 32005KT 15SM FEW090 SCT160 OVC240 07/00 A2964 RMK AC1AC3CI2 SLP069

CYYC;2009-04-09 04:00;CYYC 090400Z 35007KT 15SM FEW100 FEW180 SCT240 04/M00 A2964 RMK AC1AC2CI1 SLP070

CYYC;2009-04-09 05:00;CYYC 090500Z 33005KT 15SM FEW100 FEW160 SCT240 02/M01 A2964 RMK AC1AC2CI1 SLP072

CYYC;2009-04-09 06:00;CYYC 090600Z 36004KT 15SM FEW110 FEW160 01/M02 A2964 RMK AC1AC1 SLP072

CYYC;2009-04-09 07:00;CYYC 090700Z 01004KT 15SM FEW110 FEW160 SCT230 00/M02 A2964 RMK AC1AC1CI2 SLP072

CYYC;2009-04-09 08:00;CYYC 090800Z 06004KT 15SM BKN170 OVC230 M00/M02 A2964 RMK AC6CI2 SLP071

CYYC;2009-04-09 09:00;CYYC 090900Z 24003KT 15SM FEW160 SCT240 00/M02 A2964 RMK AC1CI1 SLP067

CYYC;2009-04-09 10:00;CYYC 091000Z 25002KT 15SM FEW160 SCT240 00/M02 A2964 RMK AC1CI1 SLP067

CYYC;2009-04-09 11:00;CYYC 091100Z 17003KT 15SM SCT110 BKN230 M01/M03 A2964 RMK AC2CI2 SLP068

CYYC;2009-04-09 12:00;CYYC 091200Z 16003KT 15SM BKN120 OVC230 M00/M02 A2965 RMK AC6CI2 SLP068

CYYC;2009-04-09 13:00;CYYC 091300Z 19005KT 20SM FEW080 BKN098 OVC210 M00/M02 A2965 RMK ACC1AC4CI2 SH DIST E SLP069

CYYC;2009-04-09 14:00;CYYC 091400Z 15002KT 30SM FEW100 BKN130 01/M02 A2966 RMK AC2AC3 SLP072

CYYC;2009-04-09 15:00;CYYC 091500Z 15009KT 30SM FEW080 SCT100 BKN120 03/M01 A2967 RMK ACC1AC3AC3 DIST SH NE-E-SE SLP076

CYYC;2009-04-09 16:00;CYYC 091600Z 18007KT 40SM FEW080 FEW100 SCT210 05/M01 A2966 RMK ACC1AC2CI0 SLP075

CYYC;2009-04-09 17:00;CYYC 091700Z CCA 15008KT 40SM FEW028 FEW100 SCT240 07/M00 A2967 RMK CU1AC2CI0 SLP077

CYYC;2009-04-09 18:00;CYYC 091800Z 17006KT 40SM FEW036 FEW100 SCT240 09/00 A2967 RMK CU1AC2CI0 SLP079

CYYC;2009-04-09 19:00;CYYC 091900Z 14008KT 40SM FEW048 FEW080 SCT220 12/01 A2967 RMK CU1AC1CI0 SLP077

CYYC;2009-04-09 20:00;CYYC 092000Z 14008KT 40SM FEW044 FEW080 SCT240 13/02 A2966 RMK CU1AC2CI0 SLP074

CYYC;2009-04-09 21:00;CYYC 092100Z 14006KT 40SM FEW056 FEW080 BKN240 15/01 A2965 RMK CU1AC2CI0 SLP063

CYYC;2009-04-09 22:00;CYYC 092200Z 17009KT 40SM FEW068 SCT180 BKN220 16/M01 A2964 RMK CU2AC2CI1 SLP059

CYYC;2009-04-09 23:00;CYYC 092300Z 22007KT 40SM FEW076 FEW110 SCT140 BKN220 15/M03 A2964 RMK CU1AC2AC1CI1 VIRGA SW-W SLP058

CYYC;2009-04-10 00:00;CYYC 100000Z 12006KT 40SM FEW072 FEW080 SCT100 BKN220 17/M01 A2963 RMK CU2AC1AC2CI0 DIST SH E SLP053

CYYC;2009-04-10 01:00;CYYC 100100Z 20009KT 40SM FEW064 SCT080 BKN220 14/M01 A2963 RMK CU2AC2CI0 VIRGA ALQDS SLP054

CYYC;2009-04-10 02:00;CYYC 100200Z 13007KT 30SM VCSH FEW060CB BKN096 OVC220 12/M01 A2964 RMK CB1AC6CI1 SH DIST W+NE/ CB W-N-NE SLP055

CYYC;2009-04-10 03:00;CYYC 100300Z 13004KT 15SM VCSH FEW060CB BKN096 OVC220 10/01 A2965 RMK CB1AC4CI2 SH DIST W/ CB W SLP066

CYYC;2009-04-10 04:00;CYYC 100400Z 34005KT 15SM FEW060 SCT086 BKN220 09/02 A2966 RMK SC2AC2CI2 SLP069

CYYC;2009-04-10 05:00;CYYC 100500Z 34006KT 15SM FEW096 FEW180 08/01 A2967 RMK AC1AC1 LWR AC TR SLP072

CYYC;2009-04-10 06:00;CYYC 100600Z 30003KT 15SM FEW096 FEW160 06/M00 A2967 RMK AC1AC1 CLDS TR SLP069

CYYC;2009-04-10 07:00;CYYC 100700Z 36005KT 15SM FEW140 FEW170 04/M01 A2967 RMK AC1AC1 SLP069

CYYC;2009-04-10 08:00;CYYC 100800Z 33003KT 15SM FEW140 SCT160 07/M01 A2968 RMK AC1AC1 SLP072

CYYC;2009-04-10 09:00;CYYC 100900Z 33005KT 15SM FEW110 FEW160 BKN220 07/M01 A2967 RMK AC1AC1CI2 SLP061

CYYC;2009-04-10 10:00;CYYC 101000Z 30007KT 15SM FEW160 BKN220 07/M02 A2967 RMK AC1CI2 SLP060

CYYC;2009-04-10 11:00;CYYC 101100Z 31010KT 15SM BKN093 BKN160 OVC220 08/M02 A2967 RMK AC6AC1CI1 SLP061

CYYC;2009-04-10 12:00;CYYC 101200Z 36007KT 15SM BKN098 BKN160 OVC220 05/M01 A2968 RMK AC6AC1CI1 SLP062

CYYC;2009-04-10 13:00;CYYC 101300Z 00000KT 40SM FEW070 BKN100 BKN220 07/M02 A2969 RMK AC1AC4CI2 SLP065

CYYC;2009-04-10 14:00;CYYC 101400Z 29011KT 40SM FEW070 BKN100 BKN220 08/M03 A2970 RMK AC2AC4CI1 VIRGA N-NE-E/ACSL W SLP068

CYYC;2009-04-10 15:00;CYYC 101500Z 29009KT 40SM FEW076 BKN100 BKN220 09/M03 A2971 RMK AC2AC2CI1 SLP078

CYYC;2009-04-10 16:00;CYYC 101600Z 29011KT 40SM FEW060 SCT080 BKN100 BKN220 10/M03 A2972 RMK SC1AC2AC2CI0 VIRGA W SLP082

CYYC;2009-04-10 17:00;CYYC 101700Z 31009KT 40SM FEW080 BKN220 11/M03 A2974 RMK AC2CI1 SLP086

CYYC;2009-04-10 18:00;CYYC 101800Z 31008G15KT 40SM FEW100 SCT160 BKN220 13/M04 A2974 RMK AC2AC1CI1 SLP090

CYYC;2009-04-10 19:00;CYYC 101900Z 31004KT 40SM FEW064 FEW070 SCT180 SCT220 13/M03 A2973 RMK CU1AC2AC1CI0 CU TR SLP087

CYYC;2009-04-10 20:00;CYYC 102000Z 04009KT 40SM FEW060 FEW075 SCT180 BKN220 14/M01 A2972 RMK CU1AC2AC1CI0 CU TR SLP083

CYYC;2009-04-10 21:00;CYYC 102100Z 15008KT 40SM FEW075 BKN220 14/M02 A2971 RMK CU1CI2 SLP076

CYYC;2009-04-10 22:00;CYYC 102200Z 15004KT 40SM FEW080 SCT150 BKN220 14/M03 A2970 RMK CU1AC2CI2 SLP073

CYYC;2009-04-10 23:00;CYYC 102300Z 11010KT 40SM FEW080 SCT140 BKN220 14/M01 A2970 RMK CU1AC2CI2 SLP072

CYYC;2009-04-11 00:00;CYYC 110000Z 12010KT 40SM FEW060 FEW140 BKN210 14/M01 A2970 RMK CU1AC1CI1 CU TR SLP074

CYYC;2009-04-11 01:00;CYYC 110100Z 14009KT 40SM FEW060 FEW130 SCT240 14/M02 A2970 RMK CU1AC2CI0 SLP074

CYYC;2009-04-11 02:00;CYYC 110200Z 13008KT 40SM FEW048TCU SCT090 SCT240 11/M01 A2970 RMK TCU1AC2CI0 DIST SH S SLP074

CYYC;2009-04-11 03:00;CYYC 110300Z 00000KT 15SM FEW050CB FEW071 SCT240 11/M01 A2972 RMK CB1AC2CI1 CB TR SLP081

CYYC;2009-04-11 04:00;CYYC 110400Z 23002KT 15SM FEW080 FEW220 10/M02 A2974 RMK AC2CI0 SLP086

CYYC;2009-04-11 05:00;CYYC 110500Z 32004KT 15SM FEW080 FEW220 07/M02 A2975 RMK AC1CI1 AC TR SLP088

CYYC;2009-04-11 06:00;CYYC 110600Z 31007KT 15SM FEW080 FEW220 07/M07 A2974 RMK AC1CI1 AC TR SLP089

CYYC;2009-04-11 07:00;CYYC 110700Z 34004KT 15SM FEW110 04/M05 A2975 RMK AC2 SLP091

CYYC;2009-04-11 08:00;CYYC 110800Z 35004KT 15SM BKN100 BKN220 03/M04 A2976 RMK AC6CI1 SLP093

CYYC;2009-04-11 09:00;CYYC 110900Z 31004KT 15SM SCT090 BKN220 03/M05 A2975 RMK AC3CI1 SLP096

CYYC;2009-04-11 10:00;CYYC 111000Z 34007KT 15SM FEW090 FEW230 02/M05 A2976 RMK AC1CI1 SLP097

CYYC;2009-04-11 11:00;CYYC 111100Z 33007KT 15SM FEW230 01/M04 A2977 RMK CI1 CI TR SLP102

CYYC;2009-04-11 12:00;CYYC 111200Z 34006KT 15SM FEW090 FEW230 01/M03 A2978 RMK AC1CI1 CI TR SLP108

CYYC;2009-04-11 13:00;CYYC 111300Z 30005KT 20SM FEW100 FEW230 01/M02 A2979 RMK AC1CI1 CI TR SLP110

CYYC;2009-04-11 14:00;CYYC 111400Z 33005KT 30SM FEW240 01/M03 A2979 RMK CI1 CI TR SLP112

CYYC;2009-04-11 15:00;CYYC 111500Z 32005KT 30SM FEW240 04/M01 A2980 RMK CI1 CI TR SLP116

CYYC;2009-04-11 16:00;CYYC 111600Z 34004KT 40SM FEW220 07/01 A2980 RMK CI1 CI TR SLP115

CYYC;2009-04-11 17:00;CYYC 111700Z 01004KT 40SM FEW028 FEW070 FEW220 09/02 A2980 RMK CU1AC1CI1 SLP114

CYYC;2009-04-11 18:00;CYYC 111800Z 02002KT 40SM FEW060 FEW080 FEW220 10/01 A2979 RMK SC1AC1CI1 SLP108

CYYC;2009-04-11 19:00;CYYC 111900Z 10004KT 40SM FEW060 FEW090 FEW220 13/M01 A2977 RMK SC1AC1CI1 SLP102

CYYC;2009-04-11 20:00;CYYC 112000Z 13004KT 40SM FEW072 FEW100 FEW220 14/M05 A2975 RMK CU1AC1CI1 SLP096

CYYC;2009-04-11 21:00;CYYC 112100Z 18002KT 40SM FEW080 FEW120 SCT220 15/M05 A2973 RMK CU1AC1CI2 VIRGA SW SLP088

CYYC;2009-04-11 22:00;CYYC 112200Z 17007KT 40SM FEW080 FEW100 SCT180 BKN220 14/M04 A2972 RMK CU2AC1AC0CI2 SLP084

CYYC;2009-04-11 23:00;CYYC 112300Z 16008KT 40SM FEW080 SCT180 BKN220 14/M04 A2971 RMK CU2AC2CI2 SLP080

CYYC;2009-04-12 00:00;CYYC 120000Z 14006KT 40SM FEW072 SCT140 BKN220 14/M04 A2969 RMK CU1AC3CI2 CU TR SLP077

CYYC;2009-04-12 01:00;CYYC 120100Z 15008KT 40SM FEW064 SCT140 BKN180 BKN220 14/M03 A2968 RMK CU1AC3AC2CI0 SLP074

CYYC;2009-04-12 02:00;CYYC 120200Z 13007KT 40SM FEW030 FEW060 BKN110 BKN220 12/M02 A2967 RMK CF1SC1AC5CI2 VIRGA W-NW TR CF SLP071

CYYC;2009-04-12 03:00;CYYC 120300Z 26008KT 15SM FEW030 FEW060 SCT110 BKN200 12/M04 A2968 RMK CF1SC2AC2CI2 TR CF SLP072

CYYC;2009-04-12 04:00;CYYC 120400Z 28014G24KT 15SM FEW030 BKN095 OVC120 08/M01 A2972 RMK CF1AC6AC2 SLP083

CYYC;2009-04-12 05:00;CYYC 120500Z 25015G21KT 15SM SCT095 OVC160 07/M01 A2971 RMK AC3AC5 SLP081

CYYC;2009-04-12 06:00;CYYC 120600Z 26011KT 15SM BKN160 BKN210 06/M01 A2973 RMK AC5CI2 SLP088

CYYC;2009-04-12 07:00;CYYC 120700Z 27016KT 15SM BKN110 BKN220 07/M04 A2975 RMK AC5CI1 SLP094

CYYC;2009-04-12 08:00;CYYC 120800Z 29012G18KT 15SM BKN110 BKN220 07/M05 A2979 RMK AC6CI1 SLP105

CYYC;2009-04-12 09:00;CYYC 120900Z 29013G18KT 15SM FEW120 SCT230 06/M06 A2981 RMK AC2CI1 SLP110

CYYC;2009-04-12 10:00;CYYC 121000Z 28010KT 15SM FEW120 FEW230 05/M07 A2984 RMK AC1CI0 SLP118

CYYC;2009-04-12 11:00;CYYC 121100Z 29007KT 15SM FEW120 04/M07 A2986 RMK AC1 SLP125

CYYC;2009-04-12 12:00;CYYC 121200Z 32006KT 15SM FEW130 03/M07 A2988 RMK AC1 SLP139

CYYC;2009-04-12 13:00;CYYC 121300Z 01010KT 40SM FEW035 FEW130 FEW250 01/M06 A2990 RMK CU1AC1CI1 TR CU CI SLP146

CYYC;2009-04-12 14:00;CYYC 121400Z 32007KT 30SM FEW040 FEW120 FEW230 03/M06 A2993 RMK SC1AC1CI1 SLP154

CYYC;2009-04-12 15:00;CYYC 121500Z 32008KT 40SM FEW040 FEW120 BKN210 07/M07 A2994 RMK SC1AC1CI2 SLP158

CYYC;2009-04-12 16:00;CYYC 121600Z 35007KT 40SM FEW050 FEW130 BKN200 08/M06 A2993 RMK SC1AC1CI2 SLP157

CYYC;2009-04-12 17:00;CYYC 121700Z 28011G17KT 40SM FEW050 FEW130 FEW170 09/M09 A2993 RMK SC1AC1AC0 SLP155

CYYC;2009-04-12 18:00;CYYC 121800Z 25009KT 40SM FEW050 FEW070 FEW220 11/M09 A2991 RMK SC1CU1CI1 SLP152

CYYC;2009-04-12 19:00;CYYC 121900Z 19006KT 40SM FEW050 FEW070 FEW220 11/M08 A2989 RMK SC1CU1CI1 SLP145

CYYC;2009-04-12 20:00;CYYC 122000Z 24010G16KT 40SM FEW050 FEW080 FEW220 13/M08 A2986 RMK SC1CU1CI1 SLP136

CYYC;2009-04-12 21:00;CYYC 122100Z 20004G16KT 40SM FEW060 FEW240 13/M08 A2985 RMK SC1CI1 SLP127

CYYC;2009-04-12 22:00;CYYC 122200Z 20005KT 40SM FEW060 FEW080 FEW110 FEW180 13/M08 A2983 RMK SC1CU1AC1AC1 ACSL SLP120

CYYC;2009-04-12 23:00;CYYC 122300Z 20004KT 40SM FEW060 FEW180 SCT210 13/M07 A2982 RMK SC1AC1CI0 SLP116

CYYC;2009-04-13 00:00;CYYC 130000Z 21010G15KT 40SM FEW060 FEW090 BKN160 BKN220 13/M06 A2980 RMK SC1AC1AC1CI0 SLP113

CYYC;2009-04-13 01:00;CYYC 130100Z 27007KT 40SM FEW060 FEW090 BKN140 OVC220 12/M05 A2978 RMK SC1AC2AC2CI0 ACSL SLP107

CYYC;2009-04-13 02:00;CYYC 130200Z 30006KT 40SM SCT160 BKN250 11/M05 A2976 RMK AC2CI1 CONTRAILS SLP101

CYYC;2009-04-13 03:00;CYYC 130300Z 30004KT 15SM FEW160 BKN220 09/M05 A2975 RMK AC2CI1 SLP097

CYYC;2009-04-13 04:00;CYYC 130400Z 26003KT 15SM FEW160 SCT220 08/M05 A2974 RMK AC1CI0 SLP093

CYYC;2009-04-13 05:00;CYYC 130500Z 28004KT 15SM FEW220 06/M05 A2972 RMK CI1 SLP089

CYYC;2009-04-13 06:00;CYYC 130600Z 13002KT 15SM SCT210 03/M05 A2970 RMK CI2 SLP082

CYYC;2009-04-13 07:00;CYYC 130700Z 14004KT 15SM FEW220 03/M04 A2968 RMK CI1 SLP075

CYYC;2009-04-13 08:00;CYYC 130800Z 00000KT 15SM FEW220 02/M04 A2966 RMK CI1 SLP069

CYYC;2009-04-13 09:00;CYYC 130900Z 00000KT 15SM FEW220 01/M05 A2964 RMK CI1 SLP063

CYYC;2009-04-13 10:00;CYYC 131000Z 32003KT 15SM SKC M01/M05 A2963 RMK SLP057

CYYC;2009-04-13 11:00;CYYC 131100Z 34005KT 15SM SKC M01/M05 A2960 RMK SLP050

CYYC;2009-04-13 12:00;CYYC 131200Z 17005KT 15SM FEW120 SCT250 M01/M05 A2960 RMK AC1CI0 SLP048

CYYC;2009-04-13 13:00;CYYC 131300Z 18007KT 30SM FEW090 FEW250 M01/M05 A2957 RMK AC1CI0 DIST SH SW SLP040

CYYC;2009-04-13 14:00;CYYC 131400Z 19006KT 40SM FEW050 FEW090 FEW250 02/M03 A2956 RMK SC1AC1CI1 AC+CI TR SLP036

CYYC;2009-04-13 15:00;CYYC 131500Z 23008KT 40SM FEW040 FEW090 FEW250 05/M03 A2955 RMK CU1AC1CI1 AC+CI TR SLP030

CYYC;2009-04-13 16:00;CYYC 131600Z 26017G24KT 40SM FEW040 FEW100 FEW240 09/M04 A2954 RMK CU2AC1CI0 AC TR SLP028

CYYC;2009-04-13 17:00;CYYC 131700Z 32025G30KT 40SM FEW040 SCT085 SCT240 10/M07 A2957 RMK CU2AC2CI1 SLP037

CYYC;2009-04-13 18:00;CYYC 131800Z 28017KT 40SM VCSH FEW040 BKN120 08/M10 A2958 RMK CU2AC5 SH SSE SLP042

CYYC;2009-04-13 19:00;CYYC 131900Z 33010G25KT 40SM VCSH FEW050 FEW080 BKN160 10/M11 A2959 RMK CU1AC2AC5 SLP046

CYYC;2009-04-13 20:00;CYYC 132000Z 35010G17KT 40SM FEW048 FEW080 BKN120 08/M01 A2959 RMK CU2AC1AC4 SH DIST S SLP045

CYYC;2009-04-13 21:00;CYYC 132100Z 02012KT 30SM FEW048 FEW080 BKN150 09/M02 A2961 RMK CU2AC1AC4 VIRGA SW SLP055

CYYC;2009-04-13 22:00;CYYC 132200Z 01013KT 30SM VCSH FEW045CB SCT080 BKN140 07/M04 A2962 RMK CB2AC2AC3 SH ALQDS SLP058

CYYC;2009-04-13 23:00;CYYC 132300Z 33012G18KT 30SM FEW040 FEW070CB BKN100 07/M06 A2963 RMK SC1CB2AC4 SH DIST NE SLP062

CYYC;2009-04-14 00:00;CYYC 140000Z 28016G21KT 30SM FEW050TCU SCT080 BKN120 09/M11 A2963 RMK TCU2AC2AC1 SLP065

CYYC;2009-04-14 00:45;CYYC 140045Z 33014G22KT 30SM FEW050TCU FEW070CB BKN120 06/ RMK TCU2CB1AC2 WSHFT 0040Z

CYYC;2009-04-14 01:00;CYYC 140100Z 33012G18KT 40SM FEW045 FEW070CB SCT110 04/M03 A2965 RMK CU1CB1AC2 SH DIST NNE SLP072

CYYC;2009-04-14 02:00;CYYC 140200Z 32010KT 40SM FEW020 FEW060CB BKN100 05/M06 A2966 RMK CF1CB2AC2 SH DIST NW-E / CB E / VIRGA NE SLP075

CYYC;2009-04-14 03:00;CYYC 140300Z CCA 35022G28KT 15SM FEW020 BKN050 02/M01 A2970 RMK CF1SC6 SH DIST N / CB ASOCTD N-E / VIRGA ALQDS SLP091

CYYC;2009-04-14 03:22;CYYC 140322Z 35014G22KT 15SM -RA FEW020 OVC040 01/ RMK CF1SC6 CB ASOCTD / VIRGA ALQDS

CYYC;2009-04-14 03:43;CYYC 140343Z 01007KT 15SM FEW020 OVC050 01/ RMK CF1SC6 VIRGA ALQDS

CYYC;2009-04-14 04:00;CYYC 140400Z 05003KT 15SM BKN060 OVC080 01/M00 A2970 RMK SC4AC3 SLP091

CYYC;2009-04-14 05:00;CYYC 140500Z 34004KT 15SM FEW060 BKN120 01/M01 A2971 RMK SC2AC4 SLP095

CYYC;2009-04-14 06:00;CYYC 140600Z 34005KT 15SM FEW080 SCT180 00/M02 A2971 RMK AC1AC2 SLP091

CYYC;2009-04-14 07:00;CYYC 140700Z 22003KT 15SM BKN070 BKN180 00/M02 A2970 RMK AC4AC0 SLP089

CYYC;2009-04-14 08:00;CYYC 140800Z 22005KT 15SM BKN070 BKN180 00/M02 A2971 RMK AC3AC0 SLP092

CYYC;2009-04-14 09:00;CYYC 140900Z 23005KT 15SM FEW070 BKN180 M00/M03 A2971 RMK AC2AC1 SLP093

CYYC;2009-04-14 10:00;CYYC 141000Z 28003KT 15SM FEW025 SCT080 BKN120 M00/M03 A2972 RMK CF2AC2AC2 SLP096

CYYC;2009-04-14 11:00;CYYC 141100Z 32010KT 8SM OVC033 01/M03 A2973 RMK SC8 SLP100

CYYC;2009-04-14 11:18;CYYC 141118Z 31013KT 4SM -RA BKN017 OVC036 00/ RMK SC6SC2

CYYC;2009-04-14 11:30;CYYC 141130Z 30014KT 3SM -RASN BKN012 OVC028 00/ RMK SC6SC2

CYYC;2009-04-14 11:36;CYYC 141136Z 29013KT 2 1/2SM -SN BKN009 OVC022 M00/ RMK SC6SC2

CYYC;2009-04-14 11:43;CYYC 141143Z 28013G20KT 2 1/2SM -SN BKN012 OVC026 M00/ RMK SC6SC2

CYYC;2009-04-14 11:47;CYYC 141147Z 28014G20KT 2 1/2SM -SN BKN020 OVC038 M00/ RMK SC6SC2

CYYC;2009-04-14 12:00;CYYC 141200Z 28012G18KT 2 1/2SM -SN OVC050 M00/M02 A2974 RMK SC8 SNOW COVER /TRACE LOOSE SLP101

CYYC;2009-04-14 12:14;CYYC 141214Z 29012KT 5SM -SN OVC055 00/ RMK SC8

CYYC;2009-04-14 12:30;CYYC 141230Z 28014KT 2 1/2SM -SN SCT016 OVC042 00/ RMK SC2SC6

CYYC;2009-04-14 12:53;CYYC 141253Z 28010G16KT 1 1/2SM -SN BKN013 OVC026 M00/ RMK SC6SC2

CYYC;2009-04-14 13:00;CYYC 141300Z CCA 29012KT 1SM -SN BKN009 OVC022 M00/M02 A2975 RMK SC6SC2 RVR RWY34 6000+ FT SLP105

CYYC;2009-04-14 13:44;CYYC 141344Z 29011KT 1 3/4SM -SN FEW009 BKN014 OVC029 M00/ RMK SC2SC3SC2

CYYC;2009-04-14 14:00;CYYC 141400Z 29011KT 1 3/4SM -SN FEW009 BKN013 OVC026 M00/M01 A2977 RMK SC2SC3SC2 SLP111

CYYC;2009-04-14 14:10;CYYC 141410Z 29011KT 1SM -SN BKN010 OVC022 M00/ RMK SC5SC3 RVR RWY 34 6000+FT

CYYC;2009-04-14 14:40;CYYC 141440Z 30014KT 1 1/2SM -SN FEW009 SCT015 OVC022 M00/ RMK SC2SC2SC4

CYYC;2009-04-14 15:00;CYYC 141500Z 31015KT 1 1/2SM -SN FEW008 SCT012 OVC025 M00/M01 A2979 RMK SC1SC3SC4 SLP131

CYYC;2009-04-14 15:26;CYYC 141526Z 31013KT 3SM -SN FEW010 SCT016 OVC029 00/ RMK SC1SC2SC5

CYYC;2009-04-14 16:00;CYYC 141600Z 33015G21KT 3SM -SN FEW010 SCT014 OVC029 00/M01 A2981 RMK SC2SC2SC3 SLP137

CYYC;2009-04-14 17:00;CYYC 141700Z 34020G32KT 4SM -SN FEW008 BKN015 OVC025 00/M02 A2983 RMK SC2SC3SC2 SLP143

CYYC;2009-04-14 18:00;CYYC 141800Z 33021G28KT 5SM -SN FEW008 BKN014 OVC034 01/M01 A2985 RMK SC1SC4SC2 SLP151

CYYC;2009-04-14 19:00;CYYC 141900Z CCA 33026G31KT 10SM FEW016 SCT025 OVC060 02/M02 A2987 RMK CU1SC2SC4 SH E-SW SLP158

CYYC;2009-04-14 19:45;CYYC 141945Z 34024G29KT 6SM -SN FEW012 BKN021 OVC060 01/ RMK SC2SC3SC3

CYYC;2009-04-14 20:00;CYYC 142000Z 34025G30KT 6SM -SN FEW012 BKN020 OVC050 02/M02 A2989 RMK SC2SC3SC3 CU ASOCTD SLP163

CYYC;2009-04-14 21:00;CYYC 142100Z 33019G25KT 7SM -SHSN FEW014 BKN020 OVC070 02/M03 A2991 RMK SC2SC3AC2 CU ASOCTD SLP171

CYYC;2009-04-14 22:00;CYYC 142200Z 35024KT 15SM -SHSN FEW014 SCT020 OVC043 02/M04 A2993 RMK CU2SC2SC4 SLP176

CYYC;2009-04-14 23:00;CYYC 142300Z 34023KT 15SM -SHSN FEW020 SCT035 OVC054 02/M04 A2994 RMK CU2SC2SC4 PCPN VRY LGT SLP180

CYYC;2009-04-15 00:00;CYYC 150000Z 34018G25KT 20SM -SHSN FEW020 SCT033 BKN049 OVC080 03/M05 A2996 RMK CU2SC2SC4AC1 PCPN VRY LGT SLP188

CYYC;2009-04-15 01:00;CYYC 150100Z 36017KT 20SM FEW025 SCT060 OVC082 02/M05 A2997 RMK CU1SC3AC4 SH ALQDS SLP192

CYYC;2009-04-15 02:00;CYYC 150200Z 36013G18KT 20SM FEW040 BKN084 OVC210 02/M05 A2999 RMK SC1AC6CI2 SLP197

CYYC;2009-04-15 03:00;CYYC 150300Z 35012KT 15SM FEW050 BKN086 OVC180 01/M05 A3002 RMK SC1AC6AC1 SLP210

CYYC;2009-04-15 04:00;CYYC 150400Z 35007KT 15SM FEW040 OVC087 01/M05 A3004 RMK SC1AC7 SLP217

CYYC;2009-04-15 05:00;CYYC 150500Z 34007KT 15SM FEW057 OVC088 01/M05 A3005 RMK SC2AC6 SLP218

CYYC;2009-04-15 06:00;CYYC 150600Z 32007KT 15SM FEW057 OVC089 00/M05 A3005 RMK SC1AC7 SLP219

CYYC;2009-04-15 07:00;CYYC 150700Z 33010KT 15SM FEW063 BKN091 M00/M05 A3005 RMK SC2AC6 SLP219

CYYC;2009-04-15 08:00;CYYC 150800Z 35006KT 15SM FEW065 BKN079 OVC210 M01/M05 A3005 RMK SC1AC6CI1 SLP220

CYYC;2009-04-15 09:00;CYYC 150900Z 34009KT 15SM FEW065 BKN084 OVC220 M00/M05 A3006 RMK SC1AC6CI1 SC TR SLP223

CYYC;2009-04-15 10:00;CYYC 151000Z 33009KT 15SM FEW050 BKN075 BKN089 OVC220 M01/M05 A3006 RMK SC2AC3AC2CI1 SLP223

CYYC;2009-04-15 11:00;CYYC 151100Z 31006KT 15SM FEW050 BKN090 OVC220 M01/M05 A3008 RMK SC1AC6CI1 SLP229

CYYC;2009-04-15 12:00;CYYC 151200Z 33008KT 15SM BKN091 OVC220 M01/M06 A3008 RMK AC6CI2 SLP232

CYYC;2009-04-15 13:00;CYYC 151300Z 34007KT 20SM FEW050 BKN088 OVC220 M01/M06 A3010 RMK SC1AC6CC2 SLP237

CYYC;2009-04-15 14:00;CYYC 151400Z 34007KT 30SM FEW050 FEW090 BKN220 M00/M06 A3011 RMK SC1AC1CS1 SLP240

CYYC;2009-04-15 15:00;CYYC 151500Z 36007KT 30SM FEW050 FEW100 SCT190 BKN270 01/M05 A3011 RMK SC1AC1AC1CI0 SLP240

CYYC;2009-04-15 16:00;CYYC 151600Z 02010KT 30SM FEW030 FEW100 BKN240 03/M05 A3011 RMK CU1AC1CI1 SLP241

CYYC;2009-04-15 17:00;CYYC 151700Z 01009G16KT 30SM SCT035 BKN260 04/M05 A3012 RMK CU3CI0 SLP244

CYYC;2009-04-15 18:00;CYYC 151800Z 03006G15KT 30SM BKN044 BKN260 04/M07 A3013 RMK CU6CI0 SLP244

CYYC;2009-04-15 19:00;CYYC 151900Z CCA 02007KT 30SM BKN045 BKN260 04/M07 A3012 RMK CU6CI1 SLP241

CYYC;2009-04-15 20:00;CYYC 152000Z 03005KT 30SM BKN052 BKN280 05/M08 A3011 RMK CU6CI1 SLP240

CYYC;2009-04-15 21:00;CYYC 152100Z 04011KT 30SM SCT052 BKN180 BKN260 06/M08 A3012 RMK CU3AC1CI0 SLP238

CYYC;2009-04-15 22:00;CYYC 152200Z 03008KT 30SM SCT055 BKN170 BKN260 06/M07 A3012 RMK CU3AS2CI0 SLP240

CYYC;2009-04-15 23:00;CYYC 152300Z 05009KT 30SM SCT060 BKN160 BKN260 06/M08 A3013 RMK CU3AS2CI0 SLP241

CYYC;2009-04-16 00:00;CYYC 160000Z 01006KT 30SM SCT061 BKN160 BKN260 06/M08 A3013 RMK CU3AS2CI0 SLP245

CYYC;2009-04-16 01:00;CYYC 160100Z 03009KT 30SM SCT061 BKN140 06/M07 A3014 RMK CU3AS2 SLP246

CYYC;2009-04-16 02:00;CYYC 160200Z 03008KT 20SM FEW065 SCT070 OVC160 05/M08 A3015 RMK SC2AC2AC2 SLP249

CYYC;2009-04-16 03:00;CYYC 160300Z 05007KT 15SM BKN110 OVC220 04/M06 A3017 RMK AS6CI2 SLP256

CYYC;2009-04-16 04:00;CYYC 160400Z 05005KT 15SM BKN130 OVC180 03/M06 A3018 RMK AS6AC2 SLP260

CYYC;2009-04-16 04:32;CYYC 160432Z 05004KT 15SM BKN100 OVC180 02/ RMK AS6AC2

CYYC;2009-04-16 05:00;CYYC 160500Z 04004KT 15SM BKN110 OVC180 02/M06 A3019 RMK AS6AC2 SLP264

CYYC;2009-04-16 06:00;CYYC 160600Z 35004KT 15SM SCT110 BKN240 01/M07 A3020 RMK AC3CI2 SLP267

CYYC;2009-04-16 07:00;CYYC 160700Z 35004KT 15SM FEW092 FEW240 M00/M07 A3019 RMK AC1CI1 SLP266

CYYC;2009-04-16 08:00;CYYC 160800Z 35005KT 15SM FEW130 FEW240 M01/M07 A3020 RMK AC1CI1 SLP268

CYYC;2009-04-16 09:00;CYYC 160900Z 31005KT 15SM FEW130 FEW240 M02/M07 A3021 RMK AC1CI1 SLP272

CYYC;2009-04-16 10:00;CYYC 161000Z 31003KT 15SM FEW100 SCT240 M02/M07 A3021 RMK AC1CI1 SLP272

CYYC;2009-04-16 11:00;CYYC 161100Z 34003KT 15SM SCT110 OVC240 M03/M07 A3022 RMK AC3CI2 SLP276

CYYC;2009-04-16 12:00;CYYC 161200Z 34004KT 15SM BKN110 OVC220 M03/M07 A3024 RMK AC7CI1 SLP284

CYYC;2009-04-16 13:00;CYYC 161300Z 31004KT 20SM BKN065 OVC100 M03/M07 A3024 RMK SC6AC2 HZ SSW SLP284

CYYC;2009-04-16 14:00;CYYC 161400Z 00000KT 40SM FEW065 BKN080 BKN140 M02/M06 A3024 RMK SC2AC3AC0 SLP286

CYYC;2009-04-16 15:00;CYYC 161500Z 00000KT 40SM FEW080 SCT110 BKN150 BKN210 01/M05 A3025 RMK AC2AC2AC2CI0 SLP287

CYYC;2009-04-16 16:00;CYYC 161600Z 21004KT 40SM FEW080 SCT100 BKN210 04/M06 A3026 RMK AC2AC2CI0 SLP289

CYYC;2009-04-16 17:00;CYYC 161700Z 19003KT 40SM FEW056 FEW120 BKN210 07/M07 A3026 RMK CU1AC2CI1 CU TR SLP289

CYYC;2009-04-16 18:00;CYYC 161800Z 19007KT 40SM FEW060 FEW120 SCT210 07/M08 A3026 RMK CU1AC2CI0 SLP284

CYYC;2009-04-16 19:00;CYYC 161900Z 22003KT 40SM FEW068 SCT170 SCT210 08/M08 A3025 RMK CU2AC1CI0 SLP280

CYYC;2009-04-16 20:00;CYYC 162000Z 13005KT 40SM FEW068 FEW120 SCT210 09/M08 A3023 RMK CU1AC1CI0 SLP276

CYYC;2009-04-16 21:00;CYYC 162100Z 16006KT 40SM FEW068 SCT220 09/M08 A3023 RMK CU2CI0 SLP276

CYYC;2009-04-16 22:00;CYYC 162200Z 00000KT 40SM FEW070 FEW220 09/M08 A3022 RMK CU2CI0 SLP273

CYYC;2009-04-16 23:00;CYYC 162300Z 19003KT 40SM FEW072 SCT220 10/M08 A3022 RMK CU2CI0 SLP272

CYYC;2009-04-17 00:00;CYYC 170000Z 13007KT 40SM FEW068 SCT220 10/M07 A3021 RMK CU1CI0 CU TR SLP268

CYYC;2009-04-17 01:00;CYYC 170100Z 13009KT 40SM FEW068 FEW220 10/M07 A3020 RMK CU1CI1 SLP266

CYYC;2009-04-17 02:00;CYYC 170200Z 13011KT 40SM FEW090 08/M07 A3020 RMK AC1 AC TR SLP267

CYYC;2009-04-17 03:00;CYYC 170300Z 13008KT 20SM FEW220 06/M06 A3022 RMK CI1 CI TR SLP271

CYYC;2009-04-17 04:00;CYYC 170400Z 15012KT 15SM SKC 05/M06 A3023 RMK SLP274

CYYC;2009-04-17 05:00;CYYC 170500Z 16009KT 15SM SKC 03/M06 A3023 RMK SLP276

CYYC;2009-04-17 06:00;CYYC 170600Z 17009KT 15SM SKC 03/M06 A3022 RMK SLP269

CYYC;2009-04-17 07:00;CYYC 170700Z 16012KT 15SM SKC 03/M06 A3022 RMK SLP267

CYYC;2009-04-17 07:34;CYYC 170734Z 16009KT 15SM SKC 02/

CYYC;2009-04-17 08:00;CYYC 170800Z 16007KT 15SM SKC 01/M06 A3021 RMK SLP266

CYYC;2009-04-17 09:00;CYYC 170900Z 16005KT 15SM SKC M01/M07 A3019 RMK SLP262

CYYC;2009-04-17 10:00;CYYC 171000Z 16006KT 15SM SKC M03/M07 A3018 RMK SLP257

CYYC;2009-04-17 11:00;CYYC 171100Z 18004KT 15SM SKC M01/M06 A3016 RMK SLP251

CYYC;2009-04-17 12:00;CYYC 171200Z 18004KT 20SM FEW160 BKN240 M01/M06 A3015 RMK AC1CI3 SLP244

CYYC;2009-04-17 13:00;CYYC 171300Z 19004KT 30SM FEW160 OVC240 M02/M06 A3014 RMK AC1CI3 SLP242

CYYC;2009-04-17 14:00;CYYC 171400Z 19006KT 40SM FEW160 OVC240 M00/M05 A3013 RMK AC2CI3 SLP240

CYYC;2009-04-17 15:00;CYYC 171500Z 20005KT 40SM FEW100 FEW190 OVC240 02/M05 A3011 RMK AC1AC2CI2 SLP234

CYYC;2009-04-17 16:00;CYYC 171600Z 18006KT 40SM FEW120 SCT190 BKN240 05/M05 A3011 RMK AC1AC2CI2 SLP232

CYYC;2009-04-17 17:00;CYYC 171700Z 15008KT 40SM FEW160 SCT190 OVC220 07/M04 A3010 RMK AC2AC2CI3 SLP229

CYYC;2009-04-17 18:00;CYYC 171800Z 16010KT 40SM FEW180 OVC220 11/M04 A3008 RMK AC2CI5 SLP216

CYYC;2009-04-17 19:00;CYYC 171900Z 17010KT 40SM SCT130 BKN170 OVC220 12/M04 A3006 RMK AC3AC2CI2 SLP208

CYYC;2009-04-17 20:00;CYYC 172000Z 17012KT 40SM BKN140 BKN180 OVC210 14/M06 A3003 RMK AC5AC2CI1 SLP199

CYYC;2009-04-17 21:00;CYYC 172100Z 15009KT 40SM FEW100 BKN130 OVC210 15/M06 A3000 RMK AC2AC4CI2 SLP187

CYYC;2009-04-17 22:00;CYYC 172200Z 12012KT 40SM SCT080 BKN100 OVC120 15/M06 A2998 RMK AC3AC2AC2 SLP181

CYYC;2009-04-17 23:00;CYYC 172300Z 16005G17KT 40SM FEW060 BKN080 OVC100 15/M06 A2997 RMK SC1AC5AC2 SLP176

CYYC;2009-04-18 00:00;CYYC 180000Z 20005KT 40SM FEW060 BKN090 OVC110 14/M08 A2997 RMK SC1AC5AC2 SLP177

CYYC;2009-04-18 01:00;CYYC 180100Z 27009KT 40SM FEW060 BKN090 OVC110 13/M05 A2996 RMK SC1AC4AC3 SLP175

CYYC;2009-04-18 02:00;CYYC 180200Z 27010G15KT 30SM FEW060 SCT100 OVC210 12/M05 A2995 RMK SC1AS3CI3 SLP171

CYYC;2009-04-18 03:00;CYYC 180300Z 29007KT 15SM FEW060 FEW100 OVC240 10/M04 A2996 RMK SC1AC2CI5 SC TR SLP175

CYYC;2009-04-18 04:00;CYYC 180400Z 27012KT 15SM FEW100 SCT240 09/M04 A2997 RMK AC1CI2 SLP176

CYYC;2009-04-18 05:00;CYYC 180500Z 35003KT 15SM FEW100 07/M04 A2997 RMK AC1 SLP178

CYYC;2009-04-18 06:00;CYYC 180600Z 32003KT 15SM FEW090 06/M05 A2995 RMK AC1 AC TR SLP165

CYYC;2009-04-18 07:00;CYYC 180700Z 00000KT 15SM SKC 05/M05 A2996 RMK SLP168

CYYC;2009-04-18 08:00;CYYC 180800Z 25007KT 15SM SKC 06/M05 A2996 RMK SLP168

CYYC;2009-04-18 09:00;CYYC 180900Z 28009KT 15SM FEW170 06/M04 A2998 RMK AC1 SLP168

CYYC;2009-04-18 10:00;CYYC 181000Z 30010KT 15SM SCT110 SCT180 06/M05 A2999 RMK AC2AC1 SLP173

CYYC;2009-04-18 11:00;CYYC 181100Z 31007KT 15SM FEW088 BKN130 OVC180 06/M06 A3004 RMK AC1AC4AC1 SLP187

CYYC;2009-04-18 12:00;CYYC 181200Z 31012G17KT 20SM FEW080 SCT130 OVC180 04/M06 A3009 RMK ACC1AC2AC4 ACC E SLP211

CYYC;2009-04-18 13:00;CYYC 181300Z 30010G15KT 40SM FEW070 BKN110 OVC180 04/M06 A3011 RMK AC2AC3AC2 SLP219

CYYC;2009-04-18 14:00;CYYC 181400Z 31011G18KT 40SM FEW060 FEW130 SCT170 BKN240 06/M07 A3013 RMK SC1AC2AC1CI0 SC TR SLP225

CYYC;2009-04-18 15:00;CYYC 181500Z CCA 31012G19KT 40SM FEW052 FEW080 SCT150 07/M06 A3016 RMK CU1AC2AC1 CU TR SLP236

CYYC;2009-04-18 16:00;CYYC 181600Z 35018KT 40SM FEW068 FEW080 SCT120 09/M08 A3017 RMK CU1AC1AC1 SLP239

CYYC;2009-04-18 17:00;CYYC 181700Z 33016KT 40SM FEW072 FEW180 SCT210 09/M09 A3016 RMK CU1AC1CI1 CU TR SLP238

CYYC;2009-04-18 18:00;CYYC 181800Z 27003G15KT 40SM FEW080 FEW180 11/M09 A3016 RMK CU1AC1 SLP238

CYYC;2009-04-18 19:00;CYYC 181900Z 17002KT 40SM FEW084 FEW180 FEW220 11/M10 A3015 RMK CU1AC1CI0 CU TR SLP234

CYYC;2009-04-18 20:00;CYYC 182000Z CCA 23012KT 40SM FEW094 FEW150 SCT220 12/M10 A3014 RMK CU1AC1CI1 CU TR SLP232

CYYC;2009-04-18 21:00;CYYC 182100Z 29014G19KT 40SM FEW096 BKN220 13/M11 A3013 RMK CU1CI2 VIRGA N-E-SE SLP224

CYYC;2009-04-18 22:00;CYYC 182200Z CCA 28005KT 40SM FEW010 FEW180 BKN210 13/M11 A3011 RMK CU1AC1CI2 VIRGA N-E-SE/ AC TR SLP218

CYYC;2009-04-18 23:00;CYYC 182300Z 25017G22KT 40SM FEW100 FEW160 BKN220 14/M11 A3010 RMK CU1AC0CI3 SLP216

CYYC;2009-04-19 00:00;CYYC 190000Z 29020G25KT 40SM FEW096 FEW160 BKN210 12/M12 A3011 RMK CU1AC0CI4 SLP221

CYYC;2009-04-19 01:00;CYYC 190100Z 27014G21KT 40SM FEW088 FEW180 BKN200 11/M11 A3011 RMK CU1AC1CI5 SLP223

CYYC;2009-04-19 02:00;CYYC 190200Z 27009KT 30SM FEW090 BKN180 BKN210 11/M11 A3012 RMK AC1AS4CI2 SLP225

CYYC;2009-04-19 03:00;CYYC 190300Z 27011KT 30SM FEW080 BKN180 OVC210 10/M13 A3014 RMK AC1AS6CI1 SLP232

CYYC;2009-04-19 04:00;CYYC 190400Z 29013KT 15SM FEW080 BKN180 OVC210 09/M12 A3017 RMK AC1AS6CI1 SLP239

CYYC;2009-04-19 05:00;CYYC 190500Z 30010KT 15SM FEW100 OVC180 08/M11 A3019 RMK AC1AS6 SLP245

CYYC;2009-04-19 06:00;CYYC 190600Z 34004KT 15SM FEW100 SCT160 BKN210 06/M11 A3019 RMK AC1AS2CI2 SLP248

CYYC;2009-04-19 07:00;CYYC 190700Z 05002KT 15SM SCT150 BKN210 03/M09 A3020 RMK AC2CI0 SLP251

CYYC;2009-04-19 08:00;CYYC 190800Z 35006KT 15SM FEW100 SCT150 03/M10 A3021 RMK AC1AC2 SLP253

CYYC;2009-04-19 09:00;CYYC 190900Z 26002KT 15SM FEW100 FEW150 SCT250 01/M09 A3020 RMK AC1AC1CI0 SLP256

CYYC;2009-04-19 10:00;CYYC 191000Z 31006KT 15SM FEW250 01/M10 A3020 RMK CI0 SLP256

CYYC;2009-04-19 11:00;CYYC 191100Z 36005KT 15SM FEW250 M01/M10 A3021 RMK CI1 SLP257

CYYC;2009-04-19 12:00;CYYC 191200Z 34004KT 15SM SCT100 SCT170 BKN250 M02/M09 A3021 RMK AC2AS1CI0 SLP263

CYYC;2009-04-19 13:00;CYYC 191300Z 33005KT 30SM BKN100 BKN250 M01/M09 A3022 RMK AC5CI0 SLP266

CYYC;2009-04-19 14:00;CYYC 191400Z 21004KT 40SM FEW040 SCT070 BKN120 OVC220 01/M07 A3022 RMK SC1AC1AC1CI0 SLP266

CYYC;2009-04-19 15:00;CYYC 191500Z 18004KT 40SM FEW050 SCT075 BKN086 04/M07 A3022 RMK SC1AC2AC2 VIRGA E SLP261

CYYC;2009-04-19 16:00;CYYC 191600Z 23003KT 40SM BKN062 BKN110 07/M08 A3021 RMK SC5AC2 VIRGA E SLP258

CYYC;2009-04-19 17:00;CYYC 191700Z 13005KT 40SM FEW100 BKN110 09/M09 A3019 RMK AC1AC3 SLP253

CYYC;2009-04-19 18:00;CYYC 191800Z 13005KT 40SM FEW090 BKN100 BKN250 10/M09 A3017 RMK AC1AC2CI0 SLP242

CYYC;2009-04-19 19:00;CYYC 191900Z 14007KT 40SM FEW080 BKN110 BKN250 12/M07 A3014 RMK AC2AC2CI0 SLP231

CYYC;2009-04-19 20:00;CYYC 192000Z 11002KT 40SM BKN080 12/M07 A3011 RMK AC7 SLP223

CYYC;2009-04-19 21:00;CYYC 192100Z 20006KT 40SM BKN080 BKN230 13/M07 A3009 RMK AC7CI1 SLP218

CYYC;2009-04-19 22:00;CYYC 192200Z 20008KT 40SM BKN080 BKN250 14/M05 A3008 RMK AC7CI1 SLP214

CYYC;2009-04-19 23:00;CYYC 192300Z 27017G22KT 40SM BKN076 BKN250 14/M04 A3006 RMK AC7CI1 SLP207

CYYC;2009-04-20 00:00;CYYC 200000Z 28016KT 40SM FEW060 FEW090 BKN120 14/M04 A3006 RMK SC1AC1AC6 SLP208

CYYC;2009-04-20 01:00;CYYC 200100Z 29013KT 40SM FEW060 FEW090 BKN120 BKN180 13/M04 A3006 RMK SC1AC1AC2AC0 ACSL SLP209

CYYC;2009-04-20 02:00;CYYC 200200Z 28009KT 30SM FEW060 BKN090 BKN180 12/M03 A3007 RMK SC1AC3AS2 SLP212

CYYC;2009-04-20 03:00;CYYC 200300Z 27008KT 30SM FEW090 BKN150 11/M03 A3007 RMK AC1AS6 SLP208

CYYC;2009-04-20 04:00;CYYC 200400Z 32010KT 15SM BKN150 10/M03 A3009 RMK AC7 SLP214

CYYC;2009-04-20 05:00;CYYC 200500Z 32006KT 15SM FEW090 BKN150 BKN210 09/M03 A3010 RMK AC1AC4CI2 SLP216

CYYC;2009-04-20 06:00;CYYC 200600Z 00000KT 15SM OVC170 07/M03 A3009 RMK AC6 SLP211

CYYC;2009-04-20 07:00;CYYC 200700Z 32004KT 15SM BKN150 OVC210 07/M02 A3007 RMK AC4CI2 SLP205

CYYC;2009-04-20 08:00;CYYC 200800Z 21004KT 15SM FEW150 SCT210 06/M03 A3006 RMK AC1CI1 SLP203

CYYC;2009-04-20 09:00;CYYC 200900Z 20002KT 15SM SCT140 BKN210 07/M02 A3005 RMK AC2CI1 SLP196

CYYC;2009-04-20 10:00;CYYC 201000Z 17003KT 15SM OVC140 06/M02 A3004 RMK AC7 SLP192

CYYC;2009-04-20 11:00;CYYC 201100Z CCA 00000KT 15SM BKN120 05/M02 A3002 RMK AC6 SLP187

CYYC;2009-04-20 12:00;CYYC 201200Z 16003KT 15SM FEW120 BKN150 05/M02 A3002 RMK AC2AC3 SLP184

CYYC;2009-04-20 13:00;CYYC 201300Z CCA 21003KT 30SM FEW090 SCT150 BKN210 06/M02 A3001 RMK AC1AC3CI1 SLP182

CYYC;2009-04-20 14:00;CYYC 201400Z 21003KT 30SM FEW050 FEW090 BKN170 BKN240 09/M01 A3001 RMK SC1AC1AC3CI2 SLP182

CYYC;2009-04-20 15:00;CYYC 201500Z 22004KT 40SM FEW060 SCT140 BKN180 BKN250 12/M00 A3002 RMK SC1AC3AC1CI1 SC TR SLP177

CYYC;2009-04-20 16:00;CYYC 201600Z CCA 25009KT 40SM FEW060 SCT150 BKN250 16/00 A3002 RMK SC1AC2CI2 SC TR SLP177

CYYC;2009-04-20 17:00;CYYC 201700Z 29012G18KT 40SM FEW060 FEW150 FEW250 17/M00 A3002 RMK SC1AC1CI1 SC TR SLP179

CYYC;2009-04-20 18:00;CYYC 201800Z 25014KT 40SM FEW050 FEW150 FEW250 18/M00 A3001 RMK CU1AC1CI0 CU TR SLP174

CYYC;2009-04-20 19:00;CYYC 201900Z 27012KT 40SM FEW080 FEW150 FEW250 19/00 A3000 RMK CU2AC1CI0 ACSL S/ CC ASOCTD/ AC TR SLP171

CYYC;2009-04-20 20:00;CYYC 202000Z 26017G24KT 40SM FEW080 SCT110 BKN250 20/00 A2999 RMK CU2AC1CI0 SLP167

CYYC;2009-04-20 21:00;CYYC 202100Z 27018G25KT 40SM FEW070 BKN130 BKN240 19/M00 A2999 RMK CU2AC3CI2 SLP166

CYYC;2009-04-20 22:00;CYYC 202200Z 27024KT 40SM FEW050 BKN160 BKN240 20/00 A2999 RMK CU1AC4CI2 SLP166

CYYC;2009-04-20 23:00;CYYC 202300Z 26017G27KT 40SM FEW050 FEW093 BKN160 BKN240 19/00 A3000 RMK CU1AC2AC3CI2 SLP168

CYYC;2009-04-21 00:00;CYYC 210000Z 26017G26KT 40SM FEW050 SCT095 BKN160 BKN220 19/00 A3001 RMK CU1AC2AC2CI1 SLP176

CYYC;2009-04-21 01:00;CYYC 210100Z 27014G20KT 40SM FEW050 FEW100 BKN160 BKN240 17/01 A3002 RMK CU1AC1AC2CI0 SLP177

CYYC;2009-04-21 02:00;CYYC 210200Z 26011KT 40SM FEW090 BKN190 17/01 A3001 RMK AC1AS6 SLP176

CYYC;2009-04-21 03:00;CYYC 210300Z 27013KT 15SM FEW090 BKN150 OVC240 16/01 A3003 RMK AC1AS6CI1 AC TR SLP175

CYYC;2009-04-21 04:00;CYYC 210400Z 35008KT 15SM FEW090 FEW150 BKN240 13/01 A3005 RMK AC1AS2CI1 AC TR SLP182

CYYC;2009-04-21 05:00;CYYC 210500Z 06009KT 15SM FEW150 11/M00 A3007 RMK AC1 SLP188

CYYC;2009-04-21 06:00;CYYC 210600Z 31005KT 15SM FEW150 09/01 A3006 RMK AC0 SLP190

CYYC;2009-04-21 07:00;CYYC 210700Z 11003KT 15SM SCT240 08/01 A3007 RMK CI1 SLP192

CYYC;2009-04-21 08:00;CYYC 210800Z 00000KT 15SM SCT240 07/00 A3006 RMK CI2 SLP190

CYYC;2009-04-21 09:00;CYYC 210900Z 19003KT 15SM FEW240 06/01 A3004 RMK CI1 SLP182

CYYC;2009-04-21 10:00;CYYC 211000Z 19002KT 15SM FEW240 03/M01 A3002 RMK CI1 SLP177

CYYC;2009-04-21 11:00;CYYC 211100Z 18004KT 15SM FEW120 BKN240 05/00 A3001 RMK AC1CI2 SLP173

CYYC;2009-04-21 12:00;CYYC 211200Z 18007KT 40SM FEW120 BKN240 06/01 A2999 RMK AC1CI6 SLP168

CYYC;2009-04-21 13:00;CYYC 211300Z 21008KT 40SM BKN120 BKN240 08/01 A2998 RMK AC6CI0 SLP163

CYYC;2009-04-21 14:00;CYYC 211400Z CCA 27017KT 40SM BKN140 BKN210 15/M01 A2996 RMK AC7CI1 CIG RAG SLP159

CYYC;2009-04-21 15:00;CYYC 211500Z 28006KT 40SM BKN150 BKN210 14/M01 A2996 RMK AC7CI1 CIG RAG SLP149

CYYC;2009-04-21 16:00;CYYC 211600Z 19004KT 40SM BKN160 BKN230 13/00 A2995 RMK AC7CI1 CIG RAG / ACSL SLP146

CYYC;2009-04-21 17:00;CYYC 211700Z 22008KT 40SM BKN150 BKN210 12/00 A2992 RMK AC6CI2 CIG RAG / ACSL S SLP138

CYYC;2009-04-21 18:00;CYYC 211800Z 23006KT 40SM BKN160 BKN230 14/M01 A2990 RMK AC6CI2 CIG RAG / ACSL SW SLP139

CYYC;2009-04-21 19:00;CYYC 211900Z 22004KT 40SM BKN170 BKN210 16/M03 A2988 RMK AC5CI2 ACSL SLP132

CYYC;2009-04-21 20:00;CYYC 212000Z 12002KT 40SM FEW050 BKN180 BKN220 15/M01 A2985 RMK CF1AC6CI2 SLP123

CYYC;2009-04-21 21:00;CYYC 212100Z 18004KT 40SM FEW050 BKN190 BKN220 15/00 A2983 RMK CU1AC6CI2 SLP116

CYYC;2009-04-21 22:00;CYYC 212200Z 20005KT 40SM FEW050 BKN190 BKN230 17/04 A2980 RMK CU1AS6CI2 SLP106

CYYC;2009-04-21 23:00;CYYC 212300Z 23006KT 40SM FEW070 BKN190 BKN240 19/M05 A2977 RMK CU1AS5CI2 SLP098

CYYC;2009-04-22 00:00;CYYC 220000Z 25016KT 40SM FEW090 SCT190 BKN240 21/M07 A2975 RMK CU1AS3CI3 SLP080

CYYC;2009-04-22 01:00;CYYC 220100Z 25016G21KT 40SM FEW090 SCT190 BKN260 20/M08 A2972 RMK CU1AS3CI3 SLP072

CYYC;2009-04-22 02:00;CYYC 220200Z 25016KT 40SM FEW050 FEW160 BKN250 19/M07 A2971 RMK CU1AC1CI3 CU TR SLP069

CYYC;2009-04-22 03:00;CYYC 220300Z 27008KT 30SM FEW050 FEW090 SCT160 BKN250 15/M07 A2971 RMK CU1AC1AC1CI2 CU TR SLP062

CYYC;2009-04-22 04:00;CYYC 220400Z 27007KT 15SM FEW090 FEW160 FEW250 14/M07 A2969 RMK AC1AC1CI0 SLP057

CYYC;2009-04-22 05:00;CYYC 220500Z CCA 25005KT 15SM FEW160 FEW250 12/M07 A2966 RMK AC1CI0 AC TR SLP048

CYYC;2009-04-22 06:00;CYYC 220600Z 16003KT 15SM SKC 11/M07 A2964 RMK SLP046

CYYC;2009-04-22 07:00;CYYC 220700Z 25002KT 15SM SKC 10/M07 A2962 RMK SLP037

CYYC;2009-04-22 09:00;CYYC 220900Z 23003KT 15SM SKC 08/M06 A2957 RMK SLP023

CYYC;2009-04-22 10:00;CYYC 221000Z 31002KT 15SM SKC 05/M05 A2956 RMK SLP021

CYYC;2009-04-22 11:00;CYYC 221100Z 26005KT 15SM FEW090 FEW240 09/M05 A2957 RMK AC1CI1 AC TR SLP024

CYYC;2009-04-22 11:47;CYYC 221147Z 35022G30KT 20SM FEW090 FEW240 03/ RMK AC1CI1 WSHFT 1145Z

CYYC;2009-04-22 12:00;CYYC 221200Z 35022G28KT 20SM FEW090 SCT220 03/M01 A2964 RMK AC1CI1 SLP048

CYYC;2009-04-22 12:04;CYYC 221204Z 35024G29KT 20SM FEW090 SCT230 02/ RMK AC1CI1

CYYC;2009-04-22 13:00;CYYC 221300Z 36022KT 20SM FEW080 SCT150 BKN230 01/M02 A2967 RMK AC1AC2CI3 SLP058

CYYC;2009-04-22 14:00;CYYC 221400Z 36018G24KT 30SM FEW015 FEW140 FEW210 BKN270 01/M04 A2970 RMK SC1AC1CI1CI3 SLP065

CYYC;2009-04-22 15:00;CYYC 221500Z 36014G20KT 30SM FEW015 FEW180 BKN270 02/M05 A2971 RMK SC1AC2CI2 SLP081

CYYC;2009-04-22 16:00;CYYC 221600Z 01014G20KT 30SM FEW030 FEW180 BKN280 03/M05 A2971 RMK CU2AC1CI2 SLP079

CYYC;2009-04-22 17:00;CYYC 221700Z 36015KT 20SM OVC033 03/M04 A2971 RMK CU8 SLP079

CYYC;2009-04-22 18:00;CYYC 221800Z 01013G18KT 30SM OVC030 02/M05 A2971 RMK SC8 CU EMBD SLP085

CYYC;2009-04-22 19:00;CYYC 221900Z 02015KT 20SM VCSH BKN030 OVC037 02/M06 A2972 RMK SC6SC2 SH SW / VIS SW 6 SLP088

CYYC;2009-04-22 20:00;CYYC 222000Z 36015KT 5/8SM -SHSN FEW006 BKN016 OVC047 M01/M03 A2973 RMK SC2SC6SC1 SLP090

CYYC;2009-04-22 20:12;CYYC 222012Z 02020KT 1/2SM -SHSN BLSN FEW008 BKN016 OVC045 M02/ RMK SC2SC6SC1

CYYC;2009-04-22 20:22;CYYC 222022Z 02020G26KT 1 1/2SM -SHSN DRSN FEW010 BKN030 OVC045 M02/ REBLSN RMK SC1SC6SC1

CYYC;2009-04-22 20:35;CYYC 222035Z 36017G25KT 4SM -SHSN DRSN FEW010 BKN023 OVC045 M02/ REBLSN RMK SC2SC6SC1

CYYC;2009-04-22 20:49;CYYC 222049Z 36015KT 1 1/2SM -SHSN SCT007 OVC016 M02/ REBLSN RMK SC3SC5

CYYC;2009-04-22 21:00;CYYC 222100Z 01013KT 3/8SM SHSN BKN005 OVC016 M02/M04 A2975 REBLSN RMK SC5SC3 RVR RWY 34 3500FT SLP111

CYYC;2009-04-22 21:17;CYYC 222117Z 02017KT 3/8SM SHSN BKN003 OVC010 M02/ RMK SC5SC3 RVR RWY 34 2400FT

CYYC;2009-04-22 22:00;CYYC 222200Z 36014KT 3/8SM SHSN BKN005 OVC014 M03/M04 A2976 RMK SC5SC3 RVR RWY 34 3500FT SLP113

CYYC;2009-04-22 22:12;CYYC 222212Z 01014KT 1/2SM SHSN SCT005 BKN010 OVC025 M03/ RMK SC3SC3SC2 RVR RWY 34 5500FT

CYYC;2009-04-22 22:31;CYYC 222231Z 36012KT 3/8SM SHSN BKN005 OVC016 M03/ RMK SC5SC3 RVR RWY 34 3500FT

CYYC;2009-04-22 23:00;CYYC 222300Z 02011KT 3/8SM SHSN BKN006 OVC019 M03/M04 A2976 RMK SC6SC2 RVR RWY 34 4000FT /S01/ SLP112

CYYC;2009-04-22 23:25;CYYC 222325Z CCA 02008KT 1SM -SHSN BKN008 OVC027 M03/ RESN RMK SC5SC3 RVR RWY 34 6000FT / VIS S-E 3/4

CYYC;2009-04-22 23:40;CYYC 222340Z 36007KT 1 1/4SM -SHSN BKN011 OVC032 M03/ RMK SC5SC3

CYYC;2009-04-23 00:00;CYYC 230000Z CCA 35007KT 1 1/4SM -SN BKN012 BKN022 OVC030 M03/M04 A2976 RESN RMK SC6SC2SC1 SLP123

CYYC;2009-04-23 01:00;CYYC 230100Z CCA 35008KT 1SM -SN BKN007 OVC022 M03/M04 A2978 RMK SC6SC2 RVR RWY 34 6000FT SLP128

CYYC;2009-04-23 01:10;CYYC 230110Z 36007KT 5/8SM -SN BKN007 OVC021 M03/ RMK SN3SC3SC2 RVR RWY34 6000 FT

CYYC;2009-04-23 02:00;CYYC 230200Z 36005KT 5/8SM -SN BKN007 OVC019 M03/M04 A2975 RMK SN3SC4SC1 RVR RWY34 6000 FT/S01/ SLP119

CYYC;2009-04-23 02:39;CYYC 230239Z 31005KT 1 1/4SM -SN BKN014 OVC035 M03/ RMK SN2SC5SC2

CYYC;2009-04-23 02:50;CYYC 230250Z 30004KT 2SM -SN BKN015 OVC034 M03/ RMK SN1SC6SC2

CYYC;2009-04-23 03:00;CYYC 230300Z 28003KT 2SM -SN BKN015 OVC030 M03/M04 A2976 RMK SN1SC6SC2 CIG VRB 14-16 SLP122

CYYC;2009-04-23 03:37;CYYC 230337Z 20008KT 3SM -SN FEW016 BKN031 OVC052 M03/ RMK SC2SC4SC2

CYYC;2009-04-23 04:00;CYYC 230400Z 21011KT 5SM -SN FEW020 BKN043 OVC060 M02/M03 A2975 RMK SC1SC6SC2 SLP121

CYYC;2009-04-23 05:00;CYYC 230500Z 20008KT 7SM -SN FEW020 BKN056 OVC074 M02/M04 A2976 RMK SC1SC6AC2 SLP123

CYYC;2009-04-23 06:00;CYYC 230600Z 29005KT 10SM -SN BKN020 OVC038 M02/M04 A2977 RMK SC6SC2 /S02/ SN VRY LGT SLP125

CYYC;2009-04-23 06:37;CYYC 230637Z 28007KT 3SM -SN BKN014 OVC030 M02/ RMK SC5SC3

CYYC;2009-04-23 06:42;CYYC 230642Z 29007KT 5/8SM -SN BKN007 OVC017 M02/ RMK SN3SC4SC1 RVR RWY16 6000 FT

CYYC;2009-04-23 06:50;CYYC 230650Z 32008KT 3/8SM SN BKN003 OVC011 M02/ RMK SN6SC2SC1 RVR RWY16 4500 FT

CYYC;2009-04-23 07:00;CYYC 230700Z 01010KT 3/8SM SN BKN003 OVC013 M03/M04 A2979 RMK SN6SC1SC1 RVR RWY28 1200 FT/ CIG VRB 2-4 SLP132

CYYC;2009-04-23 07:49;CYYC 230749Z 36018G26KT 1/2SM SN BLSN BKN009 OVC024 M05/ RMK SC6SC2 RVR RWY16 6000 FT

CYYC;2009-04-23 08:00;CYYC 230800Z 36021G27KT 1/2SM SN BLSN BKN009 OVC031 M05/M07 A2983 RMK SN4SC3SC1 RVR RWY16 6000 FT/ S01/ CIG VRB 8-10 SLP142

CYYC;2009-04-23 08:06;CYYC 230806Z 01022G27KT 5/8SM -SN DRSN BKN010 OVC027 M05/ REBLSN RMK SN4SC3SC1 RVR RWY16 6000 FT/ CIG VRB 8-12

CYYC;2009-04-23 09:00;CYYC 230900Z CCA 35025G30KT 9SM -SN DRSN BKN041 OVC065 M06/M11 A2983 RESN REBLSN RMK SC7SC1 SLP158

CYYC;2009-04-23 10:00;CYYC 231000Z 34017G24KT 12SM -SN DRSN BKN037 OVC058 M06/M13 A2986 RMK SC6SC2 /S02/ SLP167

CYYC;2009-04-23 11:00;CYYC 231100Z CCA 34020G25KT 12SM -SN DRSN BKN034 OVC059 M07/M12 A2987 RMK SC5SC3 SLP172

CYYC;2009-04-23 12:00;CYYC 231200Z 35020G26KT 15SM -SN DRSN BKN043 OVC065 M07/M13 A2989 RMK SC6SC2 SNOW COVER/MUCH LOOSE SLP183

CYYC;2009-04-23 12:16;CYYC 231216Z 35020G25KT 15SM DRSN BKN046 OVC072 M07/ RMK SC6AC2

CYYC;2009-04-23 13:00;CYYC 231300Z 35020G29KT 15SM DRSN BKN050 OVC061 M08/M13 A2992 RMK SC6SC2 SLP190

CYYC;2009-04-23 14:00;CYYC 231400Z 34017G24KT 25SM DRSN BKN050 OVC060 M08/M13 A2994 RMK SC6SC2 SLP197

CYYC;2009-04-23 15:00;CYYC 231500Z 34019G25KT 20SM DRSN FEW010 SCT050 BKN060 OVC070 M07/M13 A2995 RMK SF1SC3SC2AC2 SF TR SLP202

CYYC;2009-04-23 16:00;CYYC 231600Z CCA 35022KT 20SM DRSN FEW035 SCT060 BKN075 BKN200 M07/M12 A2994 RMK SC1SC2AC2CI0 SLP201

CYYC;2009-04-23 17:00;CYYC 231700Z CCA 34020G26KT 20SM DRSN FEW035 BKN080 M06/M11 A2994 RMK SC2AC2 SLP201

CYYC;2009-04-23 18:00;CYYC 231800Z 34015G22KT 20SM DRSN SCT035 BKN090 BKN200 M05/M11 A2996 RMK SC3AC1CI0 SLP202

CYYC;2009-04-23 18:56;CYYC 231856Z 31014G20KT 20SM -SN DRSN BKN040 BKN090 M05/ RMK SC5AC0

CYYC;2009-04-23 19:00;CYYC 231900Z 34016KT 20SM -SN DRSN BKN040 BKN090 M05/M11 A2996 RMK SC5AC0 SLP202

CYYC;2009-04-23 19:45;CYYC 231945Z 35014KT 20SM SCT035 M04/ RMK SC4

CYYC;2009-04-23 20:00;CYYC 232000Z 36013KT 20SM SCT035 M03/M09 A2995 RMK SC4 SLP199

CYYC;2009-04-23 21:00;CYYC 232100Z 36014KT 20SM SCT040 M03/M10 A2994 RMK SC4 SLP198

CYYC;2009-04-23 22:00;CYYC 232200Z 34011KT 20SM FEW042 SCT200 M02/M11 A2993 RMK SC2CI0 SLP195

CYYC;2009-04-23 23:00;CYYC 232300Z 02009G16KT 20SM FEW042 SCT240 M01/M11 A2992 RMK SC2CI1 SLP191

CYYC;2009-04-24 00:00;CYYC 240000Z 34007KT 20SM FEW042 SCT140 BKN210 M01/M12 A2991 RMK SC1AC2CI1 SLP186

CYYC;2009-04-24 01:00;CYYC 240100Z 04007KT 20SM FEW050 BKN130 BKN180 M01/M11 A2990 RMK SC2AC1AC0 SLP185

CYYC;2009-04-24 02:00;CYYC 240200Z 06005KT 20SM SCT050 BKN090 BKN230 M02/M12 A2991 RMK SC3AC1CI1 VIRGA S-W SLP186

CYYC;2009-04-24 03:00;CYYC 240300Z 13002KT 20SM FEW050 BKN140 BKN230 M03/M12 A2991 RMK SC2AC2CI1 SLP190

CYYC;2009-04-24 04:00;CYYC 240400Z 23010KT 15SM FEW050 BKN140 BKN230 M04/M09 A2992 RMK SC1AC2CI2 SLP191

CYYC;2009-04-24 05:00;CYYC 240500Z 22008KT 15SM FEW060 FEW140 SCT240 M04/M10 A2990 RMK SC1AC1CI1 SC TR SLP186

CYYC;2009-04-24 06:00;CYYC 240600Z 20006KT 15SM FEW100 FEW240 M05/M10 A2988 RMK AC2CI0 SLP179

CYYC;2009-04-24 07:00;CYYC 240700Z 20007KT 15SM FEW130 FEW240 M06/M11 A2987 RMK AC2CI1 SLP176

CYYC;2009-04-24 08:00;CYYC 240800Z 16003KT 15SM FEW090 SCT230 M06/M11 A2986 RMK AC2CI1 SLP171

CYYC;2009-04-24 09:00;CYYC 240900Z 27002KT 15SM SCT063 BKN082 OVC150 M06/M10 A2986 RMK SC3AC3AC2 SLP171

CYYC;2009-04-24 10:00;CYYC 241000Z 35007KT 15SM FEW060 FEW100 SCT160 SCT240 M06/M10 A2986 RMK SC1AC1AC1CI0 SLP171

CYYC;2009-04-24 11:00;CYYC 241100Z 28002KT 15SM FEW060 SCT140 BKN220 M06/M09 A2985 RMK SC1AC2CI1 SLP168

CYYC;2009-04-24 12:00;CYYC 241200Z 31004KT 15SM FEW060 FEW090 BKN140 M06/M09 A2985 RMK SC1AC2AC5 SNOW COVER/TRACE LOOSE SLP163

CYYC;2009-04-24 13:00;CYYC 241300Z 31008KT 40SM FEW080 SCT140 SCT230 M06/M10 A2985 RMK AC1AC2CI1 CI TR SLP164

CYYC;2009-04-24 14:00;CYYC 241400Z 35008KT 40SM FEW060 BKN140 M05/M09 A2987 RMK SC1AC2 SLP171

CYYC;2009-04-24 15:00;CYYC 241500Z 35010KT 40SM FEW015 FEW080 BKN120 M04/M07 A2989 RMK SC1AC2AC2 SLP177

CYYC;2009-04-24 16:00;CYYC 241600Z 02008KT 40SM FEW016 SCT050 SCT080 BKN120 M03/M06 A2989 RMK CU1SC3AC1AC1 SLP177

CYYC;2009-04-24 17:00;CYYC 241700Z 01006KT 40SM FEW018 SCT060 BKN080 BKN100 M03/M06 A2989 RMK SC2SC2AC2AC0 SLP176

CYYC;2009-04-24 18:00;CYYC 241800Z 02005KT 40SM FEW024 BKN100 M01/M08 A2989 RMK SC2AC1 SLP176

CYYC;2009-04-24 19:00;CYYC 241900Z 02007KT 30SM FEW030 SCT040 BKN160 BKN220 M00/M07 A2987 RMK SC2SC2AC0CI0 SLP170

CYYC;2009-04-24 20:00;CYYC 242000Z 14004KT 30SM SCT030 BKN080 M00/M07 A2985 RMK SC3AC2 SLP166

CYYC;2009-04-24 20:43;CYYC 242043Z CCA 13008KT 30SM -SN SCT035 BKN050 01/ RMK SC3SC2 PCPN VRY LGT

CYYC;2009-04-24 21:00;CYYC 242100Z 11007KT 30SM -SN SCT035 OVC050 00/M07 A2984 RMK SC4SC2 PCPN VRY LGT SLP157

CYYC;2009-04-24 21:32;CYYC 242132Z 18005KT 30SM SCT037 02/ RMK SC2

CYYC;2009-04-24 22:00;CYYC 242200Z 17009G15KT 40SM FEW040 03/M07 A2981 RMK SC2 SLP148

CYYC;2009-04-24 23:00;CYYC 242300Z 18009KT 40SM FEW050 FEW220 03/M06 A2979 RMK SC1CI0 SLP141

CYYC;2009-04-25 00:00;CYYC 250000Z 14007KT 40SM FEW050 FEW120 04/M07 A2977 RMK SC1AC1 SLP128

CYYC;2009-04-25 01:00;CYYC 250100Z 15007KT 40SM FEW040 04/M07 A2976 RMK CU1 SLP124

CYYC;2009-04-25 02:00;CYYC 250200Z 14009KT 40SM FEW036 FEW140 03/M06 A2975 RMK CU1AC0 SLP120

CYYC;2009-04-25 02:49;CYYC 250249Z 14007KT 30SM FEW020 FEW120 SCT220 02/ RMK CU1AC0CI0 CU TR

CYYC;2009-04-25 03:00;CYYC 250300Z 13008KT 20SM FEW020 FEW120 SCT220 01/M05 A2974 RMK CU1AC0CI0 CU TR SLP121

CYYC;2009-04-25 04:00;CYYC 250400Z 13005KT 15SM FEW120 FEW240 M00/M05 A2974 RMK AC1CI0 AC TR SLP119

CYYC;2009-04-25 05:00;CYYC 250500Z 16005KT 15SM FEW160 M01/M05 A2972 RMK AC2 SLP114

CYYC;2009-04-25 06:00;CYYC 250600Z 19004KT 15SM FEW160 SCT210 M01/M04 A2971 RMK AC2CI2 SLP109

CYYC;2009-04-25 07:00;CYYC 250700Z 20003KT 15SM FEW160 BKN240 M01/M04 A2971 RMK AC1CI3 SLP109

CYYC;2009-04-25 08:00;CYYC 250800Z 20004KT 15SM FEW082 SCT180 BKN240 00/M06 A2971 RMK AC1AC2CI2 SLP109

CYYC;2009-04-25 09:00;CYYC 250900Z 18004KT 15SM FEW092 BKN110 OVC240 00/M05 A2971 RMK AC2AC3CI2 SLP105

CYYC;2009-04-25 10:00;CYYC 251000Z 29002KT 15SM BKN073 OVC093 01/M05 A2972 RMK AC6AC2 SLP107

CYYC;2009-04-25 11:00;CYYC 251100Z 20006KT 15SM SCT060 OVC079 02/M05 A2974 RMK SC3AC5 VIRGA E-SE/ ACC EMBD SLP112

CYYC;2009-04-25 12:00;CYYC 251200Z 27008KT 15SM SCT058 OVC077 04/M05 A2973 RMK SC3AC5 VIRGA E-SE/ ACC EMBD SLP100

CYYC;2009-04-25 13:00;CYYC 251300Z CCA 20005KT 20SM BKN046 OVC065 03/M05 A2974 RMK SC5SC3 SLP102

CYYC;2009-04-25 14:00;CYYC 251400Z 22002KT 20SM OVC050 04/M05 A2974 RMK SC8 SLP104

CYYC;2009-04-25 15:00;CYYC 251500Z 22006KT 40SM OVC045 06/M04 A2975 RMK SC8 SLP110

CYYC;2009-04-25 16:00;CYYC 251600Z 34006KT 40SM FEW040 BKN060 OVC090 06/M05 A2977 RMK SC2SC5AC1 SLP115

CYYC;2009-04-25 16:54;CYYC 251654Z 35009KT 40SM -RA OVC040 06/ RMK SC8

CYYC;2009-04-25 17:00;CYYC 251700Z CCA 31006KT 40SM -DZ SCT040 OVC050 06/M04 A2979 RMK SC4SC4 SLP121

CYYC;2009-04-25 17:29;CYYC 251729Z 36011KT 25SM SCT040 OVC050 05/ RMK SC3SC5 VIRGA ALQDS

CYYC;2009-04-25 18:00;CYYC 251800Z 36013KT 15SM BKN040 OVC050 06/M03 A2981 RMK SC6SC2 VIRGA ALQDS SLP133

CYYC;2009-04-25 18:35;CYYC 251835Z 36017KT 15SM -DZ FEW030 BKN040 OVC050 04/ RMK SC2SC4SC2

CYYC;2009-04-25 18:44;CYYC 251844Z 36014G19KT 15SM -RA FEW030 BKN040 OVC050 03/ RMK SC2SC4SC2

CYYC;2009-04-25 19:00;CYYC 251900Z 01012G17KT 10SM -RA FEW015 BKN025 OVC030 04/01 A2983 RMK SC2SC3SC3 VIS S-W-NW 5 MI SLP138

CYYC;2009-04-25 20:00;CYYC 252000Z 02016KT 10SM -RA FEW015 BKN030 OVC040 04/01 A2984 RMK SC2SC3SC2 PCPN VRY LGT SLP141

CYYC;2009-04-25 20:35;CYYC 252035Z 03014G20KT 10SM FEW020 SCT050 OVC080 05/ RMK SC1SC2AC1

CYYC;2009-04-25 21:00;CYYC 252100Z 02015KT 15SM FEW040 SCT080 BKN160 OVC210 06/M01 A2984 RMK SC1AC2AC1CI0 SLP140

CYYC;2009-04-25 21:51;CYYC 252151Z CCB 34025KT 5SM -SHRAGS BKN015 BKN040 OVC070 02/ RMK SC5SC2AC1 CVC CLD EMBD

CYYC;2009-04-25 22:00;CYYC 252200Z 34022G28KT 3SM -SHRAGS SCT015 BKN030 OVC040 02/00 A2988 RMK SC3SC4SC1 CVCTV CLD EMBD SLP152

CYYC;2009-04-25 22:09;CYYC 252209Z 34017G26KT 2SM -SN OVC007 02/ RMK SC8

CYYC;2009-04-25 22:42;CYYC 252242Z 36016KT 4SM -SN BKN010 OVC020 02/ RMK SC5NS3

CYYC;2009-04-25 22:46;CYYC 252246Z 34022KT 1 1/2SM -SN BKN005 OVC015 02/ RMK SC5NS3

CYYC;2009-04-25 23:00;CYYC 252300Z 35018G24KT 1 1/2SM -SN BKN007 OVC014 01/M00 A2991 RMK SC5NS3 SLP161

CYYC;2009-04-25 23:21;CYYC 252321Z 35018KT 5SM -SN BKN008 OVC014 02/ RMK SC5NS3

CYYC;2009-04-26 00:00;CYYC 260000Z 36014G20KT 5SM -SN BKN009 OVC018 03/02 A2992 RMK SC5NS3 SLP170

CYYC;2009-04-26 00:11;CYYC 260011Z 01015KT 7SM SCT013 BKN020 OVC030 03/ RMK SC4SC2SC2

CYYC;2009-04-26 00:33;CYYC 260033Z 02015KT 5SM -SN BKN012 OVC020 03/ RMK SC5SC3

CYYC;2009-04-26 00:45;CYYC 260045Z 01015G20KT 6SM -SN FEW015 BKN020 BKN040 02/ RMK SC2SC3SC1

CYYC;2009-04-26 01:00;CYYC 260100Z 01012G17KT 7SM FEW015 SCT040 BKN100 03/M00 A2994 RMK SC2SC1AC1 SLP176

CYYC;2009-04-26 02:00;CYYC 260200Z 36013G18KT 25SM FEW015 FEW040 FEW100 SCT150 BKN250 02/M02 A2997 RMK SC1SC1AC1AS2CI0 SLP184

CYYC;2009-04-26 03:00;CYYC 260300Z 35011KT 25SM FEW040 FEW110 SCT150 BKN250 01/M02 A3000 RMK SC1AC1AS2CI0 SLP197

CYYC;2009-04-26 04:00;CYYC 260400Z 34009KT 15SM FEW040 FEW110 SCT140 BKN240 01/M02 A3004 RMK SC1AC2AS2CI0 SLP208

CYYC;2009-04-26 05:00;CYYC 260500Z 35013KT 15SM FEW110 SCT140 BKN210 M00/M03 A3006 RMK AC1AS2CI2 SLP215

CYYC;2009-04-26 06:00;CYYC 260600Z 34009KT 15SM FEW020 BKN140 BKN200 M01/M03 A3008 RMK SC1AS4CI1 SLP227

CYYC;2009-04-26 07:00;CYYC 260700Z 35014KT 15SM FEW020 BKN140 BKN200 M01/M04 A3008 RMK SC1AS5CI1 SLP227

CYYC;2009-04-26 08:00;CYYC 260800Z 35012KT 15SM FEW020 FEW140 SCT170 BKN210 M02/M04 A3009 RMK SC1AS2AC2CI1 SLP231

CYYC;2009-04-26 09:00;CYYC 260900Z 34010KT 15SM BKN160 M02/M05 A3010 RMK AC6 SLP235

CYYC;2009-04-26 10:00;CYYC 261000Z 33006KT 15SM BKN160 BKN210 M03/M06 A3011 RMK AC5CI0 SLP237

CYYC;2009-04-26 11:00;CYYC 261100Z 30004KT 15SM BKN120 BKN160 M04/M07 A3011 RMK AC5AC2 SLP239

CYYC;2009-04-26 12:00;CYYC 261200Z 00000KT 15SM FEW120 BKN150 BKN210 M03/M07 A3012 RMK AC2AS3CI1 SLP249

CYYC;2009-04-26 13:00;CYYC 261300Z 33003KT 30SM FEW110 BKN140 BKN210 M03/M06 A3013 RMK AC2AS2CI1 SLP252

CYYC;2009-04-26 14:00;CYYC 261400Z 29002KT 25SM FEW080 BKN110 BKN140 M02/M06 A3014 RMK AC1AC4AC0 SLP255

CYYC;2009-04-26 15:00;CYYC 261500Z 33004KT 30SM FEW080 BKN100 OVC160 M00/M06 A3015 RMK AC1AC5AC2 SLP256

CYYC;2009-04-26 16:00;CYYC 261600Z 03006KT 30SM BKN100 BKN160 BKN200 OVC240 01/M05 A3014 RMK AC5AC1CI1CI0 SLP255

CYYC;2009-04-26 17:00;CYYC 261700Z 02005KT 30SM FEW030 FEW055 BKN110 OVC240 02/M06 A3014 RMK SC1SC1AC6CI0 SLP255

CYYC;2009-04-26 18:00;CYYC 261800Z 00000KT 30SM FEW030 BKN045 OVC140 02/M09 A3014 RMK SC2SC5AC1 SLP254

CYYC;2009-04-26 19:00;CYYC 261900Z 00000KT 30SM FEW030 BKN040 OVC140 03/M07 A3013 RMK SC1SC7AC0 SLP251

CYYC;2009-04-26 20:00;CYYC 262000Z 08004KT 30SM FEW040 OVC050 04/M07 A3012 RMK SC2SC6 SLP246

CYYC;2009-04-26 21:00;CYYC 262100Z 04005KT 30SM SCT050 OVC120 04/M06 A3011 RMK SC4AC2 SLP242

CYYC;2009-04-26 22:00;CYYC 262200Z 11006KT 30SM FEW050 FEW130 05/M08 A3010 RMK SC2AC1 SLP238

CYYC;2009-04-26 23:00;CYYC 262300Z 09004KT 30SM BKN060 06/M08 A3009 RMK SC5 SLP236

CYYC;2009-04-26 23:50;CYYC 262350Z CCA 35022G30KT 20SM FEW017 OVC060 01/ RMK SC2SC5 WSHFT 2335/SH E/VIRGA

CYYC;2009-04-26 23:52;CYYC 262352Z 35027KT 20SM -SN FEW017 OVC060 01/ RMK SC2SC5 WSHFT 2335/SH E/VIRGA

CYYC;2009-04-27 00:00;CYYC 270000Z 36026G34KT 15SM -SN FEW012 SCT040 OVC060 00/M03 A3013 RMK SC2SC2SC5 SLP257

CYYC;2009-04-27 00:10;CYYC 270010Z 35025G34KT 2 1/2SM -SN SCT010 BKN052 OVC060 M00/ RMK SC4SC2SC2

CYYC;2009-04-27 00:13;CYYC 270013Z 35025G33KT 1 1/2SM -SN BKN010 OVC052 M01/ RMK SC6SC2

CYYC;2009-04-27 00:15;CYYC 270015Z 36025G33KT 1SM -SN OVC010 M01/ RMK SN3SC5

CYYC;2009-04-27 00:17;CYYC 270017Z 35024G33KT 1SM -SN OVC007 M01/ RMK SN3SC5

CYYC;2009-04-27 00:19;CYYC 270019Z 36023G32KT 3/4SM -SN OVC005 M01/ RMK SN5SC3

CYYC;2009-04-27 00:22;CYYC 270022Z CCA 36021G30KT 1/2SM SN BLSN OVC005 M01/ RMK SN6SC2

CYYC;2009-04-27 00:28;CYYC 270028Z 36025G30KT 3/8SM SN BLSN OVC004 M01/ RMK SN6SC2

CYYC;2009-04-27 00:36;CYYC 270036Z 36024G32KT 1/2SM SN BLSN OVC005 M02/ RMK SN6SC2

CYYC;2009-04-27 00:38;CYYC 270038Z 36021G32KT 3/4SM -SN BLSN OVC007 M02/ RESN RMK SN4SC4

CYYC;2009-04-27 01:00;CYYC 270100Z 36026KT 3/4SM -SN BLSN OVC007 M01/M02 A3016 RESN RMK SN5SC3 SLP266

CYYC;2009-04-27 01:02;CYYC 270102Z 36020G29KT 1SM -SN BLSN OVC007 M02/ RMK SN3SC5

CYYC;2009-04-27 01:16;CYYC 270116Z 01023G29KT 1 1/2SM -SN BLSN BKN008 OVC020 M02/ RMK SN2SC5SC2

CYYC;2009-04-27 02:00;CYYC 270200Z 36019G25KT 1 1/2SM -SN DRSN BKN009 OVC025 M02/M03 A3018 RMK SC4SC4 SLP272

CYYC;2009-04-27 03:00;CYYC 270300Z 36016G24KT 1 1/2SM -SN DRSN BKN015 OVC034 M02/M04 A3020 RMK SC4SC4 SLP279

CYYC;2009-04-27 03:41;CYYC 270341Z 36016KT 3SM -SN SCT015 OVC040 M02/ RMK CF2SC6

CYYC;2009-04-27 04:00;CYYC 270400Z 36015KT 5SM -SN SCT015 OVC040 M02/M04 A3022 RMK CF2SC6 SLP286

CYYC;2009-04-27 05:00;CYYC 270500Z 34012KT 8SM -SN OVC025 M02/M04 A3023 RMK SC8 PCPN VRY LGT SLP289

CYYC;2009-04-27 06:00;CYYC 270600Z 36012KT 15SM -SN FEW025 OVC075 M02/M05 A3023 RMK SC2AC6 PCPN VRY LGT SLP284

CYYC;2009-04-27 06:26;CYYC 270626Z 36012KT 15SM FEW018 SCT050 OVC080 M02/ RMK CF2SC2AC5

CYYC;2009-04-27 07:00;CYYC 270700Z 36012KT 15SM SCT018 SCT050 OVC080 M03/M05 A3022 RMK CF3SC1AC4 SLP283

CYYC;2009-04-27 08:00;CYYC 270800Z 34008KT 15SM SCT009 BKN024 OVC050 M03/M04 A3022 RMK ST2SC3SC2 SLP282

CYYC;2009-04-27 09:00;CYYC 270900Z 36012KT 15SM SCT009 BKN024 OVC050 M03/M05 A3021 RMK ST2SC3SC2 SLP278

CYYC;2009-04-27 10:00;CYYC 271000Z 35012KT 15SM BKN010 OVC050 M03/M05 A3021 RMK ST4SC4 SLP278

CYYC;2009-04-27 11:00;CYYC 271100Z 35010KT 15SM BKN016 OVC023 M04/M05 A3022 RMK ST5SC3 SLP280

CYYC;2009-04-27 12:00;CYYC 271200Z 35010KT 15SM SCT009 OVC021 M04/M05 A3022 RMK ST3SC5 SLP288

CYYC;2009-04-27 13:00;CYYC 271300Z 36009KT 15SM SCT012 OVC025 M03/M05 A3023 RMK ST2SC6 SLP290

CYYC;2009-04-27 14:00;CYYC 271400Z 01013KT 15SM BKN012 OVC028 M03/M05 A3024 RMK SC5SC3 SLP293

CYYC;2009-04-27 15:00;CYYC 271500Z 02010KT 15SM BKN013 OVC025 M03/M06 A3024 RMK SC5SC3 SLP297

CYYC;2009-04-27 16:00;CYYC 271600Z 02010KT 20SM BKN014 BKN028 OVC110 M02/M06 A3024 RMK SC5SC2AC1 SLP296

CYYC;2009-04-27 16:25;CYYC 271625Z 02011KT 20SM FEW016 BKN022 OVC096 M02/ RMK SC2SC4AC2

CYYC;2009-04-27 16:56;CYYC 271656Z 01009KT 20SM -SN FEW016 BKN028 OVC090 M02/ RMK SC2SC4AC2

CYYC;2009-04-27 17:00;CYYC 271700Z 02010KT 15SM -SN FEW016 BKN034 BKN040 OVC093 M02/M06 A3023 RMK SC2SC3SC2AC2 SLP295

CYYC;2009-04-27 18:00;CYYC 271800Z 02010KT 15SM -SN FEW016 BKN034 BKN060 OVC095 M01/M06 A3023 RMK SC1SC4SC2AC1 SLP291

CYYC;2009-04-27 19:00;CYYC 271900Z 01007KT 12SM -SN FEW020 SCT032 BKN065 OVC095 M01/M07 A3023 RMK SC1SC3SC2AC2 SLP289

CYYC;2009-04-27 20:00;CYYC 272000Z 36008KT 15SM -SN FEW020 BKN040 OVC070 01/M07 A3021 RMK SC1SC5AC2 SLP284

CYYC;2009-04-27 21:00;CYYC 272100Z 36003KT 10SM -SN FEW020 BKN045 OVC078 00/M08 A3021 RMK SC1SC6AC2 SLP284

CYYC;2009-04-27 22:00;CYYC 272200Z 03007KT 15SM -SN FEW030 BKN051 OVC078 01/M09 A3021 RMK SC1SC6AC2 SN VRY LGT SLP282

CYYC;2009-04-27 22:37;CYYC 272237Z 06006KT 15SM FEW030 BKN055 OVC097 02/ RMK SC1SC6AC2

CYYC;2009-04-27 23:00;CYYC 272300Z 10007KT 15SM FEW031 BKN042 OVC080 01/M09 A3020 RMK SC1SC6AC2 ACC EMBD/ VIRGA S SLP281

CYYC;2009-04-28 00:00;CYYC 280000Z 11004KT 15SM FEW025 BKN050 OVC080 02/M11 A3020 RMK CU1SC6AC2 SLP278

CYYC;2009-04-28 01:00;CYYC 280100Z 07004KT 12SM FEW025 BKN049 OVC080 01/M08 A3021 RMK CU1SC6AC1 VIRGA SW/ CU TR SLP281

CYYC;2009-04-28 02:00;CYYC 280200Z 21006KT 15SM FEW025 FEW050 BKN090 00/M08 A3021 RMK CU1SC2AC1 CU TR SLP281

CYYC;2009-04-28 03:00;CYYC 280300Z 20002KT 15SM FEW025 FEW060 BKN080 00/M07 A3023 RMK CF1SC2AC1 SLP288

CYYC;2009-04-28 04:00;CYYC 280400Z 15002KT 15SM FEW070 BKN220 M01/M06 A3025 RMK AC2CI0 SLP294

CYYC;2009-04-28 05:00;CYYC 280500Z 34006KT 15SM SCT080 BKN120 M02/M08 A3026 RMK AC3AC0 SLP297

CYYC;2009-04-28 06:00;CYYC 280600Z 34007KT 15SM SCT100 BKN120 M03/M08 A3026 RMK AC3AC2 SLP300

CYYC;2009-04-28 07:00;CYYC 280700Z 35008KT 15SM FEW090 BKN120 M04/M07 A3026 RMK AC2AC2 SLP303

CYYC;2009-04-28 08:00;CYYC 280800Z 34008KT 15SM SCT110 M04/M07 A3027 RMK AC2 SLP305

CYYC;2009-04-28 09:00;CYYC 280900Z 34005KT 15SM FEW110 BKN250 M04/M07 A3028 RMK AC2CI0 SLP309

CYYC;2009-04-28 10:00;CYYC 281000Z 34008KT 15SM SCT080 M04/M08 A3028 RMK AC2 SLP310

CYYC;2009-04-28 11:00;CYYC 281100Z 32008KT 15SM SCT080 M04/M08 A3029 RMK AC2 SLP313

CYYC;2009-04-28 12:00;CYYC 281200Z 32008KT 10SM FEW080 FEW130 FEW180 BKN250 M05/M07 A3030 RMK AC2AC1AC1CI0 SLP316

CYYC;2009-04-28 13:00;CYYC 281300Z 34007KT 20SM FEW120 BKN180 M05/M07 A3032 RMK AC1AS3 SLP321

CYYC;2009-04-28 14:00;CYYC 281400Z 34008KT 20SM FEW080 OVC210 M04/M06 A3032 RMK AC1CS2 SLP323

CYYC;2009-04-28 15:00;CYYC 281500Z 01007KT 30SM FEW020 FEW065 BKN230 M01/M05 A3033 RMK SC1SC2CS1 SLP324

CYYC;2009-04-28 16:00;CYYC 281600Z 36008KT 30SM FEW020 BKN067 OVC220 M00/M05 A3034 RMK CU1AC6CS1 SLP326

CYYC;2009-04-28 17:00;CYYC 281700Z 03012KT 30SM FEW029 BKN060 OVC082 01/M06 A3035 RMK CU2SC4AC1 SH SW-NW / TCU ASOCTD SLP330

CYYC;2009-04-28 17:54;CYYC 281754Z CCA 04012KT 20SM -SHSN SCT029TCU OVC050 01/ RMK TCU3SC5

CYYC;2009-04-28 18:00;CYYC 281800Z CCA 03010KT 20SM -SHSN SCT029TCU OVC050 01/M08 A3036 RMK TCU3SC5 SLP334

CYYC;2009-04-28 18:47;CYYC 281847Z 01014G19KT 1SM -SHSN FEW006 OVC022 M01/ RMK SC2SC6 TCU EMBD / VIS SW 5

CYYC;2009-04-28 19:00;CYYC 281900Z CCA 35006KT 3SM -SHSN FEW006 SCT014 OVC042 M02/M04 A3037 RMK SC2SC2SC4 VIS SE 1 / RVR RWY 34 5000FT SLP337

CYYC;2009-04-28 19:24;CYYC 281924Z 32006KT 1 1/4SM -SHSN FEW006 BKN016 OVC025 M01/ RMK SC2SC2SC3 VIS SW 5

CYYC;2009-04-28 19:41;CYYC 281941Z 02011G16KT 3SM -SHSN SCT006 OVC017 M01/ RMK SC3SC5

CYYC;2009-04-28 20:00;CYYC 282000Z 04008KT 3SM -SHSN FEW007 FEW012TCU OVC025 00/M03 A3036 RMK SC1TCU1SC6 SLP336

CYYC;2009-04-28 20:26;CYYC 282026Z 03004KT 10SM FEW015TCU BKN030 01/ RMK TCU2SC4 SH ALQDS / VIS SE-SW 4

CYYC;2009-04-28 21:00;CYYC 282100Z 04014KT 20SM FEW028TCU BKN050 BKN080 02/M05 A3036 RMK TCU2SC3AC2 SH ALQDS SLP336

CYYC;2009-04-28 21:47;CYYC 282147Z 06009G16KT 15SM -SHSN FEW030 BKN042 OVC080 02/ RMK CU2SC4AC1 VIS SW 4

CYYC;2009-04-28 22:00;CYYC 282200Z CCA 01013KT 15SM -SHSN FEW030TCU BKN044 OVC080 01/M06 A3036 RMK TCU2SC4AC2 VIS SW 5 SLP334

CYYC;2009-04-28 22:32;CYYC 282232Z 04015KT 15SM FEW035TCU BKN044 BKN080 02/ RMK TCU2SC4AC2 SH ALQDS

CYYC;2009-04-28 23:00;CYYC 282300Z 05009G16KT 15SM FEW035 SCT044 BKN081 03/M08 A3036 RMK CU2SC2AC3 SH ALQDS / TCU SW SLP335

CYYC;2009-04-29 00:00;CYYC 290000Z 04017KT 20SM FEW035 SCT045 OVC082 03/M08 A3037 RMK CU2SC2AC4 SH ALQDS / TCU W SLP338

CYYC;2009-04-29 01:00;CYYC 290100Z 04013KT 20SM FEW040 SCT055 OVC085 03/M09 A3038 RMK CU1SC2AC4 SH SW-NE SLP340

CYYC;2009-04-29 02:00;CYYC 290200Z 05009KT 20SM FEW040 SCT100 BKN220 02/M09 A3038 RMK SC2AC1CI1 SLP341

CYYC;2009-04-29 03:00;CYYC 290300Z 04005KT 20SM FEW050 SCT110 SCT220 M00/M09 A3039 RMK SC1AC2CI1 SLP345

CYYC;2009-04-29 04:00;CYYC 290400Z 05007KT 15SM FEW050 BKN110 M01/M10 A3041 RMK SC1AC4 SLP349

CYYC;2009-04-29 05:00;CYYC 290500Z 05008KT 15SM FEW080 BKN120 M02/M10 A3041 RMK AC1AC4 SLP351

CYYC;2009-04-29 06:00;CYYC 290600Z 05008KT 15SM FEW100 FEW220 M03/M10 A3042 RMK AC1CI1 SLP355

CYYC;2009-04-29 07:00;CYYC 290700Z 36005KT 15SM FEW140 FEW220 M04/M10 A3042 RMK AC2CI0 SLP356

CYYC;2009-04-29 08:00;CYYC 290800Z 35005KT 15SM FEW090 FEW140 SCT220 M04/M10 A3041 RMK AC1AC1CI1 LWR AC TR SLP354

CYYC;2009-04-29 09:00;CYYC 290900Z 34009KT 15SM FEW090 FEW150 FEW220 M05/M10 A3041 RMK AC1AC1CI1 SLP352

CYYC;2009-04-29 10:00;CYYC 291000Z 33007KT 15SM FEW150 FEW230 M05/M11 A3041 RMK AC1CI0 SLP352

CYYC;2009-04-29 11:00;CYYC 291100Z 33007KT 15SM SCT130 BKN230 M05/M11 A3041 RMK AC3CI2 SLP353

CYYC;2009-04-29 12:00;CYYC 291200Z 32007KT 15SM FEW090 BKN110 OVC230 M05/M11 A3041 RMK AC1AC4CI1 SLP352

CYYC;2009-04-29 13:00;CYYC 291300Z 33005KT 20SM FEW070 BKN130 OVC230 M04/M10 A3042 RMK AC2AC2CI1 SLP354

CYYC;2009-04-29 14:00;CYYC 291400Z 34006KT 20SM FEW070 BKN140 BKN210 M03/M10 A3043 RMK AC2AC1CI1 SLP357

CYYC;2009-04-29 15:00;CYYC 291500Z 02005KT 20SM SCT070 BKN140 BKN210 M02/M10 A3043 RMK AC3AC1CS3 SLP360

CYYC;2009-04-29 16:00;CYYC 291600Z 00000KT 30SM FEW040 FEW080 SCT095 BKN220 M00/M11 A3043 RMK CU1AC2AC1CS1 SLP360

CYYC;2009-04-29 17:00;CYYC 291700Z 03007KT 30SM FEW048 FEW076 BKN210 01/M11 A3042 RMK CU2AC1CS1 SLP355

CYYC;2009-04-29 18:00;CYYC 291800Z 02007KT 30SM FEW048 FEW075 SCT190 02/M11 A3040 RMK CU1AC1AC1 SLP348

CYYC;2009-04-29 19:00;CYYC 291900Z CCA 04003KT 30SM FEW052 FEW110 SCT190 02/M12 A3039 RMK CU1AC1AC1 SLP344

CYYC;2009-04-29 20:00;CYYC 292000Z 04007KT 30SM FEW056 FEW080 BKN120 04/M10 A3037 RMK CU1AC1AC2 SLP340

CYYC;2009-04-29 21:00;CYYC 292100Z 06007KT 30SM FEW058 FEW080 FEW120 FEW180 04/M10 A3037 RMK CU1AC1AC1AC1 SLP335

CYYC;2009-04-29 22:00;CYYC 292200Z 05005KT 30SM FEW064 FEW080 FEW120 FEW220 04/M12 A3035 RMK CU1AC1AC1CI1 SLP331

CYYC;2009-04-29 23:00;CYYC 292300Z 34012KT 30SM FEW064 SCT080 BKN140 04/M11 A3034 RMK CU1AC4AC1 SLP328

CYYC;2009-04-30 00:00;CYYC 300000Z 03007KT 30SM FEW064 BKN085 BKN140 05/M11 A3034 RMK CU1AC5AC1 SLP324

CYYC;2009-04-30 01:00;CYYC 300100Z 02005KT 30SM FEW064 FEW095 FEW140 05/M12 A3033 RMK CU1AC2AC1 ACSL SLP320

CYYC;2009-04-30 02:00;CYYC 300200Z 01006KT 20SM FEW095 FEW240 04/M12 A3032 RMK AC1CI0 SLP317

CYYC;2009-04-30 03:00;CYYC 300300Z 04005KT 20SM FEW150 FEW240 03/M12 A3032 RMK AC1CI0 SLP315

CYYC;2009-04-30 04:00;CYYC 300400Z 05004KT 15SM FEW100 FEW230 01/M11 A3031 RMK AC1CI1 CI TR SLP314

CYYC;2009-04-30 05:00;CYYC 300500Z 33004KT 15SM FEW100 M01/M10 A3031 RMK AC1 AC TR SLP314

CYYC;2009-04-30 06:00;CYYC 300600Z 34005KT 15SM FEW070 M01/M11 A3030 RMK AC2 SLP310

CYYC;2009-04-30 07:00;CYYC 300700Z 02002KT 15SM FEW240 M02/M10 A3029 RMK CI1 SLP307

CYYC;2009-04-30 08:00;CYYC 300800Z 00000KT 15SM FEW150 M03/M10 A3028 RMK AC2 SLP303

CYYC;2009-04-30 09:00;CYYC 300900Z 00000KT 15SM FEW120 M03/M09 A3026 RMK AC2 SLP296

CYYC;2009-04-30 10:00;CYYC 301000Z 00000KT 15SM BKN130 OVC230 M03/M09 A3026 RMK AC5CI1 SLP294

CYYC;2009-04-30 11:00;CYYC 301100Z 00000KT 15SM BKN160 BKN230 M03/M09 A3026 RMK AC2CI1 SLP293

CYYC;2009-04-30 12:00;CYYC 301200Z 00000KT 20SM FEW150 SCT240 M04/M09 A3025 RMK AC2CI1 SLP291

CYYC;2009-04-30 13:00;CYYC 301300Z 31003KT 30SM FEW120 BKN250 M03/M07 A3024 RMK AC1CI1 SLP288

CYYC;2009-04-30 14:00;CYYC 301400Z 00000KT 40SM SCT130 BKN250 M01/M06 A3024 RMK AC2CI0 SLP288

CYYC;2009-04-30 15:00;CYYC 301500Z 31003KT 40SM BKN070 BKN130 03/M07 A3024 RMK AS5AS1 SLP282

CYYC;2009-04-30 16:00;CYYC 301600Z 29003KT 40SM FEW045 SCT070 BKN130 05/M13 A3023 RMK CU1AS3AS2 CU TR SLP277

CYYC;2009-04-30 17:00;CYYC 301700Z 30009G15KT 40SM FEW064 SCT130 BKN220 06/M10 A3022 RMK CU2AS2CI1 VIRGA N-NE SLP274

CYYC;2009-04-30 18:00;CYYC 301800Z CCA 33005G15KT 40SM FEW068 SCT090 BKN150 06/M10 A3021 RMK CU2AS1AS1 VIRGA ALQDS SLP271

CYYC;2009-04-30 19:00;CYYC 301900Z 33010G20KT 40SM SCT068 BKN100 BKN150 07/M10 A3020 RMK CU3AS2AS0 SLP269

CYYC;2009-04-30 20:00;CYYC 302000Z 34013G18KT 30SM SCT072 BKN100 BKN140 OVC220 08/M10 A3020 RMK CU4AS2AS0CI0 VIRGA ALQDS SLP269

CYYC;2009-04-30 21:00;CYYC 302100Z 32009KT 40SM SCT075 BKN090 BKN130 06/M11 A3021 RMK CU4AS1AS0 VIRGA ALQDS SLP274

CYYC;2009-04-30 22:00;CYYC 302200Z CCA 34018G26KT 40SM SCT070 BKN090 BKN120 06/M07 A3021 RMK CU4AS2AS0 VIRGA ALQDS SLP275

CYYC;2009-04-30 23:00;CYYC 302300Z CCA 32009KT 30SM FEW070CB SCT090 BKN120 BKN220 06/M09 A3022 RMK CB2AC2AC1CI0 DIST SH NW SLP277

CYYC;2009-05-01 01:00;CYYC 010100Z 33011KT 25SM FEW040CB SCT150 BKN210 02/M03 A3024 RMK CB2AC1CI1 DIST SH SE SLP288

CYYC;2009-05-01 02:00;CYYC 010200Z 33008KT 20SM FEW045CB FEW090 SCT230 02/M02 A3024 RMK CB1AC2CI1 SLP288

CYYC;2009-05-01 03:00;CYYC 010300Z 31009KT 20SM FEW060 FEW100 SCT230 01/M03 A3025 RMK SC1AC1CI1 SLP287

CYYC;2009-05-01 04:00;CYYC 010400Z 28004KT 15SM FEW100 FEW230 00/M03 A3026 RMK AC1CI1 SLP291

CYYC;2009-05-01 05:00;CYYC 010500Z 28006KT 15SM FEW240 M00/M02 A3026 RMK CI0 SLP291

CYYC;2009-05-01 06:00;CYYC 010600Z 27003KT 15SM SCT081 BKN220 M00/M02 A3026 RMK AC2CI2 SLP287

CYYC;2009-05-01 07:00;CYYC 010700Z 31006KT 15SM SCT110 BKN230 00/M03 A3026 RMK AC2CI2 SLP287

CYYC;2009-05-01 08:00;CYYC 010800Z 27002KT 15SM SCT110 BKN230 00/M03 A3025 RMK AC3CI1 SLP285

CYYC;2009-05-01 09:00;CYYC 010900Z 00000KT 15SM BKN074 BKN130 BKN220 M01/M03 A3025 RMK AC4AC1CI1 SLP284

CYYC;2009-05-01 10:00;CYYC 011000Z 27004KT 15SM BKN074 BKN110 OVC210 00/M03 A3024 RMK AC6AC1CI1 SLP282

CYYC;2009-05-01 11:00;CYYC 011100Z 00000KT 15SM FEW072 FEW240 M01/M04 A3024 RMK AC1CI0 AC TR SLP281

CYYC;2009-05-01 12:00;CYYC 011200Z 29004KT 20SM FEW080 FEW240 M01/M04 A3023 RMK AC1CI0 AC TR SLP281

CYYC;2009-05-01 13:00;CYYC 011300Z 00000KT 40SM FEW090 FEW250 M01/M04 A3023 RMK AC1CI0 AC TR SLP279

CYYC;2009-05-01 14:00;CYYC 011400Z 00000KT 40SM FEW240 02/M03 A3022 RMK CI1 SLP277

CYYC;2009-05-01 15:00;CYYC 011500Z 29006KT 40SM FEW240 05/M03 A3021 RMK CI1 SLP270

CYYC;2009-05-01 16:00;CYYC 011600Z 31004KT 40SM FEW040 FEW050 06/M04 A3020 RMK CF1SC1 SLP266

CYYC;2009-05-01 17:00;CYYC 011700Z 34003KT 40SM FEW056 07/M07 A3018 RMK CU1 SLP262

CYYC;2009-05-01 18:00;CYYC 011800Z 35007KT 40SM FEW050 FEW190 08/M06 A3017 RMK CU1AC1 SLP252

CYYC;2009-05-01 19:00;CYYC 011900Z 30009KT 40SM FEW060 09/M07 A3015 RMK CU1 SLP246

CYYC;2009-05-01 20:00;CYYC 012000Z 00000KT 40SM FEW072 10/M08 A3012 RMK CU1 SLP239

CYYC;2009-05-01 21:00;CYYC 012100Z 29006KT 40SM FEW065 FEW200 11/M07 A3010 RMK CU1CI1 SLP225

CYYC;2009-05-01 22:00;CYYC 012200Z 32007KT 40SM FEW080 FEW180 FEW210 12/M10 A3008 RMK CU1AC1CI0 SLP218

CYYC;2009-05-01 23:00;CYYC 012300Z CCA 30010KT 40SM FEW088 FEW220 13/M10 A3006 RMK CU1CI1 SLP213

CYYC;2009-05-02 00:00;CYYC 020000Z 31007G16KT 40SM FEW088 FEW220 13/M10 A3005 RMK CU1CI0 SLP206

CYYC;2009-05-02 01:00;CYYC 020100Z 02007KT 40SM FEW250 13/M11 A3004 RMK CI0 SLP201

CYYC;2009-05-02 02:00;CYYC 020200Z 03006KT 40SM FEW250 13/M12 A3002 RMK CI0 SLP197

CYYC;2009-05-02 03:00;CYYC 020300Z 05007KT 40SM FEW250 09/M10 A3003 RMK CI1 CI TR SLP194

CYYC;2009-05-02 04:00;CYYC 020400Z 09005KT 15SM SKC 08/M10 A3003 RMK SLP196

CYYC;2009-05-02 05:00;CYYC 020500Z 26002KT 15SM SKC 07/M09 A3003 RMK SLP196

CYYC;2009-05-02 06:00;CYYC 020600Z 34005KT 15SM SKC 02/M08 A3003 RMK SLP202

CYYC;2009-05-02 07:00;CYYC 020700Z 32007KT 15SM SKC 01/M09 A3004 RMK SLP203

CYYC;2009-05-02 08:00;CYYC 020800Z 30004KT 15SM SKC 01/M09 A3003 RMK SLP202

CYYC;2009-05-02 09:00;CYYC 020900Z 00000KT 15SM SKC 00/M08 A3003 RMK SLP198

CYYC;2009-05-02 10:00;CYYC 021000Z 19003KT 30SM SKC M01/M09 A3002 RMK SLP195

CYYC;2009-05-02 11:00;CYYC 021100Z 00000KT 15SM FEW250 M01/M08 A3001 RMK CI1 CI TR SLP193

CYYC;2009-05-02 12:00;CYYC 021200Z 00000KT 40SM FEW250 02/M08 A3001 RMK CI1 CI TR SLP188

CYYC;2009-05-02 13:00;CYYC 021300Z 33005KT 40SM SKC 02/M07 A3000 RMK SLP186

CYYC;2009-05-02 14:00;CYYC 021400Z 30002KT 40SM SKC 04/M06 A3001 RMK SLP187

CYYC;2009-05-02 15:00;CYYC 021500Z 31004KT 40SM SKC 08/M05 A3001 RMK SLP183

CYYC;2009-05-02 16:00;CYYC 021600Z 02007KT 40SM FEW072 12/M06 A3000 RMK CU1 CU TR SLP181

CYYC;2009-05-02 17:00;CYYC 021700Z 01006KT 40SM FEW076 13/M05 A2999 RMK CU1 CU TR SLP179

CYYC;2009-05-02 18:00;CYYC 021800Z 06002KT 40SM FEW076 FEW140 SCT250 13/M05 A2999 RMK CU1AC1CI0 CU+AC TR SLP180

CYYC;2009-05-02 19:00;CYYC 021900Z 06006KT 40SM FEW076 FEW140 SCT250 15/M04 A2997 RMK CU1AC1CI0 CU+AC TR SLP175

CYYC;2009-05-02 20:00;CYYC 022000Z 03005KT 40SM FEW076 FEW140 BKN250 15/M04 A2996 RMK CU1AC1CI0 CU+AC TR SLP171

CYYC;2009-05-02 21:00;CYYC 022100Z 07007KT 40SM FEW076 FEW140 BKN240 15/M04 A2995 RMK CU1AC1CI0 SLP166

CYYC;2009-05-02 22:00;CYYC 022200Z 07004KT 40SM FEW076 FEW140 BKN240 16/M03 A2994 RMK CU1AC1CI0 SLP162

CYYC;2009-05-02 23:00;CYYC 022300Z 08006KT 40SM FEW076 FEW140 SCT240 16/M03 A2992 RMK CU1AC1CI0 CU+AC TR SLP158

CYYC;2009-05-03 00:00;CYYC 030000Z 18005KT 40SM FEW076 FEW160 SCT220 16/M04 A2991 RMK CU1AC1CI0 CU TR SLP150

CYYC;2009-05-03 01:00;CYYC 030100Z 13004KT 40SM FEW076 FEW160 SCT220 15/M03 A2989 RMK CU1AC1CI0 CU TR SLP145

CYYC;2009-05-03 02:00;CYYC 030200Z 13006KT 30SM FEW220 15/M04 A2988 RMK CI1 SLP140

CYYC;2009-05-03 03:00;CYYC 030300Z 12007KT 30SM FEW220 13/M03 A2987 RMK CI1 SLP131

CYYC;2009-05-03 04:00;CYYC 030400Z 12009KT 15SM FEW220 11/M03 A2987 RMK CI1 SLP132

CYYC;2009-05-03 05:00;CYYC 030500Z 13010KT 15SM FEW220 10/M03 A2986 RMK CI0 SLP129

CYYC;2009-05-03 06:00;CYYC 030600Z 14007KT 15SM FEW250 07/M03 A2986 RMK CI0 SLP128

CYYC;2009-05-03 07:00;CYYC 030700Z 13002KT 15SM FEW250 06/M01 A2985 RMK CI0 SLP126

CYYC;2009-05-03 08:00;CYYC 030800Z 16004KT 15SM SCT250 04/M01 A2985 RMK CI1 SLP123

CYYC;2009-05-03 09:00;CYYC 030900Z 16004KT 15SM FEW150 SCT240 03/M01 A2983 RMK AC1CI1 SLP121

CYYC;2009-05-03 10:00;CYYC 031000Z 17008KT 15SM FEW150 SCT240 03/M02 A2982 RMK AC1CI1 SLP117

CYYC;2009-05-03 11:00;CYYC 031100Z 16007KT 15SM BKN240 02/M01 A2981 RMK CI2 SLP114

CYYC;2009-05-03 12:00;CYYC 031200Z 18008KT 40SM BKN240 03/M02 A2979 RMK CI3 SLP106

CYYC;2009-05-03 13:00;CYYC 031300Z CCA 17005KT 40SM FEW050 FEW100 FEW150 BKN230 03/M02 A2977 RMK SC1AC1AS1CI4 TR SC AC SLP100

CYYC;2009-05-03 14:00;CYYC 031400Z 17007KT 40SM FEW050 FEW150 OVC210 06/M02 A2976 RMK SC1AC1CI2 SLP098

CYYC;2009-05-03 15:00;CYYC 031500Z 18008KT 40SM FEW050 FEW100 SCT190 OVC240 07/M02 A2975 RMK SC1AC1AC1CI1 VIRGA SW SLP088

CYYC;2009-05-03 16:00;CYYC 031600Z 19005KT 40SM FEW050 FEW100 BKN180 OVC220 10/M02 A2973 RMK SC1AC1AC3CI2 SLP082

CYYC;2009-05-03 17:00;CYYC 031700Z 21005KT 40SM FEW050 FEW100 BKN150 OVC210 13/M02 A2971 RMK SC1AC1AC4CI1 SLP078

CYYC;2009-05-03 18:00;CYYC 031800Z 20006KT 40SM FEW050 BKN095 OVC150 13/M01 A2970 RMK SC1AC5AC1 SLP072

CYYC;2009-05-03 19:00;CYYC 031900Z 21005KT 40SM FEW050 BKN080 BKN120 16/M02 A2967 RMK SC1AC5AC0 SLP062

CYYC;2009-05-03 20:00;CYYC 032000Z 16007KT 40SM FEW075 FEW240 17/M02 A2964 RMK CU1CI1 SLP055

CYYC;2009-05-03 21:00;CYYC 032100Z 18008KT 40SM FEW080 FEW240 19/M02 A2962 RMK CU2CI1 SLP043

CYYC;2009-05-03 22:00;CYYC 032200Z 18009KT 40SM SCT080 BKN100 18/M03 A2960 RMK CU4AC3 VIRGA SLP037

CYYC;2009-05-03 23:00;CYYC 032300Z 17005KT 40SM FEW072 BKN100 BKN130 17/M03 A2959 RMK CU2AC3AC1 VIRGA ALQDS SLP033

CYYC;2009-05-03 23:04;CYYC 032304Z 25024KT 40SM -SHRA SCT072 BKN095 BKN130 16/ RMK CU3AC3AC1 PCPN VRY LGT

CYYC;2009-05-03 23:13;CYYC 032313Z CCB 33017KT 40SM -SHRA FEW012 SCT030 BKN070 BKN100 16/ RMK SC1SC2CU3AC1 VIS LWR S/WSHFT 2305

CYYC;2009-05-03 23:22;CYYC 032322Z 25010G21KT 40SM -SHRA FEW012 FEW020 SCT030 BKN070 BKN100 16/ RMK SC1SC1SC2CU2AC2 WSHFT 2315

CYYC;2009-05-03 23:50;CYYC 032350Z 18004KT 40SM FEW030 BKN070 BKN110 17/ RMK SC2CU4AC1 VIRGA E-N

CYYC;2009-05-04 00:00;CYYC 040000Z 22009KT 40SM FEW030 BKN070 BKN100 17/M02 A2958 RMK SC2CU4AC2 VIRGA E-N SLP033

CYYC;2009-05-04 00:09;CYYC 040009Z CCA 27016KT 40SM FEW030 BKN065 BKN100 16/ RMK SC1CU5AC2 WSHFT 0003/VIRGA ALQDS

CYYC;2009-05-04 01:00;CYYC 040100Z 28020KT 40SM SCT070 BKN120 16/M00 A2959 RMK CU3AC2 SLP034

CYYC;2009-05-04 02:00;CYYC 040200Z CCA 27018KT 30SM FEW090 FEW120 13/M01 A2959 RMK AC2AC0 VIRGA E / TCU ASOCTD E SLP035

CYYC;2009-05-04 03:00;CYYC 040300Z 27016G22KT 30SM FEW090 FEW120 12/M01 A2958 RMK AC1AC0 SLP033

CYYC;2009-05-04 04:00;CYYC 040400Z 28015G24KT 15SM FEW090 FEW240 11/M03 A2961 RMK AC1CI1 SLP041

CYYC;2009-05-04 05:00;CYYC 040500Z 29015KT 15SM BKN090 BKN240 11/M03 A2962 RMK AC6CI1 SLP043

CYYC;2009-05-04 06:00;CYYC 040600Z 29015G20KT 15SM BKN100 11/M04 A2962 RMK AC5 VIRGA S SLP040

CYYC;2009-05-04 07:00;CYYC 040700Z 30012G18KT 15SM BKN080 10/M04 A2964 RMK AC4 VIRGA S SLP046

CYYC;2009-05-04 08:00;CYYC 040800Z CCA 30010KT 15SM BKN075 10/M05 A2967 RMK AC6 VIRGA S SLP056

CYYC;2009-05-04 09:00;CYYC 040900Z 28016KT 15SM FEW040 BKN075 10/M04 A2969 RMK SC1AC6 VIRGA ALQDS SLP060

CYYC;2009-05-04 10:00;CYYC 041000Z 34011G27KT 15SM FEW030 BKN070 09/M03 A2973 RMK SC2AC5 VIRGA ALQDS SLP071

CYYC;2009-05-04 11:00;CYYC 041100Z 02005KT 15SM FEW070 BKN100 09/M04 A2974 RMK AC2AC5 SLP074

CYYC;2009-05-04 12:00;CYYC 041200Z 32006KT 30SM FEW090 BKN140 08/M07 A2976 RMK AC1AS6 SLP086

CYYC;2009-05-04 13:00;CYYC 041300Z 32007KT 30SM FEW090 BKN180 BKN240 07/M06 A2977 RMK AC1AS4CI1 SLP091

CYYC;2009-05-04 14:00;CYYC 041400Z 31009KT 40SM FEW050 BKN160 BKN240 07/M03 A2980 RMK CU1AC5CI2 SLP098

CYYC;2009-05-04 15:00;CYYC 041500Z 32008KT 40SM SCT160 BKN240 09/M02 A2980 RMK AC3CI3 SLP108

CYYC;2009-05-04 16:00;CYYC 041600Z 34003KT 40SM FEW050 FEW160 BKN210 10/M04 A2979 RMK CU1AC2CI3 SLP105

CYYC;2009-05-04 17:00;CYYC 041700Z 19004KT 40SM FEW050 FEW180 FEW230 12/M05 A2978 RMK CU1AC1CI1 CU+AC TR SLP100

CYYC;2009-05-04 18:00;CYYC 041800Z 24013KT 40SM FEW050 FEW240 14/M09 A2976 RMK CU1CI1 CU TR SLP087

CYYC;2009-05-04 19:00;CYYC 041900Z 27013G19KT 40SM FEW050 FEW240 15/M10 A2974 RMK CU1CI1 SLP081

CYYC;2009-05-04 20:00;CYYC 042000Z 27016G21KT 40SM FEW060 FEW110 SCT250 15/M09 A2972 RMK CU2AC1CI0 AC TR SLP076

CYYC;2009-05-04 21:00;CYYC 042100Z 24014G25KT 40SM FEW080 FEW110 FEW250 16/M09 A2971 RMK CU2AC1CI1 AC+CI TR SLP068

CYYC;2009-05-04 22:00;CYYC 042200Z 27010G18KT 40SM FEW080 15/M10 A2969 RMK CU1 SLP062

CYYC;2009-05-04 23:00;CYYC 042300Z 28010G16KT 40SM FEW085 16/M11 A2967 RMK CU1 SLP056

CYYC;2009-05-05 00:00;CYYC 050000Z 25010G15KT 40SM FEW085 16/M09 A2964 RMK CU1 SLP048

CYYC;2009-05-05 01:00;CYYC 050100Z 27011KT 40SM FEW085 FEW250 15/M09 A2963 RMK CU1CI0 CU TR SLP044

CYYC;2009-05-05 02:00;CYYC 050200Z CCA 27008KT 30SM FEW090 FEW180 SCT250 14/M09 A2961 RMK AC1AS1CS0 SLP039

CYYC;2009-05-05 03:00;CYYC 050300Z 26004KT 30SM FEW100 BKN240 12/M08 A2959 RMK AC1CS0 SLP032

CYYC;2009-05-05 04:00;CYYC 050400Z CCA 19002KT 15SM BKN240 10/M07 A2958 RMK CS1 SLP029

CYYC;2009-05-05 05:00;CYYC 050500Z 25003KT 15SM BKN240 10/M07 A2955 RMK CS2 SLP021

CYYC;2009-05-05 06:00;CYYC 050600Z 19006KT 15SM BKN240 07/M05 A2954 RMK CS3 SLP014

CYYC;2009-05-05 07:00;CYYC 050700Z 25002KT 15SM BKN240 06/M05 A2952 RMK CS2 SLP008

CYYC;2009-05-05 08:00;CYYC 050800Z 01002KT 15SM FEW180 BKN240 04/M05 A2949 RMK AS2CI2 SLP001

CYYC;2009-05-05 09:00;CYYC 050900Z 35002KT 15SM SCT160 BKN240 04/M05 A2947 RMK AS2CI2 SLP994

CYYC;2009-05-05 10:00;CYYC 051000Z 00000KT 15SM BKN120 04/M05 A2945 RMK AC6 SLP987

CYYC;2009-05-05 11:00;CYYC 051100Z 20004KT 15SM BKN120 05/M04 A2944 RMK AC6 SLP985

CYYC;2009-05-05 12:00;CYYC 051200Z 19004KT 30SM FEW080 BKN100 05/M03 A2942 RMK AC1AS6 SLP973

CYYC;2009-05-05 13:00;CYYC 051300Z 20006KT 30SM FEW040 FEW060 SCT120 05/M04 A2941 RMK CF1SC2AS1 SLP971

CYYC;2009-05-05 14:00;CYYC 051400Z 18002KT 40SM FEW025 FEW110 SCT230 06/M03 A2939 RMK CU1AC1CI2 SLP964

CYYC;2009-05-05 15:00;CYYC 051500Z 21005KT 40SM FEW025 FEW140 BKN220 07/M03 A2939 RMK CU1AC1CI3 SH DIST SW SLP964

CYYC;2009-05-05 16:00;CYYC 051600Z 19006KT 40SM FEW030 FEW120 FEW230 11/M02 A2938 RMK CU1AC1CI2 SH DIST SW SLP963

CYYC;2009-05-05 17:00;CYYC 051700Z 14007KT 40SM FEW050 SCT140 BKN210 14/00 A2935 RMK CU1AC3CI2 SH DIST SW SLP954

CYYC;2009-05-05 18:00;CYYC 051800Z 26012KT 40SM FEW050 BKN140 BKN210 13/M04 A2934 RMK CU2AC3CI2 VIRGA E-S SLP947

CYYC;2009-05-05 19:00;CYYC 051900Z 30004KT 40SM FEW070TCU BKN140 BKN220 15/M03 A2932 RMK TCU2AC2CI1 SCT SH ALQDS SLP941

CYYC;2009-05-05 20:00;CYYC 052000Z CCA 26008KT 40SM SCT070TCU BKN140 BKN220 14/M02 A2932 RMK TCU4AC2CI1 SH NW-SE SLP941

CYYC;2009-05-05 21:00;CYYC 052100Z 26017G25KT 40SM SCT070TCU BKN110 BKN220 15/M03 A2932 RMK TCU4AC1CI1 SH NW-S / CB NW SLP941

CYYC;2009-05-05 21:31;CYYC 052131Z 34028KT 40SM -SHRA BKN031TCU BKN070 BKN120 10/ RMK TCU6AC2AC1 CB EMBD

CYYC;2009-05-05 22:00;CYYC 052200Z 35010G15KT 40SM -SHRA SCT030TCU BKN073 BKN120 09/03 A2938 RMK TCU3AC3AC1 PRESRR PAST HR SLP960

CYYC;2009-05-05 23:00;CYYC 052300Z 32008KT 40SM -SHRA SCT030TCU BKN069 BKN120 09/02 A2942 RMK TCU3AC3AC1 VIS LWR SE SLP972

CYYC;2009-05-05 23:09;CYYC 052309Z 31010KT 40SM FEW030TCU SCT070 BKN110 09/ RMK TCU2AC2AC3 SH SE

CYYC;2009-05-06 00:00;CYYC 060000Z 27017G24KT 40SM FEW030TCU SCT070 SCT120 BKN180 12/01 A2942 RMK TCU2AC1AC1AC2 SH NW-SE / CB ASOCTD SLP978

CYYC;2009-05-06 01:00;CYYC 060100Z 26025G32KT 40SM FEW030 FEW100 BKN230 13/M03 A2942 RMK CU1AC1CI2 SH NW-NE / TCU ASOCTD SLP979

CYYC;2009-05-06 02:00;CYYC 060200Z 26017G24KT 40SM FEW030 FEW080 BKN240 12/M03 A2944 RMK CU1AC2CI3 SLP987

CYYC;2009-05-06 03:00;CYYC 060300Z 27012KT 40SM FEW040 SCT090 BKN240 10/M03 A2948 RMK CU1AC2CI2 SLP000

CYYC;2009-05-06 04:00;CYYC 060400Z 32013KT 15SM FEW040 FEW100 FEW240 09/M03 A2952 RMK SC1AC1CI1 SC TR SLP013

CYYC;2009-05-06 05:00;CYYC 060500Z 28008KT 15SM FEW090 FEW230 08/M02 A2954 RMK AC1CI1 BOTH CLDS TR SLP019

CYYC;2009-05-06 06:00;CYYC 060600Z 27016KT 15SM FEW090 FEW240 08/M05 A2956 RMK AC1CI1 BOTH CLDS TR SLP022

CYYC;2009-05-06 07:00;CYYC 060700Z 27013KT 15SM FEW090 FEW220 07/M06 A2958 RMK AC1CI1 CI TR SLP029

CYYC;2009-05-06 08:00;CYYC 060800Z 28011G17KT 15SM FEW082 FEW210 07/M06 A2960 RMK AC1CI1 SLP035

CYYC;2009-05-06 09:00;CYYC 060900Z 29013KT 15SM FEW082 BKN210 07/M07 A2962 RMK AC1CI4 SLP041

CYYC;2009-05-06 10:00;CYYC 061000Z 35008KT 15SM FEW090 FEW190 BKN210 05/M05 A2964 RMK AC1AC2CI2 SLP048

CYYC;2009-05-06 11:00;CYYC 061100Z 32009KT 15SM FEW090 FEW110 SCT190 BKN210 04/M05 A2966 RMK AC1AC1AC1CI2 SLP055

CYYC;2009-05-06 12:00;CYYC 061200Z 32007KT 20SM FEW100 SCT190 BKN240 04/M05 A2968 RMK AC2AC2CI2 SLP073

CYYC;2009-05-06 13:00;CYYC 061300Z 27005KT 40SM FEW050 FEW080 BKN230 03/M04 A2969 RMK SC1AC2CI2 SLP075

CYYC;2009-05-06 14:00;CYYC 061400Z 34008KT 40SM FEW040 SCT075 BKN260 07/M03 A2972 RMK CU1AC2CI1 VIRGA E SLP085

CYYC;2009-05-06 15:00;CYYC 061500Z 31008KT 40SM FEW050 FEW078 FEW140 SCT270 09/M05 A2973 RMK CU1AC2AC1CI1 SLP084

CYYC;2009-05-06 16:00;CYYC 061600Z 30011KT 40SM FEW050 FEW080 FEW140 SCT290 11/M06 A2971 RMK CU1AC1AC1CI0 SLP078

CYYC;2009-05-06 17:00;CYYC 061700Z 33005KT 40SM FEW065 FEW080 FEW220 BKN290 12/M06 A2968 RMK CU1AC1CS2CI0 SLP071

CYYC;2009-05-06 18:00;CYYC 061800Z 35003KT 40SM SCT083 BKN200 BKN290 13/M06 A2969 RMK CU3CS1CI0 SLP070

CYYC;2009-05-06 19:00;CYYC 061900Z 29008KT 40SM SCT083 BKN110 BKN290 14/M07 A2969 RMK CU4AC1CI0 VIRGA S+NW SLP068

CYYC;2009-05-06 20:00;CYYC 062000Z 27009G16KT 40SM SCT085 SCT110 OVC290 16/M06 A2967 RMK CU3AC1CI0 SH NW-NE+SE SLP064

CYYC;2009-05-06 21:00;CYYC 062100Z 28016KT 40SM SCT088 SCT100 BKN270 14/M08 A2967 RMK CU3AC1CI0 SH N+SW SLP063

CYYC;2009-05-06 22:00;CYYC 062200Z 26012G20KT 40SM FEW088 SCT140 BKN250 14/M07 A2967 RMK CU2AC1CI1 SH N+SE+SW / TCU ASOCTD SLP061

CYYC;2009-05-06 23:00;CYYC 062300Z 27010G18KT 40SM FEW088 FEW140 BKN260 14/M08 A2967 RMK CU1AC1CI0 SH NW+E / TCU ASOCTD SLP061

CYYC;2009-05-07 00:00;CYYC 070000Z 28012G17KT 40SM FEW088 FEW140 FEW280 15/M07 A2966 RMK CU1AC1CI0 SH E SLP060

CYYC;2009-05-07 01:00;CYYC 070100Z CCA 25007KT 40SM FEW088 FEW140 BKN260 14/M07 A2966 RMK CU1AC1CI0 VIRGA NE SLP062

CYYC;2009-05-07 02:00;CYYC 070200Z 28013KT 40SM FEW070 FEW090 BKN250 13/M07 A2967 RMK CU1AC1CI3 SLP064

CYYC;2009-05-07 03:00;CYYC 070300Z 27013KT 30SM FEW050 FEW090 OVC220 11/M05 A2969 RMK CU1AC2CI4 SLP069

CYYC;2009-05-07 04:00;CYYC 070400Z 28014KT 15SM FEW050 FEW100 BKN220 10/M03 A2970 RMK CU1AC2CI3 SLP074

CYYC;2009-05-07 05:00;CYYC 070500Z 29012KT 15SM FEW060 SCT110 OVC220 10/M03 A2971 RMK SC1AC2CI4 SLP075

CYYC;2009-05-07 06:00;CYYC 070600Z 31009KT 15SM FEW060 SCT120 BKN240 09/M03 A2970 RMK SC1AC2CI3 SLP072

CYYC;2009-05-07 07:00;CYYC 070700Z 31008KT 15SM FEW100 BKN210 06/M01 A2971 RMK AC2CI5 SLP075

CYYC;2009-05-07 08:00;CYYC 070800Z 33009KT 15SM SCT092 BKN220 05/01 A2972 RMK AC3CI3 SLP078

CYYC;2009-05-07 09:00;CYYC 070900Z 32005KT 15SM SCT095 OVC220 04/01 A2972 RMK AC3CI4 SLP084

CYYC;2009-05-07 10:00;CYYC 071000Z 31005KT 15SM SCT095 OVC220 04/01 A2972 RMK AC3CI4 VIRGA SW/ ACC EMBD SLP083

CYYC;2009-05-07 11:00;CYYC 071100Z 36009KT 15SM FEW072 BKN095 OVC220 05/02 A2972 RMK AC2AC3CI2 SLP083

CYYC;2009-05-07 12:00;CYYC 071200Z 02009KT 20SM BKN067 BKN100 OVC210 05/02 A2973 RMK AC6AC1CI2 HVY SH DIST NE SLP082

CYYC;2009-05-07 13:00;CYYC 071300Z 34012KT 30SM VCSH FEW020 SCT070 BKN100 OVC210 05/03 A2973 RMK SC1AC2AC3CI2 SH ALQDS SLP083

CYYC;2009-05-07 13:10;CYYC 071310Z 34014KT 30SM -SHRA FEW022 FEW070 BKN100 OVC210 05/ RMK SC1AC2AC4CI2 ACC EMBD

CYYC;2009-05-07 14:00;CYYC 071400Z 04009KT 40SM -SHRA SCT045 BKN070 OVC100 05/02 A2975 RMK SC4AC2AC2 PCPN VRY LGT/CVCTV CLD EMBD SLP089

CYYC;2009-05-07 15:00;CYYC 071500Z 36011KT 10SM -SHRA BKN035 OVC040 04/04 A2977 RMK SC6SC2 CVCTV CLD EMBD SLP105

CYYC;2009-05-07 16:00;CYYC 071600Z 02006KT 10SM -RA BKN020 OVC030 04/04 A2979 RMK SC6SC2 SLP110

CYYC;2009-05-07 17:00;CYYC 071700Z 02003KT 10SM -RA SCT016 BKN020 OVC050 04/03 A2981 RMK SC3SC2SC2 SLP115

CYYC;2009-05-07 18:00;CYYC 071800Z 07003KT 10SM -RA SCT015 BKN020 OVC030 04/03 A2982 RMK SC4SC2SC2 SLP124

CYYC;2009-05-07 19:00;CYYC 071900Z 02003KT 8SM -RA BKN020 OVC030 04/03 A2984 RMK SC6SC2 SLP129

CYYC;2009-05-07 19:50;CYYC 071950Z 00000KT 10SM SCT020 BKN040 OVC070 06/ RMK SC4SC2AC2

CYYC;2009-05-07 20:00;CYYC 072000Z 30003KT 10SM SCT018 BKN040 OVC080 06/04 A2984 RMK SC3SC2AC3 SLP129

CYYC;2009-05-07 21:00;CYYC 072100Z 32003KT 15SM FEW018 SCT030 OVC090 08/03 A2984 RMK SC2SC2AC4 SLP133

CYYC;2009-05-07 21:56;CYYC 072156Z 04018KT 10SM -SHRA SCT030 BKN040 OVC060 06/ RMK SC3SC2SC2

CYYC;2009-05-07 22:00;CYYC 072200Z 04010G20KT 10SM -SHRA SCT020 BKN034 OVC050 06/03 A2987 RMK SC4SC3SC1 CVCTV CLD EMBD SLP141

CYYC;2009-05-07 22:43;CYYC 072243Z 04010KT 10SM FEW030 BKN040 OVC100 06/ RMK SC2SC2AC2

CYYC;2009-05-07 23:00;CYYC 072300Z 07005KT 10SM FEW030 SCT060 OVC120 06/04 A2987 RMK SC2SC2AC3 DIST SH S-SW SLP143

CYYC;2009-05-08 00:00;CYYC 080000Z 12002KT 40SM FEW030 BKN150 OVC240 06/03 A2990 RMK SC2AC4CI0 DIST SH S SLP154

CYYC;2009-05-08 01:00;CYYC 080100Z 25007KT 30SM FEW030 BKN160 OVC240 07/04 A2990 RMK SC2AC4CI0 SLP156

CYYC;2009-05-08 02:00;CYYC 080200Z 25008KT 30SM FEW040 FEW130 BKN210 08/04 A2991 RMK CU1AC1CI3 CU TR SLP157

CYYC;2009-05-08 03:00;CYYC 080300Z 23004KT 15SM FEW060 FEW130 BKN210 07/02 A2992 RMK SC1AC1CI3 SLP163

CYYC;2009-05-08 04:00;CYYC 080400Z 00000KT 15SM FEW060 FEW140 BKN240 07/02 A2995 RMK SC1AC2CI2 SLP172

CYYC;2009-05-08 05:00;CYYC 080500Z 26005KT 15SM FEW140 FEW230 05/02 A2997 RMK AC1CI1 AC TR SLP176

CYYC;2009-05-08 06:00;CYYC 080600Z 32007KT 15SM FEW055 FEW080 04/01 A2998 RMK SC1AC2 SLP187

CYYC;2009-05-08 07:00;CYYC 080700Z 31017KT 15SM FEW080 SCT140 05/00 A3000 RMK AC2AC1 SLP192

CYYC;2009-05-08 08:00;CYYC 080800Z 30013KT 15SM FEW080 BKN099 06/00 A3000 RMK AC2AC6 SLP193

CYYC;2009-05-08 09:00;CYYC 080900Z 27012KT 15SM FEW085 BKN100 05/01 A3000 RMK AC1AC6 SLP188

CYYC;2009-05-08 10:00;CYYC 081000Z 29007KT 15SM FEW082 BKN110 05/01 A3002 RMK AC2AC4 SLP192

CYYC;2009-05-08 11:00;CYYC 081100Z 30009KT 15SM FEW087 BKN100 05/01 A3003 RMK AC2AC2 SLP197

CYYC;2009-05-08 12:00;CYYC 081200Z 31006KT 20SM FEW078 SCT110 04/M00 A3004 RMK AC1AC2 SLP204

CYYC;2009-05-08 13:00;CYYC 081300Z 32009KT 40SM FEW040 SCT064 BKN110 04/00 A3006 RMK CU1SC3AC2 SLP212

CYYC;2009-05-08 14:00;CYYC 081400Z 34007KT 40SM SCT060 BKN100 04/01 A3008 RMK SC4AC2 SLP218

CYYC;2009-05-08 15:00;CYYC 081500Z 34014KT 40SM FEW028 SCT050 BKN100 05/02 A3009 RMK CU1SC4AC1 VIRGA ALQDS SLP222

CYYC;2009-05-08 16:00;CYYC 081600Z 36011KT 40SM FEW040 SCT060 BKN110 07/03 A3010 RMK CU1SC3AC1 VIRGA ALQDS SLP223

CYYC;2009-05-08 17:00;CYYC 081700Z 01008KT 40SM FEW048 SCT060 SCT080 BKN120 BKN240 09/03 A3009 RMK CU2SC1AC1AC1CI0 VIRGA NW/TCU NW SLP221

CYYC;2009-05-08 18:00;CYYC 081800Z 35007G15KT 40SM FEW048CB SCT120 BKN240 11/01 A3009 RMK CB2AC2CI0 DIST SH SW-W-NW SLP215

CYYC;2009-05-08 19:00;CYYC 081900Z 23007KT 40SM BKN050CB 09/00 A3007 RMK CB5 DIST SH S-SW-W-NW SLP211

CYYC;2009-05-08 19:56;CYYC 081956Z 32022G27KT 10SM -SHRA BKN050CB 08/ RMK CB6

CYYC;2009-05-08 20:00;CYYC 082000Z 29022G32KT 10SM -SHRA BKN044CB 06/02 A3010 RMK CB6 SLP218

CYYC;2009-05-08 20:31;CYYC 082031Z 27018G25KT 10SM BKN050CB 06/ RMK CB7

CYYC;2009-05-08 21:00;CYYC 082100Z 26017KT 10SM OVC040CB 06/03 A3010 RMK CB7 SH SE-S-SW-W SLP226

CYYC;2009-05-08 21:57;CYYC 082157Z 24012G17KT 40SM -SHRAPL BKN030CB 08/ RMK CB6

CYYC;2009-05-08 22:00;CYYC 082200Z 24013KT 40SM -SHRAPL BKN030CB 08/04 A3009 RMK CB6 SLP222

CYYC;2009-05-08 22:22;CYYC 082222Z 23012G17KT 30SM BKN040CB 09/ RMK CB6 SH W

CYYC;2009-05-08 23:00;CYYC 082300Z 25014G19KT 30SM BKN050CB 09/04 A3009 RMK CB7 SH SE+SW-W SLP223

CYYC;2009-05-08 23:46;CYYC 082346Z 27017KT 15SM -SHRA SCT052CB BKN080 BKN240 10/ RMK CB4AC2CI1

CYYC;2009-05-09 00:00;CYYC 090000Z CCB 27017KT 20SM -SHRA SCT024CB BKN080 BKN200 09/03 A3009 RMK CB4AC1CI1 SLP220

CYYC;2009-05-09 00:16;CYYC 090016Z CCA 28016KT 20SM SCT028CB BKN080 BKN220 10/ RMK CB4AC1CI1

CYYC;2009-05-09 01:00;CYYC 090100Z 29011G17KT 20SM SCT024CB BKN080 BKN200 08/03 A3011 RMK CB3AC2CI0 SLP224

CYYC;2009-05-09 02:00;CYYC 090200Z 29012KT 20SM SCT040 BKN085 OVC210 08/03 A3011 RMK CU3AC2CI1 SH DIST NW SLP224

CYYC;2009-05-09 03:00;CYYC 090300Z 28010KT 30SM SCT050 BKN090 OVC210 07/02 A3012 RMK SC3AC2CI2 SLP231

CYYC;2009-05-09 04:00;CYYC 090400Z 32004KT 15SM FEW040 BKN080 OVC180 06/03 A3014 RMK SC2AC2AC2 SH DIST S SLP238

CYYC;2009-05-09 05:00;CYYC 090500Z 29012KT 15SM FEW044 SCT085 BKN210 06/02 A3015 RMK SC2AC2CI2 SLP239

CYYC;2009-05-09 06:00;CYYC 090600Z 31010KT 15SM FEW042 FEW070 BKN180 05/02 A3016 RMK SC1ACC2AC3 SLP239

CYYC;2009-05-09 07:00;CYYC 090700Z 31010KT 15SM FEW050 SCT092 BKN150 05/02 A3017 RMK SC1AC2AC2 SLP241

CYYC;2009-05-09 08:00;CYYC 090800Z 31009KT 15SM FEW041 SCT090 BKN150 04/02 A3017 RMK SC2AC2AC1 SLP242

CYYC;2009-05-09 09:00;CYYC 090900Z 31008KT 15SM FEW040 SCT090 BKN160 04/02 A3016 RMK SC1AC2AC2 SLP248

CYYC;2009-05-09 10:00;CYYC 091000Z 31008KT 15SM BKN047 BKN056 OVC078 05/03 A3017 RMK SC5SC2AC2 SLP249

CYYC;2009-05-09 11:00;CYYC 091100Z 32010KT 15SM FEW026 BKN048 OVC080 05/03 A3017 RMK SC2SC4AC2 SLP251

CYYC;2009-05-09 12:00;CYYC 091200Z 25004KT 15SM BKN028 OVC044 05/03 A3018 RMK SC6SC2 SLP247

CYYC;2009-05-09 13:00;CYYC 091300Z 31010KT 20SM FEW028 OVC064 05/03 A3018 RMK SC2SC6 SLP248

CYYC;2009-05-09 14:00;CYYC 091400Z 32011KT 20SM FEW028 SCT065 07/03 A3019 RMK SC1SC3 DIST SH SW SLP252

CYYC;2009-05-09 15:00;CYYC 091500Z 33013KT 30SM BKN025 BKN065 08/02 A3020 RMK SC6SC1 SLP253

CYYC;2009-05-09 16:00;CYYC 091600Z 34011G16KT 30SM SCT030 SCT080 SCT200 10/03 A3019 RMK SC4AC1CI1 AC+CI TR SLP252

CYYC;2009-05-09 17:00;CYYC 091700Z 32007KT 30SM BKN030 10/03 A3020 RMK SC5 TCU ASOCTD SLP255

CYYC;2009-05-09 17:39;CYYC 091739Z 36016G21KT 30SM -SHRA BKN035 09/ RMK SC6 TCU ASOCTD/PCPN VRY LGT

CYYC;2009-05-09 18:00;CYYC 091800Z CCA 36009KT 30SM -SHRA BKN036CB BKN200 11/02 A3018 RMK CB6CI1 SLP247

CYYC;2009-05-09 19:00;CYYC 091900Z 02007G24KT 30SM -SHRA BKN036CB 08/03 A3018 RMK CB7 SLP245

CYYC;2009-05-09 19:29;CYYC 091929Z 02005KT 30SM BKN040CB 11/ RMK CB6

CYYC;2009-05-09 20:00;CYYC 092000Z 32007KT 30SM BKN044TCU 11/01 A3016 RMK TCU5 SH ALQDS SLP241

CYYC;2009-05-09 20:47;CYYC 092047Z 36004G15KT 30SM -SHRA BKN044TCU 11/ RMK TCU6

CYYC;2009-05-09 21:00;CYYC 092100Z 34002G15KT 30SM -SHRA BKN040TCU 11/02 A3016 RMK TCU6 SLP239

CYYC;2009-05-09 21:21;CYYC 092121Z 22012KT 30SM BKN040TCU 11/ RMK TCU6

CYYC;2009-05-09 22:00;CYYC 092200Z 26014KT 25SM BKN044TCU 11/00 A3015 RMK TCU7 SH ALQDS SLP237

CYYC;2009-05-09 22:12;CYYC 092212Z 31008G15KT 25SM -SHRA OVC032TCU 10/ RMK TCU7

CYYC;2009-05-09 23:00;CYYC 092300Z 33004KT 25SM -SHRA OVC030TCU 09/03 A3017 RMK TCU8 SLP243

CYYC;2009-05-10 00:00;CYYC 100000Z 14003KT 25SM -SHRA BKN060 BKN120 10/04 A3016 RMK SC5AC1 TCU ASOCTD SLP240

CYYC;2009-05-10 00:22;CYYC 100022Z 07008KT 25SM FEW028CB BKN060 BKN120 OVC240 10/ RMK CB1SC4AC1CI0 SH N-NE-E-SE/CB S

CYYC;2009-05-10 00:48;CYYC 100048Z 08007KT 30SM -SHRA FEW024CB BKN060 OVC120 10/ RMK CB1SC4AC2

CYYC;2009-05-10 01:00;CYYC 100100Z 02011KT 30SM -SHRA FEW020CB BKN060 OVC120 09/04 A3017 RMK CB1SC4AC2 SLP244

CYYC;2009-05-10 02:00;CYYC 100200Z 02007KT 30SM -SHRA BKN042 BKN060 BKN120 BKN200 08/05 A3017 RMK SC5SC1AC1CI1 SLP243

CYYC;2009-05-10 02:37;CYYC 100237Z 05002KT 30SM SCT042 SCT060 BKN200 BKN250 08/ RMK SC3SC1CI2CI1

CYYC;2009-05-10 03:00;CYYC 100300Z 27004KT 30SM FEW040 SCT060 BKN160 BKN230 08/04 A3017 RMK SC2SC2AC2CI1 SH DIST N SLP243

CYYC;2009-05-10 04:00;CYYC 100400Z 25003KT 15SM FEW060 BKN096 BKN230 08/03 A3017 RMK SC2AC3CI1 SLP244

CYYC;2009-05-10 05:00;CYYC 100500Z 24004KT 15SM BKN060 BKN100 08/02 A3017 RMK SC5AC1 SLP244

CYYC;2009-05-10 06:00;CYYC 100600Z 27005KT 15SM BKN064 BKN110 BKN240 07/03 A3017 RMK SC5AC1CI0 SLP241

CYYC;2009-05-10 07:00;CYYC 100700Z 29004KT 15SM FEW065 SCT250 06/02 A3017 RMK SC2CI0 SLP241

CYYC;2009-05-10 08:00;CYYC 100800Z 20004KT 15SM FEW065 FEW250 04/02 A3017 RMK SC1CI0 SLP240

CYYC;2009-05-10 09:00;CYYC 100900Z 35003KT 15SM SKC 03/01 A3016 RMK SLP241

CYYC;2009-05-10 10:00;CYYC 101000Z 32003KT 15SM SKC 03/01 A3015 RMK SLP238

CYYC;2009-05-10 11:00;CYYC 101100Z 09002KT 15SM FEW100 02/01 A3015 RMK AC1 SLP239

CYYC;2009-05-10 12:00;CYYC 101200Z 21003KT 40SM FEW100 01/M00 A3014 RMK AC1 SLP240

CYYC;2009-05-10 13:00;CYYC 101300Z 05002KT 40SM FEW100 02/01 A3015 RMK AC1 SLP241

CYYC;2009-05-10 14:00;CYYC 101400Z 00000KT 40SM FEW240 05/02 A3015 RMK CI1 SLP243

CYYC;2009-05-10 15:00;CYYC 101500Z 14002KT 40SM FEW050 FEW110 FEW240 08/03 A3015 RMK SC1AC1CI1 SLP235

CYYC;2009-05-10 16:00;CYYC 101600Z 18002KT 40SM FEW032 10/02 A3014 RMK CU1 SLP232

CYYC;2009-05-10 17:00;CYYC 101700Z 19004KT 30SM FEW040TCU 11/01 A3013 RMK TCU1 DIST SH SW SLP228

CYYC;2009-05-10 18:00;CYYC 101800Z 14007KT 40SM FEW050TCU 12/M01 A3011 RMK TCU2 DIST SH SW-N SLP217

CYYC;2009-05-10 19:00;CYYC 101900Z 23003KT 40SM FEW056TCU 13/00 A3009 RMK TCU2 DIST SH SW-N SLP210

CYYC;2009-05-10 20:00;CYYC 102000Z 11005KT 30SM FEW058 FEW240 14/M00 A3007 RMK CU1CI1 DIST SH SW-E SLP204

CYYC;2009-05-10 21:00;CYYC 102100Z 18010G15KT 30SM FEW060TCU SCT250 15/M01 A3005 RMK TCU2CI0 SH SW-N/VIS W LWR SLP197

CYYC;2009-05-10 22:00;CYYC 102200Z 23007KT 30SM FEW060TCU SCT110 BKN220 13/00 A3003 RMK TCU2AC1CI2 SH SW-N SLP191

CYYC;2009-05-10 23:00;CYYC 102300Z 18008KT 30SM FEW060TCU FEW100 FEW180 FEW200 16/00 A3001 RMK TCU1AC1AC1CI0 DIST SH SW-E SLP185

CYYC;2009-05-11 00:00;CYYC 110000Z 19007KT 30SM FEW070TCU FEW200 SCT220 15/M01 A2999 RMK TCU1CI1CI0 DIST SH ALQDS SLP180

CYYC;2009-05-11 00:16;CYYC 110016Z 18009KT 30SM FEW060CB SCT220 15/ RMK CB1CI1 CB E/SH ALQDS

CYYC;2009-05-11 01:00;CYYC 110100Z 18010KT 40SM FEW060CB FEW220 15/M02 A2995 RMK CB1CI0 DIST SH ALQDS SLP167

CYYC;2009-05-11 02:00;CYYC 110200Z CCA 15010KT 30SM FEW060CB FEW090 FEW220 14/M03 A2995 RMK CB2AC1CI1 CB ALQDS /DIST SH S-NW SLP168

CYYC;2009-05-11 03:00;CYYC 110300Z 18007KT 30SM FEW060CB FEW100 FEW220 11/M02 A2994 RMK CB1AC1CI0 CB NW /DIST SH SW-NW SLP157

CYYC;2009-05-11 04:00;CYYC 110400Z 18008KT 15SM FEW060CB FEW100 11/M01 A2993 RMK CB1AC1 CB N / VIRGA NW / CB TR SLP155

CYYC;2009-05-11 05:00;CYYC 110500Z 20009KT 15SM FEW060CB FEW100 09/M01 A2992 RMK CB1AC1 CB N SLP152

CYYC;2009-05-11 06:00;CYYC 110600Z 20006KT 15SM FEW100 08/M01 A2991 RMK AC1 SLP147

CYYC;2009-05-11 07:00;CYYC 110700Z 25006KT 15SM FEW100 FEW250 07/M01 A2990 RMK AC1CI1 SLP143

CYYC;2009-05-11 08:00;CYYC 110800Z 18004KT 15SM FEW250 06/M01 A2989 RMK CI0 SLP140

CYYC;2009-05-11 09:00;CYYC 110900Z 00000KT 15SM FEW250 04/M01 A2987 RMK CI0 SLP135

CYYC;2009-05-11 10:00;CYYC 111000Z 35002KT 15SM FEW100 FEW250 04/M02 A2985 RMK AC1CI0 SLP129

CYYC;2009-05-11 11:00;CYYC 111100Z CCA 00000KT 15SM FEW100 FEW250 02/M02 A2984 RMK AC1CI0 CONTRAILS SLP124

CYYC;2009-05-11 12:00;CYYC 111200Z CCA 00000KT 30SM FEW100 FEW250 02/M02 A2984 RMK AC1CI0 SLP124

CYYC;2009-05-11 13:00;CYYC 111300Z 00000KT 30SM FEW120 BKN220 04/00 A2981 RMK AC1CI2 SLP115

CYYC;2009-05-11 14:00;CYYC 111400Z 18002KT 30SM FEW160 BKN230 06/01 A2980 RMK AC2CI2 SLP113

CYYC;2009-05-11 15:00;CYYC 111500Z 21002KT 30SM FEW080 FEW150 SCT240 11/M00 A2978 RMK AC1AC1CI1 SLP098

CYYC;2009-05-11 16:00;CYYC 111600Z 27007KT 30SM FEW045 FEW120 BKN250 14/M02 A2976 RMK CU1AC2CI1 CU TR SLP092

CYYC;2009-05-11 17:00;CYYC 111700Z CCA 00000KT 40SM FEW045 FEW120 BKN250 15/M03 A2974 RMK CU1AC1CI1 VIRGA SW/ CU TR SLP086

CYYC;2009-05-11 18:00;CYYC 111800Z 16005KT 40SM FEW045 FEW100 BKN250 16/M03 A2972 RMK CU1AC1CI2 VIRGA SW/ AC TR SLP076

CYYC;2009-05-11 19:00;CYYC 111900Z 18004KT 40SM FEW050 SCT060TCU SCT110 BKN240 16/M03 A2970 RMK CU2TCU1AC1CI1 TCU N SLP069

CYYC;2009-05-11 20:00;CYYC 112000Z 21007KT 40SM FEW050 FEW070TCU FEW110 BKN240 16/M03 A2968 RMK CU2TCU1AC1CI1 VIRGA SW+N SLP063

CYYC;2009-05-11 21:00;CYYC 112100Z 18008KT 40SM FEW050 SCT080TCU BKN180 BKN250 17/M03 A2966 RMK CU2TCU2AC2CI0 VIRGA NNW SLP059

CYYC;2009-05-11 22:00;CYYC 112200Z 17011G17KT 40SM FEW050 FEW082TCU BKN130 BKN240 16/M03 A2964 RMK CU2TCU1AC2CI0 VIRGA W-N-W SLP053

CYYC;2009-05-11 23:00;CYYC 112300Z 22007KT 40SM FEW050 FEW085TCU BKN160 BKN240 17/M03 A2962 RMK CU2TCU1AC3CI1 VIRGA SW+N/ TCU TR SLP046

CYYC;2009-05-12 00:00;CYYC 120000Z 29005KT 40SM FEW060 FEW085TCU BKN130 BKN240 16/M04 A2961 RMK CU2TCU1AC3CI0 VIRGA S-W-N SLP042

CYYC;2009-05-12 01:00;CYYC 120100Z 32004KT 40SM FEW060 FEW085TCU BKN100 BKN220 16/M04 A2959 RMK CU1TCU1AC4CI0 SH DIST N SLP037

CYYC;2009-05-12 02:00;CYYC 120200Z CCA 28012KT 30SM FEW100 SCT210 14/M04 A2959 RMK AC2CI1 TCU ASOCTD N-E/VIRGA N-E SLP036

CYYC;2009-05-12 03:00;CYYC 120300Z 27009KT 30SM FEW100 FEW210 13/M03 A2958 RMK AC1CI0 TCU ASOCTD E+W / SH DIST E SLP024

CYYC;2009-05-12 04:00;CYYC 120400Z 25008KT 15SM FEW100 FEW210 11/M03 A2958 RMK AC1CI1 AC TR SLP024

CYYC;2009-05-12 05:00;CYYC 120500Z 25005KT 15SM FEW100 FEW210 10/M03 A2957 RMK AC1CI1 AC TR SLP023

CYYC;2009-05-12 06:00;CYYC 120600Z 26010KT 15SM FEW100 SCT180 10/M02 A2955 RMK AC1AS2 SLP014

CYYC;2009-05-12 07:00;CYYC 120700Z 27014G19KT 15SM FEW100 BKN180 09/M01 A2954 RMK AC1AS4 SLP010

CYYC;2009-05-12 08:00;CYYC 120800Z 27015G20KT 15SM FEW140 BKN220 10/M02 A2953 RMK AC2CI2 SLP007

CYYC;2009-05-12 09:00;CYYC 120900Z 28014G19KT 15SM FEW140 SCT220 09/M02 A2952 RMK AC1CI2 SLP002

CYYC;2009-05-12 10:00;CYYC 121000Z 27005KT 15SM FEW120 SCT220 09/M02 A2952 RMK AC2CI1 SLP001

CYYC;2009-05-12 11:00;CYYC 121100Z 34004KT 15SM FEW120 BKN220 08/M02 A2952 RMK AC2CI1 SLP001

CYYC;2009-05-12 12:00;CYYC 121200Z 30005KT 30SM VCSH FEW060CB SCT120 BKN220 08/M02 A2951 RMK CB2AC2CI0 CB SW / VIRGA SW SLP001

CYYC;2009-05-12 13:00;CYYC 121300Z 29010KT 30SM BKN080 09/M03 A2950 RMK AC4 VIRGA ALQDS SLP000

CYYC;2009-05-12 14:00;CYYC 121400Z 34013KT 40SM FEW036TCU SCT080 09/M01 A2952 RMK TCU1AC2 SH N+S-E SLP004

CYYC;2009-05-12 15:00;CYYC 121500Z 35017KT 40SM FEW040TCU BKN070 10/01 A2951 RMK TCU2AC5 SH N-E SLP001

CYYC;2009-05-12 16:00;CYYC 121600Z 34012G17KT 30SM VCSH FEW015 SCT040TCU BKN065 09/01 A2951 RMK SC1TCU3SC4 SH ALQDS SLP003

CYYC;2009-05-12 16:19;CYYC 121619Z 35012KT 30SM -SHRA FEW015 FEW040TCU BKN065 09/ RMK SC1TCU2SC4

CYYC;2009-05-12 17:00;CYYC 121700Z 35009G15KT 30SM -SHRA FEW015 FEW040TCU OVC060 09/M00 A2951 RMK SC1TCU2SC5 PCPN VRY LGT SLP002

CYYC;2009-05-12 18:00;CYYC 121800Z 02008KT 30SM -SHRA BKN040CB BKN065 BKN140 10/01 A2950 RMK CB5SC2AC1 PCPN VRY LGT SLP005

CYYC;2009-05-12 18:12;CYYC 121812Z 01009KT 30SM -TSRA BKN040CB BKN070 BKN140 11/ RMK CB6AC2AC1 LTGIC NW / PCPN VRY LGT

CYYC;2009-05-12 18:50;CYYC 121850Z 27014G20KT 5SM -TSRAPL FEW010 BKN022CB OVC060 04/ RMK SC2CB5SC1 LTGCG E

CYYC;2009-05-12 19:00;CYYC 121900Z 26013KT 4SM -TSRAPL SCT010 BKN022CB OVC040 04/03 A2953 RMK SC3CB4SC1 LTGCG E SLP014

CYYC;2009-05-12 19:35;CYYC 121935Z 26010KT 5SM -SHRA FEW007 BKN020TCU OVC040 05/ RETS RMK SC2TCU4SC2 CB EMBD

CYYC;2009-05-12 20:00;CYYC 122000Z CCA 23009KT 4SM -SHRA FEW007 SCT014 OVC020TCU 05/04 A2955 RETS RMK SC2SC2TCU4 CB EMBD /R01/ SLP018

CYYC;2009-05-12 21:00;CYYC 122100Z 29010KT 4SM -SHRASN FEW006 SCT014 OVC020TCU 04/03 A2958 RMK SC2SC2TCU4 SLP040

CYYC;2009-05-12 22:00;CYYC 122200Z 30010G15KT 10SM -SHRASN FEW007 SCT014 OVC025TCU 05/03 A2958 RMK SC2SC2TCU4 SLP041

CYYC;2009-05-12 22:31;CYYC 122231Z 29006KT 10SM -SHRA FEW007 BKN025TCU OVC040 06/ RMK SC1TCU5SC3

CYYC;2009-05-12 22:47;CYYC 122247Z 36008KT 15SM FEW010 BKN025 OVC036 07/ RMK SC1CU5SC3 SH E-NW

CYYC;2009-05-12 23:00;CYYC 122300Z 36011G18KT 15SM FEW010 SCT025 OVC046 07/02 A2960 RMK SC1CU4SC4 SH E-SW SLP047

CYYC;2009-05-13 00:00;CYYC 130000Z CCA 35013G20KT 20SM FEW025 OVC044 07/M00 A2963 RMK SC2SC6 SH E-SW SLP056

CYYC;2009-05-13 01:00;CYYC 130100Z 35020KT 20SM FEW025 BKN051 06/M01 A2965 RMK CU2SC5 SH SE-SW SLP064

CYYC;2009-05-13 02:00;CYYC 130200Z 35020G29KT 20SM FEW050 BKN110 OVC230 04/M03 A2969 RMK SC1AC5CI2 SLP075

CYYC;2009-05-13 03:00;CYYC 130300Z 35024G31KT 20SM FEW060 BKN130 OVC230 03/M04 A2973 RMK SC1AC5CI2 SLP095

CYYC;2009-05-13 03:40;CYYC 130340Z 34013G21KT 15SM FEW065 BKN130 OVC230 02/ RMK SC1AC5CI2

CYYC;2009-05-13 04:00;CYYC 130400Z 35018G24KT 15SM FEW050 BKN130 OVC230 01/M04 A2977 RMK SC2AC4CI1 SLP105

CYYC;2009-05-13 05:00;CYYC 130500Z 35013KT 15SM BKN036 BKN100 OVC210 01/M04 A2981 RMK SC5AC2CI1 SLP118

CYYC;2009-05-13 06:00;CYYC 130600Z 34017KT 15SM BKN060 BKN067 BKN130 00/M05 A2983 RMK SC5AC2AC1 SLP132

CYYC;2009-05-13 07:00;CYYC 130700Z 34017G29KT 15SM BKN028 OVC080 00/M05 A2986 RMK SC7AC1 SLP140

CYYC;2009-05-13 08:00;CYYC 130800Z 34018G25KT 15SM FEW028 OVC071 M00/M05 A2988 RMK SC1AC6 SLP146

CYYC;2009-05-13 09:00;CYYC 130900Z 35020G26KT 15SM BKN026 OVC072 M01/M05 A2989 RMK SC6AC2 SLP164

CYYC;2009-05-13 10:00;CYYC 131000Z 35019G25KT 15SM SCT026 BKN076 BKN120 M01/M06 A2991 RMK SC3AC2AC1 SLP168

CYYC;2009-05-13 11:00;CYYC 131100Z 35017KT 15SM FEW028 SCT100 BKN230 M01/M05 A2992 RMK SC2AC2CI2 SLP173

CYYC;2009-05-13 12:00;CYYC 131200Z 35007KT 20SM BKN022 BKN090 M02/M05 A2994 RMK SC6AC2 SLP179

CYYC;2009-05-13 13:00;CYYC 131300Z 33006KT 20SM BKN021 BKN100 OVC210 M01/M04 A2997 RMK SC6AC1CI0 SLP188

CYYC;2009-05-13 14:00;CYYC 131400Z CCA 33010KT 30SM FEW015 BKN019 BKN140 M01/M05 A2998 RMK CU1SC6AC1 SLP191

CYYC;2009-05-13 15:00;CYYC 131500Z 33003KT 30SM FEW015 BKN019 BKN110 M00/M04 A2999 RMK CU2SC3AC1 SLP197

CYYC;2009-05-13 16:00;CYYC 131600Z 33005KT 30SM FEW022 SCT030 BKN110 BKN220 02/M03 A2998 RMK CU2SC2AC1CI0 SLP195

CYYC;2009-05-13 17:00;CYYC 131700Z 14003KT 40SM FEW024 FEW040 FEW140 FEW220 03/M03 A2998 RMK CU1SC1AC1CI1 SLP195

CYYC;2009-05-13 18:00;CYYC 131800Z 13003KT 40SM FEW028 FEW160 FEW250 04/M03 A2996 RMK CU1AC1CI0 SLP186

CYYC;2009-05-13 19:00;CYYC 131900Z 16008KT 40SM FEW035 FEW060 SCT240 06/M03 A2994 RMK CU1SC1CI0 SLP179

CYYC;2009-05-13 20:00;CYYC 132000Z 16010G15KT 40SM FEW035 FEW120 BKN270 08/M01 A2992 RMK CU1AC1CI1 SLP172

CYYC;2009-05-13 21:00;CYYC 132100Z 15012G18KT 40SM FEW036 SCT180 OVC270 09/M00 A2989 RMK CU2AC1CI1 SLP156

CYYC;2009-05-13 22:00;CYYC 132200Z 17014KT 40SM SCT036 BKN170 OVC270 09/00 A2986 RMK CU3AC2CI0 SLP147

CYYC;2009-05-13 23:00;CYYC 132300Z 15013G19KT 40SM FEW042 FEW140 OVC200 10/M00 A2983 RMK CU1AC1CS6 SH DIST SW SLP136

CYYC;2009-05-14 00:00;CYYC 140000Z 17014G20KT 40SM SCT045TCU SCT120 OVC200 10/01 A2979 RMK TCU4AC1CS2 CB S / VIRGA S-W SLP121

CYYC;2009-05-14 01:00;CYYC 140100Z CCA 16012G17KT 40SM VCSH FEW045CB BKN067 OVC180 10/00 A2977 RMK CB2AC3AS2 SH N+S+SW SLP114

CYYC;2009-05-14 01:19;CYYC 140119Z 16010KT 30SM -SHRA FEW045CB BKN067 OVC140 10/ RMK CB2AC2AS4

CYYC;2009-05-14 02:00;CYYC 140200Z 14010G16KT 20SM -SHRA FEW030 SCT050CB OVC120 09/01 A2974 RMK SC1CB2AC5 LTGIC NNE SLP104

CYYC;2009-05-14 02:45;CYYC 140245Z 14011KT 20SM FEW050CB OVC130 08/ RMK CB2AC6 SH+CB DIST W-N

CYYC;2009-05-14 03:00;CYYC 140300Z 12006KT 20SM FEW050CB OVC110 08/02 A2971 RMK CB2AC6 DIST SH+CB W-N SLP094

CYYC;2009-05-14 03:39;CYYC 140339Z 31003KT 20SM -SHRA FEW025 BKN041CB OVC080 08/ RMK SC2CB2AC3

CYYC;2009-05-14 04:00;CYYC 140400Z 32007KT 15SM -SHRA FEW033 SCT060CB OVC073 08/M01 A2972 RMK SC2CB2AC4 SLP095

CYYC;2009-05-14 04:23;CYYC 140423Z 32007KT 15SM FEW040 SCT060CB OVC110 08/ RMK SC2CB2AC4

CYYC;2009-05-14 05:00;CYYC 140500Z 35005KT 15SM FEW050CB BKN170 OVC230 07/M02 A2970 RMK CB1AC5CI2 SLP090

CYYC;2009-05-14 06:00;CYYC 140600Z 00000KT 15SM FEW060 SCT130 OVC220 06/M03 A2968 RMK SC1AC2CI4 SLP079

CYYC;2009-05-14 07:00;CYYC 140700Z 04007KT 15SM FEW080 BKN170 OVC230 05/M02 A2967 RMK AC2AC4CI2 SLP078

CYYC;2009-05-14 08:00;CYYC 140800Z 36005KT 15SM BKN086 OVC220 04/M01 A2968 RMK AC6CI2 SLP079

CYYC;2009-05-14 09:00;CYYC 140900Z 36008KT 15SM BKN089 BKN110 OVC210 03/M00 A2966 RMK AC6AC2CI1 SLP070

CYYC;2009-05-14 10:00;CYYC 141000Z 34008KT 15SM BKN076 OVC096 03/00 A2964 RMK AC6AC2 SLP065

CYYC;2009-05-14 10:32;CYYC 141032Z 35009KT 12SM BKN086 OVC100 02/ RMK AS6AC2

CYYC;2009-05-14 11:00;CYYC 141100Z 36007KT 15SM FEW070 SCT086 OVC140 02/M00 A2964 RMK AS2AC2AC4 SLP063

CYYC;2009-05-14 12:00;CYYC 141200Z 34004KT 20SM FEW070 BKN094 OVC120 01/M00 A2963 RMK AS1AC5AC2 SLP061

CYYC;2009-05-14 13:00;CYYC 141300Z 33004KT 7SM VCFG FEW008 BKN065 OVC110 02/00 A2964 RMK SF2SC3AC2 F BNK S-W SLP065

CYYC;2009-05-14 13:23;CYYC 141323Z 34008KT 7SM VCFG FEW009 BKN013 OVC050 02/ RMK SF2SC5SC1 F BNK ALQDS

CYYC;2009-05-14 13:53;CYYC 141353Z 33010KT 7SM VCFG OVC009 02/ RMK SC8 F BNK S-W

CYYC;2009-05-14 14:00;CYYC 141400Z 33009KT 7SM VCFG BKN009 OVC012 02/00 A2967 RMK SC6SC2 F BNK S-W SLP073

CYYC;2009-05-14 14:09;CYYC 141409Z 33008KT 7SM -RA VCFG BKN008 OVC012 02/ RMK SC5SC3 F BNK S-W

CYYC;2009-05-14 14:50;CYYC 141450Z 35010KT 7SM -RA VCFG SCT009 OVC070 03/ RMK SC4AC4 F BNK S-W

CYYC;2009-05-14 15:00;CYYC 141500Z 34009KT 7SM -RA VCFG SCT009 OVC050 03/02 A2967 RMK SC3SC5 SLP075

CYYC;2009-05-14 16:00;CYYC 141600Z 34008KT 7SM -RA VCFG SCT010 BKN020 OVC035 04/02 A2967 RMK SC3SC4SC1 SLP075

CYYC;2009-05-14 17:00;CYYC 141700Z 30011KT 10SM -RA FEW018 SCT025 OVC040 05/02 A2967 RMK SC2SC2SC4 SLP075

CYYC;2009-05-14 18:00;CYYC 141800Z 02006KT 10SM -RA SCT020 BKN030 OVC045 05/01 A2969 RMK SC4SC2SC2 SLP081

CYYC;2009-05-14 19:00;CYYC 141900Z 03008KT 7SM -RA SCT020 BKN030 OVC050 06/01 A2970 RMK SC4SC2SC1 RA INTMT SLP084

CYYC;2009-05-14 20:00;CYYC 142000Z 01014KT 10SM -RA SCT020 BKN030 OVC050 06/M00 A2972 RMK SC4SC2SC1 RA INTMT SLP091

CYYC;2009-05-14 20:51;CYYC 142051Z 02017G22KT 7SM BKN030 OVC065 08/ RMK SC5SC2 SH S-SW-W-NW

CYYC;2009-05-14 21:00;CYYC 142100Z 36018G25KT 7SM SCT030 OVC060 07/M00 A2974 RMK SC4SC2 SLP101

CYYC;2009-05-14 22:00;CYYC 142200Z 36020G26KT 8SM SCT038 BKN110 OVC200 08/M01 A2977 RMK SC4AC1CI0 SH SW SLP108

CYYC;2009-05-14 23:00;CYYC 142300Z 01017KT 10SM SCT040 BKN110 07/M02 A2979 RMK SC4AC2 SLP116

CYYC;2009-05-15 00:00;CYYC 150000Z 01017KT 10SM SCT050 BKN110 07/M02 A2982 RMK SC4AC1 SLP132

CYYC;2009-05-15 01:00;CYYC 150100Z 36015KT 20SM FEW040 SCT110 BKN130 07/M03 A2985 RMK SC2AC1AC1 SLP141

CYYC;2009-05-15 02:00;CYYC 150200Z 01013G18KT 20SM FEW040 FEW080 FEW150 FEW240 06/M03 A2988 RMK CU1AC1AC1CI0 CU TR SLP151

CYYC;2009-05-15 03:00;CYYC 150300Z 05008KT 20SM FEW080 FEW150 FEW240 05/M03 A2991 RMK AC1AC1CI0 SLP164

CYYC;2009-05-15 04:00;CYYC 150400Z 09005KT 15SM SCT080 BKN100 OVC210 03/M02 A2996 RMK AC3AC2CI1 SLP178

CYYC;2009-05-15 04:37;CYYC 150437Z 08007KT 15SM BKN100 OVC140 02/ RMK AC6AC2

CYYC;2009-05-15 05:00;CYYC 150500Z 08004KT 15SM BKN085 OVC110 02/M02 A2999 RMK AS5AC3 SLP186

CYYC;2009-05-15 06:00;CYYC 150600Z 16003KT 15SM BKN100 OVC120 01/M02 A3001 RMK AC6AC2 SLP199

CYYC;2009-05-15 07:00;CYYC 150700Z 20005KT 15SM BKN048 OVC064 02/M02 A3003 RMK SC6SC2 SLP205

CYYC;2009-05-15 08:00;CYYC 150800Z 20008KT 15SM FEW060 OVC077 02/M02 A3004 RMK SC2AC6 SLP207

CYYC;2009-05-15 09:00;CYYC 150900Z 20005KT 15SM FEW070 OVC097 02/M02 A3005 RMK AC2AC6 SLP208

CYYC;2009-05-15 10:00;CYYC 151000Z 20006KT 15SM FEW080 OVC098 01/M02 A3005 RMK AC1AC6 SLP208

CYYC;2009-05-15 11:00;CYYC 151100Z 18004KT 15SM FEW082 OVC130 01/M02 A3006 RMK AC2AC6 SLP214

CYYC;2009-05-15 12:00;CYYC 151200Z 20003KT 20SM FEW075 SCT086 OVC130 00/M02 A3008 RMK AC1AC2AC4 SLP222

CYYC;2009-05-15 13:00;CYYC 151300Z 18005KT 30SM FEW062 SCT080 BKN130 01/M02 A3008 RMK SC2AC2AC1 VIRGA E SLP224

CYYC;2009-05-15 14:00;CYYC 151400Z 24003KT 40SM FEW062 SCT080 03/M01 A3010 RMK SC2AC1 SLP228

CYYC;2009-05-15 15:00;CYYC 151500Z 17004KT 40SM FEW060 FEW080 05/M00 A3011 RMK SC1AC1 SLP230

CYYC;2009-05-15 16:00;CYYC 151600Z 15004KT 40SM FEW028 FEW080 06/M00 A3012 RMK CU1AC1 CU TR SLP233

CYYC;2009-05-15 17:00;CYYC 151700Z 16007KT 40SM FEW032 FEW100 FEW140 08/M00 A3013 RMK CU2AC1AC1 BOTH AC TR SLP236

CYYC;2009-05-15 17:54;CYYC 151754Z 09010KT 40SM -SHRA BKN036 08/ RMK CU5 CVC CLD EMBD

CYYC;2009-05-15 18:00;CYYC 151800Z 05013KT 40SM -SHRA BKN036 06/01 A3013 RMK CU6 CVC CLD EMBD SLP242

CYYC;2009-05-15 18:14;CYYC 151814Z 09008KT 40SM -SHPL BKN030 06/ RMK CU6

CYYC;2009-05-15 18:23;CYYC 151823Z 36004KT 40SM -SHRASN BKN024 06/ RMK CU6 CVCTV CLD EMBD

CYYC;2009-05-15 19:00;CYYC 151900Z 13008KT 40SM BKN020CB 07/02 A3014 RMK CB5 SLP245

CYYC;2009-05-15 19:17;CYYC 151917Z 14007KT 40SM -SHRA BKN020CB 06/ RMK CB6

CYYC;2009-05-15 19:51;CYYC 151951Z 25002KT 40SM SCT028TCU BKN120 BKN220 07/ RMK TCU3AC2CI0 SH ALQDS

CYYC;2009-05-15 20:00;CYYC 152000Z 27002KT 40SM SCT036TCU BKN120 BKN220 08/M01 A3014 RMK TCU3AC2CI0 SH ALQDS SLP244

CYYC;2009-05-15 21:00;CYYC 152100Z 03003KT 40SM FEW032 FEW100 09/01 A3014 RMK CU2AC1 SLP238

CYYC;2009-05-15 22:00;CYYC 152200Z 17004KT 40SM FEW052 FEW100 SCT180 11/M02 A3013 RMK CU2AC1AC0 SLP236

CYYC;2009-05-15 23:00;CYYC 152300Z 12003KT 40SM FEW056 SCT080 11/M03 A3011 RMK CU2AC1 SLP230

CYYC;2009-05-16 00:00;CYYC 160000Z 14006KT 40SM FEW056 SCT070 12/M02 A3011 RMK CU1AC1 SLP226

CYYC;2009-05-16 01:00;CYYC 160100Z 20005KT 40SM FEW056 FEW080 12/M02 A3010 RMK CU1AC1 SLP223

CYYC;2009-05-16 02:00;CYYC 160200Z 16007KT 30SM FEW060 FEW090 11/M02 A3010 RMK CU1AC1 CU TR SLP223

CYYC;2009-05-16 03:00;CYYC 160300Z 14009KT 30SM FEW060 FEW098 FEW240 11/M04 A3011 RMK SC1AC2CI0 SC TR SLP220

CYYC;2009-05-16 04:00;CYYC 160400Z 16007KT 15SM FEW080 FEW100 SCT240 08/M04 A3011 RMK AC1AC1CI0 SLP222

CYYC;2009-05-16 05:00;CYYC 160500Z 16006KT 15SM FEW098 SCT240 08/M02 A3011 RMK AC1CI2 AC TR SLP222

CYYC;2009-05-16 06:00;CYYC 160600Z 17003KT 15SM SCT230 06/M02 A3011 RMK CI2 SLP228

CYYC;2009-05-16 07:00;CYYC 160700Z 16005KT 15SM SCT230 06/M01 A3011 RMK CI2 SLP227

CYYC;2009-05-16 08:00;CYYC 160800Z 17004KT 15SM FEW190 SCT210 07/M04 A3010 RMK AC1CI2 SLP225

CYYC;2009-05-16 09:00;CYYC 160900Z 19004KT 15SM SCT170 BKN210 05/M03 A3010 RMK AS2CI2 SLP222

CYYC;2009-05-16 10:00;CYYC 161000Z 19005KT 15SM BKN140 OVC210 06/M04 A3009 RMK AS5CI2 SLP219

CYYC;2009-05-16 11:00;CYYC 161100Z 20006KT 15SM FEW140 OVC210 04/M04 A3009 RMK AC2CI4 SLP217

CYYC;2009-05-16 12:00;CYYC 161200Z 19006KT 40SM FEW110 OVC230 03/M04 A3008 RMK AC2CI6 SLP212

CYYC;2009-05-16 13:00;CYYC 161300Z 19006KT 40SM FEW140 BKN240 05/M03 A3007 RMK AC2CI5 SLP210

CYYC;2009-05-16 14:00;CYYC 161400Z 18005KT 40SM FEW110 BKN240 06/M03 A3008 RMK AC2CI1 SLP213

CYYC;2009-05-16 15:00;CYYC 161500Z 22004KT 40SM FEW110 BKN220 10/M03 A3007 RMK AC2CI1 SLP200

CYYC;2009-05-16 16:00;CYYC 161600Z 21007KT 40SM FEW110 BKN240 13/M03 A3005 RMK CU1CI1 SLP192

CYYC;2009-05-16 17:00;CYYC 161700Z 26010G16KT 40SM FEW110 BKN240 15/M03 A3003 RMK CU1CI1 SLP186

CYYC;2009-05-16 18:00;CYYC 161800Z 25011KT 40SM FEW150 BKN200 16/M03 A3001 RMK AC2CI1 SLP177

CYYC;2009-05-16 19:00;CYYC 161900Z 30015G21KT 40SM FEW084 SCT160 BKN210 18/M03 A2999 RMK CU1AC2CI1 CU TR SLP171

CYYC;2009-05-16 20:00;CYYC 162000Z 27017G24KT 40SM FEW084 SCT150 BKN200 19/M03 A2997 RMK CU1AC2CI1 CU TR SLP166

CYYC;2009-05-16 21:00;CYYC 162100Z 26013G19KT 40SM FEW084 SCT180 BKN220 19/M02 A2997 RMK CU1AC2CI1 SLP159

CYYC;2009-05-16 22:00;CYYC 162200Z 27013G20KT 40SM FEW084 SCT180 BKN220 19/M02 A2997 RMK CU1AC2CI1 CU TR SLP159

CYYC;2009-05-16 23:00;CYYC 162300Z 28015KT 40SM FEW084 FEW120 SCT180 BKN220 19/M02 A2996 RMK CU1AC1AC2CI1 CU TR SLP157

CYYC;2009-05-17 00:00;CYYC 170000Z 28012KT 40SM FEW080 SCT110 BKN220 19/M01 A2996 RMK CU1AC3CI1 CU TR SLP160

CYYC;2009-05-17 01:00;CYYC 170100Z 29013KT 40SM FEW080 FEW100 BKN120 BKN220 18/M02 A2996 RMK CU1AC1AC5CI1 ACSL S-W-NW SLP161

CYYC;2009-05-17 02:00;CYYC 170200Z 27009KT 40SM FEW060 FEW090 BKN130 BKN230 18/M01 A2996 RMK CF1AC1AC4CI2 TR CF ACSL DIST S-SW SLP161

CYYC;2009-05-17 03:00;CYYC 170300Z 27008KT 40SM FEW060 FEW090 BKN110 BKN230 17/M00 A2996 RMK CF1AC1AC4CI1 TR CF ACSL DIST SW SLP153

CYYC;2009-05-17 04:00;CYYC 170400Z 27011KT 15SM FEW060 SCT110 BKN240 16/00 A2997 RMK CF1AC4CI1 SLP156

CYYC;2009-05-17 05:00;CYYC 170500Z 27014G19KT 15SM FEW110 SCT150 BKN240 15/00 A2998 RMK AC1AC2CI1 SLP159

CYYC;2009-05-17 06:00;CYYC 170600Z 26009KT 15SM SCT140 SCT240 14/01 A2998 RMK AC3CI0 SLP155

CYYC;2009-05-17 07:00;CYYC 170700Z 27013KT 15SM BKN140 14/00 A2998 RMK AC6 SLP154

CYYC;2009-05-17 08:00;CYYC 170800Z 25009KT 15SM BKN140 BKN240 13/00 A2997 RMK AC5CI1 SLP153

CYYC;2009-05-17 09:00;CYYC 170900Z 25007KT 15SM BKN140 BKN240 13/00 A2998 RMK AC5CI1 SLP152

CYYC;2009-05-17 10:00;CYYC 171000Z 15002KT 15SM SCT140 BKN240 10/00 A2996 RMK AC4CI1 SLP147

CYYC;2009-05-17 11:00;CYYC 171100Z CCA 20005KT 15SM SCT140 BKN240 11/01 A2995 RMK AC3CI2 SLP144

CYYC;2009-05-17 12:00;CYYC 171200Z 19005KT 40SM FEW050 SCT130 BKN250 10/01 A2993 RMK CF1AC3CI1 SLP141

CYYC;2009-05-17 13:00;CYYC 171300Z 16002KT 40SM FEW050 SCT150 OVC230 09/02 A2993 RMK CF1AC4CI2 SLP140

CYYC;2009-05-17 14:00;CYYC 171400Z 21008KT 40SM FEW050 FEW120 OVC210 11/02 A2993 RMK CF1AC1CI6 SLP139

CYYC;2009-05-17 15:00;CYYC 171500Z 00000KT 40SM FEW050 FEW160 BKN200 OVC240 12/03 A2992 RMK CF1AC1CI4CI2 SLP138

CYYC;2009-05-17 16:00;CYYC 171600Z 21003KT 40SM FEW060 FEW180 OVC200 13/02 A2992 RMK SC1AC1CI7 SLP136

CYYC;2009-05-17 17:00;CYYC 171700Z 19002KT 40SM FEW060 FEW150 OVC210 14/04 A2991 RMK SC1AC1CI7 SLP135

CYYC;2009-05-17 18:00;CYYC 171800Z 15006KT 40SM FEW050 FEW120 OVC210 17/02 A2989 RMK SC1AC1CI6 SLP123

CYYC;2009-05-17 19:00;CYYC 171900Z 15005KT 40SM FEW050 FEW160 OVC220 20/02 A2988 RMK SC1AC1CI4 ACSL SLP121

CYYC;2009-05-17 20:00;CYYC 172000Z 14003KT 40SM FEW060 FEW082 FEW130 SCT200 OVC230 21/00 A2986 RMK SC1AC1AC1CI2CI0 SLP115

CYYC;2009-05-17 21:00;CYYC 172100Z 28008KT 40SM FEW080 FEW180 SCT220 OVC250 23/M04 A2985 RMK CU1AC1CI2CI0 SLP101

CYYC;2009-05-17 22:00;CYYC 172200Z 28013G21KT 40SM FEW050 FEW100 FEW180 OVC220 24/M04 A2984 RMK CF1AC1AC1CI2 ACSL SLP100

CYYC;2009-05-17 23:00;CYYC 172300Z 26018G24KT 40SM FEW060 FEW090 FEW120 SCT200 BKN250 24/M05 A2985 RMK SC1CU1AC1CI2CI0 SLP102

CYYC;2009-05-18 00:00;CYYC 180000Z 28017G22KT 40SM FEW090 FEW160 BKN240 24/M05 A2985 RMK CU1AC1CI1 SLP107

CYYC;2009-05-18 00:38;CYYC 180038Z 01024G29KT 30SM SCT010 BKN030 BKN160 BKN250 16/06 RMK SC3SC2AC1CI0 ALTM MISG

CYYC;2009-05-18 00:44;CYYC 180044Z 01025G30KT 30SM FEW009 BKN160 BKN240 17/ RMK SC2AC2CI0

CYYC;2009-05-18 01:00;CYYC 180100Z 01024G29KT 30SM SCT010 BKN030 BKN160 BKN250 16/06 A2993 RMK SC3SC2AC1CI0 SLP129

CYYC;2009-05-18 02:00;CYYC 180200Z 01021G29KT 30SM FEW150 BKN240 14/05 A2998 RMK AC1CI3 SLP144

CYYC;2009-05-18 03:00;CYYC 180300Z 03015G24KT 30SM FEW150 BKN240 12/04 A3002 RMK AC1CI2 PRESRR SLP178

CYYC;2009-05-18 04:00;CYYC 180400Z 05011G17KT 15SM FEW040 FEW120 SCT250 10/04 A3005 RMK CU1AC1CI1 CONTRAILS / CU TR SLP188

CYYC;2009-05-18 05:00;CYYC 180500Z 04009KT 15SM SCT040 BKN090 09/04 A3007 RMK SC3AC2 SLP195

CYYC;2009-05-18 06:00;CYYC 180600Z 05009KT 15SM OVC030 08/03 A3010 RMK SC7 SLP205

CYYC;2009-05-18 07:00;CYYC 180700Z 04013KT 15SM OVC030 08/01 A3011 RMK SC7 SLP207

CYYC;2009-05-18 08:00;CYYC 180800Z 06013KT 15SM SCT020 OVC040 06/02 A3012 RMK SC3SC4 SLP212

CYYC;2009-05-18 08:30;CYYC 180830Z 05010G15KT 8SM -RA SCT017 OVC030 06/ RMK SC4SC4

CYYC;2009-05-18 08:45;CYYC 180845Z 05012KT 5SM -RA BKN013 OVC030 05/ RMK SC6SC2

CYYC;2009-05-18 09:00;CYYC 180900Z 04012KT 5SM -RA BKN012 OVC030 04/01 A3014 RMK SC6SC2 SLP216

CYYC;2009-05-18 09:15;CYYC 180915Z 04014KT 8SM -RA SCT012 OVC040 04/ RMK SC3SC5

CYYC;2009-05-18 10:00;CYYC 181000Z 04014KT 8SM -RA FEW012 OVC042 03/00 A3014 RMK SC2SC6 SLP217

CYYC;2009-05-18 10:23;CYYC 181023Z 03013KT 15SM -RA BKN014 OVC035 03/ RMK SC5SC3

CYYC;2009-05-18 10:51;CYYC 181051Z 04011KT 8SM -RA SCT014 OVC046 02/ RMK SC4SC4

CYYC;2009-05-18 11:00;CYYC 181100Z 04011KT 5SM -RA FEW007 SCT016 OVC040 02/00 A3015 RMK ST2SC2SC4 SLP218

CYYC;2009-05-18 11:11;CYYC 181111Z 04012KT 5SM -RA SCT007 BKN014 OVC035 02/ RMK ST3SC3SC2

CYYC;2009-05-18 11:32;CYYC 181132Z 04013KT 4SM -RA BKN007 OVC012 02/ RMK ST5SC3

CYYC;2009-05-18 11:43;CYYC 181143Z 04012KT 2 1/2SM -RA BKN005 OVC012 02/ RMK SC6SC2

CYYC;2009-05-18 12:00;CYYC 181200Z 05012KT 2 1/2SM -RA BR BKN005 OVC012 01/M00 A3014 RMK SC6SC2 SLP219

CYYC;2009-05-18 12:21;CYYC 181221Z 05014KT 1 1/2SM -RA BR OVC004 01/ RMK SC8

CYYC;2009-05-18 12:30;CYYC 181230Z 05012KT 1 1/2SM -RASN BR BKN003 OVC010 00/ RMK SC6SC2

CYYC;2009-05-18 13:00;CYYC 181300Z 08010KT 1 1/2SM -RASN BR BKN005 OVC010 M00/M01 A3014 RMK SC6SC2 SLP218

CYYC;2009-05-18 13:16;CYYC 181316Z 09009KT 1 1/2SM -RASN BR BKN004 OVC007 M00/ RMK SC6SC2 VIS SE-SW 1

CYYC;2009-05-18 13:22;CYYC 181322Z CCA 07007KT 1SM -SN BR BKN004 OVC007 M00/ RMK SC4SC4 RVR RWY 34 6000+ FT / VIS NE 11/2

CYYC;2009-05-18 13:37;CYYC 181337Z 07011KT 1 3/4SM -SN BR OVC008 M00/ RMK SC8

CYYC;2009-05-18 13:54;CYYC 181354Z 07008KT 1 1/4SM -SN BR OVC005 M01/ RMK SC8

CYYC;2009-05-18 13:56;CYYC 181356Z 07008KT 1 1/4SM -SN BR OVC004 M00/ RMK SC8

CYYC;2009-05-18 14:00;CYYC 181400Z 09009KT 1 1/4SM -SN BR BKN004 OVC006 M00/M02 A3015 RMK SC7SC1 SLP222

CYYC;2009-05-18 14:48;CYYC 181448Z 07007KT 1 1/4SM -SN BR OVC007 M00/ RMK SC8 CIG VRB 5-9

CYYC;2009-05-18 15:00;CYYC 181500Z 06008KT 1 1/4SM -SN BR OVC006 M00/M01 A3015 RMK SC8 SLP241

CYYC;2009-05-18 15:26;CYYC 181526Z CCA 08008KT 1 1/4SM -RASN BR BKN007 OVC013 M00/ RMK SC7SC1

CYYC;2009-05-18 16:00;CYYC 181600Z 08009KT 1 1/4SM -RASN BR OVC006 00/M01 A3014 RMK SC8 VIS W 13/4 SLP238

CYYC;2009-05-18 16:54;CYYC 181654Z 08008KT 1 3/4SM -RASN BR OVC006 00/ RMK SC8

CYYC;2009-05-18 17:00;CYYC 181700Z 07007KT 1 3/4SM -RASN BR BKN006 OVC011 00/M01 A3013 RMK SC7SC1 PCPN VRY LGT SLP236

CYYC;2009-05-18 18:00;CYYC 181800Z 07008KT 1 3/4SM -RASN BR OVC008 01/M00 A3013 RMK SC8 SLP237

CYYC;2009-05-18 19:00;CYYC 181900Z 09008KT 1 3/4SM -RASN BR BKN009 OVC012 01/M01 A3011 RMK SC6SC2 PCPN VRY LGT SLP231

CYYC;2009-05-18 19:18;CYYC 181918Z 11010KT 3SM -RA BR BKN007 OVC012 01/ RMK SC6SC2

CYYC;2009-05-18 20:00;CYYC 182000Z 10011KT 4SM -RA BR BKN006 OVC012 02/00 A3010 RMK SC6SC2 SLP228

CYYC;2009-05-18 21:00;CYYC 182100Z 10014KT 8SM -RA BKN009 OVC012 01/M00 A3009 RMK SC6SC2 SLP231

CYYC;2009-05-18 22:00;CYYC 182200Z 10013KT 12SM -RA BKN009 OVC014 02/M01 A3008 RMK SC5SC3 RA VRY LGT SLP227

CYYC;2009-05-18 22:33;CYYC 182233Z 11011KT 12SM OVC013 02/ RMK SC8

CYYC;2009-05-18 23:00;CYYC 182300Z 10011KT 12SM OVC014 03/M01 A3006 RMK SC8 SLP220

CYYC;2009-05-18 23:36;CYYC 182336Z 10013KT 12SM OVC018 03/ RMK SC8

CYYC;2009-05-19 00:00;CYYC 190000Z 10012KT 12SM OVC016 02/M01 A3005 RMK SC8 SLP219

CYYC;2009-05-19 01:00;CYYC 190100Z 10010G15KT 12SM OVC017 02/M01 A3005 RMK SC8 SLP217

CYYC;2009-05-19 02:00;CYYC 190200Z 10010KT 8SM OVC017 02/M02 A3004 RMK SC8 SLP215

CYYC;2009-05-19 02:25;CYYC 190225Z 11012KT 8SM -SN OVC017 02/ RMK SC8

CYYC;2009-05-19 03:00;CYYC 190300Z 09011KT 4SM -DZSN BKN014 OVC020 01/M02 A3003 RMK ST4SC4 SLP214

CYYC;2009-05-19 03:09;CYYC 190309Z 09012KT 2 1/2SM -DZSN BKN012 OVC018 00/ RMK ST6SC2

CYYC;2009-05-19 03:21;CYYC 190321Z 09011KT 1 1/2SM -DZ BKN012 OVC019 00/ RMK ST6SC2

CYYC;2009-05-19 04:00;CYYC 190400Z 09010KT 1 1/2SM -DZ BKN012 OVC018 00/M01 A3001 RMK ST6SC2 SLP208

CYYC;2009-05-19 04:23;CYYC 190423Z 10009KT 1 1/2SM -DZ BKN007 OVC015 M00/ RMK ST6SC2

CYYC;2009-05-19 05:00;CYYC 190500Z 10008KT 1SM -DZ BKN007 OVC014 M00/M01 A2998 RMK ST6SC2 RVR RWY 16 6000+ FT SLP200

CYYC;2009-05-19 06:00;CYYC 190600Z 12009KT 1SM -DZ BKN007 OVC010 M00/M01 A2995 RMK ST7SC1 RVR RWY 16 6000+ FT SLP189

CYYC;2009-05-19 06:20;CYYC 190620Z 12012KT 1 1/2SM -DZ BKN005 OVC010 00/ RMK ST4SC4

CYYC;2009-05-19 07:00;CYYC 190700Z 13012KT 1 1/2SM -DZ BKN005 OVC010 00/M01 A2991 RMK ST6SC2 SLP175

CYYC;2009-05-19 08:00;CYYC 190800Z 14012KT 1 1/2SM -DZ BKN005 OVC010 00/M01 A2988 RMK ST6SC2 SLP167

CYYC;2009-05-19 09:00;CYYC 190900Z 14012KT 1 1/2SM -DZ OVC007 00/M01 A2988 RMK ST8 SLP162

CYYC;2009-05-19 09:33;CYYC 190933Z 13009KT 1 1/2SM -DZ OVC004 M00/ RMK ST8

CYYC;2009-05-19 10:00;CYYC 191000Z 13010G15KT 1 1/2SM -DZ OVC004 M00/M01 A2978 RMK ST8 PRESFR SLP131

CYYC;2009-05-19 11:00;CYYC 191100Z 13015KT 1 1/2SM -DZ OVC004 M00/M01 A2972 RMK ST8 SLP114

CYYC;2009-05-19 12:00;CYYC 191200Z 14014KT 1 1/2SM -DZ OVC004 M00/M01 A2966 RMK ST8 SLP085

CYYC;2009-05-19 12:21;CYYC 191221Z 14011KT 1 1/2SM -DZ OVC005 M00/ RMK ST8

CYYC;2009-05-19 12:53;CYYC 191253Z 14011KT 1 1/2SM -FZDZ OVC004 M00/ RMK ST8

CYYC;2009-05-19 13:00;CYYC 191300Z 15011KT 1 1/2SM -FZDZ OVC005 M00/M01 A2963 RMK ST8 PCPN VRY LGT SLP076

CYYC;2009-05-19 13:11;CYYC 191311Z 14012KT 3SM -FZDZ BR OVC006 M00/ RMK ST8 PCPN VRY LGT

CYYC;2009-05-19 14:00;CYYC 191400Z 16014KT 8SM -DZ BKN007 OVC011 01/M00 A2958 RMK ST5SC3 SLP060

CYYC;2009-05-19 14:20;CYYC 191420Z 16015G21KT 8SM OVC008 01/ RMK SC8

CYYC;2009-05-19 15:00;CYYC 191500Z CCA 16014G19KT 6SM BR OVC008 02/01 A2952 RMK SC8 PRESFR SLP033

CYYC;2009-05-19 16:00;CYYC 191600Z 17019KT 8SM BKN008 06/04 A2946 RMK SC7 SLP017

CYYC;2009-05-19 16:19;CYYC 191619Z CCA 30011G18KT 10SM BKN009 05/ RMK SC7 WSHFT 1605Z / PRESRR

CYYC;2009-05-19 17:00;CYYC 191700Z 34016G21KT 7SM OVC009 03/01 A2956 RMK SC8 SLP046

CYYC;2009-05-19 17:37;CYYC 191737Z 36012G19KT 10SM SCT008 SCT012 BKN035 02/ RMK SC3SC1SC2

CYYC;2009-05-19 18:00;CYYC 191800Z 01009KT 20SM FEW006 SCT012 BKN050 04/02 A2955 RMK SC2SC2SC2 SLP041

CYYC;2009-05-19 19:00;CYYC 191900Z 36008KT 20SM FEW010 FEW030 SCT050 BKN170 08/04 A2953 RMK SC1SC2SC2AC2 CLDS MOVG NE SLP036

CYYC;2009-05-19 20:00;CYYC 192000Z 36015KT 20SM FEW024 BKN055 BKN140 11/05 A2955 RMK CU2SC2AC2 SLP043

CYYC;2009-05-19 21:00;CYYC 192100Z 32011G16KT 20SM FEW028 BKN063 BKN140 10/03 A2956 RMK CU1SC6AC1 DIST SH SW SLP039

CYYC;2009-05-19 21:31;CYYC 192131Z 01007KT 20SM -SHRA FEW028 BKN063 BKN140 09/ RMK CU1SC7AC1

CYYC;2009-05-19 22:00;CYYC 192200Z CCA 01005KT 40SM -SHRA FEW028 BKN054 BKN100 09/04 A2957 RMK CU1SC6AC2 CB EMBD S SLP041

CYYC;2009-05-19 22:22;CYYC 192222Z 03012KT 40SM FEW028 BKN055 BKN120 10/ RMK CU1SC4AS2 SH SSE / CB EMBD SSE

CYYC;2009-05-19 23:00;CYYC 192300Z 01014G19KT 40SM VCSH BKN014 BKN055 BKN120 06/03 A2961 RMK SC5SC1AC2 SH S-NE SLP053

CYYC;2009-05-19 23:11;CYYC 192311Z 01016KT 40SM VCSH SCT016 SCT050 SCT120 06/ RMK SC3SC1AC1 SH SW-NW / TCU ASOCTD

CYYC;2009-05-20 00:00;CYYC 200000Z 36016KT 40SM BKN019 BKN050 BKN120 06/01 A2964 RMK SC6SC1AC1 SH NW / TCU ASOCTD SLP072

CYYC;2009-05-20 01:00;CYYC 200100Z 36017KT 40SM BKN020 BKN140 05/00 A2967 RMK CU6AC1 SH NW SLP081

CYYC;2009-05-20 02:00;CYYC 200200Z 36015G22KT 30SM BKN015 BKN096 04/M00 A2970 RMK SC5AC2 SLP090

CYYC;2009-05-20 03:00;CYYC 200300Z 36011KT 20SM FEW018 SCT096 03/M01 A2972 RMK SC2AC2 SLP101

CYYC;2009-05-20 04:00;CYYC 200400Z 33008KT 15SM OVC018 03/M01 A2977 RMK SC7 SLP116

CYYC;2009-05-20 05:00;CYYC 200500Z 01009KT 15SM OVC016 03/M01 A2978 RMK SC8 SLP120

CYYC;2009-05-20 05:21;CYYC 200521Z 02010G15KT 15SM OVC016 02/ RMK SC8

CYYC;2009-05-20 05:41;CYYC 200541Z 01010KT 15SM OVC012 02/ RMK SC8

CYYC;2009-05-20 06:00;CYYC 200600Z CCA 36010KT 13SM OVC013 02/M01 A2980 RMK SC8 CIG VRB 12-14 SLP126

CYYC;2009-05-20 06:36;CYYC 200636Z 36009KT 12SM FEW012 OVC023 02/ RMK SF1SC8

CYYC;2009-05-20 07:00;CYYC 200700Z 01008KT 15SM FEW014 OVC027 01/M01 A2980 RMK SF1SC7 SLP128

CYYC;2009-05-20 08:00;CYYC 200800Z 01007KT 15SM OVC032 01/M02 A2982 RMK SC8 SLP132

CYYC;2009-05-20 09:00;CYYC 200900Z 36012KT 15SM OVC037 01/M02 A2982 RMK SC8 SLP128

CYYC;2009-05-20 10:00;CYYC 201000Z 36003KT 15SM FEW020 OVC038 01/M02 A2984 RMK SF1SC7 SLP134

CYYC;2009-05-20 11:00;CYYC 201100Z 34005KT 15SM FEW018 OVC038 01/M03 A2986 RMK SC1SC7 SLP140

CYYC;2009-05-20 12:00;CYYC 201200Z 24003KT 20SM FEW018 OVC038 01/M03 A2987 RMK SC1SC8 SLP152

CYYC;2009-05-20 13:00;CYYC 201300Z 35004KT 20SM FEW015 OVC035 01/M03 A2989 RMK SC1SC8 SLP158

CYYC;2009-05-20 14:00;CYYC 201400Z 35003KT 20SM FEW015 OVC034 01/M02 A2992 RMK SC2SC6 SLP166

CYYC;2009-05-20 15:00;CYYC 201500Z 35004KT 15SM BKN018 OVC030 02/M02 A2994 RMK SC4SC4 SLP178

CYYC;2009-05-20 15:48;CYYC 201548Z 33004KT 15SM -RASN SCT018 OVC036 02/ RMK SC4SC4

CYYC;2009-05-20 16:00;CYYC 201600Z 36005KT 20SM -RASN SCT017 OVC032 02/02 A2995 RMK SC3SC5 SLP181

CYYC;2009-05-20 16:34;CYYC 201634Z 02005KT 20SM SCT019 OVC037 03/ RMK SC3SC5 VIRGA S

CYYC;2009-05-20 17:00;CYYC 201700Z 01006KT 20SM SCT020 OVC035 03/M03 A2997 RMK SC3SC5 VIRGA S SLP186

CYYC;2009-05-20 18:00;CYYC 201800Z 36007KT 15SM SCT025 OVC042 04/M02 A2998 RMK SC3SC5 SH S SLP192

CYYC;2009-05-20 19:00;CYYC 201900Z 36006KT 20SM VCSH SCT028 OVC042 04/M02 A3000 RMK SC4SC4 SH S SLP196

CYYC;2009-05-20 20:00;CYYC 202000Z 36009KT 15SM -RA BKN026 OVC042 04/M02 A3001 RMK SC5SC3 SLP200

CYYC;2009-05-20 21:00;CYYC 202100Z 33007KT 20SM SCT025 BKN036 05/M01 A3002 RMK CU3SC3 SH ALQDS SLP204

CYYC;2009-05-20 22:00;CYYC 202200Z 36006KT 20SM VCSH SCT025 BKN038 05/M01 A3004 RMK CU4SC3 SH E-NW / TCU ASOCTD SLP208

CYYC;2009-05-20 22:20;CYYC 202220Z 00000KT 20SM -SHRA SCT025 BKN042 05/ RMK CU4SC3 TCU ASOCTD

CYYC;2009-05-20 23:00;CYYC 202300Z 25006KT 20SM -SHRA FEW012 SCT025 BKN040 05/M02 A3004 RMK SC1CU4SC3 TCU EMBD SLP210

CYYC;2009-05-20 23:48;CYYC 202348Z 27004KT 20SM SCT028 BKN046 06/ RMK CU3SC3 SH SE-W / TCU ASOCTD

CYYC;2009-05-21 00:00;CYYC 210000Z 25005KT 20SM FEW028 BKN047 06/M01 A3005 RMK CU2SC2 SH SE-SW / TCU ASOCTD SLP212

CYYC;2009-05-21 01:00;CYYC 210100Z 30005KT 15SM VCSH FEW030 OVC041 06/M02 A3006 RMK CU2SC6 SH S-W SLP215

CYYC;2009-05-21 02:00;CYYC 210200Z 18008KT 15SM VCSH SCT032 BKN053 05/00 A3006 RMK SC4SC3 SH NNW SLP216

CYYC;2009-05-21 03:00;CYYC 210300Z 23007KT 20SM FEW032 BKN056 OVC077 04/00 A3007 RMK SC2SC4AC2 SLP223

CYYC;2009-05-21 03:25;CYYC 210325Z 36007KT 20SM -SHRA BKN021 OVC033 04/ RMK SC6SC2 TCU EMBD

CYYC;2009-05-21 04:00;CYYC 210400Z 23006KT 15SM -SHRA SCT016 OVC033 03/M00 A3009 RMK SC4SC4 TCU EMBD SLP229

CYYC;2009-05-21 04:47;CYYC 210447Z 21002KT 15SM FEW030 FEW050 BKN081 03/ RMK SC2SC1AC2

CYYC;2009-05-21 05:00;CYYC 210500Z 00000KT 15SM FEW040 BKN080 03/00 A3010 RMK SC2AC3 SLP231

CYYC;2009-05-21 06:00;CYYC 210600Z 23004KT 15SM FEW080 OVC110 02/00 A3009 RMK AC2AC6 SLP229

CYYC;2009-05-21 07:00;CYYC 210700Z 26003KT 15SM OVC099 02/01 A3010 RMK AC8 SLP232

CYYC;2009-05-21 08:00;CYYC 210800Z 24005KT 15SM OVC080 02/00 A3009 RMK AC8 SLP229

CYYC;2009-05-21 09:00;CYYC 210900Z 24004KT 15SM FEW080 BKN120 02/00 A3008 RMK AC2AC1 SLP224

CYYC;2009-05-21 10:00;CYYC 211000Z 22005KT 15SM FEW087 BKN120 01/M01 A3008 RMK AC2AC1 SLP224

CYYC;2009-05-21 11:00;CYYC 211100Z 23005KT 15SM BCFG FEW050 SCT087 M00/M01 A3008 RMK CU1AC2 FG BNK S VIS 6 SLP223

CYYC;2009-05-21 12:00;CYYC 211200Z 21004KT 20SM FEW087 M01/M02 A3008 RMK AC2 SLP228

CYYC;2009-05-21 13:00;CYYC 211300Z 22006KT 20SM BCFG FEW050 FEW090 00/M01 A3010 RMK SC1AC1 FG BNK S VIS 6 SLP232

CYYC;2009-05-21 14:00;CYYC 211400Z 23002KT 40SM FEW016 FEW090 04/M00 A3010 RMK CU1AC1 CU+AC TR SLP233

CYYC;2009-05-21 15:00;CYYC 211500Z 24008KT 40SM FEW028 FEW090 FEW210 07/M00 A3011 RMK CU1AC1CI1 ALL CLDS TR SLP227

CYYC;2009-05-21 16:00;CYYC 211600Z 28010G15KT 40SM FEW044 FEW100 FEW240 09/M03 A3011 RMK CU1AC1CI1 SLP228

CYYC;2009-05-21 17:00;CYYC 211700Z 33004KT 40SM FEW070 FEW100 FEW220 09/M07 A3011 RMK CU2AC1CI1 AC+CI TR SLP228

CYYC;2009-05-21 18:00;CYYC 211800Z 31006KT 40SM FEW070 FEW100 12/M05 A3011 RMK CU2AC1 AC TR/DIST SH NW SLP223

CYYC;2009-05-21 19:00;CYYC 211900Z CCA 35008G18KT 40SM FEW068 FEW210 11/M06 A3010 RMK CU2CI1 CI TR/DIST SH E+NW SLP221

CYYC;2009-05-21 20:00;CYYC 212000Z 35006KT 40SM FEW072 FEW100 FEW210 11/M07 A3009 RMK CU2AC1CI1 AC+CI TR SLP217

CYYC;2009-05-21 21:00;CYYC 212100Z 24008KT 40SM SCT080 BKN100 13/M05 A3008 RMK CU3AC1 SLP212

CYYC;2009-05-21 22:00;CYYC 212200Z 28004KT 40SM SCT080 SCT100 BKN180 13/M07 A3008 RMK CU3AC1AC0 VIRGA ALQDS SLP212

CYYC;2009-05-21 23:00;CYYC 212300Z 31002KT 40SM BKN080 BKN100 13/M06 A3009 RMK CU5AC1 VIRGA ALQDS SLP215

CYYC;2009-05-22 00:00;CYYC 220000Z 02013KT 40SM FEW056 BKN085 12/M02 A3010 RMK CU2AC2 VIRGA ALQDS SLP225

CYYC;2009-05-22 01:00;CYYC 220100Z 02013KT 40SM FEW052 SCT090 12/M01 A3012 RMK CU1AC2 VIRGA ALQDS SLP230

CYYC;2009-05-22 02:00;CYYC 220200Z 03018KT 40SM FEW050 SCT080 BKN120 10/M01 A3015 RMK CU1AC2AC2 VIRGA S-W SLP239

CYYC;2009-05-22 03:00;CYYC 220300Z 35014G19KT 30SM FEW050 SCT080 BKN120 07/M00 A3017 RMK CU1AC2AC1 VIRGA S-W SLP246

CYYC;2009-05-22 04:00;CYYC 220400Z 36009KT 15SM VCSH SCT051 BKN070 OVC110 07/M01 A3019 RMK SC3AC1AC2 SH W-NW SLP252

CYYC;2009-05-22 05:00;CYYC 220500Z 34009KT 15SM FEW055 BKN074 06/M00 A3021 RMK SC1AC4 SLP258

CYYC;2009-05-22 06:00;CYYC 220600Z 32005KT 15SM FEW056 BKN071 05/00 A3023 RMK SC2AC3 SLP262

CYYC;2009-05-22 07:00;CYYC 220700Z 36007KT 15SM FEW060 SCT080 04/M00 A3024 RMK SC1AC2 SLP265

CYYC;2009-05-22 08:00;CYYC 220800Z 36003KT 15SM FEW080 03/M04 A3025 RMK AC1 SLP267

CYYC;2009-05-22 09:00;CYYC 220900Z CCA 00000KT 15SM SKC 01/M04 A3026 RMK SLP278

CYYC;2009-05-22 10:00;CYYC 221000Z 15002KT 15SM FEW060 00/M05 A3027 RMK SC1 SC TR SLP279

CYYC;2009-05-22 11:00;CYYC 221100Z 00000KT 15SM FEW050 FEW095 01/M06 A3027 RMK SC1AC1 CLDS TR SLP279

CYYC;2009-05-22 12:00;CYYC 221200Z 17002KT 20SM FEW160 M00/M06 A3028 RMK AC1 SLP288

CYYC;2009-05-22 13:00;CYYC 221300Z 13003KT 40SM FEW120 01/M04 A3028 RMK AC1 AC TR SLP288

CYYC;2009-05-22 14:00;CYYC 221400Z 17008KT 40SM FEW060 FEW240 03/M05 A3029 RMK CF1CI1 SLP289

CYYC;2009-05-22 15:00;CYYC 221500Z 16006KT 40SM FEW060 05/M04 A3028 RMK CF1 SLP288

CYYC;2009-05-22 16:00;CYYC 221600Z 14009KT 40SM FEW060 07/M02 A3028 RMK SC1 SLP287

CYYC;2009-05-22 17:00;CYYC 221700Z 16008KT 40SM FEW060 FEW170 09/M01 A3027 RMK CU1AC1 SLP284

CYYC;2009-05-22 18:00;CYYC 221800Z 14008KT 40SM FEW052 FEW170 FEW210 11/M02 A3026 RMK CU1AC1CI1 SLP272

CYYC;2009-05-22 19:00;CYYC 221900Z 16008KT 40SM FEW050 12/M01 A3024 RMK CU1 SLP266

CYYC;2009-05-22 20:00;CYYC 222000Z 20007G15KT 40SM FEW055 FEW180 13/M02 A3023 RMK CU1AC1 SLP262

CYYC;2009-05-22 21:00;CYYC 222100Z 18005G15KT 40SM FEW060 FEW180 14/M01 A3021 RMK CU1AC1 SLP255

CYYC;2009-05-22 22:00;CYYC 222200Z 18008KT 40SM FEW062 14/M02 A3020 RMK CU1 SLP252

CYYC;2009-05-22 23:00;CYYC 222300Z 13008G15KT 40SM FEW062 15/M01 A3018 RMK CU1 SLP247

CYYC;2009-05-23 00:00;CYYC 230000Z 16011G19KT 40SM FEW062 15/M01 A3016 RMK CU1 SLP240

CYYC;2009-05-23 01:00;CYYC 230100Z 18012KT 40SM FEW062 FEW140 FEW250 15/M01 A3014 RMK CU1AC1CI1 SLP234

CYYC;2009-05-23 02:00;CYYC 230200Z 16012KT 40SM FEW250 14/M02 A3013 RMK CI0 SLP232

CYYC;2009-05-23 03:00;CYYC 230300Z 15010G16KT 40SM FEW085 FEW250 13/M02 A3012 RMK AC1CI0 AC TR SLP222

CYYC;2009-05-23 04:00;CYYC 230400Z 15012KT 20SM FEW250 11/M02 A3012 RMK CI0 SLP222

CYYC;2009-05-23 05:00;CYYC 230500Z 16012KT 15SM FEW250 10/M03 A3012 RMK CI0 SLP223

CYYC;2009-05-23 06:00;CYYC 230600Z 16008KT 15SM FEW250 08/M03 A3012 RMK CI0 SLP221

CYYC;2009-05-23 07:00;CYYC 230700Z 17009KT 15SM FEW250 07/M02 A3012 RMK CI0 SLP222

CYYC;2009-05-23 08:00;CYYC 230800Z 17007KT 15SM FEW250 06/M02 A3011 RMK CI0 SLP218

CYYC;2009-05-23 09:00;CYYC 230900Z 16007KT 15SM SKC 03/M03 A3010 RMK SLP215

CYYC;2009-05-23 10:00;CYYC 231000Z 16007KT 15SM SKC 02/M03 A3008 RMK SLP211

CYYC;2009-05-23 11:00;CYYC 231100Z 16007KT 20SM SKC 02/M03 A3007 RMK SLP207

CYYC;2009-05-23 12:00;CYYC 231200Z 19005KT 40SM FEW140 03/M03 A3007 RMK AC1 AC TR SLP204

CYYC;2009-05-23 13:00;CYYC 231300Z 00000KT 40SM FEW100 06/M01 A3007 RMK AC1 AC TR SLP205

CYYC;2009-05-23 14:00;CYYC 231400Z 00000KT 40SM FEW100 07/M01 A3007 RMK AC1 AC TR SLP205

CYYC;2009-05-23 15:00;CYYC 231500Z 01002KT 40SM FEW040 FEW100 FEW250 10/M00 A3007 RMK CU1AC1CI1 SLP198

CYYC;2009-05-23 16:00;CYYC 231600Z 21005KT 40SM FEW056 13/01 A3006 RMK CU1 CU TR SLP195

CYYC;2009-05-23 17:00;CYYC 231700Z 15005KT 40SM FEW060 16/00 A3006 RMK CU1 CU TR SLP193

CYYC;2009-05-23 18:00;CYYC 231800Z 20007KT 40SM FEW068 17/M00 A3005 RMK CU1 SLP187

CYYC;2009-05-23 19:00;CYYC 231900Z 21008KT 40SM FEW080 19/01 A3004 RMK CU1 SLP184

CYYC;2009-05-23 20:00;CYYC 232000Z 17005KT 40SM FEW080 FEW130 FEW190 SCT240 19/M01 A3003 RMK CU2AC1AC0CI0 SLP180

CYYC;2009-05-23 21:00;CYYC 232100Z 18003KT 40SM FEW080 SCT095 BKN140 19/M01 A3001 RMK CU1AC2AC0 SLP179

CYYC;2009-05-23 22:00;CYYC 232200Z 18006KT 40SM FEW084 SCT095 SCT130 20/M01 A3000 RMK CU1AC2AC0 SLP175

CYYC;2009-05-23 23:00;CYYC 232300Z 21008KT 40SM FEW084 SCT095 20/M01 A2999 RMK CU1AC2 SLP171

CYYC;2009-05-24 00:00;CYYC 240000Z 24004KT 40SM FEW090 BKN110 BKN130 19/M02 A2998 RMK CU1AC2AC1 UPR AC TR SLP167

CYYC;2009-05-24 01:00;CYYC 240100Z 17011KT 40SM FEW084 SCT110 20/M01 A2996 RMK CU1AC2 SLP161

CYYC;2009-05-24 02:00;CYYC 240200Z 13009KT 40SM FEW060 FEW110 18/M00 A2996 RMK SC1AC2 SLP160

CYYC;2009-05-24 03:00;CYYC 240300Z 13008KT 40SM FEW060 FEW100 16/00 A2996 RMK SC1AC1 VIRGA DIST SW TR AC SLP154

CYYC;2009-05-24 04:00;CYYC 240400Z 13008KT 15SM FEW060 FEW100 14/M00 A2996 RMK SC1AC1 VIRGA DIST S TR AC SLP156

CYYC;2009-05-24 05:00;CYYC 240500Z 14008KT 15SM FEW060 FEW100 13/M00 A2998 RMK SC1AC1 TR AC SLP160

CYYC;2009-05-24 06:00;CYYC 240600Z 16007KT 15SM FEW100 12/M01 A2998 RMK AC1 SLP157

CYYC;2009-05-24 07:00;CYYC 240700Z 18006KT 15SM FEW120 10/M00 A2998 RMK AC2 SLP157

CYYC;2009-05-24 08:00;CYYC 240800Z 00000KT 15SM FEW120 11/00 A2997 RMK AC2 SLP154

CYYC;2009-05-24 09:00;CYYC 240900Z 04004KT 15SM FEW120 08/M00 A2997 RMK AC2 SLP156

CYYC;2009-05-24 10:00;CYYC 241000Z 22003KT 15SM FEW110 07/00 A2997 RMK AC2 SLP155

CYYC;2009-05-24 11:00;CYYC 241100Z 25007KT 15SM FEW110 SCT250 07/00 A2997 RMK AC2CI1 SLP156

CYYC;2009-05-24 12:00;CYYC 241200Z 29002KT 40SM FEW110 SCT250 06/00 A2997 RMK AC2CI1 SLP160

CYYC;2009-05-24 13:00;CYYC 241300Z 36002KT 40SM FEW120 BKN230 08/00 A2997 RMK AC2CI1 SLP160

CYYC;2009-05-24 14:00;CYYC 241400Z 21003KT 40SM FEW032 SCT120 BKN220 10/03 A2997 RMK CF1AC3CI2 SLP161

CYYC;2009-05-24 15:00;CYYC 241500Z 32013KT 40SM FEW052 SCT120 BKN150 BKN240 13/00 A2999 RMK CU1AC3AC2CI0 SLP159

CYYC;2009-05-24 16:00;CYYC 241600Z 36013KT 40SM FEW060 SCT150 OVC230 15/M00 A2999 RMK CU2AC2CI1 VIRGA SE/CF ASOCTD SLP159

CYYC;2009-05-24 17:00;CYYC 241700Z 01012KT 40SM FEW064 SCT110 BKN150 BKN210 16/00 A2999 RMK CU1AC2AC1CI1 SLP159

CYYC;2009-05-24 18:00;CYYC 241800Z 02011KT 40SM FEW072 FEW110 FEW180 SCT210 19/00 A2998 RMK CU1AC2AC1CI0 SH E SLP153

CYYC;2009-05-24 19:00;CYYC 241900Z 01009G15KT 40SM FEW078 FEW100 FEW190 19/M01 A2997 RMK CU1AC1AC1 SH E SLP150

CYYC;2009-05-24 20:00;CYYC 242000Z 03010G15KT 40SM FEW074 FEW092 FEW190 20/M01 A2996 RMK CU1AC1AC1 SH E SLP147

CYYC;2009-05-24 21:00;CYYC 242100Z 35006KT 40SM FEW092 FEW180 FEW250 20/M02 A2995 RMK CU2AC1CI1 HZ ALQDS SLP147

CYYC;2009-05-24 22:00;CYYC 242200Z 34008KT 40SM FEW090 21/M02 A2993 RMK CU2 HZ/DIST SH SW-NW+E SLP142

CYYC;2009-05-24 23:00;CYYC 242300Z 03008KT 40SM SCT094 SCT120 22/M01 A2993 RMK CU4AC1 HZ/SH E-SW SLP142

CYYC;2009-05-25 00:00;CYYC 250000Z 04010KT 40SM SCT094 SCT170 21/M02 A2993 RMK CU3AC1 HZ/SH SW-W SLP145

CYYC;2009-05-25 01:00;CYYC 250100Z 01011G16KT 40SM BKN100 20/M03 A2994 RMK CU6 DIST SH S-NW SLP146

CYYC;2009-05-25 02:00;CYYC 250200Z 03008KT 40SM FEW060 FEW100 BKN130 19/M02 A2995 RMK CU1AC2AC2 VIRGA SE-S SH DIST SW-W SLP150

CYYC;2009-05-25 03:00;CYYC 250300Z 02007KT 40SM FEW060 FEW100 SCT120 18/M02 A2996 RMK CF1AC2AC2 VIRGA S-W SLP149

CYYC;2009-05-25 04:00;CYYC 250400Z 02009KT 15SM FEW060 FEW095 BKN120 15/M01 A2999 RMK CF1AC2AC2 VIRGA DIST W-NW SLP158

CYYC;2009-05-25 05:00;CYYC 250500Z 36008KT 15SM FEW095 BKN120 12/M01 A3001 RMK AC2AC3 SLP163

CYYC;2009-05-25 06:00;CYYC 250600Z 35007KT 15SM BKN100 BKN140 13/M00 A3003 RMK AC5AC2 SLP170

CYYC;2009-05-25 07:00;CYYC 250700Z 34008KT 15SM SCT100 BKN140 12/00 A3004 RMK AC3AC3 SLP175

CYYC;2009-05-25 08:00;CYYC 250800Z 34007KT 15SM BKN094 BKN140 12/00 A3006 RMK AC6AC2 SLP180

CYYC;2009-05-25 09:00;CYYC 250900Z 33008KT 15SM SCT100 11/00 A3006 RMK AC4 SLP183

CYYC;2009-05-25 10:00;CYYC 251000Z 33009KT 15SM SCT110 10/M01 A3007 RMK AC3 SLP185

CYYC;2009-05-25 11:00;CYYC 251100Z 32009KT 15SM FEW098 BKN120 09/M01 A3007 RMK AC2AC4 SLP186

CYYC;2009-05-25 12:00;CYYC 251200Z 32008KT 40SM FEW090 BKN120 09/M01 A3008 RMK AC2AC4 VIRGA S-W DIST E-SE SLP191

CYYC;2009-05-25 13:00;CYYC 251300Z 34007KT 40SM FEW090 SCT110 BKN250 10/M00 A3010 RMK AC1AC3CI0 VIRGA SE SLP196

CYYC;2009-05-25 14:00;CYYC 251400Z 36010KT 40SM FEW070 BKN098 11/00 A3011 RMK AC1AC6 SLP201

CYYC;2009-05-25 15:00;CYYC 251500Z 36010KT 40SM FEW070 BKN091 12/02 A3012 RMK AC2AC3 SLP204

CYYC;2009-05-25 16:00;CYYC 251600Z 04006KT 40SM FEW055 BKN090 13/03 A3012 RMK SC2AC5 SLP205

CYYC;2009-05-25 17:00;CYYC 251700Z 09005KT 40SM FEW055 BKN088 14/03 A3011 RMK SC1AC5 SLP202

CYYC;2009-05-25 18:00;CYYC 251800Z 11006KT 40SM FEW056 FEW080 BKN280 16/02 A3010 RMK CU1AC1CI0 SLP201

CYYC;2009-05-25 19:00;CYYC 251900Z 13006KT 40SM FEW060 FEW089 BKN280 16/01 A3008 RMK CU1AC1CI0 SLP196

CYYC;2009-05-25 20:00;CYYC 252000Z 16010G15KT 40SM FEW060 FEW100 BKN280 18/01 A3006 RMK CU1AC1CI0 SLP189

CYYC;2009-05-25 21:00;CYYC 252100Z 10010KT 40SM FEW065 SCT080 BKN240 18/02 A3004 RMK CU1AC2CI1 SLP176

CYYC;2009-05-25 22:00;CYYC 252200Z 18007G16KT 40SM SCT070 SCT080 BKN140 BKN240 19/01 A3001 RMK CU3AC1AC2CI0 SH S+W / TCU EMBD SLP169

CYYC;2009-05-25 23:00;CYYC 252300Z 21014KT 40SM SCT070 BKN090 OVC120 17/03 A3001 RMK CU4AC2AC2 SH W-N / TCU ASOCTD SLP168

CYYC;2009-05-25 23:51;CYYC 252351Z 25008KT 40SM -SHRA BKN056TCU BKN100 16/ RMK TCU5AC2

CYYC;2009-05-26 00:00;CYYC 260000Z 26006KT 40SM -SHRA BKN056TCU BKN100 BKN260 17/04 A3001 RMK TCU5AC2CI1 CB NE SLP172

CYYC;2009-05-26 00:26;CYYC 260026Z CCA 19007KT 40SM FEW056CB FEW100 BKN260 18/ RMK CB1AC2CI1 SH SW+NW-SE

CYYC;2009-05-26 01:00;CYYC 260100Z 18007KT 40SM FEW060CB FEW100 FEW250 18/02 A2999 RMK CB1AC1CI0 SH W+E QUADS SLP166

CYYC;2009-05-26 02:00;CYYC 260200Z 09007KT 40SM FEW060CB SCT100 BKN220 17/02 A2999 RMK CB1AC3CI2 VIRGA SW-W-NW SLP165

CYYC;2009-05-26 02:56;CYYC 260256Z 27017G24KT 15SM -SHRA SCT049 BKN061CB OVC120 13/ RMK SC3CB2AC2

CYYC;2009-05-26 03:00;CYYC 260300Z 28019G25KT 15SM -SHRA FEW045 BKN056CB OVC120 12/05 A3002 RMK SC2CB3AC2 SLP178

CYYC;2009-05-26 03:40;CYYC 260340Z 05005KT 30SM FEW060CB BKN120 BKN230 13/ RMK CB2AC4CI1 SH DIST E

CYYC;2009-05-26 04:00;CYYC 260400Z 11009KT 20SM FEW060CB BKN140 BKN220 13/05 A2999 RMK CB2AC3CI0 SLP170

CYYC;2009-05-26 05:00;CYYC 260500Z 15006KT 15SM FEW240 12/05 A2999 RMK CI1 SLP168

CYYC;2009-05-26 06:00;CYYC 260600Z CCA 22006KT 15SM FEW250 11/06 A2998 RMK CI1 CI TR SLP160

CYYC;2009-05-26 07:00;CYYC 260700Z 21004KT 15SM SKC 10/05 A2997 RMK SLP157

CYYC;2009-05-26 08:00;CYYC 260800Z 16003KT 15SM SKC 08/05 A2995 RMK SLP153

CYYC;2009-05-26 09:00;CYYC 260900Z 17005KT 15SM SKC 08/05 A2994 RMK SLP146

CYYC;2009-05-26 10:00;CYYC 261000Z 20005KT 15SM FEW240 07/04 A2992 RMK CI1 CI TR SLP142

CYYC;2009-05-26 11:00;CYYC 261100Z 21006KT 20SM FEW240 07/04 A2991 RMK CI1 SLP138

CYYC;2009-05-26 12:00;CYYC 261200Z CCB 22008KT 40SM FEW240 06/04 A2990 RMK CI1 SLP140

CYYC;2009-05-26 13:00;CYYC 261300Z 21007KT 40SM FEW060 FEW130 BKN250 07/04 A2990 RMK CU1AC1CI2 CU TR SLP140

CYYC;2009-05-26 14:00;CYYC 261400Z 22006KT 40SM FEW020 SCT170 BKN260 11/06 A2989 RMK CU1AC2CI2 SLP136

CYYC;2009-05-26 15:00;CYYC 261500Z 23008KT 40SM FEW030 FEW140 BKN260 14/06 A2988 RMK CU1AC1CI3 SLP128

CYYC;2009-05-26 16:00;CYYC 261600Z 22006KT 40SM FEW030 FEW140 OVC240 18/07 A2987 RMK CU1AC2CI3 SLP125

CYYC;2009-05-26 17:00;CYYC 261700Z 21005KT 40SM FEW055 SCT150 OVC220 19/05 A2986 RMK CU1AC2CI3 SLP122

CYYC;2009-05-26 18:00;CYYC 261800Z 30002KT 40SM FEW065 SCT160 OVC220 19/02 A2985 RMK CU1AC3CI3 SLP111

CYYC;2009-05-26 19:00;CYYC 261900Z 27007KT 40SM FEW055 BKN120 OVC220 19/02 A2984 RMK CU1AS5CI3 SLP108

CYYC;2009-05-26 20:00;CYYC 262000Z 26007KT 40SM FEW065 BKN110 BKN220 19/03 A2983 RMK CU1AS7CI1 SLP104

CYYC;2009-05-26 21:00;CYYC 262100Z 09002KT 40SM FEW068 FEW095 BKN140 OVC240 18/01 A2981 RMK CU1AC2AC5CI0 SLP101

CYYC;2009-05-26 22:00;CYYC 262200Z 18008KT 40SM FEW068 SCT140 BKN190 OVC240 19/00 A2978 RMK CU1AS4AC3CI0 ACSL SLP093

CYYC;2009-05-26 23:00;CYYC 262300Z CCA 15011KT 40SM FEW068 BKN120 OVC190 20/02 A2976 RMK CU2AC2AC2 SH DIST SW SLP088

CYYC;2009-05-27 00:00;CYYC 270000Z 20008KT 40SM SCT070 BKN120 BKN190 21/03 A2975 RMK CU4AC2AC1 SH DIST N-E SLP081

CYYC;2009-05-27 00:10;CYYC 270010Z 28018G24KT 40SM BKN070 BKN120 BKN190 20/ RMK CU5AC2AC1 SH DIST N-E / WSHFT 2355Z

CYYC;2009-05-27 01:00;CYYC 270100Z 28026G31KT 40SM FEW070 BKN096 BKN190 19/02 A2976 RMK CU2AC2AC1 SH NE-SE+SW / CB NE SLP084

CYYC;2009-05-27 02:00;CYYC 270200Z 27019G25KT 40SM FEW060 FEW100 BKN240 17/01 A2978 RMK CU1AC2CI2 SLP090

CYYC;2009-05-27 03:00;CYYC 270300Z 28016G21KT 30SM FEW060 FEW090 SCT160 BKN250 16/00 A2979 RMK CU1AC1AC2CI1 SLP090

CYYC;2009-05-27 04:00;CYYC 270400Z 28010KT 15SM FEW050 FEW090 FEW140 BKN250 15/M01 A2979 RMK CU1AC1AC1CI2 SLP091

CYYC;2009-05-27 05:00;CYYC 270500Z 31009KT 15SM FEW050 FEW099 SCT250 13/M01 A2981 RMK CU1AC2CI1 CU TR SLP097

CYYC;2009-05-27 06:00;CYYC 270600Z 29013KT 15SM FEW090 14/M01 A2983 RMK AC1 AC TR SLP099

CYYC;2009-05-27 07:00;CYYC 270700Z 27017G22KT 15SM FEW090 14/M03 A2984 RMK AC1 AC TR SLP103

CYYC;2009-05-27 08:00;CYYC 270800Z 34011G17KT 15SM FEW090 12/M03 A2987 RMK AC1 SLP113

CYYC;2009-05-27 09:00;CYYC 270900Z 05003KT 15SM FEW250 08/02 A2989 RMK CI0 SLP129

CYYC;2009-05-27 10:00;CYYC 271000Z 34002KT 15SM FEW240 07/M01 A2991 RMK CI0 SLP135

CYYC;2009-05-27 11:00;CYYC 271100Z 00000KT 20SM FEW090 05/01 A2990 RMK AC1 AC TR SLP134

CYYC;2009-05-27 12:00;CYYC 271200Z 03003KT 40SM FEW090 FEW240 05/00 A2991 RMK AC1CI1 CI TR SLP139

CYYC;2009-05-27 13:00;CYYC 271300Z 00000KT 40SM FEW060 FEW090 FEW250 08/03 A2993 RMK CU1AC1CI1 CU+CI TR SLP143

CYYC;2009-05-27 14:00;CYYC 271400Z 17006KT 40SM FEW025 FEW110 BKN280 10/03 A2993 RMK CU1AC1CI0 SLP145

CYYC;2009-05-27 15:00;CYYC 271500Z 14007KT 40SM FEW040 FEW110 BKN280 12/02 A2994 RMK CU1AC1CI0 SLP144

CYYC;2009-05-27 16:00;CYYC 271600Z 14009KT 40SM FEW045 FEW120 SCT280 14/01 A2993 RMK CU1AC1CI0 SLP142

CYYC;2009-05-27 17:00;CYYC 271700Z 15011KT 40SM FEW055 FEW120 FEW260 15/01 A2991 RMK CU1AC1CC1 SLP136

CYYC;2009-05-27 18:00;CYYC 271800Z 16010G18KT 40SM FEW060 FEW260 17/01 A2989 RMK CU1CI0 SLP123

CYYC;2009-05-27 19:00;CYYC 271900Z 18006KT 40SM FEW068 FEW290 18/01 A2986 RMK CU1CI1 SLP115

CYYC;2009-05-27 20:00;CYYC 272000Z 28007KT 40SM FEW068 FEW100 FEW280 19/M02 A2983 RMK CU1AC1CI0 SLP106

CYYC;2009-05-27 21:00;CYYC 272100Z 29019G24KT 40SM FEW100 SCT290 20/M08 A2984 RMK CU1CI0 SLP109

CYYC;2009-05-27 22:00;CYYC 272200Z 29019G26KT 40SM FEW100 FEW190 FEW300 20/M07 A2984 RMK CU1AC1CI0 SLP110

CYYC;2009-05-27 23:00;CYYC 272300Z 28018G27KT 40SM FEW100 FEW180 FEW300 20/M08 A2984 RMK CU1AC1CI1 SLP111

CYYC;2009-05-28 00:00;CYYC 280000Z 29019G27KT 40SM FEW100 FEW180 FEW270 19/M07 A2985 RMK CU1AC1CI1 SLP119

CYYC;2009-05-28 01:00;CYYC 280100Z 29016G22KT 40SM FEW100 FEW180 19/M07 A2986 RMK CU1AC1 SLP123

CYYC;2009-05-28 02:00;CYYC 280200Z 28016G22KT 40SM FEW080 FEW160 18/M07 A2988 RMK CU1AC1 BOTH CLDS TR SLP128

CYYC;2009-05-28 03:00;CYYC 280300Z 29013KT 30SM FEW080 FEW140 16/M08 A2990 RMK CU1AC1 BOTH CLDS TR SLP132

CYYC;2009-05-28 04:00;CYYC 280400Z 30012G17KT 20SM FEW080 FEW140 15/M08 A2993 RMK CU1AC1 BOTH CLDS TR SLP141

CYYC;2009-05-28 05:00;CYYC 280500Z 34008KT 15SM FEW080 FEW140 12/M07 A2996 RMK CU1AC1 BOTH CLDS TR SLP149

CYYC;2009-05-28 06:00;CYYC 280600Z 35007KT 15SM FEW060 FEW140 10/M06 A2999 RMK CU1AC1 BOTH CLDS TR SLP163

CYYC;2009-05-28 07:00;CYYC 280700Z 04005KT 15SM FEW160 FEW240 08/M06 A3000 RMK AC1CI1 AC+CI TR SLP167

CYYC;2009-05-28 08:00;CYYC 280800Z 26002KT 15SM FEW220 07/M05 A3001 RMK CI0 SLP170

CYYC;2009-05-28 09:00;CYYC 280900Z 36003KT 15SM FEW150 SCT240 08/M04 A3002 RMK AC1CI1 AC TR SLP172

CYYC;2009-05-28 10:00;CYYC 281000Z 00000KT 15SM BKN220 07/M04 A3003 RMK CI3 SLP176

CYYC;2009-05-28 11:00;CYYC 281100Z 21006KT 20SM FEW160 BKN230 07/M03 A3004 RMK AC2CI3 SLP179

CYYC;2009-05-28 12:00;CYYC 281200Z CCA 01003KT 40SM FEW160 BKN210 08/M03 A3005 RMK AC2CI3 SLP183

CYYC;2009-05-28 13:00;CYYC 281300Z 25003KT 30SM FEW080 SCT160 OVC210 09/M02 A3006 RMK AC1AC2CI3 SLP186

CYYC;2009-05-28 14:00;CYYC 281400Z 00000KT 40SM FEW050 FEW080 BKN210 11/M01 A3006 RMK SC1AC1CI1 SLP187

CYYC;2009-05-28 15:00;CYYC 281500Z 17007KT 40SM FEW050 FEW080 FEW170 BKN250 13/M02 A3005 RMK SC1AC1AC1CI0 SLP179

CYYC;2009-05-28 16:00;CYYC 281600Z 17009KT 40SM FEW060 SCT180 OVC220 15/M02 A3004 RMK SC1AC4CI2 SLP176

CYYC;2009-05-28 17:00;CYYC 281700Z 16005KT 40SM FEW060 SCT190 BKN220 16/M01 A3002 RMK SC1AC2CI2 SLP171

CYYC;2009-05-28 18:00;CYYC 281800Z 18013KT 40SM FEW060 FEW110 FEW210 17/M01 A3001 RMK SC1AC1CI1 SLP170

CYYC;2009-05-28 19:00;CYYC 281900Z 18006KT 40SM FEW072 FEW140 SCT240 18/M01 A2999 RMK CU1AC1CI0 SLP163

CYYC;2009-05-28 20:00;CYYC 282000Z 18004KT 40SM FEW050 FEW076 FEW150 OVC210 19/M01 A2997 RMK SC1CU1AC1CI0 SLP158

CYYC;2009-05-28 21:00;CYYC 282100Z 16005KT 40SM FEW080 FEW170 OVC200 20/M01 A2996 RMK CU1AC1CI0 SLP153

CYYC;2009-05-28 22:00;CYYC 282200Z 25004KT 40SM FEW080 FEW190 SCT210 20/00 A2995 RMK CU1AC1CI1 SLP150

CYYC;2009-05-28 23:00;CYYC 282300Z 23010KT 40SM FEW082 FEW160 FEW190 OVC220 22/01 A2993 RMK CU1AC1AC1CI0 SLP145

CYYC;2009-05-29 00:00;CYYC 290000Z 26007KT 40SM FEW080 FEW150 SCT200 OVC240 22/M02 A2993 RMK CU1AC1CI1CI0 SLP139

CYYC;2009-05-29 01:00;CYYC 290100Z 27012KT 40SM FEW080 FEW170 BKN240 22/M03 A2993 RMK CU1AC1CI0 SLP139

CYYC;2009-05-29 02:00;CYYC 290200Z 29015KT 40SM FEW064 FEW150 BKN260 20/M04 A2994 RMK CU1AC1CI2 CU+AC TR SLP143

CYYC;2009-05-29 03:00;CYYC 290300Z 31007KT 40SM FEW060 FEW150 FEW230 BKN260 18/M03 A2997 RMK CU1AC1CC1CI1 CU+AC TR SLP151

CYYC;2009-05-29 04:00;CYYC 290400Z 32007KT 30SM FEW150 FEW230 SCT260 17/M03 A3000 RMK AC1CI1CI1 AC TR SLP159

CYYC;2009-05-29 05:00;CYYC 290500Z 34006KT 15SM FEW120 FEW250 15/M03 A3002 RMK AC1CI0 AC TR SLP165

CYYC;2009-05-29 06:00;CYYC 290600Z 33005KT 15SM SKC 14/M03 A3003 RMK SLP170

CYYC;2009-05-29 07:00;CYYC 290700Z 34005KT 15SM SKC 11/M03 A3004 RMK SLP174

CYYC;2009-05-29 08:00;CYYC 290800Z 35006KT 15SM FEW230 10/M02 A3004 RMK CI1 SLP175

CYYC;2009-05-29 09:00;CYYC 290900Z 04006KT 15SM FEW230 08/M02 A3005 RMK CI0 SLP185

CYYC;2009-05-29 10:00;CYYC 291000Z 35003KT 15SM FEW230 07/M02 A3006 RMK CI0 SLP186

CYYC;2009-05-29 11:00;CYYC 291100Z 31005KT 40SM FEW120 FEW250 07/M02 A3007 RMK AC1CI1 SLP191

CYYC;2009-05-29 12:00;CYYC 291200Z 36006KT 40SM FEW140 SCT250 06/M02 A3008 RMK AC1CI2 SLP194

CYYC;2009-05-29 13:00;CYYC 291300Z 00000KT 40SM FEW140 BKN250 08/M01 A3010 RMK AC1CI3 AC TR SLP200

CYYC;2009-05-29 14:00;CYYC 291400Z 23003KT 40SM FEW160 BKN250 12/01 A3011 RMK AC2CI1 SLP202

CYYC;2009-05-29 15:00;CYYC 291500Z 19004KT 40SM FEW160 BKN250 16/M00 A3011 RMK AC2CI1 SLP195

CYYC;2009-05-29 16:00;CYYC 291600Z 12002KT 40SM FEW160 BKN220 18/M02 A3010 RMK AC1CI1 SLP193

CYYC;2009-05-29 17:00;CYYC 291700Z 16006KT 40SM FEW160 SCT220 20/M02 A3009 RMK AC1CI1 AC TR SLP189

CYYC;2009-05-29 18:00;CYYC 291800Z 13007KT 40SM FEW088 FEW150 SCT220 22/M01 A3007 RMK CU1AC2CI0 CU TR SLP181

CYYC;2009-05-29 19:00;CYYC 291900Z CCA 22006KT 40SM FEW092 FEW150 FEW220 23/M01 A3005 RMK CU1AC2CI0 CU TR SLP173

CYYC;2009-05-29 20:00;CYYC 292000Z 15005KT 40SM FEW096 FEW150 FEW240 24/00 A3003 RMK CU1AC1CI1 CU+CI TR SLP167

CYYC;2009-05-29 21:00;CYYC 292100Z 18010KT 40SM FEW096 FEW150 25/01 A3001 RMK CU1AC1 CU TR SLP163

CYYC;2009-05-29 22:00;CYYC 292200Z 18006G15KT 40SM FEW096 FEW150 26/02 A2999 RMK CU1AC1 SLP156

CYYC;2009-05-29 23:00;CYYC 292300Z 22011G16KT 40SM FEW090 FEW150 BKN250 27/02 A2997 RMK CU1AC1CI1 SLP150

CYYC;2009-05-30 00:00;CYYC 300000Z 14009G18KT 40SM FEW100 FEW130 BKN250 27/02 A2994 RMK CU1AC1CI1 CU TR SLP140

CYYC;2009-05-30 01:00;CYYC 300100Z 16010G15KT 40SM FEW096 FEW130 SCT250 26/02 A2992 RMK CU1AC1CI0 CU+AC TR SLP134

CYYC;2009-05-30 02:00;CYYC 300200Z 26010KT 40SM FEW100 FEW260 26/M01 A2991 RMK CU1CI0 SLP130

CYYC;2009-05-30 03:00;CYYC 300300Z 26004KT 40SM FEW090 FEW260 24/M00 A2990 RMK CU1CI0 CU TR SLP116

CYYC;2009-05-30 04:00;CYYC 300400Z 16009KT 40SM FEW260 18/01 A2991 RMK CI1 CI TR SLP117

CYYC;2009-05-30 05:00;CYYC 300500Z 15008KT 15SM SKC 18/01 A2991 RMK SLP118

CYYC;2009-05-30 06:00;CYYC 300600Z 20003KT 15SM SKC 17/02 A2990 RMK SLP116

CYYC;2009-05-30 07:00;CYYC 300700Z 22003KT 15SM SKC 15/02 A2989 RMK SLP113

CYYC;2009-05-30 08:00;CYYC 300800Z 21007KT 15SM SKC 14/02 A2987 RMK SLP107

CYYC;2009-05-30 09:00;CYYC 300900Z 20007KT 15SM SKC 13/02 A2987 RMK SLP106

CYYC;2009-05-30 10:00;CYYC 301000Z 22007KT 15SM FEW140 BKN250 15/01 A2985 RMK AC2CI3 SLP102

CYYC;2009-05-30 11:00;CYYC 301100Z 22006KT 30SM FEW050 FEW080 SCT140 BKN250 14/02 A2985 RMK CU1AC1AC2CI2 CU TR SLP100

CYYC;2009-05-30 12:00;CYYC 301200Z 18005KT 40SM FEW050 FEW080 SCT140 BKN240 14/02 A2985 RMK CU1AC2AC2CI3 CU TR SLP097

CYYC;2009-05-30 13:00;CYYC 301300Z 24004KT 40SM FEW055 FEW110 BKN220 16/02 A2984 RMK CU1AC2CI5 CU TR SLP094

CYYC;2009-05-30 14:00;CYYC 301400Z 25008KT 40SM FEW080 FEW110 BKN220 18/02 A2985 RMK CU1AC2CI3 CU TR SLP095

CYYC;2009-05-30 15:00;CYYC 301500Z 21005KT 40SM FEW068 SCT240 21/04 A2985 RMK CU1CI3 CU TR SLP089

CYYC;2009-05-30 16:00;CYYC 301600Z 26013KT 40SM FEW088 FEW220 24/02 A2983 RMK CU1CI2 SLP085

CYYC;2009-05-30 17:00;CYYC 301700Z 03017G25KT 40SM FEW068 BKN200 21/03 A2984 RMK CU1CI2 SLP088

CYYC;2009-05-30 18:00;CYYC 301800Z 02012G21KT 40SM FEW072 FEW170 BKN200 22/03 A2985 RMK CU1AC1CI2 AC TR SLP100

CYYC;2009-05-30 19:00;CYYC 301900Z 05008G21KT 40SM FEW076 SCT200 22/03 A2984 RMK CU2CI1 SLP096

CYYC;2009-05-30 20:00;CYYC 302000Z 05011G18KT 40SM FEW076 SCT140 BKN200 23/03 A2983 RMK CU2AC1CI1 SLP093

CYYC;2009-05-30 21:00;CYYC 302100Z 05006G17KT 40SM FEW072 SCT130 BKN220 22/03 A2982 RMK CU1AC2CI0 SLP094

CYYC;2009-05-30 22:00;CYYC 302200Z 03005KT 40SM FEW076 SCT140 BKN200 23/04 A2980 RMK CU1AC2CI0 SLP088

CYYC;2009-05-30 23:00;CYYC 302300Z 05007KT 40SM FEW080 SCT130 BKN200 23/03 A2979 RMK CU1AC3CI0 SLP085

CYYC;2009-05-31 00:00;CYYC 310000Z 05014KT 40SM FEW072 BKN130 BKN240 22/04 A2980 RMK CU1AC5CI0 SLP084

CYYC;2009-05-31 01:00;CYYC 310100Z 09007KT 40SM FEW068 BKN110 21/04 A2980 RMK CU1AC4 SLP084

CYYC;2009-05-31 02:00;CYYC 310200Z 08003KT 30SM FEW120 FEW240 21/04 A2980 RMK AC1CI0 SLP084

CYYC;2009-05-31 03:00;CYYC 310300Z 23004KT 30SM FEW120 FEW240 20/00 A2980 RMK AC1CI0 SLP078

CYYC;2009-05-31 04:00;CYYC 310400Z 06009KT 15SM FEW120 FEW240 17/02 A2984 RMK AC1CI0 SLP090

CYYC;2009-05-31 05:00;CYYC 310500Z 01007KT 15SM FEW120 FEW240 14/02 A2987 RMK AC1CI1 SLP100

CYYC;2009-05-31 06:00;CYYC 310600Z 35008KT 15SM FEW120 FEW240 13/M00 A2990 RMK AC1CI1 SLP122

CYYC;2009-05-31 08:00;CYYC 310800Z 27003KT 15SM FEW120 BKN210 10/M00 A2993 RMK AC1CI2 SLP135

CYYC;2009-05-31 10:00;CYYC 311000Z 34004KT 15SM BKN075 BKN100 BKN240 09/M00 A2996 RMK AC4AC2CI0 SLP149

CYYC;2009-05-31 11:00;CYYC 311100Z 32005KT 20SM FEW075 BKN230 09/M01 A2996 RMK AC2CI2 ACC ASOCTD W SLP149

CYYC;2009-05-31 12:00;CYYC 311200Z 33004KT 30SM FEW075 BKN230 09/M04 A2997 RMK AC1CI2 SLP152

CYYC;2009-05-31 13:00;CYYC 311300Z 00000KT 30SM FEW075 BKN250 08/M02 A2998 RMK AC1CI2 SLP155

CYYC;2009-05-31 14:00;CYYC 311400Z 35003KT 40SM FEW050 FEW130 FEW150 BKN240 11/M02 A2997 RMK SC1AC1AC1CI2 SC TR SLP153

CYYC;2009-05-31 15:00;CYYC 311500Z 07004KT 40SM FEW040 FEW120 OVC220 14/M04 A2997 RMK SC1AC1CI1 SLP146

CYYC;2009-05-31 16:00;CYYC 311600Z 13005KT 40SM FEW180 SCT230 15/M06 A2996 RMK AC0CI0 SLP143

CYYC;2009-05-31 17:00;CYYC 311700Z 19004KT 40SM FEW060 FEW250 17/M03 A2995 RMK CU1CI0 SLP140

CYYC;2009-05-31 18:00;CYYC 311800Z 15008KT 40SM FEW072 FEW170 FEW250 18/M00 A2993 RMK CU1AC1CI0 SLP139

CYYC;2009-05-31 19:00;CYYC 311900Z 08005KT 40SM FEW072 FEW180 FEW240 18/00 A2991 RMK CU1AC1CI0 SLP133

CYYC;2009-05-31 20:00;CYYC 312000Z 16006KT 40SM FEW076 FEW250 19/00 A2989 RMK CU1CI0 SLP126

CYYC;2009-05-31 21:00;CYYC 312100Z 04005KT 40SM FEW080 21/01 A2987 RMK CU1 TCU EMBD/HZ SLP118

CYYC;2009-05-31 22:00;CYYC 312200Z 15008KT 40SM FEW080 21/00 A2986 RMK CU2 SH ALQDS/TCU EMBD SLP114

CYYC;2009-05-31 22:57;CYYC 312257Z CCA 11009G16KT 30SM BKN080CB BKN120 RMK CB5AC2 FC E MVING W /HVY SH/ VIS+ CIG LWR NE/SH ALQDS

CYYC;2009-05-31 23:00;CYYC 312300Z CCC 06008G15KT 30SM FC BKN080CB BKN120 21/M00 A2987 RMK CB5AC2 FUNNEL CLOUD MOVING E-W/HVY SH /VIS+CIG LWR NE/SH ALQDS/WSHFT 2258 SLP117

CYYC;2009-05-31 23:12;CYYC 312312Z 03018KT 30SM BKN080CB BKN120 REFC RMK CB5AC2 HVY SH/VIS+CIG LWR NE/SH ALQDS

CYYC;2009-06-01 01:00;CYYC 010100Z 04007KT 30SM SCT050TCU BKN100 18/05 A2991 RMK TCU4AC3 SH ALQDS/VIS E LWR SLP136

CYYC;2009-06-01 01:52;CYYC 010152Z 03020KT 30SM -SHRA SCT050TCU BKN100 17/ RMK TCU4AC2 VIS E LWR

CYYC;2009-06-01 02:00;CYYC 010200Z 02026G32KT 30SM -SHRA SCT060 BKN075 BKN100 16/M04 A2997 RMK SC3AC2AC1 TCU ASOCTD E+W / SH DIST E / VIRGA E+W / VIS E LWR SLP155

CYYC;2009-06-01 03:00;CYYC 010300Z CCA 01025G34KT 30SM -SHRA FEW065 SCT120 BKN250 13/M02 A3005 RMK SC1AC2CI0 PRESRR / VIRGA W-NW SLP185

CYYC;2009-06-01 03:33;CYYC 010333Z 01021G30KT 30SM FEW075 SCT120 BKN250 12/ RMK AC1AC2CI0 SH DIST S-SW+NW

CYYC;2009-06-01 04:00;CYYC 010400Z 01023G29KT 15SM BKN100 11/M03 A3010 RMK AC4 SH DIST S SLP200

CYYC;2009-06-01 05:00;CYYC 010500Z 36015G24KT 15SM BKN080 11/M03 A3014 RMK AC6 SLP214

CYYC;2009-06-01 06:00;CYYC 010600Z 36017KT 15SM OVC077 10/M02 A3017 RMK AC7 VIRGA SLP226

CYYC;2009-06-01 07:00;CYYC 010700Z 36023G28KT 15SM OVC080 09/M02 A3019 RMK AC8 VIRGA SLP233

CYYC;2009-06-01 08:00;CYYC 010800Z 36018G25KT 15SM OVC090 07/M01 A3023 RMK AC7 SLP245

CYYC;2009-06-01 09:00;CYYC 010900Z 36018KT 15SM FEW075 OVC110 07/M01 A3026 RMK AC1AC7 SLP257

CYYC;2009-06-01 10:00;CYYC 011000Z 35008KT 15SM FEW090 OVC130 06/M01 A3027 RMK AC1AC7 SLP262

CYYC;2009-06-01 11:00;CYYC 011100Z 35014G19KT 15SM FEW065 BKN130 OVC180 06/M00 A3028 RMK SC1AC5AC1 SLP264

CYYC;2009-06-01 12:00;CYYC 011200Z 35012KT 20SM FEW025 BKN035 BKN130 06/M00 A3029 RMK CU1SC5AC2 SLP274

CYYC;2009-06-01 13:00;CYYC 011300Z 36014KT 20SM BKN035 BKN100 06/M01 A3031 RMK SC5AC2 SLP279

CYYC;2009-06-01 14:00;CYYC 011400Z 35015G21KT 40SM BKN028 06/M01 A3032 RMK SC6 SLP283

CYYC;2009-06-01 15:00;CYYC 011500Z 36018KT 40SM BKN033 07/M01 A3033 RMK SC7 SLP294

CYYC;2009-06-01 16:00;CYYC 011600Z 35014KT 40SM BKN040 08/M02 A3035 RMK SC7 SLP298

CYYC;2009-06-01 17:00;CYYC 011700Z 03014G19KT 40SM BKN041 08/M02 A3035 RMK SC7 SLP299

CYYC;2009-06-01 18:00;CYYC 011800Z 36011G19KT 40SM OVC047 09/M02 A3036 RMK SC7 SLP303

CYYC;2009-06-01 19:00;CYYC 011900Z 01013KT 40SM OVC047 09/M01 A3036 RMK SC7 SLP305

CYYC;2009-06-01 20:00;CYYC 012000Z 03006KT 40SM OVC059 11/M03 A3035 RMK SC7 SLP302

CYYC;2009-06-01 21:00;CYYC 012100Z 03009G15KT 40SM OVC060 11/M01 A3035 RMK SC7 SLP301

CYYC;2009-06-01 22:00;CYYC 012200Z 36004KT 40SM BKN060 12/M00 A3035 RMK SC6 SLP303

CYYC;2009-06-01 23:00;CYYC 012300Z 06006KT 40SM BKN057 12/M02 A3035 RMK SC5 SLP301

CYYC;2009-06-02 00:00;CYYC 020000Z 04004KT 40SM BKN060 12/M02 A3035 RMK SC5 SLP302

CYYC;2009-06-02 01:00;CYYC 020100Z 03002KT 40SM SCT060 SCT120 12/M02 A3034 RMK CU2AC1 AC TR SLP299

CYYC;2009-06-02 02:00;CYYC 020200Z 06006KT 30SM FEW065 FEW250 12/M02 A3034 RMK CU1CI0 AC TR SLP299

CYYC;2009-06-02 03:00;CYYC 020300Z 06005KT 30SM FEW085 FEW250 10/M02 A3034 RMK AC1CI1 BOTH CLDS TR SLP300

CYYC;2009-06-02 04:00;CYYC 020400Z 07004KT 20SM FEW090 FEW250 08/M03 A3036 RMK AC1CI1 BOTH CLDS TR SLP304

CYYC;2009-06-02 05:00;CYYC 020500Z 10006KT 15SM SKC 08/M03 A3037 RMK SLP307

CYYC;2009-06-02 06:00;CYYC 020600Z 00000KT 15SM SKC 07/M03 A3037 RMK SLP313

CYYC;2009-06-02 07:00;CYYC 020700Z 31002KT 15SM SKC 05/M02 A3038 RMK SLP315

CYYC;2009-06-02 08:00;CYYC 020800Z 34004KT 15SM SKC 04/M03 A3038 RMK SLP315

CYYC;2009-06-02 09:00;CYYC 020900Z 32002KT 15SM SKC 02/M04 A3038 RMK SLP319

CYYC;2009-06-02 10:00;CYYC 021000Z 36003KT 15SM SKC 01/M04 A3038 RMK SLP320

CYYC;2009-06-02 11:00;CYYC 021100Z 35003KT 20SM SKC 01/M04 A3038 RMK SLP319

CYYC;2009-06-02 12:00;CYYC 021200Z 34002KT 40SM SKC 01/M04 A3038 RMK SLP320

CYYC;2009-06-02 13:00;CYYC 021300Z 00000KT 30SM SKC 04/M02 A3038 RMK SLP319

CYYC;2009-06-02 14:00;CYYC 021400Z 23003KT 40SM SKC 06/M01 A3038 RMK SLP319

CYYC;2009-06-02 15:00;CYYC 021500Z 18005KT 40SM SKC 10/M01 A3037 RMK SLP306

CYYC;2009-06-02 16:00;CYYC 021600Z 16008G15KT 40SM SKC 12/M02 A3037 RMK SLP304

CYYC;2009-06-02 17:00;CYYC 021700Z 19006G16KT 40SM SKC 14/M02 A3035 RMK SLP299

CYYC;2009-06-02 18:00;CYYC 021800Z 16012G17KT 40SM SKC 15/M03 A3034 RMK SLP294

CYYC;2009-06-02 19:00;CYYC 021900Z 16008G18KT 40SM FEW180 16/M03 A3033 RMK AC1 SLP290

CYYC;2009-06-02 20:00;CYYC 022000Z 17013G18KT 40SM SKC 17/M04 A3030 RMK SLP283

CYYC;2009-06-02 21:00;CYYC 022100Z 15009G17KT 40SM FEW080 FEW140 17/M04 A3029 RMK CU1AC1 SLP279

CYYC;2009-06-02 22:00;CYYC 022200Z 20011G21KT 40SM FEW080 FEW140 18/M04 A3028 RMK CU1AC1 SLP276

CYYC;2009-06-02 23:00;CYYC 022300Z 17013G18KT 40SM FEW080 FEW160 18/M05 A3026 RMK CU1AC1 SLP270

CYYC;2009-06-03 00:00;CYYC 030000Z CCA 15010KT 40SM FEW080 FEW140 18/M05 A3024 RMK CU1AC1 SLP261

CYYC;2009-06-03 01:00;CYYC 030100Z 17011KT 40SM FEW140 18/M04 A3022 RMK AC1 SLP256

CYYC;2009-06-03 02:00;CYYC 030200Z 18011KT 40SM FEW140 FEW260 17/M04 A3021 RMK AC1CI1 BOTH CLDS TR SLP254

CYYC;2009-06-03 03:00;CYYC 030300Z 16013KT 40SM FEW140 FEW260 15/M04 A3021 RMK AC1CI1 BOTH CLDS TR SLP241

CYYC;2009-06-03 04:00;CYYC 030400Z 17009KT 30SM FEW180 13/M05 A3021 RMK AC1 AC TR SLP241

CYYC;2009-06-03 05:00;CYYC 030500Z 17008KT 15SM FEW180 12/M05 A3021 RMK AC1 AC TR SLP241

CYYC;2009-06-03 06:00;CYYC 030600Z 18004KT 15SM SKC 11/M04 A3021 RMK SLP241

CYYC;2009-06-03 07:00;CYYC 030700Z 17005KT 15SM SKC 07/M03 A3021 RMK SLP241

CYYC;2009-06-03 08:00;CYYC 030800Z 16006KT 15SM SKC 08/M03 A3020 RMK SLP238

CYYC;2009-06-03 09:00;CYYC 030900Z 20005KT 15SM SKC 07/M03 A3019 RMK SLP238

CYYC;2009-06-03 10:00;CYYC 031000Z 20006KT 15SM SKC 05/M02 A3019 RMK SLP236

CYYC;2009-06-03 11:00;CYYC 031100Z 24003KT 20SM FEW130 FEW250 05/M03 A3020 RMK AC1CI1 CLDS TR SLP239

CYYC;2009-06-03 12:00;CYYC 031200Z 21004KT 40SM FEW130 FEW250 05/M03 A3020 RMK AC1CI1 CLDS TR SLP242

CYYC;2009-06-03 13:00;CYYC 031300Z 23003KT 30SM FEW240 07/M01 A3020 RMK CI1 CI TR SLP244

CYYC;2009-06-03 14:00;CYYC 031400Z 34002KT 40SM FEW280 10/00 A3021 RMK CI1 SLP247

CYYC;2009-06-03 15:00;CYYC 031500Z 01006KT 40SM FEW280 15/M01 A3022 RMK CI1 SLP239

CYYC;2009-06-03 16:00;CYYC 031600Z 03008KT 30SM FEW170 16/M01 A3022 RMK AC1 SLP238

CYYC;2009-06-03 17:00;CYYC 031700Z 36006KT 30SM FEW170 18/01 A3021 RMK AC1 SLP237

CYYC;2009-06-03 18:00;CYYC 031800Z 03004KT 40SM FEW220 20/M01 A3020 RMK CI1 SLP232

CYYC;2009-06-03 19:00;CYYC 031900Z 03004KT 40SM FEW260 21/M03 A3019 RMK CI1 SLP230

CYYC;2009-06-03 20:00;CYYC 032000Z 04007KT 40SM FEW260 21/M03 A3018 RMK CI1 SLP225

CYYC;2009-06-03 21:00;CYYC 032100Z 03006KT 40SM FEW100 FEW280 22/M04 A3017 RMK CU1CI1 SLP222

CYYC;2009-06-03 22:00;CYYC 032200Z 09008G16KT 40SM FEW100 FEW300 22/M04 A3015 RMK CU1CI1 SLP218

CYYC;2009-06-03 23:00;CYYC 032300Z 04004KT 40SM FEW300 22/M05 A3014 RMK CI1 SLP215

CYYC;2009-06-04 00:00;CYYC 040000Z 04005KT 40SM FEW260 22/M04 A3013 RMK CI1 SLP213

CYYC;2009-06-04 01:00;CYYC 040100Z 09006KT 40SM FEW300 22/M04 A3012 RMK CI0 SLP210

CYYC;2009-06-04 02:00;CYYC 040200Z 06005KT 30SM SCT250 21/M03 A3011 RMK CI2 HAZE S-W SLP207

CYYC;2009-06-04 03:00;CYYC 040300Z 06005KT 30SM SCT250 18/M02 A3012 RMK CI2 SLP200

CYYC;2009-06-04 04:00;CYYC 040400Z CCA 05005KT 30SM SCT250 16/M02 A3013 RMK CI2 SLP204

CYYC;2009-06-04 05:00;CYYC 040500Z 33007KT 15SM FEW250 15/M02 A3014 RMK CI1 SLP208

CYYC;2009-06-04 06:00;CYYC 040600Z 33007KT 15SM FEW250 15/M03 A3015 RMK CI1 SLP208

CYYC;2009-06-04 07:00;CYYC 040700Z 31003KT 15SM FEW250 11/M01 A3014 RMK CI1 SLP207

CYYC;2009-06-04 08:00;CYYC 040800Z 00000KT 15SM FEW100 FEW110 BKN250 10/M01 A3014 RMK AC1AC1CI2 SLP205

CYYC;2009-06-04 09:00;CYYC 040900Z 29002KT 15SM FEW250 10/M01 A3013 RMK CI0 SLP208

CYYC;2009-06-04 10:00;CYYC 041000Z 32005KT 15SM FEW250 09/M01 A3013 RMK CI0 SLP208

CYYC;2009-06-04 11:00;CYYC 041100Z 24002KT 20SM FEW200 08/M01 A3013 RMK CI1 CI TR SLP208

CYYC;2009-06-04 12:00;CYYC 041200Z 00000KT 20SM SKC 08/M01 A3014 RMK SLP210

CYYC;2009-06-04 13:00;CYYC 041300Z 31006KT 25SM FEW200 10/00 A3015 RMK CI1 HZ S-W SLP215

CYYC;2009-06-04 14:00;CYYC 041400Z 34010KT 30SM FEW220 FEW250 14/01 A3016 RMK CI1CI1 HZ SLP217

CYYC;2009-06-04 15:00;CYYC 041500Z 36011G16KT 30SM FEW250 15/01 A3016 RMK CI1 HZ/CONTRAIL SLP214

CYYC;2009-06-04 16:00;CYYC 041600Z 03009KT 30SM SKC 16/04 A3017 RMK HZ SLP217

CYYC;2009-06-04 17:00;CYYC 041700Z 01006KT 30SM FEW050 17/05 A3017 RMK CU1 HZ SLP216

CYYC;2009-06-04 18:00;CYYC 041800Z 01007KT 30SM FEW056 18/05 A3016 RMK CU1 HZ SLP216

CYYC;2009-06-04 19:00;CYYC 041900Z 05007G16KT 30SM FEW056 19/05 A3016 RMK CU1 HZ SLP214

CYYC;2009-06-04 20:00;CYYC 042000Z 03008G16KT 30SM FEW060 FEW160 FEW220 19/05 A3014 RMK CU1AC1CI0 HZ SLP210

CYYC;2009-06-04 21:00;CYYC 042100Z 02007G15KT 30SM FEW064 FEW120 FEW150 BKN230 20/04 A3013 RMK CU1AC1AC1CI0 SLP207

CYYC;2009-06-04 22:00;CYYC 042200Z 05010G15KT 30SM FEW064 FEW130 FEW180 OVC210 21/04 A3011 RMK CU1AC1AC0CI0 HZ SLP202

CYYC;2009-06-04 23:00;CYYC 042300Z CCA 02012KT 30SM FEW062 FEW180 OVC230 21/04 A3010 RMK CU1AC0CI0 HZ SLP200

CYYC;2009-06-05 00:00;CYYC 050000Z 04012G17KT 30SM FEW062 SCT110 BKN130 OVC210 19/05 A3011 RMK CU1AC2AC2CI0 HZ SLP204

CYYC;2009-06-05 01:00;CYYC 050100Z 06013G18KT 30SM FEW090 BKN110 BKN190 OVC220 18/04 A3010 RMK AC2AC3AC2CI0 HZ SLP201

CYYC;2009-06-05 02:00;CYYC 050200Z 06017KT 15SM FEW090 BKN130 OVC230 15/03 A3005 RMK AC2AC3CI2 HZ SLP185

CYYC;2009-06-05 03:00;CYYC 050300Z 05012G18KT 15SM SCT095 BKN130 OVC230 14/01 A3013 RMK AC4AC2CI2 HZ SLP209

CYYC;2009-06-05 04:00;CYYC 050400Z 05010G15KT 15SM BKN068 OVC088 12/03 A3014 RMK AC6AC2 SLP212

CYYC;2009-06-05 05:00;CYYC 050500Z 09005KT 15SM OVC056 11/03 A3015 RMK SC8 SLP215

CYYC;2009-06-05 06:00;CYYC 050600Z 09006KT 15SM OVC056 11/03 A3015 RMK SC8 SLP217

CYYC;2009-06-05 07:00;CYYC 050700Z 09010KT 15SM OVC065 10/M00 A3014 RMK SC8 SLP215

CYYC;2009-06-05 08:00;CYYC 050800Z 11011KT 15SM OVC055 09/M00 A3013 RMK SC8 SLP211

CYYC;2009-06-05 09:00;CYYC 050900Z 11009KT 15SM OVC057 08/00 A3012 RMK SC8 SLP207

CYYC;2009-06-05 10:00;CYYC 051000Z 09010KT 15SM OVC056 07/01 A3011 RMK SC8 SLP204

CYYC;2009-06-05 11:00;CYYC 051100Z 08009KT 15SM SCT009 OVC056 05/03 A3011 RMK SC4SC4 SLP204

CYYC;2009-06-05 12:00;CYYC 051200Z 09007KT 15SM SCT009 OVC059 05/02 A3012 RMK SC4SC4 SLP215

CYYC;2009-06-05 12:07;CYYC 051207Z 09005KT 15SM OVC011 04/ RMK SC8 DIST SH N

CYYC;2009-06-05 12:50;CYYC 051250Z 13012KT 10SM -RA OVC008 04/ RMK SC8

CYYC;2009-06-05 13:00;CYYC 051300Z 13010G17KT 8SM -RA OVC007 04/03 A3011 RMK SC8 SLP211

CYYC;2009-06-05 14:00;CYYC 051400Z 11007KT 15SM -RA OVC007 04/02 A3012 RMK SC8 PCPN VRY LGT SLP214

CYYC;2009-06-05 15:00;CYYC 051500Z 13008KT 15SM -RA FEW006 OVC008 04/02 A3011 RMK SC2SC6 SLP218

CYYC;2009-06-05 16:00;CYYC 051600Z 13009KT 15SM -RA BKN007 OVC016 04/03 A3009 RMK SC5SC3 PCPN VRY LGT SLP213

CYYC;2009-06-05 17:00;CYYC 051700Z 13010KT 4SM -RA BKN006 OVC015 04/03 A3008 RMK SC6SC2 SLP210

CYYC;2009-06-05 17:19;CYYC 051719Z 12012KT 3SM -RA OVC005 04/ RMK SC8

CYYC;2009-06-05 17:26;CYYC 051726Z 13010KT 4SM -RA OVC004 04/ RMK SC8

CYYC;2009-06-05 18:00;CYYC 051800Z 13013KT 4SM -RA OVC004 04/03 A3006 RMK SC8 SLP207

CYYC;2009-06-05 18:09;CYYC 051809Z 13014KT 10SM -RA SCT004 OVC008 04/ RMK SC4SC4 PCPN VRY LGT

CYYC;2009-06-05 19:00;CYYC 051900Z 12011G16KT 10SM -RA BKN007 OVC010 04/02 A3006 RMK SC5SC3 PCPN VRY LGT SLP207

CYYC;2009-06-05 20:00;CYYC 052000Z 14013KT 8SM -RA OVC006 04/02 A3004 RMK SC8 SLP200

CYYC;2009-06-05 21:00;CYYC 052100Z 12014KT 8SM -RA BKN006 OVC010 04/03 A3002 RMK SC6SC2 SLP196

CYYC;2009-06-05 22:00;CYYC 052200Z 11011G16KT 12SM -RA OVC007 03/02 A3002 RERA RMK SC8 PCPN VRY LGT SLP196

CYYC;2009-06-05 23:00;CYYC 052300Z 12012KT 15SM -RA OVC006 03/02 A3002 RMK SC8 PCPN VRY LGT SLP196

CYYC;2009-06-06 00:00;CYYC 060000Z 06009KT 15SM -RA OVC006 03/02 A3004 RMK SC8 PCPN VRY LGT SLP210

CYYC;2009-06-06 00:32;CYYC 060032Z 08009KT 4SM -RA BKN005 OVC013 03/ RMK SC5SC3

CYYC;2009-06-06 00:41;CYYC 060041Z 08011KT 4SM -RA BR BKN005 OVC012 02/ RMK SC6SC2

CYYC;2009-06-06 00:43;CYYC 060043Z 08010KT 4SM -RA BR BKN003 OVC012 02/ RMK SC6SC2

CYYC;2009-06-06 01:00;CYYC 060100Z 07011KT 6SM -RA BR BKN003 OVC012 02/01 A3004 RMK SC7SC1 SLP208

CYYC;2009-06-06 01:09;CYYC 060109Z 07009KT 6SM -RASN BR OVC003 02/ RMK SC8

CYYC;2009-06-06 01:17;CYYC 060117Z 07008KT 4SM -SN BR OVC003 02/ RMK SC8

CYYC;2009-06-06 01:52;CYYC 060152Z 07007KT 7SM -SN BKN004 BKN010 OVC030 01/ RMK SC6SC1SC1 CIG VRB 3-5

CYYC;2009-06-06 02:00;CYYC 060200Z 08006KT 7SM -SN VCFG BKN004 BKN010 OVC030 02/01 A3004 RMK SC6SC1SC1 FG BNK S-W SLP210

CYYC;2009-06-06 02:51;CYYC 060251Z 11006KT 10SM BKN007 OVC010 OVC035 02/ RMK SC6SC2SC1

CYYC;2009-06-06 03:00;CYYC 060300Z 11005KT 10SM BKN008 OVC038 02/01 A3004 RMK SC7SC1 SLP211

CYYC;2009-06-06 03:43;CYYC 060343Z 09003KT 10SM -SN BKN006 OVC012 02/ RMK SC6SC2 SN VRY LGT

CYYC;2009-06-06 04:00;CYYC 060400Z 10003KT 10SM -SN BKN006 BKN012 OVC040 02/01 A3005 RMK SC6SC1SC1 CIG VRB 5-7 SLP213

CYYC;2009-06-06 05:00;CYYC 060500Z 04006KT 6SM -SN BR BKN007 OVC010 02/01 A3004 RMK SC6SC2 SLP211

CYYC;2009-06-06 06:00;CYYC 060600Z 04005KT 6SM -SN BR BKN006 OVC014 02/01 A3003 RMK SC6SC2 CIG RAG SLP208

CYYC;2009-06-06 07:00;CYYC 060700Z 03004KT 4SM -SN BR OVC006 02/01 A3003 RMK SC8 RAG CIG SLP206

CYYC;2009-06-06 08:00;CYYC 060800Z 02005KT 3SM -SN BR OVC006 01/M00 A3002 RMK SC8 VIS W 2/ CIG VRB 3-9/ RAG CIG SLP204

CYYC;2009-06-06 08:04;CYYC 060804Z 36003KT 2 1/2SM -SN BR SCT002 OVC005 01/ RMK SF3SC5 RAG CIG

CYYC;2009-06-06 09:00;CYYC 060900Z 36005KT 2 1/2SM -SN BR SCT002 BKN006 OVC012 00/M00 A3000 RMK SF3SC4SC1 RAG CIG SLP200

CYYC;2009-06-06 10:00;CYYC 061000Z 36007KT 1 1/2SM -SN BR SCT002 OVC006 00/M00 A3000 RMK SF3SC5 RAG CIG SLP200

CYYC;2009-06-06 11:00;CYYC 061100Z 02007KT 1 1/2SM -SN BR FEW002 OVC006 00/M00 A3000 RMK ST2SC6 SLP199

CYYC;2009-06-06 11:40;CYYC 061140Z 03005KT 1SM -SN BR BKN004 BKN006 OVC010 01/ RMK SF5SC2SC2 RVR RWY16 6000 FT

CYYC;2009-06-06 12:00;CYYC 061200Z CCA 04006KT 1SM -SN BR BKN004 BKN006 OVC010 01/00 A3000 RMK ST5SC2SC1 CIG VRB 3-5/ SNOW COVER/ TRACE LOOSE SLP201

CYYC;2009-06-06 13:00;CYYC 061300Z 04006KT 1SM -SN BR BKN004 BKN015 OVC029 01/M00 A3002 RMK ST5SC2SC1 CIG VRB 3-5 SLP205

CYYC;2009-06-06 14:00;CYYC 061400Z 05005KT 1 1/2SM -SN BR SCT004 BKN010 OVC015 01/00 A3003 RMK ST4SC3SC1 SLP210

CYYC;2009-06-06 14:10;CYYC 061410Z 05005KT 3SM -SN BR FEW005 SCT010 OVC015 01/ RMK ST2SC2SC4

CYYC;2009-06-06 14:26;CYYC 061426Z 05005KT 3SM -SN BR SCT003 OVC030 02/ RMK ST4SC4

CYYC;2009-06-06 14:36;CYYC 061436Z 05005KT 3SM -SN BR BKN005 OVC020 02/ RMK ST5SC3

CYYC;2009-06-06 15:00;CYYC 061500Z 07008KT 4SM -SN BKN005 BKN015 OVC020 02/01 A3005 RMK ST5SC2SC2 SLP216

CYYC;2009-06-06 15:43;CYYC 061543Z 07007KT 5SM -SN BR FEW006 BKN010 OVC040 02/ RMK ST2SC2SC3

CYYC;2009-06-06 16:00;CYYC 061600Z 05007KT 6SM -SN BKN010 BKN015 OVC030 03/02 A3006 RMK ST5SC2SC2 SLP220

CYYC;2009-06-06 16:38;CYYC 061638Z 01008KT 7SM SCT010 BKN015 OVC020 03/ RMK ST4SC2SC2

CYYC;2009-06-06 16:52;CYYC 061652Z 06004KT 7SM -SN SCT015 BKN020 OVC050 03/ RMK ST4SC2SC2 PCPN VRY LGT

CYYC;2009-06-06 17:00;CYYC 061700Z 05004KT 7SM -SN SCT014 BKN020 OVC055 04/01 A3006 RMK ST4SC3SC1 SLP221

CYYC;2009-06-06 17:40;CYYC 061740Z 06002KT 7SM -RA FEW010 SCT015 BKN020 OVC050 05/ RMK ST2SC2SC2SC2

CYYC;2009-06-06 18:00;CYYC 061800Z 11006KT 8SM -RA FEW010 BKN020 OVC050 04/00 A3006 RMK SC2SC3SC2 SLP217

CYYC;2009-06-06 18:27;CYYC 061827Z 07008KT 8SM -SN FEW015 BKN024 OVC060 05/ RMK SC2SC3SC2

CYYC;2009-06-06 18:50;CYYC 061850Z 08007KT 7SM SHPL FEW015 BKN025 BKN030 06/ RMK SC2SC4SC1 CVCTV CLD EMBD

CYYC;2009-06-06 19:00;CYYC 061900Z 09008KT 7SM -SHPL FEW015 BKN025 BKN080 05/00 A3006 RMK SC2SC4AC1 CVCTV CLD EMBD SLP216

CYYC;2009-06-06 19:16;CYYC 061916Z 10003KT 8SM FEW015 BKN025 BKN080 06/ RMK SC1SC4AC1 DIST SH SW-W

CYYC;2009-06-06 19:55;CYYC 061955Z 05005KT 7SM -RA BKN030 BKN040 06/ RMK SC5SC2

CYYC;2009-06-06 20:00;CYYC 062000Z 05005KT 7SM -RA BKN026 BKN040 06/00 A3005 RMK SC5SC2 SLP215

CYYC;2009-06-06 20:23;CYYC 062023Z 09020KT 7SM -SN FEW016 BKN025 BKN045 05/ RMK SC2SC4SC1

CYYC;2009-06-06 20:43;CYYC 062043Z 11013KT 7SM FEW015 BKN023 BKN090 04/ RMK SC1SC4AC1 VIS SW 5/ SH SW+NW

CYYC;2009-06-06 21:00;CYYC 062100Z 12009KT 8SM SCT025 BKN080 06/02 A3006 RMK SC4AC1 DIST SH SW-W-NW SLP218

CYYC;2009-06-06 22:00;CYYC 062200Z 12002KT 8SM SCT035 BKN060 BKN180 07/M02 A3006 RMK SC3SC2AC1 SH NE/TCU ASOCTD SLP216

CYYC;2009-06-06 22:19;CYYC 062219Z CCA 03014KT 8SM -SHPL BKN036 BKN042 BKN070 06/ RMK SC5SC2AC1 CVCTV CLD EMBD

CYYC;2009-06-06 23:00;CYYC 062300Z 11009G15KT 7SM -RA SCT025 BKN040 BKN080 05/01 A3006 RMK SC4SC2AC1 VIS SE-S 4 MI SLP218

CYYC;2009-06-06 23:24;CYYC 062324Z 13008KT 8SM FEW025 SCT040 BKN085 06/ RMK SC1SC2AC1 VIS SE-S-SW 5 MI/ SH SE-S-SW

CYYC;2009-06-07 00:00;CYYC 070000Z 12005KT 8SM SCT040 BKN090 07/M00 A3005 RMK SC3AC1 DIST SH S-SW SLP212

CYYC;2009-06-07 01:00;CYYC 070100Z 11006KT 10SM FEW030 SCT050 BKN070 07/01 A3005 RMK SC1SC2AC2 SH SW SLP212

CYYC;2009-06-07 02:00;CYYC 070200Z CCA 23007KT 20SM FEW030 FEW060CB FEW080 06/01 A3005 RMK CF1CB2AC0 SH DIST S+NE / CB S+NE SLP212

CYYC;2009-06-07 03:00;CYYC 070300Z 24007KT 20SM -SHRA FEW020 BKN040CB BKN090 05/01 A3006 RMK CF1CB5AC1 SLP217

CYYC;2009-06-07 03:29;CYYC 070329Z CCA 09010KT 20SM -SHRAGR OVC023CB 03/ RMK CB7 HAIL DIAM 3 MM / WSHFT 0325

CYYC;2009-06-07 04:00;CYYC 070400Z 11005KT 5SM -SHRAGR BKN015CB OVC030CB 03/01 A3008 RMK CB7CB1 HAIL DIAM 1 MM SLP224

CYYC;2009-06-07 04:15;CYYC 070415Z 15004KT 3SM -SHRAGR BR BKN009 OVC020CB 03/ RMK ST6CB2 HAIL DIAM 1 MM

CYYC;2009-06-07 04:50;CYYC 070450Z 20009G15KT 2 1/2SM -SHRA BR SCT015 OVC050 02/ RMK ST3SC4

CYYC;2009-06-07 05:00;CYYC 070500Z 23008KT 3SM -RA BR FEW015 BKN053 02/00 A3007 RMK ST2SC4 SLP221

CYYC;2009-06-07 05:55;CYYC 070555Z 25005KT 15SM FEW040 BKN073 02/ RMK SC2AC4 SH DIST SW / VIRGA S

CYYC;2009-06-07 06:00;CYYC 070600Z 26005KT 15SM FEW040 BKN080 02/01 A3006 RMK SC2AC4 SH DIST SW / VIRGA S SLP217

CYYC;2009-06-07 07:00;CYYC 070700Z 36004KT 15SM FEW040 FEW080 BKN120 02/01 A3004 RMK SC1AC2AC1 SLP212

CYYC;2009-06-07 08:00;CYYC 070800Z 17002KT 15SM SCT080 BKN120 02/00 A3003 RMK AC2AC2 SLP209

CYYC;2009-06-07 09:00;CYYC 070900Z 10002KT 15SM FEW080 FEW120 02/01 A3003 RMK AC1AC1 SLP204

CYYC;2009-06-07 10:00;CYYC 071000Z 17002KT 15SM FEW100 01/01 A3002 RMK AC1 SLP202

CYYC;2009-06-07 11:00;CYYC 071100Z 18003KT 8SM FEW100 00/M01 A3002 RMK AC1 SLP201

CYYC;2009-06-07 12:00;CYYC 071200Z 31002KT 8SM FEW100 FEW250 00/M00 A3002 RMK AC1CI0 SLP202

CYYC;2009-06-07 13:00;CYYC 071300Z 00000KT 10SM SCT100 BKN250 01/01 A3002 RMK AC3CI2 VIS 4 SW SLP203

CYYC;2009-06-07 14:00;CYYC 071400Z 22003KT 30SM FEW012 BKN058 OVC120 03/02 A3003 RMK CU1SC2AC1 HZ SW SLP204

CYYC;2009-06-07 15:00;CYYC 071500Z 18006KT 40SM FEW015 FEW080 SCT220 05/02 A3003 RMK CU1AC1CI0 SLP200

CYYC;2009-06-07 16:00;CYYC 071600Z 16010KT 40SM FEW024TCU FEW078 BKN090 OVC200 07/01 A3003 RMK TCU1AC2AC3CI0 TCU TR SLP202

CYYC;2009-06-07 17:00;CYYC 071700Z 18010KT 40SM FEW024TCU FEW030 BKN090 BKN190 07/M01 A3003 RMK TCU1SC2AC5AC1 SLP200

CYYC;2009-06-07 18:00;CYYC 071800Z 16009KT 40SM FEW032TCU FEW180 OVC220 10/M01 A3002 RMK TCU2AC1CI0 SH N-SE SLP196

CYYC;2009-06-07 19:00;CYYC 071900Z CCA 17013KT 40SM SCT040TCU OVC250 08/M03 A3002 RMK TCU3CI0 SH N-S SLP195

CYYC;2009-06-07 20:00;CYYC 072000Z 15011G17KT 30SM SCT048TCU BKN150 OVC200 10/M02 A3001 RMK TCU4AC0CI0 SH ALQDS SLP192

CYYC;2009-06-07 21:00;CYYC 072100Z 14011G16KT 30SM SCT050TCU BKN150 BKN200 OVC240 10/M02 A3000 RMK TCU4AC1CI0CI0 SH ALQDS/VIS E LWR SLP190

CYYC;2009-06-07 22:00;CYYC 072200Z 15012G19KT 30SM SCT040TCU BKN080 BKN250 10/M01 A3000 RMK TCU4AC2CI0 SH ALQDS/VIS LWR NE SLP190

CYYC;2009-06-07 23:00;CYYC 072300Z 16011KT 30SM BKN030TCU BKN090 OVC200 10/M03 A3000 RMK TCU5AC2CI0 SH ALQDS SLP190

CYYC;2009-06-07 23:51;CYYC 072351Z 16011G16KT 30SM -SHRA SCT026TCU BKN058 BKN100 OVC180 10/ RMK TCU4SC3AC1AC0 PCPN VRY LGT

CYYC;2009-06-08 00:00;CYYC 080000Z 16011KT 30SM -SHRA SCT020TCU BKN056 BKN100 OVC220 10/M03 A3001 RMK TCU4SC2AC1CI0 PCPN VRY LGT SLP195

CYYC;2009-06-08 00:46;CYYC 080046Z 13011KT 30SM FEW024TCU BKN040 BKN080 BKN250 10/ RMK TCU2SC5AC1CI1 SH ALQDS

CYYC;2009-06-08 01:00;CYYC 080100Z 14013KT 25SM FEW030TCU BKN040 BKN080 BKN250 11/M03 A3001 RMK TCU2SC3AC2CI1 SH ALQDS SLP195

CYYC;2009-06-08 02:00;CYYC 080200Z 12010KT 20SM FEW060 SCT090 BKN220 09/M04 A3002 RMK SC2AC1CI0 SLP198

CYYC;2009-06-08 03:00;CYYC 080300Z CCA 11007KT 20SM FEW060 FEW090 BKN220 08/M04 A3003 RMK SC1AC1CI0 SH DIST NE SLP196

CYYC;2009-06-08 04:00;CYYC 080400Z 12009KT 15SM FEW060 OVC240 06/M00 A3004 RMK SC2CI2 SH DIST W SLP200

CYYC;2009-06-08 05:00;CYYC 080500Z 12010KT 15SM FEW060 BKN240 05/M01 A3005 RMK SC1CI2 SLP202

CYYC;2009-06-08 06:00;CYYC 080600Z 12008KT 15SM FEW090 BKN210 04/M00 A3005 RMK AC1CI2 SLP202

CYYC;2009-06-08 07:00;CYYC 080700Z 14004KT 15SM FEW100 BKN210 03/M00 A3005 RMK AC1CI2 SLP202

CYYC;2009-06-08 08:00;CYYC 080800Z 16002KT 15SM FEW100 SCT210 02/00 A3004 RMK AC1CI1 AC TR SLP201

CYYC;2009-06-08 09:00;CYYC 080900Z 12004KT 15SM FEW080 FEW210 02/01 A3004 RMK AC1CI0 SLP203

CYYC;2009-06-08 10:00;CYYC 081000Z 25002KT 15SM FEW080 FEW210 02/00 A3004 RMK AC1CI0 SLP201

CYYC;2009-06-08 11:00;CYYC 081100Z CCA 08002KT 8SM FEW080 BKN230 00/M01 A3004 RMK AC1CI0 SLP201

CYYC;2009-06-08 12:00;CYYC 081200Z 01002KT 8SM FEW075 BKN220 00/M01 A3004 RMK AC1CI2 AC TR SLP206

CYYC;2009-06-08 12:36;CYYC 081236Z 32003KT 1 1/2SM BR FEW075 BKN220 M00/ RMK AC1CI2 VIS SE-SW 5

CYYC;2009-06-08 12:47;CYYC 081247Z CCA 31004KT 3/4SM BR FEW007 FEW075 BKN220 00/ RMK ST1AC1CI2 VIS S-W 5 / RVR RWY 34 6000+ FT

CYYC;2009-06-08 13:00;CYYC 081300Z CCA 34003KT 1/2SM FG FEW005 FEW075 BKN220 01/M00 A3005 RMK ST1AC1CI1 VIS SW 5 / RVR RWY 34 6000+ FT / RVR RWY 16 900 FT SLP207

CYYC;2009-06-08 13:20;CYYC 081320Z 35003KT 1/2SM FG FEW005 FEW030 FEW080 OVC250 01/ RMK FG1ST1SC1AC1CI0 VIS SW 5 / RVR RWY 34 6000+ FT / RVR RWY 16 800 FT

CYYC;2009-06-08 13:43;CYYC 081343Z 34002KT 6SM BR FEW024 BKN230 02/ RMK SC2CI1 VIS N-NE-E 3/4 MI/FG BNK N-NE-E/

CYYC;2009-06-08 14:00;CYYC 081400Z 12005KT 6SM BR SCT011 BKN024 BKN230 03/02 A3005 RMK SC4SC2CI0 SLP208

CYYC;2009-06-08 14:09;CYYC 081409Z 13005KT 6SM BR BKN012 04/ RMK SC7

CYYC;2009-06-08 14:18;CYYC 081418Z 15005KT 7SM BKN009 04/ RMK SC7

CYYC;2009-06-08 15:00;CYYC 081500Z 11005KT 7SM OVC009 04/02 A3005 RMK SC7 SLP206

CYYC;2009-06-08 15:39;CYYC 081539Z 15005KT 7SM SCT010 BKN034 05/ RMK SC4SC2

CYYC;2009-06-08 16:00;CYYC 081600Z 13005KT 8SM SCT010 BKN030 OVC035 04/02 A3005 RMK SC4SC2SC2 SLP206

CYYC;2009-06-08 17:00;CYYC 081700Z 12007KT 8SM FEW015 SCT030 OVC045 06/02 A3005 RMK SC2SC2SC3 SLP206

CYYC;2009-06-08 18:00;CYYC 081800Z 18004KT 20SM FEW020 SCT030 BKN040 08/02 A3004 RMK SC2SC2SC3 SLP202

CYYC;2009-06-08 19:00;CYYC 081900Z 18006KT 20SM FEW030 SCT045 SCT200 09/M01 A3003 RMK SC2SC2CI1 SLP199

CYYC;2009-06-08 20:00;CYYC 082000Z 11009KT 20SM SCT042 SCT080 09/M01 A3001 RMK SC4AC1 SLP194

CYYC;2009-06-08 21:00;CYYC 082100Z 16006KT 30SM SCT050 BKN082 10/M01 A3000 RMK CU4AC1 TCU ASOCTD SLP189

CYYC;2009-06-08 22:00;CYYC 082200Z 18006KT 30SM SCT050 BKN080 12/M02 A3000 RMK CU3AC2 SLP189

CYYC;2009-06-08 23:00;CYYC 082300Z 16006KT 30SM SCT052 BKN090 11/M02 A2998 RMK CU4AC2 SH ALQDS/TCU ASSOCTD SLP183

CYYC;2009-06-09 00:00;CYYC 090000Z 19013KT 30SM SCT058 BKN080 BKN100 10/M01 A2998 RMK CU4AC2AC1 SH ALQDS/TCU ASSOCTD SLP183

CYYC;2009-06-09 01:00;CYYC 090100Z 20003KT 30SM FEW036 BKN050 BKN080 10/M08 A2998 RMK CU1SC4AC1 SH ALQDS/TCU ASOCTD SLP183

CYYC;2009-06-09 02:00;CYYC 090200Z 12006KT 30SM FEW040 SCT062TCU OVC190 10/M01 A2998 RMK SC2TCU2AC4 DIST SH NE SLP183

CYYC;2009-06-09 03:00;CYYC 090300Z 12007KT 20SM FEW040 FEW065TCU BKN100 OVC190 08/M01 A2998 RMK SC2TCU1AC4AC2 VIRGA E SLP181

CYYC;2009-06-09 04:00;CYYC 090400Z 12007KT 20SM FEW050 SCT080 OVC150 08/M01 A2998 RMK SC2AC2AC4 SLP181

CYYC;2009-06-09 05:00;CYYC 090500Z 11013KT 15SM SCT065 BKN082 OVC160 07/00 A2999 RMK SC3AC3AC1 SLP184

CYYC;2009-06-09 06:00;CYYC 090600Z 11013KT 15SM SCT052 BKN090 OVC160 06/01 A2999 RMK SC3AC4AC1 SLP182

CYYC;2009-06-09 07:00;CYYC 090700Z 13010KT 15SM FEW060 BKN095 OVC160 05/01 A2999 RMK SC2AC5AC1 SLP183

CYYC;2009-06-09 08:00;CYYC 090800Z 14010KT 15SM FEW050 BKN099 OVC130 05/02 A2998 RMK SC2AS3AC2 SLP180

CYYC;2009-06-09 09:00;CYYC 090900Z 16008KT 15SM FEW060 SCT078 OVC096 05/02 A2999 RMK SC2AC2AC4 SLP181

CYYC;2009-06-09 10:00;CYYC 091000Z 16007KT 15SM FEW060 SCT075 OVC090 04/02 A2999 RMK CU2AC2AC5 SLP181

CYYC;2009-06-09 11:00;CYYC 091100Z 16002KT 15SM SCT008 BKN016 OVC065 03/02 A2998 RMK SC4SC2SC2 SLP179

CYYC;2009-06-09 12:00;CYYC 091200Z 18002KT 20SM FEW008 FEW160 OVC210 03/02 A2998 RMK SC2AC1CI4 SLP181

CYYC;2009-06-09 13:00;CYYC 091300Z 12003KT 20SM FEW016 SCT040 BKN220 05/03 A3000 RMK SC2SC2CI2 SLP186

CYYC;2009-06-09 14:00;CYYC 091400Z 13004KT 15SM FEW014 FEW080 FEW100 06/03 A3001 RMK CU1AC1AC2 ACC ASOCTD E SLP188

CYYC;2009-06-09 15:00;CYYC 091500Z 13005KT 15SM FEW017 FEW070 SCT100 08/03 A3001 RMK CU1AC2AC1 SLP187

CYYC;2009-06-09 16:00;CYYC 091600Z 12006KT 20SM FEW024 SCT050 BKN090 08/03 A3002 RMK CU2SC1AC1 SH NW / TCU ASOCTD SLP190

CYYC;2009-06-09 17:00;CYYC 091700Z 14009KT 20SM FEW027TCU FEW050 FEW230 10/03 A3002 RMK TCU2SC1CI1 SH SW-NW SLP189

CYYC;2009-06-09 18:00;CYYC 091800Z 16008KT 20SM BKN032TCU 10/02 A3002 RMK TCU7 SH S-NW SLP189

CYYC;2009-06-09 19:00;CYYC 091900Z 27006KT 30SM BKN040TCU BKN051 BKN088 10/02 A3002 RMK TCU6SC1AC1 SH SE-SW SLP188

CYYC;2009-06-09 19:25;CYYC 091925Z 24006KT 20SM -SHRA BKN040TCU BKN050 BKN090 09/ RMK TCU6SC1AC1

CYYC;2009-06-09 19:52;CYYC 091952Z 26006KT 20SM BKN040TCU BKN050 BKN080 11/ RMK TCU5SC1AC1 SH N-SW

CYYC;2009-06-09 20:00;CYYC 092000Z 23004KT 30SM BKN040TCU BKN080 12/03 A3001 RMK TCU5AC1 SH N-SW SLP186

CYYC;2009-06-09 21:00;CYYC 092100Z 20003KT 30SM FEW044TCU FEW050 FEW080 11/M00 A3000 RMK TCU2SC1AC1 SH NE-SE SLP183

CYYC;2009-06-09 22:00;CYYC 092200Z 20003KT 30SM FEW055 FEW080 FEW240 14/M01 A3000 RMK CU2AC1CI1 SH NE+SW / TCU ASOCTD SLP182

CYYC;2009-06-09 23:00;CYYC 092300Z CCA 23004KT 40SM FEW060 FEW080 FEW260 14/M01 A2999 RMK CU2AC1CI1 SH NE+E / CB ASOCTD SLP179

CYYC;2009-06-10 00:00;CYYC 100000Z 19004KT 40SM SCT060 SCT080 SCT240 13/M02 A2998 RMK CU3AC1CI1 TCU ASOCTD SLP175

CYYC;2009-06-10 01:00;CYYC 100100Z 16003KT 40SM FEW065 FEW085 FEW240 14/M01 A2998 RMK CU2AC1CI1 TCU ASOCTD SLP174

CYYC;2009-06-10 02:00;CYYC 100200Z 13008KT 40SM FEW070 FEW230 13/00 A2997 RMK CU2CI0 SLP172

CYYC;2009-06-10 03:00;CYYC 100300Z 18010KT 40SM FEW070 FEW240 12/M01 A2997 RMK CU1CI0 SLP167

CYYC;2009-06-10 04:00;CYYC 100400Z 18013KT 20SM FEW060 FEW240 11/01 A2997 RMK CU1CI0 CU TR SLP168

CYYC;2009-06-10 05:00;CYYC 100500Z 19008KT 15SM FEW240 09/01 A2997 RMK CI1 CI TR SLP168

CYYC;2009-06-10 06:00;CYYC 100600Z 20007KT 15SM SKC 08/01 A2997 RMK SLP171

CYYC;2009-06-10 07:00;CYYC 100700Z 20005KT 15SM SKC 07/01 A2997 RMK SLP171

CYYC;2009-06-10 08:00;CYYC 100800Z 20005KT 15SM SKC 06/01 A2996 RMK SLP168

CYYC;2009-06-10 09:00;CYYC 100900Z 16005KT 15SM SKC 04/01 A2995 RMK SLP166

CYYC;2009-06-10 10:00;CYYC 101000Z 15003KT 15SM FEW230 05/00 A2994 RMK CI1 CI TR SLP164

CYYC;2009-06-10 11:00;CYYC 101100Z CCA 19003KT 40SM FEW140 FEW230 04/01 A2994 RMK AC1CI1 AC/CI TR SLP163

CYYC;2009-06-10 12:00;CYYC 101200Z 24003KT 40SM FEW140 FEW230 03/M00 A2994 RMK AC1CI1 AC/CI TR SLP163

CYYC;2009-06-10 13:00;CYYC 101300Z 00000KT 40SM FEW250 04/01 A2995 RMK CI0 SLP164

CYYC;2009-06-10 14:00;CYYC 101400Z 00000KT 40SM FEW180 FEW220 07/01 A2995 RMK AC1CI1 SLP164

CYYC;2009-06-10 15:00;CYYC 101500Z 05002KT 40SM FEW190 FEW270 10/01 A2995 RMK AC1CI1 SLP155

CYYC;2009-06-10 16:00;CYYC 101600Z 14003KT 40SM FEW050 FEW170 FEW280 12/M00 A2995 RMK CU1AC1CI0 CONTRAILS SLP155

CYYC;2009-06-10 17:00;CYYC 101700Z 15006KT 40SM FEW052 BKN280 13/M00 A2994 RMK CU1CI0 CONTRAILS SLP154

CYYC;2009-06-10 18:00;CYYC 101800Z CCA 13004KT 40SM FEW060 FEW190 SCT280 15/M01 A2994 RMK CU1AC1CI0 SLP152

CYYC;2009-06-10 19:00;CYYC 101900Z 05004KT 40SM FEW070 FEW180 SCT280 17/M02 A2994 RMK CU1AC1CI0 CONTRAILS SLP152

CYYC;2009-06-10 20:00;CYYC 102000Z 35006KT 40SM FEW070 FEW260 17/M01 A2993 RMK CU1CI0 SLP150

CYYC;2009-06-10 21:00;CYYC 102100Z 33004KT 40SM FEW070 FEW240 18/M00 A2993 RMK CU1CI0 SLP149

CYYC;2009-06-10 22:00;CYYC 102200Z 24005KT 40SM FEW070 FEW140 FEW220 18/M01 A2992 RMK CU1AC1CI1 SLP146

CYYC;2009-06-10 23:00;CYYC 102300Z 00000KT 40SM FEW078 FEW120 FEW260 17/M02 A2992 RMK CU1AC1CI1 SH DIST W SLP146

CYYC;2009-06-11 00:00;CYYC 110000Z 04008KT 40SM FEW078 SCT100 SCT260 17/M01 A2991 RMK CU2AC2CI1 SH S-W SLP147

CYYC;2009-06-11 01:00;CYYC 110100Z 35002KT 40SM FEW078 BKN089 17/M01 A2991 RMK CU2AC2 SH DIST SW SLP146

CYYC;2009-06-11 02:00;CYYC 110200Z 03007KT 40SM FEW065 FEW085 18/M02 A2992 RMK CU1AC1 SLP149

CYYC;2009-06-11 03:00;CYYC 110300Z 04007KT 40SM FEW060 FEW080 FEW240 16/M01 A2993 RMK CU1AC1CI0 SLP143

CYYC;2009-06-11 04:00;CYYC 110400Z 04006KT 20SM FEW120 FEW230 14/M00 A2993 RMK AC1CI0 SLP145

CYYC;2009-06-11 05:00;CYYC 110500Z 36003KT 15SM FEW100 FEW240 11/00 A2994 RMK AC1CI0 SLP148

CYYC;2009-06-11 06:00;CYYC 110600Z 34006KT 15SM FEW100 FEW240 11/M00 A2994 RMK AC1CI0 AC TR SLP148

CYYC;2009-06-11 07:00;CYYC 110700Z 32005KT 15SM FEW100 FEW240 09/00 A2994 RMK AC1CI0 AC TR SLP149

CYYC;2009-06-11 08:00;CYYC 110800Z 30002KT 15SM FEW100 FEW240 08/00 A2994 RMK AC1CI1 TR AC/CI SLP148

CYYC;2009-06-11 09:00;CYYC 110900Z 35003KT 15SM FEW110 07/01 A2993 RMK AC1 TR AC SLP147

CYYC;2009-06-11 10:00;CYYC 111000Z CCA 32003KT 15SM FEW110 FEW250 07/02 A2993 RMK AC1CI1 TR AC/CI SLP146

CYYC;2009-06-11 11:00;CYYC 111100Z 00000KT 25SM FEW150 FEW250 06/02 A2992 RMK AC1CI1 TR AC SLP143

CYYC;2009-06-11 12:00;CYYC 111200Z 00000KT 40SM FEW150 FEW250 06/02 A2992 RMK AC1CI1 TR AC SLP145

CYYC;2009-06-11 13:00;CYYC 111300Z 00000KT 40SM BKN096 BKN250 08/03 A2992 RMK AC3CC1 SLP145

CYYC;2009-06-11 14:00;CYYC 111400Z 00000KT 40SM FEW090 FEW230 13/05 A2991 RMK AC1CI1 SLP143

CYYC;2009-06-11 15:00;CYYC 111500Z CCA 23005KT 40SM FEW090 FEW250 16/04 A2991 RMK AC1CI0 SLP131

CYYC;2009-06-11 16:00;CYYC 111600Z 27004KT 40SM FEW052 FEW090 FEW210 18/05 A2991 RMK CU1AC1CI0 CU+CI TR SLP129

CYYC;2009-06-11 17:00;CYYC 111700Z 23004KT 40SM FEW064 FEW090 FEW200 18/03 A2990 RMK CU1AC1CI1 ALL CLDS TR SLP126

CYYC;2009-06-11 18:00;CYYC 111800Z 16006KT 40SM FEW068 20/03 A2989 RMK CU1 SLP123

CYYC;2009-06-11 19:00;CYYC 111900Z 19002KT 40SM SCT070 19/03 A2988 RMK CU3 SLP120

CYYC;2009-06-11 20:00;CYYC 112000Z 35005KT 40SM FEW078 FEW170 FEW220 21/00 A2987 RMK CU2AC1CI1 SLP117

CYYC;2009-06-11 21:00;CYYC 112100Z 33003KT 40SM FEW084 22/01 A2986 RMK CU1 SLP115

CYYC;2009-06-11 22:00;CYYC 112200Z 06004KT 40SM FEW084 FEW220 23/02 A2984 RMK CU1CI0 SLP110

CYYC;2009-06-11 23:00;CYYC 112300Z 05004KT 40SM FEW085 FEW160 BKN220 22/01 A2983 RMK CU1AC1CI0 SLP107

CYYC;2009-06-12 00:00;CYYC 120000Z 12005KT 40SM FEW040 FEW080 FEW180 OVC220 23/02 A2982 RMK SC1CU1AC0CI0 HZ SLP104

CYYC;2009-06-12 01:00;CYYC 120100Z 05003KT 40SM FEW090 FEW140 OVC220 22/02 A2982 RMK CU1AC1CI2 SH E/HZ SLP104

CYYC;2009-06-12 02:00;CYYC 120200Z 09007KT 25SM FEW080 BKN110 BKN240 22/01 A2983 RMK AC2AC3CI1 SLP105

CYYC;2009-06-12 03:00;CYYC 120300Z 10008KT 30SM FEW080 FEW120 SCT250 20/02 A2983 RMK AC1AC2CI0 SLP097

CYYC;2009-06-12 04:00;CYYC 120400Z 12007KT 30SM FEW080 FEW120 SCT250 18/02 A2984 RMK AC1AC1CI0 SLP100

CYYC;2009-06-12 05:00;CYYC 120500Z 14006KT 15SM FEW130 SCT250 15/03 A2985 RMK AC1CI1 SLP103

CYYC;2009-06-12 06:00;CYYC 120600Z 00000KT 15SM BKN130 BKN240 16/02 A2985 RMK AC5CI1 SLP105

CYYC;2009-06-12 07:00;CYYC 120700Z 02005KT 15SM BKN130 BKN240 14/04 A2986 RMK AC5CI1 SLP106

CYYC;2009-06-12 08:00;CYYC 120800Z 36009KT 15SM BKN099 OVC240 13/04 A2986 RMK AC6CI2 SLP106

CYYC;2009-06-12 09:00;CYYC 120900Z 04010KT 15SM BKN120 BKN240 13/03 A2988 RMK AC5CI2 SLP116

CYYC;2009-06-12 10:00;CYYC 121000Z 01011KT 15SM FEW120 SCT250 11/04 A2990 RMK AC1CI0 SLP120

CYYC;2009-06-12 11:00;CYYC 121100Z 03008KT 20SM FEW130 FEW250 11/04 A2992 RMK AC2CI0 SLP126

CYYC;2009-06-12 12:00;CYYC 121200Z CCA 30005KT 20SM FEW130 FEW250 09/05 A2995 RMK AC1CI0 SLP143

CYYC;2009-06-12 13:00;CYYC 121300Z 35005KT 20SM FEW130 FEW250 10/05 A2996 RMK AC1CI1 SLP145

CYYC;2009-06-12 14:00;CYYC 121400Z 00000KT 20SM FEW130 FEW250 13/06 A2996 RMK AC1CI1 AC TR SLP146

CYYC;2009-06-12 15:00;CYYC 121500Z 17003KT 20SM FEW120 FEW250 15/06 A2997 RMK AC1CI0 SLP144

CYYC;2009-06-12 16:00;CYYC 121600Z 09004KT 15SM FEW120 FEW250 16/06 A2996 RMK AC1CI0 CONTRAILS SLP143

CYYC;2009-06-12 17:00;CYYC 121700Z 12006KT 20SM FEW075 FEW220 17/06 A2996 RMK AC1CI1 CONTRAILS / AC TR SLP141

CYYC;2009-06-12 18:00;CYYC 121800Z 12007KT 20SM FEW050 SCT130 BKN220 18/05 A2995 RMK CU1AC3CI0 CONTRAILS SLP140

CYYC;2009-06-12 19:00;CYYC 121900Z 13007KT 20SM FEW053 SCT110 BKN220 19/06 A2994 RMK CU1AC3CI0 SLP137

CYYC;2009-06-12 20:00;CYYC 122000Z 16007KT 20SM FEW060CB FEW100 SCT220 21/06 A2993 RMK CB1AC1CI0 CB W / CONTRAILS SLP133

CYYC;2009-06-12 21:00;CYYC 122100Z 13008KT 15SM FEW060TCU FEW100 FEW220 21/06 A2990 RMK TCU1AC1CI2 TCU SW-NW / CONTRAILS / TCU + AC TR SLP125

CYYC;2009-06-12 22:00;CYYC 122200Z CCA 18010KT 15SM FEW060 SCT160 BKN240 22/06 A2990 RMK CU2AS2CI0 TCU EMBD / HZ SLP125

CYYC;2009-06-12 23:00;CYYC 122300Z 23003KT 20SM FEW060TCU BKN190 BKN210 21/07 A2990 RMK TCU2AS3CI1 SH DIST SW SLP123

CYYC;2009-06-12 23:21;CYYC 122321Z CCB 25014KT 8SM SHRAGR FEW065CB BKN170 OVC210 20/ RMK CB2AS2CI1 LTGCG DIST W / HAIL DIAM 4 MM

CYYC;2009-06-12 23:29;CYYC 122329Z 22011G19KT 8SM TSRAGR BKN065CB OVC170 17/ RMK CB6AS2 LTGCG DIST W / HAIL DIAM 4 MM

CYYC;2009-06-13 00:00;CYYC 130000Z 26010G20KT 8SM -TSRA BKN063CB BKN170 OVC220 16/09 A2992 RMK CB6AS1CI0 LTGCG DIST E / VIS SW 20 SLP140

CYYC;2009-06-13 00:33;CYYC 130033Z CCA 26018G24KT 20SM SCT060CB BKN100 16/ RETS RMK CB4AC2 SH DIST E

CYYC;2009-06-13 01:00;CYYC 130100Z 28006KT 20SM BKN060CB BKN140 BKN230 16/08 A2992 RETS RMK CB6AC1CI0 SH DIST E + S-SW / VIRGA ALQDS SLP141

CYYC;2009-06-13 02:00;CYYC 130200Z 32003KT 30SM FEW060CB BKN130 BKN250 15/08 A2993 RMK CB1AC5CI0 VIRGA SW SLP144

CYYC;2009-06-13 03:00;CYYC 130300Z 27004KT 20SM FEW080 BKN130 BKN250 16/08 A2992 RMK AC2AC2CI1 SLP134

CYYC;2009-06-13 04:00;CYYC 130400Z 17005KT 20SM FEW080 SCT160 BKN250 15/09 A2992 RMK AC2AC2CI1 SLP135

CYYC;2009-06-13 05:00;CYYC 130500Z 17006KT 15SM FEW080 FEW160 FEW250 12/08 A2992 RMK AC1AC0CI0 SLP135

CYYC;2009-06-13 06:00;CYYC 130600Z 15009KT 15SM BKN130 12/08 A2992 RMK AC3 SLP135

CYYC;2009-06-13 07:00;CYYC 130700Z 18006KT 15SM FEW130 13/08 A2991 RMK AC1 SLP133

CYYC;2009-06-13 08:00;CYYC 130800Z 20004KT 15SM FEW130 11/08 A2990 RMK AC1 SLP130

CYYC;2009-06-13 09:00;CYYC 130900Z 21008KT 15SM SKC 11/08 A2990 RMK SLP126

CYYC;2009-06-13 10:00;CYYC 131000Z 22003KT 15SM FEW140 10/08 A2989 RMK AC1 AC TR SLP122

CYYC;2009-06-13 11:00;CYYC 131100Z 20003KT 15SM FEW080 FEW140 09/07 A2989 RMK AC1AC1 CLDS TR SLP124

CYYC;2009-06-13 12:00;CYYC 131200Z 13004KT 20SM FEW090 09/06 A2988 RMK AC1 AC TR SLP130

CYYC;2009-06-13 13:00;CYYC 131300Z 22005KT 30SM FEW090 10/07 A2990 RMK AC1 AC TR SLP134

CYYC;2009-06-13 14:00;CYYC 131400Z 22006KT 30SM FEW090 12/08 A2989 RMK AC1 AC TR SLP132

CYYC;2009-06-13 15:00;CYYC 131500Z 26004KT 40SM FEW090 FEW200 17/08 A2988 RMK AC1CI1 AC+CI TR SLP120

CYYC;2009-06-13 16:00;CYYC 131600Z 00000KT 40SM FEW044 FEW100 FEW200 20/08 A2988 RMK CU1AC1CI1 ALL CLDS TR SLP118

CYYC;2009-06-13 17:00;CYYC 131700Z 17013KT 40SM FEW060 FEW170 FEW200 22/08 A2987 RMK CU1AC1CI1 ALL CLDS TR SLP115

CYYC;2009-06-13 18:00;CYYC 131800Z 25002KT 40SM FEW072 FEW170 FEW200 23/05 A2986 RMK CU1AC1CI1 SLP109

CYYC;2009-06-13 19:00;CYYC 131900Z 27009KT 40SM FEW076 FEW170 24/05 A2986 RMK CU2AC1 AC TR SLP107

CYYC;2009-06-13 20:00;CYYC 132000Z 20005KT 40SM FEW080 FEW170 FEW210 24/04 A2984 RMK CU2AC1CI1 AC+CI TR SLP100

CYYC;2009-06-13 21:00;CYYC 132100Z 36005KT 40SM FEW084 FEW170 25/04 A2982 RMK CU2AC1 AC TR SLP093

CYYC;2009-06-13 22:00;CYYC 132200Z 27002KT 40SM FEW088 FEW090 FEW210 25/04 A2981 RMK CU2AC1CI1 CI TR SLP089

CYYC;2009-06-13 23:00;CYYC 132300Z 00000KT 40SM FEW076 SCT120 BKN140 24/05 A2980 RMK CU2AC2AC1 VIRGA W+NW/ TCU ASOCTD SLP087

CYYC;2009-06-13 23:49;CYYC 132349Z 09005KT 30SM TS SCT084CB BKN140 BKN180 26/ RMK CB3AC2AC0 LTNG NW/SH W-NW

CYYC;2009-06-14 00:00;CYYC 140000Z 10003KT 30SM TS SCT090CB BKN140 BKN180 26/03 A2980 RMK CB3AC2AC0 LTNG NW/SH W-NW SLP087

CYYC;2009-06-14 00:24;CYYC 140024Z CCA 00000KT 30SM BKN090CB BKN140 24/ RETS RMK CB5AC2 SH W+NW

CYYC;2009-06-14 00:31;CYYC 140031Z 34013G19KT 30SM TS BKN090CB BKN140 22/ RMK CB5AC2 SH W+NW

CYYC;2009-06-14 00:41;CYYC 140041Z 36008G19KT 30SM -TSRA BKN086CB BKN140 22/ RMK CB5AC2

CYYC;2009-06-14 01:00;CYYC 140100Z 12019KT 30SM TSRAPL BKN080CB OVC140 18/09 A2983 RMK CB6AC2 VIS NW 4 M/OCNL DIST LTGCG W SLP096

CYYC;2009-06-14 01:12;CYYC 140112Z 34021KT 30SM TSRAGR BKN080CB OVC140 16/ RMK CB6AC2 VIS NW 4 M/OCNL DIST LTGCG W/HAIL DIAM 6 MM

CYYC;2009-06-14 01:35;CYYC 140135Z 01012G17KT 30SM -TSRA BKN080CB OVC140 17/ RERAGR RMK CB6AC2 VIS NW 8 M/LTGCG

CYYC;2009-06-14 01:55;CYYC 140155Z 03011KT 30SM FEW040 BKN090CB BKN140 17/ RETSRAGR RMK CF1CB6AC1 LTGCG NE / SH NE

CYYC;2009-06-14 02:00;CYYC 140200Z 03010KT 30SM FEW040 BKN090CB BKN140 17/10 A2982 RETSRAGR RMK CF1CB5AC1 SH DIST NE+W / VIRGA W / VIS NE LWR SLP095

CYYC;2009-06-14 03:00;CYYC 140300Z 05004KT 30SM FEW040 BKN100CB BKN160 18/07 A2982 RMK CF1CB4AC1 SH DIST NE+NW / VIRGA W - NE / LTGCG DIST NW SLP093

CYYC;2009-06-14 04:00;CYYC 140400Z 35005KT 30SM FEW080CB FEW100 BKN200 17/09 A2983 RMK CB2AC1CI3 ACC ASOCTD W / VIRGA ALQDS SLP097

CYYC;2009-06-14 05:00;CYYC 140500Z 30002KT 15SM FEW080CB FEW100 BKN240 16/09 A2984 RMK CB1AC1CI1 SLP098

CYYC;2009-06-14 06:00;CYYC 140600Z 28006KT 15SM FEW110 FEW180 SCT240 16/06 A2984 RMK AC1AS1CI2 SLP095

CYYC;2009-06-14 07:00;CYYC 140700Z 33002KT 15SM SKC 14/07 A2984 RMK SLP095

CYYC;2009-06-14 08:00;CYYC 140800Z 29003KT 15SM SKC 13/07 A2984 RMK SLP094

CYYC;2009-06-14 09:00;CYYC 140900Z 31003KT 15SM SKC 11/07 A2984 RMK SLP097

CYYC;2009-06-14 10:00;CYYC 141000Z 00000KT 15SM FEW240 12/06 A2984 RMK CI0 SLP098

CYYC;2009-06-14 11:00;CYYC 141100Z 00000KT 20SM FEW100 FEW250 12/06 A2985 RMK AC1CI1 SLP101

CYYC;2009-06-14 12:00;CYYC 141200Z 23005KT 30SM FEW100 BKN250 12/05 A2985 RMK AC1CI1 SLP101

CYYC;2009-06-14 13:00;CYYC 141300Z 30002KT 30SM FEW100 BKN240 13/06 A2986 RMK AC2CI0 SLP106

CYYC;2009-06-14 14:00;CYYC 141400Z 30003KT 30SM FEW090 BKN120 BKN250 14/08 A2986 RMK AC1AC4CI1 SLP106

CYYC;2009-06-14 15:00;CYYC 141500Z 23005KT 30SM FEW090 SCT120 BKN250 17/08 A2986 RMK AC1AC2CI2 SLP108

CYYC;2009-06-14 16:00;CYYC 141600Z 23006KT 30SM FEW060 FEW090 SCT120 BKN250 19/09 A2986 RMK CU1AC1AC2CI2 CU TR SLP109

CYYC;2009-06-14 17:00;CYYC 141700Z 06002KT 30SM FEW060 SCT095 BKN250 20/09 A2985 RMK CU1AC3CI2 VIRGA NE SLP104

CYYC;2009-06-14 18:00;CYYC 141800Z 35004KT 30SM FEW060 SCT095 SCT190 BKN250 23/08 A2984 RMK CU1AC2AC1CI2 SLP096

CYYC;2009-06-14 19:00;CYYC 141900Z 33002KT 30SM FEW060 FEW095 FEW160 BKN250 24/07 A2983 RMK CU1AC1AC1CI2 SLP092

CYYC;2009-06-14 20:00;CYYC 142000Z 07004KT 30SM FEW060 FEW090 FEW160 BKN250 24/05 A2982 RMK CU1AC1AC1CI2 VIRGA SW SLP089

CYYC;2009-06-14 21:00;CYYC 142100Z 00000KT 40SM FEW065 SCT100 BKN220 BKN260 24/04 A2981 RMK CU2AC2CI3CI0 VIRGA SW/ TCU PRSNT N SLP090

CYYC;2009-06-14 22:00;CYYC 142200Z 20007KT 40SM FEW065 SCT100 BKN240 25/07 A2981 RMK CU1AC2CI2 SLP089

CYYC;2009-06-14 23:00;CYYC 142300Z 27002KT 30SM FEW065CB SCT100 BKN250 24/09 A2981 RMK CB1AC2CI2 SLP090

CYYC;2009-06-15 00:00;CYYC 150000Z 03009KT 30SM FEW065CB SCT100 BKN250 24/09 A2979 RMK CB2AC2CI0 SLP084

CYYC;2009-06-15 01:00;CYYC 150100Z 03009KT 30SM FEW070CB FEW110 BKN250 23/09 A2980 RMK CB1AC2CI1 SLP086

CYYC;2009-06-15 02:00;CYYC 150200Z 02011KT 20SM FEW060TCU FEW100 BKN220 23/08 A2980 RMK TCU1AC1CI1 HZ / TCU NE-SE SLP085

CYYC;2009-06-15 03:00;CYYC 150300Z 02009KT 20SM FEW060TCU FEW140 BKN220 22/08 A2981 RMK TCU1AC2CI1 HZ / TCU TR SLP084

CYYC;2009-06-15 04:00;CYYC 150400Z 03006KT 20SM FEW140 SCT240 20/08 A2982 RMK AC2CI1 SLP087

CYYC;2009-06-15 05:00;CYYC 150500Z 01004KT 15SM FEW140 SCT240 17/08 A2982 RMK AC2CI2 SLP089

CYYC;2009-06-15 06:00;CYYC 150600Z 33005KT 15SM BKN100 17/08 A2982 RMK AC5 SLP089

CYYC;2009-06-15 07:00;CYYC 150700Z 35006KT 15SM FEW100 SCT130 16/08 A2983 RMK AC2AC2 LTGCG DIST SW SLP092

CYYC;2009-06-15 08:00;CYYC 150800Z 32010KT 15SM FEW080 BKN140 15/08 A2983 RMK AC2AC4 SLP092

CYYC;2009-06-15 09:00;CYYC 150900Z 32012KT 15SM FEW080 FEW140 BKN240 16/08 A2983 RMK AC1AC1CI2 AC + AC TR SLP090

CYYC;2009-06-15 10:00;CYYC 151000Z 32010KT 15SM FEW100 BKN240 15/08 A2982 RMK AC1CI2 SLP087

CYYC;2009-06-15 11:00;CYYC 151100Z 31005KT 15SM FEW140 BKN240 14/08 A2981 RMK AC1CI2 SLP086

CYYC;2009-06-15 12:00;CYYC 151200Z 35003KT 30SM FEW090 FEW140 BKN240 14/08 A2981 RMK AC1AC2CI2 SLP086

CYYC;2009-06-15 13:00;CYYC 151300Z CCA 33002KT 30SM FEW110 FEW140 FEW240 14/08 A2981 RMK AC1AC1CI1 AC TR / VIRGA N SLP086

CYYC;2009-06-15 14:00;CYYC 151400Z 36002KT 40SM FEW110 FEW140 16/09 A2982 RMK ACC1AC1 VIRGA NW-N SLP090

CYYC;2009-06-15 15:00;CYYC 151500Z 34005KT 40SM FEW100 SCT130 18/10 A2983 RMK ACC1AC3 VIRGA N SLP090

CYYC;2009-06-15 16:00;CYYC 151600Z 04012KT 40SM FEW045 FEW099 BKN140 20/09 A2983 RMK CU1AC1AC4 ACC ASOCTD SLP090

CYYC;2009-06-15 17:00;CYYC 151700Z 03008KT 40SM FEW045 FEW100 SCT140 SCT270 21/10 A2983 RMK CU1AC2AC1CI1 ACC ASOCTD SLP090

CYYC;2009-06-15 18:00;CYYC 151800Z 01009G15KT 40SM FEW048CB FEW140 FEW280 22/10 A2982 RMK CB1AC1CI0 CB SW-W SLP089

CYYC;2009-06-15 19:00;CYYC 151900Z 05008KT 40SM FEW056CB FEW140 FEW280 23/09 A2981 RMK CB1AC1CI1 CB SW-NW SLP084

CYYC;2009-06-15 20:00;CYYC 152000Z 12005KT 30SM FEW060CB FEW280 24/08 A2980 RMK CB1CI1 SH SW-NW SLP082

CYYC;2009-06-15 21:00;CYYC 152100Z CCA 11005KT 30SM BKN072TCU BKN120 BKN260 26/08 A2979 RMK TCU6AC1CI1 SH S-NW / CB ASOCTD SLP076

CYYC;2009-06-15 21:43;CYYC 152143Z CCA 26024KT 30SM SCT072TCU BKN130 20/ RMK TCU4AC2 SH S-N / CB ASOCTD / WSHFT 2129Z

CYYC;2009-06-15 22:00;CYYC 152200Z 28017G24KT 30SM SCT072TCU SCT100 BKN120 19/08 A2981 RMK TCU4AC1AC3 SH SE-N / CB ASOCTD SLP080

CYYC;2009-06-15 23:00;CYYC 152300Z 30018KT 30SM SCT072TCU SCT120 BKN190 18/08 A2981 RMK TCU3AC1AC2 SH S-N / CB ASOCTD SLP081

CYYC;2009-06-16 00:00;CYYC 160000Z 26015G20KT 30SM FEW072TCU SCT090 BKN180 18/08 A2982 RMK TCU2AC1AS4 SH S-NE SLP098

CYYC;2009-06-16 01:00;CYYC 160100Z 32010KT 40SM FEW040CB BKN120 BKN180 18/09 A2982 RMK CB1AC5AS2 SH N-S / CB E SLP097

CYYC;2009-06-16 02:00;CYYC 160200Z 36005KT 30SM FEW050CB FEW090 OVC190 18/09 A2983 RMK CB1AC2AC6 SLP100

CYYC;2009-06-16 03:00;CYYC 160300Z 36006KT 30SM FEW050CB BKN100 OVC190 17/09 A2982 RMK CB1AC6AC2 SLP093

CYYC;2009-06-16 04:00;CYYC 160400Z 34006KT 20SM FEW060 BKN110 OVC190 16/08 A2983 RMK SC1AC5AC2 SLP097

CYYC;2009-06-16 05:00;CYYC 160500Z 36002KT 15SM FEW060 FEW088 BKN120 OVC190 16/09 A2984 RMK SC1AC2AC4AC1 SLP099

CYYC;2009-06-16 06:00;CYYC 160600Z 24004KT 15SM FEW090 FEW130 OVC240 15/09 A2982 RMK AC1AC2CI4 SLP092

CYYC;2009-06-16 07:00;CYYC 160700Z 00000KT 15SM FEW120 BKN250 14/08 A2982 RMK AC1CI2 SLP092

CYYC;2009-06-16 08:00;CYYC 160800Z 26004KT 15SM FEW120 SCT240 13/08 A2982 RMK AC1CI2 SLP090

CYYC;2009-06-16 09:00;CYYC 160900Z CCA 00000KT 15SM FEW110 SCT250 12/08 A2980 RMK AC1CI1 SLP084

CYYC;2009-06-16 10:00;CYYC 161000Z 27003KT 15SM FEW120 SCT240 12/08 A2982 RMK AC1CI1 SLP088

CYYC;2009-06-16 11:00;CYYC 161100Z 25002KT 20SM FEW090 FEW120 BKN250 12/08 A2981 RMK AC1AC2CI1 SLP086

CYYC;2009-06-16 12:00;CYYC 161200Z 00000KT 30SM FEW090 SCT120 BKN250 13/07 A2981 RMK AC1AC2CI2 SLP095

CYYC;2009-06-16 13:00;CYYC 161300Z 30002KT 40SM FEW090 BKN120 15/08 A2981 RMK AC1AC5 SLP096

CYYC;2009-06-16 14:00;CYYC 161400Z 32011KT 40SM FEW120 SCT160 SCT250 18/07 A2982 RMK AC2AC1CI1 SLP100

CYYC;2009-06-16 15:00;CYYC 161500Z 32013G20KT 40SM BKN120 BKN180 BKN250 18/09 A2984 RMK AC6AC1CI1 SLP099

CYYC;2009-06-16 16:00;CYYC 161600Z 32015KT 40SM FEW044 FEW100 BKN130 20/10 A2984 RMK CU1AC1AC6 SLP099

CYYC;2009-06-16 17:00;CYYC 161700Z 35012KT 40SM FEW044 FEW100 BKN130 20/09 A2983 RMK CU1AC2AC5 SLP098

CYYC;2009-06-16 18:00;CYYC 161800Z 02013KT 40SM FEW045CB FEW080 BKN140 20/10 A2983 RMK CB1AC1AC6 SH SW+NW SLP098

CYYC;2009-06-16 19:00;CYYC 161900Z 36011G17KT 40SM FEW045CB FEW080 BKN140 21/10 A2982 RMK CB2AC1AC2 SH S+NW SLP095

CYYC;2009-06-16 20:00;CYYC 162000Z 35006KT 40SM BKN044TCU BKN077 BKN140 20/10 A2983 RMK TCU6AC1AC1 SH SE+NW / CB ASOCTD SLP096

CYYC;2009-06-16 20:06;CYYC 162006Z 36006KT 30SM TS BKN044CB BKN077 BKN140 20/ RMK CB7AC1AC1 SH SE+NW / LTGCG SW-W

CYYC;2009-06-16 20:15;CYYC 162015Z 27018G24KT 30SM -TSRA BKN044CB BKN077 BKN140 17/ RMK CB7AC1AC1 LTGCG S-W / WSHFT 2005Z

CYYC;2009-06-16 21:00;CYYC 162100Z 34011G16KT 8SM -TSRA BKN034CB BKN044 BKN100 13/08 A2987 RERA RMK CB6SC2AC1 LTGCG NE-SW / VIS SW 30 SLP124

CYYC;2009-06-16 22:00;CYYC 162200Z 03009KT 15SM -TSRA SCT034CB BKN044CB BKN073 14/10 A2986 RMK CB3CB2AC2 LTGCG NE / VIS SW 40 SLP121

CYYC;2009-06-16 22:19;CYYC 162219Z 05009KT 30SM -SHRA FEW034CB SCT044 BKN073 14/ RETS RMK CB2SC2AC3

CYYC;2009-06-16 22:31;CYYC 162231Z 05010KT 30SM -SHRA SCT034CB SCT040 BKN068 14/ RETS RMK CB3SC1AC3

CYYC;2009-06-16 23:00;CYYC 162300Z 06012KT 30SM -SHRA FEW034CB SCT055 BKN100 14/10 A2983 RETS RMK CB2SC2AC3 SLP112

CYYC;2009-06-16 23:20;CYYC 162320Z 07009KT 30SM FEW034CB SCT060 BKN110 14/ RMK CB2SC2AC3 SH NE-SE+W

CYYC;2009-06-17 00:00;CYYC 170000Z 13004KT 30SM FEW034CB FEW080 BKN120 17/10 A2981 RMK CB2AC1AC4 SH N-SE+W SLP098

CYYC;2009-06-17 01:00;CYYC 170100Z CCA 26002KT 40SM FEW034CB FEW110 SCT170 19/09 A2981 RMK CB2AC1AC1 SH N-E+SW SLP098

CYYC;2009-06-17 02:00;CYYC 170200Z 06002KT 40SM FEW060 FEW110 SCT180 19/11 A2982 RMK CU1AC2AC1 SLP101

CYYC;2009-06-17 03:00;CYYC 170300Z 21003KT 40SM FEW060 FEW090 SCT180 18/11 A2982 RMK CU1AC2AC1 SLP092

CYYC;2009-06-17 04:00;CYYC 170400Z 12004KT 40SM FEW090 SCT120 SCT250 16/09 A2981 RMK AC1AC1CI1 SLP091

CYYC;2009-06-17 05:00;CYYC 170500Z 11005KT 15SM FEW090 FEW110 SCT250 14/09 A2982 RMK AC1AC1CI1 SLP092

CYYC;2009-06-17 06:00;CYYC 170600Z 21004KT 15SM FEW100 14/09 A2980 RMK AC1 AC TR SLP089

CYYC;2009-06-17 07:00;CYYC 170700Z 19003KT 15SM FEW100 13/09 A2981 RMK AC1 AC TR SLP090

CYYC;2009-06-17 08:00;CYYC 170800Z 24002KT 15SM FEW100 12/09 A2980 RMK AC0 SLP087

CYYC;2009-06-17 09:00;CYYC 170900Z 31002KT 15SM FEW110 11/09 A2979 RMK AC1 AC TR SLP099

CYYC;2009-06-17 10:00;CYYC 171000Z 25002KT 15SM FEW110 11/08 A2979 RMK AC1 AC TR SLP098

CYYC;2009-06-17 11:00;CYYC 171100Z 21002KT 20SM FEW110 FEW250 09/07 A2978 RMK AC1CI0 AC TR SLP095

CYYC;2009-06-17 12:00;CYYC 171200Z 20005KT 30SM FEW110 FEW250 09/07 A2978 RMK AC1CI0 AC TR SLP092

CYYC;2009-06-17 13:00;CYYC 171300Z 19003KT 30SM FEW080 FEW110 OVC250 12/08 A2978 RMK AC1AC1CI4 SLP092

CYYC;2009-06-17 14:00;CYYC 171400Z 00000KT 40SM FEW021 FEW120 FEW180 OVC220 14/08 A2978 RMK CU1AC1AS1CI2 CU+AC TR SLP091

CYYC;2009-06-17 15:00;CYYC 171500Z 00000KT 40SM FEW030 FEW100 OVC190 16/09 A2979 RMK CU1AC1AS2 CU + AC TR SLP085

CYYC;2009-06-17 16:00;CYYC 171600Z 00000KT 40SM FEW040 FEW100 FEW180 BKN210 18/09 A2978 RMK CU1AC1AS1CS1 CU + AC TR SLP082

CYYC;2009-06-17 17:00;CYYC 171700Z 34005KT 40SM FEW060 BKN210 21/08 A2977 RMK CU1CI2 CONTRAILS SLP080

CYYC;2009-06-17 18:00;CYYC 171800Z CCA 34005KT 40SM FEW056 FEW100 SCT220 21/06 A2975 RMK CU1AC1CI1 TCU ASOCTD W-NW / AC TR SLP070

CYYC;2009-06-17 19:00;CYYC 171900Z 28004KT 30SM FEW065TCU SCT100 BKN220 22/06 A2974 RMK TCU2AC1CI1 SH DIST SW / CONTRAILS SLP066

CYYC;2009-06-17 19:54;CYYC 171954Z CCA 36003KT 30SM -SHRA SCT076TCU BKN120 BKN220 22/ RMK TCU3AC2CI0

CYYC;2009-06-17 20:00;CYYC 172000Z 31002KT 30SM -SHRA BKN075TCU BKN120 BKN220 22/05 A2973 RMK TCU5AC2CI0 SLP062

CYYC;2009-06-17 20:45;CYYC 172045Z 28015KT 20SM -TSRA BKN075CB BKN100 OVC210 21/ RMK CB6AC2CI0 LTGCG SE

CYYC;2009-06-17 21:00;CYYC 172100Z 27014KT 20SM -TSRA BKN075CB BKN100 OVC210 20/04 A2973 RMK CB6AC2CI0 LTGCG+CC SE SLP066

CYYC;2009-06-17 21:40;CYYC 172140Z 32015KT 20SM -SHRA FEW035 BKN075CB BKN100 19/ RMK CF1CB6AC2 SH ALQDS / VIRGA W

CYYC;2009-06-17 21:52;CYYC 172152Z CCA 33012G19KT 20SM -SHRA FEW030 BKN050CB OVC100 19/ RMK CF1CB6AC2 VIRGA W

CYYC;2009-06-17 22:00;CYYC 172200Z 34016KT 15SM -SHRA SCT060CB OVC090 19/08 A2975 RMK CB4AS3 SH DIST SW / VIRGA NE SLP072

CYYC;2009-06-17 23:00;CYYC 172300Z 27016KT 15SM -SHRA SCT080CB BKN100 OVC140 17/07 A2976 RMK CB3AC2AS1 SH + VIRGA ALQDS SLP076

CYYC;2009-06-18 00:00;CYYC 180000Z 24013G18KT 20SM -SHRA FEW030 BKN080 OVC100 15/07 A2977 RMK CF1AC4AC4 SH + VIRGA ALQDS / VIS S LWR SLP090

CYYC;2009-06-18 01:00;CYYC 180100Z CCA 23008KT 30SM -RA FEW030 BKN060 BKN100 15/10 A2973 RMK CF1SC4AC2 PCPN VRY LGT SLP080

CYYC;2009-06-18 01:23;CYYC 180123Z 23010KT 40SM FEW080 BKN160 BKN220 15/ RMK AC2AS3CI0 SH DIST NE-SE

CYYC;2009-06-18 02:00;CYYC 180200Z 22004KT 30SM FEW060 FEW090 BKN210 16/09 A2972 RMK CU1AC2CI5 SLP077

CYYC;2009-06-18 03:00;CYYC 180300Z 26002KT 30SM SCT076 BKN220 16/09 A2973 RMK AC3CI2 SH DIST N-E SLP069

CYYC;2009-06-18 04:00;CYYC 180400Z 33009KT 30SM VCSH BKN076 BKN180 OVC220 15/09 A2975 RMK AC6AC1CI1 SH N-E SLP075

CYYC;2009-06-18 05:00;CYYC 180500Z 34010KT 15SM BKN070 OVC180 14/08 A2979 RMK AC6AC1 SLP086

CYYC;2009-06-18 06:00;CYYC 180600Z 34019KT 15SM FEW040 BKN092 OVC110 12/09 A2980 RMK SC1AC6AC1 SLP089

CYYC;2009-06-18 06:20;CYYC 180620Z 34016G24KT 15SM -RA FEW040 BKN086 OVC110 12/ RMK SC1AC6AC2 RA VRY LGT

CYYC;2009-06-18 07:00;CYYC 180700Z 34017KT 15SM -RA FEW062 BKN094 OVC120 12/08 A2982 RMK SC2AC5AC1 RA VERY LGT SLP093

CYYC;2009-06-18 08:00;CYYC 180800Z 34012KT 15SM -RA BKN052 OVC094 11/08 A2983 RMK SC6AC2 SLP098

CYYC;2009-06-18 09:00;CYYC 180900Z 33010KT 12SM -RA SCT060 OVC092 11/08 A2983 RMK SC3AC5 SLP103

CYYC;2009-06-18 10:00;CYYC 181000Z 29006KT 12SM -RA SCT065 BKN110 OVC160 10/08 A2983 RMK SC3AC4AC1 SLP102

CYYC;2009-06-18 11:00;CYYC 181100Z 30005KT 20SM FEW060 BKN120 OVC190 10/07 A2982 RMK SC1AC4AC2 SLP100

CYYC;2009-06-18 12:00;CYYC 181200Z 32005KT 20SM FEW060 BKN130 BKN190 10/07 A2984 RMK SC1AC4AC1 SLP113

CYYC;2009-06-18 13:00;CYYC 181300Z 31009KT 40SM FEW080 SCT140 SCT190 12/07 A2985 RMK AC2AC1AC0 SLP118

CYYC;2009-06-18 14:00;CYYC 181400Z 34012KT 30SM FEW020 FEW080 FEW140 FEW210 13/08 A2986 RMK CF1AC1AC1CI1 SLP120

CYYC;2009-06-18 15:00;CYYC 181500Z 34013G18KT 30SM FEW035 FEW140 15/06 A2987 RMK CU1AC1 SH DIST E SLP117

CYYC;2009-06-18 16:00;CYYC 181600Z 34017G22KT 30SM FEW035 FEW140 15/06 A2986 RMK CU1AC1 SLP116

CYYC;2009-06-18 17:00;CYYC 181700Z 36014G19KT 30SM FEW040 FEW140 16/06 A2985 RMK CU1AC1 AC TR / TCU ASOCTD SSW+W SLP113

CYYC;2009-06-18 18:00;CYYC 181800Z 34012G19KT 30SM FEW045 17/06 A2985 RMK CU2 TCU ASOCTD S-W SLP114

CYYC;2009-06-18 19:00;CYYC 181900Z 35011G16KT 40SM FEW050 FEW240 18/07 A2984 RMK CU2CI1 TCU ASOCTD SW-NW SLP110

CYYC;2009-06-18 20:00;CYYC 182000Z 32010G15KT 30SM FEW050 18/06 A2984 RMK CU2 TCU ASOCTD SW-NW / SH DIST SW-W SLP109

CYYC;2009-06-18 21:00;CYYC 182100Z 35003KT 30SM FEW050 SCT060CB 18/06 A2983 RMK CU2CB2 SH DIST SW-W / LTGCG DIST SW / VIS SW LWR SLP104

CYYC;2009-06-18 22:00;CYYC 182200Z 19012KT 30SM FEW035 SCT060CB SCT100 19/10 A2982 RMK CU2CB2AC1 SH DIST SE / VIS SE LWR / WSHFT 2157 SLP102

CYYC;2009-06-18 22:54;CYYC 182254Z 20009KT 30SM TS BKN065CB BKN100 18/ RMK CB6AC1

CYYC;2009-06-18 23:00;CYYC 182300Z 21011KT 30SM -TSRA BKN065CB BKN100 17/06 A2981 RMK CB6AC1 LTGCG SLP099

CYYC;2009-06-19 00:00;CYYC 190000Z CCA 19008KT 30SM -SHRA FEW020 BKN060CB BKN110 14/08 A2981 RETS RMK CU1CB6AC1 SH SE + E /CB ALQDS / VIRGA W /CU TR SLP104

CYYC;2009-06-19 00:42;CYYC 190042Z 20004KT 30SM FEW020 FEW060CB SCT140 17/ RMK CU1CB2AC1 CB ALQDS / CU TR

CYYC;2009-06-19 01:00;CYYC 190100Z 00000KT 30SM FEW020 FEW060CB FEW140 FEW240 17/07 A2979 RMK CU1CB1AC1CI0 CB ALQDS / VIRGA ALQDS / CU+AC TR SLP098

CYYC;2009-06-19 02:00;CYYC 190200Z 01002KT 30SM FEW050 FEW065CB FEW140 BKN250 17/06 A2979 RMK CU1CB1AC2CI1 VIRGA N-NW SLP100

CYYC;2009-06-19 03:00;CYYC 190300Z 09003KT 40SM FEW065CB FEW140 BKN220 17/07 A2978 RMK CB1AC2CI2 VIRGA W-N SLP086

CYYC;2009-06-19 04:00;CYYC 190400Z 00000KT 30SM FEW065CB FEW080 SCT130 BKN250 14/07 A2978 RMK CB1AC1AC2CI1 SLP085

CYYC;2009-06-19 05:00;CYYC 190500Z 16004KT 15SM FEW080 SCT180 14/07 A2977 RMK AC1AC1 SLP083

CYYC;2009-06-19 06:00;CYYC 190600Z 13005KT 15SM FEW100 12/07 A2976 RMK AC1 AC TR SLP083

CYYC;2009-06-19 07:00;CYYC 190700Z 33006KT 15SM FEW090 FEW240 11/07 A2976 RMK AC1CI1 AC TR SLP081

CYYC;2009-06-19 08:00;CYYC 190800Z 32003KT 15SM FEW180 10/06 A2975 RMK AC1 AC TR SLP080

CYYC;2009-06-19 09:00;CYYC 190900Z 00000KT 15SM FEW180 09/06 A2973 RMK AC1 AC TR SLP073

CYYC;2009-06-19 10:00;CYYC 191000Z 35004KT 15SM FEW100 FEW250 08/05 A2972 RMK AC1CI0 AC TR SLP070

CYYC;2009-06-19 11:00;CYYC 191100Z 33004KT 20SM FEW070 FEW100 FEW250 07/04 A2972 RMK ACC1AC1CI0 ACC+AC TR SLP070

CYYC;2009-06-19 12:00;CYYC 191200Z 32003KT 25SM FEW060 FEW080 BKN160 08/06 A2973 RMK CU1AC2AC2 SLP079

CYYC;2009-06-19 13:00;CYYC 191300Z 00000KT 25SM FEW060 FEW080 BKN160 10/06 A2973 RMK CU1AC2AC2 SLP079

CYYC;2009-06-19 14:00;CYYC 191400Z 32002KT 30SM FEW120 13/08 A2972 RMK AC1 SLP077

CYYC;2009-06-19 15:00;CYYC 191500Z 32014KT 40SM FEW120 17/06 A2972 RMK AC1 SLP060

CYYC;2009-06-19 16:00;CYYC 191600Z 35010KT 40SM FEW050 FEW110 FEW240 18/06 A2972 RMK CU1AC1CI0 CU TR SLP061

CYYC;2009-06-19 17:00;CYYC 191700Z 02008KT 40SM FEW050 FEW110 BKN240 18/07 A2970 RMK CU1AC1CS1 CU +AC TR /TCU ASOCTD W / SH DIST W SLP055

CYYC;2009-06-19 18:00;CYYC 191800Z 03009KT 40SM FEW050TCU FEW100 BKN220 19/07 A2969 RMK TCU1AC1CI1 TCU SW+NE / AC TR / CONTRAILS SLP055

CYYC;2009-06-19 19:00;CYYC 191900Z 07006KT 30SM FEW050 SCT100 BKN220 20/07 A2967 RMK CU2AS2CI0 CB EMBD SW / SH DIST SW SLP049

CYYC;2009-06-19 20:00;CYYC 192000Z CCA 21002KT 30SM FEW050TCU SCT130 BKN250 20/05 A2966 RMK TCU2AC2CS0 SH DIST SW / VIRGA NW SLP045

CYYC;2009-06-19 21:00;CYYC 192100Z 00000KT 20SM FEW050 FEW130 BKN250 21/04 A2965 RMK CU2AC1CS0 TCU ASOCTD / HZ SLP041

CYYC;2009-06-19 22:00;CYYC 192200Z 23004KT 20SM FEW060 SCT100 OVC250 21/05 A2964 RMK CU2AC2CS0 TCU ASOCTD / HZ SLP037

CYYC;2009-06-19 23:00;CYYC 192300Z 23008KT 30SM FEW060 SCT090 BKN120 OVC210 21/05 A2964 RMK CU2AC2AC2CI0 SH DIST SW+W SLP037

CYYC;2009-06-19 23:30;CYYC 192330Z 27020G25KT 20SM -SHRA FEW060 BKN080CB OVC120 17/ RMK CU2CB3AC2 SH ALQDS

CYYC;2009-06-20 00:00;CYYC 200000Z 28006KT 30SM -SHRA FEW040 BKN080 OVC100 17/07 A2965 RMK CU1AC5AC2 SH + VIRGA ALQDS / CB EMBD SLP047

CYYC;2009-06-20 01:00;CYYC 200100Z 28011KT 30SM -SHRA FEW045 BKN080 OVC100 18/06 A2964 RMK CF1AC5AC2 SH E+NE / CB EMBD / VIRGA SE SLP045

CYYC;2009-06-20 01:22;CYYC 200122Z 27010KT 30SM FEW045 BKN080 OVC110 18/ RMK CF1AC6AC2 SH NE / CB EMBD / VIRGA ALQDS

CYYC;2009-06-20 02:00;CYYC 200200Z 30008KT 40SM FEW050 BKN110 OVC240 18/06 A2964 RMK CU1AC6CI2 VIRGA ALQDS SLP043

CYYC;2009-06-20 03:00;CYYC 200300Z 33004KT 20SM FEW050 BKN100 OVC210 18/07 A2964 RMK CU1AC6CI2 VIRGA ALQDS SLP033

CYYC;2009-06-20 04:00;CYYC 200400Z 35003KT 30SM FEW050 BKN084 OVC210 17/06 A2966 RMK CU1AC6CI2 VIRGA ALQDS SLP038

CYYC;2009-06-20 04:57;CYYC 200457Z 09005KT 15SM -SHRA FEW040CB BKN060CB OVC100 14/ RMK CB1CB5AC2

CYYC;2009-06-20 05:00;CYYC 200500Z 07004KT 15SM -SHRA FEW040CB BKN076CB OVC100 15/09 A2967 RMK CB1CB6AC2 DNS CB N SLP041

CYYC;2009-06-20 05:49;CYYC 200549Z 32002KT 15SM FEW050CB BKN170 OVC220 14/ RMK CB2AC4CI2

CYYC;2009-06-20 06:00;CYYC 200600Z 35008KT 15SM FEW060CB FEW090 OVC210 13/09 A2967 RMK CB2AC1CI4 SLP045

CYYC;2009-06-20 07:00;CYYC 200700Z 34009KT 15SM FEW230 11/08 A2968 RMK CI2 SLP048

CYYC;2009-06-20 08:00;CYYC 200800Z 32007KT 15SM FEW230 10/08 A2968 RMK CI2 SLP048

CYYC;2009-06-20 09:00;CYYC 200900Z 31007KT 15SM FEW230 10/08 A2968 RMK CI1 SLP051

CYYC;2009-06-20 10:00;CYYC 201000Z 26003KT 15SM FEW090 FEW240 10/08 A2967 RMK AC1CI1 CI TR SLP049

CYYC;2009-06-20 11:00;CYYC 201100Z 20006KT 15SM FEW090 FEW240 09/07 A2967 RMK AC1CI1 CI TR SLP048

CYYC;2009-06-20 12:00;CYYC 201200Z 22005KT 40SM FEW060 FEW090 SCT250 08/07 A2968 RMK SC1AC1CI0 SC+AC TR SLP058

CYYC;2009-06-20 13:00;CYYC 201300Z 20004KT 40SM FEW060 FEW090 FEW250 12/05 A2968 RMK SC1AC1CI0 SC+AC TR SLP060

CYYC;2009-06-20 14:00;CYYC 201400Z 18005KT 40SM FEW060 FEW090 FEW250 12/06 A2969 RMK SC1AC1CI1 SC+AC TR SLP062

CYYC;2009-06-20 15:00;CYYC 201500Z 28016G21KT 40SM FEW060 FEW140 FEW250 16/04 A2968 RMK SC1AC1CI1 SC+AC TR SLP049

CYYC;2009-06-20 16:00;CYYC 201600Z 28013KT 40SM FEW060 FEW160 FEW250 18/03 A2970 RMK SC1AC1CI1 SC+AC TR SLP055

CYYC;2009-06-20 17:00;CYYC 201700Z 36006KT 40SM FEW050 FEW160 FEW250 19/04 A2970 RMK CU1AC1CI1 CU+AC TR SLP054

CYYC;2009-06-20 18:00;CYYC 201800Z 28005KT 40SM FEW050 SCT250 20/03 A2969 RMK CU1CI1 SLP052

CYYC;2009-06-20 19:00;CYYC 201900Z 22004KT 40SM FEW050 FEW200 BKN250 21/03 A2969 RMK CU1CI1CI0 SLP053

CYYC;2009-06-20 20:00;CYYC 202000Z 11010KT 40SM FEW082 FEW200 BKN260 21/03 A2969 RMK CU2CI1CI0 SLP052

CYYC;2009-06-20 21:00;CYYC 202100Z 12007KT 40SM FEW085 SCT200 BKN260 22/04 A2968 RMK CU2CI1CI0 SLP051

CYYC;2009-06-20 22:00;CYYC 202200Z 05010G17KT 40SM SCT080 BKN200 BKN260 22/04 A2968 RMK CU3CI2CI0 SLP050

CYYC;2009-06-20 23:00;CYYC 202300Z 10010KT 30SM SCT080 SCT110 BKN200 BKN260 21/05 A2968 RMK CU3AC1CI1CI0 SLP051

CYYC;2009-06-21 00:00;CYYC 210000Z 08009KT 30SM SCT070 SCT110 SCT200 BKN260 22/04 A2968 RMK CU3AC1CI1CI0 AC TR SLP052

CYYC;2009-06-21 01:00;CYYC 210100Z 10007KT 30SM FEW070 BKN110 BKN250 21/03 A2969 RMK CU2AC2CI1 SLP054

CYYC;2009-06-21 02:00;CYYC 210200Z 08011KT 30SM FEW080 BKN250 20/05 A2969 RMK AC2CS0 SH DIST SW+W / CONTRAILS SLP055

CYYC;2009-06-21 03:00;CYYC 210300Z 09009KT 30SM FEW110 BKN250 19/05 A2969 RMK AC2CI0 SH DIST SW / CONTRAILS SLP049

CYYC;2009-06-21 04:00;CYYC 210400Z 07009KT 15SM FEW090 FEW120 SCT250 17/06 A2970 RMK AC1AC2CI0 SH DIST SW SLP052

CYYC;2009-06-21 05:00;CYYC 210500Z 08007KT 15SM FEW090 SCT120 17/06 A2970 RMK AC1AC2 SLP053

CYYC;2009-06-21 06:00;CYYC 210600Z 10005KT 15SM FEW120 16/06 A2969 RMK AC2 SLP049

CYYC;2009-06-21 07:00;CYYC 210700Z 20008KT 15SM SCT110 15/06 A2973 RMK AC3 SLP062

CYYC;2009-06-21 08:00;CYYC 210800Z CCA 34016KT 15SM SCT110 BKN210 13/08 A2974 RMK AC3CI0 WSHFT 0757 SLP065

CYYC;2009-06-21 09:00;CYYC 210900Z 34013KT 15SM FEW110 BKN210 12/08 A2975 RMK AC2CI0 SLP072

CYYC;2009-06-21 10:00;CYYC 211000Z 33017KT 15SM FEW090 BKN180 12/07 A2975 RMK AC1AS3 SLP071

CYYC;2009-06-21 11:00;CYYC 211100Z 35015G20KT 15SM BKN040 OVC080 12/07 A2976 RMK SC6AC2 SLP074

CYYC;2009-06-21 12:00;CYYC 211200Z 35016G21KT 20SM FEW018 OVC030 11/08 A2976 RMK ST1SC7 SLP077

CYYC;2009-06-21 12:22;CYYC 211222Z 36015KT 20SM -RA FEW015 OVC030 11/ RMK ST2SC6

CYYC;2009-06-21 12:53;CYYC 211253Z 35013KT 20SM BKN009 OVC020 11/ RMK ST6SC2

CYYC;2009-06-21 13:00;CYYC 211300Z 34012KT 20SM BKN009 OVC016 11/09 A2977 RMK ST6SC2 SLP080

CYYC;2009-06-21 14:00;CYYC 211400Z 36014KT 20SM SCT009 SCT015 OVC028 11/09 A2977 RMK SC3SC1SC4 SH ALQDS SLP079

CYYC;2009-06-21 15:00;CYYC 211500Z 33011KT 20SM FEW010 FEW025 OVC038 11/09 A2978 RMK SC1SC2SC6 SH NE+SW+NW SLP086

CYYC;2009-06-21 16:00;CYYC 211600Z 34014G20KT 30SM FEW020 OVC055 12/08 A2978 RMK SC2SC6 SH SE+NW SLP086

CYYC;2009-06-21 17:00;CYYC 211700Z 33016G21KT 30SM FEW020 BKN063 13/08 A2977 RMK CU1SC6 SH W-N SLP084

CYYC;2009-06-21 18:00;CYYC 211800Z 34015KT 30SM FEW020 BKN038 OVC060 12/08 A2978 RMK CU2SC4SC2 SH SE SLP088

CYYC;2009-06-21 19:00;CYYC 211900Z 34012KT 30SM FEW020 SCT065 BKN085 14/08 A2977 RMK CU1SC3AC3 SH SE SLP086

CYYC;2009-06-21 20:00;CYYC 212000Z 36011KT 30SM SCT020 BKN046 OVC085 14/08 A2977 RMK CU4SC3AC1 SLP086

CYYC;2009-06-21 21:00;CYYC 212100Z CCA 01010G16KT 30SM BKN026 BKN040 BKN090 15/08 A2976 RMK CU5SC2AC1 SLP085

CYYC;2009-06-21 22:00;CYYC 212200Z 02012KT 30SM BKN027 BKN042 BKN100 15/08 A2975 RMK CU6SC2AC1 SLP082

CYYC;2009-06-21 23:00;CYYC 212300Z 36010G17KT 30SM FEW028 SCT040 BKN100 BKN240 15/08 A2975 RMK CU2SC1AC1CI0 SLP080

CYYC;2009-06-22 00:00;CYYC 220000Z 36011KT 30SM FEW028 SCT060 SCT140 BKN260 16/09 A2974 RMK CU2SC2AC1CI0 SLP078

CYYC;2009-06-22 01:00;CYYC 220100Z 35009KT 30SM FEW030 FEW065 SCT240 15/08 A2974 RMK CU1SC2CI0 TCU ASOCTD SLP078

CYYC;2009-06-22 02:00;CYYC 220200Z 36013KT 20SM FEW050 SCT240 14/08 A2975 RMK CU2CI0 TCU ASOCTD SLP079

CYYC;2009-06-22 03:00;CYYC 220300Z 33010KT 20SM FEW025TCU FEW050 FEW075 FEW250 14/08 A2975 RMK TCU1SC1AC2CI0 SLP085

CYYC;2009-06-22 04:00;CYYC 220400Z 36010KT 20SM FEW050 FEW075 FEW250 12/08 A2975 RMK SC1AC2CI0 SH DIST SW / CONTRAILS SLP084

CYYC;2009-06-22 05:00;CYYC 220500Z 36008KT 15SM BKN078 12/07 A2976 RMK AC5 SLP086

CYYC;2009-06-22 06:00;CYYC 220600Z 32007KT 15SM BKN074 11/07 A2976 RMK AC6 SLP088

CYYC;2009-06-22 07:00;CYYC 220700Z 30006KT 15SM BKN074 10/07 A2976 RMK AC4 SLP088

CYYC;2009-06-22 08:00;CYYC 220800Z 32005KT 15SM BKN074 10/07 A2975 RMK AC4 SLP087

CYYC;2009-06-22 09:00;CYYC 220900Z 32009KT 15SM SCT074 10/07 A2974 RMK AC3 SLP081

CYYC;2009-06-22 10:00;CYYC 221000Z 32007KT 15SM FEW074 10/07 A2975 RMK AC2 SLP082

CYYC;2009-06-22 11:00;CYYC 221100Z 32011KT 20SM FEW074 SCT250 09/06 A2974 RMK AC2CI0 SLP081

CYYC;2009-06-22 12:00;CYYC 221200Z 32010KT 20SM FEW074 FEW180 FEW250 09/06 A2973 RMK AC1AS1CI0 SLP078

CYYC;2009-06-22 13:00;CYYC 221300Z 33012KT 20SM FEW074 SCT240 10/07 A2974 RMK AC1CS2 SLP079

CYYC;2009-06-22 14:00;CYYC 221400Z 34014G21KT 30SM FEW080 BKN190 BKN260 12/06 A2973 RMK AC2AC3CI2 VIRGA S SLP078

CYYC;2009-06-22 15:00;CYYC 221500Z 35016G22KT 30SM FEW100 BKN180 BKN260 13/07 A2975 RMK AC1AC4CI1 VIRGA S SLP080

CYYC;2009-06-22 16:00;CYYC 221600Z 33018KT 30SM FEW030 SCT090 BKN190 13/06 A2975 RMK CU1AC2AC3 SLP081

CYYC;2009-06-22 17:00;CYYC 221700Z 33014G22KT 30SM FEW030 FEW045 SCT062 BKN092 14/07 A2976 RMK CU1SC2SC2AC3 SLP083

CYYC;2009-06-22 18:00;CYYC 221800Z CCA 34017KT 30SM FEW030 SCT065 BKN092 14/06 A2976 RMK CU1SC3AC4 SLP087

CYYC;2009-06-22 19:00;CYYC 221900Z 31014KT 30SM FEW030 BKN069 OVC095 14/06 A2976 RMK CU1AC6AC2 SLP086

CYYC;2009-06-22 20:00;CYYC 222000Z 32015KT 20SM FEW032 BKN084 OVC100 14/06 A2976 RMK CU1AC6AC1 TCU ASOCTD SLP087

CYYC;2009-06-22 21:00;CYYC 222100Z 34014KT 30SM FEW032 BKN086 OVC100 15/06 A2976 RMK CU1AC7AC1 VIRGA SW / TCU ASOCTD SLP086

CYYC;2009-06-22 22:00;CYYC 222200Z 33012G17KT 30SM FEW032 BKN100 BKN220 16/06 A2975 RMK CU1AC5CS1 VIRGA SW / TCU ASOCTD SLP085

CYYC;2009-06-22 23:00;CYYC 222300Z 34014KT 30SM SCT040 BKN080 BKN210 17/06 A2974 RMK CU4AC2CS2 SH SE+SW / TCU ASOCTD SLP081

CYYC;2009-06-23 00:00;CYYC 230000Z 36017KT 40SM SCT042 BKN087 OVC160 17/06 A2975 RMK CU3AC2AC2 SH SE-W / TCU ASOCTD SLP081

CYYC;2009-06-23 01:00;CYYC 230100Z 33012G17KT 40SM FEW042 SCT090 BKN180 BKN230 16/06 A2976 RMK CU2AC2AC1CS2 SH S-NW / CB ASOCTD SLP085

CYYC;2009-06-23 02:00;CYYC 230200Z 28012KT 30SM FEW050TCU FEW070CB BKN130 OVC240 15/06 A2977 RMK TCU1CB1AC5CI2 DIST SH S-W SLP088

CYYC;2009-06-23 03:00;CYYC 230300Z 28012KT 30SM FEW050TCU FEW062CB BKN130 OVC240 13/06 A2978 RMK TCU1CB1AC4CI2 DIST SH S-W SLP093

CYYC;2009-06-23 04:00;CYYC 230400Z 28012G17KT 30SM FEW065CB BKN099 OVC230 13/05 A2980 RMK CB1AC6CI2 SLP099

CYYC;2009-06-23 05:00;CYYC 230500Z 27014KT 15SM FEW060 SCT095 OVC220 12/05 A2982 RMK SC1AC2CI2 SLP105

CYYC;2009-06-23 06:00;CYYC 230600Z 27011G16KT 15SM FEW060 FEW130 BKN170 12/05 A2983 RMK SC1AC2AC1 SLP110

CYYC;2009-06-23 07:00;CYYC 230700Z 28012KT 15SM FEW080 SCT120 BKN210 12/04 A2984 RMK AC1AC2CI2 SLP112

CYYC;2009-06-23 08:00;CYYC 230800Z 28014KT 15SM FEW080 SCT120 BKN240 12/04 A2984 RMK AC1AC2CI2 SLP112

CYYC;2009-06-23 09:00;CYYC 230900Z 29011KT 15SM FEW080 SCT170 BKN240 12/03 A2986 RMK AC1AC2CI2 SLP118

CYYC;2009-06-23 10:00;CYYC 231000Z 30010KT 15SM SCT051 BKN087 BKN170 OVC230 12/03 A2987 RMK SC3AC2AC1CI0 SLP122

CYYC;2009-06-23 11:00;CYYC 231100Z 32010KT 30SM BKN053 OVC087 11/05 A2989 RMK SC6AC2 SLP128

CYYC;2009-06-23 12:00;CYYC 231200Z 35003KT 30SM FEW053 BKN085 OVC120 11/06 A2989 RMK SC2AC3AC2 SLP131

CYYC;2009-06-23 13:00;CYYC 231300Z CCA 31002KT 40SM FEW045 SCT078 OVC130 11/05 A2990 RMK SC1AC3AC3 VIRGA NE SLP134

CYYC;2009-06-23 14:00;CYYC 231400Z 22004KT 40SM FEW030 FEW060 SCT100 BKN160 13/04 A2991 RMK CU1SC1AC3AC3 SH N-S SLP136

CYYC;2009-06-23 15:00;CYYC 231500Z 28011G17KT 40SM FEW048 FEW060 FEW140 FEW180 15/03 A2991 RMK CU1SC1AC1AC1 SH E-SE SLP135

CYYC;2009-06-23 16:00;CYYC 231600Z 28011G16KT 40SM FEW055 FEW100 16/03 A2991 RMK CU1AC1 VIRGA E SLP134

CYYC;2009-06-23 17:00;CYYC 231700Z 25008KT 40SM FEW055 FEW120 18/03 A2990 RMK CU1AC1 SH NW / TCU ASOCTD SLP131

CYYC;2009-06-23 18:00;CYYC 231800Z 26010G17KT 40SM FEW068 FEW140 18/00 A2988 RMK CU1AC1 SH SE+NW / CB ASOCTD SLP124

CYYC;2009-06-23 19:00;CYYC 231900Z 27015G20KT 40SM FEW068 BKN110 17/00 A2987 RMK CU2AC3 SCT SH N-S / CB EMBD SLP121

CYYC;2009-06-23 20:00;CYYC 232000Z 27013G21KT 40SM FEW070 FEW100 19/01 A2987 RMK CU2AC1 SH NW-SE / CB N SLP119

CYYC;2009-06-23 21:00;CYYC 232100Z 27019G25KT 40SM FEW075 FEW100 FEW290 19/M00 A2986 RMK CU1AC1CI0 SH NW-NE / TCU ASOCTD SLP112

CYYC;2009-06-23 22:00;CYYC 232200Z 27016G21KT 40SM FEW075 FEW100 FEW290 20/00 A2985 RMK CU1AC1CI0 SH N / TCU ASOCTD SLP109

CYYC;2009-06-23 23:00;CYYC 232300Z 27014G21KT 40SM FEW075 FEW100 FEW290 19/00 A2985 RMK CU1AC1CI0 SH NE / TCU ASOCTD / ACSL S SLP108

CYYC;2009-06-24 00:00;CYYC 240000Z 28017G25KT 40SM FEW075 FEW100 FEW270 19/00 A2985 RMK CU1AC1CI0 SH N / TCU ASOCTD / ACSL S SLP111

CYYC;2009-06-24 01:00;CYYC 240100Z 28020G25KT 40SM FEW075 FEW100 SCT260 19/00 A2985 RMK CU1AC1CI0 SH N / TCU EMBD / ACSL S SLP110

CYYC;2009-06-24 02:00;CYYC 240200Z 27022G28KT 40SM FEW060 FEW150 SCT250 18/M00 A2985 RMK CU1AC1CI0 ACSL S SLP112

CYYC;2009-06-24 03:00;CYYC 240300Z 27015G21KT 40SM FEW060 FEW140 SCT250 17/M01 A2986 RMK SC1AC1CI0 SLP113

CYYC;2009-06-24 04:00;CYYC 240400Z 31006KT 30SM FEW060 FEW140 SCT250 15/M00 A2988 RMK SC1AC1CI0 SLP119

CYYC;2009-06-24 05:00;CYYC 240500Z 31004KT 15SM FEW140 SCT250 14/02 A2989 RMK AC1CI1 SLP122

CYYC;2009-06-24 06:00;CYYC 240600Z 01003KT 15SM FEW220 12/01 A2990 RMK CI1 SLP129

CYYC;2009-06-24 07:00;CYYC 240700Z 00000KT 15SM FEW240 12/00 A2990 RMK CI0 SLP129

CYYC;2009-06-24 08:00;CYYC 240800Z 34004KT 15SM FEW240 09/01 A2990 RMK CI0 SLP129

CYYC;2009-06-24 09:00;CYYC 240900Z 32002KT 15SM FEW240 09/01 A2989 RMK CI1 CI TR SLP129

CYYC;2009-06-24 10:00;CYYC 241000Z 17002KT 15SM SCT230 07/01 A2989 RMK CI1 SLP128

CYYC;2009-06-24 11:00;CYYC 241100Z 00000KT 30SM FEW200 SCT260 09/00 A2989 RMK CI1CI0 SLP128

CYYC;2009-06-24 12:00;CYYC 241200Z 34003KT 40SM FEW210 SCT260 08/00 A2990 RMK CI1CI0 SLP132

CYYC;2009-06-24 13:00;CYYC 241300Z 33003KT 40SM FEW045 FEW260 11/03 A2991 RMK CU1CI0 CU TR SLP136

CYYC;2009-06-24 14:00;CYYC 241400Z 00000KT 40SM FEW080 FEW250 14/03 A2991 RMK AC1CI0 SLP137

CYYC;2009-06-24 15:00;CYYC 241500Z 27006KT 40SM FEW250 16/03 A2991 RMK CI0 SLP128

CYYC;2009-06-24 16:00;CYYC 241600Z CCA 27003KT 40SM FEW066 BKN220 18/02 A2991 RMK CU1CC1 CU TR SLP129

CYYC;2009-06-24 17:00;CYYC 241700Z 00000KT 40SM FEW072 FEW220 18/00 A2992 RMK CU1CI0 SLP132

CYYC;2009-06-24 18:00;CYYC 241800Z 17004KT 40SM FEW074 FEW220 20/01 A2991 RMK CU1CI1 SLP130

CYYC;2009-06-24 19:00;CYYC 241900Z CCA 14003KT 40SM FEW080 FEW250 20/01 A2990 RMK CU1CI1 SLP127

CYYC;2009-06-24 20:00;CYYC 242000Z 18008KT 40SM FEW080 FEW250 21/02 A2988 RMK CU1CI1 SLP120

CYYC;2009-06-24 21:00;CYYC 242100Z 16005KT 40SM FEW080 FEW130 SCT220 21/01 A2986 RMK CU1AC1CI0 SLP115

CYYC;2009-06-24 22:00;CYYC 242200Z 20008G20KT 40SM FEW080 FEW130 SCT220 23/02 A2984 RMK CU1AC1CI1 CU + AC TR SLP108

CYYC;2009-06-24 23:00;CYYC 242300Z 20010G21KT 40SM FEW080 BKN250 23/03 A2982 RMK CU2CI2 SLP101

CYYC;2009-06-25 00:00;CYYC 250000Z 18015KT 40SM FEW080 FEW180 BKN220 23/04 A2979 RMK AC1AS1CI0 SLP090

CYYC;2009-06-25 01:00;CYYC 250100Z 18014G20KT 40SM FEW080 FEW180 BKN220 23/04 A2978 RMK AC1AS2CI0 SLP087

CYYC;2009-06-25 02:00;CYYC 250200Z 18016KT 40SM FEW060 FEW180 SCT250 22/05 A2978 RMK CU1AC1CI1 CU TR SLP085

CYYC;2009-06-25 03:00;CYYC 250300Z 17008KT 40SM FEW060 SCT150 BKN250 22/06 A2977 RMK CU1AC2CI1 CU TR SLP071

CYYC;2009-06-25 04:00;CYYC 250400Z 18008KT 40SM FEW050 SCT140 OVC240 20/06 A2977 RMK SC1AC2CI2 ACSL W SLP071

CYYC;2009-06-25 05:00;CYYC 250500Z 13008KT 15SM FEW080 FEW140 SCT240 17/06 A2977 RMK AC1AC2CI1 SLP073

CYYC;2009-06-25 06:00;CYYC 250600Z 18009KT 15SM FEW110 FEW220 18/06 A2978 RMK AC1CI1 AC TR SLP077

CYYC;2009-06-25 07:00;CYYC 250700Z 15005KT 15SM FEW110 FEW200 16/06 A2977 RMK AC1CI1 AC TR SLP074

CYYC;2009-06-25 08:00;CYYC 250800Z 18007KT 15SM FEW220 15/06 A2975 RMK CI1 CI TR SLP067

CYYC;2009-06-25 09:00;CYYC 250900Z 21005KT 15SM FEW220 14/06 A2973 RMK CI1 SLP061

CYYC;2009-06-25 10:00;CYYC 251000Z 13003KT 15SM BKN210 11/05 A2970 RMK CI3 SLP053

CYYC;2009-06-25 11:00;CYYC 251100Z 21002KT 15SM FEW100 BKN220 BKN260 12/06 A2970 RMK AC1CI4CI0 SLP052

CYYC;2009-06-25 12:00;CYYC 251200Z 18011KT 30SM FEW050 FEW100 BKN250 13/05 A2969 RMK CU1AC2CI1 SLP048

CYYC;2009-06-25 13:00;CYYC 251300Z 18015G20KT 30SM FEW050 FEW100 FEW240 15/07 A2968 RMK CU1AC1CI1 SLP044

CYYC;2009-06-25 14:00;CYYC 251400Z 18013G19KT 30SM FEW040 FEW100 FEW240 18/07 A2967 RMK CU1AC1CI1 SLP043

CYYC;2009-06-25 15:00;CYYC 251500Z 18014G19KT 30SM FEW040 FEW100 FEW240 20/06 A2966 RMK CU1AC1CI1 VIS SW LWR / PIREP TURB SW 150 SLP028

CYYC;2009-06-25 16:00;CYYC 251600Z 21018KT 30SM FEW080 FEW240 22/01 A2965 RMK CU1CI1 SLP025

CYYC;2009-06-25 17:00;CYYC 251700Z 22018KT 30SM FEW100 FEW240 24/M02 A2965 RMK CU1CI1 SLP026

CYYC;2009-06-25 18:00;CYYC 251800Z 23013G20KT 30SM FEW100 FEW240 24/M01 A2965 RMK CU1CI1 TCU W SLP028

CYYC;2009-06-25 19:00;CYYC 251900Z CCA 28017G22KT 30SM SCT100TCU BKN120 22/02 A2966 RMK TCU4AC2 WSHFT 1857 / SH DIST N SLP031

CYYC;2009-06-25 20:00;CYYC 252000Z 28024G33KT 30SM DRDU FEW070TCU SCT110 21/04 A2969 RMK TCU2AC2 CB ASOCTD NNE / SH DIST NNE / SLP038

CYYC;2009-06-25 21:00;CYYC 252100Z 29028G34KT 30SM FEW070CB FEW110 21/03 A2972 RMK CB1AC2 CB NE SLP061

CYYC;2009-06-25 22:00;CYYC 252200Z 28025G30KT 30SM FEW070CB FEW120 21/01 A2975 RMK CB1AC1 CB N-NE / VIRGA NE / AC TR SLP070

CYYC;2009-06-25 23:00;CYYC 252300Z CCA 28022G31KT 40SM FEW080CB FEW120 21/M01 A2977 RMK CB1AC1 CB NE /SH DIST NE SLP075

CYYC;2009-06-26 00:00;CYYC 260000Z CCB 27021G29KT 40SM FEW080CB FEW120 20/M01 A2979 RMK CB1AC1 CB NE SLP087

CYYC;2009-06-26 01:00;CYYC 260100Z 27020G31KT 40SM FEW100 20/M02 A2981 RMK AC1 SLP091

CYYC;2009-06-26 02:00;CYYC 260200Z 28021G26KT 40SM FEW070 FEW250 19/M02 A2982 RMK CU1CI0 CU TR SLP094

CYYC;2009-06-26 03:00;CYYC 260300Z 28012KT 40SM FEW070 FEW250 18/M01 A2984 RMK CU1CI0 CU TR SLP096

CYYC;2009-06-26 04:00;CYYC 260400Z 29010G16KT 40SM FEW060 FEW250 16/M02 A2985 RMK CU1CI0 SLP100

CYYC;2009-06-26 05:00;CYYC 260500Z 28011KT 15SM FEW050 FEW250 16/M02 A2987 RMK SC1CI0 SC TR SLP106

CYYC;2009-06-26 06:00;CYYC 260600Z 31008KT 15SM FEW050 FEW220 SCT250 15/M02 A2987 RMK SC1CC1CI0 SC TR SLP105

CYYC;2009-06-26 07:00;CYYC 260700Z 30005KT 15SM FEW180 SCT250 14/M01 A2987 RMK AC1CI2 SLP105

CYYC;2009-06-26 08:00;CYYC 260800Z 35003KT 15SM SCT240 11/00 A2987 RMK CI2 SLP105

CYYC;2009-06-26 09:00;CYYC 260900Z 20004KT 25SM SCT240 10/01 A2987 RMK CI2 SLP117

CYYC;2009-06-26 10:00;CYYC 261000Z 22005KT 15SM FEW095 BKN240 11/00 A2986 RMK AC1CI2 SLP115

CYYC;2009-06-26 11:00;CYYC 261100Z 00000KT 15SM FEW060 FEW095 SCT240 10/00 A2986 RMK CU1AC1CI2 SLP114

CYYC;2009-06-26 12:00;CYYC 261200Z 32002KT 20SM FEW050 FEW095 SCT250 10/01 A2987 RMK CU1AC1CI2 CU+AC TR SLP117

CYYC;2009-06-26 13:00;CYYC 261300Z 31002KT 30SM FEW050 FEW095 FEW250 11/02 A2987 RMK SC1AC1CI0 SLP119

CYYC;2009-06-26 14:00;CYYC 261400Z 23002KT 30SM FEW060 FEW250 15/01 A2987 RMK SC1CI1 SLP119

CYYC;2009-06-26 15:00;CYYC 261500Z 26009KT 30SM FEW060 FEW160 FEW250 17/01 A2987 RMK SC1AC1CI1 SLP113

CYYC;2009-06-26 16:00;CYYC 261600Z 27016G21KT 30SM FEW077 FEW250 18/M01 A2987 RMK CU1CI1 SLP111

CYYC;2009-06-26 17:00;CYYC 261700Z 29017KT 40SM FEW080 FEW110 FEW250 18/M02 A2986 RMK CU1AC1CI1 AC+CI TR SLP108

CYYC;2009-06-26 18:00;CYYC 261800Z 31014G26KT 40SM FEW080 FEW100 FEW250 19/M01 A2985 RMK CU1AC1CI1 AC+CI TR SLP105

CYYC;2009-06-26 19:00;CYYC 261900Z 26020G26KT 40SM FEW080 19/M02 A2985 RMK CU1 SLP105

CYYC;2009-06-26 20:00;CYYC 262000Z 24011G17KT 40SM FEW080 19/M03 A2984 RMK CU2 SLP102

CYYC;2009-06-26 21:00;CYYC 262100Z 28013G21KT 30SM FEW090TCU 20/M03 A2984 RMK TCU2 SH + VIRGA NE / VIS NE LWR SLP106

CYYC;2009-06-26 22:00;CYYC 262200Z 27013G21KT 30SM FEW090TCU 21/M02 A2984 RMK TCU2 SH + VIRGA NE / VIS NE LWR SLP106

CYYC;2009-06-26 23:00;CYYC 262300Z 28015G20KT 30SM FEW090TCU FEW250 21/M03 A2984 RMK TCU2CI1 SH + VIRGA NE-E / VIS NE-E LWR SLP108

CYYC;2009-06-27 00:00;CYYC 270000Z CCA 28017G22KT 30SM VCSH FEW095TCU 21/M03 A2985 RMK TCU2 SH + VIRGA N-E /VIS E LWR / CB EMBD N-E SLP108

CYYC;2009-06-27 01:00;CYYC 270100Z 27016G26KT 30SM VCSH FEW100TCU 20/M04 A2986 RMK TCU2 SH + VIRGA N-E /VIS N-E LWR SLP112

CYYC;2009-06-27 02:00;CYYC 270200Z 29015G21KT 30SM VCSH FEW055CB FEW093 19/M05 A2989 RMK CB2AC1 SH N SLP121

CYYC;2009-06-27 03:00;CYYC 270300Z 30015G20KT 30SM VCSH SCT055CB BKN091 18/M04 A2992 RMK CB3AC2 SH N-E SLP130

CYYC;2009-06-27 04:00;CYYC 270400Z 31010G17KT 30SM VCSH FEW055CB SCT083 BKN097 16/M04 A2995 RMK CB2AC2AC2 SH N-E SLP139

CYYC;2009-06-27 05:00;CYYC 270500Z 30010KT 15SM FEW060 SCT100 BKN240 15/M05 A2999 RMK SC1AC2CI1 SLP150

CYYC;2009-06-27 06:00;CYYC 270600Z 02006KT 15SM FEW090 FEW220 13/01 A3002 RMK AC1CI1 SLP168

CYYC;2009-06-27 07:00;CYYC 270700Z 02009KT 15SM FEW110 FEW230 10/02 A3005 RMK AC1CI1 AC+CI TR SLP177

CYYC;2009-06-27 08:00;CYYC 270800Z 36006KT 15SM SKC 09/02 A3006 RMK SLP181

CYYC;2009-06-27 09:00;CYYC 270900Z 30003KT 15SM SKC 08/01 A3007 RMK SLP191

CYYC;2009-06-27 10:00;CYYC 271000Z 32003KT 15SM SCT240 07/01 A3007 RMK CI2 SLP191

CYYC;2009-06-27 11:00;CYYC 271100Z 00000KT 20SM FEW100 SCT240 05/M00 A3008 RMK AC1CI2 AC TR SLP194

CYYC;2009-06-27 12:00;CYYC 271200Z 00000KT 40SM FEW110 FEW250 05/M00 A3010 RMK AC1CI1 AC+CI TR SLP204

CYYC;2009-06-27 13:00;CYYC 271300Z 18002KT 40SM FEW110 FEW250 08/01 A3012 RMK AC1CI1 AC+CI TR SLP209

CYYC;2009-06-27 14:00;CYYC 271400Z 03003KT 40SM FEW110 FEW250 10/02 A3012 RMK AC1CI1 AC+CI TR SLP210

CYYC;2009-06-27 15:00;CYYC 271500Z 28003KT 40SM FEW130 13/01 A3013 RMK AC1 AC TR SLP209

CYYC;2009-06-27 16:00;CYYC 271600Z 08002KT 40SM FEW250 16/00 A3012 RMK CI1 CI TR SLP205

CYYC;2009-06-27 17:00;CYYC 271700Z 36006KT 40SM FEW250 17/M04 A3011 RMK CI1 CI TR SLP203

CYYC;2009-06-27 18:00;CYYC 271800Z 04005KT 40SM FEW250 18/M04 A3010 RMK CI1 CI TR SLP199

CYYC;2009-06-27 19:00;CYYC 271900Z CCA 21007KT 40SM FEW170 FEW270 19/M05 A3008 RMK AC1CI0 AC TR SLP193

CYYC;2009-06-27 20:00;CYYC 272000Z 29006KT 40SM FEW170 FEW200 SCT270 21/M04 A3007 RMK AC1CI2CI0 SLP188

CYYC;2009-06-27 21:00;CYYC 272100Z 21007KT 40SM SCT130 BKN250 21/M04 A3006 RMK AC2CI2 SLP184

CYYC;2009-06-27 22:00;CYYC 272200Z 21006KT 40SM FEW130 SCT180 BKN240 22/M02 A3005 RMK AC2AC2CI3 ACSL W SLP183

CYYC;2009-06-27 23:00;CYYC 272300Z 20004KT 30SM SCT130 BKN200 BKN250 22/01 A3004 RMK AC4CI2CI1 SLP180

CYYC;2009-06-28 00:00;CYYC 280000Z 21003KT 30SM FEW130 FEW180 BKN200 BKN250 23/00 A3004 RMK AC2AC1CI3CI0 ACSL W SLP179

CYYC;2009-06-28 01:00;CYYC 280100Z 26007KT 40SM FEW130 SCT200 BKN250 23/01 A3003 RMK AC2CI2CI0 ACSL W SLP176

CYYC;2009-06-28 02:00;CYYC 280200Z 19008KT 40SM FEW130 SCT200 BKN250 22/01 A3002 RMK AC1CI2CI0 SLP174

CYYC;2009-06-28 03:00;CYYC 280300Z 17009KT 40SM FEW080 SCT160 BKN250 20/01 A3002 RMK CU1AC2CI2 SLP164

CYYC;2009-06-28 04:00;CYYC 280400Z 18011KT 40SM FEW080 FEW160 BKN240 19/01 A3001 RMK CU1AC1CI1 CU TR SLP162

CYYC;2009-06-28 05:00;CYYC 280500Z 16011KT 15SM FEW160 FEW240 17/02 A3000 RMK AC1CI1 SLP160

CYYC;2009-06-28 06:00;CYYC 280600Z 18008KT 15SM SCT180 16/03 A2999 RMK AS3 SLP155

CYYC;2009-06-28 07:00;CYYC 280700Z 17007KT 15SM BKN190 15/04 A2997 RMK AS4 SLP148

CYYC;2009-06-28 08:00;CYYC 280800Z 19006KT 15SM SCT190 14/04 A2995 RMK AS2 SLP143

CYYC;2009-06-28 09:00;CYYC 280900Z 21008KT 15SM FEW190 13/03 A2993 RMK AS2 SLP134

CYYC;2009-06-28 10:00;CYYC 281000Z 20009KT 15SM FEW190 13/03 A2991 RMK AS1 SLP127

CYYC;2009-06-28 11:00;CYYC 281100Z 20009KT 15SM FEW190 FEW250 14/03 A2989 RMK AS1CI1 SLP122

CYYC;2009-06-28 12:00;CYYC 281200Z 22008KT 30SM FEW060 15/03 A2989 RMK CU1 SLP116

CYYC;2009-06-28 13:00;CYYC 281300Z 22005KT 30SM FEW060 FEW120 16/03 A2987 RMK CU1AC1 SLP110

CYYC;2009-06-28 14:00;CYYC 281400Z 23006KT 40SM FEW060 FEW110 18/03 A2988 RMK CU1AC1 SLP113

CYYC;2009-06-28 15:00;CYYC 281500Z 26004KT 40SM FEW060 SCT110 19/04 A2988 RMK CU1AC3 SLP111

CYYC;2009-06-28 16:00;CYYC 281600Z 23004KT 40SM FEW060 FEW110 21/03 A2988 RMK CU1AC1 SLP111

CYYC;2009-06-28 17:00;CYYC 281700Z 29015G20KT 40SM FEW085 FEW110 23/M01 A2988 RMK CU1AC2 SLP109

CYYC;2009-06-28 18:00;CYYC 281800Z 29013G18KT 40SM FEW090 FEW100 23/M00 A2988 RMK CU2AC1 SLP111

CYYC;2009-06-28 19:00;CYYC 281900Z 27007G18KT 40SM FEW100 FEW140 FEW240 24/M02 A2989 RMK CU1AC1CI1 SLP112

CYYC;2009-06-28 20:00;CYYC 282000Z 03016G24KT 40SM FEW100 FEW140 FEW270 21/05 A2990 RMK CU1AC1CI1 SLP117

CYYC;2009-06-28 21:00;CYYC 282100Z 04008KT 40SM FEW100 FEW140 FEW270 21/05 A2992 RMK CU1AC1CI0 SLP128

CYYC;2009-06-28 22:00;CYYC 282200Z 04012G18KT 40SM FEW064 FEW100 FEW160 SCT220 22/05 A2992 RMK CU1AC1AC1CI0 SLP128

CYYC;2009-06-28 23:00;CYYC 282300Z 04016KT 40SM FEW064 FEW090 FEW220 21/05 A2993 RMK CU1AC2CI0 SLP131

CYYC;2009-06-29 00:00;CYYC 290000Z 03015KT 40SM FEW064 FEW120 FEW220 21/04 A2994 RMK CU1AC1CI0 SLP135

CYYC;2009-06-29 01:00;CYYC 290100Z 04014KT 40SM FEW064 SCT079 BKN260 20/05 A2995 RMK CU1AC3CI0 SLP138

CYYC;2009-06-29 02:00;CYYC 290200Z 03014G19KT 40SM FEW080 FEW250 19/04 A2997 RMK CU1CI0 SLP143

CYYC;2009-06-29 03:00;CYYC 290300Z 02015KT 30SM FEW080 FEW250 16/05 A2999 RMK CU1CI1 SLP154

CYYC;2009-06-29 04:00;CYYC 290400Z 02012KT 30SM FEW080 FEW120 FEW250 14/04 A3002 RMK CU1AC1CI1 SLP162

CYYC;2009-06-29 05:00;CYYC 290500Z 35008KT 30SM FEW080 FEW120 FEW250 13/03 A3004 RMK CU2AC1CI1 CI TR SLP168

CYYC;2009-06-29 06:00;CYYC 290600Z 34007KT 15SM BKN080 BKN120 13/04 A3005 RMK AC6AC1 SLP173

CYYC;2009-06-29 07:00;CYYC 290700Z 35005KT 15SM BKN070 12/04 A3007 RMK AC6 SLP178

CYYC;2009-06-29 08:00;CYYC 290800Z 35006KT 15SM BKN070 BKN100 12/03 A3007 RMK AC6AC1 SLP180

CYYC;2009-06-29 09:00;CYYC 290900Z 35005KT 15SM BKN070 BKN100 11/04 A3007 RMK AC6AC1 SLP185

CYYC;2009-06-29 10:00;CYYC 291000Z 01002KT 15SM SCT070 BKN100 11/03 A3008 RMK AC4AC2 SLP187

CYYC;2009-06-29 11:00;CYYC 291100Z 00000KT 15SM BKN063 11/03 A3009 RMK SC6 SLP189

CYYC;2009-06-29 12:00;CYYC 291200Z 17003KT 30SM SCT060 BKN100 11/03 A3009 RMK SC4AC2 SLP192

CYYC;2009-06-29 13:00;CYYC 291300Z 21005KT 30SM FEW060 BKN120 12/03 A3008 RMK SC2AC2 SLP191

CYYC;2009-06-29 14:00;CYYC 291400Z 15008KT 40SM FEW065 BKN110 12/04 A3009 RMK SC2AC3 SLP193

CYYC;2009-06-29 15:00;CYYC 291500Z 18012KT 40SM FEW040 FEW058 SCT140 14/04 A3008 RMK CU1SC2AC0 SLP190

CYYC;2009-06-29 16:00;CYYC 291600Z 16017KT 40SM FEW040 FEW110 FEW160 15/05 A3006 RMK CU1AC1AC1 SLP183

CYYC;2009-06-29 17:00;CYYC 291700Z 17016G24KT 40SM FEW045 FEW110 FEW140 17/05 A3003 RMK CU1AC1AC1 SLP174

CYYC;2009-06-29 18:00;CYYC 291800Z 16019G24KT 40SM FEW048 FEW110 18/05 A3001 RMK CU1AC1 SLP166

CYYC;2009-06-29 19:00;CYYC 291900Z 15019G24KT 40SM FEW052 FEW110 19/05 A2998 RMK CU1AC1 SLP157

CYYC;2009-06-29 20:00;CYYC 292000Z 16016KT 40SM FEW058 SCT120 20/06 A2995 RMK CU2AC1 SLP149

CYYC;2009-06-29 21:00;CYYC 292100Z 17016KT 40SM SCT062 SCT120 21/05 A2994 RMK CU3AC1 SLP141

CYYC;2009-06-29 22:00;CYYC 292200Z 17011G19KT 40SM FEW065 BKN270 22/05 A2992 RMK CU2CI0 SLP133

CYYC;2009-06-29 23:00;CYYC 292300Z 16014G21KT 30SM FEW065 BKN260 22/05 A2989 RMK CU1CI2 SLP126

CYYC;2009-06-30 00:00;CYYC 300000Z 14013G20KT 30SM FEW065 OVC260 22/06 A2987 RMK CU1CI4 SLP116

CYYC;2009-06-30 01:00;CYYC 300100Z 16016G24KT 30SM FEW065 FEW140 OVC260 22/05 A2986 RMK CU1AC1CS6 SLP112

CYYC;2009-06-30 02:00;CYYC 300200Z 14012G18KT 30SM FEW060 BKN110 BKN250 21/06 A2985 RMK CU1AC4CI2 SLP108

CYYC;2009-06-30 03:00;CYYC 300300Z 14013G19KT 30SM FEW060 SCT120 BKN250 20/05 A2985 RMK CU1AC2CI2 SLP104

CYYC;2009-06-30 04:00;CYYC 300400Z 15011KT 30SM FEW050 FEW140 BKN250 19/05 A2986 RMK CU1AC2CI2 SLP107

CYYC;2009-06-30 05:00;CYYC 300500Z 32015G21KT 15SM FEW080 SCT140 SCT250 16/M06 A2989 RMK AC1AC1CI1 LWR AC TR SLP117

CYYC;2009-06-30 06:00;CYYC 300600Z 35016G22KT 15SM BKN015 10/06 A2994 RMK SC6 CLDS RPDLY MOVING FM N SLP146

CYYC;2009-06-30 06:04;CYYC 300604Z 35015G22KT 15SM BKN013 10/ RMK SC6

CYYC;2009-06-30 07:00;CYYC 300700Z 36016KT 15SM FEW007 BKN013 OVC240 09/07 A2996 RMK SF1SC4CI0 SLP152

CYYC;2009-06-30 08:00;CYYC 300800Z 35010KT 15SM SCT007 BKN013 09/07 A2996 RMK SF3SC3 SLP153

CYYC;2009-06-30 09:00;CYYC 300900Z 33011KT 15SM OVC010 09/07 A2997 RMK SC8 SLP151

CYYC;2009-06-30 10:00;CYYC 301000Z 34009KT 15SM OVC014 10/07 A2997 RMK SC8 SLP152

CYYC;2009-06-30 11:00;CYYC 301100Z 34007KT 15SM OVC014 09/06 A2997 RMK SC8 SLP152

CYYC;2009-06-30 12:00;CYYC 301200Z 34005KT 20SM FEW014 FEW060 BKN220 08/05 A2997 RMK SC1SC2CI2 SLP153

CYYC;2009-06-30 13:00;CYYC 301300Z 28004KT 20SM FEW020 FEW070 SCT230 08/05 A2998 RMK SC1AC1CI1 SLP157

CYYC;2009-06-30 14:00;CYYC 301400Z 34008KT 40SM FEW035 FEW090 10/05 A2999 RMK SC1AC1 SLP158

CYYC;2009-06-30 15:00;CYYC 301500Z 35012KT 40SM BKN040 BKN090 11/05 A3000 RMK SC6AC1 SLP160

CYYC;2009-06-30 16:00;CYYC 301600Z 35012G17KT 40SM FEW032 BKN043 BKN090 11/03 A3000 RMK CU1SC6AC1 SLP161

CYYC;2009-06-30 17:00;CYYC 301700Z 03011G17KT 30SM FEW037 FEW045 FEW100 13/03 A2999 RMK CU1SC1AC1 SLP158

CYYC;2009-06-30 18:00;CYYC 301800Z 04008KT 30SM SCT039 SCT120 14/04 A2998 RMK CU3AC1 SLP166

CYYC;2009-06-30 19:00;CYYC 301900Z 02004KT 30SM FEW040 FEW160 14/04 A2998 RMK CU2AC1 SLP164

CYYC;2009-06-30 20:00;CYYC 302000Z 04007G15KT 30SM SCT044 BKN060 16/05 A2997 RMK CU3SC1 SLP162

CYYC;2009-06-30 21:00;CYYC 302100Z 07007KT 30SM SCT048 BKN060 16/04 A2997 RMK CU3SC2 SLP158

CYYC;2009-06-30 22:00;CYYC 302200Z 09008KT 30SM SCT048 SCT058 17/04 A2996 RMK CU3SC1 SLP157

CYYC;2009-06-30 23:00;CYYC 302300Z 13003KT 30SM FEW050 FEW060 18/05 A2996 RMK CU1SC1 SLP157

CYYC;2009-07-01 01:00;CYYC 010100Z 04014KT 30SM SCT052 BKN061 17/04 A3000 RMK CU3SC3 SH W+N / TCU ASOCTD SLP167

CYYC;2009-07-01 01:35;CYYC 010135Z 04025G30KT 20SM VCSH SCT068CB BKN090 12/ RMK CB3AC3 SH W

CYYC;2009-07-01 02:00;CYYC 010200Z 02023G29KT 20SM VCSH FEW065CB BKN073 OVC100 12/03 A3004 RMK CB2AC4AC1 SH W SLP179

CYYC;2009-07-01 03:00;CYYC 010300Z 02011G21KT 20SM -SHRA SCT058 SCT065CB BKN081 OVC110 09/03 A3007 RMK SC3CB1AC2AC2 SLP201

CYYC;2009-07-01 03:26;CYYC 010326Z 02015G20KT 30SM BKN055 BKN060CB OVC120 09/ RMK SC5CB2AC2 SH DIST NW

CYYC;2009-07-01 04:00;CYYC 010400Z 36008KT 20SM VCSH BKN053 BKN060CB OVC120 09/03 A3010 RMK SC6CB2AC1 SH ALQDS SLP211

CYYC;2009-07-01 05:00;CYYC 010500Z 27004KT 15SM OVC064 10/03 A3011 RMK SC8 SLP215

CYYC;2009-07-01 06:00;CYYC 010600Z 25005KT 15SM BKN065 BKN130 09/03 A3013 RMK SC5AC2 SLP217

CYYC;2009-07-01 07:00;CYYC 010700Z 26003KT 15SM FEW065 SCT100 08/01 A3014 RMK SC2AC1 SLP220

CYYC;2009-07-01 08:00;CYYC 010800Z 30003KT 15SM FEW065 FEW140 07/02 A3014 RMK SC1AC1 SLP221

CYYC;2009-07-01 09:00;CYYC 010900Z 00000KT 15SM FEW070 FEW130 07/02 A3014 RMK AC1AC1 SLP223

CYYC;2009-07-01 10:00;CYYC 011000Z 00000KT 15SM SCT077 06/01 A3016 RMK AC2 SLP229

CYYC;2009-07-01 11:00;CYYC 011100Z 00000KT 20SM SCT078 SCT130 06/01 A3017 RMK AC2AC1 ACSL S SLP230

CYYC;2009-07-01 12:00;CYYC 011200Z CCA 00000KT 30SM FEW080 06/01 A3017 RMK AC1 SLP230

CYYC;2009-07-01 13:00;CYYC 011300Z 00000KT 30SM FEW090 FEW250 06/01 A3017 RMK AC1CI0 AC TR SLP231

CYYC;2009-07-01 14:00;CYYC 011400Z 00000KT 40SM FEW080 FEW250 09/02 A3018 RMK AC1CI1 SLP233

CYYC;2009-07-01 15:00;CYYC 011500Z 20003KT 40SM FEW080 12/02 A3017 RMK AC1 SLP234

CYYC;2009-07-01 16:00;CYYC 011600Z 18003KT 40SM FEW080 FEW250 15/M03 A3017 RMK AC1CI1 SLP234

CYYC;2009-07-01 17:00;CYYC 011700Z 16007KT 40SM FEW070 15/M03 A3016 RMK CU1 SLP230

CYYC;2009-07-01 18:00;CYYC 011800Z 18010KT 40SM FEW080 17/M02 A3015 RMK CU1 SLP220

CYYC;2009-07-01 19:00;CYYC 011900Z 17010G15KT 40SM FEW080 17/M01 A3013 RMK CU1 SLP216

CYYC;2009-07-01 20:00;CYYC 012000Z 12009KT 30SM FEW080 18/M00 A3012 RMK CU1 SLP212

CYYC;2009-07-01 21:00;CYYC 012100Z 10009KT 30SM FEW080 19/01 A3012 RMK CU2 SH DIST SW /HZ SLP210

CYYC;2009-07-01 22:00;CYYC 012200Z 14010KT 25SM SCT085 19/02 A3011 RMK CU4 HZ SLP208

CYYC;2009-07-01 23:00;CYYC 012300Z 15008KT 30SM SCT080TCU BKN110 18/02 A3011 RMK TCU4AC2 SH DIST W SLP208

CYYC;2009-07-01 23:18;CYYC 012318Z 13003KT 30SM -SHRA BKN080TCU BKN110 18/ RMK TCU5AC2 CB EMBD

CYYC;2009-07-01 23:34;CYYC 012334Z 07010G34KT 20SM SHRA BKN060CB BKN100 18/ RMK CB6AC2 WSHFT 2330

CYYC;2009-07-01 23:37;CYYC 012337Z 27014G34KT 20SM SHRA BKN060CB BKN100 16/ RMK CB6AC2 WSHFT 2337

CYYC;2009-07-01 23:51;CYYC 012351Z 22014G25KT 20SM SHRA BKN040CB BKN100 15/ RMK CB5AC1 WSHFT 2350 / TS MOVG E / VIS S 5

CYYC;2009-07-02 00:00;CYYC 020000Z CCA 14014G27KT 15SM -SHRA SCT040CB BKN120 16/05 A3012 RMK CB4AC1 VIS S-W 5 / LTGCG SW / WSHFT 2357 SLP217

CYYC;2009-07-02 00:24;CYYC 020024Z 12018G25KT 20SM BKN040CB BKN120 16/ RMK CB5AC1 VIS S-W 5 / LTGCG DIST SW / WSHFT 2357

CYYC;2009-07-02 01:00;CYYC 020100Z 09011KT 30SM SCT040CB BKN100 16/05 A3013 RMK CB4AC2 CB S-E+W-N /SH DIST S-E+W-N / VIS S-E + W-N LWR SLP221

CYYC;2009-07-02 02:00;CYYC 020200Z 23005KT 30SM VCSH FEW040 SCT070CB BKN100 14/04 A3017 RMK CU1CB3AC4 HVY SH W-N SLP232

CYYC;2009-07-02 02:22;CYYC 020222Z 01010G17KT 30SM -SHRA FEW060 SCT070CB OVC093 13/ RMK SC1CB3AC3

CYYC;2009-07-02 03:00;CYYC 020300Z 01008KT 30SM -SHRA FEW060 SCT070CB BKN087 OVC120 13/05 A3018 RMK SC1CB2AC2AC2 SLP233

CYYC;2009-07-02 03:38;CYYC 020338Z 02008KT 20SM VCSH FEW060 SCT070CB OVC110 13/ RMK SC1CB4AC3 LTGCC DIST S/ HVY SH S

CYYC;2009-07-02 04:00;CYYC 020400Z 00000KT 20SM VCSH FEW050 SCT075CB OVC100 13/05 A3019 RMK SC1CB4AC3 LTGCC DIST S/ HVY SH S SLP236

CYYC;2009-07-02 05:00;CYYC 020500Z 11002KT 15SM FEW060 FEW080CB OVC110 13/04 A3020 RMK SC1CB2AC6 SH DIST S SLP238

CYYC;2009-07-02 06:00;CYYC 020600Z 27008KT 15SM FEW060 BKN099 OVC120 12/05 A3021 RMK SC1AC4AC2 SLP238

CYYC;2009-07-02 07:00;CYYC 020700Z 25007KT 15SM FEW070 OVC140 12/05 A3021 RMK AC2AC6 SLP239

CYYC;2009-07-02 08:00;CYYC 020800Z 27006KT 15SM FEW080 OVC140 12/04 A3021 RMK AC2AC6 SLP239

CYYC;2009-07-02 09:00;CYYC 020900Z 17003KT 15SM SCT095 BKN130 10/04 A3021 RMK AC3AC2 SLP238

CYYC;2009-07-02 10:00;CYYC 021000Z 19004KT 15SM FEW095 BKN140 08/04 A3022 RMK AC1AC1 SLP239

CYYC;2009-07-02 11:00;CYYC 021100Z 00000KT 20SM FEW080 BKN120 08/04 A3022 RMK AC2AC1 SLP241

CYYC;2009-07-02 12:00;CYYC 021200Z 35004KT 20SM FEW080 BKN120 07/03 A3023 RMK AC1AC2 SLP254

CYYC;2009-07-02 13:00;CYYC 021300Z 36006KT 30SM FEW085 SCT140 08/04 A3024 RMK AC2AC1 SLP255

CYYC;2009-07-02 14:00;CYYC 021400Z 36006KT 20SM FEW085 10/04 A3023 RMK AC1 SLP254

CYYC;2009-07-02 15:00;CYYC 021500Z 35003KT 20SM FEW060 FEW080 12/05 A3023 RMK SC1AC1 SC TR SLP248

CYYC;2009-07-02 16:00;CYYC 021600Z 00000KT 20SM FEW040 BKN065 15/05 A3022 RMK CU1SC6 SLP246

CYYC;2009-07-02 17:00;CYYC 021700Z 14006KT 30SM FEW040 SCT060 16/06 A3020 RMK CU1SC2 ACC ASOCTD NE SLP241

CYYC;2009-07-02 18:00;CYYC 021800Z 18007KT 30SM FEW040 BKN060 17/05 A3019 RMK CU2SC3 SLP232

CYYC;2009-07-02 19:00;CYYC 021900Z 17009G16KT 30SM FEW040 BKN060 18/05 A3018 RMK CU2SC3 SLP229

CYYC;2009-07-02 20:00;CYYC 022000Z 15010G16KT 30SM SCT050TCU BKN060 19/07 A3017 RMK TCU3SC1 SLP224

CYYC;2009-07-02 21:00;CYYC 022100Z 18007KT 30SM SCT050TCU 19/06 A3015 RMK TCU4 SLP217

CYYC;2009-07-02 22:00;CYYC 022200Z 12011KT 30SM SCT070TCU 20/06 A3013 RMK TCU3 SLP211

CYYC;2009-07-02 23:00;CYYC 022300Z 13011G19KT 30SM FEW050 19/06 A3012 RMK CU2 SLP206

CYYC;2009-07-03 00:00;CYYC 030000Z 15013KT 30SM FEW060 FEW080 21/07 A3010 RMK CU2AC0 SLP202

CYYC;2009-07-03 01:00;CYYC 030100Z 16008KT 20SM FEW050 20/07 A3009 RMK CU1 HZ SLP200

CYYC;2009-07-03 02:00;CYYC 030200Z 12006KT 20SM FEW060 FEW082 19/07 A3009 RMK CU1AC2 SLP200

CYYC;2009-07-03 03:00;CYYC 030300Z CCA 11005KT 30SM FEW052 BKN070 BKN083 19/07 A3010 RMK SC2AC3AC1 SLP198

CYYC;2009-07-03 04:00;CYYC 030400Z 03008KT 20SM FEW052 SCT080 OVC120 15/07 A3013 RMK SC1AC3AC3 SLP205

CYYC;2009-07-03 04:34;CYYC 030434Z 36005KT 15SM TS BKN054CB OVC110 14/ RMK CB6AC2 LTGIC W

CYYC;2009-07-03 04:56;CYYC 030456Z 04010G15KT 15SM -TSRA BKN054CB OVC110 14/ RMK CB6AC2 LTGCG S-W

CYYC;2009-07-03 05:00;CYYC 030500Z 04010G15KT 12SM -TSRA BKN052CB OVC100 14/08 A3014 RMK CB6AC2 LTGCG S-W SLP210

CYYC;2009-07-03 05:30;CYYC 030530Z 09008KT 15SM TS SCT060CB BKN110 13/ RMK CB3AC3 TS+LTGCG E+SW

CYYC;2009-07-03 06:00;CYYC 030600Z 36004KT 15SM TS FEW056CB BKN110 13/08 A3016 RMK CB2AC3 LTGIC E-SE SLP218

CYYC;2009-07-03 06:29;CYYC 030629Z 36017KT 15SM -TSRA BKN053CB OVC110 12/ RMK CB5AC3 LTGIC E+S

CYYC;2009-07-03 07:00;CYYC 030700Z 35018G25KT 15SM -SHRA SCT064 BKN110 10/06 A3021 RETS RMK SC3AC2 SLP235

CYYC;2009-07-03 07:11;CYYC 030711Z 35021G29KT 15SM FEW062 SCT070CB BKN110 10/ RMK SC2CB2AC1 LTGIC E+S

CYYC;2009-07-03 08:00;CYYC 030800Z 34015KT 15SM FEW015 OVC061 09/06 A3022 RMK SC2SC5 CLDS RPDLY MOVING FROM N TO S SLP237

CYYC;2009-07-03 08:09;CYYC 030809Z 35016KT 15SM BKN011 OVC058 09/ RMK SC6SC2 CLDS RPDLY MOVING FROM N TO S

CYYC;2009-07-03 09:00;CYYC 030900Z CCA 35013KT 15SM SCT014 OVC065 09/06 A3021 RMK SC4SC4 SLP238

CYYC;2009-07-03 10:00;CYYC 031000Z 33008KT 15SM FEW014 BKN065 OVC086 09/06 A3021 RMK SF1SC4AC2 SLP239

CYYC;2009-07-03 11:00;CYYC 031100Z 31009KT 15SM FEW018 SCT055 OVC074 10/06 A3021 RMK SC2SC2AC4 SLP239

CYYC;2009-07-03 12:00;CYYC 031200Z 32005KT 20SM BKN018 OVC078 09/05 A3022 RMK SC6AC2 SLP239

CYYC;2009-07-03 13:00;CYYC 031300Z 33006KT 20SM OVC019 09/05 A3023 RMK SC8 SLP243

CYYC;2009-07-03 14:00;CYYC 031400Z 36007KT 20SM FEW020 11/05 A3023 RMK SC1 SLP242

CYYC;2009-07-03 15:00;CYYC 031500Z 03004KT 20SM FEW025 FEW070 FEW220 12/07 A3023 RMK CU1AC1CI1 SLP242

CYYC;2009-07-03 16:00;CYYC 031600Z 03004KT 20SM FEW025 FEW075 13/07 A3023 RMK CU1AC1 SLP242

CYYC;2009-07-03 17:00;CYYC 031700Z 03004KT 20SM BKN030 14/07 A3023 RMK SC6 SLP240

CYYC;2009-07-03 18:00;CYYC 031800Z 05005KT 20SM BKN038 15/07 A3022 RMK SC6 SLP242

CYYC;2009-07-03 19:00;CYYC 031900Z 04004KT 20SM FEW040 17/07 A3022 RMK CU2 SLP241

CYYC;2009-07-03 20:00;CYYC 032000Z 01007KT 20SM FEW040 18/06 A3022 RMK CU2 SLP241

CYYC;2009-07-03 21:00;CYYC 032100Z 05008KT 20SM FEW050 19/05 A3020 RMK CU1 SLP236

CYYC;2009-07-03 22:00;CYYC 032200Z 04006KT 20SM FEW050 FEW080 19/05 A3020 RMK CU1AC1 AC TR SLP236

CYYC;2009-07-03 23:00;CYYC 032300Z 06006KT 20SM FEW050 FEW100 19/05 A3019 RMK CU2AC1 SLP233

CYYC;2009-07-04 00:00;CYYC 040000Z 08008KT 20SM FEW050 SCT080 19/04 A3019 RMK CU2AC1 TCU ASOCTD W SLP231

CYYC;2009-07-04 01:00;CYYC 040100Z 11004KT 20SM SCT060 SCT080 19/05 A3019 RMK CU3AC1 SLP230

CYYC;2009-07-04 02:00;CYYC 040200Z 06005KT 20SM FEW062 FEW100 18/04 A3019 RMK SC1AC1 SLP231

CYYC;2009-07-04 03:00;CYYC 040300Z 08008KT 20SM FEW062 FEW100 17/05 A3019 RMK SC1AC2 SLP230

CYYC;2009-07-04 04:00;CYYC 040400Z 13003KT 20SM FEW060 FEW077 BKN140 BKN230 17/05 A3021 RMK SC1AC2AC2CI1 SC TR SLP235

CYYC;2009-07-04 05:00;CYYC 040500Z 09006KT 15SM FEW060 SCT078 SCT120 14/05 A3021 RMK SC1AC2AC1 SC TR SLP237

CYYC;2009-07-04 06:00;CYYC 040600Z 09006KT 15SM FEW062 FEW120 13/04 A3022 RMK SC1AC2 SLP241

CYYC;2009-07-04 07:00;CYYC 040700Z 10009KT 15SM OVC058 15/04 A3021 RMK SC7 SLP240

CYYC;2009-07-04 08:00;CYYC 040800Z 13008KT 15SM SCT057 OVC120 14/05 A3021 RMK SC4AC3 SLP240

CYYC;2009-07-04 09:00;CYYC 040900Z 14009KT 15SM FEW063 SCT130 SCT250 13/04 A3021 RMK SC1AC1CI0 SLP234

CYYC;2009-07-04 10:00;CYYC 041000Z 16008KT 15SM FEW065 BKN074 12/05 A3020 RMK SC2AC2 SLP232

CYYC;2009-07-04 11:00;CYYC 041100Z 16008KT 15SM SCT060 BKN085 OVC200 12/05 A3019 RMK SC4ACC1CI3 SLP229

CYYC;2009-07-04 12:00;CYYC 041200Z 16009KT 20SM FEW065 FEW085 BKN190 OVC220 12/05 A3020 RMK SC1AC1AC5CI2 SLP230

CYYC;2009-07-04 13:00;CYYC 041300Z 14008KT 20SM FEW065 FEW070 SCT120 OVC200 13/06 A3019 RMK SC1ACC1AC3CI3 ACC TR SLP228

CYYC;2009-07-04 14:00;CYYC 041400Z 15011G17KT 20SM FEW080 SCT120 OVC240 14/07 A3018 RMK AC1AC2CI4 SLP224

CYYC;2009-07-04 15:00;CYYC 041500Z CCA 14012G17KT 20SM FEW040 FEW080 SCT180 OVC240 15/08 A3015 RMK CU1AC1AC3CI3 CU+ LWR AC TR SLP213

CYYC;2009-07-04 16:00;CYYC 041600Z 14014KT 20SM FEW080 SCT170 BKN250 17/08 A3014 RMK AC1AC2CI1 SLP209

CYYC;2009-07-04 17:00;CYYC 041700Z 14014KT 20SM FEW080 FEW140 SCT250 19/09 A3012 RMK AC1AC2CI0 SLP203

CYYC;2009-07-04 18:00;CYYC 041800Z 16012G17KT 20SM FEW050 FEW080 BKN140 BKN200 22/10 A3011 RMK CU1AC2AC4CI0 CU TR SLP195

CYYC;2009-07-04 19:00;CYYC 041900Z 15018KT 20SM FEW050 FEW080 FEW160 SCT250 22/10 A3008 RMK CU1AC1AC2CI0 CU TR SLP188

CYYC;2009-07-04 20:00;CYYC 042000Z 16015G24KT 25SM FEW050 FEW070CB FEW140 SCT250 24/10 A3006 RMK CU1CB1AC2CI0 CU+CB TR SLP181

CYYC;2009-07-04 21:00;CYYC 042100Z 14012G18KT 25SM FEW070CB FEW140 SCT250 24/10 A3003 RMK CB1AC2CI0 SLP162

CYYC;2009-07-04 22:00;CYYC 042200Z 18014G21KT 25SM VCSH FEW040 SCT070CB BKN120 OVC220 23/09 A3002 RMK CU1CB3AC2CI2 LTGCG W SLP160

CYYC;2009-07-04 22:18;CYYC 042218Z 18014G21KT 20SM -SHRA FEW040 BKN090CB OVC120 22/ RMK CU1CB6AC2 LTGCG W

CYYC;2009-07-04 22:29;CYYC 042229Z 20018KT 20SM -TSRA FEW061 BKN087CB OVC120 22/ RMK CU1CB6AC2 LTGIC W

CYYC;2009-07-04 22:55;CYYC 042255Z 15013KT 40SM TS SCT060CB BKN110 21/ RMK CB3AC2

CYYC;2009-07-04 23:00;CYYC 042300Z 14012G17KT 40SM TS SCT060CB BKN110 21/11 A3001 RMK CB3AC2 SLP158

CYYC;2009-07-04 23:21;CYYC 042321Z 17011G18KT 30SM SCT065CB SCT110 23/ RETS RMK CB3AC1

CYYC;2009-07-05 00:00;CYYC 050000Z CCA 17012G19KT 30SM FEW070CB SCT110 23/09 A3001 RETS RMK CB1AC2 SLP159

CYYC;2009-07-05 01:00;CYYC 050100Z 06013G20KT 30SM FEW070CB FEW080 BKN140 17/09 A3003 RMK CB2AC1AC2 VIRGA SW SLP167

CYYC;2009-07-05 02:00;CYYC 050200Z 05007KT 20SM -SHRA BKN045CB BKN100 OVC220 17/09 A3011 RMK CB5AC2CI0 SLP190

CYYC;2009-07-05 03:00;CYYC 050300Z 04006KT 30SM -SHRA SCT050CB BKN160 BKN220 14/10 A3009 RMK CB4AC1CI0 SLP198

CYYC;2009-07-05 03:20;CYYC 050320Z CCA 02009KT 30SM FEW025 FEW050CB SCT160 BKN220 14/ RMK CF1CB2AC2CI0 SH DIST E /CB NE-SE /CONTRAILS

CYYC;2009-07-05 04:00;CYYC 050400Z 17006KT 30SM FEW020 FEW050CB BKN140 14/10 A3011 RMK CF1CB2AC5 CB E+SW / SH DIST E+SW / LTGCG SW / CONTRAILS SLP202

CYYC;2009-07-05 05:00;CYYC 050500Z 03006KT 8SM -SHRA OVC072 13/10 A3013 RMK AC7 SLP208

CYYC;2009-07-05 06:00;CYYC 050600Z 33003KT 15SM -SHRA FEW070 BKN120 13/10 A3013 RMK AC2AC3 SLP204

CYYC;2009-07-05 06:54;CYYC 050654Z 23005KT 15SM FEW030 BKN120 12/ RMK CF1AC6

CYYC;2009-07-05 07:00;CYYC 050700Z 24006KT 15SM FEW030 BKN120 12/10 A3014 RMK CF1AC6 SLP207

CYYC;2009-07-05 08:00;CYYC 050800Z 23009KT 15SM -SHRA FEW060 BKN120 12/10 A3013 RMK SC2AC4 SLP204

CYYC;2009-07-05 09:00;CYYC 050900Z CCA 07002KT 15SM -RA FEW020 FEW060CB OVC085 12/10 A3013 RMK CF1CB1AC6 LTG DIST S / CLD ON RWY /CB S SLP200

CYYC;2009-07-05 10:00;CYYC 051000Z 05002KT 15SM -RA SCT025 SCT060CB BKN080 12/09 A3014 RMK SC2CB1AC4 LTGCG + CC DIST SE-SW / PCPN VRY LGH / CB S SLP202

CYYC;2009-07-05 11:00;CYYC 051100Z 36004KT 15SM -RA FEW015 FEW030 FEW080 BKN120 12/09 A3013 RMK CF1SC1AC2AC3 LTGCG + CC DIST SE-SW / PCPN VRY LGT SLP200

CYYC;2009-07-05 12:00;CYYC 051200Z 18008KT 20SM -RA FEW030 BKN080CB BKN120 12/09 A3010 RMK CF1CB5AC1 SLP192

CYYC;2009-07-05 12:31;CYYC 051231Z 21002KT 20SM FEW040 FEW080CB SCT120 BKN220 12/ RMK SC1CB2AC1CI0 SH DIST SE / SC TR

CYYC;2009-07-05 13:00;CYYC 051300Z 21002KT 20SM FEW080CB BKN120 13/10 A3011 RMK CB1AC2 SLP195

CYYC;2009-07-05 14:00;CYYC 051400Z 19006KT 40SM FEW030 SCT085 BKN120 14/10 A3009 RMK SC1AC3AC3 VIRGA / ACC ASOCTD S SLP188

CYYC;2009-07-05 14:51;CYYC 051451Z 07005KT 40SM -SHRA FEW020TCU FEW085 BKN110 14/ RMK TCU1AC2AC5

CYYC;2009-07-05 15:00;CYYC 051500Z 09004KT 30SM -SHRA FEW015 SCT070 BKN095 14/10 A3011 RMK SC2AC2AC3 TCU ASOCTD SLP206

CYYC;2009-07-05 15:42;CYYC 051542Z 07004KT 30SM FEW020 SCT070 BKN110 15/ RMK SC2AC2AC3 SH E / TCU EMBD

CYYC;2009-07-05 16:00;CYYC 051600Z 06004KT 30SM FEW020 FEW070 BKN120 OVC230 16/11 A3011 RMK CU1AC1AC4CS2 SH E SLP206

CYYC;2009-07-05 17:00;CYYC 051700Z CCA 08005KT 30SM FEW028 BKN100 OVC240 17/11 A3010 RMK CU1AC5CS2 SLP202

CYYC;2009-07-05 18:00;CYYC 051800Z 09007KT 30SM FEW028 SCT100 OVC230 18/11 A3009 RMK CU1AC3CS2 SLP193

CYYC;2009-07-05 19:00;CYYC 051900Z 09007KT 30SM SCT030 BKN140 BKN230 19/12 A3008 RMK CU4AC2CI1 SLP191

CYYC;2009-07-05 20:00;CYYC 052000Z 12010KT 30SM BKN037 BKN140 19/11 A3006 RMK CU6AC1 SLP185

CYYC;2009-07-05 21:00;CYYC 052100Z 12008KT 30SM SCT037 BKN062 BKN140 20/11 A3005 RMK CU3SC2AC2 TCU ASOCTD SLP178

CYYC;2009-07-05 22:00;CYYC 052200Z 12011G16KT 20SM BKN038 BKN060 21/11 A3003 RMK CU5SC2 SH SW-W / TCU ASOCTD SLP171

CYYC;2009-07-05 23:00;CYYC 052300Z 09007KT 20SM BKN038 BKN053 OVC120 20/11 A3004 RMK CU5SC2AC1 SH ALQDS / TCU ASOCTD SLP175

CYYC;2009-07-05 23:15;CYYC 052315Z 10012KT 20SM -SHRA BKN038 BKN052 BKN110 BKN230 20/ RMK CU5SC2AC1CS1 CB EMBD S

CYYC;2009-07-05 23:43;CYYC 052343Z 12012KT 20SM SCT038CB BKN052 BKN100 20/ RMK CB3SC1AC3 SH W-S

CYYC;2009-07-06 00:00;CYYC 060000Z 11013KT 20SM VCSH SCT040CB SCT052 BKN098 21/12 A3000 RMK CB4SC1AC3 SH ALQDS SLP160

CYYC;2009-07-06 01:00;CYYC 060100Z 13014KT 30SM SCT040CB SCT055 BKN098 BKN120 20/11 A3003 RMK CB3SC1AC3AC1 SH NW-S SLP167

CYYC;2009-07-06 02:00;CYYC 060200Z 15008KT 20SM FEW040 BKN120 OVC210 18/11 A3003 RMK CF1AC7CI0 SLP168

CYYC;2009-07-06 03:00;CYYC 060300Z 15010KT 20SM FEW040 SCT090 OVC210 17/09 A3002 RMK CF1AC3CI0 SLP170

CYYC;2009-07-06 04:00;CYYC 060400Z CCA 22005KT 20SM BKN090 OVC150 16/11 A3003 RMK AC6AC2 SLP171

CYYC;2009-07-06 05:00;CYYC 060500Z 23007KT 20SM BKN090 16/11 A3002 RMK AC6 SLP169

CYYC;2009-07-06 06:00;CYYC 060600Z 29003KT 15SM OVC093 16/11 A3002 RMK AC8 SLP163

CYYC;2009-07-06 07:00;CYYC 060700Z 03006KT 15SM SCT065 OVC090 15/11 A3002 RMK SC4AC4 SLP164

CYYC;2009-07-06 08:00;CYYC 060800Z 06006KT 15SM FEW035 BKN065 OVC090 15/11 A3002 RMK SC2SC3AC2 SLP163

CYYC;2009-07-06 09:00;CYYC 060900Z 08007KT 15SM FEW030 OVC060 15/10 A3001 RMK CF1SC8 SLP159

CYYC;2009-07-06 10:00;CYYC 061000Z 08007KT 15SM FEW030 OVC060 14/10 A3001 RMK CF1SC8 SLP159

CYYC;2009-07-06 11:00;CYYC 061100Z 11003KT 20SM FEW030 OVC050 14/10 A2997 RMK CF1SC8 SLP148

CYYC;2009-07-06 12:00;CYYC 061200Z 11003KT 20SM OVC062 14/11 A2997 RMK SC8 SLP145

CYYC;2009-07-06 13:00;CYYC 061300Z 14003KT 20SM BKN040 OVC060 15/11 A2997 RMK SC7SC1 SLP144

CYYC;2009-07-06 14:00;CYYC 061400Z 17003KT 20SM SCT038 OVC045 15/10 A2996 RMK SC3SC5 SLP142

CYYC;2009-07-06 15:00;CYYC 061500Z 14006KT 30SM BKN045 OVC060 16/10 A2995 RMK SC6SC2 SLP141

CYYC;2009-07-06 16:00;CYYC 061600Z 14008KT 30SM FEW025 SCT045 BKN077 17/11 A2993 RMK CU1SC3AC3 SLP135

CYYC;2009-07-06 17:00;CYYC 061700Z 15010G16KT 30SM FEW028 BKN056 OVC068 18/11 A2990 RMK CU1SC6AC1 SLP128

CYYC;2009-07-06 18:00;CYYC 061800Z 14012KT 30SM FEW028 OVC058 17/11 A2988 RMK CU1SC8 SLP117

CYYC;2009-07-06 18:51;CYYC 061851Z 11010KT 15SM -RA SCT017 SCT030 OVC052 16/ RMK SC4SC1SC4 VIS S-W 6

CYYC;2009-07-06 19:00;CYYC 061900Z 11014KT 15SM -SHRA SCT018 BKN025 OVC050 15/12 A2985 RMK SC4SC1SC3 VIS S-W 6 SLP110

CYYC;2009-07-06 20:00;CYYC 062000Z 12011G17KT 5SM SHRA SCT018 BKN023 OVC045 15/12 A2984 RMK SC3SC2SC2 CB DIST W SLP106

CYYC;2009-07-06 20:44;CYYC 062044Z 12009G15KT 2SM SHRA BR BKN013 OVC023 15/ RMK SC5SC3

CYYC;2009-07-06 20:49;CYYC 062049Z 12008G15KT 1 3/4SM TSRA BR BKN014 OVC018 15/ RMK SC5SC3 CB EMBD

CYYC;2009-07-06 21:00;CYYC 062100Z 12014KT 1SM TSRA BR FEW009 BKN011 OVC023 14/13 A2981 RERA RMK SC2SC4SC2 CB EMBD SLP098

CYYC;2009-07-06 21:14;CYYC 062114Z 19017G25KT 3/4SM +TSRA BR SCT004 BKN011 OVC019 14/ RMK SC3SC3SC2 CB EMBD / WSHFT 2105Z

CYYC;2009-07-06 21:23;CYYC 062123Z CCA 16017G22KT 7SM -TSRA FEW008 SCT014 BKN034 OVC066 13/ RERA RMK SC1SC2SC2AC3 CB EMBD /R20/

CYYC;2009-07-06 22:00;CYYC 062200Z 13011G18KT 10SM -SHRA FEW007CB SCT014 BKN034 OVC120 12/11 A2980 RETSRA RMK CB2SC2SC2AC2 SLP095

CYYC;2009-07-06 22:24;CYYC 062224Z 13007KT 15SM FEW007CB FEW030 SCT120 OVC180 13/ RMK CB1SC2AC2AC2 SH ALQDS

CYYC;2009-07-06 22:50;CYYC 062250Z 11008KT 20SM FEW007CB BKN010 BKN120 OVC180 15/ RMK CB1SC6AC1AC1 SH ALQDS

CYYC;2009-07-06 23:00;CYYC 062300Z 10013KT 20SM FEW007CB BKN011 OVC031 15/12 A2979 RMK CB1SC6SC2 SH NW-S SLP092

CYYC;2009-07-07 00:00;CYYC 070000Z 09011G16KT 20SM FEW008 SCT011TCU BKN033 OVC045 14/11 A2978 RMK SC1TCU3SC1SC4 SH/CB E SLP088

CYYC;2009-07-07 00:38;CYYC 070038Z 08007KT 20SM BKN010 BKN020 BKN038 15/ RMK CU5SC2SC1 SH S-SW / TCU ASOCTD

CYYC;2009-07-07 01:00;CYYC 070100Z 09006KT 20SM BKN011 OVC030 14/11 A2979 RMK CU5SC2 SLP092

CYYC;2009-07-07 02:00;CYYC 070200Z 12010KT 15SM OVC013 15/12 A2979 RMK SC8 SLP093

CYYC;2009-07-07 03:00;CYYC 070300Z 12008KT 15SM BKN014 OVC100 14/11 A2981 RMK SC6AC2 SLP096

CYYC;2009-07-07 04:00;CYYC 070400Z 13012KT 15SM BKN013 OVC100 13/10 A2982 RMK SC5AC3 SLP099

CYYC;2009-07-07 05:00;CYYC 070500Z 17006KT 15SM FEW020 SCT089 OVC140 12/10 A2981 RMK SC2AC2AC2 SLP096

CYYC;2009-07-07 06:00;CYYC 070600Z 19004KT 15SM FEW060 SCT085 OVC160 12/10 A2978 RMK SC1AC3AC3 SLP088

CYYC;2009-07-07 07:00;CYYC 070700Z 16004KT 15SM SCT021 OVC180 12/09 A2979 RMK SC3AC5 SLP090

CYYC;2009-07-07 08:00;CYYC 070800Z 00000KT 15SM SCT008 OVC110 11/10 A2976 RMK SC4AC3 SLP082

CYYC;2009-07-07 08:17;CYYC 070817Z 18004KT 15SM OVC008 12/ RMK SC8 VIRGA E

CYYC;2009-07-07 09:00;CYYC 070900Z 25002KT 15SM BKN009 11/10 A2975 RMK SC6 SLP083

CYYC;2009-07-07 10:00;CYYC 071000Z 17002KT 15SM -RA FEW020 11/07 A2974 RMK SC2 SLP080

CYYC;2009-07-07 11:00;CYYC 071100Z 28011G16KT 20SM FEW030 FEW250 12/04 A2973 RMK SC2CI0 SLP078

CYYC;2009-07-07 12:00;CYYC 071200Z 30006KT 30SM FEW040 FEW250 11/03 A2974 RMK SC1CI0 SLP078

CYYC;2009-07-07 13:00;CYYC 071300Z 35007KT 30SM FEW050 FEW080 FEW250 10/04 A2976 RMK SC1AC1CI1 SLP085

CYYC;2009-07-07 14:00;CYYC 071400Z 33005KT 40SM FEW024 BKN070 BKN260 12/05 A2978 RMK CU1AC5CI0 SLP090

CYYC;2009-07-07 15:00;CYYC 071500Z 32008KT 40SM FEW024 BKN073 BKN260 14/09 A2977 RMK CU1AC6CI0 SH N / TCU ASOCTD SLP087

CYYC;2009-07-07 16:00;CYYC 071600Z 32008KT 40SM FEW031 SCT075 SCT090 BKN260 15/08 A2978 RMK CU1AC2AC1CI0 TCU ASOCTD N SLP089

CYYC;2009-07-07 17:00;CYYC 071700Z 33006KT 40SM FEW044 FEW080 SCT240 17/06 A2978 RMK CU1AC1CI1 TCU ASOCTD N SLP089

CYYC;2009-07-07 18:00;CYYC 071800Z 27006KT 40SM FEW044 FEW057 BKN240 17/07 A2977 RMK CU2SC1CI1 TCU ASOCTD SLP084

CYYC;2009-07-07 19:00;CYYC 071900Z 29004KT 40SM BKN056 BKN070 BKN210 18/04 A2976 RMK CU6AC1CI0 TCU ASOCTD SLP082

CYYC;2009-07-07 20:00;CYYC 072000Z 04003KT 40SM BKN062 BKN070 19/05 A2975 RMK CU6AC1 TCU ASOCTD SLP079

CYYC;2009-07-07 21:00;CYYC 072100Z CCA 03007KT 40SM SCT062TCU BKN071 BKN140 18/05 A2975 RMK TCU4AC2AC1 SH W+N SLP079

CYYC;2009-07-07 21:40;CYYC 072140Z 03010KT 40SM -SHRA SCT062TCU BKN071 17/ RMK TCU4AC3

CYYC;2009-07-07 21:53;CYYC 072153Z 01003G21KT 40SM -TSRA SCT062TCU BKN070 17/ RMK TCU4AC3 CB EMBD

CYYC;2009-07-07 22:00;CYYC 072200Z 01005KT 40SM -TSRA SCT062TCU BKN070 BKN080 17/04 A2976 RMK TCU4AC2AC1 CB EMBD SLP080

CYYC;2009-07-07 22:21;CYYC 072221Z 36005KT 40SM SCT062TCU BKN070 BKN080 16/ RETS RMK TCU4AC2AC1 SH SW+NE / CB EMBD

CYYC;2009-07-07 22:27;CYYC 072227Z 33010KT 40SM -SHRA SCT062TCU BKN070 16/ RETS RMK TCU3AC4 CB EMBD

CYYC;2009-07-07 23:00;CYYC 072300Z CCA 34014G19KT 40SM -SHRA SCT054CB BKN066 13/06 A2978 RETSRA RMK CB4AC3 SLP086

CYYC;2009-07-07 23:28;CYYC 072328Z CCA 05003KT 40SM SCT054CB SCT070 SCT140 BKN220 16/ RMK CB3AC1AC1CI0 SH NW+NE

CYYC;2009-07-08 00:00;CYYC 080000Z 04008KT 40SM FEW054CB FEW140 FEW280 17/06 A2976 RMK CB2AC1CI1 SH SW+NW-NE SLP081

CYYC;2009-07-08 00:53;CYYC 080053Z 00000KT 40SM -SHRA SCT054CB SCT140 BKN280 17/ RMK CB4AC1CI0

CYYC;2009-07-08 01:00;CYYC 080100Z 12006KT 40SM -SHRA BKN054CB BKN140 BKN280 17/07 A2975 RMK CB5AC1CI0 SLP080

CYYC;2009-07-08 01:23;CYYC 080123Z 20002KT 40SM SCT054TCU SCT150 BKN260 18/ RMK TCU3AC1CI0 SH NW+NE+SE / CB ASOCTD

CYYC;2009-07-08 02:00;CYYC 080200Z 23008KT 40SM FEW060CB FEW150 FEW250 18/03 A2976 RMK CB1AC1CI0 AC TR SLP081

CYYC;2009-07-08 03:00;CYYC 080300Z 28008KT 40SM FEW060CB FEW100 FEW250 16/03 A2977 RMK CB1AC1CI1 CB TR SLP083

CYYC;2009-07-08 04:00;CYYC 080400Z 32007KT 40SM FEW055 FEW110 SCT250 14/03 A2979 RMK SC1AC1CI1 SC TR SLP087

CYYC;2009-07-08 05:00;CYYC 080500Z 34009KT 15SM FEW055 FEW110 SCT250 11/04 A2981 RMK SC1AC1CI1 SLP095

CYYC;2009-07-08 06:00;CYYC 080600Z 33008KT 15SM FEW050 FEW110 SCT250 10/05 A2981 RMK SC1AC1CI1 SLP100

CYYC;2009-07-08 07:00;CYYC 080700Z 34004KT 15SM FEW120 10/05 A2981 RMK AC1 AC TR SLP101

CYYC;2009-07-08 08:00;CYYC 080800Z 33002KT 15SM FEW140 08/04 A2981 RMK AC1 AC TR SLP101

CYYC;2009-07-08 09:00;CYYC 080900Z 36005KT 15SM FEW100 07/04 A2981 RMK AC1 SLP102

CYYC;2009-07-08 10:00;CYYC 081000Z 33004KT 15SM FEW060 BKN085 07/04 A2980 RMK SC1AC2 SLP100

CYYC;2009-07-08 11:00;CYYC 081100Z 32004KT 30SM FEW060 SCT083 BKN250 07/03 A2979 RMK SC1AC2CI1 SLP098

CYYC;2009-07-08 12:00;CYYC 081200Z 35004KT 40SM FEW060 SCT094 BKN250 06/03 A2979 RMK SC1AC1CI2 SLP100

CYYC;2009-07-08 13:00;CYYC 081300Z 00000KT 40SM FEW050 FEW094 SCT250 08/05 A2980 RMK SC1AC1CI1 SC+AC TR SLP101

CYYC;2009-07-08 14:00;CYYC 081400Z 21003KT 40SM FEW050 FEW090 FEW250 10/05 A2979 RMK SC1AC1CI1 SLP098

CYYC;2009-07-08 15:00;CYYC 081500Z 00000KT 40SM FEW025 FEW050 FEW090 12/06 A2979 RMK CU1SC1AC1 SLP093

CYYC;2009-07-08 16:00;CYYC 081600Z 33004KT 40SM FEW030 FEW050 FEW090 FEW250 15/07 A2979 RMK CU1SC1AC1CI1 SLP091

CYYC;2009-07-08 17:00;CYYC 081700Z 35008KT 40SM FEW040 FEW050 FEW090 FEW250 16/06 A2978 RMK CU1SC1AC1CI1 CB ASOCTD NW / HVY SH DIST NW / SC+AC+CI TR SLP088

CYYC;2009-07-08 18:00;CYYC 081800Z 02007KT 40SM FEW050TCU FEW090 FEW220 17/05 A2977 RMK TCU2AC1CI1 CB EMBD NW / SH DIST HVY NW + SW SLP086

CYYC;2009-07-08 19:00;CYYC 081900Z 02006KT 40SM SCT060CB 18/06 A2976 RMK CB4 SH DIST W-N + SE SLP083

CYYC;2009-07-08 19:29;CYYC 081929Z 34013KT 30SM -TSRA BKN060CB 14/ RMK CB6 SH ALQDS

CYYC;2009-07-08 20:00;CYYC 082000Z 36006KT 30SM -TSRA OVC060CB 14/07 A2976 RMK CB7 TS MVG TO SE / SH ALQDS / FUNNEL CLOUD / LTGCG SLP084

CYYC;2009-07-08 21:00;CYYC 082100Z 04003KT 30SM -TSRA OVC060CB 14/06 A2977 RMK CB7 HVY SH DIST E SLP097

CYYC;2009-07-08 21:20;CYYC 082120Z 04003KT 30SM -SHRA FEW060CB SCT080 OVC120 14/ RETS RMK CB2AC1AS4 SH DIST N-S

CYYC;2009-07-08 22:00;CYYC 082200Z 36007KT 40SM -SHRA FEW060CB SCT080 BKN120 OVC210 15/06 A2978 RETS RMK CB2AC2AS3CI1 SH ALQDS / PCPN VRY LGT SLP100

CYYC;2009-07-08 22:30;CYYC 082230Z 32012KT 30SM FEW060CB BKN080 BKN140 OVC210 16/ RMK CB2AC3AS2CI1 SH ALQDS

CYYC;2009-07-08 23:00;CYYC 082300Z 33018KT 20SM VCSH BKN050 BKN080 OVC130 16/06 A2979 RMK SC6AC1AS1 SH ALQDS SLP101

CYYC;2009-07-08 23:09;CYYC 082309Z 32020G29KT 20SM -SHRA BKN050CB BKN080 OVC130 13/ RMK CB6AC1AS1 SH ALQDS

CYYC;2009-07-09 00:00;CYYC 090000Z 32015G24KT 20SM -SHRA BKN050 OVC080 13/07 A2980 RMK SC6AC1 SLP110

CYYC;2009-07-09 00:36;CYYC 090036Z 28009KT 40SM FEW025 BKN054 OVC080 13/ RMK CF1SC6AC2

CYYC;2009-07-09 01:00;CYYC 090100Z 27011KT 40SM FEW025 SCT050 BKN080 14/06 A2980 RMK CF1SC3AC1 SH DIST SE+NW SLP109

CYYC;2009-07-09 01:25;CYYC 090125Z 30016KT 30SM -SHRA FEW025 OVC050 13/ RMK CF1SC7 VIS NW LWR

CYYC;2009-07-09 02:00;CYYC 090200Z 30008KT 30SM -SHRA FEW025 SCT050 SCT080 12/08 A2982 RMK CF1SC3AC1 SLP115

CYYC;2009-07-09 03:00;CYYC 090300Z 32014KT 40SM FEW030 OVC080 12/07 A2983 RMK SC2AC6 SLP112

CYYC;2009-07-09 03:54;CYYC 090354Z 33011G17KT 40SM -SHRA FEW040 OVC078 12/ RMK SC2AC6

CYYC;2009-07-09 04:00;CYYC 090400Z 34009KT 40SM -SHRA FEW040 OVC072 12/06 A2985 RMK SC2AC6 SLP117

CYYC;2009-07-09 05:00;CYYC 090500Z 32017G24KT 15SM -SHRA OVC050 10/06 A2986 RMK SC8 SLP123

CYYC;2009-07-09 06:00;CYYC 090600Z 30016G24KT 15SM -SHRA OVC052 11/05 A2986 RMK SC8 SLP116

CYYC;2009-07-09 07:00;CYYC 090700Z 29013G19KT 15SM -SHRA OVC052 10/06 A2986 RMK SC8 SLP118

CYYC;2009-07-09 08:00;CYYC 090800Z 30015G25KT 15SM -SHRA OVC031 10/06 A2987 RMK SC8 SLP121

CYYC;2009-07-09 08:12;CYYC 090812Z 31017G24KT 15SM OVC031 10/ RMK SC8

CYYC;2009-07-09 09:00;CYYC 090900Z 31014G21KT 15SM -RA BKN026 OVC031 10/06 A2989 RMK SC6SC2 SLP134

CYYC;2009-07-09 10:00;CYYC 091000Z 31013KT 15SM -RA OVC042 10/06 A2989 RMK SC8 SLP135

CYYC;2009-07-09 10:52;CYYC 091052Z 31012G20KT 15SM BKN043 OVC065 10/ RMK SC6SC2

CYYC;2009-07-09 11:00;CYYC 091100Z 31011G16KT 15SM BKN041 OVC065 10/06 A2990 RMK SC6SC2 SLP139

CYYC;2009-07-09 12:00;CYYC 091200Z 31013KT 20SM OVC045 10/05 A2992 RMK SC8 SLP144

CYYC;2009-07-09 13:00;CYYC 091300Z 31015G20KT 30SM BKN050 OVC120 11/05 A2993 RMK SC7AC1 SLP149

CYYC;2009-07-09 13:11;CYYC 091311Z 31013G18KT 30SM -RA BKN050 OVC090 10/ RMK SC7AC1

CYYC;2009-07-09 14:00;CYYC 091400Z 32010KT 40SM -RA BKN048 OVC090 11/06 A2996 RMK SC7AC1 SLP156

CYYC;2009-07-09 14:35;CYYC 091435Z 32013G19KT 30SM BKN060 BKN100 OVC220 12/ RMK SC6AC2CI0

CYYC;2009-07-09 15:00;CYYC 091500Z 33018G24KT 40SM FEW025 FEW060 FEW100 BKN140 BKN220 12/06 A2997 RMK CF1SC2AC1AS5CI0 CF+AC TR SLP162

CYYC;2009-07-09 16:00;CYYC 091600Z 32019G25KT 40SM FEW025 FEW100 FEW220 14/07 A2999 RMK CU2AC1CI1 CI TR SLP166

CYYC;2009-07-09 17:00;CYYC 091700Z 33019G25KT 30SM FEW025 FEW080 BKN110 BKN220 14/07 A3000 RMK CU1AC1AC3CI1 CI TR SLP169

CYYC;2009-07-09 18:00;CYYC 091800Z 32016G22KT 30SM FEW025 SCT140 BKN220 15/08 A3001 RMK CU2AC2CI0 SLP173

CYYC;2009-07-09 19:00;CYYC 091900Z 36017G22KT 30SM FEW030 SCT100 BKN210 15/08 A3002 RMK CU2AC1CI0 SLP175

CYYC;2009-07-09 20:00;CYYC 092000Z 36018G27KT 20SM FEW030 FEW160 SCT240 15/08 A3003 RMK CU2AC1CI0 SLP178

CYYC;2009-07-09 21:00;CYYC 092100Z 36020KT 20SM BKN030 BKN100 14/07 A3005 RMK CU5AC1 SLP188

CYYC;2009-07-09 22:00;CYYC 092200Z 01015G20KT 15SM FEW033 BKN180 15/07 A3005 RMK CU2AS2 SLP188

CYYC;2009-07-09 23:00;CYYC 092300Z 34013G19KT 20SM FEW040 SCT060 14/06 A3006 RMK CU2SC1 SLP194

CYYC;2009-07-10 00:00;CYYC 100000Z 01009G17KT 20SM FEW030 BKN060 13/06 A3008 RMK CU2SC5 SLP202

CYYC;2009-07-10 01:00;CYYC 100100Z 02011G17KT 15SM FEW060 BKN100 13/06 A3008 RMK SC2AC2 SLP202

CYYC;2009-07-10 02:00;CYYC 100200Z 04011KT 20SM FEW020 BKN044 OVC100 12/05 A3010 RMK SF1SC7AC1 SF TR SLP207

CYYC;2009-07-10 02:45;CYYC 100245Z 03006KT 12SM -RA OVC045 11/ RMK SC8

CYYC;2009-07-10 03:00;CYYC 100300Z 36006KT 12SM -RA SCT034 OVC042 10/07 A3013 RMK SC3SC5 SLP220

CYYC;2009-07-10 04:00;CYYC 100400Z 35003KT 15SM -RA OVC061 09/07 A3014 RMK SC8 SLP222

CYYC;2009-07-10 05:00;CYYC 100500Z 36003KT 15SM -RA OVC056 09/07 A3014 RMK SC8 SLP223

CYYC;2009-07-10 05:53;CYYC 100553Z 26002KT 15SM FEW020 OVC049 09/ RMK SF1SC8

CYYC;2009-07-10 06:00;CYYC 100600Z 27002KT 15SM FEW020 OVC048 09/07 A3014 RMK SF1SC8 SLP220

CYYC;2009-07-10 07:00;CYYC 100700Z 26002KT 15SM FEW020 OVC044 09/07 A3014 RMK SF1SC8 SLP219

CYYC;2009-07-10 08:00;CYYC 100800Z 27003KT 15SM FEW020 OVC041 10/07 A3013 RMK SF1SC8 SLP218

CYYC;2009-07-10 09:00;CYYC 100900Z 23002KT 15SM FEW020 OVC036 10/07 A3013 RMK SF1SC8 SLP218

CYYC;2009-07-10 10:00;CYYC 101000Z 00000KT 15SM FEW025 OVC033 10/07 A3013 RMK SF1SC8 SLP218

CYYC;2009-07-10 11:00;CYYC 101100Z 00000KT 15SM FEW018 OVC030 10/07 A3013 RMK SF1SC8 SLP218

CYYC;2009-07-10 12:00;CYYC 101200Z 13006KT 20SM FEW015 SCT029 OVC036 09/07 A3012 RMK SF1SC3SC5 SLP217

CYYC;2009-07-10 13:00;CYYC 101300Z 13004KT 15SM FEW015 BKN020 OVC038 09/07 A3013 RMK SF1SC6SC2 SLP219

CYYC;2009-07-10 13:50;CYYC 101350Z 20006KT 15SM -RA FEW015 OVC025 10/ RMK SF1SC8

CYYC;2009-07-10 14:00;CYYC 101400Z 18008KT 15SM -RA FEW015 OVC026 10/06 A3013 RMK SF1SC8 SLP219

CYYC;2009-07-10 14:32;CYYC 101432Z 20006KT 15SM FEW018 OVC026 10/ RMK SF2SC6

CYYC;2009-07-10 15:00;CYYC 101500Z 19006KT 15SM BKN017 OVC080 10/07 A3014 RMK SC6AC2 SLP225

CYYC;2009-07-10 16:00;CYYC 101600Z CCA 18008KT 15SM BKN016 11/08 A3014 RMK SC7 SLP225

CYYC;2009-07-10 17:00;CYYC 101700Z 18008KT 20SM SCT020 14/08 A3013 RMK SC4 CONTRAILS SLP223

CYYC;2009-07-10 18:00;CYYC 101800Z 20006KT 20SM FEW030 FEW220 15/09 A3012 RMK CU2CI0 SLP212

CYYC;2009-07-10 19:00;CYYC 101900Z 17005KT 40SM FEW036 BKN220 17/08 A3011 RMK CU1CI0 SLP208

CYYC;2009-07-10 20:00;CYYC 102000Z 29004KT 40SM SCT036 BKN220 19/08 A3011 RMK CU3CI0 CONTRAILS SLP209

CYYC;2009-07-10 21:00;CYYC 102100Z 27002KT 40SM SCT050 BKN072 BKN220 19/07 A3010 RMK CU3AC2CI0 SLP200

CYYC;2009-07-10 22:00;CYYC 102200Z 31003KT 40SM FEW050 21/07 A3008 RMK CU2 SLP195

CYYC;2009-07-10 23:00;CYYC 102300Z 23006KT 40SM SCT060 SCT250 22/08 A3007 RMK CU3CI0 SLP191

CYYC;2009-07-11 00:00;CYYC 110000Z 24007KT 40SM FEW060 FEW250 22/08 A3006 RMK CU1CI1 CI TR SLP182

CYYC;2009-07-11 01:00;CYYC 110100Z 18011G16KT 40SM FEW060 FEW250 22/08 A3006 RMK CU1CI1 SLP181

CYYC;2009-07-11 02:00;CYYC 110200Z 18013KT 40SM FEW050 FEW090 FEW250 21/09 A3005 RMK CU1AC1CI1 ALL CLDS TR SLP179

CYYC;2009-07-11 03:00;CYYC 110300Z 18011KT 40SM FEW050 FEW090 FEW250 20/10 A3006 RMK CU1AC1CI1 CU+CI TR SLP182

CYYC;2009-07-11 04:00;CYYC 110400Z 18010KT 30SM FEW050 FEW090 FEW250 18/10 A3006 RMK CU1AC1CI1 ALL CLDS TR SLP184

CYYC;2009-07-11 05:00;CYYC 110500Z 20005KT 15SM FEW050 FEW110 FEW250 17/10 A3007 RMK SC1AC1CI1 SC+CI TR SLP187

CYYC;2009-07-11 06:00;CYYC 110600Z 18004KT 15SM FEW110 FEW250 16/10 A3007 RMK AC1CI1 AC+CI TR SLP188

CYYC;2009-07-11 07:00;CYYC 110700Z 25004KT 15SM FEW080 FEW170 FEW250 16/08 A3007 RMK AC1AC1CI1 SLP188

CYYC;2009-07-11 08:00;CYYC 110800Z 34004KT 15SM SKC 14/07 A3006 RMK SLP185

CYYC;2009-07-11 09:00;CYYC 110900Z 00000KT 15SM SKC 14/06 A3007 RMK SLP184

CYYC;2009-07-11 10:00;CYYC 111000Z 32005KT 15SM SKC 13/06 A3008 RMK SLP186

CYYC;2009-07-11 11:00;CYYC 111100Z 35005KT 15SM FEW060 SCT090 12/06 A3008 RMK SC1AC2 SLP187

CYYC;2009-07-11 12:00;CYYC 111200Z 34011KT 20SM FEW060 SCT110 12/07 A3012 RMK SC1AC2 SC TR SLP200

CYYC;2009-07-11 13:00;CYYC 111300Z 33007KT 20SM FEW085 FEW170 12/08 A3013 RMK AC1AS1 SLP203

CYYC;2009-07-11 14:00;CYYC 111400Z 33008KT 20SM FEW085 FEW170 14/09 A3015 RMK AC1AC1 SLP208

CYYC;2009-07-11 15:00;CYYC 111500Z 35013G18KT 30SM FEW090 SCT160 15/09 A3017 RMK AC2AC1 SLP214

CYYC;2009-07-11 16:00;CYYC 111600Z CCA 34015KT 25SM FEW050 SCT090 BKN180 16/10 A3018 RMK SC1AC3AC1 SLP217

CYYC;2009-07-11 17:00;CYYC 111700Z 36015KT 25SM FEW026 SCT096 BKN190 BKN240 17/10 A3019 RMK CU1AC3AC1CI0 SLP220

CYYC;2009-07-11 18:00;CYYC 111800Z 01010G18KT 20SM FEW028 SCT090 BKN170 BKN240 18/11 A3019 RMK CU2AC2AC2CI0 SLP224

CYYC;2009-07-11 19:00;CYYC 111900Z 01012KT 20SM FEW030 SCT090 BKN170 BKN240 18/10 A3019 RMK CU2AC2AC2CI0 SLP225

CYYC;2009-07-11 20:00;CYYC 112000Z 02011KT 20SM SCT041 BKN140 BKN250 19/11 A3020 RMK CU4AC2CI0 SLP226

CYYC;2009-07-11 21:00;CYYC 112100Z 02008KT 20SM SCT038 BKN140 BKN250 20/11 A3019 RMK CU4AC1CI1 SLP225

CYYC;2009-07-11 22:00;CYYC 112200Z 08008KT 20SM BKN039 BKN140 BKN250 20/10 A3020 RMK CU5AC1CI1 SLP226

CYYC;2009-07-11 23:00;CYYC 112300Z 04005KT 20SM BKN051 BKN140 BKN250 19/11 A3019 RMK CU5AC1CI1 SH DIST W SLP225

CYYC;2009-07-12 00:00;CYYC 120000Z 07006KT 20SM SCT050 BKN090 BKN250 19/10 A3019 RMK CU3AC2CI1 SH DIST S+W SLP226

CYYC;2009-07-12 01:00;CYYC 120100Z 09005KT 20SM FEW044 BKN150 BKN220 20/10 A3019 RMK CU2AC2CI1 SLP227

CYYC;2009-07-12 02:00;CYYC 120200Z 17007KT 20SM BKN050 BKN140 19/10 A3019 RMK SC6AC1 SLP226

CYYC;2009-07-12 03:00;CYYC 120300Z 12010KT 20SM BKN050 18/10 A3018 RMK SC4 SLP219

CYYC;2009-07-12 04:00;CYYC 120400Z 11008KT 15SM BKN050 17/10 A3019 RMK SC6 SLP223

CYYC;2009-07-12 05:00;CYYC 120500Z 12007KT 15SM FEW050 SCT140 16/10 A3019 RMK SC2AC1 SLP223

CYYC;2009-07-12 06:00;CYYC 120600Z 14011KT 15SM FEW050 FEW140 15/10 A3019 RMK SC1AC1 SLP226

CYYC;2009-07-12 07:00;CYYC 120700Z 15011KT 15SM FEW140 13/09 A3019 RMK AC1 SLP224

CYYC;2009-07-12 08:00;CYYC 120800Z 16010KT 15SM SKC 12/09 A3018 RMK SLP222

CYYC;2009-07-12 09:00;CYYC 120900Z 16009KT 15SM SKC 12/09 A3017 RMK SLP220

CYYC;2009-07-12 10:00;CYYC 121000Z 17008KT 15SM SKC 11/09 A3016 RMK SLP216

CYYC;2009-07-12 11:00;CYYC 121100Z 17009KT 15SM FEW140 FEW230 11/09 A3014 RMK AC1CI1 SLP211

CYYC;2009-07-12 12:00;CYYC 121200Z 15005KT 15SM FEW140 FEW230 10/08 A3017 RMK AC1CI1 SLP222

CYYC;2009-07-12 13:00;CYYC 121300Z 16007KT 6SM BR FEW140 FEW230 11/09 A3013 RMK AC1CI1 HZ SLP210

CYYC;2009-07-12 14:00;CYYC 121400Z 18010KT 20SM FEW230 13/10 A3012 RMK CI1 SLP209

CYYC;2009-07-12 15:00;CYYC 121500Z 19011KT 25SM FEW230 15/10 A3011 RMK CI1 SLP198

CYYC;2009-07-12 16:00;CYYC 121600Z 17014KT 30SM FEW025 SCT240 18/12 A3011 RMK CU1CI1 TR CU SLP196

CYYC;2009-07-12 17:00;CYYC 121700Z 18015KT 30SM FEW035 FEW200 SCT250 21/12 A3008 RMK CU1CI2CI0 SLP189

CYYC;2009-07-12 18:00;CYYC 121800Z 17016G21KT 30SM FEW040 FEW200 SCT250 22/12 A3007 RMK CU1CI2CI0 SLP178

CYYC;2009-07-12 19:00;CYYC 121900Z 16012G19KT 30SM FEW044TCU FEW200 SCT250 24/13 A3005 RMK TCU1CI2CI0 TCU DIST W SLP172

CYYC;2009-07-12 20:00;CYYC 122000Z 16014G19KT 30SM FEW045TCU SCT200 BKN250 24/12 A3004 RMK TCU1CI3CI0 TCU DIST W SLP167

CYYC;2009-07-12 21:00;CYYC 122100Z 15014G19KT 30SM FEW045TCU FEW160 SCT200 BKN250 25/13 A3002 RMK TCU1AC1CI3CI0 TCU DIST W-NW SLP161

CYYC;2009-07-12 22:00;CYYC 122200Z 16013G20KT 30SM FEW045TCU FEW160 SCT200 BKN250 24/13 A3000 RMK TCU1AC1CI3CI0 TCU DIST NW-N SLP155

CYYC;2009-07-12 23:00;CYYC 122300Z 17016KT 30SM FEW045TCU FEW060 BKN170 BKN210 23/12 A2999 RMK TCU1SC2AC3CI2 SH DIST SW TCU DIST NW-N SLP152

CYYC;2009-07-13 00:00;CYYC 130000Z 15018G25KT 40SM FEW060 BKN170 BKN220 23/13 A2995 RMK SC1AC4CI1 SLP143

CYYC;2009-07-13 01:00;CYYC 130100Z 16012G17KT 30SM FEW060 SCT180 BKN220 23/13 A2996 RMK SC1AC2CI2 SLP146

CYYC;2009-07-13 02:00;CYYC 130200Z 17010G15KT 30SM FEW060 FEW180 FEW220 22/10 A2995 RMK SC1AC1CI0 SC TR SLP143

CYYC;2009-07-13 03:00;CYYC 130300Z 14008KT 30SM FEW060 FEW180 FEW220 20/10 A2995 RMK SC1AC1CI1 SC TR SLP139

CYYC;2009-07-13 04:00;CYYC 130400Z CCA 01006KT 30SM FEW060 FEW180 BKN220 19/11 A2997 RMK SC1AC2CI1 SC TR /SH NW SLP144

CYYC;2009-07-13 05:00;CYYC 130500Z 10006KT 15SM FEW180 BKN240 17/12 A2997 RMK AC2CI1 SLP144

CYYC;2009-07-13 06:00;CYYC 130600Z 11004KT 15SM FEW180 BKN240 17/12 A2995 RMK AC1CI2 SLP135

CYYC;2009-07-13 07:00;CYYC 130700Z 12003KT 15SM FEW180 BKN240 16/11 A2993 RMK AC1CI2 SLP129

CYYC;2009-07-13 08:00;CYYC 130800Z 32004KT 15SM FEW160 BKN240 15/12 A2993 RMK AC1CI2 SLP128

CYYC;2009-07-13 09:00;CYYC 130900Z 36010KT 15SM SCT140 BKN240 14/11 A2992 RMK AC3CI1 SLP124

CYYC;2009-07-13 10:00;CYYC 131000Z 35005KT 15SM FEW140 BKN240 13/10 A2990 RMK AC2CI1 SLP119

CYYC;2009-07-13 11:00;CYYC 131100Z 32005KT 15SM FEW140 FEW240 14/11 A2992 RMK AC1CI1 SLP123

CYYC;2009-07-13 12:00;CYYC 131200Z 34009KT 20SM FEW140 BKN240 14/11 A2992 RMK AC2CC2 SLP127

CYYC;2009-07-13 13:00;CYYC 131300Z 34010G16KT 20SM FEW058 BKN120 BKN240 15/10 A2992 RMK SC2AC2CC1 SLP126

CYYC;2009-07-13 14:00;CYYC 131400Z 36012KT 30SM BKN065 BKN140 BKN220 16/10 A2991 RMK SC5AC2CI1 SLP124

CYYC;2009-07-13 15:00;CYYC 131500Z 01015KT 30SM FEW070 BKN140 BKN190 17/11 A2991 RMK AC2AC2AC1 SLP124

CYYC;2009-07-13 16:00;CYYC 131600Z 01020G25KT 20SM FEW055 SCT140 BKN180 17/10 A2991 RMK SC2AC2AC3 SH SW SLP124

CYYC;2009-07-13 17:00;CYYC 131700Z 35014KT 20SM VCSH FEW040 SCT080 SCT100 BKN180 17/11 A2992 RMK SC2AC1AC1AC3 SH S-N / VIS SW 7 SLP125

CYYC;2009-07-13 17:31;CYYC 131731Z 28011KT 15SM -SHRA BKN045 BKN080 BKN140 16/ RMK SC5AC2AC1

CYYC;2009-07-13 18:00;CYYC 131800Z 26019G24KT 15SM -SHRA SCT026 BKN055 OVC080 13/10 A2994 RMK CU3SC2AC2 TCU ASOCTD / VIS SE-W 6 SLP142

CYYC;2009-07-13 19:00;CYYC 131900Z 27016KT 5SM -SHRA BR FEW025 BKN040 OVC060 12/10 A2994 RMK SC2SC5SC1 SLP144

CYYC;2009-07-13 19:15;CYYC 131915Z 27014KT 6SM -TSRA FEW025 BKN040 OVC064 13/ RMK SC2SC6SC1 CB EMBD

CYYC;2009-07-13 20:00;CYYC 132000Z 27011KT 6SM -TSRA FEW025 SCT044 OVC064 13/10 A2994 RMK SC2SC2SC4 CB EMBD / LTNG SLP144

CYYC;2009-07-13 21:00;CYYC 132100Z CCA 31010KT 5SM TSRA SCT023 SCT050 OVC064 13/11 A2994 RMK SC3SC1SC4 CB EMBD / LTGCC SLP146

CYYC;2009-07-13 22:00;CYYC 132200Z 32010KT 7SM TSRA BKN025 BKN046 OVC076 13/11 A2992 RMK SC5SC2AC1 CB EMBD /R10/ SLP141

CYYC;2009-07-13 23:00;CYYC 132300Z 34013KT 15SM -TSRA FEW025 SCT046 OVC086 14/12 A2989 RERA RMK SC2SC2AC4 CB EMBD SLP131

CYYC;2009-07-13 23:13;CYYC 132313Z 33010G16KT 15SM -SHRA FEW025 SCT050 OVC090 15/ RETS RMK SC2SC2AC5 CB EMBD

CYYC;2009-07-13 23:46;CYYC 132346Z CCA 35010KT 15SM FEW015CB FEW050 OVC110 16/ RETS RMK CB1SC2AC6 SH ALQDS

CYYC;2009-07-14 00:00;CYYC 140000Z 35010KT 20SM FEW015CB FEW050 OVC110 16/13 A2989 RETS RMK CB1SC2AC6 SH ALQDS SLP124

CYYC;2009-07-14 01:00;CYYC 140100Z 35013G18KT 20SM FEW015TCU FEW040 OVC100 16/12 A2990 RMK TCU1SC2AC6 SH ALQDS SLP127

CYYC;2009-07-14 02:00;CYYC 140200Z 34011G16KT 20SM FEW027TCU SCT040 OVC110 16/11 A2993 RMK TCU1SC3AC4 SLP137

CYYC;2009-07-14 03:00;CYYC 140300Z 35011KT 15SM VCSH FEW024TCU OVC028 16/11 A2994 RMK TCU1SC7 SH S-W SLP138

CYYC;2009-07-14 04:00;CYYC 140400Z 34012KT 15SM SCT040 OVC230 14/10 A2995 RMK SC3CI5 SLP143

CYYC;2009-07-14 05:00;CYYC 140500Z 34013KT 15SM FEW058 BKN090 OVC220 14/10 A2997 RMK SC2AC3CI1 SLP148

CYYC;2009-07-14 06:00;CYYC 140600Z 35012KT 15SM FEW060 BKN075 BKN180 14/10 A2999 RMK SC2AC4AC2 SLP163

CYYC;2009-07-14 07:00;CYYC 140700Z 35012KT 15SM SCT026 BKN076 14/09 A3000 RMK SC4AC3 SLP167

CYYC;2009-07-14 08:00;CYYC 140800Z 35010G15KT 15SM BKN022 BKN040 OVC130 13/09 A3001 RMK SC5SC2AC1 SLP170

CYYC;2009-07-14 09:00;CYYC 140900Z 36012KT 15SM BKN028 OVC130 13/08 A3002 RMK SC6AC2 SLP175

CYYC;2009-07-14 10:00;CYYC 141000Z 34009KT 15SM FEW030 BKN080 OVC180 12/08 A3002 RMK SC1AC4AC2 SLP175

CYYC;2009-07-14 11:00;CYYC 141100Z 32009KT 15SM FEW037 BKN078 OVC140 11/08 A3003 RMK SC2AC4AC2 SLP179

CYYC;2009-07-14 12:00;CYYC 141200Z 35010KT 20SM BKN018 BKN032 OVC076 12/08 A3005 RMK SC5SC2AC2 SLP182

CYYC;2009-07-14 13:00;CYYC 141300Z 36013KT 15SM FEW020 OVC081 11/08 A3006 RMK SC2AC6 SLP185

CYYC;2009-07-14 13:08;CYYC 141308Z 36014KT 10SM -RA FEW020 BKN063 OVC079 11/ RMK SC2SC4AC2

CYYC;2009-07-14 14:00;CYYC 141400Z 36011KT 30SM -RA FEW015 SCT025 OVC043 11/08 A3007 RMK SC2SC2SC4 SLP190

CYYC;2009-07-14 14:19;CYYC 141419Z CCA 36015KT 30SM FEW015 SCT029 OVC043 11/ RMK SC1SC2SC5 SH NW-E

CYYC;2009-07-14 15:00;CYYC 141500Z 36017KT 30SM FEW020 SCT035 OVC045 11/08 A3008 RMK SC1SC3SC4 SH ALQDS SLP196

CYYC;2009-07-14 16:00;CYYC 141600Z 36018KT 30SM SCT020 SCT030 OVC056 11/06 A3010 RMK CU3SC1SC4 SH E+SW SLP203

CYYC;2009-07-14 17:00;CYYC 141700Z 35011G17KT 30SM BKN026 OVC048 11/06 A3012 RMK SC5SC3 CU ASOCTD SLP208

CYYC;2009-07-14 18:00;CYYC 141800Z 35010G16KT 20SM -RA SCT026 BKN040 OVC060 10/07 A3013 RMK SC3SC2SC2 SLP218

CYYC;2009-07-14 19:00;CYYC 141900Z 34007KT 30SM FEW016 BKN039 OVC060 11/07 A3014 RMK CU2SC3SC3 SH SE-SW SLP221

CYYC;2009-07-14 20:00;CYYC 142000Z 36012KT 30SM FEW025 BKN040 13/06 A3014 RMK SC2SC5 CU ASOCTD SLP219

CYYC;2009-07-14 21:00;CYYC 142100Z 36012KT 30SM FEW027 OVC039 13/06 A3013 RMK CU2SC6 SLP215

CYYC;2009-07-14 22:00;CYYC 142200Z 01008KT 30SM FEW032 BKN042 BKN058 BKN120 14/06 A3013 RMK CU2SC2SC1AC2 SH SW SLP214

CYYC;2009-07-14 23:00;CYYC 142300Z 34008KT 30SM FEW034 BKN054 BKN120 14/06 A3013 RMK CU2SC5AC1 SH W SLP215

CYYC;2009-07-15 00:00;CYYC 150000Z 35003KT 30SM FEW034 BKN052 BKN120 14/06 A3013 RMK CU2SC5AC1 SLP214

CYYC;2009-07-15 01:00;CYYC 150100Z 35005KT 30SM FEW034 BKN050 BKN140 14/06 A3012 RMK CU2SC6AC1 SLP213

CYYC;2009-07-15 02:00;CYYC 150200Z 26006KT 30SM FEW035 BKN055 OVC140 13/07 A3013 RMK CU1SC4AC2 SLP215

CYYC;2009-07-15 03:00;CYYC 150300Z 27005KT 20SM FEW035 BKN061 OVC140 13/07 A3013 RMK CU1SC6AC2 CU TR SLP218

CYYC;2009-07-15 04:00;CYYC 150400Z 26004KT 30SM FEW035 BKN063 OVC110 13/07 A3014 RMK CU1SC6AC2 CU TR SLP219

CYYC;2009-07-15 05:00;CYYC 150500Z 25003KT 15SM OVC060 12/07 A3014 RMK SC8 SLP220

CYYC;2009-07-15 06:00;CYYC 150600Z 26002KT 15SM OVC060 12/07 A3014 RMK SC8 SLP223

CYYC;2009-07-15 07:00;CYYC 150700Z 27002KT 15SM OVC061 12/08 A3014 RMK SC8 SLP222

CYYC;2009-07-15 08:00;CYYC 150800Z 09002KT 15SM OVC055 11/08 A3013 RMK SC8 SLP221

CYYC;2009-07-15 09:00;CYYC 150900Z 08003KT 15SM OVC053 11/08 A3013 RMK SC8 SLP218

CYYC;2009-07-15 10:00;CYYC 151000Z 00000KT 15SM OVC055 11/06 A3012 RMK SC8 SLP215

CYYC;2009-07-15 11:00;CYYC 151100Z 09002KT 15SM FEW055 BKN067 OVC220 11/07 A3011 RMK SC1AC6CI1 SLP212

CYYC;2009-07-15 12:00;CYYC 151200Z 00000KT 20SM BKN066 OVC220 10/07 A3011 RMK AC7CI1 SLP211

CYYC;2009-07-15 13:00;CYYC 151300Z 20005KT 40SM FEW065 FEW110 SCT240 10/08 A3011 RMK SC1AC1CI1 SLP211

CYYC;2009-07-15 14:00;CYYC 151400Z 20005KT 40SM FEW060 FEW080 12/09 A3012 RMK SC1AC1 SLP212

CYYC;2009-07-15 15:00;CYYC 151500Z 19008KT 40SM FEW060 FEW080 14/08 A3012 RMK SC1AC1 SLP208

CYYC;2009-07-15 16:00;CYYC 151600Z 17009KT 40SM FEW030 FEW080 FEW240 15/08 A3011 RMK CU1AC1CI1 CONTRAILS SLP207

CYYC;2009-07-15 17:00;CYYC 151700Z 18006KT 40SM FEW030 FEW090 FEW240 16/09 A3010 RMK CU1AC1CI1 CONTRAILS / CU + CI TR SLP204

CYYC;2009-07-15 18:00;CYYC 151800Z 20007KT 40SM FEW040 FEW090 FEW240 18/09 A3010 RMK CU1AC1CI1 CU + CI TR SLP199

CYYC;2009-07-15 19:00;CYYC 151900Z 12005KT 40SM FEW045 FEW100 FEW220 19/08 A3009 RMK CU1AC1CI1 TCU ASOCTD NW / SH DIST NW / CU + CI TR SLP197

CYYC;2009-07-15 20:00;CYYC 152000Z 15007KT 40SM FEW045TCU BKN100 19/08 A3009 RMK TCU2AC3 CB ASOCTD NW / SH NW SLP195

CYYC;2009-07-15 20:30;CYYC 152030Z 13004KT 40SM -SHRA SCT045TCU BKN100 18/ RMK TCU3AC3 CB EMBD / VIS SW LWR

CYYC;2009-07-15 21:00;CYYC 152100Z 08012KT 40SM VCSH FEW045TCU BKN120 16/11 A3010 RERA RMK TCU2AC2 SH NE-S + NW / VIS NE-S LWR SLP202

CYYC;2009-07-15 22:00;CYYC 152200Z 12011KT 40SM FEW040CB FEW110 18/09 A3009 RMK CB2AC1 CB NE / SH DIST SE SLP201

CYYC;2009-07-15 23:00;CYYC 152300Z CCA 12006KT 40SM FEW045CB FEW110 FEW240 19/09 A3009 RMK CB1AC1CI1 CB SE / AC+CI TR SLP200

CYYC;2009-07-16 00:00;CYYC 160000Z 14002KT 40SM FEW045CB FEW110 SCT240 20/08 A3008 RMK CB1AC1CI0 CB SE SLP192

CYYC;2009-07-16 01:00;CYYC 160100Z 11005KT 40SM FEW050 FEW250 20/08 A3008 RMK SC2CI1 CB ASOCTD SE SLP192

CYYC;2009-07-16 02:00;CYYC 160200Z 11006KT 40SM FEW050 FEW110 FEW210 20/08 A3010 RMK CU1AC1CI1 CC ASOCTD SLP196

CYYC;2009-07-16 03:00;CYYC 160300Z 14007KT 20SM FEW050 FEW110 FEW250 18/09 A3009 RMK CU1AC2CI0 CU TR SLP194

CYYC;2009-07-16 04:00;CYYC 160400Z 16007KT 20SM FEW070 FEW110 FEW250 16/09 A3011 RMK AC1AC1CI0 SLP198

CYYC;2009-07-16 05:00;CYYC 160500Z 19007KT 15SM FEW110 FEW250 15/09 A3011 RMK AC1CI0 SLP200

CYYC;2009-07-16 06:00;CYYC 160600Z 18006KT 15SM FEW110 14/09 A3012 RMK AC1 AC TR SLP203

CYYC;2009-07-16 07:00;CYYC 160700Z 18007KT 15SM SKC 12/09 A3012 RMK SLP203

CYYC;2009-07-16 08:00;CYYC 160800Z 20006KT 15SM SKC 13/09 A3011 RMK AC TR SLP201

CYYC;2009-07-16 09:00;CYYC 160900Z 18005KT 15SM SKC 13/09 A3010 RMK SLP201

CYYC;2009-07-16 10:00;CYYC 161000Z 18004KT 15SM FEW180 BKN250 12/09 A3011 RMK AC1CI1 SLP202

CYYC;2009-07-16 11:00;CYYC 161100Z 20004KT 20SM FEW200 BKN260 11/08 A3010 RMK CI1CI0 SLP201

CYYC;2009-07-16 12:00;CYYC 161200Z 21004KT 20SM FEW080 FEW110 BKN260 11/08 A3011 RMK AC1AC1CI2 SLP200

CYYC;2009-07-16 13:00;CYYC 161300Z 22006KT 30SM FEW080 FEW120 SCT250 11/08 A3012 RMK AC1AC1CI1 SLP202

CYYC;2009-07-16 14:00;CYYC 161400Z 23002KT 40SM SCT100 SCT250 14/10 A3012 RMK AC3CI0 HZ / CONTRAILS SLP204

CYYC;2009-07-16 15:00;CYYC 161500Z 20002KT 30SM FEW090 SCT250 17/09 A3012 RMK AC1CI0 HZ / CONTRAILS SLP198

CYYC;2009-07-16 16:00;CYYC 161600Z 23005KT 30SM FEW040 FEW090 SCT250 20/11 A3012 RMK CU1AC1CI0 HZ SLP198

CYYC;2009-07-16 17:00;CYYC 161700Z 16004KT 30SM FEW040 BKN250 22/11 A3012 RMK CU1CI0 HZ / CONTRAILS SLP199

CYYC;2009-07-16 18:00;CYYC 161800Z 20005KT 30SM FEW050 BKN250 23/11 A3012 RMK CU1CI1 HZ / CONTRAILS / TCU ASOCTD NW / CU TR SLP193

CYYC;2009-07-16 19:00;CYYC 161900Z 13006KT 30SM FEW050 BKN250 25/11 A3011 RMK CU1CI0 HZ / CONTRAILS / TCU ASOCTD NW+S / SH DIST NW SLP190

CYYC;2009-07-16 20:00;CYYC 162000Z 20009KT 30SM BKN050TCU BKN250 26/11 A3010 RMK TCU5CI0 HZ / CONTRAILS / SH N + SSW SLP189

CYYC;2009-07-16 21:00;CYYC 162100Z 15009KT 30SM SCT050CB BKN250 26/12 A3011 RMK CB3CI0 HZ / CONTRAILS / SH NE + SE SLP190

CYYC;2009-07-16 22:00;CYYC 162200Z CCA 15010KT 30SM FEW065CB FEW120 BKN250 26/10 A3010 RMK CB1AC1CI0 HZ / CONTRAILS / SH DIST E /CB E SLP188

CYYC;2009-07-16 23:00;CYYC 162300Z 14010KT 30SM FEW065CB SCT250 26/09 A3010 RMK CB2CI0 HZ / CONTRAILS / CB SE+NE SLP187

CYYC;2009-07-17 00:00;CYYC 170000Z 12011G16KT 30SM VCSH FEW065CB FEW100 SCT250 26/11 A3009 RMK CB2AC1CI0 HZ / CONTRAILS / CB S+NE / SH NE SLP187

CYYC;2009-07-17 01:00;CYYC 170100Z 11010KT 30SM VCSH FEW060CB FEW100 FEW250 25/11 A3010 RMK CB1AC1CI0 CB E / SH E SLP189

CYYC;2009-07-17 02:00;CYYC 170200Z 10015KT 30SM FEW060CB FEW110 SCT250 23/11 A3011 RMK CB1AC2CI1 CB TR SLP192

CYYC;2009-07-17 03:00;CYYC 170300Z 10010KT 30SM FEW060CB FEW080 SCT110 BKN250 22/10 A3012 RMK CB1AC2AC1CI1 VIRGA NE SLP192

CYYC;2009-07-17 04:00;CYYC 170400Z 36006KT 30SM FEW060 FEW080 SCT110 BKN250 19/09 A3015 RMK SC1AC2AC1CI1 SC TR SLP201

CYYC;2009-07-17 05:00;CYYC 170500Z 36003KT 15SM FEW080 FEW110 FEW250 18/10 A3015 RMK AC1AC1CI0 SLP203

CYYC;2009-07-17 06:00;CYYC 170600Z 35008KT 15SM FEW080 FEW250 17/11 A3017 RMK AC1CI0 AC TR SLP208

CYYC;2009-07-17 07:00;CYYC 170700Z 02010G15KT 15SM FEW130 SCT250 18/11 A3019 RMK AC2CI0 SLP214

CYYC;2009-07-17 07:03;CYYC 170703Z 03007KT 15SM FEW080CB BKN130 BKN230 18/ RMK CB2AC2CI0 LTGIC N-E

CYYC;2009-07-17 08:00;CYYC 170800Z 00000KT 15SM FEW090CB FEW120 SCT230 17/10 A3021 RMK CB1AC2CI0 OCNL LTGIC DIST E SLP220

CYYC;2009-07-17 09:00;CYYC 170900Z 34008KT 15SM FEW110 SCT250 15/10 A3022 RMK AC2CI0 SLP226

CYYC;2009-07-17 10:00;CYYC 171000Z 32006KT 15SM FEW110 FEW240 15/09 A3022 RMK AC1CI2 SLP225

CYYC;2009-07-17 11:00;CYYC 171100Z 32006KT 15SM FEW110 FEW240 14/08 A3023 RMK AC1CI1 SLP228

CYYC;2009-07-17 12:00;CYYC 171200Z 34005KT 20SM FEW070 FEW110 FEW240 13/08 A3024 RMK ACC1AC2CI0 ACC TR SLP234

CYYC;2009-07-17 13:00;CYYC 171300Z 30003KT 30SM FEW120 SCT250 13/09 A3025 RMK AC1CI1 AC TR SLP238

CYYC;2009-07-17 14:00;CYYC 171400Z 00000KT 30SM FEW120 BKN250 16/10 A3026 RMK AC1CI1 AC TR / ACC ASOCTD E /HZ /CONTRAILS SLP239

CYYC;2009-07-17 15:00;CYYC 171500Z 23006KT 30SM FEW120 BKN250 19/09 A3026 RMK AC1CI1 AC TR / HZ / CONTRAILS SLP239

CYYC;2009-07-17 16:00;CYYC 171600Z 14005KT 30SM FEW040 FEW120 OVC250 21/10 A3026 RMK CU1AC1CI1 CU+AC TR / HZ / CONTRAILS SLP238

CYYC;2009-07-17 17:00;CYYC 171700Z 15005KT 30SM FEW040 OVC250 22/09 A3025 RMK CU1CI2 HZ SLP235

CYYC;2009-07-17 18:00;CYYC 171800Z 14009KT 30SM FEW050 BKN250 23/10 A3025 RMK CU1CI2 HZ SLP236

CYYC;2009-07-17 19:00;CYYC 171900Z 15007KT 30SM FEW050 FEW250 24/11 A3023 RMK CU1CI1 HZ / TCU ASOCTD NW SLP231

CYYC;2009-07-17 20:00;CYYC 172000Z 16006KT 30SM FEW050 FEW250 24/12 A3022 RMK CU1CI1 HZ / TCU ASOCTD SW SLP228

CYYC;2009-07-17 21:00;CYYC 172100Z 16011KT 30SM FEW050TCU 25/11 A3020 RMK TCU1 HZ / TCU SW-NW SLP218

CYYC;2009-07-17 22:00;CYYC 172200Z 14010G16KT 30SM FEW060CB FEW080 26/12 A3019 RMK CB1AC1 HZ / CB NW SLP216

CYYC;2009-07-17 23:00;CYYC 172300Z 14014G20KT 30SM FEW060CB FEW080 FEW250 26/11 A3018 RMK CB1AC1CI1 HZ / CB NNW SLP212

CYYC;2009-07-18 00:00;CYYC 180000Z 15012G17KT 30SM FEW060CB FEW080 BKN250 26/11 A3017 RMK CB1AC1CI0 AC TR / CB N SLP209

CYYC;2009-07-18 01:00;CYYC 180100Z 17014G19KT 30SM FEW060CB FEW080 BKN250 26/10 A3016 RMK CB1AC1CI0 AC TR / CB N SLP207

CYYC;2009-07-18 02:00;CYYC 180200Z 17018KT 30SM FEW080 FEW200 BKN260 25/11 A3015 RMK CU1CI1CI1 SLP203

CYYC;2009-07-18 03:00;CYYC 180300Z 16011G17KT 30SM FEW070 FEW140 BKN260 23/11 A3015 RMK CU1AC1CI1 CU TR SLP198

CYYC;2009-07-18 04:00;CYYC 180400Z 16009KT 30SM FEW060 FEW160 BKN250 21/12 A3016 RMK CU1AC1CI1 CU TR SLP200

CYYC;2009-07-18 05:00;CYYC 180500Z 16009KT 15SM FEW080 FEW250 20/13 A3015 RMK AC1CI0 AC TR SLP197

CYYC;2009-07-18 06:00;CYYC 180600Z 16008KT 15SM FEW250 18/13 A3013 RMK CI1 CI TR SLP194

CYYC;2009-07-18 07:00;CYYC 180700Z 16009KT 15SM SKC 17/13 A3012 RMK SLP191

CYYC;2009-07-18 08:00;CYYC 180800Z 18004KT 15SM SKC 16/13 A3011 RMK SLP188

CYYC;2009-07-18 09:00;CYYC 180900Z 20003KT 15SM SKC 16/12 A3011 RMK SLP186

CYYC;2009-07-18 10:00;CYYC 181000Z 21004KT 15SM SKC 15/12 A3009 RMK SLP182

CYYC;2009-07-18 11:00;CYYC 181100Z 21006KT 15SM FEW140 FEW250 15/12 A3008 RMK AC1CI0 SLP177

CYYC;2009-07-18 12:00;CYYC 181200Z 23003KT 40SM FEW140 BKN250 14/12 A3007 RMK AC1CI1 SLP174

CYYC;2009-07-18 13:00;CYYC 181300Z 20003KT 40SM FEW140 BKN250 15/11 A3007 RMK AC2CI2 SLP175

CYYC;2009-07-18 14:00;CYYC 181400Z 00000KT 40SM SCT140 BKN250 17/12 A3006 RMK AC4CI2 SLP172

CYYC;2009-07-18 15:00;CYYC 181500Z 00000KT 40SM BKN140 BKN250 21/12 A3005 RMK AC6CI1 SLP161

CYYC;2009-07-18 16:00;CYYC 181600Z 19003KT 40SM BKN140 BKN220 23/13 A3004 RMK AC5CI2 SLP158

CYYC;2009-07-18 17:00;CYYC 181700Z 16003KT 40SM BKN160 BKN220 24/12 A3003 RMK AC6CI2 SLP154

CYYC;2009-07-18 18:00;CYYC 181800Z 21003KT 40SM FEW180 BKN200 OVC240 23/12 A3002 RMK AC1CI5CI2 AC TR SLP154

CYYC;2009-07-18 19:00;CYYC 181900Z 20005KT 40SM FEW080 BKN200 BKN240 23/12 A3000 RMK CU1CI6CI2 CU TR SLP148

CYYC;2009-07-18 20:00;CYYC 182000Z 18004KT 40SM FEW080 BKN200 BKN240 25/11 A2998 RMK CU1CI6CI2 CU TR SLP141

CYYC;2009-07-18 21:00;CYYC 182100Z 21005KT 40SM FEW085 BKN200 BKN240 27/09 A2995 RMK CU1CI6CI2 CU TR SLP130

CYYC;2009-07-18 22:00;CYYC 182200Z 14009KT 40SM FEW085 SCT220 BKN250 29/09 A2992 RMK CU1CI4CI2 CU TR SLP121

CYYC;2009-07-18 23:00;CYYC 182300Z 14011G16KT 40SM FEW085 FEW180 SCT220 BKN260 29/09 A2989 RMK CU1AC2CI2CI1 CU TR SLP111

CYYC;2009-07-19 00:00;CYYC 190000Z 15013G18KT 40SM FEW085 FEW190 SCT260 29/09 A2985 RMK CU1AC2CI1 CU TR SLP096

CYYC;2009-07-19 01:00;CYYC 190100Z 14012KT 40SM FEW080 FEW190 FEW250 29/09 A2982 RMK CU1AC2CI0 SLP084

CYYC;2009-07-19 02:00;CYYC 190200Z 20009KT 40SM FEW190 FEW250 29/06 A2979 RMK AC1CI1 SLP075

CYYC;2009-07-19 03:00;CYYC 190300Z 23010KT 40SM FEW080 FEW120 FEW250 27/07 A2979 RMK CU1AC1CI1 SLP067

CYYC;2009-07-19 04:00;CYYC 190400Z 21007KT 40SM FEW100 24/06 A2979 RMK AC1 SH N SLP066

CYYC;2009-07-19 05:00;CYYC 190500Z 36008KT 15SM FEW100 20/06 A2981 RMK AC1 SH N SLP073

CYYC;2009-07-19 06:00;CYYC 190600Z 01005KT 15SM FEW100 17/06 A2981 RMK AC1 SLP082

CYYC;2009-07-19 07:00;CYYC 190700Z 31004KT 15SM FEW100 17/06 A2982 RMK AC1 SLP086

CYYC;2009-07-19 08:00;CYYC 190800Z 01005KT 15SM FEW100 16/06 A2985 RMK AC1 SLP095

CYYC;2009-07-19 09:00;CYYC 190900Z 36005KT 15SM FEW060 FEW100 14/08 A2990 RMK SC1AC1 SLP112

CYYC;2009-07-19 10:00;CYYC 191000Z 35005KT 15SM FEW120 14/09 A2994 RMK AC1 SLP124

CYYC;2009-07-19 11:00;CYYC 191100Z 36014KT 15SM FEW020 FEW100 13/08 A2997 RMK CU1AC1 SLP135

CYYC;2009-07-19 12:00;CYYC 191200Z 35007KT 20SM FEW025 12/07 A2999 RMK SC1 SLP143

CYYC;2009-07-19 13:00;CYYC 191300Z 32008KT 20SM FEW025 FEW250 12/07 A3000 RMK SC1CI1 SLP148

CYYC;2009-07-19 14:00;CYYC 191400Z 34007KT 30SM FEW027 FEW100 FEW250 14/06 A3000 RMK CU1AC1CI1 SLP148

CYYC;2009-07-19 15:00;CYYC 191500Z 34005KT 30SM FEW036 FEW090 FEW250 15/06 A3000 RMK CU1AC1CI1 SLP148

CYYC;2009-07-19 16:00;CYYC 191600Z 05005KT 30SM FEW044 FEW140 SCT260 16/05 A3000 RMK CU1AC1CI0 SLP147

CYYC;2009-07-19 17:00;CYYC 191700Z 05005KT 30SM FEW045 FEW140 BKN270 18/06 A2999 RMK CU1AC1CI4 SLP145

CYYC;2009-07-19 18:00;CYYC 191800Z 00000KT 40SM FEW048 FEW140 BKN270 19/06 A2998 RMK CU1AC1CI4 TCU ASOCTD SLP149

CYYC;2009-07-19 19:00;CYYC 191900Z 16004KT 40SM FEW048 FEW120 SCT280 20/07 A2998 RMK CU1AC1CI1 TCU ASOCTD SLP149

CYYC;2009-07-19 20:00;CYYC 192000Z 18008KT 40SM FEW050 FEW100 FEW260 20/08 A2997 RMK CU1AC1CI1 TCU ASOCTD / ACSL SLP144

CYYC;2009-07-19 21:00;CYYC 192100Z 13012KT 40SM FEW048CB FEW120 FEW170 21/07 A2997 RMK CB2AC1AC1 SH NW-NE SLP145

CYYC;2009-07-19 21:16;CYYC 192116Z 14015KT 40SM TS BKN053CB BKN100 BKN170 20/ RMK CB5AC1AC1 SH NW-E / LTGCC N

CYYC;2009-07-19 21:23;CYYC 192123Z CCA 36018KT 40SM TS BKN047CB BKN100 BKN170 17/ RMK CB6AC1AC1 SH NW-E / LTGCG N / WSHFT 2116Z

CYYC;2009-07-19 21:28;CYYC 192128Z 36014G21KT 40SM TSRA SCT016 BKN047CB BKN100 16/ RMK SC3CB4AC1 VIS NW-E 5 / LTGCG

CYYC;2009-07-19 21:54;CYYC 192154Z 06013KT 40SM TS FEW021 BKN047CB BKN100 15/ RERA RMK SC1CB5AC1

CYYC;2009-07-19 22:00;CYYC 192200Z 06009G15KT 40SM -SHRA FEW021 BKN047CB 15/10 A3001 RETSRA RMK SC1CB5 SLP158

CYYC;2009-07-19 22:45;CYYC 192245Z 04006KT 40SM FEW020 FEW047CB FEW100 17/ RMK SC1CB2AC1 SH E

CYYC;2009-07-19 23:00;CYYC 192300Z 05006KT 40SM FEW030CB FEW120 17/10 A3001 RMK CB1AC1 SH E SLP159

CYYC;2009-07-20 00:00;CYYC 200000Z 04004KT 40SM FEW040CB FEW090 FEW290 19/08 A3002 RMK CB1AC1CI0 SH SE SLP168

CYYC;2009-07-20 01:00;CYYC 200100Z 04010G15KT 40SM FEW052TCU FEW080 FEW290 20/06 A3002 RMK TCU1AC1CI1 SLP169

CYYC;2009-07-20 02:00;CYYC 200200Z 03011G17KT 30SM FEW050 18/07 A3005 RMK CU1 SLP178

CYYC;2009-07-20 03:00;CYYC 200300Z 36009KT 30SM FEW040TCU 16/06 A3007 RMK TCU1 SLP187

CYYC;2009-07-20 04:00;CYYC 200400Z 35006KT 30SM FEW080 15/06 A3010 RMK AC2 SLP196

CYYC;2009-07-20 05:00;CYYC 200500Z 34004KT 15SM FEW080 SCT120 14/06 A3012 RMK AC2AC1 SLP200

CYYC;2009-07-20 06:00;CYYC 200600Z 27004KT 15SM SCT074 BKN120 14/06 A3014 RMK AC4AC1 SLP207

CYYC;2009-07-20 07:00;CYYC 200700Z 28004KT 15SM SCT074 BKN120 14/06 A3014 RMK AC4AC2 SLP209

CYYC;2009-07-20 08:00;CYYC 200800Z 32008KT 15SM FEW078 SCT120 14/06 A3015 RMK AC2AC2 SLP211

CYYC;2009-07-20 09:00;CYYC 200900Z 31007KT 15SM FEW078 SCT120 13/05 A3016 RMK AC2AC1 SLP214

CYYC;2009-07-20 10:00;CYYC 201000Z 31006KT 15SM SCT078 BKN120 13/04 A3017 RMK AC3AC1 SLP218

CYYC;2009-07-20 11:00;CYYC 201100Z 32007KT 15SM BKN080 BKN120 13/04 A3024 RMK AC5AC1 SLP238

CYYC;2009-07-20 12:00;CYYC 201200Z 24004KT 30SM FEW080 12/04 A3018 RMK AC2 SLP225

CYYC;2009-07-20 13:00;CYYC 201300Z 00000KT 40SM SCT076 13/05 A3019 RMK AC4 SLP228

CYYC;2009-07-20 14:00;CYYC 201400Z 23007KT 40SM FEW040 FEW080 FEW220 15/05 A3020 RMK CU1AC1CI1 SLP230

CYYC;2009-07-20 15:00;CYYC 201500Z 32010G15KT 40SM FEW044 FEW100 FEW260 16/06 A3020 RMK CU1AC1CI1 SLP230

CYYC;2009-07-20 16:00;CYYC 201600Z 36012KT 40SM FEW048 FEW140 FEW260 18/05 A3020 RMK CU1AC1CI1 SLP229

CYYC;2009-07-20 17:00;CYYC 201700Z 34010G15KT 40SM FEW050 FEW140 FEW290 19/06 A3020 RMK CU2AC1CI1 SLP228

CYYC;2009-07-20 18:00;CYYC 201800Z 31004KT 40SM SCT055 SCT120 SCT290 18/05 A3019 RMK CU3AC1CI1 SLP226

CYYC;2009-07-20 19:00;CYYC 201900Z 22004KT 40SM SCT060 SCT120 20/06 A3018 RMK CU4AC1 SLP222

CYYC;2009-07-20 20:00;CYYC 202000Z 34012KT 40SM FEW060 21/07 A3018 RMK CU2 SLP222

CYYC;2009-07-20 21:00;CYYC 202100Z 36007KT 40SM FEW060 21/07 A3017 RMK CU1 SLP216

CYYC;2009-07-20 22:00;CYYC 202200Z 09004KT 40SM FEW060 FEW180 FEW300 22/07 A3015 RMK CU1AC1CI1 SLP210

CYYC;2009-07-20 23:00;CYYC 202300Z 07007KT 40SM FEW060 FEW300 22/06 A3014 RMK CU1CI1 SLP208

CYYC;2009-07-21 00:00;CYYC 210000Z 04009KT 40SM FEW060 FEW300 21/06 A3014 RMK CU1CI0 SLP207

CYYC;2009-07-21 01:00;CYYC 210100Z 05010KT 40SM FEW060 FEW090 FEW300 21/07 A3014 RMK CU1AC1CI0 SLP209

CYYC;2009-07-21 02:00;CYYC 210200Z 07007KT 30SM FEW063 FEW100 FEW260 20/07 A3014 RMK CU1AC1CI0 CU TR SLP209

CYYC;2009-07-21 03:00;CYYC 210300Z 08004KT 30SM FEW056 FEW110 SCT260 19/07 A3015 RMK CU1AC2CI0 SLP208

CYYC;2009-07-21 04:00;CYYC 210400Z 19004KT 20SM FEW060 BKN075 BKN110 18/08 A3016 RMK SC1AC6AC1 SLP210

CYYC;2009-07-21 05:00;CYYC 210500Z 10005KT 15SM BKN063 OVC078 18/08 A3017 RMK SC6AC2 SLP213

CYYC;2009-07-21 06:00;CYYC 210600Z 12005KT 15SM SCT067 SCT210 17/07 A3017 RMK AC3CI0 SLP215

CYYC;2009-07-21 07:00;CYYC 210700Z 16004KT 15SM FEW078 17/07 A3016 RMK AC2 SLP212

CYYC;2009-07-21 08:00;CYYC 210800Z 18004KT 15SM FEW078 15/08 A3015 RMK AC1 AC TR SLP210

CYYC;2009-07-21 09:00;CYYC 210900Z 19004KT 15SM SKC 14/08 A3014 RMK SLP205

CYYC;2009-07-21 10:00;CYYC 211000Z 21002KT 15SM SKC 13/08 A3013 RMK SLP202

CYYC;2009-07-21 11:00;CYYC 211100Z 35002KT 15SM FEW260 11/07 A3012 RMK CI1 CI TR SLP199

CYYC;2009-07-21 12:00;CYYC 211200Z 36006KT 30SM FEW260 10/07 A3012 RMK CI1 CI TR SLP203

CYYC;2009-07-21 13:00;CYYC 211300Z 20002KT 40SM SCT260 12/07 A3011 RMK CI1 SLP201

CYYC;2009-07-21 14:00;CYYC 211400Z 21003KT 40SM FEW270 15/09 A3011 RMK CI0 SLP200

CYYC;2009-07-21 15:00;CYYC 211500Z 21005KT 40SM FEW270 17/08 A3011 RMK CI0 SLP193

CYYC;2009-07-21 16:00;CYYC 211600Z 17009KT 40SM FEW250 19/09 A3010 RMK CI0 SLP190

CYYC;2009-07-21 17:00;CYYC 211700Z 18012KT 40SM FEW048 FEW280 21/09 A3008 RMK CU1CI0 SLP186

CYYC;2009-07-21 18:00;CYYC 211800Z 20007KT 40SM FEW048 FEW180 FEW280 21/10 A3008 RMK CU1AC1CI1 SLP179

CYYC;2009-07-21 19:00;CYYC 211900Z 17007KT 40SM FEW052 FEW180 SCT280 23/10 A3007 RMK CU1AC1CI0 SLP176

CYYC;2009-07-21 20:00;CYYC 212000Z 21004KT 40SM FEW067 FEW180 FEW280 25/08 A3005 RMK CU1AC1CI0 SLP170

CYYC;2009-07-21 21:00;CYYC 212100Z 13005KT 40SM FEW075 FEW180 FEW260 25/06 A3004 RMK CU1AC1CI1 SLP162

CYYC;2009-07-21 22:00;CYYC 212200Z 16006KT 40SM FEW075 FEW170 FEW260 25/08 A3003 RMK CU1AC1CI1 SLP159

CYYC;2009-07-21 23:00;CYYC 212300Z 11010KT 40SM FEW075 FEW170 FEW260 25/08 A3002 RMK CU1AC1CI0 SLP156

CYYC;2009-07-22 00:00;CYYC 220000Z 11009KT 40SM FEW075 FEW190 FEW260 25/07 A3001 RMK CU1AC1CI1 SLP158

CYYC;2009-07-22 01:00;CYYC 220100Z 13008KT 40SM FEW075 FEW170 FEW260 25/07 A3000 RMK CU1AC1CI1 SLP157

CYYC;2009-07-22 02:00;CYYC 220200Z 13008KT 40SM FEW070 FEW260 24/07 A3000 RMK CU1CI1 BOTH CLDS TR SLP157

CYYC;2009-07-22 03:00;CYYC 220300Z 12007KT 40SM FEW070 FEW260 22/08 A3000 RMK CU1CI1 BOTH CLDS TR SLP151

CYYC;2009-07-22 04:00;CYYC 220400Z 13007KT 20SM FEW060 FEW260 21/08 A3001 RMK CU1CI1 BOTH CLDS TR SLP153

CYYC;2009-07-22 05:00;CYYC 220500Z 14007KT 15SM FEW260 19/10 A3002 RMK CI1 CI TR SLP155

CYYC;2009-07-22 06:00;CYYC 220600Z 17008KT 15SM SKC 18/10 A3002 RMK SLP157

CYYC;2009-07-22 07:00;CYYC 220700Z 20007KT 15SM SKC 18/10 A3002 RMK SLP156

CYYC;2009-07-22 08:00;CYYC 220800Z 19006KT 15SM SKC 17/10 A3001 RMK SLP154

CYYC;2009-07-22 09:00;CYYC 220900Z 20006KT 15SM SKC 16/10 A3000 RMK SLP149

CYYC;2009-07-22 10:00;CYYC 221000Z 21005KT 15SM SKC 15/09 A3000 RMK SLP147

CYYC;2009-07-22 11:00;CYYC 221100Z 22005KT 15SM FEW120 16/09 A2999 RMK AC1 AC TR SLP146

CYYC;2009-07-22 12:00;CYYC 221200Z 19004KT 30SM FEW260 13/08 A3000 RMK CI1 CI TR SLP151

CYYC;2009-07-22 13:00;CYYC 221300Z 00000KT 40SM SKC 14/09 A2999 RMK SLP150

CYYC;2009-07-22 14:00;CYYC 221400Z CCA 22005KT 40SM FEW250 16/09 A2998 RMK CI1 SLP147

CYYC;2009-07-22 15:00;CYYC 221500Z 21005KT 40SM FEW045 FEW120 FEW250 20/08 A2998 RMK CU1AC1CI1 SLP140

CYYC;2009-07-22 16:00;CYYC 221600Z 29003KT 40SM FEW120 24/10 A2998 RMK AC1 SLP139

CYYC;2009-07-22 17:00;CYYC 221700Z 23004KT 40SM FEW090 27/05 A2997 RMK CU1 SLP137

CYYC;2009-07-22 18:00;CYYC 221800Z 31002KT 40SM FEW090 FEW250 28/04 A2997 RMK CU1CI1 SLP130

CYYC;2009-07-22 19:00;CYYC 221900Z 22003KT 30SM FEW090 FEW250 28/05 A2996 RMK CU1CI0 SLP127

CYYC;2009-07-22 20:00;CYYC 222000Z 13006KT 20SM FEW095 BKN260 29/05 A2994 RMK CU1CI1 CU TR / HZ SLP121

CYYC;2009-07-22 21:00;CYYC 222100Z 00000KT 20SM FEW100 SCT260 30/05 A2993 RMK CU1CI1 CU TR / HZ SLP117

CYYC;2009-07-22 22:00;CYYC 222200Z 22008KT 20SM FEW100 FEW260 30/08 A2992 RMK CU1CI1 HZ SLP114

CYYC;2009-07-22 23:00;CYYC 222300Z 15012KT 20SM FEW100 30/08 A2990 RMK AC1 HZ / WSHFT 2257 SLP109

CYYC;2009-07-23 00:00;CYYC 230000Z 15014KT 20SM FEW100 29/08 A2989 RMK AC1 HZ SLP108

CYYC;2009-07-23 01:00;CYYC 230100Z 16012G17KT 20SM FEW090 29/08 A2988 RMK AC1 HZ SLP105

CYYC;2009-07-23 02:00;CYYC 230200Z 17013KT 25SM FEW080 FEW140 28/08 A2987 RMK CU1AC1 BOTH CLDS TR SLP104

CYYC;2009-07-23 03:00;CYYC 230300Z 18010G16KT 30SM FEW072 FEW140 FEW250 27/09 A2988 RMK CU1AC1CI1 ALL CLDS TR SLP101

CYYC;2009-07-23 04:00;CYYC 230400Z 19009KT 20SM FEW070 FEW140 FEW250 24/09 A2989 RMK CU1AC1CI0 CU+AC TR SLP104

CYYC;2009-07-23 05:00;CYYC 230500Z 21005KT 15SM FEW120 SCT250 23/09 A2990 RMK AC2CI0 SLP106

CYYC;2009-07-23 06:00;CYYC 230600Z 22006KT 15SM FEW120 FEW250 23/09 A2990 RMK AC0CI0 SLP101

CYYC;2009-07-23 07:00;CYYC 230700Z 32009KT 15SM SKC 20/08 A2991 RMK SLP104

CYYC;2009-07-23 08:00;CYYC 230800Z 33016KT 15SM SKC 18/09 A2994 RMK SLP114

CYYC;2009-07-23 09:00;CYYC 230900Z 33013KT 15SM SKC 17/10 A2997 RMK SLP129

CYYC;2009-07-23 10:00;CYYC 231000Z 34013KT 15SM SKC 16/10 A2998 RMK SLP133

CYYC;2009-07-23 11:00;CYYC 231100Z CCA 35010KT 15SM SCT220 17/10 A3000 RMK CI2 SLP139

CYYC;2009-07-23 12:00;CYYC 231200Z 34007KT 30SM FEW110 SCT250 15/10 A3002 RMK AC1CI2 AC TR SLP151

CYYC;2009-07-23 13:00;CYYC 231300Z 32007KT 25SM FEW110 BKN230 16/10 A3004 RMK AC1CI4 AC TR SLP157

CYYC;2009-07-23 14:00;CYYC 231400Z 24007KT 20SM FEW180 OVC230 18/11 A3005 RMK AS2CI0 HZ SLP159

CYYC;2009-07-23 15:00;CYYC 231500Z 34002KT 20SM SCT180 OVC260 20/12 A3006 RMK AS2CI2 HZ SLP160

CYYC;2009-07-23 16:00;CYYC 231600Z 00000KT 20SM FEW180 BKN260 21/12 A3005 RMK AS1CI1 HZ SLP158

CYYC;2009-07-23 17:00;CYYC 231700Z 17004KT 20SM FEW240 BKN260 23/11 A3005 RMK CI2CI1 HZ SLP158

CYYC;2009-07-23 18:00;CYYC 231800Z 18004KT 20SM FEW240 BKN260 24/11 A3005 RMK CI1CC0 HZ SLP156

CYYC;2009-07-23 19:00;CYYC 231900Z 15011KT 30SM FEW240 OVC260 25/11 A3004 RMK CS1CC1 HZ SLP153

CYYC;2009-07-23 20:00;CYYC 232000Z 18011KT 30SM FEW060 FEW240 OVC260 25/11 A3003 RMK CF1CS2CC1 HZ SLP150

CYYC;2009-07-23 21:00;CYYC 232100Z 18012KT 30SM OVC250 26/12 A3002 RMK CI1 SLP151

CYYC;2009-07-23 22:00;CYYC 232200Z 18011G17KT 20SM FEW060 SCT260 27/11 A3000 RMK CU1CI1 HZ / CU TR SLP145

CYYC;2009-07-23 23:00;CYYC 232300Z 14011KT 20SM FEW060 SCT260 27/11 A2998 RMK CU1CI2 HZ SLP141

CYYC;2009-07-24 00:00;CYYC 240000Z CCA 14009KT 20SM FEW060 BKN260 26/11 A2999 RMK CF1CI2 SLP144

CYYC;2009-07-24 01:00;CYYC 240100Z 15011G16KT 15SM FEW120 SCT180 BKN250 25/11 A3001 RMK AC1AS2CI1 SLP149

CYYC;2009-07-24 02:00;CYYC 240200Z 19010G16KT 15SM FEW081 BKN170 OVC230 24/11 A3000 RMK AC2AC3CI2 HZ S-W SLP148

CYYC;2009-07-24 03:00;CYYC 240300Z 24008KT 15SM FEW080 BKN170 OVC230 24/11 A2999 RMK AC2AC3CI3 SLP142

CYYC;2009-07-24 04:00;CYYC 240400Z 00000KT 15SM FEW085 BKN170 OVC230 23/09 A2999 RMK AC1AC4CI2 SLP140

CYYC;2009-07-24 05:00;CYYC 240500Z 22006KT 15SM FEW070 BKN150 BKN230 20/09 A3001 RMK AC2AC3CI2 SLP147

CYYC;2009-07-24 06:00;CYYC 240600Z 22005KT 15SM SCT120 BKN190 BKN230 20/09 A3003 RMK AC3AC2CI2 SLP152

CYYC;2009-07-24 07:00;CYYC 240700Z 00000KT 15SM BKN120 OVC230 20/09 A3005 RMK AC5CI2 SLP160

CYYC;2009-07-24 08:00;CYYC 240800Z 00000KT 15SM BKN120 OVC230 19/10 A3003 RMK AC5CI2 SLP154

CYYC;2009-07-24 09:00;CYYC 240900Z 35005KT 15SM SCT120 BKN180 OVC240 17/10 A3001 RMK AC3AC2CI2 SLP148

CYYC;2009-07-24 10:00;CYYC 241000Z 22006KT 15SM SCT120 BKN180 OVC240 17/10 A3004 RMK AC3AC2CI2 SLP157

CYYC;2009-07-24 11:00;CYYC 241100Z 20005KT 15SM FEW120 BKN180 OVC240 18/09 A3005 RMK AC2AC2CI2 SLP160

CYYC;2009-07-24 12:00;CYYC 241200Z 18005KT 20SM FEW090 BKN170 OVC230 17/10 A3006 RMK AC2AC3CI2 SLP166

CYYC;2009-07-24 13:00;CYYC 241300Z 00000KT 30SM FEW090 SCT170 BKN240 17/10 A3006 RMK AC1AC2CI2 SLP166

CYYC;2009-07-24 14:00;CYYC 241400Z 20005KT 40SM FEW120 FEW240 19/11 A3006 RMK AC1CI0 SLP167

CYYC;2009-07-24 15:00;CYYC 241500Z 22004KT 40SM SCT120 21/10 A3005 RMK AC3 SLP161

CYYC;2009-07-24 16:00;CYYC 241600Z 26003KT 40SM BKN150 21/10 A3006 RMK AC6 SLP162

CYYC;2009-07-24 17:00;CYYC 241700Z 20002KT 40SM FEW120 BKN170 21/11 A3007 RMK AC2AC4 SLP166

CYYC;2009-07-24 18:00;CYYC 241800Z 19005KT 30SM FEW120 SCT170 23/11 A3007 RMK AC1AC2 SLP170

CYYC;2009-07-24 19:00;CYYC 241900Z 17011KT 30SM FEW060 FEW120 FEW170 26/10 A3007 RMK CU1AC1AC1 CU + AC TR SLP171

CYYC;2009-07-24 20:00;CYYC 242000Z 17010KT 20SM FEW060 FEW170 27/09 A3007 RMK CU1AC1 HZ SLP170

CYYC;2009-07-24 21:00;CYYC 242100Z 14011KT 20SM FEW070 FEW170 28/10 A3007 RMK CU1AC1 HZ / CU TR SLP167

CYYC;2009-07-24 22:00;CYYC 242200Z 14013G18KT 30SM FEW070 FEW170 28/10 A3006 RMK CU1AC1 HZ / CU TR / TCU ASOCTD WSW /VIRGA SE SLP165

CYYC;2009-07-24 23:00;CYYC 242300Z 15012KT 30SM FEW070 FEW170 28/09 A3006 RMK CU1AC1 SLP165

CYYC;2009-07-25 00:00;CYYC 250000Z CCA 15009KT 30SM FEW080 FEW170 28/09 A3006 RMK CU1AC1 HZ S-W / TCU ASOCTD WSW SLP165

CYYC;2009-07-25 01:00;CYYC 250100Z 15010KT 20SM FEW060 FEW120 FEW170 26/10 A3006 RMK CU1AC1AC1 CU+AC TR / HZ S-W / TCU ASOCTD WSW SLP164

CYYC;2009-07-25 02:00;CYYC 250200Z 14008KT 20SM FEW060 FEW130 25/10 A3007 RMK CU1AC1 CU TR SLP168

CYYC;2009-07-25 03:00;CYYC 250300Z 16007KT 20SM FEW110 FEW210 24/10 A3007 RMK AC1CI0 SLP169

CYYC;2009-07-25 04:00;CYYC 250400Z 08004KT 20SM FEW110 FEW220 21/09 A3008 RMK AC1CI1 CI TR SLP172

CYYC;2009-07-25 05:00;CYYC 250500Z 18005KT 15SM SKC 21/09 A3009 RMK SLP174

CYYC;2009-07-25 06:00;CYYC 250600Z 20004KT 15SM SKC 20/10 A3009 RMK SLP178

CYYC;2009-07-25 07:00;CYYC 250700Z 20005KT 15SM SKC 19/10 A3010 RMK SLP179

CYYC;2009-07-25 08:00;CYYC 250800Z 20004KT 15SM SKC 17/10 A3010 RMK SLP179

CYYC;2009-07-25 09:00;CYYC 250900Z 34008KT 15SM SKC 15/09 A3010 RMK SLP182

CYYC;2009-07-25 10:00;CYYC 251000Z 00000KT 15SM SKC 14/09 A3011 RMK SLP184

CYYC;2009-07-25 11:00;CYYC 251100Z 22004KT 15SM FEW070 FEW250 14/09 A3013 RMK AC1CI0 AC TR SLP189

CYYC;2009-07-25 12:00;CYYC 251200Z 32005KT 20SM FEW070 FEW250 13/09 A3013 RMK AC1CI0 AC TR SLP194

CYYC;2009-07-25 13:00;CYYC 251300Z 22002KT 20SM SKC 14/09 A3014 RMK SLP197

CYYC;2009-07-25 14:00;CYYC 251400Z 00000KT 20SM SKC 16/10 A3014 RMK SLP196

CYYC;2009-07-25 15:00;CYYC 251500Z 00000KT 20SM SKC 20/11 A3015 RMK SLP196

CYYC;2009-07-25 16:00;CYYC 251600Z 00000KT 20SM SKC 23/11 A3016 RMK SLP198

CYYC;2009-07-25 17:00;CYYC 251700Z 16003KT 20SM SKC 25/11 A3016 RMK SLP199

CYYC;2009-07-25 18:00;CYYC 251800Z 17004KT 20SM FEW064 27/11 A3016 RMK CU1 CU TR SLP195

CYYC;2009-07-25 19:00;CYYC 251900Z 16004KT 20SM FEW068 FEW100 28/11 A3015 RMK CU1AC1 BOTH CLDS TR SLP194

CYYC;2009-07-25 20:00;CYYC 252000Z 13005KT 20SM FEW075 FEW110 28/11 A3015 RMK CU1AC1 AC TR SLP192

CYYC;2009-07-25 21:00;CYYC 252100Z 14008KT 20SM FEW072 FEW100 29/11 A3014 RMK CU1AC1 AC TR SLP193

CYYC;2009-07-25 22:00;CYYC 252200Z 14011KT 20SM FEW072 FEW100 28/12 A3013 RMK CU1AC1 CB TOPS W SLP191

CYYC;2009-07-25 23:00;CYYC 252300Z 16008KT 20SM FEW068 FEW100 29/12 A3013 RMK CU2AC1 AC TR SLP189

CYYC;2009-07-26 00:00;CYYC 260000Z 10008KT 20SM FEW064 FEW100 29/12 A3011 RMK CU2AC1 AC TR SLP187

CYYC;2009-07-26 01:00;CYYC 260100Z 11007KT 20SM FEW062 FEW090 29/11 A3010 RMK CU1AC1 AC TR SLP182

CYYC;2009-07-26 02:00;CYYC 260200Z 11010KT 20SM FEW090 28/11 A3010 RMK AC1 HZ S-W SLP183

CYYC;2009-07-26 03:00;CYYC 260300Z 13006KT 20SM FEW050 FEW090CB 26/13 A3011 RMK CU1CB1 HZ S-W SLP179

CYYC;2009-07-26 04:00;CYYC 260400Z 19005KT 15SM FEW040 FEW090 FEW220 24/13 A3012 RMK CU1AC1CI1 SLP184

CYYC;2009-07-26 05:00;CYYC 260500Z 17004KT 15SM FEW060CB 24/12 A3012 RMK CB1 LTGCC +CG S-W SLP183

CYYC;2009-07-26 06:00;CYYC 260600Z 00000KT 15SM FEW060CB 22/12 A3012 RMK CB1 LTGCC + CG S SLP178

CYYC;2009-07-26 07:00;CYYC 260700Z 06002KT 15SM BKN080 20/12 A3012 RMK AC6 SLP179

CYYC;2009-07-26 08:00;CYYC 260800Z 21004KT 15SM FEW060TCU SCT080 19/12 A3012 RMK TCU1AC2 CB ASOCTD SE-SW / LTGCG SE-SW / TCU S SLP179

CYYC;2009-07-26 09:00;CYYC 260900Z 34006KT 15SM SCT080TCU 17/11 A3013 RMK TCU3 CB EMBD SLP187

CYYC;2009-07-26 10:00;CYYC 261000Z 20006KT 15SM VCSH SCT080CB 18/12 A3013 RMK CB4 CB S-E / LTGCG + CC S-E / SH S-E SLP188

CYYC;2009-07-26 11:00;CYYC 261100Z 05003KT 15SM FEW080CB SCT100 17/12 A3014 RMK CB2AC2 CB NE-S / LTGCG + CC NE-S / SH NE-S SLP190

CYYC;2009-07-26 12:00;CYYC 261200Z 35012KT 20SM FEW025 BKN080CB BKN110 OVC250 17/12 A3019 RMK CF1CB5AC1CI0 LTGCG + CC NE-E / SH NE-E SLP208

CYYC;2009-07-26 13:00;CYYC 261300Z 34017KT 20SM FEW025 SCT080CB SCT110 OVC180 17/12 A3019 RMK CF1CB3AC1AS3 SH NE-E SLP209

CYYC;2009-07-26 14:00;CYYC 261400Z 35014G19KT 30SM FEW030 BKN140 BKN220 18/12 A3023 RMK SC2AC3CI1 SLP221

CYYC;2009-07-26 15:00;CYYC 261500Z CCA 36012G17KT 30SM SCT065 BKN140 BKN220 18/12 A3025 RMK SC4AC2CI1 CU ASOCTD SLP229

CYYC;2009-07-26 16:00;CYYC 261600Z CCA 35009KT 30SM -SHRA FEW024 BKN063 BKN120 19/12 A3027 RMK CU2SC3AC2 SH E SLP236

CYYC;2009-07-26 16:05;CYYC 261605Z 36009KT 30SM -TSRA FEW024 BKN063 BKN120 OVC220 18/ RMK CU2SC3AC2CI1 CB E

CYYC;2009-07-26 16:44;CYYC 261644Z 36012KT 30SM FEW024 BKN054 BKN120 19/ RETS RMK CU1SC4AC2 SH E / CB E

CYYC;2009-07-26 17:00;CYYC 261700Z 36009KT 30SM FEW024TCU BKN054 BKN120 20/13 A3027 RETS RMK TCU2SC3AC2 SH E / CB E SLP237

CYYC;2009-07-26 18:00;CYYC 261800Z 36007KT 30SM FEW032TCU SCT054 OVC120 20/13 A3028 RMK TCU2SC2AC4 SH E / CB E SLP243

CYYC;2009-07-26 19:00;CYYC 261900Z 36008KT 30SM FEW035 SCT054 BKN120 OVC190 22/12 A3028 RMK CU2SC2AC3AC2 SH E-W / CB EMBD SLP244

CYYC;2009-07-26 20:00;CYYC 262000Z 01012G17KT 30SM FEW044 SCT060 BKN100 BKN190 22/12 A3030 RMK CU2SC2AC3AC1 SH SE-N / CB ASOCTD SLP249

CYYC;2009-07-26 21:00;CYYC 262100Z 36014KT 30SM FEW044 FEW080 BKN140 22/12 A3029 RMK CU1AC1AC5 SH SW / CB ASOCTD SLP250

CYYC;2009-07-26 22:00;CYYC 262200Z 05007KT 30SM FEW044 BKN140 BKN260 23/13 A3027 RMK CU2AC3CI0 SH SW+NW SLP246

CYYC;2009-07-26 23:00;CYYC 262300Z 02009G15KT 30SM SCT044TCU BKN140 BKN260 23/12 A3027 RMK TCU4AC1CI0 SH W+N / CB W SLP244

CYYC;2009-07-27 00:00;CYYC 270000Z 36011KT 30SM BKN052TCU BKN140 BKN260 24/12 A3027 RMK TCU5AC1CI0 SH SW+N / CB ASOCTD SLP241

CYYC;2009-07-27 01:00;CYYC 270100Z 35015KT 30SM FEW052TCU SCT140 BKN250 23/12 A3028 RMK TCU2AC1CI1 SH S+N SLP244

CYYC;2009-07-27 02:00;CYYC 270200Z 33009KT 20SM FEW052CB SCT140 BKN250 21/13 A3029 RMK CB2AC1CI0 SH S+N / CB S SLP247

CYYC;2009-07-27 03:00;CYYC 270300Z 32006KT 20SM FEW050CB FEW140 SCT250 20/12 A3029 RMK CB1AC2CI0 CB S SLP254

CYYC;2009-07-27 04:00;CYYC 270400Z 23005KT 15SM FEW090 19/12 A3031 RMK AC1 SLP258

CYYC;2009-07-27 05:00;CYYC 270500Z 34004KT 15SM FEW090 17/12 A3032 RMK AC1 SLP262

CYYC;2009-07-27 06:00;CYYC 270600Z 32006KT 15SM FEW090 17/12 A3032 RMK AC1 SLP265

CYYC;2009-07-27 07:00;CYYC 270700Z 32007KT 15SM FEW100 16/12 A3032 RMK AC1 SLP265

CYYC;2009-07-27 08:00;CYYC 270800Z 34004KT 15SM FEW080 SCT100 15/11 A3033 RMK AC1AC3 SLP268

CYYC;2009-07-27 09:00;CYYC 270900Z 00000KT 15SM SCT060 BKN090 15/11 A3033 RMK SC4AC2 SLP267

CYYC;2009-07-27 10:00;CYYC 271000Z 35004KT 15SM FEW060 FEW090 14/09 A3032 RMK SC2AC1 SLP266

CYYC;2009-07-27 11:00;CYYC 271100Z 33005KT 15SM FEW030TCU FEW060 12/09 A3032 RMK TCU1SC1 TCU W SLP264

CYYC;2009-07-27 12:00;CYYC 271200Z 00000KT 20SM FEW030 FEW060 12/09 A3031 RMK SF1SC1 SLP261

CYYC;2009-07-27 13:00;CYYC 271300Z 00000KT 20SM FEW030 FEW060 13/09 A3031 RMK CF1SC1 HZ S-W SLP261

CYYC;2009-07-27 14:00;CYYC 271400Z 00000KT 30SM FEW020 FEW160 15/11 A3030 RMK CU1AC1 TCU ASOCTD SLP260

CYYC;2009-07-27 15:00;CYYC 271500Z 23006KT 30SM FEW028 FEW110 FEW270 19/11 A3030 RMK CU1AC1CI1 SLP256

CYYC;2009-07-27 16:00;CYYC 271600Z 20007KT 30SM FEW040 FEW110 SCT280 20/11 A3029 RMK CU1AC1CI0 SLP254

CYYC;2009-07-27 17:00;CYYC 271700Z 21005KT 30SM FEW048 FEW110 SCT280 22/10 A3028 RMK CU1AC1CI0 CONTRAILS SLP251

CYYC;2009-07-27 18:00;CYYC 271800Z 00000KT 30SM SCT060 SCT140 BKN280 23/08 A3027 RMK CU4AC1CI0 SLP243

CYYC;2009-07-27 19:00;CYYC 271900Z 00000KT 30SM BKN060 BKN280 24/09 A3026 RMK CU5CI0 SLP241

CYYC;2009-07-27 20:00;CYYC 272000Z 06006KT 20SM SCT060 SCT280 24/08 A3025 RMK CU4CI1 HZ SLP237

CYYC;2009-07-27 21:00;CYYC 272100Z 04005KT 20SM SCT063 BKN280 24/08 A3024 RMK CU4CI0 HZ SLP233

CYYC;2009-07-27 22:00;CYYC 272200Z 02002KT 20SM FEW065 SCT250 25/09 A3023 RMK CU2CI0 HZ SLP230

CYYC;2009-07-27 23:00;CYYC 272300Z 03005KT 20SM FEW065 BKN250 25/09 A3022 RMK CU2CI0 HZ SLP226

CYYC;2009-07-28 00:00;CYYC 280000Z 05007KT 20SM FEW065 FEW160 BKN260 25/09 A3020 RMK CU1AC1CI1 HZ SLP223

CYYC;2009-07-28 01:00;CYYC 280100Z 05008KT 20SM FEW065 FEW160 BKN240 24/08 A3019 RMK CU1AC1CS3 HZ SLP219

CYYC;2009-07-28 02:00;CYYC 280200Z 05005KT 20SM FEW065 FEW140 FEW240 23/08 A3019 RMK CU1AC2CI0 CU TR SLP221

CYYC;2009-07-28 03:00;CYYC 280300Z 04004KT 20SM FEW070 SCT180 22/07 A3019 RMK AC2AC2 SLP215

CYYC;2009-07-28 04:00;CYYC 280400Z 07003KT 15SM SCT070 BKN110 OVC240 20/06 A3019 RMK AC3AC2CI2 SH DIST W SLP215

CYYC;2009-07-28 05:00;CYYC 280500Z 36004KT 15SM SCT070 BKN120 20/08 A3018 RMK AC4AC2 LTGIC W SLP212

CYYC;2009-07-28 05:45;CYYC 280545Z 30014KT 15SM -SHRA BKN069 OVC180 18/ RMK AC6AC2 LTGIC W

CYYC;2009-07-28 06:00;CYYC 280600Z CCA 27007KT 12SM -SHRA FEW020 BKN068 OVC180 17/10 A3019 RMK SC2AC3AC2 SLP216

CYYC;2009-07-28 07:00;CYYC 280700Z 17006KT 15SM -SHRA FEW080 BKN140 OVC240 16/10 A3018 RMK AC1AC6CI1 SLP213

CYYC;2009-07-28 07:22;CYYC 280722Z 30006KT 15SM FEW085 BKN160 BKN240 16/ RMK AC1AC4CI2

CYYC;2009-07-28 08:00;CYYC 280800Z 26005KT 15SM FEW240 16/10 A3016 RMK CI0 SLP206

CYYC;2009-07-28 09:00;CYYC 280900Z 34004KT 15SM SKC 16/10 A3014 RMK SLP200

CYYC;2009-07-28 10:00;CYYC 281000Z 36004KT 15SM SKC 15/10 A3012 RMK SLP194

CYYC;2009-07-28 11:00;CYYC 281100Z 31003KT 15SM FEW050 BKN110 BKN240 14/10 A3011 RMK SC1AC4CI0 SLP191

CYYC;2009-07-28 12:00;CYYC 281200Z 36015KT 15SM BKN071 BKN110 OVC230 16/10 A3014 RMK AC5AC1CI2 SLP198

CYYC;2009-07-28 13:00;CYYC 281300Z 36016KT 20SM SCT013 BKN050 OVC110 13/09 A3018 RMK SC4SC2AC2 SLP210

CYYC;2009-07-28 13:42;CYYC 281342Z 35009KT 8SM -RA BKN009 BKN025 OVC060 13/ RMK SC4SC2SC2

CYYC;2009-07-28 14:00;CYYC 281400Z 32005KT 10SM -SHRA FEW010 BKN020 OVC080 13/10 A3019 RMK SC2SC2AC4 SLP213

CYYC;2009-07-28 14:21;CYYC 281421Z 31007KT 10SM SCT010 SCT030 OVC080 14/ RMK SC3SC1AC4 SH NE-W

CYYC;2009-07-28 14:53;CYYC 281453Z 30008KT 10SM -SHRA BKN014 BKN030 OVC080 14/ RMK SC4SC1AC4

CYYC;2009-07-28 15:00;CYYC 281500Z 31008KT 7SM -SHRA FEW005 BKN014 OVC080 14/11 A3021 RMK SC1SC3AC4 SLP227

CYYC;2009-07-28 15:36;CYYC 281536Z 31008KT 10SM FEW014 FEW040 BKN080 BKN150 15/ RMK SC2SC1AC3AC2 SH S-NW

CYYC;2009-07-28 16:00;CYYC 281600Z 31010KT 15SM FEW020 FEW040 SCT070 16/11 A3020 RMK CU2SC1AC2 SH ALQDS SLP225

CYYC;2009-07-28 17:00;CYYC 281700Z 36013G21KT 20SM BKN026 BKN060 BKN140 17/11 A3020 RMK CU5SC2AC1 SH S / TCU ASOCTD SLP224

CYYC;2009-07-28 18:00;CYYC 281800Z 36019KT 20SM BKN028 BKN120 18/11 A3020 RMK CU5AC2 SH S / TCU ASOCTD SLP227

CYYC;2009-07-28 19:00;CYYC 281900Z 02017G26KT 20SM FEW028 FEW100 SCT280 18/10 A3022 RMK CU2AC1CI0 TCU ASOCTD SLP232

CYYC;2009-07-28 20:00;CYYC 282000Z 02016G21KT 20SM FEW038 SCT080 SCT260 20/10 A3021 RMK CU2AC2CI0 SH NE / TCU ASOCTD / CONTRAILS SLP229

CYYC;2009-07-28 21:00;CYYC 282100Z 05018KT 20SM FEW030 BKN038TCU BKN280 20/10 A3022 RMK SC1TCU6CI0 SH N-SE / CB NE SLP232

CYYC;2009-07-28 21:09;CYYC 282109Z 04019KT 20SM -SHRA BKN038TCU 18/ RMK TCU7 CB EMBD

CYYC;2009-07-28 21:38;CYYC 282138Z 04013G18KT 20SM SCT038TCU SCT090 BKN260 18/ RMK TCU4AC1CI0 SH SE-S / CB ASOCTD

CYYC;2009-07-28 22:00;CYYC 282200Z CCA 04016KT 30SM FEW038TCU FEW090 SCT260 19/10 A3023 RMK TCU1AC1CI0 SH NE SLP236

CYYC;2009-07-28 23:00;CYYC 282300Z 04017KT 30SM FEW040CB FEW070 SCT140 BKN260 20/10 A3022 RMK CB2AC1AC2CI0 SH NW-E SLP233

CYYC;2009-07-28 23:33;CYYC 282333Z 05014G19KT 30SM -SHRA BKN040TCU BKN070 18/ RMK TCU6AC1 CB EMBD

CYYC;2009-07-29 00:00;CYYC 290000Z 05010KT 30SM -SHRA SCT040TCU BKN070 BKN240 18/10 A3023 RMK TCU3AC3CI0 CB EMBD SLP238

CYYC;2009-07-29 00:34;CYYC 290034Z 03007KT 30SM FEW040TCU SCT060 BKN240 18/ RMK TCU1SC2CI0 SH SW

CYYC;2009-07-29 01:00;CYYC 290100Z 03010KT 20SM FEW040TCU FEW080 FEW240 18/09 A3022 RMK TCU1AC1CI0 HZ SLP233

CYYC;2009-07-29 02:00;CYYC 290200Z 05008KT 20SM FEW100 FEW250 18/09 A3022 RMK AC2CI0 SLP234

CYYC;2009-07-29 03:00;CYYC 290300Z 03003KT 20SM FEW060 SCT100 BKN240 17/09 A3023 RMK SC1AC3CI2 SC TR SLP240

CYYC;2009-07-29 04:00;CYYC 290400Z 00000KT 15SM FEW050 BKN110 OVC180 17/10 A3024 RMK SC2AC4AC2 SLP243

CYYC;2009-07-29 05:00;CYYC 290500Z 00000KT 15SM FEW090 BKN110 BKN230 17/09 A3022 RMK AC2AC4CI1 SLP239

CYYC;2009-07-29 06:00;CYYC 290600Z CCA 27003KT 15SM SCT081 BKN110 BKN220 16/09 A3024 RMK AC3AC2CI2 SLP241

CYYC;2009-07-29 07:00;CYYC 290700Z 36003KT 15SM BKN016 OVC025 16/10 A3021 RMK SC6SC2 SLP231

CYYC;2009-07-29 07:22;CYYC 290722Z 36005KT 10SM -RA BKN017 OVC040 14/ RMK SC6SC2

CYYC;2009-07-29 08:00;CYYC 290800Z 34012KT 10SM RA FEW008 OVC018 14/11 A3023 RMK SC2SC6 SLP238

CYYC;2009-07-29 09:00;CYYC 290900Z 34005KT 15SM -RA FEW060 BKN067 BKN230 12/10 A3022 RERA RMK SC1AC4CI0 RA VRY LGT SLP235

CYYC;2009-07-29 09:07;CYYC 290907Z 32005KT 15SM FEW060 BKN070 BKN230 12/ RMK SC1AC4CI0

CYYC;2009-07-29 10:00;CYYC 291000Z 32006KT 15SM FEW050 BKN089 BKN220 12/09 A3021 RMK SC1AC5CI0 SLP232

CYYC;2009-07-29 11:00;CYYC 291100Z 31009KT 7SM -RA FEW009 BKN015 BKN060 12/09 A3022 RMK SC2SC4SC1 SLP235

CYYC;2009-07-29 12:00;CYYC 291200Z 35006KT 15SM -RA SCT062 BKN080 12/09 A3022 RMK SC4AC2 SLP239

CYYC;2009-07-29 13:00;CYYC 291300Z 24006KT 10SM -RA FEW045 SCT062 BKN100 12/10 A3022 RMK SC2SC2AC2 SLP240

CYYC;2009-07-29 13:21;CYYC 291321Z 34005KT 12SM FEW050 SCT075 BKN110 13/ RMK SC2AC2AC2 BR S-W

CYYC;2009-07-29 14:00;CYYC 291400Z 25005KT 10SM FEW040TCU FEW070 SCT240 13/10 A3023 RMK TCU1AC2CI0 SLP242

CYYC;2009-07-29 15:00;CYYC 291500Z 22004KT 10SM FEW030 FEW070 FEW120 SCT250 14/10 A3024 RMK CF1AC1AC2CI0 SLP244

CYYC;2009-07-29 16:00;CYYC 291600Z 02003KT 10SM FEW070TCU FEW120 FEW240 16/09 A3024 RMK TCU1AC1CI0 AC TR / TCU S-W SLP244

CYYC;2009-07-29 17:00;CYYC 291700Z 02003KT 15SM SCT040TCU 17/10 A3024 RMK TCU3 SLP244

CYYC;2009-07-29 18:00;CYYC 291800Z 02005KT 15SM SCT040TCU 18/07 A3024 RMK TCU4 SLP240

CYYC;2009-07-29 19:00;CYYC 291900Z 35005KT 15SM BKN050TCU 18/07 A3023 RMK TCU5 SLP238

CYYC;2009-07-29 20:00;CYYC 292000Z 03006KT 15SM SCT050TCU BKN070 20/07 A3022 RMK TCU4AC1 SLP236

CYYC;2009-07-29 21:00;CYYC 292100Z 08002KT 15SM SCT050TCU BKN070 19/05 A3022 RMK TCU4AC2 SLP236

CYYC;2009-07-29 22:00;CYYC 292200Z 05006KT 15SM FEW060 20/05 A3020 RMK CU2 SLP232

CYYC;2009-07-29 23:00;CYYC 292300Z 21003KT 20SM FEW060 21/05 A3019 RMK CU1 HZ+FU SLP228

CYYC;2009-07-30 00:00;CYYC 300000Z 29003KT 20SM FEW060 21/05 A3017 RMK CU1 HZ+FU SLP218

CYYC;2009-07-30 01:00;CYYC 300100Z 34006KT 20SM FEW060 21/06 A3016 RMK CU1 HZ+FU SLP215

CYYC;2009-07-30 02:00;CYYC 300200Z 06006KT 20SM FEW060 20/06 A3015 RMK CU1 CU TR SLP212

CYYC;2009-07-30 03:00;CYYC 300300Z 09005KT 20SM FEW048 18/06 A3014 RMK CU1 CU TR SLP210

CYYC;2009-07-30 04:00;CYYC 300400Z 14006KT 15SM FEW240 17/06 A3015 RMK CI1 CI TR SLP211

CYYC;2009-07-30 05:00;CYYC 300500Z 14004KT 15SM FEW240 16/05 A3017 RMK CI1 SLP219

CYYC;2009-07-30 06:00;CYYC 300600Z 18005KT 15SM SKC 15/06 A3011 RMK SLP198

CYYC;2009-07-30 07:00;CYYC 300700Z 20005KT 15SM SKC 14/07 A3010 RMK SLP196

CYYC;2009-07-30 08:00;CYYC 300800Z 19003KT 15SM FEW110 13/07 A3009 RMK AC0 SLP191

CYYC;2009-07-30 09:00;CYYC 300900Z 20003KT 15SM FEW110 12/06 A3007 RMK AC0 SLP185

CYYC;2009-07-30 10:00;CYYC 301000Z 21005KT 15SM FEW110 11/06 A3005 RMK AC0 SLP180

CYYC;2009-07-30 11:00;CYYC 301100Z 00000KT 15SM FEW100 FEW240 11/07 A3003 RMK AC1CI1 CI TR SLP174

CYYC;2009-07-30 12:00;CYYC 301200Z 20002KT 20SM FEW090 BKN240 10/06 A3002 RMK AC2CI2 SLP170

CYYC;2009-07-30 13:00;CYYC 301300Z 00000KT 20SM FEW100 SCT250 10/06 A3002 RMK AC1CI2 SLP168

CYYC;2009-07-30 13:14;CYYC 301314Z 22002KT 10SM FEW100 SCT250 10/ RMK AC1CI1 HZ

CYYC;2009-07-30 14:00;CYYC 301400Z 00000KT 15SM FEW250 12/07 A3001 RMK CI0 HZ+FU SLP165

CYYC;2009-07-30 15:00;CYYC 301500Z 22004KT 15SM FEW120 FEW250 17/09 A3000 RMK AC1CI1 SLP155

CYYC;2009-07-30 16:00;CYYC 301600Z 26003KT 20SM FEW250 19/09 A2998 RMK CI1 SLP151

CYYC;2009-07-30 17:00;CYYC 301700Z 33008KT 20SM FEW055 FEW250 23/09 A2997 RMK CU1CI0 SLP147

CYYC;2009-07-30 18:00;CYYC 301800Z 34011G16KT 20SM FEW060 FEW250 24/08 A2996 RMK CU1CI0 HZ+FU SLP137

CYYC;2009-07-30 19:00;CYYC 301900Z 35010G15KT 20SM FEW065 FEW250 25/08 A2995 RMK CU1CI1 CONTRAILS SLP135

CYYC;2009-07-30 20:00;CYYC 302000Z 34013G18KT 20SM FEW070 FEW150 FEW250 25/08 A2995 RMK CU1AC1CI0 CONTRAILS SLP134

CYYC;2009-07-30 21:00;CYYC 302100Z 01012KT 20SM FEW070 SCT120 BKN250 25/08 A2994 RMK CU1AC2CI1 CB ASOCTD W / HZ+FU SLP133

CYYC;2009-07-30 22:00;CYYC 302200Z 04017KT 10SM FEW070 SCT120 BKN250 25/09 A2994 RMK CU1AC2CI2 CB EMBD / HZ+FU SLP132

CYYC;2009-07-30 23:00;CYYC 302300Z 01006KT 10SM SCT070TCU BKN120 OVC250 23/08 A2997 RMK TCU4AC2CI1 CB EMBD / SH DIST S-W SLP142

CYYC;2009-07-31 00:00;CYYC 310000Z 25003KT 20SM SCT050 BKN120 OVC250 21/10 A2996 RMK SC4AC2CI1 CB EMBD / SH DIST S+W SLP150

CYYC;2009-07-31 00:33;CYYC 310033Z CCA 29007KT 8SM -SHRA FEW014 BKN060 BKN120 OVC250 21/ RMK CF1SC6AC2CI0 CB EMBD / SH S-W

CYYC;2009-07-31 01:00;CYYC 310100Z 31007KT 10SM -SHRA SCT014 BKN050 OVC100 17/13 A3000 RMK SC3SC4AC1 SH ALQDS SLP161

CYYC;2009-07-31 01:23;CYYC 310123Z 33003KT 20SM FEW014 BKN040 OVC070 17/ RMK CF1SC6AC1 CF TR / SH NW+E

CYYC;2009-07-31 01:49;CYYC 310149Z 35012G19KT 6SM -SHRA BR BKN013 OVC020 15/ RMK SC5SC3 TCU EMBD

CYYC;2009-07-31 02:00;CYYC 310200Z 34012G19KT 6SM -SHRA BR BKN014 BKN017 OVC049 14/11 A3005 RMK SC5SC2SC1 TCU EMBD SLP176

CYYC;2009-07-31 03:00;CYYC 310300Z 36011KT 15SM -SHRA BKN018 OVC060 14/11 A3007 RMK SC6SC2 SLP186

CYYC;2009-07-31 04:00;CYYC 310400Z 35010KT 12SM -SHRA BKN016 OVC024 13/10 A3007 RMK SC6SC2 SLP188

CYYC;2009-07-31 05:00;CYYC 310500Z 27005KT 15SM BKN020 BKN100 13/10 A3009 RMK SC5AC2 SLP193

CYYC;2009-07-31 06:00;CYYC 310600Z 29006KT 15SM FEW040 FEW070 FEW250 13/09 A3010 RMK SC1AC1CI1 SC+CI TR SLP189

CYYC;2009-07-31 07:00;CYYC 310700Z 32008KT 15SM FEW230 13/09 A3010 RMK CI1 CI TR SLP189

CYYC;2009-07-31 08:00;CYYC 310800Z 32011KT 15SM SKC 13/09 A3011 RMK SLP191

CYYC;2009-07-31 09:00;CYYC 310900Z 33007KT 15SM BKN063 OVC090 12/09 A3010 RMK SC6AC2 SLP189

CYYC;2009-07-31 10:00;CYYC 311000Z 32008KT 15SM FEW090 SCT250 12/09 A3011 RMK AC1CI1 SLP192

CYYC;2009-07-31 11:00;CYYC 311100Z 32008KT 15SM FEW064 FEW250 12/08 A3012 RMK SC1CI0 SLP193

CYYC;2009-07-31 12:00;CYYC 311200Z 32006KT 20SM FEW050 FEW090 SCT250 12/08 A3012 RMK SC1AC1CI1 SC TR SLP200

CYYC;2009-07-31 13:00;CYYC 311300Z 26002KT 15SM FEW050 FEW140 BKN250 12/09 A3013 RMK CU1AC1CI2 CU TR SLP203

CYYC;2009-07-31 14:00;CYYC 311400Z 32004KT 20SM FEW090 BKN250 13/09 A3013 RMK AC2CI0 SLP205

CYYC;2009-07-31 15:00;CYYC 311500Z 35006KT 20SM FEW015 BKN250 15/11 A3015 RMK SC1CI1 HZ+FU / CONTRAILS SLP215

CYYC;2009-07-31 16:00;CYYC 311600Z 01004KT 20SM FEW018 17/11 A3015 RMK SC2 CONTRAILS SLP216

CYYC;2009-07-31 17:00;CYYC 311700Z 03003KT 20SM SCT030 18/11 A3015 RMK CU3 CONTRAILS / TCU ASOCTD S SLP215

CYYC;2009-07-31 18:00;CYYC 311800Z 14002KT 20SM SCT040 20/10 A3014 RMK CU4 SLP210

CYYC;2009-07-31 19:00;CYYC 311900Z 04003KT 20SM SCT045 20/09 A3013 RMK CU3 SLP205

CYYC;2009-07-31 20:00;CYYC 312000Z 00000KT 20SM FEW055 21/08 A3012 RMK CU2 SLP202

CYYC;2009-07-31 21:00;CYYC 312100Z 18004KT 20SM FEW060 23/08 A3010 RMK CU2 HZ+FU SLP192

CYYC;2009-07-31 22:00;CYYC 312200Z 00000KT 20SM FEW060 23/07 A3009 RMK CU1 HZ+FU SLP188

CYYC;2009-07-31 23:00;CYYC 312300Z 06003KT 20SM FEW060 24/08 A3007 RMK CU1 HZ+FU SLP183

CYYC;2009-08-01 01:00;CYYC 010100Z 14005KT 20SM FEW250 24/09 A3005 RMK CI1 CONTRAILS SLP173

CYYC;2009-08-01 02:00;CYYC 010200Z 14011KT 20SM FEW260 22/10 A3004 RMK CI0 SLP169

CYYC;2009-08-01 03:00;CYYC 010300Z 17009KT 20SM FEW260 21/10 A3003 RMK CI0 SLP164

CYYC;2009-08-01 04:00;CYYC 010400Z 19008KT 15SM FEW260 19/10 A3004 RMK CI0 SLP166

CYYC;2009-08-01 05:00;CYYC 010500Z 21009KT 15SM FEW260 19/11 A3004 RMK CI0 SLP166

CYYC;2009-08-01 06:00;CYYC 010600Z 20007KT 15SM FEW260 18/10 A3003 RMK CI0 SLP163

CYYC;2009-08-01 07:00;CYYC 010700Z 22004KT 15SM SKC 17/10 A3003 RMK SLP164

CYYC;2009-08-01 08:00;CYYC 010800Z 29002KT 15SM SKC 16/10 A3002 RMK SLP159

CYYC;2009-08-01 09:00;CYYC 010900Z 27003KT 15SM SKC 14/10 A3001 RMK SLP155

CYYC;2009-08-01 10:00;CYYC 011000Z 20006KT 15SM SKC 14/10 A3000 RMK SLP153

CYYC;2009-08-01 11:00;CYYC 011100Z 19003KT 15SM SKC 14/10 A2999 RMK SLP150

CYYC;2009-08-01 12:00;CYYC 011200Z 00000KT 15SM FEW140 FEW230 14/10 A2998 RMK AC1CI1 HZ SLP146

CYYC;2009-08-01 13:00;CYYC 011300Z 19005KT 15SM FEW230 14/10 A2997 RMK CI1 HZ SLP142

CYYC;2009-08-01 14:00;CYYC 011400Z 21004KT 25SM FEW090 FEW240 18/10 A2996 RMK AC1CI1 SLP141

CYYC;2009-08-01 15:00;CYYC 011500Z 23007KT 25SM FEW090 FEW240 22/10 A2995 RMK AC1CI1 SLP129

CYYC;2009-08-01 16:00;CYYC 011600Z 27013G18KT 30SM SCT250 25/10 A2994 RMK CI1 SLP124

CYYC;2009-08-01 17:00;CYYC 011700Z 27014KT 30SM BKN250 27/10 A2993 RMK CI1 SLP123

CYYC;2009-08-01 18:00;CYYC 011800Z 28012KT 30SM BKN250 28/10 A2993 RMK CI1 SLP116

CYYC;2009-08-01 19:00;CYYC 011900Z 31011KT 30SM FEW090 BKN250 30/06 A2991 RMK CU1CI1 SLP110

CYYC;2009-08-01 20:00;CYYC 012000Z 26014KT 30SM FEW090 BKN250 30/08 A2989 RMK CU1CI1 SLP105

CYYC;2009-08-01 21:00;CYYC 012100Z 26013KT 30SM FEW090 SCT250 31/08 A2988 RMK CU1CI0 SLP100

CYYC;2009-08-01 22:00;CYYC 012200Z 31002KT 25SM FEW090 FEW120 SCT240 30/08 A2986 RMK CU2AC1CI0 SLP094

CYYC;2009-08-01 23:00;CYYC 012300Z 09003KT 25SM FEW085 FEW110 SCT240 30/09 A2984 RMK CU1AC1CI1 SLP089

CYYC;2009-08-02 00:00;CYYC 020000Z 35002KT 25SM FEW090 FEW110 SCT240 32/09 A2983 RMK CU1AC1CI1 SLP082

CYYC;2009-08-02 00:34;CYYC 020034Z 04018KT 25SM TS FEW065CB SCT110 BKN240 29/ RMK CB2AC2CI1 FRQ LTGICCG NE TS NE MOVG E

CYYC;2009-08-02 01:00;CYYC 020100Z 36006KT 25SM TS FEW065CB SCT110 SCT240 28/11 A2983 RMK CB2AC2CI1 OCNL LTGCG NE TS NE MOVG E SLP082

CYYC;2009-08-02 01:43;CYYC 020143Z 36030G37KT 8SM TS SCT065CB BKN110 BKN240 21/ RMK CB4AC2CI1 OCNL LTGCG NE TS NE MOVG E / HZ

CYYC;2009-08-02 01:56;CYYC 020156Z 01025G42KT 20SM -TSRA FEW040 BKN060CB BKN100 19/ RMK CF1CB6AC1 LTGCG N-E / TS N MOVG E

CYYC;2009-08-02 02:00;CYYC 020200Z CCA 01027G35KT 20SM -TSRA FEW040 BKN060CB BKN100 18/10 A2992 RMK CF1CB6AC1 LTGCG N-E / TS N MOVG E / VIS N-E LWR / PRESRR SLP111

CYYC;2009-08-02 03:00;CYYC 020300Z 34014G20KT 20SM -SHRA FEW040 SCT060CB BKN080 17/11 A2995 RMK CF1CB3AC1 LTGCG N-E / VIS NW-E LWR SLP132

CYYC;2009-08-02 03:40;CYYC 020340Z 32016G25KT 15SM FEW040 SCT060CB BKN080 17/ RMK CF2CB2AC1 SH N-E /LTGCG S / CB N-E+S

CYYC;2009-08-02 04:00;CYYC 020400Z 34015G25KT 15SM FEW040CB BKN100 18/11 A2994 RMK CB2AC2 LTNG S SLP131

CYYC;2009-08-02 05:00;CYYC 020500Z 32012KT 15SM FEW040CB BKN080 18/10 A2995 RMK CB2AC2 LTNG S SLP133

CYYC;2009-08-02 06:00;CYYC 020600Z 31008KT 15SM FEW040 BKN080 18/10 A2995 RMK SC2AC3 SLP124

CYYC;2009-08-02 07:00;CYYC 020700Z 35008KT 15SM BKN110 18/10 A2994 RMK AC6 SLP119

CYYC;2009-08-02 08:00;CYYC 020800Z 32005KT 15SM BKN120 18/10 A2993 RMK AC6 SLP118

CYYC;2009-08-02 09:00;CYYC 020900Z 23006KT 15SM SCT080 BKN100 19/09 A2994 RMK AC3AC3 SLP117

CYYC;2009-08-02 10:00;CYYC 021000Z 29003KT 15SM FEW080 BKN100 18/10 A2994 RMK AC2AC3 SLP117

CYYC;2009-08-02 11:00;CYYC 021100Z 03003KT 15SM FEW080 BKN100 17/10 A2995 RMK AC2AC3 SLP119

CYYC;2009-08-02 12:00;CYYC 021200Z 22002KT 15SM SCT080 BKN100 17/10 A2995 RMK AC3AC2 SLP122

CYYC;2009-08-02 13:00;CYYC 021300Z 34002KT 20SM FEW080 BKN150 17/09 A2996 RMK AC1AS3 SLP123

CYYC;2009-08-02 14:00;CYYC 021400Z 33002KT 20SM FEW100 SCT240 17/09 A2996 RMK AC1CI2 SLP125

CYYC;2009-08-02 15:00;CYYC 021500Z 30003KT 20SM BKN240 19/10 A2996 RMK CI3 SLP140

CYYC;2009-08-02 16:00;CYYC 021600Z 00000KT 20SM BKN240 21/10 A2995 RMK CI3 SLP138

CYYC;2009-08-02 17:00;CYYC 021700Z 00000KT 20SM BKN240 23/12 A2994 RMK CI3 SLP136

CYYC;2009-08-02 18:00;CYYC 021800Z 34007KT 20SM FEW052 BKN240 25/11 A2993 RMK CU1CI2 CU TR SLP123

CYYC;2009-08-02 19:00;CYYC 021900Z 35010G15KT 20SM FEW062 BKN240 26/10 A2992 RMK CU1CI3 CU TR SLP120

CYYC;2009-08-02 20:00;CYYC 022000Z 34005KT 20SM FEW062 BKN240 26/11 A2991 RMK CU1CI4 CU TR SLP117

CYYC;2009-08-02 21:00;CYYC 022100Z 26002KT 20SM FEW065 BKN250 27/10 A2990 RMK CU1CI2 CU TR SLP107

CYYC;2009-08-02 22:00;CYYC 022200Z 02004KT 20SM FEW070 SCT250 28/10 A2989 RMK CU1CI2 CU TR SLP104

CYYC;2009-08-02 23:00;CYYC 022300Z 06008KT 20SM FEW070 FEW190 SCT250 27/10 A2988 RMK CU1AC1CI2 CU TR SLP100

CYYC;2009-08-03 00:00;CYYC 030000Z 05008KT 20SM FEW070 FEW140 BKN250 27/11 A2986 RMK CU1AC1CI2 CU TR SLP096

CYYC;2009-08-03 01:00;CYYC 030100Z 07006KT 20SM FEW068 FEW140 BKN250 27/10 A2986 RMK CU1AC1CI2 CU TR SLP095

CYYC;2009-08-03 02:00;CYYC 030200Z 05011KT 20SM FEW060 FEW140 SCT250 25/12 A2987 RMK SC1AC1CI0 SC TR / HZ+FU SLP099

CYYC;2009-08-03 03:00;CYYC 030300Z 06008KT 20SM FEW060 FEW080 BKN250 23/13 A2986 RMK SC1AC2CI0 SC TR / HZ+FU / CB W SLP101

CYYC;2009-08-03 04:00;CYYC 030400Z 04007KT 15SM SCT070CB BKN120 21/12 A2988 RMK CB3AC1 SH S-W / VIS S-W LWR SLP107

CYYC;2009-08-03 05:00;CYYC 030500Z 00000KT 15SM FEW100 18/12 A2988 RMK AC2 CB EMBD S SLP107

CYYC;2009-08-03 06:00;CYYC 030600Z 01004KT 15SM SCT070 19/12 A2989 RMK AC4 SLP106

CYYC;2009-08-03 07:00;CYYC 030700Z 03008KT 15SM FEW033 BKN070 17/12 A2992 RMK SC1AC3 SLP116

CYYC;2009-08-03 07:38;CYYC 030738Z 08010G15KT 8SM BKN012 BKN033 17/ RMK SC5SC2 LTNG

CYYC;2009-08-03 07:49;CYYC 030749Z 33025G41KT 8SM TS BKN011CB OVC031 16/ RMK CB6SC2 LTNG N-E

CYYC;2009-08-03 07:53;CYYC 030753Z 32034G43KT 8SM TSRA OVC010CB 11/ RMK CB7 LTNG ALQDS

CYYC;2009-08-03 08:00;CYYC 030800Z 35035G46KT 1/2SM +SHRA OVC005CB 09/13 A3003 RMK CB8 LTNG ALQDS SLP149

CYYC;2009-08-03 08:08;CYYC 030808Z 01026G34KT 5SM TSRA SCT005 OVC025CB 08/ RMK CF3CB5 LTGCC ALQDS

CYYC;2009-08-03 09:00;CYYC 030900Z 30005KT 15SM -TSRA FEW015 BKN050CB OVC080 09/M04 A3004 RERA RMK SF1CB5AC2 LTGCC+CG NE-S / TS E MOVG S SLP169

CYYC;2009-08-03 09:24;CYYC 030924Z 29006KT 15SM FEW015 SCT050CB OVC087 10/ RETSRA RMK SF2CB2AC4 TS E MOVG S

CYYC;2009-08-03 10:00;CYYC 031000Z 30008KT 15SM FEW015 OVC100 11/M05 A3006 RETSRA RMK SF2AC6 SLP176

CYYC;2009-08-03 10:11;CYYC 031011Z 32006KT 8SM -SHRA FEW015 FEW040 OVC080 11/ RMK SF1SC1AC6

CYYC;2009-08-03 11:00;CYYC 031100Z 25004KT 8SM -SHRA FEW015 SCT040 OVC070 11/M05 A3006 RMK SC2SC2AC3 SLP176

CYYC;2009-08-03 12:00;CYYC 031200Z 25004KT 15SM -SHRA FEW015 OVC020 11/M05 A3007 RMK SC1SC7 SLP176

CYYC;2009-08-03 12:40;CYYC 031240Z CCA 04005KT 2 1/2SM -RA BR FEW005 OVC011 10/ RMK ST2SC6

CYYC;2009-08-03 12:49;CYYC 031249Z 04005KT 5SM BR FEW005 OVC012 10/ RMK ST2SC6

CYYC;2009-08-03 13:00;CYYC 031300Z 05005KT 5SM BR FEW005 OVC011 10/10 A3007 RMK CF1SC8 SLP177

CYYC;2009-08-03 14:00;CYYC 031400Z CCA 05002KT 12SM FEW005 BKN011 OVC023 11/09 A3007 RMK SC1SC3SC5 SLP177

CYYC;2009-08-03 15:00;CYYC 031500Z 09006KT 12SM FEW010 FEW017 OVC024 11/09 A3008 RMK SC1SC2SC6 SLP186

CYYC;2009-08-03 16:00;CYYC 031600Z 15005KT 15SM FEW010 BKN019 OVC024 11/10 A3009 RMK SC1SC6SC2 SLP189

CYYC;2009-08-03 17:00;CYYC 031700Z 13005KT 10SM FEW011 BKN020 OVC024 12/10 A3008 RMK CU1SC6SC2 SH SE-S SLP187

CYYC;2009-08-03 17:40;CYYC 031740Z 14007KT 10SM BKN011 OVC020 13/ RMK SC5SC3 CU ASOCTD

CYYC;2009-08-03 18:00;CYYC 031800Z CCA 12007KT 8SM BKN010 OVC018 13/11 A3008 RMK SC6SC2 SLP189

CYYC;2009-08-03 19:00;CYYC 031900Z 14007KT 9SM BKN014 OVC018 14/11 A3007 RMK SC6SC2 SLP186

CYYC;2009-08-03 19:46;CYYC 031946Z 14009KT 10SM OVC016 14/ RMK SC8

CYYC;2009-08-03 20:00;CYYC 032000Z 13009KT 8SM BKN016 OVC023 14/12 A3006 RMK SC7SC1 SLP183

CYYC;2009-08-03 21:00;CYYC 032100Z 14010KT 8SM SCT016 OVC022 15/12 A3005 RMK SC3SC5 SLP188

CYYC;2009-08-03 22:00;CYYC 032200Z 12008KT 8SM BKN017 OVC022 15/12 A3004 RMK SC5SC3 SLP186

CYYC;2009-08-03 23:00;CYYC 032300Z 11008KT 7SM SCT017 OVC026 15/12 A3005 RMK SC4SC4 SH NE SLP188

CYYC;2009-08-03 23:20;CYYC 032320Z CCA 10008KT 5SM -RA SCT010 BKN017 OVC020 14/ RMK SC3SC2SC3

CYYC;2009-08-04 00:00;CYYC 040000Z 12006KT 5SM -RA SCT014 OVC017 14/13 A3005 RMK SC3SC5 SLP188

CYYC;2009-08-04 00:08;CYYC 040008Z 12008KT 1 3/4SM -DZ SCT010 OVC017 14/ RMK ST3SC5

CYYC;2009-08-04 00:48;CYYC 040048Z 09006KT 3SM -DZ SCT006 OVC017 13/ RMK ST4SC4

CYYC;2009-08-04 01:00;CYYC 040100Z 10006KT 3SM -DZ BKN009 OVC014 13/13 A3005 RMK ST5SC3 SLP188

CYYC;2009-08-04 01:20;CYYC 040120Z 12006KT 3SM -DZ SCT010 OVC020 14/ RMK ST4SC4

CYYC;2009-08-04 01:30;CYYC 040130Z 11005KT 2SM -DZ BR BKN007 OVC010 13/ RMK ST6SC2

CYYC;2009-08-04 02:00;CYYC 040200Z 09006KT 1 3/4SM -DZ BR BKN008 OVC012 13/13 A3004 RMK ST7SC1 SLP184

CYYC;2009-08-04 02:49;CYYC 040249Z 09008KT 4SM -DZ BR SCT010 OVC034 13/ RMK ST3SC5

CYYC;2009-08-04 03:00;CYYC 040300Z 09005KT 4SM BR SCT008 BKN021 OVC038 13/13 A3004 RMK SC3SC4SC1 SLP186

CYYC;2009-08-04 03:31;CYYC 040331Z CCA 14008KT 2SM -TSRA BR BKN014 OVC029 13/ RMK SC6SC2 LTGIC S-W/ CB EMBD

CYYC;2009-08-04 03:50;CYYC 040350Z 08005KT 3SM -TSRA BKN014 OVC023 13/ RMK SC6SC2 INTS LTGIC E-SE/ CB EMBD

CYYC;2009-08-04 04:00;CYYC 040400Z 07005KT 4SM -TSRA BKN014 OVC030 13/13 A3005 RMK SC6SC2 LTGIC E-SE/ CB EMBD SLP189

CYYC;2009-08-04 05:00;CYYC 040500Z 13008KT 5SM -TSRA FEW007 OVC012 OVC036 13/12 A3006 RMK SF2SC6SC1 CB EMBD SLP192

CYYC;2009-08-04 05:39;CYYC 040539Z 14013G18KT 5SM -SHRA FEW009 BKN028 OVC080 12/ RETS RMK SF1SC6AC1

CYYC;2009-08-04 05:56;CYYC 040556Z 07004KT 12SM FEW009 BKN022 OVC030 12/ RETS RMK SF1SC6SC1

CYYC;2009-08-04 06:00;CYYC 040600Z 07006KT 12SM FEW009 BKN022 OVC028 12/11 A3009 RETS RMK SF1SC6SC2 SF TR SLP202

CYYC;2009-08-04 06:34;CYYC 040634Z 11005KT 5SM -RA OVC017 12/ RMK SC8

CYYC;2009-08-04 07:00;CYYC 040700Z 09008KT 10SM -RA FEW017 OVC026 11/11 A3008 RMK SF1SC7 SLP201

CYYC;2009-08-04 08:00;CYYC 040800Z 11009KT 10SM -RA OVC021 11/11 A3008 RMK SC8 SLP199

CYYC;2009-08-04 08:47;CYYC 040847Z 11007KT 2 1/2SM -RA BR FEW007 OVC016 11/ RMK SC2SC6

CYYC;2009-08-04 09:00;CYYC 040900Z 10006KT 2 1/2SM -RA BR FEW007 OVC018 11/11 A3010 RMK SC2SC6 SLP202

CYYC;2009-08-04 10:00;CYYC 041000Z 07005KT 10SM -RA FEW009 OVC020 11/10 A3009 RMK SF2SC6 SLP200

CYYC;2009-08-04 11:00;CYYC 041100Z 05006KT 8SM -RA FEW009 OVC015 11/10 A3012 RMK SF2SC6 SLP209

CYYC;2009-08-04 11:51;CYYC 041151Z 07011KT 2 1/2SM +RA BKN013 OVC030 10/ RMK SC6SC2

CYYC;2009-08-04 12:00;CYYC 041200Z 04013KT 2 1/2SM +RA FEW004 BKN013 OVC030 11/10 A3011 RMK SF1SC6SC2 SLP210

CYYC;2009-08-04 12:15;CYYC 041215Z 03011KT 4SM -RA FEW009 BKN017 OVC030 10/ RERA RMK SF1SC5SC2

CYYC;2009-08-04 13:00;CYYC 041300Z CCA 02009KT 5SM -RA FEW007 BKN016 OVC030 10/09 A3014 RERA RMK SC1SC5SC2 SLP217

CYYC;2009-08-04 13:30;CYYC 041330Z 01012KT 4SM -RA BKN006 OVC012 10/ RMK SC6SC2

CYYC;2009-08-04 14:00;CYYC 041400Z 36009KT 5SM -RA BKN006 BKN020 OVC048 10/10 A3018 RMK SC6SC1SC2 SLP229

CYYC;2009-08-04 14:52;CYYC 041452Z 36007KT 5SM -RA SCT006 SCT011 OVC016 09/ RMK SC3SC1SC4

CYYC;2009-08-04 15:00;CYYC 041500Z 36008KT 5SM -RA SCT005 BKN010 OVC016 10/10 A3020 RMK SC3SC1SC4 SLP242

CYYC;2009-08-04 15:48;CYYC 041548Z 02007KT 6SM -RA BKN007 OVC017 10/ RMK SC5SC3

CYYC;2009-08-04 16:00;CYYC 041600Z 03008KT 6SM -RA BKN007 BKN011 OVC017 10/10 A3020 RMK SC5SC2SC2 SLP243

CYYC;2009-08-04 17:00;CYYC 041700Z 01010KT 6SM -RA BKN008 BKN014 OVC021 10/10 A3022 RMK SC5SC2SC1 SLP249

CYYC;2009-08-04 18:00;CYYC 041800Z 02008KT 6SM -RA BKN007 OVC014 10/10 A3022 RMK SC5SC3 SLP252

CYYC;2009-08-04 19:00;CYYC 041900Z 02010KT 7SM -RA OVC007 10/10 A3023 RMK SC8 SLP254

CYYC;2009-08-04 19:34;CYYC 041934Z 02009KT 10SM OVC009 10/ RMK SC8

CYYC;2009-08-04 20:00;CYYC 042000Z 03009KT 10SM OVC010 10/09 A3024 RMK SC8 SLP257

CYYC;2009-08-04 20:10;CYYC 042010Z 04008KT 10SM OVC008 10/ RMK SC8

CYYC;2009-08-04 21:00;CYYC 042100Z 04009KT 10SM BKN012 OVC025 10/09 A3025 RMK SC6SC2 SH SW SLP260

CYYC;2009-08-04 22:00;CYYC 042200Z CCA 05007KT 10SM SCT011 OVC027 10/09 A3026 RMK SC3SC5 SH SW SLP264

CYYC;2009-08-04 23:00;CYYC 042300Z CCA 04005KT 12SM SCT012 BKN025 OVC035 11/09 A3025 RMK SC3SC2SC3 CU ASOCTD SLP261

CYYC;2009-08-05 00:00;CYYC 050000Z 06003KT 15SM FEW011 SCT025 OVC031 11/08 A3026 RMK CU2SC2SC4 CU ASOCTD SLP264

CYYC;2009-08-05 01:00;CYYC 050100Z 04004KT 15SM FEW011 SCT015 OVC035 11/08 A3025 RMK CU2SC2SC4 TCU ASOCTD SLP263

CYYC;2009-08-05 02:00;CYYC 050200Z 03002KT 15SM FEW020 OVC044 11/09 A3025 RMK CU1SC7 SLP262

CYYC;2009-08-05 03:00;CYYC 050300Z 00000KT 15SM FEW020 SCT045 OVC100 10/09 A3025 RMK CU1SC3AC4 SH DIST SW SLP263

CYYC;2009-08-05 04:00;CYYC 050400Z 02002KT 15SM FEW020 BKN047 OVC090 11/09 A3026 RMK CU1SC6AC2 CU TR SLP268

CYYC;2009-08-05 05:00;CYYC 050500Z 06003KT 15SM -SHRA FEW020 SCT040 OVC065 10/10 A3026 RMK CU1SC2SC5 SLP267

CYYC;2009-08-05 06:00;CYYC 050600Z 10002KT 10SM -SHRA FEW030 BKN042 OVC061 10/10 A3026 RMK SC1SC4SC3 SLP270

CYYC;2009-08-05 07:00;CYYC 050700Z 14003KT 10SM -SHRA FEW030 BKN052 OVC072 10/10 A3027 RMK SC2SC6AC1 SLP271

CYYC;2009-08-05 08:00;CYYC 050800Z 10002KT 10SM -RA FEW030 OVC058 09/08 A3026 RMK SC2SC6 SLP268

CYYC;2009-08-05 09:00;CYYC 050900Z 13002KT 10SM -RA OVC046 09/09 A3026 RMK SC8 SLP267

CYYC;2009-08-05 10:00;CYYC 051000Z 00000KT 10SM -RA FEW018 OVC040 10/10 A3025 RMK SC2SC6 SLP265

CYYC;2009-08-05 11:00;CYYC 051100Z 07003KT 10SM FEW016 OVC033 10/10 A3023 RMK SC2SC6 SLP260

CYYC;2009-08-05 12:00;CYYC 051200Z 10003KT 3SM -RA BR FEW010 OVC018 10/10 A3024 RMK ST2SC6 SLP259

CYYC;2009-08-05 12:13;CYYC 051213Z 09005KT 1 1/4SM -RA BR FEW008 OVC014 09/ RMK ST2SC6

CYYC;2009-08-05 13:00;CYYC 051300Z 11007KT 1 1/4SM -RA BR FEW006 OVC013 09/09 A3023 RMK ST2SC6 SLP257

CYYC;2009-08-05 13:18;CYYC 051318Z 11007KT 1 1/2SM -DZ BR BKN007 OVC012 09/ RMK ST6SC2

CYYC;2009-08-05 14:00;CYYC 051400Z 11007KT 1 1/2SM -DZ BR OVC007 09/09 A3022 RMK ST8 SLP255

CYYC;2009-08-05 15:00;CYYC 051500Z 12007KT 2 1/2SM -DZ BR BKN007 OVC015 10/10 A3023 RMK ST6SC2 SLP255

CYYC;2009-08-05 15:21;CYYC 051521Z 13008KT 1 1/2SM -RA BR BKN007 OVC017 10/ RMK ST4SC4

CYYC;2009-08-05 15:42;CYYC 051542Z 14007KT 3SM -RADZ BR BKN008 OVC015 10/ RMK ST4SC4

CYYC;2009-08-05 16:00;CYYC 051600Z 14009KT 5SM -RADZ BR SCT008 OVC016 10/10 A3023 RMK ST2SC6 SLP255

CYYC;2009-08-05 17:00;CYYC 051700Z 14010KT 5SM -DZ BR SCT012 OVC020 11/10 A3021 RMK ST3SC5 SLP250

CYYC;2009-08-05 17:21;CYYC 051721Z 14008KT 5SM -DZ BR BKN006 OVC010 10/ RMK ST4SC4

CYYC;2009-08-05 17:27;CYYC 051727Z 16010KT 2 1/2SM -DZ BR BKN007 OVC010 10/ RMK ST6SC2

CYYC;2009-08-05 17:48;CYYC 051748Z 15010KT 3SM -DZ BR SCT007 OVC017 10/ RMK ST3SC5

CYYC;2009-08-05 18:00;CYYC 051800Z 15010KT 5SM -DZ BR SCT008 BKN017 OVC033 11/11 A3020 RMK ST2SC3SC2 SLP245

CYYC;2009-08-05 18:24;CYYC 051824Z 16007KT 5SM -DZ BR BKN010 OVC018 11/ RMK ST6SC2

CYYC;2009-08-05 19:00;CYYC 051900Z 15010KT 2 1/2SM -DZ BR BKN008 OVC015 11/11 A3019 RMK ST6SC2 SLP241

CYYC;2009-08-05 19:23;CYYC 051923Z 14007KT 1 1/2SM -DZ BR OVC007 11/ RMK ST8

CYYC;2009-08-05 19:39;CYYC 051939Z 15011KT 5SM -DZ BR BKN010 OVC025 11/ RMK ST4SC4

CYYC;2009-08-05 20:00;CYYC 052000Z 14008KT 8SM -DZ SCT005 BKN010 OVC017 11/11 A3019 RMK ST2SC3SC2 SLP241

CYYC;2009-08-05 20:10;CYYC 052010Z 13008KT 8SM -DZ BKN005 OVC010 11/ RMK ST6SC2

CYYC;2009-08-05 20:26;CYYC 052026Z 14008KT 2 1/2SM -DZ BKN005 OVC010 11/ RMK ST6SC2 VIS S-W 5

CYYC;2009-08-05 20:37;CYYC 052037Z 14010KT 5SM -DZ SCT008 OVC016 11/ RMK ST3SC5

CYYC;2009-08-05 20:43;CYYC 052043Z 14009KT 5SM -DZ BKN005 OVC012 11/ RMK ST6SC2

CYYC;2009-08-05 21:00;CYYC 052100Z 14008KT 5SM -DZ BKN007 OVC020 11/11 A3017 RMK ST6SC2 SLP237

CYYC;2009-08-05 21:45;CYYC 052145Z 12005KT 15SM -DZ BKN010 OVC020 11/ RMK ST4SC4

CYYC;2009-08-05 21:53;CYYC 052153Z 13006KT 8SM -DZ BKN006 OVC010 12/ RMK ST6SC2

CYYC;2009-08-05 22:00;CYYC 052200Z 12006KT 8SM -DZ BKN006 BKN010 OVC018 12/11 A3016 RMK ST5SC2SC2 SLP234

CYYC;2009-08-05 22:22;CYYC 052222Z 14007KT 15SM -DZ SCT006 BKN010 OVC018 12/ RMK ST2SC2SC3

CYYC;2009-08-05 22:37;CYYC 052237Z 13006KT 20SM SCT006 BKN010 OVC020 12/ RMK ST2SC3SC3

CYYC;2009-08-05 23:00;CYYC 052300Z 13005KT 20SM FEW005 SCT010 OVC020 12/12 A3015 RMK ST2SC2SC5 SLP229

CYYC;2009-08-05 23:09;CYYC 052309Z 14009KT 15SM -DZ SCT007 BKN019 OVC035 12/ RMK ST3SC3SC2

CYYC;2009-08-06 00:00;CYYC 060000Z 15007KT 15SM -DZ SCT009 BKN017 OVC035 12/11 A3012 RMK ST3SC3SC2 SLP218

CYYC;2009-08-06 00:28;CYYC 060028Z 14006KT 8SM -RA FEW009 BKN017 OVC030 12/ RMK CF2SC2SC4

CYYC;2009-08-06 00:42;CYYC 060042Z 16004KT 8SM -TSRA FEW009 BKN017CB OVC030 12/ RMK CF2CB4SC2 LTGIC

CYYC;2009-08-06 01:00;CYYC 060100Z 00000KT 5SM -TSRA FEW009 OVC031CB 12/11 A3012 RMK CF2CB6 LTGIC SLP218

CYYC;2009-08-06 01:33;CYYC 060133Z 16009KT 12SM -SHRA FEW010 SCT050CB OVC085 12/ RETS RMK SF1CB3AC4

CYYC;2009-08-06 02:00;CYYC 060200Z 17008KT 8SM -SHRA FEW010 BKN050CB OVC086 12/12 A3009 RETSRA RMK SF1CB4AC3 SLP207

CYYC;2009-08-06 02:20;CYYC 060220Z 14011KT 7SM -SHRA FEW002 BKN006 OVC030CB 12/ RMK SF2SC4CB2

CYYC;2009-08-06 02:49;CYYC 060249Z 00000KT 12SM BKN006 OVC030 12/ RMK SC7SC1

CYYC;2009-08-06 03:00;CYYC 060300Z 20003KT 12SM BKN005 OVC011 12/12 A3008 RMK ST7SC1 CIG VRB 4-6 SLP203

CYYC;2009-08-06 04:00;CYYC 060400Z 17005KT 12SM OVC006 12/12 A3010 RMK ST8 SLP208

CYYC;2009-08-06 04:33;CYYC 060433Z 19004KT 10SM -RA OVC009 12/ RMK SC8

CYYC;2009-08-06 05:00;CYYC 060500Z 15013G18KT 10SM -RA FEW006 BKN009 OVC012 12/12 A3005 RMK SF2SC5SC1 SLP194

CYYC;2009-08-06 05:49;CYYC 060549Z 31003KT 10SM OVC012 12/ RMK SC8

CYYC;2009-08-06 06:00;CYYC 060600Z 36004KT 10SM OVC010 12/12 A3009 RMK SC8 SLP203

CYYC;2009-08-06 07:00;CYYC 060700Z 16008KT 10SM FEW007 OVC010 12/12 A3006 RMK SC2SC6 SLP193

CYYC;2009-08-06 07:39;CYYC 060739Z 16008KT 10SM -RA OVC005 12/ RMK SC8 CIG VRB 4-6

CYYC;2009-08-06 08:00;CYYC 060800Z 17010G15KT 7SM -RA BKN006 BKN019 OVC045 12/12 A3002 RMK SC6SC1SC1 SLP183

CYYC;2009-08-06 09:00;CYYC 060900Z CCA 18003KT 7SM -RA BKN006 OVC019 12/12 A3001 RMK SC7SC1 SLP177

CYYC;2009-08-06 10:00;CYYC 061000Z 15004KT 10SM -RA FEW004 OVC006 12/12 A3000 RMK SF2SC6 SLP172

CYYC;2009-08-06 11:00;CYYC 061100Z 22002KT 10SM -RA OVC008 12/12 A2999 RMK SC8 SLP169

CYYC;2009-08-06 12:00;CYYC 061200Z 13005KT 10SM -RA BKN009 OVC018 12/12 A2997 RMK SC6SC2 PCPN VRY LGT SLP161

CYYC;2009-08-06 12:13;CYYC 061213Z 09003KT 3SM -DZ BR BKN009 OVC020 12/ RMK ST7SC1

CYYC;2009-08-06 13:00;CYYC 061300Z 08004KT 3SM -DZ BR OVC009 12/12 A2998 RMK ST8 SLP164

CYYC;2009-08-06 14:00;CYYC 061400Z 11004KT 2 1/2SM -DZ OVC009 12/12 A2998 RMK ST8 SLP163

CYYC;2009-08-06 14:49;CYYC 061449Z 07002KT 2 1/2SM BR OVC006 12/ RMK ST8

CYYC;2009-08-06 15:00;CYYC 061500Z 07002KT 2 1/2SM BR OVC006 12/12 A2997 RMK ST8 SLP162

CYYC;2009-08-06 15:25;CYYC 061525Z CCA 04003KT 2 1/2SM -DZ BR BKN006 OVC010 12/ RMK ST4SC4

CYYC;2009-08-06 16:00;CYYC 061600Z 04004KT 2 1/2SM -DZ BR SCT004 OVC010 12/12 A2997 RMK ST3SC5 SLP162

CYYC;2009-08-06 16:14;CYYC 061614Z 01006KT 1 1/2SM -DZ BR BKN005 OVC010 12/ RMK ST6SC2

CYYC;2009-08-06 16:44;CYYC 061644Z 36009KT 1 1/4SM -DZ BR BKN002 OVC005 12/ RMK ST3ST5

CYYC;2009-08-06 17:00;CYYC 061700Z CCA 36007KT 1 1/2SM -DZ BR SCT003 BKN006 OVC010 12/12 A2998 RMK ST2ST3SC2 SLP163

CYYC;2009-08-06 17:45;CYYC 061745Z 35008KT 1 1/2SM -DZ BR BKN004 OVC014 12/ RMK FG2ST2SC4

CYYC;2009-08-06 18:00;CYYC 061800Z 35008KT 1 1/2SM -DZ BR BKN005 OVC013 12/12 A2998 RMK FG2ST2SC4 SLP164

CYYC;2009-08-06 19:00;CYYC 061900Z 35009KT 1 1/2SM -DZ BR BKN008 OVC015 13/13 A2997 RMK FG2ST2SC4 SLP161

CYYC;2009-08-06 19:36;CYYC 061936Z 36011KT 3SM -DZ BR BKN008 OVC018 13/ RMK FG2ST2SC4

CYYC;2009-08-06 20:00;CYYC 062000Z 35010KT 8SM -DZ BKN008 OVC018 13/13 A2997 RMK ST4SC4 SLP161

CYYC;2009-08-06 20:14;CYYC 062014Z 36011KT 15SM -DZ SCT005 OVC012 13/ RMK ST3SC5

CYYC;2009-08-06 20:27;CYYC 062027Z 35009KT 15SM FEW007 SCT012 OVC018 13/ RMK ST2SC2SC5

CYYC;2009-08-06 21:00;CYYC 062100Z 36006KT 20SM FEW015 SCT020 OVC030 14/12 A2997 RMK ST2SC2SC5 SLP158

CYYC;2009-08-06 22:00;CYYC 062200Z 01005KT 20SM FEW015 OVC030 15/12 A2997 RMK SC2SC6 SLP158

CYYC;2009-08-06 23:00;CYYC 062300Z 03008KT 20SM FEW020 OVC040 15/12 A2997 RMK CF2SC6 CB ASOCTD NE SLP157

CYYC;2009-08-07 00:00;CYYC 070000Z 08004KT 15SM SCT020 OVC058 15/12 A2997 RMK CF3SC4 SLP155

CYYC;2009-08-07 01:00;CYYC 070100Z 05005KT 15SM SCT020 16/12 A2996 RMK SC4 SLP154

CYYC;2009-08-07 02:00;CYYC 070200Z 07003KT 15SM FEW020 FEW060CB SCT120 BKN200 15/12 A2996 RMK CU1CB1AC2CI2 SLP152

CYYC;2009-08-07 03:00;CYYC 070300Z CCA 03004KT 15SM FEW030 FEW050CB FEW120 BKN220 14/12 A2997 RMK CU1CB1AC2CI2 CU+CB TR SLP158

CYYC;2009-08-07 04:00;CYYC 070400Z 09002KT 15SM BKN029 OVC120 12/11 A2998 RMK SC5AC1 SLP160

CYYC;2009-08-07 05:00;CYYC 070500Z 00000KT 15SM BKN100 12/11 A2998 RMK AC3 SLP160

CYYC;2009-08-07 06:00;CYYC 070600Z 35003KT 15SM BKN059 10/10 A2998 RMK SC3 SLP167

CYYC;2009-08-07 07:00;CYYC 070700Z 00000KT 15SM FEW028 SCT058 10/10 A2998 RMK SC2SC2 SLP167

CYYC;2009-08-07 08:00;CYYC 070800Z 34005KT 15SM SCT050 09/09 A2997 RMK SC3 SLP163

CYYC;2009-08-07 09:00;CYYC 070900Z 01005KT 15SM FEW050 09/09 A2997 RMK SC2 SLP161

CYYC;2009-08-07 10:00;CYYC 071000Z 34005KT 15SM FEW050 09/08 A2996 RMK SC1 SLP158

CYYC;2009-08-07 11:00;CYYC 071100Z 36003KT 15SM SKC 07/07 A2994 RMK SLP154

CYYC;2009-08-07 12:00;CYYC 071200Z 32004KT 15SM FEW110 07/07 A2995 RMK AC1 AC TR SLP157

CYYC;2009-08-07 13:00;CYYC 071300Z 34002KT 10SM BCFG SKC 08/07 A2996 RMK FG BNK S-W SLP159

CYYC;2009-08-07 14:00;CYYC 071400Z 35003KT 10SM SKC 10/09 A2998 RMK FG BNK S-W SLP164

CYYC;2009-08-07 15:00;CYYC 071500Z 01004KT 10SM SKC 12/10 A2999 RMK FG BNK S-W SLP165

CYYC;2009-08-07 16:00;CYYC 071600Z 02004KT 15SM FEW014 14/11 A2999 RMK CU2 FG BNK S-W SLP167

CYYC;2009-08-07 17:00;CYYC 071700Z 04005KT 15SM FEW015 14/10 A2999 RMK CU2 SLP167

CYYC;2009-08-07 18:00;CYYC 071800Z 34004KT 15SM SCT030 16/09 A3000 RMK CU3 SLP168

CYYC;2009-08-07 19:00;CYYC 071900Z 02007KT 20SM FEW030 FEW190 17/08 A3000 RMK CU2AC1 HZ SLP169

CYYC;2009-08-07 20:00;CYYC 072000Z 04006KT 20SM FEW035 FEW210 18/09 A3000 RMK CU2CI1 SLP167

CYYC;2009-08-07 21:00;CYYC 072100Z 36007KT 20SM FEW047 19/10 A3000 RMK CU2 SLP165

CYYC;2009-08-07 22:00;CYYC 072200Z 04006KT 20SM SCT050 19/10 A3000 RMK CU3 SLP166

CYYC;2009-08-07 23:00;CYYC 072300Z 05008KT 20SM FEW050 FEW210 19/09 A3000 RMK CU2CI1 SLP167

CYYC;2009-08-08 00:00;CYYC 080000Z 07004KT 20SM FEW050 FEW220 19/09 A3000 RMK CU1CI1 CI TR SLP168

CYYC;2009-08-08 01:00;CYYC 080100Z 09007KT 20SM FEW050 FEW220 18/10 A3000 RMK CU1CI1 CI TR SLP169

CYYC;2009-08-08 02:00;CYYC 080200Z 12007KT 15SM FEW050 17/11 A3001 RMK CU1 CU TR SLP170

CYYC;2009-08-08 03:00;CYYC 080300Z CCA 12005KT 15SM FEW050 16/11 A3001 RMK CU1 CU TR SLP170

CYYC;2009-08-08 04:00;CYYC 080400Z 13005KT 15SM SKC 15/10 A3002 RMK SLP172

CYYC;2009-08-08 05:00;CYYC 080500Z 13005KT 15SM SKC 13/10 A3002 RMK SLP173

CYYC;2009-08-08 06:00;CYYC 080600Z 15006KT 15SM SKC 12/11 A3003 RMK SLP174

CYYC;2009-08-08 07:00;CYYC 080700Z 16007KT 15SM SKC 12/10 A3002 RMK SLP172

CYYC;2009-08-08 08:00;CYYC 080800Z 18004KT 15SM SKC 11/10 A3001 RMK SLP170

CYYC;2009-08-08 09:00;CYYC 080900Z 17003KT 15SM SKC 10/09 A2999 RMK SLP162

CYYC;2009-08-08 10:00;CYYC 081000Z 18005KT 15SM SKC 10/10 A2998 RMK SLP159

CYYC;2009-08-08 11:00;CYYC 081100Z 17004KT 12SM FEW180 08/08 A2998 RMK AC1 SLP159

CYYC;2009-08-08 12:00;CYYC 081200Z CCA 21002KT 8SM BCFG FEW210 09/09 A2998 RMK CI1 FG BNK ALQDS SLP160

CYYC;2009-08-08 13:00;CYYC 081300Z 14004KT 10SM BCFG FEW220 09/09 A2998 RMK CI1 FG BNK ALQDS SLP159

CYYC;2009-08-08 14:00;CYYC 081400Z 03003KT 15SM FEW220 10/09 A2999 RMK CI1 FG BNK SW SLP162

CYYC;2009-08-08 15:00;CYYC 081500Z 03002KT 20SM FEW240 12/09 A2998 RMK CI0 SLP160

CYYC;2009-08-08 16:00;CYYC 081600Z 19004KT 25SM FEW250 14/10 A2998 RMK CI1 SLP161

CYYC;2009-08-08 17:00;CYYC 081700Z 18011G16KT 25SM FEW025 FEW250 17/10 A2998 RMK CU1CI1 SLP160

CYYC;2009-08-08 18:00;CYYC 081800Z 17009KT 25SM FEW035 FEW250 18/10 A2997 RMK CU1CI1 SLP153

CYYC;2009-08-08 19:00;CYYC 081900Z 18009KT 30SM FEW040 FEW100 21/11 A2996 RMK CU1AC1 SLP150

CYYC;2009-08-08 20:00;CYYC 082000Z 18008KT 30SM FEW045 FEW100 22/10 A2996 RMK CU1AC1 SLP149

CYYC;2009-08-08 21:00;CYYC 082100Z 13009KT 30SM FEW050 FEW100 22/09 A2995 RMK CU1AC1 TR AC SLP144

CYYC;2009-08-08 22:00;CYYC 082200Z 15005KT 30SM FEW050 FEW100 23/10 A2994 RMK CU1AC1 TR CU SLP140

CYYC;2009-08-08 23:00;CYYC 082300Z 14009KT 30SM FEW050 FEW110 23/10 A2993 RMK CU1AC1 SLP138

CYYC;2009-08-09 00:00;CYYC 090000Z 14006KT 30SM FEW055 FEW110 23/09 A2992 RMK CU1AC1 TR CU SLP135

CYYC;2009-08-09 01:00;CYYC 090100Z 15008KT 30SM FEW100 FEW240 22/09 A2992 RMK AC1CI1 TR CI SLP135

CYYC;2009-08-09 02:00;CYYC 090200Z 15007KT 20SM FEW050CB FEW100 FEW240 21/10 A2993 RMK CB1AC1CI1 CB NW / CB + CI TR SLP137

CYYC;2009-08-09 03:00;CYYC 090300Z 16007KT 20SM FEW050CB FEW100 FEW240 19/10 A2993 RMK CB1AC1CI1 CB NW / CB + CI TR SLP140

CYYC;2009-08-09 04:00;CYYC 090400Z 15005KT 15SM FEW110 16/10 A2994 RMK AC2 SLP143

CYYC;2009-08-09 05:00;CYYC 090500Z 13006KT 15SM FEW110 16/11 A2995 RMK AC2 SLP146

CYYC;2009-08-09 06:00;CYYC 090600Z 16005KT 15SM SCT110 15/11 A2995 RMK AC3 SLP141

CYYC;2009-08-09 07:00;CYYC 090700Z 18002KT 15SM BKN100 15/11 A2995 RMK AC6 SLP142

CYYC;2009-08-09 08:00;CYYC 090800Z 36005KT 15SM SCT100 BKN140 14/11 A2995 RMK AC3AC2 SLP141

CYYC;2009-08-09 09:00;CYYC 090900Z 00000KT 15SM BKN110 BKN140 13/11 A2995 RMK AC5AC1 SLP137

CYYC;2009-08-09 10:00;CYYC 091000Z 20005KT 15SM BKN110 BKN140 14/11 A2995 RMK AC5AC1 SLP138

CYYC;2009-08-09 11:00;CYYC 091100Z 35004KT 15SM SCT110 BKN140 13/11 A2995 RMK AC3AC1 SLP138

CYYC;2009-08-09 12:00;CYYC 091200Z 32006KT 10SM FEW110 FEW140 14/10 A2995 RMK AC1AC0 SLP137

CYYC;2009-08-09 13:00;CYYC 091300Z 36007KT 15SM FEW110 SCT140 14/09 A2997 RMK AC1AC2 SLP142

CYYC;2009-08-09 14:00;CYYC 091400Z 32006KT 15SM FEW110 FEW230 14/10 A2999 RMK AC1CI1 BOTH CLDS TR SLP148

CYYC;2009-08-09 15:00;CYYC 091500Z 33008KT 15SM FEW130 16/11 A3001 RMK AC1 AC TR SLP159

CYYC;2009-08-09 16:00;CYYC 091600Z 35011KT 15SM SKC 18/11 A3001 RMK SLP160

CYYC;2009-08-09 17:00;CYYC 091700Z 32007KT 15SM SKC 19/12 A3001 RMK SLP159

CYYC;2009-08-09 18:00;CYYC 091800Z 34005KT 15SM SCT090 20/12 A3001 RMK AC2 SLP158

CYYC;2009-08-09 19:00;CYYC 091900Z 36004KT 15SM FEW230 22/11 A3000 RMK CI1 CI TR SLP155

CYYC;2009-08-09 20:00;CYYC 092000Z 02003KT 15SM FEW160 23/12 A2998 RMK AC2 SLP150

CYYC;2009-08-09 21:00;CYYC 092100Z 33003KT 10SM FEW050 FEW140 23/11 A2997 RMK CU1AC2 HZ SLP145

CYYC;2009-08-09 22:00;CYYC 092200Z 20004KT 10SM FEW050TCU FEW140 SCT240 24/11 A2997 RMK TCU1AC1CI2 HZ SLP143

CYYC;2009-08-09 23:00;CYYC 092300Z 19006KT 10SM FEW055 FEW120 BKN240 23/12 A2995 RMK CU1AC2CI2 HZ SLP139

CYYC;2009-08-10 00:00;CYYC 100000Z 03012KT 8SM FEW060CB SCT095 BKN240 21/11 A2996 RMK CB2AC2CI2 HZ SLP143

CYYC;2009-08-10 01:00;CYYC 100100Z 08011KT 10SM FEW060CB SCT110 BKN240 19/11 A2996 RMK CB2AC2CI2 HZ SLP143

CYYC;2009-08-10 02:00;CYYC 100200Z 11005KT 20SM FEW060CB FEW110 FEW250 19/13 A2996 RMK CB1AC1CI0 CB SE+SW / AC TR SLP144

CYYC;2009-08-10 03:00;CYYC 100300Z 18008KT 20SM SCT140 19/10 A2996 RMK AC3 CB EMBD / VIRGA W SLP143

CYYC;2009-08-10 04:00;CYYC 100400Z 20008KT 15SM SCT140 SCT250 18/11 A2994 RMK AC3CI0 SLP137

CYYC;2009-08-10 05:00;CYYC 100500Z 23007KT 15SM FEW140 16/11 A2994 RMK AC1 SLP138

CYYC;2009-08-10 06:00;CYYC 100600Z 22008KT 15SM FEW140 FEW250 16/09 A2993 RMK AC1CI1 SLP131

CYYC;2009-08-10 07:00;CYYC 100700Z 23006KT 15SM FEW140 15/09 A2992 RMK AC1 SLP129

CYYC;2009-08-10 08:00;CYYC 100800Z 22009KT 15SM FEW140 14/09 A2992 RMK AC1 SLP128

CYYC;2009-08-10 09:00;CYYC 100900Z 21009KT 15SM FEW140 14/09 A2991 RMK AC1 SLP124

CYYC;2009-08-10 10:00;CYYC 101000Z 20008KT 15SM FEW140 13/08 A2990 RMK AC1 SLP121

CYYC;2009-08-10 11:00;CYYC 101100Z 21007KT 15SM FEW140 FEW250 16/08 A2990 RMK AC1CI1 SLP119

CYYC;2009-08-10 12:00;CYYC 101200Z 20007KT 15SM FEW100 FEW250 13/08 A2989 RMK AC1CI1 SLP121

CYYC;2009-08-10 13:00;CYYC 101300Z 27006KT 20SM FEW030 FEW100 SCT250 13/08 A2990 RMK CU1AC1CI1 CU+AC TR SLP124

CYYC;2009-08-10 14:00;CYYC 101400Z 22005KT 30SM FEW020 FEW140 14/09 A2990 RMK CU1AC2 SLP124

CYYC;2009-08-10 15:00;CYYC 101500Z 21008KT 30SM FEW028 FEW140 SCT250 17/10 A2989 RMK CU1AC2CI1 SLP117

CYYC;2009-08-10 16:00;CYYC 101600Z 21009KT 30SM FEW036 FEW140 BKN270 20/10 A2989 RMK CU1AC2CI1 SLP117

CYYC;2009-08-10 17:00;CYYC 101700Z 24011KT 30SM FEW052 SCT140 BKN220 22/08 A2987 RMK CU1AC3CI2 SLP112

CYYC;2009-08-10 18:00;CYYC 101800Z 27013KT 30SM FEW062 SCT160 BKN240 22/07 A2987 RMK CU1AC3CI3 SLP106

CYYC;2009-08-10 19:00;CYYC 101900Z 22010KT 30SM FEW062 SCT140 BKN220 22/08 A2986 RMK CU1AC4CI3 SLP104

CYYC;2009-08-10 20:00;CYYC 102000Z 22008KT 30SM FEW062 SCT140 BKN210 22/08 A2986 RMK CU1AC4CS3 SLP105

CYYC;2009-08-10 21:00;CYYC 102100Z 20009KT 30SM FEW062 FEW160 BKN240 22/07 A2986 RMK CU1AC2CI4 SLP107

CYYC;2009-08-10 22:00;CYYC 102200Z 18011KT 30SM FEW062 SCT150 BKN240 23/08 A2985 RMK CU1AC3CI2 SLP105

CYYC;2009-08-10 23:00;CYYC 102300Z 15010KT 30SM FEW064 FEW170 BKN230 25/09 A2985 RMK CU1AC2CI2 SLP103

CYYC;2009-08-11 00:00;CYYC 110000Z 17012KT 30SM FEW064 SCT170 BKN230 24/09 A2984 RMK CU1AC2CI2 SLP099

CYYC;2009-08-11 01:00;CYYC 110100Z 16013KT 30SM FEW064 FEW110 SCT150 BKN230 24/10 A2983 RMK CU1AC1AC2CI1 SLP095

CYYC;2009-08-11 02:00;CYYC 110200Z 16009KT 30SM FEW050 BKN100 BKN230 23/10 A2983 RMK SC1AC4CI1 SLP096

CYYC;2009-08-11 03:00;CYYC 110300Z 16009KT 30SM FEW050 BKN110 BKN230 22/11 A2984 RMK SC1AC5CI1 SLP097

CYYC;2009-08-11 04:00;CYYC 110400Z 32004KT 15SM FEW050 BKN098 OVC220 21/11 A2985 RMK SC1AC6CI1 VIRGA W SLP101

CYYC;2009-08-11 05:00;CYYC 110500Z 34007KT 15SM BKN100 OVC220 20/12 A2986 RMK AC6CI1 SLP104

CYYC;2009-08-11 06:00;CYYC 110600Z 34006KT 15SM BKN100 18/10 A2987 RMK AC4 SLP104

CYYC;2009-08-11 07:00;CYYC 110700Z 00000KT 15SM SCT110 BKN240 17/10 A2988 RMK AC3CI1 SLP106

CYYC;2009-08-11 08:00;CYYC 110800Z 22003KT 15SM FEW110 16/10 A2987 RMK AC2 SLP104

CYYC;2009-08-11 09:00;CYYC 110900Z 18002KT 15SM FEW110 15/10 A2986 RMK AC2 SLP106

CYYC;2009-08-11 10:00;CYYC 111000Z 23002KT 15SM BKN100 15/11 A2986 RMK AC5 SLP106

CYYC;2009-08-11 11:00;CYYC 111100Z 20007KT 15SM SCT100 14/11 A2985 RMK AC3 SLP102

CYYC;2009-08-11 12:00;CYYC 111200Z 00000KT 20SM BKN110 13/10 A2985 RMK AC6 SLP102

CYYC;2009-08-11 13:00;CYYC 111300Z 00000KT 30SM FEW050 BKN120 BKN230 14/10 A2985 RMK SC1AC5CI1 SLP103

CYYC;2009-08-11 14:00;CYYC 111400Z 36006KT 40SM BKN065 BKN140 14/11 A2988 RMK SC6AC1 SLP110

CYYC;2009-08-11 15:00;CYYC 111500Z 35011KT 40SM FEW060 BKN082 BKN140 15/12 A2990 RMK SC1AC7AC1 SH W SLP119

CYYC;2009-08-11 16:00;CYYC 111600Z 35014G19KT 40SM FEW060 BKN110 BKN140 16/10 A2991 RMK SC2AC3AC1 SH NW SLP121

CYYC;2009-08-11 17:00;CYYC 111700Z 35013KT 30SM FEW060 BKN100 BKN160 17/10 A2990 RMK SC1AC6AC1 SLP119

CYYC;2009-08-11 18:00;CYYC 111800Z 35010KT 40SM FEW032 BKN094 BKN140 17/10 A2991 RMK CU1AC6AC1 SLP126

CYYC;2009-08-11 19:00;CYYC 111900Z 03012KT 40SM FEW035 BKN100 BKN170 18/10 A2990 RMK CU1AC5AC1 SLP122

CYYC;2009-08-11 20:00;CYYC 112000Z 02010KT 40SM FEW035 BKN100 BKN170 18/10 A2991 RMK CU1AC6AC1 SH W-E / TCU ASOCTD SLP125

CYYC;2009-08-11 21:00;CYYC 112100Z 33012KT 30SM VCSH FEW035TCU BKN080 BKN140 17/11 A2994 RMK TCU1AC6AC1 SH SW-NE SLP140

CYYC;2009-08-11 21:31;CYYC 112131Z 32012KT 30SM -SHRA FEW035TCU BKN080 BKN140 17/ RMK TCU1AC6AC1

CYYC;2009-08-11 22:00;CYYC 112200Z 23005KT 30SM -SHRA FEW035TCU SCT080 BKN120 17/12 A2994 RMK TCU2AC2AC1 SLP141

CYYC;2009-08-11 22:16;CYYC 112216Z 22004KT 30SM FEW035CB FEW080 FEW120 17/ RMK CB1AC1AC1 SH N-SE

CYYC;2009-08-11 23:00;CYYC 112300Z 23007KT 30SM FEW035TCU BKN083 BKN140 18/11 A2993 RMK TCU1AC6AC1 SH NE+SW SLP137

CYYC;2009-08-12 00:00;CYYC 120000Z 23003KT 40SM FEW035CB BKN077 BKN100 18/12 A2993 RMK CB1AC5AC2 SH S / CB E SLP136

CYYC;2009-08-12 01:00;CYYC 120100Z 21003KT 40SM FEW035TCU FEW080 SCT160 BKN250 19/11 A2992 RMK TCU1AC2AC1CI0 SH SE SLP134

CYYC;2009-08-12 02:00;CYYC 120200Z 19005KT 30SM FEW040 FEW060CB SCT130 BKN240 19/12 A2992 RMK CU1CB1AC2CI1 CU+CB TR SLP133

CYYC;2009-08-12 03:00;CYYC 120300Z 28005KT 30SM FEW050 FEW060CB FEW130 SCT250 17/09 A2993 RMK CU1CB1AC1CI1 CU+CB TR SLP136

CYYC;2009-08-12 04:00;CYYC 120400Z 26009KT 15SM FEW050 FEW130 SCT250 16/06 A2995 RMK SC1AC1CI2 SLP143

CYYC;2009-08-12 05:00;CYYC 120500Z 27017KT 15SM FEW130 FEW250 17/03 A2995 RMK AC1CI1 BOTH AC+CI TR SLP141

CYYC;2009-08-12 06:00;CYYC 120600Z 33012KT 15SM FEW120 FEW250 13/08 A2997 RMK AC1CI1 CLDS TR SLP152

CYYC;2009-08-12 07:00;CYYC 120700Z 34009KT 15SM FEW120 FEW240 11/09 A2998 RMK AC1CI1 AC TR SLP155

CYYC;2009-08-12 08:00;CYYC 120800Z 34005KT 15SM FEW120 FEW230 11/09 A2999 RMK AC1CI1 AC TR SLP157

CYYC;2009-08-12 09:00;CYYC 120900Z CCA 32006KT 15SM FEW120 FEW230 09/08 A2998 RMK AC1CI1 SLP163

CYYC;2009-08-12 10:00;CYYC 121000Z 36005KT 15SM FEW120 SCT230 08/08 A2998 RMK AC1CI1 SLP161

CYYC;2009-08-12 11:00;CYYC 121100Z 00000KT 15SM FEW140 SCT230 08/07 A2999 RMK AC1CI2 SLP164

CYYC;2009-08-12 12:00;CYYC 121200Z 00000KT 20SM BKN100 BKN240 09/08 A2998 RMK AC6CI1 SLP162

CYYC;2009-08-12 13:00;CYYC 121300Z 29004KT 40SM BKN100 OVC240 09/08 A2999 RMK AC6CI1 SLP164

CYYC;2009-08-12 14:00;CYYC 121400Z 00000KT 40SM BKN100 OVC240 10/08 A2999 RMK AC6CI1 VIRGA E SLP164

CYYC;2009-08-12 15:00;CYYC 121500Z 26002KT 40SM SCT100 BKN240 13/08 A2999 RMK AC4CI0 SLP159

CYYC;2009-08-12 16:00;CYYC 121600Z 18004KT 40SM FEW100 FEW240 15/07 A2998 RMK AC2CI0 SLP158

CYYC;2009-08-12 17:00;CYYC 121700Z 18004KT 40SM FEW040 SCT100 BKN220 18/07 A2998 RMK CU1AC4CI1 SLP156

CYYC;2009-08-12 18:00;CYYC 121800Z 18005KT 40SM FEW054 FEW100 BKN220 19/06 A2997 RMK SC1AC2CI1 SLP148

CYYC;2009-08-12 19:00;CYYC 121900Z 14006KT 30SM FEW050 BKN090 BKN220 19/06 A2996 RMK SC2AC3CI0 SLP146

CYYC;2009-08-12 20:00;CYYC 122000Z 21006KT 40SM FEW050 BKN100 BKN220 19/07 A2995 RMK SC2AC3CI1 SLP143

CYYC;2009-08-12 21:00;CYYC 122100Z 00000KT 40SM FEW060 SCT090 BKN220 21/07 A2994 RMK CF2AC2CI1 SLP142

CYYC;2009-08-12 22:00;CYYC 122200Z 18009KT 40SM FEW070 BKN090 BKN220 20/07 A2993 RMK CF2AC3CI1 SLP140

CYYC;2009-08-12 23:00;CYYC 122300Z 18008KT 40SM FEW050 SCT070CB SCT220 21/08 A2992 RMK CF1CB3CI0 SLP137

CYYC;2009-08-13 00:00;CYYC 130000Z 19011KT 40SM FEW050 FEW070CB FEW220 21/08 A2990 RMK CF1CB1CI0 CB TR / CB E SLP130

CYYC;2009-08-13 01:00;CYYC 130100Z CCA 19005KT 40SM FEW050 FEW180 BKN220 20/09 A2990 RMK SC1AS1CI1 VIRGA N SLP129

CYYC;2009-08-13 02:00;CYYC 130200Z 19005KT 30SM FEW050 FEW120 BKN250 20/07 A2991 RMK CU1AC2CI2 SLP131

CYYC;2009-08-13 03:00;CYYC 130300Z 35010G17KT 30SM FEW050 FEW100 BKN250 13/08 A2996 RMK CU1AC2CI2 SLP155

CYYC;2009-08-13 04:00;CYYC 130400Z 34012KT 15SM FEW100 BKN230 11/08 A2999 RMK AC2CI2 SLP164

CYYC;2009-08-13 05:00;CYYC 130500Z 34012KT 15SM FEW100 FEW240 11/07 A3002 RMK AC1CI1 SLP172

CYYC;2009-08-13 06:00;CYYC 130600Z 36011KT 15SM SCT060 12/08 A3003 RMK SC2 SLP170

CYYC;2009-08-13 07:00;CYYC 130700Z 36010KT 15SM FEW062 11/08 A3004 RMK SC1 SLP174

CYYC;2009-08-13 08:00;CYYC 130800Z 34005KT 15SM FEW110 SCT240 10/07 A3005 RMK AC2CI1 SLP176

CYYC;2009-08-13 09:00;CYYC 130900Z 31009KT 15SM SCT110 SCT240 10/06 A3005 RMK AC2CI1 SLP178

CYYC;2009-08-13 10:00;CYYC 131000Z 31009KT 15SM FEW110 FEW240 09/06 A3005 RMK AC2CI1 CI TR SLP178

CYYC;2009-08-13 11:00;CYYC 131100Z 32009KT 15SM SCT076 BKN110 09/06 A3005 RMK AC3AC1 SLP179

CYYC;2009-08-13 12:00;CYYC 131200Z 31006KT 15SM SCT065 SCT080 BKN240 10/06 A3005 RMK SC3AC1CI1 SLP180

CYYC;2009-08-13 13:00;CYYC 131300Z 32008KT 15SM BKN063 BKN100 10/06 A3006 RMK SC5AC2 SLP181

CYYC;2009-08-13 14:00;CYYC 131400Z 35008KT 40SM BKN060 10/07 A3007 RMK SC6 SH DIST S-W SLP186

CYYC;2009-08-13 14:46;CYYC 131446Z 36010KT 40SM -RA FEW030 OVC060 10/ RMK SC2SC6

CYYC;2009-08-13 15:00;CYYC 131500Z 35012KT 30SM -RA FEW030 OVC060 10/07 A3009 RMK SC2SC5 SLP203

CYYC;2009-08-13 15:15;CYYC 131515Z 35009KT 30SM FEW015 OVC060 10/ RMK SC2SC5

CYYC;2009-08-13 16:00;CYYC 131600Z 02009KT 20SM FEW015 OVC060 11/07 A3009 RMK SC2SC6 SLP203

CYYC;2009-08-13 17:00;CYYC 131700Z 02007KT 20SM FEW018 SCT060 BKN090 11/08 A3009 RMK CF1SC3AC2 SLP205

CYYC;2009-08-13 18:00;CYYC 131800Z 02009KT 20SM FEW023 SCT050 BKN077 12/07 A3009 RMK CU2SC1AC2 SLP203

CYYC;2009-08-13 19:00;CYYC 131900Z 06005KT 20SM BKN030 OVC050 12/07 A3009 RMK SC6SC1 SLP204

CYYC;2009-08-13 20:00;CYYC 132000Z 09008KT 20SM SCT040 BKN090 BKN150 13/07 A3008 RMK SC4AC2AC1 SLP199

CYYC;2009-08-13 21:00;CYYC 132100Z 06006KT 20SM BKN043 OVC060 13/08 A3007 RMK SC6SC2 SLP199

CYYC;2009-08-13 22:00;CYYC 132200Z 09008KT 15SM VCSH BKN031 OVC050 13/07 A3007 RMK SC7SC1 SLP199

CYYC;2009-08-13 22:16;CYYC 132216Z 09008KT 15SM -RA BKN031 OVC045 12/ RMK SC6SC2

CYYC;2009-08-13 23:00;CYYC 132300Z 08007KT 20SM -RA SCT030 OVC050 12/08 A3008 RMK SC3SC5 SH ALQDS SLP201

CYYC;2009-08-14 00:00;CYYC 140000Z 09007KT 15SM -RA FEW020 BKN048 OVC068 12/09 A3007 RMK CF2SC5AC2 HVY SH W SLP200

CYYC;2009-08-14 01:00;CYYC 140100Z 07006KT 10SM -RA FEW020 OVC053 12/10 A3007 RMK CF1SC7 SLP198

CYYC;2009-08-14 02:00;CYYC 140200Z 06005KT 10SM -RA FEW020 OVC054 11/10 A3007 RMK CF1SC7 SLP199

CYYC;2009-08-14 03:00;CYYC 140300Z 06003KT 4SM -RA OVC023 11/10 A3007 RMK SC8 SLP200

CYYC;2009-08-14 04:00;CYYC 140400Z CCA 04007KT 3SM -RA OVC026 11/10 A3007 RMK SC8 SLP201

CYYC;2009-08-14 04:23;CYYC 140423Z 02008KT 4SM -RA BKN006 OVC018 10/ RMK SC5SC3

CYYC;2009-08-14 04:49;CYYC 140449Z 02009KT 3SM -RA BKN005 OVC018 10/ RMK SC7SC1 CIG VRB 4-6

CYYC;2009-08-14 05:00;CYYC 140500Z 04008KT 3SM -RA BKN006 OVC012 10/10 A3006 RMK SC6SC2 CIG VRB 3-9 SLP198

CYYC;2009-08-14 06:00;CYYC 140600Z 07006KT 3SM -RA BKN005 OVC013 10/10 A3006 RMK SC6SC2 CIG VRB 4-6 SLP194

CYYC;2009-08-14 07:00;CYYC 140700Z 08009KT 4SM -RA BKN009 BKN011 OVC020 10/10 A3005 RMK SC5SC2SC1 SLP192

CYYC;2009-08-14 07:19;CYYC 140719Z 09009KT 5SM -RA BKN010 OVC020 10/ RMK SC6SC2 CIG VRB 9-11

CYYC;2009-08-14 08:00;CYYC 140800Z 07012KT 6SM -RA BKN008 OVC020 10/10 A3004 RMK SC7SC1 SLP189

CYYC;2009-08-14 09:00;CYYC 140900Z 07005KT 6SM -RA FEW009 OVC016 09/09 A3002 RMK SC2SC6 SLP182

CYYC;2009-08-14 10:00;CYYC 141000Z 07009KT 7SM -RA FEW004 OVC014 09/09 A3001 RMK SC2SC6 CIG VRB 13-15 SLP178

CYYC;2009-08-14 11:00;CYYC 141100Z 07006KT 4SM -RA FEW005 BKN011 OVC016 09/09 A3001 RMK SC2SC5SC1 SLP177

CYYC;2009-08-14 12:00;CYYC 141200Z 07004KT 4SM -RA BR SCT005 OVC013 09/09 A3000 RMK ST4SC4 SLP176

CYYC;2009-08-14 12:09;CYYC 141209Z 08005KT 4SM -DZ BR BKN006 OVC013 10/ RMK ST6SC2 CIG VRB 5-7

CYYC;2009-08-14 13:00;CYYC 141300Z CCA 05003KT 3SM -DZ BR OVC005 10/10 A2999 RMK ST8 CIG VRB 4-6 SLP173

CYYC;2009-08-14 14:00;CYYC 141400Z 05003KT 5SM -DZ BR OVC004 09/09 A3000 RMK ST8 SLP176

CYYC;2009-08-14 14:38;CYYC 141438Z 34007KT 2 1/2SM -DZ BR OVC003 09/ RMK ST8

CYYC;2009-08-14 15:00;CYYC 141500Z 34007KT 2 1/2SM -DZ BR OVC003 09/09 A3001 RMK ST8 SLP180

CYYC;2009-08-14 15:14;CYYC 141514Z 34007KT 1 1/4SM -DZ BR OVC004 09/ RMK ST8

CYYC;2009-08-14 16:00;CYYC 141600Z 32009KT 2 1/2SM -DZ BR BKN004 OVC007 09/09 A3001 RMK ST4ST4 CIG VRB 11/4 -3 SLP180

CYYC;2009-08-14 16:16;CYYC 141616Z 27008KT 4SM -DZ BR SCT004 OVC008 09/ RMK ST3ST5

CYYC;2009-08-14 17:00;CYYC 141700Z 32011KT 3SM -DZ BR SCT004 BKN008 OVC012 09/09 A3002 RMK ST2ST2SC4 SLP183

CYYC;2009-08-14 17:35;CYYC 141735Z 32010KT 2SM -DZ BR SCT008 OVC012 09/ RMK ST3ST5 CIG VRB 11/4 - 3

CYYC;2009-08-14 18:00;CYYC 141800Z 32009KT 3SM -DZ BR SCT008 OVC015 10/09 A3002 RMK ST2ST6 SLP184

CYYC;2009-08-14 18:17;CYYC 141817Z 32009KT 20SM SCT012 OVC015 10/ RMK ST3SC5

CYYC;2009-08-14 18:35;CYYC 141835Z 31010KT 20SM -DZ OVC012 10/ RMK ST8

CYYC;2009-08-14 19:00;CYYC 141900Z 33012KT 20SM -DZ OVC013 10/09 A3001 RMK ST8 SLP182

CYYC;2009-08-14 19:17;CYYC 141917Z 33011KT 20SM OVC013 11/ RMK SC8

CYYC;2009-08-14 19:41;CYYC 141941Z 31014KT 30SM SCT013 OVC018 10/ RMK ST3SC5

CYYC;2009-08-14 20:00;CYYC 142000Z 32012KT 30SM OVC017 11/09 A3002 RMK SC8 SLP183

CYYC;2009-08-14 21:00;CYYC 142100Z 33015G20KT 20SM BKN015 OVC220 11/09 A3002 RMK SC6CI2 SLP184

CYYC;2009-08-14 22:00;CYYC 142200Z 35014KT 30SM OVC017 11/09 A3003 RMK SC8 SLP188

CYYC;2009-08-14 22:28;CYYC 142228Z 34018KT 20SM BKN013 OVC017 10/ RMK SC6SC2

CYYC;2009-08-14 23:00;CYYC 142300Z 34014KT 40SM BKN012 OVC016 11/09 A3003 RMK SC6SC2 SLP187

CYYC;2009-08-15 00:00;CYYC 150000Z 35014KT 30SM BKN014 OVC024 10/08 A3002 RMK SC4SC4 SLP186

CYYC;2009-08-15 01:00;CYYC 150100Z 36014KT 40SM SCT015 OVC120 10/08 A3002 RMK SC2AC6 SLP186

CYYC;2009-08-15 01:47;CYYC 150147Z 36014G19KT 20SM -RA OVC013 10/ RMK SC8

CYYC;2009-08-15 02:00;CYYC 150200Z 35014G19KT 20SM -RA BKN014 OVC023 09/08 A3003 RMK SC6SC2 SLP188

CYYC;2009-08-15 02:47;CYYC 150247Z 35011KT 12SM -RA OVC009 09/ RMK SC8 CIG VRB 7-11

CYYC;2009-08-15 03:00;CYYC 150300Z 35010KT 12SM -SHRA BKN009 BKN039 OVC057 09/08 A3004 RMK SC5SC2SC1 SLP194

CYYC;2009-08-15 03:45;CYYC 150345Z 34011KT 15SM FEW020 BKN060 OVC086 09/ RMK SC2SC4AC2

CYYC;2009-08-15 04:00;CYYC 150400Z 33009KT 15SM SCT010 BKN016 OVC030 09/08 A3005 RMK SC4SC3SC1 SLP197

CYYC;2009-08-15 04:17;CYYC 150417Z 33010KT 10SM -SHRA BKN017 BKN031 OVC060 09/ RMK SC5SC2SC1

CYYC;2009-08-15 05:00;CYYC 150500Z 32010KT 15SM -SHRA FEW020 OVC049 08/08 A3004 RMK SC2SC6 SLP194

CYYC;2009-08-15 06:00;CYYC 150600Z 32011KT 15SM -SHRA BKN019 OVC050 08/08 A3003 RMK SC6SC2 SLP189

CYYC;2009-08-15 07:00;CYYC 150700Z 31009KT 15SM -SHRA OVC020 08/07 A3001 RMK SC8 SLP183

CYYC;2009-08-15 07:17;CYYC 150717Z 31009KT 15SM BKN022 BKN060 OVC110 08/ RMK SC6SC1AC1

CYYC;2009-08-15 08:00;CYYC 150800Z 34010KT 15SM BKN021 OVC060 08/07 A3000 RMK SC7SC1 SLP180

CYYC;2009-08-15 08:46;CYYC 150846Z 34010KT 12SM -RA OVC026 08/ RMK SC8

CYYC;2009-08-15 09:00;CYYC 150900Z 34009KT 12SM -RA BKN026 OVC040 08/07 A2998 RMK SC7SC1 SLP172

CYYC;2009-08-15 10:00;CYYC 151000Z 34009KT 12SM -RA OVC019 07/07 A2997 RMK SC8 SLP169

CYYC;2009-08-15 11:00;CYYC 151100Z 31011G16KT 8SM -RA BKN030 OVC045 07/07 A2997 RMK SC5SC3 SLP168

CYYC;2009-08-15 12:00;CYYC 151200Z 34010KT 10SM -RA FEW011 OVC054 07/07 A2996 RMK SC2SC6 SLP167

CYYC;2009-08-15 13:00;CYYC 151300Z 33009KT 30SM -RA FEW020 BKN060 OVC078 07/06 A2997 RMK SC2SC6AC1 SLP169

CYYC;2009-08-15 13:23;CYYC 151323Z 34009KT 40SM FEW020 BKN065 OVC076 08/ RMK SF1SC5AC3

CYYC;2009-08-15 14:00;CYYC 151400Z 34010KT 40SM SCT013 SCT035 BKN070 08/06 A2997 RMK SC3CF1AC4 SLP170

CYYC;2009-08-15 15:00;CYYC 151500Z 33010KT 40SM FEW013 FEW035 BKN072 08/06 A2997 RMK SC1CF1AC6 TR CF SLP169

CYYC;2009-08-15 16:00;CYYC 151600Z 34010KT 40SM FEW013 BKN074 BKN240 09/06 A2997 RMK SC1AC7CI1 SLP169

CYYC;2009-08-15 17:00;CYYC 151700Z 35011KT 40SM FEW015 BKN077 BKN100 BKN240 10/06 A2996 RMK CF1AC5AC2CI1 TR CF SLP168

CYYC;2009-08-15 18:00;CYYC 151800Z 35013KT 40SM FEW020 BKN078 BKN240 10/06 A2996 RMK CF1AC6CI1 TR CF SLP166

CYYC;2009-08-15 19:00;CYYC 151900Z 36015KT 40SM FEW028 SCT085 BKN160 BKN240 11/05 A2996 RMK CU1AC2AC2CI1 SLP165

CYYC;2009-08-15 20:00;CYYC 152000Z 01015G20KT 40SM FEW030 FEW085 BKN140 BKN240 12/04 A2996 RMK CU1AC1AC4CI1 SLP164

CYYC;2009-08-15 21:00;CYYC 152100Z 02012G21KT 40SM FEW030 FEW090 BKN150 BKN240 12/04 A2996 RMK CU1AC1AC4CI1 SLP164

CYYC;2009-08-15 22:00;CYYC 152200Z 02015KT 40SM FEW025 FEW035 BKN150 BKN240 13/07 A2997 RMK CU1SC1AC5CI1 TR CU SLP165

CYYC;2009-08-15 23:00;CYYC 152300Z 04011G16KT 30SM FEW030 SCT150 BKN200 BKN250 13/06 A2997 RMK SC1AC2CI2CI0 CU ASOCTD SLP167

CYYC;2009-08-16 00:00;CYYC 160000Z 05011KT 30SM FEW015 FEW030 SCT170 BKN230 13/06 A2998 RMK CF1SC1AC3CI0 TR CF SLP169

CYYC;2009-08-16 01:00;CYYC 160100Z 05009KT 30SM FEW015 FEW030 SCT180 BKN220 14/07 A2999 RMK CF1SC1AC2CI1 TR CF TCU DIST S-SW SLP173

CYYC;2009-08-16 02:00;CYYC 160200Z 05005KT 20SM FEW018 SCT075 SCT180 BKN220 12/08 A3000 RMK CF1AC3AC1CI1 CF+CI TR / TCU ASOCTD S-SW SLP176

CYYC;2009-08-16 03:00;CYYC 160300Z 10003KT 30SM FEW041 BKN075 BKN180 BKN220 11/09 A3002 RMK SC2AC3AC1CI1 AC+CI TR SLP185

CYYC;2009-08-16 03:48;CYYC 160348Z 11004KT 8SM -RA BKN050 BKN090 10/ RMK SC4AC2

CYYC;2009-08-16 04:00;CYYC 160400Z 12003KT 5SM -RA BKN053 BKN094 10/09 A3004 RMK SC4AC2 SLP190

CYYC;2009-08-16 05:00;CYYC 160500Z 17002KT 15SM -RA SCT015 BKN040 BKN090 09/09 A3004 RMK SC2SC2AC2 VIS NW-N LWR SLP191

CYYC;2009-08-16 05:27;CYYC 160527Z 21005KT 15SM FEW015 BKN060 BKN100 09/ RMK SC2SC2AC2

CYYC;2009-08-16 06:00;CYYC 160600Z 22004KT 15SM FEW015 SCT060 BKN110 09/09 A3003 RMK ST1SC2AC3 SLP189

CYYC;2009-08-16 07:00;CYYC 160700Z 32004KT 15SM FEW015 BKN062 BKN100 10/08 A3003 RMK ST1SC6AC1 SLP188

CYYC;2009-08-16 07:32;CYYC 160732Z 33008KT 15SM -RA FEW015 OVC050 10/ RMK ST1SC6

CYYC;2009-08-16 08:00;CYYC 160800Z 32005KT 15SM -RA FEW015 OVC059 10/08 A3003 RMK ST1SC6 SLP188

CYYC;2009-08-16 08:35;CYYC 160835Z 32008KT 15SM SCT040 BKN070 10/ RMK SC3AC2

CYYC;2009-08-16 09:00;CYYC 160900Z 32009KT 15SM FEW040 SCT070 BKN110 10/08 A3003 RMK SC2AC2AC2 SLP184

CYYC;2009-08-16 10:00;CYYC 161000Z 32008KT 15SM FEW040 BKN090 BKN110 10/08 A3004 RMK SC2AC3AC1 SLP186

CYYC;2009-08-16 11:00;CYYC 161100Z 32010KT 15SM FEW040 BKN070 BKN110 10/08 A3005 RMK SC2AC3AC1 SLP189

CYYC;2009-08-16 12:00;CYYC 161200Z 33011KT 15SM FEW030 BKN054 BKN081 10/08 A3005 RMK CF2SC3AC1 SLP191

CYYC;2009-08-16 13:00;CYYC 161300Z 33007KT 30SM FEW030 FEW054 SCT081 09/08 A3006 RMK CF1SC1AC2 SLP194

CYYC;2009-08-16 14:00;CYYC 161400Z 32009KT 30SM BKN042 BKN051 OVC080 10/08 A3007 RMK SC5SC2AC1 SLP198

CYYC;2009-08-16 15:00;CYYC 161500Z 32007KT 30SM FEW020 BKN058 OVC076 11/08 A3008 RMK CF1SC6AC2 SLP203

CYYC;2009-08-16 16:00;CYYC 161600Z 33014KT 30SM FEW023 BKN058 OVC087 13/08 A3009 RMK CU1SC4AC2 SLP205

CYYC;2009-08-16 17:00;CYYC 161700Z 34012KT 30SM FEW030 SCT060 BKN081 14/09 A3009 RMK CU2SC2AC3 SLP206

CYYC;2009-08-16 18:00;CYYC 161800Z 36012KT 25SM SCT028 BKN074 15/09 A3009 RMK CU3AC4 TCU PRSNT E SLP202

CYYC;2009-08-16 19:00;CYYC 161900Z 36014KT 20SM SCT030 BKN050TCU BKN100 15/08 A3009 RMK CU3TCU2AC2 SLP202

CYYC;2009-08-16 20:00;CYYC 162000Z 33012G18KT 20SM FEW035 BKN055CB BKN110 16/08 A3009 RMK CU2CB2AC2 SLP203

CYYC;2009-08-16 21:00;CYYC 162100Z 32010G17KT 20SM FEW035 SCT050TCU SCT060CB BKN110 17/09 A3008 RMK CU1TCU2CB1AC1 SLP197

CYYC;2009-08-16 22:00;CYYC 162200Z 01012G18KT 20SM FEW035 SCT055TCU SCT065CB BKN110 15/10 A3008 RMK CU1TCU2CB1AC2 DIST SH NNE SLP197

CYYC;2009-08-16 23:00;CYYC 162300Z 02006KT 20SM VCSH FEW035 SCT065CB BKN120 16/08 A3009 RMK CU1CB2AC3 SH SE SLP200

CYYC;2009-08-17 00:00;CYYC 170000Z 01009KT 30SM FEW040 FEW065CB BKN140 17/07 A3010 RMK CU1CB1AC2 SLP202

CYYC;2009-08-17 01:00;CYYC 170100Z 34011G16KT 20SM FEW040 FEW065 SCT110 15/06 A3010 RMK CU1SC1AC2 SLP203

CYYC;2009-08-17 02:00;CYYC 170200Z 30006KT 30SM FEW060CB BKN110 15/09 A3010 RMK CB1AC4 CB SW / SH SW SLP203

CYYC;2009-08-17 03:00;CYYC 170300Z 32005KT 30SM FEW080 SCT100 15/08 A3011 RMK AC1AC3 SLP208

CYYC;2009-08-17 04:00;CYYC 170400Z 27005KT 15SM FEW080 FEW100 13/09 A3013 RMK AC1AC1 SLP212

CYYC;2009-08-17 05:00;CYYC 170500Z 25004KT 15SM SKC 12/08 A3012 RMK SLP209

CYYC;2009-08-17 06:00;CYYC 170600Z 00000KT 15SM SKC 11/08 A3012 RMK SLP210

CYYC;2009-08-17 07:00;CYYC 170700Z 00000KT 15SM FEW100 10/08 A3012 RMK AC1 SLP210

CYYC;2009-08-17 08:00;CYYC 170800Z 00000KT 15SM FEW083 09/07 A3012 RMK AC2 SLP210

CYYC;2009-08-17 09:00;CYYC 170900Z 00000KT 15SM SCT087 09/07 A3011 RMK AC2 SLP207

CYYC;2009-08-17 10:00;CYYC 171000Z 29003KT 15SM FEW060 SCT080 11/07 A3010 RMK SC1AC2 SLP204

CYYC;2009-08-17 11:00;CYYC 171100Z 00000KT 15SM FEW060 BKN076 11/07 A3011 RMK SC2AC2 SLP206

CYYC;2009-08-17 12:00;CYYC 171200Z 26002KT 40SM FEW060 FEW080 FEW240 10/07 A3010 RMK SC1AC1CI1 SLP201

CYYC;2009-08-17 13:00;CYYC 171300Z 23002KT 40SM FEW060 FEW080 FEW240 11/07 A3009 RMK SC1AC1CI0 SLP200

CYYC;2009-08-17 14:00;CYYC 171400Z 16005KT 40SM FEW080 FEW180 BKN260 12/09 A3009 RMK AC1AC2CI2 SLP200

CYYC;2009-08-17 15:00;CYYC 171500Z 24005KT 40SM FEW180 BKN240 14/09 A3009 RMK AC1CS2 SLP198

CYYC;2009-08-17 16:00;CYYC 171600Z 22008KT 40SM FEW180 SCT210 BKN270 15/09 A3009 RMK AC1CS2CI1 CONTRAILS SLP197

CYYC;2009-08-17 17:00;CYYC 171700Z 24007KT 40SM SCT190 BKN260 18/09 A3008 RMK AC2CI1 CONTRAILS SLP193

CYYC;2009-08-17 18:00;CYYC 171800Z 20006KT 40SM BKN220 19/09 A3006 RMK CS4 CONTRAILS SLP184

CYYC;2009-08-17 19:00;CYYC 171900Z 19007KT 40SM FEW052 BKN210 21/07 A3005 RMK CF1CS6 SLP182

CYYC;2009-08-17 20:00;CYYC 172000Z 20004KT 40SM FEW056 BKN200 22/07 A3003 RMK CU1CS4 SLP175

CYYC;2009-08-17 21:00;CYYC 172100Z 28003KT 40SM FEW056 BKN240 22/08 A3000 RMK CU1CI2 SLP161

CYYC;2009-08-17 22:00;CYYC 172200Z 19005KT 40SM FEW062 BKN260 23/08 A2998 RMK CU1CI2 SLP154

CYYC;2009-08-17 23:00;CYYC 172300Z 22003KT 40SM FEW062 BKN160 BKN260 24/08 A2997 RMK CU1AC6CI0 SLP151

CYYC;2009-08-18 00:00;CYYC 180000Z CCA 13006KT 40SM FEW062 SCT150 BKN210 BKN260 23/08 A2996 RMK CU1AC4CI1CI0 SLP144

CYYC;2009-08-18 01:00;CYYC 180100Z 13006KT 40SM FEW062 SCT150 BKN190 BKN240 22/10 A2995 RMK CU1AC4AC2CI1 ACSL SW SLP142

CYYC;2009-08-18 02:00;CYYC 180200Z 16004KT 40SM FEW065 BKN150 OVC240 20/09 A2994 RMK SC1AC5CI2 SLP138

CYYC;2009-08-18 03:00;CYYC 180300Z 18006KT 40SM FEW065 BKN150 OVC240 19/09 A2993 RMK SC1AC4CI2 SLP137

CYYC;2009-08-18 04:00;CYYC 180400Z 20007KT 15SM FEW065 BKN140 OVC230 18/10 A2995 RMK SC1AC6CI1 SLP141

CYYC;2009-08-18 05:00;CYYC 180500Z 27003KT 15SM BKN130 OVC220 18/10 A2995 RMK AC6CI1 SLP142

CYYC;2009-08-18 06:00;CYYC 180600Z 29004KT 15SM OVC120 18/09 A2994 RMK AC8 SLP134

CYYC;2009-08-18 07:00;CYYC 180700Z 30010KT 15SM OVC110 19/07 A2994 RMK AC8 SLP134

CYYC;2009-08-18 08:00;CYYC 180800Z 31008KT 15SM FEW140 SCT250 18/07 A2993 RMK AC1CI1 SLP131

CYYC;2009-08-18 09:00;CYYC 180900Z 29011G16KT 15SM FEW140 FEW250 18/06 A2992 RMK AC1CI1 AC+CI TR SLP121

CYYC;2009-08-18 10:00;CYYC 181000Z 28013KT 15SM BKN110 BKN230 19/06 A2991 RMK AC6CI1 SLP119

CYYC;2009-08-18 11:00;CYYC 181100Z 30007KT 15SM BKN100 OVC220 18/06 A2991 RMK AC6CI2 SLP118

CYYC;2009-08-18 12:00;CYYC 181200Z 29008KT 15SM FEW080 BKN110 OVC220 17/06 A2991 RMK AC2AC6CI1 SLP119

CYYC;2009-08-18 13:00;CYYC 181300Z 25006KT 40SM FEW060 SCT110 BKN250 18/06 A2990 RMK SC1AC2CI2 SLP115

CYYC;2009-08-18 14:00;CYYC 181400Z 28007KT 40SM FEW110 BKN220 17/07 A2990 RMK AC2CI1 SLP115

CYYC;2009-08-18 15:00;CYYC 181500Z 29009KT 40SM BKN083 BKN140 BKN220 19/08 A2989 RMK AC5AC2CI1 SLP115

CYYC;2009-08-18 16:00;CYYC 181600Z 30007KT 40SM BKN088 BKN140 BKN220 20/09 A2988 RMK AC5AC1CS2 SLP113

CYYC;2009-08-18 17:00;CYYC 181700Z 29007KT 40SM FEW045 BKN081 BKN110 BKN200 22/10 A2988 RMK CU1AC5AC1CS2 SLP112

CYYC;2009-08-18 18:00;CYYC 181800Z 29010G17KT 40SM FEW060 FEW090 SCT140 BKN210 23/08 A2986 RMK CU1AC2AC2CI1 SLP098

CYYC;2009-08-18 19:00;CYYC 181900Z 34008KT 40SM FEW060 FEW095 SCT190 BKN240 24/08 A2984 RMK CU2AC1AC2CI1 SLP093

CYYC;2009-08-18 20:00;CYYC 182000Z 28004KT 40SM FEW060 BKN085 BKN210 24/09 A2983 RMK CU1AC6CI1 SLP089

CYYC;2009-08-18 21:00;CYYC 182100Z 21004KT 40SM VCSH SCT060 BKN084 BKN210 24/08 A2982 RMK CU3AC2CI1 SH NW-NE / TCU ASOCTD SLP083

CYYC;2009-08-18 21:42;CYYC 182142Z 05006KT 40SM -SHRA FEW060 BKN082 BKN230 23/ RMK CU2AC3CI1 TCU ASOCTD

CYYC;2009-08-18 22:00;CYYC 182200Z 30012KT 40SM -SHRA SCT043 BKN080 BKN230 21/11 A2984 RMK CU3AC4CI1 VIS N+S 5 / CB EMBD SLP090

CYYC;2009-08-18 22:14;CYYC 182214Z 35010KT 40SM -TSRA SCT043CB BKN080 BKN250 22/ RMK CB3AC4CI1

CYYC;2009-08-18 22:37;CYYC 182237Z 05018G27KT 40SM TS FEW043CB FEW080 BKN270 19/ RMK CB2AC1CI0 SH NE-S

CYYC;2009-08-18 22:50;CYYC 182250Z 04015KT 40SM FEW045CB FEW090 SCT270 19/ RETS RMK CB1AC1CI0 SH E-S / CC ASOCTD

CYYC;2009-08-18 23:00;CYYC 182300Z 05016KT 40SM FEW045CB FEW090 FEW270 19/12 A2985 RETS RMK CB1AC1CI0 SH E-S / CC ASOCTD SLP094

CYYC;2009-08-19 00:00;CYYC 190000Z 05011KT 40SM FEW045 FEW095 FEW250 20/12 A2987 RETS RMK CU1AC1CI1 SH SE / CB EMBD SLP108

CYYC;2009-08-19 01:00;CYYC 190100Z 04009KT 40SM FEW045 SCT120 SCT160 21/12 A2987 RMK CU1AC4AC1 VIRGA NE SLP110

CYYC;2009-08-19 02:00;CYYC 190200Z 16006KT 20SM VCSH FEW045 SCT100 BKN240 19/13 A2988 RMK CU1AC2CI1 SH N SLP113

CYYC;2009-08-19 02:45;CYYC 190245Z 04006KT 20SM -SHRA FEW050CB BKN070 BKN120 18/ RMK CB2AC3AC1

CYYC;2009-08-19 03:00;CYYC 190300Z 02008KT 15SM -SHRA FEW030 BKN067CB OVC100 16/14 A2994 RERA RMK SC2CB3AC2 LTGCG SE SLP135

CYYC;2009-08-19 04:00;CYYC 190400Z 03005KT 15SM -SHRA FEW040 BKN066CB OVC094 16/13 A2995 RMK SC2CB3AC3 SLP138

CYYC;2009-08-19 05:00;CYYC 190500Z 23004KT 15SM -SHRA FEW040 FEW060CB BKN090 15/13 A2996 RMK SC2CB1AC5 PCPN VRY LGT SLP143

CYYC;2009-08-19 05:40;CYYC 190540Z 24005KT 15SM OVC082 14/ RMK AC8

CYYC;2009-08-19 06:00;CYYC 190600Z 25004KT 15SM BKN079 OVC120 14/13 A2997 RMK AC6AC2 SLP142

CYYC;2009-08-19 07:00;CYYC 190700Z 23006KT 15SM FEW070 BKN090 14/14 A2997 RMK AC1AC6 SLP143

CYYC;2009-08-19 08:00;CYYC 190800Z 21005KT 15SM OVC085 14/13 A2997 RMK AC7 SLP142

CYYC;2009-08-19 09:00;CYYC 190900Z 24002KT 15SM SCT085 SCT110 14/13 A2997 RMK AC2AC1 SLP144

CYYC;2009-08-19 10:00;CYYC 191000Z 24003KT 15SM SCT085 14/12 A2997 RMK AC2 SLP143

CYYC;2009-08-19 11:00;CYYC 191100Z 00000KT 15SM SCT060 BKN088 14/13 A2998 RMK SC3AC3 SLP145

CYYC;2009-08-19 12:00;CYYC 191200Z 35002KT 20SM FEW060 BKN085 OVC100 13/12 A2998 RMK SC2AC4AC2 SLP153

CYYC;2009-08-19 13:00;CYYC 191300Z 32004KT 30SM FEW040 FEW085 BKN100 12/11 A2999 RMK SC2AC1AC1 SLP156

CYYC;2009-08-19 14:00;CYYC 191400Z 32002KT 40SM FEW040 FEW080 FEW110 13/12 A3001 RMK SC1AC2AC1 SC TR / SH DIST SE SLP161

CYYC;2009-08-19 15:00;CYYC 191500Z 29004KT 40SM FEW030 BKN090 15/12 A3002 RMK CF1AC6 SLP169

CYYC;2009-08-19 16:00;CYYC 191600Z 27004KT 40SM FEW075 FEW090 17/10 A3002 RMK AC1AC2 SLP168

CYYC;2009-08-19 17:00;CYYC 191700Z 34012KT 40SM FEW030 FEW090 19/11 A3002 RMK CF1AC1 SLP168

CYYC;2009-08-19 18:00;CYYC 191800Z 35010G17KT 40SM FEW030 FEW090 20/09 A3002 RMK CU1AC1 AC TR SLP166

CYYC;2009-08-19 19:00;CYYC 191900Z 34012KT 40SM FEW040 FEW090 20/09 A3003 RMK CU2AC1 SLP168

CYYC;2009-08-19 20:00;CYYC 192000Z 02006KT 40SM FEW053 21/11 A3003 RMK CU2 SLP168

CYYC;2009-08-19 21:00;CYYC 192100Z 01009G17KT 40SM FEW050 21/10 A3004 RMK CU2 SLP169

CYYC;2009-08-19 22:00;CYYC 192200Z 36005KT 40SM FEW050 21/10 A3004 RMK CU1 SLP169

CYYC;2009-08-19 23:00;CYYC 192300Z 35004KT 40SM FEW050 21/10 A3003 RMK CU1 SLP167

CYYC;2009-08-20 00:00;CYYC 200000Z 22005KT 40SM FEW050 FEW080 22/10 A3004 RMK CU1AC1 SLP170

CYYC;2009-08-20 01:00;CYYC 200100Z 05006KT 40SM FEW060 FEW250 21/10 A3004 RMK CU1CI1 SLP171

CYYC;2009-08-20 02:00;CYYC 200200Z 06007KT 30SM FEW060 FEW085 FEW250 20/10 A3005 RMK CU1AC1CI1 ACSL W/ ALL CLDS TR SLP175

CYYC;2009-08-20 03:00;CYYC 200300Z 08006KT 40SM FEW085 FEW240 17/10 A3006 RMK AC1CI1 AC TR SLP183

CYYC;2009-08-20 04:00;CYYC 200400Z 09007KT 15SM SCT053 SCT085 16/10 A3008 RMK SC3AC1 SLP188

CYYC;2009-08-20 05:00;CYYC 200500Z 10005KT 15SM OVC054 17/09 A3009 RMK SC8 SLP190

CYYC;2009-08-20 06:00;CYYC 200600Z 11003KT 15SM OVC052 17/09 A3010 RMK SC8 SLP189

CYYC;2009-08-20 07:00;CYYC 200700Z 13004KT 15SM OVC053 16/09 A3011 RMK SC8 SLP192

CYYC;2009-08-20 08:00;CYYC 200800Z 14005KT 15SM OVC051 16/09 A3012 RMK SC8 SLP195

CYYC;2009-08-20 09:00;CYYC 200900Z 15006KT 15SM OVC050 15/10 A3012 RMK SC8 SLP196

CYYC;2009-08-20 10:00;CYYC 201000Z 18007KT 15SM SCT055 14/10 A3011 RMK SC3 SLP194

CYYC;2009-08-20 11:00;CYYC 201100Z 17006KT 15SM FEW065 FEW240 12/09 A3012 RMK SC2CI0 SLP196

CYYC;2009-08-20 12:00;CYYC 201200Z 18007KT 20SM FEW065 FEW100 FEW240 13/10 A3011 RMK SC1AC1CI1 CI TR SLP194

CYYC;2009-08-20 13:00;CYYC 201300Z 11003KT 40SM FEW130 FEW250 13/09 A3011 RMK AC1CI0 AC TR SLP196

CYYC;2009-08-20 14:00;CYYC 201400Z 10006KT 40SM FEW130 FEW250 14/10 A3012 RMK AC1CI0 SLP199

CYYC;2009-08-20 15:00;CYYC 201500Z 14009KT 40SM FEW130 BKN250 16/09 A3012 RMK AC1CI0 CONTRAILS SLP200

CYYC;2009-08-20 16:00;CYYC 201600Z 14015KT 40SM FEW250 18/11 A3012 RMK CI0 CONTRAILS SLP200

CYYC;2009-08-20 17:00;CYYC 201700Z 13010G17KT 40SM FEW250 20/10 A3012 RMK CI0 CONTRAILS SLP201

CYYC;2009-08-20 18:00;CYYC 201800Z 13015KT 40SM FEW040 SCT250 21/10 A3012 RMK CU1CI0 CONTRAILS SLP195

CYYC;2009-08-20 19:00;CYYC 201900Z 15015G21KT 40SM FEW045 BKN250 22/10 A3011 RMK CU1CI0 CONTRAILS SLP191

CYYC;2009-08-20 20:00;CYYC 202000Z 15015G20KT 40SM FEW050 BKN250 22/11 A3010 RMK CU1CI0 SLP189

CYYC;2009-08-20 21:00;CYYC 202100Z 16015G21KT 40SM FEW050 SCT250 22/10 A3010 RMK CU1CI0 SLP186

CYYC;2009-08-20 22:00;CYYC 202200Z 14014G20KT 40SM FEW050 BKN250 23/11 A3008 RMK CU1CI0 SLP182

CYYC;2009-08-20 23:00;CYYC 202300Z 14016G22KT 40SM FEW045 BKN250 23/11 A3007 RMK CU1CI0 CONTRAILS SLP178

CYYC;2009-08-21 00:00;CYYC 210000Z 15017G22KT 40SM FEW040 BKN250 22/11 A3006 RMK CU1CI0 SLP177

CYYC;2009-08-21 01:00;CYYC 210100Z 15018KT 40SM OVC250 22/11 A3006 RMK CI0 SLP176

CYYC;2009-08-21 02:00;CYYC 210200Z 14016KT 40SM BKN250 20/11 A3005 RMK CI1 SLP172

CYYC;2009-08-21 03:00;CYYC 210300Z 15015KT 30SM SCT250 19/10 A3004 RMK CI0 SLP172

CYYC;2009-08-21 04:00;CYYC 210400Z 16009KT 15SM FEW250 17/10 A3005 RMK CI0 SLP175

CYYC;2009-08-21 05:00;CYYC 210500Z 17008KT 15SM SKC 16/10 A3005 RMK SLP173

CYYC;2009-08-21 06:00;CYYC 210600Z 18013KT 15SM SKC 15/10 A3003 RMK SLP165

CYYC;2009-08-21 07:00;CYYC 210700Z 18006KT 15SM SKC 14/10 A3001 RMK SLP159

CYYC;2009-08-21 08:00;CYYC 210800Z 16008KT 15SM SKC 14/10 A2998 RMK SLP151

CYYC;2009-08-21 09:00;CYYC 210900Z 17007KT 15SM FEW240 13/09 A2996 RMK CI0 SLP143

CYYC;2009-08-21 10:00;CYYC 211000Z 16006KT 15SM FEW210 12/09 A2994 RMK CI2 SLP135

CYYC;2009-08-21 11:00;CYYC 211100Z 16006KT 15SM FEW240 12/10 A2993 RMK CI1 SLP133

CYYC;2009-08-21 12:00;CYYC 211200Z 18006KT 20SM FEW120 BKN230 11/10 A2992 RMK AC1CI2 AC TR SLP131

CYYC;2009-08-21 13:00;CYYC 211300Z 18005KT 20SM SCT130 OVC230 12/10 A2991 RMK AC3CI4 SLP128

CYYC;2009-08-21 14:00;CYYC 211400Z 17009KT 40SM BKN110 BKN150 12/10 A2993 RMK AC6AS1 SH S SLP133

CYYC;2009-08-21 15:00;CYYC 211500Z 02005KT 40SM FEW015TCU FEW100 BKN170 BKN240 14/11 A2991 RMK TCU1AC2AC5CI1 SH SE SLP128

CYYC;2009-08-21 16:00;CYYC 211600Z 33004KT 40SM FEW020 FEW100 FEW140 18/13 A2989 RMK CU1AC1AS1 SLP121

CYYC;2009-08-21 17:00;CYYC 211700Z 36003KT 40SM FEW032 FEW140 22/14 A2987 RMK CU1AS1 SLP117

CYYC;2009-08-21 18:00;CYYC 211800Z 02004KT 40SM FEW040 FEW140 FEW290 23/14 A2987 RMK CU1AC1CI1 SLP106

CYYC;2009-08-21 19:00;CYYC 211900Z 00000KT 30SM FEW048 FEW270 25/13 A2985 RMK CU1CI0 SLP100

CYYC;2009-08-21 20:00;CYYC 212000Z 29003KT 30SM FEW055 FEW180 FEW270 27/13 A2983 RMK CU1AC1CI0 SLP095

CYYC;2009-08-21 21:00;CYYC 212100Z 00000KT 30SM FEW064 FEW180 FEW270 29/12 A2981 RMK CU1AC1CI0 CONTRAILS SLP082

CYYC;2009-08-21 22:00;CYYC 212200Z 21004KT 30SM FEW074 FEW180 SCT270 30/12 A2979 RMK CU1AC1CI0 SLP076

CYYC;2009-08-21 23:00;CYYC 212300Z 18007KT 30SM FEW094 SCT280 31/07 A2978 RMK CU1CI0 SLP071

CYYC;2009-08-22 00:00;CYYC 220000Z 18010G19KT 40SM FEW094 FEW280 30/08 A2976 RMK CU1CI0 SLP065

CYYC;2009-08-22 01:00;CYYC 220100Z 24006KT 40SM FEW094 FEW260 30/06 A2975 RMK CU1CI0 SLP061

CYYC;2009-08-22 02:00;CYYC 220200Z 26006KT 40SM FEW060 FEW110 FEW250 28/08 A2974 RMK CU1AC1CI0 CU+AC TR SLP058

CYYC;2009-08-22 03:00;CYYC 220300Z 23005KT 40SM FEW080 SCT250 24/09 A2974 RMK AC1CI0 SLP063

CYYC;2009-08-22 04:00;CYYC 220400Z 25005KT 15SM FEW060CB FEW250 22/09 A2974 RMK CB1CI0 SLP062

CYYC;2009-08-22 05:00;CYYC 220500Z 34014KT 15SM FEW240 21/13 A2977 RMK CI1 CI TR SLP071

CYYC;2009-08-22 06:00;CYYC 220600Z 33010KT 15SM SKC 18/12 A2980 RMK SLP079

CYYC;2009-08-22 07:00;CYYC 220700Z 34008KT 15SM FEW090 19/10 A2982 RMK AC1 AC TR SLP085

CYYC;2009-08-22 08:00;CYYC 220800Z 33010G15KT 15SM SCT120 18/08 A2984 RMK AC3 SLP090

CYYC;2009-08-22 09:00;CYYC 220900Z 28011KT 15SM BKN110 21/07 A2985 RMK AC3 SLP086

CYYC;2009-08-22 10:00;CYYC 221000Z 34014KT 15SM FEW120 BKN170 16/11 A2990 RMK AC2AC2 SLP099

CYYC;2009-08-22 11:00;CYYC 221100Z 35008KT 15SM SCT120 15/11 A2994 RMK AC2 SLP111

CYYC;2009-08-22 12:00;CYYC 221200Z 27006KT 15SM FEW060 FEW080 SCT110 13/09 A2994 RMK SC1AC2AC1 SLP125

CYYC;2009-08-22 13:00;CYYC 221300Z 32007KT 20SM FEW050 FEW080 FEW110 13/08 A2995 RMK SC1AC1AC1 SLP128

CYYC;2009-08-22 14:00;CYYC 221400Z 31007KT 30SM FEW030 FEW050 FEW100 15/07 A2997 RMK CU1SC1AC1 TR CU SLP135

CYYC;2009-08-22 15:00;CYYC 221500Z 22006KT 40SM FEW035 FEW050 FEW100 FEW250 16/07 A2998 RMK CU1SC1AC1CI0 TR CU AC SLP143

CYYC;2009-08-22 16:00;CYYC 221600Z 02004KT 40SM FEW035 FEW050 FEW095 FEW250 17/08 A2999 RMK CU1SC1AC1CI1 TR CU CI SLP145

CYYC;2009-08-22 17:00;CYYC 221700Z CCA 06006KT 40SM FEW040 FEW095 FEW250 18/08 A2998 RMK CU1AC1CI0 TR CU SLP143

CYYC;2009-08-22 18:00;CYYC 221800Z 06003KT 30SM FEW042 SCT250 18/08 A2997 RMK CU1CI1 SLP145

CYYC;2009-08-22 19:00;CYYC 221900Z 12004KT 30SM FEW045 SCT250 20/08 A2996 RMK CU1CI1 SLP140

CYYC;2009-08-22 20:00;CYYC 222000Z 16007KT 30SM FEW045 SCT250 20/09 A2994 RMK CU1CI1 SLP136

CYYC;2009-08-22 21:00;CYYC 222100Z 15008KT 30SM FEW045 BKN250 21/10 A2993 RMK CU1CI1 SLP121

CYYC;2009-08-22 22:00;CYYC 222200Z 17009KT 30SM FEW046 BKN250 22/11 A2991 RMK CU1CI2 SLP117

CYYC;2009-08-22 23:00;CYYC 222300Z 16008KT 30SM FEW046 BKN250 23/11 A2990 RMK CU1CI2 SLP114

CYYC;2009-08-23 00:00;CYYC 230000Z 14009KT 30SM FEW050 BKN250 23/10 A2989 RMK CU1CI2 SLP118

CYYC;2009-08-23 01:00;CYYC 230100Z 12009KT 30SM FEW050 BKN250 23/10 A2987 RMK CU1CI1 SLP111

CYYC;2009-08-23 02:00;CYYC 230200Z 09007KT 30SM FEW050 BKN250 22/09 A2986 RMK CU1CI1 CU TR SLP108

CYYC;2009-08-23 03:00;CYYC 230300Z 10011KT 30SM FEW040 SCT250 19/12 A2986 RMK CU1CI0 SLP107

CYYC;2009-08-23 04:00;CYYC 230400Z 12012KT 15SM FEW040 FEW250 18/12 A2985 RMK CU1CI1 SLP106

CYYC;2009-08-23 05:00;CYYC 230500Z 16005KT 15SM SKC 16/11 A2985 RMK SLP106

CYYC;2009-08-23 06:00;CYYC 230600Z 16005KT 15SM SKC 14/10 A2985 RMK SLP110

CYYC;2009-08-23 07:00;CYYC 230700Z 15007KT 15SM SKC 12/08 A2985 RMK SLP107

CYYC;2009-08-23 08:00;CYYC 230800Z 16007KT 15SM SKC 11/08 A2984 RMK SLP105

CYYC;2009-08-23 09:00;CYYC 230900Z 20004KT 15SM FEW250 12/09 A2982 RMK CI1 SLP095

CYYC;2009-08-23 10:00;CYYC 231000Z 23004KT 15SM FEW250 11/09 A2982 RMK CI1 SLP096

CYYC;2009-08-23 11:00;CYYC 231100Z 30002KT 15SM BKN240 11/09 A2981 RMK CI2 SLP093

CYYC;2009-08-23 12:00;CYYC 231200Z 00000KT 15SM OVC240 11/08 A2981 RMK CI6 SLP092

CYYC;2009-08-23 13:00;CYYC 231300Z 32008KT 30SM SCT190 BKN240 11/07 A2982 RMK AS2CI3 SLP096

CYYC;2009-08-23 14:00;CYYC 231400Z 33011KT 30SM FEW086 SCT190 BKN240 11/08 A2983 RMK AC1AC2CI3 SLP097

CYYC;2009-08-23 15:00;CYYC 231500Z 34007KT 25SM FEW086 SCT160 BKN210 12/09 A2983 RMK AC1AC2CI3 SLP103

CYYC;2009-08-23 16:00;CYYC 231600Z 32006KT 25SM FEW085 FEW160 BKN230 14/10 A2983 RMK AC1AC1CI4 SLP103

CYYC;2009-08-23 17:00;CYYC 231700Z 34005KT 25SM FEW180 FEW250 16/11 A2982 RMK AC1CI2 AC TR SLP099

CYYC;2009-08-23 18:00;CYYC 231800Z 33006KT 25SM FEW060 FEW230 19/11 A2981 RMK CU1CI1 CU+CI TR SLP092

CYYC;2009-08-23 19:00;CYYC 231900Z 28002KT 25SM FEW060 FEW220 21/08 A2979 RMK CU1CI1 CU+CI TR SLP088

CYYC;2009-08-23 20:00;CYYC 232000Z 00000KT 25SM FEW060 FEW220 22/07 A2979 RMK CU1CI1 CU+CI TR SLP087

CYYC;2009-08-23 21:00;CYYC 232100Z 11004KT 25SM FEW060 FEW150 FEW250 23/08 A2978 RMK CU1AC1CI1 SLP081

CYYC;2009-08-23 22:00;CYYC 232200Z 15007KT 25SM FEW070 FEW220 23/07 A2978 RMK CU2CI1 SLP081

CYYC;2009-08-23 23:00;CYYC 232300Z 26021KT 10SM SCT030CB BKN070 18/11 A2981 RMK CB4AC2 SLP090

CYYC;2009-08-24 00:00;CYYC 240000Z 01025KT 8SM FEW027 SCT050CB BKN080 16/09 A2986 RMK SC1CB3AC1 HZ SLP121

CYYC;2009-08-24 01:00;CYYC 240100Z 35022G28KT 10SM FEW040CB BKN080 12/08 A2989 RMK CB2AC3 SLP130

CYYC;2009-08-24 02:00;CYYC 240200Z 33011G17KT 20SM SCT050 SCT220 12/07 A2992 RMK SC2CI1 CB ASOCTD NW SLP139

CYYC;2009-08-24 03:00;CYYC 240300Z 34013KT 15SM BKN050 12/07 A2994 RMK SC6 SLP150

CYYC;2009-08-24 04:00;CYYC 240400Z 33008KT 15SM OVC046 12/06 A2995 RMK SC7 SLP154

CYYC;2009-08-24 05:00;CYYC 240500Z 34010G15KT 15SM OVC051 12/04 A2996 RMK SC7 SLP158

CYYC;2009-08-24 06:00;CYYC 240600Z 35006KT 15SM BKN059 OVC110 11/04 A2997 RMK SC6AC1 SLP154

CYYC;2009-08-24 07:00;CYYC 240700Z 32005KT 15SM BKN055 BKN110 10/04 A2998 RMK SC5AC1 SLP157

CYYC;2009-08-24 08:00;CYYC 240800Z 30002KT 15SM FEW050 FEW110 10/04 A2999 RMK SC1AC1 AC TR SLP159

CYYC;2009-08-24 09:00;CYYC 240900Z 26003KT 15SM SKC 08/04 A3000 RMK SLP160

CYYC;2009-08-24 10:00;CYYC 241000Z 22004KT 15SM SKC 08/04 A3001 RMK SLP163

CYYC;2009-08-24 11:00;CYYC 241100Z 23003KT 15SM SKC 07/04 A3001 RMK SLP163

CYYC;2009-08-24 12:00;CYYC 241200Z 00000KT 15SM FEW050 07/03 A3001 RMK SC1 SLP177

CYYC;2009-08-24 13:00;CYYC 241300Z 20005KT 40SM FEW015 FEW050 06/03 A3002 RMK CF1SC1 SLP179

CYYC;2009-08-24 14:00;CYYC 241400Z 20006KT 30SM FEW050 FEW140 08/04 A3003 RMK SC1AC1 SLP184

CYYC;2009-08-24 15:00;CYYC 241500Z 21005KT 40SM FEW140 11/04 A3004 RMK AC1 SLP187

CYYC;2009-08-24 16:00;CYYC 241600Z 19006KT 30SM FEW140 FEW280 14/03 A3004 RMK AC1CI1 SLP187

CYYC;2009-08-24 17:00;CYYC 241700Z 18009KT 30SM SKC 16/02 A3003 RMK SLP185

CYYC;2009-08-24 18:00;CYYC 241800Z 18011G16KT 30SM FEW120 18/02 A3002 RMK AC1 SLP172

CYYC;2009-08-24 19:00;CYYC 241900Z 18010G15KT 30SM FEW062 18/03 A3000 RMK CU1 SLP166

CYYC;2009-08-24 20:00;CYYC 242000Z 19007KT 30SM SKC 19/02 A2999 RMK SLP161

CYYC;2009-08-24 21:00;CYYC 242100Z 23006KT 30SM SKC 21/04 A2997 RMK SLP155

CYYC;2009-08-24 22:00;CYYC 242200Z 27003KT 30SM FEW068 21/04 A2997 RMK CU1 SLP153

CYYC;2009-08-24 23:00;CYYC 242300Z 09006KT 30SM FEW140 22/05 A2994 RMK AC1 SLP146

CYYC;2009-08-25 00:00;CYYC 250000Z 11008KT 30SM FEW140 21/05 A2994 RMK AC1 SLP144

CYYC;2009-08-25 01:00;CYYC 250100Z 13007KT 30SM FEW230 21/06 A2994 RMK CI1 SLP144

CYYC;2009-08-25 02:00;CYYC 250200Z 11007KT 30SM FEW120 FEW250 19/06 A2993 RMK AC1CI1 AC+CI TR SLP142

CYYC;2009-08-25 03:00;CYYC 250300Z 10007KT 20SM FEW230 18/05 A2993 RMK CI1 CI TR SLP143

CYYC;2009-08-25 04:00;CYYC 250400Z 13005KT 15SM FEW230 16/06 A2995 RMK CI1 CI TR SLP147

CYYC;2009-08-25 05:00;CYYC 250500Z 11003KT 15SM SKC 15/06 A2995 RMK SLP147

CYYC;2009-08-25 06:00;CYYC 250600Z 05002KT 15SM SKC 13/07 A2993 RMK SLP139

CYYC;2009-08-25 07:00;CYYC 250700Z 34006KT 15SM SKC 10/06 A2994 RMK SLP140

CYYC;2009-08-25 08:00;CYYC 250800Z 33007KT 15SM SKC 09/06 A2993 RMK SLP137

CYYC;2009-08-25 09:00;CYYC 250900Z 00000KT 15SM SKC 08/05 A2993 RMK SLP139

CYYC;2009-08-25 10:00;CYYC 251000Z 01002KT 15SM SKC 08/05 A2991 RMK SLP134

CYYC;2009-08-25 11:00;CYYC 251100Z 25008KT 15SM SKC 07/05 A2990 RMK SLP131

CYYC;2009-08-25 12:00;CYYC 251200Z 20003KT 15SM SKC 08/05 A2990 RMK SLP130

CYYC;2009-08-25 13:00;CYYC 251300Z 00000KT 40SM FEW140 FEW230 08/05 A2990 RMK AC1CI1 AC+CI TR SLP130

CYYC;2009-08-25 14:00;CYYC 251400Z 21002KT 40SM FEW140 FEW230 10/06 A2990 RMK AC1CI0 SLP129

CYYC;2009-08-25 15:00;CYYC 251500Z 22002KT 40SM FEW100 BKN140 13/06 A2990 RMK AC1AC6 SLP128

CYYC;2009-08-25 16:00;CYYC 251600Z 22003KT 40SM FEW100 BKN140 18/08 A2989 RMK AC1AC6 SLP126

CYYC;2009-08-25 17:00;CYYC 251700Z 22004KT 40SM FEW100 FEW140 BKN240 21/05 A2989 RMK AC1AC2CI1 AC TR SLP125

CYYC;2009-08-25 18:00;CYYC 251800Z 23002KT 40SM FEW140 BKN240 23/03 A2988 RMK AC1CI1 SLP114

CYYC;2009-08-25 19:00;CYYC 251900Z 21005KT 40SM FEW080 BKN180 BKN240 23/01 A2987 RMK CU1AC5CI0 SLP112

CYYC;2009-08-25 20:00;CYYC 252000Z 20003KT 40SM FEW080 BKN180 23/03 A2987 RMK CU1AC6 SLP110

CYYC;2009-08-25 21:00;CYYC 252100Z 10004KT 40SM FEW080 BKN180 24/03 A2986 RMK CU1AC6 SLP113

CYYC;2009-08-25 22:00;CYYC 252200Z 14005KT 40SM FEW080 FEW180 BKN240 26/04 A2986 RMK CU1AC1CI4 SLP113

CYYC;2009-08-25 23:00;CYYC 252300Z 26002KT 40SM FEW090 SCT240 27/03 A2986 RMK CU1CI3 SLP112

CYYC;2009-08-26 00:00;CYYC 260000Z 14002KT 40SM FEW090 FEW210 SCT240 26/03 A2986 RMK CU1CI1CI2 SLP109

CYYC;2009-08-26 01:00;CYYC 260100Z 11007KT 40SM FEW090 FEW210 BKN240 24/05 A2985 RMK CU1CI1CI3 SLP108

CYYC;2009-08-26 02:00;CYYC 260200Z 07004KT 30SM FEW060 FEW110 BKN240 22/08 A2986 RMK CU1AC2CI2 CU TR SLP110

CYYC;2009-08-26 03:00;CYYC 260300Z 09004KT 20SM FEW080 FEW140 SCT240 20/06 A2987 RMK AC1AC1CI2 SLP115

CYYC;2009-08-26 04:00;CYYC 260400Z 36002KT 15SM FEW240 18/07 A2989 RMK CI1 CI TR SLP121

CYYC;2009-08-26 05:00;CYYC 260500Z 32006KT 15SM SKC 17/07 A2991 RMK SLP127

CYYC;2009-08-26 06:00;CYYC 260600Z 33013KT 15SM BKN210 15/09 A2994 RMK CI3 SLP132

CYYC;2009-08-26 07:00;CYYC 260700Z 33015KT 15SM FEW180 SCT240 15/10 A2996 RMK AC1CI2 AC TR SLP139

CYYC;2009-08-26 08:00;CYYC 260800Z 33014KT 15SM FEW240 14/10 A2998 RMK CI0 SLP143

CYYC;2009-08-26 09:00;CYYC 260900Z 32012KT 15SM OVC210 14/09 A2998 RMK CI6 SLP147

CYYC;2009-08-26 10:00;CYYC 261000Z 32010KT 15SM OVC210 13/09 A3000 RMK CI6 SLP152

CYYC;2009-08-26 11:00;CYYC 261100Z 32008KT 15SM OVC210 14/09 A3002 RMK CI6 SLP158

CYYC;2009-08-26 12:00;CYYC 261200Z 33009KT 15SM SCT170 OVC210 13/09 A3003 RMK AC3CI4 SLP161

CYYC;2009-08-26 13:00;CYYC 261300Z 33009KT 20SM FEW100 SCT180 OVC210 12/08 A3005 RMK AC1AC2CI4 SLP166

CYYC;2009-08-26 14:00;CYYC 261400Z 33009KT 20SM FEW150 FEW180 SCT240 13/08 A3005 RMK AC1AS1CI0 AC TR SLP168

CYYC;2009-08-26 15:00;CYYC 261500Z 33008KT 20SM FEW150 FEW180 FEW240 15/09 A3006 RMK AC1AS1CI0 HZ / CONTRAILS / AC TR SLP179

CYYC;2009-08-26 16:00;CYYC 261600Z 34007KT 20SM FEW150 SCT180 BKN240 16/10 A3006 RMK AC1AC2CI2 HZ SLP179

CYYC;2009-08-26 17:00;CYYC 261700Z 01005KT 20SM FEW180 BKN240 18/10 A3007 RMK AC1CI2 HZ / CONTRAILS SLP181

CYYC;2009-08-26 18:00;CYYC 261800Z 05004KT 20SM SCT180 BKN240 19/11 A3006 RMK AC2CS3 HZ SLP180

CYYC;2009-08-26 19:00;CYYC 261900Z 16002KT 30SM SCT150 BKN180 OVC240 19/11 A3006 RMK AC3AS3CI0 SLP180

CYYC;2009-08-26 20:00;CYYC 262000Z 20003KT 30SM BKN150 BKN180 OVC240 20/10 A3005 RMK AC4AS2CI0 SLP177

CYYC;2009-08-26 21:00;CYYC 262100Z 21004KT 30SM FEW150 SCT180 BKN220 21/08 A3005 RMK AC2AS2CS0 SLP174

CYYC;2009-08-26 22:00;CYYC 262200Z 18004KT 40SM FEW050 FEW150 BKN180 OVC220 21/07 A3004 RMK CU1AC1AS6CS1 SLP171

CYYC;2009-08-26 23:00;CYYC 262300Z 13004KT 40SM FEW050 FEW150 SCT180 BKN220 22/09 A3004 RMK CU1AC1AS2CI0 SLP171

CYYC;2009-08-27 00:00;CYYC 270000Z 12004KT 40SM FEW050 FEW150 FEW180 SCT220 22/07 A3005 RMK CU1AC1AS2CI1 HZ / CONTRAILS / CU + AC TR SLP172

CYYC;2009-08-27 01:00;CYYC 270100Z 19004KT 30SM FEW050TCU FEW150 FEW180 BKN220 21/08 A3006 RMK TCU1AC1AS1CI1 HZ / CONTRAILS / CU + AC TR / TCU NE SLP176

CYYC;2009-08-27 02:00;CYYC 270200Z 18006KT 30SM FEW080 FEW180 BKN250 20/09 A3007 RMK AC1AC1CI2 SLP179

CYYC;2009-08-27 03:00;CYYC 270300Z 09004KT 15SM FEW080 FEW120 BKN250 17/09 A3009 RMK AC1AC2CI2 SLP192

CYYC;2009-08-27 04:00;CYYC 270400Z 34006KT 15SM FEW120 SCT250 16/09 A3012 RMK AC1CI2 SLP200

CYYC;2009-08-27 05:00;CYYC 270500Z 34006KT 15SM FEW120 FEW250 15/09 A3013 RMK AC1CI1 SLP204

CYYC;2009-08-27 06:00;CYYC 270600Z 35008KT 15SM FEW250 12/09 A3015 RMK CI1 CI TR SLP214

CYYC;2009-08-27 07:00;CYYC 270700Z 35005KT 15SM FEW250 13/10 A3017 RMK CI1 SLP221

CYYC;2009-08-27 08:00;CYYC 270800Z 32006KT 15SM FEW250 13/11 A3018 RMK CI1 CI TR SLP224

CYYC;2009-08-27 09:00;CYYC 270900Z 32008KT 15SM SKC 13/11 A3019 RMK SLP223

CYYC;2009-08-27 10:00;CYYC 271000Z 33004KT 15SM SKC 12/10 A3021 RMK SLP229

CYYC;2009-08-27 11:00;CYYC 271100Z 35005KT 15SM SKC 11/10 A3023 RMK SLP236

CYYC;2009-08-27 12:00;CYYC 271200Z 31003KT 15SM FEW260 10/09 A3025 RMK CI0 SLP246

CYYC;2009-08-27 13:00;CYYC 271300Z 00000KT 15SM FEW260 09/09 A3027 RMK CI0 SLP254

CYYC;2009-08-27 14:00;CYYC 271400Z 23003KT 40SM FEW260 11/09 A3029 RMK CI0 SLP259

CYYC;2009-08-27 15:00;CYYC 271500Z 00000KT 40SM FEW260 14/10 A3030 RMK CI0 CONTRAILS SLP268

CYYC;2009-08-27 16:00;CYYC 271600Z 36002KT 40SM FEW260 17/11 A3031 RMK CI0 SLP270

CYYC;2009-08-27 17:00;CYYC 271700Z 01003KT 40SM FEW250 19/13 A3032 RMK CI1 SLP274

CYYC;2009-08-27 18:00;CYYC 271800Z 14003KT 40SM FEW040 FEW250 21/11 A3033 RMK CU1CI1 SLP273

CYYC;2009-08-27 19:00;CYYC 271900Z 15003KT 40SM FEW040 FEW250 22/10 A3032 RMK CU1CI1 SLP272

CYYC;2009-08-27 20:00;CYYC 272000Z 00000KT 40SM FEW040 FEW250 23/08 A3032 RMK CU1CI1 SLP271

CYYC;2009-08-27 21:00;CYYC 272100Z 16003KT 40SM FEW070 FEW120 FEW260 24/07 A3032 RMK CU1AC1CI1 SLP264

CYYC;2009-08-27 22:00;CYYC 272200Z 18003KT 40SM FEW070 24/07 A3031 RMK AC1 SLP261

CYYC;2009-08-27 23:00;CYYC 272300Z 15004KT 40SM FEW080 FEW250 25/06 A3031 RMK AC1CI1 SLP261

CYYC;2009-08-28 00:00;CYYC 280000Z 15006KT 30SM FEW080 24/08 A3031 RMK AC1 SLP264

CYYC;2009-08-28 01:00;CYYC 280100Z 15009KT 40SM FEW080 24/09 A3030 RMK AC1 SLP263

CYYC;2009-08-28 02:00;CYYC 280200Z 12007KT 40SM FEW090 FEW250 22/09 A3031 RMK AC1CI1 AC+CI TR SLP265

CYYC;2009-08-28 03:00;CYYC 280300Z 12007KT 20SM FEW140 FEW250 19/10 A3032 RMK AC1CI1 AC+CI TR SLP269

CYYC;2009-08-28 04:00;CYYC 280400Z 13007KT 15SM FEW140 FEW250 17/11 A3033 RMK AC1CI1 AC+CI TR SLP272

CYYC;2009-08-28 05:00;CYYC 280500Z 14007KT 15SM FEW250 16/10 A3033 RMK CI1 CI TR SLP272

CYYC;2009-08-28 06:00;CYYC 280600Z 16005KT 15SM FEW230 15/10 A3033 RMK CI1 CI TR SLP269

CYYC;2009-08-28 07:00;CYYC 280700Z 14006KT 15SM SKC 14/10 A3033 RMK SLP271

CYYC;2009-08-28 08:00;CYYC 280800Z 13003KT 15SM FEW240 13/09 A3033 RMK CI0 SLP271

CYYC;2009-08-28 09:00;CYYC 280900Z 18003KT 15SM FEW240 12/09 A3033 RMK CI1 CI TR SLP271

CYYC;2009-08-28 10:00;CYYC 281000Z 20003KT 15SM SKC 10/07 A3033 RMK SLP271

CYYC;2009-08-28 11:00;CYYC 281100Z 35003KT 15SM SKC 09/07 A3033 RMK SLP270

CYYC;2009-08-28 12:00;CYYC 281200Z 33005KT 15SM FEW230 09/06 A3033 RMK CI1 SLP273

CYYC;2009-08-28 13:00;CYYC 281300Z 00000KT 30SM FEW100 SCT250 09/06 A3032 RMK AC1CI0 AC TR SLP272

CYYC;2009-08-28 14:00;CYYC 281400Z 30002KT 40SM FEW100 FEW250 09/06 A3033 RMK AC1CI0 SLP273

CYYC;2009-08-28 15:00;CYYC 281500Z 00000KT 40SM FEW150 FEW250 12/09 A3033 RMK AC1CI0 HZ S-W SLP276

CYYC;2009-08-28 16:00;CYYC 281600Z 16002KT 40SM FEW250 17/09 A3032 RMK CC1 HZ W - N SLP274

CYYC;2009-08-28 17:00;CYYC 281700Z 18004KT 40SM FEW250 20/08 A3033 RMK CC0 HZ W - N SLP276

CYYC;2009-08-28 18:00;CYYC 281800Z 17003KT 40SM FEW054 FEW250 22/08 A3032 RMK CU1CC0 HZ W - N SLP264

CYYC;2009-08-28 19:00;CYYC 281900Z 18004KT 40SM FEW250 24/09 A3030 RMK CI0 HZ SLP260

CYYC;2009-08-28 20:00;CYYC 282000Z 17008KT 30SM FEW250 24/10 A3029 RMK CI0 HZ SLP255

CYYC;2009-08-28 21:00;CYYC 282100Z 18010KT 30SM FEW250 26/09 A3026 RMK CI0 HZ SLP245

CYYC;2009-08-28 22:00;CYYC 282200Z 15011KT 30SM FEW250 28/08 A3025 RMK CI1 HZ SLP240

CYYC;2009-08-28 23:00;CYYC 282300Z 13008KT 30SM FEW250 27/06 A3023 RMK CI1 HZ SLP233

CYYC;2009-08-29 00:00;CYYC 290000Z 16010KT 40SM FEW080 FEW260 26/05 A3021 RMK CU1CI1 HZ / CU TR SLP230

CYYC;2009-08-29 01:00;CYYC 290100Z 15010G15KT 40SM FEW210 FEW260 26/05 A3020 RMK CI1CI1 HZ SLP226

CYYC;2009-08-29 02:00;CYYC 290200Z 13006KT 30SM FEW180 FEW250 23/07 A3020 RMK AC1CI1 AC TR SLP225

CYYC;2009-08-29 03:00;CYYC 290300Z 14009KT 20SM FEW200 FEW260 21/09 A3020 RMK CI1CI0 SLP228

CYYC;2009-08-29 04:00;CYYC 290400Z 16009KT 15SM FEW250 19/09 A3021 RMK CI0 SLP231

CYYC;2009-08-29 05:00;CYYC 290500Z 19004KT 15SM FEW250 17/09 A3022 RMK CI1 SLP233

CYYC;2009-08-29 06:00;CYYC 290600Z 19006KT 15SM SKC 17/08 A3020 RMK SLP222

CYYC;2009-08-29 07:00;CYYC 290700Z 17005KT 15SM SKC 16/07 A3020 RMK SLP220

CYYC;2009-08-29 08:00;CYYC 290800Z 16004KT 15SM SKC 14/07 A3018 RMK SLP215

CYYC;2009-08-29 09:00;CYYC 290900Z 16003KT 15SM SKC 13/07 A3017 RMK SLP211

CYYC;2009-08-29 10:00;CYYC 291000Z 19003KT 15SM SKC 12/07 A3016 RMK SLP208

CYYC;2009-08-29 11:00;CYYC 291100Z 21005KT 15SM SKC 11/07 A3016 RMK SLP206

CYYC;2009-08-29 12:00;CYYC 291200Z 22002KT 15SM FEW110 FEW250 09/06 A3015 RMK AC1CI2 AC TR SLP209

CYYC;2009-08-29 13:00;CYYC 291300Z 00000KT 30SM FEW140 SCT250 09/05 A3016 RMK AC1CI2 AC TR SLP212

CYYC;2009-08-29 14:00;CYYC 291400Z 00000KT 40SM FEW140 BKN250 10/06 A3017 RMK AC1CI1 SLP215

CYYC;2009-08-29 15:00;CYYC 291500Z 21004KT 40SM FEW140 SCT250 11/08 A3019 RMK AC1CI1 SLP224

CYYC;2009-08-29 16:00;CYYC 291600Z 20006KT 30SM FEW250 16/09 A3018 RMK CI1 SLP222

CYYC;2009-08-29 17:00;CYYC 291700Z 18007KT 40SM SCT250 19/08 A3018 RMK CI1 SLP222

CYYC;2009-08-29 18:00;CYYC 291800Z 17011KT 40SM FEW250 22/08 A3017 RMK CI1 SLP212

CYYC;2009-08-29 19:00;CYYC 291900Z 16016KT 40SM FEW250 25/07 A3016 RMK CI1 SLP207

CYYC;2009-08-29 20:00;CYYC 292000Z 16017KT 40SM SCT250 25/04 A3014 RMK CI1 SLP203

CYYC;2009-08-29 21:00;CYYC 292100Z 18015KT 40SM SCT250 26/03 A3015 RMK CI1 SLP202

CYYC;2009-08-29 22:00;CYYC 292200Z 17011G18KT 40SM FEW160 FEW240 26/04 A3014 RMK AC1CI1 SLP199

CYYC;2009-08-29 23:00;CYYC 292300Z 15015KT 40SM FEW160 FEW240 26/05 A3014 RMK AC1CI1 SLP199

CYYC;2009-08-30 00:00;CYYC 300000Z 15011G16KT 40SM FEW160 FEW240 25/06 A3013 RMK AC1CI1 SLP203

CYYC;2009-08-30 01:00;CYYC 300100Z 13011KT 40SM FEW150 FEW240 24/06 A3013 RMK AC1CI1 SLP201

CYYC;2009-08-30 02:00;CYYC 300200Z 13009KT 40SM FEW250 21/07 A3012 RMK CI0 SLP200

CYYC;2009-08-30 03:00;CYYC 300300Z 13009KT 40SM FEW250 19/07 A3013 RMK CI0 SLP207

CYYC;2009-08-30 04:00;CYYC 300400Z 15010KT 15SM FEW150 FEW250 18/06 A3013 RMK AC1CI0 SLP209

CYYC;2009-08-30 05:00;CYYC 300500Z 18007KT 15SM SKC 17/07 A3014 RMK SLP211

CYYC;2009-08-30 06:00;CYYC 300600Z 18004KT 15SM SKC 15/07 A3013 RMK SLP200

CYYC;2009-08-30 07:00;CYYC 300700Z 14002KT 15SM SKC 14/06 A3013 RMK SLP200

CYYC;2009-08-30 08:00;CYYC 300800Z 18002KT 15SM SKC 12/07 A3012 RMK SLP195

CYYC;2009-08-30 09:00;CYYC 300900Z 00000KT 15SM SKC 11/06 A3010 RMK SLP189

CYYC;2009-08-30 10:00;CYYC 301000Z 21003KT 15SM SKC 10/05 A3010 RMK SLP188

CYYC;2009-08-30 11:00;CYYC 301100Z 20005KT 15SM SKC 11/06 A3010 RMK SLP188

CYYC;2009-08-30 12:00;CYYC 301200Z 18005KT 15SM FEW250 10/06 A3009 RMK CI0 SLP187

CYYC;2009-08-30 13:00;CYYC 301300Z 32002KT 15SM FEW250 08/05 A3010 RMK CI0 SLP189

CYYC;2009-08-30 14:00;CYYC 301400Z 00000KT 25SM BKN250 08/05 A3010 RMK CI2 SLP189

CYYC;2009-08-30 15:00;CYYC 301500Z 19004KT 25SM FEW250 11/06 A3010 RMK CI1 SLP197

CYYC;2009-08-30 16:00;CYYC 301600Z 20004KT 25SM SCT250 15/07 A3009 RMK CI2 SLP196

CYYC;2009-08-30 17:00;CYYC 301700Z 19005KT 25SM FEW093 FEW120 SCT250 19/08 A3008 RMK AC1AC1CI1 SLP193

CYYC;2009-08-30 18:00;CYYC 301800Z 16009KT 25SM FEW090 BKN250 22/08 A3008 RMK AC1CI2 SLP181

CYYC;2009-08-30 19:00;CYYC 301900Z 17010KT 25SM FEW090 BKN250 22/09 A3006 RMK AS1CI2 SLP177

CYYC;2009-08-30 20:00;CYYC 302000Z 15010KT 25SM FEW090 SCT250 24/08 A3004 RMK AS1CI2 SLP170

CYYC;2009-08-30 21:00;CYYC 302100Z 17008KT 25SM FEW090 SCT250 25/07 A3003 RMK AS1CI2 SLP165

CYYC;2009-08-30 22:00;CYYC 302200Z 12007KT 25SM FEW250 25/06 A3002 RMK CI1 SLP161

CYYC;2009-08-30 23:00;CYYC 302300Z 15008KT 25SM FEW250 26/05 A3000 RMK CI1 SLP155

CYYC;2009-08-31 00:00;CYYC 310000Z 15009KT 25SM FEW250 25/06 A2998 RMK CI1 SLP150

CYYC;2009-08-31 01:00;CYYC 310100Z 13007KT 30SM FEW250 24/05 A2997 RMK CI1 SLP146

CYYC;2009-08-31 02:00;CYYC 310200Z 14007KT 30SM FEW250 21/05 A2996 RMK CI1 SLP143

CYYC;2009-08-31 03:00;CYYC 310300Z 14006KT 15SM FEW180 FEW250 19/06 A2996 RMK AC1CI0 SLP148

CYYC;2009-08-31 04:00;CYYC 310400Z 15008KT 15SM SKC 16/07 A2996 RMK SLP149

CYYC;2009-08-31 05:00;CYYC 310500Z 17006KT 15SM FEW150 BKN250 15/07 A2996 RMK AC1CI1 AC TR SLP149

CYYC;2009-08-31 06:00;CYYC 310600Z 17007KT 15SM FEW150 BKN250 15/07 A2995 RMK AC1CI1 AC TR SLP137

CYYC;2009-08-31 07:00;CYYC 310700Z 18006KT 15SM BKN250 15/07 A2994 RMK CI0 SLP132

CYYC;2009-08-31 08:00;CYYC 310800Z 21003KT 15SM FEW250 14/07 A2992 RMK CI0 SLP127

CYYC;2009-08-31 09:00;CYYC 310900Z 19003KT 15SM FEW250 13/07 A2990 RMK CI0 SLP119

CYYC;2009-08-31 10:00;CYYC 311000Z 21006KT 15SM FEW250 12/07 A2990 RMK CI1 SLP117

CYYC;2009-08-31 11:00;CYYC 311100Z 22003KT 15SM FEW250 11/07 A2989 RMK CI1 SLP114

CYYC;2009-08-31 12:00;CYYC 311200Z 22005KT 15SM FEW250 09/06 A2988 RMK CI1 SLP117

CYYC;2009-08-31 13:00;CYYC 311300Z 00000KT 20SM FEW250 08/06 A2988 RMK CI0 SLP118

CYYC;2009-08-31 14:00;CYYC 311400Z 00000KT 30SM SCT230 10/07 A2988 RMK CI0 SLP116

CYYC;2009-08-31 15:00;CYYC 311500Z 17004KT 30SM FEW230 13/09 A2989 RMK CI0 SLP123

CYYC;2009-08-31 16:00;CYYC 311600Z 25002KT 30SM FEW230 17/09 A2989 RMK CI0 SLP121

CYYC;2009-08-31 17:00;CYYC 311700Z 20006KT 30SM FEW140 FEW260 23/10 A2988 RMK AC1CI0 SLP118

CYYC;2009-08-31 18:00;CYYC 311800Z 20007KT 30SM FEW260 23/10 A2987 RMK CI1 SLP107

CYYC;2009-08-31 19:00;CYYC 311900Z 29009G16KT 30SM SKC 26/09 A2987 RMK SLP108

CYYC;2009-08-31 20:00;CYYC 312000Z 20009KT 30SM FEW280 27/08 A2986 RMK CI1 SLP105

CYYC;2009-08-31 21:00;CYYC 312100Z 17008KT 30SM FEW080 29/08 A2986 RMK CU1 SLP100

CYYC;2009-08-31 22:00;CYYC 312200Z 00000KT 20SM FEW085 29/07 A2986 RMK CU1 SLP099

CYYC;2009-08-31 23:00;CYYC 312300Z 11004KT 30SM FEW090 29/06 A2986 RMK CU1 SLP098

CYYC;2009-09-01 01:00;CYYC 010100Z 13006KT 30SM FEW120 27/07 A2986 RMK AC1 SLP105

CYYC;2009-09-01 02:00;CYYC 010200Z 14005KT 30SM FEW120 25/10 A2986 RMK AC1 AC TR SLP106

CYYC;2009-09-01 03:00;CYYC 010300Z 10005KT 20SM FEW120 22/10 A2988 RMK AC1 AC TR SLP114

CYYC;2009-09-01 04:00;CYYC 010400Z 25002KT 15SM SKC 20/10 A2990 RMK SLP120

CYYC;2009-09-01 05:00;CYYC 010500Z 00000KT 15SM SKC 18/10 A2991 RMK SLP122

CYYC;2009-09-01 06:00;CYYC 010600Z 35003KT 15SM SKC 15/10 A2991 RMK SLP120

CYYC;2009-09-01 07:00;CYYC 010700Z 36005KT 15SM SKC 14/09 A2992 RMK SLP124

CYYC;2009-09-01 08:00;CYYC 010800Z 34006KT 15SM SKC 12/09 A2993 RMK SLP127

CYYC;2009-09-01 09:00;CYYC 010900Z 31003KT 15SM SKC 13/09 A2994 RMK SLP126

CYYC;2009-09-01 10:00;CYYC 011000Z 36007KT 15SM SKC 13/09 A2999 RMK SLP141

CYYC;2009-09-01 11:00;CYYC 011100Z 33007KT 15SM SKC 15/10 A2997 RMK SLP136

CYYC;2009-09-01 12:00;CYYC 011200Z 32010KT 15SM FEW100 FEW250 15/10 A2998 RMK AC1CI0 AC TR SLP139

CYYC;2009-09-01 13:00;CYYC 011300Z 33006KT 15SM FEW100 FEW250 15/10 A2999 RMK AC1CI1 HZ SLP140

CYYC;2009-09-01 14:00;CYYC 011400Z 34004KT 10SM FEW100 FEW250 15/10 A3001 RMK AC1CI0 HZ SLP148

CYYC;2009-09-01 15:00;CYYC 011500Z 35006KT 12SM FEW250 22/11 A3003 RMK CI1 SLP154

CYYC;2009-09-01 16:00;CYYC 011600Z 35005KT 12SM FEW250 22/11 A3003 RMK CI1 HZ SLP154

CYYC;2009-09-01 17:00;CYYC 011700Z 36007KT 20SM FEW100 23/11 A3003 RMK AC1 SLP154

CYYC;2009-09-01 18:00;CYYC 011800Z 36005KT 25SM FEW100 24/10 A3003 RMK AC1 SLP161

CYYC;2009-09-01 19:00;CYYC 011900Z 30002KT 25SM FEW100 26/11 A3003 RMK AC1 SLP159

CYYC;2009-09-01 20:00;CYYC 012000Z 18003KT 25SM FEW100 26/10 A3002 RMK AC1 SLP156

CYYC;2009-09-01 21:00;CYYC 012100Z 10003KT 25SM FEW100 27/10 A3002 RMK AC1 SLP157

CYYC;2009-09-01 22:00;CYYC 012200Z 13006KT 20SM FEW150 28/09 A3001 RMK AC1 SLP154

CYYC;2009-09-01 23:00;CYYC 012300Z 10006KT 20SM FEW100 FEW150 28/11 A2999 RMK AC1AC1 SLP148

CYYC;2009-09-02 00:00;CYYC 020000Z 12010KT 25SM FEW150 FEW240 27/10 A2999 RMK AC1CI1 TR CI SLP141

CYYC;2009-09-02 01:00;CYYC 020100Z 13007KT 25SM FEW060 FEW150 FEW230 26/11 A2999 RMK CU1AC1CI1 TR CU SLP141

CYYC;2009-09-02 02:00;CYYC 020200Z 13007KT 20SM FEW090 FEW220 SCT250 23/11 A2999 RMK AC1CC1CI2 HZ SLP141

CYYC;2009-09-02 03:00;CYYC 020300Z 18007KT 15SM FEW080 FEW170 OVC240 23/11 A3002 RMK AC1AC2CI2 HZ SLP149

CYYC;2009-09-02 04:00;CYYC 020400Z 28004KT 15SM FEW140 OVC230 22/09 A3003 RMK AC2CI3 SLP153

CYYC;2009-09-02 05:00;CYYC 020500Z 03004KT 15SM FEW140 BKN250 19/10 A3002 RMK AC1CI2 SLP151

CYYC;2009-09-02 06:00;CYYC 020600Z 02004KT 15SM FEW160 BKN240 17/09 A3003 RMK AC2CI2 SLP158

CYYC;2009-09-02 07:00;CYYC 020700Z 27002KT 15SM FEW160 BKN240 17/09 A3003 RMK AC2CI2 SLP159

CYYC;2009-09-02 08:00;CYYC 020800Z 30002KT 15SM FEW140 BKN250 17/09 A3003 RMK AC1CI2 SLP158

CYYC;2009-09-02 09:00;CYYC 020900Z 34003KT 15SM FEW140 FEW250 15/09 A3003 RMK AC1CI1 AC TR SLP157

CYYC;2009-09-02 10:00;CYYC 021000Z 30004KT 15SM FEW140 SCT250 14/09 A3003 RMK AC1CI1 AC TR SLP157

CYYC;2009-09-02 11:00;CYYC 021100Z 26003KT 15SM FEW140 FEW250 13/09 A3005 RMK AC1CI1 SLP161

CYYC;2009-09-02 12:00;CYYC 021200Z 30007KT 15SM FEW089 SCT230 16/09 A3005 RMK AC2CI1 SLP162

CYYC;2009-09-02 13:00;CYYC 021300Z 05004KT 40SM FEW080 FEW100 BKN250 12/09 A3002 RMK AC1AC1CI2 SLP152

CYYC;2009-09-02 14:00;CYYC 021400Z 21005KT 40SM FEW090 FEW220 15/09 A3003 RMK AC1CI1 SLP155

CYYC;2009-09-02 15:00;CYYC 021500Z 22004KT 40SM FEW040 FEW090 FEW220 19/10 A3003 RMK CU1AC1CI1 SLP158

CYYC;2009-09-02 16:00;CYYC 021600Z 23010KT 40SM FEW040 FEW090 FEW220 21/10 A3004 RMK CU1AC1CI1 SLP159

CYYC;2009-09-02 17:00;CYYC 021700Z 23007KT 40SM FEW050 FEW220 23/10 A3004 RMK CU1CI1 SLP159

CYYC;2009-09-02 18:00;CYYC 021800Z 23006KT 40SM FEW070 FEW230 27/09 A3003 RMK CU1CI1 SLP157

CYYC;2009-09-02 19:00;CYYC 021900Z CCA 27010KT 40SM FEW080 FEW230 27/07 A3003 RMK CU1CI1 SLP156

CYYC;2009-09-02 20:00;CYYC 022000Z 28013G20KT 40SM FEW090 FEW230 29/06 A3001 RMK CU1CI1 CI TR SLP151

CYYC;2009-09-02 21:00;CYYC 022100Z 27013KT 40SM FEW090 FEW230 29/06 A3001 RMK CU1CI1 CI TR SLP149

CYYC;2009-09-02 22:00;CYYC 022200Z 27012KT 40SM FEW100 FEW230 29/04 A3000 RMK CU1CI1 SLP146

CYYC;2009-09-02 23:00;CYYC 022300Z 31011G16KT 40SM FEW100 FEW230 29/04 A3000 RMK CU1CI1 SLP144

CYYC;2009-09-03 00:00;CYYC 030000Z 26012KT 40SM FEW100 FEW230 29/04 A2999 RMK CU1CI1 SLP141

CYYC;2009-09-03 01:00;CYYC 030100Z 27009KT 40SM FEW090 FEW180 FEW230 28/05 A2999 RMK CU1AC1CI1 SLP141

CYYC;2009-09-03 02:00;CYYC 030200Z 22005KT 40SM FEW080 FEW230 26/05 A2999 RMK CU1CI0 CU TR SLP139

CYYC;2009-09-03 03:00;CYYC 030300Z 22005KT 15SM FEW080 FEW230 23/06 A3000 RMK CU1CI0 CU TR SLP146

CYYC;2009-09-03 04:00;CYYC 030400Z 22005KT 15SM FEW240 21/08 A3001 RMK CI1 CI TR SLP150

CYYC;2009-09-03 05:00;CYYC 030500Z 22008KT 15SM FEW240 19/07 A3002 RMK CI0 SLP152

CYYC;2009-09-03 06:00;CYYC 030600Z 24002KT 15SM FEW240 16/07 A3002 RMK CI1 SLP151

CYYC;2009-09-03 07:00;CYYC 030700Z 22005KT 15SM FEW240 15/07 A3002 RMK CI1 SLP152

CYYC;2009-09-03 08:00;CYYC 030800Z 33004KT 15SM FEW240 15/06 A3001 RMK CI1 SLP149

CYYC;2009-09-03 09:00;CYYC 030900Z 01005KT 15SM FEW240 13/06 A3001 RMK CI1 SLP150

CYYC;2009-09-03 10:00;CYYC 031000Z 31004KT 15SM FEW180 FEW250 12/06 A3000 RMK AC1CI1 CI TR SLP146

CYYC;2009-09-03 11:00;CYYC 031100Z 26002KT 15SM FEW180 FEW250 11/06 A2999 RMK AC1CI1 CI TR SLP144

CYYC;2009-09-03 12:00;CYYC 031200Z 23005KT 15SM FEW080 FEW170 BKN250 11/06 A2999 RMK AC1AC1CI2 SLP145

CYYC;2009-09-03 13:00;CYYC 031300Z 00000KT 30SM FEW100 BKN250 10/06 A2998 RMK AC1CI2 AC TR SLP142

CYYC;2009-09-03 14:00;CYYC 031400Z 25003KT 40SM FEW100 FEW170 BKN220 11/07 A2997 RMK AC1AS1CI1 CONTRAILS / AC TR SLP139

CYYC;2009-09-03 15:00;CYYC 031500Z 20003KT 40SM FEW100 FEW170 BKN220 16/08 A2996 RMK AC1AS1CI1 CONTRAILS / AC TR SLP137

CYYC;2009-09-03 16:00;CYYC 031600Z 21004KT 40SM FEW100 BKN220 18/09 A2993 RMK AC1CI2 CONTRAILS SLP130

CYYC;2009-09-03 17:00;CYYC 031700Z 19004KT 40SM FEW130 FEW170 BKN230 24/07 A2991 RMK AC1AC2CI1 ACC ASOCTD SSW SLP124

CYYC;2009-09-03 18:00;CYYC 031800Z 18010KT 40SM FEW130 BKN170 BKN230 26/07 A2990 RMK AC2AC2CI0 SLP113

CYYC;2009-09-03 19:00;CYYC 031900Z 16012KT 40SM BKN150 BKN170 BKN230 27/08 A2987 RMK AC6AC1CI0 SLP104

CYYC;2009-09-03 20:00;CYYC 032000Z 17015G22KT 40SM FEW100 FEW150 BKN230 30/05 A2983 RMK CU1AC1CI0 CONTRAILS / CU TR SLP090

CYYC;2009-09-03 21:00;CYYC 032100Z 18017G26KT 30SM FEW100 FEW150 BKN230 30/05 A2979 RMK CU1AC1CI1 HZ / CONTRAILS / CU+AC TR SLP073

CYYC;2009-09-03 22:00;CYYC 032200Z 18023G32KT 20SM SCT100TCU SCT150 BKN210 29/04 A2975 RMK TCU3AC1CI0 TCU S-W / CB EMBD / SH S-W / VIS S-W LWR / HZ / SLP062

CYYC;2009-09-03 22:15;CYYC 032215Z 18033G45KT 10SM -SHRA BKN100TCU BKN120 BKN210 28/ RMK TCU5AC1CI0 CB EMBD/ VIS S-W LWR / HZ

CYYC;2009-09-03 22:50;CYYC 032250Z 24026G40KT 30SM VCSH SCT120TCU BKN150 BKN210 27/ RMK TCU4AC1CI0 HZ+DU / SH ALQDS/WSHFT 2250

CYYC;2009-09-03 23:00;CYYC 032300Z 23023G34KT 30SM VCSH SCT120TCU BKN150 BKN210 25/05 A2976 RMK TCU4AC2CI0 HZ+DU / SH ALQDS / VIS N LWR SLP065

CYYC;2009-09-04 00:00;CYYC 040000Z 19029G35KT 40SM FEW120TCU FEW220 26/05 A2975 RMK TCU2CI0 SH N-E + W SLP068

CYYC;2009-09-04 01:00;CYYC 040100Z 19019G28KT 20SM FEW060 FEW220 23/02 A2973 RMK SC2CI0 TCU ASOCTD NE-E / SH NE+W / VIS SW LWR SLP062

CYYC;2009-09-04 02:00;CYYC 040200Z 28024G33KT 12SM FEW080 SCT120 BKN220 18/04 A2979 RMK AC1AC2CI2 BD S-W SLP080

CYYC;2009-09-04 03:00;CYYC 040300Z 26025G34KT 15SM FEW080 BKN110 BKN220 15/04 A2983 RMK AC2AC3CI1 SLP105

CYYC;2009-09-04 04:00;CYYC 040400Z 26013G19KT 15SM FEW085 SCT150 14/04 A2986 RMK AC1AC2 SLP115

CYYC;2009-09-04 05:00;CYYC 040500Z 26018KT 15SM FEW120 14/01 A2985 RMK AC1 AC TR SLP109

CYYC;2009-09-04 06:00;CYYC 040600Z 25018G24KT 15SM SKC 14/M01 A2982 RMK SLP089

CYYC;2009-09-04 07:00;CYYC 040700Z 26010G17KT 15SM SCT200 13/M01 A2983 RMK CI2 SLP090

CYYC;2009-09-04 08:00;CYYC 040800Z 24010KT 15SM SCT190 12/M01 A2982 RMK AC2 SLP089

CYYC;2009-09-04 09:00;CYYC 040900Z 23015G22KT 15SM FEW240 14/M01 A2981 RMK CI1 886.9 SLP080

CYYC;2009-09-04 10:00;CYYC 041000Z 14004KT 15SM FEW240 11/M01 A2983 RMK CI1 CI TR SLP085

CYYC;2009-09-04 11:00;CYYC 041100Z 21004KT 15SM FEW240 11/M00 A2984 RMK CI1 CI TR SLP087

CYYC;2009-09-04 12:00;CYYC 041200Z 26005KT 15SM SKC 13/M00 A2984 RMK SLP096

CYYC;2009-09-04 13:00;CYYC 041300Z 28003KT 40SM FEW085 FEW140 14/M00 A2986 RMK AC1AC1 CLDS TR/ ACSL S SLP102

CYYC;2009-09-04 14:00;CYYC 041400Z 26012KT 40SM FEW085 FEW140 FEW250 14/01 A2987 RMK AC1AC1CI0 SLP106

CYYC;2009-09-04 15:00;CYYC 041500Z 26018KT 40SM FEW085 FEW140 BKN240 16/01 A2989 RMK AC1AC1CI0 CONTRAILS SLP124

CYYC;2009-09-04 16:00;CYYC 041600Z 27014G20KT 40SM FEW085 FEW140 SCT210 18/02 A2990 RMK AC1AC1CI0 SLP127

CYYC;2009-09-04 17:00;CYYC 041700Z 26015KT 40SM FEW080 FEW140 BKN210 20/03 A2991 RMK AC1AC1CI0 SLP132

CYYC;2009-09-04 18:00;CYYC 041800Z 29010KT 40SM FEW100 FEW140 FEW210 BKN250 21/03 A2991 RMK AC1AC1CI1CI0 SLP126

CYYC;2009-09-04 19:00;CYYC 041900Z 26008KT 40SM FEW090 FEW140 SCT230 22/04 A2991 RMK AC1AC1CI0 SLP127

CYYC;2009-09-04 20:00;CYYC 042000Z 29003KT 40SM FEW080 FEW120 FEW230 23/02 A2991 RMK CU1AC1CI0 CONTRAILS / CU TR SLP125

CYYC;2009-09-04 21:00;CYYC 042100Z 32010G17KT 40SM FEW080 FEW120 BKN230 24/M00 A2989 RMK CU1AC1CI1 SLP116

CYYC;2009-09-04 21:41;CYYC 042141Z 24012G17KT 40SM FEW090 FEW120 BKN230 24/ RMK CU1AC1CI1 WSHFT 2135 Z /CU TR

CYYC;2009-09-04 22:00;CYYC 042200Z 27013G18KT 40SM FEW090 FEW180 BKN250 23/00 A2991 RMK CU1AS1CI0 SLP121

CYYC;2009-09-04 23:00;CYYC 042300Z 25013KT 40SM FEW090 FEW180 FEW250 24/01 A2991 RMK CU1AS1CI0 CONTRAILS SLP120

CYYC;2009-09-05 00:00;CYYC 050000Z 28012KT 40SM FEW090 FEW180 FEW250 23/01 A2992 RMK CU1AS1CI0 CONTRAILS SLP128

CYYC;2009-09-05 01:00;CYYC 050100Z 36004KT 40SM FEW090 FEW180 FEW250 21/06 A2994 RMK CU1AS1CI0 CONTRAILS SLP133

CYYC;2009-09-05 02:00;CYYC 050200Z 03007KT 40SM FEW090 FEW180 FEW250 19/06 A2996 RMK AC1AC1CI0 SLP139

CYYC;2009-09-05 03:00;CYYC 050300Z 02009KT 15SM FEW090 FEW180 FEW250 16/07 A3000 RMK AC1AC1CI0 SLP160

CYYC;2009-09-05 04:00;CYYC 050400Z 34007KT 15SM FEW180 FEW250 14/07 A3002 RMK AC1CI0 SLP167

CYYC;2009-09-05 05:00;CYYC 050500Z 36006KT 15SM FEW180 FEW250 12/06 A3003 RMK AC1CI0 SLP169

CYYC;2009-09-05 06:00;CYYC 050600Z 34005KT 15SM FEW180 FEW250 12/06 A3003 RMK AC1CI1 SLP170

CYYC;2009-09-05 07:00;CYYC 050700Z 33004KT 15SM FEW140 FEW250 11/06 A3004 RMK AC1CI1 CLDS RE SLP172

CYYC;2009-09-05 08:00;CYYC 050800Z 34002KT 15SM FEW140 FEW250 10/05 A3005 RMK AC1CI1 CLDS TR SLP174

CYYC;2009-09-05 09:00;CYYC 050900Z 03002KT 15SM FEW250 09/05 A3004 RMK CI1 CI TR SLP172

CYYC;2009-09-05 10:00;CYYC 051000Z 34003KT 15SM SCT220 08/05 A3003 RMK CI2 SLP171

CYYC;2009-09-05 11:00;CYYC 051100Z 36004KT 15SM FEW170 BKN220 08/05 A3003 RMK AC1CI2 SLP170

CYYC;2009-09-05 12:00;CYYC 051200Z 30002KT 15SM FEW090 FEW170 SCT240 07/05 A3004 RMK AC1AC1CI1 SLP175

CYYC;2009-09-05 13:00;CYYC 051300Z 00000KT 40SM FEW090 FEW180 BKN250 07/05 A3003 RMK AC1AC1CI2 SLP174

CYYC;2009-09-05 14:00;CYYC 051400Z 00000KT 40SM FEW100 FEW200 BKN250 07/05 A3003 RMK AC1CI1CI1 SLP174

CYYC;2009-09-05 15:00;CYYC 051500Z 21003KT 40SM FEW100 FEW200 BKN250 11/07 A3004 RMK AC1CI2CI1 SLP180

CYYC;2009-09-05 16:00;CYYC 051600Z 16009KT 40SM FEW100 FEW160 SCT200 BKN250 15/08 A3001 RMK AC1AC2CI1CI0 SLP171

CYYC;2009-09-05 17:00;CYYC 051700Z 18013KT 40SM FEW150 FEW200 BKN250 16/08 A3001 RMK AC1CI2CI0 SLP171

CYYC;2009-09-05 18:00;CYYC 051800Z 15013KT 40SM SCT160 SCT200 BKN250 18/07 A2998 RMK AC3CI1CI0 SLP157

CYYC;2009-09-05 19:00;CYYC 051900Z 16013G20KT 40SM FEW100 FEW160 SCT200 BKN250 19/08 A2996 RMK AC1AC2CI1CI0 SLP150

CYYC;2009-09-05 20:00;CYYC 052000Z 16014G21KT 40SM FEW100 FEW160 SCT200 BKN250 21/08 A2992 RMK AC1AC2CI2CI0 SLP139

CYYC;2009-09-05 21:00;CYYC 052100Z 14015G21KT 40SM FEW090 FEW130 SCT200 BKN250 22/07 A2990 RMK AC1AC1CI2CI0 SLP127

CYYC;2009-09-05 22:00;CYYC 052200Z 15012G20KT 40SM FEW090 FEW130 SCT200 BKN250 22/07 A2988 RMK AC1AC2CI2CI0 SLP120

CYYC;2009-09-05 23:00;CYYC 052300Z 14014G19KT 40SM FEW065 FEW130 SCT200 BKN250 23/06 A2985 RMK CU1AC2CI2CI0 SLP112

CYYC;2009-09-06 00:00;CYYC 060000Z 16013G18KT 40SM FEW065 SCT120 BKN200 BKN250 22/06 A2984 RMK CU1AC3CI2CI0 SLP107

CYYC;2009-09-06 01:00;CYYC 060100Z 16013G19KT 30SM FEW060 FEW120 BKN200 BKN250 22/07 A2982 RMK SC1AC2CI2CI0 SLP103

CYYC;2009-09-06 02:00;CYYC 060200Z 16010KT 20SM FEW060 SCT120 BKN180 BKN250 20/06 A2983 RMK SC2AC2AC2CI0 SLP105

CYYC;2009-09-06 02:54;CYYC 060254Z 16008KT 15SM -SHRA FEW060 BKN120 BKN250 19/ RMK SC1AC6CI0

CYYC;2009-09-06 03:00;CYYC 060300Z 16013G19KT 15SM -SHRA FEW060 BKN110 BKN180 BKN240 19/07 A2984 RMK SC1AC6AC1CI0 SH ALQDS SLP108

CYYC;2009-09-06 04:00;CYYC 060400Z 13014KT 15SM -SHRA SCT090 OVC120 19/07 A2981 RMK AC3AC4 SLP097

CYYC;2009-09-06 04:50;CYYC 060450Z 14008KT 15SM SCT090 OVC140 19/ RMK AC3AC4

CYYC;2009-09-06 05:00;CYYC 060500Z 14009KT 15SM OVC140 19/06 A2981 RMK AC7 SLP097

CYYC;2009-09-06 06:00;CYYC 060600Z 16009KT 15SM OVC150 19/07 A2979 RMK AC7 SLP080

CYYC;2009-09-06 07:00;CYYC 060700Z 16006KT 15SM BKN150 OVC180 17/08 A2979 RMK AC6AS2 SLP080

CYYC;2009-09-06 08:00;CYYC 060800Z 21003KT 15SM OVC090 18/08 A2981 RMK AC7 SLP086

CYYC;2009-09-06 09:00;CYYC 060900Z 10004KT 15SM SCT090 BKN250 15/08 A2977 RMK AC2CI0 SLP074

CYYC;2009-09-06 10:00;CYYC 061000Z 15003KT 15SM SCT090 BKN250 15/09 A2975 RMK AC3CI0 SLP069

CYYC;2009-09-06 11:00;CYYC 061100Z 14005KT 15SM FEW090 SCT250 14/09 A2974 RMK AC1CI0 SLP064

CYYC;2009-09-06 12:00;CYYC 061200Z 17005KT 15SM FEW090 BKN240 12/08 A2973 RMK AC1CI1 SLP063

CYYC;2009-09-06 13:00;CYYC 061300Z 15004KT 30SM FEW090 SCT180 BKN240 12/09 A2972 RMK AC1AS2CI0 SLP061

CYYC;2009-09-06 14:00;CYYC 061400Z 24004KT 30SM FEW060 SCT180 OVC240 13/09 A2972 RMK SC1AC3CI3 SLP060

CYYC;2009-09-06 15:00;CYYC 061500Z 21003KT 30SM FEW060 BKN190 OVC240 14/10 A2971 RMK SC1AC4CI2 SLP059

CYYC;2009-09-06 16:00;CYYC 061600Z 15006KT 30SM FEW060 BKN190 OVC240 17/10 A2971 RMK SC1AC4CI2 SLP057

CYYC;2009-09-06 17:00;CYYC 061700Z 16008KT 30SM FEW060 FEW090 BKN190 OVC240 17/11 A2971 RMK SC1AC2AC3CI2 CU PRSNT E/ SC TR SLP057

CYYC;2009-09-06 18:00;CYYC 061800Z 18009KT 30SM FEW040 FEW060 BKN160 OVC240 20/11 A2970 RMK CU1SC1AC4CI2 CU TR SLP047

CYYC;2009-09-06 19:00;CYYC 061900Z 20009KT 30SM FEW040 FEW060 BKN170 OVC240 20/10 A2969 RMK CU1SC1AC4CI2 CU TR SLP044

CYYC;2009-09-06 20:00;CYYC 062000Z 22012G17KT 30SM FEW040 FEW060 SCT090 OVC180 22/07 A2969 RMK CU1SC2AC2AC4 SLP044

CYYC;2009-09-06 21:00;CYYC 062100Z 22017G22KT 40SM FEW040 FEW065 BKN180 OVC250 21/04 A2970 RMK CU1SC1AC4CI2 SLP050

CYYC;2009-09-06 22:00;CYYC 062200Z 21013G21KT 40SM FEW040 FEW065 SCT180 OVC230 20/04 A2970 RMK CU1SC1AC2CI3 SLP051

CYYC;2009-09-06 23:00;CYYC 062300Z 21020G27KT 40SM FEW045 SCT180 BKN210 21/01 A2968 RMK CU1AC2CI2 SLP045

CYYC;2009-09-07 00:00;CYYC 070000Z 20019G25KT 40SM FEW050 FEW180 BKN240 20/01 A2968 RMK CU1AC2CI2 CU TR SLP049

CYYC;2009-09-07 01:00;CYYC 070100Z 24020G30KT 40SM FEW060 FEW180 SCT240 18/M00 A2968 RMK CU1AC2CI2 SLP050

CYYC;2009-09-07 02:00;CYYC 070200Z 24019G25KT 40SM FEW060 17/M00 A2972 RMK CU1 SH NW SLP061

CYYC;2009-09-07 03:00;CYYC 070300Z 23009KT 15SM FEW050 FEW090 FEW180 14/01 A2973 RMK CF1AC1AC1 SH NW SLP072

CYYC;2009-09-07 04:00;CYYC 070400Z 22004KT 15SM FEW180 13/00 A2974 RMK AC1 SLP076

CYYC;2009-09-07 05:00;CYYC 070500Z 00000KT 15SM FEW150 10/01 A2976 RMK AC1 SLP082

CYYC;2009-09-07 06:00;CYYC 070600Z 18006KT 15SM FEW150 10/M01 A2977 RMK AC1 SLP082

CYYC;2009-09-07 07:00;CYYC 070700Z 31003KT 15SM FEW150 07/01 A2975 RMK AC1 SLP078

CYYC;2009-09-07 08:00;CYYC 070800Z 34007KT 15SM FEW150 FEW180 06/M00 A2975 RMK AC1AC1 SLP078

CYYC;2009-09-07 09:00;CYYC 070900Z 19007KT 15SM FEW090 FEW180 04/M01 A2975 RMK AC1AC1 SLP084

CYYC;2009-09-07 10:00;CYYC 071000Z 00000KT 15SM FEW090 FEW180 05/M00 A2976 RMK AC1AC1 SLP085

CYYC;2009-09-07 11:00;CYYC 071100Z 24004KT 15SM FEW180 10/M02 A2976 RMK AC1 SLP086

CYYC;2009-09-07 12:00;CYYC 071200Z 21006KT 15SM FEW090 07/M01 A2977 RMK AC1 SLP087

CYYC;2009-09-07 13:00;CYYC 071300Z 23007KT 40SM FEW130 07/M01 A2977 RMK AC2 SLP086

CYYC;2009-09-07 14:00;CYYC 071400Z 23008KT 40SM FEW090 SCT140 10/M02 A2977 RMK AC1AC2 ACC ASOCTD NW SLP088

CYYC;2009-09-07 15:00;CYYC 071500Z 25010KT 40SM FEW042 FEW090 BKN140 11/M00 A2978 RMK CU1AC1AC6 VIRGA NW SLP094

CYYC;2009-09-07 16:00;CYYC 071600Z 25008KT 40SM FEW044 FEW090 BKN160 BKN210 11/00 A2978 RMK CU1AC1AC6CI1 SLP095

CYYC;2009-09-07 17:00;CYYC 071700Z 22004KT 40SM FEW044 SCT140 BKN180 12/01 A2978 RMK CU1AC2AC4 SLP095

CYYC;2009-09-07 18:00;CYYC 071800Z 25006KT 40SM FEW060 BKN170 BKN210 15/M02 A2978 RMK CU1AC6CI0 SLP094

CYYC;2009-09-07 19:00;CYYC 071900Z 25016KT 40SM FEW070 FEW170 SCT210 17/M02 A2977 RMK CU1AC1CI1 SH N+NE SLP091

CYYC;2009-09-07 20:00;CYYC 072000Z 27021G28KT 40SM FEW075 FEW160 SCT240 17/M02 A2976 RMK CU1AC1CI0 SH NE SLP087

CYYC;2009-09-07 21:00;CYYC 072100Z 27017G27KT 40SM FEW080 FEW140 FEW270 17/M03 A2975 RMK CU1AC1CI1 SH DIST SW / TCU ASOCTD SLP088

CYYC;2009-09-07 22:00;CYYC 072200Z 28022KT 40SM FEW080 FEW140 FEW270 18/M02 A2976 RMK CU1AC1CI1 SH NE+SW / TCU ASOCTD SLP091

CYYC;2009-09-07 23:00;CYYC 072300Z 28018G24KT 40SM FEW080 FEW120 FEW270 16/M01 A2976 RMK CU1AC1CI1 SH N+SW / TCU ASOCTD SLP092

CYYC;2009-09-08 00:00;CYYC 080000Z 27020KT 40SM FEW080 FEW120 FEW270 16/M02 A2977 RMK CU1AC1CI1 SH NE+SE+SW / TCU ASOCTD SLP093

CYYC;2009-09-08 01:00;CYYC 080100Z 25016G26KT 40SM FEW080CB FEW120 FEW290 15/M02 A2977 RMK CB1AC1CI1 SH E+SE SLP094

CYYC;2009-09-08 02:00;CYYC 080200Z 25014G19KT 40SM FEW050 FEW110 FEW250 13/M01 A2977 RMK SC1AC1CI1 SC TR SLP093

CYYC;2009-09-08 03:00;CYYC 080300Z 27010G15KT 15SM FEW050 FEW110 BKN230 12/M02 A2978 RMK SC1AC1CI3 SLP096

CYYC;2009-09-08 04:00;CYYC 080400Z 26006KT 15SM FEW230 11/M02 A2978 RMK CI2 SLP097

CYYC;2009-09-08 05:00;CYYC 080500Z 05003KT 15SM SCT230 09/M01 A2978 RMK CI2 SLP097

CYYC;2009-09-08 06:00;CYYC 080600Z 31004KT 15SM FEW180 BKN240 10/M02 A2978 RMK AC1CI4 SLP092

CYYC;2009-09-08 07:00;CYYC 080700Z 15002KT 15SM FEW170 SCT240 09/M02 A2977 RMK AC1CI1 SLP091

CYYC;2009-09-08 08:00;CYYC 080800Z 01002KT 15SM FEW170 FEW240 08/M02 A2978 RMK AC1CI1 AC TR SLP092

CYYC;2009-09-08 09:00;CYYC 080900Z 15002KT 15SM FEW170 FEW250 10/M03 A2977 RMK AC1CI1 SLP088

CYYC;2009-09-08 10:00;CYYC 081000Z 13005KT 15SM SKC 09/M03 A2976 RMK SLP085

CYYC;2009-09-08 11:00;CYYC 081100Z 16002KT 15SM FEW210 11/M03 A2976 RMK CI1 CI TR SLP084

CYYC;2009-09-08 12:00;CYYC 081200Z 26010KT 15SM FEW240 10/M03 A2976 RMK CI2 SLP084

CYYC;2009-09-08 13:00;CYYC 081300Z 11002KT 30SM FEW050 FEW110 FEW250 11/M03 A2976 RMK SC1AC1CI0 SLP085

CYYC;2009-09-08 14:00;CYYC 081400Z CCA 28012KT 40SM FEW052 FEW150 FEW210 12/M02 A2977 RMK CU1AC1CI1 ACSL W SLP089

CYYC;2009-09-08 15:00;CYYC 081500Z 28014G20KT 40SM FEW056 FEW190 FEW280 13/M02 A2979 RMK CU1AC1CI1 SLP096

CYYC;2009-09-08 16:00;CYYC 081600Z 28020G29KT 40SM FEW065 FEW190 FEW260 15/M02 A2979 RMK CU1AC1CI1 SLP098

CYYC;2009-09-08 17:00;CYYC 081700Z 29022G28KT 40SM FEW070 FEW170 FEW260 16/M02 A2980 RMK CU1AC1CI1 SLP099

CYYC;2009-09-08 18:00;CYYC 081800Z 27018G26KT 40SM FEW075 FEW140 FEW260 17/M02 A2981 RMK CU1AC1CI1 SLP100

CYYC;2009-09-08 19:00;CYYC 081900Z 27017G26KT 40SM FEW078 FEW140 FEW280 18/M02 A2980 RMK CU1AC1CI1 SLP099

CYYC;2009-09-08 20:00;CYYC 082000Z 27016G22KT 40SM FEW080 FEW140 FEW280 18/M02 A2980 RMK CU1AC1CI0 SLP099

CYYC;2009-09-08 21:00;CYYC 082100Z 28017KT 40SM FEW080 FEW100 19/M02 A2980 RMK CU1AC1 SLP097

CYYC;2009-09-08 22:00;CYYC 082200Z CCA 26015G20KT 40SM FEW080 FEW240 18/M02 A2981 RMK CU1CI1 SLP100

CYYC;2009-09-08 23:00;CYYC 082300Z 27020G31KT 40SM FEW080 FEW180 FEW290 19/M01 A2981 RMK CU1AC1CI1 SLP100

CYYC;2009-09-09 00:00;CYYC 090000Z 28021G27KT 40SM FEW080 FEW180 FEW300 17/M02 A2982 RMK CU1AC1CI1 SLP105

CYYC;2009-09-09 01:00;CYYC 090100Z 27020G28KT 40SM FEW080 FEW160 FEW300 16/M02 A2983 RMK CU1AC1CI1 ACSL SLP106

CYYC;2009-09-09 02:00;CYYC 090200Z 28015G22KT 40SM FEW080 FEW110 FEW250 15/M02 A2983 RMK CU1AC1CI1 CLDS TR SLP108

CYYC;2009-09-09 03:00;CYYC 090300Z 27015KT 15SM FEW110 FEW250 14/M03 A2985 RMK AC1CI1 BOTH CLDS TR SLP117

CYYC;2009-09-09 04:00;CYYC 090400Z 27013G19KT 15SM FEW150 FEW250 13/M02 A2987 RMK AC1CI1 BOTH CLDS TR SLP123

CYYC;2009-09-09 05:00;CYYC 090500Z 30006KT 15SM FEW250 11/M03 A2988 RMK CI1 CI TR SLP124

CYYC;2009-09-09 06:00;CYYC 090600Z 27003KT 15SM SKC 11/M03 A2988 RMK SLP125

CYYC;2009-09-09 07:00;CYYC 090700Z 27010G15KT 15SM SKC 12/M04 A2988 RMK SLP125

CYYC;2009-09-09 08:00;CYYC 090800Z 28011G16KT 15SM SKC 12/M04 A2989 RMK SLP129

CYYC;2009-09-09 09:00;CYYC 090900Z 30008KT 15SM SKC 12/M03 A2990 RMK SLP127

CYYC;2009-09-09 10:00;CYYC 091000Z 29003KT 15SM SKC 11/M02 A2990 RMK SLP129

CYYC;2009-09-09 11:00;CYYC 091100Z 20006KT 15SM FEW075 FEW180 11/M02 A2992 RMK AC1AC1 CLDS TR SLP133

CYYC;2009-09-09 12:00;CYYC 091200Z 16005KT 15SM FEW075 FEW180 11/M02 A2991 RMK AC1AC1 CLDS TR SLP135

CYYC;2009-09-09 13:00;CYYC 091300Z 20007KT 40SM FEW075 BKN180 BKN240 07/M01 A2991 RMK AC1AS3CI0 SLP136

CYYC;2009-09-09 14:00;CYYC 091400Z 19005KT 40SM FEW100 FEW180 BKN240 08/M01 A2992 RMK AC1AS1CI0 CONTRAILS / AC TR SLP137

CYYC;2009-09-09 15:00;CYYC 091500Z 21005KT 40SM FEW100 FEW180 BKN240 10/00 A2993 RMK AC1AS1CI1 AC + AS TR SLP146

CYYC;2009-09-09 16:00;CYYC 091600Z 18006KT 40SM FEW056 FEW130 FEW170 BKN240 13/M01 A2992 RMK CU1AC1AS1CI0 CONTRAILS / CU TR SLP145

CYYC;2009-09-09 17:00;CYYC 091700Z 19009KT 40SM FEW056 FEW150 FEW180 BKN250 18/M01 A2991 RMK CU1AC1AS2CI0 CU + AC TR SLP142

CYYC;2009-09-09 18:00;CYYC 091800Z 19009KT 40SM FEW060 FEW110 BKN150 17/M01 A2990 RMK CU1AC1AS6 CU + AC TR SLP133

CYYC;2009-09-09 19:00;CYYC 091900Z 18008KT 40SM FEW060 BKN120 BKN150 16/03 A2989 RMK CU1AC5AS2 CU TR SLP130

CYYC;2009-09-09 20:00;CYYC 092000Z 17007KT 40SM SCT110 BKN150 BKN210 17/02 A2989 RMK AC4AS2CI0 VIRGA E / CONTRAILS SLP129

CYYC;2009-09-09 21:00;CYYC 092100Z 21004KT 40SM FEW050 BKN090 17/03 A2990 RMK CU1AC6 VIRGA E +W / CONTRAILS SLP131

CYYC;2009-09-09 22:00;CYYC 092200Z 23005KT 40SM FEW050 BKN080 19/03 A2989 RMK CU1AC6 SLP128

CYYC;2009-09-09 23:00;CYYC 092300Z 27013KT 40SM FEW060 FEW090 BKN150 19/04 A2989 RMK CU1AC1AS4 SLP127

CYYC;2009-09-10 00:00;CYYC 100000Z 28012KT 40SM FEW070 FEW150 FEW180 21/03 A2988 RMK CU1AC1AS1 CU + AC TR SLP121

CYYC;2009-09-10 01:00;CYYC 100100Z 28010G15KT 40SM FEW060 FEW090 FEW150 FEW220 20/03 A2989 RMK CU1AC1AC2CI0 SLP124

CYYC;2009-09-10 02:00;CYYC 100200Z 29011G16KT 40SM FEW060 FEW090 SCT180 BKN230 18/03 A2990 RMK SC1AC1AC2CI1 SC TR SLP125

CYYC;2009-09-10 03:00;CYYC 100300Z 31009KT 15SM FEW065 FEW170 SCT230 16/03 A2992 RMK SC1AC2CI1 SC TR SLP141

CYYC;2009-09-10 04:00;CYYC 100400Z 20003KT 15SM FEW080 FEW170 14/03 A2993 RMK AC1AC1 SLP145

CYYC;2009-09-10 05:00;CYYC 100500Z 27002KT 15SM FEW100 14/03 A2994 RMK AC1 AC TR SLP148

CYYC;2009-09-10 06:00;CYYC 100600Z 03004KT 15SM FEW130 FEW240 12/04 A2994 RMK AC1CI1 AC TR SLP145

CYYC;2009-09-10 07:00;CYYC 100700Z 32006KT 15SM FEW120 BKN240 14/04 A2995 RMK AC1CI3 AC TR SLP146

CYYC;2009-09-10 09:00;CYYC 100900Z 00000KT 15SM FEW080 FEW140 OVC230 13/04 A2997 RMK AC1AC1CI3 SLP152

CYYC;2009-09-10 10:00;CYYC 101000Z 33008KT 15SM FEW080 FEW140 OVC240 13/04 A2999 RMK AC1AC1CI3 SLP158

CYYC;2009-09-10 11:00;CYYC 101100Z 30010KT 15SM FEW080 FEW130 OVC240 14/03 A3001 RMK AC1AC1CI3 SLP164

CYYC;2009-09-10 12:00;CYYC 101200Z 34005KT 15SM FEW070 FEW130 BKN230 11/03 A3003 RMK AC1AC1CI2 SLP170

CYYC;2009-09-10 13:00;CYYC 101300Z 33007KT 40SM FEW070 SCT090 BKN130 BKN220 10/03 A3006 RMK AC1AC2AC2CI1 SLP181

CYYC;2009-09-10 14:00;CYYC 101400Z 32010KT 40SM FEW036TCU SCT090 11/02 A3011 RMK TCU1AC2 VIRGA ALQDS / TCU N SLP197

CYYC;2009-09-10 15:00;CYYC 101500Z 35015G22KT 40SM FEW040 FEW100 BKN150 13/04 A3016 RMK CU1AC2AC3 SH W SLP219

CYYC;2009-09-10 16:00;CYYC 101600Z 35013G21KT 40SM FEW100 FEW150 14/04 A3019 RMK AC1AC1 SH DIST S + E SLP230

CYYC;2009-09-10 17:00;CYYC 101700Z 36017G22KT 40SM FEW100 FEW150 15/04 A3022 RMK AC1AC1 SLP239

CYYC;2009-09-10 18:00;CYYC 101800Z 35015G21KT 40SM FEW050 FEW100 16/03 A3024 RMK CU1AC1 SLP248

CYYC;2009-09-10 19:00;CYYC 101900Z 36016KT 40SM FEW050 FEW180 17/03 A3025 RMK CU1AS1 AS TR SLP252

CYYC;2009-09-10 20:00;CYYC 102000Z 01007KT 40SM FEW060 18/03 A3026 RMK CU1 SLP255

CYYC;2009-09-10 21:00;CYYC 102100Z 36007KT 40SM FEW060 18/03 A3027 RMK CU1 SLP257

CYYC;2009-09-10 22:00;CYYC 102200Z 03009KT 40SM FEW060 FEW120 18/04 A3029 RMK CU1AC1 SLP262

CYYC;2009-09-10 23:00;CYYC 102300Z 07006KT 40SM FEW060 FEW240 19/03 A3030 RMK CU1CI1 SLP265

CYYC;2009-09-11 00:00;CYYC 110000Z 07003KT 40SM FEW060 FEW240 18/03 A3032 RMK CU1CI1 CONTRAILS SLP275

CYYC;2009-09-11 01:00;CYYC 110100Z 05005KT 40SM FEW060 FEW240 18/03 A3033 RMK CU1CI0 SLP279

CYYC;2009-09-11 02:00;CYYC 110200Z 08006KT 40SM FEW060 FEW240 15/03 A3034 RMK CU1CI0 CU TR SLP283

CYYC;2009-09-11 03:00;CYYC 110300Z 09004KT 15SM FEW220 13/03 A3037 RMK CI1 CI TR SLP299

CYYC;2009-09-11 04:00;CYYC 110400Z 08004KT 15SM FEW220 12/03 A3039 RMK CI1 CI TR SLP303

CYYC;2009-09-11 05:00;CYYC 110500Z 00000KT 15SM SKC 11/03 A3040 RMK SLP308

CYYC;2009-09-11 06:00;CYYC 110600Z 33002KT 15SM SKC 09/03 A3041 RMK SLP312

CYYC;2009-09-11 07:00;CYYC 110700Z 15002KT 15SM FEW240 08/02 A3040 RMK CI1 CI TR SLP310

CYYC;2009-09-11 08:00;CYYC 110800Z 00000KT 15SM SKC 07/02 A3039 RMK SLP306

CYYC;2009-09-11 09:00;CYYC 110900Z 02003KT 15SM SKC 06/01 A3039 RMK SLP307

CYYC;2009-09-11 10:00;CYYC 111000Z 35004KT 15SM SKC 05/01 A3039 RMK SLP307

CYYC;2009-09-11 11:00;CYYC 111100Z 00000KT 15SM FEW250 04/01 A3039 RMK CI0 SLP308

CYYC;2009-09-11 12:00;CYYC 111200Z 00000KT 15SM FEW200 FEW250 04/01 A3040 RMK CI1CI0 SLP312

CYYC;2009-09-11 13:00;CYYC 111300Z 18002KT 40SM FEW140 FEW200 FEW250 04/01 A3039 RMK AC1CI1CI0 SLP311

CYYC;2009-09-11 14:00;CYYC 111400Z 23005KT 40SM FEW220 05/02 A3039 RMK CI1 CONTRAILS SLP311

CYYC;2009-09-11 15:00;CYYC 111500Z 23002KT 40SM FEW220 09/03 A3040 RMK CI0 CONTRAILS SLP313

CYYC;2009-09-11 16:00;CYYC 111600Z 21004KT 40SM FEW220 11/03 A3039 RMK CI0 SLP311

CYYC;2009-09-11 17:00;CYYC 111700Z 19008KT 40SM SCT220 15/04 A3039 RMK CI0 CONTRAILS SLP311

CYYC;2009-09-11 18:00;CYYC 111800Z 18011KT 40SM SCT220 17/05 A3038 RMK CI0 CONTRAILS SLP301

CYYC;2009-09-11 19:00;CYYC 111900Z 18011KT 40SM FEW210 FEW250 20/05 A3035 RMK CI1CI0 SLP292

CYYC;2009-09-11 20:00;CYYC 112000Z 16016KT 40SM FEW250 22/04 A3033 RMK CI1 HZ /CONTRAILS SLP286

CYYC;2009-09-11 21:00;CYYC 112100Z 18012G17KT 40SM FEW250 23/03 A3031 RMK CI1 HZ /CONTRAILS SLP274

CYYC;2009-09-11 22:00;CYYC 112200Z 18015KT 40SM FEW250 23/03 A3029 RMK CI1 SLP267

CYYC;2009-09-11 23:00;CYYC 112300Z 15012G17KT 40SM FEW250 23/03 A3027 RMK CI1 SLP262

CYYC;2009-09-12 00:00;CYYC 120000Z 16016KT 40SM FEW250 23/02 A3026 RMK CI1 SLP258

CYYC;2009-09-12 01:00;CYYC 120100Z 15014KT 40SM FEW250 22/02 A3025 RMK CI1 SLP254

CYYC;2009-09-12 02:00;CYYC 120200Z 15008KT 40SM SKC 19/03 A3023 RMK SLP249

CYYC;2009-09-12 03:00;CYYC 120300Z 16011G16KT 15SM SKC 18/03 A3024 RMK SLP250

CYYC;2009-09-12 04:00;CYYC 120400Z 16011KT 15SM SKC 15/03 A3023 RMK SLP248

CYYC;2009-09-12 05:00;CYYC 120500Z 18012KT 15SM SKC 13/03 A3023 RMK SLP247

CYYC;2009-09-12 06:00;CYYC 120600Z 17013KT 15SM SKC 13/03 A3022 RMK SLP239

CYYC;2009-09-12 07:00;CYYC 120700Z 16012G18KT 15SM SKC 12/03 A3020 RMK SLP233

CYYC;2009-09-12 08:00;CYYC 120800Z 17009KT 15SM SKC 11/03 A3020 RMK SLP233

CYYC;2009-09-12 09:00;CYYC 120900Z 18006KT 15SM SKC 10/03 A3016 RMK SLP214

CYYC;2009-09-12 10:00;CYYC 121000Z 18004KT 15SM SKC 08/03 A3014 RMK SLP209

CYYC;2009-09-12 11:00;CYYC 121100Z 19004KT 15SM SKC 07/02 A3013 RMK SLP205

CYYC;2009-09-12 12:00;CYYC 121200Z 16003KT 15SM SKC 06/02 A3011 RMK SLP204

CYYC;2009-09-12 13:00;CYYC 121300Z 19004KT 40SM SKC 06/03 A3010 RMK SLP200

CYYC;2009-09-12 14:00;CYYC 121400Z 21004KT 40SM SKC 06/03 A3008 RMK SLP195

CYYC;2009-09-12 15:00;CYYC 121500Z 19005KT 40SM SKC 09/03 A3008 RMK SLP195

CYYC;2009-09-12 16:00;CYYC 121600Z 18010KT 40SM SKC 12/03 A3006 RMK SLP191

CYYC;2009-09-12 17:00;CYYC 121700Z 17012KT 40SM SKC 16/04 A3005 RMK SLP187

CYYC;2009-09-12 18:00;CYYC 121800Z 17012G17KT 40SM SKC 19/04 A3003 RMK SLP172

CYYC;2009-09-12 19:00;CYYC 121900Z 18013G18KT 40SM SKC 22/05 A3001 RMK SLP164

CYYC;2009-09-12 20:00;CYYC 122000Z 18013KT 40SM SKC 25/04 A2998 RMK SLP155

CYYC;2009-09-12 21:00;CYYC 122100Z 15015G21KT 40SM FEW250 26/03 A2996 RMK CI1 SLP140

CYYC;2009-09-12 22:00;CYYC 122200Z 16013G20KT 40SM SKC 27/03 A2995 RMK SLP137

CYYC;2009-09-12 23:00;CYYC 122300Z 17015G21KT 40SM FEW250 27/02 A2993 RMK CI1 SLP131

CYYC;2009-09-13 00:00;CYYC 130000Z 17015KT 40SM SKC 26/02 A2992 RMK SLP132

CYYC;2009-09-13 01:00;CYYC 130100Z 15011G19KT 40SM SKC 24/02 A2990 RMK SLP127

CYYC;2009-09-13 02:00;CYYC 130200Z 15012KT 40SM SKC 22/02 A2988 RMK SLP122

CYYC;2009-09-13 03:00;CYYC 130300Z 15011KT 15SM SKC 19/03 A2989 RMK SLP127

CYYC;2009-09-13 04:00;CYYC 130400Z 16009KT 15SM SKC 17/02 A2989 RMK SLP127

CYYC;2009-09-13 05:00;CYYC 130500Z 16007KT 15SM SKC 14/02 A2989 RMK SLP127

CYYC;2009-09-13 06:00;CYYC 130600Z 16009KT 15SM SKC 14/01 A2988 RMK SLP117

CYYC;2009-09-13 07:00;CYYC 130700Z 17007KT 15SM SKC 13/01 A2987 RMK SLP116

CYYC;2009-09-13 08:00;CYYC 130800Z 17010KT 15SM SKC 13/01 A2987 RMK SLP114

CYYC;2009-09-13 09:00;CYYC 130900Z 18004KT 15SM SKC 11/01 A2985 RMK SLP104

CYYC;2009-09-13 10:00;CYYC 131000Z 16006KT 15SM SKC 08/01 A2984 RMK SLP099

CYYC;2009-09-13 11:00;CYYC 131100Z 19002KT 15SM SKC 09/01 A2984 RMK SLP100

CYYC;2009-09-13 12:00;CYYC 131200Z 21004KT 15SM SKC 07/01 A2984 RMK SLP105

CYYC;2009-09-13 13:00;CYYC 131300Z 18003KT 30SM SKC 06/02 A2984 RMK SLP103

CYYC;2009-09-13 14:00;CYYC 131400Z 19006KT 40SM SKC 07/03 A2984 RMK SLP105

CYYC;2009-09-13 15:00;CYYC 131500Z 21004KT 40SM FEW100 10/04 A2984 RMK AC1 AC TR SLP109

CYYC;2009-09-13 16:00;CYYC 131600Z 18008KT 40SM SKC 13/04 A2984 RMK SLP109

CYYC;2009-09-13 17:00;CYYC 131700Z 18007KT 40SM SKC 16/04 A2984 RMK SLP107

CYYC;2009-09-13 18:00;CYYC 131800Z 17009KT 40SM SKC 19/05 A2983 RMK SLP099

CYYC;2009-09-13 19:00;CYYC 131900Z 15010G15KT 40SM FEW055 21/05 A2982 RMK CU1 CU TR SLP096

CYYC;2009-09-13 20:00;CYYC 132000Z 14013G18KT 40SM FEW065 22/05 A2980 RMK CU1 CU TR SLP090

CYYC;2009-09-13 21:00;CYYC 132100Z 13012G17KT 40SM FEW230 23/05 A2979 RMK CC1 CC TR SLP084

CYYC;2009-09-13 22:00;CYYC 132200Z 15010G16KT 40SM FEW230 23/04 A2978 RMK CC1 CC TR SLP081

CYYC;2009-09-13 23:00;CYYC 132300Z 14010G15KT 40SM FEW070 23/04 A2977 RMK AC1 AC TR SLP079

CYYC;2009-09-14 00:00;CYYC 140000Z CCA 12015KT 40SM SKC 22/06 A2977 RMK SLP086

CYYC;2009-09-14 01:00;CYYC 140100Z 13010G16KT 40SM SKC 20/05 A2977 RMK SLP085

CYYC;2009-09-14 02:00;CYYC 140200Z 14009KT 40SM SKC 17/05 A2977 RMK SLP087

CYYC;2009-09-14 03:00;CYYC 140300Z 14009KT 40SM FEW150 16/06 A2977 RMK AC1 SLP090

CYYC;2009-09-14 04:00;CYYC 140400Z 15010KT 15SM SKC 15/05 A2977 RMK SLP089

CYYC;2009-09-14 05:00;CYYC 140500Z 16006KT 15SM SKC 14/05 A2977 RMK SLP088

CYYC;2009-09-14 06:00;CYYC 140600Z 18004KT 15SM SKC 13/05 A2976 RMK SLP076

CYYC;2009-09-14 07:00;CYYC 140700Z 09002KT 15SM SKC 11/05 A2975 RMK SLP074

CYYC;2009-09-14 08:00;CYYC 140800Z 14004KT 15SM SKC 10/05 A2975 RMK SLP074

CYYC;2009-09-14 09:00;CYYC 140900Z 00000KT 15SM SKC 08/04 A2974 RMK SLP072

CYYC;2009-09-14 10:00;CYYC 141000Z 00000KT 15SM SKC 07/04 A2973 RMK SLP070

CYYC;2009-09-14 11:00;CYYC 141100Z 06002KT 15SM SKC 05/03 A2973 RMK SLP070

CYYC;2009-09-14 12:00;CYYC 141200Z 34004KT 15SM FEW120 05/02 A2973 RMK AC1 SLP076

CYYC;2009-09-14 13:00;CYYC 141300Z 34004KT 30SM FEW120 FEW240 05/02 A2974 RMK AC1CI1 SLP079

CYYC;2009-09-14 14:00;CYYC 141400Z 00000KT 40SM FEW140 FEW260 05/03 A2974 RMK AC1CI1 SLP079

CYYC;2009-09-14 15:00;CYYC 141500Z 31003KT 40SM FEW140 08/04 A2975 RMK AC1 SLP085

CYYC;2009-09-14 16:00;CYYC 141600Z 24004KT 40SM FEW140 12/05 A2975 RMK AC1 SLP085

CYYC;2009-09-14 17:00;CYYC 141700Z 23003KT 40SM FEW140 BKN260 15/06 A2975 RMK AC2CI3 SLP084

CYYC;2009-09-14 18:00;CYYC 141800Z 07002KT 40SM FEW160 BKN260 16/06 A2976 RMK AC1CI5 SLP081

CYYC;2009-09-14 19:00;CYYC 141900Z 21004KT 40SM FEW160 BKN260 19/06 A2975 RMK AC1CI6 SLP078

CYYC;2009-09-14 20:00;CYYC 142000Z 18005KT 40SM FEW160 BKN260 19/05 A2976 RMK AC1CI2 SLP080

CYYC;2009-09-14 21:00;CYYC 142100Z 15004KT 40SM FEW060 FEW160 FEW270 21/06 A2976 RMK CU1AC1CI1 SLP081

CYYC;2009-09-14 22:00;CYYC 142200Z 32003KT 40SM FEW065 FEW160 FEW250 22/05 A2977 RMK CU1AC1CI1 SLP083

CYYC;2009-09-14 23:00;CYYC 142300Z 05003KT 40SM FEW068 FEW140 FEW250 23/05 A2978 RMK CU1AC1CI1 SLP088

CYYC;2009-09-15 00:00;CYYC 150000Z 09003KT 40SM FEW068 FEW140 FEW230 22/04 A2981 RMK CU1AC1CI1 SLP100

CYYC;2009-09-15 01:00;CYYC 150100Z 05006KT 40SM FEW068 FEW140 FEW210 19/06 A2983 RMK CU2AC1CI1 SLP107

CYYC;2009-09-15 02:00;CYYC 150200Z 05006KT 30SM FEW060 SCT100 BKN230 16/09 A2987 RMK CU1AC2CI1 SLP119

CYYC;2009-09-15 03:00;CYYC 150300Z 05003KT 15SM SCT110 BKN230 15/09 A2990 RMK AC3CI2 SLP138

CYYC;2009-09-15 04:00;CYYC 150400Z 03003KT 15SM BKN110 14/09 A2991 RMK AC4 SLP143

CYYC;2009-09-15 05:00;CYYC 150500Z 02003KT 15SM FEW110 13/08 A2994 RMK AC1 SLP152

CYYC;2009-09-15 06:00;CYYC 150600Z 00000KT 15SM BKN096 12/08 A2998 RMK AC4 SLP157

CYYC;2009-09-15 07:00;CYYC 150700Z 36004KT 15SM FEW120 10/07 A3001 RMK AC1 SLP167

CYYC;2009-09-15 08:00;CYYC 150800Z 35003KT 15SM FEW120 10/07 A3001 RMK AC1 AC TR SLP168

CYYC;2009-09-15 09:00;CYYC 150900Z 20005KT 15SM SKC 09/07 A3003 RMK AC TR SLP173

CYYC;2009-09-15 10:00;CYYC 151000Z 20003KT 15SM SKC 09/07 A3005 RMK SLP178

CYYC;2009-09-15 11:00;CYYC 151100Z 21004KT 15SM SKC 09/07 A3005 RMK SLP180

CYYC;2009-09-15 12:00;CYYC 151200Z 20006KT 15SM SKC 08/07 A3006 RMK SLP184

CYYC;2009-09-15 13:00;CYYC 151300Z 17002KT 15SM FEW100 BKN240 08/06 A3010 RMK AC1CI2 AC TR SLP197

CYYC;2009-09-15 14:00;CYYC 151400Z 00000KT 30SM SCT140 BKN250 10/07 A3012 RMK AC3CI0 SLP202

CYYC;2009-09-15 15:00;CYYC 151500Z 00000KT 30SM FEW030 FEW140 SCT250 12/07 A3014 RMK CU1AC1CI1 SLP217

CYYC;2009-09-15 16:00;CYYC 151600Z 22003KT 30SM FEW160 SCT270 16/08 A3017 RMK AC1CI0 SLP224

CYYC;2009-09-15 17:00;CYYC 151700Z 19003KT 20SM FEW160 FEW270 20/09 A3018 RMK AC1CI0 SLP228

CYYC;2009-09-15 18:00;CYYC 151800Z 27004KT 20SM FEW048 FEW160 22/10 A3020 RMK CU1AC1 SLP225

CYYC;2009-09-15 19:00;CYYC 151900Z 09004KT 20SM FEW052 FEW180 23/10 A3019 RMK CU1AC1 SLP223

CYYC;2009-09-15 20:00;CYYC 152000Z 00000KT 30SM FEW060 FEW150 FEW280 25/10 A3019 RMK CU1AC1CI1 SLP223

CYYC;2009-09-15 21:00;CYYC 152100Z 15006KT 30SM FEW063 FEW280 26/10 A3018 RMK CU1CI1 SLP220

CYYC;2009-09-15 22:00;CYYC 152200Z 20004KT 20SM FEW068 FEW140 FEW280 26/09 A3018 RMK CU1AC1CI1 SLP220

CYYC;2009-09-15 23:00;CYYC 152300Z 17005KT 30SM FEW072 FEW140 SCT280 26/08 A3018 RMK CU1AC1CI0 SLP218

CYYC;2009-09-16 00:00;CYYC 160000Z 14005KT 30SM FEW072 FEW170 BKN280 26/08 A3018 RMK CU1AC2CI1 SLP219

CYYC;2009-09-16 01:00;CYYC 160100Z CCA 12008KT 30SM FEW072 BKN150 BKN230 24/09 A3018 RMK CU1AC4CI2 SLP220

CYYC;2009-09-16 02:00;CYYC 160200Z 13007KT 30SM FEW065 FEW150 BKN250 22/09 A3019 RMK SC1AC2CI4 SC TR SLP223

CYYC;2009-09-16 03:00;CYYC 160300Z 15010G15KT 15SM FEW080 FEW150 BKN250 22/08 A3019 RMK AC1AC1CI2 SLP225

CYYC;2009-09-16 04:00;CYYC 160400Z 18007KT 15SM BKN240 20/08 A3021 RMK CI3 SLP230

CYYC;2009-09-16 05:00;CYYC 160500Z 16006KT 15SM BKN240 18/07 A3021 RMK CI2 SLP229

CYYC;2009-09-16 06:00;CYYC 160600Z 15005KT 15SM SCT240 17/07 A3020 RMK CI1 SLP221

CYYC;2009-09-16 07:00;CYYC 160700Z 14004KT 15SM FEW240 15/07 A3021 RMK CI0 SLP223

CYYC;2009-09-16 08:00;CYYC 160800Z 14004KT 15SM FEW200 FEW250 14/07 A3021 RMK CI1CI0 SLP223

CYYC;2009-09-16 09:00;CYYC 160900Z 16006KT 15SM FEW200 FEW250 13/07 A3020 RMK CI1CI0 SLP220

CYYC;2009-09-16 10:00;CYYC 161000Z 18003KT 15SM SKC 12/07 A3020 RMK SLP219

CYYC;2009-09-16 11:00;CYYC 161100Z 23003KT 15SM SKC 11/07 A3019 RMK SLP218

CYYC;2009-09-16 12:00;CYYC 161200Z 20004KT 15SM SKC 11/07 A3018 RMK SLP218

CYYC;2009-09-16 13:00;CYYC 161300Z 20005KT 20SM FEW120 SCT250 10/06 A3017 RMK AC1CI1 AC TR SLP215

CYYC;2009-09-16 14:00;CYYC 161400Z 20005KT 30SM FEW240 10/07 A3017 RMK CI1 HZ SLP214

CYYC;2009-09-16 15:00;CYYC 161500Z 20004KT 30SM FEW120 FEW240 13/08 A3016 RMK AC1CI1 HZ SLP213

CYYC;2009-09-16 16:00;CYYC 161600Z 19005KT 30SM FEW120 FEW240 18/09 A3015 RMK AC1CI1 HZ SLP208

CYYC;2009-09-16 17:00;CYYC 161700Z 17004KT 30SM FEW046 FEW150 FEW240 21/09 A3014 RMK CU1AC1CI1 HZ SLP205

CYYC;2009-09-16 18:00;CYYC 161800Z 19007KT 25SM FEW150 FEW250 23/09 A3012 RMK AC1CI1 HZ SLP193

CYYC;2009-09-16 19:00;CYYC 161900Z 16010KT 20SM FEW250 26/09 A3010 RMK CI1 HZ SLP185

CYYC;2009-09-16 20:00;CYYC 162000Z 17011G17KT 20SM FEW080 FEW250 29/09 A3008 RMK CU1CI1 HZ SLP179

CYYC;2009-09-16 21:00;CYYC 162100Z 16013G19KT 20SM FEW090 FEW260 30/09 A3005 RMK CU1CI1 HZ SLP163

CYYC;2009-09-16 22:00;CYYC 162200Z 15012G18KT 20SM FEW090 FEW260 30/08 A3003 RMK CU1CI1 HZ SLP157

CYYC;2009-09-16 23:00;CYYC 162300Z 17014G20KT 20SM FEW090 FEW260 30/08 A3001 RMK CU1CI1 HZ SLP150

CYYC;2009-09-17 00:00;CYYC 170000Z 15015G22KT 20SM FEW090 30/08 A2999 RMK CU1 HZ SLP147

CYYC;2009-09-17 01:00;CYYC 170100Z 15010G15KT 30SM FEW080 28/08 A2999 RMK CU1 HZ SLP145

CYYC;2009-09-17 02:00;CYYC 170200Z 15010KT 20SM FEW080 FEW120 26/08 A2997 RMK AC1AC1 SLP141

CYYC;2009-09-17 03:00;CYYC 170300Z 16007KT 15SM FEW080 FEW120 22/09 A2997 RMK AC1AC1 CLDS TR SLP144

CYYC;2009-09-17 04:00;CYYC 170400Z 16007KT 15SM FEW120 22/09 A2996 RMK AC1 AC TR SLP142

CYYC;2009-09-17 05:00;CYYC 170500Z 18006KT 15SM SKC 20/09 A2996 RMK SLP141

CYYC;2009-09-17 06:00;CYYC 170600Z 19007KT 15SM SKC 20/09 A2995 RMK SLP127

CYYC;2009-09-17 07:00;CYYC 170700Z 22009KT 15SM SKC 19/08 A2995 RMK SLP129

CYYC;2009-09-17 08:00;CYYC 170800Z 21005KT 15SM SKC 19/08 A2995 RMK SLP127

CYYC;2009-09-17 09:00;CYYC 170900Z 21006KT 15SM SKC 18/08 A2994 RMK SLP116

CYYC;2009-09-17 10:00;CYYC 171000Z 18004KT 15SM SKC 18/08 A2993 RMK SLP114

CYYC;2009-09-17 11:00;CYYC 171100Z 20004KT 15SM FEW120 FEW230 16/08 A2993 RMK AC1CI1 CLDS TR SLP113

CYYC;2009-09-17 12:00;CYYC 171200Z 20006KT 15SM FEW230 15/08 A2992 RMK CI1 CI TR SLP116

CYYC;2009-09-17 13:00;CYYC 171300Z 22007KT 15SM FEW090 FEW240 15/08 A2993 RMK ACC1CI0 ACC TR SLP118

CYYC;2009-09-17 14:00;CYYC 171400Z 21007KT 20SM FEW040 FEW100 SCT220 16/08 A2993 RMK CU1AC2CI0 TCU ASOCTD E-S / SH E-S /HZ SLP119

CYYC;2009-09-17 15:00;CYYC 171500Z 23004KT 20SM SCT075 BKN100 18/09 A2992 RMK AC2AC3 SH E-S SLP123

CYYC;2009-09-17 15:47;CYYC 171547Z 36021KT 8SM BKN090 OVC110 17/ RMK AC4AC3 SH ALQDS / WSHFT 1545 / HZ + DU

CYYC;2009-09-17 16:00;CYYC 171600Z 34013G20KT 30SM FEW030 BKN090 OVC120 16/10 A2996 RMK CU1AC5AC2 SH NE-SE / HZ + DU SLP135

CYYC;2009-09-17 17:00;CYYC 171700Z 34018G25KT 20SM SCT080 BKN110 17/10 A2998 RMK AC3AC2 SH SE / HZ + DU SLP140

CYYC;2009-09-17 18:00;CYYC 171800Z 34019G28KT 20SM FEW090 BKN150 18/09 A3000 RMK AC2AC2 HZ + DU SLP152

CYYC;2009-09-17 19:00;CYYC 171900Z 36017KT 20SM FEW040CB FEW090 BKN150 20/09 A3001 RMK CB1AC2AC4 CB SW / LTGCG SW / SH S-W SLP154

CYYC;2009-09-17 20:00;CYYC 172000Z 35012KT 40SM FEW040 SCT080 BKN140 17/10 A3002 RMK CF1AC3AC3 CB EMBD S / SH S SLP158

CYYC;2009-09-17 20:17;CYYC 172017Z 35010G16KT 40SM -SHRA FEW040 BKN090 BKN140 16/ RMK CF1AC5AC2 CB EMBD

CYYC;2009-09-17 21:00;CYYC 172100Z CCA 32006KT 40SM -SHRA FEW040 FEW080 BKN120 16/12 A3001 RMK CU1AC1AC6 SLP161

CYYC;2009-09-17 21:28;CYYC 172128Z 33005KT 30SM FEW040 FEW080 BKN120 15/ RMK CU1AC1AC6

CYYC;2009-09-17 22:00;CYYC 172200Z 32007KT 20SM FEW030 FEW080 BKN160 16/12 A3002 RMK CU1AC1AC3 SH DIST SE SLP165

CYYC;2009-09-17 23:00;CYYC 172300Z 33010KT 20SM FEW030 FEW080 SCT160 17/10 A3005 RMK CF1AC1AC2 SH SW SLP173

CYYC;2009-09-18 00:00;CYYC 180000Z 33008KT 30SM FEW030 BKN090 BKN160 16/10 A3005 RMK CF1AC4AC1 CB ASOCTD SE / VIRGA NNW SLP180

CYYC;2009-09-18 01:00;CYYC 180100Z 01012KT 20SM FEW030 FEW090 FEW120 16/10 A3008 RMK CF1AC1AC1 SH N + SE / CF + AC TR SLP188

CYYC;2009-09-18 01:28;CYYC 180128Z 36028G38KT 15SM VCBLDU SCT025 BKN038CB BKN100 14/ RMK SC3CB2AC2 VIS 6 NE

CYYC;2009-09-18 02:00;CYYC 180200Z 33011G17KT 20SM FEW035 FEW050 BKN110 11/08 A3011 RMK SC1SC2AC2 ACC ASOCTD SLP199

CYYC;2009-09-18 03:00;CYYC 180300Z 33008KT 15SM FEW110 10/07 A3012 RMK AC1 SLP208

CYYC;2009-09-18 04:00;CYYC 180400Z 30004KT 15SM FEW110 09/07 A3012 RMK AC1 SLP209

CYYC;2009-09-18 05:00;CYYC 180500Z 25004KT 15SM SKC 08/07 A3012 RMK SLP208

CYYC;2009-09-18 06:00;CYYC 180600Z 24002KT 15SM SKC 08/07 A3011 RMK SLP207

CYYC;2009-09-18 07:00;CYYC 180700Z 21006KT 15SM SKC 07/06 A3008 RMK SLP197

CYYC;2009-09-18 08:00;CYYC 180800Z 20006KT 15SM SKC 07/06 A3009 RMK SLP201

CYYC;2009-09-18 09:00;CYYC 180900Z 20005KT 15SM SKC 07/06 A3008 RMK SLP202

CYYC;2009-09-18 10:00;CYYC 181000Z 18004KT 15SM SKC 07/06 A3007 RMK SLP198

CYYC;2009-09-18 11:00;CYYC 181100Z 21007KT 15SM FEW200 SCT240 08/06 A3006 RMK CI2CI1 SLP196

CYYC;2009-09-18 12:00;CYYC 181200Z 20005KT 15SM FEW180 SCT200 BKN240 08/07 A3005 RMK AC2CI2CI1 SLP187

CYYC;2009-09-18 13:00;CYYC 181300Z 22006KT 30SM FEW070 SCT170 BKN200 BKN240 09/07 A3004 RMK AC1AC3CI2CI1 SLP185

CYYC;2009-09-18 14:00;CYYC 181400Z 20005KT 40SM BKN160 BKN220 10/07 A3004 RMK AC6CI0 VIRGA SW / CONTRAILS SLP184

CYYC;2009-09-18 15:00;CYYC 181500Z 00000KT 40SM FEW090 SCT150 BKN220 11/08 A3005 RMK AC1AC3CI0 SLP194

CYYC;2009-09-18 16:00;CYYC 181600Z 26011KT 40SM SCT170 SCT220 18/05 A3005 RMK AC2CI0 CONTRAILS SLP192

CYYC;2009-09-18 17:00;CYYC 181700Z 24007KT 40SM FEW120 FEW180 BKN240 21/06 A3005 RMK AC1AC2CI0 CONTRAILS SLP193

CYYC;2009-09-18 18:00;CYYC 181800Z 24014KT 40SM FEW070 FEW150 BKN220 23/06 A3003 RMK CU1AC1CI2 CONTRAILS / CU + AC TR SLP173

CYYC;2009-09-18 19:00;CYYC 181900Z 26016KT 40SM FEW070 FEW120 BKN210 22/05 A3003 RMK CU1AC1CI4 SLP171

CYYC;2009-09-18 20:00;CYYC 182000Z 27008KT 40SM FEW070 FEW120 BKN210 22/06 A3002 RMK CU1AC1CI4 SLP170

CYYC;2009-09-18 21:00;CYYC 182100Z 25007KT 40SM FEW070 FEW180 SCT210 BKN260 23/06 A3002 RMK CU1AC1CI2CI1 CU TR SLP169

CYYC;2009-09-18 22:00;CYYC 182200Z 25004KT 40SM FEW180 FEW220 BKN260 24/06 A2999 RMK AC1CI1CI0 CONTRAILS SLP162

CYYC;2009-09-18 23:00;CYYC 182300Z 14005KT 40SM FEW060 FEW170 FEW180 FEW210 SCT250 23/06 A2997 RMK CU1AC1AS1CI1CI0 CONTRAILS / CU + AC TR SLP156

CYYC;2009-09-19 00:00;CYYC 190000Z 20007KT 40SM FEW060 FEW150 FEW180 FEW210 BKN250 23/06 A2996 RMK CU1AC1AS1CI0CI0 CU + AC TR SLP149

CYYC;2009-09-19 01:00;CYYC 190100Z 12004KT 40SM FEW060 FEW150 SCT250 21/06 A2995 RMK CU1AC1CI1 CU TR SLP145

CYYC;2009-09-19 02:00;CYYC 190200Z 13005KT 20SM FEW070 FEW250 20/06 A2993 RMK AC1CI1 SLP140

CYYC;2009-09-19 03:00;CYYC 190300Z 13003KT 15SM FEW250 17/06 A2993 RMK CI1 SLP141

CYYC;2009-09-19 04:00;CYYC 190400Z 00000KT 15SM FEW250 17/06 A2991 RMK CI1 CI TR SLP136

CYYC;2009-09-19 05:00;CYYC 190500Z 18004KT 15SM SKC 15/06 A2989 RMK SLP129

CYYC;2009-09-19 06:00;CYYC 190600Z 20003KT 15SM SKC 12/06 A2987 RMK SLP111

CYYC;2009-09-19 07:00;CYYC 190700Z 19007KT 15SM SKC 12/06 A2985 RMK SLP106

CYYC;2009-09-19 08:00;CYYC 190800Z 21010KT 15SM SKC 13/07 A2983 RMK SLP099

CYYC;2009-09-19 09:00;CYYC 190900Z 22010KT 15SM FEW220 13/07 A2981 RMK CI1 SLP091

CYYC;2009-09-19 10:00;CYYC 191000Z 22007KT 15SM FEW220 12/06 A2978 RMK CI2 SLP081

CYYC;2009-09-19 11:00;CYYC 191100Z 22007KT 15SM FEW220 13/05 A2975 RMK CI2 SLP072

CYYC;2009-09-19 12:00;CYYC 191200Z 21009KT 15SM SCT220 12/05 A2973 RMK CI2 SLP065

CYYC;2009-09-19 13:00;CYYC 191300Z 20007KT 30SM FEW180 BKN240 12/04 A2971 RMK AC1CI2 SLP058

CYYC;2009-09-19 14:00;CYYC 191400Z 27003KT 40SM FEW180 BKN240 12/04 A2970 RMK AC2CI1 SLP054

CYYC;2009-09-19 15:00;CYYC 191500Z 21007KT 40SM FEW180 BKN230 14/05 A2968 RMK AC2CI2 SLP051

CYYC;2009-09-19 16:00;CYYC 191600Z 19009KT 40SM FEW180 BKN230 19/06 A2966 RMK AC2CI2 SLP046

CYYC;2009-09-19 17:00;CYYC 191700Z 18013KT 40SM FEW180 BKN230 22/04 A2965 RMK AC2CI2 SLP041

CYYC;2009-09-19 18:00;CYYC 191800Z 18010KT 40SM FEW130 FEW180 BKN230 25/02 A2963 RMK AC1AC1CI2 SLP026

CYYC;2009-09-19 19:00;CYYC 191900Z CCA 18009KT 40SM FEW100 FEW130 FEW180 BKN230 27/00 A2961 RMK CU1AC1AC1CI2 TR CU SLP018

CYYC;2009-09-19 20:00;CYYC 192000Z 24006KT 40SM FEW100 FEW130 SCT180 BKN230 27/M01 A2960 RMK CU1AC2AC2CI1 SLP015

CYYC;2009-09-19 21:00;CYYC 192100Z 24010KT 40SM FEW100 FEW130 SCT180 BKN220 28/M01 A2959 RMK CU1AC2AC1CI2 SLP005

CYYC;2009-09-19 22:00;CYYC 192200Z 28009KT 40SM FEW060 FEW100 SCT140 BKN220 27/M01 A2959 RMK SC1CU1AC3CI2 SLP005

CYYC;2009-09-19 23:00;CYYC 192300Z 27015G20KT 40SM FEW060 FEW100 BKN130 BKN220 26/00 A2961 RMK SC1CU1AC4CI1 TR CU SLP012

CYYC;2009-09-20 00:00;CYYC 200000Z 29015G22KT 40SM FEW060 SCT130 BKN170 BKN220 24/02 A2963 RMK SC1AC3AC1CI1 SLP028

CYYC;2009-09-20 01:00;CYYC 200100Z 27017G25KT 40SM FEW060 FEW130 SCT170 BKN230 22/03 A2965 RMK SC1AC2AC1CI2 SLP035

CYYC;2009-09-20 02:00;CYYC 200200Z 28015G20KT 40SM SCT130 BKN170 20/04 A2966 RMK AC2AC4 SLP037

CYYC;2009-09-20 03:00;CYYC 200300Z 35015G22KT 15SM FEW070 FEW120 SCT150 19/04 A2971 RMK CU1AC1AC2 SLP058

CYYC;2009-09-20 04:00;CYYC 200400Z 34009KT 15SM FEW120 SCT150 13/07 A2975 RMK AC1AC2 SLP070

CYYC;2009-09-20 05:00;CYYC 200500Z 36011KT 15SM FEW120 FEW230 13/07 A2976 RMK AC1CI0 SLP075

CYYC;2009-09-20 06:00;CYYC 200600Z 36011KT 15SM FEW140 SCT210 12/06 A2979 RMK AC1CI1 SLP082

CYYC;2009-09-20 07:00;CYYC 200700Z 34010KT 15SM FEW080 SCT130 12/05 A2983 RMK AC1AC2 SLP092

CYYC;2009-09-20 08:00;CYYC 200800Z 36009KT 15SM FEW060 BKN080 11/06 A2985 RMK SC2AC4 SLP100

CYYC;2009-09-20 09:00;CYYC 200900Z 34012KT 15SM OVC060 10/05 A2987 RMK SC7 SLP106

CYYC;2009-09-20 09:25;CYYC 200925Z 33013KT 15SM -RA OVC052 10/ RMK SC8

CYYC;2009-09-20 10:00;CYYC 201000Z 02017G24KT 15SM -RA FEW040 OVC060 09/06 A2987 RMK CF2SC6 SLP108

CYYC;2009-09-20 11:00;CYYC 201100Z 35008KT 15SM -RA SCT050 OVC120 09/06 A2989 RMK SC3AC5 SLP113

CYYC;2009-09-20 11:36;CYYC 201136Z 35009KT 15SM VCSH FEW040 OVC066 09/ RMK SC1AC7

CYYC;2009-09-20 12:00;CYYC 201200Z 35009KT 15SM VCSH FEW046 OVC065 09/06 A2991 RMK SC2SC5 SH SW SLP129

CYYC;2009-09-20 12:41;CYYC 201241Z 33015KT 8SM -RA OVC064 08/ RMK SC7

CYYC;2009-09-20 13:00;CYYC 201300Z 34018KT 6SM -RA FEW030 OVC050 08/05 A2994 RMK SC2SC5 SLP138

CYYC;2009-09-20 14:00;CYYC 201400Z 36005KT 15SM -RA BKN055 OVC090 07/05 A2997 RMK SC7AC1 RA VRY LGT SLP147

CYYC;2009-09-20 14:41;CYYC 201441Z 28006KT 15SM FEW035 BKN077 OVC082 08/ RMK CF1AC6AC2 CF TR

CYYC;2009-09-20 15:00;CYYC 201500Z 27008KT 15SM BKN057 OVC082 08/06 A3001 RMK SC6AC2 VIRGA S SLP172

CYYC;2009-09-20 15:35;CYYC 201535Z 30012KT 10SM -RA BKN038 BKN049 OVC080 08/ RMK SC6SC2AC1

CYYC;2009-09-20 16:00;CYYC 201600Z 30011KT 15SM -RA BKN054 BKN074 OVC120 09/05 A3004 RMK SC6AC2AC1 RA VRY LGT SLP181

CYYC;2009-09-20 17:00;CYYC 201700Z 30011G19KT 20SM -RA FEW035 SCT054 BKN075 BKN120 08/03 A3007 RMK CU1SC3AC3AC1 RA VRY LGT/ CU TR SLP190

CYYC;2009-09-20 17:14;CYYC 201714Z 29008KT 20SM FEW035 SCT055 BKN071 BKN120 09/ RMK CU1SC3AC3AC1 CU TR

CYYC;2009-09-20 18:00;CYYC 201800Z 28017KT 20SM FEW035 FEW065 BKN120 09/04 A3009 RMK CU1SC2AC5 SLP209

CYYC;2009-09-20 19:00;CYYC 201900Z 28012G19KT 40SM FEW040 SCT120 BKN250 11/05 A3010 RMK CU1AC2CI1 SLP211

CYYC;2009-09-20 20:00;CYYC 202000Z 28015G20KT 40SM FEW045 FEW055TCU BKN090 13/04 A3011 RMK CU2TCU1AC2 VIRGA S SLP214

CYYC;2009-09-20 21:00;CYYC 202100Z 34012KT 40SM FEW050 BKN110 14/02 A3012 RMK CU2AC1 SLP214

CYYC;2009-09-20 22:00;CYYC 202200Z 33013G20KT 40SM FEW050 FEW110 SCT250 15/M01 A3014 RMK CU2AC1CI0 SLP219

CYYC;2009-09-20 23:00;CYYC 202300Z 31014G20KT 40SM FEW070 15/M03 A3015 RMK CU1 SLP224

CYYC;2009-09-21 00:00;CYYC 210000Z 35012G20KT 40SM FEW060 15/M02 A3018 RMK CU1 SLP233

CYYC;2009-09-21 01:00;CYYC 210100Z 35006KT 40SM FEW060 14/M02 A3020 RMK CU1 CU TR SLP240

CYYC;2009-09-21 02:00;CYYC 210200Z 01007KT 40SM FEW060 11/M01 A3023 RMK SC1 SLP250

CYYC;2009-09-21 03:00;CYYC 210300Z 35005KT 40SM FEW060 09/M00 A3026 RMK SC1 SLP274

CYYC;2009-09-21 04:00;CYYC 210400Z 32005KT 15SM FEW080 08/M01 A3028 RMK AC1 SLP279

CYYC;2009-09-21 05:00;CYYC 210500Z 32006KT 15SM SKC 08/M01 A3029 RMK SLP282

CYYC;2009-09-21 06:00;CYYC 210600Z 30002KT 15SM SKC 06/M01 A3030 RMK SLP289

CYYC;2009-09-21 07:00;CYYC 210700Z 00000KT 15SM SKC 04/00 A3032 RMK SLP294

CYYC;2009-09-21 08:00;CYYC 210800Z 21003KT 15SM SKC 03/M01 A3031 RMK SLP293

CYYC;2009-09-21 09:00;CYYC 210900Z 22002KT 15SM SKC 03/M01 A3032 RMK SLP295

CYYC;2009-09-21 10:00;CYYC 211000Z 20003KT 15SM SKC 03/M01 A3034 RMK SLP301

CYYC;2009-09-21 11:00;CYYC 211100Z 20007KT 15SM SKC 03/M01 A3032 RMK SLP294

CYYC;2009-09-21 12:00;CYYC 211200Z 21006KT 15SM SKC 03/M01 A3031 RMK SLP288

CYYC;2009-09-21 13:00;CYYC 211300Z 21006KT 40SM FEW240 03/M01 A3030 RMK CI1 VIS NW-N LWR SLP285

CYYC;2009-09-21 14:00;CYYC 211400Z 19006KT 40SM BKN230 03/M01 A3029 RMK CI2 SLP282

CYYC;2009-09-21 15:00;CYYC 211500Z 20004KT 40SM BKN190 BKN230 06/M00 A3027 RMK AC6CI1 ACSL SLP281

CYYC;2009-09-21 16:00;CYYC 211600Z 20008KT 40SM BKN190 BKN250 07/01 A3026 RMK AC6CI1 ACSL SLP275

CYYC;2009-09-21 17:00;CYYC 211700Z 20010KT 40SM FEW090 FEW160 FEW250 11/00 A3025 RMK AC1AC1CI1 SLP274

CYYC;2009-09-21 18:00;CYYC 211800Z 19010G15KT 40SM FEW090 BKN170 BKN250 13/01 A3025 RMK AC1AC6CI1 SLP264

CYYC;2009-09-21 19:00;CYYC 211900Z 18006KT 40SM FEW090 FEW140 BKN170 16/01 A3023 RMK AC1AC2AC6 SLP258

CYYC;2009-09-21 20:00;CYYC 212000Z 21007KT 40SM FEW090 FEW160 BKN230 17/01 A3022 RMK AC1AC2CI4 ACSL SLP255

CYYC;2009-09-21 21:00;CYYC 212100Z 20006KT 40SM FEW080 FEW170 BKN250 19/02 A3021 RMK AC1AC1CI5 ACSL SLP248

CYYC;2009-09-21 22:00;CYYC 212200Z 21004KT 40SM FEW080 FEW170 BKN220 20/02 A3021 RMK AC1AC1CI2 ACSL / CS ASOCTD SLP246

CYYC;2009-09-21 23:00;CYYC 212300Z 20006KT 40SM FEW100 FEW140 BKN220 21/03 A3021 RMK AC1AC1CI1 ACSL / CS ASOCTD SLP247

CYYC;2009-09-22 00:00;CYYC 220000Z 19006KT 40SM FEW075 FEW090 FEW140 BKN260 22/03 A3019 RMK CU1AC1AC1CI1 SLP237

CYYC;2009-09-22 01:00;CYYC 220100Z 18007KT 40SM FEW075 FEW170 BKN270 20/03 A3019 RMK CU1AC1CI0 SLP236

CYYC;2009-09-22 02:00;CYYC 220200Z 21006KT 40SM FEW150 SCT250 18/03 A3020 RMK AC1CI1 AC TR SLP241

CYYC;2009-09-22 03:00;CYYC 220300Z 21003KT 15SM FEW250 16/04 A3021 RMK CI0 SLP247

CYYC;2009-09-22 04:00;CYYC 220400Z 23004KT 15SM FEW250 15/04 A3022 RMK CI1 CI TR SLP251

CYYC;2009-09-22 05:00;CYYC 220500Z 22005KT 15SM FEW250 16/04 A3022 RMK CI1 CI TR SLP251

CYYC;2009-09-22 06:00;CYYC 220600Z 28006KT 15SM SKC 16/04 A3023 RMK SLP243

CYYC;2009-09-22 07:00;CYYC 220700Z 32003KT 15SM SKC 16/05 A3023 RMK SLP243

CYYC;2009-09-22 08:00;CYYC 220800Z 30005KT 15SM SKC 17/05 A3024 RMK SLP246

CYYC;2009-09-22 09:00;CYYC 220900Z 36004KT 15SM SKC 13/04 A3025 RMK SLP247

CYYC;2009-09-22 10:00;CYYC 221000Z 32004KT 15SM SKC 15/05 A3024 RMK SLP245

CYYC;2009-09-22 11:00;CYYC 221100Z 09002KT 15SM SKC 13/05 A3025 RMK SLP246

CYYC;2009-09-22 12:00;CYYC 221200Z 19004KT 15SM FEW160 FEW230 11/04 A3024 RMK AC1CI0 AC TR SLP244

CYYC;2009-09-22 13:00;CYYC 221300Z 21009KT 30SM FEW160 BKN240 11/05 A3024 RMK AC1CI2 AC TR SLP242

CYYC;2009-09-22 14:00;CYYC 221400Z 21008KT 40SM FEW180 BKN270 11/05 A3024 RMK AC1CI0 CC ASOCTD SLP244

CYYC;2009-09-22 15:00;CYYC 221500Z CCA 21003KT 40SM FEW160 FEW270 14/06 A3025 RMK AC1CI0 SLP248

CYYC;2009-09-22 16:00;CYYC 221600Z CCA 22007KT 40SM FEW160 FEW270 19/07 A3025 RMK AC1CI0 SLP248

CYYC;2009-09-22 17:00;CYYC 221700Z 21006KT 40SM FEW180 FEW270 21/07 A3025 RMK AC1CI0 SLP249

CYYC;2009-09-22 18:00;CYYC 221800Z 18011KT 40SM FEW250 24/08 A3024 RMK CI1 SLP233

CYYC;2009-09-22 19:00;CYYC 221900Z 21006KT 40SM FEW250 25/07 A3023 RMK CI1 SLP231

CYYC;2009-09-22 20:00;CYYC 222000Z 20005KT 40SM FEW280 27/07 A3022 RMK CI1 SLP227

CYYC;2009-09-22 21:00;CYYC 222100Z 16006KT 40SM FEW280 28/07 A3021 RMK CI1 SLP222

CYYC;2009-09-22 22:00;CYYC 222200Z 18005KT 40SM FEW280 29/08 A3021 RMK CI1 SLP220

CYYC;2009-09-22 23:00;CYYC 222300Z 18009KT 40SM FEW300 29/08 A3020 RMK CI1 SLP217

CYYC;2009-09-23 00:00;CYYC 230000Z 18009KT 40SM SKC 28/07 A3018 RMK SLP213

CYYC;2009-09-23 01:00;CYYC 230100Z 16007KT 40SM FEW300 26/06 A3017 RMK CI1 SLP212

CYYC;2009-09-23 02:00;CYYC 230200Z 15005KT 40SM SKC 22/06 A3017 RMK SLP211

CYYC;2009-09-23 03:00;CYYC 230300Z 19010KT 15SM SKC 21/06 A3017 RMK SLP216

CYYC;2009-09-23 04:00;CYYC 230400Z 22008KT 15SM SKC 19/06 A3016 RMK SLP213

CYYC;2009-09-23 05:00;CYYC 230500Z 24006KT 15SM SKC 21/06 A3015 RMK SLP209

CYYC;2009-09-23 06:00;CYYC 230600Z 24010G16KT 15SM SKC 21/05 A3015 RMK SLP196

CYYC;2009-09-23 07:00;CYYC 230700Z 24004KT 15SM SKC 20/05 A3016 RMK SLP198

CYYC;2009-09-23 08:00;CYYC 230800Z 31005KT 15SM SKC 18/04 A3016 RMK SLP199

CYYC;2009-09-23 09:00;CYYC 230900Z 23006KT 15SM SKC 16/05 A3016 RMK SLP199

CYYC;2009-09-23 10:00;CYYC 231000Z 20004KT 15SM SKC 16/06 A3016 RMK SLP198

CYYC;2009-09-23 11:00;CYYC 231100Z 18005KT 15SM SKC 13/05 A3016 RMK SLP200

CYYC;2009-09-23 12:00;CYYC 231200Z 19005KT 15SM SKC 12/05 A3016 RMK SLP207

CYYC;2009-09-23 13:00;CYYC 231300Z 22010KT 30SM FEW200 FEW270 14/05 A3017 RMK CI1CI1 CLDS TR SLP209

CYYC;2009-09-23 14:00;CYYC 231400Z 20005KT 40SM FEW250 16/05 A3016 RMK CI1 SLP207

CYYC;2009-09-23 15:00;CYYC 231500Z 22009KT 40SM FEW250 17/06 A3016 RMK CI1 SLP208

CYYC;2009-09-23 16:00;CYYC 231600Z 00000KT 40SM FEW250 23/06 A3016 RMK CI1 SLP208

CYYC;2009-09-23 17:00;CYYC 231700Z 18004KT 40SM FEW250 24/07 A3015 RMK CI1 SLP205

CYYC;2009-09-23 18:00;CYYC 231800Z 20006KT 40SM SKC 27/08 A3014 RMK CONTRAILS SLP187

CYYC;2009-09-23 19:00;CYYC 231900Z 20005KT 40SM SKC 29/06 A3012 RMK SLP181

CYYC;2009-09-23 20:00;CYYC 232000Z 19008KT 40SM FEW100 30/05 A3009 RMK CU1 SLP173

CYYC;2009-09-23 21:00;CYYC 232100Z 20006KT 40SM FEW100 32/05 A3007 RMK CU1 SLP162

CYYC;2009-09-23 22:00;CYYC 232200Z 17005KT 40SM FEW100 FEW150 33/04 A3005 RMK CU1AC1 SLP156

CYYC;2009-09-23 23:00;CYYC 232300Z 25004KT 40SM FEW110CB 32/04 A3003 RMK CB1 CB W SLP151

CYYC;2009-09-24 00:00;CYYC 240000Z 29005KT 40SM SKC 32/04 A3001 RMK FU S-NW / VIS S-NW 15 SLP148

CYYC;2009-09-24 01:00;CYYC 240100Z 28008KT 30SM SKC 29/03 A3001 RMK FU SLP146

CYYC;2009-09-24 02:00;CYYC 240200Z 28007KT 20SM FEW160 FEW250 27/02 A3000 RMK AC1CI1 BOTH CLDS TR SLP145

CYYC;2009-09-24 03:00;CYYC 240300Z 29009KT 15SM FEW160 FEW250 26/02 A3000 RMK AC1CI1 BOTH CLDS TR SLP144

CYYC;2009-09-24 04:00;CYYC 240400Z 29010KT 15SM FEW250 25/02 A2999 RMK CI1 SLP143

CYYC;2009-09-24 05:00;CYYC 240500Z 30005KT 15SM FEW240 23/02 A2999 RMK CI2 SLP142

CYYC;2009-09-24 06:00;CYYC 240600Z 27003KT 15SM FEW120 SCT230 20/03 A2998 RMK AC1CI2 SLP133

CYYC;2009-09-24 07:00;CYYC 240700Z 17003KT 15SM FEW110 SCT230 15/03 A2997 RMK AC1CI2 SLP131

CYYC;2009-09-24 08:00;CYYC 240800Z 20003KT 15SM SCT240 14/03 A2995 RMK CI2 SLP125

CYYC;2009-09-24 09:00;CYYC 240900Z 21003KT 15SM FEW240 14/03 A2995 RMK CI1 SLP124

CYYC;2009-09-24 10:00;CYYC 241000Z 19003KT 15SM SKC 12/03 A2993 RMK SLP120

CYYC;2009-09-24 11:00;CYYC 241100Z 25002KT 15SM SKC 11/03 A2994 RMK SLP121

CYYC;2009-09-24 12:00;CYYC 241200Z 00000KT 15SM SKC 10/02 A2993 RMK SLP123

CYYC;2009-09-24 13:00;CYYC 241300Z 22003KT 20SM FEW250 11/03 A2993 RMK CI0 SLP123

CYYC;2009-09-24 14:00;CYYC 241400Z 00000KT 20SM FEW250 11/03 A2994 RMK CI1 FU SLP126

CYYC;2009-09-24 15:00;CYYC 241500Z 03002KT 20SM SKC 17/03 A2995 RMK FU SLP130

CYYC;2009-09-24 16:00;CYYC 241600Z 00000KT 20SM SKC 19/05 A2996 RMK FU SLP131

CYYC;2009-09-24 17:00;CYYC 241700Z 20002KT 20SM FEW260 24/06 A2995 RMK CI1 FU SLP130

CYYC;2009-09-24 18:00;CYYC 241800Z 28008KT 20SM SKC 29/00 A2995 RMK FU SLP122

CYYC;2009-09-24 19:00;CYYC 241900Z 28011KT 20SM SKC 29/M00 A2994 RMK FU SLP119

CYYC;2009-09-24 20:00;CYYC 242000Z 23006KT 20SM SKC 30/01 A2994 RMK FU SLP119

CYYC;2009-09-24 21:00;CYYC 242100Z 03019KT 15SM SKC 27/04 A2995 RMK FU + DU / WSHFT 2055 SLP131

CYYC;2009-09-24 22:00;CYYC 242200Z 05014KT 15SM FEW250 25/04 A2995 RMK CI0 FU + DU SLP133

CYYC;2009-09-24 23:00;CYYC 242300Z 03013G18KT 10SM FEW250 25/04 A2996 RMK CI0 FU + DU SLP135

CYYC;2009-09-25 00:00;CYYC 250000Z 05013KT 15SM SKC 23/04 A2998 RMK FU + DU SLP151

CYYC;2009-09-25 01:00;CYYC 250100Z 03009KT 20SM FEW150 FEW260 21/04 A3000 RMK AC1CI1 FU SLP157

CYYC;2009-09-25 02:00;CYYC 250200Z 01010G15KT 15SM FEW150 FEW250 17/04 A3004 RMK AC1CI0 FU SLP170

CYYC;2009-09-25 03:00;CYYC 250300Z 35011KT 15SM SKC 15/03 A3008 RMK SLP188

CYYC;2009-09-25 04:00;CYYC 250400Z 34009KT 15SM SKC 14/02 A3011 RMK SLP197

CYYC;2009-09-25 05:00;CYYC 250500Z 34006KT 15SM FEW120 FEW230 13/01 A3013 RMK AC1CI1 CI TR SLP204

CYYC;2009-09-25 06:00;CYYC 250600Z 32008KT 15SM SCT100 BKN230 13/00 A3015 RMK AC2CI2 SLP200

CYYC;2009-09-25 07:00;CYYC 250700Z 28003KT 15SM FEW110 FEW230 12/M00 A3016 RMK AC1CI0 SLP204

CYYC;2009-09-25 08:00;CYYC 250800Z 00000KT 15SM FEW230 10/01 A3017 RMK CI1 CI TR SLP207

CYYC;2009-09-25 09:00;CYYC 250900Z 33003KT 15SM FEW230 09/00 A3019 RMK CI1 CI TR SLP222

CYYC;2009-09-25 10:00;CYYC 251000Z 36003KT 15SM SKC 08/00 A3020 RMK SLP224

CYYC;2009-09-25 11:00;CYYC 251100Z 34004KT 15SM SKC 07/00 A3020 RMK SLP225

CYYC;2009-09-25 12:00;CYYC 251200Z 03004KT 15SM SKC 05/M00 A3019 RMK SLP232

CYYC;2009-09-25 13:00;CYYC 251300Z 32004KT 15SM FEW130 FEW250 04/M00 A3020 RMK AC1CI0 AC TR SLP233

CYYC;2009-09-25 14:00;CYYC 251400Z 34004KT 40SM FEW150 FEW220 05/M01 A3020 RMK AC1CI0 SLP233

CYYC;2009-09-25 15:00;CYYC 251500Z 20002KT 40SM FEW150 FEW220 07/00 A3019 RMK AC1CI0 SLP241

CYYC;2009-09-25 16:00;CYYC 251600Z 20006KT 30SM FEW150 FEW180 SCT250 11/02 A3019 RMK AC1AS1CI0 SLP239

CYYC;2009-09-25 17:00;CYYC 251700Z 18009KT 40SM FEW180 FEW220 14/01 A3018 RMK AC1CI0 CONTRAILS SLP237

CYYC;2009-09-25 18:00;CYYC 251800Z 19013KT 30SM FEW220 17/01 A3016 RMK CI0 HZ+FU / CONTRAILS SLP218

CYYC;2009-09-25 19:00;CYYC 251900Z 18011KT 30SM FEW180 BKN220 19/02 A3013 RMK AS2CI0 CONTRAILS SLP210

CYYC;2009-09-25 20:00;CYYC 252000Z 18011KT 30SM FEW150 FEW180 BKN230 20/02 A3011 RMK AC1AS2CI2 CONTRAILS SLP204

CYYC;2009-09-25 21:00;CYYC 252100Z 19008KT 30SM FEW150 FEW180 BKN230 22/03 A3007 RMK AC1AS2CI1 SLP188

CYYC;2009-09-25 22:00;CYYC 252200Z 17009KT 30SM FEW120 FEW180 FEW230 23/03 A3005 RMK AC1AS1CI1 AC + AS TR / CONTRAILS SLP179

CYYC;2009-09-25 23:00;CYYC 252300Z 18009KT 30SM FEW120 FEW180 SCT230 23/02 A3001 RMK AC1AS1CI1 AC + AS TR / CONTRAILS / HZ SLP169

CYYC;2009-09-26 00:00;CYYC 260000Z 17010KT 30SM FEW120 SCT240 23/02 A2999 RMK AC1CI2 HZ SLP161

CYYC;2009-09-26 01:00;CYYC 260100Z 15008KT 40SM FEW150 FEW180 BKN230 21/03 A2996 RMK AC1AS1CI2 SLP152

CYYC;2009-09-26 02:00;CYYC 260200Z 15006KT 15SM FEW180 BKN240 19/03 A2994 RMK AC1CI3 AC TR SLP146

CYYC;2009-09-26 03:00;CYYC 260300Z 16003KT 15SM FEW180 BKN240 15/02 A2992 RMK AC1CI2 SLP147

CYYC;2009-09-26 04:00;CYYC 260400Z 21006KT 15SM FEW180 BKN250 16/03 A2989 RMK AC1CI2 SLP139

CYYC;2009-09-26 05:00;CYYC 260500Z 21006KT 15SM FEW160 SCT230 16/04 A2988 RMK AC1CI2 SLP134

CYYC;2009-09-26 06:00;CYYC 260600Z 25006KT 15SM FEW160 BKN220 17/03 A2986 RMK AC2CI3 SLP110

CYYC;2009-09-26 07:00;CYYC 260700Z 22003KT 15SM FEW160 BKN210 14/03 A2985 RMK AC2CI4 SLP108

CYYC;2009-09-26 08:00;CYYC 260800Z 21006KT 15SM FEW230 19/00 A2983 RMK CI0 SLP101

CYYC;2009-09-26 09:00;CYYC 260900Z 27008KT 15SM SKC 18/00 A2984 RMK SLP093

CYYC;2009-09-26 10:00;CYYC 261000Z 34010KT 15SM FEW160 SCT240 13/02 A2986 RMK AC1CI2 AC TR SLP100

CYYC;2009-09-26 11:00;CYYC 261100Z 33008KT 15SM FEW160 SCT240 11/02 A2987 RMK AC1CI2 AC TR SLP104

CYYC;2009-09-26 12:00;CYYC 261200Z 34006KT 15SM FEW160 SCT240 09/02 A2986 RMK AC1CI2 SLP113

CYYC;2009-09-26 13:00;CYYC 261300Z 34006KT 15SM FEW160 FEW240 10/02 A2987 RMK AC1CI1 SLP115

CYYC;2009-09-26 14:00;CYYC 261400Z 01003KT 40SM FEW050 FEW100 08/02 A2987 RMK SC1AC1 SLP117

CYYC;2009-09-26 15:00;CYYC 261500Z 21002KT 40SM FEW050 FEW100 10/03 A2988 RMK SC1AC1 SLP128

CYYC;2009-09-26 16:00;CYYC 261600Z 00000KT 40SM FEW050 14/05 A2987 RMK SC1 SLP124

CYYC;2009-09-26 17:00;CYYC 261700Z 11005KT 40SM FEW050 FEW150 15/05 A2987 RMK SC1AC1 SLP124

CYYC;2009-09-26 18:00;CYYC 261800Z 09009KT 40SM FEW050 15/05 A2985 RMK SC1 SLP107

CYYC;2009-09-26 19:00;CYYC 261900Z 14012KT 40SM FEW050 17/05 A2981 RMK SC1 SLP097

CYYC;2009-09-26 20:00;CYYC 262000Z 15010KT 40SM FEW050 18/05 A2979 RMK SC1 SLP090

CYYC;2009-09-26 21:00;CYYC 262100Z 15011KT 40SM FEW050 20/05 A2975 RMK SC1 SLP066

CYYC;2009-09-26 22:00;CYYC 262200Z 18013KT 40SM FEW065 21/04 A2971 RMK SC2 CU ASOCTD SLP055

CYYC;2009-09-26 22:29;CYYC 262229Z 27028G37KT 30SM FEW065 22/ RMK SC2 WSHFT 2214

CYYC;2009-09-26 23:00;CYYC 262300Z 27029G35KT 40SM FEW065 SCT080 22/M07 A2972 RMK SC2AC1 SLP057

CYYC;2009-09-27 00:00;CYYC 270000Z 29020G26KT 40SM FEW065 FEW080 SCT140 20/M06 A2975 RMK SC2AC1AC1 SLP076

CYYC;2009-09-27 00:44;CYYC 270044Z 36032G51KT 2 1/2SM BLDU FEW065 SCT080 BKN140 10/ RMK SC2AC1AC2

CYYC;2009-09-27 01:00;CYYC 270100Z 01030G37KT 30SM FEW015 FEW060 SCT080 BKN150 09/03 A2985 RMK CF1SC2AC1AC2 PRESRR SLP109

CYYC;2009-09-27 02:00;CYYC 270200Z 36017G22KT 15SM BKN120 08/03 A2995 RMK AC3 SLP137

CYYC;2009-09-27 03:00;CYYC 270300Z 02015G21KT 15SM FEW030 FEW120 08/02 A2998 RMK SC1AC2 SLP172

CYYC;2009-09-27 04:00;CYYC 270400Z 36010G16KT 15SM FEW070 BKN120 07/02 A3003 RMK AC2AC2 SLP186

CYYC;2009-09-27 05:00;CYYC 270500Z 30004KT 15SM SCT080 SCT120 07/01 A3005 RMK AC4AC1 SLP193

CYYC;2009-09-27 06:00;CYYC 270600Z 30006KT 15SM FEW080 06/M03 A3007 RMK AC1 SLP199

CYYC;2009-09-27 07:00;CYYC 270700Z 28002KT 15SM FEW080 06/M03 A3009 RMK AC1 SLP205

CYYC;2009-09-27 08:00;CYYC 270800Z 33011KT 15SM SKC 06/M07 A3011 RMK SLP211

CYYC;2009-09-27 09:00;CYYC 270900Z 31009KT 15SM SKC 04/M09 A3012 RMK SLP214

CYYC;2009-09-27 10:00;CYYC 271000Z 30008KT 15SM SKC 03/M09 A3013 RMK SLP218

CYYC;2009-09-27 11:00;CYYC 271100Z 29007KT 15SM SKC 05/M10 A3016 RMK SLP225

CYYC;2009-09-27 12:00;CYYC 271200Z 30011KT 15SM SKC 04/M09 A3017 RMK SLP229

CYYC;2009-09-27 13:00;CYYC 271300Z 30009KT 15SM SKC 05/M09 A3019 RMK SLP234

CYYC;2009-09-27 14:00;CYYC 271400Z 31008KT 40SM FEW120 04/M09 A3019 RMK AC1 AC TR SLP236

CYYC;2009-09-27 15:00;CYYC 271500Z 31010KT 40SM FEW120 06/M08 A3022 RMK AC1 AC TR SLP261

CYYC;2009-09-27 16:00;CYYC 271600Z 34015G20KT 40SM SKC 08/M07 A3023 RMK SLP266

CYYC;2009-09-27 17:00;CYYC 271700Z 35015G22KT 40SM SKC 09/M06 A3023 RMK SLP266

CYYC;2009-09-27 18:00;CYYC 271800Z 36015KT 40SM SKC 10/M06 A3024 RMK SLP264

CYYC;2009-09-27 19:00;CYYC 271900Z 35011KT 40SM FEW050 11/M05 A3023 RMK CU1 CU TR SLP263

CYYC;2009-09-27 20:00;CYYC 272000Z 01004KT 40SM FEW050 12/M06 A3023 RMK CU1 CU TR SLP262

CYYC;2009-09-27 21:00;CYYC 272100Z 01006KT 40SM FEW060 12/M06 A3021 RMK CU1 CU TR SLP256

CYYC;2009-09-27 22:00;CYYC 272200Z 02007KT 40SM FEW060 13/M06 A3020 RMK CU1 CU TR SLP251

CYYC;2009-09-27 23:00;CYYC 272300Z 05006KT 40SM FEW060 13/M06 A3019 RMK CU1 CU TR SLP248

CYYC;2009-09-28 00:00;CYYC 280000Z 03003KT 40SM SKC 12/M06 A3019 RMK SLP247

CYYC;2009-09-28 01:00;CYYC 280100Z 08007KT 40SM FEW220 10/M06 A3018 RMK CI1 CI TR SLP246

CYYC;2009-09-28 02:00;CYYC 280200Z 10007KT 40SM FEW040 FEW260 09/M05 A3018 RMK CU1CI1 SLP246

CYYC;2009-09-28 03:00;CYYC 280300Z 12008KT 15SM SKC 07/M05 A3018 RMK SLP250

CYYC;2009-09-28 04:00;CYYC 280400Z 12007KT 15SM SKC 06/M05 A3018 RMK SLP249

CYYC;2009-09-28 05:00;CYYC 280500Z 14008KT 15SM SKC 05/M05 A3017 RMK SLP247

CYYC;2009-09-28 06:00;CYYC 280600Z 16007KT 15SM FEW240 04/M06 A3016 RMK CI0 SLP242

CYYC;2009-09-28 07:00;CYYC 280700Z 16008KT 15SM FEW240 04/M06 A3014 RMK CI0 SLP237

CYYC;2009-09-28 08:00;CYYC 280800Z 16010G16KT 15SM FEW240 04/M06 A3011 RMK CI0 SLP228

CYYC;2009-09-28 09:00;CYYC 280900Z 17009KT 15SM SKC 03/M06 A3009 RMK SLP215

CYYC;2009-09-28 10:00;CYYC 281000Z 16012G18KT 15SM SKC 03/M06 A3006 RMK SLP206

CYYC;2009-09-28 11:00;CYYC 281100Z 16012KT 15SM FEW190 FEW240 03/M06 A3003 RMK AS2CI0 SLP197

CYYC;2009-09-28 12:00;CYYC 281200Z 15012KT 15SM FEW180 SCT210 SCT240 03/M06 A2999 RMK AS2CI1CI0 SLP182

CYYC;2009-09-28 13:00;CYYC 281300Z 16014G19KT 15SM BKN180 BKN210 03/M06 A2996 RMK AC5CI2 SLP172

CYYC;2009-09-28 14:00;CYYC 281400Z 17013KT 40SM BKN180 BKN200 03/M06 A2993 RMK AC5CI2 VIRGA E SLP164

CYYC;2009-09-28 15:00;CYYC 281500Z 16015G21KT 40SM BKN160 BKN200 04/M06 A2990 RMK AC4CI2 SLP155

CYYC;2009-09-28 16:00;CYYC 281600Z 16014G26KT 40SM SCT160 BKN190 06/M05 A2987 RMK AC3AC3 SLP145

CYYC;2009-09-28 17:00;CYYC 281700Z 16019G31KT 40SM FEW140 BKN220 08/M05 A2984 RMK AC1CS6 SLP135

CYYC;2009-09-28 18:00;CYYC 281800Z 16026G34KT 40SM FEW070 FEW140 OVC210 10/M06 A2977 RMK AC1AC2CS5 PRESFR SLP105

CYYC;2009-09-28 19:00;CYYC 281900Z 17023G30KT 40SM FEW090 FEW170 OVC210 11/M06 A2976 RMK AC1AC2CS5 SLP101

CYYC;2009-09-28 20:00;CYYC 282000Z 15026G37KT 30SM FEW090 FEW150 BKN230 14/M06 A2971 RMK AC1AC1CI2 SLP087

CYYC;2009-09-28 21:00;CYYC 282100Z 16025G33KT 40SM FEW170 BKN250 15/M06 A2966 RMK AC1CI1 SLP064

CYYC;2009-09-28 22:00;CYYC 282200Z 16024G32KT 30SM FEW170 FEW250 16/M05 A2963 RMK AC1CI1 SLP052

CYYC;2009-09-28 23:00;CYYC 282300Z 16023G32KT 30SM FEW220 16/M05 A2961 RMK CI1 SLP046

CYYC;2009-09-29 00:00;CYYC 290000Z 16019G29KT 30SM FEW200 16/M05 A2958 RMK CI1 SLP034

CYYC;2009-09-29 01:00;CYYC 290100Z 15018G24KT 30SM FEW180 BKN240 15/M04 A2956 RMK AC1CI2 SLP028

CYYC;2009-09-29 02:00;CYYC 290200Z CCA 16015G20KT 20SM FEW180 BKN240 14/M05 A2956 RMK AC1CI2 SLP026

CYYC;2009-09-29 03:00;CYYC 290300Z 17015G22KT 15SM FEW180 BKN240 14/M05 A2954 RMK AC1CI3 AC TR SLP021

CYYC;2009-09-29 04:00;CYYC 290400Z 18018KT 15SM FEW160 OVC240 13/M04 A2954 RMK AC1CI3 SLP020

CYYC;2009-09-29 05:00;CYYC 290500Z 16012KT 15SM BKN250 11/M03 A2954 RMK CI3 SLP021

CYYC;2009-09-29 06:00;CYYC 290600Z 18013G18KT 15SM BKN250 10/M03 A2953 RMK CI2 SLP013

CYYC;2009-09-29 07:00;CYYC 290700Z 17008KT 15SM FEW110 BKN250 09/M03 A2952 RMK AC1CI2 AC TR SLP009

CYYC;2009-09-29 08:00;CYYC 290800Z 20007KT 15SM FEW200 BKN250 08/M03 A2951 RMK CI2CI2 SLP007

CYYC;2009-09-29 09:00;CYYC 290900Z 20007KT 15SM BKN220 BKN250 08/M03 A2951 RMK CI2CI1 SLP004

CYYC;2009-09-29 10:00;CYYC 291000Z 21005KT 15SM SCT140 OVC230 09/M03 A2950 RMK AC3CI2 SLP001

CYYC;2009-09-29 11:00;CYYC 291100Z 18013KT 15SM SCT170 OVC230 09/M03 A2949 RMK AC3CI3 SLP997

CYYC;2009-09-29 12:00;CYYC 291200Z 18005KT 15SM FEW170 BKN240 08/M03 A2948 RMK AC2CI3 SLP990

CYYC;2009-09-29 13:00;CYYC 291300Z 18006KT 15SM FEW200 BKN250 06/M04 A2948 RMK CI2CI1 SLP990

CYYC;2009-09-29 14:00;CYYC 291400Z 24005KT 30SM FEW044 FEW140 FEW250 08/M03 A2948 RMK CU1AC1CI0 ACSL SLP991

CYYC;2009-09-29 15:00;CYYC 291500Z 22005KT 30SM FEW044 FEW140 BKN230 11/M01 A2948 RMK CU1AC1CI2 SLP990

CYYC;2009-09-29 16:00;CYYC 291600Z 21004KT 30SM FEW065 FEW170 BKN200 17/M05 A2948 RMK CU1AC1CI2 SLP991

CYYC;2009-09-29 17:00;CYYC 291700Z 19009KT 30SM FEW080 FEW170 BKN220 19/M06 A2948 RMK CU1AC1CI3 SLP990

CYYC;2009-09-29 18:00;CYYC 291800Z 23012KT 30SM FEW100 FEW170 BKN210 20/M06 A2947 RMK CU1AC2CI4 SLP979

CYYC;2009-09-29 19:00;CYYC 291900Z 21012G18KT 30SM FEW100 FEW190 BKN220 19/M05 A2948 RMK CU1AC2CI5 SLP983

CYYC;2009-09-29 20:00;CYYC 292000Z 21012KT 20SM FEW100 FEW190 BKN210 20/M05 A2948 RMK CU1AC2CI4 SLP981

CYYC;2009-09-29 21:00;CYYC 292100Z 22017G26KT 30SM FEW100 FEW190 BKN250 21/M04 A2948 RMK CU1AC2CI1 SLP986

CYYC;2009-09-29 22:00;CYYC 292200Z 23020G26KT 30SM FEW100 FEW170 OVC260 20/M04 A2950 RMK CU1AC1CI2 SLP992

CYYC;2009-09-29 23:00;CYYC 292300Z 23018G27KT 30SM FEW100 FEW170 OVC260 18/M05 A2953 RMK CU1AC1CI4 SLP000

CYYC;2009-09-30 00:00;CYYC 300000Z 25015KT 30SM FEW100 FEW170 OVC240 16/M05 A2957 RMK CU1AC1CI2 SLP022

CYYC;2009-09-30 01:00;CYYC 300100Z 24013KT 30SM FEW110 FEW160 OVC240 15/M07 A2959 RMK AC1AC2CI2 SLP028

CYYC;2009-09-30 02:00;CYYC 300200Z 02014KT 15SM FEW080 FEW180 OVC230 10/M01 A2963 RMK AC1AC1CI4 SLP040

CYYC;2009-09-30 03:00;CYYC 300300Z 35007KT 15SM FEW080 FEW160 OVC240 08/M01 A2967 RMK AC1AC2CI3 SLP064

CYYC;2009-09-30 04:00;CYYC 300400Z 36005KT 15SM FEW090 FEW170 BKN240 08/M01 A2971 RMK AC1AC2CI2 SLP076

CYYC;2009-09-30 05:00;CYYC 300500Z 33005KT 15SM BKN068 BKN170 OVC220 08/M00 A2973 RMK AC6AC1CI1 SLP081

CYYC;2009-09-30 06:00;CYYC 300600Z 35006KT 15SM BKN096 OVC220 08/01 A2974 RMK AC6CI2 SLP076

CYYC;2009-09-30 07:00;CYYC 300700Z 02008KT 15SM BKN099 OVC220 07/01 A2975 RMK AC6CI2 SLP080

CYYC;2009-09-30 08:00;CYYC 300800Z 35006KT 15SM FEW068 BKN090 OVC210 07/M00 A2978 RMK AC1AC6CI2 SLP089

CYYC;2009-09-30 09:00;CYYC 300900Z 33002KT 15SM FEW067 BKN110 OVC180 07/00 A2977 RMK AC2AC5AC2 SLP087

CYYC;2009-09-30 10:00;CYYC 301000Z 33009KT 15SM BKN079 OVC130 07/M01 A2980 RMK AC6AC2 SLP095

CYYC;2009-09-30 11:00;CYYC 301100Z 32009KT 15SM FEW075 BKN100 OVC180 06/00 A2982 RMK AC1AC6AC1 SLP102

CYYC;2009-09-30 12:00;CYYC 301200Z 33010KT 15SM FEW075 SCT110 OVC180 06/00 A2982 RMK AC1AC3AC4 SLP113

CYYC;2009-09-30 13:00;CYYC 301300Z 33007KT 15SM FEW080 BKN130 OVC210 05/M00 A2986 RMK AC1AC6CI1 SLP124

CYYC;2009-09-30 14:00;CYYC 301400Z 35007KT 40SM BKN040 BKN150 05/M00 A2989 RMK SC4AC2 SLP133

CYYC;2009-09-30 15:00;CYYC 301500Z 25006KT 40SM SCT040 BKN150 BKN210 05/M01 A2991 RMK SC3AS3CI0 SLP155

CYYC;2009-09-30 16:00;CYYC 301600Z 01010KT 30SM FEW040 SCT150 BKN210 06/M02 A2993 RMK SC2AS2CI1 SLP161

CYYC;2009-09-30 17:00;CYYC 301700Z 36014G19KT 30SM FEW044 SCT150 BKN210 07/M03 A2995 RMK SC2AS2CI0 SLP167

CYYC;2009-09-30 18:00;CYYC 301800Z 36012KT 30SM SCT050 BKN210 07/M03 A2996 RMK SC2CI1 SLP172

CYYC;2009-09-30 19:00;CYYC 301900Z 36010G18KT 30SM FEW050 FEW180 FEW230 09/M03 A2996 RMK SC1AS1CI1 AS TR SLP172

CYYC;2009-09-30 20:00;CYYC 302000Z 32009KT 40SM SCT051 SCT220 09/M04 A2996 RMK CU3CI1 CONTRAILS / TCU ASOCTD SLP170

CYYC;2009-09-30 21:00;CYYC 302100Z 02008KT 40SM FEW050 FEW220 10/M05 A2996 RMK CU1CI1 CONTRAILS SLP169

CYYC;2009-09-30 22:00;CYYC 302200Z 32007KT 40SM FEW050 FEW220 10/M05 A2996 RMK CU1CI1 TCU ASOCTD SW SLP169

CYYC;2009-09-30 23:00;CYYC 302300Z 36003KT 30SM FEW050 FEW220 11/M05 A2998 RMK CU1CI1 SLP174

CYYC;2009-10-01 01:00;CYYC 010100Z 05006KT 40SM FEW050CB FEW220 08/M05 A3000 RMK CB1CI1 CB NW / SH DIST NW / VIS NW LWR SLP182

CYYC;2009-10-01 02:00;CYYC 010200Z 06003KT 15SM FEW060 FEW220 06/M05 A3003 RMK SC1CI1 BOTH CLDS TR SLP190

CYYC;2009-10-01 03:00;CYYC 010300Z 06004KT 15SM FEW062 FEW120 05/M05 A3005 RMK SC1AC1 AC TR SLP208

CYYC;2009-10-01 04:00;CYYC 010400Z 34004KT 15SM FEW063 FEW120 04/M04 A3006 RMK SC1AC1 AC TR SLP213

CYYC;2009-10-01 05:00;CYYC 010500Z 36003KT 15SM FEW110 03/M04 A3006 RMK AC1 AC TR SLP214

CYYC;2009-10-01 06:00;CYYC 010600Z 33007KT 15SM SKC 01/M05 A3006 RMK SLP214

CYYC;2009-10-01 07:00;CYYC 010700Z 34006KT 15SM FEW200 00/M05 A3006 RMK CI1 CI TR SLP216

CYYC;2009-10-01 08:00;CYYC 010800Z 36004KT 15SM SKC M01/M06 A3007 RMK SLP217

CYYC;2009-10-01 09:00;CYYC 010900Z 33003KT 15SM SKC M01/M06 A3007 RMK SLP218

CYYC;2009-10-01 10:00;CYYC 011000Z 34003KT 15SM FEW160 M03/M07 A3008 RMK AC1 SLP221

CYYC;2009-10-01 11:00;CYYC 011100Z 00000KT 15SM FEW160 M03/M07 A3008 RMK AC1 AC TR SLP222

CYYC;2009-10-01 12:00;CYYC 011200Z 04002KT 15SM FEW082 M03/M07 A3009 RMK AC2 SLP227

CYYC;2009-10-01 13:00;CYYC 011300Z 32004KT 15SM FEW085 M03/M08 A3009 RMK AC1 SLP228

CYYC;2009-10-01 14:00;CYYC 011400Z 32002KT 40SM FEW080 FEW220 M04/M08 A3009 RMK AC1CI1 SLP228

CYYC;2009-10-01 15:00;CYYC 011500Z 00000KT 40SM FEW080 FEW120 FEW220 M02/M07 A3010 RMK AC2AC1CI1 SLP237

CYYC;2009-10-01 16:00;CYYC 011600Z 00000KT 40SM SCT079 SCT220 00/M06 A3010 RMK AC3CI1 SLP237

CYYC;2009-10-01 17:00;CYYC 011700Z 21003KT 40SM FEW035 FEW080 FEW220 05/M04 A3009 RMK CU1AC1CI1 CU +CI TR SLP235

CYYC;2009-10-01 18:00;CYYC 011800Z 15005KT 40SM FEW080 FEW220 08/M04 A3007 RMK AC1CI1 SLP219

CYYC;2009-10-01 19:00;CYYC 011900Z 07004KT 40SM FEW080 FEW220 09/M05 A3005 RMK AC1CI1 SLP211

CYYC;2009-10-01 20:00;CYYC 012000Z 10006KT 40SM FEW070 FEW220 10/M06 A3003 RMK CU1CI1 SLP205

CYYC;2009-10-01 21:00;CYYC 012100Z 05006KT 40SM FEW070 FEW220 11/M06 A3001 RMK CU1CI1 CI TR SLP196

CYYC;2009-10-01 22:00;CYYC 012200Z 01005KT 40SM FEW080 FEW220 11/M07 A3000 RMK CU2CI1 SLP193

CYYC;2009-10-01 23:00;CYYC 012300Z 27005KT 40SM SCT080 13/M07 A3000 RMK CU4 SLP192

CYYC;2009-10-02 00:00;CYYC 020000Z 26008KT 40SM BKN082 12/M06 A3000 RMK AC6 SLP192

CYYC;2009-10-02 01:00;CYYC 020100Z 09008KT 40SM FEW080 FEW110 10/M06 A3000 RMK AC2AC1 SLP194

CYYC;2009-10-02 02:00;CYYC 020200Z 14005KT 15SM FEW130 FEW210 08/M06 A3002 RMK AC1CI1 SLP199

CYYC;2009-10-02 03:00;CYYC 020300Z 12006KT 15SM FEW130 FEW220 07/M06 A3002 RMK AC1CI1 AC TR SLP205

CYYC;2009-10-02 04:00;CYYC 020400Z 12006KT 15SM FEW110 FEW220 05/M06 A3002 RMK AC1CI1 AC TR SLP204

CYYC;2009-10-02 05:00;CYYC 020500Z 22003KT 15SM FEW120 FEW210 04/M06 A3001 RMK AC1CI1 SLP202

CYYC;2009-10-02 06:00;CYYC 020600Z 25004KT 15SM FEW130 FEW240 03/M05 A3000 RMK AC1CI1 CLDS TR SLP188

CYYC;2009-10-02 07:00;CYYC 020700Z 27004KT 15SM SKC 04/M06 A2999 RMK SLP186

CYYC;2009-10-02 08:00;CYYC 020800Z 11003KT 15SM SKC 03/M06 A2999 RMK SLP186

CYYC;2009-10-02 09:00;CYYC 020900Z 20004KT 15SM SKC 01/M06 A2998 RMK SLP182

CYYC;2009-10-02 10:00;CYYC 021000Z 19004KT 15SM SKC M03/M06 A2998 RMK SLP181

CYYC;2009-10-02 11:00;CYYC 021100Z 20004KT 15SM FEW060 FEW140 M00/M06 A2998 RMK SC1AC1 AC TR SLP181

CYYC;2009-10-02 12:00;CYYC 021200Z 18003KT 15SM FEW061 FEW140 M01/M06 A2997 RMK SC1AC1 AC TR SLP180

CYYC;2009-10-02 13:00;CYYC 021300Z 21004KT 15SM FEW190 FEW250 M01/M06 A2997 RMK AC1CI0 SLP178

CYYC;2009-10-02 14:00;CYYC 021400Z 19005KT 40SM FEW190 FEW250 M01/M06 A2997 RMK AC1CI0 SLP180

CYYC;2009-10-02 15:00;CYYC 021500Z 20005KT 30SM FEW160 FEW220 04/M04 A2997 RMK AC2CI0 SLP180

CYYC;2009-10-02 16:00;CYYC 021600Z 27003KT 30SM FEW140 FEW180 SCT220 07/M04 A2997 RMK AC1AS1CI0 SLP180

CYYC;2009-10-02 17:00;CYYC 021700Z 16002KT 40SM FEW160 FEW180 BKN220 08/M05 A2997 RMK AC1AS2CI1 AC TR SLP179

CYYC;2009-10-02 18:00;CYYC 021800Z 11004KT 40SM FEW160 FEW180 SCT220 11/M05 A2995 RMK AC1AS2CI0 VIRGA SLP169

CYYC;2009-10-02 19:00;CYYC 021900Z 11004KT 40SM FEW160 BKN180 BKN220 10/M06 A2994 RMK AC2AS5CI0 SLP166

CYYC;2009-10-02 20:00;CYYC 022000Z 14004KT 40SM FEW160 BKN180 11/M06 A2993 RMK AC1AS6 SLP162

CYYC;2009-10-02 21:00;CYYC 022100Z 19006KT 40SM BKN150 BKN180 11/M05 A2992 RMK AC6AS2 SLP162

CYYC;2009-10-02 22:00;CYYC 022200Z 13010KT 30SM SCT140 BKN180 BKN220 12/M05 A2991 RMK AC3AS3CI0 SLP159

CYYC;2009-10-02 23:00;CYYC 022300Z 12010G15KT 20SM BKN130 BKN180 BKN220 11/M05 A2991 RMK AC6AS1CI0 SH S - W SLP157

CYYC;2009-10-03 00:00;CYYC 030000Z 11010G15KT 20SM BKN100 BKN180 11/M05 A2991 RMK AC6AS2 SH S - W SLP160

CYYC;2009-10-03 01:00;CYYC 030100Z 11009KT 20SM SCT100 BKN180 10/M04 A2992 RMK AC3AS2 VIRGA ALQDS SLP162

CYYC;2009-10-03 02:00;CYYC 030200Z 14007KT 15SM OVC060 09/M03 A2993 RMK SC8 VIRGA S SLP167

CYYC;2009-10-03 02:56;CYYC 030256Z 13010KT 10SM -RA OVC040 08/ RMK SC8

CYYC;2009-10-03 03:00;CYYC 030300Z 11010KT 10SM -RA OVC040 08/00 A2995 RMK SC8 SLP170

CYYC;2009-10-03 04:00;CYYC 030400Z 16010G15KT 15SM -RA BKN050 BKN090 OVC210 07/03 A2997 RMK SC5AS2CI1 RA VRY LGT SLP177

CYYC;2009-10-03 04:29;CYYC 030429Z 19004KT 15SM BKN050 BKN090 OVC210 06/ RMK SC5AC2CI1

CYYC;2009-10-03 05:00;CYYC 030500Z 00000KT 15SM BKN050 BKN100 OVC210 05/03 A2998 RMK SC6AC2CI1 SLP180

CYYC;2009-10-03 06:00;CYYC 030600Z 10012KT 15SM OVC100 06/M03 A2998 RMK AC8 SLP176

CYYC;2009-10-03 07:00;CYYC 030700Z 10012KT 15SM OVC120 05/M04 A3000 RMK AC8 SLP180

CYYC;2009-10-03 08:00;CYYC 030800Z 10009KT 15SM OVC110 05/M04 A3001 RMK AC8 SLP185

CYYC;2009-10-03 09:00;CYYC 030900Z 07009KT 15SM BKN110 OVC210 05/M04 A3002 RMK AC6CI2 SLP191

CYYC;2009-10-03 10:00;CYYC 031000Z 09009KT 15SM BKN090 OVC210 04/M03 A3003 RMK AC6CI2 SLP193

CYYC;2009-10-03 11:00;CYYC 031100Z 16006KT 15SM BKN050 OVC090 04/M04 A3004 RMK SC5AC3 SLP197

CYYC;2009-10-03 12:00;CYYC 031200Z 04007KT 15SM BKN050 OVC090 02/00 A3006 RMK SC6AC2 SLP210

CYYC;2009-10-03 13:00;CYYC 031300Z 03004KT 15SM BKN050 OVC090 02/M01 A3008 RMK SC7AC1 SLP214

CYYC;2009-10-03 14:00;CYYC 031400Z 34006KT 30SM BKN050 OVC150 02/M00 A3009 RMK SC7AC1 SLP219

CYYC;2009-10-03 15:00;CYYC 031500Z 35006KT 30SM SCT050 BKN080 BKN150 BKN220 02/M00 A3012 RMK SC3AC2AC2CI1 SLP232

CYYC;2009-10-03 16:00;CYYC 031600Z 02011KT 30SM FEW015 SCT050 BKN080 BKN220 03/M01 A3014 RMK CF1SC3AC2CI1 SH DIST S SLP240

CYYC;2009-10-03 17:00;CYYC 031700Z 36012KT 30SM FEW015 FEW030 BKN050 OVC080 04/00 A3016 RMK CF1SC2SC3AC3 SH DIST SW SLP245

CYYC;2009-10-03 18:00;CYYC 031800Z 05011KT 30SM FEW015 BKN020 OVC030 04/M01 A3017 RMK CF1SC6SC2 SLP252

CYYC;2009-10-03 19:00;CYYC 031900Z 04011KT 30SM FEW015 BKN020 OVC030 04/M01 A3017 RMK CF1SC5SC2 SLP252

CYYC;2009-10-03 20:00;CYYC 032000Z 02011KT 30SM BKN020 OVC030 04/M01 A3019 RMK SC6SC2 SLP256

CYYC;2009-10-03 21:00;CYYC 032100Z 04010G15KT 30SM BKN020 OVC030 04/M01 A3020 RMK SC7SC1 SLP263

CYYC;2009-10-03 22:00;CYYC 032200Z 02013KT 30SM BKN020 OVC030 04/M01 A3021 RMK SC6SC2 SLP265

CYYC;2009-10-03 23:00;CYYC 032300Z 02014KT 30SM SCT020 OVC030 04/M02 A3021 RMK SC4SC4 SLP265

CYYC;2009-10-04 00:00;CYYC 040000Z 02011G17KT 30SM SCT020 OVC030 04/M02 A3022 RMK SC3SC5 SLP272

CYYC;2009-10-04 01:00;CYYC 040100Z 03014KT 30SM FEW015 SCT020 OVC030 04/M02 A3023 RMK SC1SC3SC4 SLP277

CYYC;2009-10-04 02:00;CYYC 040200Z 03016KT 8SM OVC030 02/M02 A3025 RMK SC8 SLP283

CYYC;2009-10-04 03:00;CYYC 040300Z 01015G20KT 15SM OVC030 02/M01 A3026 RMK SC8 SLP291

CYYC;2009-10-04 04:00;CYYC 040400Z 36015G21KT 8SM -SN OVC030 02/M02 A3026 RMK SC8 SLP292

CYYC;2009-10-04 05:00;CYYC 040500Z 35013G19KT 2 1/2SM -SN OVC015 01/M01 A3026 RMK SC8 SLP292

CYYC;2009-10-04 06:00;CYYC 040600Z 35012KT 5SM -SN OVC020 01/M01 A3027 RMK SC8 SLP293

CYYC;2009-10-04 06:19;CYYC 040619Z 35013G18KT 2 1/2SM -SN OVC015 01/ RMK SC8

CYYC;2009-10-04 07:00;CYYC 040700Z 34011G17KT 2 1/2SM -SN OVC015 00/M01 A3027 RMK SC8 SLP293

CYYC;2009-10-04 08:00;CYYC 040800Z 35013KT 2 1/2SM -SN OVC015 01/M01 A3026 RMK SC8 SLP291

CYYC;2009-10-04 09:00;CYYC 040900Z 35013KT 5SM -SN OVC015 01/M01 A3026 RMK SC8 SLP288

CYYC;2009-10-04 10:00;CYYC 041000Z 35014G19KT 4SM -SN OVC015 00/M01 A3025 RMK SC8 SLP285

CYYC;2009-10-04 11:00;CYYC 041100Z 35015G20KT 3SM -SN OVC015 00/M01 A3024 RMK SC8 SLP283

CYYC;2009-10-04 12:00;CYYC 041200Z CCA 35014KT 4SM -SN OVC015 00/M01 A3024 RMK SC8 SNOW COVER/TRACE LOOSE /S01/ SLP283

CYYC;2009-10-04 13:00;CYYC 041300Z 35013KT 4SM -SN OVC015 00/M01 A3025 RMK SC8 SLP284

CYYC;2009-10-04 13:48;CYYC 041348Z 35013KT 3SM -SN OVC005 00/ RMK SC8

CYYC;2009-10-04 13:52;CYYC 041352Z 35015KT 1 1/4SM -SN OVC005 00/ RMK SC8

CYYC;2009-10-04 14:00;CYYC 041400Z 35014KT 1 1/4SM -SN OVC005 00/M01 A3025 RMK SC8 SN WET SLP285

CYYC;2009-10-04 15:00;CYYC 041500Z 35013KT 1 1/2SM -SN OVC005 00/M01 A3026 RMK SC8 SLP292

CYYC;2009-10-04 15:14;CYYC 041514Z 35011G16KT 3SM -SN OVC006 00/ RMK SC8

CYYC;2009-10-04 15:42;CYYC 041542Z 35013KT 2SM -SN OVC005 00/ RMK SC8

CYYC;2009-10-04 15:55;CYYC 041555Z 35010G16KT 4SM -SN OVC007 00/ RMK SC8

CYYC;2009-10-04 16:00;CYYC 041600Z 36013KT 4SM -SN OVC007 00/M01 A3026 RMK SC8 SLP294

CYYC;2009-10-04 16:39;CYYC 041639Z 36013KT 1 1/2SM -SN OVC005 00/ RMK SN3SC5

CYYC;2009-10-04 17:00;CYYC 041700Z 35013KT 2SM -SN OVC005 00/M01 A3026 RMK SC8 SLP294

CYYC;2009-10-04 17:31;CYYC 041731Z 36013KT 5SM -SN OVC010 01/ RMK SC8 SN VRY LGT

CYYC;2009-10-04 17:50;CYYC 041750Z 35013KT 8SM -SN OVC008 01/ RMK SC8 SN VRY LGT

CYYC;2009-10-04 18:00;CYYC 041800Z 36015KT 8SM -SN OVC008 01/00 A3025 RMK SC8 /S01/ SLP291

CYYC;2009-10-04 19:00;CYYC 041900Z CCA 35013KT 15SM -SN OVC009 01/M00 A3025 RMK SC8 SLP289

CYYC;2009-10-04 19:32;CYYC 041932Z 36015KT 20SM OVC006 02/ RMK SC8

CYYC;2009-10-04 19:36;CYYC 041936Z 35014G19KT 20SM OVC008 02/ RMK SC8 CIG REPORTED BY PILOT

CYYC;2009-10-04 20:00;CYYC 042000Z 35014KT 20SM OVC008 02/M00 A3023 RMK SC8 SLP285

CYYC;2009-10-04 21:00;CYYC 042100Z 36015KT 20SM OVC008 02/M00 A3023 RMK SC8 SLP281

CYYC;2009-10-04 22:00;CYYC 042200Z 35012KT 15SM OVC008 02/M00 A3022 RMK SC8 SLP280

CYYC;2009-10-04 23:00;CYYC 042300Z 36013KT 15SM OVC007 02/M00 A3022 RMK SC8 SLP279

CYYC;2009-10-05 00:00;CYYC 050000Z 35011KT 12SM OVC007 01/M01 A3022 RMK SC8 SLP279

CYYC;2009-10-05 01:00;CYYC 050100Z CCA 34008KT 12SM OVC007 01/M00 A3022 RMK SC8 SLP280

CYYC;2009-10-05 01:50;CYYC 050150Z 35007KT 15SM -SN SCT010 OVC020 01/ RMK ST3SC4

CYYC;2009-10-05 02:00;CYYC 050200Z 35008KT 15SM -SN BKN010 OVC020 01/M00 A3023 RMK ST4SC4 SLP281

CYYC;2009-10-05 03:00;CYYC 050300Z 36008KT 15SM -SN BKN010 OVC020 01/M01 A3023 RMK ST4SC4 SLP285

CYYC;2009-10-05 04:00;CYYC 050400Z 34008KT 15SM -SN SCT012 OVC025 01/M01 A3024 RMK ST3SC5 SLP286

CYYC;2009-10-05 05:00;CYYC 050500Z 35008KT 8SM -SN BKN009 OVC020 01/M01 A3023 RMK ST4SC4 VIS N-E LWR SLP284

CYYC;2009-10-05 06:00;CYYC 050600Z 35009KT 15SM -SN BKN009 OVC020 01/M01 A3022 RMK ST4SC4 SLP281

CYYC;2009-10-05 07:00;CYYC 050700Z 35008KT 8SM -SN OVC020 01/M01 A3021 RMK SC8 SLP278

CYYC;2009-10-05 08:00;CYYC 050800Z 34008KT 15SM -SN OVC020 01/M01 A3021 RMK SC8 SLP276

CYYC;2009-10-05 09:00;CYYC 050900Z 35008KT 15SM -SN OVC020 01/M01 A3020 RMK SC8 SLP271

CYYC;2009-10-05 10:00;CYYC 051000Z 35006KT 15SM -SN OVC020 01/M01 A3020 RMK SC8 SLP271

CYYC;2009-10-05 11:00;CYYC 051100Z 35006KT 15SM -SN FEW012 OVC020 01/M01 A3020 RMK ST2SC6 SLP270

CYYC;2009-10-05 12:00;CYYC 051200Z 35006KT 15SM -SN FEW012 OVC020 01/M01 A3020 RMK ST2SC6 SLP271

CYYC;2009-10-05 12:36;CYYC 051236Z 36006KT 15SM FEW012 OVC020 01/ RMK ST2SC6

CYYC;2009-10-05 13:00;CYYC 051300Z 36004KT 10SM FEW012 OVC025 01/M01 A3018 RMK ST2SC6 SLP267

CYYC;2009-10-05 13:40;CYYC 051340Z 34004KT 6SM BR OVC008 00/ RMK SC8

CYYC;2009-10-05 14:00;CYYC 051400Z 34004KT 6SM BR BKN008 OVC015 01/M01 A3019 RMK SC6SC2 SLP268

CYYC;2009-10-05 15:00;CYYC 051500Z 35002KT 6SM BR BKN008 OVC018 01/M01 A3020 RMK SC4SC4 SLP272

CYYC;2009-10-05 16:00;CYYC 051600Z 29003KT 10SM FEW008 SCT015 OVC020 01/M01 A3019 RMK SC2SC2SC3 SLP269

CYYC;2009-10-05 17:00;CYYC 051700Z 20002KT 15SM SCT010 OVC020 02/M01 A3018 RMK SC3SC4 SLP266

CYYC;2009-10-05 18:00;CYYC 051800Z 18002KT 40SM SCT010 OVC025 03/M02 A3017 RMK SC3SC4 SH S SLP259

CYYC;2009-10-05 19:00;CYYC 051900Z 22004KT 40SM FEW015 BKN030 03/M03 A3015 RMK SC2SC5 SH SE SLP253

CYYC;2009-10-05 20:00;CYYC 052000Z 21010KT 40SM FEW015 SCT035 05/M03 A3011 RMK SC1SC3 SH SE SLP243

CYYC;2009-10-05 21:00;CYYC 052100Z 18010G17KT 40SM FEW030 FEW140 FEW260 05/M03 A3009 RMK SC1AC1CI1 SLP229

CYYC;2009-10-05 22:00;CYYC 052200Z 17008KT 40SM FEW030 FEW160 SCT280 06/M03 A3006 RMK SC1AC1CI0 SLP221

CYYC;2009-10-05 23:00;CYYC 052300Z 18010KT 40SM FEW040 FEW160 FEW280 06/M03 A3005 RMK SC1AC1CI0 SLP216

CYYC;2009-10-06 00:00;CYYC 060000Z 18008KT 40SM FEW180 BKN260 06/M03 A3002 RMK AC1CI0 SLP205

CYYC;2009-10-06 01:00;CYYC 060100Z 18010KT 40SM FEW190 FEW260 04/M03 A3000 RMK AC0CI0 SLP199

CYYC;2009-10-06 02:00;CYYC 060200Z 18011KT 15SM FEW210 FEW260 03/M02 A2998 RMK CI1CI0 SLP192

CYYC;2009-10-06 03:00;CYYC 060300Z 19009KT 15SM FEW180 FEW250 02/M02 A2997 RMK AC1CI1 SLP190

CYYC;2009-10-06 04:00;CYYC 060400Z 19007KT 15SM FEW110 SCT250 01/M02 A2993 RMK AC2CI1 SLP178

CYYC;2009-10-06 05:00;CYYC 060500Z 20007KT 15SM FEW110 FEW250 01/M02 A2990 RMK AC2CI0 SLP169

CYYC;2009-10-06 06:00;CYYC 060600Z 21007KT 15SM FEW140 SCT250 01/M01 A2986 RMK AC1CI1 SLP153

CYYC;2009-10-06 07:00;CYYC 060700Z 20006KT 15SM SCT120 BKN250 02/M01 A2985 RMK AC3CI1 SLP147

CYYC;2009-10-06 08:00;CYYC 060800Z 20006KT 15SM FEW065 SCT120 BKN230 03/M02 A2982 RMK SC1AC3CI1 SLP140

CYYC;2009-10-06 09:00;CYYC 060900Z 00000KT 15SM FEW120 BKN240 07/M04 A2981 RMK AC2CI2 SLP120

CYYC;2009-10-06 10:00;CYYC 061000Z 28011KT 15SM SCT250 09/M04 A2978 RMK CI2 SLP111

CYYC;2009-10-06 11:00;CYYC 061100Z 28012KT 15SM FEW170 BKN240 10/M03 A2975 RMK AC2CI2 SLP104

CYYC;2009-10-06 12:00;CYYC 061200Z 25010KT 15SM FEW170 SCT240 10/M03 A2973 RMK AC1CI1 AC TR SLP089

CYYC;2009-10-06 13:00;CYYC 061300Z 28014G19KT 15SM FEW150 BKN230 10/M03 A2971 RMK AC1CI2 SLP083

CYYC;2009-10-06 14:00;CYYC 061400Z 28017KT 40SM FEW140 BKN240 11/M03 A2968 RMK AC1CI0 SLP076

CYYC;2009-10-06 15:00;CYYC 061500Z 27019G26KT 40SM FEW078 SCT140 BKN220 12/M02 A2967 RMK AC2AC2CI2 SLP071

CYYC;2009-10-06 16:00;CYYC 061600Z 27017G25KT 40SM SCT075 BKN120 BKN220 13/M02 A2965 RMK AC3AC3CI1 SLP066

CYYC;2009-10-06 17:00;CYYC 061700Z 26020G25KT 40SM FEW070 BKN100 BKN220 14/M00 A2963 RMK AC2AC2CI1 SH E SLP057

CYYC;2009-10-06 18:00;CYYC 061800Z 27021G32KT 40SM BKN083 BKN100 BKN220 16/M00 A2960 RMK AC5AC2CI1 SH NE-E SLP044

CYYC;2009-10-06 19:00;CYYC 061900Z 27027G33KT 40SM FEW040 BKN088 BKN220 15/M00 A2959 RMK SC1AC5CI0 SH E SLP039

CYYC;2009-10-06 20:00;CYYC 062000Z CCA 28029G34KT 40SM FEW040 FEW090 FEW200 17/M00 A2956 RMK SC1AC1CI1 SH S SLP031

CYYC;2009-10-06 21:00;CYYC 062100Z 28022G33KT 40SM FEW060 FEW110 FEW240 17/M01 A2956 RMK CU1AC1CI1 VIRGA NE / ACSL S SLP018

CYYC;2009-10-06 22:00;CYYC 062200Z 28030G35KT 40SM FEW065 FEW110 17/M02 A2958 RMK CU1AC1 SH N-E / ACSL S SLP024

CYYC;2009-10-06 22:52;CYYC 062252Z CCA 35030G41KT 40SM DRDU FEW040 BKN065 BKN095 11/ RMK SC1CU5AC2 SH NW-SE / WSHFT 2247Z / PRESRR

CYYC;2009-10-06 23:00;CYYC 062300Z 35031G37KT 20SM -SHRA DRDU FEW005 BKN065 BKN082 10/03 A2969 RMK SC1CU6AC2 VIS N-E 3/4 / CB EMBD SLP057

CYYC;2009-10-06 23:31;CYYC 062331Z 34026G41KT 20SM FEW035 BKN080 BKN140 09/ RMK CU1AC6AC1 SH W-E / CB ASOCTD

CYYC;2009-10-07 00:00;CYYC 070000Z 36028G36KT 20SM -SHRA SCT021 BKN075 08/03 A2976 RMK CU4AC3 CB ASOCTD / PRESRR SLP096

CYYC;2009-10-07 01:00;CYYC 070100Z 35028G35KT 15SM -SHRA FEW020 SCT035 OVC060 05/02 A2983 RMK CU2SC2SC4 PRESRR SLP118

CYYC;2009-10-07 02:00;CYYC 070200Z 34024G32KT 15SM -SHRA FEW020 SCT040 OVC120 04/M01 A2989 RMK SF1SC3AC5 PCPN VRY LGT/ SF TR SLP137

CYYC;2009-10-07 03:00;CYYC 070300Z 34019G28KT 15SM -SHRA FEW030 FEW060 OVC150 03/M02 A2993 RMK CF1SC2AC6 SLP161

CYYC;2009-10-07 03:13;CYYC 070313Z 34020G28KT 15SM FEW030 FEW060 OVC150 03/ RMK CF1SC2AC6

CYYC;2009-10-07 04:00;CYYC 070400Z 34022G27KT 15SM FEW027 SCT058 OVC130 03/M02 A2998 RMK SF1SC4AC4 SLP174

CYYC;2009-10-07 05:00;CYYC 070500Z 34015G28KT 15SM FEW028 BKN079 OVC120 02/M02 A3000 RMK SC1AC5AC2 SLP182

CYYC;2009-10-07 06:00;CYYC 070600Z 35016KT 15SM FEW030 BKN080 OVC150 02/M03 A3003 RMK SC2AC4AC2 SLP190

CYYC;2009-10-07 07:00;CYYC 070700Z 35017KT 15SM BKN040 OVC070 02/M04 A3004 RMK SC6AC2 SLP194

CYYC;2009-10-07 08:00;CYYC 070800Z 36019G28KT 15SM OVC028 01/M05 A3007 RMK SC8 SLP203

CYYC;2009-10-07 09:00;CYYC 070900Z 35013G18KT 15SM SCT030 00/M05 A3009 RMK SC3 SLP211

CYYC;2009-10-07 10:00;CYYC 071000Z 34009KT 15SM FEW030 FEW180 M01/M05 A3010 RMK SC1AC1 SC TR SLP215

CYYC;2009-10-07 11:00;CYYC 071100Z 29004KT 15SM SCT028 BKN140 M02/M05 A3016 RMK SC3AC1 SLP233

CYYC;2009-10-07 12:00;CYYC 071200Z 34008KT 15SM BKN023 BKN070 OVC150 M01/M04 A3011 RMK SC6AC1AC1 SLP235

CYYC;2009-10-07 13:00;CYYC 071300Z 35010KT 15SM OVC022 M00/M04 A3012 RMK SC8 SLP238

CYYC;2009-10-07 14:00;CYYC 071400Z 35006KT 20SM BKN020 BKN090 BKN210 M00/M04 A3013 RMK SC4AC1CI0 SH S SLP239

CYYC;2009-10-07 15:00;CYYC 071500Z 33015KT 20SM BKN025 OVC080 00/M04 A3013 RMK SC6AC2 SLP248

CYYC;2009-10-07 16:00;CYYC 071600Z 35016KT 15SM BKN026 OVC070 00/M04 A3014 RMK SC6AC2 SH S-W SLP251

CYYC;2009-10-07 17:00;CYYC 071700Z 33011G17KT 15SM BKN023 OVC060 01/M04 A3015 RMK SC6SC2 SLP252

CYYC;2009-10-07 18:00;CYYC 071800Z 34012G17KT 15SM SCT025 BKN080 02/M04 A3014 RMK SC3AC3 SLP249

CYYC;2009-10-07 18:53;CYYC 071853Z 33014KT 15SM -RASN BKN022 BKN080 02/ RMK SC5AC2

CYYC;2009-10-07 19:00;CYYC 071900Z 35013KT 15SM -RASN BKN022 BKN080 BKN210 02/M03 A3013 RMK SC5AC2CI0 SLP247

CYYC;2009-10-07 19:33;CYYC 071933Z 34013KT 1 1/2SM -SN BKN022 OVC032 01/ RMK SC6SC2

CYYC;2009-10-07 19:54;CYYC 071954Z 32010KT 8SM -SHSN SCT030 BKN120 02/ RMK SC3AS1 SHSN ALQDS / SE-SW + N LWR

CYYC;2009-10-07 20:00;CYYC 072000Z 34009KT 20SM -SHSN FEW025 BKN130 02/M03 A3013 RMK SC2AS2 SHSN ALQDS SLP245

CYYC;2009-10-07 20:32;CYYC 072032Z 33013KT 10SM FEW025 BKN130 BKN220 02/ RMK SC2AS2CI1 SHSN ALQDS / VIS S-W 3

CYYC;2009-10-07 20:45;CYYC 072045Z 36017KT 1 1/2SM -SN BKN012 BKN025 BKN080 02/ RMK SC5SC1AC1

CYYC;2009-10-07 21:00;CYYC 072100Z 02013G20KT 5SM -SN SCT015 BKN050 OVC070 00/M01 A3013 RMK SC3SC2AC2 SHSN ALQDS / VIS NW-N LWR SLP249

CYYC;2009-10-07 21:16;CYYC 072116Z 36009KT 8SM SCT015CB SCT100 BKN220 01/ RMK CB4AC1CI0 SHSN ALQDS / VIS S-SW 3

CYYC;2009-10-07 21:44;CYYC 072144Z 36017KT 5SM -SHSN FEW015 BKN030CB BKN120 02/ RMK CF1CB6AS1 SHSN ALQDS / VIS VRB 3-8

CYYC;2009-10-07 22:00;CYYC 072200Z 36011G16KT 7SM FEW015 SCT030CB BKN220 01/M02 A3013 RMK CF1CB4CI0 SHSN ALQDS / VIS VRB 3-10 SLP249

CYYC;2009-10-07 22:37;CYYC 072237Z 36014KT 8SM -SHSN FEW017 BKN030CB BKN120 01/ RMK CF1CB5AC1 SHSN ALQDS / VIS SW-N 11/2

CYYC;2009-10-07 22:45;CYYC 072245Z 34013KT 1 1/2SM -SHSN FEW008 BKN014 OVC020 00/ RMK SC2SC5SC1 CB EMBD

CYYC;2009-10-07 23:00;CYYC 072300Z 34010KT 8SM FEW015 BKN030CB BKN220 01/M02 A3015 RMK CF1CB5CI0 VIS W-N 3 SLP255

CYYC;2009-10-07 23:09;CYYC 072309Z 34012KT 3SM -SHRA FEW015 BKN035CB 01/ RMK CF1CB6

CYYC;2009-10-07 23:21;CYYC 072321Z 32009KT 1 1/2SM -SHSN FEW015 SCT035CB BKN070 00/ RMK CF1CB4AC2

CYYC;2009-10-07 23:25;CYYC 072325Z 33009KT 5SM -SHSN FEW015 SCT024CB BKN070 00/ RMK CF1CB3AC2

CYYC;2009-10-08 00:00;CYYC 080000Z 33007KT 15SM FEW018 FEW030CB SCT070 BKN220 01/M02 A3015 RMK CF1CB2AC1CI0 SHSN ALQDS SLP259

CYYC;2009-10-08 01:00;CYYC 080100Z 34006KT 15SM FEW030 FEW070 SCT220 01/M03 A3016 RMK SC2AC1CI0 SHSN ALQDS SLP261

CYYC;2009-10-08 02:00;CYYC 080200Z 30005KT 15SM FEW040 FEW080 SCT220 M01/M03 A3016 RMK SC1AC1CI1 SLP262

CYYC;2009-10-08 03:00;CYYC 080300Z 30004KT 15SM BKN097 M01/M03 A3017 RMK AC4 SLP266

CYYC;2009-10-08 04:00;CYYC 080400Z 26004KT 15SM BKN097 M01/M03 A3017 RMK AC5 SLP266

CYYC;2009-10-08 05:00;CYYC 080500Z 25004KT 15SM FEW060 BKN093 M01/M04 A3016 RMK SC1AC4 SLP263

CYYC;2009-10-08 06:00;CYYC 080600Z 25003KT 15SM FEW060 OVC093 M01/M04 A3015 RMK SC1AC6 SLP257

CYYC;2009-10-08 07:00;CYYC 080700Z 34002KT 15SM FEW065 BKN095 M01/M04 A3013 RMK SC1AC2 SLP252

CYYC;2009-10-08 08:00;CYYC 080800Z 27002KT 15SM FEW089 M02/M05 A3012 RMK AC1 SLP247

CYYC;2009-10-08 09:00;CYYC 080900Z 22003KT 15SM BKN090 M03/M05 A3010 RMK AC6 SLP245

CYYC;2009-10-08 10:00;CYYC 081000Z 21006KT 15SM OVC091 M03/M05 A3008 RMK AC7 SLP238

CYYC;2009-10-08 11:00;CYYC 081100Z 23003KT 15SM OVC090 M02/M04 A3006 RMK AC7 SLP231

CYYC;2009-10-08 12:00;CYYC 081200Z 23005KT 15SM OVC088 M02/M05 A3003 RMK AC7 SLP219

CYYC;2009-10-08 13:00;CYYC 081300Z 22006KT 15SM FEW060 BKN092 M03/M05 A3002 RMK SC1AC5 SLP216

CYYC;2009-10-08 14:00;CYYC 081400Z 23007KT 40SM BKN090 M02/M05 A3000 RMK AC6 VIRGA ALQDS SLP209

CYYC;2009-10-08 15:00;CYYC 081500Z 19006KT 40SM BKN090 M01/M05 A2998 RMK AC6 VIRGA ALQDS SLP200

CYYC;2009-10-08 16:00;CYYC 081600Z 30006KT 40SM OVC100 00/M05 A2996 RMK AC7 VIRGA ALQDS SLP195

CYYC;2009-10-08 17:00;CYYC 081700Z 36012KT 40SM FEW030 BKN110 01/M05 A2997 RMK CF1AC6 SHSN SE-SW SLP198

CYYC;2009-10-08 18:00;CYYC 081800Z 36017KT 40SM OVC017 00/M03 A3000 RMK SC7 SLP206

CYYC;2009-10-08 18:38;CYYC 081838Z 01016KT 40SM -SN OVC016 M00/ RMK SC7

CYYC;2009-10-08 18:48;CYYC 081848Z 01016KT 2 1/2SM -SN OVC016 M01/ RMK SC7

CYYC;2009-10-08 18:56;CYYC 081856Z 01017KT 1SM -SN BKN013 OVC022 M01/ RMK SC6SC2 RVR RWY 34 6000+ FT

CYYC;2009-10-08 19:00;CYYC 081900Z 01016KT 3/4SM -SN OVC013 M01/M03 A3001 RMK SC8 RVR RWY 34 6000+ FT SLP211

CYYC;2009-10-08 19:11;CYYC 081911Z 03023G28KT 1 1/2SM -SN OVC014 M02/ RMK SC8

CYYC;2009-10-08 19:31;CYYC 081931Z 01018G27KT 3SM -SN BKN014 OVC025 M03/ RMK SC4SC4

CYYC;2009-10-08 19:50;CYYC 081950Z 02021KT 1 1/2SM -SN BKN012 OVC025 M03/ RMK SC6SC2

CYYC;2009-10-08 20:00;CYYC 082000Z 02019G25KT 1SM -SN BKN010 OVC025 M03/M05 A3005 RMK SC6SC2 RVR RWY 34 AND 28 6000+ SLP223

CYYC;2009-10-08 20:10;CYYC 082010Z 01018G27KT 1 1/2SM -SN OVC019 M03/ RMK SC8

CYYC;2009-10-08 20:35;CYYC 082035Z 02019G29KT 3SM -SN FEW015 OVC030 M04/ RMK ST2SC6

CYYC;2009-10-08 21:00;CYYC 082100Z 02021G26KT 5SM -SN DRSN FEW012 BKN016 OVC060 M04/M07 A3010 RMK ST2SC4SC2 SLP252

CYYC;2009-10-08 21:27;CYYC 082127Z 02019G27KT 2 1/2SM -SN DRSN SCT014 OVC020 M05/ RMK SC3SC5

CYYC;2009-10-08 22:00;CYYC 082200Z 02019G27KT 1/4SM SN DRSN FEW006 OVC015 M05/M07 A3015 RMK SC1SC7 SLP267

CYYC;2009-10-08 22:10;CYYC 082210Z 01028KT 5SM -SN DRSN SCT019 OVC035 M06/ RMK SC3SC5

CYYC;2009-10-08 22:50;CYYC 082250Z 01015G26KT 1 1/2SM -SN BLSN FEW010 OVC022 M06/ RMK SC2SC6

CYYC;2009-10-08 23:00;CYYC 082300Z 31021G26KT 5SM -SN DRSN SCT017 OVC035 M06/M09 A3019 RMK SC3SC5 SLP279

CYYC;2009-10-08 23:21;CYYC 082321Z 36021G26KT 3/4SM -SN BLSN BKN018 OVC030 M06/ RMK SC6SC2

CYYC;2009-10-08 23:32;CYYC 082332Z 36016G25KT 5SM -SN DRSN SCT018 OVC025 M06/ RMK SC3SC5

CYYC;2009-10-09 00:00;CYYC 090000Z 01015G22KT 5SM -SN DRSN OVC018 M06/M10 A3024 RMK SC8 /S01/ SLP300

CYYC;2009-10-09 01:00;CYYC 090100Z 36011G19KT 8SM FEW018 BKN080 M07/M10 A3026 RMK ST1AC6 SLP307

CYYC;2009-10-09 02:00;CYYC 090200Z 35017KT 10SM FEW020 BKN080 OVC130 M07/M12 A3028 RMK SC2AC4AC2 SLP314

CYYC;2009-10-09 02:52;CYYC 090252Z 36015KT 7SM FEW011 BKN038 OVC080 M08/ RMK SC2SC5AC1

CYYC;2009-10-09 03:00;CYYC 090300Z 35010G18KT 10SM -SN DRSN SCT014 BKN040 BKN110 M08/M11 A3031 RMK SC3SC2AC2 SN VRY LGT SLP327

CYYC;2009-10-09 04:00;CYYC 090400Z 34013KT 15SM -SN FEW030 BKN110 M09/M13 A3034 RMK SC2AC6 SLP337

CYYC;2009-10-09 04:42;CYYC 090442Z 33012KT 15SM FEW050 BKN120 M10/ RMK SC2AC2

CYYC;2009-10-09 05:00;CYYC 090500Z 32009KT 15SM SCT049 BKN120 M10/M14 A3036 RMK SC3AC1 SLP343

CYYC;2009-10-09 06:00;CYYC 090600Z 31009KT 15SM OVC049 M09/M14 A3037 RMK SC8 SLP348

CYYC;2009-10-09 07:00;CYYC 090700Z 33012KT 15SM OVC048 M09/M14 A3037 RMK SC8 SLP349

CYYC;2009-10-09 08:00;CYYC 090800Z 33010KT 15SM OVC049 M09/M14 A3038 RMK SC8 SLP350

CYYC;2009-10-09 09:00;CYYC 090900Z 34009KT 15SM OVC047 M09/M14 A3038 RMK SC8 VIRGA S-W SLP357

CYYC;2009-10-09 10:00;CYYC 091000Z 34009KT 15SM OVC048 M09/M14 A3038 RMK SC8 SLP358

CYYC;2009-10-09 11:00;CYYC 091100Z 34006KT 15SM OVC052 M10/M14 A3039 RMK SC8 SLP360

CYYC;2009-10-09 12:00;CYYC 091200Z CCA 33008KT 15SM OVC047 M10/M13 A3039 RMK SC8 SNOW COVER/MUCH LOOSE SLP366

CYYC;2009-10-09 13:00;CYYC 091300Z 34008KT 4SM -SN BKN027 OVC050 M10/M12 A3040 RMK SC6SC2 SLP369

CYYC;2009-10-09 13:24;CYYC 091324Z 34012KT 10SM FEW030 BKN049 M10/ RMK SC2SC4

CYYC;2009-10-09 14:00;CYYC 091400Z 33012KT 20SM FEW030 FEW050 M11/M16 A3041 RMK SC1SC1 SLP370

CYYC;2009-10-09 15:00;CYYC 091500Z 32009KT 20SM FEW050 M11/M16 A3042 RMK SC1 SLP381

CYYC;2009-10-09 16:00;CYYC 091600Z 35011G18KT 20SM FEW030 FEW050 M10/M16 A3043 RMK CF1SC1 CF TR SLP384

CYYC;2009-10-09 17:00;CYYC 091700Z 36016G24KT 20SM FEW030 M09/M16 A3043 RMK SC2 SLP382

CYYC;2009-10-09 18:00;CYYC 091800Z 35016G26KT 20SM BKN032 M08/M15 A3043 RMK SC6 VIRGA SLP380

CYYC;2009-10-09 19:00;CYYC 091900Z 35012G18KT 20SM OVC034 M08/M15 A3042 RMK SC8 SLP377

CYYC;2009-10-09 20:00;CYYC 092000Z 34012KT 20SM OVC034 M07/M15 A3040 RMK SC8 SLP372

CYYC;2009-10-09 21:00;CYYC 092100Z 34012KT 30SM BKN034 M07/M15 A3039 RMK SC6 SLP364

CYYC;2009-10-09 22:00;CYYC 092200Z 35011G19KT 30SM FEW034 M07/M14 A3039 RMK SC2 SLP364

CYYC;2009-10-09 23:00;CYYC 092300Z 36011KT 30SM FEW034 M07/M15 A3038 RMK SC2 SLP363

CYYC;2009-10-10 00:00;CYYC 100000Z 36011KT 30SM FEW034 M07/M15 A3039 RMK SC1 SLP366

CYYC;2009-10-10 01:00;CYYC 100100Z 36010G15KT 20SM FEW030 M09/M14 A3040 RMK SC1 SLP368

CYYC;2009-10-10 02:00;CYYC 100200Z 35006KT 15SM SCT040 M10/M15 A3040 RMK SC2 SLP369

CYYC;2009-10-10 03:00;CYYC 100300Z 35006KT 15SM OVC039 M10/M15 A3041 RMK SC8 SLP378

CYYC;2009-10-10 04:00;CYYC 100400Z 34007KT 15SM OVC037 M09/M15 A3041 RMK SC8 SLP380

CYYC;2009-10-10 05:00;CYYC 100500Z 32008KT 15SM OVC047 M09/M15 A3040 RMK SC7 SLP377

CYYC;2009-10-10 06:00;CYYC 100600Z 34012KT 15SM BKN037 OVC043 M08/M15 A3040 RMK SC7SC1 SLP368

CYYC;2009-10-10 07:00;CYYC 100700Z 30009KT 15SM OVC039 M08/M15 A3038 RMK SC8 SLP364

CYYC;2009-10-10 08:00;CYYC 100800Z 31010KT 15SM OVC037 M08/M15 A3038 RMK SC8 SLP364

CYYC;2009-10-10 09:00;CYYC 100900Z 31011KT 15SM OVC037 M08/M15 A3038 RMK SC8 SLP360

CYYC;2009-10-10 10:00;CYYC 101000Z 32010KT 15SM OVC038 M08/M14 A3037 RMK SC8 SLP357

CYYC;2009-10-10 11:00;CYYC 101100Z 31012KT 15SM OVC040 M08/M15 A3036 RMK SC8 SLP355

CYYC;2009-10-10 12:00;CYYC 101200Z 30009KT 15SM OVC044 M08/M15 A3035 RMK SC8 SNOW COVER/TRACE LOOSE SLP352

CYYC;2009-10-10 13:00;CYYC 101300Z 32010KT 15SM OVC041 M08/M15 A3035 RMK SC8 SLP350

CYYC;2009-10-10 13:56;CYYC 101356Z 32008KT 20SM -SN FEW015 OVC035 M08/ RMK SC1SC7

CYYC;2009-10-10 14:00;CYYC 101400Z 32008KT 20SM -SN FEW015 OVC035 M08/M15 A3035 RMK SC1SC7 VIS SE 3 SLP350

CYYC;2009-10-10 15:00;CYYC 101500Z 32010KT 25SM -SN SCT035 OVC047 M08/M15 A3034 RMK SC3SC5 SLP352

CYYC;2009-10-10 16:00;CYYC 101600Z 32012KT 25SM -SN FEW035 OVC046 M08/M14 A3035 RMK SC1SC7 SLP354

CYYC;2009-10-10 16:34;CYYC 101634Z 32012KT 25SM OVC048 M07/ RMK SC8

CYYC;2009-10-10 17:00;CYYC 101700Z 34009G15KT 25SM FEW015 SCT048 OVC058 M07/M14 A3034 RMK CF1SC3SC4 SLP352

CYYC;2009-10-10 18:00;CYYC 101800Z 33010KT 25SM FEW020 SCT037 OVC054 M07/M14 A3033 RMK CF1SC2SC5 SH DIST SE-SW SLP343

CYYC;2009-10-10 19:00;CYYC 101900Z 34010G15KT 25SM FEW020 OVC053 M06/M14 A3031 RMK CF2SC6 SH DIST SE-SW SLP338

CYYC;2009-10-10 20:00;CYYC 102000Z 35009G16KT 20SM FEW020 OVC048 M06/M15 A3029 RMK CF1SC7 SH DIST E-SW SLP332

CYYC;2009-10-10 21:00;CYYC 102100Z 33006KT 30SM BKN047 M06/M14 A3028 RMK SC7 SLP323

CYYC;2009-10-10 21:36;CYYC 102136Z 36008KT 8SM -SN FEW035 BKN046 M06/ RMK SC2SC5

CYYC;2009-10-10 22:00;CYYC 102200Z 36011KT 30SM FEW035 BKN047 M06/M15 A3026 RMK SC2SC6 SH DIST E-S SLP319

CYYC;2009-10-10 23:00;CYYC 102300Z 33007KT 30SM FEW035 OVC049 M06/M15 A3026 RMK SC1SC6 SH DIST S SLP316

CYYC;2009-10-11 00:00;CYYC 110000Z 01006KT 30SM OVC046 M06/M15 A3025 RMK SC8 SH DIST SE-S SLP312

CYYC;2009-10-11 01:00;CYYC 110100Z 01009KT 30SM BKN048 M07/M16 A3024 RMK SC6 SLP310

CYYC;2009-10-11 02:00;CYYC 110200Z 02006KT 15SM OVC049 M07/M16 A3024 RMK SC7 SLP309

CYYC;2009-10-11 03:00;CYYC 110300Z 02004KT 15SM OVC048 M07/M15 A3023 RMK SC8 SLP309

CYYC;2009-10-11 04:00;CYYC 110400Z 35004KT 15SM OVC050 M07/M16 A3022 RMK SC7 SLP306

CYYC;2009-10-11 05:00;CYYC 110500Z 07005KT 15SM OVC050 M07/M15 A3022 RMK SC7 SLP304

CYYC;2009-10-11 06:00;CYYC 110600Z 00000KT 15SM OVC055 M07/M13 A3021 RMK SC7 SLP298

CYYC;2009-10-11 07:00;CYYC 110700Z 09004KT 15SM OVC055 M08/M11 A3021 RMK SC7 SLP298

CYYC;2009-10-11 08:00;CYYC 110800Z 10003KT 15SM OVC057 M08/M11 A3018 RMK SC7 SLP291

CYYC;2009-10-11 09:00;CYYC 110900Z 09002KT 10SM OVC057 M08/M11 A3017 RMK SC7 SLP285

CYYC;2009-10-11 10:00;CYYC 111000Z 07002KT 10SM OVC050 M08/M11 A3015 RMK SC7 SLP280

CYYC;2009-10-11 11:00;CYYC 111100Z 12003KT 5SM -SN FEW030 OVC050 M08/M11 A3014 RMK SC2SC6 SLP276

CYYC;2009-10-11 12:00;CYYC 111200Z 10003KT 5SM -SN FEW016 BKN026 OVC050 M08/M11 A3013 RMK SC2SC3SC2 SLP271

CYYC;2009-10-11 12:26;CYYC 111226Z 05002KT 3/4SM -SN BKN003 OVC016 M09/ RMK SC6SC2 RVR RWY 34 AN D28 6000+ FT

CYYC;2009-10-11 12:32;CYYC 111232Z 08002KT 4SM -SN BKN006 OVC018 M09/ RMK SC6SC2

CYYC;2009-10-11 12:45;CYYC 111245Z 07002KT 5SM -SN BKN012 OVC027 M09/ RMK SC6SC2

CYYC;2009-10-11 12:54;CYYC 111254Z 08002KT 8SM -SN FEW012 SCT025 OVC054 M09/ RMK SC2SC2SC4

CYYC;2009-10-11 13:00;CYYC 111300Z 10003KT 5SM -SN FEW025 BKN055 M09/M11 A3012 RMK SC1SC5 SLP268

CYYC;2009-10-11 14:00;CYYC 111400Z 11003KT 7SM -SN FEW032 OVC053 M09/M11 A3011 RMK SC2SC6 SLP267

CYYC;2009-10-11 15:00;CYYC 111500Z 13004KT 6SM -SN FEW032 OVC053 M08/M11 A3011 RMK SC2SC6 VIS W 3 SLP268

CYYC;2009-10-11 15:41;CYYC 111541Z 14005KT 3SM -SN SCT011 OVC040 M08/ RMK SC4SC4

CYYC;2009-10-11 16:00;CYYC 111600Z 11004KT 6SM -SN SCT011 OVC051 M08/M10 A3011 RMK SC3SC5 VIS W 4 SLP266

CYYC;2009-10-11 17:00;CYYC 111700Z 13004KT 10SM -SN SCT020 OVC056 M07/M11 A3010 RMK SC3SC5 /S01/ SLP264

CYYC;2009-10-11 18:00;CYYC 111800Z 13004KT 10SM -SN SCT026 OVC050 M07/M12 A3008 RMK SC4SC4 SLP256

CYYC;2009-10-11 19:00;CYYC 111900Z 11006KT 12SM -SN SCT037 OVC050 M07/M13 A3007 RMK SC3SC5 SLP252

CYYC;2009-10-11 20:00;CYYC 112000Z 12006KT 12SM -SN BKN039 OVC050 M07/M13 A3006 RMK SC7SC1 SN VRY LGT SLP247

CYYC;2009-10-11 21:00;CYYC 112100Z 11005KT 7SM -SN SCT028 OVC048 M06/M11 A3004 RMK SC4SC4 SLP241

CYYC;2009-10-11 22:00;CYYC 112200Z CCA 14005KT 12SM -SN OVC041 M06/M14 A3003 RMK SC8 SLP237

CYYC;2009-10-11 23:00;CYYC 112300Z 14007KT 15SM -SN OVC045 M06/M13 A3002 RMK SC8 SN VRY LGT SLP234

CYYC;2009-10-11 23:55;CYYC 112355Z 16008KT 30SM BKN046 OVC060 M06/ RMK SC6SC2

CYYC;2009-10-12 00:00;CYYC 120000Z 15008KT 30SM BKN048 OVC060 M06/M14 A3001 RMK SC6SC2 SLP230

CYYC;2009-10-12 01:00;CYYC 120100Z 15008KT 30SM OVC048 M07/M14 A3000 RMK SC8 SLP228

CYYC;2009-10-12 02:00;CYYC 120200Z 13007KT 15SM OVC046 M07/M11 A3000 RMK SC7 SLP228

CYYC;2009-10-12 03:00;CYYC 120300Z 16009KT 15SM FEW050 M08/M11 A3000 RMK SC2 SLP229

CYYC;2009-10-12 04:00;CYYC 120400Z 15008KT 15SM FEW050 M10/M13 A2999 RMK SC1 SLP226

CYYC;2009-10-12 05:00;CYYC 120500Z 17005KT 15SM FEW050 M11/M14 A2998 RMK SC1 SLP223

CYYC;2009-10-12 06:00;CYYC 120600Z 15005KT 15SM SKC M13/M16 A2997 RMK SLP223

CYYC;2009-10-12 07:00;CYYC 120700Z 16007KT 15SM SKC M13/M16 A2996 RMK SLP220

CYYC;2009-10-12 08:00;CYYC 120800Z 16006KT 15SM SKC M14/M17 A2996 RMK SLP219

CYYC;2009-10-12 09:00;CYYC 120900Z 15004KT 15SM SKC M14/M17 A2996 RMK SLP221

CYYC;2009-10-12 10:00;CYYC 121000Z 15006KT 15SM SKC M13/M16 A2995 RMK SLP219

CYYC;2009-10-12 11:00;CYYC 121100Z 16003KT 15SM SKC M13/M16 A2995 RMK SLP219

CYYC;2009-10-12 12:00;CYYC 121200Z 15003KT 15SM SKC M14/M17 A2996 RMK SNOW COVER/TRACE LOOSE SLP220

CYYC;2009-10-12 13:00;CYYC 121300Z 00000KT 15SM FEW050 M15/M17 A2996 RMK SC1 SLP222

CYYC;2009-10-12 13:54;CYYC 121354Z CCA 01002KT 40SM FEW006 FEW040 M16/ RMK SC0SC1 FROIN

CYYC;2009-10-12 14:00;CYYC 121400Z 36002KT 40SM FEW006 FEW040 FEW140 M16/M19 A2997 RMK SC0SC0AC1 FROIN SLP223

CYYC;2009-10-12 15:00;CYYC 121500Z 34003KT 40SM FEW140 FEW200 M15/M18 A2998 RMK AC1CI1 SLP234

CYYC;2009-10-12 16:00;CYYC 121600Z 00000KT 40SM FEW140 FEW180 M12/M15 A2999 RMK AC1AC1 SLP236

CYYC;2009-10-12 17:00;CYYC 121700Z CCA 14006KT 40SM FEW050 SCT120 SCT180 M08/M12 A2999 RMK SC1AC3AC1 SLP236

CYYC;2009-10-12 18:00;CYYC 121800Z 15009KT 40SM FEW020 BKN043 BKN210 M07/M12 A2999 RMK SC2SC2CI0 SLP230

CYYC;2009-10-12 19:00;CYYC 121900Z 15013KT 40SM BKN035 M06/M13 A2999 RMK SC7 SH E SLP229

CYYC;2009-10-12 20:00;CYYC 122000Z 13009KT 40SM OVC037 M06/M14 A2998 RMK SC8 SH N+SE SLP227

CYYC;2009-10-12 21:00;CYYC 122100Z 16011KT 30SM SCT035 OVC043 M05/M13 A2997 RMK SC4SC3 SH N-SE SLP223

CYYC;2009-10-12 22:00;CYYC 122200Z 16008KT 30SM SCT035 OVC046 M05/M12 A2997 RMK SC3SC4 SH ALQDS SLP223

CYYC;2009-10-12 22:34;CYYC 122234Z 15010KT 20SM -SN SCT032 OVC046 M05/ RMK SC4SC4

CYYC;2009-10-12 23:00;CYYC 122300Z 14008KT 10SM -SN SCT025 OVC045 M06/M11 A2997 RMK SC4SC4 VIS SW-NW 5 SLP224

CYYC;2009-10-12 23:44;CYYC 122344Z 14011KT 15SM FEW030 BKN048 M05/ RMK SC2SC5 SH ALQDS

CYYC;2009-10-13 00:00;CYYC 130000Z 14008KT 15SM FEW030 BKN047 M05/M13 A2998 RMK SC2SC6 SH ALQDS SLP227

CYYC;2009-10-13 01:00;CYYC 130100Z 16009KT 20SM FEW030 BKN046 M06/M11 A2998 RMK SC1SC6 SH ALQDS SLP228

CYYC;2009-10-13 02:00;CYYC 130200Z 12010KT 15SM OVC048 M07/M10 A2999 RMK SC8 SLP230

CYYC;2009-10-13 03:00;CYYC 130300Z 14009KT 15SM OVC050 M06/M10 A2999 RMK SC8 SLP232

CYYC;2009-10-13 04:00;CYYC 130400Z 14007KT 15SM OVC048 M06/M10 A2999 RMK SC8 SLP232

CYYC;2009-10-13 05:00;CYYC 130500Z 13006KT 15SM OVC031 M06/M12 A2998 RMK SC8 SLP231

CYYC;2009-10-13 06:00;CYYC 130600Z 13012KT 15SM OVC048 M07/M13 A2998 RMK SC8 SLP219

CYYC;2009-10-13 06:41;CYYC 130641Z 13007KT 15SM -SN OVC047 M07/ RMK SC8 SN VRY LGT

CYYC;2009-10-13 07:00;CYYC 130700Z 13008KT 15SM -SN OVC046 M07/M12 A2998 RMK SC8 SN VRY LGT SLP218

CYYC;2009-10-13 08:00;CYYC 130800Z 13009KT 15SM -SN OVC047 M07/M12 A2997 RMK SC8 SLP214

CYYC;2009-10-13 09:00;CYYC 130900Z 14010KT 15SM -SN BKN035 OVC050 M07/M11 A2997 RMK SC6SC2 SLP211

CYYC;2009-10-13 10:00;CYYC 131000Z 13008KT 3SM -SN BKN018 OVC041 M07/M10 A2996 RMK SC6SC2 SLP210

CYYC;2009-10-13 11:00;CYYC 131100Z 13008KT 1 1/2SM -SN SCT011 OVC024 M07/M09 A2996 RMK SC3SC5 SLP209

CYYC;2009-10-13 11:27;CYYC 131127Z 12007KT 1 1/4SM -SN BKN014 OVC027 M07/ RMK SN2SC5SC2

CYYC;2009-10-13 12:00;CYYC 131200Z CCA 12008KT 1 1/4SM -SN BKN010 OVC021 M07/M09 A2996 RMK SN2SC5SC2 /S01/ SNOW COVER/ MUCH LOOSE SLP209

CYYC;2009-10-13 12:13;CYYC 131213Z 12009KT 1 1/4SM -SN BKN006 OVC016 M08/ RMK SN2SC5SC2

CYYC;2009-10-13 12:18;CYYC 131218Z 12008KT 1SM -SN BKN006 OVC017 M08/ RMK SN2SC4SC2 RVR RWY34 6000 FT

CYYC;2009-10-13 13:00;CYYC 131300Z 13007KT 1SM -SN BKN009 OVC021 M08/M09 A2997 RMK SN3SC4SC1 RVR RWY34 6000 FT/ VIS S-W 5/8 SLP212

CYYC;2009-10-13 14:00;CYYC 131400Z 13008KT 3/4SM -SN DRSN BKN007 OVC018 M07/M09 A2997 RMK SN2SC5SC1 RVR RWY 16 6000+FT SLP213

CYYC;2009-10-13 14:41;CYYC 131441Z 12012KT 1 1/2SM -SN DRSN FEW007 BKN016 OVC035 M08/ RMK SN1SC2SC4SC2

CYYC;2009-10-13 15:00;CYYC 131500Z 12009KT 2 1/2SM -SN DRSN FEW007 BKN016 OVC033 M08/M09 A2998 RMK SC2SC5SC2 SLP218

CYYC;2009-10-13 15:33;CYYC 131533Z 13010KT 1 1/2SM -SN DRSN BKN011 OVC027 M07/ RMK SC5SC3

CYYC;2009-10-13 16:00;CYYC 131600Z 13009KT 1 1/2SM -SN DRSN BKN012 OVC032 M07/M09 A2998 RMK SC5SC3 SLP219

CYYC;2009-10-13 16:16;CYYC 131616Z 14009KT 5SM -SN DRSN BKN011 OVC030 M07/ RMK SC5SC3

CYYC;2009-10-13 17:00;CYYC 131700Z 13011KT 6SM -SN DRSN OVC011 M07/M08 A2998 RMK SC8 SLP219

CYYC;2009-10-13 17:54;CYYC 131754Z 13011KT 6SM -SN DRSN OVC008 M06/ RMK SC8

CYYC;2009-10-13 18:00;CYYC 131800Z 14011KT 6SM -SN DRSN OVC008 M06/M08 A2998 RMK SC8 SLP218

CYYC;2009-10-13 19:00;CYYC 131900Z 15009KT 7SM -SN DRSN OVC009 M06/M07 A2998 RMK SC8 SLP218

CYYC;2009-10-13 20:00;CYYC 132000Z 14008KT 7SM -SN OVC009 M05/M07 A2997 RMK SC8 SLP215

CYYC;2009-10-13 21:00;CYYC 132100Z 13008KT 7SM -SN OVC010 M05/M06 A2997 RMK SC8 SLP211

CYYC;2009-10-13 22:00;CYYC 132200Z 14007KT 9SM -SN OVC014 M04/M07 A2996 RMK SC8 SLP209

CYYC;2009-10-13 22:16;CYYC 132216Z 14007KT 9SM -SN OVC017 M04/ RMK SC8

CYYC;2009-10-13 23:00;CYYC 132300Z 12004KT 10SM -SN OVC017 M04/M07 A2996 RMK SC8 SLP208

CYYC;2009-10-14 00:00;CYYC 140000Z 12003KT 10SM -SN OVC020 M04/M06 A2996 RMK SC8 SLP207

CYYC;2009-10-14 01:00;CYYC 140100Z 12004KT 6SM -SN BKN020 OVC027 M04/M06 A2994 RMK SC6SC2 SLP203

CYYC;2009-10-14 02:00;CYYC 140200Z 12004KT 12SM -SN OVC024 M04/M06 A2993 RMK SC8 SN VRY LGT SLP200

CYYC;2009-10-14 03:00;CYYC 140300Z 12006KT 12SM -SN OVC023 M04/M06 A2992 RMK SC8 SLP193

CYYC;2009-10-14 04:00;CYYC 140400Z 13006KT 12SM -SN OVC023 M04/M06 A2990 RMK SC8 SLP189

CYYC;2009-10-14 04:33;CYYC 140433Z 12005KT 3SM -SN OVC014 M04/ RMK SC8

CYYC;2009-10-14 05:00;CYYC 140500Z 13005KT 10SM -SN OVC019 M04/M06 A2989 RMK SC8 SLP184

CYYC;2009-10-14 05:50;CYYC 140550Z 11004KT 2SM -SN BKN014 OVC020 M04/ RMK SC7SC1

CYYC;2009-10-14 06:00;CYYC 140600Z 12004KT 1 3/4SM -SN FEW008 BKN014 OVC027 M04/M05 A2986 RMK SC2SC6SC1 SLP173

CYYC;2009-10-14 06:32;CYYC 140632Z 12004KT 1SM -SN BKN012 OVC017 M04/ RMK SN2SC4SC2

CYYC;2009-10-14 07:00;CYYC 140700Z 13004KT 1SM -SN BKN010 OVC028 M04/M05 A2984 RMK SN2SC6SC1 /S01/ RVR RWY16 6000 FT SLP167

CYYC;2009-10-14 08:00;CYYC 140800Z 12005KT 1SM -SN BKN010 OVC020 M04/M05 A2981 RMK SN1SC6SC2 RVR RWY16 6000 FT SLP158

CYYC;2009-10-14 08:44;CYYC 140844Z 11005KT 1SM -SN BKN009 OVC023 M04/ RMK SN2SC6SC1 RVR RWY16 6000 FT

CYYC;2009-10-14 09:00;CYYC 140900Z 12005KT 1SM -SN BKN008 OVC022 M04/M05 A2980 RMK SN2SC5SC1 RVR RWY34 6000 FT SLP146

CYYC;2009-10-14 10:00;CYYC 141000Z 12005KT 1SM -SN BKN008 OVC021 M04/M04 A2977 RMK SN2SC3SC2 /S02/ RVR RWY34 6000 FT SLP138

CYYC;2009-10-14 11:00;CYYC 141100Z 13005KT 2SM -SN FEW010 BKN040 OVC065 M04/M04 A2976 RMK SC2SC5SC1 SLP134

CYYC;2009-10-14 12:00;CYYC 141200Z 11003KT 1 3/4SM -SN BKN008 OVC022 M04/M04 A2974 RMK SN2SC4SC2 /S03/ SLP127

CYYC;2009-10-14 12:14;CYYC 141214Z CCA 12003KT 1 3/4SM -SN BKN011 OVC024 M04/ RMK SN2SC4SC2

CYYC;2009-10-14 13:00;CYYC 141300Z 12004KT 1 1/2SM -SN BKN010 OVC020 M04/M04 A2974 RMK SN3SC3SC2 /S01/ SLP125

CYYC;2009-10-14 13:13;CYYC 141313Z 12003KT 5/8SM -SN BKN007 OVC019 M04/ RMK SN4SC2SC2 RVR RWY34 6000 FT

CYYC;2009-10-14 14:00;CYYC 141400Z 12004KT 1 1/2SM -SN OVC014 M03/M04 A2973 RMK SC8 SLP124

CYYC;2009-10-14 15:00;CYYC 141500Z 12004KT 1 1/2SM -SN OVC014 M03/M04 A2973 RMK SC8 SLP123

CYYC;2009-10-14 15:36;CYYC 141536Z 12005KT 1 1/2SM -SN BKN016 OVC030 M03/ RMK SC6SC2

CYYC;2009-10-14 15:53;CYYC 141553Z 13005KT 1 1/2SM -SN BKN013 OVC026 M03/ RMK SC6SC2

CYYC;2009-10-14 16:00;CYYC 141600Z 12004KT 1 1/2SM -SN BKN012 OVC027 M03/M04 A2973 RMK SC6SC2 SLP123

CYYC;2009-10-14 16:22;CYYC 141622Z 13004KT 1 1/2SM -SN OVC007 M03/ RMK SC8

CYYC;2009-10-14 16:31;CYYC 141631Z 13004KT 1 1/2SM -SN FEW007 BKN018 OVC030 M03/ RMK ST2SC5SC2

CYYC;2009-10-14 16:45;CYYC 141645Z 11004KT 1 1/2SM -SN BKN008 OVC015 M02/ RMK SC6SC2

CYYC;2009-10-14 17:00;CYYC 141700Z 14004KT 1 1/2SM -SN OVC007 M02/M04 A2973 RMK SC8 SLP121

CYYC;2009-10-14 17:11;CYYC 141711Z 14004KT 1 1/2SM -SN SCT007 BKN020 OVC035 M02/ RMK SC3SC3SC2

CYYC;2009-10-14 17:47;CYYC 141747Z 13003KT 1 1/2SM -SN BKN007 OVC012 M02/ RMK SC5SC3

CYYC;2009-10-14 18:00;CYYC 141800Z 14003KT 1 1/2SM -SN SCT007 OVC010 M02/M03 A2973 RMK SC3SC5 SLP122

CYYC;2009-10-14 18:37;CYYC 141837Z 14003KT 3SM -SN SCT007 OVC011 M02/ RMK SC3SC5

CYYC;2009-10-14 19:00;CYYC 141900Z 00000KT 8SM -SN SCT011 OVC050 M01/M04 A2974 RMK SC4SC4 SLP124

CYYC;2009-10-14 19:42;CYYC 141942Z 14003KT 8SM -SN BKN013 OVC050 M01/ RMK SC7SC1

CYYC;2009-10-14 20:00;CYYC 142000Z 13003KT 15SM -SN BKN014 BKN050 OVC120 M01/M03 A2974 RMK SC6SC1AS1 SLP124

CYYC;2009-10-14 20:36;CYYC 142036Z 11005KT 20SM BKN012 OVC050 M01/ RMK SC7SC1

CYYC;2009-10-14 21:00;CYYC 142100Z 14005KT 20SM BKN014 OVC050 M00/M03 A2975 RMK SC7SC1 SLP125

CYYC;2009-10-14 22:00;CYYC 142200Z 15005KT 20SM OVC013 M01/M03 A2976 RMK SC8 SLP129

CYYC;2009-10-14 22:10;CYYC 142210Z 12005KT 20SM OVC016 M00/ RMK SC8

CYYC;2009-10-14 22:20;CYYC 142220Z 17005KT 20SM OVC014 M00/ RMK SC8

CYYC;2009-10-14 22:38;CYYC 142238Z 19005KT 20SM OVC017 M01/ RMK SC8

CYYC;2009-10-14 23:00;CYYC 142300Z 16005KT 20SM OVC017 M01/M03 A2978 RMK SC8 SLP133

CYYC;2009-10-15 00:00;CYYC 150000Z 14004KT 20SM OVC018 M00/M03 A2979 RMK SC8 SLP139

CYYC;2009-10-15 01:00;CYYC 150100Z 10005KT 20SM OVC016 M00/M03 A2981 RMK SC8 SLP144

CYYC;2009-10-15 01:49;CYYC 150149Z 12005KT 15SM OVC010 M00/ RMK SC8

CYYC;2009-10-15 02:00;CYYC 150200Z 11004KT 15SM OVC011 M00/M02 A2983 RMK SC8 SLP149

CYYC;2009-10-15 02:10;CYYC 150210Z 11005KT 15SM OVC009 M01/ RMK SC8

CYYC;2009-10-15 02:27;CYYC 150227Z 13005KT 15SM OVC014 M01/ RMK SC8

CYYC;2009-10-15 02:44;CYYC 150244Z 12004KT 8SM BKN009 OVC014 M01/ RMK SC6SC2 SHSN SW

CYYC;2009-10-15 03:00;CYYC 150300Z 13004KT 15SM SCT009 OVC013 M01/M02 A2985 RMK SC3SC5 SHSN SW SLP157

CYYC;2009-10-15 03:31;CYYC 150331Z 13004KT 15SM SCT009 OVC016 M01/ RMK SC3SC5

CYYC;2009-10-15 04:00;CYYC 150400Z 14004KT 15SM FEW007 OVC019 M01/M03 A2986 RMK ST1SC8 SLP161

CYYC;2009-10-15 05:00;CYYC 150500Z 13004KT 15SM FEW007 OVC019 M01/M02 A2988 RMK SF1SC7 SLP167

CYYC;2009-10-15 06:00;CYYC 150600Z 13003KT 15SM FEW007 OVC017 M01/M02 A2988 RMK SF1SC7 SLP170

CYYC;2009-10-15 07:00;CYYC 150700Z 14005KT 6SM BR FEW004 BKN017 BKN090 M02/M03 A2989 RMK SF2SC5AC1 SLP172

CYYC;2009-10-15 07:34;CYYC 150734Z 13005KT 4SM BR BKN004 OVC017 M02/ RMK SF5SC3

CYYC;2009-10-15 08:00;CYYC 150800Z 15005KT 3SM BR BKN004 OVC017 M02/M02 A2990 RMK SF6SC2 SLP176

CYYC;2009-10-15 08:30;CYYC 150830Z 16004KT 2 1/2SM BR OVC003 M02/ RMK ST8

CYYC;2009-10-15 09:00;CYYC 150900Z 16003KT 2SM BR OVC003 M02/M03 A2991 RMK ST8 VIS N-NE 1 SLP179

CYYC;2009-10-15 09:44;CYYC 150944Z 14004KT 3/4SM -SG BR OVC002 M02/ RMK ST8 RVR RWY 16 5000FT

CYYC;2009-10-15 10:00;CYYC 151000Z 15002KT 5/8SM BR OVC002 M02/M02 A2993 RMK ST8 RVR RWY 16 5000FT SLP185

CYYC;2009-10-15 10:18;CYYC 151018Z 16002KT 2 1/2SM BR SCT002 OVC005 M02/ RMK SF3ST5 VIS NE 1

CYYC;2009-10-15 11:00;CYYC 151100Z 11002KT 7SM FEW002 OVC007 M02/M02 A2995 RMK SF1ST7 SLP190

CYYC;2009-10-15 12:00;CYYC 151200Z 00000KT 8SM OVC007 M01/M03 A2998 RMK ST8 SNOW COVER/MEDIUM PACK SLP200

CYYC;2009-10-15 13:00;CYYC 151300Z 16004KT 4SM BR OVC005 M02/M02 A3000 RMK ST8 SLP207

CYYC;2009-10-15 13:51;CYYC 151351Z 14004KT 1SM BR SCT004 BKN009 OVC050 M03/ RMK ST3SC4SC1 RVR RWY 16 6000 FT AND 28 2400 FT

CYYC;2009-10-15 14:00;CYYC 151400Z 14004KT 1/2SM FZFG FEW002 OVC008 M03/M03 A3002 RMK ST2SC6 RVR RWY 16 6000+ FT AND 28 1800 FT SLP212

CYYC;2009-10-15 14:14;CYYC 151414Z 13003KT 1/2SM -FZDZ FZFG BKN004 OVC008 M03/ RMK ST6SC2 RVR RWY 16 3000 FT AND 28 6000+ FT

CYYC;2009-10-15 14:27;CYYC 151427Z 16005KT 1SM -FZDZ BR OVC005 M03/ RMK ST8 RVR RWY 16 AND 28 6000+ FT

CYYC;2009-10-15 14:44;CYYC 151444Z 16004KT 1SM -FZDZ BR OVC003 M03/ RMK ST8 RVR RWY 16 AND 28 6000+ FT

CYYC;2009-10-15 15:00;CYYC 151500Z 15003KT 1 1/2SM -FZDZ BR OVC003 M03/M03 A3004 RMK ST8 SLP224

CYYC;2009-10-15 15:29;CYYC 151529Z 16004KT 2 1/2SM BR BKN004 OVC080 M03/ RMK ST4AC4

CYYC;2009-10-15 15:43;CYYC 151543Z 19004KT 5SM BR BKN004 OVC090 M03/ RMK ST2AC6 VIS VRB 21/2 - 8

CYYC;2009-10-15 16:00;CYYC 151600Z 19003KT 2 1/2SM BR OVC090 M03/M04 A3005 RMK AC8 SLP229

CYYC;2009-10-15 16:39;CYYC 151639Z 19004KT 3SM BR OVC090 M02/ RMK AC8

CYYC;2009-10-15 17:00;CYYC 151700Z 20004KT 3SM BR OVC090 M02/M03 A3006 RMK AC8 SLP232

CYYC;2009-10-15 18:00;CYYC 151800Z 21007KT 5SM BR BKN100 00/M02 A3005 RMK AC7 SLP225

CYYC;2009-10-15 19:00;CYYC 151900Z 24004KT 20SM BKN100 02/M02 A3006 RMK AC7 VIS S-SW 8 SLP229

CYYC;2009-10-15 20:00;CYYC 152000Z 20005KT 20SM BKN110 03/M01 A3007 RMK AC6 VIS S-SW 8 SLP232

CYYC;2009-10-15 21:00;CYYC 152100Z 19004KT 20SM BKN110 05/M01 A3008 RMK AC6 VIS S-SW 8 SLP230

CYYC;2009-10-15 22:00;CYYC 152200Z 18004KT 20SM FEW050 FEW110 SCT210 06/M00 A3009 RMK SC1AC2CI0 HZ / VIS S-SW 8 SLP233

CYYC;2009-10-15 23:00;CYYC 152300Z 19002KT 20SM FEW070 BKN100 BKN210 07/00 A3010 RMK AC1AC5CI1 HZ / VIS S-SW 8 SLP235

CYYC;2009-10-16 00:00;CYYC 160000Z 16004KT 20SM FEW070 BKN100 BKN210 06/00 A3011 RMK AC1AC3CI1 HZ / VIS S-SW 8 / SH E SLP236

CYYC;2009-10-16 01:00;CYYC 160100Z 11006KT 30SM FEW070 FEW100 FEW210 04/M00 A3013 RMK AC1AC1CI1 SLP243

CYYC;2009-10-16 02:00;CYYC 160200Z 24002KT 15SM FEW100 FEW240 01/M01 A3013 RMK AC1CI0 SLP244

CYYC;2009-10-16 03:00;CYYC 160300Z 19005KT 15SM FEW100 01/M01 A3014 RMK AC1 SLP258

CYYC;2009-10-16 04:00;CYYC 160400Z 00000KT 15SM FEW100 FEW240 00/M01 A3015 RMK AC1CI0 SLP262

CYYC;2009-10-16 05:00;CYYC 160500Z 00000KT 15SM FEW240 M00/M02 A3016 RMK CI0 SLP265

CYYC;2009-10-16 06:00;CYYC 160600Z 00000KT 15SM SKC M01/M02 A3017 RMK SLP266

CYYC;2009-10-16 07:00;CYYC 160700Z 21003KT 15SM SKC M02/M03 A3017 RMK SLP267

CYYC;2009-10-16 08:00;CYYC 160800Z 21005KT 15SM SKC M03/M04 A3017 RMK SLP267

CYYC;2009-10-16 09:00;CYYC 160900Z 20003KT 15SM SKC M03/M05 A3019 RMK SLP269

CYYC;2009-10-16 10:00;CYYC 161000Z 21004KT 15SM SKC M03/M05 A3019 RMK SLP269

CYYC;2009-10-16 11:00;CYYC 161100Z 21005KT 15SM SKC M02/M04 A3019 RMK SLP268

CYYC;2009-10-16 12:00;CYYC 161200Z 20004KT 15SM SKC M03/M05 A3019 RMK SNOW COVER/MEDIUM PACK SLP266

CYYC;2009-10-16 13:00;CYYC 161300Z 26003KT 15SM FEW240 M03/M05 A3018 RMK CI1 SLP265

CYYC;2009-10-16 14:00;CYYC 161400Z 18003KT 40SM FEW140 BKN250 M02/M05 A3017 RMK AC1CI2 AC TR SLP262

CYYC;2009-10-16 15:00;CYYC 161500Z 21006KT 40SM FEW050 BKN200 M02/M04 A3017 RMK SC1CI3 SC TR SLP264

CYYC;2009-10-16 16:00;CYYC 161600Z 20007KT 40SM FEW100 BKN200 01/M02 A3015 RMK AC1CI2 CONTRAILS / ACSL SW SLP259

CYYC;2009-10-16 17:00;CYYC 161700Z 19006KT 40SM FEW100 BKN240 04/M01 A3013 RMK AC1CI2 ACSL S-SW SLP254

CYYC;2009-10-16 18:00;CYYC 161800Z 20008KT 40SM FEW036 FEW100 BKN210 07/M02 A3010 RMK CU1AC1CI2 ACSL S-SW-W SLP233

CYYC;2009-10-16 19:00;CYYC 161900Z 18007KT 40SM FEW044 FEW100 BKN220 10/M01 A3008 RMK CU1AC1CI2 ACSL SLP226

CYYC;2009-10-16 20:00;CYYC 162000Z 19007KT 40SM FEW048 SCT170 BKN190 OVC220 10/M01 A3006 RMK CU1AC3AC2CI2 SLP219

CYYC;2009-10-16 21:00;CYYC 162100Z 14003KT 40SM FEW050 SCT170 BKN220 11/M00 A3003 RMK SC1AC4CI2 SLP205

CYYC;2009-10-16 22:00;CYYC 162200Z 14005KT 40SM FEW040 BKN140 BKN210 10/01 A3000 RMK CF1AC5CI1 VIRGA SW-W / ACSL SLP195

CYYC;2009-10-16 23:00;CYYC 162300Z 18007KT 40SM FEW040 FEW130 BKN150 OVC210 10/01 A2999 RMK CF1AC1AC7CI0 VIRGA ALQDS SLP192

CYYC;2009-10-17 00:00;CYYC 170000Z 22002KT 40SM FEW040 BKN170 OVC220 10/02 A2996 RMK CF1AC6CI2 VIRGA ALQDS SLP184

CYYC;2009-10-17 01:00;CYYC 170100Z 19003KT 40SM FEW060 BKN170 OVC220 09/02 A2995 RMK SC2AC4CI0 SLP180

CYYC;2009-10-17 02:00;CYYC 170200Z 33003KT 15SM FEW060 BKN180 BKN220 08/02 A2994 RMK SC1AC4CI1 SLP178

CYYC;2009-10-17 03:00;CYYC 170300Z 20002KT 15SM FEW180 SCT220 08/02 A2995 RMK AC2CI1 SLP178

CYYC;2009-10-17 04:00;CYYC 170400Z 27004KT 15SM FEW180 BKN250 06/02 A2996 RMK AC2CI1 SLP182

CYYC;2009-10-17 05:00;CYYC 170500Z 23003KT 15SM FEW180 BKN250 05/01 A2995 RMK AC2CI2 SLP179

CYYC;2009-10-17 06:00;CYYC 170600Z 17005KT 15SM BKN250 05/01 A2996 RMK CI2 SLP176

CYYC;2009-10-17 07:00;CYYC 170700Z 19002KT 15SM SCT240 05/01 A2995 RMK CI2 SLP172

CYYC;2009-10-17 08:00;CYYC 170800Z 00000KT 15SM BKN250 04/01 A2995 RMK CI2 SLP171

CYYC;2009-10-17 09:00;CYYC 170900Z 00000KT 15SM SCT250 02/M00 A2995 RMK CI2 SLP169

CYYC;2009-10-17 10:00;CYYC 171000Z 21006KT 15SM FEW170 SCT250 03/00 A2992 RMK AC1CI1 SLP162

CYYC;2009-10-17 11:00;CYYC 171100Z 21007KT 15SM FEW130 FEW170 BKN240 03/01 A2991 RMK AC1AC2CI1 SLP158

CYYC;2009-10-17 12:00;CYYC 171200Z 00000KT 15SM BKN120 BKN240 03/01 A2990 RMK AC5CI0 SLP152

CYYC;2009-10-17 13:00;CYYC 171300Z 02002KT 15SM BKN110 03/01 A2989 RMK AC6 SLP150

CYYC;2009-10-17 14:00;CYYC 171400Z 21009KT 40SM BKN100 BKN120 04/01 A2987 RMK AC6AC1 SLP144

CYYC;2009-10-17 15:00;CYYC 171500Z 23010KT 40SM SCT090 BKN120 BKN200 07/02 A2987 RMK AC4AC2CI0 DIST SH NE+SE SLP139

CYYC;2009-10-17 16:00;CYYC 171600Z 21005KT 40SM BKN080 OVC110 08/03 A2986 RMK AC6AC1 VIRGA SE SLP137

CYYC;2009-10-17 17:00;CYYC 171700Z 00000KT 40SM OVC080 09/04 A2984 RMK AC7 VIRGA NE-E-SE SLP130

CYYC;2009-10-17 18:00;CYYC 171800Z 00000KT 40SM BKN080 OVC200 11/05 A2981 RMK AC6CI1 VIRGA NE SLP117

CYYC;2009-10-17 19:00;CYYC 171900Z 01005KT 40SM BKN080 OVC200 13/05 A2979 RMK AC6CI2 SLP111

CYYC;2009-10-17 20:00;CYYC 172000Z 07005KT 40SM BKN085 OVC200 15/06 A2976 RMK AC5CI1 SLP101

CYYC;2009-10-17 21:00;CYYC 172100Z 04008KT 40SM FEW075 SCT100 BKN210 14/06 A2973 RMK AC2AC2CI2 SLP089

CYYC;2009-10-17 22:00;CYYC 172200Z 36011KT 40SM FEW080 SCT100 OVC210 12/06 A2971 RMK AC2AC2CI1 SLP083

CYYC;2009-10-17 23:00;CYYC 172300Z 36011KT 40SM FEW080 BKN100 OVC210 11/05 A2971 RMK AC2AC4CI2 SLP084

CYYC;2009-10-18 00:00;CYYC 180000Z 35011KT 30SM FEW090 BKN100 BKN140 10/06 A2970 RMK AC2AC3AC0 SLP084

CYYC;2009-10-18 01:00;CYYC 180100Z 34011KT 15SM FEW090 08/05 A2969 RMK AC2 SLP080

CYYC;2009-10-18 02:00;CYYC 180200Z 34010KT 15SM FEW090 06/03 A2967 RMK AC2 SLP075

CYYC;2009-10-18 03:00;CYYC 180300Z 33011KT 15SM FEW090 05/02 A2968 RMK AC2 SLP077

CYYC;2009-10-18 04:00;CYYC 180400Z 33011KT 15SM SCT090 05/01 A2968 RMK AC4 SLP076

CYYC;2009-10-18 05:00;CYYC 180500Z 33013KT 15SM FEW090 SCT190 05/00 A2967 RMK AC2AS2 SLP073

CYYC;2009-10-18 06:00;CYYC 180600Z 32008KT 15SM FEW060 SCT090 BKN190 05/02 A2971 RMK SC2AC2AS1 SLP083

CYYC;2009-10-18 06:09;CYYC 180609Z 32007KT 15SM -RA BKN060 05/ RMK SC6

CYYC;2009-10-18 06:37;CYYC 180637Z 06005KT 15SM SCT060 BKN140 04/ RMK SC3AC3

CYYC;2009-10-18 07:00;CYYC 180700Z 33003KT 15SM SCT060 BKN140 04/02 A2963 RMK SC3AC3 SLP058

CYYC;2009-10-18 08:00;CYYC 180800Z 32007KT 15SM FEW060 FEW140 03/02 A2965 RMK SC1AC1 SLP063

CYYC;2009-10-18 09:00;CYYC 180900Z 32007KT 15SM FEW060 FEW140 02/00 A2966 RMK SC1AC1 SLP064

CYYC;2009-10-18 10:00;CYYC 181000Z 32007KT 15SM FEW060 FEW140 02/00 A2966 RMK SC1AC1 SLP066

CYYC;2009-10-18 11:00;CYYC 181100Z 32005KT 15SM FEW060 FEW140 02/00 A2966 RMK SC1AC1 SC TR SLP066

CYYC;2009-10-18 12:00;CYYC 181200Z 34004KT 15SM FEW090 FEW140 FEW210 01/M00 A2970 RMK AC1AC1CI1 SLP085

CYYC;2009-10-18 13:00;CYYC 181300Z 34009KT 15SM SCT010 BKN140 BKN210 01/00 A2974 RMK ST3AC2CI1 SLP098

CYYC;2009-10-18 13:25;CYYC 181325Z 34007KT 5SM BR BKN005 OVC011 02/ RMK ST6SC2

CYYC;2009-10-18 14:00;CYYC 181400Z 35011KT 4SM BR BKN007 OVC015 03/02 A2977 RMK ST6SC2 SLP107

CYYC;2009-10-18 14:38;CYYC 181438Z 34010KT 4SM BR SCT007 OVC010 04/ RMK ST4SC4

CYYC;2009-10-18 14:42;CYYC 181442Z CCA 34009KT 4SM BR BKN004 OVC010 04/ RMK ST6SC2

CYYC;2009-10-18 15:00;CYYC 181500Z 35010KT 5SM BR BKN005 OVC011 04/03 A2983 RMK ST6SC2 SLP132

CYYC;2009-10-18 15:33;CYYC 181533Z 03012KT 4SM BR OVC004 04/ RMK ST8

CYYC;2009-10-18 15:36;CYYC 181536Z 02012KT 4SM -DZ BR OVC004 04/ RMK ST8

CYYC;2009-10-18 16:00;CYYC 181600Z 02008KT 3SM -DZ BR OVC005 03/03 A2986 RMK ST8 SLP144

CYYC;2009-10-18 16:15;CYYC 181615Z 02009KT 4SM -DZ BR SCT005 OVC010 04/ RMK SF3ST5

CYYC;2009-10-18 16:26;CYYC 181626Z 03006KT 4SM -DZ BR SCT006 OVC009 04/ RMK SF4ST4

CYYC;2009-10-18 17:00;CYYC 181700Z 01006KT 5SM -DZ BR FEW006 OVC009 04/03 A2990 RMK SF2ST6 SLP155

CYYC;2009-10-18 17:32;CYYC 181732Z 36006KT 7SM OVC008 04/ RMK ST8

CYYC;2009-10-18 18:00;CYYC 181800Z 36004KT 7SM OVC009 04/03 A2992 RMK ST8 SLP165

CYYC;2009-10-18 18:21;CYYC 181821Z 36005KT 7SM SCT010 OVC020 05/ RMK SC4SC4

CYYC;2009-10-18 19:00;CYYC 181900Z 01002KT 7SM SCT012 OVC017 05/03 A2992 RMK SC3SC5 SLP166

CYYC;2009-10-18 20:00;CYYC 182000Z 00000KT 15SM OVC018 06/02 A2993 RMK SC7 SLP167

CYYC;2009-10-18 21:00;CYYC 182100Z 00000KT 15SM OVC021 07/02 A2993 RMK SC7 SLP168

CYYC;2009-10-18 22:00;CYYC 182200Z 07002KT 15SM BKN021 07/02 A2992 RMK SC6 SLP166

CYYC;2009-10-18 23:00;CYYC 182300Z 06002KT 15SM SCT030 07/02 A2992 RMK SC2 SLP166

CYYC;2009-10-19 00:00;CYYC 190000Z 21005KT 15SM FEW030 FEW250 07/02 A2992 RMK SC2CI1 CI TR VIS SE 7 SLP168

CYYC;2009-10-19 01:00;CYYC 190100Z 19005KT 15SM FEW030 SCT110 04/02 A2992 RMK SC2AC2 SLP168

CYYC;2009-10-19 02:00;CYYC 190200Z 16007KT 8SM SCT016 BKN110 05/02 A2992 RMK SC3AC3 SLP168

CYYC;2009-10-19 03:00;CYYC 190300Z 15006KT 8SM BKN017 OVC120 05/02 A2992 RMK SC7AC1 SLP165

CYYC;2009-10-19 04:00;CYYC 190400Z 14004KT 8SM OVC017 05/02 A2992 RMK SC7 SLP164

CYYC;2009-10-19 05:00;CYYC 190500Z 16004KT 8SM BKN020 OVC120 04/02 A2992 RMK SC6AC1 SLP165

CYYC;2009-10-19 06:00;CYYC 190600Z 16003KT 8SM OVC020 04/02 A2992 RMK SC7 SLP166

CYYC;2009-10-19 07:00;CYYC 190700Z 19004KT 8SM OVC016 04/02 A2992 RMK SC8 SLP165

CYYC;2009-10-19 08:00;CYYC 190800Z 18005KT 5SM BR OVC014 04/02 A2991 RMK SC8 SLP164

CYYC;2009-10-19 09:00;CYYC 190900Z 18006KT 5SM BR OVC012 04/02 A2991 RMK SC8 SLP161

CYYC;2009-10-19 10:00;CYYC 191000Z 18004KT 5SM BR OVC012 04/02 A2992 RMK SC8 SLP163

CYYC;2009-10-19 11:00;CYYC 191100Z 18003KT 5SM BR BKN010 OVC015 03/02 A2992 RMK SC6SC2 SLP163

CYYC;2009-10-19 12:00;CYYC 191200Z 16005KT 5SM BR BKN010 OVC015 03/02 A2992 RMK SC6SC2 SLP164

CYYC;2009-10-19 13:00;CYYC 191300Z 18003KT 5SM BR FEW010 OVC018 03/02 A2992 RMK SC2SC6 SLP165

CYYC;2009-10-19 13:54;CYYC 191354Z 16002KT 6SM BR BKN012 OVC018 03/ RMK SC5SC3

CYYC;2009-10-19 14:00;CYYC 191400Z 18002KT 6SM BR BKN013 OVC018 03/02 A2993 RMK SC5SC3 SLP166

CYYC;2009-10-19 15:00;CYYC 191500Z 00000KT 6SM BR OVC014 04/02 A2994 RMK SC8 SLP171

CYYC;2009-10-19 16:00;CYYC 191600Z 12002KT 6SM BR OVC014 04/02 A2994 RMK SC8 VIRGA SLP173

CYYC;2009-10-19 16:14;CYYC 191614Z 00000KT 6SM -DZ BR FEW011 OVC014 04/ RMK SC2ST6

CYYC;2009-10-19 17:00;CYYC 191700Z 12003KT 5SM -DZ BR OVC011 04/02 A2995 RMK ST8 SLP174

CYYC;2009-10-19 17:04;CYYC 191704Z 13003KT 5SM -DZ BR BKN007 OVC010 04/ RMK ST6SC2

CYYC;2009-10-19 17:43;CYYC 191743Z 00000KT 2SM -DZ BR BKN007 OVC010 04/ RMK ST6SC2

CYYC;2009-10-19 18:00;CYYC 191800Z 00000KT 1 1/2SM -DZ BR OVC008 04/03 A2995 RMK ST8 SLP177

CYYC;2009-10-19 18:11;CYYC 191811Z 06002KT 1SM -DZ BR OVC005 04/ RMK ST8

CYYC;2009-10-19 19:00;CYYC 191900Z 09004KT 1 1/2SM -DZ BR BKN004 OVC018 04/03 A2994 RMK ST6SC2 RVR RWY 16 6000+FT SLP175

CYYC;2009-10-19 20:00;CYYC 192000Z 11006KT 1 3/4SM -DZ BR FEW002 BKN004 OVC012 04/03 A2994 RMK SF2ST5SC1 RVR RWY 16 6000+ FT SLP173

CYYC;2009-10-19 20:24;CYYC 192024Z 10005KT 5SM -DZ BR SCT004 BKN008 OVC012 04/ RMK SC3ST4SC1

CYYC;2009-10-19 21:00;CYYC 192100Z CCA 09005KT 5SM -DZ BR BKN006 OVC008 04/03 A2994 RMK SC6ST2 RVR RWY 6000+ FT SLP172

CYYC;2009-10-19 22:00;CYYC 192200Z 11005KT 5SM -DZ BR OVC005 04/03 A2995 RMK SC8 SLP175

CYYC;2009-10-19 23:00;CYYC 192300Z 12004KT 5SM -DZ BR OVC007 04/03 A2996 RMK SC8 SLP179

CYYC;2009-10-20 00:00;CYYC 200000Z 13002KT 5SM -DZ BR FEW005 OVC012 04/03 A2997 RMK SF2ST6 SLP183

CYYC;2009-10-20 00:16;CYYC 200016Z 12003KT 4SM -DZ BR FEW005 OVC009 04/ RMK SF2ST6

CYYC;2009-10-20 00:37;CYYC 200037Z 13005KT 4SM -RA BR FEW005 OVC009 04/ RMK SF2ST6

CYYC;2009-10-20 01:00;CYYC 200100Z 14006KT 3SM RA BR SCT005 OVC009 04/03 A2997 RMK SF3ST5 SLP185

CYYC;2009-10-20 02:00;CYYC 200200Z 14006KT 3SM -RA BR FEW005 BKN009 OVC016 04/03 A2998 RMK SF2ST6SC1 SLP187

CYYC;2009-10-20 02:12;CYYC 200212Z 13006KT 3SM -DZ BR FEW005 BKN009 OVC016 04/ RMK SF2ST6SC1

CYYC;2009-10-20 03:00;CYYC 200300Z 13004KT 3SM -DZ BR SCT005 BKN009 OVC011 04/03 A2999 RMK SF3ST4SC1 SLP192

CYYC;2009-10-20 03:50;CYYC 200350Z 00000KT 4SM -RA BR FEW005 OVC007 04/ RMK SF2SC6

CYYC;2009-10-20 04:00;CYYC 200400Z 07002KT 4SM -RA BR SCT005 OVC008 04/03 A3000 RMK SF3SC5 SLP194

CYYC;2009-10-20 05:00;CYYC 200500Z 09002KT 4SM -RA BR OVC009 04/03 A3000 RMK SC8 SLP196

CYYC;2009-10-20 06:00;CYYC 200600Z 08002KT 4SM -RA BR OVC007 04/03 A3001 RMK SC8 SLP197

CYYC;2009-10-20 07:00;CYYC 200700Z 36003KT 3SM -RA BR FEW003 BKN007 OVC015 03/03 A3001 RMK SF1SC5SC2 SLP199

CYYC;2009-10-20 07:24;CYYC 200724Z 32007KT 6SM -RA BR SCT007 BKN015 OVC040 03/ RMK SC3SC3SC2

CYYC;2009-10-20 08:00;CYYC 200800Z 33005KT 10SM -RA FEW007 SCT015 OVC029 02/01 A3003 RMK SC2SC2SC5 SLP203

CYYC;2009-10-20 09:00;CYYC 200900Z 31004KT 12SM -RA FEW007 FEW015 OVC027 02/01 A3004 RMK SC1SC1SC6 SLP209

CYYC;2009-10-20 09:44;CYYC 200944Z 34003KT 12SM FEW014 BKN025 OVC037 03/ RMK SC2SC3SC2

CYYC;2009-10-20 10:00;CYYC 201000Z 33006KT 12SM SCT013 SCT025 OVC036 03/02 A3004 RMK SC3SC1SC4 SLP209

CYYC;2009-10-20 10:14;CYYC 201014Z 31004KT 12SM -RA FEW009 BKN013 OVC036 03/ RMK SC1SC4SC3

CYYC;2009-10-20 11:00;CYYC 201100Z 33005KT 12SM -RA SCT007 OVC012 03/02 A3004 RMK SC3SC5 SLP210

CYYC;2009-10-20 11:09;CYYC 201109Z 35006KT 10SM -RA BKN007 OVC012 03/ RMK SC5SC3

CYYC;2009-10-20 12:00;CYYC 201200Z 34008KT 8SM -RA OVC008 03/03 A3005 RMK SC8 SLP212

CYYC;2009-10-20 12:36;CYYC 201236Z 32008KT 12SM -RA SCT008 OVC016 03/ RMK SC3SC5

CYYC;2009-10-20 13:00;CYYC 201300Z 35008KT 12SM -RA FEW008 SCT012 OVC016 03/02 A3006 RMK SC2SC2SC5 SLP216

CYYC;2009-10-20 13:13;CYYC 201313Z 33007KT 12SM -RA FEW008 BKN012 OVC016 03/ RMK SC1SC4SC3

CYYC;2009-10-20 14:00;CYYC 201400Z 35006KT 8SM -RA FEW015 SCT040 BKN075 03/02 A3006 RMK ST2SC2AC2 SLP217

CYYC;2009-10-20 14:31;CYYC 201431Z 35005KT 8SM FEW015 FEW040 SCT080 03/ RMK ST1SC1AC2 SHRA NW+NE-SE

CYYC;2009-10-20 14:52;CYYC 201452Z 35006KT 8SM BKN011 BKN040 BKN080 03/ RMK ST5SC1AC1

CYYC;2009-10-20 15:00;CYYC 201500Z 36005KT 8SM FEW008 BKN011 BKN080 03/02 A3008 RMK ST2SC3AC1 SLP223

CYYC;2009-10-20 15:12;CYYC 201512Z 33006KT 8SM BKN007 OVC011 03/ RMK SC6SC2

CYYC;2009-10-20 16:00;CYYC 201600Z 02003KT 8SM SCT007 BKN012 OVC024 03/02 A3009 RMK ST3SC3SC1 VIS VRB 5-15 SLP227

CYYC;2009-10-20 16:39;CYYC 201639Z 33007KT 15SM BKN025 04/ RMK SC6

CYYC;2009-10-20 17:00;CYYC 201700Z 34009KT 15SM BKN020 04/02 A3010 RMK SC6 SLP229

CYYC;2009-10-20 18:00;CYYC 201800Z 35006KT 20SM FEW015 BKN025 BKN050 04/01 A3010 RMK ST1SC5SC1 SLP228

CYYC;2009-10-20 19:00;CYYC 201900Z 36004KT 20SM OVC018 05/01 A3010 RMK SC8 SLP230

CYYC;2009-10-20 20:00;CYYC 202000Z 01004KT 20SM FEW015 OVC023 05/01 A3010 RMK SC2SC6 SLP230

CYYC;2009-10-20 21:00;CYYC 202100Z 03007KT 20SM FEW017 SCT030 OVC090 05/01 A3009 RMK SC1SC3AC3 SLP228

CYYC;2009-10-20 22:00;CYYC 202200Z 05002KT 20SM FEW030 BKN090 05/M00 A3010 RMK SC2AC2 SLP230

CYYC;2009-10-20 23:00;CYYC 202300Z 05006KT 15SM FEW020 SCT030 OVC100 05/01 A3011 RMK CF1SC3AC4 SLP232

CYYC;2009-10-21 00:00;CYYC 210000Z 10002KT 15SM FEW020 FEW050 OVC090 05/01 A3011 RMK CF1SC2AC5 SLP232

CYYC;2009-10-21 01:00;CYYC 210100Z 13003KT 15SM OVC100 05/M00 A3011 RMK AC8 SLP233

CYYC;2009-10-21 02:00;CYYC 210200Z 11005KT 15SM BKN057 BKN095 04/02 A3012 RMK SC6AC2 SLP235

CYYC;2009-10-21 03:00;CYYC 210300Z 14004KT 15SM BKN062 OVC094 04/02 A3012 RMK SC6AC2 SLP239

CYYC;2009-10-21 04:00;CYYC 210400Z 13004KT 15SM BKN041 BKN060 OVC090 04/02 A3012 RMK SC5SC2AC2 SLP237

CYYC;2009-10-21 05:00;CYYC 210500Z 14003KT 9SM BKN021 OVC033 04/02 A3012 RMK SC5SC3 SLP237

CYYC;2009-10-21 05:51;CYYC 210551Z 15005KT 8SM FEW008 OVC016 04/ RMK SF1SC7

CYYC;2009-10-21 06:00;CYYC 210600Z 16006KT 8SM FEW008 OVC016 04/03 A3011 RMK SF1SC7 SLP232

CYYC;2009-10-21 07:00;CYYC 210700Z 16006KT 7SM FEW008 BKN019 OVC084 03/02 A3009 RMK SF1SC6AC1 SLP227

CYYC;2009-10-21 08:00;CYYC 210800Z 16006KT 6SM BR FEW019 FEW085 01/01 A3007 RMK SC2AC1 SLP221

CYYC;2009-10-21 09:00;CYYC 210900Z 18005KT 5SM BR BKN026 02/02 A3007 RMK SC7 SLP218

CYYC;2009-10-21 10:00;CYYC 211000Z 17009KT 3SM BR FEW003 OVC025 02/02 A3005 RMK SF1SC7 SLP211

CYYC;2009-10-21 10:08;CYYC 211008Z 18005KT 2SM BR SCT003 OVC025 02/ RMK SF3SC5

CYYC;2009-10-21 10:15;CYYC 211015Z 18005KT 2SM BR BKN003 BKN009 OVC025 02/ RMK SF5ST2SC1

CYYC;2009-10-21 11:00;CYYC 211100Z 18007KT 1 3/4SM BR OVC003 02/02 A3003 RMK ST8 VIS N-NE 1 SLP206

CYYC;2009-10-21 12:00;CYYC 211200Z 17008KT 3SM BR OVC003 02/02 A3002 RMK ST8 SLP202

CYYC;2009-10-21 12:36;CYYC 211236Z CCA 16008KT 3/4SM BR OVC002 02/ RMK FG3ST5

CYYC;2009-10-21 13:00;CYYC 211300Z 17007KT 3/4SM BR OVC002 02/02 A3001 RMK FG3ST5 RVR RWY 16 3500FT SLP198

CYYC;2009-10-21 13:35;CYYC 211335Z 16006KT 3/8SM FG VV002 01/ RMK FG8 RVR RWY 16 2800 AND 28 2000 FT

CYYC;2009-10-21 14:00;CYYC 211400Z 16009KT 3/8SM FG VV002 01/01 A2999 RMK FG8 RVR RWY 16 2600 AND 28 2000 FT SLP193

CYYC;2009-10-21 14:18;CYYC 211418Z 17010KT 3/4SM BR VV002 01/ RMK FG8 RVR RWY 16 5500 AND 28 6000 FT

CYYC;2009-10-21 14:38;CYYC 211438Z 17007KT 3/4SM BR VV003 01/ RMK FG8 RVR RWY 16 AND 28 6000+ FT

CYYC;2009-10-21 15:00;CYYC 211500Z 17010KT 3/4SM BR VV002 01/01 A2998 RMK FG8 RVR RWY 16 3500 AND 28 3000 FT SLP191

CYYC;2009-10-21 16:00;CYYC 211600Z 16010KT 1SM BR VV003 01/01 A2996 RMK FG8 RVR RWY 16 5500 AND 28 6000+ FT SLP187

CYYC;2009-10-21 16:34;CYYC 211634Z 16009KT 1 1/2SM BR VV004 01/ RMK FG8

CYYC;2009-10-21 16:44;CYYC 211644Z 15010KT 3/4SM BR VV005 02/ RMK FG8

CYYC;2009-10-21 17:00;CYYC 211700Z CCA 18008KT 3/4SM BR OVC007 01/01 A2995 RMK FG3ST5 RVR RWY 16 6000+ AND 2800 4000 FT SLP182

CYYC;2009-10-21 17:22;CYYC 211722Z 14008KT 1 1/2SM BR OVC006 02/ RMK FG6ST2

CYYC;2009-10-21 17:48;CYYC 211748Z 18007KT 3SM BR OVC006 02/ RMK FG6ST2

CYYC;2009-10-21 18:00;CYYC 211800Z 18008KT 3SM BR OVC007 02/01 A2993 RMK FG4ST4 SLP172

CYYC;2009-10-21 18:22;CYYC 211822Z 15007KT 8SM BKN005 OVC100 02/ RMK ST4AC3

CYYC;2009-10-21 19:00;CYYC 211900Z 16008KT 15SM FEW005 BKN100 OVC200 03/01 A2989 RMK ST1AC6CI0 SLP162

CYYC;2009-10-21 20:00;CYYC 212000Z 15008KT 15SM FEW005 FEW100 SCT150 BKN220 05/02 A2988 RMK ST1AC2AS2CI1 CONTRAILS SLP157

CYYC;2009-10-21 21:00;CYYC 212100Z 16008KT 8SM FEW100 FEW150 BKN230 07/03 A2985 RMK AC1AS1CI1 HZ / CONTRAILS SLP139

CYYC;2009-10-21 22:00;CYYC 212200Z 17005KT 15SM BKN110 BKN150 BKN230 07/03 A2984 RMK AC6AC1CI0 VIS SSW LWR / VIRGA SW SLP135

CYYC;2009-10-21 23:00;CYYC 212300Z 17003KT 40SM FEW030 FEW110 FEW150 BKN230 08/03 A2983 RMK CF1AC2AC1CI0 SLP132

CYYC;2009-10-22 00:00;CYYC 220000Z 22007KT 40SM -SHRA BKN063 BKN100 07/04 A2982 RMK SC6AC1 SLP129

CYYC;2009-10-22 00:45;CYYC 220045Z 08006KT 40SM SCT063 BKN100 BKN220 08/ RMK SC3AC2CI0

CYYC;2009-10-22 01:00;CYYC 220100Z 11007KT 15SM FEW050 SCT100 BKN200 09/02 A2980 RMK SC2AC2CI1 SLP123

CYYC;2009-10-22 02:00;CYYC 220200Z 22005KT 15SM FEW100 SCT160 BKN240 07/03 A2981 RMK AC1AC3CI2 SLP127

CYYC;2009-10-22 03:00;CYYC 220300Z 00000KT 15SM FEW100 SCT160 BKN240 07/03 A2980 RMK AC1AC2CI1 SLP126

CYYC;2009-10-22 04:00;CYYC 220400Z 16003KT 15SM FEW160 BKN240 06/02 A2980 RMK AC2CI1 SLP125

CYYC;2009-10-22 05:00;CYYC 220500Z 23007KT 15SM FEW160 BKN240 06/01 A2980 RMK AC2CI3 SLP125

CYYC;2009-10-22 06:00;CYYC 220600Z 15004KT 15SM FEW160 BKN220 05/01 A2980 RMK AC2CI4 SLP126

CYYC;2009-10-22 07:00;CYYC 220700Z 18002KT 15SM FEW160 BKN230 08/M00 A2981 RMK AC2CI4 SLP129

CYYC;2009-10-22 08:00;CYYC 220800Z 36008KT 15SM BKN150 BKN230 05/00 A2984 RMK AC6CI1 SLP138

CYYC;2009-10-22 09:00;CYYC 220900Z 34009KT 15SM FEW150 SCT240 04/01 A2986 RMK AC2CI1 SLP143

CYYC;2009-10-22 10:00;CYYC 221000Z 32008KT 15SM FEW150 FEW240 04/01 A2988 RMK AC1CI1 SLP148

CYYC;2009-10-22 11:00;CYYC 221100Z 33008KT 15SM SCT090 BKN250 03/01 A2990 RMK AC3CI1 SLP154

CYYC;2009-10-22 12:00;CYYC 221200Z 34007KT 15SM FEW090 SCT250 02/00 A2993 RMK AC2CI0 SLP167

CYYC;2009-10-22 13:00;CYYC 221300Z 34007KT 15SM BKN081 03/01 A2995 RMK AC6 SLP175

CYYC;2009-10-22 14:00;CYYC 221400Z 30006KT 40SM SCT090 03/01 A2997 RMK AC3 SLP179

CYYC;2009-10-22 15:00;CYYC 221500Z 34005KT 40SM FEW090 04/02 A2999 RMK AC1 SLP185

CYYC;2009-10-22 16:00;CYYC 221600Z 36005KT 40SM FEW090 05/02 A3001 RMK AC1 SLP192

CYYC;2009-10-22 17:00;CYYC 221700Z 00000KT 40SM FEW090 08/02 A3002 RMK AC1 SLP194

CYYC;2009-10-22 18:00;CYYC 221800Z 19003KT 40SM FEW040 FEW090 10/01 A3003 RMK CF1AC1 SLP194

CYYC;2009-10-22 19:00;CYYC 221900Z 20004KT 40SM FEW040 FEW080 10/01 A3002 RMK CF1AC1 SLP193

CYYC;2009-10-22 20:00;CYYC 222000Z 18006KT 40SM FEW050 11/02 A3000 RMK SC2 VIRGA NW SLP185

CYYC;2009-10-22 21:00;CYYC 222100Z 18007KT 40SM FEW040 FEW085 12/01 A2998 RMK CU2AC1 SLP178

CYYC;2009-10-22 22:00;CYYC 222200Z 17005KT 40SM SCT070 12/01 A2997 RMK AC3 VIRGA S SLP174

CYYC;2009-10-22 23:00;CYYC 222300Z 16008KT 40SM FEW080 12/01 A2997 RMK AC2 SLP174

CYYC;2009-10-22 23:55;CYYC 222355Z 27013KT 40SM FEW080 FEW250 11/ RMK AC1CI1 WSHFT 2350 /CI TR

CYYC;2009-10-23 00:00;CYYC 230000Z 27013KT 40SM FEW080 FEW250 11/M05 A2997 RMK AC1CI1 CI TR SLP178

CYYC;2009-10-23 01:00;CYYC 230100Z 27011KT 15SM FEW050 FEW080 FEW250 09/M05 A2997 RMK CU1AC1CI1 SLP178

CYYC;2009-10-23 02:00;CYYC 230200Z 27011KT 15SM FEW050 FEW080 08/M05 A2997 RMK CU1AC1 CU TR AC TR SLP176

CYYC;2009-10-23 03:00;CYYC 230300Z 29010KT 15SM SKC 08/M06 A2997 RMK SLP178

CYYC;2009-10-23 04:00;CYYC 230400Z 31005KT 15SM FEW080 07/M06 A2996 RMK AC1 SLP177

CYYC;2009-10-23 05:00;CYYC 230500Z 07002KT 15SM FEW080 06/M05 A2996 RMK AC1 SLP175

CYYC;2009-10-23 06:00;CYYC 230600Z 31002KT 15SM FEW190 04/M05 A2994 RMK AC1 SLP164

CYYC;2009-10-23 07:00;CYYC 230700Z 28002KT 15SM SKC 03/M04 A2992 RMK SLP160

CYYC;2009-10-23 08:00;CYYC 230800Z 00000KT 15SM FEW250 05/M05 A2990 RMK CI1 SLP154

CYYC;2009-10-23 09:00;CYYC 230900Z 18005KT 15SM FEW160 FEW250 01/M05 A2989 RMK AC1CI1 SLP150

CYYC;2009-10-23 10:00;CYYC 231000Z 19002KT 15SM FEW180 FEW250 01/M04 A2987 RMK AC1CI1 SLP145

CYYC;2009-10-23 11:00;CYYC 231100Z 19004KT 15SM FEW180 FEW250 01/M05 A2985 RMK AC1CI1 PRESFR SLP136

CYYC;2009-10-23 12:00;CYYC 231200Z 20006KT 15SM FEW180 FEW250 01/M05 A2982 RMK AC1CI1 CI TR SLP124

CYYC;2009-10-23 13:00;CYYC 231300Z 20006KT 15SM FEW032 FEW180 FEW250 02/M04 A2980 RMK CU1AC1CI1 SLP118

CYYC;2009-10-23 14:00;CYYC 231400Z 20002KT 40SM FEW150 OVC210 02/M04 A2977 RMK AC1CI4 SLP109

CYYC;2009-10-23 15:00;CYYC 231500Z 36003KT 40SM VCSH FEW090 SCT180 OVC210 03/M04 A2975 RMK AC1AS4CI3 SH W-NW SLP104

CYYC;2009-10-23 16:00;CYYC 231600Z 22005KT 40SM FEW090 SCT170 OVC210 03/M03 A2974 RMK AC1AS3CI2 SLP100

CYYC;2009-10-23 17:00;CYYC 231700Z 20002KT 40SM FEW090 SCT180 OVC220 06/M03 A2970 RMK AC1AS2CI3 SLP089

CYYC;2009-10-23 18:00;CYYC 231800Z 18003KT 40SM FEW090 FEW180 OVC220 08/M02 A2967 RMK AC1AS2CI3 SLP073

CYYC;2009-10-23 19:00;CYYC 231900Z 19005KT 40SM FEW040 FEW120 SCT180 OVC230 10/M02 A2964 RMK CF1AC1AS3CI2 SLP065

CYYC;2009-10-23 20:00;CYYC 232000Z 20003KT 40SM FEW120 BKN150 OVC230 11/M02 A2964 RMK AC1AC7CI0 VIRGA / AC TR SLP062

CYYC;2009-10-23 21:00;CYYC 232100Z 21003KT 40SM FEW090 BKN160 OVC230 10/M01 A2960 RMK AC1AC7CI0 VIRGA SLP051

CYYC;2009-10-23 22:00;CYYC 232200Z 18002KT 40SM FEW120 BKN160 OVC210 11/M01 A2960 RMK AC2AC3CI2 VIRGA E SLP049

CYYC;2009-10-23 23:00;CYYC 232300Z 29002KT 40SM BKN080 BKN160 BKN210 11/M00 A2960 RMK AC6AC2CI0 SH DIST E SLP049

CYYC;2009-10-24 00:00;CYYC 240000Z 30008KT 40SM BKN070 12/M00 A2959 RMK AC7 SLP043

CYYC;2009-10-24 01:00;CYYC 240100Z 34007KT 15SM FEW070 SCT210 10/M00 A2958 RMK AC2CI0 SLP041

CYYC;2009-10-24 02:00;CYYC 240200Z 32008KT 15SM FEW100 SCT210 07/M01 A2959 RMK AC2CI0 SLP045

CYYC;2009-10-24 03:00;CYYC 240300Z 34006KT 15SM FEW100 FEW210 05/M00 A2960 RMK AC2CI0 SLP054

CYYC;2009-10-24 04:00;CYYC 240400Z 33009KT 15SM FEW090 05/00 A2961 RMK AC2 SLP056

CYYC;2009-10-24 05:00;CYYC 240500Z 00000KT 15SM FEW090 05/00 A2960 RMK AC1 SLP053

CYYC;2009-10-24 06:00;CYYC 240600Z 36003KT 15SM FEW090 02/M01 A2961 RMK AC1 SLP054

CYYC;2009-10-24 07:00;CYYC 240700Z 34003KT 15SM FEW080 01/M02 A2960 RMK AC1 SLP053

CYYC;2009-10-24 08:00;CYYC 240800Z 01003KT 15SM FEW080 M00/M02 A2962 RMK AC1 SLP057

CYYC;2009-10-24 09:00;CYYC 240900Z 31003KT 15SM FEW160 01/M03 A2963 RMK AC1 SLP060

CYYC;2009-10-24 10:00;CYYC 241000Z 32002KT 15SM FEW100 M00/M03 A2964 RMK AC1 SLP063

CYYC;2009-10-24 11:00;CYYC 241100Z 34004KT 15SM BKN076 BKN090 00/M03 A2965 RMK AC5AC1 SLP068

CYYC;2009-10-24 11:47;CYYC 241147Z 31010KT 15SM -RA BKN033 BKN051 04/ RMK SC5SC1

CYYC;2009-10-24 12:00;CYYC 241200Z 34018G24KT 10SM -RA BKN024 BKN051 05/01 A2969 RMK SC6SC2 SLP075

CYYC;2009-10-24 13:00;CYYC 241300Z 33004KT 6SM -RA BR BKN024 BKN050 03/02 A2972 RERA RMK SC6SC2 SLP083

CYYC;2009-10-24 13:42;CYYC 241342Z 35011KT 6SM -RA OVC014 03/ RMK SC8

CYYC;2009-10-24 14:00;CYYC 241400Z 33010KT 4SM RA BKN012 OVC019 02/01 A2975 RMK SC6SC2 SLP092

CYYC;2009-10-24 14:17;CYYC 241417Z CCA 31009KT 3SM -RASN BKN011 OVC020 01/ RERA RMK SC6SC2

CYYC;2009-10-24 14:48;CYYC 241448Z 27007KT 4SM -RA BR BKN014 OVC024 01/ RMK ST6SC2

CYYC;2009-10-24 15:00;CYYC 241500Z 31006KT 3SM -RASN BR BKN010 OVC018 01/00 A2978 RMK ST6SC2 SLP118

CYYC;2009-10-24 15:22;CYYC 241522Z 33007KT 1 1/2SM -RASN BR OVC006 01/ RMK ST8

CYYC;2009-10-24 16:00;CYYC 241600Z 30006KT 1SM -RASN OVC008 01/M00 A2982 RMK ST8 SLP130

CYYC;2009-10-24 16:12;CYYC 241612Z 31005KT 1 1/2SM -SN BKN010 OVC020 00/ RMK SN2ST5SC2

CYYC;2009-10-24 16:24;CYYC 241624Z 31008KT 3/4SM -SN BKN006 OVC016 00/ RMK SN2ST5SC1

CYYC;2009-10-24 17:00;CYYC 241700Z 34007KT 2SM -SN BKN010 OVC027 01/M00 A2983 RMK SN1ST5SC2 SLP134

CYYC;2009-10-24 17:26;CYYC 241726Z 31009KT 3SM -SN BKN011 OVC022 01/ RMK ST6SC2

CYYC;2009-10-24 17:39;CYYC 241739Z 30006KT 7SM -SN BKN020 OVC036 01/ RMK ST6SC2

CYYC;2009-10-24 18:00;CYYC 241800Z 32006KT 20SM -SN BKN045 OVC055 02/01 A2982 RMK ST6SC1 SLP138

CYYC;2009-10-24 18:39;CYYC 241839Z 31009KT 20SM SCT020 BKN065 BKN220 03/ RMK SC3SC2CI1 DIST PCPN SE

CYYC;2009-10-24 19:00;CYYC 241900Z 27006KT 20SM FEW020 SCT065 BKN140 BKN220 03/01 A2984 RMK SC2SC2AC1CI0 SLP143

CYYC;2009-10-24 20:00;CYYC 242000Z 27006KT 20SM FEW050 SCT090 BKN140 04/01 A2986 RMK SC2AC2AC2 DIST PCPN N+S SLP150

CYYC;2009-10-24 21:00;CYYC 242100Z 30006KT 20SM FEW050 FEW080 SCT100 BKN140 06/01 A2987 RMK SC1AC2AC2AC1 DIST SH SE SLP151

CYYC;2009-10-24 22:00;CYYC 242200Z 29008KT 20SM FEW065 SCT090 BKN120 04/M01 A2989 RMK SC2AC2AC2 VIS SW 8 /DIST SH SW SLP158

CYYC;2009-10-24 23:00;CYYC 242300Z 29007KT 40SM SCT050 BKN080 BKN110 05/M01 A2992 RMK SC3AC2AC1 DIST SH S SLP166

CYYC;2009-10-25 00:00;CYYC 250000Z 25006KT 40SM SCT050 OVC065 05/M01 A2993 RMK SC4SC3 VIRGA ALQDS SLP168

CYYC;2009-10-25 01:00;CYYC 250100Z 23002KT 15SM SCT060 BKN090 04/M02 A2995 RMK SC3AC2 SLP174

CYYC;2009-10-25 02:00;CYYC 250200Z 25004KT 15SM BKN080 BKN160 03/M02 A2998 RMK AC5AC1 SLP182

CYYC;2009-10-25 03:00;CYYC 250300Z 24004KT 15SM BKN080 BKN110 03/M02 A3000 RMK AC5AC1 SLP198

CYYC;2009-10-25 04:00;CYYC 250400Z 31004KT 15SM FEW065 BKN080 03/M04 A3001 RMK SC1AC5 SLP203

CYYC;2009-10-25 05:00;CYYC 250500Z 29005KT 15SM BKN090 03/M05 A3004 RMK AC6 VIRGA ALQDS SLP210

CYYC;2009-10-25 06:00;CYYC 250600Z 33008KT 15SM FEW090 02/M06 A3005 RMK AC1 SLP219

CYYC;2009-10-25 07:00;CYYC 250700Z 31008KT 15SM SKC 02/M08 A3006 RMK SLP223

CYYC;2009-10-25 08:00;CYYC 250800Z 30008KT 15SM SKC 02/M08 A3008 RMK SLP229

CYYC;2009-10-25 09:00;CYYC 250900Z 33006KT 15SM SKC 02/M08 A3010 RMK SLP229

CYYC;2009-10-25 10:00;CYYC 251000Z 00000KT 15SM SKC 01/M09 A3010 RMK SLP230

CYYC;2009-10-25 11:00;CYYC 251100Z 28004KT 15SM SKC M01/M08 A3010 RMK SLP229

CYYC;2009-10-25 12:00;CYYC 251200Z 00000KT 15SM SKC 00/M09 A3011 RMK SLP238

CYYC;2009-10-25 13:00;CYYC 251300Z 18002KT 15SM SKC M02/M09 A3011 RMK SLP238

CYYC;2009-10-25 14:00;CYYC 251400Z 19005KT 15SM SKC M03/M09 A3012 RMK SLP240

CYYC;2009-10-25 15:00;CYYC 251500Z 19004KT 40SM SKC M03/M08 A3011 RMK SLP245

CYYC;2009-10-25 16:00;CYYC 251600Z 19003KT 40SM SKC 01/M07 A3011 RMK SLP243

CYYC;2009-10-25 17:00;CYYC 251700Z 17007KT 40SM FEW220 02/M06 A3010 RMK CI1 SLP240

CYYC;2009-10-25 18:00;CYYC 251800Z 18006KT 40SM FEW220 04/M07 A3010 RMK CI1 SLP232

CYYC;2009-10-25 19:00;CYYC 251900Z 17006KT 40SM FEW220 06/M07 A3007 RMK CI1 SLP223

CYYC;2009-10-25 20:00;CYYC 252000Z 19005KT 40SM FEW140 BKN220 06/M07 A3003 RMK AC1CI2 SLP210

CYYC;2009-10-25 21:00;CYYC 252100Z 19008KT 40SM FEW140 BKN220 06/M07 A3000 RMK AC2CI3 SLP195

CYYC;2009-10-25 22:00;CYYC 252200Z 20006KT 40SM FEW160 OVC220 07/M06 A2998 RMK AC2CI4 SLP187

CYYC;2009-10-25 23:00;CYYC 252300Z 18004KT 40SM FEW160 OVC220 06/M06 A2994 RMK AC2CI6 SLP175

CYYC;2009-10-26 00:00;CYYC 260000Z 19003KT 40SM FEW150 OVC210 05/M04 A2989 RMK AC1CI5 SLP160

CYYC;2009-10-26 01:00;CYYC 260100Z 20004KT 15SM FEW180 OVC210 04/M03 A2986 RMK AC2CI5 SLP151

CYYC;2009-10-26 02:00;CYYC 260200Z 20004KT 15SM BKN230 03/M05 A2982 RMK CI6 SLP137

CYYC;2009-10-26 03:00;CYYC 260300Z 23007KT 15SM SCT060 BKN090 OVC230 04/M04 A2980 RMK SC3AC3CI2 SLP134

CYYC;2009-10-26 04:00;CYYC 260400Z 18003KT 15SM BKN090 OVC110 05/M05 A2976 RMK AC6AC2 SLP121

CYYC;2009-10-26 05:00;CYYC 260500Z 19004KT 15SM BKN100 OVC120 07/M07 A2971 RMK AC6AC2 SLP108

CYYC;2009-10-26 06:00;CYYC 260600Z 26016KT 15SM BKN100 07/M06 A2967 RMK AC7 WSHFT 0555 SLP078

CYYC;2009-10-26 07:00;CYYC 260700Z 27015G20KT 15SM BKN100 OVC210 07/M05 A2966 RMK AC6CI2 SLP074

CYYC;2009-10-26 08:00;CYYC 260800Z 30005KT 15SM SCT100 OVC210 06/M05 A2963 RMK AC3CI5 SLP063

CYYC;2009-10-26 09:00;CYYC 260900Z 26018KT 15SM FEW100 OVC210 07/M05 A2960 RMK AC2CI6 SLP046

CYYC;2009-10-26 10:00;CYYC 261000Z 26019G26KT 15SM FEW100 OVC210 07/M05 A2958 RMK AC2CI6 SLP040

CYYC;2009-10-26 11:00;CYYC 261100Z 26020G33KT 15SM FEW180 OVC210 07/M05 A2957 RMK AC2CI6 SLP037

CYYC;2009-10-26 12:00;CYYC 261200Z 27020G25KT 15SM BKN230 07/M05 A2956 RMK CI7 SLP037

CYYC;2009-10-26 13:00;CYYC 261300Z 27014G19KT 15SM FEW180 BKN230 07/M05 A2956 RMK AS1CI6 SLP037

CYYC;2009-10-26 14:00;CYYC 261400Z 30010KT 40SM FEW140 OVC180 06/M04 A2957 RMK AC2AC6 SLP040

CYYC;2009-10-26 15:00;CYYC 261500Z 01007KT 40SM FEW040 BKN098 BKN180 06/M04 A2957 RMK SC1AC5AC2 ACSL SLP042

CYYC;2009-10-26 16:00;CYYC 261600Z 19003KT 40SM FEW040 SCT100 BKN190 06/M04 A2954 RMK SC1AC3AC4 ACSL SLP031

CYYC;2009-10-26 17:00;CYYC 261700Z 28013KT 40SM FEW040 FEW090 BKN120 09/M05 A2951 RMK SC1AC1AS6 ACSL S SLP022

CYYC;2009-10-26 18:00;CYYC 261800Z 30007KT 40SM FEW040 FEW090 BKN120 09/M04 A2946 RMK SC1AC1AS7 VIRGA SE / ACSL S SLP997

CYYC;2009-10-26 19:00;CYYC 261900Z 29013KT 40SM SCT100 OVC120 09/M04 A2945 RMK AC3AS5 VIRGA SE / ACSL S SLP992

CYYC;2009-10-26 20:00;CYYC 262000Z 21010KT 40SM FEW040 BKN080 OVC120 09/M04 A2941 RMK SC1AS6AC2 VIRGA SLP979

CYYC;2009-10-26 21:00;CYYC 262100Z 24002KT 40SM BKN044 BKN080 OVC120 09/M03 A2939 RMK SC5AS2AC1 VIRGA ALQDS SLP971

CYYC;2009-10-26 22:00;CYYC 262200Z 23007KT 40SM FEW045 BKN079 OVC120 09/M03 A2935 RMK SC2AS5AC1 VIRGA SLP960

CYYC;2009-10-26 23:00;CYYC 262300Z 26005KT 30SM SCT040 OVC080 08/M02 A2933 RMK SC3AS5 SH S-W SLP954

CYYC;2009-10-27 00:00;CYYC 270000Z 30006KT 20SM FEW040 BKN100 OVC140 06/M01 A2931 RMK SC2AS6AC1 SH SW SLP948

CYYC;2009-10-27 01:00;CYYC 270100Z 34004KT 15SM FEW030 SCT074 OVC091 06/M01 A2931 RMK SC1AC3AS5 SLP947

CYYC;2009-10-27 02:00;CYYC 270200Z 30010KT 15SM FEW030 SCT071 BKN085 05/M01 A2931 RMK SC1AC2AS4 SLP948

CYYC;2009-10-27 02:06;CYYC 270206Z 29011KT 15SM -DZ FEW030 SCT071 BKN085 05/ RMK SC1AC2AS4

CYYC;2009-10-27 03:00;CYYC 270300Z 31018G24KT 15SM -DZ FEW020 SCT036 BKN050 05/M01 A2934 RMK SC1SC2ST4 SLP959

CYYC;2009-10-27 03:32;CYYC 270332Z 32015G20KT 15SM FEW030 SCT046 BKN081 04/ RMK CU1SC2AS4

CYYC;2009-10-27 04:00;CYYC 270400Z 32014KT 15SM FEW050 BKN083 04/M00 A2936 RMK SC2AS6 SLP964

CYYC;2009-10-27 04:32;CYYC 270432Z 34014G19KT 15SM -RA FEW030 FEW048 BKN067 04/ RMK CU1SC2AS6 CU TR

CYYC;2009-10-27 05:00;CYYC 270500Z 35013G19KT 7SM -RA FEW015 SCT023 OVC075 03/01 A2938 RMK CU1SC4AS3 CU TR SLP971

CYYC;2009-10-27 06:00;CYYC 270600Z 34018KT 5SM -RA BR FEW014 BKN038 OVC068 02/01 A2940 RMK SC2SC4AS2 SLP981

CYYC;2009-10-27 06:39;CYYC 270639Z 34012G18KT 4SM RA BR FEW007 BKN014 OVC023 02/ RMK SF2SC4SC2

CYYC;2009-10-27 07:00;CYYC 270700Z 34011G16KT 3SM RA BR FEW006 OVC012 01/00 A2943 RMK SF2SC6 SLP989

CYYC;2009-10-27 07:05;CYYC 270705Z 34012KT 3SM -SN BR FEW006 OVC010 01/ RMK SF2SC6

CYYC;2009-10-27 07:20;CYYC 270720Z 34012KT 2 1/2SM -SN BR FEW006 OVC014 01/ RMK SF2ST6

CYYC;2009-10-27 07:34;CYYC 270734Z 34012G17KT 1 1/2SM -SN BKN008 OVC019 01/ RMK SF6ST2

CYYC;2009-10-27 08:00;CYYC 270800Z 34016KT 2SM -SN BKN008 OVC019 01/M00 A2945 RMK SF5ST3 SLP997

CYYC;2009-10-27 09:00;CYYC 270900Z 36021G26KT 1 1/2SM -SN BKN006 OVC016 01/M00 A2949 RMK ST5ST3 SLP014

CYYC;2009-10-27 09:28;CYYC 270928Z 34012KT 1 1/4SM -SN BKN005 OVC016 00/ RMK ST6ST2

CYYC;2009-10-27 09:46;CYYC 270946Z 34010KT 2SM -SN BKN011 OVC018 00/ RMK ST5ST3

CYYC;2009-10-27 10:00;CYYC 271000Z 34011KT 5SM -SN BKN013 OVC030 01/M00 A2951 RMK ST5ST3 VIS NW 21/2 SLP021

CYYC;2009-10-27 10:21;CYYC 271021Z 32011KT 5SM -SN BKN020 BKN043 01/ RMK ST5SC2 VIS SW - NW 15+

CYYC;2009-10-27 10:35;CYYC 271035Z 33011KT 15SM FEW043 BKN070 01/ RMK SC1AS7

CYYC;2009-10-27 11:00;CYYC 271100Z 34015KT 15SM BKN074 02/M01 A2953 RMK AS7 SLP028

CYYC;2009-10-27 12:00;CYYC 271200Z CCA 34015G22KT 15SM BKN072 01/M02 A2955 RMK AS7 /S02/ SLP039

CYYC;2009-10-27 13:00;CYYC 271300Z 33012G19KT 15SM BKN098 01/M03 A2959 RMK AS6 SLP049

CYYC;2009-10-27 14:00;CYYC 271400Z 32011G17KT 40SM FEW070 BKN120 00/M03 A2961 RMK AC2AC4 SLP056

CYYC;2009-10-27 15:00;CYYC 271500Z 32010KT 40SM FEW065 BKN140 M00/M03 A2964 RMK SC1AC4 SH SSW SLP072

CYYC;2009-10-27 16:00;CYYC 271600Z 33012KT 40SM FEW059 SCT073 BKN140 01/M03 A2966 RMK SC2AC1AC2 SLP080

CYYC;2009-10-27 17:00;CYYC 271700Z 34016KT 40SM FEW060 BKN075 BKN140 02/M03 A2969 RMK SC2AC3AC2 SH NE+SW SLP087

CYYC;2009-10-27 17:54;CYYC 271754Z 34023G30KT 40SM -SN FEW060 BKN075 BKN140 02/ RMK SC2AC2AC2 SH NE+SW

CYYC;2009-10-27 18:00;CYYC 271800Z 34027G32KT 40SM -SN FEW030 BKN075 BKN140 02/M03 A2971 RMK SC1AC5AC2 SLP097

CYYC;2009-10-27 18:46;CYYC 271846Z 33020G28KT 40SM BKN027 BKN070 02/ RMK SC5AC2 SH S

CYYC;2009-10-27 19:00;CYYC 271900Z 34017G27KT 40SM BKN028 OVC058 02/M02 A2973 RMK SC5SC3 SH S SLP103

CYYC;2009-10-27 19:23;CYYC 271923Z 34022G29KT 6SM -SN BKN032 OVC058 02/ RMK SC5SC2

CYYC;2009-10-27 20:00;CYYC 272000Z 34021G27KT 10SM -SN FEW017 BKN033 BKN065 02/M01 A2975 RMK SC1SC6SC2 SLP109

CYYC;2009-10-27 21:00;CYYC 272100Z 34022G28KT 15SM -SN FEW017 FEW033 BKN047 02/M02 A2977 RMK SC1SC2SC3 SLP121

CYYC;2009-10-27 21:52;CYYC 272152Z 33015G21KT 15SM FEW017 BKN036 BKN050 02/ RMK SC1SC5SC2 SH E-W

CYYC;2009-10-27 22:00;CYYC 272200Z 33016G24KT 15SM FEW020 BKN035 BKN050 02/M02 A2980 RMK SC1SC6SC1 SH SE-SW SLP130

CYYC;2009-10-27 23:00;CYYC 272300Z 34017G22KT 15SM BKN025 BKN045 BKN062 02/M02 A2983 RMK SC5SC2SC1 SH SE-SW SLP138

CYYC;2009-10-28 00:00;CYYC 280000Z 34012G17KT 40SM FEW025 SCT080 BKN100 02/M02 A2985 RMK SC1AC3AC4 SLP148

CYYC;2009-10-28 01:00;CYYC 280100Z 35007KT 15SM FEW025 FEW080 OVC098 02/M03 A2987 RMK SC1AC2AC6 SLP155

CYYC;2009-10-28 02:00;CYYC 280200Z 34007KT 15SM BKN100 01/M02 A2989 RMK AC7 SLP160

CYYC;2009-10-28 03:00;CYYC 280300Z 30003KT 15SM OVC100 00/M02 A2991 RMK AC8 SLP173

CYYC;2009-10-28 04:00;CYYC 280400Z 31007KT 15SM OVC110 01/M03 A2991 RMK AC8 SLP175

CYYC;2009-10-28 05:00;CYYC 280500Z 32008KT 15SM BKN110 00/M04 A2992 RMK AC6 SLP177

CYYC;2009-10-28 06:00;CYYC 280600Z 32008KT 15SM BKN090 00/M05 A2993 RMK AC5 SLP176

CYYC;2009-10-28 07:00;CYYC 280700Z 29007KT 15SM BKN092 M00/M05 A2993 RMK AC5 SLP178

CYYC;2009-10-28 08:00;CYYC 280800Z 27005KT 15SM BKN095 00/M05 A2994 RMK AC7 SLP181

CYYC;2009-10-28 09:00;CYYC 280900Z 32009KT 15SM SCT069 OVC093 00/M06 A2995 RMK AC3AC5 SLP186

CYYC;2009-10-28 10:00;CYYC 281000Z 32007KT 15SM FEW058 FEW070 BKN092 00/M06 A2996 RMK SC1AC2AC4 SLP187

CYYC;2009-10-28 11:00;CYYC 281100Z 33008KT 15SM FEW058 FEW070 BKN091 M00/M07 A2997 RMK SC1AC1AC4 SLP191

CYYC;2009-10-28 12:00;CYYC 281200Z 32008KT 15SM FEW060 FEW080 BKN098 M01/M07 A2998 RMK SC1AC2AC3 SLP198

CYYC;2009-10-28 13:00;CYYC 281300Z 30006KT 15SM FEW060 FEW080 BKN110 M02/M07 A2999 RMK SC1AC1AC5 SLP199

CYYC;2009-10-28 14:00;CYYC 281400Z 31007KT 15SM FEW060 FEW080 BKN110 M01/M07 A3000 RMK SC1AC1AC3 SH S-W SLP203

CYYC;2009-10-28 15:00;CYYC 281500Z 32009KT 20SM FEW060 FEW080 SCT110 M01/M07 A3001 RMK SC1AC2AC2 SH SW SLP208

CYYC;2009-10-28 16:00;CYYC 281600Z 31010KT 20SM FEW060 FEW080 BKN110 00/M07 A3001 RMK SC1AC1AC2 SH S-SW SLP209

CYYC;2009-10-28 17:00;CYYC 281700Z 31009KT 40SM FEW060 FEW080 BKN110 01/M06 A3001 RMK SC1AC1AC2 SLP209

CYYC;2009-10-28 18:00;CYYC 281800Z 34011KT 40SM FEW040 FEW060 FEW110 02/M07 A3001 RMK CF1SC1AC1 SLP204

CYYC;2009-10-28 19:00;CYYC 281900Z 35013KT 40SM FEW040 SCT065 SCT080 03/M06 A3000 RMK CF1SC2AC1 SLP201

CYYC;2009-10-28 20:00;CYYC 282000Z 35011KT 40SM FEW040 FEW065 FEW080 03/M07 A2998 RMK CF2SC1AC0 SLP197

CYYC;2009-10-28 21:00;CYYC 282100Z 34009KT 20SM FEW040TCU 04/M06 A2998 RMK TCU2 TCU SW-NW / SH SW+NW SLP192

CYYC;2009-10-28 22:00;CYYC 282200Z 35006KT 15SM FEW040TCU BKN090 03/M07 A2998 RMK TCU2AC3 CB ASOCTD SW / SH ALQDS SLP192

CYYC;2009-10-28 23:00;CYYC 282300Z 33007KT 40SM SCT060CB BKN090 03/M08 A2999 RMK CB3AC3 SH ALQDS SLP195

CYYC;2009-10-29 00:00;CYYC 290000Z 35006KT 40SM VCSH FEW050 BKN075 OVC100 01/M06 A2999 RMK SC1AC6AC1 SH ALQDS SLP200

CYYC;2009-10-29 01:00;CYYC 290100Z 09005KT 15SM VCSH BKN050 BKN075 01/M06 A3000 RMK SC5AC1 SH ALQDS SLP205

CYYC;2009-10-29 02:00;CYYC 290200Z 16004KT 15SM FEW050 BKN097 01/M04 A3001 RMK SC2AC5 SLP207

CYYC;2009-10-29 03:00;CYYC 290300Z 17005KT 15SM FEW050 BKN100 M00/M04 A3001 RMK SC1AC6 SLP209

CYYC;2009-10-29 04:00;CYYC 290400Z 21004KT 15SM BKN035 BKN100 M00/M04 A3002 RMK SC5AC2 SLP212

CYYC;2009-10-29 05:00;CYYC 290500Z 24005KT 15SM FEW035 BKN080 M00/M03 A3002 RMK SC2AC4 SLP213

CYYC;2009-10-29 06:00;CYYC 290600Z 24004KT 15SM FEW020 BKN048 BKN070 M01/M03 A3001 RMK CF1SC5AC2 SLP207

CYYC;2009-10-29 07:00;CYYC 290700Z 16003KT 15SM FEW010 SCT045 OVC110 M02/M03 A3000 RMK SC1SC2AC5 SLP204

CYYC;2009-10-29 08:00;CYYC 290800Z 27002KT 15SM FEW010 BKN100 M01/M03 A3001 RMK SC1AC6 SLP208

CYYC;2009-10-29 09:00;CYYC 290900Z 29002KT 15SM FEW015 BKN100 M03/M04 A3000 RMK CF1AC6 SLP204

CYYC;2009-10-29 10:00;CYYC 291000Z 34004KT 15SM FEW015 FEW100 SCT240 M03/M05 A2999 RMK CF1AC2CI1 SLP202

CYYC;2009-10-29 11:00;CYYC 291100Z 26003KT 15SM FEW015 FEW050 FEW100 SCT250 M05/M06 A2998 RMK CF1SC2AC1CI0 SLP198

CYYC;2009-10-29 12:00;CYYC 291200Z 20004KT 15SM FEW050 FEW100 M04/M06 A2997 RMK SC2AC1 FROIN SLP198

CYYC;2009-10-29 13:00;CYYC 291300Z 20004KT 15SM FEW020 FEW050 M05/M06 A2994 RMK CF1SC1 FROIN SLP191

CYYC;2009-10-29 14:00;CYYC 291400Z 21005KT 7SM FEW030 SCT200 M04/M05 A2993 RMK CF1CS2 FROIN SLP187

CYYC;2009-10-29 15:00;CYYC 291500Z 20006KT 15SM FEW030 FEW100 BKN200 M03/M05 A2990 RMK SC1AC1CI0 SLP177

CYYC;2009-10-29 16:00;CYYC 291600Z 18007KT 15SM FEW030 FEW100 BKN200 M02/M04 A2987 RMK CF1AC1CI0 SLP168

CYYC;2009-10-29 17:00;CYYC 291700Z 17011KT 15SM BKN010 BKN180 M02/M04 A2985 RMK CF4AS2 SLP160

CYYC;2009-10-29 17:17;CYYC 291717Z 16011KT 15SM BKN008 OVC180 M02/ RMK ST6AS2

CYYC;2009-10-29 18:00;CYYC 291800Z 17011KT 5SM BR OVC007 M02/M04 A2981 RMK ST8 SLP143

CYYC;2009-10-29 18:40;CYYC 291840Z 16010G15KT 30SM SCT007 OVC120 M02/ RMK ST3AS5

CYYC;2009-10-29 19:00;CYYC 291900Z 17011KT 40SM SCT007 OVC100 M02/M04 A2976 RMK ST3AS5 SLP130

CYYC;2009-10-29 20:00;CYYC 292000Z 19009KT 20SM FEW007 SCT090 OVC180 M01/M04 A2972 RMK ST1AC3AS5 SLP117

CYYC;2009-10-29 21:00;CYYC 292100Z 18009KT 30SM FEW010 FEW090 BKN180 01/M03 A2963 RMK CF1AC2AS3 PRESFR SLP078

CYYC;2009-10-29 22:00;CYYC 292200Z 17009KT 40SM FEW060 BKN110 OVC180 01/M04 A2958 RMK SC2AC2AS3 SLP065

CYYC;2009-10-29 23:00;CYYC 292300Z 16007KT 40SM FEW060 OVC120 01/M04 A2955 RMK SC2AC6 SLP054

CYYC;2009-10-30 00:00;CYYC 300000Z 14003KT 40SM OVC055 02/M04 A2951 RMK SC7 SLP040

CYYC;2009-10-30 01:00;CYYC 300100Z 19002KT 15SM OVC033 02/M04 A2949 RMK SC8 SLP032

CYYC;2009-10-30 01:17;CYYC 300117Z 20003KT 10SM -SN BKN025 OVC046 02/ RMK SC5SC3

CYYC;2009-10-30 02:00;CYYC 300200Z 22006KT 15SM -SN BKN040 BKN061 02/M04 A2947 RMK SC5SC2 SLP028

CYYC;2009-10-30 02:50;CYYC 300250Z 22011KT 15SM -SNPL BKN041 BKN066 03/ RMK SC5AS2

CYYC;2009-10-30 03:00;CYYC 300300Z 22010KT 15SM -SNPL BKN045 BKN070 03/M05 A2946 RMK SC5AS2 SLP019

CYYC;2009-10-30 03:32;CYYC 300332Z 22009KT 15SM -RA BKN043 BKN070 03/ RMK SC5AS2

CYYC;2009-10-30 04:00;CYYC 300400Z 26013KT 15SM -RA SCT048 BKN070 05/M04 A2945 RMK SC4AS3 SLP015

CYYC;2009-10-30 05:00;CYYC 300500Z 27016G21KT 15SM -RA FEW048 BKN067 07/M05 A2946 RMK SC2AS4 SLP018

CYYC;2009-10-30 05:42;CYYC 300542Z 27013G18KT 15SM FEW030 BKN066 06/ RMK SF1AS6

CYYC;2009-10-30 06:00;CYYC 300600Z 27013G21KT 15SM FEW030 BKN066 BKN087 07/M05 A2946 RMK SF1AS4AS2 SLP013

CYYC;2009-10-30 07:00;CYYC 300700Z 27014G19KT 15SM FEW074 FEW086 07/M04 A2947 RMK AC1AS2 SLP016

CYYC;2009-10-30 08:00;CYYC 300800Z 27012G19KT 15SM FEW098 06/M04 A2950 RMK AC1 SLP023

CYYC;2009-10-30 09:00;CYYC 300900Z 27015G21KT 15SM BKN085 07/M04 A2952 RMK AC4 SLP027

CYYC;2009-10-30 10:00;CYYC 301000Z 27013G19KT 15SM BKN080 07/M04 A2954 RMK AC6 SLP033

CYYC;2009-10-30 11:00;CYYC 301100Z 34008KT 15SM BKN068 07/M04 A2957 RMK AC6 SLP042

CYYC;2009-10-30 11:59;CYYC 301159Z 03013KT 15SM FEW080 04/ RMK AC0 WNDSHFT 1146Z

CYYC;2009-10-30 12:00;CYYC 301200Z 02012KT 15SM FEW080 04/M03 A2960 RMK AC0 SLP059

CYYC;2009-10-30 13:00;CYYC 301300Z 33004KT 15SM FEW120 02/M02 A2962 RMK AC1 SLP064

CYYC;2009-10-30 14:00;CYYC 301400Z 35006KT 40SM FEW100 FEW250 02/M02 A2964 RMK AC1CI1 AC TR SLP070

CYYC;2009-10-30 15:00;CYYC 301500Z 35005KT 40SM FEW030 FEW100 SCT250 01/M01 A2964 RMK CF1AC2CI0 CF TR SLP076

CYYC;2009-10-30 16:00;CYYC 301600Z 19004KT 40SM FEW030 FEW080 FEW250 03/M00 A2966 RMK CF1AC1CI0 CF TR SLP081

CYYC;2009-10-30 17:00;CYYC 301700Z 08002KT 40SM FEW030 SCT090 BKN250 04/00 A2965 RMK CF1AC3CI0 SLP078

CYYC;2009-10-30 18:00;CYYC 301800Z 10006KT 40SM FEW030 FEW090 BKN150 05/00 A2965 RMK CU1AC1AS2 SLP068

CYYC;2009-10-30 19:00;CYYC 301900Z 17009KT 40SM FEW030 SCT090 BKN120 05/00 A2964 RMK CU1AC2AS2 SLP063

CYYC;2009-10-30 20:00;CYYC 302000Z 17008KT 40SM FEW030 FEW100 BKN140 05/01 A2961 RMK CU1AC2AS5 SLP056

CYYC;2009-10-30 21:00;CYYC 302100Z 19008KT 40SM FEW060 BKN160 05/01 A2960 RMK SC1AC7 SLP050

CYYC;2009-10-30 22:00;CYYC 302200Z 17007KT 40SM FEW090 SCT170 BKN210 05/01 A2960 RMK AC1AC4CI2 SLP048

CYYC;2009-10-30 23:00;CYYC 302300Z 15005KT 40SM FEW090 SCT150 BKN210 05/01 A2960 RMK AC1AC3CI2 SLP049

CYYC;2009-10-31 00:00;CYYC 310000Z 16006KT 40SM FEW090 SCT150 BKN210 05/01 A2959 RMK AC1AC3CI2 SLP051

CYYC;2009-10-31 01:00;CYYC 310100Z 17005KT 15SM FEW080 SCT120 OVC180 05/01 A2958 RMK AC1AC4AS3 SLP048

CYYC;2009-10-31 01:41;CYYC 310141Z 16005KT 15SM -SN FEW080 SCT120 OVC180 04/ RMK AC1AC4AS3 PCPN VRY LGT

CYYC;2009-10-31 02:00;CYYC 310200Z 17006KT 15SM -SN BKN180 BKN190 05/01 A2959 RMK AC6AS0 PCPN VRY LGT SLP049

CYYC;2009-10-31 03:00;CYYC 310300Z 18005KT 15SM -SN BKN180 BKN190 04/01 A2957 RMK AC5AC2 PCPN XTRMLY LGT SLP047

CYYC;2009-10-31 03:29;CYYC 310329Z 20004KT 15SM BKN130 BKN150 04/ RMK AC5AC2

CYYC;2009-10-31 04:00;CYYC 310400Z 19006KT 15SM BKN100 04/01 A2956 RMK AC7 SLP044

CYYC;2009-10-31 05:00;CYYC 310500Z 22006KT 15SM SCT072 BKN080 06/01 A2956 RMK AC4AC3 SLP045

CYYC;2009-10-31 06:00;CYYC 310600Z 19009KT 15SM BKN120 07/01 A2954 RMK AC7 SLP027

CYYC;2009-10-31 07:00;CYYC 310700Z 21009KT 15SM BKN095 BKN120 08/01 A2952 RMK AC6AC1 SLP023

CYYC;2009-10-31 08:00;CYYC 310800Z 27006KT 15SM BKN120 10/00 A2953 RMK AC6 SLP024

CYYC;2009-10-31 09:00;CYYC 310900Z 19004KT 15SM BKN130 08/01 A2950 RMK AC6 SLP014

CYYC;2009-10-31 10:00;CYYC 311000Z 17005KT 15SM FEW150 SCT210 06/01 A2949 RMK AC2CI1 SLP009

CYYC;2009-10-31 11:00;CYYC 311100Z 21004KT 15SM SCT150 SCT210 08/M00 A2948 RMK AC2CI1 SLP008

CYYC;2009-10-31 12:00;CYYC 311200Z 18005KT 15SM FEW180 07/M01 A2948 RMK AC1 SLP008

CYYC;2009-10-31 13:00;CYYC 311300Z 16005KT 15SM SKC 05/M00 A2946 RMK SLP001

CYYC;2009-10-31 14:00;CYYC 311400Z 19009KT 25SM FEW050 FEW180 04/M00 A2944 RMK SC1AC1 SLP995

CYYC;2009-10-31 15:00;CYYC 311500Z 22004KT 40SM FEW050 FEW180 04/M01 A2944 RMK SC1AC1 SLP999

CYYC;2009-10-31 16:00;CYYC 311600Z 11006KT 40SM FEW050 07/01 A2943 RMK SC1 SLP998

CYYC;2009-10-31 17:00;CYYC 311700Z 26012KT 40SM FEW050 FEW180 13/00 A2946 RMK SC1AC1 SLP005

CYYC;2009-10-31 18:00;CYYC 311800Z 27021G29KT 40SM FEW050 FEW180 FEW220 13/M03 A2948 RMK SC1AC1CI1 SLP996

CYYC;2009-10-31 19:00;CYYC 311900Z 27018G25KT 40SM FEW050 14/M04 A2952 RMK SC1 SLP007

CYYC;2009-10-31 20:00;CYYC 312000Z 27030G36KT 40SM FEW050 14/M05 A2954 RMK SC1 SLP013

CYYC;2009-10-31 21:00;CYYC 312100Z 26022G31KT 40SM FEW050 FEW220 14/M04 A2956 RMK SC1CI0 SLP020

CYYC;2009-10-31 22:00;CYYC 312200Z 27024G29KT 40SM FEW050 FEW220 14/M06 A2959 RMK SC1CI0 SLP029

CYYC;2009-10-31 23:00;CYYC 312300Z 30016KT 40SM FEW040 12/M06 A2961 RMK SC1 SLP036

CYYC;2009-11-01 01:00;CYYC 010100Z 02010KT 15SM FEW040 04/00 A2972 RMK SC1 SLP085

CYYC;2009-11-01 02:00;CYYC 010200Z 36006KT 15SM FEW050 03/M00 A2977 RMK SC1 SLP100

CYYC;2009-11-01 03:00;CYYC 010300Z 36005KT 15SM FEW050 02/M01 A2980 RMK SC1 SLP129

CYYC;2009-11-01 04:00;CYYC 010400Z 36004KT 15SM BKN026 02/M01 A2984 RMK SC6 SLP140

CYYC;2009-11-01 05:00;CYYC 010500Z 04005KT 15SM BKN020 BKN050 02/M00 A2988 RMK SC5SC2 SLP152

CYYC;2009-11-01 06:00;CYYC 010600Z 18002KT 15SM SCT020 BKN040 BKN090 01/M00 A2990 RMK SC3SC2AC0 SLP150

CYYC;2009-11-01 07:00;CYYC 010700Z 21005KT 15SM -RA BKN030 02/00 A2991 RMK SC6 SLP153

CYYC;2009-11-01 08:00;CYYC 010800Z 20010KT 15SM -SHRA SCT030 BKN120 02/M00 A2991 RMK SC3AC3 SLP154

CYYC;2009-11-01 09:00;CYYC 010900Z 21011KT 15SM -SHRA FEW030 BKN120 02/M01 A2992 RMK SC2AC3 SLP155

CYYC;2009-11-01 10:00;CYYC 011000Z 22015KT 15SM -SHRA FEW030 BKN120 03/M01 A2994 RMK SC2AC3 SLP161

CYYC;2009-11-01 11:00;CYYC 011100Z 22008KT 15SM FEW050 BKN120 02/M01 A2996 RMK SC1AC3 SLP167

CYYC;2009-11-01 12:00;CYYC 011200Z 36003KT 15SM FEW050 FEW120 M00/M03 A3000 RMK SC1AC1 SLP197

CYYC;2009-11-01 13:00;CYYC 011300Z 28005KT 15SM FEW120 01/M05 A3001 RMK AC1 SLP200

CYYC;2009-11-01 14:00;CYYC 011400Z 28010KT 40SM FEW030 FEW050 FEW090 02/M06 A3003 RMK CF1SC1AC1 VIRGA NE SLP204

CYYC;2009-11-01 15:00;CYYC 011500Z 28014KT 40SM FEW040 FEW100 03/M07 A3004 RMK SC1AC1 SLP213

CYYC;2009-11-01 16:00;CYYC 011600Z 28015KT 40SM FEW050 03/M08 A3006 RMK SC1 SLP220

CYYC;2009-11-01 17:00;CYYC 011700Z 28015G21KT 40SM FEW050 05/M09 A3010 RMK SC1 SLP233

CYYC;2009-11-01 18:00;CYYC 011800Z 27018KT 40SM FEW050 FEW100 06/M09 A3011 RMK SC1AC1 SLP233

CYYC;2009-11-01 19:00;CYYC 011900Z 29015G21KT 40SM FEW050 FEW068 FEW100 07/M11 A3012 RMK SC1CU1AC1 SLP237

CYYC;2009-11-01 20:00;CYYC 012000Z 04010G17KT 40SM FEW048 FEW050 FEW100 06/M05 A3013 RMK SC1CU1AC1 SLP241

CYYC;2009-11-01 21:00;CYYC 012100Z 06006KT 40SM FEW052 FEW080 07/M06 A3014 RMK CU1AC1 VIRGA/CU TR SLP241

CYYC;2009-11-01 22:00;CYYC 012200Z 26016G21KT 40SM FEW068 FEW080 07/M11 A3014 RMK CU1AC2 VIRGA ALQDS SLP243

CYYC;2009-11-01 23:00;CYYC 012300Z 04010KT 40SM FEW050 FEW080 05/M07 A3017 RMK SC1AC1 VIRGA N+E SLP251

CYYC;2009-11-02 00:00;CYYC 020000Z 06007KT 40SM FEW050 FEW080 03/M05 A3019 RMK SC1AC1 SLP269

CYYC;2009-11-02 01:00;CYYC 020100Z 24003KT 25SM FEW040 FEW220 03/M08 A3020 RMK SC1CI1 SLP271

CYYC;2009-11-02 02:00;CYYC 020200Z 27004KT 15SM SKC 02/M10 A3020 RMK SLP271

CYYC;2009-11-02 03:00;CYYC 020300Z 26006KT 15SM SKC 02/M10 A3020 RMK SLP267

CYYC;2009-11-02 04:00;CYYC 020400Z 26007KT 15SM SKC 02/M10 A3020 RMK SLP268

CYYC;2009-11-02 05:00;CYYC 020500Z 21006KT 15SM SKC 01/M10 A3020 RMK SLP267

CYYC;2009-11-02 06:00;CYYC 020600Z 20005KT 15SM SKC 01/M10 A3019 RMK SLP263

CYYC;2009-11-02 07:00;CYYC 020700Z 18005KT 15SM SKC M03/M10 A3018 RMK SLP260

CYYC;2009-11-02 08:00;CYYC 020800Z 23008KT 15SM SKC M00/M10 A3017 RMK SLP255

CYYC;2009-11-02 09:00;CYYC 020900Z 19003KT 15SM FEW080 M01/M10 A3015 RMK AC1 SLP252

CYYC;2009-11-02 10:00;CYYC 021000Z 21009KT 15SM FEW080 M01/M10 A3015 RMK AC1 SLP250

CYYC;2009-11-02 11:00;CYYC 021100Z 21008KT 15SM FEW080 00/M10 A3013 RMK AC1 SLP245

CYYC;2009-11-02 12:00;CYYC 021200Z 18004KT 15SM FEW080 BKN230 M03/M09 A3012 RMK AC1CI4 SLP247

CYYC;2009-11-02 13:00;CYYC 021300Z 22006KT 15SM BKN120 BKN230 00/M09 A3010 RMK AC5CI1 SLP241

CYYC;2009-11-02 14:00;CYYC 021400Z 21003KT 40SM BKN150 BKN180 01/M09 A3007 RMK AC5AC0 SLP233

CYYC;2009-11-02 15:00;CYYC 021500Z 22005KT 40SM FEW140 SCT180 BKN210 M00/M08 A3007 RMK AC1AC3CI4 SLP230

CYYC;2009-11-02 16:00;CYYC 021600Z 22005KT 40SM FEW180 BKN230 M00/M08 A3006 RMK AC2CI5 SLP226

CYYC;2009-11-02 17:00;CYYC 021700Z 21004KT 40SM FEW150 BKN210 04/M07 A3005 RMK AC1CI4 SLP221

CYYC;2009-11-02 18:00;CYYC 021800Z 25007KT 40SM FEW090 FEW140 SCT210 10/M10 A3004 RMK AC1AC1CI2 SLP202

CYYC;2009-11-02 19:00;CYYC 021900Z 27010KT 40SM FEW080 FEW140 BKN210 11/M11 A3001 RMK AC1AC2CI2 SLP195

CYYC;2009-11-02 20:00;CYYC 022000Z 27012G20KT 40SM FEW080 SCT120 BKN210 11/M11 A2998 RMK AC1AC3CI2 SLP186

CYYC;2009-11-02 21:00;CYYC 022100Z 26015KT 40SM FEW100 SCT140 BKN200 10/M13 A2996 RMK AC2AC2CI3 SH SW SLP179

CYYC;2009-11-02 22:00;CYYC 022200Z 27020G27KT 40SM BKN100 BKN140 BKN200 09/M11 A2994 RMK AC5AC2CI1 SH SW SLP174

CYYC;2009-11-02 23:00;CYYC 022300Z 29016G25KT 40SM FEW080 BKN100 BKN180 09/M10 A2992 RMK CU1AS4AC2 SH SW SLP168

CYYC;2009-11-03 00:00;CYYC 030000Z 27014G26KT 40SM FEW080 FEW100 BKN150 08/M08 A2994 RMK AC1AC1AC1 SLP177

CYYC;2009-11-03 01:00;CYYC 030100Z 28014G22KT 20SM FEW060 FEW095 FEW150 05/M08 A2994 RMK SC1AC1AC1 SLP179

CYYC;2009-11-03 02:00;CYYC 030200Z 29008KT 15SM FEW110 FEW150 05/M08 A2996 RMK AC1AC0 SLP184

CYYC;2009-11-03 03:00;CYYC 030300Z 31010G17KT 15SM FEW150 05/M08 A2996 RMK AC1 SLP184

CYYC;2009-11-03 04:00;CYYC 030400Z 31011KT 15SM FEW150 04/M07 A2997 RMK AC1 SLP187

CYYC;2009-11-03 05:00;CYYC 030500Z 31008KT 15SM FEW230 04/M07 A2999 RMK CI1 SLP193

CYYC;2009-11-03 06:00;CYYC 030600Z 35009KT 15SM FEW120 FEW230 02/M07 A3001 RMK AC1CI0 SLP191

CYYC;2009-11-03 07:00;CYYC 030700Z 35009KT 15SM FEW110 FEW190 02/M07 A3003 RMK AC1AS0 SLP199

CYYC;2009-11-03 08:00;CYYC 030800Z 30009KT 15SM SCT090 BKN190 03/M07 A3005 RMK AC3AS1 SLP205

CYYC;2009-11-03 09:00;CYYC 030900Z 32008KT 15SM SCT070 BKN110 01/M07 A3006 RMK AC3AC2 SLP211

CYYC;2009-11-03 10:00;CYYC 031000Z 32006KT 15SM SCT070 BKN110 02/M07 A3008 RMK AC3AC2 SLP215

CYYC;2009-11-03 11:00;CYYC 031100Z 33009KT 15SM SCT070 BKN110 00/M07 A3009 RMK AC3AC2 SLP220

CYYC;2009-11-03 12:00;CYYC 031200Z 03004KT 15SM SCT070 BKN110 01/M07 A3012 RMK AC3AC3 SLP235

CYYC;2009-11-03 13:00;CYYC 031300Z 00000KT 15SM BKN070 M00/M06 A3013 RMK AC6 SLP240

CYYC;2009-11-03 14:00;CYYC 031400Z 21003KT 40SM FEW070 BKN110 00/M06 A3013 RMK AC2AC2 SLP238

CYYC;2009-11-03 15:00;CYYC 031500Z 35003KT 40SM FEW040 BKN073 BKN140 01/M06 A3015 RMK SC1AC6AC1 SLP250

CYYC;2009-11-03 16:00;CYYC 031600Z 23007KT 40SM FEW040 BKN076 04/M07 A3015 RMK SC1AC7 SLP251

CYYC;2009-11-03 17:00;CYYC 031700Z 22007KT 40SM FEW030 BKN080 04/M07 A3015 RMK SC1AC7 SLP250

CYYC;2009-11-03 18:00;CYYC 031800Z 22008KT 40SM FEW030 FEW080 BKN240 05/M06 A3016 RMK SC1AC2CI1 SLP250

CYYC;2009-11-03 19:00;CYYC 031900Z 28013KT 40SM FEW040 FEW090 FEW210 08/M07 A3015 RMK CU1AC1CI1 SLP248

CYYC;2009-11-03 20:00;CYYC 032000Z 30011G17KT 40SM FEW065 FEW090 FEW200 09/M08 A3013 RMK CU1AC1CI1 SLP243

CYYC;2009-11-03 21:00;CYYC 032100Z 29011G16KT 40SM FEW070 FEW090 09/M09 A3013 RMK CU2AC1 SLP236

CYYC;2009-11-03 22:00;CYYC 032200Z 26012KT 40SM FEW070 FEW120 09/M10 A3014 RMK CU1AC1 SLP240

CYYC;2009-11-03 23:00;CYYC 032300Z CCA 28011KT 40SM FEW070 FEW120 FEW250 08/M10 A3014 RMK AC1AC1CI1 SLP240

CYYC;2009-11-04 00:00;CYYC 040000Z 27009KT 40SM FEW070 FEW260 06/M09 A3014 RMK AC1CI1 SLP245

CYYC;2009-11-04 01:00;CYYC 040100Z 27009KT 40SM FEW260 05/M10 A3014 RMK CI1 SLP246

CYYC;2009-11-04 02:00;CYYC 040200Z 28012KT 15SM SKC 04/M10 A3014 RMK SLP246

CYYC;2009-11-04 03:00;CYYC 040300Z 28011KT 15SM FEW250 04/M10 A3016 RMK CI0 SLP255

CYYC;2009-11-04 04:00;CYYC 040400Z 28008KT 15SM FEW250 04/M10 A3016 RMK CI0 SLP255

CYYC;2009-11-04 05:00;CYYC 040500Z 30009KT 15SM SKC 03/M10 A3016 RMK SLP256

CYYC;2009-11-04 06:00;CYYC 040600Z 31003KT 15SM FEW250 02/M10 A3016 RMK CI0 SLP251

CYYC;2009-11-04 07:00;CYYC 040700Z 33004KT 15SM FEW250 02/M10 A3015 RMK CI1 SLP248

CYYC;2009-11-04 08:00;CYYC 040800Z 00000KT 15SM FEW250 M02/M10 A3014 RMK CI1 SLP245

CYYC;2009-11-04 09:00;CYYC 040900Z 01004KT 15SM FEW250 M05/M09 A3013 RMK CI1 SLP246

CYYC;2009-11-04 10:00;CYYC 041000Z 23002KT 15SM FEW250 M04/M10 A3013 RMK CI0 SLP244

CYYC;2009-11-04 11:00;CYYC 041100Z 10002KT 15SM FEW250 M06/M10 A3012 RMK CI0 SLP243

CYYC;2009-11-04 12:00;CYYC 041200Z 18002KT 15SM FEW250 M05/M10 A3011 RMK CI1 SLP244

CYYC;2009-11-04 13:00;CYYC 041300Z 00000KT 15SM FEW170 SCT250 M05/M10 A3009 RMK AC1CI1 SLP239

CYYC;2009-11-04 14:00;CYYC 041400Z 27003KT 15SM FEW170 BKN250 M04/M09 A3009 RMK AC2CI1 SLP238

CYYC;2009-11-04 15:00;CYYC 041500Z 28002KT 40SM BKN140 OVC220 M05/M09 A3008 RMK AC5CI2 SLP237

CYYC;2009-11-04 16:00;CYYC 041600Z 01002KT 40SM BKN140 OVC210 M04/M08 A3008 RMK AS6CI1 SLP237

CYYC;2009-11-04 17:00;CYYC 041700Z 23002KT 40SM BKN120 OVC210 M02/M08 A3007 RMK AS6CI1 SLP234

CYYC;2009-11-04 18:00;CYYC 041800Z 17002KT 40SM BKN110 BKN210 M00/M07 A3006 RMK AS5CI2 SLP223

CYYC;2009-11-04 19:00;CYYC 041900Z 20006KT 40SM SCT110 BKN180 OVC230 02/M08 A3003 RMK AS4AC1CI2 SLP213

CYYC;2009-11-04 20:00;CYYC 042000Z CCA 18008KT 40SM SCT110 SCT180 OVC240 03/M09 A3000 RMK AS3AC1CS2 SLP204

CYYC;2009-11-04 21:00;CYYC 042100Z 18005KT 40SM FEW110 BKN230 02/M09 A2997 RMK AS2CS4 SLP197

CYYC;2009-11-04 22:00;CYYC 042200Z 16004KT 40SM FEW160 BKN240 03/M08 A2995 RMK AC1CS6 SLP191

CYYC;2009-11-04 23:00;CYYC 042300Z 15006KT 40SM FEW160 BKN230 02/M08 A2993 RMK AC1CS6 SLP185

CYYC;2009-11-05 00:00;CYYC 050000Z 17005KT 40SM FEW190 BKN230 01/M07 A2991 RMK AC2CS3 SLP182

CYYC;2009-11-05 01:00;CYYC 050100Z 16005KT 40SM FEW190 BKN230 00/M07 A2990 RMK AC1CS7 SLP177

CYYC;2009-11-05 02:00;CYYC 050200Z 19004KT 15SM OVC240 00/M07 A2988 RMK CS8 SLP172

CYYC;2009-11-05 03:00;CYYC 050300Z 18005KT 15SM OVC240 M00/M06 A2986 RMK CS8 SLP164

CYYC;2009-11-05 04:00;CYYC 050400Z 19006KT 15SM OVC240 M00/M07 A2984 RMK CS8 SLP157

CYYC;2009-11-05 05:00;CYYC 050500Z 18004KT 15SM OVC240 M01/M06 A2981 RMK CS8 SLP150

CYYC;2009-11-05 06:00;CYYC 050600Z 19005KT 15SM OVC240 M00/M06 A2979 RMK CS8 SLP133

CYYC;2009-11-05 07:00;CYYC 050700Z 19009KT 15SM OVC240 00/M07 A2976 RMK CS8 SLP123

CYYC;2009-11-05 08:00;CYYC 050800Z 16002KT 15SM BKN240 M01/M07 A2972 RMK CS6 SLP111

CYYC;2009-11-05 09:00;CYYC 050900Z 23004KT 15SM BKN240 M00/M08 A2969 RMK CS4 CI ASOCTD SLP094

CYYC;2009-11-05 10:00;CYYC 051000Z 23004KT 15SM BKN250 M01/M07 A2965 RMK CI3 SLP084

CYYC;2009-11-05 11:00;CYYC 051100Z 00000KT 15SM BKN250 M03/M07 A2964 RMK CI2 SLP079

CYYC;2009-11-05 12:00;CYYC 051200Z 23003KT 15SM BKN250 M03/M07 A2964 RMK CI2 SLP082

CYYC;2009-11-05 13:00;CYYC 051300Z 12002KT 15SM BKN250 M02/M07 A2962 RMK CI2 SLP075

CYYC;2009-11-05 14:00;CYYC 051400Z 27003KT 15SM BKN250 M02/M07 A2961 RMK CI3 SLP072

CYYC;2009-11-05 15:00;CYYC 051500Z 20003KT 40SM FEW150 SCT180 BKN220 M01/M06 A2960 RMK AC1AS3CI2 SLP068

CYYC;2009-11-05 16:00;CYYC 051600Z 20003KT 40SM FEW050 SCT170 BKN220 02/M05 A2958 RMK CF1AS2CI1 CONTRAILS SLP063

CYYC;2009-11-05 17:00;CYYC 051700Z 24002KT 40SM FEW050 SCT170 BKN220 05/M04 A2957 RMK CF1AS2CI1 CONTRAILS SLP058

CYYC;2009-11-05 18:00;CYYC 051800Z 20002KT 40SM FEW050 SCT160 BKN210 09/M03 A2955 RMK CU1AS2CI1 CONTRAILS SLP038

CYYC;2009-11-05 19:00;CYYC 051900Z 23004KT 40SM FEW050 FEW150 FEW180 BKN250 11/M03 A2952 RMK CU1AC1AS1CI1 CU + AC TR / CONTRAILS SLP027

CYYC;2009-11-05 20:00;CYYC 052000Z 19009KT 40SM FEW060 FEW150 SCT210 16/M02 A2946 RMK CU1AC1CI1 CU TR / CONTRAILS SLP009

CYYC;2009-11-05 21:00;CYYC 052100Z 23013KT 40SM FEW060 FEW210 SCT240 20/M06 A2942 RMK CU1CI2CI0 CONTRAILS SLP976

CYYC;2009-11-05 22:00;CYYC 052200Z 24018G30KT 40SM FEW080 FEW180 BKN240 18/M07 A2940 RMK CU1AS2CI1 SLP971

CYYC;2009-11-05 23:00;CYYC 052300Z CCA 14006KT 40SM FEW100 FEW180 BKN240 17/M06 A2940 RMK CU1AS1CI1 SLP970

CYYC;2009-11-06 00:00;CYYC 060000Z 23009KT 40SM FEW100 SCT210 15/M07 A2938 RMK AC1CI2 SLP973

CYYC;2009-11-06 01:00;CYYC 060100Z 19010KT 15SM FEW100 SCT210 13/M06 A2935 RMK AC1CI2 SLP964

CYYC;2009-11-06 02:00;CYYC 060200Z 20011KT 15SM FEW100 FEW210 12/M05 A2933 RMK AC1CI1 SLP957

CYYC;2009-11-06 03:00;CYYC 060300Z 20014G19KT 15SM FEW240 12/M05 A2930 RMK CI1 SLP945

CYYC;2009-11-06 04:00;CYYC 060400Z 17007KT 15SM SCT240 11/M05 A2929 RMK CI2 SLP942

CYYC;2009-11-06 05:00;CYYC 060500Z 06002KT 15SM SCT240 10/M05 A2929 RMK CI2 SLP944

CYYC;2009-11-06 06:00;CYYC 060600Z 21021G27KT 15SM FEW240 11/M02 A2925 RMK CI1 WSHFT 0545 SLP919

CYYC;2009-11-06 07:00;CYYC 060700Z 16013KT 15SM FEW240 08/M01 A2922 RMK CI1 SLP909

CYYC;2009-11-06 08:00;CYYC 060800Z 23016KT 15SM SCT250 11/M04 A2920 RMK CI1 SLP901

CYYC;2009-11-06 09:00;CYYC 060900Z 25023G36KT 15SM SCT220 11/M04 A2916 RMK CI2 SLP871

CYYC;2009-11-06 10:00;CYYC 061000Z 25015G21KT 15SM BKN220 11/M04 A2919 RMK CI3 SLP879

CYYC;2009-11-06 11:00;CYYC 061100Z 24009KT 15SM SCT220 11/M04 A2917 RMK CI3 SLP875

CYYC;2009-11-06 12:00;CYYC 061200Z 24013G22KT 15SM FEW220 10/M03 A2914 RMK CI2 SLP870

CYYC;2009-11-06 12:51;CYYC 061251Z 14010KT 15SM FEW220 06/ RMK CI1 WSHFT 1236

CYYC;2009-11-06 13:00;CYYC 061300Z 15009KT 15SM FEW220 06/M03 A2914 RMK CI1 SLP872

CYYC;2009-11-06 14:00;CYYC 061400Z 10007KT 15SM FEW170 FEW220 07/M02 A2914 RMK AC1CI1 SLP871

CYYC;2009-11-06 15:00;CYYC 061500Z 23015G21KT 40SM FEW100 07/M01 A2919 RMK AC1 SH S-NW SLP896

CYYC;2009-11-06 16:00;CYYC 061600Z 25008KT 40SM FEW050 FEW100 07/00 A2920 RMK SC1AC1 SH S-NW SLP899

CYYC;2009-11-06 16:49;CYYC 061649Z 27034G40KT 20SM FEW060 BKN100 05/ RMK SC2AC2 DU / VIRGA

CYYC;2009-11-06 17:00;CYYC 061700Z 27036G45KT 20SM -SHRA SCT060 BKN100 03/M00 A2927 RMK SC3AC2 VIS W-NW 8 / DU ALQDS SLP921

CYYC;2009-11-06 17:23;CYYC 061723Z 26020G33KT 20SM SCT030 BKN100 05/ RMK SC3AC2 SH ALQDS VIS SW LWR

CYYC;2009-11-06 18:00;CYYC 061800Z 23018G28KT 20SM FEW060 BKN100 05/M02 A2930 RMK SC2AC6 SH N-SE+SW SLP939

CYYC;2009-11-06 19:00;CYYC 061900Z 22011KT 40SM FEW090 BKN150 06/M01 A2933 RMK AC1AC7 SH DIST NE-SE SLP948

CYYC;2009-11-06 20:00;CYYC 062000Z 24011KT 40SM FEW090 SCT150 BKN190 09/M04 A2934 RMK AC1AC3AS1 SH DIST NE-SE SLP953

CYYC;2009-11-06 21:00;CYYC 062100Z 27019G26KT 30SM FEW070 FEW150 BKN220 09/M09 A2935 RMK CF1AC2CI0 SH ALQDS SLP949

CYYC;2009-11-06 22:00;CYYC 062200Z 26020G26KT 30SM FEW070 FEW150 FEW220 09/M09 A2937 RMK CF1AC1CI0 SH S-W SLP957

CYYC;2009-11-06 23:00;CYYC 062300Z 25017G22KT 20SM FEW070CB FEW150 FEW220 08/M10 A2941 RMK CB1AC1CI0 CB N / SH S-W SLP969

CYYC;2009-11-07 00:00;CYYC 070000Z 25018KT 40SM FEW060 FEW100 06/M10 A2944 RMK SC1AC1 SH SW SLP987

CYYC;2009-11-07 01:00;CYYC 070100Z 25012G17KT 15SM FEW060 FEW100 05/M09 A2946 RMK SC1AC1 SH SLP994

CYYC;2009-11-07 02:00;CYYC 070200Z 22010KT 15SM SKC 04/M09 A2947 RMK SLP996

CYYC;2009-11-07 03:00;CYYC 070300Z 23013KT 15SM SKC 03/M09 A2948 RMK SLP009

CYYC;2009-11-07 04:00;CYYC 070400Z 22013KT 15SM SKC 02/M09 A2948 RMK SLP011

CYYC;2009-11-07 05:00;CYYC 070500Z 23016KT 15SM SKC 02/M08 A2949 RMK SLP012

CYYC;2009-11-07 06:00;CYYC 070600Z 23014KT 15SM SKC 02/M08 A2950 RMK SLP020

CYYC;2009-11-07 07:00;CYYC 070700Z 25017KT 15SM SKC 04/M10 A2951 RMK SLP024

CYYC;2009-11-07 08:00;CYYC 070800Z 25013G20KT 15SM SKC 03/M10 A2954 RMK SLP034

CYYC;2009-11-07 09:00;CYYC 070900Z 24010KT 15SM SKC 01/M10 A2954 RMK SLP030

CYYC;2009-11-07 10:00;CYYC 071000Z 24010KT 15SM SKC 01/M10 A2956 RMK SLP035

CYYC;2009-11-07 11:00;CYYC 071100Z 22006KT 15SM SKC 01/M08 A2956 RMK SLP037

CYYC;2009-11-07 12:00;CYYC 071200Z 23009KT 15SM SKC M00/M07 A2956 RMK SLP045

CYYC;2009-11-07 13:00;CYYC 071300Z 21006KT 15SM SKC M01/M07 A2957 RMK SLP048

CYYC;2009-11-07 14:00;CYYC 071400Z 11002KT 15SM FEW050 M02/M08 A2956 RMK SC1 SLP044

CYYC;2009-11-07 15:00;CYYC 071500Z 23012KT 15SM FEW050 00/M07 A2954 RMK SC1 SLP041

CYYC;2009-11-07 16:00;CYYC 071600Z 22010KT 40SM FEW050 02/M06 A2952 RMK SC2 SLP036

CYYC;2009-11-07 17:00;CYYC 071700Z 24016KT 40SM FEW050 FEW080 04/M07 A2952 RMK SC2AC1 AC TR SLP034

CYYC;2009-11-07 18:00;CYYC 071800Z 23014G20KT 40SM FEW050 FEW080 SCT200 06/M07 A2951 RMK SC1AC1CI1 SLP025

CYYC;2009-11-07 19:00;CYYC 071900Z 25018G26KT 40SM FEW080 FEW200 08/M09 A2950 RMK AC2CI1 SH SW SLP022

CYYC;2009-11-07 20:00;CYYC 072000Z 25022G27KT 30SM FEW080 FEW200 08/M10 A2949 RMK AC2CI1 SH SW SLP018

CYYC;2009-11-07 21:00;CYYC 072100Z 24022G29KT 30SM FEW080 FEW200 08/M10 A2949 RMK AC2CI1 SH SW SLP017

CYYC;2009-11-07 22:00;CYYC 072200Z 26023G28KT 30SM FEW080 07/M09 A2953 RMK AC1 SLP029

CYYC;2009-11-07 23:00;CYYC 072300Z 26016KT 30SM FEW080 FEW095 06/M08 A2954 RMK AS1AC1 AC TR SLP032

CYYC;2009-11-08 00:00;CYYC 080000Z 23012KT 30SM FEW095 04/M09 A2955 RMK AS1 SLP042

CYYC;2009-11-08 01:00;CYYC 080100Z 23011KT 15SM FEW095 03/M08 A2955 RMK AS1 SLP042

CYYC;2009-11-08 02:00;CYYC 080200Z 21010KT 15SM SKC 02/M07 A2955 RMK SLP043

CYYC;2009-11-08 03:00;CYYC 080300Z 23010KT 15SM FEW190 01/M07 A2954 RMK AC1 SLP045

CYYC;2009-11-08 04:00;CYYC 080400Z 22011KT 15SM FEW190 02/M07 A2954 RMK AC1 SLP043

CYYC;2009-11-08 05:00;CYYC 080500Z 22010KT 15SM FEW120 01/M07 A2955 RMK AC1 SLP048

CYYC;2009-11-08 06:00;CYYC 080600Z 20011KT 15SM FEW120 M00/M07 A2956 RMK AC1 SLP044

CYYC;2009-11-08 07:00;CYYC 080700Z 22010KT 15SM FEW120 BKN170 00/M06 A2957 RMK AC1AC4 SLP048

CYYC;2009-11-08 08:00;CYYC 080800Z 06002KT 15SM BKN140 M00/M06 A2960 RMK AC5 SLP055

CYYC;2009-11-08 09:00;CYYC 080900Z 20005KT 15SM SCT140 00/M07 A2961 RMK AC3 SLP057

CYYC;2009-11-08 10:00;CYYC 081000Z 23011KT 15SM BKN150 M00/M07 A2961 RMK AC5 SLP058

CYYC;2009-11-08 11:00;CYYC 081100Z 25008KT 15SM FEW150 00/M09 A2961 RMK AC2 SLP061

CYYC;2009-11-08 12:00;CYYC 081200Z 26012G17KT 15SM FEW150 01/M09 A2964 RMK AC1 SLP071

CYYC;2009-11-08 13:00;CYYC 081300Z 23006KT 15SM FEW150 00/M10 A2965 RMK AC2 SLP075

CYYC;2009-11-08 14:00;CYYC 081400Z 21006KT 15SM FEW150 FEW200 00/M10 A2968 RMK AC1CI1 SLP085

CYYC;2009-11-08 14:48;CYYC 081448Z 09003KT 15SM FEW150 FEW200 M03/ RMK AC1CI1

CYYC;2009-11-08 15:00;CYYC 081500Z 01004KT 40SM FEW160 FEW210 M04/M10 A2972 RMK AC1CI1 SLP113

CYYC;2009-11-08 16:00;CYYC 081600Z 17003KT 40SM FEW180 BKN210 M01/M09 A2975 RMK AC2CI2 SLP120

CYYC;2009-11-08 17:00;CYYC 081700Z 22002KT 40SM FEW180 BKN220 01/M09 A2977 RMK AC2CI2 SLP126

CYYC;2009-11-08 18:00;CYYC 081800Z 17002KT 40SM FEW180 BKN220 04/M09 A2979 RMK AC2CI2 SLP128

CYYC;2009-11-08 19:00;CYYC 081900Z 21003KT 40SM FEW060 FEW180 SCT220 05/M10 A2980 RMK CU1AC2CI1 CU TR SLP130

CYYC;2009-11-08 20:00;CYYC 082000Z 27013G20KT 40SM FEW076 FEW220 06/M13 A2980 RMK AC1CI1 CI TR SLP130

CYYC;2009-11-08 20:05;CYYC 082005Z 28016G21KT 40SM FEW076 FEW220 06/ RMK AC1CI1 WSHIFT 1954Z/CI TR

CYYC;2009-11-08 21:00;CYYC 082100Z 28017KT 40SM FEW060 FEW080 FEW220 06/M13 A2981 RMK CU1AC1CI1 AC CI TR SLP131

CYYC;2009-11-08 22:00;CYYC 082200Z 24012G17KT 40SM FEW060 FEW080 FEW220 06/M13 A2982 RMK CU1AC1CI1 AC TR SLP134

CYYC;2009-11-08 23:00;CYYC 082300Z 27008G17KT 40SM FEW060 FEW080 FEW220 05/M13 A2984 RMK CU1AC1CI1 AC TR SLP140

CYYC;2009-11-09 00:00;CYYC 090000Z CCA 26013KT 40SM FEW180 FEW240 04/M13 A2985 RMK AC1CI2 AC TR SLP148

CYYC;2009-11-09 01:00;CYYC 090100Z 27007KT 15SM FEW180 FEW220 02/M12 A2988 RMK AC1CI1 AC TR SLP157

CYYC;2009-11-09 02:00;CYYC 090200Z 27006KT 15SM FEW220 02/M12 A2990 RMK CI1 CI TR SLP161

CYYC;2009-11-09 03:00;CYYC 090300Z 20004KT 15SM FEW220 00/M12 A2991 RMK CI1 SLP178

CYYC;2009-11-09 04:00;CYYC 090400Z 19005KT 15SM SKC M03/M12 A2992 RMK SLP182

CYYC;2009-11-09 05:00;CYYC 090500Z 20003KT 15SM SKC M03/M11 A2992 RMK SLP183

CYYC;2009-11-09 06:00;CYYC 090600Z 21009KT 15SM SKC M03/M11 A2993 RMK SLP181

CYYC;2009-11-09 07:00;CYYC 090700Z 23004KT 15SM SKC M02/M11 A2994 RMK SLP183

CYYC;2009-11-09 08:00;CYYC 090800Z 21006KT 15SM SKC M03/M11 A2995 RMK SLP186

CYYC;2009-11-09 09:00;CYYC 090900Z 21007KT 15SM SKC M04/M11 A2995 RMK SLP189

CYYC;2009-11-09 10:00;CYYC 091000Z 20007KT 15SM SKC M05/M11 A2997 RMK SLP193

CYYC;2009-11-09 11:00;CYYC 091100Z 19006KT 15SM SKC M04/M11 A2996 RMK SLP190

CYYC;2009-11-09 12:00;CYYC 091200Z 21005KT 15SM SKC M05/M11 A2996 RMK SLP193

CYYC;2009-11-09 13:00;CYYC 091300Z 21006KT 15SM FEW250 M04/M10 A2996 RMK CI0 SLP194

CYYC;2009-11-09 14:00;CYYC 091400Z 20006KT 15SM SCT250 M05/M11 A2995 RMK CI0 CONTRAILS SLP189

CYYC;2009-11-09 15:00;CYYC 091500Z CCA 18005KT 40SM FEW040 FEW180 BKN260 M05/M10 A2994 RMK SC1AC1CI2 SLP192

CYYC;2009-11-09 16:00;CYYC 091600Z 18005KT 40SM FEW030 BKN260 M03/M09 A2995 RMK SC1CI2 SLP195

CYYC;2009-11-09 17:00;CYYC 091700Z CCA 19005KT 40SM FEW030 BKN260 01/M08 A2994 RMK SC1CI1 SLP191

CYYC;2009-11-09 18:00;CYYC 091800Z 21007KT 40SM FEW030 FEW180 BKN260 03/M08 A2992 RMK SC1AC2CI1 SLP176

CYYC;2009-11-09 19:00;CYYC 091900Z 20009KT 40SM FEW030 FEW140 BKN230 06/M06 A2989 RMK SC1AC2CI2 SLP167

CYYC;2009-11-09 20:00;CYYC 092000Z 18004KT 40SM FEW030 FEW140 BKN210 08/M06 A2986 RMK SC1AC2CI5 SLP158

CYYC;2009-11-09 21:00;CYYC 092100Z 18011KT 40SM FEW050 FEW140 BKN190 09/M07 A2983 RMK CU1AC1AC4 SLP139

CYYC;2009-11-09 22:00;CYYC 092200Z 18010KT 40SM FEW050 BKN190 OVC260 08/M07 A2982 RMK CU1AC6CS2 SLP134

CYYC;2009-11-09 23:00;CYYC 092300Z 17013G18KT 40SM FEW050 BKN200 07/M06 A2979 RMK SC1CI7 SLP126

CYYC;2009-11-10 00:00;CYYC 100000Z 18014KT 40SM FEW050 BKN190 BKN220 07/M07 A2977 RMK SC1AC6CI2 SLP120

CYYC;2009-11-10 01:00;CYYC 100100Z CCA 18014G19KT 15SM BKN190 OVC220 07/M07 A2975 RMK AC5CI2 SLP114

CYYC;2009-11-10 02:00;CYYC 100200Z 17015G20KT 15SM BKN190 OVC240 06/M07 A2973 RMK AC4CI3 SLP108

CYYC;2009-11-10 03:00;CYYC 100300Z 18018G24KT 15SM BKN210 05/M06 A2970 RMK CI6 SLP102

CYYC;2009-11-10 04:00;CYYC 100400Z 19014G20KT 15SM FEW210 05/M07 A2967 RMK CI0 SLP093

CYYC;2009-11-10 05:00;CYYC 100500Z 17012KT 15SM FEW210 04/M06 A2968 RMK CI1 SLP094

CYYC;2009-11-10 06:00;CYYC 100600Z 18012KT 15SM SKC 04/M06 A2967 RMK SLP082

CYYC;2009-11-10 07:00;CYYC 100700Z 20007KT 15SM SKC 04/M06 A2968 RMK SLP083

CYYC;2009-11-10 08:00;CYYC 100800Z 22007KT 15SM FEW180 03/M06 A2969 RMK AS1 SLP086

CYYC;2009-11-10 09:00;CYYC 100900Z 17009KT 15SM FEW180 01/M06 A2969 RMK AS1 SLP084

CYYC;2009-11-10 10:00;CYYC 101000Z 18010KT 15SM FEW180 03/M06 A2972 RMK AS1 SLP093

CYYC;2009-11-10 11:00;CYYC 101100Z 21012KT 15SM FEW180 04/M05 A2972 RMK AS1 SLP094

CYYC;2009-11-10 12:00;CYYC 101200Z 21013KT 15SM SKC 05/M05 A2973 RMK SLP094

CYYC;2009-11-10 13:00;CYYC 101300Z 28004KT 15SM SKC 03/M06 A2973 RMK SLP096

CYYC;2009-11-10 14:00;CYYC 101400Z 09007KT 15SM FEW150 FEW220 01/M06 A2978 RMK AC1CI0 SLP110

CYYC;2009-11-10 15:00;CYYC 101500Z 06007KT 40SM FEW150 M01/M06 A2979 RMK AC1 SLP125

CYYC;2009-11-10 16:00;CYYC 101600Z 11006KT 40SM FEW150 03/M05 A2977 RMK AC1 SLP121

CYYC;2009-11-10 17:00;CYYC 101700Z 00000KT 40SM FEW150 05/M04 A2977 RMK AC1 SLP120

CYYC;2009-11-10 18:00;CYYC 101800Z 16005KT 30SM FEW150 08/M04 A2977 RMK AC1 SH SW SLP109

CYYC;2009-11-10 19:00;CYYC 101900Z 18004KT 30SM FEW150 FEW220 09/M06 A2977 RMK AC1CI1 SLP109

CYYC;2009-11-10 20:00;CYYC 102000Z 25007KT 40SM SCT063 BKN150 BKN220 08/M06 A2978 RMK SC3AC2CI1 VIRGA W SLP111

CYYC;2009-11-10 20:15;CYYC 102015Z 29024G33KT 40SM SCT063 BKN150 BKN220 07/ RMK SC3AC2CI1 VIRGA W/WSHIFT 2002Z

CYYC;2009-11-10 21:00;CYYC 102100Z 32010KT 40SM FEW060 BKN180 BKN220 06/M05 A2980 RMK SC1AC4CI1 VIRGA NE-E SLP125

CYYC;2009-11-10 22:00;CYYC 102200Z 27018G24KT 40SM FEW180 BKN220 07/M08 A2983 RMK AC2CI4 SLP133

CYYC;2009-11-10 23:00;CYYC 102300Z 28012KT 40SM FEW180 06/M07 A2984 RMK AC2 SLP136

CYYC;2009-11-11 00:00;CYYC 110000Z 26012G20KT 40SM FEW180 FEW220 05/M10 A2987 RMK AC1CI1 CI TR SLP147

CYYC;2009-11-11 01:00;CYYC 110100Z 24017KT 15SM FEW180 FEW220 04/M10 A2987 RMK AC1CI1 AC CI TR SLP147

CYYC;2009-11-11 02:00;CYYC 110200Z 25015G25KT 15SM SKC 04/M11 A2991 RMK SLP160

CYYC;2009-11-11 03:00;CYYC 110300Z 01002KT 15SM SKC 01/M11 A2991 RMK SLP175

CYYC;2009-11-11 04:00;CYYC 110400Z 13003KT 15SM SKC 02/M12 A2990 RMK SLP171

CYYC;2009-11-11 05:00;CYYC 110500Z 26009KT 15SM SKC 02/M12 A2990 RMK SLP171

CYYC;2009-11-11 06:00;CYYC 110600Z 09006KT 15SM SKC M01/M12 A2990 RMK SLP160

CYYC;2009-11-11 07:00;CYYC 110700Z 18003KT 15SM SKC M01/M12 A2989 RMK SLP158

CYYC;2009-11-11 08:00;CYYC 110800Z 13008KT 15SM FEW230 M03/M11 A2988 RMK CI1 SLP156

CYYC;2009-11-11 09:00;CYYC 110900Z 00000KT 15SM FEW230 M04/M11 A2987 RMK CI2 SLP157

CYYC;2009-11-11 10:00;CYYC 111000Z 11005KT 15SM SCT200 M02/M10 A2985 RMK CI4 SLP150

CYYC;2009-11-11 11:00;CYYC 111100Z 11006KT 15SM FEW210 M05/M10 A2982 RMK CI2 SLP142

CYYC;2009-11-11 12:00;CYYC 111200Z 01004KT 15SM FEW170 SCT230 M05/M10 A2980 RMK AC1CI2 SLP136

CYYC;2009-11-11 13:00;CYYC 111300Z 00000KT 15SM FEW230 M06/M11 A2978 RMK CI2 SLP130

CYYC;2009-11-11 14:00;CYYC 111400Z 35006KT 15SM FEW170 SCT230 M08/M11 A2975 RMK AC1CI2 SLP122

CYYC;2009-11-11 15:00;CYYC 111500Z 02004KT 40SM FEW030 SCT100 BKN220 M06/M11 A2973 RMK SC2AC1CI0 SLP119

CYYC;2009-11-11 16:00;CYYC 111600Z 00000KT 40SM FEW030 BKN150 BKN220 M04/M08 A2971 RMK SC1AC4CI1 SLP113

CYYC;2009-11-11 16:41;CYYC 111641Z 22003KT 40SM FEW030 BKN150 M02/ RMK SC1AC6

CYYC;2009-11-11 17:00;CYYC 111700Z 24003KT 40SM FEW030 BKN180 BKN200 M01/M09 A2969 RMK SC1AC5CI1 SLP106

CYYC;2009-11-11 18:00;CYYC 111800Z 33004KT 40SM FEW030 SCT140 01/M08 A2968 RMK CU1AC2 SH DIST SW SLP094

CYYC;2009-11-11 19:00;CYYC 111900Z 23005KT 40SM FEW030 FEW140 06/M07 A2966 RMK CU1AC2 SH DIST SW SLP087

CYYC;2009-11-11 20:00;CYYC 112000Z 26011G16KT 40SM FEW050 BKN120 08/M08 A2963 RMK CU1AC6 SH DIST SW SLP079

CYYC;2009-11-11 21:00;CYYC 112100Z CCA 27019G28KT 40SM FEW050 BKN120 BKN160 07/M10 A2965 RMK CU1AC2AC1 SH DIST SW SLP079

CYYC;2009-11-11 22:00;CYYC 112200Z 28010G15KT 40SM FEW050 FEW140 05/M10 A2964 RMK CU1AC1 SH E / CB ASOCTD SLP075

CYYC;2009-11-11 23:00;CYYC 112300Z 27019G25KT 40SM FEW060 FEW140 05/M12 A2964 RMK CU1AC1 CB DIST E SLP074

CYYC;2009-11-12 00:00;CYYC 120000Z 27015G21KT 40SM FEW060 SCT090 BKN120 04/M12 A2964 RMK CU2AC2AC2 SH NW-NE / TCU ASOCTD SLP083

CYYC;2009-11-12 01:00;CYYC 120100Z CCA 27015KT 20SM FEW060 FEW090 SCT120 02/M11 A2966 RMK SC1AC2AC1 SH N SLP087

CYYC;2009-11-12 02:00;CYYC 120200Z 29013KT 15SM SKC 02/M12 A2967 RMK SLP091

CYYC;2009-11-12 03:00;CYYC 120300Z 31008KT 15SM SKC 01/M12 A2968 RMK SLP104

CYYC;2009-11-12 04:00;CYYC 120400Z 32006KT 15SM SKC M02/M12 A2970 RMK SLP109

CYYC;2009-11-12 05:00;CYYC 120500Z 35004KT 15SM SKC M04/M11 A2971 RMK SLP111

CYYC;2009-11-12 06:00;CYYC 120600Z 35005KT 15SM SKC M03/M09 A2972 RMK SLP109

CYYC;2009-11-12 07:00;CYYC 120700Z 35007KT 15SM SKC M06/M10 A2972 RMK SLP111

CYYC;2009-11-12 08:00;CYYC 120800Z 33008KT 15SM SKC M05/M08 A2972 RMK SLP110

CYYC;2009-11-12 09:00;CYYC 120900Z 34006KT 15SM SKC M06/M09 A2971 RMK SLP104

CYYC;2009-11-12 10:00;CYYC 121000Z 36004KT 15SM SKC M07/M09 A2971 RMK SLP104

CYYC;2009-11-12 11:00;CYYC 121100Z 01003KT 15SM SKC M07/M10 A2971 RMK SLP102

CYYC;2009-11-12 12:00;CYYC 121200Z 00000KT 15SM SKC M08/M10 A2971 RMK SLP109

CYYC;2009-11-12 13:00;CYYC 121300Z 24003KT 15SM SKC M08/M10 A2970 RMK FROIN SLP108

CYYC;2009-11-12 14:00;CYYC 121400Z 18004KT 15SM FEW150 M08/M11 A2969 RMK AC1 FROIN SLP105

CYYC;2009-11-12 15:00;CYYC 121500Z 22004KT 40SM SKC M09/M11 A2970 RMK SLP112

CYYC;2009-11-12 16:00;CYYC 121600Z 20003KT 40SM SKC M06/M09 A2969 RMK SLP110

CYYC;2009-11-12 17:00;CYYC 121700Z 20004KT 40SM FEW080 FEW240 M02/M08 A2968 RMK AC1CI1 SLP108

CYYC;2009-11-12 18:00;CYYC 121800Z 24006KT 40SM FEW040 M00/M10 A2968 RMK CU1 SLP097

CYYC;2009-11-12 19:00;CYYC 121900Z 27010KT 40SM FEW060 02/M12 A2965 RMK CU1 SLP090

CYYC;2009-11-12 20:00;CYYC 122000Z 29010KT 40SM FEW070 03/M14 A2964 RMK CU1 SLP084

CYYC;2009-11-12 21:00;CYYC 122100Z 28009KT 40SM FEW080 03/M15 A2962 RMK CU1 SLP076

CYYC;2009-11-12 22:00;CYYC 122200Z 26012KT 40SM FEW080 03/M16 A2961 RMK CU1 SLP073

CYYC;2009-11-12 23:00;CYYC 122300Z 27011KT 40SM FEW080 02/M15 A2961 RMK CU1 SLP073

CYYC;2009-11-13 00:00;CYYC 130000Z 24007KT 40SM FEW060 FEW260 00/M15 A2960 RMK CU1CI1 SLP077

CYYC;2009-11-13 01:00;CYYC 130100Z 25006KT 15SM FEW060 FEW260 M01/M14 A2960 RMK CU1CI1 SLP076

CYYC;2009-11-13 02:00;CYYC 130200Z 23007KT 15SM SKC M02/M15 A2959 RMK SLP075

CYYC;2009-11-13 03:00;CYYC 130300Z 20005KT 15SM SKC M02/M15 A2959 RMK SLP076

CYYC;2009-11-13 04:00;CYYC 130400Z 21005KT 15SM SKC M03/M14 A2958 RMK SLP073

CYYC;2009-11-13 05:00;CYYC 130500Z 21007KT 15SM SKC M03/M14 A2956 RMK SLP068

CYYC;2009-11-13 06:00;CYYC 130600Z 18003KT 15SM SKC M04/M14 A2955 RMK SLP055

CYYC;2009-11-13 07:00;CYYC 130700Z 20005KT 15SM SKC M05/M14 A2954 RMK SLP052

CYYC;2009-11-13 08:00;CYYC 130800Z 21004KT 15SM SKC M05/M15 A2952 RMK SLP046

CYYC;2009-11-13 09:00;CYYC 130900Z 24005KT 15SM SKC M03/M16 A2951 RMK SLP033

CYYC;2009-11-13 10:00;CYYC 131000Z 22007KT 15SM SKC M03/M16 A2949 RMK SLP027

CYYC;2009-11-13 11:00;CYYC 131100Z 21008KT 15SM SKC M03/M16 A2947 RMK SLP023

CYYC;2009-11-13 12:00;CYYC 131200Z 21004KT 15SM SKC M04/M16 A2946 RMK SLP022

CYYC;2009-11-13 13:00;CYYC 131300Z 19005KT 15SM SKC M03/M16 A2944 RMK SLP017

CYYC;2009-11-13 14:00;CYYC 131400Z 18005KT 15SM FEW240 M04/M16 A2943 RMK CI1 SLP013

CYYC;2009-11-13 15:00;CYYC 131500Z 20006KT 40SM FEW100 FEW210 M04/M15 A2943 RMK AC1CI1 CONTRAILS SLP014

CYYC;2009-11-13 16:00;CYYC 131600Z 19006KT 40SM FEW060 FEW250 M01/M15 A2942 RMK CU1CI1 CONTRAILS SLP012

CYYC;2009-11-13 17:00;CYYC 131700Z 21004KT 40SM FEW060 FEW250 M01/M14 A2942 RMK CU1CI0 SLP012

CYYC;2009-11-13 18:00;CYYC 131800Z 26002KT 40SM FEW250 03/M15 A2942 RMK CI0 SLP004

CYYC;2009-11-13 18:03;CYYC 131803Z 26015KT 40SM FEW250 03/ RMK CI0 WSHFT 1803

CYYC;2009-11-13 19:00;CYYC 131900Z 27007KT 40SM FEW080 FEW250 05/M16 A2941 RMK CU1CI1 SLP002

CYYC;2009-11-13 20:00;CYYC 132000Z 25012KT 40SM FEW080 FEW250 05/M16 A2938 RMK CU1CI1 SLP993

CYYC;2009-11-13 21:00;CYYC 132100Z 26011KT 40SM FEW080 FEW150 FEW250 06/M16 A2939 RMK CU1AC1CI1 CONTRAILS SLP988

CYYC;2009-11-13 22:00;CYYC 132200Z 27013G19KT 40SM FEW080 FEW150 FEW250 06/M14 A2939 RMK CU1AC1CI0 CU TR / CONTRAILS SLP988

CYYC;2009-11-13 23:00;CYYC 132300Z 29011G17KT 40SM FEW060 FEW150 FEW250 03/M13 A2941 RMK CU1AC2CI0 SLP995

CYYC;2009-11-14 00:00;CYYC 140000Z 27019G27KT 40SM FEW060 BKN120 BKN240 03/M12 A2942 RMK CU1AC5CI1 VIRGA SLP003

CYYC;2009-11-14 01:00;CYYC 140100Z 27017G25KT 15SM SCT120 BKN180 03/M12 A2944 RMK AC4AC2 VIRGA SLP011

CYYC;2009-11-14 02:00;CYYC 140200Z 27014G19KT 15SM BKN110 02/M12 A2946 RMK AC7 SLP017

CYYC;2009-11-14 03:00;CYYC 140300Z 27013G18KT 15SM OVC088 02/M12 A2948 RMK AC8 SLP029

CYYC;2009-11-14 04:00;CYYC 140400Z 28012G17KT 15SM OVC088 02/M12 A2951 RMK AC8 SLP038

CYYC;2009-11-14 05:00;CYYC 140500Z 28013G18KT 15SM OVC092 02/M12 A2954 RMK AC8 SLP045

CYYC;2009-11-14 06:00;CYYC 140600Z 28015KT 15SM OVC092 02/M12 A2956 RMK AC8 SLP045

CYYC;2009-11-14 07:00;CYYC 140700Z 31010G16KT 15SM BKN090 OVC120 01/M12 A2959 RMK AC6AC2 SLP055

CYYC;2009-11-14 08:00;CYYC 140800Z 31009KT 15SM SCT090 BKN170 00/M12 A2964 RMK AC4AC2 SLP070

CYYC;2009-11-14 09:00;CYYC 140900Z 31009KT 15SM SCT090 BKN170 M01/M12 A2968 RMK AC3AC2 SLP086

CYYC;2009-11-14 10:00;CYYC 141000Z 35011KT 15SM SCT090 SCT170 M00/M12 A2971 RMK AC3AC1 SLP096

CYYC;2009-11-14 11:00;CYYC 141100Z 34010KT 15SM FEW090 SCT170 M02/M11 A2975 RMK AC2AC1 SLP109

CYYC;2009-11-14 12:00;CYYC 141200Z 33010KT 15SM FEW090 BKN120 M02/M10 A2980 RMK AC2AC3 SLP134

CYYC;2009-11-14 13:00;CYYC 141300Z 34010KT 15SM FEW090 BKN120 M03/M10 A2982 RMK AC2AC4 SLP142

CYYC;2009-11-14 14:00;CYYC 141400Z 36009KT 15SM BKN120 M04/M11 A2985 RMK AC5 SLP150

CYYC;2009-11-14 15:00;CYYC 141500Z 35005KT 40SM FEW120 M05/M12 A2989 RMK AC1 SLP171

CYYC;2009-11-14 16:00;CYYC 141600Z 00000KT 40SM FEW050 FEW120 M05/M12 A2991 RMK SC1AC1 SLP178

CYYC;2009-11-14 17:00;CYYC 141700Z 00000KT 40SM FEW050 FEW120 M02/M13 A2992 RMK SC1AC1 SLP181

CYYC;2009-11-14 18:00;CYYC 141800Z 16002KT 40SM FEW050 FEW120 M01/M14 A2993 RMK SC1AC1 SLP179

CYYC;2009-11-14 19:00;CYYC 141900Z 16006KT 40SM FEW050 FEW120 M00/M14 A2992 RMK SC1AC1 SLP177

CYYC;2009-11-14 20:00;CYYC 142000Z 18009KT 40SM FEW050 00/M13 A2990 RMK SC1 SLP171

CYYC;2009-11-14 21:00;CYYC 142100Z 18010KT 40SM FEW050 02/M11 A2989 RMK SC1 SLP165

CYYC;2009-11-14 22:00;CYYC 142200Z 17012KT 40SM FEW050 FEW120 02/M11 A2987 RMK SC1AC1 SLP159

CYYC;2009-11-14 23:00;CYYC 142300Z 18008KT 40SM FEW050 FEW220 01/M10 A2985 RMK SC1CI1 SLP154

CYYC;2009-11-15 00:00;CYYC 150000Z CCA 18009KT 40SM FEW050 SCT240 M01/M10 A2984 RMK SC1CI2 SLP155

CYYC;2009-11-15 01:00;CYYC 150100Z 19006KT 15SM FEW240 M02/M09 A2983 RMK CI1 SLP151

CYYC;2009-11-15 02:00;CYYC 150200Z 19005KT 15SM SKC M03/M09 A2980 RMK SLP143

CYYC;2009-11-15 03:00;CYYC 150300Z 21005KT 15SM SKC M04/M10 A2978 RMK SLP140

CYYC;2009-11-15 04:00;CYYC 150400Z 19003KT 15SM SKC M04/M11 A2977 RMK SLP137

CYYC;2009-11-15 05:00;CYYC 150500Z 23005KT 15SM FEW240 M03/M12 A2975 RMK CI1 SLP133

CYYC;2009-11-15 06:00;CYYC 150600Z 22006KT 15SM SKC M01/M13 A2973 RMK SLP115

CYYC;2009-11-15 07:00;CYYC 150700Z 23006KT 15SM FEW180 00/M12 A2971 RMK AC1 SLP109

CYYC;2009-11-15 08:00;CYYC 150800Z 18004KT 15SM SKC 01/M10 A2972 RMK SLP112

CYYC;2009-11-15 09:00;CYYC 150900Z 27017G22KT 15SM FEW240 03/M10 A2970 RMK CI1 SLP094

CYYC;2009-11-15 10:00;CYYC 151000Z 27009G15KT 15SM SCT240 03/M10 A2970 RMK CI2 SLP096

CYYC;2009-11-15 11:00;CYYC 151100Z 27022G28KT 15SM SCT240 04/M09 A2970 RMK CI2 SLP095

CYYC;2009-11-15 12:00;CYYC 151200Z 27016G24KT 15SM SCT240 05/M09 A2971 RMK CI2 SLP101

CYYC;2009-11-15 13:00;CYYC 151300Z 30013G26KT 15SM FEW180 SCT230 04/M09 A2973 RMK AC2CI2 SLP107

CYYC;2009-11-15 14:00;CYYC 151400Z 28024G31KT 15SM SCT140 BKN180 BKN230 05/M09 A2969 RMK AC3AC2CI1 SLP094

CYYC;2009-11-15 15:00;CYYC 151500Z 28013KT 40SM FEW140 BKN210 06/M08 A2973 RMK AC2CI2 SLP109

CYYC;2009-11-15 16:00;CYYC 151600Z 25017G22KT 40SM FEW050 FEW120 BKN130 OVC200 07/M08 A2973 RMK SC1AC1AC3CI2 LWR AC ACSL SE+S SLP108

CYYC;2009-11-15 17:00;CYYC 151700Z 25017G27KT 40SM FEW050 FEW120 BKN150 OVC200 07/M08 A2971 RMK SC1AC2AC4CI2 SC TR SLP103

CYYC;2009-11-15 18:00;CYYC 151800Z 25030G37KT 40SM FEW050 FEW130 BKN150 BKN200 07/M08 A2973 RMK SC1AC1AC4CI2 SC TR SLP105

CYYC;2009-11-15 19:00;CYYC 151900Z 26021G30KT 40SM FEW050 FEW120 BKN150 BKN200 07/M07 A2974 RMK SC1AC1AC5CI2 SC+LWR AC TR SLP107

CYYC;2009-11-15 20:00;CYYC 152000Z 26020KT 40SM FEW050 FEW130 BKN140 OVC200 09/M07 A2976 RMK SC1AC2AC3CI1 SC TR SLP112

CYYC;2009-11-15 21:00;CYYC 152100Z 26012KT 40SM FEW050 FEW140 BKN160 BKN200 09/M07 A2977 RMK SC1AC2AC3CI2 SLP109

CYYC;2009-11-15 22:00;CYYC 152200Z 23010KT 40SM FEW050 BKN160 BKN210 10/M06 A2975 RMK SC1AC5CI2 SLP103

CYYC;2009-11-15 23:00;CYYC 152300Z 24006KT 40SM FEW050 BKN150 BKN210 10/M06 A2975 RMK SC1AC6CI1 SLP103

CYYC;2009-11-16 00:00;CYYC 160000Z 25011KT 40SM FEW050 BKN160 BKN220 09/M06 A2975 RMK SC1AC5CI0 SLP098

CYYC;2009-11-16 01:00;CYYC 160100Z 23009KT 20SM FEW050 BKN170 06/M06 A2974 RMK SC1AC6 SLP097

CYYC;2009-11-16 02:00;CYYC 160200Z 24009KT 15SM SCT170 BKN240 06/M06 A2973 RMK AC3CI2 SLP094

CYYC;2009-11-16 03:00;CYYC 160300Z 22010KT 15SM FEW150 SCT240 04/M06 A2972 RMK AC2CI0 SLP094

CYYC;2009-11-16 04:00;CYYC 160400Z 22006KT 15SM FEW150 BKN240 04/M06 A2972 RMK AC2CI0 SLP094

CYYC;2009-11-16 05:00;CYYC 160500Z 00000KT 15SM FEW150 BKN240 02/M06 A2970 RMK AC1CI0 SLP089

CYYC;2009-11-16 06:00;CYYC 160600Z 06002KT 15SM FEW150 BKN240 01/M06 A2970 RMK AC1CI0 SLP091

CYYC;2009-11-16 07:00;CYYC 160700Z 00000KT 15SM FEW150 BKN240 M02/M07 A2969 RMK AC1CI0 SLP089

CYYC;2009-11-16 08:00;CYYC 160800Z 18003KT 15SM BKN250 M03/M07 A2969 RMK CI0 SLP087

CYYC;2009-11-16 09:00;CYYC 160900Z 22006KT 15SM BKN250 M01/M06 A2968 RMK CI0 SLP083

CYYC;2009-11-16 10:00;CYYC 161000Z 17005KT 15SM BKN250 M00/M06 A2967 RMK CI0 SLP080

CYYC;2009-11-16 11:00;CYYC 161100Z 22002KT 15SM BKN250 00/M06 A2965 RMK CI1 SLP074

CYYC;2009-11-16 12:00;CYYC 161200Z 21003KT 15SM BKN250 M01/M06 A2964 RMK CI1 SLP069

CYYC;2009-11-16 13:00;CYYC 161300Z 36002KT 15SM BKN250 M01/M06 A2963 RMK CI2 SLP066

CYYC;2009-11-16 14:00;CYYC 161400Z 35007KT 15SM FEW120 BKN250 M02/M06 A2963 RMK AC2CI0 SLP064

CYYC;2009-11-16 15:00;CYYC 161500Z 26004KT 40SM FEW040 FEW180 BKN250 M01/M06 A2962 RMK SC1AC2CI1 CC ASOCTD SLP067

CYYC;2009-11-16 16:00;CYYC 161600Z 09003KT 40SM FEW030 SCT180 BKN250 00/M05 A2961 RMK SC1AC3CI1 CC ASOCTD SLP064

CYYC;2009-11-16 17:00;CYYC 161700Z 20009KT 40SM FEW030 FEW140 BKN250 05/M04 A2961 RMK SC1AC1CI3 SLP063

CYYC;2009-11-16 18:00;CYYC 161800Z 21016G21KT 40SM FEW030 FEW140 BKN210 12/M04 A2959 RMK CU1AC2CI5 SLP044

CYYC;2009-11-16 19:00;CYYC 161900Z 20018G32KT 40SM FEW030 FEW140 SCT190 BKN240 13/M04 A2958 RMK CU1AC2AC1CI2 SLP041

CYYC;2009-11-16 20:00;CYYC 162000Z 23024KT 40SM FEW030 SCT170 BKN250 14/M04 A2956 RMK CU1AC2CI5 SLP034

CYYC;2009-11-16 21:00;CYYC 162100Z 22018G27KT 40SM FEW050 SCT140 BKN240 15/M04 A2956 RMK CU1AC2CI2 SLP031

CYYC;2009-11-16 22:00;CYYC 162200Z 18012KT 40SM FEW050 FEW160 BKN250 12/M04 A2955 RMK CU1AC1CI6 SLP030

CYYC;2009-11-16 23:00;CYYC 162300Z 18012KT 40SM FEW050 FEW160 BKN250 13/M04 A2956 RMK CU1AC1CI7 SLP033

CYYC;2009-11-17 00:00;CYYC 170000Z 20005KT 40SM FEW050 BKN250 11/M04 A2956 RMK SC1CI7 SLP038

CYYC;2009-11-17 01:00;CYYC 170100Z 17009G15KT 15SM FEW050 BKN260 09/M04 A2956 RMK SC1CI7 SLP037

CYYC;2009-11-17 02:00;CYYC 170200Z CCA 13009KT 15SM BKN260 09/M04 A2955 RMK CI7 SLP034

CYYC;2009-11-17 03:00;CYYC 170300Z 12008KT 15SM SKC 08/M04 A2955 RMK SLP039

CYYC;2009-11-17 04:00;CYYC 170400Z 14011KT 15SM SKC 07/M04 A2955 RMK SLP039

CYYC;2009-11-17 05:00;CYYC 170500Z 14013KT 15SM SKC 05/M04 A2956 RMK SLP040

CYYC;2009-11-17 06:00;CYYC 170600Z 17013G18KT 15SM SKC 07/M03 A2956 RMK SLP024

CYYC;2009-11-17 07:00;CYYC 170700Z 17013KT 15SM BKN250 07/M03 A2955 RMK CI6 SLP021

CYYC;2009-11-17 08:00;CYYC 170800Z 17015G21KT 15SM OVC250 08/M03 A2952 RMK CI6 SLP013

CYYC;2009-11-17 09:00;CYYC 170900Z 17014KT 15SM BKN240 08/M04 A2950 RMK CI6 SLP998

CYYC;2009-11-17 10:00;CYYC 171000Z 19014KT 15SM FEW210 BKN240 10/M04 A2947 RMK CI1CI6 SLP991

CYYC;2009-11-17 11:00;CYYC 171100Z 20018G25KT 15SM SCT240 10/M04 A2944 RMK CI2 SLP981

CYYC;2009-11-17 12:00;CYYC 171200Z 18013KT 15SM FEW240 09/M05 A2942 RMK CI1 SLP974

CYYC;2009-11-17 13:00;CYYC 171300Z 15010G15KT 15SM FEW240 08/M06 A2938 RMK CI1 SLP964

CYYC;2009-11-17 14:00;CYYC 171400Z 21013G24KT 15SM FEW240 10/M06 A2936 RMK CI1 SLP957

CYYC;2009-11-17 15:00;CYYC 171500Z CCA 21014G20KT 30SM FEW140 FEW240 10/M05 A2937 RMK AC1CI1 SLP961

CYYC;2009-11-17 16:00;CYYC 171600Z 22016G24KT 30SM FEW030 FEW140 FEW220 10/M05 A2938 RMK SC1AC1CI1 SH OVR MTS SLP965

CYYC;2009-11-17 17:00;CYYC 171700Z 22024G32KT 30SM FEW030 FEW170 10/M03 A2938 RMK CU1AC1 SH OVR MTS SLP964

CYYC;2009-11-17 18:00;CYYC 171800Z 22026G40KT 30SM FEW040 FEW180 11/M03 A2937 RMK CU1AC1 FOHN WALL SLP961

CYYC;2009-11-17 19:00;CYYC 171900Z 22029G43KT 30SM FEW040 FEW180 12/M04 A2936 RMK CU1AC1 FOHN WALL SLP958

CYYC;2009-11-17 20:00;CYYC 172000Z 22034G41KT 30SM FEW040 FEW160 11/M04 A2940 RMK CU1AC1 FOHN WALL SLP969

CYYC;2009-11-17 21:00;CYYC 172100Z 20027G37KT 30SM FEW040 FEW140 11/M03 A2942 RMK CU1AC1 SH SW-NW SLP976

CYYC;2009-11-17 22:00;CYYC 172200Z 20019G30KT 30SM FEW050 BKN120 10/M04 A2943 RMK CU1AC2 SH SW-NW SLP979

CYYC;2009-11-17 23:00;CYYC 172300Z 19019G25KT 30SM FEW050 FEW140 09/M03 A2945 RMK CU1AC1 SH SW-NW SLP986

CYYC;2009-11-18 00:00;CYYC 180000Z 18017G22KT 30SM FEW050 FEW140 07/M03 A2947 RMK CU1AC1 SH SW-NW SLP000

CYYC;2009-11-18 01:00;CYYC 180100Z 20015KT 15SM FEW050 06/M03 A2950 RMK CU1 SLP007

CYYC;2009-11-18 02:00;CYYC 180200Z 20016KT 15SM SKC 06/M03 A2951 RMK SLP010

CYYC;2009-11-18 03:00;CYYC 180300Z 22016KT 15SM SKC 06/M03 A2952 RMK SLP015

CYYC;2009-11-18 04:00;CYYC 180400Z 24011KT 15SM SKC 05/M04 A2955 RMK SLP025

CYYC;2009-11-18 05:00;CYYC 180500Z 25006KT 15SM SKC 03/M04 A2958 RMK SLP035

CYYC;2009-11-18 06:00;CYYC 180600Z 04004KT 15SM SKC M00/M05 A2960 RMK SLP052

CYYC;2009-11-18 07:00;CYYC 180700Z 31005KT 15SM SKC M01/M05 A2962 RMK SLP058

CYYC;2009-11-18 08:00;CYYC 180800Z 28005KT 15SM SKC M01/M05 A2963 RMK SLP059

CYYC;2009-11-18 09:00;CYYC 180900Z 01005KT 15SM SKC M04/M07 A2963 RMK SLP067

CYYC;2009-11-18 10:00;CYYC 181000Z 32006KT 15SM SKC M04/M07 A2964 RMK SLP071

CYYC;2009-11-18 11:00;CYYC 181100Z 20004KT 15SM SKC M05/M08 A2965 RMK SLP074

CYYC;2009-11-18 12:00;CYYC 181200Z 21007KT 15SM SKC M06/M08 A2967 RMK SLP087

CYYC;2009-11-18 13:00;CYYC 181300Z 24005KT 15SM SKC M05/M08 A2967 RMK SLP088

CYYC;2009-11-18 14:00;CYYC 181400Z 21009KT 15SM FEW100 M03/M07 A2969 RMK AC1 SLP093

CYYC;2009-11-18 15:00;CYYC 181500Z 21009KT 40SM FEW030 FEW100 M03/M08 A2971 RMK SC1AC1 FOHN WALL / FROIN SLP099

CYYC;2009-11-18 16:00;CYYC 181600Z 24013KT 40SM FEW030 FEW140 01/M08 A2973 RMK CU1AC1 FOHN WALL SLP107

CYYC;2009-11-18 17:00;CYYC 181700Z CCA 23011KT 40SM FEW040 FEW140 02/M07 A2976 RMK CU1AC1 FOHN WALL SLP116

CYYC;2009-11-18 18:00;CYYC 181800Z 23011KT 40SM FEW040 FEW180 04/M08 A2980 RMK CU1AC1 FOHN WALL SLP129

CYYC;2009-11-18 19:00;CYYC 181900Z 22007KT 40SM FEW040 FEW180 06/M14 A2980 RMK CU1AC1 FOHN WALL SLP129

CYYC;2009-11-18 20:00;CYYC 182000Z 20008G16KT 40SM FEW040 FEW090 06/M15 A2979 RMK CU1AC1 SLP128

CYYC;2009-11-18 21:00;CYYC 182100Z 21013G18KT 40SM FEW060 FEW110 06/M15 A2978 RMK CU1AC1 SLP127

CYYC;2009-11-18 22:00;CYYC 182200Z 20012KT 40SM FEW060 06/M16 A2978 RMK SC1 SLP127

CYYC;2009-11-18 23:00;CYYC 182300Z 18011KT 40SM FEW060 SCT110 04/M13 A2980 RMK SC1AC2 SLP133

CYYC;2009-11-19 00:00;CYYC 190000Z 19009KT 40SM FEW050 FEW110 02/M13 A2982 RMK SC1AC1 SLP146

CYYC;2009-11-19 01:00;CYYC 190100Z 20006KT 20SM FEW090 M01/M14 A2984 RMK AC1 SLP153

CYYC;2009-11-19 02:00;CYYC 190200Z 16002KT 15SM SKC M01/M13 A2986 RMK SLP159

CYYC;2009-11-19 03:00;CYYC 190300Z 20005KT 15SM FEW220 M02/M13 A2986 RMK CI2 SLP162

CYYC;2009-11-19 04:00;CYYC 190400Z 19005KT 15SM FEW220 M03/M13 A2985 RMK CI2 SLP160

CYYC;2009-11-19 05:00;CYYC 190500Z 16009KT 15SM FEW230 M03/M13 A2983 RMK CI2 SLP153

CYYC;2009-11-19 06:00;CYYC 190600Z 15005KT 15SM BKN240 M03/M13 A2981 RMK CI5 SLP137

CYYC;2009-11-19 07:00;CYYC 190700Z 14004KT 15SM BKN240 M04/M12 A2978 RMK CI5 SLP130

CYYC;2009-11-19 08:00;CYYC 190800Z 13004KT 15SM BKN240 M04/M12 A2975 RMK CI6 SLP119

CYYC;2009-11-19 09:00;CYYC 190900Z 17010KT 15SM BKN250 M03/M12 A2973 RMK CI2 SLP106

CYYC;2009-11-19 10:00;CYYC 191000Z 17016KT 15SM BKN250 M01/M11 A2970 RMK CI3 SLP098

CYYC;2009-11-19 11:00;CYYC 191100Z 17009KT 15SM BKN250 M00/M11 A2967 RMK CI2 SLP088

CYYC;2009-11-19 12:00;CYYC 191200Z 18017G22KT 15SM BKN250 01/M11 A2964 RMK CI2 SLP074

CYYC;2009-11-19 13:00;CYYC 191300Z 18013KT 15SM BKN240 02/M10 A2962 RMK CI4 SLP069

CYYC;2009-11-19 14:00;CYYC 191400Z 19013KT 15SM BKN240 04/M09 A2960 RMK CI5 SLP064

CYYC;2009-11-19 15:00;CYYC 191500Z 22018KT 40SM FEW090 BKN240 05/M08 A2961 RMK AC1CI1 AC TR SLP066

CYYC;2009-11-19 16:00;CYYC 191600Z 22018G25KT 40SM FEW070 SCT240 BKN260 06/M09 A2962 RMK AC1CI3CI0 SLP069

CYYC;2009-11-19 17:00;CYYC 191700Z 23019KT 40SM FEW080 FEW210 BKN240 07/M09 A2963 RMK AC1CI1CI2 SLP072

CYYC;2009-11-19 18:00;CYYC 191800Z 26015G24KT 40SM FEW080 FEW190 BKN240 07/M09 A2966 RMK AC1AS1CI2 CONTRAILS SLP080

CYYC;2009-11-19 19:00;CYYC 191900Z 25016G27KT 40SM FEW080 FEW190 BKN240 08/M09 A2965 RMK AC1AS2CI2 CONTRAILS SLP077

CYYC;2009-11-19 20:00;CYYC 192000Z 24022G28KT 30SM FEW080 FEW180 BKN220 09/M09 A2963 RMK AC1AS2CI2 CONTRAILS / VIS S-W LWR SLP072

CYYC;2009-11-19 21:00;CYYC 192100Z 24015KT 30SM FEW080 FEW180 BKN220 11/M08 A2965 RMK AC1AS2CI0 SH DIST S-W / VIS S-W LWR / CONTRAILS SLP073

CYYC;2009-11-19 22:00;CYYC 192200Z 22005KT 30SM FEW080 FEW180 BKN220 11/M07 A2967 RMK AC1AS1CI0 SH DIST S-W / VIS S-W LWR /AC TR SLP079

CYYC;2009-11-19 23:00;CYYC 192300Z 07011KT 8SM FEW070 FEW120 FEW180 BKN220 07/M08 A2970 RMK AC1AC1AS1CI0 SH DIST SW / VIS SW 5 /AC TR / WSHFT 2257 SLP087

CYYC;2009-11-20 00:00;CYYC 200000Z 08005KT 40SM FEW080 FEW180 04/M08 A2970 RMK AC1AS1 AC TR SLP095

CYYC;2009-11-20 01:00;CYYC 200100Z 05004KT 15SM FEW080 FEW180 02/M07 A2970 RMK AC1AS1 SLP094

CYYC;2009-11-20 02:00;CYYC 200200Z 07004KT 15SM SKC M01/M08 A2970 RMK SLP095

CYYC;2009-11-20 03:00;CYYC 200300Z 04003KT 15SM SKC M02/M08 A2969 RMK SLP094

CYYC;2009-11-20 04:00;CYYC 200400Z 00000KT 15SM SKC M03/M08 A2966 RMK SLP086

CYYC;2009-11-20 05:00;CYYC 200500Z 00000KT 15SM FEW250 M05/M09 A2966 RMK CI1 SLP084

CYYC;2009-11-20 06:00;CYYC 200600Z 31004KT 15SM SKC M04/M09 A2964 RMK SLP078

CYYC;2009-11-20 07:00;CYYC 200700Z 27002KT 15SM SKC M04/M09 A2963 RMK SLP072

CYYC;2009-11-20 08:00;CYYC 200800Z 14004KT 15SM FEW240 M04/M09 A2960 RMK CI2 SLP063

CYYC;2009-11-20 09:00;CYYC 200900Z 00000KT 15SM SCT240 M02/M07 A2958 RMK CI2 SLP047

CYYC;2009-11-20 10:00;CYYC 201000Z 16009KT 15SM BKN240 M00/M06 A2956 RMK CI2 SLP041

CYYC;2009-11-20 11:00;CYYC 201100Z 10006KT 15SM SCT240 M01/M06 A2954 RMK CI2 SLP034

CYYC;2009-11-20 12:00;CYYC 201200Z 08005KT 15SM SCT250 02/M06 A2951 RMK CI1 SLP028

CYYC;2009-11-20 13:00;CYYC 201300Z 02006KT 15SM SCT250 M02/M07 A2950 RMK CI2 SLP024

CYYC;2009-11-20 14:00;CYYC 201400Z 36007KT 15SM BKN240 M03/M07 A2947 RMK CI2 SLP017

CYYC;2009-11-20 15:00;CYYC 201500Z 02004KT 40SM FEW210 BKN240 M03/M07 A2947 RMK CI1CI2 SLP027

CYYC;2009-11-20 16:00;CYYC 201600Z 05002KT 40SM FEW040 FEW210 BKN260 M02/M07 A2945 RMK CF1CI1CI3 SLP022

CYYC;2009-11-20 17:00;CYYC 201700Z 00000KT 40SM FEW040 FEW180 BKN240 M01/M06 A2942 RMK CF1AS2CI2 SLP013

CYYC;2009-11-20 18:00;CYYC 201800Z 19008KT 40SM FEW040 FEW180 BKN240 04/M04 A2940 RMK CF1AS2CI2 SLP997

CYYC;2009-11-20 19:00;CYYC 201900Z 18014G20KT 40SM FEW040 SCT180 OVC240 11/M05 A2936 RMK CF1AS3CI2 SLP985

CYYC;2009-11-20 20:00;CYYC 202000Z 18015G21KT 40SM FEW070 SCT180 OVC220 12/M06 A2932 RMK CU1AS3CI3 SLP972

CYYC;2009-11-20 21:00;CYYC 202100Z 18012KT 40SM FEW080 BKN230 OVC260 12/M07 A2930 RMK CU1CI6CI0 SLP948

CYYC;2009-11-20 22:00;CYYC 202200Z 17015G20KT 40SM FEW080 SCT230 OVC260 11/M07 A2928 RMK CU1CI4CI2 SLP942

CYYC;2009-11-20 23:00;CYYC 202300Z 18010KT 40SM FEW070 SCT170 BKN230 10/M08 A2925 RMK CF2AC2CI2 SLP934

CYYC;2009-11-21 00:00;CYYC 210000Z 18012KT 40SM FEW170 BKN230 08/M08 A2926 RMK AC2CI3 SLP933

CYYC;2009-11-21 01:00;CYYC 210100Z 20009KT 15SM FEW100 SCT170 BKN210 09/M08 A2925 RMK AC2AC1CI2 SLP932

CYYC;2009-11-21 02:00;CYYC 210200Z 19009KT 15SM FEW060 SCT100 BKN210 07/M08 A2926 RMK SC2AC2CI1 SLP933

CYYC;2009-11-21 03:00;CYYC 210300Z 20007KT 15SM BKN110 06/M08 A2926 RMK AC5 SLP944

CYYC;2009-11-21 04:00;CYYC 210400Z 22007KT 15SM BKN100 BKN210 06/M08 A2925 RMK AC5CI1 SLP942

CYYC;2009-11-21 05:00;CYYC 210500Z 17002KT 15SM SCT100 BKN240 04/M09 A2925 RMK AC4CI1 SLP941

CYYC;2009-11-21 06:00;CYYC 210600Z 21010KT 15SM FEW100 BKN240 03/M08 A2924 RMK AC1CI2 SLP932

CYYC;2009-11-21 07:00;CYYC 210700Z 32004KT 15SM FEW090 BKN240 04/M08 A2924 RMK AC1CI2 SLP932

CYYC;2009-11-21 08:00;CYYC 210800Z 26002KT 15SM FEW100 BKN220 02/M08 A2924 RMK AC1CI2 SLP932

CYYC;2009-11-21 09:00;CYYC 210900Z 21012KT 15SM FEW100 OVC230 03/M08 A2924 RMK AC2CI6 SLP921

CYYC;2009-11-21 10:00;CYYC 211000Z 25006KT 15SM FEW100 OVC220 04/M08 A2924 RMK AC2CI5 SLP922

CYYC;2009-11-21 11:00;CYYC 211100Z 26004KT 15SM SCT140 OVC200 04/M08 A2927 RMK AC3CI4 SLP930

CYYC;2009-11-21 12:00;CYYC 211200Z 33008KT 15SM FEW060 BKN100 OVC200 04/M06 A2930 RMK SC2AC6CI1 SLP946

CYYC;2009-11-21 13:00;CYYC 211300Z 31009KT 15SM FEW060 SCT080 OVC100 03/M06 A2934 RMK SC2AC2AC3 SLP957

CYYC;2009-11-21 14:00;CYYC 211400Z 34010G15KT 15SM SCT060 BKN070 OVC110 02/M05 A2938 RMK SC3AC2AC2 SLP969

CYYC;2009-11-21 15:00;CYYC 211500Z 32009KT 15SM SCT060 BKN070 BKN110 02/M05 A2941 RMK SC3AC2AC2 SLP990

CYYC;2009-11-21 16:00;CYYC 211600Z 33010KT 15SM FEW060 BKN130 BKN150 01/M04 A2944 RMK SC1AC4AC2 SLP000

CYYC;2009-11-21 17:00;CYYC 211700Z 33009KT 15SM FEW060 BKN150 02/M03 A2949 RMK CU1AC6 SLP013

CYYC;2009-11-21 18:00;CYYC 211800Z 36014KT 15SM FEW060 OVC150 02/M04 A2953 RMK CU1AC7 SLP034

CYYC;2009-11-21 19:00;CYYC 211900Z 35009KT 15SM FEW060 BKN150 02/M04 A2954 RMK CU2AC6 SLP039

CYYC;2009-11-21 20:00;CYYC 212000Z 01007KT 15SM FEW060 BKN150 BKN200 03/M05 A2956 RMK CU2AC4CI0 SLP044

CYYC;2009-11-21 21:00;CYYC 212100Z 03006KT 15SM FEW150 SCT200 03/M05 A2957 RMK AC2CI1 DIST SH S-W SLP046

CYYC;2009-11-21 22:00;CYYC 212200Z 10002KT 15SM FEW060 SCT100 BKN200 03/M06 A2958 RMK CU1AC2CI2 DIST SH S-W SLP051

CYYC;2009-11-21 23:00;CYYC 212300Z 16008KT 15SM FEW100 SCT200 02/M06 A2961 RMK AC2CI1 DIST SH SE+SW SLP058

CYYC;2009-11-22 00:00;CYYC 220000Z 18008KT 15SM SCT100 M00/M05 A2962 RMK AC3 DIST SH SE-W SLP067

CYYC;2009-11-22 01:00;CYYC 220100Z 18002KT 15SM FEW100 M02/M06 A2963 RMK AC1 SLP069

CYYC;2009-11-22 02:00;CYYC 220200Z 23006KT 15SM SKC M02/M06 A2963 RMK SLP070

CYYC;2009-11-22 03:00;CYYC 220300Z 22004KT 15SM FEW100 M02/M08 A2963 RMK AC2 SLP077

CYYC;2009-11-22 04:00;CYYC 220400Z 00000KT 15SM FEW100 M03/M09 A2963 RMK AC1 SLP076

CYYC;2009-11-22 05:00;CYYC 220500Z 25005KT 15SM BKN170 M01/M10 A2963 RMK AC4 SLP076

CYYC;2009-11-22 06:00;CYYC 220600Z 13002KT 15SM FEW170 M01/M12 A2963 RMK AC1 SLP076

CYYC;2009-11-22 07:00;CYYC 220700Z 20002KT 15SM FEW170 M02/M12 A2962 RMK AC1 SLP072

CYYC;2009-11-22 08:00;CYYC 220800Z 16003KT 15SM FEW170 M05/M11 A2961 RMK AC1 SLP069

CYYC;2009-11-22 09:00;CYYC 220900Z 20006KT 15SM FEW170 FEW210 FEW240 M04/M11 A2960 RMK AC1CI1CI0 AC TR SLP068

CYYC;2009-11-22 10:00;CYYC 221000Z 20002KT 15SM FEW150 SCT210 M04/M12 A2958 RMK AC2CI1 SLP063

CYYC;2009-11-22 11:00;CYYC 221100Z 21010G15KT 15SM FEW150 BKN210 M02/M12 A2957 RMK AC2CI2 SLP059

CYYC;2009-11-22 12:00;CYYC 221200Z 28006KT 15SM FEW150 BKN210 00/M12 A2957 RMK AC2CI2 SLP055

CYYC;2009-11-22 13:00;CYYC 221300Z 28003KT 15SM FEW150 BKN210 M00/M12 A2956 RMK AC2CI2 SLP051

CYYC;2009-11-22 14:00;CYYC 221400Z 29004KT 15SM BKN140 M01/M11 A2955 RMK AC6 SLP048

CYYC;2009-11-22 15:00;CYYC 221500Z 14005KT 15SM SCT100 OVC130 M02/M09 A2955 RMK AC4AC3 SLP055

CYYC;2009-11-22 16:00;CYYC 221600Z 11004KT 40SM FEW062 OVC080 M01/M10 A2956 RMK SC2AC5 VIRGA S-SW SLP057

CYYC;2009-11-22 17:00;CYYC 221700Z 11003KT 40SM SCT060 OVC076 M00/M11 A2956 RMK SC3AC4 SLP058

CYYC;2009-11-22 18:00;CYYC 221800Z 11005KT 40SM SCT055 OVC074 02/M10 A2956 RMK SC4AC3 SLP052

CYYC;2009-11-22 19:00;CYYC 221900Z 19006KT 30SM FEW055 BKN075 BKN200 02/M10 A2956 RMK SC2AC3CI0 SLP052

CYYC;2009-11-22 20:00;CYYC 222000Z 17006KT 30SM BKN100 BKN200 03/M09 A2957 RMK AC6CI1 DIST SH SW SLP053

CYYC;2009-11-22 21:00;CYYC 222100Z 13007KT 40SM OVC120 03/M09 A2957 RMK AC7 SLP056

CYYC;2009-11-22 22:00;CYYC 222200Z 14005KT 40SM OVC130 04/M09 A2958 RMK AC6 SLP060

CYYC;2009-11-22 23:00;CYYC 222300Z 10006KT 40SM BKN110 02/M08 A2960 RMK AC5 SLP065

CYYC;2009-11-22 23:32;CYYC 222332Z 10007KT 40SM BKN110 01/ RMK AC5

CYYC;2009-11-23 00:00;CYYC 230000Z 09005KT 40SM FEW080 BKN110 M00/M08 A2962 RMK AC2AC4 SLP073

CYYC;2009-11-23 01:00;CYYC 230100Z 00000KT 15SM SCT094 BKN230 M01/M08 A2964 RMK AC3CI1 SLP078

CYYC;2009-11-23 02:00;CYYC 230200Z 01004KT 15SM FEW086 M03/M09 A2965 RMK AC1 SLP084

CYYC;2009-11-23 03:00;CYYC 230300Z 00000KT 15SM BKN086 M03/M08 A2967 RMK AC6 SLP100

CYYC;2009-11-23 04:00;CYYC 230400Z 00000KT 15SM BKN086 M04/M09 A2969 RMK AC4 SLP104

CYYC;2009-11-23 05:00;CYYC 230500Z 28002KT 15SM FEW080 SCT100 BKN210 M05/M09 A2971 RMK AC1AC2CI1 SLP110

CYYC;2009-11-23 06:00;CYYC 230600Z 00000KT 15SM FEW090 M05/M09 A2973 RMK AC1 SLP115

CYYC;2009-11-23 07:00;CYYC 230700Z 20002KT 15SM FEW090 M05/M09 A2974 RMK AC1 SLP120

CYYC;2009-11-23 08:00;CYYC 230800Z 29005KT 15SM FEW090 M03/M10 A2975 RMK AC1 SLP122

CYYC;2009-11-23 09:00;CYYC 230900Z 36004KT 15SM FEW090 M04/M10 A2977 RMK AC1 SLP128

CYYC;2009-11-23 10:00;CYYC 231000Z 32004KT 15SM SKC M04/M10 A2980 RMK SLP135

CYYC;2009-11-23 11:00;CYYC 231100Z 33002KT 15SM SKC M05/M10 A2983 RMK SLP144

CYYC;2009-11-23 12:00;CYYC 231200Z 33004KT 15SM FEW170 M00/M10 A2985 RMK AC1 SLP155

CYYC;2009-11-23 13:00;CYYC 231300Z 00000KT 15SM FEW170 02/M09 A2986 RMK AC1 SLP159

CYYC;2009-11-23 14:00;CYYC 231400Z 27011KT 15SM FEW170 02/M09 A2989 RMK AC1 SLP167

CYYC;2009-11-23 15:00;CYYC 231500Z 27013KT 40SM FEW030 FEW140 02/M09 A2992 RMK SC1AC1 SLP179

CYYC;2009-11-23 16:00;CYYC 231600Z 27014KT 40SM FEW030 FEW140 FEW250 03/M09 A2994 RMK SC1AC1CI1 SLP186

CYYC;2009-11-23 17:00;CYYC 231700Z 27012KT 40SM FEW040 FEW160 FEW280 04/M09 A2996 RMK SC1AC1CI1 SLP192

CYYC;2009-11-23 18:00;CYYC 231800Z 26012KT 40SM FEW040 FEW160 FEW280 05/M09 A2997 RMK SC1AC1CI1 SLP195

CYYC;2009-11-23 19:00;CYYC 231900Z 26013KT 40SM FEW040 FEW140 FEW280 06/M09 A2996 RMK SC1AC1CI0 SLP193

CYYC;2009-11-23 20:00;CYYC 232000Z 27012KT 40SM FEW040 FEW140 BKN260 07/M10 A2995 RMK SC1AC1CI0 SLP188

CYYC;2009-11-23 21:00;CYYC 232100Z 22008KT 40SM FEW040 FEW140 BKN260 07/M10 A2994 RMK SC1AC2CI0 SLP179

CYYC;2009-11-23 22:00;CYYC 232200Z 24006KT 40SM FEW050 FEW150 BKN180 BKN250 07/M10 A2995 RMK SC1AC1AC4CI0 SLP182

CYYC;2009-11-23 23:00;CYYC 232300Z 25007KT 40SM FEW050 BKN160 BKN240 06/M08 A2995 RMK SC1AC4CI2 SLP183

CYYC;2009-11-24 00:00;CYYC 240000Z 19007KT 40SM FEW050 SCT170 BKN220 04/M09 A2992 RMK SC1AC3CI2 SLP172

CYYC;2009-11-24 01:00;CYYC 240100Z CCA 19006KT 15SM SCT140 BKN170 BKN220 04/M08 A2990 RMK AC4AC2CI2 SLP165

CYYC;2009-11-24 02:00;CYYC 240200Z 20004KT 15SM SCT140 BKN170 BKN210 02/M08 A2987 RMK AC3AC3CI1 SLP158

CYYC;2009-11-24 03:00;CYYC 240300Z 20003KT 15SM FEW150 BKN190 BKN230 03/M09 A2987 RMK AC2AS4CI1 SLP155

CYYC;2009-11-24 04:00;CYYC 240400Z 25002KT 15SM BKN230 03/M08 A2987 RMK CI4 SLP155

CYYC;2009-11-24 05:00;CYYC 240500Z 27014KT 15SM BKN240 07/M07 A2986 RMK CI3 SLP150

CYYC;2009-11-24 06:00;CYYC 240600Z 29013G21KT 15SM BKN250 07/M07 A2989 RMK CI2 SLP149

CYYC;2009-11-24 07:00;CYYC 240700Z 33013KT 15SM FEW250 06/M07 A2989 RMK CI1 SLP149

CYYC;2009-11-24 08:00;CYYC 240800Z 33006KT 15SM FEW250 06/M08 A2990 RMK CI1 SLP153

CYYC;2009-11-24 09:00;CYYC 240900Z 29016G21KT 15SM FEW250 07/M08 A2992 RMK CI1 SLP157

CYYC;2009-11-24 10:00;CYYC 241000Z 28017KT 15SM FEW250 06/M08 A2993 RMK CI1 SLP161

CYYC;2009-11-24 11:00;CYYC 241100Z 29010G15KT 15SM FEW250 05/M08 A2996 RMK CI1 SLP171

CYYC;2009-11-24 12:00;CYYC 241200Z 35006KT 15SM FEW110 FEW250 00/M07 A3001 RMK AC1CI1 SLP201

CYYC;2009-11-24 13:00;CYYC 241300Z 36006KT 15SM FEW110 FEW250 M02/M08 A3002 RMK AC1CI1 SLP206

CYYC;2009-11-24 14:00;CYYC 241400Z 34005KT 15SM FEW120 BKN250 M03/M09 A3002 RMK AC2CI1 SLP205

CYYC;2009-11-24 15:00;CYYC 241500Z 21006KT 40SM FEW060 FEW110 M02/M08 A3005 RMK SC1AC1 SH N-E SLP221

CYYC;2009-11-24 16:00;CYYC 241600Z 25007KT 40SM FEW060 SCT095 BKN180 M01/M08 A3007 RMK SC1AC3AC1 SH E SLP230

CYYC;2009-11-24 17:00;CYYC 241700Z 22006KT 40SM FEW070 FEW160 SCT270 01/M08 A3008 RMK AC2AC1CI0 SLP233

CYYC;2009-11-24 18:00;CYYC 241800Z 20005KT 40SM FEW045 FEW160 FEW230 04/M08 A3009 RMK CU1AC1CI0 SLP223

CYYC;2009-11-24 19:00;CYYC 241900Z 26009G16KT 40SM FEW055 FEW180 FEW260 05/M09 A3008 RMK CU1AC1CI0 SLP220

CYYC;2009-11-24 20:00;CYYC 242000Z 31016KT 40SM FEW065 FEW150 FEW260 07/M16 A3008 RMK CU1AC1CI1 ACSL SLP220

CYYC;2009-11-24 21:00;CYYC 242100Z 31010G17KT 40SM FEW070 FEW150 FEW240 07/M19 A3009 RMK CU1AC1CI1 ACSL SLP217

CYYC;2009-11-24 22:00;CYYC 242200Z 31014KT 40SM FEW070 FEW140 FEW160 FEW300 06/M19 A3010 RMK CU1AC1AC1CI1 ACSL SLP221

CYYC;2009-11-24 23:00;CYYC 242300Z 31008KT 40SM FEW070 FEW140 FEW270 05/M18 A3013 RMK CU1AC1CI0 ACSL SLP230

CYYC;2009-11-25 00:00;CYYC 250000Z 30004KT 40SM FEW160 FEW250 03/M16 A3014 RMK AC1CI0 SLP250

CYYC;2009-11-25 01:00;CYYC 250100Z 30004KT 15SM FEW260 01/M15 A3016 RMK CI0 SLP257

CYYC;2009-11-25 02:00;CYYC 250200Z 07003KT 15SM FEW190 BKN250 01/M15 A3016 RMK AC0CI0 SLP256

CYYC;2009-11-25 03:00;CYYC 250300Z 11006KT 15SM FEW110 BKN250 M01/M15 A3016 RMK AC2CI0 SLP265

CYYC;2009-11-25 04:00;CYYC 250400Z 16008KT 15SM FEW110 SCT140 BKN250 M01/M14 A3015 RMK AC2AC2CI0 SLP263

CYYC;2009-11-25 05:00;CYYC 250500Z 16006KT 15SM FEW100 SCT140 SCT250 M03/M15 A3013 RMK AC1AC2CI0 SLP258

CYYC;2009-11-25 06:00;CYYC 250600Z 18003KT 15SM FEW100 BKN140 BKN250 M01/M14 A3012 RMK AC2AC2CI0 SLP245

CYYC;2009-11-25 07:00;CYYC 250700Z 00000KT 15SM SCT100 BKN250 M02/M14 A3011 RMK AC4CI0 SLP240

CYYC;2009-11-25 08:00;CYYC 250800Z 18006KT 15SM FEW100 SCT250 M04/M14 A3010 RMK AC2CI0 SLP237

CYYC;2009-11-25 09:00;CYYC 250900Z 19003KT 15SM FEW100 FEW250 M04/M14 A3007 RMK AC1CI0 SLP226

CYYC;2009-11-25 10:00;CYYC 251000Z 19006KT 15SM FEW100 FEW250 M04/M12 A3006 RMK AC1CI0 SLP222

CYYC;2009-11-25 11:00;CYYC 251100Z 20007KT 15SM SCT240 M04/M12 A3003 RMK CI2 SLP212

CYYC;2009-11-25 12:00;CYYC 251200Z 20005KT 15SM FEW130 SCT240 M05/M12 A3002 RMK AC1CI2 SLP215

CYYC;2009-11-25 13:00;CYYC 251300Z 21007KT 15SM FEW120 SCT240 M04/M12 A2999 RMK AC2CI2 SLP207

CYYC;2009-11-25 14:00;CYYC 251400Z 20005KT 15SM SCT130 BKN240 M02/M12 A2998 RMK AC3CI1 SLP205

CYYC;2009-11-25 15:00;CYYC 251500Z 18006KT 40SM FEW030 SCT140 BKN260 M02/M12 A2997 RMK SC1AC3CI1 SLP199

CYYC;2009-11-25 16:00;CYYC 251600Z 18002KT 40SM FEW030 BKN120 BKN240 M00/M09 A2997 RMK SC1AC7CI1 SLP200

CYYC;2009-11-25 17:00;CYYC 251700Z 22013KT 40SM FEW050 BKN120 BKN220 06/M04 A2994 RMK SC1AC7CI1 SLP192

CYYC;2009-11-25 18:00;CYYC 251800Z 13002KT 40SM FEW045 SCT120 BKN170 07/M04 A2995 RMK CU1AC3AC4 VIRGA S+NW SLP180

CYYC;2009-11-25 19:00;CYYC 251900Z CCA 22004KT 40SM FEW048 SCT120 SCT160 BKN220 10/M03 A2992 RMK CU1AC3AC1CI3 VIRGA S-N SLP172

CYYC;2009-11-25 20:00;CYYC 252000Z 21005KT 40SM FEW048 FEW120 BKN180 BKN230 11/M02 A2989 RMK CU1AC2AC3CI2 VIRGA SE+NW SLP163

CYYC;2009-11-25 21:00;CYYC 252100Z 26017G27KT 40SM VCSH FEW060 BKN110 BKN180 14/M01 A2985 RMK CU1AC5AC2 SH SE SLP140

CYYC;2009-11-25 22:00;CYYC 252200Z 26016KT 40SM FEW060 BKN110 BKN180 BKN210 14/M01 A2987 RMK CU1AC5AC1CI2 SLP144

CYYC;2009-11-25 23:00;CYYC 252300Z 27010KT 40SM FEW060 FEW110 SCT180 BKN220 14/M02 A2986 RMK CU1AC2AC2CI2 SLP141

CYYC;2009-11-26 00:00;CYYC 260000Z 27012G20KT 40SM FEW060 BKN140 BKN180 BKN220 13/M01 A2985 RMK SC1AC5AC1CI1 SLP143

CYYC;2009-11-26 01:00;CYYC 260100Z 26017G25KT 15SM FEW060 FEW140 BKN190 12/M01 A2983 RMK SC1AC2AC2 SLP135

CYYC;2009-11-26 02:00;CYYC 260200Z 19007KT 15SM FEW150 FEW190 08/M02 A2983 RMK AC1AC2 SLP135

CYYC;2009-11-26 03:00;CYYC 260300Z 20006KT 15SM FEW240 06/M02 A2980 RMK CI1 SLP132

CYYC;2009-11-26 04:00;CYYC 260400Z 22005KT 15SM BKN240 07/M02 A2978 RMK CI3 SLP125

CYYC;2009-11-26 05:00;CYYC 260500Z 04002KT 15SM BKN250 05/M02 A2978 RMK CI2 SLP125

CYYC;2009-11-26 06:00;CYYC 260600Z 20006KT 15SM BKN250 08/M02 A2976 RMK CI2 SLP101

CYYC;2009-11-26 07:00;CYYC 260700Z 18002KT 15SM BKN250 12/M02 A2977 RMK CI2 SLP102

CYYC;2009-11-26 08:00;CYYC 260800Z 29008G15KT 15SM BKN250 11/M02 A2978 RMK CI2 SLP105

CYYC;2009-11-26 09:00;CYYC 260900Z 28006KT 15SM BKN250 06/M03 A2977 RMK CI2 SLP098

CYYC;2009-11-26 10:00;CYYC 261000Z 21005KT 15SM BKN250 05/M03 A2978 RMK CI2 SLP101

CYYC;2009-11-26 11:00;CYYC 261100Z 23003KT 15SM BKN250 08/M02 A2978 RMK CI2 SLP099

CYYC;2009-11-26 12:00;CYYC 261200Z 04003KT 15SM BKN240 02/M04 A2977 RMK CI4 SLP105

CYYC;2009-11-26 13:00;CYYC 261300Z 36002KT 15SM BKN250 03/M03 A2974 RMK CI2 SLP096

CYYC;2009-11-26 14:00;CYYC 261400Z 00000KT 15SM FEW100 BKN250 04/M03 A2975 RMK AC1CI2 SLP099

CYYC;2009-11-26 15:00;CYYC 261500Z 00000KT 40SM FEW100 BKN250 03/M03 A2974 RMK AC2CI1 SLP102

CYYC;2009-11-26 16:00;CYYC 261600Z 23003KT 40SM FEW100 FEW180 BKN240 03/M02 A2973 RMK AC1AS2CI1 SLP101

CYYC;2009-11-26 17:00;CYYC 261700Z 00000KT 40SM SCT085 BKN180 OVC240 06/M00 A2973 RMK AC4AS2CI1 SLP099

CYYC;2009-11-26 18:00;CYYC 261800Z 04013KT 40SM FEW085 FEW210 BKN240 08/M02 A2973 RMK AC1CI2CI0 SH DIST SW SLP088

CYYC;2009-11-26 19:00;CYYC 261900Z 36006KT 40SM FEW085 FEW210 BKN240 06/M02 A2973 RMK AC1CI1CI0 SH DIST SW SLP088

CYYC;2009-11-26 20:00;CYYC 262000Z 35009KT 40SM FEW085 FEW210 BKN240 07/M02 A2971 RMK AC1CI2CI0 SLP082

CYYC;2009-11-26 21:00;CYYC 262100Z 36006KT 40SM FEW085 FEW180 BKN240 07/M02 A2970 RMK AC1AS1CI0 HZ / VIS S-W LWR SLP081

CYYC;2009-11-26 22:00;CYYC 262200Z 01004KT 40SM FEW085 SCT180 BKN240 06/M02 A2970 RMK AC1AS2CI0 SLP082

CYYC;2009-11-26 23:00;CYYC 262300Z 04004KT 30SM FEW080 SCT180 BKN240 05/M02 A2970 RMK AC1AS2CI2 SLP083

CYYC;2009-11-27 00:00;CYYC 270000Z 36009KT 30SM FEW080 FEW180 BKN220 01/M03 A2971 RMK AC1AS1CI2 AC TR SLP101

CYYC;2009-11-27 01:00;CYYC 270100Z 34011KT 15SM FEW070 FEW180 FEW220 01/M02 A2974 RMK AC1AS1CI0 AC TR SLP110

CYYC;2009-11-27 02:00;CYYC 270200Z 36010KT 15SM BKN025 01/M01 A2977 RMK SC4 SLP119

CYYC;2009-11-27 03:00;CYYC 270300Z 36013KT 15SM FEW023 BKN031 02/M00 A2978 RMK SC2SC3 SLP121

CYYC;2009-11-27 03:24;CYYC 270324Z 36018KT 15SM BKN011 BKN023 OVC030 03/ RMK SC5SC2SC2

CYYC;2009-11-27 04:00;CYYC 270400Z 02015KT 10SM BKN009 OVC013 02/M00 A2980 RMK SC5SC3 SLP128

CYYC;2009-11-27 04:34;CYYC 270434Z 36009KT 15SM SCT009 BKN024 OVC033 01/ RMK SC4SC2SC2

CYYC;2009-11-27 05:00;CYYC 270500Z 35007KT 15SM FEW009 BKN031 BKN044 01/M01 A2982 RMK SC1SC5SC2 SLP132

CYYC;2009-11-27 06:00;CYYC 270600Z 29003KT 15SM BKN048 01/M01 A2982 RMK SC7 SLP129

CYYC;2009-11-27 07:00;CYYC 270700Z 25006KT 15SM OVC050 02/M02 A2983 RMK SC8 SLP133

CYYC;2009-11-27 08:00;CYYC 270800Z 23004KT 15SM SCT050 BKN063 01/M02 A2984 RMK SC3SC4 SLP137

CYYC;2009-11-27 09:00;CYYC 270900Z 21003KT 15SM FEW050 SCT065 BKN080 01/M02 A2983 RMK SC1SC2AC4 SLP135

CYYC;2009-11-27 10:00;CYYC 271000Z 00000KT 15SM FEW065 BKN078 M00/M03 A2983 RMK SC1AC6 SLP135

CYYC;2009-11-27 11:00;CYYC 271100Z 36003KT 15SM BKN084 BKN170 M01/M03 A2982 RMK AC5AC2 SLP131

CYYC;2009-11-27 12:00;CYYC 271200Z 04002KT 15SM BKN088 M02/M04 A2982 RMK AC7 SLP142

CYYC;2009-11-27 13:00;CYYC 271300Z 35005KT 15SM SCT048 OVC088 M01/M03 A2980 RMK SC3AC5 SLP138

CYYC;2009-11-27 14:00;CYYC 271400Z 01004KT 15SM BKN049 OVC090 M01/M03 A2980 RMK SC5AC3 SLP138

CYYC;2009-11-27 15:00;CYYC 271500Z 00000KT 15SM FEW050 BKN090 OVC120 M01/M03 A2979 RMK SC2AC3AC2 SLP131

CYYC;2009-11-27 16:00;CYYC 271600Z 00000KT 20SM FEW050 FEW090 OVC120 M01/M03 A2980 RMK SC1AC1AC6 SLP134

CYYC;2009-11-27 17:00;CYYC 271700Z 00000KT 15SM BKN052 BKN085 OVC120 M01/M03 A2982 RMK SC5AC1AC3 SLP138

CYYC;2009-11-27 17:48;CYYC 271748Z 34003KT 10SM -SN BKN052 OVC120 M01/ RMK SC6AC2

CYYC;2009-11-27 18:00;CYYC 271800Z 06002KT 10SM -SN BKN050 OVC060 M00/M03 A2982 RMK SC6SC2 SLP140

CYYC;2009-11-27 18:43;CYYC 271843Z 30003KT 8SM -SN BKN012 OVC050 00/ RMK SC5SC3

CYYC;2009-11-27 18:53;CYYC 271853Z 32003KT 2 1/2SM -SN OVC012 00/ RMK SC8 VIS SE-SW 5

CYYC;2009-11-27 19:00;CYYC 271900Z 33004KT 3/4SM -SN OVC013 M00/M02 A2982 RMK SC8 VIS SE 3 SLP141

CYYC;2009-11-27 19:07;CYYC 271907Z 33005KT 3/8SM SN SCT004 OVC013 M00/ RMK SC3SC5

CYYC;2009-11-27 19:30;CYYC 271930Z 03003KT 3/4SM -SN BKN004 OVC012 M00/ RMK SC5SC3

CYYC;2009-11-27 19:37;CYYC 271937Z 04003KT 1 1/2SM -SN BKN004 OVC012 M00/ RMK SC6SC2

CYYC;2009-11-27 20:00;CYYC 272000Z 02004KT 1 1/2SM -SN SCT006 OVC016 M00/M01 A2982 RMK SC3SC5 /S02/ SLP141

CYYC;2009-11-27 20:18;CYYC 272018Z 02006KT 1 1/2SM -SN SCT004 OVC009 M00/ RMK SC3SC5

CYYC;2009-11-27 20:28;CYYC 272028Z 36008KT 3/4SM -SN FEW004 OVC009 M00/ RMK SC2SC6

CYYC;2009-11-27 21:00;CYYC 272100Z 36009KT 1 1/2SM -SN FEW006 OVC015 M00/M01 A2983 RMK SC2SC6 SLP146

CYYC;2009-11-27 21:12;CYYC 272112Z 36010KT 8SM -SN FEW010 OVC020 M00/ RMK SC2SC6 VIS S 3

CYYC;2009-11-27 21:39;CYYC 272139Z 36019KT 3/4SM -SN FEW006 OVC013 M01/ RMK SC2SC6 VIS S 3

CYYC;2009-11-27 21:46;CYYC 272146Z 02017G22KT 1 1/2SM -SN FEW006 OVC024 M02/ RMK SC2SC6 VIS S 3/4 / WSHFT 2145

CYYC;2009-11-27 22:00;CYYC 272200Z 02014G24KT 5SM -SG OVC020 M02/M03 A2986 RMK SC8 SLP156

CYYC;2009-11-27 22:31;CYYC 272231Z 02015KT 2 1/2SM -SG OVC030 M02/ RMK SC8

CYYC;2009-11-27 22:44;CYYC 272244Z 01013KT 1 1/2SM -SG BKN013 OVC020 M02/ RMK SC6SC2

CYYC;2009-11-27 22:54;CYYC 272254Z 02010G15KT 3/4SM -SN BKN006 OVC016 M02/ RMK SC6SC2

CYYC;2009-11-27 23:00;CYYC 272300Z 01010KT 3/4SM -SN BKN008 OVC016 M02/M04 A2991 RMK SC6SC2 SLP169

CYYC;2009-11-28 00:00;CYYC 280000Z 01009KT 1SM -SN BKN005 OVC014 M03/M04 A2993 RMK SC6SC2 VIS VRB 1/2 - 11/2 / /S03 / / RVR RWY 34 4500 + 28 6000+ FT SLP188

CYYC;2009-11-28 00:32;CYYC 280032Z 01010KT 1 1/2SM -SN BKN006 OVC014 M03/ RMK SC5SC3

CYYC;2009-11-28 00:48;CYYC 280048Z 04005KT 1 1/2SM -SN FEW004 SCT015 BKN100 M03/ RMK SC2SC2AC0

CYYC;2009-11-28 00:54;CYYC 280054Z 36006KT 5SM -SN FEW015 FEW050 SCT100 M04/ RMK SC2SC1AC0

CYYC;2009-11-28 01:00;CYYC 280100Z 35006KT 8SM -SN FEW015 SCT050 M04/M05 A2995 RMK SC2SC2 SLP193

CYYC;2009-11-28 01:30;CYYC 280130Z 29002KT 15SM FEW015 FEW050 FEW090 M04/ RMK SC1SC1AC0

CYYC;2009-11-28 02:00;CYYC 280200Z 29004KT 15SM BKN008 M04/M06 A2995 RMK SC4 SLP195

CYYC;2009-11-28 02:44;CYYC 280244Z 27004KT 15SM FEW008 M05/ RMK SC2

CYYC;2009-11-28 03:00;CYYC 280300Z 25007KT 15SM FEW008 M06/M07 A2995 RMK SC1 SLP200

CYYC;2009-11-28 04:00;CYYC 280400Z 24010KT 15SM FEW008 M06/M07 A2995 RMK SC0 SLP199

CYYC;2009-11-28 05:00;CYYC 280500Z 20004KT 15SM FEW008 M06/M07 A2995 RMK SC1 SC TR SLP199

CYYC;2009-11-28 06:00;CYYC 280600Z CCA 00000KT 15SM FEW010 FEW025 M07/M09 A2995 RMK CF1SC1 CF TR NW//S02/ SLP200

CYYC;2009-11-28 07:00;CYYC 280700Z 25005KT 15SM FEW025 M06/M07 A2995 RMK SC1 FROIN SLP200

CYYC;2009-11-28 08:00;CYYC 280800Z 20005KT 15SM FEW025 M09/M09 A2994 RMK SC1 SC TR/FROIN SLP197

CYYC;2009-11-28 09:00;CYYC 280900Z 19005KT 15SM FEW025 M10/M12 A2993 RMK SC1 SC TR SLP198

CYYC;2009-11-28 10:00;CYYC 281000Z 18005KT 15SM FEW170 M10/M12 A2993 RMK AC1 FROIN SLP196

CYYC;2009-11-28 11:00;CYYC 281100Z 17002KT 15SM FEW130 SCT160 M09/M12 A2992 RMK AC1AC2 SLP195

CYYC;2009-11-28 12:00;CYYC 281200Z 00000KT 15SM FEW090 FEW130 M07/M11 A2992 RMK AC1AC0 SLP193

CYYC;2009-11-28 13:00;CYYC 281300Z 00000KT 15SM FEW130 M03/M10 A2992 RMK AC0 SLP191

CYYC;2009-11-28 14:00;CYYC 281400Z 30006KT 15SM FEW080 FEW110 M02/M11 A2992 RMK AC1AC0 SLP193

CYYC;2009-11-28 15:00;CYYC 281500Z 01002KT 40SM FEW080 FEW100 M02/M10 A2993 RMK AC1AC1 SLP195

CYYC;2009-11-28 16:00;CYYC 281600Z 29008KT 40SM FEW110 BKN240 M02/M10 A2994 RMK AC2CI1 SLP196

CYYC;2009-11-28 17:00;CYYC 281700Z 27012KT 40SM FEW090 BKN240 M00/M10 A2994 RMK AC2CI2 SLP198

CYYC;2009-11-28 18:00;CYYC 281800Z 27012KT 40SM FEW090 SCT110 BKN220 01/M09 A2995 RMK AC1AC2CS1 HALO SLP196

CYYC;2009-11-28 19:00;CYYC 281900Z CCA 28011KT 40SM FEW050 BKN110 BKN220 02/M09 A2994 RMK SC1AC6CS0 HALO SLP193

CYYC;2009-11-28 20:00;CYYC 282000Z 29006KT 40SM FEW050 FEW080 BKN110 OVC220 02/M08 A2992 RMK SC1AC2AC3CI0 SLP187

CYYC;2009-11-28 21:00;CYYC 282100Z 27010KT 40SM FEW050 FEW080 OVC200 03/M08 A2991 RMK SC1AC2CI2 SLP186

CYYC;2009-11-28 22:00;CYYC 282200Z 27010KT 40SM FEW050 FEW100 BKN200 03/M08 A2990 RMK SC1AC2CI2 SLP183

CYYC;2009-11-28 23:00;CYYC 282300Z 29006KT 40SM FEW050 FEW150 BKN200 02/M09 A2990 RMK SC1AC2CI2 SLP183

CYYC;2009-11-29 00:00;CYYC 290000Z 31006KT 40SM FEW040 FEW130 FEW170 BKN200 01/M09 A2990 RMK SC1AC1AC2CI1 SC+LWR AC TR SLP180

CYYC;2009-11-29 01:00;CYYC 290100Z 23005KT 15SM FEW170 BKN210 M00/M09 A2990 RMK AC2CI1 SLP179

CYYC;2009-11-29 02:00;CYYC 290200Z 14002KT 15SM FEW210 M03/M10 A2989 RMK CI0 SLP178

CYYC;2009-11-29 03:00;CYYC 290300Z 19003KT 15SM FEW210 M03/M09 A2989 RMK CI0 SLP173

CYYC;2009-11-29 04:00;CYYC 290400Z 25008KT 15SM FEW210 03/M08 A2988 RMK CI1 SLP171

CYYC;2009-11-29 05:00;CYYC 290500Z 27013KT 15SM FEW150 03/M07 A2987 RMK AC1 SLP168

CYYC;2009-11-29 06:00;CYYC 290600Z 27014KT 15SM FEW180 03/M07 A2987 RMK AC0 SLP155

CYYC;2009-11-29 07:00;CYYC 290700Z CCA 27013KT 15SM FEW090 FEW180 03/M07 A2988 RMK AC1AC0 SLP157

CYYC;2009-11-29 08:00;CYYC 290800Z 26010KT 15SM FEW090 03/M07 A2985 RMK AC1 SLP150

CYYC;2009-11-29 09:00;CYYC 290900Z 26015KT 15SM FEW090 03/M07 A2985 RMK AC1 SLP147

CYYC;2009-11-29 10:00;CYYC 291000Z 27011G16KT 15SM FEW090 04/M06 A2987 RMK AC1 SLP151

CYYC;2009-11-29 11:00;CYYC 291100Z 27012KT 15SM FEW180 05/M06 A2987 RMK AC1 SLP151

CYYC;2009-11-29 12:00;CYYC 291200Z 27012KT 15SM FEW130 FEW180 05/M05 A2987 RMK AC1AC1 SLP153

CYYC;2009-11-29 13:00;CYYC 291300Z 27016KT 15SM FEW200 06/M05 A2988 RMK CI0 SLP155

CYYC;2009-11-29 14:00;CYYC 291400Z 26015KT 15SM FEW180 FEW200 05/M05 A2987 RMK AC1CI1 SLP151

CYYC;2009-11-29 15:00;CYYC 291500Z 27013KT 40SM FEW100 BKN120 06/M04 A2988 RMK AC2AC3 SLP159

CYYC;2009-11-29 16:00;CYYC 291600Z 26011KT 40SM FEW050 SCT100 BKN120 07/M04 A2990 RMK SC1AC3AC2 SLP164

CYYC;2009-11-29 17:00;CYYC 291700Z 27015KT 40SM FEW050 SCT100 BKN180 BKN200 07/M04 A2990 RMK SC1AC3AC2CI0 SLP164

CYYC;2009-11-29 18:00;CYYC 291800Z 26009KT 40SM FEW050 FEW100 SCT180 BKN210 08/M03 A2989 RMK SC1AC1AC2CI1 SC TR SLP154

CYYC;2009-11-29 19:00;CYYC 291900Z 25012G17KT 40SM FEW050 FEW100 BKN180 OVC210 08/M04 A2988 RMK SC1AC1AC4CI0 SLP151

CYYC;2009-11-29 20:00;CYYC 292000Z 26018KT 40SM FEW050 FEW180 OVC230 08/M04 A2987 RMK SC1AC2CI2 SLP147

CYYC;2009-11-29 21:00;CYYC 292100Z 25011KT 40SM FEW050 FEW150 SCT180 BKN230 09/M04 A2987 RMK SC1AC1AC2CI2 SC TR SLP143

CYYC;2009-11-29 22:00;CYYC 292200Z 23011KT 40SM FEW050 FEW150 BKN210 09/M04 A2985 RMK SC1AC2CI2 SLP138

CYYC;2009-11-29 23:00;CYYC 292300Z 22009KT 40SM FEW050 FEW150 BKN240 08/M03 A2985 RMK SC1AC2CI2 SLP139

CYYC;2009-11-30 00:00;CYYC 300000Z 21013KT 40SM FEW050 FEW180 BKN240 07/M04 A2985 RMK SC1AC2CI2 SLP137

CYYC;2009-11-30 01:00;CYYC 300100Z 23011KT 15SM FEW180 BKN240 05/M04 A2984 RMK AC2CI2 SLP131

CYYC;2009-11-30 02:00;CYYC 300200Z 23015KT 15SM BKN250 06/M04 A2982 RMK CI2 SLP125

CYYC;2009-11-30 03:00;CYYC 300300Z 22012KT 15SM FEW240 BKN260 06/M04 A2982 RMK CI1CI0 SLP124

CYYC;2009-11-30 04:00;CYYC 300400Z 21007KT 15SM FEW240 BKN260 04/M05 A2984 RMK CI1CI0 SLP130

CYYC;2009-11-30 05:00;CYYC 300500Z 35007KT 15SM SCT020 BKN260 M00/M03 A2991 RMK SC2CS0 SLP153

CYYC;2009-11-30 06:00;CYYC 300600Z 35007KT 15SM FEW020 FEW120 BKN260 M01/M03 A2990 RMK SC1AC1CI0 SLP161

CYYC;2009-11-30 07:00;CYYC 300700Z 35007KT 15SM FEW020 FEW120 FEW260 M01/M03 A2991 RMK SC1AC1CI0 SLP164

CYYC;2009-11-30 08:00;CYYC 300800Z 29003KT 15SM FEW020 FEW260 M02/M04 A2990 RMK SC1CI1 SLP163

CYYC;2009-11-30 09:00;CYYC 300900Z 22003KT 15SM SCT030 BKN260 M02/M03 A2989 RMK SC4CI0 SLP159

CYYC;2009-11-30 10:00;CYYC 301000Z 22004KT 15SM BKN030 M02/M03 A2989 RMK SC6 SLP157

CYYC;2009-11-30 11:00;CYYC 301100Z 20007KT 15SM FEW030 FEW260 M02/M04 A2985 RMK SC1CI1 SLP144

CYYC;2009-11-30 12:00;CYYC 301200Z 20005KT 15SM FEW260 M03/M04 A2981 RMK CI1 SLP132

CYYC;2009-11-30 13:00;CYYC 301300Z 16003KT 15SM FEW260 M05/M06 A2978 RMK CI1 SLP123

CYYC;2009-11-30 14:00;CYYC 301400Z 18006KT 15SM FEW260 M06/M07 A2971 RMK CI1 FROIN SLP104

CYYC;2009-11-30 15:00;CYYC 301500Z 14004KT 30SM FEW140 BKN200 M04/M06 A2968 RMK AC1CI2 SLP092

CYYC;2009-11-30 16:00;CYYC 301600Z CCA 16003KT 10SM FEW160 BKN220 M03/M04 A2964 RMK AC1CI3 FROIN SLP079

CYYC;2009-11-30 17:00;CYYC 301700Z 16002KT 2SM -SN BR SCT004 SCT150 BKN210 M03/M04 A2960 RMK SC3AC1CI2 VIS SE 3/4 / FROIN SLP068

CYYC;2009-11-30 17:15;CYYC 301715Z 14002KT 1 1/2SM -SN BR BKN003 BKN150 BKN210 M04/ RMK SC6AC1CI1

CYYC;2009-11-30 17:55;CYYC 301755Z 00000KT 3SM BR SCT002 BKN140 M03/ RMK SC2AC1 VI SE-SW 1

CYYC;2009-11-30 18:00;CYYC 301800Z 00000KT 3SM BR SCT002 BKN140 M03/M04 A2957 RMK SC2AC1 VI SE-SW 1 SLP062

CYYC;2009-11-30 18:34;CYYC 301834Z CCA 35013KT 3SM -SN BR BKN003 BKN120 M03/ RMK SC6AC1 VIS N-E 1/2 / RVR RWY28 3500FT

CYYC;2009-11-30 18:49;CYYC 301849Z 35013KT 5SM -SN BR SCT005 BKN150 M03/ RMK SC2AC1 VIS NW-SE 1

CYYC;2009-11-30 19:00;CYYC 301900Z 34014G19KT 10SM SCT004 SCT080 BKN170 M01/M03 A2960 RMK SC3AC1AC2 SH NW-S SLP069

CYYC;2009-11-30 20:00;CYYC 302000Z 34019G24KT 1SM -SN BR BKN008 OVC024 M02/M04 A2963 RMK SC5SC3 RVR RWY34 6000+FT SLP078

CYYC;2009-11-30 20:21;CYYC 302021Z 34015G20KT 5/8SM -SN BKN007 OVC018 M02/ RMK SC5SC3 RVR RWY34 6000+FT

CYYC;2009-11-30 21:00;CYYC 302100Z 35015KT 3/4SM -SN BKN009 OVC025 M02/M04 A2965 RMK SC6SC2 RVR RWY34 6000+FT SLP090

CYYC;2009-11-30 21:14;CYYC 302114Z 34014KT 2 1/2SM -SN FEW009 BKN020 OVC036 M02/ RMK SC2SC4SC2

CYYC;2009-11-30 21:30;CYYC 302130Z 35011KT 1SM -SN BKN009 OVC026 M02/ RMK SC7SC1 RVR RWY34 6000+FT

CYYC;2009-11-30 22:00;CYYC 302200Z 35010KT 1 1/4SM -SN BKN014 OVC033 M02/M03 A2970 RMK SC5SC3 /S01/ SLP105

CYYC;2009-11-30 22:52;CYYC 302252Z 34014KT 1SM -SN DRSN BKN008 OVC021 M02/ RMK SC6SC2 RVR RWY34 6000+FT

CYYC;2009-11-30 23:00;CYYC 302300Z 35016KT 1SM -SN DRSN BKN006 OVC018 M02/M03 A2974 RMK SC6SC2 RVR RWY34 5500FT SLP117

CYYC;2009-11-30 23:38;CYYC 302338Z 36026G38KT 1/2SM -SN BLSN BKN008 OVC025 M04/ RMK SC6SC2 RVR RWY34 6000+FT

CYYC;2009-11-30 23:48;CYYC 302348Z 36022G28KT 2SM -SN DRSN SCT006 BKN018 OVC030 M04/ REBLSN RMK SC3SC4SC1 VIS N-E 1

CYYC;2009-12-01 01:00;CYYC 010100Z 36018KT 10SM DRSN FEW022 OVC056 M03/M07 A2983 RMK SC1SC8 SH W SLP154

CYYC;2009-12-01 02:00;CYYC 010200Z 35026G31KT 7SM -SN DRSN BKN047 OVC068 M03/M08 A2986 RMK SC5AC3 SH W SLP164

CYYC;2009-12-01 03:00;CYYC 010300Z 34022G29KT 10SM -SN DRSN SCT050 BKN100 M03/M09 A2989 RMK SC3AC2 SLP178

CYYC;2009-12-01 04:00;CYYC 010400Z 34022G28KT 15SM -SN DRSN FEW050 BKN120 M04/M09 A2992 RMK SC2AC3 SLP187

CYYC;2009-12-01 05:00;CYYC 010500Z 33015G28KT 15SM FEW050 BKN150 M04/M09 A2996 RMK SC1AC2 SLP199

CYYC;2009-12-01 06:00;CYYC 010600Z 32011KT 15SM FEW050 BKN150 M06/M10 A2998 RMK SC1AC1 SC TR SLP211

CYYC;2009-12-01 07:00;CYYC 010700Z 32011KT 15SM FEW150 M06/M10 A3001 RMK AC1 SLP219

CYYC;2009-12-01 08:00;CYYC 010800Z 31011G16KT 15SM FEW150 M06/M10 A3002 RMK AC1 SLP224

CYYC;2009-12-01 09:00;CYYC 010900Z 31010G16KT 15SM FEW150 M06/M10 A3005 RMK AC1 SLP234

CYYC;2009-12-01 10:00;CYYC 011000Z 31010KT 15SM FEW150 M06/M12 A3007 RMK AC1 SLP240

CYYC;2009-12-01 11:00;CYYC 011100Z 31009KT 15SM SKC M07/M13 A3008 RMK SLP243

CYYC;2009-12-01 12:00;CYYC 011200Z 31009KT 15SM SKC M08/M14 A3009 RMK SLP255

CYYC;2009-12-01 13:00;CYYC 011300Z 31006KT 15SM SKC M08/M14 A3011 RMK SLP260

CYYC;2009-12-01 14:00;CYYC 011400Z 31010G15KT 15SM FEW250 M08/M14 A3012 RMK CI1 SLP263

CYYC;2009-12-01 15:00;CYYC 011500Z 32007KT 40SM FEW210 M09/M14 A3014 RMK CI1 SLP271

CYYC;2009-12-01 16:00;CYYC 011600Z 31010KT 40SM FEW190 FEW260 M08/M14 A3015 RMK AC1CI0 SLP275

CYYC;2009-12-01 17:00;CYYC 011700Z 30009KT 40SM FEW160 FEW260 M06/M13 A3014 RMK AC1CI0 SLP273

CYYC;2009-12-01 18:00;CYYC 011800Z 32009KT 40SM FEW150 FEW260 M05/M13 A3016 RMK AC1CI1 SLP276

CYYC;2009-12-01 19:00;CYYC 011900Z 32012KT 40SM FEW170 M05/M13 A3015 RMK AC1 SLP274

CYYC;2009-12-01 20:00;CYYC 012000Z 33013KT 40SM SKC M04/M13 A3014 RMK SLP272

CYYC;2009-12-01 21:00;CYYC 012100Z 33013G19KT 40SM FEW040 M04/M14 A3015 RMK SC1 SLP272

CYYC;2009-12-01 22:00;CYYC 012200Z 33010KT 40SM FEW040 FEW280 M05/M14 A3014 RMK SC1CI1 SLP270

CYYC;2009-12-01 23:00;CYYC 012300Z 32004KT 40SM FEW140 FEW280 M05/M14 A3014 RMK AC1CI1 SLP270

CYYC;2009-12-02 00:00;CYYC 020000Z 34006KT 40SM SKC M07/M14 A3015 RMK SLP279

CYYC;2009-12-02 01:00;CYYC 020100Z 29005KT 15SM SKC M09/M14 A3016 RMK SLP282

CYYC;2009-12-02 02:00;CYYC 020200Z 28003KT 15SM SKC M10/M15 A3016 RMK SLP283

CYYC;2009-12-02 03:00;CYYC 020300Z 28003KT 15SM SKC M11/M16 A3017 RMK SLP295

CYYC;2009-12-02 04:00;CYYC 020400Z 31005KT 15SM SKC M13/M16 A3018 RMK SLP297

CYYC;2009-12-02 05:00;CYYC 020500Z 00000KT 15SM SKC M13/M16 A3019 RMK SLP300

CYYC;2009-12-02 06:00;CYYC 020600Z 19003KT 15SM SKC M13/M17 A3020 RMK SLP300

CYYC;2009-12-02 07:00;CYYC 020700Z 21002KT 15SM SKC M14/M16 A3021 RMK SLP304

CYYC;2009-12-02 08:00;CYYC 020800Z 19002KT 15SM SKC M14/M16 A3022 RMK FROIN SLP306

CYYC;2009-12-02 09:00;CYYC 020900Z 22002KT 15SM SKC M14/M17 A3023 RMK SLP311

CYYC;2009-12-02 10:00;CYYC 021000Z 34004KT 15SM SKC M14/M17 A3024 RMK SLP315

CYYC;2009-12-02 11:00;CYYC 021100Z 26002KT 15SM SKC M14/M17 A3024 RMK SLP315

CYYC;2009-12-02 12:00;CYYC 021200Z 00000KT 15SM SKC M14/M17 A3024 RMK FROIN SLP320

CYYC;2009-12-02 13:00;CYYC 021300Z 00000KT 15SM SKC M13/M17 A3024 RMK SLP321

CYYC;2009-12-02 14:00;CYYC 021400Z 00000KT 15SM SKC M15/M19 A3026 RMK SLP325

CYYC;2009-12-02 15:00;CYYC 021500Z 00000KT 40SM SKC M15/M18 A3026 RMK SLP336

CYYC;2009-12-02 16:00;CYYC 021600Z 30004KT 40SM FEW180 M15/M19 A3027 RMK AC1 SLP339

CYYC;2009-12-02 17:00;CYYC 021700Z 31003KT 40SM FEW180 M13/M17 A3029 RMK AC1 SLP343

CYYC;2009-12-02 18:00;CYYC 021800Z 00000KT 40SM FEW180 M11/M16 A3030 RMK AC1 SLP344

CYYC;2009-12-02 19:00;CYYC 021900Z 35003KT 40SM FEW180 M08/M15 A3029 RMK AC1 SLP342

CYYC;2009-12-02 20:00;CYYC 022000Z 01003KT 40SM FEW160 M07/M15 A3028 RMK AC1 SLP339

CYYC;2009-12-02 21:00;CYYC 022100Z CCA 35002KT 40SM FEW140 M07/M15 A3027 RMK AC1 SLP331

CYYC;2009-12-02 22:00;CYYC 022200Z 00000KT 40SM SKC M06/M15 A3027 RMK SLP332

CYYC;2009-12-02 23:00;CYYC 022300Z 12005KT 40SM SKC M07/M15 A3028 RMK FU ALF SE SLP333

CYYC;2009-12-03 00:00;CYYC 030000Z 14005KT 40SM FEW240 M11/M15 A3028 RMK CI1 SLP341

CYYC;2009-12-03 01:00;CYYC 030100Z 18005KT 15SM SKC M12/M16 A3028 RMK SLP341

CYYC;2009-12-03 02:00;CYYC 030200Z 17005KT 15SM SKC M11/M15 A3028 RMK SLP340

CYYC;2009-12-03 03:00;CYYC 030300Z 19004KT 15SM SKC M11/M15 A3027 RMK SLP337

CYYC;2009-12-03 04:00;CYYC 030400Z 19004KT 15SM SKC M14/M17 A3026 RMK SLP334

CYYC;2009-12-03 05:00;CYYC 030500Z 21006KT 15SM SKC M14/M16 A3025 RMK SLP332

CYYC;2009-12-03 06:00;CYYC 030600Z 22004KT 15SM SKC M16/M18 A3024 RMK SLP327

CYYC;2009-12-03 07:00;CYYC 030700Z 18004KT 15SM SKC M17/M20 A3023 RMK SLP325

CYYC;2009-12-03 08:00;CYYC 030800Z 00000KT 15SM SKC M17/M20 A3022 RMK SLP321

CYYC;2009-12-03 09:00;CYYC 030900Z 00000KT 15SM SKC M17/M20 A3021 RMK SLP314

CYYC;2009-12-03 10:00;CYYC 031000Z 20005KT 15SM SKC M17/M21 A3020 RMK SLP311

CYYC;2009-12-03 11:00;CYYC 031100Z 23004KT 15SM SKC M17/M21 A3019 RMK FROIN SLP308

CYYC;2009-12-03 12:00;CYYC 031200Z CCA 21002KT 15SM SKC M17/M20 A3018 RMK FROIN/SN CVR/MEDIUM PACK SLP310

CYYC;2009-12-03 13:00;CYYC 031300Z 20006KT 15SM FEW180 M18/M22 A3017 RMK AC1 SLP308

CYYC;2009-12-03 14:00;CYYC 031400Z 20006KT 15SM FEW260 M17/M21 A3017 RMK CI0 SLP307

CYYC;2009-12-03 15:00;CYYC 031500Z 21005KT 40SM FEW260 M16/M21 A3015 RMK CI0 SLP300

CYYC;2009-12-03 16:00;CYYC 031600Z 21006KT 40SM FEW210 FEW260 M15/M20 A3014 RMK CI1CI0 SLP297

CYYC;2009-12-03 17:00;CYYC 031700Z 20006KT 40SM FEW210 BKN260 M12/M18 A3014 RMK CI1CI0 SLP296

CYYC;2009-12-03 18:00;CYYC 031800Z 20006KT 40SM FEW210 BKN260 M09/M15 A3012 RMK CI1CI0 SLP285

CYYC;2009-12-03 19:00;CYYC 031900Z 19007KT 40SM FEW250 M07/M15 A3009 RMK CI0 SLP275

CYYC;2009-12-03 20:00;CYYC 032000Z 19006KT 40SM BKN250 M05/M13 A3007 RMK CI1 CONTRAILS SLP269

CYYC;2009-12-03 21:00;CYYC 032100Z 19006KT 40SM SCT250 M05/M12 A3006 RMK CI1 CONTRAILS SLP257

CYYC;2009-12-03 22:00;CYYC 032200Z 18006KT 40SM FEW100 SCT210 OVC260 M06/M12 A3002 RMK AC1CI1CI0 CONTRAILS / AC TR SLP247

CYYC;2009-12-03 23:00;CYYC 032300Z 18007KT 40SM FEW150 SCT210 OVC260 M06/M12 A3000 RMK AC1CI2CI0 CONTRAILS / AC TR SLP241

CYYC;2009-12-04 00:00;CYYC 040000Z 19005KT 40SM SCT180 BKN210 OVC260 M07/M13 A2999 RMK AS3CI2CI0 SLP236

CYYC;2009-12-04 01:00;CYYC 040100Z 17007KT 15SM SCT190 BKN210 M08/M12 A2995 RMK AS2CI2 SLP225

CYYC;2009-12-04 02:00;CYYC 040200Z 19007KT 15SM FEW160 M07/M12 A2991 RMK AC1 SLP214

CYYC;2009-12-04 03:00;CYYC 040300Z 21006KT 15SM FEW160 FEW220 M09/M12 A2988 RMK AC1CI0 SLP202

CYYC;2009-12-04 04:00;CYYC 040400Z 18006KT 15SM FEW160 FEW220 M09/M12 A2985 RMK AC1CI0 SLP190

CYYC;2009-12-04 05:00;CYYC 040500Z 21006KT 15SM FEW180 SCT220 M08/M11 A2982 RMK AC1CI1 SLP182

CYYC;2009-12-04 06:00;CYYC 040600Z 20006KT 15SM SCT220 M07/M11 A2978 RMK CI1 SLP152

CYYC;2009-12-04 07:00;CYYC 040700Z 21006KT 15SM FEW120 SCT150 M06/M11 A2975 RMK AC2AC0 LWR AC FLOCCUS SLP142

CYYC;2009-12-04 08:00;CYYC 040800Z CCA 19005KT 15SM SCT100 M05/M09 A2970 RMK AC3 FLOCCUS SLP129

CYYC;2009-12-04 09:00;CYYC 040900Z 21005KT 15SM FEW180 M04/M10 A2968 RMK AC2 SLP106

CYYC;2009-12-04 10:00;CYYC 041000Z 00000KT 15SM FEW050 FEW120 SCT180 M04/M09 A2967 RMK CF1AC2AC1 CF TR/ALL AC FLOCCUS SLP103

CYYC;2009-12-04 11:00;CYYC 041100Z 03002KT 15SM SCT085 M04/M08 A2963 RMK AC2 FLOCCUS SLP092

CYYC;2009-12-04 12:00;CYYC 041200Z CCA 33017G28KT 15SM BKN080 01/M10 A2966 RMK AC3 SN CVR/MEDIUM PACK/PRESRR SLP096

CYYC;2009-12-04 13:00;CYYC 041300Z 33015G20KT 15SM FEW080 SCT120 M00/M07 A2966 RMK AC1AC2 SLP097

CYYC;2009-12-04 14:00;CYYC 041400Z 33016KT 15SM BKN120 M01/M06 A2966 RMK AC6 SLP096

CYYC;2009-12-04 15:00;CYYC 041500Z 33023G31KT 15SM -SN FEW025 SCT076 SCT090 BKN120 M01/M05 A2968 RMK SC2AC2AC1AC2 SLP108

CYYC;2009-12-04 15:20;CYYC 041520Z 33024G31KT 2 1/2SM -SN FEW025 OVC080 M01/ RMK SC2AC5

CYYC;2009-12-04 16:00;CYYC 041600Z 33018G24KT 1 1/2SM -SN FEW030 OVC055 M02/M04 A2969 RMK SC2SC5 SLP111

CYYC;2009-12-04 16:08;CYYC 041608Z CCA 33020G26KT 3/4SM -SN DRSN SCT014 OVC020 M02/ RMK SC3SC5 RVR RWY 34 + 28 6000+ FT

CYYC;2009-12-04 16:15;CYYC 041615Z 34027KT 1/2SM SN DRSN OVC014 M02/ RMK SC8 RVR RWY 34 + 28 6000+ FT

CYYC;2009-12-04 16:26;CYYC 041626Z 35024G30KT 1/4SM SN +BLSN SCT005 OVC017 M03/ RMK SC3SC5 RVR RWY 34 5500 + 28 5000+ FT

CYYC;2009-12-04 16:46;CYYC 041646Z 35021G32KT 1/4SM SN +BLSN BKN004 OVC012 M03/ RMK SC6SC2 RVR RWY 34 2800 + 28 3000 FT

CYYC;2009-12-04 17:00;CYYC 041700Z 35023G29KT 1/4SM SN +BLSN BKN004 OVC015 M03/M04 A2972 RMK SC6SC2 RVR RWY 34 3000 + 28 3000 FT SLP119

CYYC;2009-12-04 18:00;CYYC 041800Z 35019G25KT 1/4SM SN +BLSN BKN004 OVC014 M03/M04 A2972 RMK SC6SC2 RVR RWY 34 4500 + 28 4500 FT / S03/ SLP123

CYYC;2009-12-04 18:19;CYYC 041819Z 35021G28KT 1/2SM SN BLSN BKN007 OVC017 M03/ RMK SC6SC2 RVR RWY 34 + 28 5000 FT

CYYC;2009-12-04 18:34;CYYC 041834Z 35033G38KT 1/4SM SN +BLSN BKN004 OVC012 M03/ RMK SC6SC2 RVR RWY 34 3500 + 28 2400 FT

CYYC;2009-12-04 19:00;CYYC 041900Z 35023G33KT 1/4SM SN +BLSN OVC008 M04/M05 A2973 RMK SC8 RVR RWY 34 3500 + 28 3000 FT /S02/ SLP125

CYYC;2009-12-04 20:00;CYYC 042000Z 35029G35KT 1/8SM SN +BLSN BKN007 OVC020 M04/M05 A2973 RMK SC6SC2 RVR RWY 34 2400 + 28 3000 FT /S04/ SLP126

CYYC;2009-12-04 20:20;CYYC 042020Z 35024G33KT 1/2SM SN BLSN BKN008 OVC018 M04/ RMK SC6SC2 RVR RWY 34 3500 + 28 4500 FT /S04/

CYYC;2009-12-04 21:00;CYYC 042100Z 34028G34KT 1/2SM SN BLSN BKN009 OVC022 M04/M06 A2975 RMK SC6SC2 RVR RWY 34 4000 + 28 2800 FT SLP131

CYYC;2009-12-04 21:35;CYYC 042135Z 34027G36KT 3/4SM -SN BLSN BKN010 OVC025 M04/ RMK SC6SC2 RVR RWY 34 4500 + 28 3000 FT

CYYC;2009-12-04 21:52;CYYC 042152Z 34030G37KT 1/2SM SN BLSN BKN006 OVC016 M05/ RMK SC6SC2 RVR RWY 34 4000 + 28 3000 FT

CYYC;2009-12-04 22:00;CYYC 042200Z 34032G38KT 1/2SM SN BLSN BKN006 OVC016 M05/M06 A2978 RMK SC6SC2 RVR RWY 34 4500 + 28 2600 FT SLP138

CYYC;2009-12-04 22:08;CYYC 042208Z 34027G35KT 1/4SM SN +BLSN BKN005 OVC015 M05/ RMK SC6SC2 RVR RWY 343000 + 28 4000 FT

CYYC;2009-12-04 22:47;CYYC 042247Z 34029G36KT 1/2SM SN BLSN BKN007 OVC020 M05/ RMK SC6SC2 RVR RWY 34 4500 + 28 5000 FT

CYYC;2009-12-04 23:00;CYYC 042300Z 34027G32KT 3/4SM -SN BLSN BKN006 OVC017 M05/M06 A2981 RMK SC6SC2 RVR RWY 34 + 28 6000 FT SLP149

CYYC;2009-12-04 23:15;CYYC 042315Z 34029KT 3/4SM -SN BLSN BKN012 OVC025 M05/ RMK SC6SC2 RVR RWY 34 + 28 5500 FT

CYYC;2009-12-05 00:00;CYYC 050000Z 34029G36KT 1/2SM SN BLSN SCT012 OVC018 M05/M06 A2985 RMK SC4SC4 RVR RWY 34 + 28 6000+ FT SLP157

CYYC;2009-12-05 00:36;CYYC 050036Z 34029G34KT 1/4SM SN +BLSN BKN006 OVC018 M05/ RMK SC6SC2 RVR RWY 34 2600 + 28 1600 FT

CYYC;2009-12-05 01:00;CYYC 050100Z 34026G32KT 1/2SM SN BLSN BKN007 OVC018 M05/M07 A2987 RMK SC6SC2 RVR RWY 34 3000 + 28 4500 FT SLP165

CYYC;2009-12-05 02:00;CYYC 050200Z 34032G37KT 1/2SM SN BLSN BKN007 OVC016 M05/M07 A2989 RMK SC5SC3 RVR RWY 34 3500 + 28 3000 FT /S02/ SLP171

CYYC;2009-12-05 02:21;CYYC 050221Z CCA 34026G35KT 1/2SM SN BLSN BKN004 OVC013 M05/ RMK SC5SC3 RVR RWY 2600FT

CYYC;2009-12-05 03:00;CYYC 050300Z 34025G32KT 1/2SM SN BLSN BKN004 OVC015 M05/M06 A2993 RMK SC5SC3 RVR RWY 34 3500FT SLP188

CYYC;2009-12-05 04:00;CYYC 050400Z CCA 34025G31KT 5/8SM -SN BLSN BKN006 OVC017 M05/M07 A2995 RESN RMK SC5SC3 RVR RWY 34 6000FT SLP196

CYYC;2009-12-05 04:50;CYYC 050450Z 36029KT 3/8SM SN BLSN VV003 M05/ RMK SN8

CYYC;2009-12-05 05:00;CYYC 050500Z 35033G40KT 1/8SM SN +BLSN VV003 M06/M08 A2999 RMK SN8 RVR RWY 34 1600FT//S03/ SLP206

CYYC;2009-12-05 05:30;CYYC 050530Z 36026G36KT 3/8SM SN BLSN VV006 M06/ RMK SN8 RVR RWY 34 5000 FT

CYYC;2009-12-05 06:00;CYYC 050600Z 36020G29KT 1/2SM SN BLSN VV005 M06/M07 A3003 RMK SN8 RVR RWY 34 6000FT//S01/ SLP229

CYYC;2009-12-05 07:00;CYYC 050700Z 34032KT 1/2SM -SN BLSN BKN007 OVC021 M06/M08 A3005 RMK SN2SC4SC2 SLP234

CYYC;2009-12-05 08:00;CYYC 050800Z 34031G36KT 5/8SM -SN BLSN BKN009 OVC027 M06/M08 A3007 RMK SN2SC4SC2 SLP242

CYYC;2009-12-05 08:15;CYYC 050815Z 34031G39KT 1SM -SN BLSN BKN019 OVC039 M06/ RMK SN2SC5SC1

CYYC;2009-12-05 08:27;CYYC 050827Z 34033G41KT 1/2SM -SN BLSN BKN011 OVC023 M06/ RMK SN2SC4SC1

CYYC;2009-12-05 09:00;CYYC 050900Z 34032KT 3/4SM -SN BLSN BKN015 OVC036 M06/M09 A3009 RMK SN2SC4SC2 SLP254

CYYC;2009-12-05 09:29;CYYC 050929Z 34034G41KT 1/2SM -SN BLSN BKN007 OVC019 M07/ RMK SN2SC4SC1

CYYC;2009-12-05 09:53;CYYC 050953Z 34028G39KT 1SM -SN BLSN BKN009 OVC021 M07/ RMK SN2SC3SC2

CYYC;2009-12-05 10:00;CYYC 051000Z 34028G35KT 1SM -SN BLSN BKN011 OVC024 M07/M09 A3013 RMK SN2SC3SC2 SLP265

CYYC;2009-12-05 10:28;CYYC 051028Z 34029G35KT 1 1/2SM -SN BLSN BKN030 OVC060 M07/ RMK SC5SC2

CYYC;2009-12-05 11:00;CYYC 051100Z 34030KT 2 1/2SM -SN BLSN SCT014 BKN040 OVC060 M07/M10 A3015 RMK SC3SC2SC2 SLP271

CYYC;2009-12-05 11:27;CYYC 051127Z 34029G36KT 1 3/4SM -SN BLSN FEW009 BKN012 OVC035 M07/ RMK SC2SC3SC2

CYYC;2009-12-05 12:00;CYYC 051200Z 34028G34KT 1 3/4SM -SN BLSN BKN015 BKN030 OVC058 M08/M10 A3017 RMK SC5SC2SC1 SLP283

CYYC;2009-12-05 12:40;CYYC 051240Z 34026KT 1 1/4SM -SN BLSN BKN010 BKN023 OVC040 M08/ RMK SC5SC2SC1

CYYC;2009-12-05 13:00;CYYC 051300Z 34027G33KT 1 1/4SM -SN BLSN BKN010 OVC025 M08/M11 A3018 RMK SC5SC2 SLP287

CYYC;2009-12-05 13:40;CYYC 051340Z 34029G38KT 4SM -SN BLSN SCT015 BKN030 OVC080 M08/ RMK SC3SC2AC2 VIS NE 2MI

CYYC;2009-12-05 14:00;CYYC 051400Z 34024G34KT 4SM -SN BLSN FEW015 BKN030 OVC100 M08/M11 A3021 RMK SC2SC3AC2 SLP294

CYYC;2009-12-05 15:00;CYYC 051500Z 34028G36KT 5SM -SN BLSN FEW015 BKN027 OVC060 M08/M12 A3023 RMK SC2SC5SC1 OIDS WNDS SLP306

CYYC;2009-12-05 16:00;CYYC 051600Z CCA 34027G32KT 6SM -SN DRSN FEW014 OVC029 M08/M12 A3026 REBLSN RMK SC1SC8 SLP315

CYYC;2009-12-05 16:44;CYYC 051644Z 34033G39KT 10SM DRSN BKN030 OVC080 M08/ RMK SC6AC2 OIDS WNDS

CYYC;2009-12-05 17:00;CYYC 051700Z 34029G34KT 10SM DRSN BKN031 BKN080 OVC100 M08/M12 A3027 RMK SC5AC2AC1 SLP319

CYYC;2009-12-05 18:00;CYYC 051800Z 34026G33KT 15SM DRSN FEW015 SCT031 SCT080 OVC140 M08/M12 A3029 RMK SC1SC3AC1AC2 SLP327

CYYC;2009-12-05 19:00;CYYC 051900Z 34026G31KT 40SM DRSN FEW015 FEW031 BKN089 OVC120 M08/M13 A3030 RMK SC1SC2AC2AC2 SLP330

CYYC;2009-12-05 20:00;CYYC 052000Z 35023G32KT 30SM DRSN FEW028 SCT062 BKN130 M08/M13 A3030 RMK SC2SC2AC1 SLP330

CYYC;2009-12-05 21:00;CYYC 052100Z CCA 35023G29KT 30SM DRSN FEW028 BKN066 BKN130 M09/M13 A3032 RMK SC2AC3AC1 SH SW SLP341

CYYC;2009-12-05 22:00;CYYC 052200Z CCA 34019G25KT 30SM DRSN FEW030 SCT070 BKN140 BKN260 M09/M13 A3033 RMK SC2AC2AC1CI0 SH SW SLP343

CYYC;2009-12-05 23:00;CYYC 052300Z 35024G29KT 20SM DRSN FEW030 FEW070 BKN120 BKN260 M09/M14 A3034 RMK SC2AC1AC2CI0 SH SW SLP347

CYYC;2009-12-06 00:00;CYYC 060000Z 35020G28KT 20SM DRSN BKN030 BKN070 BKN140 M09/M13 A3037 RMK SC5AC1AC2 SH SW SLP359

CYYC;2009-12-06 00:41;CYYC 060041Z 36017G26KT 3SM -SN DRSN FEW008 BKN018 OVC030 M10/ RMK SC2SC4SC2

CYYC;2009-12-06 01:00;CYYC 060100Z 36019G28KT 3SM -SN DRSN FEW008 OVC024 M10/M13 A3039 RMK SC2SC6 SLP365

CYYC;2009-12-06 02:00;CYYC 060200Z 02018G28KT 4SM -SN DRSN FEW008 BKN021 OVC033 M10/M14 A3042 RMK SC2SC6SC1 SLP373

CYYC;2009-12-06 02:21;CYYC 060221Z 02024G29KT 1 1/2SM -SN DRSN BR FEW008 SCT021 OVC026 M12/ RMK SC2SC2SC4

CYYC;2009-12-06 03:00;CYYC 060300Z 02019G25KT 1 1/2SM -SN DRSN FEW010 OVC030 M12/M15 A3044 RMK SC2SC6 SLP388

CYYC;2009-12-06 03:44;CYYC 060344Z 01019G29KT 5SM -SN DRSN OVC030 M12/ RMK SC8

CYYC;2009-12-06 03:54;CYYC 060354Z 01018G25KT 1 1/2SM -SN BLSN FEW010 OVC030 M12/ RMK SC2SC6

CYYC;2009-12-06 04:00;CYYC 060400Z 01019G25KT 1 1/2SM -SN BLSN FEW010 OVC030 M12/M15 A3046 RMK SC2SC6 SLP394

CYYC;2009-12-06 04:14;CYYC 060414Z 02022G28KT 5SM -SN BLSN FEW010 OVC035 M12/ RMK SC1SC7

CYYC;2009-12-06 04:21;CYYC 060421Z 03021G28KT 2 1/2SM -SN BLSN FEW007 OVC015 M13/ RMK SC2SC6

CYYC;2009-12-06 04:46;CYYC 060446Z 02020G25KT 1/2SM SN BLSN OVC030 M14/ RMK SC8 RVR RWY 34 + 28 6000+ FT

CYYC;2009-12-06 05:00;CYYC 060500Z 02020G26KT 1/2SM SN BLSN FEW011 OVC025 M14/M16 A3049 RMK SC2SC6 RVR RWY 34 6000 + 28 4000+ FT SLP404

CYYC;2009-12-06 06:00;CYYC 060600Z 02015KT 1 1/2SM -SN BLSN OVC038 M14/M16 A3051 RMK SC8 /S01/ VIS VRB 2-3/4 SLP418

CYYC;2009-12-06 07:00;CYYC 060700Z 01018KT 3/4SM -SN BLSN SCT007 OVC017 M14/M16 A3052 RMK SC4SC4 VIS VRB 1-1/2 SLP419

CYYC;2009-12-06 08:00;CYYC 060800Z 36012KT 5SM -SN DRSN FEW010 OVC040 M14/M17 A3051 RMK SC2SC6 SLP418

CYYC;2009-12-06 08:17;CYYC 060817Z CCA 35021KT 3/4SM -SN DRSN FEW010 OVC040 M14/ RMK SC1SC7 VIS VRB 11/2-1/2

CYYC;2009-12-06 08:49;CYYC 060849Z 36018KT 5SM -SN DRSN OVC050 M15/ RMK SC8

CYYC;2009-12-06 09:00;CYYC 060900Z 35018KT 5SM -SN DRSN OVC046 M15/M19 A3051 RMK SC8 SLP418

CYYC;2009-12-06 10:00;CYYC 061000Z 36016G22KT 8SM -SN DRSN OVC034 M15/M19 A3051 RMK SC8 SLP418

CYYC;2009-12-06 11:00;CYYC 061100Z 36017G24KT 3SM -SN DRSN OVC035 M16/M19 A3051 RMK SC8 SLP417

CYYC;2009-12-06 12:00;CYYC 061200Z 36017KT 1 1/2SM -SN DRSN OVC045 M16/M19 A3051 RMK SC8 SLP422

CYYC;2009-12-06 12:11;CYYC 061211Z 36019KT 1/2SM SN DRSN FEW005 OVC016 M16/ RMK SC2SC6

CYYC;2009-12-06 12:21;CYYC 061221Z 35014G22KT 3SM -SN DRSN FEW010 OVC046 M16/ RMK SC2SC6 VIS N-E 3/4

CYYC;2009-12-06 12:39;CYYC 061239Z 36019G26KT 3/4SM -SN DRSN FEW010 OVC040 M17/ RMK SC2SC6

CYYC;2009-12-06 13:00;CYYC 061300Z 36020G26KT 1SM -SN DRSN FEW010 OVC040 M17/M20 A3051 RMK SC2SC6 VIS VRB 1-3/4 SLP421

CYYC;2009-12-06 14:00;CYYC 061400Z 36017G22KT 1SM IC DRSN FEW007 OVC018 M17/M20 A3051 RMK SC2SC6 VIS VRB 11/2-3/4 SLP422

CYYC;2009-12-06 14:17;CYYC 061417Z 01020KT 1/2SM SN DRSN BKN004 OVC012 M17/ RMK SC6SC2

CYYC;2009-12-06 14:40;CYYC 061440Z 01021G27KT 1SM -SN DRSN BKN004 BKN012 OVC035 M18/ RMK SC6SC2SC1 VIS SW-NW 21/2

CYYC;2009-12-06 15:00;CYYC 061500Z 01019KT 1 3/4SM -SN DRSN BKN008 BKN012 OVC035 M18/M22 A3051 RMK SC5SC2SC2 VIS S 5 SW-NW 3 SLP427

CYYC;2009-12-06 16:00;CYYC 061600Z 36014G24KT 1 1/2SM -SN DRSN BKN008 BKN012 OVC027 M18/M22 A3052 RMK SC5SC2SC2 VIS ESE 5/8 S-NW 4 SLP430

CYYC;2009-12-06 16:36;CYYC 061636Z 01016KT 1 3/4SM -SN DRSN SCT008 BKN012 OVC027 M18/ RMK SC4SC2SC2 S-NW 3

CYYC;2009-12-06 16:51;CYYC 061651Z 01012G18KT 3SM -SN DRSN FEW008 BKN012 OVC033 M18/ RMK SC2SC2SC2 VIS E 11/2

CYYC;2009-12-06 17:00;CYYC 061700Z 01014KT 3SM -SN DRSN FEW008 BKN012 OVC033 M18/M22 A3052 RMK SC2SC2SC2 VIS E 11/2 SLP432

CYYC;2009-12-06 17:34;CYYC 061734Z 36016KT 3SM -SN DRSN FEW008 SCT012 BKN033 OVC050 M18/ RMK CF1SC3SC3SC2 CF TR

CYYC;2009-12-06 18:00;CYYC 061800Z 36013KT 7SM -SN DRSN FEW008 FEW012 BKN030 OVC050 M18/M23 A3052 RMK CF1SC2SC3SC2 VRY LGT PCPN/CF TR//S01/ SLP434

CYYC;2009-12-06 19:00;CYYC 061900Z CCA 01020KT 7SM -SN DRSN FEW012 SCT027 OVC057 M18/M23 A3049 RMK SC1SC4SC3 VIS E-SE 21/2/LWR SC TR SLP426

CYYC;2009-12-06 19:41;CYYC 061941Z 36015G20KT 10SM FEW027 SCT057 M18/ RMK SC2SC2 CU ASOCTD

CYYC;2009-12-06 20:00;CYYC 062000Z 36013KT 15SM FEW027 FEW057 SCT220 M18/M23 A3047 RMK SC1SC2CI0 LWR SC CU ASOCTD SLP418

CYYC;2009-12-06 21:00;CYYC 062100Z 36016KT 15SM FEW027 FEW057 SCT220 M18/M24 A3044 RMK CU1SC1CI2 CU TR SLP409

CYYC;2009-12-06 22:00;CYYC 062200Z 36012KT 15SM FEW160 M19/M24 A3043 RMK AC1 SLP404

CYYC;2009-12-06 23:00;CYYC 062300Z 36010KT 15SM FEW160 FEW220 M19/M25 A3042 RMK AC2CI0 SLP401

CYYC;2009-12-07 00:00;CYYC 070000Z 35008KT 40SM FEW056 FEW160 BKN220 M20/M25 A3041 RMK SC1AC2CI1 SLP402

CYYC;2009-12-07 01:00;CYYC 070100Z 35006KT 15SM FEW055 SCT070 M20/M25 A3039 RMK SC1AC2 SLP397

CYYC;2009-12-07 02:00;CYYC 070200Z 34006KT 15SM FEW060 BKN074 M20/M25 A3039 RMK SC2AC2 SLP395

CYYC;2009-12-07 03:00;CYYC 070300Z 35005KT 15SM BKN066 M20/M25 A3037 RMK AC6 SLP392

CYYC;2009-12-07 04:00;CYYC 070400Z 36007KT 15SM FEW040 BKN066 M21/M25 A3036 RMK SC1AC6 SLP388

CYYC;2009-12-07 05:00;CYYC 070500Z 36010KT 15SM FEW040 OVC068 M21/M25 A3034 RMK SC1AC5 SLP383

CYYC;2009-12-07 06:00;CYYC 070600Z 34004KT 15SM FEW040 OVC066 M21/M25 A3034 RMK SC1AC5 SLP381

CYYC;2009-12-07 07:00;CYYC 070700Z 34002KT 15SM FEW040 FEW070 FEW250 M21/M25 A3032 RMK SC1AC1CI0 SLP376

CYYC;2009-12-07 08:00;CYYC 070800Z 34003KT 15SM FEW040 FEW070 FEW250 M22/M26 A3030 RMK SC1AC1CI1 SLP370

CYYC;2009-12-07 09:00;CYYC 070900Z 00000KT 15SM FEW040 SCT070 BKN250 M23/M27 A3027 RMK SC1AC2CI0 SLP363

CYYC;2009-12-07 10:00;CYYC 071000Z 00000KT 15SM FEW040 SCT070 BKN250 M23/M27 A3026 RMK SC1AC2CI0 SLP359

CYYC;2009-12-07 11:00;CYYC 071100Z 36002KT 15SM FEW070 M26/M30 A3024 RMK AC1 SLP351

CYYC;2009-12-07 12:00;CYYC 071200Z 00000KT 15SM FEW070 M26/M30 A3021 RMK AC1 SLP346

CYYC;2009-12-07 13:00;CYYC 071300Z 23003KT 15SM FEW070 M27/M31 A3018 RMK AC1 SLP337

CYYC;2009-12-07 14:00;CYYC 071400Z 23005KT 15SM SKC M27/M31 A3015 RMK SLP329

CYYC;2009-12-07 14:33;CYYC 071433Z 21005KT 15SM FEW080 M27/ RMK AC1

CYYC;2009-12-07 15:00;CYYC 071500Z 23004KT 40SM FEW110 M27/M31 A3012 RMK AC1 FROIN SLP319

CYYC;2009-12-07 15:20;CYYC 071520Z 24003KT 40SM FEW140 M27/ RMK AC1 FROIN / MIFG SW

CYYC;2009-12-07 15:44;CYYC 071544Z 21004KT 40SM FEW140 M27/ RMK AC1 MIFG SW

CYYC;2009-12-07 16:00;CYYC 071600Z 24004KT 40SM FEW140 M26/M30 A3011 RMK AC1 SLP316

CYYC;2009-12-07 16:45;CYYC 071645Z 21005KT 40SM FEW160 M25/ RMK AC1

CYYC;2009-12-07 17:00;CYYC 071700Z 21006KT 40SM FEW160 M24/M28 A3009 RMK AC1 SLP310

CYYC;2009-12-07 18:00;CYYC 071800Z 21005KT 40SM FEW180 M22/M26 A3008 RMK AC1 SLP295

CYYC;2009-12-07 19:00;CYYC 071900Z 22006KT 40SM SKC M20/M26 A3006 RMK SLP288

CYYC;2009-12-07 20:00;CYYC 072000Z 21004KT 40SM SKC M19/M25 A3002 RMK SLP278

CYYC;2009-12-07 21:00;CYYC 072100Z 20007KT 40SM FEW260 M18/M25 A2999 RMK CI1 SLP263

CYYC;2009-12-07 22:00;CYYC 072200Z 17007KT 40SM FEW260 M19/M25 A2998 RMK CI1 SLP258

CYYC;2009-12-07 23:00;CYYC 072300Z 16006KT 40SM FEW240 M20/M26 A2997 RMK CI1 SLP256

CYYC;2009-12-08 00:00;CYYC 080000Z 18006KT 40SM FEW190 FEW260 M22/M27 A2996 RMK AC1CI1 SLP263

CYYC;2009-12-08 01:00;CYYC 080100Z 20006KT 15SM SKC M21/M26 A2995 RMK FROIN SLP258

CYYC;2009-12-08 02:00;CYYC 080200Z 19006KT 10SM SKC M22/M26 A2994 RMK FROIN SLP256

CYYC;2009-12-08 03:00;CYYC 080300Z 20005KT 10SM FEW250 M22/M26 A2993 RMK CI1 SLP254

CYYC;2009-12-08 04:00;CYYC 080400Z 19006KT 15SM SKC M24/M28 A2993 RMK SLP254

CYYC;2009-12-08 05:00;CYYC 080500Z 22005KT 15SM SKC M25/M29 A2993 RMK SLP253

CYYC;2009-12-08 06:00;CYYC 080600Z 19002KT 15SM SKC M26/M30 A2992 RMK SLP249

CYYC;2009-12-08 07:00;CYYC 080700Z 00000KT 15SM SKC M25/M29 A2993 RMK SLP251

CYYC;2009-12-08 08:00;CYYC 080800Z 20006KT 15SM SKC M26/M30 A2992 RMK SLP249

CYYC;2009-12-08 09:00;CYYC 080900Z 21004KT 15SM SKC M26/M30 A2992 RMK SLP243

CYYC;2009-12-08 10:00;CYYC 081000Z 20004KT 15SM SKC M26/M30 A2993 RMK SLP246

CYYC;2009-12-08 11:00;CYYC 081100Z 23005KT 15SM SKC M25/M31 A2994 RMK SLP249

CYYC;2009-12-08 12:00;CYYC 081200Z CCA 00000KT 15SM SKC M25/M30 A2995 RMK SNOW COVER/MUCH LOOSE SLP257

CYYC;2009-12-08 13:00;CYYC 081300Z 22002KT 15SM SCT025 M25/M30 A2996 RMK SC3 SLP260

CYYC;2009-12-08 13:51;CYYC 081351Z 23002KT 15SM -SN BKN025 M22/ RMK SC6 FROIN

CYYC;2009-12-08 14:00;CYYC 081400Z 23002KT 15SM -SN BKN030 M22/M26 A2997 RMK SC6 FROIN SLP262

CYYC;2009-12-08 14:25;CYYC 081425Z 23002KT 15SM FEW030 FEW045 SCT220 M22/ RMK SC2SC1CI0 FROIN

CYYC;2009-12-08 15:00;CYYC 081500Z 01002KT 15SM -SN BKN020 BKN040 M18/M23 A2998 RMK SC6SC2 FROIN SLP258

CYYC;2009-12-08 16:00;CYYC 081600Z 29003KT 15SM -SN FEW020 BKN041 M17/M21 A3000 RMK SC1SC6 SLP265

CYYC;2009-12-08 16:32;CYYC 081632Z 35005KT 20SM FEW040 FEW090 SCT250 M16/ RMK SC2AC1CI0 SH S-W

CYYC;2009-12-08 17:00;CYYC 081700Z 34013KT 30SM FEW032 FEW042 SCT220 M15/M20 A3002 RMK SC1SC1CI0 SH SW SLP270

CYYC;2009-12-08 18:00;CYYC 081800Z 32007KT 30SM FEW040 FEW150 BKN260 M15/M20 A3002 RMK SC1AC2CI0 SH SW SLP272

CYYC;2009-12-08 19:00;CYYC 081900Z 34009KT 40SM FEW030 FEW140 FEW260 M15/M20 A2999 RMK SC1AC1CI0 SLP265

CYYC;2009-12-08 20:00;CYYC 082000Z 34004KT 40SM FEW030 FEW140 FEW260 M14/M20 A2998 RMK SC1AC1CI0 SLP260

CYYC;2009-12-08 21:00;CYYC 082100Z 36003KT 40SM FEW030 FEW240 M14/M20 A2996 RMK SC1CI1 SLP249

CYYC;2009-12-08 22:00;CYYC 082200Z 07004KT 40SM FEW050 FEW160 SCT240 M15/M21 A2995 RMK SC1AC1CI0 SLP248

CYYC;2009-12-08 23:00;CYYC 082300Z 09002KT 40SM FEW060 FEW160 FEW240 M15/M21 A2996 RMK SC1AC1CI0 SLP249

CYYC;2009-12-09 00:00;CYYC 090000Z 00000KT 40SM FEW068 SCT098 BKN240 M16/M21 A2995 RMK AC1AC1CI0 SLP247

CYYC;2009-12-09 01:00;CYYC 090100Z 19007KT 15SM FEW040 SCT090 BKN190 M17/M20 A2992 RMK SC1AC2AC1 VIRGA SLP238

CYYC;2009-12-09 02:00;CYYC 090200Z 19005KT 15SM FEW090 BKN180 M17/M20 A2989 RMK AC1AC5 SLP229

CYYC;2009-12-09 03:00;CYYC 090300Z 23006KT 15SM FEW054 OVC079 M16/M20 A2988 RMK SC2AC6 SLP214

CYYC;2009-12-09 04:00;CYYC 090400Z 24007KT 15SM FEW038 BKN060 OVC075 M15/M20 A2986 RMK SC2SC5AC2 SLP206

CYYC;2009-12-09 05:00;CYYC 090500Z 23006KT 15SM FEW037 OVC062 M15/M20 A2985 RMK SC2SC6 SLP204

CYYC;2009-12-09 06:00;CYYC 090600Z 25006KT 7SM FEW041 OVC060 M15/M19 A2984 RMK SC2SC6 SLP193

CYYC;2009-12-09 07:00;CYYC 090700Z 22006KT 15SM FEW040 SCT057 OVC079 M16/M20 A2982 RMK SC2SC2AC4 SLP187

CYYC;2009-12-09 08:00;CYYC 090800Z 28003KT 15SM BKN060 OVC075 M15/M18 A2979 RMK SC6AC2 SLP179

CYYC;2009-12-09 09:00;CYYC 090900Z 00000KT 8SM FEW026 BKN048 BKN060 OVC075 M16/M18 A2978 RMK SC2SC4SC2AC1 SLP172

CYYC;2009-12-09 09:52;CYYC 090952Z 30007KT 6SM -SN FEW025 BKN040 OVC060 M13/ RMK SC2SC5SC2

CYYC;2009-12-09 10:00;CYYC 091000Z 31007KT 7SM -SN FEW025 BKN042 OVC060 M13/M16 A2977 RMK SC2SC5SC2 SLP169

CYYC;2009-12-09 11:00;CYYC 091100Z 20002KT 7SM -SN FEW023 OVC046 M13/M16 A2976 RMK SC2SC6 SLP165

CYYC;2009-12-09 12:00;CYYC 091200Z CCA 00000KT 15SM -SN SCT037 BKN062 M13/M15 A2975 RMK SC4SC3 SNOW COVER/MUCH LOOSE SLP159

CYYC;2009-12-09 13:00;CYYC 091300Z 36005KT 10SM SCT039 OVC060 M14/M16 A2974 RMK SC4SC4 SLP158

CYYC;2009-12-09 14:00;CYYC 091400Z 36004KT 15SM -SN FEW036 OVC055 M13/M16 A2974 RMK SC2SC6 SLP156

CYYC;2009-12-09 15:00;CYYC 091500Z 33005KT 6SM -SN FEW037 BKN056 OVC075 M12/M15 A2973 RMK SC2SC5AC1 SLP152

CYYC;2009-12-09 16:00;CYYC 091600Z 34007KT 7SM -SN FEW014 SCT031 BKN067 M13/M15 A2974 RMK SC1SC2AC2 SLP153

CYYC;2009-12-09 17:00;CYYC 091700Z 31007KT 7SM -SN FEW014 FEW031 BKN056 M12/M15 A2974 RMK SC1SC2SC1 SLP153

CYYC;2009-12-09 17:54;CYYC 091754Z 32009KT 2SM -SN FEW013 OVC028 M12/ RMK SC2SC6

CYYC;2009-12-09 18:00;CYYC 091800Z 32008KT 2SM -SN SCT012 OVC026 M12/M14 A2974 RMK SC3SC5 SLP153

CYYC;2009-12-09 18:19;CYYC 091819Z 32009KT 1SM -SN BKN010 OVC022 M12/ RMK SC4SC4 RVR RWY34 6000+FT

CYYC;2009-12-09 19:00;CYYC 091900Z CCA 35009G15KT 1SM -SN DRSN BR FEW008 SCT016 OVC031 M11/M13 A2973 RMK SC2SC2SC4 VIS NW-NE 2 / RVR RWY34 6000+FT SLP150

CYYC;2009-12-09 20:00;CYYC 092000Z 34005KT 1 1/2SM -SN BR SCT008 BKN016 OVC030 M11/M13 A2971 RMK SC3SC3SC2 SLP145

CYYC;2009-12-09 20:51;CYYC 092051Z 36005KT 1 1/4SM -SN BKN009 OVC022 M11/ RMK SC5SC3

CYYC;2009-12-09 21:00;CYYC 092100Z 36005KT 1 1/4SM -SN BKN009 OVC022 M11/M13 A2970 RMK SC5SC3 SLP140

CYYC;2009-12-09 22:00;CYYC 092200Z 36006KT 1 1/4SM -SN BKN008 OVC021 M11/M13 A2970 RMK SC5SC3 SLP139

CYYC;2009-12-09 23:00;CYYC 092300Z 30004KT 1SM -SN BKN010 OVC025 M11/M12 A2971 RMK SC5SC3 RVR RWY34 6000+FT /S01/ SLP142

CYYC;2009-12-09 23:51;CYYC 092351Z 32005KT 2SM -SN SCT010 BKN021 OVC037 M10/ RMK SC3SC3SC2

CYYC;2009-12-10 00:00;CYYC 100000Z 34007KT 2SM -SN FEW010 BKN022 OVC046 M10/M12 A2972 RMK SC2SC4SC2 /S02/ SLP142

CYYC;2009-12-10 00:30;CYYC 100030Z 32015KT 1 1/4SM -SN DRSN BKN009 OVC026 M11/ RMK SC4SC4

CYYC;2009-12-10 01:00;CYYC 100100Z 33010KT 4SM -SN FEW009 BKN026 OVC050 M11/M13 A2971 RMK SC2SC4SC2 SLP139

CYYC;2009-12-10 01:35;CYYC 100135Z 34009KT 1 3/4SM -SN BKN010 OVC024 M11/ RMK SC5SC3

CYYC;2009-12-10 02:00;CYYC 100200Z 34008KT 1 3/4SM -SN BKN012 OVC028 M11/M12 A2971 RMK SC5SC3 SLP138

CYYC;2009-12-10 02:55;CYYC 100255Z 35004KT 4SM -SN SCT012 BKN028 OVC040 M11/ RMK SC4SC2SC2

CYYC;2009-12-10 03:00;CYYC 100300Z 35004KT 4SM -SN SCT012 BKN028 OVC040 M11/M13 A2969 RMK SC4SC2SC2 SLP130

CYYC;2009-12-10 03:17;CYYC 100317Z 36003KT 2SM -SN BKN010 OVC023 M11/ RMK SC5SC3

CYYC;2009-12-10 03:44;CYYC 100344Z CCA 35003KT 1 3/4SM -SN BKN008 OVC022 M11/ RMK SC5SC3

CYYC;2009-12-10 04:00;CYYC 100400Z 36003KT 1 1/2SM -SN BKN007 OVC022 M11/M13 A2968 RMK SC5SC3 SLP127

CYYC;2009-12-10 04:45;CYYC 100445Z 14003KT 1 1/2SM -SN BR SCT007 BKN011 OVC028 M11/ RMK SC4SC3SC1

CYYC;2009-12-10 05:00;CYYC 100500Z 16004KT 1 3/4SM -SN BR FEW007 BKN012 OVC026 M11/M13 A2966 RMK SC2SC4SC2 SLP123

CYYC;2009-12-10 05:36;CYYC 100536Z 28004KT 1 3/4SM -SN BR BKN011 OVC023 M10/ RMK SC5SC3

CYYC;2009-12-10 06:00;CYYC 100600Z 32007KT 1 3/4SM -SN BR SCT007 BKN012 OVC020 M09/M10 A2964 RMK SC4SC3SC1 SLP111

CYYC;2009-12-10 06:17;CYYC 100617Z 31007KT 3SM -SN BR SCT012 BKN020 OVC035 M09/ RMK SC3SC2SC2

CYYC;2009-12-10 06:41;CYYC 100641Z 33005KT 1 3/4SM -SN BR FEW009 BKN025 OVC035 M09/ RMK SC2SC3SC2

CYYC;2009-12-10 06:48;CYYC 100648Z 26003KT 4SM -SN BR FEW009 BKN020 OVC050 M10/ RMK SC2SC4SC2

CYYC;2009-12-10 07:00;CYYC 100700Z 30002KT 4SM -SN BR FEW015 BKN030 OVC050 M10/M11 A2964 RMK SC2SC3SC3 SLP111

CYYC;2009-12-10 07:33;CYYC 100733Z 20003KT 15SM FEW020 BKN030 OVC050 M10/ RMK SC2SC3SC3

CYYC;2009-12-10 08:00;CYYC 100800Z 18003KT 15SM FEW020 BKN030 OVC040 M10/M11 A2965 RMK SC2SC4SC2 SLP112

CYYC;2009-12-10 08:09;CYYC 100809Z 19004KT 4SM -SN SCT015 BKN020 OVC030 M10/ RMK SC4SC2SC2

CYYC;2009-12-10 09:00;CYYC 100900Z 05005KT 7SM -SN FEW020 BKN030 OVC050 M12/M14 A2968 RMK SC2SC3SC2 SLP129

CYYC;2009-12-10 09:40;CYYC 100940Z 05003KT 2 1/2SM -SN SCT011 BKN025 OVC040 M12/ RMK SC4SC2SC2

CYYC;2009-12-10 09:49;CYYC 100949Z 04003KT 1 1/4SM -SN BKN005 OVC015 M12/ RMK SN2SC3SC3

CYYC;2009-12-10 10:00;CYYC 101000Z 04003KT 1 1/4SM -SN BKN005 OVC016 M12/M13 A2967 RMK SN2SC3SC3 SLP125

CYYC;2009-12-10 10:15;CYYC 101015Z 05004KT 3SM -SN BKN016 OVC030 M12/ RMK SC5SC3

CYYC;2009-12-10 10:47;CYYC 101047Z 36013KT 2SM -SN BKN007 OVC017 M12/ RMK SN2SC4SC2

CYYC;2009-12-10 11:00;CYYC 101100Z 01011G16KT 1 1/4SM -SN BKN006 OVC018 M12/M13 A2968 RMK SN2SC4SC2 SLP128

CYYC;2009-12-10 12:00;CYYC 101200Z 01014KT 1 1/2SM -SN BKN008 OVC020 M12/M14 A2969 RMK SC5SC2 SLP132

CYYC;2009-12-10 13:00;CYYC 101300Z 01009KT 2SM -SN BKN011 OVC028 M13/M14 A2970 RMK SC5SC2 /S01/ SLP135

CYYC;2009-12-10 14:00;CYYC 101400Z 35011KT 3SM -SN SCT011 BKN022 OVC045 M13/M14 A2971 RMK SC4SC3SC0 SLP138

CYYC;2009-12-10 15:00;CYYC 101500Z 34010KT 3SM -SN BKN012 OVC024 M12/M15 A2972 RMK SC6SC2 SLP143

CYYC;2009-12-10 15:14;CYYC 101514Z 34010KT 3SM -SN BKN020 OVC050 M13/ RMK SC6SC2

CYYC;2009-12-10 15:23;CYYC 101523Z 35009KT 1SM -SN BKN007 OVC020 M12/ RMK SC6SC2 RVR RWY 34+28 6000+ FT /VIS VRB 11/2-3/4

CYYC;2009-12-10 15:42;CYYC 101542Z 35007KT 1/2SM SN BKN005 OVC014 M13/ RMK SC6SC2 RVR RWY 34+28 6000+ FT

CYYC;2009-12-10 15:48;CYYC 101548Z 34005KT 1 1/2SM -SN BKN006 OVC060 M13/ RMK SC7SC1

CYYC;2009-12-10 16:00;CYYC 101600Z 32006KT 5SM -SN SCT006 OVC060 M12/M15 A2974 RMK SC4SC4 SLP148

CYYC;2009-12-10 17:00;CYYC 101700Z 34005KT 5SM -SN SCT020 OVC040 M13/M15 A2975 RMK SC3SC4 SLP150

CYYC;2009-12-10 17:18;CYYC 101718Z 01006KT 1SM -SN BKN011 OVC020 M12/ RMK SC6SC2 RVR RWY 34+28 6000+ FT / VIS VRB 11/2-3/4

CYYC;2009-12-10 17:46;CYYC 101746Z 01006KT 1 1/2SM -SN FEW011 OVC060 M13/ RMK SC2SC5

CYYC;2009-12-10 18:00;CYYC 101800Z 02002KT 3SM -SN FEW011 BKN080 OVC240 M13/M15 A2974 RMK SC2AC4CS0 SLP145

CYYC;2009-12-10 19:00;CYYC 101900Z 15006KT 40SM -SN FEW060 BKN100 OVC240 M13/M15 A2972 RMK SC1AC3CS0 SLP139

CYYC;2009-12-10 19:30;CYYC 101930Z 17006KT 40SM FEW060 FEW100 BKN240 M12/ RMK SC1AC2CI0

CYYC;2009-12-10 20:00;CYYC 102000Z 19006KT 40SM FEW060 FEW100 BKN250 M12/M15 A2969 RMK SC1AC1CI1 SC+AC TR SLP130

CYYC;2009-12-10 21:00;CYYC 102100Z 19004KT 40SM FEW080 BKN250 M11/M14 A2967 RMK AC1CI1 AC TR SLP124

CYYC;2009-12-10 22:00;CYYC 102200Z 19006KT 40SM FEW080 FEW180 OVC250 M11/M14 A2966 RMK AC1AS1CI0 AC TR / CONTRAILS SLP121

CYYC;2009-12-10 23:00;CYYC 102300Z 22005KT 40SM SCT080 BKN250 M10/M14 A2966 RMK AC2CI1 SLP120

CYYC;2009-12-11 00:00;CYYC 110000Z 22005KT 40SM BKN070 M10/M14 A2966 RMK AC5 SLP120

CYYC;2009-12-11 01:00;CYYC 110100Z 31002KT 15SM FEW070 FEW120 OVC250 M10/M14 A2965 RMK AC1AC1CI0 SLP118

CYYC;2009-12-11 02:00;CYYC 110200Z 20004KT 15SM BKN080 M12/M14 A2963 RMK AC1 SLP111

CYYC;2009-12-11 03:00;CYYC 110300Z 19006KT 15SM FEW080 SCT130 BKN250 M13/M16 A2960 RMK AC1AC3CI0 SLP102

CYYC;2009-12-11 04:00;CYYC 110400Z 20007KT 15SM OVC130 M12/M16 A2957 RMK AC7 SLP095

CYYC;2009-12-11 05:00;CYYC 110500Z 21011KT 15SM SCT130 BKN220 M12/M16 A2956 RMK AC3CI2 SLP090

CYYC;2009-12-11 06:00;CYYC 110600Z 21007KT 15SM BKN140 OVC180 M12/M16 A2953 RMK AC5AC3 SLP077

CYYC;2009-12-11 07:00;CYYC 110700Z 16003KT 15SM FEW130 BKN180 M12/M17 A2952 RMK AC2AC3 SLP072

CYYC;2009-12-11 08:00;CYYC 110800Z 04005KT 15SM FEW060 BKN075 BKN180 M09/M16 A2951 RMK SC2AC2AC2 SLP071

CYYC;2009-12-11 09:00;CYYC 110900Z 34008KT 15SM FEW060 SCT075 BKN150 M08/M16 A2952 RMK SC1AC2AC2 SLP066

CYYC;2009-12-11 10:00;CYYC 111000Z 35008KT 15SM FEW075 OVC140 M10/M16 A2953 RMK AC2AC6 SLP069

CYYC;2009-12-11 11:00;CYYC 111100Z 33007KT 15SM BKN110 OVC150 M08/M15 A2954 RMK AC5AC3 SLP073

CYYC;2009-12-11 12:00;CYYC 111200Z 36007KT 15SM BKN130 BKN250 M09/M16 A2956 RMK AC6CI1 SNOW COVER/MUCH LOOSE SLP078

CYYC;2009-12-11 13:00;CYYC 111300Z 33008KT 15SM SCT130 BKN250 M12/M17 A2957 RMK AC4CI0 SLP082

CYYC;2009-12-11 13:45;CYYC 111345Z 36008KT 7SM -SN BKN017 BKN060 M11/ RMK SC5SC2

CYYC;2009-12-11 14:00;CYYC 111400Z 36007KT 2 1/2SM -SN FEW009 BKN016 M11/M13 A2958 RMK SC1SC6 SLP084

CYYC;2009-12-11 14:10;CYYC 111410Z 03008KT 4SM -SN BR FEW009 BKN018 M11/ RMK SC1SC6

CYYC;2009-12-11 15:00;CYYC 111500Z 03003KT 15SM FEW010 FEW050 FEW080 M13/M14 A2958 RMK SC1SC1AC0 SLP097

CYYC;2009-12-11 16:00;CYYC 111600Z 34002KT 15SM FEW007 BKN023 BKN080 M14/M16 A2962 RMK SC1SC4AC1 SLP108

CYYC;2009-12-11 16:33;CYYC 111633Z CCA 00000KT 8SM -SN BKN007 OVC023 M12/ RMK SC6SC2

CYYC;2009-12-11 17:00;CYYC 111700Z 00000KT 1SM -SN OVC012 M12/M13 A2964 RMK SC7 RVR RWY 34+28 6000+ FT / VIS VRB 11/2 - 3/4 SLP114

CYYC;2009-12-11 17:24;CYYC 111724Z 05004KT 1 1/2SM -SN SCT012 OVC024 M12/ RMK SC4SC4

CYYC;2009-12-11 18:00;CYYC 111800Z 05004KT 1 1/2SM -SN FEW012 OVC028 M12/M13 A2964 RMK SC2SC6 /S01/ SLP115

CYYC;2009-12-11 19:00;CYYC 111900Z 05005KT 1 1/2SM -SN OVC026 M12/M14 A2962 RMK SC8 SLP107

CYYC;2009-12-11 20:00;CYYC 112000Z 12005KT 1 1/2SM -SN OVC030 M11/M13 A2961 RMK SC8 VIS VRB 21/2-3/4 /S01/ SLP103

CYYC;2009-12-11 20:31;CYYC 112031Z 11004KT 3SM -SN OVC030 M11/ RMK SC8

CYYC;2009-12-11 21:00;CYYC 112100Z 14005KT 5SM -SN OVC028 M11/M13 A2958 RMK SC8 SLP086

CYYC;2009-12-11 22:00;CYYC 112200Z 14007KT 3SM -SN BR OVC028 M11/M13 A2958 RMK SC8 SLP087

CYYC;2009-12-11 22:16;CYYC 112216Z 13006KT 1 1/2SM -SN BR OVC028 M11/ RMK SC8

CYYC;2009-12-11 23:00;CYYC 112300Z 14008KT 1 1/2SM -SN BR FEW010 OVC026 M12/M14 A2958 RMK SC1SC7 VIS VRB 21/2 - 3/4 SLP088

CYYC;2009-12-11 23:20;CYYC 112320Z 14007KT 3SM -SN BR FEW010 OVC027 M12/ RMK SC1SC7

CYYC;2009-12-12 00:00;CYYC 120000Z 14006KT 5SM -SN BR OVC025 M12/M14 A2959 RMK SC8 SLP092

CYYC;2009-12-12 01:00;CYYC 120100Z 11006KT 5SM -SN BR OVC023 M13/M15 A2959 RMK SC8 SLP094

CYYC;2009-12-12 02:00;CYYC 120200Z 14006KT 1 1/2SM -SN BR FEW007 OVC022 M13/M15 A2959 RMK SC2SC6 SLP094

CYYC;2009-12-12 02:20;CYYC 120220Z 14006KT 5SM -SN BR FEW006 OVC016 M14/ RMK SC2SC6

CYYC;2009-12-12 03:00;CYYC 120300Z 15008KT 5SM -SN BR FEW006 OVC016 M14/M15 A2959 RMK SC2SC6 PCPN VRY LGT SLP100

CYYC;2009-12-12 03:07;CYYC 120307Z 16008KT 2 1/2SM -SN FEW005 OVC016 M14/ RMK SC2SC6 VIS N-E 5

CYYC;2009-12-12 03:22;CYYC 120322Z 16005KT 3SM -SN SCT005 OVC018 M14/ RMK SC3SC4 VIS N-E 11/4

CYYC;2009-12-12 04:00;CYYC 120400Z 15005KT 3SM -SN FEW005 OVC017 M14/M15 A2959 RMK SC2SC6 SLP103

CYYC;2009-12-12 05:00;CYYC 120500Z 16005KT 5SM -SN FEW005 BKN017 M14/M15 A2960 RMK SC1SC7 SLP102

CYYC;2009-12-12 06:00;CYYC 120600Z 17004KT 5SM -SN BKN017 M14/M16 A2960 RMK SC7 /S01/ SLP104

CYYC;2009-12-12 06:43;CYYC 120643Z 14005KT 2SM -SN OVC017 M14/ RMK SC8

CYYC;2009-12-12 07:00;CYYC 120700Z 13005KT 1 3/4SM -SN OVC016 M14/M16 A2962 RMK SC8 SLP108

CYYC;2009-12-12 08:00;CYYC 120800Z 13005KT 1 3/4SM -SN BKN016 OVC030 M15/M16 A2962 RMK SC5SC3 SLP110

CYYC;2009-12-12 08:19;CYYC 120819Z 12005KT 3SM -SN BKN016 OVC030 M15/ RMK SC5SC3

CYYC;2009-12-12 09:00;CYYC 120900Z 11004KT 3SM -SN BKN016 OVC030 M15/M17 A2964 RMK SC5SC3 SLP117

CYYC;2009-12-12 10:00;CYYC 121000Z 03007KT 3SM -SN FEW016 OVC028 M16/M17 A2966 RMK SC2SC6 SLP126

CYYC;2009-12-12 10:38;CYYC 121038Z 03012KT 2SM -SN FEW005 SCT015 OVC030 M17/ RMK CF1SC2SC5

CYYC;2009-12-12 11:00;CYYC 121100Z 03015G20KT 1 3/4SM -SN FEW005 SCT015 OVC030 M19/M22 A2970 RMK CF1SC3SC5 SLP136

CYYC;2009-12-12 12:00;CYYC 121200Z CCA 02012KT 2 1/2SM -SN SCT021 OVC029 M21/M25 A2973 RMK SC4SC4 SN CVR/MUCH LOOSE//SO2/ SLP159

CYYC;2009-12-12 13:00;CYYC 121300Z 02013KT 2SM -SN FEW022 OVC030 M22/M26 A2976 RMK SC2SC6 SLP168

CYYC;2009-12-12 14:00;CYYC 121400Z 02013KT 2SM -SN BLSN FEW022 OVC033 M23/M28 A2979 RMK SC2SC6 SLP176

CYYC;2009-12-12 15:00;CYYC 121500Z 03012KT 2SM -SN BLSN FEW012 OVC026 M24/M28 A2982 RMK SC2SC6 SLP198

CYYC;2009-12-12 16:00;CYYC 121600Z 05010KT 2SM -SN BLSN SCT018 OVC034 M24/M29 A2986 RMK SC3SC5 SLP210

CYYC;2009-12-12 17:00;CYYC 121700Z 06008KT 2SM -SN DRSN SCT012 OVC026 M25/M30 A2989 RMK SC4SC4 /S01/ SLP220

CYYC;2009-12-12 17:38;CYYC 121738Z 06006KT 3SM -SN SCT010 BKN030 OVC050 M26/ RMK SC3SC2SC2

CYYC;2009-12-12 18:00;CYYC 121800Z 05007KT 3SM -SN FEW010 SCT030 OVC050 M26/M31 A2991 RMK SC2SC2SC3 SLP234

CYYC;2009-12-12 19:00;CYYC 121900Z 05004KT 4SM -SN OVC050 M27/M32 A2991 RMK SC6 SLP234

CYYC;2009-12-12 19:42;CYYC 121942Z 05004KT 7SM OVC050 M27/ RMK SC6

CYYC;2009-12-12 20:00;CYYC 122000Z 04004KT 7SM OVC050 M27/M32 A2991 RMK SC6 SLP233

CYYC;2009-12-12 21:00;CYYC 122100Z 09003KT 7SM SCT050 OVC100 M27/M32 A2991 RMK SC3AC2 SLP236

CYYC;2009-12-12 22:00;CYYC 122200Z 08004KT 7SM SCT050 OVC100 M27/M32 A2992 RMK SC3AC2 SLP238

CYYC;2009-12-12 23:00;CYYC 122300Z 12006KT 7SM OVC050 M27/M32 A2993 RMK SC6 SLP243

CYYC;2009-12-13 00:00;CYYC 130000Z 13004KT 3SM -SN SCT020 OVC040 M27/M32 A2994 RMK SC4SC4 SLP255

CYYC;2009-12-13 00:18;CYYC 130018Z 13005KT 3SM -SN BKN010 OVC020 M27/ RMK SC5SC3

CYYC;2009-12-13 00:34;CYYC 130034Z 14005KT 3SM -SN SCT020 OVC060 M27/ RMK SC4SC3

CYYC;2009-12-13 01:00;CYYC 130100Z 16006KT 4SM -SN FEW020 OVC050 M28/M32 A2993 RMK SC2SC5 SLP253

CYYC;2009-12-13 02:00;CYYC 130200Z CCA 17006KT 5SM -SN FEW040 BKN060 OVC090 M28/M32 A2992 RMK SC2SC4AC1 SLP250

CYYC;2009-12-13 03:00;CYYC 130300Z 16004KT 5SM -SN OVC055 M28/M33 A2991 RMK SC6 SLP252

CYYC;2009-12-13 03:46;CYYC 130346Z 17004KT 5SM IC FEW055 BKN085 M28/ RMK SC2AC2

CYYC;2009-12-13 04:00;CYYC 130400Z 16005KT 5SM IC SCT055 BKN085 M29/M32 A2990 RMK SC4AC1 SLP248

CYYC;2009-12-13 05:00;CYYC 130500Z 16005KT 6SM IC SCT050 OVC120 M29/M33 A2989 RMK SC4AC2 SLP246

CYYC;2009-12-13 05:56;CYYC 130556Z 16005KT 6SM -SN SCT050 OVC120 M28/ RMK SC4AC2

CYYC;2009-12-13 06:00;CYYC 130600Z 16005KT 6SM -SN SCT050 OVC120 M28/M32 A2990 RMK SC4AC2 /S01/ SLP249

CYYC;2009-12-13 07:00;CYYC 130700Z 16006KT 3SM -SN SCT025 BKN120 M28/M32 A2989 RMK SC3AC2 SLP246

CYYC;2009-12-13 07:32;CYYC 130732Z 15005KT 5SM BR FEW036 BKN085 M28/ RMK SC2AC2

CYYC;2009-12-13 07:53;CYYC 130753Z 13006KT 5SM -SN BR FEW040 BKN085 M28/ RMK SC2AC2 INTMT -SN

CYYC;2009-12-13 08:00;CYYC 130800Z 12006KT 5SM -SN FEW044 BKN085 M28/M33 A2987 RMK SC2AC2 PCPCN VRY LGT/INTMT -SN SLP242

CYYC;2009-12-13 09:00;CYYC 130900Z 12005KT 5SM -SN FEW044 OVC084 M29/M33 A2987 RMK SC2AC5 PCPN VRY LGT SLP243

CYYC;2009-12-13 10:00;CYYC 131000Z 13005KT 3SM -SN FEW026 SCT042 OVC080 M28/M33 A2987 RMK SC2SC2AC2 FROIN SLP243

CYYC;2009-12-13 10:24;CYYC 131024Z 13005KT 2SM -SN FEW009 BKN025 OVC080 M28/ RMK SC1SC4AC3

CYYC;2009-12-13 10:55;CYYC 131055Z 13005KT 5SM -SN FEW009 BKN037 OVC090 M28/ RMK SC1SC4AC3

CYYC;2009-12-13 11:00;CYYC 131100Z 14005KT 5SM -SN FEW009 BKN037 OVC091 M28/M33 A2986 RMK SC1SC4AC2 SLP241

CYYC;2009-12-13 12:00;CYYC 131200Z CCA 12005KT 5SM -SN FEW036 BKN060 BKN083 M29/M33 A2986 RMK SC1SC4AC1 SC TR SLP241

CYYC;2009-12-13 12:20;CYYC 131220Z 12004KT 7SM FEW036 SCT060 BKN083 M29/ RMK SC1SC2AC2

CYYC;2009-12-13 13:00;CYYC 131300Z 14004KT 7SM BKN080 M29/M33 A2985 RMK AC4 SLP236

CYYC;2009-12-13 14:00;CYYC 131400Z 18002KT 10SM BKN075 M29/M33 A2985 RMK AC4 SLP235

CYYC;2009-12-13 14:55;CYYC 131455Z 13004KT 10SM SCT080 OVC100 M28/ RMK AC4AC3

CYYC;2009-12-13 15:00;CYYC 131500Z 13004KT 10SM SCT080 OVC100 M28/M33 A2984 RMK AC4AC3 SLP234

CYYC;2009-12-13 15:28;CYYC 131528Z 12004KT 4SM -SN SCT015 BKN020 OVC100 M28/ RMK SC4SC2AC2

CYYC;2009-12-13 16:00;CYYC 131600Z 09003KT 4SM -SN SCT018 BKN034 OVC080 M28/M33 A2986 RMK SC4SC2AC1 SLP241

CYYC;2009-12-13 17:00;CYYC 131700Z 09002KT 3SM -SN BKN020 OVC038 M28/M32 A2987 RMK SC5SC3 SLP244

CYYC;2009-12-13 17:35;CYYC 131735Z 08002KT 2 1/4SM -SN BKN013 OVC028 M28/ RMK SC5SC3

CYYC;2009-12-13 18:00;CYYC 131800Z 08003KT 3SM -SN BKN019 OVC030 M27/M32 A2988 RMK SC5SC3 SLP246

CYYC;2009-12-13 18:30;CYYC 131830Z 09006KT 2 1/2SM -SN BKN010 OVC020 M28/ RMK SC5SC3

CYYC;2009-12-13 18:44;CYYC 131844Z 10004KT 3SM -SN BKN020 OVC040 M28/ RMK SC5SC3

CYYC;2009-12-13 19:00;CYYC 131900Z 10003KT 1 1/2SM -SN BKN012 OVC030 M28/M33 A2987 RMK SC5SC3 SLP242

CYYC;2009-12-13 19:25;CYYC 131925Z 05002KT 3SM -SN BKN019 OVC030 M28/ RMK SC5SC3

CYYC;2009-12-13 19:44;CYYC 131944Z 07002KT 2SM -SN BKN011 OVC030 M28/ RMK SC5SC3

CYYC;2009-12-13 20:00;CYYC 132000Z 05003KT 1 1/2SM -SN BKN013 OVC025 M28/M33 A2986 RMK SC5SC3 SLP240

CYYC;2009-12-13 20:53;CYYC 132053Z 04003KT 4SM -SN BKN007 OVC016 M27/ RMK SC5SC3 VIS NE 11/4 MI

CYYC;2009-12-13 21:00;CYYC 132100Z 30003KT 4SM -SN FEW006 SCT011 OVC055 M28/M32 A2987 RMK SC2SC2SC4 VIS NE 11/2 MI SLP243

CYYC;2009-12-13 22:00;CYYC 132200Z 04004KT 8SM -SN FEW018 OVC040 M27/M32 A2988 RMK SC2SC6 SLP247

CYYC;2009-12-13 23:00;CYYC 132300Z 05003KT 5SM -SN FEW010 BKN022 OVC036 M27/M32 A2989 RMK SC2SC3SC2 SLP250

CYYC;2009-12-14 00:00;CYYC 140000Z 05004KT 6SM -SN FEW020 SCT060 OVC100 M27/M32 A2991 RMK SC2SC2AC2 SLP256

CYYC;2009-12-14 01:00;CYYC 140100Z 00000KT 8SM FEW060 BKN120 M28/M32 A2992 RMK SC2AC2 SLP260

CYYC;2009-12-14 02:00;CYYC 140200Z 00000KT 8SM SCT100 M28/M33 A2993 RMK AC2 SLP264

CYYC;2009-12-14 03:00;CYYC 140300Z 33006KT 5SM -SN SCT060 BKN080 M29/M33 A2995 RMK SC3AC2 SLP271

CYYC;2009-12-14 04:00;CYYC 140400Z 34002KT 5SM -SN FEW015 BKN027 M28/M32 A2995 RMK SC2SC4 SLP273

CYYC;2009-12-14 04:05;CYYC 140405Z 33003KT 2 1/2SM -SN OVC015 M28/ RMK SC8

CYYC;2009-12-14 04:27;CYYC 140427Z 34005KT 5SM -SN FEW015 OVC045 M28/ RMK SC2SC5

CYYC;2009-12-14 05:00;CYYC 140500Z 33005KT 5SM -SN FEW040 OVC100 M27/M31 A2997 RMK SC2AC5 SLP278

CYYC;2009-12-14 06:00;CYYC 140600Z 32005KT 5SM -SN OVC070 M26/M31 A2997 RMK AC8 SLP276

CYYC;2009-12-14 07:00;CYYC 140700Z 34006KT 2 1/2SM -SN OVC040 M26/M31 A2999 RMK SC8 SLP281

CYYC;2009-12-14 08:00;CYYC 140800Z 33005KT 1 1/2SM -SN BKN032 OVC050 M26/M31 A2999 RMK SC6SC2 VIS VRB 2-1 SLP280

CYYC;2009-12-14 09:00;CYYC 140900Z 30003KT 1 1/2SM -SN BKN032 OVC050 M26/M31 A2999 RMK SC6SC2 VIS VRB 2-1 SLP280

CYYC;2009-12-14 09:10;CYYC 140910Z 30004KT 5SM -SN OVC070 M26/ RMK AC8

CYYC;2009-12-14 10:00;CYYC 141000Z 29003KT 5SM -SN OVC070 M26/M31 A3000 RMK AC8 SLP284

CYYC;2009-12-14 11:00;CYYC 141100Z 25003KT 7SM SCT070 M26/M31 A3000 RMK AC2 SLP284

CYYC;2009-12-14 12:00;CYYC 141200Z 22002KT 7SM FEW070 M27/M31 A3000 RMK AC1 SNOW COVER/MUCH LOOSE SLP287

CYYC;2009-12-14 13:00;CYYC 141300Z 34003KT 7SM FEW070 M31/M36 A3001 RMK AC1 SLP290

CYYC;2009-12-14 14:00;CYYC 141400Z 33003KT 7SM SKC M30/M35 A3001 RMK SLP289

CYYC;2009-12-14 14:29;CYYC 141429Z 28005KT 7SM FEW250 M31/ RMK CI1

CYYC;2009-12-14 15:00;CYYC 141500Z 01003KT 6SM IC FEW230 M32/M36 A3001 RMK CI1 SLP301

CYYC;2009-12-14 16:00;CYYC 141600Z 20002KT 40SM SKC M30/M34 A3003 RMK VIS W-N 5 SLP307

CYYC;2009-12-14 17:00;CYYC 141700Z 18002KT 40SM SKC M27/M31 A3003 RMK SLP307

CYYC;2009-12-14 17:33;CYYC 141733Z 22006KT 40SM SKC M26/

CYYC;2009-12-14 18:00;CYYC 141800Z 20007KT 40SM SKC M25/M30 A3004 RMK SLP297

CYYC;2009-12-14 19:00;CYYC 141900Z 23006KT 40SM SKC M24/M28 A3002 RMK SLP291

CYYC;2009-12-14 20:00;CYYC 142000Z 22004KT 40SM SKC M22/M28 A3001 RMK SLP286

CYYC;2009-12-14 21:00;CYYC 142100Z 20004KT 40SM SKC M21/M27 A3000 RMK SLP274

CYYC;2009-12-14 22:00;CYYC 142200Z 18005KT 40SM SKC M21/M27 A2999 RMK SLP271

CYYC;2009-12-14 23:00;CYYC 142300Z 18005KT 40SM SKC M23/M29 A2998 RMK SLP268

CYYC;2009-12-15 00:00;CYYC 150000Z 14005KT 40SM FEW250 M25/M30 A2997 RMK CI1 SLP271

CYYC;2009-12-15 01:00;CYYC 150100Z 18006KT 15SM FEW260 M26/M31 A2996 RMK CI1 SLP270

CYYC;2009-12-15 02:00;CYYC 150200Z 19006KT 10SM SKC M25/M29 A2995 RMK SLP267

CYYC;2009-12-15 03:00;CYYC 150300Z 19006KT 10SM SKC M25/M29 A2994 RMK SLP270

CYYC;2009-12-15 04:00;CYYC 150400Z 22003KT 15SM SKC M25/M30 A2993 RMK SLP267

CYYC;2009-12-15 05:00;CYYC 150500Z 21006KT 15SM SKC M26/M30 A2991 RMK SLP262

CYYC;2009-12-15 06:00;CYYC 150600Z 23002KT 15SM SKC M29/M33 A2991 RMK SLP254

CYYC;2009-12-15 07:00;CYYC 150700Z 19007KT 15SM SKC M27/M31 A2989 RMK SLP249

CYYC;2009-12-15 08:00;CYYC 150800Z 22008KT 15SM SCT170 M26/M30 A2985 RMK AS2 SLP238

CYYC;2009-12-15 09:00;CYYC 150900Z 19007KT 15SM BKN170 M26/M30 A2983 RMK AS4 SLP213

CYYC;2009-12-15 10:00;CYYC 151000Z 14007KT 15SM SCT120 BKN160 M24/M28 A2980 RMK AC2AS3 SLP204

CYYC;2009-12-15 11:00;CYYC 151100Z 19004KT 15SM BKN120 M22/M26 A2978 RMK AC6 SLP198

CYYC;2009-12-15 12:00;CYYC 151200Z CCA 18005KT 15SM OVC100 M20/M24 A2974 RMK AC7 SNOW COVER/MUCH LOOSE SLP180

CYYC;2009-12-15 13:00;CYYC 151300Z 19005KT 15SM OVC140 M20/M23 A2969 RMK AC8 SLP164

CYYC;2009-12-15 14:00;CYYC 151400Z 16007KT 15SM FEW120 BKN140 OVC210 M20/M23 A2966 RMK AC1AC7CI1 AC TR SLP157

CYYC;2009-12-15 15:00;CYYC 151500Z 15003KT 20SM FEW090 BKN140 OVC240 M20/M24 A2964 RMK AC2AC2CI3 SLP148

CYYC;2009-12-15 16:00;CYYC 151600Z 16004KT 30SM FEW100 SCT140 BKN240 M20/M23 A2964 RMK AC1AC3CI3 SLP147

CYYC;2009-12-15 17:00;CYYC 151700Z 21008KT 30SM FEW040 FEW140 BKN260 M19/M24 A2964 RMK SC1AC2CI4 SLP146

CYYC;2009-12-15 18:00;CYYC 151800Z CCA 19004KT 40SM FEW040 FEW140 BKN260 M15/M22 A2964 RMK SC1AC1CI2 SLP142

CYYC;2009-12-15 19:00;CYYC 151900Z 22005KT 40SM FEW040 FEW160 SCT260 M13/M17 A2965 RMK SC1AC1CI2 SLP146

CYYC;2009-12-15 20:00;CYYC 152000Z 19005KT 40SM FEW030 FEW160 SCT260 M10/M15 A2965 RMK SC1AC1CI3 SH DIST SW SLP146

CYYC;2009-12-15 21:00;CYYC 152100Z 22005KT 40SM FEW030 FEW140 BKN260 M07/M12 A2965 RMK SC1AC1CI3 SH DIST SW SLP131

CYYC;2009-12-15 22:00;CYYC 152200Z 20005KT 40SM FEW030 FEW170 BKN260 M08/M12 A2967 RMK SC1AC1CI2 SH DIST SW SLP136

CYYC;2009-12-15 23:00;CYYC 152300Z CCA 20004KT 40SM FEW030 FEW170 BKN270 M07/M12 A2969 RMK SC1AC1CI2 SH DIST SW SLP144

CYYC;2009-12-16 00:00;CYYC 160000Z 21003KT 40SM FEW030 FEW170 BKN240 M08/M13 A2971 RMK SC1AC2CI2 SH DIST SW SLP146

CYYC;2009-12-16 01:00;CYYC 160100Z 36002KT 15SM FEW180 BKN220 M08/M12 A2972 RMK AC1CI4 SLP149

CYYC;2009-12-16 02:00;CYYC 160200Z 20006KT 15SM BKN180 M06/M11 A2972 RMK AC7 SLP149

CYYC;2009-12-16 03:00;CYYC 160300Z 22004KT 15SM OVC150 M02/M09 A2973 RMK AC8 SLP144

CYYC;2009-12-16 04:00;CYYC 160400Z 13005KT 15SM OVC140 M05/M11 A2973 RMK AC8 SLP144

CYYC;2009-12-16 05:00;CYYC 160500Z 00000KT 15SM OVC130 M06/M10 A2974 RMK AC8 SLP147

CYYC;2009-12-16 06:00;CYYC 160600Z 15005KT 15SM SCT130 OVC170 M09/M12 A2974 RMK AC3AC5 SLP148

CYYC;2009-12-16 07:00;CYYC 160700Z 22004KT 15SM FEW130 SCT170 BKN240 M10/M14 A2972 RMK AC1AC2CI2 SLP142

CYYC;2009-12-16 08:00;CYYC 160800Z 26003KT 15SM FEW170 BKN240 M09/M12 A2968 RMK AC1CI3 SLP132

CYYC;2009-12-16 09:00;CYYC 160900Z 19005KT 15SM BKN250 M11/M13 A2966 RMK CI2 SLP113

CYYC;2009-12-16 10:00;CYYC 161000Z 21007KT 15SM BKN240 M07/M11 A2968 RMK CI3 SLP119

CYYC;2009-12-16 11:00;CYYC 161100Z 21008KT 15SM SCT200 BKN250 M06/M10 A2965 RMK CI3CI2 SLP109

CYYC;2009-12-16 12:00;CYYC 161200Z CCB 15003KT 15SM BKN240 M09/M13 A2965 RMK CI2 SNOW COVER/MUCH LOOSE SLP107

CYYC;2009-12-16 13:00;CYYC 161300Z 19010KT 15SM SCT240 M07/M11 A2964 RMK CI2 SLP104

CYYC;2009-12-16 14:00;CYYC 161400Z 25015KT 15SM FEW250 01/M07 A2963 RMK CI1 SLP100

CYYC;2009-12-16 15:00;CYYC 161500Z 09005KT 40SM FEW030 FEW160 FEW270 M00/M07 A2966 RMK SC1AC1CI0 SLP092

CYYC;2009-12-16 16:00;CYYC 161600Z 10006KT 40SM FEW040 FEW160 BKN270 02/M07 A2968 RMK SC1AC1CI2 ACSL S SLP097

CYYC;2009-12-16 17:00;CYYC 161700Z 16008KT 40SM FEW040 FEW180 BKN250 01/M08 A2969 RMK SC1AC1CI2 ACSL S SLP101

CYYC;2009-12-16 18:00;CYYC 161800Z 09007KT 40SM FEW040 FEW180 BKN250 05/M06 A2972 RMK SC1AC1CI2 ACSL S SLP112

CYYC;2009-12-16 19:00;CYYC 161900Z 12008KT 40SM FEW040 FEW150 BKN250 03/M07 A2973 RMK SC1AC1CI2 ACSL SLP116

CYYC;2009-12-16 20:00;CYYC 162000Z 14002KT 40SM FEW040 FEW150 BKN250 02/M07 A2973 RMK SC1AC2CI2 ACSL SLP117

CYYC;2009-12-16 21:00;CYYC 162100Z 18009KT 40SM FEW040 FEW140 BKN250 02/M06 A2975 RMK SC1AC2CI2 ACSL SLP129

CYYC;2009-12-16 22:00;CYYC 162200Z 14005KT 40SM FEW050 FEW140 BKN260 01/M06 A2976 RMK SC1AC2CI2 ACSL SLP133

CYYC;2009-12-16 23:00;CYYC 162300Z 23002KT 40SM FEW050 FEW140 BKN260 00/M07 A2977 RMK SC1AC2CI2 CU ASOCTD / ACSL S SLP137

CYYC;2009-12-17 00:00;CYYC 170000Z CCA 09002KT 30SM FEW050 FEW140 BKN240 00/M07 A2978 RMK SC1AC1CI2 SLP142

CYYC;2009-12-17 01:00;CYYC 170100Z 11003KT 15SM FEW140 SCT190 BKN240 M02/M07 A2977 RMK AC1AC3CI1 SLP139

CYYC;2009-12-17 02:00;CYYC 170200Z 18009KT 15SM BKN170 M01/M07 A2977 RMK AC7 SLP138

CYYC;2009-12-17 03:00;CYYC 170300Z 19010KT 15SM SCT170 BKN240 M01/M07 A2976 RMK AC3CI3 SLP124

CYYC;2009-12-17 04:00;CYYC 170400Z 19005KT 15SM FEW170 BKN240 01/M06 A2977 RMK AC2CI4 SLP126

CYYC;2009-12-17 05:00;CYYC 170500Z 19004KT 15SM FEW170 BKN250 M02/M07 A2978 RMK AC1CI5 SLP130

CYYC;2009-12-17 06:00;CYYC 170600Z 18004KT 15SM SCT180 BKN240 M02/M07 A2978 RMK AC4CI2 SLP125

CYYC;2009-12-17 07:00;CYYC 170700Z 34004KT 15SM SCT170 BKN230 M04/M08 A2979 RMK AC3CI3 SLP129

CYYC;2009-12-17 08:00;CYYC 170800Z 36002KT 15SM FEW170 BKN230 M04/M08 A2980 RMK AC2CI4 SLP132

CYYC;2009-12-17 09:00;CYYC 170900Z 00000KT 15SM FEW170 BKN230 M06/M09 A2981 RMK AC2CI5 SLP146

CYYC;2009-12-17 10:00;CYYC 171000Z 00000KT 15SM FEW180 BKN220 M03/M08 A2983 RMK AC2CI4 SLP152

CYYC;2009-12-17 11:00;CYYC 171100Z 27002KT 15SM SCT180 BKN220 M03/M07 A2985 RMK AC3CI4 SLP158

CYYC;2009-12-17 12:00;CYYC 171200Z 07004KT 15SM BKN180 OVC220 M01/M06 A2985 RMK AC5CI3 SNOW COVER/MUCH LOOSE SLP156

CYYC;2009-12-17 13:00;CYYC 171300Z 28009KT 15SM OVC180 04/M06 A2987 RMK AC8 SLP160

CYYC;2009-12-17 14:00;CYYC 171400Z 06005KT 15SM OVC180 03/M06 A2990 RMK AC8 SLP171

CYYC;2009-12-17 15:00;CYYC 171500Z 30003KT 30SM BKN180 BKN230 01/M06 A2994 RMK AC4CI2 SLP184

CYYC;2009-12-17 16:00;CYYC 171600Z 34009KT 40SM FEW050 FEW180 FEW230 M01/M08 A2997 RMK CF1AS1CI0 SLP195

CYYC;2009-12-17 17:00;CYYC 171700Z 35006KT 40SM FEW120 FEW220 M02/M09 A3000 RMK AC1CI0 SLP202

CYYC;2009-12-17 18:00;CYYC 171800Z 05004KT 40SM FEW120 FEW220 M01/M08 A3002 RMK AC1CI1 SLP219

CYYC;2009-12-17 19:00;CYYC 171900Z 04002KT 40SM FEW090 02/M06 A3003 RMK AC1 SLP222

CYYC;2009-12-17 20:00;CYYC 172000Z 33005KT 40SM FEW090 FEW230 05/M06 A3004 RMK AC1CI1 SLP224

CYYC;2009-12-17 21:00;CYYC 172100Z 32008KT 40SM FEW090 FEW230 06/M06 A3006 RMK AC1CI1 SLP225

CYYC;2009-12-17 22:00;CYYC 172200Z 33007KT 40SM FEW090 FEW230 06/M06 A3007 RMK AC1CI1 SLP231

CYYC;2009-12-17 23:00;CYYC 172300Z 05008KT 40SM FEW090 FEW230 01/M06 A3010 RMK AC1CI1 SLP240

CYYC;2009-12-18 00:00;CYYC 180000Z 02004KT 40SM FEW080 FEW230 02/M07 A3012 RMK AC1CI0 SLP247

CYYC;2009-12-18 01:00;CYYC 180100Z 29002KT 15SM FEW080 FEW230 M01/M06 A3012 RMK AC1CI1 SLP247

CYYC;2009-12-18 02:00;CYYC 180200Z 24002KT 15SM SKC M02/M06 A3013 RMK SLP250

CYYC;2009-12-18 03:00;CYYC 180300Z 21004KT 15SM FEW250 M02/M07 A3014 RMK CI1 SLP255

CYYC;2009-12-18 04:00;CYYC 180400Z 19002KT 15SM SCT240 M02/M08 A3014 RMK CI1 SLP256

CYYC;2009-12-18 05:00;CYYC 180500Z 16004KT 15SM FEW200 SCT250 M04/M09 A3012 RMK CI1CI1 SLP251

CYYC;2009-12-18 06:00;CYYC 180600Z 21006KT 15SM FEW250 M06/M09 A3012 RMK CI1 SLP257

CYYC;2009-12-18 07:00;CYYC 180700Z 21004KT 15SM SCT250 M06/M09 A3011 RMK CI1 SLP256

CYYC;2009-12-18 08:00;CYYC 180800Z 22004KT 15SM FEW250 M07/M10 A3010 RMK CI1 SLP252

CYYC;2009-12-18 09:00;CYYC 180900Z 20002KT 15SM FEW250 M11/M13 A3009 RMK CI0 SLP246

CYYC;2009-12-18 10:00;CYYC 181000Z 00000KT 15SM SKC M11/M14 A3009 RMK SLP246

CYYC;2009-12-18 11:00;CYYC 181100Z 00000KT 15SM FEW250 M13/M16 A3007 RMK CI1 SLP241

CYYC;2009-12-18 12:00;CYYC 181200Z CCA 20005KT 15SM FEW250 M10/M13 A3006 RMK CI1 SNOW COVER/MEDIUM PACK SLP240

CYYC;2009-12-18 13:00;CYYC 181300Z 19002KT 15SM FEW250 M11/M14 A3005 RMK CI1 SLP236

CYYC;2009-12-18 14:00;CYYC 181400Z 00000KT 15SM FEW250 M12/M15 A3004 RMK CI1 SLP234

CYYC;2009-12-18 15:00;CYYC 181500Z 00000KT 40SM FEW150 FEW180 BKN230 M11/M14 A3003 RMK AC1AS1CI0 SLP235

CYYC;2009-12-18 16:00;CYYC 181600Z 22006KT 40SM BKN220 OVC250 M08/M12 A3002 RMK CI4CI0 SLP230

CYYC;2009-12-18 17:00;CYYC 181700Z 20008KT 40SM BKN220 OVC250 M05/M10 A3001 RMK CI6CI0 SLP228

CYYC;2009-12-18 18:00;CYYC 181800Z 21006KT 40SM SCT180 BKN250 M00/M07 A2999 RMK AC3CI0 SLP212

CYYC;2009-12-18 19:00;CYYC 181900Z 19005KT 40SM FEW060 FEW180 OVC250 M01/M07 A2998 RMK SC1AS1CI0 CONTRAILS SLP207

CYYC;2009-12-18 20:00;CYYC 182000Z 18005KT 40SM FEW060 FEW180 OVC250 02/M06 A2995 RMK SC1AS1CI0 CONTRAILS SLP200

CYYC;2009-12-18 21:00;CYYC 182100Z 17004KT 40SM FEW040 SCT180 OVC250 04/M05 A2993 RMK CU1AS2CI2 SLP192

CYYC;2009-12-18 22:00;CYYC 182200Z 17006KT 40SM FEW060 BKN190 OVC250 05/M05 A2992 RMK SC1AS4CI2 SLP188

CYYC;2009-12-18 23:00;CYYC 182300Z 00000KT 40SM FEW090 BKN190 OVC250 06/M04 A2991 RMK AC1AS4CI2 SLP187

CYYC;2009-12-19 00:00;CYYC 190000Z CCA 26015KT 40SM FEW090 SCT190 OVC240 08/M04 A2988 RMK AC1AS2CI3 WSHFT 2355 SLP169

CYYC;2009-12-19 01:00;CYYC 190100Z 26020G26KT 15SM BKN240 08/M04 A2986 RMK CI5 SLP162

CYYC;2009-12-19 02:00;CYYC 190200Z 29018G24KT 15SM SCT240 08/M04 A2987 RMK CI2 SLP166

CYYC;2009-12-19 03:00;CYYC 190300Z 26022G33KT 15SM SCT240 07/M04 A2987 RMK CI2 SLP166

CYYC;2009-12-19 04:00;CYYC 190400Z 27011G16KT 15SM BKN250 06/M04 A2989 RMK CI5 SLP173

CYYC;2009-12-19 05:00;CYYC 190500Z 27008KT 15SM BKN250 06/M04 A2990 RMK CI5 SLP174

CYYC;2009-12-19 06:00;CYYC 190600Z 23006KT 15SM SCT250 03/M05 A2989 RMK CI2 SLP163

CYYC;2009-12-19 07:00;CYYC 190700Z 25005KT 15SM FEW250 04/M05 A2988 RMK CI0 SLP159

CYYC;2009-12-19 07:09;CYYC 190709Z 25007KT 15SM FEW250 01/ RMK CI0

CYYC;2009-12-19 07:24;CYYC 190724Z 23009KT 15SM FEW250 02/ RMK CI0

CYYC;2009-12-19 08:00;CYYC 190800Z 21005KT 15SM SCT250 00/M06 A2987 RMK CI0 SLP157

CYYC;2009-12-19 08:46;CYYC 190846Z 22007KT 15SM FEW050 SCT250 02/ RMK SC1CI2

CYYC;2009-12-19 09:00;CYYC 190900Z 23006KT 15SM FEW110 BKN250 02/M06 A2986 RMK AC2CI1 SLP147

CYYC;2009-12-19 09:35;CYYC 190935Z 22005KT 15SM FEW100 SCT250 01/ RMK AC2CI1

CYYC;2009-12-19 10:00;CYYC 191000Z 23008KT 15SM FEW110 SCT230 00/M06 A2985 RMK AC2CI1 SLP146

CYYC;2009-12-19 11:00;CYYC 191100Z 22007KT 15SM FEW110 FEW230 M01/M07 A2984 RMK AC1CI0 SLP142

CYYC;2009-12-19 12:00;CYYC 191200Z 36013KT 15SM FEW110 BKN220 M04/M08 A2986 RMK AC1CI0 SLP151

CYYC;2009-12-19 13:00;CYYC 191300Z 33008KT 15SM FEW100 SCT240 M03/M07 A2988 RMK AC2CI0 SLP157

CYYC;2009-12-19 14:00;CYYC 191400Z 34011KT 15SM FEW130 BKN230 M03/M06 A2989 RMK AC2CI1 SLP162

CYYC;2009-12-19 15:00;CYYC 191500Z 36009KT 15SM FEW130 BKN230 M04/M06 A2990 RMK AC2CI1 SLP165

CYYC;2009-12-19 16:00;CYYC 191600Z 35009KT 15SM FEW050 BKN130 BKN230 M03/M06 A2991 RMK CU1AC4CI1 CU TR SLP168

CYYC;2009-12-19 17:00;CYYC 191700Z 35008KT 15SM BKN120 OVC240 M03/M06 A2992 RMK AC6CI1 SLP171

CYYC;2009-12-19 18:00;CYYC 191800Z 31006KT 15SM BKN110 BKN240 M03/M05 A2993 RMK AC5CI0 SLP182

CYYC;2009-12-19 19:00;CYYC 191900Z 31006KT 15SM FEW110 SCT240 M01/M05 A2993 RMK AC2CI0 SLP181

CYYC;2009-12-19 20:00;CYYC 192000Z 33003KT 30SM FEW110 M01/M05 A2993 RMK AC1 SLP182

CYYC;2009-12-19 21:00;CYYC 192100Z 04004KT 30SM FEW110 M01/M05 A2994 RMK AC1 SLP183

CYYC;2009-12-19 22:00;CYYC 192200Z 05004KT 30SM FEW110 M02/M06 A2993 RMK AC1 SLP181

CYYC;2009-12-19 23:00;CYYC 192300Z 07003KT 20SM FEW110 M03/M06 A2993 RMK AC1 SLP181

CYYC;2009-12-20 00:00;CYYC 200000Z 13004KT 30SM FEW110 FEW230 M04/M07 A2994 RMK AC1CI1 SLP197

CYYC;2009-12-20 01:00;CYYC 200100Z 15005KT 15SM FEW110 FEW230 M06/M08 A2995 RMK AC1CI0 SLP198

CYYC;2009-12-20 02:00;CYYC 200200Z 18006KT 15SM FEW110 FEW230 M06/M08 A2995 RMK AC1CI0 VIS NE-SE LWR SLP200

CYYC;2009-12-20 02:18;CYYC 200218Z 12005KT 1 1/2SM BR SCT004 SCT230 M06/ RMK ST2CI0 VIS SW-W 8

CYYC;2009-12-20 02:30;CYYC 200230Z 17006KT 1/2SM FZFG BKN004 M08/ RMK ST4 VIS SW-W 5

CYYC;2009-12-20 02:39;CYYC 200239Z 17006KT 1SM BR SCT004 M08/ RMK ST2 VIS VRB 11/2 - 3/4

CYYC;2009-12-20 02:48;CYYC 200248Z 18007KT 1/2SM FZFG BKN002 M06/ RMK FG3ST2

CYYC;2009-12-20 02:55;CYYC 200255Z 17006KT 1/4SM FZFG VV001 M06/ RMK FG8

CYYC;2009-12-20 03:00;CYYC 200300Z 13006KT 1/4SM FZFG BKN002 M07/M08 A2995 RMK FG5ST1 RVR RWY 16 1800 + 24 2400 SLP202

CYYC;2009-12-20 03:08;CYYC 200308Z 16007KT 1/4SM SN FZFG BKN012 M07/ RMK FG3SC1 RVR RWY 16 1200 + 24 1800 FT

CYYC;2009-12-20 03:14;CYYC 200314Z 18006KT 3/4SM -SN BR SCT015 M07/ RMK FG2SC1 VIS VRB 1-1/2 / RVR RWY 16 2400 + 24 2600 FT

CYYC;2009-12-20 03:23;CYYC 200323Z 15004KT 3SM BR SCT015 M06/ RMK FG2SC1 VIS VRB 5-11/2

CYYC;2009-12-20 04:00;CYYC 200400Z 17005KT 5SM BR FEW030 M07/M08 A2994 RMK SC1 SLP201

CYYC;2009-12-20 05:00;CYYC 200500Z 21003KT 5SM BR FEW030 M07/M09 A2993 RMK SC1 SLP198

CYYC;2009-12-20 05:51;CYYC 200551Z 35004KT 1/2SM FZFG FEW030 M09/ RMK SC1 VIS S-W 3

CYYC;2009-12-20 06:00;CYYC 200600Z 35007KT 1/4SM FZFG SCT030 M11/M13 A2995 RMK FG3SC1 FROIN SLP208

CYYC;2009-12-20 06:10;CYYC 200610Z 35009KT 3SM BR FEW030 M11/ RMK FG2SC1 VIS N-NE 1/2

CYYC;2009-12-20 06:43;CYYC 200643Z 34013KT 2 1/2SM -SN BR BKN007 M08/ RMK FG2SC2

CYYC;2009-12-20 07:00;CYYC 200700Z 34018KT 1 1/2SM -SN BR OVC007 M06/M07 A2999 RMK FG3SC4 SLP219

CYYC;2009-12-20 08:00;CYYC 200800Z 34024G29KT 3SM -SN BR BKN010 BKN018 M05/M07 A3001 RMK FG2SC3SC2 VIS VRB 4-2 SLP226

CYYC;2009-12-20 09:00;CYYC 200900Z 36020KT 15SM BKN014 OVC022 M07/M10 A3005 RMK SC6SC2 SLP233

CYYC;2009-12-20 09:42;CYYC 200942Z 36014G20KT 15SM BKN018 OVC160 M07/ RMK SC6AC2

CYYC;2009-12-20 10:00;CYYC 201000Z 36016KT 15SM BKN018 M07/M12 A3008 RMK SC7 SLP245

CYYC;2009-12-20 11:00;CYYC 201100Z 35014KT 15SM SCT018 BKN140 M08/M13 A3009 RMK SC3AC4 SLP246

CYYC;2009-12-20 12:00;CYYC 201200Z 36009KT 15SM SCT036 BKN140 M08/M14 A3009 RMK SC4AC3 SLP253

CYYC;2009-12-20 13:00;CYYC 201300Z 35005KT 15SM SCT036 BKN140 M08/M14 A3008 RMK SC4AC3 SLP251

CYYC;2009-12-20 14:00;CYYC 201400Z 34004KT 15SM BKN036 BKN140 M08/M14 A3008 RMK SC5AC2 SLP252

CYYC;2009-12-20 15:00;CYYC 201500Z 10002KT 15SM BKN035 BKN140 M08/M14 A3008 RMK SC6AC2 SLP257

CYYC;2009-12-20 15:24;CYYC 201524Z 11002KT 15SM -SG OVC035 M09/ RMK SC8

CYYC;2009-12-20 15:47;CYYC 201547Z 09002KT 5SM -SHGS OVC035 M09/ RMK SC8

CYYC;2009-12-20 16:00;CYYC 201600Z 11002KT 4SM -SHGS FEW024 OVC035 M09/M12 A3009 RMK SC1SC7 SLP258

CYYC;2009-12-20 16:14;CYYC 201614Z 11003KT 2 1/2SM -SHGS FEW024 OVC035 M09/ RMK SC1SC7 VIS SE 11/4

CYYC;2009-12-20 16:23;CYYC 201623Z 10004KT 1 1/4SM -SN SCT008 OVC025 M09/ RMK SN2SC2SC4

CYYC;2009-12-20 17:00;CYYC 201700Z 12004KT 1SM -SN SCT007 OVC020 M09/M12 A3008 RMK SN2SC2SC4 SLP256

CYYC;2009-12-20 17:09;CYYC 201709Z 12005KT 1/2SM SN SCT006 OVC018 M09/ RMK SN3SC1SC4 RVR RWY 16 6000FEET

CYYC;2009-12-20 18:00;CYYC 201800Z 12004KT 1SM -SN SCT008 OVC022 M09/M12 A3006 RMK SN2SC2SC4 RVR RWY 16 6000FEET+//S02/ SLP255

CYYC;2009-12-20 18:27;CYYC 201827Z 15004KT 2SM -SN SCT010 OVC026 M09/ RMK SN2SC2SC4

CYYC;2009-12-20 18:35;CYYC 201835Z 15005KT 6SM -SN FEW010 BKN026 OVC072 M09/ RMK SC2SC5AC1

CYYC;2009-12-20 19:00;CYYC 201900Z 15006KT 6SM -SN FEW010 BKN030 OVC072 M09/M11 A3001 RMK SC1SC4AC3 SLP240

CYYC;2009-12-20 20:00;CYYC 202000Z 15008KT 7SM -SN FEW010 SCT015 OVC070 M09/M11 A2998 RMK SF1SC2AC5 SLP231

CYYC;2009-12-20 20:26;CYYC 202026Z 13008KT 10SM FEW010 SCT020 OVC076 M09/ RMK SF1SC2AC5

CYYC;2009-12-20 21:00;CYYC 202100Z 13009KT 10SM FEW010 FEW014 OVC070 M09/M11 A2994 RMK SF1SC2AC6 SLP209

CYYC;2009-12-20 22:00;CYYC 202200Z 14009KT 7SM FEW011 BKN023 OVC070 M10/M11 A2993 RMK SC2SC5AC1 SLP205

CYYC;2009-12-20 22:08;CYYC 202208Z 14011KT 7SM -SN FEW011 BKN023 OVC070 M10/ RMK SC2SC5AC1 PCPN VRY LIGHT

CYYC;2009-12-20 23:00;CYYC 202300Z 13009KT 5SM -SN SCT011 OVC018 M10/M11 A2991 RMK SC4SC4 SLP199

CYYC;2009-12-21 00:00;CYYC 210000Z CCA 13012KT 5SM -SN SCT011 OVC016 M10/M11 A2990 RMK SC3SC5 /S01/ SLP198

CYYC;2009-12-21 00:16;CYYC 210016Z 13010KT 5SM -SN FEW006 SCT011 OVC016 M10/ RMK SF1SC2SC5

CYYC;2009-12-21 00:36;CYYC 210036Z 14012KT 3SM -SN FEW006 BKN011 OVC016 M10/ RMK SF2SC3SC3

CYYC;2009-12-21 01:00;CYYC 210100Z 13011KT 3SM -SN FEW005 BKN010 OVC016 M10/M12 A2989 RMK SF2SC4SC2 SLP193

CYYC;2009-12-21 02:00;CYYC 210200Z 13011KT 3SM -SN SCT005 OVC010 M10/M12 A2988 RMK SF3SC5 SLP190

CYYC;2009-12-21 02:21;CYYC 210221Z 13011KT 3SM -SN BKN006 OVC010 M10/ RMK SF5SC3

CYYC;2009-12-21 03:00;CYYC 210300Z 14009KT 3SM -SN BKN006 OVC010 M10/M12 A2987 RMK SF5SC3 SLP187

CYYC;2009-12-21 04:00;CYYC 210400Z 13011KT 3SM -SN OVC006 M11/M12 A2985 RMK SC8 SLP181

CYYC;2009-12-21 05:00;CYYC 210500Z 14012KT 4SM -SN OVC009 M12/M14 A2984 RMK SC8 SLP177

CYYC;2009-12-21 05:16;CYYC 210516Z 14011KT 4SM -SN OVC012 M12/ RMK SC8

CYYC;2009-12-21 06:00;CYYC 210600Z 14012KT 5SM -SN BKN010 OVC014 M12/M14 A2984 RMK SC5SC3 SLP179

CYYC;2009-12-21 07:00;CYYC 210700Z 14012KT 5SM -SN SCT009 OVC014 M12/M15 A2983 RMK SC3SC5 SLP176

CYYC;2009-12-21 08:00;CYYC 210800Z 14009KT 4SM -SN OVC011 M12/M15 A2982 RMK SC8 SLP174

CYYC;2009-12-21 09:00;CYYC 210900Z 14011KT 4SM -SN OVC011 M12/M15 A2980 RMK SC8 SLP167

CYYC;2009-12-21 10:00;CYYC 211000Z 14010KT 3SM -SN OVC009 M12/M14 A2980 RMK SC8 SLP167

CYYC;2009-12-21 11:00;CYYC 211100Z 15012KT 3SM -SN OVC008 M12/M14 A2980 RMK SC8 SLP167

CYYC;2009-12-21 12:00;CYYC 211200Z 14008KT 5SM -SN OVC008 M12/M14 A2980 RMK SC8 SLP167

CYYC;2009-12-21 13:00;CYYC 211300Z 15009KT 4SM -SN OVC008 M12/M14 A2979 RMK SC8 SLP163

CYYC;2009-12-21 14:00;CYYC 211400Z 16008KT 5SM -SN OVC007 M12/M14 A2978 RMK SC8 SLP160

CYYC;2009-12-21 15:00;CYYC 211500Z 15009KT 4SM -SN OVC009 M12/M14 A2977 RMK SC8 SLP159

CYYC;2009-12-21 16:00;CYYC 211600Z 16008KT 3SM -SN OVC007 M12/M14 A2977 RMK SC8 VIS NE 11/2 SLP158

CYYC;2009-12-21 17:00;CYYC 211700Z 16006KT 3SM -SN OVC008 M12/M14 A2976 RMK SC8 VIS SE 11/2 SLP156

CYYC;2009-12-21 18:00;CYYC 211800Z 14005KT 4SM -SN BKN008 OVC011 M12/M14 A2977 RMK SC6SC2 SLP159

CYYC;2009-12-21 19:00;CYYC 211900Z 12005KT 5SM -SN OVC008 M12/M14 A2975 RMK SC8 SLP154

CYYC;2009-12-21 20:00;CYYC 212000Z 09005KT 2 1/4SM -SN OVC008 M12/M14 A2976 RMK SC8 SLP157

CYYC;2009-12-21 21:00;CYYC 212100Z 06004KT 2SM -SN OVC007 M12/M14 A2975 RMK SC8 SLP154

CYYC;2009-12-21 22:00;CYYC 212200Z 08004KT 2 1/2SM -SN OVC006 M12/M13 A2975 RMK SC8 SLP153

CYYC;2009-12-21 23:00;CYYC 212300Z 06005KT 2 1/2SM -SN OVC005 M12/M14 A2977 RMK SC8 SLP158

CYYC;2009-12-22 00:00;CYYC 220000Z 06005KT 1 1/2SM -SN BKN006 OVC014 M12/M14 A2978 RMK SC6SC2 SLP166

CYYC;2009-12-22 00:40;CYYC 220040Z 05004KT 1 1/2SM -SN SCT006 OVC015 M13/ RMK SC3SC5

CYYC;2009-12-22 01:00;CYYC 220100Z 02004KT 1 3/4SM -SN FEW006 OVC018 M13/M15 A2979 RMK SC2SC6 SLP168

CYYC;2009-12-22 02:00;CYYC 220200Z 03003KT 2 1/2SM -SN FEW006 SCT012 OVC019 M13/M15 A2980 RMK SC1SC3SC5 SLP170

CYYC;2009-12-22 03:00;CYYC 220300Z 03004KT 1 1/2SM -SN SCT005 OVC017 M13/M15 A2980 RMK SC4SC4 SLP170

CYYC;2009-12-22 04:00;CYYC 220400Z 02005KT 2 1/2SM -SN FEW006 SCT013 OVC030 M13/M15 A2980 RMK SC2SC2SC4 /S01/ SLP171

CYYC;2009-12-22 05:00;CYYC 220500Z 02003KT 2 1/2SM -SN FEW015 SCT020 OVC035 M13/M15 A2980 RMK SC2SC2SC4 SLP171

CYYC;2009-12-22 05:21;CYYC 220521Z 02004KT 4SM -SN FEW010 SCT020 BKN035 OVC060 M13/ RMK SC1SC2SC3SC2

CYYC;2009-12-22 06:00;CYYC 220600Z 02004KT 3SM -SN FEW010 SCT020 OVC040 M13/M15 A2981 RMK SC1SC3SC4 SNOW COVER MUCH LOOSE SLP175

CYYC;2009-12-22 06:12;CYYC 220612Z 02004KT 2 1/2SM -SN SCT012 OVC035 M13/ RMK SC4SC4

CYYC;2009-12-22 06:29;CYYC 220629Z 02004KT 4SM -SN FEW012 OVC035 M13/ RMK SC2SC6

CYYC;2009-12-22 07:00;CYYC 220700Z 03004KT 5SM -SN FEW025 OVC030 M13/M15 A2982 RMK SC2SC6 SLP177

CYYC;2009-12-22 07:38;CYYC 220738Z 03004KT 2 1/2SM -SN SCT012 OVC025 M13/ RMK SC3SC5

CYYC;2009-12-22 08:00;CYYC 220800Z 01004KT 3SM -SN FEW010 BKN020 OVC035 M13/M15 A2982 RMK SC2SC4SC2 SLP178

CYYC;2009-12-22 09:00;CYYC 220900Z 36004KT 5SM -SN SCT030 OVC065 M13/M16 A2983 RMK SC3SC5 SLP183

CYYC;2009-12-22 10:00;CYYC 221000Z 36005KT 5SM -SN FEW040 OVC060 M13/M16 A2985 RMK SC2SC6 SLP187

CYYC;2009-12-22 11:00;CYYC 221100Z 35005KT 5SM -SN SCT038 OVC060 M14/M16 A2985 RMK SC4SC4 SLP188

CYYC;2009-12-22 12:00;CYYC 221200Z 35006KT 3SM -SN SCT013 OVC030 M14/M16 A2985 RMK SC4SC4 SNOW COVER MUCH LOOSE SLP193

CYYC;2009-12-22 12:14;CYYC 221214Z 35006KT 2 1/2SM -SN BKN013 OVC028 M14/ RMK SC5SC3

CYYC;2009-12-22 12:45;CYYC 221245Z 35007KT 3SM -SN BKN020 OVC040 M14/ RMK SC5SC3

CYYC;2009-12-22 13:00;CYYC 221300Z 35006KT 3SM -SN SCT025 OVC054 M14/M16 A2986 RMK SC3SC5 SLP196

CYYC;2009-12-22 14:00;CYYC 221400Z 35005KT 6SM -SN SCT036 OVC110 M15/M17 A2988 RMK SC3AC2 SLP201

CYYC;2009-12-22 15:00;CYYC 221500Z 36005KT 8SM -SN FEW022 BKN036 OVC110 M14/M16 A2989 RMK SC1SC6AC2 SLP207

CYYC;2009-12-22 16:00;CYYC 221600Z 36005KT 8SM -SN FEW020 BKN033 OVC110 M14/M16 A2990 RMK SC1SC7AC1 SLP211

CYYC;2009-12-22 17:00;CYYC 221700Z 35005KT 7SM -SN BKN032 OVC100 M14/M16 A2992 RMK SC7AC1 SLP216

CYYC;2009-12-22 18:00;CYYC 221800Z CCA 36005KT 7SM -SN BKN034 OVC100 M14/M16 A2993 RMK SC7AC1 /S01/ SLP220

CYYC;2009-12-22 19:00;CYYC 221900Z 36006KT 15SM -SN BKN033 OVC140 M13/M16 A2993 RMK SC6AC1 SLP219

CYYC;2009-12-22 20:00;CYYC 222000Z 01007KT 6SM -SN DRSN BKN031 OVC120 M13/M16 A2993 RMK SC5AC2 SLP220

CYYC;2009-12-22 21:00;CYYC 222100Z 35012KT 5SM -SN FEW018 OVC029 M13/M16 A2995 RMK SC2SC6 SLP227

CYYC;2009-12-22 22:00;CYYC 222200Z 35013KT 4SM -SN FEW018 OVC033 M14/M17 A2997 RMK SC1SC8 SLP233

CYYC;2009-12-22 23:00;CYYC 222300Z 36015KT 5SM -SN OVC030 M14/M17 A2999 RMK SC8 SLP239

CYYC;2009-12-23 00:00;CYYC 230000Z CCA 35015KT 5SM -SN DRSN OVC030 M14/M17 A3001 RMK SC8 SLP248

CYYC;2009-12-23 01:00;CYYC 230100Z 34014KT 7SM -SN FEW015 OVC035 M14/M18 A3004 RMK SC1SC8 SLP258

CYYC;2009-12-23 01:53;CYYC 230153Z 34014KT 1 1/4SM -SN FEW010 OVC023 M15/ RMK SC2SC6

CYYC;2009-12-23 02:00;CYYC 230200Z 34014KT 1/2SM SN DRSN BKN003 OVC010 M15/M18 A3007 RMK SC5SC3 RVR RWY34 5000FT SLP268

CYYC;2009-12-23 02:19;CYYC 230219Z 35016KT 1/4SM +SN DRSN BKN002 OVC009 M15/ RMK SN4SC3SC1 RVR RWY34 3000FT

CYYC;2009-12-23 02:25;CYYC 230225Z 36015KT 3/4SM -SN DRSN BKN005 OVC018 M15/ RESN RMK SC5SC3 RVR RWY34 6000FT+

CYYC;2009-12-23 03:00;CYYC 230300Z 36011KT 3SM -SN DRSN BKN026 BKN110 M15/M18 A3008 RMK SC5AC2 SLP277

CYYC;2009-12-23 03:43;CYYC 230343Z 33009KT 15SM SCT026 BKN110 M16/ RMK SC3AC2

CYYC;2009-12-23 04:00;CYYC 230400Z 34011KT 15SM FEW025 SCT110 M17/M20 A3010 RMK SC2AC2 SLP283

CYYC;2009-12-23 05:00;CYYC 230500Z 34010KT 15SM FEW025 BKN070 M16/M20 A3011 RMK SC1AC6 SLP286

CYYC;2009-12-23 06:00;CYYC 230600Z 34011KT 15SM FEW025 SCT070 BKN088 M16/M19 A3013 RMK SC1AC3AC3 SLP293

CYYC;2009-12-23 07:00;CYYC 230700Z 35014KT 15SM BKN064 OVC080 M16/M20 A3016 RMK SC6AC2 SLP302

CYYC;2009-12-23 08:00;CYYC 230800Z 35012KT 6SM -SN OVC065 M16/M20 A3017 RMK SC8 SLP305

CYYC;2009-12-23 08:29;CYYC 230829Z 34007KT 1 3/4SM -SN BKN024 OVC065 M16/ RMK SC6SC2

CYYC;2009-12-23 09:00;CYYC 230900Z 31005KT 4SM -SN SCT024 OVC065 M16/M19 A3018 RMK SC3SC5 SLP312

CYYC;2009-12-23 10:00;CYYC 231000Z 34008KT 15SM FEW024 SCT065 M17/M22 A3020 RMK SC1SC3 SLP317

CYYC;2009-12-23 11:00;CYYC 231100Z 34003KT 15SM FEW065 M19/M24 A3020 RMK SC1 SLP319

CYYC;2009-12-23 12:00;CYYC 231200Z CCA 32004KT 15SM SKC M20/M25 A3022 RMK SNOW COVER/MUCH LOOSE SLP331

CYYC;2009-12-23 13:00;CYYC 231300Z 32005KT 15SM SCT068 M20/M25 A3023 RMK AC3 SLP335

CYYC;2009-12-23 14:00;CYYC 231400Z 31003KT 15SM FEW070 M21/M26 A3025 RMK AC2 SLP340

CYYC;2009-12-23 15:00;CYYC 231500Z 31005KT 30SM BKN079 M19/M25 A3026 RMK AC6 SLP349

CYYC;2009-12-23 16:00;CYYC 231600Z 30007KT 40SM SCT075 M19/M25 A3026 RMK AC2 SLP347

CYYC;2009-12-23 17:00;CYYC 231700Z CCA 29006KT 40SM FEW075 FEW160 M19/M24 A3026 RMK AC1AC1 SLP348

CYYC;2009-12-23 18:00;CYYC 231800Z 24005KT 40SM FEW160 FEW220 M17/M24 A3026 RMK AC1CI1 SLP347

CYYC;2009-12-23 19:00;CYYC 231900Z 26007KT 40SM FEW220 M18/M24 A3025 RMK CI1 SLP342

CYYC;2009-12-23 20:00;CYYC 232000Z 00000KT 40SM FEW220 M16/M22 A3023 RMK CI1 SLP335

CYYC;2009-12-23 21:00;CYYC 232100Z 26009KT 40SM FEW240 M14/M21 A3022 RMK CI1 SLP327

CYYC;2009-12-23 22:00;CYYC 232200Z 26005KT 40SM FEW240 M13/M22 A3023 RMK CI1 SLP331

CYYC;2009-12-23 23:00;CYYC 232300Z 22005KT 40SM FEW240 M14/M21 A3025 RMK CI1 SLP336

CYYC;2009-12-24 00:00;CYYC 240000Z 22002KT 40SM FEW230 M19/M24 A3025 RMK CI1 SLP349

CYYC;2009-12-24 01:00;CYYC 240100Z 24002KT 15SM FEW230 M20/M24 A3023 RMK CI1 SLP344

CYYC;2009-12-24 02:00;CYYC 240200Z CCA 22006KT 15SM SKC M19/M23 A3022 RMK SLP341

CYYC;2009-12-24 03:00;CYYC 240300Z 23004KT 15SM SKC M20/M23 A3021 RMK SLP337

CYYC;2009-12-24 04:00;CYYC 240400Z 21005KT 15SM SKC M20/M25 A3019 RMK SLP332

CYYC;2009-12-24 05:00;CYYC 240500Z 24004KT 15SM SKC M21/M24 A3018 RMK SLP327

CYYC;2009-12-24 06:00;CYYC 240600Z 21003KT 15SM SKC M21/M25 A3016 RMK SLP319

CYYC;2009-12-24 07:00;CYYC 240700Z 21004KT 15SM SKC M17/M20 A3015 RMK SLP316

CYYC;2009-12-24 08:00;CYYC 240800Z 18004KT 15SM SKC M21/M25 A3013 RMK SLP308

CYYC;2009-12-24 09:00;CYYC 240900Z 21004KT 15SM SKC M22/M26 A3012 RMK SLP300

CYYC;2009-12-24 10:00;CYYC 241000Z 19006KT 15SM FEW250 M21/M25 A3011 RMK CI1 SLP298

CYYC;2009-12-24 11:00;CYYC 241100Z 19003KT 15SM FEW250 M20/M24 A3010 RMK CI1 SLP294

CYYC;2009-12-24 12:00;CYYC 241200Z 20002KT 15SM FEW250 M22/M26 A3009 RMK CI1 SNOW COVER/MUCH LOOSE SLP297

CYYC;2009-12-24 13:00;CYYC 241300Z 00000KT 15SM FEW250 M20/M25 A3010 RMK CI0 SLP301

CYYC;2009-12-24 14:00;CYYC 241400Z 20004KT 15SM FEW070 FEW250 M17/M22 A3011 RMK AC2CI0 SLP304

CYYC;2009-12-24 15:00;CYYC 241500Z 20003KT 15SM FEW070 BKN130 M16/M20 A3011 RMK AC1AC4 SLP297

CYYC;2009-12-24 16:00;CYYC 241600Z 21004KT 30SM FEW068 BKN080 BKN130 M12/M15 A3010 RMK AC2AC2AC2 SLP295

CYYC;2009-12-24 17:00;CYYC 241700Z 00000KT 30SM SCT046 OVC070 M10/M14 A3012 RMK SC3AC5 SLP300

CYYC;2009-12-24 18:00;CYYC 241800Z 24003KT 30SM FEW035 OVC046 M08/M13 A3012 RMK SC2SC6 SLP289

CYYC;2009-12-24 19:00;CYYC 241900Z 05002KT 30SM FEW025 OVC046 M07/M12 A3011 RMK SC2SC6 SLP287

CYYC;2009-12-24 20:00;CYYC 242000Z 25002KT 30SM FEW027 OVC059 M05/M11 A3011 RMK SC2SC5 SLP287

CYYC;2009-12-24 21:00;CYYC 242100Z 18005KT 30SM FEW027 SCT059 BKN085 M05/M10 A3010 RMK SC1SC2AC2 SLP278

CYYC;2009-12-24 22:00;CYYC 242200Z 00000KT 30SM FEW059 FEW085 M06/M11 A3011 RMK SC1AC2 SLP283

CYYC;2009-12-24 23:00;CYYC 242300Z 00000KT 30SM FEW059 FEW085 M07/M12 A3012 RMK SC1AC1 SC TR SLP284

CYYC;2009-12-25 00:00;CYYC 250000Z 22003KT 30SM FEW085 FEW220 M08/M14 A3011 RMK AC1CI1 SLP289

CYYC;2009-12-25 01:00;CYYC 250100Z 00000KT 30SM FEW085 M11/M14 A3013 RMK AC1 SLP295

CYYC;2009-12-25 02:00;CYYC 250200Z 24002KT 30SM FEW085 M11/M14 A3014 RMK AC0 SLP296

CYYC;2009-12-25 03:00;CYYC 250300Z 18002KT 15SM SKC M10/M13 A3014 RMK SLP291

CYYC;2009-12-25 04:00;CYYC 250400Z 00000KT 15SM SKC M12/M15 A3014 RMK SLP292

CYYC;2009-12-25 05:00;CYYC 250500Z 00000KT 15SM SKC M09/M13 A3015 RMK SLP295

CYYC;2009-12-25 06:00;CYYC 250600Z 19002KT 15SM SKC M10/M14 A3015 RMK SLP286

CYYC;2009-12-25 07:00;CYYC 250700Z 22007KT 15SM FEW150 M11/M14 A3015 RMK AC1 SLP284

CYYC;2009-12-25 08:00;CYYC 250800Z 00000KT 15SM FEW150 M12/M15 A3017 RMK AC1 SLP291

CYYC;2009-12-25 09:00;CYYC 250900Z 05002KT 15SM SKC M13/M15 A3019 RMK SLP297

CYYC;2009-12-25 10:00;CYYC 251000Z 29002KT 15SM SKC M13/M15 A3019 RMK SLP299

CYYC;2009-12-25 11:00;CYYC 251100Z 00000KT 15SM SKC M15/M17 A3019 RMK SLP299

CYYC;2009-12-25 12:00;CYYC 251200Z CCA 05005KT 15SM SKC M17/M19 A3020 RMK SNOW COVER/MUCH LOOSE SLP313

CYYC;2009-12-25 13:00;CYYC 251300Z 23002KT 15SM SKC M14/M17 A3020 RMK SLP311

CYYC;2009-12-25 14:00;CYYC 251400Z 00000KT 15SM SKC M15/M18 A3021 RMK SLP314

CYYC;2009-12-25 15:00;CYYC 251500Z 15005KT 15SM FEW120 M14/M16 A3023 RMK AC1 SLP318

CYYC;2009-12-25 16:00;CYYC 251600Z 20002KT 15SM FEW120 M12/M15 A3023 RMK AC1 SLP319

CYYC;2009-12-25 17:00;CYYC 251700Z 19004KT 30SM FEW120 FEW220 M14/M18 A3025 RMK AC1CI1 SLP324

CYYC;2009-12-25 18:00;CYYC 251800Z 17002KT 30SM FEW120 FEW220 M10/M15 A3025 RMK AC1CI0 SLP321

CYYC;2009-12-25 19:00;CYYC 251900Z 00000KT 30SM FEW220 M09/M14 A3023 RMK CI1 SLP316

CYYC;2009-12-25 20:00;CYYC 252000Z 22006KT 30SM FEW220 M06/M12 A3023 RMK CI1 SLP316

CYYC;2009-12-25 21:00;CYYC 252100Z 19007KT 30SM FEW220 M05/M12 A3023 RMK CI1 SLP313

CYYC;2009-12-25 22:00;CYYC 252200Z 20004KT 30SM FEW220 M05/M12 A3023 RMK CI1 SLP312

CYYC;2009-12-25 23:00;CYYC 252300Z 21004KT 30SM FEW220 M05/M12 A3023 RMK CI1 SLP311

CYYC;2009-12-26 00:00;CYYC 260000Z 19005KT 30SM FEW220 M08/M13 A3023 RMK CI1 SLP322

CYYC;2009-12-26 01:00;CYYC 260100Z 19005KT 15SM SKC M10/M14 A3023 RMK SLP323

CYYC;2009-12-26 02:00;CYYC 260200Z 20007KT 15SM SKC M11/M14 A3022 RMK SLP320

CYYC;2009-12-26 03:00;CYYC 260300Z 19006KT 15SM SKC M14/M16 A3022 RMK SLP321

CYYC;2009-12-26 04:00;CYYC 260400Z 20007KT 15SM SKC M13/M15 A3021 RMK SLP320

CYYC;2009-12-26 05:00;CYYC 260500Z 00000KT 15SM SKC M16/M18 A3021 RMK SLP318

CYYC;2009-12-26 06:00;CYYC 260600Z 20004KT 15SM SKC M14/M16 A3021 RMK SLP313

CYYC;2009-12-26 07:00;CYYC 260700Z 00000KT 15SM SKC M15/M17 A3021 RMK SLP312

CYYC;2009-12-26 08:00;CYYC 260800Z 21004KT 15SM SKC M14/M16 A3019 RMK SLP307

CYYC;2009-12-26 09:00;CYYC 260900Z 20005KT 15SM SKC M15/M17 A3019 RMK SLP301

CYYC;2009-12-26 10:00;CYYC 261000Z 22004KT 15SM SKC M15/M17 A3019 RMK SLP301

CYYC;2009-12-26 11:00;CYYC 261100Z 22004KT 15SM SKC M14/M16 A3018 RMK SLP298

CYYC;2009-12-26 12:00;CYYC 261200Z 18003KT 15SM SKC M13/M15 A3018 RMK SNOW COVER/ MUCH LOOSE SLP297

CYYC;2009-12-26 13:00;CYYC 261300Z 20006KT 15SM SKC M13/M16 A3017 RMK SLP294

CYYC;2009-12-26 14:00;CYYC 261400Z 00000KT 15SM SKC M14/M17 A3017 RMK SLP294

CYYC;2009-12-26 15:00;CYYC 261500Z 19003KT 15SM FEW050 M13/M16 A3016 RMK SC1 SLP300

CYYC;2009-12-26 16:00;CYYC 261600Z 19003KT 40SM FEW050 FEW100 M14/M16 A3015 RMK SC1AC0 SLP298

CYYC;2009-12-26 17:00;CYYC 261700Z 21005KT 40SM FEW100 FEW200 M09/M13 A3015 RMK AC1CI0 SLP299

CYYC;2009-12-26 18:00;CYYC 261800Z 22003KT 40SM FEW100 FEW200 M08/M13 A3015 RMK AC1CI0 SLP289

CYYC;2009-12-26 19:00;CYYC 261900Z 00000KT 40SM FEW100 M05/M11 A3013 RMK AC1 SLP284

CYYC;2009-12-26 20:00;CYYC 262000Z 20003KT 40SM FEW100 M03/M09 A3012 RMK AC1 SLP280

CYYC;2009-12-26 21:00;CYYC 262100Z 00000KT 40SM FEW100 M03/M09 A3012 RMK AC1 SLP275

CYYC;2009-12-26 22:00;CYYC 262200Z 00000KT 40SM FEW100 FEW200 M01/M08 A3012 RMK AC1CI0 SLP274

CYYC;2009-12-26 23:00;CYYC 262300Z 31002KT 40SM BKN140 M02/M08 A3012 RMK AC1 SLP275

CYYC;2009-12-27 00:00;CYYC 270000Z 00000KT 40SM FEW140 BKN240 M06/M09 A3013 RMK AC1CI0 SLP278

CYYC;2009-12-27 01:00;CYYC 270100Z 36002KT 15SM FEW100 M07/M10 A3012 RMK AC1 SLP275

CYYC;2009-12-27 02:00;CYYC 270200Z 32004KT 15SM SKC M07/M10 A3011 RMK SLP273

CYYC;2009-12-27 03:00;CYYC 270300Z 33003KT 15SM SKC M08/M11 A3011 RMK SLP275

CYYC;2009-12-27 04:00;CYYC 270400Z 00000KT 15SM SKC M07/M11 A3011 RMK SLP277

CYYC;2009-12-27 05:00;CYYC 270500Z 00000KT 15SM SCT120 M08/M11 A3010 RMK AC4 SLP274

CYYC;2009-12-27 06:00;CYYC 270600Z 00000KT 15SM BKN120 M09/M12 A3011 RMK AC5 SLP269

CYYC;2009-12-27 07:00;CYYC 270700Z 19003KT 15SM BKN120 M08/M10 A3011 RMK AC5 SLP270

CYYC;2009-12-27 08:00;CYYC 270800Z 00000KT 15SM SCT120 M08/M10 A3011 RMK AC3 SLP269

CYYC;2009-12-27 09:00;CYYC 270900Z 35005KT 15SM FEW120 M08/M10 A3011 RMK AC2 SLP260

CYYC;2009-12-27 10:00;CYYC 271000Z 33004KT 15SM FEW120 M07/M10 A3011 RMK AC2 SLP261

CYYC;2009-12-27 12:00;CYYC 271200Z 29004KT 15SM FEW120 M10/M12 A3012 RMK AC1 FROIN SLP271

CYYC;2009-12-27 13:00;CYYC 271300Z 00000KT 15SM FEW120 M11/M12 A3012 RMK AC1 FROIN SLP272

CYYC;2009-12-27 14:00;CYYC 271400Z 00000KT 15SM SKC M11/M13 A3012 RMK FROIN SLP272

CYYC;2009-12-27 15:00;CYYC 271500Z CCA 33002KT 40SM FEW100 M12/M14 A3013 RMK AC1 FROIN SLP279

CYYC;2009-12-27 16:00;CYYC 271600Z 30003KT 40SM BKN100 M11/M13 A3013 RMK AC1 FROIN SLP281

CYYC;2009-12-27 17:00;CYYC 271700Z 36003KT 40SM BKN240 M10/M12 A3015 RMK CI1 FROIN SLP287

CYYC;2009-12-27 18:00;CYYC 271800Z 25004KT 40SM FEW100 BKN240 M07/M10 A3016 RMK AC1CI1 AC TR SLP284

CYYC;2009-12-27 19:00;CYYC 271900Z 20003KT 40SM BKN240 M05/M10 A3016 RMK CI1 SLP284

CYYC;2009-12-27 20:00;CYYC 272000Z 00000KT 40SM BKN240 M02/M08 A3015 RMK CI1 SLP282

CYYC;2009-12-27 21:00;CYYC 272100Z 00000KT 40SM BKN220 M02/M08 A3015 RMK CI1 SLP272

CYYC;2009-12-27 22:00;CYYC 272200Z 35003KT 40SM BKN220 M03/M08 A3015 RMK CI1 SLP273

CYYC;2009-12-27 23:00;CYYC 272300Z 36002KT 40SM BKN220 M05/M09 A3016 RMK CI2 SLP276

CYYC;2009-12-28 00:00;CYYC 280000Z 00000KT 40SM FEW080 BKN220 M05/M09 A3017 RMK AC2CI0 SLP288

CYYC;2009-12-28 01:00;CYYC 280100Z 02002KT 20SM FEW080 SCT220 M08/M11 A3018 RMK AC1CI1 SLP290

CYYC;2009-12-28 02:00;CYYC 280200Z 33002KT 15SM BKN220 M11/M14 A3018 RMK CI2 SLP289

CYYC;2009-12-28 03:00;CYYC 280300Z 10002KT 15SM BKN220 M11/M14 A3018 RMK CI2 SLP300

CYYC;2009-12-28 04:00;CYYC 280400Z 34003KT 15SM SCT220 M10/M13 A3017 RMK CI1 SLP299

CYYC;2009-12-28 05:00;CYYC 280500Z 00000KT 15SM FEW160 M12/M14 A3017 RMK AC0 SLP299

CYYC;2009-12-28 06:00;CYYC 280600Z 00000KT 15SM FEW160 M12/M15 A3017 RMK AC0 SLP292

CYYC;2009-12-28 07:00;CYYC 280700Z 18002KT 15SM SKC M12/M14 A3016 RMK SLP291

CYYC;2009-12-28 08:00;CYYC 280800Z 00000KT 15SM FEW160 M12/M14 A3016 RMK AC1 SLP290

CYYC;2009-12-28 09:00;CYYC 280900Z 00000KT 15SM FEW160 M13/M16 A3015 RMK AC1 SLP281

CYYC;2009-12-28 10:00;CYYC 281000Z 20002KT 15SM SKC M13/M15 A3015 RMK SLP279

CYYC;2009-12-28 11:00;CYYC 281100Z 20003KT 15SM SKC M13/M15 A3013 RMK FROIN SLP274

CYYC;2009-12-28 12:00;CYYC 281200Z CCA 18003KT 15SM SKC M14/M16 A3011 RMK FROIN/SN CVR/MUCH LOOSE SLP273

CYYC;2009-12-28 13:00;CYYC 281300Z 00000KT 15SM SKC M14/M16 A3010 RMK FROIN SLP269

CYYC;2009-12-28 14:00;CYYC 281400Z 21004KT 15SM SKC M13/M15 A3008 RMK FROIN SLP264

CYYC;2009-12-28 15:00;CYYC 281500Z 20002KT 40SM FEW140 M14/M16 A3006 RMK AC1 SLP262

CYYC;2009-12-28 16:00;CYYC 281600Z 20003KT 40SM FEW160 M14/M16 A3004 RMK AC1 FROIN SLP256

CYYC;2009-12-28 17:00;CYYC 281700Z 35002KT 40SM FEW140 FEW260 M13/M15 A3003 RMK AC1CI1 SLP252

CYYC;2009-12-28 18:00;CYYC 281800Z 00000KT 40SM FEW160 FEW240 M11/M13 A3000 RMK AC1CI1 SLP241

CYYC;2009-12-28 19:00;CYYC 281900Z 36002KT 40SM FEW160 SCT240 M09/M13 A2998 RMK AC1CI1 SLP233

CYYC;2009-12-28 20:00;CYYC 282000Z 12002KT 40SM FEW160 BKN240 M06/M12 A2994 RMK AC1CI1 SLP223

CYYC;2009-12-28 21:00;CYYC 282100Z 00000KT 40SM FEW160 FEW260 M05/M11 A2992 RMK AC1CI1 SLP206

CYYC;2009-12-28 22:00;CYYC 282200Z 05006KT 40SM FEW140 FEW240 M08/M12 A2991 RMK AC1CI1 ACSL S SLP203

CYYC;2009-12-28 23:00;CYYC 282300Z 36003KT 40SM FEW140 FEW250 M09/M14 A2990 RMK AC1CI1 SLP199

CYYC;2009-12-29 00:00;CYYC 290000Z 35007KT 40SM BKN160 BKN250 M09/M13 A2990 RMK AC1CI0 SLP203

CYYC;2009-12-29 01:00;CYYC 290100Z CCA 34006KT 15SM BKN170 M03/M12 A2989 RMK AC2 SLP201

CYYC;2009-12-29 02:00;CYYC 290200Z 35012KT 15SM BKN170 M07/M13 A2989 RMK AC2 SLP200

CYYC;2009-12-29 03:00;CYYC 290300Z 35011KT 15SM FEW170 M06/M13 A2987 RMK AC1 SLP188

CYYC;2009-12-29 04:00;CYYC 290400Z 32008KT 15SM FEW170 M03/M12 A2986 RMK AC1 SLP187

CYYC;2009-12-29 05:00;CYYC 290500Z 32012KT 15SM SCT170 M04/M13 A2986 RMK AC2 SLP186

CYYC;2009-12-29 06:00;CYYC 290600Z 32009KT 15SM FEW190 M03/M13 A2986 RMK AC1 SLP178

CYYC;2009-12-29 07:00;CYYC 290700Z 32011KT 15SM FEW150 M03/M13 A2985 RMK AC1 SLP176

CYYC;2009-12-29 08:00;CYYC 290800Z 33009KT 15SM SCT150 M04/M13 A2986 RMK AC2 SLP177

CYYC;2009-12-29 09:00;CYYC 290900Z 31005KT 15SM BKN130 M05/M13 A2985 RMK AC3 SLP170

CYYC;2009-12-29 10:00;CYYC 291000Z 31006KT 15SM BKN130 M05/M12 A2985 RMK AC3 SLP169

CYYC;2009-12-29 11:00;CYYC 291100Z 31010KT 15SM BKN110 M02/M12 A2985 RMK AC3 SLP168

CYYC;2009-12-29 12:00;CYYC 291200Z 33011KT 15SM BKN140 M04/M13 A2985 RMK AC2 SN COVER/MUCH LOOSE SLP171

CYYC;2009-12-29 13:00;CYYC 291300Z 29009KT 15SM SCT170 M05/M13 A2985 RMK AC1 SLP171

CYYC;2009-12-29 14:00;CYYC 291400Z 35010KT 15SM FEW170 M07/M14 A2985 RMK AC0 SLP171

CYYC;2009-12-29 15:00;CYYC 291500Z 34006KT 40SM FEW200 M08/M15 A2985 RMK CI1 SLP173

CYYC;2009-12-29 16:00;CYYC 291600Z 32009KT 40SM FEW190 BKN270 M10/M15 A2985 RMK AC1CI1 SLP174

CYYC;2009-12-29 17:00;CYYC 291700Z 36003KT 40SM FEW190 BKN260 M09/M15 A2985 RMK AC1CI1 SLP175

CYYC;2009-12-29 18:00;CYYC 291800Z 32004KT 40SM FEW190 BKN270 M09/M15 A2986 RMK AC1CI1 SLP173

CYYC;2009-12-29 19:00;CYYC 291900Z 19004KT 40SM FEW060 FEW160 SCT270 M07/M14 A2984 RMK SC1AC1CI1 SLP168

CYYC;2009-12-29 20:00;CYYC 292000Z 20003KT 40SM FEW060 FEW160 FEW250 M04/M12 A2983 RMK SC1AC1CI1 SLP165

CYYC;2009-12-29 21:00;CYYC 292100Z 10006KT 40SM FEW060 FEW180 FEW250 M05/M12 A2982 RMK SC1AC1CI0 CONTRAILS SLP157

CYYC;2009-12-29 22:00;CYYC 292200Z 11009KT 40SM FEW060 FEW180 FEW280 M06/M12 A2980 RMK SC1AC1CI0 SLP151

CYYC;2009-12-29 23:00;CYYC 292300Z 11004KT 40SM FEW060 FEW150 BKN260 M09/M14 A2981 RMK SC1AC1CI0 SLP155

CYYC;2009-12-30 00:00;CYYC 300000Z 09004KT 40SM FEW050 FEW150 FEW260 M13/M15 A2982 RMK SC1AC1CI0 SLP166

CYYC;2009-12-30 00:53;CYYC 300053Z 00000KT 20SM FEW050 FEW150 BKN260 M15/ RMK SC1AC1CI2

CYYC;2009-12-30 01:00;CYYC 300100Z 00000KT 15SM FEW050 FEW140 BKN260 M15/M17 A2982 RMK SC1AC1CI2 SLP167

CYYC;2009-12-30 01:38;CYYC 300138Z 04002KT 1 1/2SM IC BR FEW050 FEW140 BKN260 M16/ RMK SC1AC1CI2 VIS SW-NW 3 / FROIN

CYYC;2009-12-30 01:49;CYYC 300149Z 03003KT 3/4SM IC BR BKN004 BKN250 M16/ RMK SC5CI0 RVR RWY34 6000+FT

CYYC;2009-12-30 02:00;CYYC 300200Z 00000KT 1 1/4SM IC BR BKN003 M16/M18 A2983 RMK SC6 SLP170

CYYC;2009-12-30 02:14;CYYC 300214Z CCA 06002KT 3SM -SN BR BKN003 M15/ RMK SC6 VIS N-E 1 / FROIN / RVR RWY28 2200FT

CYYC;2009-12-30 03:00;CYYC 300300Z 32002KT 3SM BR OVC003 M14/M16 A2984 RMK SC8 SLP181

CYYC;2009-12-30 03:31;CYYC 300331Z 00000KT 2SM BR BKN002 OVC006 M13/ RMK SC6SC2

CYYC;2009-12-30 04:00;CYYC 300400Z 05002KT 1 3/4SM BR SCT002 OVC006 M13/M15 A2983 RMK SC3SC5 SLP180

CYYC;2009-12-30 04:28;CYYC 300428Z 00000KT 3SM BR OVC005 M13/ RMK SC8

CYYC;2009-12-30 05:00;CYYC 300500Z 00000KT 4SM BR OVC005 M12/M14 A2982 RMK SC8 SLP177

CYYC;2009-12-30 06:00;CYYC 300600Z 06002KT 2 1/2SM BR OVC005 M12/M13 A2982 RMK SC8 SLP172

CYYC;2009-12-30 06:29;CYYC 300629Z 06003KT 1 1/2SM -SN BR OVC004 M12/ RMK SC8

CYYC;2009-12-30 07:00;CYYC 300700Z 00000KT 5/8SM BR OVC004 M12/M14 A2983 RMK FG5SC3 SLP175

CYYC;2009-12-30 07:41;CYYC 300741Z 08004KT 1SM -SN BR BKN002 OVC005 M12/ RMK SC6SC2

CYYC;2009-12-30 08:00;CYYC 300800Z 07003KT 1SM -SN BR OVC004 M13/M14 A2984 RMK SC8 SLP177

CYYC;2009-12-30 09:00;CYYC 300900Z 10005KT 2SM -SN BR SCT004 OVC007 M13/M14 A2983 RMK SC3SC5 SLP172

CYYC;2009-12-30 09:42;CYYC 300942Z 09006KT 2SM -SN BR BKN003 OVC007 M13/ RMK SC5SC3

CYYC;2009-12-30 10:00;CYYC 301000Z 10004KT 2SM -SN BR SCT003 OVC006 M13/M15 A2983 RMK SC4SC4 SLP173

CYYC;2009-12-30 11:00;CYYC 301100Z 12004KT 2 1/2SM -SN BR BKN004 OVC007 M13/M15 A2983 RMK SC5SC3 SLP171

CYYC;2009-12-30 12:00;CYYC 301200Z 11004KT 3SM -SN BR BKN005 OVC008 M13/M15 A2982 RMK SC6SC2 SNOW COVER/MUCH LOOSE SLP182

CYYC;2009-12-30 13:00;CYYC 301300Z 08004KT 3SM -SN BR BKN008 OVC013 M14/M15 A2983 RMK SC5SC3 SLP185

CYYC;2009-12-30 14:00;CYYC 301400Z 08006KT 5SM -SN BR OVC009 M14/M16 A2986 RMK SC8 SLP193

CYYC;2009-12-30 15:00;CYYC 301500Z 07006KT 4SM -SN BR OVC009 M16/M17 A2988 RMK SC8 FROIN SLP206

CYYC;2009-12-30 16:00;CYYC 301600Z 08007KT 5SM -SN BR BKN009 OVC015 M16/M18 A2990 RMK SC5SC3 SLP213

CYYC;2009-12-30 16:38;CYYC 301638Z 05007KT 5SM -SN BR BKN011 OVC015 M17/ RMK SC6SC2

CYYC;2009-12-30 17:00;CYYC 301700Z 05005KT 5SM -SN BR OVC012 M17/M18 A2993 RMK SC8 SLP221

CYYC;2009-12-30 17:53;CYYC 301753Z 04005KT 2 1/2SM -SN BR OVC015 M17/ RMK SC8

CYYC;2009-12-30 18:00;CYYC 301800Z 04005KT 2 1/2SM -SN BR OVC015 M17/M19 A2995 RMK SC8 SLP231

CYYC;2009-12-30 19:00;CYYC 301900Z 03006KT 4SM -SN BR OVC016 M17/M19 A2995 RMK SC8 SLP231

CYYC;2009-12-30 20:00;CYYC 302000Z 04007KT 5SM -SN BR OVC019 M17/M19 A2995 RMK SC8 SLP231

CYYC;2009-12-30 20:40;CYYC 302040Z 36007KT 1SM -SN BR BKN009 OVC020 M18/ RMK SC5SC3 RVR RWY34 6000+FT

CYYC;2009-12-30 21:00;CYYC 302100Z 35007KT 1SM -SN BR BKN009 OVC019 M18/M20 A2997 RMK SC6SC2 RVR RWY34 6000+FT SLP241

CYYC;2009-12-30 21:48;CYYC 302148Z 35007KT 4SM -SN BR BKN011 OVC025 M18/ RMK SC5SC3

CYYC;2009-12-30 22:00;CYYC 302200Z 36008KT 5SM -SN BR SCT014 SCT035 OVC057 M18/M20 A2999 RMK SC3SC1SC4 SLP246

CYYC;2009-12-30 23:00;CYYC 302300Z 36008KT 10SM -SN FEW014 BKN031 OVC055 M17/M20 A3001 RMK SC1SC6SC2 SLP253

CYYC;2009-12-31 00:00;CYYC 310000Z 35010KT 10SM -SN BKN034 OVC050 M17/M20 A3004 RMK SC6SC2 SLP263

CYYC;2009-12-31 01:00;CYYC 310100Z 36008KT 6SM -SN OVC037 M18/M20 A3005 RMK SC8 SLP268

CYYC;2009-12-31 02:00;CYYC 310200Z 36005KT 6SM -SN OVC038 M18/M20 A3007 RMK SC8 SLP275

CYYC;2009-12-31 03:00;CYYC 310300Z 34010KT 12SM -SN FEW020 OVC039 M17/M20 A3010 RMK SC1SC7 SLP289

CYYC;2009-12-31 04:00;CYYC 310400Z 36011KT 15SM -SN FEW020 OVC036 M18/M22 A3012 RMK SC1SC7 SLP294

CYYC;2009-12-31 05:00;CYYC 310500Z 35010KT 12SM -SN OVC042 M18/M22 A3014 RMK SC8 SLP302

CYYC;2009-12-31 05:49;CYYC 310549Z 35011KT 15SM SCT043 BKN059 M18/ RMK SC3SC3

CYYC;2009-12-31 06:00;CYYC 310600Z 35009KT 12SM FEW043 BKN057 M18/M23 A3016 RMK SC2SC4 SLP314

CYYC;2009-12-31 06:14;CYYC 310614Z 34009KT 4SM -SN SCT043 BKN058 M18/ RMK SC4SC3

CYYC;2009-12-31 07:00;CYYC 310700Z 03008KT 12SM -SN SCT043 BKN058 M19/M23 A3017 RMK SC3SC4 SLP317

CYYC;2009-12-31 08:00;CYYC 310800Z 03005KT 12SM -SN FEW043 BKN060 M20/M24 A3018 RMK SC1SC6 SLP319

CYYC;2009-12-31 08:27;CYYC 310827Z 06004KT 15SM BKN061 M21/ RMK SC6

CYYC;2009-12-31 09:00;CYYC 310900Z 06007KT 15SM BKN060 M22/M26 A3018 RMK SC5 SLP327

CYYC;2009-12-31 10:00;CYYC 311000Z 05004KT 15SM FEW060 BKN250 M23/M27 A3020 RMK SC2CI0 SLP332

CYYC;2009-12-31 11:00;CYYC 311100Z 01002KT 15SM FEW060 BKN230 M23/M27 A3019 RMK SC1CI2 SLP329

CYYC;2009-12-31 12:00;CYYC 311200Z 05002KT 15SM FEW030 BKN110 BKN230 M23/M27 A3019 RMK SC1AC5CI2 SNOW COVER/MUCH LOOSE SLP331

CYYC;2009-12-31 13:00;CYYC 311300Z 04002KT 15SM FEW030 SCT110 BKN230 M23/M27 A3018 RMK SC1AC3CI2 SLP327

CYYC;2009-12-31 14:00;CYYC 311400Z 00000KT 15SM FEW030 OVC100 M22/M26 A3016 RMK SC1AC8 SLP322

CYYC;2009-12-31 14:51;CYYC 311451Z 00000KT 8SM OVC099 M21/ RMK AC7 FROIN

CYYC;2009-12-31 15:00;CYYC 311500Z 14003KT 15SM BKN099 M21/M25 A3016 RMK AC6 FROIN SLP320

CYYC;2009-12-31 16:00;CYYC 311600Z 11005KT 3SM -SN FEW025 SCT060 BKN100 M21/M25 A3016 RMK SC2SC2AC2 SLP318

CYYC;2009-12-31 16:38;CYYC 311638Z 12004KT 2 1/2SM -SN FEW015 SCT030 BKN060 M22/ RMK SC2SC2SC2

CYYC;2009-12-31 17:00;CYYC 311700Z 12005KT 1 1/2SM -SN SCT012 OVC024 M21/M25 A3016 RMK SC3SC5 SLP320

CYYC;2009-12-31 18:00;CYYC 311800Z 13006KT 1SM -SN SCT010 OVC025 M21/M25 A3016 RMK SC3SC5 VIS VRB 11/2-3/4 / RVR RWY 16 + 28 6000+ FT SLP319

CYYC;2009-12-31 18:24;CYYC 311824Z 14008KT 3/4SM -SN BKN011 OVC024 M21/ RMK SC6SC2 RVR RWY 16 + 28 6000+ FT

CYYC;2009-12-31 18:44;CYYC 311844Z 13007KT 3/4SM -SN BKN009 OVC023 M21/ RMK SC6SC2 RVR RWY 16 + 28 6000+ FT

CYYC;2009-12-31 19:00;CYYC 311900Z 15006KT 3/4SM -SN BKN009 OVC021 M21/M25 A3015 RMK SC6SC2 RVR RWY 16 + 28 6000+ FT SLP315

CYYC;2009-12-31 20:00;CYYC 312000Z 13006KT 1SM -SN BKN008 OVC023 M21/M25 A3014 RMK SC6SC2 VIS VRB 11/2 - 3/4 / RVR RWY 16 + 28 6000+ FT SLP312

CYYC;2009-12-31 20:45;CYYC 312045Z 11006KT 1 1/2SM -SN FEW010 OVC030 M21/ RMK SC2SC5

CYYC;2009-12-31 21:00;CYYC 312100Z 12007KT 5SM -SN FEW010 OVC030 M21/M25 A3013 RMK SC2SC5 /S01/ SLP312

CYYC;2009-12-31 21:36;CYYC 312136Z 11008KT 3/4SM -SN BKN010 OVC030 M21/ RMK SC6SC2

CYYC;2009-12-31 21:48;CYYC 312148Z 11009KT 1SM -SN BKN008 OVC020 M21/ RMK SC6SC2 RVR RWY 16+28 6000+ FT / VIS VRB 1/12-3/4

CYYC;2009-12-31 22:00;CYYC 312200Z 12008KT 1SM -SN BKN012 OVC028 M21/M25 A3013 RMK SC6SC2 RVR RWY 16+28 6000+ FT / VIS VRB 1/12-3/4 SLP314

CYYC;2009-12-31 22:47;CYYC 312247Z 11007KT 1 1/2SM -SN BKN016 OVC027 M21/ RMK SC6SC2

CYYC;2009-12-31 23:00;CYYC 312300Z 12007KT 1 1/2SM -SN BKN011 OVC027 M21/M25 A3014 RMK SC6SC2 SLP317

