CYYC;2005-01-01 00:00;METAR CYYC 010000Z 04005KT 8SM -SN FEW012 SCT044 BKN098 M24/M29 A3011 RMK SC1SC2AC4 SLP313=

CYYC;2005-01-01 01:00;METAR CYYC 010100Z 05004KT 5SM -SN FEW022 BKN045 OVC080 M25/M29 A3014 RMK SC1SC3AC2 SLP322=

CYYC;2005-01-01 02:00;METAR CYYC 010200Z 06003KT 5SM -SN FEW025 BKN045 OVC080 M24/M28 A3015 RMK SC1SC5AC2 SLP325=

CYYC;2005-01-01 03:00;METAR CYYC 010300Z 03006KT 7SM -SN FEW025 BKN056 OVC085 M24/M28 A3012 RMK SC1SC6AC1 LWR SC TR SLP318=

CYYC;2005-01-01 04:00;METAR CYYC 010400Z 34003KT 7SM -SN FEW060 OVC089 M23/M28 A3014 RMK SC2AC5 SLP323=

CYYC;2005-01-01 05:00;METAR CYYC 010500Z 05004KT 7SM -SN FEW060 OVC094 M24/M29 A3014 RMK SC2AC5 SLP323=

CYYC;2005-01-01 06:00;METAR CYYC 010600Z 05002KT 7SM -SN BKN064 BKN074 OVC095 M23/M28 A3014 RMK SC5AC2AC1 SLP323=

CYYC;2005-01-01 07:00;METAR CYYC 010700Z 36003KT 8SM -SN FEW017 SCT034 OVC080 M23/M28 A3014 RMK SC2SC2AC4 SLP322=

CYYC;2005-01-01 09:00;METAR CYYC 010900Z 03003KT 3/4SM -SN BKN013 OVC029 M23/M28 A3012 RMK SN3SC3SC2 RVR RWY34 6000 FT SLP316=

CYYC;2005-01-01 10:00;METAR CYYC 011000Z 34003KT 1 1/4SM -SN BKN017 OVC033 M23/M27 A3013 RMK SN2SC5SC2 SLP317=

CYYC;2005-01-01 11:00;METAR CYYC 011100Z 03003KT 1 1/4SM -SN FEW012 OVC029 M23/M27 A3012 RMK SC2SC6 SLP314=

CYYC;2005-01-01 12:00;METAR CYYC 011200Z 05003KT 1 3/4SM -SN FEW030 OVC054 M23/M27 A3012 RMK SC2SC6 /S01/ SLP317=

CYYC;2005-01-01 13:00;METAR CYYC 011300Z 05002KT 1 1/2SM -SN FEW012 OVC020 M23/M27 A3011 RMK SC2SC6 SLP313=

CYYC;2005-01-01 14:00;METAR CYYC 011400Z 35002KT 1 1/2SM -SN FEW013 OVC028 M23/M27 A3011 RMK SC2SC6 SLP313=

CYYC;2005-01-01 15:00;METAR CYYC 011500Z 01002KT 1 3/4SM -SN SCT013 OVC027 M22/M27 A3011 RMK SC4SC4 SLP312=

CYYC;2005-01-01 15:50;SPECI CYYC 011550Z 36003KT 1 1/2SM -SN BKN014 OVC030 RMK SC5SC3=

CYYC;2005-01-01 16:00;METAR CYYC 011600Z 35003KT 1 1/2SM -SN BKN011 OVC026 M22/M27 A3011 RMK SC5SC3 SLP312=

CYYC;2005-01-01 16:31;SPECI CYYC 011631Z 34003KT 1 1/4SM -SN BKN010 OVC026 RMK SN2SC4SC2=

CYYC;2005-01-01 18:00;METAR CYYC 011800Z 36004KT 1 1/4SM -SN BKN011 OVC026 M21/M26 A3013 RMK SN2SC4SC2 SLP316=

CYYC;2005-01-01 18:56;SPECI CYYC 011856Z 36004KT 3SM -SN FEW005 SCT017 OVC032 RMK SC1SC3SC4=

CYYC;2005-01-01 19:00;METAR CYYC 011900Z 36004KT 4SM -SN FEW005 FEW017 OVC032 M21/M26 A3011 RMK SC1SC2SC5 SLP310=

CYYC;2005-01-01 21:00;METAR CYYC 012100Z 05005KT 6SM -SN FEW016 BKN029 M21/M26 A3008 RMK SC1SC2 SLP299=

CYYC;2005-01-01 22:00;METAR CYYC 012200Z 05004KT 5SM -SN FEW024 SCT046 BKN072 M21/M26 A3007 RMK SC2SC2AC2 SLP297=

CYYC;2005-01-01 23:00;METAR CYYC 012300Z 03002KT 5SM -SN FEW024 BKN069 M21/M26 A3009 RMK SC2AC4 SLP301=

CYYC;2005-01-02 00:00;METAR CYYC 020000Z 05002KT 6SM -SN FEW025 OVC074 M22/M26 A3010 RMK SC2AC6 PCPN VRY LGT SLP305=

CYYC;2005-01-02 01:00;METAR CYYC 020100Z 05003KT 6SM IC FEW020 OVC078 M22/M26 A3009 RMK SC1AC7 SLP304=

CYYC;2005-01-02 02:00;METAR CYYC 020200Z 03003KT 8SM FEW020 BKN078 M22/M26 A3009 RMK SC1AC6 SLP303=

CYYC;2005-01-02 03:00;METAR CYYC 020300Z 07002KT 10SM FEW065 OVC078 M22/M26 A3009 RMK SC2AC5 SLP302=

CYYC;2005-01-02 04:00;METAR CYYC 020400Z 00000KT 10SM FEW016 SCT036 BKN080 M22/M26 A3009 RMK SC2SC2AC2 SLP304=

CYYC;2005-01-02 05:00;METAR CYYC 020500Z 16003KT 10SM SCT059 OVC080 M22/M25 A3009 RMK SC3AC5 SLP302=

CYYC;2005-01-02 06:00;METAR CYYC 020600Z 14003KT 10SM BKN150 OVC220 M22/M25 A3009 RMK AC5CI2 SLP302=

CYYC;2005-01-02 07:00;METAR CYYC 020700Z 19004KT 10SM BKN100 OVC220 M22/M25 A3009 RMK AC5CI2 SLP302=

CYYC;2005-01-02 08:00;METAR CYYC 020800Z 19005KT 10SM BKN110 OVC220 M23/M27 A3008 RMK AC5CI2 SLP299=

CYYC;2005-01-02 09:00;METAR CYYC 020900Z 16003KT 10SM BKN150 OVC220 M23/M27 A3008 RMK AC5CI2 SLP300=

CYYC;2005-01-02 12:00;METAR CYYC 021200Z 23004KT 12SM BKN140 BKN220 M23/M26 A3007 RMK AC5CI2 SLP297=

CYYC;2005-01-02 13:00;METAR CYYC 021300Z 20004KT 12SM FEW150 OVC220 M23/M27 A3007 RMK AC2CI5 SLP296=

CYYC;2005-01-02 14:00;METAR CYYC 021400Z 19004KT 12SM FEW150 BKN240 M23/M27 A3006 RMK AC1CI2 SLP294=

CYYC;2005-01-02 15:00;METAR CYYC 021500Z 20004KT 15SM SCT140 BKN170 M23/M27 A3006 RMK AC2AC1 SLP295=

CYYC;2005-01-02 16:00;METAR CYYC 021600Z 18005KT 40SM SCT150 BKN180 M23/M27 A3007 RMK AC1AC0 SLP296=

CYYC;2005-01-02 17:00;METAR CYYC 021700Z 26004KT 40SM FEW150 FEW180 BKN260 M23/M27 A3009 RMK AC1AC1CI0 SLP302=

CYYC;2005-01-02 18:00;METAR CYYC 021800Z 30002KT 40SM FEW150 FEW260 M22/M26 A3010 RMK AC1CI0 SLP304=

CYYC;2005-01-02 19:00;METAR CYYC 021900Z 23002KT 40SM FEW150 FEW260 M18/M22 A3008 RMK AC1CI0 SLP299=

CYYC;2005-01-02 20:00;METAR CYYC 022000Z 34008KT 40SM FEW080 FEW260 M16/M23 A3007 RMK AC1CI1 SLP296=

CYYC;2005-01-02 21:00;METAR CYYC 022100Z 36004KT 40SM FEW080 FEW260 M16/M24 A3006 RMK AC1CI1 SLP282=

CYYC;2005-01-02 22:00;METAR CYYC 022200Z 07002KT 40SM FEW080 FEW260 M16/M24 A3005 RMK AC1CI0 SLP280=

CYYC;2005-01-02 23:00;METAR CYYC 022300Z 14002KT 40SM FEW080 FEW260 M16/M24 A3006 RMK AC1CI0 SLP283=

CYYC;2005-01-03 00:00;METAR CYYC 030000Z 19007KT 30SM FEW080 FEW140 FEW260 M19/M25 A3007 RMK AC1AC1CI0 SLP291=

CYYC;2005-01-03 01:00;METAR CYYC 030100Z 20006KT 15SM FEW180 FEW250 M18/M24 A3008 RMK AC1CI1 SLP293=

CYYC;2005-01-03 03:00;METAR CYYC 030300Z 35002KT 15SM FEW046 FEW150 M20/M24 A3009 RMK SC1AC1 SLP301=

CYYC;2005-01-03 04:00;METAR CYYC 030400Z 33002KT 15SM FEW150 FEW240 M20/M24 A3009 RMK AC1CI1 SLP300=

CYYC;2005-01-03 05:00;METAR CYYC 030500Z 32002KT 15SM FEW150 SCT240 M20/M25 A3009 RMK AC1CI2 AC TR SLP301=

CYYC;2005-01-03 06:00;METAR CYYC 030600Z 27002KT 15SM FEW240 M20/M24 A3009 RMK CI0 SLP300=

CYYC;2005-01-03 07:00;METAR CYYC 030700Z 00000KT 15SM FEW240 M20/M24 A3010 RMK CI1 SLP303=

CYYC;2005-01-03 08:00;METAR CYYC 030800Z 35004KT 15SM FEW120 SCT250 M22/M26 A3010 RMK AC1CI2 SLP303=

CYYC;2005-01-03 09:00;METAR CYYC 030900Z 31004KT 15SM FEW130 BKN250 M23/M26 A3011 RMK AC2CI2 SLP301=

CYYC;2005-01-03 10:00;METAR CYYC 031000Z 21002KT 15SM FEW150 BKN250 M23/M26 A3011 RMK AC2CI2 SLP302=

CYYC;2005-01-03 11:00;METAR CYYC 031100Z 00000KT 15SM FEW045 SCT150 BKN250 M21/M25 A3012 RMK SC2AC2CI1 SLP304=

CYYC;2005-01-03 12:00;METAR CYYC 031200Z 00000KT 15SM OVC050 M19/M23 A3014 RMK SC7 SLP309=

CYYC;2005-01-03 13:00;METAR CYYC 031300Z 00000KT 3SM -SN BKN021 OVC035 M18/M21 A3016 RMK SC7SC1 SLP316=

CYYC;2005-01-03 13:51;SPECI CYYC 031351Z 19002KT 2SM -SN OVC013 RMK SC8=

CYYC;2005-01-03 14:00;METAR CYYC 031400Z 00000KT 1 1/2SM -SN BKN009 OVC023 M16/M20 A3018 RMK SC6SC2 /S01/ SLP322=

CYYC;2005-01-03 14:44;SPECI CYYC 031444Z 00000KT 5SM -SN BKN009 OVC069 RMK SC2AC4=

CYYC;2005-01-03 15:00;METAR CYYC 031500Z 00000KT 7SM -SN FEW009 BKN069 OVC091 M16/M20 A3019 RMK SC1AC2AC2 SLP326=

CYYC;2005-01-03 16:00;METAR CYYC 031600Z 34002KT 15SM -SN FEW042 BKN063 OVC091 M16/M19 A3022 RMK SC1SC4AC2 SLP334=

CYYC;2005-01-03 17:00;METAR CYYC 031700Z 31004KT 15SM -SN FEW042 BKN063 BKN092 M15/M19 A3025 RMK SC1SC2AC3 PCPN VRY LGT SLP342=

CYYC;2005-01-03 18:00;METAR CYYC 031800Z 32006KT 8SM -SN BKN093 M14/M18 A3026 RMK AC3 PCPN VRY LGT SLP348=

CYYC;2005-01-03 18:46;SPECI CYYC 031846Z 33004KT 10SM FEW093 RMK AC1=

CYYC;2005-01-03 19:00;METAR CYYC 031900Z 32004KT 15SM FEW040 FEW093 M14/M18 A3027 RMK SC1AC0 SLP349=

CYYC;2005-01-03 20:00;METAR CYYC 032000Z 35007KT 20SM FEW030 SCT093 M13/M19 A3027 RMK SC1AC0 SLP351=

CYYC;2005-01-03 21:00;METAR CYYC 032100Z 35005KT 20SM FEW030 FEW093 M14/M20 A3028 RMK SC1AC0 SLP357=

CYYC;2005-01-03 22:00;METAR CYYC 032200Z 36006KT 20SM FEW030 FEW093 M15/M21 A3028 RMK SC1AC1 SLP359=

CYYC;2005-01-03 23:00;METAR CYYC 032300Z 35004KT 20SM FEW030 FEW090 M15/M21 A3030 RMK SC1AC1 SLP364=

CYYC;2005-01-04 00:00;METAR CYYC 040000Z 04002KT 20SM FEW030 FEW090 M17/M23 A3032 RMK SC1AC1 SLP371=

CYYC;2005-01-04 01:00;METAR CYYC 040100Z 35003KT 15SM FEW090 M18/M22 A3033 RMK AC1 SLP374=

CYYC;2005-01-04 02:00;METAR CYYC 040200Z 00000KT 15SM SKC M19/M24 A3034 RMK SLP376=

CYYC;2005-01-04 03:00;METAR CYYC 040300Z 00000KT 15SM FEW240 M22/M26 A3033 RMK CI1 SLP380=

CYYC;2005-01-04 04:00;METAR CYYC 040400Z 00000KT 15SM VCFG FEW240 M24/M29 A3034 RMK CI0 SLP383=

CYYC;2005-01-04 05:00;METAR CYYC 040500Z 35002KT 15SM FEW250 M25/M30 A3035 RMK CI0 SLP386=

CYYC;2005-01-04 06:00;METAR CYYC 040600Z 36002KT 15SM VCFG FEW018 FEW250 M26/M30 A3036 RMK SF1CI0 SLP393=

CYYC;2005-01-04 07:00;METAR CYYC 040700Z 00000KT 15SM VCFG FEW003 FEW240 M26/M30 A3036 RMK SF1CI0 SLP392=

CYYC;2005-01-04 08:00;METAR CYYC 040800Z 22002KT 10SM VCFG FEW002 M24/M29 A3035 RMK SF1 TR SF SLP388=

CYYC;2005-01-04 10:00;METAR CYYC 041000Z 24002KT 15SM VCFG FEW240 M25/M29 A3033 RMK CI1 FROIN SLP379=

CYYC;2005-01-04 11:00;METAR CYYC 041100Z 21004KT 15SM FEW240 M24/M27 A3033 RMK CI0 SLP377=

CYYC;2005-01-04 12:00;METAR CYYC 041200Z 00000KT 15SM VCFG FEW018 M25/M29 A3032 RMK SC1 FROIN SLP381=

CYYC;2005-01-04 15:00;METAR CYYC 041500Z 20005KT 30SM SKC M24/M28 A3033 RMK SLP389=

CYYC;2005-01-04 16:00;METAR CYYC 041600Z 19008KT 40SM SKC M24/M28 A3033 RMK SLP389=

CYYC;2005-01-04 17:00;METAR CYYC 041700Z 19008KT 40SM SKC M22/M26 A3033 RMK SLP391=

CYYC;2005-01-04 18:00;METAR CYYC 041800Z 19006KT 40SM SKC M21/M23 A3034 RMK SLP395=

CYYC;2005-01-04 20:00;METAR CYYC 042000Z 18008KT 40SM SKC M17/M21 A3029 RMK SLP378=

CYYC;2005-01-04 21:00;METAR CYYC 042100Z 18010KT 40SM SKC M17/M21 A3027 RMK SLP360=

CYYC;2005-01-04 22:00;METAR CYYC 042200Z 19009KT 40SM SKC M16/M21 A3026 RMK SLP358=

CYYC;2005-01-04 23:00;METAR CYYC 042300Z 18010KT 40SM FEW180 M15/M20 A3025 RMK AC1 SLP352=

CYYC;2005-01-05 00:00;METAR CYYC 050000Z 17010KT 40SM FEW180 M16/M20 A3024 RMK AC1 SLP351=

CYYC;2005-01-05 01:00;METAR CYYC 050100Z 17012KT 15SM SKC M16/M21 A3022 RMK SLP345=

CYYC;2005-01-05 02:00;METAR CYYC 050200Z 18012KT 15SM SKC M18/M22 A3023 RMK SLP346=

CYYC;2005-01-05 03:00;METAR CYYC 050300Z 18011KT 15SM SKC M17/M22 A3021 RMK SLP341=

CYYC;2005-01-05 04:00;METAR CYYC 050400Z 18011KT 15SM SKC M18/M22 A3019 RMK SLP333=

CYYC;2005-01-05 05:00;METAR CYYC 050500Z 18006KT 15SM SKC M19/M23 A3018 RMK SLP330=

CYYC;2005-01-05 06:00;METAR CYYC 050600Z 19008KT 15SM SKC M20/M24 A3016 RMK SLP321=

CYYC;2005-01-05 07:00;METAR CYYC 050700Z 19008KT 15SM SKC M20/M23 A3015 RMK SLP318=

CYYC;2005-01-05 08:00;METAR CYYC 050800Z 19008KT 15SM SKC M20/M24 A3012 RMK SLP311=

CYYC;2005-01-05 09:00;METAR CYYC 050900Z 19009KT 15SM SKC M21/M25 A3008 RMK SLP291=

CYYC;2005-01-05 10:00;METAR CYYC 051000Z 19009KT 15SM SKC M20/M24 A3007 RMK SLP288=

CYYC;2005-01-05 11:00;METAR CYYC 051100Z 19009KT 15SM SKC M20/M24 A3004 RMK SLP277=

CYYC;2005-01-05 12:00;METAR CYYC 051200Z 22007KT 15SM FEW240 M20/M24 A3001 RMK CI0 SN CVR /=

CYYC;2005-01-05 14:00;METAR CYYC 051400Z 21007KT 15SM FEW240 M20/M24 A3000 RMK CI0 FROIN SLP259=

CYYC;2005-01-05 15:00;METAR CYYC 051500Z 20010KT 40SM SKC M18/M23 A2998 RMK SLP249=

CYYC;2005-01-05 16:00;METAR CYYC 051600Z 20008KT 40SM SKC M17/M22 A2995 RMK SLP242=

CYYC;2005-01-05 17:00;METAR CYYC 051700Z 21008KT 40SM SKC M14/M20 A2994 RMK SLP238=

CYYC;2005-01-05 18:00;METAR CYYC 051800Z 21007KT 40SM SKC M12/M18 A2993 RMK SLP228=

CYYC;2005-01-05 19:00;METAR CYYC 051900Z 21008KT 40SM FEW090 M10/M16 A2987 RMK AC1 AC TR SLP211=

CYYC;2005-01-05 20:00;METAR CYYC 052000Z 21006KT 40SM FEW100 FEW240 M07/M11 A2984 RMK AC1CI1 CLDS TR SLP199=

CYYC;2005-01-05 21:00;METAR CYYC 052100Z 20008KT 40SM FEW100 FEW250 M06/M14 A2978 RMK AC1CI1 CLDS TR SLP168=

CYYC;2005-01-05 22:00;METAR CYYC 052200Z 19009KT 40SM FEW100 FEW250 M06/M13 A2973 RMK AC1CI1 BOTH CLDS TR SLP154=

CYYC;2005-01-05 23:00;METAR CYYC 052300Z 21007KT 40SM FEW150 FEW250 M05/M13 A2969 RMK AC1CI1 BOTH CLDS SLP142=

CYYC;2005-01-06 00:00;METAR CYYC 060000Z 00000KT 40SM FEW150 FEW250 M07/M13 A2966 RMK AC1CI1 SLP125=

CYYC;2005-01-06 01:00;METAR CYYC 060100Z 00000KT 15SM FEW150 FEW250 M06/M13 A2962 RMK AC1CI1 SLP114=

CYYC;2005-01-06 02:00;METAR CYYC 060200Z 19002KT 15SM FEW250 M07/M13 A2959 RMK CI1 SLP104=

CYYC;2005-01-06 03:00;METAR CYYC 060300Z 36007KT 15SM SKC M04/M14 A2959 RMK SLP094=

CYYC;2005-01-06 04:00;METAR CYYC 060400Z 32007KT 15SM FEW260 M05/M13 A2959 RMK CI0 SLP093=

CYYC;2005-01-06 05:00;METAR CYYC 060500Z 32008KT 15SM SKC M03/M12 A2957 RMK SLP087=

CYYC;2005-01-06 06:00;METAR CYYC 060600Z 32003KT 15SM SKC M03/M11 A2954 RMK SLP066=

CYYC;2005-01-06 07:00;METAR CYYC 060700Z 32008KT 15SM SKC M05/M12 A2950 RMK SLP055=

CYYC;2005-01-06 08:00;METAR CYYC 060800Z 16002KT 15SM SKC M06/M12 A2947 RMK SLP046=

CYYC;2005-01-06 09:00;METAR CYYC 060900Z 22008KT 15SM SKC M05/M14 A2943 RMK SLP023=

CYYC;2005-01-06 10:00;METAR CYYC 061000Z 20005KT 15SM FEW120 M06/M14 A2943 RMK AC1 SLP022=

CYYC;2005-01-06 11:00;METAR CYYC 061100Z 18005KT 15SM BKN120 M07/M14 A2941 RMK AC2 SLP015=

CYYC;2005-01-06 12:00;METAR CYYC 061200Z 22007KT 15SM FEW100 BKN130 M05/M11 A2937 RMK AC1AC6 SN CVR/MUCH LOOSE SLP002=

CYYC;2005-01-06 14:00;METAR CYYC 061400Z 32011KT 15SM BKN110 M00/M08 A2937 RMK AC7 VIRGA SLP002=

CYYC;2005-01-06 15:00;METAR CYYC 061500Z 32012KT 15SM BKN054 OVC075 M01/M08 A2939 RMK SC6AC2 VIRGA S-W-N SLP998=

CYYC;2005-01-06 16:00;METAR CYYC 061600Z 36019KT 30SM -SN BKN060 OVC086 M01/M07 A2942 RMK SC6AC2 SLP009=

CYYC;2005-01-06 17:00;METAR CYYC 061700Z 34014KT 3SM -SN OVC025 M03/M06 A2948 RMK SN2SC6 SLP026=

CYYC;2005-01-06 17:18;SPECI CYYC 061718Z 34013G18KT 1SM -SN DRSN BKN010 OVC024 RMK SN2SC5SC1 RVR RWY34 6000 FT=

CYYC;2005-01-06 17:36;SPECI CYYC 061736Z 34015G20KT 1SM R34/5000FT -SN DRSN BKN008 OVC021 RMK SN4SC2SC2=

CYYC;2005-01-06 17:39;SPECI CYYC 061739Z 34015G20KT 1/2SM R34/4500FT SN DRSN OVC007 OVC021 RMK SN4SC2SC2=

CYYC;2005-01-06 17:52;SPECI CYYC 061752Z 34014G19KT 2SM -SN DRSN BKN021 OVC038 RESN RMK SC6SC2=

CYYC;2005-01-06 18:00;METAR CYYC 061800Z 34015KT 1SM -SN DRSN BKN021 OVC036 M03/M05 A2951 RESN RMK SC6SC2 /S01/ RVR RWY34 6000 FT SLP045=

CYYC;2005-01-06 18:16;SPECI CYYC 061816Z 34016KT 1/2SM SN DRSN BKN006 OVC017 RMK SN4SC2SC2 RVR RWY34 4500 FT=

CYYC;2005-01-06 18:38;SPECI CYYC 061838Z 34018G24KT 3/8SM SN BLSN BKN006 OVC017 RMK SN5SC2SC1 RVR RWY34 4000 FT=

CYYC;2005-01-06 19:00;METAR CYYC 061900Z 34024G29KT 3/8SM SN BLSN BKN005 OVC015 M04/M06 A2953 RMK SN6SC2SC1 /S01/ RVR RWY34 3000 FT SLP049=

CYYC;2005-01-06 19:22;SPECI CYYC 061922Z 01028G35KT 1/8SM SN +BLSN VV002 RMK SN8 RVR RWY34 1200 FT=

CYYC;2005-01-06 19:46;SPECI CYYC 061946Z 01025G31KT 1/4SM SN +BLSN VV012 RMK SN8 RVR RWY34 2600 FT=

CYYC;2005-01-06 20:00;METAR CYYC 062000Z 01025G30KT 3/8SM SN BLSN VV008 M07/M09 A2958 RMK SN8 /S02/ RVR RWY34 3000 FT SLP064=

CYYC;2005-01-06 20:38;SPECI CYYC 062038Z 36021G27KT 1/2SM -SN BLSN BKN011 OVC026 RESN RMK SN6SC1SC1 RVR RWY34 4500 FT=

CYYC;2005-01-06 21:00;METAR CYYC 062100Z 36022G30KT 1/2SM -SN BLSN BKN014 OVC032 M08/M11 A2963 RESN RMK SN6SC2SC1 /S03/ RVR RWY34 3500 FT SLP096=

CYYC;2005-01-06 22:00;METAR CYYC 062200Z 01021G28KT 3/8SM SN BLSN BKN007 OVC021 M10/M13 A2969 RMK SN6SC2SC1 /S04/ RVR RWY34 3000 FT SLP115=

CYYC;2005-01-06 23:00;METAR CYYC 062300Z 36021G27KT 3/8SM SN BLSN BKN009 OVC028 M12/M15 A2976 RMK SN6SC2SC1 RVR RWY34 4500 FT SLP135=

CYYC;2005-01-06 23:40;SPECI CYYC 062340Z 35023G29KT 1SM -SN BLSN BKN020 OVC035 RESN RMK SN5SC2SC1 RVR RWY34 6000 FT=

CYYC;2005-01-07 00:00;METAR CYYC 070000Z 34021G28KT 2 1/4SM -SN DRSN BKN029 OVC044 M13/M15 A2980 RESN REBLSN RMK SN3SC3SC2 SLP161=

CYYC;2005-01-07 00:49;SPECI CYYC 070049Z 34020G28KT 3SM -SN DRSN BKN040 OVC120 RMK SC6AC2=

CYYC;2005-01-07 02:00;METAR CYYC 070200Z 33019G24KT 2 1/2SM -SN DRSN BKN023 OVC045 M12/M15 A2986 RMK SC5SC3 SLP179=

CYYC;2005-01-07 03:00;METAR CYYC 070300Z 34014KT 3SM -SN DRSN BR BKN023 OVC040 M12/M15 A2988 RMK SC6SC2 SLP182=

CYYC;2005-01-07 03:17;SPECI CYYC 070317Z 33011KT 2 1/2SM -SN DRSN BR BKN020 OVC098 RMK SC6AC2=

CYYC;2005-01-07 04:27;SPECI CYYC 070427Z 35017G24KT 2SM -SN DRSN BR BKN025 OVC100 RMK SC6AC1=

CYYC;2005-01-07 05:00;METAR CYYC 070500Z 36015KT 2 1/2SM -SN DRSN BR BKN020 OVC097 M13/M16 A2992 RMK SC7AC1 SLP196=

CYYC;2005-01-07 05:49;SPECI CYYC 070549Z 01011KT 2SM -SN DRSN BR FEW005 OVC013 RMK SC2SC6=

CYYC;2005-01-07 06:00;METAR CYYC 070600Z 36011KT 2SM -SN BR FEW005 BKN016 OVC030 M13/M16 A2994 RMK SC1SC6SC1 SLP207=

CYYC;2005-01-07 06:42;SPECI CYYC 070642Z 35011KT 5SM -SN BR SCT016 BKN048 BKN080 RMK SC3SC2AC0=

CYYC;2005-01-07 07:00;METAR CYYC 070700Z 36012KT 3SM -SN BR FEW016 BKN025 OVC050 M14/M17 A2996 RMK SC1SC6SC1 SLP213=

CYYC;2005-01-07 08:00;METAR CYYC 070800Z 36010KT 5SM -SN BR FEW015 BKN043 OVC064 M15/M18 A2996 RMK SC1SC6SC1 SLP215=

CYYC;2005-01-07 08:54;SPECI CYYC 070854Z 35006KT 2 1/2SM -SN BR BKN012 OVC033 RMK SC6SC0=

CYYC;2005-01-07 09:00;METAR CYYC 070900Z 36007KT 3SM -SN BR SCT012 BKN020 BKN040 M17/M19 A2996 RMK SC3SC1SC2 SLP228=

CYYC;2005-01-07 09:40;SPECI CYYC 070940Z 34006KT 5SM -SG BR SCT020 BKN040 RMK ST3SC0=

CYYC;2005-01-07 10:29;SPECI CYYC 071029Z 32008KT 5SM -SN BR FEW008 SCT020 BKN080 RMK SC1SC2AC1=

CYYC;2005-01-07 11:00;METAR CYYC 071100Z 34005KT 4SM -SN BR FEW008 BKN029 OVC080 M19/M21 A2998 RMK SC1SC6AC2 SLP235=

CYYC;2005-01-07 14:00;METAR CYYC 071400Z 32003KT 6SM -SN BR FEW013 OVC025 M17/M20 A2997 RMK SC2SC6 SLP241=

CYYC;2005-01-07 14:51;SPECI CYYC 071451Z 00000KT 2 1/2SM -SN FEW013 OVC024 RMK SC1SC7=

CYYC;2005-01-07 15:00;METAR CYYC 071500Z 00000KT 2 1/2SM -SN FEW011 OVC024 M18/M20 A2996 RMK SC1SC7 SLP236=

CYYC;2005-01-07 15:18;SPECI CYYC 071518Z 28002KT 4SM -SN FEW011 BKN024 OVC072 RMK SC1SC6AC2=

CYYC;2005-01-07 16:00;METAR CYYC 071600Z 00000KT 4SM -SN FEW011 SCT024 OVC042 M17/M19 A2995 RMK SC1SC4SC2 SLP233=

CYYC;2005-01-07 17:00;METAR CYYC 071700Z 05002KT 15SM -SN FEW011 SCT042 BKN100 BKN130 M17/M19 A2996 RMK SC1SC2AC1AC0 PCPN VRY LGT SLP234=

CYYC;2005-01-07 17:20;SPECI CYYC 071720Z 00000KT 20SM FEW011 SCT100 BKN130 RMK SC1AC2AC1=

CYYC;2005-01-07 18:00;METAR CYYC 071800Z 00000KT 15SM -SN FEW011 BKN081 OVC150 M16/M19 A2994 RMK SC1AC6AC0 SLP228=

CYYC;2005-01-07 19:00;METAR CYYC 071900Z 08002KT 4SM -SN FEW010 OVC045 M16/M18 A2991 RMK SC1SC8 SLP218=

CYYC;2005-01-07 20:00;METAR CYYC 072000Z 06002KT 3SM -SN FEW010 OVC040 M15/M18 A2987 RMK SC1SC8 SLP206=

CYYC;2005-01-07 20:47;SPECI CYYC 072047Z 11006KT 2SM -SN SCT018 OVC025 RMK SN2SC2SC4=

CYYC;2005-01-07 21:00;METAR CYYC 072100Z 12006KT 4SM -SN FEW010 FEW018 OVC025 M16/M19 A2984 RMK SC1SC2SC5 SLP198=

CYYC;2005-01-07 22:00;METAR CYYC 072200Z 12005KT 6SM -SN FEW010 OVC030 M16/M19 A2983 RMK SC1SC7 SLP194=

CYYC;2005-01-07 23:00;METAR CYYC 072300Z 12005KT 4SM -SN FEW010 BKN025 OVC038 M16/M19 A2981 RMK SC1SC7SC1 LWR SC TR SLP188=

CYYC;2005-01-08 00:00;METAR CYYC 080000Z 11005KT 4SM -SN FEW010 BKN030 OVC044 M17/M19 A2979 RMK SC1SC7SC1 LWR SC TR SLP182=

CYYC;2005-01-08 01:00;METAR CYYC 080100Z 12003KT 2 1/2SM -SN OVC030 M17/M19 A2978 RMK SC8 SLP179=

CYYC;2005-01-08 01:18;SPECI CYYC 080118Z 10003KT 4SM -SN OVC030 RMK SC8=

CYYC;2005-01-08 02:00;METAR CYYC 080200Z 09003KT 3SM -SN FEW023 OVC030 M17/M19 A2976 RMK SC1SC8 SLP174=

CYYC;2005-01-08 03:00;METAR CYYC 080300Z 07003KT 3SM -SN BKN013 OVC029 M17/M19 A2976 RMK SC5SC3 SLP173=

CYYC;2005-01-08 04:00;METAR CYYC 080400Z 08004KT 3SM -SN BKN025 OVC053 M17/M20 A2975 RMK SC6SC2 SLP168=

CYYC;2005-01-08 05:00;METAR CYYC 080500Z 09003KT 3SM -SN FEW015 OVC029 M17/M20 A2974 RMK SC2SC6 SLP166=

CYYC;2005-01-08 06:00;METAR CYYC 080600Z 05003KT 2SM -SN BKN011 OVC029 M18/M20 A2974 RMK SC6SC2 /S01/ SLP165=

CYYC;2005-01-08 07:00;METAR CYYC 080700Z 04004KT 1SM -SN BKN007 OVC024 M18/M20 A2973 RMK SN3SC4SC1 RVR RWY34 6000 FT SLP162=

CYYC;2005-01-08 08:00;METAR CYYC 080800Z 04003KT 1SM -SN BKN012 OVC026 M18/M20 A2973 RMK SN3SC2SC3 /S01/ RVR RWY28 6000 FT SLP162=

CYYC;2005-01-08 09:00;METAR CYYC 080900Z 02005KT 1SM -SN BKN012 OVC026 M18/M20 A2971 RMK SN2SC4SC2 RVR RWY28 6000 FT SLP154=

CYYC;2005-01-08 10:00;METAR CYYC 081000Z 01004KT 1SM -SN BKN014 OVC030 M18/M20 A2972 RMK SN2SC4SC2 RVR RWY28 6000 FT SLP156=

CYYC;2005-01-08 11:00;METAR CYYC 081100Z 34008KT 1SM -SN BKN014 OVC030 M18/M21 A2972 RMK SN2SC2SC3 RVR RWY28 6000 FT SLP157=

CYYC;2005-01-08 13:00;METAR CYYC 081300Z 35008KT 1SM -SN BKN010 OVC024 M18/M21 A2971 RMK SN3SC3SC2 RVR RWY28 6000 FT SLP155=

CYYC;2005-01-08 14:00;METAR CYYC 081400Z 35010KT 1SM -SN BKN010 OVC023 M18/M21 A2971 RMK SN3SC3SC2 VIS W 5/8/ RVR RWY28 6000 FT SLP154=

CYYC;2005-01-08 14:25;SPECI CYYC 081425Z 35008KT 3/4SM -SN BKN008 OVC021 RMK SN3SC3SC2 RVR RWY28 6000 FT=

CYYC;2005-01-08 14:52;SPECI CYYC 081452Z 35006KT 1 1/2SM -SN BKN010 OVC026 RMK SN2SC4SC2=

CYYC;2005-01-08 15:00;METAR CYYC 081500Z 35006KT 1 1/2SM -SN BKN010 OVC026 M18/M21 A2973 RMK SN1SC5SC2 SLP162=

CYYC;2005-01-08 15:13;SPECI CYYC 081513Z 35006KT 3/4SM -SN BKN009 OVC026 RMK SN2SC4SC2 RVR RWY34 6000+FT=

CYYC;2005-01-08 15:40;SPECI CYYC 081540Z 34006KT 1 3/4SM -SN SCT009 BKN018 OVC038 RMK SN1SC3SC2SC2=

CYYC;2005-01-08 16:00;METAR CYYC 081600Z 34006KT 1 3/4SM -SN SCT009 BKN013 OVC030 M18/M21 A2974 RMK SN1SC3SC2SC2 SLP166=

CYYC;2005-01-08 16:25;SPECI CYYC 081625Z 34007KT 1SM -SN BKN010 OVC026 RMK SN2SC3SC3 RVR RWY34 6000+FT=

CYYC;2005-01-08 17:00;METAR CYYC 081700Z 34008KT 1 1/4SM -SN BKN014 OVC024 M18/M21 A2976 RMK SN1SC4SC3 /S01/ SLP170=

CYYC;2005-01-08 17:39;SPECI CYYC 081739Z 35010KT 1 3/4SM -SN BKN011 OVC025 RMK SN1SC4SC3=

CYYC;2005-01-08 19:00;METAR CYYC 081900Z 35012KT 1 3/4SM -SN DRSN BKN012 OVC025 M18/M21 A2977 RMK SN1SC6SC2 SLP178=

CYYC;2005-01-08 23:32;SPECI CYYC 082332Z 34011KT 10SM DRSN FEW015 BKN032 BKN110 RMK SC2SC3AC1=

CYYC;2005-01-09 01:00;METAR CYYC 090100Z 34011KT 3SM -SN FEW030 OVC092 M18/M21 A2991 RMK SC2AC6 SLP225=

CYYC;2005-01-09 02:00;METAR CYYC 090200Z 34011KT 4SM -SN FEW020 BKN066 OVC086 M18/M21 A2993 RMK SC2AC4AC2 SLP231=

CYYC;2005-01-09 03:00;METAR CYYC 090300Z 35011KT 4SM -SN BKN026 OVC057 M18/M21 A2995 RMK SC6SC2 SLP240=

CYYC;2005-01-09 04:00;METAR CYYC 090400Z 35008KT 4SM -SN BR BKN024 OVC050 M19/M21 A2996 RMK SC6SC2 SLP244=

CYYC;2005-01-09 07:00;METAR CYYC 090700Z 32005KT 8SM -SN SCT030 BKN070 BKN100 M20/M23 A3000 RMK SC3AC2AC0 SLP261=

CYYC;2005-01-09 09:00;METAR CYYC 090900Z 32004KT 15SM -SN FEW015 BKN060 BKN100 M21/M23 A3001 RMK SC1SC5AC2 SLP266=

CYYC;2005-01-09 10:00;METAR CYYC 091000Z 32004KT 15SM -SN FEW012 BKN060 BKN100 M21/M24 A3002 RMK SC1SC6AC1 SLP269=

CYYC;2005-01-09 11:29;SPECI CYYC 091129Z 33006KT 15SM FEW012 FEW060 SCT200 RMK SC1SC2CI0=

CYYC;2005-01-09 12:00;METAR CYYC 091200Z 36003KT 15SM FEW012 FEW060 SCT200 M23/M24 A3003 RMK SC1SC1CI0 SLP275=

CYYC;2005-01-09 13:00;METAR CYYC 091300Z 34003KT 15SM VCFG FEW010 SCT200 M25/M26 A3003 RMK SC1CI0 SLP274=

CYYC;2005-01-09 13:47;SPECI CYYC 091347Z 00000KT 1 1/2SM IC FEW002 SCT200 RMK FG2ST1CI0 VIS SWW 10=

CYYC;2005-01-09 14:00;METAR CYYC 091400Z 34003KT 3SM IC FEW002 FEW012 SCT200 M26/M28 A3002 RMK FG2ST1ST1CI0 SLP272=

CYYC;2005-01-09 14:10;SPECI CYYC 091410Z 33004KT 1 3/4SM IC FEW002 FEW200 RMK FG1ST1CI0=

CYYC;2005-01-09 14:34;SPECI CYYC 091434Z 00000KT 4SM IC FEW004 FEW200 RMK ST1CI0=

CYYC;2005-01-09 15:00;METAR CYYC 091500Z 00000KT 5SM IC FEW008 FEW090 FEW200 M27/M29 A3002 RMK SC1AC2CI0 VIS LWR NE SLP279=

CYYC;2005-01-09 15:19;SPECI CYYC 091519Z 01003KT 2SM IC VCFG FEW006 BKN009 BKN090 RMK SC2SC2AC1 VIS NE 1 / VIS SW 4=

CYYC;2005-01-09 15:31;SPECI CYYC 091531Z 01002KT 7SM VCFG FEW006 OVC009 RMK SC2SC5 VIS NE-E 11/2=

CYYC;2005-01-09 16:00;METAR CYYC 091600Z 01004KT 15SM BKN007 M27/M29 A3003 RMK SC6 VIS NE-SE 2 SLP281=

CYYC;2005-01-09 16:19;SPECI CYYC 091619Z 32002KT 15SM -SN BKN006 RMK SC3 VIS LWR SE=

CYYC;2005-01-09 16:43;SPECI CYYC 091643Z 00000KT 6SM IC FEW006 FEW090 SCT220 RMK SC1AC0CI0=

CYYC;2005-01-09 17:00;METAR CYYC 091700Z 22002KT 5SM IC FEW006 FEW090 SCT220 M25/M27 A3003 RMK SC1AC1CI0 SLP281=

CYYC;2005-01-09 18:00;METAR CYYC 091800Z 20005KT 4SM IC FEW006 SCT220 M23/M24 A3001 RMK SC1CI0 VIS SE 11/4 SLP271=

CYYC;2005-01-09 22:00;METAR CYYC 092200Z 18008KT 15SM FEW005 FEW140 M20/M23 A2987 RMK SC1AC1 SLP223=

CYYC;2005-01-09 23:00;METAR CYYC 092300Z 15007KT 15SM FEW008 FEW140 M22/M24 A2985 RMK SC1AC1 SLP217=

CYYC;2005-01-10 00:00;METAR CYYC 100000Z 14005KT 8SM FEW004 FEW140 M24/M26 A2985 RMK SC1AC1 VIS NE-E 11/2 SLP222=

CYYC;2005-01-10 01:00;METAR CYYC 100100Z 11006KT 3SM IC FEW005 FEW100 M27/M29 A2986 RMK SC1AC1 SLP226=

CYYC;2005-01-10 01:49;SPECI CYYC 100149Z 15005KT 2 1/2SM BR FEW008 RMK SC1=

CYYC;2005-01-10 03:00;METAR CYYC 100300Z 17007KT 1 3/4SM BR FEW003 M26/M28 A2985 RMK FG2ST1 SLP229=

CYYC;2005-01-10 03:16;SPECI CYYC 100316Z 20006KT 3SM IC VCFG FEW002 RMK ST2=

CYYC;2005-01-10 04:00;METAR CYYC 100400Z 18007KT 3SM BR FEW002 M26/M27 A2982 RMK ST2 SLP222=

CYYC;2005-01-10 04:41;SPECI CYYC 100441Z 19007KT 2SM BR SKC RMK FG3 VIS NE 11/4=

CYYC;2005-01-10 06:00;METAR CYYC 100600Z 19008KT 15SM VCFG SKC M26/M30 A2978 RMK FROIN SLP200=

CYYC;2005-01-10 10:00;METAR CYYC 101000Z 21003KT 15SM SKC M24/M27 A2977 RMK SLP189=

CYYC;2005-01-10 12:00;METAR CYYC 101200Z 35005KT 15SM SKC M24/M27 A2978 RMK SLP198=

CYYC;2005-01-10 13:00;METAR CYYC 101300Z 34007KT 15SM SKC M24/M28 A2979 RMK SLP202=

CYYC;2005-01-10 14:00;METAR CYYC 101400Z 33004KT 15SM FEW100 FEW240 M23/M27 A2981 RMK AC1CI0 SLP208=

CYYC;2005-01-10 15:00;METAR CYYC 101500Z 35003KT 40SM FEW150 FEW240 M20/M25 A2983 RMK AC1CI1 CI TR SLP215=

CYYC;2005-01-10 16:00;METAR CYYC 101600Z 00000KT 40SM SCT150 SCT240 M20/M24 A2985 RMK AC2CI1 SLP219=

CYYC;2005-01-10 17:00;METAR CYYC 101700Z 19003KT 40SM BKN110 BKN240 M16/M21 A2985 RMK AC3CI1 SLP222=

CYYC;2005-01-10 18:00;METAR CYYC 101800Z 18005KT 40SM FEW110 BKN250 M15/M18 A2986 RMK AC1CI2 SLP219=

CYYC;2005-01-10 19:00;METAR CYYC 101900Z 19005KT 30SM FEW170 BKN250 M12/M14 A2985 RMK AC1CI2 SLP213=

CYYC;2005-01-10 20:00;METAR CYYC 102000Z 22008KT 40SM FEW170 BKN250 M11/M16 A2982 RMK AC2CI2 SLP206=

CYYC;2005-01-10 21:00;METAR CYYC 102100Z 19006KT 40SM FEW170 BKN240 M10/M15 A2979 RMK AC1CI2 SLP183=

CYYC;2005-01-10 22:00;METAR CYYC 102200Z 19008KT 40SM FEW170 BKN240 M10/M16 A2977 RMK AC2CI2 SLP176=

CYYC;2005-01-10 23:00;METAR CYYC 102300Z 18007KT 40SM FEW170 SCT240 M10/M16 A2976 RMK AC1CI2 SLP172=

CYYC;2005-01-11 00:00;METAR CYYC 110000Z 18006KT 40SM FEW240 M11/M16 A2973 RMK CI1 SLP161=

CYYC;2005-01-11 01:00;METAR CYYC 110100Z 14007KT 40SM FEW240 M15/M19 A2971 RMK CI1 SLP154=

CYYC;2005-01-11 04:00;METAR CYYC 110400Z 20003KT 15SM FEW240 M16/M19 A2961 RMK CI1 SLP122=

CYYC;2005-01-11 05:00;METAR CYYC 110500Z 22003KT 15SM SKC M17/M19 A2958 RMK SLP112=

CYYC;2005-01-11 06:00;METAR CYYC 110600Z 25005KT 15SM SKC M14/M17 A2957 RMK SLP096=

CYYC;2005-01-11 09:00;METAR CYYC 110900Z 34011KT 15SM BKN170 M13/M19 A2955 RMK AC3 SLP082=

CYYC;2005-01-11 10:00;METAR CYYC 111000Z 32015KT 15SM BKN150 M13/M19 A2955 RMK AC4 SLP081=

CYYC;2005-01-11 12:00;METAR CYYC 111200Z 03004KT 15SM BKN170 M13/M18 A2953 RMK AC6 SLP075=

CYYC;2005-01-11 13:00;METAR CYYC 111300Z 32003KT 15SM BKN130 M13/M19 A2952 RMK AC5 SLP074=

CYYC;2005-01-11 15:00;METAR CYYC 111500Z 01003KT 30SM FEW120 BKN190 M13/M18 A2952 RMK AC1AC7 SLP079=

CYYC;2005-01-11 16:00;METAR CYYC 111600Z 26003KT 40SM FEW120 BKN170 BKN210 M13/M19 A2953 RMK AC1AC7CI1 SLP081=

CYYC;2005-01-11 18:00;METAR CYYC 111800Z 23003KT 40SM FEW120 BKN160 BKN210 M11/M16 A2952 RMK AC1AC6CI1 SLP073=

CYYC;2005-01-11 21:00;METAR CYYC 112100Z 19010KT 40SM FEW120 FEW170 BKN260 M09/M16 A2940 RMK AC1AC1CI0 LWR AC TR SLP026=

CYYC;2005-01-11 22:00;METAR CYYC 112200Z 19007KT 40SM FEW080 FEW120 BKN160 M08/M15 A2938 RMK AC1AC1AC1 SLP022=

CYYC;2005-01-12 00:00;METAR CYYC 120000Z 18007KT 40SM FEW080 FEW120 FEW180 SCT200 M10/M17 A2934 RMK AC1AC1AC1CI0 SLP007=

CYYC;2005-01-12 01:00;METAR CYYC 120100Z 22015KT 15SM FEW080 FEW120 SCT180 M09/M16 A2929 RMK AC1AC1AC1 SLP993=

CYYC;2005-01-12 04:00;METAR CYYC 120400Z 14008KT 15SM FEW140 M10/M17 A2925 RMK AC2 SLP976=

CYYC;2005-01-12 06:33;SPECI CYYC 120633Z 36029G39KT 2SM -SN BLSN OVC150 RMK AC8 WND SHFT AT 0628Z=

CYYC;2005-01-12 06:40;SPECI CYYC 120640Z 35029G39KT 1SM -SN BLSN OVC150 RMK AC8 RVR RWY34 6000 FT/ VIS S-W 21/2=

CYYC;2005-01-12 07:00;METAR CYYC 120700Z 35026G32KT 1SM -SN BLSN BKN150 M17/M19 A2935 RMK AC7 RVR RWY34 6000 FT/ VIS SW 21/2 /PRESRR SLP000=

CYYC;2005-01-12 07:21;SPECI CYYC 120721Z 35030G35KT 1SM -SN BLSN BKN007 OVC036 RMK SC6SC2 RVR RWY34 6000 FT/ VIS SW 2=

CYYC;2005-01-12 08:54;SPECI CYYC 120854Z 34023G31KT 4SM -SN BLSN OVC180 RMK AC8=

CYYC;2005-01-12 09:06;SPECI CYYC 120906Z 34031G37KT 1SM -SN BLSN OVC170 RMK AC7 RVR RWY28 2600 FT=

CYYC;2005-01-12 09:47;SPECI CYYC 120947Z 35020KT 3SM -SN BLSN OVC150 RMK AC7=

CYYC;2005-01-12 11:00;METAR CYYC 121100Z 36018G24KT 10SM -SN DRSN BKN021 OVC120 M22/M25 A2959 REBLSN RMK SC6AC2 SLP098=

CYYC;2005-01-12 12:39;SPECI CYYC 121239Z 34030G35KT 2SM -SN BLSN BKN045 OVC063 RMK SC6SC2=

CYYC;2005-01-12 13:00;METAR CYYC 121300Z 35027G34KT 1SM -SN BLSN BKN013 OVC028 M23/M26 A2967 RMK BLSN4SC3SC1 RVR RWY34 5500 FT SLP136=

CYYC;2005-01-12 13:04;SPECI CYYC 121304Z 34025G32KT 5/8SM -SN BLSN BKN014 OVC029 RMK BLSN6SC2SC1 RVR RWY34 5500 FT=

CYYC;2005-01-12 14:24;SPECI CYYC 121424Z 35030G35KT 5/8SM -SN BLSN BKN019 OVC029 RMK BLSN6SC2SC1 RVR RWY34 5500 FT=

CYYC;2005-01-12 14:36;SPECI CYYC 121436Z 35028G34KT 2SM -SN BLSN BKN011 OVC029 RMK SC6SC2 VIS N-SE 5/8=

CYYC;2005-01-12 15:00;METAR CYYC 121500Z 34025G32KT 2SM -SN BLSN BKN015 OVC030 M24/M27 A2979 RMK BLSN2SC6SC1 VIS N-SE 5/8 PRESRR SLP181=

CYYC;2005-01-12 15:49;SPECI CYYC 121549Z 34022G29KT 6SM -SN BLSN SCT015 OVC047 RMK SC2SC5 VIS N-SE 2=

CYYC;2005-01-12 17:00;METAR CYYC 121700Z 34017G22KT 6SM -SN DRSN OVC028 M25/M28 A2991 REBLSN RMK SC7 PRESRR SLP218=

CYYC;2005-01-12 18:00;METAR CYYC 121800Z 34016G21KT 8SM -SN DRSN SCT030 OVC050 M25/M29 A2994 RMK SC3SC3 SLP232=

CYYC;2005-01-12 19:00;METAR CYYC 121900Z 34015KT 7SM -SN DRSN SCT020 OVC040 M25/M29 A2995 RMK SC3SC2 SUN DMLY VISBL SN VRY LGT SLP234=

CYYC;2005-01-12 20:00;METAR CYYC 122000Z 35012KT 8SM DRSN FEW020 BKN040 BKN100 M25/M29 A2994 RMK SC1SC2AC1 SLP232=

CYYC;2005-01-12 21:00;METAR CYYC 122100Z 36011KT 8SM DRSN FEW020 BKN062 BKN120 M25/M29 A2994 RMK SC1SC2AC1 SLP249=

CYYC;2005-01-12 22:00;METAR CYYC 122200Z 36009KT 10SM FEW020 FEW060 FEW120 M25/M35 A2996 RMK CF1SC1AC1 SLP256=

CYYC;2005-01-12 23:00;METAR CYYC 122300Z 36008KT 10SM FEW060 FEW120 M25/M33 A2999 RMK SC1AC2 SLP265=

CYYC;2005-01-13 00:00;METAR CYYC 130000Z 36005KT 15SM FEW060 FEW120 M26/M33 A3001 RMK SC1AC1 SLP281=

CYYC;2005-01-13 01:00;METAR CYYC 130100Z 05002KT 15SM FEW060 FEW120 M27/M33 A3004 RMK SC1AC1 SLP288=

CYYC;2005-01-13 04:00;METAR CYYC 130400Z 00000KT 15SM FEW120 M29/M33 A3007 RMK AC1 SLP308=

CYYC;2005-01-13 06:00;METAR CYYC 130600Z 36002KT 15SM FEW120 M31/M36 A3009 RMK AC1 SLP320=

CYYC;2005-01-13 07:00;METAR CYYC 130700Z 33002KT 7SM SKC M33/M38 A3011 RMK SLP326=

CYYC;2005-01-13 08:21;SPECI CYYC 130821Z 00000KT 7SM FEW120 RMK AC1=

CYYC;2005-01-13 10:00;METAR CYYC 131000Z 34002KT 7SM FEW005 FEW240 M33/M37 A3011 RMK SC1CI1 SLP328=

CYYC;2005-01-13 11:00;METAR CYYC 131100Z 33004KT 7SM FEW005 FEW240 M32/M36 A3012 RMK SC1CI1 SLP332=

CYYC;2005-01-13 13:00;METAR CYYC 131300Z 20006KT 4SM IC FEW005 M34/M39 A3013 RMK SC1 SLP340=

CYYC;2005-01-13 15:00;METAR CYYC 131500Z 22005KT 15SM FEW100 M33/M37 A3016 RMK AC1 SLP354=

CYYC;2005-01-13 16:00;METAR CYYC 131600Z 23004KT 40SM FEW100 M31/M35 A3017 RMK AC1 SLP358=

CYYC;2005-01-13 18:00;METAR CYYC 131800Z 00000KT 40SM SKC M26/M29 A3019 RMK SLP357=

CYYC;2005-01-13 19:00;METAR CYYC 131900Z 19002KT 40SM SKC M24/M29 A3018 RMK SLP352=

CYYC;2005-01-13 20:00;METAR CYYC 132000Z 00000KT 30SM SKC M22/M30 A3016 RMK SLP347=

CYYC;2005-01-13 21:00;METAR CYYC 132100Z 35003KT 30SM FEW240 M22/M31 A3016 RMK CI1 SLP343=

CYYC;2005-01-13 22:00;METAR CYYC 132200Z 36007KT 30SM FEW240 M23/M32 A3017 RMK CI1 SLP345=

CYYC;2005-01-14 00:00;METAR CYYC 140000Z 34005KT 40SM FEW240 M25/M34 A3021 RMK CI1 SLP365=

CYYC;2005-01-14 01:00;METAR CYYC 140100Z 27002KT 40SM FEW240 M24/M33 A3023 RMK CI1 SLP371=

CYYC;2005-01-14 02:00;METAR CYYC 140200Z 25004KT 15SM FEW080 FEW240 M25/M33 A3024 RMK AC1CI0 SLP376=

CYYC;2005-01-14 04:00;METAR CYYC 140400Z 22006KT 15SM SKC M27/M34 A3025 RMK SLP381=

CYYC;2005-01-14 05:00;METAR CYYC 140500Z 34002KT 15SM FEW080 M25/M34 A3026 RMK AC1 SLP383=

CYYC;2005-01-14 06:00;METAR CYYC 140600Z 00000KT 15SM FEW090 M28/M36 A3028 RMK AC1 SLP383=

CYYC;2005-01-14 08:00;METAR CYYC 140800Z 31010KT 15SM SKC M28/M35 A3030 RMK SLP391=

CYYC;2005-01-14 13:00;METAR CYYC 141300Z 22005KT 15SM SKC M31/M35 A3036 RMK SLP412=

CYYC;2005-01-14 14:00;METAR CYYC 141400Z 22007KT 15SM SKC M31/M36 A3037 RMK SLP415=

CYYC;2005-01-14 15:00;METAR CYYC 141500Z 22006KT 40SM SKC M31/M36 A3037 RMK SLP421=

CYYC;2005-01-14 16:00;METAR CYYC 141600Z 21007KT 40SM SKC M30/M35 A3037 RMK SLP421=

CYYC;2005-01-14 17:00;METAR CYYC 141700Z 20006KT 40SM SKC M29/M34 A3038 RMK SLP425=

CYYC;2005-01-14 18:00;METAR CYYC 141800Z 22007KT 40SM SKC M25/M32 A3038 RMK SLP420=

CYYC;2005-01-14 20:00;METAR CYYC 142000Z 22009KT 40SM SKC M22/M31 A3034 RMK SLP408=

CYYC;2005-01-14 21:00;METAR CYYC 142100Z 23005KT 30SM SKC M21/M29 A3033 RMK SLP394=

CYYC;2005-01-14 22:00;METAR CYYC 142200Z 23003KT 30SM SKC M20/M29 A3031 RMK SLP388=

CYYC;2005-01-15 00:00;METAR CYYC 150000Z 25003KT 40SM FEW240 M21/M30 A3030 RMK CI1 SLP386=

CYYC;2005-01-15 04:00;METAR CYYC 150400Z 21004KT 15SM SKC M25/M30 A3028 RMK SLP388=

CYYC;2005-01-15 05:00;METAR CYYC 150500Z 21003KT 15SM SKC M25/M31 A3029 RMK SLP390=

CYYC;2005-01-15 07:00;METAR CYYC 150700Z 00000KT 15SM SKC M30/M36 A3027 RMK SLP378=

CYYC;2005-01-15 11:00;METAR CYYC 151100Z 21005KT 15SM FEW220 M28/M32 A3026 RMK CI1 CI TR SLP369=

CYYC;2005-01-15 13:00;METAR CYYC 151300Z 36005KT 15SM SKC M27/M32 A3029 RMK SLP376=

CYYC;2005-01-15 14:00;METAR CYYC 151400Z 34010KT 15SM FEW220 M23/M33 A3032 RMK CI1 CI TR SLP385=

CYYC;2005-01-15 16:00;METAR CYYC 151600Z 32011KT 40SM FEW140 FEW220 M23/M31 A3037 RMK AC1CI1 SLP402=

CYYC;2005-01-15 18:00;METAR CYYC 151800Z 20002KT 40SM FEW180 FEW240 M19/M28 A3042 RMK AC1CI1 SLP418=

CYYC;2005-01-15 19:00;METAR CYYC 151900Z 24006KT 40SM FEW180 M17/M26 A3042 RMK AC1 SLP419=

CYYC;2005-01-15 20:00;METAR CYYC 152000Z 26008KT 40SM FEW240 M15/M26 A3042 RMK CI1 SLP417=

CYYC;2005-01-15 22:00;METAR CYYC 152200Z 21005KT 40SM FEW160 SCT240 M15/M24 A3041 RMK AC1CI0 SLP413=

CYYC;2005-01-15 23:00;METAR CYYC 152300Z 23004KT 40SM FEW160 FEW220 M14/M25 A3042 RMK AC1CI0 SLP414=

CYYC;2005-01-16 00:00;METAR CYYC 160000Z 20006KT 40SM FEW160 FEW210 M17/M26 A3040 RMK AC1CI0 SLP409=

CYYC;2005-01-16 04:00;METAR CYYC 160400Z 19006KT 15SM SKC M18/M28 A3034 RMK SLP383=

CYYC;2005-01-16 05:00;METAR CYYC 160500Z 19008KT 15SM SKC M19/M28 A3031 RMK SLP375=

CYYC;2005-01-16 06:00;METAR CYYC 160600Z 19009KT 15SM SKC M18/M28 A3027 RMK SLP354=

CYYC;2005-01-16 07:00;METAR CYYC 160700Z 18005KT 15SM SKC M17/M27 A3026 RMK SLP351=

CYYC;2005-01-16 11:00;METAR CYYC 161100Z 00000KT 15SM FEW220 M22/M27 A3014 RMK CI1 SLP308=

CYYC;2005-01-16 13:00;METAR CYYC 161300Z 20002KT 15SM SCT160 M21/M26 A3011 RMK AC2 SLP301=

CYYC;2005-01-16 14:00;METAR CYYC 161400Z 18004KT 15SM BKN140 M20/M25 A3010 RMK AC4 SLP299=

CYYC;2005-01-16 16:00;METAR CYYC 161600Z 18003KT 40SM FEW030 SCT140 BKN180 M19/M24 A3009 RMK SC1AC3AC2 SLP291=

CYYC;2005-01-16 17:00;METAR CYYC 161700Z 18005KT 40SM FEW120 BKN160 BKN240 M17/M22 A3009 RMK AC2AC2CI0 ACSL SLP291=

CYYC;2005-01-16 18:00;METAR CYYC 161800Z 15003KT 40SM FEW050 BKN120 BKN200 M15/M22 A3009 RMK SC2AC3CI1 SLP287=

CYYC;2005-01-16 19:00;METAR CYYC 161900Z 20006KT 40SM BKN120 OVC200 M14/M20 A3008 RMK AC6CI1 SLP282=

CYYC;2005-01-16 20:00;METAR CYYC 162000Z 15005KT 40SM FEW030 BKN130 BKN200 M13/M19 A3004 RMK SC1AC7CI1 SLP270=

CYYC;2005-01-16 21:00;METAR CYYC 162100Z 16006KT 40SM FEW030 BKN130 BKN200 M13/M20 A3002 RMK SC1AC7CI1 SLP262=

CYYC;2005-01-17 00:00;METAR CYYC 170000Z 15005KT 40SM FEW050 BKN120 BKN230 M13/M20 A3001 RMK SC1AC2CI1 SLP261=

CYYC;2005-01-17 01:00;METAR CYYC 170100Z 20006KT 15SM BKN064 BKN100 BKN210 M13/M18 A3002 RMK SC5AC1CI1 VIRGA SLP263=

CYYC;2005-01-17 03:00;METAR CYYC 170300Z 17007KT 15SM BKN170 BKN220 M09/M17 A3000 RMK AC6CI1 SLP246=

CYYC;2005-01-17 04:00;METAR CYYC 170400Z 17009KT 15SM BKN170 M10/M15 A3000 RMK AC6 SLP246=

CYYC;2005-01-17 05:00;METAR CYYC 170500Z 19008KT 15SM FEW240 M10/M14 A3002 RMK CI1 SLP251=

CYYC;2005-01-17 09:00;METAR CYYC 170900Z 26016KT 15SM SKC 02/M07 A3001 RMK SLP226=

CYYC;2005-01-17 10:00;METAR CYYC 171000Z 26016KT 15SM SKC 02/M07 A3001 RMK SLP225=

CYYC;2005-01-17 12:00;METAR CYYC 171200Z 26018KT 15SM FEW160 SCT240 04/M06 A2998 RMK AC1CI2 SN COV/ MEDIUM PACK SLP212=

CYYC;2005-01-17 14:00;METAR CYYC 171400Z 18004KT 15SM FEW120 BKN240 M02/M08 A2996 RMK AC1CI3 AC TR SLP204=

CYYC;2005-01-17 16:00;METAR CYYC 171600Z 21007KT 40SM FEW060 FEW120 OVC210 M01/M07 A2990 RMK SC1AC2CI6 SLP186=

CYYC;2005-01-17 17:00;METAR CYYC 171700Z 17004KT 40SM FEW060 BKN100 OVC210 02/M06 A2985 RMK SC1AC5CI3 SLP169=

CYYC;2005-01-17 18:00;METAR CYYC 171800Z 18008KT 40SM BKN100 OVC210 01/M06 A2980 RMK AC6CI2 SLP139=

CYYC;2005-01-17 19:00;METAR CYYC 171900Z 18004KT 40SM FEW060 BKN140 OVC220 01/M06 A2980 RMK SC1AC2CI6 SLP137=

CYYC;2005-01-17 20:00;METAR CYYC 172000Z 08006KT 40SM FEW070 SCT140 OVC240 01/M05 A2971 RMK AC1AC2CI6 SLP112=

CYYC;2005-01-17 21:00;METAR CYYC 172100Z 14004KT 40SM FEW080 SCT140 OVC250 03/M05 A2969 RMK AC1AC2CI3 SLP091=

CYYC;2005-01-17 22:00;METAR CYYC 172200Z 22005KT 40SM FEW080 FEW150 SCT210 OVC250 03/M04 A2966 RMK AC1AC1CI2CI6 SLP082=

CYYC;2005-01-18 00:00;METAR CYYC 180000Z 12002KT 40SM FEW090 FEW150 OVC240 05/M04 A2964 RMK AC1AC1CI7 SLP065=

CYYC;2005-01-18 04:00;METAR CYYC 180400Z 00000KT 15SM BKN190 OVC220 03/M03 A2956 RMK AC6CI2 SLP046=

CYYC;2005-01-18 06:00;METAR CYYC 180600Z 26010G16KT 15SM SCT085 BKN240 05/M02 A2957 RMK AC3CI2 SLP047=

CYYC;2005-01-18 07:00;METAR CYYC 180700Z 30020KT 15SM FEW085 BKN240 06/M03 A2960 RMK AC2CI3 SLP056=

CYYC;2005-01-18 08:00;METAR CYYC 180800Z 28021G26KT 15SM FEW090 BKN240 06/M03 A2960 RMK AC1CI4 SLP055=

CYYC;2005-01-18 12:00;METAR CYYC 181200Z 06003KT 15SM FEW120 BKN240 03/M04 A2977 RMK AC2CI2 SN COV/ MEDIUM PACK SLP113=

CYYC;2005-01-18 13:00;METAR CYYC 181300Z 03002KT 15SM SCT100 BKN240 01/M04 A2979 RMK AC4CI1 SLP119=

CYYC;2005-01-18 15:00;METAR CYYC 181500Z 20004KT 30SM FEW120 BKN200 04/M04 A2983 RMK AC1CI2 SLP134=

CYYC;2005-01-18 16:00;METAR CYYC 181600Z 27003KT 40SM FEW120 BKN220 05/M03 A2986 RMK AC1CI7 SLP144=

CYYC;2005-01-18 17:00;METAR CYYC 181700Z 26013KT 40SM FEW120 BKN200 06/M03 A2988 RMK AC1CI7 SLP152=

CYYC;2005-01-18 19:00;METAR CYYC 181900Z 00000KT 40SM FEW120 BKN190 07/M03 A2992 RMK AC1AC7 SLP160=

CYYC;2005-01-18 21:00;METAR CYYC 182100Z 00000KT 40SM FEW120 OVC180 08/M02 A2992 RMK AC1AC8 SLP157=

CYYC;2005-01-18 22:00;METAR CYYC 182200Z 13004KT 40SM FEW100 OVC150 08/M02 A2991 RMK AC1AC8 SLP154=

CYYC;2005-01-18 23:00;METAR CYYC 182300Z 21005KT 40SM FEW100 BKN150 BKN210 05/M02 A2991 RMK AC1AC7CI1 SLP153=

CYYC;2005-01-19 01:00;METAR CYYC 190100Z 10006KT 15SM FEW080 BKN130 OVC210 04/M02 A2989 RMK AC1AC6CI1 SLP158=

CYYC;2005-01-19 02:00;METAR CYYC 190200Z 12005KT 15SM FEW081 OVC140 01/M02 A2988 RMK AC2AC6 SLP155=

CYYC;2005-01-19 03:35;SPECI CYYC 190335Z 15002KT 10SM BKN003 OVC150 RMK SC5AC3=

CYYC;2005-01-19 03:47;SPECI CYYC 190347Z 12003KT 5SM BR BKN002 OVC080 RMK SC6AC2 VIS NE 3=

CYYC;2005-01-19 04:00;METAR CYYC 190400Z 16002KT 4SM BR BKN002 OVC080 M01/M03 A2983 RMK SC6AC2 VIS NW-NE 2 SLP143=

CYYC;2005-01-19 04:16;SPECI CYYC 190416Z 15004KT 1SM BR BKN002 OVC005 RMK SC5SC2 VIS W 2 / RVR RWY16 6000FT=

CYYC;2005-01-19 04:51;SPECI CYYC 190451Z 17003KT 1/4SM FZFG BKN002 OVC005 RMK FG2SC2SC1 RVR RWY16 4000FT=

CYYC;2005-01-19 05:00;METAR CYYC 190500Z 17003KT 3/8SM FZFG BKN002 OVC005 M02/M03 A2980 RMK FG3SC2SC1 RVR RWY16 2800FT / PRESFR PAST HR SLP134=

CYYC;2005-01-19 05:11;SPECI CYYC 190511Z 15004KT 1/4SM FZFG BKN001 OVC004 RMK FG6SC1SC1 RVR RWY16 2200FT/ PRESFR=

CYYC;2005-01-19 06:00;METAR CYYC 190600Z 13002KT 0SM FZFG VV001 M03/M05 A2975 RMK FG8 RVR RWY16 1200FT SLP113=

CYYC;2005-01-19 07:27;SPECI CYYC 190727Z 36004KT 5/8SM BR FEW001 BKN005 OVC010 RMK SC1SC5SC2 RIME ON INDICATOR / VIS N 1/4 / VIS SW+W 2 / RVR RWY16 4000FT=

CYYC;2005-01-19 07:48;SPECI CYYC 190748Z 30004KT 15SM MIFG FEW003 FEW030 SCT250 RMK SC2SC1CI1 FG BANK N+SW=

CYYC;2005-01-19 10:00;METAR CYYC 191000Z 00000KT 15SM SCT080 BKN250 M00/M02 A2976 RMK AC3CI1 SLP114=

CYYC;2005-01-19 11:00;METAR CYYC 191100Z 08003KT 15SM BKN080 03/M03 A2977 RMK AC6 SLP119=

CYYC;2005-01-19 12:00;METAR CYYC 191200Z 27029G34KT 15SM FEW090 BKN250 09/M00 A2974 RMK AC2CI1 SN CVR/MEDIUM PACK SLP096=

CYYC;2005-01-19 13:00;METAR CYYC 191300Z 29018G24KT 15SM FEW090 FEW250 10/M00 A2980 RMK AC1CI0 PRESRR SLP115=

CYYC;2005-01-19 14:00;METAR CYYC 191400Z 30020G25KT 15SM FEW090 BKN230 09/M01 A2980 RMK AC2CI2 SLP114=

CYYC;2005-01-19 15:00;METAR CYYC 191500Z 30010KT 15SM FEW090 BKN230 BKN260 08/M01 A2980 RMK AC1CI3CI0 SLP125=

CYYC;2005-01-19 16:00;METAR CYYC 191600Z 24009KT 40SM FEW090 FEW180 BKN230 OVC260 07/M01 A2981 RMK AC1AC0CI2CI2 SLP128=

CYYC;2005-01-19 18:00;METAR CYYC 191800Z 12005KT 40SM FEW065 FEW080 BKN170 BKN240 06/M00 A2983 RMK SC1AC1AC4CI1 SLP142=

CYYC;2005-01-19 19:00;METAR CYYC 191900Z 00000KT 40SM FEW080 FEW180 BKN250 08/01 A2983 RMK AC1AC1CI0 SLP140=

CYYC;2005-01-19 22:00;METAR CYYC 192200Z 05003KT 20SM FEW086 BKN170 OVC250 04/M01 A2978 RMK AC1AC5CI2 SLP125=

CYYC;2005-01-20 00:00;METAR CYYC 200000Z 00000KT 20SM FEW089 BKN170 BKN250 03/M02 A2976 RMK AC1AC2CI1 SLP105=

CYYC;2005-01-20 04:00;METAR CYYC 200400Z 00000KT 15SM FEW250 01/M03 A2975 RMK CI0 SLP101=

CYYC;2005-01-20 05:00;METAR CYYC 200500Z 25002KT 15SM SCT250 01/M02 A2974 RMK CI2 SLP100=

CYYC;2005-01-20 06:00;METAR CYYC 200600Z 03002KT 15SM BKN250 04/M01 A2975 RMK CI2 SLP105=

CYYC;2005-01-20 07:00;METAR CYYC 200700Z 32002KT 15SM BKN250 05/M01 A2977 RMK CI2 SLP110=

CYYC;2005-01-20 09:00;METAR CYYC 200900Z 00000KT 15SM BKN270 00/M03 A2981 RMK CI2 SLP129=

CYYC;2005-01-20 10:00;METAR CYYC 201000Z 26004KT 15SM BKN270 03/M02 A2984 RMK CI3 SLP138=

CYYC;2005-01-20 13:00;METAR CYYC 201300Z 01007KT 15SM BKN160 BKN250 M00/M03 A2989 RMK AC5CI2 SLP164=

CYYC;2005-01-20 14:23;SPECI CYYC 201423Z 04008KT 10SM SCT007 BKN150 OVC200 RMK SC3AC2CI2=

CYYC;2005-01-20 15:00;METAR CYYC 201500Z 02005KT 3SM BR OVC003 M02/M04 A2992 RMK ST8 SLP176=

CYYC;2005-01-20 15:43;SPECI CYYC 201543Z 09002KT 1 1/4SM BR OVC003 RMK ST8=

CYYC;2005-01-20 16:00;METAR CYYC 201600Z 00000KT 1 1/4SM BR OVC003 M02/M04 A2992 RMK ST8 SLP177=

CYYC;2005-01-20 17:21;SPECI CYYC 201721Z 00000KT 3SM BR FEW003 OVC110 RMK ST2AC6=

CYYC;2005-01-20 18:00;METAR CYYC 201800Z 00000KT 3SM BR FEW004 OVC100 M01/M03 A2991 RMK ST1AC7 SLP170=

CYYC;2005-01-20 19:00;METAR CYYC 201900Z 20002KT 4SM BR FEW009 FEW090 OVC130 M01/M03 A2986 RMK SC1AC2AC6 SLP156=

CYYC;2005-01-20 22:00;METAR CYYC 202200Z 14004KT 4SM BR FEW040 FEW140 OVC210 00/M02 A2977 RMK SC1AC2CI6 SLP123=

CYYC;2005-01-20 23:23;SPECI CYYC 202323Z 11005KT 2SM BR BKN003 BKN120 OVC220 RMK ST5AC2CI1 VIS N-E 1 IN FOG=

CYYC;2005-01-21 00:00;METAR CYYC 210000Z 09006KT 1SM BR OVC003 M02/M04 A2974 RMK ST8 RVR RWY34 2800 FT SLP117=

CYYC;2005-01-21 00:43;SPECI CYYC 210043Z 09004KT 1/8SM FZFG VV001 RMK FG8 RVR RWY34 4000 FT=

CYYC;2005-01-21 00:54;SPECI CYYC 210054Z 07003KT 1/2SM FZFG BKN001 OVC005 RMK FG6ST1ST1 RVR RWY34 4500 FT=

CYYC;2005-01-21 01:00;METAR CYYC 210100Z 07003KT 1/2SM FZFG BKN001 OVC005 M03/M04 A2974 RMK FG6ST1ST1 RVR RWY34 6000 FT SLP119=

CYYC;2005-01-21 02:32;SPECI CYYC 210232Z 04006KT 1/4SM -SN FZFG VV001 RMK FG8 RVR RWY34 2800FT=

CYYC;2005-01-21 04:00;METAR CYYC 210400Z 01011KT 1/2SM FZFG OVC004 M04/M06 A2975 RMK FG6ST2 RVR RWY34 2400 FT SLP128=

CYYC;2005-01-21 04:27;SPECI CYYC 210427Z 35009KT 1 1/2SM -SN BR OVC005 RMK FG2ST6=

CYYC;2005-01-21 04:42;SPECI CYYC 210442Z 35011G17KT 2 1/2SM BR OVC005 RMK ST8=

CYYC;2005-01-21 05:00;METAR CYYC 210500Z 36016G21KT 2 1/2SM BR FEW002 OVC004 M03/M05 A2978 RMK ST2ST6 CIG VRBL 3-5 SLP136=

CYYC;2005-01-21 05:15;SPECI CYYC 210515Z 35017KT 1 3/4SM BR OVC002 RMK ST8=

CYYC;2005-01-21 05:26;SPECI CYYC 210526Z 36020KT 2SM -SN BR OVC002 RMK ST8=

CYYC;2005-01-21 05:32;SPECI CYYC 210532Z 36018KT 1SM -SN BR OVC002 RMK FG3ST5 RVR RWY34 6000+ FT=

CYYC;2005-01-21 05:39;SPECI CYYC 210539Z 36017KT 3/8SM -SN FZFG OVC002 RMK FG6ST2 RVR RWY34 5000 FT=

CYYC;2005-01-21 06:14;SPECI CYYC 210614Z 36023G28KT 5SM -SN BR SCT002 OVC005 RMK ST3SC5=

CYYC;2005-01-21 06:30;SPECI CYYC 210630Z 36024G30KT 5SM -SN BR SCT007 OVC010 RMK SC4SC4=

CYYC;2005-01-21 06:46;SPECI CYYC 210646Z 01020KT 10SM -SN FEW008 OVC020 RMK SC2SC6=

CYYC;2005-01-21 08:00;METAR CYYC 210800Z 36024G29KT 10SM -SN FEW007 BKN030 OVC043 M08/M11 A2998 RMK SF2SC3SC3 PRESRR SLP197=

CYYC;2005-01-21 09:00;METAR CYYC 210900Z 36025G33KT 10SM -SN FEW010 OVC045 M09/M12 A3002 RMK SC2SC6 SLP224=

CYYC;2005-01-21 13:00;METAR CYYC 211300Z 01010KT 15SM -SN FEW012 SCT030 BKN052 M11/M14 A3020 RMK SC1SC3SC4 SLP292=

CYYC;2005-01-21 13:50;SPECI CYYC 211350Z 03009KT 15SM FEW012 OVC040 RMK SC1SC8=

CYYC;2005-01-21 14:00;METAR CYYC 211400Z 03011KT 15SM FEW012 OVC040 M12/M15 A3023 RMK SC1SC8 SLP301=

CYYC;2005-01-21 15:00;METAR CYYC 211500Z 03007KT 20SM OVC037 M13/M16 A3025 RMK SC8 SLP315=

CYYC;2005-01-21 16:00;METAR CYYC 211600Z 03005KT 15SM OVC037 M13/M16 A3028 RMK SC8 SLP327=

CYYC;2005-01-21 17:00;METAR CYYC 211700Z 09007KT 15SM OVC037 M13/M16 A3030 RMK SC8 VIRGA S SLP333=

CYYC;2005-01-21 17:07;SPECI CYYC 211707Z 09006KT 15SM -SN OVC037 RMK SC8 SN VRY LGT=

CYYC;2005-01-21 19:00;METAR CYYC 211900Z 12005KT 15SM -SN BKN017 OVC090 M13/M16 A3030 RMK SC5AC3 SLP335=

CYYC;2005-01-21 20:00;METAR CYYC 212000Z 13008KT 15SM -SN BKN020 OVC090 M13/M16 A3031 RMK SC5AC3 SLP337=

CYYC;2005-01-21 21:00;METAR CYYC 212100Z 14011KT 15SM -SN BKN020 OVC090 M12/M15 A3030 RMK SC7AC1 SLP341=

CYYC;2005-01-21 22:00;METAR CYYC 212200Z 14012KT 6SM -SN BR OVC018 M12/M15 A3028 RMK SC8 SLP337=

CYYC;2005-01-22 00:00;METAR CYYC 220000Z 15011G17KT 15SM -SN OVC014 M12/M15 A3026 RMK SC8 SLP328=

CYYC;2005-01-22 04:00;METAR CYYC 220400Z 17012G17KT 4SM -SN OVC007 M12/M14 A3020 RMK SC6 SLP310=

CYYC;2005-01-22 05:00;METAR CYYC 220500Z 16017KT 6SM -SN OVC007 M12/M14 A3017 RMK SC8 SLP301=

CYYC;2005-01-22 06:00;METAR CYYC 220600Z 16012G19KT 5SM -SN VCFG OVC007 M12/M14 A3014 RMK SC7 SLP291=

CYYC;2005-01-22 08:00;METAR CYYC 220800Z 16011G17KT 3SM -SN BR OVC006 M11/M13 A3007 RMK SC8 SLP270=

CYYC;2005-01-22 09:41;SPECI CYYC 220941Z 18011KT 6SM BR BKN007 OVC130 RMK SC7AC1=

CYYC;2005-01-22 11:00;METAR CYYC 221100Z 18008KT 10SM -SN FEW007 OVC180 M09/M11 A2997 RMK SC2AC6 PCPN VRY LGT SLP230=

CYYC;2005-01-22 11:42;SPECI CYYC 221142Z 19011KT 10SM FEW007 OVC180 RMK SC2AC6=

CYYC;2005-01-22 13:00;METAR CYYC 221300Z 20013KT 15SM FEW080 SCT160 OVC210 M07/M10 A2990 RMK AC1AC4CI4 SLP200=

CYYC;2005-01-22 14:00;METAR CYYC 221400Z 19011KT 15SM FEW070 BKN160 BKN200 M06/M09 A2988 RMK AC1AC5CI2 SLP195=

CYYC;2005-01-22 15:00;METAR CYYC 221500Z 20011KT 40SM FEW060 BKN180 OVC200 M04/M07 A2985 RMK SC1AC5CI2 SLP176=

CYYC;2005-01-22 16:00;METAR CYYC 221600Z 19007KT 40SM FEW050 BKN160 OVC200 M03/M07 A2985 RMK SC1AS6CI1 SLP175=

CYYC;2005-01-22 18:00;METAR CYYC 221800Z 22006KT 40SM FEW050 BKN140 OVC200 01/M04 A2982 RMK SC1AC6CI1 SLP157=

CYYC;2005-01-22 21:00;METAR CYYC 222100Z 21002KT 40SM FEW050 BKN150 OVC190 04/M02 A2976 RMK SC1AC7AC1 SLP130=

CYYC;2005-01-22 22:00;METAR CYYC 222200Z 21003KT 40SM FEW050 BKN140 BKN200 04/M02 A2975 RMK SC1AC7CI1 SLP127=

CYYC;2005-01-22 23:00;METAR CYYC 222300Z 00000KT 40SM FEW050 BKN150 OVC240 06/M02 A2977 RMK SC1AC6CI1 SLP132=

CYYC;2005-01-23 00:00;METAR CYYC 230000Z 00000KT 40SM FEW050 BKN150 OVC220 05/M02 A2977 RMK SC1AC6CI1 SLP130=

CYYC;2005-01-23 04:00;METAR CYYC 230400Z 27006KT 15SM FEW120 SCT160 BKN240 07/M00 A2977 RMK AC1AC3CI3 SLP122=

CYYC;2005-01-23 09:00;METAR CYYC 230900Z 30011KT 15SM FEW060 SCT120 BKN170 09/00 A2979 RMK SC1AC3AC3 SLP114=

CYYC;2005-01-23 10:00;METAR CYYC 231000Z 00000KT 15SM FEW060 SCT120 BKN150 10/01 A2979 RMK SC1AC3AC3 SLP114=

CYYC;2005-01-23 11:00;METAR CYYC 231100Z 24007KT 15SM FEW050 BKN180 BKN240 09/00 A2978 RMK SC1AC5CI1 SLP111=

CYYC;2005-01-23 13:00;METAR CYYC 231300Z 23008KT 15SM FEW050 SCT180 BKN240 06/M00 A2978 RMK SC1AC3CI1 SLP113=

CYYC;2005-01-23 15:00;METAR CYYC 231500Z 19008KT 40SM FEW090 FEW180 SCT240 05/M00 A2979 RMK AC2AC1CI0 SLP117=

CYYC;2005-01-23 16:00;METAR CYYC 231600Z 22009KT 40SM FEW050 FEW090 FEW180 BKN250 07/00 A2979 RMK SC1AC1AC2CI0 SLP119=

CYYC;2005-01-23 17:00;METAR CYYC 231700Z 24010KT 40SM FEW050 FEW090 BKN180 BKN260 10/01 A2981 RMK SC1AC1AC2CI0 SLP123=

CYYC;2005-01-23 18:00;METAR CYYC 231800Z 21009KT 40SM BKN085 BKN180 BKN260 09/01 A2983 RMK AC7AC1CI1 SLP118=

CYYC;2005-01-23 22:00;METAR CYYC 232200Z 01004KT 40SM FEW090 SCT190 BKN250 08/01 A2981 RMK AC1AC2CI0 SLP118=

CYYC;2005-01-23 23:00;METAR CYYC 232300Z 08004KT 40SM FEW090 BKN200 OVC250 09/01 A2981 RMK AC1CI5CI1 SLP118=

CYYC;2005-01-23 23:45;SPECI CYYC 232345Z 24018G24KT 40SM FEW120 BKN190 OVC250 RMK AC1AC6CI0 WSHFT 2335Z=

CYYC;2005-01-24 00:00;METAR CYYC 240000Z 24018G26KT 40SM FEW120 BKN190 OVC250 12/01 A2978 RMK AC1AC5CI0 CC ASOCTD SLP101=

CYYC;2005-01-24 04:00;METAR CYYC 240400Z 26004KT 15SM FEW080 BKN130 BKN180 09/01 A2981 RMK AC1AC6AC1 SLP118=

CYYC;2005-01-24 07:00;METAR CYYC 240700Z 27006KT 15SM FEW080 SCT120 BKN190 10/01 A2981 RMK AC1AC3AC2 SLP111=

CYYC;2005-01-24 11:00;METAR CYYC 241100Z 20006KT 15SM FEW100 FEW170 BKN200 06/M00 A2978 RMK AC1AC2CI4 SLP111=

CYYC;2005-01-24 13:00;METAR CYYC 241300Z 18005KT 15SM FEW090 SCT180 BKN250 06/M00 A2976 RMK AC1AC2CI2 SLP101=

CYYC;2005-01-24 14:00;METAR CYYC 241400Z 23011KT 15SM FEW050 FEW090 SCT180 BKN250 05/M01 A2976 RMK SC1AC1AC2CI3 SLP099=

CYYC;2005-01-24 15:00;METAR CYYC 241500Z 25013KT 30SM FEW120 SCT210 BKN260 08/00 A2976 RMK AC1CI3CI2 SLP096=

CYYC;2005-01-24 17:00;METAR CYYC 241700Z 23008KT 40SM FEW090 FEW210 BKN260 08/00 A2974 RMK AC1CI1CI6 SLP090=

CYYC;2005-01-24 18:00;METAR CYYC 241800Z 19005KT 40SM FEW090 FEW210 BKN260 07/01 A2974 RMK AC1CI1CI6 SLP089=

CYYC;2005-01-24 19:00;METAR CYYC 241900Z 23013KT 40SM FEW090 FEW210 BKN260 12/M00 A2972 RMK AC1CI1CI6 SLP083=

CYYC;2005-01-24 23:00;METAR CYYC 242300Z 27017KT 40SM FEW080 FEW210 BKN260 12/M02 A2970 RMK AC1CI1CI6 SLP075=

CYYC;2005-01-25 00:00;METAR CYYC 250000Z 26019G24KT 40SM FEW080 FEW210 BKN260 11/M02 A2973 RMK AC1CI1CI2 SLP091=

CYYC;2005-01-25 03:00;METAR CYYC 250300Z 35010G17KT 15SM FEW100 BKN250 07/M02 A2984 RMK AC2CI2 SLP128=

CYYC;2005-01-25 04:00;METAR CYYC 250400Z 02002KT 15SM FEW100 BKN250 04/M02 A2986 RMK AC2CI1 SLP135=

CYYC;2005-01-25 05:00;METAR CYYC 250500Z 32002KT 15SM FEW120 SCT250 03/M03 A2988 RMK AC1CI1 SLP141=

CYYC;2005-01-25 06:00;METAR CYYC 250600Z 00000KT 15SM FEW120 SCT250 01/M04 A2989 RMK AC1CI1 SLP157=

CYYC;2005-01-25 07:00;METAR CYYC 250700Z 19004KT 15SM FEW250 01/M03 A2991 RMK CI1 SLP163=

CYYC;2005-01-25 09:00;METAR CYYC 250900Z 09003KT 15SM FEW160 FEW250 01/M04 A2995 RMK AC1CI0 AC TR SLP169=

CYYC;2005-01-25 11:00;METAR CYYC 251100Z 32006KT 15SM FEW160 FEW250 M01/M05 A3001 RMK AC1CI0 SLP187=

CYYC;2005-01-25 13:00;METAR CYYC 251300Z 24002KT 15SM FEW060 SCT120 BKN250 00/M06 A3006 RMK SC1AC2CI1 SLP209=

CYYC;2005-01-25 14:00;METAR CYYC 251400Z 24004KT 15SM FEW060 SCT094 BKN250 01/M05 A3006 RMK SC1AC2CI1 SLP212=

CYYC;2005-01-25 15:00;METAR CYYC 251500Z 22002KT 30SM FEW056 BKN072 BKN250 02/M05 A3007 RMK SC1AC7CI1 SLP217=

CYYC;2005-01-25 16:00;METAR CYYC 251600Z 05002KT 40SM FEW056 SCT072 BKN120 BKN250 00/M05 A3007 RMK SC1AC1AC3CI1 SLP217=

CYYC;2005-01-25 17:00;METAR CYYC 251700Z 00000KT 40SM FEW060 BKN100 BKN250 01/M05 A3007 RMK SC1AC1CI3 SLP217=

CYYC;2005-01-25 18:00;METAR CYYC 251800Z 07003KT 40SM FEW060 BKN093 BKN250 01/M03 A3006 RMK SC1AC6CI0 SLP226=

CYYC;2005-01-25 19:00;METAR CYYC 251900Z 09002KT 30SM FEW060 SCT093 BKN250 03/M02 A3006 RMK SC1AC2CI1 SLP224=

CYYC;2005-01-25 21:00;METAR CYYC 252100Z 12004KT 40SM FEW095 BKN240 BKN270 03/M04 A3001 RMK AC1CI2CI1 SLP203=

CYYC;2005-01-25 22:00;METAR CYYC 252200Z 13004KT 40SM FEW095 FEW180 SCT240 BKN270 04/M04 A3001 RMK AC1AC1CI1CI0 SLP203=

CYYC;2005-01-25 23:00;METAR CYYC 252300Z 10006KT 40SM FEW095 FEW180 FEW240 BKN270 03/M04 A3001 RMK AC1AC1CI1CI1 SLP203=

CYYC;2005-01-26 00:00;METAR CYYC 260000Z 11004KT 40SM BKN095 BKN180 BKN240 01/M04 A3002 RMK AC1AC1CI1 SLP211=

CYYC;2005-01-26 03:00;METAR CYYC 260300Z 07003KT 15SM OVC085 M01/M04 A3005 RMK AC7 SLP221=

CYYC;2005-01-26 04:00;METAR CYYC 260400Z 08003KT 15SM OVC083 M01/M04 A3004 RMK AC8 SLP218=

CYYC;2005-01-26 05:00;METAR CYYC 260500Z 11003KT 15SM OVC081 M00/M04 A3004 RMK AC8 SLP217=

CYYC;2005-01-26 06:00;METAR CYYC 260600Z 15006KT 15SM OVC083 M01/M04 A3004 RMK AC8 SLP219=

CYYC;2005-01-26 07:00;METAR CYYC 260700Z 15004KT 15SM OVC081 M01/M04 A3004 RMK AC8 SLP219=

CYYC;2005-01-26 08:00;METAR CYYC 260800Z 17004KT 15SM OVC079 M01/M03 A3003 RMK AC8 SLP215=

CYYC;2005-01-26 10:00;METAR CYYC 261000Z 17006KT 15SM BKN081 OVC120 M01/M04 A3001 RMK AC6AC2 SLP207=

CYYC;2005-01-26 12:00;METAR CYYC 261200Z 16005KT 15SM SCT080 BKN240 M03/M05 A3000 RMK AC2CI2 SLP207=

CYYC;2005-01-26 13:00;METAR CYYC 261300Z 16006KT 15SM BKN160 OVC240 M03/M05 A2998 RMK AC6CI2 SLP203=

CYYC;2005-01-26 14:00;METAR CYYC 261400Z 19005KT 15SM BKN150 OVC220 M03/M05 A2997 RMK AC6CI2 SLP198=

CYYC;2005-01-26 15:00;METAR CYYC 261500Z 18006KT 4SM BR FEW012 SCT150 BKN230 M03/M05 A2996 RMK SC1AC2CI1 FROIN SLP195=

CYYC;2005-01-26 15:53;SPECI CYYC 261553Z 16007KT 2 1/2SM BR FEW010 SCT150 OVC230 RMK SC1AC1CI2=

CYYC;2005-01-26 16:00;METAR CYYC 261600Z 16007KT 2 1/2SM BR FEW010 SCT170 OVC210 M03/M05 A2995 RMK SC1AC2CI2 SLP194=

CYYC;2005-01-26 16:31;SPECI CYYC 261631Z 16007KT 1 1/2SM BR BKN002 BKN210 RMK FG2SC2CI2=

CYYC;2005-01-26 17:00;METAR CYYC 261700Z 16008KT 1 1/4SM BR BKN002 OVC210 M03/M05 A2994 RMK FG2SC2CI2 SLP191=

CYYC;2005-01-26 17:08;SPECI CYYC 261708Z 17006KT 1SM BR OVC002 RMK FG2SC3 RVR RWY16 6000+FT=

CYYC;2005-01-26 18:36;SPECI CYYC 261836Z 16007KT 1 1/4SM BR OVC002 RMK FG2SC6 RVR RWY28 3000FT=

CYYC;2005-01-26 18:47;SPECI CYYC 261847Z 15007KT 5/8SM BR OVC002 RMK FG2SC6 RVR RWY16 4500FT=

CYYC;2005-01-26 20:49;SPECI CYYC 262049Z 17008KT 1SM -SN BR OVC002 OVC006 RMK FG3SC3SC2 RVR RWY16 3500FT=

CYYC;2005-01-26 22:00;METAR CYYC 262200Z 18006KT 1/2SM FZFG OVC002 M02/M04 A2985 RMK FG3SC5 RVR RWY16 6000+FT SLP161=

CYYC;2005-01-26 22:10;SPECI CYYC 262210Z 19009KT 1/4SM FZFG OVC002 RMK FG7SC1 RVR RWY16 2600FT=

CYYC;2005-01-26 22:27;SPECI CYYC 262227Z 19009KT 3/4SM BR OVC002 RMK FG5SC3 RVR RWY16 3000FT=

CYYC;2005-01-26 23:00;METAR CYYC 262300Z 17010KT 3/8SM FZFG OVC002 M02/M04 A2984 RMK FG5SC3 RVR RWY16 2600FT SLP157=

CYYC;2005-01-27 01:00;METAR CYYC 270100Z 17008KT 1/8SM FZFG VV001 M02/M04 A2982 RMK FG8 RVR RWY16 1800FT / FROIN SLP151=

CYYC;2005-01-27 01:41;SPECI CYYC 270141Z 21009KT 5/8SM BR VV001 RMK FG8 RVR RWY16 2800FT / FROIN=

CYYC;2005-01-27 03:00;METAR CYYC 270300Z 18009KT 3/4SM BR VV002 M03/M04 A2979 RMK FG8 RVR RWY16 1600 FT SLP141=

CYYC;2005-01-27 04:00;METAR CYYC 270400Z 19007KT 5/8SM BR VV002 M03/M05 A2978 RMK FG8 RVR RWY16 1800 FT SLP138=

CYYC;2005-01-27 05:00;METAR CYYC 270500Z 21007KT 5/8SM BR VV002 M03/M05 A2976 RMK FG8 RVR RWY16 3000 FT/ VIS S-W 3/8 SLP131=

CYYC;2005-01-27 05:55;SPECI CYYC 270555Z 18007KT 4SM BR SCT002 BKN004 RMK ST3ST2=

CYYC;2005-01-27 06:00;METAR CYYC 270600Z 18006KT 4SM BR FEW001 BKN004 BKN240 M04/M06 A2974 RMK ST1ST4CI0 SLP124=

CYYC;2005-01-27 06:22;SPECI CYYC 270622Z 18006KT 8SM FEW005 BKN240 RMK ST2CI1=

CYYC;2005-01-27 09:00;METAR CYYC 270900Z 21005KT 15SM SCT190 BKN220 M03/M05 A2969 RMK AC3CI2 SLP104=

CYYC;2005-01-27 10:00;METAR CYYC 271000Z 19004KT 15SM FEW190 BKN220 M02/M04 A2969 RMK AC2CI3 SLP104=

CYYC;2005-01-27 11:00;METAR CYYC 271100Z 21005KT 15SM FEW190 BKN240 M02/M04 A2968 RMK AC2CI2 SLP101=

CYYC;2005-01-27 12:00;METAR CYYC 271200Z 21004KT 15SM FEW190 BKN240 M01/M03 A2966 RMK AC1CI2 SLP093=

CYYC;2005-01-27 13:00;METAR CYYC 271300Z 21011KT 15SM SCT120 BKN240 M00/M03 A2966 RMK AC3CI2 AS ASOCTD SLP091=

CYYC;2005-01-27 15:00;METAR CYYC 271500Z 23011KT 30SM FEW120 OVC250 03/M03 A2965 RMK AC1CI2 SLP083=

CYYC;2005-01-27 19:00;METAR CYYC 271900Z 27015KT 40SM FEW090 BKN110 BKN240 10/M02 A2967 RMK AC1AC6CI1 LWR AC TR / VIRGA SLP083=

CYYC;2005-01-27 20:00;METAR CYYC 272000Z 27013G18KT 40SM FEW090 BKN110 BKN240 10/M02 A2965 RMK AC1AC6CI1 LWR AC TR SLP079=

CYYC;2005-01-28 19:00;METAR CYYC 281900Z 15007KT 40SM FEW120 BKN260 01/M04 A2991 RMK AC1CI2 SLP173=

CYYC;2005-01-28 20:54;SPECI CYYC 282054Z 12006KT 1 1/2SM BR BKN002 OVC250 RMK ST2CI3 VIS SW-NW 4=

CYYC;2005-01-28 21:00;METAR CYYC 282100Z 13006KT 1 1/2SM BR OVC002 M02/M04 A2988 RMK ST8 VIS SW-NW 4 SLP171=

CYYC;2005-01-28 21:10;SPECI CYYC 282110Z 13007KT 1SM BR OVC002 RMK ST8 VIS SW-NW 2 / RVR RWY16 6000+ FEET=

CYYC;2005-01-28 21:45;SPECI CYYC 282145Z 14006KT 3/4SM BR OVC002 RMK ST8 RVR RWY16 3000 FEET=

CYYC;2005-01-28 21:55;SPECI CYYC 282155Z 15005KT 1/2SM FZFG VV001 RMK FG8 RVR RWY16 2600=

CYYC;2005-01-28 22:12;SPECI CYYC 282212Z 14006KT 1/4SM FZFG VV001 RMK FG8 RVR RWY16 1600=

CYYC;2005-01-28 23:00;METAR CYYC 282300Z 14008KT 1/4SM FZFG VV001 M01/M03 A2989 RMK FG8 RVR RWY16 1800 FEET SLP173=

CYYC;2005-01-28 23:15;SPECI CYYC 282315Z 17007KT 1/2SM FZFG VV001 RMK FG8 RVR RWY16 2600=

CYYC;2005-01-28 23:23;SPECI CYYC 282323Z 16007KT 1 1/2SM BR OVC003 RMK FG6ST2 VIS NW 3/4=

CYYC;2005-01-29 00:00;METAR CYYC 290000Z 16008KT 1 1/2SM BR OVC003 M00/M02 A2989 RMK FG6ST2 SLP174=

CYYC;2005-01-29 01:24;SPECI CYYC 290124Z 12005KT 2 1/2SM BR OVC002 RMK ST8=

CYYC;2005-01-29 04:00;METAR CYYC 290400Z 11006KT 1/8SM FZFG VV001 M02/M04 A2991 RMK FG8 RVR RWY16 2000FT SLP185=

CYYC;2005-01-29 05:00;METAR CYYC 290500Z 12004KT 1/8SM FZFG VV001 M02/M04 A2991 RMK FG8 RVR RWY16 1800 FT SLP185=

CYYC;2005-01-29 05:54;SPECI CYYC 290554Z 16004KT 1/2SM -FZDZ FZFG VV001 RMK FG8 RVR RWY16 2200 FT=

CYYC;2005-01-29 06:00;METAR CYYC 290600Z 16005KT 3/4SM -FZDZ BR VV001 M02/M04 A2992 RMK FG8 RVR RWY16 2400 FT SLP180=

CYYC;2005-01-29 06:35;SPECI CYYC 290635Z 20004KT 1 1/4SM -FZDZ BR VV002 RMK FG8=

CYYC;2005-01-29 07:00;METAR CYYC 290700Z 19006KT 1 1/2SM BR VV002 M02/M04 A2991 REFZDZ RMK FG8 SLP178=

CYYC;2005-01-29 07:17;SPECI CYYC 290717Z 22004KT 1/2SM FZFG VV001 RMK FG8 RVR RWY16 3500 FT=

CYYC;2005-01-29 08:00;METAR CYYC 290800Z 21007KT 1/2SM FZFG VV001 M02/M04 A2991 RMK FG8 RVR RWY16 2800 FT SLP176=

CYYC;2005-01-29 08:31;SPECI CYYC 290831Z 22006KT 3/8SM FZFG VV001 RMK FG8 RVR RWY16 3000FT=

CYYC;2005-01-29 09:00;METAR CYYC 290900Z 20007KT 1/4SM FZFG SKC M02/M04 A2990 RMK FG7 RVR RWY16 1800 FT SLP178=

CYYC;2005-01-29 10:00;METAR CYYC 291000Z 21006KT 1/4SM FZFG OVC005 M03/M05 A2991 RMK FG7ST0 RVR RWY16 1800 FT SLP179=

CYYC;2005-01-29 12:00;METAR CYYC 291200Z 20004KT 3/8SM FZFG OVC003 M04/M06 A2989 RMK FG6ST0 FROIN RVR RWY16 1400 SLP175=

CYYC;2005-01-29 12:27;SPECI CYYC 291227Z 20006KT 1/2SM FZFG BKN003 OVC100 RMK FG6ST0AC0 RVR RWY16 2000 FT=

CYYC;2005-01-29 12:37;SPECI CYYC 291237Z 23004KT 1SM BR SCT003 RMK FG4ST1 VIS WSW 15 RVR RWY16 3500=

CYYC;2005-01-29 12:47;SPECI CYYC 291247Z 23004KT 5/8SM BR BKN002 BKN250 RMK FG6ST1CI0 RVR RWY16 6000+ FT=

CYYC;2005-01-29 14:00;METAR CYYC 291400Z 22002KT 15SM FEW100 FEW240 M05/M08 A2991 RMK AC1CI0 SLP181=

CYYC;2005-01-29 16:00;METAR CYYC 291600Z 23004KT 40SM FEW100 FEW250 M05/M08 A2992 RMK AC1CI0 FROIN SLP190=

CYYC;2005-01-29 17:00;METAR CYYC 291700Z 21006KT 40SM FEW100 FEW250 M02/M03 A2993 RMK AC1CI1 FROIN SLP192=

CYYC;2005-01-29 20:00;METAR CYYC 292000Z 22006KT 40SM FEW100 FEW250 09/M04 A2991 RMK AC1CI0 SLP174=

CYYC;2005-01-29 21:00;METAR CYYC 292100Z 26015KT 40SM FEW100 FEW250 09/M07 A2990 RMK AC1CI1 SLP162=

CYYC;2005-01-29 22:00;METAR CYYC 292200Z 26016KT 40SM FEW090 FEW240 09/M07 A2990 RMK AC1CI1 SLP161=

CYYC;2005-01-29 23:00;METAR CYYC 292300Z 26011KT 40SM FEW090 FEW240 09/M07 A2990 RMK AC1CI0 SLP161=

CYYC;2005-01-30 03:00;METAR CYYC 300300Z 28011KT 15SM SCT250 05/M08 A2990 RMK CI0 SLP173=

CYYC;2005-01-30 04:00;METAR CYYC 300400Z 19005KT 15SM FEW240 01/M07 A2989 RMK CI0 SLP171=

CYYC;2005-01-30 05:00;METAR CYYC 300500Z 24002KT 15SM FEW110 FEW240 01/M08 A2989 RMK AC2CI0 SLP171=

CYYC;2005-01-30 07:00;METAR CYYC 300700Z 16005KT 15SM FEW018 FEW110 FEW240 01/M07 A2986 RMK SC1AC1CI0 SLP150=

CYYC;2005-01-30 10:00;METAR CYYC 301000Z 28014KT 15SM SCT120 SCT200 06/M08 A2988 RMK AC3CI0 SLP142=

CYYC;2005-01-30 12:00;METAR CYYC 301200Z 28012KT 15SM FEW100 FEW120 BKN200 05/M08 A2991 RMK AC1AC2CI1 SLP159=

CYYC;2005-01-30 14:00;METAR CYYC 301400Z 35009KT 15SM FEW018 BKN140 BKN240 M02/M05 A3003 RMK SC2AC3CI0 SLP195=

CYYC;2005-01-30 15:00;METAR CYYC 301500Z 32008KT 40SM FEW011 BKN088 BKN160 M01/M05 A3005 RMK SC1AC5AC1 SC TR / VIRGA SLP217=

CYYC;2005-01-30 16:00;METAR CYYC 301600Z 24005KT 40SM BKN085 BKN150 BKN250 M00/M04 A3008 RMK AC4AC1CI0 VIRGA NW-SE SLP226=

CYYC;2005-01-30 17:00;METAR CYYC 301700Z 23007KT 40SM SCT089 BKN250 01/M04 A3009 RMK AC2CI0 VIRGA NW-SE SLP231=

CYYC;2005-01-30 18:00;METAR CYYC 301800Z 22007KT 40SM FEW089 FEW250 03/M04 A3011 RMK AC1CI0 VIRGA NE-SE SLP237=

CYYC;2005-01-30 19:00;METAR CYYC 301900Z 21009KT 40SM FEW089 SCT250 05/M03 A3010 RMK AC1CI0 SLP236=

CYYC;2005-01-30 22:00;METAR CYYC 302200Z 18010G15KT 40SM FEW080 FEW210 BKN260 06/M03 A3008 RMK AC1CI1CI0 SLP216=

CYYC;2005-01-30 23:00;METAR CYYC 302300Z 17009KT 40SM FEW080 FEW190 FEW260 06/M03 A3007 RMK AC1AC1CI0 ACSL S-W SLP213=

CYYC;2005-01-31 00:00;METAR CYYC 310000Z 16007KT 40SM FEW080 FEW190 FEW260 04/M03 A3006 RMK AC1AC1CI0 ACSL W SLP213=

CYYC;2005-01-31 04:00;METAR CYYC 310400Z 19004KT 15SM FEW140 00/M05 A3001 RMK AC1 AC TR SLP212=

CYYC;2005-01-31 07:00;METAR CYYC 310700Z 16004KT 15SM SKC 01/M06 A2996 RMK SLP185=

CYYC;2005-01-31 09:00;METAR CYYC 310900Z 19006KT 15SM FEW240 03/M06 A2989 RMK CI1 CI TR SLP156=

CYYC;2005-01-31 10:00;METAR CYYC 311000Z 21004KT 15SM FEW240 02/M05 A2988 RMK CI1 CI TR SLP153=

CYYC;2005-01-31 11:00;METAR CYYC 311100Z 18013KT 15SM FEW240 04/M06 A2986 RMK CI1 SLP146=

CYYC;2005-01-31 12:00;METAR CYYC 311200Z 18006KT 15SM FEW190 SCT240 05/M05 A2985 RMK AC2CI2 SLP142=

CYYC;2005-01-31 13:00;METAR CYYC 311300Z 27008KT 15SM FEW150 BKN240 06/M05 A2984 RMK AC2CI2 SLP138=

CYYC;2005-01-31 14:00;METAR CYYC 311400Z 15002KT 15SM BKN210 04/M05 A2980 RMK CI5 SLP125=

CYYC;2005-01-31 15:00;METAR CYYC 311500Z 14004KT 40SM FEW070 FEW160 BKN220 05/M06 A2979 RMK AC1AC1CI7 SLP126=

CYYC;2005-01-31 16:00;METAR CYYC 311600Z 13004KT 40SM FEW060 FEW160 BKN240 04/M05 A2978 RMK SC1AC1CI7 SLP123=

CYYC;2005-01-31 17:00;METAR CYYC 311700Z 17003KT 40SM FEW060 FEW220 BKN250 04/M05 A2978 RMK SC1CI2CI5 SLP123=

CYYC;2005-01-31 18:00;METAR CYYC 311800Z 21009KT 40SM FEW060 FEW220 BKN250 05/M04 A2978 RMK SC1CI2CI6 SLP119=

CYYC;2005-01-31 21:00;METAR CYYC 312100Z 26013G18KT 40SM FEW065 FEW160 FEW250 12/M07 A2980 RMK CU1AC1CI2 SLP116=

CYYC;2005-01-31 22:00;METAR CYYC 312200Z 28021KT 40SM FEW065 FEW090 FEW250 11/M08 A2982 RMK CU1AC1CI0 SLP121=

CYYC;2005-02-01 00:00;METAR CYYC 010000Z 24013G19KT 40SM FEW065 FEW100 FEW270 08/M08 A2985 RMK CU1AC1CI0 SLP134=

CYYC;2005-02-01 02:00;METAR CYYC 010200Z 26009KT 15SM FEW250 04/M08 A2990 RMK CI0 SLP149=

CYYC;2005-02-01 03:00;METAR CYYC 010300Z 27005KT 15SM SKC 03/M09 A2995 RMK SLP176=

CYYC;2005-02-01 04:00;METAR CYYC 010400Z 27013KT 15SM SKC 05/M08 A2997 RMK SLP183=

CYYC;2005-02-01 05:00;METAR CYYC 010500Z 24009KT 15SM SKC 04/M08 A2996 RMK SLP179=

CYYC;2005-02-01 06:00;METAR CYYC 010600Z 25006KT 15SM SKC 02/M09 A2998 RMK SLP189=

CYYC;2005-02-01 09:00;METAR CYYC 010900Z 22006KT 15SM SCT210 03/M09 A2997 RMK CI2 SLP173=

CYYC;2005-02-01 10:00;METAR CYYC 011000Z 19006KT 15SM FEW180 SCT240 02/M09 A2999 RMK AC2CI1 SLP179=

CYYC;2005-02-01 11:00;METAR CYYC 011100Z 18003KT 15SM BKN140 03/M10 A2996 RMK AC4 SLP171=

CYYC;2005-02-01 12:00;METAR CYYC 011200Z 18005KT 15SM FEW190 BKN240 01/M09 A2995 RMK AC2CI1 SLP176=

CYYC;2005-02-01 13:00;METAR CYYC 011300Z 17003KT 15SM BKN210 00/M09 A2996 RMK CI3 SLP179=

CYYC;2005-02-01 14:00;METAR CYYC 011400Z 22005KT 15SM FEW180 BKN240 02/M09 A2997 RMK AC2CI2 SLP182=

CYYC;2005-02-01 15:00;METAR CYYC 011500Z 24008KT 40SM FEW050 FEW180 BKN230 05/M09 A3000 RMK SC1AC1CI5 SLP195=

CYYC;2005-02-01 16:00;METAR CYYC 011600Z 25009KT 40SM FEW040 FEW180 BKN250 04/M08 A3004 RMK SC1AC1CI2 CC ASOCTD SLP205=

CYYC;2005-02-01 17:00;METAR CYYC 011700Z 26015KT 40SM FEW040 FEW210 BKN260 07/M08 A3005 RMK SC1CI2CI0 CC ASOCTD SLP210=

CYYC;2005-02-01 18:00;METAR CYYC 011800Z 26018KT 40SM FEW040 FEW210 BKN260 09/M08 A3007 RMK SC1CI1CI1 CC ASOCTD SLP217=

CYYC;2005-02-01 21:00;METAR CYYC 012100Z 25024G29KT 40SM FEW040 FEW120 FEW160 SCT250 10/M08 A3006 RMK SC1AC2AC1CI0 SLP208=

CYYC;2005-02-01 22:00;METAR CYYC 012200Z 22011KT 40SM FEW040 FEW120 FEW180 BKN240 09/M08 A3005 RMK SC1AC2AC1CI3 SLP206=

CYYC;2005-02-01 23:00;METAR CYYC 012300Z 18005KT 40SM FEW040 FEW120 FEW180 BKN230 07/M08 A3004 RMK SC1AC2AC1CI4 SLP203=

CYYC;2005-02-02 00:00;METAR CYYC 020000Z 19009KT 40SM FEW040 FEW180 BKN220 06/M07 A3001 RMK SC1AC2CI5 SLP199=

CYYC;2005-02-02 02:00;METAR CYYC 020200Z 22007KT 15SM FEW040 OVC090 05/M07 A2995 RMK SC1AC8 VIRGA ALQDS SLP181=

CYYC;2005-02-02 02:24;SPECI CYYC 020224Z 23008KT 15SM -RA OVC100 RMK AC8=

CYYC;2005-02-02 03:00;METAR CYYC 020300Z 18012KT 15SM -RA SCT060 OVC120 06/M06 A2991 RMK SC4AC4 SLP160=

CYYC;2005-02-02 03:28;SPECI CYYC 020328Z 18013KT 15SM FEW060 BKN120 OVC150 RMK SC2AC5AC2=

CYYC;2005-02-02 04:00;METAR CYYC 020400Z 17016KT 15SM OVC180 06/M06 A2989 RMK AC8 SLP154=

CYYC;2005-02-02 06:00;METAR CYYC 020600Z 21011KT 15SM BKN180 OVC230 04/M05 A2986 RMK AC5CI3 SLP138=

CYYC;2005-02-02 07:00;METAR CYYC 020700Z 20011KT 15SM SCT180 OVC250 03/M05 A2985 RMK AC3CI5 SLP137=

CYYC;2005-02-02 08:00;METAR CYYC 020800Z 17008KT 15SM BKN250 04/M05 A2984 RMK CI5 SLP132=

CYYC;2005-02-02 10:00;METAR CYYC 021000Z 19013KT 15SM BKN250 05/M04 A2980 RMK CI4 SLP115=

CYYC;2005-02-02 11:00;METAR CYYC 021100Z 21014KT 15SM FEW180 SCT250 06/M04 A2980 RMK AC1CI2 SLP113=

CYYC;2005-02-02 12:00;METAR CYYC 021200Z 18012KT 15SM FEW180 BKN250 10/M04 A2980 RMK AC2CI4 SLP114=

CYYC;2005-02-02 13:00;METAR CYYC 021300Z 17012KT 15SM SCT180 OVC250 07/M04 A2982 RMK AC3CI4 SLP119=

CYYC;2005-02-02 16:00;METAR CYYC 021600Z 24015KT 40SM FEW080 FEW180 BKN250 11/M06 A2987 RMK AC1AC1CI6 SLP142=

CYYC;2005-02-02 17:00;METAR CYYC 021700Z 24016KT 40SM FEW080 FEW180 BKN250 11/M06 A2990 RMK AC1AC1CI6 SLP149=

CYYC;2005-02-02 18:00;METAR CYYC 021800Z 24020KT 40SM FEW080 FEW180 BKN250 13/M05 A2991 RMK AC1AC1CI6 SLP149=

CYYC;2005-02-02 19:00;METAR CYYC 021900Z 23013KT 40SM FEW070 SCT190 BKN250 13/M05 A2993 RMK AC1AC1CI6 SLP157=

CYYC;2005-02-02 20:00;METAR CYYC 022000Z 25006KT 40SM FEW070 SCT190 BKN250 14/M05 A2992 RMK AC1AC1CI6 SLP154=

CYYC;2005-02-02 21:00;METAR CYYC 022100Z 25011G16KT 40SM FEW080 SCT180 BKN250 14/M05 A2993 RMK AC1AC0CI6 SLP153=

CYYC;2005-02-02 23:00;METAR CYYC 022300Z 26008KT 40SM FEW080 SCT190 BKN250 13/M03 A2997 RMK AC1AC0CI7 SLP166=

CYYC;2005-02-03 00:00;METAR CYYC 030000Z 27018KT 40SM FEW080 SCT190 BKN250 13/M03 A2999 RMK AC1AC0CI7 SLP168=

CYYC;2005-02-03 02:00;METAR CYYC 030200Z 25012KT 15SM FEW080 BKN250 09/M03 A3001 RMK AC1CI2 SLP175=

CYYC;2005-02-03 04:00;METAR CYYC 030400Z 25017KT 15SM FEW120 SCT240 09/M04 A3001 RMK AC1CI1 SLP185=

CYYC;2005-02-03 07:00;METAR CYYC 030700Z 19003KT 15SM FEW170 BKN250 06/M05 A2997 RMK AC2CI3 SLP168=

CYYC;2005-02-03 09:00;METAR CYYC 030900Z 18012KT 15SM SCT240 06/M04 A2993 RMK CI1 SLP154=

CYYC;2005-02-03 10:00;METAR CYYC 031000Z 13006KT 15SM BKN250 06/M04 A2992 RMK CI3 SLP151=

CYYC;2005-02-03 12:00;METAR CYYC 031200Z 20006KT 15SM FEW120 OVC260 04/M05 A2990 RMK AC1CI7 SLP146=

CYYC;2005-02-03 13:00;METAR CYYC 031300Z 22009KT 15SM FEW120 SCT180 OVC250 06/M06 A2989 RMK AC1AC3CI5 SLP143=

CYYC;2005-02-03 15:00;METAR CYYC 031500Z 22007KT 40SM FEW080 FEW180 BKN250 10/M07 A2989 RMK AC1AC1CI6 ACSL S SLP140=

CYYC;2005-02-03 16:00;METAR CYYC 031600Z 18004KT 40SM FEW090 FEW180 BKN250 10/M07 A2991 RMK AC1AC1CI6 ACSL S SLP145=

CYYC;2005-02-03 17:00;METAR CYYC 031700Z 30004KT 40SM FEW090 FEW180 BKN250 10/M07 A2990 RMK AC1AC1CI6 SLP144=

CYYC;2005-02-03 18:00;METAR CYYC 031800Z 24012G17KT 40SM FEW090 FEW190 BKN250 12/M05 A2988 RMK AC1AC1CI6 SLP141=

CYYC;2005-02-03 22:00;METAR CYYC 032200Z 28014G24KT 40SM FEW100 FEW180 OVC250 14/M05 A2983 RMK AC1AC1CI6 LWR AC TR SLP116=

CYYC;2005-02-03 23:00;METAR CYYC 032300Z 29013G18KT 20SM FEW100 SCT180 OVC250 13/M05 A2985 RMK AC1AC2CI5 SLP123=

CYYC;2005-02-04 00:00;METAR CYYC 040000Z 29009KT 30SM FEW100 BKN180 OVC250 12/M05 A2986 RMK AC1AC2CI5 SLP137=

CYYC;2005-02-04 02:00;METAR CYYC 040200Z 31008KT 15SM FEW180 OVC250 07/M05 A2988 RMK AC1CI7 SLP142=

CYYC;2005-02-04 04:00;METAR CYYC 040400Z 05014G21KT 15SM FEW100 BKN250 03/M01 A2994 RMK AC1CI3 SLP158=

CYYC;2005-02-04 04:46;SPECI CYYC 040446Z 02014KT 15SM FEW005 BKN009 RMK SF1SC6=

CYYC;2005-02-04 05:13;SPECI CYYC 040513Z 02013G18KT 10SM BKN006 OVC010 RMK SC6SC2=

CYYC;2005-02-04 06:44;SPECI CYYC 040644Z 04007KT 15SM SCT006 BKN011 OVC100 RMK SC3SC4AC1=

CYYC;2005-02-04 07:51;SPECI CYYC 040751Z 04006KT 15SM FEW007 FEW013 OVC024 RMK SF1SC2SC6=

CYYC;2005-02-04 08:00;METAR CYYC 040800Z 04008KT 15SM FEW007 SCT013 OVC024 M00/M01 A2998 RMK SF2SC2SC4 SLP183=

CYYC;2005-02-04 09:41;SPECI CYYC 040941Z 07004KT 15SM FEW008 BKN012 OVC024 RMK SF2SC5SC2=

CYYC;2005-02-04 10:00;METAR CYYC 041000Z 08003KT 15SM -SN FEW008 OVC014 M01/M01 A2997 RMK SF1SC7 SLP175=

CYYC;2005-02-04 11:11;SPECI CYYC 041111Z 07004KT 6SM -SN OVC008 RMK SC8=

CYYC;2005-02-04 12:33;SPECI CYYC 041233Z 10008KT 3SM -SN BR OVC003 RMK ST8=

CYYC;2005-02-04 12:47;SPECI CYYC 041247Z 09007KT 2SM -SN BR OVC002 RMK FG3ST5=

CYYC;2005-02-04 13:11;SPECI CYYC 041311Z 09012KT 1/2SM -SN -FZDZ FZFG VV001 RMK FG8 RVR RWY34 3000 FT=

CYYC;2005-02-04 13:19;SPECI CYYC 041319Z 09012KT 5/8SM -SN -FZDZ BR VV001 RMK FG8 RVR RWY34 3500 FT=

CYYC;2005-02-04 13:27;SPECI CYYC 041327Z 08011KT 5/8SM -SN BR VV001 REFZDZ RMK FG8 RVR RWY34 4000 FT=

CYYC;2005-02-04 13:38;SPECI CYYC 041338Z 09011KT 1 1/2SM -SN BR OVC002 REFZDZ RMK FG3ST5=

CYYC;2005-02-04 14:00;METAR CYYC 041400Z 07012KT 1 1/2SM -SN BR OVC005 M05/M05 A2990 REFZDZ RMK FG3ST5 SLP157=

CYYC;2005-02-04 14:48;SPECI CYYC 041448Z 07012KT 1SM -SN DRSN BR BKN005 OVC015 RMK SN3ST4SC1 RVR RWY16 6000 FT=

CYYC;2005-02-04 15:23;SPECI CYYC 041523Z 06011KT 1 1/4SM -SN DRSN BR FEW016 OVC030 RMK SC2SC6=

CYYC;2005-02-04 15:36;SPECI CYYC 041536Z 06010KT 1 3/4SM -SN DRSN BR BKN008 OVC025 RMK SC6SC2=

CYYC;2005-02-04 16:00;METAR CYYC 041600Z 07012KT 1SM -SN DRSN BR BKN006 OVC011 M07/M07 A2987 RMK SC6SC2 RVR RWY16 6000 FT SLP160=

CYYC;2005-02-04 16:32;SPECI CYYC 041632Z 07007KT 2SM -SN BR SCT009 OVC019 RMK SC3SC5=

CYYC;2005-02-04 17:00;METAR CYYC 041700Z 07005KT 2SM -SN BR BKN006 OVC019 M07/M07 A2985 RMK SC7SC1 SLP156=

CYYC;2005-02-04 18:00;METAR CYYC 041800Z 07007KT 2SM -SN BR OVC006 M07/M07 A2983 RMK SC8 /S02/ SLP157=

CYYC;2005-02-04 20:47;SPECI CYYC 042047Z 05008KT 1 1/4SM -SN BR OVC004 RMK ST8=

CYYC;2005-02-04 21:00;METAR CYYC 042100Z 06008KT 1 1/4SM -SN BR OVC004 M08/M08 A2974 RMK ST8 SLP127=

CYYC;2005-02-04 22:00;METAR CYYC 042200Z 08009KT 1 1/4SM -SN BR OVC004 M08/M08 A2971 RMK ST8 SLP119=

CYYC;2005-02-04 22:22;SPECI CYYC 042222Z 07010KT 5/8SM -SN BR OVC002 RMK FG5ST3 RVR RWY34 6000 FT=

CYYC;2005-02-05 00:21;SPECI CYYC 050021Z 05008KT 1SM -SN BR OVC005 RMK FG4ST4 RVR RWY34 6000 FT=

CYYC;2005-02-05 00:47;SPECI CYYC 050047Z 05009KT 3SM -SN BR OVC006 RMK ST8=

CYYC;2005-02-05 01:55;SPECI CYYC 050155Z 04011KT 3SM -SN BR OVC012 RMK ST8=

CYYC;2005-02-05 02:00;METAR CYYC 050200Z 03010KT 3SM -SN BR OVC013 M12/M13 A2969 RMK ST8 SLP113=

CYYC;2005-02-05 02:24;SPECI CYYC 050224Z 03008KT 1 3/4SM -SN BR FEW010 OVC018 RMK SC2SC6=

CYYC;2005-02-05 02:44;SPECI CYYC 050244Z 03012KT 1 1/4SM -SN BR BKN006 OVC014 RMK SN3SC4SC1=

CYYC;2005-02-05 03:16;SPECI CYYC 050316Z 01015KT 3/4SM -SN BR VV003 RMK SN8 RVR RWY34 5000FT=

CYYC;2005-02-05 03:27;SPECI CYYC 050327Z 01012KT 1 1/2SM -SN BR OVC005 RMK SN5SC3=

CYYC;2005-02-05 03:40;SPECI CYYC 050340Z 02011KT 2SM -SN BR BKN012 OVC030 RMK SC6SC2=

CYYC;2005-02-05 03:53;SPECI CYYC 050353Z 01012KT 4SM -SN BR FEW010 SCT030 OVC055 RMK SC1SC3SC5=

CYYC;2005-02-05 04:00;METAR CYYC 050400Z 01011KT 5SM -SN BR FEW010 FEW030 OVC053 M15/M16 A2973 RMK SC1SC2SC6 SLP139=

CYYC;2005-02-05 05:00;METAR CYYC 050500Z 02009KT 5SM -SN BR FEW012 OVC055 M15/M16 A2976 RMK SC1SC7 /S02/ SLP147=

CYYC;2005-02-05 05:47;SPECI CYYC 050547Z 01012KT 2SM -SN BR SCT010 OVC024 RMK SC3SC5=

CYYC;2005-02-05 06:00;METAR CYYC 050600Z 36012KT 1 1/4SM -SN BR BKN005 OVC018 M16/M17 A2977 RMK SC5SC3 SLP159=

CYYC;2005-02-05 06:12;SPECI CYYC 050612Z 36010KT 3SM -SN BR SCT005 BKN018 OVC030 RMK SC3SC4SC1=

CYYC;2005-02-05 09:00;METAR CYYC 050900Z 34007KT 15SM -SN FEW008 FEW120 OVC180 M17/M19 A2981 RMK CF1AC2AC6 SLP177=

CYYC;2005-02-05 09:22;SPECI CYYC 050922Z 34008KT 15SM FEW008 FEW120 OVC200 RMK CF1AC2CI6=

CYYC;2005-02-05 10:00;METAR CYYC 051000Z 34007KT 15SM FEW012 FEW120 BKN180 M18/M19 A2983 RMK CF1AC2AC4 SLP182=

CYYC;2005-02-05 10:14;SPECI CYYC 051014Z 32006KT 15SM FEW012 SCT120 BKN160 RMK CF1AC2AC3=

CYYC;2005-02-05 11:18;SPECI CYYC 051118Z 33004KT 15SM FEW060 FEW160 OVC190 RMK SC1AC2AC6=

CYYC;2005-02-05 12:32;SPECI CYYC 051232Z 35007KT 15SM FEW020 SCT120 BKN190 RMK CF1AC3AC2=

CYYC;2005-02-05 13:00;METAR CYYC 051300Z 35008KT 15SM FEW020 FEW100 BKN180 M17/M18 A2987 RMK SC1AC2AC3 SLP201=

CYYC;2005-02-05 14:00;METAR CYYC 051400Z 36004KT 15SM FEW020 FEW060 BKN180 M18/M19 A2988 RMK SC1SC2AC2 SLP204=

CYYC;2005-02-05 16:00;METAR CYYC 051600Z 35008KT 10SM FEW012 BKN076 OVC180 M16/M17 A2992 RMK SF1AC5AC1 SLP221=

CYYC;2005-02-05 17:00;METAR CYYC 051700Z 35009KT 10SM FEW040 BKN090 OVC180 M16/M17 A2993 RMK SC1AC6AC1 SLP224=

CYYC;2005-02-05 17:30;SPECI CYYC 051730Z 36010KT 4SM -SN BKN031 OVC080 RMK SC6AC2=

CYYC;2005-02-05 18:00;METAR CYYC 051800Z 36009KT 5SM -SN FEW040 BKN091 OVC220 M15/M17 A2993 RMK SC2AC6CI1 SLP228=

CYYC;2005-02-05 19:00;METAR CYYC 051900Z 36010KT 10SM -SN BKN091 BKN180 OVC220 M15/M17 A2994 RMK AC5AC2CI1 SLP231=

CYYC;2005-02-05 19:50;SPECI CYYC 051950Z 36009KT 10SM FEW090 BKN180 OVC220 RMK AC1AC5CI1=

CYYC;2005-02-05 20:25;SPECI CYYC 052025Z 34007KT 10SM -SN FEW018 BKN025 OVC180 RMK SC2SC4AC2=

CYYC;2005-02-05 21:00;METAR CYYC 052100Z 36007KT 10SM -SN BKN050 OVC120 M15/M17 A2994 RMK SC6AC2 SLP232=

CYYC;2005-02-05 22:00;METAR CYYC 052200Z 36006KT 7SM -SN OVC048 M15/M17 A2994 RMK SC7 SLP233=

CYYC;2005-02-05 23:09;SPECI CYYC 052309Z 36008KT 1 3/4SM -SN BKN016 OVC031 RMK SN2SC5SC2=

CYYC;2005-02-06 00:00;METAR CYYC 060000Z 01007KT 1 3/4SM -SN BKN015 OVC035 M15/M16 A2997 RMK SN2SC6SC1 /S01/ SLP244=

CYYC;2005-02-06 00:39;SPECI CYYC 060039Z 01005KT 7SM -SN FEW040 OVC150 RMK SC2AC6=

CYYC;2005-02-06 01:00;METAR CYYC 060100Z 02005KT 15SM -SN FEW093 OVC120 M16/M17 A2998 RMK AC2AC5 SLP247=

CYYC;2005-02-06 02:00;METAR CYYC 060200Z 36004KT 3SM -SN BKN030 OVC048 M16/M17 A2999 RMK SC6SC2 SLP250=

CYYC;2005-02-06 02:29;SPECI CYYC 060229Z 03004KT 1 1/4SM -SN BKN010 OVC025 RMK SC6SC2 VIS W 5/8=

CYYC;2005-02-06 03:19;SPECI CYYC 060319Z 05004KT 1 1/4SM -SN BKN009 OVC024 RMK SC6SC2=

CYYC;2005-02-06 04:00;METAR CYYC 060400Z 06003KT 1 1/4SM -SN BKN009 OVC024 M16/M17 A3003 RMK SC5SC3 SLP262=

CYYC;2005-02-06 05:00;METAR CYYC 060500Z 06005KT 1 1/2SM -SN BKN010 OVC030 M16/M17 A3002 RMK SC5SC3 /S01/ SLP261=

CYYC;2005-02-06 06:00;METAR CYYC 060600Z 09005KT 1 1/4SM -SN BKN012 OVC030 M16/M17 A3002 RMK SC5SC3 SLP259=

CYYC;2005-02-06 06:39;SPECI CYYC 060639Z 11003KT 2SM -SN BKN015 OVC030 RMK SC5SC3=

CYYC;2005-02-06 07:00;METAR CYYC 060700Z 09004KT 2SM -SN BKN018 OVC035 M17/M17 A3002 RMK SC5SC3 SLP260=

CYYC;2005-02-06 08:13;SPECI CYYC 060813Z 11006KT 3SM -SN FEW012 BKN016 BKN040 RMK SC2SC2SC2=

CYYC;2005-02-06 09:36;SPECI CYYC 060936Z 14007KT 4SM IC FEW012 BKN100 RMK SC1AC2 FROIN=

CYYC;2005-02-06 11:44;SPECI CYYC 061144Z 16004KT 4SM IC SCT008 BKN110 BKN140 RMK SC2AC2AC1=

CYYC;2005-02-06 12:00;METAR CYYC 061200Z 16005KT 3SM IC SCT008 BKN020 BKN140 M19/M19 A3004 RMK SC2SC1AC2 SN CVR/MUCH LOOSE SLP270=

CYYC;2005-02-06 13:00;METAR CYYC 061300Z 10002KT 3SM IC FEW008 SCT040 BKN072 OVC100 M19/M19 A3007 RMK SC1SC2AC2AC2 SLP278=

CYYC;2005-02-06 14:22;SPECI CYYC 061422Z 00000KT 2 1/4SM -SN BKN018 OVC037 RMK SC5SC3=

CYYC;2005-02-06 14:42;SPECI CYYC 061442Z 09002KT 1 3/4SM -SN SCT008 OVC021 RMK SC3SC5=

CYYC;2005-02-06 15:00;METAR CYYC 061500Z 00000KT 1 1/4SM -SN BKN012 OVC028 M18/M19 A3010 RMK SC6SC2 SLP291=

CYYC;2005-02-06 15:44;SPECI CYYC 061544Z 13004KT 7SM -SN FEW022 OVC034 RMK SC2SC6=

CYYC;2005-02-06 16:00;METAR CYYC 061600Z 15004KT 7SM -SN OVC034 M17/M18 A3011 RMK SC8 SLP292=

CYYC;2005-02-06 17:00;METAR CYYC 061700Z 15006KT 7SM -SN OVC031 M17/M18 A3010 RMK SC8 SLP291=

CYYC;2005-02-06 19:00;METAR CYYC 061900Z 15006KT 7SM -SN OVC030 M16/M18 A3011 RMK SC8 SLP294=

CYYC;2005-02-06 21:00;METAR CYYC 062100Z 15008KT 7SM -SN FEW016 OVC026 M15/M18 A3010 RMK SC2SC6 SLP289=

CYYC;2005-02-06 22:00;METAR CYYC 062200Z 13006KT 8SM -SN OVC022 M15/M18 A3010 RMK SC8 SLP290=

CYYC;2005-02-07 00:00;METAR CYYC 070000Z 14007KT 7SM -SN BKN016 OVC180 M15/M18 A3011 RMK SC7AC1 SLP295=

CYYC;2005-02-07 03:00;METAR CYYC 070300Z 16007KT 6SM -SN FEW011 BKN014 OVC120 M16/M18 A3013 RMK SC1SC6AC1 SLP300=

CYYC;2005-02-07 04:00;METAR CYYC 070400Z 18008KT 6SM IC FEW008 BKN011 OVC120 M16/M18 A3012 RMK SC1SC5AC2 SLP299=

CYYC;2005-02-07 04:23;SPECI CYYC 070423Z 18007KT 6SM IC SCT011 BKN110 RMK SC2AC4=

CYYC;2005-02-07 05:10;SPECI CYYC 070510Z 19005KT 6SM -SN FEW014 BKN081 OVC097 RMK SF1AC7AC1=

CYYC;2005-02-07 07:00;METAR CYYC 070700Z 17004KT 5SM -SN FEW014 BKN055 OVC077 M15/M18 A3011 RMK SC1SC6AC2 PCPN VRY LGT SLP291=

CYYC;2005-02-07 09:00;METAR CYYC 070900Z 18007KT 5SM -SN FEW011 SCT055 BKN120 M16/M18 A3009 RMK SC1SC2AC3 SLP282=

CYYC;2005-02-07 11:00;METAR CYYC 071100Z 18007KT 7SM FEW011 FEW060 FEW095 M17/M19 A3007 RMK SC1SC2AC1 SLP277=

CYYC;2005-02-07 15:00;METAR CYYC 071500Z 21006KT 30SM FEW120 M19/M22 A3005 RMK AC1 SLP275=

CYYC;2005-02-07 16:00;METAR CYYC 071600Z 21006KT 40SM FEW120 M18/M21 A3005 RMK AC1 SLP275=

CYYC;2005-02-07 17:00;METAR CYYC 071700Z 19005KT 40SM FEW140 M15/M18 A3005 RMK AC1 SLP273=

CYYC;2005-02-07 21:00;METAR CYYC 072100Z 17007KT 40SM FEW080 FEW250 M09/M13 A2996 RMK AC1CI1 SLP228=

CYYC;2005-02-07 22:00;METAR CYYC 072200Z 18007KT 40SM FEW080 FEW250 M09/M12 A2994 RMK AC1CI1 AC TR SLP222=

CYYC;2005-02-07 23:00;METAR CYYC 072300Z 14006KT 30SM FEW030 FEW080 BKN250 M09/M12 A2994 RMK SC1AC1CI1 SLP221=

CYYC;2005-02-08 00:00;METAR CYYC 080000Z 16006KT 30SM FEW120 BKN250 M11/M14 A2993 RMK AC1CI1 SLP227=

CYYC;2005-02-08 02:00;METAR CYYC 080200Z 17006KT 15SM OVC200 M13/M14 A2993 RMK CI6 SLP225=

CYYC;2005-02-08 03:00;METAR CYYC 080300Z 18006KT 15SM OVC190 M13/M14 A2992 RMK AC7 SLP226=

CYYC;2005-02-08 04:00;METAR CYYC 080400Z 19005KT 10SM FEW160 BKN210 M14/M15 A2992 RMK AC2CI1 SLP224=

CYYC;2005-02-08 06:00;METAR CYYC 080600Z 20005KT 15SM BKN140 OVC210 M12/M13 A2990 RMK AC5CI3 SLP207=

CYYC;2005-02-08 08:00;METAR CYYC 080800Z 00000KT 15SM FEW160 M12/M14 A2989 RMK AC1 SLP204=

CYYC;2005-02-08 09:00;METAR CYYC 080900Z 20003KT 15SM BKN093 M11/M13 A2989 RMK AC6 SLP198=

CYYC;2005-02-08 10:00;METAR CYYC 081000Z 30002KT 15SM SCT100 BKN210 M10/M13 A2989 RMK AC3CI0 SLP196=

CYYC;2005-02-08 11:00;METAR CYYC 081100Z 32006KT 15SM SKC M08/M14 A2990 RMK SLP200=

CYYC;2005-02-08 13:00;METAR CYYC 081300Z 00000KT 15SM SCT080 BKN120 M10/M14 A2992 RMK AC3AC3 VIRGA SLP210=

CYYC;2005-02-08 14:00;METAR CYYC 081400Z 35003KT 15SM SCT070 BKN110 M09/M13 A2993 RMK AC3AC4 VIRGA SLP212=

CYYC;2005-02-08 15:00;METAR CYYC 081500Z 19003KT 40SM BKN064 BKN120 BKN170 OVC240 M09/M12 A2995 RMK SC4AC2AC0CI1 VIRGA SLP220=

CYYC;2005-02-08 17:00;METAR CYYC 081700Z 27002KT 40SM BKN071 BKN150 M04/M09 A2996 RMK AC2AC2 SLP224=

CYYC;2005-02-08 20:00;METAR CYYC 082000Z 27006KT 40SM BKN076 BKN090 BKN160 00/M07 A2997 RMK AC5AC1AC1 SLP214=

CYYC;2005-02-08 22:00;METAR CYYC 082200Z 31006KT 40SM FEW080 01/M06 A2997 RMK AC1 SLP210=

CYYC;2005-02-08 23:00;METAR CYYC 082300Z 01002KT 40SM FEW080 01/M06 A2999 RMK AC1 SLP215=

CYYC;2005-02-09 00:00;METAR CYYC 090000Z 07005KT 40SM FEW080 FEW250 M01/M07 A2999 RMK AC1CI1 SLP221=

CYYC;2005-02-09 03:00;METAR CYYC 090300Z 21004KT 15SM FEW090 M04/M07 A3001 RMK AC2 SLP227=

CYYC;2005-02-09 05:00;METAR CYYC 090500Z 20006KT 15SM SKC M07/M10 A2999 RMK SLP222=

CYYC;2005-02-09 06:00;METAR CYYC 090600Z 21008KT 15SM SKC M06/M09 A2997 RMK SLP206=

CYYC;2005-02-09 07:00;METAR CYYC 090700Z 17004KT 15SM SKC M05/M10 A2996 RMK SLP204=

CYYC;2005-02-09 08:00;METAR CYYC 090800Z 00000KT 15SM SKC M04/M10 A2996 RMK SLP203=

CYYC;2005-02-09 09:00;METAR CYYC 090900Z 29005KT 15SM SKC M02/M10 A2995 RMK SLP191=

CYYC;2005-02-09 10:00;METAR CYYC 091000Z 31004KT 15SM SKC M02/M10 A2994 RMK SLP188=

CYYC;2005-02-09 11:00;METAR CYYC 091100Z 00000KT 15SM SKC M05/M11 A2993 RMK SLP185=

CYYC;2005-02-09 12:00;METAR CYYC 091200Z 16004KT 15SM BKN190 M05/M10 A2992 RMK AC2 SN CVR/MUCH LOOSE SLP188=

CYYC;2005-02-09 13:00;METAR CYYC 091300Z 18005KT 15SM SCT220 M05/M10 A2991 RMK CI2 SLP186=

CYYC;2005-02-09 15:00;METAR CYYC 091500Z 21011KT 40SM SCT160 BKN250 M04/M10 A2989 RMK AC1CI2 SLP178=

CYYC;2005-02-09 16:00;METAR CYYC 091600Z 19008KT 40SM BKN160 OVC230 M03/M09 A2988 RMK AC3CI1 SLP177=

CYYC;2005-02-09 17:00;METAR CYYC 091700Z 24011KT 40SM BKN190 OVC230 03/M08 A2988 RMK AC4CI1 SLP177=

CYYC;2005-02-09 18:00;METAR CYYC 091800Z 22007KT 40SM BKN150 BKN230 M00/M07 A2989 RMK AC5CI2 SLP175=

CYYC;2005-02-09 21:00;METAR CYYC 092100Z 28012G18KT 40SM FEW065 BKN190 BKN230 06/M06 A2987 RMK CU1AC5CI1 ACSL S/ CU TR SLP154=

CYYC;2005-02-09 23:00;METAR CYYC 092300Z 26020G27KT 40SM FEW065 SCT100 BKN240 05/M06 A2987 RMK SC1AC3CI2 VIRGA WSW SLP154=

CYYC;2005-02-10 00:00;METAR CYYC 100000Z 27020G25KT 40SM FEW070 SCT120 BKN240 04/M06 A2988 RMK AC1AC2CI1 SLP165=

CYYC;2005-02-10 01:00;METAR CYYC 100100Z 27019G27KT 40SM FEW070 SCT120 BKN240 02/M07 A2990 RMK AC1AC2CI1 SLP171=

CYYC;2005-02-10 03:00;METAR CYYC 100300Z 27016G21KT 15SM FEW250 00/M08 A2994 RMK CI1 SLP191=

CYYC;2005-02-10 04:00;METAR CYYC 100400Z 27012KT 15SM FEW250 M01/M09 A2996 RMK CI0 SLP197=

CYYC;2005-02-10 05:00;METAR CYYC 100500Z 27018KT 15SM SKC 00/M10 A2996 RMK SLP198=

CYYC;2005-02-10 06:00;METAR CYYC 100600Z 27016KT 15SM SKC M00/M10 A2998 RMK SLP199=

CYYC;2005-02-10 07:00;METAR CYYC 100700Z 27015G21KT 15SM SKC M00/M10 A2999 RMK SLP203=

CYYC;2005-02-10 08:00;METAR CYYC 100800Z 27014KT 15SM SKC M00/M10 A3000 RMK SLP204=

CYYC;2005-02-10 09:00;METAR CYYC 100900Z 27015G20KT 15SM SKC M00/M11 A2999 RMK SLP195=

CYYC;2005-02-10 10:00;METAR CYYC 101000Z 27018KT 15SM BKN260 M00/M11 A3000 RMK CI0 SLP196=

CYYC;2005-02-10 11:00;METAR CYYC 101100Z 27014KT 15SM SCT260 00/M11 A3001 RMK CI0 SLP199=

CYYC;2005-02-10 12:00;METAR CYYC 101200Z 28013KT 15SM FEW260 01/M10 A3002 RMK CI0 SN CVR/MUCH LOOSE SLP204=

CYYC;2005-02-10 15:00;METAR CYYC 101500Z 27013KT 40SM FEW100 SCT240 01/M10 A3002 RMK AC1CI1 AC TR SLP209=

CYYC;2005-02-10 16:00;METAR CYYC 101600Z 27015KT 40SM SCT100 BKN240 03/M10 A3001 RMK AC2CI1 SLP208=

CYYC;2005-02-10 18:00;METAR CYYC 101800Z 17003KT 40SM FEW100 SCT180 BKN240 03/M07 A2999 RMK AC2AC2CI2 SLP197=

CYYC;2005-02-10 19:00;METAR CYYC 101900Z 21003KT 40SM BKN180 BKN240 06/M09 A2997 RMK AC3CI2 ACSL SSW SLP191=

CYYC;2005-02-10 20:00;METAR CYYC 102000Z 26016KT 40SM BKN180 BKN240 06/M08 A2993 RMK AC3CI2 SLP181=

CYYC;2005-02-10 21:00;METAR CYYC 102100Z 25013KT 40SM BKN150 BKN240 06/M08 A2991 RMK AC5CI1 SLP167=

CYYC;2005-02-10 22:00;METAR CYYC 102200Z 23012KT 40SM BKN190 OVC240 07/M08 A2991 RMK AC6CI2 SLP167=

CYYC;2005-02-10 23:00;METAR CYYC 102300Z 31006KT 40SM BKN190 OVC240 08/M08 A2992 RMK AC5CI2 SLP170=

CYYC;2005-02-11 00:00;METAR CYYC 110000Z 22007KT 40SM SCT190 OVC240 05/M06 A2992 RMK AC3CI3 SLP168=

CYYC;2005-02-11 02:00;METAR CYYC 110200Z 25012KT 15SM FEW100 SCT190 OVC240 06/M09 A2989 RMK AC1AC2CI3 SLP161=

CYYC;2005-02-11 04:00;METAR CYYC 110400Z 23010KT 15SM BKN140 BKN170 06/M08 A2989 RMK AC5AC2 SLP159=

CYYC;2005-02-11 05:00;METAR CYYC 110500Z 24013KT 15SM FEW100 BKN140 BKN220 04/M08 A2988 RMK AC1AC5CI2 SLP156=

CYYC;2005-02-11 09:00;METAR CYYC 110900Z 18005KT 15SM SCT160 OVC240 01/M08 A2985 RMK AC3CI5 SLP144=

CYYC;2005-02-11 10:00;METAR CYYC 111000Z 23003KT 15SM FEW130 OVC250 01/M08 A2985 RMK AC2CI6 SLP144=

CYYC;2005-02-11 11:00;METAR CYYC 111100Z 20007KT 15SM FEW130 BKN220 01/M08 A2985 RMK AC1CI6 SLP143=

CYYC;2005-02-11 13:00;METAR CYYC 111300Z 23009KT 15SM BKN160 OVC220 06/M11 A2985 RMK AC5CI3 SLP139=

CYYC;2005-02-11 14:00;METAR CYYC 111400Z 23009KT 15SM FEW130 BKN170 BKN220 04/M10 A2985 RMK AC1AC6CI1 SLP140=

CYYC;2005-02-11 15:00;METAR CYYC 111500Z 24016KT 40SM FEW130 BKN180 04/M11 A2985 RMK AC1AC6 SLP139=

CYYC;2005-02-11 16:00;METAR CYYC 111600Z 25017KT 40SM FEW140 BKN180 BKN240 04/M10 A2983 RMK AC1AC6CI0 SLP135=

CYYC;2005-02-11 18:00;METAR CYYC 111800Z 33015G20KT 40SM FEW140 BKN180 BKN220 06/M08 A2980 RMK AC1AC7CI1 SLP121=

CYYC;2005-02-11 19:00;METAR CYYC 111900Z 29005KT 40SM FEW140 SCT180 OVC200 07/M08 A2977 RMK AC2AC2CI3 SLP114=

CYYC;2005-02-11 21:00;METAR CYYC 112100Z 09011KT 40SM FEW180 BKN220 08/M06 A2973 RMK AC1CI6 WSHFT 2050Z SLP101=

CYYC;2005-02-11 22:00;METAR CYYC 112200Z 15009KT 40SM FEW160 BKN230 06/M03 A2975 RMK AC1CI5 SLP106=

CYYC;2005-02-11 23:00;METAR CYYC 112300Z 14004KT 40SM FEW140 FEW230 08/M03 A2975 RMK AC1CI1 SLP105=

CYYC;2005-02-12 00:00;METAR CYYC 120000Z 15003KT 40SM FEW140 FEW230 07/M04 A2974 RMK AC1CI1 SLP097=

CYYC;2005-02-12 01:00;METAR CYYC 120100Z 00000KT 40SM FEW140 FEW220 05/M04 A2971 RMK AC1CI1 SLP088=

CYYC;2005-02-12 03:00;METAR CYYC 120300Z 32005KT 15SM FEW220 M03/M06 A2967 RMK CI1 SLP091=

CYYC;2005-02-12 04:00;METAR CYYC 120400Z 06002KT 15SM VCFG FEW080 FEW220 M05/M07 A2965 RMK AC1CI1 SLP083=

CYYC;2005-02-12 05:00;METAR CYYC 120500Z 22003KT 15SM BKN250 M03/M06 A2962 RMK CI0 SLP074=

CYYC;2005-02-12 06:00;METAR CYYC 120600Z 22004KT 15SM BKN240 M04/M07 A2958 RMK CI0 SLP056=

CYYC;2005-02-12 07:00;METAR CYYC 120700Z 20005KT 15SM SCT150 BKN240 M04/M08 A2957 RMK AC1CI0 SLP051=

CYYC;2005-02-12 09:00;METAR CYYC 120900Z 21004KT 15SM BKN180 OVC220 M03/M07 A2953 RMK AC6CI2 SLP035=

CYYC;2005-02-12 11:00;METAR CYYC 121100Z 26003KT 15SM SCT180 OVC220 02/M09 A2950 RMK AC3CI5 SLP025=

CYYC;2005-02-12 13:00;METAR CYYC 121300Z 03004KT 15SM FEW120 BKN180 BKN220 03/M10 A2948 RMK AC1AC5CI2 SLP011=

CYYC;2005-02-12 14:00;METAR CYYC 121400Z 32005KT 15SM BKN170 BKN220 05/M11 A2948 RMK AC6CI1 SLP011=

CYYC;2005-02-12 16:00;METAR CYYC 121600Z 27020G26KT 40SM BKN150 BKN220 07/M11 A2947 RMK AC6CI1 SLP015=

CYYC;2005-02-12 17:00;METAR CYYC 121700Z 28013G20KT 40SM BKN160 BKN220 08/M10 A2947 RMK AC6CI1 SLP016=

CYYC;2005-02-12 21:00;METAR CYYC 122100Z 33004KT 40SM SCT140 BKN240 08/M06 A2950 RMK AC4CI2 SLP023=

CYYC;2005-02-12 22:00;METAR CYYC 122200Z 27013KT 40SM FEW055 SCT160 BKN240 08/M07 A2948 RMK CU1AC4CI2 SLP018=

CYYC;2005-02-13 03:00;METAR CYYC 130300Z 27015KT 15SM FEW050 BKN220 05/M07 A2953 RMK SC1CI5 SLP025=

CYYC;2005-02-13 04:00;METAR CYYC 130400Z 31008KT 15SM FEW080 BKN230 04/M08 A2953 RMK AC1CI4 SLP024=

CYYC;2005-02-13 05:00;METAR CYYC 130500Z 27012KT 15SM FEW100 BKN230 05/M08 A2954 RMK AC1CI1 SLP026=

CYYC;2005-02-13 07:00;METAR CYYC 130700Z 29010KT 15SM FEW130 BKN240 04/M07 A2953 RMK AC1CI0 SLP024=

CYYC;2005-02-13 08:00;METAR CYYC 130800Z 27006KT 15SM SCT200 02/M07 A2953 RMK CI2 SLP024=

CYYC;2005-02-13 10:00;METAR CYYC 131000Z 28013KT 15SM FEW220 03/M08 A2953 RMK CI0 SLP026=

CYYC;2005-02-13 13:00;METAR CYYC 131300Z 28010KT 15SM OVC120 02/M09 A2956 RMK AC8 SLP041=

CYYC;2005-02-13 13:12;SPECI CYYC 131312Z 36016G21KT 15SM OVC120 RMK AC8 WSHFT 1302 Z=

CYYC;2005-02-13 14:00;METAR CYYC 131400Z 31009KT 15SM FEW080 BKN120 BKN160 M01/M08 A2960 RMK AC1AC5AC2 SLP052=

CYYC;2005-02-13 15:00;METAR CYYC 131500Z 31008KT 40SM FEW040 SCT070 BKN190 M03/M08 A2962 RMK SC1AC3AC1 SLP067=

CYYC;2005-02-13 15:51;SPECI CYYC 131551Z 32006KT 40SM -SN FEW020 BKN062 BKN190 RMK SC1SC5AC1=

CYYC;2005-02-13 16:00;METAR CYYC 131600Z 33006KT 40SM -SN FEW020 BKN061 BKN160 M01/M07 A2963 RMK SC1SC4AC1 SLP071=

CYYC;2005-02-13 17:00;METAR CYYC 131700Z 34009KT 8SM -SN BKN020 OVC060 M00/M04 A2968 RMK SC6SC2 VIS SW-NW 2 SLP086=

CYYC;2005-02-13 17:06;SPECI CYYC 131706Z 32011KT 3/4SM -SN BKN012 OVC020 RMK SN2SC4SC2 RVR RWY34 4500FT=

CYYC;2005-02-13 17:12;SPECI CYYC 131712Z 32008KT 1/2SM SN VV003 RMK SN8 RVR RWY34 3500FT=

CYYC;2005-02-13 17:30;SPECI CYYC 131730Z 01003KT 1 1/4SM -SN BKN012 BKN020 BKN054 RESN RMK SN2SC3SC2SC1=

CYYC;2005-02-13 19:00;METAR CYYC 131900Z 04005KT 40SM SCT012 BKN030 00/M02 A2968 RMK SC4SC3 CU ASOCTD SLP093=

CYYC;2005-02-13 19:16;SPECI CYYC 131916Z 05006KT 40SM BKN009 RMK SC7 CU ASOCTD=

CYYC;2005-02-13 21:00;METAR CYYC 132100Z 07007KT 20SM BKN007 OVC015 M02/M02 A2969 RMK SC6SC2 VIRGA SLP095=

CYYC;2005-02-13 21:44;SPECI CYYC 132144Z 03013KT 20SM FEW008 OVC012 RMK SC1SC8=

CYYC;2005-02-13 22:00;METAR CYYC 132200Z 04011KT 20SM FEW008 SCT012 OVC016 M02/M04 A2970 RMK SC1SC3SC5 SLP098=

CYYC;2005-02-13 23:00;METAR CYYC 132300Z 04010KT 6SM -SN FEW008 FEW018 OVC024 M03/M05 A2971 RMK SC2SC1SC6 SLP102=

CYYC;2005-02-14 00:00;METAR CYYC 140000Z 03009KT 1 3/4SM -SN FEW008 BKN012 OVC022 M03/M05 A2972 RMK SC1SC4SC3 SLP114=

CYYC;2005-02-14 00:24;SPECI CYYC 140024Z 05008KT 1SM -SN BKN007 OVC016 RMK SN2SC4SC2 VIS NE 2 / RVR RWY34 6000+FT=

CYYC;2005-02-14 00:31;SPECI CYYC 140031Z 04011KT 5/8SM -SN BKN007 OVC015 RMK SN3SC2SC2 RVR RWY34 6000+FT=

CYYC;2005-02-14 00:51;SPECI CYYC 140051Z 03011KT 2 1/2SM -SN SCT007 SCT018 OVC040 RMK SN1SC2SC1SC4=

CYYC;2005-02-14 01:00;METAR CYYC 140100Z 04011KT 3SM -SN FEW007 SCT018 BKN043 OVC060 M04/M06 A2974 RMK SC2SC2SC4SC1 SLP119=

CYYC;2005-02-14 02:00;METAR CYYC 140200Z 01010KT 5SM -SN FEW007 FEW031 BKN058 OVC120 M05/M06 A2976 RMK SC1SC2SC3AC2 SLP125=

CYYC;2005-02-14 03:00;METAR CYYC 140300Z 03006KT 10SM -SN FEW008 OVC030 M06/M06 A2976 RMK SC1SC7 SLP135=

CYYC;2005-02-14 03:25;SPECI CYYC 140325Z 02007KT 15SM FEW008 OVC030 RMK SC1SC8=

CYYC;2005-02-14 03:46;SPECI CYYC 140346Z 03006KT 15SM -SN FEW008 BKN028 BKN040 RMK SC1SC6SC1=

CYYC;2005-02-14 04:00;METAR CYYC 140400Z 01005KT 10SM -SN FEW007 BKN030 OVC040 M06/M06 A2977 RMK SF1SC7SC1 SLP137=

CYYC;2005-02-14 05:00;METAR CYYC 140500Z 02004KT 8SM -SN FEW008 OVC035 M06/M06 A2978 RMK SC1SC7 SLP141=

CYYC;2005-02-14 06:00;METAR CYYC 140600Z 02004KT 5SM -SN BKN032 OVC050 M06/M06 A2979 RMK SC6SC2 SLP144=

CYYC;2005-02-14 06:15;SPECI CYYC 140615Z 03004KT 4SM -SN FEW008 BKN021 OVC030 RMK SF1SC6SC2=

CYYC;2005-02-14 06:28;SPECI CYYC 140628Z 03004KT 2 1/2SM -SN BKN011 OVC030 RMK SC6SC2=

CYYC;2005-02-14 06:33;SPECI CYYC 140633Z 02005KT 1 3/4SM -SN BKN008 OVC020 RMK SN5SC2SC2=

CYYC;2005-02-14 08:29;SPECI CYYC 140829Z 08007KT 2SM -SN SCT010 OVC025 RMK SC3SC5=

CYYC;2005-02-14 08:50;SPECI CYYC 140850Z 09005KT 3SM -SN BR SCT020 BKN052 RMK SC3SC3=

CYYC;2005-02-14 10:49;SPECI CYYC 141049Z 13004KT 5SM -SN BR FEW006 BKN044 OVC060 RMK SF1SC6SC1=

CYYC;2005-02-14 11:28;SPECI CYYC 141128Z 00000KT 4SM -SN BR BKN007 OVC047 RMK SC6SC2=

CYYC;2005-02-14 12:15;SPECI CYYC 141215Z 20005KT 2 1/2SM -SN BR FEW007 BKN011 OVC025 RMK SF1SC5SC3=

CYYC;2005-02-14 12:44;SPECI CYYC 141244Z 17004KT 3SM -SN BR FEW007 BKN015 OVC050 RMK SF1SC6SC2=

CYYC;2005-02-14 22:19;SPECI CYYC 142219Z 36012KT 30SM -SN FEW038 SCT048 BKN085 BKN240 RMK CU1SC3AS2CI1 SNW VRY LGT=

CYYC;2005-02-15 00:31;SPECI CYYC 150031Z 02009KT 30SM FEW040 SCT078 BKN240 RMK SC1AC2CI1=

CYYC;2005-02-15 02:18;SPECI CYYC 150218Z 35006KT 15SM -SN BKN042 OVC070 RMK SC5AS3=

CYYC;2005-02-15 03:13;SPECI CYYC 150313Z 34007KT 2 1/2SM -SN BKN013 OVC030 RMK SC5SC3=

CYYC;2005-02-15 03:30;SPECI CYYC 150330Z 35011KT 1 1/4SM -SN BKN005 OVC015 RMK SN4SC2SC2=

CYYC;2005-02-15 03:44;SPECI CYYC 150344Z 34012KT 1 1/2SM -SN BKN008 OVC021 RMK SC6SC2=

CYYC;2005-02-15 04:09;SPECI CYYC 150409Z 35008KT 1 3/4SM -SN BKN010 OVC031 RMK SC7SC0=

CYYC;2005-02-15 04:22;SPECI CYYC 150422Z 35014KT 1 3/4SM -SN BKN007 OVC018 RMK SC6SC2=

CYYC;2005-02-15 04:45;SPECI CYYC 150445Z 36016KT 2SM -SN BKN015 OVC040 RMK SC6SC0=

CYYC;2005-02-15 06:41;SPECI CYYC 150641Z 33010KT 15SM SCT052 BKN070 RMK SC4AC2=

CYYC;2005-02-15 09:00;METAR CYYC 150900Z 25005KT 15SM SCT075 M12/M14 A3003 RMK AC2 SLP238=

CYYC;2005-02-15 10:00;METAR CYYC 151000Z 34002KT 15SM FEW080 M13/M15 A3004 RMK AC1 SLP241=

CYYC;2005-02-15 12:00;METAR CYYC 151200Z 24006KT 15SM FEW240 M13/M14 A3007 RMK CI0 SN CVR/=

CYYC;2005-02-15 13:00;METAR CYYC 151300Z 31009KT 15SM FEW068 BKN083 M12/M15 A3009 RMK AC2AC1 SLP266=

CYYC;2005-02-15 15:00;METAR CYYC 151500Z 30006KT 40SM BKN067 BKN240 M11/M14 A3012 RMK AC1CI0 SLP274=

CYYC;2005-02-15 16:00;METAR CYYC 151600Z 26004KT 40SM BKN063 BKN240 M09/M12 A3013 RMK SC4CI1 SLP278=

CYYC;2005-02-15 17:00;METAR CYYC 151700Z 28007KT 40SM FEW060 FEW160 M06/M12 A3014 RMK SC1AC1 SLP279=

CYYC;2005-02-15 18:00;METAR CYYC 151800Z 27006KT 40SM FEW160 M04/M13 A3014 RMK AC0 SLP274=

CYYC;2005-02-15 19:00;METAR CYYC 151900Z 27009KT 40SM FEW160 M03/M14 A3015 RMK AC1 SLP277=

CYYC;2005-02-15 20:00;METAR CYYC 152000Z 22006KT 40SM FEW070 M03/M12 A3014 RMK AC1 SLP273=

CYYC;2005-02-15 21:00;METAR CYYC 152100Z 34009KT 40SM BKN078 BKN120 M02/M13 A3014 RMK AC2AC1 SLP276=

CYYC;2005-02-15 22:00;METAR CYYC 152200Z 32008KT 40SM FEW078 M02/M13 A3014 RMK AC0 SLP274=

CYYC;2005-02-15 23:00;METAR CYYC 152300Z 34007KT 40SM FEW080 BKN250 M03/M12 A3015 RMK AC1CI0 SLP277=

CYYC;2005-02-16 00:00;METAR CYYC 160000Z 27002KT 40SM FEW080 SCT240 M02/M12 A3014 RMK AC1CI1 SLP277=

CYYC;2005-02-16 01:00;METAR CYYC 160100Z 05004KT 40SM FEW082 FEW240 M07/M13 A3014 RMK AC0CI0 SLP278=

CYYC;2005-02-16 03:00;METAR CYYC 160300Z 24004KT 15SM FEW090 M07/M12 A3017 RMK AC1 AC TR SLP291=

CYYC;2005-02-16 04:00;METAR CYYC 160400Z 27002KT 15SM FEW090 M09/M13 A3017 RMK AC1 AC TR SLP292=

CYYC;2005-02-16 05:00;METAR CYYC 160500Z 00000KT 15SM SKC M10/M14 A3018 RMK SLP294=

CYYC;2005-02-16 06:00;METAR CYYC 160600Z 36004KT 15SM SKC M12/M14 A3018 RMK SLP292=

CYYC;2005-02-16 08:00;METAR CYYC 160800Z 20003KT 15SM SKC M11/M14 A3017 RMK SLP289=

CYYC;2005-02-16 09:00;METAR CYYC 160900Z 26008KT 15SM SKC M08/M14 A3015 RMK SLP273=

CYYC;2005-02-16 10:00;METAR CYYC 161000Z 22004KT 15SM SKC M09/M16 A3014 RMK SLP270=

CYYC;2005-02-16 13:00;METAR CYYC 161300Z 00000KT 15SM SKC M08/M16 A3012 RMK SLP266=

CYYC;2005-02-16 14:00;METAR CYYC 161400Z 13002KT 15SM SKC M07/M16 A3010 RMK SLP261=

CYYC;2005-02-16 15:00;METAR CYYC 161500Z 33003KT 40SM FEW140 M08/M16 A3009 RMK AC1 SLP259=

CYYC;2005-02-16 16:00;METAR CYYC 161600Z 34004KT 40SM FEW250 M08/M14 A3009 RMK CI1 SLP257=

CYYC;2005-02-16 17:00;METAR CYYC 161700Z 32009KT 40SM FEW250 M05/M13 A3008 RMK CI0 SLP256=

CYYC;2005-02-16 18:00;METAR CYYC 161800Z 30002KT 40SM BKN250 M01/M13 A3007 RMK CI1 SLP250=

CYYC;2005-02-16 19:00;METAR CYYC 161900Z 33005KT 40SM SCT210 BKN250 M00/M16 A3006 RMK CI1CI1 SLP248=

CYYC;2005-02-16 21:00;METAR CYYC 162100Z 18002KT 40SM FEW210 01/M14 A2999 RMK CI1 SLP212=

CYYC;2005-02-16 22:00;METAR CYYC 162200Z 15003KT 40SM FEW210 01/M11 A2998 RMK CI1 SLP210=

CYYC;2005-02-17 00:00;METAR CYYC 170000Z 08004KT 40SM FEW120 FEW210 M02/M11 A3001 RMK AC1CI1 AC TR SLP228=

CYYC;2005-02-17 01:00;METAR CYYC 170100Z 22006KT 40SM FEW120 FEW210 M04/M11 A3001 RMK AC1CI0 SLP227=

CYYC;2005-02-17 02:00;METAR CYYC 170200Z 23005KT 15SM FEW120 FEW250 M04/M12 A3002 RMK AC1CI1 SLP232=

CYYC;2005-02-17 04:00;METAR CYYC 170400Z 01006KT 15SM SKC M09/M13 A3009 RMK SLP257=

CYYC;2005-02-17 05:00;METAR CYYC 170500Z 34006KT 15SM SKC M09/M13 A3010 RMK SLP259=

CYYC;2005-02-17 06:00;METAR CYYC 170600Z 32006KT 15SM SKC M08/M14 A3010 RMK SLP255=

CYYC;2005-02-17 10:00;METAR CYYC 171000Z 22003KT 15SM FEW090 M08/M12 A3016 RMK AC2 SLP270=

CYYC;2005-02-17 13:00;METAR CYYC 171300Z 31010KT 15SM BKN093 M07/M11 A3020 RMK AC4 SLP288=

CYYC;2005-02-17 14:00;METAR CYYC 171400Z 30005KT 15SM BKN091 M06/M11 A3021 RMK AC5 SLP291=

CYYC;2005-02-17 15:00;METAR CYYC 171500Z 30004KT 40SM BKN069 BKN088 BKN240 M08/M11 A3023 RMK AC2AC1CI1 SLP306=

CYYC;2005-02-17 16:00;METAR CYYC 171600Z 21003KT 40SM BKN045 BKN070 M05/M10 A3024 RMK SC2AC5 VIRGA SLP309=

CYYC;2005-02-17 18:00;METAR CYYC 171800Z 30010KT 40SM BKN083 M01/M09 A3025 RMK AC4 VIRGA SLP305=

CYYC;2005-02-17 21:00;METAR CYYC 172100Z 34010KT 40SM FEW085 01/M09 A3021 RMK AC1 SLP290=

CYYC;2005-02-17 22:00;METAR CYYC 172200Z 36007KT 40SM FEW085 00/M09 A3021 RMK AC0 SLP289=

CYYC;2005-02-17 23:00;METAR CYYC 172300Z 35007KT 40SM FEW090 00/M10 A3020 RMK AC1 SLP287=

CYYC;2005-02-18 00:00;METAR CYYC 180000Z 36006KT 40SM FEW090 M01/M13 A3021 RMK AC1 SLP288=

CYYC;2005-02-18 04:00;METAR CYYC 180400Z 16002KT 15SM BKN064 OVC090 M03/M10 A3020 RMK SC6AC2 SLP293=

CYYC;2005-02-18 05:00;METAR CYYC 180500Z 15003KT 15SM BKN064 OVC090 M04/M09 A3019 RMK SC6AC2 SLP291=

CYYC;2005-02-18 06:00;METAR CYYC 180600Z 18003KT 15SM BKN060 OVC090 M04/M09 A3019 RMK SC6AC2 SLP278=

CYYC;2005-02-18 07:00;METAR CYYC 180700Z 13005KT 15SM BKN060 BKN090 M06/M09 A3016 RMK SC4AC1 SLP271=

CYYC;2005-02-18 10:00;METAR CYYC 181000Z 20002KT 15SM FEW060 M09/M11 A3010 RMK SC1 SLP253=

CYYC;2005-02-18 11:00;METAR CYYC 181100Z 16003KT 15SM SKC M10/M11 A3007 RMK SLP244=

CYYC;2005-02-18 12:00;METAR CYYC 181200Z 16003KT 15SM SKC M11/M12 A3005 RMK SLP240=

CYYC;2005-02-18 13:00;METAR CYYC 181300Z 16005KT 15SM SKC M11/M12 A3002 RMK SLP230=

CYYC;2005-02-18 14:00;METAR CYYC 181400Z 15006KT 20SM FEW250 M11/M13 A2999 RMK CI1 CI TR SLP220=

CYYC;2005-02-18 16:00;METAR CYYC 181600Z 19004KT 40SM SCT180 BKN260 M09/M11 A2994 RMK AC2CI1 SLP206=

CYYC;2005-02-18 17:00;METAR CYYC 181700Z 17008KT 40SM BKN180 BKN260 M07/M09 A2991 RMK AC2CI0 SLP197=

CYYC;2005-02-18 19:00;METAR CYYC 181900Z 14011KT 40SM SCT150 BKN180 BKN240 M06/M09 A2985 RMK AC3AC2CI2 SLP170=

CYYC;2005-02-18 20:00;METAR CYYC 182000Z 17011KT 40SM FEW150 BKN180 BKN220 M05/M08 A2981 RMK AC2AC5CI1 SLP158=

CYYC;2005-02-18 21:00;METAR CYYC 182100Z 16009KT 40SM BKN150 BKN180 M04/M08 A2978 RMK AC5AC2 SLP148=

CYYC;2005-02-18 22:00;METAR CYYC 182200Z 14012KT 40SM FEW014 BKN150 OVC180 M03/M06 A2975 RMK SC1AC4AC2 SLP139=

CYYC;2005-02-19 00:00;METAR CYYC 190000Z 11008KT 40SM BKN150 BKN180 BKN200 M03/M06 A2973 RMK AC5AC1CS1 SLP132=

CYYC;2005-02-19 01:00;METAR CYYC 190100Z 06004KT 40SM FEW150 SCT180 BKN210 M06/M08 A2973 RMK AC1AC2CI0 SLP133=

CYYC;2005-02-19 03:00;METAR CYYC 190300Z 04007KT 15SM FEW010 BKN170 M09/M09 A2973 RMK SC1AC3 SLP139=

CYYC;2005-02-19 03:26;SPECI CYYC 190326Z 03008KT 15SM FEW007 BKN170 RMK SC1AC2=

CYYC;2005-02-19 04:00;METAR CYYC 190400Z 35012KT 5SM BR SCT005 OVC170 M11/M12 A2975 RMK ST4AC0 VIS SE 2 SLP144=

CYYC;2005-02-19 04:05;SPECI CYYC 190405Z 35011KT 2SM BR BKN004 OVC170 RMK FG5ST2AC0=

CYYC;2005-02-19 04:09;SPECI CYYC 190409Z 35011KT 1 1/4SM BR BKN003 OVC170 RMK FG6ST1AC0=

CYYC;2005-02-19 04:15;SPECI CYYC 190415Z 36010KT 1SM BR BKN002 OVC170 RMK FG6ST1AC0 RVR RWY34 6000 FT=

CYYC;2005-02-19 04:24;SPECI CYYC 190424Z 36010KT 3/4SM BR BKN003 OVC170 RMK FG6ST1AC0 RVR RWY34 5500 FT=

CYYC;2005-02-19 04:30;SPECI CYYC 190430Z 01011KT 1/2SM FZFG OVC002 RMK FG7ST0 RVR RWY34 3000 FT=

CYYC;2005-02-19 04:47;SPECI CYYC 190447Z 36009KT 1SM BR OVC002 RMK FG7ST0 RVR RWY34 4000 FT=

CYYC;2005-02-19 05:15;SPECI CYYC 190515Z 36010KT 2SM BR OVC003 RMK ST7=

CYYC;2005-02-19 05:27;SPECI CYYC 190527Z 35008KT 1 1/4SM BR OVC002 RMK ST7=

CYYC;2005-02-19 05:41;SPECI CYYC 190541Z 35009KT 1/2SM FZFG OVC002 RMK ST7 RVR RWY34 3500 FT=

CYYC;2005-02-19 05:51;SPECI CYYC 190551Z 36009KT 1SM BR OVC002 RMK ST7 RVR RWY34 5000 FT=

CYYC;2005-02-19 06:13;SPECI CYYC 190613Z 01007KT 2SM BR OVC002 RMK ST7=

CYYC;2005-02-19 06:39;SPECI CYYC 190639Z 35009KT 2SM BR OVC003 RMK ST8=

CYYC;2005-02-19 07:13;SPECI CYYC 190713Z 36007KT 2 1/2SM BR OVC003 RMK ST8 CIG VRBL 2-4=

CYYC;2005-02-19 07:36;SPECI CYYC 190736Z 35010KT 3SM BR BKN004 OVC011 RMK ST6SC2=

CYYC;2005-02-19 08:21;SPECI CYYC 190821Z 36007KT 4SM -SN BR BKN006 OVC011 RMK ST5SC3 VIS SE 2=

CYYC;2005-02-19 08:41;SPECI CYYC 190841Z 36006KT 4SM -SN BR SCT005 OVC012 RMK ST3SC5=

CYYC;2005-02-19 10:00;METAR CYYC 191000Z 35008KT 3SM -SN BR BKN005 OVC010 M09/M10 A2976 RMK SC6SC2 SLP142=

CYYC;2005-02-19 13:20;SPECI CYYC 191320Z 35010KT 3SM -SN BR OVC006 RMK SC8=

CYYC;2005-02-19 15:00;METAR CYYC 191500Z 36011KT 2 1/2SM -SN OVC010 M10/M11 A2978 RMK SC8 SLP155=

CYYC;2005-02-19 15:31;SPECI CYYC 191531Z 36012KT 4SM -SN SCT010 OVC018 RMK SC2SC6=

CYYC;2005-02-19 16:00;METAR CYYC 191600Z 36014KT 4SM -SN FEW010 OVC020 M11/M11 A2978 RMK SC2SC6 SLP157=

CYYC;2005-02-19 17:00;METAR CYYC 191700Z 35014KT 3SM -SN FEW020 OVC032 M11/M12 A2979 RMK SC2SC6 SLP158=

CYYC;2005-02-19 17:27;SPECI CYYC 191727Z 35013KT 2 1/2SM -SN FEW020 OVC032 RMK SC2SC6=

CYYC;2005-02-19 18:00;METAR CYYC 191800Z 34016KT 2 1/2SM -SN BKN024 OVC032 M10/M11 A2979 RMK SC6SC2 /S01/ SLP163=

CYYC;2005-02-19 19:00;METAR CYYC 191900Z 34016G24KT 2SM -SN FEW009 OVC025 M10/M11 A2978 RMK SC1SC8 SLP160=

CYYC;2005-02-19 20:00;METAR CYYC 192000Z 36017G25KT 3SM -SN DRSN SCT012 OVC061 M09/M11 A2977 RMK SC2SC3 SLP156=

CYYC;2005-02-19 21:00;METAR CYYC 192100Z 36016KT 5SM -SN OVC013 OVC064 M09/M12 A2978 RMK SC3SC1 PCPN VRY LGT SLP158=

CYYC;2005-02-19 22:00;METAR CYYC 192200Z 36015KT 4SM -SN BR BKN011 OVC024 M10/M11 A2979 RMK SC6SC2 SLP161=

CYYC;2005-02-19 22:47;SPECI CYYC 192247Z 36015KT 2SM -SN BR BKN024 OVC036 RMK SC6SC2=

CYYC;2005-02-20 00:00;METAR CYYC 200000Z 35015KT 4SM -SN FEW021 OVC042 M09/M11 A2982 RMK SC1SC8 SLP168=

CYYC;2005-02-20 00:27;SPECI CYYC 200027Z 35016KT 1 1/2SM -SN VV020 RMK SN8=

CYYC;2005-02-20 01:10;SPECI CYYC 200110Z 35015KT 1 1/4SM -SN VV008 RMK SN8=

CYYC;2005-02-20 01:23;SPECI CYYC 200123Z 35014KT 2 1/2SM -SN OVC040 RMK SC6=

CYYC;2005-02-20 02:00;METAR CYYC 200200Z 34016KT 2 1/2SM -SN SCT040 OVC050 M10/M11 A2985 RMK SC2SC5 SLP180=

CYYC;2005-02-20 02:47;SPECI CYYC 200247Z 35013KT 3SM -SN SCT040 OVC055 RMK SC2SC4=

CYYC;2005-02-20 03:00;METAR CYYC 200300Z 35013KT 4SM -SN SCT031 OVC048 M10/M11 A2987 RMK SC3SC3 /SO1/ SLP190=

CYYC;2005-02-20 06:28;SPECI CYYC 200628Z 31006KT 15SM FEW009 RMK SC2=

CYYC;2005-02-20 09:00;METAR CYYC 200900Z 32004KT 15SM FEW240 M15/M16 A2987 RMK CI0 SLP197=

CYYC;2005-02-20 10:00;METAR CYYC 201000Z 00000KT 15SM FEW015 FEW240 M16/M17 A2986 RMK ST0CI0 SLP194=

CYYC;2005-02-20 12:00;METAR CYYC 201200Z 22002KT 15SM FEW240 M16/M17 A2985 RMK CI0 SN CVR/=

CYYC;2005-02-20 13:00;METAR CYYC 201300Z 21002KT 15SM FEW240 M16/M17 A2985 RMK CI0 SLP189=

CYYC;2005-02-20 14:00;METAR CYYC 201400Z 21004KT 15SM FEW240 M17/M18 A2983 RMK CI0 SLP185=

CYYC;2005-02-20 15:00;METAR CYYC 201500Z 20005KT 40SM FEW250 M17/M17 A2983 RMK CI1 SLP184=

CYYC;2005-02-20 16:00;METAR CYYC 201600Z 20006KT 40SM SKC M13/M15 A2983 RMK SLP184=

CYYC;2005-02-20 17:00;METAR CYYC 201700Z 20006KT 40SM SKC M11/M13 A2983 RMK SLP183=

CYYC;2005-02-20 18:00;METAR CYYC 201800Z 22007KT 40SM FEW250 M09/M13 A2982 RMK CI1 SLP173=

CYYC;2005-02-20 19:00;METAR CYYC 201900Z 20008KT 40SM FEW250 M05/M12 A2981 RMK CI0 SLP170=

CYYC;2005-02-20 20:00;METAR CYYC 202000Z 21007KT 40SM BKN260 M04/M11 A2978 RMK CI0 SLP162=

CYYC;2005-02-20 21:00;METAR CYYC 202100Z 19006KT 40SM BKN260 M02/M10 A2977 RMK CI1 SLP149=

CYYC;2005-02-20 22:00;METAR CYYC 202200Z 18004KT 40SM BKN260 M01/M10 A2976 RMK CI1 SLP148=

CYYC;2005-02-20 23:00;METAR CYYC 202300Z 14006KT 40SM BKN260 M01/M09 A2976 RMK CI2 SLP148=

CYYC;2005-02-21 00:00;METAR CYYC 210000Z 15004KT 40SM SCT140 BKN250 M02/M09 A2977 RMK AC1CI1 SLP151=

CYYC;2005-02-21 01:00;METAR CYYC 210100Z 10002KT 40SM BKN110 OVC250 M05/M10 A2978 RMK AC3CI1 SLP154=

CYYC;2005-02-21 02:00;METAR CYYC 210200Z 35005KT 15SM BKN110 BKN250 M05/M09 A2979 RMK AC7CI1 VIRGA SLP158=

CYYC;2005-02-21 03:00;METAR CYYC 210300Z 33005KT 15SM SCT110 BKN240 M07/M10 A2981 RMK AC2CI0 SLP173=

CYYC;2005-02-21 04:00;METAR CYYC 210400Z 35004KT 15SM SCT110 BKN240 M08/M13 A2984 RMK AC2CI1 SLP181=

CYYC;2005-02-21 05:00;METAR CYYC 210500Z 35007KT 15SM BKN085 OVC140 M07/M13 A2986 RMK AC6AC1 SLP190=

CYYC;2005-02-21 06:00;METAR CYYC 210600Z 33007KT 15SM FEW120 SCT240 M09/M14 A2989 RMK AC1CI0 SLP193=

CYYC;2005-02-21 10:00;METAR CYYC 211000Z 22002KT 15SM SKC M11/M14 A2992 RMK SLP197=

CYYC;2005-02-21 11:00;METAR CYYC 211100Z 00000KT 15SM FEW100 FEW240 M13/M16 A2992 RMK AC1CI1 SLP197=

CYYC;2005-02-21 12:00;METAR CYYC 211200Z 20002KT 15SM FEW200 M12/M15 A2993 RMK CI0 SN CVR/=

CYYC;2005-02-21 13:00;METAR CYYC 211300Z 18002KT 15SM FEW090 FEW200 M13/M15 A2994 RMK AC1CI0 SLP204=

CYYC;2005-02-21 14:00;METAR CYYC 211400Z 00000KT 15SM BKN082 BKN100 M13/M15 A2995 RMK AC5AC1 SLP209=

CYYC;2005-02-21 16:00;METAR CYYC 211600Z 00000KT 40SM BKN096 M10/M13 A2998 RMK AC6 SLP225=

CYYC;2005-02-21 18:00;METAR CYYC 211800Z 34002KT 40SM BKN097 M03/M10 A3002 RMK AC6 VIRGA SLP230=

CYYC;2005-02-21 19:00;METAR CYYC 211900Z 34004KT 40SM BKN083 M02/M11 A3004 RMK AC2 VIRGA SLP236=

CYYC;2005-02-23 00:00;METAR CYYC 230000Z 00000KT 40SM BKN200 BKN250 03/M12 A3014 RMK CS2CI0 SLP259=

CYYC;2005-02-23 01:00;METAR CYYC 230100Z 19006KT 40SM SCT190 BKN250 M00/M09 A3014 RMK AC0CI2 SLP259=

CYYC;2005-02-23 02:00;METAR CYYC 230200Z 21005KT 15SM OVC230 M02/M10 A3014 RMK CI1 SLP260=

CYYC;2005-02-23 04:00;METAR CYYC 230400Z 22005KT 15SM FEW250 M04/M10 A3015 RMK CI0 SLP270=

CYYC;2005-02-23 05:00;METAR CYYC 230500Z 21006KT 15SM SCT250 M04/M11 A3016 RMK CI2 SLP272=

CYYC;2005-02-23 06:00;METAR CYYC 230600Z 21004KT 15SM SCT220 M04/M12 A3016 RMK CI1 SLP261=

CYYC;2005-02-23 07:00;METAR CYYC 230700Z 22006KT 15SM SCT077 BKN220 M03/M10 A3015 RMK AC3CI1 SLP259=

CYYC;2005-02-23 08:00;METAR CYYC 230800Z 21006KT 15SM FEW080 SCT240 M05/M11 A3014 RMK AC1CI1 SLP254=

CYYC;2005-02-23 10:00;METAR CYYC 231000Z 21003KT 15SM FEW240 M05/M11 A3013 RMK CI0 SLP256=

CYYC;2005-02-23 11:00;METAR CYYC 231100Z 21003KT 15SM FEW240 M05/M11 A3011 RMK CI0 SLP251=

CYYC;2005-02-23 13:00;METAR CYYC 231300Z 32006KT 15SM FEW240 M02/M10 A3013 RMK CI1 CI TR SLP248=

CYYC;2005-02-23 14:00;METAR CYYC 231400Z 19002KT 40SM FEW240 M05/M11 A3013 RMK CI1 CI TR SLP248=

CYYC;2005-02-23 15:00;METAR CYYC 231500Z 33003KT 40SM FEW080 FEW120 BKN240 M03/M10 A3014 RMK AC1AC1CI1 SLP261=

CYYC;2005-02-23 16:00;METAR CYYC 231600Z 25002KT 40SM FEW080 FEW120 OVC250 M01/M09 A3014 RMK AC1AC1CI1 SLP261=

CYYC;2005-02-23 17:00;METAR CYYC 231700Z 34002KT 40SM FEW080 SCT120 BKN250 03/M08 A3013 RMK AC1AC2CI1 SLP260=

CYYC;2005-02-23 18:00;METAR CYYC 231800Z 15003KT 40SM SCT110 SCT180 BKN260 05/M06 A3013 RMK AC2AC0CI1 SLP249=

CYYC;2005-02-23 19:00;METAR CYYC 231900Z 19006KT 40SM FEW110 SCT180 BKN260 07/M06 A3012 RMK AC1AC2CI0 SLP247=

CYYC;2005-02-23 20:00;METAR CYYC 232000Z 25005KT 40SM FEW120 FEW180 BKN240 08/M07 A3012 RMK AC1AC2CI0 SLP246=

CYYC;2005-02-24 00:00;METAR CYYC 240000Z 19006KT 30SM SCT160 BKN220 08/M06 A3008 RMK AC2CI0 SLP228=

CYYC;2005-02-24 01:00;METAR CYYC 240100Z 18003KT 40SM SCT160 BKN240 06/M06 A3006 RMK AC2CI0 CC ASOCTD SLP221=

CYYC;2005-02-24 03:00;METAR CYYC 240300Z 20004KT 15SM FEW220 BKN250 03/M06 A3006 RMK CS1CI2=

CYYC;2005-02-24 06:00;METAR CYYC 240600Z 28002KT 15SM SCT240 04/M12 A3006 RMK CI1 HALO/CS ASOCTD SLP212=

CYYC;2005-02-24 10:00;METAR CYYC 241000Z 30008KT 15SM FEW240 03/M13 A3004 RMK CI0 SLP202=

CYYC;2005-02-24 11:00;METAR CYYC 241100Z 01002KT 15SM FEW240 01/M13 A3004 RMK CI0 SLP201=

CYYC;2005-02-24 13:00;METAR CYYC 241300Z 31004KT 15SM FEW230 01/M14 A3003 RMK CI1 SLP205=

CYYC;2005-02-24 14:00;METAR CYYC 241400Z 04002KT 40SM FEW240 M03/M12 A3002 RMK CI0 SLP204=

CYYC;2005-02-24 15:00;METAR CYYC 241500Z 21003KT 40SM FEW120 SCT240 M02/M12 A3002 RMK AC1CI0 SLP209=

CYYC;2005-02-24 16:00;METAR CYYC 241600Z 00000KT 40SM FEW120 FEW160 SCT220 BKN270 01/M09 A3003 RMK AC1AC1CI0CI0 SLP213=

CYYC;2005-02-24 17:00;METAR CYYC 241700Z 09002KT 40SM FEW190 BKN230 04/M09 A3003 RMK AC2CI1 SLP213=

CYYC;2005-02-24 18:00;METAR CYYC 241800Z 00000KT 40SM FEW190 BKN230 07/M09 A3002 RMK AC1CS2 SLP197=

CYYC;2005-02-24 22:00;METAR CYYC 242200Z 15005KT 30SM FEW120 FEW240 FEW260 12/M09 A2997 RMK AC1CI0CI0 SLP175=

CYYC;2005-02-24 23:00;METAR CYYC 242300Z 16007KT 30SM FEW110 FEW240 11/M12 A2997 RMK AC1CI0 SLP173=

CYYC;2005-02-25 00:00;METAR CYYC 250000Z 16006KT 30SM FEW090 FEW240 08/M08 A2995 RMK AC1CI0 SLP178=

CYYC;2005-02-25 02:00;METAR CYYC 250200Z 16003KT 15SM FEW090 FEW230 05/M05 A2994 RMK AC1CI1 SLP174=

CYYC;2005-02-25 03:00;METAR CYYC 250300Z 13005KT 15SM FEW180 FEW240 00/M05 A2993 RMK AC1CI1 AC TR SLP184=

CYYC;2005-02-25 04:00;METAR CYYC 250400Z 24003KT 15SM FEW190 FEW240 03/M04 A2992 RMK AC1CI0 AC TR SLP182=

CYYC;2005-02-25 05:00;METAR CYYC 250500Z 00000KT 15SM FEW190 FEW240 00/M05 A2993 RMK AC1CI0 AC TR SLP184=

CYYC;2005-02-25 06:00;METAR CYYC 250600Z 00000KT 15SM FEW240 M03/M05 A2993 RMK CI0 SLP176=

CYYC;2005-02-25 09:00;METAR CYYC 250900Z 10003KT 15SM FEW240 01/M08 A2992 RMK CI0 SLP161=

CYYC;2005-02-25 10:00;METAR CYYC 251000Z 03002KT 15SM FEW240 M01/M10 A2992 RMK CI0 SLP160=

CYYC;2005-02-25 11:00;METAR CYYC 251100Z 02007KT 15SM FEW240 M02/M09 A2992 RMK CI1 SLP161=

CYYC;2005-02-25 12:00;METAR CYYC 251200Z 01003KT 15SM FEW240 M04/M09 A2992 RMK CI1 SLP173=

CYYC;2005-02-25 13:00;METAR CYYC 251300Z 34009KT 15SM FEW240 M01/M09 A2993 RMK CI1 SLP176=

CYYC;2005-02-25 14:00;METAR CYYC 251400Z 00000KT 40SM FEW240 M01/M11 A2993 RMK CI1 CI TR SLP174=

CYYC;2005-02-25 15:00;METAR CYYC 251500Z 00000KT 40SM FEW140 FEW240 M01/M11 A2993 RMK AC1CI0 SLP182=

CYYC;2005-02-25 16:00;METAR CYYC 251600Z 18003KT 40SM FEW130 FEW240 02/M07 A2993 RMK AC1CI0 SLP182=

CYYC;2005-02-25 17:00;METAR CYYC 251700Z 00000KT 40SM FEW130 FEW240 06/M08 A2993 RMK AC1CI1 SLP182=

CYYC;2005-02-25 18:00;METAR CYYC 251800Z 16002KT 40SM FEW150 08/M06 A2992 RMK AC1 SLP171=

CYYC;2005-02-25 19:00;METAR CYYC 251900Z 36004KT 40SM FEW150 FEW170 FEW220 10/M08 A2991 RMK AC1AC1CC1 SLP168=

CYYC;2005-02-25 22:00;METAR CYYC 252200Z 17006KT 40SM FEW060 SCT160 BKN240 09/M06 A2987 RMK CU1AC2CI1 SLP144=

CYYC;2005-02-26 01:00;METAR CYYC 260100Z 18003KT 40SM FEW070 FEW140 BKN220 07/M10 A2986 RMK AC1AC2CI0 CC ASOCTD SLP148=

CYYC;2005-02-26 03:00;METAR CYYC 260300Z 24008KT 15SM FEW220 04/M08 A2986 RMK CI1 CI TR SLP153=

CYYC;2005-02-26 04:00;METAR CYYC 260400Z 30009KT 15SM FEW220 04/M07 A2986 RMK CI1 CI TR SLP152=

CYYC;2005-02-26 11:00;METAR CYYC 261100Z 32006KT 15SM FEW095 FEW240 M03/M05 A2999 RMK AC1CI1 AC TR SLP184=

CYYC;2005-02-26 12:00;METAR CYYC 261200Z 35004KT 15SM FEW240 M02/M05 A3000 RMK CI1 SLP196=

CYYC;2005-02-26 15:00;METAR CYYC 261500Z 29005KT 40SM FEW040 OVC051 M00/M03 A3005 RMK SC1SC7 SLP216=

CYYC;2005-02-26 16:00;METAR CYYC 261600Z 25002KT 40SM BKN052 01/M03 A3006 RMK SC7 SLP220=

CYYC;2005-02-26 18:00;METAR CYYC 261800Z 32005KT 40SM OVC050 04/M04 A3008 RMK SC7 SLP226=

CYYC;2005-02-26 19:00;METAR CYYC 261900Z 36006KT 40SM FEW040 BKN049 BKN140 04/M06 A3008 RMK CU1SC5AC1 SLP227=

CYYC;2005-02-26 21:00;METAR CYYC 262100Z 06006KT 40SM FEW040 FEW180 BKN230 06/M04 A3007 RMK CU1AC1CI2 SLP223=

CYYC;2005-02-26 22:00;METAR CYYC 262200Z 07005KT 40SM FEW040 SCT180 BKN250 05/M05 A3007 RMK CU1AC2CI1 SLP222=

CYYC;2005-02-26 23:00;METAR CYYC 262300Z 07003KT 40SM FEW040 FEW140 FEW250 05/M05 A3007 RMK CU1AC1CI1 SLP222=

CYYC;2005-02-27 00:00;METAR CYYC 270000Z 11005KT 40SM FEW140 BKN250 05/M05 A3008 RMK AC1CI1 SLP229=

CYYC;2005-02-27 01:00;METAR CYYC 270100Z 15005KT 40SM FEW180 SCT250 02/M05 A3008 RMK AC1CI1 SLP229=

CYYC;2005-02-27 02:00;METAR CYYC 270200Z 12006KT 20SM FEW250 01/M05 A3008 RMK CI0 SLP229=

CYYC;2005-02-27 03:50;SPECI CYYC 270350Z 14005KT 15SM FEW006 RMK ST1=

CYYC;2005-02-27 04:00;METAR CYYC 270400Z 15003KT 15SM FEW006 M02/M05 A3009 RMK ST1 SLP237=

CYYC;2005-02-27 06:00;METAR CYYC 270600Z 17004KT 15SM FEW250 M01/M05 A3010 RMK CI0 SLP236=

CYYC;2005-02-27 10:00;METAR CYYC 271000Z 17006KT 15SM FEW250 M03/M06 A3007 RMK CI0 SLP227=

CYYC;2005-02-27 12:00;METAR CYYC 271200Z 21002KT 15SM SKC M05/M06 A3006 RMK SLP229=

CYYC;2005-02-27 13:00;METAR CYYC 271300Z 30002KT 15SM FEW250 M06/M08 A3006 RMK CI0 SLP229=

CYYC;2005-02-27 14:00;METAR CYYC 271400Z 00000KT 30SM FEW180 SCT250 M06/M07 A3006 RMK AC1CI0 FROIN SLP227=

CYYC;2005-02-27 15:00;METAR CYYC 271500Z 00000KT 40SM FEW160 SCT250 M06/M07 A3007 RMK AC1CI0 FROIN SLP239=

CYYC;2005-02-27 16:00;METAR CYYC 271600Z 02002KT 40SM FEW130 BKN250 M03/M06 A3008 RMK AC1CI0 SLP243=

CYYC;2005-02-27 19:00;METAR CYYC 271900Z 17006KT 40SM FEW180 SCT250 04/M03 A3007 RMK AC1CI1 SLP229=

CYYC;2005-02-27 22:00;METAR CYYC 272200Z 16008KT 40SM FEW200 BKN250 05/M02 A3004 RMK CS1CI0 SLP216=

CYYC;2005-02-27 23:00;METAR CYYC 272300Z 16009KT 40SM BKN250 06/M01 A3004 RMK CI1 SLP215=

CYYC;2005-02-28 00:00;METAR CYYC 280000Z 16010KT 40SM BKN250 05/M01 A3004 RMK CI2 SLP218=

CYYC;2005-02-28 01:00;METAR CYYC 280100Z 16008KT 40SM OVC250 04/M01 A3003 RMK CI2 CONTRAILS SLP217=

CYYC;2005-02-28 03:00;METAR CYYC 280300Z 16007KT 15SM SKC 01/M03 A3003 RMK SLP223=

CYYC;2005-02-28 04:00;METAR CYYC 280400Z 16005KT 15SM SKC M00/M04 A3002 RMK SLP221=

CYYC;2005-02-28 05:00;METAR CYYC 280500Z 17009KT 15SM SKC 01/M05 A3002 RMK SLP221=

CYYC;2005-02-28 06:00;METAR CYYC 280600Z 16007KT 15SM FEW260 M00/M05 A3001 RMK CI0 SLP208=

CYYC;2005-02-28 09:00;METAR CYYC 280900Z 21004KT 15SM SKC M03/M06 A2999 RMK SLP198=

CYYC;2005-02-28 10:00;METAR CYYC 281000Z 18006KT 15SM SKC M03/M06 A2996 RMK SLP191=

CYYC;2005-02-28 11:00;METAR CYYC 281100Z 22004KT 15SM SKC M05/M06 A2995 RMK FROIN SLP187=

CYYC;2005-02-28 12:00;METAR CYYC 281200Z 20003KT 15SM SKC M05/M07 A2994 RMK FROIN SLP184=

CYYC;2005-02-28 13:00;METAR CYYC 281300Z 19004KT 15SM SKC M04/M08 A2993 RMK FROIN SLP182=

CYYC;2005-02-28 14:00;METAR CYYC 281400Z 16003KT 40SM FEW250 M04/M08 A2992 RMK CI1 SLP179=

CYYC;2005-02-28 15:00;METAR CYYC 281500Z 15002KT 40SM FEW250 M04/M08 A2992 RMK CI1 CI TR SLP184=

CYYC;2005-02-28 16:00;METAR CYYC 281600Z 00000KT 40SM FEW250 00/M06 A2992 RMK CI1 CI TR SLP182=

CYYC;2005-02-28 19:00;METAR CYYC 281900Z 14002KT 40SM FEW250 09/M06 A2989 RMK CI1 CI TR SLP160=

CYYC;2005-02-28 20:00;METAR CYYC 282000Z 11002KT 40SM FEW250 10/M07 A2987 RMK CI1 CI TR SLP153=

CYYC;2005-02-28 21:00;METAR CYYC 282100Z 07005KT 40SM FEW180 10/M07 A2985 RMK AC1 AC TR SLP142=

CYYC;2005-02-28 22:00;METAR CYYC 282200Z 10006KT 40SM FEW180 10/M02 A2984 RMK AC1 AC TR SLP140=

CYYC;2005-02-28 23:00;METAR CYYC 282300Z 11005KT 40SM FEW100 09/M02 A2984 RMK AC1 AC TR SLP139=

CYYC;2005-03-01 01:00;METAR CYYC 010100Z 13006KT 40SM FEW250 04/M02 A2983 RMK CI1 CI TR SLP142=

CYYC;2005-03-01 03:00;METAR CYYC 010300Z 00000KT 15SM FEW250 01/M02 A2982 RMK CI1 SLP146=

CYYC;2005-03-01 04:00;METAR CYYC 010400Z 00000KT 15SM FEW250 01/M02 A2982 RMK CI1 SLP146=

CYYC;2005-03-01 06:00;METAR CYYC 010600Z 00000KT 15SM BKN260 M03/M05 A2980 RMK CI2 SLP131=

CYYC;2005-03-01 09:00;METAR CYYC 010900Z 19002KT 15SM BKN250 M03/M05 A2978 RMK CI0 FROIN SLP119=

CYYC;2005-03-01 10:00;METAR CYYC 011000Z 31003KT 15SM SCT190 BKN250 M02/M07 A2978 RMK AC1CI0 SLP119=

CYYC;2005-03-01 14:00;METAR CYYC 011400Z 03003KT 40SM FEW090 FEW180 FEW250 02/M06 A2980 RMK AC1AC1CI0 LWR AC TR SLP119=

CYYC;2005-03-01 16:00;METAR CYYC 011600Z 28017G22KT 40SM FEW080 FEW170 SCT240 07/M05 A2981 RMK AC1AC1CI0 SLP133=

CYYC;2005-03-01 17:00;METAR CYYC 011700Z 28016G21KT 40SM FEW060 FEW100 FEW170 SCT240 09/M06 A2982 RMK CU1AC1AC1CI0 TR CU / LWR AC SLP136=

CYYC;2005-03-01 18:00;METAR CYYC 011800Z 27020G27KT 40SM FEW064 FEW160 FEW240 10/M06 A2983 RMK CU1AC1CI0 SLP136=

CYYC;2005-03-01 19:00;METAR CYYC 011900Z 28014G19KT 40SM FEW064 FEW120 FEW180 BKN240 11/M06 A2983 RMK CU1AC1AC1CI0 SLP136=

CYYC;2005-03-01 20:00;METAR CYYC 012000Z 29012KT 40SM FEW068 FEW140 FEW240 11/M07 A2982 RMK CU1AC1CI0 SLP133=

CYYC;2005-03-02 00:00;METAR CYYC 020000Z 09010KT 30SM FEW050 FEW120 BKN240 08/M04 A2982 RMK CU1AC2CI2 SLP126=

CYYC;2005-03-02 03:00;METAR CYYC 020300Z 18005KT 15SM FEW230 03/M05 A2983 RMK CI1 CI TR SLP136=

CYYC;2005-03-02 04:00;METAR CYYC 020400Z 23003KT 15SM SKC 04/M05 A2983 RMK SLP136=

CYYC;2005-03-02 06:00;METAR CYYC 020600Z 23002KT 15SM SKC 01/M05 A2982 RMK SLP128=

CYYC;2005-03-02 07:00;METAR CYYC 020700Z 22002KT 15SM SKC 02/M06 A2983 RMK SLP129=

CYYC;2005-03-02 09:00;METAR CYYC 020900Z 18002KT 15SM SKC 01/M06 A2982 RMK SLP123=

CYYC;2005-03-02 10:00;METAR CYYC 021000Z 32003KT 15SM SKC 03/M06 A2981 RMK SLP121=

CYYC;2005-03-02 11:00;METAR CYYC 021100Z 00000KT 15SM SKC M02/M07 A2981 RMK SLP120=

CYYC;2005-03-02 12:00;METAR CYYC 021200Z 00000KT 15SM FEW250 M01/M06 A2982 RMK CI0 SLP131=

CYYC;2005-03-02 13:00;METAR CYYC 021300Z 19006KT 15SM FEW250 M02/M06 A2982 RMK CI0 SLP132=

CYYC;2005-03-02 14:00;METAR CYYC 021400Z 22006KT 40SM FEW250 M02/M06 A2982 RMK CI0 SLP133=

CYYC;2005-03-02 15:00;METAR CYYC 021500Z 34003KT 40SM FEW180 BKN250 02/M05 A2983 RMK AC1CI0 SLP137=

CYYC;2005-03-02 16:00;METAR CYYC 021600Z 09002KT 40SM FEW160 BKN250 03/M02 A2983 RMK AC1CI0 SLP138=

CYYC;2005-03-02 17:00;METAR CYYC 021700Z 00000KT 40SM FEW160 SCT250 07/M02 A2984 RMK AC1CI0 SLP140=

CYYC;2005-03-02 19:00;METAR CYYC 021900Z 23005KT 40SM FEW080 FEW160 SCT250 11/M05 A2984 RMK AC1AC1CI0 SLP135=

CYYC;2005-03-02 21:00;METAR CYYC 022100Z 31005KT 40SM FEW080 FEW140 FEW210 BKN250 12/M04 A2983 RMK AC1AC1CI0CI0 SLP127=

CYYC;2005-03-02 22:00;METAR CYYC 022200Z 27006KT 40SM FEW080 FEW140 FEW190 BKN250 12/M06 A2983 RMK AC1AC1AC0CI0 SLP128=

CYYC;2005-03-03 00:00;METAR CYYC 030000Z 27012KT 40SM FEW080 FEW140 BKN250 10/M07 A2984 RMK AC1AC1CI2 SLP137=

CYYC;2005-03-03 03:00;METAR CYYC 030300Z 28012G18KT 15SM FEW250 06/M07 A2988 RMK CI0 SLP151=

CYYC;2005-03-03 04:00;METAR CYYC 030400Z 28008KT 15SM FEW250 05/M07 A2989 RMK CI0 SLP156=

CYYC;2005-03-03 08:00;METAR CYYC 030800Z 32008KT 15SM SKC 01/M06 A2994 RMK SLP166=

CYYC;2005-03-03 09:00;METAR CYYC 030900Z 32008KT 15SM FEW250 02/M06 A2995 RMK CI1 SLP169=

CYYC;2005-03-03 10:00;METAR CYYC 031000Z 32008KT 15SM FEW250 01/M07 A2996 RMK CI0 SLP172=

CYYC;2005-03-03 11:00;METAR CYYC 031100Z 31008KT 15SM FEW250 02/M07 A2997 RMK CI0 SLP175=

CYYC;2005-03-03 12:00;METAR CYYC 031200Z 32007KT 15SM FEW250 01/M06 A2998 RMK CI0 SLP184=

CYYC;2005-03-03 14:00;METAR CYYC 031400Z 26002KT 40SM FEW140 SCT250 03/M07 A3000 RMK AC1CI1 AC TR SLP188=

CYYC;2005-03-03 15:00;METAR CYYC 031500Z 00000KT 40SM FEW140 BKN250 03/M07 A3000 RMK AC1CI1 SLP191=

CYYC;2005-03-03 16:00;METAR CYYC 031600Z 26002KT 40SM BKN250 07/M07 A3001 RMK CI1 SLP194=

CYYC;2005-03-03 17:00;METAR CYYC 031700Z 25007KT 40SM BKN250 08/M07 A3001 RMK CI1 SLP193=

CYYC;2005-03-03 18:00;METAR CYYC 031800Z 26007KT 40SM BKN250 10/M07 A3002 RMK CI1 SLP192=

CYYC;2005-03-03 19:00;METAR CYYC 031900Z 23004KT 40SM FEW160 BKN240 10/M08 A3001 RMK AC0CI2 SLP190=

CYYC;2005-03-03 20:00;METAR CYYC 032000Z 22006KT 40SM FEW160 BKN240 11/M07 A3000 RMK AC1CI2 SLP187=

CYYC;2005-03-03 22:00;METAR CYYC 032200Z 18004KT 40SM FEW075 FEW180 BKN240 11/M08 A2998 RMK AC1AC1CI2 CS ASOCTD SLP178=

CYYC;2005-03-04 00:00;METAR CYYC 040000Z 16006KT 40SM FEW080 FEW180 SCT250 10/M06 A2996 RMK AC1AC1CI1 SLP175=

CYYC;2005-03-04 01:00;METAR CYYC 040100Z 15007KT 40SM FEW210 BKN250 08/M05 A2996 RMK CI0CI1 SLP175=

CYYC;2005-03-04 03:00;METAR CYYC 040300Z 12006KT 15SM BKN240 03/M04 A2997 RMK CI2 SLP185=

CYYC;2005-03-04 04:00;METAR CYYC 040400Z 15006KT 15SM SCT240 03/M05 A2996 RMK CI1 SLP184=

CYYC;2005-03-04 05:00;METAR CYYC 040500Z 20005KT 15SM FEW240 02/M05 A2996 RMK CI1 SLP184=

CYYC;2005-03-04 06:00;METAR CYYC 040600Z 20004KT 15SM FEW240 02/M06 A2997 RMK CI0 SLP177=

CYYC;2005-03-04 07:00;METAR CYYC 040700Z 17002KT 15SM FEW240 02/M05 A2995 RMK CI0 SLP173=

CYYC;2005-03-04 10:00;METAR CYYC 041000Z 00000KT 15SM SKC M02/M06 A2994 RMK SLP168=

CYYC;2005-03-04 11:00;METAR CYYC 041100Z 32006KT 15SM SKC M04/M07 A2993 RMK SLP165=

CYYC;2005-03-04 12:00;METAR CYYC 041200Z 32004KT 15SM SKC M03/M07 A2993 RMK SLP170=

CYYC;2005-03-04 13:00;METAR CYYC 041300Z 19003KT 15SM FEW220 M03/M06 A2992 RMK CI1 SLP169=

CYYC;2005-03-04 14:00;METAR CYYC 041400Z 17004KT 40SM FEW250 M02/M07 A2992 RMK CI0 SLP168=

CYYC;2005-03-04 15:00;METAR CYYC 041500Z 18006KT 40SM FEW250 M01/M06 A2992 RMK CI0 SLP175=

CYYC;2005-03-04 16:00;METAR CYYC 041600Z 18004KT 40SM FEW250 03/M05 A2992 RMK CI1 SLP174=

CYYC;2005-03-04 17:00;METAR CYYC 041700Z 22005KT 40SM FEW250 06/M06 A2992 RMK CI1 SLP175=

CYYC;2005-03-04 18:00;METAR CYYC 041800Z 23003KT 40SM FEW250 10/M06 A2991 RMK CI1 SLP158=

CYYC;2005-03-04 19:00;METAR CYYC 041900Z 24012KT 40SM FEW150 FEW250 13/M08 A2990 RMK AC1CI1 SLP154=

CYYC;2005-03-04 20:00;METAR CYYC 042000Z 20007KT 40SM FEW250 14/M09 A2989 RMK CI1 SLP152=

CYYC;2005-03-04 22:00;METAR CYYC 042200Z 29018KT 40SM FEW040 FEW220 14/M09 A2988 RMK SF1CI1 SLP144=

CYYC;2005-03-04 23:00;METAR CYYC 042300Z 28019G24KT 40SM FEW040 FEW220 14/M10 A2989 RMK SF1CI1 SLP148=

CYYC;2005-03-05 01:00;METAR CYYC 050100Z 27015G20KT 40SM FEW040 FEW220 11/M09 A2991 RMK SC1CI1 SLP160=

CYYC;2005-03-05 04:00;METAR CYYC 050400Z 28013G19KT 15SM FEW240 08/M08 A2993 RMK CI0 SLP172=

CYYC;2005-03-05 05:00;METAR CYYC 050500Z 28017KT 15SM FEW240 08/M08 A2994 RMK CI0 SLP174=

CYYC;2005-03-05 06:00;METAR CYYC 050600Z 27020G27KT 15SM FEW240 08/M07 A2993 RMK CI0 SLP156=

CYYC;2005-03-05 10:00;METAR CYYC 051000Z 29007KT 15SM FEW240 06/M07 A2996 RMK CI1 SLP164=

CYYC;2005-03-05 11:00;METAR CYYC 051100Z 28011KT 15SM FEW240 07/M07 A2997 RMK CI1 SLP166=

CYYC;2005-03-05 12:00;METAR CYYC 051200Z 27009KT 15SM FEW240 07/M07 A2997 RMK CI0 SLP169=

CYYC;2005-03-05 13:00;METAR CYYC 051300Z 21006KT 15SM FEW070 FEW100 FEW240 04/M06 A2996 RMK AC1AC1CI0 SLP166=

CYYC;2005-03-05 15:00;METAR CYYC 051500Z 21006KT 40SM FEW100 FEW240 01/M06 A2994 RMK AC1CI1 SLP173=

CYYC;2005-03-05 16:00;METAR CYYC 051600Z 21004KT 40SM FEW100 SCT240 06/M06 A2995 RMK AC1CI0 CC ASOCTD SLP174=

CYYC;2005-03-05 17:00;METAR CYYC 051700Z 18004KT 40SM FEW060 FEW120 FEW240 09/M06 A2993 RMK SC1AC1CI1 SLP170=

CYYC;2005-03-05 21:00;METAR CYYC 052100Z 26013G20KT 40SM FEW060 FEW120 BKN250 17/M03 A2984 RMK CU1AC2CI2 SLP118=

CYYC;2005-03-05 22:00;METAR CYYC 052200Z 27022G30KT 40SM FEW060 SCT160 OVC250 15/M03 A2981 RMK CU1AC3CI3 SLP110=

CYYC;2005-03-05 23:00;METAR CYYC 052300Z 28016G21KT 40SM FEW060 SCT140 OVC230 15/M04 A2982 RMK CU1AC4CI3 PRESUNSTDY PAST HR SLP111=

CYYC;2005-03-06 00:00;METAR CYYC 060000Z 29010G15KT 40SM FEW060 FEW150 BKN240 14/M04 A2982 RMK CU1AC2CI6 SLP112=

CYYC;2005-03-06 04:00;METAR CYYC 060400Z 28015KT 15SM FEW060 FEW090 10/M04 A2979 RMK SC1AC2 SLP115=

CYYC;2005-03-06 08:00;METAR CYYC 060800Z 26018G24KT 15SM FEW200 07/M04 A2972 RMK CI1 SLP084=

CYYC;2005-03-06 11:00;METAR CYYC 061100Z 29014KT 15SM FEW120 BKN180 07/M07 A2976 RMK AC1AC1 SLP089=

CYYC;2005-03-06 12:00;METAR CYYC 061200Z 28010G15KT 15SM BKN085 OVC110 07/M07 A2978 RMK AC6AC2 SLP100=

CYYC;2005-03-06 13:00;METAR CYYC 061300Z 30010G15KT 15SM FEW060 SCT110 BKN150 07/M07 A2984 RMK SC1AC3AC2 SLP116=

CYYC;2005-03-06 14:00;METAR CYYC 061400Z 29007KT 40SM FEW060 FEW110 BKN150 05/M07 A2985 RMK SC1AC2AC2 VIRGA N-NE SLP122=

CYYC;2005-03-06 15:00;METAR CYYC 061500Z 31007KT 40SM FEW050 BKN100 BKN140 05/M07 A2988 RMK SC1AC4AC1 VIRGA SLP142=

CYYC;2005-03-06 16:00;METAR CYYC 061600Z 30012KT 40SM FEW050 FEW100 FEW140 09/M08 A2991 RMK SC1AC1AC1 SLP150=

CYYC;2005-03-06 19:00;METAR CYYC 061900Z 34025G30KT 40SM FEW060 BKN090 10/M08 A2999 RMK CU1AC6 VIRGA SLP181=

CYYC;2005-03-06 20:00;METAR CYYC 062000Z 36024G31KT 40SM FEW060 BKN094 09/M04 A3002 RMK CU1AC5 VIRGA SLP188=

CYYC;2005-03-06 22:00;METAR CYYC 062200Z 36020G26KT 40SM FEW060 FEW090 FEW230 06/M02 A3006 RMK CU1AC1CI1 SLP206=

CYYC;2005-03-07 00:00;METAR CYYC 070000Z 02010KT 40SM FEW090 BKN200 04/M05 A3008 RMK AC1CI4 VIRGA S-W SLP216=

CYYC;2005-03-07 01:00;METAR CYYC 070100Z 02006KT 40SM FEW100 SCT230 02/M06 A3009 RMK AC1CI0 SLP219=

CYYC;2005-03-07 03:00;METAR CYYC 070300Z 21004KT 15SM FEW240 00/M06 A3010 RMK CI1 SLP234=

CYYC;2005-03-07 05:00;METAR CYYC 070500Z 20004KT 15SM VCFG SKC M01/M06 A3010 RMK SLP233=

CYYC;2005-03-07 06:00;METAR CYYC 070600Z 19004KT 15SM VCFG FEW120 M01/M06 A3010 RMK AC1 SLP229=

CYYC;2005-03-07 08:00;METAR CYYC 070800Z 18004KT 15SM VCFG FEW240 M02/M06 A3007 RMK CI0 SLP219=

CYYC;2005-03-07 10:00;METAR CYYC 071000Z 18005KT 15SM SCT220 M03/M06 A3003 RMK CI0 SLP208=

CYYC;2005-03-07 11:00;METAR CYYC 071100Z 18002KT 15SM FEW025 FEW240 M03/M06 A3000 RMK ST1CI0 SLP199=

CYYC;2005-03-07 12:00;METAR CYYC 071200Z 17003KT 15SM FEW120 FEW170 FEW220 M03/M06 A2996 RMK AC1AC1CI0 SLP190=

CYYC;2005-03-07 13:00;METAR CYYC 071300Z 17003KT 15SM SCT110 BKN170 BKN240 M03/M05 A2995 RMK AC2AC2CI1 SLP186=

CYYC;2005-03-07 16:00;METAR CYYC 071600Z 17007KT 40SM -RA FEW025 BKN042 BKN080 M01/M03 A2986 RMK SF1SC7CI1 SLP160=

CYYC;2005-03-07 16:40;SPECI CYYC 071640Z 20005KT 40SM FEW045 BKN085 BKN100 RMK SC2AC5AC1 VIRGA ALQDS=

CYYC;2005-03-07 17:00;METAR CYYC 071700Z 19004KT 40SM FEW045 BKN080 BKN100 01/M02 A2983 RMK SC2AC6AC1 VIRGA ALQDS SLP150=

CYYC;2005-03-07 18:00;METAR CYYC 071800Z 16005KT 40SM FEW040 FEW080 BKN140 02/M02 A2980 RMK CU1AC2AC4 VIRGA SLP134=

CYYC;2005-03-07 22:00;METAR CYYC 072200Z 27022G32KT 40SM SCT030 SCT100 SCT140 16/M05 A2972 RMK CU4AC1AC1 SH SW-E / TCU ASOCTD SLP091=

CYYC;2005-03-07 22:54;SPECI CYYC 072254Z 35022G33KT 40SM -SHRA SCT030TCU BKN090 BKN130 RMK TCU4AC2AC1 WSHFT 2242Z=

CYYC;2005-03-07 23:00;METAR CYYC 072300Z 01018G27KT 30SM -SHRA SCT030TCU BKN089 BKN130 11/00 A2976 RMK TCU4AC2AC1 SLP103=

CYYC;2005-03-07 23:07;SPECI CYYC 072307Z 36011G22KT 30SM -SHRASN BKN040TCU BKN090 RMK TCU6AC1=

CYYC;2005-03-07 23:26;SPECI CYYC 072326Z 01010G16KT 30SM -SHRA SCT050TCU BKN075 BKN130 RMK TCU4AC2AC1 PCPN VERY LGT=

CYYC;2005-03-07 23:52;SPECI CYYC 072352Z 01014G24KT 30SM TSGRRA BKN030CB BKN061 RMK CB5SC2=

CYYC;2005-03-08 00:00;METAR CYYC 080000Z 02012G22KT 30SM TSGRRA SCT030CB BKN054 05/01 A2987 RMK CB4SC3 HAIL DIAM 4.0MM / PRESRR SLP158=

CYYC;2005-03-08 00:13;SPECI CYYC 080013Z 02011G17KT 15SM -SHRA FEW020CB BKN042 RETS RMK CB2SC5=

CYYC;2005-03-08 03:00;METAR CYYC 080300Z 23002KT 15SM FEW080 FEW240 03/00 A2995 RMK AC1CI0 SLP186=

CYYC;2005-03-08 04:00;METAR CYYC 080400Z 23005KT 15SM FEW140 SCT240 01/M00 A2997 RMK AC1CI0 SLP192=

CYYC;2005-03-08 06:00;METAR CYYC 080600Z 34002KT 15SM FEW100 01/M06 A3002 RMK AC2 AURBO SLP207=

CYYC;2005-03-08 07:00;METAR CYYC 080700Z 04003KT 15SM FEW090 M00/M07 A3002 RMK AC2 SLP208=

CYYC;2005-03-08 08:00;METAR CYYC 080800Z 05003KT 15SM FEW240 M02/M08 A3003 RMK CI1 SLP212=

CYYC;2005-03-08 10:00;METAR CYYC 081000Z 01002KT 15SM FEW240 M00/M09 A3005 RMK CI0 SLP201=

CYYC;2005-03-08 11:00;METAR CYYC 081100Z 00000KT 15SM SKC M01/M09 A3006 RMK SLP205=

CYYC;2005-03-08 12:00;METAR CYYC 081200Z 00000KT 15SM SKC M04/M09 A3008 RMK SLP235=

CYYC;2005-03-08 13:00;METAR CYYC 081300Z 01002KT 15SM FEW240 M03/M09 A3009 RMK CI0 SLP238=

CYYC;2005-03-08 14:00;METAR CYYC 081400Z 15003KT 40SM FEW080 FEW130 BKN240 M04/M08 A3010 RMK AC1AC1CI0 SLP239=

CYYC;2005-03-08 15:00;METAR CYYC 081500Z 25004KT 40SM FEW150 BKN250 M03/M06 A3010 RMK AC1CI0 SLP239=

CYYC;2005-03-08 16:00;METAR CYYC 081600Z 19007KT 40SM FEW140 FEW210 BKN250 00/M04 A3009 RMK AC1CI0CI0 SLP237=

CYYC;2005-03-08 17:00;METAR CYYC 081700Z 22006KT 40SM FEW140 SCT210 BKN250 04/M04 A3009 RMK AC1CI0CI0 SLP237=

CYYC;2005-03-08 18:00;METAR CYYC 081800Z 19007KT 40SM FEW140 FEW200 BKN250 07/M06 A3008 RMK AC1CI1CI0 SLP222=

CYYC;2005-03-08 20:00;METAR CYYC 082000Z 17009KT 40SM FEW120 SCT160 BKN240 12/M06 A3003 RMK AC1AC2CI0 SLP206=

CYYC;2005-03-08 21:00;METAR CYYC 082100Z 15007KT 40SM FEW090 BKN160 BKN240 12/M06 A3000 RMK AC1AC3CI0 VIRGA SLP190=

CYYC;2005-03-08 22:00;METAR CYYC 082200Z 16007KT 40SM FEW090 BKN150 BKN240 11/M05 A2998 RMK AC1AC2CI0 SLP183=

CYYC;2005-03-08 23:00;METAR CYYC 082300Z 16008KT 40SM FEW090 SCT160 BKN250 13/M06 A2997 RMK AC1AC2CI0 VIRGA- E SLP179=

CYYC;2005-03-09 00:00;METAR CYYC 090000Z 17007KT 40SM FEW090 SCT160 BKN250 11/M06 A2994 RMK AC1AC2CI1 SLP176=

CYYC;2005-03-09 03:00;METAR CYYC 090300Z 14007KT 15SM FEW080 FEW120 BKN250 07/M03 A2988 RMK AC1AC2CI1 SLP157=

CYYC;2005-03-09 04:00;METAR CYYC 090400Z 17002KT 15SM FEW120 FEW250 09/M03 A2985 RMK AC2CI0 SLP150=

CYYC;2005-03-09 05:00;METAR CYYC 090500Z 26013KT 15SM FEW120 SCT140 BKN250 11/00 A2984 RMK AC1AC2CI0 SLP146=

CYYC;2005-03-09 07:00;METAR CYYC 090700Z 25007KT 15SM BKN120 BKN250 11/M00 A2983 RMK AC6CI1 VIRGA S SLP121=

CYYC;2005-03-09 10:00;METAR CYYC 091000Z 28010G16KT 15SM FEW120 BKN170 OVC240 13/M01 A2982 RMK AC1AC7CI1 SLP107=

CYYC;2005-03-09 11:00;METAR CYYC 091100Z 27019G27KT 15SM FEW080 BKN120 BKN240 14/M00 A2983 RMK AC1AC6CI0 SLP111=

CYYC;2005-03-09 12:00;METAR CYYC 091200Z 26014G20KT 15SM BKN100 BKN250 12/M00 A2985 RMK AC6CI0 G 37 KTS AT 270 PST HR SLP121=

CYYC;2005-03-09 13:00;METAR CYYC 091300Z 25011KT 15SM BKN098 BKN250 11/M00 A2985 RMK AC6CI0 SLP119=

CYYC;2005-03-09 15:00;METAR CYYC 091500Z 32006KT 40SM FEW080 BKN100 BKN250 09/M00 A2989 RMK AC2AC3CI1 SLP145=

CYYC;2005-03-09 16:00;METAR CYYC 091600Z 20004KT 40SM FEW080 BKN120 BKN250 10/01 A2990 RMK AC1AC2CI2 VIRGA SLP148=

CYYC;2005-03-09 17:00;METAR CYYC 091700Z 27013G18KT 40SM FEW080 FEW120 BKN150 BKN250 12/M01 A2991 RMK AC1AC2AC3CI1 LWR AC TR SLP152=

CYYC;2005-03-09 18:00;METAR CYYC 091800Z 28018KT 40SM FEW060 FEW120 BKN150 BKN250 14/M04 A2993 RMK SC1AC1AC5CI1 SC TR SLP143=

CYYC;2005-03-09 21:00;METAR CYYC 092100Z 31005KT 40SM FEW090 FEW170 BKN210 BKN250 11/M00 A3000 RMK AC1AC2CI1CI0 LWR AC TR SLP173=

CYYC;2005-03-09 22:00;METAR CYYC 092200Z 33015G20KT 40SM FEW090 FEW210 SCT250 15/M09 A3000 RMK AC1CI1CI0 AC TR SLP172=

CYYC;2005-03-10 00:00;METAR CYYC 100000Z 36010KT 40SM FEW090 FEW250 11/M11 A3005 RMK AC1CI0 SLP189=

CYYC;2005-03-10 04:00;METAR CYYC 100400Z 32009KT 15SM SKC 02/M09 A3016 RMK SLP243=

CYYC;2005-03-10 06:00;METAR CYYC 100600Z 02005KT 15SM SKC M00/M09 A3021 RMK SLP257=

CYYC;2005-03-10 08:00;METAR CYYC 100800Z 34006KT 15SM SKC M00/M10 A3022 RMK SLP262=

CYYC;2005-03-10 09:00;METAR CYYC 100900Z 32005KT 15SM SKC M01/M10 A3024 RMK SLP273=

CYYC;2005-03-10 10:00;METAR CYYC 101000Z 33007KT 15SM SKC M03/M10 A3026 RMK SLP279=

CYYC;2005-03-10 11:00;METAR CYYC 101100Z 32011KT 15SM SKC M02/M10 A3028 RMK SLP287=

CYYC;2005-03-10 12:00;METAR CYYC 101200Z 31009KT 15SM SKC M01/M10 A3029 RMK SLP291=

CYYC;2005-03-10 15:00;METAR CYYC 101500Z 29003KT 40SM FEW180 FEW250 M00/M09 A3030 RMK AC1CI1 SLP306=

CYYC;2005-03-10 16:00;METAR CYYC 101600Z 25006KT 40SM FEW180 FEW250 05/M10 A3030 RMK AC1CI0 SLP306=

CYYC;2005-03-10 18:00;METAR CYYC 101800Z 23005KT 40SM FEW180 FEW250 08/M11 A3028 RMK AC1CI0 SLP291=

CYYC;2005-03-10 19:00;METAR CYYC 101900Z 22007KT 40SM FEW180 FEW250 10/M11 A3025 RMK AC1CC1 SLP283=

CYYC;2005-03-10 20:00;METAR CYYC 102000Z 19007KT 40SM BKN140 BKN250 12/M10 A3023 RMK AC2CI0 AC FLOCCUS ASOCTD SLP275=

CYYC;2005-03-10 21:00;METAR CYYC 102100Z 31006KT 40SM FEW140 FEW250 14/M12 A3017 RMK AC1CI1 AC FLOCCUS ASOCTD SLP246=

CYYC;2005-03-10 22:00;METAR CYYC 102200Z 29008KT 40SM FEW140 SCT250 15/M12 A3016 RMK AC1CI0 SLP242=

CYYC;2005-03-11 00:00;METAR CYYC 110000Z 17008KT 40SM FEW140 FEW250 14/M10 A3011 RMK AC1CI0 SLP226=

CYYC;2005-03-11 02:00;METAR CYYC 110200Z 22007KT 30SM FEW140 FEW250 11/M09 A3006 RMK AC1CI0 SLP212=

CYYC;2005-03-11 04:00;METAR CYYC 110400Z 28009KT 15SM FEW240 10/M10 A3004 RMK CI1 CI TR SLP207=

CYYC;2005-03-11 06:00;METAR CYYC 110600Z 27016KT 15SM SKC 11/M11 A3000 RMK SLP178=

CYYC;2005-03-11 07:00;METAR CYYC 110700Z 27014KT 15SM FEW100 FEW240 12/M10 A2999 RMK AC1CI0 AC TR SLP174=

CYYC;2005-03-11 09:00;METAR CYYC 110900Z 25009KT 15SM FEW120 SCT240 10/M08 A2993 RMK AC1CI2 AC TR SLP149=

CYYC;2005-03-11 10:00;METAR CYYC 111000Z 26014G21KT 15SM FEW190 BKN240 12/M08 A2991 RMK AC1CI2 SLP141=

CYYC;2005-03-11 11:00;METAR CYYC 111100Z 27003KT 15SM SCT180 BKN240 11/M07 A2990 RMK AC2CI2 SLP138=

CYYC;2005-03-11 12:00;METAR CYYC 111200Z 26020G25KT 15SM SCT190 BKN240 12/M06 A2988 RMK AC2CI2 SLP127=

CYYC;2005-03-11 13:00;METAR CYYC 111300Z 26021G27KT 15SM BKN180 BKN240 12/M06 A2985 RMK AC3CI2 SLP117=

CYYC;2005-03-11 14:00;METAR CYYC 111400Z 26024G34KT 40SM SCT180 BKN230 13/M06 A2981 RMK AC2CI4 SLP107=

CYYC;2005-03-11 16:00;METAR CYYC 111600Z 26023G28KT 40SM FEW050 FEW150 BKN240 13/M05 A2978 RMK CU1AC2CI2 SLP097=

CYYC;2005-03-11 17:00;METAR CYYC 111700Z 26023G32KT 40SM FEW050 FEW170 BKN240 15/M04 A2976 RMK CU1AC2CI1 SLP091=

CYYC;2005-03-11 18:00;METAR CYYC 111800Z 26023KT 40SM FEW060 FEW150 BKN240 16/M04 A2974 RMK CU1AC2CI2 SLP077=

CYYC;2005-03-11 19:00;METAR CYYC 111900Z 25017KT 40SM FEW060 FEW150 BKN240 19/M02 A2974 RMK CU1AC1CI1 SLP077=

CYYC;2005-03-11 20:00;METAR CYYC 112000Z 26014G20KT 40SM FEW060 FEW140 BKN250 20/M02 A2974 RMK CU1AC2CI1 SLP076=

CYYC;2005-03-11 21:00;METAR CYYC 112100Z 26018G27KT 40SM FEW060 FEW140 BKN180 BKN250 18/M01 A2970 RMK CU1AC2AC5CI0 SLP063=

CYYC;2005-03-11 21:20;SPECI CYYC 112120Z 33010G24KT 40SM FEW060 FEW100 BKN170 BKN250 RMK CU1AC2AC4CI1 WSHFT 2105Z=

CYYC;2005-03-11 22:00;METAR CYYC 112200Z 05012KT 40SM FEW040 BKN100 BKN170 BKN250 15/M01 A2970 RMK CU2AC2AC2CI1 SHS SW+N-E / TCU ASOCTD SLP063=

CYYC;2005-03-11 23:00;METAR CYYC 112300Z 05019KT 40SM VCSH FEW040 BKN075 BKN170 12/M02 A2974 RMK CU1AC5AC2 SHS SW+NW-SE SLP075=

CYYC;2005-03-11 23:17;SPECI CYYC 112317Z 03019G25KT 20SM -RA BKN059 BKN080 RMK SC7AC1=

CYYC;2005-03-12 00:00;METAR CYYC 120000Z 02017KT 30SM -RA BKN055 OVC080 08/03 A2980 RMK SC7AC1 PCPN VRY LGT SLP107=

CYYC;2005-03-12 01:00;METAR CYYC 120100Z 36015KT 10SM -RA SCT022 OVC035 04/03 A2985 RMK SC3SC5 SLP124=

CYYC;2005-03-12 01:22;SPECI CYYC 120122Z 36017KT 7SM -RA SCT011 OVC016 RMK SC3SC5=

CYYC;2005-03-12 01:43;SPECI CYYC 120143Z 36015KT 10SM FEW010 SCT022 OVC049 RMK SC1SC3SC5 SHS ALQDS=

CYYC;2005-03-12 02:00;METAR CYYC 120200Z 35014KT 10SM -RA FEW010 SCT030 OVC046 03/02 A2986 RMK SC1SC3SC5 SLP126=

CYYC;2005-03-12 02:51;SPECI CYYC 120251Z 32009KT 15SM VCSH FEW010 SCT030 OVC053 RMK SC1SC3SC4=

CYYC;2005-03-12 04:00;METAR CYYC 120400Z 33017KT 15SM SCT040 BKN100 04/M02 A2988 RMK SC3AC3 SLP142=

CYYC;2005-03-12 04:22;SPECI CYYC 120422Z 34015KT 15SM -SHRA SCT070 BKN110 RMK AC4AC3=

CYYC;2005-03-12 04:46;SPECI CYYC 120446Z 33016KT 15SM VCSH SCT050 OVC072 RMK SC4AC4=

CYYC;2005-03-12 05:00;METAR CYYC 120500Z 34012G17KT 15SM VCSH SCT060 OVC086 04/M04 A2990 RMK SC4AC4 SLP148=

CYYC;2005-03-12 06:00;METAR CYYC 120600Z 02015G21KT 15SM BKN060 OVC100 03/M04 A2994 RMK SC6AC2 VIRGA SLP158=

CYYC;2005-03-12 07:00;METAR CYYC 120700Z 30004KT 15SM SCT060 OVC080 01/M03 A2995 RMK SC4AC3 VIRGA SLP161=

CYYC;2005-03-12 12:00;METAR CYYC 121200Z 33010KT 15SM FEW120 00/M08 A2999 RMK AC2 SLP191=

CYYC;2005-03-12 13:00;METAR CYYC 121300Z 31010G15KT 15SM BKN110 01/M08 A3001 RMK AC7 SLP197=

CYYC;2005-03-12 14:00;METAR CYYC 121400Z 31014G19KT 20SM FEW050 FEW100 BKN150 01/M07 A3002 RMK SC1AC2AC4 ACC ASOCTD NW SLP198=

CYYC;2005-03-12 14:33;SPECI CYYC 121433Z 34033KT 40SM -SHSN FEW010 BKN038 BKN100 RMK SC2SC3AC1 VIS N 11/2 / TCU ASOCTD=

CYYC;2005-03-12 15:00;METAR CYYC 121500Z 33018G24KT 40SM FEW020CB FEW030 SCT100 M01/M04 A3006 RMK CB1SC2AC1 CB DIST NW / SHS SE-SW SLP221=

CYYC;2005-03-12 16:00;METAR CYYC 121600Z 33028G33KT 40SM FEW020 FEW038 SCT100 01/M06 A3007 RMK CU1SC1AC1 SH NW SLP225=

CYYC;2005-03-12 16:52;SPECI CYYC 121652Z 30022G30KT 5SM -SHSN FEW022 OVC034 RMK SF2SC6=

CYYC;2005-03-12 17:39;SPECI CYYC 121739Z 31024G32KT 1 1/2SM -SHSN BKN012 OVC021 RMK SC5SC3=

CYYC;2005-03-12 17:45;SPECI CYYC 121745Z 31022G32KT 3/4SM -SHSN FEW008 BKN012 OVC023 RMK SC2SC4SC2 RVR RWY34 6000+FT=

CYYC;2005-03-12 17:55;SPECI CYYC 121755Z 31018G25KT 1 1/2SM -SHSN FEW008 BKN012 OVC022 RMK SC2SC4SC2 VIS SW 3=

CYYC;2005-03-12 18:15;SPECI CYYC 121815Z 32023G32KT 20SM FEW010 FEW022 BKN040 OVC100 RMK SC1SC2SC3AC2 SHS E-S=

CYYC;2005-03-12 19:29;SPECI CYYC 121929Z 33028G35KT 6SM -SHSN BKN035 BKN046 RMK CU5SC2=

CYYC;2005-03-12 20:14;SPECI CYYC 122014Z 32030G36KT 20SM SCT040 SCT060 BKN180 RMK CU3SC1AC1 SH E-SW=

CYYC;2005-03-12 22:00;METAR CYYC 122200Z 32027G34KT 40SM BKN038 BKN069 BKN180 03/M06 A3016 RMK CU5AC2AC1 SH E-S / TCU EMBD SLP257=

CYYC;2005-03-13 00:00;METAR CYYC 130000Z 35019G25KT 40SM FEW045 FEW060 FEW120 04/M08 A3015 RMK CU1SC1AC1 SLP251=

CYYC;2005-03-13 01:00;METAR CYYC 130100Z 35009G16KT 40SM FEW045 FEW060 FEW088 02/M07 A3014 RMK CU1SC1AC1 SLP249=

CYYC;2005-03-13 03:00;METAR CYYC 130300Z 31007KT 15SM FEW080 SCT100 M00/M08 A3016 RMK AC1AC2 SLP262=

CYYC;2005-03-13 04:00;METAR CYYC 130400Z 31005KT 15SM FEW070 FEW110 SCT240 M02/M08 A3016 RMK AC1AC2CI0 SLP264=

CYYC;2005-03-13 06:00;METAR CYYC 130600Z 30015G20KT 15SM FEW040 BKN090 BKN140 01/M05 A3018 RMK SC2AC2AC2 SLP268=

CYYC;2005-03-13 08:16;SPECI CYYC 130816Z 32014G19KT 8SM -SHSN FEW030 BKN054 OVC070 RMK SC1SC7AC1=

CYYC;2005-03-13 08:35;SPECI CYYC 130835Z 31015KT 2 1/2SM -SHSN BKN012 OVC030 RMK SC7SC1 CVCTV CLD EMBDD=

CYYC;2005-03-13 08:42;SPECI CYYC 130842Z 31010G21KT 2SM -SHSN BKN008 OVC020 RMK SC6SC2 CVCTV CLD EMBD=

CYYC;2005-03-13 08:49;SPECI CYYC 130849Z 31015KT 2 1/2SM -SHSN FEW008 BKN028 OVC046 RMK SC2SC4SC2=

CYYC;2005-03-13 09:12;SPECI CYYC 130912Z 34014G20KT 1 1/2SM -SHSN BKN008 OVC022 RMK SC7SC1=

CYYC;2005-03-13 09:48;SPECI CYYC 130948Z 33008KT 2 1/2SM -SHSN SCT010 OVC021 RMK SC4SC4=

CYYC;2005-03-13 10:00;METAR CYYC 131000Z 33006KT 2SM -SHSN BKN011 OVC027 M01/M02 A3018 RMK SC6SC2 /SO1/ SLP265=

CYYC;2005-03-13 10:19;SPECI CYYC 131019Z 32005KT 2 1/2SM -SN SCT011 OVC022 RMK SC3SC5=

CYYC;2005-03-13 11:38;SPECI CYYC 131138Z 33015KT 3SM -SN FEW010 BKN030 OVC060 RMK SC1SC7SC1=

CYYC;2005-03-13 12:00;METAR CYYC 131200Z 33015G20KT 5SM -SN FEW010 SCT030 OVC074 M01/M03 A3020 RMK SF1SC3AC5 SN CVR/MUCH LOOSE /S03/ SLP270=

CYYC;2005-03-13 12:18;SPECI CYYC 131218Z 34014KT 15SM FEW010 FEW030 BKN076 BKN100 RMK SF1SC2AC2AC0=

CYYC;2005-03-13 15:00;METAR CYYC 131500Z 33015KT 30SM DRSN FEW010 FEW130 SCT180 M02/M05 A3026 RMK CU1AC2AC1 SLP299=

CYYC;2005-03-13 16:00;METAR CYYC 131600Z 32015KT 30SM DRSN FEW012 SCT130 OVC180 M02/M05 A3028 RMK CU1AC2AC1 SH DIST SW SLP306=

CYYC;2005-03-13 17:00;METAR CYYC 131700Z 32017KT 40SM FEW018 SCT120 BKN160 M01/M04 A3029 RMK CU1AC2AC2 SLP309=

CYYC;2005-03-13 18:00;METAR CYYC 131800Z 32021KT 30SM FEW020 SCT090 BKN160 00/M04 A3029 RMK CU2AC2AS3 SLP307=

CYYC;2005-03-13 20:00;METAR CYYC 132000Z 32019G27KT 30SM BKN042 BKN130 BKN180 02/M05 A3029 RMK CU6AC1AS1 SH DIST SW SLP305=

CYYC;2005-03-13 21:00;METAR CYYC 132100Z 32020G27KT 30SM VCSH BKN035TCU BKN180 02/M03 A3028 RMK TCU6AC1 SH S+NW-E SLP302=

CYYC;2005-03-13 23:00;METAR CYYC 132300Z 33029KT 30SM BKN046TCU BKN180 BKN240 03/M08 A3025 RMK TCU5AC1CI0 SCT SHS ALQDS SLP292=

CYYC;2005-03-14 00:00;METAR CYYC 140000Z 33020G29KT 30SM SCT046TCU BKN081 BKN150 BKN220 03/M07 A3024 RMK TCU3AC2AC1CS1 SCT SHS ALQDS SLP288=

CYYC;2005-03-14 01:25;SPECI CYYC 140125Z 35010KT 40SM FEW033 SCT066 BKN240 RMK CU1AC2CI0 CB DIST SE=

CYYC;2005-03-14 03:00;METAR CYYC 140300Z 32008KT 15SM FEW040 BKN120 OVC210 M00/M05 A3024 RMK SC2AC3CI1 VIRGA SLP294=

CYYC;2005-03-14 04:00;METAR CYYC 140400Z 33011KT 15SM FEW030 BKN050 OVC120 M00/M06 A3024 RMK SC1SC5AC3 VIRGA SLP292=

CYYC;2005-03-14 04:49;SPECI CYYC 140449Z 32017KT 8SM -SHSN SCT013 OVC026 RMK SC3SC5=

CYYC;2005-03-14 05:00;METAR CYYC 140500Z 34015G28KT 4SM -SHSN FEW007 FEW011 OVC040 M01/M04 A3024 RMK SC2SC1SC6 SLP294=

CYYC;2005-03-14 05:07;SPECI CYYC 140507Z 32013KT 15SM VCSH FEW007 FEW011 OVC045 RMK SC1SC1SC6=

CYYC;2005-03-14 05:18;SPECI CYYC 140518Z 31015KT 2SM -SHSN FEW007 BKN022 OVC045 RMK SC2SC5SC1=

CYYC;2005-03-14 05:24;SPECI CYYC 140524Z 31019G24KT 1 1/4SM -SHSN VV006 RMK SN8=

CYYC;2005-03-14 05:28;SPECI CYYC 140528Z 32019G24KT 1 1/4SM -SHSN VV004 RMK SN8=

CYYC;2005-03-14 05:35;SPECI CYYC 140535Z 32014G22KT 1 3/4SM -SHSN BKN008 OVC020 RMK SC5SC3=

CYYC;2005-03-14 05:55;SPECI CYYC 140555Z 32016KT 2SM -SHSN FEW009 BKN013 OVC030 RMK SC2SC6SC1=

CYYC;2005-03-14 06:16;SPECI CYYC 140616Z 31012KT 15SM FEW008 BKN063 OVC090 RMK SC1SC6AC2=

CYYC;2005-03-14 06:43;SPECI CYYC 140643Z 33016KT 15SM -SHSN FEW009 BKN027 OVC044 RMK SC1SC6SC2=

CYYC;2005-03-14 07:00;METAR CYYC 140700Z 33013G19KT 15SM VCSH FEW015 BKN038 OVC060 M01/M06 A3025 RMK SC1SC6SC2 SLP296=

CYYC;2005-03-14 07:33;SPECI CYYC 140733Z 33014KT 15SM -SHSN BKN015 OVC020 RMK SC6SC2 VIS LWR NE=

CYYC;2005-03-14 07:51;SPECI CYYC 140751Z 35010G15KT 15SM FEW015 BKN084 OVC100 RMK CU1AC6AC2=

CYYC;2005-03-14 08:00;METAR CYYC 140800Z 34010KT 15SM FEW015 BKN080 OVC100 M02/M05 A3023 RMK CU1AC6AC2 SLP290=

CYYC;2005-03-14 09:00;METAR CYYC 140900Z 33008KT 15SM SCT053 OVC075 M02/M05 A3023 RMK SC4AC4 SLP287=

CYYC;2005-03-14 10:00;METAR CYYC 141000Z 31006KT 15SM BKN040 OVC077 M03/M05 A3022 RMK SC5AC3 SLP282=

CYYC;2005-03-14 11:17;SPECI CYYC 141117Z 31009KT 10SM -SHSN BKN039 OVC054 RMK SC6SC2=

CYYC;2005-03-14 12:00;METAR CYYC 141200Z 32009KT 10SM -SHSN FEW028 SCT040 OVC065 M03/M05 A3020 RMK SC1SC3SC5 SN CVR/ ONE LOOSE SLP276=

CYYC;2005-03-14 13:00;METAR CYYC 141300Z 31007KT 15SM -SN FEW025 BKN044 OVC065 M03/M05 A3020 RMK SC1SC6SC2 PCPN VRY LGT SLP275=

CYYC;2005-03-14 14:00;METAR CYYC 141400Z 32008KT 20SM -SN BKN018 OVC035 M03/M05 A3020 RMK SC5SC3 SLP274=

CYYC;2005-03-14 14:09;SPECI CYYC 141409Z 32007KT 6SM -SN BKN014 OVC045 RMK SC6SC2=

CYYC;2005-03-14 14:54;SPECI CYYC 141454Z 31007KT 20SM -SN FEW014 OVC041 RMK SC2SC6=

CYYC;2005-03-14 15:00;METAR CYYC 141500Z 31007KT 20SM -SN FEW014 OVC042 M03/M05 A3018 RMK SC2SC6 SLP274=

CYYC;2005-03-14 16:00;METAR CYYC 141600Z 31008KT 30SM FEW017 BKN030 BKN180 M02/M05 A3018 RMK SC1SC5AC1 SLP272=

CYYC;2005-03-14 17:00;METAR CYYC 141700Z 31008KT 30SM BKN034 BKN180 BKN220 00/M04 A3016 RMK SC5AC2CI1 SLP266=

CYYC;2005-03-14 18:00;METAR CYYC 141800Z 32014KT 30SM FEW036 SCT060 BKN090 01/M04 A3013 RMK CU1SC3AC2 SLP253=

CYYC;2005-03-14 19:00;METAR CYYC 141900Z 32015KT 20SM VCSH BKN036 02/M05 A3010 RMK SC7 SLP243=

CYYC;2005-03-14 20:09;SPECI CYYC 142009Z 35021G26KT 5/8SM -SHSN BLSN BKN005 OVC016 RMK SN6SC1SC1 RVR RWY16 3500 FT=

CYYC;2005-03-14 20:41;SPECI CYYC 142041Z 35013KT 10SM -SHSN FEW030 BKN040 REBLSN RMK SC2SC2=

CYYC;2005-03-14 21:00;METAR CYYC 142100Z 34013KT 30SM -SHSN FEW021 BKN040 01/M02 A3006 RMK CU2SC2 PCPN VRY LGT SLP227=

CYYC;2005-03-14 21:47;SPECI CYYC 142147Z 34014G20KT 5/8SM -SHSN BLSN BKN008 OVC017 RMK SN4SC2SC2=

CYYC;2005-03-14 22:00;METAR CYYC 142200Z 34012G18KT 5SM -SHSN BKN008 OVC030 M01/M02 A3005 REBLSN RMK SC5SC2 SLP224=

CYYC;2005-03-14 22:20;SPECI CYYC 142220Z 34008KT 20SM FEW035 SCT050 RMK CU2SC2=

CYYC;2005-03-14 23:00;METAR CYYC 142300Z 36012KT 20SM FEW035 SCT050 BKN087 00/M01 A3005 RMK CU2SC2AC2 SLP223=

CYYC;2005-03-15 00:00;METAR CYYC 150000Z 34013KT 30SM FEW030 BKN049 01/M03 A3004 RMK CU2SC4 SLP221=

CYYC;2005-03-15 01:00;METAR CYYC 150100Z 32011KT 30SM FEW030 SCT049 BKN090 00/M04 A3003 RMK CU2SC2AC1 SLP218=

CYYC;2005-03-15 04:00;METAR CYYC 150400Z 26004KT 15SM FEW030 OVC092 M02/M04 A3002 RMK SC2AC6 VIRGA SLP220=

CYYC;2005-03-15 07:00;METAR CYYC 150700Z 27002KT 15SM FEW030 FEW100 M02/M05 A2999 RMK SC1AC1 SLP206=

CYYC;2005-03-15 09:00;METAR CYYC 150900Z 34002KT 15SM BKN095 BKN190 BKN220 M06/M07 A2996 RMK AC5AC1CI0 SLP198=

CYYC;2005-03-15 10:00;METAR CYYC 151000Z 03003KT 15SM BKN081 BKN190 M06/M08 A2994 RMK AC4AC1 VIRGA SLP191=

CYYC;2005-03-15 11:00;METAR CYYC 151100Z 02002KT 15SM BKN098 M06/M08 A2992 RMK AC6 VIRGA / FROIN SLP186=

CYYC;2005-03-15 12:00;METAR CYYC 151200Z 22002KT 15SM FEW100 BKN140 M06/M08 A2990 RMK AC2AC3 VIRGA / FROIN SLP180=

CYYC;2005-03-15 14:00;METAR CYYC 151400Z 36003KT 40SM SCT050 BKN081 M06/M08 A2989 RMK SC3AC4 SLP176=

CYYC;2005-03-15 15:00;METAR CYYC 151500Z 12003KT 40SM FEW050 BKN090 OVC220 M04/M06 A2988 RMK SC2AC5CI1 SLP174=

CYYC;2005-03-15 16:00;METAR CYYC 151600Z 13005KT 40SM FEW090 BKN120 BKN220 M03/M05 A2987 RMK AC2AC3CI1 SLP169=

CYYC;2005-03-15 17:00;METAR CYYC 151700Z 13006KT 40SM FEW025 BKN120 BKN220 M02/M04 A2986 RMK CU1AC3CI1 SLP167=

CYYC;2005-03-15 18:00;METAR CYYC 151800Z 13006KT 3SM HZ SCT007 OVC090 M01/M04 A2984 RMK ST4AC2 VIS E 6 SLP156=

CYYC;2005-03-15 22:00;METAR CYYC 152200Z 16014KT 15SM FEW035 SCT100 OVC240 05/M05 A2974 RMK CU2AC2CI2 CS ASOCTD SLP119=

CYYC;2005-03-16 00:00;METAR CYYC 160000Z 14011KT 40SM BKN062 BKN072 OVC240 04/M06 A2970 RMK SC5AC2CS2 VIRGA SW SLP104=

CYYC;2005-03-16 02:00;METAR CYYC 160200Z 14008KT 40SM BKN040 OVC060 03/M05 A2969 RMK SC6SC2 VIRGA ALQDS SLP101=

CYYC;2005-03-16 02:12;SPECI CYYC 160212Z 14010KT 20SM -RA BKN040 OVC060 RMK SC6SC2 PCPN VRY LGT=

CYYC;2005-03-16 02:34;SPECI CYYC 160234Z 15009KT 15SM BKN050 OVC060 RMK SC6SC2 VIRGA=

CYYC;2005-03-16 04:00;METAR CYYC 160400Z 11009KT 15SM OVC100 M00/M05 A2967 RMK AC5 VIRGA SLP097=

CYYC;2005-03-16 07:00;METAR CYYC 160700Z 12011KT 15SM FEW060 FEW100 M06/M08 A2968 RMK SC1AC0 SLP102=

CYYC;2005-03-16 10:00;METAR CYYC 161000Z 02002KT 8SM OVC008 M07/M08 A2971 RMK ST5 SC EMBD / FROIN SLP109=

CYYC;2005-03-16 11:00;METAR CYYC 161100Z 04005KT 8SM OVC009 M06/M08 A2971 RMK ST8 SLP110=

CYYC;2005-03-16 12:00;METAR CYYC 161200Z 08003KT 8SM OVC008 M06/M08 A2971 RMK ST8 SLP106=

CYYC;2005-03-16 12:47;SPECI CYYC 161247Z 00000KT 6SM -SG OVC008 RMK ST8=

CYYC;2005-03-16 13:00;METAR CYYC 161300Z 00000KT 4SM -SG OVC007 M06/M07 A2971 RMK ST8 SLP106=

CYYC;2005-03-16 14:00;METAR CYYC 161400Z 03002KT 4SM -SG OVC006 M06/M07 A2970 RMK ST8 SLP103=

CYYC;2005-03-16 15:00;METAR CYYC 161500Z 05006KT 2SM -SG BR OVC008 M06/M07 A2970 RMK ST8 SLP107=

CYYC;2005-03-16 15:32;SPECI CYYC 161532Z 05004KT 3SM -SG BR OVC008 RMK ST8 VIS W 1 1/2=

CYYC;2005-03-16 15:49;SPECI CYYC 161549Z 02002KT 4SM -SG BR OVC012 RMK ST8 VIS W 2=

CYYC;2005-03-16 16:00;METAR CYYC 161600Z 34003KT 4SM -SG BR OVC010 M06/M08 A2969 RMK ST8 SLP104=

CYYC;2005-03-16 16:31;SPECI CYYC 161631Z 05004KT 5SM -SG BR BKN007 OVC012 RMK ST6ST2=

CYYC;2005-03-16 16:48;SPECI CYYC 161648Z 07007KT 1 3/4SM -SG BR OVC004 RMK ST8=

CYYC;2005-03-16 17:00;METAR CYYC 161700Z 08008KT 1 1/4SM -SNSG BR OVC004 M06/M07 A2968 RMK ST8 SLP103=

CYYC;2005-03-16 17:12;SPECI CYYC 161712Z 07008KT 1SM -SN BR FEW004 BKN007 OVC012 RMK ST2SC5SC1 RVR RWY16 6000 FT=

CYYC;2005-03-16 17:30;SPECI CYYC 161730Z 09008KT 1/2SM SN FZFG BKN005 OVC014 RMK SC6SC2 RVR RWY16 4500 FT=

CYYC;2005-03-16 17:47;SPECI CYYC 161747Z 08009KT 1 1/4SM -SN BR BKN009 OVC021 RESN RMK SC6SC1=

CYYC;2005-03-16 18:00;METAR CYYC 161800Z 07007KT 1 1/2SM -SN BR BKN009 OVC020 M06/M08 A2967 RESN RMK SC6SC1 /SO1/ SLP107=

CYYC;2005-03-16 18:13;SPECI CYYC 161813Z 07009KT 1 1/4SM -SN BR BKN009 OVC020 RMK SC6SC1=

CYYC;2005-03-16 18:37;SPECI CYYC 161837Z 07008KT 1 1/4SM -SN BR BKN013 OVC040 RMK SC6SC2=

CYYC;2005-03-16 18:49;SPECI CYYC 161849Z 07007KT 3SM -SN BR BKN010 OVC040 RMK SC5SC2=

CYYC;2005-03-16 19:00;METAR CYYC 161900Z 06008KT 12SM -SN SCT009 OVC035 M05/M08 A2966 RMK SC4SC4 SLP104=

CYYC;2005-03-16 19:53;SPECI CYYC 161953Z 07008KT 20SM SCT013 OVC030 RMK SC4SC4=

CYYC;2005-03-16 20:00;METAR CYYC 162000Z 06007KT 15SM BKN012 OVC027 M06/M09 A2965 RMK SC5SC3 SLP100=

CYYC;2005-03-16 21:00;METAR CYYC 162100Z 06006KT 15SM BKN012 OVC026 M06/M09 A2964 RMK SC6SC2 SLP101=

CYYC;2005-03-16 21:37;SPECI CYYC 162137Z 05006KT 15SM -SN OVC010 RMK SC8=

CYYC;2005-03-16 22:00;METAR CYYC 162200Z 07006KT 15SM BKN011 OVC023 M06/M08 A2964 RMK SC7SC1 SLP100=

CYYC;2005-03-16 22:39;SPECI CYYC 162239Z 05006KT 15SM -SN OVC010 RMK SC8=

CYYC;2005-03-16 23:00;METAR CYYC 162300Z 05007KT 15SM -SN OVC009 M06/M08 A2963 RMK SC8 SLP096=

CYYC;2005-03-17 00:00;METAR CYYC 170000Z 05008KT 12SM -SN OVC008 M06/M08 A2963 RMK SC8 SLP095=

CYYC;2005-03-17 00:33;SPECI CYYC 170033Z 05008KT 2SM -SN BR OVC007 RMK SC8 VIS LWR NE=

CYYC;2005-03-17 02:00;METAR CYYC 170200Z 05010KT 2SM -SG BR OVC006 M08/M09 A2964 RMK ST8 SLP096=

CYYC;2005-03-17 02:37;SPECI CYYC 170237Z 04009KT 3SM -SN OVC007 RMK ST8 SC EMBD=

CYYC;2005-03-17 04:00;METAR CYYC 170400Z 03010KT 6SM -SN FEW005 BKN007 OVC022 M09/M11 A2964 RMK SC1SC5SC2 SLP102=

CYYC;2005-03-17 04:48;SPECI CYYC 170448Z 02010KT 2SM -SN BKN009 OVC018 RMK SC7SC1=

CYYC;2005-03-17 05:00;METAR CYYC 170500Z 02012KT 2SM -SN OVC008 M10/M11 A2964 RMK SC8 SLP102=

CYYC;2005-03-17 06:00;METAR CYYC 170600Z 02009KT 2 1/2SM -SN OVC008 M10/M11 A2965 RMK SC8 SLP107=

CYYC;2005-03-17 09:00;METAR CYYC 170900Z 35010KT 2 1/2SM -SN BKN016 OVC031 M10/M12 A2967 RMK SC6SC2 SLP115=

CYYC;2005-03-17 10:00;METAR CYYC 171000Z 36011KT 2 1/2SM -SN BKN015 OVC028 M11/M13 A2969 RMK SC7SC1 SLP120=

CYYC;2005-03-17 10:45;SPECI CYYC 171045Z 35014KT 2SM -SN OVC012 RMK SC8=

CYYC;2005-03-17 11:00;METAR CYYC 171100Z 35011KT 2SM -SN OVC010 M11/M12 A2971 RMK SC8 /S01/ SLP125=

CYYC;2005-03-17 13:00;METAR CYYC 171300Z 34012KT 5SM -SN BKN025 OVC042 M11/M13 A2975 RMK SC7SC1 SLP144=

CYYC;2005-03-17 15:00;METAR CYYC 171500Z 34014KT 15SM -SN SCT040 BKN080 BKN240 M11/M13 A2980 RMK SC3AC2CI0 SLP163=

CYYC;2005-03-17 15:25;SPECI CYYC 171525Z 35011KT 2 1/2SM -SN BKN016 BKN031 OVC080 RMK SC3SC3AC0=

CYYC;2005-03-17 15:45;SPECI CYYC 171545Z 34011KT 1 3/4SM -SN BKN008 OVC021 RMK SC5SC2=

CYYC;2005-03-17 16:00;METAR CYYC 171600Z 34015KT 3SM -SN SCT008 BKN016 OVC020 M10/M13 A2982 RMK SC3SC2SC2 SLP168=

CYYC;2005-03-17 17:00;METAR CYYC 171700Z 34013KT 4SM -SN FEW008 BKN016 OVC020 M09/M12 A2983 RMK SC2SC3SC2 SLP171=

CYYC;2005-03-17 18:00;METAR CYYC 171800Z 35014KT 8SM -SN SCT015 BKN020 OVC100 M08/M12 A2984 RMK SC3SC3AC0 SLP176=

CYYC;2005-03-17 19:00;METAR CYYC 171900Z 35013KT 15SM -SN BKN023 OVC240 M08/M12 A2985 RMK SC6CI0 SLP177=

CYYC;2005-03-17 19:37;SPECI CYYC 171937Z 36014KT 20SM SCT023 BKN085 OVC240 RMK CU4AC2CI0=

CYYC;2005-03-17 20:00;METAR CYYC 172000Z 36011G17KT 20SM FEW024 BKN093 BKN240 M07/M11 A2984 RMK CU2AC2CI1 SLP175=

CYYC;2005-03-17 21:00;METAR CYYC 172100Z 36008KT 20SM FEW030 SCT100 BKN240 M06/M11 A2984 RMK CU2AC2CI0 SLP173=

CYYC;2005-03-17 22:00;METAR CYYC 172200Z 36009KT 20SM FEW030 SCT100 BKN250 M06/M10 A2985 RMK CU2AC1CI0 SLP175=

CYYC;2005-03-18 00:00;METAR CYYC 180000Z 04004KT 20SM FEW030 FEW110 FEW240 M06/M12 A2985 RMK CU1AC2CI1 SLP177=

CYYC;2005-03-18 02:00;METAR CYYC 180200Z 11005KT 15SM FEW030 SCT043 BKN110 BKN240 M10/M12 A2985 RMK CU1SC2AC1CI0 SLP179=

CYYC;2005-03-18 04:00;METAR CYYC 180400Z 09004KT 15SM BKN045 BKN120 M11/M14 A2985 RMK SC2AC0 SLP184=

CYYC;2005-03-18 07:00;METAR CYYC 180700Z 09002KT 8SM BKN075 M10/M12 A2983 RMK AC7 VIRGA SLP172=

CYYC;2005-03-18 09:00;METAR CYYC 180900Z 07002KT 8SM OVC084 M10/M12 A2982 RMK AC7 VIRGA SLP166=

CYYC;2005-03-18 09:22;SPECI CYYC 180922Z 07002KT 5SM -SN OVC084 RMK AC8=

CYYC;2005-03-18 10:00;METAR CYYC 181000Z 00000KT 3SM -SN OVC080 M10/M12 A2983 RMK AC8 SLP168=

CYYC;2005-03-18 11:00;METAR CYYC 181100Z 36002KT 3SM -SN OVC046 M10/M12 A2983 RMK SN5SC3 SLP167=

CYYC;2005-03-18 11:51;SPECI CYYC 181151Z 04003KT 2SM -SN OVC040 RMK SN5SC3=

CYYC;2005-03-18 12:00;METAR CYYC 181200Z 04003KT 2SM -SN OVC040 M09/M11 A2983 RMK SN5SC3 SLP168=

CYYC;2005-03-18 13:17;SPECI CYYC 181317Z 05004KT 3SM -SN BKN025 OVC067 RMK SC4AC4=

CYYC;2005-03-18 13:44;SPECI CYYC 181344Z 04004KT 1 1/2SM -SN OVC027 RMK SN5SC3=

CYYC;2005-03-18 14:32;SPECI CYYC 181432Z 05004KT 1 1/4SM -SN BKN012 OVC026 RMK SN6SC2SC1=

CYYC;2005-03-18 15:00;METAR CYYC 181500Z 04005KT 1SM -SN BKN014 OVC028 M09/M11 A2986 RMK SN6SC2SC1 RVR RWY34 6000 FT SLP185=

CYYC;2005-03-18 16:00;METAR CYYC 181600Z 03004KT 3/4SM -SN BKN006 OVC015 M09/M11 A2988 RMK SN6SC1SC1 RVR RWY34 5000 FT /S01/ SLP191=

CYYC;2005-03-18 16:50;SPECI CYYC 181650Z 02005KT 2 1/2SM -SN BKN013 BKN028 OVC038 RMK SC5SC2SC1=

CYYC;2005-03-18 17:00;METAR CYYC 181700Z 01006KT 2 1/2SM -SN BKN014 OVC030 M09/M11 A2988 RMK SC6SC2 SLP193=

CYYC;2005-03-18 17:49;SPECI CYYC 181749Z 36008KT 1 1/4SM -SN BKN012 OVC027 RMK SC6SC2=

CYYC;2005-03-18 18:00;METAR CYYC 181800Z 36007KT 1 1/4SM -SN BKN012 OVC027 M08/M11 A2990 RMK SC6SC2 /S02/ SLP197=

CYYC;2005-03-18 18:47;SPECI CYYC 181847Z 36011KT 6SM -SN BKN018 OVC024 RMK SC6SC2=

CYYC;2005-03-18 22:11;SPECI CYYC 182211Z 36015KT 15SM FEW025 BKN065 OVC090 RMK SC2SC4AC2=

CYYC;2005-03-18 23:00;METAR CYYC 182300Z 02012G17KT 12SM FEW020 BKN064 OVC078 M08/M12 A2991 RMK SC2SC4AC2 PCPN DIS S SLP200=

CYYC;2005-03-18 23:28;SPECI CYYC 182328Z 02013KT 12SM -SN FEW020 SCT064 OVC080 RMK SC1SC3AC3 SN VRY LGT=

CYYC;2005-03-19 02:34;SPECI CYYC 190234Z 04004KT 12SM FEW040 BKN059 OVC080 RMK SC2SC2AC2 VIRGA=

CYYC;2005-03-19 03:00;METAR CYYC 190300Z 04004KT 5SM -SN BKN042 BKN060 M11/M13 A2995 RMK SC5SC2 SLP219=

CYYC;2005-03-19 04:00;METAR CYYC 190400Z 00000KT 5SM -SN FEW015 SCT040 BKN064 OVC130 M11/M13 A2996 RMK SC2SC2SC2AC1 SLP221=

CYYC;2005-03-19 05:14;SPECI CYYC 190514Z 30004KT 5SM -SN FEW008 SCT030 SCT080 SCT130 RMK SC2SC1AC1AC1=

CYYC;2005-03-19 07:00;METAR CYYC 190700Z 32006KT 10SM -SN FEW014 FEW100 M15/M17 A2995 RMK SC1AC2 SLP220=

CYYC;2005-03-19 09:00;METAR CYYC 190900Z 33005KT 6SM -SN FEW012 BKN020 BKN100 M16/M17 A2994 RMK SC1SC5AC1 SLP219=

CYYC;2005-03-19 10:00;METAR CYYC 191000Z 33005KT 7SM -SN OVC020 M15/M17 A2994 RMK SC7 SLP219=

CYYC;2005-03-19 10:43;SPECI CYYC 191043Z 36003KT 5SM IC FEW007 OVC020 RMK SC1SC7 FROIN=

CYYC;2005-03-19 11:00;METAR CYYC 191100Z 34003KT 5SM IC FEW004 BKN021 OVC054 M14/M16 A2993 RMK SC1SC6SC1 SLP217=

CYYC;2005-03-19 11:36;SPECI CYYC 191136Z 31003KT 4SM -SN FEW007 BKN023 BKN130 RMK SC1SC5AC1 FROIN=

CYYC;2005-03-19 12:00;METAR CYYC 191200Z 31005KT 3SM -SN FEW009 BKN023 BKN064 OVC130 M14/M15 A2993 RMK SC2SC5SC1AC1 SN CVR/MUCH LOOSE SLP213=

CYYC;2005-03-19 13:00;METAR CYYC 191300Z 32006KT 3SM -SN BKN022 OVC049 M14/M15 A2994 RMK SC5SC3 SLP215=

CYYC;2005-03-19 14:00;METAR CYYC 191400Z 32005KT 3SM -SN BR BKN020 BKN049 M14/M16 A2994 RMK SC5SC1 SLP216=

CYYC;2005-03-19 16:00;METAR CYYC 191600Z 35007KT 1 1/2SM -SN FEW012 BKN040 OVC080 M12/M14 A2993 RMK SC2SC3AC1 SLP218=

CYYC;2005-03-19 16:48;SPECI CYYC 191648Z 36005KT 5SM -SN FEW020 BKN040 BKN085 RMK SC2SC3AC1=

CYYC;2005-03-19 20:00;METAR CYYC 192000Z 02007KT 3SM -SN OVC020 M09/M13 A2989 RMK SC7 SLP204=

CYYC;2005-03-19 22:00;METAR CYYC 192200Z 08006KT 6SM -SN OVC027 M08/M13 A2987 RMK SC8 SLP197=

CYYC;2005-03-20 00:00;METAR CYYC 200000Z 09008KT 3SM -SN FEW015 OVC030 M08/M11 A2986 RMK SC2SC6 SLP188=

CYYC;2005-03-20 01:47;SPECI CYYC 200147Z 10008KT 2SM -SN FEW010 OVC033 RMK SC1SC7=

CYYC;2005-03-20 02:00;METAR CYYC 200200Z 10007KT 2 1/2SM -SN FEW013 OVC034 M09/M11 A2984 RMK SC1SC7 SLP182=

CYYC;2005-03-20 03:00;METAR CYYC 200300Z 10007KT 3SM -SN FEW010 OVC035 M09/M11 A2983 RMK SC1SC8 SLP179=

CYYC;2005-03-20 03:17;SPECI CYYC 200317Z 10006KT 2SM -SN FEW009 SCT020 OVC028 RMK SC2SC2SC5=

CYYC;2005-03-20 03:29;SPECI CYYC 200329Z 09007KT 1SM -SN BKN005 OVC016 RMK SN2SC3SC2 RVR RWY16 6000+FT=

CYYC;2005-03-20 03:43;SPECI CYYC 200343Z 09006KT 3/4SM -SN BKN004 OVC013 RMK SN5SC2SC1 RVR RWY16 6000+FT=

CYYC;2005-03-20 04:00;METAR CYYC 200400Z 10006KT 3/4SM -SN BKN004 OVC015 M09/M10 A2981 RMK SN5SC2SC1 RVR RWY16 6000+FT SLP173=

CYYC;2005-03-20 04:21;SPECI CYYC 200421Z 10006KT 1 1/2SM -SN BKN009 OVC025 RMK SC5SC3=

CYYC;2005-03-20 04:30;SPECI CYYC 200430Z 10005KT 3SM -SN BKN011 BKN025 OVC095 RMK SC5SC2AC1=

CYYC;2005-03-20 07:00;METAR CYYC 200700Z 15006KT 1 1/4SM -SN BKN007 OVC020 M09/M11 A2976 RMK SN2SC4SC2 SLP150=

CYYC;2005-03-20 09:00;METAR CYYC 200900Z 14005KT 1 1/2SM -SN BKN008 OVC025 M10/M11 A2971 RMK SN2SC4SC2 SLP131=

CYYC;2005-03-20 10:00;METAR CYYC 201000Z 14005KT 1 1/2SM -SN BKN008 OVC025 M10/M11 A2969 RMK SN2SC4SC2 SLP124=

CYYC;2005-03-20 13:00;METAR CYYC 201300Z 14005KT 5SM -SN FEW008 OVC035 M10/M12 A2965 RMK SC2SC5 PCPN VRY LGT SLP108=

CYYC;2005-03-20 13:15;SPECI CYYC 201315Z 15007KT 5SM BR BKN008 OVC035 RMK SC5SC2=

CYYC;2005-03-20 13:53;SPECI CYYC 201353Z 17007KT 5SM BR SCT005 BKN013 OVC035 RMK SC3SC2SC1=

CYYC;2005-03-20 14:00;METAR CYYC 201400Z 15006KT 5SM BR SCT005 BKN013 BKN035 M10/M12 A2964 RMK SC3SC2SC1 SLP104=

CYYC;2005-03-20 14:39;SPECI CYYC 201439Z 16009KT 6SM BR SCT005 BKN035 BKN120 RMK SC2SC1AC2=

CYYC;2005-03-20 15:00;METAR CYYC 201500Z 16010KT 4SM BR BKN008 BKN035 BKN120 BKN160 M10/M12 A2963 RMK SC3SC1AC1AC1 SLP103=

CYYC;2005-03-20 16:00;METAR CYYC 201600Z 17008KT 5SM BR BKN008 BKN035 BKN120 BKN160 M10/M12 A2963 RMK SC3SC1AC1AC1 LWR AC TR SLP102=

CYYC;2005-03-20 17:00;METAR CYYC 201700Z 16010KT 7SM FEW008 SCT035 BKN120 BKN160 M09/M12 A2963 RMK SC1SC2AC1AC2 SLP102=

CYYC;2005-03-20 22:00;METAR CYYC 202200Z 16009KT 20SM FEW080 FEW140 BKN160 M06/M10 A2960 RMK AC1AC1AC6 SLP088=

CYYC;2005-03-20 23:00;METAR CYYC 202300Z 14009KT 20SM FEW080 FEW140 BKN160 BKN220 M05/M09 A2961 RMK AC1AC1AC2CI0 SLP093=

CYYC;2005-03-21 00:00;METAR CYYC 210000Z 14010KT 20SM FEW080 FEW140 BKN160 BKN220 M05/M09 A2962 RMK AC1AC1AC2CI0 SLP095=

CYYC;2005-03-21 03:00;METAR CYYC 210300Z 13005KT 7SM FEW080 FEW230 M08/M10 A2967 RMK AC1CI0 SLP116=

CYYC;2005-03-21 04:00;METAR CYYC 210400Z 12005KT 4SM BR FEW012 FEW080 FEW230 M09/M10 A2968 RMK SC2AC1CI0 SLP119=

CYYC;2005-03-21 04:16;SPECI CYYC 210416Z 12005KT 4SM BR FEW007 BKN011 BKN080 RMK SC2SC3AC1=

CYYC;2005-03-21 05:00;METAR CYYC 210500Z 09006KT 3SM BR OVC008 M06/M07 A2968 RMK SC8 SLP120=

CYYC;2005-03-21 06:00;METAR CYYC 210600Z 13005KT 1 1/4SM BR OVC006 M06/M07 A2969 RMK SC8 SLP119=

CYYC;2005-03-21 06:26;SPECI CYYC 210626Z 12005KT 1SM BR BKN002 OVC006 RMK SC6SC2 RVR RWY16 6000+FT=

CYYC;2005-03-21 07:00;METAR CYYC 210700Z 12003KT 1 1/2SM BR BKN002 OVC006 M06/M07 A2969 RMK SC6SC2 SLP120=

CYYC;2005-03-21 08:19;SPECI CYYC 210819Z 00000KT 1/2SM FZFG OVC002 RMK FG5ST3 RVR RWY16 4500FT / FROIN=

CYYC;2005-03-21 09:00;METAR CYYC 210900Z 14003KT 1/2SM FZFG OVC002 M07/M07 A2971 RMK FG5ST3 RVR RWY16 3000FT SLP123=

CYYC;2005-03-21 10:00;METAR CYYC 211000Z 07004KT 1/4SM FZFG VV001 M07/M07 A2970 RMK FG8 RVR RWY16 2000FT SLP121=

CYYC;2005-03-21 11:41;SPECI CYYC 211141Z 06003KT 3/8SM FZFG VV001 RMK FG8 RVR RWY16 2400FT / FROIN=

CYYC;2005-03-21 12:00;METAR CYYC 211200Z 00000KT 3/8SM FZFG VV001 M07/M08 A2972 RMK FG8 RVR RWY16 2600FT / SN CVR/ MUCH LOOSE SLP125=

CYYC;2005-03-21 12:43;SPECI CYYC 211243Z 31002KT 1/4SM -SG FZFG VV001 RMK FG8 RVR RWY16 3000FT=

CYYC;2005-03-21 14:39;SPECI CYYC 211439Z 03003KT 1/4SM FZFG VV001 RMK FG8 RVR RWY34 1400FT=

CYYC;2005-03-21 16:00;METAR CYYC 211600Z 09002KT 1/4SM -SG FZFG VV001 M06/M06 A2973 RMK FG8 RVR RWY16 1600FT / PCPN VRY LGT SLP131=

CYYC;2005-03-21 16:24;SPECI CYYC 211624Z 13002KT 1 1/4SM BR OVC005 RMK FG2ST6 RVR RWY16 2400FT=

CYYC;2005-03-21 16:38;SPECI CYYC 211638Z 09002KT 3SM BR OVC003 RMK FG2ST6 RVR RWY16 2400FT / VIS NW-E 3/4=

CYYC;2005-03-21 17:00;METAR CYYC 211700Z 11002KT 1 1/2SM BR OVC005 M05/M06 A2973 RMK FG2ST6 VIS SW-NW 3 SLP132=

CYYC;2005-03-21 17:43;SPECI CYYC 211743Z 11002KT 3SM BR BKN005 OVC250 RMK ST6CI0 VIS N-SE 11/2=

CYYC;2005-03-21 19:00;METAR CYYC 211900Z 08004KT 3SM BR OVC004 M04/M04 A2972 RMK ST6 SLP125=

CYYC;2005-03-21 19:53;SPECI CYYC 211953Z 10006KT 4SM BR OVC005 OVC150 RMK ST4AC2=

CYYC;2005-03-21 21:00;METAR CYYC 212100Z 08006KT 5SM BR BKN006 OVC150 M02/M04 A2972 RMK ST3AC4 SLP119=

CYYC;2005-03-21 22:00;METAR CYYC 212200Z 04007KT 8SM FEW009 FEW080 BKN110 BKN210 M01/M03 A2972 RMK ST0AC1AC6CI1 LWR AC+CI TR SLP120=

CYYC;2005-03-21 22:19;SPECI CYYC 212219Z 02011KT 8SM BKN006 OVC110 RMK ST6AC1=

CYYC;2005-03-21 23:00;METAR CYYC 212300Z 36014KT 4SM BR OVC006 M02/M04 A2973 RMK ST8 SLP124=

CYYC;2005-03-21 23:33;SPECI CYYC 212333Z 35019KT 3SM BR OVC004 RMK ST8=

CYYC;2005-03-22 00:17;SPECI CYYC 220017Z 35024KT 1 1/2SM -SG BR OVC003 RMK ST8=

CYYC;2005-03-22 00:26;SPECI CYYC 220026Z 35021G28KT 1 1/4SM -SG BR OVC003 RMK FG2ST6=

CYYC;2005-03-22 00:40;SPECI CYYC 220040Z 35022G28KT 2SM -SG BR OVC003 RMK ST8=

CYYC;2005-03-22 01:00;METAR CYYC 220100Z 34023G28KT 2 1/2SM -SG BR BKN005 OVC013 M03/M04 A2982 RMK ST6SC2 SLP156=

CYYC;2005-03-22 01:08;SPECI CYYC 220108Z 34020G28KT 3SM -SN BR BKN005 OVC013 RMK ST5SC3=

CYYC;2005-03-22 02:13;SPECI CYYC 220213Z 34017G22KT 1 1/2SM -SN OVC009 RMK SC8=

CYYC;2005-03-22 04:00;METAR CYYC 220400Z 31015KT 1 1/4SM -SN DRSN OVC026 M03/M05 A2989 RMK SC8 SLP181=

CYYC;2005-03-22 04:36;SPECI CYYC 220436Z 32012KT 1 1/4SM -SN DRSN BKN009 OVC018 RMK SC6SC2=

CYYC;2005-03-22 05:00;METAR CYYC 220500Z 31018KT 1 1/2SM -SN DRSN FEW009 BKN033 OVC052 M04/M06 A2990 RMK SC2SC6SC1 SLP184=

CYYC;2005-03-22 08:00;METAR CYYC 220800Z 32012G17KT 12SM -SN FEW030 BKN098 OVC110 M04/M07 A2994 RMK SC1AC6AC2 SLP195=

CYYC;2005-03-22 09:00;METAR CYYC 220900Z 33010KT 15SM -SN FEW040 BKN160 M06/M09 A2995 RMK SC1AC5 SN VRY LGT SLP198=

CYYC;2005-03-22 10:00;METAR CYYC 221000Z 34009KT 15SM -SN BKN020 OVC120 M06/M09 A2995 RMK SC5AC2 SN VRY LGT SLP198=

CYYC;2005-03-22 11:00;METAR CYYC 221100Z 32012KT 15SM SCT018 BKN120 M07/M09 A2995 RMK SC3AC1 SLP199=

CYYC;2005-03-22 13:00;METAR CYYC 221300Z 33010KT 15SM FEW078 SCT093 M07/M09 A2996 RMK AC1AC2 SLP207=

CYYC;2005-03-22 14:49;SPECI CYYC 221449Z 33006KT 15SM -SG BKN019 BKN041 OVC120 RMK ST1SC5AC2=

CYYC;2005-03-22 15:00;METAR CYYC 221500Z 33007KT 15SM -SG BKN019 BKN041 OVC120 M07/M09 A2999 RMK ST1SC5AC2 SLP214=

CYYC;2005-03-22 16:00;METAR CYYC 221600Z 34019KT 8SM -SN SCT019 SCT041 BKN070 M06/M09 A2999 RMK SC2SC1AC1 PCPN VRY LGT / AC TR SLP215=

CYYC;2005-03-22 17:00;METAR CYYC 221700Z 35014KT 15SM -SN BKN017 BKN070 M05/M08 A2999 RMK SC4AC1 SLP216=

CYYC;2005-03-22 19:48;SPECI CYYC 221948Z 35016G24KT 20SM FEW017 BKN077 RMK SC2AC2=

CYYC;2005-03-22 21:00;METAR CYYC 222100Z 36019G26KT 20SM FEW022 SCT078 M05/M10 A2999 RMK SC1AC1 SLP217=

CYYC;2005-03-22 22:00;METAR CYYC 222200Z 36022KT 20SM FEW024 FEW080 FEW240 M05/M11 A2998 RMK SC1AC1CI0 SLP215=

CYYC;2005-03-23 00:00;METAR CYYC 230000Z 35018KT 20SM FEW024 FEW080 M06/M10 A3000 RMK SC1AC1 SLP223=

CYYC;2005-03-23 01:00;METAR CYYC 230100Z 36017KT 20SM FEW020 FEW075 M07/M12 A3000 RMK SC1AC1 SLP225=

CYYC;2005-03-23 02:00;METAR CYYC 230200Z 36013G18KT 20SM FEW020 FEW075 FEW120 M08/M12 A3001 RMK SC1AC1AC0 SLP228=

CYYC;2005-03-23 04:00;METAR CYYC 230400Z 36013KT 15SM FEW018 FEW080 SCT120 SCT220 M10/M12 A3005 RMK SC1AC1AC0CI1 SLP244=

CYYC;2005-03-23 05:17;SPECI CYYC 230517Z 34013KT 15SM -SN FEW020 BKN030 BKN070 OVC220 RMK SC1SC5AC2CI0 PCPN VRY LGT=

CYYC;2005-03-23 06:47;SPECI CYYC 230647Z 34018KT 15SM FEW020 SCT065 SCT200 RMK SC1SC2CI0=

CYYC;2005-03-23 07:45;SPECI CYYC 230745Z 33015KT 15SM -SN FEW020 BKN072 BKN200 RMK SC1AC5CI1=

CYYC;2005-03-23 08:00;METAR CYYC 230800Z 34015KT 15SM -SN FEW020 BKN070 BKN200 M10/M13 A3005 RMK SC2AC4CI1 SLP243=

CYYC;2005-03-23 09:00;METAR CYYC 230900Z 33016KT 10SM -SN BKN037 OVC070 M10/M13 A3006 RMK SC6AC2 SLP247=

CYYC;2005-03-23 10:00;METAR CYYC 231000Z 33013G18KT 10SM -SN SCT025 BKN064 OVC100 M10/M13 A3006 RMK SC3SC2AC2 SLP247=

CYYC;2005-03-23 10:37;SPECI CYYC 231037Z 32016KT 2 1/2SM -SN SCT010 OVC022 RMK SC3SC4=

CYYC;2005-03-23 11:00;METAR CYYC 231100Z 32015KT 3SM -SN FEW009 BKN022 OVC057 M10/M13 A3006 RMK SC2SC5SC1 SLP247=

CYYC;2005-03-23 13:00;METAR CYYC 231300Z 32013KT 15SM -SN FEW020 BKN054 OVC120 M11/M14 A3007 RMK SC1SC6AC2 PCPN VRY LGT SLP253=

CYYC;2005-03-23 14:00;METAR CYYC 231400Z 33013KT 10SM -SN SCT020 BKN065 OVC140 M11/M14 A3008 RMK SC3SC3AS0 SLP256=

CYYC;2005-03-23 16:00;METAR CYYC 231600Z 34015G20KT 10SM -SN DRSN FEW018 BKN060 BKN130 M10/M13 A3007 RMK SC2SC2AS1 SLP261=

CYYC;2005-03-23 17:00;METAR CYYC 231700Z 34015KT 10SM -SN DRSN FEW018 BKN042 OVC130 M09/M13 A3008 RMK SC1SC4AC1 SLP264=

CYYC;2005-03-23 18:00;METAR CYYC 231800Z 35015G21KT 5SM -SN DRSN BKN017 OVC028 M09/M12 A3009 RMK SC5SC3 SLP265=

CYYC;2005-03-23 18:18;SPECI CYYC 231818Z 36014KT 5SM -SN DRSN BKN007 OVC016 RMK SC5SC3=

CYYC;2005-03-23 18:44;SPECI CYYC 231844Z 35015KT 4SM -SN DRSN FEW007 BKN016 OVC022 RMK SC2SC3SC2=

CYYC;2005-03-23 19:00;METAR CYYC 231900Z 35014KT 3SM -SN DRSN FEW007 BKN015 OVC024 M08/M11 A3011 RMK SC2SC3SC2 SLP269=

CYYC;2005-03-23 19:15;SPECI CYYC 231915Z 35013KT 2 1/4SM -SN DRSN BKN013 OVC022 RMK SC5SC3=

CYYC;2005-03-23 20:00;METAR CYYC 232000Z 35012KT 2SM -SN FEW007 BKN014 OVC024 M08/M11 A3011 RMK SC1SC6SC1 SLP270=

CYYC;2005-03-23 20:52;SPECI CYYC 232052Z 36010KT 3/4SM -SN BKN009 OVC018 RMK SC5SC3 RVR RWY36 6000+FT=

CYYC;2005-03-23 21:00;METAR CYYC 232100Z 36011KT 3/4SM -SN BKN009 OVC018 M08/M10 A3011 RMK SC5SC3 RVR RWY36 6000+FT SLP271=

CYYC;2005-03-23 21:52;SPECI CYYC 232152Z 02008KT 1 1/2SM -SN SCT008 OVC014 RMK SC3SC5=

CYYC;2005-03-23 22:00;METAR CYYC 232200Z 02010KT 1 1/2SM -SN SCT009 BKN014 OVC028 M07/M10 A3011 RMK SC3SC3SC1 SLP271=

CYYC;2005-03-23 23:29;SPECI CYYC 232329Z 02011KT 5SM -SHSN BKN012 BKN058 RMK CU4SC1=

CYYC;2005-03-23 23:48;SPECI CYYC 232348Z 02010KT 7SM VCSH SCT015 SCT060 BKN250 RMK CU3SC1CI0 SHS SW=

CYYC;2005-03-24 00:00;METAR CYYC 240000Z 02012KT 5SM -SHSN SCT015 SCT060 BKN230 M08/M11 A3011 RMK CU3SC1CI0 SLP273=

CYYC;2005-03-24 01:26;SPECI CYYC 240126Z 03006KT 10SM FEW024 FEW120 BKN220 RMK CU2AC1CI1=

CYYC;2005-03-24 02:00;METAR CYYC 240200Z 05004KT 6SM -SN FEW020 SCT120 SCT220 M10/M12 A3014 RMK SC2AC1CI0 SLP281=

CYYC;2005-03-24 04:00;METAR CYYC 240400Z 05004KT 8SM -SN BKN020 OVC120 M11/M12 A3017 RMK SC6AC1 SLP298=

CYYC;2005-03-24 04:49;SPECI CYYC 240449Z 04007KT 2SM -SN BKN022 OVC050 RMK SC6SC1=

CYYC;2005-03-24 05:40;SPECI CYYC 240540Z 01003KT 3SM -SN BKN021 BKN050 OVC240 RMK SC5SC1CI0=

CYYC;2005-03-24 06:00;METAR CYYC 240600Z 02003KT 4SM -SN BKN021 BKN050 OVC240 M12/M14 A3019 RMK SC5SC1CI0 SLP303=

CYYC;2005-03-24 10:00;METAR CYYC 241000Z 00000KT 5SM BR SCT016 SCT050 M12/M13 A3018 RMK SC2SC1 SLP301=

CYYC;2005-03-24 10:31;SPECI CYYC 241031Z 14002KT 4SM -SN BR BKN014 BKN050 RMK SC5SC1=

CYYC;2005-03-24 11:55;SPECI CYYC 241155Z 15006KT 5SM -SN BR OVC012 RMK SC8=

CYYC;2005-03-24 12:37;SPECI CYYC 241237Z 15006KT 5SM -SN BR BKN009 OVC040 RMK SC6SC2=

CYYC;2005-03-24 13:00;METAR CYYC 241300Z 15006KT 5SM -SN BR BKN009 OVC040 M11/M13 A3018 RMK SC7SC1 SLP297=

CYYC;2005-03-24 13:32;SPECI CYYC 241332Z 18006KT 2SM -SN OVC010 RMK SC8=

CYYC;2005-03-24 14:00;METAR CYYC 241400Z 17009KT 4SM -SN BKN012 BKN040 M11/M13 A3018 RMK SC6SC1 SLP296=

CYYC;2005-03-24 15:00;METAR CYYC 241500Z 18008KT 4SM -SN BKN012 BKN040 M11/M13 A3017 RMK SC5SC2 SLP297=

CYYC;2005-03-24 16:00;METAR CYYC 241600Z 18011KT 5SM -SN BKN011 M10/M12 A3016 RMK SC5 SLP296=

CYYC;2005-03-24 16:13;SPECI CYYC 241613Z 17011KT 6SM -SN BR BKN010 RMK SC4=

CYYC;2005-03-24 17:00;METAR CYYC 241700Z 17009KT 6SM -SN FEW010 FEW140 M10/M12 A3016 RMK SC2AC1 PCPN VRY LGT SLP294=

CYYC;2005-03-24 17:32;SPECI CYYC 241732Z 16010KT 8SM FEW010 FEW140 FEW230 RMK SC1AC1CI0=

CYYC;2005-03-24 18:00;METAR CYYC 241800Z 16009KT 10SM FEW010 FEW060 FEW140 SCT230 M08/M12 A3014 RMK SC1SC1AC1CI0 SLP285=

CYYC;2005-03-24 19:00;METAR CYYC 241900Z 14016KT 20SM FEW010 FEW060 SCT160 BKN250 M07/M11 A3012 RMK SC1SC2AC1CI0 SLP279=

CYYC;2005-03-24 20:00;METAR CYYC 242000Z 15015KT 20SM FEW020 FEW160 SCT250 M06/M10 A3011 RMK CU1AC2CI0 SLP274=

CYYC;2005-03-24 21:00;METAR CYYC 242100Z 14016G22KT 20SM FEW020 SCT170 BKN250 M06/M10 A3009 RMK CU1AS3CI2 SLP266=

CYYC;2005-03-24 22:00;METAR CYYC 242200Z 16015KT 20SM FEW022 FEW130 BKN170 BKN250 M05/M10 A3007 RMK CU1AC2AS2CI1 SLP259=

CYYC;2005-03-25 00:00;METAR CYYC 250000Z 17014G21KT 30SM SCT020 BKN130 BKN250 M05/M10 A3004 RMK CU3AC2CI1 SLP242=

CYYC;2005-03-25 01:00;METAR CYYC 250100Z 16010G18KT 30SM FEW020 SCT150 BKN250 M06/M10 A3001 RMK CU2AC1CI1 SLP234=

CYYC;2005-03-25 03:00;METAR CYYC 250300Z 17014KT 15SM FEW013 SCT120 SCT180 M07/M10 A2997 RMK SC1AC2AC1 SLP223=

CYYC;2005-03-25 04:00;METAR CYYC 250400Z 17017KT 15SM FEW013 SCT180 SCT240 M08/M12 A2996 RMK SC1AC2CI0 SLP220=

CYYC;2005-03-25 05:00;METAR CYYC 250500Z 17013KT 15SM SCT150 BKN240 M08/M12 A2995 RMK AC2CI0 SLP217=

CYYC;2005-03-25 08:00;METAR CYYC 250800Z 18008KT 15SM FEW020 FEW170 SCT240 M09/M12 A2991 RMK SC1AC2CI0 SLP201=

CYYC;2005-03-25 09:00;METAR CYYC 250900Z 19005KT 15SM FEW020 SCT170 BKN240 M10/M12 A2990 RMK SC1AC2CI1 SLP194=

CYYC;2005-03-25 10:00;METAR CYYC 251000Z 23006KT 15SM BKN130 BKN180 M09/M12 A2988 RMK AC3AC2 SLP189=

CYYC;2005-03-25 11:00;METAR CYYC 251100Z 20003KT 15SM FEW080 FEW130 M10/M13 A2987 RMK AC1AC2 SLP186=

CYYC;2005-03-25 16:00;METAR CYYC 251600Z 36006KT 40SM FEW180 SCT250 M01/M07 A2988 RMK AC2CI0 SLP180=

CYYC;2005-03-25 17:00;METAR CYYC 251700Z 34012KT 40SM SCT130 BKN250 01/M06 A2988 RMK AC2CI1 SLP182=

CYYC;2005-03-25 18:00;METAR CYYC 251800Z 33010KT 40SM SCT140 BKN250 01/M06 A2989 RMK AC3CI1 SLP179=

CYYC;2005-03-25 19:00;METAR CYYC 251900Z 35010KT 40SM BKN130 BKN240 02/M06 A2990 RMK AC4CI1 SLP180=

CYYC;2005-03-25 21:00;METAR CYYC 252100Z 01011KT 40SM BKN140 BKN240 03/M07 A2988 RMK AC3CI0 SLP176=

CYYC;2005-03-25 22:00;METAR CYYC 252200Z 05007KT 40SM SCT140 BKN240 04/M07 A2989 RMK AC2CI1 SLP178=

CYYC;2005-03-25 23:00;METAR CYYC 252300Z 06003KT 40SM FEW160 SCT240 04/M08 A2989 RMK AC2CI1 SLP179=

CYYC;2005-03-26 00:00;METAR CYYC 260000Z 12007KT 40SM FEW160 FEW240 04/M07 A2989 RMK AC1CI0 SLP175=

CYYC;2005-03-26 01:00;METAR CYYC 260100Z 13008KT 40SM FEW160 FEW240 03/M07 A2988 RMK AC1CI1 AC+CI TR SLP174=

CYYC;2005-03-26 03:00;METAR CYYC 260300Z 15006KT 15SM FEW140 FEW200 M00/M06 A2989 RMK AC1CI1 SLP175=

CYYC;2005-03-26 05:00;METAR CYYC 260500Z 20006KT 15SM FEW100 M03/M07 A2991 RMK AC1 SLP182=

CYYC;2005-03-26 10:00;METAR CYYC 261000Z 00000KT 15SM FEW180 M04/M08 A2985 RMK AC1 SLP156=

CYYC;2005-03-26 12:00;METAR CYYC 261200Z 20004KT 15SM FEW080 FEW160 FEW240 M03/M08 A2983 RMK AC1AC1CI0 SN CVR / TRACE LOOSE SLP144=

CYYC;2005-03-26 14:00;METAR CYYC 261400Z 23004KT 40SM FEW080 SCT120 BKN260 M04/M08 A2979 RMK AC1AC1CI1 SLP132=

CYYC;2005-03-26 15:00;METAR CYYC 261500Z 00000KT 40SM FEW080 BKN190 BKN250 M01/M06 A2976 RMK AC1AC1CI6 SLP123=

CYYC;2005-03-26 16:00;METAR CYYC 261600Z 17004KT 40SM FEW080 BKN180 BKN250 02/M05 A2972 RMK AC1AC3CI4 VIRGA SLP111=

CYYC;2005-03-26 19:00;METAR CYYC 261900Z 20004KT 40SM FEW080 FEW160 BKN190 OVC210 03/M06 A2959 RMK AC1AC2AC2CI5 SLP067=

CYYC;2005-03-26 20:00;METAR CYYC 262000Z 17007KT 40SM FEW080 FEW160 BKN190 OVC220 05/M05 A2955 RMK AC1AC1AC2CI6 SLP055=

CYYC;2005-03-26 21:00;METAR CYYC 262100Z 18005KT 40SM FEW080 FEW150 FEW190 OVC220 07/M03 A2950 RMK AC1AC1AC1CI6 SLP028=

CYYC;2005-03-26 22:00;METAR CYYC 262200Z 17005KT 40SM FEW080 FEW120 FEW190 OVC220 09/M02 A2950 RMK AC1AC1AC1CI7 SLP027=

CYYC;2005-03-26 23:00;METAR CYYC 262300Z 23005KT 30SM FEW080 FEW120 FEW190 BKN220 09/M03 A2948 RMK AC1AC1AC1CI6 SLP021=

CYYC;2005-03-27 00:00;METAR CYYC 270000Z 00000KT 30SM FEW080 FEW120 SCT180 BKN220 09/M04 A2948 RMK AC1AC1AC1CI6 SLP018=

CYYC;2005-03-27 04:00;METAR CYYC 270400Z 25022G34KT 15SM BKN230 05/M06 A2941 RMK CI6 SLP994=

CYYC;2005-03-27 06:00;METAR CYYC 270600Z 33006KT 15SM FEW180 FEW240 04/M07 A2950 RMK AC2CI0 SLP026=

CYYC;2005-03-27 08:00;METAR CYYC 270800Z 08004KT 15SM SCT230 02/M07 A2951 RMK CI2 SLP027=

CYYC;2005-03-27 10:00;METAR CYYC 271000Z 13004KT 15SM SCT210 03/M07 A2950 RMK CI2 SLP018=

CYYC;2005-03-27 12:00;METAR CYYC 271200Z 17002KT 15SM FEW190 SCT210 02/M06 A2948 RMK AC2CI1 SLP009=

CYYC;2005-03-27 13:00;METAR CYYC 271300Z 24002KT 40SM BKN180 OVC210 02/M07 A2947 RMK AC5CI2 SLP008=

CYYC;2005-03-27 14:00;METAR CYYC 271400Z 19002KT 40SM BKN160 OVC220 02/M06 A2950 RMK AC6CI1 SLP016=

CYYC;2005-03-27 15:00;METAR CYYC 271500Z 00000KT 40SM FEW080 BKN150 02/M05 A2946 RMK AC1AC7 SLP008=

CYYC;2005-03-27 16:00;METAR CYYC 271600Z 24004KT 40SM FEW070 BKN120 BKN150 04/M05 A2947 RMK AC1AC2AC5 SLP010=

CYYC;2005-03-27 22:00;METAR CYYC 272200Z 09004KT 30SM FEW070 SCT110 BKN210 BKN260 09/M06 A2938 RMK AC1AC1CI1CS6 SLP976=

CYYC;2005-03-28 00:00;METAR CYYC 280000Z 06004KT 40SM FEW080 FEW120 BKN200 BKN260 10/M04 A2934 RMK AC1AC1CI2CS5 SLP959=

CYYC;2005-03-28 02:00;METAR CYYC 280200Z 01006KT 40SM FEW080 FEW120 BKN190 BKN260 05/M05 A2932 RMK AC1AC1AC2CI1 SLP953=

CYYC;2005-03-28 04:00;METAR CYYC 280400Z 00000KT 15SM SCT240 01/M05 A2931 RMK CI2 SLP957=

CYYC;2005-03-28 08:00;METAR CYYC 280800Z 33003KT 15SM BKN210 02/M03 A2927 RMK CI4 SLP942=

CYYC;2005-03-28 09:00;METAR CYYC 280900Z 05005KT 15SM SCT130 BKN220 M01/M04 A2926 RMK AC3CI2 SLP936=

CYYC;2005-03-28 12:00;METAR CYYC 281200Z 32006KT 15SM BKN078 BKN160 OVC220 01/M02 A2922 RMK AC6AC1CI1 SLP919=

CYYC;2005-03-28 16:00;METAR CYYC 281600Z 31009KT 40SM VCSH BKN055 OVC120 05/M01 A2921 RMK SC6AC1 SH NW SLP922=

CYYC;2005-03-28 16:04;SPECI CYYC 281604Z 29007KT 40SM -SHRA BKN055 BKN120 RMK SC6AC1=

CYYC;2005-03-28 16:14;SPECI CYYC 281614Z 25005KT 40SM VCSH BKN055 BKN120 BKN180 RMK SC6AC1AC1=

CYYC;2005-03-28 17:00;METAR CYYC 281700Z 26005KT 40SM SCT055 BKN090 BKN130 BKN230 07/00 A2921 RMK SC2AC3AC1CI1 SH NE-SE SLP922=

CYYC;2005-03-28 18:00;METAR CYYC 281800Z 25004KT 40SM FEW055 FEW090 BKN130 BKN230 08/M01 A2921 RMK SC1AC1AC1CI0 SLP915=

CYYC;2005-03-28 19:00;METAR CYYC 281900Z 28005KT 40SM FEW050 SCT090 SCT130 10/M02 A2921 RMK SC1AC2AC1 SH DIST S-SW / CVCTV CLD DVLPING SLP913=

CYYC;2005-03-28 20:12;SPECI CYYC 282012Z 21013KT 40SM -SHRA BKN060 BKN070 BKN130 RMK SC6AC1AC1 CVCTV CLD EMBD=

CYYC;2005-03-28 20:36;SPECI CYYC 282036Z 17008KT 40SM BKN060 BKN070 BKN130 RMK SC5AC1AC2 SH DIST SE/ CVCTV CLD EMBD=

CYYC;2005-03-28 21:00;METAR CYYC 282100Z 18006KT 40SM BKN060 BKN080 BKN150 09/M02 A2920 RMK SC6AC1AC1 SH DIST E-SE+SW/ CVCTV CLD EMBD SLP916=

CYYC;2005-03-28 23:00;METAR CYYC 282300Z 27013KT 40SM FEW060 FEW080 BKN170 10/M06 A2920 RMK SC1AC1AC4 SLP916=

CYYC;2005-03-29 00:00;METAR CYYC 290000Z 27017KT 40SM FEW065 BKN190 BKN220 10/M06 A2921 RMK SC1AC2CI0 SLP914=

CYYC;2005-03-29 01:00;METAR CYYC 290100Z 28017KT 40SM FEW065 FEW130 FEW190 08/M07 A2921 RMK SC1AC1AC1 SLP916=

CYYC;2005-03-29 03:00;METAR CYYC 290300Z 26005KT 15SM FEW065 FEW120 FEW200 04/M08 A2924 RMK SC1AC1CI1 SLP931=

CYYC;2005-03-29 04:00;METAR CYYC 290400Z 23010KT 15SM FEW120 03/M07 A2924 RMK AC1 SLP932=

CYYC;2005-03-29 05:00;METAR CYYC 290500Z 32003KT 15SM BKN190 02/M08 A2925 RMK AC2 SLP934=

CYYC;2005-03-29 06:00;METAR CYYC 290600Z 32009KT 15SM BKN180 01/M06 A2928 RMK AC6 SLP940=

CYYC;2005-03-29 07:00;METAR CYYC 290700Z 33009KT 15SM FEW120 BKN180 01/M04 A2929 RMK AC1AC7 CIG RAG SLP945=

CYYC;2005-03-29 08:00;METAR CYYC 290800Z 33008KT 15SM FEW120 BKN180 BKN210 M01/M04 A2929 RMK AC1AC5CI2 SLP944=

CYYC;2005-03-29 09:00;METAR CYYC 290900Z 24002KT 15SM FEW120 BKN170 BKN210 M01/M04 A2930 RMK AC1AC6CI2 VIRGA SLP950=

CYYC;2005-03-29 10:00;METAR CYYC 291000Z 30004KT 15SM FEW120 BKN170 BKN200 M02/M04 A2930 RMK AC1AC5CI2 VIRGA SLP950=

CYYC;2005-03-29 12:00;METAR CYYC 291200Z 21004KT 15SM FEW100 BKN150 M02/M04 A2930 RMK AC1AC6 VIRGA SLP951=

CYYC;2005-03-29 15:00;METAR CYYC 291500Z 24003KT 40SM FEW040 FEW160 SCT250 01/M04 A2933 RMK CU1AC2CI1 CU TR SLP964=

CYYC;2005-03-29 16:00;METAR CYYC 291600Z 27012KT 40SM FEW040 FEW120 SCT250 05/M07 A2933 RMK CU1AC2CI0 SLP966=

CYYC;2005-03-29 17:00;METAR CYYC 291700Z 27015G20KT 40SM FEW040 FEW120 SCT250 06/M09 A2934 RMK CU1AC2CI0 CU TR SLP969=

CYYC;2005-03-29 18:00;METAR CYYC 291800Z 27005KT 40SM FEW040 FEW250 07/M09 A2936 RMK CU2CI0 SLP972=

CYYC;2005-03-29 21:00;METAR CYYC 292100Z 34010G17KT 40SM SCT060 BKN086 07/M10 A2938 RMK CU3AC2 VIRGA E+SW SLP981=

CYYC;2005-03-29 22:00;METAR CYYC 292200Z 05008KT 40SM SCT065 BKN090 BKN240 08/M10 A2938 RMK CU3AC2CI0 VIRGA E+SW SLP981=

CYYC;2005-03-29 23:00;METAR CYYC 292300Z 01011KT 40SM SCT065 SCT090 08/M09 A2940 RMK CU3AC1 SLP987=

CYYC;2005-03-30 00:00;METAR CYYC 300000Z 01008KT 40SM FEW065 SCT090 BKN240 07/M08 A2942 RMK CU2AC2CI0 SLP998=

CYYC;2005-03-30 01:00;METAR CYYC 300100Z 03005KT 40SM FEW065 SCT100 BKN240 06/M07 A2943 RMK CU2AC2CI0 SLP001=

CYYC;2005-03-30 04:00;METAR CYYC 300400Z 36004KT 15SM FEW050 BKN094 BKN160 00/M06 A2949 RMK SC1AC4AC2 VIRGA SLP025=

CYYC;2005-03-30 05:00;METAR CYYC 300500Z 05004KT 15SM FEW060 BKN100 BKN160 01/M06 A2951 RMK SC2AC5AC1 VIRGA ALQDS SLP030=

CYYC;2005-03-30 08:00;METAR CYYC 300800Z 32002KT 15SM FEW040 OVC092 02/M05 A2955 RMK SC2AC3 VIRGA SLP030=

CYYC;2005-03-30 10:00;METAR CYYC 301000Z 00000KT 15SM FEW060 SCT120 01/M05 A2957 RMK SC2AC1 SLP044=

CYYC;2005-03-30 12:00;METAR CYYC 301200Z 11002KT 15SM FEW120 SCT160 BKN190 M02/M07 A2961 RMK AC1AC2AC2 SLP064=

CYYC;2005-03-30 13:00;METAR CYYC 301300Z 31002KT 40SM FEW120 FEW160 BKN190 00/M08 A2964 RMK AC1AC2AC3 SLP071=

CYYC;2005-03-30 14:00;METAR CYYC 301400Z 06005KT 40SM FEW040 FEW180 BKN250 M03/M07 A2966 RMK SC1AC2CI1 SLP080=

CYYC;2005-03-30 15:00;METAR CYYC 301500Z 33009KT 40SM FEW050 FEW150 BKN220 02/M06 A2970 RMK SC1AC2CI2 SC TR SLP098=

CYYC;2005-03-30 16:00;METAR CYYC 301600Z 33012KT 40SM FEW050 FEW110 BKN220 04/M07 A2973 RMK CU1AC2CI2 CU TR SLP109=

CYYC;2005-03-30 17:00;METAR CYYC 301700Z 34013KT 40SM FEW062 SCT110 BKN240 05/M07 A2976 RMK CU1AC2CI2 CU TR SLP118=

CYYC;2005-03-30 18:00;METAR CYYC 301800Z 36017G25KT 40SM FEW040 SCT110 BKN240 05/M06 A2979 RMK CU2AC2CI1 SLP119=

CYYC;2005-03-30 19:00;METAR CYYC 301900Z 36014G22KT 40SM SCT041 SCT110 BKN240 04/M07 A2982 RMK CU3AC1CI1 VIRGA SSW SLP126=

CYYC;2005-03-30 21:39;SPECI CYYC 302139Z 32018G24KT 4SM -SHSN BKN021 OVC032 RMK SC6SC2 TCU EMDB=

CYYC;2005-03-30 21:42;SPECI CYYC 302142Z 33020KT 1 1/2SM -SHSN BKN013 OVC027 RMK SC6SC2 TCU EMBD=

CYYC;2005-03-30 21:54;SPECI CYYC 302154Z 32018KT 1SM -SHSN OVC013 RMK SN5SC3 TCU EMBD/ RVR RWY34 6000 FT=

CYYC;2005-03-30 22:00;METAR CYYC 302200Z 33017G22KT 1SM -SHSN BKN007 OVC020 M01/M03 A2994 RMK SN6SC2SC1 TCU EMBD/ RVR RWY28 4500 FT SLP178=

CYYC;2005-03-30 22:06;SPECI CYYC 302206Z 33017KT 3/4SM -SHSN BKN007 OVC023 RMK SN6SC2SC1 TCU EMBD/ RVR RWY34 5500 FT=

CYYC;2005-03-30 22:19;SPECI CYYC 302219Z 34010G21KT 20SM FEW020 SCT040 OVC099 RMK CU1SC3AC3=

CYYC;2005-03-30 23:00;METAR CYYC 302300Z 30014KT 20SM FEW030 SCT045 BKN071 03/M05 A2995 RMK CU1SC2AC3 VIRGA SSW SLP180=

CYYC;2005-03-31 00:00;METAR CYYC 310000Z 31014KT 20SM FEW020 SCT040CB BKN098 04/M09 A2996 RMK CU1CB2AC3 VIRGA SSW SLP188=

CYYC;2005-03-31 01:00;METAR CYYC 310100Z 27010KT 20SM FEW035 FEW040CB BKN100 03/M05 A2998 RMK CU1CB1AC2 SLP195=

CYYC;2005-03-31 03:00;METAR CYYC 310300Z 32006KT 15SM BKN065 BKN090 02/M09 A3005 RMK SC3AC1 VIRGA ALQDS SLP217=

CYYC;2005-03-31 04:00;METAR CYYC 310400Z 27007KT 15SM FEW065 BKN093 01/M06 A3007 RMK SC1AC4 VIRGA ALQDS SLP226=

CYYC;2005-03-31 05:00;METAR CYYC 310500Z 22005KT 15SM FEW093 M02/M06 A3010 RMK AC1 SLP235=

CYYC;2005-03-31 06:00;METAR CYYC 310600Z 00000KT 15SM SKC M03/M07 A3013 RMK SLP247=

CYYC;2005-03-31 08:00;METAR CYYC 310800Z 30005KT 15SM SKC M03/M13 A3017 RMK SLP258=

CYYC;2005-03-31 10:00;METAR CYYC 311000Z 26005KT 15SM SKC M02/M13 A3020 RMK SLP274=

CYYC;2005-03-31 11:00;METAR CYYC 311100Z 20003KT 15SM SKC M02/M13 A3021 RMK SLP278=

CYYC;2005-03-31 12:00;METAR CYYC 311200Z 18005KT 15SM SKC M04/M12 A3023 RMK SLP285=

CYYC;2005-03-31 13:00;METAR CYYC 311300Z 21007KT 40SM FEW240 M05/M12 A3025 RMK CI0 SLP291=

CYYC;2005-03-31 14:00;METAR CYYC 311400Z 20004KT 40SM BKN130 BKN250 M02/M11 A3023 RMK AC1CI0 SLP287=

CYYC;2005-03-31 16:00;METAR CYYC 311600Z 21009KT 40SM FEW150 SCT250 02/M12 A3020 RMK AC2CI0 SLP274=

CYYC;2005-03-31 17:00;METAR CYYC 311700Z 19010KT 40SM FEW150 FEW250 04/M14 A3018 RMK AC1CI0 SLP268=

CYYC;2005-03-31 18:00;METAR CYYC 311800Z 18010G16KT 40SM FEW080 FEW150 BKN250 06/M13 A3014 RMK AC1AC2CI1 SLP250=

CYYC;2005-03-31 22:00;METAR CYYC 312200Z 25016KT 40SM FEW060 FEW090 FEW170 FEW240 11/M09 A3004 RMK CU1AC1AC1CI0 SLP210=

CYYC;2005-04-01 00:00;METAR CYYC 010000Z 27012G19KT 30SM FEW064 FEW150 FEW250 11/M08 A3002 RMK CU1AC1CI0 SLP205=

CYYC;2005-04-01 01:00;METAR CYYC 010100Z 26016G21KT 30SM FEW070 FEW160 SCT240 09/M08 A3001 RMK AC1AC1CI0 SLP200=

CYYC;2005-04-01 03:00;METAR CYYC 010300Z 25017KT 20SM FEW070 SCT140 BKN240 07/M08 A2999 RMK AC1AC2CI1 LWR AC TR SLP192=

CYYC;2005-04-01 05:00;METAR CYYC 010500Z 23006KT 15SM BKN230 04/M07 A2997 RMK CI3 SLP186=

CYYC;2005-04-01 10:00;METAR CYYC 011000Z 33009KT 15SM FEW140 FEW240 02/M06 A2982 RMK AC1CI0 SLP129=

CYYC;2005-04-01 11:00;METAR CYYC 011100Z 21006KT 15SM FEW140 FEW240 M00/M07 A2980 RMK AC1CI0 SLP122=

CYYC;2005-04-01 12:00;METAR CYYC 011200Z 20009KT 15SM SCT240 01/M06 A2977 RMK CI2 SLP109=

CYYC;2005-04-01 13:00;METAR CYYC 011300Z 19009KT 15SM SCT240 00/M06 A2975 RMK CI2 SLP102=

CYYC;2005-04-01 16:00;METAR CYYC 011600Z 00000KT 40SM FEW040 SCT190 BKN250 07/M04 A2967 RMK SC1AC3CI1 SLP076=

CYYC;2005-04-01 17:00;METAR CYYC 011700Z 04002KT 40SM FEW040 FEW100 BKN200 BKN250 09/M04 A2965 RMK SC1AC1CI2CI2 CU ASOCTD SLP072=

CYYC;2005-04-01 18:00;METAR CYYC 011800Z 21004KT 40SM FEW040 FEW100 BKN200 BKN250 12/M04 A2964 RMK CU1AC1CI2CI2 SLP058=

CYYC;2005-04-01 21:00;METAR CYYC 012100Z 25028G34KT 40SM FEW045 FEW140 SCT220 14/M05 A2958 RMK CU1AC2CI0 SLP036=

CYYC;2005-04-01 22:00;METAR CYYC 012200Z 24024G32KT 40SM FEW045 SCT150 BKN240 14/M06 A2955 RMK CU1AC3CI2 SLP029=

CYYC;2005-04-01 23:00;METAR CYYC 012300Z 26023G33KT 40SM FEW045 FEW150 SCT240 13/M06 A2954 RMK CU1AC2CI1 SLP026=

CYYC;2005-04-02 00:00;METAR CYYC 020000Z 25030G36KT 40SM FEW035 FEW150 FEW250 11/M06 A2954 RMK CU1AC1CI0 SLP028=

CYYC;2005-04-02 04:00;METAR CYYC 020400Z 24016G21KT 15SM FEW020 FEW060 BKN120 BKN200 04/M02 A2957 RMK SC1SC1AC5CI2 SLP046=

CYYC;2005-04-02 06:00;METAR CYYC 020600Z 25013KT 15SM BKN090 OVC120 04/M06 A2964 RMK AC6AC2 VIRGA SLP059=

CYYC;2005-04-02 10:00;METAR CYYC 021000Z 05006KT 15SM FEW090 SCT120 01/M05 A2975 RMK AC2AC2 SLP094=

CYYC;2005-04-02 11:00;METAR CYYC 021100Z 14006KT 15SM FEW060 SCT110 M02/M04 A2978 RMK SC1AC2 SLP103=

CYYC;2005-04-02 12:00;METAR CYYC 021200Z 17004KT 15SM FEW070 FEW110 M02/M05 A2979 RMK AC1AC2 SLP119=

CYYC;2005-04-02 13:00;METAR CYYC 021300Z 20007KT 40SM FEW040 FEW110 FEW130 M03/M08 A2978 RMK CU1AC1AC0 SLP117=

CYYC;2005-04-02 14:00;METAR CYYC 021400Z 17006KT 40SM FEW040 FEW130 BKN220 M01/M08 A2980 RMK CU1AC1CI1 CC ASOCTD SLP123=

CYYC;2005-04-02 15:00;METAR CYYC 021500Z 24005KT 40SM FEW015 FEW040 BKN210 02/M08 A2981 RMK SF1CU1CI4 SLP132=

CYYC;2005-04-02 16:00;METAR CYYC 021600Z 24010KT 40SM FEW040 BKN170 BKN210 02/M10 A2981 RMK CU1AC5CI2 VIRGA S SLP131=

CYYC;2005-04-02 18:00;METAR CYYC 021800Z 26017G26KT 40SM FEW040 FEW170 BKN240 06/M13 A2981 RMK CU1AC2CI1 SLP124=

CYYC;2005-04-02 21:00;METAR CYYC 022100Z 26016G25KT 40SM FEW065 FEW130 FEW220 07/M14 A2977 RMK CU1AC1CS0 VIRGA SW SLP110=

CYYC;2005-04-02 22:00;METAR CYYC 022200Z 24014G20KT 40SM FEW065 FEW130 BKN250 08/M13 A2976 RMK CU1AC1CI4 VIRGA S-SW SLP109=

CYYC;2005-04-02 23:00;METAR CYYC 022300Z 25020G27KT 40SM FEW065 FEW160 BKN250 08/M13 A2975 RMK CU1AC1CI3 VIRGA S SLP104=

CYYC;2005-04-03 04:00;METAR CYYC 030400Z 27011KT 15SM SCT210 02/M11 A2975 RMK CI0 SLP117=

CYYC;2005-04-03 05:00;METAR CYYC 030500Z 27010G17KT 15SM FEW150 BKN200 02/M11 A2975 RMK AC1CI2 SLP119=

CYYC;2005-04-03 08:00;METAR CYYC 030800Z 32002KT 15SM BKN150 OVC180 00/M11 A2973 RMK AC6AC2 SLP104=

CYYC;2005-04-03 10:00;METAR CYYC 031000Z 00000KT 15SM FEW150 OVC190 M00/M11 A2971 RMK AC2AC4 SLP096=

CYYC;2005-04-03 12:00;METAR CYYC 031200Z 00000KT 15SM FEW150 BKN200 M02/M10 A2969 RMK AC1CI2 SLP092=

CYYC;2005-04-03 13:00;METAR CYYC 031300Z 29002KT 40SM FEW140 SCT200 M04/M10 A2968 RMK AC1CI1 SLP089=

CYYC;2005-04-03 14:00;METAR CYYC 031400Z 00000KT 40SM SCT240 M04/M09 A2968 RMK CI2 SLP088=

CYYC;2005-04-03 15:00;METAR CYYC 031500Z 00000KT 40SM BKN240 M02/M08 A2967 RMK CI2 SLP092=

CYYC;2005-04-03 16:00;METAR CYYC 031600Z 16002KT 40SM BKN240 03/M09 A2966 RMK CI2 SLP089=

CYYC;2005-04-03 18:00;METAR CYYC 031800Z 18007KT 40SM BKN250 06/M11 A2964 RMK CI2 SLP068=

CYYC;2005-04-03 19:00;METAR CYYC 031900Z 16006KT 40SM FEW200 BKN250 07/M11 A2962 RMK CI1CI2 SLP063=

CYYC;2005-04-03 21:00;METAR CYYC 032100Z 09009KT 20SM FEW170 SCT220 OVC250 08/M09 A2954 RMK AC2CI2CI2 SLP035=

CYYC;2005-04-03 23:00;METAR CYYC 032300Z 15010KT 20SM FEW075 SCT190 OVC220 10/M06 A2955 RMK AC1AC3CI5 LWR AC TR SLP037=

CYYC;2005-04-04 00:00;METAR CYYC 040000Z 12008KT 20SM FEW075 SCT190 OVC220 10/M05 A2953 RMK AC1AC3CI5 SLP032=

CYYC;2005-04-04 04:00;METAR CYYC 040400Z 27009KT 15SM BKN120 BKN200 07/M06 A2951 RMK AC4CI0 SLP028=

CYYC;2005-04-04 06:00;METAR CYYC 040600Z 00000KT 15SM FEW130 BKN200 04/M07 A2951 RMK AC1CI2 SLP020=

CYYC;2005-04-04 07:00;METAR CYYC 040700Z 20006KT 15SM FEW130 BKN240 02/M07 A2951 RMK AC1CI1 SLP020=

CYYC;2005-04-04 08:00;METAR CYYC 040800Z 20005KT 15SM BKN240 01/M07 A2950 RMK CI2 SLP016=

CYYC;2005-04-04 10:00;METAR CYYC 041000Z 34005KT 15SM FEW240 01/M07 A2952 RMK CI0 SLP023=

CYYC;2005-04-04 12:00;METAR CYYC 041200Z 27002KT 15SM FEW120 BKN240 00/M07 A2955 RMK AC1CI2 SLP033=

CYYC;2005-04-04 13:00;METAR CYYC 041300Z 32008KT 40SM FEW120 BKN240 M01/M07 A2956 RMK AC1CI2 SLP037=

CYYC;2005-04-04 14:00;METAR CYYC 041400Z 36004KT 40SM FEW120 BKN250 02/M06 A2958 RMK AC2CI1 SLP042=

CYYC;2005-04-04 15:00;METAR CYYC 041500Z 34004KT 40SM FEW120 BKN250 04/M06 A2960 RMK AC2CI1 SLP050=

CYYC;2005-04-04 16:00;METAR CYYC 041600Z 29005KT 40SM FEW120 BKN250 08/M07 A2962 RMK AC2CI1 SLP056=

CYYC;2005-04-04 18:00;METAR CYYC 041800Z 35008KT 40SM FEW060 FEW180 BKN250 10/M09 A2964 RMK CU1AC1CI2 CU TR SLP059=

CYYC;2005-04-04 19:00;METAR CYYC 041900Z 34010G15KT 40SM FEW060 FEW180 BKN250 12/M08 A2965 RMK CU1AC2CI2 CU TR SLP063=

CYYC;2005-04-04 21:00;METAR CYYC 042100Z 36014KT 40SM FEW065 SCT150 BKN240 11/M07 A2968 RMK CU1AC2CI2 VIRGA SSW SLP075=

CYYC;2005-04-04 22:00;METAR CYYC 042200Z 36012KT 40SM FEW065 SCT140 BKN240 10/M08 A2969 RMK CU1AC3CI3 VIRGA SSW SLP079=

CYYC;2005-04-05 00:00;METAR CYYC 050000Z 03011KT 30SM FEW065 SCT170 OVC240 10/M07 A2974 RMK CU1AC4CI3 VIRGA SSW SLP099=

CYYC;2005-04-05 02:00;METAR CYYC 050200Z 03008KT 40SM FEW040 SCT100 BKN200 07/M05 A2980 RMK CU1AC2CI2 VIRGA S-SW SLP118=

CYYC;2005-04-05 03:00;METAR CYYC 050300Z 02006KT 15SM FEW040 SCT100 BKN180 04/M05 A2984 RMK CU1AC3CI1 VIRGA S+W SLP136=

CYYC;2005-04-05 04:00;METAR CYYC 050400Z 36007KT 15SM FEW040 SCT100 BKN190 03/M05 A2986 RMK SC2AC2AC1 DIST SHS W-NW SLP143=

CYYC;2005-04-05 05:00;METAR CYYC 050500Z 34007KT 15SM FEW100 FEW180 00/M06 A2988 RMK AC1AC0 SLP149=

CYYC;2005-04-05 08:00;METAR CYYC 050800Z 31008KT 15SM BKN067 OVC100 04/M02 A2995 RMK AC6AC2 VIRGA SLP170=

CYYC;2005-04-05 10:00;METAR CYYC 051000Z 35006KT 15SM FEW058 SCT100 02/M02 A3000 RMK SC2AC1 SLP181=

CYYC;2005-04-05 12:00;METAR CYYC 051200Z 35006KT 15SM FEW060 FEW090 M01/M03 A3005 RMK SC1AC1 SLP211=

CYYC;2005-04-05 16:00;METAR CYYC 051600Z 16006KT 40SM FEW065 FEW100 FEW250 04/M01 A3011 RMK CU1AC1CI0 AC TR SLP236=

CYYC;2005-04-05 17:00;METAR CYYC 051700Z 14006KT 40SM FEW065 FEW250 06/M03 A3011 RMK CU1CI1 CU TR SLP236=

CYYC;2005-04-05 18:00;METAR CYYC 051800Z 19006KT 40SM FEW065 BKN160 BKN240 07/M06 A3012 RMK CU1AC2CI2 SLP235=

CYYC;2005-04-05 21:00;METAR CYYC 052100Z 22006KT 40SM FEW065 SCT160 OVC240 10/M09 A3008 RMK CU1AC3CI4 CU TR SLP212=

CYYC;2005-04-05 22:00;METAR CYYC 052200Z 08002KT 40SM FEW065 SCT160 OVC240 11/M09 A3008 RMK CU1AC3CI4 CU TR SLP211=

CYYC;2005-04-05 23:00;METAR CYYC 052300Z 24006KT 40SM FEW070 SCT180 OVC240 11/M10 A3007 RMK CU1AC3CI4 SLP208=

CYYC;2005-04-06 00:00;METAR CYYC 060000Z 15003KT 40SM FEW070 FEW180 OVC240 11/M10 A3006 RMK CU1AC2CI4 CU TR SLP212=

CYYC;2005-04-06 02:00;METAR CYYC 060200Z 27007KT 40SM FEW080 FEW160 BKN250 09/M08 A3007 RMK AC1AC1CI3 ACSL SLP217=

CYYC;2005-04-06 04:00;METAR CYYC 060400Z 28009KT 15SM SKC 06/M08 A3009 RMK SLP226=

CYYC;2005-04-06 05:00;METAR CYYC 060500Z 28011G16KT 15SM SKC 06/M08 A3009 RMK SLP225=

CYYC;2005-04-06 08:00;METAR CYYC 060800Z 22007KT 15SM SKC 00/M08 A3009 RMK SLP219=

CYYC;2005-04-06 10:00;METAR CYYC 061000Z 25010KT 15SM BKN240 03/M07 A3007 RMK CI2 SLP217=

CYYC;2005-04-06 11:00;METAR CYYC 061100Z 17004KT 15SM FEW160 BKN240 02/M07 A3007 RMK AC1CI2 SLP215=

CYYC;2005-04-06 12:00;METAR CYYC 061200Z 24004KT 15SM FEW160 OVC240 02/M07 A3006 RMK AC2CI2 SLP209=

CYYC;2005-04-06 13:00;METAR CYYC 061300Z 18004KT 40SM FEW040 SCT140 BKN240 02/M06 A3006 RMK SC1AC3CI2 SLP208=

CYYC;2005-04-06 14:00;METAR CYYC 061400Z 20004KT 40SM FEW097 SCT140 OVC250 02/M05 A3006 RMK AC1AC2CI4 SLP209=

CYYC;2005-04-06 15:00;METAR CYYC 061500Z 00000KT 40SM FEW094 FEW140 FEW180 BKN260 06/M05 A3006 RMK AC1AC1AC1CI5 LWR+UPR AC TR SLP210=

CYYC;2005-04-06 16:00;METAR CYYC 061600Z 18007KT 40SM FEW090 BKN180 BKN260 09/M04 A3006 RMK AC1AC2CI0 SLP209=

CYYC;2005-04-06 19:00;METAR CYYC 061900Z 25010G16KT 40SM FEW090 SCT200 BKN260 15/M03 A3003 RMK AC1CI1CI2 SLP189=

CYYC;2005-04-06 21:00;METAR CYYC 062100Z 16006KT 40SM FEW090 SCT190 BKN260 17/M03 A3000 RMK AC1AC2CI1 SLP182=

CYYC;2005-04-06 22:00;METAR CYYC 062200Z 18008KT 40SM FEW090 BKN190 BKN260 17/M03 A2999 RMK AC1AC4CI1 SLP177=

CYYC;2005-04-06 23:00;METAR CYYC 062300Z 16005KT 40SM FEW090 SCT190 BKN260 17/M03 A2997 RMK AC1AC2CI1 SLP173=

CYYC;2005-04-08 09:00;METAR CYYC 080900Z 20004KT 15SM FEW150 BKN240 10/00 A2934 RMK AC2CI2 SLP932=

CYYC;2005-04-08 10:00;METAR CYYC 081000Z 22004KT 15SM FEW130 BKN170 BKN250 08/00 A2933 RMK AC2AC3CI1 SLP928=

CYYC;2005-04-08 12:00;METAR CYYC 081200Z 20009KT 15SM FEW090 BKN140 08/00 A2932 RMK AC2AC6 SLP929=

CYYC;2005-04-08 13:00;METAR CYYC 081300Z 21005KT 40SM BKN085 OVC140 08/M01 A2932 RMK AC6AC2 VIRGA SLP928=

CYYC;2005-04-08 14:00;METAR CYYC 081400Z 30003KT 40SM BKN089 OVC130 10/M03 A2932 RMK AC6AC2 VIRGA ALQDS SLP929=

CYYC;2005-04-08 15:00;METAR CYYC 081500Z 18012KT 40SM FEW015 BKN080 BKN140 10/M01 A2934 RMK SF1AC5AC1 SHS NW-NE+SE SLP942=

CYYC;2005-04-08 16:00;METAR CYYC 081600Z 16003KT 40SM FEW035 SCT080 BKN150 BKN190 12/M03 A2934 RMK CU1AC4AC2AC1 SHS NW-NE SLP942=

CYYC;2005-04-08 17:00;METAR CYYC 081700Z 30012KT 40SM FEW035 BKN090 OVC240 12/M03 A2935 RMK CU1AC6CI2 SHS NW-SE SLP945=

CYYC;2005-04-08 18:00;METAR CYYC 081800Z 36020G34KT 40SM -SHRA FEW020 BKN028 OVC090 07/04 A2939 RMK CU1SC6AC1 PRESRR SLP966=

CYYC;2005-04-08 19:00;METAR CYYC 081900Z 01013KT 40SM -SHRA FEW020 BKN055 OVC077 08/04 A2940 RMK CU1SC5AC3 PCPN VRY LGT SLP970=

CYYC;2005-04-08 19:24;SPECI CYYC 081924Z 35016KT 40SM FEW020 BKN050 OVC090 RMK CU1SC6AC2 VIRGA=

CYYC;2005-04-08 19:43;SPECI CYYC 081943Z 36017KT 30SM -SHRA FEW020 BKN033 OVC090 RMK CU1SC6AC2=

CYYC;2005-04-08 20:00;METAR CYYC 082000Z 35017KT 30SM -SHRA FEW018 BKN035 OVC090 08/03 A2942 RMK CU1SC6AC2 SLP977=

CYYC;2005-04-08 20:40;SPECI CYYC 082040Z 36016KT 30SM BKN018 OVC035 RMK CU5SC3 SHS S+SW=

CYYC;2005-04-08 21:00;METAR CYYC 082100Z 36020KT 7SM -SHRA BKN022 OVC033 08/03 A2942 RMK CU5SC3 SLP976=

CYYC;2005-04-08 21:20;SPECI CYYC 082120Z 36018KT 40SM SCT022 BKN065 BKN080 RMK CU3SC2AC1 SH SW / TCU ASOCTD=

CYYC;2005-04-08 22:00;METAR CYYC 082200Z 36015KT 40SM SCT022TCU BKN058 BKN080 10/03 A2943 RMK TCU3SC2AC1 SH S SLP982=

CYYC;2005-04-08 23:00;METAR CYYC 082300Z 36012G17KT 40SM BKN024 BKN052 BKN100 08/02 A2945 RMK CU5SC2AC1 SH SE+SW / TCU S SLP988=

CYYC;2005-04-09 00:00;METAR CYYC 090000Z 36014KT 40SM SCT030 SCT063 OVC080 08/01 A2948 RMK CU4SC1AC4 SH SE+SW SLP002=

CYYC;2005-04-09 01:54;SPECI CYYC 090154Z 35008KT 15SM -SHRA BKN041 OVC060 RMK SC7SC1=

CYYC;2005-04-09 03:00;METAR CYYC 090300Z 27004KT 8SM -SHRA OVC031 06/02 A2955 RMK SC8 SLP027=

CYYC;2005-04-09 06:00;METAR CYYC 090600Z 27005KT 15SM BKN048 BKN084 04/02 A2960 RMK SC3AC4 VIRGA SLP050=

CYYC;2005-04-09 07:48;SPECI CYYC 090748Z 32006KT 15SM -RA FEW014 OVC060 RMK SC1SC8=

CYYC;2005-04-09 08:00;METAR CYYC 090800Z 32007KT 15SM FEW014 OVC060 03/01 A2963 RMK SC1SC7 SLP059=

CYYC;2005-04-09 09:00;METAR CYYC 090900Z 31011KT 15SM FEW060 BKN078 OVC100 03/01 A2963 RMK SC1AC5AC2 VIRGA SLP062=

CYYC;2005-04-09 10:00;METAR CYYC 091000Z 32011KT 15SM FEW057 BKN081 OVC110 03/01 A2964 RMK SC1AC6AC1 VIRGA SLP065=

CYYC;2005-04-09 11:00;METAR CYYC 091100Z 32013KT 15SM FEW070 FEW083 SCT220 02/M00 A2965 RMK AC1AC2CI0 SLP068=

CYYC;2005-04-09 12:00;METAR CYYC 091200Z 32011KT 15SM FEW070 FEW088 BKN220 02/M01 A2966 RMK AC1AC1CI0 SLP075=

CYYC;2005-04-09 13:00;METAR CYYC 091300Z 31010KT 40SM FEW070 FEW090 SCT220 01/M01 A2968 RMK AC1AC1CI0 SLP079=

CYYC;2005-04-09 14:00;METAR CYYC 091400Z 31009KT 40SM FEW030 FEW090 FEW220 01/M02 A2971 RMK SC1AC1CI0 SLP088=

CYYC;2005-04-09 16:00;METAR CYYC 091600Z 36012KT 40SM FEW030 FEW090 BKN240 05/M02 A2974 RMK CU1AC1CI1 SLP103=

CYYC;2005-04-09 18:00;METAR CYYC 091800Z 33013KT 40SM FEW040 FEW080 BKN210 08/M05 A2975 RMK CU1AC1CS1 SLP103=

CYYC;2005-04-09 21:00;METAR CYYC 092100Z 35014G22KT 40SM FEW060 FEW120 SCT230 10/M07 A2975 RMK CU1AC1CS1 VIRGA E SLP100=

CYYC;2005-04-09 22:00;METAR CYYC 092200Z 34013G24KT 40SM FEW063 FEW120 BKN210 10/M08 A2975 RMK CU1AC1CS5 SLP100=

CYYC;2005-04-09 23:00;METAR CYYC 092300Z 01015G21KT 40SM FEW065 FEW120 OVC200 10/M08 A2976 RMK CU1AC1CS5 SLP102=

CYYC;2005-04-10 00:00;METAR CYYC 100000Z 36013G21KT 40SM FEW065 FEW130 BKN210 10/M08 A2978 RMK CU1AC1CS4 VIRGA S+SW SLP113=

CYYC;2005-04-10 06:00;METAR CYYC 100600Z 33006KT 15SM FEW120 BKN210 M01/M07 A2991 RMK AC1CI1 SLP165=

CYYC;2005-04-10 10:00;METAR CYYC 101000Z 32010KT 15SM SKC M00/M11 A2997 RMK SLP182=

CYYC;2005-04-10 12:00;METAR CYYC 101200Z 32011KT 15SM FEW140 M01/M11 A3000 RMK AC1 SLP194=

CYYC;2005-04-10 13:00;METAR CYYC 101300Z 32010KT 40SM FEW140 FEW220 M02/M11 A3001 RMK AC1CI0 SLP197=

CYYC;2005-04-10 14:00;METAR CYYC 101400Z 32010KT 40SM FEW140 FEW220 00/M10 A3003 RMK AC1CI1 SLP201=

CYYC;2005-04-10 15:00;METAR CYYC 101500Z 32009KT 40SM FEW140 FEW220 04/M10 A3004 RMK AC1CI1 SLP207=

CYYC;2005-04-10 17:00;METAR CYYC 101700Z 30006KT 40SM FEW060 FEW210 07/M10 A3005 RMK CF1CI1 SLP209=

CYYC;2005-04-10 18:00;METAR CYYC 101800Z 36008KT 40SM FEW060 FEW210 08/M10 A3004 RMK CF1CI1 SLP209=

CYYC;2005-04-10 21:00;METAR CYYC 102100Z 14002KT 40SM FEW065 FEW260 11/M11 A2998 RMK CF1CI1 SLP187=

CYYC;2005-04-10 22:00;METAR CYYC 102200Z 18004KT 40SM FEW065 FEW260 11/M11 A2997 RMK CF1CI1 SLP182=

CYYC;2005-04-11 00:00;METAR CYYC 110000Z 15005KT 40SM FEW070 FEW240 12/M10 A2994 RMK AC1CI1 SLP171=

CYYC;2005-04-11 03:00;METAR CYYC 110300Z 14008KT 30SM FEW240 07/M10 A2992 RMK CI1 SLP161=

CYYC;2005-04-11 04:00;METAR CYYC 110400Z 14009KT 15SM FEW240 05/M10 A2991 RMK CI1 SLP159=

CYYC;2005-04-11 05:00;METAR CYYC 110500Z 17008KT 15SM SKC 04/M10 A2991 RMK SLP158=

CYYC;2005-04-11 10:00;METAR CYYC 111000Z 16003KT 15SM FEW180 M00/M09 A2982 RMK AC0 SLP127=

CYYC;2005-04-11 12:00;METAR CYYC 111200Z 00000KT 15SM FEW090 FEW170 M04/M10 A2979 RMK AC1AC0 SLP120=

CYYC;2005-04-11 13:00;METAR CYYC 111300Z 26002KT 30SM FEW160 BKN260 M03/M09 A2977 RMK AC1CI0 SLP114=

CYYC;2005-04-11 14:00;METAR CYYC 111400Z 16002KT 30SM FEW160 BKN230 M02/M08 A2975 RMK AC1CI2 SLP109=

CYYC;2005-04-11 16:00;METAR CYYC 111600Z 20008KT 20SM SCT150 OVC230 04/M06 A2974 RMK AC3CI4=

CYYC;2005-04-11 17:00;METAR CYYC 111700Z 16005KT 30SM SCT100 OVC240 06/M05 A2974 RMK AC4CI3 SLP101=

CYYC;2005-04-11 18:00;METAR CYYC 111800Z 18009KT 30SM SCT100 OVC240 08/M06 A2973 RMK AC4CI3 SLP097=

CYYC;2005-04-11 20:00;METAR CYYC 112000Z 21005KT 40SM BKN060 OVC100 11/M06 A2972 RMK SC6AC2 SLP092=

CYYC;2005-04-11 21:00;METAR CYYC 112100Z 16004KT 40SM FEW060 BKN095 OVC220 11/M06 A2971 RMK SC2AC4CI1 SLP088=

CYYC;2005-04-11 22:00;METAR CYYC 112200Z 09004KT 40SM FEW060 OVC100 12/M05 A2970 RMK SC2AC6 SLP085=

CYYC;2005-04-12 00:00;METAR CYYC 120000Z 17014KT 40SM FEW065 SCT110 BKN240 12/M05 A2967 RMK CU1AC2CI2 SLP080=

CYYC;2005-04-12 03:00;METAR CYYC 120300Z 20012KT 15SM FEW065 FEW100 FEW240 08/M06 A2970 RMK CU1AC2CI1 SLP087=

CYYC;2005-04-12 04:00;METAR CYYC 120400Z 19010KT 15SM FEW240 06/M05 A2971 RMK CI0 SLP091=

CYYC;2005-04-12 06:00;METAR CYYC 120600Z 24007KT 15SM FEW240 03/M07 A2974 RMK CI0 SLP098=

CYYC;2005-04-12 08:00;METAR CYYC 120800Z 28012KT 15SM FEW180 SCT240 04/M06 A2976 RMK AC1CI1 SLP106=

CYYC;2005-04-12 10:00;METAR CYYC 121000Z 26005KT 15SM OVC210 03/M08 A2978 RMK CI8 SLP109=

CYYC;2005-04-12 11:00;METAR CYYC 121100Z 29007KT 15SM BKN200 03/M09 A2979 RMK CI7 SLP111=

CYYC;2005-04-12 12:00;METAR CYYC 121200Z 23002KT 15SM SCT180 BKN230 04/M11 A2981 RMK AC3CI3 SLP115=

CYYC;2005-04-12 14:00;METAR CYYC 121400Z 20004KT 40SM FEW120 SCT250 01/M08 A2983 RMK AC1CI2 SLP122=

CYYC;2005-04-12 15:00;METAR CYYC 121500Z 27004KT 40SM FEW140 BKN250 05/M10 A2984 RMK AC1CI2 SLP130=

CYYC;2005-04-12 16:00;METAR CYYC 121600Z 32004KT 40SM FEW140 BKN250 07/M10 A2984 RMK AC2CI4 SLP131=

CYYC;2005-04-12 18:00;METAR CYYC 121800Z 08002KT 40SM FEW090 BKN240 09/M11 A2982 RMK AC1CI5 SLP127=

CYYC;2005-04-12 19:00;METAR CYYC 121900Z 15007KT 40SM FEW080 OVC240 09/M11 A2981 RMK AC2CI6 SLP124=

CYYC;2005-04-12 20:00;METAR CYYC 122000Z 19008KT 40SM FEW060 SCT080 OVC240 08/M08 A2981 RMK SC2AC2CI4 VIRGA E SLP123=

CYYC;2005-04-12 21:00;METAR CYYC 122100Z 13010G17KT 40SM FEW035 BKN080 OVC220 08/M07 A2980 RMK SC2AC4CI2 SLP121=

CYYC;2005-04-12 22:00;METAR CYYC 122200Z 17013G19KT 40SM FEW035 BKN060 OVC090 08/M04 A2979 RMK CU1SC4AC3 SLP116=

CYYC;2005-04-12 23:00;METAR CYYC 122300Z 21010KT 40SM BKN062 OVC090 08/M04 A2979 RMK SC5AC2 SLP117=

CYYC;2005-04-13 00:00;METAR CYYC 130000Z 15012KT 40SM FEW060 OVC075 07/M02 A2979 RMK SC2AC6 SLP117=

CYYC;2005-04-13 01:00;METAR CYYC 130100Z 10010G16KT 40SM FEW060 OVC075 06/M02 A2975 RMK SC2AC6 VIRGA W SLP106=

CYYC;2005-04-13 02:00;METAR CYYC 130200Z 15012KT 30SM FEW060 BKN090 OVC120 05/M00 A2980 RMK CU2AC5AC0 VIRGA SLP120=

CYYC;2005-04-13 04:00;METAR CYYC 130400Z 16004KT 15SM BKN120 BKN240 03/M01 A2980 RMK AC3CI0 SLP123=

CYYC;2005-04-13 07:00;METAR CYYC 130700Z 33003KT 15SM FEW120 OVC250 M00/M02 A2985 RMK AC2CI6 SLP138=

CYYC;2005-04-13 10:00;METAR CYYC 131000Z 32004KT 15SM FEW120 OVC250 M01/M04 A2985 RMK AC2CI6 SLP140=

CYYC;2005-04-13 12:00;METAR CYYC 131200Z 21003KT 15SM FEW080 BKN130 M02/M05 A2986 RMK AC2AC2 SLP152=

CYYC;2005-04-13 13:00;METAR CYYC 131300Z 26002KT 40SM FEW080 SCT130 BKN240 M02/M04 A2986 RMK AC1AC3CI0 SLP151=

CYYC;2005-04-13 14:00;METAR CYYC 131400Z 04002KT 40SM FEW060 FEW090 BKN240 M01/M04 A2987 RMK SC1AC2CI2 SC TR SLP155=

CYYC;2005-04-13 15:00;METAR CYYC 131500Z 00000KT 40SM FEW060 FEW090 BKN240 01/M02 A2988 RMK SC1AC2CI2 SC TR SLP155=

CYYC;2005-04-13 16:00;METAR CYYC 131600Z 09002KT 40SM FEW060 FEW090 SCT250 05/M03 A2988 RMK SC1AC1CI2 SC TR SLP157=

CYYC;2005-04-13 19:00;METAR CYYC 131900Z 33004KT 40SM FEW060 FEW150 SCT250 09/M07 A2986 RMK CU1AC2CI1 CU TR SLP144=

CYYC;2005-04-13 20:00;METAR CYYC 132000Z 05003KT 40SM FEW060 FEW180 SCT250 10/M08 A2986 RMK CU1AC1CI2 CU TR SLP144=

CYYC;2005-04-13 21:00;METAR CYYC 132100Z 24003KT 40SM FEW060 FEW180 BKN250 11/M08 A2986 RMK CU1AC1CI2 CU TR SLP140=

CYYC;2005-04-13 22:00;METAR CYYC 132200Z 30003KT 40SM FEW060 BKN150 OVC240 11/M09 A2985 RMK CU1AC5CI2 CU TR SLP139=

CYYC;2005-04-14 00:00;METAR CYYC 140000Z 11011KT 40SM BKN092 OVC180 10/M06 A2986 RMK AC6AC2 SLP145=

CYYC;2005-04-14 02:00;METAR CYYC 140200Z 09006KT 30SM FEW090 OVC120 08/M06 A2987 RMK AC2AC6 VIRGA ALQDS SLP148=

CYYC;2005-04-14 04:00;METAR CYYC 140400Z 10006KT 15SM FEW070 BKN120 BKN240 05/M02 A2985 RMK AC1AC6CI1 SLP143=

CYYC;2005-04-14 05:00;METAR CYYC 140500Z 13002KT 15SM FEW070 OVC110 05/M01 A2986 RMK AC2AC6 SLP146=

CYYC;2005-04-14 06:00;METAR CYYC 140600Z 33003KT 15SM VCSH SCT054 OVC080 04/M01 A2985 RMK SC4AC4 SLP135=

CYYC;2005-04-14 06:17;SPECI CYYC 140617Z 31007KT 15SM -RA BKN049 OVC080 RMK SC6AC2=

CYYC;2005-04-14 07:00;METAR CYYC 140700Z 30011KT 15SM -RA BKN040 OVC070 04/M00 A2984 RMK SC6AC2 SLP130=

CYYC;2005-04-14 08:29;SPECI CYYC 140829Z 31020KT 4SM -RA SCT009 OVC013 RMK SC3SC5=

CYYC;2005-04-14 09:00;METAR CYYC 140900Z 31015G20KT 4SM -RASN FEW008 OVC017 02/00 A2984 RMK SF1SC8 SLP130=

CYYC;2005-04-14 09:25;SPECI CYYC 140925Z 32014G20KT 2SM -SN SCT006 OVC023 RMK SC3SC5=

CYYC;2005-04-14 09:33;SPECI CYYC 140933Z 32014KT 4SM -SN FEW006 OVC017 RMK SF1SC7=

CYYC;2005-04-14 10:00;METAR CYYC 141000Z 32014KT 4SM -SN FEW007 OVC019 01/00 A2983 RMK SF1SC7 SLP129=

CYYC;2005-04-14 10:11;SPECI CYYC 141011Z 31011G17KT 2SM -SN FEW007 OVC019 RMK SC2SC6=

CYYC;2005-04-14 10:22;SPECI CYYC 141022Z 32014KT 1 1/4SM -SN BKN007 OVC017 RMK SC6SC2=

CYYC;2005-04-14 10:33;SPECI CYYC 141033Z 32013KT 1 1/4SM -SN SCT004 OVC009 RMK SC3SC5=

CYYC;2005-04-14 10:44;SPECI CYYC 141044Z 33013KT 2 1/2SM -SN SCT004 OVC008 RMK SC3SC5=

CYYC;2005-04-14 11:17;SPECI CYYC 141117Z 35011KT 2SM -SN BKN008 OVC012 RMK SC5SC3=

CYYC;2005-04-14 11:54;SPECI CYYC 141154Z 33017KT 5SM -SN SCT010 OVC020 RMK SC3SC5=

CYYC;2005-04-14 12:22;SPECI CYYC 141222Z 32020KT 2 1/2SM -SN SCT011 BKN020 OVC036 RMK SC3SC3SC2=

CYYC;2005-04-14 12:40;SPECI CYYC 141240Z 32017G24KT 3SM -SN FEW010 BKN020 OVC040 RMK SC1SC5SC2=

CYYC;2005-04-14 14:00;METAR CYYC 141400Z 31023G30KT 20SM VCSH FEW010 BKN030 OVC066 01/M02 A2983 RMK SC1SC3AC5 SLP130=

CYYC;2005-04-14 15:30;SPECI CYYC 141530Z 32022KT 40SM FEW016 BKN027 OVC066 RMK SC1SC5AC3 SH S=

CYYC;2005-04-14 16:00;METAR CYYC 141600Z 30017KT 40SM SCT032 BKN069 OVC080 01/M03 A2983 RMK SC1AC6AC2 VIRGA SLP135=

CYYC;2005-04-14 17:00;METAR CYYC 141700Z 32016G24KT 40SM BKN080 OVC100 02/M03 A2984 RMK AC7AC1 VIRGA SLP138=

CYYC;2005-04-14 19:00;METAR CYYC 141900Z 32022G31KT 40SM FEW080 OVC100 04/M05 A2984 RMK AC1AC8 SLP140=

CYYC;2005-04-14 20:00;METAR CYYC 142000Z 33018KT 40SM FEW040 FEW080 OVC130 06/M06 A2985 RMK SC1AC1AC8 SLP143=

CYYC;2005-04-14 22:00;METAR CYYC 142200Z 33020G27KT 40SM FEW050 FEW090 OVC160 07/M09 A2985 RMK SC1AC1AC8 SLP141=

CYYC;2005-04-15 00:00;METAR CYYC 150000Z 35016G22KT 40SM FEW090 BKN170 OVC220 08/M09 A2985 RMK AC0AC2CS1 SLP140=

CYYC;2005-04-15 02:00;METAR CYYC 150200Z 31006KT 40SM FEW060 SCT090 BKN220 06/M09 A2987 RMK SC1AC2CI0 SLP148=

CYYC;2005-04-15 04:00;METAR CYYC 150400Z 27013KT 15SM BKN060 BKN080 05/M11 A2989 RMK SC2AC2 VIRGA ALQDS SLP161=

CYYC;2005-04-15 05:00;METAR CYYC 150500Z 27009KT 15SM FEW240 03/M11 A2990 RMK CI0 SLP162=

CYYC;2005-04-15 06:00;METAR CYYC 150600Z 27013KT 15SM FEW240 02/M11 A2990 RMK CI0 SLP163=

CYYC;2005-04-15 09:00;METAR CYYC 150900Z 25016KT 15SM SKC 02/M10 A2991 RMK SLP164=

CYYC;2005-04-15 10:00;METAR CYYC 151000Z 26014KT 15SM SKC 02/M11 A2993 RMK SLP168=

CYYC;2005-04-15 12:00;METAR CYYC 151200Z 29006KT 40SM FEW100 FEW240 M00/M11 A2997 RMK AC1CI0 SLP186=

CYYC;2005-04-15 13:00;METAR CYYC 151300Z 27008KT 40SM FEW080 FEW130 SCT240 00/M10 A2998 RMK AC1AC1CI0 SLP188=

CYYC;2005-04-15 14:00;METAR CYYC 151400Z 25005KT 40SM FEW090 BKN250 02/M10 A2998 RMK AC1CI0 SLP188=

CYYC;2005-04-15 15:00;METAR CYYC 151500Z 21006KT 40SM FEW090 FEW190 BKN250 04/M10 A2998 RMK AC1AC1CI0 SLP188=

CYYC;2005-04-15 16:00;METAR CYYC 151600Z 25009KT 40SM FEW090 FEW190 BKN250 06/M12 A2998 RMK AC1AC1CI0 SLP187=

CYYC;2005-04-15 17:00;METAR CYYC 151700Z 28016KT 40SM FEW090 FEW190 SCT250 08/M13 A2997 RMK AC1AC1CI0 SLP185=

CYYC;2005-04-15 21:00;METAR CYYC 152100Z 18006KT 40SM FEW090 FEW180 SCT240 11/M11 A2993 RMK AC1AC1CI2 SLP164=

CYYC;2005-04-15 22:00;METAR CYYC 152200Z 27013G18KT 40SM FEW090 FEW180 FEW240 13/M09 A2990 RMK AC1AC1CI1 SLP156=

CYYC;2005-04-16 00:00;METAR CYYC 160000Z 27017KT 40SM FEW090 FEW150 SCT240 12/M08 A2990 RMK AC1AC1CI1 SLP155=

CYYC;2005-04-16 03:00;METAR CYYC 160300Z 25020KT 40SM FEW075 FEW170 BKN210 08/M08 A2990 RMK AC1AC2CI2 LWR AC TR SLP155=

CYYC;2005-04-16 04:00;METAR CYYC 160400Z 23007KT 15SM FEW075 FEW160 BKN210 06/M07 A2992 RMK AC1AC2CI2 LWR AC TR SLP161=

CYYC;2005-04-16 06:00;METAR CYYC 160600Z 22007KT 15SM SCT100 BKN240 07/M07 A2992 RMK AC3CI2 SLP157=

CYYC;2005-04-16 07:00;METAR CYYC 160700Z 23006KT 15SM BKN120 06/M07 A2992 RMK AC5 SLP155=

CYYC;2005-04-16 09:00;METAR CYYC 160900Z 20006KT 15SM BKN094 05/M05 A2989 RMK AC6 SLP147=

CYYC;2005-04-16 10:00;METAR CYYC 161000Z 18005KT 15SM BKN100 05/M05 A2989 RMK AC6 SLP146=

CYYC;2005-04-16 11:00;METAR CYYC 161100Z 15005KT 15SM BKN110 05/M05 A2988 RMK AC6 SLP142=

CYYC;2005-04-16 12:00;METAR CYYC 161200Z 12005KT 15SM OVC120 04/M04 A2986 RMK AC8 SLP133=

CYYC;2005-04-16 14:00;METAR CYYC 161400Z 19007KT 40SM FEW070 BKN150 BKN220 05/M03 A2984 RMK AC1AC6CI1 LWR AC TR SLP126=

CYYC;2005-04-16 16:00;METAR CYYC 161600Z 18009KT 40SM FEW070 BKN150 BKN220 07/M02 A2980 RMK AC1AC7CI1 VIRGA SLP117=

CYYC;2005-04-16 17:00;METAR CYYC 161700Z 17006KT 40SM FEW070 BKN140 BKN180 BKN220 07/M01 A2978 RMK AC1AC7AC1CI1 VIRGA SLP112=

CYYC;2005-04-16 18:00;METAR CYYC 161800Z 17011KT 40SM FEW070 BKN140 BKN180 BKN220 09/M01 A2977 RMK AC1AC7AC1CI1 VIRGA SLP104=

CYYC;2005-04-16 22:00;METAR CYYC 162200Z 17021G26KT 40SM FEW090 SCT190 BKN240 15/00 A2965 RMK AC1AC2CI5 LWR AC TR SLP060=

CYYC;2005-04-17 01:00;METAR CYYC 170100Z 18019G28KT 40SM FEW090 FEW190 BKN250 16/M00 A2962 RMK AC1AC1CI6 SLP043=

CYYC;2005-04-17 04:00;METAR CYYC 170400Z 19014KT 15SM BKN250 11/M01 A2964 RMK CI3 SLP057=

CYYC;2005-04-17 05:00;METAR CYYC 170500Z 18018KT 15SM BKN250 10/M01 A2964 RMK CI3 SLP054=

CYYC;2005-04-17 06:00;METAR CYYC 170600Z 17014KT 15SM BKN250 09/M01 A2964 RMK CI2 SLP054=

CYYC;2005-04-17 07:00;METAR CYYC 170700Z 18008KT 15SM SCT250 07/M02 A2965 RMK CI2 SLP058=

CYYC;2005-04-17 09:00;METAR CYYC 170900Z 05002KT 15SM FEW240 02/M03 A2966 RMK CI0 SLP068=

CYYC;2005-04-17 12:00;METAR CYYC 171200Z 03005KT 15SM FEW140 BKN230 01/M04 A2973 RMK AC2CI2 SLP087=

CYYC;2005-04-17 13:00;METAR CYYC 171300Z 35006KT 40SM FEW075 BKN180 BKN240 02/M03 A2975 RMK AC1AC5CI2 LWR AC TR SLP093=

CYYC;2005-04-17 14:00;METAR CYYC 171400Z 35005KT 40SM FEW080 BKN150 BKN240 04/M02 A2976 RMK AC1AC2CI0 SLP097=

CYYC;2005-04-17 15:00;METAR CYYC 171500Z 03006KT 40SM FEW080 BKN150 BKN240 06/M03 A2978 RMK AC1AC2CI2 LWR AC TR SLP102=

CYYC;2005-04-17 16:00;METAR CYYC 171600Z 05009KT 40SM FEW060 FEW080 BKN150 BKN240 07/M04 A2977 RMK SC1AC1AC4CI0 LWR AC TR SLP101=

CYYC;2005-04-17 17:00;METAR CYYC 171700Z 07009KT 40SM FEW063 FEW080 OVC140 08/M04 A2979 RMK SC1AC1AC6 SLP105=

CYYC;2005-04-17 18:00;METAR CYYC 171800Z 10005KT 20SM SCT072 BKN150 OVC240 09/M05 A2979 RMK AC1AC5CI0 SH DIST SW-NW SLP107=

CYYC;2005-04-17 19:00;METAR CYYC 171900Z 10006KT 20SM SCT079 BKN160 BKN240 09/M06 A2979 RMK AC2AC6CI1 SH DIST SW-NW SLP106=

CYYC;2005-04-17 21:00;METAR CYYC 172100Z 13003KT 20SM BKN068 BKN160 10/M07 A2977 RMK AC7AC1 SH=

CYYC;2005-04-17 21:46;SPECI CYYC 172146Z 20009G17KT 20SM -RA BKN061 RMK SC7 PCPN VRY LGT=

CYYC;2005-04-17 22:00;METAR CYYC 172200Z 23006G15KT 20SM -RA BKN061 09/M05 A2978 RMK SC7 PCPN VRY LGT SLP113=

CYYC;2005-04-17 22:19;SPECI CYYC 172219Z 20006KT 20SM BKN061 RMK SC7 VIRGA=

CYYC;2005-04-17 23:00;METAR CYYC 172300Z 15007KT 20SM FEW051 BKN064 09/M03 A2979 RMK SC2SC5 SH ALQDS SLP114=

CYYC;2005-04-18 00:00;METAR CYYC 180000Z 17009KT 20SM FEW051 BKN064 BKN080 07/M01 A2980 RMK SC1SC5AC2 SH ALQDS SLP123=

CYYC;2005-04-18 01:49;SPECI CYYC 180149Z 29006KT 20SM -SHRA OVC030 RMK SC8 TCU EMBD=

CYYC;2005-04-18 03:00;METAR CYYC 180300Z 36009KT 15SM -SHRA FEW007 BKN014 OVC030 03/M01 A2985 RMK SF2SC4SC2 SLP140=

CYYC;2005-04-18 03:47;SPECI CYYC 180347Z 10013G18KT 15SM SCT120 BKN240 RMK AC3CI2=

CYYC;2005-04-18 04:00;METAR CYYC 180400Z 11010KT 15SM SCT120 OVC240 03/M00 A2982 RMK AC3CI2 SLP130=

CYYC;2005-04-18 06:00;METAR CYYC 180600Z 23005KT 15SM FEW160 BKN240 02/M00 A2984 RMK AC2CI1 SLP134=

CYYC;2005-04-18 07:00;METAR CYYC 180700Z 30002KT 15SM FEW140 BKN240 01/M01 A2986 RMK AC2CI2 SLP140=

CYYC;2005-04-18 09:00;METAR CYYC 180900Z 34015KT 15SM SCT045 BKN100 03/M03 A2989 RMK SC3AC2 SLP150=

CYYC;2005-04-18 10:00;METAR CYYC 181000Z 34014G19KT 15SM SCT044 BKN065 03/M02 A2991 RMK SC3SC3 SLP156=

CYYC;2005-04-18 12:00;METAR CYYC 181200Z 34015G20KT 15SM BKN044 OVC062 03/M03 A2996 RMK SC6SC2 VIRGA ALQDS SLP177=

CYYC;2005-04-18 13:00;METAR CYYC 181300Z 36013KT 20SM BKN060 OVC120 02/M04 A2999 RMK SC7AC1 SLP186=

CYYC;2005-04-18 13:42;SPECI CYYC 181342Z 36011KT 20SM FEW007 BKN053 OVC120 RMK SF1SC6AC2=

CYYC;2005-04-18 14:00;METAR CYYC 181400Z 01009G16KT 20SM FEW007 SCT048 OVC070 03/M03 A3003 RMK SF1SC3AC4 SLP199=

CYYC;2005-04-18 14:48;SPECI CYYC 181448Z 06009KT 10SM -SHSN FEW007 BKN018 OVC036 RMK SF1SC6SC2=

CYYC;2005-04-18 15:00;METAR CYYC 181500Z 06009KT 10SM -SHSN FEW018 BKN031 BKN070 02/M01 A3006 RMK SC2SC3AC2 SLP222=

CYYC;2005-04-18 15:17;SPECI CYYC 181517Z 07008KT 15SM FEW018 BKN044 BKN070 RMK SC2SC4AC1=

CYYC;2005-04-18 16:00;METAR CYYC 181600Z 02004KT 20SM FEW020 FEW040 BKN088 03/M02 A3007 RMK SC1SC2AC4 SLP224=

CYYC;2005-04-18 17:00;METAR CYYC 181700Z 35009KT 25SM FEW032 BKN060 BKN120 05/M03 A3009 RMK CU1SC4AC2 SLP230=

CYYC;2005-04-18 21:00;METAR CYYC 182100Z 04006KT 30SM SCT060 BKN140 BKN240 09/M06 A3011 RMK CU4AC1CI0 VIRGA SE SLP226=

CYYC;2005-04-18 22:00;METAR CYYC 182200Z 02006KT 40SM SCT063 BKN130 BKN250 10/M06 A3011 RMK CU4AC1CI0 VIRGA SLP227=

CYYC;2005-04-19 00:00;METAR CYYC 190000Z 15004G15KT 30SM FEW064 SCT100 BKN240 10/M05 A3011 RMK CU2AC1CI0 SLP227=

CYYC;2005-04-19 02:00;METAR CYYC 190200Z 22004KT 40SM FEW080 FEW240 09/M05 A3012 RMK CU2CI0 SLP228=

CYYC;2005-04-19 04:00;METAR CYYC 190400Z 21005KT 15SM SKC 05/M05 A3016 RMK SLP247=

CYYC;2005-04-19 06:00;METAR CYYC 190600Z 22004KT 15SM SKC 02/M05 A3017 RMK SLP253=

CYYC;2005-04-19 07:00;METAR CYYC 190700Z 34002KT 15SM SKC 00/M06 A3018 RMK SLP255=

CYYC;2005-04-19 08:00;METAR CYYC 190800Z 34004KT 15SM SKC M03/M07 A3019 RMK SLP258=

CYYC;2005-04-19 09:00;METAR CYYC 190900Z 00000KT 15SM SKC M02/M06 A3019 RMK SLP263=

CYYC;2005-04-19 10:00;METAR CYYC 191000Z 00000KT 15SM SKC M01/M06 A3019 RMK SLP263=

CYYC;2005-04-19 11:00;METAR CYYC 191100Z 32003KT 15SM SKC M02/M06 A3020 RMK SLP265=

CYYC;2005-04-19 12:00;METAR CYYC 191200Z 31002KT 40SM FEW100 M02/M06 A3020 RMK AC1 SLP262=

CYYC;2005-04-19 15:00;METAR CYYC 191500Z 19002KT 40SM FEW240 05/M04 A3022 RMK CI1 SLP265=

CYYC;2005-04-19 16:00;METAR CYYC 191600Z 32002KT 40SM FEW090 FEW240 08/M06 A3023 RMK AC1CI1 SLP268=

CYYC;2005-04-19 17:00;METAR CYYC 191700Z 18003KT 40SM FEW090 FEW240 10/M06 A3023 RMK AC1CI1 SLP268=

CYYC;2005-04-19 18:00;METAR CYYC 191800Z 21003KT 40SM FEW074 FEW240 12/M07 A3023 RMK CU1AC1 SLP265=

CYYC;2005-04-19 19:00;METAR CYYC 191900Z 18008KT 40SM FEW080 FEW240 12/M07 A3021 RMK AC1CI1 SLP260=

CYYC;2005-04-19 22:00;METAR CYYC 192200Z 20008KT 40SM FEW100 FEW200 14/M07 A3017 RMK AC1CI1 SLP250=

CYYC;2005-04-19 23:00;METAR CYYC 192300Z 14005KT 40SM FEW180 FEW240 14/M07 A3016 RMK AC1CI0 SLP245=

CYYC;2005-04-20 00:00;METAR CYYC 200000Z 16005KT 40SM FEW150 FEW240 14/M07 A3015 RMK AC1CI0 SLP240=

CYYC;2005-04-20 01:00;METAR CYYC 200100Z 13006KT 40SM FEW120 FEW150 FEW240 13/M07 A3014 RMK AC1AC1CI0 SLP239=

CYYC;2005-04-20 04:00;METAR CYYC 200400Z 19007KT 15SM SKC 06/M06 A3014 RMK SLP234=

CYYC;2005-04-20 05:00;METAR CYYC 200500Z 18008KT 15SM SKC 07/M05 A3014 RMK SLP233=

CYYC;2005-04-20 09:00;METAR CYYC 200900Z 19007KT 15SM FEW240 01/M05 A3014 RMK CI1 SLP232=

CYYC;2005-04-20 10:00;METAR CYYC 201000Z 21006KT 15SM BKN071 00/M06 A3013 RMK AC6 SLP231=

CYYC;2005-04-20 12:00;METAR CYYC 201200Z 00000KT 40SM FEW070 FEW120 FEW240 00/M07 A3013 RMK AC1AC1CI1 SLP232=

CYYC;2005-04-20 13:00;METAR CYYC 201300Z 29002KT 40SM FEW070 FEW150 00/M07 A3014 RMK AC1AC1 SLP233=

CYYC;2005-04-20 14:00;METAR CYYC 201400Z 31007KT 40SM FEW080 FEW160 06/M04 A3014 RMK AC1AC0 SLP234=

CYYC;2005-04-20 15:00;METAR CYYC 201500Z 06003KT 40SM FEW100 FEW120 10/M02 A3015 RMK AC1AC1 SLP231=

CYYC;2005-04-20 16:00;METAR CYYC 201600Z 01008KT 40SM FEW100 FEW120 12/M01 A3015 RMK AC1AC1 SLP230=

CYYC;2005-04-20 17:00;METAR CYYC 201700Z 36010KT 40SM FEW056 FEW110 FEW240 14/00 A3015 RMK CU1AC1CI1 SLP231=

CYYC;2005-04-20 19:00;METAR CYYC 201900Z 03006KT 30SM FEW064 FEW080 SCT120 SCT240 17/00 A3015 RMK CU2AC1AC1CI1 SLP229=

CYYC;2005-04-20 21:00;METAR CYYC 202100Z 36010KT 30SM FEW068 FEW220 17/M01 A3013 RMK CU2CI0 SLP226=

CYYC;2005-04-20 22:00;METAR CYYC 202200Z 02008G16KT 30SM FEW072 FEW220 18/M01 A3013 RMK CU2CI1 SLP224=

CYYC;2005-04-21 00:00;METAR CYYC 210000Z 05007KT 30SM FEW076 FEW100 SCT220 18/M01 A3012 RMK CU2AC1CI2 SLP222=

CYYC;2005-04-21 01:00;METAR CYYC 210100Z 05007KT 30SM FEW076 FEW120 FEW220 17/M02 A3012 RMK CU1AC1CI1 SLP223=

CYYC;2005-04-21 04:00;METAR CYYC 210400Z 14002KT 15SM FEW080 FEW120 FEW240 11/M04 A3016 RMK AC1AC1CI0 SLP232=

CYYC;2005-04-21 06:00;METAR CYYC 210600Z 36005KT 15SM FEW250 04/M04 A3017 RMK CI0 SLP238=

CYYC;2005-04-21 07:00;METAR CYYC 210700Z 33006KT 15SM FEW250 03/M04 A3019 RMK CI0 SLP242=

CYYC;2005-04-21 08:00;METAR CYYC 210800Z 34006KT 15SM FEW250 03/M04 A3019 RMK CI0 SLP244=

CYYC;2005-04-21 10:00;METAR CYYC 211000Z 32004KT 15SM SCT062 04/M03 A3021 RMK SC2 SLP252=

CYYC;2005-04-21 11:00;METAR CYYC 211100Z 34006KT 15SM SCT062 04/M02 A3022 RMK SC2 SLP253=

CYYC;2005-04-21 12:00;METAR CYYC 211200Z 34007KT 40SM FEW065 SCT250 05/M00 A3025 RMK SC1CI1 SLP259=

CYYC;2005-04-21 13:00;METAR CYYC 211300Z 33009KT 40SM FEW074 BKN240 08/01 A3026 RMK AC2CI1 SLP263=

CYYC;2005-04-21 14:00;METAR CYYC 211400Z 33009KT 40SM BKN071 BKN240 09/02 A3027 RMK AC4CI0 SLP268=

CYYC;2005-04-21 15:00;METAR CYYC 211500Z 36011KT 40SM BKN067 BKN240 11/01 A3029 RMK AC3CI0 SLP274=

CYYC;2005-04-21 16:00;METAR CYYC 211600Z 36010KT 40SM BKN071 BKN240 13/01 A3031 RMK AC2CI1 SLP281=

CYYC;2005-04-21 17:00;METAR CYYC 211700Z 03010KT 30SM FEW071 FEW240 15/01 A3033 RMK AC1CI1 SLP286=

CYYC;2005-04-21 18:00;METAR CYYC 211800Z 06013KT 40SM FEW078 FEW120 FEW220 FEW250 17/00 A3035 RMK AC1AC1CI1CI0 SLP296=

CYYC;2005-04-21 20:00;METAR CYYC 212000Z 09008G15KT 40SM FEW075 FEW240 18/M00 A3035 RMK CU1CI0 SLP296=

CYYC;2005-04-21 21:00;METAR CYYC 212100Z 07010G16KT 40SM FEW080 FEW240 18/M01 A3035 RMK CU1CI0 SLP297=

CYYC;2005-04-21 22:00;METAR CYYC 212200Z 09009KT 40SM FEW080 FEW240 19/M02 A3034 RMK CU1CI0 SLP294=

CYYC;2005-04-22 00:00;METAR CYYC 220000Z 13008KT 30SM FEW085 FEW240 19/M02 A3034 RMK AC1CI1 SLP292=

CYYC;2005-04-22 02:00;METAR CYYC 220200Z 10009KT 40SM FEW085 SCT250 16/M03 A3034 RMK AC1CI0 SLP292=

CYYC;2005-04-22 03:00;METAR CYYC 220300Z 10008KT 40SM FEW090 FEW250 11/M03 A3035 RMK AC1CI0 SLP295=

CYYC;2005-04-22 04:00;METAR CYYC 220400Z 09008KT 15SM FEW090 FEW250 09/M03 A3036 RMK AC1CI1 AC TR SLP299=

CYYC;2005-04-22 05:00;METAR CYYC 220500Z 12010KT 15SM FEW250 10/M03 A3037 RMK CI0 SLP302=

CYYC;2005-04-22 06:00;METAR CYYC 220600Z 14009KT 15SM FEW250 09/M03 A3038 RMK CI0 SLP300=

CYYC;2005-04-22 09:00;METAR CYYC 220900Z 18008KT 15SM FEW250 06/M03 A3036 RMK CI0 SLP296=

CYYC;2005-04-22 10:00;METAR CYYC 221000Z 16008KT 15SM FEW250 07/M03 A3033 RMK CI0 SLP287=

CYYC;2005-04-22 12:00;METAR CYYC 221200Z 20005KT 40SM FEW250 03/M03 A3030 RMK CI0 SLP279=

CYYC;2005-04-22 13:00;METAR CYYC 221300Z 21006KT 40SM BKN250 04/M03 A3029 RMK CI0 SLP275=

CYYC;2005-04-22 14:00;METAR CYYC 221400Z 19008KT 40SM BKN250 07/M02 A3028 RMK CI0 SLP272=

CYYC;2005-04-22 16:00;METAR CYYC 221600Z 19011KT 40SM BKN250 13/00 A3024 RMK CI0 SLP260=

CYYC;2005-04-22 17:00;METAR CYYC 221700Z 18016KT 40SM SCT250 16/M00 A3021 RMK CI0 SLP252=

CYYC;2005-04-22 18:00;METAR CYYC 221800Z 18015G22KT 40SM FEW250 18/00 A3019 RMK CI0 SLP234=

CYYC;2005-04-22 19:00;METAR CYYC 221900Z 18017KT 40SM FEW250 19/M03 A3016 RMK CI0 SLP225=

CYYC;2005-04-22 21:00;METAR CYYC 222100Z 15016G21KT 40SM FEW090 FEW250 21/M03 A3010 RMK AC1CI0 SLP204=

CYYC;2005-04-22 22:00;METAR CYYC 222200Z 14019KT 40SM FEW090 FEW250 21/M02 A3007 RMK AC1CI0 SLP195=

CYYC;2005-04-22 23:00;METAR CYYC 222300Z 16017G22KT 40SM FEW090 FEW250 21/M03 A3005 RMK AC1CI0 SLP187=

CYYC;2005-04-23 00:00;METAR CYYC 230000Z 15018G24KT 40SM FEW090 FEW250 20/M04 A3003 RMK AC1CI0 SLP182=

CYYC;2005-04-23 01:00;METAR CYYC 230100Z 15015G24KT 40SM FEW090 FEW250 19/M04 A3002 RMK AC1CI0 SLP180=

CYYC;2005-04-23 06:00;METAR CYYC 230600Z 16008KT 15SM FEW160 FEW260 10/M01 A3006 RMK AC1CI1 AC TR SLP186=

CYYC;2005-04-23 07:00;METAR CYYC 230700Z 17007KT 15SM FEW250 08/M01 A3006 RMK CI1 SLP187=

CYYC;2005-04-23 08:00;METAR CYYC 230800Z 00000KT 15SM FEW250 07/M01 A3006 RMK CI1 SLP187=

CYYC;2005-04-23 09:00;METAR CYYC 230900Z 35008KT 15SM FEW250 04/M02 A3007 RMK CI0 SLP196=

CYYC;2005-04-23 10:00;METAR CYYC 231000Z 36010KT 15SM FEW250 04/M02 A3009 RMK CI0 SLP202=

CYYC;2005-04-23 12:00;METAR CYYC 231200Z 32010G17KT 20SM FEW250 07/03 A3012 RMK CI1 SLP208=

CYYC;2005-04-23 13:00;METAR CYYC 231300Z 34013KT 20SM FEW250 06/03 A3013 RMK CI0 SLP211=

CYYC;2005-04-23 14:00;METAR CYYC 231400Z 34014KT 20SM FEW020 FEW110 FEW240 08/04 A3014 RMK CU1AC1CI0 SLP215=

CYYC;2005-04-23 15:00;METAR CYYC 231500Z 35018KT 20SM FEW020 FEW120 FEW240 10/04 A3014 RMK CU1AC1CI0 SLP218=

CYYC;2005-04-23 16:00;METAR CYYC 231600Z 35015KT 20SM FEW030 FEW120 FEW240 11/04 A3014 RMK CU1AC1CI0 SLP220=

CYYC;2005-04-23 22:00;METAR CYYC 232200Z 02008KT 30SM SCT050 SCT240 16/02 A3010 RMK CU3CI1 SLP213=

CYYC;2005-04-23 23:00;METAR CYYC 232300Z 03011KT 30SM SCT060 SCT240 17/02 A3009 RMK CU3CI1 SLP209=

CYYC;2005-04-24 00:00;METAR CYYC 240000Z 03005KT 30SM SCT065 SCT220 17/01 A3008 RMK CU3CI1 SLP200=

CYYC;2005-04-24 04:00;METAR CYYC 240400Z 05005KT 15SM BKN075 10/00 A3010 RMK AC5 SLP209=

CYYC;2005-04-24 06:00;METAR CYYC 240600Z 33009KT 15SM FEW075 FEW220 07/M00 A3012 RMK AC1CI1 SLP216=

CYYC;2005-04-24 07:00;METAR CYYC 240700Z 34008KT 15SM SCT072 SCT220 07/M00 A3013 RMK AC3CI1 SLP219=

CYYC;2005-04-24 10:00;METAR CYYC 241000Z 33011KT 15SM FEW220 05/00 A3012 RMK CI1 SLP217=

CYYC;2005-04-24 11:00;METAR CYYC 241100Z 33008KT 15SM FEW220 03/M00 A3012 RMK CI1 SLP217=

CYYC;2005-04-24 12:00;METAR CYYC 241200Z 33009KT 30SM FEW240 03/M00 A3012 RMK CI1 SLP219=

CYYC;2005-04-24 15:00;METAR CYYC 241500Z 35007KT 40SM FEW090 FEW160 SCT250 11/03 A3015 RMK AC1AC1CI0 SLP226=

CYYC;2005-04-24 17:00;METAR CYYC 241700Z 03007KT 40SM FEW050 FEW120 FEW250 15/04 A3016 RMK CU1AC1CI0 CU TR SLP229=

CYYC;2005-04-24 18:00;METAR CYYC 241800Z 04010KT 30SM SCT047 16/03 A3015 RMK CU4 SLP226=

CYYC;2005-04-24 19:00;METAR CYYC 241900Z 02007KT 30SM BKN052 16/03 A3014 RMK CU6 SLP223=

CYYC;2005-04-24 20:00;METAR CYYC 242000Z 05006KT 40SM BKN075 17/03 A3013 RMK CU6 SLP219=

CYYC;2005-04-24 22:00;METAR CYYC 242200Z 04006G15KT 40SM BKN072 17/01 A3010 RMK CU5 SLP209=

CYYC;2005-04-25 00:00;METAR CYYC 250000Z 35007G17KT 40SM SCT072 BKN250 17/01 A3007 RMK CU2CI1 SLP203=

CYYC;2005-04-25 01:00;METAR CYYC 250100Z 01011G16KT 40SM FEW060 BKN250 17/M01 A3007 RMK CU2CI1 SLP201=

CYYC;2005-04-25 03:00;METAR CYYC 250300Z 05007KT 40SM FEW070 SCT270 10/M02 A3008 RMK AC1CI0 SLP204=

CYYC;2005-04-25 05:00;METAR CYYC 250500Z 33004KT 15SM FEW270 09/M03 A3011 RMK CI0 SLP213=

CYYC;2005-04-25 07:00;METAR CYYC 250700Z 34006KT 15SM SKC 03/M04 A3013 RMK SLP220=

CYYC;2005-04-25 10:00;METAR CYYC 251000Z 34006KT 15SM SKC 01/M04 A3012 RMK SLP221=

CYYC;2005-04-25 11:00;METAR CYYC 251100Z 32006KT 15SM SKC M00/M04 A3012 RMK SLP220=

CYYC;2005-04-25 12:00;METAR CYYC 251200Z 33005KT 40SM SKC 01/M04 A3011 RMK SLP220=

CYYC;2005-04-25 14:00;METAR CYYC 251400Z 00000KT 40SM SKC 05/M02 A3012 RMK SLP222=

CYYC;2005-04-25 15:00;METAR CYYC 251500Z 00000KT 40SM SKC 09/M00 A3012 RMK SLP220=

CYYC;2005-04-25 16:00;METAR CYYC 251600Z 34005KT 40SM SKC 14/M01 A3011 RMK SLP217=

CYYC;2005-04-25 17:00;METAR CYYC 251700Z 36008KT 40SM SKC 15/M01 A3011 RMK SLP218=

CYYC;2005-04-25 18:00;METAR CYYC 251800Z 35005G16KT 40SM FEW260 17/M02 A3010 RMK CI1 SLP210=

CYYC;2005-04-25 20:00;METAR CYYC 252000Z 33008KT 40SM FEW085 FEW260 20/M01 A3007 RMK CU1CI1 SLP199=

CYYC;2005-04-25 21:00;METAR CYYC 252100Z 36010KT 40SM FEW085 21/M01 A3006 RMK CU1 SLP195=

CYYC;2005-04-25 23:00;METAR CYYC 252300Z 34013G18KT 40SM FEW080 22/M00 A3001 RMK CU1 SLP179=

CYYC;2005-04-26 00:00;METAR CYYC 260000Z 36012G17KT 40SM FEW080 FEW260 21/00 A3000 RMK AC1CI1 SLP173=

CYYC;2005-04-26 02:00;METAR CYYC 260200Z 03011G16KT 40SM FEW080 FEW260 19/01 A2998 RMK AC1CI1 ACC ASOCTD SLP169=

CYYC;2005-04-26 03:00;METAR CYYC 260300Z 03011KT 40SM FEW080 16/M00 A3002 RMK AC1 SLP177=

CYYC;2005-04-26 04:00;METAR CYYC 260400Z 36007KT 15SM FEW090 FEW220 12/M01 A3004 RMK AC1CI1 SLP183=

CYYC;2005-04-26 06:00;METAR CYYC 260600Z 34018G25KT 15SM FEW097 BKN250 12/M01 A3007 RMK AC2CI2 SLP188=

CYYC;2005-04-26 08:00;METAR CYYC 260800Z 34015G21KT 15SM FEW095 09/M02 A3012 RMK AC1 SLP204=

CYYC;2005-04-26 09:00;METAR CYYC 260900Z 34017KT 15SM FEW095 09/M03 A3014 RMK AC1 SLP214=

CYYC;2005-04-26 10:00;METAR CYYC 261000Z 35014G20KT 15SM FEW100 06/M03 A3017 RMK AC1 SLP222=

CYYC;2005-04-26 12:00;METAR CYYC 261200Z 35008KT 40SM BKN081 04/M03 A3021 RMK AC7 SLP242=

CYYC;2005-04-26 13:00;METAR CYYC 261300Z 35009KT 40SM FEW040 BKN076 05/M04 A3023 RMK SC1AC7 SLP247=

CYYC;2005-04-26 14:00;METAR CYYC 261400Z 34007KT 40SM FEW050 BKN073 05/M04 A3023 RMK SC1AC7 SLP248=

CYYC;2005-04-26 15:00;METAR CYYC 261500Z 34006KT 40SM BKN076 06/M04 A3024 RMK AC7 SLP257=

CYYC;2005-04-26 16:00;METAR CYYC 261600Z 35006KT 40SM FEW040 BKN055 OVC076 07/M04 A3025 RMK CU1SC5AC3 SLP260=

CYYC;2005-04-26 17:00;METAR CYYC 261700Z 36008KT 40SM BKN055 OVC080 07/M04 A3024 RMK SC6AC2 SLP257=

CYYC;2005-04-26 18:00;METAR CYYC 261800Z 36007KT 40SM BKN050 OVC070 07/M04 A3023 RMK SC6AC2 SLP257=

CYYC;2005-04-26 19:00;METAR CYYC 261900Z 35010KT 30SM FEW050 SCT065 BKN078 10/M03 A3021 RMK CU1SC3AC2 SLP250=

CYYC;2005-04-26 20:00;METAR CYYC 262000Z 34014KT 30SM FEW050 SCT064 BKN080 10/M02 A3019 RMK CU1SC3AC2 SLP245=

CYYC;2005-04-26 21:00;METAR CYYC 262100Z 35016G21KT 30SM FEW052 BKN080 10/M03 A3017 RMK CU2AC5 SLP239=

CYYC;2005-04-26 22:00;METAR CYYC 262200Z 36018G26KT 20SM FEW050 BKN072 10/M03 A3017 RMK SC2AC5 SLP238=

CYYC;2005-04-27 00:00;METAR CYYC 270000Z 34025G31KT 15SM FEW040 SCT064 BKN080 08/M03 A3016 RMK CU2SC2AC2 SLP243=

CYYC;2005-04-27 01:00;METAR CYYC 270100Z 36023G33KT 12SM FEW024 SCT050 BKN080 BKN110 06/M01 A3019 RMK CU1SC2AC2AC0 SLP253=

CYYC;2005-04-27 01:53;SPECI CYYC 270153Z 01022G29KT 10SM -SHRASN SCT017 OVC042 RMK CU3SC5 PCPN VRY LGT=

CYYC;2005-04-27 02:17;SPECI CYYC 270217Z 01016G27KT 5SM -SHSN FEW011 SCT017 BKN032 BKN100 RMK SC2SC2SC1AC1=

CYYC;2005-04-27 02:39;SPECI CYYC 270239Z 36015KT 15SM FEW011 SCT020 BKN067 BKN100 RMK SC1SC3AC1AC1 SHS SE-SW=

CYYC;2005-04-27 02:54;SPECI CYYC 270254Z 36015G25KT 7SM -SN SCT013 BKN018 OVC067 RMK SC3SC4AC1=

CYYC;2005-04-27 03:26;SPECI CYYC 270326Z 35015G20KT 4SM -SN BKN009 BKN014 OVC020 RMK SC5SC2SC1=

CYYC;2005-04-27 04:00;METAR CYYC 270400Z 01022G27KT 3SM -SN BKN008 BKN014 OVC020 00/M02 A3029 RMK SC5SC2SC1 SLP296=

CYYC;2005-04-27 04:10;SPECI CYYC 270410Z 36018KT 5SM -SN FEW007 SCT018 BKN035 BKN100 RMK SC2SC2SC1AC1=

CYYC;2005-04-27 04:26;SPECI CYYC 270426Z 36018KT 10SM FEW008 SCT038 BKN056 BKN100 RMK SC1SC4SC1AC1 SH SW=

CYYC;2005-04-27 04:49;SPECI CYYC 270449Z 35014G19KT 8SM -SN FEW008 SCT030 SCT056 RMK SC1SC2SC1 SH SW=

CYYC;2005-04-27 05:23;SPECI CYYC 270523Z 35014G20KT 15SM BKN013 BKN090 RMK SC5AC1=

CYYC;2005-04-27 05:37;SPECI CYYC 270537Z 36020KT 7SM -SN SCT017 SCT039 RMK SC3SC1=

CYYC;2005-04-27 06:00;METAR CYYC 270600Z 36022KT 6SM -SN FEW017 SCT033 SCT046 M00/M02 A3030 RMK SC2SC1SC1 SLP300=

CYYC;2005-04-27 06:44;SPECI CYYC 270644Z 36020G26KT 15SM FEW017 FEW040 RMK SC1SC1=

CYYC;2005-04-27 07:00;METAR CYYC 270700Z 36017G24KT 15SM FEW014 M00/M03 A3031 RMK SC2 SLP304=

CYYC;2005-04-27 07:48;SPECI CYYC 270748Z 03021KT 4SM -SHSN FEW014 OVC022 RMK SC2SC5=

CYYC;2005-04-27 08:00;METAR CYYC 270800Z 02018G24KT 3SM -SHSN FEW014 BKN022 OVC043 M02/M04 A3032 RMK SC2SC2SC2 SLP307=

CYYC;2005-04-27 10:00;METAR CYYC 271000Z 36015KT 10SM FEW020 BKN037 BKN060 M03/M07 A3033 RMK SC1SC5SC2 SLP311=

CYYC;2005-04-27 11:00;METAR CYYC 271100Z 36013KT 10SM BKN021 BKN037 BKN060 M04/M07 A3033 RMK SC5SC2SC1 SLP312=

CYYC;2005-04-27 13:00;METAR CYYC 271300Z 33010KT 15SM -SN FEW020 BKN041 BKN090 M05/M08 A3033 RMK SC2SC3AC1 SLP316=

CYYC;2005-04-27 14:18;SPECI CYYC 271418Z 35012KT 20SM FEW020 FEW040 RMK CU2SC1=

CYYC;2005-04-27 15:00;METAR CYYC 271500Z 36015G20KT 20SM BKN021 M03/M08 A3032 RMK SC6 SLP320=

CYYC;2005-04-27 16:00;METAR CYYC 271600Z 35014G21KT 20SM -SHSN BKN022 M02/M08 A3030 RMK SC7 SLP315=

CYYC;2005-04-27 17:00;METAR CYYC 271700Z 35018KT 20SM -SN OVC030 M02/M08 A3028 RMK SC8 SLP309=

CYYC;2005-04-27 18:00;METAR CYYC 271800Z 36018G24KT 20SM -SHSN BKN030 M02/M09 A3027 RMK SC7 SLP303=

CYYC;2005-04-27 18:25;SPECI CYYC 271825Z 35016G22KT 20SM BKN031 RMK SC7=

CYYC;2005-04-27 20:00;METAR CYYC 272000Z 34011G21KT 20SM BKN031 01/M08 A3023 RMK SC7 SLP290=

CYYC;2005-04-27 22:00;METAR CYYC 272200Z 36016G21KT 20SM BKN044 02/M09 A3019 RMK SC6 SLP276=

CYYC;2005-04-28 00:00;METAR CYYC 280000Z 36014KT 20SM SCT050 BKN240 03/M10 A3016 RMK CU4CI0 SLP263=

CYYC;2005-04-28 01:00;METAR CYYC 280100Z 01012KT 20SM SCT050 BKN240 03/M10 A3014 RMK CU4CI0 VIRGA NE-SE SLP259=

CYYC;2005-04-28 04:00;METAR CYYC 280400Z 07004KT 15SM SCT074 M02/M10 A3013 RMK AC3 SLP256=

CYYC;2005-04-28 05:40;SPECI CYYC 280540Z 35011KT 1 3/4SM -SN BKN005 OVC018 RMK SN6SC2SC1 RVR RWY28 3000 FT=

CYYC;2005-04-28 06:00;METAR CYYC 280600Z 02012KT 10SM -SN FEW028 OVC038 M03/M04 A3014 RMK SC1SC7 SLP259=

CYYC;2005-04-28 06:25;SPECI CYYC 280625Z 03012KT 2 1/4SM -SN BKN005 OVC040 RMK SC6SC2=

CYYC;2005-04-28 06:40;SPECI CYYC 280640Z 02015G20KT 5/8SM -SN DRSN VV003 RMK SN8 RVR RWY34 2000 FT=

CYYC;2005-04-28 07:00;METAR CYYC 280700Z 02017G22KT 1SM -SN DRSN BKN007 OVC020 M03/M05 A3015 RMK SN3SC3SC2 RVR RWY34 3000 FT SLP262=

CYYC;2005-04-28 07:52;SPECI CYYC 280752Z 03018KT 2SM -SN DRSN BKN008 OVC029 RMK SC5SC3=

CYYC;2005-04-28 08:00;METAR CYYC 280800Z 03020KT 2SM -SN DRSN FEW007 OVC014 M04/M06 A3017 RMK SC1SC7 SLP269=

CYYC;2005-04-28 09:00;METAR CYYC 280900Z 35014KT 15SM FEW030 BKN065 M06/M09 A3017 RMK SC2SC2 SLP272=

CYYC;2005-04-28 10:00;METAR CYYC 281000Z 35013KT 15SM SCT060 M08/M11 A3018 RMK SC3 SLP275=

CYYC;2005-04-28 13:00;METAR CYYC 281300Z 31008KT 20SM SCT042 BKN220 M09/M12 A3018 RMK SC2CI1 SLP276=

CYYC;2005-04-28 14:00;METAR CYYC 281400Z 31011KT 20SM FEW045 FEW080 M07/M11 A3018 RMK SC1AC1 SLP277=

CYYC;2005-04-28 15:00;METAR CYYC 281500Z 33013G18KT 20SM FEW045 FEW080 M05/M10 A3018 RMK SC1AC1 SLP277=

CYYC;2005-04-28 16:00;METAR CYYC 281600Z 33018KT 20SM BKN032 BKN220 M04/M11 A3017 RMK SC5CI1 SLP275=

CYYC;2005-04-28 16:17;SPECI CYYC 281617Z 35017KT 20SM -SN BKN032 RMK SC7 PCPN VRY LGT=

CYYC;2005-04-28 16:32;SPECI CYYC 281632Z 35014G22KT 20SM VCSH BKN032 RMK SC6=

CYYC;2005-04-28 16:38;SPECI CYYC 281638Z 34017G22KT 20SM -SHSN BKN032 BKN080 RMK SC6AC1=

CYYC;2005-04-28 17:00;METAR CYYC 281700Z 35017KT 20SM -SHSN BKN032 BKN080 M03/M09 A3016 RMK SC6AC1 SLP272=

CYYC;2005-04-28 19:28;SPECI CYYC 281928Z 34017KT 10SM -SHSN BKN030 BKN078 RMK SC6AC1 VIS LWR IN SHS=

CYYC;2005-04-28 20:00;METAR CYYC 282000Z 34016G21KT 15SM VCSH SCT030 BKN054 BKN080 M01/M07 A3014 RMK SC3SC2AC1 OCNL - SHSN / VIS LWR IN SHS SLP265=

CYYC;2005-04-28 20:18;SPECI CYYC 282018Z 35020KT 15SM -SHSN SCT030 BKN054 BKN080 RMK SC3SC2AC1 INTMT -SHSN / VIS LWR IN SHS=

CYYC;2005-04-28 22:00;METAR CYYC 282200Z 34017G25KT 20SM BKN050 BKN080 01/M11 A3012 RMK SC6AC0 SHS ALQDS SLP258=

CYYC;2005-04-28 23:00;METAR CYYC 282300Z 35015G24KT 20SM BKN050 01/M09 A3012 RMK SC6 SHS ALQDS SLP257=

CYYC;2005-04-29 00:00;METAR CYYC 290000Z 34019KT 20SM SCT045 OVC200 01/M11 A3012 RMK SC2CS0 SHS ALQDS SLP257=

CYYC;2005-04-29 01:00;METAR CYYC 290100Z 36016G22KT 20SM SCT050 BKN200 01/M10 A3012 RMK SC2CS0 SHS ALQDS / VIS LWR IN SHS SLP257=

CYYC;2005-04-29 02:00;METAR CYYC 290200Z 35015G20KT 20SM SCT050 BKN220 00/M10 A3012 RMK SC3CI1 TCU ASOCTD SLP258=

CYYC;2005-04-29 04:00;METAR CYYC 290400Z 33007KT 15SM FEW050 FEW100 BKN220 M04/M11 A3014 RMK SC1AC1CI2 SLP263=

CYYC;2005-04-29 05:00;METAR CYYC 290500Z 33007KT 15SM FEW060 FEW100 FEW220 M06/M12 A3014 RMK SC1AC1CI0 AC TR SLP264=

CYYC;2005-04-29 07:00;METAR CYYC 290700Z 34008KT 15SM SCT067 M07/M12 A3015 RMK AC2 SLP273=

CYYC;2005-04-29 10:00;METAR CYYC 291000Z 32007KT 15SM FEW240 M08/M13 A3015 RMK CI1 SLP270=

CYYC;2005-04-29 11:00;METAR CYYC 291100Z 31008KT 15SM SCT250 M09/M14 A3015 RMK CI1 SLP270=

CYYC;2005-04-29 12:00;METAR CYYC 291200Z 31008KT 20SM SCT250 M08/M13 A3015 RMK CI1 SLP268=

CYYC;2005-04-29 19:00;METAR CYYC 291900Z 32016G24KT 40SM OVC080 OVC250 03/M12 A3011 RMK AS6CI1 AC ASOCTD / VIRGA SLP252=

CYYC;2005-04-29 20:00;METAR CYYC 292000Z 34022G33KT 40SM FEW065 OVC080 04/M12 A3011 RMK SC2AS5 AC ASOCTD / VIRGA SLP251=

CYYC;2005-04-29 21:00;METAR CYYC 292100Z 34018G25KT 40SM FEW060 OVC080 03/M11 A3011 RMK SC2AS3 AC ASOCTD / VIRGA SLP249=

CYYC;2005-04-29 22:00;METAR CYYC 292200Z 35022KT 40SM FEW060 OVC100 05/M11 A3011 RMK SC2AS3 AC ASOCTD / VIRGA SLP250=

CYYC;2005-04-29 23:00;METAR CYYC 292300Z 34017G25KT 30SM FEW065 OVC100 04/M10 A3012 RMK SC1AS8 VIRGA SLP252=

CYYC;2005-04-30 00:00;METAR CYYC 300000Z 34022G30KT 20SM FEW065 BKN100 OVC250 03/M10 A3012 RMK SC1AS6CI0 VIRGA SLP256=

CYYC;2005-04-30 03:00;METAR CYYC 300300Z 36021G26KT 12SM -SN BKN063 OVC089 M01/M06 A3018 RMK SC5AS3 SLP274=

CYYC;2005-04-30 04:00;METAR CYYC 300400Z 35013G18KT 12SM -SN BKN034 OVC070 M02/M06 A3021 RMK SC5AS3 SLP283=

CYYC;2005-04-30 05:00;METAR CYYC 300500Z 35017G22KT 15SM -SN FEW015 FEW035 BKN120 M03/M07 A3023 RMK SF1SC2AC5 SLP288=

CYYC;2005-04-30 05:49;SPECI CYYC 300549Z 34014G20KT 15SM FEW080 SCT120 BKN250 RMK AC1AC2CI1=

CYYC;2005-04-30 06:48;SPECI CYYC 300648Z 33019G24KT 2SM -SN DRSN BKN010 OVC024 RMK SC6SC2=

CYYC;2005-04-30 07:28;SPECI CYYC 300728Z 32015KT 5SM -SN DRSN BKN038 OVC049 RMK SC6SC2=

CYYC;2005-04-30 10:00;METAR CYYC 301000Z 33012KT 12SM -SN FEW020 OVC087 M04/M07 A3027 RMK SC2AC5 SLP302=

CYYC;2005-04-30 10:29;SPECI CYYC 301029Z 33012KT 15SM FEW050 OVC073 RMK SC2AC5=

CYYC;2005-04-30 11:00;METAR CYYC 301100Z 33012KT 15SM FEW050 OVC071 M04/M07 A3028 RMK SC1AC6 SLP305=

CYYC;2005-04-30 12:00;METAR CYYC 301200Z 33010KT 15SM FEW060 OVC073 M04/M08 A3029 RMK SC1AC7 SN CVR/ TRACE LOOSE SLP307=

CYYC;2005-04-30 13:00;METAR CYYC 301300Z 34010KT 20SM SCT073 BKN220 M04/M08 A3030 RMK AC3CI2 SLP311=

CYYC;2005-04-30 15:00;METAR CYYC 301500Z 36011KT 20SM FEW030 SCT050 BKN085 M03/M07 A3032 RMK SC1SC0AC6 SLP324=

CYYC;2005-04-30 16:00;METAR CYYC 301600Z 01011KT 20SM FEW018 SCT056 BKN085 M02/M07 A3033 RMK SC1SC0AC6 SLP326=

CYYC;2005-04-30 17:00;METAR CYYC 301700Z 36011KT 30SM FEW020 BKN063 BKN085 M01/M08 A3033 RMK SC2SC2AC2 SLP326=

CYYC;2005-04-30 18:00;METAR CYYC 301800Z 01014KT 30SM BKN025 BKN075 00/M08 A3033 RMK SC4AC1 SLP325=

CYYC;2005-04-30 19:00;METAR CYYC 301900Z 36008G17KT 30SM BKN026 BKN075 01/M07 A3032 RMK SC6AC1 SLP324=

CYYC;2005-04-30 21:00;METAR CYYC 302100Z 02009G17KT 30SM BKN038 03/M08 A3033 RMK SC7 SLP322=

CYYC;2005-04-30 22:00;METAR CYYC 302200Z 03014KT 30SM BKN045 03/M07 A3032 RMK SC6 SLP321=

CYYC;2005-05-01 00:00;METAR CYYC 010000Z 05012KT 20SM BKN046 03/M08 A3032 RMK SC6 SLP321=

CYYC;2005-05-01 02:00;METAR CYYC 010200Z 07010KT 20SM BKN042 OVC060 00/M07 A3036 RMK SC6SC2 SLP331=

CYYC;2005-05-01 03:00;METAR CYYC 010300Z 07011KT 20SM OVC042 M01/M08 A3037 RMK SC8 SLP343=

CYYC;2005-05-01 04:00;METAR CYYC 010400Z 08010KT 15SM OVC053 M02/M08 A3040 RMK SC8 SLP350=

CYYC;2005-05-01 05:00;METAR CYYC 010500Z 09009KT 15SM OVC052 M03/M08 A3040 RMK SC8 SLP352=

CYYC;2005-05-01 06:00;METAR CYYC 010600Z 12005KT 15SM OVC057 M03/M08 A3041 RMK SC8 SLP353=

CYYC;2005-05-01 09:00;METAR CYYC 010900Z 18005KT 15SM OVC031 M04/M08 A3040 RMK SC8 SLP345=

CYYC;2005-05-01 10:00;METAR CYYC 011000Z 16005KT 15SM OVC031 M04/M08 A3040 RMK SC8 SLP345=

CYYC;2005-05-01 11:00;METAR CYYC 011100Z 15004KT 15SM OVC030 M04/M08 A3040 RMK SC7 SLP345=

CYYC;2005-05-01 12:00;METAR CYYC 011200Z 18005KT 20SM FEW030 OVC220 M05/M09 A3040 RMK SC2CI4 SLP348=

CYYC;2005-05-01 13:00;METAR CYYC 011300Z 14004KT 20SM FEW040 BKN220 M05/M08 A3040 RMK SC2CI3 SLP350=

CYYC;2005-05-01 14:00;METAR CYYC 011400Z 20004KT 20SM FEW040 SCT220 M03/M07 A3042 RMK SC1CI0 SLP354=

CYYC;2005-05-01 15:00;METAR CYYC 011500Z 14004KT 20SM FEW035 SCT220 M01/M08 A3042 RMK CU1CI0 SLP355=

CYYC;2005-05-01 16:00;METAR CYYC 011600Z 15004KT 20SM FEW035 SCT045 M00/M09 A3042 RMK CU1SC1 SLP354=

CYYC;2005-05-01 19:00;METAR CYYC 011900Z 14005KT 20SM FEW049 04/M09 A3040 RMK CU2 SLP345=

CYYC;2005-05-01 21:00;METAR CYYC 012100Z 01004KT 20SM BKN058 04/M10 A3038 RMK SC6 SLP337=

CYYC;2005-05-01 22:00;METAR CYYC 012200Z 13007KT 20SM BKN058 05/M09 A3037 RMK SC6 SLP335=

CYYC;2005-05-02 00:00;METAR CYYC 020000Z 07002KT 20SM SCT060 05/M09 A3035 RMK SC4 SLP330=

CYYC;2005-05-02 01:00;METAR CYYC 020100Z 07007KT 20SM FEW060 05/M09 A3034 RMK SC1 SLP326=

CYYC;2005-05-02 03:00;METAR CYYC 020300Z 10009KT 20SM FEW120 02/M10 A3033 RMK AC1 SLP320=

CYYC;2005-05-02 04:00;METAR CYYC 020400Z 10009KT 15SM FEW120 M00/M10 A3033 RMK AC0 SLP321=

CYYC;2005-05-02 05:00;METAR CYYC 020500Z 12009KT 15SM SKC M01/M10 A3033 RMK SLP321=

CYYC;2005-05-02 08:00;METAR CYYC 020800Z 14007KT 15SM SKC M04/M09 A3033 RMK SLP320=

CYYC;2005-05-02 10:00;METAR CYYC 021000Z 16004KT 15SM SKC M05/M09 A3031 RMK SLP315=

CYYC;2005-05-02 12:00;METAR CYYC 021200Z 13004KT 20SM FEW240 M06/M09 A3029 RMK CI1 CI TR SLP308=

CYYC;2005-05-02 16:00;METAR CYYC 021600Z 17009KT 20SM FEW170 02/M08 A3026 RMK AC1 SLP296=

CYYC;2005-05-02 17:00;METAR CYYC 021700Z 14009KT 30SM FEW140 05/M06 A3025 RMK AC1 SLP292=

CYYC;2005-05-02 18:00;METAR CYYC 021800Z 17009G15KT 20SM FEW140 07/M05 A3024 RMK AC1 SLP282=

CYYC;2005-05-02 19:00;METAR CYYC 021900Z 12010G16KT 20SM FEW050 FEW200 09/M06 A3021 RMK CU1CI0 SLP275=

CYYC;2005-05-02 20:00;METAR CYYC 022000Z 18005KT 30SM FEW060 FEW180 10/M06 A3019 RMK CU1AC1 SLP268=

CYYC;2005-05-02 21:00;METAR CYYC 022100Z 16007KT 30SM FEW060 FEW170 11/M06 A3017 RMK CU1AC1 SLP258=

CYYC;2005-05-03 00:00;METAR CYYC 030000Z 14005KT 20SM FEW080 12/M07 A3011 RMK AC1 SLP234=

CYYC;2005-05-03 03:00;METAR CYYC 030300Z 14011KT 30SM FEW090 FEW140 FEW240 09/M07 A3005 RMK AC1AC1CI0 SLP211=

CYYC;2005-05-03 04:00;METAR CYYC 030400Z 14011KT 15SM FEW090 FEW240 06/M07 A3006 RMK AC1CI0 SLP214=

CYYC;2005-05-03 05:00;METAR CYYC 030500Z 16011KT 15SM SCT250 04/M08 A3006 RMK CI0 SLP214=

CYYC;2005-05-03 07:00;METAR CYYC 030700Z 16010KT 15SM FEW240 02/M08 A3003 RMK CI0 SLP203=

CYYC;2005-05-03 09:00;METAR CYYC 030900Z 16010KT 15SM SCT250 02/M08 A2999 RMK CI0 SLP183=

CYYC;2005-05-03 10:00;METAR CYYC 031000Z 16006KT 15SM FEW240 M00/M08 A2997 RMK CI1 SLP177=

CYYC;2005-05-03 11:00;METAR CYYC 031100Z 18004KT 15SM FEW170 SCT200 M01/M08 A2995 RMK AC1CI0 SLP172=

CYYC;2005-05-03 12:00;METAR CYYC 031200Z 20004KT 40SM FEW090 SCT150 BKN210 M01/M08 A2993 RMK AC1AC2CI0 SLP165=

CYYC;2005-05-03 13:00;METAR CYYC 031300Z 21006KT 40SM FEW090 SCT130 BKN220 00/M07 A2992 RMK AC1AC2CI0 SLP162=

CYYC;2005-05-03 14:00;METAR CYYC 031400Z 21006KT 40SM FEW040 FEW130 BKN230 02/M05 A2991 RMK SC1AC1CI2 SLP160=

CYYC;2005-05-03 15:00;METAR CYYC 031500Z 21007KT 40SM FEW040 FEW100 BKN230 08/M03 A2990 RMK SC1AC2CI2 SLP146=

CYYC;2005-05-03 16:00;METAR CYYC 031600Z 19006KT 40SM FEW040 FEW100 BKN130 BKN240 10/M03 A2989 RMK SC1AC2AS4CI1 SLP144=

CYYC;2005-05-05 01:00;METAR CYYC 050100Z 12010KT 20SM FEW065 SCT100 OVC240 15/M01 A2994 RMK CU1AC3CI2 SLP158=

CYYC;2005-05-05 03:00;METAR CYYC 050300Z 11009KT 30SM FEW080 SCT110 BKN200 11/M02 A2995 RMK AC1AC2CI1 SLP159=

CYYC;2005-05-05 04:00;METAR CYYC 050400Z 14010KT 15SM FEW080 SCT180 11/M02 A2996 RMK AC2AC0 SLP164=

CYYC;2005-05-05 07:00;METAR CYYC 050700Z 15009KT 15SM FEW220 07/M01 A2996 RMK CI0 SLP161=

CYYC;2005-05-05 10:00;METAR CYYC 051000Z 13007KT 15SM FEW100 04/M02 A2995 RMK AC1 SLP159=

CYYC;2005-05-05 11:00;METAR CYYC 051100Z 15008KT 15SM SCT120 SCT240 04/M01 A2994 RMK AC2CI1 SLP156=

CYYC;2005-05-05 12:00;METAR CYYC 051200Z 19003KT 30SM FEW080 SCT120 BKN240 03/M01 A2994 RMK AC1AC2CI0 SLP158=

CYYC;2005-05-05 13:00;METAR CYYC 051300Z 20004KT 40SM FEW080 FEW120 BKN250 04/M00 A2993 RMK AC1AC1CI2 SLP155=

CYYC;2005-05-05 14:00;METAR CYYC 051400Z 21006KT 40SM FEW090 BKN250 07/00 A2992 RMK AC1CI1 AC TR SLP153=

CYYC;2005-05-05 15:00;METAR CYYC 051500Z 20006KT 40SM FEW100 BKN250 09/01 A2991 RMK AC1CI2 AC TR SLP146=

CYYC;2005-05-05 16:00;METAR CYYC 051600Z 15006KT 40SM FEW100 BKN250 14/02 A2990 RMK AC1CI2 AC TR SLP143=

CYYC;2005-05-05 17:00;METAR CYYC 051700Z 17007KT 40SM FEW060 FEW120 BKN250 15/02 A2989 RMK CU1AC1CI2 CU+AC TR SLP140=

CYYC;2005-05-05 18:00;METAR CYYC 051800Z 18009KT 40SM FEW060 BKN250 17/01 A2986 RMK CU1CI2 CU TR SLP122=

CYYC;2005-05-05 19:00;METAR CYYC 051900Z 20011KT 40SM FEW060 BKN250 18/02 A2985 RMK CU1CI2 CU TR SLP119=

CYYC;2005-05-05 20:00;METAR CYYC 052000Z 18008G16KT 40SM FEW060 BKN240 19/01 A2983 RMK CU1CI2 SLP112=

CYYC;2005-05-05 21:00;METAR CYYC 052100Z 19009G16KT 40SM FEW060 BKN240 19/00 A2980 RMK CU2CI2 SLP101=

CYYC;2005-05-05 22:00;METAR CYYC 052200Z 20009KT 40SM FEW065 SCT091 OVC240 19/01 A2978 RMK CU2AC1CI2 SLP095=

CYYC;2005-05-05 22:15;SPECI CYYC 052215Z 20006KT 40SM -SHRA FEW054 SCT070 OVC240 RMK CU2AC2CI2=

CYYC;2005-05-05 22:55;SPECI CYYC 052255Z 14006KT 40SM FEW054 SCT079 OVC240 RMK CU2AC2CI2=

CYYC;2005-05-06 00:00;METAR CYYC 060000Z 17007KT 40SM FEW060 SCT120 OVC240 19/01 A2975 RMK CU2AC2CI1 CB ASOCTD E SLP085=

CYYC;2005-05-06 03:00;METAR CYYC 060300Z 17008KT 40SM FEW060 SCT100 BKN210 17/00 A2971 RMK SC2AC2CI2 VIRGA N-NE SLP068=

CYYC;2005-05-06 05:00;METAR CYYC 060500Z 30005KT 15SM FEW060 FEW100 OVC160 12/01 A2970 RMK SC1AC1AC6 SLP064=

CYYC;2005-05-06 07:00;METAR CYYC 060700Z 20007KT 15SM FEW090 BKN120 OVC200 12/M00 A2970 RMK AC2AC6CI1 SLP060=

CYYC;2005-05-06 10:00;METAR CYYC 061000Z 30011KT 15SM FEW100 OVC120 10/02 A2970 RMK AC1AC7 SLP060=

CYYC;2005-05-06 11:00;METAR CYYC 061100Z 31012KT 15SM SCT070 BKN100 11/02 A2969 RMK AC4AC3 SLP057=

CYYC;2005-05-06 13:00;METAR CYYC 061300Z 33008KT 40SM FEW050 BKN076 BKN100 10/02 A2968 RMK SC1AC5AC2 VIRGA E + SW SLP051=

CYYC;2005-05-06 14:00;METAR CYYC 061400Z 32006KT 40SM BKN076 BKN100 11/02 A2968 RMK AC6AC1 SLP051=

CYYC;2005-05-06 15:00;METAR CYYC 061500Z 35009KT 40SM BKN076 BKN100 12/03 A2968 RMK AC3AC4 SLP052=

CYYC;2005-05-06 16:00;METAR CYYC 061600Z 36010KT 40SM FEW077 BKN120 BKN240 13/03 A2967 RMK AC1AC5CI1 SLP050=

CYYC;2005-05-06 18:00;METAR CYYC 061800Z 33006KT 30SM FEW080 BKN120 BKN210 15/04 A2966 RMK AC1AC7CI1 SLP049=

CYYC;2005-05-06 19:00;METAR CYYC 061900Z 32006KT 30SM FEW080 BKN110 16/04 A2966 RMK AC2AC6 CVCTV CLD DVLPING SLP048=

CYYC;2005-05-06 21:00;METAR CYYC 062100Z 07004KT 30SM FEW068 BKN083 BKN210 16/03 A2964 RMK AC2AC6CI1 SLP044=

CYYC;2005-05-06 22:00;METAR CYYC 062200Z 14003KT 30SM FEW068 BKN080 OVC210 17/03 A2963 RMK AC2AC3CI2 SLP040=

CYYC;2005-05-07 00:00;METAR CYYC 070000Z 01006KT 20SM SCT065 BKN085 BKN210 17/02 A2963 RMK SC4AC2CI1 SLP038=

CYYC;2005-05-07 00:47;SPECI CYYC 070047Z 35006KT 20SM -SHRA FEW065 BKN085 BKN210 RMK SC2AC4CI1 PCPN VRY LGT=

CYYC;2005-05-07 03:00;METAR CYYC 070300Z 34012KT 30SM FEW065 SCT072 BKN240 12/06 A2967 RMK CU2AC2CI1 SLP056=

CYYC;2005-05-07 04:00;METAR CYYC 070400Z 35016KT 15SM FEW065 BKN085 11/07 A2970 RMK CU2AC3 SLP065=

CYYC;2005-05-07 05:00;METAR CYYC 070500Z 36012G19KT 15SM SCT019 BKN074 10/07 A2971 RMK SC3AC3 SLP069=

CYYC;2005-05-07 07:00;METAR CYYC 070700Z 04009KT 15SM SCT011 OVC020 09/06 A2974 RMK SC4SC4 SLP079=

CYYC;2005-05-07 10:00;METAR CYYC 071000Z 36004KT 15SM FEW008 BKN016 OVC036 08/07 A2975 RMK SF1SC5SC2 SLP084=

CYYC;2005-05-07 11:00;METAR CYYC 071100Z 03003KT 15SM OVC011 08/07 A2976 RMK SC8 SLP087=

CYYC;2005-05-07 12:00;METAR CYYC 071200Z 03006KT 15SM OVC006 08/07 A2979 RMK SC8 SLP096=

CYYC;2005-05-07 13:26;SPECI CYYC 071326Z 01012KT 1/2SM FG VV001 RMK FG8 RVR RWY28 3000 FT=

CYYC;2005-05-07 13:52;SPECI CYYC 071352Z 36012KT 1SM BR OVC001 RMK ST8 RVR RWY28 6000 FT=

CYYC;2005-05-07 14:00;METAR CYYC 071400Z 36011KT 3SM BR OVC003 06/06 A2985 RMK ST8 SLP114=

CYYC;2005-05-07 14:13;SPECI CYYC 071413Z 01011KT 5SM BR SCT005 OVC008 RMK ST2SC6=

CYYC;2005-05-07 16:00;METAR CYYC 071600Z 36009G15KT 20SM FEW014 BKN028 09/05 A2985 RMK SC2SC6 SLP127=

CYYC;2005-05-07 17:00;METAR CYYC 071700Z 36013KT 20SM OVC018 09/04 A2987 RMK SC7 SLP133=

CYYC;2005-05-07 19:00;METAR CYYC 071900Z 01011KT 20SM OVC020 09/04 A2989 RMK SC8 SLP140=

CYYC;2005-05-07 21:00;METAR CYYC 072100Z 01010KT 20SM BKN035 11/03 A2990 RMK SC7 SLP145=

CYYC;2005-05-08 00:00;METAR CYYC 080000Z 05010G15KT 20SM SCT028 BKN061 BKN220 10/03 A2993 RMK SC2SC3CI0 SLP154=

CYYC;2005-05-08 03:00;METAR CYYC 080300Z 06006KT 20SM SCT036 OVC064 09/04 A2998 RMK CU3SC4 SLP174=

CYYC;2005-05-08 04:00;METAR CYYC 080400Z 05006KT 15SM FEW050 OVC073 08/04 A3000 RMK SC2AC5 SLP181=

CYYC;2005-05-08 07:00;METAR CYYC 080700Z 08004KT 15SM SCT026 OVC082 06/04 A3003 RMK SC4AC3 SLP194=

CYYC;2005-05-08 08:00;METAR CYYC 080800Z 02003KT 15SM BKN049 OVC090 06/04 A3003 RMK SC6AC2 SLP194=

CYYC;2005-05-08 10:00;METAR CYYC 081000Z 01003KT 15SM FEW020 OVC096 04/03 A3003 RMK SC1AC7 SLP192=

CYYC;2005-05-08 11:00;METAR CYYC 081100Z 35004KT 12SM BKN026 OVC096 04/03 A3003 RMK SC5AC3 SLP191=

CYYC;2005-05-08 12:00;METAR CYYC 081200Z 35004KT 3SM BR BKN019 OVC098 04/03 A3004 RMK SC6AC2 SLP199=

CYYC;2005-05-08 13:00;METAR CYYC 081300Z 01005KT 4SM BR BKN048 OVC098 05/03 A3005 RMK SC7AC1 SLP202=

CYYC;2005-05-08 14:17;SPECI CYYC 081417Z 09004KT 6SM BR FEW008 SCT015 OVC045 RMK SC1SC3SC4=

CYYC;2005-05-08 15:00;METAR CYYC 081500Z 10006KT 7SM FEW009 FEW015 OVC048 07/04 A3007 RMK SC2SC1SC6 SLP207=

CYYC;2005-05-08 15:38;SPECI CYYC 081538Z 10007KT 7SM FEW009 BKN012 OVC045 RMK SC1SC4SC3=

CYYC;2005-05-08 16:00;METAR CYYC 081600Z 12006KT 8SM FEW009 BKN013 OVC045 08/04 A3006 RMK SC1SC5SC2 SLP205=

CYYC;2005-05-08 16:33;SPECI CYYC 081633Z 17006KT 8SM FEW012 BKN018 OVC045 RMK SC1SC6SC2=

CYYC;2005-05-08 18:00;METAR CYYC 081800Z 20007KT 15SM FEW028 OVC041 10/03 A3004 RMK CU2SC6 VIRGA SW+N+SE SLP197=

CYYC;2005-05-08 19:00;METAR CYYC 081900Z 15006KT 20SM SCT035 OVC043 11/03 A3003 RMK CU3SC5 SLP194=

CYYC;2005-05-08 20:00;METAR CYYC 082000Z 16006KT 20SM BKN039 OVC050 11/03 A3002 RMK CU5SC3 SLP190=

CYYC;2005-05-08 21:00;METAR CYYC 082100Z 16007KT 20SM BKN040 BKN051 BKN120 13/02 A3001 RMK CU5SC1AC1 SLP183=

CYYC;2005-05-08 22:00;METAR CYYC 082200Z 15009KT 20SM SCT045 BKN057 OVC120 13/02 A3000 RMK CU4SC2AC1 SLP179=

CYYC;2005-05-09 00:00;METAR CYYC 090000Z 14011KT 20SM FEW045 BKN054 14/02 A2997 RMK CU2SC6 SLP169=

CYYC;2005-05-09 04:00;METAR CYYC 090400Z 14009KT 15SM FEW049 OVC060 12/01 A2996 RMK SC2SC6 SLP163=

CYYC;2005-05-09 05:00;METAR CYYC 090500Z 13011KT 15SM FEW047 OVC058 11/02 A2995 RMK SC2SC6 SLP162=

CYYC;2005-05-09 06:00;METAR CYYC 090600Z 13010KT 15SM FEW047 OVC055 10/02 A2996 RMK SC2SC6 SLP162=

CYYC;2005-05-09 09:00;METAR CYYC 090900Z 16008KT 15SM OVC045 09/02 A2993 RMK SC8 SLP151=

CYYC;2005-05-09 10:00;METAR CYYC 091000Z 15006KT 15SM OVC047 09/01 A2992 RMK SC8 SLP149=

CYYC;2005-05-09 12:00;METAR CYYC 091200Z 13006KT 20SM OVC056 07/01 A2991 RMK SC8 SLP143=

CYYC;2005-05-09 13:00;METAR CYYC 091300Z 13006KT 20SM OVC060 08/01 A2991 RMK SC8 SLP145=

CYYC;2005-05-09 15:00;METAR CYYC 091500Z 19002KT 20SM BKN058 OVC200 08/02 A2992 RMK SC7CI1 VIRGA SLP147=

CYYC;2005-05-09 16:00;METAR CYYC 091600Z 20002KT 20SM BKN066 OVC200 09/03 A2993 RMK AC6CI2 VIRGA SLP150=

CYYC;2005-05-09 17:00;METAR CYYC 091700Z 00000KT 15SM OVC071 10/03 A2993 RMK AC8 VIRGA SLP152=

CYYC;2005-05-09 18:00;METAR CYYC 091800Z 20002KT 15SM FEW045 OVC060 11/02 A2994 RMK SC2SC6 VIRGA SLP154=

CYYC;2005-05-09 21:00;METAR CYYC 092100Z 05008KT 20SM SCT048 BKN061 OVC090 12/M00 A2995 RMK CU3SC4AC1 VIRGA SLP157=

CYYC;2005-05-09 22:00;METAR CYYC 092200Z 03012KT 20SM VCSH BKN049 OVC060 12/01 A2994 RMK CU5SC3 SHS NE+SW SLP156=

CYYC;2005-05-09 23:00;METAR CYYC 092300Z 35016KT 12SM FEW049 BKN060 OVC073 11/05 A2996 RMK CU2SC3AC2 VIRGA SLP161=

CYYC;2005-05-10 00:00;METAR CYYC 100000Z 34018KT 10SM FEW018 BKN050 OVC060 11/05 A2996 RMK SC2SC3SC2 SH SE SLP167=

CYYC;2005-05-10 00:36;SPECI CYYC 100036Z 35014G20KT 15SM -SHRA FEW018 SCT050 OVC060 RMK SC2SC2SC4=

CYYC;2005-05-10 02:00;METAR CYYC 100200Z 34015G20KT 10SM VCSH FEW020 BKN050 OVC085 08/05 A2998 RMK SC1SC3AC4 SLP171=

CYYC;2005-05-10 04:00;METAR CYYC 100400Z 34013KT 15SM FEW020 BKN069 OVC088 07/04 A3002 RMK SC1AC5AC3 VIRGA SLP188=

CYYC;2005-05-10 04:37;SPECI CYYC 100437Z 34014KT 15SM -RA FEW020 BKN069 OVC092 RMK SC1AC3AC4 PCPN VRY LGT=

CYYC;2005-05-10 05:00;METAR CYYC 100500Z 34013KT 15SM -RA FEW020 BKN066 OVC092 07/04 A3003 RMK SC1AC3AC5 PCPN VRY LGT SLP192=

CYYC;2005-05-10 07:00;METAR CYYC 100700Z 34010KT 8SM -RA FEW022 BKN029 OVC060 06/04 A3005 RMK CF1SC6SC2 SLP197=

CYYC;2005-05-10 09:00;METAR CYYC 100900Z 34009KT 8SM -RA OVC034 06/04 A3006 RMK SC8 PCPN VRY LGT SLP200=

CYYC;2005-05-10 10:00;METAR CYYC 101000Z 36009KT 10SM -RA OVC034 06/05 A3007 RMK SC8 PCPN VRY LGT SLP203=

CYYC;2005-05-10 11:00;METAR CYYC 101100Z 05009KT 8SM -RA FEW016 OVC030 06/04 A3009 RMK SC2SC6 SLP209=

CYYC;2005-05-10 11:38;SPECI CYYC 101138Z 09007KT 5SM -RA BKN008 OVC030 RMK SC5SC3=

CYYC;2005-05-10 12:00;METAR CYYC 101200Z 05008KT 5SM -RA OVC008 06/05 A3010 RMK SC8 SLP216=

CYYC;2005-05-10 12:23;SPECI CYYC 101223Z 05013KT 7SM -RA BKN008 OVC021 RMK SC4SC4=

CYYC;2005-05-10 13:00;METAR CYYC 101300Z 05014G19KT 7SM -RA SCT007 OVC022 03/02 A3012 RMK SC1SC7 SLP223=

CYYC;2005-05-10 13:41;SPECI CYYC 101341Z 05016KT 12SM -SHRA BKN007 OVC020 RMK SC6SC2 TCU EMBD=

CYYC;2005-05-10 14:37;SPECI CYYC 101437Z 05012KT 3SM -SN BKN005 OVC017 RMK SC7SC1=

CYYC;2005-05-10 14:54;SPECI CYYC 101454Z 04011G16KT 1 1/4SM -SN BKN006 OVC013 RMK SN3SC4SC1=

CYYC;2005-05-10 15:18;SPECI CYYC 101518Z 04011KT 3/4SM -SN BKN006 OVC012 RMK SN6SC1SC2 RVR RWY34 6000 FT=

CYYC;2005-05-10 16:00;METAR CYYC 101600Z 04007KT 3/4SM -SN BKN006 OVC017 M01/M02 A3021 RMK SN6SC2SC1 RVR RWY34 4000 FT SLP269=

CYYC;2005-05-10 16:46;SPECI CYYC 101646Z 02006KT 1SM -SN BKN009 OVC015 RMK SN4SC2SC2 RVR RWY34 6000 FT=

CYYC;2005-05-10 17:00;METAR CYYC 101700Z 36006KT 1SM -SN BKN009 OVC017 M00/M02 A3024 RMK SN4SC1SC3 RVR RWY34 6000 FT SLP277=

CYYC;2005-05-10 17:35;SPECI CYYC 101735Z 02006KT 1 1/4SM -SN BKN009 OVC019 RMK SN3SC2SC3=

CYYC;2005-05-10 19:42;SPECI CYYC 101942Z 30005KT 15SM BKN030 OVC051 RMK SC5SC2=

CYYC;2005-05-10 20:00;METAR CYYC 102000Z 30006KT 15SM BKN054 05/01 A3026 RMK SC7 SLP288=

CYYC;2005-05-10 21:00;METAR CYYC 102100Z 07002KT 20SM FEW035 BKN060 BKN100 06/M02 A3027 RMK SC1SC4AC2 SLP282=

CYYC;2005-05-10 22:00;METAR CYYC 102200Z 06004KT 20SM FEW040 BKN050 BKN100 08/M03 A3026 RMK CU1SC4AC2 SLP280=

CYYC;2005-05-11 00:00;METAR CYYC 110000Z 07004KT 20SM FEW040 BKN055 BKN100 09/M03 A3026 RMK CU1SC2AC1 SLP275=

CYYC;2005-05-11 04:00;METAR CYYC 110400Z 21007KT 15SM FEW100 FEW240 04/M01 A3027 RMK AC1CI1 SLP293=

CYYC;2005-05-11 05:00;METAR CYYC 110500Z 19009KT 15SM FEW240 04/M01 A3026 RMK CI1 SLP289=

CYYC;2005-05-11 06:00;METAR CYYC 110600Z 18008KT 15SM FEW240 04/M01 A3025 RMK CI0 SLP285=

CYYC;2005-05-11 07:00;METAR CYYC 110700Z 16007KT 15SM FEW240 04/M01 A3024 RMK CI0 SLP283=

CYYC;2005-05-11 10:00;METAR CYYC 111000Z 17011KT 15SM SKC 02/M07 A3021 RMK SLP268=

CYYC;2005-05-11 12:00;METAR CYYC 111200Z 20008KT 40SM FEW100 FEW240 M00/M07 A3020 RMK AC1CI0 SLP262=

CYYC;2005-05-11 14:00;METAR CYYC 111400Z 17013KT 40SM FEW150 03/M07 A3019 RMK AC1 AC TR SLP261=

CYYC;2005-05-11 15:00;METAR CYYC 111500Z 18013KT 40SM FEW240 04/M05 A3019 RMK CI1 CI TR SLP259=

CYYC;2005-05-11 18:00;METAR CYYC 111800Z 17017G22KT 40SM FEW050 FEW240 12/M00 A3017 RMK CU1CI1 BOTH CLDS TR SLP241=

CYYC;2005-05-11 22:00;METAR CYYC 112200Z 16011G17KT 40SM FEW050 16/M00 A3011 RMK CU1 SLP219=

CYYC;2005-05-12 02:00;METAR CYYC 120200Z 16014KT 30SM FEW060 FEW140 FEW240 15/M04 A3007 RMK SC1AC1CI1 SLP208=

CYYC;2005-05-12 03:00;METAR CYYC 120300Z 16013KT 30SM FEW080 FEW140 FEW240 13/M02 A3007 RMK AC1AC1CI1 SLP206=

CYYC;2005-05-12 04:00;METAR CYYC 120400Z 16011KT 15SM FEW110 FEW240 11/M01 A3008 RMK AC1CI1 SLP208=

CYYC;2005-05-12 05:00;METAR CYYC 120500Z 17014KT 15SM FEW240 10/01 A3007 RMK CI1 SLP207=

CYYC;2005-05-12 06:00;METAR CYYC 120600Z 17010KT 15SM FEW240 09/02 A3006 RMK CI1 SLP197=

CYYC;2005-05-12 08:00;METAR CYYC 120800Z 18010KT 15SM SKC 07/02 A3003 RMK SLP187=

CYYC;2005-05-12 09:00;METAR CYYC 120900Z 18009KT 15SM SKC 06/02 A3003 RMK SLP184=

CYYC;2005-05-12 10:00;METAR CYYC 121000Z 17007KT 15SM SKC 05/01 A3003 RMK SLP184=

CYYC;2005-05-12 11:00;METAR CYYC 121100Z 17005KT 15SM FEW100 FEW240 02/01 A3002 RMK AC1CI1 SLP181=

CYYC;2005-05-12 12:00;METAR CYYC 121200Z 17004KT 40SM FEW120 FEW240 01/00 A3003 RMK AC1CI1 SLP189=

CYYC;2005-05-12 13:00;METAR CYYC 121300Z 00000KT 40SM FEW060 FEW120 FEW240 04/02 A3003 RMK SC1AC1CI1 SLP189=

CYYC;2005-05-12 14:00;METAR CYYC 121400Z 32002KT 40SM FEW120 FEW240 06/02 A3002 RMK AC1CI1 SLP180=

CYYC;2005-05-12 15:00;METAR CYYC 121500Z 31006KT 40SM FEW120 FEW240 11/04 A3003 RMK AC1CI1 SLP180=

CYYC;2005-05-12 17:00;METAR CYYC 121700Z 34005KT 40SM FEW080 FEW120 14/04 A3001 RMK AC1AC1 SLP175=

CYYC;2005-05-12 18:00;METAR CYYC 121800Z 04005KT 40SM FEW085 16/05 A3000 RMK AC1 SLP171=

CYYC;2005-05-12 19:00;METAR CYYC 121900Z 05008G16KT 40SM FEW060 18/05 A2999 RMK CU1 SLP166=

CYYC;2005-05-12 20:00;METAR CYYC 122000Z 02003G16KT 40SM FEW060 FEW120 18/03 A2998 RMK CU2AC1 SLP163=

CYYC;2005-05-12 21:00;METAR CYYC 122100Z 02011KT 40SM BKN065 BKN091 18/03 A2997 RMK SC5AC1 SLP161=

CYYC;2005-05-12 22:00;METAR CYYC 122200Z 06008KT 20SM SCT070 19/03 A2996 RMK AC2 SLP158=

CYYC;2005-05-12 23:30;SPECI CYYC 122330Z 04004KT 20SM -SHRA BKN070 RMK AC7=

CYYC;2005-05-13 00:00;METAR CYYC 130000Z 03009KT 20SM -SHRA BKN067 BKN098 16/05 A2997 RMK AC6AC2 PCPN VRY LGT SLP171=

CYYC;2005-05-13 01:15;SPECI CYYC 130115Z 26007KT 30SM -SHRA SCT067 BKN098 RMK AC2AC6=

CYYC;2005-05-13 01:51;SPECI CYYC 130151Z 26012KT 30SM VCSH SCT061 BKN078 RMK SC3AC2=

CYYC;2005-05-13 02:20;SPECI CYYC 130220Z 27010KT 30SM FEW040 SCT060 SCT080 BKN240 RMK CU1SC4AC1CI0 TCU ASOCTD SE=

CYYC;2005-05-13 04:00;METAR CYYC 130400Z 27002KT 15SM FEW050 SCT080 BKN120 12/08 A2997 RMK SC2AC2AC3 SLP161=

CYYC;2005-05-13 08:00;METAR CYYC 130800Z 31004KT 15SM FEW110 09/05 A2997 RMK AC1 SLP156=

CYYC;2005-05-13 09:00;METAR CYYC 130900Z 31004KT 15SM SCT120 08/04 A2998 RMK AC1 SLP162=

CYYC;2005-05-13 10:00;METAR CYYC 131000Z 22002KT 15SM FEW120 SCT240 09/05 A2998 RMK AC2CI0 SLP162=

CYYC;2005-05-13 12:00;METAR CYYC 131200Z 34008KT 40SM FEW110 SCT240 06/04 A3001 RMK AC2CI0 SLP178=

CYYC;2005-05-13 13:00;METAR CYYC 131300Z 34012KT 30SM FEW080 FEW110 FEW240 08/04 A3005 RMK AC1AC1CI1 SLP188=

CYYC;2005-05-13 14:00;METAR CYYC 131400Z 36015G20KT 30SM FEW070 FEW110 FEW240 09/06 A3008 RMK AC1AC1CI0 SLP199=

CYYC;2005-05-13 14:23;SPECI CYYC 131423Z 01015KT 30SM BKN013 OVC070 RMK SC6AC1=

CYYC;2005-05-13 15:00;METAR CYYC 131500Z 36012G19KT 15SM OVC012 08/06 A3011 RMK SC8 SLP217=

CYYC;2005-05-13 15:16;SPECI CYYC 131516Z 01015KT 15SM OVC009 RMK SC8=

CYYC;2005-05-13 16:00;METAR CYYC 131600Z 01010G15KT 8SM OVC008 06/05 A3014 RMK SC8 SLP225=

CYYC;2005-05-13 16:42;SPECI CYYC 131642Z 03012KT 7SM OVC011 RMK SC8=

CYYC;2005-05-13 17:00;METAR CYYC 131700Z 01009KT 8SM OVC012 07/05 A3015 RMK SC8 SLP229=

CYYC;2005-05-13 18:00;METAR CYYC 131800Z 36007KT 8SM OVC018 09/05 A3016 RMK SC8 SLP233=

CYYC;2005-05-13 21:00;METAR CYYC 132100Z 08002KT 20SM FEW033 FEW220 12/04 A3016 RMK SC1CI1 SLP233=

CYYC;2005-05-14 00:00;METAR CYYC 140000Z 11007KT 20SM FEW040 SCT250 14/02 A3013 RMK SC1CI0 SLP221=

CYYC;2005-05-14 03:00;METAR CYYC 140300Z 12010KT 20SM FEW080 FEW110 SCT150 OVC240 11/02 A3011 RMK AC1AC2AC1CI1 SLP217=

CYYC;2005-05-14 04:00;METAR CYYC 140400Z 12010KT 15SM SCT050 BKN110 BKN240 11/M01 A3011 RMK SC3AC3CI0 SLP218=

CYYC;2005-05-14 06:00;METAR CYYC 140600Z 15010G15KT 15SM FEW150 BKN220 08/M05 A3011 RMK AC2CI1 SLP222=

CYYC;2005-05-14 12:00;METAR CYYC 141200Z 17008KT 40SM FEW040 FEW080 SCT110 SCT240 05/M06 A3004 RMK CU1AC1AC2CI0 SLP191=

CYYC;2005-05-14 15:00;METAR CYYC 141500Z 15009KT 40SM FEW080 FEW140 FEW250 08/M03 A3001 RMK AC1AC1CI1 SLP180=

CYYC;2005-05-14 16:00;METAR CYYC 141600Z 15008KT 40SM FEW080 FEW140 SCT250 11/M01 A2999 RMK AC1AC1CI1 SLP176=

CYYC;2005-05-14 17:00;METAR CYYC 141700Z 16009KT 40SM FEW080 FEW140 SCT240 BKN260 13/01 A2998 RMK AC1AC1CI1CI0 SLP172=

CYYC;2005-05-14 18:00;METAR CYYC 141800Z 17008KT 40SM FEW080 FEW140 SCT220 BKN260 17/03 A2996 RMK AC1AC1CI1CI0 SLP158=

CYYC;2005-05-14 21:00;METAR CYYC 142100Z 19008KT 40SM FEW070 SCT180 BKN250 22/05 A2990 RMK CU1AC1CI0 SLP130=

CYYC;2005-05-14 22:00;METAR CYYC 142200Z 35002KT 40SM FEW080 SCT160 BKN250 22/05 A2987 RMK AC2AC1CI0 SLP121=

CYYC;2005-05-15 00:00;METAR CYYC 150000Z 28006KT 40SM FEW081 BKN140 BKN250 22/04 A2983 RMK AC2AC4CI1 SHS DIST N SLP108=

CYYC;2005-05-15 02:00;METAR CYYC 150200Z 27015KT 40SM FEW060 BKN120 BKN240 20/04 A2980 RMK SC1AC2CI1 SHS DIST N-E/ ACSL SLP100=

CYYC;2005-05-15 06:00;METAR CYYC 150600Z 29014G19KT 15SM SKC 16/05 A2982 RMK SLP096=

CYYC;2005-05-15 10:00;METAR CYYC 151000Z 32010KT 15SM FEW140 FEW250 12/04 A2984 RMK AC1CI1 SLP098=

CYYC;2005-05-15 12:00;METAR CYYC 151200Z 33008KT 40SM FEW089 BKN140 12/03 A2983 RMK AC2AC1 SLP099=

CYYC;2005-05-15 13:00;METAR CYYC 151300Z 35005KT 40SM SCT089 BKN240 13/04 A2983 RMK AC2CI1 SLP097=

CYYC;2005-05-15 15:00;METAR CYYC 151500Z 32008KT 40SM SCT088 SCT180 OVC250 17/04 A2983 RMK AC4AC1CI3 SLP096=

CYYC;2005-05-15 16:00;METAR CYYC 151600Z 36007KT 40SM FEW077 OVC220 17/04 A2982 RMK AC2CS5 SLP093=

CYYC;2005-05-15 17:00;METAR CYYC 151700Z 32007KT 40SM FEW050 FEW080 FEW180 BKN200 19/05 A2980 RMK CU1AC1AC1CS6 SLP087=

CYYC;2005-05-15 18:00;METAR CYYC 151800Z 35003KT 40SM FEW055 FEW084 FEW190 BKN250 19/04 A2978 RMK CU1ACC1AC1CI2 SLP082=

CYYC;2005-05-15 22:00;METAR CYYC 152200Z 14007KT 40SM SCT070 22/02 A2968 RMK CU3 VIRGA W SLP046=

CYYC;2005-05-15 23:00;METAR CYYC 152300Z 16006KT 40SM FEW030 BKN080 21/02 A2966 RMK SC1CU5 VIRGA W / TCU ASOCTD SLP041=

CYYC;2005-05-16 04:00;METAR CYYC 160400Z 17003KT 15SM FEW090 SCT140 BKN230 17/04 A2958 RMK AC1AC1CI1 SLP010=

CYYC;2005-05-16 05:00;METAR CYYC 160500Z 14003KT 15SM FEW098 BKN240 15/04 A2957 RMK AC2CI1 SLP007=

CYYC;2005-05-16 07:00;METAR CYYC 160700Z 29003KT 15SM FEW190 BKN240 12/04 A2953 RMK AC2CI1 SLP995=

CYYC;2005-05-16 12:00;METAR CYYC 161200Z 18002KT 30SM BKN100 OVC220 10/04 A2945 RMK AC5CI2 SLP970=

CYYC;2005-05-16 13:00;METAR CYYC 161300Z 23004KT 30SM FEW060 BKN180 OVC220 11/06 A2944 RMK SC1AC4CI2 SLP968=

CYYC;2005-05-16 14:00;METAR CYYC 161400Z 00000KT 40SM FEW060 SCT120 BKN170 BKN240 13/06 A2944 RMK SC2AC2AC2CI0 SLP969=

CYYC;2005-05-16 15:00;METAR CYYC 161500Z 23004KT 40SM FEW060 BKN120 BKN240 15/06 A2943 RMK SC1AC4CI1 SLP963=

CYYC;2005-05-16 16:00;METAR CYYC 161600Z 23006KT 40SM FEW046 FEW060 SCT120 BKN220 17/05 A2942 RMK CU1SC1AC2CS2 SLP957=

CYYC;2005-05-16 18:00;METAR CYYC 161800Z 31009KT 40SM FEW060 FEW090 FEW140 BKN220 22/04 A2939 RMK CU1AC1AC1CS1 SLP944=

CYYC;2005-05-16 19:00;METAR CYYC 161900Z 19002KT 40SM FEW060 FEW130 BKN220 22/05 A2938 RMK CU1AC1CI0 SLP941=

CYYC;2005-05-16 21:00;METAR CYYC 162100Z 00000KT 40SM FEW080 SCT120 OVC200 23/03 A2935 RMK CU2AC2CS1 SHS DSNT SWW SLP934=

CYYC;2005-05-16 22:00;METAR CYYC 162200Z 18004KT 40SM FEW080 SCT130 OVC200 23/04 A2935 RMK CU2AC2CS2 SLP932=

CYYC;2005-05-17 00:00;METAR CYYC 170000Z 31011KT 40SM FEW065 SCT090 BKN120 OVC200 21/04 A2934 RMK CU2AC2AC2CI2 SHS SWW SLP933=

CYYC;2005-05-17 02:00;METAR CYYC 170200Z 34013KT 30SM FEW065 BKN120 OVC240 17/08 A2936 RMK SC2AC4CI2 SHS DIST SSW SLP940=

CYYC;2005-05-17 03:00;METAR CYYC 170300Z 35018KT 40SM FEW065 BKN090 OVC240 14/08 A2939 RMK SC1AC5CI2 SLP952=

CYYC;2005-05-17 05:00;METAR CYYC 170500Z 34017G22KT 15SM BKN150 OVC220 12/09 A2938 RMK AC6CI2 SLP949=

CYYC;2005-05-17 07:00;METAR CYYC 170700Z 31012G19KT 15SM -RA FEW047 OVC080 11/10 A2939 RMK SC2AC6 SLP945=

CYYC;2005-05-17 10:00;METAR CYYC 171000Z 33012G17KT 12SM -RA OVC015 09/09 A2936 RMK SC8 SLP936=

CYYC;2005-05-17 11:00;METAR CYYC 171100Z 28010G16KT 12SM -RA FEW013 OVC020 09/08 A2936 RMK SC1SC7 SLP937=

CYYC;2005-05-17 11:14;SPECI CYYC 171114Z 33023G28KT 12SM -RA FEW013 OVC030 RMK SC1SC7 WND SHFT 1112Z=

CYYC;2005-05-17 12:00;METAR CYYC 171200Z 32016KT 6SM -RA OVC043 08/07 A2936 RMK SC8 /R10/ SLP942=

CYYC;2005-05-17 15:00;METAR CYYC 171500Z 31016G24KT 40SM -RA FEW025 BKN032 OVC050 08/06 A2940 RMK SC1SC5SC2 SLP965=

CYYC;2005-05-17 15:27;SPECI CYYC 171527Z 32018KT 40SM FEW011 BKN035 OVC060 RMK SC1SC6SC1 VIRGA=

CYYC;2005-05-17 16:00;METAR CYYC 171600Z 32018G24KT 40SM -RA FEW011 BKN035 OVC050 09/06 A2941 RMK SC1SC4SC3 PCPN VRY LGT SLP967=

CYYC;2005-05-17 17:00;METAR CYYC 171700Z 32022G27KT 40SM FEW016 FEW035 OVC048 11/06 A2942 RMK CU1SC2SC6 VIRGA SLP970=

CYYC;2005-05-17 18:00;METAR CYYC 171800Z 33022KT 40SM FEW020 FEW050 OVC064 12/06 A2943 RMK CU1SC2SC6 VIRGA SE SLP975=

CYYC;2005-05-17 19:00;METAR CYYC 171900Z 34020KT 40SM FEW028 FEW050 OVC060 12/06 A2945 RMK CU1SC1SC6 VIRGA SLP980=

CYYC;2005-05-17 21:00;METAR CYYC 172100Z 34017G25KT 40SM FEW036 SCT100 BKN210 14/06 A2945 RMK CU1AC3CS2 SH SW SLP980=

CYYC;2005-05-18 00:00;METAR CYYC 180000Z 04009KT 40SM FEW020 BKN040 BKN100 BKN180 14/07 A2948 RMK SC1CU6AC1AC1 SHS S-SW SLP995=

CYYC;2005-05-18 01:29;SPECI CYYC 180129Z 04007KT 6SM -SHRA SCT034 OVC080 RMK SC4AC3 TCU ASOCTD=

CYYC;2005-05-18 03:00;METAR CYYC 180300Z 32006KT 12SM -SHRA FEW030 OVC049 10/09 A2954 RMK CF1SC7 SLP019=

CYYC;2005-05-18 04:00;METAR CYYC 180400Z 09004KT 15SM -SHRA SCT050 OVC090 10/09 A2954 RMK SC4AC3 SLP021=

CYYC;2005-05-18 05:00;METAR CYYC 180500Z 04003KT 15SM FEW050 OVC090 10/08 A2954 RMK SC1AC6 SLP021=

CYYC;2005-05-18 06:00;METAR CYYC 180600Z 13005KT 15SM FEW050 BKN096 OVC110 09/08 A2955 RMK SC1AC6AC1 SLP019=

CYYC;2005-05-18 07:00;METAR CYYC 180700Z 20003KT 15SM FEW050 OVC093 09/08 A2955 RMK SC1AC6 SLP019=

CYYC;2005-05-18 10:00;METAR CYYC 181000Z 18005KT 15SM OVC100 08/08 A2957 RMK AC7 SLP023=

CYYC;2005-05-18 11:00;METAR CYYC 181100Z 19004KT 15SM FEW060 OVC110 08/08 A2957 RMK SC2AC5 SLP024=

CYYC;2005-05-18 12:00;METAR CYYC 181200Z 14002KT 40SM FEW060 OVC110 08/08 A2956 RMK SC2AC6 SLP020=

CYYC;2005-05-18 13:00;METAR CYYC 181300Z 19002KT 40SM FEW065 BKN092 OVC120 09/08 A2956 RMK SC2AC4AC2 SLP021=

CYYC;2005-05-18 14:00;METAR CYYC 181400Z 15004KT 30SM FEW040 BKN075 BKN120 10/08 A2956 RMK CU1AC5AC1 VIRGA S SLP021=

CYYC;2005-05-18 15:00;METAR CYYC 181500Z 00000KT 40SM FEW020 SCT060 BKN120 BKN240 12/08 A2956 RMK CF1SC2AC2CI0 CVCTV CLD EMBD SLP022=

CYYC;2005-05-18 16:00;METAR CYYC 181600Z 23004KT 40SM FEW025 SCT060 BKN080 BKN110 12/05 A2956 RMK CU1SC3AC1AC1 SLP021=

CYYC;2005-05-18 17:00;METAR CYYC 181700Z 27006KT 40SM FEW038 SCT090 14/04 A2955 RMK CU2AC1 SLP019=

CYYC;2005-05-18 19:00;METAR CYYC 181900Z 16005KT 40SM SCT058 SCT100 16/01 A2953 RMK CU4AC1 SLP010=

CYYC;2005-05-18 22:00;METAR CYYC 182200Z 13005KT 40SM FEW060 SCT080 BKN140 BKN240 16/02 A2952 RMK CU2AC1AC2CI0 SLP003=

CYYC;2005-05-19 00:00;METAR CYYC 190000Z 09003KT 40SM FEW060 FEW100 SCT170 BKN220 17/00 A2950 RMK CU2AC1AC2CI0 SLP997=

CYYC;2005-05-19 01:00;METAR CYYC 190100Z 19003KT 40SM SCT060 BKN100 BKN180 18/00 A2950 RMK SC3AC2AC1 SLP996=

CYYC;2005-05-19 04:00;METAR CYYC 190400Z 27009KT 40SM FEW060 SCT100 BKN170 14/01 A2952 RMK SC1AC3AC3 VIRGA ALQDS SLP003=

CYYC;2005-05-19 07:00;METAR CYYC 190700Z 21003KT 15SM BKN120 12/01 A2953 RMK AC5 VIRGA SLP006=

CYYC;2005-05-19 08:00;METAR CYYC 190800Z 21006KT 15SM BKN120 10/02 A2954 RMK AC7 VIRGA SLP007=

CYYC;2005-05-19 10:00;METAR CYYC 191000Z 26005KT 15SM FEW120 08/01 A2953 RMK AC2 SLP006=

CYYC;2005-05-19 11:00;METAR CYYC 191100Z 22003KT 40SM BKN140 09/01 A2954 RMK AC6 SLP008=

CYYC;2005-05-19 12:00;METAR CYYC 191200Z 23003KT 40SM FEW030 FEW120 08/01 A2954 RMK SC1AC2 SLP009=

CYYC;2005-05-19 13:00;METAR CYYC 191300Z 19002KT 40SM FEW040 FEW120 10/01 A2956 RMK CU1AC1 SLP015=

CYYC;2005-05-19 14:00;METAR CYYC 191400Z 26004KT 40SM FEW040 SCT090 BKN200 12/01 A2958 RMK CU1AC2CI3 SLP021=

CYYC;2005-05-19 15:00;METAR CYYC 191500Z 26010KT 40SM FEW050 SCT120 BKN220 13/01 A2959 RMK CU1AC3CI3 SLP024=

CYYC;2005-05-19 16:00;METAR CYYC 191600Z 27018KT 40SM FEW056 SCT120 BKN220 15/M00 A2959 RMK CU1AC2CI2 SLP026=

CYYC;2005-05-19 17:00;METAR CYYC 191700Z 27019G24KT 40SM FEW060 FEW100 BKN150 16/01 A2961 RMK CU1AC1AC2 SLP032=

CYYC;2005-05-19 18:00;METAR CYYC 191800Z 27013G21KT 40SM FEW060 FEW100 BKN180 17/01 A2961 RMK CU2AC1AC1 SLP030=

CYYC;2005-05-19 19:00;METAR CYYC 191900Z 26017KT 40SM FEW068 SCT150 18/01 A2961 RMK CU2AC1 TCU ASOCTD N VIRGA N SLP030=

CYYC;2005-05-19 21:00;METAR CYYC 192100Z 24020G26KT 30SM SCT080 SCT120 19/M01 A2963 RMK CU3AC1 TCU ASOCTD N / SHS SW + N SLP036=

CYYC;2005-05-19 22:00;METAR CYYC 192200Z 27027G34KT 40SM FEW080 SCT120 SCT220 19/01 A2965 RMK CU2AC1CI0 CB ASOCTD N SLP042=

CYYC;2005-05-20 00:00;METAR CYYC 200000Z 28022G30KT 40SM FEW040 FEW070CB FEW160 SCT220 16/M02 A2968 RMK CU1CB2AC1CI0 SH DSNT SW SLP059=

CYYC;2005-05-20 01:00;METAR CYYC 200100Z 26020G28KT 30SM FEW040 FEW070CB FEW180 16/M01 A2971 RMK CU1CB1AC0 SH SW SLP070=

CYYC;2005-05-20 05:00;METAR CYYC 200500Z 27016G21KT 15SM FEW150 FEW220 11/M02 A2980 RMK AC1CI1 SLP097=

CYYC;2005-05-20 07:00;METAR CYYC 200700Z 25008KT 15SM FEW150 FEW240 07/M02 A2984 RMK AC1CI1 SLP113=

CYYC;2005-05-21 16:00;METAR CYYC 211600Z 29013G21KT 40SM FEW055 SCT082 SCT220 13/M05 A2992 RMK CU1AC3CI1 ACC / ACSL NE-E SLP143=

CYYC;2005-05-21 17:00;METAR CYYC 211700Z 35013G18KT 40SM FEW069 BKN082 BKN220 14/M03 A2993 RMK CU2AC4CI1 SLP146=

CYYC;2005-05-21 18:00;METAR CYYC 211800Z 35006KT 40SM SCT070 BKN090 BKN220 14/M04 A2994 RMK CU4AC2CI1 SLP154=

CYYC;2005-05-21 21:00;METAR CYYC 212100Z 23009KT 40SM BKN080TCU BKN090 17/M04 A2994 RMK TCU6AC1 SHS NW+NE SLP153=

CYYC;2005-05-21 21:12;SPECI CYYC 212112Z 32013G18KT 40SM BKN084TCU BKN093 RMK TCU6AC1 SHS NW+NE / WSHFT 2058Z=

CYYC;2005-05-21 22:00;METAR CYYC 212200Z 34014KT 40SM VCSH BKN085TCU BKN098 15/M03 A2995 RMK TCU6AC1 SHS NW+NE SLP155=

CYYC;2005-05-21 23:00;METAR CYYC 212300Z 29006KT 40SM BKN085TCU BKN180 16/M04 A2995 RMK TCU6AC1 SHS NW+E SLP157=

CYYC;2005-05-22 00:00;METAR CYYC 220000Z 33008KT 40SM SCT085TCU SCT180 15/M04 A2996 RMK TCU3AC1 SHS NW+E SLP158=

CYYC;2005-05-22 01:00;METAR CYYC 220100Z 01005KT 40SM FEW085TCU FEW098 SCT220 16/M04 A2994 RMK TCU2AC1CI0 SHS SE SLP153=

CYYC;2005-05-22 02:00;METAR CYYC 220200Z 36007KT 40SM FEW060 FEW100 SCT220 16/M04 A2995 RMK CU1AC2CI1 CU TR SLP155=

CYYC;2005-05-22 03:00;METAR CYYC 220300Z 27008KT 40SM FEW080 SCT100 BKN240 14/M04 A2995 RMK AC1AC2CI1 SLP152=

CYYC;2005-05-22 04:00;METAR CYYC 220400Z 11003KT 40SM FEW120 BKN240 12/M04 A2996 RMK AC1CI3 SLP154=

CYYC;2005-05-22 05:00;METAR CYYC 220500Z 20003KT 15SM BKN220 11/M04 A2996 RMK CI4 SLP155=

CYYC;2005-05-22 06:00;METAR CYYC 220600Z 23005KT 15SM BKN210 10/M03 A2995 RMK CI4 SLP154=

CYYC;2005-05-22 08:00;METAR CYYC 220800Z 23003KT 15SM FEW190 BKN210 10/M03 A2992 RMK AC1CI4 SLP145=

CYYC;2005-05-22 09:00;METAR CYYC 220900Z 19002KT 15SM BKN210 09/M02 A2990 RMK CI5 SLP133=

CYYC;2005-05-22 10:00;METAR CYYC 221000Z 00000KT 15SM FEW190 BKN210 08/M02 A2987 RMK AC1CI4 SLP125=

CYYC;2005-05-22 12:00;METAR CYYC 221200Z 19004KT 40SM SCT090 OVC220 06/01 A2985 RMK AC3CI4 SLP123=

CYYC;2005-05-22 13:00;METAR CYYC 221300Z 22003KT 40SM FEW070 SCT100 07/01 A2984 RMK AC1AC2 SLP121=

CYYC;2005-05-22 14:00;METAR CYYC 221400Z 25007KT 40SM FEW030 FEW070 FEW100 10/M01 A2983 RMK CU1AC1AC1 ACSL E SLP116=

CYYC;2005-05-22 16:00;METAR CYYC 221600Z 28009KT 40SM FEW050 FEW085 15/M00 A2981 RMK CU1AC1 SLP102=

CYYC;2005-05-22 17:00;METAR CYYC 221700Z 26009KT 40SM SCT060 SCT080 15/M01 A2979 RMK CU4AC1 SLP097=

CYYC;2005-05-22 18:00;METAR CYYC 221800Z 29011KT 40SM FEW072 FEW090 17/M01 A2978 RMK CU2AC1 SLP090=

CYYC;2005-05-22 19:00;METAR CYYC 221900Z 29014G21KT 40SM SCT080 18/M03 A2977 RMK CU4 SLP086=

CYYC;2005-05-22 20:00;METAR CYYC 222000Z 27010G17KT 40SM FEW082 18/M04 A2975 RMK CU2 SLP082=

CYYC;2005-05-22 21:00;METAR CYYC 222100Z 30015G24KT 40SM FEW082 18/M04 A2975 RMK CU2 SLP079=

CYYC;2005-05-22 22:00;METAR CYYC 222200Z 29014G22KT 40SM FEW085 19/M06 A2975 RMK CU2 SLP079=

CYYC;2005-05-22 23:00;METAR CYYC 222300Z 29012G24KT 40SM SCT085 18/M04 A2975 RMK CU4 SHS SW-NE / TCU ASOCTD SLP079=

CYYC;2005-05-23 00:00;METAR CYYC 230000Z 27023G28KT 40SM FEW085TCU FEW140 17/M01 A2974 RMK TCU2AC1 SHS NW-E SLP082=

CYYC;2005-05-23 01:00;METAR CYYC 230100Z 27021G30KT 40SM FEW085TCU FEW140 BKN240 14/M03 A2975 RMK TCU2AC1CI0 SHS NE+SW+NW SLP084=

CYYC;2005-05-23 02:00;METAR CYYC 230200Z 26019G25KT 40SM FEW070TCU SCT140 BKN240 14/M03 A2975 RMK TCU1AC2CI1 TCU TR SLP086=

CYYC;2005-05-23 04:00;METAR CYYC 230400Z 27015G20KT 40SM FEW080CB BKN120 OVC240 11/M03 A2978 RMK CB1AC4CI2 SHS DIST N-E SLP092=

CYYC;2005-05-23 06:00;METAR CYYC 230600Z 32005KT 15SM BKN120 OVC210 08/M04 A2984 RMK AC5CI2 SLP112=

CYYC;2005-05-23 09:00;METAR CYYC 230900Z 36008KT 15SM SCT140 BKN210 06/M04 A2988 RMK AC3CI3 SLP130=

CYYC;2005-05-23 10:00;METAR CYYC 231000Z 33005KT 15SM SCT140 BKN210 04/M04 A2990 RMK AC3CI3 SLP137=

CYYC;2005-05-23 12:00;METAR CYYC 231200Z 32003KT 40SM FEW080 SCT120 BKN240 04/M05 A2992 RMK AC1AC2CI2 SLP146=

CYYC;2005-05-23 13:00;METAR CYYC 231300Z 35003KT 40SM FEW080 SCT120 BKN240 07/M03 A2992 RMK AC2AC1CI1 SLP147=

CYYC;2005-05-23 14:00;METAR CYYC 231400Z 28011G17KT 40SM FEW040 FEW070 FEW230 10/M03 A2992 RMK CU1AC1CI0 ACC NE SLP147=

CYYC;2005-05-23 15:00;METAR CYYC 231500Z 27015KT 40SM FEW050 FEW070 FEW160 12/M04 A2992 RMK CU1AC1AC1 VIRGA NE SLP143=

CYYC;2005-05-23 16:00;METAR CYYC 231600Z 29015G20KT 40SM FEW060 FEW100 SCT190 13/M05 A2992 RMK CU1AC1AC1 VIRGA NE SLP143=

CYYC;2005-05-23 17:00;METAR CYYC 231700Z 27017KT 40SM FEW060TCU SCT100 BKN120 15/M05 A2991 RMK TCU1AC2AC2 SHS NW+E SLP140=

CYYC;2005-05-23 18:00;METAR CYYC 231800Z 26013G22KT 40SM FEW070TCU FEW120 16/M05 A2990 RMK TCU2AC0 SHS NW+S SLP139=

CYYC;2005-05-23 19:00;METAR CYYC 231900Z 31013G18KT 40SM SCT070CB SCT120 BKN160 16/M05 A2989 RMK CB3AC1AC2 SHS NW-N+E-S SLP136=

CYYC;2005-05-23 20:00;METAR CYYC 232000Z 30011G19KT 40SM SCT070CB BKN110 BKN220 16/M04 A2989 RMK CB4AC1CI1 SHS NW-S SLP135=

CYYC;2005-05-23 21:00;METAR CYYC 232100Z 34012G19KT 40SM VCSH SCT070TCU BKN110 14/M03 A2990 RMK TCU4AC3 SHS NW-S / CB EMBD SLP142=

CYYC;2005-05-23 22:00;METAR CYYC 232200Z 33010KT 40SM BKN075TCU BKN120 14/M04 A2991 RMK TCU5AC2 SHS NW-SE / CB EMBD N-NW SLP145=

CYYC;2005-05-23 22:19;SPECI CYYC 232219Z 27021G35KT 40SM -SHRA BKN075TCU BKN120 RMK TCU6AC1 CB EMBD N / VIS LWR N / WHSFT 2204Z=

CYYC;2005-05-23 22:39;SPECI CYYC 232239Z 03009KT 40SM VCSH BKN075TCU BKN120 RMK TCU6AC1 CB ASOCTD N-NE / SHS W-SE=

CYYC;2005-05-23 23:00;METAR CYYC 232300Z 06010KT 40SM SCT075TCU BKN096 12/00 A2994 RMK TCU3AC4 SHS W+E+SE SLP154=

CYYC;2005-05-23 23:51;SPECI CYYC 232351Z 03010G17KT 40SM -SHRA BKN060TCU BKN100 RMK TCU5AC2=

CYYC;2005-05-24 00:00;METAR CYYC 240000Z 04011KT 40SM -SHRA BKN060TCU BKN100 11/03 A2996 RMK TCU5AC2 SLP171=

CYYC;2005-05-24 00:27;SPECI CYYC 240027Z 36008KT 40SM SCT060TCU BKN100 BKN220 RMK TCU3AC3CI0 SHS W-SE=

CYYC;2005-05-24 01:00;METAR CYYC 240100Z 36007KT 40SM SCT060TCU BKN110 BKN210 13/M00 A2997 RMK TCU4AC1CI1 SHS NW+E+S SLP172=

CYYC;2005-05-24 01:12;SPECI CYYC 240112Z 36013G20KT 40SM -SHRA FEW052 BKN060TCU BKN110 BKN210 RMK SC2TCU3AC1CI1=

CYYC;2005-05-24 02:00;METAR CYYC 240200Z 34023G31KT 6SM -SHRA BKN042 BKN080 OVC240 08/04 A3000 RMK SC5AC2CI1 TCU EMBD SLP182=

CYYC;2005-05-24 04:00;METAR CYYC 240400Z 35006KT 15SM FEW080 OVC130 06/04 A3003 RMK AC2AC5 SLP185=

CYYC;2005-05-24 05:00;METAR CYYC 240500Z 36003KT 15SM SCT074 OVC100 07/04 A3005 RMK AC4AC3 SLP192=

CYYC;2005-05-24 07:00;METAR CYYC 240700Z 34007KT 15SM FEW050 BKN073 OVC110 07/04 A3008 RMK SC2AC5AC2 SLP201=

CYYC;2005-05-24 10:00;METAR CYYC 241000Z 31010KT 15SM OVC072 07/03 A3008 RMK AC8 SLP204=

CYYC;2005-05-24 11:00;METAR CYYC 241100Z 30008KT 20SM FEW070 BKN100 OVC240 07/01 A3008 RMK AC1AC6CI1 SLP206=

CYYC;2005-05-24 12:00;METAR CYYC 241200Z 32009KT 20SM FEW080 BKN100 OVC240 07/01 A3009 RMK AC2AC6CI1 SLP212=

CYYC;2005-05-24 13:00;METAR CYYC 241300Z 30007KT 20SM FEW068 BKN100 OVC240 08/01 A3010 RMK AC2AC4CI2 SLP215=

CYYC;2005-05-24 15:00;METAR CYYC 241500Z 34014KT 40SM FEW035 SCT057 BKN075 OVC180 10/03 A3011 RMK SC2SC2AC2AC2 SLP218=

CYYC;2005-05-24 16:00;METAR CYYC 241600Z 34014KT 40SM SCT032 BKN057 OVC075 10/02 A3012 RMK CU3SC2AC2 SH S SLP222=

CYYC;2005-05-24 17:00;METAR CYYC 241700Z 35014KT 40SM SCT037 SCT044 OVC073 11/02 A3012 RMK CU3SC1AC2 SHS SE-SW / TCU ASOCTD SLP221=

CYYC;2005-05-24 20:00;METAR CYYC 242000Z 32015G21KT 40SM VCSH SCT044TCU BKN078 BKN260 12/02 A3012 RMK TCU3AC2CI1 SHS SE-W / CB EMBD SLP221=

CYYC;2005-05-24 20:37;SPECI CYYC 242037Z 27014G22KT 40SM BKN044TCU BKN080 BKN260 RMK TCU5AC1CI0 SHS SE-NW / CB EMBD / WSHFT 2022Z=

CYYC;2005-05-24 21:00;METAR CYYC 242100Z 29011G17KT 40SM BKN044TCU BKN080 BKN210 BKN260 13/02 A3012 RMK TCU5AC1CS1CI1 SHS ALQDS / CB EMBD NW SLP218=

CYYC;2005-05-24 21:37;SPECI CYYC 242137Z 31030G36KT 40SM BKN044TCU OVC080 RMK TCU7AC1 SHS ALQDS / CB EMBD=

CYYC;2005-05-24 21:44;SPECI CYYC 242144Z 31024G36KT 40SM -SHRA BKN045TCU OVC074 RMK TCU7AC1 CB EMBD=

CYYC;2005-05-24 22:00;METAR CYYC 242200Z 29021G28KT 30SM -SHRA BKN045TCU BKN074 09/04 A3014 RMK TCU7AC1 CB EMBD SLP226=

CYYC;2005-05-24 22:47;SPECI CYYC 242247Z 32018KT 30SM SCT045CB BKN080 RMK CB3AC2 SHS ALQDS=

CYYC;2005-05-24 23:00;METAR CYYC 242300Z 35015G27KT 30SM FEW045CB BKN085 OVC210 11/03 A3015 RMK CB2AC2CI1 SHS SW-SE SLP229=

CYYC;2005-05-25 02:00;METAR CYYC 250200Z 36018KT 30SM FEW045 FEW067 BKN100 BKN220 10/03 A3020 RMK SC1AC1AC1CI0 SHS SW-NW SLP249=

CYYC;2005-05-25 02:24;SPECI CYYC 250224Z 33015KT 30SM -SHRA SCT045 SCT067 BKN100 BKN220 RMK SC3AC1AC1CI0=

CYYC;2005-05-25 03:12;SPECI CYYC 250312Z 31011KT 30SM FEW045 FEW067 BKN110 BKN220 RMK SC2AC1AC3CI0 SHS SW / TCU DIST NW=

CYYC;2005-05-25 05:00;METAR CYYC 250500Z 27013KT 15SM -SHRA BKN060 BKN110 08/04 A3023 RMK SC7AC1 PCPN VRY LGT SLP257=

CYYC;2005-05-25 05:26;SPECI CYYC 250526Z 27014KT 15SM BKN055 BKN110 RMK SC5AC1=

CYYC;2005-05-25 07:00;METAR CYYC 250700Z 28004KT 15SM BKN080 BKN160 06/03 A3025 RMK AC4AC2 SLP264=

CYYC;2005-05-25 10:00;METAR CYYC 251000Z 28007KT 15SM SCT076 BKN200 06/02 A3027 RMK AC2CI0 SLP272=

CYYC;2005-05-25 12:00;METAR CYYC 251200Z 32007KT 40SM FEW080 FEW120 FEW220 06/02 A3029 RMK AC1AC1CI1 VIRGA S SLP283=

CYYC;2005-05-25 13:00;METAR CYYC 251300Z 31009KT 40SM FEW080 FEW120 08/02 A3030 RMK AC1AC1 UPR AC TR SLP286=

CYYC;2005-05-25 15:00;METAR CYYC 251500Z 35017G24KT 40SM FEW036 FEW060 SCT082 11/02 A3032 RMK CU1SC1AC2 SLP288=

CYYC;2005-05-25 16:00;METAR CYYC 251600Z 31015KT 40SM SCT038 SCT060 BKN080 12/02 A3032 RMK CU3SC1AC1 SLP288=

CYYC;2005-05-25 17:00;METAR CYYC 251700Z 30016G21KT 40SM SCT048 BKN085 14/01 A3032 RMK CU4AC1 TCU ASOCTD W + N SLP287=

CYYC;2005-05-25 18:00;METAR CYYC 251800Z 34019G26KT 40SM SCT056 BKN072 14/00 A3030 RMK CU4AC2 TCU ASOCTD SLP281=

CYYC;2005-05-25 19:00;METAR CYYC 251900Z 33018G27KT 40SM SCT060 BKN090 15/M02 A3029 RMK CU3AC1 TCU ASOCTD VIRGA SW SLP278=

CYYC;2005-05-25 20:00;METAR CYYC 252000Z 31017G22KT 40SM SCT070 SCT090 17/M02 A3028 RMK CU3AC1 SLP275=

CYYC;2005-05-25 21:00;METAR CYYC 252100Z 33014G24KT 40SM SCT082 SCT100 18/M02 A3027 RMK CU4AC1 SLP264=

CYYC;2005-05-25 22:00;METAR CYYC 252200Z 32012G24KT 40SM BKN080 BKN100 17/M04 A3026 RMK CU5AC1 SLP262=

CYYC;2005-05-25 23:00;METAR CYYC 252300Z 32017G25KT 40SM SCT080 SCT100 19/M04 A3026 RMK CU4AC1 SLP261=

CYYC;2005-05-26 00:00;METAR CYYC 260000Z 36019G24KT 40SM SCT084 SCT100 18/M03 A3026 RMK CU3AC1 VIRGA SW SLP261=

CYYC;2005-05-26 01:00;METAR CYYC 260100Z 36020KT 40SM FEW080 FEW100 17/M03 A3025 RMK CU2AC1 TCU ASOCTD DSNT SW VIRGA SW SLP258=

CYYC;2005-05-26 02:00;METAR CYYC 260200Z 01018KT 40SM FEW080 FEW100 16/M03 A3026 RMK AC1AC1 SHS SW / CVCTV CLD EMBD SW SLP263=

CYYC;2005-05-26 03:00;METAR CYYC 260300Z 03011KT 40SM FEW080 FEW100 14/M02 A3028 RMK AC1AC2 SHS S-SW / CVCTV CLD EMBD S SLP270=

CYYC;2005-05-26 04:00;METAR CYYC 260400Z 36007KT 20SM BKN094 BKN120 11/M01 A3031 RMK AC3AC1 SHS SE-W SLP277=

CYYC;2005-05-26 05:00;METAR CYYC 260500Z 01004KT 15SM SCT098 SCT160 10/M01 A3033 RMK AC2AC1 SLP283=

CYYC;2005-05-26 06:00;METAR CYYC 260600Z 29005KT 15SM BKN095 09/M00 A3033 RMK AC5 SLP290=

CYYC;2005-05-26 07:00;METAR CYYC 260700Z 32008KT 15SM SCT095 08/M00 A3034 RMK AC3 SLP293=

CYYC;2005-05-26 08:00;METAR CYYC 260800Z 32007KT 15SM FEW095 06/M01 A3033 RMK AC1 SLP290=

CYYC;2005-05-26 09:00;METAR CYYC 260900Z 32008KT 15SM FEW100 06/M01 A3033 RMK AC1 SLP289=

CYYC;2005-05-26 10:00;METAR CYYC 261000Z 32008KT 15SM FEW060 FEW100 05/M01 A3034 RMK SC1AC1 SLP290=

CYYC;2005-05-26 11:00;METAR CYYC 261100Z 32007KT 30SM FEW100 03/M01 A3035 RMK AC1 SLP293=

CYYC;2005-05-26 12:00;METAR CYYC 261200Z 34006KT 40SM FEW100 FEW240 03/M01 A3035 RMK AC1CI1 SLP297=

CYYC;2005-05-26 13:00;METAR CYYC 261300Z 33007KT 40SM FEW100 FEW240 06/M01 A3036 RMK AC1CI1 SLP300=

CYYC;2005-05-26 14:00;METAR CYYC 261400Z 32007KT 40SM FEW100 FEW180 10/M00 A3036 RMK AC1AC1 SLP301=

CYYC;2005-05-26 15:00;METAR CYYC 261500Z 36010KT 40SM FEW050 FEW100 FEW200 12/00 A3036 RMK CU1AC1CI1 SLP293=

CYYC;2005-05-26 16:00;METAR CYYC 261600Z 03009KT 40SM FEW056 FEW100 13/01 A3036 RMK CU1AC1 SLP293=

CYYC;2005-05-26 17:00;METAR CYYC 261700Z 01015KT 40SM FEW056 15/00 A3034 RMK CU1 SLP289=

CYYC;2005-05-26 18:00;METAR CYYC 261800Z 35020G25KT 40SM FEW072 16/M03 A3034 RMK CU1 SLP287=

CYYC;2005-05-26 19:00;METAR CYYC 261900Z 01020G25KT 40SM FEW080 17/M04 A3032 RMK CU1 SLP281=

CYYC;2005-05-26 20:00;METAR CYYC 262000Z 36019G26KT 40SM FEW080 19/M08 A3031 RMK CU1 SLP278=

CYYC;2005-05-26 21:00;METAR CYYC 262100Z 01011G22KT 40SM FEW090 19/M08 A3029 RMK AC1 SLP272=

CYYC;2005-05-26 22:00;METAR CYYC 262200Z 01017KT 40SM FEW090 19/M08 A3028 RMK AC1 SLP270=

CYYC;2005-05-26 23:00;METAR CYYC 262300Z 02014KT 40SM FEW100 FEW240 19/M07 A3027 RMK AC1CI0 SLP266=

CYYC;2005-05-27 00:00;METAR CYYC 270000Z 04013G21KT 40SM FEW110 FEW240 19/M07 A3026 RMK AC1CI1 SLP264=

CYYC;2005-05-27 01:00;METAR CYYC 270100Z 03011G20KT 40SM FEW110 FEW240 18/M08 A3025 RMK AC1CI1 SLP262=

CYYC;2005-05-27 02:00;METAR CYYC 270200Z 04013KT 40SM FEW140 FEW250 17/M08 A3026 RMK AC1CI1 AC+CI TR SLP264=

CYYC;2005-05-27 03:00;METAR CYYC 270300Z 04006KT 40SM SKC 14/M06 A3025 RMK SLP256=

CYYC;2005-05-27 04:00;METAR CYYC 270400Z 05006KT 40SM SKC 10/M06 A3026 RMK SLP260=

CYYC;2005-05-27 05:00;METAR CYYC 270500Z 04005KT 15SM SKC 08/M06 A3027 RMK SLP261=

CYYC;2005-05-27 06:00;METAR CYYC 270600Z 36006KT 15SM SKC 07/M06 A3026 RMK SLP265=

CYYC;2005-05-27 07:00;METAR CYYC 270700Z 31003KT 15SM SKC 08/M05 A3026 RMK SLP265=

CYYC;2005-05-27 09:00;METAR CYYC 270900Z 33004KT 15SM SKC 03/M05 A3025 RMK SLP261=

CYYC;2005-05-27 10:00;METAR CYYC 271000Z 33004KT 15SM SKC 02/M05 A3024 RMK SLP258=

CYYC;2005-05-27 11:00;METAR CYYC 271100Z 00000KT 30SM SKC 02/M05 A3023 RMK SLP254=

CYYC;2005-05-27 12:00;METAR CYYC 271200Z 00000KT 40SM SKC 02/M05 A3022 RMK SLP251=

CYYC;2005-05-27 13:00;METAR CYYC 271300Z 32002KT 40SM SKC 05/M04 A3021 RMK SLP249=

CYYC;2005-05-27 14:00;METAR CYYC 271400Z 00000KT 40SM FEW100 FEW240 09/M02 A3020 RMK AC1CI1 SLP247=

CYYC;2005-05-27 15:00;METAR CYYC 271500Z 20002KT 40SM FEW180 12/M03 A3020 RMK AC1 SLP238=

CYYC;2005-05-27 16:00;METAR CYYC 271600Z 21005KT 40SM FEW100 FEW180 14/M04 A3019 RMK AC1AC1 SLP235=

CYYC;2005-05-27 17:00;METAR CYYC 271700Z 12003KT 40SM FEW200 16/M04 A3018 RMK CI1 SLP231=

CYYC;2005-05-27 18:00;METAR CYYC 271800Z 18003KT 40SM FEW120 FEW200 18/M04 A3016 RMK AC1CI1 SLP225=

CYYC;2005-05-27 19:00;METAR CYYC 271900Z 03002KT 40SM FEW110 FEW200 18/M04 A3014 RMK AC1CI0 SLP221=

CYYC;2005-05-27 20:00;METAR CYYC 272000Z 24004KT 40SM FEW084 FEW120 FEW220 19/M03 A3013 RMK CU1AC1CI0 SLP216=

CYYC;2005-05-27 21:00;METAR CYYC 272100Z 01008KT 40SM FEW084 FEW120 FEW180 20/M03 A3011 RMK CU1AC1AC0 SLP211=

CYYC;2005-05-27 22:00;METAR CYYC 272200Z 01002KT 30SM FEW090 FEW150 FEW240 20/M03 A3009 RMK CU1AC1CI0 SLP207=

CYYC;2005-05-27 23:00;METAR CYYC 272300Z 07007KT 30SM FEW090 FEW140 BKN240 21/M02 A3007 RMK CU1AC1CI0 SLP200=

CYYC;2005-05-28 00:00;METAR CYYC 280000Z 05004KT 30SM FEW090 FEW140 BKN240 21/M02 A3006 RMK AC1AC1CI1 SLP194=

CYYC;2005-05-28 01:00;METAR CYYC 280100Z 06010KT 30SM FEW090 FEW130 BKN240 20/M02 A3004 RMK AC1AC1CI1 SLP187=

CYYC;2005-05-28 02:00;METAR CYYC 280200Z 04011KT 40SM FEW140 BKN250 19/M02 A3004 RMK AC1CI1 SLP188=

CYYC;2005-05-28 03:00;METAR CYYC 280300Z 05009KT 40SM FEW140 SCT250 15/M03 A3005 RMK AC1CI1 SLP184=

CYYC;2005-05-28 04:00;METAR CYYC 280400Z 06005KT 40SM FEW100 SCT250 11/M03 A3006 RMK AC1CI1 AC TR SLP187=

CYYC;2005-05-28 05:00;METAR CYYC 280500Z 04007KT 15SM FEW130 FEW250 09/M03 A3006 RMK AC1CI0 SLP188=

CYYC;2005-05-28 06:00;METAR CYYC 280600Z 36004KT 15SM FEW130 FEW250 09/M03 A3007 RMK AC1CI0 AC TR SLP193=

CYYC;2005-05-28 07:00;METAR CYYC 280700Z 34006KT 15SM FEW140 FEW250 08/M02 A3007 RMK AC1CI0 AC TR SLP194=

CYYC;2005-05-28 08:00;METAR CYYC 280800Z 33005KT 15SM FEW250 06/M02 A3007 RMK CI1 CI TR SLP193=

CYYC;2005-05-28 09:00;METAR CYYC 280900Z 34004KT 15SM SKC 05/M02 A3006 RMK SLP192=

CYYC;2005-05-28 10:00;METAR CYYC 281000Z 33006KT 15SM SKC 03/M03 A3006 RMK SLP191=

CYYC;2005-05-28 11:00;METAR CYYC 281100Z 36006KT 30SM FEW240 03/M03 A3006 RMK CI1 SLP190=

CYYC;2005-05-28 12:00;METAR CYYC 281200Z 33005KT 40SM FEW250 02/M03 A3005 RMK CI0 SLP190=

CYYC;2005-05-28 13:00;METAR CYYC 281300Z 36002KT 40SM FEW250 06/M01 A3006 RMK CI0 SLP193=

CYYC;2005-05-28 14:00;METAR CYYC 281400Z 00000KT 40SM FEW250 09/M01 A3007 RMK CI0 SLP196=

CYYC;2005-05-28 15:00;METAR CYYC 281500Z 00000KT 40SM FEW220 13/M01 A3007 RMK CI0 SLP192=

CYYC;2005-05-28 16:00;METAR CYYC 281600Z 17002KT 40SM FEW220 15/M03 A3008 RMK CI0 SLP193=

CYYC;2005-05-28 17:00;METAR CYYC 281700Z 12005KT 40SM FEW080 FEW240 17/M03 A3007 RMK CU1CI0 SLP191=

CYYC;2005-05-28 18:00;METAR CYYC 281800Z 02004KT 40SM FEW084 FEW240 17/M03 A3006 RMK CU1CI1 SLP191=

CYYC;2005-05-28 19:00;METAR CYYC 281900Z 05005KT 40SM FEW085 FEW240 19/M02 A3006 RMK CU1CI1 SLP189=

CYYC;2005-05-28 20:00;METAR CYYC 282000Z 05006G15KT 40SM FEW085 FEW240 19/M02 A3005 RMK CU1CI0 SLP187=

CYYC;2005-05-28 21:00;METAR CYYC 282100Z 07004G16KT 40SM FEW085 FEW240 20/M02 A3004 RMK CU1CI0 SLP185=

CYYC;2005-05-28 22:00;METAR CYYC 282200Z 03005KT 40SM FEW085 FEW240 20/M02 A3004 RMK CU1CI0 SLP184=

CYYC;2005-05-28 23:00;METAR CYYC 282300Z 03006KT 40SM FEW090 FEW240 21/M03 A3003 RMK CU1CI0 SLP182=

CYYC;2005-05-29 00:00;METAR CYYC 290000Z 07009KT 40SM FEW095 FEW240 20/M03 A3003 RMK AC1CI0 SLP184=

CYYC;2005-05-29 01:00;METAR CYYC 290100Z 05013KT 40SM FEW095 FEW240 20/M05 A3003 RMK AC1CI0 SLP184=

CYYC;2005-05-29 02:00;METAR CYYC 290200Z 07012KT 40SM FEW090 FEW250 18/M06 A3004 RMK CU1CI1 CU TR SLP186=

CYYC;2005-05-29 03:00;METAR CYYC 290300Z 06009KT 40SM FEW090 FEW250 15/M06 A3005 RMK CU1CI1 SLP184=

CYYC;2005-05-29 04:00;METAR CYYC 290400Z 07007KT 40SM FEW090 FEW250 12/M01 A3007 RMK CU1CI1 SLP191=

CYYC;2005-05-29 06:00;METAR CYYC 290600Z 13009KT 15SM FEW120 09/03 A3011 RMK AC1 AC TR SLP208=

CYYC;2005-05-29 07:00;METAR CYYC 290700Z 15006KT 15SM FEW120 08/03 A3013 RMK AC1 SLP213=

CYYC;2005-05-29 08:00;METAR CYYC 290800Z 16007KT 15SM FEW120 07/03 A3014 RMK AC1 SLP215=

CYYC;2005-05-29 09:00;METAR CYYC 290900Z 16006KT 15SM SKC 06/03 A3013 RMK SLP215=

CYYC;2005-05-29 10:00;METAR CYYC 291000Z 16007KT 15SM FEW240 06/03 A3014 RMK CI1 CI TR SLP218=

CYYC;2005-05-29 11:00;METAR CYYC 291100Z 16008KT 20SM FEW220 05/02 A3014 RMK CI1 CI TR SLP218=

CYYC;2005-05-29 12:00;METAR CYYC 291200Z 17007KT 40SM SKC 05/02 A3014 RMK SLP220=

CYYC;2005-05-29 13:00;METAR CYYC 291300Z 17006KT 40SM SKC 07/03 A3016 RMK SLP225=

CYYC;2005-05-29 14:00;METAR CYYC 291400Z 18009KT 40SM FEW220 08/03 A3015 RMK CI1 SLP223=

CYYC;2005-05-29 15:00;METAR CYYC 291500Z 16011KT 40SM FEW220 10/04 A3016 RMK CI1 SLP227=

CYYC;2005-05-29 16:00;METAR CYYC 291600Z 17010KT 40SM FEW220 12/04 A3017 RMK CI1 SLP230=

CYYC;2005-05-29 17:00;METAR CYYC 291700Z 14011KT 40SM FEW080 FEW240 14/04 A3015 RMK AC1CI1 SLP223=

CYYC;2005-05-29 18:00;METAR CYYC 291800Z 16009G15KT 40SM FEW050 FEW240 15/04 A3015 RMK CU1CI1 SLP222=

CYYC;2005-05-29 19:00;METAR CYYC 291900Z 18011KT 40SM FEW060 FEW240 16/02 A3014 RMK CU1CI1 SLP220=

CYYC;2005-05-29 21:00;METAR CYYC 292100Z 16012G21KT 40SM FEW075 FEW240 19/01 A3012 RMK CU1CI1 SLP210=

CYYC;2005-05-29 22:00;METAR CYYC 292200Z 17011G18KT 40SM FEW075 FEW240 18/M00 A3011 RMK CU1CI1 SLP208=

CYYC;2005-05-29 23:00;METAR CYYC 292300Z 15012G17KT 40SM FEW080 FEW240 19/M01 A3009 RMK AC1CI1 SLP203=

CYYC;2005-05-30 00:00;METAR CYYC 300000Z 16014KT 40SM FEW080 FEW240 19/M01 A3009 RMK AC1CI1 SLP202=

CYYC;2005-05-30 01:00;METAR CYYC 300100Z 15014G19KT 40SM FEW080 FEW240 18/M01 A3007 RMK AC1CI1 SLP198=

CYYC;2005-05-30 03:00;METAR CYYC 300300Z 15011G16KT 40SM FEW250 16/M01 A3006 RMK CI1 SLP189=

CYYC;2005-05-30 04:00;METAR CYYC 300400Z 14009KT 40SM FEW250 13/M00 A3007 RMK CI1 SLP193=

CYYC;2005-05-30 05:00;METAR CYYC 300500Z 15011KT 15SM FEW250 12/M01 A3007 RMK CI1 SLP192=

CYYC;2005-05-30 06:00;METAR CYYC 300600Z 16010KT 15SM FEW250 11/M01 A3007 RMK CI1 CI TR SLP193=

CYYC;2005-05-30 07:00;METAR CYYC 300700Z 17013KT 15SM SKC 11/M01 A3007 RMK SLP192=

CYYC;2005-05-30 08:00;METAR CYYC 300800Z 17011G16KT 15SM SKC 10/M00 A3006 RMK SLP189=

CYYC;2005-05-30 10:00;METAR CYYC 301000Z 16008KT 15SM SKC 08/M00 A3005 RMK SLP181=

CYYC;2005-05-30 11:00;METAR CYYC 301100Z 17010KT 40SM SKC 07/00 A3004 RMK SLP180=

CYYC;2005-05-30 13:00;METAR CYYC 301300Z 19010KT 40SM FEW090 09/01 A3004 RMK AC1 AC TR SLP180=

CYYC;2005-05-30 14:00;METAR CYYC 301400Z 17013KT 40SM FEW090 11/01 A3003 RMK AC1 SLP179=

CYYC;2005-05-30 15:00;METAR CYYC 301500Z 16014KT 40SM SKC 13/02 A3004 RMK SLP177=

CYYC;2005-05-30 16:00;METAR CYYC 301600Z 18016KT 40SM SKC 16/01 A3002 RMK SLP173=

CYYC;2005-05-30 17:00;METAR CYYC 301700Z 17015G20KT 40SM SKC 17/00 A3001 RMK SLP170=

CYYC;2005-05-30 18:00;METAR CYYC 301800Z 15017KT 40SM FEW075 19/00 A3000 RMK AC1 SLP165=

CYYC;2005-05-30 19:00;METAR CYYC 301900Z 17015G20KT 40SM FEW080 20/M00 A2999 RMK AC1 SLP162=

CYYC;2005-05-30 20:00;METAR CYYC 302000Z 18016KT 40SM FEW080 21/M00 A2999 RMK AC1 SLP160=

CYYC;2005-05-30 21:00;METAR CYYC 302100Z 19014G21KT 40SM FEW080 22/00 A2997 RMK AC1 SLP152=

CYYC;2005-05-30 22:00;METAR CYYC 302200Z 17013G21KT 40SM FEW080 22/M01 A2995 RMK AC1 SLP144=

CYYC;2005-05-30 23:00;METAR CYYC 302300Z 16014G21KT 40SM FEW085 22/M02 A2993 RMK AC1 SLP139=

CYYC;2005-05-31 00:00;METAR CYYC 310000Z 17013G22KT 40SM FEW085 22/M03 A2992 RMK AC1 SLP137=

CYYC;2005-05-31 01:00;METAR CYYC 310100Z 15015G21KT 40SM FEW090 21/M04 A2991 RMK AC1 SLP133=

CYYC;2005-05-31 02:00;METAR CYYC 310200Z 17016KT 40SM FEW090 FEW160 20/M06 A2990 RMK AC1AC1 SLP132=

CYYC;2005-05-31 03:00;METAR CYYC 310300Z 15013G18KT 40SM FEW090 FEW160 18/M04 A2990 RMK AC1AC1 SLP128=

CYYC;2005-05-31 04:00;METAR CYYC 310400Z 15012G17KT 40SM FEW090 FEW160 16/M03 A2991 RMK ACC1AC1 SLP131=

CYYC;2005-05-31 06:00;METAR CYYC 310600Z 16013KT 15SM SKC 13/M02 A2991 RMK SLP130=

CYYC;2005-05-31 08:00;METAR CYYC 310800Z 14009KT 15SM SKC 10/M01 A2989 RMK SLP123=

CYYC;2005-05-31 09:00;METAR CYYC 310900Z 15009KT 15SM SKC 09/M01 A2988 RMK SLP121=

CYYC;2005-05-31 10:00;METAR CYYC 311000Z 16007KT 15SM FEW140 08/M01 A2988 RMK AC1 SLP120=

CYYC;2005-05-31 11:00;METAR CYYC 311100Z 17009KT 40SM FEW140 07/M01 A2987 RMK AC1 SLP118=

CYYC;2005-05-31 12:00;METAR CYYC 311200Z 18009KT 40SM FEW140 FEW270 07/M01 A2988 RMK AC1CI1 SLP123=

CYYC;2005-05-31 13:00;METAR CYYC 311300Z 18006KT 40SM FEW140 FEW270 09/00 A2987 RMK AC1CI1 SLP122=

CYYC;2005-05-31 14:00;METAR CYYC 311400Z 17010KT 40SM FEW120 FEW260 11/00 A2987 RMK AC1CI1 SLP121=

CYYC;2005-05-31 15:00;METAR CYYC 311500Z 17012KT 40SM FEW080 FEW120 FEW260 13/01 A2986 RMK AC1AC1CI1 SLP115=

CYYC;2005-05-31 16:00;METAR CYYC 311600Z 17013G20KT 40SM FEW080 FEW260 16/02 A2985 RMK AC1CI1 SLP111=

CYYC;2005-05-31 17:00;METAR CYYC 311700Z 17017KT 40SM FEW080 FEW260 18/M00 A2983 RMK AC1CI1 SLP103=

CYYC;2005-05-31 18:00;METAR CYYC 311800Z 17013G24KT 40SM FEW080 FEW120 FEW260 20/M01 A2981 RMK CU1AC1CI1 CVCTV CLD DVLPING S-NW / TCU ASOCTD SLP095=

CYYC;2005-05-31 19:00;METAR CYYC 311900Z 16015KT 40SM FEW090TCU FEW120 FEW260 22/M01 A2980 RMK TCU1AC1CI1 TCU S-NW SLP091=

CYYC;2005-05-31 20:00;METAR CYYC 312000Z 15015G22KT 40SM FEW080CB FEW120 FEW260 22/M00 A2977 RMK CB1AC1CI1 CB S-NW SLP083=

CYYC;2005-05-31 21:00;METAR CYYC 312100Z 14019G26KT 30SM FEW080CB FEW120 FEW260 22/M01 A2974 RMK CB1AC1CI1 CB+CI TR / CB DIST S-NW SLP072=

CYYC;2005-05-31 23:00;METAR CYYC 312300Z 13016G24KT 30SM FEW080TCU FEW120 FEW260 23/M02 A2971 RMK TCU1AC1CI1 TCU+CI TR / TCU DIST SW+NW SLP064=

CYYC;2005-06-01 00:00;METAR CYYC 010000Z 14020G25KT 30SM FEW080TCU FEW120 FEW260 23/M02 A2971 RMK TCU1AC1CI1 TCU+CI TR / TCU DIST S-W SLP062=

CYYC;2005-06-01 01:00;METAR CYYC 010100Z 13022G28KT 30SM FEW080CB FEW140 FEW260 20/04 A2970 RMK CB1AC1CI0 CB TR / CB DIST W SLP060=

CYYC;2005-06-01 02:00;METAR CYYC 010200Z 13018G30KT 30SM FEW080TCU FEW140 FEW260 19/04 A2970 RMK TCU1AC1CI0 CB DIST W SLP060=

CYYC;2005-06-01 03:00;METAR CYYC 010300Z 13023G29KT 30SM FEW080 FEW140 FEW230 17/05 A2971 RMK AC1AC2CI0 TCU ASOCTD SLP062=

CYYC;2005-06-01 04:00;METAR CYYC 010400Z 14014G20KT 40SM FEW080 FEW140 BKN250 15/04 A2972 RMK AC1AC1CI1 SLP065=

CYYC;2005-06-01 06:00;METAR CYYC 010600Z 13014G21KT 15SM FEW120 BKN190 BKN250 13/04 A2972 RMK AC1AC6CI0 SLP063=

CYYC;2005-06-01 09:00;METAR CYYC 010900Z 10005KT 15SM FEW090 OVC120 10/05 A2970 RMK AC2AC5 SLP057=

CYYC;2005-06-01 10:00;METAR CYYC 011000Z 07008KT 15SM SCT075 OVC090 11/05 A2972 RMK AC3AC5 VIRGA SLP061=

CYYC;2005-06-01 10:55;SPECI CYYC 011055Z 09008KT 15SM -RA BKN070 OVC090 RMK AC6AC2=

CYYC;2005-06-01 11:00;METAR CYYC 011100Z 01003KT 10SM -RA BKN070 OVC090 11/07 A2971 RMK AC6AC2 VIS SW 5 SLP060=

CYYC;2005-06-01 12:00;METAR CYYC 011200Z 11007KT 40SM FEW050 SCT070 OVC082 11/08 A2969 RMK SC2AC1AC5 SH W SLP049=

CYYC;2005-06-01 13:00;METAR CYYC 011300Z 11005KT 40SM FEW050 BKN083 OVC140 10/08 A2972 RMK SC1AC7AC1 SH W SLP058=

CYYC;2005-06-01 14:00;METAR CYYC 011400Z 08004KT 40SM FEW050 BKN080 OVC140 11/08 A2974 RMK SC1AC6AC2 SLP064=

CYYC;2005-06-01 15:00;METAR CYYC 011500Z 08005KT 15SM -SHRA FEW050 BKN070 OVC100 11/07 A2976 RMK SC1AC6AC2 SLP082=

CYYC;2005-06-01 16:00;METAR CYYC 011600Z 09007KT 15SM -SHRA BKN049 OVC080 11/08 A2976 RMK SC6AC2 SLP083=

CYYC;2005-06-01 17:00;METAR CYYC 011700Z 05004KT 8SM -SHRA FEW020 OVC046 10/09 A2978 RMK SC1SC7 SLP088=

CYYC;2005-06-01 18:00;METAR CYYC 011800Z 02004KT 10SM -SHRA BKN011 OVC040 11/10 A2980 RMK SC6SC2 SLP100=

CYYC;2005-06-01 19:00;METAR CYYC 011900Z 05007KT 10SM -RA FEW012 OVC045 11/10 A2980 RMK SC2SC6 SLP102=

CYYC;2005-06-01 21:00;METAR CYYC 012100Z 01006KT 20SM -SHRA FEW018 OVC050 12/09 A2981 RMK CF2SC6 SLP107=

CYYC;2005-06-01 21:52;SPECI CYYC 012152Z 03004KT 20SM SCT022 OVC050 RMK CU3SC4 SHS DIST NE=

CYYC;2005-06-01 22:00;METAR CYYC 012200Z 36007KT 20SM SCT021 OVC050 13/09 A2981 RMK CU3SC4 SHS=

CYYC;2005-06-01 23:00;METAR CYYC 012300Z 35008KT 30SM SCT030 OVC060 15/08 A2981 RMK CU3SC4 SLP106=

CYYC;2005-06-02 00:00;METAR CYYC 020000Z 35008KT 30SM FEW035 BKN060 BKN085 OVC220 15/09 A2981 RMK CU2SC2AC2CI1 SLP103=

CYYC;2005-06-02 01:00;METAR CYYC 020100Z 01012KT 30SM FEW030 BKN060 OVC090 15/08 A2981 RMK CU2SC4AC2 SHS DIST E+S/ TCU PRSNT W SLP103=

CYYC;2005-06-02 02:00;METAR CYYC 020200Z 36012KT 20SM FEW030 SCT060TCU BKN090 OVC120 14/08 A2982 RMK SC2TCU2AC2AC2 CVCTV CLD EMBD / TCU SW SLP106=

CYYC;2005-06-02 02:11;SPECI CYYC 020211Z 02013KT 20SM -SHRA SCT025 BKN060 OVC090 RMK SC3SC2AC3 CVCTV CLD EMBD=

CYYC;2005-06-02 03:53;SPECI CYYC 020353Z 34009KT 10SM SCT060 OVC082 RMK SC3AC5=

CYYC;2005-06-02 04:00;METAR CYYC 020400Z 34010KT 15SM FEW040 SCT060 OVC080 11/09 A2983 RMK SC1SC3AC5 SLP117=

CYYC;2005-06-02 04:28;SPECI CYYC 020428Z 33008KT 15SM -SHRA BKN064 OVC080 RMK SC5AC3 CVCTV CLD EMBD=

CYYC;2005-06-02 05:00;METAR CYYC 020500Z 31008KT 15SM -SHRA SCT056 BKN087 OVC110 10/10 A2982 RMK SC3AC2AC2 SLP112=

CYYC;2005-06-02 05:21;SPECI CYYC 020521Z 32008KT 15SM FEW056 BKN090 BKN110 RMK SC2AC3AC2=

CYYC;2005-06-02 06:00;METAR CYYC 020600Z 32010KT 15SM FEW050 SCT080 OVC110 10/09 A2981 RMK SC1AC3AC5 SLP108=

CYYC;2005-06-02 07:00;METAR CYYC 020700Z 32008KT 15SM SCT062 BKN096 OVC120 10/09 A2981 RMK SC3AC3AC2 SLP109=

CYYC;2005-06-02 09:00;METAR CYYC 020900Z 32013KT 15SM FEW060 OVC080 11/09 A2979 RMK SC2AC6 SLP100=

CYYC;2005-06-02 09:42;SPECI CYYC 020942Z 33013KT 15SM -RA BKN062 OVC080 RMK SC5AC3=

CYYC;2005-06-02 10:00;METAR CYYC 021000Z 34013KT 15SM SCT060 OVC080 11/08 A2979 RMK SC4AC4 SLP100=

CYYC;2005-06-02 11:00;METAR CYYC 021100Z 34014KT 15SM FEW060 BKN093 BKN110 11/08 A2979 RMK SC2AC4AC1 SLP099=

CYYC;2005-06-02 12:00;METAR CYYC 021200Z 34016G21KT 20SM FEW060 BKN088 BKN150 11/07 A2979 RMK SC2AC4AC0 SLP094=

CYYC;2005-06-02 12:48;SPECI CYYC 021248Z 34019G25KT 20SM -SHRA BKN060 BKN090 RMK SC5AC2 CVCTV CLD EMBD=

CYYC;2005-06-02 12:54;SPECI CYYC 021254Z 35021G26KT 20SM -TSRA BKN064 BKN090 RMK SC6AC2 CB EMBD=

CYYC;2005-06-02 13:00;METAR CYYC 021300Z 35021G27KT 10SM -TSRA BKN060 BKN090 11/08 A2979 RMK SC6AC2 CB EMBD LTGIC NW SLP094=

CYYC;2005-06-02 13:22;SPECI CYYC 021322Z 34020G25KT 1 1/2SM TSRA BR BKN027 OVC050 RMK SC6SC2 CB EMBD=

CYYC;2005-06-02 13:26;SPECI CYYC 021326Z 35018G25KT 4SM -TSRA FEW015 BKN030 OVC050 RERA RMK SC1SC5SC3 CB EMBD=

CYYC;2005-06-02 14:00;METAR CYYC 021400Z 01011G18KT 2 1/2SM TSRA SCT010 OVC040 09/08 A2982 RERA RMK SC3SC5 CB EMBD/ LTGCC E SLP103=

CYYC;2005-06-02 14:21;SPECI CYYC 021421Z 33009KT 6SM -SHRA FEW010 OVC047 RETSRA RMK SC2SC6=

CYYC;2005-06-02 15:14;SPECI CYYC 021514Z 32007KT 20SM FEW030 SCT055 BKN091 RMK SC2SC2AC3=

CYYC;2005-06-02 16:00;METAR CYYC 021600Z 33018KT 20SM VCSH FEW030 BKN064 OVC080 13/08 A2976 RMK SC1SC6AC1 SHS NE SLP092=

CYYC;2005-06-02 16:16;SPECI CYYC 021616Z 36016G24KT 20SM -SHRA BKN039 OVC070 RMK SC7AC1=

CYYC;2005-06-02 18:00;METAR CYYC 021800Z 33017KT 20SM -SHRA FEW030 FEW060 BKN120 OVC220 13/09 A2974 RMK CU1SC2AC3CI2 /R11/ SHS VRY LGT SLP081=

CYYC;2005-06-02 18:17;SPECI CYYC 021817Z 34016G21KT 20SM FEW030 SCT065 BKN120 OVC220 RMK CU1SC3AC2CI1 SHS DIST SSW=

CYYC;2005-06-02 19:00;METAR CYYC 021900Z 34024G30KT 20SM FEW038 BKN065 OVC120 16/11 A2972 RMK CU2SC3AC2 SLP075=

CYYC;2005-06-02 20:00;METAR CYYC 022000Z 35025G30KT 20SM FEW038 BKN065 OVC100 17/08 A2970 RMK CU2SC4AC2 SLP071=

CYYC;2005-06-02 21:54;SPECI CYYC 022154Z 03025G32KT 4SM -SHRA SCT020 OVC061 RMK SC3SC5=

CYYC;2005-06-02 22:00;METAR CYYC 022200Z 03027G33KT 5SM SHRA SCT020 OVC033 11/09 A2972 RMK SC3SC5 VIS E 2 SLP067=

CYYC;2005-06-03 00:00;METAR CYYC 030000Z 34012KT 5SM -SHRA BKN063 OVC074 12/11 A2974 RMK SC6AC2 SLP082=

CYYC;2005-06-03 01:00;METAR CYYC 030100Z 35011KT 7SM -SHRA FEW020 OVC063 12/11 A2974 RMK SF2SC6 SLP083=

CYYC;2005-06-03 01:44;SPECI CYYC 030144Z 36010KT 15SM FEW017 SCT036 OVC060 RMK SF2SC2SC4=

CYYC;2005-06-03 02:00;METAR CYYC 030200Z 35010KT 15SM FEW017 BKN040 OVC060 12/11 A2976 RMK SC2SC3SC2 SLP089=

CYYC;2005-06-03 02:45;SPECI CYYC 030245Z 34013KT 15SM -SHRA FEW020 BKN032 OVC060 RMK SF2SC5SC2 CVCTV CLD EMBD=

CYYC;2005-06-03 03:00;METAR CYYC 030300Z 33010KT 15SM -SHRA FEW020 BKN037 OVC080 12/11 A2976 RMK SC2SC5AC1 SLP091=

CYYC;2005-06-03 04:00;METAR CYYC 030400Z 32010KT 15SM -SHRA FEW020 BKN033 OVC063 11/10 A2976 RMK SC2SC6SC1 SLP091=

CYYC;2005-06-03 05:00;METAR CYYC 030500Z 32012KT 15SM -SHRA BKN033 OVC055 11/10 A2975 RMK SC5SC3 SLP088=

CYYC;2005-06-03 05:27;SPECI CYYC 030527Z 32018KT 15SM SCT033 OVC046 RMK SC3SC5=

CYYC;2005-06-03 05:33;SPECI CYYC 030533Z 32016G21KT 15SM -SHRA BKN036 OVC050 RMK SC5SC3=

CYYC;2005-06-03 06:00;METAR CYYC 030600Z 32016G21KT 8SM -SHRA OVC042 10/09 A2975 RMK SC8 SLP085=

CYYC;2005-06-03 06:40;SPECI CYYC 030640Z 32019KT 15SM BKN044 OVC060 RMK SC5SC3=

CYYC;2005-06-03 06:52;SPECI CYYC 030652Z 33019G25KT 15SM -RA BKN043 OVC060 RMK SC5SC3=

CYYC;2005-06-03 07:00;METAR CYYC 030700Z 33020KT 15SM -RA BKN040 OVC060 11/09 A2975 RMK SC6SC2 SLP085=

CYYC;2005-06-03 08:00;METAR CYYC 030800Z 34018G24KT 10SM -RA BKN020 OVC040 10/10 A2975 RMK SC5SC3 SLP086=

CYYC;2005-06-03 09:18;SPECI CYYC 030918Z 35016G21KT 4SM -RA BR SCT012 BKN020 OVC038 RMK SC3SC2SC2=

CYYC;2005-06-03 10:00;METAR CYYC 031000Z 35011KT 4SM -RA BR FEW012 OVC021 10/10 A2976 RMK SF2SC6 SLP083=

CYYC;2005-06-03 10:22;SPECI CYYC 031022Z 35009KT 4SM RA BR SCT007 OVC014 RMK SF3SC5=

CYYC;2005-06-03 10:46;SPECI CYYC 031046Z 34014KT 5SM -RA BR SCT012 OVC038 RERA RMK SC4SC4=

CYYC;2005-06-03 11:00;METAR CYYC 031100Z 34013KT 5SM -RA BR SCT012 OVC021 10/10 A2977 RERA RMK SC4SC4 SLP085=

CYYC;2005-06-03 11:43;SPECI CYYC 031143Z 34014G19KT 6SM -RA BR FEW007 BKN019 OVC030 RMK SF2SC6SC1=

CYYC;2005-06-03 12:00;METAR CYYC 031200Z 35014G19KT 6SM -RA BR FEW010 BKN015 OVC039 10/10 A2977 RMK SF2SC6SC1 SLP095=

CYYC;2005-06-03 12:16;SPECI CYYC 031216Z 35012KT 8SM -RA SCT008 BKN013 OVC030 RMK SF3SC4SC1=

CYYC;2005-06-03 13:00;METAR CYYC 031300Z 35012KT 10SM -RA SCT007 OVC012 10/10 A2978 RMK SF2SC6 SLP096=

CYYC;2005-06-03 14:00;METAR CYYC 031400Z 36013KT 6SM -RA BR BKN006 OVC030 10/10 A2978 RMK SC5SC3 SLP098=

CYYC;2005-06-03 14:13;SPECI CYYC 031413Z 35014KT 7SM -RA SCT006 BKN036 OVC060 RMK SC3SC2SC2 PCPN VRY LGT=

CYYC;2005-06-03 14:47;SPECI CYYC 031447Z 35016KT 10SM FEW009 SCT032 OVC048 RMK SC2SC2SC4=

CYYC;2005-06-03 15:00;METAR CYYC 031500Z 36014G19KT 15SM SCT009 BKN030 OVC048 11/10 A2978 RMK SC4SC1SC3 SHS NW-NE SLP097=

CYYC;2005-06-03 15:24;SPECI CYYC 031524Z 35014KT 15SM -RA BKN011 OVC030 RMK SC5SC3=

CYYC;2005-06-03 16:00;METAR CYYC 031600Z 34014KT 5SM RA FEW008 BKN012 OVC025 11/10 A2979 RMK SC1SC5SC3 SLP099=

CYYC;2005-06-03 17:00;METAR CYYC 031700Z 36015KT 7SM -SHRA FEW008 BKN012 OVC041 11/10 A2979 RERA RMK SC2SC4SC2 TCU EMBD SLP098=

CYYC;2005-06-03 18:00;METAR CYYC 031800Z 34013KT 6SM -SHRA FEW008TCU BKN017 OVC045 12/11 A2979 RMK TCU2SC4SC2 RW- INTMT SLP100=

CYYC;2005-06-03 19:00;METAR CYYC 031900Z 34011KT 15SM -SHRA FEW010TCU BKN015 OVC060 12/11 A2978 RMK TCU2SC3SC2 SLP099=

CYYC;2005-06-03 19:19;SPECI CYYC 031919Z 35016KT 6SM -SHRA BKN013 BKN023 OVC044 RMK SC5SC2SC1 TCU EMBD=

CYYC;2005-06-03 19:43;SPECI CYYC 031943Z 34012KT 15SM -SHRA FEW013TCU BKN030 BKN060 RMK TCU2SC3SC2 VIS SW 6=

CYYC;2005-06-03 19:53;SPECI CYYC 031953Z 33011KT 15SM FEW013TCU SCT030 BKN064 RMK TCU2SC2SC3 SH SW=

CYYC;2005-06-03 20:00;METAR CYYC 032000Z 33011KT 20SM FEW013TCU SCT030 BKN064 13/11 A2979 RMK TCU2SC2SC4 SH SW SLP100=

CYYC;2005-06-03 20:09;SPECI CYYC 032009Z 32008KT 7SM -SHRA FEW013TCU BKN028 OVC064 RMK TCU2SC2SC3=

CYYC;2005-06-03 20:28;SPECI CYYC 032028Z 33011KT 20SM SCT016TCU BKN025 BKN058 RMK TCU3SC2SC2 SHS N-SE=

CYYC;2005-06-03 21:00;METAR CYYC 032100Z 05020KT 20SM FEW016TCU BKN028 OVC060 12/10 A2979 RMK TCU2SC6SC1 SHS NE-S SLP102=

CYYC;2005-06-03 21:38;SPECI CYYC 032138Z 03014KT 20SM -SHRA BKN022 OVC039 RMK SC6SC2 TCU EMBD=

CYYC;2005-06-03 23:00;METAR CYYC 032300Z 32010KT 15SM -SHRA FEW009 SCT040 BKN073 12/11 A2980 RMK SC2SC2AC3 CVCTV CLD EMBD / PCPN VRY LGT SLP103=

CYYC;2005-06-04 00:24;SPECI CYYC 040024Z 02008KT 20SM SCT020TCU SCT035 BKN062 RMK TCU3SC1SC3 SH SE=

CYYC;2005-06-04 01:00;METAR CYYC 040100Z 01010KT 20SM VCSH SCT020TCU SCT030 SCT046 OVC063 12/10 A2979 RMK TCU3SC1SC1SC3 SH SE SLP098=

CYYC;2005-06-04 02:00;METAR CYYC 040200Z 35005KT 20SM FEW020 BKN050 BKN080 12/11 A2979 RMK CF1SC5AC2 TCU ASOCTD E + W SLP098=

CYYC;2005-06-04 04:39;SPECI CYYC 040439Z 32004KT 15SM FEW025 SCT040 BKN085 RMK CF1SC3AC1=

CYYC;2005-06-04 05:00;METAR CYYC 040500Z 35005KT 15SM FEW025 SCT040 BKN092 10/09 A2982 RMK CF1SC3AC2 SLP109=

CYYC;2005-06-04 06:00;METAR CYYC 040600Z 01003KT 15SM FEW045 BKN087 10/09 A2981 RMK SC2AC5 SLP110=

CYYC;2005-06-04 07:00;METAR CYYC 040700Z 34003KT 15SM FEW050 BKN120 10/09 A2981 RMK SC2AC5 SLP108=

CYYC;2005-06-04 08:00;METAR CYYC 040800Z 05002KT 15SM FEW050 FEW085 BKN097 09/08 A2980 RMK SC1AC2AC2 SLP106=

CYYC;2005-06-04 09:00;METAR CYYC 040900Z 32003KT 15SM FEW061 BKN090 09/08 A2979 RMK SC2AC2 SLP105=

CYYC;2005-06-04 10:00;METAR CYYC 041000Z 35002KT 15SM SCT071 BKN110 08/08 A2979 RMK AC3AC2 SLP105=

CYYC;2005-06-04 11:00;METAR CYYC 041100Z 22003KT 15SM BKN075 BKN110 09/09 A2980 RMK AC6AC1 SLP106=

CYYC;2005-06-04 12:28;SPECI CYYC 041228Z 24003KT 20SM -RA FEW058 OVC096 RMK SC2AC6=

CYYC;2005-06-04 13:00;METAR CYYC 041300Z 36002KT 20SM -RA BKN057 BKN090 09/09 A2981 RMK SC5AC2 SLP107=

CYYC;2005-06-04 14:00;METAR CYYC 041400Z 00000KT 20SM VCSH BKN054 OVC090 10/09 A2982 RMK SC6AC2 SLP111=

CYYC;2005-06-04 14:44;SPECI CYYC 041444Z 35002KT 20SM -RA BKN047 OVC090 RMK SC6AC2 PCPN VRY LGT=

CYYC;2005-06-04 15:00;METAR CYYC 041500Z 30003KT 20SM -RA FEW038 BKN047 OVC100 10/10 A2984 RMK SC1SC6AC2 PCPN VRY LGT SLP118=

CYYC;2005-06-04 16:00;METAR CYYC 041600Z 25002KT 20SM VCSH FEW018 BKN045 BKN120 12/10 A2984 RMK SC1SC5AC2 SLP118=

CYYC;2005-06-04 17:52;SPECI CYYC 041752Z 00000KT 20SM -RA FEW018 BKN058 BKN120 RMK SC1SC6AC1 AC TR=

CYYC;2005-06-04 18:00;METAR CYYC 041800Z 27004KT 20SM -RA SCT021 BKN058 BKN120 14/10 A2984 RMK SC2SC3AC2 SLP117=

CYYC;2005-06-04 19:00;METAR CYYC 041900Z 27005KT 10SM -SHRA BKN021 BKN058 BKN091 15/11 A2983 RMK SC5SC2AC1 CVCTV CLD EMBD SLP113=

CYYC;2005-06-04 19:43;SPECI CYYC 041943Z 28007KT 20SM VCSH SCT021 BKN052 BKN091 RMK SC3SC2AC1 CVCTV CLD EMBD=

CYYC;2005-06-04 20:00;METAR CYYC 042000Z 30008KT 20SM VCSH SCT021 BKN052 BKN091 16/11 A2983 RMK SC2SC2AC1 CVCTV CLD EMBD SLP112=

CYYC;2005-06-04 20:47;SPECI CYYC 042047Z 31006KT 20SM -SHRA FEW021 BKN058 BKN091 RMK SC2SC3AC1=

CYYC;2005-06-04 21:00;METAR CYYC 042100Z 32009KT 20SM -SHRA FEW021 BKN054 BKN090 15/10 A2982 RMK SC2SC4AC1 CVCTV CLD EMBD SLP108=

CYYC;2005-06-04 22:00;METAR CYYC 042200Z 33008KT 20SM -SHRA FEW021 SCT054TCU BKN080 BKN090 16/09 A2982 RMK SC1TCU4AC3AC1 SLP109=

CYYC;2005-06-04 22:41;SPECI CYYC 042241Z 05011KT 20SM VCSH FEW021 BKN051TCU BKN080 RERA RMK SC1TCU6AC1=

CYYC;2005-06-04 22:49;SPECI CYYC 042249Z 04009KT 20SM -SHRA FEW021 BKN049TCU BKN080 RERA RMK SC1TCU6AC1=

CYYC;2005-06-04 23:00;METAR CYYC 042300Z 04007KT 8SM -SHRA FEW021 BKN049TCU BKN080 12/11 A2983 RERA RMK SC1TCU6AC1 SLP112=

CYYC;2005-06-05 00:00;METAR CYYC 050000Z 09006KT 20SM FEW020 FEW055 BKN070 BKN110 13/11 A2982 RERA RMK SC1SC2AC2AC1 LWR SC+UPR AC TR / TCU ASOCTD SLP112=

CYYC;2005-06-05 01:00;METAR CYYC 050100Z 14003KT 20SM FEW020 FEW055 BKN070 BKN110 14/09 A2982 RMK CF1SC2AC2AC1 TCU ASOCTD DIST NW-NE SLP112=

CYYC;2005-06-05 02:00;METAR CYYC 050200Z 20005KT 20SM FEW020 FEW055TCU BKN070 BKN100 13/10 A2982 RMK CF1TCU2AC1AC1 SHS W-NW SLP112=

CYYC;2005-06-05 03:00;METAR CYYC 050300Z 18003KT 20SM FEW020TCU SCT048 BKN080 BKN110 13/10 A2981 RMK TCU2SC2AC2AC1 SHS SWW-NW SLP108=

CYYC;2005-06-05 03:25;SPECI CYYC 050325Z 20004KT 15SM -SHRA FEW025 BKN048 BKN090 RMK CU1SC5AC2 CVCTV CLD EMBD=

CYYC;2005-06-05 04:00;METAR CYYC 050400Z 27006KT 10SM -SHRA FEW012 BKN047 BKN090 13/10 A2982 RMK CF1SC5AC2 CVCTV CLD EMBD SLP109=

CYYC;2005-06-05 05:00;METAR CYYC 050500Z 00000KT 15SM VCSH FEW012 BKN047 BKN090 12/11 A2982 RMK CF1SC5AC2 SLP109=

CYYC;2005-06-05 06:00;METAR CYYC 050600Z 04005KT 15SM FEW020 BKN045 BKN100 10/10 A2982 RMK CF1SC5AC2 SLP107=

CYYC;2005-06-05 07:00;METAR CYYC 050700Z 04002KT 15SM FEW020 OVC037 11/10 A2982 RMK SC2SC6 SLP107=

CYYC;2005-06-05 07:20;SPECI CYYC 050720Z 04002KT 15SM -SHRA FEW006 BKN020 OVC050 RMK SF2SC4SC2 CVCTV CLD EMBD=

CYYC;2005-06-05 07:51;SPECI CYYC 050751Z 13002KT 15SM FEW015 SCT020 OVC044 RMK SC1SC4SC4=

CYYC;2005-06-05 08:00;METAR CYYC 050800Z 00000KT 15SM VCSH FEW015 BKN032 OVC046 11/10 A2981 RMK SC2SC4SC2 SLP105=

CYYC;2005-06-05 09:00;METAR CYYC 050900Z 02002KT 6SM -SHRA FEW007 BKN020 OVC030 11/11 A2981 RMK SC2SC5SC1 SLP102=

CYYC;2005-06-05 09:11;SPECI CYYC 050911Z 04003KT 8SM -DZ BKN005 OVC020 RMK ST6SC2=

CYYC;2005-06-05 09:18;SPECI CYYC 050918Z 06002KT 5SM -SHRA BKN005 OVC020 RMK ST6SC2=

CYYC;2005-06-05 10:00;METAR CYYC 051000Z 12006KT 2SM +SHRA BR SCT005 OVC014 11/11 A2980 RMK SC3SC5 /R11/ SLP098=

CYYC;2005-06-05 10:17;SPECI CYYC 051017Z 11004KT 3SM +SHRA BR FEW005 BKN013 OVC030 RMK SC2SC6SC1=

CYYC;2005-06-05 10:40;SPECI CYYC 051040Z 12004KT 3SM -SHRA BR FEW005 BKN020 OVC058 RERA RMK SC2SC5SC1=

CYYC;2005-06-05 11:00;METAR CYYC 051100Z 10003KT 2 1/2SM -SHRA BR BKN005 OVC026 11/11 A2979 RERA RMK SC4SC4 SLP097=

CYYC;2005-06-05 12:00;METAR CYYC 051200Z 07002KT 1 3/4SM -RA BR SCT007 OVC030 11/11 A2980 RERA RMK SC3SC5 /R21/ SLP102=

CYYC;2005-06-05 12:30;SPECI CYYC 051230Z 07004KT 2SM -RA BR BKN008 BKN015 OVC030 RMK SC6SC1SC2=

CYYC;2005-06-05 12:48;SPECI CYYC 051248Z 07004KT 2 1/2SM -RA BR SCT008 SCT012 BKN041 RMK SC3SC1SC3=

CYYC;2005-06-05 13:00;METAR CYYC 051300Z 06004KT 2 1/2SM -RA BR FEW004 SCT008 BKN019 OVC041 11/11 A2980 RMK SF1SC3SC4SC1 SLP103=

CYYC;2005-06-05 14:00;METAR CYYC 051400Z 05005KT 4SM -RA SCT006 BKN008 OVC016 11/11 A2980 RMK SF1SC3SC4 PCPN VRY LGT SLP102=

CYYC;2005-06-05 14:25;SPECI CYYC 051425Z 08003KT 4SM BR SCT005 BKN008 BKN016 OVC038 RMK SF0SC4SC3SC1=

CYYC;2005-06-05 15:00;METAR CYYC 051500Z 13002KT 5SM -RA BR FEW005 SCT008 BKN016 OVC033 11/11 A2980 RMK SF0SC2SC6SC1 SLP100=

CYYC;2005-06-05 15:31;SPECI CYYC 051531Z 10011KT 3SM +RA BR FEW005 SCT008 BKN018 OVC030 RMK SF0SC2SC6SC1=

CYYC;2005-06-05 15:43;SPECI CYYC 051543Z 09009KT 2SM +RA BR BKN004 BKN008 OVC018 RMK SF0SC3SC5=

CYYC;2005-06-05 16:00;METAR CYYC 051600Z 09011G17KT 2 1/2SM RA BR FEW004 SCT008 BKN018 OVC034 10/10 A2980 RERA RMK SF0SC2SC2SC4 SLP102=

CYYC;2005-06-05 16:19;SPECI CYYC 051619Z 10010KT 3SM -RA BR FEW005 SCT009 BKN018 OVC034 RERA RMK SF0SC2SC2SC5=

CYYC;2005-06-05 17:00;METAR CYYC 051700Z 11007KT 4SM -RA BR BKN006 OVC041 11/11 A2981 RERA RMK SC2SC6 /R11/ SLP103=

CYYC;2005-06-05 18:00;METAR CYYC 051800Z 12010KT 8SM -RA BKN006 OVC050 11/10 A2980 RMK SC2SC6 /R13/ SLP106=

CYYC;2005-06-05 19:00;METAR CYYC 051900Z 11006KT 8SM -RA FEW005 FEW008 FEW030 OVC050 12/11 A2980 RERA RMK SC1SC2SC1SC6 SLP106=

CYYC;2005-06-05 20:00;METAR CYYC 052000Z 10008KT 15SM -RA FEW005 SCT009 OVC048 13/11 A2980 RMK SC1SC2SC5 TCU EMBD SLP104=

CYYC;2005-06-05 22:00;METAR CYYC 052200Z 10006KT 20SM FEW005 BKN025 BKN060 14/09 A2979 RMK CF1SC5SC2 CVCTV CLD EMBD / SHS NW-NE SLP097=

CYYC;2005-06-05 22:12;SPECI CYYC 052212Z 06010KT 20SM -SHRA FEW005 BKN025 BKN060 RMK CF1SC7SC1 CVCTV CLD EMBD=

CYYC;2005-06-05 23:00;METAR CYYC 052300Z 05009KT 20SM FEW009 BKN035 OVC060 13/10 A2978 RMK CF1SC6SC1 CVCTV CLD EMBD SLP096=

CYYC;2005-06-06 00:00;METAR CYYC 060000Z 07011G16KT 20SM FEW015TCU SCT040 OVC060 13/08 A2978 RMK TCU1SC4SC3 SLP096=

CYYC;2005-06-06 01:00;METAR CYYC 060100Z 07011KT 20SM FEW015TCU BKN038 BKN060 13/09 A2978 RMK TCU1SC6SC1 TCU TR SLP095=

CYYC;2005-06-06 02:00;METAR CYYC 060200Z 09009KT 15SM VCSH FEW015 BKN040 BKN070 12/10 A2979 RMK CU1SC4AC2 SLP099=

CYYC;2005-06-06 02:05;SPECI CYYC 060205Z 09011KT 15SM -SHRA FEW015 BKN040 BKN070 RMK CU1SC5AC2 CVCTV CLD EMBD=

CYYC;2005-06-06 03:00;METAR CYYC 060300Z 09008KT 15SM VCSH FEW015 BKN046 OVC070 11/10 A2980 RMK CU2SC4AC1 SLP103=

CYYC;2005-06-06 04:00;METAR CYYC 060400Z 09007KT 15SM FEW018TCU BKN050 OVC070 11/10 A2979 RMK TCU1SC5AC1 SLP100=

CYYC;2005-06-06 05:00;METAR CYYC 060500Z 05005KT 15SM FEW015 SCT023 BKN040 11/10 A2980 RMK CU1SC3SC4 SLP104=

CYYC;2005-06-06 06:00;METAR CYYC 060600Z 07007KT 15SM SCT020 OVC049 11/09 A2981 RMK SC3SC5 SLP108=

CYYC;2005-06-06 07:00;METAR CYYC 060700Z 08008KT 15SM FEW020 BKN056 BKN090 10/09 A2979 RMK SC2SC4AC2 SLP103=

CYYC;2005-06-06 08:00;METAR CYYC 060800Z 07005KT 15SM FEW020 BKN050 OVC084 10/08 A2980 RMK SC2SC4AC2 VIRGA SW SLP104=

CYYC;2005-06-06 09:00;METAR CYYC 060900Z 04005KT 15SM FEW020 SCT050 BKN084 08/08 A2979 RMK SC2SC2AC2 SLP100=

CYYC;2005-06-06 10:00;METAR CYYC 061000Z 01003KT 15SM SCT060 BKN081 09/08 A2979 RMK SC3AC4 SLP100=

CYYC;2005-06-06 11:00;METAR CYYC 061100Z 02004KT 15SM FEW015 FEW080 BKN110 09/07 A2978 RMK CU1AC2AC5 SLP097=

CYYC;2005-06-06 12:00;METAR CYYC 061200Z 34006KT 20SM FEW015 BKN086 BKN110 09/08 A2980 RMK CU1AC5AC2 SLP104=

CYYC;2005-06-06 13:00;METAR CYYC 061300Z 35004KT 20SM FEW015 FEW053 BKN085 BKN110 09/08 A2980 RMK CU1SC2AC3AC2 SLP106=

CYYC;2005-06-06 14:00;METAR CYYC 061400Z 02005KT 20SM FEW015 FEW040 BKN120 OVC150 10/07 A2980 RMK SC1SC0AC6AC2 SLP106=

CYYC;2005-06-06 15:00;METAR CYYC 061500Z 02005KT 20SM FEW015 FEW040 BKN076 BKN120 OVC150 10/07 A2980 RMK SC1SC0AC0AC6AC1 SLP106=

CYYC;2005-06-06 16:00;METAR CYYC 061600Z 02005KT 20SM FEW021 FEW040 BKN080 OVC120 11/06 A2980 RMK SC1SC2AC1AC4 SLP106=

CYYC;2005-06-06 17:00;METAR CYYC 061700Z 01008KT 20SM FEW025 BKN040 OVC078 12/07 A2980 RMK SC2SC5AC1 SLP104=

CYYC;2005-06-06 17:53;SPECI CYYC 061753Z 02008KT 20SM -RA FEW025 BKN040 OVC078 RMK SC2SC6AC1=

CYYC;2005-06-06 18:00;METAR CYYC 061800Z 01009KT 20SM -RA FEW025 BKN042 OVC078 11/07 A2980 RMK SC2SC6AC1 PCPN VRY LGT SLP103=

CYYC;2005-06-06 19:00;METAR CYYC 061900Z 04008KT 20SM -RA FEW025 BKN042 OVC071 12/06 A2980 RMK SC2SC2AC4 PCPN VRY LGT SLP104=

CYYC;2005-06-06 20:00;METAR CYYC 062000Z 04005KT 8SM -RA FEW028 OVC045 12/08 A2981 RMK SC2SC6 SLP107=

CYYC;2005-06-06 21:00;METAR CYYC 062100Z 29007KT 4SM -RA FEW012 BKN021 OVC040 11/09 A2981 RMK CF0SC5SC3 SLP112=

CYYC;2005-06-06 22:00;METAR CYYC 062200Z 30005KT 4SM -RA FEW012 BKN021 OVC041 10/09 A2982 RMK CF0SC3SC5 SLP114=

CYYC;2005-06-06 23:00;METAR CYYC 062300Z 25004KT 4SM -RA BKN013 OVC028 10/09 A2982 RMK SC4SC4 SF ASOCTD SLP115=

CYYC;2005-06-07 00:00;METAR CYYC 070000Z 33009KT 10SM -RA SCT013 BKN027 OVC045 10/09 A2982 RMK SC1SC2SC6 SLP115=

CYYC;2005-06-07 01:00;METAR CYYC 070100Z 33009KT 5SM RA FEW012 BKN016 OVC043 09/09 A2982 RMK CF1SC6SC2 SLP116=

CYYC;2005-06-07 02:00;METAR CYYC 070200Z 33006KT 6SM -RA FEW011 BKN017 OVC043 09/09 A2982 RERA RMK CF1SC6SC2 SLP117=

CYYC;2005-06-07 03:20;SPECI CYYC 070320Z 04007KT 5SM -RA FEW005 BKN011 OVC040 RMK SC2SC2SC3=

CYYC;2005-06-07 04:00;METAR CYYC 070400Z 02008KT 4SM -RA FEW006 BKN013 OVC040 09/09 A2984 RMK SC2SC2SC3 SLP120=

CYYC;2005-06-07 05:00;METAR CYYC 070500Z 04014KT 3SM -RA FEW006 BKN010 OVC020 09/09 A2983 RMK SC2SC2SC3 SLP119=

CYYC;2005-06-07 05:16;SPECI CYYC 070516Z 04016KT 3SM -RA BKN006 BKN013 OVC033 RERA RMK SC5SC2SC1=

CYYC;2005-06-07 06:00;METAR CYYC 070600Z 05011G16KT 5SM -RA BKN005 OVC013 09/08 A2983 RERA RMK SC5SC3 /R12/ SLP116=

CYYC;2005-06-07 07:00;METAR CYYC 070700Z 04012KT 5SM -RA BKN007 OVC030 09/08 A2982 RMK SC5SC3 SLP113=

CYYC;2005-06-07 08:00;METAR CYYC 070800Z 04015KT 5SM -RA BKN005 OVC010 08/08 A2980 RMK SC5SC3 SLP109=

CYYC;2005-06-07 09:00;METAR CYYC 070900Z 04016KT 5SM -RA BKN005 OVC010 08/08 A2979 RMK SC5SC3 SLP105=

CYYC;2005-06-07 10:00;METAR CYYC 071000Z 03016G21KT 5SM -RA BKN006 OVC011 08/08 A2978 RMK SC5SC3 SLP101=

CYYC;2005-06-07 11:00;METAR CYYC 071100Z 03012KT 4SM -RA BKN005 BKN015 OVC030 08/08 A2978 RMK SC5SC2SC2 SLP101=

CYYC;2005-06-07 12:00;METAR CYYC 071200Z 01014KT 3SM RA BKN005 BKN012 OVC020 08/08 A2977 RMK SC5SC2SC2 /R11/ SLP101=

CYYC;2005-06-07 13:00;METAR CYYC 071300Z 02014KT 4SM RA BKN005 BKN010 OVC020 08/08 A2977 RMK SC5SC2SC2 SLP101=

CYYC;2005-06-07 13:25;SPECI CYYC 071325Z 01013KT 4SM RA BKN005 BKN010 OVC020 RMK SC3SC1SC4=

CYYC;2005-06-07 13:49;SPECI CYYC 071349Z 03015KT 4SM RA BKN004 BKN008 OVC020 RMK SC4SC2SC2=

CYYC;2005-06-07 14:00;METAR CYYC 071400Z 03012G18KT 4SM RA BKN004 BKN008 OVC018 08/08 A2976 RMK SC4SC2SC2 SLP098=

CYYC;2005-06-07 14:34;SPECI CYYC 071434Z 03013G18KT 4SM RA BKN004 BKN016 OVC030 RMK SC2SC2SC4=

CYYC;2005-06-07 15:00;METAR CYYC 071500Z 03016KT 4SM -RA BKN006 BKN016 OVC030 08/08 A2976 RERA RMK SC2SC2SC4 /R12/ SLP096=

CYYC;2005-06-07 16:00;METAR CYYC 071600Z 03016G21KT 4SM -RA BKN006 OVC025 08/08 A2975 RMK SC4SC4 SLP093=

CYYC;2005-06-07 17:00;METAR CYYC 071700Z 04015KT 4SM -RA BKN006 OVC025 08/08 A2975 RERA RMK SC2SC6 SLP094=

CYYC;2005-06-07 18:00;METAR CYYC 071800Z 04019G25KT 4SM -RA BKN006 OVC030 08/08 A2975 RMK SC2SC6 /R21/ SLP096=

CYYC;2005-06-07 18:35;SPECI CYYC 071835Z 04017G25KT 4SM -RA BKN006 OVC024 RMK SC5SC3=

CYYC;2005-06-07 19:00;METAR CYYC 071900Z 05017G25KT 4SM -RA BKN006 OVC020 08/07 A2976 RMK SC4SC4 SLP097=

CYYC;2005-06-07 20:00;METAR CYYC 072000Z 04017KT 4SM -RA BKN008 OVC020 07/07 A2976 RMK SC3SC5 SLP099=

CYYC;2005-06-07 21:00;METAR CYYC 072100Z 02015G22KT 4SM -RA BKN008 OVC030 07/07 A2977 RMK SC3SC5 SLP105=

CYYC;2005-06-07 22:00;METAR CYYC 072200Z 02018KT 5SM -RA BKN009 OVC020 08/07 A2978 RMK SC2SC6 SLP107=

CYYC;2005-06-07 22:30;SPECI CYYC 072230Z 05016KT 3SM -RA BR BKN006 OVC020 RMK SC6SC2=

CYYC;2005-06-07 23:00;METAR CYYC 072300Z 05015G25KT 4SM -RA BR BKN007 OVC020 07/07 A2979 RMK SC5SC3 SLP109=

CYYC;2005-06-08 00:00;METAR CYYC 080000Z 05020KT 5SM -RA BKN007 OVC030 07/06 A2980 RMK SC5SC3 /R11/ SLP116=

CYYC;2005-06-08 00:18;SPECI CYYC 080018Z 05016KT 7SM -RA BKN007 OVC040 RMK SC3SC5=

CYYC;2005-06-08 00:36;SPECI CYYC 080036Z 05015G22KT 4SM -RA BKN007 OVC030 RMK SC6SC2=

CYYC;2005-06-08 01:00;METAR CYYC 080100Z 04018KT 5SM -RA BKN007 OVC025 07/06 A2981 RMK SC3SC5 SLP117=

CYYC;2005-06-08 01:14;SPECI CYYC 080114Z 04014KT 4SM -RA BKN007 OVC025 RMK SC5SC3=

CYYC;2005-06-08 02:00;METAR CYYC 080200Z 02015KT 6SM -RA BKN008 OVC022 07/06 A2981 RMK SC5SC3 SLP118=

CYYC;2005-06-08 02:49;SPECI CYYC 080249Z 02016KT 1 1/2SM -RA BR BKN004 OVC022 RMK SC5SC3=

CYYC;2005-06-08 03:00;METAR CYYC 080300Z 01012G17KT 1 1/2SM -RA BR BKN005 OVC019 06/06 A2981 RMK SC5SC3 SLP120=

CYYC;2005-06-08 04:00;METAR CYYC 080400Z 01013KT 2 1/2SM -RA BR BKN005 OVC011 06/06 A2982 RMK SC5SC3 SLP122=

CYYC;2005-06-08 05:00;METAR CYYC 080500Z 01011G18KT 3SM -RA BR BKN005 OVC011 06/06 A2983 RMK SC5SC3 PCPN VRY LGT SLP126=

CYYC;2005-06-08 05:28;SPECI CYYC 080528Z 01013KT 2SM -RA BR BKN004 OVC011 RMK SC5SC3=

CYYC;2005-06-08 06:00;METAR CYYC 080600Z 36015KT 3SM -RA BR BKN004 OVC013 06/06 A2984 RMK SC5SC3 PCPN VRY LGT SLP129=

CYYC;2005-06-08 06:47;SPECI CYYC 080647Z 01013KT 1 3/4SM -RA BR BKN004 OVC012 RMK SC5SC3=

CYYC;2005-06-08 07:00;METAR CYYC 080700Z 01012KT 1 3/4SM -RA BR BKN004 OVC012 06/06 A2984 RMK SC5SC3 SLP129=

CYYC;2005-06-08 07:33;SPECI CYYC 080733Z 36010KT 2 1/2SM -RA BR BKN003 OVC008 RMK SC5SC3=

CYYC;2005-06-08 08:00;METAR CYYC 080800Z 02006KT 3SM -RA BR BKN003 OVC008 06/06 A2984 RMK SC5SC3 SLP131=

CYYC;2005-06-08 09:00;METAR CYYC 080900Z 35012KT 3SM -RA BR BKN004 OVC022 06/06 A2984 RMK SC5SC3 SLP130=

CYYC;2005-06-08 10:00;METAR CYYC 081000Z 35009KT 5SM -RA BKN004 OVC021 06/06 A2983 RMK SC5SC3 SLP128=

CYYC;2005-06-08 11:00;METAR CYYC 081100Z 36009KT 6SM -RA BKN004 OVC021 06/06 A2983 RMK SC5SC3 SLP127=

CYYC;2005-06-08 12:00;METAR CYYC 081200Z 35008KT 6SM -RA BKN004 OVC021 06/06 A2984 RMK SC5SC3 PCPN VRY LGT SLP131=

CYYC;2005-06-08 12:49;SPECI CYYC 081249Z 35009KT 6SM -RA BKN006 OVC021 RMK SC5SC3 PCPN VRY LGT=

CYYC;2005-06-08 13:00;METAR CYYC 081300Z 36008KT 6SM -RA BKN006 OVC023 06/06 A2984 RMK SC5SC3 PCPN VRY LGT SLP131=

CYYC;2005-06-08 14:00;METAR CYYC 081400Z 36008KT 20SM VCSH BKN006 OVC020 07/06 A2985 RMK SC5SC3 SLP135=

CYYC;2005-06-08 16:00;METAR CYYC 081600Z 03007KT 15SM -RA OVC007 07/06 A2988 RMK SC8 PCPN VRY LGT SLP144=

CYYC;2005-06-08 17:40;SPECI CYYC 081740Z 36006KT 15SM BKN007 OVC016 RMK SC4SC4=

CYYC;2005-06-08 18:00;METAR CYYC 081800Z 36005KT 20SM BKN007 OVC012 08/07 A2987 RMK SC4SC4 SLP140=

CYYC;2005-06-08 19:00;METAR CYYC 081900Z 00000KT 20SM OVC016 10/07 A2987 RMK SC8 SLP139=

CYYC;2005-06-08 20:00;METAR CYYC 082000Z 03004KT 20SM FEW012 SCT016 BKN024 OVC050 10/07 A2986 RMK SC1SC3SC4SC0 SLP136=

CYYC;2005-06-08 21:00;METAR CYYC 082100Z 06005KT 30SM BKN020 BKN031 OVC050 11/08 A2986 RMK SC6SC1SC0 SLP132=

CYYC;2005-06-08 22:00;METAR CYYC 082200Z 09007KT 30SM BKN019 BKN031 OVC050 12/08 A2985 RMK SC6SC1SC0 SLP131=

CYYC;2005-06-08 23:00;METAR CYYC 082300Z 09007KT 20SM SCT019 BKN031 OVC200 12/09 A2984 RMK SC4SC1CI0 SLP127=

CYYC;2005-06-09 00:00;METAR CYYC 090000Z 07006KT 20SM BKN024 BKN031 OVC083 12/08 A2984 RMK SC4SC2AC1 SLP125=

CYYC;2005-06-09 00:36;SPECI CYYC 090036Z 07004KT 15SM -RA FEW024 FEW031 BKN061 OVC083 RMK SC2SC1SC3AC2 PCPN VRY LGT=

CYYC;2005-06-09 00:49;SPECI CYYC 090049Z 04006KT 15SM VCSH FEW024 SCT031 BKN061 OVC083 RMK SC1SC2SC4AC1=

CYYC;2005-06-09 01:00;METAR CYYC 090100Z 04006KT 15SM FEW024 SCT031 BKN058 OVC088 12/08 A2984 RMK SC1SC2SC3AC2 SHS S-SW SLP124=

CYYC;2005-06-09 02:00;METAR CYYC 090200Z 00000KT 20SM FEW030 BKN079 OVC100 12/07 A2983 RMK SC1AC5AC2 SLP122=

CYYC;2005-06-09 03:00;METAR CYYC 090300Z 32002KT 15SM SCT030 OVC093 12/07 A2984 RMK SC3AC5 SHS=

CYYC;2005-06-09 04:00;METAR CYYC 090400Z 22005KT 15SM FEW030 OVC070 11/09 A2984 RMK SC2AC6 SLP123=

CYYC;2005-06-09 06:00;METAR CYYC 090600Z 21004KT 15SM BKN049 OVC100 10/09 A2983 RMK SC5AC2 SLP118=

CYYC;2005-06-09 07:00;METAR CYYC 090700Z 20004KT 15SM FEW045 BKN100 09/08 A2981 RMK SC2AC2 SLP114=

CYYC;2005-06-09 08:00;METAR CYYC 090800Z 21002KT 15SM FEW050 SCT100 09/08 A2980 RMK SC1AC1 SLP111=

CYYC;2005-06-09 09:00;METAR CYYC 090900Z 30003KT 15SM FEW070 SCT160 08/07 A2981 RMK AC1AC2 SLP110=

CYYC;2005-06-09 10:00;METAR CYYC 091000Z 32006KT 15SM FEW100 SCT160 06/06 A2980 RMK AC2AC1 SLP109=

CYYC;2005-06-09 11:00;METAR CYYC 091100Z 32008KT 20SM FEW080 OVC110 07/06 A2980 RMK AC2AC5 SLP109=

CYYC;2005-06-09 12:00;METAR CYYC 091200Z 33007KT 20SM FEW095 BKN120 07/06 A2981 RMK AC2AC5 SLP111=

CYYC;2005-06-09 13:00;METAR CYYC 091300Z 32009KT 40SM OVC120 09/06 A2982 RMK AC8 SLP115=

CYYC;2005-06-09 14:00;METAR CYYC 091400Z 31007KT 30SM FEW030 BKN094 BKN110 10/08 A2983 RMK CF1AC5AC2 SLP117=

CYYC;2005-06-09 15:00;METAR CYYC 091500Z 04006KT 30SM SCT014 BKN090 OVC110 11/09 A2984 RMK SC3AC2AC2 SLP116=

CYYC;2005-06-09 16:00;METAR CYYC 091600Z 03005KT 20SM VCSH SCT015 BKN072 OVC100 11/09 A2984 RMK SC3AC4AC1 SLP117=

CYYC;2005-06-09 16:10;SPECI CYYC 091610Z 03005KT 20SM -RA SCT012 BKN072 OVC100 RMK SC4AC3AC1=

CYYC;2005-06-09 16:41;SPECI CYYC 091641Z 01006KT 20SM BKN020 OVC080 RMK SC6AC2=

CYYC;2005-06-09 17:00;METAR CYYC 091700Z 03006KT 20SM BKN021 OVC080 12/08 A2984 RMK SC5AC2 SLP118=

CYYC;2005-06-09 18:00;METAR CYYC 091800Z 01008KT 20SM SCT020 BKN064 OVC080 13/07 A2984 RMK SC4SC2AC2 TCU ASOCTD NE SLP115=

CYYC;2005-06-09 19:00;METAR CYYC 091900Z 06009KT 20SM FEW020 BKN055 BKN080 13/08 A2984 RMK CU1SC5AC2 CVCTV CLD EMBD SLP116=

CYYC;2005-06-09 19:38;SPECI CYYC 091938Z 04006KT 20SM -SHRA FEW024 BKN038 OVC080 RMK CU2SC6AC1 CVCTV CLD EMBD=

CYYC;2005-06-09 20:00;METAR CYYC 092000Z 01008KT 20SM -SHRA FEW025 BKN047 OVC080 13/08 A2984 RMK CU2SC6AC1 CVCTV CLD EMBD SLP116=

CYYC;2005-06-09 20:30;SPECI CYYC 092030Z 04006KT 20SM FEW025 BKN045 OVC080 RMK CU2SC5AC1 CVCTV CLD EMBD=

CYYC;2005-06-09 21:00;METAR CYYC 092100Z 03006KT 20SM FEW025 BKN040 OVC080 14/08 A2984 RMK CU1SC6AC2 TCU ASOCTD W SLP119=

CYYC;2005-06-09 22:00;METAR CYYC 092200Z 02010KT 30SM FEW025 BKN069 BKN120 14/08 A2984 RMK CU2AC2AC2 TCU ASOCTD NW SLP118=

CYYC;2005-06-09 23:00;METAR CYYC 092300Z 03007KT 30SM FEW024 SCT060 BKN130 15/09 A2983 RMK CU2SC2AC2 TCU ASOCTD N SLP115=

CYYC;2005-06-10 00:00;METAR CYYC 100000Z 06006KT 30SM FEW030 BKN140 BKN240 15/08 A2982 RMK CU2AC2CI0 TCU ASOCTD NE-E SLP112=

CYYC;2005-06-10 01:00;METAR CYYC 100100Z 03003KT 30SM FEW030 FEW050 SCT140 BKN240 16/06 A2981 RMK CU2SC1AC1CI0 SLP109=

CYYC;2005-06-10 02:00;METAR CYYC 100200Z 05002KT 40SM FEW040 SCT120 BKN250 15/07 A2981 RMK CU1AC1CI2 CU TR SLP108=

CYYC;2005-06-10 03:00;METAR CYYC 100300Z 14002KT 40SM FEW040 SCT120 BKN250 14/07 A2980 RMK CU1AC2CI2 CU TR SLP100=

CYYC;2005-06-10 04:00;METAR CYYC 100400Z 16003KT 30SM BKN096 BKN240 13/08 A2980 RMK AC3CI2 SLP101=

CYYC;2005-06-10 05:00;METAR CYYC 100500Z 19004KT 15SM SCT090 SCT240 11/08 A2980 RMK AC2CI0 SLP101=

CYYC;2005-06-10 06:00;METAR CYYC 100600Z 20005KT 15SM FEW090 10/07 A2979 RMK AC0 SLP099=

CYYC;2005-06-10 07:00;METAR CYYC 100700Z 21005KT 15SM FEW240 09/07 A2978 RMK CI0 SLP097=

CYYC;2005-06-10 08:00;METAR CYYC 100800Z 24004KT 15SM FEW240 08/05 A2978 RMK CI0 SLP095=

CYYC;2005-06-10 09:00;METAR CYYC 100900Z 00000KT 15SM FEW060 SCT120 08/06 A2977 RMK SC1AC2 SLP096=

CYYC;2005-06-10 10:00;METAR CYYC 101000Z 03003KT 15SM OVC100 07/05 A2977 RMK AC6 SLP094=

CYYC;2005-06-10 11:00;METAR CYYC 101100Z 27002KT 15SM BKN120 OVC220 08/06 A2975 RMK AC5CI2 SLP089=

CYYC;2005-06-10 12:00;METAR CYYC 101200Z 27010KT 40SM BKN140 OVC220 10/06 A2974 RMK AC5CI2 SLP080=

CYYC;2005-06-10 13:00;METAR CYYC 101300Z 30006KT 40SM FEW070 BKN100 BKN220 10/06 A2974 RMK AC1AC5CI2 SLP079=

CYYC;2005-06-10 14:00;METAR CYYC 101400Z 28003KT 40SM FEW025 BKN092 12/06 A2974 RMK CU1AC7 SLP079=

CYYC;2005-06-10 15:00;METAR CYYC 101500Z 01006KT 40SM FEW030 BKN100 13/07 A2975 RMK CU1AC4 SLP082=

CYYC;2005-06-10 16:00;METAR CYYC 101600Z 34006KT 40SM FEW032 BKN098 15/07 A2975 RMK CU1AC6 SLP082=

CYYC;2005-06-10 17:00;METAR CYYC 101700Z 32007KT 40SM FEW032 BKN110 16/08 A2975 RMK CU1AC5 SLP082=

CYYC;2005-06-10 18:00;METAR CYYC 101800Z 03007KT 40SM FEW038 SCT120 BKN200 18/08 A2974 RMK CU1AC2CI0 SLP076=

CYYC;2005-06-10 19:00;METAR CYYC 101900Z 03007KT 30SM FEW038 SCT140 BKN200 18/09 A2973 RMK CU2AC1CI0 TCU ASOCTD W SLP073=

CYYC;2005-06-10 20:00;METAR CYYC 102000Z 01004KT 30SM SCT040TCU SCT120 19/08 A2973 RMK TCU3AC1 SH NW SLP072=

CYYC;2005-06-10 20:27;SPECI CYYC 102027Z 32012KT 30SM TS FEW040 BKN050CB BKN120 RMK CU2CB2AC1 SHS SW-NW=

CYYC;2005-06-10 20:42;SPECI CYYC 102042Z 33015KT 20SM -TSRA FEW040 BKN060CB BKN110 RMK CU2CB4AC1=

CYYC;2005-06-10 21:00;METAR CYYC 102100Z 31014G20KT 20SM +TSRA FEW040 BKN063 BKN110 14/10 A2973 RMK CU1SC5AC1 CB EMBD / LTNG S-SW SLP082=

CYYC;2005-06-10 21:41;SPECI CYYC 102141Z 20007KT 20SM TS SCT060CB BKN080 BKN110 RERA RMK CB3AC2AC1 CB SE-S=

CYYC;2005-06-10 21:52;SPECI CYYC 102152Z 21008KT 30SM SCT060CB SCT080 BKN120 RETSRA RMK CB3AC1AC1 SHS SE=

CYYC;2005-06-10 22:00;METAR CYYC 102200Z 23016KT 30SM SCT060CB SCT080 BKN110 BKN240 17/11 A2973 RETSRA RMK CB3AC1AC1CI0 SHS SE SLP080=

CYYC;2005-06-10 23:00;METAR CYYC 102300Z 20013KT 30SM FEW060CB SCT110 BKN220 16/09 A2973 RMK CB2AC1CS0 SLP080=

CYYC;2005-06-11 00:00;METAR CYYC 110000Z 20009KT 30SM FEW040 FEW060CB SCT110 BKN240 17/07 A2972 RMK CU1CB2AC2CI1 CB NE + DSNT SE SLP069=

CYYC;2005-06-11 01:00;METAR CYYC 110100Z 09008KT 30SM FEW030 FEW070 SCT110 BKN220 16/10 A2972 RMK CU2AC1AC2CI2 CB ASOCTD DSNT NE SLP070=

CYYC;2005-06-11 02:00;METAR CYYC 110200Z 09007KT 40SM FEW040 SCT070 OVC120 15/10 A2973 RMK CU2AC2AC2 CB ASOCTD DIST NE SLP072=

CYYC;2005-06-11 03:00;METAR CYYC 110300Z 32005KT 40SM SCT060CB BKN100 OVC140 14/10 A2975 RMK CB3AC3AC1 CB W MOVING N SLP080=

CYYC;2005-06-11 04:00;METAR CYYC 110400Z 31004KT 15SM FEW055CB BKN100 OVC180 13/08 A2976 RMK CB2AC5AC1 SLP085=

CYYC;2005-06-11 04:11;SPECI CYYC 110411Z 10011KT 15SM -SHRA SCT051CB OVC100 RMK CB3AC5=

CYYC;2005-06-11 04:49;SPECI CYYC 110449Z 01003KT 15SM FEW055CB OVC100 RMK CB1AC6=

CYYC;2005-06-11 06:00;METAR CYYC 110600Z 00000KT 15SM FEW072 BKN120 11/09 A2977 RMK AC2AC6 SLP085=

CYYC;2005-06-11 07:00;METAR CYYC 110700Z 25006KT 15SM OVC080 11/08 A2977 RMK AC8 SLP086=

CYYC;2005-06-11 08:00;METAR CYYC 110800Z 30002KT 15SM SCT082 OVC120 11/08 A2977 RMK AC3AC3 SLP084=

CYYC;2005-06-11 09:00;METAR CYYC 110900Z 22006KT 15SM BKN150 OVC220 10/08 A2976 RMK AC5CI1 SLP087=

CYYC;2005-06-11 10:00;METAR CYYC 111000Z 29003KT 15SM FEW090 OVC120 10/08 A2975 RMK AC2AC5 SLP084=

CYYC;2005-06-11 11:00;METAR CYYC 111100Z 34002KT 20SM SCT060 OVC090 10/08 A2974 RMK SC4AC4 SLP083=

CYYC;2005-06-11 12:00;METAR CYYC 111200Z 00000KT 40SM FEW060 OVC100 10/08 A2975 RMK SC2AC6 SLP079=

CYYC;2005-06-11 13:00;METAR CYYC 111300Z 20003KT 40SM -SHRA BKN045 OVC080 11/09 A2975 RMK SC6AC2 PCPN VRY LGT SLP081=

CYYC;2005-06-11 14:00;METAR CYYC 111400Z 23002KT 40SM -SHRA FEW040 BKN049 OVC110 11/09 A2976 RMK SC1SC5AC2 PCPN VRY LGT SLP082=

CYYC;2005-06-11 15:00;METAR CYYC 111500Z 34004KT 40SM -SHRA FEW040 BKN050 BKN110 OVC180 13/09 A2976 RMK SC1SC2AC2AC4 SLP085=

CYYC;2005-06-11 16:00;METAR CYYC 111600Z 36004KT 40SM -SHRA FEW040 BKN050 OVC180 13/09 A2976 RMK SC1SC2AC5 SLP084=

CYYC;2005-06-11 17:00;METAR CYYC 111700Z 36002KT 40SM FEW021 BKN058 OVC180 14/09 A2976 RMK SC2SC4AC1 SLP084=

CYYC;2005-06-11 18:00;METAR CYYC 111800Z 06006KT 20SM FEW022TCU SCT058 BKN240 16/09 A2974 RMK TCU2SC1CI0 SLP079=

CYYC;2005-06-11 19:00;METAR CYYC 111900Z 09007KT 20SM BKN024TCU BKN058 BKN240 15/10 A2973 RMK TCU6SC1CI1 SLP076=

CYYC;2005-06-11 20:00;METAR CYYC 112000Z 26013G18KT 20SM BKN031TCU BKN058 BKN240 14/07 A2973 RMK TCU7SC1CI1 SHS S-NW SLP076=

CYYC;2005-06-11 20:11;SPECI CYYC 112011Z 27012KT 20SM -SHRA BKN031TCU BKN058 RMK TCU7SC1=

CYYC;2005-06-11 20:32;SPECI CYYC 112032Z 29010KT 20SM -SHRA BKN036CB BKN058 RMK CB7SC1 CB N / LTGCG N=

CYYC;2005-06-11 21:00;METAR CYYC 112100Z 26007KT 20SM -SHRA BKN042CB 12/08 A2972 RMK CB7 LTGCG=

CYYC;2005-06-11 21:52;SPECI CYYC 112152Z 35011KT 40SM BKN042CB BKN058 BKN210 RMK CB5SC1CI1 SHS DIST ALQDS / SC TR=

CYYC;2005-06-11 22:00;METAR CYYC 112200Z 36012G17KT 40SM BKN042CB BKN058 BKN210 14/09 A2971 RMK CB5SC1CI1 SHS DIST ALQDS / SC TR SLP073=

CYYC;2005-06-11 23:00;METAR CYYC 112300Z 04004KT 40SM SCT042CB SCT058 BKN220 15/09 A2971 RMK CB2SC1CI1 CB DIST ALQDS SLP075=

CYYC;2005-06-12 00:00;METAR CYYC 120000Z 34004KT 40SM FEW042CB FEW058 BKN220 16/07 A2970 RMK CB2SC1CI1 CB DIST ALQDS / SHS S-NW SLP066=

CYYC;2005-06-12 01:00;METAR CYYC 120100Z 32004KT 40SM FEW042CB FEW076 BKN110 BKN250 15/08 A2970 RMK CB2AC1AC2CI2 CB E+S / SHS SE-W SLP066=

CYYC;2005-06-12 02:00;METAR CYYC 120200Z 33005KT 40SM FEW050TCU SCT075 BKN120 14/08 A2971 RMK TCU1AC3AC2 VIRGA W SLP067=

CYYC;2005-06-12 03:00;METAR CYYC 120300Z 28004KT 40SM FEW050 FEW075 BKN140 BKN240 12/07 A2971 RMK SC1AC2AC1CI1 TCU ASOCTD E SLP068=

CYYC;2005-06-12 04:00;METAR CYYC 120400Z 31004KT 40SM FEW050 SCT080 BKN140 BKN240 11/07 A2972 RMK SC1AC2AC1CI0 TCU ASOCTD E SLP072=

CYYC;2005-06-12 05:00;METAR CYYC 120500Z 34006KT 15SM SCT085 BKN240 10/08 A2973 RMK AC2CI1 SLP074=

CYYC;2005-06-12 06:00;METAR CYYC 120600Z 33008KT 15SM SCT059 BKN088 11/09 A2973 RMK SC3AC2 SLP075=

CYYC;2005-06-12 07:00;METAR CYYC 120700Z 32006KT 15SM BKN091 09/08 A2975 RMK AC5 SLP080=

CYYC;2005-06-12 08:00;METAR CYYC 120800Z 34007KT 15SM FEW070 BKN091 09/08 A2975 RMK AC2AC2 SLP081=

CYYC;2005-06-12 09:00;METAR CYYC 120900Z 33008KT 15SM SCT010 BKN020 BKN080 09/08 A2975 RMK SC3SC2AC1 SLP088=

CYYC;2005-06-12 10:00;METAR CYYC 121000Z 32007KT 15SM FEW090 SCT120 08/08 A2975 RMK AC2AC1 SLP088=

CYYC;2005-06-12 11:00;METAR CYYC 121100Z 32006KT 20SM OVC030 09/08 A2976 RMK SC8 SLP092=

CYYC;2005-06-12 12:00;METAR CYYC 121200Z 33007KT 20SM SCT040 BKN085 09/08 A2977 RMK SC3AC2 SLP091=

CYYC;2005-06-12 13:00;METAR CYYC 121300Z 35009KT 20SM FEW015 OVC035 10/09 A2979 RMK SF1SC6 SLP097=

CYYC;2005-06-12 14:00;METAR CYYC 121400Z 35009KT 20SM FEW015 BKN042 BKN077 11/09 A2981 RMK SC1SC2AC5 SF+AC FLOCCUS ASOCTD SLP102=

CYYC;2005-06-12 14:39;SPECI CYYC 121439Z 36011KT 20SM BKN012 BKN042 BKN077 RMK SC6SC2AC1 AC FLOCCUS ASOCTD=

CYYC;2005-06-12 15:00;METAR CYYC 121500Z 36010KT 20SM BKN011 BKN042 OVC077 11/09 A2982 RMK SC6SC1AC1 SLP110=

CYYC;2005-06-12 16:00;METAR CYYC 121600Z 01010KT 20SM BKN016 BKN049 OVC080 12/09 A2984 RMK SC6SC1AC2 AC FLOCCUS ASOCTD SLP115=

CYYC;2005-06-12 17:00;METAR CYYC 121700Z 01010KT 20SM BKN016 OVC084 13/09 A2984 RMK SC4AC3 SLP116=

CYYC;2005-06-12 18:00;METAR CYYC 121800Z 01010KT 20SM BKN021 OVC084 14/09 A2985 RMK SC6AC2 TCU EMBD SLP120=

CYYC;2005-06-12 19:00;METAR CYYC 121900Z 04013KT 20SM BKN021 BKN084 14/09 A2986 RMK SC6AC1 SHS=

CYYC;2005-06-12 21:00;METAR CYYC 122100Z 36016KT 15SM FEW011 BKN018 OVC040 13/10 A2988 RMK SF1SC6SC2 SHS S-SW / CVCTV CLD EMBD SLP134=

CYYC;2005-06-12 21:21;SPECI CYYC 122121Z 01013G18KT 15SM -SHRA FEW011 BKN018 OVC040 RMK SF1SC6SC2 CVCTV CLD EMBD=

CYYC;2005-06-12 21:35;SPECI CYYC 122135Z 36012G19KT 15SM FEW011 BKN018 OVC040 RMK SF1SC6SC2 SHS S-W / CVCTV CLD EMBD=

CYYC;2005-06-12 22:00;METAR CYYC 122200Z 36015KT 8SM FEW011 BKN019 OVC045 13/09 A2989 RMK SF1SC6SC1 SHS SE-W / CVCTV CLD EMBD SLP135=

CYYC;2005-06-12 22:47;SPECI CYYC 122247Z 35015KT 4SM -SHRA FEW011 BKN019 OVC045 RMK SF1SC7SC1=

CYYC;2005-06-12 23:00;METAR CYYC 122300Z 35011G17KT 5SM -SHRA FEW014 BKN019 OVC037 12/09 A2991 RMK SF1SC6SC2 SLP143=

CYYC;2005-06-13 00:00;METAR CYYC 130000Z 34010KT 15SM -RA FEW019 BKN033 OVC050 11/09 A2993 RMK SC1SC2SC6 PCPN VRY LGT SLP152=

CYYC;2005-06-13 01:00;METAR CYYC 130100Z 36009KT 15SM -RA FEW019 BKN026 BKN049 OVC110 11/09 A2993 RMK SC1SC2SC2AC3 PCPN VRY LGT SLP154=

CYYC;2005-06-13 02:00;METAR CYYC 130200Z 02008KT 15SM -SHRA FEW015 SCT030 OVC060 11/09 A2995 RMK SC1SC3SC4 PCPN VRY LGT SLP158=

CYYC;2005-06-13 03:00;METAR CYYC 130300Z 03010KT 6SM -SHRA FEW015 BKN035 OVC060 10/09 A2997 RMK SC1SC6SC1 SLP165=

CYYC;2005-06-13 04:00;METAR CYYC 130400Z 03010KT 10SM -SHRA FEW015 BKN021 OVC030 10/08 A2997 RMK CU1SC6SC1 SLP165=

CYYC;2005-06-13 05:00;METAR CYYC 130500Z 03007KT 15SM -RA FEW017 OVC024 09/08 A2997 RMK SC1SC7 PCPN VRY LGT SLP165=

CYYC;2005-06-13 05:31;SPECI CYYC 130531Z 02007KT 15SM FEW014 OVC021 RMK SC1SC7=

CYYC;2005-06-13 06:00;METAR CYYC 130600Z 03007KT 15SM FEW014 OVC019 09/08 A2997 RMK SC1SC7 SLP163=

CYYC;2005-06-13 06:09;SPECI CYYC 130609Z 03006KT 15SM -RA FEW012 OVC020 RMK SC1SC7=

CYYC;2005-06-13 06:31;SPECI CYYC 130631Z 03006KT 6SM -RA FEW008 BKN013 OVC020 RMK SC2SC6SC1=

CYYC;2005-06-13 07:00;METAR CYYC 130700Z 36005KT 6SM -RA FEW008 OVC016 09/08 A2997 RMK SC1SC7 SLP164=

CYYC;2005-06-13 08:23;SPECI CYYC 130823Z 35004KT 10SM FEW007 OVC019 RMK SC1SC7=

CYYC;2005-06-13 08:52;SPECI CYYC 130852Z 36003KT 15SM -RA FEW009 OVC020 RMK SC2SC6=

CYYC;2005-06-13 09:00;METAR CYYC 130900Z 36004KT 10SM -RA SCT009 OVC016 09/08 A2996 RMK SC3SC5 SLP163=

CYYC;2005-06-13 10:00;METAR CYYC 131000Z 02006KT 8SM -RA FEW009 OVC018 08/08 A2996 RMK SC1SC7 SLP161=

CYYC;2005-06-13 11:00;METAR CYYC 131100Z 07002KT 5SM -RA FEW008 BKN020 OVC100 08/08 A2996 RMK SC2SC6AC1 SLP162=

CYYC;2005-06-13 12:00;METAR CYYC 131200Z 06004KT 4SM -RA BR FEW007 BKN015 OVC020 08/08 A2996 RMK SC2SC6SC1 SLP163=

CYYC;2005-06-13 12:17;SPECI CYYC 131217Z 08003KT 4SM -RA BR FEW007 BKN012 OVC020 RMK SC2SC6SC1=

CYYC;2005-06-13 13:00;METAR CYYC 131300Z 08002KT 4SM -RA BR BKN010 OVC042 08/08 A2995 RMK SC6SC2 SLP161=

CYYC;2005-06-13 13:22;SPECI CYYC 131322Z 08003KT 3SM -RA BR BKN005 OVC012 RMK SC6SC2=

CYYC;2005-06-13 13:43;SPECI CYYC 131343Z 10004KT 3SM -RA BR BKN004 OVC014 RMK SC5SC3=

CYYC;2005-06-13 14:00;METAR CYYC 131400Z 12003KT 5SM -RA BR BKN004 BKN008 OVC012 08/08 A2994 RMK SC5SC2SC2 SLP157=

CYYC;2005-06-13 14:31;SPECI CYYC 131431Z 16003KT 5SM BR FEW004 BKN006 OVC012 RMK SC2SC3SC2 SH SW=

CYYC;2005-06-13 15:00;METAR CYYC 131500Z 20005KT 6SM BR FEW004 BKN008 OVC020 10/08 A2994 RMK SC1SC4SC2 SLP155=

CYYC;2005-06-13 15:40;SPECI CYYC 131540Z 20005KT 8SM SCT008 BKN019 RMK SC3SC4 CU ASOCTD=

CYYC;2005-06-13 16:00;METAR CYYC 131600Z 20006KT 20SM FEW009 BKN019 11/08 A2993 RMK CU2SC5 SLP153=

CYYC;2005-06-13 17:00;METAR CYYC 131700Z 14006KT 40SM FEW012 BKN017 BKN120 12/10 A2993 RMK CU2SC3AC1 SLP152=

CYYC;2005-06-13 18:00;METAR CYYC 131800Z 18008KT 40SM FEW020 FEW120 SCT250 14/09 A2991 RMK CU1AC1CI0 SLP141=

CYYC;2005-06-13 19:00;METAR CYYC 131900Z 20009KT 40SM FEW030TCU FEW120 SCT250 16/09 A2989 RMK TCU2AC1CI0 SH SW SLP135=

CYYC;2005-06-13 19:47;SPECI CYYC 131947Z 21005KT 40SM -SHRA SCT032TCU BKN072 BKN120 RMK TCU3AC2AC2=

CYYC;2005-06-13 20:00;METAR CYYC 132000Z 20013G19KT 40SM -SHRA SCT030TCU BKN060 BKN120 BKN250 13/06 A2988 RMK TCU4SC2AC1CI0 VIS LWR S SLP134=

CYYC;2005-06-13 20:18;SPECI CYYC 132018Z 10010KT 40SM SCT030TCU BKN056 BKN120 BKN250 RMK TCU3SC2AC1CI0 SH N-SE / WSHFT 2003Z=

CYYC;2005-06-13 21:00;METAR CYYC 132100Z 12010KT 40SM FEW030TCU SCT085 SCT250 15/07 A2986 RMK TCU2AC1CI0 CB ASOCTD N / SH N SLP124=

CYYC;2005-06-13 22:00;METAR CYYC 132200Z 17004KT 40SM FEW050TCU SCT092 SCT250 17/05 A2985 RMK TCU2AC2CI1 CB ASOCTD N / SH N SLP120=

CYYC;2005-06-13 23:55;SPECI CYYC 132355Z 29012G19KT 40SM -SHRA BKN060TCU BKN090 BKN250 RMK TCU6AC1CI1=

CYYC;2005-06-14 00:00;METAR CYYC 140000Z 29013G19KT 40SM -SHRA BKN060TCU BKN090 BKN250 15/04 A2983 RMK TCU6AC1CI1 SLP114=

CYYC;2005-06-14 00:46;SPECI CYYC 140046Z 29014G19KT 40SM BKN060TCU BKN079 BKN250 RMK TCU6AC1CI1 CB ASOCTD / SHS NW-NE=

CYYC;2005-06-14 01:00;METAR CYYC 140100Z 30014KT 40SM BKN062TCU BKN085 BKN250 15/01 A2985 RMK TCU6AC1CI1 CB ASOCTD / SHS N-E SLP118=

CYYC;2005-06-14 02:00;METAR CYYC 140200Z 27023G29KT 40SM FEW054 SCT085 15/02 A2985 RMK SC2AC2 CB ASOCTD NE SLP119=

CYYC;2005-06-14 03:00;METAR CYYC 140300Z 29011G20KT 40SM FEW056TCU SCT090 14/01 A2987 RMK TCU1AC2 CB ASOCTD NE / SHS NW SLP128=

CYYC;2005-06-14 04:00;METAR CYYC 140400Z 35006KT 40SM FEW030 FEW080 09/06 A2990 RMK CU1AC2 CB DSNT NE SLP138=

CYYC;2005-06-14 05:00;METAR CYYC 140500Z 36005KT 15SM FEW030 FEW090 08/06 A2991 RMK SC1AC1 CB DSNT NE SLP141=

CYYC;2005-06-14 07:00;METAR CYYC 140700Z 25003KT 15SM FEW080 SCT240 08/05 A2993 RMK AC1CI0 SLP151=

CYYC;2005-06-14 08:00;METAR CYYC 140800Z 23004KT 15SM FEW090 FEW240 08/02 A2992 RMK AC1CI0 SLP149=

CYYC;2005-06-14 09:00;METAR CYYC 140900Z 06004KT 15SM FEW100 07/00 A2993 RMK AC1 SLP151=

CYYC;2005-06-14 10:00;METAR CYYC 141000Z 18003KT 15SM FEW100 07/M00 A2993 RMK AC1 SLP152=

CYYC;2005-06-14 11:00;METAR CYYC 141100Z 16004KT 40SM FEW030 FEW100 FEW240 06/M01 A2994 RMK CU1AC1CI0 SLP153=

CYYC;2005-06-14 12:00;METAR CYYC 141200Z 28005KT 40SM FEW090 FEW240 07/M01 A2994 RMK AC1CI0 ACC ASOCTD N SLP152=

CYYC;2005-06-14 13:00;METAR CYYC 141300Z 00000KT 40SM FEW070 FEW100 FEW240 09/02 A2994 RMK AC1AC1CI0 ACC ASOCTD N SLP152=

CYYC;2005-06-14 14:00;METAR CYYC 141400Z 27007KT 40SM FEW070 FEW180 FEW240 11/M00 A2994 RMK AC1AC1CI1 ACC ASOCTD N SLP153=

CYYC;2005-06-14 15:00;METAR CYYC 141500Z 23005KT 40SM FEW070 FEW190 FEW260 13/00 A2994 RMK ACC1AC1CI1 ACC N-NE SLP145=

CYYC;2005-06-14 16:00;METAR CYYC 141600Z 02003KT 40SM FEW065 FEW190 FEW260 14/M01 A2994 RMK CU1AC1CI0 SLP145=

CYYC;2005-06-14 17:00;METAR CYYC 141700Z 06003KT 40SM FEW065 FEW250 16/01 A2992 RMK CU1CI0 SLP140=

CYYC;2005-06-14 18:00;METAR CYYC 141800Z 13006KT 40SM FEW070 FEW190 BKN260 16/01 A2990 RMK CU1AC1CI1 SLP139=

CYYC;2005-06-14 19:00;METAR CYYC 141900Z 18007KT 40SM FEW070 FEW190 BKN260 17/02 A2989 RMK CU1AC1CS1 SLP134=

CYYC;2005-06-14 20:00;METAR CYYC 142000Z 18007KT 40SM FEW070 SCT180 BKN250 16/01 A2987 RMK CU1AC3CS4 SLP128=

CYYC;2005-06-14 21:00;METAR CYYC 142100Z 13008KT 40SM FEW070 SCT150 OVC250 16/01 A2986 RMK CU1AS4CS3 VIRGA SLP125=

CYYC;2005-06-14 22:00;METAR CYYC 142200Z 14009G15KT 40SM FEW070 SCT150 OVC250 16/01 A2984 RMK CU1AS4CS4 VIRGA SLP119=

CYYC;2005-06-14 23:00;METAR CYYC 142300Z 13011KT 30SM FEW070 BKN110 BKN150 BKN250 17/03 A2982 RMK CU1AC5AC2CI1 SHS SW-NW / TCU ASOCTD SLP112=

CYYC;2005-06-15 00:00;METAR CYYC 150000Z 15017G24KT 30SM FEW070 SCT120 BKN150 OVC250 17/04 A2981 RMK CU2AC2AC2CI2 SHS SE+W / TCU ASOCTD SLP105=

CYYC;2005-06-15 02:00;METAR CYYC 150200Z 17010G15KT 40SM BKN041 BKN060 14/05 A2978 RMK SC5SC2 SLP096=

CYYC;2005-06-15 03:00;METAR CYYC 150300Z 17012G18KT 30SM FEW050 FEW100 SCT240 12/06 A2976 RMK SC2AC1CI0 SLP086=

CYYC;2005-06-15 04:00;METAR CYYC 150400Z 18008KT 30SM FEW040 FEW080 BKN110 11/06 A2976 RMK SC2AC1AC0 SLP085=

CYYC;2005-06-15 05:00;METAR CYYC 150500Z 19010KT 15SM FEW040 BKN110 BKN240 11/05 A2975 RMK SC2AC1CI0 SLP082=

CYYC;2005-06-15 06:00;METAR CYYC 150600Z 19010KT 15SM FEW060 FEW100 SCT240 11/05 A2974 RMK SC1AC1CI0 SLP077=

CYYC;2005-06-15 07:00;METAR CYYC 150700Z 21007KT 15SM FEW100 FEW240 09/05 A2974 RMK AC1CI0 SLP078=

CYYC;2005-06-15 08:00;METAR CYYC 150800Z 20005KT 15SM FEW080 FEW240 06/05 A2973 RMK AC1CI0 SLP074=

CYYC;2005-06-15 09:00;METAR CYYC 150900Z 24008KT 15SM FEW080 07/06 A2973 RMK AC1 SLP080=

CYYC;2005-06-15 10:00;METAR CYYC 151000Z 23005KT 15SM FEW080 BKN130 07/03 A2974 RMK AC1AC2 SLP082=

CYYC;2005-06-15 11:00;METAR CYYC 151100Z 01006KT 40SM FEW020 FEW080 SCT130 BKN240 06/04 A2975 RMK CU1AC1AC2CI0 SLP086=

CYYC;2005-06-15 12:00;METAR CYYC 151200Z 31005KT 40SM FEW020 FEW060 SCT110 BKN180 06/03 A2977 RMK CU1SC1AC2AC0 SLP095=

CYYC;2005-06-15 13:00;METAR CYYC 151300Z 21008KT 40SM FEW020 FEW060 SCT110 SCT180 07/04 A2978 RMK CU1SC1AC2AC0 SLP098=

CYYC;2005-06-15 14:00;METAR CYYC 151400Z 20004KT 40SM FEW040 FEW120 SCT250 10/05 A2979 RMK SC1AC1CI0 SLP099=

CYYC;2005-06-15 15:00;METAR CYYC 151500Z 22002KT 40SM FEW040 FEW120 SCT250 13/04 A2979 RMK SC1AC2CI0 SLP096=

CYYC;2005-06-15 16:00;METAR CYYC 151600Z 27008KT 40SM FEW040 SCT120 BKN250 15/03 A2979 RMK SC1AC2CI0 SLP098=

CYYC;2005-06-15 17:00;METAR CYYC 151700Z 27008G15KT 40SM FEW060 BKN150 15/02 A2980 RMK SC1AC4 SLP100=

CYYC;2005-06-15 18:00;METAR CYYC 151800Z 28014KT 40SM FEW040 BKN120 BKN240 15/00 A2980 RMK CU2AC4CI1 SLP101=

CYYC;2005-06-15 19:00;METAR CYYC 151900Z 27011KT 40SM FEW040 SCT100 16/M02 A2980 RMK CU2AC2 SLP099=

CYYC;2005-06-15 20:00;METAR CYYC 152000Z 26017KT 40SM FEW040 FEW100 18/M00 A2980 RMK CU2AC1 SLP100=

CYYC;2005-06-15 21:00;METAR CYYC 152100Z 27013G21KT 40SM FEW040 FEW090 18/M02 A2980 RMK CU2AC1 SLP099=

CYYC;2005-06-15 22:00;METAR CYYC 152200Z 26011G17KT 40SM FEW050 FEW090 17/M02 A2983 RMK CU2AC1 SLP109=

CYYC;2005-06-15 23:00;METAR CYYC 152300Z 28014G24KT 40SM FEW070 FEW090 17/M03 A2984 RMK CU2AC1 AC TR SLP113=

CYYC;2005-06-16 00:00;METAR CYYC 160000Z 36012KT 40SM FEW080 16/03 A2987 RMK CU2 TCU ASOCTD E SLP130=

CYYC;2005-06-16 01:00;METAR CYYC 160100Z 36014KT 40SM FEW070 16/02 A2988 RMK CU1 SLP134=

CYYC;2005-06-16 02:00;METAR CYYC 160200Z 02010KT 40SM FEW070 FEW180 14/03 A2991 RMK AC1AC0 SLP143=

CYYC;2005-06-16 03:00;METAR CYYC 160300Z 03007KT 40SM FEW070 FEW180 FEW240 12/04 A2994 RMK AC1AC1CI0 SLP150=

CYYC;2005-06-16 04:00;METAR CYYC 160400Z 04006KT 40SM FEW080 FEW200 SCT250 08/05 A2995 RMK AC1CI1CI0 SLP154=

CYYC;2005-06-16 05:00;METAR CYYC 160500Z 05004KT 15SM FEW080 FEW240 08/04 A2997 RMK AC1CI0 SLP158=

CYYC;2005-06-16 06:00;METAR CYYC 160600Z 06002KT 15SM FEW240 08/04 A2998 RMK CI0 SLP165=

CYYC;2005-06-16 07:00;METAR CYYC 160700Z 31004KT 15SM FEW090 FEW240 08/04 A2998 RMK AC1CI0 SLP165=

CYYC;2005-06-16 08:00;METAR CYYC 160800Z 22002KT 15SM FEW240 07/04 A2998 RMK CI1 SLP167=

CYYC;2005-06-16 09:00;METAR CYYC 160900Z 19002KT 15SM FEW240 06/03 A2999 RMK CI1 SLP168=

CYYC;2005-06-16 10:00;METAR CYYC 161000Z 22003KT 15SM FEW240 06/03 A2999 RMK CI0 SLP169=

CYYC;2005-06-16 11:00;METAR CYYC 161100Z 20004KT 40SM FEW120 FEW240 05/03 A2999 RMK AC1CI0 SLP168=

CYYC;2005-06-16 12:00;METAR CYYC 161200Z 21005KT 40SM FEW160 BKN240 05/03 A3000 RMK AC1CI0 SLP174=

CYYC;2005-06-16 13:00;METAR CYYC 161300Z 21004KT 40SM FEW080 FEW150 BKN250 07/05 A2999 RMK AC1AC1CI0 SLP173=

CYYC;2005-06-16 14:00;METAR CYYC 161400Z 21003KT 40SM FEW190 SCT250 10/04 A2999 RMK AC1CI1 AC TR SLP172=

CYYC;2005-06-16 15:00;METAR CYYC 161500Z 19006KT 40SM SCT150 BKN250 12/05 A2999 RMK AC3CI2 SLP168=

CYYC;2005-06-16 16:00;METAR CYYC 161600Z 14010KT 40SM BKN150 OVC220 13/04 A2999 RMK AC5CI2 SLP167=

CYYC;2005-06-16 17:00;METAR CYYC 161700Z 16011G16KT 40SM BKN140 OVC220 13/05 A2997 RMK AC5CI3 SLP163=

CYYC;2005-06-16 18:00;METAR CYYC 161800Z 15013KT 40SM FEW040 BKN130 OVC220 14/06 A2996 RMK CU1AC6CI2 SLP160=

CYYC;2005-06-16 19:00;METAR CYYC 161900Z 15014KT 40SM FEW090 BKN130 OVC220 15/05 A2994 RMK AC2AC4CI2 SLP155=

CYYC;2005-06-16 20:00;METAR CYYC 162000Z 14013G18KT 40SM FEW040 BKN120 OVC220 16/05 A2992 RMK CU1AC5CI2 SLP150=

CYYC;2005-06-16 21:00;METAR CYYC 162100Z 16013G18KT 40SM FEW040 BKN120 OVC220 18/05 A2990 RMK CU1AC4CI2 ACSL S SLP136=

CYYC;2005-06-16 22:00;METAR CYYC 162200Z 14012G18KT 40SM FEW060 BKN140 OVC240 18/05 A2988 RMK CU1AC4CI2 ACSL E+S SLP132=

CYYC;2005-06-16 23:00;METAR CYYC 162300Z 14014KT 40SM FEW050 SCT140 BKN240 18/06 A2987 RMK CU1AC3CI1 ACSL E+S SLP129=

CYYC;2005-06-17 00:00;METAR CYYC 170000Z 12012G17KT 40SM FEW050 BKN140 BKN240 19/07 A2986 RMK CU1AC4CI1 SLP123=

CYYC;2005-06-17 01:00;METAR CYYC 170100Z 12014KT 40SM FEW060 BKN140 BKN240 18/07 A2984 RMK CU1AC4CI2 SLP118=

CYYC;2005-06-17 02:00;METAR CYYC 170200Z 13011KT 30SM BKN060 BKN140 17/08 A2984 RMK SC6AC1 SLP117=

CYYC;2005-06-17 03:00;METAR CYYC 170300Z 12006KT 30SM SCT060 BKN120 BKN240 16/09 A2985 RMK SC2AC2CI0 SLP113=

CYYC;2005-06-17 04:00;METAR CYYC 170400Z 10008KT 30SM FEW060 BKN130 15/10 A2984 RMK SC2AC5 SLP110=

CYYC;2005-06-17 04:49;SPECI CYYC 170449Z 11006KT 15SM -SHRA BKN051 BKN100 RMK SC6AC1=

CYYC;2005-06-17 05:00;METAR CYYC 170500Z 12008KT 15SM -SHRA BKN042 BKN100 15/09 A2985 RMK SC6AC2 SLP114=

CYYC;2005-06-17 06:00;METAR CYYC 170600Z 13013KT 15SM -SHRA BKN051 13/10 A2985 RMK SC7 SLP116=

CYYC;2005-06-17 09:00;METAR CYYC 170900Z 02002KT 15SM -RA FEW015 OVC071 11/11 A2981 RMK SF2AC6 SLP099=

CYYC;2005-06-17 10:00;METAR CYYC 171000Z 05006KT 10SM -RA FEW010 BKN053 OVC070 11/11 A2981 RMK SC2SC4AC2 SLP098=

CYYC;2005-06-17 10:11;SPECI CYYC 171011Z 06006KT 10SM -RA BKN008 OVC050 RMK SC6SC2=

CYYC;2005-06-17 11:00;METAR CYYC 171100Z 05006KT 8SM -RA BKN007 OVC013 11/10 A2981 RMK SC5SC3 SLP098=

CYYC;2005-06-17 11:20;SPECI CYYC 171120Z 05008KT 6SM BR BKN006 OVC012 RMK SC7SC1=

CYYC;2005-06-17 12:00;METAR CYYC 171200Z 05006KT 8SM BKN006 OVC012 10/10 A2981 RMK SC7SC1 SLP098=

CYYC;2005-06-17 12:23;SPECI CYYC 171223Z 03007KT 6SM BR BKN004 OVC012 RMK SC7SC1 VIS W 3=

CYYC;2005-06-17 12:51;SPECI CYYC 171251Z 04006KT 3SM -RA BR OVC003 RMK SC8=

CYYC;2005-06-17 13:00;METAR CYYC 171300Z 04006KT 2 1/2SM -RA BR OVC004 10/10 A2981 RMK SC8 SLP097=

CYYC;2005-06-17 14:00;METAR CYYC 171400Z 05009KT 4SM -RA BR OVC004 10/10 A2978 RMK SC8 SLP090=

CYYC;2005-06-17 14:13;SPECI CYYC 171413Z 05010KT 3SM -DZ BR BKN003 OVC005 RMK ST5SC3=

CYYC;2005-06-17 14:23;SPECI CYYC 171423Z 06009KT 1 1/2SM -RA BR OVC002 RMK ST8=

CYYC;2005-06-17 15:00;METAR CYYC 171500Z 05007KT 1 3/4SM -DZ BR FEW002 OVC004 11/11 A2978 RMK SF1ST8 SLP091=

CYYC;2005-06-17 15:15;SPECI CYYC 171515Z 04008KT 3SM -DZ BR SCT003 OVC006 RMK ST4SC4=

CYYC;2005-06-17 16:00;METAR CYYC 171600Z 05009KT 5SM -DZ BR SCT003 OVC007 11/11 A2975 RMK ST4SC4 SLP083=

CYYC;2005-06-17 16:51;SPECI CYYC 171651Z 05011KT 6SM -RA BR BKN004 OVC009 RMK SC5SC3=

CYYC;2005-06-17 17:00;METAR CYYC 171700Z 05011KT 6SM -RA BR BKN004 OVC009 11/11 A2974 RMK SC7SC1 PCPN VRY LGT SLP080=

CYYC;2005-06-17 17:35;SPECI CYYC 171735Z 05012G17KT 6SM -DZ BR OVC003 RMK ST8=

CYYC;2005-06-17 18:00;METAR CYYC 171800Z 05014G19KT 5SM -DZ BR OVC003 11/11 A2973 RMK ST8 SLP078=

CYYC;2005-06-17 18:12;SPECI CYYC 171812Z 05016KT 1 1/4SM -DZ BR OVC002 RMK ST8=

CYYC;2005-06-17 19:00;METAR CYYC 171900Z 04017KT 2 1/2SM -DZ BR OVC002 11/11 A2970 RMK ST8 SLP068=

CYYC;2005-06-17 19:26;SPECI CYYC 171926Z 04019G24KT 2 1/2SM -RA BR OVC002 RMK SC8=

CYYC;2005-06-17 20:00;METAR CYYC 172000Z 04019G24KT 2SM -RA BR BKN002 OVC005 12/12 A2965 RMK SC5SC3 SLP054=

CYYC;2005-06-17 20:30;SPECI CYYC 172030Z 05023G28KT 6SM -RA BR SCT003 BKN005 OVC014 RMK SC3SC4SC1=

CYYC;2005-06-17 21:00;METAR CYYC 172100Z 06021G27KT 6SM -RA BR FEW003 BKN005 OVC014 12/11 A2965 RMK SC2SC4SC2 SLP051=

CYYC;2005-06-17 21:46;SPECI CYYC 172146Z 05026G31KT 1 1/2SM RA BR FEW001 BKN005 OVC030 RMK SC2SC4SC2=

CYYC;2005-06-17 22:18;SPECI CYYC 172218Z 05022G27KT 1 1/2SM +RA BR FEW004 BKN006 OVC020 RMK SC2SC6SC1=

CYYC;2005-06-17 22:25;SPECI CYYC 172225Z 05019G26KT 5SM -RA BR FEW004 BKN006 OVC020 RERA RMK SC1SC4SC3=

CYYC;2005-06-17 23:00;METAR CYYC 172300Z 04020G27KT 2 1/4SM -RA BR FEW004 BKN006 OVC020 11/11 A2962 RERA RMK SC1SC4SC3 SLP040=

CYYC;2005-06-17 23:40;SPECI CYYC 172340Z 04019KT 1SM TSRA BR BKN002 OVC008 RMK SC5SC3 CB EMBD / RVR RWY34 6000FT+=

CYYC;2005-06-18 00:12;SPECI CYYC 180012Z 05022G30KT 1 3/4SM -SHRA BR BKN003 OVC005 RETSRA RMK SC5SC3 CB EMBD=

CYYC;2005-06-18 00:51;SPECI CYYC 180051Z 05021G26KT 3/4SM +SHRA BR BKN003 OVC005 RETS RMK SC5SC3 RVR RWY34 6000FT=

CYYC;2005-06-18 01:00;METAR CYYC 180100Z 05018G26KT 1SM SHRA BR BKN003 OVC008 11/11 A2961 RETS RMK SC5SC3 RVR RWY34 6000+FT SLP039=

CYYC;2005-06-18 01:14;SPECI CYYC 180114Z 05020G26KT 3SM SHRA BR BKN003 OVC011 RMK SC5SC3=

CYYC;2005-06-18 02:00;METAR CYYC 180200Z 05025G32KT 4SM SHRA BR BKN004 OVC008 11/11 A2956 RMK SC6SC2 SLP023=

CYYC;2005-06-18 04:00;METAR CYYC 180400Z 05020G25KT 4SM BR OVC002 11/11 A2962 RMK ST8 SLP042=

CYYC;2005-06-18 05:00;METAR CYYC 180500Z 04019KT 6SM -RA BR OVC002 10/10 A2960 RERA RMK ST8 SLP037=

CYYC;2005-06-18 05:44;SPECI CYYC 180544Z 04016KT 1 1/2SM -RA BR OVC002 RMK FG3ST5=

CYYC;2005-06-18 06:00;METAR CYYC 180600Z 04017KT 1 1/2SM -RA BR OVC002 11/11 A2959 RMK FG2ST6 SLP032=

CYYC;2005-06-18 07:00;METAR CYYC 180700Z 05015KT 1SM -RA BR OVC002 11/11 A2959 RMK FG3ST5 RVR RWY34 5000 FT SLP032=

CYYC;2005-06-18 08:00;METAR CYYC 180800Z 06009KT 1 1/2SM -RA BR OVC002 11/11 A2960 RMK FG3ST5 SLP034=

CYYC;2005-06-18 09:27;SPECI CYYC 180927Z 28009KT 6SM RA BR BKN010 OVC020 RMK SC5SC3=

CYYC;2005-06-18 11:00;METAR CYYC 181100Z 28007KT 8SM -RA BKN016 OVC030 08/07 A2961 RERA RMK SC6SC2 SLP040=

CYYC;2005-06-18 12:00;METAR CYYC 181200Z 29008G18KT 20SM -RA FEW009 OVC060 08/06 A2961 RMK SC1SC7 SLP042=

CYYC;2005-06-18 13:00;METAR CYYC 181300Z 26013G18KT 40SM -RA FEW030 BKN060 OVC068 08/06 A2960 RMK SC1SC4AC2 SLP041=

CYYC;2005-06-18 13:47;SPECI CYYC 181347Z 27013G19KT 40SM -RA BKN014 BKN060 RMK SC6SC1=

CYYC;2005-06-18 14:00;METAR CYYC 181400Z 28012G17KT 40SM -RA BKN013 BKN060 BKN100 09/07 A2961 RMK SC5SC2AC1 SLP043=

CYYC;2005-06-18 14:42;SPECI CYYC 181442Z 27016KT 30SM BKN015 BKN060 BKN100 RMK SC6SC1AC1=

CYYC;2005-06-18 15:00;METAR CYYC 181500Z 27010G17KT 30SM SCT015 BKN028 OVC100 09/06 A2961 RMK SC4SC2AC1 SLP040=

CYYC;2005-06-18 15:20;SPECI CYYC 181520Z 28013KT 40SM -RA SCT015 BKN028 OVC043 RMK SC4SC2SC1=

CYYC;2005-06-18 16:00;METAR CYYC 181600Z 27013KT 40SM -RA FEW015 BKN035 BKN050 OVC210 09/07 A2962 RMK SC2SC2SC2CI0 SLP043=

CYYC;2005-06-18 17:43;SPECI CYYC 181743Z 25022G27KT 5SM -SHRA BKN012 BKN022 OVC047 RMK SC5SC2SC1 TCU ASOCTD=

CYYC;2005-06-18 18:00;METAR CYYC 181800Z 25018G25KT 6SM -SHRA BKN013 BKN022 OVC047 08/07 A2961 RMK SC6SC2SC1 SLP042=

CYYC;2005-06-18 18:39;SPECI CYYC 181839Z 25022G30KT 3SM SHRA BKN008 OVC022 RMK SC6SC2=

CYYC;2005-06-18 18:51;SPECI CYYC 181851Z 27026G33KT 1 3/4SM +SHRA BKN009 OVC020 RMK SC6SC2=

CYYC;2005-06-18 19:41;SPECI CYYC 181941Z 28025G35KT 3SM SHRA BKN013 BKN022 OVC050 RMK SC5SC2SC1=

CYYC;2005-06-18 20:37;SPECI CYYC 182037Z 27025G30KT 5SM -SHRA FEW012 BKN018 OVC023 RERA RMK SC1SC5SC3=

CYYC;2005-06-18 21:00;METAR CYYC 182100Z 28024G31KT 5SM -SHRA BR FEW012 BKN021 OVC034 08/07 A2968 RERA RMK SC1SC5SC3 SLP071=

CYYC;2005-06-18 23:00;METAR CYYC 182300Z 29023G28KT 7SM -RA FEW013 BKN023 OVC039 09/07 A2974 RMK SC1SC6SC2 SLP089=

CYYC;2005-06-19 00:00;METAR CYYC 190000Z 29017G28KT 10SM -RA FEW013 BKN030 OVC041 08/06 A2977 RMK SC1SC5SC2 SLP103=

CYYC;2005-06-19 01:00;METAR CYYC 190100Z 31017G24KT 15SM -RA FEW015 BKN032 OVC045 08/06 A2980 RMK SC1SC5SC2 SLP113=

CYYC;2005-06-19 02:00;METAR CYYC 190200Z 31016G21KT 40SM -RA BKN025 OVC050 09/06 A2982 RMK SC6SC2 SLP119=

CYYC;2005-06-19 04:00;METAR CYYC 190400Z 32011KT 40SM BKN031 OVC050 08/05 A2985 RMK SC6SC2 SLP130=

CYYC;2005-06-19 06:00;METAR CYYC 190600Z 32007KT 15SM FEW060 SCT140 06/05 A2987 RMK SC1AC1 SLP139=

CYYC;2005-06-19 07:00;METAR CYYC 190700Z 30004KT 15SM FEW140 FEW250 05/04 A2988 RMK AC1CI0 SLP142=

CYYC;2005-06-19 08:00;METAR CYYC 190800Z 23005KT 15SM FEW080 FEW250 05/04 A2988 RMK AC1CI0 SLP143=

CYYC;2005-06-19 09:00;METAR CYYC 190900Z 28004KT 15SM FEW080 FEW250 05/04 A2986 RMK AC1CI0 SLP139=

CYYC;2005-06-19 10:00;METAR CYYC 191000Z 23004KT 15SM BKN081 05/05 A2987 RMK AC3 SLP143=

CYYC;2005-06-19 11:00;METAR CYYC 191100Z 21004KT 40SM FEW070 BKN095 05/05 A2987 RMK AC1AC4 SLP143=

CYYC;2005-06-19 12:00;METAR CYYC 191200Z 22003KT 40SM FEW070 BKN100 05/04 A2988 RMK AC1AC5 SLP144=

CYYC;2005-06-19 13:00;METAR CYYC 191300Z 00000KT 40SM FEW070 SCT130 07/06 A2989 RMK AC1AC2 SLP148=

CYYC;2005-06-19 14:00;METAR CYYC 191400Z 23003KT 40SM FEW030 SCT100 BKN130 BKN180 09/06 A2991 RMK CU1AC3AC3AC1 SLP153=

CYYC;2005-06-19 15:00;METAR CYYC 191500Z 24005KT 40SM FEW030 FEW090 BKN130 BKN230 10/07 A2991 RMK CU1AC1AC4CI0 SLP149=

CYYC;2005-06-19 16:00;METAR CYYC 191600Z 21007KT 40SM FEW035 FEW110 BKN230 BKN260 12/06 A2992 RMK CU1AC2CI1CC1 SLP151=

CYYC;2005-06-19 17:00;METAR CYYC 191700Z 20008KT 40SM FEW040 FEW110 BKN250 14/08 A2992 RMK CU1AC1CI1 CC ASOCTD SLP152=

CYYC;2005-06-19 18:00;METAR CYYC 191800Z 22008KT 40SM FEW040 FEW130 SCT260 16/09 A2992 RMK CU1AC1CI1 SLP146=

CYYC;2005-06-19 19:00;METAR CYYC 191900Z 26011KT 40SM SCT053 SCT180 SCT260 19/08 A2992 RMK CU3AC1CI0 SLP145=

CYYC;2005-06-19 21:00;METAR CYYC 192100Z 28012G18KT 40SM FEW062 FEW260 20/03 A2994 RMK CU2CI1 SLP149=

CYYC;2005-06-19 22:00;METAR CYYC 192200Z 29010KT 40SM FEW065 20/04 A2995 RMK CU1 SLP152=

CYYC;2005-06-19 23:00;METAR CYYC 192300Z 27012KT 40SM FEW065 21/05 A2996 RMK CU1 SLP156=

CYYC;2005-06-20 00:00;METAR CYYC 200000Z 27013KT 40SM FEW065 FEW160 FEW270 21/04 A2997 RMK CU1AC1CI1 SLP159=

CYYC;2005-06-20 04:00;METAR CYYC 200400Z 27012KT 40SM FEW070 FEW250 16/05 A3003 RMK AC1CI0 SLP176=

CYYC;2005-06-20 05:00;METAR CYYC 200500Z 27011KT 15SM FEW080 FEW250 14/04 A3004 RMK AC1CI0 AC TR SLP180=

CYYC;2005-06-20 06:00;METAR CYYC 200600Z 19002KT 15SM FEW080 FEW250 12/04 A3006 RMK AC1CI0 AC TR SLP187=

CYYC;2005-06-20 07:00;METAR CYYC 200700Z 24002KT 15SM FEW080 FEW250 13/04 A3006 RMK AC1CI0 AC TR SLP187=

CYYC;2005-06-20 09:00;METAR CYYC 200900Z 28006KT 15SM FEW090 FEW250 12/04 A3006 RMK AC1CI0 SLP181=

CYYC;2005-06-20 10:00;METAR CYYC 201000Z 00000KT 15SM FEW090 FEW250 10/04 A3006 RMK AC1CI0 SLP182=

CYYC;2005-06-20 11:00;METAR CYYC 201100Z 01003KT 40SM FEW090 FEW250 09/04 A3006 RMK AC1CI0 AC SLP183=

CYYC;2005-06-20 12:00;METAR CYYC 201200Z 32005KT 40SM FEW090 FEW270 08/05 A3007 RMK AC1CI0 AC TR SLP191=

CYYC;2005-06-20 13:00;METAR CYYC 201300Z 36005KT 40SM FEW090 FEW270 11/06 A3009 RMK AC1CI0 AC TR SLP195=

CYYC;2005-06-20 14:00;METAR CYYC 201400Z 36009KT 40SM FEW030 FEW180 FEW250 13/06 A3011 RMK CU1AC1CI1 SLP201=

CYYC;2005-06-20 15:00;METAR CYYC 201500Z 02006KT 40SM FEW150 FEW250 13/07 A3011 RMK AC1CI1 SLP202=

CYYC;2005-06-20 16:00;METAR CYYC 201600Z 03005KT 40SM FEW150 FEW250 14/10 A3013 RMK AC1CI1 SLP207=

CYYC;2005-06-20 17:00;METAR CYYC 201700Z 03007KT 40SM FEW030 FEW150 FEW250 16/11 A3014 RMK CU1AC1CI1 SLP209=

CYYC;2005-06-20 18:00;METAR CYYC 201800Z 07004KT 40SM FEW030 FEW150 FEW250 17/11 A3015 RMK CU1AC1CI1 SLP217=

CYYC;2005-06-20 19:00;METAR CYYC 201900Z 03007KT 40SM FEW030 FEW140 FEW250 17/11 A3015 RMK CU1AC1CI1 SLP216=

CYYC;2005-06-20 20:00;METAR CYYC 202000Z 03006KT 40SM FEW030 FEW140 FEW250 18/12 A3014 RMK CU1AC1CI1 SLP215=

CYYC;2005-06-20 21:00;METAR CYYC 202100Z 06006KT 40SM FEW032 FEW160 18/11 A3013 RMK CU1AC1 SLP210=

CYYC;2005-06-20 22:00;METAR CYYC 202200Z 09006KT 40SM FEW035 FEW240 19/10 A3012 RMK CU1CI1 SLP206=

CYYC;2005-06-21 00:00;METAR CYYC 210000Z 09004KT 40SM FEW044 FEW160 FEW240 20/09 A3010 RMK CU1AC1CI1 SLP203=

CYYC;2005-06-21 01:00;METAR CYYC 210100Z 10005KT 40SM FEW048 FEW140 FEW240 21/09 A3010 RMK CU1AC1CI1 SLP203=

CYYC;2005-06-21 02:00;METAR CYYC 210200Z 13006KT 40SM FEW050 FEW140 FEW250 20/10 A3010 RMK CU1AC1CI1 ALL CLDS TR SLP201=

CYYC;2005-06-21 03:00;METAR CYYC 210300Z 13006KT 40SM FEW050 FEW140 FEW250 18/09 A3010 RMK CU1AC1CI1 ALL CLDS TR SLP197=

CYYC;2005-06-21 04:00;METAR CYYC 210400Z 14005KT 40SM FEW050 FEW140 17/09 A3011 RMK CU1AC1 ALL CLDS TR SLP201=

CYYC;2005-06-21 05:00;METAR CYYC 210500Z 18002KT 15SM FEW140 16/09 A3013 RMK AC1 AC TR SLP205=

CYYC;2005-06-21 06:00;METAR CYYC 210600Z 14003KT 15SM FEW140 15/09 A3013 RMK AC1 AC TR SLP208=

CYYC;2005-06-21 07:00;METAR CYYC 210700Z 14002KT 15SM FEW250 14/09 A3013 RMK CI0 SLP206=

CYYC;2005-06-21 08:00;METAR CYYC 210800Z 12003KT 15SM FEW250 12/09 A3011 RMK CI1 CI TR SLP201=

CYYC;2005-06-21 09:00;METAR CYYC 210900Z 21003KT 15SM FEW250 13/08 A3011 RMK CI1 CU TR SLP198=

CYYC;2005-06-21 10:00;METAR CYYC 211000Z 19005KT 20SM FEW120 11/08 A3011 RMK AC1 AC TR SLP198=

CYYC;2005-06-21 12:00;METAR CYYC 211200Z 00000KT 40SM SKC 12/08 A3009 RMK SLP191=

CYYC;2005-06-21 13:00;METAR CYYC 211300Z 29002KT 40SM SKC 13/10 A3009 RMK SLP191=

CYYC;2005-06-21 14:00;METAR CYYC 211400Z 00000KT 40SM SKC 15/11 A3008 RMK SLP190=

CYYC;2005-06-21 15:00;METAR CYYC 211500Z 23002KT 40SM FEW140 17/11 A3007 RMK AC1 SLP181=

CYYC;2005-06-21 16:00;METAR CYYC 211600Z 19005KT 40SM FEW140 19/12 A3006 RMK AC1 SLP178=

CYYC;2005-06-21 17:00;METAR CYYC 211700Z 20004KT 40SM FEW140 21/11 A3004 RMK AC1 SLP171=

CYYC;2005-06-21 18:00;METAR CYYC 211800Z 06002KT 40SM FEW140 24/09 A3002 RMK AC1 SLP158=

CYYC;2005-06-21 19:00;METAR CYYC 211900Z 13005KT 40SM FEW065 FEW140 FEW220 25/09 A2999 RMK SC1AC1CI1 SLP150=

CYYC;2005-06-21 22:00;METAR CYYC 212200Z 13011KT 40SM FEW065 FEW140 FEW230 26/12 A2993 RMK SC1AC1CI1 SLP126=

CYYC;2005-06-21 23:00;METAR CYYC 212300Z 14014KT 40SM FEW050TCU FEW140 FEW230 27/13 A2990 RMK TCU1AC1CI0 TCU DIST S SLP118=

CYYC;2005-06-22 00:00;METAR CYYC 220000Z 14012G17KT 40SM FEW050CB FEW140 FEW230 27/11 A2987 RMK CB1AC1CI0 CB DIST SE-S SLP105=

CYYC;2005-06-22 01:00;METAR CYYC 220100Z 15010KT 40SM FEW050CB FEW130 SCT250 27/13 A2984 RMK CB1AC1CI0 CB E-S / AC TR SLP095=

CYYC;2005-06-22 02:00;METAR CYYC 220200Z 14008KT 40SM FEW050CB FEW130 SCT250 26/15 A2982 RMK CB1AC1CI0 CB E-S SLP090=

CYYC;2005-06-22 03:00;METAR CYYC 220300Z 13011G20KT 20SM FEW040CB BKN130 BKN240 24/16 A2981 RMK CB2AC2CI0 CB E MOVING S/ SHS DIST S-W SLP081=

CYYC;2005-06-22 04:00;METAR CYYC 220400Z 13008KT 20SM TS FEW040CB BKN120 BKN240 22/17 A2978 RMK CB2AC2CI1 LTGIC W SLP071=

CYYC;2005-06-22 05:00;METAR CYYC 220500Z 14003KT 15SM TS FEW062CB SCT120 BKN240 21/16 A2977 RMK CB2AC1CI1 LTGIC E+W SLP069=

CYYC;2005-06-22 05:45;SPECI CYYC 220545Z 17007KT 15SM FEW062CB FEW140 SCT240 RETS RMK CB1AC1CI0=

CYYC;2005-06-22 06:00;METAR CYYC 220600Z 17008KT 15SM FEW065CB FEW140 SCT240 19/14 A2976 RETS RMK CB1AC1CI0 SLP061=

CYYC;2005-06-22 09:00;METAR CYYC 220900Z 20012G18KT 15SM FEW070CB SCT140 18/12 A2971 RMK CB2AC1 LTGIC E SLP045=

CYYC;2005-06-22 12:00;METAR CYYC 221200Z 00000KT 40SM FEW050CB 13/12 A2973 RMK CB1 SLP054=

CYYC;2005-06-22 13:00;METAR CYYC 221300Z 29002KT 40SM FEW040 16/14 A2973 RMK CU1 CU TR SLP054=

CYYC;2005-06-22 14:00;METAR CYYC 221400Z 20003KT 40SM FEW040 FEW085 18/15 A2972 RMK CU1AC1 SLP052=

CYYC;2005-06-22 15:00;METAR CYYC 221500Z 27004KT 40SM FEW040 FEW085 21/14 A2972 RMK SC1AC1 SLP044=

CYYC;2005-06-22 16:00;METAR CYYC 221600Z 25008KT 40SM FEW080 24/10 A2971 RMK AC1 SLP043=

CYYC;2005-06-22 17:00;METAR CYYC 221700Z 27006KT 40SM FEW080 25/06 A2971 RMK AC1 SLP041=

CYYC;2005-06-22 18:00;METAR CYYC 221800Z 32011G17KT 40SM FEW080 25/04 A2970 RMK AC1 SLP040=

CYYC;2005-06-22 19:00;METAR CYYC 221900Z 30010G18KT 40SM FEW085 26/04 A2970 RMK CU1 SLP039=

CYYC;2005-06-22 20:00;METAR CYYC 222000Z 28009G16KT 40SM FEW090 FEW140 26/04 A2969 RMK AC1AC1 SLP037=

CYYC;2005-06-22 21:00;METAR CYYC 222100Z 25010G18KT 40SM FEW090 FEW140 27/05 A2968 RMK AC1AC1 CVCTV CLD DVLPING N / LWR AC TR SLP034=

CYYC;2005-06-22 22:00;METAR CYYC 222200Z 24017KT 40SM FEW100 27/02 A2966 RMK AC1 SLP028=

CYYC;2005-06-22 23:00;METAR CYYC 222300Z 23009G15KT 30SM FEW100 27/03 A2965 RMK AC2 SLP025=

CYYC;2005-06-23 00:00;METAR CYYC 230000Z 28010G15KT 30SM BKN100 25/02 A2965 RMK AC6 SLP031=

CYYC;2005-06-23 00:54;SPECI CYYC 230054Z 33018KT 30SM -SHRA FEW010 BKN090 20/ RMK CF1AC6 PCPN VRY LGT=

CYYC;2005-06-23 02:00;METAR CYYC 230200Z 31011KT 20SM VCSH FEW025 BKN080 BKN120 18/14 A2973 RMK CU1AC4AC2 SHS ALQDS SLP055=

CYYC;2005-06-23 03:00;METAR CYYC 230300Z 27015G29KT 20SM VCSH FEW030 SCT050CB BKN080 18/04 A2972 RMK SC2CB2AC2 SHS DIST N SLP055=

CYYC;2005-06-23 05:00;METAR CYYC 230500Z 36014G21KT 15SM SCT040 BKN090 12/08 A2983 RMK SC3AC2 SLP086=

CYYC;2005-06-23 06:00;METAR CYYC 230600Z 35013KT 15SM FEW050 BKN090 11/08 A2985 RMK SC2AC5 SLP101=

CYYC;2005-06-23 07:00;METAR CYYC 230700Z 35013KT 15SM FEW050 BKN090 11/08 A2983 RMK SC2AC3 SLP097=

CYYC;2005-06-23 08:00;METAR CYYC 230800Z 36012G18KT 15SM FEW050 BKN090 10/07 A2985 RMK SC2AC3 SLP101=

CYYC;2005-06-23 09:00;METAR CYYC 230900Z 34012KT 15SM SCT050 BKN090 09/07 A2985 RMK SC3AC2 SLP102=

CYYC;2005-06-23 11:00;METAR CYYC 231100Z 33011KT 20SM SCT040 BKN090 07/05 A2988 RMK SC3AC2 SLP112=

CYYC;2005-06-23 12:00;METAR CYYC 231200Z 33010KT 40SM FEW040 SCT090 06/05 A2990 RMK SC2AC2 SLP129=

CYYC;2005-06-23 13:00;METAR CYYC 231300Z 34013KT 40SM FEW040 SCT095 07/05 A2993 RMK SC2AC1 SLP137=

CYYC;2005-06-23 14:00;METAR CYYC 231400Z 33015G20KT 20SM FEW012 FEW040 SCT095 07/04 A2994 RMK SC1SC1AC1 SH NW-NE SLP141=

CYYC;2005-06-23 15:00;METAR CYYC 231500Z 33015KT 20SM FEW014 FEW035 BKN090 10/05 A2995 RMK CF1SC1AC2 VIRGA N SLP149=

CYYC;2005-06-23 16:00;METAR CYYC 231600Z 30009KT 40SM FEW018 FEW035 FEW090 11/05 A2996 RMK CF1SC1AC1 SLP151=

CYYC;2005-06-23 18:00;METAR CYYC 231800Z 31006KT 40SM FEW025 BKN030TCU BKN040 BKN090 14/04 A2993 RMK CF1TCU3SC1AC1 CB NW / SH NW SLP146=

CYYC;2005-06-23 20:00;METAR CYYC 232000Z 27017G22KT 40SM FEW030CB BKN035 BKN090 17/00 A2993 RMK CB2SC2AC1 CB NW-SE / SH NW-SE / TCU+CU ASOCTD / AC TR SLP145=

CYYC;2005-06-23 22:00;METAR CYYC 232200Z 03003KT 40SM FEW035CB FEW050 FEW090 15/06 A2996 RMK CB1SC2AC1 CB N+E / TCU ASOCTD / SHS N-SE SLP159=

CYYC;2005-06-23 23:00;METAR CYYC 232300Z 03008KT 40SM FEW035CB SCT090 14/05 A2996 RMK CB1AC3 CB DIST NW-NE SLP160=

CYYC;2005-06-24 00:00;METAR CYYC 240000Z 05006KT 40SM FEW040 FEW090 16/06 A2996 RMK CU1AC1 TCU=

CYYC;2005-06-24 01:00;METAR CYYC 240100Z 12002KT 40SM FEW040 FEW090 16/05 A2997 RMK CU2AC1 TCU ASOCTD N SLP163=

CYYC;2005-06-24 03:00;METAR CYYC 240300Z 13005KT 30SM FEW050 SCT080 13/06 A2999 RMK CU1AC2 TCU ASOCTD E / VIRGA NE SLP169=

CYYC;2005-06-24 04:00;METAR CYYC 240400Z 14003KT 40SM SCT040TCU BKN070 12/06 A3000 RMK TCU2AC2 VIRGA NE SLP174=

CYYC;2005-06-24 05:00;METAR CYYC 240500Z 03008KT 15SM SCT040TCU BKN070 10/06 A3004 RMK TCU3AC2 CB + LTNG DSNT E SLP186=

CYYC;2005-06-24 06:00;METAR CYYC 240600Z 05003KT 15SM FEW040 FEW090 FEW240 08/06 A3005 RMK SC1AC2CI1 TR SC / CI SLP190=

CYYC;2005-06-24 09:00;METAR CYYC 240900Z 22003KT 15SM FEW090 FEW200 07/03 A3006 RMK AC1CI0 SLP198=

CYYC;2005-06-24 10:00;METAR CYYC 241000Z 22003KT 15SM FEW090 SCT200 06/04 A3006 RMK AC1CI0 SLP199=

CYYC;2005-06-24 11:00;METAR CYYC 241100Z 21007KT 40SM FEW080 FEW200 05/03 A3006 RMK AC1CI0 SLP198=

CYYC;2005-06-24 12:00;METAR CYYC 241200Z 21004KT 40SM SCT100 BKN240 06/04 A3006 RMK AC2CI1 SLP196=

CYYC;2005-06-24 13:00;METAR CYYC 241300Z 22005KT 40SM FEW100 SCT240 09/06 A3006 RMK AC1CI1 SLP195=

CYYC;2005-06-24 14:00;METAR CYYC 241400Z 20006KT 40SM FEW120 SCT210 BKN250 11/06 A3006 RMK AC0CI1CI0 SLP196=

CYYC;2005-06-24 16:00;METAR CYYC 241600Z 16010KT 40SM FEW030 FEW140 BKN210 BKN250 14/06 A3005 RMK CU1AC1CI1CI0 CU+AC TR SLP187=

CYYC;2005-06-24 17:00;METAR CYYC 241700Z 15008G15KT 40SM FEW030 FEW160 BKN210 BKN250 14/06 A3004 RMK CU1AC1CI1CI0 CU+AC TR SLP183=

CYYC;2005-06-24 18:00;METAR CYYC 241800Z 15014KT 40SM FEW034 FEW150 BKN250 15/07 A3002 RMK CU1AC1CS2 SLP180=

CYYC;2005-06-24 19:00;METAR CYYC 241900Z 16015KT 40SM FEW034 FEW140 BKN220 15/05 A3000 RMK CU1AC1CS6 SLP174=

CYYC;2005-06-24 20:00;METAR CYYC 242000Z 14011KT 40SM FEW034 BKN120 BKN220 15/07 A2999 RMK CU1AC2CS6 SLP171=

CYYC;2005-06-24 21:00;METAR CYYC 242100Z 15012G17KT 40SM FEW040 SCT120 BKN210 16/06 A2998 RMK CU1AC2CS6 SLP166=

CYYC;2005-06-24 22:00;METAR CYYC 242200Z 15013KT 30SM FEW050 SCT120 BKN210 17/06 A2997 RMK CU1AC2CI6 SLP163=

CYYC;2005-06-24 23:00;METAR CYYC 242300Z 16009G16KT 30SM FEW050 SCT110 OVC210 17/07 A2996 RMK CU1AC2CI5 SHS DIST SW SLP160=

CYYC;2005-06-25 00:00;METAR CYYC 250000Z 19013KT 30SM FEW050 BKN080 OVC210 16/07 A2995 RMK CU1AC3CI3 TCU EMBD S / SHS S-SW SLP157=

CYYC;2005-06-25 01:00;METAR CYYC 250100Z 17013KT 30SM -SHRA FEW050 BKN070 BKN210 14/07 A2994 RMK SC1AC5CI2 TCU EMBD E-S SLP154=

CYYC;2005-06-25 01:10;SPECI CYYC 250110Z 15015KT 30SM VCSH FEW050 BKN070 BKN200 14/ RMK SC1AC4CI1 CB E-S=

CYYC;2005-06-25 02:00;METAR CYYC 250200Z 14011KT 30SM FEW050 SCT070 BKN200 14/09 A2992 RMK SC2AC2CI0 CB + SHS E SLP149=

CYYC;2005-06-25 03:00;METAR CYYC 250300Z 12007KT 30SM FEW050 FEW090 13/09 A2991 RMK SC2AC1 CB DSNT NE SLP140=

CYYC;2005-06-25 04:00;METAR CYYC 250400Z 15004KT 40SM FEW060 FEW100 11/08 A2992 RMK SC1AC1 SLP141=

CYYC;2005-06-25 05:00;METAR CYYC 250500Z 17005KT 15SM FEW100 FEW240 10/08 A2992 RMK AC1CI1 SLP141=

CYYC;2005-06-25 06:00;METAR CYYC 250600Z 16004KT 15SM FEW100 10/08 A2989 RMK AC1 SLP133=

CYYC;2005-06-25 07:00;METAR CYYC 250700Z 19004KT 15SM FEW240 10/07 A2988 RMK CI0 SLP130=

CYYC;2005-06-25 08:00;METAR CYYC 250800Z 10004KT 15SM FEW140 07/06 A2987 RMK AC1 SLP125=

CYYC;2005-06-25 10:00;METAR CYYC 251000Z 12005KT 15SM FEW120 BKN240 07/07 A2985 RMK AC2CI1 SLP120=

CYYC;2005-06-25 11:00;METAR CYYC 251100Z 17004KT 7SM VCFG FEW020 SCT140 BKN240 07/07 A2982 RMK SC1AC3CI1 SLP110=

CYYC;2005-06-25 12:00;METAR CYYC 251200Z 14002KT 10SM VCFG BKN120 BKN240 08/08 A2983 RMK AC6CI1 SLP114=

CYYC;2005-06-25 12:38;SPECI CYYC 251238Z 00000KT 7SM VCFG FEW007 BKN110 BKN240 08/ RMK SC1AC7CI1=

CYYC;2005-06-25 13:00;METAR CYYC 251300Z 00000KT 10SM VCFG FEW012 BKN100 BKN240 09/08 A2983 RMK SC1AC7CI1 SLP114=

CYYC;2005-06-25 14:00;METAR CYYC 251400Z 00000KT 20SM -SHRA FEW040 BKN070 OVC240 10/09 A2984 RMK SC2AC5CI2 SLP117=

CYYC;2005-06-25 14:48;SPECI CYYC 251448Z 00000KT 20SM FEW045 SCT080 BKN120 BKN240 RMK SC1AC3AC2CI2=

CYYC;2005-06-25 15:00;METAR CYYC 251500Z 00000KT 30SM FEW045 BKN078 BKN120 11/09 A2983 RMK SC1AC6AC1 SLP114=

CYYC;2005-06-25 16:00;METAR CYYC 251600Z 33006KT 30SM FEW047 BKN080 OVC120 12/09 A2983 RMK SC2AC3AC2 SLP112=

CYYC;2005-06-25 17:00;METAR CYYC 251700Z 34008KT 30SM FEW017 SCT040 OVC080 13/09 A2983 RMK SC2SC2AC4 SLP113=

CYYC;2005-06-25 18:00;METAR CYYC 251800Z 35010KT 40SM BKN020 OVC090 12/09 A2983 RMK SC5AC3 SLP114=

CYYC;2005-06-25 19:00;METAR CYYC 251900Z 01010KT 40SM VCSH FEW020 BKN061 OVC090 13/09 A2983 RMK SC2SC4AC2 SHS ALQDS SLP114=

CYYC;2005-06-25 20:00;METAR CYYC 252000Z 02006KT 40SM FEW020 SCT050 BKN090 15/10 A2982 RMK SC2SC2AC2 SLP110=

CYYC;2005-06-25 21:00;METAR CYYC 252100Z 01009KT 40SM FEW030 SCT050 BKN080 15/10 A2981 RMK CU1SC2AC2 SLP109=

CYYC;2005-06-25 22:00;METAR CYYC 252200Z 33012KT 30SM FEW030 SCT050 BKN080 14/09 A2982 RMK CU2SC2AC3 SLP110=

CYYC;2005-06-26 00:00;METAR CYYC 260000Z 33012KT 30SM FEW035 SCT050 BKN085 14/08 A2982 RMK CU2SC2AC2 SLP112=

CYYC;2005-06-26 01:00;METAR CYYC 260100Z 35018KT 30SM FEW040 SCT050 BKN090 14/08 A2983 RMK CU2SC2AC2 SLP115=

CYYC;2005-06-26 02:00;METAR CYYC 260200Z 34020G25KT 30SM FEW040 SCT080 11/06 A2985 RMK CU1AC2 CB ASOCTD DSNT NW / SHS SW SLP122=

CYYC;2005-06-26 03:00;METAR CYYC 260300Z 33015G20KT 40SM FEW040 SCT090 BKN220 11/06 A2987 RMK CU1AC2CI0 CB ASOCTD DSNT NW SLP129=

CYYC;2005-06-26 03:25;SPECI CYYC 260325Z 33016G21KT 40SM -SHRA FEW040 SCT060 BKN100 BKN220 10/ RMK CU1SC2AC2CI0 CVCTV CLD EMBD=

CYYC;2005-06-26 04:00;METAR CYYC 260400Z 32012G17KT 30SM -SHRA FEW040 BKN057 OVC100 10/08 A2989 RMK SC1SC5AC2 CVCTV CLD EMBD SLP136=

CYYC;2005-06-26 04:27;SPECI CYYC 260427Z 32010G15KT 30SM FEW040 SCT060 BKN100 OVC220 10/ RMK SC1SC3AC2CI0=

CYYC;2005-06-26 05:00;METAR CYYC 260500Z 32013KT 15SM FEW050 SCT070 SCT240 09/07 A2990 RMK SC1AC2CI0 SLP138=

CYYC;2005-06-26 06:00;METAR CYYC 260600Z 31012KT 15SM FEW080 FEW110 SCT240 09/07 A2990 RMK AC2AC1CI0 SLP141=

CYYC;2005-06-26 08:00;METAR CYYC 260800Z 33014KT 15SM SCT056 BKN090 10/08 A2992 RMK SC3AC2 SLP147=

CYYC;2005-06-26 10:00;METAR CYYC 261000Z 32008KT 15SM BKN058 BKN090 09/07 A2993 RMK SC6AC1 SLP148=

CYYC;2005-06-26 11:00;METAR CYYC 261100Z 34012KT 15SM BKN054 BKN080 10/08 A2993 RMK SC6AC1 SLP148=

CYYC;2005-06-26 13:00;METAR CYYC 261300Z 35010KT 20SM FEW010 FEW050 SCT080 BKN240 10/08 A2995 RMK SF0SC2AC1CI0 SLP154=

CYYC;2005-06-26 14:00;METAR CYYC 261400Z 36008KT 20SM FEW010 SCT070 BKN110 11/09 A2996 RMK SC2AC2AC2 SLP158=

CYYC;2005-06-26 15:00;METAR CYYC 261500Z 32005KT 20SM BKN015 OVC065 11/09 A2998 RMK SC6SC2 SLP166=

CYYC;2005-06-26 16:00;METAR CYYC 261600Z 34005KT 20SM FEW018 OVC035 12/08 A2997 RMK SC2SC6 SLP165=

CYYC;2005-06-26 17:00;METAR CYYC 261700Z 04003KT 20SM FEW018 FEW030TCU OVC040 13/09 A2997 RMK SF1TCU1SC6 SLP164=

CYYC;2005-06-26 18:00;METAR CYYC 261800Z 02004KT 20SM FEW030TCU BKN042 OVC080 14/08 A2997 RMK TCU2SC4AC2 SLP161=

CYYC;2005-06-26 19:00;METAR CYYC 261900Z 05008KT 20SM VCSH FEW030TCU BKN051 OVC080 13/09 A2996 RMK TCU2SC6AC1 SHS ALQDS SLP160=

CYYC;2005-06-26 19:17;SPECI CYYC 261917Z 07007KT 20SM -SHRA FEW030TCU BKN051 OVC069 RMK TCU2SC6AC1=

CYYC;2005-06-26 20:00;METAR CYYC 262000Z 07005KT 20SM FEW040TCU SCT060 OVC084 13/10 A2995 RMK TCU2SC2AC5 SLP157=

CYYC;2005-06-26 21:00;METAR CYYC 262100Z 06004KT 20SM FEW040 SCT060 BKN084 15/09 A2995 RMK CU2SC2AC4 SLP153=

CYYC;2005-06-26 22:00;METAR CYYC 262200Z 08006KT 20SM FEW040 FEW065 BKN090 16/08 A2994 RMK CU1SC2AC4 SLP151=

CYYC;2005-06-26 23:00;METAR CYYC 262300Z 13009KT 20SM FEW040 SCT060 BKN075 16/09 A2994 RMK CU1SC2AC4 SLP151=

CYYC;2005-06-27 00:00;METAR CYYC 270000Z 11009KT 20SM FEW040 SCT065 BKN090 17/09 A2993 RMK CU2SC1AC1 SLP144=

CYYC;2005-06-27 01:00;METAR CYYC 270100Z 10010KT 20SM SCT050 BKN090 15/07 A2993 RMK CU2AC1 VIRGA SW-NW SLP144=

CYYC;2005-06-27 02:00;METAR CYYC 270200Z 10009KT 20SM FEW050 SCT090 15/07 A2993 RMK CU1AC2 SHS W SLP144=

CYYC;2005-06-27 03:00;METAR CYYC 270300Z 12008KT 20SM FEW040TCU SCT080 BKN120 14/09 A2994 RMK TCU1AC2AC2 SHS SW-W SLP148=

CYYC;2005-06-27 04:00;METAR CYYC 270400Z 12007KT 15SM SCT057 BKN083 BKN110 13/08 A2996 RMK SC3AC2AC1 SHS SW SLP155=

CYYC;2005-06-27 05:00;METAR CYYC 270500Z 14006KT 15SM -SHRA BKN060 BKN100 13/09 A2996 RMK SC5AC2 CVCTV CLD EMBD SLP154=

CYYC;2005-06-27 06:00;METAR CYYC 270600Z 14009KT 15SM -SHRA BKN058 OVC080 13/08 A2996 RMK SC6AC2 SLP155=

CYYC;2005-06-27 07:00;METAR CYYC 270700Z 16006KT 15SM -SHRA BKN038 BKN060 OVC100 12/10 A2997 RMK SC5SC2AC2 SLP156=

CYYC;2005-06-27 07:36;SPECI CYYC 270736Z 22005KT 15SM FEW038 SCT088 BKN110 12/ RMK SC2AC2AC3=

CYYC;2005-06-27 08:00;METAR CYYC 270800Z 00000KT 15SM FEW040 BKN090 BKN120 12/10 A2996 RMK SC2AC3AC2 SLP155=

CYYC;2005-06-27 08:41;SPECI CYYC 270841Z 10003KT 15SM -SHRA FEW030 BKN057 OVC090 11/ RMK SC1SC6AC2=

CYYC;2005-06-27 09:27;SPECI CYYC 270927Z 12004KT 15SM FEW032 SCT060 BKN090 11/ RMK SC2SC2AC3=

CYYC;2005-06-27 10:00;METAR CYYC 271000Z 12004KT 15SM VCSH SCT045 BKN090 11/10 A2996 RMK SC3AC3 SLP154=

CYYC;2005-06-27 11:00;METAR CYYC 271100Z 14004KT 20SM VCSH FEW025 BKN040 OVC090 11/10 A2997 RMK SC1SC4AC2 SLP157=

CYYC;2005-06-27 12:00;METAR CYYC 271200Z 12006KT 20SM FEW035 SCT060 BKN090 OVC240 10/08 A2998 RMK CU1SC2AC2CI0 SLP160=

CYYC;2005-06-27 13:00;METAR CYYC 271300Z 15008KT 30SM FEW034 BKN060 BKN090 11/09 A2999 RMK SC1SC5AC2 VIRGA NE SLP163=

CYYC;2005-06-27 13:19;SPECI CYYC 271319Z 14008KT 30SM -RA FEW034 BKN047 OVC090 11/ RMK SC1SC5AC2=

CYYC;2005-06-27 14:00;METAR CYYC 271400Z 14007KT 20SM -SHRA FEW012 BKN047 OVC090 11/10 A2999 RMK SC1SC6AC2 PCPN VRY LGT SLP163=

CYYC;2005-06-27 14:19;SPECI CYYC 271419Z 13008KT 20SM FEW009 SCT045 OVC090 11/ RMK SC1SC2AC5=

CYYC;2005-06-27 15:00;METAR CYYC 271500Z 13009KT 20SM SCT009 BKN047 OVC090 12/10 A2999 RMK SC1SC4AC2 SLP166=

CYYC;2005-06-27 16:00;METAR CYYC 271600Z 12010KT 20SM BKN009 BKN052 OVC090 13/11 A2999 RMK SC2SC2AC4 SLP165=

CYYC;2005-06-27 17:00;METAR CYYC 271700Z 11014KT 20SM SCT017 SCT085 BKN250 14/10 A3000 RMK SC2AC1CI0 CVCTV CLD DVLPING SLP167=

CYYC;2005-06-27 18:00;METAR CYYC 271800Z 13010KT 20SM BKN021 BKN130 BKN250 15/10 A2999 RMK SC4AC2CI1 SLP163=

CYYC;2005-06-27 19:00;METAR CYYC 271900Z 13008G15KT 20SM BKN024 BKN120 BKN250 16/11 A2999 RMK SC3AC2CI1 SLP161=

CYYC;2005-06-27 20:00;METAR CYYC 272000Z 14010KT 20SM SCT029 BKN120 OVC220 16/09 A2998 RMK CU3AC0CS3 SLP159=

CYYC;2005-06-27 21:00;METAR CYYC 272100Z 12009KT 20SM FEW029 FEW120 OVC220 16/09 A2998 RMK CU2AC1CS5 SLP159=

CYYC;2005-06-27 22:00;METAR CYYC 272200Z 12011KT 20SM FEW030 FEW140 OVC200 16/09 A2997 RMK CU2AC1CI6 SLP157=

CYYC;2005-06-27 23:00;METAR CYYC 272300Z 09011KT 20SM FEW025 BKN040 OVC200 16/10 A2996 RMK CU1SC4CI4 SLP154=

CYYC;2005-06-28 00:00;METAR CYYC 280000Z 11015KT 15SM FEW025 BKN030 BKN065 OVC200 16/10 A2994 RMK CU1SC5SC2CI2 CU TR / SHS DIST SW SLP149=

CYYC;2005-06-28 00:21;SPECI CYYC 280021Z 13015G20KT 15SM -SHRA FEW025 BKN030 BKN045 BKN080 OVC200 15/ RMK CU1SC5SC2AC1CI1 CU TR=

CYYC;2005-06-28 00:31;SPECI CYYC 280031Z 14016G24KT 5SM -SHRA SCT007 BKN030 BKN080 OVC200 13/ RMK SC2SC3AC2CI1=

CYYC;2005-06-28 02:00;METAR CYYC 280200Z 14008KT 30SM FEW009 FEW040 OVC072 13/12 A2996 RMK SC1SC2AC6 SH SW SLP154=

CYYC;2005-06-28 02:40;SPECI CYYC 280240Z 13004KT 10SM -SHRA FEW009 FEW048 OVC071 RMK SF1SC2AC6=

CYYC;2005-06-28 03:00;METAR CYYC 280300Z 12005KT 20SM FEW009 SCT050 OVC071 13/12 A2996 RMK SF1SC3AC5 VIRGA ALQDS SLP157=

CYYC;2005-06-28 04:00;METAR CYYC 280400Z 06004KT 20SM FEW007 BKN052 OVC070 13/11 A2996 RMK SF1SC5AC3 SLP157=

CYYC;2005-06-28 05:00;METAR CYYC 280500Z 06004KT 15SM FEW007 BKN034 OVC052 13/11 A2995 RMK SF1SC5SC3 SLP155=

CYYC;2005-06-28 05:38;SPECI CYYC 280538Z 08007KT 8SM -RA FEW007 OVC041 RMK SF1SC8=

CYYC;2005-06-28 06:00;METAR CYYC 280600Z 10011G20KT 6SM -RA FEW007 OVC041 12/10 A2998 RMK SC1SC7 SLP159=

CYYC;2005-06-28 07:00;METAR CYYC 280700Z 07007KT 5SM -RA FEW007 OVC033 11/10 A2996 RMK SC1SC7 SLP155=

CYYC;2005-06-28 08:00;METAR CYYC 280800Z 04008KT 5SM -RA FEW007 FEW020 OVC030 10/10 A2994 RMK SC1SC2SC6 SLP149=

CYYC;2005-06-28 11:00;METAR CYYC 281100Z 04007KT 4SM RA FEW009 BKN016 OVC023 10/10 A2991 RMK SC1SC6SC2 /R11/ SLP139=

CYYC;2005-06-28 12:00;METAR CYYC 281200Z 03010KT 4SM -RA BR FEW009 OVC016 10/10 A2991 RERA RMK SC1SC8 SLP138=

CYYC;2005-06-28 12:41;SPECI CYYC 281241Z 04010KT 6SM -RA FEW006 OVC014 RMK SC2SC6=

CYYC;2005-06-28 13:00;METAR CYYC 281300Z 05010KT 4SM -RA SCT005 OVC014 10/10 A2991 RMK SC3SC5 SLP138=

CYYC;2005-06-28 14:00;METAR CYYC 281400Z 04010KT 4SM -RA BKN005 OVC026 10/10 A2992 RMK SC4SC4 SLP139=

CYYC;2005-06-28 14:16;SPECI CYYC 281416Z 04009KT 4SM -RA BKN005 BKN014 OVC028 10/ RMK SC3SC3SC2=

CYYC;2005-06-28 15:00;METAR CYYC 281500Z 04009KT 5SM -RA BKN005 BKN012 OVC028 10/10 A2994 RMK SC4SC3SC1 SLP152=

CYYC;2005-06-28 15:47;SPECI CYYC 281547Z 05009KT 5SM -RA BKN007 OVC015 10/ RMK SC5SC3=

CYYC;2005-06-28 16:00;METAR CYYC 281600Z 04010KT 5SM -RA BKN007 OVC015 10/10 A2995 RMK SC5SC3 SLP155=

CYYC;2005-06-28 17:00;METAR CYYC 281700Z 03011KT 5SM -RA BKN007 OVC025 10/10 A2996 RMK SC5SC3 SLP159=

CYYC;2005-06-28 17:23;SPECI CYYC 281723Z 04011KT 5SM -RA BKN007 OVC021 10/ RMK SC4SC4=

CYYC;2005-06-28 18:00;METAR CYYC 281800Z 02010KT 6SM -RA SCT007 SCT014 OVC029 10/09 A2997 RMK SC2SC1SC6 SLP163=

CYYC;2005-06-28 19:00;METAR CYYC 281900Z 02010KT 7SM -RA SCT009 BKN029 OVC054 10/09 A2997 RMK SC3SC3SC2 SLP164=

CYYC;2005-06-28 20:00;METAR CYYC 282000Z 36012KT 7SM -RA BKN008 BKN024 OVC054 10/09 A2998 RMK SC3SC4SC1 SLP166=

CYYC;2005-06-28 21:00;METAR CYYC 282100Z 01009KT 7SM -RA FEW008 FEW024 OVC050 10/10 A2998 RMK SC1SC1SC6 SLP169=

CYYC;2005-06-28 22:00;METAR CYYC 282200Z 36010KT 8SM -RA FEW009 FEW042 OVC054 11/10 A2998 RMK SC0SC1SC7 SLP170=

CYYC;2005-06-28 23:00;METAR CYYC 282300Z 36011KT 8SM -RA FEW010 FEW044 OVC054 11/10 A2999 RMK SC1SC1SC7 SLP173=

CYYC;2005-06-29 00:00;METAR CYYC 290000Z 35009KT 7SM -RA FEW010 BKN034 OVC050 11/10 A3000 RMK SC1SC3SC5 SLP175=

CYYC;2005-06-29 01:00;METAR CYYC 290100Z 34005KT 7SM -RA FEW010 BKN037 OVC048 10/09 A3000 RMK SC1SC5SC3 SLP176=

CYYC;2005-06-29 02:00;METAR CYYC 290200Z 34006KT 7SM -RA FEW010 BKN016 OVC037 11/09 A3001 RMK SC1SC5SC3 SLP177=

CYYC;2005-06-29 03:00;METAR CYYC 290300Z 36005KT 7SM -RA FEW008 BKN016 BKN037 OVC055 10/09 A3002 RMK SC1SC5SC2SC1 SLP182=

CYYC;2005-06-29 03:42;SPECI CYYC 290342Z 31002KT 12SM FEW008 FEW016 SCT033 OVC052 RMK SC1SC2SC2SC4 VIRGA ALQDS=

CYYC;2005-06-29 04:00;METAR CYYC 290400Z 30003KT 10SM FEW016 FEW033 BKN052 11/10 A3002 RMK SC1SC2SC6 SLP182=

CYYC;2005-06-29 05:00;METAR CYYC 290500Z 33007KT 15SM FEW016 FEW052 BKN086 11/09 A3002 RMK SC1SC2AC5 SLP183=

CYYC;2005-06-29 06:00;METAR CYYC 290600Z 33007KT 15SM FEW020 SCT085 BKN120 10/09 A3002 RMK SC1AC4AC2 SLP185=

CYYC;2005-06-29 07:00;METAR CYYC 290700Z 32006KT 15SM FEW090 BKN120 OVC170 09/09 A3002 RMK AC1AC5AC2 SLP184=

CYYC;2005-06-29 10:00;METAR CYYC 291000Z 33007KT 15SM FEW090 FEW140 FEW170 08/07 A3001 RMK AC1AC2AC1 SLP182=

CYYC;2005-06-29 11:00;METAR CYYC 291100Z 34006KT 30SM FEW140 06/06 A3002 RMK AC1 SLP183=

CYYC;2005-06-29 12:00;METAR CYYC 291200Z 32007KT 30SM FEW090 FEW140 07/06 A3002 RMK AC1AC1 SLP187=

CYYC;2005-06-29 13:00;METAR CYYC 291300Z 32006KT 30SM FEW140 FEW230 09/08 A3003 RMK AC1CI1 SLP190=

CYYC;2005-06-29 14:00;METAR CYYC 291400Z 31006KT 40SM FEW080 FEW140 FEW230 12/09 A3004 RMK AC1AC1CI1 SLP192=

CYYC;2005-06-29 15:00;METAR CYYC 291500Z 34006KT 40SM FEW020 FEW080 FEW140 FEW230 13/09 A3005 RMK SC1AC1AC1CI0 SLP190=

CYYC;2005-06-29 16:00;METAR CYYC 291600Z 03006KT 30SM FEW025 FEW080 FEW230 15/10 A3005 RMK CU1AC1CI1 AC+CI TR SLP190=

CYYC;2005-06-29 17:00;METAR CYYC 291700Z 01007KT 20SM FEW025 FEW230 15/09 A3005 RMK CU1CI1 CI TR SLP190=

CYYC;2005-06-29 19:00;METAR CYYC 291900Z 33006KT 30SM FEW032 17/11 A3005 RMK CU2 SLP186=

CYYC;2005-06-30 19:55;SPECI CYYC 301955Z 15006KT 30SM SCT040 SCT096 BKN210 RMK CU4AC1CI0 SH NW /TCU ASOCTD=

CYYC;2005-07-01 01:00;METAR CYYC 010100Z 25010KT 30SM FEW060TCU FEW100 BKN230 22/09 A2983 RMK TCU2AC1CS2 CB DIST N+NE+SW SLP100=

CYYC;2005-07-01 03:00;METAR CYYC 010300Z 23009KT 30SM FEW060 SCT140 OVC240 19/07 A2981 RMK SC1AC2CI2 CB DIST NNE SLP092=

CYYC;2005-07-01 04:00;METAR CYYC 010400Z 33009KT 30SM FEW060 SCT140 OVC240 17/10 A2983 RMK SC1AC2CI2 SLP097=

CYYC;2005-07-01 05:00;METAR CYYC 010500Z 33013G18KT 15SM FEW060 SCT120 OVC240 16/11 A2987 RMK SC1AC2CI2 CB+LTGIC DIST NE-E SLP110=

CYYC;2005-07-01 06:00;METAR CYYC 010600Z 33007KT 15SM FEW060CB FEW120 SCT250 13/10 A2987 RMK CB1AC1CI1 CB+LTGIC NE/ CB TR SLP115=

CYYC;2005-07-01 08:00;METAR CYYC 010800Z 33006KT 15SM SCT092 BKN250 13/10 A2988 RMK AC3CI1 SLP118=

CYYC;2005-07-01 09:00;METAR CYYC 010900Z 25008KT 12SM -RA BKN064 OVC080 13/11 A2990 RMK SC6AC2 SLP119=

CYYC;2005-07-01 10:00;METAR CYYC 011000Z 32002KT 12SM -RA BKN074 OVC100 13/10 A2988 RMK AC6AC2 SLP115=

CYYC;2005-07-01 11:00;METAR CYYC 011100Z 20008KT 40SM -RA OVC071 12/11 A2985 RMK AC8 SLP106=

CYYC;2005-07-01 11:06;SPECI CYYC 011106Z 20008KT 40SM BKN080 OVC150 RMK AC5AC3=

CYYC;2005-07-01 12:00;METAR CYYC 011200Z 24007KT 40SM SCT080 BKN150 12/11 A2985 RMK AC3AC2 SLP105=

CYYC;2005-07-01 13:00;METAR CYYC 011300Z 22007KT 40SM FEW070 BKN100 14/11 A2984 RMK AC2AC2 SLP100=

CYYC;2005-07-01 14:00;METAR CYYC 011400Z 23006KT 40SM FEW090 FEW230 15/11 A2982 RMK AC1CI1 SLP096=

CYYC;2005-07-01 15:00;METAR CYYC 011500Z 28004KT 40SM FEW090 FEW230 18/11 A2982 RMK AC1CI1 SLP089=

CYYC;2005-07-01 16:00;METAR CYYC 011600Z 30009KT 40SM FEW050 FEW090 FEW230 20/09 A2980 RMK CU1AC1CI1 SLP085=

CYYC;2005-07-01 17:00;METAR CYYC 011700Z 29010G15KT 40SM FEW052 FEW090 FEW230 20/08 A2980 RMK CU1AC1CI1 CU+CI TR / TCU ASOCTD SW+DIST NW SLP084=

CYYC;2005-07-01 18:00;METAR CYYC 011800Z 28012KT 40SM FEW056 FEW075 SCT230 20/06 A2979 RMK CU1AC2CI0 TCU ASOCTD SLP085=

CYYC;2005-07-01 18:29;SPECI CYYC 011829Z 28007KT 40SM FC FEW056 FEW075 SCT230 RMK CU1AC2CI0 FUNNEL CLOUD 5 MILES SE / TCU ASOCTD=

CYYC;2005-07-01 18:33;SPECI CYYC 011833Z 27006KT 40SM FEW056 FEW075 SCT230 RMK CU1AC2CI0 TCU ASOCTD=

CYYC;2005-07-01 19:00;METAR CYYC 011900Z 27010KT 40SM FEW063TCU FEW080 BKN230 22/05 A2979 RMK TCU2AC1CI0 CU+CB ASOCTD / CB NW-E / SHS E-S SLP084=

CYYC;2005-07-01 20:00;METAR CYYC 012000Z 04010KT 40SM FEW050 FEW065TCU FEW080 SCT230 20/11 A2978 RMK CU1TCU2AC1CI0 CB ASOCTD NW+SE / SHS E-SE SLP081=

CYYC;2005-07-01 21:00;METAR CYYC 012100Z 05004KT 40SM FEW050 FEW060CB SCT085 SCT230 21/11 A2977 RMK CU1CB1AC2CI1 CB NW-N+E-SE / SHS N+E-SE SLP077=

CYYC;2005-07-01 22:00;METAR CYYC 012200Z 04006KT 40SM FEW050 FEW060CB SCT086 SCT230 22/12 A2976 RMK CU1CB1AC2CI1 CU TR / CB NE+SE+NW / SHS N+SE SLP074=

CYYC;2005-07-01 23:00;METAR CYYC 012300Z 07007KT 40SM FEW060TCU SCT080 SCT230 21/10 A2975 RMK TCU1AC2CI0 TCU NE / SHS NE SLP071=

CYYC;2005-07-02 01:00;METAR CYYC 020100Z 04012KT 40SM FEW065TCU FEW110 BKN250 19/10 A2975 RMK TCU1AC1CI2 CF ASOCTD SLP073=

CYYC;2005-07-02 02:00;METAR CYYC 020200Z 03013KT 40SM FEW065 BKN120 BKN250 18/11 A2976 RMK CU1AC2CI1 SLP077=

CYYC;2005-07-02 03:00;METAR CYYC 020300Z 03009KT 40SM FEW065 SCT120 BKN250 16/11 A2978 RMK CU1AC2CI2 SLP082=

CYYC;2005-07-02 04:00;METAR CYYC 020400Z 03006KT 40SM FEW065 FEW070CB BKN120 BKN250 14/11 A2981 RMK SC2CB1AC2CI1 CB NE SLP090=

CYYC;2005-07-02 05:00;METAR CYYC 020500Z 36006KT 15SM FEW065 FEW120 SCT250 14/11 A2981 RMK SC1AC2CI0 VIRGA W SLP090=

CYYC;2005-07-02 06:00;METAR CYYC 020600Z 33004KT 15SM FEW110 FEW240 13/10 A2980 RMK AC2CI0 SLP091=

CYYC;2005-07-02 07:00;METAR CYYC 020700Z 32004KT 15SM FEW110 FEW250 12/09 A2980 RMK AC1CI1 SLP090=

CYYC;2005-07-02 08:00;METAR CYYC 020800Z 22005KT 15SM SCT110 12/09 A2979 RMK AC2 SLP086=

CYYC;2005-07-02 09:00;METAR CYYC 020900Z 36004KT 15SM BKN095 12/09 A2979 RMK AC4 SLP085=

CYYC;2005-07-02 10:00;METAR CYYC 021000Z 02003KT 15SM FEW062 SCT110 BKN170 10/09 A2977 RMK SC1AC2AC2 SLP079=

CYYC;2005-07-02 11:00;METAR CYYC 021100Z 05003KT 20SM BKN042 BKN070 OVC170 10/09 A2976 RMK SC5AC2AC1 SLP078=

CYYC;2005-07-02 12:00;METAR CYYC 021200Z 00000KT 20SM BKN056 BKN070 OVC170 11/10 A2976 RMK SC5AC2AC1 VIRGA S SLP080=

CYYC;2005-07-02 13:00;METAR CYYC 021300Z 12007KT 20SM FEW060 BKN085 OVC140 12/10 A2974 RMK SC2AC6AC1 SH DIST E SLP074=

CYYC;2005-07-02 13:16;SPECI CYYC 021316Z 13008KT 20SM -SHRA FEW060CB BKN085 OVC140 RMK CB2AC4AC1 LTGCG W=

CYYC;2005-07-02 15:00;METAR CYYC 021500Z 18011KT 40SM -SHRA SCT048 BKN069 OVC140 13/10 A2975 RETS RMK SC2AC4AC2 PCPN VRY LGT SLP076=

CYYC;2005-07-02 15:11;SPECI CYYC 021511Z 20009KT 40SM SCT048 BKN069 OVC140 RMK SC2AC4AC2 SHS NE-SW=

CYYC;2005-07-02 16:00;METAR CYYC 021600Z 21005KT 40SM FEW045TCU FEW069 OVC120 14/09 A2976 RMK TCU1AC2AC6 TCU NW-NE SLP079=

CYYC;2005-07-02 17:00;METAR CYYC 021700Z 18007KT 40SM FEW035TCU BKN080 BKN120 13/09 A2977 RMK TCU1AC5AC2 TCU W-NE SLP082=

CYYC;2005-07-02 19:21;SPECI CYYC 021921Z 02008G17KT 20SM FEW020 SCT050 BKN080 BKN120 RMK CF1SC3AC4AC1 CVCTV CLDS EMBD / SHS ALQDS=

CYYC;2005-07-02 20:35;SPECI CYYC 022035Z 35009KT 20SM FEW016 FEW050 BKN086 BKN120 BKN200 RMK CU1SC2AC5AC1CI1 CVCTV CLD EMBD SE / TCU SW+W / SHS SE=

CYYC;2005-07-02 21:00;METAR CYYC 022100Z 36011KT 20SM FEW016 FEW050 SCT086 BKN120 BKN200 13/09 A2979 RMK CU1SC1AC3AC3CI1 CVCTV CLD EMBD SE / CB SW / SHS SE SLP098=

CYYC;2005-07-02 23:00;METAR CYYC 022300Z 35011KT 20SM FEW016 FEW060TCU FEW085 BKN110 BKN220 17/09 A2980 RMK CU1TCU2AC1AC2CI0 SHS SW+NW SLP099=

CYYC;2005-07-02 23:35;SPECI CYYC 022335Z 33016G24KT 20SM -SHRA FEW016 SCT050TCU SCT085 BKN110 BKN220 RMK CU1TCU3AC1AC2CI0=

CYYC;2005-07-02 23:52;SPECI CYYC 022352Z 33013G18KT 20SM FEW016 SCT050TCU SCT085 BKN110 BKN220 RMK CU1TCU3AC1AC2CI0 SHS ALQDS=

CYYC;2005-07-03 00:00;METAR CYYC 030000Z 34014KT 30SM FEW016 SCT045TCU SCT080 BKN110 BKN220 16/09 A2981 RMK CU1TCU3AC1AC2CI0 SHS ALQDS SLP102=

CYYC;2005-07-03 01:00;METAR CYYC 030100Z 30009KT 40SM FEW040CB FEW080 BKN130 BKN220 14/07 A2981 RMK CB1AC1AC4CI0 AC TR / SHS SE+SW SLP101=

CYYC;2005-07-03 02:00;METAR CYYC 030200Z 30007KT 40SM FEW040TCU FEW080 BKN130 BKN240 14/06 A2981 RMK TCU1AC2AC2CI1 SLP101=

CYYC;2005-07-03 04:00;METAR CYYC 030400Z 27011KT 40SM FEW070 FEW140 SCT240 12/07 A2982 RMK AC1AC1CI1 SLP105=

CYYC;2005-07-03 05:00;METAR CYYC 030500Z 28008KT 15SM FEW120 FEW240 11/05 A2983 RMK AC1CI1 AC+CI TR SLP107=

CYYC;2005-07-03 06:00;METAR CYYC 030600Z 30007KT 15SM FEW120 FEW240 11/05 A2984 RMK AC1CI1 SLP112=

CYYC;2005-07-03 07:00;METAR CYYC 030700Z 28011G16KT 15SM FEW120 FEW240 12/04 A2983 RMK AC1CI0 SLP109=

CYYC;2005-07-03 09:00;METAR CYYC 030900Z 31009G15KT 15SM FEW180 SCT240 11/03 A2987 RMK AC1CI2 SLP126=

CYYC;2005-07-03 10:00;METAR CYYC 031000Z 29013KT 15SM FEW070 SCT180 BKN230 13/01 A2987 RMK AC1AC1CI1 SLP128=

CYYC;2005-07-03 11:00;METAR CYYC 031100Z 30011G16KT 40SM FEW070 SCT140 12/01 A2989 RMK AC1AC1 SLP133=

CYYC;2005-07-03 12:00;METAR CYYC 031200Z 30010KT 40SM FEW097 11/02 A2990 RMK AC1 SLP133=

CYYC;2005-07-03 13:00;METAR CYYC 031300Z 34009KT 40SM FEW120 FEW250 11/04 A2992 RMK AC1CI1 AC+CI TR SLP138=

CYYC;2005-07-03 14:00;METAR CYYC 031400Z 33009KT 40SM FEW080 FEW140 FEW250 14/05 A2993 RMK AC1AC1CI0 SLP143=

CYYC;2005-07-03 15:00;METAR CYYC 031500Z 32011KT 40SM FEW080 FEW260 15/04 A2995 RMK AC1CI1 SLP147=

CYYC;2005-07-03 16:00;METAR CYYC 031600Z 01009KT 40SM FEW045 FEW080 FEW260 16/05 A2995 RMK CU1AC1CI0 SLP148=

CYYC;2005-07-03 17:00;METAR CYYC 031700Z 27008KT 40SM FEW052 FEW260 18/04 A2995 RMK CU1CI0 SLP149=

CYYC;2005-07-03 18:00;METAR CYYC 031800Z 07006KT 40SM FEW090 FEW260 17/07 A2995 RMK AC1CI0 SLP148=

CYYC;2005-07-03 19:00;METAR CYYC 031900Z 12007KT 40SM FEW095 FEW260 18/06 A2995 RMK AC2CI1 SLP149=

CYYC;2005-07-03 20:00;METAR CYYC 032000Z 18007KT 40SM FEW045 FEW090 FEW260 19/09 A2995 RMK CU1AC2CI1 SLP148=

CYYC;2005-07-03 21:00;METAR CYYC 032100Z 11006KT 40SM FEW050 FEW084 FEW260 20/08 A2994 RMK CU1AC2CI1 SLP142=

CYYC;2005-07-03 22:00;METAR CYYC 032200Z 18009G15KT 40SM FEW045 FEW084 19/07 A2993 RMK CU1AC2 TCU ASOCTD DIST N SLP137=

CYYC;2005-07-03 23:00;METAR CYYC 032300Z 19013KT 40SM FEW030 FEW050 SCT085 SCT260 20/08 A2992 RMK CF1SC2AC1CI1 CB ASOCTD DIST N SLP136=

CYYC;2005-07-04 00:00;METAR CYYC 040000Z 25011KT 40SM FEW040 FEW060 SCT085 SCT250 21/08 A2993 RMK CF1SC2AC1CI0 TCU ASOCTD DIST N SLP135=

CYYC;2005-07-04 01:00;METAR CYYC 040100Z 27014KT 40SM FEW060 FEW090 SCT240 20/03 A2993 RMK SC1AC1CI1 SC+ AC TR / TCU ASOCTD SLP137=

CYYC;2005-07-04 02:00;METAR CYYC 040200Z 28012G17KT 40SM FEW060 SCT092 BKN250 20/03 A2994 RMK CU1AC1CI0 TCU ASOCTD E SLP138=

CYYC;2005-07-04 03:00;METAR CYYC 040300Z 27011KT 40SM FEW060TCU FEW250 18/03 A2995 RMK TCU1CI1 SLP142=

CYYC;2005-07-04 04:00;METAR CYYC 040400Z 26007KT 40SM FEW065TCU FEW120 SCT250 16/03 A2996 RMK TCU1AC1CI1 TCU TR SLP146=

CYYC;2005-07-04 05:00;METAR CYYC 040500Z 26008KT 15SM FEW094 FEW120 SCT250 15/03 A2998 RMK AC1AC1CI0 SLP150=

CYYC;2005-07-04 06:00;METAR CYYC 040600Z 25006KT 15SM FEW090 FEW250 13/03 A2999 RMK AC1CI0 SLP158=

CYYC;2005-07-04 07:00;METAR CYYC 040700Z 27005KT 15SM FEW250 13/03 A3000 RMK CI0 SLP162=

CYYC;2005-07-04 08:00;METAR CYYC 040800Z 00000KT 15SM FEW250 14/02 A3000 RMK CI0 SLP162=

CYYC;2005-07-04 09:00;METAR CYYC 040900Z 21006KT 15SM FEW250 09/04 A3001 RMK CI0 SLP167=

CYYC;2005-07-04 10:00;METAR CYYC 041000Z 00000KT 15SM FEW070 FEW090 SCT250 11/03 A3001 RMK AC1AC1CI0 SLP167=

CYYC;2005-07-04 11:00;METAR CYYC 041100Z 17003KT 20SM FEW070 FEW120 BKN250 09/03 A3000 RMK AC1AC1CI1 SLP165=

CYYC;2005-07-04 12:00;METAR CYYC 041200Z 21006KT 40SM FEW080 FEW140 SCT250 08/04 A3001 RMK AC1AC1CI0 SLP166=

CYYC;2005-07-04 13:00;METAR CYYC 041300Z 18005KT 40SM FEW065 FEW120 BKN250 11/05 A3001 RMK SC1AC1CI1 ACSL NE SLP167=

CYYC;2005-07-04 15:00;METAR CYYC 041500Z 22005KT 40SM FEW090 FEW120 BKN250 17/07 A3002 RMK AC1AC1CI0 LWR AC LYR TR SLP162=

CYYC;2005-07-04 16:00;METAR CYYC 041600Z 23003KT 40SM FEW090 SCT140 BKN250 19/09 A3002 RMK AC1AC1CI2 SLP162=

CYYC;2005-07-04 17:00;METAR CYYC 041700Z 27012KT 40SM FEW050 FEW090 FEW140 BKN250 20/08 A3001 RMK CU1AC1AC1CI0 SLP161=

CYYC;2005-07-04 18:00;METAR CYYC 041800Z 27010G15KT 40SM FEW050 FEW090 FEW140 BKN250 22/08 A3001 RMK CU1AC1AC1CI0 SLP160=

CYYC;2005-07-04 19:00;METAR CYYC 041900Z 26008KT 40SM FEW055 FEW090 FEW140 BKN250 22/09 A3000 RMK CU1AC1AC1CI0 CU+LWR AC TR SLP157=

CYYC;2005-07-04 20:00;METAR CYYC 042000Z 24004KT 40SM FEW060 FEW090 FEW140 BKN250 23/09 A2999 RMK CU1AC1AC1CI1 CU TR SLP154=

CYYC;2005-07-04 21:00;METAR CYYC 042100Z 28009G15KT 40SM FEW060 FEW090 FEW140 BKN250 23/08 A2998 RMK CU1AC1AC1CI1 CU+LWR AC TR SLP154=

CYYC;2005-07-04 22:00;METAR CYYC 042200Z 27015KT 40SM FEW060 FEW090 FEW140 BKN250 24/08 A2999 RMK CU1AC1AC1CI1 CU+UPR AC TR SLP155=

CYYC;2005-07-04 23:00;METAR CYYC 042300Z 26013G22KT 40SM FEW060 FEW090 FEW140 BKN250 24/08 A2998 RMK CU1AC1AC1CI1 SLP154=

CYYC;2005-07-05 00:00;METAR CYYC 050000Z 26014G21KT 40SM FEW068 FEW100 FEW160 BKN250 24/08 A2998 RMK CU1AC1AC1CI1 ACSL SW-W SLP153=

CYYC;2005-07-05 01:00;METAR CYYC 050100Z 26014G19KT 40SM FEW066 FEW100 FEW180 BKN250 23/07 A2999 RMK CU1AC1AC1CI1 ACSL SW-W SLP155=

CYYC;2005-07-05 02:00;METAR CYYC 050200Z 27012G19KT 30SM FEW062 FEW100 FEW180 BKN240 22/07 A2998 RMK CU1AC1AC2CI0 SLP154=

CYYC;2005-07-05 03:00;METAR CYYC 050300Z 27014G20KT 30SM FEW065 FEW110 FEW180 SCT240 20/06 A2999 RMK CU1AC1AC1CI0 SLP148=

CYYC;2005-07-05 04:00;METAR CYYC 050400Z 27012G17KT 30SM FEW065 FEW090 FEW120 SCT220 19/05 A3000 RMK CU1AC1AC1CI0 SLP151=

CYYC;2005-07-05 05:00;METAR CYYC 050500Z 27011KT 15SM FEW060 FEW110 BKN240 18/05 A3000 RMK CU1AC1CI1 SLP152=

CYYC;2005-07-05 06:00;METAR CYYC 050600Z 28010KT 15SM FEW110 SCT240 18/05 A3000 RMK AC1CI0 SLP151=

CYYC;2005-07-05 07:00;METAR CYYC 050700Z 35003KT 15SM FEW240 15/06 A3001 RMK CI0 SLP152=

CYYC;2005-07-05 08:00;METAR CYYC 050800Z 30005KT 15SM FEW240 14/06 A3001 RMK CI0 SLP154=

CYYC;2005-07-05 09:00;METAR CYYC 050900Z 33004KT 15SM FEW120 14/06 A3001 RMK AC1 SLP156=

CYYC;2005-07-05 10:00;METAR CYYC 051000Z 27004KT 15SM FEW120 FEW240 14/06 A3000 RMK AC1CI0 SLP153=

CYYC;2005-07-05 11:00;METAR CYYC 051100Z 10003KT 40SM FEW080 FEW240 11/06 A3000 RMK AC1CI0 SLP152=

CYYC;2005-07-05 12:00;METAR CYYC 051200Z 20004KT 40SM FEW080 FEW110 BKN240 13/06 A3000 RMK AC1AC1CI0 SLP153=

CYYC;2005-07-05 13:00;METAR CYYC 051300Z 20005KT 40SM FEW080 FEW110 BKN230 15/09 A3000 RMK AC1AC1CI0 SLP154=

CYYC;2005-07-05 14:00;METAR CYYC 051400Z 20004KT 40SM FEW080 FEW140 BKN250 17/10 A2999 RMK AC1AC1CI0 SLP150=

CYYC;2005-07-05 15:00;METAR CYYC 051500Z 22004KT 40SM FEW080 FEW140 BKN250 19/10 A2998 RMK AC1AC1CI0 SLP143=

CYYC;2005-07-05 16:00;METAR CYYC 051600Z 20008KT 40SM FEW090 FEW160 BKN250 20/10 A2996 RMK AC1AC2CS1 SLP138=

CYYC;2005-07-05 17:00;METAR CYYC 051700Z 18007KT 40SM FEW090 FEW160 BKN250 22/12 A2995 RMK AC1AC2CS0 ACSL S SLP133=

CYYC;2005-07-05 18:00;METAR CYYC 051800Z 16007KT 40SM FEW090 FEW160 BKN250 24/11 A2994 RMK AC1AC1CI0 SLP126=

CYYC;2005-07-05 19:00;METAR CYYC 051900Z 17009KT 40SM FEW090 FEW160 BKN250 24/11 A2992 RMK AC1AC1CI1 SLP120=

CYYC;2005-07-05 20:00;METAR CYYC 052000Z 16007KT 40SM FEW100 SCT180 BKN250 25/12 A2990 RMK AC1AC1CI0 SLP114=

CYYC;2005-07-05 21:00;METAR CYYC 052100Z 16010G16KT 40SM FEW100 FEW180 SCT250 25/14 A2988 RMK AC1AC1CI0 SLP109=

CYYC;2005-07-05 22:00;METAR CYYC 052200Z 15014KT 40SM FEW100 FEW180 BKN250 25/14 A2986 RMK AC1AC1CI0 SLP104=

CYYC;2005-07-05 23:00;METAR CYYC 052300Z 16013KT 40SM FEW100 FEW180 BKN250 25/14 A2985 RMK AC1AC1CI1 SLP099=

CYYC;2005-07-06 00:00;METAR CYYC 060000Z 16013KT 40SM FEW080 FEW180 BKN250 25/14 A2983 RMK AC1AC1CI0 SLP092=

CYYC;2005-07-06 02:00;METAR CYYC 060200Z 17010KT 30SM FEW080 BKN170 OVC220 24/14 A2980 RMK AC2AC2CI2 SLP084=

CYYC;2005-07-06 03:00;METAR CYYC 060300Z 16007KT 30SM FEW070 SCT120 BKN160 OVC240 22/14 A2978 RMK AC1AC2AC2CI0 SLP073=

CYYC;2005-07-06 04:00;METAR CYYC 060400Z 13003KT 30SM FEW060 SCT110 BKN240 20/14 A2978 RMK SC1AC3CI2 SLP071=

CYYC;2005-07-06 05:00;METAR CYYC 060500Z 20005KT 15SM SCT120 BKN200 19/14 A2978 RMK AC3CI3 SLP071=

CYYC;2005-07-06 06:00;METAR CYYC 060600Z 21007KT 15SM OVC180 20/13 A2977 RMK AC8 SLP066=

CYYC;2005-07-06 08:00;METAR CYYC 060800Z 23007KT 15SM BKN150 BKN180 20/09 A2974 RMK AC5AC2 SLP057=

CYYC;2005-07-06 09:00;METAR CYYC 060900Z 24007KT 15SM FEW120 OVC150 20/08 A2973 RMK AC2AC6 SLP049=

CYYC;2005-07-06 10:00;METAR CYYC 061000Z 23008KT 15SM BKN130 18/08 A2972 RMK AC7 SLP046=

CYYC;2005-07-06 11:00;METAR CYYC 061100Z 22005KT 15SM FEW080 BKN120 OVC180 18/08 A2971 RMK AC1AC6AC1 SLP044=

CYYC;2005-07-06 12:00;METAR CYYC 061200Z 22005KT 30SM FEW080 BKN120 BKN180 18/09 A2970 RMK AC1AC4AC2 SLP041=

CYYC;2005-07-06 13:00;METAR CYYC 061300Z 22006KT 30SM FEW060 BKN120 BKN150 19/10 A2969 RMK SC1AC5AC1 SLP038=

CYYC;2005-07-06 14:00;METAR CYYC 061400Z 21005KT 40SM FEW060 BKN150 BKN240 19/12 A2968 RMK SC1AC5CI1 SLP036=

CYYC;2005-07-06 15:00;METAR CYYC 061500Z 19009KT 40SM FEW060 SCT150 BKN220 22/10 A2968 RMK SC1AC3CI2 SLP033=

CYYC;2005-07-06 16:00;METAR CYYC 061600Z 21009KT 40SM FEW060 SCT150 BKN240 22/11 A2966 RMK SC1AC3CI1 SLP028=

CYYC;2005-07-06 17:00;METAR CYYC 061700Z 19010G15KT 40SM FEW065 SCT150 BKN240 24/12 A2965 RMK SC1AC2CI2 SC TR SLP025=

CYYC;2005-07-06 18:00;METAR CYYC 061800Z 19010G15KT 40SM FEW065 FEW150 SCT250 25/12 A2964 RMK SC1AC2CI1 SC TR SLP017=

CYYC;2005-07-06 19:00;METAR CYYC 061900Z 20012KT 40SM FEW065 FEW180 SCT250 26/12 A2962 RMK SC1AC2CI1 SC TR SLP012=

CYYC;2005-07-06 20:00;METAR CYYC 062000Z 23017G22KT 40SM FEW050 FEW150 SCT250 26/09 A2962 RMK CU1AC2CI1 SLP013=

CYYC;2005-07-06 21:00;METAR CYYC 062100Z 22013G20KT 40SM FEW050 SCT150 BKN250 27/10 A2962 RMK CU1AC2CI1 SLP008=

CYYC;2005-07-06 22:00;METAR CYYC 062200Z 28019G25KT 40SM FEW055 SCT150 BKN250 24/10 A2964 RMK CU1AC1CI2 SLP015=

CYYC;2005-07-06 23:00;METAR CYYC 062300Z 28026G33KT 40SM FEW055 FEW150 SCT250 23/09 A2967 RMK CU1AC1CI1 SLP024=

CYYC;2005-07-07 00:00;METAR CYYC 070000Z 28022G30KT 40SM FEW055 FEW120 BKN250 22/07 A2967 RMK CU1AC2CI1 SLP035=

CYYC;2005-07-07 01:00;METAR CYYC 070100Z 27021G29KT 40SM FEW055 FEW090 SCT120 BKN240 21/06 A2968 RMK CU1AC2AC2CI1 SLP039=

CYYC;2005-07-07 02:00;METAR CYYC 070200Z 27018KT 30SM FEW055 FEW100 SCT160 BKN240 22/06 A2969 RMK CU1AC2AC2CI0 TCU ASOCTD NE SLP040=

CYYC;2005-07-07 03:00;METAR CYYC 070300Z 27011G17KT 30SM FEW060TCU FEW100 SCT150 BKN240 21/05 A2969 RMK TCU1AC2AC1CI2 SLP040=

CYYC;2005-07-07 04:00;METAR CYYC 070400Z 26013KT 30SM FEW060 FEW100 BKN240 19/05 A2971 RMK CU1AC2CI1 TCU ASOCTD DSNT NE SLP045=

CYYC;2005-07-07 05:00;METAR CYYC 070500Z 35008KT 15SM FEW060 BKN098 BKN240 15/09 A2974 RMK SC1AC4CI0 SLP054=

CYYC;2005-07-07 06:00;METAR CYYC 070600Z 32004KT 15SM BKN097 BKN130 15/10 A2976 RMK AC6AC2 SLP066=

CYYC;2005-07-07 06:23;SPECI CYYC 070623Z 30009KT 15SM -SHRA OVC080 RMK AC8=

CYYC;2005-07-07 07:00;METAR CYYC 070700Z 28015KT 8SM -SHRA BKN056 OVC072 13/10 A2981 RMK SC6AC2 CVCTV CLD EMBD / PRESRR SLP082=

CYYC;2005-07-07 08:00;METAR CYYC 070800Z 24006KT 15SM VCSH FEW060 BKN120 13/10 A2980 RMK SC2AC6 SLP078=

CYYC;2005-07-07 10:00;METAR CYYC 071000Z 32006KT 15SM FEW080 FEW120 SCT240 11/08 A2981 RMK AC1AC1CI0 SLP084=

CYYC;2005-07-07 11:00;METAR CYYC 071100Z 34007KT 30SM FEW080 SCT120 09/07 A2984 RMK AC1AC2 SHS E SLP092=

CYYC;2005-07-07 12:00;METAR CYYC 071200Z 36008KT 30SM FEW020 FEW090 SCT120 10/07 A2985 RMK CU1AC1AC2 SHS DSNT SE SLP109=

CYYC;2005-07-07 13:00;METAR CYYC 071300Z 36008KT 40SM FEW020 FEW090 SCT240 10/08 A2987 RMK CU1AC2CI0 SHS DSNT SE SLP115=

CYYC;2005-07-07 14:00;METAR CYYC 071400Z 10002KT 40SM FEW090 BKN240 11/09 A2988 RMK AC1CI6 SLP119=

CYYC;2005-07-07 16:00;METAR CYYC 071600Z 17002KT 40SM FEW090 BKN250 15/10 A2989 RMK AC1CI0 SLP118=

CYYC;2005-07-07 17:00;METAR CYYC 071700Z 17002KT 40SM FEW030 FEW090 BKN260 16/09 A2988 RMK CU1AC1CI2 SLP116=

CYYC;2005-07-07 18:00;METAR CYYC 071800Z 14007KT 40SM FEW030 FEW090 FEW230 BKN260 18/09 A2986 RMK CU1AC1CI0CI2 SLP112=

CYYC;2005-07-07 18:54;SPECI CYYC 071854Z 10004KT 40SM -SHRA FEW030 BKN096 BKN240 RMK CU1AC6CI0=

CYYC;2005-07-07 19:00;METAR CYYC 071900Z 15004KT 40SM -SHRA FEW030 BKN096 BKN240 17/09 A2987 RMK CU1AC6CI1 CU TR / PCPN VRY LGT SLP114=

CYYC;2005-07-07 22:00;METAR CYYC 072200Z 07006KT 40SM FEW035TCU FEW100 FEW250 20/12 A2981 RMK TCU1AC2CI0 TCU DIST N-NE / CB ASOCTD DIST E SLP097=

CYYC;2005-07-07 23:00;METAR CYYC 072300Z 20005KT 40SM FEW045 FEW095 BKN250 21/11 A2981 RMK CU1AC1CI1 CB ASOCTD DIST N-NE+E SLP097=

CYYC;2005-07-08 00:00;METAR CYYC 080000Z 28007KT 40SM FEW055 FEW100 BKN210 21/06 A2981 RMK CU1AC1CI4 TCU ASOCTD DIST NE+E SLP097=

CYYC;2005-07-08 01:00;METAR CYYC 080100Z 27006KT 40SM FEW100 SCT210 BKN250 22/06 A2981 RMK AC1CI1CI1 SLP097=

CYYC;2005-07-08 03:00;METAR CYYC 080300Z 05002KT 40SM FEW060 BKN100 BKN250 19/06 A2982 RMK CU1AC2CI2 SLP097=

CYYC;2005-07-08 04:00;METAR CYYC 080400Z 15006KT 40SM FEW100 OVC240 16/12 A2983 RMK AC2CI4 SLP101=

CYYC;2005-07-08 05:00;METAR CYYC 080500Z 23005KT 15SM FEW100 SCT250 15/09 A2984 RMK AC1CI2 AC TR SLP104=

CYYC;2005-07-08 06:00;METAR CYYC 080600Z 27006KT 15SM SCT250 15/05 A2985 RMK CI2 SLP107=

CYYC;2005-07-08 07:00;METAR CYYC 080700Z 31006KT 15SM SCT250 12/05 A2985 RMK CI2 SLP107=

CYYC;2005-07-08 08:00;METAR CYYC 080800Z 34003KT 15SM SCT250 12/05 A2985 RMK CI2 SLP106=

CYYC;2005-07-08 10:00;METAR CYYC 081000Z 30002KT 15SM FEW250 11/06 A2983 RMK CI0 SLP103=

CYYC;2005-07-08 11:00;METAR CYYC 081100Z 19002KT 20SM BKN220 11/06 A2982 RMK CI4 SLP102=

CYYC;2005-07-08 12:00;METAR CYYC 081200Z 28002KT 40SM FEW190 BKN220 12/06 A2981 RMK AC2CI3 SLP094=

CYYC;2005-07-08 13:00;METAR CYYC 081300Z 00000KT 40SM FEW080 FEW190 BKN220 12/07 A2980 RMK AC1AC2CI3 SLP091=

CYYC;2005-07-08 14:00;METAR CYYC 081400Z 00000KT 40SM FEW080 FEW140 BKN200 14/08 A2981 RMK AC1AC1CI7 SLP092=

CYYC;2005-07-08 15:00;METAR CYYC 081500Z 22004KT 40SM FEW080 FEW140 BKN200 BKN250 17/08 A2979 RMK AC1AC1CI2CI0 SLP082=

CYYC;2005-07-08 16:00;METAR CYYC 081600Z 20006KT 40SM FEW080 FEW140 FEW200 FEW260 18/09 A2977 RMK AC1AC1CI1CI0 SLP078=

CYYC;2005-07-08 17:00;METAR CYYC 081700Z 21009KT 40SM FEW080 FEW140 FEW200 FEW260 20/08 A2975 RMK AC1AC1CI1CI0 SLP071=

CYYC;2005-07-08 18:00;METAR CYYC 081800Z 15008KT 40SM FEW090 FEW140 FEW180 22/08 A2973 RMK AC1AC1AC1 SLP060=

CYYC;2005-07-08 19:00;METAR CYYC 081900Z 15010KT 40SM FEW090 FEW140 FEW180 23/10 A2971 RMK AC1AC1AC1 SLP055=

CYYC;2005-07-08 20:00;METAR CYYC 082000Z 14013KT 40SM FEW090 FEW180 24/10 A2969 RMK AC1AC1 SLP049=

CYYC;2005-07-08 21:00;METAR CYYC 082100Z 16008KT 40SM FEW090 FEW180 26/10 A2966 RMK AC1AC1 UPR AC TR SLP037=

CYYC;2005-07-08 22:00;METAR CYYC 082200Z 23012KT 40SM FEW090 FEW180 FEW250 27/10 A2966 RMK AC1AC1CI1 UPR AC+CI TR SLP036=

CYYC;2005-07-08 23:00;METAR CYYC 082300Z 26014KT 40SM FEW090 BKN250 26/08 A2966 RMK AC2CI1 SLP035=

CYYC;2005-07-09 00:00;METAR CYYC 090000Z 28006KT 40SM SCT100 BKN190 BKN250 25/11 A2966 RMK AC2AC1CI1 SLP036=

CYYC;2005-07-09 01:00;METAR CYYC 090100Z 22004KT 40SM FEW100 SCT170 BKN230 26/08 A2964 RMK AC1AC2CI0 SLP032=

CYYC;2005-07-09 02:00;METAR CYYC 090200Z 19009KT 30SM FEW090 SCT150 SCT230 25/07 A2963 RMK AC1AC2CI0 SLP028=

CYYC;2005-07-09 03:00;METAR CYYC 090300Z 19012KT 30SM FEW080 FEW120 SCT230 23/07 A2963 RMK AC1AC1CI0 SLP019=

CYYC;2005-07-09 04:00;METAR CYYC 090400Z 15009KT 30SM FEW060 SCT120 BKN230 20/09 A2963 RMK SC1AC2CI1 SLP021=

CYYC;2005-07-09 06:00;METAR CYYC 090600Z 26003KT 15SM FEW080 FEW120 SCT240 18/07 A2966 RMK AC1AC2CI0 SLP031=

CYYC;2005-07-09 07:00;METAR CYYC 090700Z 33007KT 15SM FEW090 FEW130 SCT240 16/08 A2965 RMK AC1AC1CI0 SLP030=

CYYC;2005-07-09 08:00;METAR CYYC 090800Z 34005KT 15SM FEW080 FEW120 SCT150 BKN240 14/08 A2968 RMK AC1AC1AC2CI0 SLP038=

CYYC;2005-07-09 09:00;METAR CYYC 090900Z 28011KT 15SM BKN120 BKN150 16/06 A2970 RMK AC6AC2 SLP041=

CYYC;2005-07-09 10:00;METAR CYYC 091000Z 30009G25KT 15SM FEW090 BKN120 15/04 A2971 RMK AC1AC7 SLP045=

CYYC;2005-07-09 11:00;METAR CYYC 091100Z 29013G19KT 30SM FEW090 BKN120 14/03 A2972 RMK AC2AC5 SLP048=

CYYC;2005-07-09 12:00;METAR CYYC 091200Z 27013G20KT 40SM SCT075 BKN120 15/02 A2972 RMK AC3AC4 VIRGA N SLP054=

CYYC;2005-07-09 13:00;METAR CYYC 091300Z 25004KT 40SM BKN076 BKN120 14/03 A2974 RMK AC5AC2 VIRGA N SLP060=

CYYC;2005-07-09 14:00;METAR CYYC 091400Z 34006KT 40SM FEW030 FEW080 BKN170 14/03 A2977 RMK CU1AC2AC6 VIRGA SLP070=

CYYC;2005-07-09 15:00;METAR CYYC 091500Z 27010KT 40SM FEW044 FEW100 BKN170 15/04 A2978 RMK CU1AC1AC7 VIRGA SLP076=

CYYC;2005-07-09 16:00;METAR CYYC 091600Z 27011KT 40SM FEW045 FEW180 FEW260 17/05 A2978 RMK CU1AC1CI1 VIRGA SLP074=

CYYC;2005-07-09 17:00;METAR CYYC 091700Z 29013G18KT 40SM FEW052 SCT180 BKN260 18/05 A2978 RMK CU1AC2CI1 CC ASOCTD SLP074=

CYYC;2005-07-09 18:00;METAR CYYC 091800Z 28011G17KT 40SM FEW056 BKN190 BKN260 19/04 A2978 RMK CU1AC6CI1 SLP077=

CYYC;2005-07-09 20:00;METAR CYYC 092000Z 00000KT 40SM FEW058 FEW080 FEW160 BKN210 19/05 A2977 RMK CU1AC2AC1CS3 VIRGA SW SLP073=

CYYC;2005-07-09 21:00;METAR CYYC 092100Z 20002KT 40SM FEW058 FEW080 FEW120 BKN200 19/06 A2976 RMK CU1AC1AC1CS6 SH SW SLP072=

CYYC;2005-07-09 22:00;METAR CYYC 092200Z 21007KT 40SM FEW058 FEW080 BKN210 19/07 A2976 RMK CU1AC1CS7 SLP072=

CYYC;2005-07-09 23:00;METAR CYYC 092300Z 18008KT 40SM FEW058 FEW140 BKN200 19/08 A2975 RMK CU1AC1CS6 VIRGA W SLP070=

CYYC;2005-07-10 02:00;METAR CYYC 100200Z 27014KT 40SM FEW060 SCT100 BKN200 20/04 A2975 RMK CU1AC2CI0 SHS SW / TCU ASOCTD NE SLP070=

CYYC;2005-07-10 03:00;METAR CYYC 100300Z 27011KT 40SM FEW060 SCT100 SCT200 18/04 A2976 RMK SC1AC1CI1 TCU ASOCTD DSNT NE SLP076=

CYYC;2005-07-10 04:00;METAR CYYC 100400Z 24011KT 30SM FEW060TCU SCT120 BKN200 16/04 A2979 RMK TCU1AC2CI1 TCU DSNT NE / VIRGA SW SLP084=

CYYC;2005-07-10 05:00;METAR CYYC 100500Z 26009KT 15SM FEW050 SCT090 BKN200 15/04 A2980 RMK SC1AC2CI1 SLP087=

CYYC;2005-07-10 07:00;METAR CYYC 100700Z 34009KT 15SM FEW100 SCT150 BKN200 12/05 A2982 RMK AC1AC2CI1 SLP095=

CYYC;2005-07-10 08:00;METAR CYYC 100800Z 31009KT 15SM FEW140 SCT200 11/03 A2983 RMK AC1CI0 SLP098=

CYYC;2005-07-10 09:00;METAR CYYC 100900Z 31010KT 15SM FEW160 FEW240 11/02 A2984 RMK AC1CI0 SLP105=

CYYC;2005-07-10 10:00;METAR CYYC 101000Z 36008KT 15SM FEW120 SCT250 10/01 A2985 RMK AC1CI0 SLP111=

CYYC;2005-07-10 11:00;METAR CYYC 101100Z 34006KT 40SM FEW110 SCT240 06/02 A2987 RMK AC2CI0 SLP117=

CYYC;2005-07-10 12:00;METAR CYYC 101200Z 33006KT 40SM FEW080 FEW110 FEW240 07/02 A2989 RMK AC1AC1CI0 SLP131=

CYYC;2005-07-10 13:00;METAR CYYC 101300Z 02002KT 40SM FEW080 FEW110 FEW240 10/04 A2991 RMK AC1AC1CI1 SLP137=

CYYC;2005-07-10 14:00;METAR CYYC 101400Z 36002KT 40SM FEW080 FEW140 SCT240 13/05 A2993 RMK AC1AC2CI0 SLP141=

CYYC;2005-07-10 15:00;METAR CYYC 101500Z 00000KT 40SM FEW090 FEW180 SCT260 14/05 A2993 RMK AC1AC1CI1 SLP135=

CYYC;2005-07-10 16:00;METAR CYYC 101600Z 07003KT 40SM FEW045 FEW180 FEW260 16/05 A2993 RMK CU1AC1CI1 SLP136=

CYYC;2005-07-10 17:00;METAR CYYC 101700Z 07002KT 40SM FEW045 FEW150 FEW260 17/07 A2993 RMK CU1AC1CI1 CC ASOCTD SLP135=

CYYC;2005-07-10 18:00;METAR CYYC 101800Z 36003KT 40SM FEW049 BKN180 BKN260 17/05 A2992 RMK CU1AC6CI1 SLP133=

CYYC;2005-07-10 19:00;METAR CYYC 101900Z 32002KT 40SM FEW060 BKN180 BKN240 17/06 A2992 RMK CU1AC3CI1 SLP132=

CYYC;2005-07-10 21:00;METAR CYYC 102100Z 09004KT 40SM SCT062 BKN170 BKN230 20/08 A2990 RMK CU3AC2CI1 SHS SW SLP127=

CYYC;2005-07-10 22:00;METAR CYYC 102200Z 17006KT 40SM SCT062 BKN160 BKN230 20/08 A2989 RMK CU3AC2CI1 SHS SW-W SLP123=

CYYC;2005-07-10 23:00;METAR CYYC 102300Z 18009KT 40SM SCT062 BKN150 BKN250 19/06 A2989 RMK CU4AC2CI0 SH SW / TCU ASOCTD SLP123=

CYYC;2005-07-11 01:00;METAR CYYC 110100Z 19008KT 40SM FEW062 FEW140 SCT260 19/08 A2988 RMK CU2AC1CI0 TCU ASOCTD SLP128=

CYYC;2005-07-11 03:00;METAR CYYC 110300Z 15008KT 30SM FEW060 FEW120 SCT240 17/07 A2988 RMK CU1AC1CI0 TCU ASOCTD DSNT N SLP118=

CYYC;2005-07-11 05:00;METAR CYYC 110500Z 11004KT 15SM SCT100 BKN220 14/08 A2990 RMK AC2CI1 SLP125=

CYYC;2005-07-11 06:00;METAR CYYC 110600Z 00000KT 15SM FEW100 SCT260 15/07 A2991 RMK AC1CI0 SLP131=

CYYC;2005-07-11 07:00;METAR CYYC 110700Z 35005KT 15SM FEW260 11/07 A2992 RMK CI0 SLP134=

CYYC;2005-07-11 08:00;METAR CYYC 110800Z 34005KT 15SM FEW260 09/06 A2993 RMK CI0 SLP138=

CYYC;2005-07-11 09:00;METAR CYYC 110900Z 32009KT 15SM FEW100 FEW250 10/05 A2995 RMK AC1CI0 SLP146=

CYYC;2005-07-11 10:00;METAR CYYC 111000Z 32008KT 15SM FEW080 FEW250 10/06 A2996 RMK AC1CI0 SLP150=

CYYC;2005-07-11 11:00;METAR CYYC 111100Z 34013KT 15SM FEW080 FEW110 FEW240 11/06 A2998 RMK AC1AC1CI0 SLP156=

CYYC;2005-07-11 12:00;METAR CYYC 111200Z 32009KT 40SM FEW080 FEW100 09/06 A2999 RMK AC1AC1 SLP163=

CYYC;2005-07-11 13:00;METAR CYYC 111300Z 32004KT 40SM FEW080 FEW100 10/07 A2999 RMK AC1AC1 SLP164=

CYYC;2005-07-11 14:00;METAR CYYC 111400Z 36008KT 40SM FEW090 13/08 A3000 RMK AC1 SLP166=

CYYC;2005-07-11 15:00;METAR CYYC 111500Z 32002KT 40SM FEW120 14/08 A3002 RMK AC1 SLP166=

CYYC;2005-07-11 16:00;METAR CYYC 111600Z 02002KT 40SM FEW120 16/10 A3002 RMK AC1 SLP167=

CYYC;2005-07-11 17:00;METAR CYYC 111700Z 28002KT 40SM FEW120 FEW250 18/09 A3002 RMK AC1CI1 CI TR SLP167=

CYYC;2005-07-11 18:00;METAR CYYC 111800Z 06003KT 40SM FEW060 FEW100 FEW250 20/08 A3002 RMK CU1AC1CI0 CU+AC TR SLP163=

CYYC;2005-07-11 19:00;METAR CYYC 111900Z 17007KT 40SM FEW060 FEW120 FEW250 21/09 A3002 RMK CU1AC1CI0 SLP163=

CYYC;2005-07-11 20:00;METAR CYYC 112000Z 00000KT 40SM FEW060 FEW120 FEW250 21/07 A3000 RMK CU1AC1CI0 SLP157=

CYYC;2005-07-11 21:00;METAR CYYC 112100Z 16004KT 40SM FEW060 FEW100 FEW250 22/09 A2999 RMK CU1AC1CI0 SLP156=

CYYC;2005-07-11 22:00;METAR CYYC 112200Z 09004KT 40SM FEW062 FEW100 FEW250 22/11 A2998 RMK CU2AC1CI0 AC TR SLP154=

CYYC;2005-07-11 23:00;METAR CYYC 112300Z 07008KT 40SM SCT067 SCT100 BKN250 21/10 A2998 RMK CU3AC1CI0 TCU PRSNT SLP152=

CYYC;2005-07-12 00:00;METAR CYYC 120000Z 28007KT 40SM FEW067 SCT100 SCT250 23/10 A2998 RMK CU2AC1CI0 TCU ASOCTD SLP152=

CYYC;2005-07-12 01:00;METAR CYYC 120100Z 25008KT 40SM FEW067 SCT100 SCT250 23/07 A2997 RMK CU2AC1CI0 SLP151=

CYYC;2005-07-12 02:00;METAR CYYC 120200Z 28015KT 30SM FEW067TCU FEW100 SCT240 22/06 A2998 RMK TCU1AC1CI0 SLP154=

CYYC;2005-07-12 03:00;METAR CYYC 120300Z 27010KT 30SM FEW060 FEW100 20/06 A3000 RMK CU1AC1 SLP156=

CYYC;2005-07-12 04:00;METAR CYYC 120400Z 28008KT 30SM FEW060 FEW100 FEW240 17/05 A3001 RMK CU1AC1CI1 TCU ASOCTD N SLP160=

CYYC;2005-07-12 05:00;METAR CYYC 120500Z 26005KT 15SM FEW060 FEW100 15/05 A3003 RMK SC1AC2 SLP167=

CYYC;2005-07-12 06:00;METAR CYYC 120600Z 30004KT 15SM FEW100 FEW240 14/06 A3005 RMK AC1CI1 SLP174=

CYYC;2005-07-12 07:00;METAR CYYC 120700Z 00000KT 15SM SKC 13/06 A3005 RMK SLP176=

CYYC;2005-07-12 08:00;METAR CYYC 120800Z 19004KT 15SM FEW260 13/06 A3005 RMK CI0 SLP176=

CYYC;2005-07-12 09:00;METAR CYYC 120900Z 00000KT 15SM FEW250 13/06 A3006 RMK CI1 SLP177=

CYYC;2005-07-12 10:00;METAR CYYC 121000Z 19002KT 15SM FEW100 11/06 A3006 RMK AC1 SLP178=

CYYC;2005-07-12 12:00;METAR CYYC 121200Z 31002KT 40SM FEW090 FEW250 08/05 A3007 RMK AC1CI0 SLP187=

CYYC;2005-07-12 13:00;METAR CYYC 121300Z 00000KT 40SM FEW090 FEW250 11/08 A3007 RMK AC1CI0 SLP188=

CYYC;2005-07-12 14:00;METAR CYYC 121400Z 00000KT 40SM FEW100 15/10 A3007 RMK AC1 AC TR SLP187=

CYYC;2005-07-12 15:00;METAR CYYC 121500Z 22002KT 40SM FEW070 FEW100 FEW260 18/09 A3007 RMK CU1AC1CI1 ALL CLDS TR SLP177=

CYYC;2005-07-12 16:00;METAR CYYC 121600Z 16006KT 40SM FEW070 FEW100 FEW250 21/09 A3006 RMK CU1AC1CI1 ALL CLDS TR SLP172=

CYYC;2005-07-12 17:00;METAR CYYC 121700Z 14006KT 40SM FEW070 21/09 A3005 RMK CU1 SLP170=

CYYC;2005-07-12 18:00;METAR CYYC 121800Z 14008KT 40SM FEW070 22/12 A3003 RMK CU1 SLP166=

CYYC;2005-07-12 20:00;METAR CYYC 122000Z 16011G18KT 40SM FEW075 25/14 A3000 RMK CU1 SLP155=

CYYC;2005-07-12 21:00;METAR CYYC 122100Z 14012KT 40SM FEW070 FEW090 26/14 A2998 RMK CU1AC1 AC TR SLP146=

CYYC;2005-07-12 22:00;METAR CYYC 122200Z 13012KT 40SM FEW079 FEW100 27/14 A2995 RMK CU2AC1 AC TR SLP137=

CYYC;2005-07-13 00:00;METAR CYYC 130000Z 27012KT 40SM FEW079 28/06 A2995 RMK CU1 SLP137=

CYYC;2005-07-13 01:00;METAR CYYC 130100Z 25011KT 40SM FEW070 27/05 A2994 RMK CU1 SLP135=

CYYC;2005-07-13 03:00;METAR CYYC 130300Z 25005KT 40SM FEW080TCU 24/05 A2994 RMK TCU1 TCU N SLP126=

CYYC;2005-07-13 04:00;METAR CYYC 130400Z 25004KT 40SM FEW080 22/05 A2996 RMK AC1 TCU ASOCTD DSNT N SLP131=

CYYC;2005-07-13 06:00;METAR CYYC 130600Z 35004KT 15SM FEW240 16/11 A3000 RMK CI1 SLP152=

CYYC;2005-07-13 07:00;METAR CYYC 130700Z 32012KT 15SM FEW240 16/11 A3001 RMK CI0 SLP154=

CYYC;2005-07-13 09:00;METAR CYYC 130900Z 34010KT 15SM SKC 13/10 A3002 RMK SLP158=

CYYC;2005-07-13 10:00;METAR CYYC 131000Z 34008KT 15SM FEW100 FEW240 13/10 A3003 RMK AC1CI1 SLP161=

CYYC;2005-07-13 11:00;METAR CYYC 131100Z 33010KT 15SM FEW100 FEW240 13/10 A3004 RMK AC1CI0 SLP163=

CYYC;2005-07-13 12:00;METAR CYYC 131200Z 31007KT 40SM FEW030 FEW100 11/09 A3005 RMK CU1AC1 TR CU SLP166=

CYYC;2005-07-13 13:00;METAR CYYC 131300Z 32007KT 40SM FEW030 FEW100 14/09 A3004 RMK CU1AC1 SLP165=

CYYC;2005-07-13 14:00;METAR CYYC 131400Z 28003KT 40SM FEW030 FEW100 FEW120 16/10 A3003 RMK CU1AC1AC1 SLP161=

CYYC;2005-07-13 15:00;METAR CYYC 131500Z 30002KT 40SM FEW050 FEW120 18/11 A3002 RMK CU1AC1 CU+AC TR SLP153=

CYYC;2005-07-13 16:00;METAR CYYC 131600Z 00000KT 40SM FEW050 FEW120 19/11 A3001 RMK CU1AC1 CU+AC TR SLP151=

CYYC;2005-07-13 17:00;METAR CYYC 131700Z 00000KT 40SM FEW050 FEW120 20/11 A3000 RMK CU1AC1 SLP148=

CYYC;2005-07-13 18:00;METAR CYYC 131800Z 10006KT 40SM FEW060 FEW120 22/13 A2998 RMK CU1AC1 AC TR SLP147=

CYYC;2005-07-13 19:00;METAR CYYC 131900Z 12006KT 40SM FEW060 FEW070TCU 22/12 A2996 RMK CU1TCU1 TCU TR SLP139=

CYYC;2005-07-13 20:00;METAR CYYC 132000Z 14007KT 40SM FEW060 FEW070TCU 23/11 A2993 RMK CU1TCU1 SLP132=

CYYC;2005-07-13 21:00;METAR CYYC 132100Z 12006KT 40SM FEW060 FEW070TCU FEW120 24/11 A2992 RMK CU1TCU1AC1 AC TR SLP126=

CYYC;2005-07-13 21:50;SPECI CYYC 132150Z 34027G33KT 20SM -TSRA FEW033 BKN060CB BKN100 RMK CU2CB5AC1=

CYYC;2005-07-13 22:00;METAR CYYC 132200Z 35032G37KT 20SM -TSRA FEW033 BKN060CB BKN099 13/10 A2998 RMK CU2CB5AC1 SLP144=

CYYC;2005-07-13 22:22;SPECI CYYC 132222Z 01020G27KT 20SM -TSRA FEW030 BKN060CB BKN100 RERAGR RMK SC1CB5AC1 LTGCG NE-S=

CYYC;2005-07-13 22:33;SPECI CYYC 132233Z 02013G21KT 20SM TS FEW030 BKN065CB BKN100 RERAGR RMK SC1CB5AC1 LTGCG NE=

CYYC;2005-07-13 23:00;METAR CYYC 132300Z 36015G20KT 40SM TS FEW040 SCT070CB BKN120 BKN230 14/11 A3001 RERAGR RMK SC1CB3AC2CI0 LTGCG E SLP154=

CYYC;2005-07-13 23:25;SPECI CYYC 132325Z 36011KT 40SM FEW040 SCT070CB BKN120 BKN230 RETS RMK SC1CB3AC2CI1=

CYYC;2005-07-14 00:00;METAR CYYC 140000Z 02009G15KT 40SM FEW040TCU SCT070CB BKN120 BKN230 15/11 A3002 RETS RMK TCU1CB3AC2CI1 SLP173=

CYYC;2005-07-14 02:00;METAR CYYC 140200Z 02012G17KT 40SM FEW038 SCT100 SCT210 16/11 A3005 RMK SC1AC2CI1 CB ASOCTD N+E SLP183=

CYYC;2005-07-14 03:00;METAR CYYC 140300Z 35009KT 40SM FEW038 FEW090 FEW210 14/09 A3005 RMK SC1AC1CI1 SC+CI TR SLP177=

CYYC;2005-07-14 04:00;METAR CYYC 140400Z 36007KT 30SM FEW038 FEW090 FEW210 12/08 A3006 RMK SC1AC1CI1 SLP182=

CYYC;2005-07-14 05:00;METAR CYYC 140500Z 25004KT 15SM FEW080 13/08 A3009 RMK AC1 SLP190=

CYYC;2005-07-14 06:00;METAR CYYC 140600Z 23006KT 15SM FEW080 11/07 A3010 RMK AC1 SLP195=

CYYC;2005-07-14 10:00;METAR CYYC 141000Z 17002KT 15SM FEW090 11/06 A3013 RMK AC1 SLP202=

CYYC;2005-07-14 11:00;METAR CYYC 141100Z 21007KT 20SM FEW090 07/05 A3014 RMK AC1 SLP204=

CYYC;2005-07-14 12:00;METAR CYYC 141200Z 26004KT 40SM FEW090 FEW180 08/05 A3015 RMK AC1AC1 SLP224=

CYYC;2005-07-14 13:00;METAR CYYC 141300Z 22004KT 40SM FEW090 FEW240 09/07 A3016 RMK AC1CI1 SLP227=

CYYC;2005-07-14 15:00;METAR CYYC 141500Z 19005KT 40SM FEW100 FEW250 16/08 A3015 RMK AC1CI1 BOTH CLDS TR SLP215=

CYYC;2005-07-14 16:00;METAR CYYC 141600Z 19003KT 40SM FEW090 FEW260 18/07 A3016 RMK AC1CI0 SLP218=

CYYC;2005-07-14 17:00;METAR CYYC 141700Z 00000KT 40SM FEW060 FEW090 FEW260 19/04 A3015 RMK CU1AC1CI0 SLP216=

CYYC;2005-07-14 18:00;METAR CYYC 141800Z 14003KT 40SM FEW060 FEW090 FEW260 20/06 A3014 RMK CU1AC1CI0 AC TR SLP211=

CYYC;2005-07-14 19:00;METAR CYYC 141900Z 24006KT 40SM FEW060 FEW090 SCT260 21/03 A3011 RMK CU2AC1CI0 AC TR SLP203=

CYYC;2005-07-14 20:00;METAR CYYC 142000Z 20006KT 40SM FEW060 FEW090 SCT250 22/05 A3010 RMK CU1AC1CI0 SLP199=

CYYC;2005-07-14 21:00;METAR CYYC 142100Z 20004KT 40SM FEW065 FEW100 FEW250 23/07 A3008 RMK CU1AC1CI0 AC TR SLP188=

CYYC;2005-07-14 22:00;METAR CYYC 142200Z 18007KT 40SM FEW065 FEW100 FEW270 23/07 A3007 RMK CU1AC1CI0 AC TR SLP185=

CYYC;2005-07-14 23:00;METAR CYYC 142300Z 15012G17KT 40SM FEW065 FEW100 BKN250 22/08 A3006 RMK CU1AC1CI2 SLP180=

CYYC;2005-07-15 00:00;METAR CYYC 150000Z 01005KT 40SM FEW065 FEW100 BKN250 23/07 A3005 RMK CU1AC1CI2 SLP178=

CYYC;2005-07-15 01:00;METAR CYYC 150100Z 17013KT 40SM FEW065 FEW100 BKN250 22/08 A3005 RMK CU1AC1CI2 SLP177=

CYYC;2005-07-15 02:00;METAR CYYC 150200Z 15008KT 40SM FEW090 BKN250 20/09 A3004 RMK AC1CI0 SLP174=

CYYC;2005-07-15 03:00;METAR CYYC 150300Z 13011KT 30SM FEW090 FEW210 BKN250 19/10 A3004 RMK AC1CI1CI0 SLP171=

CYYC;2005-07-15 04:00;METAR CYYC 150400Z 17008KT 30SM FEW090 FEW210 BKN250 18/09 A3004 RMK AC1CI1CI0 SLP171=

CYYC;2005-07-15 05:00;METAR CYYC 150500Z 20004KT 15SM FEW210 BKN240 17/08 A3005 RMK CI1CI0 SLP173=

CYYC;2005-07-15 06:00;METAR CYYC 150600Z 20005KT 15SM BKN220 16/09 A3006 RMK CI2 SLP174=

CYYC;2005-07-15 07:00;METAR CYYC 150700Z 20004KT 15SM BKN220 15/09 A3005 RMK CI2 SLP172=

CYYC;2005-07-15 08:00;METAR CYYC 150800Z 16005KT 15SM BKN220 15/08 A3004 RMK CI1 SLP169=

CYYC;2005-07-15 09:00;METAR CYYC 150900Z 20003KT 15SM BKN220 15/08 A3003 RMK CI1 SLP162=

CYYC;2005-07-15 10:00;METAR CYYC 151000Z 20005KT 15SM BKN200 12/09 A3001 RMK CI2 SLP157=

CYYC;2005-07-15 11:00;METAR CYYC 151100Z 00000KT 15SM BKN200 12/09 A2999 RMK CI2 SLP152=

CYYC;2005-07-15 12:00;METAR CYYC 151200Z 28004KT 40SM BKN180 BKN220 11/09 A2998 RMK AC2CI1 SLP150=

CYYC;2005-07-15 13:00;METAR CYYC 151300Z 33002KT 40SM BKN160 BKN220 13/10 A2997 RMK AC2CI1 SLP147=

CYYC;2005-07-15 14:00;METAR CYYC 151400Z 00000KT 40SM SCT140 BKN220 16/11 A2996 RMK AC3CI3 SLP144=

CYYC;2005-07-15 15:00;METAR CYYC 151500Z 17002KT 40SM SCT160 BKN220 17/10 A2995 RMK AC3CI3 SLP136=

CYYC;2005-07-15 16:00;METAR CYYC 151600Z 26003KT 40SM SCT160 OVC220 19/10 A2994 RMK AC3CI4 SLP134=

CYYC;2005-07-15 17:00;METAR CYYC 151700Z 20004KT 40SM SCT160 OVC220 19/10 A2991 RMK AC4CI3 SLP124=

CYYC;2005-07-15 18:00;METAR CYYC 151800Z 14006KT 40SM FEW060 BKN170 OVC220 20/11 A2989 RMK CU1AC5CI2 CU TR SLP118=

CYYC;2005-07-15 19:00;METAR CYYC 151900Z 15008KT 40SM FEW060 BKN170 BKN220 20/10 A2986 RMK CU1AC5CI2 CU TR SLP108=

CYYC;2005-07-15 20:00;METAR CYYC 152000Z 15008KT 40SM FEW060 BKN170 BKN220 19/11 A2985 RMK CU1AC5CI2 SLP104=

CYYC;2005-07-15 21:00;METAR CYYC 152100Z 14005KT 40SM FEW065 BKN180 OVC240 22/14 A2982 RMK CU1AC5CI2 SLP092=

CYYC;2005-07-15 22:00;METAR CYYC 152200Z 13006KT 40SM BKN120 OVC220 21/14 A2981 RMK AC5CI2 SLP089=

CYYC;2005-07-15 23:00;METAR CYYC 152300Z 08006KT 40SM BKN110 BKN160 OVC240 21/14 A2979 RMK AC6AC2CI1 SLP081=

CYYC;2005-07-16 00:00;METAR CYYC 160000Z 11004KT 20SM FEW060 BKN140 OVC220 22/16 A2976 RMK SC1AC6CI1 SLP076=

CYYC;2005-07-16 01:00;METAR CYYC 160100Z 10004KT 20SM FEW080 OVC110 20/16 A2975 RMK AC2AC6 VIRGA SW SLP071=

CYYC;2005-07-16 01:38;SPECI CYYC 160138Z 03007KT 20SM -RA FEW080 OVC100 RMK AC1AC7=

CYYC;2005-07-16 02:00;METAR CYYC 160200Z 03011KT 30SM -RA SCT040 OVC090 18/17 A2976 RMK SC3AC5 SLP074=

CYYC;2005-07-16 02:47;SPECI CYYC 160247Z 36006KT 30SM FEW040 SCT080 BKN130 RMK SC2AC2AC3=

CYYC;2005-07-16 03:00;METAR CYYC 160300Z 03005KT 30SM VCSH FEW040 SCT080 BKN130 17/16 A2976 RMK SC1AC3AC2 SLP074=

CYYC;2005-07-16 04:00;METAR CYYC 160400Z 01009KT 20SM FEW040 SCT100 BKN140 17/15 A2975 RMK SC1AC4AC2 SLP071=

CYYC;2005-07-16 05:00;METAR CYYC 160500Z 35007KT 15SM VCSH FEW030 SCT100 BKN150 16/15 A2977 RMK SC1AC4AC3 SLP076=

CYYC;2005-07-16 05:30;SPECI CYYC 160530Z 35008KT 10SM VCFG FEW008 SCT100 BKN130 RMK SF1AC3AC3=

CYYC;2005-07-16 06:00;METAR CYYC 160600Z 35006KT 10SM SCT080 BKN130 16/15 A2977 RMK AC4AC3 SLP075=

CYYC;2005-07-16 07:31;SPECI CYYC 160731Z 31006KT 10SM FEW007 SCT080 BKN110 RMK SF1AC2AC2=

CYYC;2005-07-16 07:48;SPECI CYYC 160748Z 31004KT 10SM BKN005 BKN110 RMK SF5AC2=

CYYC;2005-07-16 09:00;METAR CYYC 160900Z 35008KT 3SM BR OVC007 14/13 A2977 RMK ST8 SLP076=

CYYC;2005-07-16 09:18;SPECI CYYC 160918Z 33005KT 4SM BR SCT006 BKN010 BKN110 RMK ST3ST2AC2=

CYYC;2005-07-16 09:47;SPECI CYYC 160947Z 36007KT 4SM BR FEW010 BKN150 RMK ST2AC5=

CYYC;2005-07-16 10:00;METAR CYYC 161000Z 35008KT 5SM BR FEW010 BKN160 13/13 A2977 RMK SC1AC6 SLP076=

CYYC;2005-07-16 10:45;SPECI CYYC 161045Z 34009KT 4SM BR BKN007 BKN160 RMK ST5AC2=

CYYC;2005-07-16 11:00;METAR CYYC 161100Z 35012KT 4SM BR SCT008 BKN100 BKN160 13/13 A2978 RMK SC3AC2AC1 SLP077=

CYYC;2005-07-16 11:18;SPECI CYYC 161118Z 35011KT 4SM BR BKN007 OVC100 RMK ST7AC1=

CYYC;2005-07-16 11:42;SPECI CYYC 161142Z 35010G16KT 4SM -RA BR SCT007 BKN017 BKN080 RMK SF2SC3AC2=

CYYC;2005-07-16 12:00;METAR CYYC 161200Z 36012KT 10SM -RA FEW020 BKN072 BKN100 13/12 A2979 RMK SC1AC6AC1 PCPN VRY LGT SLP082=

CYYC;2005-07-16 13:00;METAR CYYC 161300Z 36014KT 12SM -RA FEW010 BKN070 12/11 A2980 RMK SF1AC7 SLP085=

CYYC;2005-07-16 13:50;SPECI CYYC 161350Z 35012KT 15SM -RA BKN009 OVC020 RMK SC5SC3=

CYYC;2005-07-16 14:00;METAR CYYC 161400Z 35012KT 15SM -RA BKN008 OVC020 12/11 A2980 RMK SC6SC2 SLP086=

CYYC;2005-07-16 15:00;METAR CYYC 161500Z 36017KT 15SM BKN008 BKN020 OVC060 12/11 A2980 RMK SC5SC2SC1 SLP095=

CYYC;2005-07-16 15:33;SPECI CYYC 161533Z 36017G22KT 20SM FEW008 SCT065 OVC084 RMK SC2SC2AC2=

CYYC;2005-07-16 16:00;METAR CYYC 161600Z 36017G22KT 15SM FEW008 BKN066 OVC085 13/10 A2980 RMK CU2AC4AC2 SLP095=

CYYC;2005-07-16 17:00;METAR CYYC 161700Z 36014G20KT 15SM SCT021 BKN064 OVC085 13/10 A2982 RMK CU3SC3AC2 SLP102=

CYYC;2005-07-16 18:00;METAR CYYC 161800Z 35016KT 20SM BKN031 OVC072 14/09 A2984 RMK CU6AC2 SH SW SLP109=

CYYC;2005-07-16 19:00;METAR CYYC 161900Z 34014KT 30SM FEW025 BKN031 OVC070 14/10 A2987 RMK SF1CU6AC1 SH SW SLP117=

CYYC;2005-07-16 20:00;METAR CYYC 162000Z 34014KT 30SM FEW031 BKN043 OVC070 14/09 A2989 RMK CU2SC5AC1 VIRGA SE+SW SLP123=

CYYC;2005-07-16 21:00;METAR CYYC 162100Z 36017KT 30SM FEW031 BKN065 BKN100 15/09 A2990 RMK CU2SC4AC1 VIRGA SLP130=

CYYC;2005-07-16 22:00;METAR CYYC 162200Z 35014KT 30SM FEW031 BKN075 BKN100 16/09 A2991 RMK CU2AC5AC1 TCU ASOCTD SLP134=

CYYC;2005-07-16 23:00;METAR CYYC 162300Z 35012G18KT 30SM FEW032 BKN078 BKN110 16/09 A2992 RMK CU1AC4AC1 TCU ASOCTD SLP137=

CYYC;2005-07-17 00:00;METAR CYYC 170000Z 35015KT 30SM FEW040 FEW078 FEW110 FEW240 17/08 A2993 RMK CU1AC1AC1CI1 TCU ASOCTD SLP139=

CYYC;2005-07-17 02:35;SPECI CYYC 170235Z 34018G24KT 20SM -SHRA BKN047 BKN090 RMK SC6AC2 CVCTV CLD EMBD=

CYYC;2005-07-17 03:00;METAR CYYC 170300Z 33009KT 20SM VCSH SCT040 BKN080 BKN110 BKN240 13/10 A2999 RMK SC3AC2AC2CI0 TCU ASOCTD SLP166=

CYYC;2005-07-17 04:00;METAR CYYC 170400Z 31009KT 20SM FEW040 SCT060 BKN100 BKN240 13/08 A3001 RMK SC2SC2AC2CI0 TCU ASOCTD SLP174=

CYYC;2005-07-17 05:00;METAR CYYC 170500Z 31009KT 15SM FEW050 SCT100 BKN140 13/08 A3004 RMK SC2AC2AC3 SLP181=

CYYC;2005-07-17 06:00;METAR CYYC 170600Z 32011KT 15SM FEW060 FEW100 BKN150 13/08 A3005 RMK SC1AC2AC5 SLP184=

CYYC;2005-07-17 07:00;METAR CYYC 170700Z 31008KT 15SM FEW040 SCT100 OVC140 12/08 A3006 RMK SC2AC2AC5 SLP188=

CYYC;2005-07-17 08:00;METAR CYYC 170800Z 34011G19KT 15SM FEW030 SCT053 OVC110 13/08 A3007 RMK SC2SC2AC5 SLP192=

CYYC;2005-07-17 09:00;METAR CYYC 170900Z 33014KT 15SM FEW030 BKN076 BKN110 12/08 A3008 RMK SC1AC4AC1 SLP197=

CYYC;2005-07-17 10:00;METAR CYYC 171000Z 31010KT 15SM FEW076 SCT110 11/08 A3009 RMK AC1AC1 SLP200=

CYYC;2005-07-17 11:00;METAR CYYC 171100Z 32005KT 15SM FEW080 09/08 A3010 RMK AC2 SLP201=

CYYC;2005-07-17 12:00;METAR CYYC 171200Z 31008KT 40SM BKN086 10/08 A3011 RMK AC5 SLP205=

CYYC;2005-07-17 13:00;METAR CYYC 171300Z 32011KT 40SM FEW060 BKN085 11/08 A3012 RMK CU1AC6 SLP209=

CYYC;2005-07-17 14:00;METAR CYYC 171400Z 33011KT 40SM FEW030 BKN083 13/09 A3014 RMK CU1AC6 SLP213=

CYYC;2005-07-17 15:00;METAR CYYC 171500Z 33013G18KT 40SM FEW030 BKN083 15/10 A3014 RMK CU1AC3 SLP214=

CYYC;2005-07-17 16:00;METAR CYYC 171600Z 34015G20KT 40SM FEW035 FEW080 16/09 A3015 RMK CU1AC1 SLP216=

CYYC;2005-07-17 17:00;METAR CYYC 171700Z 34015G20KT 40SM FEW040 FEW110 18/08 A3014 RMK CU1AC1 SLP215=

CYYC;2005-07-17 18:00;METAR CYYC 171800Z 35011KT 40SM FEW040 FEW110 19/10 A3015 RMK CU1AC1 SLP211=

CYYC;2005-07-17 19:00;METAR CYYC 171900Z 32011G18KT 40SM FEW048 BKN076 20/08 A3014 RMK CU1AC5 SLP208=

CYYC;2005-07-17 20:00;METAR CYYC 172000Z 32010G17KT 40SM FEW050 BKN071 20/08 A3013 RMK CU1AC6 SLP207=

CYYC;2005-07-17 21:00;METAR CYYC 172100Z 36006KT 40SM BKN058 BKN075 22/09 A3011 RMK CU5AC1 SLP198=

CYYC;2005-07-17 22:00;METAR CYYC 172200Z 34006KT 40SM FEW058 FEW080 22/09 A3009 RMK CU1AC1 SLP192=

CYYC;2005-07-17 23:00;METAR CYYC 172300Z 02004KT 40SM FEW060 FEW160 FEW260 22/08 A3008 RMK CU1AC1CI1 SLP187=

CYYC;2005-07-18 00:00;METAR CYYC 180000Z 05002KT 40SM FEW060 FEW160 FEW240 22/08 A3006 RMK CU1AC1CI1 SLP180=

CYYC;2005-07-18 03:00;METAR CYYC 180300Z 14011KT 30SM FEW080 FEW240 19/09 A3002 RMK AC1CI1 SLP164=

CYYC;2005-07-18 04:00;METAR CYYC 180400Z 16010KT 30SM FEW090 FEW240 18/10 A3001 RMK AC1CI1 SLP161=

CYYC;2005-07-18 05:00;METAR CYYC 180500Z 17007KT 15SM FEW100 16/10 A3001 RMK AC1 SLP160=

CYYC;2005-07-18 06:00;METAR CYYC 180600Z 18007KT 15SM FEW100 FEW240 16/09 A2999 RMK AC1CI1 SLP153=

CYYC;2005-07-18 07:00;METAR CYYC 180700Z 18005KT 15SM FEW100 13/10 A2998 RMK AC1 AURBO SLP150=

CYYC;2005-07-18 08:00;METAR CYYC 180800Z 19005KT 15SM FEW240 13/10 A2997 RMK CI1 SLP147=

CYYC;2005-07-18 10:00;METAR CYYC 181000Z 21004KT 15SM FEW100 11/09 A2994 RMK AC1 SLP137=

CYYC;2005-07-18 11:00;METAR CYYC 181100Z 00000KT 15SM FEW100 FEW240 11/09 A2992 RMK AC1CI1 SLP131=

CYYC;2005-07-18 12:00;METAR CYYC 181200Z 00000KT 40SM FEW100 10/08 A2990 RMK AC1 SLP126=

CYYC;2005-07-18 13:00;METAR CYYC 181300Z 19004KT 40SM FEW030 FEW100 FEW140 13/09 A2989 RMK CU1AC1AC1 SLP123=

CYYC;2005-07-18 14:00;METAR CYYC 181400Z 17003KT 40SM FEW140 FEW220 17/10 A2987 RMK AC1CI1 SLP116=

CYYC;2005-07-18 15:00;METAR CYYC 181500Z 21005KT 40SM FEW160 FEW220 19/09 A2985 RMK AC1CI1 SLP099=

CYYC;2005-07-18 16:00;METAR CYYC 181600Z 26011KT 40SM FEW040 FEW160 FEW220 21/08 A2983 RMK CU1AC1CI1 SLP093=

CYYC;2005-07-18 17:00;METAR CYYC 181700Z 26011KT 40SM FEW045 FEW160 FEW220 23/09 A2980 RMK CU1AC1CI1 SLP085=

CYYC;2005-07-18 18:00;METAR CYYC 181800Z 23011KT 40SM FEW050 FEW160 24/10 A2978 RMK CU1AC1 SLP071=

CYYC;2005-07-18 19:00;METAR CYYC 181900Z 23010G16KT 40SM FEW065 FEW086 FEW230 25/09 A2975 RMK CU1AC2CI1 SLP063=

CYYC;2005-07-18 20:00;METAR CYYC 182000Z 18010KT 40SM FEW065 FEW090 FEW230 26/10 A2973 RMK CU1AC1CI1 SLP056=

CYYC;2005-07-18 21:00;METAR CYYC 182100Z 34003G17KT 40SM FEW068 FEW100 FEW240 26/08 A2971 RMK CU2AC1CI1 SLP051=

CYYC;2005-07-18 22:00;METAR CYYC 182200Z 27013KT 40SM FEW070 FEW095 FEW240 28/08 A2969 RMK CU2AC1CI1 SLP045=

CYYC;2005-07-18 22:24;SPECI CYYC 182224Z 36019G28KT 35SM FEW070 FEW095 FEW240 RMK CU1AC1CI1 WSHFT 2216Z=

CYYC;2005-07-18 23:00;METAR CYYC 182300Z 36024KT 30SM FEW070 FEW095 FEW120 21/14 A2971 RMK CU1AC1AC1 SLP053=

CYYC;2005-07-19 01:00;METAR CYYC 190100Z 01019G24KT 30SM BKN025 BKN070 BKN100 15/10 A2978 RMK SC5CU1AC1 SLP090=

CYYC;2005-07-19 02:00;METAR CYYC 190200Z 02014G19KT 30SM SCT025 BKN120 14/09 A2980 RMK SC2AC2 SLP096=

CYYC;2005-07-19 04:00;METAR CYYC 190400Z 33003KT 20SM FEW045 BKN110 13/09 A2980 RMK SC2AC3 SLP090=

CYYC;2005-07-19 05:00;METAR CYYC 190500Z 32003KT 15SM FEW038 BKN090 13/09 A2980 RMK SC2AC2 SLP091=

CYYC;2005-07-19 06:00;METAR CYYC 190600Z 36007KT 15SM FEW040 FEW072 BKN110 12/09 A2980 RMK SC1AC2AC2 SLP086=

CYYC;2005-07-19 07:00;METAR CYYC 190700Z 35004KT 15SM BKN078 13/09 A2981 RMK AC6 SLP087=

CYYC;2005-07-19 07:43;SPECI CYYC 190743Z 34004KT 12SM -RA BKN044 OVC080 RMK SC6AC2=

CYYC;2005-07-19 08:00;METAR CYYC 190800Z 36003KT 15SM -RA BKN044 OVC089 11/10 A2981 RMK SC5AC2 SLP088=

CYYC;2005-07-19 09:00;METAR CYYC 190900Z 21003KT 15SM -RA FEW043 BKN065 OVC090 11/10 A2981 RMK SC2SC5AC1 SLP088=

CYYC;2005-07-19 10:00;METAR CYYC 191000Z 18004KT 15SM -RA BKN047 OVC092 11/10 A2981 RMK SC6AC2 SLP086=

CYYC;2005-07-19 11:00;METAR CYYC 191100Z 16004KT 15SM -RA BKN047 OVC080 11/11 A2981 RMK SC6AC2 SLP086=

CYYC;2005-07-19 11:22;SPECI CYYC 191122Z 14004KT 15SM OVC035 RMK SC8=

CYYC;2005-07-19 12:00;METAR CYYC 191200Z 00000KT 20SM OVC033 11/10 A2982 RMK SC8 SLP101=

CYYC;2005-07-19 13:00;METAR CYYC 191300Z 16011KT 20SM SCT040 BKN090 BKN100 11/09 A2979 RMK SC4AC2AC2 SLP092=

CYYC;2005-07-19 13:46;SPECI CYYC 191346Z 15005KT 30SM -RA FEW035 BKN090 RMK SC2AC5 PCPN VRY LGT=

CYYC;2005-07-19 14:00;METAR CYYC 191400Z 14006KT 30SM -RA FEW035 BKN090 11/09 A2982 RMK SC2AC6 SLP100=

CYYC;2005-07-19 14:38;SPECI CYYC 191438Z 16004KT 30SM FEW020 FEW090 BKN100 RMK CU1ACC1AC6=

CYYC;2005-07-19 15:00;METAR CYYC 191500Z 14005KT 30SM FEW020 FEW090 BKN098 12/10 A2981 RMK CU1ACC1AC6 SLP102=

CYYC;2005-07-19 15:21;SPECI CYYC 191521Z 14005KT 30SM BKN014 BKN090 RMK CU5AC2=

CYYC;2005-07-19 17:00;METAR CYYC 191700Z 17007KT 30SM BKN020 BKN110 16/11 A2981 RMK CU5AC2 SHS NW-NE / TCU ASOCTD SLP104=

CYYC;2005-07-19 18:00;METAR CYYC 191800Z 16002KT 30SM FEW035 FEW110 16/10 A2981 RMK CU1AC1 TCU ASOCTD NW SLP099=

CYYC;2005-07-19 19:00;METAR CYYC 191900Z 20007KT 30SM BKN037 BKN060 BKN110 19/12 A2981 RMK CU5SC1AC1 TCU ASOCTD SLP098=

CYYC;2005-07-19 20:00;METAR CYYC 192000Z 03007KT 30SM FEW037TCU SCT070 SCT110 18/12 A2981 RMK TCU2AC1AC1 SLP100=

CYYC;2005-07-19 21:00;METAR CYYC 192100Z 04011G16KT 30SM FEW037TCU SCT070 SCT110 18/13 A2983 RMK TCU2AC1AC1 SLP103=

CYYC;2005-07-20 01:00;METAR CYYC 200100Z 04010G15KT 30SM VCSH BKN042TCU BKN070 BKN120 17/10 A2988 RMK TCU5AC2AC1 SHS SE-SW+NW SLP124=

CYYC;2005-07-20 02:00;METAR CYYC 200200Z 02009G15KT 30SM VCSH FEW045 SCT060CB BKN073 OVC120 17/10 A2991 RMK SC2CB2AC2AC1 SHS SE-SW+NW SLP131=

CYYC;2005-07-20 03:00;METAR CYYC 200300Z 00000KT 20SM VCSH FEW045 SCT065CB BKN074 OVC120 15/11 A2993 RMK SC1CB2AC3AC1 SHS SW-NW SLP144=

CYYC;2005-07-20 03:27;SPECI CYYC 200327Z 03010KT 20SM -SHRA FEW060 SCT070CB BKN080 RMK SC1CB2AC3=

CYYC;2005-07-20 04:00;METAR CYYC 200400Z 04006KT 20SM -SHRA FEW060 BKN073 OVC090 13/09 A2997 RMK SC2AC4AC1 SLP156=

CYYC;2005-07-20 05:00;METAR CYYC 200500Z 00000KT 15SM FEW065 BKN080 BKN120 12/08 A3000 RMK SC1AC4AC1 SLP165=

CYYC;2005-07-20 06:00;METAR CYYC 200600Z 30003KT 15SM BKN064 BKN080 OVC120 11/08 A3002 RMK SC5AC2AC1 SLP173=

CYYC;2005-07-20 07:00;METAR CYYC 200700Z 00000KT 15SM OVC058 13/08 A3003 RMK SC7 SLP177=

CYYC;2005-07-20 08:00;METAR CYYC 200800Z 00000KT 15SM OVC059 12/08 A3005 RMK SC7 SLP181=

CYYC;2005-07-20 09:00;METAR CYYC 200900Z 35004KT 15SM SCT060 OVC080 11/08 A3004 RMK SC4AC3 SLP177=

CYYC;2005-07-20 10:00;METAR CYYC 201000Z 03004KT 15SM FEW060 OVC075 10/08 A3004 RMK SC2AC6 SLP178=

CYYC;2005-07-20 11:00;METAR CYYC 201100Z 08002KT 15SM BKN057 OVC080 10/09 A3004 RMK SC5AC2 ACC ASOCTD SLP177=

CYYC;2005-07-20 12:00;METAR CYYC 201200Z 13004KT 20SM OVC054 11/09 A3003 RMK SC8 SLP177=

CYYC;2005-07-20 13:00;METAR CYYC 201300Z 17004KT 30SM OVC045 12/09 A3002 RMK SC8 SLP174=

CYYC;2005-07-20 14:00;METAR CYYC 201400Z 16007KT 30SM FEW033 OVC041 13/08 A3002 RMK SC1SC7 SLP173=

CYYC;2005-07-20 15:00;METAR CYYC 201500Z 15009KT 30SM FEW038 SCT095 14/09 A3001 RMK SC1AC1 SLP167=

CYYC;2005-07-20 17:00;METAR CYYC 201700Z 17014G20KT 30SM BKN023 16/11 A2998 RMK CU4 SC ASOCTD SLP158=

CYYC;2005-07-20 18:00;METAR CYYC 201800Z 17014G19KT 30SM BKN026 17/11 A2995 RMK SC7 SLP150=

CYYC;2005-07-20 19:00;METAR CYYC 201900Z 15017KT 30SM BKN028 18/12 A2993 RMK SC6 SLP144=

CYYC;2005-07-20 20:00;METAR CYYC 202000Z 14012G19KT 30SM BKN029 19/13 A2993 RMK SC6 SLP143=

CYYC;2005-07-20 21:00;METAR CYYC 202100Z 13012KT 30SM SCT031 SCT060TCU 20/13 A2991 RMK SC4TCU1 TCU DIST NW SLP132=

CYYC;2005-07-20 22:00;METAR CYYC 202200Z 13010G16KT 30SM SCT035 SCT050TCU 22/14 A2990 RMK SC1TCU1 TCU TR DIST NW SLP127=

CYYC;2005-07-20 23:00;METAR CYYC 202300Z 16008G19KT 30SM FEW035 FEW050CB 22/14 A2988 RMK SC1CB1 SC TR SLP123=

CYYC;2005-07-21 00:00;METAR CYYC 210000Z 16009KT 30SM FEW040CB FEW080 23/14 A2987 RMK CB1AC1 CB NW-NE SLP115=

CYYC;2005-07-21 01:00;METAR CYYC 210100Z 19007KT 30SM FEW040CB FEW080 23/14 A2988 RMK CB1AC1 CB N-E SLP116=

CYYC;2005-07-21 02:00;METAR CYYC 210200Z 06013G18KT 40SM FEW040TCU FEW060CB FEW090 18/13 A2990 RMK TCU1CB2AC0 CB E/ TCU TR SLP124=

CYYC;2005-07-21 04:00;METAR CYYC 210400Z 36010KT 20SM FEW015 BKN080 OVC120 15/13 A3001 RMK SC2AC3AC1 CB ASOCTD E SLP164=

CYYC;2005-07-21 05:00;METAR CYYC 210500Z 36008KT 15SM BKN044 BKN080 OVC120 14/12 A3004 RMK SC5AC2AC1 SLP173=

CYYC;2005-07-21 06:00;METAR CYYC 210600Z 35008KT 15SM FEW045CB BKN060 BKN090 13/11 A3008 RMK CB1SC2AC2 CB+ LTGCC E SLP193=

CYYC;2005-07-21 07:00;METAR CYYC 210700Z 36012KT 15SM FEW030 BKN047 BKN080 12/11 A3012 RMK SC1SC4AC2 SLP205=

CYYC;2005-07-21 09:00;METAR CYYC 210900Z 36007KT 15SM BKN039 OVC080 12/11 A3015 RMK SC6AC2 SLP213=

CYYC;2005-07-21 10:00;METAR CYYC 211000Z 01011KT 15SM SCT044 BKN065 OVC080 12/11 A3017 RMK SC3SC2AC1 SLP218=

CYYC;2005-07-21 11:00;METAR CYYC 211100Z 36004KT 20SM BKN049 OVC070 11/11 A3018 RMK SC5AC2 SLP222=

CYYC;2005-07-21 12:00;METAR CYYC 211200Z 35008KT 4SM BR BKN003 OVC040 10/10 A3021 RMK ST6SC2 VIS N-E 2 MILES IN FOG SLP233=

CYYC;2005-07-21 12:48;SPECI CYYC 211248Z 34005KT 10SM FEW005 FEW040 SCT080 RMK SF1SC2AC1=

CYYC;2005-07-21 13:00;METAR CYYC 211300Z 33005KT 12SM FEW030 FEW060 BKN080 11/10 A3022 RMK SC2SC1AC1 SLP236=

CYYC;2005-07-21 14:00;METAR CYYC 211400Z 32006KT 20SM FEW020 BKN040 13/10 A3024 RMK SC1SC6 SLP240=

CYYC;2005-07-21 15:00;METAR CYYC 211500Z 01004KT 20SM FEW020 BKN048 14/10 A3025 RMK SC1SC6 SLP250=

CYYC;2005-07-21 16:00;METAR CYYC 211600Z 05004KT 20SM FEW020 BKN060 15/11 A3026 RMK SC1SC6 SLP251=

CYYC;2005-07-21 17:00;METAR CYYC 211700Z 13002KT 20SM SCT028 BKN060 15/09 A3025 RMK SC3SC2 SLP250=

CYYC;2005-07-21 18:00;METAR CYYC 211800Z 10006KT 20SM BKN030 BKN060 16/10 A3026 RMK SC7SC1 SLP254=

CYYC;2005-07-21 19:00;METAR CYYC 211900Z 10007KT 20SM BKN033 BKN050 18/11 A3025 RMK SC5SC2 SLP251=

CYYC;2005-07-21 20:00;METAR CYYC 212000Z 13009KT 20SM BKN036 BKN050 18/10 A3023 RMK SC6SC1 SLP247=

CYYC;2005-07-21 21:00;METAR CYYC 212100Z 13007KT 20SM BKN034 18/11 A3023 RMK SC7 SLP241=

CYYC;2005-07-21 23:00;METAR CYYC 212300Z 13012KT 20SM FEW034 BKN042 19/12 A3018 RMK SC1SC6 SLP228=

CYYC;2005-07-22 00:00;METAR CYYC 220000Z 13011KT 20SM FEW034 BKN040 20/13 A3016 RMK SC1SC6 SLP218=

CYYC;2005-07-22 01:00;METAR CYYC 220100Z 13010G15KT 20SM FEW034 BKN040 20/13 A3014 RMK SC1SC5 SLP212=

CYYC;2005-07-22 02:00;METAR CYYC 220200Z 13014KT 20SM SCT036 BKN060 19/13 A3012 RMK SC3SC2 VIRGA NW SLP206=

CYYC;2005-07-22 03:00;METAR CYYC 220300Z 13010G15KT 20SM FEW040 FEW090 SCT220 18/13 A3012 RMK SC1AC2CI0 SLP202=

CYYC;2005-07-22 04:00;METAR CYYC 220400Z 14012KT 20SM FEW060 FEW090 FEW240 17/13 A3012 RMK SC1AC1CI0 SLP202=

CYYC;2005-07-22 05:00;METAR CYYC 220500Z 14011KT 15SM FEW090 FEW240 17/12 A3012 RMK AC1CI0 SLP201=

CYYC;2005-07-22 07:00;METAR CYYC 220700Z 17007KT 15SM FEW120 FEW240 14/12 A3011 RMK AC1CI1 SLP201=

CYYC;2005-07-22 08:00;METAR CYYC 220800Z 14004KT 15SM FEW120 FEW240 13/11 A3009 RMK AC1CI0 SLP196=

CYYC;2005-07-22 09:00;METAR CYYC 220900Z 13003KT 15SM FEW120 FEW240 13/11 A3006 RMK AC1CI1 SLP182=

CYYC;2005-07-22 10:00;METAR CYYC 221000Z 12006KT 15SM FEW120 FEW240 12/10 A3004 RMK AC1CI1 SLP174=

CYYC;2005-07-22 11:00;METAR CYYC 221100Z 00000KT 15SM FEW140 BKN220 13/11 A3002 RMK AC2CI2 SLP170=

CYYC;2005-07-22 12:00;METAR CYYC 221200Z 12005KT 20SM FEW140 OVC220 12/10 A3001 RMK AC2CI4 SLP164=

CYYC;2005-07-22 13:00;METAR CYYC 221300Z 20002KT 30SM SCT180 OVC220 12/11 A3000 RMK AC3CI3 SLP162=

CYYC;2005-07-22 14:00;METAR CYYC 221400Z 19003KT 30SM BKN180 OVC240 14/12 A2999 RMK AC6CI1 SLP158=

CYYC;2005-07-22 15:00;METAR CYYC 221500Z 23004KT 30SM BKN140 OVC180 14/13 A2998 RMK AC6AC2 SLP153=

CYYC;2005-07-22 17:00;METAR CYYC 221700Z 27003KT 30SM FEW040 SCT090 BKN120 16/13 A2996 RMK SC1AC3AC3 VIRGA SLP146=

CYYC;2005-07-22 18:00;METAR CYYC 221800Z 23005KT 30SM FEW060 SCT110 BKN140 18/14 A2992 RMK SC1AC3AC3 VIRGA SLP134=

CYYC;2005-07-22 19:00;METAR CYYC 221900Z 19009KT 40SM FEW040 SCT100 BKN130 21/12 A2989 RMK SC1AC4AC3 VIRGA SLP125=

CYYC;2005-07-22 20:00;METAR CYYC 222000Z 18008KT 30SM FEW030 BKN100 OVC130 18/13 A2990 RMK CU1AC6AC2 VIRGA E SLP128=

CYYC;2005-07-22 21:00;METAR CYYC 222100Z 15009KT 30SM FEW040 BKN110 OVC150 19/14 A2988 RMK SC1AC6AC2 SLP117=

CYYC;2005-07-22 22:00;METAR CYYC 222200Z 15012KT 30SM -RA FEW060 BKN100 OVC120 19/14 A2987 RMK SC1AC4AC3 PCPN VRY LGT SLP114=

CYYC;2005-07-22 22:15;SPECI CYYC 222215Z 15013G18KT 30SM FEW060 BKN100 OVC120 RMK SC1AC5AC2=

CYYC;2005-07-23 00:00;METAR CYYC 230000Z 18012KT 30SM BKN110 BKN130 22/13 A2979 RMK AC5AC1 SLP085=

CYYC;2005-07-23 01:00;METAR CYYC 230100Z 16012KT 30SM BKN100 BKN140 20/12 A2977 RMK AC5AC2 SLP078=

CYYC;2005-07-23 01:45;SPECI CYYC 230145Z 16008KT 20SM BKN097 BKN140 19/ RMK AC5AC2=

CYYC;2005-07-23 03:00;METAR CYYC 230300Z 15005KT 20SM FEW080 FEW095 BKN140 19/14 A2972 RMK AC1AC2AC6 SLP061=

CYYC;2005-07-23 04:00;METAR CYYC 230400Z 18005KT 20SM FEW080 BKN095 BKN140 18/14 A2972 RMK AC1AC2AC1 SLP062=

CYYC;2005-07-23 05:00;METAR CYYC 230500Z 00000KT 15SM FEW140 17/13 A2972 RMK AC2 SLP062=

CYYC;2005-07-23 07:00;METAR CYYC 230700Z 19003KT 15SM FEW075 14/11 A2972 RMK AC2 SLP064=

CYYC;2005-07-23 08:00;METAR CYYC 230800Z 29015KT 15SM FEW075 FEW120 19/09 A2973 RMK AC1AC1 SLP065=

CYYC;2005-07-23 09:00;METAR CYYC 230900Z 27014KT 15SM FEW086 FEW120 18/08 A2976 RMK AC1AC1 LWR AC TR SLP070=

CYYC;2005-07-23 10:00;METAR CYYC 231000Z 29011G17KT 15SM FEW086 17/07 A2979 RMK AC1 SLP080=

CYYC;2005-07-23 11:00;METAR CYYC 231100Z 30008KT 15SM FEW080 FEW120 13/08 A2982 RMK AC1AC1 SLP089=

CYYC;2005-07-23 13:00;METAR CYYC 231300Z 36004KT 40SM FEW080 FEW120 13/08 A2986 RMK AC1AC1 SLP108=

CYYC;2005-07-23 14:00;METAR CYYC 231400Z 04004KT 40SM FEW035 FEW120 16/11 A2989 RMK CU1AC1 SLP116=

CYYC;2005-07-23 15:00;METAR CYYC 231500Z 03005KT 40SM FEW040 FEW090 FEW120 17/11 A2989 RMK CU1AC1AC1 SLP119=

CYYC;2005-07-23 16:00;METAR CYYC 231600Z 08003KT 40SM FEW040 FEW088 FEW140 19/10 A2991 RMK CU1AC1AC1 SLP123=

CYYC;2005-07-23 18:00;METAR CYYC 231800Z 27019G24KT 40SM FEW060 FEW075 FEW140 22/06 A2989 RMK CU1AC1AC1 SLP115=

CYYC;2005-07-23 19:00;METAR CYYC 231900Z 28021G27KT 40SM FEW065 FEW080 23/06 A2990 RMK CU1AC1 SLP119=

CYYC;2005-07-23 20:00;METAR CYYC 232000Z 25018KT 40SM FEW065 FEW080 24/05 A2989 RMK CU1AC1 SLP116=

CYYC;2005-07-23 21:00;METAR CYYC 232100Z 28015G25KT 40SM FEW065 FEW082 24/05 A2991 RMK CU1AC1 SLP116=

CYYC;2005-07-23 22:00;METAR CYYC 232200Z 28022G27KT 40SM FEW070 FEW090 24/04 A2991 RMK CU1AC1 CB DIST N SLP118=

CYYC;2005-07-23 23:00;METAR CYYC 232300Z 28019G25KT 40SM FEW070 FEW080 24/04 A2993 RMK CU1AC1 CB DIST NE SLP123=

CYYC;2005-07-24 00:00;METAR CYYC 240000Z 31017G27KT 40SM FEW070 FEW080 23/04 A2994 RMK CU1AC1 CB DIST N+NE SLP133=

CYYC;2005-07-24 01:00;METAR CYYC 240100Z 31019KT 40SM FEW070 FEW080 FEW120 23/03 A2994 RMK CU1AC1AC1 CB DIST NE SLP135=

CYYC;2005-07-24 02:00;METAR CYYC 240200Z 32011KT 40SM FEW070 FEW120 21/04 A2997 RMK AC1AC2 CB=

CYYC;2005-07-24 03:00;METAR CYYC 240300Z 04009KT 40SM FEW070 BKN120 16/09 A2999 RMK AC1AC5 CVTV CLD DIST N-NE SLP156=

CYYC;2005-07-24 04:00;METAR CYYC 240400Z 03008KT 20SM FEW040 BKN120 15/10 A3002 RMK SC1AC6 SLP163=

CYYC;2005-07-24 06:00;METAR CYYC 240600Z 05007KT 15SM BKN120 13/09 A3006 RMK AC4 SLP179=

CYYC;2005-07-24 09:00;METAR CYYC 240900Z 35005KT 15SM FEW048 BKN060 11/09 A3009 RMK SC1SC6 SLP189=

CYYC;2005-07-24 10:00;METAR CYYC 241000Z 01002KT 15SM FEW048 SCT060 BKN100 11/08 A3009 RMK SC1SC2AC1 SLP190=

CYYC;2005-07-24 11:00;METAR CYYC 241100Z 05006KT 15SM BKN045 BKN060 10/08 A3008 RMK SC5SC1 SLP186=

CYYC;2005-07-24 12:00;METAR CYYC 241200Z 05009KT 20SM FEW030 BKN047 BKN060 10/08 A3009 RMK SC1SC7SC1 SLP190=

CYYC;2005-07-24 13:00;METAR CYYC 241300Z 04010KT 20SM FEW010 BKN021 BKN045 10/07 A3010 RMK SC1SC5SC2 SLP192=

CYYC;2005-07-24 14:00;METAR CYYC 241400Z 04011KT 20SM FEW010 BKN022 OVC040 10/07 A3010 RMK SC1SC6SC1 SLP193=

CYYC;2005-07-24 14:45;SPECI CYYC 241445Z 01018KT 20SM VCSH BKN009 OVC022 09/ RMK SC5SC3 SH N=

CYYC;2005-07-24 14:51;SPECI CYYC 241451Z 02015G22KT 25SM -RA BKN010 OVC021 09/ RMK SC5SC3=

CYYC;2005-07-24 15:00;METAR CYYC 241500Z 01014G20KT 10SM -RA BKN009 OVC020 09/07 A3013 RMK SC5SC3 SLP216=

CYYC;2005-07-24 15:35;SPECI CYYC 241535Z 02015G20KT 5SM -RA BR SCT009 BKN022 OVC032 07/ RMK SC3SC4SC1=

CYYC;2005-07-24 16:00;METAR CYYC 241600Z 02012KT 4SM -RA BR SCT007 BKN026 OVC033 07/06 A3014 RMK SC3SC2SC3 SLP220=

CYYC;2005-07-24 17:00;METAR CYYC 241700Z 03011KT 4SM -RA BR FEW008 BKN036 OVC059 07/07 A3015 RMK SC2SC2SC3 SLP223=

CYYC;2005-07-24 17:52;SPECI CYYC 241752Z 02010KT 15SM FEW008 BKN017 OVC034 09/ RMK SC1SC6SC1=

CYYC;2005-07-24 18:00;METAR CYYC 241800Z 01009KT 20SM FEW010 BKN018 OVC039 09/07 A3017 RMK SC2SC6SC1 SLP235=

CYYC;2005-07-24 18:36;SPECI CYYC 241836Z 01010KT 15SM -RA FEW010 BKN025 OVC040 09/ RMK SC2SC6SC1=

CYYC;2005-07-24 19:00;METAR CYYC 241900Z 01009KT 15SM -RA FEW010 SCT030 OVC038 10/08 A3018 RMK SC2SC2SC4 PCPN VRY LGT SLP237=

CYYC;2005-07-24 19:19;SPECI CYYC 241919Z 35007KT 20SM FEW010 SCT020 OVC038 10/ RMK SC2SC2SC4=

CYYC;2005-07-24 21:00;METAR CYYC 242100Z 05002KT 30SM FEW028 FEW040 SCT080 13/07 A3015 RMK CU2SC1AC1 SLP225=

CYYC;2005-07-24 22:00;METAR CYYC 242200Z 34007KT 30SM FEW032 FEW050 14/06 A3015 RMK CU2SC1 SLP225=

CYYC;2005-07-24 23:00;METAR CYYC 242300Z 06005KT 30SM FEW032 FEW050 FEW180 16/08 A3015 RMK CU2SC1AC1 SLP223=

CYYC;2005-07-25 00:00;METAR CYYC 250000Z 07004KT 30SM FEW032 SCT056 SCT180 15/06 A3015 RMK CU2SC2AC1 SLP221=

CYYC;2005-07-25 01:00;METAR CYYC 250100Z 03002KT 30SM FEW032 BKN063 BKN120 14/09 A3015 RMK CU2SC3AC1 SLP222=

CYYC;2005-07-25 03:00;METAR CYYC 250300Z 05003KT 20SM FEW035 BKN041 BKN056 BKN120 13/08 A3018 RMK CF1SC6SC1AC1 SLP239=

CYYC;2005-07-25 04:00;METAR CYYC 250400Z 03016KT 15SM FEW028 BKN045 OVC065 10/07 A3022 RMK SC1SC7SC1 SHS NW-E SLP250=

CYYC;2005-07-25 05:00;METAR CYYC 250500Z 33010KT 15SM BKN051 10/07 A3023 RMK SC5 SLP253=

CYYC;2005-07-25 06:00;METAR CYYC 250600Z 24006KT 15SM FEW057 BKN090 10/06 A3022 RMK SC2AC4 SLP254=

CYYC;2005-07-25 07:00;METAR CYYC 250700Z 29003KT 15SM FEW048 BKN091 09/06 A3023 RMK SC1AC3 SLP258=

CYYC;2005-07-25 08:00;METAR CYYC 250800Z 28003KT 15SM FEW095 FEW180 08/05 A3023 RMK AC1AC0 SLP258=

CYYC;2005-07-25 09:00;METAR CYYC 250900Z 00000KT 15SM FEW100 FEW180 08/05 A3023 RMK AC1AC0 SLP255=

CYYC;2005-07-25 10:00;METAR CYYC 251000Z 34003KT 15SM FEW085 FEW180 07/05 A3022 RMK AC0AC1 SLP254=

CYYC;2005-07-25 11:00;METAR CYYC 251100Z 30007KT 15SM FEW085 FEW160 05/03 A3023 RMK AC1AC1 SLP257=

CYYC;2005-07-25 12:00;METAR CYYC 251200Z 00000KT 40SM FEW085 FEW220 05/03 A3024 RMK AC1CI1 SLP260=

CYYC;2005-07-25 13:00;METAR CYYC 251300Z 00000KT 40SM FEW085 FEW220 07/05 A3024 RMK AC1CI1 AC TR SLP260=

CYYC;2005-07-25 14:00;METAR CYYC 251400Z 32002KT 40SM FEW050 FEW090 FEW240 09/06 A3024 RMK SC1AC1CI1 AC+CI TR SLP261=

CYYC;2005-07-25 15:00;METAR CYYC 251500Z 33004KT 40SM FEW050 FEW090 FEW240 12/04 A3025 RMK CU1AC1CI1 AC+CI TR SLP257=

CYYC;2005-07-25 17:00;METAR CYYC 251700Z 36006KT 40SM FEW050 16/05 A3025 RMK CU1 SLP256=

CYYC;2005-07-25 21:00;METAR CYYC 252100Z 00000KT 40SM SCT060 19/03 A3025 RMK CU3 SLP254=

CYYC;2005-07-25 22:00;METAR CYYC 252200Z 06002KT 40SM SCT065 17/03 A3023 RMK CU3 SLP249=

CYYC;2005-07-25 23:00;METAR CYYC 252300Z 04004KT 40SM FEW065 19/05 A3021 RMK CU2 SLP243=

CYYC;2005-07-26 00:00;METAR CYYC 260000Z 10005KT 40SM FEW065 18/05 A3019 RMK CU1 SLP239=

CYYC;2005-07-26 01:00;METAR CYYC 260100Z 16006KT 40SM FEW065 FEW130 FEW220 18/04 A3018 RMK CU1AC1CI1 CU+CI TR SLP236=

CYYC;2005-07-26 04:00;METAR CYYC 260400Z 11005KT 30SM FEW040CB SCT110 SCT160 14/07 A3022 RMK CB1AC3AC1 LTGCG/SHS NW SLP242=

CYYC;2005-07-26 04:50;SPECI CYYC 260450Z 08004KT 15SM TS FEW040 SCT063CB BKN080 14/ RMK SC1CB2AC3 LTGCG/SHS NW=

CYYC;2005-07-26 05:00;METAR CYYC 260500Z 07004KT 15SM TS FEW050 BKN063CB BKN100 13/08 A3024 RMK SC2CB3AC2 LTGCG W-N / SHS NW SLP248=

CYYC;2005-07-26 05:15;SPECI CYYC 260515Z 03012KT 15SM -TSRA SCT050 BKN063CB 14/ RMK SC3CB4 LTGCG W-N / WSHFT 0501Z=

CYYC;2005-07-26 06:28;SPECI CYYC 260628Z 10008KT 15SM -SHRA FEW040 SCT060 BKN079 BKN095 12/ RETS RMK SC1SC3AC2AC1 CB DIST SE / PCPN VRY LGT=

CYYC;2005-07-26 07:00;METAR CYYC 260700Z 31007KT 10SM -SHRA SCT040 OVC062 11/10 A3029 RETS RMK SC3SC5 SLP265=

CYYC;2005-07-26 08:00;METAR CYYC 260800Z 17011KT 15SM VCSH FEW040 BKN065 BKN082 11/09 A3025 RMK SC2SC2AC1 SHS E SLP252=

CYYC;2005-07-26 09:00;METAR CYYC 260900Z 25005KT 15SM FEW040 SCT073 10/08 A3025 RMK SC1AC3 SLP252=

CYYC;2005-07-26 10:00;METAR CYYC 261000Z 23005KT 15SM FEW040 FEW080 10/08 A3024 RMK SC1AC1 SLP249=

CYYC;2005-07-26 11:00;METAR CYYC 261100Z 21004KT 15SM FEW080 FEW140 08/07 A3024 RMK AC1AC1 SLP249=

CYYC;2005-07-26 12:00;METAR CYYC 261200Z 21003KT 40SM FEW080 FEW140 FEW260 08/07 A3023 RMK AC1AC1CI0 SLP249=

CYYC;2005-07-26 13:00;METAR CYYC 261300Z 22005KT 40SM FEW085 FEW140 FEW260 10/07 A3022 RMK AC1AC1CI0 SLP246=

CYYC;2005-07-26 14:00;METAR CYYC 261400Z 25004KT 40SM FEW100 FEW260 12/08 A3022 RMK AC1CI0 SLP245=

CYYC;2005-07-26 15:00;METAR CYYC 261500Z 25006KT 40SM FEW100 FEW260 14/09 A3022 RMK AC1CI0 AC TR SLP240=

CYYC;2005-07-26 16:00;METAR CYYC 261600Z 22003KT 40SM FEW050 BKN260 16/10 A3022 RMK CU1CI1 CU TR SLP240=

CYYC;2005-07-26 17:00;METAR CYYC 261700Z 36002KT 40SM FEW050 BKN250 18/10 A3021 RMK CU1CI2 FEW ACSL PRSNT S SLP238=

CYYC;2005-07-26 18:00;METAR CYYC 261800Z 01006KT 40SM FEW050 FEW170 BKN250 19/10 A3019 RMK CU1AC1CI2 SLP230=

CYYC;2005-07-26 19:00;METAR CYYC 261900Z 36007KT 40SM FEW050 FEW110 BKN250 20/07 A3020 RMK CU1AC1CI2 SLP232=

CYYC;2005-07-26 20:00;METAR CYYC 262000Z 33004KT 40SM FEW060 SCT120 BKN250 20/06 A3018 RMK CU2AC2CI2 SLP225=

CYYC;2005-07-26 21:00;METAR CYYC 262100Z 05005KT 40SM FEW060 SCT130 BKN250 20/08 A3016 RMK CU2AC2CI2 SLP217=

CYYC;2005-07-26 22:00;METAR CYYC 262200Z 05004KT 40SM FEW060 SCT120 OVC250 21/07 A3015 RMK CU2AC2CI2 SLP216=

CYYC;2005-07-26 23:00;METAR CYYC 262300Z 05005KT 40SM FEW060 SCT081 BKN120 OVC240 20/08 A3014 RMK CU2AC2AC2CI2 SLP212=

CYYC;2005-07-27 00:00;METAR CYYC 270000Z 05005KT 30SM VCSH FEW060 SCT080 BKN120 OVC240 20/07 A3014 RMK CU1AC2AC2CI2 SHS DIST S-W SLP216=

CYYC;2005-07-27 01:00;METAR CYYC 270100Z 06003KT 40SM FEW060 SCT087 BKN120 OVC240 19/09 A3014 RMK CU1AC2AC2CI2 VIRGA WEST SLP214=

CYYC;2005-07-27 03:00;METAR CYYC 270300Z 08006KT 30SM FEW050 BKN096 BKN140 16/09 A3013 RMK CU1AC6AC2 SLP209=

CYYC;2005-07-27 04:00;METAR CYYC 270400Z 05007KT 15SM VCSH FEW050 BKN100 BKN160 15/10 A3015 RMK CU1AC6AC1 SLP216=

CYYC;2005-07-27 06:00;METAR CYYC 270600Z 03003KT 15SM FEW080 BKN140 BKN240 12/09 A3016 RMK AC1AC5CI1 SLP218=

CYYC;2005-07-27 07:00;METAR CYYC 270700Z 36006KT 15SM FEW080 BKN140 BKN240 11/09 A3017 RMK AC1AC6CI1 SLP220=

CYYC;2005-07-27 08:00;METAR CYYC 270800Z 35005KT 15SM SCT100 SCT140 BKN200 11/09 A3017 RMK AC3AC1CI0 SLP219=

CYYC;2005-07-27 09:00;METAR CYYC 270900Z 34005KT 15SM BKN096 10/09 A3017 RMK AC6 SLP221=

CYYC;2005-07-27 10:00;METAR CYYC 271000Z 36007KT 15SM SCT100 BKN200 10/09 A3017 RMK AC4CI0 SLP222=

CYYC;2005-07-27 11:00;METAR CYYC 271100Z 33004KT 15SM BKN094 BKN200 10/09 A3017 RMK AC6CI0 SLP221=

CYYC;2005-07-27 12:00;METAR CYYC 271200Z 28002KT 20SM FEW100 FEW200 10/08 A3017 RMK AC2CI1 SLP224=

CYYC;2005-07-27 13:00;METAR CYYC 271300Z 00000KT 20SM FEW100 SCT240 11/08 A3018 RMK AC2CI0 SLP225=

CYYC;2005-07-27 14:00;METAR CYYC 271400Z 26002KT 40SM FEW100 FEW250 13/09 A3017 RMK AC2CI0 SLP222=

CYYC;2005-07-27 15:00;METAR CYYC 271500Z 23007KT 40SM FEW120 FEW250 15/09 A3016 RMK AC2CI0 SLP219=

CYYC;2005-07-27 16:00;METAR CYYC 271600Z 24006KT 40SM FEW060 FEW120 FEW250 16/09 A3016 RMK CU1AC1CI0 AC TR SLP218=

CYYC;2005-07-27 17:00;METAR CYYC 271700Z 14002KT 40SM FEW060 FEW120 SCT250 18/08 A3017 RMK CU2AC1CI0 AC TR SLP222=

CYYC;2005-07-27 18:00;METAR CYYC 271800Z 29003KT 40SM FEW060 FEW120 SCT250 19/08 A3015 RMK CU2AC1CI0 SLP214=

CYYC;2005-07-27 19:00;METAR CYYC 271900Z 06003KT 40SM SCT050 SCT100 BKN250 20/09 A3015 RMK CU3AC1CI0 SLP213=

CYYC;2005-07-27 20:00;METAR CYYC 272000Z 00000KT 30SM SCT055 SCT100 BKN250 19/09 A3013 RMK CU3AC1CI0 SLP207=

CYYC;2005-07-27 21:00;METAR CYYC 272100Z 12006KT 30SM SCT067 SCT100 BKN250 21/10 A3011 RMK CU3AC1CI0 SLP200=

CYYC;2005-07-27 22:00;METAR CYYC 272200Z 13008KT 30SM SCT054 SCT100 BKN250 21/10 A3010 RMK CU3AC1CI0 SLP198=

CYYC;2005-07-27 23:00;METAR CYYC 272300Z 11008KT 20SM SCT052 SCT100 BKN250 20/10 A3010 RMK CU3AC1CI0 SLP196=

CYYC;2005-07-28 00:00;METAR CYYC 280000Z 13011KT 20SM SCT052 SCT100 BKN250 21/10 A3008 RMK CU3AC1CI0 SLP188=

CYYC;2005-07-28 01:00;METAR CYYC 280100Z 15008KT 20SM FEW059 BKN090 BKN240 20/10 A3007 RMK CU2AC2CI0 SLP185=

CYYC;2005-07-28 02:00;METAR CYYC 280200Z 12009KT 20SM BKN056 BKN090 20/10 A3006 RMK SC5AC2 SLP181=

CYYC;2005-07-28 03:00;METAR CYYC 280300Z 13008KT 20SM BKN052 BKN090 BKN240 18/11 A3005 RMK SC4AC1CI0 SLP177=

CYYC;2005-07-28 04:00;METAR CYYC 280400Z 13008KT 15SM BKN051 18/10 A3006 RMK SC7 SLP179=

CYYC;2005-07-28 05:00;METAR CYYC 280500Z 15011KT 15SM BKN051 18/09 A3005 RMK SC6 SLP177=

CYYC;2005-07-28 06:00;METAR CYYC 280600Z 15009KT 15SM FEW050 FEW100 16/10 A3006 RMK SC1AC1 SLP177=

CYYC;2005-07-28 07:00;METAR CYYC 280700Z 17008KT 15SM SCT110 16/10 A3005 RMK AC2 SLP175=

CYYC;2005-07-28 08:00;METAR CYYC 280800Z 17006KT 15SM FEW110 SCT250 14/10 A3004 RMK AC1CI0 SLP171=

CYYC;2005-07-28 09:00;METAR CYYC 280900Z 18005KT 15SM FEW110 FEW250 13/10 A3003 RMK AC1CI0 SLP167=

CYYC;2005-07-28 10:00;METAR CYYC 281000Z 19005KT 15SM FEW110 FEW250 13/09 A3001 RMK AC1CI0 SLP162=

CYYC;2005-07-28 11:00;METAR CYYC 281100Z 22006KT 15SM FEW110 FEW150 11/09 A3000 RMK AC1AC0 SLP157=

CYYC;2005-07-28 13:00;METAR CYYC 281300Z 20003KT 30SM FEW090 FEW160 FEW240 12/10 A2999 RMK AC1AC1CI1 SLP156=

CYYC;2005-07-28 14:00;METAR CYYC 281400Z 30006KT 40SM FEW100 FEW190 16/11 A2999 RMK AC1AC1 SLP156=

CYYC;2005-07-28 15:00;METAR CYYC 281500Z 34011KT 40SM FEW080 FEW190 17/12 A3001 RMK AC1AC1 SLP158=

CYYC;2005-07-28 16:00;METAR CYYC 281600Z 01010KT 30SM FEW080 FEW150 FEW240 19/12 A3000 RMK AC1AC1CI0 SLP155=

CYYC;2005-07-28 17:00;METAR CYYC 281700Z 01006KT 30SM FEW065 FEW120 FEW250 20/12 A2999 RMK CU1AC1CI1 CU+CI TR SLP154=

CYYC;2005-07-28 18:00;METAR CYYC 281800Z 02004KT 30SM FEW065 FEW120 FEW250 22/13 A2998 RMK CU1AC1CI0 CU TR SLP146=

CYYC;2005-07-28 19:00;METAR CYYC 281900Z 07007KT 30SM FEW065 FEW120 FEW250 23/10 A2997 RMK CU1AC1CI0 CU TR SLP142=

CYYC;2005-07-28 20:00;METAR CYYC 282000Z 06007KT 30SM FEW065 FEW120 SCT250 23/12 A2994 RMK CU1AC1CI1 CU TR SLP133=

CYYC;2005-07-28 21:00;METAR CYYC 282100Z 10006KT 20SM FEW065TCU SCT120 BKN250 24/13 A2993 RMK TCU2AC2CI2 SLP130=

CYYC;2005-07-28 22:00;METAR CYYC 282200Z 14009KT 20SM FEW065 FEW120 BKN250 25/11 A2991 RMK CU1AC1CI2 SLP124=

CYYC;2005-07-28 23:00;METAR CYYC 282300Z 14011KT 20SM FEW065CB SCT120 BKN240 24/13 A2990 RMK CB1AC2CI2 CB S SLP119=

CYYC;2005-07-29 01:00;METAR CYYC 290100Z 15008KT 20SM FEW070CB BKN120 BKN240 24/13 A2986 RMK CB1AC2CI2 VIRGA ESE SLP111=

CYYC;2005-07-29 02:00;METAR CYYC 290200Z 13009KT 30SM FEW080CB FEW140 FEW240 23/13 A2985 RMK CB1AC1CI0 CB N + SE SLP106=

CYYC;2005-07-29 03:00;METAR CYYC 290300Z 04015G25KT 30SM FEW050 FEW080CB SCT120 17/12 A2990 RMK SC1CB2AC1 CB NE + SE SLP122=

CYYC;2005-07-29 04:00;METAR CYYC 290400Z 35017KT 15SM -SHRA FEW050 FEW080CB SCT120 BKN240 15/11 A2994 RMK SC1CB2AC2CI0 LTNG N SLP136=

CYYC;2005-07-29 04:15;SPECI CYYC 290415Z 01012G20KT 15SM VCSH FEW050 FEW070CB SCT120 15/ RMK SC1CB2AC2 LTNG NE+ SE=

CYYC;2005-07-29 05:00;METAR CYYC 290500Z 01008KT 15SM FEW110 13/11 A2995 RMK AC1 LTNG DIST NE SLP138=

CYYC;2005-07-29 06:00;METAR CYYC 290600Z 34008KT 15SM SCT120 12/10 A3000 RMK AC4 LTNG DIST=

CYYC;2005-07-29 09:00;METAR CYYC 290900Z 26003KT 15SM FEW120 FEW240 12/10 A3000 RMK AC2CI1 SLP156=

CYYC;2005-07-29 10:00;METAR CYYC 291000Z 24005KT 15SM FEW050 FEW120 11/10 A3000 RMK SC1AC1 SLP155=

CYYC;2005-07-29 12:00;METAR CYYC 291200Z 20003KT 20SM FEW060 FEW090 FEW240 11/09 A3001 RMK SC1AC1CI0 SLP160=

CYYC;2005-07-29 13:00;METAR CYYC 291300Z 20003KT 20SM FEW060 FEW100 12/10 A3000 RMK SC1AC1 SLP159=

CYYC;2005-07-29 14:00;METAR CYYC 291400Z 23004KT 20SM FEW060 FEW120 15/11 A2999 RMK SC1AC1 SLP155=

CYYC;2005-07-29 15:00;METAR CYYC 291500Z 20004KT 30SM FEW060 FEW120 17/11 A2998 RMK SC1AC1 SLP149=

CYYC;2005-07-29 16:00;METAR CYYC 291600Z 22002KT 40SM FEW060 FEW140 FEW220 19/11 A2996 RMK SC1AC1CI1 SLP144=

CYYC;2005-07-29 17:00;METAR CYYC 291700Z 18006KT 40SM FEW060 FEW140 FEW230 20/11 A2995 RMK SC1AC1CI0 SLP141=

CYYC;2005-07-29 18:00;METAR CYYC 291800Z 15011G16KT 40SM FEW060 FEW240 21/12 A2993 RMK SC1CI1 SLP134=

CYYC;2005-07-29 19:00;METAR CYYC 291900Z 12006KT 40SM FEW070 FEW180 FEW250 22/13 A2992 RMK AC1AC1CI1 SLP131=

CYYC;2005-07-29 20:00;METAR CYYC 292000Z 12007KT 30SM FEW080 FEW160 24/14 A2991 RMK AC1AC1 SLP127=

CYYC;2005-07-29 21:00;METAR CYYC 292100Z 16006KT 30SM FEW080 FEW160 24/14 A2990 RMK AC1AC1 CVCTV CLD DVLPING SW / TCU DIST NW SLP119=

CYYC;2005-07-29 22:00;METAR CYYC 292200Z 13008KT 30SM FEW080 FEW160 25/14 A2989 RMK AC1AC1 CVCTV CLD DVLPING SW / TCU DIST NW SLP117=

CYYC;2005-07-29 23:00;METAR CYYC 292300Z 11008KT 30SM FEW080 FEW140 26/13 A2988 RMK AC1AC1 TCU=

CYYC;2005-07-30 00:00;METAR CYYC 300000Z 10007KT 30SM FEW080 FEW140 26/15 A2986 RMK AC1AC1 CB ASOCTD DIST NW-NE SLP107=

CYYC;2005-07-30 01:00;METAR CYYC 300100Z 13005KT 30SM FEW080CB FEW140 26/15 A2986 RMK CB1AC1 CB DIST NW-NE SLP106=

CYYC;2005-07-30 02:00;METAR CYYC 300200Z 14006KT 30SM FEW040 FEW080CB FEW120 25/16 A2985 RMK CU1CB1AC1 CB N-NE SLP104=

CYYC;2005-07-30 03:00;METAR CYYC 300300Z 12008KT 30SM FEW060CB FEW080 22/15 A2987 RMK CB1AC1 CB N-NE SLP106=

CYYC;2005-07-30 04:00;METAR CYYC 300400Z 36008G15KT 30SM FEW040 FEW060CB FEW240 15/11 A2996 RMK SC1CB1CI1 LTGIC N-NE / PRESRR SLP132=

CYYC;2005-07-30 05:00;METAR CYYC 300500Z 02011KT 15SM SCT050 15/10 A3000 RMK SC3 LTGIC DIST NE SLP144=

CYYC;2005-07-30 07:00;METAR CYYC 300700Z 29006KT 15SM FEW070 FEW120 13/10 A3004 RMK AC2AC1 SLP167=

CYYC;2005-07-30 08:00;METAR CYYC 300800Z 26002KT 15SM FEW060 SCT120 14/10 A3005 RMK SC1AC2 SLP172=

CYYC;2005-07-30 09:00;METAR CYYC 300900Z 25003KT 15SM FEW065 BKN120 14/11 A3005 RMK SC1AC4 SLP170=

CYYC;2005-07-30 10:00;METAR CYYC 301000Z 00000KT 15SM BKN062 15/10 A3005 RMK SC5 SLP170=

CYYC;2005-07-30 11:00;METAR CYYC 301100Z 00000KT 15SM FEW065 FEW110 SCT240 13/10 A3005 RMK SC1AC1CI0 SLP170=

CYYC;2005-07-30 12:00;METAR CYYC 301200Z 07004KT 30SM FEW060 FEW110 SCT240 10/09 A3007 RMK SC2AC1CI1 SLP180=

CYYC;2005-07-30 13:00;METAR CYYC 301300Z 16002KT 40SM FEW030 FEW110 FEW240 13/10 A3008 RMK CU1AC1CI1 SLP183=

CYYC;2005-07-30 14:00;METAR CYYC 301400Z 19006KT 40SM FEW120 FEW250 16/11 A3008 RMK AC1CI0 SLP182=

CYYC;2005-07-30 15:00;METAR CYYC 301500Z 20009KT 40SM FEW120 FEW250 BKN270 18/11 A3008 RMK AC1CI1CI0 SLP176=

CYYC;2005-07-30 16:00;METAR CYYC 301600Z 18015KT 40SM FEW080 FEW180 BKN230 BKN260 20/11 A3007 RMK AC1AC1CI2CI1 SLP173=

CYYC;2005-07-30 17:00;METAR CYYC 301700Z 19011G17KT 40SM FEW080 FEW180 BKN230 BKN260 22/13 A3006 RMK AC1AC1CI2CI1 SLP169=

CYYC;2005-07-30 18:00;METAR CYYC 301800Z 19007KT 40SM FEW080 FEW180 BKN240 BKN260 24/13 A3005 RMK AC1AC1CI2CI2 SLP168=

CYYC;2005-07-30 19:00;METAR CYYC 301900Z 18004KT 40SM FEW080 FEW180 BKN250 BKN260 25/12 A3004 RMK AC1AC1CI2CI1 SLP165=

CYYC;2005-07-30 20:00;METAR CYYC 302000Z 15004KT 40SM FEW080 BKN200 BKN250 27/09 A3003 RMK AC1CI5CI0 SLP162=

CYYC;2005-07-30 21:00;METAR CYYC 302100Z 22006KT 40SM FEW080 BKN200 BKN250 28/07 A3002 RMK AC1CI2CI0 SLP151=

CYYC;2005-07-30 22:00;METAR CYYC 302200Z 30006KT 40SM FEW095 FEW200 BKN250 29/06 A3001 RMK AC1CI1CI1 SLP149=

CYYC;2005-07-30 23:00;METAR CYYC 302300Z 27012KT 40SM FEW095 FEW200 FEW250 29/04 A3000 RMK AC1CI1CI0 AC TR SLP147=

CYYC;2005-07-31 00:00;METAR CYYC 310000Z 27011KT 40SM FEW100 FEW200 FEW250 29/04 A3000 RMK AC1CI1CI0 AC TR SLP152=

CYYC;2005-07-31 01:00;METAR CYYC 310100Z 24006KT 40SM FEW100 FEW200 FEW250 28/05 A3000 RMK AC1CI1CI0 AC TR SLP151=

CYYC;2005-07-31 02:00;METAR CYYC 310200Z 29005KT 40SM FEW090 FEW180 SCT250 27/05 A3000 RMK AC1AC1CI0 SLP152=

CYYC;2005-07-31 03:00;METAR CYYC 310300Z 25004KT 40SM FEW080 FEW180 FEW250 25/05 A3002 RMK AC1AC1CI0 SLP151=

CYYC;2005-07-31 04:00;METAR CYYC 310400Z 00000KT 40SM FEW120 FEW240 23/05 A3003 RMK AC1CI0 SLP156=

CYYC;2005-07-31 05:00;METAR CYYC 310500Z 34004KT 15SM FEW120 19/08 A3004 RMK AC1 SLP157=

CYYC;2005-07-31 06:00;METAR CYYC 310600Z 34004KT 15SM FEW240 16/10 A3003 RMK CI1 SLP162=

CYYC;2005-07-31 07:00;METAR CYYC 310700Z 03004KT 15SM SKC 12/08 A3003 RMK SLP161=

CYYC;2005-07-31 09:00;METAR CYYC 310900Z 21002KT 15SM FEW240 13/08 A3001 RMK CI1 SLP151=

CYYC;2005-07-31 10:00;METAR CYYC 311000Z 10003KT 15SM FEW120 FEW240 11/07 A2999 RMK AC1CI1 SLP146=

CYYC;2005-07-31 11:00;METAR CYYC 311100Z 20002KT 15SM FEW090 SCT240 12/07 A3000 RMK AC2CI0 SLP147=

CYYC;2005-07-31 12:00;METAR CYYC 311200Z 21005KT 40SM FEW080 FEW120 SCT240 12/06 A3000 RMK AC1AC1CI2 SLP147=

CYYC;2005-07-31 14:00;METAR CYYC 311400Z 32002KT 40SM FEW080 BKN240 16/09 A3000 RMK AC1CI3 SLP148=

CYYC;2005-07-31 15:00;METAR CYYC 311500Z 23003KT 40SM SCT180 BKN230 23/09 A3000 RMK AC2CI2 SLP140=

CYYC;2005-07-31 16:00;METAR CYYC 311600Z 22002KT 40SM FEW180 BKN230 25/09 A3000 RMK AC2CI2 SLP138=

CYYC;2005-07-31 17:00;METAR CYYC 311700Z 24004KT 40SM FEW180 BKN230 BKN270 28/05 A3001 RMK AC1CI2CI0 SLP141=

CYYC;2005-07-31 18:00;METAR CYYC 311800Z 00000KT 40SM FEW180 BKN230 BKN270 28/04 A3001 RMK AC1CI1CI0 SLP149=

CYYC;2005-07-31 19:00;METAR CYYC 311900Z 22008KT 40SM FEW100 SCT180 BKN270 30/05 A3001 RMK AC1AC1CI0 SLP148=

CYYC;2005-07-31 20:00;METAR CYYC 312000Z 10002KT 40SM FEW100 FEW180 BKN270 30/05 A3000 RMK AC1AC1CI0 SLP146=

CYYC;2005-07-31 21:00;METAR CYYC 312100Z 13008KT 40SM FEW100 FEW180 SCT270 30/06 A2999 RMK AC1AC1CI0 SLP143=

CYYC;2005-07-31 22:00;METAR CYYC 312200Z 12010KT 40SM FEW100 FEW180 FEW270 30/07 A2998 RMK AC1AC1CI0 SLP140=

CYYC;2005-07-31 23:00;METAR CYYC 312300Z 15011KT 40SM FEW100 FEW190 FEW230 30/08 A2997 RMK AC1AC1CI0 SLP136=

CYYC;2005-08-01 00:00;METAR CYYC 010000Z 12013KT 40SM FEW100 FEW190 FEW230 29/08 A2996 RMK AC1AC1CI0 SLP135=

CYYC;2005-08-01 01:00;METAR CYYC 010100Z 11010KT 40SM FEW100 FEW190 28/07 A2995 RMK AC1AC1 SLP131=

CYYC;2005-08-01 03:00;METAR CYYC 010300Z 08012KT 40SM FEW190 23/12 A2993 RMK AC1 SLP118=

CYYC;2005-08-01 04:00;METAR CYYC 010400Z 08013KT 40SM FEW220 21/12 A2994 RMK CI1 SLP119=

CYYC;2005-08-01 05:00;METAR CYYC 010500Z 10010KT 15SM SKC 19/11 A2993 RMK SLP116=

CYYC;2005-08-01 06:00;METAR CYYC 010600Z 14006KT 15SM SKC 17/10 A2992 RMK SLP116=

CYYC;2005-08-01 07:00;METAR CYYC 010700Z 14005KT 15SM SKC 16/10 A2993 RMK SLP117=

CYYC;2005-08-01 08:00;METAR CYYC 010800Z 00000KT 15SM FEW180 15/10 A2992 RMK AC1 SLP115=

CYYC;2005-08-01 09:00;METAR CYYC 010900Z 00000KT 15SM FEW180 12/09 A2991 RMK AC1 SLP116=

CYYC;2005-08-01 10:00;METAR CYYC 011000Z 21005KT 15SM FEW180 BKN260 13/10 A2990 RMK AC1CI0 SLP112=

CYYC;2005-08-01 11:00;METAR CYYC 011100Z 22004KT 15SM FEW140 BKN260 14/09 A2988 RMK AC1CI0 SLP107=

CYYC;2005-08-01 12:00;METAR CYYC 011200Z 21009KT 40SM FEW140 BKN260 13/09 A2987 RMK AC1CI0 SLP103=

CYYC;2005-08-01 13:00;METAR CYYC 011300Z 19005KT 40SM FEW140 FEW260 15/08 A2986 RMK AC1CI0 SLP100=

CYYC;2005-08-01 14:00;METAR CYYC 011400Z 22006KT 40SM FEW100 FEW250 16/09 A2986 RMK AC1CI0 SLP100=

CYYC;2005-08-01 15:00;METAR CYYC 011500Z 21006KT 40SM FEW060 FEW100 SCT250 21/09 A2985 RMK CU1AC2CI1 CU TR SLP092=

CYYC;2005-08-01 16:00;METAR CYYC 011600Z 18006KT 40SM FEW060 FEW140 FEW250 24/10 A2984 RMK CU1AC2CI0 CU TR SLP089=

CYYC;2005-08-01 17:00;METAR CYYC 011700Z 20010KT 40SM FEW060 FEW140 FEW250 27/10 A2984 RMK CU1AC1CI1 CU TR SLP087=

CYYC;2005-08-01 18:00;METAR CYYC 011800Z 18012G18KT 40SM FEW060 FEW140 SCT250 30/10 A2982 RMK CU1AC2CI1 CU TR SLP076=

CYYC;2005-08-01 19:00;METAR CYYC 011900Z 17015G21KT 40SM FEW060 FEW120 SCT250 31/09 A2979 RMK CU1AC2CI1 SLP068=

CYYC;2005-08-01 20:00;METAR CYYC 012000Z 24007KT 40SM FEW060 BKN130 BKN240 30/07 A2979 RMK CU2AC2CI1 SLP067=

CYYC;2005-08-01 21:00;METAR CYYC 012100Z 23014KT 40SM FEW060 SCT120 BKN240 32/07 A2978 RMK CU1AC2CI1 SLP068=

CYYC;2005-08-01 22:00;METAR CYYC 012200Z 25013G18KT 40SM FEW060 BKN120 BKN230 30/05 A2978 RMK CU2AC2CI1 SLP067=

CYYC;2005-08-01 23:00;METAR CYYC 012300Z 20014G20KT 40SM FEW065 BKN120 BKN230 29/05 A2977 RMK CU2AC2CI1 SLP066=

CYYC;2005-08-02 00:00;METAR CYYC 020000Z 19010KT 40SM FEW065 BKN120 BKN230 28/06 A2976 RMK CU1AC3CI1 SLP065=

CYYC;2005-08-02 01:00;METAR CYYC 020100Z 19009KT 40SM FEW065 SCT120 BKN240 26/09 A2975 RMK CU1AC3CI2 CU TR SLP061=

CYYC;2005-08-02 03:00;METAR CYYC 020300Z 34015G21KT 30SM FEW060 SCT120 BKN200 21/12 A2981 RMK CU1AC4CI3 PRESRR SLP082=

CYYC;2005-08-02 04:00;METAR CYYC 020400Z 34016G22KT 15SM SCT120 BKN200 19/09 A2985 RMK AC4CI2 SLP092=

CYYC;2005-08-02 05:00;METAR CYYC 020500Z 35015KT 15SM SCT160 BKN240 18/11 A2986 RMK AC3CI3 SLP098=

CYYC;2005-08-02 06:00;METAR CYYC 020600Z 35011KT 15SM FEW110 BKN140 BKN240 17/11 A2990 RMK AC1AC6CI2 SLP106=

CYYC;2005-08-02 08:30;SPECI CYYC 020830Z 32005KT 15SM -SHRA BKN081 OVC110 15/ RMK AC6AC2=

CYYC;2005-08-02 08:40;SPECI CYYC 020840Z 29005KT 15SM -TSRA BKN081 OVC110 15/ RMK AC6AC2 CB EMBD LTNG SW=

CYYC;2005-08-02 09:00;METAR CYYC 020900Z 30003KT 8SM -TSRA BKN068 OVC080 15/12 A2997 RMK AC6AC2 CB EMBD SLP132=

CYYC;2005-08-02 09:13;SPECI CYYC 020913Z 27002KT 5SM -SHRA BR FEW040 OVC072 15/ RETS RMK SC2AC6 CB EMBD=

CYYC;2005-08-02 10:00;METAR CYYC 021000Z 16005KT 15SM -SHRA FEW040 BKN072 OVC100 13/12 A2999 RETSRA RMK SC1AC6AC2 SLP136=

CYYC;2005-08-02 10:35;SPECI CYYC 021035Z 04005KT 15SM FEW006 SCT080 BKN100 13/ RMK SF1AC3AC3=

CYYC;2005-08-02 11:00;METAR CYYC 021100Z 07002KT 15SM FEW007 SCT060 BKN100 13/12 A2998 RMK SC1SC4AC3 SLP135=

CYYC;2005-08-02 12:00;METAR CYYC 021200Z 15003KT 20SM VCSH FEW007 BKN058 OVC100 13/12 A2999 RMK SC1SC6AC2 SLP145=

CYYC;2005-08-02 13:00;METAR CYYC 021300Z 18005KT 20SM SCT058 SCT100 BKN240 12/11 A3000 RMK SC3AC1CI0 SLP147=

CYYC;2005-08-02 14:00;METAR CYYC 021400Z 22003KT 20SM FEW060 FEW100 SCT240 14/12 A3000 RMK SC1AC2CI0 SLP147=

CYYC;2005-08-02 15:00;METAR CYYC 021500Z 19005KT 30SM FEW060 SCT100 16/12 A3000 RMK CU1AC2 SLP153=

CYYC;2005-08-02 16:00;METAR CYYC 021600Z 19008KT 30SM FEW060 FEW100 18/12 A2999 RMK CU2AC1 AC TR SLP150=

CYYC;2005-08-02 17:00;METAR CYYC 021700Z 21007KT 30SM SCT040 SCT060TCU BKN140 18/12 A2999 RMK CU3TCU1AC1 SLP152=

CYYC;2005-08-02 18:00;METAR CYYC 021800Z 18010G15KT 15SM -SHRA SCT040 BKN060TCU BKN120 18/10 A3000 RMK CU3TCU2AC2 SLP155=

CYYC;2005-08-02 18:45;SPECI CYYC 021845Z 24003KT 20SM TS FEW040TCU BKN060CB BKN120 RMK TCU2CB2AC1=

CYYC;2005-08-02 19:00;METAR CYYC 021900Z 00000KT 20SM TS FEW040 BKN065CB 19/08 A2999 RMK CU1CB4 SLP154=

CYYC;2005-08-02 22:00;METAR CYYC 022200Z 34014G19KT 40SM FEW045 FEW070CB FEW120 22/M02 A3000 RMK CU1CB1AC1 AC TR SLP153=

CYYC;2005-08-02 23:00;METAR CYYC 022300Z 34008KT 40SM FEW050 FEW120 22/02 A3001 RMK CU1AC1 SLP156=

CYYC;2005-08-03 00:00;METAR CYYC 030000Z 03015KT 40SM FEW050 FEW120 21/04 A3002 RMK CU1AC1 AC TR SLP165=

CYYC;2005-08-03 01:00;METAR CYYC 030100Z 03013KT 40SM FEW050 FEW120 20/04 A3004 RMK CU1AC1 SLP169=

CYYC;2005-08-03 02:00;METAR CYYC 030200Z 03013KT 40SM FEW080 FEW240 18/05 A3005 RMK AC1CI1 SLP174=

CYYC;2005-08-03 03:00;METAR CYYC 030300Z 08004KT 40SM FEW080 FEW240 14/06 A3009 RMK AC1CI1 SLP194=

CYYC;2005-08-03 04:00;METAR CYYC 030400Z 04004KT 40SM FEW080 13/05 A3012 RMK AC1 SLP204=

CYYC;2005-08-03 05:00;METAR CYYC 030500Z 33005KT 15SM FEW100 12/05 A3014 RMK AC1 SLP210=

CYYC;2005-08-03 06:00;METAR CYYC 030600Z 32003KT 15SM SKC 11/05 A3016 RMK SLP219=

CYYC;2005-08-03 08:51;SPECI CYYC 030851Z 34007KT 15SM -RA SCT090 BKN110 10/ RMK AC3AC4=

CYYC;2005-08-03 09:00;METAR CYYC 030900Z 35006KT 15SM SCT090 BKN110 10/06 A3022 RMK AC3AC3 VIRGA SLP236=

CYYC;2005-08-03 10:00;METAR CYYC 031000Z 34006KT 15SM FEW082 SCT110 09/06 A3024 RMK AC1AC2 SLP241=

CYYC;2005-08-03 12:00;METAR CYYC 031200Z 28003KT 20SM FEW090 FEW240 08/05 A3026 RMK AC2CI0 SLP253=

CYYC;2005-08-03 13:00;METAR CYYC 031300Z 33002KT 30SM FEW090 FEW120 FEW240 09/05 A3026 RMK AC1AC1CI1 SLP256=

CYYC;2005-08-03 14:00;METAR CYYC 031400Z 34002KT 40SM FEW090 FEW120 12/06 A3028 RMK AC1AC1 SLP261=

CYYC;2005-08-03 15:00;METAR CYYC 031500Z 32005KT 40SM BKN068 BKN090 15/05 A3029 RMK AC2AC1 SLP266=

CYYC;2005-08-03 16:00;METAR CYYC 031600Z 01003KT 40SM SCT068 SCT090 16/03 A3029 RMK AC0AC1 SLP266=

CYYC;2005-08-03 17:00;METAR CYYC 031700Z 35005KT 40SM SCT066 SCT090 17/04 A3029 RMK AC0AC1 SLP265=

CYYC;2005-08-03 18:00;METAR CYYC 031800Z 16004KT 40SM SCT066 SCT090 18/05 A3029 RMK AC0AC1 SLP265=

CYYC;2005-08-03 19:00;METAR CYYC 031900Z 18007KT 40SM FEW060 FEW090 20/06 A3027 RMK CU1AC1 SLP260=

CYYC;2005-08-03 20:00;METAR CYYC 032000Z 25005KT 40SM FEW060 FEW090 19/05 A3026 RMK CU1AC1 SLP256=

CYYC;2005-08-03 21:00;METAR CYYC 032100Z 24003KT 40SM FEW060 FEW100 21/06 A3026 RMK CU1AC0 SLP251=

CYYC;2005-08-03 22:00;METAR CYYC 032200Z 08004KT 40SM FEW063 FEW100 20/06 A3025 RMK CU1AC0 SLP250=

CYYC;2005-08-03 23:00;METAR CYYC 032300Z 06007KT 40SM FEW063 FEW100 21/07 A3024 RMK CU1AC0 SLP246=

CYYC;2005-08-04 00:00;METAR CYYC 040000Z 02002KT 40SM FEW063 SCT100 21/06 A3024 RMK CU1AC0 SLP249=

CYYC;2005-08-04 01:00;METAR CYYC 040100Z 07006KT 40SM FEW063 FEW100 20/07 A3024 RMK CU1AC0 SLP248=

CYYC;2005-08-04 02:00;METAR CYYC 040200Z 12005KT 40SM FEW100 19/09 A3024 RMK AC1 AC TR SLP248=

CYYC;2005-08-04 03:00;METAR CYYC 040300Z 15007KT 40SM FEW100 17/07 A3025 RMK AC1 AC TR SLP246=

CYYC;2005-08-04 04:00;METAR CYYC 040400Z 14005KT 20SM SKC 16/07 A3026 RMK SLP252=

CYYC;2005-08-04 05:00;METAR CYYC 040500Z 13005KT 15SM SKC 15/08 A3028 RMK SLP256=

CYYC;2005-08-04 06:00;METAR CYYC 040600Z 13006KT 15SM SKC 13/06 A3028 RMK SLP258=

CYYC;2005-08-04 07:00;METAR CYYC 040700Z 16007KT 15SM SKC 13/05 A3029 RMK SLP262=

CYYC;2005-08-04 08:00;METAR CYYC 040800Z 18007KT 15SM SKC 13/06 A3029 RMK SLP261=

CYYC;2005-08-04 10:00;METAR CYYC 041000Z 19006KT 15SM SKC 11/06 A3027 RMK SLP252=

CYYC;2005-08-04 11:00;METAR CYYC 041100Z 18009KT 15SM SKC 13/06 A3026 RMK SLP250=

CYYC;2005-08-04 12:00;METAR CYYC 041200Z 17004KT 20SM FEW270 10/06 A3025 RMK CI0 SLP250=

CYYC;2005-08-04 13:00;METAR CYYC 041300Z 20006KT 20SM FEW270 10/07 A3026 RMK CI0 SLP252=

CYYC;2005-08-04 14:00;METAR CYYC 041400Z 19005KT 40SM FEW270 13/08 A3024 RMK CI0 SLP246=

CYYC;2005-08-04 15:00;METAR CYYC 041500Z 18008KT 40SM FEW230 SCT270 15/08 A3022 RMK CI0CI0 SLP237=

CYYC;2005-08-04 16:00;METAR CYYC 041600Z 20007KT 40SM FEW210 SCT270 17/08 A3021 RMK CI1CI0 SLP232=

CYYC;2005-08-04 17:00;METAR CYYC 041700Z 19007KT 40SM BKN220 BKN270 19/08 A3020 RMK CI4CI0 SLP229=

CYYC;2005-08-04 18:00;METAR CYYC 041800Z 19004KT 40SM BKN220 BKN270 21/09 A3018 RMK CI6CI0 SLP220=

CYYC;2005-08-04 19:00;METAR CYYC 041900Z 20005KT 30SM FEW160 BKN220 OVC270 22/08 A3017 RMK AC2CI6CI0 SLP216=

CYYC;2005-08-04 20:00;METAR CYYC 042000Z 18004KT 30SM FEW160 BKN220 OVC270 25/10 A3015 RMK AC2CI3CI0 SLP211=

CYYC;2005-08-04 21:00;METAR CYYC 042100Z 16007KT 30SM FEW160 SCT220 BKN270 26/08 A3013 RMK AC2CI1CI0 SLP198=

CYYC;2005-08-04 22:00;METAR CYYC 042200Z 13006KT 30SM FEW160 SCT220 BKN270 27/07 A3012 RMK AC2CI1CI0 SLP193=

CYYC;2005-08-04 23:00;METAR CYYC 042300Z 11008KT 30SM BKN160 BKN220 BKN270 26/09 A3010 RMK AC3CI2CI0 SLP187=

CYYC;2005-08-05 00:00;METAR CYYC 050000Z 12008KT 30SM SCT180 BKN220 BKN270 26/09 A3008 RMK AC3CI1CI0 SLP185=

CYYC;2005-08-05 01:00;METAR CYYC 050100Z 13008KT 30SM SCT180 BKN220 BKN270 25/09 A3006 RMK AC2CI2CI0 SLP179=

CYYC;2005-08-05 02:00;METAR CYYC 050200Z 10005KT 40SM FEW180 BKN270 24/11 A3005 RMK AC2CI2 SLP175=

CYYC;2005-08-05 03:00;METAR CYYC 050300Z 09003KT 40SM FEW220 BKN270 21/09 A3006 RMK CI1CI0 SLP173=

CYYC;2005-08-05 04:00;METAR CYYC 050400Z 10004KT 15SM FEW220 BKN270 21/07 A3006 RMK CI1CI1 SLP174=

CYYC;2005-08-05 05:00;METAR CYYC 050500Z 03002KT 15SM FEW220 SCT270 19/06 A3006 RMK CI1CI0 SLP174=

CYYC;2005-08-05 06:00;METAR CYYC 050600Z 32006KT 15SM SKC 13/09 A3007 RMK SLP182=

CYYC;2005-08-05 08:00;METAR CYYC 050800Z 34006KT 15SM SKC 10/07 A3007 RMK SLP182=

CYYC;2005-08-05 09:00;METAR CYYC 050900Z 33005KT 15SM SKC 09/06 A3006 RMK SLP178=

CYYC;2005-08-05 10:00;METAR CYYC 051000Z 36003KT 15SM SKC 09/06 A3006 RMK SLP177=

CYYC;2005-08-05 11:00;METAR CYYC 051100Z 34005KT 15SM FEW160 BKN220 10/06 A3007 RMK AC2CI2 SLP181=

CYYC;2005-08-05 12:00;METAR CYYC 051200Z 33003KT 30SM SCT160 BKN230 10/06 A3008 RMK AC2CI2 SLP182=

CYYC;2005-08-05 13:00;METAR CYYC 051300Z 27002KT 30SM FEW160 BKN230 12/07 A3008 RMK AC2CI2 SLP182=

CYYC;2005-08-05 15:00;METAR CYYC 051500Z 00000KT 40SM FEW120 FEW180 BKN250 18/09 A3008 RMK AC0AC1CI1 SLP179=

CYYC;2005-08-05 16:00;METAR CYYC 051600Z 19002KT 40SM FEW120 FEW250 22/09 A3008 RMK AC1CI1 SLP179=

CYYC;2005-08-05 17:00;METAR CYYC 051700Z 00000KT 40SM FEW250 25/04 A3006 RMK CI0 SLP173=

CYYC;2005-08-05 18:00;METAR CYYC 051800Z 05003KT 40SM FEW250 26/04 A3005 RMK CI1 SLP169=

CYYC;2005-08-05 19:00;METAR CYYC 051900Z 33002KT 40SM FEW250 28/02 A3004 RMK CI1 SLP164=

CYYC;2005-08-05 20:00;METAR CYYC 052000Z 23008G17KT 40SM FEW110 FEW250 29/04 A3003 RMK AC1CI1 SLP162=

CYYC;2005-08-05 21:00;METAR CYYC 052100Z 21009KT 40SM FEW250 29/05 A3002 RMK CI1 SLP158=

CYYC;2005-08-05 22:00;METAR CYYC 052200Z 17007KT 40SM FEW250 30/06 A3000 RMK CI1 SLP154=

CYYC;2005-08-05 23:00;METAR CYYC 052300Z 17008G15KT 30SM FEW250 29/06 A2999 RMK CI1 SLP151=

CYYC;2005-08-06 00:00;METAR CYYC 060000Z 16013KT 30SM FEW220 SCT250 28/07 A2998 RMK CI1CI0 SLP145=

CYYC;2005-08-06 04:00;METAR CYYC 060400Z 13005KT 15SM FEW140 SCT250 22/09 A2999 RMK AC1CI0 SLP143=

CYYC;2005-08-06 05:00;METAR CYYC 060500Z 36011KT 15SM FEW240 18/09 A3001 RMK CI1 SLP149=

CYYC;2005-08-06 06:00;METAR CYYC 060600Z 33012KT 15SM FEW240 16/11 A3005 RMK CI1 SLP163=

CYYC;2005-08-06 09:00;METAR CYYC 060900Z 34008KT 15SM FEW240 14/10 A3011 RMK CI0 SLP185=

CYYC;2005-08-06 10:00;METAR CYYC 061000Z 32009KT 15SM SKC 12/10 A3012 RMK SLP189=

CYYC;2005-08-06 11:00;METAR CYYC 061100Z 33008KT 15SM FEW100 12/09 A3013 RMK AC1 SLP190=

CYYC;2005-08-06 12:00;METAR CYYC 061200Z 33007KT 20SM FEW100 FEW240 11/09 A3013 RMK AC1CI0 SLP197=

CYYC;2005-08-06 13:00;METAR CYYC 061300Z 33005KT 40SM FEW120 BKN260 11/09 A3015 RMK AC1CI0 SLP202=

CYYC;2005-08-06 14:00;METAR CYYC 061400Z 33002KT 40SM FEW260 14/10 A3015 RMK CI0 SLP203=

CYYC;2005-08-06 15:00;METAR CYYC 061500Z 36005KT 40SM FEW260 17/11 A3015 RMK CI0 SLP201=

CYYC;2005-08-06 17:00;METAR CYYC 061700Z 17005KT 30SM FEW280 21/11 A3012 RMK CI1 SLP192=

CYYC;2005-08-06 18:00;METAR CYYC 061800Z 12009KT 30SM FEW280 22/10 A3009 RMK CI1 SLP184=

CYYC;2005-08-06 19:00;METAR CYYC 061900Z 15009KT 35SM FEW052 FEW280 24/11 A3006 RMK CU1CI1 SLP176=

CYYC;2005-08-06 20:00;METAR CYYC 062000Z 14011G16KT 35SM FEW052 FEW300 24/10 A3004 RMK CU1CI1 SLP168=

CYYC;2005-08-06 21:00;METAR CYYC 062100Z 15010G15KT 30SM FEW052 26/10 A3002 RMK CU1 SLP156=

CYYC;2005-08-06 22:00;METAR CYYC 062200Z 15012KT 30SM FEW058 26/10 A3000 RMK CU1 SLP150=

CYYC;2005-08-07 00:00;METAR CYYC 070000Z 15010G15KT 30SM FEW060 FEW150 FEW240 26/10 A2996 RMK CU1AC1CI1 SLP139=

CYYC;2005-08-07 01:00;METAR CYYC 070100Z 16014KT 30SM FEW065 FEW150 26/09 A2993 RMK CU1AC1 SLP131=

CYYC;2005-08-07 02:00;METAR CYYC 070200Z 15011G17KT 30SM FEW065 25/09 A2991 RMK CU1 SLP125=

CYYC;2005-08-07 03:00;METAR CYYC 070300Z 15011KT 30SM FEW060 FEW110 23/10 A2990 RMK CU1AC1 SLP116=

CYYC;2005-08-07 04:00;METAR CYYC 070400Z 16009KT 15SM FEW060 FEW100 22/09 A2991 RMK SC1AC1 SLP117=

CYYC;2005-08-07 05:00;METAR CYYC 070500Z 20007KT 15SM FEW100 18/10 A2990 RMK AC1 SLP114=

CYYC;2005-08-07 06:00;METAR CYYC 070600Z 15004KT 15SM FEW110 18/10 A2989 RMK AC1 SLP111=

CYYC;2005-08-07 07:00;METAR CYYC 070700Z 29002KT 15SM FEW260 17/10 A2990 RMK CI0 SLP113=

CYYC;2005-08-07 08:00;METAR CYYC 070800Z 34013KT 15SM SKC 15/10 A2993 RMK SLP122=

CYYC;2005-08-07 09:00;METAR CYYC 070900Z 33019G26KT 15SM FEW100 15/12 A2995 RMK AC1 SLP132=

CYYC;2005-08-07 11:00;METAR CYYC 071100Z 33019G27KT 15SM FEW100 14/11 A3000 RMK AC1 SLP147=

CYYC;2005-08-07 11:36;SPECI CYYC 071136Z 35018G30KT 15SM FEW009 13/ RMK SC2=

CYYC;2005-08-07 11:47;SPECI CYYC 071147Z 34020KT 15SM BKN011 13/ RMK SC5=

CYYC;2005-08-07 12:00;METAR CYYC 071200Z 35017G22KT 15SM BKN011 13/11 A3002 RMK SC6 SLP158=

CYYC;2005-08-07 12:23;SPECI CYYC 071223Z 35012G19KT 15SM BKN015 13/ RMK SC4=

CYYC;2005-08-07 13:00;METAR CYYC 071300Z 34014KT 20SM SCT012 13/12 A3004 RMK SC3 SLP164=

CYYC;2005-08-07 13:14;SPECI CYYC 071314Z 35016KT 20SM BKN012 14/ RMK SC6=

CYYC;2005-08-07 13:51;SPECI CYYC 071351Z 35013G22KT 20SM FEW012 14/ RMK SC2=

CYYC;2005-08-07 15:00;METAR CYYC 071500Z 35016G21KT 20SM FEW024 FEW140 FEW280 15/09 A3007 RMK CU1AC1CI1 SLP178=

CYYC;2005-08-07 16:00;METAR CYYC 071600Z 36012G19KT 30SM FEW032 FEW140 FEW280 17/09 A3007 RMK CU1AC1CI0 SLP178=

CYYC;2005-08-07 17:00;METAR CYYC 071700Z 36010KT 30SM FEW045 SCT250 BKN280 17/09 A3009 RMK CU2CI2CI0 SLP182=

CYYC;2005-08-07 18:00;METAR CYYC 071800Z 01007KT 30SM FEW035 SCT046 BKN280 19/10 A3008 RMK CU1SC3CI0 SLP183=

CYYC;2005-08-07 20:00;METAR CYYC 072000Z 36006KT 30SM BKN046 20/09 A3007 RMK CU6 SLP180=

CYYC;2005-08-07 21:00;METAR CYYC 072100Z 02008KT 30SM BKN046 20/10 A3006 RMK CU6 SLP177=

CYYC;2005-08-07 22:00;METAR CYYC 072200Z 01008KT 30SM BKN047 20/10 A3006 RMK CU6 SLP177=

CYYC;2005-08-07 23:00;METAR CYYC 072300Z 01006KT 30SM BKN047 20/10 A3006 RMK CU7 SH DIST SW SLP177=

CYYC;2005-08-08 00:00;METAR CYYC 080000Z 04010KT 30SM BKN049 19/10 A3006 RMK CU7 SLP182=

CYYC;2005-08-08 03:00;METAR CYYC 080300Z 03006KT 20SM OVC054 17/09 A3008 RMK SC8 SLP188=

CYYC;2005-08-08 04:00;METAR CYYC 080400Z 03006KT 15SM OVC049 17/10 A3009 RMK SC8 SLP192=

CYYC;2005-08-08 05:00;METAR CYYC 080500Z 35005KT 15SM OVC047 16/10 A3010 RMK SC8 SLP193=

CYYC;2005-08-08 05:36;SPECI CYYC 080536Z 34005KT 15SM -RA OVC049 16/ RMK SC8=

CYYC;2005-08-08 06:00;METAR CYYC 080600Z 02004KT 15SM -RA OVC049 16/10 A3011 RMK SC8 PCPN VRY LGT SLP194=

CYYC;2005-08-08 06:20;SPECI CYYC 080620Z 36004KT 15SM OVC048 16/ RMK SC8=

CYYC;2005-08-08 07:00;METAR CYYC 080700Z 34003KT 15SM OVC052 16/11 A3011 RMK SC8 SLP195=

CYYC;2005-08-08 09:00;METAR CYYC 080900Z 09008KT 15SM OVC041 15/09 A3012 RMK SC8 SLP197=

CYYC;2005-08-08 10:00;METAR CYYC 081000Z 11007KT 15SM OVC046 14/09 A3012 RMK SC8 SLP197=

CYYC;2005-08-08 11:00;METAR CYYC 081100Z 12006KT 15SM OVC045 14/08 A3011 RMK SC8 SLP194=

CYYC;2005-08-08 12:00;METAR CYYC 081200Z 13007KT 15SM OVC045 14/08 A3012 RMK SC8 SLP199=

CYYC;2005-08-08 13:00;METAR CYYC 081300Z 13006KT 30SM BKN042 BKN060 14/08 A3011 RMK SC6SC1 SLP198=

CYYC;2005-08-08 14:00;METAR CYYC 081400Z 13008KT 30SM BKN056 15/08 A3010 RMK SC7 SLP193=

CYYC;2005-08-08 15:00;METAR CYYC 081500Z 10008KT 30SM FEW040 BKN053 15/08 A3010 RMK CU1SC7 CU TR SLP196=

CYYC;2005-08-08 16:00;METAR CYYC 081600Z 13010KT 20SM FEW040 SCT050 BKN085 16/09 A3009 RMK CU1SC3AC1 CU TR SLP193=

CYYC;2005-08-08 17:00;METAR CYYC 081700Z 12009G16KT 20SM SCT040 BKN100 18/08 A3010 RMK SC3AC2 SLP195=

CYYC;2005-08-08 18:00;METAR CYYC 081800Z 07006KT 20SM FEW040 OVC047 18/09 A3010 RMK CU1SC6 SLP192=

CYYC;2005-08-08 20:00;METAR CYYC 082000Z 04014G19KT 12SM VCSH FEW035 OVC048 15/10 A3011 RMK CU1SC7 SLP196=

CYYC;2005-08-08 21:00;METAR CYYC 082100Z 03011G16KT 12SM -SHRA BKN046 OVC075 13/12 A3013 RMK SC6AC2 SLP211=

CYYC;2005-08-08 22:00;METAR CYYC 082200Z 01009KT 12SM -SHRA SCT045 OVC071 12/12 A3015 RERA RMK SC4AC3 SLP216=

CYYC;2005-08-08 23:00;METAR CYYC 082300Z 03004KT 10SM -SHRA VCFG SCT045 OVC070 12/12 A3015 RMK SC3AC5 FOG BANK W SLP218=

CYYC;2005-08-09 00:00;METAR CYYC 090000Z 02005KT 5SM -RA BR FEW017 SCT045 OVC072 12/12 A3017 RMK CF1SC3AC4 SLP227=

CYYC;2005-08-09 01:00;METAR CYYC 090100Z 34003KT 12SM -RA BKN030 OVC070 13/12 A3018 RMK SC6AC2 PCPN VRY LGT SLP229=

CYYC;2005-08-09 03:00;METAR CYYC 090300Z 25005KT 15SM FEW015 BKN085 BKN150 13/13 A3019 RMK SC1AC6AC1 SLP232=

CYYC;2005-08-09 04:00;METAR CYYC 090400Z 26003KT 15SM BKN084 12/12 A3020 RMK AC6 SLP236=

CYYC;2005-08-09 06:00;METAR CYYC 090600Z 00000KT 15SM SCT100 12/11 A3020 RMK AC3 SLP234=

CYYC;2005-08-09 07:00;METAR CYYC 090700Z 00000KT 15SM BKN091 11/11 A3020 RMK AC6 SLP234=

CYYC;2005-08-09 08:00;METAR CYYC 090800Z 00000KT 15SM BKN089 BKN120 10/10 A3019 RMK AC5AC1 SLP231=

CYYC;2005-08-09 09:00;METAR CYYC 090900Z 00000KT 15SM BKN079 10/10 A3019 RMK AC6 SLP237=

CYYC;2005-08-09 10:00;METAR CYYC 091000Z 00000KT 15SM BKN077 10/10 A3018 RMK AC7 SLP234=

CYYC;2005-08-09 11:00;METAR CYYC 091100Z 00000KT 15SM BKN088 BKN110 10/10 A3017 RMK AC6AC2 SLP232=

CYYC;2005-08-09 12:00;METAR CYYC 091200Z 15004KT 10SM BKN081 OVC110 12/11 A3017 RMK AC7AC1 SLP229=

CYYC;2005-08-09 13:00;METAR CYYC 091300Z 15006KT 12SM BKN075 BKN120 12/11 A3017 RMK AC6AC1 SLP229=

CYYC;2005-08-09 14:00;METAR CYYC 091400Z 15008KT 20SM BKN066 BKN120 13/11 A3016 RMK AC6AC1 SLP226=

CYYC;2005-08-09 15:00;METAR CYYC 091500Z 14008KT 20SM FEW040 BKN059 OVC080 14/12 A3015 RMK SC1SC6AC1 SLP222=

CYYC;2005-08-09 16:00;METAR CYYC 091600Z 16008KT 20SM FEW035 BKN065 14/12 A3015 RMK CF1SC6 SLP220=

CYYC;2005-08-09 17:00;METAR CYYC 091700Z 15010KT 20SM FEW040 BKN058 16/12 A3015 RMK CF1SC5 SLP220=

CYYC;2005-08-09 18:00;METAR CYYC 091800Z 17011KT 20SM FEW037 BKN062 17/12 A3015 RMK CU2SC6 SLP218=

CYYC;2005-08-09 19:00;METAR CYYC 091900Z 15010KT 20SM FEW035 BKN062 17/12 A3016 RMK CU2SC5 SLP220=

CYYC;2005-08-09 20:00;METAR CYYC 092000Z 13010G15KT 20SM FEW027 BKN060 18/12 A3015 RMK CU2SC3 SLP218=

CYYC;2005-08-09 22:00;METAR CYYC 092200Z 11005KT 20SM SCT040 BKN060 19/12 A3015 RMK CU3SC3 SLP218=

CYYC;2005-08-09 23:14;SPECI CYYC 092314Z 06007KT 10SM -SHRA FEW030 BKN056 OVC073 17/ RMK CU2SC5AC1 VIS W 5=

CYYC;2005-08-10 00:00;METAR CYYC 100000Z 04014KT 10SM -SHRA FEW030 OVC065 14/13 A3018 RMK CU2SC6 TCU ASOCTD SLP231=

CYYC;2005-08-10 01:00;METAR CYYC 100100Z 04012KT 12SM -SHRA FEW040 BKN060 OVC070 14/12 A3018 RMK CU2SC5AC1 TCU ASOCTD SLP232=

CYYC;2005-08-10 01:52;SPECI CYYC 100152Z 03013KT 15SM FEW012 FEW030 BKN070 13/ RMK CU1SC2AC5=

CYYC;2005-08-10 02:00;METAR CYYC 100200Z 04009G15KT 15SM FEW010 SCT030 BKN067 13/12 A3018 RMK CU1SC3AC4 SLP233=

CYYC;2005-08-10 02:11;SPECI CYYC 100211Z 04009KT 15SM -SHRA FEW010 SCT030 BKN068 13/ RMK CU1SC3AC4 CVCTV CLD EMBD=

CYYC;2005-08-10 03:00;METAR CYYC 100300Z 02008KT 15SM -SHRA FEW010 BKN037 OVC060 13/12 A3021 RMK CF1SC6SC2 CVCTV CLD EMBD SLP240=

CYYC;2005-08-10 03:26;SPECI CYYC 100326Z 02009KT 10SM VCSH BKN043 OVC060 13/ RMK SC6SC2=

CYYC;2005-08-10 03:36;SPECI CYYC 100336Z 02009KT 10SM -SHRA BKN037 OVC047 13/ RMK SC6SC2=

CYYC;2005-08-10 04:00;METAR CYYC 100400Z 04007KT 10SM -SHRA BKN045 OVC060 13/12 A3022 RMK SC6SC2 SLP245=

CYYC;2005-08-10 05:00;METAR CYYC 100500Z 04007KT 8SM -SHRA FEW020 OVC043 12/11 A3025 RERA RMK SC2SC6 CVCTV CLD EMBD SLP253=

CYYC;2005-08-10 05:43;SPECI CYYC 100543Z 04006KT 5SM -RA BR FEW009 OVC025 11/ RMK SC2SC6=

CYYC;2005-08-10 06:00;METAR CYYC 100600Z 04009KT 5SM -RA BR FEW004 BKN011 OVC043 12/12 A3024 RMK SF2SC5SC2 SLP247=

CYYC;2005-08-10 06:12;SPECI CYYC 100612Z 04012KT 6SM -RA BR FEW004 OVC008 11/ RMK SF2SC6=

CYYC;2005-08-10 06:53;SPECI CYYC 100653Z 05012G17KT 5SM -RA BR BKN004 OVC008 11/ RMK ST6SC2=

CYYC;2005-08-10 07:00;METAR CYYC 100700Z 05009G15KT 4SM BR OVC003 11/11 A3023 RMK ST8 SLP246=

CYYC;2005-08-10 07:28;SPECI CYYC 100728Z 06011KT 4SM BR OVC004 11/ RMK ST8=

CYYC;2005-08-10 08:28;SPECI CYYC 100828Z 08010KT 4SM BR OVC004 11/ RMK ST8=

CYYC;2005-08-10 09:00;METAR CYYC 100900Z 08008KT 6SM BR SCT004 OVC006 10/10 A3023 RMK ST3ST5 SLP244=

CYYC;2005-08-10 09:14;SPECI CYYC 100914Z 06007KT 6SM -RA BR SCT004 OVC006 10/ RMK ST3SC5=

CYYC;2005-08-10 10:00;METAR CYYC 101000Z 08009KT 4SM -RA BR OVC005 10/10 A3021 RMK SC8 SLP238=

CYYC;2005-08-10 10:37;SPECI CYYC 101037Z 09012KT 4SM -RA BR OVC004 10/ RMK SC8=

CYYC;2005-08-10 11:00;METAR CYYC 101100Z 08013KT 3SM -RA BR OVC004 10/10 A3019 RMK SC8 SLP234=

CYYC;2005-08-10 12:00;METAR CYYC 101200Z 08012KT 2 1/2SM -RA BR BKN006 OVC020 10/09 A3019 RMK SC7SC1 SLP238=

CYYC;2005-08-10 12:32;SPECI CYYC 101232Z 08012KT 1 3/4SM -RA BR FEW004 BKN006 OVC020 10/ RMK SF1SC6SC1=

CYYC;2005-08-10 13:00;METAR CYYC 101300Z 07009KT 2SM -RA BR BKN005 OVC008 09/09 A3020 RMK SF5SC3 SLP240=

CYYC;2005-08-10 14:00;METAR CYYC 101400Z 04006KT 2SM -RA BR OVC004 09/09 A3021 RMK SC8 SLP244=

CYYC;2005-08-10 14:12;SPECI CYYC 101412Z 03007KT 1 1/2SM -RA BR OVC003 09/ RMK SC8=

CYYC;2005-08-10 14:33;SPECI CYYC 101433Z 04008KT 3SM -RA BR OVC004 09/ RMK SC8=

CYYC;2005-08-10 15:00;METAR CYYC 101500Z 03010KT 3SM -RA BR BKN004 OVC006 08/08 A3022 RMK SC6SC2 SLP250=

CYYC;2005-08-10 16:00;METAR CYYC 101600Z 03012KT 3SM -RA BR BKN004 OVC006 08/08 A3022 RMK SC6SC2 SLP252=

CYYC;2005-08-10 16:15;SPECI CYYC 101615Z 03011KT 3SM -RA BR BKN004 OVC006 08/ RMK SC3SC5=

CYYC;2005-08-10 16:31;SPECI CYYC 101631Z 02010KT 1 1/4SM -RA BR OVC005 08/ RMK SC8=

CYYC;2005-08-10 17:00;METAR CYYC 101700Z 03013KT 1 1/2SM -RA BR BKN003 BKN005 OVC011 08/08 A3024 RMK SC1SC5SC2 SLP256=

CYYC;2005-08-10 17:38;SPECI CYYC 101738Z 03013KT 1 1/2SM -RA BR FEW003 BKN005 OVC011 09/ RMK SC1SC3SC4=

CYYC;2005-08-10 18:00;METAR CYYC 101800Z 04011KT 3SM -RA BR FEW004 BKN007 OVC012 09/08 A3025 RMK SC2SC3SC3 SLP264=

CYYC;2005-08-10 19:00;METAR CYYC 101900Z 04011KT 5SM -RA BR FEW005 BKN007 OVC012 08/08 A3026 RMK SC2SC3SC3 SLP266=

CYYC;2005-08-10 19:27;SPECI CYYC 101927Z 04011KT 8SM FEW005 BKN008 OVC012 08/ RMK SC2SC3SC3=

CYYC;2005-08-10 19:34;SPECI CYYC 101934Z 04009KT 7SM -RA FEW005 BKN008 OVC012 09/ RMK SC2SC3SC3=

CYYC;2005-08-10 20:00;METAR CYYC 102000Z 03013KT 4SM -RA BR FEW005 BKN009 OVC012 08/08 A3026 RMK SC2SC5SC2 SLP267=

CYYC;2005-08-10 22:00;METAR CYYC 102200Z 05007KT 7SM -RA BKN005 OVC025 08/08 A3028 RMK SC2SC6 SLP277=

CYYC;2005-08-10 23:00;METAR CYYC 102300Z 06005KT 15SM -RA BKN007 OVC020 08/08 A3027 RMK SC5SC3 PCPN VRY LGT SLP275=

CYYC;2005-08-11 00:00;METAR CYYC 110000Z 04007KT 15SM -RA BKN008 BKN020 BKN060 OVC080 09/08 A3027 RMK SC2SC3SC2AC1 PCPN VRY LGT SLP273=

CYYC;2005-08-11 01:00;METAR CYYC 110100Z 03005KT 15SM -RA SCT008 BKN016 BKN060 OVC080 08/08 A3027 RMK SC2SC2SC3AC1 SLP273=

CYYC;2005-08-11 04:00;METAR CYYC 110400Z 35004KT 15SM -RA FEW010 BKN028 BKN055 08/08 A3027 RMK CF1SC6SC1 PCPN VRY LGT SLP274=

CYYC;2005-08-11 05:00;METAR CYYC 110500Z 31004KT 15SM -RA FEW015 BKN028 BKN090 08/08 A3026 RMK SC1SC6AC1 SLP272=

CYYC;2005-08-11 05:26;SPECI CYYC 110526Z 29002KT 15SM FEW010 SCT028 BKN065 BKN120 08/ RMK SC1SC3SC2AC1=

CYYC;2005-08-11 06:00;METAR CYYC 110600Z 25006KT 15SM FEW030 FEW070 SCT110 BKN140 07/07 A3025 RMK SC1AC2AC2AC0 SLP269=

CYYC;2005-08-11 09:00;METAR CYYC 110900Z 26004KT 15SM FEW110 07/06 A3021 RMK AC1 SLP258=

CYYC;2005-08-11 10:00;METAR CYYC 111000Z 22004KT 15SM FEW002 06/05 A3020 RMK ST1 SLP254=

CYYC;2005-08-11 11:00;METAR CYYC 111100Z 26004KT 15SM FEW100 06/04 A3019 RMK AC1 SLP252=

CYYC;2005-08-11 12:00;METAR CYYC 111200Z 00000KT 20SM FEW100 FEW240 06/04 A3018 RMK AC1CI1 SLP248=

CYYC;2005-08-11 13:00;METAR CYYC 111300Z 27004KT 40SM FEW110 FEW240 07/04 A3018 RMK AC1CI1 SLP246=

CYYC;2005-08-11 14:00;METAR CYYC 111400Z 30006KT 40SM BKN064 BKN250 10/06 A3017 RMK SC6CI1 SLP243=

CYYC;2005-08-11 15:00;METAR CYYC 111500Z 25009KT 40SM FEW040 BKN054 BKN074 12/08 A3015 RMK SC1SC6AC1 SLP229=

CYYC;2005-08-11 16:00;METAR CYYC 111600Z 28009KT 40SM FEW040 FEW054 BKN074 13/06 A3015 RMK SC1SC2AC5 SLP229=

CYYC;2005-08-11 17:00;METAR CYYC 111700Z 31014KT 40SM FEW054 BKN078 BKN090 BKN160 16/07 A3015 RMK SC1AC2AC1AC1 SC+UPR AC LYR TR SLP228=

CYYC;2005-08-11 18:00;METAR CYYC 111800Z 32012G19KT 40SM FEW048 BKN075 BKN160 17/09 A3015 RMK SC1AC5AC1 SLP223=

CYYC;2005-08-11 19:00;METAR CYYC 111900Z 33025KT 40SM FEW044 BKN075 BKN160 18/08 A3014 RMK SC2AC3AC1 SLP221=

CYYC;2005-08-11 20:00;METAR CYYC 112000Z 33014KT 40SM SCT042 BKN075 BKN160 17/09 A3014 RMK SC3AC4AC1 SLP219=

CYYC;2005-08-11 21:00;METAR CYYC 112100Z 35013KT 40SM FEW040 BKN071 BKN160 17/09 A3014 RMK SC1AC4AC2 SLP219=

CYYC;2005-08-11 22:00;METAR CYYC 112200Z 35015G21KT 40SM FEW040 FEW071 BKN130 17/09 A3013 RMK SC1AC2AC6 SLP216=

CYYC;2005-08-11 23:00;METAR CYYC 112300Z 01014KT 40SM FEW040 FEW071 BKN130 17/10 A3013 RMK SC1AC1AC7 SLP217=

CYYC;2005-08-12 00:00;METAR CYYC 120000Z 01019G29KT 30SM FEW040 FEW071 BKN120 16/10 A3014 RMK SC1AC1AC6 SHS DIST NE+SW / LWR AC TR SLP224=

CYYC;2005-08-12 01:00;METAR CYYC 120100Z 36014G20KT 30SM FEW040 FEW071 BKN120 14/10 A3014 RMK SC1AC1AC6 SHS DIST NE+SW / LWR AC TR SLP223=

CYYC;2005-08-12 02:00;METAR CYYC 120200Z 35010G15KT 20SM FEW018 SCT040 BKN130 14/09 A3015 RMK SC1SC2AC4 SLP226=

CYYC;2005-08-12 03:00;METAR CYYC 120300Z 36008KT 20SM FEW020 FEW050 BKN190 12/09 A3017 RMK SC1SC2AC5 SLP229=

CYYC;2005-08-12 04:00;METAR CYYC 120400Z 05008KT 15SM FEW050 BKN190 10/08 A3018 RMK SC2AC4 SLP233=

CYYC;2005-08-12 05:00;METAR CYYC 120500Z 25005KT 15SM FEW015 BKN087 OVC150 11/09 A3019 RMK SC2AC4AC2 SLP235=

CYYC;2005-08-12 06:00;METAR CYYC 120600Z 01009KT 15SM FEW030 BKN140 11/08 A3020 RMK SC1AC3 SLP234=

CYYC;2005-08-12 10:00;METAR CYYC 121000Z 29003KT 15SM -RA FEW030 OVC090 09/08 A3021 RMK SC2AC6 SLP243=

CYYC;2005-08-12 11:00;METAR CYYC 121100Z 28002KT 15SM -RA FEW030 OVC092 09/09 A3021 RMK SC2AC6 SLP242=

CYYC;2005-08-12 12:00;METAR CYYC 121200Z 36009KT 12SM FEW015 SCT040 OVC060 09/08 A3022 RMK SC2SC2SC4 SLP247=

CYYC;2005-08-12 12:15;SPECI CYYC 121215Z 01009KT 8SM -RA SCT010 BKN024 OVC050 09/ RMK SC4SC2SC2 PCPN VRY LGT=

CYYC;2005-08-12 13:00;METAR CYYC 121300Z 36012KT 7SM -RA BCFG FEW020 OVC046 07/06 A3027 RERA RMK SC2SC6 FOG BANK S-W SLP262=

CYYC;2005-08-12 13:38;SPECI CYYC 121338Z 35008KT 15SM FEW020 FEW035 BKN072 07/ RMK SC1SC2AC5=

CYYC;2005-08-12 14:00;METAR CYYC 121400Z 32008KT 20SM FEW020 SCT035 BKN050 08/07 A3029 RMK SC1SC2SC5 SLP268=

CYYC;2005-08-12 14:49;SPECI CYYC 121449Z 34007KT 20SM BKN014 BKN029 OVC050 09/ RMK SC6SC2SC1=

CYYC;2005-08-12 15:00;METAR CYYC 121500Z 34010KT 20SM BKN014 BKN029 OVC050 09/07 A3030 RMK SC6SC2SC1 SLP282=

CYYC;2005-08-12 15:28;SPECI CYYC 121528Z 35013KT 20SM BKN014 BKN044 09/ RMK SC3SC2=

CYYC;2005-08-12 16:00;METAR CYYC 121600Z 36013KT 20SM BKN014 BKN044 09/06 A3031 RMK SC3SC2 SLP284=

CYYC;2005-08-12 17:00;METAR CYYC 121700Z 35015KT 20SM BKN021 10/05 A3032 RMK SC7 SLP288=

CYYC;2005-08-12 18:00;METAR CYYC 121800Z 36016KT 20SM FEW022 BKN027 BKN047 11/04 A3033 RMK CF1SC6SC2 SLP288=

CYYC;2005-08-12 19:00;METAR CYYC 121900Z 36012G20KT 20SM FEW022 BKN042 11/05 A3033 RMK SC1SC6 CF ASOCTD SLP289=

CYYC;2005-08-12 20:00;METAR CYYC 122000Z 03014KT 20SM FEW022 BKN054 12/05 A3033 RMK SC2SC4 SLP290=

CYYC;2005-08-12 21:00;METAR CYYC 122100Z 03012G17KT 20SM FEW026 BKN054 12/05 A3033 RMK SC2SC4 SLP292=

CYYC;2005-08-12 22:00;METAR CYYC 122200Z 01012KT 20SM SCT040 SCT054 13/03 A3033 RMK SC2SC1 SLP291=

CYYC;2005-08-12 23:00;METAR CYYC 122300Z 03009G15KT 20SM SCT042 SCT054 13/03 A3032 RMK SC2SC1 SLP288=

CYYC;2005-08-13 00:00;METAR CYYC 130000Z 03014KT 20SM FEW042 FEW054 13/03 A3031 RMK SC2SC1 SLP283=

CYYC;2005-08-13 01:00;METAR CYYC 130100Z 01007KT 20SM FEW044 FEW054 13/03 A3031 RMK SC2SC1 SLP281=

CYYC;2005-08-13 02:00;METAR CYYC 130200Z 05005KT 30SM FEW044 SCT060 11/04 A3031 RMK SC2SC2 CU ASOCTD SLP283=

CYYC;2005-08-13 03:00;METAR CYYC 130300Z 06003KT 30SM FEW040 FEW080 09/05 A3032 RMK SC2AC0 SLP293=

CYYC;2005-08-13 04:00;METAR CYYC 130400Z 09003KT 15SM FEW050 FEW100 09/04 A3032 RMK SC2AC1 AC TR SLP292=

CYYC;2005-08-13 06:00;METAR CYYC 130600Z 17004KT 15SM FEW060 08/04 A3030 RMK SC1 SC TR SLP285=

CYYC;2005-08-13 07:00;METAR CYYC 130700Z 18003KT 15SM FEW060 08/03 A3029 RMK SC1 SC TR SLP280=

CYYC;2005-08-13 09:00;METAR CYYC 130900Z 23003KT 15SM SKC 06/04 A3026 RMK SLP273=

CYYC;2005-08-13 10:00;METAR CYYC 131000Z 21003KT 15SM FEW080 05/03 A3025 RMK AC1 AC TR SLP269=

CYYC;2005-08-13 11:00;METAR CYYC 131100Z 19004KT 15SM FEW090 04/03 A3024 RMK AC1 AC TR SLP266=

CYYC;2005-08-13 12:00;METAR CYYC 131200Z 20005KT 30SM FEW090 03/02 A3023 RMK AC1 AC TR SLP262=

CYYC;2005-08-13 13:00;METAR CYYC 131300Z 19003KT 30SM FEW090 04/02 A3022 RMK AC1 AC TR SLP258=

CYYC;2005-08-13 14:00;METAR CYYC 131400Z 21004KT 40SM FEW090 FEW270 07/05 A3021 RMK AC1CI1 SLP256=

CYYC;2005-08-13 15:00;METAR CYYC 131500Z 22004KT 40SM FEW270 10/05 A3020 RMK CI1 SLP246=

CYYC;2005-08-13 16:00;METAR CYYC 131600Z 15003KT 40SM FEW040 FEW160 FEW270 14/06 A3019 RMK CF1AC1CI1 SLP244=

CYYC;2005-08-13 17:00;METAR CYYC 131700Z 18006KT 40SM FEW040 FEW160 FEW270 16/06 A3017 RMK CU1AC1CI1 SLP238=

CYYC;2005-08-13 18:00;METAR CYYC 131800Z 31008KT 40SM FEW045 FEW270 17/06 A3016 RMK CU1CI0 SLP225=

CYYC;2005-08-13 19:00;METAR CYYC 131900Z 33007KT 40SM FEW048 BKN270 18/05 A3014 RMK CU1CI0 SLP219=

CYYC;2005-08-13 22:00;METAR CYYC 132200Z 32006KT 40SM FEW056 FEW160 BKN250 20/05 A3009 RMK CU1AC1CI1 SLP204=

CYYC;2005-08-13 23:00;METAR CYYC 132300Z 00000KT 35SM FEW060 FEW150 BKN250 21/06 A3007 RMK CU1AC1CI1 SLP197=

CYYC;2005-08-14 00:00;METAR CYYC 140000Z 27003KT 35SM FEW240 21/05 A3005 RMK CI0 SLP190=

CYYC;2005-08-14 01:00;METAR CYYC 140100Z 00000KT 35SM FEW150 BKN230 20/04 A3005 RMK AC2CI1 FU ALF SLP190=

CYYC;2005-08-14 03:00;METAR CYYC 140300Z 14006KT 30SM SCT120 BKN240 15/07 A3004 RMK AC2CI2 SLP182=

CYYC;2005-08-14 04:00;METAR CYYC 140400Z 16006KT 15SM SCT130 BKN240 14/08 A3004 RMK AC2CI2 SLP184=

CYYC;2005-08-14 05:00;METAR CYYC 140500Z 00000KT 15SM FEW130 SCT240 14/08 A3006 RMK AC1CI1 SLP189=

CYYC;2005-08-14 06:00;METAR CYYC 140600Z 34006KT 15SM FEW090 BKN140 11/09 A3007 RMK AC1AC2 SLP193=

CYYC;2005-08-14 07:00;METAR CYYC 140700Z 03015KT 15SM BKN090 BKN150 12/10 A3011 RMK AC2AC1 SLP203=

CYYC;2005-08-14 08:00;METAR CYYC 140800Z 36010KT 5SM BR SCT006 OVC080 11/10 A3011 RMK ST4AC4 SLP205=

CYYC;2005-08-14 09:00;METAR CYYC 140900Z 27002KT 6SM BR FEW008 BKN080 OVC150 10/10 A3011 RMK ST2AC5AC2 SLP203=

CYYC;2005-08-14 10:00;METAR CYYC 141000Z 26002KT 6SM BR FEW090 BKN150 BKN230 11/10 A3010 RMK AC1AC6CI1 SLP201=

CYYC;2005-08-14 12:00;METAR CYYC 141200Z 00000KT 6SM BR BKN100 OVC220 10/09 A3009 RMK AC6CI1 SLP194=

CYYC;2005-08-14 13:00;METAR CYYC 141300Z 19003KT 6SM BR BKN100 BKN240 10/09 A3008 RMK AC3CI2 SLP190=

CYYC;2005-08-14 14:00;METAR CYYC 141400Z 20004KT 6SM BR FEW120 SCT240 11/10 A3008 RMK AC1CI0 SLP190=

CYYC;2005-08-14 15:00;METAR CYYC 141500Z 18003KT 6SM BR FEW120 FEW240 13/10 A3008 RMK AC1CI0 SLP195=

CYYC;2005-08-14 16:00;METAR CYYC 141600Z 18006KT 7SM FEW120 15/11 A3007 RMK AC1 HZ SLP191=

CYYC;2005-08-14 17:00;METAR CYYC 141700Z 16008KT 8SM FEW120 SCT140 16/11 A3006 RMK AC1AC2 HZ SLP189=

CYYC;2005-08-14 18:00;METAR CYYC 141800Z 18004KT 10SM FEW028 FEW120 SCT140 18/11 A3006 RMK CU1AC1AC2 HZ SLP188=

CYYC;2005-08-14 20:00;METAR CYYC 142000Z 01006KT 10SM BKN032 BKN120 17/10 A3007 RMK CU5AC1 HZ SLP191=

CYYC;2005-08-14 21:00;METAR CYYC 142100Z 04013KT 6SM FU FEW017 BKN032 BKN120 17/12 A3008 RMK SC2CU3AC1 SLP197=

CYYC;2005-08-14 22:00;METAR CYYC 142200Z 01013KT 8SM SCT020 SCT050 BKN140 16/11 A3009 RMK CU3SC1AC3 FU SLP199=

CYYC;2005-08-14 23:00;METAR CYYC 142300Z 02012KT 6SM FU FEW020 SCT033 OVC048 15/10 A3010 RMK CU1SC3SC5 SLP202=

CYYC;2005-08-14 23:30;SPECI CYYC 142330Z 36007KT 7SM -RA FEW020 BKN034 OVC048 14/ RMK SC2SC3SC3=

CYYC;2005-08-15 00:24;SPECI CYYC 150024Z 02007KT 5SM FU FEW020 FEW035 SCT050 BKN100 15/ RMK SC1SC2SC1AC2 CU ASOCTD / PRES UNSTDY=

CYYC;2005-08-15 01:00;METAR CYYC 150100Z 03009KT 5SM FU FEW011 FEW065 BKN098 13/11 A3009 RMK SC1SC2AC5 CU ASOCTD SLP203=

CYYC;2005-08-15 02:10;SPECI CYYC 150210Z 04005KT 12SM -RA FEW012 BKN042 OVC100 13/ RMK SC1SC4AC3=

CYYC;2005-08-15 02:34;SPECI CYYC 150234Z 04005KT 10SM -SHRA BKN009 BKN015 OVC040 13/ RMK SC5SC2SC1=

CYYC;2005-08-15 02:53;SPECI CYYC 150253Z 06007KT 6SM -SHRA SCT010 OVC044 13/ RMK SC4SC4=

CYYC;2005-08-15 03:00;METAR CYYC 150300Z 04003KT 5SM -SHRA BR SCT010 OVC046 12/12 A3011 RMK SC2SC6 SLP208=

CYYC;2005-08-15 03:13;SPECI CYYC 150313Z 05002KT 5SM BR FEW004 FEW010 OVC046 12/ RMK SF1SC2SC6=

CYYC;2005-08-15 04:00;METAR CYYC 150400Z 14005KT 10SM FEW012 SCT045 BKN140 12/12 A3009 RMK SC1SC3AC2 SLP201=

CYYC;2005-08-15 04:39;SPECI CYYC 150439Z 20009KT 8SM -RA FEW010 BKN040 OVC100 12/ RMK SC1SC4AC3=

CYYC;2005-08-15 05:00;METAR CYYC 150500Z 23004KT 8SM -RA FEW009 SCT040 OVC080 13/12 A3011 RMK SC2SC2AC5 PCPN VRY LGT SLP208=

CYYC;2005-08-15 05:41;SPECI CYYC 150541Z 21013KT 2 1/2SM RA BR FEW009 BKN038 OVC075 13/ RMK SC2SC4AC2=

CYYC;2005-08-15 05:48;SPECI CYYC 150548Z 21016G21KT 2 1/2SM TSRA BR FEW006 OVC038 13/ RMK SC2SC6 CB EMBD=

CYYC;2005-08-15 06:00;METAR CYYC 150600Z 21017KT 4SM +TSRA BR FEW008 BKN029 OVC047 12/12 A3008 RMK SC1SC6SC2 CB EMBD /LTNG OVRHD SLP190=

CYYC;2005-08-15 06:31;SPECI CYYC 150631Z 32010G15KT 5SM -TSRA BR FEW007 FEW012 OVC030 13/ RERA RMK SC1SC1SC6 CB EMBD WSHFT 0620Z=

CYYC;2005-08-15 06:39;SPECI CYYC 150639Z 36005KT 10SM -SHRA FEW007 FEW015 BKN030 OVC080 13/ RETSRA RMK SC1SC1SC5AC2 CB EMBD=

CYYC;2005-08-15 07:00;METAR CYYC 150700Z 36005KT 8SM -SHRA FEW014 BKN080 OVC120 12/12 A3012 RETSRA RMK SC2AC3AC2 CB EMBD / LTNG SE +SW SLP204=

CYYC;2005-08-15 07:50;SPECI CYYC 150750Z 14006KT 5SM BR FEW008 SCT015 BKN080 12/ RMK SC1SC2AC4=

CYYC;2005-08-15 08:00;METAR CYYC 150800Z 12003KT 6SM -SHRA BR FEW008 SCT015 OVC080 12/12 A3012 RMK SC1SC2AC5 SLP203=

CYYC;2005-08-15 09:00;METAR CYYC 150900Z 00000KT 5SM -SHRA BR FEW008 SCT030 BKN080 OVC120 11/11 A3012 RMK SC1SC2AC3AC1 SLP208=

CYYC;2005-08-15 09:24;SPECI CYYC 150924Z 00000KT 5SM BR FEW008 SCT030 BKN120 11/ RMK SC1SC3AC3=

CYYC;2005-08-15 10:00;METAR CYYC 151000Z 02003KT 2 1/2SM BR FEW004 OVC030 11/11 A3011 RMK SF2SC6 VIS LWR NE 11/4 SLP205=

CYYC;2005-08-15 10:11;SPECI CYYC 151011Z 06002KT 1 1/2SM BR OVC031 11/ RMK FG4SC4=

CYYC;2005-08-15 10:33;SPECI CYYC 151033Z 17003KT 3SM BR SCT003 BKN030 OVC100 11/ RMK SF2SC4AC2=

CYYC;2005-08-15 11:00;METAR CYYC 151100Z 36003KT 3SM BR SCT004 BKN031 OVC100 11/11 A3011 RMK SF2SC5AC1 SLP204=

CYYC;2005-08-15 11:18;SPECI CYYC 151118Z 00000KT 3SM BR BKN006 OVC030 12/ RMK ST5SC3=

CYYC;2005-08-15 11:24;SPECI CYYC 151124Z 00000KT 3SM BR BKN004 OVC030 12/ RMK ST5SC3=

CYYC;2005-08-15 11:40;SPECI CYYC 151140Z 00000KT 2SM BR BKN004 OVC030 11/ RMK ST6SC2=

CYYC;2005-08-15 12:00;METAR CYYC 151200Z 00000KT 1 1/2SM BR BKN003 BKN028 OVC120 11/11 A3010 RMK ST6SC2AC1 SLP206=

CYYC;2005-08-15 12:22;SPECI CYYC 151222Z 05002KT 1 1/2SM BR BKN005 OVC025 11/ RMK ST6SC2=

CYYC;2005-08-15 12:39;SPECI CYYC 151239Z 09003KT 1 3/4SM BR SCT005 BKN028 11/ RMK ST2SC5=

CYYC;2005-08-15 13:00;METAR CYYC 151300Z 06004KT 1 1/2SM BR BKN005 OVC028 12/12 A3012 RMK SC3SC5 SLP211=

CYYC;2005-08-15 14:00;METAR CYYC 151400Z 05004KT 2 1/2SM BR SCT005 OVC030 12/12 A3012 RMK SC4SC3 SLP211=

CYYC;2005-08-15 15:00;METAR CYYC 151500Z 14002KT 3SM BR BKN004 OVC020 13/12 A3012 RMK ST5SC2 SLP210=

CYYC;2005-08-15 15:37;SPECI CYYC 151537Z 10005KT 4SM BR OVC009 13/ RMK SC8=

CYYC;2005-08-15 16:00;METAR CYYC 151600Z 13004KT 4SM BR OVC009 13/12 A3011 RMK SC8 SLP208=

CYYC;2005-08-15 17:00;METAR CYYC 151700Z 04007KT 1 1/4SM BR OVC008 12/11 A3013 RMK ST8 SLP214=

CYYC;2005-08-15 18:00;METAR CYYC 151800Z 04010KT 1SM BR FEW002 OVC006 12/11 A3014 RMK ST2ST6 RVR RWY16 1800 FT SLP219=

CYYC;2005-08-15 18:26;SPECI CYYC 151826Z 03010KT 3/8SM FG VV001 11/ RMK FG8 RVR RWY28 4500 FT=

CYYC;2005-08-15 19:00;METAR CYYC 151900Z 03010KT 1/2SM FG VV002 11/11 A3015 RMK FG8 RVR RWY34 6000 FT SLP223=

CYYC;2005-08-15 20:00;METAR CYYC 152000Z 02010KT 1/2SM FG VV002 10/10 A3016 RMK FG8 RVR RWY28 6000 FT SLP227=

CYYC;2005-08-15 20:44;SPECI CYYC 152044Z 03010KT 3/4SM BR OVC003 10/ RMK FG4ST4 RVR RWY28 6000 FT=

CYYC;2005-08-15 21:50;SPECI CYYC 152150Z 03012KT 1 1/4SM BR OVC004 09/ RMK FG2ST6=

CYYC;2005-08-15 22:00;METAR CYYC 152200Z 03012KT 1 1/4SM -RA BR OVC004 09/09 A3018 RMK ST8 SLP237=

CYYC;2005-08-15 23:00;METAR CYYC 152300Z 03012KT 1SM -RA BR BKN004 OVC007 08/08 A3019 RMK ST6ST2 RVR RWY34 6000 FT SLP241=

CYYC;2005-08-16 00:00;METAR CYYC 160000Z 02012KT 1SM -RA BR BKN004 OVC007 08/08 A3021 RMK FG2ST5ST1 RVR RWY34 6000 FT SLP251=

CYYC;2005-08-16 00:45;SPECI CYYC 160045Z 02009KT 2SM -RA BR BKN004 OVC018 08/ RMK ST5SC3=

CYYC;2005-08-16 03:00;METAR CYYC 160300Z 05003KT 2 1/2SM -RA BR BKN004 OVC020 07/07 A3021 RMK ST6SC2 VIS LWR NE 11/4 SLP248=

CYYC;2005-08-16 03:06;SPECI CYYC 160306Z 06003KT 2 1/2SM -RA BR OVC002 07/ RMK FG3ST5=

CYYC;2005-08-16 03:22;SPECI CYYC 160322Z 04003KT 1 1/4SM -RA BR OVC002 07/ RMK FG4ST4=

CYYC;2005-08-16 03:32;SPECI CYYC 160332Z 04002KT 1 1/2SM -RA BR BKN002 OVC013 07/ RMK FG2ST4SC2=

CYYC;2005-08-16 03:42;SPECI CYYC 160342Z 04003KT 1 1/2SM -RA BR SCT002 BKN005 OVC013 07/ RMK ST2SC2SC3=

CYYC;2005-08-16 04:00;METAR CYYC 160400Z 06003KT 3SM -RA BR FEW002 BKN005 OVC013 07/07 A3021 RMK ST2SC6SC1 VIS LWR W 11/2 SLP248=

CYYC;2005-08-16 04:14;SPECI CYYC 160414Z 04003KT 2 1/2SM -RA BR FEW002 BKN004 OVC007 07/ RMK ST2SC5SC2=

CYYC;2005-08-16 04:25;SPECI CYYC 160425Z 04004KT 1 1/2SM -RA BR BKN003 OVC007 07/ RMK ST6SC2=

CYYC;2005-08-16 05:00;METAR CYYC 160500Z 04007KT 1 3/4SM -RA BR SCT002 OVC006 07/07 A3020 RMK ST2SC6 SLP247=

CYYC;2005-08-16 05:20;SPECI CYYC 160520Z 05005KT 1 3/4SM -RA BR BKN003 OVC006 07/ RMK ST3SC5=

CYYC;2005-08-16 06:00;METAR CYYC 160600Z 06005KT 1 3/4SM -RA BR SCT003 BKN006 OVC010 07/07 A3020 RMK SF2SC6SC1 SLP247=

CYYC;2005-08-16 07:00;METAR CYYC 160700Z 07005KT 2SM -RA BR SCT003 OVC005 07/07 A3019 RERA RMK SF2SC6 SLP246=

CYYC;2005-08-16 08:00;METAR CYYC 160800Z 08007KT 1 3/4SM -RA BR SCT003 OVC006 07/07 A3018 RMK ST2SC6 SLP242=

CYYC;2005-08-16 10:00;METAR CYYC 161000Z 35004KT 1 3/4SM -RA BR SCT002 BKN008 OVC012 07/07 A3018 RMK SF2SC5SC1 SLP243=

CYYC;2005-08-16 11:00;METAR CYYC 161100Z 01005KT 2 1/2SM -RA BR FEW002 BKN006 OVC012 07/07 A3016 RMK SF2SC6SC1 SLP238=

CYYC;2005-08-16 11:14;SPECI CYYC 161114Z 09006KT 3SM -RA BR FEW002 BKN007 OVC028 07/ RMK SF2SC2SC4=

CYYC;2005-08-16 11:38;SPECI CYYC 161138Z 12008KT 3SM BR FEW003 SCT023 BKN140 07/ RMK SF1SC3AC2 VIS W 2=

CYYC;2005-08-16 12:00;METAR CYYC 161200Z 12005KT 3SM BR SCT003 BKN023 OVC140 07/07 A3011 RMK SF2SC3AC2 SLP224=

CYYC;2005-08-16 12:16;SPECI CYYC 161216Z 11005KT 2SM BR BKN002 OVC023 07/ RMK SF3SC5=

CYYC;2005-08-16 12:20;SPECI CYYC 161220Z 12005KT 1 1/2SM BR BKN002 OVC023 07/ RMK SF5SC3=

CYYC;2005-08-16 12:32;SPECI CYYC 161232Z 12005KT 1SM BR BKN002 OVC006 07/ RMK ST6ST2 RVR RWY 16 6000 FT=

CYYC;2005-08-16 12:41;SPECI CYYC 161241Z 12005KT 1/2SM FG OVC002 07/ RMK ST8 RVR RWY 16 3500 FT=

CYYC;2005-08-16 12:48;SPECI CYYC 161248Z 12006KT 1/4SM FG VV001 07/ RMK FG8 RVR RWY 16 4500 FT=

CYYC;2005-08-16 13:09;SPECI CYYC 161309Z 12005KT 3/4SM -DZ BR VV002 07/ RMK FG8 RVR RWY 16 2400 FT=

CYYC;2005-08-16 14:00;METAR CYYC 161400Z 12008KT 1/2SM -DZ FG VV002 08/08 A3009 RMK FG8 RVR RWY28 1800 FT SLP216=

CYYC;2005-08-16 14:55;SPECI CYYC 161455Z 10007KT 3/8SM -DZ FG VV002 08/ RMK FG8 RVR RWY16 6000 FT=

CYYC;2005-08-16 15:00;METAR CYYC 161500Z 10006KT 3/8SM -DZ FG VV002 08/08 A3009 RMK FG8 RVR RWY34 6000 FT SLP216=

CYYC;2005-08-16 15:28;SPECI CYYC 161528Z 11004KT 3SM -DZ BR OVC006 08/ RMK ST8=

CYYC;2005-08-16 16:00;METAR CYYC 161600Z 10004KT 4SM -DZ BR OVC006 08/08 A3008 RMK ST8 SLP214=

CYYC;2005-08-16 17:00;METAR CYYC 161700Z 12005KT 5SM -DZ BR OVC008 09/09 A3007 RMK ST8 SLP211=

CYYC;2005-08-16 18:00;METAR CYYC 161800Z 13004KT 5SM -DZ BR OVC007 09/08 A3006 RMK ST8 SLP203=

CYYC;2005-08-16 19:00;METAR CYYC 161900Z 19003KT 6SM BR OVC009 10/09 A3006 RMK ST8 SLP202=

CYYC;2005-08-16 20:00;METAR CYYC 162000Z 07002KT 6SM BR OVC007 10/09 A3005 RMK SC8 SLP198=

CYYC;2005-08-16 21:00;METAR CYYC 162100Z 09004KT 8SM BCFG OVC009 11/09 A3003 RMK SC8 FOG BANK W SLP191=

CYYC;2005-08-16 21:25;SPECI CYYC 162125Z 11005KT 8SM BCFG OVC010 11/ RMK SC8 FOG BANK W=

CYYC;2005-08-16 22:00;METAR CYYC 162200Z 11006KT 8SM BCFG OVC010 11/09 A3001 RMK SC8 FOG BANK W SLP185=

CYYC;2005-08-16 23:00;METAR CYYC 162300Z 10005KT 9SM OVC007 11/10 A3002 RMK SC8 SLP186=

CYYC;2005-08-17 00:00;METAR CYYC 170000Z 11002KT 9SM OVC007 11/10 A3001 RMK SC8 SLP185=

CYYC;2005-08-17 00:10;SPECI CYYC 170010Z 06006KT 6SM BR OVC004 10/ RMK ST8=

CYYC;2005-08-17 00:32;SPECI CYYC 170032Z 03005KT 4SM -RA BR OVC004 10/ RMK ST8=

CYYC;2005-08-17 00:49;SPECI CYYC 170049Z 01007KT 3SM -TSRA BR OVC006 10/ RMK SC8 LTGIC E/ CB EMBD=

CYYC;2005-08-17 01:00;METAR CYYC 170100Z 04012KT 3SM -TSRA BR OVC006 10/09 A3003 RERA RMK SC8 LTGIC N-E/ CB EMBD/VIS E 11/2 SLP189=

CYYC;2005-08-17 01:06;SPECI CYYC 170106Z 03011KT 1SM -TSRA BR BKN009 OVC017 10/ RMK SC6SC2 LTGIC N-E/ CB EMBD/ VIS W 1/2=

CYYC;2005-08-17 01:42;SPECI CYYC 170142Z 06006KT 2 1/2SM -TSRA BR SCT003 BKN020 OVC037 10/ RERA RMK SF2SC3SC2 CB EMBD=

CYYC;2005-08-17 01:56;SPECI CYYC 170156Z 03006KT 2 1/2SM -SHRA BR BKN004 BKN008 OVC020 10/ RETSRA RMK SF3SC3SC2=

CYYC;2005-08-17 02:00;METAR CYYC 170200Z 02005KT 2 1/2SM -SHRA BR BKN004 BKN006 OVC020 10/09 A3003 RETSRA RMK SF3SC3SC2 CB EMBD SLP189=

CYYC;2005-08-17 02:28;SPECI CYYC 170228Z 10002KT 2 1/2SM +SHRA BR BKN005 OVC010 10/ RMK SC5SC3=

CYYC;2005-08-17 02:48;SPECI CYYC 170248Z 17003KT 2 1/2SM -SHRA BR SCT005 BKN014 BKN020 BKN070 09/ RERA RMK SC3SC2SC1AC1=

CYYC;2005-08-17 03:00;METAR CYYC 170300Z 00000KT 2 1/2SM SHRA BR SCT005 BKN013 OVC020 10/09 A3005 RERA RMK SC3SC2SC2 CB EMBD SLP196=

CYYC;2005-08-17 03:45;SPECI CYYC 170345Z 08006KT 3SM -SHRA BR FEW005 SCT013 BKN050 BKN080 09/ RERA RMK SC2SC2SC2AC1=

CYYC;2005-08-17 04:00;METAR CYYC 170400Z 04005KT 4SM -SHRA BR BKN004 OVC011 09/09 A3001 RERA RMK ST5SC3 SLP185=

CYYC;2005-08-17 05:00;METAR CYYC 170500Z 06003KT 6SM -SHRA BR BKN004 OVC012 09/09 A2999 RMK ST6SC2 SLP178=

CYYC;2005-08-17 05:14;SPECI CYYC 170514Z 06002KT 5SM -SHRA BR FEW002 BKN006 OVC010 09/ RMK ST2SC5SC1=

CYYC;2005-08-17 05:50;SPECI CYYC 170550Z 07002KT 4SM BR FEW002 OVC004 09/ RMK SF2SC6=

CYYC;2005-08-17 06:00;METAR CYYC 170600Z 08004KT 4SM BR SCT002 BKN006 OVC012 09/09 A2997 RMK SF2SC4SC2 SLP170=

CYYC;2005-08-17 06:48;SPECI CYYC 170648Z 00000KT 3SM BR SCT002 OVC011 09/ RMK SF3SC5=

CYYC;2005-08-17 07:00;METAR CYYC 170700Z 22003KT 3SM BR SCT002 SCT010 BKN019 09/09 A2996 RMK SF2SC2SC3 SLP165=

CYYC;2005-08-17 07:25;SPECI CYYC 170725Z 16002KT 3SM BR SCT002 BKN009 OVC019 09/ RMK SF2SC6SC1=

CYYC;2005-08-17 07:44;SPECI CYYC 170744Z 00000KT 3SM -SHRA BR SCT003 BKN008 OVC012 09/ RMK SF2SC5SC1=

CYYC;2005-08-17 08:00;METAR CYYC 170800Z 09004KT 2 1/2SM -SHRA BR FEW002 BKN005 OVC010 09/09 A2994 RMK SF1SC6SC2 SLP160=

CYYC;2005-08-17 08:49;SPECI CYYC 170849Z 06006KT 3SM -SHRA BR FEW003 SCT007 BKN030 OVC070 09/ RMK SF2SC2SC2AC2=

CYYC;2005-08-17 09:00;METAR CYYC 170900Z 04004KT 3SM -SHRA BR SCT003 SCT024 OVC050 09/09 A2992 RMK SF2SC2SC4 SLP149=

CYYC;2005-08-17 10:00;METAR CYYC 171000Z 05006KT 2 1/2SM -SHRA BR SCT003 SCT020 OVC055 09/09 A2990 RERA RMK SF3SC1SC4 SLP145=

CYYC;2005-08-17 10:26;SPECI CYYC 171026Z 05006KT 3SM -SHRA BR FEW003 SCT020 OVC067 08/ RMK SF2SC2AC4=

CYYC;2005-08-17 11:00;METAR CYYC 171100Z 05005KT 3SM -SHRA BR BKN003 OVC039 08/08 A2988 RMK SF3SC5 SLP139=

CYYC;2005-08-17 11:15;SPECI CYYC 171115Z 06003KT 3SM SHRA BR BKN004 OVC039 08/ RMK SF6SC2=

CYYC;2005-08-17 11:46;SPECI CYYC 171146Z 08005KT 3SM -SHRA BR SCT003 BKN007 OVC039 09/ RERA RMK SF2SC4SC2=

CYYC;2005-08-17 12:00;METAR CYYC 171200Z 07007KT 3SM -SHRA BR FEW003 BKN008 OVC039 09/09 A2987 RERA RMK SF2SC3SC3 SLP132=

CYYC;2005-08-17 12:14;SPECI CYYC 171214Z 07005KT 3SM -RA BR FEW003 SCT012 OVC020 09/ RMK SF2SC2SC4=

CYYC;2005-08-17 12:21;SPECI CYYC 171221Z 09010KT 2 1/2SM -RA BR FEW003 BKN009 OVC015 08/ RMK SF2SC4SC2=

CYYC;2005-08-17 12:45;SPECI CYYC 171245Z 03002KT 4SM -RA BR FEW002 BKN005 OVC012 08/ RMK SF2SC6SC1=

CYYC;2005-08-17 13:00;METAR CYYC 171300Z 03003KT 2SM RA BR FEW003 OVC007 08/08 A2987 RMK SF2SC6 SLP134=

CYYC;2005-08-17 15:00;METAR CYYC 171500Z 35009KT 4SM -RA BR BKN004 BKN009 OVC033 08/08 A2987 RMK SC1SC6SC2 SLP135=

CYYC;2005-08-17 15:15;SPECI CYYC 171515Z 36011KT 4SM -RA BR BKN003 BKN009 OVC028 09/ RMK SC1SC3SC4=

CYYC;2005-08-17 16:00;METAR CYYC 171600Z 35010KT 5SM -RA BR SCT003 BKN007 OVC039 09/09 A2987 RMK SF0SC6SC2 SLP135=

CYYC;2005-08-17 17:00;METAR CYYC 171700Z 35014G21KT 5SM -RA BR SCT003 BKN007 OVC035 09/08 A2989 RMK SF0SC6SC2 SLP141=

CYYC;2005-08-17 17:43;SPECI CYYC 171743Z 34015G20KT 5SM -RA BR SCT007 OVC035 09/ RMK SC2SC6=

CYYC;2005-08-17 18:00;METAR CYYC 171800Z 35016KT 8SM -RA SCT008 OVC035 09/08 A2990 RMK SC2SC6 SLP147=

CYYC;2005-08-17 19:00;METAR CYYC 171900Z 34017G24KT 8SM -RA SCT010 OVC035 08/08 A2992 RMK SC2SC6 SLP152=

CYYC;2005-08-17 20:00;METAR CYYC 172000Z 34021KT 8SM -RA SCT010 OVC039 08/07 A2994 RMK SC2SC6 SLP157=

CYYC;2005-08-17 21:00;METAR CYYC 172100Z 34018KT 15SM -RA BKN015 OVC036 08/06 A2995 RMK SC5SC3 SLP166=

CYYC;2005-08-17 22:00;METAR CYYC 172200Z 35015G21KT 20SM -RA BKN015 OVC025 08/06 A2996 RMK SC4SC4 PCPN VRY LGT SLP168=

CYYC;2005-08-17 22:22;SPECI CYYC 172222Z 35018KT 20SM BKN017 OVC025 08/ RMK SC6SC2=

CYYC;2005-08-17 23:00;METAR CYYC 172300Z 36015G22KT 20SM BKN017 OVC028 09/06 A2997 RMK SC5SC3 SLP170=

CYYC;2005-08-17 23:36;SPECI CYYC 172336Z 34012KT 20SM SCT017 BKN028 OVC042 09/ RMK SC3SC1SC4=

CYYC;2005-08-18 00:00;METAR CYYC 180000Z 34010KT 20SM SCT017 BKN035 BKN042 09/06 A2997 RMK SC2SC2SC3 SLP171=

CYYC;2005-08-18 01:00;METAR CYYC 180100Z 34014KT 20SM FEW018 BKN037 BKN072 10/06 A2998 RMK SC1SC2AC3 SHS NE-S SLP173=

CYYC;2005-08-18 04:00;METAR CYYC 180400Z 34007KT 15SM FEW040 OVC085 08/05 A3002 RMK SC2AC6 SLP190=

CYYC;2005-08-18 05:00;METAR CYYC 180500Z 31009KT 15SM FEW050 BKN090 BKN110 07/05 A3003 RMK SC2AC2AC2 SLP191=

CYYC;2005-08-18 06:00;METAR CYYC 180600Z 31008KT 15SM FEW080 05/03 A3003 RMK AC2 SLP195=

CYYC;2005-08-18 07:00;METAR CYYC 180700Z 30006KT 15SM FEW070 05/03 A3002 RMK AC2 SLP193=

CYYC;2005-08-18 08:00;METAR CYYC 180800Z 28004KT 15SM OVC071 06/03 A3002 RMK AC7 SLP193=

CYYC;2005-08-18 09:00;METAR CYYC 180900Z 31006KT 15SM OVC071 07/03 A3002 RMK AC8 SLP191=

CYYC;2005-08-18 11:00;METAR CYYC 181100Z 25006KT 15SM BKN067 OVC110 06/03 A2999 RMK AC6AC2 SLP182=

CYYC;2005-08-18 12:00;METAR CYYC 181200Z 25005KT 20SM BKN067 OVC110 06/03 A2998 RMK AC6AC2 SLP177=

CYYC;2005-08-18 13:00;METAR CYYC 181300Z 25004KT 40SM SCT069 BKN110 05/02 A2998 RMK AC3AC2 SLP176=

CYYC;2005-08-18 14:00;METAR CYYC 181400Z 25004KT 40SM FEW060 FEW080 07/03 A2997 RMK SC1AC1 SLP175=

CYYC;2005-08-18 15:00;METAR CYYC 181500Z 24006KT 40SM FEW060 FEW080 FEW120 09/03 A2997 RMK SC1AC1AC1 SLP173=

CYYC;2005-08-18 17:00;METAR CYYC 181700Z 28004KT 40SM FEW035 FEW085 FEW140 11/02 A2996 RMK SC1AC1AC1 LWR CLD LYRS TR SLP168=

CYYC;2005-08-18 18:00;METAR CYYC 181800Z 34008KT 40SM SCT042 BKN085 BKN140 12/02 A2995 RMK SC4AC2AC1 SLP164=

CYYC;2005-08-18 19:00;METAR CYYC 181900Z 35007KT 40SM FEW042 BKN077 BKN140 12/02 A2994 RMK SC1AC6AC1 UPR AC TR SLP162=

CYYC;2005-08-18 21:00;METAR CYYC 182100Z 36008KT 40SM FEW042 BKN077 BKN140 12/02 A2994 RMK SC1AC7AC1 VIRGA SLP159=

CYYC;2005-08-18 23:00;METAR CYYC 182300Z 01009KT 30SM FEW047 BKN075 12/04 A2994 RMK SC1AC6 VIRGA SLP159=

CYYC;2005-08-19 01:00;METAR CYYC 190100Z 06005KT 30SM FEW050 SCT075 BKN100 11/06 A2995 RMK SC1AC2AC6 VIRGA SLP164=

CYYC;2005-08-19 02:00;METAR CYYC 190200Z 10003KT 30SM FEW050 FEW080 BKN120 10/07 A2994 RMK SC1AC2AC5 VIRGA SE SLP161=

CYYC;2005-08-19 03:00;METAR CYYC 190300Z 00000KT 30SM FEW060 OVC110 09/07 A2996 RMK SC2AC6 SLP165=

CYYC;2005-08-19 04:00;METAR CYYC 190400Z 00000KT 15SM FEW065 FEW090 OVC120 08/06 A2997 RMK SC1AC2AC5 SLP168=

CYYC;2005-08-19 05:00;METAR CYYC 190500Z 06004KT 15SM OVC120 07/06 A2997 RMK AC7 SLP168=

CYYC;2005-08-19 06:00;METAR CYYC 190600Z 00000KT 15SM BKN120 OVC230 08/07 A2997 RMK AC6CI2 SLP167=

CYYC;2005-08-19 08:00;METAR CYYC 190800Z 14002KT 15SM FEW150 06/05 A2996 RMK AC1 SLP165=

CYYC;2005-08-19 10:00;METAR CYYC 191000Z 22005KT 15SM FEW150 04/03 A2994 RMK AC1 SLP163=

CYYC;2005-08-19 11:00;METAR CYYC 191100Z 23004KT 15SM FEW150 05/04 A2994 RMK AC1 SLP162=

CYYC;2005-08-19 12:00;METAR CYYC 191200Z 00000KT 30SM FEW070 FEW120 03/02 A2995 RMK AC1AC1 SLP169=

CYYC;2005-08-19 13:00;METAR CYYC 191300Z 00000KT 40SM FEW070 FEW120 04/04 A2995 RMK AC1AC1 SLP170=

CYYC;2005-08-19 14:00;METAR CYYC 191400Z 08003KT 40SM FEW070 FEW120 06/05 A2997 RMK AC1AC1 SLP174=

CYYC;2005-08-19 15:00;METAR CYYC 191500Z 21002KT 40SM FEW070 11/06 A2997 RMK AC0 SLP166=

CYYC;2005-08-19 16:00;METAR CYYC 191600Z 00000KT 40SM FEW056 FEW240 14/05 A2997 RMK SC0CI1 SLP166=

CYYC;2005-08-19 17:00;METAR CYYC 191700Z 00000KT 40SM FEW056 FEW240 18/04 A2997 RMK SC1CI1 SLP166=

CYYC;2005-08-19 18:00;METAR CYYC 191800Z 31011KT 40SM FEW065 FEW240 19/04 A2997 RMK SC1CI1 SLP156=

CYYC;2005-08-19 19:00;METAR CYYC 191900Z 35011KT 40SM FEW065 FEW240 20/05 A2996 RMK SC1CI1 SLP154=

CYYC;2005-08-19 20:00;METAR CYYC 192000Z 01008KT 40SM FEW065 FEW220 20/05 A2997 RMK SC1CI0 SLP156=

CYYC;2005-08-19 21:00;METAR CYYC 192100Z 32004KT 40SM FEW063 FEW220 BKN260 20/05 A2996 RMK CU1CI0CI1 SLP158=

CYYC;2005-08-19 22:00;METAR CYYC 192200Z 35002KT 40SM FEW063 FEW220 BKN260 21/05 A2996 RMK CU1CI0CI1 SLP158=

CYYC;2005-08-19 23:00;METAR CYYC 192300Z 30004KT 40SM FEW063 FEW220 FEW260 22/04 A2996 RMK CU1CI1CI1 SLP156=

CYYC;2005-08-20 00:00;METAR CYYC 200000Z 10007KT 40SM FEW220 FEW260 21/06 A2996 RMK CI1CI0 SLP157=

CYYC;2005-08-20 01:00;METAR CYYC 200100Z 13007KT 30SM FEW160 FEW220 FEW260 20/06 A2995 RMK AC1CI1CI1 SLP154=

CYYC;2005-08-20 02:00;METAR CYYC 200200Z 13008KT 30SM FEW160 FEW250 18/07 A2996 RMK AC1CI0 SLP157=

CYYC;2005-08-20 03:00;METAR CYYC 200300Z 12008KT 30SM FEW120 FEW250 14/08 A2996 RMK AC1CI0 SLP158=

CYYC;2005-08-20 04:00;METAR CYYC 200400Z 14007KT 15SM FEW120 FEW260 14/07 A2997 RMK AC1CI0 SLP161=

CYYC;2005-08-20 05:00;METAR CYYC 200500Z 16007KT 15SM FEW120 FEW240 13/07 A2999 RMK AC1CI1 SLP165=

CYYC;2005-08-20 06:00;METAR CYYC 200600Z 16005KT 15SM FEW140 FEW250 12/06 A2999 RMK AC1CI0 SLP157=

CYYC;2005-08-20 07:00;METAR CYYC 200700Z 17003KT 15SM FEW130 FEW260 13/06 A3000 RMK AC1CI0 SLP159=

CYYC;2005-08-20 08:00;METAR CYYC 200800Z 21002KT 15SM FEW120 BKN270 11/06 A3000 RMK AC1CI0 SLP159=

CYYC;2005-08-20 09:00;METAR CYYC 200900Z 34004KT 15SM FEW120 FEW270 07/05 A2999 RMK AC1CI0 SLP164=

CYYC;2005-08-20 10:00;METAR CYYC 201000Z 33002KT 15SM FEW120 FEW260 07/05 A2999 RMK AC1CI1 SLP163=

CYYC;2005-08-20 11:00;METAR CYYC 201100Z 21003KT 15SM FEW110 FEW260 08/06 A2999 RMK AC1CI0 SLP164=

CYYC;2005-08-20 12:00;METAR CYYC 201200Z 22003KT 30SM FEW110 FEW250 07/06 A2999 RMK AC1CI0 SLP163=

CYYC;2005-08-20 13:00;METAR CYYC 201300Z 00000KT 40SM FEW080 FEW110 BKN260 09/06 A3000 RMK AC1AC1CI1 SLP165=

CYYC;2005-08-20 14:00;METAR CYYC 201400Z 18003KT 40SM FEW100 FEW130 SCT260 10/08 A3001 RMK AC1AC1CI1 SLP169=

CYYC;2005-08-20 15:00;METAR CYYC 201500Z 19003KT 40SM FEW100 SCT170 BKN250 15/08 A3001 RMK AC1AC2CI2 SLP168=

CYYC;2005-08-20 16:00;METAR CYYC 201600Z 19005KT 40SM SCT170 BKN250 19/10 A3002 RMK AC2CI1 SLP172=

CYYC;2005-08-20 17:00;METAR CYYC 201700Z 20005KT 40SM FEW070 BKN180 BKN250 20/09 A3002 RMK AC1AC5CI1 SLP171=

CYYC;2005-08-20 18:00;METAR CYYC 201800Z 18004KT 40SM FEW090 SCT180 OVC250 21/11 A3002 RMK AC1AC3CI2 SLP165=

CYYC;2005-08-20 20:00;METAR CYYC 202000Z 21005KT 40SM FEW120 SCT170 BKN240 24/10 A3002 RMK AC1AC3CI1 SLP165=

CYYC;2005-08-20 21:00;METAR CYYC 202100Z 19007KT 40SM FEW120 SCT170 BKN270 25/08 A3002 RMK AC2AC2CI0 SLP165=

CYYC;2005-08-20 22:00;METAR CYYC 202200Z 19009KT 40SM FEW120 BKN150 BKN270 25/10 A3001 RMK AC1AC6CI1 SLP163=

CYYC;2005-08-20 23:00;METAR CYYC 202300Z 20007KT 40SM FEW120 BKN150 BKN270 23/10 A3001 RMK AC2AC4CI0 SLP164=

CYYC;2005-08-21 00:00;METAR CYYC 210000Z 18004KT 40SM FEW100 BKN130 BKN270 22/10 A3001 RMK AC2AC5CI0 ACSL SLP168=

CYYC;2005-08-21 01:00;METAR CYYC 210100Z 19006KT 40SM FEW100 SCT130 BKN270 21/11 A3001 RMK AC1AC2CI0 ACSL SLP167=

CYYC;2005-08-21 02:00;METAR CYYC 210200Z 13006KT 40SM FEW100 SCT140 BKN260 20/12 A3001 RMK AC1AC2CI0 SLP167=

CYYC;2005-08-21 03:00;METAR CYYC 210300Z 16002KT 40SM SCT140 BKN260 20/12 A3003 RMK AC2CI0 SLP166=

CYYC;2005-08-21 04:00;METAR CYYC 210400Z 18005KT 15SM FEW140 FEW260 17/11 A3004 RMK AC2CI1 SLP171=

CYYC;2005-08-21 05:00;METAR CYYC 210500Z 15002KT 15SM FEW140 FEW260 16/12 A3005 RMK AC1CI1 SLP173=

CYYC;2005-08-21 06:00;METAR CYYC 210600Z 00000KT 15SM FEW120 FEW260 14/11 A3005 RMK AC1CI0 SLP174=

CYYC;2005-08-21 08:00;METAR CYYC 210800Z 05003KT 15SM FEW260 09/07 A3004 RMK CI0 SLP171=

CYYC;2005-08-21 09:00;METAR CYYC 210900Z 13002KT 15SM FEW260 11/09 A3005 RMK CI0 SLP170=

CYYC;2005-08-21 10:00;METAR CYYC 211000Z 17004KT 15SM FEW260 10/08 A3005 RMK CI0 SLP170=

CYYC;2005-08-21 11:00;METAR CYYC 211100Z 15003KT 15SM SKC 10/08 A3004 RMK SLP168=

CYYC;2005-08-21 12:00;METAR CYYC 211200Z 18004KT 15SM FEW100 10/07 A3005 RMK AC1 SLP176=

CYYC;2005-08-21 13:00;METAR CYYC 211300Z 20003KT 40SM SKC 09/06 A3006 RMK SLP179=

CYYC;2005-08-21 14:00;METAR CYYC 211400Z 19003KT 40SM SKC 12/09 A3006 RMK SLP180=

CYYC;2005-08-21 15:00;METAR CYYC 211500Z 19004KT 40SM SKC 15/10 A3006 RMK SLP179=

CYYC;2005-08-21 16:00;METAR CYYC 211600Z 20005KT 40SM SKC 19/11 A3006 RMK SLP177=

CYYC;2005-08-21 17:00;METAR CYYC 211700Z 20005KT 40SM SKC 23/11 A3005 RMK SLP173=

CYYC;2005-08-21 18:00;METAR CYYC 211800Z 19007KT 40SM SKC 25/12 A3002 RMK SLP159=

CYYC;2005-08-21 19:00;METAR CYYC 211900Z 18007KT 40SM SKC 27/10 A3001 RMK SLP154=

CYYC;2005-08-21 20:00;METAR CYYC 212000Z 18007KT 40SM SKC 27/07 A2999 RMK SLP149=

CYYC;2005-08-21 21:00;METAR CYYC 212100Z 19005KT 40SM SKC 28/07 A2997 RMK SLP139=

CYYC;2005-08-21 22:00;METAR CYYC 212200Z 18008KT 40SM SKC 28/07 A2994 RMK SLP131=

CYYC;2005-08-21 23:00;METAR CYYC 212300Z 20006KT 40SM FEW280 29/06 A2991 RMK CI1 SLP122=

CYYC;2005-08-22 00:00;METAR CYYC 220000Z 18009KT 40SM FEW280 29/07 A2989 RMK CI1 SLP114=

CYYC;2005-08-22 02:00;METAR CYYC 220200Z 14005KT 40SM FEW170 BKN280 24/12 A2985 RMK AC1CI0 SLP103=

CYYC;2005-08-22 03:00;METAR CYYC 220300Z 27003KT 40SM FEW080 FEW140 BKN270 24/07 A2986 RMK AC1AC1CI0 SLP104=

CYYC;2005-08-22 04:00;METAR CYYC 220400Z 25003KT 15SM FEW080 FEW150 BKN270 21/06 A2987 RMK AC1AC1CI0 SLP105=

CYYC;2005-08-22 05:00;METAR CYYC 220500Z 00000KT 15SM BKN180 BKN260 23/05 A2988 RMK AC2CI0 SLP108=

CYYC;2005-08-22 06:00;METAR CYYC 220600Z 28006KT 15SM FEW120 BKN250 18/08 A2989 RMK AC1CI2 SLP107=

CYYC;2005-08-22 07:00;METAR CYYC 220700Z 34007KT 15SM FEW120 BKN250 18/06 A2992 RMK AC1CI2 SLP118=

CYYC;2005-08-22 08:00;METAR CYYC 220800Z 36014G22KT 15SM SCT180 BKN250 14/10 A2998 RMK AC1CI0 PRESRR SLP135=

CYYC;2005-08-22 09:00;METAR CYYC 220900Z 35014G19KT 15SM SCT180 BKN250 13/09 A2999 RMK AC0CI0 SLP145=

CYYC;2005-08-22 10:00;METAR CYYC 221000Z 35009KT 15SM FEW240 12/09 A3003 RMK CI0 SLP155=

CYYC;2005-08-22 11:00;METAR CYYC 221100Z 34007KT 15SM FEW160 FEW240 10/08 A3005 RMK AC1CI1 SLP162=

CYYC;2005-08-22 12:00;METAR CYYC 221200Z 34007KT 15SM FEW080 FEW120 SCT240 09/08 A3008 RMK AC1AC1CI2 SLP179=

CYYC;2005-08-22 13:00;METAR CYYC 221300Z 33006KT 20SM FEW080 FEW120 SCT250 10/08 A3010 RMK AC1AC2CI0 SLP186=

CYYC;2005-08-22 14:00;METAR CYYC 221400Z 32004KT 20SM FEW080 FEW120 SCT250 12/08 A3011 RMK AC1AC1CI1 SLP190=

CYYC;2005-08-22 15:00;METAR CYYC 221500Z 02005KT 30SM FEW080 SCT120 BKN250 14/06 A3012 RMK AC1AC2CI1 SLP196=

CYYC;2005-08-22 16:00;METAR CYYC 221600Z 09002KT 30SM SCT060 BKN090 14/06 A3013 RMK SC4AC2 SLP199=

CYYC;2005-08-22 17:00;METAR CYYC 221700Z 09003KT 30SM FEW060 SCT100 BKN250 15/05 A3012 RMK SC2AC1CI1 SLP196=

CYYC;2005-08-22 18:00;METAR CYYC 221800Z 08002KT 30SM SCT100 BKN240 16/05 A3009 RMK AC2CI1 SLP190=

CYYC;2005-08-22 19:00;METAR CYYC 221900Z 11005KT 30SM SCT100 BKN240 16/06 A3008 RMK AC2CI2 SLP187=

CYYC;2005-08-22 20:00;METAR CYYC 222000Z 09006KT 30SM FEW050 BKN110 BKN230 16/07 A3006 RMK SC1AC4CI1 SLP179=

CYYC;2005-08-22 21:00;METAR CYYC 222100Z 12010KT 30SM FEW050 BKN100 BKN220 16/07 A3003 RMK SC1AC5CI1 SLP172=

CYYC;2005-08-22 22:00;METAR CYYC 222200Z 13011KT 30SM FEW080 BKN100 BKN220 18/08 A3001 RMK AC2AC4CI1 SLP167=

CYYC;2005-08-22 23:00;METAR CYYC 222300Z 13009KT 30SM FEW080 BKN130 BKN220 18/08 A2999 RMK AC1AC4CI1 SLP160=

CYYC;2005-08-23 00:00;METAR CYYC 230000Z 13010KT 30SM FEW080 BKN130 BKN220 17/07 A2997 RMK AC1AC5CI2 SLP158=

CYYC;2005-08-23 02:00;METAR CYYC 230200Z 09007KT 20SM FEW060 FEW110 SCT240 14/09 A2994 RMK CU1AC1CI0 SLP149=

CYYC;2005-08-23 03:00;METAR CYYC 230300Z 08008KT 20SM FEW030 FEW060 FEW100 SCT240 12/08 A2995 RMK CF1CU1AC2CI0 SLP153=

CYYC;2005-08-23 04:00;METAR CYYC 230400Z 05005KT 15SM FEW060 SCT120 BKN180 11/07 A2996 RMK SC1AC2AC0 SLP154=

CYYC;2005-08-23 05:00;METAR CYYC 230500Z 01004KT 15SM FEW040 BKN110 BKN160 10/07 A2995 RMK SC2AC2AC2 SLP153=

CYYC;2005-08-23 05:31;SPECI CYYC 230531Z 04005KT 15SM -RA SCT040 BKN100 BKN160 07/ RMK SC3AC4AC1=

CYYC;2005-08-23 05:49;SPECI CYYC 230549Z 05005KT 15SM -TSRA SCT040 BKN080 BKN110 10/ RMK SC3AC3AC1 CB EMBD=

CYYC;2005-08-23 06:00;METAR CYYC 230600Z 36006KT 15SM -TSRA SCT040 BKN080 BKN110 10/08 A2996 RMK SC3AC2AC2 CB EMBD SLP154=

CYYC;2005-08-23 06:23;SPECI CYYC 230623Z 04006KT 15SM -SHRA SCT040 BKN110 BKN240 10/ RETS RMK SC3AC3CI1=

CYYC;2005-08-23 06:47;SPECI CYYC 230647Z 04004KT 15SM SCT040 OVC080 10/ RETS RMK SC4AC4 CB EMBD / LTNG W=

CYYC;2005-08-23 07:00;METAR CYYC 230700Z 02003KT 15SM BKN039 OVC080 10/08 A2995 RETS RMK SC6AC2 CB EMBD SLP152=

CYYC;2005-08-23 09:00;METAR CYYC 230900Z 34005KT 15SM SCT040 SCT100 OVC140 10/07 A2991 RMK SC3AC1AC3 SLP139=

CYYC;2005-08-23 10:00;METAR CYYC 231000Z 35002KT 15SM BKN040 BKN140 OVC200 10/08 A2989 RMK SC5AC2CI1 SLP132=

CYYC;2005-08-23 11:00;METAR CYYC 231100Z 34007KT 15SM OVC040 10/08 A2990 RMK SC8 SLP134=

CYYC;2005-08-23 12:00;METAR CYYC 231200Z 36011KT 15SM BKN039 10/06 A2990 RMK SC7 SLP133=

CYYC;2005-08-23 13:00;METAR CYYC 231300Z 01013KT 20SM OVC042 10/06 A2989 RMK SC8 SLP130=

CYYC;2005-08-23 14:00;METAR CYYC 231400Z 36009KT 30SM OVC041 10/07 A2988 RMK SC8 SLP126=

CYYC;2005-08-23 15:00;METAR CYYC 231500Z 34010KT 20SM FEW026 OVC043 10/08 A2989 RMK SC2SC6 SHS=

CYYC;2005-08-23 15:20;SPECI CYYC 231520Z 36014KT 10SM -SHRA SCT026 OVC040 10/ RMK SC3SC5=

CYYC;2005-08-23 16:00;METAR CYYC 231600Z 36014KT 15SM -SHRA FEW015 BKN028 OVC040 09/08 A2989 RMK SC2SC6SC1 SLP136=

CYYC;2005-08-23 16:44;SPECI CYYC 231644Z 35011G16KT 15SM FEW008 OVC018 09/ RMK SF1SC7=

CYYC;2005-08-23 17:00;METAR CYYC 231700Z 36013KT 15SM FEW008 OVC019 09/07 A2989 RMK SF1SC7 SLP137=

CYYC;2005-08-23 17:41;SPECI CYYC 231741Z 36017KT 2 1/2SM -RA BR OVC012 08/ RMK SC8=

CYYC;2005-08-23 17:47;SPECI CYYC 231747Z 01015G20KT 1 1/4SM -RA BR FEW007 OVC012 08/ RMK SF2SC6=

CYYC;2005-08-23 18:00;METAR CYYC 231800Z 36015KT 1 1/4SM -RA BR FEW007 OVC014 08/07 A2990 RMK SF2SC6 VIS W 5/8 SLP147=

CYYC;2005-08-23 19:00;METAR CYYC 231900Z 35010KT 1 1/4SM -RA BR OVC006 08/08 A2990 RMK SC8 SLP146=

CYYC;2005-08-23 20:51;SPECI CYYC 232051Z 32018G24KT 15SM FEW010 OVC021 06/ RMK SC1SC7=

CYYC;2005-08-23 21:00;METAR CYYC 232100Z 32014G24KT 15SM FEW010 OVC021 06/05 A2991 RMK SC1SC7 SLP151=

CYYC;2005-08-23 21:20;SPECI CYYC 232120Z 31014G20KT 5SM -RA BR OVC021 06/ RMK SC8=

CYYC;2005-08-23 22:00;METAR CYYC 232200Z 32018G24KT 5SM -RA BR OVC025 06/05 A2991 RERA RMK SC8 SLP153=

CYYC;2005-08-23 23:00;METAR CYYC 232300Z 33022G27KT 15SM -RA FEW025 OVC054 07/06 A2991 RMK SC2SC6 SLP151=

CYYC;2005-08-24 00:00;METAR CYYC 240000Z 32018KT 20SM -RA BKN023 OVC054 07/05 A2991 RMK SC5SC3 PCPN VRY LGT SLP152=

CYYC;2005-08-24 01:28;SPECI CYYC 240128Z 33012G17KT 7SM -RA FEW008 OVC011 07/ RMK SC2SC6=

CYYC;2005-08-24 01:53;SPECI CYYC 240153Z 33016KT 1 3/4SM -RA BR BKN009 OVC012 07/ RMK SC6SC2=

CYYC;2005-08-24 02:00;METAR CYYC 240200Z 33013G18KT 1 3/4SM -RA BR SCT005 BKN008 OVC012 07/07 A2992 RMK SF3SC3SC2 SLP154=

CYYC;2005-08-24 02:22;SPECI CYYC 240222Z 33012KT 3SM -RA BR FEW005 BKN008 OVC013 07/ RMK SF2SC3SC2=

CYYC;2005-08-24 03:00;METAR CYYC 240300Z 32014KT 3SM -RA BR BKN009 OVC013 07/07 A2993 RMK SC6SC2 SLP157=

CYYC;2005-08-24 03:08;SPECI CYYC 240308Z 33013G18KT 2 1/2SM -RA BR BKN009 OVC012 07/ RMK SC6SC2=

CYYC;2005-08-24 03:21;SPECI CYYC 240321Z 33015KT 3SM -RA BR SCT009 OVC014 07/ RMK SC4SC4=

CYYC;2005-08-24 04:00;METAR CYYC 240400Z 33018KT 15SM -RA FEW008 OVC022 07/07 A2992 RMK SC2SC6 SLP153=

CYYC;2005-08-24 07:00;METAR CYYC 240700Z 33017G26KT 15SM -RA FEW008 BKN026 OVC040 07/07 A2990 RERA RMK SF2SC5SC2 SLP151=

CYYC;2005-08-24 07:50;SPECI CYYC 240750Z 34018G25KT 10SM -RA FEW008 BKN012 OVC025 08/ RMK SF2SC5SC1=

CYYC;2005-08-24 09:00;METAR CYYC 240900Z 34020G26KT 6SM -RA BR FEW008 SCT022 OVC045 08/07 A2989 RMK SF2SC2SC4 SLP148=

CYYC;2005-08-24 10:00;METAR CYYC 241000Z 34025G30KT 6SM RA BR FEW010 SCT020 OVC034 07/07 A2989 RMK SF1SC3SC4 SLP148=

CYYC;2005-08-24 11:00;METAR CYYC 241100Z 34021G30KT 8SM -RA FEW008 OVC029 07/06 A2988 RERA RMK SF2SC6 SLP145=

CYYC;2005-08-24 12:00;METAR CYYC 241200Z 33026G32KT 10SM -RA FEW008 BKN024 OVC031 07/07 A2987 RERA RMK SF2SC5SC2 SLP142=

CYYC;2005-08-24 13:00;METAR CYYC 241300Z 34022G32KT 6SM -RA BR BKN010 OVC023 07/07 A2988 RMK SC3SC5 SLP145=

CYYC;2005-08-24 13:28;SPECI CYYC 241328Z 35016G29KT 6SM -RA BKN010 OVC023 07/ RMK SC5SC3=

CYYC;2005-08-24 14:00;METAR CYYC 241400Z 35021G28KT 7SM -RA BKN009 OVC023 07/07 A2991 RMK SC5SC3 SLP153=

CYYC;2005-08-24 14:16;SPECI CYYC 241416Z 35024KT 7SM -RA BKN009 OVC034 07/ RMK SC3SC5=

CYYC;2005-08-24 15:00;METAR CYYC 241500Z 34023G31KT 7SM -RA BKN009 BKN019 OVC038 07/06 A2992 RMK SC3SC3SC2 SLP156=

CYYC;2005-08-24 16:00;METAR CYYC 241600Z 33024G31KT 7SM -RA BKN011 BKN026 OVC038 08/07 A2992 RMK SC4SC2SC2 SLP158=

CYYC;2005-08-24 18:00;METAR CYYC 241800Z 33021G33KT 7SM -RA BKN015 BKN027 OVC038 08/07 A2993 RMK SC4SC3SC1 SLP159=

CYYC;2005-08-24 19:00;METAR CYYC 241900Z 33020G28KT 7SM -RA BKN015 OVC027 09/08 A2994 RMK SC4SC4 SLP163=

CYYC;2005-08-24 20:00;METAR CYYC 242000Z 33025G32KT 6SM -RA BKN018 OVC030 09/08 A2995 RMK SC3SC5 SLP165=

CYYC;2005-08-24 21:00;METAR CYYC 242100Z 33022G32KT 6SM -RA BKN019 OVC030 09/08 A2995 RMK SC5SC3 SLP166=

CYYC;2005-08-24 21:44;SPECI CYYC 242144Z 01015KT 6SM -RA BKN011 OVC030 07/ RERA RMK SC6SC2=

CYYC;2005-08-24 22:00;METAR CYYC 242200Z 36012G17KT 6SM -RA BKN010 OVC030 07/07 A2999 RERA RMK SC6SC2 SLP176=

CYYC;2005-08-24 22:18;SPECI CYYC 242218Z 35022G36KT 6SM -RA BKN010 OVC034 08/ RMK SC4SC4=

CYYC;2005-08-24 23:00;METAR CYYC 242300Z 34020G25KT 5SM -RA SCT012 OVC037 08/08 A3000 RMK SC2SC6 SLP180=

CYYC;2005-08-25 00:00;METAR CYYC 250000Z 35018G24KT 5SM -RA SCT022 OVC034 09/08 A3001 RMK SC2SC6 /R10/ SLP188=

CYYC;2005-08-25 01:00;METAR CYYC 250100Z 33016G26KT 5SM -RA SCT017 OVC033 09/09 A3002 RMK SC2SC6 SLP191=

CYYC;2005-08-25 03:00;METAR CYYC 250300Z 32017KT 6SM -RA BR FEW015 BKN058 OVC069 09/07 A3003 RMK SC1SC6AC1 SLP193=

CYYC;2005-08-25 04:00;METAR CYYC 250400Z 32010G15KT 10SM -RA SCT050 OVC077 10/07 A3003 RMK SC3AC5 SLP192=

CYYC;2005-08-25 04:48;SPECI CYYC 250448Z 30013KT 12SM FEW020 OVC130 10/ RMK SC1AC7=

CYYC;2005-08-25 05:00;METAR CYYC 250500Z 30015G20KT 15SM FEW020 FEW045 OVC130 11/08 A3002 RMK SC1SC2AC6 SLP189=

CYYC;2005-08-25 06:00;METAR CYYC 250600Z 31014KT 15SM FEW040 OVC100 10/07 A3001 RMK SC2AC6 SLP183=

CYYC;2005-08-25 09:00;METAR CYYC 250900Z 31012KT 15SM FEW050 OVC180 09/06 A3001 RMK SC2AC6 SLP183=

CYYC;2005-08-25 10:00;METAR CYYC 251000Z 31010KT 15SM FEW055 BKN180 BKN240 09/06 A3002 RMK SC2AC3CI2 SLP186=

CYYC;2005-08-25 11:00;METAR CYYC 251100Z 31011KT 15SM SCT180 BKN240 09/06 A3002 RMK AC3CI2 SLP187=

CYYC;2005-08-25 12:00;METAR CYYC 251200Z 31009KT 15SM FEW090 SCT180 BKN240 07/05 A3003 RMK AC1AC2CI2 SLP193=

CYYC;2005-08-25 13:00;METAR CYYC 251300Z 32007KT 40SM FEW090 SCT180 BKN250 07/05 A3003 RMK AC1AC2CI1 SLP194=

CYYC;2005-08-25 14:00;METAR CYYC 251400Z 32008KT 40SM FEW180 BKN250 08/05 A3004 RMK AC1CI1 SLP196=

CYYC;2005-08-25 15:00;METAR CYYC 251500Z 31008KT 40SM FEW180 BKN240 12/06 A3005 RMK AC1CI1 SLP192=

CYYC;2005-08-25 16:00;METAR CYYC 251600Z 32010KT 40SM FEW180 BKN240 14/06 A3005 RMK AC1CI1 SLP194=

CYYC;2005-08-25 17:00;METAR CYYC 251700Z 32012KT 40SM FEW180 SCT240 15/06 A3004 RMK AC1CI1 SLP191=

CYYC;2005-08-25 18:00;METAR CYYC 251800Z 33015KT 40SM FEW180 SCT250 17/06 A3005 RMK AC1CI1 SLP183=

CYYC;2005-08-25 19:00;METAR CYYC 251900Z 35014G19KT 40SM FEW080 FEW180 BKN250 18/07 A3004 RMK AC1AC1CI1 SLP181=

CYYC;2005-08-25 20:00;METAR CYYC 252000Z 34009G15KT 40SM FEW055 FEW180 BKN250 18/07 A3004 RMK CU1AC1CI1 AC TR SLP180=

CYYC;2005-08-25 21:00;METAR CYYC 252100Z 01006KT 40SM FEW060 FEW180 BKN250 19/06 A3002 RMK CU1AC1CI0 SLP174=

CYYC;2005-08-25 22:00;METAR CYYC 252200Z 34008KT 40SM FEW060 FEW180 FEW260 20/06 A3001 RMK CU1AC1CI0 SLP171=

CYYC;2005-08-25 23:00;METAR CYYC 252300Z 01005KT 40SM FEW060 FEW180 FEW260 20/06 A3001 RMK CU1AC1CI0 SLP169=

CYYC;2005-08-26 00:00;METAR CYYC 260000Z 36004KT 40SM FEW060 FEW260 20/05 A3000 RMK CU1CI1 SLP167=

CYYC;2005-08-26 01:00;METAR CYYC 260100Z 05005KT 40SM FEW060 FEW260 18/09 A3000 RMK CU1CI1 SLP167=

CYYC;2005-08-26 02:00;METAR CYYC 260200Z 06005KT 40SM SKC 15/10 A3000 RMK SLP167=

CYYC;2005-08-26 03:00;METAR CYYC 260300Z 13005KT 20SM SKC 15/08 A3000 RMK SLP168=

CYYC;2005-08-26 05:00;METAR CYYC 260500Z 00000KT 15SM SKC 12/09 A3002 RMK SLP174=

CYYC;2005-08-26 06:00;METAR CYYC 260600Z 33002KT 15SM SKC 09/07 A3001 RMK SLP173=

CYYC;2005-08-26 07:00;METAR CYYC 260700Z 35002KT 15SM SKC 07/06 A3000 RMK SLP169=

CYYC;2005-08-26 09:00;METAR CYYC 260900Z 30002KT 15SM SKC 06/04 A2997 RMK SLP160=

CYYC;2005-08-26 10:00;METAR CYYC 261000Z 21005KT 15SM SKC 06/05 A2996 RMK SLP157=

CYYC;2005-08-26 11:00;METAR CYYC 261100Z 20007KT 15SM SKC 07/05 A2995 RMK SLP154=

CYYC;2005-08-26 13:00;METAR CYYC 261300Z 00000KT 40SM SKC 11/03 A2995 RMK SLP152=

CYYC;2005-08-26 16:00;METAR CYYC 261600Z 29007KT 40SM FEW250 20/06 A2996 RMK CI0 SLP146=

CYYC;2005-08-26 17:00;METAR CYYC 261700Z 32008KT 40SM FEW260 22/08 A2996 RMK CI0 SLP146=

CYYC;2005-08-26 18:00;METAR CYYC 261800Z 31009KT 40SM FEW260 23/06 A2995 RMK CI0 SLP143=

CYYC;2005-08-26 20:00;METAR CYYC 262000Z 32007KT 40SM FEW210 FEW260 24/08 A2993 RMK CI1CI0 SLP139=

CYYC;2005-08-26 21:00;METAR CYYC 262100Z 36006KT 40SM FEW200 FEW260 25/09 A2992 RMK CI1CI0 SLP136=

CYYC;2005-08-26 22:00;METAR CYYC 262200Z 34003KT 40SM FEW200 FEW260 25/08 A2991 RMK CI1CI0 SLP133=

CYYC;2005-08-26 23:00;METAR CYYC 262300Z 09004KT 40SM SCT200 BKN260 25/09 A2990 RMK CI2CI0 SLP130=

CYYC;2005-08-27 00:00;METAR CYYC 270000Z 12010KT 40SM SCT200 BKN260 24/10 A2990 RMK CI2CI0 SLP130=

CYYC;2005-08-27 01:00;METAR CYYC 270100Z 13008KT 40SM SCT200 BKN260 22/10 A2991 RMK CI2CI0 SLP131=

CYYC;2005-08-27 02:00;METAR CYYC 270200Z 13006KT 40SM SCT180 BKN250 20/11 A2990 RMK AC2CI2 SLP129=

CYYC;2005-08-27 03:00;METAR CYYC 270300Z 14005KT 40SM SCT230 OVC250 19/11 A2992 RMK CI4CI2 SLP126=

CYYC;2005-08-27 04:00;METAR CYYC 270400Z 16005KT 15SM SCT230 BKN250 17/11 A2992 RMK CI3CI2 SLP128=

CYYC;2005-08-27 05:00;METAR CYYC 270500Z 23004KT 15SM FEW250 17/10 A2994 RMK CI1 SLP134=

CYYC;2005-08-27 06:00;METAR CYYC 270600Z 25003KT 15SM FEW250 16/11 A2996 RMK CI1 SLP137=

CYYC;2005-08-27 07:00;METAR CYYC 270700Z 28003KT 15SM FEW250 13/07 A2995 RMK CI1 CI TR SLP136=

CYYC;2005-08-27 08:00;METAR CYYC 270800Z 32002KT 15SM FEW250 11/05 A2995 RMK CI1 CI TR SLP136=

CYYC;2005-08-27 10:00;METAR CYYC 271000Z 01004KT 15SM SKC 10/05 A2996 RMK SLP145=

CYYC;2005-08-27 11:00;METAR CYYC 271100Z 30004KT 15SM SKC 08/04 A2997 RMK SLP148=

CYYC;2005-08-27 12:00;METAR CYYC 271200Z 35004KT 15SM SKC 09/03 A2998 RMK SLP150=

CYYC;2005-08-27 13:00;METAR CYYC 271300Z 01002KT 40SM FEW160 08/03 A2999 RMK AC1 AC TR SLP155=

CYYC;2005-08-27 14:00;METAR CYYC 271400Z 34002KT 40SM FEW090 FEW160 11/07 A3000 RMK AC1AC1 SLP158=

CYYC;2005-08-27 15:00;METAR CYYC 271500Z 00000KT 40SM FEW140 14/07 A3001 RMK AC1 SLP164=

CYYC;2005-08-27 16:00;METAR CYYC 271600Z 32003KT 40SM FEW140 18/09 A3003 RMK AC1 SLP168=

CYYC;2005-08-27 17:00;METAR CYYC 271700Z 06003KT 40SM FEW160 21/09 A3002 RMK AC1 SLP166=

CYYC;2005-08-27 18:00;METAR CYYC 271800Z 10006KT 40SM FEW160 SCT260 22/11 A3001 RMK AC1CI1 SLP157=

CYYC;2005-08-27 19:00;METAR CYYC 271900Z 15006KT 40SM FEW160 BKN240 22/11 A2999 RMK AC2CI2 SLP151=

CYYC;2005-08-27 20:00;METAR CYYC 272000Z 13009KT 40SM FEW180 SCT250 23/10 A2998 RMK AC1CI0 SLP147=

CYYC;2005-08-27 21:00;METAR CYYC 272100Z 14008KT 40SM FEW160 FEW240 FEW280 24/10 A2996 RMK AC1CI1CI1 SLP145=

CYYC;2005-08-27 22:00;METAR CYYC 272200Z 18007KT 40SM FEW240 FEW280 25/10 A2994 RMK CI1CI1 SLP140=

CYYC;2005-08-28 00:00;METAR CYYC 280000Z 17010KT 35SM FEW160 24/08 A2992 RMK AC1 SLP130=

CYYC;2005-08-28 01:00;METAR CYYC 280100Z 15011KT 30SM FEW060 FEW260 23/08 A2991 RMK CU1CI1 SLP128=

CYYC;2005-08-28 03:00;METAR CYYC 280300Z 13006KT 20SM FEW080 18/10 A2991 RMK AC1 SLP129=

CYYC;2005-08-28 04:00;METAR CYYC 280400Z 16007KT 15SM SKC 17/09 A2991 RMK SLP129=

CYYC;2005-08-28 05:00;METAR CYYC 280500Z 17005KT 15SM SKC 14/10 A2990 RMK SLP128=

CYYC;2005-08-28 06:00;METAR CYYC 280600Z 22002KT 15SM SKC 15/09 A2990 RMK SLP120=

CYYC;2005-08-28 08:00;METAR CYYC 280800Z 03003KT 15SM SKC 12/09 A2988 RMK SLP115=

CYYC;2005-08-28 09:00;METAR CYYC 280900Z 19004KT 15SM SKC 11/09 A2989 RMK SLP118=

CYYC;2005-08-28 10:00;METAR CYYC 281000Z 00000KT 15SM FEW250 10/08 A2989 RMK CI1 SLP118=

CYYC;2005-08-28 11:00;METAR CYYC 281100Z 18003KT 15SM SKC 12/07 A2989 RMK SLP119=

CYYC;2005-08-28 12:00;METAR CYYC 281200Z 00000KT 15SM FEW240 10/07 A2989 RMK CI1 SLP118=

CYYC;2005-08-28 13:00;METAR CYYC 281300Z 22003KT 40SM FEW240 11/06 A2988 RMK CI1 SLP117=

CYYC;2005-08-28 14:00;METAR CYYC 281400Z 31004KT 40SM FEW240 15/07 A2989 RMK CI1 SLP120=

CYYC;2005-08-28 15:00;METAR CYYC 281500Z 19003KT 40SM FEW260 16/09 A2990 RMK CI1 SLP122=

CYYC;2005-08-28 16:00;METAR CYYC 281600Z 21004KT 40SM FEW150 FEW260 20/10 A2990 RMK AC1CI1 SLP122=

CYYC;2005-08-28 17:00;METAR CYYC 281700Z 23006KT 40SM FEW120 FEW300 23/09 A2989 RMK AC1CI0 SLP121=

CYYC;2005-08-28 18:00;METAR CYYC 281800Z 19002KT 40SM FEW120 FEW240 FEW280 24/08 A2988 RMK AC1CI1CI0 SLP109=

CYYC;2005-08-28 19:00;METAR CYYC 281900Z 22004KT 40SM FEW280 25/08 A2987 RMK CI1 SLP107=

CYYC;2005-08-28 20:00;METAR CYYC 282000Z 13010KT 40SM FEW070 FEW260 26/08 A2986 RMK CU1CI1 SLP104=

CYYC;2005-08-28 21:00;METAR CYYC 282100Z 19011G16KT 40SM FEW073 FEW180 FEW280 27/08 A2985 RMK CU1AC1CI0 SLP101=

CYYC;2005-08-28 22:00;METAR CYYC 282200Z 14013KT 40SM FEW073 FEW180 SCT280 27/07 A2983 RMK CU1AC1CI0 SLP095=

CYYC;2005-08-28 23:00;METAR CYYC 282300Z 18012G18KT 40SM FEW075 FEW190 BKN280 27/06 A2982 RMK CU1AC1CI0 SLP090=

CYYC;2005-08-29 00:00;METAR CYYC 290000Z 17014KT 40SM FEW075 SCT190 BKN280 27/06 A2981 RMK CU1AC2CI0 SLP086=

CYYC;2005-08-29 01:00;METAR CYYC 290100Z 15010KT 40SM FEW075 FEW190 FEW280 25/08 A2979 RMK CU1AC1CI0 CC ASOCTD SLP082=

CYYC;2005-08-29 02:00;METAR CYYC 290200Z 16007KT 40SM FEW075 FEW190 23/09 A2979 RMK AC1AC1 SLP080=

CYYC;2005-08-29 03:00;METAR CYYC 290300Z 17009KT 30SM FEW075 FEW190 22/06 A2979 RMK AC1AC1 SLP078=

CYYC;2005-08-29 04:00;METAR CYYC 290400Z 19008KT 15SM FEW075 FEW190 FEW260 20/07 A2979 RMK AC1AC1CI0 SLP078=

CYYC;2005-08-29 05:00;METAR CYYC 290500Z 18004KT 15SM BKN260 18/06 A2979 RMK CI1 SLP079=

CYYC;2005-08-29 06:00;METAR CYYC 290600Z 22005KT 15SM BKN260 17/05 A2978 RMK CI1 SLP072=

CYYC;2005-08-29 07:00;METAR CYYC 290700Z 22005KT 15SM BKN260 17/04 A2978 RMK CI1 SLP071=

CYYC;2005-08-29 08:00;METAR CYYC 290800Z 22007KT 15SM BKN260 11/06 A2976 RMK CI2 SLP067=

CYYC;2005-08-29 10:00;METAR CYYC 291000Z 16004KT 15SM BKN260 12/06 A2974 RMK CI0 SLP063=

CYYC;2005-08-29 11:00;METAR CYYC 291100Z 35010KT 15SM BKN260 09/06 A2975 RMK CI0 SLP064=

CYYC;2005-08-29 12:00;METAR CYYC 291200Z 01002KT 15SM FEW140 BKN260 09/07 A2973 RMK AC1CI0 SLP061=

CYYC;2005-08-29 13:00;METAR CYYC 291300Z 35008KT 40SM FEW140 FEW260 10/08 A2972 RMK AC1CI0 SLP058=

CYYC;2005-08-29 14:00;METAR CYYC 291400Z 34007KT 40SM FEW180 10/08 A2970 RMK AC2 SLP054=

CYYC;2005-08-29 15:00;METAR CYYC 291500Z 35009KT 40SM FEW180 FEW250 12/09 A2970 RMK AC1CI1 AC TR SLP056=

CYYC;2005-08-29 16:00;METAR CYYC 291600Z 34011KT 40SM FEW180 SCT250 14/09 A2969 RMK AC1CI2 SLP053=

CYYC;2005-08-29 17:00;METAR CYYC 291700Z 35010KT 40SM FEW210 SCT250 15/10 A2969 RMK CI1CI1 SLP051=

CYYC;2005-08-29 18:00;METAR CYYC 291800Z 35013KT 40SM FEW210 SCT250 16/10 A2968 RMK CI1CI1 SLP048=

CYYC;2005-08-29 19:00;METAR CYYC 291900Z 01014KT 40SM FEW070 FEW140 FEW210 SCT250 17/11 A2967 RMK CU1AC1CI1CI1 CU+AC TR SLP046=

CYYC;2005-08-29 20:00;METAR CYYC 292000Z 35016G21KT 20SM FEW035 FEW140 SCT240 16/10 A2969 RMK CU1AC1CI1 CU TR SLP053=

CYYC;2005-08-29 21:00;METAR CYYC 292100Z 01020KT 20SM FEW035 FEW120 SCT240 16/10 A2970 RMK CU1AC1CI1 SLP063=

CYYC;2005-08-29 22:00;METAR CYYC 292200Z 36017G25KT 20SM FEW035 SCT120 SCT240 15/10 A2972 RMK SC2AC1CI1 SLP069=

CYYC;2005-08-29 23:00;METAR CYYC 292300Z 36016G21KT 20SM SCT030 BKN100 15/10 A2975 RMK SC4AC2 SLP077=

CYYC;2005-08-30 00:00;METAR CYYC 300000Z 35017G25KT 20SM BKN044 OVC060 13/09 A2978 RMK SC6SC2 SLP099=

CYYC;2005-08-30 00:34;SPECI CYYC 300034Z 33013G18KT 8SM -SHRA BKN022 OVC060 12/ RMK SC6SC2=

CYYC;2005-08-30 01:31;SPECI CYYC 300131Z 35012G17KT 20SM FEW030 SCT060 11/ RMK SC2SC2=

CYYC;2005-08-30 03:00;METAR CYYC 300300Z 36003KT 15SM FEW012 FEW030 SCT240 10/08 A2983 RMK CU1SC2CI0 TCU ASOCTD E SLP115=

CYYC;2005-08-30 04:00;METAR CYYC 300400Z 01005KT 15SM FEW100 FEW150 FEW240 08/06 A2985 RMK AC1AC1CI0 SLP121=

CYYC;2005-08-30 05:00;METAR CYYC 300500Z 34009KT 15SM FEW100 FEW200 07/06 A2988 RMK AC1CI1 SLP133=

CYYC;2005-08-30 07:00;METAR CYYC 300700Z 36009KT 15SM FEW200 07/06 A2988 RMK CI1 SLP131=

CYYC;2005-08-30 08:00;METAR CYYC 300800Z 34009KT 15SM FEW050 FEW120 FEW200 06/06 A2991 RMK SC1AC1CI1 SLP138=

CYYC;2005-08-30 09:00;METAR CYYC 300900Z 36009KT 15SM FEW020 BKN074 BKN100 07/06 A2992 RMK SC1AC6AC1 SLP145=

CYYC;2005-08-30 10:00;METAR CYYC 301000Z 32005KT 15SM BKN070 07/06 A2992 RMK AC7 SLP147=

CYYC;2005-08-30 11:00;METAR CYYC 301100Z 00000KT 15SM FEW020 SCT070 06/05 A2995 RMK SC1AC2 SLP155=

CYYC;2005-08-30 12:00;METAR CYYC 301200Z 27004KT 15SM SCT100 06/05 A2996 RMK AC2 SLP164=

CYYC;2005-08-30 13:00;METAR CYYC 301300Z 25006KT 40SM FEW080 FEW120 05/04 A2997 RMK AC1AC1 SLP167=

CYYC;2005-08-30 14:00;METAR CYYC 301400Z 23006KT 40SM SCT071 07/06 A2997 RMK AC2 SLP169=

CYYC;2005-08-30 16:00;METAR CYYC 301600Z 25006KT 40SM FEW065 FEW085 11/07 A2997 RMK CU1AC1 CU TR SLP168=

CYYC;2005-08-30 17:00;METAR CYYC 301700Z 24005KT 40SM FEW060 FEW100 14/07 A2998 RMK CU1AC1 SLP171=

CYYC;2005-08-30 18:00;METAR CYYC 301800Z 33003KT 40SM FEW060 FEW100 15/05 A2997 RMK CU1AC1 SLP164=

CYYC;2005-08-30 19:00;METAR CYYC 301900Z 00000KT 40SM FEW060 16/04 A2997 RMK CU2 SLP163=

CYYC;2005-08-30 20:00;METAR CYYC 302000Z 03004KT 40SM FEW060 17/06 A2997 RMK CU2 SLP162=

CYYC;2005-08-30 21:00;METAR CYYC 302100Z 24006KT 40SM FEW060 SCT100 18/05 A2996 RMK CU2AC1 SLP157=

CYYC;2005-08-30 22:00;METAR CYYC 302200Z 21003KT 40SM FEW060 BKN100 17/05 A2995 RMK CU2AC2 SLP155=

CYYC;2005-08-30 23:00;METAR CYYC 302300Z 21011KT 40SM SCT060 BKN100 16/06 A2996 RMK CU3AC2 SLP158=

CYYC;2005-08-31 00:00;METAR CYYC 310000Z 20009KT 40SM FEW060 BKN100 18/07 A2996 RMK CU2AC2 SLP159=

CYYC;2005-08-31 01:00;METAR CYYC 310100Z 21008KT 30SM FEW060 FEW100 SCT240 17/06 A2997 RMK CU1AC2CI0 SLP162=

CYYC;2005-08-31 02:00;METAR CYYC 310200Z 25009KT 30SM FEW060 SCT110 BKN240 15/06 A2998 RMK SC1AC2CI0 SLP164=

CYYC;2005-08-31 03:00;METAR CYYC 310300Z 25008KT 15SM FEW060 BKN110 14/04 A2998 RMK SC1AC4 SLP164=

CYYC;2005-08-31 04:00;METAR CYYC 310400Z 27013G18KT 15SM BKN110 BKN180 14/03 A2997 RMK AC3AC1 SLP163=

CYYC;2005-08-31 05:00;METAR CYYC 310500Z 28012G17KT 15SM FEW180 14/03 A2998 RMK AC1 SLP164=

CYYC;2005-08-31 07:00;METAR CYYC 310700Z 29012G18KT 15SM FEW250 13/02 A3000 RMK CI0 SLP164=

CYYC;2005-08-31 10:00;METAR CYYC 311000Z 08004KT 15SM SKC 07/03 A3004 RMK SLP181=

CYYC;2005-08-31 11:00;METAR CYYC 311100Z 36010KT 15SM SKC 07/02 A3006 RMK SLP186=

CYYC;2005-08-31 12:00;METAR CYYC 311200Z 32008KT 15SM FEW100 06/02 A3006 RMK AC1 SLP192=

CYYC;2005-08-31 13:00;METAR CYYC 311300Z 29004KT 40SM FEW080 FEW100 06/02 A3006 RMK AC1AC1 SLP194=

CYYC;2005-08-31 14:00;METAR CYYC 311400Z 29005KT 40SM FEW080 FEW240 09/03 A3006 RMK AC1CI1 CI TR SLP195=

CYYC;2005-08-31 15:00;METAR CYYC 311500Z 29004KT 40SM FEW120 FEW240 14/05 A3006 RMK AC1CI1 CI TR SLP187=

CYYC;2005-08-31 16:00;METAR CYYC 311600Z 29006KT 40SM FEW080 FEW120 15/05 A3006 RMK AC1AC1 SLP187=

CYYC;2005-08-31 17:00;METAR CYYC 311700Z 00000KT 40SM FEW080 FEW120 FEW250 16/05 A3005 RMK AC1AC1CI1 SLP184=

CYYC;2005-08-31 18:00;METAR CYYC 311800Z 25007KT 40SM FEW080 FEW120 FEW250 18/05 A3003 RMK AC1AC1CI1 SLP170=

CYYC;2005-08-31 21:00;METAR CYYC 312100Z 22005KT 40SM SCT076 SCT140 SCT240 19/05 A3000 RMK AC4AC1CI1 SLP166=

CYYC;2005-08-31 22:00;METAR CYYC 312200Z 26003KT 40SM SCT076 SCT140 SCT240 19/06 A2999 RMK AC3AC1CI1 SLP164=

CYYC;2005-08-31 23:00;METAR CYYC 312300Z 23004KT 40SM FEW078 FEW140 FEW240 18/06 A3000 RMK AC2AC1CI1 SLP165=

CYYC;2005-09-01 00:00;METAR CYYC 010000Z 23002KT 40SM FEW078 FEW140 FEW240 21/06 A3000 RMK AC2AC1CI0 SLP169=

CYYC;2005-09-01 01:00;METAR CYYC 010100Z 29009KT 40SM FEW080 FEW250 19/03 A3000 RMK AC1CI0 SLP169=

CYYC;2005-09-01 03:00;METAR CYYC 010300Z 28009KT 15SM FEW060 FEW090 SCT250 16/01 A3001 RMK CU1AC2CI0 SLP168=

CYYC;2005-09-01 04:00;METAR CYYC 010400Z 28011KT 15SM FEW080 FEW260 15/01 A3002 RMK AC1CI0 SLP169=

CYYC;2005-09-01 05:00;METAR CYYC 010500Z 35005KT 15SM FEW260 11/02 A3002 RMK CI0 SLP171=

CYYC;2005-09-01 06:00;METAR CYYC 010600Z 34003KT 15SM FEW160 FEW240 10/02 A3002 RMK AC1CI1 SLP173=

CYYC;2005-09-01 07:00;METAR CYYC 010700Z 01004KT 15SM FEW160 SCT240 09/04 A3003 RMK AC2CI2 SLP176=

CYYC;2005-09-01 10:00;METAR CYYC 011000Z 35005KT 15SM FEW240 07/05 A3003 RMK CI1 SLP178=

CYYC;2005-09-01 11:00;METAR CYYC 011100Z 03002KT 15SM FEW240 07/05 A3004 RMK CI0 SLP179=

CYYC;2005-09-01 12:00;METAR CYYC 011200Z 32002KT 15SM FEW160 BKN240 07/05 A3004 RMK AC1CI2 SLP179=

CYYC;2005-09-01 13:00;METAR CYYC 011300Z 00000KT 40SM FEW070 FEW160 BKN240 07/05 A3005 RMK AC1AC1CI1 LWR AC TR SLP183=

CYYC;2005-09-01 14:00;METAR CYYC 011400Z 00000KT 40SM FEW080 FEW180 BKN240 09/06 A3005 RMK AC1AC1CI1 SLP182=

CYYC;2005-09-01 15:00;METAR CYYC 011500Z 22004KT 40SM FEW080 SCT240 12/05 A3006 RMK AC1CI0 SLP186=

CYYC;2005-09-01 16:00;METAR CYYC 011600Z 19004KT 40SM FEW080 BKN250 15/05 A3005 RMK AC1CI0 SLP184=

CYYC;2005-09-01 17:00;METAR CYYC 011700Z 14005KT 40SM FEW055 FEW090 BKN260 17/04 A3004 RMK SC1AC1CI0 SLP182=

CYYC;2005-09-01 18:00;METAR CYYC 011800Z 12003KT 40SM FEW055 FEW090 FEW260 19/05 A3004 RMK SC1AC1CI0 SLP177=

CYYC;2005-09-01 19:00;METAR CYYC 011900Z 13008KT 40SM FEW090 SCT260 20/06 A3003 RMK AC1CI0 SLP175=

CYYC;2005-09-01 20:00;METAR CYYC 012000Z 17008KT 40SM FEW080 BKN260 19/06 A3003 RMK AC2CI0 SLP174=

CYYC;2005-09-01 21:00;METAR CYYC 012100Z 11008KT 40SM FEW055 BKN075 BKN260 20/07 A3000 RMK CU1AC2CI0 SLP167=

CYYC;2005-09-01 22:00;METAR CYYC 012200Z 17006KT 40SM FEW055 FEW077 BKN260 21/07 A3000 RMK CU1AC1CI1 SLP165=

CYYC;2005-09-01 23:00;METAR CYYC 012300Z 20005KT 40SM FEW055 FEW077 BKN260 21/06 A2998 RMK CU1AC1CI2 SLP161=

CYYC;2005-09-02 00:00;METAR CYYC 020000Z 14008KT 30SM FEW055 FEW077 BKN260 21/06 A2998 RMK CU1AC1CI2 SLP158=

CYYC;2005-09-02 01:00;METAR CYYC 020100Z 12009KT 30SM FEW080 SCT200 BKN260 19/06 A2998 RMK AC1CI2CI0 SLP158=

CYYC;2005-09-02 02:00;METAR CYYC 020200Z 12007KT 30SM FEW080 BKN220 BKN250 17/07 A2997 RMK AC2CI2CI1 SLP155=

CYYC;2005-09-02 03:00;METAR CYYC 020300Z 12009KT 15SM FEW080 BKN240 15/07 A2998 RMK AC2CI3 SLP159=

CYYC;2005-09-02 04:00;METAR CYYC 020400Z 14010KT 15SM FEW080 BKN240 15/07 A2999 RMK AC1CI2 SLP162=

CYYC;2005-09-02 05:00;METAR CYYC 020500Z 18005KT 15SM FEW250 13/07 A2999 RMK CI1 SLP162=

CYYC;2005-09-02 06:00;METAR CYYC 020600Z 18004KT 15SM FEW180 FEW250 12/07 A2997 RMK AC2CI0 SLP153=

CYYC;2005-09-02 07:00;METAR CYYC 020700Z 16003KT 15SM FEW180 FEW250 12/07 A2996 RMK AC1CI0 SLP150=

CYYC;2005-09-02 08:00;METAR CYYC 020800Z 18004KT 15SM FEW180 FEW250 10/06 A2996 RMK AC1CI0 SLP148=

CYYC;2005-09-02 09:00;METAR CYYC 020900Z 28005KT 15SM FEW160 FEW240 09/07 A2996 RMK AC1CI1 SLP152=

CYYC;2005-09-02 10:00;METAR CYYC 021000Z 36004KT 15SM FEW140 SCT240 10/07 A2995 RMK AC2CI2 SLP147=

CYYC;2005-09-02 11:00;METAR CYYC 021100Z 00000KT 15SM SCT140 BKN240 10/07 A2994 RMK AC3CI2 SLP146=

CYYC;2005-09-02 12:00;METAR CYYC 021200Z 20003KT 15SM BKN170 BKN240 11/07 A2993 RMK AC3CI2 SLP138=

CYYC;2005-09-02 13:00;METAR CYYC 021300Z 20003KT 40SM BKN140 OVC240 11/07 A2993 RMK AC5CI2 SLP137=

CYYC;2005-09-02 16:00;METAR CYYC 021600Z 20006KT 40SM FEW080 BKN150 BKN230 14/08 A2993 RMK AC1AC7CI1 SLP144=

CYYC;2005-09-02 17:00;METAR CYYC 021700Z 23004KT 40SM FEW080 BKN150 BKN230 15/08 A2993 RMK AC1AC7CI1 SLP144=

CYYC;2005-09-02 18:00;METAR CYYC 021800Z 21005KT 40SM FEW080 BKN150 BKN230 15/09 A2992 RMK AC1AC6CI1 LWR AC TR SLP140=

CYYC;2005-09-02 20:00;METAR CYYC 022000Z 22003KT 40SM FEW060 FEW080 BKN150 BKN240 17/10 A2990 RMK SC1AC2AC6CI1 TCU DIST NW / SC+CI TR SLP133=

CYYC;2005-09-02 21:00;METAR CYYC 022100Z 21004KT 40SM FEW060 FEW080 BKN180 BKN230 22/08 A2988 RMK SC1AC1AC2CI0 CB ASOCTD DIST NW SLP122=

CYYC;2005-09-02 22:00;METAR CYYC 022200Z 16005KT 40SM FEW060 FEW080 FEW180 SCT220 24/06 A2985 RMK SC1AC1AC2CI0 SLP112=

CYYC;2005-09-02 23:00;METAR CYYC 022300Z 14008KT 30SM FEW070 FEW180 FEW240 24/09 A2983 RMK AC1AC1CI1 SLP106=

CYYC;2005-09-03 00:00;METAR CYYC 030000Z 14010KT 40SM FEW070 FEW180 SCT240 24/08 A2981 RMK AC1AC1CI1 TCU EMBD NW SLP092=

CYYC;2005-09-03 01:00;METAR CYYC 030100Z 12007KT 40SM FEW070 FEW180 BKN240 21/10 A2979 RMK AC1AC1CI0 UPR AC TR SLP086=

CYYC;2005-09-03 02:00;METAR CYYC 030200Z 12008KT 40SM FEW065 SCT140 BKN240 18/09 A2979 RMK SC2AC2CI1 SLP084=

CYYC;2005-09-03 04:00;METAR CYYC 030400Z 32011G18KT 15SM FEW065 FEW120 14/07 A2988 RMK SC1AC1=

CYYC;2005-09-03 05:00;METAR CYYC 030500Z 36007KT 15SM FEW120 12/07 A2988 RMK AC2 SLP122=

CYYC;2005-09-03 06:00;METAR CYYC 030600Z 31005KT 15SM FEW130 10/07 A2988 RMK AC2 SLP128=

CYYC;2005-09-03 07:00;METAR CYYC 030700Z 33006KT 15SM FEW120 11/07 A2989 RMK AC2 SLP132=

CYYC;2005-09-03 08:00;METAR CYYC 030800Z 28007KT 15SM FEW120 12/06 A2990 RMK AC1 SLP133=

CYYC;2005-09-03 09:00;METAR CYYC 030900Z 27007KT 15SM FEW120 FEW210 11/06 A2989 RMK AC1CI1 SLP123=

CYYC;2005-09-03 10:00;METAR CYYC 031000Z 28008KT 15SM FEW120 FEW210 11/06 A2987 RMK AC1CI1 SLP118=

CYYC;2005-09-03 11:00;METAR CYYC 031100Z 22005KT 15SM FEW210 10/05 A2987 RMK CI1 SLP118=

CYYC;2005-09-03 12:00;METAR CYYC 031200Z 24006KT 15SM FEW120 FEW240 09/06 A2987 RMK AC1CI0 SLP117=

CYYC;2005-09-03 13:00;METAR CYYC 031300Z 22003KT 40SM FEW085 FEW180 FEW250 08/06 A2987 RMK AC1AC1CI0 SLP116=

CYYC;2005-09-03 15:00;METAR CYYC 031500Z 00000KT 40SM FEW025 FEW160 SCT260 13/07 A2985 RMK CU1AC1CI0 CC ASOCTD SLP115=

CYYC;2005-09-03 16:00;METAR CYYC 031600Z 23002KT 40SM FEW035 FEW160 BKN260 15/07 A2985 RMK CU1AC1CC1 SLP112=

CYYC;2005-09-03 18:00;METAR CYYC 031800Z 20004KT 40SM FEW040 FEW140 BKN260 19/09 A2983 RMK CU1AC1CS1 CC ASOCTD SLP105=

CYYC;2005-09-03 21:00;METAR CYYC 032100Z 18008KT 40SM FEW070 FEW120 FEW180 FEW260 25/05 A2977 RMK CU1AC1AC1CI0 TCU ASOCTD / SHS SW / ACSL S SLP075=

CYYC;2005-09-03 22:00;METAR CYYC 032200Z 23010G16KT 40SM SCT080TCU SCT110 SCT180 BKN280 25/03 A2977 RMK TCU3AC1AC1CI0 SHS SW-N SLP075=

CYYC;2005-09-03 22:32;SPECI CYYC 032232Z 31019G24KT 40SM SCT080TCU BKN110 BKN180 BKN280 24/ RMK TCU4AC1AC1CI0 SHS SW-NE / WSHFT 2220Z=

CYYC;2005-09-03 23:00;METAR CYYC 032300Z 28018G27KT 40SM FEW080 SCT110 SCT180 BKN280 23/04 A2979 RMK CU2AC2AC1CI0 SHS SW+NW-NE / TCU ASOCTD SLP081=

CYYC;2005-09-04 00:00;METAR CYYC 040000Z 28014KT 30SM FEW080 FEW110 SCT180 BKN280 21/03 A2979 RMK CU1AC2AC1CI0 SHS SW-NW / TCU ASOCTD SLP089=

CYYC;2005-09-04 01:00;METAR CYYC 040100Z 27014KT 30SM FEW080CB FEW120 SCT180 BKN280 20/03 A2979 RMK CB1AC2AC1CI0 SHS SW-NW / CB W+NW+NE SLP091=

CYYC;2005-09-04 03:00;METAR CYYC 040300Z 29015G20KT 15SM FEW040CB FEW120 SCT180 BKN250 18/01 A2986 RMK CB1AC2AC1CI0 CB TR N / LTGIC N SLP112=

CYYC;2005-09-04 04:00;METAR CYYC 040400Z 34022G28KT 15SM FEW100 BKN250 10/06 A2994 RMK AC1CI2 SLP136=

CYYC;2005-09-04 05:00;METAR CYYC 040500Z 35015G21KT 15SM SCT110 BKN250 09/05 A2996 RMK AC3CI0 SLP143=

CYYC;2005-09-04 06:00;METAR CYYC 040600Z 33009KT 15SM BKN110 08/05 A2998 RMK AC4 SLP162=

CYYC;2005-09-04 08:00;METAR CYYC 040800Z 26006KT 15SM FEW090 07/03 A3000 RMK AC1 AURBO SLP168=

CYYC;2005-09-04 09:00;METAR CYYC 040900Z 27005KT 15SM SCT096 07/03 A3001 RMK AC2 SLP165=

CYYC;2005-09-04 10:00;METAR CYYC 041000Z 24002KT 15SM FEW096 08/02 A3002 RMK AC1 SLP166=

CYYC;2005-09-04 11:00;METAR CYYC 041100Z 00000KT 15SM FEW090 06/02 A3001 RMK AC2 SLP165=

CYYC;2005-09-04 12:00;METAR CYYC 041200Z 00000KT 15SM SCT085 BKN220 06/02 A3001 RMK AC2CI0 SLP171=

CYYC;2005-09-04 13:00;METAR CYYC 041300Z 00000KT 30SM FEW040 FEW085 BKN220 06/03 A3001 RMK SC1AC1CI1 SLP169=

CYYC;2005-09-04 16:00;METAR CYYC 041600Z 14008KT 40SM FEW035 FEW160 BKN200 12/04 A2999 RMK CU1AC2CI5 TCU ASOCTD SLP162=

CYYC;2005-09-04 17:00;METAR CYYC 041700Z 15009KT 40SM FEW035 FEW160 BKN190 13/05 A2997 RMK CU1AC1AC7 SLP155=

CYYC;2005-09-04 18:00;METAR CYYC 041800Z 13007KT 40SM FEW035 FEW140 BKN180 14/06 A2996 RMK CU1AC1AC6 SLP160=

CYYC;2005-09-04 19:00;METAR CYYC 041900Z 15009KT 40SM FEW036 FEW140 BKN180 15/06 A2994 RMK CU1AC1AC5 ACSL SLP154=

CYYC;2005-09-04 20:00;METAR CYYC 042000Z 16012G17KT 40SM FEW040 FEW110 FEW180 18/07 A2991 RMK CU1AC1AC1 VIRGA / TCU ASOCTD / ACSL SLP144=

CYYC;2005-09-04 21:00;METAR CYYC 042100Z 13012KT 40SM FEW040TCU FEW090 BKN120 17/07 A2989 RMK TCU2AC1AC2 SHS SW-NW / ACSL SLP131=

CYYC;2005-09-04 22:00;METAR CYYC 042200Z 17009G15KT 40SM SCT045CB BKN100 19/05 A2989 RMK CB3AC2 LTGCG NW / SHS NW-NE / ACSL S SLP131=

CYYC;2005-09-04 22:24;SPECI CYYC 042224Z 32018KT 40SM FEW045CB BKN100 BKN230 18/ RMK CB2AC2CI1 SHS SW+NW-NE / WSHFT 2209Z=

CYYC;2005-09-04 23:21;SPECI CYYC 042321Z 36012KT 30SM -SHRA SCT045TCU BKN066 BKN160 16/ RMK TCU3AC2AC1 CB ASOCTD NE=

CYYC;2005-09-05 00:00;METAR CYYC 050000Z 36017KT 30SM SCT045TCU SCT066 BKN100 13/08 A2990 RMK TCU3AC1AC2 SHS SW+NE-E / CB ASOCTD SLP143=

CYYC;2005-09-05 00:25;SPECI CYYC 050025Z 02009G15KT 40SM -SHRA SCT045TCU SCT065 BKN088 13/ RMK TCU3SC1AC3 CB ASOCTD=

CYYC;2005-09-05 01:00;METAR CYYC 050100Z 36019KT 40SM -SHRA FEW045TCU SCT065 BKN120 11/08 A2995 RMK TCU2SC2AC3 CB EMBD NE+SW SLP157=

CYYC;2005-09-05 01:39;SPECI CYYC 050139Z 35020G25KT 30SM FEW014 FEW065TCU BKN110 09/ RMK SC1TCU1AC7=

CYYC;2005-09-05 03:00;METAR CYYC 050300Z 36013KT 15SM -SHRA BKN070 BKN110 08/05 A3000 RMK AC3AC4 PCPN VRY LGT SLP178=

CYYC;2005-09-05 04:00;METAR CYYC 050400Z 35009KT 15SM -SHRA BKN091 OVC120 08/05 A3000 RMK AC6AC2 SHS VRY LGT SLP179=

CYYC;2005-09-05 04:18;SPECI CYYC 050418Z 35010KT 15SM FEW018 BKN087 OVC120 08/ RMK SC1AC6AC2=

CYYC;2005-09-05 04:40;SPECI CYYC 050440Z 35008KT 15SM -SHRA FEW018 BKN081 OVC120 08/ RMK SC1AC6AC1=

CYYC;2005-09-05 06:00;METAR CYYC 050600Z 34008KT 15SM SCT018 BKN080 08/05 A3002 RMK SC2AC4 SLP180=

CYYC;2005-09-05 07:00;METAR CYYC 050700Z 01004KT 15SM FEW018 BKN080 OVC140 07/05 A3002 RMK SC1AC4AC3 SLP182=

CYYC;2005-09-05 08:00;METAR CYYC 050800Z 32004KT 15SM FEW058 BKN087 07/05 A3003 RMK SC2AC4 SLP183=

CYYC;2005-09-05 09:00;METAR CYYC 050900Z 33008KT 15SM SCT053 BKN100 07/05 A3002 RMK SC2AC5 VIRGA SLP179=

CYYC;2005-09-05 10:00;METAR CYYC 051000Z 24005KT 15SM FEW050 BKN061 OVC084 07/05 A3004 RMK SC1SC7AC1 VIRGA SLP184=

CYYC;2005-09-05 11:00;METAR CYYC 051100Z 26003KT 15SM -SHRA FEW050 BKN068 OVC084 07/05 A3004 RMK SC1AC7AC1 PCPN VRY LGT SLP185=

CYYC;2005-09-05 11:18;SPECI CYYC 051118Z 27003KT 15SM FEW050 OVC081 07/ RMK SC1AC8=

CYYC;2005-09-05 12:00;METAR CYYC 051200Z 28004KT 15SM FEW062 BKN100 BKN140 07/05 A3005 RMK SC2AC3AC2 SLP194=

CYYC;2005-09-05 13:00;METAR CYYC 051300Z 32007KT 30SM FEW071 FEW100 BKN190 06/04 A3007 RMK AC2AC1AC0 SLP199=

CYYC;2005-09-05 14:00;METAR CYYC 051400Z 32006KT 40SM FEW070 BKN096 BKN190 07/04 A3009 RMK AC1AC5AC1 SLP206=

CYYC;2005-09-05 15:00;METAR CYYC 051500Z 30006KT 40SM FEW080 BKN099 BKN180 09/04 A3011 RMK AC1AC5AC1 SLP222=

CYYC;2005-09-05 16:00;METAR CYYC 051600Z 32010KT 40SM FEW060 BKN094 BKN180 11/04 A3012 RMK SC1AC4AC1 SLP225=

CYYC;2005-09-05 17:00;METAR CYYC 051700Z 31011KT 40SM FEW065 SCT100 13/04 A3013 RMK SC1AC2 SLP228=

CYYC;2005-09-05 18:00;METAR CYYC 051800Z 32014KT 40SM FEW060 FEW100 13/02 A3014 RMK CU1AC2 SLP223=

CYYC;2005-09-05 19:00;METAR CYYC 051900Z 34010G16KT 40SM FEW050 SCT100 14/02 A3014 RMK CU2AC1 SLP225=

CYYC;2005-09-05 20:00;METAR CYYC 052000Z 31010G15KT 40SM SCT066 BKN100 16/02 A3014 RMK CU4AC1 SLP225=

CYYC;2005-09-05 21:00;METAR CYYC 052100Z 36011G27KT 40SM SCT045 BKN065TCU BKN100 14/02 A3014 RMK CU3TCU2AC1 SLP226=

CYYC;2005-09-05 22:00;METAR CYYC 052200Z 36019KT 40SM SCT050 SCT065TCU BKN100 15/02 A3015 RMK CU3TCU1AC2 VIRGA NNE SLP228=

CYYC;2005-09-06 00:00;METAR CYYC 060000Z 36004KT 40SM FEW050 SCT110 15/02 A3016 RMK CU2AC2 SLP229=

CYYC;2005-09-06 02:00;METAR CYYC 060200Z 07004KT 30SM FEW050 FEW100 12/03 A3016 RMK SC1AC2 SLP229=

CYYC;2005-09-06 03:00;METAR CYYC 060300Z 11003KT 15SM FEW070 FEW100 11/02 A3018 RMK AC1AC1 SLP239=

CYYC;2005-09-06 04:00;METAR CYYC 060400Z 13003KT 15SM FEW240 09/02 A3018 RMK CI1 SLP241=

CYYC;2005-09-06 05:00;METAR CYYC 060500Z 27002KT 15SM FEW260 09/02 A3019 RMK CI0 SLP242=

CYYC;2005-09-06 06:00;METAR CYYC 060600Z 00000KT 15SM FEW260 06/01 A3019 RMK CI0 SLP245=

CYYC;2005-09-06 07:00;METAR CYYC 060700Z 36002KT 15SM FEW260 04/01 A3019 RMK CI1 SLP246=

CYYC;2005-09-06 08:00;METAR CYYC 060800Z 36004KT 15SM SKC 04/01 A3019 RMK SLP246=

CYYC;2005-09-06 09:00;METAR CYYC 060900Z 00000KT 15SM SKC 04/01 A3019 RMK SLP246=

CYYC;2005-09-06 11:00;METAR CYYC 061100Z 23003KT 15SM SKC 03/01 A3019 RMK SLP248=

CYYC;2005-09-06 12:00;METAR CYYC 061200Z 21003KT 15SM FEW100 03/01 A3020 RMK AC1 SLP248=

CYYC;2005-09-06 13:00;METAR CYYC 061300Z 30003KT 40SM FEW100 04/M00 A3020 RMK AC1 SLP250=

CYYC;2005-09-06 14:00;METAR CYYC 061400Z 34004KT 40SM FEW100 05/02 A3022 RMK AC1 FROIN/ AC TR SLP255=

CYYC;2005-09-06 15:00;METAR CYYC 061500Z 32007KT 40SM FEW100 08/03 A3023 RMK AC1 AC TR SLP257=

CYYC;2005-09-06 16:00;METAR CYYC 061600Z 33007KT 40SM FEW100 13/01 A3022 RMK AC1 AC TR SLP256=

CYYC;2005-09-06 17:00;METAR CYYC 061700Z 35007KT 40SM FEW100 14/01 A3022 RMK AC1 AC TR SLP256=

CYYC;2005-09-06 18:00;METAR CYYC 061800Z 03007KT 40SM FEW120 15/01 A3022 RMK AC1 AC TR SLP251=

CYYC;2005-09-06 19:00;METAR CYYC 061900Z 32002KT 40SM FEW140 16/02 A3021 RMK AC1 SLP248=

CYYC;2005-09-06 21:00;METAR CYYC 062100Z 05007KT 40SM FEW060 FEW140 17/02 A3018 RMK CU1AC1 SLP239=

CYYC;2005-09-06 22:00;METAR CYYC 062200Z 05004KT 40SM FEW060 FEW250 18/01 A3017 RMK CU1CI0 CU TR SLP236=

CYYC;2005-09-07 00:00;METAR CYYC 070000Z 14005KT 40SM FEW250 18/02 A3016 RMK CI0 SLP233=

CYYC;2005-09-07 02:00;METAR CYYC 070200Z 13007KT 40SM FEW250 13/02 A3016 RMK CI1 SLP231=

CYYC;2005-09-07 03:00;METAR CYYC 070300Z 12006KT 40SM FEW100 FEW240 12/02 A3016 RMK AC1CI0 SLP234=

CYYC;2005-09-07 04:00;METAR CYYC 070400Z 15005KT 15SM FEW240 12/02 A3016 RMK CI1 SLP232=

CYYC;2005-09-07 05:00;METAR CYYC 070500Z 21005KT 15SM SCT260 10/01 A3015 RMK CI0 SLP231=

CYYC;2005-09-07 06:00;METAR CYYC 070600Z 19003KT 15SM FEW260 11/02 A3015 RMK CI1 SLP220=

CYYC;2005-09-07 07:00;METAR CYYC 070700Z 20002KT 15SM SKC 10/02 A3014 RMK SLP217=

CYYC;2005-09-07 10:00;METAR CYYC 071000Z 00000KT 15SM SKC 03/00 A3010 RMK SLP214=

CYYC;2005-09-07 11:00;METAR CYYC 071100Z 00000KT 15SM FEW260 03/01 A3010 RMK CI1 SLP212=

CYYC;2005-09-07 12:00;METAR CYYC 071200Z 21004KT 15SM FEW100 FEW260 03/00 A3009 RMK AC1CI1 SLP209=

CYYC;2005-09-07 12:26;SPECI CYYC 071226Z 19003KT 15SM FEW100 FEW260 02/ RMK AC1CI1=

CYYC;2005-09-07 12:45;SPECI CYYC 071245Z 21003KT 40SM FEW100 FEW240 02/ RMK AC1CI0=

CYYC;2005-09-07 13:00;METAR CYYC 071300Z 20002KT 40SM FEW100 FEW260 03/00 A3009 RMK AC1CI0 SLP209=

CYYC;2005-09-07 14:00;METAR CYYC 071400Z 34002KT 40SM FEW140 FEW260 05/01 A3009 RMK AC1CI0 SLP209=

CYYC;2005-09-07 15:00;METAR CYYC 071500Z 21002KT 40SM FEW140 BKN260 09/02 A3009 RMK AC1CI2 SLP207=

CYYC;2005-09-07 16:00;METAR CYYC 071600Z 00000KT 40SM FEW180 BKN220 BKN260 14/03 A3007 RMK AC2CI4CI0 SLP202=

CYYC;2005-09-07 17:00;METAR CYYC 071700Z 23004KT 40SM FEW180 BKN210 BKN260 14/03 A3009 RMK AC2CI5CI0 SLP206=

CYYC;2005-09-07 18:00;METAR CYYC 071800Z 19007KT 40SM FEW180 BKN190 BKN260 14/03 A3008 RMK AC2AC3CI0 SLP200=

CYYC;2005-09-07 19:00;METAR CYYC 071900Z 00000KT 40SM SCT160 BKN240 17/03 A3008 RMK AC1CS2 SLP198=

CYYC;2005-09-07 20:00;METAR CYYC 072000Z 11002KT 40SM SCT170 BKN240 19/02 A3006 RMK AC2CS1 SLP192=

CYYC;2005-09-07 21:00;METAR CYYC 072100Z 21002KT 40SM FEW170 BKN240 20/02 A3004 RMK AC1CI1 SLP188=

CYYC;2005-09-07 22:00;METAR CYYC 072200Z 07005KT 40SM FEW180 BKN250 21/02 A3002 RMK AC1CI1 SLP182=

CYYC;2005-09-07 23:00;METAR CYYC 072300Z 08006KT 40SM FEW180 BKN250 21/03 A3001 RMK AC1CI0 ACSL S-NW SLP179=

CYYC;2005-09-08 00:00;METAR CYYC 080000Z 11006KT 40SM FEW140 FEW180 BKN240 20/03 A3000 RMK AC1AC1CI3 ACSL SW-NW SLP172=

CYYC;2005-09-08 01:00;METAR CYYC 080100Z 09008KT 40SM FEW090 FEW150 BKN220 18/04 A3000 RMK AC1AC1CI2 SLP174=

CYYC;2005-09-08 03:00;METAR CYYC 080300Z 15003KT 15SM FEW090 FEW180 BKN250 14/03 A2999 RMK AC1AC1CI1 SLP171=

CYYC;2005-09-08 04:00;METAR CYYC 080400Z 05003KT 15SM FEW140 SCT250 11/02 A3000 RMK AC1CI1 SLP173=

CYYC;2005-09-08 05:00;METAR CYYC 080500Z 09003KT 15SM FEW140 SCT250 09/03 A2999 RMK AC1CI1 SLP169=

CYYC;2005-09-08 06:00;METAR CYYC 080600Z 00000KT 15SM FEW250 11/02 A2997 RMK CI0 SLP161=

CYYC;2005-09-08 07:00;METAR CYYC 080700Z 00000KT 15SM FEW250 10/03 A2996 RMK CI0 SLP156=

CYYC;2005-09-08 10:00;METAR CYYC 081000Z 00000KT 15SM SKC 05/01 A2993 RMK SLP145=

CYYC;2005-09-08 11:00;METAR CYYC 081100Z 00000KT 15SM SKC 07/01 A2992 RMK SLP142=

CYYC;2005-09-08 12:00;METAR CYYC 081200Z 00000KT 15SM FEW130 SCT250 05/01 A2992 RMK AC1CI1 SLP142=

CYYC;2005-09-08 13:00;METAR CYYC 081300Z 00000KT 40SM FEW180 BKN250 07/02 A2991 RMK AC1CI1 SLP139=

CYYC;2005-09-08 14:00;METAR CYYC 081400Z 18003KT 40SM FEW180 BKN220 BKN260 09/05 A2990 RMK AC1CI2CI0 SLP137=

CYYC;2005-09-08 15:00;METAR CYYC 081500Z 16004KT 40SM FEW180 BKN220 BKN260 14/04 A2990 RMK AC1CI2CI0 SLP130=

CYYC;2005-09-08 16:00;METAR CYYC 081600Z 20004KT 40SM FEW060 FEW180 BKN220 BKN260 17/06 A2988 RMK SC1AC1CI2CI0 SC TR SLP125=

CYYC;2005-09-08 17:00;METAR CYYC 081700Z 20004KT 40SM FEW060 FEW180 BKN220 BKN260 20/06 A2987 RMK SC1AC2CI1CI0 SLP121=

CYYC;2005-09-08 18:00;METAR CYYC 081800Z 08002KT 40SM FEW060 SCT180 BKN220 BKN260 21/04 A2985 RMK SC1AC2CI3CI0 SLP108=

CYYC;2005-09-08 19:00;METAR CYYC 081900Z 35005KT 40SM FEW070 BKN180 BKN220 BKN260 19/06 A2982 RMK AC1AC4CI2CI1 SLP100=

CYYC;2005-09-08 20:00;METAR CYYC 082000Z 13003KT 40SM FEW075 FEW180 BKN220 BKN260 21/05 A2980 RMK AC1AC2CI2CI0 ACSL SW-W SLP093=

CYYC;2005-09-08 21:00;METAR CYYC 082100Z 17009KT 40SM FEW080 FEW180 BKN220 BKN260 22/04 A2976 RMK AC1AC1CI1CI0 SLP084=

CYYC;2005-09-08 22:00;METAR CYYC 082200Z 12009KT 40SM FEW080 FEW180 BKN220 BKN260 23/04 A2974 RMK AC2AC1CI1CI0 SLP076=

CYYC;2005-09-09 00:00;METAR CYYC 090000Z 34017KT 30SM BKN099 BKN220 16/09 A2973 RMK AC7CI1 SLP083=

CYYC;2005-09-09 00:33;SPECI CYYC 090033Z 34015G22KT 30SM -RA BKN095 BKN220 14/ RMK AC7CI1 PCPN VRY LGT=

CYYC;2005-09-09 01:00;METAR CYYC 090100Z 34017KT 30SM -RA BKN095 14/09 A2974 RMK AC7 PCPN VRY LGT SLP084=

CYYC;2005-09-09 05:00;METAR CYYC 090500Z 35011KT 10SM -RA OVC061 10/10 A2976 RMK SC8 SLP086=

CYYC;2005-09-09 06:00;METAR CYYC 090600Z 36014KT 15SM -RA FEW030 BKN058 OVC090 10/09 A2975 RMK SC1SC6AC2 SLP074=

CYYC;2005-09-09 07:00;METAR CYYC 090700Z 35008KT 12SM -RA FEW010 BKN074 OVC100 09/09 A2975 RMK SC2AC6AC1 SLP074=

CYYC;2005-09-09 09:00;METAR CYYC 090900Z 34004KT 15SM FEW030 SCT070 OVC099 09/09 A2971 RMK SC2AC2AC3 SLP062=

CYYC;2005-09-09 10:00;METAR CYYC 091000Z 33005KT 15SM BKN009 OVC040 09/08 A2971 RMK SC6SC2 SLP062=

CYYC;2005-09-09 11:00;METAR CYYC 091100Z 31006KT 15SM BKN008 OVC060 09/09 A2972 RMK SC6SC2 SLP063=

CYYC;2005-09-09 12:00;METAR CYYC 091200Z 33005KT 15SM FEW008 BKN049 OVC067 09/08 A2971 RMK SC2SC5AC1 SLP068=

CYYC;2005-09-09 12:18;SPECI CYYC 091218Z 33004KT 15SM -RA FEW008 BKN049 OVC070 09/ RMK SC2SC5AC1 PCPN VRY LGT=

CYYC;2005-09-09 14:00;METAR CYYC 091400Z 36007KT 8SM -RA BKN006 OVC015 09/09 A2971 RMK SC2SC6 SLP069=

CYYC;2005-09-09 16:00;METAR CYYC 091600Z 04006KT 7SM -RA OVC006 09/09 A2972 RMK SC8 SLP079=

CYYC;2005-09-09 17:00;METAR CYYC 091700Z 01009KT 5SM -RA OVC006 09/09 A2972 RMK SC8 SLP078=

CYYC;2005-09-09 17:22;SPECI CYYC 091722Z 01008KT 6SM BR OVC006 09/ RMK SC8=

CYYC;2005-09-09 17:36;SPECI CYYC 091736Z 36010KT 6SM -RA BR OVC006 09/ RMK SC8 PCPN VRY LGT=

CYYC;2005-09-09 18:00;METAR CYYC 091800Z 35011KT 8SM -RA OVC006 09/08 A2972 RMK SC8 PCPN VRY LGT SLP080=

CYYC;2005-09-09 19:00;METAR CYYC 091900Z 35010KT 8SM -RA OVC007 09/08 A2972 RMK SC8 PCPN VRY LGT SLP081=

CYYC;2005-09-09 19:26;SPECI CYYC 091926Z 35008KT 7SM -RA OVC004 09/ RMK SC8 PCPN VRY LGT=

CYYC;2005-09-09 20:00;METAR CYYC 092000Z 36012KT 4SM -RA BR OVC004 09/08 A2973 RMK SC8 PCPN VRY LGT SLP083=

CYYC;2005-09-09 20:11;SPECI CYYC 092011Z 35013KT 3SM -RA BR OVC003 09/ RMK SC8 PCPN VRY LGT=

CYYC;2005-09-09 20:24;SPECI CYYC 092024Z 35012KT 4SM BR BKN003 OVC008 09/ RMK SC6SC2=

CYYC;2005-09-09 20:36;SPECI CYYC 092036Z 36010G16KT 5SM BR BKN003 OVC006 09/ RMK SC4SC4=

CYYC;2005-09-09 21:00;METAR CYYC 092100Z 36014KT 7SM FEW004 OVC007 09/08 A2975 RMK SC1SC7 SLP092=

CYYC;2005-09-09 22:00;METAR CYYC 092200Z 35016KT 7SM OVC007 08/07 A2977 RMK SC8 SLP098=

CYYC;2005-09-09 22:17;SPECI CYYC 092217Z 35014G19KT 5SM -RA OVC007 07/ RMK SC8=

CYYC;2005-09-09 22:39;SPECI CYYC 092239Z 35015KT 2 1/2SM -RA OVC007 07/ RMK SC8=

CYYC;2005-09-09 23:00;METAR CYYC 092300Z 34015G20KT 2SM -RA OVC007 07/06 A2981 RMK SC8 SLP110=

CYYC;2005-09-10 00:00;METAR CYYC 100000Z 33014KT 4SM -RA BKN007 OVC014 06/06 A2981 RMK SC6SC2 SLP118=

CYYC;2005-09-10 00:43;SPECI CYYC 100043Z 33012G17KT 3SM -RA BKN007 OVC012 06/ RMK SC4SC4=

CYYC;2005-09-10 02:00;METAR CYYC 100200Z 32012G18KT 4SM -RA BR SCT006 OVC014 05/04 A2985 RMK SC3SC5 SLP129=

CYYC;2005-09-10 03:00;METAR CYYC 100300Z 33013G19KT 10SM -RA FEW009 OVC015 05/04 A2985 RMK SC2SC6 PCPN VRY LGT SLP135=

CYYC;2005-09-10 03:32;SPECI CYYC 100332Z 32016KT 8SM -RA FEW008 OVC011 05/ RMK SC2SC6=

CYYC;2005-09-10 04:00;METAR CYYC 100400Z 32016KT 8SM -RA SCT008 OVC013 05/04 A2986 RMK SC4SC4 SLP136=

CYYC;2005-09-10 05:00;METAR CYYC 100500Z 33016G22KT 8SM -RA FEW007 OVC014 05/05 A2985 RMK SF2SC6 SLP135=

CYYC;2005-09-10 06:00;METAR CYYC 100600Z 33017KT 5SM -RA BR FEW006 OVC010 05/05 A2986 RERA RMK SF1SC7 SLP136=

CYYC;2005-09-10 06:22;SPECI CYYC 100622Z 33016KT 5SM -RA BR FEW006 OVC009 05/ RMK SF1SC7=

CYYC;2005-09-10 06:55;SPECI CYYC 100655Z 34017G24KT 5SM -RA BR FEW008 OVC014 06/ RMK SC2SC6=

CYYC;2005-09-10 09:00;METAR CYYC 100900Z 33021G26KT 4SM -RA BR FEW008 OVC011 06/06 A2982 RMK SC2SC6 SLP123=

CYYC;2005-09-10 10:00;METAR CYYC 101000Z 34016KT 5SM -RA BR BKN008 BKN015 OVC020 07/06 A2982 RERA RMK SC4SC3SC1 SLP123=

CYYC;2005-09-10 10:32;SPECI CYYC 101032Z 34014KT 8SM -RA BKN008 OVC015 07/ RMK SC6SC2=

CYYC;2005-09-10 11:00;METAR CYYC 101100Z 35016KT 4SM -RA BR BKN009 OVC012 08/07 A2983 RMK SC6SC2 SLP126=

CYYC;2005-09-10 11:27;SPECI CYYC 101127Z 36012KT 2 1/2SM RA BR BKN007 OVC011 07/ RMK SC6SC2=

CYYC;2005-09-10 11:45;SPECI CYYC 101145Z 36012G17KT 4SM RA BR BKN008 OVC012 07/ RMK SC6SC2=

CYYC;2005-09-10 12:00;METAR CYYC 101200Z 36012KT 4SM RA BR BKN007 OVC014 07/07 A2985 RMK SC6SC2 /R16/ SLP133=

CYYC;2005-09-10 13:00;METAR CYYC 101300Z 36018KT 4SM RA BR BKN007 BKN014 OVC030 07/07 A2985 RMK SC3SC4SC1 SLP135=

CYYC;2005-09-10 13:14;SPECI CYYC 101314Z 36018KT 2SM RA BR SCT007 OVC012 07/ RMK SC3SC5=

CYYC;2005-09-10 13:45;SPECI CYYC 101345Z 35015KT 6SM -RA FEW004 BKN008 OVC011 07/ RERA RMK SC1SC5SC2=

CYYC;2005-09-10 14:00;METAR CYYC 101400Z 36017KT 8SM -RA FEW004 BKN007 OVC011 07/07 A2985 RERA RMK SC2SC4SC2 SLP135=

CYYC;2005-09-10 16:00;METAR CYYC 101600Z 34019G24KT 5SM -RA BKN008 OVC014 07/07 A2986 RMK SC6SC2 SLP138=

CYYC;2005-09-10 17:00;METAR CYYC 101700Z 32019KT 3SM RA FEW005 OVC009 08/08 A2988 RMK SC1SC7 /R10/ SLP144=

CYYC;2005-09-10 17:29;SPECI CYYC 101729Z 34014KT 2SM RA FEW005 OVC008 07/ RMK SC1SC7=

CYYC;2005-09-10 18:00;METAR CYYC 101800Z 35012G17KT 2 1/2SM -RA FEW004 BKN008 OVC015 08/08 A2992 RERA RMK SC1SC5SC2 SLP158=

CYYC;2005-09-10 18:22;SPECI CYYC 101822Z 35017G22KT 5SM -RA FEW004 BKN009 OVC018 08/ RMK SC1SC4SC3=

CYYC;2005-09-10 19:00;METAR CYYC 101900Z 35018KT 5SM -RA FEW006 BKN009 OVC021 08/08 A2992 RMK SC1SC6SC2 SLP158=

CYYC;2005-09-10 20:00;METAR CYYC 102000Z 34019G26KT 5SM -RA BKN009 OVC015 08/08 A2991 RMK SC5SC3 SLP157=

CYYC;2005-09-10 22:24;SPECI CYYC 102224Z 35016G26KT 4SM -RA FEW008 SCT018 OVC022 07/ RERA RMK SC2SC2SC4=

CYYC;2005-09-10 23:43;SPECI CYYC 102343Z 35024G31KT 6SM -RA BKN009 BKN016 OVC030 07/ RMK SC5SC2SC2=

CYYC;2005-09-11 00:00;METAR CYYC 110000Z 35026KT 7SM -RA BKN008 BKN017 OVC030 07/07 A2991 RMK SC6SC1SC2 SLP153=

CYYC;2005-09-11 01:00;METAR CYYC 110100Z 35024G31KT 5SM -RA BKN007 BKN021 OVC056 07/06 A2991 RERA RMK SC6SC1SC2 SLP153=

CYYC;2005-09-11 01:46;SPECI CYYC 110146Z 35022G32KT 4SM -RA BR SCT007 OVC014 06/ RMK SC4SC4=

CYYC;2005-09-11 02:00;METAR CYYC 110200Z 35021G29KT 4SM -RA BR FEW007 BKN012 OVC018 07/06 A2992 RMK SF2SC4SC2 SLP156=

CYYC;2005-09-11 02:27;SPECI CYYC 110227Z 35021G26KT 5SM -RA BR FEW007 SCT012 OVC018 07/ RMK SF2SC2SC4=

CYYC;2005-09-11 03:00;METAR CYYC 110300Z 35015G24KT 4SM -RA BR FEW007 SCT012 OVC022 07/06 A2996 RMK SF1SC3SC4 SLP171=

CYYC;2005-09-11 04:00;METAR CYYC 110400Z 35016G21KT 6SM -RA BR FEW008 BKN013 OVC019 07/06 A2997 RERA RMK SF2SC3SC2 /R10/ SLP174=

CYYC;2005-09-11 05:00;METAR CYYC 110500Z 35018KT 10SM -RA FEW008 SCT015 OVC027 06/06 A2997 RMK SF2SC2SC4 SLP174=

CYYC;2005-09-11 06:00;METAR CYYC 110600Z 36016G24KT 3SM -RA BR BKN008 BKN015 OVC021 06/06 A2997 RMK SC5SC2SC1 SLP177=

CYYC;2005-09-11 06:21;SPECI CYYC 110621Z 35014G19KT 10SM -RA SCT007 BKN015 OVC037 06/ RMK SF3SC2SC3=

CYYC;2005-09-11 07:00;METAR CYYC 110700Z 35016G22KT 3SM -RA BR BKN008 OVC014 06/05 A2997 RMK SC4SC4 SLP176=

CYYC;2005-09-11 07:13;SPECI CYYC 110713Z 35015G20KT 2 1/2SM -RA BR SCT005 BKN008 OVC017 06/ RMK SF2SC3SC2=

CYYC;2005-09-11 07:30;SPECI CYYC 110730Z 35016KT 4SM -RA BR FEW006 BKN009 OVC020 06/ RMK SF1SC5SC2=

CYYC;2005-09-11 07:43;SPECI CYYC 110743Z 35015G20KT 2SM -RA BR BKN008 OVC015 06/ RMK SC6SC2=

CYYC;2005-09-11 08:30;SPECI CYYC 110830Z 34013G19KT 2 1/2SM -RA BR BKN008 OVC012 06/ RMK SC6SC2=

CYYC;2005-09-11 08:45;SPECI CYYC 110845Z 34016KT 8SM -RA SCT009 OVC016 06/ RMK SC4SC4=

CYYC;2005-09-11 09:00;METAR CYYC 110900Z 35014G20KT 8SM -RA FEW008 BKN011 OVC037 05/05 A2995 RMK SF1SC6SC2 SLP171=

CYYC;2005-09-11 10:00;METAR CYYC 111000Z 34015KT 15SM SCT008 BKN013 OVC040 06/05 A2994 RMK SF2SC4SC2 SLP168=

CYYC;2005-09-11 10:36;SPECI CYYC 111036Z 34012KT 5SM -RA BR SCT008 BKN012 OVC030 06/ RMK SF2SC4SC2=

CYYC;2005-09-11 11:00;METAR CYYC 111100Z 34010KT 3SM -RA BR BKN007 OVC013 05/05 A2994 RMK SC6SC2 SLP166=

CYYC;2005-09-11 11:43;SPECI CYYC 111143Z 36016KT 2 1/2SM -RA BR BKN009 OVC016 05/ RMK SC6SC2=

CYYC;2005-09-11 12:00;METAR CYYC 111200Z 35012G17KT 3SM -RA BR SCT009 OVC019 05/04 A2993 RMK SC4SC4 SLP165=

CYYC;2005-09-11 12:13;SPECI CYYC 111213Z 35013KT 2 1/2SM -RA BR BKN007 OVC019 05/ RMK SC4SC4=

CYYC;2005-09-11 13:00;METAR CYYC 111300Z 36014KT 2SM -RA BR BKN005 OVC019 05/05 A2994 RMK SC6SC2 SLP168=

CYYC;2005-09-11 13:16;SPECI CYYC 111316Z 35012KT 3SM -RA BR SCT005 BKN015 OVC022 05/ RMK SF2SC5SC1=

CYYC;2005-09-11 14:00;METAR CYYC 111400Z 35009G15KT 6SM -RA BR FEW005 SCT013 BKN016 OVC037 05/04 A2994 RMK SF1SC3SC3SC1 SLP168=

CYYC;2005-09-11 14:39;SPECI CYYC 111439Z 35011KT 5SM -DZ BR FEW005 SCT012 BKN018 OVC028 05/ RMK SF2ST2SC3SC1=

CYYC;2005-09-11 15:00;METAR CYYC 111500Z 35009KT 10SM -DZ FEW005 SCT012 BKN019 OVC052 05/04 A2994 RMK SF1ST2SC4SC1 SLP168=

CYYC;2005-09-11 15:30;SPECI CYYC 111530Z 34010KT 6SM -DZ FEW004 BKN009 OVC013 05/ RMK SF2SC3ST3=

CYYC;2005-09-11 16:25;SPECI CYYC 111625Z 35009KT 6SM -RA FEW004 BKN009 OVC016 06/ RMK SF1SC6SC2=

CYYC;2005-09-11 17:00;METAR CYYC 111700Z 35006KT 20SM -RA FEW006 BKN012 OVC025 06/05 A2992 RMK SF1SC6SC2 PCPN VRY LGT SLP161=

CYYC;2005-09-11 17:22;SPECI CYYC 111722Z 31010G15KT 20SM FEW008 BKN013 OVC019 07/ RMK SF1SC5SC2 SH SE=

CYYC;2005-09-11 18:00;METAR CYYC 111800Z 32010G15KT 20SM FEW008 BKN018 BKN035 BKN230 07/05 A2990 RMK SF1SC4SC2CI0 SLP152=

CYYC;2005-09-11 19:00;METAR CYYC 111900Z 01008KT 40SM FEW008 SCT018 BKN036 08/05 A2988 RMK SF1SC3SC3 SLP147=

CYYC;2005-09-11 20:00;METAR CYYC 112000Z 36009G15KT 40SM SCT019 BKN030 BKN230 09/06 A2986 RMK SC3SC2CI0 SLP141=

CYYC;2005-09-11 21:00;METAR CYYC 112100Z 01008KT 40SM FEW025 SCT150 BKN230 09/06 A2986 RMK CU1AC3CS1 SLP135=

CYYC;2005-09-11 22:00;METAR CYYC 112200Z 07007KT 40SM BKN030 BKN230 10/06 A2986 RMK CU5CI1 SLP135=

CYYC;2005-09-11 23:00;METAR CYYC 112300Z 07004KT 40SM BKN031 BKN230 10/06 A2985 RMK CU5CI0 SLP134=

CYYC;2005-09-12 01:00;METAR CYYC 120100Z 11007KT 30SM BKN028 BKN140 BKN240 09/06 A2986 RMK SC4AC1CI0 SLP134=

CYYC;2005-09-12 03:00;METAR CYYC 120300Z 16004KT 15SM FEW060 FEW100 06/05 A2988 RMK SC1AC1 SLP148=

CYYC;2005-09-12 04:00;METAR CYYC 120400Z 20004KT 15SM FEW100 FEW240 06/05 A2989 RMK AC1CI0 SLP150=

CYYC;2005-09-12 05:00;METAR CYYC 120500Z 23005KT 15SM FEW100 FEW240 05/04 A2989 RMK AC1CI0 SLP151=

CYYC;2005-09-12 07:00;METAR CYYC 120700Z 21004KT 15SM FEW090 04/03 A2990 RMK AC1 SLP152=

CYYC;2005-09-12 08:00;METAR CYYC 120800Z 32006KT 15SM FEW060 FEW090 05/04 A2990 RMK SC1AC1 SLP152=

CYYC;2005-09-12 09:00;METAR CYYC 120900Z 32006KT 15SM FEW240 05/04 A2990 RMK CI0 SLP152=

CYYC;2005-09-12 10:00;METAR CYYC 121000Z 36002KT 15SM FEW100 04/01 A2991 RMK AC1 AURBO SLP154=

CYYC;2005-09-12 11:00;METAR CYYC 121100Z 34007KT 15SM FEW050 FEW070 05/02 A2993 RMK SC2AC1 SLP161=

CYYC;2005-09-12 12:00;METAR CYYC 121200Z 35008KT 15SM FEW090 BKN160 05/02 A2994 RMK AC2AC2 SLP165=

CYYC;2005-09-12 13:00;METAR CYYC 121300Z 33009KT 40SM SCT100 BKN160 06/05 A2996 RMK AC4AC2 SLP169=

CYYC;2005-09-12 15:00;METAR CYYC 121500Z 34010KT 40SM BKN082 OVC100 08/05 A2998 RMK AC6AC2 SLP180=

CYYC;2005-09-12 16:00;METAR CYYC 121600Z 34013KT 40SM FEW040 OVC090 08/06 A3000 RMK SC2AC6 SLP185=

CYYC;2005-09-12 16:24;SPECI CYYC 121624Z 33008KT 20SM -RA BKN060 BKN074 OVC090 08/ RMK SC5AC2AC2=

CYYC;2005-09-12 17:00;METAR CYYC 121700Z 32013KT 20SM -RA FEW020 BKN046 OVC080 08/06 A3001 RMK SC1SC6AC1 SLP188=

CYYC;2005-09-12 18:00;METAR CYYC 121800Z 33015KT 20SM -RA BKN017 OVC040 09/06 A3001 RMK SC6SC2 SLP190=

CYYC;2005-09-12 19:04;SPECI CYYC 121904Z 35011KT 12SM -SHRA BKN017 OVC030 09/ RMK SC6SC2=

CYYC;2005-09-12 19:52;SPECI CYYC 121952Z 01010KT 20SM FEW017 OVC044 10/ RMK SC2SC6=

CYYC;2005-09-12 20:00;METAR CYYC 122000Z 01012KT 20SM FEW017 OVC040 10/06 A3001 RMK SC2SC6 SLP188=

CYYC;2005-09-12 22:00;METAR CYYC 122200Z 01012G17KT 20SM FEW017 BKN020 OVC040 10/06 A3002 RMK SC2SC6SC1 SLP193=

CYYC;2005-09-12 23:00;METAR CYYC 122300Z 01011KT 20SM FEW022 BKN050 09/05 A3003 RMK SC2SC4 SLP194=

CYYC;2005-09-13 00:00;METAR CYYC 130000Z 35013KT 20SM FEW030 SCT050 10/04 A3003 RMK SC2SC2 SLP193=

CYYC;2005-09-13 01:00;METAR CYYC 130100Z 01007KT 30SM FEW050 09/04 A3004 RMK SC2 SLP196=

CYYC;2005-09-13 03:00;METAR CYYC 130300Z 25002KT 15SM FEW070 06/03 A3005 RMK AC1 SLP203=

CYYC;2005-09-13 04:00;METAR CYYC 130400Z 24002KT 15SM FEW070 FEW100 06/03 A3005 RMK AC1AC1 SLP204=

CYYC;2005-09-13 05:00;METAR CYYC 130500Z 24002KT 15SM FEW060 FEW100 05/03 A3005 RMK SC1AC1 SLP204=

CYYC;2005-09-13 06:00;METAR CYYC 130600Z 00000KT 15SM FEW080 03/01 A3004 RMK AC1 SLP202=

CYYC;2005-09-13 06:42;SPECI CYYC 130642Z 00000KT 15SM FEW080 02/ RMK AC1=

CYYC;2005-09-13 07:00;METAR CYYC 130700Z 36002KT 15SM FEW080 01/M00 A3004 RMK AC1 SLP201=

CYYC;2005-09-13 08:00;METAR CYYC 130800Z 03002KT 15SM FEW120 01/M00 A3003 RMK AC1 SLP200=

CYYC;2005-09-13 09:00;METAR CYYC 130900Z 23002KT 15SM FEW015 FEW120 01/00 A3002 RMK SC1AC1 SLP197=

CYYC;2005-09-13 11:00;METAR CYYC 131100Z 23004KT 15SM FEW100 02/01 A3000 RMK AC1 FROIN SLP192=

CYYC;2005-09-13 12:00;METAR CYYC 131200Z 23002KT 15SM SCT100 BKN210 02/01 A2999 RMK AC3CI0 SLP185=

CYYC;2005-09-13 13:00;METAR CYYC 131300Z 18004KT 40SM SCT100 BKN210 01/01 A2997 RMK AC2CI0 FROIN SLP180=

CYYC;2005-09-13 14:00;METAR CYYC 131400Z 21004KT 40SM FEW065 BKN093 02/01 A2997 RMK SC1AC2 SLP179=

CYYC;2005-09-13 15:00;METAR CYYC 131500Z 21005KT 40SM FEW070 BKN080 05/04 A2996 RMK AC1AC5 SLP174=

CYYC;2005-09-13 16:00;METAR CYYC 131600Z 20003KT 40SM FEW070 BKN088 07/05 A2995 RMK AC1AC6 SLP172=

CYYC;2005-09-13 17:00;METAR CYYC 131700Z 22003KT 40SM FEW070 SCT090 10/05 A2993 RMK AC1AC2 SLP166=

CYYC;2005-09-13 18:00;METAR CYYC 131800Z 23005KT 40SM FEW045 SCT090 13/06 A2992 RMK CU1AC2 CU TR SLP155=

CYYC;2005-09-13 19:00;METAR CYYC 131900Z 27012KT 40SM FEW045 FEW090 SCT250 17/05 A2990 RMK CU1AC1CI0 SLP148=

CYYC;2005-09-13 21:00;METAR CYYC 132100Z 26011G17KT 40SM FEW062 SCT100 17/02 A2986 RMK CU2AC1 SLP130=

CYYC;2005-09-13 22:00;METAR CYYC 132200Z 25009G15KT 40SM FEW062 SCT100 SCT250 18/03 A2985 RMK CU2AC1CI0 SLP127=

CYYC;2005-09-13 23:00;METAR CYYC 132300Z 26010G18KT 40SM FEW062 SCT085 BKN240 17/03 A2983 RMK CU2AC2CI2 SLP121=

CYYC;2005-09-14 00:00;METAR CYYC 140000Z 26013G18KT 40SM FEW060 BKN100 OVC220 15/03 A2982 RMK SC1AC4CI2 ACSL SSW SLP120=

CYYC;2005-09-14 01:00;METAR CYYC 140100Z 27012KT 40SM FEW060 BKN078 OVC220 15/03 A2981 RMK SC1AC5CI2 ACSL SSW SLP116=

CYYC;2005-09-14 02:00;METAR CYYC 140200Z 27010KT 40SM FEW060 BKN086 OVC120 14/03 A2981 RMK SC1AC6AC2 SLP116=

CYYC;2005-09-14 03:00;METAR CYYC 140300Z 28011KT 15SM FEW080 BKN100 BKN150 14/03 A2982 RMK AC2AC4AC2 SLP117=

CYYC;2005-09-14 04:00;METAR CYYC 140400Z 35003KT 15SM FEW090 OVC140 12/04 A2982 RMK AC2AC6 SLP116=

CYYC;2005-09-14 05:00;METAR CYYC 140500Z 04003KT 15SM BKN092 BKN140 11/05 A2981 RMK AC5AC2 SLP114=

CYYC;2005-09-14 06:00;METAR CYYC 140600Z 24003KT 15SM BKN096 BKN140 11/05 A2981 RMK AC5AC1 SLP105=

CYYC;2005-09-14 07:00;METAR CYYC 140700Z 19004KT 15SM BKN100 11/04 A2980 RMK AC5 SLP103=

CYYC;2005-09-14 08:00;METAR CYYC NIL=

CYYC;2005-09-14 09:00;METAR CYYC 140900Z 31009KT 15SM BKN087 10/04 A2982 RMK AC6 SLP103=

CYYC;2005-09-14 10:00;METAR CYYC 141000Z 32006KT 15SM SCT084 09/04 A2981 RMK AC2 SLP101=

CYYC;2005-09-14 11:00;METAR CYYC 141100Z 34005KT 15SM FEW240 08/03 A2981 RMK CI0 SLP101=

CYYC;2005-09-14 12:00;METAR CYYC 141200Z 22002KT 15SM FEW100 SCT240 06/03 A2980 RMK AC1CI0 SLP106=

CYYC;2005-09-14 13:00;METAR CYYC 141300Z 20004KT 40SM FEW060 FEW100 BKN140 05/02 A2981 RMK SC1AC2AC1 SLP109=

CYYC;2005-09-14 14:00;METAR CYYC 141400Z 22005KT 40SM FEW070 SCT150 BKN240 06/04 A2982 RMK AC1AC2CI1 LWR AC TR SLP110=

CYYC;2005-09-14 15:00;METAR CYYC 141500Z 19006KT 40SM FEW070 SCT180 BKN240 10/05 A2982 RMK AC1AC2CI1 SLP108=

CYYC;2005-09-14 16:00;METAR CYYC 141600Z 24006KT 40SM FEW080 FEW110 BKN180 BKN240 13/05 A2982 RMK AC1AC2AC5CI1 SLP107=

CYYC;2005-09-14 17:00;METAR CYYC 141700Z 35021G27KT 40SM FEW020 FEW080 SCT180 BKN240 12/06 A2987 RMK SC1AC1AC2CI1 PRESRR SLP125=

CYYC;2005-09-14 18:00;METAR CYYC 141800Z 36017G22KT 40SM FEW020 FEW080 FEW180 SCT240 13/07 A2988 RMK SC1AC1AC0CI1 SC TR SLP131=

CYYC;2005-09-14 19:00;METAR CYYC 141900Z 02013KT 40SM FEW030 FEW090 SCT180 BKN240 14/06 A2989 RMK SC1AC2AC1CI0 SLP132=

CYYC;2005-09-14 20:00;METAR CYYC 142000Z 04009KT 40SM FEW030 SCT090 BKN180 BKN240 15/07 A2989 RMK SC2AC2AC1CI0 SLP134=

CYYC;2005-09-14 21:00;METAR CYYC 142100Z 07004KT 40SM -SHRA FEW030 BKN060 BKN240 13/05 A2989 RMK SC1SC3CI0 PCPN VRY LGT SLP136=

CYYC;2005-09-15 00:00;METAR CYYC 150000Z 35012KT 30SM FEW020 BKN034 BKN120 BKN240 09/07 A2996 RMK SC1SC6AC1CI1 SHS SW+NW-E / TCU EMBD / LWR SC + CI TR SLP168=

CYYC;2005-09-15 01:00;METAR CYYC 150100Z 03003KT 30SM BKN042 BKN120 BKN240 10/07 A2995 RMK SC7AC1CI1 SHS NE-E / TCU EMBD E SLP167=

CYYC;2005-09-15 02:00;METAR CYYC 150200Z 35003KT 30SM SCT057 BKN090 OVC220 09/07 A2997 RMK SC4AC2CI1 VIRGA E SLP172=

CYYC;2005-09-15 03:00;METAR CYYC 150300Z 32004KT 15SM BKN060 BKN090 09/07 A2999 RMK SC6AC1 SLP175=

CYYC;2005-09-15 04:00;METAR CYYC 150400Z 34002KT 15SM FEW080 SCT190 09/07 A3000 RMK AC2AC2 SLP177=

CYYC;2005-09-15 06:00;METAR CYYC 150600Z 33002KT 15SM BKN082 BKN100 08/05 A3001 RMK AC6AC1 SLP180=

CYYC;2005-09-15 09:00;METAR CYYC 150900Z 08002KT 15SM FEW039 OVC090 07/05 A3001 RMK SC2AC6 SLP182=

CYYC;2005-09-15 10:00;METAR CYYC 151000Z 00000KT 15SM BKN038 BKN050 OVC080 07/05 A3001 RMK SC6SC2AC1 SLP182=

CYYC;2005-09-15 11:00;METAR CYYC 151100Z 10004KT 15SM OVC034 07/05 A3000 RMK SC8 SLP178=

CYYC;2005-09-15 12:00;METAR CYYC 151200Z 12005KT 15SM BKN024 OVC049 07/05 A2998 RMK SC6SC2 SLP177=

CYYC;2005-09-15 13:00;METAR CYYC 151300Z 13006KT 15SM OVC021 07/05 A2999 RMK SC8 SLP179=

CYYC;2005-09-15 13:21;SPECI CYYC 151321Z 13006KT 15SM -RA FEW011 OVC021 07/ RMK SC2SC6=

CYYC;2005-09-15 13:51;SPECI CYYC 151351Z 11006KT 15SM -RA FEW007 OVC010 07/ RMK SC2SC6=

CYYC;2005-09-15 14:00;METAR CYYC 151400Z 10005KT 15SM -RA FEW007 OVC010 07/06 A2998 RMK SC2SC6 SLP177=

CYYC;2005-09-15 14:23;SPECI CYYC 151423Z 11007KT 15SM -RA OVC007 07/ RMK SC8=

CYYC;2005-09-15 15:00;METAR CYYC 151500Z 10010KT 15SM -RA OVC005 07/06 A2997 RMK SC8 PCPN VRY LGT SLP174=

CYYC;2005-09-15 15:32;SPECI CYYC 151532Z 11009KT 7SM OVC004 06/ RMK SC8=

CYYC;2005-09-15 16:00;METAR CYYC 151600Z 11007KT 6SM BR OVC003 06/06 A2997 RMK SC8 SLP173=

CYYC;2005-09-15 17:00;METAR CYYC 151700Z 12010KT 4SM BR OVC004 07/07 A2996 RMK ST8 SLP169=

CYYC;2005-09-15 17:30;SPECI CYYC 151730Z 12011KT 3SM BR OVC003 07/ RMK ST8=

CYYC;2005-09-15 18:00;METAR CYYC 151800Z 12009KT 2 1/2SM BR OVC003 07/07 A2995 RMK ST8 SLP166=

CYYC;2005-09-15 18:29;SPECI CYYC 151829Z 11008KT 3SM BR OVC002 07/ RMK ST8=

CYYC;2005-09-15 19:00;METAR CYYC 151900Z 13011KT 5SM BR OVC004 08/08 A2994 RMK ST8 SLP162=

CYYC;2005-09-15 19:34;SPECI CYYC 151934Z 13009KT 3SM BR OVC003 08/ RMK ST8=

CYYC;2005-09-15 19:44;SPECI CYYC 151944Z 12010KT 1 1/2SM BR OVC002 08/ RMK ST8=

CYYC;2005-09-15 20:00;METAR CYYC 152000Z 12011KT 1 1/2SM BR OVC002 08/08 A2992 RMK ST8 SLP158=

CYYC;2005-09-15 21:00;METAR CYYC 152100Z 12010KT 3SM BR OVC004 09/08 A2992 RMK ST8 SLP155=

CYYC;2005-09-15 21:51;SPECI CYYC 152151Z 11005KT 4SM -RA BR OVC004 09/ RMK ST8 SC ASOCTD=

CYYC;2005-09-15 22:00;METAR CYYC 152200Z 12006KT 4SM -RA BR BKN004 OVC008 09/08 A2993 RMK ST7SC1 SLP159=

CYYC;2005-09-15 22:16;SPECI CYYC 152216Z 15013KT 6SM -SHRA BKN004 BKN008 OVC030 09/ RMK ST3SC3SC2 VIS S 4=

CYYC;2005-09-15 22:24;SPECI CYYC 152224Z 14019KT 6SM -SHRA FEW004 BKN020CB BKN080 BKN220 09/ RMK ST2CB4AC1CI1=

CYYC;2005-09-15 22:36;SPECI CYYC 152236Z 15012G24KT 7SM FEW004 BKN060CB BKN080 BKN220 09/ RMK ST1CB4AC1CI1 SHS SE-S / PRESFR=

CYYC;2005-09-15 23:00;METAR CYYC 152300Z 12006KT 7SM BKN007 BKN250 10/09 A2991 RMK SC5CI2 SLP154=

CYYC;2005-09-16 00:00;METAR CYYC 160000Z 10007KT 15SM BKN006 OVC250 10/09 A2993 RMK SC7CI0 SLP157=

CYYC;2005-09-16 00:48;SPECI CYYC 160048Z 09010KT 10SM BKN007 BKN018 OVC250 09/ RMK SC3SC3CI1=

CYYC;2005-09-16 01:00;METAR CYYC 160100Z 10008KT 10SM BKN007 BKN018 OVC250 09/08 A2993 RMK SC2SC2CI2 SLP157=

CYYC;2005-09-16 01:18;SPECI CYYC 160118Z 10008KT 9SM PRFG BKN005 OVC019 09/ RMK ST6SC2=

CYYC;2005-09-16 04:00;METAR CYYC 160400Z 06006KT 10SM FEW009 BKN029 OVC044 08/08 A3000 RMK ST2SC5SC1 SLP182=

CYYC;2005-09-16 05:00;METAR CYYC 160500Z 03007KT 10SM BKN004 OVC020 08/08 A3001 RMK ST6SC2 SLP185=

CYYC;2005-09-16 06:00;METAR CYYC 160600Z 03003KT 10SM OVC004 08/08 A3002 RMK ST8 SLP191=

CYYC;2005-09-16 06:53;SPECI CYYC 160653Z 35006KT 10SM -RA FEW004 BKN018 OVC047 07/ RMK SF2SC4SC2=

CYYC;2005-09-16 07:00;METAR CYYC 160700Z 36007KT 10SM -RA FEW005 BKN018 OVC048 07/07 A3003 RMK SF2SC4SC2 SLP195=

CYYC;2005-09-16 08:00;METAR CYYC 160800Z 01009KT 12SM -RA FEW010 OVC045 07/07 A3003 RMK SC2SC6 SLP195=

CYYC;2005-09-16 09:00;METAR CYYC 160900Z 36009KT 12SM -RA BKN006 OVC020 07/06 A3004 RMK ST6SC2 RAIN VRY LGT SLP196=

CYYC;2005-09-16 10:00;METAR CYYC 161000Z 36010KT 12SM -RA OVC005 06/05 A3004 RMK ST8 SLP197=

CYYC;2005-09-16 12:00;METAR CYYC 161200Z 35009KT 12SM -DZ OVC004 05/05 A3006 RMK ST8 SLP204=

CYYC;2005-09-16 12:52;SPECI CYYC 161252Z 36009KT 7SM -RA OVC009 05/ RMK SC8=

CYYC;2005-09-16 13:00;METAR CYYC 161300Z 36007KT 7SM -RA OVC006 05/05 A3007 RMK SC8 SLP208=

CYYC;2005-09-16 14:00;METAR CYYC 161400Z 03005KT 8SM -RA OVC006 05/04 A3008 RMK SC8 SLP213=

CYYC;2005-09-16 14:16;SPECI CYYC 161416Z 03005KT 8SM -RA OVC005 05/ RMK SC8=

CYYC;2005-09-16 14:55;SPECI CYYC 161455Z 04006KT 8SM -RA BKN005 OVC023 05/ RMK SC7SC1=

CYYC;2005-09-16 15:00;METAR CYYC 161500Z 04006KT 6SM -RA BKN005 OVC023 05/05 A3009 RMK SC7SC1 SLP220=

CYYC;2005-09-16 17:30;SPECI CYYC 161730Z 00000KT 15SM FEW008 BKN012 OVC040 06/ RMK SC2SC4SC2=

CYYC;2005-09-16 18:00;METAR CYYC 161800Z 33005KT 15SM FEW008 BKN012 OVC040 07/04 A3008 RMK SC1SC6SC1 SLP215=

CYYC;2005-09-16 20:00;METAR CYYC 162000Z 00000KT 20SM FEW015 OVC021 08/04 A3007 RMK SC1SC8 SLP210=

CYYC;2005-09-16 21:00;METAR CYYC 162100Z 00000KT 20SM OVC022 08/04 A3005 RMK SC8 SLP202=

CYYC;2005-09-16 22:00;METAR CYYC 162200Z 00000KT 20SM OVC023 08/04 A3005 RMK SC8 SLP201=

CYYC;2005-09-16 23:00;METAR CYYC 162300Z 18004KT 20SM BKN024 BKN040 09/05 A3003 RMK SC7SC1 SLP197=

CYYC;2005-09-17 00:00;METAR CYYC 170000Z 14005KT 20SM SCT024 BKN031 09/05 A3002 RMK SC3SC3 SLP194=

CYYC;2005-09-17 01:00;METAR CYYC 170100Z 14006KT 20SM FEW024 BKN029 08/05 A3002 RMK SC1SC5 SLP194=

CYYC;2005-09-17 02:00;METAR CYYC 170200Z 14007KT 20SM BKN026 08/05 A3003 RMK SC7 SLP195=

CYYC;2005-09-17 03:00;METAR CYYC 170300Z 15006KT 15SM SCT028 07/05 A3002 RMK SC3 SLP197=

CYYC;2005-09-17 04:00;METAR CYYC 170400Z 16006KT 15SM FEW024 FEW030 06/05 A3002 RMK CU1SC1 SLP197=

CYYC;2005-09-17 06:00;METAR CYYC 170600Z 16005KT 15SM FEW030 04/04 A3000 RMK SC2 SLP191=

CYYC;2005-09-17 07:00;METAR CYYC 170700Z 19005KT 15SM FEW025 04/04 A3000 RMK SC1 SLP189=

CYYC;2005-09-17 08:48;SPECI CYYC 170848Z 18005KT 15SM VCFG FEW001 FEW025 04/ RMK ST1SC1=

CYYC;2005-09-17 09:00;METAR CYYC 170900Z 19005KT 15SM VCFG FEW001 FEW025 04/04 A2998 RMK ST1SC1 SLP181=

CYYC;2005-09-17 10:00;METAR CYYC 171000Z 19005KT 15SM VCFG FEW001 04/04 A2997 RMK ST1 FG BANK=

CYYC;2005-09-17 11:11;SPECI CYYC 171111Z 28004KT 15SM VCFG FEW100 BKN240 02/ RMK AC0CI0=

CYYC;2005-09-17 13:00;METAR CYYC 171300Z 19006KT 40SM FEW020 FEW100 SCT240 01/00 A2997 RMK SC1AC2CI0 FROIN SLP181=

CYYC;2005-09-17 14:00;METAR CYYC 171400Z 00000KT 40SM FEW100 SCT260 02/01 A2998 RMK AC1CI1 SLP183=

CYYC;2005-09-17 15:00;METAR CYYC 171500Z 00000KT 40SM FEW100 FEW260 04/03 A2999 RMK AC1CI1 SLP185=

CYYC;2005-09-17 16:00;METAR CYYC 171600Z 29002KT 40SM FEW130 FEW260 08/05 A3000 RMK AC1CI0 SLP188=

CYYC;2005-09-17 17:00;METAR CYYC 171700Z 34005KT 40SM FEW260 11/05 A3000 RMK CI0 CONTRAILS SLP188=

CYYC;2005-09-17 18:00;METAR CYYC 171800Z 02006KT 40SM BKN260 13/05 A3001 RMK CI1 CONTRAILS SLP184=

CYYC;2005-09-17 19:00;METAR CYYC 171900Z 34005KT 40SM BKN260 14/04 A3001 RMK CS1 CONTRAILS SLP184=

CYYC;2005-09-17 20:00;METAR CYYC 172000Z 01007KT 40SM FEW042 BKN260 14/04 A3000 RMK CU1CS1 CONTRAILS SLP181=

CYYC;2005-09-17 21:00;METAR CYYC 172100Z 05003KT 40SM FEW042 BKN260 15/03 A2999 RMK CU1CS1 SLP176=

CYYC;2005-09-17 22:00;METAR CYYC 172200Z 00000KT 40SM FEW042 SCT260 16/04 A2998 RMK CU1CI1 SLP171=

CYYC;2005-09-17 23:00;METAR CYYC 172300Z 08003KT 40SM FEW050 SCT260 16/03 A2997 RMK CU1CI1 SLP168=

CYYC;2005-09-18 00:00;METAR CYYC 180000Z 12005KT 40SM FEW050 SCT260 16/03 A2996 RMK SC1CI1 SLP168=

CYYC;2005-09-18 01:00;METAR CYYC 180100Z 15007KT 40SM FEW050 SCT260 14/04 A2996 RMK SC1CI1 SLP166=

CYYC;2005-09-18 02:00;METAR CYYC 180200Z 16007KT 30SM FEW240 SCT260 11/04 A2995 RMK CI0CI0 SLP165=

CYYC;2005-09-18 03:00;METAR CYYC 180300Z 17009KT 15SM FEW240 BKN260 11/03 A2995 RMK CI0CI0 SLP167=

CYYC;2005-09-18 04:00;METAR CYYC 180400Z 18007KT 15SM FEW240 FEW260 10/04 A2996 RMK CI1CI0 SLP168=

CYYC;2005-09-18 06:00;METAR CYYC 180600Z 19004KT 15SM FEW260 07/04 A2994 RMK CI0 SLP157=

CYYC;2005-09-18 08:00;METAR CYYC 180800Z 22003KT 15SM SKC 06/04 A2994 RMK SLP157=

CYYC;2005-09-18 09:00;METAR CYYC 180900Z 00000KT 15SM SKC 04/03 A2994 RMK SLP157=

CYYC;2005-09-18 10:00;METAR CYYC 181000Z 03003KT 15SM SKC 05/01 A2994 RMK SLP158=

CYYC;2005-09-18 11:00;METAR CYYC 181100Z 36002KT 15SM SKC 04/M00 A2994 RMK SLP158=

CYYC;2005-09-18 12:00;METAR CYYC 181200Z 32008KT 15SM SKC 04/M01 A2994 RMK SLP158=

CYYC;2005-09-18 13:00;METAR CYYC 181300Z 31007KT 40SM FEW220 04/M01 A2995 RMK CI1 SLP160=

CYYC;2005-09-18 14:00;METAR CYYC 181400Z 32008KT 40SM FEW200 05/01 A2996 RMK CI1 SLP162=

CYYC;2005-09-18 15:00;METAR CYYC 181500Z 04002KT 40SM FEW200 09/03 A2995 RMK CI1 SLP160=

CYYC;2005-09-18 16:00;METAR CYYC 181600Z 31005KT 40SM FEW220 13/02 A2995 RMK CI1 SLP160=

CYYC;2005-09-18 17:00;METAR CYYC 181700Z 32006KT 40SM FEW250 15/01 A2996 RMK CI1 SLP161=

CYYC;2005-09-18 18:00;METAR CYYC 181800Z 32005KT 40SM FEW140 BKN240 15/M01 A2995 RMK AC1CI2 SLP157=

CYYC;2005-09-18 19:00;METAR CYYC 181900Z 27003KT 40SM FEW060 FEW140 BKN220 17/M01 A2994 RMK CU1AC1CI2 SLP152=

CYYC;2005-09-18 20:00;METAR CYYC 182000Z 35003KT 40SM FEW060 FEW120 BKN230 17/M00 A2992 RMK CU1AC1CI5 SLP148=

CYYC;2005-09-18 21:00;METAR CYYC 182100Z 22006KT 40SM FEW060 FEW120 BKN250 17/01 A2990 RMK CU1AC1CI5 SLP140=

CYYC;2005-09-18 22:00;METAR CYYC 182200Z 21009KT 40SM FEW060 FEW120 SCT230 19/00 A2988 RMK CU1AC1CI1 SLP136=

CYYC;2005-09-19 00:00;METAR CYYC 190000Z 27013KT 40SM FEW070 FEW100 FEW230 18/M00 A2986 RMK CU1AC1CI1 SLP128=

CYYC;2005-09-19 01:00;METAR CYYC 190100Z 26009KT 40SM FEW070 FEW100 FEW230 16/01 A2986 RMK CU1AC1CI1 ACSL SLP127=

CYYC;2005-09-19 03:00;METAR CYYC 190300Z 23005KT 15SM FEW100 SCT240 12/01 A2985 RMK AC1CI0 SLP122=

CYYC;2005-09-19 04:00;METAR CYYC 190400Z 23006KT 15SM FEW240 10/02 A2985 RMK CI0 SLP121=

CYYC;2005-09-19 05:00;METAR CYYC 190500Z 20002KT 15SM FEW240 10/01 A2983 RMK CI0 SLP117=

CYYC;2005-09-19 07:00;METAR CYYC 190700Z 21005KT 15SM BKN190 06/01 A2981 RMK AC1 SLP107=

CYYC;2005-09-19 08:00;METAR CYYC 190800Z 21007KT 15SM SCT190 BKN260 06/01 A2982 RMK AC1CI0 SLP109=

CYYC;2005-09-19 09:00;METAR CYYC 190900Z 23004KT 15SM SCT190 OVC260 06/01 A2981 RMK AC1CI1 SLP106=

CYYC;2005-09-19 10:00;METAR CYYC 191000Z 20004KT 15SM FEW160 OVC260 06/01 A2979 RMK AC1CI6 SLP101=

CYYC;2005-09-19 11:00;METAR CYYC 191100Z 22005KT 15SM FEW140 BKN260 06/01 A2978 RMK AC1CI5 SLP098=

CYYC;2005-09-19 12:00;METAR CYYC 191200Z 27014G26KT 15SM FEW150 BKN260 13/01 A2979 RMK AC1CI2 SLP090=

CYYC;2005-09-19 13:00;METAR CYYC 191300Z 23009KT 30SM FEW150 BKN260 09/01 A2980 RMK AC1CI1 SLP092=

CYYC;2005-09-19 14:00;METAR CYYC 191400Z 10005KT 40SM FEW060 FEW150 BKN240 10/01 A2979 RMK SC1AC1CI2 SC TR SLP089=

CYYC;2005-09-19 15:00;METAR CYYC 191500Z 21003KT 40SM FEW060 FEW150 BKN240 10/04 A2980 RMK SC1AC1CI2 SC TR SLP102=

CYYC;2005-09-19 16:00;METAR CYYC 191600Z 22005KT 40SM FEW050 FEW150 FEW250 15/02 A2983 RMK SC1AC1CI0 SC TR SLP111=

CYYC;2005-09-19 17:00;METAR CYYC 191700Z 36020G25KT 40SM FEW050 FEW150 FEW250 10/04 A2987 RMK CU1AC1CI0 CU TR SLP125=

CYYC;2005-09-19 18:00;METAR CYYC 191800Z 01015G20KT 40SM FEW050 FEW150 FEW250 12/05 A2988 RMK CU1AC1CI0 CU TR SLP140=

CYYC;2005-09-19 20:00;METAR CYYC 192000Z 01014KT 40SM FEW050 FEW110 11/04 A2990 RMK CU2AC0 SLP145=

CYYC;2005-09-19 21:00;METAR CYYC 192100Z 03013KT 30SM FEW050 FEW110 FEW220 12/05 A2990 RMK CU2AC1CI1 CI TR SLP146=

CYYC;2005-09-19 22:00;METAR CYYC 192200Z 03004KT 20SM FEW055 SCT110 SCT240 12/05 A2991 RMK CU2AC2CI0 SLP149=

CYYC;2005-09-19 23:00;METAR CYYC 192300Z 08003KT 20SM FEW055 FEW100 SCT240 13/05 A2992 RMK CU1AC2CI1 SLP152=

CYYC;2005-09-20 00:00;METAR CYYC 200000Z 05006KT 20SM FEW055 SCT100 SCT240 13/05 A2993 RMK CU1AC2CI1 SLP144=

CYYC;2005-09-20 01:00;METAR CYYC 200100Z 07003KT 30SM FEW055 SCT120 SCT220 10/05 A2994 RMK CU1AC2CI1 SLP147=

CYYC;2005-09-20 02:00;METAR CYYC 200200Z 00000KT 20SM -RA BKN060 BKN080 BKN100 11/05 A2995 RMK SC6AC1AC1 SLP152=

CYYC;2005-09-20 02:08;SPECI CYYC 200208Z 00000KT 20SM VCSH BKN060 BKN080 BKN120 11/ RMK SC5AC2AC1 VIRGA=

CYYC;2005-09-20 02:45;SPECI CYYC 200245Z 30005KT 15SM -SHRA BKN060 BKN100 10/ RMK SC5AC2=

CYYC;2005-09-20 03:00;METAR CYYC 200300Z 34005KT 15SM FEW060 FEW100 09/06 A2997 RMK SC2AC1 CVCTV CLD EMBD SLP167=

CYYC;2005-09-20 04:00;METAR CYYC 200400Z 27003KT 15SM FEW060 FEW100 08/04 A2997 RMK SC1AC2 SLP168=

CYYC;2005-09-20 05:00;METAR CYYC 200500Z 34005KT 15SM FEW080 FEW110 06/04 A2997 RMK AC1AC1 SLP168=

CYYC;2005-09-20 06:00;METAR CYYC 200600Z 20008KT 15SM FEW100 05/04 A2998 RMK AC1 SLP173=

CYYC;2005-09-20 07:00;METAR CYYC 200700Z 32006KT 15SM FEW100 FEW240 04/03 A2999 RMK AC1CI1 SLP177=

CYYC;2005-09-20 08:00;METAR CYYC 200800Z 19006KT 15SM FEW130 04/03 A3000 RMK AC1 SLP179=

CYYC;2005-09-20 09:00;METAR CYYC 200900Z 20008KT 15SM FEW130 BKN230 04/04 A3001 RMK AC1CI2 SLP184=

CYYC;2005-09-20 10:00;METAR CYYC 201000Z 21004KT 15SM FEW130 BKN230 04/03 A3000 RMK AC1CI2 SLP183=

CYYC;2005-09-20 11:00;METAR CYYC 201100Z 22006KT 15SM FEW100 BKN230 05/03 A3001 RMK AC1CI3 SLP184=

CYYC;2005-09-20 12:00;METAR CYYC 201200Z 36003KT 15SM FEW100 BKN200 05/02 A3001 RMK AC1CI4 SLP183=

CYYC;2005-09-20 13:00;METAR CYYC 201300Z 05002KT 40SM BKN100 BKN200 04/02 A3002 RMK AC5CI0 SLP185=

CYYC;2005-09-20 14:00;METAR CYYC 201400Z 31006KT 40SM FEW042 SCT087 05/03 A3002 RMK SC1AC3 SLP187=

CYYC;2005-09-20 15:00;METAR CYYC 201500Z 31005KT 40SM SCT058 BKN090 07/03 A3003 RMK SC3AC2 SLP192=

CYYC;2005-09-20 16:00;METAR CYYC 201600Z 35003KT 30SM FEW060 BKN087 09/04 A3003 RMK SC2AC2 SLP192=

CYYC;2005-09-20 17:00;METAR CYYC 201700Z 04004KT 30SM FEW065 SCT090 12/06 A3003 RMK SC2AC2 SLP191=

CYYC;2005-09-20 18:00;METAR CYYC 201800Z 09003KT 30SM BKN049 BKN100 11/03 A3002 RMK SC5AC2 SLP188=

CYYC;2005-09-20 19:00;METAR CYYC 201900Z 14004KT 30SM FEW040 SCT055 BKN089 12/04 A3002 RMK CU1SC2AC2 SLP187=

CYYC;2005-09-20 20:00;METAR CYYC 202000Z 07007KT 40SM FEW040 SCT055 BKN096 12/03 A3001 RMK CU2SC2AC3 SLP186=

CYYC;2005-09-20 21:00;METAR CYYC 202100Z 07008KT 40SM FEW040 SCT060 BKN100 13/03 A3001 RMK CU2SC2AC3 CB PRSNT N/ VIRGA S SLP184=

CYYC;2005-09-20 22:00;METAR CYYC 202200Z 10006KT 40SM FEW040 SCT060 BKN110 13/03 A3002 RMK CU2SC2AC2 VIRGA N+S SLP187=

CYYC;2005-09-20 23:00;METAR CYYC 202300Z 11006KT 40SM FEW040 FEW060 BKN110 13/02 A3002 RMK CU1SC2AC2 VIRGA S SLP186=

CYYC;2005-09-21 00:00;METAR CYYC 210000Z 05007KT 40SM FEW045 FEW093 14/02 A3004 RMK CU1AC2 SLP191=

CYYC;2005-09-21 03:00;METAR CYYC 210300Z 32009KT 15SM FEW050 SCT100 BKN120 10/M02 A3009 RMK SC1AC2AC1 SLP212=

CYYC;2005-09-21 04:00;METAR CYYC 210400Z 29003KT 15SM SCT100 BKN130 08/M02 A3009 RMK AC3AC2 SLP212=

CYYC;2005-09-21 05:00;METAR CYYC 210500Z 34008KT 15SM FEW060 FEW100 BKN130 06/M01 A3010 RMK SC1AC2AC2 SLP215=

CYYC;2005-09-21 06:00;METAR CYYC 210600Z 31009KT 15SM FEW060 FEW110 05/M02 A3011 RMK SC1AC1 SLP220=

CYYC;2005-09-21 07:00;METAR CYYC 210700Z 32008KT 15SM FEW110 03/M02 A3012 RMK AC1 SLP223=

CYYC;2005-09-21 09:00;METAR CYYC 210900Z 32007KT 15SM FEW080 FEW240 01/M03 A3014 RMK AC1CI1 SLP236=

CYYC;2005-09-21 10:00;METAR CYYC 211000Z 34004KT 15SM FEW080 M00/M03 A3015 RMK AC1 SLP239=

CYYC;2005-09-21 11:00;METAR CYYC 211100Z 32006KT 15SM FEW080 01/M04 A3016 RMK AC1 SLP240=

CYYC;2005-09-21 12:00;METAR CYYC 211200Z 32005KT 15SM FEW090 00/M04 A3017 RMK AC1 SLP244=

CYYC;2005-09-21 13:00;METAR CYYC 211300Z 31002KT 40SM FEW020 FEW090 FEW240 01/M04 A3018 RMK CU1AC1CI0 SLP248=

CYYC;2005-09-21 14:00;METAR CYYC 211400Z 35002KT 40SM FEW100 FEW240 M00/M04 A3018 RMK AC1CI1 SLP248=

CYYC;2005-09-21 15:00;METAR CYYC 211500Z 00000KT 40SM FEW100 FEW140 04/M01 A3019 RMK AC1AC1 SLP252=

CYYC;2005-09-21 16:00;METAR CYYC 211600Z 00000KT 40SM FEW100 FEW140 07/M01 A3019 RMK AC1AC1 SLP252=

CYYC;2005-09-21 17:00;METAR CYYC 211700Z 00000KT 40SM FEW080 10/M00 A3021 RMK AC1 SLP257=

CYYC;2005-09-21 18:00;METAR CYYC 211800Z 04002KT 40SM FEW050 FEW080 11/M02 A3020 RMK SC1AC1 CU ASOCTD SLP253=

CYYC;2005-09-21 19:00;METAR CYYC 211900Z 00000KT 40SM FEW061 FEW080 12/M02 A3019 RMK SC2AC1 CU ASOCTD SLP250=

CYYC;2005-09-21 20:00;METAR CYYC 212000Z 00000KT 40SM FEW065 FEW080 13/M03 A3019 RMK CU2AC1 SLP248=

CYYC;2005-09-21 21:00;METAR CYYC 212100Z 01006KT 40SM FEW065 FEW080 13/M02 A3017 RMK CU2AC1 SLP246=

CYYC;2005-09-21 22:00;METAR CYYC 212200Z 08006KT 40SM FEW065 FEW080 13/M01 A3015 RMK CU1AC1 SHS SW+NW SLP240=

CYYC;2005-09-21 23:00;METAR CYYC 212300Z 13005KT 40SM FEW065 FEW077 13/M04 A3014 RMK CU1AC1 VIRGA S-SW+NW / CU TR SLP237=

CYYC;2005-09-22 00:00;METAR CYYC 220000Z 12006KT 40SM FEW065 SCT073 13/M03 A3014 RMK CU1AC2 VIRGA SLP237=

CYYC;2005-09-22 01:00;METAR CYYC 220100Z 12006KT 30SM FEW065 FEW085 10/M02 A3014 RMK CU1AC1 VIRGA SLP235=

CYYC;2005-09-22 02:00;METAR CYYC 220200Z 09006KT 40SM FEW065 FEW090 FEW240 06/M01 A3013 RMK CU1AC1CI0 SLP234=

CYYC;2005-09-22 03:00;METAR CYYC 220300Z 13006KT 15SM FEW100 07/M00 A3014 RMK AC0 SLP239=

CYYC;2005-09-22 05:00;METAR CYYC 220500Z 16003KT 15SM SCT150 BKN240 07/M01 A3014 RMK AS3CI2 SLP238=

CYYC;2005-09-22 06:00;METAR CYYC 220600Z 19003KT 15SM SCT140 BKN240 06/M00 A3013 RMK AC3CI2 SLP229=

CYYC;2005-09-22 07:00;METAR CYYC 220700Z 20004KT 15SM OVC100 06/00 A3012 RMK AC7 SLP226=

CYYC;2005-09-22 08:00;METAR CYYC 220800Z 21002KT 15SM OVC100 06/01 A3011 RMK AC7 SLP223=

CYYC;2005-09-22 09:00;METAR CYYC 220900Z 19002KT 15SM OVC096 06/01 A3010 RMK AC7 SLP214=

CYYC;2005-09-22 10:00;METAR CYYC 221000Z 13003KT 15SM OVC088 06/02 A3008 RMK AC8 SLP209=

CYYC;2005-09-22 11:00;METAR CYYC 221100Z 03006KT 15SM FEW060 OVC120 04/02 A3007 RMK SC2AC6 SLP206=

CYYC;2005-09-22 12:00;METAR CYYC 221200Z 34004KT 15SM OVC100 03/01 A3006 RMK AC7 SLP204=

CYYC;2005-09-22 13:00;METAR CYYC 221300Z 35007KT 20SM FEW070 OVC100 01/M01 A3004 RMK AC2AC5 SLP199=

CYYC;2005-09-22 14:00;METAR CYYC 221400Z 34006KT 40SM BKN080 BKN160 02/M00 A3004 RMK AC2AC1 SLP199=

CYYC;2005-09-22 15:00;METAR CYYC 221500Z 32008KT 30SM BKN082 02/00 A3004 RMK AC2 SLP205=

CYYC;2005-09-22 16:00;METAR CYYC 221600Z 01008KT 30SM FEW035 SCT086 06/02 A3003 RMK SC1AC2 SHS SW+NW-NE SLP204=

CYYC;2005-09-22 17:00;METAR CYYC 221700Z 02010KT 30SM BKN018 BKN086 07/03 A3003 RMK SC2AC2 SF ASOCTD / VIRGA SLP204=

CYYC;2005-09-22 18:00;METAR CYYC 221800Z 03013KT 20SM BKN016 BKN086 07/03 A3004 RMK SC7AC1 SLP200=

CYYC;2005-09-22 18:42;SPECI CYYC 221842Z 02014KT 20SM BKN014 OVC086 07/ RMK SC7AC1=

CYYC;2005-09-22 19:00;METAR CYYC 221900Z 02015KT 20SM BKN010 OVC086 06/03 A3004 RMK SC7AC1 SLP200=

CYYC;2005-09-22 19:35;SPECI CYYC 221935Z 02017KT 20SM OVC009 05/ RMK SC8=

CYYC;2005-09-22 20:00;METAR CYYC 222000Z 01013G19KT 20SM OVC008 04/03 A3004 RMK SC8 SLP202=

CYYC;2005-09-22 21:00;METAR CYYC 222100Z 02011KT 20SM OVC009 04/02 A3005 RMK SC8 SLP208=

CYYC;2005-09-22 21:05;SPECI CYYC 222105Z 03013KT 20SM -RA OVC009 05/ RMK SC8 PCPN VRY LGT=

CYYC;2005-09-22 22:00;METAR CYYC 222200Z 36011KT 15SM -SHRA OVC009 03/02 A3006 RMK SC8 SLP211=

CYYC;2005-09-22 22:19;SPECI CYYC 222219Z 34014KT 15SM -SHRA BKN009 OVC015 03/ RMK SC4SC4=

CYYC;2005-09-22 22:48;SPECI CYYC 222248Z 34009KT 15SM -SHRA BKN009 OVC017 02/ RMK SC2SC6=

CYYC;2005-09-22 23:00;METAR CYYC 222300Z 34010KT 15SM -SHRA BKN009 OVC020 02/01 A3007 RMK SC2SC6 SLP215=

CYYC;2005-09-22 23:34;SPECI CYYC 222334Z 34008KT 15SM -SHRA BKN009 OVC020 03/ RMK SC5SC3=

CYYC;2005-09-23 00:00;METAR CYYC 230000Z 34008KT 20SM -SHRA BKN009 BKN020 OVC048 03/02 A3007 RMK SC5SC2SC1 PCPN VRY LGT SLP222=

CYYC;2005-09-23 00:07;SPECI CYYC 230007Z 34008KT 20SM BKN009 BKN020 OVC048 03/ RMK SC5SC2SC1=

CYYC;2005-09-23 00:31;SPECI CYYC 230031Z 33006KT 20SM BKN012 BKN025 BKN048 03/ RMK SC4SC2SC1=

CYYC;2005-09-23 01:00;METAR CYYC 230100Z 33007KT 20SM FEW012 SCT034 SCT048 03/01 A3006 RMK SC2SC1SC1 UPR SC TR SLP220=

CYYC;2005-09-23 02:00;METAR CYYC 230200Z 30006KT 15SM BKN032 03/02 A3006 RMK SC6 SLP220=

CYYC;2005-09-23 03:00;METAR CYYC 230300Z 32005KT 15SM FEW040 02/00 A3006 RMK SC2 SLP223=

CYYC;2005-09-23 04:00;METAR CYYC 230400Z 32005KT 15SM FEW040 01/M01 A3006 RMK SC1 SLP222=

CYYC;2005-09-23 05:00;METAR CYYC 230500Z 36006KT 15SM FEW040 01/M01 A3007 RMK SC1 SLP225=

CYYC;2005-09-23 07:00;METAR CYYC 230700Z 00000KT 15SM SKC M02/M03 A3007 RMK FROIN SLP223=

CYYC;2005-09-23 08:00;METAR CYYC 230800Z 00000KT 15SM SKC M01/M03 A3007 RMK FROIN SLP221=

CYYC;2005-09-23 10:00;METAR CYYC 231000Z 31006KT 15SM SCT250 M02/M04 A3006 RMK CI1 SLP224=

CYYC;2005-09-23 11:00;METAR CYYC 231100Z 35003KT 15SM FEW250 M02/M04 A3007 RMK CI1 SLP226=

CYYC;2005-09-23 12:00;METAR CYYC 231200Z 00000KT 15SM FEW200 FEW250 M01/M03 A3008 RMK CI1CI0 SLP230=

CYYC;2005-09-23 13:00;METAR CYYC 231300Z 00000KT 40SM FEW220 FEW250 M02/M04 A3008 RMK CI1CI0 SLP231=

CYYC;2005-09-23 14:00;METAR CYYC 231400Z 00000KT 40SM FEW160 FEW220 FEW250 M02/M04 A3008 RMK AC1CI1CI1 AC+ UPR CI TR SLP232=

CYYC;2005-09-23 16:00;METAR CYYC 231600Z 31007KT 40SM FEW070 FEW220 05/00 A3009 RMK AC1CI1 SLP235=

CYYC;2005-09-23 17:00;METAR CYYC 231700Z 33004KT 40SM FEW060 FEW220 07/00 A3009 RMK SC1CI1 SLP235=

CYYC;2005-09-23 18:00;METAR CYYC 231800Z 33003KT 40SM FEW033 FEW220 08/M00 A3009 RMK CU1CI1 SLP226=

CYYC;2005-09-23 19:00;METAR CYYC 231900Z 26005KT 40SM FEW042 FEW220 10/M01 A3007 RMK CU2CI1 SLP222=

CYYC;2005-09-23 21:00;METAR CYYC 232100Z 27004KT 40SM FEW054 FEW220 10/M02 A3005 RMK CU2CI1 SLP210=

CYYC;2005-09-23 22:00;METAR CYYC 232200Z 17002KT 40SM FEW063 FEW220 11/M04 A3004 RMK CU1CI1 CI TR SLP207=

CYYC;2005-09-23 23:00;METAR CYYC 232300Z 14003KT 40SM FEW062 FEW220 11/M04 A3003 RMK CU1CI1 CI TR SLP204=

CYYC;2005-09-24 00:00;METAR CYYC 240000Z 16002KT 40SM FEW062 FEW230 11/M04 A3003 RMK CU1CI1 SLP201=

CYYC;2005-09-24 01:00;METAR CYYC 240100Z 15008KT 40SM FEW070 FEW240 09/M03 A3002 RMK AC1CI0 SLP199=

CYYC;2005-09-24 02:00;METAR CYYC 240200Z 15006KT 40SM FEW080 FEW240 06/M03 A3003 RMK AC1CI0 SLP200=

CYYC;2005-09-24 03:00;METAR CYYC 240300Z 18007KT 15SM FEW240 05/M03 A3004 RMK CI0 SLP209=

CYYC;2005-09-24 04:00;METAR CYYC 240400Z 18008KT 15SM FEW240 06/M02 A3003 RMK CI1 SLP208=

CYYC;2005-09-24 05:00;METAR CYYC 240500Z 18009KT 15SM FEW100 04/M01 A3002 RMK AC1 SLP205=

CYYC;2005-09-24 05:44;SPECI CYYC 240544Z 19006KT 15SM FEW100 02/ RMK AC1=

CYYC;2005-09-24 06:00;METAR CYYC 240600Z 19006KT 15SM FEW100 02/M02 A3002 RMK AC1 SLP197=

CYYC;2005-09-24 08:00;METAR CYYC 240800Z 19005KT 15SM FEW100 SCT260 02/M02 A3002 RMK AC1CI0 SLP198=

CYYC;2005-09-24 09:00;METAR CYYC 240900Z 32004KT 15SM FEW100 01/M02 A3003 RMK AC1 SLP200=

CYYC;2005-09-24 10:00;METAR CYYC 241000Z 00000KT 15SM SKC M01/M03 A3003 RMK FROIN SLP199=

CYYC;2005-09-24 11:00;METAR CYYC 241100Z 00000KT 15SM SKC M00/M03 A3003 RMK FROIN SLP201=

CYYC;2005-09-24 12:00;METAR CYYC 241200Z 01003KT 15SM FEW100 FEW240 M01/M04 A3004 RMK AC1CI0 SLP205=

CYYC;2005-09-24 13:00;METAR CYYC 241300Z 31003KT 40SM FEW100 SCT240 M02/M05 A3006 RMK AC1CI0 FROIN SLP212=

CYYC;2005-09-24 14:00;METAR CYYC 241400Z 33008KT 40SM FEW100 BKN260 00/M04 A3007 RMK AC1CI0 SLP215=

CYYC;2005-09-24 15:00;METAR CYYC 241500Z 32007KT 40SM FEW140 SCT260 03/M02 A3009 RMK AC1CI0 SLP224=

CYYC;2005-09-24 16:00;METAR CYYC 241600Z 32005KT 40SM FEW140 FEW270 07/M02 A3009 RMK AC1CI1 SLP224=

CYYC;2005-09-24 17:00;METAR CYYC 241700Z 36007KT 40SM FEW040 FEW170 FEW270 09/M02 A3010 RMK CU1AC1CI1 SLP227=

CYYC;2005-09-24 18:00;METAR CYYC 241800Z 36006KT 40SM FEW040 FEW150 FEW270 10/M02 A3010 RMK CU1AC1CI1 SLP223=

CYYC;2005-09-24 19:00;METAR CYYC 241900Z 11002KT 40SM FEW050 FEW170 12/M02 A3008 RMK CU1AC1 SLP218=

CYYC;2005-09-24 21:00;METAR CYYC 242100Z 00000KT 40SM FEW065 FEW190 FEW270 12/M05 A3007 RMK CU1AC1CI1 SLP210=

CYYC;2005-09-24 22:00;METAR CYYC 242200Z 19003KT 40SM FEW065 FEW190 FEW270 13/M02 A3004 RMK CU1AC1CI1 SLP202=

CYYC;2005-09-24 23:00;METAR CYYC 242300Z 20005KT 40SM FEW190 FEW270 13/M04 A3002 RMK AC1CI1 SLP196=

CYYC;2005-09-25 00:00;METAR CYYC 250000Z 19006KT 40SM FEW190 FEW270 13/M03 A3001 RMK AC1CI0 SLP193=

CYYC;2005-09-25 01:00;METAR CYYC 250100Z 16008KT 40SM FEW160 FEW270 10/M03 A3000 RMK AC1CI0 SLP190=

CYYC;2005-09-25 03:00;METAR CYYC 250300Z 18010KT 15SM FEW260 09/M02 A2997 RMK CI0 SLP177=

CYYC;2005-09-25 04:00;METAR CYYC 250400Z 19004KT 15SM FEW200 06/M02 A2996 RMK CI0 SLP175=

CYYC;2005-09-25 05:00;METAR CYYC 250500Z 19006KT 15SM BKN240 05/M02 A2996 RMK CI4 SLP176=

CYYC;2005-09-25 06:00;METAR CYYC 250600Z 19003KT 15SM BKN240 05/M02 A2995 RMK CI6 SLP165=

CYYC;2005-09-25 08:00;METAR CYYC 250800Z 19007KT 15SM FEW240 03/M01 A2992 RMK CI0 SLP158=

CYYC;2005-09-25 09:00;METAR CYYC 250900Z 21003KT 15SM FEW240 03/M02 A2992 RMK CI0 SLP156=

CYYC;2005-09-25 10:00;METAR CYYC 251000Z 20004KT 15SM FEW260 03/M02 A2991 RMK CI0 SLP153=

CYYC;2005-09-25 10:26;SPECI CYYC 251026Z 00000KT 15SM FEW260 01/ RMK CI0=

CYYC;2005-09-25 11:00;METAR CYYC 251100Z 04003KT 15SM SKC 04/M02 A2991 RMK SLP152=

CYYC;2005-09-25 11:23;SPECI CYYC 251123Z 00000KT 15SM SKC 01/=

CYYC;2005-09-25 12:00;METAR CYYC 251200Z 00000KT 15SM SKC 03/M02 A2990 RMK SLP149=

CYYC;2005-09-25 13:00;METAR CYYC 251300Z 33002KT 40SM FEW100 FEW240 02/M03 A2991 RMK AC1CI1 SLP150=

CYYC;2005-09-25 14:00;METAR CYYC 251400Z 07002KT 40SM FEW100 FEW240 03/M02 A2991 RMK AC1CI1 SLP152=

CYYC;2005-09-25 15:00;METAR CYYC 251500Z 07003KT 40SM FEW120 FEW240 07/02 A2993 RMK AC1CI1 SLP159=

CYYC;2005-09-25 16:00;METAR CYYC 251600Z 32010KT 40SM FEW240 13/01 A2994 RMK CI1 SLP163=

CYYC;2005-09-25 17:00;METAR CYYC 251700Z 32009KT 40SM FEW240 15/M00 A2994 RMK CI1 SLP163=

CYYC;2005-09-25 18:00;METAR CYYC 251800Z 31005KT 40SM FEW150 FEW250 16/M00 A2992 RMK AC1CI0 SLP149=

CYYC;2005-09-25 20:00;METAR CYYC 252000Z 27006KT 40SM FEW150 BKN270 18/M01 A2990 RMK AC1CI1 SLP141=

CYYC;2005-09-25 21:00;METAR CYYC 252100Z 26008KT 40SM FEW075 BKN180 BKN270 19/M00 A2988 RMK AC1AC1CI1 CU ASOCTD SLP133=

CYYC;2005-09-25 22:00;METAR CYYC 252200Z 27010KT 40SM FEW075 BKN180 BKN270 20/00 A2987 RMK AC1AC1CI1 CU ASOCTD SLP130=

CYYC;2005-09-25 23:00;METAR CYYC 252300Z 28016G21KT 40SM FEW080 FEW180 FEW270 20/M00 A2988 RMK AC1AC1CI0 CU ASOCTD SLP132=

CYYC;2005-09-26 00:00;METAR CYYC 260000Z 27018G27KT 40SM FEW080 FEW160 FEW270 18/00 A2989 RMK AC1AC1CI0 SLP137=

CYYC;2005-09-26 01:00;METAR CYYC 260100Z 27014G19KT 40SM FEW080 FEW120 FEW160 FEW250 16/00 A2991 RMK AC1AC1AC1CI0 SLP142=

CYYC;2005-09-26 02:00;METAR CYYC 260200Z 27012KT 15SM FEW080 FEW120 BKN240 14/00 A2992 RMK AC1AC1CI0 SLP147=

CYYC;2005-09-26 03:00;METAR CYYC 260300Z 26011KT 15SM FEW120 FEW240 13/01 A2994 RMK AC1CI0 SLP158=

CYYC;2005-09-26 04:00;METAR CYYC 260400Z 27011KT 15SM FEW240 12/01 A2997 RMK CI0 SLP165=

CYYC;2005-09-26 05:00;METAR CYYC 260500Z 28009KT 15SM FEW240 13/00 A2998 RMK CI0 SLP170=

CYYC;2005-09-26 06:00;METAR CYYC 260600Z 05003KT 15SM FEW100 FEW240 07/00 A2999 RMK AC1CI0 SLP170=

CYYC;2005-09-26 09:00;METAR CYYC 260900Z 33005KT 15SM FEW100 BKN240 06/M00 A3003 RMK AC1CI0 SLP179=

CYYC;2005-09-26 10:00;METAR CYYC 261000Z 18003KT 15SM FEW100 BKN240 06/M00 A3003 RMK AC1CI0 SLP179=

CYYC;2005-09-26 12:00;METAR CYYC 261200Z 16003KT 15SM FEW140 BKN260 06/01 A2998 RMK AC2CI4 SLP162=

CYYC;2005-09-26 13:00;METAR CYYC 261300Z 20005KT 30SM FEW080 SCT110 BKN260 06/00 A2995 RMK AC1AC3CI1 SLP155=

CYYC;2005-09-26 14:00;METAR CYYC 261400Z 19008KT 40SM FEW060 BKN230 BKN260 07/01 A2991 RMK SC1CI4CI0 SLP143=

CYYC;2005-09-26 15:00;METAR CYYC 261500Z 16006KT 40SM FEW060 FEW140 SCT240 07/01 A2989 RMK CU1AC2CI2 CU TR SLP141=

CYYC;2005-09-26 16:00;METAR CYYC 261600Z 18007KT 40SM FEW060 FEW140 FEW240 10/02 A2985 RMK CU1AC1CI1 CU TR SLP126=

CYYC;2005-09-26 17:00;METAR CYYC 261700Z 19008KT 40SM FEW060 FEW140 FEW250 13/03 A2983 RMK CU1AC1CI0 CU TR SLP120=

CYYC;2005-09-26 18:00;METAR CYYC 261800Z 18009KT 40SM FEW060 FEW140 FEW250 16/05 A2980 RMK CU1AC1CI0 CU TR SLP102=

CYYC;2005-09-26 18:54;SPECI CYYC 261854Z 25012G22KT 40SM FEW060 FEW140 FEW250 19/ RMK CU1AC1CI0=

CYYC;2005-09-26 19:00;METAR CYYC 261900Z 25012KT 40SM FEW060 FEW140 FEW250 20/03 A2978 RMK CU1AC1CI0 CU TR SLP096=

CYYC;2005-09-26 20:00;METAR CYYC 262000Z 27020G26KT 40SM FEW060 FEW180 FEW250 21/01 A2976 RMK CU1AC1CI0 SLP090=

CYYC;2005-09-26 21:00;METAR CYYC 262100Z 29017G24KT 40SM FEW060 FEW220 20/01 A2974 RMK CU1CI2 SLP079=

CYYC;2005-09-26 22:00;METAR CYYC 262200Z 28021G29KT 40SM FEW060 FEW120 BKN220 20/00 A2974 RMK CU1AC2CI2 SLP079=

CYYC;2005-09-26 23:00;METAR CYYC 262300Z 28023G28KT 40SM FEW065 FEW120 BKN250 19/M01 A2973 RMK CU1AC2CI2 SLP075=

CYYC;2005-09-27 00:00;METAR CYYC 270000Z 29020G30KT 40SM FEW065 FEW120 FEW250 19/M01 A2974 RMK CU1AC1CI0 CU TR SLP080=

CYYC;2005-09-27 01:00;METAR CYYC 270100Z 31014KT 40SM FEW065 FEW120 FEW250 17/M01 A2977 RMK CU1AC2CI0 SLP088=

CYYC;2005-09-27 03:00;METAR CYYC 270300Z 35023G31KT 15SM FEW080 BKN110 08/03 A2988 RMK AC1AC4 SLP143=

CYYC;2005-09-27 04:00;METAR CYYC 270400Z 35015G21KT 15SM FEW070 SCT110 SCT240 06/03 A2992 RMK AC1AC2CI1 SLP153=

CYYC;2005-09-27 05:24;SPECI CYYC 270524Z 35020G25KT 15SM -SHRA SCT015 OVC060 06/ RMK SC3SC5=

CYYC;2005-09-27 05:48;SPECI CYYC 270548Z 34018G24KT 15SM -SHRA BKN012 OVC030 06/ RMK SC6SC2=

CYYC;2005-09-27 06:00;METAR CYYC 270600Z 34013G21KT 10SM -SHRA BKN012 OVC020 05/04 A3001 RMK SC6SC2 PRESRR SLP179=

CYYC;2005-09-27 06:13;SPECI CYYC 270613Z 36017G22KT 10SM -SHRA SCT012 OVC018 04/ RMK SC3SC5=

CYYC;2005-09-27 06:42;SPECI CYYC 270642Z 33015G22KT 5SM -SHRA BR FEW008 BKN014 OVC023 03/ RMK SC1SC6SC2=

CYYC;2005-09-27 06:46;SPECI CYYC 270646Z 32017KT 5SM -SHRA BR FEW008 BKN014 OVC023 02/ RMK SC1SC6SC2=

CYYC;2005-09-27 07:14;SPECI CYYC 270714Z 32008KT 2SM -SHRASN BKN005 OVC014 01/ RMK SC6SC2=

CYYC;2005-09-27 07:27;SPECI CYYC 270727Z 31008KT 2SM -SHSN FEW003 BKN005 OVC012 00/ RMK ST1SC6SC1=

CYYC;2005-09-27 07:40;SPECI CYYC 270740Z 30006KT 3SM -SHSN SCT005 OVC011 00/ RMK SC3SC5=

CYYC;2005-09-27 07:45;SPECI CYYC 270745Z 28005KT 4SM -SHRASN SCT005 OVC010 00/ RMK SC3SC5=

CYYC;2005-09-27 07:54;SPECI CYYC 270754Z 28005KT 10SM -SHRA FEW005 SCT010 OVC015 01/ RMK ST2SC2SC4=

CYYC;2005-09-27 08:00;METAR CYYC 270800Z 30006KT 12SM FEW005 SCT010 OVC019 01/01 A3008 RMK ST2SC2SC4 SLP200=

CYYC;2005-09-27 08:26;SPECI CYYC 270826Z 33007KT 15SM -SHRA FEW005 SCT013 OVC020 02/ RMK ST1SC4SC4=

CYYC;2005-09-27 09:00;METAR CYYC 270900Z 33008KT 15SM -SHRA FEW008 SCT015 OVC020 02/01 A3010 RMK SC1SC3SC4 PCPN VRY LGT SLP209=

CYYC;2005-09-27 10:00;METAR CYYC 271000Z 32006KT 15SM -SHRA FEW012 OVC040 02/02 A3012 RMK SC2SC6 PCPN VRY LGT SLP214=

CYYC;2005-09-27 10:15;SPECI CYYC 271015Z 33006KT 15SM SCT010 OVC046 03/ RMK SC3SC5=

CYYC;2005-09-27 11:00;METAR CYYC 271100Z 32006KT 15SM FEW015 SCT040 BKN078 03/01 A3013 RMK SC1SC3AC2 SLP217=

CYYC;2005-09-27 11:03;SPECI CYYC 271103Z 31006KT 15SM FEW015 SCT040 BKN078 02/ RMK SC1SC3AC2=

CYYC;2005-09-27 12:00;METAR CYYC 271200Z 32003KT 15SM FEW020 BKN080 02/01 A3014 RMK SC1AC7 SLP225=

CYYC;2005-09-27 13:00;METAR CYYC 271300Z 31003KT 15SM FEW020 SCT060 BKN110 02/01 A3015 RMK SC1SC4AC3 SLP227=

CYYC;2005-09-27 14:00;METAR CYYC 271400Z 32004KT 30SM FEW050 BKN084 03/01 A3016 RMK SC1AC6 SLP231=

CYYC;2005-09-27 15:00;METAR CYYC 271500Z 33006KT 12SM -RA BKN021 OVC040 03/01 A3019 RMK SC6SC2 SLP254=

CYYC;2005-09-27 16:00;METAR CYYC 271600Z 34007KT 12SM -RA BKN051 OVC070 04/01 A3021 RMK SC6AS2 SLP260=

CYYC;2005-09-27 17:00;METAR CYYC 271700Z 32007KT 15SM -RA FEW030 OVC040 04/01 A3022 RMK CF1SC6 SLP265=

CYYC;2005-09-27 18:00;METAR CYYC 271800Z 27005KT 20SM -RA FEW030 BKN040 OVC100 05/01 A3023 RMK CF1SC6AC2 SLP271=

CYYC;2005-09-27 20:00;METAR CYYC 272000Z 00000KT 20SM FEW030 SCT060 BKN110 07/M00 A3026 RMK CF1SC2AC4 SLP280=

CYYC;2005-09-27 21:00;METAR CYYC 272100Z 27006KT 30SM FEW035 SCT060 BKN096 08/M00 A3027 RMK CU2SC1AC3 SLP285=

CYYC;2005-09-27 23:00;METAR CYYC 272300Z 30005KT 20SM FEW040 FEW060 BKN120 07/M03 A3028 RMK CU2SC1AC2 SLP288=

CYYC;2005-09-28 00:00;METAR CYYC 280000Z 00000KT 20SM FEW040 FEW060 FEW120 07/M03 A3027 RMK CU1SC1AC1 SC TR SLP287=

CYYC;2005-09-28 01:00;METAR CYYC 280100Z 00000KT 20SM FEW040 FEW120 07/M02 A3027 RMK CU1AC1 CU TR SLP288=

CYYC;2005-09-28 02:00;METAR CYYC 280200Z 22006KT 15SM FEW120 04/M03 A3027 RMK AC0 SLP288=

CYYC;2005-09-28 03:00;METAR CYYC 280300Z 22006KT 15SM SKC 03/M00 A3027 RMK SLP292=

CYYC;2005-09-28 04:00;METAR CYYC 280400Z 19007KT 15SM SKC 02/M01 A3027 RMK SLP291=

CYYC;2005-09-28 05:00;METAR CYYC 280500Z 19007KT 15SM SKC 03/M00 A3026 RMK SLP286=

CYYC;2005-09-28 05:04;SPECI CYYC 280504Z 19007KT 15SM SKC 02/=

CYYC;2005-09-28 06:00;METAR CYYC 280600Z 19006KT 15SM FEW260 02/M01 A3024 RMK CI0 SLP279=

CYYC;2005-09-28 07:00;METAR CYYC 280700Z 18006KT 15SM FEW260 01/M01 A3022 RMK CI0 SLP274=

CYYC;2005-09-28 08:00;METAR CYYC 280800Z 18004KT 15SM SKC 00/M02 A3022 RMK FROIN SLP272=

CYYC;2005-09-28 10:00;METAR CYYC 281000Z 20006KT 15SM FEW100 M01/M02 A3018 RMK AC1 FROIN SLP257=

CYYC;2005-09-28 11:00;METAR CYYC 281100Z 20005KT 15SM SKC M02/M03 A3016 RMK SLP252=

CYYC;2005-09-28 12:00;METAR CYYC 281200Z 22006KT 15SM FEW260 M01/M03 A3014 RMK CI0 FROIN SLP245=

CYYC;2005-09-28 14:00;METAR CYYC 281400Z 21004KT 40SM FEW180 SCT240 BKN260 M01/M02 A3010 RMK AC1CI2CI1 SLP234=

CYYC;2005-09-28 15:00;METAR CYYC 281500Z 20007KT 40SM BKN180 BKN240 03/M00 A3008 RMK AC6CI1 SLP227=

CYYC;2005-09-28 16:00;METAR CYYC 281600Z 20004KT 40SM BKN180 BKN240 04/01 A3007 RMK AC6CI1 SLP222=

CYYC;2005-09-28 17:00;METAR CYYC 281700Z 19004KT 40SM BKN180 BKN240 06/01 A3005 RMK AC5CI2 SLP217=

CYYC;2005-09-28 18:00;METAR CYYC 281800Z 19005KT 40SM BKN180 BKN250 08/02 A3003 RMK AC4CI2 SLP201=

CYYC;2005-09-28 19:00;METAR CYYC 281900Z 21009KT 40SM SCT180 BKN260 15/02 A2999 RMK AC2CI3 SLP188=

CYYC;2005-09-28 20:00;METAR CYYC 282000Z 19006KT 40SM FEW140 BKN170 BKN260 12/03 A2995 RMK AC1AC5CI2 SLP177=

CYYC;2005-09-28 21:00;METAR CYYC 282100Z 20008KT 40SM FEW140 BKN170 BKN260 11/03 A2990 RMK AC1AC5CI2 SLP154=

CYYC;2005-09-28 22:00;METAR CYYC 282200Z 20008KT 40SM FEW140 BKN180 BKN240 13/04 A2985 RMK AC1AC4CI3 VIRGA E SLP140=

CYYC;2005-09-28 23:00;METAR CYYC 282300Z 15006KT 40SM FEW120 FEW180 BKN260 16/02 A2983 RMK AC1AC2CI2 SLP133=

CYYC;2005-09-29 00:00;METAR CYYC 290000Z 19008KT 40SM FEW120 FEW180 BKN260 17/00 A2979 RMK AC1AC1CI2 LWR AC TR SLP111=

CYYC;2005-09-29 01:00;METAR CYYC 290100Z 22008KT 40SM FEW080 FEW120 FEW180 SCT260 17/M03 A2977 RMK AC1AC1AC1CI1 SLP105=

CYYC;2005-09-29 02:00;METAR CYYC 290200Z 26023KT 15SM FEW080 BKN100 OVC220 17/M01 A2977 RMK AC2AC3CI2 SLP105=

CYYC;2005-09-29 03:00;METAR CYYC 290300Z 30016G25KT 15SM SCT140 OVC240 16/00 A2978 RMK AC3CI4 SLP103=

CYYC;2005-09-29 04:00;METAR CYYC 290400Z 30014G19KT 15SM FEW140 OVC240 15/01 A2977 RMK AC2CI5 SLP101=

CYYC;2005-09-29 05:00;METAR CYYC 290500Z 28014G19KT 15SM FEW180 OVC240 15/01 A2975 RMK AC2CI6 SLP095=

CYYC;2005-09-29 06:00;METAR CYYC 290600Z 28014G24KT 15SM FEW180 OVC230 15/01 A2977 RMK AC2CI6 SLP092=

CYYC;2005-09-29 08:00;METAR CYYC 290800Z 26011G16KT 15SM OVC240 14/01 A2974 RMK CI7 SLP083=

CYYC;2005-09-29 09:00;METAR CYYC 290900Z 19006KT 15SM FEW200 OVC240 12/01 A2973 RMK CI2CI5 SLP078=

CYYC;2005-09-29 10:00;METAR CYYC 291000Z 14003KT 15SM FEW200 OVC240 14/00 A2974 RMK CI2CI5 SLP082=

CYYC;2005-09-29 11:00;METAR CYYC 291100Z 21003KT 15SM FEW200 OVC240 10/02 A2972 RMK CI2CI5 SLP076=

CYYC;2005-09-29 12:00;METAR CYYC 291200Z 18002KT 15SM OVC240 09/02 A2972 RMK CI8 SLP071=

CYYC;2005-09-29 13:00;METAR CYYC 291300Z 25003KT 20SM FEW090 FEW200 OVC240 08/02 A2971 RMK AC1CI2CI5 SLP070=

CYYC;2005-09-29 14:00;METAR CYYC 291400Z 10003KT 40SM FEW090 SCT190 BKN240 08/02 A2971 RMK AC1AC1CI1 SLP068=

CYYC;2005-09-29 15:00;METAR CYYC 291500Z 19003KT 40SM FEW080 BKN190 BKN240 10/04 A2970 RMK AC1AC3CI1 SLP065=

CYYC;2005-09-29 16:00;METAR CYYC 291600Z 00000KT 40SM FEW080 BKN190 BKN240 13/03 A2970 RMK AC1AC2CI1 SLP066=

CYYC;2005-09-29 18:00;METAR CYYC 291800Z 20003KT 40SM FEW080 BKN180 BKN250 18/03 A2967 RMK AC1AC3CI1 SLP044=

CYYC;2005-09-29 19:00;METAR CYYC 291900Z 20005KT 40SM FEW070 SCT170 BKN260 18/03 A2964 RMK AC1AC2CI2 SLP034=

CYYC;2005-09-29 20:00;METAR CYYC 292000Z 21004KT 40SM FEW070 SCT120 SCT160 BKN260 19/04 A2960 RMK AC1AC2AC1CI2 UPR AC TR SLP024=

CYYC;2005-09-29 20:46;SPECI CYYC 292046Z 00000KT 40SM -SHRA BKN068 BKN160 18/ RMK AC6AC1=

CYYC;2005-09-29 20:54;SPECI CYYC 292054Z 10004KT 40SM BKN070 BKN160 18/ RMK AC6AC1 VIRGA=

CYYC;2005-09-29 21:00;METAR CYYC 292100Z 08002KT 40SM BKN085 BKN160 BKN260 18/03 A2958 RMK AC6AC1CI1 VIRGA SLP019=

CYYC;2005-09-29 22:00;METAR CYYC 292200Z 26006KT 40SM FEW085 BKN160 BKN260 18/05 A2956 RMK AC1AC7CI1 SLP011=

CYYC;2005-09-29 23:00;METAR CYYC 292300Z 00000KT 40SM FEW085 BKN160 BKN260 17/07 A2953 RMK AC1AC5CI2 SLP002=

CYYC;2005-09-30 00:00;METAR CYYC 300000Z 01005KT 30SM FEW085 BKN160 BKN260 15/08 A2950 RMK AC1AC6CI1 SLP998=

CYYC;2005-09-30 01:00;METAR CYYC 300100Z 02004KT 20SM FEW085 SCT180 BKN260 14/07 A2948 RMK AC1AC2CI1 SLP992=

CYYC;2005-09-30 02:00;METAR CYYC 300200Z 00000KT 15SM FEW085 SCT180 BKN260 13/06 A2946 RMK AC2AC1CI1 SLP986=

CYYC;2005-09-30 03:00;METAR CYYC 300300Z 27009KT 15SM FEW090 FEW260 12/05 A2945 RMK AC1CI1 CI TR SLP983=

CYYC;2005-09-30 04:00;METAR CYYC 300400Z 14003KT 15SM FEW090 12/05 A2942 RMK AC1 AC TR SLP976=

CYYC;2005-09-30 05:00;METAR CYYC 300500Z 35004KT 15SM FEW100 10/04 A2942 RMK AC1 AC TR SLP976=

CYYC;2005-09-30 06:00;METAR CYYC 300600Z 00000KT 15SM FEW200 08/04 A2942 RMK CI1 SLP968=

CYYC;2005-09-30 07:00;METAR CYYC 300700Z 33010KT 15SM FEW200 09/05 A2946 RMK CI1 SLP980=

CYYC;2005-09-30 09:00;METAR CYYC 300900Z 34012KT 15SM FEW068 08/05 A2955 RMK AC2 SLP013=

CYYC;2005-09-30 10:00;METAR CYYC 301000Z 33012KT 15SM FEW097 07/05 A2958 RMK AC2 SLP021=

CYYC;2005-09-30 11:00;METAR CYYC 301100Z 33008KT 15SM SCT100 05/04 A2959 RMK AC3 SLP025=

CYYC;2005-09-30 12:00;METAR CYYC 301200Z 32007KT 15SM FEW080 SCT100 06/04 A2960 RMK AC1AC2 SLP037=

CYYC;2005-09-30 13:00;METAR CYYC 301300Z 30003KT 20SM SCT051 BKN090 06/05 A2964 RMK SC3AC2 SLP048=

CYYC;2005-09-30 14:00;METAR CYYC 301400Z 30002KT 20SM FEW015 BKN045 BKN090 07/05 A2966 RMK SC1SC7AC1 SLP057=

CYYC;2005-09-30 15:00;METAR CYYC 301500Z 31005KT 20SM FEW015 BKN043 BKN090 08/05 A2968 RMK SC1SC6AC1 SLP068=

CYYC;2005-09-30 16:00;METAR CYYC 301600Z 34005KT 20SM FEW016 BKN043 BKN100 08/05 A2971 RMK SC1SC6AC1 SLP076=

CYYC;2005-09-30 17:00;METAR CYYC 301700Z 04007KT 20SM FEW020 BKN050 BKN094 10/04 A2972 RMK SC1SC6AC1 SLP078=

CYYC;2005-09-30 18:00;METAR CYYC 301800Z 36003KT 20SM FEW025 BKN045 BKN094 10/04 A2974 RMK SC1SC5AC2 SHS NW-NE SLP090=

CYYC;2005-09-30 19:00;METAR CYYC 301900Z 07002KT 20SM FEW025 SCT045 BKN100 BKN250 11/02 A2974 RMK SC1SC2AC6CI1 VIRGA NW-NE SLP090=

CYYC;2005-09-30 20:00;METAR CYYC 302000Z 06002KT 20SM FEW030 BKN055 BKN097 11/03 A2974 RMK SC1SC3AC4 SLP091=

CYYC;2005-09-30 22:00;METAR CYYC 302200Z 14007KT 20SM FEW035 FEW050 FEW097 BKN250 12/04 A2973 RMK CU1SC2AC1CI6 SLP084=

CYYC;2005-10-01 00:00;METAR CYYC 010000Z 19008KT 15SM FEW041 FEW095 BKN170 OVC200 11/04 A2971 RMK SC2AC1AS2CI3 SLP080=

CYYC;2005-10-01 01:00;METAR CYYC 010100Z 17007KT 20SM FEW042 OVC200 10/04 A2970 RMK SC1CI8 SLP077=

CYYC;2005-10-01 02:00;METAR CYYC 010200Z 16008KT 15SM FEW040 BKN130 BKN220 10/05 A2969 RMK SC1AC5CI2 SLP074=

CYYC;2005-10-01 03:00;METAR CYYC 010300Z 18009KT 15SM FEW040 BKN085 OVC140 10/04 A2968 RMK SC2AC5AC2 SLP071=

CYYC;2005-10-01 03:43;SPECI CYYC 010343Z 18006KT 15SM -RA BKN043 OVC085 10/ RMK SC6AC2=

CYYC;2005-10-01 04:00;METAR CYYC 010400Z 18007KT 10SM -RA FEW012 SCT033 OVC040 09/05 A2967 RMK SC1SC3SC4 SLP068=

CYYC;2005-10-01 06:00;METAR CYYC 010600Z 15013KT 8SM -RA FEW020 BKN050 OVC070 07/06 A2964 RMK SC1SC6AC2 SLP057=

CYYC;2005-10-01 07:00;METAR CYYC 010700Z 15009KT 6SM -RA SCT006 OVC037 07/07 A2963 RMK ST3SC5 SLP053=

CYYC;2005-10-01 07:05;SPECI CYYC 010705Z 14009KT 8SM -RA FEW004 BKN007 OVC040 07/ RMK ST1SC3SC4=

CYYC;2005-10-01 07:12;SPECI CYYC 010712Z 14010KT 5SM -RA FEW004 BKN007 OVC040 07/ RMK ST2SC3SC2=

CYYC;2005-10-01 07:35;SPECI CYYC 010735Z 14011KT 4SM -RA BR BKN007 OVC040 07/ RMK ST3SC5=

CYYC;2005-10-01 07:41;SPECI CYYC 010741Z 14011G16KT 4SM -RA BR BKN006 OVC040 07/ RMK SC6SC2=

CYYC;2005-10-01 07:55;SPECI CYYC 010755Z 13011KT 4SM -RA BR SCT003 BKN006 OVC040 07/ RMK ST3SC3SC2=

CYYC;2005-10-01 09:00;METAR CYYC 010900Z 13011KT 3SM -RA BR FEW003 BKN006 OVC016 07/07 A2956 RMK ST2SC4SC2 SLP025=

CYYC;2005-10-01 10:21;SPECI CYYC 011021Z 10010KT 3SM -RA BR OVC003 07/ RMK ST8 SC EMBD=

CYYC;2005-10-01 10:38;SPECI CYYC 011038Z 09009KT 2SM -RA BR OVC004 06/ RMK ST8 SC EMBD=

CYYC;2005-10-01 10:48;SPECI CYYC 011048Z 09009KT 2SM -RA BR OVC003 06/ RMK ST8 SC EMBD=

CYYC;2005-10-01 11:00;METAR CYYC 011100Z 09009KT 2SM -RA BR OVC003 06/06 A2949 RMK ST8 SC EMBD SLP005=

CYYC;2005-10-01 12:00;METAR CYYC 011200Z 12005KT 1 1/2SM -DZ BR FEW001 OVC004 07/07 A2948 RMK ST1ST8 SLP999=

CYYC;2005-10-01 12:18;SPECI CYYC 011218Z 12004KT 1 1/2SM -DZ BR FEW001 OVC003 07/ RMK ST2ST6=

CYYC;2005-10-01 13:00;METAR CYYC 011300Z 00000KT 1 1/2SM -DZ BR BKN002 OVC007 07/07 A2946 RMK ST5ST3 SLP994=

CYYC;2005-10-01 13:17;SPECI CYYC 011317Z 30007KT 1 3/4SM -RA BR BKN003 OVC006 07/ RMK ST5SC3=

CYYC;2005-10-01 13:32;SPECI CYYC 011332Z 34014KT 2SM -RA BR SCT005 OVC017 06/ RMK SC4SC4=

CYYC;2005-10-01 14:00;METAR CYYC 011400Z 34014G19KT 3SM -RA BR FEW008 OVC015 05/05 A2947 RMK SC2SC6 SLP997=

CYYC;2005-10-01 14:34;SPECI CYYC 011434Z 34014KT 20SM FEW015 OVC050 05/ RMK SC2SC6=

CYYC;2005-10-01 15:00;METAR CYYC 011500Z 33016KT 20SM FEW012 OVC040 05/03 A2949 RMK SC2SC6 SLP007=

CYYC;2005-10-01 15:52;SPECI CYYC 011552Z 30009KT 15SM BKN011 OVC040 05/ RMK SC6SC2=

CYYC;2005-10-01 16:00;METAR CYYC 011600Z 30010KT 30SM FEW009 BKN012 OVC040 05/03 A2950 RMK SC2SC4SC2 SLP012=

CYYC;2005-10-01 17:00;METAR CYYC 011700Z 34014G19KT 20SM FEW009 OVC012 05/03 A2950 RMK SC1SC7 SLP012=

CYYC;2005-10-01 18:00;METAR CYYC 011800Z 34012G17KT 20SM OVC010 05/03 A2952 RMK SC8 SLP022=

CYYC;2005-10-01 19:00;METAR CYYC 011900Z 34013KT 20SM OVC011 05/03 A2954 RMK SC8 SLP027=

CYYC;2005-10-01 20:00;METAR CYYC 012000Z 34013KT 20SM OVC016 05/02 A2954 RMK SC8 SLP026=

CYYC;2005-10-01 21:00;METAR CYYC 012100Z 33010G15KT 20SM BKN018 OVC140 06/02 A2955 RMK SC7AC1 SLP032=

CYYC;2005-10-01 22:00;METAR CYYC 012200Z 36008KT 20SM BKN021 OVC080 06/02 A2957 RMK SC7AC1 SLP036=

CYYC;2005-10-01 23:00;METAR CYYC 012300Z 36011KT 20SM OVC021 06/02 A2958 RMK SC8 SLP039=

CYYC;2005-10-02 00:00;METAR CYYC 020000Z 36011KT 20SM FEW030 BKN040 OVC070 07/03 A2959 RMK SC2SC5AC1 SLP042=

CYYC;2005-10-02 01:00;METAR CYYC 020100Z 32006KT 20SM FEW030 BKN040 OVC070 05/02 A2961 RMK SC2SC4AC1 SLP049=

CYYC;2005-10-02 02:00;METAR CYYC 020200Z 05007KT 15SM FEW014 SCT025 SCT070 BKN240 03/02 A2962 RMK SC1SC2AC1CI0 SLP053=

CYYC;2005-10-02 02:40;SPECI CYYC 020240Z 07003KT 15SM BKN028 BKN240 02/ RMK SC2CI1=

CYYC;2005-10-02 03:00;METAR CYYC 020300Z 07004KT 15SM FEW014 FEW020 BKN028 OVC230 03/02 A2964 RMK SC1SC2SC3CI0 SLP070=

CYYC;2005-10-02 04:00;METAR CYYC 020400Z 00000KT 15SM FEW014 BKN028 OVC230 03/02 A2966 RMK SC1SC7CI1 SLP076=

CYYC;2005-10-02 05:00;METAR CYYC 020500Z 34008KT 15SM SCT028 02/01 A2966 RMK SC2 SLP076=

CYYC;2005-10-02 06:00;METAR CYYC 020600Z 33007KT 15SM BKN030 02/01 A2967 RMK SC4 SLP081=

CYYC;2005-10-02 07:00;METAR CYYC 020700Z 33007KT 15SM FEW031 01/M00 A2968 RMK SC1 SLP084=

CYYC;2005-10-02 09:00;METAR CYYC 020900Z 31005KT 15SM BKN022 BKN200 00/M01 A2969 RMK SC3CI0 SLP090=

CYYC;2005-10-02 10:00;METAR CYYC 021000Z 30004KT 15SM FEW022 BKN170 02/00 A2970 RMK SC1AC6 SLP092=

CYYC;2005-10-02 11:00;METAR CYYC 021100Z 23006KT 15SM FEW022 BKN200 01/M01 A2972 RMK SC1CI0 SLP099=

CYYC;2005-10-02 12:00;METAR CYYC 021200Z 01002KT 15SM FEW200 FEW240 00/M01 A2974 RMK CI1CI0 SLP104=

CYYC;2005-10-02 13:00;METAR CYYC 021300Z 22004KT 15SM FEW077 BKN230 M01/M02 A2974 RMK AC1CI0 FROIN SLP106=

CYYC;2005-10-02 14:00;METAR CYYC 021400Z 26002KT 40SM FEW015 FEW080 BKN230 M00/M02 A2976 RMK SC1AC1CI1 SLP112=

CYYC;2005-10-02 15:00;METAR CYYC 021500Z 20003KT 40SM BKN015 BKN080 BKN230 00/M00 A2978 RMK SC5AC1CI1 SLP125=

CYYC;2005-10-02 16:00;METAR CYYC 021600Z 32002KT 40SM FEW011 BKN016 BKN080 03/00 A2980 RMK SF2SC5AC1 CU ASOCTD SLP129=

CYYC;2005-10-02 17:00;METAR CYYC 021700Z 30004KT 35SM SCT012 BKN016 BKN090 04/01 A2981 RMK CU3SC3AC1 SLP133=

CYYC;2005-10-02 18:00;METAR CYYC 021800Z 02006KT 40SM FEW014 BKN020 05/02 A2982 RMK CU2SC5 SLP131=

CYYC;2005-10-02 19:00;METAR CYYC 021900Z 00000KT 40SM SCT019 07/01 A2983 RMK CU4 SLP134=

CYYC;2005-10-02 20:00;METAR CYYC 022000Z 08002KT 40SM FEW019 SCT070 BKN220 07/01 A2983 RMK CU2AC2CI1 TCU ASOCTD SLP135=

CYYC;2005-10-02 21:00;METAR CYYC 022100Z 05005KT 30SM VCSH SCT025TCU BKN051 BKN160 07/01 A2983 RMK TCU4SC2AC1 SHS SW+W+NW SLP136=

CYYC;2005-10-02 21:19;SPECI CYYC 022119Z 06008KT 30SM -SHRA SCT025TCU BKN055 BKN160 07/ RMK TCU3SC4AC1=

CYYC;2005-10-02 21:43;SPECI CYYC 022143Z 06009KT 30SM SCT025CB BKN055 BKN180 08/ RMK CB3SC2AC1 SHS ALQDS / CB E-S=

CYYC;2005-10-02 22:10;SPECI CYYC 022210Z 06011KT 20SM -SHRA FEW021 SCT025TCU BKN043 06/ RMK SC2TCU2SC2 CB ASOCTD=

CYYC;2005-10-02 22:51;SPECI CYYC 022251Z 06011KT 20SM FEW022 BKN034 BKN200 07/ RMK SC2SC3CI1 CB ASOCTD / SHS SE=

CYYC;2005-10-02 23:00;METAR CYYC 022300Z 03008KT 30SM FEW022 BKN033 BKN080 07/03 A2989 RMK SC2SC4AC1 CB ASOCTD / SHS SE SLP155=

CYYC;2005-10-03 00:00;METAR CYYC 030000Z 05008KT 30SM FEW022 FEW035 06/01 A2991 RMK SC1SC1 CB ASOCTD SE SLP165=

CYYC;2005-10-03 01:00;METAR CYYC 030100Z 06006KT 30SM FEW020 FEW035 FEW090 03/01 A2993 RMK SC1SC1AC1 TCU ASOCTD / VIRGA N+SE-S SLP170=

CYYC;2005-10-03 01:48;SPECI CYYC 030148Z 05005KT 15SM FEW080 FEW240 01/ RMK AC1CI0=

CYYC;2005-10-03 02:00;METAR CYYC 030200Z 05004KT 15SM FEW080 FEW240 01/00 A2993 RMK AC1CI0 SLP172=

CYYC;2005-10-03 03:00;METAR CYYC 030300Z 36003KT 15SM BKN036 02/00 A2996 RMK SC2 SLP187=

CYYC;2005-10-03 04:00;METAR CYYC 030400Z 25003KT 15SM FEW015 OVC034 01/M00 A2998 RMK SC1SC7 SLP193=

CYYC;2005-10-03 05:00;METAR CYYC 030500Z 17003KT 15SM FEW015 OVC035 03/02 A3000 RMK SC1SC8 SLP199=

CYYC;2005-10-03 06:00;METAR CYYC 030600Z 17004KT 15SM FEW015 FEW034 OVC048 03/01 A3001 RMK SC1SC2SC6 SLP198=

CYYC;2005-10-03 07:00;METAR CYYC 030700Z 07006KT 15SM FEW012 FEW034 SCT060 01/M00 A3001 RMK SC1SC1SC2 SLP197=

CYYC;2005-10-03 07:39;SPECI CYYC 030739Z 08007KT 7SM BKN006 BKN014 01/ RMK ST2ST1=

CYYC;2005-10-03 07:45;SPECI CYYC 030745Z 10006KT 7SM BKN006 OVC014 01/ RMK ST6ST2=

CYYC;2005-10-03 08:00;METAR CYYC 030800Z 10008KT 7SM BKN008 OVC016 01/00 A3001 RMK ST6ST2 SLP199=

CYYC;2005-10-03 09:00;METAR CYYC 030900Z 10005KT 7SM OVC010 01/M00 A3003 RMK ST8 SLP204=

CYYC;2005-10-03 10:00;METAR CYYC 031000Z 12006KT 7SM FEW006 OVC012 01/00 A3004 RMK ST1ST8 SLP207=

CYYC;2005-10-03 11:00;METAR CYYC 031100Z 14005KT 8SM FEW006 OVC017 01/00 A3004 RMK ST1ST8 SLP208=

CYYC;2005-10-03 11:23;SPECI CYYC 031123Z 13005KT 8SM FEW006 OVC013 02/ RMK ST1ST7=

CYYC;2005-10-03 12:00;METAR CYYC 031200Z 12004KT 8SM FEW007 OVC014 01/00 A3005 RMK SC1ST8 SLP213=

CYYC;2005-10-03 12:28;SPECI CYYC 031228Z 13006KT 8SM FEW008 OVC017 02/ RMK SC1ST8=

CYYC;2005-10-03 13:00;METAR CYYC 031300Z 13006KT 8SM FEW008 OVC020 02/M00 A3007 RMK SC1ST8 SC EMBD SLP218=

CYYC;2005-10-03 13:12;SPECI CYYC 031312Z 13005KT 8SM -RA FEW008 OVC020 02/ RMK SC1ST8 SC EMBD=

CYYC;2005-10-03 13:26;SPECI CYYC 031326Z 14005KT 15SM -SN FEW008 OVC022 02/ RMK SF1SC7=

CYYC;2005-10-03 14:00;METAR CYYC 031400Z 14006KT 4SM -SN FEW009 OVC025 01/M01 A3009 RMK SF1SC7 SLP225=

CYYC;2005-10-03 15:00;METAR CYYC 031500Z 14008KT 3SM -SN BKN020 OVC045 01/M01 A3010 RMK SC6SC2 SLP238=

CYYC;2005-10-03 16:00;METAR CYYC 031600Z 13010KT 10SM -SN FEW010 BKN040 OVC100 01/M01 A3011 RMK SC2SC5AC1 SLP241=

CYYC;2005-10-03 17:00;METAR CYYC 031700Z 14011KT 7SM FEW012 BKN040 OVC080 02/M01 A3013 RMK SC2SC6AC1 SLP245=

CYYC;2005-10-03 17:29;SPECI CYYC 031729Z 14006KT 2SM -SN FEW015 OVC042 01/ RMK SC2SC6 VIS N -E 11/4 MILES=

CYYC;2005-10-03 17:47;SPECI CYYC 031747Z 14005KT 10SM FEW015 OVC040 02/ RMK SC1SC7=

CYYC;2005-10-03 18:00;METAR CYYC 031800Z 14006KT 10SM FEW015 OVC043 02/M01 A3013 RMK SC1SC7 SLP245=

CYYC;2005-10-03 19:00;METAR CYYC 031900Z 15010KT 12SM FEW020 OVC054 04/M02 A3014 RMK SC2SC6 SLP247=

CYYC;2005-10-03 20:00;METAR CYYC 032000Z 14010KT 10SM FEW030 OVC040 04/M02 A3015 RMK SC2SC6 SLP249=

CYYC;2005-10-03 21:00;METAR CYYC 032100Z 14010KT 10SM FEW030 OVC057 04/M03 A3015 RMK SC2SC6 SLP250=

CYYC;2005-10-03 22:00;METAR CYYC 032200Z 12008KT 3SM -SN FEW020 BKN034 OVC070 03/M00 A3017 RMK SC2SC6AS1 SLP256=

CYYC;2005-10-03 22:45;SPECI CYYC 032245Z 17007KT 6SM -SN FEW010 BKN017 OVC040 02/ RMK SC2SC5SC1=

CYYC;2005-10-03 23:00;METAR CYYC 032300Z 17006KT 7SM -SN FEW012 BKN030 OVC060 03/01 A3018 RMK SC2SC5SC1 SLP260=

CYYC;2005-10-04 00:00;METAR CYYC 040000Z 14005KT 10SM -SN FEW014 BKN032 OVC043 03/M00 A3019 RMK SC2SC5SC2 SLP265=

CYYC;2005-10-04 01:00;METAR CYYC 040100Z 20003KT 7SM -SN FEW015 BKN033 OVC052 03/M00 A3020 RMK SC1SC5SC2 SLP268=

CYYC;2005-10-04 02:00;METAR CYYC 040200Z 16003KT 8SM FEW015 BKN045 OVC071 02/M00 A3021 RMK SC2SC5AC2 SLP271=

CYYC;2005-10-04 03:00;METAR CYYC 040300Z 22003KT 15SM FEW020 FEW040 OVC085 02/00 A3022 RMK SC1SC2AC6 SLP279=

CYYC;2005-10-04 04:00;METAR CYYC 040400Z 24003KT 15SM FEW040 BKN068 OVC084 02/01 A3024 RMK SC2AC4AC2 SLP283=

CYYC;2005-10-04 05:00;METAR CYYC 040500Z 00000KT 15SM FEW020 BKN054 OVC074 02/00 A3024 RMK SC1SC6AC2 SLP285=

CYYC;2005-10-04 06:00;METAR CYYC 040600Z 00000KT 15SM FEW020 BKN060 BKN110 02/00 A3025 RMK SC1SC5AC2 SLP287=

CYYC;2005-10-04 07:00;METAR CYYC 040700Z 19005KT 15SM FEW040 BKN110 02/M01 A3025 RMK SC2AC5 SLP288=

CYYC;2005-10-04 08:00;METAR CYYC 040800Z 19004KT 15SM FEW040 BKN110 01/M01 A3025 RMK SC2AC4 SLP287=

CYYC;2005-10-04 09:00;METAR CYYC 040900Z 00000KT 15SM FEW120 SCT240 01/M01 A3025 RMK AC2CI0 SLP286=

CYYC;2005-10-04 10:00;METAR CYYC 041000Z 12006KT 15SM FEW020 FEW120 BKN240 M02/M04 A3026 RMK SC1AC2CI0 FROIN SLP289=

CYYC;2005-10-04 11:00;METAR CYYC 041100Z 11006KT 15SM FEW120 FEW240 M03/M04 A3027 RMK AC2CI0 FROIN SLP292=

CYYC;2005-10-04 12:00;METAR CYYC 041200Z 12004KT 15SM SCT024 SCT120 M02/M04 A3028 RMK SC2AC1 FROIN SLP304=

CYYC;2005-10-04 13:00;METAR CYYC 041300Z 13003KT 15SM FEW025 SCT055 BKN071 M03/M04 A3029 RMK SC2SC2AC1 SLP307=

CYYC;2005-10-04 14:00;METAR CYYC 041400Z 12004KT 8SM SCT005 BKN060 OVC140 M03/M04 A3031 RMK ST3SC3AC1 SLP313=

CYYC;2005-10-04 14:33;SPECI CYYC 041433Z 13003KT 2SM BR OVC004 M02/ RMK ST8=

CYYC;2005-10-04 14:46;SPECI CYYC 041446Z 12004KT 2 1/2SM BR BKN003 OVC100 M02/ RMK ST6AC1=

CYYC;2005-10-04 15:00;METAR CYYC 041500Z 13003KT 2 1/2SM BR BKN002 BKN100 OVC220 M02/M03 A3032 RMK ST6AC1CI1 SLP318=

CYYC;2005-10-04 15:22;SPECI CYYC 041522Z 11002KT 7SM FEW006 SCT040 BKN100 BKN220 M01/ RMK SC2SC1AC1CI0=

CYYC;2005-10-04 16:00;METAR CYYC 041600Z 13005KT 8SM SCT005 BKN060 BKN090 M00/M02 A3031 RMK SC3SC2AC1 SLP316=

CYYC;2005-10-04 17:00;METAR CYYC 041700Z 14007KT 8SM FEW008 SCT040 01/M01 A3032 RMK SC2SC1 SLP318=

CYYC;2005-10-04 17:52;SPECI CYYC 041752Z 16008KT 3SM BR BKN004 BKN030 01/ RMK SC6SC1=

CYYC;2005-10-04 18:00;METAR CYYC 041800Z 14007KT 3SM BR BKN004 BKN020 01/M01 A3034 RMK SC6SC1 SLP319=

CYYC;2005-10-04 19:00;METAR CYYC 041900Z 16008KT 6SM BR BKN006 OVC030 01/M00 A3034 RMK SC7SC1 SLP320=

CYYC;2005-10-04 20:00;METAR CYYC 042000Z 16005KT 10SM FEW009 SCT030 04/00 A3032 RMK SC2SC2 SLP314=

CYYC;2005-10-04 21:00;METAR CYYC 042100Z 16010KT 10SM FEW020 SCT040 06/M01 A3032 RMK SC2SC1 SLP307=

CYYC;2005-10-04 22:00;METAR CYYC 042200Z 17009KT 12SM FEW029 FEW100 FEW240 07/M01 A3032 RMK SC2AC1CI0 AC TR SLP308=

CYYC;2005-10-04 23:00;METAR CYYC 042300Z 16009KT 15SM FEW030 FEW100 07/M01 A3032 RMK SC1AC1 SLP307=

CYYC;2005-10-05 00:00;METAR CYYC 050000Z 16008KT 15SM FEW060 FEW075 FEW120 06/M01 A3033 RMK SC1AC1AC1 SC TR SLP316=

CYYC;2005-10-05 01:00;METAR CYYC 050100Z 17008KT 15SM SCT080 04/M02 A3033 RMK AC4 SLP315=

CYYC;2005-10-05 01:51;SPECI CYYC 050151Z 15009KT 15SM FEW060 SCT080 02/ RMK SC1AC2=

CYYC;2005-10-05 03:00;METAR CYYC 050300Z 14009KT 15SM FEW080 FEW240 02/M03 A3035 RMK AC1CI0 SLP327=

CYYC;2005-10-05 04:00;METAR CYYC 050400Z 15010KT 15SM FEW012 FEW240 00/M03 A3036 RMK SC1CI0 SLP330=

CYYC;2005-10-05 05:00;METAR CYYC 050500Z 17007KT 15SM FEW240 M00/M03 A3035 RMK CI0 SLP327=

CYYC;2005-10-05 06:00;METAR CYYC 050600Z 17006KT 15SM FEW240 M00/M03 A3035 RMK CI1 SLP327=

CYYC;2005-10-05 07:00;METAR CYYC 050700Z 16009KT 15SM FEW240 M01/M03 A3034 RMK CI1 SLP323=

CYYC;2005-10-05 08:00;METAR CYYC 050800Z 16007KT 15SM SKC M01/M04 A3033 RMK SLP320=

CYYC;2005-10-05 09:00;METAR CYYC 050900Z 17007KT 15SM SKC M02/M04 A3033 RMK FROIN SLP314=

CYYC;2005-10-05 11:00;METAR CYYC 051100Z 16007KT 10SM SKC M03/M04 A3032 RMK FROIN SLP312=

CYYC;2005-10-05 11:26;SPECI CYYC 051126Z 16006KT 10SM FEW008 M03/ RMK ST1=

CYYC;2005-10-05 12:00;METAR CYYC 051200Z 16007KT 10SM VCFG FEW006 M02/M04 A3031 RMK ST1 FROIN SLP308=

CYYC;2005-10-05 13:00;METAR CYYC 051300Z 19005KT 3SM BR FEW008 FEW020 M03/M05 A3030 RMK ST1SC1 SLP305=

CYYC;2005-10-05 13:41;SPECI CYYC 051341Z 17002KT 1/2SM FZFG VV002 M04/ RMK FG8 RVR RWY16 6000+ FEET=

CYYC;2005-10-05 13:47;SPECI CYYC 051347Z 16005KT 1/4SM FZFG VV001 M04/ RMK FG8 RVR RWY16 6000+ FEET / FROIN=

CYYC;2005-10-05 14:30;SPECI CYYC 051430Z 17005KT 1SM BR SKC M03/ RMK FG2 RVR RWY16 4500 FEET=

CYYC;2005-10-05 14:52;SPECI CYYC 051452Z 17007KT 1/2SM FZFG SKC M03/ RMK FG7 RVR RWY16 6000+=

CYYC;2005-10-05 15:00;METAR CYYC 051500Z 16007KT 1 1/2SM BR SKC M03/M04 A3029 RMK FG7 VIS 1/2=

CYYC;2005-10-05 16:00;METAR CYYC 051600Z 17007KT 2 1/2SM BR BKN002 BKN080 BKN260 M02/M02 A3028 RMK ST2AC1CI1 VIS NW-E 1 IN FG SLP307=

CYYC;2005-10-05 16:18;SPECI CYYC 051618Z 17005KT 3SM BR SCT002 BKN250 M01/ RMK ST2CI1 FG BANK NE-SE=

CYYC;2005-10-05 17:00;METAR CYYC 051700Z 17008KT 30SM FEW006 SCT180 BKN240 01/M01 A3027 RMK ST0AC1CI1 SLP304=

CYYC;2005-10-05 18:00;METAR CYYC 051800Z 17011KT 40SM FEW012 FEW080 BKN140 BKN240 02/M01 A3027 RMK SC1AC1AC4CI2 SLP297=

CYYC;2005-10-05 21:00;METAR CYYC 052100Z 17010KT 40SM FEW016 FEW080 BKN150 BKN240 08/00 A3023 RMK SC1AC1AC3CI0 SLP276=

CYYC;2005-10-05 23:00;METAR CYYC 052300Z 17010KT 30SM FEW020 FEW070 SCT140 BKN220 10/M01 A3019 RMK SC1AC1AC2CI2 SLP265=

CYYC;2005-10-06 00:00;METAR CYYC 060000Z 16009KT 30SM FEW075 SCT140 BKN210 08/M01 A3018 RMK AC1AC2CI1 SLP259=

CYYC;2005-10-06 01:00;METAR CYYC 060100Z 15008KT 40SM FEW060 BKN130 BKN210 08/M01 A3016 RMK SC1AC2CI0 SC TR SLP253=

CYYC;2005-10-06 02:00;METAR CYYC 060200Z 15008KT 15SM FEW060 SCT150 BKN240 06/00 A3014 RMK SC1AC2CI0 SLP248=

CYYC;2005-10-06 04:00;METAR CYYC 060400Z 17003KT 15SM FEW160 SCT240 02/M00 A3012 RMK AC1CI1 SLP246=

CYYC;2005-10-06 05:00;METAR CYYC 060500Z 19006KT 15SM FEW160 SCT240 01/M01 A3010 RMK AC1CI1 SLP242=

CYYC;2005-10-06 06:00;METAR CYYC 060600Z 19007KT 15SM SKC 01/M02 A3009 RMK SLP231=

CYYC;2005-10-06 09:00;METAR CYYC 060900Z 18006KT 15SM SKC 01/M04 A3004 RMK SLP207=

CYYC;2005-10-06 10:00;METAR CYYC 061000Z 20004KT 15SM SKC 01/M04 A3002 RMK SLP200=

CYYC;2005-10-06 11:00;METAR CYYC 061100Z 18005KT 15SM SKC 00/M04 A3000 RMK SLP194=

CYYC;2005-10-06 12:00;METAR CYYC 061200Z 19005KT 15SM SKC 00/M04 A2998 RMK SLP186=

CYYC;2005-10-06 13:00;METAR CYYC 061300Z 20002KT 15SM FEW210 01/M03 A2996 RMK CI1 SLP181=

CYYC;2005-10-06 14:00;METAR CYYC 061400Z 22004KT 40SM FEW080 FEW140 BKN220 02/M03 A2995 RMK AC1AC1CI1 VIRGA W SLP176=

CYYC;2005-10-06 15:00;METAR CYYC 061500Z 20005KT 40SM BKN096 BKN240 02/M01 A2994 RMK AC2CI2 VIRGA W SLP176=

CYYC;2005-10-06 16:00;METAR CYYC 061600Z 19006KT 40SM FEW080 BKN100 BKN240 05/M01 A2992 RMK AC1AC7CI1 VIRGA SLP172=

CYYC;2005-10-06 17:00;METAR CYYC 061700Z 21008KT 40SM FEW080 BKN100 BKN240 10/01 A2991 RMK AC1AC2CI1 VIRGA SLP168=

CYYC;2005-10-06 18:00;METAR CYYC 061800Z 23006KT 40SM FEW070 BKN090 BKN240 10/02 A2990 RMK AC1AC7CI1 VIRGA SLP156=

CYYC;2005-10-06 19:00;METAR CYYC 061900Z 21004KT 40SM FEW070 BKN080 BKN240 09/02 A2988 RMK AC1AC7CI1 VIRGA SLP151=

CYYC;2005-10-06 21:00;METAR CYYC 062100Z 20007KT 40SM FEW070 BKN100 BKN240 13/02 A2984 RMK AC1AC4CI1 VIRGA SLP129=

CYYC;2005-10-06 22:00;METAR CYYC 062200Z 22008KT 40SM FEW070 BKN120 BKN240 14/03 A2981 RMK AC1AC5CI2 VIRGA SLP120=

CYYC;2005-10-06 23:00;METAR CYYC 062300Z 20006KT 40SM FEW080 BKN120 BKN220 13/03 A2979 RMK AC1AC5CI2 SLP113=

CYYC;2005-10-07 00:00;METAR CYYC 070000Z 23004KT 40SM FEW080 BKN120 BKN220 12/02 A2977 RMK AC1AC7CI1 SLP109=

CYYC;2005-10-07 01:00;METAR CYYC 070100Z 25008KT 40SM FEW080 BKN090 BKN220 11/01 A2975 RMK AC1AC7CI1 SLP102=

CYYC;2005-10-07 02:00;METAR CYYC 070200Z 25018KT 15SM SCT063 BKN074 BKN220 12/01 A2972 RMK SC3AC2CI2 SLP095=

CYYC;2005-10-07 02:42;SPECI CYYC 070242Z 31016KT 15SM -RA BKN049 OVC067 13/ RMK SC6AC2=

CYYC;2005-10-07 03:00;METAR CYYC 070300Z 23009KT 15SM -RA BKN076 OVC095 10/02 A2972 RMK AC6AC2 SLP090=

CYYC;2005-10-07 04:00;METAR CYYC 070400Z 27005KT 15SM BKN085 OVC100 10/01 A2970 RMK AC5AC3 SLP086=

CYYC;2005-10-07 05:00;METAR CYYC 070500Z 33009KT 15SM FEW090 OVC110 11/02 A2967 RMK AC2AC6 SLP077=

CYYC;2005-10-07 06:00;METAR CYYC NIL=

CYYC;2005-10-07 09:00;METAR CYYC 070900Z 00000KT 15SM BKN120 BKN240 05/01 A2960 RMK AC5CI1 SLP038=

CYYC;2005-10-07 10:00;METAR CYYC 071000Z 28007KT 15SM BKN110 BKN140 09/01 A2958 RMK AC6AC1 SLP034=

CYYC;2005-10-07 11:00;METAR CYYC 071100Z 23006KT 15SM FEW110 OVC170 07/01 A2957 RMK AC2AC6 SLP029=

CYYC;2005-10-07 12:00;METAR CYYC 071200Z 34003KT 15SM BKN120 OVC170 08/00 A2956 RMK AC5AC2 SLP024=

CYYC;2005-10-07 13:00;METAR CYYC 071300Z 27012KT 15SM FEW085 BKN160 09/M01 A2956 RMK AC2AC4 SLP023=

CYYC;2005-10-07 14:00;METAR CYYC 071400Z 25010KT 40SM FEW085 BKN140 BKN180 09/M01 A2956 RMK AC1AC2AC2 SLP025=

CYYC;2005-10-07 15:00;METAR CYYC 071500Z 27012KT 40SM BKN120 BKN180 10/M01 A2956 RMK AC6AC1 SLP023=

CYYC;2005-10-07 16:00;METAR CYYC 071600Z 27008KT 40SM BKN110 BKN190 BKN240 10/00 A2957 RMK AC2AC2CI1 SLP026=

CYYC;2005-10-07 17:00;METAR CYYC 071700Z 26012KT 40SM BKN110 BKN160 BKN240 11/01 A2957 RMK AC4AC3CI1 SLP027=

CYYC;2005-10-07 18:00;METAR CYYC 071800Z 26019KT 40SM FEW110 SCT160 BKN190 BKN240 14/M01 A2957 RMK AC2AC2AC3CI1 SLP026=

CYYC;2005-10-07 20:00;METAR CYYC 072000Z 29016KT 40SM FEW079 BKN140 14/M02 A2958 RMK AC1AC1 VIRGA N-NE SLP029=

CYYC;2005-10-07 21:00;METAR CYYC 072100Z 28013G21KT 40SM SCT079 BKN098 BKN180 15/M02 A2959 RMK AC2AC1AC1 SHS S+SW+NW / UPR AC TR SLP033=

CYYC;2005-10-07 22:00;METAR CYYC 072200Z 27016G21KT 40SM FEW085 BKN120 BKN240 15/M01 A2959 RMK AC2AC2CI1 SHS ALQDS SLP035=

CYYC;2005-10-07 23:00;METAR CYYC 072300Z 05009KT 40SM SCT085 BKN120 11/01 A2962 RMK AC3AC2 SHS NW-SE SLP043=

CYYC;2005-10-08 00:00;METAR CYYC 080000Z 04004KT 20SM FEW040CB FEW080 BKN110 BKN180 10/03 A2964 RMK CB1AC1AC5AC1 CB NW-NE / SHS ALQDS SLP054=

CYYC;2005-10-08 00:24;SPECI CYYC 080024Z 05006KT 20SM -SHRA FEW040CB BKN080 BKN110 BKN180 10/ RMK CB1AC3AC1AC1 CB NW-NE=

CYYC;2005-10-08 00:50;SPECI CYYC 080050Z 14004KT 40SM FEW040CB SCT080 BKN110 BKN180 08/ RMK CB1AC2AC1AC1 CB SW+NW-NE=

CYYC;2005-10-08 01:00;METAR CYYC 080100Z 00000KT 40SM FEW040CB FEW080 SCT110 SCT180 BKN260 09/03 A2965 RMK CB1AC1AC1AC1CI0 CB N-NE / CB+UPR AC TR SLP058=

CYYC;2005-10-08 02:00;METAR CYYC 080200Z 30007KT 15SM FEW040 FEW110 BKN240 07/00 A2968 RMK SC1AC2CI0 LTNG NE SLP067=

CYYC;2005-10-08 03:00;METAR CYYC 080300Z 04007KT 15SM FEW080 FEW160 FEW240 04/02 A2971 RMK AC1AC1CI0 SLP086=

CYYC;2005-10-08 03:26;SPECI CYYC 080326Z 33008KT 15SM FEW100 02/ RMK AC1=

CYYC;2005-10-08 04:00;METAR CYYC 080400Z 36003KT 15SM FEW240 03/01 A2973 RMK CI1 SLP092=

CYYC;2005-10-08 04:13;SPECI CYYC 080413Z 36004KT 15SM FEW240 02/ RMK CI0=

CYYC;2005-10-08 05:00;METAR CYYC 080500Z 20002KT 15SM FEW240 02/M00 A2974 RMK CI0 SLP093=

CYYC;2005-10-08 06:00;METAR CYYC 080600Z 22007KT 15SM SKC 00/M01 A2974 RMK FROIN AURBO SLP095=

CYYC;2005-10-08 07:00;METAR CYYC 080700Z 21004KT 15SM SKC 02/M00 A2975 RMK SLP098=

CYYC;2005-10-08 09:00;METAR CYYC 080900Z 20004KT 15SM FEW240 01/M00 A2976 RMK CI0 SLP099=

CYYC;2005-10-08 11:00;METAR CYYC 081100Z 18003KT 15SM SKC M00/M02 A2975 RMK SLP097=

CYYC;2005-10-08 12:00;METAR CYYC 081200Z 19005KT 15SM SKC M01/M04 A2976 RMK FROIN SLP111=

CYYC;2005-10-08 13:00;METAR CYYC 081300Z 23003KT 15SM FEW120 M01/M05 A2977 RMK AC1 SLP113=

CYYC;2005-10-08 14:00;METAR CYYC 081400Z 20005KT 40SM FEW140 M02/M04 A2977 RMK AC1 SLP114=

CYYC;2005-10-08 15:00;METAR CYYC 081500Z 20005KT 40SM FEW180 00/M03 A2979 RMK AC1 SLP124=

CYYC;2005-10-08 16:00;METAR CYYC 081600Z 22004KT 40SM FEW150 FEW240 05/M01 A2979 RMK AC1CI1 SLP125=

CYYC;2005-10-08 17:00;METAR CYYC 081700Z 22004KT 40SM FEW230 09/M03 A2980 RMK CI1 SLP127=

CYYC;2005-10-08 18:00;METAR CYYC 081800Z 20005KT 40SM FEW055 FEW150 FEW230 11/M04 A2978 RMK CU1AC1CI1 SLP114=

CYYC;2005-10-08 19:00;METAR CYYC 081900Z 19003KT 40SM FEW055 FEW150 FEW230 11/M05 A2978 RMK CU1AC1CI1 SLP114=

CYYC;2005-10-08 20:00;METAR CYYC 082000Z 16004KT 40SM FEW060 FEW240 12/M05 A2977 RMK CU1CI1 SLP110=

CYYC;2005-10-08 22:00;METAR CYYC 082200Z 04003KT 40SM FEW040 FEW065 FEW220 12/M06 A2977 RMK SC1CU1CI0 SLP105=

CYYC;2005-10-08 23:00;METAR CYYC 082300Z 12006KT 40SM FEW040 FEW065 BKN090 BKN220 12/M06 A2977 RMK SC1CU1AC3CI0 SLP105=

CYYC;2005-10-09 00:00;METAR CYYC 090000Z 12005KT 40SM FEW040 FEW065 SCT100 BKN230 10/M04 A2978 RMK SC1CU1AC3CI1 SLP116=

CYYC;2005-10-09 01:00;METAR CYYC 090100Z 31007KT 40SM FEW040 FEW080 BKN220 09/M05 A2979 RMK SC1AC2CI1 SLP121=

CYYC;2005-10-09 02:00;METAR CYYC 090200Z 34003KT 15SM FEW040 SCT080 BKN230 09/M06 A2981 RMK SC1AC4CI0 SLP127=

CYYC;2005-10-09 03:00;METAR CYYC 090300Z 33003KT 15SM FEW080 SCT230 08/M07 A2983 RMK AC1CI0 SLP134=

CYYC;2005-10-09 04:00;METAR CYYC 090400Z 00000KT 15SM FEW040 FEW080 SCT240 04/M05 A2985 RMK SC1AC1CI0 SLP140=

CYYC;2005-10-09 05:00;METAR CYYC 090500Z 23002KT 15SM FEW080 FEW240 05/M06 A2985 RMK AC1CI0 SLP140=

CYYC;2005-10-09 06:00;METAR CYYC 090600Z 23004KT 15SM FEW190 SCT240 03/M05 A2986 RMK AC1CI0 SLP137=

CYYC;2005-10-09 06:28;SPECI CYYC 090628Z 30002KT 15SM SCT190 SCT240 02/ RMK AC2CI1=

CYYC;2005-10-09 07:14;SPECI CYYC 090714Z 34004KT 15SM FEW200 SCT240 02/ RMK CI1CI0=

CYYC;2005-10-09 08:00;METAR CYYC 090800Z 32004KT 15SM FEW180 01/M05 A2987 RMK AC1 SLP142=

CYYC;2005-10-09 09:00;METAR CYYC 090900Z 35003KT 15SM FEW190 01/M05 A2989 RMK AC1 SLP147=

CYYC;2005-10-09 10:00;METAR CYYC 091000Z 32008KT 15SM SCT190 M00/M05 A2991 RMK AC1 SLP154=

CYYC;2005-10-09 11:00;METAR CYYC 091100Z 34006KT 15SM FEW220 00/M05 A2993 RMK CI0 SLP159=

CYYC;2005-10-09 12:00;METAR CYYC 091200Z 32006KT 15SM FEW100 FEW200 M01/M05 A2995 RMK AC1CI1 SLP177=

CYYC;2005-10-09 13:00;METAR CYYC 091300Z 30005KT 15SM FEW080 FEW200 M01/M05 A2997 RMK AC1CI0 SLP183=

CYYC;2005-10-09 14:00;METAR CYYC 091400Z 30003KT 40SM FEW080 FEW200 M00/M05 A3000 RMK AC0CI1 SLP191=

CYYC;2005-10-09 15:00;METAR CYYC 091500Z 33005KT 40SM FEW100 FEW220 01/M04 A3002 RMK AC1CI1 SLP201=

CYYC;2005-10-09 16:00;METAR CYYC 091600Z 00000KT 40SM FEW220 05/M03 A3005 RMK CI1 SLP209=

CYYC;2005-10-09 17:00;METAR CYYC 091700Z 31002KT 40SM FEW220 08/M03 A3008 RMK CI1 SLP218=

CYYC;2005-10-09 18:00;METAR CYYC 091800Z 00000KT 40SM FEW160 10/M05 A3009 RMK AC1 SLP220=

CYYC;2005-10-09 19:00;METAR CYYC 091900Z 28003KT 40SM FEW050 11/M04 A3009 RMK CU1 SLP220=

CYYC;2005-10-09 20:00;METAR CYYC 092000Z 17005KT 40SM FEW055 12/M05 A3010 RMK CU1 SLP221=

CYYC;2005-10-09 21:00;METAR CYYC 092100Z 18006KT 40SM FEW055 FEW240 13/M05 A3009 RMK CU1CI1 SLP219=

CYYC;2005-10-09 22:00;METAR CYYC 092200Z 16010KT 40SM FEW055 FEW240 13/M05 A3009 RMK CU1CI1 SLP218=

CYYC;2005-10-09 23:00;METAR CYYC 092300Z 18009KT 40SM FEW055 FEW240 13/M05 A3009 RMK CU1CI1 SLP217=

CYYC;2005-10-10 00:00;METAR CYYC 100000Z 16008KT 40SM FEW055 FEW240 12/M05 A3010 RMK CU1CI1 SLP224=

CYYC;2005-10-10 01:00;METAR CYYC 100100Z 16010KT 40SM FEW040 FEW240 10/M04 A3009 RMK SC1CI1 SLP222=

CYYC;2005-10-10 02:00;METAR CYYC 100200Z 18011KT 15SM FEW040 FEW240 09/M03 A3008 RMK SC1CI1 SLP220=

CYYC;2005-10-10 03:00;METAR CYYC 100300Z 18011KT 15SM FEW240 07/M03 A3009 RMK CI1 SLP226=

CYYC;2005-10-10 04:00;METAR CYYC 100400Z 18006KT 15SM FEW100 04/M03 A3007 RMK AC1 SLP220=

CYYC;2005-10-10 05:00;METAR CYYC 100500Z 21006KT 15SM SKC 03/M03 A3006 RMK SLP216=

CYYC;2005-10-10 05:28;SPECI CYYC 100528Z 19006KT 15SM FEW240 02/ RMK CI1=

CYYC;2005-10-10 06:00;METAR CYYC 100600Z 17005KT 15SM FEW170 FEW240 02/M03 A3004 RMK AC1CI0 SLP201=

CYYC;2005-10-10 07:00;METAR CYYC 100700Z 18003KT 15SM SCT240 02/M03 A3003 RMK CI0 SLP198=

CYYC;2005-10-10 09:00;METAR CYYC 100900Z 20007KT 15SM BKN240 01/M03 A3001 RMK CI1 SLP189=

CYYC;2005-10-10 10:00;METAR CYYC 101000Z 18005KT 15SM SCT240 01/M03 A2999 RMK CI2 SLP183=

CYYC;2005-10-10 11:00;METAR CYYC 101100Z 00000KT 15SM BKN240 01/M03 A2997 RMK CI3 SLP177=

CYYC;2005-10-10 12:00;METAR CYYC 101200Z 19003KT 15SM BKN240 03/M04 A2996 RMK CI5 SLP171=

CYYC;2005-10-10 13:00;METAR CYYC 101300Z 19005KT 40SM FEW080 BKN240 02/M02 A2995 RMK AC1CI2 SLP168=

CYYC;2005-10-10 14:00;METAR CYYC 101400Z 20004KT 40SM FEW100 BKN240 03/M02 A2995 RMK AC1CI2 SLP167=

CYYC;2005-10-10 15:00;METAR CYYC 101500Z 19002KT 40SM FEW100 BKN240 07/M01 A2995 RMK AC2CI2 SLP167=

CYYC;2005-10-10 16:00;METAR CYYC 101600Z 20002KT 40SM FEW120 BKN250 09/00 A2995 RMK AC1CI2 SLP168=

CYYC;2005-10-10 17:00;METAR CYYC 101700Z 16003KT 40SM FEW180 BKN250 14/01 A2993 RMK AC1CI2 SLP162=

CYYC;2005-10-10 18:00;METAR CYYC 101800Z 17006KT 40SM FEW180 BKN250 14/01 A2990 RMK AC2CI2 SLP148=

CYYC;2005-10-10 19:00;METAR CYYC 101900Z 17008KT 40SM FEW050 SCT160 BKN250 14/02 A2989 RMK SC1AC2CI2 SC TR SLP144=

CYYC;2005-10-10 21:00;METAR CYYC 102100Z 20005KT 40SM FEW050 SCT160 BKN240 17/04 A2983 RMK SC1AC3CI2 SC TR SLP120=

CYYC;2005-10-10 23:00;METAR CYYC 102300Z 00000KT 40SM FEW060 SCT140 BKN240 18/06 A2977 RMK SC1AC3CI2 SC TR SLP102=

CYYC;2005-10-11 00:00;METAR CYYC 110000Z 29005KT 40SM FEW060 SCT140 BKN240 15/04 A2977 RMK SC1AC2CI2 ACSL SW SLP098=

CYYC;2005-10-11 01:00;METAR CYYC 110100Z 26003KT 40SM FEW060 BKN140 BKN240 15/04 A2976 RMK SC1AC2CI2 SC TR SLP097=

CYYC;2005-10-11 02:00;METAR CYYC 110200Z 31005KT 15SM FEW070 FEW120 SCT240 14/03 A2976 RMK AC1AC1CI2 SLP095=

CYYC;2005-10-11 03:00;METAR CYYC 110300Z 30010KT 15SM BKN240 15/03 A2975 RMK CI6 SLP088=

CYYC;2005-10-11 04:00;METAR CYYC 110400Z 28007KT 15SM FEW100 BKN220 13/03 A2976 RMK AC1CI7 SLP089=

CYYC;2005-10-11 05:00;METAR CYYC 110500Z 29009KT 15SM FEW080 BKN190 14/03 A2976 RMK AC1AC7 SLP090=

CYYC;2005-10-11 07:00;METAR CYYC 110700Z 35010KT 15SM BKN230 12/03 A2978 RMK CI7 SLP088=

CYYC;2005-10-11 08:00;METAR CYYC 110800Z 29007KT 15SM OVC250 12/02 A2980 RMK CI8 SLP095=

CYYC;2005-10-11 09:00;METAR CYYC 110900Z 28007KT 15SM BKN250 11/01 A2982 RMK CI5 SLP103=

CYYC;2005-10-11 10:00;METAR CYYC 111000Z 35018G29KT 15SM FEW240 08/03 A2987 RMK CI0 PRESRR SLP120=

CYYC;2005-10-11 11:00;METAR CYYC 111100Z 33010KT 15SM FEW100 05/02 A2990 RMK AC1 SLP128=

CYYC;2005-10-11 12:00;METAR CYYC 111200Z 35008KT 15SM SKC 03/01 A2992 RMK SLP151=

CYYC;2005-10-11 13:00;METAR CYYC 111300Z 34010KT 15SM FEW100 FEW140 BKN240 04/00 A2993 RMK AC1AC2CI0 SLP154=

CYYC;2005-10-11 14:00;METAR CYYC 111400Z 33004KT 40SM FEW070 FEW120 BKN250 04/M00 A2995 RMK AC1AC1CI2 SLP161=

CYYC;2005-10-11 15:00;METAR CYYC 111500Z 26004KT 40SM FEW070 SCT120 BKN250 05/01 A2999 RMK AC1AC2CI2 CC ASOCTD SLP175=

CYYC;2005-10-11 16:00;METAR CYYC 111600Z 29002KT 40SM FEW070 SCT160 BKN250 08/01 A3002 RMK AC1AC1CI2 SLP184=

CYYC;2005-10-11 18:00;METAR CYYC 111800Z 36007KT 40SM FEW060 BKN096 BKN240 09/00 A3005 RMK SC2AC5CI1 SLP189=

CYYC;2005-10-11 19:00;METAR CYYC 111900Z 00000KT 40SM FEW096 SCT180 11/00 A3006 RMK AC1AC2 SLP191=

CYYC;2005-10-11 22:00;METAR CYYC 112200Z 17004KT 40SM FEW100 FEW240 13/01 A3006 RMK AC1CI1 SLP193=

CYYC;2005-10-11 23:00;METAR CYYC 112300Z 14006KT 40SM FEW100 FEW200 12/M00 A3006 RMK AC1CI1 SLP194=

CYYC;2005-10-12 00:00;METAR CYYC 120000Z 15010KT 40SM FEW140 11/M01 A3007 RMK AC1 SLP212=

CYYC;2005-10-12 01:00;METAR CYYC 120100Z 16009KT 40SM FEW070 FEW160 09/00 A3009 RMK AC1AC1 SLP216=

CYYC;2005-10-12 02:00;METAR CYYC 120200Z 16009KT 15SM FEW240 07/M01 A3010 RMK CI1 SLP220=

CYYC;2005-10-12 04:00;METAR CYYC 120400Z 20005KT 15SM FEW240 04/M02 A3010 RMK CI0 SLP228=

CYYC;2005-10-12 05:00;METAR CYYC 120500Z 18004KT 15SM FEW240 04/M03 A3011 RMK CI1 SLP229=

CYYC;2005-10-12 05:52;SPECI CYYC 120552Z 15007KT 15SM FEW240 02/ RMK CI1=

CYYC;2005-10-12 06:00;METAR CYYC 120600Z 14009KT 15SM SKC 02/M02 A3008 RMK SLP217=

CYYC;2005-10-12 07:00;METAR CYYC 120700Z 16006KT 15SM SKC 01/M02 A3006 RMK SLP211=

CYYC;2005-10-12 08:00;METAR CYYC 120800Z 16007KT 15SM SKC 01/M02 A3006 RMK SLP209=

CYYC;2005-10-12 10:00;METAR CYYC 121000Z 18005KT 15SM BKN240 M00/M02 A3002 RMK CI1 SLP193=

CYYC;2005-10-12 11:00;METAR CYYC 121100Z 19007KT 15SM BKN230 01/M01 A3000 RMK CI6 SLP187=

CYYC;2005-10-12 12:00;METAR CYYC 121200Z 23003KT 15SM BKN220 01/M01 A3000 RMK CI7 SLP187=

CYYC;2005-10-12 13:00;METAR CYYC 121300Z 18006KT 15SM BKN210 02/M01 A2997 RMK CI7 SLP180=

CYYC;2005-10-12 14:00;METAR CYYC 121400Z 17004KT 40SM BKN160 BKN220 02/M01 A2996 RMK AC2CI2 SLP175=

CYYC;2005-10-12 15:00;METAR CYYC 121500Z 17003KT 40SM FEW060 BKN120 BKN160 BKN220 03/M01 A2997 RMK SC1AC6AC2CI1 VIRGA SLP183=

CYYC;2005-10-12 16:00;METAR CYYC 121600Z 19002KT 40SM FEW070 BKN100 BKN160 BKN220 04/M01 A2996 RMK AC1AC6AC2CI1 VIRGA SLP181=

CYYC;2005-10-12 17:00;METAR CYYC 121700Z 20009KT 40SM FEW080 BKN100 BKN160 05/M01 A2995 RMK AC1AC6AC2 VIRGA SLP179=

CYYC;2005-10-12 18:00;METAR CYYC 121800Z 19007KT 40SM FEW080 SCT100 BKN190 09/M02 A2991 RMK AC1AC3AC3 VIRGA SLP159=

CYYC;2005-10-12 19:00;METAR CYYC 121900Z 18006KT 40SM FEW080 FEW120 FEW190 BKN230 12/M01 A2991 RMK AC1AC2AC1CI5 SLP158=

CYYC;2005-10-13 00:36;SPECI CYYC 130036Z 21009KT 40SM -SHRA FEW090 BKN120 BKN230 13/ RMK AC1AC2CI5=

CYYC;2005-10-14 02:00;METAR CYYC 140200Z 00000KT 15SM FEW080 07/02 A2996 RMK AC1 AC TR SLP166=

CYYC;2005-10-14 03:00;METAR CYYC 140300Z 15005KT 15SM SKC 05/01 A2998 RMK SLP183=

CYYC;2005-10-14 04:00;METAR CYYC 140400Z 00000KT 15SM SKC 04/M00 A3000 RMK SLP190=

CYYC;2005-10-14 05:00;METAR CYYC 140500Z 27012KT 15SM SKC 08/M04 A3002 RMK SLP195=

CYYC;2005-10-14 06:00;METAR CYYC 140600Z 28012KT 15SM FEW250 07/M05 A3004 RMK CI1 CI TR SLP187=

CYYC;2005-10-14 09:00;METAR CYYC 140900Z 27004KT 15SM FEW140 FEW250 06/M06 A3006 RMK AC1CI1 CI TR SLP203=

CYYC;2005-10-14 10:00;METAR CYYC 141000Z 20007KT 15SM FEW140 FEW250 01/M05 A3007 RMK AC1CI1 CI TR SLP207=

CYYC;2005-10-14 11:00;METAR CYYC 141100Z 19003KT 15SM FEW230 02/M05 A3008 RMK CI1 CI TR SLP208=

CYYC;2005-10-14 12:00;METAR CYYC 141200Z 24004KT 15SM FEW230 02/M05 A3008 RMK CI1 SLP218=

CYYC;2005-10-14 13:00;METAR CYYC 141300Z 20006KT 15SM SCT230 01/M05 A3009 RMK CI2 SLP220=

CYYC;2005-10-14 14:00;METAR CYYC 141400Z 20003KT 40SM FEW180 BKN230 02/M05 A3009 RMK AC1CI1 SLP220=

CYYC;2005-10-14 15:00;METAR CYYC 141500Z 20003KT 40SM BKN140 BKN230 03/M03 A3009 RMK AC5CI2 SLP225=

CYYC;2005-10-14 16:00;METAR CYYC 141600Z 19002KT 40SM FEW110 BKN140 BKN230 05/M02 A3009 RMK AC1AC5CI2 SLP227=

CYYC;2005-10-14 17:00;METAR CYYC 141700Z 18003KT 40SM FEW110 BKN120 BKN230 07/M03 A3009 RMK AC1AS6CI2 SLP226=

CYYC;2005-10-14 18:00;METAR CYYC 141800Z 16008KT 40SM FEW110 BKN120 BKN170 09/M03 A3007 RMK AC1AS3AC4 SLP209=

CYYC;2005-10-14 20:00;METAR CYYC 142000Z 17011G19KT 40SM FEW080 FEW110 BKN140 BKN180 13/M03 A3003 RMK AC1AC1AS3AC1 LWR AC LYRS TR SLP196=

CYYC;2005-10-14 21:00;METAR CYYC 142100Z 17013KT 40SM FEW080 FEW120 BKN190 BKN250 11/M04 A3001 RMK AC1AC1AC2CI0 SLP184=

CYYC;2005-10-14 23:00;METAR CYYC 142300Z 14009KT 40SM FEW080 FEW120 BKN190 BKN260 10/M01 A2997 RMK AC1AC1AC4CS3 SLP173=

CYYC;2005-10-15 00:00;METAR CYYC 150000Z 13007KT 40SM FEW090 FEW140 FEW190 BKN260 09/01 A2995 RMK AC1AC1AC1CS7 SLP173=

CYYC;2005-10-15 02:00;METAR CYYC 150200Z 13008KT 15SM FEW130 FEW150 BKN260 06/01 A2992 RMK AC2AC1CI1 SLP162=

CYYC;2005-10-15 03:00;METAR CYYC 150300Z 14009KT 15SM FEW120 SCT180 BKN260 07/01 A2991 RMK AC1AC3CI0 SLP159=

CYYC;2005-10-15 04:00;METAR CYYC 150400Z 16008KT 15SM FEW120 BKN250 07/01 A2989 RMK AC1CI5 SLP154=

CYYC;2005-10-15 05:00;METAR CYYC 150500Z 16010KT 15SM FEW140 BKN250 07/01 A2987 RMK AC2CI4 SLP147=

CYYC;2005-10-15 06:00;METAR CYYC 150600Z 18011KT 15SM FEW140 BKN250 07/01 A2985 RMK AC2CI5 SLP129=

CYYC;2005-10-15 07:00;METAR CYYC 150700Z 18008KT 15SM FEW140 BKN250 06/02 A2981 RMK AC2CI6 SLP119=

CYYC;2005-10-15 09:00;METAR CYYC 150900Z 19006KT 15SM FEW120 BKN250 05/02 A2977 RMK AC1CI6 SLP103=

CYYC;2005-10-15 10:00;METAR CYYC 151000Z 18005KT 15SM FEW120 OVC240 04/01 A2975 RMK AC1CI7 SLP097=

CYYC;2005-10-15 11:00;METAR CYYC 151100Z 20007KT 15SM FEW120 OVC240 03/00 A2973 RMK AC1CI7 SLP091=

CYYC;2005-10-15 12:00;METAR CYYC 151200Z 20006KT 15SM BKN230 03/00 A2971 RMK CI7 SLP088=

CYYC;2005-10-15 13:00;METAR CYYC 151300Z 19007KT 15SM FEW140 BKN240 03/00 A2970 RMK AC1CI7 SLP084=

CYYC;2005-10-15 14:00;METAR CYYC 151400Z 19007KT 40SM FEW140 BKN230 03/00 A2968 RMK AC1CI6 SLP078=

CYYC;2005-10-15 15:00;METAR CYYC 151500Z 19005KT 40SM FEW120 BKN240 04/01 A2965 RMK AC1CI6 ACC ASOCTD SE SLP069=

CYYC;2005-10-15 16:00;METAR CYYC 151600Z 19005KT 40SM FEW120 BKN240 06/02 A2963 RMK AC1CI6 SLP063=

CYYC;2005-10-15 17:00;METAR CYYC 151700Z 21007KT 40SM FEW040 FEW180 BKN230 08/02 A2964 RMK SC1AC1CI6 SLP065=

CYYC;2005-10-15 18:00;METAR CYYC 151800Z 19006KT 40SM FEW040 FEW180 BKN230 12/04 A2963 RMK SC1AC1CI4 SLP049=

CYYC;2005-10-15 19:00;METAR CYYC 151900Z 19005KT 40SM FEW040 SCT170 BKN210 14/04 A2960 RMK CU1AC2CI4 SLP042=

CYYC;2005-10-15 21:00;METAR CYYC 152100Z 23006KT 40SM FEW040 FEW180 BKN230 17/07 A2959 RMK CU1AC2CI6 SLP031=

CYYC;2005-10-15 22:00;METAR CYYC 152200Z 15004KT 40SM FEW040 SCT170 BKN240 18/07 A2958 RMK CU1AC2CI6 SLP030=

CYYC;2005-10-15 23:00;METAR CYYC 152300Z 22009KT 40SM FEW040 SCT160 BKN240 19/00 A2959 RMK CU1AC2CI4 SLP031=

CYYC;2005-10-16 00:00;METAR CYYC 160000Z 25016G25KT 30SM FEW090 FEW230 BKN260 19/M01 A2960 RMK AC1CI1CI6 SLP034=

CYYC;2005-10-16 01:00;METAR CYYC 160100Z 23019G25KT 30SM FEW090 FEW210 BKN260 17/M02 A2961 RMK AC1CI1CI1 SLP039=

CYYC;2005-10-16 02:00;METAR CYYC 160200Z 27013KT 15SM FEW090 FEW260 14/M02 A2964 RMK AC1CI0 SLP047=

CYYC;2005-10-16 03:00;METAR CYYC 160300Z 23002KT 15SM FEW260 13/M03 A2965 RMK CI1 SLP062=

CYYC;2005-10-16 04:00;METAR CYYC 160400Z 24004KT 15SM FEW250 10/M03 A2967 RMK CI1 SLP067=

CYYC;2005-10-16 05:00;METAR CYYC 160500Z 27011KT 15SM FEW240 11/M02 A2968 RMK CI1 SLP071=

CYYC;2005-10-16 06:00;METAR CYYC 160600Z 31006KT 15SM FEW140 07/02 A2971 RMK AC1 SLP078=

CYYC;2005-10-16 07:00;METAR CYYC 160700Z 35003KT 15SM FEW080 05/02 A2971 RMK AC1 SLP079=

CYYC;2005-10-16 08:00;METAR CYYC 160800Z 01003KT 15SM FEW080 FEW230 04/01 A2971 RMK AC1CI1 SLP079=

CYYC;2005-10-16 09:00;METAR CYYC 160900Z 15004KT 15SM FEW080 SCT170 BKN240 05/02 A2972 RMK AC1AC2CI1 SLP078=

CYYC;2005-10-16 11:00;METAR CYYC 161100Z 21007KT 15SM FEW080 BKN150 OVC240 05/02 A2971 RMK AC1AC5CI2 VIRGA SLP075=

CYYC;2005-10-16 12:00;METAR CYYC 161200Z 23005KT 15SM BKN086 BKN150 OVC240 06/03 A2969 RMK AC3AC4CI1 SLP063=

CYYC;2005-10-16 13:00;METAR CYYC 161300Z 20008KT 15SM FEW086 BKN140 BKN240 06/02 A2969 RMK AC1AC7CI1 VIRGA SLP063=

CYYC;2005-10-16 14:00;METAR CYYC 161400Z 21002KT 40SM FEW015 SCT095 BKN130 06/02 A2970 RMK SC1AC2AC5 SLP066=

CYYC;2005-10-16 15:00;METAR CYYC 161500Z 03015KT 40SM FEW008 SCT090 BKN150 OVC240 04/02 A2976 RMK SC1AC2AC2CI0 PRESRR SLP098=

CYYC;2005-10-16 15:22;SPECI CYYC 161522Z 02016G21KT 15SM BKN007 OVC080 04/ RMK SC6AC2=

CYYC;2005-10-16 16:00;METAR CYYC 161600Z 03014G19KT 8SM OVC007 04/02 A2981 RMK SC8 SLP112=

CYYC;2005-10-16 17:00;METAR CYYC 161700Z 02012KT 7SM BKN005 OVC011 03/01 A2984 RMK SC6SC2 VIRGA SLP121=

CYYC;2005-10-16 19:46;SPECI CYYC 161946Z 06002KT 30SM FEW012 OVC024 04/ RMK SC2SC6=

CYYC;2005-10-16 21:00;METAR CYYC 162100Z 12003KT 30SM BKN017 OVC024 05/01 A2980 RMK SC5SC3 SLP122=

CYYC;2005-10-16 22:00;METAR CYYC 162200Z 15006KT 30SM FEW017 BKN022 BKN080 06/01 A2978 RMK SC2SC4AC1 SLP116=

CYYC;2005-10-16 23:00;METAR CYYC 162300Z 18008KT 30SM FEW020 BKN100 BKN230 06/01 A2976 RMK SC2AC2CI2 SLP110=

CYYC;2005-10-17 00:00;METAR CYYC 170000Z 17008KT 30SM FEW020 FEW100 BKN190 06/01 A2976 RMK SC2AC1AC1 VIRGA SLP106=

CYYC;2005-10-17 02:00;METAR CYYC 170200Z 17005KT 15SM FEW090 FEW190 BKN230 03/01 A2976 RMK AC1AC1CI1 SLP105=

CYYC;2005-10-17 03:00;METAR CYYC 170300Z 18003KT 15SM FEW190 BKN230 04/01 A2977 RMK AC1CI2 SLP113=

CYYC;2005-10-17 05:00;METAR CYYC 170500Z 20004KT 15SM SCT210 BKN240 02/01 A2971 RMK CI1CI0 SLP096=

CYYC;2005-10-17 06:00;METAR CYYC 170600Z 20006KT 15SM FEW140 SCT160 BKN240 01/00 A2969 RMK AC1AC2CI0 SLP091=

CYYC;2005-10-17 08:00;METAR CYYC 170800Z 00000KT 15SM SCT140 BKN240 BKN260 01/M01 A2965 RMK AC3CI0CI0 SLP080=

CYYC;2005-10-17 09:00;METAR CYYC 170900Z 00000KT 15SM OVC150 01/M00 A2965 RMK AC6 SLP075=

CYYC;2005-10-17 10:00;METAR CYYC 171000Z 17002KT 15SM BKN150 01/M01 A2964 RMK AC2 SLP071=

CYYC;2005-10-17 11:00;METAR CYYC 171100Z 24004KT 15SM SCT120 BKN250 02/M00 A2964 RMK AC2CI0 SLP071=

CYYC;2005-10-17 12:00;METAR CYYC 171200Z 00000KT 15SM FEW080 SCT120 BKN260 06/01 A2964 RMK AC1AC2CI0 SLP066=

CYYC;2005-10-17 13:00;METAR CYYC 171300Z 36002KT 15SM FEW060 SCT110 BKN190 BKN260 09/03 A2965 RMK SC1AC1AC2CI0 SC TR SLP069=

CYYC;2005-10-17 14:00;METAR CYYC 171400Z 05003KT 40SM FEW040 BKN092 OVC240 06/03 A2967 RMK CU1AC5CI2 CU TR SLP075=

CYYC;2005-10-17 15:00;METAR CYYC 171500Z 01003KT 40SM FEW040 BKN090 BKN230 07/03 A2970 RMK CU1AS6CI2 SLP085=

CYYC;2005-10-17 16:00;METAR CYYC 171600Z 32003KT 40SM FEW040 BKN070 BKN240 08/04 A2972 RMK SC1AC5CI2 VIRGA N SLP091=

CYYC;2005-10-17 18:00;METAR CYYC 171800Z 00000KT 40SM BKN067 OVC240 10/03 A2972 RMK AC6CI1 VIRGA NE-SE SLP091=

CYYC;2005-10-17 19:00;METAR CYYC 171900Z 14007KT 30SM FEW040 SCT070 BKN100 OVC240 11/03 A2972 RMK SC1AC3AC2CI2 VIRGA E-SE SLP093=

CYYC;2005-10-17 20:00;METAR CYYC 172000Z 14003KT 20SM BKN084 OVC210 12/03 A2971 RMK AC6CI2 SHRA DIST SW SLP090=

CYYC;2005-10-17 21:00;METAR CYYC 172100Z 18011KT 20SM FEW040 OVC076 10/05 A2971 RMK SC1AC7 SHRA DIST SW SLP090=

CYYC;2005-10-17 23:39;SPECI CYYC 172339Z 19007KT 20SM FEW070 OVC120 11/ RMK AC2AC6 SHRA DIST E=

CYYC;2005-10-18 00:00;METAR CYYC 180000Z 20007KT 20SM FEW070 OVC110 10/07 A2971 RMK AC2AC6 SLP083=

CYYC;2005-10-18 00:52;SPECI CYYC 180052Z 20009KT 15SM -SHRA BKN056 OVC070 10/ RMK SC5AC3 ACC EMBD=

CYYC;2005-10-18 02:00;METAR CYYC 180200Z 10004KT 15SM BKN060 OVC085 08/07 A2974 RMK SC5AC3 SLP092=

CYYC;2005-10-18 02:40;SPECI CYYC 180240Z 15007KT 15SM -SHRA FEW020 BKN060 OVC086 07/ RMK CF1SC6AC2=

CYYC;2005-10-18 03:22;SPECI CYYC 180322Z 17009KT 15SM VCSH FEW015 BKN060 OVC086 08/ RMK SC1SC6AC2=

CYYC;2005-10-18 04:00;METAR CYYC 180400Z 17005KT 15SM BKN060 OVC073 08/07 A2973 RMK SC5AC3 SLP093=

CYYC;2005-10-18 04:55;SPECI CYYC 180455Z 02011G16KT 15SM FEW007 BKN060 OVC080 07/ RMK SC2SC4AC2=

CYYC;2005-10-18 05:00;METAR CYYC 180500Z 04011G16KT 15SM SCT009 BKN012 OVC090 07/06 A2977 RMK SC4SC2AC2 SLP103=

CYYC;2005-10-18 05:22;SPECI CYYC 180522Z 05013KT 10SM FEW007 OVC016 06/ RMK SC1SC7=

CYYC;2005-10-18 05:33;SPECI CYYC 180533Z 04011KT 10SM FEW004 OVC012 06/ RMK SF1SC8=

CYYC;2005-10-18 05:44;SPECI CYYC 180544Z 05012KT 15SM -SHRA FEW006 OVC018 06/ RMK SC1SC8=

CYYC;2005-10-18 06:00;METAR CYYC 180600Z 05013KT 15SM -SHRA FEW008 OVC024 06/04 A2982 RMK CF1SC8 SLP119=

CYYC;2005-10-18 07:00;METAR CYYC 180700Z 07008KT 15SM -SHRA FEW010 BKN032 OVC060 05/04 A2985 RMK SC1SC5SC2 SLP129=

CYYC;2005-10-18 07:32;SPECI CYYC 180732Z 33004KT 15SM FEW010 SCT028 BKN100 05/ RMK SC1SC3AC3=

CYYC;2005-10-18 08:00;METAR CYYC 180800Z 28005KT 15SM VCSH FEW010 SCT030 BKN083 05/04 A2988 RMK SC1SC3AC3 SLP140=

CYYC;2005-10-18 08:13;SPECI CYYC 180813Z 27006KT 15SM -SHRA FEW010 BKN044 OVC062 05/ RMK SC1SC5SC3=

CYYC;2005-10-18 08:52;SPECI CYYC 180852Z 26006KT 15SM SCT030 BKN065 BKN080 05/ RMK SC3SC2AC1=

CYYC;2005-10-18 09:00;METAR CYYC 180900Z 25006KT 15SM SCT030 BKN060 BKN100 05/04 A2991 RMK SC4SC2AC0 SLP151=

CYYC;2005-10-18 10:00;METAR CYYC 181000Z 26005KT 15SM FEW030 BKN088 05/04 A2993 RMK SC2AC2 SLP157=

CYYC;2005-10-18 11:50;SPECI CYYC 181150Z 22006KT 15SM FEW030 FEW080 02/ RMK SC1AC1=

CYYC;2005-10-18 12:20;SPECI CYYC 181220Z 21005KT 15SM FEW080 02/ RMK AC1=

CYYC;2005-10-18 13:00;METAR CYYC 181300Z 22005KT 15SM FEW020 FEW080 02/01 A2995 RMK SC1AC1 SLP171=

CYYC;2005-10-18 14:00;METAR CYYC 181400Z 21005KT 40SM FEW056 FEW074 FEW240 02/01 A2998 RMK SF1AC2CC1 SLP178=

CYYC;2005-10-18 15:00;METAR CYYC 181500Z 20004KT 40SM FEW075 FEW240 03/02 A2998 RMK AC1CI1 AC+CI TR SLP184=

CYYC;2005-10-18 16:00;METAR CYYC 181600Z 21006KT 40SM FEW260 06/04 A2999 RMK CI1 CI TR SLP188=

CYYC;2005-10-18 17:00;METAR CYYC 181700Z 18006KT 40SM FEW260 08/04 A2998 RMK CI1 CI TR CONTRAILS SLP185=

CYYC;2005-10-18 18:00;METAR CYYC 181800Z 18008KT 40SM FEW260 10/03 A2997 RMK CI0 CONTRAILS SLP173=

CYYC;2005-10-18 19:00;METAR CYYC 181900Z 16013G19KT 40SM FEW260 11/02 A2996 RMK CI0 SLP170=

CYYC;2005-10-18 20:00;METAR CYYC 182000Z 15012KT 40SM FEW040 FEW260 12/03 A2994 RMK CU1CI0 CU TR SLP162=

CYYC;2005-10-18 21:00;METAR CYYC 182100Z 17013KT 40SM FEW050 FEW260 12/03 A2991 RMK SC1CI0 SLP149=

CYYC;2005-10-18 22:00;METAR CYYC 182200Z 17012G17KT 40SM FEW050 FEW250 13/03 A2990 RMK SC1CI0 SC TR SLP146=

CYYC;2005-10-18 23:00;METAR CYYC 182300Z 17011KT 40SM FEW060 FEW250 12/03 A2989 RMK SC1CI1 SC TR SLP143=

CYYC;2005-10-19 00:00;METAR CYYC 190000Z 16010KT 40SM FEW050 FEW120 SCT250 11/04 A2988 RMK SC1AC1CI1 ACSL W/ SC+AC TR SLP144=

CYYC;2005-10-19 01:00;METAR CYYC 190100Z 16007KT 40SM FEW120 SCT260 08/04 A2987 RMK AC1CI1 SLP141=

CYYC;2005-10-19 02:00;METAR CYYC 190200Z 17004KT 15SM FEW120 SCT250 07/03 A2987 RMK AC1CI0 SLP141=

CYYC;2005-10-19 03:00;METAR CYYC 190300Z 18006KT 15SM FEW120 SCT250 07/04 A2987 RMK AC1CI0 SLP148=

CYYC;2005-10-19 04:00;METAR CYYC 190400Z 16007KT 15SM FEW120 SCT240 04/02 A2985 RMK AC1CS0 SLP142=

CYYC;2005-10-19 05:00;METAR CYYC 190500Z 18004KT 15SM FEW050 FEW260 04/02 A2984 RMK SC1CI0 SLP138=

CYYC;2005-10-19 05:35;SPECI CYYC 190535Z 20004KT 15SM FEW050 FEW260 02/ RMK SC1CI0=

CYYC;2005-10-19 06:00;METAR CYYC 190600Z 25002KT 15SM FEW070 SCT260 01/01 A2983 RMK AC1CI0 SLP130=

CYYC;2005-10-19 07:00;METAR CYYC 190700Z 00000KT 15SM FEW250 M01/M01 A2982 RMK CI1 SLP126=

CYYC;2005-10-19 09:00;METAR CYYC 190900Z 01002KT 15SM FEW110 SCT250 M03/M06 A2978 RMK AC1CI0 SLP115=

CYYC;2005-10-19 10:00;METAR CYYC 191000Z 00000KT 15SM FEW110 BKN250 M02/M05 A2977 RMK AC1CI0 FROIN SLP114=

CYYC;2005-10-19 11:00;METAR CYYC 191100Z 31003KT 15SM FEW060 FEW110 BKN250 M01/M03 A2975 RMK SC1AC1CI1 SLP107=

CYYC;2005-10-19 12:00;METAR CYYC 191200Z 20004KT 15SM FEW060 SCT120 BKN240 M01/M04 A2973 RMK SC1AC4CI1 SLP097=

CYYC;2005-10-19 13:00;METAR CYYC 191300Z 19003KT 15SM FEW060 SCT120 BKN240 01/M03 A2971 RMK SC1AC3CI2 SLP092=

CYYC;2005-10-19 14:00;METAR CYYC 191400Z 22003KT 40SM FEW140 BKN210 BKN250 01/M03 A2971 RMK AC0CI3CI1 SLP090=

CYYC;2005-10-19 15:00;METAR CYYC 191500Z 17003KT 40SM BKN100 BKN140 BKN210 BKN250 02/M02 A2969 RMK AC2AC1CI2CI0 SLP085=

CYYC;2005-10-19 16:00;METAR CYYC 191600Z 21003KT 40SM BKN100 BKN140 BKN210 BKN250 06/01 A2969 RMK AC2AC1CI2CI0 SLP085=

CYYC;2005-10-19 18:00;METAR CYYC 191800Z 21005KT 40SM BKN090 BKN240 10/01 A2968 RMK AC7CI1 VIRGA SLP077=

CYYC;2005-10-19 19:00;METAR CYYC 191900Z 22007KT 40SM BKN090 BKN240 11/01 A2967 RMK AC7CI1 VIRGA SLP074=

CYYC;2005-10-19 20:00;METAR CYYC 192000Z 22008KT 40SM FEW085 BKN110 BKN240 13/02 A2965 RMK AC1AS6CI1 SLP068=

CYYC;2005-10-19 21:00;METAR CYYC 192100Z 16005KT 40SM FEW080 BKN097 OVC240 12/02 A2964 RMK AC1AS6CI1 AC EMBD / VIRGA SLP069=

CYYC;2005-10-19 22:00;METAR CYYC 192200Z 25003KT 40SM SCT074 BKN097 OVC240 14/04 A2964 RMK AC3AS3CI1 VIRGA SLP068=

CYYC;2005-10-20 00:12;SPECI CYYC 200012Z 27009G19KT 40SM -RA BKN071 OVC085 14/ RMK AS7AC1=

CYYC;2005-10-20 01:00;METAR CYYC 200100Z 28019KT 30SM -RA OVC072 13/04 A2966 RMK AC8 SLP068=

CYYC;2005-10-20 01:55;SPECI CYYC 200155Z 28011G17KT 15SM OVC081 12/ RMK AC8=

CYYC;2005-10-20 02:00;METAR CYYC 200200Z 28012G17KT 15SM BKN062 OVC080 13/04 A2967 RMK SC5AC3 SLP073=

CYYC;2005-10-20 03:00;METAR CYYC 200300Z 28013G18KT 15SM -RA BKN057 OVC080 12/04 A2970 RMK SC5AC3 SLP081=

CYYC;2005-10-20 04:00;METAR CYYC 200400Z 35014G19KT 15SM FEW061 OVC110 09/02 A2974 RMK SC1AC7 SLP094=

CYYC;2005-10-20 04:10;SPECI CYYC 200410Z 34019G24KT 15SM FEW060 OVC110 09/ RMK SC1AC7=

CYYC;2005-10-20 06:00;METAR CYYC 200600Z 34014KT 15SM FEW080 BKN160 OVC240 06/M02 A2982 RMK AC1AC4CI2 SLP120=

CYYC;2005-10-20 08:00;METAR CYYC 200800Z 35009KT 15SM FEW110 FEW240 03/00 A2989 RMK AC1CI2 SLP141=

CYYC;2005-10-20 09:00;METAR CYYC 200900Z 35008KT 15SM BKN016 OVC240 04/01 A2991 RMK ST5CI2 SLP153=

CYYC;2005-10-20 09:18;SPECI CYYC 200918Z 35007KT 15SM OVC014 04/ RMK ST8=

CYYC;2005-10-20 09:42;SPECI CYYC 200942Z 36014G19KT 15SM BKN050 04/ RMK SC6=

CYYC;2005-10-20 10:00;METAR CYYC 201000Z 36011KT 15SM SCT080 BKN240 04/02 A2994 RMK AS3CI2 SLP161=

CYYC;2005-10-20 11:00;METAR CYYC 201100Z 32003KT 15SM FEW035 BKN046 04/02 A2997 RMK SC2SC5 SLP170=

CYYC;2005-10-20 12:34;SPECI CYYC 201234Z 34015G20KT 15SM -RA FEW019 OVC036 03/ RMK SF1SC7=

CYYC;2005-10-20 13:00;METAR CYYC 201300Z 35010G15KT 10SM -RA OVC060 03/02 A3002 RMK SC8 SLP185=

CYYC;2005-10-20 13:32;SPECI CYYC 201332Z 35010KT 10SM FEW010 OVC054 03/ RMK SC1SC7=

CYYC;2005-10-20 13:52;SPECI CYYC 201352Z 34010KT 15SM -RA BKN010 OVC054 03/ RMK SC2SC6=

CYYC;2005-10-20 14:00;METAR CYYC 201400Z 35014KT 15SM -RA BKN011 OVC054 02/01 A3005 RMK SC4SC4 SLP193=

CYYC;2005-10-20 14:47;SPECI CYYC 201447Z 34010KT 2 1/2SM -RASN OVC009 02/ RMK SC8=

CYYC;2005-10-20 15:00;METAR CYYC 201500Z 34010KT 2 1/2SM -RASN OVC009 01/00 A3008 RMK SC8 SLP215=

CYYC;2005-10-20 15:22;SPECI CYYC 201522Z 35008KT 6SM -RASN BKN009 OVC054 01/ RMK SC3SC4=

CYYC;2005-10-20 15:39;SPECI CYYC 201539Z 35010KT 20SM -RA FEW009 SCT028 OVC052 02/ RMK SC1SC2SC5=

CYYC;2005-10-20 16:00;METAR CYYC 201600Z 34009KT 20SM -RA SCT009 SCT028 OVC047 01/01 A3010 RMK SC1SC2SC5 PCPN VRY LGT SLP221=

CYYC;2005-10-20 17:00;METAR CYYC 201700Z 33008KT 15SM -RASN SCT009 SCT028 OVC041 02/00 A3013 RMK SC1SC1SC6 SLP230=

CYYC;2005-10-20 17:40;SPECI CYYC 201740Z 33008KT 2 1/2SM -RASN FEW009 OVC025 01/ RMK SC1SC8=

CYYC;2005-10-20 18:00;METAR CYYC 201800Z 32009KT 2 1/2SM -RASN FEW009 BKN025 OVC048 01/00 A3015 RMK SC1SC7SC1 SLP247=

CYYC;2005-10-20 18:31;SPECI CYYC 201831Z 33006KT 3SM -RASN FEW009 BKN025 OVC048 01/ RMK SC1SC6SC2=

CYYC;2005-10-20 19:00;METAR CYYC 201900Z 32007KT 5SM -RASN FEW009 BKN024 OVC048 02/01 A3016 RMK SC1SC5SC3 PCPN VRY LGT SLP250=

CYYC;2005-10-20 19:23;SPECI CYYC 201923Z 32008KT 5SM -RA FEW009 SCT024 OVC054 02/ RMK SC1SC2SC6 PCPN VRY LGT=

CYYC;2005-10-20 20:00;METAR CYYC 202000Z 29005KT 7SM -RASN FEW009 BKN057 03/01 A3016 RMK SC1SC7 PCPN VRY LGT SLP252=

CYYC;2005-10-20 20:18;SPECI CYYC 202018Z 31006KT 20SM -RA FEW009 OVC057 03/ RMK SC1SC8 PCPN VRY LGT=

CYYC;2005-10-20 20:45;SPECI CYYC 202045Z 32007KT 20SM FEW009 FEW026 BKN058 OVC069 03/ RMK SC1SC0SC7AC1=

CYYC;2005-10-20 21:00;METAR CYYC 202100Z 34009KT 20SM FEW009 FEW026 BKN058 BKN065 03/M01 A3018 RMK SC1SC0SC6SC1 SLP257=

CYYC;2005-10-20 21:23;SPECI CYYC 202123Z 32008KT 20SM -RA FEW009 FEW026 BKN058 BKN065 03/ RMK SC1SC0SC6SC1=

CYYC;2005-10-20 21:55;SPECI CYYC 202155Z 32007KT 20SM FEW026 BKN060 BKN072 03/ RMK SC1SC6AC2=

CYYC;2005-10-20 22:00;METAR CYYC 202200Z 33006KT 20SM FEW026 BKN060 BKN072 03/M01 A3019 RMK SC1SC6AC2 SLP261=

CYYC;2005-10-20 23:00;METAR CYYC 202300Z 27004KT 20SM FEW026 BKN063 BKN100 04/M00 A3021 RMK SC1SC6AC1 SLP266=

CYYC;2005-10-21 00:00;METAR CYYC 210000Z 25007KT 30SM FEW020 FEW063 03/M01 A3022 RMK SC1SC1 LWR SC TR SLP272=

CYYC;2005-10-21 01:00;METAR CYYC 210100Z 23007KT 20SM FEW060 01/M02 A3023 RMK SC1 SLP275=

CYYC;2005-10-21 03:00;METAR CYYC 210300Z 22006KT 15SM SKC M01/M03 A3024 RMK SLP290=

CYYC;2005-10-21 04:00;METAR CYYC 210400Z 22006KT 15SM SKC M02/M04 A3026 RMK SLP296=

CYYC;2005-10-21 05:00;METAR CYYC 210500Z 22005KT 15SM SKC M02/M04 A3026 RMK SLP297=

CYYC;2005-10-21 06:00;METAR CYYC 210600Z 20005KT 15SM SKC M03/M05 A3027 RMK SLP303=

CYYC;2005-10-21 07:00;METAR CYYC 210700Z 21005KT 15SM SKC M04/M05 A3027 RMK SLP303=

CYYC;2005-10-21 09:00;METAR CYYC 210900Z 19003KT 15SM SKC M03/M05 A3026 RMK SLP298=

CYYC;2005-10-21 10:00;METAR CYYC 211000Z 19003KT 15SM SKC M04/M05 A3026 RMK SLP297=

CYYC;2005-10-21 11:00;METAR CYYC 211100Z 23003KT 15SM SKC M05/M06 A3026 RMK SLP297=

CYYC;2005-10-21 12:00;METAR CYYC 211200Z 00000KT 15SM SKC M05/M06 A3026 RMK SLP298=

CYYC;2005-10-21 13:00;METAR CYYC 211300Z 00000KT 15SM SKC M06/M08 A3025 RMK SLP297=

CYYC;2005-10-21 14:00;METAR CYYC 211400Z 00000KT 40SM SKC M06/M08 A3025 RMK SLP296=

CYYC;2005-10-21 15:00;METAR CYYC 211500Z 00000KT 40SM FEW240 M04/M06 A3025 RMK CI1 SLP301=

CYYC;2005-10-21 16:00;METAR CYYC 211600Z 00000KT 40SM FEW240 M02/M04 A3025 RMK CI1 SLP301=

CYYC;2005-10-21 17:00;METAR CYYC 211700Z 00000KT 40SM FEW240 02/M02 A3026 RMK CI1 SLP302=

CYYC;2005-10-21 21:00;METAR CYYC 212100Z 18002KT 40SM FEW240 10/M03 A3021 RMK CI0 SLP269=

CYYC;2005-10-21 22:00;METAR CYYC 212200Z 14003KT 40SM FEW240 10/M05 A3020 RMK CI0 SLP266=

CYYC;2005-10-21 23:00;METAR CYYC 212300Z 13004KT 30SM FEW240 09/M03 A3020 RMK CI0 SLP265=

CYYC;2005-10-22 00:00;METAR CYYC 220000Z 13006KT 30SM SCT240 07/M03 A3019 RMK CI0 SLP269=

CYYC;2005-10-22 01:00;METAR CYYC 220100Z 16004KT 20SM SCT250 05/M03 A3019 RMK CI0 SLP268=

CYYC;2005-10-22 02:00;METAR CYYC 220200Z 15005KT 15SM FEW240 04/M03 A3019 RMK CI0 SLP268=

CYYC;2005-10-22 03:00;METAR CYYC 220300Z 20004KT 15SM FEW240 02/M01 A3019 RMK CI0 SLP275=

CYYC;2005-10-22 04:00;METAR CYYC 220400Z 16004KT 15SM BKN260 02/M01 A3018 RMK CI0 SLP272=

CYYC;2005-10-22 05:00;METAR CYYC 220500Z 16002KT 15SM FEW120 SCT260 01/M02 A3018 RMK AC1CI0 SLP270=

CYYC;2005-10-22 06:00;METAR CYYC 220600Z 19002KT 15SM FEW120 SCT240 01/M02 A3016 RMK AC1CI0 SLP254=

CYYC;2005-10-22 07:00;METAR CYYC 220700Z 19003KT 15SM FEW012 FEW120 FEW240 01/M02 A3016 RMK ST1AC1CI0 SLP253=

CYYC;2005-10-22 08:00;METAR CYYC 220800Z 16002KT 15SM FEW120 M02/M04 A3015 RMK AC1 SLP250=

CYYC;2005-10-22 09:00;METAR CYYC 220900Z 21003KT 15SM SKC M02/M04 A3015 RMK FROIN SLP246=

CYYC;2005-10-22 10:00;METAR CYYC 221000Z 19006KT 15SM SKC M01/M02 A3013 RMK FROIN SLP241=

CYYC;2005-10-22 11:00;METAR CYYC 221100Z 18005KT 15SM SKC M01/M02 A3012 RMK FROIN SLP238=

CYYC;2005-10-22 12:00;METAR CYYC 221200Z 18005KT 15SM FEW240 M01/M02 A3012 RMK CI0 FROIN SLP238=

CYYC;2005-10-22 13:00;METAR CYYC 221300Z 18003KT 15SM FEW240 M02/M03 A3011 RMK CI1 SLP237=

CYYC;2005-10-22 14:00;METAR CYYC 221400Z 18004KT 30SM FEW240 M02/M03 A3011 RMK CI0 SLP235=

CYYC;2005-10-22 15:00;METAR CYYC 221500Z 17003KT 40SM FEW040 FEW240 M01/M02 A3010 RMK SC1CI1 SLP239=

CYYC;2005-10-22 15:36;SPECI CYYC 221536Z 16004KT 30SM FEW020 FEW240 M01/ RMK ST1CI0 VIS NE-S 6=

CYYC;2005-10-22 15:46;SPECI CYYC 221546Z 15005KT 30SM FEW010 FEW240 M01/ RMK ST1CI0 FOG BANK=

CYYC;2005-10-22 16:00;METAR CYYC 221600Z 16005KT 30SM SKC M00/M01 A3011 RMK VIS E-ES 2 SLP242=

CYYC;2005-10-22 16:48;SPECI CYYC 221648Z 15008KT 30SM FEW020 01/ RMK ST1 VIS NE- SE 11/4=

CYYC;2005-10-22 17:00;METAR CYYC 221700Z 14007KT 1/2SM FG OVC002 01/01 A3011 RMK ST8 RVR RWY16 6000 FT SLP241=

CYYC;2005-10-22 17:10;SPECI CYYC 221710Z 15008KT 1/4SM FG OVC001 01/ RMK ST8 RVR RWY16 2000 FT=

CYYC;2005-10-22 18:00;METAR CYYC 221800Z 17009KT 3/8SM FG OVC002 01/01 A3010 RMK ST8 VIS SE 1 RVR RWY16 6000FT SLP239=

CYYC;2005-10-22 18:15;SPECI CYYC 221815Z 17009KT 3SM BR OVC003 02/ RMK ST8=

CYYC;2005-10-22 18:27;SPECI CYYC 221827Z 17010KT 3SM BR BKN005 02/ RMK ST5=

CYYC;2005-10-22 20:00;METAR CYYC 222000Z 18013KT 25SM SKC 07/02 A3007 RMK SF TR SLP228=

CYYC;2005-10-22 21:00;METAR CYYC 222100Z 18011KT 30SM SKC 09/03 A3006 RMK SLP215=

CYYC;2005-10-22 22:00;METAR CYYC 222200Z 17014KT 30SM SKC 09/03 A3004 RMK SLP210=

CYYC;2005-10-22 23:00;METAR CYYC 222300Z 16011G16KT 30SM SKC 09/02 A3004 RMK SLP209=

CYYC;2005-10-23 00:00;METAR CYYC 230000Z 17010KT 30SM SKC 08/03 A3003 RMK SLP205=

CYYC;2005-10-23 01:00;METAR CYYC 230100Z 15009KT 40SM SKC 06/03 A3003 RMK SLP204=

CYYC;2005-10-23 03:00;METAR CYYC 230300Z 17009KT 15SM FEW240 04/01 A3000 RMK CI0 SLP202=

CYYC;2005-10-23 04:00;METAR CYYC 230400Z 17007KT 15SM FEW260 03/01 A2999 RMK CI0 SLP197=

CYYC;2005-10-23 04:29;SPECI CYYC 230429Z 18004KT 15SM FEW260 02/ RMK CI0=

CYYC;2005-10-23 05:00;METAR CYYC 230500Z 17008KT 15SM FEW260 02/01 A2998 RMK CI0 SLP195=

CYYC;2005-10-23 06:00;METAR CYYC 230600Z 18007KT 15SM FEW260 03/01 A2996 RMK CI0 SLP188=

CYYC;2005-10-23 06:07;SPECI CYYC 230607Z 18007KT 15SM FEW260 02/ RMK CI0=

CYYC;2005-10-23 07:00;METAR CYYC 230700Z 20006KT 15SM FEW260 01/01 A2995 RMK CI0 SLP185=

CYYC;2005-10-23 08:00;METAR CYYC 230800Z 20005KT 15SM SKC M00/M01 A2994 RMK SLP181=

CYYC;2005-10-23 09:00;METAR CYYC 230900Z 16006KT 15SM SKC M00/M01 A2993 RMK SLP168=

CYYC;2005-10-23 10:00;METAR CYYC 231000Z 17003KT 15SM SKC M01/M02 A2991 RMK FROIN SLP164=

CYYC;2005-10-23 11:00;METAR CYYC 231100Z 19004KT 15SM FEW260 M01/M02 A2990 RMK CI1 SLP160=

CYYC;2005-10-23 12:00;METAR CYYC 231200Z 20006KT 15SM VCFG FEW260 M01/M02 A2990 RMK CI0 FROIN SLP160=

CYYC;2005-10-23 13:00;METAR CYYC 231300Z 21009KT 15SM FEW120 FEW260 01/M00 A2989 RMK AC1CI1 FROIN SLP158=

CYYC;2005-10-23 14:00;METAR CYYC 231400Z 21010KT 40SM FEW100 02/M00 A2988 RMK AC1 SLP156=

CYYC;2005-10-23 15:00;METAR CYYC 231500Z 25013KT 40SM FEW070 FEW100 05/02 A2988 RMK AC1AC1 SLP152=

CYYC;2005-10-23 16:00;METAR CYYC 231600Z 19004KT 40SM FEW070 FEW240 08/03 A2990 RMK AC1CI0 SLP156=

CYYC;2005-10-23 17:00;METAR CYYC 231700Z 21007KT 40SM FEW070 FEW240 13/04 A2989 RMK AC1CI0 SLP155=

CYYC;2005-10-23 18:00;METAR CYYC 231800Z 19004KT 40SM FEW070 FEW240 17/05 A2989 RMK AC1CI0 SLP139=

CYYC;2005-10-23 19:00;METAR CYYC 231900Z 19006KT 40SM FEW060 SCT250 17/05 A2989 RMK SC1CI2 SLP140=

CYYC;2005-10-23 20:00;METAR CYYC 232000Z 20003KT 40SM FEW080 FEW250 19/04 A2989 RMK AC1CI1 ACSL SLP139=

CYYC;2005-10-23 21:00;METAR CYYC 232100Z 10002KT 40SM FEW080 FEW140 FEW250 20/02 A2988 RMK AC1AC1CI0 ACSL S SLP136=

CYYC;2005-10-23 22:00;METAR CYYC 232200Z 06002KT 40SM FEW080 FEW140 SCT250 20/02 A2987 RMK AC1AC1CI0 ACSL SLP134=

CYYC;2005-10-23 23:00;METAR CYYC 232300Z 15004KT 40SM FEW080 SCT140 BKN250 17/04 A2987 RMK AC2AC2CI1 ACSL SLP134=

CYYC;2005-10-24 01:00;METAR CYYC 240100Z 15005KT 40SM FEW100 BKN150 BKN250 14/04 A2987 RMK AC1AC5CI1 SLP140=

CYYC;2005-10-24 03:00;METAR CYYC 240300Z 19006KT 15SM FEW040 BKN190 BKN220 11/06 A2986 RMK ST1AC5CI1 ST TR SLP135=

CYYC;2005-10-24 04:00;METAR CYYC 240400Z 21004KT 15SM BKN190 BKN220 11/06 A2987 RMK AC5CI1 SLP137=

CYYC;2005-10-24 05:00;METAR CYYC 240500Z 22005KT 15SM FEW190 BKN230 10/04 A2986 RMK AC2CI2 SLP135=

CYYC;2005-10-24 06:00;METAR CYYC 240600Z 28002KT 15SM BKN240 09/04 A2987 RMK CI6 SLP124=

CYYC;2005-10-24 07:00;METAR CYYC 240700Z 21004KT 15SM BKN260 07/03 A2988 RMK CI4 SLP126=

CYYC;2005-10-24 08:00;METAR CYYC 240800Z 00000KT 15SM BKN260 07/03 A2988 RMK CI4 SLP128=

CYYC;2005-10-24 09:00;METAR CYYC 240900Z 24004KT 15SM FEW220 SCT260 07/02 A2989 RMK CC2CI1 SLP130=

CYYC;2005-10-24 10:00;METAR CYYC 241000Z 00000KT 15SM FEW220 06/02 A2990 RMK CC2 CS TR SLP132=

CYYC;2005-10-24 11:00;METAR CYYC 241100Z 19004KT 15SM FEW220 05/01 A2991 RMK CI1 SLP135=

CYYC;2005-10-24 12:00;METAR CYYC 241200Z 19006KT 15SM FEW260 05/00 A2991 RMK CI0 SLP147=

CYYC;2005-10-24 13:00;METAR CYYC 241300Z 21006KT 15SM FEW260 04/00 A2991 RMK CI0 SLP147=

CYYC;2005-10-24 14:00;METAR CYYC 241400Z 23003KT 40SM FEW070 FEW240 05/01 A2992 RMK AC1CI1 AC TR SLP150=

CYYC;2005-10-24 15:00;METAR CYYC 241500Z 00000KT 40SM FEW040 FEW100 FEW250 02/00 A2993 RMK CU1AC1CI1 CU+AC TR SLP163=

CYYC;2005-10-24 16:00;METAR CYYC 241600Z 00000KT 40SM FEW045 FEW120 FEW250 08/03 A2996 RMK CU1AC1CI1 ALL CLDS TR SLP171=

CYYC;2005-10-24 17:00;METAR CYYC 241700Z 23004KT 40SM FEW060 FEW250 17/02 A2998 RMK CU1CI1 SLP177=

CYYC;2005-10-24 18:00;METAR CYYC 241800Z 31007KT 40SM FEW120 FEW250 19/01 A2998 RMK AC1CI1 AC+CI TR SLP160=

CYYC;2005-10-24 21:00;METAR CYYC 242100Z 19006KT 40SM FEW180 21/M00 A3001 RMK AC1 AC TR SLP171=

CYYC;2005-10-24 22:00;METAR CYYC 242200Z 19008KT 40SM FEW120 FEW180 20/M00 A3003 RMK AC1AC1 CLDS TR SLP175=

CYYC;2005-10-25 00:00;METAR CYYC 250000Z 18005KT 40SM FEW140 FEW250 16/00 A3004 RMK AC1CI0 SLP189=

CYYC;2005-10-25 01:00;METAR CYYC 250100Z 11003KT 20SM FEW140 FEW240 11/01 A3005 RMK AC1CI0 SLP192=

CYYC;2005-10-25 02:00;METAR CYYC 250200Z 00000KT 15SM FEW260 12/00 A3005 RMK CI0 SLP192=

CYYC;2005-10-25 03:00;METAR CYYC 250300Z 34007KT 15SM FEW250 08/00 A3005 RMK CI0 SLP207=

CYYC;2005-10-25 04:00;METAR CYYC 250400Z 33008KT 15SM BKN240 05/M00 A3006 RMK CI2 SLP210=

CYYC;2005-10-25 06:00;METAR CYYC 250600Z 00000KT 15SM BKN230 03/M01 A3006 RMK CI4 SLP194=

CYYC;2005-10-25 06:06;SPECI CYYC 250606Z 00000KT 15SM BKN230 02/ RMK CI4=

CYYC;2005-10-25 07:00;METAR CYYC 250700Z 20003KT 15SM BKN240 05/01 A3005 RMK CI3 SLP193=

CYYC;2005-10-25 08:00;METAR CYYC 250800Z 19002KT 15SM FEW240 04/00 A3005 RMK CI0 SLP191=

CYYC;2005-10-25 09:00;METAR CYYC 250900Z 00000KT 15SM FEW240 02/M02 A3004 RMK CI0 SLP188=

CYYC;2005-10-25 10:00;METAR CYYC 251000Z 00000KT 15SM FEW100 FEW240 02/M02 A3003 RMK AC1CI0 SLP184=

CYYC;2005-10-25 11:00;METAR CYYC 251100Z 00000KT 15SM FEW240 02/M02 A3001 RMK CI0 SLP178=

CYYC;2005-10-25 12:00;METAR CYYC 251200Z 34003KT 15SM FEW240 02/M02 A2999 RMK CI0 SLP178=

CYYC;2005-10-25 13:00;METAR CYYC 251300Z 20002KT 15SM FEW180 02/M02 A2998 RMK AC1 SLP174=

CYYC;2005-10-25 14:00;METAR CYYC 251400Z 21004KT 20SM FEW160 BKN250 02/M02 A2997 RMK AC2CI2 SLP171=

CYYC;2005-10-25 15:00;METAR CYYC 251500Z 22005KT 40SM SCT160 BKN240 02/M00 A2996 RMK AC2CI2 SLP176=

CYYC;2005-10-25 16:00;METAR CYYC 251600Z 19006KT 40SM FEW160 BKN240 07/01 A2996 RMK AC1CI2 SLP177=

CYYC;2005-10-25 17:00;METAR CYYC 251700Z 21005KT 30SM FEW160 FEW240 10/01 A2994 RMK AC1CI1 SLP170=

CYYC;2005-10-25 18:00;METAR CYYC 251800Z 19008KT 30SM FEW140 FEW240 14/02 A2992 RMK AC1CI1 AC TR SLP153=

CYYC;2005-10-25 19:00;METAR CYYC 251900Z 20007KT 20SM FEW140 FEW240 16/04 A2989 RMK AC1CI1 SLP145=

CYYC;2005-10-25 20:00;METAR CYYC 252000Z 17013KT 20SM FEW140 FEW250 21/03 A2985 RMK AC1CI1 BOTH CLDS TR SLP134=

CYYC;2005-10-25 21:00;METAR CYYC 252100Z 18009KT 20SM FEW140 21/05 A2983 RMK AC1 AC TR SLP113=

CYYC;2005-10-25 22:00;METAR CYYC 252200Z 15010KT 20SM FEW140 FEW250 22/04 A2981 RMK AC1CI1 CLDS TR SLP106=

CYYC;2005-10-25 23:00;METAR CYYC 252300Z 15013KT 20SM FEW140 FEW250 20/04 A2979 RMK AC1CI1 AC+CI TR SLP102=

CYYC;2005-10-26 00:00;METAR CYYC 260000Z 16010KT 20SM FEW090 FEW140 FEW250 17/04 A2979 RMK AC1AC1CI1 LWR AC+CI TR SLP104=

CYYC;2005-10-26 01:00;METAR CYYC 260100Z 13009KT 20SM FEW090 13/04 A2978 RMK AC1 AC TR SLP101=

CYYC;2005-10-26 02:00;METAR CYYC 260200Z 16005KT 15SM SKC 11/05 A2977 RMK SLP098=

CYYC;2005-10-26 03:00;METAR CYYC 260300Z 18010KT 15SM FEW240 11/05 A2974 RMK CI1 SLP097=

CYYC;2005-10-26 05:00;METAR CYYC 260500Z 17004KT 15SM SKC 08/05 A2969 RMK SLP083=

CYYC;2005-10-26 06:00;METAR CYYC 260600Z 19004KT 15SM SKC 08/05 A2970 RMK SLP069=

CYYC;2005-10-26 08:00;METAR CYYC 260800Z 20004KT 15SM FEW100 FEW240 08/02 A2966 RMK AC1CI0 SLP059=

CYYC;2005-10-26 10:00;METAR CYYC 261000Z 19010KT 15SM FEW100 FEW180 10/02 A2965 RMK AC1AC1 SLP043=

CYYC;2005-10-26 11:00;METAR CYYC 261100Z 18008KT 15SM FEW100 FEW200 11/01 A2965 RMK AC1CI2 SLP042=

CYYC;2005-10-26 12:00;METAR CYYC 261200Z 18014KT 15SM BKN220 13/02 A2964 RMK CI5 SLP037=

CYYC;2005-10-26 13:00;METAR CYYC 261300Z 18013KT 15SM BKN240 11/02 A2963 RMK CI4 SLP036=

CYYC;2005-10-26 14:00;METAR CYYC 261400Z 18014G19KT 15SM FEW100 BKN210 BKN250 11/03 A2964 RMK AC1CI2CI0 SLP037=

CYYC;2005-10-26 15:00;METAR CYYC 261500Z 19013KT 40SM FEW100 BKN240 BKN260 11/03 A2964 RMK AC1CI3CI2 SLP051=

CYYC;2005-10-26 16:00;METAR CYYC 261600Z 18014KT 40SM FEW090 SCT240 BKN260 13/03 A2966 RMK AC1CI1CI0 SLP058=

CYYC;2005-10-26 17:00;METAR CYYC 261700Z 19015KT 40SM FEW090 FEW240 BKN260 15/03 A2968 RMK AC1CI1CI2 SLP062=

CYYC;2005-10-26 18:00;METAR CYYC 261800Z 17012G18KT 40SM FEW090 FEW230 BKN260 15/02 A2969 RMK AC1CI1CI6 SLP064=

CYYC;2005-10-26 19:00;METAR CYYC 261900Z 16011KT 40SM FEW090 FEW230 BKN260 17/01 A2970 RMK AC1CI1CI5 SLP067=

CYYC;2005-10-26 21:00;METAR CYYC 262100Z 32010G15KT 40SM FEW090 BKN220 BKN260 14/M00 A2973 RMK AC1CI6CI1 SLP079=

CYYC;2005-10-26 22:00;METAR CYYC 262200Z 33014G19KT 40SM BKN110 BKN220 BKN260 13/01 A2976 RMK AC2CI4CI1 SLP088=

CYYC;2005-10-26 23:00;METAR CYYC 262300Z 01017KT 40SM BKN110 OVC220 11/00 A2978 RMK AC6CI2 SLP096=

CYYC;2005-10-27 00:00;METAR CYYC 270000Z 02015KT 40SM BKN110 OVC220 09/00 A2983 RMK AC7CI1 VIRGA SLP114=

CYYC;2005-10-27 00:43;SPECI CYYC 270043Z 02017KT 20SM -RA FEW060 BKN100 OVC220 08/ RMK SC1AC7CI1=

CYYC;2005-10-27 01:00;METAR CYYC 270100Z 03014G22KT 15SM -RA SCT060 OVC100 07/M02 A2985 RMK SC1AC7 PCPN VRY LGT SLP120=

CYYC;2005-10-27 01:14;SPECI CYYC 270114Z 02013G20KT 15SM SCT060 OVC100 07/ RMK SC1AC7=

CYYC;2005-10-27 02:00;METAR CYYC 270200Z 36013KT 15SM OVC057 07/M05 A2988 RMK SC8 VIRGA S-W SLP131=

CYYC;2005-10-27 03:00;METAR CYYC 270300Z 35006KT 12SM -RA FEW033 OVC059 05/M00 A2992 RMK SC2SC6 SLP156=

CYYC;2005-10-27 04:00;METAR CYYC 270400Z 34007KT 15SM -RA BKN016 OVC034 04/03 A2993 RMK SC5SC3 SLP160=

CYYC;2005-10-27 05:06;SPECI CYYC 270506Z 35009KT 15SM -SN SCT014 OVC020 04/ RMK SC4SC4 SN VRY LGT=

CYYC;2005-10-27 06:00;METAR CYYC 270600Z 02010KT 15SM -SN BKN015 OVC024 03/02 A2996 RMK SC6SC2 SN VRY LGT SLP167=

CYYC;2005-10-27 07:00;METAR CYYC 270700Z 36007KT 15SM -SN FEW020 OVC047 02/01 A2997 RMK SC1SC7 SN WET+VRY LGT SLP168=

CYYC;2005-10-27 08:00;METAR CYYC 270800Z 33009KT 15SM -SN OVC044 02/01 A2996 RMK SC8 SLP165=

CYYC;2005-10-27 09:00;METAR CYYC 270900Z 33011KT 15SM -SN FEW040 OVC064 02/01 A2996 RMK SC2SC6 SN VRY LGT SLP170=

CYYC;2005-10-27 09:46;SPECI CYYC 270946Z 32009KT 15SM OVC061 02/ RMK SC8=

CYYC;2005-10-27 11:00;METAR CYYC 271100Z 34008KT 15SM BKN063 OVC070 02/00 A2996 RMK SC6AC2 SLP169=

CYYC;2005-10-27 12:00;METAR CYYC 271200Z 33008KT 15SM OVC069 02/00 A2994 RMK AC8 SLP170=

CYYC;2005-10-27 13:00;METAR CYYC 271300Z 33006KT 15SM OVC068 02/00 A2996 RMK AC8 SLP174=

CYYC;2005-10-27 14:00;METAR CYYC 271400Z 33006KT 15SM OVC085 02/00 A2996 RMK AC8 SLP174=

CYYC;2005-10-27 15:00;METAR CYYC 271500Z 33003KT 30SM SCT065 BKN086 BKN260 02/00 A2996 RMK SC3AC2CI1 SLP182=

CYYC;2005-10-27 16:00;METAR CYYC 271600Z 35004KT 30SM FEW050 SCT069 BKN086 BKN260 02/00 A2995 RMK SC1AC4AC2CC1 SC TR SLP180=

CYYC;2005-10-27 19:00;METAR CYYC NIL=

CYYC;2005-10-27 20:00;METAR CYYC 272000Z 16003KT 40SM FEW060 BKN082 BKN260 06/M08 A2989 RMK CU1AC5CI1 CU TR WND ESTD SLP157=

CYYC;2005-10-27 21:00;METAR CYYC 272100Z 04003KT 40SM FEW062 SCT072 BKN260 07/M08 A2988 RMK CU1AC4CI1 CU TR SLP151=

CYYC;2005-10-27 22:00;METAR CYYC 272200Z 30005KT 40SM FEW045 SCT086 BKN260 07/M08 A2987 RMK CU1AC3CI1 CU TR SLP149=

CYYC;2005-10-28 00:00;METAR CYYC 280000Z 03005KT 25SM FEW060 SCT070 BKN260 03/M07 A2986 RMK CU1AC3CI0 ACSL SLP151=

CYYC;2005-10-28 00:13;SPECI CYYC 280013Z 05005KT 25SM FEW060 SCT070 BKN260 02/ RMK CU1AC3CI0 ACSL=

CYYC;2005-10-28 01:00;METAR CYYC 280100Z 07004KT 15SM FEW120 01/M07 A2985 RMK AC2 CI TR SLP149=

CYYC;2005-10-28 02:00;METAR CYYC 280200Z 00000KT 15SM FEW100 02/M07 A2986 RMK AC2 SLP152=

CYYC;2005-10-28 03:00;METAR CYYC 280300Z 07003KT 15SM FEW090 M00/M07 A2986 RMK AC2 SLP154=

CYYC;2005-10-28 04:00;METAR CYYC 280400Z 00000KT 15SM FEW090 M00/M06 A2985 RMK AC1 AC TR SLP151=

CYYC;2005-10-28 05:00;METAR CYYC 280500Z 00000KT 15SM FEW090 M00/M05 A2985 RMK AC1 AC TR SLP152=

CYYC;2005-10-28 06:00;METAR CYYC 280600Z 04002KT 15SM SKC M03/M06 A2983 RMK SLP142=

CYYC;2005-10-28 08:00;METAR CYYC 280800Z 34002KT 15SM FEW240 M05/M06 A2979 RMK CI2 SLP131=

CYYC;2005-10-28 09:00;METAR CYYC 280900Z 01004KT 15SM FEW240 M06/M07 A2979 RMK CI2 SLP130=

CYYC;2005-10-28 10:00;METAR CYYC 281000Z 00000KT 15SM FEW240 M05/M06 A2977 RMK CI1 CI TR SLP124=

CYYC;2005-10-28 11:00;METAR CYYC 281100Z 00000KT 15SM FEW240 M05/M06 A2976 RMK CI0 SLP121=

CYYC;2005-10-28 12:00;METAR CYYC 281200Z 16004KT 15SM SCT160 OVC230 M04/M05 A2975 RMK AC3CI4 SLP120=

CYYC;2005-10-28 13:00;METAR CYYC 281300Z 00000KT 15SM FEW160 SCT220 M05/M06 A2975 RMK AC1CI2 SLP119=

CYYC;2005-10-28 14:00;METAR CYYC 281400Z 00000KT 20SM FEW180 FEW260 M05/M06 A2974 RMK AC0CI0 SLP118=

CYYC;2005-10-28 15:00;METAR CYYC 281500Z 00000KT 40SM FEW180 FEW260 M04/M06 A2975 RMK AC0CI0 SLP124=

CYYC;2005-10-28 16:00;METAR CYYC 281600Z 21003KT 40SM FEW040 FEW180 FEW260 M01/M03 A2975 RMK CU1AC1CI0 CU TR SLP125=

CYYC;2005-10-28 17:00;METAR CYYC 281700Z 19002KT 40SM FEW050 FEW180 FEW220 01/M02 A2975 RMK CU1AC1CI0 CU TR SLP124=

CYYC;2005-10-28 18:00;METAR CYYC 281800Z 22003KT 40SM FEW050 BKN150 BKN260 03/M02 A2974 RMK CU1AC2CI0 SLP115=

CYYC;2005-10-28 19:00;METAR CYYC 281900Z 16004KT 40SM FEW060 BKN160 BKN230 05/M02 A2973 RMK CU1AC2CI0 CU TR SLP111=

CYYC;2005-10-28 20:00;METAR CYYC 282000Z 14004KT 40SM FEW060 SCT110 BKN130 BKN260 06/M02 A2972 RMK CU1AS2AC2CI0 SLP108=

CYYC;2005-10-28 21:00;METAR CYYC 282100Z 18006KT 40SM FEW060 SCT120 BKN140 BKN260 08/M02 A2970 RMK CU1AS2AC2CI0 CU TR SLP099=

CYYC;2005-10-28 22:00;METAR CYYC 282200Z 18006KT 40SM FEW060 SCT150 09/M03 A2970 RMK CU1AC2 CU TR SLP100=

CYYC;2005-10-28 23:00;METAR CYYC 282300Z 16007KT 30SM FEW060 FEW140 08/M02 A2971 RMK CU1AC1 SLP101=

CYYC;2005-10-29 00:00;METAR CYYC 290000Z 21002KT 30SM FEW060 FEW150 07/M01 A2970 RMK CU1AC1 CU TR SLP098=

CYYC;2005-10-29 01:00;METAR CYYC 290100Z 23002KT 15SM FEW060 FEW120 03/M02 A2971 RMK CU1AC0 CU TR SLP100=

CYYC;2005-10-29 01:28;SPECI CYYC 290128Z 09002KT 15SM FEW060 FEW120 01/ RMK CU1AC0 CU TR=

CYYC;2005-10-29 02:00;METAR CYYC 290200Z 17003KT 15SM FEW150 04/M02 A2970 RMK AC1 SLP097=

CYYC;2005-10-29 02:46;SPECI CYYC 290246Z 27005KT 15SM FEW220 02/ RMK CI1=

CYYC;2005-10-29 03:00;METAR CYYC 290300Z 00000KT 15SM FEW100 BKN200 02/M02 A2972 RMK AC2CI3 SLP112=

CYYC;2005-10-29 04:00;METAR CYYC 290400Z 23002KT 15SM SCT200 03/M02 A2972 RMK CI1 SLP112=

CYYC;2005-10-29 04:08;SPECI CYYC 290408Z 00000KT 15SM SCT200 00/ RMK CI1=

CYYC;2005-10-29 05:00;METAR CYYC 290500Z 32002KT 15SM BKN200 01/M03 A2972 RMK CI3 SLP112=

CYYC;2005-10-29 06:00;METAR CYYC 290600Z 27004KT 15SM SKC 00/M03 A2973 RMK SLP106=

CYYC;2005-10-29 08:00;METAR CYYC 290800Z 00000KT 15SM SKC 03/M04 A2974 RMK SLP111=

CYYC;2005-10-29 09:00;METAR CYYC 290900Z 27011KT 15SM SKC 05/M04 A2974 RMK SLP096=

CYYC;2005-10-29 10:00;METAR CYYC 291000Z 26005KT 15SM SKC 04/M05 A2975 RMK SLP101=

CYYC;2005-10-29 12:00;METAR CYYC 291200Z 28013KT 15SM FEW240 05/M06 A2978 RMK CI0 SLP112=

CYYC;2005-10-29 13:00;METAR CYYC 291300Z 29006KT 15SM FEW240 04/M06 A2980 RMK CI0 SLP117=

CYYC;2005-10-29 14:00;METAR CYYC 291400Z 28012G17KT 15SM FEW050 FEW240 06/M06 A2982 RMK CU1CI0 CU TR SLP123=

CYYC;2005-10-29 15:00;METAR CYYC 291500Z 29008KT 40SM FEW050 SCT140 SCT240 06/M06 A2984 RMK CU1AC2CI1 CU TR SLP139=

CYYC;2005-10-29 16:00;METAR CYYC 291600Z 24003KT 40SM FEW050 BKN140 BKN240 06/M05 A2986 RMK CU1AC4CI0 CU TR SLP145=

CYYC;2005-10-29 17:00;METAR CYYC 291700Z 26008KT 40SM FEW060 BKN140 BKN240 08/M05 A2987 RMK CU1AC3CI1 SLP148=

CYYC;2005-10-29 18:00;METAR CYYC 291800Z 26013G20KT 40SM FEW060 SCT160 BKN240 09/M06 A2987 RMK CU1AC3CI0 SLP147=

CYYC;2005-10-29 19:00;METAR CYYC 291900Z 29016KT 40SM FEW060 BKN140 BKN220 11/M06 A2988 RMK CU1AC3CI0 SLP149=

CYYC;2005-10-29 20:00;METAR CYYC 292000Z 27015G21KT 40SM FEW060 SCT160 BKN220 11/M06 A2986 RMK CU1AC3CI0 CU TR SLP145=

CYYC;2005-10-29 21:00;METAR CYYC 292100Z 26016KT 40SM FEW060 SCT160 BKN220 11/M06 A2987 RMK CU1AC3CI0 CU TR SLP136=

CYYC;2005-10-29 22:00;METAR CYYC 292200Z 28015KT 40SM FEW060 SCT170 BKN230 11/M07 A2987 RMK CU1AC2CI0 CU TR SLP138=

CYYC;2005-10-29 23:00;METAR CYYC 292300Z 26013KT 40SM FEW060 SCT140 BKN230 10/M07 A2988 RMK CU1AC3CI0 CU TR VIRGA E -RA DIST SE SLP141=

CYYC;2005-10-30 00:00;METAR CYYC 300000Z 30004KT 40SM FEW045 SCT140 BKN260 07/M07 A2990 RMK CU1AC2CI0 CU TR SLP152=

CYYC;2005-10-30 02:00;METAR CYYC 300200Z 28007KT 15SM FEW090 BKN160 05/M06 A2992 RMK AC1AC2 SLP158=

CYYC;2005-10-30 04:00;METAR CYYC 300400Z 28010KT 15SM FEW080 BKN140 05/M05 A2994 RMK AC1AC6 SLP171=

CYYC;2005-10-30 05:00;METAR CYYC 300500Z 26006KT 15SM FEW080 FEW120 SCT200 03/M05 A2995 RMK AC1AC1CI0 SLP174=

CYYC;2005-10-30 06:00;METAR CYYC 300600Z 31002KT 15SM FEW110 BKN180 04/M05 A2996 RMK AC2AC2 SLP174=

CYYC;2005-10-30 07:00;METAR CYYC 300700Z 29008KT 15SM FEW100 BKN140 03/M04 A2997 RMK AC1AC7 SLP176=

CYYC;2005-10-30 07:15;SPECI CYYC 300715Z 22003KT 15SM FEW100 BKN140 BKN170 02/ RMK AC1AC6AC0=

CYYC;2005-10-30 08:00;METAR CYYC 300800Z 00000KT 15SM FEW080 BKN130 BKN170 04/M04 A2998 RMK AC1AC4AC0 SLP178=

CYYC;2005-10-30 09:00;METAR CYYC 300900Z 30013KT 15SM FEW080 BKN130 BKN170 05/M05 A2999 RMK AC2AC4AC0 SLP179=

CYYC;2005-10-30 10:00;METAR CYYC 301000Z 33013KT 15SM FEW080 SCT120 OVC150 03/M04 A3002 RMK AC1AC3AC3 SLP188=

CYYC;2005-10-30 10:33;SPECI CYYC 301033Z 33008KT 15SM FEW080 SCT120 BKN150 02/ RMK AC1AC3AC2=

CYYC;2005-10-30 12:00;METAR CYYC 301200Z 32008KT 15SM FEW080 BKN180 01/M06 A3006 RMK AC1AC1 SLP216=

CYYC;2005-10-30 13:00;METAR CYYC 301300Z 32011KT 15SM FEW170 M01/M06 A3008 RMK AC1 SLP223=

CYYC;2005-10-30 14:00;METAR CYYC 301400Z 31007KT 40SM FEW030 FEW120 FEW170 M03/M07 A3010 RMK SC1AC1AC1 SLP229=

CYYC;2005-10-30 15:00;METAR CYYC 301500Z 34007KT 40SM FEW030 FEW100 FEW170 M02/M06 A3013 RMK SC1ACC1AC1 SLP249=

CYYC;2005-10-30 16:00;METAR CYYC 301600Z 08002KT 40SM FEW030 FEW100 FEW250 02/M04 A3015 RMK CU1AC1CI1 TCU ASOCTD / VIRGA NE SLP254=

CYYC;2005-10-30 17:00;METAR CYYC 301700Z 08002KT 40SM FEW035 FEW100 FEW250 06/M07 A3016 RMK CU1AC1CI1 SLP258=

CYYC;2005-10-30 18:00;METAR CYYC 301800Z 26009KT 40SM FEW045 FEW100 FEW270 06/M07 A3016 RMK CU1AC1CI1 SLP247=

CYYC;2005-10-30 19:00;METAR CYYC 301900Z 28009KT 40SM FEW060 FEW270 08/M09 A3015 RMK CU1CI1 SLP245=

CYYC;2005-10-30 20:00;METAR CYYC 302000Z 28012KT 40SM FEW065 FEW270 09/M10 A3014 RMK CU1CI1 SLP242=

CYYC;2005-10-30 21:00;METAR CYYC 302100Z 27013KT 40SM FEW070 FEW160 FEW270 09/M11 A3014 RMK CU1AC1CI1 SLP233=

CYYC;2005-10-30 22:00;METAR CYYC 302200Z 27015KT 40SM FEW070 FEW160 FEW270 09/M10 A3014 RMK CU1AC1CI1 SLP233=

CYYC;2005-10-31 00:00;METAR CYYC 310000Z 27012KT 40SM FEW050 FEW120 FEW270 06/M09 A3014 RMK SC1AC1CI0 SLP245=

CYYC;2005-10-31 01:00;METAR CYYC 310100Z 26009KT 30SM FEW040 FEW120 FEW270 03/M09 A3014 RMK SC1AC1CI1 SLP245=

CYYC;2005-10-31 02:00;METAR CYYC 310200Z 31004KT 15SM SKC 02/M09 A3013 RMK SLP242=

CYYC;2005-10-31 03:00;METAR CYYC 310300Z 25007KT 15SM SKC 01/M08 A3013 RMK SLP250=

CYYC;2005-10-31 04:00;METAR CYYC 310400Z 21006KT 15SM FEW120 00/M08 A3013 RMK AC0 SLP250=

CYYC;2005-10-31 06:00;METAR CYYC 310600Z 22003KT 15SM FEW170 FEW220 01/M08 A3011 RMK AC1CI1 SLP235=

CYYC;2005-10-31 07:00;METAR CYYC 310700Z 23004KT 15SM FEW160 FEW230 M01/M08 A3010 RMK AC0CI0 SLP230=

CYYC;2005-10-31 08:00;METAR CYYC 310800Z 19003KT 15SM FEW160 FEW180 M01/M07 A3007 RMK AC1AC0 SLP222=

CYYC;2005-10-31 09:00;METAR CYYC 310900Z 18003KT 15SM SCT130 BKN150 00/M07 A3005 RMK AC3AC2 SLP211=

CYYC;2005-10-31 10:00;METAR CYYC 311000Z 20004KT 15SM BKN130 OVC150 M00/M06 A3002 RMK AC3AC3 SLP202=

CYYC;2005-10-31 12:00;METAR CYYC 311200Z 17004KT 15SM BKN130 OVC140 01/M06 A2991 RMK AC3AC3 PRESFR SLP166=

CYYC;2005-10-31 13:00;METAR CYYC 311300Z 18005KT 15SM OVC140 01/M05 A2988 RMK AC8 SLP157=

CYYC;2005-10-31 14:00;METAR CYYC 311400Z 18011KT 15SM OVC160 03/M05 A2982 RMK AC7 SLP138=

CYYC;2005-10-31 15:00;METAR CYYC 311500Z 19010KT 30SM FEW040 OVC170 03/M04 A2979 RMK SC1AC8 SC TR SLP127=

CYYC;2005-10-31 16:00;METAR CYYC 311600Z 17011KT 40SM FEW040 FEW080 OVC120 05/M04 A2976 RMK SC1AC1AC7 SC TR SLP117=

CYYC;2005-10-31 17:00;METAR CYYC 311700Z 17011KT 30SM FEW060 BKN120 BKN250 05/M03 A2971 RMK SC1AC6CI1 SC TR SLP102=

CYYC;2005-10-31 18:00;METAR CYYC 311800Z 16005KT 40SM FEW080 BKN120 BKN250 07/M02 A2968 RMK AC1AC6CI0 SLP084=

CYYC;2005-10-31 19:00;METAR CYYC 311900Z 00000KT 40SM FEW080 BKN180 BKN250 08/M02 A2968 RMK AC1AC5CI1 SLP084=

CYYC;2005-10-31 20:00;METAR CYYC 312000Z 25014G21KT 40SM FEW045 BKN140 BKN250 12/M05 A2967 RMK CU1AC5CI1 CU TR SLP080=

CYYC;2005-10-31 21:00;METAR CYYC 312100Z 27026G34KT 20SM FEW045 BKN120 BKN250 11/M07 A2967 RMK CU1AC2CI2 G PST HR 39 KT SLP076=

CYYC;2005-10-31 22:00;METAR CYYC 312200Z 27024G32KT 20SM FEW050 SCT120 BKN250 11/M06 A2969 RMK SC1AC2CI0 SLP082=

CYYC;2005-10-31 23:00;METAR CYYC 312300Z 27020G29KT 20SM FEW050 FEW120 SCT250 10/M06 A2972 RMK SC1AC2CI0 SLP091=

CYYC;2005-11-01 00:00;METAR CYYC 010000Z 28012G19KT 30SM FEW060 SCT100 07/M06 A2978 RMK SC1AC2 SLP116=

CYYC;2005-11-01 02:00;METAR CYYC 010200Z 27013KT 15SM FEW060 FEW100 06/M07 A2983 RMK SC1AC1 SLP132=

CYYC;2005-11-01 03:00;METAR CYYC 010300Z 27010KT 15SM FEW100 05/M07 A2985 RMK AC0 SLP140=

CYYC;2005-11-01 04:00;METAR CYYC 010400Z 26011KT 15SM FEW120 04/M07 A2986 RMK AC0 SLP145=

CYYC;2005-11-01 06:00;METAR CYYC 010600Z 27013G18KT 15SM FEW120 05/M06 A2988 RMK AC1 SLP145=

CYYC;2005-11-01 08:00;METAR CYYC 010800Z 27015G20KT 15SM FEW080 BKN220 05/M06 A2989 RMK AC1CI2 SLP148=

CYYC;2005-11-01 09:00;METAR CYYC 010900Z 27012KT 15SM BKN230 05/M06 A2991 RMK CI3 SLP151=

CYYC;2005-11-01 10:00;METAR CYYC 011000Z 28011KT 15SM BKN230 05/M06 A2990 RMK CI4 SLP150=

CYYC;2005-11-01 11:00;METAR CYYC 011100Z 24010KT 15SM BKN240 03/M05 A2990 RMK CI3 SLP149=

CYYC;2005-11-01 11:13;SPECI CYYC 011113Z 23007KT 15SM BKN240 02/ RMK CI3=

CYYC;2005-11-01 12:00;METAR CYYC 011200Z 21006KT 15SM BKN230 00/M06 A2989 RMK CI3 SLP158=

CYYC;2005-11-01 13:00;METAR CYYC 011300Z 20005KT 15SM BKN210 00/M05 A2988 RMK CI5 SLP153=

CYYC;2005-11-01 14:00;METAR CYYC 011400Z 21006KT 15SM BKN220 M01/M06 A2987 RMK CI5 SLP150=

CYYC;2005-11-01 15:00;METAR CYYC 011500Z 10004KT 40SM SCT220 BKN250 M01/M05 A2985 RMK CI3CI2 SLP149=

CYYC;2005-11-01 19:00;METAR CYYC 011900Z 09002KT 30SM SCT090 OVC140 04/M03 A2977 RMK AC4AS4 SLP113=

CYYC;2005-11-01 20:00;METAR CYYC 012000Z 11005KT 30SM BKN074 OVC090 04/M03 A2973 RMK AC6AS2 VIRGA E-S-W SLP101=

CYYC;2005-11-01 21:00;METAR CYYC 012100Z 13004KT 20SM BKN065 OVC072 04/M03 A2970 RMK SC5AC3 VIRGA E-S SLP087=

CYYC;2005-11-01 22:00;METAR CYYC 012200Z 00000KT 20SM OVC055 05/M02 A2966 RMK SC8 SLP075=

CYYC;2005-11-01 23:00;METAR CYYC 012300Z 20005KT 15SM SCT028 OVC050 05/M01 A2965 RMK SC4SC4 SLP072=

CYYC;2005-11-01 23:19;SPECI CYYC 012319Z 20006KT 6SM -RASN OVC023 04/ RMK SC8=

CYYC;2005-11-02 00:00;METAR CYYC 020000Z 18007KT 7SM -RASN FEW010 OVC028 03/02 A2959 RMK SC1SC7 SLP057=

CYYC;2005-11-02 01:00;METAR CYYC 020100Z 18005KT 7SM -RASN OVC007 03/02 A2956 RMK SC8 SLP050=

CYYC;2005-11-02 01:37;SPECI CYYC 020137Z 13002KT 8SM -RASN BKN007 OVC013 02/ RMK SC7SC1=

CYYC;2005-11-02 02:00;METAR CYYC 020200Z 00000KT 8SM -RASN BKN006 OVC013 01/01 A2954 RMK SC7SC1 SLP043=

CYYC;2005-11-02 02:41;SPECI CYYC 020241Z 00000KT 2SM -RASN BKN008 OVC020 00/ RMK SC6SC2=

CYYC;2005-11-02 03:00;METAR CYYC 020300Z 02002KT 1 3/4SM -SN BKN004 OVC006 00/00 A2952 RMK SC6SC2 SLP039=

CYYC;2005-11-02 03:06;SPECI CYYC 020306Z 36004KT 1 1/2SM -SN VV003 00/ RMK SN8=

CYYC;2005-11-02 03:19;SPECI CYYC 020319Z 33007KT 1 1/4SM -SN VV002 00/ RMK SN8=

CYYC;2005-11-02 04:00;METAR CYYC 020400Z 36006KT 1 1/4SM -SN VV002 00/00 A2952 RMK SN8 /SO1/ SLP040=

CYYC;2005-11-02 04:20;SPECI CYYC 020420Z 35006KT 1SM -SN VV002 00/ RMK SN8 RVR RWY34 5000FT=

CYYC;2005-11-02 04:40;SPECI CYYC 020440Z 34005KT 1 1/2SM -SN VV003 00/ RMK SN8=

CYYC;2005-11-02 05:24;SPECI CYYC 020524Z 34008KT 1 3/4SM -SN OVC007 00/ RMK SC8=

CYYC;2005-11-02 05:30;SPECI CYYC 020530Z 34008KT 1 3/4SM -SN FEW003 OVC007 00/ RMK SC2SC6=

CYYC;2005-11-02 06:26;SPECI CYYC 020626Z 34010KT 1 3/4SM -SN FEW004 OVC008 00/ RMK SC2SC6=

CYYC;2005-11-02 08:20;SPECI CYYC 020820Z 33008KT 1 3/4SM -SN BR BKN008 OVC026 00/ RMK SC6SC2=

CYYC;2005-11-02 08:37;SPECI CYYC 020837Z 33008KT 2 1/2SM -SN BR FEW008 FEW012 BKN028 OVC047 00/ RMK SF1SC2SC5SC2=

CYYC;2005-11-02 09:36;SPECI CYYC 020936Z 33009KT 1 3/4SM -SN BR BKN007 OVC018 00/ RMK SC5SC3=

CYYC;2005-11-02 10:00;METAR CYYC 021000Z 34006KT 1 1/4SM -SN BKN006 OVC020 00/00 A2967 RMK SC6SC2 /SO2/ SLP083=

CYYC;2005-11-02 10:25;SPECI CYYC 021025Z 36008KT 3SM -SN FEW003 SCT006 BKN020 BKN060 M00/ RMK SF1SC3SC2SC0=

CYYC;2005-11-02 11:00;METAR CYYC 021100Z 35005KT 15SM BKN007 BKN054 M01/M01 A2969 RMK SC5SC1 SLP088=

CYYC;2005-11-02 11:50;SPECI CYYC 021150Z 34008KT 15SM FEW006 SCT050 M02/ RMK SC2SC0=

CYYC;2005-11-02 13:00;METAR CYYC 021300Z 00000KT 15SM SCT009 M03/M03 A2973 RMK SC2 SLP111=

CYYC;2005-11-02 14:00;METAR CYYC 021400Z 24002KT 15SM FEW020 FEW050 M03/M03 A2975 RMK SC1SC1 SLP115=

CYYC;2005-11-02 15:00;METAR CYYC 021500Z 21003KT 40SM FEW030 FEW085 M04/M04 A2975 RMK SC1AC1 SLP125=

CYYC;2005-11-02 16:00;METAR CYYC 021600Z 21007KT 40SM FEW040 FEW085 M02/M02 A2977 RMK SC1AC1 SLP130=

CYYC;2005-11-02 17:00;METAR CYYC 021700Z 23003KT 40SM FEW040 FEW085 M00/M01 A2978 RMK SC1AC1 SLP133=

CYYC;2005-11-02 18:00;METAR CYYC 021800Z 21003KT 40SM FEW040 FEW085 01/M00 A2978 RMK SC1AC1 AC TR SLP128=

CYYC;2005-11-02 21:00;METAR CYYC 022100Z 18007KT 30SM FEW050 FEW090 03/00 A2975 RMK SC1AC1 AC TR SLP112=

CYYC;2005-11-02 22:00;METAR CYYC 022200Z 19005KT 30SM FEW050 FEW090 03/M00 A2974 RMK SC1AC1 AC TR SLP110=

CYYC;2005-11-02 23:00;METAR CYYC 022300Z 13008KT 30SM FEW050 FEW090 02/M01 A2973 RMK SC1AC1 AC TR SLP108=

CYYC;2005-11-03 00:00;METAR CYYC 030000Z 14006KT 30SM FEW050 FEW090 FEW240 M00/M02 A2973 RMK SC1AC1CI1 CI TR SLP114=

CYYC;2005-11-03 01:00;METAR CYYC 030100Z 14007KT 15SM FEW050 FEW090 SCT240 M02/M03 A2972 RMK SC1AC1CI1 SC TR SLP111=

CYYC;2005-11-03 02:00;METAR CYYC 030200Z 10004KT 15SM FEW090 FEW230 M03/M04 A2971 RMK AC1CI1 AC TR SLP109=

CYYC;2005-11-03 03:00;METAR CYYC 030300Z 18003KT 15SM FEW090 SCT240 M02/M03 A2971 RMK AC1CI0 SLP112=

CYYC;2005-11-03 04:00;METAR CYYC 030400Z 20004KT 15SM FEW100 SCT240 M02/M03 A2970 RMK AC1CI1 SLP109=

CYYC;2005-11-03 06:00;METAR CYYC 030600Z 23006KT 15SM SCT230 M03/M07 A2967 RMK CI1 SLP095=

CYYC;2005-11-03 08:00;METAR CYYC 030800Z 17003KT 15SM FEW230 M04/M07 A2965 RMK CI0 SLP089=

CYYC;2005-11-03 09:00;METAR CYYC 030900Z 21005KT 15SM FEW240 M05/M08 A2965 RMK CI0 SLP086=

CYYC;2005-11-03 10:00;METAR CYYC 031000Z 00000KT 15SM SCT240 M05/M08 A2964 RMK CI0 SLP085=

CYYC;2005-11-03 13:00;METAR CYYC 031300Z 21003KT 15SM BKN240 M04/M09 A2963 RMK CI2 SLP084=

CYYC;2005-11-03 14:00;METAR CYYC 031400Z 21004KT 40SM FEW100 BKN220 M05/M09 A2963 RMK AC1CI4 SLP084=

CYYC;2005-11-03 15:00;METAR CYYC 031500Z 22004KT 40SM FEW040 FEW100 BKN220 M03/M07 A2963 RMK SC1AC2CI4 SC TR SLP082=

CYYC;2005-11-03 16:00;METAR CYYC 031600Z 22006KT 40SM FEW050 FEW100 BKN220 M04/M07 A2964 RMK SC1AC1CI5 SC TR SLP084=

CYYC;2005-11-03 19:00;METAR CYYC 031900Z 23004KT 40SM FEW050 BKN250 03/M04 A2960 RMK SC1CI4 SLP068=

CYYC;2005-11-03 20:00;METAR CYYC 032000Z 19004KT 40SM FEW050 FEW180 BKN250 04/M04 A2957 RMK SC1AC1CI3 SC TR SLP060=

CYYC;2005-11-03 21:00;METAR CYYC 032100Z 14007KT 40SM FEW050 BKN250 03/M03 A2953 RMK SC1CI4 SLP046=

CYYC;2005-11-04 00:00;METAR CYYC 040000Z 14005KT 40SM FEW060 FEW090 BKN240 M01/M04 A2950 RMK SC1AC1CI3 ACSL S SLP038=

CYYC;2005-11-04 01:00;METAR CYYC 040100Z 36002KT 15SM FEW060 FEW090 BKN230 00/M05 A2948 RMK SC1AC1CI3 ACSL S SLP032=

CYYC;2005-11-04 03:00;METAR CYYC 040300Z 20007KT 15SM FEW100 BKN180 M02/M06 A2943 RMK AC2AC3 SLP014=

CYYC;2005-11-04 05:00;METAR CYYC 040500Z 16006KT 15SM BKN092 OVC110 00/M04 A2940 RMK AC6AC2 SLP004=

CYYC;2005-11-04 06:00;METAR CYYC 040600Z 17005KT 15SM BKN096 OVC120 M01/M04 A2938 RMK AC6AC2 SLP987=

CYYC;2005-11-04 07:00;METAR CYYC 040700Z 19007KT 15SM BKN091 OVC120 00/M03 A2937 RMK AC6AC2 SLP983=

CYYC;2005-11-04 08:00;METAR CYYC 040800Z 20004KT 15SM BKN081 OVC100 M00/M03 A2936 RMK AC6AC2 SLP980=

CYYC;2005-11-04 10:00;METAR CYYC 041000Z 23009KT 15SM BKN066 OVC090 01/M04 A2934 RMK AC6AC2 SLP972=

CYYC;2005-11-04 12:00;METAR CYYC 041200Z 21005KT 15SM BKN097 OVC120 M00/M05 A2934 RMK AC5AC3 SN CVR/MUCH LOOSE SLP977=

CYYC;2005-11-04 13:00;METAR CYYC 041300Z 22005KT 15SM OVC120 M00/M05 A2935 RMK AC8 SLP980=

CYYC;2005-11-04 14:00;METAR CYYC 041400Z 23009KT 15SM FEW080 BKN110 BKN140 M00/M05 A2936 RMK AC2AC4AC0 SLP982=

CYYC;2005-11-04 15:00;METAR CYYC 041500Z 22008KT 40SM FEW060 BKN140 BKN260 M02/M05 A2938 RMK CU1AC3CI1 SLP993=

CYYC;2005-11-04 16:00;METAR CYYC 041600Z 23009KT 40SM FEW060 SCT130 BKN260 02/M05 A2938 RMK CU1AC3CI0 SLP995=

CYYC;2005-11-04 17:00;METAR CYYC 041700Z 27016KT 40SM FEW060 SCT100 BKN130 BKN260 03/M05 A2940 RMK CU1AC3AC1CI0 SLP999=

CYYC;2005-11-04 18:00;METAR CYYC 041800Z 28014G21KT 40SM FEW060 SCT110 BKN260 04/M05 A2942 RMK CU1AC3CI0 CU TR SLP998=

CYYC;2005-11-04 19:00;METAR CYYC 041900Z 28019G24KT 40SM FEW060 SCT120 BKN260 05/M06 A2943 RMK CU1AC3CI0 SLP003=

CYYC;2005-11-04 21:00;METAR CYYC 042100Z 27020G27KT 40SM FEW060 SCT110 BKN130 BKN260 04/M06 A2945 RMK CU1AC2AC2CI0 CU TR SLP010=

CYYC;2005-11-04 22:00;METAR CYYC 042200Z 27022G27KT 40SM FEW060 SCT110 BKN130 04/M07 A2948 RMK CU1AC3AC1 CU TR VIRGA ES-S SLP019=

CYYC;2005-11-04 23:00;METAR CYYC 042300Z 27016KT 40SM FEW060 SCT130 BKN160 04/M07 A2950 RMK CU1AC2AS1 VIRGA ES-S SLP025=

CYYC;2005-11-05 00:00;METAR CYYC 050000Z 27014G19KT 40SM FEW060 SCT100 BKN130 03/M08 A2952 RMK CU1AC2AC1 VIRGA ES SLP033=

CYYC;2005-11-05 00:31;SPECI CYYC 050031Z 27013KT 40SM FEW050 FEW130 02/ RMK CU1AC1=

CYYC;2005-11-05 01:00;METAR CYYC 050100Z 27015KT 15SM FEW120 01/M08 A2953 RMK AC1 SLP036=

CYYC;2005-11-05 02:00;METAR CYYC 050200Z 27009KT 15SM SKC 00/M09 A2954 RMK SLP041=

CYYC;2005-11-05 03:00;METAR CYYC 050300Z 26005KT 15SM SKC M01/M10 A2955 RMK SLP053=

CYYC;2005-11-05 04:00;METAR CYYC 050400Z 21003KT 15SM FEW260 M02/M10 A2956 RMK CI1 SLP055=

CYYC;2005-11-05 05:00;METAR CYYC 050500Z 21005KT 15SM FEW260 M03/M10 A2957 RMK CI1 SLP057=

CYYC;2005-11-05 06:00;METAR CYYC 050600Z 23004KT 15SM FEW120 FEW220 M03/M10 A2957 RMK AC1CI0 SLP052=

CYYC;2005-11-05 08:00;METAR CYYC 050800Z 23002KT 15SM FEW170 BKN230 M03/M09 A2955 RMK AC2CI0 SLP048=

CYYC;2005-11-05 09:00;METAR CYYC 050900Z 00000KT 15SM FEW002 SCT140 BKN180 M06/M09 A2955 RMK ST1AC3AC3 TR ST SLP050=

CYYC;2005-11-05 10:00;METAR CYYC 051000Z 00000KT 15SM BKN150 OVC180 M05/M09 A2955 RMK AC5AC3 SLP050=

CYYC;2005-11-05 11:00;METAR CYYC 051100Z 22002KT 15SM SCT150 BKN220 M05/M08 A2954 RMK AC3CI2 SLP049=

CYYC;2005-11-05 14:00;METAR CYYC 051400Z 22002KT 40SM FEW030 FEW080 BKN180 M05/M08 A2956 RMK CU1AC1AC5 TR CU SLP054=

CYYC;2005-11-05 15:00;METAR CYYC 051500Z 22004KT 40SM FEW030 BKN120 BKN260 M03/M09 A2956 RMK CU1AC5CI0 SLP058=

CYYC;2005-11-05 16:00;METAR CYYC 051600Z 26014G21KT 40SM FEW040 SCT130 BKN150 BKN260 01/M08 A2957 RMK CU1AC2AS2CI0 CU TR ACC EMBD SLP059=

CYYC;2005-11-05 17:00;METAR CYYC 051700Z 27016G21KT 40SM FEW045 SCT130 SCT260 02/M07 A2958 RMK CU1AC2CI0 SLP064=

CYYC;2005-11-05 18:00;METAR CYYC 051800Z 27019G25KT 40SM FEW050 SCT130 03/M07 A2960 RMK CU1AC3 SLP064=

CYYC;2005-11-05 19:00;METAR CYYC 051900Z 27014KT 40SM FEW060 BKN130 03/M08 A2961 RMK CU1AC3 ACC EMBD SLP069=

CYYC;2005-11-05 20:00;METAR CYYC 052000Z 29011G18KT 40SM FEW060 SCT120 BKN260 04/M07 A2962 RMK CU1AC2CI1 VIRGA NE-E SLP071=

CYYC;2005-11-05 21:00;METAR CYYC 052100Z 28018KT 40SM FEW060 FEW100 SCT260 04/M09 A2963 RMK CU1AC2CI0 SLP077=

CYYC;2005-11-05 22:00;METAR CYYC 052200Z 27014G19KT 40SM FEW060 FEW110 FEW260 04/M09 A2963 RMK CU1AC2CI1 SLP078=

CYYC;2005-11-05 23:00;METAR CYYC 052300Z 26011KT 40SM FEW060 FEW180 03/M09 A2963 RMK CU1AC1 CU TR SLP079=

CYYC;2005-11-06 00:00;METAR CYYC 060000Z 00000KT 40SM FEW045 FEW180 FEW260 01/M08 A2963 RMK CU1AC0CI0 SLP084=

CYYC;2005-11-06 04:00;METAR CYYC 060400Z 00000KT 15SM FEW260 M03/M06 A2960 RMK CI0 SLP074=

CYYC;2005-11-06 05:00;METAR CYYC 060500Z 04003KT 15SM FEW220 M06/M07 A2958 RMK CI0 SLP067=

CYYC;2005-11-06 06:00;METAR CYYC 060600Z 32003KT 15SM FEW200 M07/M09 A2955 RMK CI0 SLP055=

CYYC;2005-11-06 09:00;METAR CYYC 060900Z 33002KT 15SM BKN170 M08/M09 A2950 RMK AC6 SLP035=

CYYC;2005-11-06 10:00;METAR CYYC 061000Z 36002KT 15SM BKN090 M07/M09 A2949 RMK AC7 SLP032=

CYYC;2005-11-06 11:00;METAR CYYC 061100Z 36004KT 15SM BKN074 BKN095 M07/M08 A2948 RMK AC5AC2 SLP029=

CYYC;2005-11-06 13:00;METAR CYYC 061300Z 00000KT 15SM BKN054 OVC074 M05/M07 A2948 RMK SC6AC2 SLP033=

CYYC;2005-11-06 14:00;METAR CYYC 061400Z 00000KT 4SM -SN BKN018 OVC034 M04/M07 A2949 RMK SC5SC3 SLP035=

CYYC;2005-11-06 14:15;SPECI CYYC 061415Z 00000KT 1 3/4SM -SN BKN010 OVC026 M03/ RMK SC6SC2=

CYYC;2005-11-06 15:00;METAR CYYC 061500Z 00000KT 1SM -SN BKN010 OVC027 M04/M05 A2950 RMK SC6SC2 RVR RWY16 6000 FT SLP041=

CYYC;2005-11-06 15:54;SPECI CYYC 061554Z 05003KT 2 1/2SM -SN BKN019 OVC037 M03/ RMK SC6SC2=

CYYC;2005-11-06 16:00;METAR CYYC 061600Z 05003KT 2 1/2SM -SN BKN019 OVC034 M03/M04 A2950 RMK SC6SC2 SLP042=

CYYC;2005-11-06 16:25;SPECI CYYC 061625Z 04002KT 5SM -SN OVC046 M03/ RMK SC8=

CYYC;2005-11-06 17:00;METAR CYYC 061700Z 03003KT 4SM -SN FEW010 BKN022 OVC035 M02/M03 A2951 RMK SC1SC6SC2 SLP044=

CYYC;2005-11-06 18:00;METAR CYYC 061800Z 09002KT 12SM -SN SCT008 OVC030 M02/M04 A2952 RMK SC4SC4 /S01/ SLP051=

CYYC;2005-11-06 18:23;SPECI CYYC 061823Z 12003KT 12SM BKN007 OVC023 M01/ RMK SC6SC2=

CYYC;2005-11-06 19:00;METAR CYYC 061900Z 15006KT 12SM BKN007 OVC020 M01/M03 A2953 RMK SC6SC2 SLP053=

CYYC;2005-11-06 19:51;SPECI CYYC 061951Z 14005KT 4SM -SN OVC012 M02/ RMK SC8=

CYYC;2005-11-06 20:00;METAR CYYC 062000Z 13006KT 5SM -SN OVC012 M02/M03 A2953 RMK SC8 SLP054=

CYYC;2005-11-06 21:00;METAR CYYC 062100Z 14005KT 15SM -SN OVC014 M01/M03 A2954 RMK SC8 SLP056=

CYYC;2005-11-06 22:00;METAR CYYC 062200Z 15004KT 15SM OVC010 M01/M03 A2954 RMK SC8 SLP058=

CYYC;2005-11-07 00:00;METAR CYYC 070000Z 16006KT 20SM FEW014 BKN140 M02/M03 A2958 RMK SC2AC4 SLP068=

CYYC;2005-11-07 01:00;METAR CYYC 070100Z 13005KT 15SM FEW020 SCT140 M03/M04 A2960 RMK SC1AC2 SLP076=

CYYC;2005-11-07 02:00;METAR CYYC 070200Z 15006KT 15SM FEW040 FEW140 SCT240 M05/M05 A2962 RMK SC1AC2CI2 SLP081=

CYYC;2005-11-07 03:00;METAR CYYC 070300Z 14005KT 15SM FEW040 SCT130 BKN240 M05/M05 A2964 RMK SC1AC2CI1 SLP092=

CYYC;2005-11-07 03:42;SPECI CYYC 070342Z 14004KT 10SM FEW006 SCT130 BKN260 M06/ RMK SC1AC2CI1 VIS NE-E 5=

CYYC;2005-11-07 04:00;METAR CYYC 070400Z 10004KT 5SM BR FEW005 SCT040 BKN130 M06/M06 A2966 RMK ST2ST2AC2 VIS NE- ES 3 SLP098=

CYYC;2005-11-07 04:08;SPECI CYYC 070408Z 13005KT 1/4SM FZFG SCT001 BKN040 BKN130 M05/ RMK ST3ST2AC1 RVR RWY 16 4000 FT=

CYYC;2005-11-07 04:21;SPECI CYYC 070421Z 13005KT 1/4SM FZFG BKN040 BKN130 M04/ RMK FG3ST2AC1 RVR RWY 16 3500 FT=

CYYC;2005-11-07 05:00;METAR CYYC 070500Z 17004KT 0SM FZFG VV001 M04/M04 A2968 RMK FG8 RVR RWY16 2000 FT SLP105=

CYYC;2005-11-07 06:00;METAR CYYC 070600Z 16003KT 1/8SM FZFG VV001 M04/M05 A2970 RMK FG8 RVR RWY34 1600 FT SLP109=

CYYC;2005-11-07 06:45;SPECI CYYC 070645Z 00000KT 3SM BR SKC M07/ RMK FG2 VIS NE-E 1=

CYYC;2005-11-07 07:00;METAR CYYC 070700Z 16003KT 3SM BR BCFG SKC M07/M07 A2971 RMK FG1 SLP113=

CYYC;2005-11-07 09:00;METAR CYYC 070900Z 21006KT 15SM SKC M07/M09 A2974 RMK SLP125=

CYYC;2005-11-07 10:00;METAR CYYC 071000Z 21007KT 15SM SKC M07/M10 A2975 RMK SLP130=

CYYC;2005-11-07 11:00;METAR CYYC 071100Z 20004KT 15SM SKC M07/M11 A2977 RMK SLP136=

CYYC;2005-11-07 12:00;METAR CYYC 071200Z 19006KT 15SM SKC M07/M11 A2979 RMK SLP145=

CYYC;2005-11-07 13:00;METAR CYYC 071300Z 21004KT 15SM SKC M06/M12 A2980 RMK SLP147=

CYYC;2005-11-07 14:00;METAR CYYC 071400Z 20006KT 15SM SKC M08/M12 A2981 RMK AC TR SLP151=

CYYC;2005-11-07 16:00;METAR CYYC 071600Z 20003KT 40SM FEW180 FEW250 M05/M10 A2982 RMK AC1CI1 AC TR SLP159=

CYYC;2005-11-07 18:00;METAR CYYC 071800Z 18003KT 40SM FEW180 FEW250 M00/M09 A2981 RMK AC1CI1 SLP146=

CYYC;2005-11-07 20:00;METAR CYYC 072000Z 19005KT 40SM FEW190 BKN240 01/M07 A2979 RMK AC2CI2 SLP139=

CYYC;2005-11-07 21:00;METAR CYYC 072100Z 18007KT 40SM SCT170 BKN220 BKN250 02/M08 A2978 RMK AC3CS2CI1 SLP135=

CYYC;2005-11-07 23:00;METAR CYYC 072300Z 13007KT 40SM SCT150 BKN220 BKN250 M01/M04 A2976 RMK AC3CS2CI2 SLP129=

CYYC;2005-11-08 01:00;METAR CYYC 080100Z 13005KT 15SM SCT140 BKN220 BKN250 M03/M05 A2975 RMK AC3CS2CI1 SLP133=

CYYC;2005-11-08 03:00;METAR CYYC 080300Z 17003KT 15SM BKN120 BKN230 BKN250 M03/M04 A2972 RMK AC4CI2CI1 SLP124=

CYYC;2005-11-08 04:00;METAR CYYC 080400Z 00000KT 15SM SCT110 BKN130 BKN250 M04/M05 A2972 RMK AC3AC2CI1 SLP124=

CYYC;2005-11-08 05:00;METAR CYYC 080500Z 00000KT 15SM SCT110 BKN130 M04/M05 A2971 RMK AC3AC2 SLP121=

CYYC;2005-11-08 06:00;METAR CYYC 080600Z 33003KT 15SM SCT100 BKN120 M05/M05 A2970 RMK AC3AC2 SLP109=

CYYC;2005-11-08 07:00;METAR CYYC 080700Z 35002KT 15SM SCT090 BKN120 M05/M06 A2970 RMK AC3AC2 SLP108=

CYYC;2005-11-08 08:00;METAR CYYC 080800Z 34002KT 15SM FEW100 BKN120 M04/M07 A2970 RMK AC2AC2 SLP108=

CYYC;2005-11-08 10:00;METAR CYYC 081000Z 30013KT 15SM FEW130 M02/M09 A2971 RMK AC2 SLP101=

CYYC;2005-11-08 11:00;METAR CYYC 081100Z 30009KT 15SM FEW130 M02/M10 A2973 RMK AC2 SLP107=

CYYC;2005-11-08 12:00;METAR CYYC 081200Z 32009KT 15SM SCT090 M02/M09 A2977 RMK AC3 SLP131=

CYYC;2005-11-08 13:00;METAR CYYC 081300Z 36006KT 15SM SKC M05/M11 A2981 RMK SLP144=

CYYC;2005-11-08 15:00;METAR CYYC 081500Z 33003KT 40SM FEW050 FEW120 M07/M12 A2985 RMK SC1AC1 SC+AC TR SLP168=

CYYC;2005-11-08 16:00;METAR CYYC 081600Z 35005KT 40SM FEW050 FEW240 M06/M11 A2988 RMK SC1CI1 SC+CI TR SLP175=

CYYC;2005-11-08 17:00;METAR CYYC 081700Z 00000KT 40SM FEW050 FEW250 M01/M10 A2990 RMK SC1CI1 SC+CI TR SLP182=

CYYC;2005-11-08 18:00;METAR CYYC 081800Z 00000KT 40SM FEW050 FEW250 02/M10 A2992 RMK SC1CI1 SLP182=

CYYC;2005-11-08 19:00;METAR CYYC 081900Z 27007KT 40SM FEW050 FEW250 03/M11 A2993 RMK SC1CI1 SLP185=

CYYC;2005-11-08 20:00;METAR CYYC 082000Z 28015KT 40SM FEW050 FEW250 03/M11 A2993 RMK SC1CI1 SLP186=

CYYC;2005-11-08 21:00;METAR CYYC 082100Z 27013G19KT 40SM FEW050 FEW250 03/M10 A2994 RMK SC1CI1 SLP180=

CYYC;2005-11-08 22:00;METAR CYYC 082200Z 27016KT 40SM FEW050 FEW250 03/M10 A2995 RMK SC1CI1 SLP182=

CYYC;2005-11-08 23:00;METAR CYYC 082300Z 27017KT 40SM FEW060 FEW250 02/M10 A2996 RMK SC1CI1 SLP187=

CYYC;2005-11-09 00:00;METAR CYYC 090000Z 26010KT 40SM FEW060 FEW220 SCT250 01/M10 A2998 RMK SC1CI2CI2 SLP198=

CYYC;2005-11-09 01:00;METAR CYYC 090100Z 28017KT 15SM FEW080 SCT250 01/M10 A2999 RMK AC1CI2 SLP201=

CYYC;2005-11-09 02:00;METAR CYYC 090200Z 27012G17KT 15SM FEW080 SCT250 00/M10 A3001 RMK AC1CI1 SLP208=

CYYC;2005-11-09 03:00;METAR CYYC 090300Z 26009KT 15SM FEW140 M01/M10 A3001 RMK AC1 SLP220=

CYYC;2005-11-09 04:00;METAR CYYC 090400Z 25010KT 15SM SKC M02/M10 A3000 RMK SLP218=

CYYC;2005-11-09 05:00;METAR CYYC 090500Z 25011KT 15SM SKC M01/M10 A2999 RMK SLP215=

CYYC;2005-11-09 07:00;METAR CYYC 090700Z 20013KT 15SM FEW260 M03/M10 A2996 RMK CI0 SLP191=

CYYC;2005-11-09 08:00;METAR CYYC 090800Z 21011KT 15SM SKC M03/M10 A2993 RMK SLP183=

CYYC;2005-11-09 10:00;METAR CYYC 091000Z 16003KT 15SM SKC M03/M10 A2990 RMK SLP170=

CYYC;2005-11-09 11:00;METAR CYYC 091100Z 23004KT 15SM SKC 00/M10 A2988 RMK SLP163=

CYYC;2005-11-09 12:00;METAR CYYC 091200Z 19003KT 15SM FEW220 M03/M10 A2986 RMK CI0 SN CVR/TRACE LOOSE SLP158=

CYYC;2005-11-09 13:00;METAR CYYC 091300Z 19009KT 15SM SCT210 M01/M09 A2983 RMK CI2 SLP149=

CYYC;2005-11-09 14:00;METAR CYYC 091400Z 20009KT 15SM FEW190 BKN220 00/M08 A2980 RMK AC1CI4 SLP139=

CYYC;2005-11-09 15:00;METAR CYYC 091500Z 19006KT 40SM FEW060 BKN120 OVC240 M01/M07 A2978 RMK SC1AC6CI2 SLP130=

CYYC;2005-11-09 16:00;METAR CYYC 091600Z 21003KT 40SM FEW060 OVC140 M00/M07 A2975 RMK SC1AC6 VIRGA N-E SLP121=

CYYC;2005-11-09 17:00;METAR CYYC 091700Z 20008KT 40SM FEW060 BKN140 OVC210 00/M06 A2973 RMK SC1AC6CI2 VIRGA N-E SLP117=

CYYC;2005-11-09 18:00;METAR CYYC 091800Z 21012KT 40SM FEW060 OVC180 02/M04 A2971 RMK SC1AC7 SLP104=

CYYC;2005-11-09 20:00;METAR CYYC 092000Z 26020G25KT 40SM FEW060 OVC150 08/M04 A2972 RMK SC1AC7 SLP107=

CYYC;2005-11-09 21:00;METAR CYYC 092100Z 24005KT 40SM FEW065 OVC190 08/M04 A2971 RMK SC1AC7 SLP094=

CYYC;2005-11-09 22:00;METAR CYYC 092200Z 22009KT 40SM FEW065 BKN130 OVC210 08/M04 A2972 RMK SC1AC6CI1 SLP098=

CYYC;2005-11-09 23:00;METAR CYYC 092300Z 26025G32KT 40SM FEW065 BKN120 OVC210 09/M03 A2971 RMK SC1AC6CI1 SLP094=

CYYC;2005-11-10 00:00;METAR CYYC 100000Z 27016G25KT 40SM FEW065 BKN120 OVC210 10/M03 A2974 RMK SC1AC6CI1 ACSL W SLP105=

CYYC;2005-11-10 01:00;METAR CYYC 100100Z 27005KT 15SM FEW065 SCT120 OVC230 08/M03 A2973 RMK SC1AC3CI3 SLP103=

CYYC;2005-11-10 02:00;METAR CYYC 100200Z 21005KT 15SM FEW070 BKN180 OVC230 05/M02 A2973 RMK AC1AC4CI2 SLP101=

CYYC;2005-11-10 04:00;METAR CYYC 100400Z 21009KT 15SM FEW200 BKN250 05/M02 A2972 RMK CI2CI4 SLP102=

CYYC;2005-11-10 05:00;METAR CYYC 100500Z 20010KT 15SM FEW150 BKN250 04/M02 A2971 RMK AC1CI6 SLP099=

CYYC;2005-11-10 05:50;SPECI CYYC 100550Z 14005KT 15SM FEW140 BKN260 02/ RMK AC1CI6=

CYYC;2005-11-10 06:00;METAR CYYC 100600Z 18004KT 15SM FEW140 BKN260 04/M02 A2971 RMK AC1CI6 SLP096=

CYYC;2005-11-10 06:17;SPECI CYYC 100617Z 20010KT 15SM FEW140 BKN260 02/ RMK AC1CI6=

CYYC;2005-11-10 09:00;METAR CYYC 100900Z 13007KT 15SM BKN260 01/M02 A2969 RMK CI5 SLP085=

CYYC;2005-11-10 10:00;METAR CYYC 101000Z 18006KT 15SM BKN260 01/M02 A2970 RMK CI6 SLP087=

CYYC;2005-11-10 11:00;METAR CYYC 101100Z 18013KT 15SM OVC260 07/M00 A2967 RMK CI8 SLP079=

CYYC;2005-11-10 12:00;METAR CYYC 101200Z 15007KT 15SM BKN260 05/00 A2967 RMK CI6 CN CVR / TRACE LOOSE SLP068=

CYYC;2005-11-10 13:00;METAR CYYC 101300Z 21008KT 15SM FEW180 BKN260 02/M01 A2964 RMK AC1CI5 SLP061=

CYYC;2005-11-10 14:00;METAR CYYC 101400Z 21013KT 15SM FEW080 FEW180 BKN250 06/M00 A2963 RMK AC1AC1CI5 SLP055=

CYYC;2005-11-10 16:00;METAR CYYC 101600Z 20018KT 40SM FEW090 SCT180 BKN250 09/M01 A2958 RMK AC1AC2CI3 ACSL S SLP043=

CYYC;2005-11-10 17:00;METAR CYYC 101700Z 21012KT 40SM FEW070 BKN180 BKN250 09/M01 A2956 RMK AC1AC4CI2 ACSL SW SLP037=

CYYC;2005-11-10 18:00;METAR CYYC 101800Z 21016KT 40SM FEW060 BKN180 BKN250 10/M02 A2953 RMK SC1AC4CI2 ACSL S-SW SLP022=

CYYC;2005-11-10 19:00;METAR CYYC 101900Z 20014KT 40SM FEW060 SCT180 BKN250 11/M01 A2950 RMK SC1AC2CI4 ACSL S-SW SLP011=

CYYC;2005-11-10 20:00;METAR CYYC 102000Z 20013KT 40SM FEW060 SCT180 BKN250 14/M00 A2946 RMK SC1AC2CI4 ACSL S-SW SLP999=

CYYC;2005-11-10 21:00;METAR CYYC 102100Z 18014KT 40SM FEW060 SCT180 BKN250 14/M00 A2942 RMK SC1AC2CI3 ACSL S-SW SLP981=

CYYC;2005-11-10 22:00;METAR CYYC 102200Z 18016KT 40SM FEW060 FEW180 BKN250 14/00 A2941 RMK SC1AC2CI4 ACSL S-SW SLP978=

CYYC;2005-11-10 23:00;METAR CYYC 102300Z 15015KT 40SM FEW065 FEW190 BKN250 14/00 A2940 RMK SC1AC2CI3 ACSL S-SW SLP977=

CYYC;2005-11-11 00:00;METAR CYYC 110000Z 16008KT 40SM FEW065 SCT120 BKN250 11/00 A2940 RMK SC1AC2CI2 SLP973=

CYYC;2005-11-11 02:00;METAR CYYC 110200Z 18009KT 15SM SCT110 BKN240 10/M02 A2941 RMK AC3CI2 SLP976=

CYYC;2005-11-11 03:00;METAR CYYC 110300Z 16005KT 15SM SCT100 SCT240 08/M03 A2941 RMK AC3CI1 SLP977=

CYYC;2005-11-11 04:00;METAR CYYC 110400Z 18002KT 15SM SCT100 08/M02 A2943 RMK AC2 SLP986=

CYYC;2005-11-11 05:00;METAR CYYC 110500Z 23003KT 15SM BKN100 07/M02 A2947 RMK AC4 SLP996=

CYYC;2005-11-11 05:28;SPECI CYYC 110528Z 01022G29KT 15SM FEW020 FEW100 02/ RMK SC1AC2=

CYYC;2005-11-11 07:00;METAR CYYC 110700Z 36009KT 15SM FEW020 SCT100 M01/M02 A2958 RMK SC1AC2 SLP042=

CYYC;2005-11-11 09:00;METAR CYYC 110900Z 03007KT 15SM BKN019 M00/M03 A2965 RMK SC6 SLP067=

CYYC;2005-11-11 10:00;METAR CYYC 111000Z 00000KT 15SM FEW020 BKN042 M02/M03 A2967 RMK SC2SC3 SLP073=

CYYC;2005-11-11 11:00;METAR CYYC 111100Z 21005KT 15SM BKN043 M01/M02 A2969 RMK SC7 SLP077=

CYYC;2005-11-11 12:00;METAR CYYC 111200Z 21003KT 15SM BKN045 M00/M02 A2969 RMK SC7 SLP081=

CYYC;2005-11-11 13:00;METAR CYYC 111300Z 23002KT 15SM OVC047 M01/M03 A2970 RMK SC8 SLP085=

CYYC;2005-11-11 15:00;METAR CYYC 111500Z 23002KT 40SM OVC054 M00/M03 A2971 RMK SC8 SLP095=

CYYC;2005-11-11 16:00;METAR CYYC 111600Z 19002KT 40SM BKN054 OVC070 00/M03 A2971 RMK SC5AC2 SLP094=

CYYC;2005-11-11 17:00;METAR CYYC 111700Z 24002KT 40SM BKN050 OVC070 02/M05 A2972 RMK SC6AC2 SLP096=

CYYC;2005-11-11 18:00;METAR CYYC 111800Z 18005KT 40SM SCT055 BKN080 03/M07 A2971 RMK SC3AC2 SLP099=

CYYC;2005-11-11 19:00;METAR CYYC 111900Z 17009KT 40SM FEW055 SCT090 03/M08 A2970 RMK SC2AC2 SLP095=

CYYC;2005-11-11 21:00;METAR CYYC 112100Z 17009KT 40SM FEW060 FEW090 03/M05 A2969 RMK SC2AC1 SLP094=

CYYC;2005-11-11 22:00;METAR CYYC 112200Z 19008KT 40SM FEW060 FEW090 FEW250 04/M05 A2969 RMK SC1AC1CI1 SLP095=

CYYC;2005-11-11 23:00;METAR CYYC 112300Z 19010KT 40SM FEW060 FEW090 03/M05 A2968 RMK SC2AC1 SLP092=

CYYC;2005-11-12 00:00;METAR CYYC 120000Z 18007KT 40SM FEW060 FEW090 M00/M05 A2969 RMK SC1AC1 SLP097=

CYYC;2005-11-12 01:00;METAR CYYC 120100Z 19007KT 15SM FEW065 FEW090 M01/M05 A2968 RMK SC1AC1 SC TR SLP096=

CYYC;2005-11-12 02:00;METAR CYYC 120200Z 12004KT 15SM FEW090 M04/M05 A2968 RMK AC1 AC TR SLP095=

CYYC;2005-11-12 03:00;METAR CYYC 120300Z 04004KT 15SM FEW240 M05/M07 A2967 RMK CI1 SLP098=

CYYC;2005-11-12 04:00;METAR CYYC 120400Z 14008KT 15SM FEW240 M04/M06 A2967 RMK CI0 SLP097=

CYYC;2005-11-12 05:00;METAR CYYC 120500Z 14004KT 15SM FEW100 FEW240 M04/M06 A2966 RMK AC1CI0 SLP094=

CYYC;2005-11-12 06:00;METAR CYYC 120600Z 16004KT 15SM FEW180 BKN250 M04/M07 A2964 RMK AC1CI0 SLP082=

CYYC;2005-11-12 08:00;METAR CYYC 120800Z 21004KT 15SM FEW160 BKN200 M05/M08 A2961 RMK AC1CI2 SLP074=

CYYC;2005-11-12 09:00;METAR CYYC 120900Z 00000KT 15SM SCT180 BKN240 M05/M08 A2961 RMK AC3CI1 SLP070=

CYYC;2005-11-12 10:00;METAR CYYC 121000Z 34005KT 15SM FEW080 BKN180 M07/M08 A2961 RMK AC1AC6 SLP071=

CYYC;2005-11-12 11:00;METAR CYYC 121100Z 33006KT 15SM FEW080 BKN200 M06/M08 A2961 RMK AC1CI3 SLP071=

CYYC;2005-11-12 12:00;METAR CYYC 121200Z 31006KT 15SM FEW160 SCT210 M06/M08 A2963 RMK AC2CI0 SLP083=

CYYC;2005-11-12 14:00;METAR CYYC 121400Z 30007KT 15SM SCT080 BKN140 M02/M07 A2969 RMK AC4AC3 SLP102=

CYYC;2005-11-12 15:00;METAR CYYC 121500Z 33015KT 40SM FEW070 BKN100 OVC240 M01/M07 A2974 RMK AC2AC5CI1 VIRGA ESE SLP125=

CYYC;2005-11-12 16:00;METAR CYYC 121600Z 33015G20KT 40SM FEW070 BKN120 OVC240 M01/M06 A2979 RMK AC2AC5CI1 VIRGA ESE SLP139=

CYYC;2005-11-12 17:00;METAR CYYC 121700Z 33017KT 40SM SCT058 BKN100 BKN230 M01/M05 A2984 RMK SC4AC2CI1 SLP155=

CYYC;2005-11-12 20:00;METAR CYYC 122000Z 34014KT 40SM FEW050 FEW065 FEW170 01/M05 A2993 RMK CU1SC1AC1 CU TR SLP184=

CYYC;2005-11-12 21:00;METAR CYYC 122100Z 03012KT 40SM FEW050 FEW065 FEW170 01/M05 A2994 RMK CU1SC1AC1 CU TR SLP191=

CYYC;2005-11-12 22:00;METAR CYYC 122200Z 01009KT 40SM FEW065 FEW079 FEW250 01/M05 A2997 RMK SC1AC1CI0 SLP198=

CYYC;2005-11-12 23:00;METAR CYYC 122300Z 04005KT 30SM FEW065 FEW080 FEW140 M00/M05 A3000 RMK SC1AC1AC1 SLP207=

CYYC;2005-11-13 00:00;METAR CYYC 130000Z 09005KT 20SM FEW065 FEW080 FEW140 M03/M06 A3001 RMK SC1AC1AC1 ACSL NE SLP222=

CYYC;2005-11-13 01:00;METAR CYYC 130100Z 15004KT 15SM FEW065 FEW090 FEW180 M03/M06 A3003 RMK SC1AC1AC1 SLP226=

CYYC;2005-11-13 02:00;METAR CYYC 130200Z 15006KT 15SM FEW070 FEW110 M04/M07 A3004 RMK AC1AC1 SLP229=

CYYC;2005-11-13 03:00;METAR CYYC 130300Z 19002KT 15SM FEW100 M06/M08 A3005 RMK AC1 SLP231=

CYYC;2005-11-13 04:00;METAR CYYC 130400Z 19006KT 15SM FEW100 FEW240 M04/M07 A3005 RMK AC1CI1 SLP232=

CYYC;2005-11-13 05:00;METAR CYYC 130500Z 18007KT 15SM FEW100 FEW240 M04/M07 A3004 RMK AC1CI0 SLP229=

CYYC;2005-11-13 06:00;METAR CYYC 130600Z 20005KT 15SM FEW100 M07/M08 A3003 RMK AC1 SLP224=

CYYC;2005-11-13 07:00;METAR CYYC 130700Z 19005KT 15SM FEW120 FEW240 M07/M08 A3001 RMK AC1CI0 SLP218=

CYYC;2005-11-13 08:00;METAR CYYC 130800Z 21005KT 15SM FEW120 BKN170 M07/M08 A2999 RMK AC2AC1 SLP212=

CYYC;2005-11-13 10:00;METAR CYYC 131000Z 21006KT 15SM FEW120 SCT160 M06/M10 A2996 RMK AC1AC0 SLP200=

CYYC;2005-11-13 11:00;METAR CYYC 131100Z 20007KT 15SM FEW120 FEW160 M07/M10 A2993 RMK AC1AC0 SLP192=

CYYC;2005-11-13 12:00;METAR CYYC 131200Z 19007KT 15SM FEW130 BKN190 M06/M10 A2991 RMK AC2AC0 SLP188=

CYYC;2005-11-13 13:00;METAR CYYC 131300Z 23005KT 15SM BKN200 M05/M10 A2989 RMK CI7 SLP182=

CYYC;2005-11-13 14:00;METAR CYYC 131400Z 19006KT 15SM BKN190 M05/M09 A2986 RMK AC7 SLP173=

CYYC;2005-11-13 15:00;METAR CYYC 131500Z 15003KT 40SM BKN180 M05/M08 A2984 RMK AC6 SLP166=

CYYC;2005-11-13 16:00;METAR CYYC 131600Z 18003KT 40SM BKN150 M04/M08 A2983 RMK AC7 SLP161=

CYYC;2005-11-13 17:00;METAR CYYC 131700Z 17004KT 40SM BKN090 BKN260 M03/M06 A2980 RMK AC6CI2 SLP154=

CYYC;2005-11-13 18:00;METAR CYYC 131800Z 19005KT 40SM BKN072 BKN260 M02/M06 A2978 RMK AC6CI2 SLP139=

CYYC;2005-11-13 19:00;METAR CYYC 131900Z 12004KT 40SM BKN070 BKN260 M01/M05 A2972 RMK AC6CI1 SLP121=

CYYC;2005-11-13 21:00;METAR CYYC 132100Z 18006KT 40SM FEW060 BKN150 BKN260 01/M05 A2963 RMK CU1AC5CI1 SLP086=

CYYC;2005-11-13 22:00;METAR CYYC 132200Z 18003KT 40SM FEW060 SCT150 SCT250 03/M05 A2960 RMK CU1AC2CI1 CU+CI TR SLP076=

CYYC;2005-11-13 23:00;METAR CYYC 132300Z 31002KT 40SM FEW060 SCT150 01/M06 A2958 RMK CU1AC2 SLP070=

CYYC;2005-11-14 01:00;METAR CYYC 140100Z 27003KT 15SM FEW060 FEW140 M01/M07 A2956 RMK CU1AC1 SLP063=

CYYC;2005-11-14 02:00;METAR CYYC 140200Z 27010KT 15SM FEW140 00/M08 A2957 RMK AC1 SLP065=

CYYC;2005-11-14 03:00;METAR CYYC 140300Z 33014KT 15SM FEW015 FEW090 BKN150 M03/M06 A2960 RMK SC1AC2AC1 SLP078=

CYYC;2005-11-14 04:00;METAR CYYC 140400Z 34011KT 15SM SCT080 BKN150 M04/M05 A2962 RMK AC3AC1 SLP083=

CYYC;2005-11-14 05:00;METAR CYYC 140500Z 34011KT 15SM FEW015 FEW090 BKN180 M04/M06 A2964 RMK SC1AC2AC1 SLP088=

CYYC;2005-11-14 06:00;METAR CYYC 140600Z 34010KT 15SM FEW050 FEW110 SCT160 M05/M06 A2967 RMK SC1AC1AC2 SLP100=

CYYC;2005-11-14 07:00;METAR CYYC 140700Z 35010KT 15SM FEW020 BKN080 M04/M06 A2970 RMK SC1AC7 SLP109=

CYYC;2005-11-14 08:00;METAR CYYC 140800Z 33009KT 15SM FEW034 BKN080 M04/M06 A2973 RMK SC2AC4 SLP119=

CYYC;2005-11-14 09:39;SPECI CYYC 140939Z 32009KT 15SM -SN FEW008 BKN040 BKN090 M05/ RMK SC1SC5AC0 PCPN VRY LGT=

CYYC;2005-11-14 10:00;METAR CYYC 141000Z 34011KT 15SM -SN FEW008 BKN011 OVC040 M04/M06 A2981 RMK SC1SC7SC1 PCPN VRY LGT SLP145=

CYYC;2005-11-14 10:14;SPECI CYYC 141014Z 34012G19KT 15SM -SN FEW008 SCT012 BKN047 M04/ RMK SF1SC4SC2=

CYYC;2005-11-14 11:00;METAR CYYC 141100Z 35012KT 15SM FEW010 BKN050 M04/M06 A2985 RMK SC1SC3 SLP158=

CYYC;2005-11-14 12:00;METAR CYYC 141200Z 35015G25KT 15SM BKN012 BKN070 M04/M06 A2991 RMK SC6AC1 SLP180=

CYYC;2005-11-14 12:53;SPECI CYYC 141253Z 35023G28KT 10SM -SHSN SCT014 BKN024 BKN058 M05/ RMK SC3SC2SC0=

CYYC;2005-11-14 13:00;METAR CYYC 141300Z 35020G28KT 10SM -SHSN FEW014 SCT020 BKN050 M05/M07 A2998 RMK SC1SC2SC1 PRESRR SLP201=

CYYC;2005-11-14 13:55;SPECI CYYC 141355Z 35016G29KT 4SM -SHSN BKN012 BKN020 M05/ RMK SC6SC1=

CYYC;2005-11-14 14:00;METAR CYYC 141400Z 36025G34KT 5SM -SHSN BKN012 BKN020 M05/M07 A3003 RMK SC6SC2 PRESRR SLP218=

CYYC;2005-11-14 14:43;SPECI CYYC 141443Z 34014G22KT 8SM SCT014 BKN022 OVC070 M05/ RMK SC2SC3AC2=

CYYC;2005-11-14 15:34;SPECI CYYC 141534Z 34015G22KT 8SM -SHSN BKN016 BKN035 BKN070 M05/ RMK SC4SC1AC1=

CYYC;2005-11-14 17:50;SPECI CYYC 141750Z 33017G26KT 30SM FEW017 FEW035 M04/ RMK SC1SC2=

CYYC;2005-11-14 19:00;METAR CYYC 141900Z 34018G24KT 30SM BKN024 M04/M09 A3026 RMK SC4 SLP308=

CYYC;2005-11-14 21:00;METAR CYYC 142100Z 34015G21KT 40SM FEW024 FEW085 M04/M10 A3030 RMK SC1AC1 SLP322=

CYYC;2005-11-14 22:00;METAR CYYC 142200Z 35015KT 30SM FEW024 FEW085 M03/M10 A3032 RMK SC1AC1 SLP329=

CYYC;2005-11-14 23:00;METAR CYYC 142300Z 01014KT 30SM FEW024 FEW085 M05/M10 A3035 RMK SC1AC1 SC TR SLP338=

CYYC;2005-11-15 00:00;METAR CYYC 150000Z 36007KT 30SM BKN078 BKN085 M05/M10 A3037 RMK AC4AC1 SLP350=

CYYC;2005-11-15 01:00;METAR CYYC 150100Z 03004KT 15SM BKN061 BKN085 M06/M10 A3039 RMK SC4AC2 SLP356=

CYYC;2005-11-15 03:00;METAR CYYC 150300Z 00000KT 15SM BKN060 BKN096 M06/M09 A3043 RMK SC6AC2 SLP372=

CYYC;2005-11-15 04:00;METAR CYYC 150400Z 15003KT 15SM FEW060 BKN098 M06/M09 A3043 RMK SC2AC4 SLP371=

CYYC;2005-11-15 06:00;METAR CYYC 150600Z 14006KT 15SM BKN083 M07/M09 A3041 RMK AC7 SLP365=

CYYC;2005-11-15 07:00;METAR CYYC 150700Z 11004KT 15SM SCT080 BKN200 M08/M10 A3041 RMK AC2CI1 SLP365=

CYYC;2005-11-15 09:00;METAR CYYC 150900Z 10003KT 15SM FEW080 FEW240 M11/M12 A3040 RMK AC1CI0 SLP366=

CYYC;2005-11-15 09:54;SPECI CYYC 150954Z 09002KT 15SM FEW005 SCT180 M11/ RMK ST2AC0=

CYYC;2005-11-15 10:00;METAR CYYC 151000Z 10005KT 15SM SCT005 BKN180 M11/M11 A3040 RMK ST2AC1 SLP365=

CYYC;2005-11-15 11:00;METAR CYYC 151100Z 00000KT 10SM SCT005 BKN200 M11/M12 A3038 RMK ST2CI0 FROIN SLP361=

CYYC;2005-11-15 11:28;SPECI CYYC 151128Z 00000KT 8SM BKN009 BKN140 M11/ RMK ST6AC1=

CYYC;2005-11-15 12:00;METAR CYYC 151200Z 03003KT 8SM BKN007 M10/M11 A3038 RMK ST6 FROIN SLP361=

CYYC;2005-11-15 13:00;METAR CYYC 151300Z 00000KT 6SM BR BKN006 M10/M11 A3037 RMK SC7 SLP358=

CYYC;2005-11-15 14:00;METAR CYYC 151400Z 00000KT 5SM BR BKN006 M09/M11 A3037 RMK SC7 VIRGA NE SLP358=

CYYC;2005-11-15 15:00;METAR CYYC 151500Z 36002KT 4SM BR BKN008 BKN074 M09/M10 A3037 RMK SC4AC3 VIS 2 NE-SE SLP358=

CYYC;2005-11-15 15:19;SPECI CYYC 151519Z 34003KT 1 1/2SM BR OVC008 M09/ RMK SC8=

CYYC;2005-11-15 15:44;SPECI CYYC 151544Z 35003KT 1 1/2SM -SG BR OVC008 M09/ RMK SC8=

CYYC;2005-11-15 16:00;METAR CYYC 151600Z 33003KT 3SM BR OVC008 OVC075 M09/M10 A3036 RMK SC4AC3 SLP356=

CYYC;2005-11-15 17:00;METAR CYYC 151700Z 00000KT 4SM BR BKN008 BKN075 OVC160 M09/M10 A3036 RMK SC2AC3AC2 SLP356=

CYYC;2005-11-15 19:00;METAR CYYC 151900Z 00000KT 7SM FEW008 OVC250 M06/M09 A3034 RMK SC1CS3 SLP345=

CYYC;2005-11-15 20:00;METAR CYYC 152000Z 13006KT 7SM BKN008 BKN080 BKN250 M05/M07 A3032 RMK SC2AC1CI1 SLP341=

CYYC;2005-11-15 21:00;METAR CYYC 152100Z 10004KT 7SM SCT008 SCT080 BKN250 M06/M08 A3030 RMK SC1AC1CI0 AC TR SLP336=

CYYC;2005-11-15 22:00;METAR CYYC 152200Z 14007KT 7SM BKN007 BKN150 M07/M08 A3029 RMK SC3AC3 SLP332=

CYYC;2005-11-15 23:00;METAR CYYC 152300Z 15006KT 6SM BR BKN007 BKN150 BKN250 M07/M08 A3028 RMK SC2AC1CI1 CI TR SLP330=

CYYC;2005-11-16 00:00;METAR CYYC 160000Z 17008KT 7SM SCT009 BKN140 BKN250 M06/M08 A3027 RMK SC1AC1CI1 CI TR SLP325=

CYYC;2005-11-16 02:00;METAR CYYC 160200Z 18006KT 7SM FEW010 BKN130 M06/M08 A3024 RMK SC1AC6 SLP315=

CYYC;2005-11-16 03:00;METAR CYYC 160300Z 18006KT 15SM BKN120 M06/M08 A3022 RMK AC7 SLP306=

CYYC;2005-11-16 04:00;METAR CYYC 160400Z 18010KT 8SM OVC100 M06/M09 A3021 RMK AC8 SLP301=

CYYC;2005-11-16 05:00;METAR CYYC 160500Z 16011KT 10SM OVC071 M07/M09 A3019 RMK AC7 SLP295=

CYYC;2005-11-16 06:00;METAR CYYC 160600Z 17008KT 10SM BKN071 OVC110 M07/M09 A3016 RMK AC6AC2 SLP283=

CYYC;2005-11-16 07:00;METAR CYYC 160700Z 19007KT 10SM BKN072 BKN110 M07/M09 A3014 RMK AC5AC1 SLP275=

CYYC;2005-11-16 08:00;METAR CYYC 160800Z 19005KT 10SM OVC098 M08/M09 A3012 RMK AC8 SLP269=

CYYC;2005-11-16 09:00;METAR CYYC 160900Z 20007KT 15SM OVC092 M08/M09 A3010 RMK AC7 SLP261=

CYYC;2005-11-16 10:00;METAR CYYC 161000Z 18008KT 15SM OVC085 M07/M09 A3007 RMK AC8 SLP253=

CYYC;2005-11-16 11:00;METAR CYYC 161100Z 21006KT 15SM OVC082 M06/M08 A3005 RMK AC8 SLP247=

CYYC;2005-11-16 12:00;METAR CYYC 161200Z 27018KT 15SM FEW092 FEW240 02/M07 A3003 RMK AC1CI0 SLP222=

CYYC;2005-11-16 13:00;METAR CYYC 161300Z 27015G21KT 15SM FEW095 FEW240 03/M08 A3004 RMK AC1CI0 AC TR SLP223=

CYYC;2005-11-16 14:00;METAR CYYC 161400Z 27012KT 15SM FEW090 FEW240 02/M07 A3001 RMK AC1CI0 SLP216=

CYYC;2005-11-16 16:00;METAR CYYC 161600Z 27012KT 40SM FEW090 SCT240 05/M07 A3001 RMK AC1CI1 SLP214=

CYYC;2005-11-16 17:00;METAR CYYC 161700Z 27011G16KT 40SM BKN075 BKN240 06/M06 A3001 RMK AC6CI1 SLP214=

CYYC;2005-11-16 18:00;METAR CYYC 161800Z 30015KT 40SM BKN067 BKN085 BKN240 07/M06 A3002 RMK AC7AC1CI1 VIRGA SLP213=

CYYC;2005-11-16 19:00;METAR CYYC 161900Z 28005KT 40SM FEW060 BKN070 BKN085 07/M03 A3002 RMK SC1AC6AC1 VIRGA SLP212=

CYYC;2005-11-16 21:00;METAR CYYC 162100Z 35007KT 40SM SCT060 BKN067 BKN085 08/M05 A3002 RMK SC1AC6AC1 VIRGA SLP214=

CYYC;2005-11-16 22:00;METAR CYYC 162200Z 03011G16KT 40SM SCT060 BKN067 BKN085 BKN160 06/M03 A3004 RMK SC1AC6AC1AC0 VIRGA SLP219=

CYYC;2005-11-16 23:00;METAR CYYC 162300Z 02005KT 40SM FEW063 BKN070 BKN085 05/M02 A3006 RMK SC1AC6AC1 VIRGA SLP227=

CYYC;2005-11-17 00:00;METAR CYYC 170000Z 02008KT 40SM FEW062 BKN080 BKN110 04/M02 A3009 RMK SC1AC5AC2 VIRGA SLP228=

CYYC;2005-11-17 01:00;METAR CYYC 170100Z 36006KT 15SM BKN054 BKN080 03/M01 A3011 RMK SC5AC2 VIRGA SLP235=

CYYC;2005-11-17 02:00;METAR CYYC 170200Z 33009KT 15SM BKN054 BKN080 04/M01 A3014 RMK SC4AC3 VIRGA SLP244=

CYYC;2005-11-17 02:20;SPECI CYYC 170220Z 34010KT 15SM -RA FEW026 BKN040 OVC091 03/ RMK SC2SC6AC1=

CYYC;2005-11-17 03:00;METAR CYYC 170300Z 34012KT 15SM -RA BKN049 BKN061 OVC091 03/M00 A3018 RMK SC5SC2AC1 SLP259=

CYYC;2005-11-17 04:00;METAR CYYC 170400Z 32012KT 15SM BKN060 OVC070 03/M01 A3019 RMK SC6AC2 VIRGA SW SLP263=

CYYC;2005-11-17 05:00;METAR CYYC 170500Z 33012KT 15SM BKN060 OVC080 03/M02 A3021 RMK SC5AC3 SLP268=

CYYC;2005-11-17 06:00;METAR CYYC 170600Z 32011KT 15SM BKN099 03/M03 A3022 RMK AC6 SLP269=

CYYC;2005-11-17 07:00;METAR CYYC 170700Z 30004KT 15SM BKN095 01/M03 A3024 RMK AC6 SLP273=

CYYC;2005-11-17 09:00;METAR CYYC 170900Z 24004KT 15SM FEW095 FEW250 M01/M04 A3025 RMK AC1CI0 AC TR SLP283=

CYYC;2005-11-17 10:00;METAR CYYC 171000Z 21006KT 15SM FEW095 FEW250 M02/M04 A3025 RMK AC1CI0 SLP283=

CYYC;2005-11-17 11:00;METAR CYYC 171100Z 24003KT 15SM FEW095 FEW250 M02/M04 A3025 RMK AC1CI1 SLP282=

CYYC;2005-11-17 12:00;METAR CYYC 171200Z 22006KT 15SM FEW250 M03/M04 A3024 RMK CI0 SLP286=

CYYC;2005-11-17 13:00;METAR CYYC 171300Z 19002KT 15SM FEW250 M01/M04 A3023 RMK CI0 SLP285=

CYYC;2005-11-17 14:00;METAR CYYC 171400Z 21002KT 15SM FEW250 M03/M05 A3023 RMK CI1 SLP283=

CYYC;2005-11-17 15:00;METAR CYYC 171500Z 22005KT 40SM FEW250 M04/M06 A3022 RMK CI0 SLP283=

CYYC;2005-11-17 16:00;METAR CYYC 171600Z 25007KT 40SM FEW250 01/M05 A3021 RMK CI0 SLP281=

CYYC;2005-11-17 17:00;METAR CYYC 171700Z 26005KT 40SM FEW260 05/M05 A3021 RMK CI0 SLP280=

CYYC;2005-11-17 18:00;METAR CYYC 171800Z 27008KT 40SM FEW260 07/M06 A3022 RMK CI0 CONTRAILS SLP266=

CYYC;2005-11-17 19:00;METAR CYYC 171900Z 27007KT 40SM FEW140 FEW260 11/M07 A3020 RMK AC1CI0 SLP260=

CYYC;2005-11-17 20:00;METAR CYYC 172000Z 27008KT 40SM FEW140 FEW240 13/M07 A3017 RMK AC1CI0 SLP251=

CYYC;2005-11-17 21:00;METAR CYYC 172100Z 24006KT 40SM FEW240 12/M07 A3015 RMK CI0 SLP241=

CYYC;2005-11-17 22:00;METAR CYYC 172200Z 20005KT 40SM FEW120 FEW240 12/M06 A3011 RMK AC1CI0 AC TR SLP231=

CYYC;2005-11-17 23:00;METAR CYYC 172300Z 19007KT 40SM FEW120 SCT240 09/M06 A3008 RMK AC1CI2 SLP220=

CYYC;2005-11-18 00:00;METAR CYYC 180000Z 25004KT 40SM BKN240 09/M08 A3005 RMK CI2 SLP212=

CYYC;2005-11-18 01:00;METAR CYYC 180100Z 26014G20KT 15SM SCT240 10/M08 A3003 RMK CI2 SLP208=

CYYC;2005-11-18 02:00;METAR CYYC 180200Z 27023G28KT 15SM BKN260 11/M07 A3001 RMK CI4 SLP202=

CYYC;2005-11-18 03:00;METAR CYYC 180300Z 27017G24KT 15SM SCT110 BKN250 11/M07 A3001 RMK AC2CI2 SLP196=

CYYC;2005-11-18 04:00;METAR CYYC 180400Z 27015KT 15SM SCT092 BKN240 11/M07 A3000 RMK AC3CI2 SLP193=

CYYC;2005-11-18 05:00;METAR CYYC 180500Z 27017G24KT 15SM SCT095 OVC240 11/M07 A2999 RMK AC4CI3 SLP190=

CYYC;2005-11-18 06:00;METAR CYYC 180600Z 27017G24KT 15SM SCT095 OVC240 11/M06 A2997 RMK AC3CI4 SLP169=

CYYC;2005-11-18 07:00;METAR CYYC 180700Z 26017G28KT 15SM FEW090 BKN140 OVC240 11/M05 A2993 RMK AC2AC5CI2 SLP158=

CYYC;2005-11-18 09:00;METAR CYYC 180900Z 25017KT 15SM BKN150 OVC240 10/M04 A2990 RMK AC5CI3 SLP141=

CYYC;2005-11-18 10:00;METAR CYYC 181000Z 25014KT 15SM FEW140 OVC240 10/M03 A2987 RMK AC2CI6 SLP131=

CYYC;2005-11-18 11:00;METAR CYYC 181100Z 25010KT 15SM SCT160 OVC240 10/M03 A2985 RMK AC3CI5 SLP123=

CYYC;2005-11-18 12:00;METAR CYYC 181200Z 26014G20KT 15SM FEW160 OVC210 11/M03 A2982 RMK AC2CI6 SLP113=

CYYC;2005-11-18 13:00;METAR CYYC 181300Z 26016G22KT 15SM BKN150 OVC220 11/M02 A2978 RMK AC6CI2 SLP103=

CYYC;2005-11-18 14:00;METAR CYYC 181400Z 27015KT 15SM SCT092 BKN220 10/M02 A2978 RMK AC3CI3 SLP101=

CYYC;2005-11-18 15:00;METAR CYYC 181500Z 27020G26KT 40SM BKN110 BKN220 11/M02 A2978 RMK AC4CI1 VIRGA NW-E SLP095=

CYYC;2005-11-18 16:00;METAR CYYC 181600Z 27015KT 40SM VCSH SCT090 BKN130 BKN240 11/M02 A2982 RMK AC3AC1CI1 SHS NW-SE SLP109=

CYYC;2005-11-18 16:19;SPECI CYYC 181619Z 02021G29KT 40SM -RA BKN080 BKN130 BKN240 09/ RMK AC6AC1CI1=

CYYC;2005-11-18 17:00;METAR CYYC 181700Z 36026G36KT 40SM -RA BKN080 BKN240 07/03 A2995 RMK AC7CI1 PRESRR PAST HOUR SLP148=

CYYC;2005-11-18 18:00;METAR CYYC 181800Z 35026G36KT 40SM -RA BKN060 06/02 A3001 RMK SC7 PRESRR=

CYYC;2005-11-18 18:48;SPECI CYYC 181848Z 33023G35KT 40SM SCT060 BKN090 08/ RMK SC2AC1=

CYYC;2005-11-18 19:00;METAR CYYC 181900Z 33021G27KT 40SM FEW060 BKN090 08/M00 A3004 RMK SC2AC1 SLP193=

CYYC;2005-11-18 20:00;METAR CYYC 182000Z 34018G27KT 30SM FEW060 BKN240 10/M02 A3006 RMK SC2CI0 SLP200=

CYYC;2005-11-18 21:00;METAR CYYC 182100Z 35022G28KT 40SM FEW060 FEW090 BKN250 10/M04 A3009 RMK SC1AC1CI1 SC TR SLP209=

CYYC;2005-11-18 22:00;METAR CYYC 182200Z 33014KT 40SM FEW060 FEW090 BKN250 09/M04 A3012 RMK SC1AC1CI1 SLP218=

CYYC;2005-11-18 23:00;METAR CYYC 182300Z 31006KT 40SM FEW060 FEW090 BKN250 07/M03 A3015 RMK SC1AC1CI1 SLP228=

CYYC;2005-11-19 00:00;METAR CYYC 190000Z 32008KT 30SM FEW090 BKN250 04/M04 A3018 RMK AC1CI0 SLP245=

CYYC;2005-11-19 01:00;METAR CYYC 190100Z 32007KT 15SM FEW090 SCT250 02/M04 A3018 RMK AC1CI0 SLP245=

CYYC;2005-11-19 02:00;METAR CYYC 190200Z 20002KT 15SM SCT250 05/M04 A3021 RMK CI0 SLP254=

CYYC;2005-11-19 03:00;METAR CYYC 190300Z 00000KT 15SM FEW250 02/M04 A3022 RMK CI0 SLP262=

CYYC;2005-11-19 03:12;SPECI CYYC 190312Z 28004KT 15SM FEW250 00/ RMK CI0=

CYYC;2005-11-19 04:00;METAR CYYC 190400Z 00000KT 15SM FEW250 M01/M05 A3023 RMK CI0 SLP266=

CYYC;2005-11-19 05:00;METAR CYYC 190500Z 00000KT 15SM FEW250 M01/M05 A3025 RMK CI1 SLP271=

CYYC;2005-11-19 06:00;METAR CYYC 190600Z 00000KT 15SM SKC M01/M05 A3026 RMK SLP288=

CYYC;2005-11-19 09:00;METAR CYYC 190900Z 22006KT 15SM FEW250 M01/M04 A3022 RMK CI0 SLP267=

CYYC;2005-11-19 11:00;METAR CYYC 191100Z 30006KT 15SM BKN250 05/M03 A3020 RMK CI0 SLP263=

CYYC;2005-11-19 12:00;METAR CYYC 191200Z 00000KT 15SM SCT250 01/M04 A3020 RMK CI0 SLP266=

CYYC;2005-11-19 13:00;METAR CYYC 191300Z 20004KT 15SM SCT250 02/M03 A3019 RMK CI0 SLP263=

CYYC;2005-11-19 14:00;METAR CYYC 191400Z 18003KT 15SM FEW250 03/M03 A3017 RMK CI0 SLP259=

CYYC;2005-11-19 15:00;METAR CYYC 191500Z 20009KT 40SM FEW090 FEW190 FEW260 01/M03 A3017 RMK AC1AC1CI0 SLP260=

CYYC;2005-11-19 16:00;METAR CYYC 191600Z 19005KT 40SM FEW090 FEW190 BKN260 03/M02 A3018 RMK AC1AC1CI0 SLP262=

CYYC;2005-11-19 17:00;METAR CYYC 191700Z 21008KT 40SM FEW190 BKN260 06/M01 A3017 RMK AC1CI0 SLP261=

CYYC;2005-11-19 18:00;METAR CYYC 191800Z 21008KT 40SM FEW190 BKN260 09/M01 A3016 RMK AC1CI1 AC TR SLP251=

CYYC;2005-11-19 19:00;METAR CYYC 191900Z 21004KT 40SM FEW190 BKN260 12/M01 A3015 RMK AC1CI0 SLP249=

CYYC;2005-11-19 21:00;METAR CYYC 192100Z 20007KT 40SM FEW190 BKN260 15/00 A3012 RMK AC1CI0 SLP226=

CYYC;2005-11-19 22:00;METAR CYYC 192200Z 18006KT 40SM BKN160 BKN230 BKN260 15/00 A3009 RMK AC3CI2CI0 SLP218=

CYYC;2005-11-20 00:00;METAR CYYC 200000Z 18006KT 30SM BKN160 BKN230 BKN260 10/00 A3006 RMK AC5CI2CI0 SLP212=

CYYC;2005-11-20 01:00;METAR CYYC 200100Z 27015KT 15SM BKN160 15/M03 A3006 RMK AC7 SLP210=

CYYC;2005-11-20 02:00;METAR CYYC 200200Z 25018KT 15SM BKN180 15/M03 A3005 RMK AC7 SLP207=

CYYC;2005-11-20 03:00;METAR CYYC 200300Z 26014KT 15SM SCT190 14/M03 A3006 RMK AC4 SLP205=

CYYC;2005-11-20 04:00;METAR CYYC 200400Z 21003KT 15SM SCT190 08/M03 A3005 RMK AC2 SLP202=

CYYC;2005-11-20 06:00;METAR CYYC 200600Z 26012KT 15SM BKN260 12/M01 A3007 RMK CI7 SLP203=

CYYC;2005-11-20 07:00;METAR CYYC 200700Z 27005KT 15SM BKN240 10/M01 A3009 RMK CI4 SLP207=

CYYC;2005-11-20 08:00;METAR CYYC 200800Z 26016KT 15SM FEW240 11/M01 A3007 RMK CI2 SLP203=

CYYC;2005-11-20 10:00;METAR CYYC 201000Z 25010KT 15SM FEW240 10/M01 A3007 RMK CI1 SLP192=

CYYC;2005-11-20 11:00;METAR CYYC 201100Z 27012KT 15SM SCT240 11/M01 A3006 RMK CI2 SLP190=

CYYC;2005-11-20 12:00;METAR CYYC 201200Z 27014KT 15SM FEW240 BKN260 12/M01 A3006 RMK CI2CI3 SLP196=

CYYC;2005-11-20 13:00;METAR CYYC 201300Z 27013KT 15SM FEW240 SCT260 10/M01 A3007 RMK CI1CI0 SLP198=

CYYC;2005-11-20 14:00;METAR CYYC 201400Z 27014G19KT 15SM FEW240 BKN260 11/M02 A3007 RMK CI2CI1 SLP199=

CYYC;2005-11-20 15:00;METAR CYYC 201500Z 27012KT 40SM FEW160 BKN260 11/M02 A3007 RMK AC1CI2 SLP195=

CYYC;2005-11-20 16:00;METAR CYYC 201600Z 27017KT 40SM FEW080 FEW160 BKN260 11/M02 A3008 RMK AC1AC1CI2 SLP198=

CYYC;2005-11-20 17:00;METAR CYYC 201700Z 27016KT 40SM FEW080 FEW160 BKN250 12/M02 A3008 RMK AC1AC1CI1 SLP200=

CYYC;2005-11-20 18:00;METAR CYYC 201800Z 27015KT 40SM FEW080 FEW160 BKN250 13/M02 A3011 RMK AC1AC1CI1 SLP207=

CYYC;2005-11-20 21:00;METAR CYYC 202100Z 29010KT 40SM FEW160 BKN250 16/M03 A3013 RMK AC1CI1 ACSL S SLP214=

CYYC;2005-11-20 22:00;METAR CYYC 202200Z 34005KT 40SM FEW160 SCT250 12/M03 A3015 RMK AC1CI1 ACSL SW SLP220=

CYYC;2005-11-20 23:00;METAR CYYC 202300Z 09007KT 40SM FEW090 FEW160 FEW240 BKN260 09/M02 A3018 RMK AC1AC1CI1CI0 ACSL SW SLP228=

CYYC;2005-11-21 00:00;METAR CYYC 210000Z 30004KT 30SM FEW090 FEW160 FEW240 SCT260 05/M02 A3020 RMK AC1AC1CI1CI0 ACSL S SLP252=

CYYC;2005-11-21 01:00;METAR CYYC 210100Z 35002KT 15SM SCT240 06/M02 A3023 RMK CI1 SLP260=

CYYC;2005-11-21 02:00;METAR CYYC 210200Z 25003KT 15SM BKN240 03/M03 A3026 RMK CI1 SLP270=

CYYC;2005-11-21 04:00;METAR CYYC 210400Z 34003KT 15SM SCT240 01/M04 A3027 RMK CI0 SLP284=

CYYC;2005-11-21 05:00;METAR CYYC 210500Z 19004KT 15SM SKC 01/M04 A3027 RMK SLP282=

CYYC;2005-11-21 06:00;METAR CYYC 210600Z 22004KT 15SM SKC 01/M03 A3028 RMK SLP283=

CYYC;2005-11-21 08:00;METAR CYYC 210800Z 00000KT 15SM SKC 02/M03 A3026 RMK SLP277=

CYYC;2005-11-21 09:00;METAR CYYC 210900Z 00000KT 15SM SKC 01/M04 A3023 RMK SLP261=

CYYC;2005-11-21 10:00;METAR CYYC 211000Z 20002KT 15SM SKC M02/M05 A3023 RMK SLP260=

CYYC;2005-11-21 11:00;METAR CYYC 211100Z 26002KT 15SM SKC M01/M04 A3021 RMK SLP255=

CYYC;2005-11-21 12:00;METAR CYYC 211200Z 19005KT 15SM SKC M02/M04 A3020 RMK SLP270=

CYYC;2005-11-21 13:00;METAR CYYC 211300Z 36002KT 15SM FEW250 M02/M05 A3019 RMK CI0 SLP267=

CYYC;2005-11-21 14:00;METAR CYYC 211400Z 27003KT 15SM FEW250 04/M04 A3019 RMK CI0 SLP267=

CYYC;2005-11-21 15:00;METAR CYYC 211500Z 28002KT 40SM BKN250 06/M03 A3019 RMK CI1 SLP261=

CYYC;2005-11-21 16:00;METAR CYYC 211600Z 29009G15KT 40SM FEW180 BKN250 09/M03 A3020 RMK AC1CI4 SLP263=

CYYC;2005-11-21 17:00;METAR CYYC 211700Z 29014KT 40SM FEW180 BKN260 11/M04 A3020 RMK AC0CI5 SLP264=

CYYC;2005-11-21 18:00;METAR CYYC 211800Z 28011G17KT 40SM FEW180 BKN260 12/M03 A3020 RMK AC1CI4 SLP257=

CYYC;2005-11-21 19:00;METAR CYYC 211900Z 27012G18KT 40SM SCT180 BKN260 13/M03 A3017 RMK AC2CI4 SLP248=

CYYC;2005-11-21 21:00;METAR CYYC 212100Z 27013KT 40SM FEW180 BKN260 13/M03 A3015 RMK AC1CI1 SLP236=

CYYC;2005-11-21 22:00;METAR CYYC 212200Z 27013G18KT 40SM FEW180 BKN260 14/M03 A3014 RMK AC1CI1 SLP235=

CYYC;2005-11-21 23:00;METAR CYYC 212300Z 28012G17KT 40SM FEW180 BKN260 13/M03 A3014 RMK AC1CI0 SLP233=

CYYC;2005-11-22 00:00;METAR CYYC 220000Z 27015KT 30SM FEW180 BKN260 13/M03 A3014 RMK AC1CI0 SLP238=

CYYC;2005-11-22 01:00;METAR CYYC 220100Z 26013KT 15SM FEW180 BKN260 12/M04 A3012 RMK AC1CI0 SLP233=

CYYC;2005-11-22 02:00;METAR CYYC 220200Z 27015KT 15SM BKN260 12/M04 A3010 RMK CI1 SLP228=

CYYC;2005-11-22 03:00;METAR CYYC 220300Z 27014KT 15SM FEW260 12/M05 A3009 RMK CI0 SLP214=

CYYC;2005-11-22 04:00;METAR CYYC 220400Z 27017KT 15SM FEW260 12/M05 A3008 RMK CI0 SLP209=

CYYC;2005-11-22 05:00;METAR CYYC 220500Z 27019G25KT 15SM FEW110 BKN260 12/M06 A3007 RMK AC1CI1 SLP207=

CYYC;2005-11-22 06:00;METAR CYYC 220600Z 27016G24KT 15SM FEW110 BKN260 13/M06 A3006 RMK AC1CI1 SLP192=

CYYC;2005-11-22 07:00;METAR CYYC 220700Z 27020G25KT 15SM BKN250 13/M07 A3006 RMK CI1 SLP193=

CYYC;2005-11-22 08:00;METAR CYYC 220800Z 27017G22KT 15SM BKN260 13/M07 A3006 RMK CI2 SLP190=

CYYC;2005-11-22 09:00;METAR CYYC 220900Z 27016G21KT 15SM BKN260 13/M08 A3005 RMK CI1 SLP184=

CYYC;2005-11-22 10:00;METAR CYYC 221000Z 27017KT 15SM FEW250 12/M08 A3004 RMK CI0 SLP181=

CYYC;2005-11-22 11:00;METAR CYYC 221100Z 27017KT 15SM FEW250 14/M09 A3002 RMK CI0 SLP177=

CYYC;2005-11-22 12:00;METAR CYYC 221200Z 27019KT 15SM FEW250 13/M09 A3002 RMK CI1 SLP174=

CYYC;2005-11-22 13:00;METAR CYYC 221300Z 27016G21KT 15SM SKC 13/M09 A3000 RMK SLP170=

CYYC;2005-11-22 14:00;METAR CYYC 221400Z 26015KT 15SM FEW250 13/M09 A2999 RMK CI1 SLP165=

CYYC;2005-11-22 15:00;METAR CYYC 221500Z 26014KT 40SM SCT250 13/M09 A2997 RMK CI0 SLP161=

CYYC;2005-11-22 16:00;METAR CYYC 221600Z 16006KT 40SM SCT250 09/M07 A2997 RMK CI0 SLP160=

CYYC;2005-11-22 17:00;METAR CYYC 221700Z 26014KT 40SM FEW250 16/M08 A2998 RMK CI0 SLP163=

CYYC;2005-11-22 18:00;METAR CYYC 221800Z 25012KT 40SM FEW250 16/M07 A2998 RMK CI0 SLP159=

CYYC;2005-11-24 07:00;METAR CYYC 240700Z 00000KT 15SM FEW240 M01/M07 A2996 RMK CI1 SLP176=

CYYC;2005-11-24 09:00;METAR CYYC 240900Z 00000KT 15SM FEW240 01/M07 A2992 RMK CI1 SLP154=

CYYC;2005-11-24 11:00;METAR CYYC 241100Z 21006KT 15SM FEW240 M02/M07 A2988 RMK CI1 SLP140=

CYYC;2005-11-24 12:00;METAR CYYC 241200Z 00000KT 15SM FEW240 01/M07 A2986 RMK CI1 SLP144=

CYYC;2005-11-24 13:00;METAR CYYC 241300Z 21006KT 15SM SKC 00/M06 A2984 RMK SLP137=

CYYC;2005-11-24 14:00;METAR CYYC 241400Z 23002KT 15SM FEW100 03/M07 A2983 RMK AC1 SLP132=

CYYC;2005-11-24 15:00;METAR CYYC 241500Z 00000KT 40SM FEW100 00/M08 A2982 RMK AC1 AC TR SLP136=

CYYC;2005-11-24 16:00;METAR CYYC 241600Z 00000KT 40SM FEW100 05/M07 A2982 RMK AC1 AC TR SLP136=

CYYC;2005-11-24 17:00;METAR CYYC 241700Z 33007KT 40SM FEW140 11/M07 A2982 RMK AC1 AC TR SLP137=

CYYC;2005-11-24 18:00;METAR CYYC 241800Z 33005KT 40SM FEW140 14/M08 A2981 RMK AC1 AC TR SLP120=

CYYC;2005-11-24 19:00;METAR CYYC 241900Z 31011KT 40SM FEW140 15/M09 A2980 RMK AC1 AC TR SLP115=

CYYC;2005-11-24 20:00;METAR CYYC 242000Z 29013KT 40SM FEW090 17/M09 A2977 RMK AC1 AC TR SLP106=

CYYC;2005-11-24 21:00;METAR CYYC 242100Z 30009KT 40SM FEW090 17/M09 A2976 RMK AC1 AC TR SLP098=

CYYC;2005-11-24 22:00;METAR CYYC 242200Z 27008KT 40SM FEW100 17/M10 A2974 RMK AC1 AC TR SLP092=

CYYC;2005-11-24 23:00;METAR CYYC 242300Z 31003KT 40SM SKC 14/M10 A2974 RMK SLP092=

CYYC;2005-11-25 00:00;METAR CYYC 250000Z 30005KT 40SM FEW100 10/M10 A2973 RMK AC1 AC TR SLP095=

CYYC;2005-11-25 03:00;METAR CYYC 250300Z 01004KT 15SM SKC 08/M11 A2970 RMK SLP091=

CYYC;2005-11-25 04:00;METAR CYYC 250400Z 30008KT 15SM FEW240 10/M11 A2967 RMK CI0 SLP083=

CYYC;2005-11-25 05:00;METAR CYYC 250500Z 31010KT 15SM FEW240 10/M11 A2966 RMK CI0 SLP080=

CYYC;2005-11-25 06:00;METAR CYYC 250600Z 31012G19KT 15SM SKC 10/M11 A2966 RMK SLP055=

CYYC;2005-11-25 08:00;METAR CYYC 250800Z 29015G20KT 15SM SKC 11/M12 A2965 RMK SLP052=

CYYC;2005-11-25 09:00;METAR CYYC 250900Z 35006KT 15SM FEW230 07/M11 A2966 RMK CI1 SLP053=

CYYC;2005-11-25 11:00;METAR CYYC 251100Z 28004KT 15SM FEW100 SCT240 08/M10 A2966 RMK AC1CI1 SLP054=

CYYC;2005-11-25 12:00;METAR CYYC 251200Z 27010G17KT 15SM FEW100 SCT240 09/M08 A2965 RMK AC1CI1 SLP055=

CYYC;2005-11-25 13:00;METAR CYYC 251300Z 33006KT 15SM FEW110 BKN150 09/M06 A2964 RMK AC2AC2 SLP054=

CYYC;2005-11-25 14:00;METAR CYYC 251400Z 31010KT 15SM BKN120 BKN180 10/M07 A2963 RMK AC5AC2 SLP048=

CYYC;2005-11-25 15:00;METAR CYYC 251500Z 35006KT 40SM FEW110 SCT180 BKN220 06/M07 A2962 RMK AC2AC2CI3 SLP053=

CYYC;2005-11-25 16:00;METAR CYYC 251600Z 03005KT 40SM FEW080 SCT180 BKN220 05/M06 A2963 RMK AC1AC2CI2 SLP055=

CYYC;2005-11-25 18:00;METAR CYYC 251800Z 28003KT 40SM FEW090 SCT220 SCT250 07/M05 A2964 RMK AC1CI2CI1 SLP057=

CYYC;2005-11-25 19:00;METAR CYYC 251900Z 36007KT 40SM FEW090 FEW220 SCT250 12/M05 A2961 RMK AC1CI1CI1 AC TR SLP045=

CYYC;2005-11-25 20:00;METAR CYYC 252000Z 35010KT 40SM FEW220 SCT250 12/M06 A2960 RMK CI1CI1 SLP042=

CYYC;2005-11-25 21:00;METAR CYYC 252100Z 01012KT 40SM FEW240 SCT250 11/M06 A2957 RMK CI2CI0 SLP029=

CYYC;2005-11-25 23:00;METAR CYYC 252300Z 34007KT 40SM FEW150 SCT170 BKN260 07/M05 A2953 RMK AC2AC2CI2 SLP019=

CYYC;2005-11-26 00:00;METAR CYYC 260000Z 30004KT 40SM BKN140 BKN220 BKN260 06/M05 A2953 RMK AC5CI1CI2 SLP020=

CYYC;2005-11-26 01:00;METAR CYYC 260100Z 24005KT 15SM SCT085 BKN100 OVC260 06/M05 A2952 RMK AC4AC2CI2 SLP018=

CYYC;2005-11-26 03:00;METAR CYYC 260300Z 32007KT 15SM BKN089 OVC120 05/M05 A2949 RMK AC7AC1 SLP011=

CYYC;2005-11-26 04:00;METAR CYYC 260400Z 00000KT 15SM FEW080 BKN100 BKN120 05/M05 A2948 RMK AC1AC6AC1 SLP008=

CYYC;2005-11-26 05:00;METAR CYYC 260500Z 20002KT 15SM FEW080 SCT120 OVC190 04/M05 A2948 RMK AC1AC3AC4 SLP010=

CYYC;2005-11-26 05:29;SPECI CYYC 260529Z 00000KT 15SM BKN120 BKN200 02/ RMK AC6CI1=

CYYC;2005-11-26 06:00;METAR CYYC 260600Z 09004KT 15SM FEW080 BKN120 BKN180 01/M05 A2947 RMK AC1AC5AC2 SLP008=

CYYC;2005-11-26 07:00;METAR CYYC 260700Z 01002KT 15SM FEW080 BKN100 OVC150 03/M05 A2947 RMK AC1AC5AC2 VIRGA S SLP008=

CYYC;2005-11-26 07:27;SPECI CYYC 260727Z 32003KT 15SM OVC110 02/ RMK AC8 VIRGA S=

CYYC;2005-11-26 08:00;METAR CYYC 260800Z 28003KT 15SM FEW080 BKN120 OVC150 01/M04 A2946 RMK AC2AC5AC2 SLP005=

CYYC;2005-11-26 11:00;METAR CYYC 261100Z 21004KT 15SM FEW064 BKN080 01/M04 A2946 RMK SC2AC5 SLP998=

CYYC;2005-11-26 12:00;METAR CYYC 261200Z 00000KT 15SM FEW060 BKN080 01/M04 A2947 RMK SC2AC6 SLP010=

CYYC;2005-11-26 13:00;METAR CYYC 261300Z 32003KT 15SM FEW060 OVC087 02/M03 A2948 RMK SC1AC7 SLP015=

CYYC;2005-11-26 14:00;METAR CYYC 261400Z 34009KT 15SM FEW060 BKN095 03/M04 A2949 RMK SC1AC6 SLP017=

CYYC;2005-11-26 15:00;METAR CYYC 261500Z 32012KT 40SM FEW050 BKN096 03/M01 A2950 RMK SC1AC6 SLP020=

CYYC;2005-11-26 15:39;SPECI CYYC 261539Z 32010KT 40SM FEW095 SCT250 01/ RMK AC2CI0=

CYYC;2005-11-26 16:00;METAR CYYC 261600Z 33009KT 40SM FEW060 SCT092 02/M01 A2953 RMK SC1AC2 SLP029=

CYYC;2005-11-26 17:00;METAR CYYC 261700Z 31010KT 40SM FEW060 BKN090 03/M00 A2956 RMK SC1AC2 SLP037=

CYYC;2005-11-26 17:46;SPECI CYYC 261746Z 33013KT 40SM FEW012 FEW060 BKN090 03/ RMK SC1SC1AC2=

CYYC;2005-11-26 18:00;METAR CYYC 261800Z 32014G19KT 40SM FEW012 FEW060 BKN090 03/00 A2959 RMK SC1SC1AC2 SLP055=

CYYC;2005-11-26 18:15;SPECI CYYC 261815Z 32014G19KT 40SM FEW060 FEW073 BKN090 03/ RMK SC1AC2AC2=

CYYC;2005-11-26 19:00;METAR CYYC 261900Z 33014G19KT 40SM FEW060 BKN078 04/M01 A2960 RMK SC1AC4 SLP059=

CYYC;2005-11-26 20:00;METAR CYYC 262000Z 33021G26KT 40SM SCT076 BKN092 BKN140 BKN250 04/M02 A2962 RMK AC3AC2AC1CI0 SLP064=

CYYC;2005-11-26 21:00;METAR CYYC 262100Z 34020G26KT 40SM SCT080 BKN100 BKN140 BKN250 05/M02 A2963 RMK AC3AC2AC1CI0 VIRGA SE SLP067=

CYYC;2005-11-26 22:00;METAR CYYC 262200Z 34023G28KT 40SM FEW060 BKN100 BKN140 OVC250 04/M02 A2966 RMK SC1AC5AC2CI0 SLP076=

CYYC;2005-11-26 23:00;METAR CYYC 262300Z 34018KT 40SM FEW060 BKN100 OVC250 03/M01 A2970 RMK SC2AC5CI2 SLP088=

CYYC;2005-11-27 00:00;METAR CYYC 270000Z 33020G26KT 15SM FEW050 BKN085 OVC140 02/M03 A2974 RMK SC2AC4AC2 SLP110=

CYYC;2005-11-27 01:00;METAR CYYC 270100Z 34017G22KT 15SM FEW060 BKN085 OVC140 02/M03 A2977 RMK SC2AC4AC2 SLP119=

CYYC;2005-11-27 04:00;METAR CYYC 270400Z 35018G24KT 4SM -SN BLSN BKN017 OVC034 M00/M02 A2983 RMK SC6SC2 SLP140=

CYYC;2005-11-27 05:00;METAR CYYC 270500Z 33017G22KT 7SM -SN FEW047 OVC061 M00/M02 A2985 REBLSN RMK SC2SC6 SLP146=

CYYC;2005-11-27 06:00;METAR CYYC 270600Z 34014G19KT 15SM -SN BKN019 OVC050 M00/M02 A2987 RMK SC6SC2 SLP155=

CYYC;2005-11-27 06:20;SPECI CYYC 270620Z 34017G22KT 15SM OVC018 M00/ RMK SC8=

CYYC;2005-11-27 07:00;METAR CYYC 270700Z 34016G22KT 15SM OVC018 M00/M03 A2990 RMK SC8 SLP165=

CYYC;2005-11-27 09:00;METAR CYYC 270900Z 34015KT 15SM FEW017 OVC028 M01/M03 A2994 RMK SC1SC7 SLP180=

CYYC;2005-11-27 09:48;SPECI CYYC 270948Z 35014KT 3SM -SN BKN019 OVC044 M01/ RMK SC7SC1=

CYYC;2005-11-27 10:00;METAR CYYC 271000Z 35013G18KT 3SM -SN DRSN BKN019 OVC039 M01/M03 A2997 RMK SC5SC3 SLP187=

CYYC;2005-11-27 11:00;METAR CYYC 271100Z 35010KT 2SM -SN OVC017 M02/M02 A2998 RMK SC8 SLP192=

CYYC;2005-11-27 13:00;METAR CYYC 271300Z 01012G17KT 5SM -SN OVC014 M02/M04 A3002 RMK SC8 SLP212=

CYYC;2005-11-27 15:00;METAR CYYC 271500Z 34013KT 15SM FEW018 BKN065 OVC090 M03/M05 A3007 RMK SC2SC3AC3 SLP232=

CYYC;2005-11-27 16:00;METAR CYYC 271600Z 34010KT 15SM BKN075 OVC090 M03/M06 A3009 RMK AC6AC2 SLP238=

CYYC;2005-11-27 17:00;METAR CYYC 271700Z 33008KT 15SM SCT085 OVC100 M03/M06 A3010 RMK AS3AC5 SLP243=

CYYC;2005-11-27 18:00;METAR CYYC 271800Z 34010KT 30SM FEW020 SCT072 BKN100 OVC240 M03/M07 A3012 RMK SC1AS2AC2CI1 SC TR SLP251=

CYYC;2005-11-27 19:00;METAR CYYC 271900Z 36009KT 30SM FEW040 BKN080 BKN100 OVC240 M03/M07 A3012 RMK SC1AS5AC2CI0 SC TR SLP252=

CYYC;2005-11-27 20:00;METAR CYYC 272000Z 36009KT 30SM FEW060 SCT080 BKN100 OVC240 M02/M07 A3012 RMK SC1AS4AC2CI0 SC TR SLP252=

CYYC;2005-11-27 21:00;METAR CYYC 272100Z 35010KT 30SM FEW075 SCT100 BKN120 OVC250 M02/M08 A3013 RMK AS2AC2AC1CI0 SLP254=

CYYC;2005-11-27 22:00;METAR CYYC 272200Z 32008KT 30SM FEW070 SCT100 BKN120 OVC250 M02/M08 A3013 RMK AC2AS2AC1CI0 SLP256=

CYYC;2005-11-27 23:00;METAR CYYC 272300Z 34006KT 30SM FEW056 SCT120 BKN180 OVC250 M03/M08 A3014 RMK ST1AS2AC2CI2 SLP259=

CYYC;2005-11-28 00:00;METAR CYYC 280000Z 34004KT 30SM FEW052 SCT100 BKN180 OVC250 M04/M08 A3016 RMK ST1AC2AC2CI3 SLP269=

CYYC;2005-11-28 01:00;METAR CYYC 280100Z 32003KT 15SM FEW058 BKN085 OVC250 M04/M08 A3017 RMK ST1AC5CI2 SLP273=

CYYC;2005-11-28 02:00;METAR CYYC 280200Z 32004KT 15SM BKN082 OVC100 M05/M08 A3018 RMK AC5AC3 SLP276=

CYYC;2005-11-28 03:00;METAR CYYC 280300Z 32003KT 15SM BKN077 OVC100 M05/M08 A3019 RMK AC6AC2 SLP283=

CYYC;2005-11-28 04:00;METAR CYYC 280400Z 32005KT 15SM BKN063 OVC093 M05/M09 A3021 RMK SC6AC2 SLP288=

CYYC;2005-11-28 05:00;METAR CYYC 280500Z 33004KT 15SM BKN074 OVC090 M05/M08 A3021 RMK AC6AC2 SLP290=

CYYC;2005-11-28 06:00;METAR CYYC 280600Z 34006KT 15SM BKN083 OVC110 M05/M09 A3022 RMK AC6AC2 SLP295=

CYYC;2005-11-28 07:00;METAR CYYC 280700Z 33006KT 15SM OVC098 M06/M09 A3023 RMK AC8 SLP296=

CYYC;2005-11-28 08:00;METAR CYYC 280800Z 33006KT 15SM BKN098 BKN120 BKN240 M06/M09 A3023 RMK AC5AC1CI1 SLP297=

CYYC;2005-11-28 09:00;METAR CYYC 280900Z 32007KT 15SM BKN150 BKN240 M07/M09 A3023 RMK AC6CI1 SLP297=

CYYC;2005-11-28 10:00;METAR CYYC 281000Z 34005KT 15SM FEW150 BKN240 M09/M10 A3024 RMK AC2CI2 SLP300=

CYYC;2005-11-28 11:00;METAR CYYC 281100Z 32007KT 15SM FEW150 BKN240 M09/M10 A3024 RMK AC1CI2 SLP301=

CYYC;2005-11-28 13:00;METAR CYYC 281300Z 33002KT 15SM BKN050 OVC120 M08/M09 A3025 RMK SC7AC1 SLP311=

CYYC;2005-11-28 15:00;METAR CYYC 281500Z 33004KT 20SM OVC050 M06/M08 A3025 RMK SC8 SLP307=

CYYC;2005-11-28 16:00;METAR CYYC 281600Z 35003KT 30SM BKN050 OVC060 M06/M08 A3025 RMK SC3SC5 SLP307=

CYYC;2005-11-28 17:00;METAR CYYC 281700Z 00000KT 20SM FEW050 BKN063 OVC080 M05/M08 A3024 RMK SC1SC6AC1 SLP306=

CYYC;2005-11-28 18:00;METAR CYYC 281800Z 00000KT 20SM FEW050 BKN064 OVC080 M05/M08 A3024 RMK SC1SC6AC1 SLP302=

CYYC;2005-11-28 19:00;METAR CYYC 281900Z 04002KT 20SM FEW050 BKN067 OVC080 M04/M10 A3021 RMK SC1AC6AC1 SLP295=

CYYC;2005-11-28 20:00;METAR CYYC 282000Z 00000KT 20SM FEW050 BKN068 OVC080 M04/M11 A3019 RMK SC1AC6AC1 SLP287=

CYYC;2005-11-28 21:00;METAR CYYC 282100Z 00000KT 15SM FEW050 BKN070 BKN080 M04/M11 A3017 RMK SC1AC6AC1 SLP279=

CYYC;2005-11-28 22:00;METAR CYYC 282200Z 00000KT 15SM FEW050 OVC069 M04/M12 A3015 RMK SC1AC7 SLP274=

CYYC;2005-11-28 23:00;METAR CYYC 282300Z 08003KT 15SM FEW050 OVC068 M04/M10 A3014 RMK SC1AC7 SLP271=

CYYC;2005-11-29 00:00;METAR CYYC 290000Z 11005KT 15SM FEW049 OVC068 M05/M11 A3013 RMK SC1AC8 SLP272=

CYYC;2005-11-29 01:00;METAR CYYC 290100Z 09006KT 15SM FEW049 OVC069 M05/M10 A3012 RMK SC1AC8 SLP268=

CYYC;2005-11-29 04:00;METAR CYYC 290400Z 08006KT 15SM BKN049 OVC070 M06/M10 A3008 RMK SC7AC1 SLP251=

CYYC;2005-11-29 05:00;METAR CYYC 290500Z 08007KT 15SM OVC049 M06/M10 A3007 RMK SC8 SLP249=

CYYC;2005-11-29 06:00;METAR CYYC 290600Z 07009KT 15SM BKN048 OVC068 M03/M13 A3006 RMK SC6AC2 SLP236=

CYYC;2005-11-29 07:00;METAR CYYC 290700Z 07004KT 15SM FEW028 BKN065 OVC070 M08/M13 A3005 RMK SC1SC6AC2 SLP233=

CYYC;2005-11-29 08:00;METAR CYYC 290800Z 08002KT 15SM BKN030 OVC052 M08/M14 A3003 RMK SC6SC2 SLP229=

CYYC;2005-11-29 09:00;METAR CYYC 290900Z 07007KT 15SM OVC065 M09/M14 A3001 RMK SC8 SLP227=

CYYC;2005-11-29 10:00;METAR CYYC 291000Z 08007KT 15SM OVC063 M09/M13 A2999 RMK SC8 SLP222=

CYYC;2005-11-29 11:00;METAR CYYC 291100Z 07004KT 15SM SCT031 OVC063 M10/M13 A2997 RMK SC3SC5 SLP214=

CYYC;2005-11-29 13:00;METAR CYYC 291300Z 10005KT 10SM FEW040 OVC058 M10/M13 A2994 RMK SC1SC8 SLP207=

CYYC;2005-11-29 14:00;METAR CYYC 291400Z 07007KT 8SM -SN OVC058 M10/M13 A2993 RMK SC8 SLP203=

CYYC;2005-11-29 15:00;METAR CYYC 291500Z 09009KT 6SM -SN FEW018 OVC057 M10/M12 A2991 RMK SC1SC8 PCPN VRY LGT SLP199=

CYYC;2005-11-29 16:00;METAR CYYC 291600Z 10009KT 5SM -SN FEW010 BKN046 OVC057 M10/M12 A2991 RMK SC1SC2SC5 SLP197=

CYYC;2005-11-29 17:00;METAR CYYC 291700Z 09010KT 4SM -SN SCT008 OVC045 M11/M12 A2989 RMK SC1SC7 SLP192=

CYYC;2005-11-29 18:00;METAR CYYC 291800Z 08009KT 3SM -SN SCT008 OVC030 M11/M13 A2988 RMK SC2SC6 SLP184=

CYYC;2005-11-29 19:00;METAR CYYC 291900Z 07006KT 4SM -SN SCT009 OVC025 M11/M13 A2987 RMK SC2SC6 SLP181=

CYYC;2005-11-29 19:14;SPECI CYYC 291914Z 07007KT 1 1/2SM -SN SCT009 OVC025 M11/ RMK SC2SC6=

CYYC;2005-11-29 19:30;SPECI CYYC 291930Z 07006KT 1 1/4SM -SN SCT009 OVC020 M11/ RMK SC2SC6=

CYYC;2005-11-29 20:00;METAR CYYC 292000Z 06005KT 1 1/2SM -SN VV025 M11/M13 A2986 RMK SN8 SLP178=

CYYC;2005-11-29 20:52;SPECI CYYC 292052Z 05007KT 2 1/2SM -SN OVC025 M11/ RMK SC8=

CYYC;2005-11-29 21:00;METAR CYYC 292100Z 06006KT 2 1/2SM -SN OVC025 M11/M14 A2985 RMK SN3SC5 /S01/ SLP183=

CYYC;2005-11-29 22:00;METAR CYYC 292200Z 04006KT 2SM -SN OVC025 M11/M13 A2985 RMK SN3SC5 SLP183=

CYYC;2005-11-29 22:48;SPECI CYYC 292248Z 06006KT 1 1/4SM -SN VV020 M12/ RMK SN8=

CYYC;2005-11-29 23:00;METAR CYYC 292300Z 06007KT 1 1/4SM -SN VV020 M12/M14 A2986 RMK SN8 SLP185=

CYYC;2005-11-30 00:00;METAR CYYC 300000Z 05006KT 1 1/4SM -SN VV020 M12/M14 A2987 RMK SN8 /S02/ SLP193=

CYYC;2005-11-30 01:00;METAR CYYC 300100Z 04007KT 2SM -SN OVC045 M13/M15 A2989 RMK SN4SC4 /S01/ SLP199=

CYYC;2005-11-30 02:00;METAR CYYC 300200Z 03005KT 1 1/2SM -SN VV028 M13/M15 A2989 RMK SN8 SLP200=

CYYC;2005-11-30 03:00;METAR CYYC 300300Z 36007KT 2 1/2SM -SN BKN022 OVC039 M13/M15 A2990 RMK SN5SC2SC1 SLP205=

CYYC;2005-11-30 05:00;METAR CYYC 300500Z 36007KT 2 1/4SM -SN FEW009 BKN030 OVC060 M14/M15 A2992 RMK SC2SC2SC3 SLP212=

CYYC;2005-11-30 05:37;SPECI CYYC 300537Z 35007KT 4SM -SN FEW009 SCT024 OVC057 M14/ RMK SC1SC4SC4 FROIN=

CYYC;2005-11-30 06:00;METAR CYYC 300600Z 35006KT 4SM -SN FEW009 SCT016 OVC040 M14/M15 A2993 RMK SC1SC4SC4 SLP218=

CYYC;2005-11-30 10:00;METAR CYYC 301000Z 31005KT 4SM -SN BKN087 OVC120 M15/M17 A2998 RMK AC6AC1 SLP239=

CYYC;2005-11-30 12:00;METAR CYYC 301200Z 30005KT 4SM -SN FEW064 OVC083 M16/M17 A3000 RMK SC2AC6 SNOW COVER/MUCH LOOSE SLP246=

CYYC;2005-11-30 13:00;METAR CYYC 301300Z 32007KT 4SM -SN FEW014 SCT047 OVC058 M15/M17 A3001 RMK SC2SC2SC4 SLP249=

CYYC;2005-11-30 14:00;METAR CYYC 301400Z 34006KT 3SM -SN FEW012 SCT035 OVC080 M16/M18 A3003 RMK SC2SC2AC4 SLP254=

CYYC;2005-11-30 14:49;SPECI CYYC 301449Z 32007KT 12SM FEW020 SCT100 BKN240 M17/ RMK SC2AC2CI1=

CYYC;2005-11-30 15:00;METAR CYYC 301500Z 32006KT 12SM FEW028 SCT100 BKN240 M18/M19 A3004 RMK SC2AC2CI1 SLP263=

CYYC;2005-11-30 16:00;METAR CYYC 301600Z 31005KT 12SM FEW030 BKN090 BKN240 M18/M20 A3005 RMK SC2AC2CI1 SLP267=

CYYC;2005-11-30 17:00;METAR CYYC 301700Z 29003KT 12SM BKN029 M15/M17 A3006 RMK SC6 SLP271=

CYYC;2005-11-30 18:00;METAR CYYC 301800Z 32007KT 12SM OVC056 M14/M17 A3007 RMK SC6 SLP270=

CYYC;2005-11-30 19:00;METAR CYYC 301900Z 33008KT 12SM FEW020 BKN027 M14/M18 A3006 RMK CU1SC6 SLP266=

CYYC;2005-11-30 20:00;METAR CYYC 302000Z 33005KT 12SM FEW030 SCT080 M14/M18 A3004 RMK SC2AC1 SLP262=

CYYC;2005-11-30 21:00;METAR CYYC 302100Z 34006KT 12SM FEW030 SCT080 SCT240 M14/M18 A3003 RMK SC2AC1CI0 SLP259=

CYYC;2005-11-30 22:00;METAR CYYC 302200Z 34006KT 12SM FEW035 SCT085 SCT240 M14/M18 A3003 RMK SC2AC2CI0 SLP259=

CYYC;2005-11-30 23:00;METAR CYYC 302300Z 35005KT 20SM FEW035 FEW090 SCT240 M15/M19 A3004 RMK SC2AC1CI0 SLP261=

CYYC;2005-12-01 00:00;METAR CYYC 010000Z 34004KT 20SM FEW035 SCT090 BKN240 M15/M19 A3005 RMK SC2AC1CI1 SLP267=

CYYC;2005-12-01 02:00;METAR CYYC 010200Z 34006KT 15SM FEW060 FEW140 BKN240 M19/M20 A3005 RMK SC1AC2CI1 SC TR SLP269=

CYYC;2005-12-01 03:00;METAR CYYC 010300Z 35004KT 15SM VCSH FEW012 BKN026 OVC130 M20/M21 A3005 RMK SC1SC0AC2 SH E SLP278=

CYYC;2005-12-01 04:00;METAR CYYC 010400Z 33002KT 15SM VCSH OVC024 M17/M19 A3006 RMK SC7 SH E-S SLP281=

CYYC;2005-12-01 05:00;METAR CYYC 010500Z 34003KT 15SM VCSH OVC024 M17/M18 A3006 RMK SC8 SH=

CYYC;2005-12-01 05:28;SPECI CYYC 010528Z 34003KT 15SM -SN OVC024 M16/ RMK SC8=

CYYC;2005-12-01 06:00;METAR CYYC 010600Z 31002KT 15SM -SN OVC024 M15/M17 A3005 RMK SC8 SLP266=

CYYC;2005-12-01 07:00;METAR CYYC 010700Z 28004KT 8SM -SN OVC021 M15/M18 A3006 RMK SC7 PCPN VRY LGT SLP270=

CYYC;2005-12-01 08:00;METAR CYYC 010800Z 30004KT 8SM -SN OVC021 M15/M18 A3006 RMK SC7 PCPN VRY LGT SLP269=

CYYC;2005-12-01 09:00;METAR CYYC 010900Z 26005KT 7SM -SN OVC020 M15/M17 A3006 RMK SC7 PCPN VRY LGT SLP267=

CYYC;2005-12-01 11:00;METAR CYYC 011100Z 24004KT 7SM -SN OVC020 M15/M17 A3005 RMK SC8 SLP265=

CYYC;2005-12-01 12:00;METAR CYYC 011200Z 26004KT 7SM -SN OVC020 M15/M18 A3005 RMK SC8 SNOW COVER / MUCH LOOSE SLP267=

CYYC;2005-12-01 13:00;METAR CYYC 011300Z 25006KT 5SM -SN OVC020 M15/M18 A3005 RMK SC8 SLP268=

CYYC;2005-12-01 14:00;METAR CYYC 011400Z 21003KT 7SM -SN OVC024 M16/M18 A3005 RMK SC7 SLP268=

CYYC;2005-12-01 15:00;METAR CYYC 011500Z 19003KT 8SM -SN OVC021 M16/M19 A3005 RMK SC8 SLP273=

CYYC;2005-12-01 16:00;METAR CYYC 011600Z 26005KT 4SM -SN OVC021 M16/M18 A3005 RMK SC8 SLP274=

CYYC;2005-12-01 17:00;METAR CYYC 011700Z 18006KT 4SM -SN OVC021 M15/M18 A3004 RMK SC8 SLP270=

CYYC;2005-12-01 18:00;METAR CYYC 011800Z 19006KT 3SM -SN OVC019 M15/M18 A3003 RMK SC8 SLP258=

CYYC;2005-12-01 19:00;METAR CYYC 011900Z 17008KT 3SM -SN OVC025 M15/M18 A3001 RMK SC8 SLP253=

CYYC;2005-12-01 20:00;METAR CYYC 012000Z 18009KT 6SM -SN OVC022 M15/M18 A2999 RMK SC8 SLP246=

CYYC;2005-12-01 21:00;METAR CYYC 012100Z 14010KT 12SM -SN OVC023 M15/M19 A2995 RMK SC8 SLP233=

CYYC;2005-12-01 22:00;METAR CYYC 012200Z 14009KT 7SM -SN OVC020 M15/M18 A2993 RMK SC8 SLP225=

CYYC;2005-12-01 23:00;METAR CYYC 012300Z 16009KT 4SM -SN OVC020 M15/M18 A2993 RMK SC8 SLP226=

CYYC;2005-12-02 00:00;METAR CYYC 020000Z 14011KT 3SM -SN OVC018 M15/M18 A2991 RMK SC8 SLP219=

CYYC;2005-12-02 01:00;METAR CYYC 020100Z 15010KT 5SM -SN OVC019 M16/M18 A2987 RMK SC8 SLP207=

CYYC;2005-12-02 03:00;METAR CYYC 020300Z 13014KT 3SM -SN BR OVC015 M16/M18 A2981 RMK SC8 SLP185=

CYYC;2005-12-02 03:16;SPECI CYYC 020316Z 15013KT 3SM -SN BR OVC013 M16/ RMK SC8=

CYYC;2005-12-02 03:53;SPECI CYYC 020353Z 17012KT 3SM -SN BR BKN017 OVC022 M16/ RMK SC5SC3=

CYYC;2005-12-02 04:00;METAR CYYC 020400Z 16011KT 3SM -SN BR BKN015 OVC022 M16/M18 A2980 RMK SC6SC2 SLP182=

CYYC;2005-12-02 04:21;SPECI CYYC 020421Z 17011G16KT 2SM -SN BR BKN013 OVC017 M16/ RMK SC7SC1=

CYYC;2005-12-02 04:29;SPECI CYYC 020429Z 16010KT 1 1/2SM -SN BR BKN007 OVC019 M16/ RMK SC5SC3=

CYYC;2005-12-02 05:00;METAR CYYC 020500Z 15011KT 2SM -SN BR FEW007 BKN016 OVC060 M16/M18 A2979 RMK SC2SC6SC1 SLP178=

CYYC;2005-12-02 05:11;SPECI CYYC 020511Z 15012KT 4SM -SN BR FEW007 BKN017 OVC063 M16/ RMK SC1SC5SC3=

CYYC;2005-12-02 05:30;SPECI CYYC 020530Z 14013KT 2SM -SN BR FEW007 BKN014 OVC030 M16/ RMK SC1SC7SC1=

CYYC;2005-12-02 05:41;SPECI CYYC 020541Z 14013KT 1 3/4SM -SN BR BKN009 OVC026 M16/ RMK SC6SC2=

CYYC;2005-12-02 06:00;METAR CYYC 020600Z 15010KT 1 3/4SM -SN BR BKN007 OVC020 M17/M18 A2977 RMK SC7SC1 /SO1/ SLP173=

CYYC;2005-12-02 08:19;SPECI CYYC 020819Z 13011KT 3SM -SN DRSN BR SCT008 BKN016 OVC032 M17/ RMK SC3SC4SC1=

CYYC;2005-12-02 08:35;SPECI CYYC 020835Z 14012KT 2 1/2SM -SN DRSN BR BKN012 OVC030 M17/ RMK SC5SC3=

CYYC;2005-12-02 09:00;METAR CYYC 020900Z 14012KT 2SM -SN DRSN BR BKN012 OVC030 M17/M19 A2972 RMK SC6SC2 /SO1/ SLP154=

CYYC;2005-12-02 09:16;SPECI CYYC 020916Z 14010G16KT 2SM -SN DRSN BR BKN009 OVC022 M17/ RMK SC6SC2=

CYYC;2005-12-02 09:28;SPECI CYYC 020928Z 13013KT 4SM -SN DRSN BR SCT009 BKN022 OVC069 M18/ RMK SC3SC2AC2=

CYYC;2005-12-02 10:00;METAR CYYC 021000Z 14010KT 5SM -SN DRSN BR FEW009 BKN030 OVC054 M18/M19 A2972 RMK SC1SC5SC3 SLP154=

CYYC;2005-12-02 10:28;SPECI CYYC 021028Z 14012KT 2 1/2SM -SN DRSN BR BKN016 OVC048 M18/ RMK SC6SC2=

CYYC;2005-12-02 10:43;SPECI CYYC 021043Z 14010KT 1 3/4SM -SN DRSN BR BKN011 OVC027 M18/ RMK SC6SC2=

CYYC;2005-12-02 11:00;METAR CYYC 021100Z 14012KT 2SM -SN BR BKN012 OVC031 M18/M19 A2971 RMK SC6SC2 SLP151=

CYYC;2005-12-02 12:00;METAR CYYC 021200Z 13010KT 2 1/2SM -SN BR BKN013 OVC031 M18/M19 A2969 RMK SC7SC1 SN CVR / MUCH LOOSE SLP147=

CYYC;2005-12-02 12:33;SPECI CYYC 021233Z 14010KT 3SM -SN BR SCT013 BKN018 OVC046 M18/ RMK SC3SC3SC2=

CYYC;2005-12-02 13:00;METAR CYYC 021300Z 14009KT 4SM -SN BR FEW013 BKN020 OVC030 M18/M19 A2969 RMK SC1SC5SC3 SLP145=

CYYC;2005-12-02 13:45;SPECI CYYC 021345Z 14010KT 4SM -SN BR FEW005 SCT013 OVC052 M18/ RMK SC1SC3SC4=

CYYC;2005-12-02 14:00;METAR CYYC 021400Z 15009KT 3SM -SN BR FEW005 SCT020 OVC054 M18/M19 A2968 RMK SC1SC3SC4 SLP143=

CYYC;2005-12-02 15:00;METAR CYYC 021500Z 14011KT 3SM -SN BR BKN020 OVC073 M18/M19 A2967 RMK SC6AC2 SLP141=

CYYC;2005-12-02 16:00;METAR CYYC 021600Z 15008KT 3SM -SN BR BKN015 OVC040 M18/M19 A2968 RMK SC6SC2 SLP143=

CYYC;2005-12-02 17:00;METAR CYYC 021700Z 16010KT 3SM -SN BR OVC013 M17/M19 A2969 RMK SC8 SLP146=

CYYC;2005-12-02 18:00;METAR CYYC 021800Z 15008KT 4SM -SN OVC014 M17/M19 A2969 RMK SC8 SLP147=

CYYC;2005-12-02 19:00;METAR CYYC 021900Z 15006KT 5SM -SN BKN014 OVC048 M16/M19 A2968 RMK SC6SC2 SLP145=

CYYC;2005-12-02 20:00;METAR CYYC 022000Z 13005KT 7SM -SN SCT015 OVC100 M17/M20 A2968 RMK SC4AC4 SLP145=

CYYC;2005-12-02 21:00;METAR CYYC 022100Z 10005KT 7SM -SN SCT014 OVC080 M17/M21 A2969 RMK SC4AC4 SLP148=

CYYC;2005-12-02 22:00;METAR CYYC 022200Z 08003KT 8SM -SN SCT018 BKN080 OVC110 M17/M21 A2970 RMK SC3AC4AC1 SLP150=

CYYC;2005-12-02 22:11;SPECI CYYC 022211Z 10003KT 10SM FEW018 BKN080 OVC110 M17/ RMK SC2AC5AC1=

CYYC;2005-12-02 23:00;METAR CYYC 022300Z 09004KT 10SM FEW020 OVC091 M18/M21 A2971 RMK SC2AC6 SLP154=

CYYC;2005-12-03 00:00;METAR CYYC 030000Z 09003KT 10SM FEW020 OVC084 M17/M21 A2973 RMK SC2AC6 SLP161=

CYYC;2005-12-03 01:00;METAR CYYC 030100Z 09003KT 3SM -SN SCT015 OVC071 M17/M21 A2974 RMK SC4AC4 SLP164=

CYYC;2005-12-03 02:00;METAR CYYC 030200Z 05003KT 8SM -SN FEW015 BKN069 OVC087 M18/M21 A2974 RMK SC2AC5AC1 SLP164=

CYYC;2005-12-03 03:00;METAR CYYC 030300Z 08002KT 7SM -SN FEW010 BKN062 BKN078 M18/M21 A2974 RMK SC1SC6AC0 SLP168=

CYYC;2005-12-03 03:23;SPECI CYYC 030323Z 04003KT 10SM FEW010 SCT056 BKN080 M19/ RMK SC1SC3AC2=

CYYC;2005-12-03 03:48;SPECI CYYC 030348Z 05003KT 10SM -SN FEW010 SCT060 BKN082 M19/ RMK SC1SC3AC2=

CYYC;2005-12-03 04:00;METAR CYYC 030400Z 06003KT 10SM FEW010 SCT060 BKN090 BKN210 M20/M23 A2976 RMK SC1SC2AC1CI0 SLP172=

CYYC;2005-12-03 05:00;METAR CYYC 030500Z 05003KT 12SM FEW010 FEW060 BKN160 M20/M23 A2977 RMK SC1SC1AC3 SLP175=

CYYC;2005-12-03 06:00;METAR CYYC 030600Z 33004KT 12SM FEW010 FEW060 OVC140 M20/M23 A2978 RMK SC1SC1AC5 SLP184=

CYYC;2005-12-03 07:00;METAR CYYC 030700Z 35005KT 12SM FEW015 SCT140 OVC220 M22/M25 A2979 RMK SC1AC3CI2 SLP187=

CYYC;2005-12-03 09:00;METAR CYYC 030900Z 34005KT 10SM FEW007 BKN230 M23/M27 A2983 RMK SC1CI1 SLP204=

CYYC;2005-12-03 10:00;METAR CYYC 031000Z 33007KT 8SM FEW007 FEW020 BKN200 M23/M27 A2985 RMK SC1SC1CI2 SLP211=

CYYC;2005-12-03 11:00;METAR CYYC 031100Z 36003KT 15SM FEW160 BKN240 M23/M27 A2987 RMK AC1CI1 SLP216=

CYYC;2005-12-03 12:00;METAR CYYC 031200Z 32005KT 15SM SCT240 M24/M27 A2988 RMK CI1 SNOW COVER / MUCH LOOSE SLP222=

CYYC;2005-12-03 13:00;METAR CYYC 031300Z 34005KT 15SM SCT240 M24/M28 A2989 RMK CI0 FROIN SLP227=

CYYC;2005-12-03 14:00;METAR CYYC 031400Z 36002KT 15SM FEW010 SCT240 M24/M28 A2991 RMK SC1CI0 SLP231=

CYYC;2005-12-03 15:00;METAR CYYC 031500Z 33004KT 15SM FEW120 FEW240 M24/M28 A2993 RMK AC1CI0 SLP243=

CYYC;2005-12-03 16:00;METAR CYYC 031600Z 34006KT 20SM FEW070 FEW120 FEW240 M24/M28 A2995 RMK AC1AC1CI0 SLP248=

CYYC;2005-12-03 17:00;METAR CYYC 031700Z 32007KT 20SM FEW050 FEW120 FEW240 M21/M25 A2997 RMK SC1AC1CI0 SLP256=

CYYC;2005-12-03 18:00;METAR CYYC 031800Z 32007KT 20SM FEW050 FEW120 FEW240 M19/M23 A3000 RMK SC1AC1CI0 SLP261=

CYYC;2005-12-03 19:00;METAR CYYC 031900Z 32007KT 20SM FEW120 FEW240 M17/M22 A3000 RMK AC1CI0 SLP262=

CYYC;2005-12-03 20:00;METAR CYYC 032000Z 33007KT 20SM FEW040 FEW120 FEW240 M17/M22 A3000 RMK SC1AC1CI1 SLP263=

CYYC;2005-12-03 21:00;METAR CYYC 032100Z 32006KT 20SM FEW040 FEW220 M16/M21 A3000 RMK SC1CI1 SLP264=

CYYC;2005-12-03 22:00;METAR CYYC 032200Z 32006KT 15SM FEW040 FEW120 FEW220 M17/M22 A3001 RMK SC1AC1CI1 SLP267=

CYYC;2005-12-04 00:00;METAR CYYC 040000Z 32003KT 15SM FEW040 FEW120 FEW220 M19/M23 A3004 RMK SC1AC1CI1 SLP282=

CYYC;2005-12-04 01:00;METAR CYYC 040100Z 32002KT 15SM FEW220 M18/M22 A3006 RMK CI1 SLP287=

CYYC;2005-12-04 02:00;METAR CYYC 040200Z 32004KT 10SM FEW080 FEW220 M21/M26 A3006 RMK AC1CI1 FROIN SLP289=

CYYC;2005-12-04 03:00;METAR CYYC 040300Z 34006KT 10SM BKN085 BKN220 M23/M27 A3008 RMK AC5CI1 FROIN SLP304=

CYYC;2005-12-04 04:00;METAR CYYC 040400Z 32004KT 10SM BKN090 M20/M24 A3010 RMK AC7 FROIN SLP308=

CYYC;2005-12-04 06:00;METAR CYYC 040600Z 22005KT 10SM OVC080 M18/M21 A3010 RMK AC8 SLP294=

CYYC;2005-12-04 08:00;METAR CYYC 040800Z 21002KT 10SM -SN OVC095 M17/M21 A3009 RMK AC8 SLP293=

CYYC;2005-12-04 09:00;METAR CYYC 040900Z 30005KT 8SM -SN OVC047 M16/M21 A3011 RMK SC8 SLP293=

CYYC;2005-12-04 10:00;METAR CYYC 041000Z 23006KT 5SM -SN BKN028 OVC068 M16/M19 A3012 RMK SC6AC2 SLP296=

CYYC;2005-12-04 11:00;METAR CYYC 041100Z 25006KT 10SM -SN BKN048 OVC065 M16/M20 A3012 RMK SC6SC2 SLP296=

CYYC;2005-12-04 11:54;SPECI CYYC 041154Z 25007KT 15SM BKN074 M16/ RMK AC6=

CYYC;2005-12-04 13:00;METAR CYYC 041300Z 23006KT 15SM BKN075 BKN150 M17/M22 A3011 RMK AC5AC0 SLP297=

CYYC;2005-12-04 14:00;METAR CYYC 041400Z 23005KT 15SM FEW075 SCT150 M20/M24 A3011 RMK AC2AC0 SLP295=

CYYC;2005-12-04 15:00;METAR CYYC 041500Z 24006KT 15SM FEW080 M19/M24 A3010 RMK AC2 SLP303=

CYYC;2005-12-04 16:00;METAR CYYC 041600Z 20005KT 40SM BKN078 BKN250 M18/M23 A3012 RMK AC2CI0 SLP307=

CYYC;2005-12-04 17:00;METAR CYYC 041700Z 21006KT 40SM FEW085 SCT150 BKN250 M17/M22 A3012 RMK AC2AC1CI1 SLP307=

CYYC;2005-12-04 18:00;METAR CYYC 041800Z 21006KT 40SM FEW068 BKN090 BKN150 BKN250 M15/M20 A3011 RMK AC2AC2AC0CI0 SLP291=

CYYC;2005-12-04 19:00;METAR CYYC 041900Z 22006KT 40SM FEW042 BKN090 BKN150 M14/M20 A3009 RMK SC2AC3AC2 SLP286=

CYYC;2005-12-04 20:00;METAR CYYC 042000Z 22006KT 40SM FEW045 SCT068 BKN250 M12/M18 A3007 RMK SC1AC2CI2 SLP280=

CYYC;2005-12-04 21:00;METAR CYYC 042100Z 19005KT 40SM BKN048 OVC084 M11/M17 A3005 RMK ST5AS2 SLP264=

CYYC;2005-12-04 22:00;METAR CYYC 042200Z 21003KT 40SM BKN056 OVC120 M10/M16 A3004 RMK ST6AS2 SLP261=

CYYC;2005-12-04 23:00;METAR CYYC 042300Z 20004KT 40SM BKN048 OVC090 M10/M15 A3004 RMK ST7AS0 SLP261=

CYYC;2005-12-05 00:00;METAR CYYC 050000Z 19003KT 40SM BKN040 BKN064 OVC210 M10/M16 A3004 RMK ST6ST2CI0 SLP259=

CYYC;2005-12-05 01:00;METAR CYYC 050100Z 19004KT 15SM BKN040 OVC210 M11/M16 A3003 RMK ST6CI1 SLP256=

CYYC;2005-12-05 03:00;METAR CYYC 050300Z 12005KT 15SM BKN110 M11/M17 A3001 RMK AC7 SLP254=

CYYC;2005-12-05 04:00;METAR CYYC 050400Z 12005KT 15SM SCT080 OVC120 M12/M15 A3002 RMK AC3AC5 SLP255=

CYYC;2005-12-05 05:31;SPECI CYYC 050531Z 14007KT 15SM -SN FEW006 BKN043 OVC072 M15/ RMK ST1SC6AC2=

CYYC;2005-12-05 06:00;METAR CYYC 050600Z 16009KT 5SM -SN BR FEW006 BKN039 OVC055 M15/M17 A3001 RMK ST1SC6SC2 PCPN VRY LGT SLP250=

CYYC;2005-12-05 08:00;METAR CYYC 050800Z 18014G19KT 10SM -SN BKN057 OVC084 M15/M18 A2998 RMK SC6AC2 PCPN VRY LGT SLP241=

CYYC;2005-12-05 08:36;SPECI CYYC 050836Z 18011G17KT 15SM SCT060 OVC110 M15/ RMK SC4AC4=

CYYC;2005-12-05 09:00;METAR CYYC 050900Z 18013KT 15SM BKN065 OVC082 M15/M18 A2994 RMK SC5AC3 SLP224=

CYYC;2005-12-05 10:00;METAR CYYC 051000Z 18011KT 10SM BKN078 OVC100 M15/M18 A2992 RMK AC6AC2 SLP218=

CYYC;2005-12-05 11:00;METAR CYYC 051100Z 17007KT 10SM BKN100 OVC120 M15/M18 A2989 RMK AC6AC2 SLP208=

CYYC;2005-12-05 12:00;METAR CYYC 051200Z 17007KT 10SM BKN087 OVC110 M14/M17 A2985 RMK AC6AC2 SNOW COVER / MUCH LOOSE SLP190=

CYYC;2005-12-05 13:00;METAR CYYC 051300Z 18008KT 15SM FEW060 SCT150 M15/M18 A2983 RMK SC1AC2 SLP184=

CYYC;2005-12-05 14:00;METAR CYYC 051400Z 18004KT 15SM FEW086 BKN150 M13/M16 A2982 RMK AC2AC5 SLP180=

CYYC;2005-12-05 15:44;SPECI CYYC 051544Z 34023G31KT 20SM -SN BKN016 BKN082 BKN150 M09/ RMK SC4AC2AC1 PRESRR=

CYYC;2005-12-05 16:00;METAR CYYC 051600Z 35026G32KT 4SM -SN BKN015 OVC082 M10/M13 A2997 RMK SC5AC2 PRESRR PAST HR SLP217=

CYYC;2005-12-05 16:49;SPECI CYYC 051649Z 34025KT 1 1/2SM -SN VV008 M11/ RMK SN8=

CYYC;2005-12-05 17:00;METAR CYYC 051700Z 35025G32KT 1 1/4SM -SN VV008 M11/M13 A3004 RMK SN8 SLP236=

CYYC;2005-12-05 17:24;SPECI CYYC 051724Z 35022G28KT 3/4SM -SN VV008 M11/ RMK SN8 RVR RWY34 5000 FOOT=

CYYC;2005-12-05 18:00;METAR CYYC 051800Z 36023G30KT 1/2SM -SN BLSN VV006 M12/M13 A3007 RMK SN8 RVR RWY34 2800 FEET SLP268=

CYYC;2005-12-05 19:00;METAR CYYC 051900Z 36025G32KT 3/4SM -SN BLSN VV008 M12/M14 A3011 RMK SN8 RVR RWY34 3000 FEET SLP281=

CYYC;2005-12-05 20:00;METAR CYYC 052000Z 01018KT 1 1/4SM -SN BLSN VV008 M12/M14 A3014 RMK SN8 SLP290=

CYYC;2005-12-05 20:16;SPECI CYYC 052016Z 36019G25KT 3SM -SN BLSN OVC020 M12/ RMK SN3SC5=

CYYC;2005-12-05 21:00;METAR CYYC 052100Z 36020G26KT 15SM -SN FEW017 OVC070 M13/M16 A3017 RMK SC1AC6 PCPN VRY LGT SLP305=

CYYC;2005-12-05 22:00;METAR CYYC 052200Z 36019G24KT 15SM FEW020 BKN070 BKN094 M14/M17 A3020 RMK SC1AC1AC5 SLP314=

CYYC;2005-12-05 23:00;METAR CYYC 052300Z 01014KT 15SM FEW070 BKN100 M15/M19 A3023 RMK AC1AC1 SLP324=

CYYC;2005-12-06 00:00;METAR CYYC 060000Z 36014KT 15SM FEW070 BKN100 M17/M20 A3026 RMK AC1AC1 SLP341=

CYYC;2005-12-06 01:00;METAR CYYC 060100Z 35006KT 15SM FEW090 M19/M21 A3027 RMK AC1 SLP346=

CYYC;2005-12-06 02:00;METAR CYYC 060200Z 35006KT 15SM FEW090 M20/M21 A3029 RMK AC1 SLP350=

CYYC;2005-12-06 03:00;METAR CYYC 060300Z 34005KT 15SM FEW095 M20/M21 A3031 RMK AC1 FROIN SLP352=

CYYC;2005-12-06 04:00;METAR CYYC 060400Z 34005KT 15SM SCT016 BKN090 M20/M22 A3033 RMK SC3AC1 SLP357=

CYYC;2005-12-06 05:00;METAR CYYC 060500Z 31007KT 15SM BKN020 M19/M20 A3033 RMK SC6 SLP357=

CYYC;2005-12-06 06:00;METAR CYYC 060600Z 33004KT 15SM FEW016 OVC023 M18/M20 A3034 RMK SC2SC4 SLP369=

CYYC;2005-12-06 07:00;METAR CYYC 060700Z 05002KT 7SM -SN SCT017 BKN023 M19/M21 A3034 RMK SC4SC2 SLP370=

CYYC;2005-12-06 08:00;METAR CYYC 060800Z 00000KT 10SM -SN SCT017 BKN052 M20/M21 A3033 RMK SC2SC2 PCPN VRY LGT SLP366=

CYYC;2005-12-06 10:00;METAR CYYC 061000Z 26003KT 10SM FEW017 FEW060 FEW100 M21/M21 A3033 RMK SC1SC1AC1 SLP369=

CYYC;2005-12-06 11:00;METAR CYYC 061100Z 29002KT 15SM FEW060 FEW100 M21/M22 A3033 RMK SC1AC1 FROIN SLP369=

CYYC;2005-12-06 12:00;METAR CYYC 061200Z 00000KT 15SM SKC M21/M26 A3032 RMK SNOW COVER/TRACE LOOSE SLP375=

CYYC;2005-12-06 13:00;METAR CYYC 061300Z 26002KT 15SM SKC M21/M24 A3033 RMK SLP377=

CYYC;2005-12-06 14:00;METAR CYYC 061400Z 07002KT 15SM SKC M23/M27 A3033 RMK SLP378=

CYYC;2005-12-06 15:00;METAR CYYC 061500Z 00000KT 30SM FEW100 M22/M25 A3034 RMK AC1 FROIN SLP384=

CYYC;2005-12-06 16:00;METAR CYYC 061600Z 27003KT 40SM FEW100 M21/M25 A3036 RMK AC1 SLP390=

CYYC;2005-12-06 18:00;METAR CYYC 061800Z 22006KT 40SM SKC M17/M21 A3035 RMK SLP381=

CYYC;2005-12-06 19:00;METAR CYYC 061900Z 23002KT 40SM SKC M14/M20 A3034 RMK SLP377=

CYYC;2005-12-06 20:00;METAR CYYC 062000Z 25002KT 40SM SKC M14/M20 A3033 RMK SLP373=

CYYC;2005-12-06 21:00;METAR CYYC 062100Z 21004KT 40SM SKC M13/M21 A3032 RMK SLP367=

CYYC;2005-12-06 22:00;METAR CYYC 062200Z 12002KT 40SM SKC M13/M20 A3033 RMK SLP370=

CYYC;2005-12-06 23:00;METAR CYYC 062300Z 05003KT 40SM SKC M15/M21 A3034 RMK SLP371=

CYYC;2005-12-07 00:00;METAR CYYC 070000Z 10003KT 30SM FEW100 M18/M22 A3032 RMK AC1 SLP378=

CYYC;2005-12-07 01:00;METAR CYYC 070100Z 19005KT 15SM SKC M16/M21 A3032 RMK SLP376=

CYYC;2005-12-07 03:00;METAR CYYC 070300Z 22005KT 15SM SKC M17/M21 A3029 RMK SLP365=

CYYC;2005-12-07 04:00;METAR CYYC 070400Z 21006KT 15SM SKC M18/M22 A3028 RMK SLP361=

CYYC;2005-12-07 05:00;METAR CYYC 070500Z 20006KT 15SM SKC M19/M23 A3026 RMK SLP356=

CYYC;2005-12-07 07:00;METAR CYYC 070700Z 21005KT 15SM SKC M21/M25 A3025 RMK SLP346=

CYYC;2005-12-07 08:00;METAR CYYC 070800Z 20005KT 15SM SKC M22/M26 A3023 RMK SLP339=

CYYC;2005-12-07 10:00;METAR CYYC 071000Z 20003KT 15SM SKC M20/M24 A3018 RMK SLP320=

CYYC;2005-12-07 11:00;METAR CYYC 071100Z 21005KT 15SM SKC M21/M26 A3016 RMK SLP313=

CYYC;2005-12-07 12:00;METAR CYYC 071200Z 21006KT 15SM SKC M21/M25 A3012 RMK SNOW COVER/MEDIUM=

CYYC;2005-12-07 13:00;METAR CYYC 071300Z 22006KT 15SM SKC M20/M24 A3010 RMK SLP300=

CYYC;2005-12-07 14:00;METAR CYYC 071400Z 22004KT 15SM FEW240 M19/M24 A3008 RMK CI1 SLP294=

CYYC;2005-12-07 15:00;METAR CYYC 071500Z 00000KT 30SM FEW240 M17/M23 A3008 RMK CI0 SLP284=

CYYC;2005-12-07 16:00;METAR CYYC 071600Z 20003KT 40SM FEW180 FEW250 M18/M24 A3006 RMK AC1CI0 SLP279=

CYYC;2005-12-07 17:00;METAR CYYC 071700Z 19005KT 40SM BKN200 BKN250 M14/M19 A3006 RMK CI0CI0 SLP277=

CYYC;2005-12-07 18:00;METAR CYYC 071800Z 20005KT 40SM BKN210 BKN250 M10/M18 A3004 RMK CI0CI0 SLP263=

CYYC;2005-12-07 19:00;METAR CYYC 071900Z 21006KT 40SM SCT210 SCT250 M07/M17 A3000 RMK CI1CI0 SLP251=

CYYC;2005-12-07 21:00;METAR CYYC 072100Z 22007KT 40SM SCT200 BKN250 M06/M16 A2995 RMK CI1CI0 SLP228=

CYYC;2005-12-07 22:00;METAR CYYC 072200Z 23006KT 40SM FEW200 BKN250 M05/M16 A2994 RMK CI1CI0 SLP223=

CYYC;2005-12-07 23:00;METAR CYYC 072300Z 21009KT 40SM FEW200 BKN250 M07/M16 A2992 RMK CI0CI0 SLP218=

CYYC;2005-12-08 01:00;METAR CYYC 080100Z 00000KT 15SM FEW200 BKN250 M08/M18 A2991 RMK CI0CI0 SLP217=

CYYC;2005-12-08 02:00;METAR CYYC 080200Z 00000KT 15SM FEW180 BKN250 M09/M19 A2989 RMK AC1CI0 SLP212=

CYYC;2005-12-08 03:00;METAR CYYC 080300Z 01003KT 15SM FEW180 SCT250 M10/M17 A2990 RMK AC1CI0 AC TR SLP210=

CYYC;2005-12-08 04:00;METAR CYYC 080400Z 26002KT 15SM FEW190 BKN240 M07/M18 A2988 RMK AC2CI1 SLP205=

CYYC;2005-12-08 05:00;METAR CYYC 080500Z 00000KT 15SM FEW190 BKN240 M08/M17 A2988 RMK AC2CI1 SLP205=

CYYC;2005-12-08 06:00;METAR CYYC 080600Z 00000KT 15SM FEW190 BKN240 M05/M17 A2987 RMK AC2CI1 SLP181=

CYYC;2005-12-08 09:00;METAR CYYC 080900Z 35002KT 15SM FEW240 M02/M11 A2985 RMK CI1 SLP163=

CYYC;2005-12-08 11:00;METAR CYYC 081100Z 29011G17KT 15SM SCT079 BKN240 01/M09 A2986 RMK AC3CI1 SLP167=

CYYC;2005-12-08 13:00;METAR CYYC 081300Z 31012KT 15SM BKN077 OVC150 02/M08 A2988 RMK AC5AC2 SLP172=

CYYC;2005-12-08 14:00;METAR CYYC 081400Z 32011KT 15SM SCT074 OVC140 M01/M08 A2993 RMK AC4AC2 SLP188=

CYYC;2005-12-08 15:00;METAR CYYC 081500Z 33011KT 40SM FEW070 BKN120 M00/M06 A2994 RMK AC1AC7 SLP199=

CYYC;2005-12-08 16:00;METAR CYYC 081600Z 32010KT 40SM FEW078 BKN120 M01/M06 A2996 RMK AC1AC1 SLP205=

CYYC;2005-12-08 17:00;METAR CYYC 081700Z 30008KT 40SM FEW120 BKN260 M00/M06 A2998 RMK AC1CI0 SLP210=

CYYC;2005-12-08 18:00;METAR CYYC 081800Z 25004KT 40SM FEW120 BKN260 00/M06 A2998 RMK AC1CI0 SLP206=

CYYC;2005-12-08 19:00;METAR CYYC 081900Z 23003KT 40SM FEW120 FEW260 02/M05 A2997 RMK AC1CI0 SLP202=

CYYC;2005-12-08 20:00;METAR CYYC 082000Z 25005KT 40SM FEW120 BKN260 00/M08 A2995 RMK AC1CI0 SLP196=

CYYC;2005-12-08 21:00;METAR CYYC 082100Z 20005KT 40SM FEW140 BKN260 01/M07 A2994 RMK AC1CI0 SLP185=

CYYC;2005-12-08 23:00;METAR CYYC 082300Z 20003KT 40SM FEW140 BKN260 01/M05 A2991 RMK AC1CI2 SLP177=

CYYC;2005-12-09 00:00;METAR CYYC 090000Z 21003KT 15SM FEW150 FEW180 BKN250 M00/M06 A2991 RMK AC1AC1CI0 SLP172=

CYYC;2005-12-09 01:00;METAR CYYC 090100Z 23006KT 15SM FEW180 BKN230 M02/M07 A2990 RMK AC1CI2 SLP170=

CYYC;2005-12-09 02:00;METAR CYYC 090200Z 21007KT 15SM FEW180 BKN240 M02/M08 A2987 RMK AC1CI3 SLP162=

CYYC;2005-12-09 03:00;METAR CYYC 090300Z 19008KT 15SM BKN170 BKN240 M00/M07 A2985 RMK AC5CI1 SLP156=

CYYC;2005-12-09 04:00;METAR CYYC 090400Z 22010KT 15SM BKN140 BKN180 01/M07 A2983 RMK AC5AC2 SLP149=

CYYC;2005-12-09 05:00;METAR CYYC 090500Z 18002KT 15SM BKN190 BKN210 05/M09 A2982 RMK AC5CI2 SLP144=

CYYC;2005-12-09 06:00;METAR CYYC 090600Z 27017G22KT 15SM SCT140 OVC190 06/M07 A2980 RMK AC4AC3 SLP126=

CYYC;2005-12-09 09:00;METAR CYYC 090900Z 27017G24KT 15SM SCT170 BKN210 07/M05 A2977 RMK AC4CI2 SLP114=

CYYC;2005-12-09 10:00;METAR CYYC 091000Z 27018G26KT 15SM SCT170 BKN220 06/M05 A2975 RMK AC3CI4 SLP108=

CYYC;2005-12-09 11:00;METAR CYYC 091100Z 27021G26KT 15SM OVC220 07/M04 A2976 RMK CI8 SLP110=

CYYC;2005-12-09 13:00;METAR CYYC 091300Z 26019G25KT 15SM FEW090 BKN240 05/M04 A2972 RMK AC2CI5 SLP099=

CYYC;2005-12-09 14:00;METAR CYYC 091400Z 25022G29KT 15SM FEW080 05/M04 A2973 RMK AC2 SLP102=

CYYC;2005-12-09 15:00;METAR CYYC 091500Z 27028G38KT 40SM FEW070 FEW240 05/M05 A2972 RMK AC1CI1 SLP102=

CYYC;2005-12-09 16:00;METAR CYYC 091600Z 27026KT 40SM FEW070 FEW180 05/M07 A2973 RMK AC1AC1 SLP106=

CYYC;2005-12-09 17:00;METAR CYYC 091700Z 28022G27KT 40SM FEW080 FEW180 05/M07 A2977 RMK AC1AC1 SLP116=

CYYC;2005-12-09 18:00;METAR CYYC 091800Z 27020G28KT 40SM FEW080 FEW180 06/M06 A2980 RMK AC1AC1 SLP117=

CYYC;2005-12-09 20:00;METAR CYYC 092000Z 27023G30KT 40SM FEW090 06/M06 A2984 RMK AC1 SLP129=

CYYC;2005-12-09 21:00;METAR CYYC 092100Z 27026KT 40SM BKN090 BKN180 06/M06 A2988 RMK AC6AC1 SLP147=

CYYC;2005-12-09 22:00;METAR CYYC 092200Z 27024G30KT 40SM BKN088 BKN180 07/M06 A2992 RMK AC6AC1 SLP158=

CYYC;2005-12-09 23:00;METAR CYYC 092300Z 28021G28KT 40SM FEW088 SCT180 BKN240 05/M07 A2996 RMK AC1AC1CI0 SLP169=

CYYC;2005-12-10 00:00;METAR CYYC 100000Z 28016G22KT 30SM FEW088 BKN240 05/M07 A3000 RMK AC1CI2 SLP188=

CYYC;2005-12-10 01:00;METAR CYYC 100100Z 28014KT 15SM FEW088 BKN240 04/M07 A3002 RMK AC1CI0 SLP195=

CYYC;2005-12-10 02:00;METAR CYYC 100200Z 28013KT 15SM BKN250 04/M08 A3004 RMK CI0 SLP201=

CYYC;2005-12-10 03:00;METAR CYYC 100300Z 28013KT 15SM FEW180 SCT240 04/M09 A3006 RMK AC1CI0 SLP213=

CYYC;2005-12-10 04:00;METAR CYYC 100400Z 30013G21KT 15SM FEW240 04/M09 A3006 RMK CI1 SLP216=

CYYC;2005-12-10 06:00;METAR CYYC 100600Z 28013KT 15SM FEW180 SCT230 05/M09 A3010 RMK AC1CI0 SLP225=

CYYC;2005-12-10 09:00;METAR CYYC 100900Z 33003KT 15SM BKN077 05/M07 A3013 RMK AC6 SLP235=

CYYC;2005-12-10 10:00;METAR CYYC 101000Z 30004KT 15SM BKN077 05/M07 A3013 RMK AC6 SLP235=

CYYC;2005-12-10 13:00;METAR CYYC 101300Z 27015G22KT 15SM BKN074 OVC230 06/M06 A3010 RMK AC6CI2 SLP224=

CYYC;2005-12-10 14:00;METAR CYYC 101400Z 27016KT 15SM BKN070 BKN090 06/M05 A3008 RMK AC6AC2 SLP220=

CYYC;2005-12-10 15:00;METAR CYYC 101500Z 27021G26KT 30SM BKN083 BKN120 07/M05 A3008 RMK AC6AC2 SLP217=

CYYC;2005-12-10 16:00;METAR CYYC 101600Z 27020G25KT 40SM BKN080 BKN230 07/M05 A3008 RMK AC7CI0 SLP217=

CYYC;2005-12-10 17:00;METAR CYYC 101700Z 27019G26KT 40SM FEW050 FEW080 SCT230 08/M04 A3007 RMK CU1AC2CI0 SLP215=

CYYC;2005-12-10 18:00;METAR CYYC 101800Z 27019G26KT 40SM FEW050 BKN084 BKN230 10/M04 A3006 RMK SC1AC2CI0 SLP208=

CYYC;2005-12-10 19:00;METAR CYYC 101900Z 27021G29KT 40SM FEW050 SCT084 BKN230 10/M04 A3005 RMK SC1AC3CI0 SLP203=

CYYC;2005-12-10 20:00;METAR CYYC 102000Z 27019G30KT 40SM FEW060 SCT084 BKN250 10/M03 A3003 RMK SC1AC2CI0 SLP196=

CYYC;2005-12-10 21:00;METAR CYYC 102100Z 27022G28KT 40SM FEW060 SCT080 BKN250 11/M03 A3002 RMK SC1AC2CI0 SLP189=

CYYC;2005-12-10 22:00;METAR CYYC 102200Z 27024KT 40SM FEW060 SCT080 OVC250 11/M03 A3001 RMK SC1AC2CI0 SLP186=

CYYC;2005-12-11 00:00;METAR CYYC 110000Z 27016G24KT 40SM FEW060 SCT110 SCT250 09/M03 A2998 RMK SC1AC2CI0 SLP178=

CYYC;2005-12-11 01:00;METAR CYYC 110100Z 26018KT 15SM FEW060 SCT110 SCT250 09/M03 A2997 RMK SC1AC2CI0 SLP175=

CYYC;2005-12-11 02:00;METAR CYYC 110200Z 27019G25KT 15SM SCT140 SCT250 09/M03 A2996 RMK AC2CI0 SLP170=

CYYC;2005-12-11 03:00;METAR CYYC 110300Z 26023G29KT 15SM FEW250 10/M03 A2995 RMK CI0 SLP166=

CYYC;2005-12-11 04:00;METAR CYYC 110400Z 26021G28KT 15SM FEW250 09/M03 A2995 RMK CI0 SLP164=

CYYC;2005-12-11 05:00;METAR CYYC 110500Z 26018G26KT 15SM FEW150 SCT250 09/M03 A2995 RMK AC1CI0 SLP164=

CYYC;2005-12-11 06:00;METAR CYYC 110600Z 27017G22KT 15SM FEW050 SCT250 09/M03 A2996 RMK SC1CI0 SLP164=

CYYC;2005-12-11 08:00;METAR CYYC 110800Z 26014KT 15SM FEW080 FEW240 08/M03 A2996 RMK AC1CI0 SLP164=

CYYC;2005-12-11 09:00;METAR CYYC 110900Z 25017KT 15SM FEW080 SCT240 09/M04 A2997 RMK AC1CI1 SLP168=

CYYC;2005-12-11 10:00;METAR CYYC 111000Z 26017KT 15SM FEW080 FEW240 09/M04 A2999 RMK AC1CI0 SLP175=

CYYC;2005-12-11 11:00;METAR CYYC 111100Z 27012G19KT 15SM FEW090 BKN240 09/M04 A3000 RMK AC2CI0 SLP176=

CYYC;2005-12-11 12:00;METAR CYYC 111200Z 28013KT 15SM FEW090 FEW240 09/M04 A2999 RMK AC1CI0 SLP178=

CYYC;2005-12-11 13:00;METAR CYYC 111300Z 29007G15KT 15SM FEW090 SCT240 08/M04 A3000 RMK AC1CI1 SLP180=

CYYC;2005-12-11 14:00;METAR CYYC 111400Z 01010KT 15SM BKN100 BKN240 05/M03 A3004 RMK AC4CI0 SLP191=

CYYC;2005-12-11 15:00;METAR CYYC 111500Z 36006KT 40SM FEW050 FEW090 SCT250 04/M04 A3005 RMK SC1AC2CI0 SLP202=

CYYC;2005-12-11 16:00;METAR CYYC 111600Z 32003KT 40SM BKN090 04/M03 A3006 RMK AC5 SLP208=

CYYC;2005-12-11 17:00;METAR CYYC 111700Z 19003KT 40SM SCT090 BKN250 04/M03 A3007 RMK AC3CI0 SLP209=

CYYC;2005-12-11 20:00;METAR CYYC 112000Z 18007KT 40SM FEW140 FEW250 09/M03 A3006 RMK AC1CI1 ACSL SLP205=

CYYC;2005-12-11 21:00;METAR CYYC 112100Z 19008KT 40SM FEW190 FEW250 09/M02 A3005 RMK AC0CI1 ACSL SLP198=

CYYC;2005-12-11 22:00;METAR CYYC 112200Z 18006KT 40SM FEW190 FEW240 07/M02 A3004 RMK AC1CI2 SLP193=

CYYC;2005-12-12 00:00;METAR CYYC 120000Z 18006KT 40SM FEW190 03/M03 A3001 RMK AC1 SLP192=

CYYC;2005-12-12 02:00;METAR CYYC 120200Z 17008KT 15SM SKC 02/M02 A2996 RMK SLP177=

CYYC;2005-12-12 02:24;SPECI CYYC 120224Z 19006KT 15SM SKC 01/=

CYYC;2005-12-12 03:00;METAR CYYC 120300Z 18004KT 15SM FEW240 00/M03 A2994 RMK CI0 SLP179=

CYYC;2005-12-12 04:00;METAR CYYC 120400Z 13005KT 15SM SCT220 M00/M03 A2991 RMK CI1 SLP170=

CYYC;2005-12-12 05:00;METAR CYYC 120500Z 20005KT 15SM BKN250 M01/M04 A2989 RMK CI6 SLP163=

CYYC;2005-12-12 06:00;METAR CYYC 120600Z 22002KT 15SM BKN250 M02/M04 A2987 RMK CI7 SLP151=

CYYC;2005-12-12 07:00;METAR CYYC 120700Z 17003KT 15SM FEW180 BKN210 04/M06 A2985 RMK AC1CI7 SLP145=

CYYC;2005-12-12 10:00;METAR CYYC 121000Z 26013KT 15SM FEW120 SCT180 BKN240 07/M09 A2983 RMK AC1AC2CI1 SLP121=

CYYC;2005-12-12 11:00;METAR CYYC 121100Z 26013KT 15SM FEW120 FEW180 FEW240 07/M09 A2982 RMK AC1AC1CI0 SLP118=

CYYC;2005-12-12 12:00;METAR CYYC 121200Z 26013KT 15SM BKN200 07/M09 A2980 RMK CI4 SLP122=

CYYC;2005-12-12 13:00;METAR CYYC 121300Z 19004KT 15SM BKN200 05/M09 A2980 RMK CI2 SLP123=

CYYC;2005-12-12 15:00;METAR CYYC 121500Z 34009KT 40SM FEW180 SCT220 03/M09 A2978 RMK AC1CI1 SLP125=

CYYC;2005-12-12 15:15;SPECI CYYC 121515Z 36008KT 40SM FEW180 FEW220 02/ RMK AC1CI1=

CYYC;2005-12-12 16:00;METAR CYYC 121600Z 36014KT 40SM FEW180 BKN220 02/M08 A2979 RMK AC1CI1 SLP126=

CYYC;2005-12-12 17:00;METAR CYYC 121700Z 36008KT 40SM SCT180 BKN220 02/M07 A2979 RMK AC3CI1 ACSL SLP127=

CYYC;2005-12-12 18:00;METAR CYYC 121800Z 32007KT 40SM FEW160 BKN220 04/M07 A2978 RMK AC2CI2 ACSL SLP124=

CYYC;2005-12-12 19:00;METAR CYYC 121900Z 32003KT 40SM SCT160 BKN210 06/M07 A2973 RMK AC3CI2 ACSL SLP109=

CYYC;2005-12-12 21:00;METAR CYYC 122100Z 36009KT 40SM FEW160 FEW260 06/M06 A2968 RMK AC1CI1 SLP072=

CYYC;2005-12-12 22:00;METAR CYYC 122200Z 01008KT 40SM FEW160 FEW260 05/M06 A2966 RMK AC1CI1 SLP066=

CYYC;2005-12-12 23:00;METAR CYYC 122300Z 35009KT 40SM FEW100 FEW160 02/M06 A2964 RMK AC1AC1 SLP062=

CYYC;2005-12-13 00:00;METAR CYYC 130000Z 34009KT 40SM FEW100 FEW160 M00/M07 A2964 RMK AC1AC1 SLP072=

CYYC;2005-12-13 01:00;METAR CYYC 130100Z 34012KT 15SM FEW160 M00/M07 A2964 RMK AC1 SLP070=

CYYC;2005-12-13 02:00;METAR CYYC 130200Z 34010KT 15SM FEW160 M01/M07 A2964 RMK AC1 SLP073=

CYYC;2005-12-13 03:00;METAR CYYC 130300Z 32011KT 15SM FEW074 M02/M07 A2965 RMK AC2 SLP081=

CYYC;2005-12-13 04:00;METAR CYYC 130400Z 34010KT 15SM BKN076 00/M06 A2966 RMK AC4 SLP084=

CYYC;2005-12-13 05:00;METAR CYYC 130500Z 35015G20KT 15SM BKN120 M00/M06 A2967 RMK AC7 SLP089=

CYYC;2005-12-13 08:36;SPECI CYYC 130836Z 31011KT 15SM SCT075 OVC090 M01/ RMK AC4AC4=

CYYC;2005-12-13 09:00;METAR CYYC 130900Z 33013KT 15SM BKN081 OVC090 M00/M06 A2973 RMK AC6AC2 SLP103=

CYYC;2005-12-13 10:00;METAR CYYC 131000Z 32014KT 15SM BKN110 BKN240 M01/M07 A2974 RMK AC5CI2 SLP108=

CYYC;2005-12-13 11:00;METAR CYYC 131100Z 32011KT 15SM SCT140 BKN240 M02/M08 A2975 RMK AC3CI2 SLP109=

CYYC;2005-12-13 12:00;METAR CYYC 131200Z 32012G17KT 15SM SCT150 BKN240 M02/M08 A2976 RMK AC3CI2 SLP124=

CYYC;2005-12-13 13:00;METAR CYYC 131300Z 32011G16KT 15SM SCT180 BKN240 M03/M09 A2977 RMK AC3CI2 SLP128=

CYYC;2005-12-13 14:00;METAR CYYC 131400Z 31011KT 15SM FEW160 SCT240 M03/M09 A2980 RMK AC2CI1 SLP136=

CYYC;2005-12-13 15:00;METAR CYYC 131500Z 32011KT 40SM SCT087 BKN250 M03/M09 A2982 RMK AC2CI2 SLP149=

CYYC;2005-12-13 15:49;SPECI CYYC 131549Z 32019G24KT 2 1/2SM -SN BKN045 OVC086 M01/ RMK ST6AC2 VIS SW 40=

CYYC;2005-12-13 16:00;METAR CYYC 131600Z 32020G25KT 2 1/2SM -SN BKN013 OVC072 M02/M07 A2985 RMK ST6AC2 SLP158=

CYYC;2005-12-13 17:00;METAR CYYC 131700Z 31016G22KT 1 1/2SM -SN BKN010 OVC035 M03/M04 A2988 RMK ST5ST2 SLP168=

CYYC;2005-12-13 17:25;SPECI CYYC 131725Z 31015KT 4SM -SN SCT010 SCT024 BKN110 M03/ RMK ST3SC0AC0=

CYYC;2005-12-13 17:36;SPECI CYYC 131736Z 31013KT 10SM FEW015 SCT110 M02/ RMK ST2AC1=

CYYC;2005-12-13 19:00;METAR CYYC 131900Z 32012KT 40SM FEW030 SCT084 SCT250 00/M06 A2989 RMK SC1AC2CI0 SLP169=

CYYC;2005-12-13 21:00;METAR CYYC 132100Z 35014G19KT 40SM FEW045 SCT100 BKN250 01/M06 A2990 RMK SC1AC4CI0 VIRGA E-SE SLP172=

CYYC;2005-12-13 22:00;METAR CYYC 132200Z 34016KT 40SM FEW058 BKN074 M00/M06 A2993 RMK SC2AC5 SLP180=

CYYC;2005-12-13 23:00;METAR CYYC 132300Z 32008KT 40SM FEW058 BKN074 BKN086 M01/M05 A2995 RMK SC2AC5AC1 SLP185=

CYYC;2005-12-14 00:00;METAR CYYC 140000Z 30008KT 40SM FEW048 BKN072 OVC094 M01/M06 A2996 RMK SC1AC5AC3 SLP196=

CYYC;2005-12-14 01:00;METAR CYYC 140100Z 31009KT 15SM FEW058 BKN092 OVC110 M00/M08 A2996 RMK SC2AC5AC1 SLP196=

CYYC;2005-12-14 02:00;METAR CYYC 140200Z 30011KT 15SM BKN092 OVC110 00/M08 A2996 RMK AC5AC2 SLP197=

CYYC;2005-12-14 03:00;METAR CYYC 140300Z 33013KT 15SM SCT059 OVC096 M00/M09 A2999 RMK SC3AC4 SLP205=

CYYC;2005-12-14 04:00;METAR CYYC 140400Z 32010KT 15SM FEW062 OVC110 M01/M09 A3000 RMK SC2AC6 SLP209=

CYYC;2005-12-14 05:00;METAR CYYC 140500Z 32013G18KT 15SM BKN055 OVC110 M00/M09 A3001 RMK SC4AC3 SLP212=

CYYC;2005-12-14 06:00;METAR CYYC 140600Z 33018KT 15SM FEW055 BKN110 M00/M10 A3003 RMK SC1AC4 SLP218=

CYYC;2005-12-14 07:00;METAR CYYC 140700Z 33017KT 15SM FEW055 BKN066 M00/M10 A3005 RMK SC1AC2 SLP225=

CYYC;2005-12-14 09:00;METAR CYYC 140900Z 34014KT 15SM FEW066 M02/M11 A3008 RMK AC1 SLP237=

CYYC;2005-12-14 11:00;METAR CYYC 141100Z 32011KT 15SM FEW070 M05/M10 A3013 RMK AC1 SLP253=

CYYC;2005-12-14 12:00;METAR CYYC 141200Z 32011KT 15SM FEW080 M05/M10 A3014 RMK AC1 SNOW COVER / NIL SLP263=

CYYC;2005-12-14 13:00;METAR CYYC 141300Z 32009KT 15SM SKC M05/M11 A3015 RMK SLP267=

CYYC;2005-12-14 14:00;METAR CYYC 141400Z 32011KT 15SM FEW090 M06/M11 A3017 RMK AC1 SLP272=

CYYC;2005-12-14 15:00;METAR CYYC 141500Z 32009KT 40SM FEW064 FEW250 M05/M11 A3019 RMK SF0CI0 SLP281=

CYYC;2005-12-14 16:00;METAR CYYC 141600Z 32012KT 40SM FEW072 M06/M11 A3021 RMK AC0 SLP285=

CYYC;2005-12-14 17:00;METAR CYYC 141700Z 32010KT 40SM FEW082 M04/M11 A3023 RMK AC1 SLP291=

CYYC;2005-12-14 18:00;METAR CYYC 141800Z 31013KT 40SM FEW084 M02/M11 A3023 RMK AC1 SLP288=

CYYC;2005-12-14 19:00;METAR CYYC 141900Z 31009KT 40SM FEW092 M01/M11 A3022 RMK AC1 SLP286=

CYYC;2005-12-14 21:00;METAR CYYC 142100Z 34013KT 40SM FEW250 M01/M11 A3021 RMK CI1 SLP283=

CYYC;2005-12-14 22:00;METAR CYYC 142200Z 34012KT 40SM FEW250 M01/M12 A3021 RMK CI1 SLP283=

CYYC;2005-12-14 23:00;METAR CYYC 142300Z 36008KT 40SM FEW250 M03/M12 A3022 RMK CI0 SLP285=

CYYC;2005-12-15 00:00;METAR CYYC 150000Z 31008KT 40SM FEW240 M05/M12 A3024 RMK CI1 CI TR SLP304=

CYYC;2005-12-15 01:00;METAR CYYC 150100Z 31008KT 15SM SKC M07/M12 A3024 RMK SLP305=

CYYC;2005-12-15 02:00;METAR CYYC 150200Z 32007KT 15SM SKC M08/M12 A3026 RMK SLP309=

CYYC;2005-12-15 05:00;METAR CYYC 150500Z 31005KT 15SM SKC M09/M13 A3026 RMK SLP316=

CYYC;2005-12-15 07:00;METAR CYYC 150700Z 27003KT 15SM FEW230 M09/M13 A3026 RMK CI0 SLP313=

CYYC;2005-12-15 08:00;METAR CYYC 150800Z 27003KT 15SM BKN230 M10/M14 A3025 RMK CI0 SLP310=

CYYC;2005-12-15 09:00;METAR CYYC 150900Z 32004KT 15SM BKN220 M11/M14 A3025 RMK CI2 SLP309=

CYYC;2005-12-15 10:00;METAR CYYC 151000Z 00000KT 15SM SCT120 BKN220 M11/M14 A3025 RMK AC1CI1 SLP310=

CYYC;2005-12-15 12:00;METAR CYYC 151200Z 31002KT 15SM FEW140 OVC220 M11/M14 A3026 RMK AC1CI1 SLP319=

CYYC;2005-12-15 13:00;METAR CYYC 151300Z 33005KT 15SM SCT160 OVC220 M11/M13 A3026 RMK AC2CI1 SLP320=

CYYC;2005-12-15 14:00;METAR CYYC 151400Z 34003KT 15SM BKN120 OVC180 M11/M13 A3026 RMK AC2AC0 SLP318=

CYYC;2005-12-15 15:00;METAR CYYC 151500Z 33004KT 15SM BKN150 OVC240 M10/M13 A3025 RMK AC6CI2 SLP319=

CYYC;2005-12-15 16:00;METAR CYYC 151600Z 36005KT 40SM FEW110 BKN240 M10/M13 A3026 RMK AC2CI2 SLP320=

CYYC;2005-12-15 17:00;METAR CYYC 151700Z 29003KT 40SM FEW100 SCT240 M09/M12 A3026 RMK AC2CI1 SLP322=

CYYC;2005-12-16 08:55;SPECI CYYC 160855Z 19006KT 2SM BR SKC M11/ RMK FROIN=

CYYC;2005-12-16 15:34;SPECI CYYC 161534Z 36009KT 40SM -SN BKN008 BKN040 M13/ RMK SC5SC2=

CYYC;2005-12-16 16:55;SPECI CYYC 161655Z 36010KT 2 1/2SM -SN FEW003 BKN007 M14/ RMK SC1SC5=

CYYC;2005-12-16 20:35;SPECI CYYC 162035Z 35007KT 4SM -SN FEW005 BKN012 M13/ RMK SC1SC6=

CYYC;2005-12-17 00:54;SPECI CYYC 170054Z 12003KT 5SM -SN SCT011 SCT030 M14/ RMK SC3SC1=

CYYC;2005-12-17 01:00;METAR CYYC 170100Z 12002KT 5SM -SN SCT012 SCT030 M14/M16 A3019 RMK SC3SC1 SLP313=

CYYC;2005-12-17 01:50;SPECI CYYC 170150Z 00000KT 6SM BR FEW012 FEW030 M14/ RMK SC2SC1=

CYYC;2005-12-17 04:00;METAR CYYC 170400Z 00000KT 7SM -SN SCT010 BKN030 M16/M17 A3021 RMK SC3SC2 SLP319=

CYYC;2005-12-17 05:00;METAR CYYC 170500Z 00000KT 7SM -SN BKN010 BKN030 M16/M18 A3021 RMK SC5SC2 SLP319=

CYYC;2005-12-17 06:00;METAR CYYC 170600Z 14003KT 7SM -SN BKN010 M16/M18 A3022 RMK SC7 SLP325=

CYYC;2005-12-17 07:00;METAR CYYC 170700Z 00000KT 7SM -SN BKN010 M17/M18 A3022 RMK SC7 SLP327=

CYYC;2005-12-17 08:00;METAR CYYC 170800Z 18005KT 6SM -SN BKN007 M16/M17 A3022 RMK SC7 SLP327=

CYYC;2005-12-17 09:00;METAR CYYC 170900Z 17005KT 6SM -SN OVC007 M15/M16 A3023 RMK SC7 SLP327=

CYYC;2005-12-17 10:00;METAR CYYC 171000Z 19005KT 6SM -SN BR OVC006 M16/M17 A3024 RMK ST8 SLP331=

CYYC;2005-12-17 13:00;METAR CYYC 171300Z 25005KT 5SM -SN BR OVC007 M15/M16 A3025 RMK ST8 SLP336=

CYYC;2005-12-17 14:00;METAR CYYC 171400Z 19008KT 5SM -SN BR OVC007 M15/M16 A3025 RMK ST8 SLP337=

CYYC;2005-12-17 15:00;METAR CYYC 171500Z 20007KT 3SM -SN BR OVC007 M15/M16 A3026 RMK ST7 VIS N-NE 2 SLP338=

CYYC;2005-12-17 16:00;METAR CYYC 171600Z 20008KT 4SM BR BKN008 OVC025 M15/M17 A3027 RMK ST5SC1 VIS S 3 SLP342=

CYYC;2005-12-17 17:00;METAR CYYC 171700Z 20009KT 6SM BR SCT006 BKN035 M15/M16 A3028 RMK ST2ST0 SLP345=

CYYC;2005-12-17 18:00;METAR CYYC 171800Z 18007KT 40SM FEW010 M14/M16 A3028 RMK ST2 VIS S 6 SLP348=

CYYC;2005-12-17 18:37;SPECI CYYC 171837Z 18011KT 20SM -SN FEW012 SCT036 M13/ RMK ST2SC1=

CYYC;2005-12-17 19:00;METAR CYYC 171900Z 16011KT 6SM -SN FEW012 FEW036 M13/M15 A3026 RMK ST1SC1 SLP344=

CYYC;2005-12-17 20:00;METAR CYYC 172000Z 18012KT 20SM -SN FEW012 FEW036 M12/M14 A3026 RMK ST2SC0 VIS ES-SW 6 SLP341=

CYYC;2005-12-17 21:00;METAR CYYC 172100Z 18012KT 20SM FEW025 M12/M14 A3025 RMK ST1 VIS SE-SW 6 SLP332=

CYYC;2005-12-17 22:00;METAR CYYC 172200Z 17009KT 20SM FEW025 M12/M14 A3026 RMK ST0 SLP335=

CYYC;2005-12-17 23:00;METAR CYYC 172300Z 16009KT 20SM FEW015 M13/M15 A3026 RMK ST0 SLP337=

CYYC;2005-12-18 00:00;METAR CYYC 180000Z 18012KT 15SM FEW020 FEW080 M13/M15 A3027 RMK ST0AC0 SLP341=

CYYC;2005-12-18 01:00;METAR CYYC 180100Z 18012KT 6SM BR SCT020 M14/M15 A3026 RMK ST0 SLP338=

CYYC;2005-12-18 02:00;METAR CYYC 180200Z 18011KT 6SM BR FEW020 M14/M16 A3024 RMK ST0 SLP333=

CYYC;2005-12-18 03:00;METAR CYYC 180300Z 17013KT 5SM BR FEW020 M15/M16 A3026 RMK ST0 SLP341=

CYYC;2005-12-18 04:00;METAR CYYC 180400Z 18012KT 6SM BR FEW020 M15/M17 A3026 RMK ST0 SLP339=

CYYC;2005-12-18 05:00;METAR CYYC 180500Z 19007KT 10SM FEW240 M16/M18 A3026 RMK CI0 SLP339=

CYYC;2005-12-18 06:00;METAR CYYC 180600Z 19005KT 10SM FEW250 M16/M18 A3025 RMK CI1 SLP336=

CYYC;2005-12-18 07:00;METAR CYYC 180700Z 16008KT 10SM FEW250 M16/M18 A3025 RMK CI0 FROIN SLP336=

CYYC;2005-12-18 09:00;METAR CYYC 180900Z 19005KT 10SM FEW015 M17/M18 A3022 RMK ST0 FROIN SLP324=

CYYC;2005-12-18 11:00;METAR CYYC 181100Z 20007KT 10SM FEW015 M18/M19 A3021 RMK ST1 SLP320=

CYYC;2005-12-18 13:00;METAR CYYC 181300Z 19008KT 15SM FEW015 M17/M19 A3018 RMK ST1 SLP312=

CYYC;2005-12-18 14:00;METAR CYYC 181400Z 19007KT 15SM FEW015 M17/M19 A3018 RMK ST1 SLP313=

CYYC;2005-12-18 15:00;METAR CYYC 181500Z 19008KT 40SM SKC M17/M19 A3017 RMK SLP310=

CYYC;2005-12-18 16:00;METAR CYYC 181600Z 20007KT 40SM SKC M17/M19 A3017 RMK SLP310=

CYYC;2005-12-18 17:00;METAR CYYC 181700Z 21006KT 40SM SKC M14/M17 A3017 RMK SLP311=

CYYC;2005-12-18 18:00;METAR CYYC 181800Z 21006KT 40SM SKC M11/M15 A3017 RMK SLP304=

CYYC;2005-12-18 19:00;METAR CYYC 181900Z 20007KT 40SM FEW240 M09/M13 A3015 RMK CI1 CI TR SLP298=

CYYC;2005-12-18 20:00;METAR CYYC 182000Z 22006KT 40SM FEW250 M07/M13 A3012 RMK CI1 CI TR SLP290=

CYYC;2005-12-18 22:00;METAR CYYC 182200Z 19005KT 40SM FEW250 M05/M12 A3010 RMK CI0 SLP273=

CYYC;2005-12-18 23:00;METAR CYYC 182300Z 18005KT 40SM SCT250 M08/M13 A3009 RMK CI1 SLP271=

CYYC;2005-12-19 00:00;METAR CYYC 190000Z 19005KT 20SM BKN220 M10/M14 A3009 RMK CI2 SLP276=

CYYC;2005-12-19 02:00;METAR CYYC 190200Z 21006KT 15SM FEW240 M11/M14 A3008 RMK CI1 SLP274=

CYYC;2005-12-19 03:00;METAR CYYC 190300Z 22007KT 15SM FEW110 M12/M15 A3007 RMK AC1 SLP274=

CYYC;2005-12-19 04:00;METAR CYYC 190400Z 21007KT 15SM FEW110 FEW240 M12/M16 A3006 RMK AC1CI1 SLP268=

CYYC;2005-12-19 06:00;METAR CYYC 190600Z 00000KT 15SM SKC M12/M16 A3006 RMK SLP259=

CYYC;2005-12-19 07:00;METAR CYYC 190700Z 32002KT 15SM SKC M11/M15 A3005 RMK SLP258=

CYYC;2005-12-19 08:00;METAR CYYC 190800Z 21002KT 15SM SKC M11/M16 A3005 RMK SLP256=

CYYC;2005-12-19 09:00;METAR CYYC 190900Z 20002KT 15SM SKC M10/M16 A3005 RMK SLP243=

CYYC;2005-12-19 10:00;METAR CYYC 191000Z 00000KT 15SM FEW240 M14/M17 A3006 RMK CI1 SLP249=

CYYC;2005-12-19 11:00;METAR CYYC 191100Z 00000KT 15SM SKC M11/M17 A3007 RMK SLP251=

CYYC;2005-12-19 13:00;METAR CYYC 191300Z 00000KT 15SM FEW240 M14/M18 A3007 RMK CI1 SLP261=

CYYC;2005-12-19 14:00;METAR CYYC 191400Z 32004KT 15SM FEW240 M10/M17 A3008 RMK CI1 SLP263=

CYYC;2005-12-19 15:00;METAR CYYC 191500Z 30003KT 40SM SKC M09/M16 A3007 RMK SLP262=

CYYC;2005-12-19 16:00;METAR CYYC 191600Z 28002KT 40SM SKC M11/M17 A3009 RMK SLP269=

CYYC;2005-12-19 17:00;METAR CYYC 191700Z 00000KT 40SM FEW080 M09/M14 A3010 RMK AC1 AC TR SLP271=

CYYC;2005-12-19 18:00;METAR CYYC 191800Z 22002KT 40SM FEW090 M05/M13 A3010 RMK AC1 AC TR SLP266=

CYYC;2005-12-19 19:00;METAR CYYC 191900Z 19002KT 40SM FEW090 M03/M13 A3010 RMK AC1 SLP267=

CYYC;2005-12-19 20:00;METAR CYYC 192000Z 00000KT 40SM FEW220 M01/M12 A3008 RMK CI1 SLP259=

CYYC;2005-12-19 21:00;METAR CYYC 192100Z 21005KT 40SM FEW220 M01/M11 A3007 RMK CI1 SLP245=

CYYC;2005-12-19 22:00;METAR CYYC 192200Z 00000KT 40SM FEW220 M04/M13 A3005 RMK CI1 SLP239=

CYYC;2005-12-20 00:00;METAR CYYC 200000Z 20003KT 40SM BKN240 M05/M15 A3006 RMK CI3 SLP250=

CYYC;2005-12-20 01:00;METAR CYYC 200100Z 00000KT 15SM BKN230 M07/M15 A3006 RMK CI3 SLP250=

CYYC;2005-12-20 02:00;METAR CYYC 200200Z 00000KT 15SM SCT200 BKN240 M09/M14 A3006 RMK CI3CI1 SLP249=

CYYC;2005-12-20 03:00;METAR CYYC 200300Z 19002KT 15SM FEW200 M10/M15 A3005 RMK CI0 SLP250=

CYYC;2005-12-20 04:00;METAR CYYC 200400Z 22002KT 15SM FEW120 FEW200 M09/M15 A3004 RMK AC1CI0 SLP246=

CYYC;2005-12-20 05:00;METAR CYYC 200500Z 24002KT 15SM FEW120 BKN220 M09/M14 A3003 RMK AC1CI1 SLP244=

CYYC;2005-12-20 06:00;METAR CYYC 200600Z 00000KT 15SM FEW100 BKN220 M10/M15 A3003 RMK AC1CI1 SLP238=

CYYC;2005-12-20 07:00;METAR CYYC 200700Z 22005KT 15SM FEW180 M11/M15 A3002 RMK AC1 SLP235=

CYYC;2005-12-20 08:00;METAR CYYC 200800Z 18004KT 15SM FEW160 M09/M14 A3000 RMK AC1 SLP229=

CYYC;2005-12-20 09:00;METAR CYYC 200900Z 18004KT 15SM SKC M05/M12 A2998 RMK SLP208=

CYYC;2005-12-20 10:00;METAR CYYC 201000Z 22007KT 15SM SCT260 M05/M09 A2999 RMK CI0 SLP211=

CYYC;2005-12-20 11:00;METAR CYYC 201100Z 28004KT 15SM SCT260 03/M05 A2999 RMK CI0 SLP210=

CYYC;2005-12-20 13:00;METAR CYYC 201300Z 31009KT 15SM FEW100 FEW260 04/M04 A2998 RMK AC1CI0 SLP199=

CYYC;2005-12-20 14:00;METAR CYYC 201400Z 32007KT 15SM FEW100 FEW260 04/M04 A2997 RMK AC1CI0 SLP196=

CYYC;2005-12-20 15:00;METAR CYYC 201500Z 27010KT 40SM FEW050 FEW100 SCT250 06/M04 A2997 RMK SC1AC1CI1 SC TR SLP199=

CYYC;2005-12-20 16:00;METAR CYYC 201600Z 19005KT 40SM FEW050 FEW099 BKN250 01/M05 A2998 RMK SC1AC1CI2 SC TR SLP202=

CYYC;2005-12-20 18:00;METAR CYYC 201800Z 00000KT 40SM FEW050 BKN110 BKN240 08/M01 A2994 RMK SC1AC4CI2 SC TR SLP187=

CYYC;2005-12-20 19:00;METAR CYYC 201900Z 20010KT 40SM FEW050 BKN110 BKN240 07/M02 A2993 RMK SC1AC3CI2 SC TR SLP184=

CYYC;2005-12-20 20:00;METAR CYYC 202000Z 18005KT 40SM FEW050 SCT180 BKN240 09/M02 A2991 RMK SC1AC2CI2 ACSL S SLP178=

CYYC;2005-12-20 21:00;METAR CYYC 202100Z 17007KT 40SM FEW080 SCT180 BKN240 10/M01 A2989 RMK AC1AC2CI2 SLP161=

CYYC;2005-12-20 22:00;METAR CYYC 202200Z 23004KT 40SM FEW086 BKN097 OVC240 08/M01 A2989 RMK AC2AC3CI2 VIRGA E+W SLP162=

CYYC;2005-12-20 23:00;METAR CYYC 202300Z 23004KT 40SM FEW068 BKN090 BKN240 09/M02 A2989 RMK AC2AC3CI2 SLP161=

CYYC;2005-12-21 00:00;METAR CYYC 210000Z 22007KT 20SM FEW070 BKN100 OVC240 05/M02 A2988 RMK AC1AC4CI2 SLP149=

CYYC;2005-12-21 01:00;METAR CYYC 210100Z 22008KT 15SM FEW080 BKN120 OVC240 06/M02 A2987 RMK AC2AC3CI2 SLP148=

CYYC;2005-12-21 02:00;METAR CYYC 210200Z 21007KT 15SM SCT120 OVC240 05/M02 A2985 RMK AC3CI4 SLP142=

CYYC;2005-12-21 03:00;METAR CYYC 210300Z 25010KT 15SM SCT120 OVC170 10/M00 A2985 RMK AC3AC5 SLP131=

CYYC;2005-12-21 04:00;METAR CYYC 210400Z 21009KT 15SM FEW120 OVC160 05/M01 A2985 RMK AC2AC6 SLP131=

CYYC;2005-12-21 05:00;METAR CYYC 210500Z 19003KT 15SM BKN180 OVC210 06/M01 A2985 RMK AC5CI2 SLP133=

CYYC;2005-12-21 06:00;METAR CYYC 210600Z 34002KT 15SM FEW120 BKN190 04/M01 A2985 RMK AC2AC5 SLP134=

CYYC;2005-12-21 07:00;METAR CYYC 210700Z 14002KT 15SM FEW140 BKN180 05/M01 A2984 RMK AC2AC5 SLP133=

CYYC;2005-12-21 08:00;METAR CYYC 210800Z 21005KT 15SM FEW120 OVC160 04/M01 A2983 RMK AC1AC7 SLP129=

CYYC;2005-12-21 09:00;METAR CYYC 210900Z 22008KT 15SM OVC200 04/M01 A2982 RMK CI8 SLP122=

CYYC;2005-12-21 10:00;METAR CYYC 211000Z 19010KT 15SM OVC190 04/M01 A2981 RMK AC8 SLP120=

CYYC;2005-12-21 11:00;METAR CYYC 211100Z 19003KT 15SM BKN140 BKN190 06/M01 A2981 RMK AC6AC2 SLP119=

CYYC;2005-12-21 11:13;SPECI CYYC 211113Z 19003KT 15SM -RA FEW080 BKN140 OVC190 06/ RMK AC1AC6AC2=

CYYC;2005-12-21 11:28;SPECI CYYC 211128Z 21003KT 15SM FEW100 OVC140 06/ RMK AC2AC6 VIRGA=

CYYC;2005-12-21 12:00;METAR CYYC 211200Z 22003KT 15SM FEW100 BKN150 BKN180 03/M01 A2980 RMK AC2AC3AC2 SLP122=

CYYC;2005-12-21 12:29;SPECI CYYC 211229Z 06002KT 15SM FEW100 BKN160 BKN200 02/ RMK AC2AC4CI0=

CYYC;2005-12-21 13:00;METAR CYYC 211300Z 00000KT 15SM SCT160 BKN200 04/M01 A2980 RMK AC3CI2 SLP122=

CYYC;2005-12-21 14:00;METAR CYYC 211400Z 27017KT 15SM SCT150 BKN250 09/M02 A2978 RMK AC3CI2 SLP117=

CYYC;2005-12-21 15:00;METAR CYYC 211500Z 27017KT 30SM FEW150 BKN250 09/M03 A2978 RMK AC2CI4 SLP102=

CYYC;2005-12-21 16:00;METAR CYYC 211600Z 27023G28KT 40SM FEW050 FEW180 BKN220 09/M03 A2975 RMK SC1AC2CI3 SLP094=

CYYC;2005-12-21 18:00;METAR CYYC 211800Z 25009KT 40SM FEW050 FEW180 BKN200 BKN250 08/M03 A2979 RMK SC1AC0CI7CI1 SLP115=

CYYC;2005-12-21 19:00;METAR CYYC 211900Z 29008KT 40SM FEW040 FEW170 BKN190 BKN250 08/M03 A2977 RMK SC1AC1AC7CI1 SLP109=

CYYC;2005-12-21 21:00;METAR CYYC 212100Z 21006KT 40SM FEW040 BKN140 BKN210 07/M03 A2971 RMK SC1AC7CI1 ACSL S SLP088=

CYYC;2005-12-21 22:00;METAR CYYC 212200Z 22002KT 40SM FEW040 BKN130 BKN170 08/M03 A2970 RMK SC1AC6AC1 ACSL S SLP086=

CYYC;2005-12-21 23:00;METAR CYYC 212300Z 15004KT 40SM FEW040 SCT130 BKN170 07/M03 A2969 RMK SC1AC3AC4 ACSL SLP084=

CYYC;2005-12-22 00:00;METAR CYYC 220000Z 00000KT 40SM FEW040 SCT150 BKN190 09/M04 A2970 RMK SC1AC3AC4 VIRGA SLP083=

CYYC;2005-12-22 01:00;METAR CYYC 220100Z 18002KT 40SM FEW040 BKN130 08/M04 A2967 RMK SC1AC7 VIRGA SLP075=

CYYC;2005-12-22 03:00;METAR CYYC 220300Z 17005KT 15SM BKN150 OVC240 04/M03 A2962 RMK AC5CI2 SLP053=

CYYC;2005-12-22 04:00;METAR CYYC 220400Z 21003KT 15SM OVC150 04/M03 A2960 RMK AC7 SLP047=

CYYC;2005-12-22 05:00;METAR CYYC 220500Z 11004KT 15SM BKN150 OVC240 03/M03 A2959 RMK AC5CI2 SLP044=

CYYC;2005-12-22 06:00;METAR CYYC 220600Z 18009KT 15SM SCT140 BKN240 03/M03 A2957 RMK AC4CI2 SLP040=

CYYC;2005-12-22 08:00;METAR CYYC 220800Z 18002KT 15SM BKN160 BKN240 02/M03 A2950 RMK AC6CI1 SLP021=

CYYC;2005-12-22 09:00;METAR CYYC 220900Z 21003KT 15SM SCT160 BKN210 01/M04 A2947 RMK AC3CI2 SLP010=

CYYC;2005-12-22 10:00;METAR CYYC 221000Z 00000KT 15SM SCT180 BKN210 M00/M04 A2948 RMK AC3CI2 SLP012=

CYYC;2005-12-22 11:00;METAR CYYC 221100Z 22005KT 15SM SCT180 BKN220 M01/M04 A2947 RMK AC3CI2 SLP010=

CYYC;2005-12-22 12:00;METAR CYYC 221200Z 18004KT 15SM FEW180 BKN240 M02/M05 A2946 RMK AC2CI3 SLP007=

CYYC;2005-12-22 13:00;METAR CYYC 221300Z 00000KT 15SM FEW180 BKN230 M01/M05 A2944 RMK AC2CI4 SLP001=

CYYC;2005-12-22 14:00;METAR CYYC 221400Z 22002KT 15SM FEW180 BKN240 02/M04 A2942 RMK AC2CI2 SLP995=

CYYC;2005-12-22 15:00;METAR CYYC 221500Z 00000KT 20SM FEW045 SCT180 BKN240 02/M04 A2945 RMK SC1AC2CI0 SLP006=

CYYC;2005-12-22 16:00;METAR CYYC 221600Z 26006KT 40SM FEW080 SCT190 BKN230 02/M04 A2945 RMK AC1AC2CI0 SLP008=

CYYC;2005-12-22 17:00;METAR CYYC 221700Z 27012KT 40SM FEW075 SCT190 BKN230 08/M04 A2946 RMK AC1AC2CI2 SLP010=

CYYC;2005-12-22 18:00;METAR CYYC 221800Z 27009KT 40SM FEW075 FEW190 BKN230 08/M04 A2948 RMK AC1AC1CI2 SLP008=

CYYC;2005-12-22 19:00;METAR CYYC 221900Z 26007KT 40SM FEW075 FEW190 FEW230 10/M04 A2946 RMK AC1AC1CI0 SLP004=

CYYC;2005-12-22 20:00;METAR CYYC 222000Z 28002KT 40SM FEW075 FEW190 BKN230 12/M04 A2945 RMK AC1AC1CI0 SLP000=

CYYC;2005-12-22 21:00;METAR CYYC 222100Z 00000KT 40SM FEW075 FEW180 SCT230 12/M05 A2943 RMK AC1AC1CI0 SLP989=

CYYC;2005-12-22 22:00;METAR CYYC 222200Z 14003KT 40SM FEW075 FEW180 BKN230 10/M04 A2943 RMK AC1AC1CI1 SLP988=

CYYC;2005-12-23 00:00;METAR CYYC 230000Z 13003KT 30SM FEW080 SCT180 BKN240 06/M04 A2943 RMK AC1AC2CI0 SLP002=

CYYC;2005-12-23 01:00;METAR CYYC 230100Z 36007KT 15SM FEW080 FEW180 BKN240 02/M05 A2940 RMK AC1AC1CI2 SLP991=

CYYC;2005-12-23 02:00;METAR CYYC 230200Z 36002KT 15SM FEW230 03/M06 A2941 RMK CI1 SLP996=

CYYC;2005-12-23 03:00;METAR CYYC 230300Z 28006KT 15SM FEW240 04/M05 A2942 RMK CI1 SLP994=

CYYC;2005-12-23 04:00;METAR CYYC 230400Z 22005KT 15SM FEW080 FEW240 03/M06 A2942 RMK AC1CI0 SLP994=

CYYC;2005-12-23 04:03;SPECI CYYC 230403Z 22006KT 15SM FEW080 FEW240 02/ RMK AC1CI0=

CYYC;2005-12-23 05:00;METAR CYYC 230500Z 00000KT 15SM FEW140 BKN200 04/M06 A2941 RMK AC2CI0 SLP993=

CYYC;2005-12-23 05:41;SPECI CYYC 230541Z 27002KT 15SM FEW180 FEW210 02/ RMK AC1CI0=

CYYC;2005-12-23 06:00;METAR CYYC 230600Z 35002KT 15SM FEW180 SCT240 01/M06 A2942 RMK AC1CI0 SLP989=

CYYC;2005-12-23 07:00;METAR CYYC 230700Z 31006KT 15SM FEW180 FEW240 01/M05 A2943 RMK AC1CI0 SLP994=

CYYC;2005-12-23 10:00;METAR CYYC 231000Z 27012KT 15SM FEW080 BKN220 07/M05 A2953 RMK AC1CI6 SLP014=

CYYC;2005-12-23 11:00;METAR CYYC 231100Z 25013KT 15SM FEW090 SCT150 BKN210 05/M05 A2956 RMK AC1AC2CI3 SLP022=

CYYC;2005-12-23 12:00;METAR CYYC 231200Z 28009KT 15SM FEW090 BKN130 OVC210 06/M05 A2960 RMK AC2AC5CI2 SLP048=

CYYC;2005-12-23 13:00;METAR CYYC 231300Z 30008KT 15SM FEW090 BKN150 OVC210 07/M05 A2964 RMK AC2AC5CI1 SLP063=

CYYC;2005-12-23 14:00;METAR CYYC 231400Z 31006KT 15SM FEW090 BKN150 BKN200 04/M05 A2967 RMK AC2AC3CI1 SLP072=

CYYC;2005-12-23 15:00;METAR CYYC 231500Z 31006KT 15SM FEW060 BKN100 OVC240 04/M05 A2971 RMK SC1AC5CI1 SLP093=

CYYC;2005-12-23 16:00;METAR CYYC 231600Z 27011KT 40SM FEW060 BKN150 BKN190 06/M05 A2977 RMK SC1AC5AC1 VIRGA E SLP110=

CYYC;2005-12-23 17:00;METAR CYYC 231700Z 27017KT 40SM FEW060 BKN190 BKN240 07/M05 A2982 RMK SC1AC4CI1 SLP125=

CYYC;2005-12-23 18:00;METAR CYYC 231800Z 27016G22KT 40SM FEW060 SCT150 BKN240 08/M05 A2985 RMK SC1AC3CI2 SLP142=

CYYC;2005-12-23 19:00;METAR CYYC 231900Z 27022G29KT 40SM FEW065 FEW150 BKN240 10/M07 A2987 RMK SC1AC2CI1 SLP146=

CYYC;2005-12-23 20:00;METAR CYYC 232000Z 27022G30KT 40SM FEW065 FEW150 SCT240 10/M07 A2988 RMK SC1AC2CI1 SLP149=

CYYC;2005-12-23 21:00;METAR CYYC 232100Z 27021G28KT 40SM FEW065 FEW150 SCT250 10/M08 A2989 RMK SC1AC2CI1 SC TR SLP143=

CYYC;2005-12-23 22:00;METAR CYYC 232200Z 27017G22KT 40SM FEW065 FEW150 FEW240 09/M08 A2992 RMK SC1AC2CI0 ACSL S/ SC TR SLP152=

CYYC;2005-12-23 23:00;METAR CYYC 232300Z 27012KT 40SM FEW065 FEW150 FEW240 07/M08 A2993 RMK SC1AC2CI0 SC TR SLP155=

CYYC;2005-12-24 00:00;METAR CYYC 240000Z 26009KT 40SM FEW065 FEW150 FEW240 06/M08 A2995 RMK SC1AC1CI1 SC TR SLP171=

CYYC;2005-12-24 02:00;METAR CYYC 240200Z 26011KT 15SM FEW180 FEW230 06/M08 A2995 RMK AC1CI1 SLP171=

CYYC;2005-12-24 03:00;METAR CYYC 240300Z 08002KT 15SM FEW180 BKN230 04/M08 A2995 RMK AC2CI0 SLP175=

CYYC;2005-12-24 04:00;METAR CYYC 240400Z 20004KT 15SM FEW180 SCT190 SCT240 03/M08 A2994 RMK AC2AC0CI0 SLP174=

CYYC;2005-12-24 05:00;METAR CYYC 240500Z 15004KT 15SM FEW170 SCT210 01/M08 A2992 RMK AC2CI0 SLP167=

CYYC;2005-12-24 07:00;METAR CYYC 240700Z 27005KT 15SM FEW060 BKN090 OVC180 03/M07 A2993 RMK ST2AC2AC1 SLP167=

CYYC;2005-12-24 08:00;METAR CYYC 240800Z 30006KT 15SM SCT050 BKN075 OVC140 05/M04 A2992 RMK ST4AC2AC0 SLP165=

CYYC;2005-12-24 10:00;METAR CYYC 241000Z 20003KT 15SM FEW096 SCT150 BKN220 04/M05 A2990 RMK AC2AC2CI1 SLP151=

CYYC;2005-12-24 11:00;METAR CYYC 241100Z 19004KT 15SM SCT096 BKN210 03/M05 A2987 RMK AC2CI2 SLP141=

CYYC;2005-12-24 12:00;METAR CYYC 241200Z 19004KT 15SM SCT190 BKN240 03/M05 A2985 RMK AC2CI2 SLP140=

CYYC;2005-12-24 13:00;METAR CYYC 241300Z 11004KT 15SM BKN150 BKN190 BKN240 02/M05 A2985 RMK AC4AC1CI0 SLP141=

CYYC;2005-12-24 14:00;METAR CYYC 241400Z 20005KT 15SM SCT160 BKN240 00/M05 A2983 RMK AC2CI1 SLP134=

CYYC;2005-12-24 15:00;METAR CYYC 241500Z 15003KT 20SM FEW170 BKN240 02/M05 A2981 RMK AC1CI0 SLP132=

CYYC;2005-12-24 16:00;METAR CYYC 241600Z 21003KT 40SM FEW150 BKN240 04/M05 A2982 RMK AC1CI1 SLP133=

CYYC;2005-12-24 17:00;METAR CYYC 241700Z 23003KT 40SM BKN150 BKN210 BKN240 04/M04 A2982 RMK AC2CI2CI0 SLP133=

CYYC;2005-12-24 18:00;METAR CYYC 241800Z 22005KT 40SM FEW080 BKN130 BKN200 08/M03 A2978 RMK AC1AC7CI1 SLP117=

CYYC;2005-12-24 20:00;METAR CYYC 242000Z 23007KT 40SM FEW080 FEW110 BKN220 BKN250 11/M01 A2974 RMK AC1AC2CI2CI0 SLP106=

CYYC;2005-12-24 21:00;METAR CYYC 242100Z 19005KT 40SM FEW080 FEW110 BKN220 BKN250 10/M01 A2973 RMK AC1AC1CI6CI1 ACSL ASOCTD S SLP090=

CYYC;2005-12-24 22:00;METAR CYYC 242200Z 27005KT 40SM FEW080 FEW110 SCT220 BKN250 10/00 A2969 RMK AC1AC1CI2CI4 SLP079=

CYYC;2005-12-24 23:00;METAR CYYC 242300Z 17004KT 40SM FEW070 FEW210 OVC240 08/M00 A2971 RMK AC1CI1CI7 SLP083=

CYYC;2005-12-25 00:00;METAR CYYC 250000Z 21005KT 30SM FEW070 OVC220 07/M00 A2969 RMK AC1CI7 SLP086=

CYYC;2005-12-25 01:00;METAR CYYC 250100Z 16003KT 15SM FEW070 OVC230 09/00 A2967 RMK AC1CI7 SLP080=

CYYC;2005-12-25 02:00;METAR CYYC 250200Z 22005KT 15SM OVC240 05/M01 A2966 RMK CI8 SLP076=

CYYC;2005-12-25 04:00;METAR CYYC 250400Z 22004KT 15SM BKN240 05/M00 A2964 RMK CI3 SLP065=

CYYC;2005-12-25 05:00;METAR CYYC 250500Z 15003KT 15SM BKN250 05/M01 A2963 RMK CI3 SLP061=

CYYC;2005-12-25 06:00;METAR CYYC 250600Z 00000KT 15SM BKN260 05/M01 A2962 RMK CI5 SLP054=

CYYC;2005-12-25 07:00;METAR CYYC 250700Z 14002KT 15SM OVC260 06/M00 A2962 RMK CI6 SLP054=

CYYC;2005-12-25 09:00;METAR CYYC 250900Z 32002KT 15SM OVC260 03/M02 A2959 RMK CI6 SLP042=

CYYC;2005-12-25 10:00;METAR CYYC 251000Z 30004KT 15SM BKN260 M00/M04 A2957 RMK CI3 SLP036=

CYYC;2005-12-25 11:00;METAR CYYC 251100Z 36006KT 15SM BKN260 01/M02 A2954 RMK CI3 SLP027=

CYYC;2005-12-25 12:00;METAR CYYC 251200Z 00000KT 15SM SCT260 01/M03 A2951 RMK CI2 SLP024=

CYYC;2005-12-25 13:00;METAR CYYC 251300Z 00000KT 15SM BKN240 01/M03 A2948 RMK CI5 SLP015=

CYYC;2005-12-25 14:00;METAR CYYC 251400Z 01002KT 15SM BKN240 OVC260 M00/M03 A2944 RMK CI5CI2 SLP003=

CYYC;2005-12-25 15:00;METAR CYYC 251500Z 32003KT 20SM FEW080 BKN230 BKN260 M01/M04 A2941 RMK AC1CI3CI0 SLP991=

CYYC;2005-12-25 16:00;METAR CYYC 251600Z 19002KT 40SM FEW080 SCT230 BKN260 M00/M04 A2940 RMK AC1CI2CI0 SLP988=

CYYC;2005-12-25 17:00;METAR CYYC 251700Z 23004KT 40SM FEW090 FEW230 FEW260 01/M03 A2938 RMK AC1CI1CI1 SLP981=

CYYC;2005-12-25 18:00;METAR CYYC 251800Z 23007KT 40SM FEW090 FEW230 FEW260 08/M00 A2938 RMK AC1CI1CI0 SLP969=

CYYC;2005-12-25 19:00;METAR CYYC 251900Z 19002KT 40SM FEW090 FEW240 FEW260 12/M01 A2935 RMK AC1CI1CI1 AC TR SLP961=

CYYC;2005-12-25 20:00;METAR CYYC 252000Z 25004KT 40SM FEW090 SCT210 BKN260 14/M01 A2933 RMK AC1CI3CI0 SLP956=

CYYC;2005-12-25 21:00;METAR CYYC 252100Z 29012KT 40SM FEW090 FEW230 BKN260 14/M02 A2932 RMK AC1CI2CI0 SLP945=

CYYC;2005-12-25 22:00;METAR CYYC 252200Z 27012G17KT 40SM FEW090 FEW230 FEW260 14/M03 A2932 RMK AC1CI1CI0 SLP944=

CYYC;2005-12-26 00:00;METAR CYYC 260000Z 27020G27KT 30SM FEW098 FEW230 BKN260 11/M03 A2936 RMK AC1CI1CI0 SLP964=

CYYC;2005-12-26 01:00;METAR CYYC 260100Z 28013G19KT 15SM FEW150 FEW240 SCT260 10/M03 A2937 RMK AC1CI1CI0 SLP967=

CYYC;2005-12-26 02:00;METAR CYYC 260200Z 29009G16KT 15SM FEW130 FEW240 09/M04 A2938 RMK AC1CI0 SLP971=

CYYC;2005-12-26 04:00;METAR CYYC 260400Z 26007KT 15SM FEW240 07/M04 A2942 RMK CI1 SLP993=

CYYC;2005-12-26 06:00;METAR CYYC 260600Z 27014KT 15SM SCT240 07/M04 A2944 RMK CI1 SLP989=

CYYC;2005-12-26 06:39;SPECI CYYC 260639Z 22004KT 15SM FEW240 02/ RMK CI0=

CYYC;2005-12-26 07:26;SPECI CYYC 260726Z 25005KT 15SM FEW240 02/ RMK CI1=

CYYC;2005-12-26 08:00;METAR CYYC 260800Z 25008KT 15SM SKC 01/M05 A2946 RMK SLP995=

CYYC;2005-12-26 09:00;METAR CYYC 260900Z 23005KT 15SM SKC 03/M05 A2947 RMK SLP997=

CYYC;2005-12-26 09:05;SPECI CYYC 260905Z 23008KT 15SM SKC 02/=

CYYC;2005-12-26 11:00;METAR CYYC 261100Z 02004KT 15SM SKC 06/M06 A2950 RMK SLP006=

CYYC;2005-12-26 12:00;METAR CYYC 261200Z 01004KT 15SM FEW240 04/M06 A2950 RMK CI1 SLP012=

CYYC;2005-12-26 13:00;METAR CYYC 261300Z 31008KT 15SM FEW220 04/M06 A2950 RMK CI0 SLP012=

CYYC;2005-12-26 14:00;METAR CYYC 261400Z 31010KT 15SM BKN210 05/M06 A2950 RMK CI2 SLP011=

CYYC;2005-12-26 16:00;METAR CYYC 261600Z 01003KT 40SM FEW090 BKN180 BKN260 01/M07 A2952 RMK AC1AC1CI1 SLP025=

CYYC;2005-12-26 17:00;METAR CYYC 261700Z 35002KT 40SM BKN080 BKN240 04/M05 A2954 RMK AC3CI4 SLP031=

CYYC;2005-12-26 18:00;METAR CYYC 261800Z 31004KT 40SM FEW080 BKN084 BKN240 07/M05 A2955 RMK AC2AC2CI2 SLP028=

CYYC;2005-12-26 19:00;METAR CYYC 261900Z 29003KT 40SM FEW080 BKN180 BKN240 08/M04 A2954 RMK AC2AC3CI1 SLP026=

CYYC;2005-12-26 20:00;METAR CYYC 262000Z 00000KT 40SM FEW080 FEW180 BKN230 07/M04 A2955 RMK AC1AC1CI1 SLP027=

CYYC;2005-12-26 22:00;METAR CYYC 262200Z 29010KT 40SM FEW080 FEW180 FEW230 09/M05 A2955 RMK AC1AC1CI2 SLP031=

CYYC;2005-12-26 23:00;METAR CYYC 262300Z 24003KT 40SM FEW080 FEW180 BKN230 05/M06 A2956 RMK AC1AC1CI1 SLP034=

CYYC;2005-12-27 02:39;SPECI CYYC 270239Z 21008KT 15SM BKN240 02/ RMK CI5=

CYYC;2005-12-27 03:00;METAR CYYC 270300Z 23003KT 15SM FEW150 BKN240 03/M05 A2959 RMK AC1CI3 SLP056=

CYYC;2005-12-27 04:00;METAR CYYC 270400Z 24006KT 15SM FEW210 00/M06 A2960 RMK CI1 SLP059=

CYYC;2005-12-27 05:00;METAR CYYC 270500Z 21005KT 15SM FEW200 FEW250 02/M05 A2960 RMK CI1CI0 SLP059=

CYYC;2005-12-27 08:00;METAR CYYC 270800Z 23003KT 15SM FEW120 BKN180 BKN230 02/M05 A2962 RMK AC1AC4CI1 SLP059=

CYYC;2005-12-27 09:00;METAR CYYC 270900Z 27015KT 15SM FEW230 06/M04 A2962 RMK CI1 SLP050=

CYYC;2005-12-27 10:00;METAR CYYC 271000Z 27012KT 15SM FEW240 06/M05 A2963 RMK CI1 SLP055=

CYYC;2005-12-27 12:00;METAR CYYC 271200Z 27013G18KT 15SM FEW180 05/M05 A2967 RMK AC1 SLP078=

CYYC;2005-12-27 13:00;METAR CYYC 271300Z 27016KT 15SM FEW110 06/M07 A2968 RMK AC1 SLP080=

CYYC;2005-12-27 14:00;METAR CYYC 271400Z 28011G19KT 15SM FEW100 FEW240 06/M08 A2965 RMK AC1CI1 SLP072=

CYYC;2005-12-27 15:00;METAR CYYC 271500Z 28008KT 40SM FEW100 FEW240 05/M08 A2963 RMK AC1CI1 SLP066=

CYYC;2005-12-27 16:00;METAR CYYC 271600Z 26011G17KT 40SM FEW040 FEW100 BKN240 04/M08 A2965 RMK SC1AC2CI1 VIRGA W SLP073=

CYYC;2005-12-27 17:00;METAR CYYC 271700Z 25007KT 40SM FEW040 FEW180 BKN230 04/M07 A2966 RMK SC1AC1CI2 SLP075=

CYYC;2005-12-27 18:00;METAR CYYC 271800Z 25006KT 40SM FEW040 SCT180 BKN210 04/M07 A2965 RMK SC1AC4CI2 VIRGA SLP077=

CYYC;2005-12-27 19:00;METAR CYYC 271900Z 23007KT 40SM FEW040 SCT170 BKN250 06/M06 A2963 RMK SC1AC4CI2 SLP068=

CYYC;2005-12-27 20:00;METAR CYYC 272000Z 22006KT 40SM FEW040 BKN100 BKN180 05/M06 A2961 RMK SC1AC5AC2 VIRGA SLP064=

CYYC;2005-12-27 22:00;METAR CYYC 272200Z 19004KT 40SM FEW040 BKN098 BKN240 05/M06 A2959 RMK SC1AC7CI1 SH SW / ACSL SLP047=

CYYC;2005-12-27 23:00;METAR CYYC 272300Z 30004KT 40SM FEW035 BKN091 BKN180 06/M08 A2960 RMK SC1AC7AC1 SH E-SE / ACSL SLP048=

CYYC;2005-12-28 00:00;METAR CYYC 280000Z 26004KT 40SM FEW035 BKN088 BKN110 04/M08 A2962 RMK SC1AC7AC1 SH E SLP058=

CYYC;2005-12-28 01:00;METAR CYYC 280100Z 27013KT 15SM FEW035 BKN093 BKN110 05/M07 A2962 RMK SC1AC7AC1 VIRGA SLP058=

CYYC;2005-12-28 02:00;METAR CYYC 280200Z 28014G19KT 15SM FEW060 BKN077 BKN110 06/M08 A2962 RMK SC1AC7AC1 VIRGA SLP058=

CYYC;2005-12-28 04:00;METAR CYYC 280400Z 29011KT 15SM SCT067 OVC097 05/M08 A2964 RMK AC3AC5 SLP067=

CYYC;2005-12-28 05:00;METAR CYYC 280500Z 29009KT 15SM SCT089 OVC100 05/M08 A2966 RMK AC3AC5 SLP073=

CYYC;2005-12-28 06:00;METAR CYYC 280600Z 33008KT 15SM FEW089 BKN150 BKN240 03/M08 A2969 RMK AC2AC3CI1 SLP086=

CYYC;2005-12-28 08:00;METAR CYYC 280800Z 35005KT 15SM FEW100 SCT240 01/M08 A2971 RMK AC1CI1 SLP093=

CYYC;2005-12-28 09:00;METAR CYYC 280900Z 34005KT 15SM FEW100 SCT240 01/M09 A2972 RMK AC1CI1 SLP098=

CYYC;2005-12-28 11:00;METAR CYYC 281100Z 04004KT 15SM FEW100 SCT240 00/M09 A2975 RMK AC1CI1 SLP107=

CYYC;2005-12-28 12:00;METAR CYYC 281200Z 27009KT 15SM FEW100 FEW240 02/M09 A2975 RMK AC1CI0 SLP109=

CYYC;2005-12-28 13:00;METAR CYYC 281300Z 12002KT 15SM FEW140 FEW240 M01/M09 A2974 RMK AC1CI0 AC TR SLP106=

CYYC;2005-12-28 15:00;METAR CYYC 281500Z 27008KT 40SM FEW240 01/M09 A2975 RMK CI1 SLP110=

CYYC;2005-12-28 16:00;METAR CYYC 281600Z 31003KT 40SM SCT210 01/M10 A2975 RMK CI1 SLP109=

CYYC;2005-12-28 17:00;METAR CYYC 281700Z 00000KT 40SM BKN260 02/M09 A2974 RMK CI6 SLP105=

CYYC;2005-12-28 18:00;METAR CYYC 281800Z 20006KT 40SM BKN230 01/M08 A2974 RMK CI4 SLP108=

CYYC;2005-12-28 19:00;METAR CYYC 281900Z 18004KT 40SM BKN210 02/M08 A2970 RMK CI6 SLP096=

CYYC;2005-12-28 20:00;METAR CYYC 282000Z 20005KT 40SM BKN260 03/M08 A2967 RMK CI5 SLP089=

CYYC;2005-12-28 21:00;METAR CYYC 282100Z 19005KT 40SM FEW190 BKN260 02/M08 A2965 RMK AC1CI5 SLP080=

CYYC;2005-12-28 22:00;METAR CYYC 282200Z 13002KT 40SM FEW190 BKN250 02/M09 A2963 RMK AC2CI5 SLP071=

CYYC;2005-12-28 22:40;SPECI CYYC 282240Z 12003KT 40SM BKN170 BKN250 01/ RMK AC5CS2=

CYYC;2005-12-28 23:00;METAR CYYC 282300Z 14003KT 40SM SCT150 BKN170 BKN250 01/M08 A2962 RMK AC3AC2CS2 SLP070=

CYYC;2005-12-29 00:00;METAR CYYC 290000Z 14002KT 40SM BKN150 BKN170 OVC250 00/M07 A2961 RMK AC5AC2CS2 SLP066=

CYYC;2005-12-29 01:00;METAR CYYC 290100Z 18002KT 15SM BKN100 OVC120 M00/M07 A2959 RMK AC5AC3 SLP061=

CYYC;2005-12-29 02:00;METAR CYYC 290200Z 16003KT 15SM BKN092 OVC150 M01/M07 A2957 RMK AC5AC3 SLP053=

CYYC;2005-12-29 04:00;METAR CYYC 290400Z 18006KT 15SM BKN058 BKN074 OVC180 00/M06 A2955 RMK SC5AC2AC2 SLP049=

CYYC;2005-12-29 04:48;SPECI CYYC 290448Z 18006KT 12SM -SN BKN031 OVC053 00/ RMK SC6SC2=

CYYC;2005-12-29 05:00;METAR CYYC 290500Z 18004KT 15SM -SN BKN037 OVC061 00/M03 A2955 RMK SC6SC2 SLP048=

CYYC;2005-12-29 06:49;SPECI CYYC 290649Z 16004KT 15SM FEW012 BKN090 OVC230 M02/ RMK SF2AC3CI2=

CYYC;2005-12-29 07:00;METAR CYYC 290700Z 17006KT 15SM FEW002 BKN150 BKN230 M03/M04 A2953 RMK SF2AC2CI1 SLP043=

CYYC;2005-12-29 07:50;SPECI CYYC 290750Z 19006KT 1/2SM -SN FZFG OVC002 M01/ RMK ST8 RVR RWY28 2400 FT=

CYYC;2005-12-29 07:55;SPECI CYYC 290755Z 19006KT 3/8SM -SN FZFG OVC002 M01/ RMK ST8 RVR RWY16 3000 FT=

CYYC;2005-12-29 08:27;SPECI CYYC 290827Z 20008KT 1/2SM -SN FZFG OVC002 M02/ RMK ST8 RVR RWY16 2400 FT=

CYYC;2005-12-29 10:00;METAR CYYC 291000Z 23006KT 1SM BR FEW001 OVC003 M02/M03 A2957 RMK SF2ST6 RVR RWY16 6000 FT SLP055=

CYYC;2005-12-29 11:00;METAR CYYC 291100Z 19003KT 5SM BR FEW005 OVC081 M02/M03 A2958 RMK SF2AC6 SLP057=

CYYC;2005-12-29 12:00;METAR CYYC 291200Z 21004KT 10SM OVC092 M02/M03 A2960 RMK AC7 SNOW COVER/TRACE LOOSE SLP068=

CYYC;2005-12-29 13:00;METAR CYYC 291300Z 30005KT 12SM OVC096 M03/M04 A2962 RMK AC7 SLP076=

CYYC;2005-12-29 14:00;METAR CYYC 291400Z 35006KT 15SM FEW095 BKN180 M03/M07 A2964 RMK AC2AC4 SLP080=

CYYC;2005-12-29 16:00;METAR CYYC 291600Z 02005KT 40SM FEW090 SCT190 BKN240 M05/M09 A2969 RMK AC1AC1CI0 SLP101=

CYYC;2005-12-29 17:00;METAR CYYC 291700Z 34007KT 40SM FEW090 BKN190 BKN240 M02/M07 A2971 RMK AC1AC3CI1 SLP109=

CYYC;2005-12-29 18:00;METAR CYYC 291800Z 31009KT 40SM BKN088 BKN190 02/M07 A2974 RMK AC4AC2 SLP111=

CYYC;2005-12-29 19:00;METAR CYYC 291900Z 33008KT 40SM BKN088 BKN190 03/M05 A2975 RMK AC5AC2 VIRGA NW-NE SLP114=

CYYC;2005-12-29 20:00;METAR CYYC 292000Z 01009KT 40SM BKN088 BKN190 02/M04 A2976 RMK AC6AC2 VIRGA SLP117=

CYYC;2005-12-29 21:00;METAR CYYC 292100Z 35009KT 40SM BKN084 BKN190 02/M05 A2976 RMK AC6AC2 VIRGA SLP121=

CYYC;2005-12-29 22:00;METAR CYYC 292200Z 36009KT 40SM FEW084 FEW110 FEW190 02/M06 A2977 RMK AC1AC2AC1 SLP124=

CYYC;2005-12-29 23:00;METAR CYYC 292300Z 01002KT 40SM FEW084 FEW110 FEW190 01/M06 A2978 RMK AC1AC1AC1 SLP126=

CYYC;2005-12-30 01:00;METAR CYYC 300100Z 00000KT 15SM FEW084 FEW110 M02/M06 A2978 RMK AC1AC1 SLP132=

CYYC;2005-12-30 02:00;METAR CYYC 300200Z 00000KT 15SM FEW110 M03/M06 A2976 RMK AC1 SLP127=

CYYC;2005-12-30 03:00;METAR CYYC 300300Z 00000KT 15SM FEW130 M04/M07 A2975 RMK AC1 AC TR SLP130=

CYYC;2005-12-30 04:00;METAR CYYC 300400Z 21004KT 15SM FEW130 M03/M06 A2973 RMK AC1 AC TR SLP123=

CYYC;2005-12-30 05:00;METAR CYYC 300500Z 19004KT 15SM SKC M03/M06 A2971 RMK SLP118=

CYYC;2005-12-30 06:00;METAR CYYC 300600Z 20005KT 15SM SKC M04/M07 A2970 RMK SLP104=

CYYC;2005-12-30 09:00;METAR CYYC 300900Z 22002KT 15SM SKC M06/M08 A2963 RMK SLP082=

CYYC;2005-12-30 10:00;METAR CYYC 301000Z 23003KT 15SM SKC M08/M10 A2961 RMK SLP076=

CYYC;2005-12-30 11:00;METAR CYYC 301100Z 00000KT 15SM SCT230 M09/M11 A2958 RMK CI2 SLP066=

CYYC;2005-12-30 12:00;METAR CYYC 301200Z 00000KT 15SM SCT210 M09/M11 A2954 RMK CI2 SLP059=

CYYC;2005-12-30 13:00;METAR CYYC 301300Z 23004KT 15SM FEW240 M09/M11 A2953 RMK CI1 SLP056=

CYYC;2005-12-30 14:00;METAR CYYC 301400Z 08004KT 15SM FEW180 FEW240 M10/M12 A2946 RMK AC1CI0 SLP035=

CYYC;2005-12-30 15:00;METAR CYYC 301500Z 19006KT 20SM FEW090 FEW180 SCT240 M10/M13 A2947 RMK AC1AC1CI0 LWR AC TR SLP042=

CYYC;2005-12-30 16:00;METAR CYYC 301600Z 17002KT 30SM FEW090 BKN180 BKN240 M09/M11 A2945 RMK AC1AC1CI1 SLP036=

CYYC;2005-12-30 17:00;METAR CYYC 301700Z 00000KT 40SM FEW090 BKN170 BKN240 M08/M10 A2942 RMK AC1AC2CI4 SLP026=

CYYC;2005-12-30 18:00;METAR CYYC 301800Z 00000KT 40SM FEW090 BKN170 BKN240 M07/M10 A2941 RMK AC1AC5CI2 VIRGA SLP014=

CYYC;2005-12-30 19:00;METAR CYYC 301900Z 22005KT 40SM FEW090 BKN170 BKN240 M05/M08 A2936 RMK AC1AC5CI1 VIRGA SLP001=

CYYC;2005-12-30 20:00;METAR CYYC 302000Z 21005KT 30SM FEW090 BKN140 BKN240 M01/M08 A2933 RMK AC1AC1CI1 SLP991=

CYYC;2005-12-30 21:00;METAR CYYC 302100Z 17006KT 30SM FEW090 SCT140 BKN240 M03/M09 A2930 RMK AC1AC2CI1 SLP973=

CYYC;2005-12-30 22:00;METAR CYYC 302200Z 20005KT 30SM FEW090 SCT140 BKN240 M01/M07 A2928 RMK AC1AC2CI1 SLP968=

CYYC;2005-12-30 23:00;METAR CYYC 302300Z 00000KT 20SM FEW090 SCT150 BKN230 M01/M06 A2927 RMK AC1AC1CI2 SLP966=

CYYC;2005-12-31 00:00;METAR CYYC 310000Z 00000KT 30SM FEW090 BKN150 BKN230 M03/M07 A2926 RMK AC1AC2CI2 SLP965=

CYYC;2005-12-31 01:00;METAR CYYC 310100Z 10003KT 15SM BKN200 M04/M06 A2925 RMK CI4 SLP962=

CYYC;2005-12-31 02:00;METAR CYYC 310200Z 16004KT 15SM BKN140 OVC200 M03/M05 A2922 RMK AC6CI2 SLP954=

CYYC;2005-12-31 03:00;METAR CYYC 310300Z 16003KT 15SM OVC120 M04/M06 A2921 RMK AC8 SLP949=

CYYC;2005-12-31 04:00;METAR CYYC 310400Z 00000KT 15SM OVC100 M04/M06 A2921 RMK AC8 SLP948=

CYYC;2005-12-31 05:00;METAR CYYC 310500Z 36006KT 15SM OVC150 M04/M06 A2920 RMK AC8 SLP945=

CYYC;2005-12-31 06:00;METAR CYYC 310600Z 29003KT 15SM FEW240 M06/M08 A2919 RMK CI0 SLP941=

CYYC;2005-12-31 07:00;METAR CYYC 310700Z 00000KT 15SM FEW240 M05/M07 A2919 RMK CI1 SLP942=

CYYC;2005-12-31 10:00;METAR CYYC 311000Z 00000KT 15SM FEW180 SCT210 M07/M09 A2920 RMK AC2CI1 SLP942=

CYYC;2005-12-31 11:00;METAR CYYC 311100Z 26003KT 15SM FEW180 SCT210 M06/M08 A2921 RMK AC2CI2 SLP944=

CYYC;2005-12-31 12:00;METAR CYYC 311200Z 34003KT 15SM FEW190 SCT230 M06/M08 A2920 RMK AC2CI1 SLP938=

CYYC;2005-12-31 15:00;METAR CYYC 311500Z 00000KT 30SM FEW083 SCT180 BKN260 M09/M11 A2921 RMK AC1AC2CI2 SLP948=

CYYC;2005-12-31 16:00;METAR CYYC 311600Z 00000KT 40SM FEW080 BKN160 BKN260 M08/M11 A2922 RMK AC2AC2CI0 SLP950=

CYYC;2005-12-31 17:00;METAR CYYC 311700Z 07003KT 40SM FEW080 SCT160 SCT260 M06/M09 A2923 RMK AC1AC2CI0 SLP953=

CYYC;2005-12-31 18:00;METAR CYYC 311800Z 23002KT 40SM FEW060 SCT160 SCT260 M03/M07 A2922 RMK SC1AC2CI0 SLP948=

CYYC;2005-12-31 19:00;METAR CYYC 311900Z 00000KT 40SM FEW060 SCT120 BKN260 M01/M06 A2921 RMK SC1AC2CI1 SLP944=

CYYC;2005-12-31 21:00;METAR CYYC 312100Z 11004KT 40SM FEW050 SCT180 BKN220 M01/M06 A2920 RMK SC1AC2CI0 SLP937=

CYYC;2005-12-31 22:00;METAR CYYC 312200Z 17004KT 40SM FEW060 SCT160 BKN220 M01/M05 A2920 RMK SC1AC2CI1 SLP938=

