CYYC;2007-01-01 01:00;CYYC 010100Z 32011KT 40SM SKC M02/M09 A2997 RMK SLP209

CYYC;2007-01-01 02:00;CYYC 010200Z CCA 35007KT 15SM SKC M03/M09 A2996 RMK SLP206

CYYC;2007-01-01 03:00;CYYC 010300Z 36005KT 15SM SKC M06/M11 A2996 RMK SLP213

CYYC;2007-01-01 04:00;CYYC 010400Z 33008KT 15SM SKC M07/M11 A2996 RMK SLP214

CYYC;2007-01-01 05:00;CYYC 010500Z 00000KT 15SM SKC M06/M11 A2996 RMK SLP215

CYYC;2007-01-01 06:00;CYYC 010600Z 07002KT 15SM SKC M05/M10 A2997 RMK SLP209

CYYC;2007-01-01 07:00;CYYC 010700Z 19006KT 15SM SKC M05/M09 A2996 RMK SLP208

CYYC;2007-01-01 08:00;CYYC 010800Z 19006KT 15SM SKC M06/M10 A2997 RMK SLP211

CYYC;2007-01-01 09:00;CYYC 010900Z 22004KT 15SM SKC M05/M09 A2996 RMK SLP200

CYYC;2007-01-01 10:00;CYYC 011000Z 18004KT 15SM SKC 00/M09 A2995 RMK SLP196

CYYC;2007-01-01 11:00;CYYC 011100Z 14006KT 15SM SKC M03/M09 A2995 RMK SLP196

CYYC;2007-01-01 12:00;CYYC 011200Z 21009KT 15SM SKC M06/M10 A2994 RMK SNOW COVER/MUCH LOOSE SLP197

CYYC;2007-01-01 13:00;CYYC 011300Z 23009KT 15SM BKN240 M03/M08 A2991 RMK CI3 SLP189

CYYC;2007-01-01 14:00;CYYC 011400Z 22010KT 15SM BKN220 M04/M08 A2987 RMK CI4 SLP176

CYYC;2007-01-01 15:00;CYYC 011500Z 18004KT 30SM FEW120 BKN230 M03/M08 A2985 RMK AC1CI2 SLP168

CYYC;2007-01-01 16:00;CYYC 011600Z 21010KT 40SM FEW120 BKN230 M01/M08 A2982 RMK AC1CI1 SLP156

CYYC;2007-01-01 17:00;CYYC 011700Z 16005KT 40SM FEW120 BKN230 02/M07 A2979 RMK AC1CI1 SLP148

CYYC;2007-01-01 18:00;CYYC 011800Z 27012G24KT 40SM FEW120 SCT230 07/M06 A2976 RMK AC1CI0 SLP119

CYYC;2007-01-01 19:00;CYYC 011900Z 19008KT 40SM FEW120 BKN200 BKN260 06/M05 A2970 RMK AC1CI2CS3 SLP102

CYYC;2007-01-01 20:00;CYYC 012000Z 21012KT 40SM FEW120 BKN220 07/M04 A2967 RMK AC1CI6 SLP093

CYYC;2007-01-01 21:00;CYYC 012100Z 25009KT 40SM FEW070 FEW090 BKN220 08/M04 A2965 RMK AC1AC1CI7 SLP080

CYYC;2007-01-01 22:00;CYYC 012200Z 26013KT 40SM FEW070 BKN100 BKN220 07/M03 A2965 RMK AC1AC6CI2 SLP079

CYYC;2007-01-01 23:00;CYYC 012300Z 25011G19KT 40SM FEW070 BKN150 BKN220 08/M03 A2963 RMK AC1AC6CI1 VIRGA NE-SE SLP072

CYYC;2007-01-02 00:00;CYYC 020000Z CCA 27021G26KT 40SM FEW070 BKN160 BKN200 BKN240 08/M03 A2962 RMK AC1AC3CI2CI2 VIRGA E-SE SLP069

CYYC;2007-01-02 01:00;CYYC 020100Z 26014KT 15SM FEW070 BKN200 BKN260 07/M03 A2963 RMK AC1CI2CI2 SLP072

CYYC;2007-01-02 02:00;CYYC 020200Z 26019KT 15SM BKN200 BKN260 07/M02 A2964 RMK CI2CI2 SLP078

CYYC;2007-01-02 03:00;CYYC 020300Z 27004KT 15SM FEW150 OVC240 07/M03 A2964 RMK AC2CI3 SLP076

CYYC;2007-01-02 04:00;CYYC 020400Z 29016KT 15SM FEW150 BKN240 08/M03 A2966 RMK AC2CI3 SLP081

CYYC;2007-01-02 05:00;CYYC 020500Z 31010G17KT 15SM FEW150 BKN250 08/M04 A2964 RMK AC2CI2 SLP073

CYYC;2007-01-02 06:00;CYYC 020600Z 21007KT 15SM FEW220 OVC240 04/M03 A2961 RMK CS2CI2 SLP054

CYYC;2007-01-02 07:00;CYYC 020700Z 00000KT 15SM FEW220 OVC240 02/M03 A2959 RMK CS2CI3 HALO SLP048

CYYC;2007-01-02 08:00;CYYC 020800Z 18006KT 15SM FEW210 OVC240 02/M03 A2957 RMK CS2CI3 SLP041

CYYC;2007-01-02 09:00;CYYC 020900Z 24006KT 15SM FEW210 OVC240 05/M03 A2954 RMK CI2CI3 SLP028

CYYC;2007-01-02 10:00;CYYC 021000Z 21003KT 15SM OVC240 00/M04 A2953 RMK CI5 SLP025

CYYC;2007-01-02 11:00;CYYC 021100Z 00000KT 15SM OVC210 02/M02 A2955 RMK CI5 SLP030

CYYC;2007-01-02 12:00;CYYC 021200Z 27016G21KT 15SM FEW180 OVC220 08/M03 A2952 RMK AC2CI3 SNOW COVER/TRACE LOOSE SLP018

CYYC;2007-01-02 13:00;CYYC 021300Z 25015G20KT 15SM SCT170 OVC220 08/M04 A2953 RMK AC3CI2 SLP020

CYYC;2007-01-02 14:00;CYYC 021400Z 27017G25KT 15SM SCT230 08/M04 A2951 RMK CI1 SLP014

CYYC;2007-01-02 15:00;CYYC 021500Z 09009KT 30SM FEW120 BKN180 BKN230 06/M04 A2952 RMK AC1AC2CI0 SLP022

CYYC;2007-01-02 16:00;CYYC 021600Z 23011G16KT 40SM FEW070 FEW120 BKN170 BKN250 07/M04 A2952 RMK AC1AC1AC2CI0 SLP020

CYYC;2007-01-02 17:00;CYYC 021700Z 16003KT 40SM FEW070 FEW120 BKN160 BKN250 05/M03 A2951 RMK AC1AC1AC5CI1 SLP017

CYYC;2007-01-02 18:00;CYYC 021800Z 23004KT 40SM FEW070 FEW120 BKN140 BKN250 05/M03 A2948 RMK AC1AC1AC6CI1 SLP010

CYYC;2007-01-02 19:00;CYYC 021900Z 23005KT 40SM FEW070 SCT160 BKN220 08/M01 A2941 RMK AC1AC2CI2 SLP990

CYYC;2007-01-02 20:00;CYYC 022000Z CCA 18010KT 30SM FEW070 SCT160 BKN220 09/M01 A2935 RMK AC1AC2CI0 SLP970

CYYC;2007-01-02 21:00;CYYC 022100Z 14012KT 30SM FEW070 SCT160 BKN220 08/M01 A2928 RMK AC1AC1CI1 PRESFR PAST HR SLP937

CYYC;2007-01-02 22:00;CYYC 022200Z 18011G16KT 30SM FEW070 FEW160 BKN250 10/M02 A2923 RMK AC1AC1CI6 PRESFR PAST HR SLP921

CYYC;2007-01-02 23:00;CYYC 022300Z 25025G31KT 20SM FEW070 FEW160 BKN240 11/M03 A2919 RMK AC1AC1CI6 SLP909

CYYC;2007-01-03 00:00;CYYC 030000Z CCA 26026G37KT 20SM FEW080 FEW160 BKN240 10/M04 A2921 RMK AC1AC1CI6 SLP906

CYYC;2007-01-03 01:00;CYYC 030100Z 25019G29KT 15SM FEW220 08/M03 A2922 RMK CI1 SLP909

CYYC;2007-01-03 02:00;CYYC 030200Z 23014KT 15SM FEW220 06/M01 A2925 RMK CI1 SLP917

CYYC;2007-01-03 03:00;CYYC 030300Z 21015G22KT 15SM FEW150 SCT220 06/00 A2923 RMK AC2CI1 SLP922

CYYC;2007-01-03 04:00;CYYC 030400Z 20017KT 15SM SCT170 BKN220 05/01 A2923 RMK AC2CI0 SLP922

CYYC;2007-01-03 05:00;CYYC 030500Z 21014G19KT 15SM FEW170 SCT220 05/01 A2925 RMK AC1CI0 SLP927

CYYC;2007-01-03 06:00;CYYC 030600Z 22012KT 15SM FEW170 03/00 A2925 RMK AC1 SLP934

CYYC;2007-01-03 07:00;CYYC 030700Z 24011KT 15SM FEW170 02/M01 A2926 RMK AC1 SLP937

CYYC;2007-01-03 08:00;CYYC 030800Z 25010KT 15SM FEW150 01/M05 A2927 RMK AC1 SLP938

CYYC;2007-01-03 09:00;CYYC 030900Z 25017KT 15SM FEW090 FEW180 03/M07 A2928 RMK AC1AC1 SLP940

CYYC;2007-01-03 10:00;CYYC 031000Z 23022KT 15SM FEW180 04/M07 A2927 RMK AC1 SLP937

CYYC;2007-01-03 11:00;CYYC 031100Z 23026KT 15SM FEW180 03/M07 A2923 RMK AC1 SLP926

CYYC;2007-01-03 12:00;CYYC 031200Z 24021G29KT 15SM FEW160 04/M08 A2924 RMK AC1 SNOW CVR/TRACE LOOSE SLP923

CYYC;2007-01-03 13:00;CYYC 031300Z 24019G27KT 15SM FEW160 03/M08 A2924 RMK AC1 SLP923

CYYC;2007-01-03 14:00;CYYC 031400Z 25010G15KT 15SM FEW080 FEW160 02/M08 A2929 RMK AC1AC1 SLP936

CYYC;2007-01-03 15:00;CYYC 031500Z 13002KT 30SM FEW080 FEW140 M00/M09 A2931 RMK AC1AC1 SLP957

CYYC;2007-01-03 16:00;CYYC 031600Z 25009KT 40SM FEW080 FEW140 03/M10 A2932 RMK AC1AC1 SLP960

CYYC;2007-01-03 17:00;CYYC 031700Z 23005KT 40SM FEW080 FEW140 04/M10 A2933 RMK AC1AC1 SLP963

CYYC;2007-01-03 18:00;CYYC 031800Z 23006KT 40SM FEW080 FEW140 05/M10 A2932 RMK AC1AC1 SLP958

CYYC;2007-01-03 19:00;CYYC 031900Z CCA 26013KT 40SM FEW080 FEW140 FEW210 06/M10 A2931 RMK AC1AC1CI0 SLP955

CYYC;2007-01-03 20:00;CYYC 032000Z 29013G19KT 40SM FEW080 FEW160 SCT220 BKN260 06/M11 A2931 RMK AC1AC1CI0CI0 SLP953

CYYC;2007-01-03 21:00;CYYC 032100Z 28010G17KT 40SM FEW090 FEW160 BKN180 BKN260 06/M11 A2930 RMK AC1AC1AC4CI1 SLP949

CYYC;2007-01-03 22:00;CYYC 032200Z 27012KT 40SM FEW090 SCT190 BKN240 05/M10 A2932 RMK AC1AC1CI4 SLP954

CYYC;2007-01-03 23:00;CYYC 032300Z 28008KT 30SM FEW090 BKN190 BKN240 03/M10 A2933 RMK AC1AC3CI1 SLP957

CYYC;2007-01-04 00:00;CYYC 040000Z 28006KT 40SM FEW090 BKN180 02/M10 A2934 RMK AC1AC1 SLP967

CYYC;2007-01-04 01:00;CYYC 040100Z 34004KT 15SM FEW090 BKN180 00/M10 A2934 RMK AC1AC1 SLP969

CYYC;2007-01-04 02:00;CYYC 040200Z 29008KT 15SM BKN180 00/M10 A2935 RMK AC2 SLP972

CYYC;2007-01-04 03:00;CYYC 040300Z 32007KT 15SM BKN180 OVC210 00/M10 A2936 RMK AC6CI0 SLP983

CYYC;2007-01-04 04:00;CYYC 040400Z 32006KT 15SM BKN140 OVC210 M01/M09 A2936 RMK AC6CI0 SLP983

CYYC;2007-01-04 05:00;CYYC 040500Z 33007KT 15SM BKN110 OVC210 01/M09 A2937 RMK AC7CI0 SLP985

CYYC;2007-01-04 06:00;CYYC 040600Z 36002KT 15SM OVC100 M01/M09 A2939 RMK AC7 SLP986

CYYC;2007-01-04 07:00;CYYC 040700Z 03007KT 15SM BKN075 OVC090 M02/M08 A2941 RMK AC5AC2 SLP992

CYYC;2007-01-04 08:00;CYYC 040800Z 04005KT 15SM BKN065 OVC080 M03/M08 A2941 RMK SC4AC2 SLP993

CYYC;2007-01-04 09:00;CYYC 040900Z 24004KT 15SM BKN045 OVC075 M01/M08 A2943 RMK SC6AC2 SLP000

CYYC;2007-01-04 09:47;CYYC 040947Z 21004KT 15SM -SN BKN025 OVC055 M01/ RMK SC5SC2

CYYC;2007-01-04 10:00;CYYC 041000Z 21003KT 15SM -SN BKN030 OVC055 M01/M07 A2944 RMK SC5SC3 VIRGA SLP003

CYYC;2007-01-04 10:16;CYYC 041016Z 16004KT 15SM BKN060 OVC080 M00/ RMK SC5AC2 VIRGA

CYYC;2007-01-04 11:00;CYYC 041100Z 17005KT 15SM BKN060 BKN080 M01/M04 A2944 RMK SC4AC2 VIRGA SLP003

CYYC;2007-01-04 12:00;CYYC 041200Z 19003KT 15SM FEW080 BKN140 M02/M05 A2943 RMK AC2AC5 SLP009

CYYC;2007-01-04 13:00;CYYC 041300Z 23005KT 15SM BKN130 M02/M06 A2943 RMK AC6 SLP009

CYYC;2007-01-04 14:00;CYYC 041400Z CCA 23004KT 15SM BKN180 M03/M06 A2943 RMK AC6 SLP009

CYYC;2007-01-04 15:00;CYYC 041500Z 25002KT 15SM BKN120 M02/M07 A2943 RMK AC6 SLP011

CYYC;2007-01-04 16:00;CYYC 041600Z 28009KT 40SM FEW032 BKN110 M01/M09 A2944 RMK SC1AC4 SC TR SW/TCU EMBD SLP014

CYYC;2007-01-04 17:00;CYYC 041700Z 28009KT 40SM FEW040 SCT140 BKN200 01/M11 A2946 RMK SC1AC2CI0 SC TR SW/TCU EMBD SLP019

CYYC;2007-01-04 18:00;CYYC 041800Z 28014KT 40SM FEW052 FEW140 SCT200 02/M11 A2947 RMK SC1AC2CI0 SC TR SW/TCU EMBD SLP020

CYYC;2007-01-04 19:00;CYYC 041900Z 28011KT 40SM FEW056TCU SCT140 BKN200 03/M11 A2947 RMK TCU1AC1CI0 TCU TR SW SLP018

CYYC;2007-01-04 20:00;CYYC 042000Z 29011G17KT 40SM FEW060TCU FEW140 FEW200 04/M12 A2947 RMK TCU1AC1CI0 TCU TR SW SLP019

CYYC;2007-01-04 21:00;CYYC 042100Z 29012G19KT 40SM FEW060 FEW150 FEW200 04/M12 A2947 RMK SC1AC1CI0 SC TR SW/TCU EMBD SLP019

CYYC;2007-01-04 22:00;CYYC 042200Z 28014KT 40SM FEW060 FEW120 FEW200 03/M12 A2949 RMK SC1AC2CI0 SC TR SW/TCU EMBD SLP023

CYYC;2007-01-04 23:00;CYYC 042300Z 27013KT 40SM FEW056 BKN100 BKN200 01/M12 A2951 RMK SC1AC3CI0 SLP030

CYYC;2007-01-05 00:00;CYYC 050000Z 30011G17KT 30SM FEW052 BKN080 01/M12 A2954 RMK SC2AC5 SLP045

CYYC;2007-01-05 01:00;CYYC 050100Z 35008KT 15SM FEW032 BKN090 M00/M08 A2957 RMK SC1AC6 SLP053

CYYC;2007-01-05 02:00;CYYC 050200Z 31014KT 15SM BKN070 01/M11 A2959 RMK AC7 SLP060

CYYC;2007-01-05 03:00;CYYC 050300Z 32008KT 15SM SCT075 OVC100 M03/M04 A2962 RMK AC3AC3 VIRGA SLP080

CYYC;2007-01-05 04:00;CYYC 050400Z 34009KT 15SM FEW015 OVC050 M03/M04 A2964 RMK ST1SC7 VIRGA / VIS NW-NE 5 SLP087

CYYC;2007-01-05 04:28;CYYC 050428Z 34008KT 6SM -SN BR BKN014 OVC030 M03/ RMK ST5SC3

CYYC;2007-01-05 04:45;CYYC 050445Z 34008KT 2 1/2SM -SN BR BKN014 OVC030 M03/ RMK ST6SC2

CYYC;2007-01-05 05:00;CYYC 050500Z 34009KT 2SM -SN BR BKN014 OVC030 M03/M04 A2967 RMK ST6SC2 SLP095

CYYC;2007-01-05 06:00;CYYC 050600Z 36009KT 15SM -SN SCT014 OVC050 M04/M04 A2969 RMK ST2SC6 VIS NW-NE 5 SLP101

CYYC;2007-01-05 06:42;CYYC 050642Z 32007KT 15SM SCT030 BKN080 M04/ RMK SC2AC3

CYYC;2007-01-05 07:00;CYYC 050700Z 32006KT 15SM SCT040 BKN080 M04/M05 A2971 RMK SC2AC3 SLP107

CYYC;2007-01-05 08:00;CYYC 050800Z 33004KT 15SM FEW040 BKN120 M05/M06 A2973 RMK SC2AC3 SLP112

CYYC;2007-01-05 09:00;CYYC 050900Z 25003KT 15SM SCT120 M06/M06 A2975 RMK AC2 SLP121

CYYC;2007-01-05 10:00;CYYC 051000Z 21002KT 15SM FEW120 M08/M09 A2977 RMK AC0 SLP126

CYYC;2007-01-05 11:00;CYYC 051100Z 19004KT 15SM FEW120 M07/M08 A2978 RMK AC1 SLP129

CYYC;2007-01-05 12:00;CYYC 051200Z CCA 22008KT 15SM SKC M08/M08 A2979 RMK SNOW CVR/TRACE LOOSE SLP141

CYYC;2007-01-05 13:00;CYYC 051300Z 24004KT 15SM SKC M08/M10 A2981 RMK SLP146

CYYC;2007-01-05 14:00;CYYC 051400Z 30008KT 15SM SKC M07/M12 A2982 RMK SLP151

CYYC;2007-01-05 15:00;CYYC 051500Z 21006KT 15SM FEW030 M10/M13 A2982 RMK SC1 SC TR E SLP160

CYYC;2007-01-05 16:00;CYYC 051600Z 22007KT 40SM FEW220 M10/M13 A2981 RMK CI1 SLP157

CYYC;2007-01-05 17:00;CYYC 051700Z 23010KT 40SM FEW180 FEW220 M05/M13 A2979 RMK AC1CI0 SLP152

CYYC;2007-01-05 18:00;CYYC 051800Z 22011KT 40SM FEW036 SCT180 BKN220 M04/M12 A2976 RMK CU1AC3CI1 CU TR SLP133

CYYC;2007-01-05 19:00;CYYC 051900Z 25014G19KT 40SM FEW052 FEW180 BKN220 M01/M14 A2971 RMK CU1AC2CI1 CU TR SLP117

CYYC;2007-01-05 20:00;CYYC 052000Z 30017G25KT 40SM FEW060 FEW130 BKN220 01/M15 A2968 RMK CU1AC2CI0 CU TR SLP107

CYYC;2007-01-05 21:00;CYYC 052100Z CCA 25015KT 40SM FEW060 BKN160 BKN200 00/M14 A2963 RMK CU1AC6CI2 CU TR/DIST SH SW SLP082

CYYC;2007-01-05 22:00;CYYC 052200Z 30006KT 40SM FEW060 BKN140 00/M15 A2962 RMK SC1AC7 SC TR/DIST SH SW SLP080

CYYC;2007-01-05 23:00;CYYC 052300Z 26012G20KT 40SM FEW055 BKN140 01/M14 A2959 RMK SC1AC7 SC TR/DIST SH SW SLP071

CYYC;2007-01-05 23:25;CYYC 052325Z 26030G38KT 20SM FEW055 BKN120 01/ RMK SC1AC7

CYYC;2007-01-06 00:00;CYYC 060000Z 26025G34KT 30SM FEW055 BKN140 00/M13 A2955 RMK SC1AC6 SC TR SW SLP060

CYYC;2007-01-06 01:00;CYYC 060100Z 27010G15KT 15SM FEW056 FEW180 BKN240 M01/M13 A2959 RMK SC1AC2CI3 SLP072

CYYC;2007-01-06 02:00;CYYC 060200Z 22006KT 15SM OVC220 M02/M13 A2955 RMK CI8 SLP058

CYYC;2007-01-06 03:00;CYYC 060300Z 22004KT 15SM OVC220 M03/M13 A2949 RMK CI8 SLP046

CYYC;2007-01-06 04:00;CYYC 060400Z 18008KT 15SM OVC220 M03/M12 A2942 RMK CI8 SLP026

CYYC;2007-01-06 05:00;CYYC 060500Z 18006KT 15SM OVC220 M04/M11 A2937 RMK CI8 SLP010

CYYC;2007-01-06 06:00;CYYC 060600Z CCA 22004KT 15SM OVC230 M00/M12 A2933 RMK CI7 SLP977

CYYC;2007-01-06 07:00;CYYC 060700Z 23009KT 15SM OVC230 M00/M12 A2928 RMK CI6 SLP963

CYYC;2007-01-06 08:00;CYYC 060800Z 00000KT 15SM BKN230 M01/M12 A2921 RMK CI4 SLP940

CYYC;2007-01-06 09:00;CYYC 060900Z 33006G24KT 15SM FEW160 BKN230 M00/M12 A2916 RMK AC2CI2 SLP913

CYYC;2007-01-06 10:00;CYYC 061000Z 05011KT 15SM SCT180 BKN230 M02/M11 A2918 RMK AC3CI2 SLP919

CYYC;2007-01-06 11:00;CYYC 061100Z 33011G20KT 15SM SCT180 BKN230 00/M11 A2920 RMK AC3CI2 SLP925

CYYC;2007-01-06 12:00;CYYC 061200Z CCA 32017KT 15SM SCT180 BKN230 M02/M10 A2922 RMK AC3CI2 SNOW CVR/TRACE LOOSE SLP936

CYYC;2007-01-06 13:00;CYYC 061300Z 30014G21KT 15SM OVC120 00/M11 A2924 RMK AC7 SLP943

CYYC;2007-01-06 14:00;CYYC 061400Z 29016KT 15SM SCT080 OVC120 M00/M11 A2929 RMK AC3AC4 SLP956

CYYC;2007-01-06 15:00;CYYC 061500Z 32012G17KT 15SM BKN080 OVC120 M01/M11 A2937 RMK AC6AC1 VIRGA SLP990

CYYC;2007-01-06 16:00;CYYC 061600Z 36014KT 40SM FEW060 BKN070 OVC140 M01/M09 A2943 RMK SC1AC6AC2 VIRGA SLP011

CYYC;2007-01-06 17:00;CYYC 061700Z 34011KT 40SM SCT060 BKN070 BKN140 M02/M09 A2951 RMK SC1AC6AC1 VIRGA SLP033

CYYC;2007-01-06 18:00;CYYC 061800Z 30016G22KT 15SM BKN060 BKN080 M01/M12 A2956 RMK SC7AC1 SHS DIST S-W SLP054

CYYC;2007-01-06 19:00;CYYC 061900Z 33011KT 40SM SCT060 BKN120 M01/M10 A2960 RMK SC3AC4 SHS DIST S-W SLP067

CYYC;2007-01-06 20:00;CYYC 062000Z 31010KT 40SM FEW060 SCT080 BKN130 M00/M12 A2963 RMK SC2AC1AC5 SLP075

CYYC;2007-01-06 21:00;CYYC 062100Z 31010G15KT 30SM FEW060 SCT080 BKN150 01/M14 A2967 RMK SC1AC2AC2 SLP091

CYYC;2007-01-06 22:00;CYYC 062200Z 28020G26KT 30SM BKN100 BKN160 02/M16 A2973 RMK AC5AC0 SHS SW+NW-NE SLP107

CYYC;2007-01-06 22:42;CYYC 062242Z 01012G18KT 20SM -SN BKN088 BKN160 M01/ RMK AC7AC1

CYYC;2007-01-06 22:50;CYYC 062250Z CCA 36016KT 20SM -SHGS BKN088 BKN160 M01/ RMK AC7AC1

CYYC;2007-01-06 23:00;CYYC 062300Z 35014G19KT 20SM -SHGS BKN080 BKN180 M01/M12 A2982 RMK AC6AC1 SLP134

CYYC;2007-01-06 23:23;CYYC 062323Z 31017G24KT 20SM BKN080 BKN180 M01/ RMK AC1AC1

CYYC;2007-01-07 00:00;CYYC 070000Z 28014KT 40SM FEW080 FEW180 FEW250 M02/M15 A2985 RMK AC1AC1CI1 SLP158

CYYC;2007-01-07 01:00;CYYC 070100Z 27015KT 15SM FEW080 FEW180 FEW240 M03/M16 A2988 RMK AC1AC1CI1 SLP169

CYYC;2007-01-07 02:00;CYYC 070200Z 27019KT 15SM FEW240 M03/M17 A2992 RMK CI1 SLP179

CYYC;2007-01-07 03:00;CYYC 070300Z 26015KT 15SM FEW220 M04/M17 A2994 RMK CI1 SLP191

CYYC;2007-01-07 04:00;CYYC 070400Z 26015G20KT 15SM FEW120 M04/M16 A2995 RMK AC1 SLP196

CYYC;2007-01-07 05:00;CYYC 070500Z 26008KT 15SM SKC M04/M16 A2996 RMK SLP198

CYYC;2007-01-07 06:00;CYYC 070600Z CCA 25014KT 15SM SKC M04/M16 A2996 RMK SLP200

CYYC;2007-01-07 07:00;CYYC 070700Z 26016KT 15SM SKC M04/M15 A2996 RMK SLP200

CYYC;2007-01-07 08:00;CYYC 070800Z 26015KT 15SM SKC M03/M15 A2995 RMK SLP197

CYYC;2007-01-07 09:00;CYYC 070900Z 15005KT 15SM SKC M05/M15 A2995 RMK SLP192

CYYC;2007-01-07 10:00;CYYC 071000Z 13007KT 15SM FEW220 SCT240 M06/M14 A2994 RMK CS1CI1 HALO SLP190

CYYC;2007-01-07 11:00;CYYC 071100Z 19006KT 15SM FEW180 SCT240 M05/M15 A2989 RMK AC2CI1 SLP175

CYYC;2007-01-07 12:00;CYYC 071200Z 18008KT 15SM SCT094 BKN140 M04/M14 A2984 RMK AC3AC2 SLP159

CYYC;2007-01-07 13:00;CYYC 071300Z 19008KT 15SM BKN097 M04/M12 A2979 RMK AC6 SLP143

CYYC;2007-01-07 14:00;CYYC 071400Z 18005KT 15SM OVC140 M04/M12 A2972 RMK AC6 SLP122

CYYC;2007-01-07 15:00;CYYC 071500Z 18010G15KT 30SM FEW080 BKN140 M02/M12 A2965 RMK AC1AC6 SLP094

CYYC;2007-01-07 16:00;CYYC 071600Z 17008KT 30SM FEW080 OVC140 M02/M11 A2958 RMK AC1AC8 SLP071

CYYC;2007-01-07 17:00;CYYC 071700Z 25006KT 30SM FEW080 BKN140 BKN170 M03/M11 A2954 RMK AC1AC2AC4 SLP060

CYYC;2007-01-07 18:00;CYYC 071800Z 00000KT 30SM FEW080 FEW140 SCT170 BKN230 M01/M10 A2954 RMK AC1AC1AC2CI2 SLP054

CYYC;2007-01-07 19:00;CYYC 071900Z 32003KT 20SM FEW080 FEW170 FEW240 01/M10 A2953 RMK AC1AC1CI1 SHS DIST SW SLP049

CYYC;2007-01-07 20:00;CYYC 072000Z 25027G32KT 20SM FEW080 FEW140 SCT240 04/M10 A2945 RMK AC1AC1CI1 SHS DIST SW SLP026

CYYC;2007-01-07 21:00;CYYC 072100Z 26031G46KT 20SM FEW080 FEW140 SCT240 05/M10 A2944 RMK AC1AC1CI1 SHS DIST SW SLP012

CYYC;2007-01-07 22:00;CYYC 072200Z 26033G43KT 20SM FEW080 FEW140 SCT240 05/M09 A2946 RMK AC1AC1CI1 SHS DIST SW SLP016

CYYC;2007-01-07 23:00;CYYC 072300Z 27035G45KT 15SM FEW080 FEW140 BKN250 05/M09 A2946 RMK AC1AC1CI1 SLP018

CYYC;2007-01-08 00:00;CYYC 080000Z 27027G44KT 20SM FEW080 FEW140 BKN260 05/M09 A2952 RMK AC1AC1CI2 SLP036

CYYC;2007-01-08 01:00;CYYC 080100Z 27026G36KT 15SM FEW080 BKN260 05/M09 A2953 RMK AC1CI1 SLP041

CYYC;2007-01-08 02:00;CYYC 080200Z 27015G25KT 15SM SCT260 03/M09 A2956 RMK CI0 SLP049

CYYC;2007-01-08 03:00;CYYC 080300Z 27015KT 15SM FEW240 03/M08 A2958 RMK CI0 SLP059

CYYC;2007-01-08 04:00;CYYC 080400Z 27016KT 15SM FEW240 02/M08 A2961 RMK CI0 SLP067

CYYC;2007-01-08 05:00;CYYC 080500Z 26017KT 15SM FEW240 02/M07 A2963 RMK CI0 SLP072

CYYC;2007-01-08 06:00;CYYC 080600Z 28017G22KT 15SM SKC 03/M09 A2967 RMK SLP088

CYYC;2007-01-08 07:00;CYYC 080700Z 31012KT 15SM SKC 02/M11 A2972 RMK SLP102

CYYC;2007-01-08 08:00;CYYC 080800Z 36005KT 15SM SKC M03/M11 A2974 RMK SLP109

CYYC;2007-01-08 09:00;CYYC 080900Z 27013KT 15SM SKC 01/M12 A2979 RMK SLP123

CYYC;2007-01-08 10:00;CYYC 081000Z 29023G28KT 15SM FEW240 02/M15 A2986 RMK CI1 SLP146

CYYC;2007-01-08 11:00;CYYC 081100Z CCA 35019KT 15SM BKN095 M00/M12 A2995 RMK AC4 PRESRR SLP174

CYYC;2007-01-08 12:00;CYYC 081200Z 35021G27KT 15SM FEW078 BKN095 M02/M08 A3003 RMK AC2AC4 SLP213

CYYC;2007-01-08 13:00;CYYC 081300Z 34027G35KT 15SM BKN091 M02/M14 A3009 RMK AC6 SLP230

CYYC;2007-01-08 14:00;CYYC 081400Z 34022G32KT 15SM FEW045 BKN068 OVC210 M03/M17 A3016 RMK SC2AC2CI1 SLP252

CYYC;2007-01-08 15:00;CYYC 081500Z 33014KT 30SM SCT060 SCT080 SCT190 M04/M17 A3020 RMK SC0AC1AC1 SLP278

CYYC;2007-01-08 16:00;CYYC 081600Z 32010KT 40SM SCT060 SCT080 BKN240 M05/M17 A3025 RMK SC0AC1CI1 SLP292

CYYC;2007-01-08 17:00;CYYC 081700Z 30012KT 40SM FEW080 BKN230 BKN260 M04/M17 A3028 RMK AC1CI1CI0 SLP303

CYYC;2007-01-08 18:00;CYYC 081800Z 33008KT 40SM BKN230 BKN260 M02/M16 A3031 RMK CI2CI0 SLP312

CYYC;2007-01-08 19:00;CYYC 081900Z 28011KT 40SM BKN200 BKN260 M00/M18 A3032 RMK CI2CI0 SLP314

CYYC;2007-01-08 20:00;CYYC 082000Z 27014KT 40SM FEW200 BKN260 00/M18 A3030 RMK CI1CI0 SLP310

CYYC;2007-01-08 21:00;CYYC 082100Z 28012G18KT 40SM BKN200 BKN260 M00/M20 A3031 RMK CI2CI1 SLP311

CYYC;2007-01-08 22:00;CYYC 082200Z 26013KT 40SM BKN200 BKN260 M00/M19 A3031 RMK CI2CI2 SLP311

CYYC;2007-01-08 23:00;CYYC 082300Z 24010KT 40SM FEW090 BKN190 BKN260 M01/M20 A3030 RMK AC1AC2CS0 SLP310

CYYC;2007-01-09 00:00;CYYC 090000Z 25010KT 40SM FEW090 BKN190 OVC260 M02/M20 A3030 RMK AC1AS2CS0 SLP315

CYYC;2007-01-09 01:00;CYYC 090100Z 25012KT 15SM FEW090 SCT140 OVC260 M02/M20 A3028 RMK AC1AC2CS0 SLP311

CYYC;2007-01-09 02:00;CYYC 090200Z 25004KT 15SM BKN110 M04/M19 A3026 RMK AC2 SLP305

CYYC;2007-01-09 03:00;CYYC 090300Z 24008KT 15SM FEW088 BKN100 M03/M17 A3024 RMK AC2AC3 SLP298

CYYC;2007-01-09 04:00;CYYC 090400Z 24003KT 15SM BKN100 M03/M17 A3021 RMK AC5 SLP289

CYYC;2007-01-09 05:00;CYYC 090500Z 26008KT 15SM BKN100 M03/M16 A3017 RMK AC5 SLP278

CYYC;2007-01-09 06:00;CYYC 090600Z 27009KT 15SM FEW082 BKN100 M02/M16 A3014 RMK AC1AC4 SLP262

CYYC;2007-01-09 07:00;CYYC 090700Z 25008KT 15SM BKN110 M03/M15 A3009 RMK AC6 SLP247

CYYC;2007-01-09 08:00;CYYC 090800Z 19004KT 15SM FEW080 OVC120 M05/M15 A3006 RMK AC2AC4 SLP236

CYYC;2007-01-09 09:00;CYYC 090900Z 16004KT 15SM BKN080 M05/M15 A3002 RMK AC2 SLP219

CYYC;2007-01-09 10:00;CYYC 091000Z 19006KT 15SM BKN080 M07/M15 A2997 RMK AC4 SLP206

CYYC;2007-01-09 11:00;CYYC 091100Z 17004KT 15SM FEW240 M07/M15 A2993 RMK CI0 SLP192

CYYC;2007-01-09 12:00;CYYC 091200Z 14006KT 15SM SKC M08/M15 A2987 RMK SLP177

CYYC;2007-01-09 13:00;CYYC 091300Z 16007KT 15SM SKC M08/M14 A2983 RMK SLP162

CYYC;2007-01-09 14:00;CYYC 091400Z 06004KT 15SM FEW240 M12/M14 A2979 RMK CI1 SLP151

CYYC;2007-01-09 15:00;CYYC 091500Z 10004KT 20SM FEW210 BKN260 M12/M14 A2975 RMK CI1CI0 SLP138

CYYC;2007-01-09 16:00;CYYC 091600Z 14005KT 40SM FEW080 FEW140 BKN200 BKN260 M10/M13 A2972 RMK AC1AC1CI1CI0 SLP129

CYYC;2007-01-09 17:00;CYYC 091700Z 12002KT 30SM FEW080 FEW140 BKN200 BKN260 M09/M11 A2968 RMK AC1AC1CI2CI0 SLP119

CYYC;2007-01-09 18:00;CYYC 091800Z 09002KT 30SM FEW080 FEW140 FEW200 OVC260 M08/M11 A2967 RMK AC1AC1CI1CI3 SLP104

CYYC;2007-01-09 19:00;CYYC 091900Z 05002KT 30SM FEW080 FEW140 BKN230 OVC260 M06/M10 A2962 RMK AC1AC1CI4CI3 SLP088

CYYC;2007-01-09 20:00;CYYC 092000Z 00000KT 30SM FEW080 FEW140 BKN230 OVC260 M06/M10 A2956 RMK AC1AC1CI4CI3 SLP072

CYYC;2007-01-09 21:00;CYYC 092100Z 10002KT 20SM FEW080 BKN210 OVC260 M05/M09 A2951 RMK AC1CI6CI1 SLP051

CYYC;2007-01-09 22:00;CYYC 092200Z 00000KT 20SM FEW080 BKN230 BKN260 M05/M09 A2949 RMK AC1CI7CI1 SLP044

CYYC;2007-01-09 23:00;CYYC 092300Z 12005KT 10SM FEW080 BKN230 BKN260 M05/M08 A2943 RMK AC1CI6CI1 AC LYR TR SLP027

CYYC;2007-01-10 00:00;CYYC 100000Z 19003KT 15SM FEW080 BKN230 BKN260 M04/M08 A2940 RMK AC1CI3CI1 SLP013

CYYC;2007-01-10 01:00;CYYC 100100Z 19018G24KT 15SM SCT200 03/M05 A2931 RMK CI1 SLP987

CYYC;2007-01-10 02:00;CYYC 100200Z 19012KT 15SM FEW200 01/M05 A2927 RMK CI1 SLP975

CYYC;2007-01-10 03:00;CYYC 100300Z 20010G15KT 15SM FEW240 01/M05 A2921 RMK CI1 SLP945

CYYC;2007-01-10 04:00;CYYC 100400Z 19011KT 15SM FEW240 01/M05 A2917 RMK CI1 SLP933

CYYC;2007-01-10 05:00;CYYC 100500Z 19006KT 15SM SKC 01/M04 A2916 RMK SLP930

CYYC;2007-01-10 06:00;CYYC 100600Z 15005KT 15SM FEW180 M00/M03 A2913 RMK AC1 AC TR SLP912

CYYC;2007-01-10 07:00;CYYC 100700Z 21010KT 15SM SCT110 00/M02 A2909 RMK AC2 SLP902

CYYC;2007-01-10 08:00;CYYC 100800Z 21013KT 15SM FEW110 00/M02 A2906 RMK AC1 AC TR SLP891

CYYC;2007-01-10 09:00;CYYC 100900Z 25008KT 15SM FEW072 M01/M03 A2908 RMK AC2 SLP894

CYYC;2007-01-10 09:40;CYYC 100940Z 36023G30KT 5SM -SN FEW030 OVC050 M07/ RMK SC2SC6

CYYC;2007-01-10 10:00;CYYC 101000Z 36020G25KT 12SM -SN BKN050 OVC074 M07/M08 A2917 RMK SC5AC3 SLP921

CYYC;2007-01-10 11:00;CYYC 101100Z CCA 34028G35KT 15SM -SN BKN078 OVC110 M08/M11 A2923 RMK AC5AC2 SLP940

CYYC;2007-01-10 12:00;CYYC 101200Z 35026G31KT 15SM -SN BKN055 OVC071 M09/M12 A2931 RMK SC6AC2 PRESRR SLP982

CYYC;2007-01-10 13:00;CYYC 101300Z 34031G40KT 15SM -SN BKN072 OVC094 M11/M15 A2936 RMK AC5AC3 SLP997

CYYC;2007-01-10 14:00;CYYC 101400Z 34026G35KT 4SM -SN BLSN BKN017 OVC034 M12/M14 A2943 RMK SC6SC2 SLP019

CYYC;2007-01-10 15:00;CYYC 101500Z CCA 35022G27KT 10SM -SN DRSN BKN050 OVC075 M13/M16 A2949 RMK SC6AC2 PRESRR SLP045

CYYC;2007-01-10 15:39;CYYC 101539Z 34019G27KT 15SM FEW040 OVC070 M14/ RMK SC1AS8

CYYC;2007-01-10 16:00;CYYC 101600Z 34026G33KT 15SM FEW020 BKN060 OVC070 M14/M17 A2957 RMK CF1SC6AS2 SLP068

CYYC;2007-01-10 17:00;CYYC 101700Z 33022G29KT 15SM FEW020 BKN060 OVC070 M14/M18 A2964 RMK CF1SC6AS1 PRESRR SLP089

CYYC;2007-01-10 18:00;CYYC 101800Z 34023G32KT 15SM FEW020 BKN060 OVC075 M15/M19 A2970 RMK CF2SC2AS2 SLP122

CYYC;2007-01-10 19:00;CYYC 101900Z 33026G32KT 15SM SCT020 BKN060 OVC075 M15/M19 A2974 RMK CF2SC2AS2 SLP134

CYYC;2007-01-10 20:00;CYYC 102000Z CCA 34022G30KT 6SM -SN SCT015 BKN030 BKN060 OVC230 M16/M18 A2978 RMK ST2SC2SC2CS0 SLP148

CYYC;2007-01-10 21:00;CYYC 102100Z 35027G32KT 10SM SCT020 BKN060 OVC220 M16/M20 A2982 RMK SC2SC4CS0 SLP167

CYYC;2007-01-10 22:00;CYYC 102200Z CCB 35024G32KT 5SM -SN DRSN BKN015 BKN060 OVC210 M17/M20 A2987 RMK SC4SC2CS0 VIS NW-N 3 SLP183

CYYC;2007-01-10 22:15;CYYC 102215Z 35022G29KT 2 1/2SM -SN BLSN BKN014 BKN025 OVC210 M17/ RMK SC4SC2CS0

CYYC;2007-01-10 23:00;CYYC 102300Z 35022G32KT 1 1/2SM -SN BLSN BKN014 BKN025 OVC075 M17/M20 A2993 RMK SC5SC2AS0 SLP200

CYYC;2007-01-11 00:00;CYYC 110000Z 35023G29KT 1 1/2SM -SN BLSN BKN014 OVC025 M18/M20 A2998 RMK SC6SC2 SLP237

CYYC;2007-01-11 01:00;CYYC 110100Z 35024G32KT 2SM -SN BLSN BKN012 OVC024 M18/M21 A3003 RMK SC6SC2 SLP252

CYYC;2007-01-11 02:00;CYYC 110200Z 35028G35KT 2 1/2SM -SN BLSN BKN020 OVC040 M19/M21 A3007 RMK SC6SC2 SLP264

CYYC;2007-01-11 03:00;CYYC 110300Z 35026G32KT 2 1/2SM -SN BLSN BKN016 OVC030 M19/M22 A3010 RMK SC6SC2 FROIN SLP288

CYYC;2007-01-11 04:00;CYYC 110400Z 35024G32KT 2 1/2SM -SN BLSN BKN018 OVC040 M20/M22 A3013 RMK SC6SC2 SLP298

CYYC;2007-01-11 05:00;CYYC 110500Z 34020G26KT 2 1/2SM -SN BLSN FEW010 OVC024 M20/M22 A3016 RMK SC1SC8 LO SC TR SLP307

CYYC;2007-01-11 05:22;CYYC 110522Z 34022KT 3SM -SN BLSN OVC024 M20/ RMK SC8

CYYC;2007-01-11 06:00;CYYC 110600Z 34022KT 4SM -SN BLSN OVC025 M20/M23 A3019 RMK SC8 SLP324

CYYC;2007-01-11 06:35;CYYC 110635Z 35024G29KT 6SM BLSN BKN028 BKN090 M20/ RMK SC5AC2

CYYC;2007-01-11 07:00;CYYC 110700Z 35017G24KT 5SM BLSN BKN022 BKN100 M21/M23 A3021 RMK SC6AC2 SLP330

CYYC;2007-01-11 08:00;CYYC 110800Z 35014G20KT 5SM BLSN BKN120 M21/M23 A3023 RMK AC6 SLP334

CYYC;2007-01-11 08:08;CYYC 110808Z 35015G20KT 7SM BKN140 M21/ RMK AC5

CYYC;2007-01-11 09:00;CYYC 110900Z 35014KT 12SM BKN140 M22/M24 A3024 RMK AC6 SLP345

CYYC;2007-01-11 10:00;CYYC 111000Z 34009KT 12SM SCT160 M23/M24 A3026 RMK AC2 SLP352

CYYC;2007-01-11 11:00;CYYC 111100Z 35010KT 12SM FEW140 M23/M24 A3027 RMK AC2 SLP355

CYYC;2007-01-11 12:00;CYYC 111200Z 36013KT 12SM BKN050 M23/M24 A3027 RMK SC4 SLP363

CYYC;2007-01-11 13:00;CYYC 111300Z 34004KT 15SM SCT050 M25/M25 A3029 RMK SC1 FROIN SLP368

CYYC;2007-01-11 13:04;CYYC 111304Z 34006KT 15SM FEW006 SCT050 M24/ RMK SC1SC1 LO CLD TR OVR RWY

CYYC;2007-01-11 14:00;CYYC 111400Z 34008KT 15SM FEW007 FEW050 M24/M25 A3030 RMK SC1SC1 SLP370

CYYC;2007-01-11 15:00;CYYC 111500Z 36007KT 15SM FEW010 FEW050 BKN210 M25/M25 A3030 RMK SC1SC1CI0 SLP378

CYYC;2007-01-11 16:00;CYYC 111600Z 30004KT 15SM FEW010 FEW050 SCT210 M26/M26 A3030 RMK SC1SC1CI0 SLP378

CYYC;2007-01-11 17:00;CYYC 111700Z 21003KT 15SM FEW010 FEW050 M22/M27 A3029 RMK SC1SC1 SLP375

CYYC;2007-01-11 18:00;CYYC 111800Z 19006KT 30SM FEW015 FEW050 M21/M25 A3027 RMK SC1SC1 SLP362

CYYC;2007-01-11 19:00;CYYC 111900Z 19008KT 30SM SKC M20/M26 A3024 RMK SLP352

CYYC;2007-01-11 20:00;CYYC 112000Z 18007KT 40SM SKC M19/M26 A3021 RMK SLP343

CYYC;2007-01-11 21:00;CYYC 112100Z 19010KT 30SM SKC M17/M25 A3017 RMK SLP323

CYYC;2007-01-11 22:00;CYYC 112200Z 19010KT 30SM SKC M16/M24 A3016 RMK SLP320

CYYC;2007-01-11 23:00;CYYC 112300Z 18008KT 30SM FEW150 FEW240 M16/M23 A3015 RMK AC1CI1 SLP315

CYYC;2007-01-12 00:00;CYYC 120000Z 18009KT 40SM FEW150 FEW240 M17/M24 A3014 RMK AC1CI1 SLP315

CYYC;2007-01-12 01:00;CYYC 120100Z 18009KT 15SM SCT140 SCT240 M18/M23 A3013 RMK AC1CI1 CI TR SLP312

CYYC;2007-01-12 02:00;CYYC 120200Z 19009KT 15SM FEW140 M19/M24 A3012 RMK AC0 CONTRAILS SLP307

CYYC;2007-01-12 03:00;CYYC 120300Z CCA 21009KT 15SM BKN130 M19/M23 A3011 RMK AC6 CONTRAIL SLP307

CYYC;2007-01-12 04:00;CYYC 120400Z 21009KT 15SM SCT092 M18/M23 A3009 RMK AC2 SLP302

CYYC;2007-01-12 05:00;CYYC 120500Z 19005KT 15SM FEW120 M18/M24 A3008 RMK AC0 SLP300

CYYC;2007-01-12 06:00;CYYC 120600Z 00000KT 15SM SKC M18/M24 A3008 RMK SLP291

CYYC;2007-01-12 07:00;CYYC 120700Z 00000KT 15SM SKC M16/M23 A3008 RMK SLP291

CYYC;2007-01-12 08:00;CYYC 120800Z 32002KT 15SM FEW080 M17/M23 A3007 RMK AC0 SLP288

CYYC;2007-01-12 09:00;CYYC 120900Z 00000KT 15SM FEW080 M17/M24 A3006 RMK AC0 SLP277

CYYC;2007-01-12 10:00;CYYC 121000Z 00000KT 15SM SKC M17/M24 A3006 RMK SLP278

CYYC;2007-01-12 11:00;CYYC 121100Z 22003KT 15SM FEW200 M18/M24 A3007 RMK CI1 SLP280

CYYC;2007-01-12 12:00;CYYC 121200Z 27002KT 15SM SCT200 M17/M24 A3008 RMK CI3 SLP283

CYYC;2007-01-12 13:00;CYYC 121300Z 22002KT 15SM FEW120 BKN190 M17/M23 A3008 RMK AC2AC3 SLP285

CYYC;2007-01-12 14:00;CYYC 121400Z 29009KT 15SM FEW070 OVC100 M12/M21 A3009 RMK AC2AC6 SLP286

CYYC;2007-01-12 15:00;CYYC 121500Z 28004KT 30SM BKN100 BKN180 M13/M21 A3009 RMK AC2AC1 SLP283

CYYC;2007-01-12 16:00;CYYC 121600Z 32005KT 40SM SCT110 BKN190 M14/M21 A3011 RMK AC1AC1 SLP289

CYYC;2007-01-12 17:00;CYYC 121700Z 33006KT 40SM BKN100 M12/M20 A3013 RMK AC2 SLP294

CYYC;2007-01-12 18:00;CYYC 121800Z 31004KT 40SM BKN088 M09/M19 A3014 RMK AC4 SLP296

CYYC;2007-01-12 19:00;CYYC 121900Z 24003KT 40SM FEW088 M08/M18 A3014 RMK AC1 SLP294

CYYC;2007-01-12 20:00;CYYC 122000Z 35006KT 40SM FEW100 M06/M21 A3012 RMK AC1 SLP290

CYYC;2007-01-12 21:00;CYYC 122100Z 35005KT 40SM FEW100 FEW220 M06/M20 A3011 RMK AC1CI0 SLP278

CYYC;2007-01-12 22:00;CYYC 122200Z 01003KT 30SM FEW100 M06/M20 A3011 RMK AC1 SLP278

CYYC;2007-01-12 23:00;CYYC 122300Z 13003KT 30SM FEW200 M07/M20 A3010 RMK CI1 SLP275

CYYC;2007-01-13 00:00;CYYC 130000Z 18006KT 30SM FEW200 M09/M19 A3009 RMK CI1 SLP275

CYYC;2007-01-13 01:00;CYYC 130100Z 19006KT 30SM FEW200 M10/M19 A3007 RMK CI1 SLP270

CYYC;2007-01-13 02:00;CYYC 130200Z 18007KT 15SM SKC M10/M18 A3006 RMK SLP264

CYYC;2007-01-13 03:00;CYYC 130300Z 19007KT 15SM SKC M12/M19 A3003 RMK SLP252

CYYC;2007-01-13 04:00;CYYC 130400Z 20005KT 15SM SKC M13/M19 A3002 RMK SLP249

CYYC;2007-01-13 05:00;CYYC 130500Z 23006KT 15SM SKC M13/M19 A3001 RMK SLP246

CYYC;2007-01-13 06:00;CYYC 130600Z 20003KT 15SM SKC M14/M19 A3000 RMK SLP240

CYYC;2007-01-13 07:00;CYYC 130700Z 00000KT 15SM FEW180 M14/M19 A3000 RMK AC0 SLP239

CYYC;2007-01-13 08:00;CYYC 130800Z 03003KT 15SM SCT180 M16/M21 A2998 RMK AC0 SLP235

CYYC;2007-01-13 09:00;CYYC 130900Z 30002KT 15SM FEW080 BKN100 M12/M19 A2998 RMK AC1AC1 SLP225

CYYC;2007-01-13 10:00;CYYC 131000Z 33003KT 15SM FEW080 SCT100 M11/M18 A2999 RMK AC1AC0 SLP227

CYYC;2007-01-13 11:00;CYYC 131100Z 34005KT 15SM FEW080 BKN120 M12/M18 A2999 RMK AC1AC1 SLP227

CYYC;2007-01-13 12:00;CYYC 131200Z CCA 34006KT 15SM FEW080 BKN120 M12/M17 A3001 RMK AC1AC2 SNOW CVR/ TRACE LOOSE SLP237

CYYC;2007-01-13 13:00;CYYC 131300Z 32007KT 15SM FEW065 BKN080 M10/M17 A3003 RMK SC1AC2 SLP244

CYYC;2007-01-13 14:00;CYYC 131400Z 35009KT 15SM FEW065 OVC080 M09/M14 A3006 RMK SC2AC2 SLP252

CYYC;2007-01-13 15:00;CYYC 131500Z 35011KT 20SM FEW024 SCT080 OVC120 M08/M12 A3006 RMK SC1AC2AC4 SLP256

CYYC;2007-01-13 15:46;CYYC 131546Z 33010KT 15SM -SN FEW095 OVC110 M08/ RMK AC2AC6

CYYC;2007-01-13 16:00;CYYC 131600Z 35009KT 6SM -SN FEW015 BKN040 OVC100 M08/M11 A3009 RMK SC1SC3AC4 SLP264

CYYC;2007-01-13 16:43;CYYC 131643Z 35012KT 2SM -SN SCT009 BKN012 OVC030 M08/ RMK SC3SC2SC2

CYYC;2007-01-13 17:00;CYYC 131700Z 34011KT 3SM -SN SCT009 BKN035 OVC050 M08/M09 A3011 RMK SC3SC2SC2 VIS N-E 6 SLP271

CYYC;2007-01-13 17:38;CYYC 131738Z CCA 36012KT 1 1/2SM -SN SCT009 OVC021 M08/ RMK SC3SC5

CYYC;2007-01-13 17:51;CYYC 131751Z 01012KT 1 3/4SM -SN DRSN FEW009 BKN013 OVC028 M08/ RMK SC2SC4SC2

CYYC;2007-01-13 18:00;CYYC 131800Z 36010KT 1 1/2SM -SN DRSN FEW009 BKN012 OVC028 M08/M10 A3013 RMK SC1SC5SC3 SLP285

CYYC;2007-01-13 18:34;CYYC 131834Z CCA 02009KT 1 1/2SM -SN DRSN BKN008 OVC018 M08/ RMK SC5SC3

CYYC;2007-01-13 19:00;CYYC 131900Z 01012KT 1 1/2SM -SN DRSN BKN010 OVC024 M09/M10 A3014 RMK SC5SC3 SLP288

CYYC;2007-01-13 19:24;CYYC 131924Z 02011KT 3SM -SN DRSN FEW009 BKN024 OVC045 M09/ RMK SC2SC4SC2

CYYC;2007-01-13 20:00;CYYC 132000Z 03008KT 2 1/2SM -SN DRSN FEW009 BKN013 OVC029 M09/M10 A3015 RMK SC2SC4SC2 SLP290

CYYC;2007-01-13 21:00;CYYC 132100Z 03009KT 1 1/2SM -SN DRSN FEW008 BKN012 OVC026 M09/M11 A3016 RMK SC2SC5SC2 SLP293

CYYC;2007-01-13 21:34;CYYC 132134Z 03009KT 2SM -SN FEW009 BKN019 OVC037 M10/ RMK SC1SC5SC1

CYYC;2007-01-13 22:00;CYYC 132200Z 04009KT 2SM -SN FEW008 BKN012 OVC022 M10/M11 A3018 RMK SC2SC2SC2 HALO /S01/ SLP298

CYYC;2007-01-13 22:23;CYYC 132223Z 02009KT 1 3/4SM -SN BKN008 BKN015 OVC025 M10/ RMK SC5SC2SC1 HALO

CYYC;2007-01-13 22:39;CYYC 132239Z 03009KT 2 1/2SM -SN SCT008 BKN020 OVC038 M10/ RMK SC3SC2SC1 HALO

CYYC;2007-01-13 23:00;CYYC 132300Z 05007KT 5SM -SN FEW008 SCT020 BKN051 BKN220 M11/M12 A3021 RMK SC2SC2SC1CI1 CC ASOCTD SLP306

CYYC;2007-01-13 23:18;CYYC 132318Z 06008KT 1 1/4SM -SN SCT008 BKN026 BKN090 M12/ RMK SC3SC1AC1

CYYC;2007-01-13 23:34;CYYC 132334Z 06008KT 1 3/4SM -SN DRSN SCT008 BKN020 BKN090 M12/ RMK SC2SC1AC1

CYYC;2007-01-14 00:00;CYYC 140000Z 06007KT 2 1/4SM -SN SCT008 BKN020 BKN048 BKN100 M13/M14 A3024 RMK SC2SC1SC1AC1 SLP324

CYYC;2007-01-14 00:10;CYYC 140010Z 07005KT 5SM -SN FEW008 SCT020 SCT060 BKN110 M14/ RMK SC1SC1SC1AC1

CYYC;2007-01-14 01:00;CYYC 140100Z 08005KT 5SM IC FEW008 SCT020 SCT110 M16/M17 A3026 RMK SC1SC1AC1 SLP331

CYYC;2007-01-14 02:00;CYYC 140200Z 09005KT 6SM IC FEW020 FEW060 FEW120 M18/M18 A3027 RMK SC1SC1AC1 SLP334

CYYC;2007-01-14 03:00;CYYC 140300Z 10003KT 6SM -SN OVC085 M17/M17 A3028 RMK AC6 SLP339

CYYC;2007-01-14 04:00;CYYC 140400Z 17004KT 10SM -SN OVC080 M16/M17 A3027 RMK AC7 SN VRY LGT SLP338

CYYC;2007-01-14 05:00;CYYC 140500Z 14003KT 10SM -SN OVC077 M18/M18 A3027 RMK AC7 SLP337

CYYC;2007-01-14 06:00;CYYC 140600Z 18005KT 10SM -SN BKN009 OVC072 M16/M17 A3027 RMK SC6AC2 SLP335

CYYC;2007-01-14 06:21;CYYC 140621Z 17005KT 12SM BKN008 OVC070 M16/ RMK SC7AC1

CYYC;2007-01-14 07:00;CYYC 140700Z 19006KT 12SM OVC007 M16/M17 A3026 RMK SC8 SLP332

CYYC;2007-01-14 07:37;CYYC 140737Z 18006KT 12SM FEW008 OVC067 M16/ RMK SC2AC5

CYYC;2007-01-14 08:00;CYYC 140800Z 19005KT 12SM OVC068 M16/M17 A3024 RMK AC7 SLP326

CYYC;2007-01-14 09:00;CYYC 140900Z 20006KT 15SM FEW220 M19/M20 A3024 RMK CI1 SLP331

CYYC;2007-01-14 10:00;CYYC 141000Z 20007KT 15SM FEW220 M18/M19 A3024 RMK CI1 SLP330

CYYC;2007-01-14 11:00;CYYC 141100Z 22006KT 15SM SKC M18/M18 A3023 RMK SLP328

CYYC;2007-01-14 12:00;CYYC 141200Z 21007KT 15SM SKC M18/M19 A3021 RMK SNOW COVER/MUCH LOOSE SLP324

CYYC;2007-01-14 13:00;CYYC 141300Z 20006KT 15SM SKC M18/M19 A3021 RMK SLP324

CYYC;2007-01-14 14:00;CYYC 141400Z 20005KT 15SM SKC M19/M19 A3021 RMK SLP324

CYYC;2007-01-14 15:00;CYYC 141500Z 20004KT 40SM FEW150 M19/M20 A3022 RMK AC1 SLP333

CYYC;2007-01-14 16:00;CYYC 141600Z 20005KT 40SM FEW150 M18/M18 A3022 RMK AC1 SLP333

CYYC;2007-01-14 17:00;CYYC 141700Z 00000KT 40SM FEW240 M13/M14 A3022 RMK CI1 SLP335

CYYC;2007-01-14 18:00;CYYC 141800Z 00000KT 40SM SKC M10/M12 A3022 RMK SLP321

CYYC;2007-01-14 19:00;CYYC 141900Z 22002KT 40SM SKC M07/M12 A3021 RMK SLP316

CYYC;2007-01-14 20:00;CYYC 142000Z 33003KT 40SM FEW250 M05/M12 A3019 RMK CI1 SLP311

CYYC;2007-01-14 21:00;CYYC 142100Z 20004KT 40SM FEW250 M04/M11 A3019 RMK CI1 SLP305

CYYC;2007-01-14 22:00;CYYC 142200Z 22004KT 40SM FEW140 FEW250 M03/M11 A3018 RMK AC1CI1 SLP303

CYYC;2007-01-14 23:00;CYYC 142300Z 24005KT 40SM FEW140 FEW250 M04/M12 A3020 RMK AC1CI0 SLP308

CYYC;2007-01-15 00:00;CYYC 150000Z 25003KT 40SM FEW130 FEW220 M07/M13 A3020 RMK AC1CI1 SLP311

CYYC;2007-01-15 01:00;CYYC 150100Z 24004KT 40SM FEW130 FEW180 BKN220 M06/M12 A3020 RMK AC2AC1CI1 SLP313

CYYC;2007-01-15 02:00;CYYC 150200Z 00000KT 15SM FEW130 FEW210 M11/M14 A3020 RMK AC1CI0 SLP311

CYYC;2007-01-15 03:00;CYYC 150300Z 30002KT 15SM FEW230 M10/M14 A3020 RMK CI0 SLP318

CYYC;2007-01-15 04:00;CYYC 150400Z 00000KT 15SM FEW230 M13/M15 A3019 RMK CI0 SLP314

CYYC;2007-01-15 05:00;CYYC 150500Z 23004KT 15SM SKC M11/M14 A3018 RMK SLP312

CYYC;2007-01-15 06:00;CYYC 150600Z 19002KT 15SM FEW200 M11/M15 A3017 RMK CI1 CI TR SLP296

CYYC;2007-01-15 07:00;CYYC 150700Z 18002KT 15SM SKC M10/M14 A3018 RMK SLP297

CYYC;2007-01-15 08:00;CYYC 150800Z 16002KT 15SM SCT071 M10/M14 A3016 RMK AC2 SLP293

CYYC;2007-01-15 09:00;CYYC 150900Z 21004KT 15SM FEW071 M11/M14 A3016 RMK AC1 SLP283

CYYC;2007-01-15 10:00;CYYC 151000Z 28008KT 15SM FEW071 M06/M14 A3016 RMK AC1 SLP283

CYYC;2007-01-15 11:00;CYYC 151100Z 00000KT 15SM FEW220 M06/M14 A3016 RMK CI1 CI TR SLP282

CYYC;2007-01-15 12:00;CYYC 151200Z 21003KT 15SM SCT200 M08/M13 A3016 RMK CI2 SNOW COVER/MUCH LOOSE SLP283

CYYC;2007-01-15 13:00;CYYC 151300Z 03002KT 15SM SCT140 M07/M13 A3016 RMK AC4 SLP284

CYYC;2007-01-15 14:00;CYYC 151400Z 25002KT 15SM FEW140 SCT220 M06/M12 A3016 RMK AC1CI1 SLP284

CYYC;2007-01-15 15:00;CYYC 151500Z 21003KT 30SM FEW150 FEW220 M07/M12 A3016 RMK AC1CI0 SLP285

CYYC;2007-01-15 16:00;CYYC 151600Z 31004KT 40SM FEW150 BKN250 M05/M11 A3015 RMK AC1CI0 SLP283

CYYC;2007-01-15 17:00;CYYC 151700Z 23002KT 40SM FEW150 BKN250 M02/M09 A3016 RMK AC1CI2 SLP285

CYYC;2007-01-15 18:00;CYYC 151800Z 19003KT 40SM FEW150 BKN240 M01/M09 A3015 RMK AC1CI2 SLP275

CYYC;2007-01-15 19:00;CYYC 151900Z CCA 21011KT 40SM FEW150 BKN230 M01/M09 A3013 RMK AC1CI2 SLP268

CYYC;2007-01-15 20:00;CYYC 152000Z 22010KT 40SM FEW090 FEW150 BKN230 M00/M08 A3011 RMK AC1AC1CI3 SLP262

CYYC;2007-01-15 21:00;CYYC 152100Z 19008KT 40SM FEW080 FEW150 BKN230 01/M07 A3008 RMK AC1AC1CI3 SLP248

CYYC;2007-01-15 22:00;CYYC 152200Z 21012KT 40SM FEW080 FEW150 BKN240 01/M07 A3006 RMK AC1AC1CI4 SLP243

CYYC;2007-01-15 23:00;CYYC 152300Z 19004KT 40SM FEW080 SCT170 BKN240 01/M06 A3006 RMK AC1AC2CI2 SLP241

CYYC;2007-01-16 00:00;CYYC 160000Z 21005KT 40SM FEW080 FEW170 BKN240 M01/M07 A3005 RMK AC1AC1CI1 SLP236

CYYC;2007-01-16 01:00;CYYC 160100Z 19004KT 15SM FEW080 FEW170 BKN240 00/M07 A3004 RMK AC1AC1CI2 LWR AC TR SLP233

CYYC;2007-01-16 02:00;CYYC 160200Z 18003KT 15SM BKN240 M01/M07 A3002 RMK CI2 SLP228

CYYC;2007-01-16 03:00;CYYC 160300Z 16006KT 15SM FEW220 M01/M07 A3000 RMK CI1 SLP215

CYYC;2007-01-16 04:00;CYYC 160400Z 27008KT 15SM FEW220 05/M06 A2999 RMK CI0 SLP212

CYYC;2007-01-16 05:00;CYYC 160500Z 14005KT 15SM SCT220 02/M07 A2997 RMK CI3 SLP207

CYYC;2007-01-16 06:00;CYYC 160600Z 27012G17KT 15SM FEW170 BKN220 03/M05 A2995 RMK AC1CI3 SLP186

CYYC;2007-01-16 07:00;CYYC 160700Z 28005KT 15SM SCT180 BKN220 04/M06 A2995 RMK AC2CI2 SLP186

CYYC;2007-01-16 08:00;CYYC 160800Z 27020G25KT 15SM FEW180 BKN240 05/M08 A2997 RMK AC2CI3 SLP190

CYYC;2007-01-16 09:00;CYYC 160900Z CCA 28014KT 15SM FEW180 BKN240 04/M09 A2996 RMK AC1CI2 SLP186

CYYC;2007-01-16 10:00;CYYC 161000Z 33011KT 15SM BKN230 00/M09 A2997 RMK CI4 SLP188

CYYC;2007-01-16 11:00;CYYC 161100Z 32009KT 15SM FEW170 BKN230 M01/M10 A2997 RMK AC1CI4 SLP187

CYYC;2007-01-16 12:00;CYYC 161200Z 24004KT 15SM FEW190 OVC230 M00/M11 A2995 RMK AC2CI3 SNOW COVER/MUCH LOOSE SLP191

CYYC;2007-01-16 13:00;CYYC 161300Z 24007KT 15SM BKN230 M01/M10 A2995 RMK CI5 SLP190

CYYC;2007-01-16 14:00;CYYC 161400Z 32005KT 15SM FEW230 M01/M11 A2995 RMK CI0 SLP190

CYYC;2007-01-16 15:00;CYYC 161500Z 27009KT 30SM FEW090 FEW150 BKN210 M01/M10 A2995 RMK AC1AC0CI1 SLP189

CYYC;2007-01-16 16:00;CYYC 161600Z 05002KT 40SM FEW090 FEW150 SCT210 BKN240 M04/M10 A2995 RMK AC1AC1CI2CI1 SLP189

CYYC;2007-01-16 17:00;CYYC 161700Z 22003KT 40SM BKN120 BKN220 M02/M10 A2995 RMK AC2CI4 SLP189

CYYC;2007-01-16 18:00;CYYC 161800Z 22010KT 40SM SCT120 BKN220 M01/M09 A2991 RMK AC4CI2 SLP172

CYYC;2007-01-16 19:00;CYYC 161900Z 22008KT 40SM FEW120 FEW240 01/M08 A2991 RMK AC1CI0 SLP170

CYYC;2007-01-16 20:00;CYYC 162000Z 27011KT 40SM FEW090 FEW120 FEW240 05/M08 A2989 RMK AC1AC1CI0 SLP164

CYYC;2007-01-16 21:00;CYYC 162100Z 27011KT 40SM FEW090 FEW120 SCT250 05/M07 A2987 RMK AC1AC1CI0 SLP146

CYYC;2007-01-16 22:00;CYYC 162200Z 28018G24KT 40SM FEW080 FEW150 BKN260 05/M08 A2985 RMK AC1AC1CI0 SLP141

CYYC;2007-01-16 23:00;CYYC 162300Z 27020KT 40SM FEW080 FEW150 BKN260 03/M08 A2986 RMK AC1AC1CI1 SLP143

CYYC;2007-01-17 00:00;CYYC 170000Z 27013KT 40SM FEW080 FEW150 SCT240 BKN260 02/M09 A2987 RMK AC1AC1CI1CI0 SLP157

CYYC;2007-01-17 01:00;CYYC 170100Z 28016G24KT 30SM FEW090 BKN240 01/M10 A2986 RMK AC1CI2 SLP155

CYYC;2007-01-17 02:00;CYYC 170200Z 30017G24KT 15SM FEW140 BKN230 00/M10 A2987 RMK AC1CI1 SLP157

CYYC;2007-01-17 03:00;CYYC 170300Z 32010KT 15SM FEW140 SCT230 M03/M10 A2989 RMK AC1CI2 SLP173

CYYC;2007-01-17 04:00;CYYC 170400Z 28007KT 15SM SCT063 OVC150 M03/M10 A2991 RMK SC3AC2 SLP178

CYYC;2007-01-17 05:00;CYYC 170500Z 32008KT 15SM FEW065 OVC110 M03/M09 A2993 RMK SC2AC5 SLP185

CYYC;2007-01-17 06:00;CYYC 170600Z 33006KT 10SM BKN041 BKN060 OVC140 M03/M07 A2994 RMK SC5SC2AC1 SLP190

CYYC;2007-01-17 06:20;CYYC 170620Z 34010KT 10SM -SN FEW019 SCT030 OVC050 M03/ RMK SF1SC3SC4

CYYC;2007-01-17 07:00;CYYC 170700Z 33007KT 8SM -SN BKN034 OVC060 M04/M05 A2995 RMK SC6SC2 SLP194

CYYC;2007-01-17 08:00;CYYC 170800Z 33007KT 8SM -SN BKN034 OVC060 M04/M04 A2995 RMK SC6SC2 SLP193

CYYC;2007-01-17 08:26;CYYC 170826Z 27004KT 3SM -SN BKN012 OVC033 M04/ RMK SC6SC2

CYYC;2007-01-17 08:55;CYYC 170855Z 32006KT 1/2SM SN VV004 M04/ RMK SN8

CYYC;2007-01-17 09:00;CYYC 170900Z CCA 34005KT 1/8SM +SN VV004 M04/M04 A2996 RMK SN8 /S02/ RVR RWY34 3500 FT SLP188

CYYC;2007-01-17 09:07;CYYC 170907Z 33004KT 1/8SM +SN VV003 M04/ RMK SN8 RVR RWY34 3000 FT

CYYC;2007-01-17 09:16;CYYC 170916Z 31003KT 3/8SM SN VV005 M04/ RESN RMK SN8 RVR RWY34 5500 FT

CYYC;2007-01-17 10:00;CYYC 171000Z 28004KT 1/2SM SN BKN008 OVC023 M04/M04 A2997 RESN RMK SN6SC2SC1 /S04/ RVR RWY34 6000 FT SLP192

CYYC;2007-01-17 11:00;CYYC 171100Z 25007KT 2 1/2SM -SN OVC041 M05/M06 A2997 RESN RMK SC8 /S05/ SLP191

CYYC;2007-01-17 12:00;CYYC 171200Z 27008KT 12SM -SN BKN048 OVC072 M05/M07 A2997 RMK SC6AC2 SLP199

CYYC;2007-01-17 12:21;CYYC 171221Z 27010KT 12SM BKN020 OVC032 M05/ RMK SC6SC2

CYYC;2007-01-17 13:00;CYYC 171300Z 28011KT 12SM BKN047 OVC069 M05/M07 A2997 RMK SC5AC3 SLP201

CYYC;2007-01-17 14:00;CYYC 171400Z 27013KT 15SM BKN054 OVC076 M05/M07 A2998 RMK SC6AC2 SLP204

CYYC;2007-01-17 15:00;CYYC 171500Z 33008KT 15SM SCT050 BKN150 M06/M09 A3000 RMK SC3AC2 SLP217

CYYC;2007-01-17 16:00;CYYC 171600Z 31007KT 40SM BKN050 BKN140 M06/M11 A3001 RMK SC6AC1 SH DIST SW SLP222

CYYC;2007-01-17 16:52;CYYC 171652Z 31010KT 5SM -SN OVC030 M05/ RMK SC7 PCPN VRY LGT

CYYC;2007-01-17 17:00;CYYC 171700Z CCA 32011KT 4SM -SN BKN030 M05/M06 A3004 RMK SC7 VIS 2 SW SLP230

CYYC;2007-01-17 17:12;CYYC 171712Z 33011KT 1 1/2SM -SN OVC014 M05/ RMK SN5SC3

CYYC;2007-01-17 17:21;CYYC 171721Z CCA 33010KT 1SM -SN VV009 M05/ RMK SN8 RVR RWY 16 6000FT

CYYC;2007-01-17 17:24;CYYC 171724Z CCA 33012KT 1/2SM SN VV006 M05/ RMK SN8 RVR RWY 34 6000FT

CYYC;2007-01-17 17:32;CYYC 171732Z 34009KT 1/2SM SN VV004 M05/ RMK SN8 RVR RWY 16 4500FT

CYYC;2007-01-17 17:42;CYYC 171742Z 34008KT 2SM -SN OVC002 M05/ RMK SN5SC3 VIS SE 1/2

CYYC;2007-01-17 17:48;CYYC 171748Z 35007KT 2SM -SN OVC008 M05/ RMK SC8 VIS 1 SE

CYYC;2007-01-17 18:00;CYYC 171800Z 33006KT 2SM -SN OVC030 M05/M06 A3007 RMK SC8 SLP241

CYYC;2007-01-17 18:32;CYYC 171832Z 32007KT 7SM BKN050 M05/ RMK SC6

CYYC;2007-01-17 19:00;CYYC 171900Z 32005KT 40SM BKN030 BKN080 M05/M07 A3007 RMK SC6AC1 SLP241

CYYC;2007-01-17 20:00;CYYC 172000Z 32006KT 40SM FEW013 SCT045 OVC240 M05/M08 A3006 RMK CU1SC3CI0 CU TR W SLP240

CYYC;2007-01-17 21:00;CYYC 172100Z 34008KT 40SM FEW013 SCT058 BKN240 M05/M08 A3007 RMK CU1SC3CI0 CU TR W SLP243

CYYC;2007-01-17 22:00;CYYC 172200Z 35004KT 30SM FEW013 FEW065 BKN090 M05/M09 A3008 RMK CU1SC2AC1 DIST SH SW/CU TR W SLP246

CYYC;2007-01-17 23:00;CYYC 172300Z 01005KT 30SM FEW013 FEW060 SCT180 M07/M10 A3008 RMK CU1SC1AC0 DIST SH SW/CU TR W SLP246

CYYC;2007-01-18 00:00;CYYC 180000Z 22004KT 20SM FEW015 FEW085 M12/M13 A3010 RMK CU1AC1 SLP265

CYYC;2007-01-18 01:00;CYYC 180100Z 15003KT 15SM FEW015 FEW085 M07/M09 A3011 RMK CU1AC1 SLP269

CYYC;2007-01-18 02:00;CYYC 180200Z 23003KT 15SM BKN030 M10/M11 A3011 RMK SC7 SLP269

CYYC;2007-01-18 02:45;CYYC 180245Z 23003KT 1 1/2SM -SN BKN006 OVC016 M09/ RMK SN4SC3SC1

CYYC;2007-01-18 02:49;CYYC 180249Z 22002KT 5SM -SN FEW008 BKN016 OVC027 M09/ RMK SF2SC4SC2

CYYC;2007-01-18 03:00;CYYC 180300Z 00000KT 12SM -SN SCT016 BKN061 M09/M10 A3011 RMK SC3SC4 SLP268

CYYC;2007-01-18 03:41;CYYC 180341Z 00000KT 15SM FEW020 BKN060 M09/ RMK SC2SC2

CYYC;2007-01-18 04:00;CYYC 180400Z 00000KT 15SM FEW030 SCT061 M10/M11 A3011 RMK SC2SC2 SLP268

CYYC;2007-01-18 05:00;CYYC 180500Z 00000KT 15SM FEW063 M13/M13 A3010 RMK SC1 SLP265

CYYC;2007-01-18 06:00;CYYC 180600Z 31003KT 15SM SKC M15/M16 A3009 RMK SLP267

CYYC;2007-01-18 07:00;CYYC 180700Z 34004KT 15SM SKC M18/M19 A3008 RMK SLP264

CYYC;2007-01-18 08:00;CYYC 180800Z 00000KT 15SM SKC M19/M20 A3006 RMK SLP256

CYYC;2007-01-18 09:00;CYYC 180900Z 35002KT 15SM SKC M20/M20 A3005 RMK SLP260

CYYC;2007-01-18 10:00;CYYC 181000Z 00000KT 15SM SKC M19/M20 A3005 RMK SLP259

CYYC;2007-01-18 11:00;CYYC 181100Z 20005KT 15SM SKC M16/M17 A3004 RMK SLP255

CYYC;2007-01-18 12:00;CYYC 181200Z 20008KT 15SM SKC M16/M17 A3002 RMK SNOW COVER/MUCH LOOSE SLP253

CYYC;2007-01-18 13:00;CYYC 181300Z 21006KT 15SM SKC M15/M17 A3002 RMK SLP253

CYYC;2007-01-18 14:00;CYYC 181400Z 19003KT 15SM FEW150 SCT240 M13/M17 A3002 RMK AC1CI1 AC TR SLP251

CYYC;2007-01-18 15:00;CYYC 181500Z 17002KT 15SM FEW190 M13/M17 A3002 RMK AC1 SLP244

CYYC;2007-01-18 16:00;CYYC 181600Z 19002KT 30SM FEW100 BKN130 M12/M15 A3002 RMK AC1AC6 SLP244

CYYC;2007-01-18 17:00;CYYC 181700Z 22005KT 40SM FEW010 BKN070 OVC200 M11/M13 A3000 RMK CF1AC7CI0 CF TR W/ACSL ASOCTD W SLP239

CYYC;2007-01-18 18:00;CYYC 181800Z 20004KT 40SM FEW020 SCT065 BKN090 M08/M13 A2999 RMK CF1SC4AC2 CF TR SW SLP237

CYYC;2007-01-18 19:00;CYYC 181900Z 19005KT 30SM FEW024 FEW120 FEW200 M07/M13 A2999 RMK CU1AC1CI1 CU TR SW/CI TR SLP235

CYYC;2007-01-18 20:00;CYYC 182000Z 18002KT 30SM FEW060 FEW120 OVC220 M05/M12 A2997 RMK SC1AC1CI0 SLP231

CYYC;2007-01-18 21:00;CYYC 182100Z 26004KT 30SM FEW030 FEW060 FEW120 OVC200 M02/M11 A2996 RMK CU1SC1AC2CI2 CU TR SW SLP223

CYYC;2007-01-18 22:00;CYYC 182200Z 27013KT 40SM FEW036 FEW120 BKN200 M01/M10 A2996 RMK CU1AC2CI0 BLSN SLP224

CYYC;2007-01-18 23:00;CYYC 182300Z 28008KT 40SM FEW036 BKN180 OVC240 M01/M10 A2997 RMK CU1AC4CI1 SLP227

CYYC;2007-01-19 00:00;CYYC 190000Z 30008KT 30SM FEW036 FEW060 OVC180 OVC240 M01/M10 A2999 RMK CF1SC2AC6CI1 CF + CI TR SLP226

CYYC;2007-01-19 01:00;CYYC 190100Z 27017G22KT 15SM FEW140 OVC170 M01/M10 A2999 RMK AC1AC6 SLP225

CYYC;2007-01-19 02:00;CYYC 190200Z 28015KT 15SM OVC170 M00/M11 A2998 RMK AC7 SLP222

CYYC;2007-01-19 03:00;CYYC 190300Z 24006KT 15SM FEW180 BKN230 M02/M11 A2997 RMK AC2CI0 SLP218

CYYC;2007-01-19 04:00;CYYC 190400Z 20007KT 15SM FEW180 FEW230 M05/M12 A2997 RMK AC1CI0 SLP217

CYYC;2007-01-19 05:00;CYYC 190500Z 17007KT 15SM SKC M05/M12 A3000 RMK SLP225

CYYC;2007-01-19 06:00;CYYC 190600Z 25008KT 15SM FEW230 M02/M11 A3001 RMK CI1 SLP223

CYYC;2007-01-19 07:00;CYYC 190700Z 19009KT 15SM FEW230 M06/M12 A2999 RMK CI1 SLP219

CYYC;2007-01-19 08:00;CYYC 190800Z 20006KT 15SM FEW230 M07/M12 A2997 RMK CI1 SLP213

CYYC;2007-01-19 09:00;CYYC 190900Z 21005KT 15SM BKN230 M09/M13 A2995 RMK CI3 SLP205

CYYC;2007-01-19 10:00;CYYC 191000Z 22004KT 15SM BKN230 M08/M12 A2994 RMK CI3 SLP200

CYYC;2007-01-19 11:00;CYYC 191100Z 31002KT 15SM SCT180 BKN230 M08/M12 A2991 RMK AC3CI0 SLP193

CYYC;2007-01-19 12:00;CYYC 191200Z CCA 23004KT 15SM SCT180 BKN230 M08/M11 A2988 RMK AC3CI2 SNOW CVR/MUCH LOOSE SLP179

CYYC;2007-01-19 13:00;CYYC 191300Z 21003KT 15SM SCT180 OVC230 M06/M10 A2986 RMK AC4CI3 SLP172

CYYC;2007-01-19 14:00;CYYC 191400Z 12004KT 15SM FEW090 BKN150 OVC230 M04/M09 A2985 RMK AC1AC6CI2 SLP167

CYYC;2007-01-19 15:00;CYYC 191500Z 13002KT 15SM BKN090 OVC180 OVC240 M04/M08 A2983 RMK AC6AC2CI1 SLP156

CYYC;2007-01-19 16:00;CYYC 191600Z 00000KT 40SM FEW024 SCT080 OVC240 01/M08 A2982 RMK SC1AC4CI0 SC TR SW SLP151

CYYC;2007-01-19 17:00;CYYC 191700Z 34003KT 40SM FEW065 SCT090 OVC240 03/M06 A2980 RMK SC2AC2CI0 SLP147

CYYC;2007-01-19 18:00;CYYC 191800Z 30015KT 40SM FEW036 SCT090 OVC240 04/M05 A2981 RMK SC1AC3CI0 SC TR SW SLP136

CYYC;2007-01-19 19:00;CYYC 191900Z 29016G21KT 40SM FEW036 BKN090 BKN120 BKN240 05/M05 A2981 RMK SC1AC5AS1CI0 SLP135

CYYC;2007-01-19 20:00;CYYC 192000Z 28018G25KT 40SM FEW036 BKN065 BKN090 OVC240 04/M05 A2980 RMK SC1SC5AS2CI0 SLP133

CYYC;2007-01-19 21:00;CYYC 192100Z 27021G28KT 30SM FEW036 OVC060 04/M05 A2979 RMK SC1SC8 SLP139

CYYC;2007-01-19 22:00;CYYC 192200Z 29009G15KT 30SM OVC060 04/M05 A2981 RMK SC7 DIST SH SW SLP144

CYYC;2007-01-19 23:00;CYYC 192300Z 32007KT 30SM FEW060 OVC100 03/M05 A2982 RMK SC1AC6 DIST SH SW SLP147

CYYC;2007-01-20 00:00;CYYC 200000Z 36011KT 30SM OVC050 02/M05 A2984 RMK SC7 SLP158

CYYC;2007-01-20 01:00;CYYC 200100Z 35006KT 15SM OVC045 01/M04 A2985 RMK SC8 SLP161

CYYC;2007-01-20 02:00;CYYC 200200Z 03004KT 15SM BKN030 OVC050 01/M05 A2987 RMK SC6SC2 SLP167

CYYC;2007-01-20 03:00;CYYC 200300Z 00000KT 7SM BKN030 OVC050 02/M07 A2987 RMK SC6SC2 VIRGA SLP166

CYYC;2007-01-20 04:00;CYYC 200400Z 34002KT 15SM FEW030 BKN060 OVC120 M00/M06 A2987 RMK SC2SC4AC2 SLP166

CYYC;2007-01-20 05:00;CYYC 200500Z 18003KT 15SM BKN040 OVC080 M02/M06 A2986 RMK SC6AC2 SLP162

CYYC;2007-01-20 06:00;CYYC 200600Z 13005KT 15SM OVC050 M01/M06 A2985 RMK SC8 SLP148

CYYC;2007-01-20 07:00;CYYC 200700Z 12005KT 15SM BKN050 OVC080 M02/M06 A2984 RMK SC7AC1 CLD OVR RWY/VIRGA ESE SLP146

CYYC;2007-01-20 08:00;CYYC 200800Z 13007KT 15SM BKN030 OVC060 M02/M06 A2982 RMK SC6SC2 SLP140

CYYC;2007-01-20 09:00;CYYC 200900Z 16007KT 15SM FEW030 BKN065 OVC080 M03/M06 A2981 RMK SC1SC6AC2 SLP136

CYYC;2007-01-20 10:00;CYYC 201000Z 16006KT 15SM FEW030 OVC075 M03/M05 A2979 RMK SC1AC8 SLP132

CYYC;2007-01-20 11:00;CYYC 201100Z 17006KT 15SM FEW060 OVC100 M03/M05 A2977 RMK SC2AC6 SLP126

CYYC;2007-01-20 11:39;CYYC 201139Z 16008KT 5SM BR BKN005 OVC015 M03/ RMK ST6SC2

CYYC;2007-01-20 12:00;CYYC 201200Z 16006KT 3SM BR BKN005 OVC014 M03/M04 A2976 RMK ST5SC3 SLP123

CYYC;2007-01-20 12:14;CYYC 201214Z 18006KT 1 1/2SM BR BKN002 OVC014 M03/ RMK ST6SC2

CYYC;2007-01-20 13:00;CYYC 201300Z 17005KT 1 1/2SM BR OVC003 M03/M03 A2976 RMK ST8 SLP124

CYYC;2007-01-20 13:45;CYYC 201345Z 17006KT 3/4SM BR OVC002 M03/ RMK ST8 RVR RWY28 5000FT

CYYC;2007-01-20 13:52;CYYC 201352Z 17006KT 1/2SM FZFG OVC002 M03/ RMK ST8 RVR RWY28 4500FT

CYYC;2007-01-20 14:00;CYYC 201400Z 17006KT 1/2SM FZFG OVC002 M03/M03 A2975 RMK ST8 RVR RWY28 5500FT SLP120

CYYC;2007-01-20 14:34;CYYC 201434Z 18007KT 1SM BR OVC002 M03/ RMK ST8 RVR RWY16 5500FT

CYYC;2007-01-20 15:00;CYYC 201500Z 17007KT 1 1/4SM BR OVC002 M03/M03 A2976 RMK ST8 SLP123

CYYC;2007-01-20 16:00;CYYC 201600Z 18003KT 1 1/2SM BR OVC002 M03/M03 A2977 RMK ST8 SLP127

CYYC;2007-01-20 16:44;CYYC 201644Z 28005KT 2SM BR OVC004 M03/ RMK ST8

CYYC;2007-01-20 17:00;CYYC 201700Z 33002KT 3SM BR OVC004 M03/M03 A2979 RMK ST8 SLP133

CYYC;2007-01-20 17:24;CYYC 201724Z 31003KT 30SM FEW004 FEW090 BKN180 M03/ RMK ST2AC1AC3

CYYC;2007-01-20 18:00;CYYC 201800Z 01002KT 40SM FEW004 SCT080 BKN180 BKN220 M03/M03 A2982 RMK ST1AC2AC2CI0 SLP148

CYYC;2007-01-20 19:00;CYYC 201900Z 01014KT 30SM BKN009 BKN080 BKN220 M03/M04 A2984 RMK SC3AC2CI0 SLP154

CYYC;2007-01-20 20:00;CYYC 202000Z 03010KT 30SM FEW009 BKN083 BKN220 M01/M04 A2985 RMK SC1AC7CI1 SLP159

CYYC;2007-01-20 21:00;CYYC 202100Z 03012KT 30SM FEW009 FEW083 SCT220 M02/M05 A2987 RMK SC1AC2CI0 SLP166

CYYC;2007-01-20 22:00;CYYC 202200Z 02006KT 20SM FEW009 FEW083 FEW220 M03/M06 A2989 RMK SC1AC1CI0 SLP173

CYYC;2007-01-20 23:00;CYYC 202300Z 01010KT 20SM FEW009 FEW080 FEW190 M02/M06 A2992 RMK SC1AC1AC1 SLP183

CYYC;2007-01-21 00:00;CYYC 210000Z 34009KT 20SM FEW009 FEW080 FEW190 M04/M07 A2995 RMK SC1AC1AC1 SC + UPR AC LYRS TR SLP199

CYYC;2007-01-21 01:00;CYYC 210100Z 32011KT 15SM FEW040 FEW080 FEW180 M05/M08 A2999 RMK SC1AC1AC0 SLP209

CYYC;2007-01-21 02:00;CYYC 210200Z 33011KT 15SM BKN034 M05/M08 A3001 RMK SC2 SLP217

CYYC;2007-01-21 03:00;CYYC 210300Z 01011KT 15SM FEW025 BKN040 M04/M07 A3005 RMK SC1SC3 SLP234

CYYC;2007-01-21 04:00;CYYC 210400Z 32008KT 15SM FEW015 FEW040 FEW080 M07/M09 A3007 RMK ST1SC2AC1 SLP241

CYYC;2007-01-21 05:00;CYYC 210500Z 32007KT 15SM FEW040 M08/M10 A3008 RMK SC1 SLP244

CYYC;2007-01-21 06:00;CYYC 210600Z 25002KT 15SM FEW040 M07/M09 A3010 RMK SC1 SLP256

CYYC;2007-01-21 07:00;CYYC 210700Z 23005KT 15SM SKC M10/M11 A3012 RMK SLP261

CYYC;2007-01-21 08:00;CYYC 210800Z 00000KT 15SM SKC M11/M12 A3013 RMK SLP265

CYYC;2007-01-21 09:00;CYYC 210900Z 18003KT 15SM SKC M10/M11 A3014 RMK SLP270

CYYC;2007-01-21 10:00;CYYC 211000Z 20003KT 15SM SKC M10/M13 A3013 RMK SLP267

CYYC;2007-01-21 11:00;CYYC 211100Z 19005KT 15SM SKC M10/M13 A3011 RMK SLP262

CYYC;2007-01-21 12:00;CYYC 211200Z CCA 20007KT 15SM SKC M10/M13 A3010 RMK SNOW CVR/MUCH LOOSE SLP263

CYYC;2007-01-21 13:00;CYYC 211300Z 19006KT 15SM SKC M11/M13 A3009 RMK SLP260

CYYC;2007-01-21 14:00;CYYC 211400Z 21006KT 15SM SKC M12/M14 A3006 RMK SLP251

CYYC;2007-01-21 15:00;CYYC 211500Z 21005KT 40SM FEW240 BKN260 M12/M14 A3003 RMK CI1CI0 SLP239

CYYC;2007-01-21 16:00;CYYC 211600Z 20004KT 40SM BKN240 BKN260 M10/M14 A3002 RMK CI0CI0 SLP235

CYYC;2007-01-21 17:00;CYYC 211700Z 19006KT 40SM FEW180 SCT240 BKN260 M09/M13 A2999 RMK AC1CI2CI2 SLP227

CYYC;2007-01-21 18:00;CYYC 211800Z 21004KT 40SM BKN180 BKN240 M05/M11 A2996 RMK AC6CI1 SLP211

CYYC;2007-01-21 19:00;CYYC 211900Z 18006KT 40SM FEW160 BKN180 BKN240 M04/M12 A2994 RMK AC1AS7CI1 SLP203

CYYC;2007-01-21 20:00;CYYC 212000Z 21006KT 40SM BKN080 BKN180 OVC260 M03/M09 A2991 RMK AS6AS2CI1 SLP195

CYYC;2007-01-21 21:00;CYYC 212100Z 00000KT 40SM FEW080 BKN160 BKN260 01/M11 A2988 RMK AC1AC5CI1 AS ASOCTD SLP176

CYYC;2007-01-21 22:00;CYYC 212200Z 27014KT 40SM FEW080 BKN160 BKN220 03/M09 A2987 RMK AC1AC6CI0 SLP173

CYYC;2007-01-21 23:00;CYYC 212300Z 27017G24KT 40SM FEW080 BKN160 BKN220 03/M08 A2986 RMK AC1AC3CI0 SLP172

CYYC;2007-01-22 00:00;CYYC 220000Z 27017G25KT 40SM FEW080 FEW120 BKN180 BKN240 03/M08 A2986 RMK AC1AC1AC2CI0 SLP169

CYYC;2007-01-22 01:00;CYYC 220100Z 28020G25KT 30SM FEW080 FEW180 BKN260 02/M08 A2987 RMK AC1AC1CI0 SLP171

CYYC;2007-01-22 02:00;CYYC 220200Z 27017G22KT 15SM FEW180 SCT240 02/M08 A2987 RMK AC1CI0 SLP172

CYYC;2007-01-22 03:00;CYYC 220300Z 27017G22KT 15SM FEW075 FEW180 FEW240 02/M08 A2986 RMK AC1AC1CI0 SLP172

CYYC;2007-01-22 04:00;CYYC 220400Z 27017G22KT 15SM FEW080 02/M07 A2985 RMK AC1 SLP170

CYYC;2007-01-22 05:00;CYYC 220500Z 28014KT 15SM SKC 02/M07 A2985 RMK SLP167

CYYC;2007-01-22 06:00;CYYC 220600Z 26014KT 15SM FEW150 FEW240 02/M07 A2983 RMK AC1CI0 SLP150

CYYC;2007-01-22 07:00;CYYC 220700Z 26011KT 15SM FEW150 03/M07 A2982 RMK AC1 SLP148

CYYC;2007-01-22 08:00;CYYC 220800Z 25014KT 15SM FEW150 BKN210 03/M06 A2981 RMK AC1CI2 SLP144

CYYC;2007-01-22 09:00;CYYC 220900Z 27020G25KT 15SM FEW150 BKN210 04/M05 A2981 RMK AC1CI4 SLP130

CYYC;2007-01-22 10:00;CYYC 221000Z 27023G30KT 15SM FEW140 BKN210 05/M06 A2981 RMK AC2CI4 SLP130

CYYC;2007-01-22 11:00;CYYC 221100Z 27024G32KT 15SM FEW130 BKN210 04/M06 A2981 RMK AC2CI2 SLP131

CYYC;2007-01-22 12:00;CYYC 221200Z CCA 26019G28KT 15SM FEW130 FEW210 04/M07 A2978 RMK AC1CI0 SNOW CVR/MUCH LOOSE SLP119

CYYC;2007-01-22 13:00;CYYC 221300Z 27021G29KT 15SM FEW130 SCT210 04/M07 A2976 RMK AC1CI0 SLP113

CYYC;2007-01-22 14:00;CYYC 221400Z 28017G25KT 15SM FEW130 SCT210 05/M06 A2976 RMK AC1CI0 SLP114

CYYC;2007-01-22 15:00;CYYC 221500Z 27023G28KT 20SM BKN130 OVC240 05/M05 A2977 RMK AC5CI2 SLP114

CYYC;2007-01-22 16:00;CYYC 221600Z 28024G33KT 30SM FEW072 SCT090 OVC240 06/M05 A2978 RMK AC2AC2CI2 SLP119

CYYC;2007-01-22 16:36;CYYC 221636Z 29014G21KT 30SM -RA FEW043 SCT080 BKN240 05/ RMK SC2AC2CI2 RA VRY LGT

CYYC;2007-01-22 17:00;CYYC 221700Z 32010G22KT 40SM -RA FEW060 BKN089 BKN240 04/M01 A2982 RMK SC2AC4CI2 RA VRY LGT SLP130

CYYC;2007-01-22 17:26;CYYC 221726Z 20003KT 40SM SCT051 BKN085 03/ RMK SC4AC3 VIRGA W-N-E

CYYC;2007-01-22 18:00;CYYC 221800Z 00000KT 30SM SCT070 BKN082 05/M03 A2981 RMK AC3AC4 VIRGA N-E SLP130

CYYC;2007-01-22 19:00;CYYC 221900Z 26015KT 40SM FEW060 BKN084 BKN092 07/M04 A2978 RMK SC1AC5AC2 SC TR SLP119

CYYC;2007-01-22 20:00;CYYC 222000Z 28012KT 40SM FEW065 SCT090 BKN190 07/M03 A2977 RMK SC1AC4AC3 SLP116

CYYC;2007-01-22 21:00;CYYC 222100Z 27015KT 40SM FEW065 BKN170 BKN220 07/M04 A2975 RMK SC1AC6CI1 SLP101

CYYC;2007-01-22 22:00;CYYC 222200Z 27016KT 40SM FEW065 BKN170 BKN240 07/M04 A2974 RMK SC1AC3CI2 SLP099

CYYC;2007-01-22 23:00;CYYC 222300Z 27012G17KT 30SM FEW065 SCT130 OVC240 07/M04 A2976 RMK SC1AC2CI3 SC TR SLP104

CYYC;2007-01-23 00:00;CYYC 230000Z 28020KT 30SM FEW065 SCT140 OVC220 07/M05 A2976 RMK SC1AC2CI3 SC TR SLP107

CYYC;2007-01-23 01:00;CYYC 230100Z 28018G26KT 15SM FEW065 SCT090 BKN220 06/M06 A2979 RMK SC1AC3CI2 SLP115

CYYC;2007-01-23 02:00;CYYC 230200Z 28016KT 15SM FEW140 FEW240 06/M06 A2983 RMK AC1CI1 SLP126

CYYC;2007-01-23 03:00;CYYC 230300Z 27016KT 15SM FEW240 05/M06 A2983 RMK CI0 SLP131

CYYC;2007-01-23 04:00;CYYC 230400Z 24013KT 15SM BKN240 04/M06 A2985 RMK CI1 SLP139

CYYC;2007-01-23 05:00;CYYC 230500Z 28008KT 15SM BKN200 04/M06 A2988 RMK CI6 SLP146

CYYC;2007-01-23 06:00;CYYC 230600Z 28013G18KT 15SM BKN200 05/M06 A2987 RMK CI3 SLP148

CYYC;2007-01-23 07:00;CYYC 230700Z 27004KT 15SM BKN210 04/M06 A2988 RMK CI3 SLP151

CYYC;2007-01-23 08:00;CYYC 230800Z 29007KT 15SM BKN200 05/M06 A2990 RMK CI5 SLP155

CYYC;2007-01-23 09:00;CYYC 230900Z 28016KT 15SM OVC200 05/M06 A2992 RMK CI7 SLP161

CYYC;2007-01-23 10:00;CYYC 231000Z 27011G18KT 15SM OVC170 05/M06 A2997 RMK AC8 SLP176

CYYC;2007-01-23 11:00;CYYC 231100Z 27013KT 15SM OVC170 05/M06 A2999 RMK AC8 SLP180

CYYC;2007-01-23 12:00;CYYC 231200Z 26013KT 15SM OVC150 05/M06 A3000 RMK AC8 SNOW CVR/TRACE LOOSE SLP188

CYYC;2007-01-23 13:00;CYYC 231300Z 25009KT 15SM OVC150 05/M06 A2998 RMK AC8 SLP183

CYYC;2007-01-23 14:00;CYYC 231400Z 19002KT 15SM OVC160 04/M06 A2997 RMK AC7 SLP180

CYYC;2007-01-23 15:00;CYYC 231500Z 28005KT 20SM FEW080 BKN130 OVC220 05/M06 A2997 RMK AC1AC6CI1 SLP181

CYYC;2007-01-23 16:00;CYYC 231600Z 16005KT 40SM FEW085 BKN130 OVC220 04/M05 A2997 RMK AC1AC6CI1 SLP180

CYYC;2007-01-23 17:00;CYYC 231700Z 33006KT 20SM FEW090 OVC130 05/M04 A3001 RMK AC2AC6 VIRGA S-W-NE SLP193

CYYC;2007-01-23 18:00;CYYC 231800Z 27023G28KT 20SM FEW071 OVC090 05/00 A3002 RMK AC2AC6 SLP197

CYYC;2007-01-23 19:00;CYYC 231900Z 26019KT 25SM FEW065 BKN100 BKN220 05/01 A3002 RMK SC1AC4CI1 SLP198

CYYC;2007-01-23 20:00;CYYC 232000Z 28007KT 30SM FEW065 BKN140 BKN220 06/01 A3001 RMK SC1AC4CI1 SLP195

CYYC;2007-01-23 21:00;CYYC 232100Z 26008KT 40SM FEW065 SCT140 BKN230 08/01 A3001 RMK SC1AC2CI2 SC TR SLP190

CYYC;2007-01-23 22:00;CYYC 232200Z 27011KT 40SM FEW065 FEW140 FEW240 09/M02 A3002 RMK SC1AC1CI1 SC TR SLP192

CYYC;2007-01-23 23:00;CYYC 232300Z 27009KT 40SM FEW070 FEW140 FEW240 09/M03 A3002 RMK AC1AC1CI0 SLP193

CYYC;2007-01-24 00:00;CYYC 240000Z 31004KT 40SM FEW075 FEW140 FEW240 06/M03 A3002 RMK AC1AC0CI0 SLP197

CYYC;2007-01-24 01:00;CYYC 240100Z 21006KT 15SM FEW075 FEW140 FEW240 04/M03 A3005 RMK AC1AC0CI0 SLP206

CYYC;2007-01-24 02:00;CYYC 240200Z 15005KT 15SM FEW140 BKN250 01/M02 A3005 RMK AC1CI2 AC TR SLP205

CYYC;2007-01-24 03:00;CYYC 240300Z 16004KT 15SM BKN140 BKN250 01/M02 A3006 RMK AC2CI0 SLP219

CYYC;2007-01-24 04:00;CYYC 240400Z 17004KT 15SM BKN130 01/M01 A3006 RMK AC4 SLP217

CYYC;2007-01-24 05:00;CYYC 240500Z 00000KT 15SM BKN110 00/M02 A3006 RMK AC6 SLP217

CYYC;2007-01-24 06:00;CYYC 240600Z 17003KT 15SM BKN120 01/M02 A3005 RMK AC2 SLP215

CYYC;2007-01-24 07:00;CYYC 240700Z 16006KT 15SM BKN096 02/M01 A3004 RMK AC6 SLP211

CYYC;2007-01-24 08:00;CYYC 240800Z 18003KT 15SM OVC110 04/M02 A3004 RMK AC7 SLP210

CYYC;2007-01-24 09:00;CYYC 240900Z 18002KT 15SM OVC130 03/M02 A3003 RMK AC6 SLP199

CYYC;2007-01-24 10:00;CYYC 241000Z 22006KT 15SM BKN150 04/M02 A3003 RMK AC2 SLP200

CYYC;2007-01-24 11:00;CYYC 241100Z 22005KT 15SM BKN240 03/M03 A3003 RMK CI2 SLP200

CYYC;2007-01-24 12:00;CYYC 241200Z 22009KT 15SM SCT160 BKN260 04/M02 A3002 RMK AC2CI0 SLP198

CYYC;2007-01-24 13:00;CYYC 241300Z 22003KT 15SM FEW150 BKN230 05/M02 A3003 RMK AC1CI7 SLP199

CYYC;2007-01-24 14:00;CYYC 241400Z 19007KT 15SM FEW150 BKN210 05/M01 A3004 RMK AC1CI7 SLP203

CYYC;2007-01-24 15:00;CYYC 241500Z 22009KT 20SM FEW150 BKN210 06/M01 A3004 RMK AC2CI4 SLP210

CYYC;2007-01-24 16:00;CYYC 241600Z 21007KT 30SM FEW140 BKN210 07/M02 A3003 RMK AC2CI5 SLP207

CYYC;2007-01-24 17:00;CYYC 241700Z 24010G16KT 40SM FEW160 BKN210 09/M03 A3003 RMK AC2CI4 SLP206

CYYC;2007-01-24 18:00;CYYC 241800Z CCA 26018KT 40SM FEW065 FEW160 BKN220 10/M03 A3003 RMK SC1AC2CI5 SC TR SLP199

CYYC;2007-01-24 19:00;CYYC 241900Z CCA 27022G30KT 40SM FEW065 FEW180 BKN220 11/M03 A3003 RMK SC1AC2CI6 WND DCTN ESTD SLP201

CYYC;2007-01-24 20:00;CYYC 242000Z CCA 28024G31KT 40SM FEW065 FEW180 BKN230 11/M03 A3003 RMK SC1AC1CI6 SLP200

CYYC;2007-01-24 21:00;CYYC 242100Z 27025G35KT 40SM FEW065 FEW180 OVC220 11/M03 A3002 RMK SC1AC2CI6 SLP193

CYYC;2007-01-24 22:00;CYYC 242200Z 27025G33KT 40SM FEW090 BKN180 BKN240 11/M03 A3003 RMK AC1AC5CI2 SLP196

CYYC;2007-01-24 23:00;CYYC 242300Z 27017G27KT 40SM FEW090 BKN160 OVC240 10/M03 A3005 RMK AC2AC3CI2 SLP202

CYYC;2007-01-25 00:00;CYYC 250000Z 28024G30KT 40SM FEW090 BKN190 OVC240 11/M04 A3005 RMK AC1AC4CI2 SLP201

CYYC;2007-01-25 01:00;CYYC 250100Z 28021G26KT 20SM BKN190 OVC240 10/M04 A3005 RMK AC5CI2 SLP201

CYYC;2007-01-25 02:00;CYYC 250200Z 28016G22KT 15SM BKN150 OVC220 10/M05 A3005 RMK AC6CI2 SLP200

CYYC;2007-01-25 03:00;CYYC 250300Z 10003KT 15SM OVC140 10/M05 A3005 RMK AC8 SLP200

CYYC;2007-01-25 04:00;CYYC 250400Z 26010KT 15SM OVC170 10/M06 A3004 RMK AC7 SLP196

CYYC;2007-01-25 05:00;CYYC 250500Z 24007KT 15SM SCT160 OVC210 08/M05 A3001 RMK AC4CI3 SLP188

CYYC;2007-01-25 06:00;CYYC 250600Z 26006KT 15SM BKN160 OVC210 06/M05 A2999 RMK AC5CI2 SLP179

CYYC;2007-01-25 07:00;CYYC 250700Z 22007KT 15SM OVC170 05/M04 A2997 RMK AC7 SLP174

CYYC;2007-01-25 08:00;CYYC 250800Z 19007KT 15SM BKN150 04/M04 A2993 RMK AC6 SLP161

CYYC;2007-01-25 09:00;CYYC 250900Z 20009KT 15SM SCT200 02/M05 A2991 RMK CI2 SLP155

CYYC;2007-01-25 10:00;CYYC 251000Z 24003KT 15SM SCT160 03/M06 A2990 RMK AC3 SLP154

CYYC;2007-01-25 11:00;CYYC 251100Z 21002KT 15SM FEW170 02/M07 A2989 RMK AC1 SLP151

CYYC;2007-01-25 12:00;CYYC 251200Z 28003KT 15SM SKC 04/M08 A2988 RMK SLP142

CYYC;2007-01-25 13:00;CYYC 251300Z 00000KT 15SM SKC 01/M07 A2987 RMK SLP139

CYYC;2007-01-25 14:00;CYYC 251400Z 00000KT 15SM SKC M02/M07 A2985 RMK SLP135

CYYC;2007-01-25 15:00;CYYC 251500Z 00000KT 30SM FEW090 01/M07 A2984 RMK AC2 SLP135

CYYC;2007-01-25 16:00;CYYC 251600Z CCA 28003KT 40SM FEW100 FEW250 01/M07 A2985 RMK AC1CI1 CI TR SLP138

CYYC;2007-01-25 17:00;CYYC 251700Z 21002KT 40SM FEW100 FEW250 06/M04 A2985 RMK AC1CI0 AC TR SLP138

CYYC;2007-01-25 18:00;CYYC 251800Z 19007KT 40SM FEW100 SCT260 08/M06 A2983 RMK AC1CI0 SLP126

CYYC;2007-01-25 19:00;CYYC 251900Z 29012KT 40SM FEW120 FEW260 12/M10 A2982 RMK AC1CI0 AC TR SLP122

CYYC;2007-01-25 20:00;CYYC 252000Z 21010G19KT 40SM FEW140 FEW260 13/M10 A2980 RMK AC1CI1 BOTH CLDS TR SLP115

CYYC;2007-01-25 21:00;CYYC 252100Z 27022G30KT 40SM FEW080 FEW260 13/M11 A2979 RMK CU1CI0 CU TR SLP112

CYYC;2007-01-25 22:00;CYYC 252200Z 28016G22KT 40SM FEW080 FEW260 11/M11 A2981 RMK CU1CI0 CU TR SLP118

CYYC;2007-01-25 23:00;CYYC 252300Z 26023G28KT 40SM FEW080 FEW260 10/M11 A2980 RMK CU1CI0 CU TR SLP113

CYYC;2007-01-26 00:00;CYYC 260000Z CCA 26021KT 40SM FEW100 09/M10 A2978 RMK AC1 SLP110

CYYC;2007-01-26 01:00;CYYC 260100Z 28012KT 30SM FEW080 06/M08 A2982 RMK AC1 AC TR SLP123

CYYC;2007-01-26 02:00;CYYC 260200Z 32009KT 15SM FEW080 FEW230 05/M09 A2985 RMK AC1CI1 CLDS TR SLP133

CYYC;2007-01-26 02:35;CYYC 260235Z 02018G28KT 15SM SKC 01/ RMK WSHFT 0219

CYYC;2007-01-26 02:55;CYYC 260255Z 10015G21KT 15SM SKC 00/ RMK WSHFT 0240

CYYC;2007-01-26 03:00;CYYC 260300Z CCA 01009G20KT 15SM SKC 00/M04 A2996 RMK PRESRR SLP192

CYYC;2007-01-26 04:00;CYYC 260400Z 35015KT 15SM SKC M02/M06 A3001 RMK SLP205

CYYC;2007-01-26 05:00;CYYC 260500Z 36009KT 15SM SKC M02/M04 A3005 RMK SLP218

CYYC;2007-01-26 06:00;CYYC 260600Z 34008KT 15SM FEW012 M05/M08 A3007 RMK CF1 SLP227

CYYC;2007-01-26 07:00;CYYC 260700Z 36007KT 15SM OVC048 M04/M09 A3010 RMK SC7 SLP234

CYYC;2007-01-26 08:00;CYYC 260800Z 30004KT 15SM OVC046 M03/M09 A3012 RMK SC8 SLP240

CYYC;2007-01-26 09:00;CYYC 260900Z 33005KT 15SM OVC046 M03/M09 A3012 RMK SC8 SLP235

CYYC;2007-01-26 10:00;CYYC 261000Z 34004KT 15SM OVC050 M03/M11 A3015 RMK SC8 SLP242

CYYC;2007-01-26 11:00;CYYC 261100Z 36008KT 15SM OVC045 M03/M11 A3015 RMK SC7 SLP242

CYYC;2007-01-26 12:00;CYYC 261200Z 35011KT 15SM BKN045 M03/M12 A3014 RMK SC7 SLP247

CYYC;2007-01-26 13:00;CYYC 261300Z 34007KT 15SM BKN040 M06/M12 A3014 RMK SC6 SLP248

CYYC;2007-01-26 14:00;CYYC 261400Z 30010KT 15SM BKN040 M05/M12 A3014 RMK SC5 SLP247

CYYC;2007-01-26 15:00;CYYC 261500Z 28007KT 30SM FEW060 M07/M13 A3015 RMK SC2 SLP268

CYYC;2007-01-26 16:00;CYYC 261600Z 30012G21KT 20SM FEW060 FEW080 M04/M16 A3016 RMK SC1AC1 SLP271

CYYC;2007-01-26 17:00;CYYC 261700Z 31011KT 30SM FEW060 FEW090 M03/M18 A3017 RMK SC1AC1 BOTH CLDS TR SLP273

CYYC;2007-01-26 18:00;CYYC 261800Z 32017G24KT 40SM FEW065 M02/M19 A3018 RMK SC1 SC TR SLP278

CYYC;2007-01-26 19:00;CYYC 261900Z 34012G17KT 40SM FEW070 M02/M17 A3017 RMK CU1 CU TR SLP275

CYYC;2007-01-26 20:00;CYYC 262000Z 34012KT 40SM FEW070 M00/M17 A3016 RMK AC1 AC TR SLP272

CYYC;2007-01-26 21:00;CYYC 262100Z 34019G26KT 40SM FEW080 M00/M17 A3015 RMK AC1 SLP263

CYYC;2007-01-26 22:00;CYYC 262200Z 35021KT 40SM FEW080 M01/M16 A3017 RMK AC1 AC TR SLP269

CYYC;2007-01-26 23:00;CYYC 262300Z 35016G22KT 30SM FEW080 M02/M16 A3019 RMK AC1 AC TR SLP274

CYYC;2007-01-27 00:00;CYYC 270000Z CCA 01015G20KT 30SM FEW080 M04/M16 A3023 RMK AC1 AC TR SLP296

CYYC;2007-01-27 01:00;CYYC 270100Z 04011KT 20SM FEW080 M07/M14 A3027 RMK AC1 AC TR SLP308

CYYC;2007-01-27 02:00;CYYC 270200Z 03007KT 15SM SKC M09/M14 A3030 RMK SLP318

CYYC;2007-01-27 03:00;CYYC 270300Z 32004KT 15SM FEW230 M10/M15 A3033 RMK CI1 SLP344

CYYC;2007-01-27 04:00;CYYC 270400Z 03002KT 15SM SKC M11/M15 A3035 RMK SLP351

CYYC;2007-01-27 05:00;CYYC 270500Z 00000KT 15SM SKC M11/M14 A3037 RMK SLP356

CYYC;2007-01-27 06:00;CYYC 270600Z 16002KT 15SM SKC M11/M14 A3037 RMK SLP352

CYYC;2007-01-27 07:00;CYYC 270700Z 00000KT 15SM SKC M11/M14 A3035 RMK SLP347

CYYC;2007-01-27 08:00;CYYC 270800Z 14006KT 15SM FEW230 M12/M14 A3034 RMK CI1 SLP344

CYYC;2007-01-27 09:00;CYYC 270900Z 17005KT 15SM FEW230 M13/M15 A3032 RMK CI1 SLP337

CYYC;2007-01-27 10:00;CYYC 271000Z 19007KT 15SM FEW230 M13/M15 A3030 RMK CI1 SLP329

CYYC;2007-01-27 11:00;CYYC 271100Z 21006KT 15SM FEW230 M13/M15 A3027 RMK CI1 SLP320

CYYC;2007-01-27 12:00;CYYC 271200Z 21006KT 15SM SKC M13/M16 A3026 RMK SLP321

CYYC;2007-01-27 13:00;CYYC 271300Z 18004KT 15SM SKC M13/M16 A3024 RMK SLP316

CYYC;2007-01-27 14:00;CYYC 271400Z 19007KT 15SM SKC M13/M16 A3023 RMK SLP312

CYYC;2007-01-27 15:00;CYYC 271500Z 21007KT 40SM FEW140 M14/M16 A3022 RMK AC1 SLP315

CYYC;2007-01-27 16:00;CYYC 271600Z 20007KT 40SM FEW120 FEW230 M12/M15 A3020 RMK AC1CI1 SLP311

CYYC;2007-01-27 17:00;CYYC 271700Z 20006KT 40SM FEW120 FEW230 M08/M13 A3018 RMK AC2CI1 SLP303

CYYC;2007-01-27 18:00;CYYC 271800Z 21008KT 40SM SCT200 M05/M14 A3014 RMK CI2 SLP279

CYYC;2007-01-27 19:00;CYYC 271900Z 20006KT 40SM FEW130 FEW210 M02/M13 A3011 RMK AC1CI0 SLP269

CYYC;2007-01-27 20:00;CYYC 272000Z 22009KT 40SM BKN150 BKN240 01/M13 A3008 RMK AC6CI1 SLP261

CYYC;2007-01-27 21:00;CYYC 272100Z 22005KT 40SM FEW110 BKN160 BKN230 03/M13 A3008 RMK AC2AC2CI1 SLP247

CYYC;2007-01-27 22:00;CYYC 272200Z 22007KT 40SM FEW130 BKN170 04/M13 A3006 RMK AC2AC5 SLP243

CYYC;2007-01-27 23:00;CYYC 272300Z 21006KT 40SM FEW130 BKN170 04/M11 A3006 RMK AC1AC6 SLP241

CYYC;2007-01-28 00:00;CYYC 280000Z 22007KT 40SM FEW130 SCT170 BKN260 01/M13 A3005 RMK AC1AC2CI1 SLP239

CYYC;2007-01-28 01:00;CYYC 280100Z 22004KT 40SM FEW170 BKN240 01/M14 A3004 RMK AC2CI0 SLP237

CYYC;2007-01-28 02:00;CYYC 280200Z 00000KT 15SM FEW170 BKN240 02/M14 A3002 RMK AC1CI0 SLP230

CYYC;2007-01-28 03:00;CYYC 280300Z 00000KT 15SM FEW150 BKN240 03/M14 A3000 RMK AC1CI0 SLP220

CYYC;2007-01-28 04:00;CYYC 280400Z 35005KT 15SM BKN180 BKN210 M01/M13 A3000 RMK AC5CI1 SLP221

CYYC;2007-01-28 05:00;CYYC 280500Z 31006KT 15SM BKN180 OVC210 01/M12 A3001 RMK AC6CI1 SLP223

CYYC;2007-01-28 06:00;CYYC 280600Z 32007KT 15SM FEW180 SCT240 01/M13 A3002 RMK AC2CI0 SLP218

CYYC;2007-01-28 07:00;CYYC 280700Z 33009KT 15SM FEW180 BKN240 M01/M12 A3004 RMK AC1CI2 SLP223

CYYC;2007-01-28 08:00;CYYC 280800Z 34012KT 15SM FEW180 BKN240 M01/M12 A3006 RMK AC2CI2 SLP232

CYYC;2007-01-28 09:00;CYYC 280900Z 32009KT 15SM FEW180 FEW240 M02/M13 A3010 RMK AC1CI0 SLP240

CYYC;2007-01-28 10:00;CYYC 281000Z 33015KT 15SM FEW180 FEW240 M01/M14 A3012 RMK AC1CI0 SLP247

CYYC;2007-01-28 11:00;CYYC 281100Z 34016G21KT 15SM BKN120 BKN180 BKN240 M01/M13 A3015 RMK AC4AC2CI0 SLP255

CYYC;2007-01-28 12:00;CYYC 281200Z 34012KT 15SM FEW120 SCT240 M02/M12 A3017 RMK AC2CI0 SLP267

CYYC;2007-01-28 13:00;CYYC 281300Z 33010KT 15SM FEW120 SCT240 M03/M12 A3019 RMK AC2CI0 SLP271

CYYC;2007-01-28 14:00;CYYC 281400Z 32010KT 15SM FEW120 FEW240 M03/M12 A3019 RMK AC1CI1 SLP273

CYYC;2007-01-28 15:00;CYYC 281500Z 33012KT 40SM FEW120 M03/M12 A3020 RMK AC1 SLP275

CYYC;2007-01-28 16:00;CYYC 281600Z 32007KT 40SM SKC M04/M12 A3022 RMK SLP283

CYYC;2007-01-28 17:00;CYYC 281700Z 30004KT 40SM SKC M02/M12 A3023 RMK SLP286

CYYC;2007-01-28 18:00;CYYC 281800Z 35015KT 40SM FEW170 01/M12 A3025 RMK AC1 SLP291

CYYC;2007-01-28 19:00;CYYC 281900Z 35015G20KT 40SM FEW140 01/M12 A3026 RMK AC1 SLP293

CYYC;2007-01-28 20:00;CYYC 282000Z 35022KT 40SM FEW090 FEW220 01/M12 A3025 RMK AC1CI1 SLP290

CYYC;2007-01-28 21:00;CYYC 282100Z 35017G25KT 40SM FEW100 FEW220 02/M12 A3023 RMK AC1CI1 SLP286

CYYC;2007-01-28 22:00;CYYC 282200Z 01017KT 40SM FEW180 FEW250 01/M11 A3023 RMK AC1CI1 SLP287

CYYC;2007-01-28 23:00;CYYC 282300Z 01013KT 40SM FEW250 01/M11 A3023 RMK CI1 SLP287

CYYC;2007-01-29 00:00;CYYC 290000Z 35009KT 40SM FEW180 FEW250 M02/M11 A3025 RMK AC1CI0 SLP297

CYYC;2007-01-29 01:00;CYYC 290100Z 34007KT 40SM FEW180 FEW230 M06/M12 A3025 RMK AC1CI1 SLP297

CYYC;2007-01-29 02:00;CYYC 290200Z 32006KT 15SM SKC M06/M12 A3026 RMK SLP301

CYYC;2007-01-29 03:00;CYYC 290300Z 31007KT 15SM FEW240 M07/M12 A3027 RMK CI0 SLP315

CYYC;2007-01-29 04:00;CYYC 290400Z 32009KT 15SM FEW240 M07/M11 A3027 RMK CI0 SLP317

CYYC;2007-01-29 05:00;CYYC 290500Z 32005KT 15SM SKC M09/M12 A3029 RMK SLP321

CYYC;2007-01-29 06:00;CYYC 290600Z 31004KT 15SM SKC M08/M12 A3029 RMK SLP318

CYYC;2007-01-29 07:00;CYYC 290700Z 32009KT 15SM FEW210 M09/M13 A3030 RMK CI1 SLP320

CYYC;2007-01-29 08:00;CYYC 290800Z 32007KT 15SM BKN220 M09/M13 A3029 RMK CI4 SLP318

CYYC;2007-01-29 09:00;CYYC 290900Z 00000KT 15SM BKN220 M10/M13 A3029 RMK CI3 SLP319

CYYC;2007-01-29 10:00;CYYC 291000Z 04003KT 15SM FEW220 M11/M14 A3029 RMK CI1 SLP318

CYYC;2007-01-29 11:00;CYYC 291100Z 21004KT 15SM FEW170 FEW220 M11/M14 A3027 RMK AC1CI0 SLP314

CYYC;2007-01-29 12:00;CYYC 291200Z 20003KT 15SM FEW170 FEW220 M11/M13 A3026 RMK AC1CI0 SLP314

CYYC;2007-01-29 13:00;CYYC 291300Z 22002KT 15SM BKN150 M11/M13 A3023 RMK AC6 SLP306

CYYC;2007-01-29 14:00;CYYC 291400Z 00000KT 15SM OVC150 M10/M13 A3022 RMK AC7 SLP303

CYYC;2007-01-29 15:00;CYYC 291500Z 19003KT 25SM OVC150 M10/M13 A3022 RMK AC7 SLP306

CYYC;2007-01-29 16:00;CYYC 291600Z 17006KT 30SM OVC110 M08/M11 A3022 RMK AC7 SLP306

CYYC;2007-01-29 17:00;CYYC 291700Z 15006KT 20SM BKN120 OVC210 M07/M10 A3022 RMK AC6CI2 HZ SLP308

CYYC;2007-01-29 18:00;CYYC 291800Z 16007KT 20SM BKN120 OVC210 M06/M10 A3023 RMK AC5CI2 HZ SLP305

CYYC;2007-01-29 19:00;CYYC 291900Z 16007KT 30SM BKN120 BKN240 M05/M10 A3023 RMK AC5CI1 HZ W SLP306

CYYC;2007-01-29 20:00;CYYC 292000Z CCA 19008KT 20SM FEW130 BKN240 M04/M10 A3024 RMK AC2CI1 HZ S-W SLP307

CYYC;2007-01-29 21:00;CYYC 292100Z 16008KT 20SM FEW130 BKN250 M04/M10 A3023 RMK AC2CI1 SLP305

CYYC;2007-01-29 22:00;CYYC 292200Z 17010KT 20SM FEW130 FEW250 M03/M09 A3023 RMK AC1CI0 SLP306

CYYC;2007-01-29 23:00;CYYC 292300Z 20011KT 20SM FEW130 FEW250 M03/M09 A3022 RMK AC1CI1 SLP303

CYYC;2007-01-30 00:00;CYYC 300000Z 19008KT 20SM FEW150 M05/M10 A3022 RMK AC1 AC TR SLP304

CYYC;2007-01-30 01:00;CYYC 300100Z 18008KT 20SM FEW150 M06/M09 A3022 RMK AC1 AC TR SLP305

CYYC;2007-01-30 02:00;CYYC 300200Z 19007KT 15SM SKC M08/M10 A3021 RMK SLP302

CYYC;2007-01-30 03:00;CYYC 300300Z CCA 19007KT 15SM SKC M09/M11 A3020 RMK SLP302

CYYC;2007-01-30 04:00;CYYC 300400Z 19005KT 15SM SKC M09/M11 A3020 RMK SLP301

CYYC;2007-01-30 05:00;CYYC 300500Z 21009KT 15SM SKC M08/M10 A3017 RMK SLP293

CYYC;2007-01-30 06:00;CYYC 300600Z 21009KT 15SM SKC M08/M10 A3015 RMK SLP277

CYYC;2007-01-30 07:00;CYYC 300700Z 21006KT 15SM SKC M09/M11 A3013 RMK SLP273

CYYC;2007-01-30 08:00;CYYC 300800Z 00000KT 15SM SKC M08/M11 A3013 RMK SLP272

CYYC;2007-01-30 09:00;CYYC 300900Z 00000KT 15SM BKN070 M08/M11 A3012 RMK AC6 SLP266

CYYC;2007-01-30 10:00;CYYC 301000Z 00000KT 15SM OVC055 M08/M11 A3012 RMK SC7 SLP266

CYYC;2007-01-30 12:00;CYYC 301200Z 31011KT 15SM SCT055 OVC075 M01/M07 A3012 RMK SC3AC5 SLP256

CYYC;2007-01-30 13:00;CYYC 301300Z 33015G22KT 15SM BKN055 OVC080 M00/M07 A3010 RMK SC4AC4 SLP250

CYYC;2007-01-30 14:00;CYYC 301400Z 32013G22KT 15SM BKN060 OVC080 M01/M08 A3009 RMK SC5AC3 SLP248

CYYC;2007-01-30 15:00;CYYC 301500Z 34014KT 25SM BKN050 OVC080 M01/M07 A3010 RMK SC6AC2 SLP255

CYYC;2007-01-30 15:45;CYYC 301545Z CCA 35012G17KT 25SM -SN BKN045 OVC080 M01/ RMK SC7AC1

CYYC;2007-01-30 16:00;CYYC 301600Z 34014G20KT 20SM -SN OVC050 M01/M07 A3012 RMK SC8 SLP261

CYYC;2007-01-30 16:40;CYYC 301640Z 32018KT 20SM OVC065 M00/ RMK SC7

CYYC;2007-01-30 17:00;CYYC 301700Z 33018KT 25SM -SN OVC073 M00/M08 A3011 RMK AC7 SN VRY LGT SLP257

CYYC;2007-01-30 17:10;CYYC 301710Z 33016KT 25SM OVC071 M00/ RMK AC8

CYYC;2007-01-30 18:00;CYYC 301800Z 33023KT 30SM FEW050 BKN072 00/M08 A3010 RMK SC1AC6 SLP253

CYYC;2007-01-30 19:00;CYYC 301900Z 33018G28KT 30SM FEW040 BKN070 02/M07 A3009 RMK CU1AC4 SLP248

CYYC;2007-01-30 20:00;CYYC 302000Z 32028G37KT 40SM FEW040 SCT070 02/M09 A3006 RMK CU1AC2 SLP239

CYYC;2007-01-30 21:00;CYYC 302100Z 34027G40KT 40SM FEW050 SCT060 03/M10 A3004 RMK CU1SC2 SLP228

CYYC;2007-01-30 22:00;CYYC 302200Z 34035G40KT 30SM FEW050 SCT065 02/M11 A3004 RMK CU2SC2 SLP227

CYYC;2007-01-30 23:00;CYYC 302300Z 34031G38KT 30SM FEW050 SCT065 01/M11 A3005 RMK CU2SC2 SLP230

CYYC;2007-01-31 00:00;CYYC 310000Z 35025G32KT 20SM FEW040 BKN062 M00/M10 A3007 RMK CU2SC3 SLP231

CYYC;2007-01-31 01:00;CYYC 310100Z 35026G32KT 20SM BKN052 BKN090 M01/M10 A3009 RMK SC6AC1 SLP239

CYYC;2007-01-31 02:00;CYYC 310200Z 02017KT 15SM OVC048 M03/M10 A3013 RMK SC8 SLP249

CYYC;2007-01-31 03:00;CYYC 310300Z 01023G30KT 15SM OVC042 M03/M10 A3016 RMK SC8 SLP268

CYYC;2007-01-31 03:56;CYYC 310356Z 02016G22KT 12SM -SN DRSN SCT013 OVC037 M06/ RMK SC3SC5

CYYC;2007-01-31 04:00;CYYC 310400Z 01016G23KT 12SM -SN DRSN SCT013 OVC043 M06/M09 A3019 RMK SC3SC5 SLP276

CYYC;2007-01-31 05:00;CYYC 310500Z 36012G17KT 7SM -SN DRSN BKN011 OVC045 M07/M09 A3022 RMK SC4SC4 SLP285

CYYC;2007-01-31 06:00;CYYC 310600Z 35010KT 7SM -SN DRSN SCT011 OVC045 M08/M09 A3022 RMK SC2SC6 SLP294

CYYC;2007-01-31 07:00;CYYC 310700Z 34006KT 15SM -SN BKN012 OVC040 M07/M09 A3022 RMK SC4SC3 SLP292

CYYC;2007-01-31 08:00;CYYC 310800Z 36005KT 15SM FEW012 OVC035 M08/M10 A3018 RMK SC2SC6 SLP281

CYYC;2007-01-31 09:00;CYYC 310900Z 00000KT 15SM FEW012 FEW035 M09/M10 A3016 RMK SC1SC1 SLP269

CYYC;2007-01-31 10:00;CYYC 311000Z 20005KT 15SM FEW012 FEW035 M10/M11 A3013 RMK SC1SC1 SLP261

CYYC;2007-01-31 11:00;CYYC 311100Z 21005KT 15SM BKN140 M09/M11 A3010 RMK AC6 SLP253

CYYC;2007-01-31 12:00;CYYC 311200Z 20007KT 15SM BKN140 M10/M11 A3005 RMK AC6 SLP238

CYYC;2007-01-31 13:00;CYYC 311300Z 21006KT 15SM BKN150 BKN210 M11/M12 A3003 RMK AC5CI1 SLP231

CYYC;2007-01-31 14:00;CYYC 311400Z 23007KT 15SM OVC140 M08/M10 A2998 RMK AC8 SLP216

CYYC;2007-01-31 15:00;CYYC 311500Z 21007KT 20SM BKN120 M09/M10 A2994 RMK AC7 SLP202

CYYC;2007-01-31 16:00;CYYC 311600Z 26004KT 40SM OVC120 M08/M10 A2993 RMK AC8 SLP200

CYYC;2007-01-31 17:00;CYYC 311700Z 00000KT 40SM OVC110 M06/M10 A2992 RMK AC8 SLP195

CYYC;2007-01-31 18:00;CYYC 311800Z 22004KT 40SM OVC045 M05/M10 A2991 RMK SC8 VIRG SE+SW SLP194

CYYC;2007-01-31 18:39;CYYC 311839Z CCA 34016G30KT 1 3/4SM -SN VV008 M04/ RMK SN8

CYYC;2007-01-31 19:00;CYYC 311900Z 35013G18KT 1 1/4SM -SN VV008 M04/M06 A2992 RMK SN8 VIS VRB 1-11/2 SLP196

CYYC;2007-01-31 19:05;CYYC 311905Z 34014KT 1 3/4SM -SN OVC015 M04/ RMK SN5SC3

CYYC;2007-01-31 19:27;CYYC 311927Z 33010KT 3SM -SN OVC012 M04/ RMK SC8 PCPN VRY LGT

CYYC;2007-01-31 19:34;CYYC 311934Z 33008KT 3SM -SN FEW008 OVC020 M04/ RMK SC2SC4 PCPN VRY LGT

CYYC;2007-01-31 20:00;CYYC 312000Z 34011KT 6SM -SN FEW015 BKN020 OVC090 M02/M05 A2989 RMK SC1SC6AC1 PCPN VRY LGT SLP188

CYYC;2007-01-31 20:14;CYYC 312014Z 34015KT 1 3/4SM -SN FEW010 BKN020 OVC060 M02/ RMK SC2SC5SC1

CYYC;2007-01-31 20:37;CYYC 312037Z 35015KT 4SM -SN FEW009 OVC020 M02/ RMK SC2SC6

CYYC;2007-01-31 20:43;CYYC 312043Z 35018G24KT 2 1/2SM -SN FEW011 BKN020 OVC040 M02/ RMK SC1SC6SC2 VIS VRB 2-3

CYYC;2007-01-31 21:00;CYYC 312100Z 35020G26KT 2 1/2SM -SN FEW009 SCT020 OVC060 M02/M04 A2989 RMK SC2SC2SC4 VIS VRB 2-3 SLP182

CYYC;2007-01-31 21:09;CYYC 312109Z 34028G33KT 6SM -SN BLSN FEW025 OVC060 M02/ RMK SC2SC6 VIS SW 2

CYYC;2007-01-31 22:00;CYYC 312200Z 35026G32KT 4SM -SN FEW020 BKN040 OVC060 M03/M06 A2990 RMK SC2SC3SC2 VIS VRB 3-5 SLP187

CYYC;2007-01-31 22:06;CYYC 312206Z 34022G33KT 1 3/4SM -SN BLSN OVC040 M03/ RMK SN3SC5 VIS VRB 11/2-2

CYYC;2007-01-31 23:00;CYYC 312300Z 35026G31KT 1 3/4SM -SN FEW016 OVC030 M03/M06 A2993 RMK SC2SC6 VIS VRB 11/2-2 SLP195

CYYC;2007-01-31 23:20;CYYC 312320Z CCB 34025G30KT 1SM -SN BLSN FEW011 OVC028 M04/ RMK SC2SC6 RVR RWY16 6000 FT

CYYC;2007-01-31 23:48;CYYC 312348Z 35017G26KT 2SM -SN BKN010 OVC060 M04/ RMK SC7SC1

CYYC;2007-02-01 01:00;CYYC 010100Z 34025G33KT 2SM -SN FEW015 BKN050 OVC090 M04/M07 A2997 RMK SC2SC2AC3 VIS VRB 1-3 SLP217

CYYC;2007-02-01 02:00;CYYC 010200Z 35025G32KT 2SM -SN FEW016 BKN070 OVC090 M04/M07 A2997 RMK SC2AC2AC3 VIS VRB 1-3 SLP216

CYYC;2007-02-01 03:00;CYYC 010300Z 34018G28KT 2SM -SN DRSN BKN020 OVC096 M05/M07 A2997 RMK SN1SC6AC1 SLP215

CYYC;2007-02-01 04:00;CYYC 010400Z 34021G27KT 6SM -SN DRSN BKN085 OVC120 M05/M08 A2998 RMK AC6AC2 SLP217

CYYC;2007-02-01 05:00;CYYC 010500Z 34022G35KT 5SM -SN DRSN FEW050 OVC095 M05/M08 A2998 RMK SC2AC6 SLP219

CYYC;2007-02-01 06:00;CYYC 010600Z 34020G25KT 2SM -SN DRSN BKN011 OVC029 M05/M07 A2999 RMK SN2SC5SC2 /S02/ SLP216

CYYC;2007-02-01 06:49;CYYC 010649Z 35023G32KT 0SM SN +BLSN VV008 M05/ RMK SN8 RVR RWY34 3000 FT

CYYC;2007-02-01 07:00;CYYC 010700Z 35029G39KT 1/8SM SN +BLSN VV007 M06/M08 A2999 RMK SN8 RVR RWY34 2600 FT SLP217

CYYC;2007-02-01 07:05;CYYC 010705Z 35024G38KT 1/2SM -SN BLSN VV007 M06/ RESN RMK SN8 RVR RWY34 5000 FT

CYYC;2007-02-01 07:17;CYYC 010717Z CCA 36021G28KT 3/8SM -SN BLSN VV003 M06/ RESN RMK SN8 RVR RWY34 2000 FT

CYYC;2007-02-01 07:54;CYYC 010754Z 36024G31KT 1/4SM -SN +BLSN VV010 M07/ RESN RMK SN8 RVR RWY34 4000 FT

CYYC;2007-02-01 08:00;CYYC 010800Z 36026G31KT 3/8SM -SN BLSN VV010 M07/M09 A3001 RESN RMK SN8 RVR RWY34 6000 FT SLP222

CYYC;2007-02-01 08:28;CYYC 010828Z 36021G26KT 3/8SM -SN BLSN VV007 M08/ RMK SN8 RVR RWY34 3000 FT

CYYC;2007-02-01 08:39;CYYC 010839Z 36020G26KT 1/4SM -SN +BLSN VV003 M08/ RMK SN8 RVR RWY28 1400 FT

CYYC;2007-02-01 09:00;CYYC 010900Z 36022G27KT 1/8SM -SN +BLSN VV006 M08/M09 A3003 RMK SN8 RVR RWY34 3500 FT/ CIG VRBL 3-9 SLP230

CYYC;2007-02-01 09:54;CYYC 010954Z 04016KT 1/2SM -SN BLSN VV006 M12/ RMK SN8 RVR RWY34 6000 FT

CYYC;2007-02-01 10:00;CYYC 011000Z 04014G20KT 1/2SM -SN BLSN VV006 M12/M14 A3009 RMK SN8 RVR RWY34 6000 FT SLP249

CYYC;2007-02-01 11:00;CYYC 011100Z CCA 04018KT 1/2SM -SN BLSN BKN005 OVC018 M15/M16 A3016 RMK SN6SC1SC1 RVR RWY34 6000 FT /S01/ PRESRR SLP271

CYYC;2007-02-01 12:00;CYYC 011200Z 03010KT 1 3/4SM -SN BKN038 OVC062 M16/M18 A3021 RMK SN2SC4SC2 /S02/ SNOW COVER/MUCH LOOSE SLP308

CYYC;2007-02-01 13:00;CYYC 011300Z 35007KT 1 1/2SM -SN BKN013 OVC034 M16/M17 A3025 RMK SN3SC3SC2 /S01/ SLP320

CYYC;2007-02-01 14:00;CYYC 011400Z 01012KT 3SM -SN FEW020 OVC060 M16/M18 A3028 RMK SC2SC6 SLP330

CYYC;2007-02-01 15:00;CYYC 011500Z 35009KT 4SM -SN FEW012 BKN020 BKN060 M17/M18 A3030 RMK SC1SC4SC3 SLP343

CYYC;2007-02-01 15:27;CYYC 011527Z 33010KT 10SM FEW012 FEW020 BKN060 M16/ RMK SC1SC2SC4

CYYC;2007-02-01 16:00;CYYC 011600Z 35011KT 15SM FEW020 BKN058 M16/M19 A3030 RMK SC1SC6 SLP344

CYYC;2007-02-01 17:00;CYYC 011700Z 36011KT 15SM FEW020 BKN053 M17/M20 A3031 RMK SC1SC6 SLP346

CYYC;2007-02-01 18:00;CYYC 011800Z 36006KT 20SM FEW025 FEW065 M17/M21 A3030 RMK SC1SC1 SLP342

CYYC;2007-02-01 19:00;CYYC 011900Z CCA 00000KT 30SM FEW030 FEW070 FEW140 M16/M21 A3026 RMK SC1AC1AC1 SLP332

CYYC;2007-02-01 20:00;CYYC 012000Z 31008KT 30SM FEW025 BKN042 BKN070 M14/M22 A3022 RMK SC1SC1AC1 LWR SC+AC LYRS TR SLP319

CYYC;2007-02-01 21:00;CYYC 012100Z 33003KT 30SM FEW025 FEW042 FEW070 M13/M20 A3017 RMK SC1SC1AC1 LWR SC+AC LYRS TR SLP294

CYYC;2007-02-01 22:00;CYYC 012200Z 33010KT 40SM BKN034 M12/M18 A3012 RMK SC4 SLP281

CYYC;2007-02-01 23:00;CYYC 012300Z 34005KT 40SM FEW034 M12/M19 A3010 RMK SC1 SLP273

CYYC;2007-02-02 00:00;CYYC 020000Z 36002KT 40SM FEW034 M13/M19 A3008 RMK SC1 SLP277

CYYC;2007-02-02 01:00;CYYC 020100Z 00000KT 30SM FEW034 M15/M19 A3006 RMK SC1 SLP270

CYYC;2007-02-02 02:00;CYYC 020200Z 20004KT 15SM BKN035 M14/M18 A3003 RMK SC7 SLP260

CYYC;2007-02-02 03:00;CYYC 020300Z 24007KT 15SM FEW035 OVC120 M13/M19 A2999 RMK SC2AC5 SLP245

CYYC;2007-02-02 04:00;CYYC 020400Z 23008KT 15SM BKN110 M13/M19 A2996 RMK AC6 SLP236

CYYC;2007-02-02 05:00;CYYC 020500Z 25007KT 15SM SCT040 BKN100 M12/M18 A2992 RMK SC3AC3 SLP225

CYYC;2007-02-02 06:00;CYYC 020600Z 22005KT 15SM BKN040 OVC100 M12/M17 A2991 RMK SC6AS2 SLP217

CYYC;2007-02-02 07:00;CYYC 020700Z 27002KT 15SM BKN055 OVC080 M12/M16 A2989 RMK SC5AC2 SLP212

CYYC;2007-02-02 08:00;CYYC 020800Z 32006KT 15SM BKN038 OVC080 M11/M15 A2989 RMK SC6AC2 SLP210

CYYC;2007-02-02 09:00;CYYC 020900Z 36003KT 15SM OVC028 M09/M13 A2988 RMK SC7 SLP196

CYYC;2007-02-02 09:47;CYYC 020947Z 01005KT 6SM -SN BKN022 OVC040 M09/ RMK SC5SC3 PCPN VRY LGT

CYYC;2007-02-02 10:00;CYYC 021000Z 07007KT 2SM -SN FEW018 OVC022 M09/M14 A2989 RMK SC2SC6 SLP199

CYYC;2007-02-02 11:00;CYYC 021100Z 05005KT 2SM -SN BKN016 OVC030 M10/M11 A2990 RMK SN2SC3SC3 SLP201

CYYC;2007-02-02 12:00;CYYC 021200Z 06003KT 4SM -SN OVC020 M10/M12 A2991 RMK SC8 SLP207

CYYC;2007-02-02 13:00;CYYC 021300Z 35006KT 7SM OVC018 M10/M12 A2992 RMK SC8 SLP211

CYYC;2007-02-02 13:05;CYYC 021305Z 35006KT 4SM -SN OVC018 M10/ RMK SC8 PCPN VRY LGT

CYYC;2007-02-02 13:16;CYYC 021316Z 36006KT 2 1/2SM -SN OVC020 M10/ RMK SC8

CYYC;2007-02-02 14:00;CYYC 021400Z 33009KT 2 1/2SM -SN OVC020 M10/M12 A2992 RMK SC8 SLP210

CYYC;2007-02-02 15:00;CYYC 021500Z 34007KT 2SM -SN OVC027 M10/M11 A2993 RMK SC8 /S01/ SLP213

CYYC;2007-02-02 15:25;CYYC 021525Z 34007KT 1 1/4SM -SN OVC024 M10/ RMK SC8

CYYC;2007-02-02 16:00;CYYC 021600Z 36007KT 1 1/2SM -SN OVC024 M10/M11 A2993 RMK SC8 SLP214

CYYC;2007-02-02 16:51;CYYC 021651Z 35005KT 1SM -SN OVC024 M10/ RMK SC8 RVR RWY34 6000FT

CYYC;2007-02-02 17:00;CYYC 021700Z 34005KT 2SM -SN OVC024 M09/M11 A2993 RMK SC8 SLP214

CYYC;2007-02-02 17:19;CYYC 021719Z 35005KT 3SM -SN OVC028 M09/ RMK SC8

CYYC;2007-02-02 17:54;CYYC 021754Z 36007KT 1 1/2SM -SN OVC028 M09/ RMK SC8

CYYC;2007-02-02 18:00;CYYC 021800Z CCA 36008KT 1 1/2SM -SN OVC022 M09/M11 A2993 RMK SN3SC5 /S02/ SLP212

CYYC;2007-02-02 18:42;CYYC 021842Z CCA 03013KT 1SM -SN OVC021 M09/ RMK SN4SC4 RVR RWY34 6000+FT

CYYC;2007-02-02 19:00;CYYC 021900Z 02012KT 1 1/2SM -SN OVC021 M09/M11 A2993 RMK SN3SC5 SLP213

CYYC;2007-02-02 20:00;CYYC 022000Z 01011KT 1 1/2SM -SN OVC027 M10/M12 A2993 RMK SN4SC4 SLP212

CYYC;2007-02-02 21:00;CYYC 022100Z 35007KT 1 1/2SM -SN OVC025 M10/M12 A2993 RMK SN4SC4 SLP210

CYYC;2007-02-02 21:37;CYYC 022137Z 36006KT 1 1/4SM -SN OVC022 M10/ RMK SN4SC4

CYYC;2007-02-02 22:00;CYYC 022200Z 36005KT 1 1/4SM -SN OVC021 M10/M11 A2993 RMK SN4SC4 SLP209

CYYC;2007-02-02 22:14;CYYC 022214Z 36004KT 3SM -SN OVC028 M10/ RMK SC8

CYYC;2007-02-02 23:00;CYYC 022300Z 05003KT 8SM -SN OVC048 M09/M11 A2993 RMK SC8 /S01/ SLP209

CYYC;2007-02-03 00:00;CYYC 030000Z 24007KT 5SM -SN OVC055 M09/M10 A2992 RMK SC8 SLP207

CYYC;2007-02-03 00:38;CYYC 030038Z 29008KT 15SM OVC070 M07/ RMK AC8

CYYC;2007-02-03 01:00;CYYC 030100Z 25007KT 15SM OVC070 M08/M10 A2991 RMK AC8 SLP203

CYYC;2007-02-03 02:00;CYYC 030200Z 26006KT 15SM BKN024 BKN054 OVC075 M07/M09 A2990 RMK SC5SC2AC1 SLP200

CYYC;2007-02-03 03:00;CYYC 030300Z 26005KT 15SM FEW030 SCT064 OVC110 M07/M10 A2990 RMK SC1SC4AC2 SLP197

CYYC;2007-02-03 04:00;CYYC 030400Z 34005KT 15SM FEW040 OVC120 M07/M09 A2990 RMK SC2AC6 SLP197

CYYC;2007-02-03 05:00;CYYC 030500Z 05005KT 15SM FEW060 OVC120 M09/M10 A2991 RMK SC2AC6 SLP199

CYYC;2007-02-03 06:00;CYYC 030600Z 05002KT 15SM SCT032 OVC090 M08/M10 A2991 RMK SC4AC4 SLP200

CYYC;2007-02-03 07:00;CYYC 030700Z 23002KT 15SM BKN027 BKN090 OVC120 M08/M10 A2991 RMK SC5AC2AC2 SLP199

CYYC;2007-02-03 08:00;CYYC 030800Z 00000KT 15SM BKN026 OVC090 M08/M10 A2990 RMK SC6AC2 SLP197

CYYC;2007-02-03 09:00;CYYC 030900Z 32005KT 15SM OVC025 M07/M10 A2991 RMK SC8 SLP199

CYYC;2007-02-03 10:00;CYYC 031000Z 35006KT 15SM BKN022 OVC100 M08/M13 A2992 RMK SC7AC1 SLP202

CYYC;2007-02-03 11:00;CYYC 031100Z 33006KT 15SM OVC029 M10/M13 A2992 RMK SC8 SLP203

CYYC;2007-02-03 12:00;CYYC 031200Z 33007KT 15SM FEW038 BKN100 BKN220 M12/M14 A2993 RMK SC2AC3CI2 SNOW COVER/MUCH LOOSE SLP211

CYYC;2007-02-03 13:00;CYYC 031300Z 32004KT 15SM FEW040 BKN120 BKN240 M12/M14 A2994 RMK SC1AC4CI2 SLP214

CYYC;2007-02-03 14:00;CYYC 031400Z 00000KT 15SM FEW100 SCT240 M13/M15 A2995 RMK AC2CI1 SLP217

CYYC;2007-02-03 15:00;CYYC 031500Z 00000KT 40SM FEW030 BKN110 BKN240 M12/M14 A2997 RMK SC1AC1CI1 SLP225

CYYC;2007-02-03 16:00;CYYC 031600Z 00000KT 40SM FEW030 BKN110 BKN240 M15/M16 A2999 RMK SC1AC2CI1 SLP229

CYYC;2007-02-03 17:00;CYYC 031700Z 22002KT 40SM FEW099 FEW240 M12/M14 A3000 RMK AC1CI1 AC LYR TR SLP234

CYYC;2007-02-03 18:00;CYYC 031800Z 03002KT 40SM FEW095 FEW240 M10/M14 A3001 RMK AC1CI1 SLP236

CYYC;2007-02-03 19:00;CYYC 031900Z 00000KT 40SM FEW095 FEW240 M05/M12 A3001 RMK AC1CI0 SLP235

CYYC;2007-02-03 20:00;CYYC 032000Z 14002KT 40SM FEW020 FEW090 FEW240 M06/M11 A3001 RMK SC1AC1CI0 SLP236

CYYC;2007-02-03 21:00;CYYC 032100Z 18003KT 40SM FEW020 FEW110 FEW240 M04/M12 A2999 RMK SC1AC1CI0 SLP219

CYYC;2007-02-03 22:00;CYYC 032200Z 19002KT 40SM FEW020 FEW110 FEW240 M04/M12 A2999 RMK SC1AC1CI0 SLP217

CYYC;2007-02-03 23:00;CYYC 032300Z 19005KT 40SM FEW020 FEW110 FEW200 BKN260 M06/M11 A2998 RMK SC1AC1CI1CI0 SLP215

CYYC;2007-02-04 00:00;CYYC 040000Z 17007KT 40SM FEW020 FEW110 FEW220 BKN260 M07/M11 A2998 RMK SC1AC1CI1CI0 SLP225

CYYC;2007-02-04 01:00;CYYC 040100Z 17003KT 30SM FEW110 FEW220 BKN260 M08/M11 A2998 RMK AC1CI0CI0 SLP225

CYYC;2007-02-04 02:00;CYYC 040200Z 18006KT 15SM BKN240 M10/M12 A2998 RMK CI0 SLP224

CYYC;2007-02-04 03:00;CYYC 040300Z 18006KT 15SM SCT240 M09/M11 A2996 RMK CI1 SLP223

CYYC;2007-02-04 04:00;CYYC 040400Z 18004KT 15SM FEW240 M10/M13 A2996 RMK CI0 SLP221

CYYC;2007-02-04 05:00;CYYC 040500Z 21007KT 15SM SKC M11/M13 A2994 RMK SLP217

CYYC;2007-02-04 06:00;CYYC 040600Z 20009KT 15SM SKC M11/M13 A2994 RMK SLP216

CYYC;2007-02-04 07:00;CYYC 040700Z 21007KT 15SM FEW190 SCT210 M10/M13 A2994 RMK AC1CI2 SLP215

CYYC;2007-02-04 08:00;CYYC 040800Z 21007KT 15SM SCT110 BKN180 M09/M11 A2992 RMK AC2AC2 SLP211

CYYC;2007-02-04 09:00;CYYC 040900Z 20004KT 15SM BKN088 BKN100 M07/M10 A2992 RMK AC5AC1 SLP195

CYYC;2007-02-04 10:00;CYYC 041000Z 21004KT 15SM SCT085 OVC190 M07/M10 A2993 RMK AC3AC3 SLP197

CYYC;2007-02-04 11:00;CYYC 041100Z 23004KT 15SM FEW085 OVC230 M07/M10 A2994 RMK AC2CI3 SLP199

CYYC;2007-02-04 12:00;CYYC 041200Z 24005KT 15SM FEW080 BKN190 OVC230 M05/M10 A2993 RMK AC2AC3CI1 SNOW COVER/MUCH LOOSE SLP198

CYYC;2007-02-04 13:00;CYYC 041300Z 21005KT 15SM FEW070 BKN190 OVC230 M06/M10 A2993 RMK AC2AC3CI1 SLP198

CYYC;2007-02-04 14:00;CYYC 041400Z 23004KT 15SM FEW090 BKN240 M06/M10 A2992 RMK AC1CI1 SLP195

CYYC;2007-02-04 15:00;CYYC 041500Z 00000KT 40SM FEW090 SCT200 BKN250 M06/M10 A2991 RMK AC1CI1CI0 SLP195

CYYC;2007-02-04 16:00;CYYC 041600Z 00000KT 40SM SCT140 SCT200 BKN250 M05/M10 A2991 RMK AC1CI1CI0 SLP196

CYYC;2007-02-04 17:00;CYYC 041700Z 00000KT 40SM BKN120 BKN240 M03/M08 A2994 RMK AC3CI0 SLP203

CYYC;2007-02-04 18:00;CYYC 041800Z 32004KT 40SM BKN100 BKN240 04/M06 A2995 RMK AC2CI1 SLP198

CYYC;2007-02-04 19:00;CYYC 041900Z 35008KT 40SM FEW090 BKN110 BKN220 06/M04 A2998 RMK AC1AC2CI1 SLP208

CYYC;2007-02-04 20:00;CYYC 042000Z 36010KT 40SM FEW090 SCT110 BKN230 05/M02 A2999 RMK AC1AC2CI0 SLP211

CYYC;2007-02-04 21:00;CYYC 042100Z 01007KT 40SM FEW090 SCT160 BKN240 03/M03 A3001 RMK AC1AC1CI0 SLP216

CYYC;2007-02-04 22:00;CYYC 042200Z 04008KT 40SM FEW090 FEW180 BKN240 03/M05 A3003 RMK AC1AC1CI1 SLP220

CYYC;2007-02-04 23:00;CYYC 042300Z 04011KT 40SM FEW090 FEW180 BKN240 01/M05 A3006 RMK AC1AC0CI1 SLP232

CYYC;2007-02-05 00:00;CYYC 050000Z 02002KT 40SM FEW090 BKN160 BKN240 00/M06 A3008 RMK AC1AC0CI1 SLP243

CYYC;2007-02-05 01:00;CYYC 050100Z 21004KT 30SM FEW090 FEW160 SCT240 M02/M06 A3008 RMK AC1AC0CI0 SLP243

CYYC;2007-02-05 02:00;CYYC 050200Z 20006KT 15SM SCT090 BKN150 M02/M06 A3009 RMK AC0AC1 SLP246

CYYC;2007-02-05 03:00;CYYC 050300Z 19003KT 15SM FEW085 SCT250 M03/M06 A3009 RMK AC1CI1 SLP248

CYYC;2007-02-05 04:00;CYYC 050400Z 00000KT 15SM SCT160 BKN240 M03/M07 A3007 RMK AC2CI2 SLP244

CYYC;2007-02-05 05:00;CYYC 050500Z 00000KT 15SM BKN120 M03/M07 A3006 RMK AC2 SLP240

CYYC;2007-02-05 06:00;CYYC 050600Z 19006KT 15SM FEW085 SCT120 M04/M08 A3006 RMK AC1AC2 LWR AC TR SLP225

CYYC;2007-02-05 07:00;CYYC 050700Z 18005KT 15SM FEW120 M03/M08 A3005 RMK AC1 SLP222

CYYC;2007-02-05 08:00;CYYC 050800Z 18002KT 15SM FEW120 M03/M07 A3004 RMK AC1 SLP220

CYYC;2007-02-05 09:00;CYYC 050900Z 17004KT 15SM FEW080 SCT120 M02/M07 A3004 RMK AC2AC1 SLP217

CYYC;2007-02-05 10:00;CYYC 051000Z 22002KT 15SM FEW210 M04/M08 A3002 RMK CI2 SLP212

CYYC;2007-02-05 11:00;CYYC 051100Z 13003KT 15SM FEW080 SCT210 M05/M08 A3002 RMK AC2CI1 SLP213

CYYC;2007-02-05 12:00;CYYC 051200Z CCA 00000KT 15SM FEW100 SCT230 M07/M09 A2999 RMK AC2CI1 SNOW COVER/MUCH LOOSE SLP212

CYYC;2007-02-05 13:00;CYYC 051300Z 00000KT 15SM FEW100 BKN220 M06/M08 A2998 RMK AC1CI2 SLP209

CYYC;2007-02-05 14:00;CYYC 051400Z 20002KT 15SM FEW080 BKN220 M06/M08 A2996 RMK AC1CI3 SLP201

CYYC;2007-02-05 15:00;CYYC 051500Z 00000KT 40SM FEW040 FEW080 BKN200 M06/M08 A2995 RMK SC1AC1CI1 SLP199

CYYC;2007-02-05 16:00;CYYC 051600Z 00000KT 40SM FEW040 FEW080 BKN180 BKN210 M06/M08 A2994 RMK SC1AC2AC2CI2 SLP196

CYYC;2007-02-05 17:00;CYYC 051700Z 21003KT 40SM FEW030 FEW100 BKN170 BKN210 M02/M05 A2992 RMK CU1AC2AC4CI2 SLP191

CYYC;2007-02-05 18:00;CYYC 051800Z 17002KT 40SM FEW030 FEW090 BKN170 BKN220 04/M03 A2990 RMK CU1AC2AC2CI1 SLP173

CYYC;2007-02-05 19:00;CYYC 051900Z 20005KT 40SM FEW030 FEW090 SCT180 BKN220 05/M01 A2990 RMK CU1AC1AC3CI4 SLP173

CYYC;2007-02-05 20:00;CYYC 052000Z CCA 00000KT 40SM FEW030 BKN180 BKN220 06/M00 A2988 RMK CU1AS6CI2 SLP167

CYYC;2007-02-05 21:00;CYYC 052100Z CCA 00000KT 40SM FEW040 FEW070 BKN180 BKN220 10/00 A2987 RMK CU1AC1AS5CI1 ACSL SLP151

CYYC;2007-02-05 22:00;CYYC 052200Z 04005KT 40SM FEW040 BKN180 BKN220 07/01 A2987 RMK CU1AS4CI3 SLP149

CYYC;2007-02-05 23:00;CYYC 052300Z 08003KT 40SM FEW040 SCT180 BKN210 05/00 A2987 RMK CU1AS3CI3 ACSL SLP151

CYYC;2007-02-06 00:00;CYYC 060000Z 07003KT 40SM FEW040 SCT180 BKN230 03/01 A2988 RMK CU1AC3CI2 SLP170

CYYC;2007-02-06 01:00;CYYC 060100Z 10002KT 40SM FEW040 FEW110 BKN160 BKN240 03/00 A2989 RMK CU1AC1AC5CI1 SLP172

CYYC;2007-02-06 02:00;CYYC 060200Z 01012KT 15SM SCT085 BKN120 BKN240 03/M01 A2995 RMK AC4AC1CI0 SLP190

CYYC;2007-02-06 03:00;CYYC 060300Z 35007KT 15SM BKN085 01/M01 A2998 RMK AC5 SLP204

CYYC;2007-02-06 04:00;CYYC 060400Z 01014KT 15SM BKN033 OVC080 03/M01 A3003 RMK SC6AC2 SLP221

CYYC;2007-02-06 05:00;CYYC 060500Z 36014KT 15SM BKN035 OVC058 02/M01 A3005 RMK SC6SC2 SLP226

CYYC;2007-02-06 06:00;CYYC 060600Z 36009KT 15SM FEW017 OVC040 02/00 A3008 RMK SC2SC6 SLP225

CYYC;2007-02-06 06:13;CYYC 060613Z 01009KT 15SM BKN010 OVC040 01/ RMK SC5SC3

CYYC;2007-02-06 07:00;CYYC 060700Z 36009KT 15SM FEW020 OVC041 01/M01 A3010 RMK SC2SC6 SLP233

CYYC;2007-02-06 07:54;CYYC 060754Z 05014KT 6SM BR OVC003 M02/ RMK ST8

CYYC;2007-02-06 08:00;CYYC 060800Z 04014KT 3SM BR OVC003 M02/M03 A3013 RMK ST8 VIS W 2 SLP242

CYYC;2007-02-06 08:05;CYYC 060805Z 05014KT 2SM BR OVC002 M03/ RMK ST8

CYYC;2007-02-06 09:00;CYYC 060900Z 03015KT 2SM BR OVC003 M06/M07 A3015 RMK ST8 CIG VRB 2-4 SLP254

CYYC;2007-02-06 10:00;CYYC 061000Z 02007KT 2 1/2SM BR OVC004 M07/M08 A3018 RMK ST8 SLP262

CYYC;2007-02-06 10:52;CYYC 061052Z CCA 04006KT 2SM -SG BR OVC004 M07/ RMK ST8

CYYC;2007-02-06 11:00;CYYC 061100Z 03005KT 3/4SM -SG BR BKN004 OVC013 M08/M08 A3019 RMK ST6SC2 RVR RWY34 6000 FT SLP265

CYYC;2007-02-06 11:08;CYYC 061108Z 03005KT 1 1/2SM -SG BR BKN005 OVC013 M07/ RMK ST5SC3

CYYC;2007-02-06 12:00;CYYC 061200Z CCA 03006KT 6SM -SG BR BKN010 OVC016 M07/M08 A3021 RMK ST6SC2 SNOW COVER/MEDIUM PACK SLP283

CYYC;2007-02-06 13:00;CYYC 061300Z 05007KT 8SM -SN SCT014 OVC043 M08/M10 A3021 RMK SC3SC5 SLP285

CYYC;2007-02-06 14:00;CYYC 061400Z 01006KT 7SM -SN FEW014 BKN020 OVC038 M09/M11 A3022 RMK SC2SC4SC2 SLP288

CYYC;2007-02-06 14:42;CYYC 061442Z 07003KT 4SM -SN SCT009 BKN024 OVC033 M09/ RMK SC3SC3SC2

CYYC;2007-02-06 15:00;CYYC 061500Z 07002KT 4SM -SN SCT009 OVC020 M09/M11 A3023 RMK SC4SC4 FROIN SLP296

CYYC;2007-02-06 15:12;CYYC 061512Z 06003KT 4SM -SN BKN009 BKN024 OVC033 M09/ RMK SC6SC2SC1

CYYC;2007-02-06 15:54;CYYC 061554Z 07004KT 5SM -SN FEW009 BKN022 OVC033 M09/ RMK SC2SC4SC2 FROIN

CYYC;2007-02-06 16:00;CYYC 061600Z 07004KT 5SM -SN -FZRA SCT009 OVC027 M09/M11 A3023 RMK SC3SC5 SLP296

CYYC;2007-02-06 17:00;CYYC 061700Z 07003KT 5SM -SG -FZDZ FEW009 OVC028 M09/M11 A3022 RMK ST2SC6 SLP294

CYYC;2007-02-06 17:39;CYYC 061739Z 05002KT 4SM -SG -FZDZ BKN007 BKN019 OVC025 M09/ RMK ST5SC2SC2 PCPN VRY LGT

CYYC;2007-02-06 18:00;CYYC 061800Z 00000KT 4SM -SG -FZDZ BKN006 BKN014 OVC026 M09/M10 A3022 RMK ST5SC2SC2 PCPN VRY LGT SLP293

CYYC;2007-02-06 18:50;CYYC 061850Z 10003KT 2 1/2SM -SN BKN008 OVC018 M09/ RMK ST5SC3

CYYC;2007-02-06 19:00;CYYC 061900Z 09004KT 1 3/4SM -SN BR BKN007 OVC018 M09/M10 A3022 RMK SC6SC2 SLP292

CYYC;2007-02-06 19:42;CYYC 061942Z 10005KT 1SM -SG BR BKN007 OVC011 M09/ RMK ST6SC2 RIME ICE / RVR RWY34 6000+FT

CYYC;2007-02-06 20:00;CYYC 062000Z 10004KT 1SM -SG BR BKN006 OVC010 M09/M10 A3020 RMK ST6SC2 RIME ICE / RVR RWY16 6000+FT SLP288

CYYC;2007-02-06 20:51;CYYC 062051Z 09005KT 1SM SG -FZDZ BR OVC006 M09/ RMK ST8 RIME ON INDICATOR / RVR RWY16 6000+FT

CYYC;2007-02-06 21:00;CYYC 062100Z 08006KT 1SM -SG -FZDZ BR OVC007 M09/M10 A3019 RMK ST8 RIME ON INDICATOR / RVR RWY16 6000+FT SLP296

CYYC;2007-02-06 22:00;CYYC 062200Z 08005KT 1 1/4SM -SG -FZDZ BR BKN006 OVC018 M10/M11 A3019 RMK ST6SC2 RIME ON INDICATOR SLP295

CYYC;2007-02-06 23:00;CYYC 062300Z 07006KT 1SM -SG -FZDZ BR OVC006 M10/M11 A3020 RMK ST8 RIME ON INDICATOR / RVR RWY16 6000+FT SLP297

CYYC;2007-02-06 23:23;CYYC 062323Z 09008KT 1/2SM -SG -FZDZ FZFG BKN006 OVC012 M10/ RMK ST7SC1 RIME ON INDICATOR / RVR RWY16 4500FT

CYYC;2007-02-06 23:37;CYYC 062337Z 08008KT 1 1/4SM -SG -FZDZ BR OVC006 M10/ RMK ST8 RIME ON INDICATOR

CYYC;2007-02-07 00:00;CYYC 070000Z 10006KT 1 1/4SM -SG -FZDZ BR OVC006 M11/M12 A3021 RMK ST8 RIME ON INDICATOR SLP305

CYYC;2007-02-07 01:00;CYYC 070100Z 08005KT 1 1/2SM -SG -FZDZ BR BKN005 OVC014 M11/M12 A3020 RMK ST6SC2 RIME ON INDICATOR SLP303

CYYC;2007-02-07 02:00;CYYC 070200Z 09004KT 2 1/4SM -SG -FZDZ BR BKN005 OVC014 M11/M12 A3022 RMK ST6SC2 RIME ON INDICATOR SLP307

CYYC;2007-02-07 03:00;CYYC 070300Z 10004KT 2SM -SN BR BKN005 OVC016 M11/M13 A3022 RMK SC4SC4 RIME ON INDICATOR SLP312

CYYC;2007-02-07 04:00;CYYC 070400Z 12003KT 2 1/2SM -SN BR SCT005 BKN016 OVC027 M11/M13 A3022 RMK SC3SC3SC2 FROIN SLP311

CYYC;2007-02-07 04:23;CYYC 070423Z 12004KT 2SM -SN BR BKN006 BKN016 OVC027 M11/ RMK SC5SC2SC1 FROIN

CYYC;2007-02-07 05:00;CYYC 070500Z 12006KT 2 1/2SM -SN BR BKN006 OVC012 M12/M13 A3021 RMK SC6SC2 SLP310

CYYC;2007-02-07 05:53;CYYC 070553Z 11006KT 2 1/2SM -SN -FZDZ BR BKN005 OVC012 M12/ RMK SC6SC2 RIME ON INDICATOR

CYYC;2007-02-07 06:00;CYYC 070600Z 11006KT 2SM -SN -FZDZ BR BKN004 OVC012 M12/M13 A3021 RMK ST6SC2 RIME ON INDICATOR SLP308

CYYC;2007-02-07 07:00;CYYC 070700Z 11006KT 2SM -SN -FZDZ BR BKN004 OVC012 M12/M13 A3020 RMK ST6SC2 RIME ON INDICATOR SLP307

CYYC;2007-02-07 07:22;CYYC 070722Z CCB 12005KT 2SM -SN BR BKN003 OVC012 M11/ REFZDZ RMK ST7SC1

CYYC;2007-02-07 08:00;CYYC 070800Z 11005KT 2SM -SN BR BKN003 OVC009 M12/M13 A3020 REFZDZ RMK ST7SC1 FROIN SLP306

CYYC;2007-02-07 09:00;CYYC 070900Z 11005KT 2SM -SN BR OVC003 M11/M12 A3020 RMK ST8 FROIN SLP304

CYYC;2007-02-07 10:00;CYYC 071000Z 12006KT 1 1/2SM -SN BR OVC003 M12/M13 A3020 RMK ST8 FROIN SLP304

CYYC;2007-02-07 11:00;CYYC 071100Z 12006KT 1 1/2SM -SN BR OVC003 M12/M13 A3019 RMK ST8 FROIN SLP301

CYYC;2007-02-07 12:00;CYYC 071200Z 12007KT 1 1/2SM -SN BR OVC003 M12/M13 A3017 RMK ST8 FROIN SNOW CVR/ONE LOOSE SLP299

CYYC;2007-02-07 13:00;CYYC 071300Z 12005KT 1 1/2SM -SN BR OVC003 M12/M13 A3020 RMK ST8 FROIN SLP306

CYYC;2007-02-07 13:24;CYYC 071324Z 12004KT 1 1/2SM -SN BR OVC004 M12/ RMK ST8 FROIN

CYYC;2007-02-07 14:00;CYYC 071400Z 13006KT 1 1/2SM -SN BR OVC005 M12/M13 A3019 RMK ST8 FROIN SLP305

CYYC;2007-02-07 15:00;CYYC 071500Z 13005KT 1 1/2SM -SN BR OVC007 M12/M13 A3022 RMK ST8 SLP315

CYYC;2007-02-07 15:32;CYYC 071532Z 16005KT 1SM -SN BR BKN005 OVC010 M12/ RMK SN4ST3SC1 RVR RWY28 4000 FT

CYYC;2007-02-07 15:48;CYYC 071548Z 13004KT 3/4SM -SN BR BKN005 OVC012 M12/ RMK SN5ST2SC1 RVR RWY16 6000 FT

CYYC;2007-02-07 16:00;CYYC 071600Z 14004KT 3/4SM -SN BR BKN007 OVC012 M12/M13 A3023 RMK SN5SC2SC1 /S01/ RVR RWY16 6000 FT SLP318

CYYC;2007-02-07 17:00;CYYC 071700Z 12005KT 3/4SM -SN BR BKN009 OVC015 M12/M13 A3022 RMK SN4SC2SC2 RVR RWY16 6000 FT SLP317

CYYC;2007-02-07 17:06;CYYC 071706Z 12005KT 1 1/4SM -SN BR OVC015 M12/ RMK SN4SC4

CYYC;2007-02-07 17:31;CYYC 071731Z 12006KT 2 1/4SM -SN BR BKN011 OVC016 M12/ RMK SN2SC4SC2

CYYC;2007-02-07 18:00;CYYC 071800Z 14006KT 2 1/2SM -SN BR OVC010 M12/M13 A3024 RMK SN5SC3 /S02/ SLP324

CYYC;2007-02-07 19:00;CYYC 071900Z 14005KT 1SM -SN BR BKN010 OVC018 M12/M13 A3024 RMK SN6SC2SC1 SLP324

CYYC;2007-02-07 20:00;CYYC 072000Z 13008KT 1SM -SN BR OVC013 M12/M13 A3022 RMK SN4SC4 /S01/ VIS N 11/4 SLP318

CYYC;2007-02-07 21:00;CYYC 072100Z 14008KT 2 1/2SM -SN BR BKN010 OVC018 M12/M13 A3021 RMK SC6SC2 SLP314

CYYC;2007-02-07 22:00;CYYC 072200Z 11007KT 1 1/4SM -SN BR OVC010 M12/M13 A3021 RMK SN5SC3 SLP314

CYYC;2007-02-07 23:00;CYYC 072300Z 11007KT 1 1/4SM -SN BR OVC010 M12/M13 A3021 RMK SN4SC4 VIS W-N 2 SLP312

CYYC;2007-02-08 00:00;CYYC 080000Z 12006KT 1 1/4SM -SN BR OVC014 M12/M13 A3021 RMK SN2SC6 /S02/ SLP315

CYYC;2007-02-08 01:00;CYYC 080100Z 12008KT 2SM -SN BR BKN012 OVC019 M13/M14 A3022 RMK SC6SC2 SLP316

CYYC;2007-02-08 02:00;CYYC 080200Z 12007KT 3SM -SN OVC013 M13/M14 A3022 RMK SC8 SLP318

CYYC;2007-02-08 03:00;CYYC 080300Z 12007KT 4SM -SN OVC013 M13/M15 A3023 RMK SC8 PCPN VRY LGT SLP322

CYYC;2007-02-08 04:00;CYYC 080400Z 12005KT 3SM -SN BKN010 OVC015 M13/M15 A3022 RMK SC6SC2 PCPN VRY LGT SLP319

CYYC;2007-02-08 04:08;CYYC 080408Z 12005KT 2SM -SN BKN009 OVC015 M13/ RMK SC5SC3

CYYC;2007-02-08 05:00;CYYC 080500Z 12004KT 2SM -SN FEW009 SCT020 BKN040 OVC050 M14/M15 A3022 RMK SC2SC2SC2SC2 PCPN VRY LGT SLP318

CYYC;2007-02-08 06:00;CYYC 080600Z 13004KT 2 1/2SM -SN FEW020 BKN045 BKN060 OVC082 M15/M16 A3021 RMK SC2SC3SC2AC2 /S01/ SLP319

CYYC;2007-02-08 06:17;CYYC 080617Z 13004KT 3SM -SN SCT042 OVC068 M14/ RMK SC3AC5

CYYC;2007-02-08 06:42;CYYC 080642Z 13005KT 2 1/2SM -SN FEW042 OVC070 M14/ RMK SC2AC6 VIS VRB2-3

CYYC;2007-02-08 07:00;CYYC 080700Z 12004KT 2 1/2SM -SN FEW042 OVC074 M14/M15 A3021 RMK SC2AC6 PCPN VRY LGT/VIS VRB 2-3 SLP317

CYYC;2007-02-08 07:36;CYYC 080736Z 11004KT 4SM -SN SCT062 OVC074 M14/ RMK SC3AC4 PCPN VRY LGT/VIS VRB 3-5

CYYC;2007-02-08 08:00;CYYC 080800Z 11004KT 4SM -SN SCT043 OVC062 M14/M16 A3020 RMK SC4SC3 PCPN VRY LGT/VIS VRB 3-5 SLP315

CYYC;2007-02-08 09:00;CYYC 080900Z 13003KT 4SM -SN FEW043 BKN060 OVC120 M15/M16 A3018 RMK SC1SC4AC2 PCPN VRY LGT/INTMT/VIS VRB 3-5 SLP308

CYYC;2007-02-08 10:00;CYYC 081000Z 12002KT 4SM -SN BKN041 OVC062 M15/M16 A3018 RMK SC5SC3 PCPN VRY LGT/VIS VRB 3-5 SLP307

CYYC;2007-02-08 11:00;CYYC 081100Z 10004KT 4SM -SN BKN040 OVC086 M15/M16 A3018 RMK SC5AC3 PCPN VRY LGT/VIS VRB 3-5 SLP307

CYYC;2007-02-08 11:19;CYYC 081119Z 10004KT 2SM -SN BKN040 OVC046 M15/ RMK SC6SC2

CYYC;2007-02-08 11:44;CYYC 081144Z 11004KT 1 1/4SM -SN FEW005 BKN020 OVC040 M15/ RMK SC2SC2SC3

CYYC;2007-02-08 12:00;CYYC 081200Z 11003KT 1 1/4SM -SN BKN007 OVC020 M15/M16 A3018 RMK SC6SC2 SLP308

CYYC;2007-02-08 12:35;CYYC 081235Z 10004KT 1 3/4SM -SN OVC010 M15/ RMK SC8

CYYC;2007-02-08 13:00;CYYC 081300Z 08003KT 2SM -SN OVC016 M15/M17 A3019 RMK SC8 SLP310

CYYC;2007-02-08 14:00;CYYC 081400Z 08004KT 1 3/4SM -SN BKN011 OVC019 M16/M17 A3020 RMK SC5SC3 SLP314

CYYC;2007-02-08 15:00;CYYC 081500Z 07003KT 1 3/4SM -SN BKN014 OVC032 M16/M17 A3021 RMK SC7SC1 SLP323

CYYC;2007-02-08 16:00;CYYC 081600Z 07003KT 1 1/2SM -SN FEW014 OVC017 M16/M17 A3023 RMK SC2SC6 SLP328

CYYC;2007-02-08 17:00;CYYC 081700Z 08004KT 1SM -SN BKN015 OVC037 M16/M17 A3024 RMK SN2SC4SC2 RVR RWY34 6000 FT SLP330

CYYC;2007-02-08 18:00;CYYC 081800Z 09005KT 1SM -SN BKN018 OVC029 M16/M17 A3024 RMK SN3SC3SC2 /S02/ RVR RWY34 6000 FT SLP335

CYYC;2007-02-08 19:00;CYYC 081900Z 11003KT 1SM -SN BKN016 OVC029 M15/M17 A3025 RMK SN2SC5SC2 VIS W-N 2/ RVR RWY34 6000 FT SLP336

CYYC;2007-02-08 19:11;CYYC 081911Z 10002KT 1 3/4SM -SN BKN018 OVC031 M15/ RMK SN2SC4SC2 VIS W-N 2

CYYC;2007-02-08 20:00;CYYC 082000Z 00000KT 2 1/2SM -SN BKN019 OVC030 M15/M16 A3024 RMK SC6SC2 SLP335

CYYC;2007-02-08 21:00;CYYC 082100Z CCA 12002KT 2 1/2SM -SN BKN016 OVC030 M14/M16 A3023 RMK SC6SC2 /S01/ SLP328

CYYC;2007-02-08 22:00;CYYC 082200Z 11005KT 2 1/2SM -SN BKN025 OVC041 M15/M16 A3023 RMK SC6SC2 SLP328

CYYC;2007-02-08 22:36;CYYC 082236Z 10005KT 1 1/4SM -SN BKN013 OVC025 M15/ RMK SC6SC2

CYYC;2007-02-08 23:00;CYYC 082300Z 11006KT 2SM -SN BKN014 OVC020 M15/M16 A3024 RMK SC5SC3 SLP330

CYYC;2007-02-09 00:00;CYYC 090000Z 10006KT 1 3/4SM -SN BKN017 OVC034 M15/M16 A3024 RMK SC7SC1 /S02/ SLP334

CYYC;2007-02-09 01:00;CYYC 090100Z 10005KT 1 3/4SM -SN BKN024 OVC052 M15/M17 A3026 RMK SC6SC2 SLP339

CYYC;2007-02-09 02:00;CYYC 090200Z 11006KT 1 3/4SM -SN BKN015 OVC030 M15/M17 A3026 RMK SC5SC3 SLP341

CYYC;2007-02-09 03:00;CYYC 090300Z 11005KT 1 3/4SM -SN BKN010 OVC026 M16/M17 A3027 RMK SC6SC2 SLP346

CYYC;2007-02-09 04:00;CYYC 090400Z 12006KT 1 3/4SM -SN BKN013 OVC038 M16/M17 A3027 RMK SC6SC2 SLP348

CYYC;2007-02-09 05:00;CYYC 090500Z 12005KT 1 3/4SM -SN SCT009 BKN020 BKN060 M17/M18 A3028 RMK SC3SC3SC1 SLP349

CYYC;2007-02-09 05:22;CYYC 090522Z 12003KT 3SM -SN SCT025 BKN060 M17/ RMK SC3SC3

CYYC;2007-02-09 06:00;CYYC 090600Z 13002KT 5SM -SN FEW028 FEW060 M18/M19 A3027 RMK SC2SC1 PCPN VRY LGT/S02/ SLP351

CYYC;2007-02-09 06:17;CYYC 090617Z 13003KT 2 1/2SM -SN FEW048 BKN080 M18/ RMK SC2AC2

CYYC;2007-02-09 07:00;CYYC 090700Z 00000KT 3SM -SN SCT010 BKN040 M18/M20 A3027 RMK SC3SC1 PCPN VRY LGT SLP351

CYYC;2007-02-09 08:00;CYYC 090800Z 11002KT 3SM -SN OVC038 M19/M20 A3027 RMK SC8 SLP349

CYYC;2007-02-09 09:00;CYYC 090900Z 11002KT 3SM -SN BKN030 OVC038 M18/M19 A3027 RMK SC6SC2 SLP346

CYYC;2007-02-09 10:00;CYYC 091000Z 10003KT 2 1/2SM -SN BKN013 OVC029 M18/M19 A3028 RMK SC6SC2 SLP349

CYYC;2007-02-09 11:00;CYYC 091100Z 10002KT 2 1/2SM -SN BKN020 BKN070 OVC100 M18/M19 A3027 RMK SC6AC1AC1 SLP348

CYYC;2007-02-09 12:00;CYYC 091200Z 00000KT 2SM -SN BKN013 OVC025 M17/M19 A3026 RMK SC6SC2 /S01/ SLP346

CYYC;2007-02-09 12:22;CYYC 091222Z CCA 00000KT 2SM -SN FEW009 FEW010 SCT065 OVC070 M17/ RMK SC1SC2SC2AC4

CYYC;2007-02-09 12:27;CYYC 091227Z 00000KT 4SM -SN FEW009 SCT020 BKN065 OVC070 M17/ RMK SC2SC1SC2AC3

CYYC;2007-02-09 13:00;CYYC 091300Z 10002KT 5SM -SN BKN060 OVC070 M17/M19 A3027 RMK SC6AC2 SLP348

CYYC;2007-02-09 14:00;CYYC 091400Z 11004KT 5SM -SN OVC055 M17/M18 A3026 RMK SC8 SLP346

CYYC;2007-02-09 15:00;CYYC 091500Z 11004KT 7SM -SN OVC065 M17/M18 A3027 RMK SC8 SLP347

CYYC;2007-02-09 16:00;CYYC 091600Z 12003KT 7SM -SN OVC068 M17/M18 A3027 RMK AC8 SLP347

CYYC;2007-02-09 17:00;CYYC 091700Z 13005KT 4SM -SN BKN024 OVC038 M17/M18 A3026 RMK SC6SC2 SLP346

CYYC;2007-02-09 18:00;CYYC 091800Z 14004KT 2SM -SN BKN015 OVC024 M16/M18 A3026 RMK SC6SC2 SLP346

CYYC;2007-02-09 19:00;CYYC 091900Z 14004KT 2SM -SN BKN018 OVC032 M16/M17 A3026 RMK SC6SC2 SLP347

CYYC;2007-02-09 20:00;CYYC 092000Z 13003KT 3SM -SN BKN055 OVC068 M16/M17 A3024 RMK SC6AC2 VIS S 4 SLP341

CYYC;2007-02-09 21:00;CYYC 092100Z 12004KT 6SM -SN FEW036 OVC047 M16/M17 A3023 RMK SC1SC7 SLP333

CYYC;2007-02-09 22:00;CYYC 092200Z 11006KT 3SM -SN BKN026 OVC034 M16/M17 A3021 RMK SC7SC1 SLP328

CYYC;2007-02-09 23:00;CYYC 092300Z 14006KT 3SM -SN BKN030 OVC040 M16/M18 A3020 RMK SC7SC1 SLP324

CYYC;2007-02-10 00:00;CYYC 100000Z 14007KT 5SM -SN SCT030 BKN050 OVC150 M16/M17 A3019 RMK SC3SC3AC2 /S01/ SLP322

CYYC;2007-02-10 01:00;CYYC 100100Z 14007KT 7SM -SN BKN028 OVC100 M16/M18 A3018 RMK SC7AC1 SLP318

CYYC;2007-02-10 02:00;CYYC 100200Z 14006KT 8SM -SN FEW010 BKN065 OVC084 M16/M17 A3017 RMK SF1SC6AC2 SLP316

CYYC;2007-02-10 03:00;CYYC 100300Z 15007KT 4SM -SN SCT010 BKN030 OVC050 M16/M17 A3016 RMK ST2SC2SC4 SLP309

CYYC;2007-02-10 04:00;CYYC 100400Z 16006KT 4SM -SN SCT010 BKN025 OVC050 M16/M18 A3015 RMK ST3SC3SC2 SLP306

CYYC;2007-02-10 05:00;CYYC 100500Z 16008KT 5SM -SN BKN010 BKN030 OVC050 M16/M18 A3014 RMK ST5SC2SC2 SLP303

CYYC;2007-02-10 06:00;CYYC 100600Z 18006KT 5SM -SN BKN010 OVC030 M16/M18 A3012 RMK ST6SC2 SLP294

CYYC;2007-02-10 07:00;CYYC 100700Z 18008KT 4SM -SN OVC010 M17/M18 A3010 RMK ST8 SLP290

CYYC;2007-02-10 07:34;CYYC 100734Z 17009KT 3SM -SN OVC008 M17/ RMK ST8

CYYC;2007-02-10 08:00;CYYC 100800Z 17009KT 3SM -SN OVC008 M17/M19 A3008 RMK ST7 SLP282

CYYC;2007-02-10 09:00;CYYC 100900Z 18006KT 3SM -SN BKN010 OVC160 M18/M19 A3005 RMK ST4AC2 SLP272

CYYC;2007-02-10 10:00;CYYC 101000Z 18006KT 2 1/2SM -SN SCT008 BKN160 M19/M20 A3004 RMK ST2AC2 SLP269

CYYC;2007-02-10 11:00;CYYC 101100Z 16004KT 4SM BR FEW008 BKN160 M19/M21 A3002 RMK ST2AC2 SLP263

CYYC;2007-02-10 12:00;CYYC 101200Z 17004KT 3SM BR FEW008 BKN160 M19/M20 A3001 RMK ST2AC2 SNOW COVER/MUCH LOOSE SLP259

CYYC;2007-02-10 13:00;CYYC 101300Z 18004KT 2 1/2SM BR FEW005 SCT150 BKN210 M20/M22 A2999 RMK ST2AC2CI0 SLP253

CYYC;2007-02-10 14:00;CYYC 101400Z 19004KT 3SM BR FEW005 FEW150 BKN210 M20/M21 A2997 RMK ST1AC1CI0 SLP249

CYYC;2007-02-10 15:00;CYYC 101500Z 19005KT 6SM BR FEW005 FEW150 SCT210 M19/M21 A2996 RMK ST1AC1CI0 FROIN SLP242

CYYC;2007-02-10 15:27;CYYC 101527Z 19003KT 5SM IC FEW010 FEW150 FEW180 BKN250 M19/ RMK ST1AC1AC1CI1

CYYC;2007-02-10 16:00;CYYC 101600Z 19005KT 5SM IC FEW010 FEW150 SCT180 BKN250 M19/M21 A2995 RMK ST1AC1AC2CI2 SLP240

CYYC;2007-02-10 16:47;CYYC 101647Z 00000KT 15SM FEW020 FEW085 SCT160 BKN240 M18/ RMK SC1AC2AC2CI2

CYYC;2007-02-10 17:00;CYYC 101700Z 00000KT 15SM FEW020 FEW085 SCT150 BKN240 M18/M18 A2995 RMK SC1AC2AC2CI2 SLP239

CYYC;2007-02-10 18:00;CYYC 101800Z 00000KT 30SM FEW030 FEW088 SCT140 BKN230 M16/M16 A2993 RMK SC1AC1AC2CI1 SLP229

CYYC;2007-02-10 19:00;CYYC 101900Z 00000KT 30SM FEW030 FEW088 FEW140 BKN230 M15/M16 A2991 RMK SC1AC1AC1CI1 SLP223

CYYC;2007-02-10 20:00;CYYC 102000Z 00000KT 30SM FEW030 FEW110 FEW230 M12/M15 A2988 RMK SC1AC1CI1 SLP212

CYYC;2007-02-10 21:00;CYYC 102100Z CCA 00000KT 10SM FEW030 FEW130 SCT230 M12/M14 A2985 RMK SC1AC1CI1 SLP196

CYYC;2007-02-10 22:00;CYYC 102200Z 12006KT 8SM FEW030 SCT140 BKN230 M12/M14 A2984 RMK SC1AC2CI1 SLP192

CYYC;2007-02-10 23:00;CYYC 102300Z CCA 13002KT 8SM FEW030 BKN130 BKN230 M12/M14 A2983 RMK SC1AC6CI0 ACSL S SLP191

CYYC;2007-02-11 00:00;CYYC 110000Z 09002KT 10SM FEW030 BKN100 BKN240 M12/M14 A2982 RMK SC1AC7CI1 SLP188

CYYC;2007-02-11 01:00;CYYC 110100Z 00000KT 6SM BR FEW030 SCT100 BKN140 BKN240 M14/M16 A2982 RMK SC1AC2AC2CI0 SLP187

CYYC;2007-02-11 02:00;CYYC 110200Z 05003KT 6SM BR FEW090 BKN140 M15/M16 A2981 RMK AC2AC3 SLP186

CYYC;2007-02-11 03:00;CYYC 110300Z 00000KT 5SM BR BKN140 M15/M17 A2979 RMK AC2 SLP182

CYYC;2007-02-11 04:00;CYYC 110400Z 17004KT 5SM BR FEW140 M16/M17 A2977 RMK AC1 SLP177

CYYC;2007-02-11 05:00;CYYC 110500Z 00000KT 5SM BR SKC M17/M18 A2977 RMK SLP177

CYYC;2007-02-11 06:00;CYYC 110600Z 36006KT 5SM BR SKC M18/M20 A2977 RMK SLP176

CYYC;2007-02-11 07:00;CYYC 110700Z 36004KT 5SM BR FEW140 M19/M19 A2978 RMK AC1 SLP177

CYYC;2007-02-11 08:00;CYYC 110800Z 01006KT 5SM BR FEW140 M18/M19 A2978 RMK AC1 SLP179

CYYC;2007-02-11 09:00;CYYC 110900Z 01006KT 6SM BR FEW140 FEW180 M17/M19 A2979 RMK AC1AC0 SLP175

CYYC;2007-02-11 09:46;CYYC 110946Z 04004KT 8SM OVC016 M20/ RMK ST5

CYYC;2007-02-11 10:00;CYYC 111000Z CCA 03004KT 8SM OVC017 M18/M20 A2983 RMK ST7 SLP185

CYYC;2007-02-11 11:00;CYYC 111100Z CCA 35007KT 7SM OVC017 M16/M18 A2984 RMK ST8 FROIN SLP188

CYYC;2007-02-11 12:00;CYYC 111200Z 36009KT 5SM BR OVC018 M15/M17 A2984 RMK ST8 SNOW CVR/MUCH LOOSE FROIN SLP189

CYYC;2007-02-11 13:00;CYYC 111300Z 36008KT 4SM -SN BR BKN008 OVC020 M14/M16 A2987 RMK ST4SC4 SLP199

CYYC;2007-02-11 13:09;CYYC 111309Z 36009KT 4SM -SG BR OVC007 M14/ RMK ST8

CYYC;2007-02-11 13:31;CYYC 111331Z 35011KT 2 1/2SM -SG BR OVC007 M14/ RMK ST8

CYYC;2007-02-11 13:48;CYYC 111348Z 36010KT 1 1/2SM -SN BR OVC006 M14/ RMK SC8

CYYC;2007-02-11 14:00;CYYC 111400Z 36012KT 1 1/2SM -SN BR OVC004 M14/M15 A2988 RMK SC8 SLP201

CYYC;2007-02-11 14:17;CYYC 111417Z CCB 01005KT 2 1/2SM -SN BR OVC007 M14/ RMK SC8 FROIN

CYYC;2007-02-11 14:37;CYYC 111437Z 01009KT 1SM -SN BR BKN009 OVC015 M14/ RMK SC5SC3 VIS SW-NW 3 / RVR RWY 34 6000+FT

CYYC;2007-02-11 15:00;CYYC 111500Z 01009KT 1SM -SN BR BKN009 OVC013 M14/M15 A2989 RMK SC5SC3 RVR RWY 34 6000+FT SLP211

CYYC;2007-02-11 15:42;CYYC 111542Z 03009KT 3/4SM -SN BR FEW004 BKN007 OVC012 M15/ RMK SC2SC4SC2 RVR RWY 34 3000FT

CYYC;2007-02-11 16:00;CYYC 111600Z 02008KT 1 1/2SM -SN BR FEW004 OVC007 M15/M16 A2992 RMK SC2SC6 /S01/ SLP218

CYYC;2007-02-11 16:30;CYYC 111630Z 02008KT 5/8SM -SN BR FEW004 OVC010 M14/ RMK SC2SC6 RVR RWY 34 2600FT

CYYC;2007-02-11 16:45;CYYC 111645Z 36010KT 2SM -SN BR FEW004 BKN009 OVC016 M15/ RMK SC2SC4SC2

CYYC;2007-02-11 17:00;CYYC 111700Z 01006KT 2SM -SN BR FEW004 BKN011 OVC016 M15/M16 A2994 RMK SC2SC4SC2 SLP225

CYYC;2007-02-11 17:29;CYYC 111729Z 02008KT 4SM -SN BR FEW008 BKN017 OVC022 M15/ RMK SC1SC6SC2

CYYC;2007-02-11 18:00;CYYC 111800Z 01009KT 5SM -SN BR FEW010 FEW015 OVC022 M15/M17 A2996 RMK SC1SC2SC6 SLP241

CYYC;2007-02-11 19:00;CYYC 111900Z 36008KT 5SM -SN BR FEW015 OVC021 M15/M17 A2997 RMK SC1SC8 SLP243

CYYC;2007-02-11 20:00;CYYC 112000Z 36008KT 5SM -SN FEW011 OVC023 M15/M17 A2997 RMK SC1SC7 SLP242

CYYC;2007-02-11 20:43;CYYC 112043Z 36007KT 1 1/4SM -SN BR SCT009 OVC023 M15/ RMK SC3SC5

CYYC;2007-02-11 21:00;CYYC 112100Z 01006KT 1 1/4SM -SN BR BKN006 OVC015 M15/M17 A2997 RMK SC5SC3 SLP241

CYYC;2007-02-11 22:00;CYYC 112200Z 03009KT 1 1/4SM -SN BR BKN006 OVC012 M15/M17 A2998 RMK SC5SC3 SLP244

CYYC;2007-02-11 23:00;CYYC 112300Z 03009KT 1 1/4SM -SN BR BKN009 BKN013 OVC027 M15/M17 A3000 RMK SC4SC2SC2 SLP251

CYYC;2007-02-12 00:00;CYYC 120000Z 03005KT 1SM -SN BR SCT006 BKN013 OVC027 M15/M17 A3003 RMK SC4SC2SC2 /S01/ RVR RWY 34 6000+FT SLP259

CYYC;2007-02-12 00:11;CYYC 120011Z 03007KT 3/4SM -SN BR BKN007 OVC023 M15/ RMK SC6SC2 RVR RWY 34 6000+FT

CYYC;2007-02-12 01:00;CYYC 120100Z 02008KT 3/4SM -SN BR BKN007 OVC022 M15/M17 A3004 RMK SC6SC2 RVR RWY 34 6000+FT SLP263

CYYC;2007-02-12 01:16;CYYC 120116Z 04006KT 1 1/2SM -SN BR SCT007 BKN017 OVC032 M15/ RMK SC3SC4SC1

CYYC;2007-02-12 02:00;CYYC 120200Z 03007KT 1 1/2SM -SN BR BKN010 OVC024 M15/M17 A3007 RMK SC5SC3 SLP272

CYYC;2007-02-12 03:00;CYYC 120300Z 03006KT 1 1/2SM -SN OVC015 M16/M17 A3008 RMK SN2SC6 SLP278

CYYC;2007-02-12 04:00;CYYC 120400Z 03008KT 1 1/2SM -SN OVC015 M16/M17 A3010 RMK SN3SC5 /S01/ SLP284

CYYC;2007-02-12 05:00;CYYC 120500Z 05007KT 1 1/2SM -SN OVC015 M16/M18 A3012 RMK SN3SC5 SLP290

CYYC;2007-02-12 06:00;CYYC 120600Z 05004KT 3SM -SN OVC028 M16/M18 A3014 RMK SC8 /S02/ SLP301

CYYC;2007-02-12 06:24;CYYC 120624Z 04003KT 2 1/2SM -SN OVC028 M17/ RMK SC8

CYYC;2007-02-12 07:00;CYYC 120700Z 03003KT 2 1/2SM -SN BKN025 OVC040 M17/M18 A3015 RMK SC6SC2 SLP304

CYYC;2007-02-12 07:31;CYYC 120731Z 04003KT 4SM -SN BKN025 OVC040 M17/ RMK SC4SC4

CYYC;2007-02-12 07:56;CYYC 120756Z 04004KT 2 1/2SM -SN BKN025 OVC035 M17/ RMK SC3SC5

CYYC;2007-02-12 08:00;CYYC 120800Z 04004KT 2 1/2SM -SN BKN025 OVC035 M17/M18 A3017 RMK SC3SC5 SLP309

CYYC;2007-02-12 08:52;CYYC 120852Z 04006KT 2 1/2SM -SN SCT025 OVC140 M17/ RMK SC2AC6

CYYC;2007-02-12 09:00;CYYC 120900Z 05005KT 4SM -SN FEW025 OVC140 M17/M19 A3018 RMK SC2AC6 SLP317

CYYC;2007-02-12 10:00;CYYC 121000Z 06004KT 2 1/2SM -SN BKN049 OVC140 M18/M20 A3020 RMK SC6AC2 SLP321

CYYC;2007-02-12 11:00;CYYC 121100Z 03003KT 4SM -SN FEW049 OVC099 M19/M21 A3021 RMK SC2AC5 SLP324

CYYC;2007-02-12 12:00;CYYC 121200Z 03003KT 3SM -SN FEW017 SCT040 OVC085 M19/M22 A3022 RMK SC1SC2AC6 SNOW CVR/MUCH LOSE SLP334

CYYC;2007-02-12 12:36;CYYC 121236Z 04003KT 2 1/2SM -SN BKN040 OVC080 M19/ RMK SC6AC2

CYYC;2007-02-12 13:00;CYYC 121300Z 03004KT 2 1/2SM -SN OVC040 M19/M22 A3025 RMK SC8 SLP341

CYYC;2007-02-12 14:00;CYYC 121400Z 05002KT 1 1/2SM -SN OVC020 M19/M22 A3026 RMK SC8 SLP344

CYYC;2007-02-12 14:39;CYYC 121439Z CCA 07003KT 3SM -SN BR BKN025 BKN052 OVC073 M20/ RMK SC5SC2AC1

CYYC;2007-02-12 15:00;CYYC 121500Z 07002KT 4SM -SN BKN030 BKN043 OVC057 M20/M22 A3028 RMK SC5SC2SC1 SLP354

CYYC;2007-02-12 16:00;CYYC 121600Z 09003KT 3SM -SN BR BKN022 OVC042 M19/M22 A3029 RMK SC5SC3 SLP358

CYYC;2007-02-12 16:23;CYYC 121623Z 09003KT 2SM -SN BR FEW010 BKN017 OVC042 M19/ RMK SC2SC4SC2

CYYC;2007-02-12 17:00;CYYC 121700Z CCA 09003KT 1 3/4SM -SN BR SCT010 BKN021 OVC046 M18/M21 A3030 RMK SC3SC4SC1 /S01/ SLP362

CYYC;2007-02-12 17:53;CYYC 121753Z 11004KT 3/4SM -SN BR BKN008 OVC021 M18/ RMK SC5SC3 RVR RWY 34 6000+FT

CYYC;2007-02-12 18:00;CYYC 121800Z 12005KT 1SM -SN BR BKN008 OVC022 M18/M21 A3031 RMK SC5SC3 RVR RWY 34 6000+FT SLP366

CYYC;2007-02-12 19:00;CYYC 121900Z 10005KT 1 1/4SM -SN BKN011 OVC028 M18/M20 A3032 RMK SC5SC3 SLP368

CYYC;2007-02-12 19:43;CYYC 121943Z 11006KT 1 1/2SM -SN BKN013 OVC030 M18/ RMK SC5SC3

CYYC;2007-02-12 20:00;CYYC 122000Z 11006KT 2SM -SN BKN014 OVC032 M18/M20 A3032 RMK SC5SC3 SLP367

CYYC;2007-02-12 21:00;CYYC 122100Z 11008KT 1 1/2SM -SN DRSN BKN009 OVC020 M18/M20 A3031 RMK SC6SC2 SLP365

CYYC;2007-02-12 22:00;CYYC 122200Z 11007KT 1 1/2SM -SN BKN009 BKN014 OVC028 M18/M20 A3030 RMK SC5SC2SC2 SLP363

CYYC;2007-02-12 22:26;CYYC 122226Z 12007KT 1 1/2SM -SN FEW010 BKN016 OVC030 M18/ RMK SC2SC4SC2

CYYC;2007-02-12 23:00;CYYC 122300Z 13008KT 1 1/2SM -SN FEW011 OVC024 M18/M20 A3031 RMK SC2SC6 SLP367

CYYC;2007-02-12 23:31;CYYC 122331Z 12007KT 1SM -SN BKN009 OVC024 M18/ RMK SC5SC3 RVR RWY 16 6000+FT

CYYC;2007-02-12 23:54;CYYC 122354Z 12007KT 5/8SM -SN BKN009 OVC025 M18/ RMK SN2SC4SC2 RVR RWY 16 6000+FT

CYYC;2007-02-13 00:00;CYYC 130000Z 12008KT 5/8SM -SN BKN009 OVC025 M18/M21 A3032 RMK SN2SC4SC2 /S02/ RVR RWY 16 6000+FT SLP374

CYYC;2007-02-13 00:45;CYYC 130045Z 13006KT 1 1/4SM -SN DRSN BKN010 OVC025 M18/ RMK SC5SC3

CYYC;2007-02-13 01:00;CYYC 130100Z CCA 12007KT 1SM -SN DRSN BKN007 OVC017 M19/M21 A3032 RMK SC5SC3 RVR RWY 16 6000+FT SLP374

CYYC;2007-02-13 02:00;CYYC 130200Z 13008KT 1SM -SN DRSN BKN009 OVC020 M19/M21 A3033 RMK SC5SC3 RVR RWY 16 6000+FT SLP376

CYYC;2007-02-13 02:22;CYYC 130222Z 13009KT 2SM -SN DRSN SCT009 BKN014 OVC030 M19/ RMK SC3SC3SC2

CYYC;2007-02-13 03:00;CYYC 130300Z 14010KT 2SM -SN FEW007 BKN013 OVC026 M19/M21 A3033 RMK SC2SC6SC1 SLP378

CYYC;2007-02-13 04:00;CYYC 130400Z 13007KT 3SM -SN BKN013 OVC044 M19/M21 A3033 RMK SC5SC3 SLP377

CYYC;2007-02-13 05:00;CYYC 130500Z CCA 13008KT 5SM -SN OVC056 M19/M22 A3032 RMK SC8 SLP376

CYYC;2007-02-13 06:00;CYYC 130600Z 14007KT 5SM -SN BKN059 OVC110 M20/M23 A3032 RMK SC7AC1 SLP373

CYYC;2007-02-13 07:00;CYYC 130700Z 13006KT 4SM -SN OVC049 M20/M22 A3031 RMK SC8 SLP372

CYYC;2007-02-13 07:42;CYYC 130742Z 13006KT 2 1/2SM -SN BKN009 OVC025 M20/ RMK SC6SC2

CYYC;2007-02-13 08:00;CYYC 130800Z 13005KT 3SM -SN FEW012 OVC042 M20/M22 A3031 RMK SC2SC6 SLP372

CYYC;2007-02-13 09:00;CYYC 130900Z 13003KT 3SM -SN BKN016 OVC035 M20/M22 A3031 RMK SC5SC3 SLP371

CYYC;2007-02-13 10:00;CYYC 131000Z 12005KT 3SM -SN FEW016 BKN036 OVC062 M20/M23 A3031 RMK SC2SC5SC1 SLP369

CYYC;2007-02-13 11:00;CYYC 131100Z CCA 13007KT 1SM -SN BKN011 OVC025 M20/M23 A3030 RMK SN3SC3SC2 RVR RWY34 6000 FT SLP367

CYYC;2007-02-13 12:00;CYYC 131200Z 12005KT 1SM -SN BKN010 OVC021 M21/M24 A3030 RMK SN2SC4SC2 /SO1/ RVR RWY16 6000 FT SLP369

CYYC;2007-02-13 13:00;CYYC 131300Z 14004KT 1SM -SN BKN014 OVC025 M21/M24 A3030 RMK SN2SC2SC3 SLP368

CYYC;2007-02-13 14:00;CYYC 131400Z 14003KT 1 3/4SM -SN BKN018 OVC039 M21/M24 A3029 RMK SN2SC3SC3 SLP366

CYYC;2007-02-13 14:44;CYYC 131444Z 14004KT 3SM -SN BKN044 OVC064 M21/ RMK SC6SC2

CYYC;2007-02-13 15:00;CYYC 131500Z 12004KT 3SM -SN BKN031 OVC051 M21/M23 A3029 RMK SC6SC2 SLP365

CYYC;2007-02-13 16:00;CYYC 131600Z 11006KT 3SM -SN BKN020 BKN040 OVC053 M21/M24 A3029 RMK SC5SC2SC2 SLP366

CYYC;2007-02-13 17:00;CYYC 131700Z 11006KT 4SM -SN BKN022 OVC050 M21/M24 A3029 RMK SC5SC2 SLP366

CYYC;2007-02-13 18:00;CYYC 131800Z 10004KT 3SM -SN BKN019 BKN033 OVC050 M21/M23 A3030 RMK SC5SC2SC1 SLP370

CYYC;2007-02-13 19:00;CYYC 131900Z 10003KT 4SM -SN BKN020 OVC037 M20/M23 A3030 RMK SC5SC2 SLP370

CYYC;2007-02-13 20:00;CYYC 132000Z 09004KT 4SM -SN BKN022 OVC035 M20/M23 A3029 RMK SC5SC2 SLP368

CYYC;2007-02-13 21:00;CYYC 132100Z 10003KT 4SM -SN SCT025 BKN065 BKN083 M20/M22 A3028 RMK SC3SC3AC1 SLP363

CYYC;2007-02-13 22:00;CYYC 132200Z 15004KT 6SM -SN FEW025 BKN070 BKN090 M19/M22 A3028 RMK SC2AC3AC1 SLP363

CYYC;2007-02-13 23:00;CYYC 132300Z 14005KT 7SM FEW025 BKN073 BKN100 M19/M22 A3029 RMK SC2AC5AC1 SH S-W SLP364

CYYC;2007-02-14 00:00;CYYC 140000Z 12005KT 10SM FEW025 FEW077 SCT100 M21/M24 A3029 RMK SC1AC2AC2 SH S-W SLP371

CYYC;2007-02-14 01:00;CYYC 140100Z 14006KT 10SM FEW025 FEW070 BKN091 M22/M25 A3030 RMK SC1AC1AC4 SLP373

CYYC;2007-02-14 01:51;CYYC 140151Z 14005KT 8SM FEW070 SCT084 M22/ RMK AC1AC2

CYYC;2007-02-14 02:00;CYYC 140200Z 14006KT 8SM FEW020 FEW070 BKN085 M22/M25 A3030 RMK SC1AC1AC3 SLP372

CYYC;2007-02-14 03:00;CYYC 140300Z 14005KT 6SM IC FEW085 M23/M26 A3030 RMK AC1 SLP377

CYYC;2007-02-14 04:00;CYYC 140400Z 16007KT 6SM IC SKC M24/M26 A3029 RMK SLP374

CYYC;2007-02-14 05:00;CYYC 140500Z 18005KT 7SM SKC M23/M26 A3028 RMK SLP371

CYYC;2007-02-14 06:00;CYYC 140600Z 19007KT 7SM SKC M24/M27 A3027 RMK VIS SW 4 SLP366

CYYC;2007-02-14 06:27;CYYC 140627Z 19008KT 4SM IC SKC M23/

CYYC;2007-02-14 07:00;CYYC 140700Z 18009KT 4SM IC SKC M23/M25 A3026 RMK SLP363

CYYC;2007-02-14 08:00;CYYC 140800Z 18010KT 4SM IC FEW080 M23/M26 A3024 RMK AC1 SLP358

CYYC;2007-02-14 08:45;CYYC 140845Z CCA 18007KT 8SM FEW065 M23/ RMK SC1

CYYC;2007-02-14 09:00;CYYC 140900Z 18008KT 8SM FEW065 M23/M26 A3023 RMK SC0 SLP347

CYYC;2007-02-14 10:00;CYYC 141000Z 19007KT 10SM SKC M24/M27 A3021 RMK SLP341

CYYC;2007-02-14 11:00;CYYC 141100Z 19007KT 10SM SKC M24/M27 A3018 RMK FROIN SLP332

CYYC;2007-02-14 12:00;CYYC 141200Z CCA 19005KT 10SM SKC M24/M28 A3015 RMK SNOW CVR/MUCH LOOSE FROIN SLP326

CYYC;2007-02-14 13:00;CYYC 141300Z 19006KT 10SM SKC M24/M27 A3014 RMK FROIN SLP321

CYYC;2007-02-14 14:00;CYYC 141400Z 19006KT 15SM BKN230 M23/M27 A3012 RMK CI0 FROIN SLP315

CYYC;2007-02-14 15:00;CYYC 141500Z 19006KT 30SM BKN230 M23/M26 A3011 RMK CI3 SLP311

CYYC;2007-02-14 16:00;CYYC 141600Z 20008KT 30SM SCT180 OVC230 M21/M25 A3010 RMK AC3CI2 SLP308

CYYC;2007-02-14 17:00;CYYC 141700Z 19007KT 20SM SCT180 OVC220 M20/M23 A3007 RMK AC3CI2 HZ SW-W SLP299

CYYC;2007-02-14 18:00;CYYC 141800Z 19009KT 30SM SCT160 OVC240 M19/M21 A3004 RMK AC3CI3 SLP282

CYYC;2007-02-14 19:00;CYYC 141900Z 19011KT 30SM SCT160 OVC240 M17/M19 A3000 RMK AC3CI3 SLP271

CYYC;2007-02-14 20:00;CYYC 142000Z 18008KT 30SM SCT160 OVC210 M15/M17 A2997 RMK AC3CI4 SLP262

CYYC;2007-02-14 21:00;CYYC 142100Z 17010KT 20SM FEW160 OVC240 M13/M16 A2994 RMK AC2CI3 SLP237

CYYC;2007-02-14 22:00;CYYC 142200Z 18008KT 20SM FEW070 FEW160 BKN240 M13/M16 A2990 RMK AC1AC2CI2 SLP226

CYYC;2007-02-14 22:31;CYYC 142231Z 15007KT 20SM FEW070 FEW150 BKN240 M14/ RMK AC1AC2CI2 ALTIMTER 29.88

CYYC;2007-02-14 23:00;CYYC 142300Z 15006KT 20SM FEW080 FEW180 BKN240 M14/M17 A2987 RMK AC1AC2CI2 SLP217

CYYC;2007-02-15 00:00;CYYC 150000Z CCA 18006KT 20SM FEW070 FEW180 BKN240 M13/M15 A2984 RMK AC1AC2CI2 SLP202

CYYC;2007-02-15 01:00;CYYC 150100Z 19010KT 20SM FEW070 SCT120 OVC210 M13/M15 A2980 RMK AC1AC3CI2 SLP190

CYYC;2007-02-15 02:00;CYYC 150200Z 20013KT 15SM FEW070 SCT100 OVC210 M10/M12 A2977 RMK AC1AC4CI2 SLP182

CYYC;2007-02-15 03:00;CYYC 150300Z 19007KT 15SM FEW090 OVC120 M07/M10 A2975 RMK AC2AC5 SLP161

CYYC;2007-02-15 04:00;CYYC 150400Z 18007KT 15SM FEW090 BKN110 OVC200 M03/M07 A2973 RMK AC2AC5CI1 SLP156

CYYC;2007-02-15 05:00;CYYC 150500Z 28012G17KT 15SM OVC220 02/M06 A2973 RMK CI6 SLP156

CYYC;2007-02-15 06:00;CYYC 150600Z 27021G26KT 15SM BKN230 02/M05 A2972 RMK CI5 SLP132

CYYC;2007-02-15 07:00;CYYC 150700Z 27016G22KT 15SM OVC240 02/M06 A2972 RMK CI7 SLP132

CYYC;2007-02-15 08:00;CYYC 150800Z 28016KT 15SM BKN240 01/M06 A2973 RMK CI5 SLP134

CYYC;2007-02-15 09:00;CYYC 150900Z 27021G26KT 15SM BKN240 02/M06 A2972 RMK CI4 BLSN SLP126

CYYC;2007-02-15 10:00;CYYC 151000Z 28021G29KT 12SM FEW240 01/M06 A2972 RMK CI0 BLSN SLP125

CYYC;2007-02-15 11:00;CYYC 151100Z 27025G32KT 12SM SKC 01/M03 A2975 RMK BLSN SLP134

CYYC;2007-02-15 12:00;CYYC 151200Z 28020KT 12SM BKN180 02/M06 A2976 RMK AC6 SNOW COVER/MEDIUM PACK SLP138

CYYC;2007-02-15 13:00;CYYC 151300Z 27017KT 15SM OVC170 02/M07 A2975 RMK AC7 SLP136

CYYC;2007-02-15 14:00;CYYC 151400Z 27021KT 15SM FEW180 BKN220 02/M07 A2974 RMK AC2CI4 SLP132

CYYC;2007-02-15 15:00;CYYC 151500Z 28017G24KT 40SM DRSN FEW080 BKN190 OVC240 02/M08 A2972 RMK AC1AC4CI1 SLP116

CYYC;2007-02-15 16:00;CYYC 151600Z CCA 25014KT 40SM DRSN FEW080 BKN160 BKN240 03/M08 A2972 RMK AC1AC5CI2 SLP115

CYYC;2007-02-15 17:00;CYYC 151700Z 25010G15KT 40SM FEW070 SCT160 BKN240 03/M07 A2971 RMK AC1AC3CI2 SLP111

CYYC;2007-02-15 18:00;CYYC 151800Z 16006KT 40SM FEW060 BKN140 BKN220 03/M07 A2968 RMK SC1AC5CI2 SLP088

CYYC;2007-02-15 19:00;CYYC 151900Z 22007KT 40SM FEW060 BKN140 BKN220 03/M06 A2966 RMK SC1AC5CI2 SLP081

CYYC;2007-02-15 20:00;CYYC 152000Z 24011KT 30SM FEW060 BKN092 OVC210 04/M06 A2961 RMK SC1AC6CI1 SLP064

CYYC;2007-02-15 21:00;CYYC 152100Z 27010G15KT 30SM FEW052 BKN078 OVC150 04/M05 A2956 RMK SC2AS4AC1 SLP043

CYYC;2007-02-15 22:00;CYYC 152200Z 20002KT 40SM FEW065 BKN130 BKN240 05/M05 A2952 RMK SC1AC5CI2 SLP030

CYYC;2007-02-15 23:00;CYYC 152300Z 15002KT 40SM FEW040 SCT150 BKN240 07/M05 A2946 RMK CF1AC2CI1 SLP014

CYYC;2007-02-16 00:00;CYYC 160000Z 18007KT 40SM FEW120 SCT240 03/M04 A2941 RMK AC2CI0 SLP992

CYYC;2007-02-16 01:00;CYYC 160100Z 07002KT 20SM FEW070 FEW130 SCT240 02/M04 A2939 RMK AC1AC1CI0 SLP987

CYYC;2007-02-16 02:00;CYYC 160200Z 26005KT 15SM FEW170 SCT240 01/M05 A2939 RMK AC2CI0 SLP986

CYYC;2007-02-16 03:00;CYYC 160300Z 28016G26KT 15SM FEW180 04/M04 A2939 RMK AC1 SLP983

CYYC;2007-02-16 04:00;CYYC 160400Z 27017KT 15SM FEW140 SCT160 04/M05 A2940 RMK AC1AC2 SLP985

CYYC;2007-02-16 05:00;CYYC 160500Z 33010G15KT 15SM FEW140 BKN180 01/M05 A2944 RMK AC2AC1 SLP998

CYYC;2007-02-16 06:00;CYYC 160600Z 31013G18KT 15SM SCT170 01/M04 A2948 RMK AC2 SLP017

CYYC;2007-02-16 07:00;CYYC 160700Z 01013KT 15SM FEW110 BKN170 BKN210 M01/M03 A2954 RMK AC1AC1CI1 LO AC TR SLP035

CYYC;2007-02-16 07:30;CYYC 160730Z 33014KT 3SM BR OVC002 M03/ RMK ST8

CYYC;2007-02-16 07:35;CYYC 160735Z 33013KT 1 3/4SM BR OVC001 M03/ RMK ST8

CYYC;2007-02-16 07:40;CYYC 160740Z 33014KT 2SM BR OVC001 M03/ RMK ST8 VIS NE 1

CYYC;2007-02-16 07:49;CYYC 160749Z 33011KT 2SM BR OVC002 M03/ RMK ST8 VIS 2 ALQDS

CYYC;2007-02-16 08:00;CYYC 160800Z 33012KT 2 1/2SM BR OVC002 M02/M03 A2958 RMK ST7 SLP049

CYYC;2007-02-16 08:03;CYYC 160803Z 34012KT 3SM BR OVC003 M02/ RMK ST7

CYYC;2007-02-16 08:15;CYYC 160815Z 33012KT 5SM BR OVC004 M02/ RMK ST7

CYYC;2007-02-16 08:28;CYYC 160828Z 32011KT 5SM BR FEW003 BKN005 OVC090 M02/ RMK ST1ST5AC2

CYYC;2007-02-16 08:42;CYYC 160842Z 33010KT 5SM BR SCT005 BKN075 OVC089 M01/ RMK ST4AC2AC2

CYYC;2007-02-16 09:00;CYYC 160900Z 33010KT 5SM BR FEW001 FEW004 BKN066 OVC089 M01/M02 A2963 RMK ST1ST1AC5AC2 SLP071

CYYC;2007-02-16 10:00;CYYC 161000Z 32009KT 12SM BKN056 OVC100 M01/M02 A2969 RMK SC6AC2 SLP090

CYYC;2007-02-16 11:00;CYYC 161100Z 32012G17KT 7SM FEW016 OVC100 00/M02 A2974 RMK SC2AC6 SLP107

CYYC;2007-02-16 12:00;CYYC 161200Z 32013KT 15SM SCT090 BKN200 OVC220 M01/M03 A2977 RMK AC3CI2CI1 SNOW COVER/MEDIUM PACK SLP120

CYYC;2007-02-16 13:00;CYYC 161300Z 33010KT 15SM FEW100 BKN180 OVC220 M01/M04 A2981 RMK AC1AC4CI2 SLP133

CYYC;2007-02-16 14:00;CYYC 161400Z 34008KT 15SM FEW019 SCT075 BKN120 BKN180 M02/M04 A2985 RMK SC1AC2AC2AC1 SLP144

CYYC;2007-02-16 15:00;CYYC 161500Z 35008KT 40SM FEW016 BKN080 OVC180 M00/M03 A2989 RMK SC0AC7AC1 SLP160

CYYC;2007-02-16 16:00;CYYC 161600Z 34006KT 40SM FEW016 BKN090 BKN180 M02/M04 A2992 RMK SC1AC3AC1 SLP169

CYYC;2007-02-16 17:00;CYYC 161700Z 24005KT 40SM FEW016 BKN094 BKN180 00/M03 A2995 RMK SC1AC3AC1 SLP178

CYYC;2007-02-16 18:00;CYYC 161800Z 19007KT 40SM FEW016 BKN080 01/M03 A2997 RMK SC1AC4 SLP191

CYYC;2007-02-16 19:00;CYYC 161900Z 18007KT 40SM FEW060 BKN100 02/M03 A2998 RMK SC1AC2 VIRGA SLP195

CYYC;2007-02-16 20:00;CYYC 162000Z 18005KT 40SM FEW070 BKN100 BKN180 03/M03 A2998 RMK AC1AC3AC1 VIRGA SLP195

CYYC;2007-02-16 21:00;CYYC 162100Z 27017G22KT 40SM FEW070 SCT100 SCT180 05/M08 A2998 RMK AC2AC0AC1 SHS DIST NE SLP195

CYYC;2007-02-16 22:00;CYYC 162200Z 27017KT 40SM FEW080 FEW180 FEW220 05/M08 A3000 RMK AC1AC1CI0 SHS DIST N-E / UPR AC LYR TR SLP199

CYYC;2007-02-16 23:00;CYYC 162300Z 29015KT 40SM FEW040 FEW080 FEW220 05/M10 A3002 RMK SC1AC1CI1 SHS NW-E / SC TR SLP205

CYYC;2007-02-17 00:00;CYYC 170000Z 03008KT 40SM BKN090 BKN220 02/M05 A3006 RMK AC5CI1 VIRGA SLP222

CYYC;2007-02-17 01:00;CYYC 170100Z 09005KT 40SM BKN110 OVC200 00/M04 A3009 RMK AC6CI1 SLP232

CYYC;2007-02-17 02:00;CYYC 170200Z 09007KT 15SM BKN110 OVC220 M02/M04 A3012 RMK AC5CI2 SLP241

CYYC;2007-02-17 03:00;CYYC 170300Z 21003KT 15SM FEW110 BKN200 M01/M05 A3012 RMK AC1CI2 SLP251

CYYC;2007-02-17 04:00;CYYC 170400Z 18003KT 15SM OVC210 M01/M05 A3012 RMK CI2 SLP251

CYYC;2007-02-17 05:00;CYYC 170500Z 23007KT 15SM BKN190 OVC210 M02/M09 A3013 RMK AC6CI0 SLP252

CYYC;2007-02-17 06:00;CYYC 170600Z 27016KT 15SM BKN180 OVC210 00/M10 A3012 RMK AC6CI0 SLP244

CYYC;2007-02-17 07:00;CYYC 170700Z 27013KT 15SM FEW180 BKN210 M00/M11 A3011 RMK AC2CI0 SLP242

CYYC;2007-02-17 08:00;CYYC 170800Z 26014KT 15SM FEW180 BKN210 00/M11 A3010 RMK AC2CI0 SLP238

CYYC;2007-02-17 09:00;CYYC 170900Z 25010KT 15SM FEW190 BKN210 M01/M11 A3008 RMK AC2CI0 SLP228

CYYC;2007-02-17 10:00;CYYC 171000Z 26010KT 15SM FEW150 SCT210 M01/M11 A3007 RMK AC1CI0 SLP224

CYYC;2007-02-17 11:00;CYYC 171100Z 15006KT 15SM FEW150 FEW210 M03/M12 A3005 RMK AC1CI0 SLP219

CYYC;2007-02-17 12:00;CYYC 171200Z CCA 27015KT 15SM FEW150 FEW210 01/M10 A3002 RMK AC1CI1 SNOW COVER/MEDIUM PACK SLP209

CYYC;2007-02-17 13:00;CYYC 171300Z 27013KT 15SM FEW180 FEW210 01/M09 A3000 RMK AC1CI0 SLP201

CYYC;2007-02-17 14:00;CYYC 171400Z 00000KT 15SM FEW180 FEW210 02/M10 A2999 RMK AC1CI0 SLP198

CYYC;2007-02-17 15:00;CYYC 171500Z 21007KT 40SM FEW080 FEW160 BKN220 M03/M10 A2998 RMK AC1AC1CI0 SLP206

CYYC;2007-02-17 16:00;CYYC 171600Z 21008KT 40SM FEW080 SCT120 BKN250 M02/M10 A2997 RMK AC1AC1CI1 SLP203

CYYC;2007-02-17 17:00;CYYC 171700Z 21005KT 40SM FEW080 SCT120 BKN250 00/M08 A2996 RMK AC1AC1CI1 SLP200

CYYC;2007-02-17 18:00;CYYC 171800Z 24013G21KT 40SM FEW080 FEW120 BKN230 BKN260 06/M06 A2992 RMK AC1AC1CI4CI1 SLP169

CYYC;2007-02-17 19:00;CYYC 171900Z 27024G29KT 40SM FEW080 BKN150 BKN230 06/M06 A2989 RMK AC1AC6CI1 SLP160

CYYC;2007-02-17 20:00;CYYC 172000Z 29011KT 40SM FEW070 BKN140 BKN230 06/M05 A2988 RMK AC1AC6CI1 SLP158

CYYC;2007-02-17 21:00;CYYC 172100Z 27013KT 40SM FEW070 BKN160 BKN230 06/M05 A2985 RMK AC1AC6CI1 SLP146

CYYC;2007-02-17 22:00;CYYC 172200Z 28011G19KT 40SM FEW070 FEW140 BKN180 BKN230 06/M04 A2984 RMK AC1AC1AC6CI2 SLP142

CYYC;2007-02-17 23:00;CYYC 172300Z 28005KT 40SM FEW070 SCT180 OVC230 06/M04 A2984 RMK AC1AC2CI6 SLP142

CYYC;2007-02-18 00:00;CYYC 180000Z 20007KT 40SM FEW080 SCT190 BKN260 05/M03 A2980 RMK AC1AC3CI4 SLP129

CYYC;2007-02-18 01:00;CYYC 180100Z 18007KT 40SM FEW080 SCT190 BKN260 03/M04 A2977 RMK AC1AC2CI2 SLP120

CYYC;2007-02-18 02:00;CYYC 180200Z 21007KT 15SM FEW080 BKN260 02/M04 A2974 RMK AC1CI2 SLP109

CYYC;2007-02-18 03:00;CYYC 180300Z 18007KT 15SM FEW250 01/M05 A2970 RMK CI0 SLP104

CYYC;2007-02-18 04:00;CYYC 180400Z 21004KT 15SM FEW250 00/M06 A2964 RMK CI0 SLP088

CYYC;2007-02-18 05:00;CYYC 180500Z 16006KT 15SM SKC M01/M06 A2960 RMK SLP074

CYYC;2007-02-18 06:00;CYYC 180600Z 19007KT 15SM SKC M00/M07 A2956 RMK SLP043

CYYC;2007-02-18 07:00;CYYC 180700Z 18006KT 15SM SKC M02/M07 A2951 RMK SLP029

CYYC;2007-02-18 08:00;CYYC 180800Z 22008KT 15SM SKC M05/M09 A2947 RMK SLP016

CYYC;2007-02-18 09:00;CYYC 180900Z 25013KT 15SM SKC 01/M07 A2944 RMK SLP000

CYYC;2007-02-18 10:00;CYYC 181000Z 23010KT 15SM SKC 03/M06 A2945 RMK SLP003

CYYC;2007-02-18 11:00;CYYC 181100Z 20007KT 15SM SCT140 02/M06 A2942 RMK AC2 SLP992

CYYC;2007-02-18 12:00;CYYC 181200Z 20009KT 15SM SCT140 02/M03 A2938 RMK AC2 SNOW COVER/MEDIUM PACK SLP978

CYYC;2007-02-18 13:00;CYYC 181300Z 21011KT 15SM BKN160 01/M03 A2934 RMK AC4 SLP968

CYYC;2007-02-18 14:00;CYYC 181400Z 30011KT 15SM SCT063 OVC140 03/M02 A2937 RMK SC3AC4 SLP975

CYYC;2007-02-18 15:00;CYYC 181500Z 28009G15KT 20SM -RA FEW060 BKN084 BKN240 03/M00 A2937 RMK SC2AC2CI1 SLP981

CYYC;2007-02-18 15:16;CYYC 181516Z 25012G17KT 20SM FEW060 SCT084 BKN240 02/ RMK SC1AC2CI1

CYYC;2007-02-18 16:00;CYYC 181600Z 24012KT 40SM FEW060 FEW085 FEW240 02/M03 A2933 RMK SC1AC1CI1 SC+AC LYRS TR SLP968

CYYC;2007-02-18 17:00;CYYC 181700Z 25025G33KT 40SM FEW060 FEW085 FEW240 04/M07 A2930 RMK SC1AC1CI1 SLP959

CYYC;2007-02-18 18:00;CYYC 181800Z 26022G36KT 40SM FEW060 FEW085 FEW240 04/M07 A2932 RMK SC1AC1CI1 SLP962

CYYC;2007-02-18 19:00;CYYC 181900Z 26025G32KT 30SM FEW060 FEW085 05/M09 A2931 RMK SC1AC1 SC TR / SHS DIST S-W SLP961

CYYC;2007-02-18 20:00;CYYC 182000Z 27030G40KT 40SM FEW060 FEW085 05/M08 A2931 RMK SC1AC1 SC TR / SHS DIST S-W SLP961

CYYC;2007-02-18 21:00;CYYC 182100Z 27021G28KT 40SM FEW060 FEW085 FEW220 04/M07 A2931 RMK SC1AC1CI0 SC TR SLP959

CYYC;2007-02-18 22:00;CYYC 182200Z 28017G22KT 40SM FEW060 FEW100 SCT220 05/M08 A2933 RMK SC1AC1CI1 SLP963

CYYC;2007-02-18 23:00;CYYC 182300Z 27018G24KT 40SM FEW060 FEW100 BKN200 04/M08 A2935 RMK SC1AC1CI1 SC TR SLP969

CYYC;2007-02-19 00:00;CYYC 190000Z 27017KT 20SM FEW060 FEW100 BKN170 03/M07 A2936 RMK SC1AC1AC3 SHS DIST ALQDS SLP974

CYYC;2007-02-19 01:00;CYYC 190100Z CCA 27015G20KT 20SM FEW040 FEW100 BKN170 02/M08 A2937 RMK SC1AC2AC1 SHS NE+ DIST SW SLP979

CYYC;2007-02-19 02:00;CYYC 190200Z 35007KT 15SM FEW080 BKN170 M01/M06 A2942 RMK AC1AC3 SLP992

CYYC;2007-02-19 03:00;CYYC 190300Z 00000KT 15SM BKN150 M01/M07 A2941 RMK AC6 SLP998

CYYC;2007-02-19 04:00;CYYC 190400Z 28013KT 15SM BKN120 00/M09 A2942 RMK AC6 SLP001

CYYC;2007-02-19 05:00;CYYC 190500Z 35008KT 15SM FEW120 M02/M10 A2945 RMK AC1 SLP009

CYYC;2007-02-19 06:00;CYYC 190600Z 36008KT 15SM OVC004 M05/M07 A2948 RMK ST8 SLP025

CYYC;2007-02-19 07:00;CYYC 190700Z 00000KT 3SM BR OVC004 M05/M07 A2948 RMK ST8 SLP026

CYYC;2007-02-19 07:11;CYYC 190711Z 31004KT 1/8SM FZFG VV002 M05/ RMK FG8 RVR RWY34 5000 FT

CYYC;2007-02-19 08:00;CYYC 190800Z 24004KT 1 1/4SM BR OVC003 M04/M05 A2948 RMK FG4ST3 SLP025

CYYC;2007-02-19 09:00;CYYC 190900Z 22006KT 1/2SM FZFG OVC004 M03/M05 A2947 RMK FG6SC2 RVR RWY 16 4000 FT VIA YEG SLP021

CYYC;2007-02-19 10:00;CYYC 191000Z 19008KT 1/2SM FZFG OVC004 M05/M06 A2946 RMK FG5ST3 RVRRWY28 3000 FT SLP018

CYYC;2007-02-19 10:28;CYYC 191028Z 20006KT 6SM BR FEW008 OVC120 M06/ RMK SF2AC6

CYYC;2007-02-19 11:00;CYYC 191100Z 21007KT 12SM OVC150 M06/M07 A2945 RMK AC8 SLP015

CYYC;2007-02-19 12:00;CYYC 191200Z 22006KT 15SM SCT150 M08/M09 A2943 RMK AC2 SNOW COVER/MEDIUM PACK SLP015

CYYC;2007-02-19 13:00;CYYC 191300Z 21008KT 15SM FEW150 M08/M10 A2943 RMK AC1 SLP014

CYYC;2007-02-19 14:00;CYYC 191400Z 22007KT 15SM FEW080 FEW140 M08/M11 A2943 RMK AC1AC1 SLP014

CYYC;2007-02-19 15:00;CYYC 191500Z 17003KT 40SM FEW080 FEW140 SCT240 M07/M12 A2943 RMK AC1AC1CI1 SLP020

CYYC;2007-02-19 16:00;CYYC 191600Z 16003KT 40SM FEW080 BKN110 M05/M11 A2944 RMK AC1AC4 SLP021

CYYC;2007-02-19 17:00;CYYC 191700Z 27006KT 40SM FEW080 SCT140 BKN240 00/M10 A2944 RMK AC1AC1CI0 SLP023

CYYC;2007-02-19 18:00;CYYC 191800Z 26008KT 40SM FEW080 FEW140 FEW240 02/M09 A2943 RMK AC1AC1CI0 SLP013

CYYC;2007-02-19 19:00;CYYC 191900Z 27005KT 40SM FEW080 FEW140 BKN260 03/M10 A2942 RMK AC1AC1CI0 SLP007

CYYC;2007-02-19 20:00;CYYC 192000Z 25012KT 40SM FEW080 FEW150 BKN260 04/M10 A2939 RMK AC1AC1CI0 SLP999

CYYC;2007-02-19 21:00;CYYC 192100Z 25008KT 40SM FEW080 BKN110 BKN260 03/M09 A2935 RMK AC1AC6CI0 SLP980

CYYC;2007-02-19 22:00;CYYC 192200Z 18008KT 40SM FEW080 BKN110 03/M08 A2933 RMK AC1AC7 SLP972

CYYC;2007-02-19 23:00;CYYC 192300Z 18008KT 40SM FEW080 BKN130 02/M07 A2929 RMK AC1AC7 SLP960

CYYC;2007-02-20 00:00;CYYC 200000Z 18009KT 40SM FEW080 BKN140 02/M08 A2926 RMK AC1AC7 SLP954

CYYC;2007-02-20 01:00;CYYC 200100Z 12007KT 40SM FEW080 OVC140 M00/M06 A2923 RMK AC1AC7 SLP945

CYYC;2007-02-20 02:00;CYYC 200200Z 17007KT 15SM FEW080 OVC160 M00/M07 A2920 RMK AC1AC8 SLP936

CYYC;2007-02-20 03:00;CYYC 200300Z 18003KT 15SM OVC150 M01/M07 A2918 RMK AC7 SLP931

CYYC;2007-02-20 04:00;CYYC 200400Z 00000KT 15SM OVC170 M00/M07 A2917 RMK AC7 SLP926

CYYC;2007-02-20 05:00;CYYC 200500Z 22005KT 15SM OVC180 M00/M07 A2915 RMK AC7 SLP922

CYYC;2007-02-20 06:00;CYYC 200600Z 22002KT 15SM BKN160 BKN220 01/M09 A2915 RMK AC5CI1 SLP906

CYYC;2007-02-20 07:00;CYYC 200700Z 25005KT 15SM FEW160 01/M09 A2915 RMK AC0 SLP905

CYYC;2007-02-20 08:00;CYYC 200800Z 23012G18KT 15SM SKC 03/M10 A2915 RMK SLP904

CYYC;2007-02-20 09:00;CYYC 200900Z 25014KT 15SM SKC 01/M09 A2913 RMK SLP895

CYYC;2007-02-20 10:00;CYYC 201000Z 23011KT 15SM SKC M00/M09 A2914 RMK SLP900

CYYC;2007-02-20 11:00;CYYC 201100Z 20007KT 15SM SKC M03/M11 A2913 RMK SLP896

CYYC;2007-02-20 12:00;CYYC 201200Z 23013KT 15SM SKC M01/M09 A2914 RMK SNOW COVER/MEDIUM PACK SLP904

CYYC;2007-02-20 13:00;CYYC 201300Z 23016KT 15SM FEW100 01/M06 A2916 RMK AC0 SLP909

CYYC;2007-02-20 14:00;CYYC 201400Z 25008KT 15SM FEW080 SCT110 01/M05 A2917 RMK AC1AC3 VIRGA E-S SLP913

CYYC;2007-02-20 15:00;CYYC 201500Z 25011KT 20SM FEW028 BKN063 BKN090 02/M05 A2918 RMK CU1SC6AC2 SH S-NW SLP919

CYYC;2007-02-20 16:00;CYYC 201600Z 24012G17KT 15SM FEW028 BKN058 BKN090 02/M04 A2921 RMK CU1SC7AC1 SH SE-NW SLP926

CYYC;2007-02-20 17:00;CYYC 201700Z 22009KT 20SM FEW028 BKN068 BKN110 02/M03 A2920 RMK CU2AC3AC2 SH E+S-W SLP925

CYYC;2007-02-20 18:00;CYYC 201800Z 22009KT 20SM FEW028 BKN066 BKN150 02/M04 A2920 RMK CU1AC5AC2 SH E-W SLP920

CYYC;2007-02-20 19:00;CYYC 201900Z 23011KT 20SM FEW029 SCT065 BKN160 03/M05 A2920 RMK CU1SC3AC4 SH SE-SW SLP921

CYYC;2007-02-20 20:00;CYYC 202000Z 22009KT 30SM FEW035 FEW065 SCT170 04/M05 A2919 RMK CU1SC2AC1 SH SE-SW SLP919

CYYC;2007-02-20 21:00;CYYC 202100Z 01013G19KT 30SM FEW035 FEW080 BKN180 M01/M06 A2923 RMK CU1AC2AC4 SH SW SLP936

CYYC;2007-02-20 22:00;CYYC 202200Z 36015KT 30SM FEW035 FEW080 FEW180 M01/M05 A2924 RMK CU1AC1AC1 SLP940

CYYC;2007-02-20 23:00;CYYC 202300Z 36013KT 30SM FEW017 FEW035 FEW180 M01/M05 A2927 RMK CF1CU1AC1 SLP950

CYYC;2007-02-21 00:00;CYYC 210000Z CCA 32007KT 30SM FEW020 FEW035 SCT170 M01/M05 A2933 RMK SC1CU2AC2 SH NW SLP971

CYYC;2007-02-21 01:00;CYYC 210100Z 36009KT 30SM FEW030 SCT170 M03/M07 A2934 RMK SC2AC0 SLP983

CYYC;2007-02-21 01:45;CYYC 210145Z 33010KT 15SM -SN BKN034 BKN100 M04/ RMK SC6AC1

CYYC;2007-02-21 02:00;CYYC 210200Z 36016G21KT 15SM FEW018 BKN190 OVC210 M01/M05 A2957 RMK SC2AC5CI1 TCU ASOCTD SLP044

CYYC;2007-02-21 02:10;CYYC 210210Z 35007KT 1 3/4SM -SN FEW008 BKN018 M03/ RMK SC2SC5

CYYC;2007-02-21 02:29;CYYC 210229Z 35010KT 7SM FEW008 FEW018 BKN057 M04/ RMK SC1SC1SC3

CYYC;2007-02-21 03:00;CYYC 210300Z 35006KT 15SM FEW051 BKN150 M04/M07 A2941 RMK SC1AC3 SLP004

CYYC;2007-02-21 04:00;CYYC 210400Z 28006KT 15SM BKN140 M05/M07 A2943 RMK AC4 SLP010

CYYC;2007-02-21 04:19;CYYC 210419Z CCA 36017KT 5/8SM -SN OVC008 M02/ RMK SC8 VIS 11/4 E/ RVR RWY34 4000 FT

CYYC;2007-02-21 04:26;CYYC 210426Z 36013G20KT 1 3/4SM -SN BKN011 OVC026 M02/ RMK SC7SC1 VIS 2 E

CYYC;2007-02-21 04:30;CYYC 210430Z 36011G17KT 4SM -SN BKN020 OVC036 M02/ RMK SC6SC2

CYYC;2007-02-21 05:00;CYYC 210500Z 25007KT 15SM BKN140 M05/M07 A2945 RMK AC2 SLP016

CYYC;2007-02-21 06:00;CYYC 210600Z 21005KT 15SM BKN180 M08/M09 A2948 RMK AC3 SLP033

CYYC;2007-02-21 07:00;CYYC 210700Z 20006KT 15SM FEW180 M07/M09 A2950 RMK AC0 SLP039

CYYC;2007-02-21 08:00;CYYC 210800Z CCA 27006KT 15SM FEW100 M07/M10 A2952 RMK AC1 SLP045

CYYC;2007-02-21 09:00;CYYC 210900Z 00000KT 15SM FEW100 M07/M11 A2955 RMK AC1 SLP058

CYYC;2007-02-21 10:00;CYYC 211000Z 00000KT 15SM FEW100 M05/M13 A2957 RMK AC1 SLP066

CYYC;2007-02-21 11:00;CYYC 211100Z 26006KT 15SM FEW100 FEW220 M05/M12 A2960 RMK AC1CI1 SLP073

CYYC;2007-02-21 12:00;CYYC 211200Z 13005KT 15SM SCT220 M07/M14 A2963 RMK CI1 SNOW CVR/TRACE LOOSE SLP087

CYYC;2007-02-21 13:00;CYYC 211300Z 22004KT 15SM BKN180 M05/M13 A2965 RMK AC2 SLP094

CYYC;2007-02-21 14:00;CYYC 211400Z 18003KT 30SM FEW080 BKN210 M06/M14 A2967 RMK AC1CI0 SLP101

CYYC;2007-02-21 15:00;CYYC 211500Z 27009KT 40SM FEW070 BKN210 M04/M13 A2969 RMK AC1CI2 SLP111

CYYC;2007-02-21 16:00;CYYC 211600Z 25006KT 40SM FEW045 FEW160 SCT230 M03/M13 A2972 RMK SC1AC1CI1 SC TR SLP119

CYYC;2007-02-21 17:00;CYYC 211700Z 22005KT 40SM FEW045 FEW160 SCT230 M04/M13 A2974 RMK SC1AC1CI1 SC TR SLP125

CYYC;2007-02-21 18:00;CYYC 211800Z 21005KT 40SM FEW045 FEW180 SCT240 M01/M11 A2976 RMK SC1AC1CI1 SC TR SLP134

CYYC;2007-02-21 19:00;CYYC 211900Z 29007KT 40SM FEW045 FEW180 SCT240 02/M12 A2977 RMK CU1AC1CI1 SLP138

CYYC;2007-02-21 20:00;CYYC 212000Z 27011KT 40SM FEW045 FEW180 SCT240 02/M11 A2978 RMK CU1AC1CI1 CU TR SLP140

CYYC;2007-02-21 21:00;CYYC 212100Z 28008KT 40SM FEW040 FEW160 SCT240 03/M13 A2978 RMK CU1AC1CI1 SLP136

CYYC;2007-02-21 22:00;CYYC 212200Z 29012KT 40SM FEW040 FEW160 FEW240 02/M12 A2979 RMK CU1AC1CI1 TCU PRSNT S SLP139

CYYC;2007-02-21 23:00;CYYC 212300Z 27011KT 30SM FEW040 FEW170 SCT240 03/M12 A2980 RMK CU1AC1CI1 VIRGA N SLP142

CYYC;2007-02-22 00:00;CYYC 220000Z 28010KT 30SM FEW040 FEW080CB FEW170 SCT240 02/M12 A2981 RMK CU1CB1AC1CI0 SH DIST N/ CB N SLP148

CYYC;2007-02-22 01:00;CYYC 220100Z 27007KT 30SM FEW040 FEW090CB FEW240 M01/M12 A2982 RMK CU1CB1CI1 SLP151

CYYC;2007-02-22 02:00;CYYC 220200Z 28003KT 15SM FEW050 FEW100 FEW240 M01/M13 A2984 RMK SC1AC1CI1 SC TR SLP155

CYYC;2007-02-22 03:00;CYYC 220300Z 21008KT 15SM FEW090 M04/M13 A2985 RMK AC2 SLP163

CYYC;2007-02-22 04:00;CYYC 220400Z 21005KT 15SM FEW090 M03/M14 A2985 RMK AC1 SLP165

CYYC;2007-02-22 05:00;CYYC 220500Z 20003KT 15SM SKC M04/M14 A2986 RMK SLP169

CYYC;2007-02-22 06:00;CYYC 220600Z 22004KT 15SM SKC M06/M15 A2986 RMK SLP168

CYYC;2007-02-22 07:00;CYYC 220700Z 20003KT 15SM SKC M06/M15 A2985 RMK SLP164

CYYC;2007-02-22 08:00;CYYC 220800Z 01005KT 15SM SKC M09/M15 A2985 RMK SLP163

CYYC;2007-02-22 09:00;CYYC 220900Z 35004KT 15SM SKC M10/M15 A2985 RMK SLP166

CYYC;2007-02-22 10:00;CYYC 221000Z 31004KT 15SM SKC M11/M16 A2985 RMK SLP164

CYYC;2007-02-22 11:00;CYYC 221100Z 14002KT 15SM FEW170 SCT200 M11/M15 A2985 RMK AC1CI1 SLP164

CYYC;2007-02-22 12:00;CYYC 221200Z 24004KT 15SM SCT150 BKN200 M11/M15 A2984 RMK AC1CI0 SNOW COVER/TRACE LOOSE SLP163

CYYC;2007-02-22 13:00;CYYC 221300Z 36004KT 15SM SCT120 BKN220 M12/M16 A2984 RMK AC1CI0 SLP163

CYYC;2007-02-22 14:00;CYYC 221400Z 01002KT 15SM BKN120 BKN200 M11/M15 A2982 RMK AC1CI0 SLP156

CYYC;2007-02-22 15:00;CYYC 221500Z 33003KT 30SM FEW120 BKN250 M12/M15 A2979 RMK AC2CI0 SLP155

CYYC;2007-02-22 16:00;CYYC 221600Z 12005KT 30SM BKN110 BKN220 M10/M14 A2980 RMK AC6CI2 SLP157

CYYC;2007-02-22 17:00;CYYC 221700Z 13004KT 20SM BKN120 BKN220 M09/M13 A2978 RMK AC6CI1 SLP151

CYYC;2007-02-22 18:00;CYYC 221800Z 15005KT 8SM BKN051 OVC110 M07/M12 A2977 RMK SC5AC3 SH DIST S-W SLP144

CYYC;2007-02-22 19:00;CYYC 221900Z 16010KT 10SM SCT050 OVC100 M06/M12 A2974 RMK SC4AC4 SH DIST S-W SLP133

CYYC;2007-02-22 19:52;CYYC 221952Z 14008KT 8SM -SN BKN031 OVC052 M06/ RMK SC6SC2

CYYC;2007-02-22 20:00;CYYC 222000Z 11006KT 9SM -SN FEW023 OVC036 M06/M12 A2970 RMK SC2SC6 SLP122

CYYC;2007-02-22 21:00;CYYC 222100Z CCA 10010KT 7SM -SN OVC036 M08/M12 A2967 RMK SC8 SLP116

CYYC;2007-02-22 22:00;CYYC 222200Z 09006KT 4SM -SN FEW015 OVC040 M07/M10 A2964 RMK SC2SC6 SLP107

CYYC;2007-02-22 23:00;CYYC 222300Z 10008KT 3SM -SN SCT009 OVC020 M07/M10 A2962 RMK SC3SC5 SLP101

CYYC;2007-02-22 23:48;CYYC 222348Z 10008KT 4SM -SN OVC005 M07/ RMK SC8

CYYC;2007-02-23 00:00;CYYC 230000Z 27008KT 30SM FEW050 FEW090 SCT150 11/M08 A2966 RMK CU1AC1AC2 CU TR SLP067

CYYC;2007-02-23 00:44;CYYC 230044Z 06005KT 1 1/4SM -SN OVC005 M08/ RMK SC8

CYYC;2007-02-23 01:00;CYYC 230100Z 26007KT 20SM FEW090 BKN130 09/M06 A2965 RMK AC2AC2 SLP064

CYYC;2007-02-23 01:44;CYYC 230144Z 09008KT 2 1/2SM -SN OVC004 M07/ RMK SC8

CYYC;2007-02-23 01:48;CYYC 230148Z 09007KT 2 1/2SM -SN OVC003 M07/ RMK SC8

CYYC;2007-02-23 02:00;CYYC 230200Z 27007KT 30SM FEW052 FEW090 FEW240 06/M07 A2964 RMK SC1AC1CI0 SC TR SLP063

CYYC;2007-02-23 02:38;CYYC 230238Z 10005KT 2 1/2SM -SN OVC005 M08/ RMK SC8

CYYC;2007-02-23 02:49;CYYC 230249Z 09005KT 3SM -SN BKN005 OVC011 M08/ RMK SC6SC2

CYYC;2007-02-23 03:00;CYYC 230300Z 10003KT 4SM -SN BKN005 BKN011 OVC015 M08/M09 A2958 RMK SC6SC2SC1 PCPN VRY LGT SLP085

CYYC;2007-02-23 03:23;CYYC 230323Z 05003KT 2 1/2SM -SN BR SCT005 BKN011 OVC015 M08/ RMK SC4SC3SC1 PCPN VRY LGT

CYYC;2007-02-23 03:26;CYYC 230326Z 05003KT 3SM -SN BR SCT005 BKN011 OVC015 M08/ RMK SC4SC3SC1 PCPN VRY LGT/VIS SW 1

CYYC;2007-02-23 03:34;CYYC 230334Z 04003KT 3SM -SN BR FEW005 BKN011 OVC015 M08/ RMK SC2SC5SC1 VIS ALQDS 3

CYYC;2007-02-23 04:00;CYYC 230400Z 03004KT 2 1/2SM -SN BR FEW005 BKN011 OVC015 M08/M09 A2956 RMK SC1SC4SC3 PCPN VRY LGT/VIR VRB 2-3 SLP079

CYYC;2007-02-23 05:00;CYYC 230500Z 03004KT 4SM -SN BR OVC011 M08/M10 A2955 RMK SC8 PCPN VVYLGT/VIS VRB 3-5 SLP077

CYYC;2007-02-23 06:00;CYYC 230600Z 05002KT 4SM -SN BR SCT007 BKN019 OVC026 M08/M10 A2953 RMK SC4SC2SC2 PCPN VRY LGT SLP063

CYYC;2007-02-23 06:52;CYYC 230652Z 36002KT 4SM -SN BR FEW005 BKN008 OVC120 M08/ RMK SC2SC5AC2

CYYC;2007-02-23 07:00;CYYC 230700Z 03002KT 4SM -SN BR FEW005 BKN007 OVC120 M08/M10 A2949 RMK SC2SC5AC1 PCPN VRY LGT SLP051

CYYC;2007-02-23 08:00;CYYC 230800Z 08003KT 3SM -SN BR OVC006 M08/M10 A2948 RMK SC8 PCPN VRY LGT SLP047

CYYC;2007-02-23 09:00;CYYC 230900Z 20004KT 2 1/2SM -SN BR OVC005 M08/M09 A2948 RMK SC8 PCPN VRY LGT/ VIS VRB 2-3 SLP047

CYYC;2007-02-23 09:16;CYYC 230916Z 01004KT 2 1/2SM BR OVC005 M08/ RMK SC8 VIS VRB 2-3

CYYC;2007-02-23 09:43;CYYC 230943Z 03006KT 1 1/2SM -SN BR OVC005 M08/ RMK SC8

CYYC;2007-02-23 10:00;CYYC 231000Z 04005KT 1 1/2SM BR OVC005 M08/M10 A2951 RMK SC8 SLP057

CYYC;2007-02-23 11:00;CYYC 231100Z 33009KT 1 1/2SM BR OVC004 M08/M10 A2951 RMK SC8 SLP055

CYYC;2007-02-23 11:38;CYYC 231138Z 33009KT 1 1/2SM BR OVC003 M09/ RMK SC8

CYYC;2007-02-23 12:00;CYYC 231200Z 33009KT 1 1/2SM BR OVC005 M09/M10 A2953 RMK SC8 SNOW COVER/ONE LOOSE SLP064

CYYC;2007-02-23 13:00;CYYC 231300Z 33007KT 1 1/2SM BR OVC006 M09/M11 A2955 RMK SC8 SLP071

CYYC;2007-02-23 13:25;CYYC 231325Z 32008KT 3SM BR OVC006 M10/ RMK SC8

CYYC;2007-02-23 14:00;CYYC 231400Z 32007KT 5SM BR BKN006 M10/M12 A2956 RMK SC6 SLP074

CYYC;2007-02-23 14:37;CYYC 231437Z 34007KT 7SM FEW010 SCT080 OVC150 M11/ RMK SC2AC2AC4 BR

CYYC;2007-02-23 16:00;CYYC 231600Z 35005KT 20SM FEW040 BKN160 BKN220 M10/M13 A2959 RMK SC2AC3CI1 SLP087

CYYC;2007-02-23 17:00;CYYC 231700Z 00000KT 40SM FEW080 BKN160 BKN220 M08/M12 A2960 RMK AC1AC4CI1 SLP091

CYYC;2007-02-23 18:00;CYYC 231800Z 04002KT 40SM FEW090 FEW170 BKN240 M04/M10 A2962 RMK AC1AC2CI2 SLP090

CYYC;2007-02-23 19:00;CYYC 231900Z 35005KT 40SM FEW085 SCT180 BKN240 M02/M10 A2963 RMK AC1AC2CI2 SLP093

CYYC;2007-02-23 20:00;CYYC 232000Z 03006KT 40SM FEW040 FEW090 FEW170 SCT250 M02/M11 A2964 RMK CU1AC1AC1CI0 CU TR SLP097

CYYC;2007-02-23 21:00;CYYC 232100Z 06005KT 40SM FEW040 FEW150 SCT250 M02/M11 A2965 RMK CU1AC1CI1 CU TR SLP098

CYYC;2007-02-23 22:00;CYYC 232200Z 06005KT 40SM FEW045 FEW150 SCT260 M01/M12 A2967 RMK CU1AC1CI1 CU TR SLP104

CYYC;2007-02-23 23:00;CYYC 232300Z 10006KT 40SM FEW045 FEW150 FEW260 M01/M11 A2970 RMK CU1AC1CI0 CU TR SLP111

CYYC;2007-02-24 00:00;CYYC 240000Z CCA 22008KT 40SM FEW050 FEW080 BKN140 BKN220 15/M05 A2963 RMK CU1AC1AC4CI2 ACSL E SLP054

CYYC;2007-02-24 01:00;CYYC 240100Z 18006KT 40SM FEW050 FEW180 FEW260 M03/M12 A2974 RMK CU1AC1CI0 CU+AC TR SLP129

CYYC;2007-02-24 02:00;CYYC 240200Z 18006KT 20SM FEW180 FEW260 M06/M12 A2976 RMK AC1CI1 CLDS TR SLP135

CYYC;2007-02-24 03:00;CYYC 240300Z 18007KT 15SM SKC M06/M12 A2977 RMK SLP149

CYYC;2007-02-24 04:00;CYYC 240400Z 14004KT 15SM FEW100 BKN240 05/M04 A2958 RMK AC2CI1 SLP044

CYYC;2007-02-24 05:00;CYYC 240500Z 20006KT 15SM SKC M07/M13 A2979 RMK SLP156

CYYC;2007-02-24 06:00;CYYC 240600Z 19005KT 15SM FEW180 FEW240 M08/M13 A2979 RMK AC1CI1 SLP150

CYYC;2007-02-24 07:00;CYYC 240700Z 19005KT 15SM FEW180 FEW240 M07/M13 A2979 RMK AC1CI1 SLP149

CYYC;2007-02-24 08:00;CYYC 240800Z 18007KT 15SM SKC M10/M14 A2979 RMK SLP150

CYYC;2007-02-24 09:00;CYYC 240900Z 21006KT 15SM SKC M12/M16 A2979 RMK SLP152

CYYC;2007-02-24 10:00;CYYC 241000Z 18003KT 15SM SKC M10/M15 A2980 RMK SLP155

CYYC;2007-02-24 11:00;CYYC 241100Z 29003KT 15SM SKC M12/M16 A2981 RMK SLP158

CYYC;2007-02-24 12:00;CYYC 241200Z 28002KT 15SM SKC M13/M16 A2982 RMK SNOW COVER/ONE LOOSE SLP165

CYYC;2007-02-24 13:00;CYYC 241300Z 26004KT 15SM SKC M11/M16 A2983 RMK SLP167

CYYC;2007-02-24 14:00;CYYC 241400Z 29007KT 30SM SKC M13/M17 A2983 RMK SLP168

CYYC;2007-02-24 15:00;CYYC 241500Z CCA 20002KT 40SM FEW040 FEW150 M12/M16 A2984 RMK SC1CI1 SLP173

CYYC;2007-02-24 16:00;CYYC 241600Z 20002KT 40SM FEW040 FEW180 FEW220 M09/M14 A2984 RMK SC1AC1CI1 SLP175

CYYC;2007-02-24 17:00;CYYC 241700Z 18003KT 40SM FEW160 FEW240 M06/M13 A2984 RMK AC1CI1 SLP174

CYYC;2007-02-24 18:00;CYYC 241800Z 20004KT 40SM FEW160 FEW240 M02/M06 A2984 RMK AC1CI0 SLP162

CYYC;2007-02-24 19:00;CYYC 241900Z 16005KT 40SM FEW160 FEW250 M00/M14 A2982 RMK AC1CI0 SLP157

CYYC;2007-02-24 20:00;CYYC 242000Z 16006KT 40SM FEW150 FEW250 00/M14 A2980 RMK AC1CI0 SLP151

CYYC;2007-02-24 21:00;CYYC 242100Z 16010KT 40SM FEW150 BKN200 BKN250 M00/M13 A2978 RMK AC2CS2CI0 SLP145

CYYC;2007-02-24 22:00;CYYC 242200Z 14008KT 40SM FEW040 FEW110 BKN210 M00/M13 A2977 RMK SC1AC1CI2 ACSL SLP142

CYYC;2007-02-24 23:00;CYYC 242300Z 14009KT 40SM FEW040 FEW110 BKN220 M01/M11 A2974 RMK SC1AC1CI4 ACSL SLP135

CYYC;2007-02-25 00:00;CYYC 250000Z 15008KT 40SM FEW040 FEW110 BKN220 M02/M10 A2974 RMK SC1AC1CI1 SLP135

CYYC;2007-02-25 01:00;CYYC 250100Z 20009KT 30SM FEW080 FEW180 BKN210 BKN260 14/M00 A2950 RMK AC1AC1CI4CI3 SLP000

CYYC;2007-02-25 02:00;CYYC 250200Z 15005KT 40SM FEW040 FEW120 FEW240 M06/M11 A2972 RMK SC1AC1CI0 SLP129

CYYC;2007-02-25 03:00;CYYC 250300Z 18010G15KT 15SM FEW060 FEW090 BKN210 OVC260 10/M00 A2947 RMK SC1AC2CI4CI1 SC TR SLP999

CYYC;2007-02-25 04:00;CYYC 250400Z 16003KT 15SM SCT140 OVC200 M07/M12 A2968 RMK AC3CI2 SLP121

CYYC;2007-02-25 05:00;CYYC 250500Z 12003KT 15SM FEW110 FEW200 BKN240 M08/M12 A2966 RMK AC1CI1CI1 SLP115

CYYC;2007-02-25 06:00;CYYC 250600Z 16004KT 15SM FEW080 BKN200 M08/M12 A2964 RMK AC2CI0 SLP097

CYYC;2007-02-25 07:00;CYYC 250700Z 32004KT 15SM FEW120 BKN220 M11/M14 A2964 RMK AC1CI5 SLP095

CYYC;2007-02-25 08:00;CYYC 250800Z 03002KT 15SM BKN180 BKN200 M12/M14 A2963 RMK AC5CI1 SLP093

CYYC;2007-02-25 09:00;CYYC 250900Z 31004KT 15SM OVC180 M12/M14 A2962 RMK AC6 SLP089

CYYC;2007-02-25 10:00;CYYC 251000Z 35003KT 15SM BKN160 OVC220 M11/M14 A2961 RMK AC6CI2 SLP086

CYYC;2007-02-25 11:00;CYYC 251100Z 32002KT 15SM FEW100 OVC160 M11/M14 A2959 RMK AC2CI5 SLP082

CYYC;2007-02-25 12:00;CYYC 251200Z 14004KT 15SM OVC100 M11/M13 A2959 RMK AC8 NOW COVER/ONE LOOSE SLP080

CYYC;2007-02-25 13:00;CYYC 251300Z 05003KT 15SM FEW100 OVC220 M11/M14 A2959 RMK AC2CI6 SLP080

CYYC;2007-02-25 14:00;CYYC 251400Z 05002KT 15SM OVC200 M10/M13 A2958 RMK CI8 SLP078

CYYC;2007-02-25 15:00;CYYC 251500Z 21002KT 40SM FEW120 BKN210 M10/M13 A2959 RMK AC1CI5 SLP086

CYYC;2007-02-25 16:00;CYYC 251600Z 05002KT 40SM FEW120 BKN210 M09/M12 A2958 RMK AC1CI6 SLP083

CYYC;2007-02-25 17:00;CYYC 251700Z 10004KT 40SM FEW120 BKN220 M07/M11 A2958 RMK AC1CS4 SLP083

CYYC;2007-02-25 18:00;CYYC 251800Z 09004KT 40SM FEW120 BKN220 M05/M11 A2958 RMK AC1CS3 SLP077

CYYC;2007-02-25 19:00;CYYC 251900Z 11005KT 40SM FEW140 BKN200 M05/M10 A2957 RMK AC1CS4 SLP076

CYYC;2007-02-25 20:00;CYYC 252000Z 12008KT 40SM FEW025 FEW150 BKN200 M04/M09 A2956 RMK CU1AC1CS3 SLP071

CYYC;2007-02-25 21:00;CYYC 252100Z 13006KT 40SM FEW025 SCT140 BKN200 M05/M09 A2956 RMK CU1AC2CS2 SLP074

CYYC;2007-02-25 22:00;CYYC 252200Z CCA 13007KT 30SM SCT085 BKN140 BKN220 M03/M08 A2956 RMK AC3AC1CS1 SLP074

CYYC;2007-02-25 23:00;CYYC 252300Z 11007KT 20SM SCT090 BKN130 BKN220 M03/M07 A2957 RMK AC3AC2CI1 SLP078

CYYC;2007-02-26 00:00;CYYC 260000Z 05015KT 40SM -SHRA BKN040 BKN090 BKN210 04/M02 A2972 RMK SC5AC1CI0 TCU EMBD NE SLP095

CYYC;2007-02-26 00:29;CYYC 260029Z 13011KT 40SM SCT040CB BKN080 BKN210 06/ RMK CB4AC1CI0 CB E / SHS DIST NW+E

CYYC;2007-02-26 00:33;CYYC 260033Z 06004KT 5SM -SN FEW017 BKN028 OVC050 M04/ RMK SC2SC5SC2

CYYC;2007-02-26 00:46;CYYC 260046Z 06005KT 2SM -SN FEW009 BKN025 OVC050 M05/ RMK SC2SC5SC1

CYYC;2007-02-26 01:00;CYYC 260100Z 05006KT 40SM FEW040 BKN075 BKN210 03/M01 A2975 RMK SC1AC2CI1 SHS DIST NW-SE SLP102

CYYC;2007-02-26 02:00;CYYC 260200Z 07007KT 4SM -SN FEW009 FEW012 OVC057 M05/M07 A2962 RMK SC1SC2SC5 SLP091

CYYC;2007-02-26 03:00;CYYC 260300Z 07003KT 4SM -SN FEW008 OVC050 M06/M08 A2963 RMK SC1SC8 SLP097

CYYC;2007-02-26 03:19;CYYC 260319Z 08008KT 15SM FEW006 SCT040 BKN088 00/ RMK SF2SC2AC2

CYYC;2007-02-26 03:35;CYYC 260335Z 26007KT 12SM BKN004 OVC080 00/ RMK ST6AC2

CYYC;2007-02-26 03:44;CYYC 260344Z 03008KT 12SM BKN003 OVC070 00/ RMK ST7AS1

CYYC;2007-02-26 04:00;CYYC 260400Z 07005KT 4SM -SN FEW007 OVC047 M06/M07 A2964 RMK SC2SC5 SLP101

CYYC;2007-02-26 04:13;CYYC 260413Z 04004KT 6SM BR OVC002 00/ RMK ST8 VIS 3 W

CYYC;2007-02-26 05:00;CYYC 260500Z 08004KT 4SM -SN FEW007 SCT017 OVC060 M06/M07 A2964 RMK SC2SC2SC4 SLP103

CYYC;2007-02-26 06:00;CYYC 260600Z 11011KT 4SM -SN FEW006 BKN016 OVC018 M05/M07 A2965 RMK SC1SC7SC1 PCPN VRY LGT SLP098

CYYC;2007-02-26 06:48;CYYC 260648Z 11011KT 2 1/2SM -SN SCT004 OVC018 M06/ RMK SC3SC5

CYYC;2007-02-26 07:00;CYYC 260700Z 12010KT 2 1/2SM -SN FEW006 BKN018 OVC028 M06/M08 A2965 RMK SC2SC5SC1 SLP098

CYYC;2007-02-26 08:00;CYYC 260800Z 11008KT 2SM -SN SCT017 BKN028 OVC070 M07/M09 A2966 RMK SC4SC2AC1 SLP102

CYYC;2007-02-26 08:47;CYYC 260847Z 12009KT 4SM -SN FEW006 BKN017 OVC062 M07/ RMK SC1SC7SC1

CYYC;2007-02-26 09:00;CYYC 260900Z 12009KT 4SM -SN OVC017 M08/M09 A2967 RMK SC8 /S01/ SLP107

CYYC;2007-02-26 10:00;CYYC 261000Z 12007KT 2 1/2SM -SN OVC018 M08/M10 A2967 RMK SC8 SLP108

CYYC;2007-02-26 10:14;CYYC 261014Z 13008KT 1 1/4SM -SN FEW003 OVC020 M08/ RMK SC1SC8

CYYC;2007-02-26 10:18;CYYC 261018Z 12008KT 2 1/2SM -SN FEW003 FEW009 OVC020 M08/ RMK SC1SC2SC6 VIS NE 5/8

CYYC;2007-02-26 10:22;CYYC 261022Z 11008KT 4SM -SN FEW003 FEW009 SCT017 OVC020 M08/ RMK SC1SC2SC2SC4 VIS NE 11/4

CYYC;2007-02-26 10:28;CYYC 261028Z 12008KT 4SM -SN FEW002 FEW008 BKN018 OVC020 00/ RMK SC1SC1SC5SC2 VIS ALQDS 4

CYYC;2007-02-26 11:00;CYYC 261100Z CCA 12008KT 4SM -SN OVC017 M08/M11 A2967 RMK SC8 PCPN VRY LGT SLP108

CYYC;2007-02-26 12:00;CYYC 261200Z 11007KT 4SM -SN OVC018 M09/M11 A2967 RMK SC8 SLP108

CYYC;2007-02-26 12:55;CYYC 261255Z 11009KT 5SM BR BKN016 OVC018 M10/ RMK SC6SC2

CYYC;2007-02-26 13:00;CYYC 261300Z 11010KT 5SM BR BKN016 OVC018 M10/M12 A2968 RMK SC5SC3 SLP112

CYYC;2007-02-26 14:00;CYYC 261400Z 12007KT 5SM BR BKN012 OVC019 M11/M13 A2969 RMK SC5SC3 SLP114

CYYC;2007-02-26 14:52;CYYC 261452Z CCA 12004KT 6SM -SN BKN012 OVC016 M11/ RMK SC6SC2

CYYC;2007-02-26 15:00;CYYC 261500Z 13005KT 7SM -SN BKN012 OVC016 M10/M12 A2969 RMK SC6SC2 SLP122

CYYC;2007-02-26 16:00;CYYC 261600Z 10005KT 5SM -SN BKN014 OVC021 M10/M12 A2970 RMK SC6SC2 SLP125

CYYC;2007-02-26 17:00;CYYC 261700Z 11006KT 5SM -SN OVC017 M10/M12 A2971 RMK SC8 SLP127

CYYC;2007-02-26 18:00;CYYC 261800Z 11006KT 4SM -SN SCT017 OVC044 M09/M12 A2971 RMK SC4SC4 SLP125

CYYC;2007-02-26 19:00;CYYC 261900Z 12007KT 3SM -SN BKN016 OVC043 M09/M12 A2971 RMK SC5SC3 SLP127

CYYC;2007-02-26 20:00;CYYC 262000Z 15005KT 4SM -SN BKN021 OVC046 M08/M11 A2970 RMK SC5SC2 SLP124

CYYC;2007-02-26 21:00;CYYC 262100Z 13005KT 7SM -SN FEW012 FEW018 OVC021 M08/M11 A2969 RMK CF1SC1SC7 SLP120

CYYC;2007-02-26 22:00;CYYC 262200Z 14008KT 8SM -SN FEW012 BKN025 OVC045 M08/M11 A2969 RMK CF1SC7SC1 SLP120

CYYC;2007-02-26 23:00;CYYC 262300Z 14007KT 7SM -SN BKN030 OVC055 M09/M11 A2969 RMK SC3SC4 SLP119

CYYC;2007-02-26 23:16;CYYC 262316Z 14008KT 7SM -SN BKN010 BKN030 OVC055 M09/ RMK SC3SC2SC2

CYYC;2007-02-26 23:25;CYYC 262325Z 14008KT 7SM -SN BKN010 OVC030 M09/ RMK SC6SC2

CYYC;2007-02-27 00:00;CYYC 270000Z 14008KT 7SM -SN BKN010 OVC050 M09/M12 A2969 RMK SC5SC2 SLP122

CYYC;2007-02-27 00:18;CYYC 270018Z 14008KT 6SM BR BKN010 BKN050 OVC160 M09/ RMK SC2SC1AC2

CYYC;2007-02-27 01:00;CYYC 270100Z 14007KT 7SM BKN012 OVC140 M09/M12 A2969 RMK SC3AC2 SLP122

CYYC;2007-02-27 02:00;CYYC 270200Z 13009KT 7SM OVC012 M10/M12 A2969 RMK ST2 SLP122

CYYC;2007-02-27 03:00;CYYC 270300Z 13008KT 6SM -SN BKN014 OVC030 M11/M13 A2968 RMK SC6SC2 SLP125

CYYC;2007-02-27 03:40;CYYC 270340Z 12008KT 7SM -SN BKN049 OVC073 M11/ RMK SC6AC2

CYYC;2007-02-27 04:00;CYYC 270400Z 12008KT 5SM -SN BKN023 OVC055 M11/M13 A2968 RMK SC6SC2 SLP124

CYYC;2007-02-27 05:00;CYYC 270500Z 13007KT 5SM -SN BKN018 OVC033 M11/M14 A2967 RMK SC6SC2 SLP122

CYYC;2007-02-27 06:00;CYYC 270600Z 13006KT 3SM -SN BKN015 OVC026 M12/M14 A2966 RMK SC6SC2 SLP118

CYYC;2007-02-27 07:00;CYYC 270700Z 14007KT 3SM -SN BKN015 OVC027 M12/M14 A2965 RMK SC6SC2 SLP115

CYYC;2007-02-27 08:00;CYYC 270800Z 13008KT 2SM -SN BKN015 OVC030 M12/M15 A2964 RMK SC7SC1 SLP112

CYYC;2007-02-27 09:00;CYYC 270900Z 11004KT 3SM -SN BKN022 BKN045 OVC069 M13/M15 A2963 RMK SC5SC2AC1 SLP107

CYYC;2007-02-27 10:00;CYYC 271000Z 12002KT 3SM -SN BKN016 OVC038 M13/M15 A2962 RMK SC6SC2 SLP103

CYYC;2007-02-27 11:00;CYYC 271100Z 10003KT 3SM -SN BKN015 OVC041 M13/M15 A2961 RMK SC6SC2 SLP099

CYYC;2007-02-27 12:00;CYYC 271200Z 10004KT 3SM -SN BKN019 OVC043 M13/M15 A2960 RMK SC6SC2 /S01/ SNOW COVER/MUCH LOOSE SLP096

CYYC;2007-02-27 13:00;CYYC 271300Z 09003KT 4SM -SN BKN030 BKN049 OVC074 M13/M15 A2960 RMK SC6SC1AC1 SLP096

CYYC;2007-02-27 14:00;CYYC 271400Z 08004KT 4SM -SN FEW015 OVC034 M14/M16 A2959 RMK SC2SC6 SLP095

CYYC;2007-02-27 14:25;CYYC 271425Z 08003KT 1 1/2SM -SN OVC019 M14/ RMK SC8

CYYC;2007-02-27 14:47;CYYC 271447Z 07004KT 3SM -SN BKN019 OVC072 M14/ RMK SC4AC2

CYYC;2007-02-27 15:00;CYYC 271500Z 07005KT 3SM -SN SCT019 OVC072 M14/M16 A2960 RMK SC2AC5 SLP102

CYYC;2007-02-27 16:00;CYYC 271600Z 06003KT 5SM -SN BKN020 OVC068 M14/M16 A2960 RMK SC7AC1 SLP102

CYYC;2007-02-27 17:00;CYYC 271700Z 10003KT 5SM -SN OVC017 M13/M15 A2962 RMK SC8 SLP108

CYYC;2007-02-27 18:00;CYYC 271800Z 00000KT 5SM -SN OVC017 M11/M15 A2962 RMK SC8 SLP104

CYYC;2007-02-27 19:00;CYYC 271900Z 02004KT 4SM -SN OVC016 M11/M14 A2962 RMK SC8 SLP104

CYYC;2007-02-27 20:00;CYYC 272000Z 05004KT 7SM -SN OVC019 M11/M14 A2961 RMK SC8 SLP103

CYYC;2007-02-27 21:00;CYYC 272100Z 07004KT 6SM -SN OVC018 M10/M14 A2961 RMK SC8 SLP104

CYYC;2007-02-27 22:00;CYYC 272200Z 04006KT 7SM -SN OVC018 M10/M13 A2962 RMK SC8 SLP105

CYYC;2007-02-27 23:00;CYYC 272300Z 06004KT 5SM -SN FEW010 OVC018 M11/M13 A2963 RMK SC1SC7 SLP108

CYYC;2007-02-28 00:00;CYYC 280000Z 35011KT 6SM -SN FEW007 BKN011 OVC100 01/M01 A2984 RMK SC2SC2AC3 SLP150

CYYC;2007-02-28 00:15;CYYC 280015Z 35010KT 6SM -SN FEW007 BKN011 OVC100 01/ RMK SC2SC3AC2

CYYC;2007-02-28 00:49;CYYC 280049Z 35011KT 8SM FEW007 BKN011 OVC100 01/ RMK SC2SC2AC2

CYYC;2007-02-28 01:00;CYYC 280100Z 35010KT 7SM FEW007 BKN011 BKN100 01/M01 A2984 RMK SC1SC5AC1 SH S SLP151

CYYC;2007-02-28 01:16;CYYC 280116Z 34008KT 10SM FEW007 FEW012 BKN230 01/ RMK SC1SC1CI1 SH SE-SW

CYYC;2007-02-28 01:24;CYYC 280124Z 08004KT 2 1/2SM -SN OVC018 M12/ RMK SC8

CYYC;2007-02-28 02:00;CYYC 280200Z 10004KT 2 1/2SM -SN OVC018 M12/M15 A2965 RMK SC7 SLP116

CYYC;2007-02-28 03:00;CYYC 280300Z 34010KT 12SM SCT015 BKN100 BKN220 00/M02 A2990 RMK SC2AC1CI1 SLP173

CYYC;2007-02-28 04:00;CYYC 280400Z 12005KT 2 1/2SM -SN OVC021 M13/M15 A2964 RMK SC7 VIS S-W 3 SLP120

CYYC;2007-02-28 05:00;CYYC 280500Z 15004KT 2 1/2SM -SN OVC021 M12/M14 A2965 RMK SC8 SLP121

CYYC;2007-02-28 05:54;CYYC 280554Z 14004KT 3SM -SN OVC020 M12/ RMK SC8 VIS S 4

CYYC;2007-02-28 06:00;CYYC 280600Z CCA 14003KT 3SM -SN OVC020 M12/M14 A2964 RMK SC8 SLP113

CYYC;2007-02-28 07:00;CYYC 280700Z 14002KT 3SM -SN OVC016 M12/M14 A2963 RMK SC8 SLP110

CYYC;2007-02-28 08:00;CYYC 280800Z 16003KT 3SM -SN OVC015 M12/M14 A2963 RMK SC8 VIS W 2 SLP111

CYYC;2007-02-28 09:00;CYYC 280900Z 16003KT 3SM -SN OVC018 M12/M14 A2963 RMK SC8 SLP107

CYYC;2007-02-28 10:00;CYYC 281000Z 15004KT 3SM -SN OVC018 M12/M14 A2962 RMK SC8 SLP104

CYYC;2007-02-28 11:00;CYYC 281100Z 14006KT 3SM -SN OVC015 M12/M14 A2961 RMK SC8 SLP102

CYYC;2007-02-28 12:00;CYYC 281200Z CCA 15003KT 2 1/2SM -SN OVC010 M12/M14 A2960 RMK SC8 /S01/ SNOW COVER/MUCH LOOSE SLP100

CYYC;2007-02-28 13:00;CYYC 281300Z 14004KT 2SM -SN OVC010 M11/M13 A2960 RMK SC8 SLP098

CYYC;2007-02-28 13:12;CYYC 281312Z 13004KT 2SM -SN OVC008 M12/ RMK SC8 CIG VRB 7-9

CYYC;2007-02-28 14:00;CYYC 281400Z 15005KT 1 3/4SM -SN OVC006 M11/M13 A2960 RMK SC8 VIS W 1 SLP099

CYYC;2007-02-28 14:22;CYYC 281422Z 16005KT 2SM -SN OVC005 M11/ RMK SC8

CYYC;2007-02-28 14:50;CYYC 281450Z CCA 15005KT 1SM -SN BKN005 OVC010 M11/ RMK SC7SC1 RVR RWY16 6000+FT

CYYC;2007-02-28 15:00;CYYC 281500Z 14007KT 3/4SM -SN BKN005 OVC010 M11/M13 A2960 RMK SN3SC4SC1 RVR RWY16 6000+FT SLP099

CYYC;2007-02-28 15:05;CYYC 281505Z 15007KT 1 1/2SM -SN BKN005 OVC012 M11/ RMK SN3SC4SC1

CYYC;2007-02-28 16:00;CYYC 281600Z 16007KT 1 1/2SM -SN BKN005 OVC014 M11/M12 A2959 RMK SN2SC6SC1 /S03/ VIS NE-SE 3/4 SLP097

CYYC;2007-02-28 16:42;CYYC 281642Z 19008KT 3SM -SN BKN005 BKN010 M10/ RMK SC4SC1 VIS E+ SW-NW 11/2

CYYC;2007-02-28 17:00;CYYC 281700Z 19004KT 2 1/2SM -SN SCT005 BKN010 M10/M12 A2960 RMK SC2SC5 SLP098

CYYC;2007-02-28 18:00;CYYC 281800Z 16004KT 1 1/2SM -SN FEW005 OVC010 M10/M12 A2960 RMK SC2SC6 /S04/ VIS W-NE 21/2 SLP098

CYYC;2007-02-28 18:34;CYYC 281834Z 14009KT 3SM -SN OVC009 M10/ RMK SC8 VIS SW 11/2

CYYC;2007-02-28 19:00;CYYC 281900Z 16008KT 3SM -SN OVC009 M10/M12 A2960 RMK SC8 SLP099

CYYC;2007-02-28 20:00;CYYC 282000Z 17009KT 3SM -SN OVC008 M09/M11 A2960 RMK SC8 SLP098

CYYC;2007-02-28 21:00;CYYC 282100Z 16010KT 4SM -SN OVC007 M09/M11 A2959 RMK SC8 SLP094

CYYC;2007-02-28 22:00;CYYC 282200Z 17011KT 4SM -SN OVC007 M09/M11 A2960 RMK SC8 VIS SW 3 SLP097

CYYC;2007-02-28 23:00;CYYC 282300Z 16010KT 3SM -SN OVC006 M09/M11 A2961 RMK SC8 SLP098

CYYC;2007-03-01 01:00;CYYC 010100Z 13007KT 3SM -SN OVC009 M09/M11 A2962 RMK SC8 SLP103

CYYC;2007-03-01 02:00;CYYC 010200Z 11003KT 4SM -SN OVC008 M09/M11 A2963 RMK SC8 VIS W 2 SLP106

CYYC;2007-03-01 02:39;CYYC 010239Z 11008KT 2 1/2SM -SN BKN007 OVC009 M09/ RMK SC5SC3

CYYC;2007-03-01 03:00;CYYC 010300Z 11004KT 2SM -SN OVC005 M09/M11 A2964 RMK SC8 RIME ON ICE ACCRETION/PCPN VRY LGT SLP107

CYYC;2007-03-01 04:00;CYYC 010400Z 10005KT 1 1/2SM -SN OVC004 M09/M11 A2964 RMK SC8 RIME ON ICE ACCRETION/PCPN VRY LGT SLP108

CYYC;2007-03-01 04:06;CYYC 010406Z 11004KT 1 1/2SM -SN OVC003 M09/ RMK SC8 PCPN VRY LGT

CYYC;2007-03-01 05:00;CYYC 010500Z 09003KT 1 1/2SM -SN OVC003 M09/M10 A2964 RMK SC8 RIME ON ICE ACCRETION/PCPN VRY LGT SLP109

CYYC;2007-03-01 05:14;CYYC 010514Z 06003KT 1 1/2SM -SN BR OVC002 M09/ RMK SC8 PCPN VRY LGT

CYYC;2007-03-01 06:00;CYYC 010600Z 05003KT 1 1/2SM -SN BR OVC002 M09/M11 A2964 RMK SC8 RIME ON ICE ACCRETION/PCPN VRY LGT SLP109

CYYC;2007-03-01 07:00;CYYC 010700Z 05005KT 1 1/2SM -SN BR OVC002 M09/M11 A2965 RMK SC8 RIME ON ICE ACCRETION/PCPN VRY LGT SLP112

CYYC;2007-03-01 08:00;CYYC 010800Z 05005KT 1 1/2SM -SN BR OVC002 M09/M11 A2965 RMK SC8 RIME ON ICE ACCRETION/PCPN VRY LGT SLP112

CYYC;2007-03-01 08:25;CYYC 010825Z 07004KT 1 1/2SM -SN BR OVC001 M09/ RMK SC8

CYYC;2007-03-01 09:00;CYYC 010900Z 05004KT 1 1/2SM -SN BR OVC001 M09/M10 A2966 RMK SC8 PCPN VRY LGT/RIME ON ICE ACCRETION SLP113

CYYC;2007-03-01 10:00;CYYC 011000Z 05003KT 1 1/2SM -SN BR OVC002 M09/M10 A2967 RMK SC8 PCPN VRY LGT/RIME ON ICE ACCRETION SLP115

CYYC;2007-03-01 11:00;CYYC 011100Z 05002KT 1 1/2SM -SN BR OVC004 M09/M10 A2968 RMK SC8 RIME ON ICE ACCRETION SLP118

CYYC;2007-03-01 11:04;CYYC 011104Z 05002KT 1 1/2SM -SN BR BKN005 OVC016 M09/ RMK SC7SC1

CYYC;2007-03-01 11:13;CYYC 011113Z 04002KT 1 1/2SM -SN BR SCT006 BKN010 OVC019 M09/ RMK SC4SC2SC2

CYYC;2007-03-01 11:17;CYYC 011117Z 04002KT 1 1/2SM -SN BR FEW008 SCT010 BKN019 OVC025 M09/ RMK SC2SC2SC2SC2

CYYC;2007-03-01 11:22;CYYC 011122Z 04002KT 1 1/2SM -SN BR FEW009 FEW013 OVC025 M09/ RMK SC1SC2SC6

CYYC;2007-03-01 12:00;CYYC 011200Z 06002KT 1 1/2SM -SN BR FEW012 OVC027 M09/M11 A2968 RMK SC2SC6 RIME ON ICE ACCRETION SLP121

CYYC;2007-03-01 13:00;CYYC 011300Z 03003KT 1 1/2SM -SN BR BKN014 OVC030 M09/M11 A2970 RMK SC6SC2 SLP126

CYYC;2007-03-01 14:00;CYYC 011400Z 05002KT 1 1/2SM -SN BR FEW010 SCT016 OVC032 M10/M12 A2972 RMK SC1SC3SC5 SLP131

CYYC;2007-03-01 14:08;CYYC 011408Z 04002KT 2 1/2SM -SN BR FEW010 SCT016 OVC032 M10/ RMK SC1SC4SC4

CYYC;2007-03-01 15:00;CYYC 011500Z 03004KT 2 1/2SM -SN FEW008 BKN017 OVC036 M10/M12 A2974 RMK SC1SC6SC1 VIS W 3 SLP141

CYYC;2007-03-01 16:00;CYYC 011600Z CCA 36007KT 1SM -SN BKN010 OVC025 M10/M12 A2975 RMK SN6SC2SC1 /S01/ RVR RWY34 6000 FT SLP146

CYYC;2007-03-01 17:00;CYYC 011700Z 36006KT 1SM -SN BKN014 OVC042 M10/M12 A2978 RMK SN5SC2SC2 VIS N-E 11/4 /RVR RWY34 6000 FT SLP153

CYYC;2007-03-01 17:35;CYYC 011735Z 03006KT 1 3/4SM -SN BKN016 OVC035 M09/ RMK SN3SC3SC2

CYYC;2007-03-01 18:00;CYYC 011800Z 03006KT 2SM -SN BKN015 OVC025 M09/M11 A2980 RMK SN3SC3SC2 /S02/ SLP162

CYYC;2007-03-01 18:21;CYYC 011821Z 03006KT 3/4SM -SN BKN009 OVC021 M09/ RMK SN6SC1SC1 RVR RWY34 6000 FT

CYYC;2007-03-01 19:00;CYYC 011900Z 02006KT 3/4SM -SN BKN009 OVC020 M09/M11 A2982 RMK SN5SC2SC1 RVR RWY34 6000 FT/ VIS E 1 SLP167

CYYC;2007-03-01 19:18;CYYC 011918Z 36006KT 1SM -SN BKN011 OVC024 M09/ RMK SN2SC5SC1 RVR RWY28 6000 FT

CYYC;2007-03-01 19:22;CYYC 011922Z 36006KT 1 3/4SM -SN BKN012 OVC025 M09/ RMK SN2SC6SC1

CYYC;2007-03-01 20:00;CYYC 012000Z 35007KT 1 1/2SM -SN BKN010 OVC026 M09/M12 A2982 RMK SN2SC4SC2 SLP169

CYYC;2007-03-01 20:19;CYYC 012019Z 35006KT 2 1/2SM -SN BKN017 OVC026 M10/ RMK SC5SC3

CYYC;2007-03-01 20:36;CYYC 012036Z 36006KT 4SM -SN SCT035 OVC057 M10/ RMK SC2SC2

CYYC;2007-03-01 21:00;CYYC 012100Z 36005KT 4SM -SN FEW018 SCT038 BKN060 M09/M12 A2983 RMK SC1SC2SC1 SLP173

CYYC;2007-03-01 21:53;CYYC 012153Z 04006KT 10SM FEW013 BKN056 M09/ RMK SC2SC2

CYYC;2007-03-01 22:00;CYYC 012200Z 03005KT 10SM FEW016 BKN056 M09/M12 A2985 RMK SC2SC2 SLP178

CYYC;2007-03-01 23:00;CYYC 012300Z 05005KT 10SM FEW020 BKN065 M10/M12 A2986 RMK SC2SC2 SLP183

CYYC;2007-03-02 00:00;CYYC 020000Z 04005KT 7SM SCT011 BKN030 M10/M13 A2989 RMK SC3SC2 SLP196

CYYC;2007-03-02 00:55;CYYC 020055Z 06003KT 7SM -SN BKN014 OVC030 M12/ RMK SC6SC1

CYYC;2007-03-02 01:00;CYYC 020100Z 05004KT 7SM -SN BKN014 OVC020 M12/M14 A2991 RMK SC6SC1 SLP202

CYYC;2007-03-02 02:00;CYYC 020200Z 08002KT 7SM -SN BKN015 OVC030 M11/M13 A2993 RMK SC6SC1 SLP209

CYYC;2007-03-02 03:00;CYYC 020300Z CCA 00000KT 5SM -SN OVC019 M10/M13 A2995 RMK SC8 PCPN VRY LGT SLP219

CYYC;2007-03-02 03:22;CYYC 020322Z 35002KT 4SM -SN OVC014 M10/ RMK SC8

CYYC;2007-03-02 04:00;CYYC 020400Z 34002KT 4SM -SN OVC015 M10/M12 A2997 RMK SC8 PCPN VRYLGT SLP224

CYYC;2007-03-02 04:37;CYYC 020437Z 00000KT 4SM -SN OVC013 M11/ RMK SC8

CYYC;2007-03-02 05:00;CYYC 020500Z 12003KT 5SM -SN OVC013 M10/M13 A2998 RMK SC8 PCPN VRY LGT SLP227

CYYC;2007-03-02 05:53;CYYC 020553Z 00000KT 5SM -SN OVC015 M10/ RMK SC7 PCPN VRY LGT

CYYC;2007-03-02 06:00;CYYC 020600Z 00000KT 5SM -SN OVC015 M10/M13 A3000 RMK SC7 PCPN VRY LGT SLP233

CYYC;2007-03-02 07:00;CYYC 020700Z 07002KT 4SM -SN OVC013 M10/M12 A3001 RMK SC7 PCPN VRY LGT SLP237

CYYC;2007-03-02 08:00;CYYC 020800Z 05002KT 5SM -SN OVC012 M10/M13 A3002 RMK SC8 PCPN VRY LGT SLP241

CYYC;2007-03-02 09:00;CYYC 020900Z 11002KT 5SM -SN OVC011 M09/M10 A3003 RMK SC8 PCPN VRY LGT SLP244

CYYC;2007-03-02 10:00;CYYC 021000Z 22002KT 5SM -SN OVC012 M09/M12 A3004 RMK SC8 PCPN VRY LGT SLP247

CYYC;2007-03-02 11:00;CYYC 021100Z 19005KT 5SM -SN OVC011 M09/M12 A3006 RMK SC8 PCPN VRY LGT SLP251

CYYC;2007-03-02 11:21;CYYC 021121Z 19004KT 5SM -SN OVC009 M09/ RMK SC8 PCPN VRY LGT

CYYC;2007-03-02 12:00;CYYC 021200Z 24004KT 5SM -SN OVC009 M10/M12 A3007 RMK SC8 PCPN VRY LGT/SNOW COVER/MUCH LOOSE SLP261

CYYC;2007-03-02 13:00;CYYC 021300Z 18002KT 5SM -SN OVC009 M09/M12 A3009 RMK SC8 PCPN VRY LGT SLP267

CYYC;2007-03-02 14:00;CYYC 021400Z 17004KT 3SM -SN OVC009 M10/M12 A3011 RMK SC8 PCPN VRY LGT SLP271

CYYC;2007-03-02 15:00;CYYC 021500Z 18006KT 3SM -SN BKN009 OVC014 M10/M12 A3012 RMK ST4SC2 SLP277

CYYC;2007-03-02 15:09;CYYC 021509Z 18007KT 2SM -SN BKN009 OVC014 M10/ RMK ST5SC2

CYYC;2007-03-02 15:17;CYYC 021517Z 18006KT 3SM -SN BKN009 OVC012 M10/ RMK ST5SC1

CYYC;2007-03-02 16:00;CYYC 021600Z 20008KT 3SM -SN OVC009 M10/M13 A3013 RMK ST7 SC EMBD SLP279

CYYC;2007-03-02 17:00;CYYC 021700Z 20008KT 3SM -SN OVC010 M10/M12 A3014 RMK SC7 ST ASOCTD SLP284

CYYC;2007-03-02 18:00;CYYC 021800Z 20008KT 4SM -SN OVC010 M09/M12 A3015 RMK SC7 SLP287

CYYC;2007-03-02 18:34;CYYC 021834Z 20008KT 4SM -SN BKN010 M09/ RMK SC3

CYYC;2007-03-02 19:00;CYYC 021900Z 18007KT 5SM -SN BKN010 M09/M12 A3014 RMK SC3 SLP285

CYYC;2007-03-02 19:48;CYYC 021948Z 15011KT 5SM -SN BKN010 M08/ RMK SC7

CYYC;2007-03-02 20:00;CYYC 022000Z 17009KT 5SM -SN BKN009 M08/M10 A3013 RMK SC6 SLP280

CYYC;2007-03-02 20:41;CYYC 022041Z 17012KT 4SM BR BKN008 M08/ RMK SC6

CYYC;2007-03-02 21:00;CYYC 022100Z 17011KT 4SM BR OVC008 M08/M11 A3011 RMK SC7 SLP270

CYYC;2007-03-02 22:00;CYYC 022200Z 18012KT 4SM BR OVC008 M08/M10 A3011 RMK SC8 SLP269

CYYC;2007-03-02 23:00;CYYC 022300Z 18012KT 4SM BR OVC008 M08/M10 A3010 RMK SC8 SLP266

CYYC;2007-03-03 00:00;CYYC 030000Z 17012KT 4SM BR OVC009 M07/M10 A3009 RMK SC8 SLP262

CYYC;2007-03-03 01:00;CYYC 030100Z 17011KT 5SM BR OVC009 M08/M10 A3008 RMK SC6 SLP258

CYYC;2007-03-03 01:21;CYYC 030121Z 17009KT 7SM BKN009 M09/ RMK SC2

CYYC;2007-03-03 02:00;CYYC 030200Z 19004KT 7SM FEW009 BKN250 M10/M12 A3007 RMK SC1CI0 SLP256

CYYC;2007-03-03 03:00;CYYC 030300Z 18004KT 5SM BR FEW015 BKN220 M11/M13 A3005 RMK SC1CI1 SC TR SLP254

CYYC;2007-03-03 04:00;CYYC 030400Z 17007KT 5SM BR OVC220 M10/M12 A3003 RMK CI2 SLP246

CYYC;2007-03-03 05:00;CYYC 030500Z 18007KT 4SM BR BKN220 OVC250 M10/M12 A2999 RMK CI6CI0 SLP234

CYYC;2007-03-03 06:00;CYYC 030600Z 20007KT 4SM BR BKN220 OVC250 M10/M12 A2998 RMK CI6CI0 SLP227

CYYC;2007-03-03 07:00;CYYC 030700Z 20006KT 7SM BKN220 BKN250 M11/M13 A2996 RMK CI4CI0 SLP220

CYYC;2007-03-03 08:00;CYYC 030800Z 21006KT 15SM BKN160 OVC220 M08/M11 A2993 RMK AC4CI2 SLP212

CYYC;2007-03-03 09:00;CYYC 030900Z 20007KT 15SM BKN160 OVC210 M08/M12 A2991 RMK AC4CI2 SLP198

CYYC;2007-03-03 10:00;CYYC 031000Z 19006KT 15SM SCT160 BKN210 OVC250 M09/M12 A2989 RMK AC2CI2CI0 SLP193

CYYC;2007-03-03 11:00;CYYC 031100Z 18004KT 15SM BKN100 OVC210 M04/M10 A2987 RMK AC4CI2 SLP188

CYYC;2007-03-03 12:00;CYYC 031200Z 20006KT 15SM SCT100 BKN210 M01/M08 A2987 RMK AC2CI3 SNOW COVER/MUCH LOOSE SLP174

CYYC;2007-03-03 12:16;CYYC 031216Z 27020G25KT 15SM SCT100 BKN210 03/ RMK AC2CI3 WSHFT 1216 UTC

CYYC;2007-03-03 13:00;CYYC 031300Z 26018G24KT 15SM FEW100 SCT210 03/M07 A2987 RMK AC1CI2 SLP174

CYYC;2007-03-03 14:00;CYYC 031400Z 27023G30KT 30SM FEW100 SCT210 03/M06 A2987 RMK AC1CI2 SLP173

CYYC;2007-03-03 15:00;CYYC 031500Z 27020G26KT 40SM FEW100 BKN200 BKN230 03/M07 A2989 RMK AC1CI1CI0 ACSL ASOCTD SLP179

CYYC;2007-03-03 16:00;CYYC 031600Z 27020G25KT 40SM FEW100 SCT200 BKN240 06/M06 A2992 RMK AC1CI0CI0 ACSL ASOCTD SLP188

CYYC;2007-03-03 17:00;CYYC 031700Z 26016G21KT 40SM FEW150 SCT190 BKN220 07/M05 A2994 RMK AC2AC2CI0 SLP195

CYYC;2007-03-03 18:00;CYYC 031800Z 27018KT 40SM FEW058 BKN140 BKN230 07/M04 A2996 RMK SC1AC6CI2 SLP196

CYYC;2007-03-03 19:00;CYYC 031900Z 26020G25KT 40SM FEW170 SCT190 BKN220 08/M03 A2998 RMK AC2AC2CI2 SLP202

CYYC;2007-03-03 20:00;CYYC 032000Z 27023G29KT 40SM FEW040 FEW180 BKN190 BKN220 08/M03 A2999 RMK SC1AC2AS5CI0 SCTR/CF ASOCTD SLP204

CYYC;2007-03-03 21:00;CYYC 032100Z 27020G26KT 40SM FEW040 FEW120 BKN190 BKN220 08/M03 A3000 RMK SC1AC1AS6CI0 SC TR/CF ASOCTD SLP208

CYYC;2007-03-03 22:00;CYYC 032200Z 26021G28KT 40SM FEW045 FEW150 SCT180 BKN220 08/M04 A3002 RMK SC1AC2AS2CI0 SC TR/CF ASOCTD SLP212

CYYC;2007-03-03 23:00;CYYC 032300Z 26023G29KT 40SM FEW045 FEW080 BKN180 BKN220 08/M04 A3002 RMK SC1AC2AS4CI0 SLP212

CYYC;2007-03-04 00:00;CYYC 040000Z 26019G25KT 40SM FEW048 FEW120 FEW170 BKN230 07/M04 A3003 RMK SC1AC1AS1CI5 SLP205

CYYC;2007-03-04 01:00;CYYC 040100Z 26017G24KT 40SM FEW045 FEW090 BKN230 07/M04 A3004 RMK SC1AC1CI6 SLP210

CYYC;2007-03-04 02:00;CYYC 040200Z 26018KT 15SM FEW040 OVC220 06/M04 A3005 RMK SC1CI7 SC TR SLP213

CYYC;2007-03-04 03:00;CYYC 040300Z 26016G21KT 15SM BKN240 06/M04 A3007 RMK CI6 SLP217

CYYC;2007-03-04 04:00;CYYC 040400Z 26017G22KT 15SM BKN240 06/M04 A3009 RMK CI3 SLP223

CYYC;2007-03-04 05:00;CYYC 040500Z 27015G20KT 15SM SCT240 06/M05 A3010 RMK CI2 SLP226

CYYC;2007-03-04 06:00;CYYC 040600Z 27016G21KT 15SM BKN220 05/M05 A3011 RMK CI4 SLP227

CYYC;2007-03-04 07:00;CYYC 040700Z 26018KT 15SM BKN230 05/M05 A3011 RMK CI5 SLP226

CYYC;2007-03-04 08:00;CYYC 040800Z 26016KT 15SM FEW120 OVC230 05/M05 A3009 RMK AC1CI6 SLP222

CYYC;2007-03-04 09:00;CYYC 040900Z 26016KT 15SM FEW120 BKN220 05/M05 A3009 RMK AC1CI5 SLP218

CYYC;2007-03-04 10:00;CYYC 041000Z 26015KT 15SM FEW100 BKN210 05/M05 A3007 RMK AC1CI4 SLP213

CYYC;2007-03-04 11:00;CYYC 041100Z 26014KT 15SM FEW100 BKN200 05/M05 A3006 RMK AC1CI5 SLP209

CYYC;2007-03-04 12:00;CYYC 041200Z 27016KT 15SM FEW100 FEW180 BKN200 05/M05 A3005 RMK AC1AC1CI2 SNOW CVR / TRACE LOOSE SLP206

CYYC;2007-03-04 13:00;CYYC 041300Z 27015KT 15SM FEW100 SCT180 BKN230 05/M06 A3006 RMK AC1AC2CI2 SLP207

CYYC;2007-03-04 14:00;CYYC 041400Z 28008KT 40SM FEW100 FEW180 BKN220 04/M06 A3006 RMK AC1AC1CI6 SLP207

CYYC;2007-03-04 15:00;CYYC 041500Z 27014KT 40SM FEW100 BKN180 BKN220 05/M06 A3006 RMK AS2AC2CI2 SLP210

CYYC;2007-03-04 16:00;CYYC 041600Z 26014G19KT 40SM FEW100 FEW180 BKN200 06/M06 A3007 RMK AS2AC1CI4 SLP213

CYYC;2007-03-04 17:00;CYYC 041700Z 28014KT 40SM FEW100 SCT120 BKN170 07/M06 A3009 RMK AS2AC2AC2 SLP219

CYYC;2007-03-04 18:00;CYYC 041800Z 28010G17KT 40SM FEW100 BKN120 BKN180 07/M06 A3009 RMK AS2AC4AC1 SLP218

CYYC;2007-03-04 19:00;CYYC 041900Z 30006G15KT 40SM FEW100 BKN140 08/M05 A3008 RMK AS2AC5 SLP217

CYYC;2007-03-04 20:00;CYYC 042000Z 09008KT 40SM BKN140 06/M02 A3008 RMK AS6 SLP217

CYYC;2007-03-04 21:00;CYYC 042100Z 10008KT 40SM FEW085 BKN190 02/M03 A3008 RMK AC1AS5 SLP222

CYYC;2007-03-04 22:00;CYYC 042200Z 08005KT 20SM FEW140 SCT180 BKN200 BKN240 01/M04 A3008 RMK AC1AC2CI2CI1 SLP223

CYYC;2007-03-04 23:00;CYYC 042300Z 10008KT 30SM FEW170 FEW190 SCT220 BKN240 M00/M04 A3010 RMK AC1AC1CI2CI1 SLP230

CYYC;2007-03-05 00:00;CYYC 050000Z 15007KT 30SM FEW180 SCT200 BKN240 M00/M04 A3008 RMK AS1CI2CI2 AS TR SLP227

CYYC;2007-03-05 01:00;CYYC 050100Z 17007KT 30SM FEW160 BKN230 M01/M04 A3006 RMK AS1CI2 SLP220

CYYC;2007-03-05 02:00;CYYC 050200Z 16006KT 15SM FEW012 SCT170 BKN200 M02/M05 A3005 RMK SC1AC4CI1 SC TR/CF ASOCTD SLP217

CYYC;2007-03-05 03:00;CYYC 050300Z 18006KT 15SM BKN160 M02/M04 A3004 RMK AC2 SLP215

CYYC;2007-03-05 04:00;CYYC 050400Z 14004KT 15SM SCT160 BKN260 M03/M05 A3004 RMK AC0CI2 SLP215

CYYC;2007-03-05 05:00;CYYC 050500Z 17007KT 15SM BKN150 BKN240 M03/M05 A3003 RMK AC2CI2 SLP212

CYYC;2007-03-05 06:00;CYYC 050600Z 18008KT 15SM BKN130 BKN240 M04/M06 A3003 RMK AC6CI0 SLP209

CYYC;2007-03-05 07:00;CYYC 050700Z 17003KT 15SM BKN130 BKN240 M04/M06 A3002 RMK AC4CI2 SLP208

CYYC;2007-03-05 08:00;CYYC 050800Z 18005KT 15SM BKN120 OVC220 M04/M06 A3002 RMK AC6CI1 SLP206

CYYC;2007-03-05 09:00;CYYC 050900Z 13003KT 15SM BKN120 OVC210 M05/M07 A3002 RMK AC6CI1 SLP216

CYYC;2007-03-05 10:00;CYYC 051000Z 16002KT 15SM FEW100 BKN120 BKN230 M06/M08 A3002 RMK AC1AC3CI2 SLP217

CYYC;2007-03-05 11:00;CYYC 051100Z 15004KT 10SM FEW100 SCT120 OVC240 M06/M08 A3002 RMK AC1AC2CI5 SLP217

CYYC;2007-03-05 12:00;CYYC 051200Z 06002KT 15SM FEW100 FEW120 BKN230 M06/M08 A3002 RMK AC1AC2CI6 SLP220

CYYC;2007-03-05 13:00;CYYC 051300Z 08003KT 8SM FEW090 BKN220 M07/M10 A3002 RMK AC2CI6 SLP221

CYYC;2007-03-05 14:00;CYYC 051400Z 13004KT 6SM BR FEW090 OVC220 M08/M10 A3002 RMK AC2CI6 FOG BANK NE-E / VIS NE 2 SLP220

CYYC;2007-03-05 15:00;CYYC 051500Z 14004KT 5SM BR FEW090 SCT120 OVC230 M07/M09 A3002 RMK AC1AC2CI4 VIS N-E 21/2 SLP226

CYYC;2007-03-05 16:00;CYYC 051600Z 18005KT 5SM BR FEW090 BKN110 OVC230 M06/M08 A3001 RMK AC1AC4CI2 VIS E 3/ W 8 MILES SLP224

CYYC;2007-03-05 17:00;CYYC 051700Z 18006KT 8SM FEW060 BKN110 OVC210 M05/M08 A3000 RMK SC1AC4CI2 VIS E 4/W 15 MILES SLP220

CYYC;2007-03-05 18:00;CYYC 051800Z 15007KT 7SM FEW060 BKN095 OVC210 M04/M07 A2999 RMK SC1AC5CI2 VIS W 20 MILES SLP214

CYYC;2007-03-05 19:00;CYYC 051900Z 18007KT 7SM VCFG FEW060 SCT074 BKN095 BKN210 M03/M07 A2999 RMK SC1AC2AC2CI2 F BANK E+S/ VIS W 20 SLP212

CYYC;2007-03-05 20:00;CYYC 052000Z 22006KT 8SM VCFG FEW065 BKN100 BKN230 M02/M06 A2996 RMK SC1AC5CI2 VIS W 30 MILES/ VIRGA NE SLP204

CYYC;2007-03-05 21:00;CYYC 052100Z 19007KT 10SM FEW060 BKN098 BKN230 M00/M05 A2995 RMK SC1AC6CI1 VIS W 30 MILES SLP195

CYYC;2007-03-05 22:00;CYYC 052200Z 19004KT 10SM BKN110 BKN230 02/M04 A2993 RMK AC6CI2 SLP189

CYYC;2007-03-05 23:00;CYYC 052300Z 19008KT 10SM FEW070 BKN130 BKN230 02/M03 A2992 RMK AC1AC5CI2 SLP187

CYYC;2007-03-06 00:00;CYYC 060000Z 14005KT 10SM FEW070 BKN130 BKN210 03/M03 A2993 RMK AC1AC4CI2 SLP188

CYYC;2007-03-06 01:00;CYYC 060100Z 12005KT 10SM FEW080 BKN130 BKN210 02/M02 A2993 RMK AC2AC3CI2 SLP188

CYYC;2007-03-06 02:00;CYYC 060200Z 08005KT 12SM FEW077 BKN120 OVC210 M00/M03 A2996 RMK AC2AC3CI1 SLP196

CYYC;2007-03-06 03:00;CYYC 060300Z 04007KT 10SM FEW120 FEW220 M04/M06 A2998 RMK AC1CI1 SLP215

CYYC;2007-03-06 03:48;CYYC 060348Z 02006KT 2SM BR SCT002 BKN005 M05/ RMK SC3SC3

CYYC;2007-03-06 04:00;CYYC 060400Z 03008KT 1 1/2SM BR SCT002 OVC005 M05/M07 A3000 RMK SC3SC5 SLP219

CYYC;2007-03-06 04:08;CYYC 060408Z 03005KT 1 1/4SM BR BKN002 OVC005 M05/ RMK SC6SC2

CYYC;2007-03-06 04:49;CYYC 060449Z CCA 02006KT 1/2SM FZFG OVC002 M05/ RMK FG5SC3 RVR RWY 34 5000FT

CYYC;2007-03-06 05:00;CYYC 060500Z 03007KT 1/2SM FZFG OVC002 M05/M07 A3002 RMK FG5SC3 RVR RWY34 4000FT SLP231

CYYC;2007-03-06 05:36;CYYC 060536Z 05004KT 1/4SM FZFG VV002 M06/ RMK FG8 RVR RWY16 2400FT

CYYC;2007-03-06 06:00;CYYC 060600Z 34004KT 1/4SM FZFG VV002 M06/M07 A3003 RMK FG8 RVR RWY34 2200FT SLP228

CYYC;2007-03-06 06:29;CYYC 060629Z 35002KT 1/4SM FZFG VV001 M06/ RMK FG8 RVR RWY34 1600FT

CYYC;2007-03-06 07:00;CYYC 060700Z 00000KT 1/8SM FZFG VV001 M06/M08 A3004 RMK FG8 FROIN / RVR RWY34 1600FT SLP232

CYYC;2007-03-06 08:00;CYYC 060800Z 00000KT 3/8SM FZFG VV001 M06/M08 A3005 RMK FG8 FROIN / RVR RWY34 4000FT SLP234

CYYC;2007-03-06 08:18;CYYC 060818Z 00000KT 1/2SM FZFG OVC005 M06/ RMK FG6ST2 FROIN / RVR RWY34 6000FT

CYYC;2007-03-06 09:00;CYYC 060900Z 04002KT 1/4SM FZFG VV001 M07/M08 A3006 RMK FG8 FROIN / RVR RWY34 3000FT SLP236

CYYC;2007-03-06 10:00;CYYC 061000Z 23002KT 1/8SM FZFG VV001 M06/M07 A3006 RMK FG8 FROIN / RVR RWY34 4000FT SLP236

CYYC;2007-03-06 10:31;CYYC 061031Z 20003KT 3/4SM BR SKC M07/ RMK FG2 FROIN / RVR RWY34 5500FT

CYYC;2007-03-06 11:00;CYYC 061100Z 21004KT 4SM BR FEW001 M07/M08 A3006 RMK ST1 VIS NE+SW 2 SLP236

CYYC;2007-03-06 12:00;CYYC 061200Z CCA 23005KT 7SM SCT240 M06/M08 A3006 RMK CI1 SNOW COVER/MEDIUM PACK SLP233

CYYC;2007-03-06 13:00;CYYC 061300Z 18002KT 15SM FEW120 BKN240 M05/M07 A3008 RMK AC1CI1 SLP237

CYYC;2007-03-06 14:00;CYYC 061400Z 16006KT 15SM FEW140 BKN240 M05/M07 A3008 RMK AC2CI1 SLP237

CYYC;2007-03-06 15:00;CYYC 061500Z 18005KT 30SM FEW140 BKN260 M06/M08 A3008 RMK AC2CI2 SLP246

CYYC;2007-03-06 16:00;CYYC 061600Z 20006KT 30SM VCFG SCT140 BKN240 M04/M06 A3007 RMK AC3CI4 F BANK S SLP244

CYYC;2007-03-06 17:00;CYYC 061700Z 18005KT 20SM FEW095 BKN180 OVC240 M01/M03 A3007 RMK AC1AC5CI2 SLP244

CYYC;2007-03-06 18:00;CYYC 061800Z 17004KT 20SM FEW095 BKN180 BKN240 03/M03 A3006 RMK AC1AC4CI2 SLP231

CYYC;2007-03-06 19:00;CYYC 061900Z 18005KT 20SM FEW095 BKN180 BKN240 05/M02 A3006 RMK AC1AC2CI2 SLP230

CYYC;2007-03-06 20:00;CYYC 062000Z 18005KT 20SM FEW095 BKN160 BKN230 08/M01 A3005 RMK AC1AC4CI2 SLP227

CYYC;2007-03-06 21:00;CYYC 062100Z 19005KT 15SM FEW050 BKN160 BKN250 08/M00 A3003 RMK CU1AC2CI2 CU TR SLP213

CYYC;2007-03-06 22:00;CYYC 062200Z 16005KT 15SM FEW140 SCT250 09/M00 A3002 RMK AC2CI1 SLP210

CYYC;2007-03-06 23:00;CYYC 062300Z 17008KT 15SM FEW140 SCT250 08/M00 A3002 RMK AC2CI0 SLP209

CYYC;2007-03-07 00:00;CYYC 070000Z 19005KT 15SM FEW085 FEW140 SCT250 07/M00 A3001 RMK AC1AC1CI0 SLP208

CYYC;2007-03-07 01:00;CYYC 070100Z 16006KT 30SM FEW085 BKN140 BKN250 04/M01 A3000 RMK AC1AC2CI1 SLP206

CYYC;2007-03-07 02:00;CYYC 070200Z 14005KT 20SM FEW085 BKN140 BKN240 02/M02 A3000 RMK AC1AC2CI1 SLP204

CYYC;2007-03-07 03:00;CYYC 070300Z 18006KT 10SM FEW150 BKN260 01/M02 A2998 RMK AC2CI2 SLP204

CYYC;2007-03-07 04:00;CYYC 070400Z 18004KT 10SM SCT260 00/M02 A2996 RMK CI0 SLP199

CYYC;2007-03-07 05:00;CYYC 070500Z 20010KT 10SM FEW260 M00/M02 A2995 RMK CI1 SLP195

CYYC;2007-03-07 06:00;CYYC 070600Z 15003KT 15SM FEW250 01/M02 A2993 RMK CI0 SLP175

CYYC;2007-03-07 07:00;CYYC 070700Z 19002KT 15SM FEW230 M01/M03 A2991 RMK CI0 SLP171

CYYC;2007-03-07 08:00;CYYC 070800Z 29002KT 15SM FEW250 01/M04 A2990 RMK CI0 SLP166

CYYC;2007-03-07 09:00;CYYC 070900Z 22005KT 15SM FEW250 03/M04 A2987 RMK CI0 SLP146

CYYC;2007-03-07 10:00;CYYC 071000Z 14002KT 15SM SCT250 03/M04 A2984 RMK CI0 SLP136

CYYC;2007-03-07 11:00;CYYC 071100Z 21006KT 15SM SCT250 04/M04 A2982 RMK CI0 SLP128

CYYC;2007-03-07 12:00;CYYC 071200Z 17004KT 15SM BKN250 01/M05 A2978 RMK CI0 SNOW COVER/MEDIUM PACK SLP118

CYYC;2007-03-07 13:00;CYYC 071300Z 14003KT 15SM FEW180 BKN260 03/M05 A2976 RMK AC1CI0 SLP110

CYYC;2007-03-07 14:00;CYYC 071400Z 13005KT 40SM FEW030 FEW180 SCT260 04/M05 A2974 RMK SC1AC1CI0 SLP104

CYYC;2007-03-07 15:00;CYYC 071500Z 12007KT 40SM FEW020 SCT240 M00/M05 A2974 RMK SC1CI0 SC TR SLP114

CYYC;2007-03-07 16:00;CYYC 071600Z 25012KT 40SM FEW044 FEW240 08/M03 A2972 RMK SC1CI1 SC/CI TR SLP107

CYYC;2007-03-07 17:00;CYYC 071700Z 20006KT 40SM FEW040 FEW240 09/M01 A2969 RMK SC1CI1 SC/CI TR SLP100

CYYC;2007-03-07 18:00;CYYC 071800Z 19006KT 40SM FEW044 FEW240 10/M01 A2966 RMK SC1CI1 SC/CI TR SLP072

CYYC;2007-03-07 19:00;CYYC 071900Z 20003KT 40SM FEW050 13/M01 A2964 RMK SC1 SCTR SLP066

CYYC;2007-03-07 20:00;CYYC 072000Z 28012G17KT 40SM FEW060 FEW240 14/M02 A2961 RMK SC1CI1 SC/CI TR SLP057

CYYC;2007-03-07 21:00;CYYC 072100Z 28012G17KT 30SM FEW060 14/M02 A2959 RMK SC1 SCTR SLP037

CYYC;2007-03-07 22:00;CYYC 072200Z 21009KT 30SM FEW060 FEW180 14/M01 A2958 RMK SC1AC1 SC/AC TR SLP036

CYYC;2007-03-07 22:17;CYYC 072217Z CCA 26013G19KT 20SM FEW060 FEW180 15/ RMK SC1AC1 WHSHFT 2203/HZ

CYYC;2007-03-07 23:00;CYYC 072300Z 26017KT 30SM FEW060 FEW180 FEW220 14/M02 A2957 RMK SC1AC1CI1 SC/AC/CI TR SLP032

CYYC;2007-03-08 00:00;CYYC 080000Z 26008KT 40SM FEW055 FEW160 BKN200 11/M02 A2956 RMK SC1AC2CI2 SLP034

CYYC;2007-03-08 01:00;CYYC 080100Z 22006KT 40SM FEW048 FEW180 SCT200 BKN230 10/M02 A2956 RMK SC1AC1CI3CI2 SLP033

CYYC;2007-03-08 02:00;CYYC 080200Z 20005KT 15SM FEW048 BKN160 09/M03 A2955 RMK SC1AC6 SLP030

CYYC;2007-03-08 03:00;CYYC 080300Z 23008KT 15SM FEW060 BKN210 08/M02 A2954 RMK SC1CI6 SC TR SLP035

CYYC;2007-03-08 04:00;CYYC 080400Z 27016KT 15SM BKN220 09/M03 A2954 RMK CI6 SLP033

CYYC;2007-03-08 05:00;CYYC 080500Z 26009KT 15SM SCT220 07/M03 A2954 RMK CI3 SLP035

CYYC;2007-03-08 06:00;CYYC 080600Z 24004KT 15SM FEW220 06/M04 A2953 RMK CI2 SLP018

CYYC;2007-03-08 07:00;CYYC 080700Z 00000KT 15SM SCT240 04/M04 A2953 RMK CI2 SLP018

CYYC;2007-03-08 08:00;CYYC 080800Z 17003KT 15SM BKN240 05/M04 A2951 RMK CI5 SLP013

CYYC;2007-03-08 09:00;CYYC 080900Z CCA 25006KT 15SM SCT240 04/M04 A2951 RMK CI2 SLP009

CYYC;2007-03-08 10:00;CYYC 081000Z 26002KT 15SM FEW240 03/M04 A2949 RMK CI1 SLP003

CYYC;2007-03-08 11:00;CYYC 081100Z 20006KT 15SM FEW240 02/M04 A2950 RMK CI1 SLP005

CYYC;2007-03-08 12:00;CYYC 081200Z 25007KT 15SM SCT082 BKN230 03/M04 A2955 RMK AC2CI2 SNOW COVER/MEDIUM PACK SLP028

CYYC;2007-03-08 13:00;CYYC 081300Z 36004KT 15SM BKN085 BKN150 03/M02 A2955 RMK AC5AC1 SLP029

CYYC;2007-03-08 14:00;CYYC 081400Z 29021G27KT 40SM FEW080 BKN110 05/M07 A2958 RMK AC2AC4 SLP039

CYYC;2007-03-08 15:00;CYYC 081500Z CCA 27018G27KT 40SM FEW060 FEW120 04/M10 A2962 RMK SC1AC2 VIRGA E/SC TR/CF ASOCTD SLP056

CYYC;2007-03-08 16:00;CYYC 081600Z 26018G25KT 40SM FEW060 FEW120 05/M10 A2964 RMK SC1AC1 CF ASOCTD SLP062

CYYC;2007-03-08 17:00;CYYC 081700Z 27018KT 40SM FEW060 06/M10 A2965 RMK CU1 DIST SH SW/CF ASOCTD SLP066

CYYC;2007-03-08 18:00;CYYC 081800Z CCA 27022G28KT 40SM FEW065 07/M10 A2967 RMK CU1 DIST SH SW/CF ASOCTD SLP074

CYYC;2007-03-08 19:00;CYYC 081900Z 26024G32KT 40SM FEW060 SCT190 07/M09 A2970 RMK SC1AC2 DIST SH SW/CF ASOCTD SLP081

CYYC;2007-03-08 20:00;CYYC 082000Z 27023G29KT 40SM FEW065 FEW180 07/M10 A2970 RMK SC1AC1 DIST SH SW SLP083

CYYC;2007-03-08 21:00;CYYC 082100Z 27023G30KT 40SM FEW065 FEW090 FEW240 07/M10 A2972 RMK SC1AC1CI1 DIST SH SW SLP092

CYYC;2007-03-08 22:00;CYYC 082200Z 27022G29KT 30SM FEW065 FEW082 07/M11 A2973 RMK SC1AC1 DIST SH SW SLP095

CYYC;2007-03-08 23:00;CYYC 082300Z 28021G28KT 30SM FEW065 FEW240 07/M10 A2975 RMK SC1CI0 SLP101

CYYC;2007-03-09 00:00;CYYC 090000Z 28013G19KT 30SM FEW065 FEW240 06/M10 A2977 RMK SC1CI1 CU+CI ASOCTD/DIST SH SW SLP114

CYYC;2007-03-09 01:00;CYYC 090100Z CCA 28010KT 30SM FEW060 FEW240 05/M10 A2979 RMK SC1CI1 CU+CI ASOCTD/DIST SH SW SLP119

CYYC;2007-03-09 02:00;CYYC 090200Z 27006KT 15SM FEW048 02/M10 A2979 RMK CU1 SLP118

CYYC;2007-03-09 03:00;CYYC 090300Z 25005KT 15SM SKC 02/M11 A2979 RMK SLP124

CYYC;2007-03-09 04:00;CYYC 090400Z 25011KT 15SM FEW090 FEW240 00/M10 A2977 RMK AC1CI0 SLP117

CYYC;2007-03-09 05:00;CYYC 090500Z 24009KT 15SM BKN150 02/M09 A2978 RMK AC6 SLP120

CYYC;2007-03-09 06:00;CYYC 090600Z 22009KT 15SM OVC150 02/M08 A2977 RMK AC6 SLP113

CYYC;2007-03-09 07:00;CYYC 090700Z 21007KT 15SM OVC120 01/M08 A2976 RMK AC6 SLP109

CYYC;2007-03-09 08:00;CYYC 090800Z 19006KT 15SM OVC120 02/M08 A2976 RMK AC6 SLP109

CYYC;2007-03-09 09:00;CYYC 090900Z CCA 18006KT 15SM OVC140 01/M08 A2976 RMK AC7 SLP109

CYYC;2007-03-09 10:00;CYYC 091000Z 18006KT 15SM OVC170 01/M08 A2976 RMK AC7 SLP109

CYYC;2007-03-09 11:00;CYYC 091100Z 20007KT 15SM OVC190 M01/M08 A2975 RMK AC7 SLP107

CYYC;2007-03-09 12:00;CYYC 091200Z 23009KT 15SM FEW140 BKN250 02/M10 A2974 RMK AC2CI1 SLP103

CYYC;2007-03-09 13:00;CYYC 091300Z 19005KT 15SM FEW140 FEW250 01/M10 A2973 RMK AC1CI0 SLP101

CYYC;2007-03-09 14:00;CYYC 091400Z 18007KT 40SM FEW080 BKN210 01/M09 A2972 RMK AC1CI2 SLP098

CYYC;2007-03-09 15:00;CYYC 091500Z 25016G22KT 40SM FEW056 BKN210 04/M10 A2971 RMK SC1CI7 SC TR/CF ASOCTD SLP095

CYYC;2007-03-09 16:00;CYYC 091600Z 23016G21KT 40SM FEW060 BKN190 04/M10 A2974 RMK SC1AC7 DIST SH SW SLP104

CYYC;2007-03-09 17:00;CYYC 091700Z 24019KT 40SM FEW052 BKN180 05/M10 A2975 RMK SC1AC7 DIST SH SW SLP109

CYYC;2007-03-09 18:00;CYYC 091800Z 25014G20KT 40SM FEW052 BKN180 06/M09 A2975 RMK SC1AC7 DIST SH SW SLP109

CYYC;2007-03-09 19:00;CYYC 091900Z 26020G26KT 40SM FEW064 BKN180 BKN200 07/M09 A2976 RMK SC1AC5CI2 DIST SH SW SLP110

CYYC;2007-03-09 20:00;CYYC 092000Z 26022G29KT 40SM FEW065 BKN180 09/M08 A2977 RMK SC1AC1 DIST SH SW SLP113

CYYC;2007-03-09 21:00;CYYC 092100Z 25020G29KT 40SM FEW065 FEW180 FEW240 10/M08 A2977 RMK SC1AC1CI1 DIST SH SW/SC+CI TR SLP110

CYYC;2007-03-09 22:00;CYYC 092200Z 27020G26KT 40SM FEW060 FEW180 10/M07 A2978 RMK SC1AC1 DIST SH SW SLP113

CYYC;2007-03-09 23:00;CYYC 092300Z 27016G21KT 40SM FEW064 FEW180 10/M07 A2979 RMK SC1AC1 ACSL ASOCTD/DIST SH SW SLP116

CYYC;2007-03-10 00:00;CYYC 100000Z 26018G24KT 30SM FEW064 FEW180 09/M07 A2980 RMK SC1AC1 DIS SH SW SLP120

CYYC;2007-03-10 01:00;CYYC 100100Z 27017G22KT 30SM FEW060 FEW140 08/M08 A2981 RMK SC1AC1 DIST SH SW SLP123

CYYC;2007-03-10 02:00;CYYC 100200Z 27018KT 15SM FEW052 FEW140 FEW240 06/M07 A2982 RMK SC1AC1CI1 SLP127

CYYC;2007-03-10 03:00;CYYC 100300Z 23008KT 15SM FEW140 FEW240 04/M07 A2985 RMK AC1CI0 SLP143

CYYC;2007-03-10 04:00;CYYC 100400Z 00000KT 15SM SKC 03/M08 A2986 RMK SLP144

CYYC;2007-03-10 05:00;CYYC 100500Z 23006KT 15SM SKC 03/M07 A2985 RMK SLP143

CYYC;2007-03-10 06:00;CYYC 100600Z 25005KT 15SM SKC 03/M07 A2985 RMK SLP142

CYYC;2007-03-10 07:00;CYYC 100700Z 32003KT 15SM FEW140 02/M07 A2985 RMK AC1 SLP141

CYYC;2007-03-10 08:00;CYYC 100800Z 18002KT 15SM SKC 01/M07 A2985 RMK SLP141

CYYC;2007-03-10 09:00;CYYC 100900Z CCA 18004KT 15SM FEW140 00/M07 A2985 RMK AC1 SLP139

CYYC;2007-03-10 10:00;CYYC 101000Z 20003KT 15SM FEW120 FEW240 M01/M07 A2985 RMK AC1CI0 SLP138

CYYC;2007-03-10 11:00;CYYC 101100Z 14002KT 15SM FEW015 FEW240 M01/M07 A2986 RMK ST1CI0 SLP143

CYYC;2007-03-10 12:00;CYYC 101200Z 00000KT 15SM BKN240 M02/M07 A2988 RMK CI4 SLP154

CYYC;2007-03-10 13:00;CYYC 101300Z 23003KT 15SM BKN240 M02/M07 A2988 RMK CI6 SLP154

CYYC;2007-03-10 14:00;CYYC 101400Z 05007KT 30SM FEW120 BKN240 M01/M06 A2991 RMK AC1CI6 SLP162

CYYC;2007-03-10 15:00;CYYC 101500Z 25005KT 30SM FEW060 FEW100 FEW190 BKN240 00/M05 A2991 RMK SC1AC1AC1CI0 SLP167

CYYC;2007-03-10 16:00;CYYC 101600Z 22005KT 40SM FEW080 BKN170 BKN240 04/M04 A2992 RMK AC1AC1CI1 SLP172

CYYC;2007-03-10 17:00;CYYC 101700Z 27017KT 40SM FEW080 FEW170 FEW240 10/M05 A2992 RMK AC1AC1CI0 SLP171

CYYC;2007-03-10 18:00;CYYC 101800Z 28018KT 40SM FEW080 FEW170 BKN240 10/M06 A2992 RMK AC1AC0CI1 SLP159

CYYC;2007-03-10 19:00;CYYC 101900Z 26013KT 40SM FEW080 FEW170 BKN240 12/M05 A2992 RMK AC1AC1CI0 SLP159

CYYC;2007-03-10 20:00;CYYC 102000Z 26010G17KT 40SM FEW080 BKN240 12/M05 A2990 RMK AC1CI1 SLP154

CYYC;2007-03-10 21:00;CYYC 102100Z 24012KT 40SM FEW090 BKN240 11/M06 A2988 RMK AC1CI5 ACSL ASOCTD S SLP146

CYYC;2007-03-10 22:00;CYYC 102200Z 19010KT 40SM FEW090 BKN200 10/M05 A2986 RMK AC1CI7 ACSL ASOCTD S SLP142

CYYC;2007-03-10 23:00;CYYC 102300Z 22007KT 40SM FEW090 BKN190 BKN230 10/M06 A2984 RMK AC1AC7CI1 SLP133

CYYC;2007-03-11 00:00;CYYC 110000Z 20006KT 30SM FEW080 BKN180 BKN220 10/M04 A2982 RMK AC1AC5CI2 SLP131

CYYC;2007-03-11 01:00;CYYC 110100Z 19008KT 40SM FEW080 BKN140 OVC240 08/M04 A2982 RMK AC1AC6CI1 SLP130

CYYC;2007-03-11 02:00;CYYC 110200Z 20006KT 30SM FEW080 BKN140 OVC210 07/M05 A2980 RMK AC1AC7CI1 SLP124

CYYC;2007-03-11 03:00;CYYC 110300Z 21006KT 15SM FEW090 OVC180 05/M05 A2980 RMK AC1AC6 SLP127

CYYC;2007-03-11 04:00;CYYC 110400Z 11006KT 15SM OVC160 03/M04 A2980 RMK AC8 SLP128

CYYC;2007-03-11 05:00;CYYC 110500Z 04005KT 15SM FEW160 SCT250 01/M05 A2979 RMK AC2CI1 SLP124

CYYC;2007-03-11 06:00;CYYC 110600Z 21005KT 15SM FEW180 OVC240 02/M04 A2977 RMK AC2CI3 SLP109

CYYC;2007-03-11 07:00;CYYC 110700Z 23006KT 15SM FEW180 OVC210 02/M04 A2975 RMK AC2CI6 SLP103

CYYC;2007-03-11 08:00;CYYC 110800Z 21003KT 15SM FEW180 OVC240 04/M05 A2976 RMK AC1CI6 SLP104

CYYC;2007-03-11 09:00;CYYC 110900Z 17003KT 15SM FEW170 OVC220 03/M05 A2975 RMK AC2CI6 SLP099

CYYC;2007-03-11 10:00;CYYC 111000Z 25012KT 15SM FEW170 OVC240 08/M04 A2974 RMK AC1CI6 SLP095

CYYC;2007-03-11 11:00;CYYC 111100Z 25022G29KT 15SM FEW170 OVC230 09/M04 A2974 RMK AC1CI6 SLP094

CYYC;2007-03-11 12:00;CYYC 111200Z 05007KT 15SM FEW170 OVC230 06/M03 A2980 RMK AC1CI7 SLP112

CYYC;2007-03-11 13:00;CYYC 111300Z 27007KT 15SM FEW170 OVC230 09/M04 A2983 RMK AC1CI7 SLP121

CYYC;2007-03-11 14:00;CYYC 111400Z 22006KT 40SM FEW080 FEW170 BKN240 07/M04 A2984 RMK AC1AC1CI6 SLP126

CYYC;2007-03-11 15:00;CYYC 111500Z 20007KT 40SM FEW080 FEW180 BKN220 BKN250 07/M04 A2987 RMK AC1AC1CI7CI1 SLP143

CYYC;2007-03-11 16:00;CYYC 111600Z 26006KT 40SM FEW080 BKN210 BKN250 08/M04 A2986 RMK AC1CI6CI0 SLP140

CYYC;2007-03-11 17:00;CYYC 111700Z 21004KT 40SM FEW080 FEW170 BKN210 BKN250 09/M04 A2985 RMK AC1AC1CI6CI0 SLP139

CYYC;2007-03-11 18:00;CYYC 111800Z 22010KT 40SM FEW090 FEW170 BKN210 BKN260 12/M03 A2983 RMK AC1AC1CI5CI0 SLP126

CYYC;2007-03-11 19:00;CYYC 111900Z 19008KT 40SM BKN090 BKN210 BKN260 13/M02 A2983 RMK AC4CI1CI1 SLP126

CYYC;2007-03-11 20:00;CYYC 112000Z 14008KT 40SM SCT082 BKN210 14/01 A2980 RMK AC2CI0 SLP117

CYYC;2007-03-11 21:00;CYYC 112100Z 16016KT 40SM BKN084 BKN210 13/00 A2976 RMK AC3CI0 SLP099

CYYC;2007-03-11 22:00;CYYC 112200Z 15015G21KT 40SM SCT080 SCT210 BKN260 14/02 A2972 RMK AC1CI1CI0 SLP088

CYYC;2007-03-11 23:00;CYYC 112300Z 15015KT 40SM FEW080 FEW180 BKN240 14/04 A2968 RMK AC0AC1CI0 SLP074

CYYC;2007-03-12 00:00;CYYC 120000Z 15008KT 40SM FEW080 FEW180 BKN240 15/03 A2964 RMK AC1AC1CI0 SLP052

CYYC;2007-03-12 01:00;CYYC 120100Z 00000KT 30SM FEW080 FEW180 BKN250 15/02 A2960 RMK AC1AC1CI0 SLP040

CYYC;2007-03-12 02:00;CYYC 120200Z 00000KT 20SM FEW080 SCT180 OVC250 10/M02 A2959 RMK AC1AC1CI2 SLP036

CYYC;2007-03-12 03:00;CYYC 120300Z 03003KT 15SM FEW080 BKN250 06/03 A2956 RMK AC1CI2 SLP035

CYYC;2007-03-12 04:00;CYYC 120400Z 00000KT 15SM FEW090 SCT250 06/03 A2955 RMK AC1CI1 SLP031

CYYC;2007-03-12 05:00;CYYC 120500Z 24014G19KT 15SM FEW250 12/01 A2952 RMK CI0 SLP021

CYYC;2007-03-12 06:00;CYYC 120600Z 24012KT 15SM FEW250 13/01 A2949 RMK CI0 SLP993

CYYC;2007-03-12 07:00;CYYC 120700Z 24030G40KT 15SM FEW250 13/02 A2945 RMK CI0 SLP981

CYYC;2007-03-12 08:00;CYYC 120800Z 23032G40KT 15SM SKC 12/03 A2946 RMK SLP985

CYYC;2007-03-12 09:00;CYYC 120900Z CCA 24023G30KT 15SM FEW150 12/03 A2949 RMK AC1 SLP993

CYYC;2007-03-12 10:00;CYYC 121000Z 23017G26KT 15SM SCT120 OVC240 12/03 A2949 RMK AC4CI2 SLP993

CYYC;2007-03-12 10:57;CYYC 121057Z 24013KT 12SM -RA BKN051 OVC080 11/ RMK SC6AC2

CYYC;2007-03-12 11:00;CYYC 121100Z 26012G17KT 12SM -RA BKN043 OVC075 10/05 A2956 RMK SC6AC2 SLP013

CYYC;2007-03-12 12:00;CYYC 121200Z 19012KT 15SM -RA FEW140 BKN230 08/05 A2950 RMK AC2CI3 SLP001

CYYC;2007-03-12 12:12;CYYC 121212Z 20013KT 15SM FEW170 SCT240 07/ RMK AC1CI1

CYYC;2007-03-12 13:00;CYYC 121300Z 19009KT 15SM FEW085 FEW170 BKN220 06/04 A2952 RMK AC1AC1CI2 SLP006

CYYC;2007-03-12 14:00;CYYC 121400Z 19010KT 20SM FEW060 BKN230 BKN260 07/04 A2951 RMK SC1CI1CI0 SHS DIST SW SLP004

CYYC;2007-03-12 15:00;CYYC 121500Z 22007KT 20SM FEW060 SCT078 BKN220 BKN260 09/04 A2950 RMK CF1AC2CI1CI0 SLP012

CYYC;2007-03-12 16:00;CYYC 121600Z 20014KT 20SM FEW065 SCT080 BKN230 BKN260 11/04 A2949 RMK CF1AC1CI1CI0 SLP007

CYYC;2007-03-12 17:00;CYYC 121700Z 20018KT 20SM FEW065 BKN080 BKN230 13/03 A2947 RMK CF1AC2CI1 VIRGA SLP003

CYYC;2007-03-12 18:00;CYYC 121800Z 22018G26KT 20SM FEW078 FEW240 15/00 A2947 RMK AC1CI1 SLP984

CYYC;2007-03-12 19:00;CYYC 121900Z 23019G24KT 30SM FEW072 FEW240 15/M02 A2947 RMK AC1CI1 SLP984

CYYC;2007-03-12 20:00;CYYC 122000Z 26024KT 20SM FEW040 FEW074 FEW240 14/M02 A2951 RMK SC1AC1CI1 CF ASOCTD / SC+CI TR SLP995

CYYC;2007-03-12 21:00;CYYC 122100Z 01030KT 20SM FEW035 FEW075 FEW240 05/M02 A2957 RMK SC1AC1CI1 CF ASOCTD / PRESRR PAST HR / SC TR SLP032

CYYC;2007-03-12 22:00;CYYC 122200Z 01023G28KT 20SM SCT024 BKN070 BKN240 04/M02 A2963 RMK SC1AC3CI0 CF ASOCTD SLP048

CYYC;2007-03-12 23:00;CYYC 122300Z 03023KT 15SM BKN020 BKN070 02/M04 A2968 RMK SC5AC1 SLP064

CYYC;2007-03-12 23:20;CYYC 122320Z 02020KT 15SM -SN BKN020 BKN027 02/ RMK SC3SC4

CYYC;2007-03-13 00:00;CYYC 130000Z 02017G24KT 15SM -SN SCT012 BKN027 BKN075 M00/M04 A2972 RMK SC1SC4AC2 SLP098

CYYC;2007-03-13 01:00;CYYC 130100Z 01011G17KT 8SM -SN FEW012 FEW027 OVC038 M00/M04 A2976 RMK SC1SC1SC6 SLP108

CYYC;2007-03-13 02:00;CYYC 130200Z 02011KT 3SM -SN FEW012 OVC045 M02/M04 A2978 RMK SC2SC6 VIS 2 S-W SLP115

CYYC;2007-03-13 03:00;CYYC 130300Z 04015KT 5SM -SN BKN028 OVC040 M03/M06 A2982 RMK SC6SC2 SLP134

CYYC;2007-03-13 03:38;CYYC 130338Z 05009KT 2SM -SN BKN008 OVC018 M03/ RMK SC4SC2

CYYC;2007-03-13 03:45;CYYC 130345Z 05010KT 3/4SM -SN BKN004 OVC015 M03/ RMK SC2SC1 RVR RWY34 4500 FT

CYYC;2007-03-13 03:52;CYYC 130352Z CCA 06005KT 2 1/2SM -SN BKN008 OVC021 M03/ RMK SC4SC2

CYYC;2007-03-13 04:00;CYYC 130400Z 08004KT 2 1/2SM -SN BKN007 OVC021 M03/M05 A2984 RMK SC4SC2 /S01/ SLP141

CYYC;2007-03-13 04:52;CYYC 130452Z 06005KT 2 1/2SM -SN BKN008 OVC021 M03/ RMK SC4SC2

CYYC;2007-03-13 05:00;CYYC 130500Z 09005KT 2 1/2SM -SN BKN016 OVC023 M03/M06 A2986 RMK SC6SC2 SLP146

CYYC;2007-03-13 05:27;CYYC 130527Z 07006KT 1SM -SN OVC013 M03/ RMK SN2SC6 RVR RWY34 4000 FT

CYYC;2007-03-13 05:48;CYYC 130548Z 04011KT 5/8SM -SN BKN006 OVC016 M04/ RMK SN6SC2SC1 RVR RWY34 5500 FT

CYYC;2007-03-13 06:00;CYYC 130600Z 04008KT 5/8SM -SN BKN005 OVC016 M04/M06 A2988 RMK SN6SC2SC1 /S03/ RVR RWY34 5000 FT SLP149

CYYC;2007-03-13 06:22;CYYC 130622Z 05008KT 1/2SM SN BKN003 OVC011 M04/ RMK SN6SC1SC1 RVR RWY34 3500 FT

CYYC;2007-03-13 07:00;CYYC 130700Z 07009KT 1SM -SN BKN006 OVC017 M05/M07 A2989 RESN RMK SN5SC2SC1 RVR RWY34 6000 FT SLP151

CYYC;2007-03-13 08:00;CYYC 130800Z 00000KT 1SM -SN BKN008 OVC022 M05/M07 A2989 RMK SN4SC3SC1 /S01/ RVR RWY34 6000 FT SLP153

CYYC;2007-03-13 09:00;CYYC 130900Z 00000KT 1 1/2SM -SN BKN015 OVC033 M05/M07 A2990 RMK SC6SC2 SLP170

CYYC;2007-03-13 10:00;CYYC 131000Z CCA 00000KT 1SM -SN BKN006 OVC020 M05/M07 A2989 RMK SN4SC2SC2 RVR RWY16 6000 FT SLP166

CYYC;2007-03-13 11:00;CYYC 131100Z 15009KT 1SM -SN BKN009 OVC023 M05/M07 A2988 RMK SN4SC2SC2 /S02/ RVR RWY16 6000 FT SLP164

CYYC;2007-03-13 12:00;CYYC 131200Z 13008KT 1SM -SN BKN013 OVC026 M05/M07 A2988 RMK SN3SC3SC2 RVR RWY16 6000 FT SLP171

CYYC;2007-03-13 13:00;CYYC 131300Z 16005KT 5SM -SN BKN039 OVC052 M06/M08 A2987 RMK SC5SC2 SLP170

CYYC;2007-03-13 14:00;CYYC 131400Z 17007KT 4SM -SN FEW012 BKN031 OVC044 M06/M08 A2988 RMK SC2SC2SC3 SLP172

CYYC;2007-03-13 14:25;CYYC 131425Z 18005KT 3SM -SN FEW008 SCT017 OVC033 M05/ RMK SC2SC2SC3 VIS SE-SW 11/2

CYYC;2007-03-13 14:52;CYYC 131452Z 17008KT 1 3/4SM -SN BKN008 OVC024 M05/ RMK SC5SC3

CYYC;2007-03-13 15:00;CYYC 131500Z 19007KT 2SM -SN SCT008 BKN012 OVC034 M05/M08 A2989 RMK SC3SC1SC4 SLP179

CYYC;2007-03-13 15:54;CYYC 131554Z 19008KT 5/8SM -SN BKN006 OVC019 M05/ RMK SC5SC3

CYYC;2007-03-13 16:00;CYYC 131600Z 19008KT 3/4SM -SN BKN006 OVC017 M05/M08 A2991 RMK SC5SC3 /S01/ RVR RWY16 3500FT SLP184

CYYC;2007-03-13 16:40;CYYC 131640Z CCA 23005KT 1/2SM SN BKN006 OVC015 M05/ RMK SN3SC3SC2 RVR RWY16 4000FT

CYYC;2007-03-13 17:00;CYYC 131700Z 23005KT 3/8SM SN OVC004 M05/M07 A2992 RMK SN6SC2 /S02/ RVR RWY16 2200FT SLP189

CYYC;2007-03-13 17:18;CYYC 131718Z 21009KT 1 1/4SM -SN DRSN FEW004 BKN010 OVC016 M05/ RESN RMK SC2SC5SC2

CYYC;2007-03-13 17:38;CYYC 131738Z 20013KT 3SM -SN DRSN FEW010 SCT030 BKN130 M05/ RESN RMK SC2SC2AC2

CYYC;2007-03-13 17:52;CYYC 131752Z 21015KT 3SM -SN DRSN BKN007 BKN030 BKN130 M04/ RESN RMK SC5SC1AC1

CYYC;2007-03-13 18:00;CYYC 131800Z CCA 21015KT 5SM -SN DRSN SCT005 BKN030 BKN130 M04/M07 A2989 RESN RMK SC3SC1AC1 /S03/ SLP181

CYYC;2007-03-13 18:27;CYYC 131827Z CCA 21018KT 30SM DRSN FEW010 FEW120 BKN230 M05/ RMK SC1AC1CI2 CU ASOCTD

CYYC;2007-03-13 19:00;CYYC 131900Z 19016KT 30SM DRSN FEW012 SCT120 SCT230 M04/M07 A2989 RMK CU2AC2CI1 SLP179

CYYC;2007-03-13 20:00;CYYC 132000Z 19014KT 40SM FEW016 FEW120 M03/M07 A2988 RMK CU1AC1 SH DIST SW SLP177

CYYC;2007-03-13 21:00;CYYC 132100Z 18011KT 40SM FEW023 FEW120 M02/M07 A2987 RMK CU1AC1 SH DIST SW SLP172

CYYC;2007-03-13 22:00;CYYC 132200Z 19009KT 40SM FEW025 FEW140 FEW230 M01/M06 A2987 RMK CU1AC1CI1 SH DIST SW SLP171

CYYC;2007-03-13 23:00;CYYC 132300Z 20009KT 30SM FEW025 FEW140 M01/M06 A2988 RMK CU1AC1 SH DIST SW SLP173

CYYC;2007-03-14 00:00;CYYC 140000Z 22007KT 30SM FEW035 FEW140 M00/M09 A2988 RMK CU1AC1 SH DIST SW SLP171

CYYC;2007-03-14 01:00;CYYC 140100Z 18009KT 30SM FEW035 FEW120 M01/M07 A2987 RMK CU1AC1 SH DIST SW SLP168

CYYC;2007-03-14 02:00;CYYC 140200Z 19009KT 20SM FEW040 FEW080 M03/M08 A2985 RMK SC1AC1 AC TR SLP164

CYYC;2007-03-14 03:00;CYYC 140300Z 19006KT 15SM FEW040 FEW110 M05/M10 A2985 RMK SC1AC1 SLP169

CYYC;2007-03-14 04:00;CYYC 140400Z 18005KT 15SM FEW040 FEW120 M05/M10 A2984 RMK SC1AC1 SLP165

CYYC;2007-03-14 05:00;CYYC 140500Z 17006KT 15SM FEW100 M08/M12 A2983 RMK AC1 SLP163

CYYC;2007-03-14 06:00;CYYC 140600Z 18010KT 15SM FEW100 M06/M12 A2980 RMK AC1 AC TR SLP151

CYYC;2007-03-14 07:00;CYYC 140700Z 22008KT 15SM FEW100 M09/M12 A2979 RMK AC1 SLP149

CYYC;2007-03-14 08:00;CYYC 140800Z 24007KT 15SM SKC M07/M13 A2979 RMK SLP148

CYYC;2007-03-14 09:00;CYYC 140900Z 24010KT 15SM SKC M05/M12 A2979 RMK SLP141

CYYC;2007-03-14 10:00;CYYC 141000Z 25005KT 15SM FEW090 FEW120 SCT240 M04/M12 A2977 RMK AC1AC1CI0 SLP137

CYYC;2007-03-14 11:00;CYYC 141100Z 35007KT 15SM SCT150 SCT240 M07/M13 A2979 RMK AC2CI1 SLP142

CYYC;2007-03-14 12:00;CYYC 141200Z 33005KT 15SM FEW090 SCT150 BKN240 M08/M13 A2980 RMK AC1AC2CI0 SNOW COVER/MUCH LOOSE SLP148

CYYC;2007-03-14 13:00;CYYC 141300Z 33006KT 15SM FEW090 SCT150 BKN240 M07/M12 A2981 RMK AC1AC2CI0 SLP151

CYYC;2007-03-14 14:00;CYYC 141400Z 33007KT 30SM FEW085 BKN150 BKN240 M07/M12 A2983 RMK AC1AC2CI0 SLP156

CYYC;2007-03-14 15:00;CYYC 141500Z 04002KT 30SM FEW085 BKN150 BKN240 M07/M11 A2985 RMK AC1AC2CI0 SLP172

CYYC;2007-03-14 16:00;CYYC 141600Z 33009KT 30SM FEW085 BKN120 BKN240 M04/M09 A2987 RMK AC1AC6CI0 SLP178

CYYC;2007-03-14 17:00;CYYC 141700Z 34008KT 20SM FEW085 SCT120 BKN240 M04/M09 A2989 RMK AC1AC2CI1 SLP184

CYYC;2007-03-14 18:00;CYYC 141800Z 34010KT 20SM FEW085 BKN130 BKN240 M03/M10 A2992 RMK AC1AC5CI1 SLP191

CYYC;2007-03-14 19:00;CYYC 141900Z 35007KT 20SM FEW085 BKN130 BKN240 M02/M09 A2993 RMK AC1AC5CI0 SLP193

CYYC;2007-03-14 20:00;CYYC 142000Z 36005KT 20SM FEW035 FEW090 BKN130 BKN240 M02/M10 A2994 RMK SC1AC1AC5CI0 SLP196

CYYC;2007-03-14 21:00;CYYC 142100Z 05004KT 40SM FEW035 FEW090 BKN120 BKN240 M01/M10 A2995 RMK SC1AC1AC6CI1 SLP196

CYYC;2007-03-14 22:00;CYYC 142200Z 05003KT 30SM FEW035 FEW090 BKN140 BKN240 M00/M10 A2997 RMK SC1AC1AC2CI1 SLP203

CYYC;2007-03-14 23:00;CYYC 142300Z 08003KT 20SM FEW035 BKN070 BKN140 M00/M10 A3000 RMK SC1AC7AC1 SLP212

CYYC;2007-03-14 23:50;CYYC 142350Z 03003KT 4SM -SN OVC020 M01/ RMK SC8

CYYC;2007-03-15 00:00;CYYC 150000Z 02006KT 5SM -SN BKN020 BKN042 M01/M09 A3003 RMK SC6SC2 SLP231

CYYC;2007-03-15 00:22;CYYC 150022Z 19007KT 15SM FEW020 SCT042 BKN070 BKN240 M02/ RMK SC2SC1AC4CI1

CYYC;2007-03-15 01:00;CYYC 150100Z 18006KT 20SM FEW020 FEW040 BKN085 M01/M07 A3005 RMK SC1SC1AC6 VIRGA SLP236

CYYC;2007-03-15 01:56;CYYC 150156Z 31009KT 1SM -SN BR VV002 M02/ RMK SN8 RVR RWY16 6000FT

CYYC;2007-03-15 02:00;CYYC 150200Z 32010KT 1SM -SN VV001 M04/M06 A3011 RMK SN8 RVR RWY 34 4500FT SLP255

CYYC;2007-03-15 02:03;CYYC 150203Z 32010KT 1/2SM SN VV001 M04/ RMK SN8 RVR RWY28 4500 FT

CYYC;2007-03-15 02:08;CYYC 150208Z CCA 33007KT 1 1/4SM -SN VV001 M04/ RESN RMK SN8

CYYC;2007-03-15 02:20;CYYC 150220Z CCA 22003KT 1 1/2SM -SN OVC002 M04/ RESN RMK SN3SC4

CYYC;2007-03-15 02:24;CYYC 150224Z CCA 26004KT 2 1/2SM -SN FEW002 BKN015 BKN065 M04/ RESN RMK SC2SC2SC2

CYYC;2007-03-15 02:29;CYYC 150229Z 24002KT 5SM -SN FEW004 SCT014 BKN062 M04/ RESN RMK SC2SC2SC2

CYYC;2007-03-15 02:40;CYYC 150240Z 00000KT 10SM FEW003 FEW040 SCT065 BKN075 M04/ RESN RMK SC1SC1SC2AC1

CYYC;2007-03-15 03:00;CYYC 150300Z 00000KT 15SM FEW062 SCT085 BKN110 M04/M07 A3013 RESN RMK SC2AC2AC2 SLP267

CYYC;2007-03-15 03:21;CYYC 150321Z 23003KT 5SM -SN FEW025 SCT045 OVC070 M05/ RMK SC2SC2AC3 PCPN VRY LGT

CYYC;2007-03-15 03:45;CYYC 150345Z 33006KT 2 1/2SM -SN FEW008 BKN012 OVC040 M04/ RMK SC1SC6SC2

CYYC;2007-03-15 04:00;CYYC 150400Z 30007KT 2 1/2SM -SN FEW009 BKN013 OVC045 M04/M06 A3016 RMK SC1SC5SC2 FROIN SLP276

CYYC;2007-03-15 04:02;CYYC 150402Z CCA 30011KT 5SM -SN FEW009 BKN010 OVC045 M04/ RMK SC1SC5SC2 PCPN VRY LGT

CYYC;2007-03-15 04:13;CYYC 150413Z 33014G19KT 5SM -SN FEW007 BKN009 BKN020 OVC045 M04/ RMK SC1SC5SC1SC1

CYYC;2007-03-15 04:23;CYYC 150423Z CCA 02013KT 2 1/2SM -SN FEW007 FEW013 BKN020 OVC032 M04/ RMK SC1SC2SC4SC2 VISVRB 2-3/WSHFT 04143

CYYC;2007-03-15 04:39;CYYC 150439Z 07011KT 5SM -SN BKN020 BKN085 OVC110 M05/ RMK SC5AC2AC1

CYYC;2007-03-15 05:00;CYYC 150500Z 07006KT 5SM -SN SCT070 BKN110 M06/M09 A3017 RMK AC2AC2 PCPN VRY LGT SLP280

CYYC;2007-03-15 06:00;CYYC 150600Z CCA 25004KT 4SM -SN FEW004 FEW092 BKN110 M07/M09 A3019 RMK SC1AC2AC2 VIS VRB 3-5/ FROIN/PCPN VRY LGT SLP287

CYYC;2007-03-15 07:00;CYYC 150700Z CCA 23004KT 4SM -SN OVC008 M05/M07 A3020 RMK SC8 VIS VRB 3-5/PCPN VRY LGT SLP290

CYYC;2007-03-15 07:13;CYYC 150713Z 25004KT 4SM BR OVC006 M06/ RMK SC8

CYYC;2007-03-15 08:00;CYYC 150800Z 27006KT 4SM BR BKN008 M07/M09 A3021 RMK SC5 VIS VRB 3-5 SLP292

CYYC;2007-03-15 08:11;CYYC 150811Z 27005KT 4SM BR SCT008 M07/ RMK SC2 VIS VRB 3-5

CYYC;2007-03-15 09:00;CYYC 150900Z 22006KT 4SM BR SKC M09/M10 A3022 RMK VIS VRB 3-5 SLP295

CYYC;2007-03-15 10:00;CYYC 151000Z 21006KT 7SM SKC M11/M13 A3021 RMK SLP293

CYYC;2007-03-15 11:00;CYYC 151100Z 21005KT 7SM SKC M11/M12 A3021 RMK SLP294

CYYC;2007-03-15 12:00;CYYC 151200Z 00000KT 12SM SKC M11/M14 A3022 RMK SNOW COVER/MUCH LOOSE SLP300

CYYC;2007-03-15 13:00;CYYC 151300Z CCA 20003KT 15SM SKC M12/M14 A3023 RMK FROIN SLP302

CYYC;2007-03-15 14:00;CYYC 151400Z 21005KT 40SM FEW240 M13/M15 A3022 RMK CI1 FROIN SLP299

CYYC;2007-03-15 15:00;CYYC 151500Z CCA 22004KT 40SM FEW250 M11/M14 A3021 RMK CI0 SLP303

CYYC;2007-03-15 16:00;CYYC 151600Z 19004KT 40SM FEW170 FEW250 M08/M12 A3022 RMK AC1CI0 AC TR SLP306

CYYC;2007-03-15 17:00;CYYC 151700Z 19006KT 40SM FEW170 FEW250 M05/M11 A3023 RMK AC1CI0 AC TR SLP308

CYYC;2007-03-15 18:00;CYYC 151800Z 20008KT 40SM FEW170 FEW250 M03/M10 A3023 RMK AC1CI1 AC TR SLP298

CYYC;2007-03-15 19:00;CYYC 151900Z 19006KT 40SM FEW170 FEW250 M00/M10 A3022 RMK AC1CI1 SLP295

CYYC;2007-03-15 20:00;CYYC 152000Z 13004KT 40SM FEW050 FEW170 FEW250 00/M14 A3020 RMK CU1AC1CI1 CU+AC TR SLP291

CYYC;2007-03-15 21:00;CYYC 152100Z 17002KT 40SM FEW140 SCT250 01/M14 A3019 RMK AC1CI1 AC TR SLP283

CYYC;2007-03-15 22:00;CYYC 152200Z 16008KT 40SM FEW200 SCT250 01/M12 A3018 RMK CI1CI1 SLP280

CYYC;2007-03-15 23:00;CYYC 152300Z 16008KT 40SM FEW200 SCT250 01/M13 A3017 RMK CI2CI0 SLP277

CYYC;2007-03-16 00:00;CYYC 160000Z 16011KT 40SM FEW200 SCT250 00/M11 A3016 RMK CI2CI0 SLP279

CYYC;2007-03-16 01:00;CYYC 160100Z 17009KT 40SM FEW200 BKN250 M01/M13 A3016 RMK CI2CI0 SLP279

CYYC;2007-03-16 02:00;CYYC 160200Z 19007KT 30SM SCT220 BKN240 M03/M11 A3015 RMK CI3CI2 SLP276

CYYC;2007-03-16 03:00;CYYC 160300Z CCA 22009KT 15SM BKN240 M03/M11 A3016 RMK CI2 SLP284

CYYC;2007-03-16 04:00;CYYC 160400Z 20008KT 15SM FEW180 BKN250 M06/M12 A3015 RMK AC1CI4 SLP281

CYYC;2007-03-16 05:00;CYYC 160500Z 19006KT 15SM BKN210 M05/M11 A3015 RMK CI5 SLP280

CYYC;2007-03-16 06:00;CYYC 160600Z 20006KT 15SM FEW140 OVC210 M05/M11 A3015 RMK AC2CI4 SLP269

CYYC;2007-03-16 07:00;CYYC 160700Z 19006KT 15SM BKN140 OVC210 M05/M11 A3013 RMK AC5CI2 SLP263

CYYC;2007-03-16 08:00;CYYC 160800Z 16004KT 15SM FEW080 BKN140 OVC210 M04/M10 A3011 RMK AC2AC5CI0 SLP257

CYYC;2007-03-16 09:00;CYYC 160900Z 17005KT 15SM SCT080 OVC140 M04/M09 A3009 RMK AC3AC5 SLP242

CYYC;2007-03-16 10:00;CYYC 161000Z 15005KT 15SM SCT100 OVC140 M04/M09 A3007 RMK AC3AC5 SLP236

CYYC;2007-03-16 11:00;CYYC 161100Z 14005KT 15SM BKN100 OVC140 M04/M09 A3004 RMK AC5AC3 SLP226

CYYC;2007-03-16 12:00;CYYC 161200Z 13005KT 15SM OVC100 M04/M09 A3003 RMK AC8 SNOWCOVER/MUCHLOOSE SLP221

CYYC;2007-03-16 13:00;CYYC 161300Z 16004KT 15SM OVC080 M04/M09 A3002 RMK AC8 SLP218

CYYC;2007-03-16 14:00;CYYC 161400Z 20003KT 20SM OVC075 M04/M09 A2999 RMK AC8 SLP209

CYYC;2007-03-16 15:00;CYYC 161500Z 20002KT 30SM FEW050 OVC075 M04/M09 A2996 RMK SC1AC7 SC TR SLP201

CYYC;2007-03-16 16:00;CYYC 161600Z 13004KT 30SM FEW050 FEW078 OVC086 M03/M09 A2993 RMK SC1AS2AC5 SC TR SLP194

CYYC;2007-03-16 17:00;CYYC 161700Z 15005KT 20SM FEW080 BKN120 OVC230 M02/M08 A2991 RMK AC2AC4CI2 SLP186

CYYC;2007-03-16 18:00;CYYC 161800Z 19006KT 30SM FEW080 BKN180 OVC240 M00/M07 A2988 RMK AC2AC4CI2 SLP171

CYYC;2007-03-16 19:00;CYYC 161900Z 15006KT 20SM FEW090 BKN170 OVC240 00/M06 A2985 RMK AC1AC5CI2 SLP162

CYYC;2007-03-16 20:00;CYYC 162000Z 16008KT 20SM FEW050 BKN180 OVC240 02/M06 A2983 RMK CU1AC6CI2 CU TR SLP155

CYYC;2007-03-16 21:00;CYYC 162100Z 14006KT 30SM FEW050 SCT180 OVC240 03/M04 A2982 RMK CU1AC3CI4 SLP143

CYYC;2007-03-16 22:00;CYYC 162200Z 13005KT 30SM FEW050 BKN190 OVC240 04/M03 A2982 RMK CU1AC5CI2 SLP143

CYYC;2007-03-16 23:00;CYYC 162300Z 09004KT 30SM FEW050 FEW085 BKN190 OVC240 04/M02 A2984 RMK CU1AC1AC5CI2 CU TR SLP148

CYYC;2007-03-17 00:00;CYYC 170000Z 06004KT 30SM FEW050 FEW090 BKN190 OVC230 04/M02 A2985 RMK CU1AC1AC4CI3 CU TR SLP155

CYYC;2007-03-17 01:00;CYYC 170100Z 04005KT 20SM FEW050 FEW090 BKN190 OVC230 02/M03 A2987 RMK CU1AC1AC4CI3 CU TR SLP160

CYYC;2007-03-17 02:00;CYYC 170200Z 35005KT 15SM FEW040 FEW100 BKN210 BKN230 01/M03 A2989 RMK SC1AC1CI2CI3 SLP166

CYYC;2007-03-17 03:00;CYYC 170300Z 34006KT 15SM FEW040 FEW190 OVC230 M00/M03 A2989 RMK SC1AC2CI6 SC TR SLP173

CYYC;2007-03-17 04:00;CYYC 170400Z 35004KT 15SM FEW190 BKN240 M00/M04 A2989 RMK AC2CI4 SLP173

CYYC;2007-03-17 05:00;CYYC 170500Z 36004KT 15SM BKN150 OVC200 M01/M04 A2989 RMK AC5CI3 SLP174

CYYC;2007-03-17 06:00;CYYC 170600Z 00000KT 15SM FEW180 OVC200 M02/M04 A2988 RMK AC2CI6 SLP167

CYYC;2007-03-17 07:00;CYYC 170700Z 00000KT 15SM BKN110 BKN160 OVC220 M02/M04 A2987 RMK AC5AC2CI2 SLP164

CYYC;2007-03-17 08:00;CYYC 170800Z 21002KT 15SM OVC094 M01/M03 A2985 RMK AC8 SLP156

CYYC;2007-03-17 09:00;CYYC 170900Z 18003KT 15SM FEW100 OVC110 00/M03 A2983 RMK AC2AC6 SLP141

CYYC;2007-03-17 10:00;CYYC 171000Z 18003KT 15SM OVC130 M00/M03 A2980 RMK AC8 SLP131

CYYC;2007-03-17 11:00;CYYC 171100Z 21004KT 15SM SCT140 BKN170 BKN220 OVC240 M00/M03 A2976 RMK AC4AC2CI2CI1 SLP121

CYYC;2007-03-17 12:00;CYYC 171200Z 19008KT 15SM FEW085 BKN240 M00/M03 A2974 RMK AC1CI4 AC TR/SNOW COVER/MEDIUM PACK SLP110

CYYC;2007-03-17 13:00;CYYC 171300Z 23005KT 15SM SCT080 BKN240 M00/M03 A2973 RMK AC2CI2 SLP107

CYYC;2007-03-17 14:00;CYYC 171400Z CCA 21006KT 40SM FEW020 FEW100 BKN260 M00/M03 A2971 RMK CU1AC2CI1 SLP102

CYYC;2007-03-17 15:00;CYYC 171500Z 32002KT 40SM FEW020 FEW140 SCT190 BKN260 01/M02 A2972 RMK CU1AC2AC1CI1 CC ASOCTD SLP107

CYYC;2007-03-17 16:00;CYYC 171600Z 21006KT 40SM FEW020 FEW120 SCT190 BKN250 04/M00 A2972 RMK CU1AC2AC1CI2 ACSL SLP106

CYYC;2007-03-17 17:00;CYYC 171700Z 22005KT 40SM FEW038 FEW120 SCT170 BKN250 11/01 A2970 RMK CU1AC1AC3CI2 ACSL SLP102

CYYC;2007-03-17 18:00;CYYC 171800Z CCA 22005KT 40SM FEW042 FEW120 SCT170 BKN250 13/02 A2970 RMK CU1AC1AC3CI3 SLP084

CYYC;2007-03-17 19:00;CYYC 171900Z 24006KT 40SM FEW049 FEW120 SCT190 BKN240 15/02 A2971 RMK CU1AC1AC4CI2 SLP087

CYYC;2007-03-17 20:00;CYYC 172000Z 24007KT 40SM FEW055 FEW120 SCT180 BKN260 15/00 A2969 RMK CU1AC1AC3CI3 SLP081

CYYC;2007-03-17 21:00;CYYC 172100Z 27010KT 40SM FEW055 FEW120 SCT170 BKN250 15/01 A2967 RMK CU1AC2AC2CI2 ACSL SLP071

CYYC;2007-03-17 22:00;CYYC 172200Z 21005KT 40SM FEW055 FEW100 SCT140 BKN250 15/02 A2965 RMK CU1AC1AC2CI3 ACSL SLP065

CYYC;2007-03-17 23:00;CYYC 172300Z 14004KT 40SM FEW055 FEW100 SCT140 BKN260 14/02 A2966 RMK CU1AC2AC2CI3 SLP066

CYYC;2007-03-18 00:00;CYYC 180000Z 06002KT 40SM FEW055 FEW100 FEW170 BKN260 12/03 A2965 RMK CU1AC2AC1CI5 SLP066

CYYC;2007-03-18 01:00;CYYC 180100Z 31004KT 40SM FEW055 FEW100 BKN180 BKN260 10/03 A2963 RMK CU1AC1AC5CI2 SLP061

CYYC;2007-03-18 02:00;CYYC 180200Z 26005KT 30SM FEW190 BKN200 BKN240 08/00 A2963 RMK AC2CI3CI2 SLP059

CYYC;2007-03-18 03:00;CYYC 180300Z 28014KT 15SM FEW200 SCT220 BKN240 OVC260 11/M01 A2962 RMK CI2CI2CI2CI2 SLP056

CYYC;2007-03-18 04:00;CYYC 180400Z 35007KT 15SM BKN140 OVC200 08/M00 A2961 RMK AC6CI2 SLP054

CYYC;2007-03-18 05:00;CYYC 180500Z 35006KT 15SM OVC150 08/M00 A2961 RMK AC8 SLP052

CYYC;2007-03-18 06:00;CYYC 180600Z 05004KT 15SM OVC160 08/M01 A2962 RMK AC8 SLP044

CYYC;2007-03-18 07:00;CYYC 180700Z 33007KT 15SM OVC150 07/M01 A2963 RMK AC8 SLP047

CYYC;2007-03-18 08:00;CYYC 180800Z 32010KT 15SM FEW100 SCT130 OVC150 08/M01 A2966 RMK AC2AC2AC3 SLP057

CYYC;2007-03-18 09:00;CYYC 180900Z CCA 35021G27KT 4SM -SN BKN010 OVC140 02/M01 A2975 RMK SC6AC2 PCPN VRY LGT/PRESRR SLP095

CYYC;2007-03-18 09:13;CYYC 180913Z 36019G25KT 4SM -SN BKN009 OVC013 01/ RMK SC7SC1 PCPN VRY LGT

CYYC;2007-03-18 10:00;CYYC 181000Z 36017G24KT 4SM -SN OVC006 01/M01 A2979 RMK SC8 PCPN VRY LGT SLP106

CYYC;2007-03-18 10:29;CYYC 181029Z 36016G21KT 2 1/2SM -SN OVC005 01/ RMK SC8 PCPN VRY LGT

CYYC;2007-03-18 10:38;CYYC 181038Z 36015G21KT 2 1/2SM -SN OVC004 01/ RMK SC8 PCPN VRY LGT

CYYC;2007-03-18 10:46;CYYC 181046Z 01015G20KT 2SM -SN OVC003 01/ RMK SC8

CYYC;2007-03-18 10:51;CYYC 181051Z 01015KT 1 1/2SM -SN OVC002 01/ RMK SC8

CYYC;2007-03-18 11:00;CYYC 181100Z 36015G21KT 1 3/4SM -SN OVC002 01/M01 A2983 RMK SC8 SLP118

CYYC;2007-03-18 11:16;CYYC 181116Z 01016G21KT 2SM -SN BKN004 OVC010 01/ RMK SC6SC2

CYYC;2007-03-18 11:20;CYYC 181120Z 01013G21KT 2SM -SN BKN005 BKN010 OVC020 01/ RMK SC5SC1SC2

CYYC;2007-03-18 11:26;CYYC 181126Z 01013KT 2SM -SN FEW005 SCT007 BKN012 OVC020 00/ RMK SC2SC2SC2SC2

CYYC;2007-03-18 12:00;CYYC 181200Z 02012KT 2SM -SN FEW006 SCT015 SCT028 OVC032 M00/M02 A2986 RMK SC2SC2SC1SC4 SNOW COVER/TRACE LOOSE SLP139

CYYC;2007-03-18 12:23;CYYC 181223Z 03013KT 4SM -SN FEW006 FEW012 OVC033 M00/ RMK SC1SC1SC6 PCPN VRY LGT

CYYC;2007-03-18 13:00;CYYC 181300Z 02010KT 5SM -SN FEW012 OVC033 M00/M03 A2989 RMK SC2SC6 PCPN VRY LGT SLP149

CYYC;2007-03-18 13:22;CYYC 181322Z 04011KT 5SM -SN FEW006 FEW009 BKN010 OVC034 M01/ RMK SC1SC1SC4SC2

CYYC;2007-03-18 13:38;CYYC 181338Z 06006KT 5SM -SN BKN006 OVC010 M01/ RMK SC6SC2 PCPN VRY LGT

CYYC;2007-03-18 14:00;CYYC 181400Z 06006KT 5SM -SN OVC008 M00/M01 A2992 RMK SC8 PCPN VRY LGT SLP158

CYYC;2007-03-18 15:00;CYYC 181500Z 07005KT 3SM -SN SCT008 OVC015 M01/M03 A2993 RMK SC4SC4 SLP168

CYYC;2007-03-18 15:22;CYYC 181522Z 08006KT 5SM -SN BKN007 OVC015 M01/ RMK SC6SC2

CYYC;2007-03-18 15:41;CYYC 181541Z 06003KT 6SM -SN SCT006 OVC019 M01/ RMK SC3SC5

CYYC;2007-03-18 16:00;CYYC 181600Z 04002KT 6SM -SN SCT008 OVC022 M01/M03 A2995 RMK SC4SC4 SLP174

CYYC;2007-03-18 16:17;CYYC 181617Z 05007KT 6SM -SN BKN010 OVC024 M01/ RMK SC5SC3

CYYC;2007-03-18 16:39;CYYC 181639Z 06006KT 6SM -SN FEW009 BKN015 OVC028 M01/ RMK SC2SC2SC4

CYYC;2007-03-18 17:00;CYYC 181700Z 07007KT 6SM -SN FEW009 SCT015 OVC030 M01/M04 A2997 RMK SC2SC2SC4 SLP180

CYYC;2007-03-18 18:00;CYYC 181800Z 07008KT 7SM -SN FEW010 SCT015 OVC033 M01/M05 A2999 RMK SC2SC2SC4 PCPN VRY LGT SLP192

CYYC;2007-03-18 18:24;CYYC 181824Z 05008KT 7SM -SN SCT008 BKN013 OVC033 M01/ RMK SC4SC2SC2 PCPN VRY LGT

CYYC;2007-03-18 18:41;CYYC 181841Z 07008KT 5SM -RASN BKN004 OVC012 M02/ RMK SC5SC3 VIS NE 11/2

CYYC;2007-03-18 18:51;CYYC 181851Z 08008KT 4SM -SG -FZDZ BKN003 OVC008 M02/ RMK ST6SC2 VIS NE-S 13/4

CYYC;2007-03-18 19:00;CYYC 181900Z 08009KT 4SM -SG -FZDZ BKN003 OVC008 M02/M04 A3000 RMK ST7SC1 VIS NE-S 11/2 SLP195

CYYC;2007-03-18 19:10;CYYC 181910Z CCA 07010KT 1 3/4SM -SG -FZDZ BR OVC003 M03/ RMK ST8

CYYC;2007-03-18 20:00;CYYC 182000Z 06011KT 2 1/2SM -SG -FZDZ BR OVC003 M03/M05 A3001 RMK ST8 PCPN VRY LGT SLP199

CYYC;2007-03-18 20:38;CYYC 182038Z 05012KT 2 1/4SM -SG -FZDZ BR OVC005 M04/ RMK ST8

CYYC;2007-03-18 21:00;CYYC 182100Z 05013KT 2SM -SG -FZDZ BR BKN005 OVC008 M04/M06 A3002 RMK ST6SC2 SLP217

CYYC;2007-03-18 21:45;CYYC 182145Z 05011KT 3SM -SG -FZDZ BR SCT005 OVC009 M05/ RMK ST3ST5

CYYC;2007-03-18 22:00;CYYC 182200Z 04010KT 3SM -SG -FZDZ BR SCT005 OVC013 M05/M07 A3004 RMK SC3ST5 SLP222

CYYC;2007-03-18 22:39;CYYC 182239Z 05010KT 5SM -SN FEW006 OVC015 M05/ REFZDZ RMK SC2SC6

CYYC;2007-03-18 23:00;CYYC 182300Z 05009KT 5SM -SN FEW006 OVC013 M05/M08 A3005 REFZDZ RMK SC2SC6 SLP225

CYYC;2007-03-18 23:52;CYYC 182352Z 05009KT 7SM -SN FEW006 OVC018 M05/ RMK SC2SC6

CYYC;2007-03-19 00:00;CYYC 190000Z 05009KT 7SM -SN FEW008 OVC020 M06/M10 A3006 RMK SC2SC6 SLP236

CYYC;2007-03-19 01:00;CYYC 190100Z 05010KT 10SM -SN FEW008 OVC020 M06/M10 A3008 RMK SC1SC8 SLP242

CYYC;2007-03-19 02:00;CYYC 190200Z CCA 07007KT 6SM -SN FEW014 OVC022 M06/M10 A3010 RMK SC2SC6 SLP248

CYYC;2007-03-19 02:49;CYYC 190249Z 06008KT 5SM -SN BKN010 OVC016 M06/ RMK SC5SC3

CYYC;2007-03-19 03:00;CYYC 190300Z 05008KT 4SM -SN BKN010 OVC016 M06/M09 A3011 RMK SC6SC2 SLP256

CYYC;2007-03-19 03:38;CYYC 190338Z 09008KT 4SM -SN -FZDZ OVC012 M07/ RMK ST8

CYYC;2007-03-19 04:00;CYYC 190400Z 08007KT 4SM -SN -FZDZ BKN012 OVC020 M07/M09 A3012 RMK ST6SC2 SLP258

CYYC;2007-03-19 04:28;CYYC 190428Z 11009KT 6SM -SN BKN011 OVC018 M07/ RMK ST6SC2

CYYC;2007-03-19 05:00;CYYC 190500Z 10008KT 6SM -SN BKN010 OVC022 M07/M10 A3011 RMK ST5SC3 SLP255

CYYC;2007-03-19 06:00;CYYC 190600Z 11007KT 4SM -SN BKN009 OVC018 M07/M10 A3011 RMK ST6SC2 PCPN VRY LGT SLP257

CYYC;2007-03-19 06:44;CYYC 190644Z 13009KT 2 1/2SM -SN OVC009 M07/ RMK ST8

CYYC;2007-03-19 07:00;CYYC 190700Z 12010KT 2SM -SN OVC007 M07/M09 A3008 RMK ST8 SLP248

CYYC;2007-03-19 08:00;CYYC 190800Z 14011G16KT 1 1/2SM -SN OVC007 M06/M09 A3008 RMK ST8 SLP248

CYYC;2007-03-19 09:00;CYYC 190900Z 14014KT 2SM -SN BR OVC007 M07/M09 A3005 RMK ST8 SLP237

CYYC;2007-03-19 10:00;CYYC 191000Z 15014KT 2SM -SN BR OVC007 M07/M09 A3002 RMK ST8 SLP230

CYYC;2007-03-19 10:26;CYYC 191026Z 14013KT 3SM -SN BR OVC009 M07/ RMK ST8

CYYC;2007-03-19 11:00;CYYC 191100Z 15014KT 6SM -SN OVC011 M07/M09 A2998 RMK ST8 SLP216

CYYC;2007-03-19 12:00;CYYC 191200Z 16014KT 6SM -SN OVC012 M07/M09 A2995 RMK ST8 SNOW COVER/ONE LOOSE SLP207

CYYC;2007-03-19 13:00;CYYC 191300Z 15013KT 6SM -SN OVC010 M07/M09 A2991 RMK ST8 SLP195

CYYC;2007-03-19 13:33;CYYC 191333Z 16016KT 8SM OVC010 M06/ RMK SC8 ST ASOCTD

CYYC;2007-03-19 14:00;CYYC 191400Z 15016KT 8SM OVC010 M06/M09 A2989 RMK SC8 ST ASOCTD SLP187

CYYC;2007-03-19 14:46;CYYC 191446Z 15015G20KT 8SM OVC009 M06/ RMK SC8 ST ASOCTD

CYYC;2007-03-19 15:00;CYYC 191500Z 15013G20KT 8SM -SN OVC007 M06/M09 A2987 RMK SC8 ST ASOCTD SLP179

CYYC;2007-03-19 16:00;CYYC 191600Z CCA 16014KT 6SM -SN OVC006 M06/M08 A2984 RMK ST8 SC EMBD SLP169

CYYC;2007-03-19 16:34;CYYC 191634Z 15016KT 3SM -SN BR OVC004 M06/ RMK ST8

CYYC;2007-03-19 17:00;CYYC 191700Z 16018G24KT 2 1/2SM -SN BR OVC004 M06/M08 A2981 RMK ST8 SLP160

CYYC;2007-03-19 17:36;CYYC 191736Z 15015G21KT 2SM -SN BR OVC003 M05/ RMK ST8

CYYC;2007-03-19 18:00;CYYC 191800Z 15016KT 1 1/2SM -SN BR OVC003 M05/M07 A2977 RMK ST8 SLP141

CYYC;2007-03-19 19:00;CYYC 191900Z 17013G20KT 1 1/2SM -SG BR OVC002 M04/M05 A2973 RMK ST8 SLP130

CYYC;2007-03-19 20:00;CYYC 192000Z 16013G18KT 2 1/2SM -SG BR OVC003 M03/M04 A2969 RMK ST8 SLP118

CYYC;2007-03-19 20:10;CYYC 192010Z 15014KT 2SM -SG BR OVC002 M03/ RMK ST8

CYYC;2007-03-19 20:32;CYYC 192032Z 16013KT 3SM -SG BR OVC002 M02/ RMK ST8

CYYC;2007-03-19 20:44;CYYC 192044Z 16014KT 3SM -SG BR OVC003 M02/ RMK ST8

CYYC;2007-03-19 21:00;CYYC 192100Z 16010G16KT 5SM BR OVC004 M02/M03 A2965 RMK ST8 SLP096

CYYC;2007-03-19 21:40;CYYC 192140Z 16012KT 5SM BR OVC005 M01/ RMK ST8

CYYC;2007-03-19 22:00;CYYC 192200Z 18010KT 6SM BR OVC006 M00/M02 A2963 RMK ST8 SLP088

CYYC;2007-03-19 22:40;CYYC 192240Z 18004KT 7SM OVC007 OVC140 01/ RMK ST4AC1

CYYC;2007-03-19 23:00;CYYC 192300Z 20005KT 7SM FEW007 FEW100 BKN250 03/00 A2960 RMK SC1AC1CI1 SLP079

CYYC;2007-03-20 00:00;CYYC 200000Z 05003KT 10SM FEW012 FEW100 BKN250 03/M00 A2956 RMK SC1AC1CI1 SLP058

CYYC;2007-03-20 01:00;CYYC 200100Z 03003KT 8SM FEW012 FEW120 BKN250 03/00 A2955 RMK SC1AC1CI1 SLP053

CYYC;2007-03-20 02:00;CYYC 200200Z 35004KT 10SM FEW040 FEW120 OVC240 00/M02 A2953 RMK SC1AC1CI3 SC TR SLP049

CYYC;2007-03-20 03:00;CYYC 200300Z 29003KT 12SM FEW120 SCT250 M00/M02 A2952 RMK AC1CI2 AC TR SLP048

CYYC;2007-03-20 04:00;CYYC 200400Z 16004KT 12SM FEW120 SCT250 M01/M03 A2950 RMK AC1CI2 AC TR SLP042

CYYC;2007-03-20 05:00;CYYC 200500Z 00000KT 10SM FEW250 M02/M04 A2948 RMK CI0 SLP037

CYYC;2007-03-20 06:00;CYYC 200600Z 29006KT 10SM FEW250 M03/M05 A2946 RMK CI0 SLP029

CYYC;2007-03-20 07:00;CYYC 200700Z 00000KT 10SM FEW240 M03/M05 A2944 RMK CI1 CI TR SLP023

CYYC;2007-03-20 08:00;CYYC 200800Z 01003KT 15SM SKC M04/M06 A2942 RMK SLP017

CYYC;2007-03-20 09:00;CYYC 200900Z 00000KT 15SM FEW240 M03/M06 A2941 RMK CI1 SLP006

CYYC;2007-03-20 10:00;CYYC 201000Z 22003KT 12SM FEW240 M04/M06 A2937 RMK CI1 SLP995

CYYC;2007-03-20 11:00;CYYC 201100Z CCA 01004KT 12SM SCT230 M05/M07 A2935 RMK CI1 SLP988

CYYC;2007-03-20 12:00;CYYC 201200Z 35004KT 12SM BKN220 M04/M06 A2935 RMK CI2 SNOW COVER/TRACE LOOSE SLP978

CYYC;2007-03-20 13:00;CYYC 201300Z 36015KT 3SM BR BKN200 M04/M06 A2934 RMK CI2 VIS 11/4 E SLP977

CYYC;2007-03-20 13:07;CYYC 201307Z 01011G16KT 3/4SM BR BKN004 M04/ RMK FG3ST1 RVR RWY34 5000 FT

CYYC;2007-03-20 13:14;CYYC 201314Z 26012KT 5/8SM BR BKN002 M04/ RMK FG6ST1 RVR RWY28 3500 FT

CYYC;2007-03-20 13:19;CYYC 201319Z 01013KT 3/8SM FZFG VV001 M04/ RMK FG8 RVR RWY34 5000 FT

CYYC;2007-03-20 14:00;CYYC 201400Z 36011KT 3/8SM FZFG VV002 M04/M05 A2934 RMK FG8 FROIN / RVR RWY34 3500 FT SLP976

CYYC;2007-03-20 15:00;CYYC 201500Z CCA 35010G15KT 1/2SM FZFG OVC005 M03/M05 A2936 RMK FG6ST2 VIS S 1 / RVR RWY34 6000+ FT SLP987

CYYC;2007-03-20 15:21;CYYC 201521Z 34009KT 5SM BR OVC004 M02/ RMK ST7 VIS NW-SW 2

CYYC;2007-03-20 15:36;CYYC 201536Z 34011KT 5SM BR FEW004 BKN054 BKN220 M01/ RMK ST2SC6CI1

CYYC;2007-03-20 15:56;CYYC 201556Z 33012KT 4SM -SHGS BR FEW010 BKN031 OVC055 M01/ RMK CU1SC5SC2

CYYC;2007-03-20 16:00;CYYC 201600Z CCA 33012KT 1SM -SHGS BR FEW008 BKN018 OVC031 M01/M02 A2940 RMK SC1SC4SC3 CU EMBD / RVR RWY34 6000FT+ SLP998

CYYC;2007-03-20 16:06;CYYC 201606Z 34009G15KT 1/2SM SHGS SCT006 OVC018 M01/ RMK SC3SC5 RVR RWY34 6000FT

CYYC;2007-03-20 16:29;CYYC 201629Z 32006KT 3/4SM -SHSN FEW006 BKN012 OVC016 M01/ REGS RMK SC2SC4SC2 RVR RWY34 5500FT

CYYC;2007-03-20 17:00;CYYC 201700Z 01005KT 3SM -SHSN FEW004 BKN016 BKN058 M01/M01 A2940 REGS RMK SC2SC2SC3 CU ASOCTD SLP998

CYYC;2007-03-20 17:38;CYYC 201738Z 36002KT 5SM BR SCT005 BKN060 BKN090 00/ RMK SC3SC2AC1 SH SW / CU ASOCTD

CYYC;2007-03-20 18:00;CYYC 201800Z 00000KT 5SM BR FEW007 SCT070 BKN110 02/01 A2940 RMK CU2AC2AC1 /S01/ SLP996

CYYC;2007-03-20 19:00;CYYC 201900Z 17005KT 8SM FEW013 FEW090 FEW130 06/03 A2940 RMK CU1AC1AC1 SLP997

CYYC;2007-03-20 20:00;CYYC 202000Z 16009KT 10SM FEW015 FEW120 07/02 A2939 RMK CU2AC1 SLP995

CYYC;2007-03-20 21:00;CYYC 202100Z 27021G26KT 20SM FEW040TCU SCT090 07/M03 A2938 RMK TCU2AC2 SH S-W SLP982

CYYC;2007-03-20 22:00;CYYC 202200Z 27023KT 20SM FEW040CB SCT090 BKN120 07/M03 A2938 RMK CB2AC2AC1 SH E+SE+SW-W / LTGCG SE SLP984

CYYC;2007-03-20 23:00;CYYC 202300Z 25018G24KT 20SM FEW040CB BKN110 BKN180 05/M05 A2942 RMK CB2AC4AC1 SCT SH E-W SLP994

CYYC;2007-03-21 00:00;CYYC 210000Z 25021G29KT 20SM SCT050CB BKN110 BKN170 07/M10 A2942 RMK CB3AC3AC1 SCT SH N-SW SLP999

CYYC;2007-03-21 01:00;CYYC 210100Z 28021G28KT 30SM FEW020 SCT055TCU BKN130 BKN170 05/M10 A2950 RMK SC2TCU2AC2AC2 SH N-E / PRESRR SLP023

CYYC;2007-03-21 01:11;CYYC 210111Z 35027G36KT 20SM FEW015 SCT055TCU BKN150 M00/ RMK SC2TCU2AC2 SH N-SE / WSHFT 0100Z / PRESRR

CYYC;2007-03-21 03:00;CYYC 210300Z 35015KT 15SM BKN012 OVC060 M02/M05 A2962 RMK SC6SC2 SLP081

CYYC;2007-03-21 04:00;CYYC 210400Z 01018KT 15SM OVC012 M02/M05 A2967 RMK SC7 SLP096

CYYC;2007-03-21 04:19;CYYC 210419Z CCA 36017KT 5/8SM -SN OVC008 M02/ RMK SC8 VIS 11/4 E/ RVR RWY34 4000 FT

CYYC;2007-03-21 04:30;CYYC 210430Z 36011G17KT 4SM -SN BKN020 OVC036 M02/ RMK SC6SC2

CYYC;2007-03-21 05:00;CYYC 210500Z 36011KT 10SM -SN BKN039 OVC065 M02/M06 A2971 RMK SC6SC2 SLP109

CYYC;2007-03-21 05:29;CYYC 210529Z 36011G20KT 1 1/4SM -SN OVC007 M03/ RMK SC8

CYYC;2007-03-21 05:45;CYYC 210545Z 36008KT 3SM -SN OVC020 M03/ RMK SC8

CYYC;2007-03-21 06:00;CYYC 210600Z 01008KT 3/4SM -SN BKN006 OVC017 M03/M06 A2976 RMK SN4SC3SC1 /S01/ RVR RWY28 4500FT SLP122

CYYC;2007-03-21 06:22;CYYC 210622Z 03005KT 4SM -SN BKN030 OVC053 M03/ RMK SC6SC2

CYYC;2007-03-21 07:00;CYYC 210700Z 21005KT 12SM -SN FEW030 OVC052 M05/M07 A2978 RMK SC2SC6 SLP128

CYYC;2007-03-21 07:21;CYYC 210721Z 21005KT 12SM FEW030 OVC058 M04/ RMK SC1SC7

CYYC;2007-03-21 08:00;CYYC 210800Z 19006KT 3SM -SN OVC029 M03/M05 A2979 RMK SC8 SLP133

CYYC;2007-03-21 09:00;CYYC 210900Z 19005KT 12SM -SN FEW015 OVC045 M04/M06 A2981 RMK SF2SC6 SLP135

CYYC;2007-03-21 09:11;CYYC 210911Z 19006KT 12SM FEW012 OVC052 M04/ RMK SF2SC6

CYYC;2007-03-21 10:00;CYYC 211000Z 20007KT 12SM FEW016 OVC054 M04/M06 A2983 RMK SF1SC7 SLP139

CYYC;2007-03-21 11:00;CYYC 211100Z 20005KT 12SM OVC054 M04/M06 A2984 RMK SC8 SLP142

CYYC;2007-03-21 12:00;CYYC 211200Z CCB 02010KT 3SM -SN FEW008 OVC015 M05/M07 A2987 RMK SC2SC6 VIS E 3/4/ SNOW COVER/MUCH LOOSE SLP156

CYYC;2007-03-21 12:11;CYYC 211211Z 03009KT 3/4SM -SN BKN004 OVC011 M05/ RMK SN3SC3SC2 RVR RWY28 5000 FT

CYYC;2007-03-21 12:19;CYYC 211219Z 03011KT 5/8SM -SN BKN003 OVC011 M05/ RMK SN6SC2SC1 RVR RWY34 4000 FT

CYYC;2007-03-21 12:22;CYYC 211222Z 04011KT 3/8SM SN VV002 M05/ RMK SN8 RVR RWY28 3000 FT

CYYC;2007-03-21 12:27;CYYC 211227Z 04009KT 1/8SM +SN VV003 M05/ RMK SN8 RVR RWY28 3500 FT

CYYC;2007-03-21 12:32;CYYC 211232Z 04010KT 1/4SM +SN VV004 M05/ RMK SN8 RVR RWY34 4000 FT

CYYC;2007-03-21 12:36;CYYC 211236Z 03010KT 3/8SM SN VV005 M05/ RMK SN8 RVR RWY34 5000 FT

CYYC;2007-03-21 12:49;CYYC 211249Z 03010KT 1/4SM +SN VV004 M05/ RMK SN8 RVR RWY34 5000 FT

CYYC;2007-03-21 12:55;CYYC 211255Z 03008KT 1/2SM SN VV006 M05/ RESN RMK SN8 RVR RWY34 5500 FT

CYYC;2007-03-21 13:00;CYYC 211300Z CCA 04009KT 1/2SM SN VV005 M06/M08 A2990 RESN RMK SN8 CIG VRB 4-6 /S02/ RVR RWY34 5000 FT SLP166

CYYC;2007-03-21 13:13;CYYC 211313Z 06006KT 1 1/2SM -SN VV009 M06/ RESN RMK SN8

CYYC;2007-03-21 13:37;CYYC 211337Z 06006KT 1 1/2SM -SN OVC030 M06/ RESN RMK SN4SC4

CYYC;2007-03-21 13:53;CYYC 211353Z 07005KT 3SM -SN BKN015 OVC030 M06/ RESN RMK SC4SC2

CYYC;2007-03-21 14:00;CYYC 211400Z 07004KT 4SM -SN BKN015 BKN030 M06/M08 A2992 RESN RMK SC4SC2 SLP171

CYYC;2007-03-21 15:00;CYYC 211500Z 14004KT 4SM -SN FEW015 BKN038 M06/M08 A2992 RMK SC1SC6 SLP187

CYYC;2007-03-21 16:00;CYYC 211600Z 16005KT 8SM -SN FEW015 BKN047 M05/M08 A2992 RMK SC0SC2 SLP187

CYYC;2007-03-21 16:27;CYYC 211627Z 18007KT 15SM FEW015 BKN047 M05/ RMK SC0SC2

CYYC;2007-03-21 17:00;CYYC 211700Z 17009KT 20SM FEW015 BKN030 BKN040 M05/M08 A2990 RMK SC1SC4SC1 SLP181

CYYC;2007-03-21 18:00;CYYC 211800Z 17009KT 20SM FEW015 BKN024 M04/M07 A2987 RMK SC2SC1 SLP169

CYYC;2007-03-21 19:00;CYYC 211900Z 17014KT 20SM BKN018 BKN024 BKN210 M03/M07 A2985 RMK SC5SC1CI1 SLP162

CYYC;2007-03-21 20:00;CYYC 212000Z 18013KT 30SM FEW016 BKN250 M02/M06 A2982 RMK SC1CI1 SLP154

CYYC;2007-03-21 21:00;CYYC 212100Z 20011KT 40SM FEW080 BKN200 BKN250 M01/M05 A2979 RMK AC1CI3CI1 SLP138

CYYC;2007-03-21 22:00;CYYC 212200Z 20010KT 40SM FEW080 FEW180 SCT220 BKN250 01/M03 A2976 RMK AC1AC1CI2CI2 SLP129

CYYC;2007-03-21 23:00;CYYC 212300Z 22011KT 30SM FEW080 FEW180 SCT220 BKN250 04/M03 A2973 RMK AC1AC1CI2CI1 SLP121

CYYC;2007-03-22 00:00;CYYC 220000Z 23006KT 40SM FEW080 FEW180 SCT220 BKN240 04/M04 A2972 RMK AC1AC1CI2CI0 SLP109

CYYC;2007-03-22 01:00;CYYC 220100Z 27014KT 40SM FEW080 FEW180 BKN220 04/M07 A2972 RMK AC1AC1CI2 SLP109

CYYC;2007-03-22 02:00;CYYC 220200Z 25007KT 30SM FEW040 BKN100 BKN220 04/M06 A2971 RMK SC1AC6CI1 SLP105

CYYC;2007-03-22 03:00;CYYC 220300Z 22003KT 15SM BKN160 OVC200 03/M07 A2971 RMK AC5CI2 SLP108

CYYC;2007-03-22 04:00;CYYC 220400Z 23015KT 15SM FEW160 FEW210 OVC220 03/M06 A2970 RMK AC1CI1CI8 LO AC/CI TR SLP104

CYYC;2007-03-22 05:00;CYYC 220500Z 26005KT 15SM OVC210 03/M07 A2967 RMK CI8 SLP095

CYYC;2007-03-22 06:00;CYYC 220600Z 20003KT 15SM OVC180 01/M06 A2962 RMK AC8 SLP077

CYYC;2007-03-22 07:00;CYYC 220700Z 24004KT 15SM BKN240 01/M07 A2967 RMK CI6 SLP093

CYYC;2007-03-22 08:00;CYYC 220800Z 28016G21KT 15SM FEW240 04/M07 A2969 RMK CI0 SLP097

CYYC;2007-03-22 09:00;CYYC 220900Z 28022G27KT 15SM FEW240 05/M07 A2972 RMK CI1 SLP102

CYYC;2007-03-22 10:00;CYYC 221000Z 30015KT 15SM SKC 04/M08 A2972 RMK SLP103

CYYC;2007-03-22 11:00;CYYC 221100Z 26021G26KT 15SM SKC 03/M08 A2969 RMK SLP094

CYYC;2007-03-22 12:00;CYYC 221200Z 25012KT 15SM SKC 02/M08 A2971 RMK SNOW COVER/TRACE LOOSE SLP096

CYYC;2007-03-22 13:00;CYYC 221300Z 26014KT 15SM SKC 04/M09 A2971 RMK SLP095

CYYC;2007-03-22 14:00;CYYC 221400Z 27015G20KT 40SM FEW045 FEW250 04/M09 A2970 RMK SC1CI0 SC TR SLP093

CYYC;2007-03-22 15:00;CYYC 221500Z 27015G20KT 40SM FEW045 FEW120 FEW250 05/M09 A2970 RMK SC1AC1CI1 SC+AC TR SLP088

CYYC;2007-03-22 16:00;CYYC 221600Z 27021G26KT 40SM FEW140 FEW250 07/M09 A2970 RMK AC1CI1 AC TR SLP090

CYYC;2007-03-22 17:00;CYYC 221700Z 27013KT 40SM FEW140 SCT250 09/M09 A2970 RMK AC1CI1 AC TR SLP089

CYYC;2007-03-22 18:00;CYYC 221800Z 26019KT 40SM FEW045 FEW180 FEW220 BKN250 10/M08 A2971 RMK CU1AC1CS1CI2 HALO/ CU+AC TR SLP088

CYYC;2007-03-22 19:00;CYYC 221900Z 27018G24KT 40SM FEW045 FEW180 BKN250 10/M08 A2970 RMK CU1AC1CI2 CU+AC TR SLP087

CYYC;2007-03-22 20:00;CYYC 222000Z 26021G26KT 40SM FEW045 BKN150 BKN240 11/M08 A2970 RMK CU1AC2CI2 CU TR SLP085

CYYC;2007-03-22 21:00;CYYC 222100Z 27020G25KT 40SM FEW050 BKN110 BKN230 09/M08 A2967 RMK CU1AC5CI1 CU TR SLP072

CYYC;2007-03-22 22:00;CYYC 222200Z 24004KT 40SM FEW050 BKN110 BKN220 09/M08 A2967 RMK CU1AC6CI1 CU TR SLP072

CYYC;2007-03-22 23:00;CYYC 222300Z 28016KT 40SM FEW050 BKN120 BKN240 11/M08 A2968 RMK CU1AC2CI1 CU TR SLP074

CYYC;2007-03-23 00:00;CYYC 230000Z 27008KT 30SM FEW050 FEW090 SCT150 11/M08 A2966 RMK CU1AC1AC2 CU TR SLP067

CYYC;2007-03-23 02:00;CYYC 230200Z 27007KT 30SM FEW052 FEW090 FEW240 06/M07 A2964 RMK SC1AC1CI0 SC TR SLP063

CYYC;2007-03-23 03:00;CYYC 230300Z 27012KT 15SM FEW090 FEW240 07/M06 A2965 RMK AC1CI1 SLP067

CYYC;2007-03-23 04:00;CYYC 230400Z 28011KT 15SM FEW100 06/M06 A2967 RMK AC1 SLP072

CYYC;2007-03-23 05:00;CYYC 230500Z 28010KT 15SM FEW200 05/M06 A2969 RMK CI0 SLP078

CYYC;2007-03-23 06:00;CYYC 230600Z 31009KT 15SM FEW190 OVC210 05/M06 A2972 RMK AC2CI0 SLP087

CYYC;2007-03-23 07:00;CYYC 230700Z CCA 30009KT 15SM BKN050 OVC120 05/M06 A2973 RMK SC6AC2 SLP090

CYYC;2007-03-23 08:00;CYYC 230800Z 21004KT 15SM FEW060 02/M06 A2973 RMK SC2 SLP092

CYYC;2007-03-23 09:00;CYYC 230900Z 00000KT 15SM SKC 01/M07 A2975 RMK SLP104

CYYC;2007-03-23 10:00;CYYC 231000Z 27011KT 15SM SKC 04/M06 A2977 RMK SLP109

CYYC;2007-03-23 11:00;CYYC 231100Z 29006KT 15SM SKC 04/M07 A2978 RMK SLP113

CYYC;2007-03-23 12:00;CYYC 231200Z 32004KT 15SM SKC 02/M07 A2982 RMK SLP124

CYYC;2007-03-23 13:00;CYYC 231300Z 29008KT 30SM SKC 04/M07 A2983 RMK SLP127

CYYC;2007-03-23 14:00;CYYC 231400Z 18003KT 40SM SKC 02/M07 A2985 RMK SLP132

CYYC;2007-03-23 15:00;CYYC 231500Z 14008KT 40SM FEW220 04/M06 A2986 RMK CI1 CI TR SLP142

CYYC;2007-03-23 16:00;CYYC 231600Z 16009KT 40SM FEW220 FEW260 04/M05 A2987 RMK CI1CI1 CLDS TR SLP145

CYYC;2007-03-23 17:00;CYYC 231700Z 17006KT 40SM FEW140 FEW250 07/M05 A2985 RMK AC1CI0 AC TR SLP139

CYYC;2007-03-23 18:00;CYYC 231800Z 17011KT 40SM FEW120 FEW250 10/M03 A2981 RMK AC1CI0 SLP117

CYYC;2007-03-23 19:00;CYYC 231900Z 17010G15KT 40SM FEW120 FEW220 SCT250 13/M03 A2978 RMK AC1CI2CI0 SLP108

CYYC;2007-03-23 20:00;CYYC 232000Z 20011G17KT 40SM FEW120 FEW220 SCT250 15/M06 A2973 RMK AC1CI1CI0 SLP095

CYYC;2007-03-23 21:00;CYYC 232100Z 17013KT 40SM FEW045 SCT120 BKN220 BKN250 13/M06 A2972 RMK SC1AC3CI2CI0 SC TR SLP088

CYYC;2007-03-23 22:00;CYYC 232200Z 19009KT 40SM FEW045 BKN170 BKN230 13/M05 A2969 RMK CU1AC5CI2 CU TR SLP079

CYYC;2007-03-23 23:00;CYYC 232300Z 22005KT 40SM FEW040 FEW080 BKN150 BKN240 15/M07 A2967 RMK CU1AC1AC4CI2 CU TR SLP072

CYYC;2007-03-24 00:00;CYYC 240000Z CCA 22008KT 40SM FEW050 FEW080 BKN140 BKN220 15/M05 A2963 RMK CU1AC1AC4CI2 ACSL E SLP054

CYYC;2007-03-24 03:00;CYYC 240300Z 17009KT 15SM BKN100 BKN240 08/M03 A2958 RMK AC2CI2 SLP043

CYYC;2007-03-24 04:00;CYYC 240400Z 14004KT 15SM FEW100 BKN240 05/M04 A2958 RMK AC2CI1 SLP044

CYYC;2007-03-24 05:00;CYYC 240500Z 08004KT 15SM FEW100 BKN240 04/M04 A2957 RMK AC1CI1 SLP041

CYYC;2007-03-24 06:00;CYYC 240600Z 06002KT 15SM BKN240 02/M04 A2959 RMK CI5 SLP044

CYYC;2007-03-24 07:00;CYYC 240700Z 27005KT 15SM BKN240 03/M04 A2958 RMK CI2 AURBO SLP042

CYYC;2007-03-24 08:00;CYYC 240800Z 21003KT 15SM SCT240 05/M04 A2959 RMK CI1 AURBO SLP044

CYYC;2007-03-24 09:00;CYYC 240900Z 23011KT 15SM FEW240 06/M03 A2957 RMK CI0 AURBO SLP032

CYYC;2007-03-24 10:00;CYYC 241000Z 23012KT 15SM FEW240 06/M03 A2956 RMK CI0 AURBO SLP029

CYYC;2007-03-24 11:00;CYYC 241100Z 25021KT 15SM FEW240 09/M03 A2957 RMK CI1 SLP032

CYYC;2007-03-24 12:00;CYYC 241200Z 24015KT 15SM FEW240 08/M03 A2957 RMK CI1 SLP025

CYYC;2007-03-24 13:00;CYYC 241300Z 24014KT 15SM OVC240 07/M02 A2959 RMK CI6 SLP030

CYYC;2007-03-24 14:00;CYYC 241400Z 18002KT 30SM FEW050 BKN240 BKN260 06/M03 A2962 RMK SC1CI2CI0 SLP042

CYYC;2007-03-24 15:00;CYYC 241500Z 35003KT 30SM FEW050 FEW160 SCT240 BKN260 07/M02 A2963 RMK SC1AC1CI2CI2 SLP054

CYYC;2007-03-24 16:00;CYYC 241600Z 26004KT 30SM FEW060 FEW180 SCT220 BKN260 08/M01 A2964 RMK SC1AC1CI2CI0 SLP059

CYYC;2007-03-24 17:00;CYYC 241700Z 24002KT 40SM FEW060 FEW180 SCT220 BKN260 11/M01 A2965 RMK SC1AC1CI1CS6 SLP061

CYYC;2007-03-24 18:00;CYYC 241800Z 07010KT 40SM FEW060 FEW130 SCT210 BKN260 11/01 A2965 RMK SC1AC1CI1CS6 SLP066

CYYC;2007-03-24 19:00;CYYC 241900Z 12009KT 40SM FEW060 FEW130 SCT200 BKN260 13/01 A2962 RMK SC1AC1CI2CS6 SLP055

CYYC;2007-03-24 20:00;CYYC 242000Z 17005KT 40SM FEW070 FEW130 BKN200 BKN260 15/01 A2959 RMK AC1AC1CI2CS6 SLP048

CYYC;2007-03-24 21:00;CYYC 242100Z 19009KT 40SM FEW080 BKN210 BKN260 16/M00 A2957 RMK AC1CI2CI6 SLP024

CYYC;2007-03-24 22:00;CYYC 242200Z 19013KT 40SM FEW080 BKN210 BKN260 16/M00 A2955 RMK AC1CI2CI5 SLP017

CYYC;2007-03-24 23:00;CYYC 242300Z 21012KT 40SM FEW080 OVC210 16/M01 A2955 RMK AC1CI8 SLP017

CYYC;2007-03-25 00:00;CYYC 250000Z 21012KT 40SM FEW080 FEW180 BKN210 15/M00 A2951 RMK AC1AC1CI6 SLP005

CYYC;2007-03-25 01:00;CYYC 250100Z 20009KT 30SM FEW080 FEW180 BKN210 BKN260 14/M00 A2950 RMK AC1AC1CI4CI3 SLP000

CYYC;2007-03-25 02:00;CYYC 250200Z 21011KT 30SM FEW060 FEW090 BKN210 BKN260 12/M01 A2949 RMK SC1AC2CI4CI2 SC TR SLP998

CYYC;2007-03-25 03:00;CYYC 250300Z 18010G15KT 15SM FEW060 FEW090 BKN210 OVC260 10/M00 A2947 RMK SC1AC2CI4CI1 SC TR SLP999

CYYC;2007-03-25 04:00;CYYC 250400Z 18013KT 15SM FEW120 OVC230 10/M00 A2946 RMK AC2CI5 SLP996

CYYC;2007-03-25 05:00;CYYC 250500Z 16008KT 15SM FEW150 SCT250 07/M01 A2944 RMK AC1CI2 AC TR SLP988

CYYC;2007-03-25 06:00;CYYC 250600Z 20006KT 15SM FEW240 08/M01 A2943 RMK CI0 SLP982

CYYC;2007-03-25 07:00;CYYC 250700Z 19004KT 15SM FEW230 04/M02 A2942 RMK CI2 SLP980

CYYC;2007-03-25 08:00;CYYC 250800Z 33002KT 15SM FEW180 BKN230 04/M02 A2944 RMK AC2CI1 SLP986

CYYC;2007-03-25 09:00;CYYC 250900Z CCA 23013KT 15SM FEW180 BKN210 07/M01 A2944 RMK AC2CI2 SLP977

CYYC;2007-03-25 10:00;CYYC 251000Z 24012KT 15SM SCT190 BKN210 08/01 A2942 RMK AC3CI2 SLP973

CYYC;2007-03-25 11:00;CYYC 251100Z 25008KT 15SM SCT190 BKN210 06/00 A2945 RMK AC3CI2 SLP980

CYYC;2007-03-25 12:00;CYYC 251200Z 35015KT 15SM FEW090 BKN150 OVC210 06/01 A2953 RMK AC1AC4CI2 PRESRR SLP012

CYYC;2007-03-25 13:00;CYYC 251300Z 01011G17KT 15SM FEW030 BKN090 OVC210 02/M02 A2958 RMK SC1AC5CI2 SLP028

CYYC;2007-03-25 13:36;CYYC 251336Z 33012KT 7SM -SHRA FEW030 BKN060 OVC210 02/ RMK SC1SC6CI2

CYYC;2007-03-25 13:51;CYYC 251351Z 35008KT 15SM FEW030 BKN054 BKN210 02/ RMK SC1SC6CI2 SHS SE-SW

CYYC;2007-03-25 14:00;CYYC 251400Z 34008KT 15SM VCSH FEW030 BKN054 BKN075 02/M02 A2961 RMK SC1SC6AC2 SHS SE-SW SLP037

CYYC;2007-03-25 15:00;CYYC 251500Z 35008KT 20SM FEW030 BKN042 BKN075 03/M02 A2961 RMK SC1SC6AC2 SHS SE+SW SLP050

CYYC;2007-03-25 16:00;CYYC 251600Z 35007KT 15SM FEW030 BKN047 BKN075 04/M05 A2964 RMK SC1SC7AC1 SHS SE+SW SLP059

CYYC;2007-03-25 17:00;CYYC 251700Z 05002KT 15SM FEW030 BKN050 BKN075 04/M06 A2965 RMK SC1SC7AC1 VIRGA SLP065

CYYC;2007-03-25 18:00;CYYC 251800Z 09002KT 15SM FEW030 FEW050 BKN075 06/M06 A2967 RMK SC1SC2AC5 VIRGA SLP073

CYYC;2007-03-25 19:00;CYYC 251900Z 16004KT 40SM FEW030 FEW050 BKN080 BKN220 07/M06 A2969 RMK SC1SC2AC4CI1 SLP078

CYYC;2007-03-25 20:00;CYYC 252000Z 19011KT 40SM FEW030 FEW050 SCT080 BKN110 BKN220 06/M03 A2969 RMK SC1SC1AC2AC4CI1 SLP077

CYYC;2007-03-25 21:00;CYYC 252100Z 19006KT 40SM FEW020 FEW050 FEW100 BKN210 07/M03 A2969 RMK SC1SC1AC1CI2 SLP077

CYYC;2007-03-25 22:00;CYYC 252200Z CCA 17010KT 40SM FEW050 FEW100 BKN210 07/M03 A2969 RMK SC1AC1CI0 SLP079

CYYC;2007-03-25 23:00;CYYC 252300Z 19012KT 40SM FEW050 FEW090 BKN210 08/M01 A2969 RMK SC1AC1CI0 SHS DIST NW-NE SLP078

CYYC;2007-03-25 23:41;CYYC 252341Z 16007KT 40SM -SHRA BKN060 BKN090 BKN210 06/ RMK SC5AC1CI0

CYYC;2007-03-26 00:00;CYYC 260000Z 05015KT 40SM -SHRA BKN040 BKN090 BKN210 04/M02 A2972 RMK SC5AC1CI0 TCU EMBD NE SLP095

CYYC;2007-03-26 00:29;CYYC 260029Z 13011KT 40SM SCT040CB BKN080 BKN210 06/ RMK CB4AC1CI0 CB E / SHS DIST NW+E

CYYC;2007-03-26 01:00;CYYC 260100Z 05006KT 40SM FEW040 BKN075 BKN210 03/M01 A2975 RMK SC1AC2CI1 SHS DIST NW-SE SLP102

CYYC;2007-03-26 02:00;CYYC 260200Z 08009KT 20SM VCSH FEW040 SCT058CB BKN094 OVC220 03/M02 A2980 RMK SC2CB2AC3CI0 SH NE-S SLP117

CYYC;2007-03-26 03:00;CYYC 260300Z 05010KT 15SM FEW040 SCT090 BKN120 01/M02 A2985 RMK SC2AC1AC1 VIRGA SE SLP148

CYYC;2007-03-26 03:19;CYYC 260319Z 08008KT 15SM FEW006 SCT040 BKN088 00/ RMK SF2SC2AC2

CYYC;2007-03-26 03:35;CYYC 260335Z 26007KT 12SM BKN004 OVC080 00/ RMK ST6AC2

CYYC;2007-03-26 03:44;CYYC 260344Z 03008KT 12SM BKN003 OVC070 00/ RMK ST7AS1

CYYC;2007-03-26 04:00;CYYC 260400Z 07004KT 12SM OVC003 00/M02 A2989 RMK ST8 SLP160

CYYC;2007-03-26 04:13;CYYC 260413Z 04004KT 6SM BR OVC002 00/ RMK ST8 VIS 3 W

CYYC;2007-03-26 05:00;CYYC 260500Z 21005KT 8SM BKN004 BKN098 M00/M02 A2990 RMK ST6AC1 SLP163

CYYC;2007-03-26 05:49;CYYC 260549Z 18002KT 10SM SCT005 BKN120 M01/ RMK ST3AC3

CYYC;2007-03-26 06:00;CYYC 260600Z 00000KT 10SM FEW007 BKN100 BKN140 M01/M03 A2991 RMK ST2AC3AC1 SLP169

CYYC;2007-03-26 06:23;CYYC 260623Z 20004KT 12SM OVC006 M01/ RMK ST8

CYYC;2007-03-26 07:00;CYYC 260700Z 22006KT 12SM SCT008 BKN100 M01/M03 A2994 RMK ST3AC2 SLP176

CYYC;2007-03-26 07:32;CYYC 260732Z 24009KT 12SM BKN004 OVC090 M01/ RMK ST6AC2

CYYC;2007-03-26 08:00;CYYC 260800Z 19004KT 10SM BKN004 BKN090 M01/M04 A2996 RMK ST5AC2 SLP182

CYYC;2007-03-26 08:19;CYYC 260819Z 21008KT 10SM FEW008 BKN140 M02/ RMK ST2AC3

CYYC;2007-03-26 08:51;CYYC 260851Z 19002KT 8SM VCFG BKN005 BKN090 M02/ RMK ST6AC1 F BANK W/VIS 3 W

CYYC;2007-03-26 09:00;CYYC 260900Z 21003KT 8SM VCFG BKN005 BKN090 M02/M04 A2996 RMK ST6AC1 F BANK W/ VIS 3 W SLP186

CYYC;2007-03-26 09:08;CYYC 260908Z 20006KT 6SM BR BKN003 BKN090 M03/ RMK ST6AC0 VIS 3 W

CYYC;2007-03-26 10:00;CYYC 261000Z 22003KT 1SM BR OVC003 M02/M03 A2997 RMK ST7 RVR RWY28 6000 FT SLP188

CYYC;2007-03-26 10:13;CYYC 261013Z 23005KT 3/4SM BR OVC001 M02/ RMK ST8 RVR RWY34 3000 FT

CYYC;2007-03-26 11:00;CYYC 261100Z 00000KT 5/8SM BR OVC001 M02/M04 A2998 RMK FG6ST2 RVR RWY28 1600 FT SLP192

CYYC;2007-03-26 12:00;CYYC 261200Z CCA 21006KT 1/2SM FZFG OVC001 M03/M05 A2999 RMK FG6ST1 RVR RWY28 1200 FT SLP199

CYYC;2007-03-26 12:12;CYYC 261212Z 22006KT 1SM BR BKN001 M03/ RMK FG2ST5 RVR RWY34 1800 FT

CYYC;2007-03-26 12:30;CYYC 261230Z 19005KT 2SM BR SCT002 M04/ RMK SF3

CYYC;2007-03-26 12:51;CYYC 261251Z 21004KT 4SM BR SCT002 M04/ RMK SF2

CYYC;2007-03-26 13:00;CYYC 261300Z 22005KT 5SM BR FEW003 FEW050 M05/M07 A3000 RMK SF2SC1 SC TR SLP202

CYYC;2007-03-26 14:00;CYYC 261400Z 23004KT 40SM FEW050 FEW090 M04/M07 A3000 RMK SC1AC1 FG BANK SW / VIS SW 3 / FROIN SLP203

CYYC;2007-03-26 15:00;CYYC 261500Z 20002KT 40SM FEW050 M02/M04 A3000 RMK SC1 SLP208

CYYC;2007-03-26 16:00;CYYC 261600Z 22004KT 40SM FEW050 FEW100 00/M05 A3000 RMK SC1AC1 SLP208

CYYC;2007-03-26 17:00;CYYC 261700Z 00000KT 40SM FEW070 FEW120 04/M07 A3000 RMK AC1AC1 SLP207

CYYC;2007-03-26 18:00;CYYC 261800Z 19007KT 40SM FEW068 FEW140 06/M10 A3000 RMK CU1AC1 SLP197

CYYC;2007-03-26 19:00;CYYC 261900Z 19002KT 40SM FEW073 FEW140 07/M10 A2999 RMK CU1AC1 SLP195

CYYC;2007-03-26 20:00;CYYC 262000Z 18010KT 40SM FEW080 FEW210 08/M10 A2998 RMK AC1CI1 SLP191

CYYC;2007-03-26 21:00;CYYC 262100Z 21007KT 40SM FEW080 FEW210 09/M11 A2996 RMK AC1CI1 SLP182

CYYC;2007-03-26 22:00;CYYC 262200Z 14010KT 40SM FEW080 FEW210 09/M10 A2994 RMK AC1CI1 SLP177

CYYC;2007-03-26 23:00;CYYC 262300Z 15013KT 40SM FEW090 FEW210 09/M09 A2993 RMK AC1CI1 SLP173

CYYC;2007-03-27 00:00;CYYC 270000Z 16008G16KT 40SM FEW090 BKN210 08/M11 A2993 RMK AC1CI1 SLP173

CYYC;2007-03-27 01:00;CYYC 270100Z 15013KT 40SM FEW090 BKN190 07/M11 A2993 RMK AC1AC3 SLP173

CYYC;2007-03-27 02:00;CYYC 270200Z 14009KT 40SM FEW090 BKN190 OVC220 05/M10 A2991 RMK AC1AC5CI2 SLP169

CYYC;2007-03-27 03:00;CYYC 270300Z 13009KT 15SM SCT190 BKN240 03/M09 A2991 RMK AC4CI2 SLP174

CYYC;2007-03-27 04:00;CYYC 270400Z 14014KT 15SM SKC 02/M07 A2992 RMK SLP175

CYYC;2007-03-27 05:00;CYYC 270500Z 13014KT 15SM FEW210 01/M07 A2991 RMK CI1 CI TR SLP173

CYYC;2007-03-27 06:00;CYYC 270600Z 14013G19KT 15SM FEW210 01/M07 A2991 RMK CI1 CI TR SLP165

CYYC;2007-03-27 07:00;CYYC 270700Z 15009KT 15SM FEW230 M01/M07 A2989 RMK CI1 SLP158

CYYC;2007-03-27 08:00;CYYC 270800Z 18006KT 15SM BKN220 M01/M06 A2986 RMK CI3 SLP151

CYYC;2007-03-27 09:00;CYYC 270900Z 17009KT 15SM BKN150 OVC220 M00/M06 A2986 RMK AC6CI2 SLP144

CYYC;2007-03-27 10:00;CYYC 271000Z 14005KT 15SM BKN140 OVC220 M02/M06 A2983 RMK AS7CI1 SLP135

CYYC;2007-03-27 11:00;CYYC 271100Z 12003KT 15SM BKN120 OVC180 M02/M06 A2982 RMK AC6AC2 SLP131

CYYC;2007-03-27 12:00;CYYC 271200Z 12005KT 15SM FEW070 BKN120 OVC220 M03/M06 A2980 RMK AC1AC4CI3 SLP127

CYYC;2007-03-27 13:00;CYYC 271300Z 16006KT 15SM SCT038 OVC056 M01/M05 A2981 RMK SC4SC4 SLP130

CYYC;2007-03-27 13:14;CYYC 271314Z 17006KT 6SM -SN BKN031 OVC053 M01/ RMK SC6SC2

CYYC;2007-03-27 13:38;CYYC 271338Z CCC 17007KT 1SM -SHSN SCT009 BKN015 OVC020 M01/ RMK SC3SC4SC1 RVR RWY16 6000+FT

CYYC;2007-03-27 14:00;CYYC 271400Z 13003KT 1/2SM SHSN SCT004 BKN013 OVC020 M01/M04 A2980 RMK SC3SC4SC1 RVR RWY16 4500FT SLP127

CYYC;2007-03-27 14:35;CYYC 271435Z 05002KT 1/2SM SHSN BKN006 OVC014 M01/ RMK SC5SC3 RVR RWY16 4500FT

CYYC;2007-03-27 15:00;CYYC 271500Z 02002KT 1/2SM SHSN BKN005 OVC015 M01/M03 A2980 RMK SC5SC3 /S02/ RVR RWY16 5000FT SLP132

CYYC;2007-03-27 16:00;CYYC 271600Z 33002KT 3/4SM -SN BKN006 OVC018 M00/M02 A2979 RMK SC6SC2 /S04/ RVR RWY16 5500FT SLP129

CYYC;2007-03-27 16:36;CYYC 271636Z 02002KT 1SM -SN SCT007 BKN012 OVC020 00/ RMK SC3SC3SC2 RVR RWY16 4500FT

CYYC;2007-03-27 17:00;CYYC 271700Z CCA 06002KT 1SM -SN FEW007 BKN011 OVC018 00/M01 A2979 RMK SC2SC2SC4 /S05/ RVR RWY16 6000+FT SLP131

CYYC;2007-03-27 17:16;CYYC 271716Z 11003KT 1/2SM SN BKN006 OVC012 01/ RMK SN4SC2SC2 RVR RWY16 4500FT

CYYC;2007-03-27 18:00;CYYC 271800Z 09002KT 1/2SM SN BKN005 OVC016 01/M01 A2980 RMK SN4SC3SC1 /S07/ RVR RWY16 4500FT SLP135

CYYC;2007-03-27 18:07;CYYC 271807Z 06002KT 1/2SM SN BKN003 OVC012 01/ RMK SN4SC3SC1 RVR RWY16 5000FT

CYYC;2007-03-27 19:00;CYYC 271900Z 05005KT 1/2SM SN BKN005 OVC016 00/M01 A2980 RMK SN5SC2SC2 RVR RWY16 3500FT SLP134

CYYC;2007-03-27 19:51;CYYC 271951Z 05008KT 1SM -SN FEW003 BKN007 OVC019 M00/ RESN RMK SC2SC4SC2 RVR RWY16 6000+FT

CYYC;2007-03-27 20:00;CYYC 272000Z 06008KT 1SM -SN SCT003 BKN010 OVC028 M00/M02 A2980 RESN RMK SC4SC3SC1 /S01/ RVR RWY16 6000+FT SLP134

CYYC;2007-03-27 20:21;CYYC 272021Z 06008KT 1 1/4SM -SN BKN004 OVC012 M00/ RMK SC5SC3

CYYC;2007-03-27 20:48;CYYC 272048Z 03006KT 1 3/4SM -SN BKN005 OVC012 M00/ RMK SC6SC2

CYYC;2007-03-27 21:00;CYYC 272100Z 01008KT 1 1/4SM -SN OVC006 00/M02 A2980 RMK SC8 SLP135

CYYC;2007-03-27 22:00;CYYC 272200Z 35008KT 2SM -SN BKN005 OVC013 01/M01 A2981 RMK SC6SC2 SLP138

CYYC;2007-03-27 22:27;CYYC 272227Z 35007KT 4SM -SN BKN005 OVC013 01/ RMK SC7SC1

CYYC;2007-03-27 23:00;CYYC 272300Z 34008KT 2SM -SN BKN007 OVC013 01/M01 A2983 RMK SC7SC1 SLP145

CYYC;2007-03-27 23:25;CYYC 272325Z 34008KT 3SM -SN FEW005 BKN013 OVC027 01/ RMK SC2SC4SC2

CYYC;2007-03-27 23:42;CYYC 272342Z 34010KT 7SM -SN FEW005 SCT013 OVC100 01/ RMK SC2SC2AC4

CYYC;2007-03-28 00:49;CYYC 280049Z 35011KT 8SM FEW007 BKN011 OVC100 01/ RMK SC2SC2AC2

CYYC;2007-03-28 01:00;CYYC 280100Z 35010KT 7SM FEW007 BKN011 BKN100 01/M01 A2984 RMK SC1SC5AC1 SH S SLP151

CYYC;2007-03-28 02:00;CYYC 280200Z 34007KT 12SM FEW014 SCT120 BKN240 00/M02 A2986 RMK SC2AC1CI1 SLP159

CYYC;2007-03-28 03:00;CYYC 280300Z 34010KT 12SM SCT015 BKN100 BKN220 00/M02 A2990 RMK SC2AC1CI1 SLP173

CYYC;2007-03-28 04:00;CYYC 280400Z 33011KT 12SM FEW020 FEW100 BKN240 M01/M03 A2991 RMK SC1AC1CI1 SLP176

CYYC;2007-03-28 05:00;CYYC 280500Z 34016KT 12SM SCT009 OVC015 M00/M03 A2995 RMK SC4SC3 CLDS RPDLY MOVNG S SLP187

CYYC;2007-03-28 05:16;CYYC 280516Z 33012G18KT 10SM OVC010 M01/ RMK SC7

CYYC;2007-03-28 06:00;CYYC 280600Z 36009KT 12SM BKN012 M02/M04 A3000 RMK SC6 SLP208

CYYC;2007-03-28 07:00;CYYC 280700Z 35012G19KT 10SM OVC010 M01/M03 A3004 RMK SC8 SLP219

CYYC;2007-03-28 08:00;CYYC 280800Z 36022G27KT 10SM BKN014 OVC030 00/M03 A3007 RMK SC5SC3 SLP228

CYYC;2007-03-28 08:24;CYYC 280824Z 34016KT 12SM FEW015 BKN040 M00/ RMK SC2SC3

CYYC;2007-03-28 09:00;CYYC 280900Z 34021G27KT 12SM SCT017 BKN025 M00/M04 A3010 RMK SC3SC4 SLP240

CYYC;2007-03-28 10:00;CYYC 281000Z 34017G24KT 15SM FEW025 BKN073 M01/M06 A3014 RMK SC1AC2 SLP252

CYYC;2007-03-28 11:00;CYYC 281100Z 33014G19KT 15SM FEW030 FEW080 M02/M07 A3018 RMK SC1AC1 SLP265

CYYC;2007-03-28 12:00;CYYC 281200Z 33012KT 15SM FEW080 M03/M07 A3022 RMK AC1 SNOW COVER/MUCH LOOSE SLP284

CYYC;2007-03-28 13:00;CYYC 281300Z 32015KT 20SM FEW080 FEW120 M03/M08 A3024 RMK AC1AC1 SLP291

CYYC;2007-03-28 14:00;CYYC 281400Z 35013KT 20SM FEW050 BKN080 BKN240 M03/M08 A3028 RMK SC1AC3CI0 SLP302

CYYC;2007-03-28 15:00;CYYC 281500Z 35013KT 20SM FEW040 FEW079 FEW140 M02/M08 A3031 RMK SC1AC1AC1 SLP316

CYYC;2007-03-28 16:00;CYYC 281600Z CCA 34016G21KT 30SM FEW040 FEW078 FEW140 M02/M09 A3035 RMK SC1AC1AC0 SLP327

CYYC;2007-03-28 17:00;CYYC 281700Z 36020KT 30SM FEW040 FEW078 FEW140 M01/M08 A3038 RMK SC1AC2AC1 SLP337

CYYC;2007-03-28 18:00;CYYC 281800Z 36017KT 40SM FEW060 FEW078 M00/M08 A3040 RMK SC1AC1 SLP348

CYYC;2007-03-28 19:00;CYYC 281900Z 36017KT 40SM FEW060 FEW080 FEW200 00/M08 A3042 RMK SC1AC1CI1 SLP354

CYYC;2007-03-28 20:00;CYYC 282000Z 35010G15KT 40SM FEW080 FEW140 01/M08 A3043 RMK AC1AC1 SLP357

CYYC;2007-03-28 21:00;CYYC 282100Z 36009KT 40SM FEW080 02/M08 A3043 RMK AC1 SLP354

CYYC;2007-03-28 22:00;CYYC 282200Z 35009KT 40SM FEW090 FEW220 02/M09 A3043 RMK AC1CI1 SLP355

CYYC;2007-03-28 23:00;CYYC 282300Z 07007KT 40SM FEW090 FEW220 03/M13 A3044 RMK AC1CI1 SLP358

CYYC;2007-03-29 00:00;CYYC 290000Z 06008KT 40SM FEW090 FEW220 02/M12 A3045 RMK AC1CI1 SLP361

CYYC;2007-03-29 01:00;CYYC 290100Z 10007KT 30SM FEW090 FEW220 01/M10 A3045 RMK AC1CI0 SLP361

CYYC;2007-03-29 02:00;CYYC 290200Z 14005KT 30SM FEW220 M00/M11 A3046 RMK CI1 SLP366

CYYC;2007-03-29 03:00;CYYC 290300Z 18006KT 15SM FEW220 M02/M10 A3047 RMK CI1 SLP375

CYYC;2007-03-29 04:00;CYYC 290400Z 19006KT 15SM FEW220 M02/M10 A3049 RMK CI1 SLP382

CYYC;2007-03-29 05:00;CYYC 290500Z 17008KT 15SM FEW240 M01/M10 A3049 RMK CI2 SLP381

CYYC;2007-03-29 06:00;CYYC 290600Z 18009KT 15SM FEW240 M02/M10 A3049 RMK CI1 SLP380

CYYC;2007-03-29 07:00;CYYC 290700Z 18009KT 15SM FEW240 M02/M10 A3047 RMK CI0 SLP375

CYYC;2007-03-29 08:00;CYYC 290800Z 18011KT 15SM SCT240 M02/M10 A3046 RMK CI1 SLP371

CYYC;2007-03-29 09:00;CYYC 290900Z 18015KT 15SM FEW240 M02/M11 A3045 RMK CI0 SLP361

CYYC;2007-03-29 10:00;CYYC 291000Z 17012KT 15SM SKC M03/M11 A3042 RMK SLP354

CYYC;2007-03-29 11:00;CYYC 291100Z 16013KT 15SM SKC M03/M10 A3041 RMK SLP349

CYYC;2007-03-29 12:00;CYYC 291200Z 17016KT 15SM SKC M02/M10 A3038 RMK SNOW COVER/MEDIUM PACK SLP339

CYYC;2007-03-29 13:00;CYYC 291300Z 17012G18KT 15SM FEW200 SCT220 BKN230 M03/M10 A3038 RMK CI2CI1CI0 SLP338

CYYC;2007-03-29 14:00;CYYC 291400Z 18009KT 40SM FEW180 FEW220 BKN260 M02/M10 A3037 RMK AC1CI0CI1 SLP336

CYYC;2007-03-29 15:00;CYYC 291500Z 17010KT 40SM FEW180 FEW220 BKN260 M00/M09 A3037 RMK AC1CI1CI0 SLP339

CYYC;2007-03-29 16:00;CYYC 291600Z 16010KT 30SM FEW180 BKN220 BKN260 02/M07 A3036 RMK AC1CI3CI0 SLP335

CYYC;2007-03-29 17:00;CYYC 291700Z 17013KT 30SM FEW180 SCT220 BKN260 03/M06 A3034 RMK AC1CI1CI6 SLP330

CYYC;2007-03-29 18:00;CYYC 291800Z 18011KT 40SM FEW180 SCT210 BKN260 04/M05 A3034 RMK AC1CI2CI6 SLP320

CYYC;2007-03-29 19:00;CYYC 291900Z 16011KT 30SM FEW190 FEW210 BKN260 08/M02 A3033 RMK AC1CI1CI6 SLP318

CYYC;2007-03-29 20:00;CYYC 292000Z CCA 17010G15KT 30SM FEW190 SCT230 BKN260 10/M03 A3031 RMK AC1CI1CI6 SLP312

CYYC;2007-03-29 21:00;CYYC 292100Z 17012G17KT 30SM FEW190 FEW230 BKN260 12/M04 A3030 RMK AC1CI1CI2 SLP295

CYYC;2007-03-29 22:00;CYYC 292200Z 19012G18KT 30SM FEW180 FEW220 BKN260 12/M05 A3027 RMK AC1CI1CI2 SLP288

CYYC;2007-03-29 23:00;CYYC 292300Z 17015KT 20SM FEW180 FEW220 OVC260 13/M05 A3025 RMK AC1CI1CI2 SLP281

CYYC;2007-03-30 00:00;CYYC 300000Z 17013KT 30SM FEW180 FEW220 OVC260 12/M06 A3023 RMK AC1CI1CI2 SLP272

CYYC;2007-03-30 01:00;CYYC 300100Z 16010KT 30SM FEW180 FEW220 OVC260 11/M04 A3022 RMK AC1CI1CI3 SLP269

CYYC;2007-03-30 02:00;CYYC 300200Z 18010KT 20SM FEW180 SCT220 OVC240 10/M05 A3021 RMK AC1CI1CI0 SLP265

CYYC;2007-03-30 03:00;CYYC 300300Z 15007KT 15SM FEW180 SCT220 BKN240 07/M05 A3020 RMK AC1CI1CI1 SLP267

CYYC;2007-03-30 04:00;CYYC 300400Z 17009KT 15SM FEW220 BKN240 05/M05 A3019 RMK CI2CI5 SLP263

CYYC;2007-03-30 05:00;CYYC 300500Z 18009KT 15SM FEW160 SCT220 OVC240 05/M05 A3018 RMK AC1CI3CI4 AC TR SLP259

CYYC;2007-03-30 06:00;CYYC 300600Z 18010KT 15SM SCT140 BKN170 04/M05 A3016 RMK AC3AC2 SLP250

CYYC;2007-03-30 07:00;CYYC 300700Z 15005KT 15SM FEW170 SCT240 02/M06 A3015 RMK AC1CI1 SLP245

CYYC;2007-03-30 08:00;CYYC 300800Z 19007KT 15SM FEW240 BKN260 01/M05 A3013 RMK CI1CI2 SLP239

CYYC;2007-03-30 09:00;CYYC 300900Z 21005KT 15SM FEW140 OVC240 01/M05 A3011 RMK AC1CI5 AC TR SLP228

CYYC;2007-03-30 10:00;CYYC 301000Z 18005KT 15SM FEW230 BKN260 M00/M05 A3008 RMK CI2CI5 SLP219

CYYC;2007-03-30 11:00;CYYC 301100Z 16005KT 15SM BKN260 M01/M06 A3006 RMK CI6 SLP212

CYYC;2007-03-30 12:00;CYYC 301200Z 17006KT 15SM SCT120 BKN180 M01/M06 A3004 RMK AC2AC2 SLP204

CYYC;2007-03-30 13:00;CYYC 301300Z 19006KT 15SM BKN140 BKN240 M02/M06 A3002 RMK AC6CI1 SLP198

CYYC;2007-03-30 14:00;CYYC 301400Z 19007KT 40SM SCT150 BKN230 00/M05 A3000 RMK AC1CI2 SLP190

CYYC;2007-03-30 15:00;CYYC 301500Z CCA 21004KT 30SM SCT150 BKN240 04/M06 A2997 RMK AC0CI2 SLP179

CYYC;2007-03-30 16:00;CYYC 301600Z 19006KT 30SM SCT150 BKN250 08/M04 A2995 RMK AC1CI1 SLP174

CYYC;2007-03-30 17:00;CYYC 301700Z 21008KT 30SM SCT140 SCT240 BKN260 11/M03 A2993 RMK AC1CI0CI1 SLP167

CYYC;2007-03-30 18:00;CYYC 301800Z 21008KT 40SM BKN120 BKN260 15/M04 A2992 RMK AC5CI1 SLP150

CYYC;2007-03-30 19:00;CYYC 301900Z 19006KT 40SM BKN090 BKN260 15/M04 A2991 RMK AC7CI1 SLP147

CYYC;2007-03-30 20:00;CYYC 302000Z 28006KT 40SM BKN095 BKN260 14/M05 A2989 RMK AC7CI1 VIRGA SLP141

CYYC;2007-03-30 21:00;CYYC 302100Z 25006KT 40SM BKN120 BKN260 14/M05 A2986 RMK AC7CI1 VIRGA SLP136

CYYC;2007-03-30 22:00;CYYC 302200Z 25004KT 40SM FEW080 BKN140 BKN260 16/M05 A2983 RMK AC1AC2CI1 SLP127

CYYC;2007-03-30 23:00;CYYC 302300Z 14006KT 40SM FEW090 FEW140 SCT260 16/M05 A2980 RMK AC1AC0CI0 SLP119

CYYC;2007-03-31 00:00;CYYC 310000Z CCA 22005KT 30SM FEW090 FEW140 BKN260 16/M04 A2980 RMK AC1AC1CI0 SLP113

CYYC;2007-03-31 01:00;CYYC 310100Z 28012KT 30SM FEW090 FEW140 BKN260 15/M07 A2978 RMK AC1AC1CI0 SLP107

CYYC;2007-03-31 02:00;CYYC 310200Z 28013KT 30SM FEW110 BKN240 12/M07 A2977 RMK AC1CI2 SLP104

CYYC;2007-03-31 03:00;CYYC 310300Z 29011KT 15SM FEW110 BKN240 11/M07 A2978 RMK AC1CI2 SLP106

CYYC;2007-03-31 04:00;CYYC 310400Z 28008KT 15SM BKN240 09/M07 A2978 RMK CI2 FU OVR RWY SLP106

CYYC;2007-03-31 05:00;CYYC 310500Z 32008KT 15SM BKN240 07/M07 A2977 RMK CS3 SLP104

CYYC;2007-03-31 06:00;CYYC 310600Z 31008KT 15SM BKN240 05/M07 A2977 RMK CI2 SLP096

CYYC;2007-03-31 07:00;CYYC 310700Z 36010KT 15SM FEW110 BKN240 04/M06 A2976 RMK AC1CS2 SLP095

CYYC;2007-03-31 08:00;CYYC 310800Z 32003KT 15SM FEW110 BKN260 01/M07 A2977 RMK AC1CS3 SLP096

CYYC;2007-03-31 09:00;CYYC 310900Z 33003KT 15SM FEW110 BKN260 01/M07 A2977 RMK AC1CS2 SLP103

CYYC;2007-03-31 10:00;CYYC 311000Z 33009KT 15SM BKN110 OVC260 01/M06 A2977 RMK AC5CI2 SLP103

CYYC;2007-03-31 11:00;CYYC 311100Z 35016G22KT 15SM BKN120 OVC240 01/M05 A2981 RMK AC6CI0 SLP116

CYYC;2007-03-31 12:00;CYYC 311200Z 35015G21KT 15SM BKN110 OVC240 01/M05 A2983 RMK AC7CI0 SLP123

CYYC;2007-03-31 13:00;CYYC 311300Z 36020G25KT 20SM FEW020 FEW090 BKN120 OVC220 M00/M06 A2986 RMK CF1AC1AC7CI0 SLP132

CYYC;2007-03-31 14:00;CYYC 311400Z 35016KT 20SM FEW024 BKN085 BKN120 OVC200 M01/M06 A2988 RMK CF1AC5AC2CI1 SLP139

CYYC;2007-03-31 15:00;CYYC 311500Z 35020G25KT 20SM FEW020 BKN070 BKN120 M01/M08 A2988 RMK SC1AC6AC1 SLP149

CYYC;2007-03-31 16:00;CYYC 311600Z 34017KT 20SM SCT030 BKN050 M01/M07 A2987 RMK CU3SC4 VIRGA SLP148

CYYC;2007-03-31 17:00;CYYC 311700Z CCA 36014KT 30SM FEW032 BKN043 BKN070 00/M08 A2988 RMK CU2SC4AC1 SH DIST SW SLP151

CYYC;2007-03-31 17:54;CYYC 311754Z 35013KT 20SM -SHSN FEW032 BKN043 BKN070 00/ RMK CU2SC4AC1 VIS SW 10

CYYC;2007-03-31 18:00;CYYC 311800Z 36014KT 15SM -SHSN FEW032 BKN042 OVC070 00/M08 A2989 RMK CU1SC7AC1 VIS SW 7 SLP159

CYYC;2007-03-31 18:50;CYYC 311850Z 36012G17KT 20SM FEW032 BKN040 BKN080 02/ RMK CU2SC2AC1

CYYC;2007-03-31 19:00;CYYC 311900Z 36015G20KT 20SM VCSH FEW032 BKN040 BKN100 01/M07 A2987 RMK CU2SC2AC1 SLP155

CYYC;2007-03-31 20:00;CYYC 312000Z 01007KT 20SM SCT028 BKN040 02/M06 A2986 RMK CU4SC2 SLP151

CYYC;2007-03-31 21:00;CYYC 312100Z 01010KT 30SM SCT030 BKN043 02/M06 A2986 RMK CU4SC3 SLP153

CYYC;2007-03-31 22:00;CYYC 312200Z 03009KT 30SM FEW030 OVC036 02/M06 A2984 RMK CU2SC6 SLP146

CYYC;2007-03-31 23:00;CYYC 312300Z 03009KT 30SM FEW030 OVC036 02/M06 A2984 RMK CU2SC6 SLP145

CYYC;2007-04-01 05:00;CYYC 010500Z 35003KT 15SM OVC035 M00/M08 A2986 RMK SC8 SLP159

CYYC;2007-04-01 06:00;CYYC 010600Z 04008KT 15SM OVC042 M01/M09 A2987 RMK SC8 SLP161

CYYC;2007-04-01 07:00;CYYC 010700Z 04004KT 15SM BKN032 OVC047 M02/M08 A2988 RMK SC5SC3 SLP165

CYYC;2007-04-01 08:00;CYYC 010800Z 04005KT 15SM BKN028 OVC042 M02/M08 A2989 RMK SC6SC2 SLP166

CYYC;2007-04-01 09:00;CYYC 010900Z 03004KT 15SM BKN021 BKN032 M02/M10 A2989 RMK SC5SC2 SLP167

CYYC;2007-04-01 10:00;CYYC 011000Z 03004KT 15SM FEW028 SCT042 BKN072 OVC120 M03/M10 A2989 RMK SC2SC2AC2AC1 SLP167

CYYC;2007-04-01 11:00;CYYC 011100Z 02003KT 15SM BKN040 OVC120 M03/M10 A2989 RMK SC7AC1 SLP168

CYYC;2007-04-01 12:00;CYYC 011200Z 03004KT 15SM BKN036 OVC080 M04/M11 A2990 RMK SC6AC2 SLP173

CYYC;2007-04-01 13:00;CYYC 011300Z 04004KT 15SM BKN042 OVC070 M04/M10 A2989 RMK SC6AC2 SLP172

CYYC;2007-04-01 14:00;CYYC 011400Z 03006KT 20SM FEW020 FEW070 SCT140 M04/M10 A2990 RMK SC1AC1AC1 SLP173

CYYC;2007-04-01 15:00;CYYC 011500Z CCA 05007KT 20SM FEW022 BKN055 OVC120 M03/M09 A2991 RMK CU1SC6AC2 SH SW SLP178

CYYC;2007-04-01 16:00;CYYC 011600Z 07007KT 4SM -SHSN BKN018 OVC034 M03/M09 A2991 RMK SC6SC2 CU ASOCTD SLP178

CYYC;2007-04-01 16:39;CYYC 011639Z 05007KT 1 1/2SM -SHSN BKN016 OVC023 M03/ RMK SC6SC2

CYYC;2007-04-01 16:51;CYYC 011651Z 03007KT 1 1/2SM -SHSN BKN011 OVC025 M03/ RMK SC6SC2

CYYC;2007-04-01 17:00;CYYC 011700Z 03007KT 1 1/2SM -SHSN BKN013 OVC023 M03/M08 A2991 RMK SC6SC2 SLP180

CYYC;2007-04-01 17:18;CYYC 011718Z 04008KT 1SM -SHSN BKN010 OVC022 M03/ RMK SC5SC3 RVR RWY34 6000+FT

CYYC;2007-04-01 17:31;CYYC 011731Z 04008KT 1 1/2SM -SHSN BKN011 OVC020 M03/ RMK SC5SC3

CYYC;2007-04-01 18:00;CYYC 011800Z 03008KT 1 1/2SM -SHSN BKN010 OVC020 M03/M06 A2991 RMK SC5SC3 SLP178

CYYC;2007-04-01 18:31;CYYC 011831Z 03009KT 4SM -SHSN BKN012 OVC020 M02/ RMK SC6SC2

CYYC;2007-04-01 19:00;CYYC 011900Z 03009KT 5SM -SHSN BKN014 BKN021 OVC030 M02/M07 A2990 RMK SC5SC2SC1 SLP177

CYYC;2007-04-01 19:32;CYYC 011932Z 06011KT 1 1/4SM -SHSN BKN013 OVC021 M02/ RMK SC6SC2

CYYC;2007-04-01 20:00;CYYC 012000Z 05011KT 1 1/4SM -SHSN BKN010 OVC019 M03/M07 A2991 RMK SC6SC2 SLP178

CYYC;2007-04-01 20:28;CYYC 012028Z CCA 05009KT 3/4SM -SHSN SCT006 OVC011 M03/ RMK SN2SC2SC4 RVR RWY34 4000FT

CYYC;2007-04-01 21:00;CYYC 012100Z 04013KT 5/8SM -SHSN SCT006 OVC011 M03/M06 A2990 RMK SN3SC1SC4 RVR RWY34 4000FT SLP180

CYYC;2007-04-01 21:24;CYYC 012124Z 04013KT 1 1/4SM -SHSN SCT005 OVC010 M03/ RMK SC3SC5 RVR RWY34 3500FT

CYYC;2007-04-01 21:42;CYYC 012142Z 04014KT 5/8SM -SHSN SCT006 OVC014 M03/ RMK SC3SC5 RVR RWY34 4000FT

CYYC;2007-04-01 22:00;CYYC 012200Z 05013KT 1SM -SHSN SCT007 OVC011 M03/M06 A2990 RMK SC3SC5 /S01/ RVR RWY34 5500FT SLP180

CYYC;2007-04-01 22:23;CYYC 012223Z 03014KT 1 1/2SM -SHSN DRSN SCT007 BKN013 OVC024 M03/ RMK SC3SC4SC1

CYYC;2007-04-01 22:43;CYYC 012243Z 04014KT 3SM -SHSN FEW007 BKN014 OVC036 M03/ RMK SC2SC6SC1

CYYC;2007-04-01 23:00;CYYC 012300Z 04015KT 1 1/2SM -SHSN DRSN FEW008 BKN011 OVC022 M03/M07 A2991 RMK SC1SC6SC2 SLP183

CYYC;2007-04-02 00:00;CYYC 020000Z 04014KT 3SM -SHSN DRSN BKN010 OVC024 M03/M08 A2993 RMK SC5SC3 SLP190

CYYC;2007-04-02 00:44;CYYC 020044Z 04013KT 7SM -SHSN BKN018 OVC038 M04/ RMK SC5SC3

CYYC;2007-04-02 01:00;CYYC 020100Z 04013KT 3SM -SHSN FEW010 BKN013 OVC025 M04/M08 A2994 RMK SC2SC5SC1 SLP194

CYYC;2007-04-02 01:14;CYYC 020114Z 04014KT 1 3/4SM -SHSN DRSN FEW009 BKN012 OVC034 M04/ RMK SC2SC4SC2

CYYC;2007-04-02 02:00;CYYC 020200Z CCA 03013KT 1 1/2SM -SN DRSN BKN010 OVC024 M05/M08 A2995 RMK SN2SC5SC1 /S01/ SLP198

CYYC;2007-04-02 03:00;CYYC 020300Z 02016KT 1 1/2SM -SN DRSN FEW009 BKN011 OVC028 M06/M10 A2998 RMK SN2SC1SC5SC1 SLP211

CYYC;2007-04-02 03:48;CYYC 020348Z 02017KT 1 1/4SM -SN DRSN FEW009 OVC020 M07/ RMK SN2SC1SC6

CYYC;2007-04-02 04:00;CYYC 020400Z 02014KT 1 1/4SM -SN BKN008 BKN015 OVC022 M07/M10 A3000 RMK SN2SC2SC2SC2 SLP218

CYYC;2007-04-02 04:01;CYYC 020401Z 01014KT 1SM -SN DRSN OVC005 M07/ RMK SN3SC5 RVR RWY28 2600 FT

CYYC;2007-04-02 04:13;CYYC 020413Z 01004KT 1 1/4SM -SN DRSN OVC006 M07/ RMK SN2SC6

CYYC;2007-04-02 04:17;CYYC 020417Z 01014KT 1SM -SN DRSN OVC005 M07/ RMK SN3SC5 RVR RWY28 2600 FT

CYYC;2007-04-02 05:00;CYYC 020500Z CCA 02014G19KT 1SM -SN DRSN OVC007 M08/M11 A3001 RMK SN3SC5 /S02/RVR RWY28 4500 FT SLP220

CYYC;2007-04-02 06:00;CYYC 020600Z 01014KT 1 1/2SM -SN DRSN SCT007 OVC019 M08/M11 A3001 RMK SN2SC1SC5 /S03/ SLP225

CYYC;2007-04-02 06:21;CYYC 020621Z 36014KT 3SM -SN DRSN FEW008 SCT019 OVC058 M08/ RMK SC1SC3SC4

CYYC;2007-04-02 07:00;CYYC 020700Z 36016KT 3SM -SN OVC058 M08/M12 A3002 RMK SC8 SLP228

CYYC;2007-04-02 07:28;CYYC 020728Z 36014KT 2 1/2SM -SN FEW024 OVC058 M08/ RMK SC1SC7

CYYC;2007-04-02 08:00;CYYC 020800Z 01012G17KT 2 1/2SM -SN BKN019 BKN042 OVC056 M08/M12 A3003 RMK SC6SC1SC1 SLP229

CYYC;2007-04-02 08:39;CYYC 020839Z 36011KT 1 1/4SM -SN FEW008 OVC010 M08/ RMK SC2SC6

CYYC;2007-04-02 09:00;CYYC 020900Z 36013KT 1 1/4SM -SN OVC007 M08/M12 A3003 RMK SC8 SLP233

CYYC;2007-04-02 09:36;CYYC 020936Z 35010KT 1 1/2SM -SN FEW007 OVC009 M09/ RMK SC2SC6

CYYC;2007-04-02 10:00;CYYC 021000Z 35014KT 2 1/2SM -SN FEW010 OVC064 M09/M12 A3004 RMK SC2SC6 /S01/ SLP235

CYYC;2007-04-02 10:08;CYYC 021008Z 35012KT 3SM -SN FEW007 FEW045 OVC064 M09/ RMK SC1SC1SC7

CYYC;2007-04-02 11:00;CYYC 021100Z 35013KT 3SM -SN BKN064 OVC080 M09/M12 A3004 RMK SC6AC2 SLP234

CYYC;2007-04-02 12:00;CYYC 021200Z 35013KT 3SM -SN FEW021 OVC080 M09/M13 A3005 RMK SC2AC6 SLP240

CYYC;2007-04-02 12:16;CYYC 021216Z 35013KT 2 1/2SM -SN FEW021 FEW035 OVC080 M10/ RMK SC1SC1AC7

CYYC;2007-04-02 13:00;CYYC 021300Z 34012KT 1 1/4SM -SN FEW009 FEW024 OVC080 M10/M13 A3005 RMK SC2SC1AC6 SLP242

CYYC;2007-04-02 13:38;CYYC 021338Z 34012KT 4SM -SN OVC067 M10/ RMK AC8

CYYC;2007-04-02 14:00;CYYC 021400Z 34012KT 4SM -SN OVC064 M10/M14 A3006 RMK SC8 SLP245

CYYC;2007-04-02 15:00;CYYC 021500Z 34014KT 3SM -SN FEW020 OVC064 M10/M14 A3007 RMK CF1SC7 SLP255

CYYC;2007-04-02 16:00;CYYC 021600Z 34015KT 3SM -SN FEW020 OVC064 M10/M14 A3008 RMK CF1SC7 SLP258

CYYC;2007-04-02 16:19;CYYC 021619Z 35016KT 2SM -SN BKN040 OVC064 M09/ RMK SC5SC3

CYYC;2007-04-02 16:49;CYYC 021649Z 35015KT 6SM -SN BKN040 OVC064 M09/ RMK SC5SC2

CYYC;2007-04-02 17:00;CYYC 021700Z 34015KT 6SM -SN FEW016 BKN031 OVC064 M09/M13 A3010 RMK CF1SC3SC3 SLP262

CYYC;2007-04-02 18:00;CYYC 021800Z 35013G18KT 6SM -SN SCT016 BKN031 OVC058 M08/M13 A3011 RMK CF1SC2SC4 SLP267

CYYC;2007-04-02 18:47;CYYC 021847Z 35015G20KT 8SM VCSH FEW016 BKN031 OVC058 M09/ RMK SC1SC2SC4 SHS SW

CYYC;2007-04-02 19:00;CYYC 021900Z 34015KT 6SM -SN FEW016 BKN031 OVC058 M08/M13 A3012 RMK SC1SC2SC5 SHS SW SLP269

CYYC;2007-04-02 20:00;CYYC 022000Z 36017KT 6SM -SN FEW016 BKN028 OVC060 M08/M13 A3013 RMK SC1SC6SC1 SLP273

CYYC;2007-04-02 21:00;CYYC 022100Z 36017KT 6SM -SN FEW016 BKN020 OVC060 M08/M13 A3014 RMK SC1SC6SC1 SLP279

CYYC;2007-04-02 22:00;CYYC 022200Z 35015KT 4SM -SN FEW012 BKN018 OVC060 M08/M12 A3016 RMK SC1SC6SC1 SLP284

CYYC;2007-04-02 22:38;CYYC 022238Z 35017KT 15SM SCT012 BKN018 OVC050 M08/ RMK SC1SC3SC3

CYYC;2007-04-02 23:00;CYYC 022300Z 36016KT 6SM -SN SCT012 BKN018 OVC040 M08/M13 A3017 RMK SC1SC3SC3 SLP288

CYYC;2007-04-03 00:00;CYYC 030000Z 35015KT 4SM -SN FEW012 SCT021 OVC028 M08/M12 A3019 RMK SC1SC2SC5 SLP295

CYYC;2007-04-03 00:28;CYYC 030028Z 35014KT 4SM -SN SCT009 OVC021 M08/ RMK SC2SC6

CYYC;2007-04-03 01:00;CYYC 030100Z 34012G17KT 15SM FEW009 FEW021 OVC074 M08/M12 A3021 RMK SC1SC2AC6 VIRGA SLP302

CYYC;2007-04-03 02:00;CYYC 030200Z 34014KT 10SM -SN BKN022 OVC034 M08/M12 A3022 RMK SC6SC2 SLP305

CYYC;2007-04-03 02:44;CYYC 030244Z 34016KT 2SM -SN DRSN BKN012 OVC030 M08/ RMK SC7SC1

CYYC;2007-04-03 03:00;CYYC 030300Z 34015KT 1 3/4SM -SN DRSN BKN011 OVC022 M08/M12 A3023 RMK SC7SC1 SLP313

CYYC;2007-04-03 03:37;CYYC 030337Z 34016KT 1 3/4SM -SN DRSN BKN009 OVC021 M08/ RMK SC7SC1

CYYC;2007-04-03 04:00;CYYC 030400Z 34016G21KT 2 1/2SM -SN DRSN BKN009 OVC023 M08/M12 A3025 RMK SC7SC1 SLP317

CYYC;2007-04-03 04:22;CYYC 030422Z 34014KT 4SM -SN BKN024 OVC056 M08/ RMK SC6SC2

CYYC;2007-04-03 05:00;CYYC 030500Z 34016KT 3SM -SN DRSN BKN016 OVC027 M08/M12 A3025 RMK SC6SC2 SLP317

CYYC;2007-04-03 06:00;CYYC 030600Z CCA 33018KT 7SM -SN DRSN SCT030 BKN078 OVC180 M09/M13 A3024 RMK SC3AC1AC1 /S01/ SLP315

CYYC;2007-04-03 07:00;CYYC 030700Z 33019KT 6SM -SN DRSN SCT017 OVC080 M09/M13 A3025 RMK SC4AC4 SLP318

CYYC;2007-04-03 08:00;CYYC 030800Z 33014KT 3SM -SN OVC018 M09/M12 A3026 RMK SC8 VIS N-E 11/4 SLP321

CYYC;2007-04-03 09:00;CYYC 030900Z 34013KT 1 1/4SM -SN OVC015 M09/M12 A3027 RMK SC8 SLP325

CYYC;2007-04-03 10:00;CYYC 031000Z 36013G19KT 1 1/4SM -SN DRSN OVC015 M09/M12 A3028 RMK SC8 SLP327

CYYC;2007-04-03 10:44;CYYC 031044Z 35011KT 1 1/4SM -SN OVC013 M09/ RMK SC8

CYYC;2007-04-03 11:00;CYYC 031100Z 35011KT 1 1/4SM -SN BKN013 OVC018 M09/M12 A3029 RMK SC7SC1 SLP330

CYYC;2007-04-03 11:20;CYYC 031120Z 34011KT 1SM -SN OVC013 M09/ RMK SC8 RVR RWY28 5000 FT

CYYC;2007-04-03 12:00;CYYC 031200Z 34012KT 1SM -SN OVC014 M09/M12 A3030 RMK SC8 /S03/ RVR RWY34 6000 FT/ SNOW COVER/MUCH LOOSE SLP336

CYYC;2007-04-03 12:11;CYYC 031211Z 34010KT 1SM -SN OVC017 M09/ RMK SC8 RVR RWY34 6000 FT

CYYC;2007-04-03 12:47;CYYC 031247Z CCA 35010KT 3/4SM -SN BKN007 OVC019 M09/ RMK SC6SC2 RVR RWY28 6000 FT

CYYC;2007-04-03 13:00;CYYC 031300Z 34010KT 3/4SM -SN BKN009 OVC023 M09/M12 A3032 RMK SC5SC3 /S01/ RVR RWY34 6000 FT SLP341

CYYC;2007-04-03 13:14;CYYC 031314Z 35010KT 1 1/2SM -SN BKN015 OVC023 M09/ RMK SC6SC2

CYYC;2007-04-03 14:00;CYYC 031400Z 35008KT 1 1/2SM -SN SCT010 OVC017 M10/M13 A3033 RMK SC3SC5 SLP343

CYYC;2007-04-03 14:40;CYYC 031440Z 02007KT 3SM -SN BKN011 OVC017 M09/ RMK SC2SC4

CYYC;2007-04-03 15:00;CYYC 031500Z 02005KT 3SM -SN BKN012 OVC017 M09/M12 A3033 RMK SC5SC2 SLP347

CYYC;2007-04-03 16:00;CYYC 031600Z 02004KT 5SM -SN FEW009 OVC014 M09/M12 A3034 RMK SC2SC6 SLP348

CYYC;2007-04-03 17:00;CYYC 031700Z 06003KT 4SM -SN SCT011 OVC017 M08/M11 A3034 RMK SC4SC4 SLP350

CYYC;2007-04-03 18:00;CYYC 031800Z 12007KT 3SM -SN FEW011 OVC017 M07/M12 A3035 RMK SC2SC6 SLP351

CYYC;2007-04-03 19:00;CYYC 031900Z 12008KT 3SM -SN SCT012 BKN017 M07/M11 A3035 RMK SC2SC5 SLP351

CYYC;2007-04-03 19:40;CYYC 031940Z 14007KT 15SM BKN018 M06/ RMK SC5

CYYC;2007-04-03 20:00;CYYC 032000Z 11006KT 15SM BKN018 BKN220 M07/M12 A3034 RMK SC6CI1 SLP350

CYYC;2007-04-03 21:00;CYYC 032100Z 12008KT 20SM VCSH BKN018 M07/M12 A3033 RMK SC7 SHS W SLP345

CYYC;2007-04-03 21:45;CYYC 032145Z 10010KT 15SM -SHSN BKN020 M06/ RMK SC7

CYYC;2007-04-03 22:00;CYYC 032200Z 10008KT 15SM BKN022 M06/M12 A3033 RMK SC7 SLP343

CYYC;2007-04-03 23:00;CYYC 032300Z 12008KT 8SM -SN OVC022 M07/M12 A3034 RMK SC8 SLP346

CYYC;2007-04-04 00:00;CYYC 040000Z 11009KT 5SM -SN OVC029 M07/M12 A3034 RMK SC8 SLP349

CYYC;2007-04-04 01:00;CYYC 040100Z 10011KT 4SM -SN FEW020 BKN032 M07/M12 A3034 RMK SC1SC6 SLP348

CYYC;2007-04-04 02:00;CYYC 040200Z 10009KT 10SM -SN OVC032 M08/M12 A3035 RMK SC8 SLP350

CYYC;2007-04-04 03:00;CYYC 040300Z CCA 11011KT 3SM -SN FEW015 OVC027 M08/M12 A3036 RMK SC2SC6 VIS 11/2 W SLP357

CYYC;2007-04-04 04:00;CYYC 040400Z 12008KT 5SM -SN FEW017 OVC027 M09/M12 A3036 RMK SC2SC6 SLP357

CYYC;2007-04-04 05:00;CYYC 040500Z 12006KT 5SM -SN FEW017 OVC028 M09/M12 A3036 RMK SC2SC6 SLP356

CYYC;2007-04-04 06:00;CYYC 040600Z 14007KT 4SM -SN FEW017 OVC027 M09/M12 A3035 RMK SC1SC7 SLP351

CYYC;2007-04-04 07:00;CYYC 040700Z 14006KT 4SM -SN FEW017 OVC023 M09/M12 A3034 RMK SC1SC7 SLP348

CYYC;2007-04-04 08:00;CYYC 040800Z 14006KT 4SM -SN OVC022 M09/M12 A3033 RMK SC8 SLP345

CYYC;2007-04-04 09:00;CYYC 040900Z 14007KT 5SM -SN OVC019 M09/M12 A3032 RMK SC8 SLP340

CYYC;2007-04-04 10:00;CYYC 041000Z 13006KT 5SM -SN OVC017 M09/M12 A3031 RMK SC8 SLP336

CYYC;2007-04-04 11:00;CYYC 041100Z 15006KT 5SM -SN OVC017 M09/M12 A3030 RMK SC8 SLP334

CYYC;2007-04-04 11:03;CYYC 041103Z 15006KT 5SM -SN BKN008 OVC017 M09/ RMK SC6SC2

CYYC;2007-04-04 12:00;CYYC 041200Z 13006KT 5SM -SN BKN008 OVC017 M09/M12 A3029 RMK SC6SC2 SNOW COVER/MUCH LOOSE SLP331

CYYC;2007-04-04 13:00;CYYC 041300Z 14008KT 5SM -SN BKN009 OVC017 M08/M12 A3028 RMK SC7SC1 SLP328

CYYC;2007-04-04 14:00;CYYC 041400Z 14006KT 5SM -SN BKN010 OVC017 M08/M11 A3028 RMK SC6SC2 SLP328

CYYC;2007-04-04 15:00;CYYC 041500Z 15010KT 4SM -SN BKN010 OVC017 M08/M11 A3029 RMK SC7SC1 SLP330

CYYC;2007-04-04 16:00;CYYC 041600Z 14009KT 4SM -SN OVC010 M08/M11 A3029 RMK SC8 SLP331

CYYC;2007-04-04 17:00;CYYC 041700Z 12007KT 5SM -SN OVC010 M07/M11 A3030 RMK SC8 SLP333

CYYC;2007-04-04 18:00;CYYC 041800Z 12010KT 6SM -SN OVC012 M07/M11 A3030 RMK SC8 SLP333

CYYC;2007-04-04 19:00;CYYC 041900Z CCA 13010KT 7SM -SN OVC013 M06/M10 A3030 RMK SC8 SLP332

CYYC;2007-04-04 20:00;CYYC 042000Z 12009KT 6SM -SN OVC013 M06/M10 A3030 RMK SC8 SLP334

CYYC;2007-04-04 21:00;CYYC 042100Z 13007KT 6SM -SN OVC012 M05/M09 A3031 RMK SC8 SLP334

CYYC;2007-04-04 22:00;CYYC 042200Z 12008KT 6SM -SN OVC012 M05/M09 A3031 RMK SC8 SLP336

CYYC;2007-04-04 23:00;CYYC 042300Z 10009KT 4SM -SN OVC010 M05/M09 A3031 RMK SC8 SLP336

CYYC;2007-04-05 00:00;CYYC 050000Z 12007KT 4SM -SN BKN010 OVC018 M05/M09 A3032 RMK SC7SC1 SLP338

CYYC;2007-04-05 01:00;CYYC 050100Z 13007KT 4SM -SN BKN010 OVC023 M05/M09 A3033 RMK SC4SC4 SLP341

CYYC;2007-04-05 02:00;CYYC 050200Z 10006KT 3SM -SN OVC026 M05/M09 A3034 RMK SC8 SLP343

CYYC;2007-04-05 03:00;CYYC 050300Z 12008KT 5SM -SN FEW017 OVC024 M05/M09 A3035 RMK SC1SC7 SLP346

CYYC;2007-04-05 03:52;CYYC 050352Z 11008KT 3SM -SN BKN008 OVC020 M05/ RMK SC6SC2

CYYC;2007-04-05 04:00;CYYC 050400Z 11008KT 4SM -SN BKN009 OVC020 M05/M08 A3036 RMK SC5SC3 SLP350

CYYC;2007-04-05 05:00;CYYC 050500Z 12006KT 4SM -SN BKN009 OVC020 M05/M08 A3036 RMK SC6SC2 SLP351

CYYC;2007-04-05 06:00;CYYC 050600Z 13007KT 5SM -SN BKN009 OVC025 M06/M09 A3036 RMK SC5SC3 SLP350

CYYC;2007-04-05 07:00;CYYC 050700Z 13008KT 4SM -SN BKN009 OVC021 M05/M09 A3037 RMK SC7SC1 SLP352

CYYC;2007-04-05 08:00;CYYC 050800Z 13006KT 5SM -SN BKN009 OVC027 M06/M08 A3037 RMK SC5SC3 SLP353

CYYC;2007-04-05 09:00;CYYC 050900Z 11006KT 5SM -SN BKN009 OVC027 M06/M09 A3037 RMK SC5SC3 SLP351

CYYC;2007-04-05 10:00;CYYC 051000Z 11006KT 5SM -SN FEW009 OVC032 M06/M09 A3037 RMK SC1SC7 SLP350

CYYC;2007-04-05 11:00;CYYC 051100Z 13003KT 5SM -SN FEW009 OVC027 M06/M08 A3037 RMK SC1SC7 SLP352

CYYC;2007-04-05 12:00;CYYC 051200Z 09003KT 5SM -SN FEW009 OVC029 M06/M09 A3039 RMK SC1SC7 SNOW COVER/MUCH LOOSE SLP357

CYYC;2007-04-05 13:00;CYYC 051300Z 09003KT 5SM -SN OVC027 M06/M09 A3040 RMK SC8 SLP361

CYYC;2007-04-05 14:00;CYYC 051400Z 10002KT 5SM -SN FEW005 OVC021 M06/M08 A3041 RMK SC1SC8 PCPN VRY LGT SLP363

CYYC;2007-04-05 14:28;CYYC 051428Z 11005KT 5SM -SN BKN005 OVC020 M05/ RMK SC5SC3

CYYC;2007-04-05 15:00;CYYC 051500Z 10003KT 5SM -SN SCT005 OVC020 M05/M08 A3042 RMK SC4SC4 SLP368

CYYC;2007-04-05 15:19;CYYC 051519Z CCA 09002KT 5SM -SN FEW005 OVC014 M05/ RMK SC2SC6

CYYC;2007-04-05 15:34;CYYC 051534Z 08004KT 5SM -SN BKN006 OVC014 M05/ RMK SC5SC3

CYYC;2007-04-05 16:00;CYYC 051600Z 10004KT 5SM -SN FEW005 FEW006 OVC011 M05/M08 A3043 RMK SC1SC2SC6 SLP371

CYYC;2007-04-05 16:24;CYYC 051624Z 11003KT 5SM -SN FEW006 SCT012 OVC015 M04/ RMK SC1SC3SC4

CYYC;2007-04-05 16:35;CYYC 051635Z CCA 10003KT 2 1/2SM -SN FEW007 BKN015 OVC025 M04/ RMK SC1SC4SC3

CYYC;2007-04-05 16:44;CYYC 051644Z 10004KT 4SM -SN FEW007 BKN016 OVC032 M04/ RMK SC1SC6SC2 VIS VRB 3-5

CYYC;2007-04-05 17:00;CYYC 051700Z 11003KT 4SM -SN FEW009 BKN016 OVC030 M04/M08 A3044 RMK SC1SC6SC2 VIS VRB SLP373

CYYC;2007-04-05 17:18;CYYC 051718Z 10005KT 2 1/2SM -SN FEW009 FEW014 BKN019 OVC032 M04/ RMK SC1SC2SC3SC3

CYYC;2007-04-05 17:40;CYYC 051740Z 09003KT 5SM -SN FEW009 BKN014 OVC031 M04/ RMK SC1SC6SC2

CYYC;2007-04-05 18:00;CYYC 051800Z 09003KT 5SM -SN FEW010 BKN019 OVC030 M03/M08 A3045 RMK SC1SC4SC3 SLP376

CYYC;2007-04-05 19:00;CYYC 051900Z 06006KT 5SM -SN FEW009 FEW014 BKN016 OVC032 M04/M07 A3046 RMK SC1SC2SC5SC1 SLP377

CYYC;2007-04-05 20:00;CYYC 052000Z 07009KT 5SM -SN FEW009 OVC014 M04/M08 A3047 RMK SC1SC7 SLP383

CYYC;2007-04-05 21:00;CYYC 052100Z 07010KT 7SM -SN OVC011 M04/M08 A3049 RMK SC8 SLP391

CYYC;2007-04-05 22:00;CYYC 052200Z 07008KT 10SM -SN OVC009 M04/M08 A3051 RMK SC8 PCPN VRY LGT SLP396

CYYC;2007-04-05 23:00;CYYC 052300Z 07011KT 7SM -SN FEW010 OVC013 M04/M08 A3051 RMK SC1SC8 SLP398

CYYC;2007-04-06 00:00;CYYC 060000Z 07010KT 5SM -SN SCT009 OVC019 M04/M08 A3052 RMK SC3SC5 SLP403

CYYC;2007-04-06 00:40;CYYC 060040Z 09009KT 5SM -SN FEW009 BKN014 OVC020 M05/ RMK SC2SC5SC1

CYYC;2007-04-06 01:00;CYYC 060100Z 09009KT 7SM -SN FEW009 FEW015 BKN020 OVC028 M05/M08 A3053 RMK SC1SC1SC4SC3 SLP404

CYYC;2007-04-06 01:47;CYYC 060147Z 09014KT 5SM -SN BKN007 OVC031 M05/ RMK SC5SC3

CYYC;2007-04-06 02:00;CYYC 060200Z 09013KT 4SM -SN BKN009 OVC020 M05/M08 A3053 RMK SC6SC2 SLP405

CYYC;2007-04-06 03:00;CYYC 060300Z 12012KT 3SM -SN BKN007 OVC015 M05/M08 A3053 RMK SC7SC1 SLP407

CYYC;2007-04-06 04:00;CYYC 060400Z 13011KT 3SM -SN OVC007 M06/M08 A3055 RMK SC8 SLP412

CYYC;2007-04-06 05:00;CYYC 060500Z 12012KT 3SM -SN OVC008 M06/M08 A3055 RMK SC8 VIS 2 W-N SLP411

CYYC;2007-04-06 05:10;CYYC 060510Z 12012KT 2SM -SN DRSN OVC007 M06/ RMK SC8

CYYC;2007-04-06 06:00;CYYC 060600Z 13013G18KT 2 1/2SM -SN DRSN BKN007 OVC018 M06/M09 A3054 RMK SC7SC1 VIS 3 S SLP408

CYYC;2007-04-06 06:19;CYYC 060619Z 13011G17KT 3SM -SN DRSN BKN007 OVC018 M06/ RMK SC7SC1

CYYC;2007-04-06 07:00;CYYC 060700Z 14014G19KT 3SM -SN DRSN OVC007 M06/M09 A3052 RMK SC8 SLP403

CYYC;2007-04-06 08:00;CYYC 060800Z 14017KT 5SM -SN DRSN OVC009 M06/M09 A3051 RMK SC8 SLP399

CYYC;2007-04-06 09:00;CYYC 060900Z 14015KT 5SM -SN DRSN OVC009 M07/M10 A3050 RMK SC8 SLP396

CYYC;2007-04-06 10:00;CYYC 061000Z 14014G19KT 7SM -SN DRSN OVC009 M07/M10 A3049 RMK SC8 SLP393

CYYC;2007-04-06 11:00;CYYC 061100Z 14013KT 4SM -SN DRSN OVC007 M08/M11 A3047 RMK SC8 SLP388

CYYC;2007-04-06 12:00;CYYC 061200Z 15012KT 5SM -SN DRSN BKN007 OVC017 M08/M11 A3046 RMK SC6SC2 SNOW COVER/MUCH LOOSE SLP385

CYYC;2007-04-06 13:00;CYYC 061300Z 15011G17KT 5SM -SN DRSN OVC009 M08/M11 A3045 RMK SC8 SLP382

CYYC;2007-04-06 14:00;CYYC 061400Z 14010KT 5SM -SN OVC008 M08/M11 A3045 RMK SC8 SLP382

CYYC;2007-04-06 15:00;CYYC 061500Z 14014KT 5SM -SN OVC007 M08/M11 A3045 RMK SC8 PCPN VRY LGT SLP381

CYYC;2007-04-06 16:00;CYYC 061600Z 15011KT 5SM -SN OVC007 M08/M10 A3044 RMK SC8 PCPN VRY LGT SLP377

CYYC;2007-04-06 16:42;CYYC 061642Z 14010KT 2 1/2SM -SN OVC005 M07/ RMK SC8

CYYC;2007-04-06 17:00;CYYC 061700Z 14013KT 2 1/2SM -SN OVC004 M07/M10 A3043 RMK SC8 SLP374

CYYC;2007-04-06 17:44;CYYC 061744Z 15017KT 2 1/2SM -SN OVC005 M06/ RMK SC8

CYYC;2007-04-06 18:00;CYYC 061800Z 13014G19KT 2 1/2SM -SN OVC005 M06/M09 A3042 RMK SC8 FROIN SLP371

CYYC;2007-04-06 18:18;CYYC 061818Z 14017KT 4SM -SN OVC007 M06/ RMK SC8 VIS V RB 3-5

CYYC;2007-04-06 19:00;CYYC 061900Z 15017G24KT 6SM -SN OVC011 M05/M08 A3041 RMK SC8 SLP366

CYYC;2007-04-06 19:16;CYYC 061916Z 14018G24KT 10SM OVC011 M05/ RMK SC8

CYYC;2007-04-06 20:00;CYYC 062000Z 15018KT 10SM OVC011 M04/M08 A3040 RMK SC8 SLP365

CYYC;2007-04-06 21:00;CYYC 062100Z 15019KT 10SM OVC012 M03/M07 A3039 RMK SC8 SLP356

CYYC;2007-04-06 22:00;CYYC 062200Z 15020KT 12SM OVC013 M03/M07 A3037 RMK SC8 SLP350

CYYC;2007-04-06 23:00;CYYC 062300Z 15015G25KT 12SM OVC013 M03/M07 A3036 RMK SC8 SLP347

CYYC;2007-04-07 00:00;CYYC 070000Z 14016G22KT 12SM OVC013 M03/M07 A3034 RMK SC8 SLP341

CYYC;2007-04-07 01:00;CYYC 070100Z 14016G25KT 12SM OVC013 M03/M07 A3033 RMK SC8 SLP336

CYYC;2007-04-07 02:00;CYYC 070200Z 14015KT 12SM BKN014 OVC020 M04/M08 A3031 RMK SC5SC3 SLP331

CYYC;2007-04-07 02:29;CYYC 070229Z 14018KT 12SM OVC018 M04/ RMK SC8

CYYC;2007-04-07 03:00;CYYC 070300Z 14015KT 12SM OVC019 M04/M08 A3031 RMK SC8 SLP331

CYYC;2007-04-07 04:00;CYYC 070400Z 14016KT 12SM OVC020 M05/M08 A3029 RMK SC8 SLP326

CYYC;2007-04-07 05:00;CYYC 070500Z 14018KT 12SM OVC019 M05/M09 A3027 RMK SC8 SLP320

CYYC;2007-04-07 06:00;CYYC 070600Z 15013G19KT 12SM OVC017 M05/M09 A3025 RMK SC8 SLP308

CYYC;2007-04-07 07:00;CYYC 070700Z 15013KT 12SM OVC016 M04/M08 A3023 RMK SC8 SLP302

CYYC;2007-04-07 08:00;CYYC 070800Z 15015KT 12SM OVC016 M04/M08 A3020 RMK SC8 SLP293

CYYC;2007-04-07 09:00;CYYC 070900Z 16012KT 12SM OVC020 M04/M08 A3018 RMK SC8 SLP279

CYYC;2007-04-07 10:00;CYYC 071000Z 16014KT 12SM FEW015 OVC019 M04/M07 A3015 RMK SF1SC8 SF TR SLP271

CYYC;2007-04-07 11:00;CYYC 071100Z 15012KT 12SM SCT010 OVC021 M04/M07 A3014 RMK SC3SC5 SLP266

CYYC;2007-04-07 12:00;CYYC 071200Z 16013G18KT 12SM FEW010 OVC020 M04/M07 A3012 RMK SC1SC7 SNOW COVER/MUCH LOOSE SLP256

CYYC;2007-04-07 13:00;CYYC 071300Z 16013KT 10SM OVC018 M04/M07 A3010 RMK SC8 SLP251

CYYC;2007-04-07 13:52;CYYC 071352Z 15011G17KT 10SM FEW008 OVC014 M04/ RMK SC2SC6

CYYC;2007-04-07 14:00;CYYC 071400Z 16013KT 10SM FEW008 OVC014 M04/M07 A3009 RMK SC2SC6 SLP247

CYYC;2007-04-07 15:00;CYYC 071500Z CCA 16011KT 10SM FEW008 BKN014 OVC030 M05/M08 A3007 RMK SC1SC6SC2 SLP244

CYYC;2007-04-07 15:42;CYYC 071542Z 17012G17KT 10SM FEW008 BKN016 OVC030 M04/ RMK SC1SC7SC1

CYYC;2007-04-07 16:00;CYYC 071600Z 16014KT 8SM FEW008 BKN013 OVC030 M04/M08 A3006 RMK SC1SC7SC1 SLP239

CYYC;2007-04-07 17:00;CYYC 071700Z 17013G18KT 10SM BKN012 OVC030 M03/M07 A3005 RMK SC7SC1 SLP237

CYYC;2007-04-07 18:00;CYYC 071800Z 16016KT 10SM BKN011 OVC030 M03/M06 A3004 RMK SC7SC1 SLP230

CYYC;2007-04-07 19:00;CYYC 071900Z 16016G22KT 10SM DRSN OVC013 M02/M06 A3003 RMK SC8 SLP228

CYYC;2007-04-07 20:00;CYYC 072000Z 17022KT 10SM DRSN OVC015 M01/M06 A3002 RMK SC8 SLP224

CYYC;2007-04-07 21:00;CYYC 072100Z 15016KT 15SM DRSN OVC017 M00/M05 A3000 RMK SC8 SLP213

CYYC;2007-04-07 22:00;CYYC 072200Z 17014G19KT 15SM BKN020 00/M05 A2998 RMK SC7 SLP207

CYYC;2007-04-07 23:00;CYYC 072300Z 17017KT 20SM BKN020 BKN140 01/M04 A2996 RMK SC6AC1 CU ASOCTD SLP201

CYYC;2007-04-08 00:00;CYYC 080000Z 16013G18KT 20SM SCT022 SCT150 02/M03 A2994 RMK SC3AC1 SLP187

CYYC;2007-04-08 01:00;CYYC 080100Z 15010G16KT 30SM FEW024 FEW150 FEW240 02/M03 A2992 RMK SC1AC1CC0 SLP180

CYYC;2007-04-08 02:00;CYYC 080200Z 17009KT 30SM FEW070 FEW160 02/M03 A2989 RMK AC1AC1 SLP172

CYYC;2007-04-08 03:00;CYYC 080300Z 13012KT 30SM FEW070 FEW160 M00/M05 A2989 RMK AC1AC1 SLP176

CYYC;2007-04-08 04:00;CYYC 080400Z 14013KT 15SM SCT110 M01/M06 A2988 RMK AC2 SLP173

CYYC;2007-04-08 05:00;CYYC 080500Z 17011KT 15SM SCT120 M01/M07 A2986 RMK AC3 SLP167

CYYC;2007-04-08 06:00;CYYC 080600Z 17008KT 15SM BKN110 M01/M07 A2985 RMK AC5 SLP159

CYYC;2007-04-08 07:00;CYYC 080700Z 17011KT 15SM BKN120 M01/M07 A2983 RMK AC6 SLP153

CYYC;2007-04-08 08:00;CYYC 080800Z 18009KT 15SM OVC120 M01/M06 A2981 RMK AC7 SLP145

CYYC;2007-04-08 09:00;CYYC 080900Z 18010KT 15SM OVC110 M01/M06 A2979 RMK AC7 SLP134

CYYC;2007-04-08 10:00;CYYC 081000Z 18008KT 15SM OVC110 M01/M06 A2977 RMK AC8 SLP130

CYYC;2007-04-08 11:00;CYYC 081100Z 17009KT 15SM OVC120 M02/M06 A2976 RMK AC7 SLP125

CYYC;2007-04-08 12:00;CYYC 081200Z 18007KT 15SM BKN120 BKN230 M03/M06 A2975 RMK AC6CI0 SNOW COVER/MUCH LOOSE SLP119

CYYC;2007-04-08 13:00;CYYC 081300Z 17006KT 30SM BKN120 BKN230 M03/M06 A2975 RMK AC2CI1 SLP120

CYYC;2007-04-08 14:00;CYYC 081400Z 20007KT 40SM FEW140 FEW260 M03/M05 A2974 RMK AC1CI0 SLP117

CYYC;2007-04-08 15:00;CYYC 081500Z 19006KT 40SM FEW140 FEW250 M00/M04 A2973 RMK AC1CI1 SLP111

CYYC;2007-04-08 16:00;CYYC 081600Z 21006KT 40SM FEW130 BKN250 02/M03 A2971 RMK AC1CC1 SLP107

CYYC;2007-04-08 17:00;CYYC 081700Z 18006KT 40SM SCT130 BKN250 05/M01 A2971 RMK AC3CI1 SLP105

CYYC;2007-04-08 18:00;CYYC 081800Z 14006KT 40SM SCT130 SCT250 06/M01 A2971 RMK AC3CI1 SLP097

CYYC;2007-04-08 19:00;CYYC 081900Z 16005KT 40SM FEW130 FEW240 08/01 A2970 RMK AC1CI1 SLP095

CYYC;2007-04-08 20:00;CYYC 082000Z 14009KT 40SM FEW150 FEW240 10/03 A2969 RMK AC1CI1 SLP092

CYYC;2007-04-08 21:00;CYYC 082100Z 16008KT 40SM FEW160 FEW270 11/04 A2968 RMK AC1CI1 SLP080

CYYC;2007-04-08 22:00;CYYC 082200Z 16006KT 40SM FEW035 FEW140 FEW270 12/03 A2966 RMK CU1AC1CI1 SLP075

CYYC;2007-04-08 23:00;CYYC 082300Z 15009KT 40SM FEW035 FEW130 FEW270 12/04 A2965 RMK CU1AC1CI1 SLP072

CYYC;2007-04-09 00:00;CYYC 090000Z 14011KT 40SM FEW035 FEW120 12/04 A2965 RMK CU1AC1 SLP072

CYYC;2007-04-09 01:00;CYYC 090100Z 15009KT 40SM FEW130 11/03 A2964 RMK AC1 SLP067

CYYC;2007-04-09 02:00;CYYC 090200Z 16007KT 30SM FEW130 FEW240 09/02 A2963 RMK AC1CI1 SLP063

CYYC;2007-04-09 03:00;CYYC 090300Z CCA 14006KT 15SM FEW130 FEW240 06/01 A2962 RMK AC1CI1 SLP064

CYYC;2007-04-09 04:00;CYYC 090400Z 13007KT 15SM SKC 03/M01 A2962 RMK SLP063

CYYC;2007-04-09 05:00;CYYC 090500Z 14008KT 15SM SKC 02/M02 A2960 RMK SLP058

CYYC;2007-04-09 06:00;CYYC 090600Z 15007KT 15SM SKC 01/M03 A2958 RMK SLP049

CYYC;2007-04-09 07:00;CYYC 090700Z 21003KT 15SM FEW240 M00/M04 A2956 RMK CI0 SLP043

CYYC;2007-04-09 08:00;CYYC 090800Z 20006KT 15SM BKN150 M00/M04 A2954 RMK AC2 SLP037

CYYC;2007-04-09 09:00;CYYC 090900Z 17003KT 15SM OVC150 01/M03 A2951 RMK AC7 SLP018

CYYC;2007-04-09 10:00;CYYC 091000Z 16003KT 15SM OVC150 01/M04 A2949 RMK AC8 SLP013

CYYC;2007-04-09 11:00;CYYC 091100Z 12003KT 15SM FEW150 M01/M04 A2947 RMK AC1 SLP006

CYYC;2007-04-09 12:00;CYYC 091200Z 11003KT 15SM FEW150 BKN180 M02/M04 A2945 RMK AC1AC2 SLP000

CYYC;2007-04-09 13:00;CYYC 091300Z 00000KT 8SM FEW160 BKN180 M01/M04 A2943 RMK AC1AC2 SLP993

CYYC;2007-04-09 14:00;CYYC 091400Z 00000KT 10SM FEW100 BKN150 BKN260 00/M03 A2942 RMK AC1AC2CI0 VIRGA SLP990

CYYC;2007-04-09 15:00;CYYC 091500Z 12003KT 30SM BKN110 BKN250 02/M03 A2939 RMK AC5CI0 VIRGA SLP983

CYYC;2007-04-09 16:00;CYYC 091600Z 11004KT 10SM BKN090 02/M03 A2938 RMK AC7 VIRGA SLP978

CYYC;2007-04-09 17:00;CYYC 091700Z 14004KT 10SM BKN095 02/M02 A2937 RMK AC5 VIRGA SLP975

CYYC;2007-04-09 18:00;CYYC 091800Z 10004KT 15SM FEW080 BKN095 04/M01 A2935 RMK AC1AC7 VIRGA SLP973

CYYC;2007-04-09 19:00;CYYC 091900Z 11007KT 15SM OVC088 05/M01 A2934 RMK AC8 VIRGA SLP969

CYYC;2007-04-09 20:00;CYYC 092000Z 10008KT 20SM OVC080 05/M00 A2933 RMK AC8 VIRGA SLP967

CYYC;2007-04-09 20:44;CYYC 092044Z 13008KT 8SM -RA OVC065 06/ RMK SC8

CYYC;2007-04-09 21:00;CYYC 092100Z 12007KT 10SM -RA OVC065 05/M01 A2935 RMK SC8 SLP971

CYYC;2007-04-09 22:00;CYYC 092200Z 12006KT 8SM -RA OVC043 05/00 A2935 RMK SC8 SLP970

CYYC;2007-04-09 23:00;CYYC 092300Z 07005KT 10SM -RA OVC038 04/01 A2935 RMK SC8 SLP971

CYYC;2007-04-10 00:00;CYYC 100000Z 03003KT 7SM -RA FEW010 OVC040 04/01 A2937 RMK SC1SC8 SLP984

CYYC;2007-04-10 00:36;CYYC 100036Z 01007KT 5SM -RA FEW008 OVC035 03/ RMK SC0SC8

CYYC;2007-04-10 01:00;CYYC 100100Z 02009KT 4SM -RA FEW004 OVC035 03/01 A2937 RMK SC1SC7 SLP984

CYYC;2007-04-10 02:00;CYYC 100200Z 35012KT 6SM -RA FEW010 OVC025 02/00 A2940 RMK ST2SC6 SLP992

CYYC;2007-04-10 03:00;CYYC 100300Z 32013KT 4SM -RA BR FEW010 OVC024 03/00 A2942 RMK ST2SC6 SLP996

CYYC;2007-04-10 04:00;CYYC 100400Z 32013KT 5SM -RA BR FEW010 OVC023 02/M00 A2943 RMK ST2SC6 SLP001

CYYC;2007-04-10 05:00;CYYC 100500Z 32013KT 4SM -RA BR FEW011 OVC020 02/M00 A2943 RMK ST1SC7 SLP002

CYYC;2007-04-10 05:42;CYYC 100542Z 32010KT 5SM -RA BR BKN012 OVC020 01/ RMK ST6SC2

CYYC;2007-04-10 06:00;CYYC 100600Z 32010KT 5SM -RA BR BKN010 OVC020 01/M01 A2944 RMK ST6SC2 SLP005

CYYC;2007-04-10 07:00;CYYC 100700Z 33016KT 5SM -RA BR BKN012 OVC025 02/M00 A2945 RMK ST5SC3 SLP006

CYYC;2007-04-10 08:00;CYYC 100800Z 32013KT 8SM -RA SCT012 OVC021 02/00 A2945 RMK ST2SC6 SLP008

CYYC;2007-04-10 09:00;CYYC 100900Z 32012KT 8SM -RA SCT012 OVC026 02/00 A2946 RMK ST2SC6 SLP006

CYYC;2007-04-10 10:00;CYYC 101000Z 34013KT 4SM -RA SCT008 OVC026 02/M00 A2947 RMK ST3SC5 SLP010

CYYC;2007-04-10 10:11;CYYC 101011Z 34013KT 4SM -RA BKN008 OVC018 02/ RMK ST5SC3

CYYC;2007-04-10 10:46;CYYC 101046Z 33012KT 2 1/2SM -RASN OVC008 01/ RMK ST8

CYYC;2007-04-10 11:00;CYYC 101100Z 33010KT 2SM -RASN OVC005 01/M01 A2949 RMK ST8 SLP015

CYYC;2007-04-10 12:00;CYYC 101200Z 35006KT 1 1/2SM -SN OVC005 00/M02 A2950 RMK SC8 SNOW COVER/ONE LOOSE /SO1/ SLP027

CYYC;2007-04-10 13:00;CYYC 101300Z 35006KT 1SM -SN BKN003 OVC012 00/M01 A2952 RMK SC6SC2 RVR RWY34 6000+FT SLP032

CYYC;2007-04-10 13:15;CYYC 101315Z 36007KT 3/4SM -SN OVC003 00/ RMK SN3SC5 RVR RWY34 6000+FT

CYYC;2007-04-10 13:37;CYYC 101337Z 35008KT 3/4SM -SN VV003 00/ RMK SN8 RVR RWY34 5500FT

CYYC;2007-04-10 13:42;CYYC 101342Z 35008KT 3/4SM -SN VV005 00/ RMK SN8 RVR RWY34 6000+FT

CYYC;2007-04-10 13:53;CYYC 101353Z 35007KT 1SM -SN VV005 00/ RMK SN8 RVR RWY34 6000+FT

CYYC;2007-04-10 14:00;CYYC 101400Z 35007KT 1SM -SN OVC010 00/M02 A2955 RMK SN6SC2 RVR RWY34 6000+FT /S01/ SLP040

CYYC;2007-04-10 14:26;CYYC 101426Z 35007KT 1 1/2SM -SN BKN005 OVC010 00/ RMK SC5SC3

CYYC;2007-04-10 14:47;CYYC 101447Z 01008KT 2 1/2SM -SN BKN004 OVC016 00/ RMK SC6SC2

CYYC;2007-04-10 15:00;CYYC 101500Z CCA 01008KT 1 1/2SM -SN BKN004 OVC016 00/M02 A2957 RMK SC7SC1 /S02/ SLP053

CYYC;2007-04-10 15:47;CYYC 101547Z 03008KT 3SM -SN BKN005 OVC016 M00/ RMK SC6SC2

CYYC;2007-04-10 16:00;CYYC 101600Z 36007KT 3SM -SN BKN005 OVC016 00/M02 A2960 RMK SC6SC2 SLP060

CYYC;2007-04-10 17:00;CYYC 101700Z 02008KT 4SM -SN BKN005 BKN010 OVC018 M00/M02 A2963 RMK SC2SC2SC3 SLP070

CYYC;2007-04-10 17:33;CYYC 101733Z 03006KT 3SM -SN BKN005 BKN008 OVC018 M00/ RMK SC2SC2SC3

CYYC;2007-04-10 18:00;CYYC 101800Z 02006KT 2 1/2SM -SN BKN005 OVC018 00/M02 A2966 RMK SC6SC2 /S03/ SLP084

CYYC;2007-04-10 18:30;CYYC 101830Z 36007KT 3SM -SN BKN006 OVC018 00/ RMK SC5SC3

CYYC;2007-04-10 18:40;CYYC 101840Z 36006KT 3SM -SN BKN006 OVC025 00/ RMK SC4SC4

CYYC;2007-04-10 19:00;CYYC 101900Z 01009KT 3SM -SN BKN006 OVC020 00/M02 A2969 RMK SC4SC4 SLP093

CYYC;2007-04-10 20:00;CYYC 102000Z 36012KT 5SM -SN BKN008 OVC020 01/M01 A2971 RMK SC4SC4 SLP100

CYYC;2007-04-10 20:43;CYYC 102043Z 01015G20KT 5SM -RASN BKN009 OVC018 02/ RMK SC4SC4

CYYC;2007-04-10 21:00;CYYC 102100Z 01014KT 7SM -RASN BKN009 OVC018 02/M01 A2974 RMK SC4SC4 SLP109

CYYC;2007-04-10 21:12;CYYC 102112Z 01014KT 6SM -RASN BKN010 OVC018 02/ RMK SC5SC3

CYYC;2007-04-10 22:00;CYYC 102200Z CCA 01011KT 5SM -RASN OVC009 02/M01 A2977 RMK SC8 SLP118

CYYC;2007-04-10 22:50;CYYC 102250Z 02010KT 8SM BKN009 BKN025 OVC065 02/ RMK SC4SC1SC4

CYYC;2007-04-10 23:00;CYYC 102300Z 02008KT 10SM BKN009 BKN025 OVC065 02/M01 A2979 RMK SC3SC1SC5 SLP123

CYYC;2007-04-10 23:44;CYYC 102344Z 01005KT 10SM BKN012 BKN020 OVC065 02/ RMK SC6SC2SC1

CYYC;2007-04-11 00:00;CYYC 110000Z 04006KT 10SM VCSH BKN012 OVC020 02/M02 A2981 RMK SC5SC3 SLP135

CYYC;2007-04-11 00:18;CYYC 110018Z 07004KT 10SM SCT012 SCT020 OVC050 02/ RMK SC2SC1SC6

CYYC;2007-04-11 00:47;CYYC 110047Z 04002KT 7SM -SN FEW012 BKN022 OVC050 01/ RMK SC1SC2SC6

CYYC;2007-04-11 01:00;CYYC 110100Z 34002KT 3SM -SN BKN013 BKN022 OVC050 01/M02 A2982 RMK SC3SC2SC2 SLP140

CYYC;2007-04-11 01:15;CYYC 110115Z 00000KT 2SM -SN BR BKN010 OVC020 01/ RMK SC6SC2

CYYC;2007-04-11 02:00;CYYC 110200Z 00000KT 1 1/2SM -SN BKN014 OVC025 01/M02 A2984 RMK SC6SC2 SLP146

CYYC;2007-04-11 03:00;CYYC 110300Z 24002KT 1 1/2SM -SN BKN014 OVC025 00/M02 A2985 RMK SC4SC4 SLP154

CYYC;2007-04-11 03:29;CYYC 110329Z 21003KT 3SM -SN FEW014 BKN025 OVC050 00/ RMK SC1SC4SC3

CYYC;2007-04-11 04:00;CYYC 110400Z 00000KT 3SM -SN SCT014 BKN025 OVC050 00/M02 A2987 RMK SC2SC2SC3 SLP160

CYYC;2007-04-11 05:00;CYYC 110500Z 19003KT 3SM -SN SCT005 BKN025 OVC080 00/M02 A2987 RMK SC3SC4AC1 SLP160

CYYC;2007-04-11 05:37;CYYC 110537Z 19004KT 3SM -SN OVC006 00/ RMK SC8

CYYC;2007-04-11 06:00;CYYC 110600Z 14006KT 3SM -SN BKN008 OVC080 00/M02 A2987 RMK SC6AC1 /S01/ SLP159

CYYC;2007-04-11 07:00;CYYC 110700Z 13004KT 3SM -SN OVC010 00/M02 A2988 RMK SC8 SLP162

CYYC;2007-04-11 08:00;CYYC 110800Z 18005KT 4SM -SN BKN011 BKN050 OVC090 01/M02 A2988 RMK SC6SC1AC1 SLP163

CYYC;2007-04-11 09:00;CYYC 110900Z 20006KT 5SM -SN SCT015 BKN080 OVC180 M00/M02 A2989 RMK SC2AC5AS1 SLP164

CYYC;2007-04-11 10:00;CYYC 111000Z 26006KT 6SM BR FEW015 BKN080 OVC180 M00/M02 A2990 RMK SC2AC5AS1 SLP167

CYYC;2007-04-11 11:00;CYYC 111100Z 05003KT 8SM FEW015 BKN080 OVC180 M01/M03 A2991 RMK SC1AC6AS1 SLP172

CYYC;2007-04-11 12:00;CYYC 111200Z 03003KT 10SM OVC080 M01/M03 A2992 RMK AC6 SNOW COVER/TRACE LOOSE SLP177

CYYC;2007-04-11 13:00;CYYC 111300Z CCA 33004KT 20SM FEW040 BKN090 BKN180 OVC240 M01/M04 A2993 RMK SC1AC3AS2CI0 SC TR / CONTRAILS SLP180

CYYC;2007-04-11 14:00;CYYC 111400Z 32007KT 30SM FEW060 BKN075 OVC090 00/M04 A2994 RMK SC2AC3AS2 SLP182

CYYC;2007-04-11 15:00;CYYC 111500Z 32005KT 40SM FEW072 SCT092 BKN120 BKN200 02/M03 A2994 RMK AC1AC2AC1CI0 SLP182

CYYC;2007-04-11 16:00;CYYC 111600Z 36009KT 40SM FEW040TCU OVC090 04/M06 A2994 RMK TCU1AC2 TCU TR S SLP182

CYYC;2007-04-11 17:00;CYYC 111700Z 36010KT 40SM FEW044TCU BKN150 OVC220 04/M06 A2994 RMK TCU1AC5CI1 TCU TR S-SW SLP182

CYYC;2007-04-11 18:00;CYYC 111800Z 03007KT 40SM FEW048TCU BKN130 OVC200 05/M07 A2994 RMK TCU1AC5CI2 TCU S-W/SC + CU ASOCTD SLP176

CYYC;2007-04-11 19:00;CYYC 111900Z 03006KT 40SM FEW048 BKN073 04/M07 A2993 RMK SC2AC3 DIST SH SW SLP173

CYYC;2007-04-11 20:00;CYYC 112000Z 00000KT 30SM FEW050 SCT080 BKN130 OVC220 05/M08 A2994 RMK CU1AC2AC0CI0

CYYC;2007-04-11 21:00;CYYC 112100Z 08004KT 30SM FEW056 BKN120 OVC210 05/M09 A2990 RMK CU2AC3CI1 SLP164

CYYC;2007-04-11 22:00;CYYC 112200Z 13007KT 20SM FEW050 BKN120 BKN190 OVC240 06/M07 A2988 RMK CU2AS5AC1CI1 SLP158

CYYC;2007-04-11 23:00;CYYC 112300Z 11008KT 20SM FEW058 BKN110 BKN210 06/M07 A2986 RMK CU2AC3CI1 SLP153

CYYC;2007-04-12 00:00;CYYC 120000Z CCA 11008KT 20SM FEW055 BKN120 OVC210 05/M06 A2986 RMK CU2AS5CI1 TCU EMBD S SLP152

CYYC;2007-04-12 01:00;CYYC 120100Z 14010KT 15SM FEW040 OVC120 05/M05 A2985 RMK SC2AS4 TCU EMBD S SLP147

CYYC;2007-04-12 02:00;CYYC 120200Z 16010KT 15SM FEW050 BKN090 BKN230 04/M04 A2984 RMK SC1AC2CI1 SLP144

CYYC;2007-04-12 03:00;CYYC 120300Z 17007KT 15SM FEW050 SCT090 BKN240 02/M04 A2984 RMK SC1AC2CI1 SLP143

CYYC;2007-04-12 04:00;CYYC 120400Z 17008KT 15SM FEW090 FEW240 01/M04 A2983 RMK AC1CI0 SLP141

CYYC;2007-04-12 05:00;CYYC 120500Z 17007KT 15SM SKC 00/M04 A2984 RMK SLP143

CYYC;2007-04-12 06:00;CYYC 120600Z 16003KT 15SM SKC M00/M05 A2983 RMK SLP141

CYYC;2007-04-12 07:00;CYYC 120700Z 12003KT 15SM FEW180 FEW230 M02/M05 A2983 RMK AC1CI1 CI TR SLP141

CYYC;2007-04-12 08:00;CYYC 120800Z 34006KT 15SM FEW170 FEW230 M04/M07 A2984 RMK AC2CI0 SLP144

CYYC;2007-04-12 09:00;CYYC 120900Z 34003KT 15SM FEW170 FEW230 M04/M08 A2984 RMK AC1CI0 SLP148

CYYC;2007-04-12 10:00;CYYC 121000Z 31002KT 15SM FEW170 FEW240 M04/M08 A2985 RMK AC1CI0 SLP150

CYYC;2007-04-12 11:00;CYYC 121100Z 31005KT 15SM FEW240 M05/M09 A2985 RMK CI0 SLP151

CYYC;2007-04-12 12:00;CYYC 121200Z 32002KT 15SM FEW170 FEW240 M05/M09 A2986 RMK AC1CI0 SLP156

CYYC;2007-04-12 13:00;CYYC 121300Z 30002KT 40SM FEW170 BKN240 M05/M08 A2987 RMK AC1CI1 FROIN SLP159

CYYC;2007-04-12 14:00;CYYC 121400Z 32002KT 40SM FEW100 SCT230 BKN240 M03/M07 A2988 RMK AC1CI2CI0 AC TR SLP162

CYYC;2007-04-12 15:00;CYYC 121500Z 00000KT 40SM BKN230 M00/M05 A2989 RMK CI1 CONTRAIL SLP166

CYYC;2007-04-12 16:00;CYYC 121600Z 00000KT 40SM SCT230 03/M04 A2989 RMK CI1 CONTRAIL SLP165

CYYC;2007-04-12 17:00;CYYC 121700Z 22003KT 40SM FEW230 07/M05 A2989 RMK CI1 SLP166

CYYC;2007-04-12 18:00;CYYC 121800Z 00000KT 40SM FEW230 08/M09 A2989 RMK CI1 SLP158

CYYC;2007-04-12 19:00;CYYC 121900Z 20002KT 40SM FEW230 09/M12 A2989 RMK CI1 SLP156

CYYC;2007-04-12 20:00;CYYC 122000Z 00000KT 40SM FEW230 10/M12 A2987 RMK CI1 SLP151

CYYC;2007-04-12 21:00;CYYC 122100Z 18008KT 40SM FEW044 FEW230 11/M12 A2986 RMK CU1CI1 SLP149

CYYC;2007-04-12 22:00;CYYC 122200Z 18012KT 40SM FEW065 12/M10 A2985 RMK CU1 SLP146

CYYC;2007-04-12 23:00;CYYC 122300Z 20010KT 40SM FEW065 12/M11 A2984 RMK SC1 SLP142

CYYC;2007-04-13 00:00;CYYC 130000Z 14011KT 40SM FEW065 FEW220 11/M09 A2984 RMK SC1CI1 SLP139

CYYC;2007-04-13 01:00;CYYC 130100Z 16012KT 40SM FEW065 FEW120 FEW230 10/M09 A2984 RMK SC1AC1CI1 SLP139

CYYC;2007-04-13 02:00;CYYC 130200Z 16010G15KT 40SM FEW065 FEW120 FEW230 08/M08 A2984 RMK SC1AC1CI0 SC+AC TR SLP139

CYYC;2007-04-13 03:00;CYYC 130300Z 16008KT 20SM FEW065 FEW120 SCT200 06/M08 A2984 RMK SC1AC1CI1 SC+AC TR SLP143

CYYC;2007-04-13 04:00;CYYC 130400Z 21007KT 15SM FEW180 SCT220 03/M08 A2985 RMK AC2CI1 SLP144

CYYC;2007-04-13 05:00;CYYC 130500Z 27005KT 15SM FEW180 FEW230 04/M09 A2986 RMK AC1CI1 CLDS TR SLP149

CYYC;2007-04-13 06:00;CYYC 130600Z 27009KT 15SM FEW180 FEW240 05/M10 A2986 RMK AC1CI1 CLDS TR SLP140

CYYC;2007-04-13 07:00;CYYC 130700Z 27009KT 15SM SKC 04/M11 A2987 RMK SLP142

CYYC;2007-04-13 08:00;CYYC 130800Z 27009KT 15SM SKC 04/M10 A2989 RMK SLP147

CYYC;2007-04-13 09:00;CYYC 130900Z 21005KT 15SM SKC 01/M10 A2988 RMK SLP148

CYYC;2007-04-13 10:00;CYYC 131000Z 22005KT 15SM SKC M00/M10 A2990 RMK SLP153

CYYC;2007-04-13 11:00;CYYC 131100Z 20005KT 15SM SKC M00/M10 A2992 RMK SLP160

CYYC;2007-04-13 12:00;CYYC 131200Z 21004KT 20SM FEW160 FEW240 M01/M09 A2991 RMK AC1CI0 AC TR SLP160

CYYC;2007-04-13 13:00;CYYC 131300Z 19004KT 40SM FEW045 SCT210 BKN260 M01/M09 A2990 RMK SC1CI2CI1 SLP158

CYYC;2007-04-13 14:00;CYYC 131400Z 19004KT 40SM FEW080 BKN210 BKN260 01/M07 A2990 RMK AC1CI2CI0 SLP158

CYYC;2007-04-13 15:00;CYYC 131500Z 22002KT 40SM FEW080 BKN200 BKN260 04/M07 A2990 RMK AC1CI3CI1 SLP156

CYYC;2007-04-13 16:00;CYYC 131600Z 20008KT 40SM FEW080 SCT200 BKN260 08/M06 A2989 RMK AC1CI2CI0 SLP153

CYYC;2007-04-13 17:00;CYYC 131700Z 21005KT 40SM FEW080 SCT220 BKN260 10/M07 A2987 RMK AC1CI2CI0 SLP147

CYYC;2007-04-13 18:00;CYYC 131800Z 21010KT 40SM FEW080 FEW180 SCT220 BKN260 12/M06 A2985 RMK AC1AC1CI2CI1 SLP128

CYYC;2007-04-13 19:00;CYYC 131900Z 19008KT 40SM FEW080 FEW180 BKN260 13/M06 A2981 RMK AC1AC1CI0 SLP118

CYYC;2007-04-13 20:00;CYYC 132000Z 20007KT 40SM FEW080 FEW180 SCT260 14/M05 A2978 RMK AC1AC1CI0 SLP109

CYYC;2007-04-13 21:00;CYYC 132100Z 22007KT 40SM FEW080 FEW180 SCT260 14/M05 A2977 RMK AC1AC1CI0 SLP106

CYYC;2007-04-13 22:00;CYYC 132200Z 20012G19KT 40SM FEW080 FEW150 BKN260 15/M04 A2975 RMK AC1AC1CI0 SLP098

CYYC;2007-04-13 23:00;CYYC 132300Z 25016KT 40SM FEW080 FEW150 BKN260 15/M03 A2973 RMK AC1AC1CI0 SLP093

CYYC;2007-04-14 00:00;CYYC 140000Z 27018G25KT 40SM FEW080 SCT160 BKN260 15/M03 A2974 RMK AC1AC2CI0 SLP094

CYYC;2007-04-14 01:00;CYYC 140100Z 27018G26KT 40SM FEW080 BKN140 BKN260 12/M03 A2972 RMK AC1AC3CI0 SLP090

CYYC;2007-04-14 02:00;CYYC 140200Z 27012G18KT 40SM FEW060 FEW080 BKN180 BKN240 12/M03 A2973 RMK SC1AC2AC2CI1 SLP091

CYYC;2007-04-14 03:00;CYYC 140300Z 26014KT 20SM FEW060 BKN140 OVC210 11/M02 A2973 RMK SC1AC6CI1 SLP089

CYYC;2007-04-14 04:00;CYYC 140400Z 25010G17KT 15SM BKN110 OVC180 11/M03 A2975 RMK AC6AC1 SLP096

CYYC;2007-04-14 05:00;CYYC 140500Z 27013KT 15SM BKN110 OVC180 11/M03 A2977 RMK AC6AC2 SLP101

CYYC;2007-04-14 06:00;CYYC 140600Z 29007KT 15SM BKN130 OVC180 10/M03 A2976 RMK AC6AC2 SLP091

CYYC;2007-04-14 07:00;CYYC 140700Z 24007KT 15SM FEW110 BKN170 OVC240 09/M03 A2974 RMK AC2AC6CI1 SLP086

CYYC;2007-04-14 08:00;CYYC 140800Z 00000KT 15SM FEW110 SCT170 OVC230 09/M03 A2975 RMK AC1AC3CI4 SLP087

CYYC;2007-04-14 09:00;CYYC 140900Z 16004KT 15SM BKN130 OVC210 06/M02 A2974 RMK AC6CI2 SLP085

CYYC;2007-04-14 10:00;CYYC 141000Z 21007KT 15SM BKN150 OVC210 06/M02 A2972 RMK AC6CI2 SLP081

CYYC;2007-04-14 11:00;CYYC 141100Z 22004KT 15SM BKN150 OVC210 07/M03 A2973 RMK AC6CI2 SLP082

CYYC;2007-04-14 12:00;CYYC 141200Z 20008KT 15SM BKN150 OVC220 07/M02 A2971 RMK AC6CI2 SLP075

CYYC;2007-04-14 13:00;CYYC 141300Z 21007KT 30SM FEW060 FEW090 BKN160 BKN240 05/M02 A2971 RMK SC1AC1AC5CI1 SC TR SLP074

CYYC;2007-04-14 14:00;CYYC 141400Z 22005KT 40SM FEW070 BKN170 BKN250 06/M02 A2971 RMK AC1AC7CI1 SLP073

CYYC;2007-04-14 15:00;CYYC 141500Z 21007KT 40SM FEW080 BKN170 BKN250 07/M01 A2970 RMK AC1AC7CI1 SLP077

CYYC;2007-04-14 16:00;CYYC 141600Z 22006KT 40SM FEW080 BKN170 BKN250 08/M02 A2970 RMK AC1AC7CI1 SLP077

CYYC;2007-04-14 17:00;CYYC 141700Z 20006KT 40SM FEW080 BKN190 BKN250 10/M00 A2969 RMK AC1AC7CI1 SLP073

CYYC;2007-04-14 18:00;CYYC 141800Z 19007KT 40SM FEW080 BKN190 BKN230 BKN260 12/M01 A2969 RMK AC1AC2CI5CI1 SLP066

CYYC;2007-04-14 19:00;CYYC 141900Z 16005KT 40SM FEW090 FEW150 BKN210 BKN250 14/M01 A2967 RMK AC1AC1CI3CI0 SLP059

CYYC;2007-04-14 20:00;CYYC 142000Z 19008KT 40SM FEW080 SCT150 BKN210 BKN250 16/M02 A2964 RMK AC1AC2CI2CI0 SLP052

CYYC;2007-04-14 21:00;CYYC 142100Z 20007KT 40SM FEW080 BKN170 BKN210 BKN250 16/M01 A2962 RMK AC1AC2CI1CI3 SLP043

CYYC;2007-04-14 22:00;CYYC 142200Z 20010KT 40SM FEW080 BKN180 BKN250 16/M01 A2961 RMK AC1AC3CI3 SLP038

CYYC;2007-04-14 23:00;CYYC 142300Z 18012KT 40SM FEW080 SCT180 BKN250 18/M01 A2959 RMK AC1AC2CI1 SLP034

CYYC;2007-04-15 00:00;CYYC 150000Z 28009KT 40SM FEW080 SCT180 BKN250 17/M02 A2960 RMK AC2AC2CI2 SLP033

CYYC;2007-04-15 01:00;CYYC 150100Z 29019G24KT 40SM FEW080 FEW180 BKN250 15/M03 A2961 RMK AC1AC1CI0 SLP036

CYYC;2007-04-15 02:00;CYYC 150200Z 28022G27KT 40SM SCT090 BKN120 OVC250 12/M02 A2963 RMK AC3AC2CI1 SLP042

CYYC;2007-04-15 03:00;CYYC 150300Z 27019G24KT 20SM FEW070 BKN092 OVC230 11/M03 A2966 RMK AC2AC5CI1 SLP062

CYYC;2007-04-15 04:00;CYYC 150400Z 28015G21KT 15SM BKN092 OVC110 09/M02 A2970 RMK AC5AC2 SLP074

CYYC;2007-04-15 05:00;CYYC 150500Z CCA 35016G22KT 15SM FEW090 BKN120 OVC160 07/00 A2977 RMK AC2AC6AC1 PRESRR SLP097

CYYC;2007-04-15 06:00;CYYC 150600Z 35013KT 15SM FEW080 OVC150 05/M02 A2981 RMK AC1AC6 SLP114

CYYC;2007-04-15 07:00;CYYC 150700Z 35011KT 15SM BKN130 OVC160 04/M02 A2983 RMK AC6AC2 SLP122

CYYC;2007-04-15 08:00;CYYC 150800Z 33009KT 15SM SCT063 OVC150 04/M03 A2985 RMK SC3AC5 SLP126

CYYC;2007-04-15 09:00;CYYC 150900Z 34010KT 15SM BKN061 OVC150 04/M04 A2987 RMK SC6AC2 VIRGA E SLP131

CYYC;2007-04-15 10:00;CYYC 151000Z 33009KT 15SM FEW062 BKN090 OVC150 04/M04 A2988 RMK SC1AC6AC2 SLP136

CYYC;2007-04-15 11:00;CYYC 151100Z 33005KT 15SM BKN076 OVC150 03/M04 A2990 RMK AC6AC2 SLP141

CYYC;2007-04-15 12:00;CYYC 151200Z 34007KT 15SM FEW060 BKN090 OVC150 03/M04 A2993 RMK SC2AC4AC1 SLP153

CYYC;2007-04-15 13:00;CYYC 151300Z 36005KT 40SM BKN079 OVC100 03/M05 A2996 RMK AC6AC2 SLP162

CYYC;2007-04-15 14:00;CYYC 151400Z 34006KT 40SM FEW050 SCT080 BKN120 04/M06 A2999 RMK SC1AC2AC6 SLP171

CYYC;2007-04-15 15:00;CYYC 151500Z 35006KT 40SM FEW050 BKN085 BKN120 05/M07 A3001 RMK SC1AC6AC1 VIRGA SLP185

CYYC;2007-04-15 16:00;CYYC 151600Z 34007KT 40SM FEW040 BKN080 BKN120 BKN240 06/M08 A3002 RMK SC1AC2AC1CI1 SC TR / VIRGA SLP190

CYYC;2007-04-15 17:00;CYYC 151700Z 03004KT 40SM BKN069 BKN120 BKN240 07/M08 A3003 RMK AC2AC1CI1 SHS DIST W SLP191

CYYC;2007-04-15 18:00;CYYC 151800Z 04006KT 40SM SCT069 SCT120 SCT240 09/M08 A3003 RMK AC1AC1CI0 SHS DIST SW+NW SLP198

CYYC;2007-04-15 19:00;CYYC 151900Z 08003KT 40SM FEW067 FEW100 09/M08 A3002 RMK CU2AC1 SHS DIST S-SW + NW SLP194

CYYC;2007-04-15 20:00;CYYC 152000Z 22004KT 40SM FEW071 FEW100 09/M08 A3000 RMK CU2AC1 SHS ALQDS SLP188

CYYC;2007-04-15 21:00;CYYC 152100Z 15006KT 40SM FEW073 BKN090 BKN120 10/M08 A3000 RMK CU1AC6AC1 SHS ALQDS SLP184

CYYC;2007-04-15 22:00;CYYC 152200Z 03012KT 40SM BKN077 BKN120 09/M07 A3001 RMK AC7AC1 SHS ALQDS SLP189

CYYC;2007-04-15 23:00;CYYC 152300Z 09007KT 40SM FEW050CB SCT090 09/M06 A3001 RMK CB1AC1 CB NE+S / CVCTV CLD DVLPG NW / SHS NE-SW SLP189

CYYC;2007-04-16 00:00;CYYC 160000Z CCA 09007KT 40SM FEW050 FEW090 SCT240 09/M06 A3002 RMK SC1AC2CI0 VIRGA SLP194

CYYC;2007-04-16 01:00;CYYC 160100Z CCA 04005KT 40SM FEW050 BKN100 BKN240 09/M06 A3003 RMK SC1AC4CI1 VIRGA SLP198

CYYC;2007-04-16 02:00;CYYC 160200Z 09005KT 30SM FEW050 SCT100 BKN240 08/M05 A3005 RMK SC1AC4CI0 VIRGA NE-SW SLP204

CYYC;2007-04-16 03:00;CYYC 160300Z CCA 15004KT 30SM FEW090 SCT240 06/M06 A3007 RMK AC2CI0 VIRGA NW/SE SLP214

CYYC;2007-04-16 04:00;CYYC 160400Z 36002KT 15SM FEW090 FEW240 06/M06 A3008 RMK AC1CI0 SLP218

CYYC;2007-04-16 05:00;CYYC 160500Z 22005KT 15SM FEW090 03/M07 A3009 RMK AC0 SLP220

CYYC;2007-04-16 06:00;CYYC 160600Z CCA 22005KT 15SM FEW090 01/M10 A3008 RMK AC0 SLP220

CYYC;2007-04-16 07:00;CYYC 160700Z 17003KT 15SM SKC 01/M10 A3007 RMK SLP218

CYYC;2007-04-16 08:00;CYYC 160800Z 21006KT 15SM FEW240 M01/M10 A3006 RMK CI1 SLP213

CYYC;2007-04-16 09:00;CYYC 160900Z 21005KT 15SM FEW200 M00/M10 A3004 RMK CI1 SLP207

CYYC;2007-04-16 10:00;CYYC 161000Z 20005KT 15SM BKN180 BKN220 M01/M09 A3002 RMK AC5CI1 SLP199

CYYC;2007-04-16 11:00;CYYC 161100Z 20005KT 15SM BKN180 OVC220 M01/M09 A3002 RMK AC6CI1 SLP199

CYYC;2007-04-16 12:00;CYYC 161200Z 20006KT 15SM OVC120 M00/M07 A2997 RMK AC7 SLP182

CYYC;2007-04-16 13:00;CYYC 161300Z 20005KT 15SM OVC100 00/M07 A2996 RMK AC7 VIRGA SLP180

CYYC;2007-04-16 14:00;CYYC 161400Z 21004KT 40SM BKN110 BKN180 03/M08 A2994 RMK AC7AC1 VIRGA SLP174

CYYC;2007-04-16 15:00;CYYC 161500Z 23005KT 40SM BKN110 BKN180 05/M08 A2993 RMK AC7AC1 VIRGA SLP166

CYYC;2007-04-16 16:00;CYYC 161600Z 23005KT 40SM BKN110 BKN240 08/M09 A2991 RMK AC7CI1 VIRGA SLP160

CYYC;2007-04-16 17:00;CYYC 161700Z 19009KT 40SM BKN110 BKN150 BKN240 09/M07 A2989 RMK AC6AC1CI1 SLP153

CYYC;2007-04-16 18:00;CYYC 161800Z 19009KT 40SM SCT110 SCT150 BKN240 10/M09 A2988 RMK AC1AC1CI0 SLP148

CYYC;2007-04-16 19:00;CYYC 161900Z 18010KT 40SM BKN110 BKN150 BKN240 11/M08 A2984 RMK AC3AC1CI0 SLP136

CYYC;2007-04-16 20:00;CYYC 162000Z CCA 18009KT 40SM BKN110 BKN150 BKN220 13/M06 A2980 RMK AC3AC1CI0 SLP125

CYYC;2007-04-16 21:00;CYYC 162100Z 18011KT 40SM FEW110 FEW150 BKN220 14/M05 A2977 RMK AC1AC1CI3 SLP105

CYYC;2007-04-16 22:00;CYYC 162200Z 17013G18KT 40SM FEW120 FEW180 BKN240 15/M05 A2973 RMK AC1AC1CI1 SLP094

CYYC;2007-04-16 23:00;CYYC 162300Z 20013KT 40SM FEW120 FEW180 BKN250 15/M04 A2968 RMK AC1AC1CI6 SLP078

CYYC;2007-04-17 00:00;CYYC 170000Z 17014KT 30SM FEW120 FEW160 BKN240 14/M04 A2965 RMK AC1AC1CI6 SLP063

CYYC;2007-04-17 01:00;CYYC 170100Z 21015G22KT 30SM FEW100 FEW160 BKN180 BKN210 15/M03 A2961 RMK AC1AC1AC4CI2 SLP052

CYYC;2007-04-17 02:00;CYYC 170200Z 22014KT 20SM FEW050 BKN180 OVC240 14/M02 A2963 RMK CU1AC6CI0 SLP056

CYYC;2007-04-17 03:00;CYYC 170300Z 29011KT 20SM FEW050 SCT180 BKN240 11/M03 A2964 RMK SC1AC2CI0 SLP055

CYYC;2007-04-17 04:00;CYYC 170400Z 22003KT 15SM FEW180 SCT240 09/M05 A2964 RMK AC2CI0 SLP058

CYYC;2007-04-17 05:00;CYYC 170500Z 21004KT 15SM FEW240 07/M05 A2966 RMK CI0 SLP063

CYYC;2007-04-17 06:00;CYYC 170600Z 27009KT 15SM SKC 06/M05 A2967 RMK SLP067

CYYC;2007-04-17 07:00;CYYC 170700Z 26013G20KT 15SM FEW240 08/M06 A2967 RMK CI1 SLP069

CYYC;2007-04-17 08:00;CYYC 170800Z 28028KT 15SM FEW240 07/M06 A2969 RMK CI1 SLP073

CYYC;2007-04-17 09:00;CYYC 170900Z 26010KT 15SM SCT240 06/M07 A2969 RMK CI0 SLP071

CYYC;2007-04-17 10:00;CYYC 171000Z 25005KT 15SM FEW240 06/M07 A2969 RMK CI0 SLP069

CYYC;2007-04-17 11:00;CYYC 171100Z 30017KT 15SM FEW240 07/M07 A2972 RMK CI0 SLP079

CYYC;2007-04-17 12:00;CYYC 171200Z 13002KT 15SM BKN220 03/M07 A2975 RMK CI2 SLP092

CYYC;2007-04-17 13:00;CYYC 171300Z 17004KT 30SM FEW065 SCT210 BKN240 02/M07 A2976 RMK SC1CI2CI1 SC TR SLP095

CYYC;2007-04-17 14:00;CYYC 171400Z CCA 27003KT 40SM FEW090 BKN200 03/M06 A2977 RMK AC1CI7 SLP098

CYYC;2007-04-17 15:00;CYYC 171500Z 19006KT 40SM FEW090 BKN200 06/M06 A2979 RMK AC1CI7 SLP108

CYYC;2007-04-17 16:00;CYYC 171600Z 20002KT 40SM FEW090 BKN210 07/M06 A2980 RMK AC1CI7 SLP111

CYYC;2007-04-17 17:00;CYYC 171700Z 26003KT 40SM FEW090 SCT210 BKN260 09/M06 A2979 RMK AC1CI3CI0 SLP108

CYYC;2007-04-17 18:00;CYYC 171800Z 16006KT 40SM FEW090 FEW240 12/M06 A2978 RMK AC1CI1 SLP104

CYYC;2007-04-17 19:00;CYYC 171900Z 16004KT 40SM FEW090 FEW240 12/M07 A2977 RMK AC1CI1 SLP100

CYYC;2007-04-17 20:00;CYYC 172000Z 15010G16KT 40SM FEW070 BKN100 BKN240 12/M07 A2977 RMK AC1AC5CI0 VIRGA SLP101

CYYC;2007-04-17 21:00;CYYC 172100Z 15004KT 40SM FEW070 BKN100 BKN240 12/M08 A2977 RMK AC1AC4CI0 VIRGA SLP100

CYYC;2007-04-17 22:00;CYYC 172200Z 19007KT 40SM FEW085 SCT100 BKN240 13/M07 A2976 RMK AC1AC2CI0 SLP096

CYYC;2007-04-17 23:00;CYYC 172300Z 12006KT 40SM FEW086 SCT240 14/M07 A2974 RMK AC2CI0 SLP092

CYYC;2007-04-18 00:00;CYYC 180000Z 17007KT 40SM SCT086 SCT240 14/M06 A2974 RMK AC3CI1 SLP089

CYYC;2007-04-18 01:00;CYYC 180100Z 09004KT 40SM SCT083 BKN240 13/M06 A2974 RMK AC3CI1 VIRGA NW-NE SLP089

CYYC;2007-04-18 02:00;CYYC 180200Z 32015KT 30SM FEW065TCU SCT083 BKN099 10/M05 A2975 RMK TCU2AC2AC2 SH DIST NE SLP094

CYYC;2007-04-18 03:00;CYYC 180300Z 32020KT 30SM FEW065TCU SCT090 OVC240 08/M04 A2978 RMK TCU1AC3CI3 SLP110

CYYC;2007-04-18 04:00;CYYC 180400Z 33019G27KT 15SM FEW090 SCT240 05/M01 A2979 RMK AC2CI1 SLP111

CYYC;2007-04-18 05:00;CYYC 180500Z 34018G25KT 15SM FEW015 BKN085 04/M01 A2983 RMK SC2AC3 CLDS RPDLY MOVNG FROM N SLP125

CYYC;2007-04-18 05:27;CYYC 180527Z 33017KT 15SM BKN014 OVC082 04/ RMK SC6AC1

CYYC;2007-04-18 06:00;CYYC 180600Z 33020KT 15SM FEW014 OVC220 03/M02 A2985 RMK SC2CI4 SLP131

CYYC;2007-04-18 07:00;CYYC 180700Z 34019KT 15SM FEW016 OVC077 03/M02 A2985 RMK SC1AC6 SLP134

CYYC;2007-04-18 08:00;CYYC 180800Z 34016KT 15SM OVC018 02/M02 A2985 RMK SC7 SLP132

CYYC;2007-04-18 09:00;CYYC 180900Z 34016KT 15SM OVC022 02/M02 A2985 RMK SC8 SLP132

CYYC;2007-04-18 10:00;CYYC 181000Z 34016KT 15SM FEW015 OVC021 02/M02 A2984 RMK SF1SC8 SF TR SLP131

CYYC;2007-04-18 11:00;CYYC 181100Z 33018KT 15SM FEW015 OVC027 02/M02 A2985 RMK SF1SC8 SLP134

CYYC;2007-04-18 12:00;CYYC 181200Z 34016KT 15SM FEW015 OVC035 02/M02 A2985 RMK SF1SC8 SLP129

CYYC;2007-04-18 13:00;CYYC 181300Z 34015KT 10SM FEW010 BKN016 OVC030 02/M02 A2986 RMK SF1SC6SC2 SLP133

CYYC;2007-04-18 13:11;CYYC 181311Z 33017KT 10SM BKN010 OVC030 02/ RMK SC6SC2

CYYC;2007-04-18 13:29;CYYC 181329Z 35016KT 10SM OVC008 02/ RMK SC8

CYYC;2007-04-18 14:00;CYYC 181400Z 35018G24KT 10SM SCT008 OVC026 02/M02 A2985 RMK SC4SC4 SLP131

CYYC;2007-04-18 15:00;CYYC 181500Z 35020G25KT 12SM FEW011 OVC016 02/M03 A2984 RMK SC2SC6 SLP134

CYYC;2007-04-18 16:00;CYYC 181600Z 35020G27KT 12SM BKN011 OVC016 03/M03 A2984 RMK SC5SC3 SLP134

CYYC;2007-04-18 17:00;CYYC 181700Z 35019G26KT 12SM OVC010 03/M02 A2984 RMK SC8 SLP134

CYYC;2007-04-18 18:00;CYYC 181800Z 35016G24KT 12SM OVC010 03/M02 A2983 RMK SC8 SLP137

CYYC;2007-04-18 18:42;CYYC 181842Z 35018G27KT 12SM -RA BKN010 OVC013 03/ RMK SC6SC2 PCPN VRY LGT

CYYC;2007-04-18 19:00;CYYC 181900Z 35022KT 12SM -RASN BKN009 BKN015 BKN025 OVC058 03/M02 A2982 RMK SC5SC2SC1SC1 PCPN VRY LGT SLP134

CYYC;2007-04-18 19:31;CYYC 181931Z CCA 35018G25KT 12SM -SN OVC009 02/ RMK SC8 PCPN VRY LGT

CYYC;2007-04-18 20:00;CYYC 182000Z 36021KT 10SM -SN OVC008 02/M02 A2983 RMK SC8 SLP136

CYYC;2007-04-18 20:12;CYYC 182012Z 35019G25KT 2 1/2SM -SN BKN007 BKN019 OVC035 02/ RMK SC6SC2SC1

CYYC;2007-04-18 21:00;CYYC 182100Z 34015G22KT 2 1/2SM -SN BKN007 OVC010 02/M01 A2982 RMK SC6SC2 SLP136

CYYC;2007-04-18 21:17;CYYC 182117Z 35018G24KT 5SM -SN OVC007 02/ RMK SC8

CYYC;2007-04-18 21:40;CYYC 182140Z 34019KT 2 1/2SM -SN BKN007 OVC020 02/ RMK SC5SC3

CYYC;2007-04-18 22:00;CYYC 182200Z 34017G25KT 2 1/2SM -SN BKN006 OVC012 01/M01 A2981 RMK SC6SC2 SLP134

CYYC;2007-04-18 23:00;CYYC 182300Z 34017G24KT 2 1/2SM -SN BKN006 BKN014 OVC025 01/M01 A2980 RMK SC5SC1SC2 SLP131

CYYC;2007-04-19 00:00;CYYC 190000Z 34014G19KT 1 1/2SM -SN BKN006 OVC012 01/M02 A2981 RMK SC6SC2 SLP134

CYYC;2007-04-19 00:24;CYYC 190024Z 34014G20KT 1 1/4SM -SN OVC005 01/ RMK SC8

CYYC;2007-04-19 00:34;CYYC 190034Z 34015KT 5/8SM -SN OVC005 01/ RMK SN3SC5

CYYC;2007-04-19 00:54;CYYC 190054Z 34014G19KT 1 1/2SM -SN OVC004 01/ RMK SC8

CYYC;2007-04-19 01:00;CYYC 190100Z 35015KT 1 1/2SM -SN OVC004 01/00 A2981 RMK SC8 SLP134

CYYC;2007-04-19 01:31;CYYC 190131Z CCA 34017KT 1SM -SN OVC006 01/ RMK SC8 RVR RWY34 6000 FT

CYYC;2007-04-19 02:00;CYYC 190200Z CCA 35016KT 1SM -SN BKN008 OVC011 01/M01 A2981 RMK SC6SC2 RVR RWY34 6000 FT SLP135

CYYC;2007-04-19 03:00;CYYC 190300Z CCA 35018KT 1SM -SN BKN005 OVC011 00/M01 A2980 RMK SC6SC2 RVR RWY34 6000 FT SLP131

CYYC;2007-04-19 04:00;CYYC 190400Z 34018KT 1 1/2SM -SN BKN007 OVC018 00/00 A2979 RMK SC6SC2 SLP129

CYYC;2007-04-19 05:00;CYYC 190500Z 34019KT 1 1/2SM -SN BKN008 BKN015 OVC032 00/M00 A2977 RMK SC5SC2SC1 SLP124

CYYC;2007-04-19 06:00;CYYC 190600Z 34016KT 2 1/2SM -SN BKN009 OVC018 00/M00 A2978 RMK SC5SC3 /S02/ SLP123

CYYC;2007-04-19 07:00;CYYC 190700Z 34020G25KT 2SM -SN BKN008 OVC021 M00/M01 A2975 RMK SC6SC2 SLP116

CYYC;2007-04-19 08:00;CYYC 190800Z 33019KT 2 1/2SM -SN BKN009 OVC026 M00/M01 A2974 RMK SC5SC3 SLP111

CYYC;2007-04-19 09:00;CYYC 190900Z 33018KT 10SM -SN FEW013 OVC028 00/M02 A2973 RMK SF2SC6 SLP110

CYYC;2007-04-19 10:00;CYYC 191000Z 34019KT 12SM -SN FEW011 OVC028 00/M02 A2971 RMK SC2SC6 SN VRY LGT SLP102

CYYC;2007-04-19 11:00;CYYC 191100Z 33018KT 12SM -SN OVC025 00/M02 A2974 RMK SC8 SLP112

CYYC;2007-04-19 12:00;CYYC 191200Z 32006KT 15SM -SN FEW015 OVC027 01/M01 A2975 RMK SC1SC7 SNOW COVER/MUCH LOOSE SLP116

CYYC;2007-04-19 13:00;CYYC 191300Z 34015G21KT 10SM -SN FEW020 OVC046 01/M01 A2975 RMK SC2SC6 SLP116

CYYC;2007-04-19 14:00;CYYC 191400Z 33016KT 8SM -SN OVC011 00/M00 A2975 RMK SC8 SLP116

CYYC;2007-04-19 14:12;CYYC 191412Z 33015G20KT 12SM -SN FEW011 OVC017 01/ RMK SC2SC6

CYYC;2007-04-19 15:00;CYYC 191500Z 33018G24KT 15SM -SN FEW011 OVC052 01/M01 A2973 RMK SC2SC6 SLP109

CYYC;2007-04-19 15:54;CYYC 191554Z 33019G24KT 30SM FEW015 OVC052 01/ RMK SC1SC7

CYYC;2007-04-19 16:00;CYYC 191600Z 33018G24KT 30SM FEW016 OVC052 01/M01 A2973 RMK SC1SC7 PCPN VRY LGT SLP111

CYYC;2007-04-19 17:00;CYYC 191700Z 34019G25KT 30SM FEW016 OVC050 02/M00 A2972 RMK SC2SC6 SLP108

CYYC;2007-04-19 18:00;CYYC 191800Z 36022G29KT 30SM BKN013 OVC042 03/00 A2975 RMK SC6SC2 SLP113

CYYC;2007-04-19 18:08;CYYC 191808Z 36020G27KT 30SM -RA BKN015 OVC040 03/ RMK SC6SC2 PCPN VRY LGT

CYYC;2007-04-19 19:00;CYYC 191900Z 35023G28KT 20SM -RA FEW011 OVC045 03/M00 A2976 RMK SC2SC6 PCPN VRY LGT SLP116

CYYC;2007-04-19 19:45;CYYC 191945Z 34019G28KT 20SM FEW015 SCT048 OVC062 03/ RMK SC1SC3SC5

CYYC;2007-04-19 20:00;CYYC 192000Z 33021G27KT 20SM -SN FEW017 FEW048 SCT058 OVC062 02/M01 A2975 RMK SC1SC2SC2SC4 PCPN VRY LGT SLP115

CYYC;2007-04-19 20:35;CYYC 192035Z 35020KT 2SM -SN OVC012 02/ RMK SC8

CYYC;2007-04-19 20:38;CYYC 192038Z 34018G24KT 1 1/2SM -SN FEW009 BKN012 OVC030 01/ RMK SC1SC6SC1

CYYC;2007-04-19 20:44;CYYC 192044Z 34019G24KT 1 1/4SM -SN BKN009 OVC012 01/ RMK SN3SC2SC3

CYYC;2007-04-19 20:51;CYYC 192051Z 36014G22KT 5/8SM -SN OVC006 01/ RMK SN4SC4 RVR RWY28 4500 FT

CYYC;2007-04-19 21:00;CYYC 192100Z 35016KT 3/4SM -SN OVC005 01/M00 A2977 RMK SN4SC4 RVR RWY34 4500 FT SLP124

CYYC;2007-04-19 21:29;CYYC 192129Z 35013KT 1/2SM SN OVC004 00/ RMK SN6SC2 RVR RWY16 3000 FT

CYYC;2007-04-19 21:37;CYYC 192137Z CCA 35012KT 1/2SM SN OVC002 00/ RMK SN6SC2 RVR RWY28 4500 FT

CYYC;2007-04-19 22:00;CYYC 192200Z 35016KT 5/8SM -SN OVC003 00/00 A2976 RESN RMK SN5SC3 SLP122

CYYC;2007-04-19 22:28;CYYC 192228Z 35015KT 1 1/2SM -SN SCT003 OVC009 00/ RMK SC4SC4

CYYC;2007-04-19 23:00;CYYC 192300Z 35014G20KT 1 1/4SM -SN OVC009 01/M00 A2976 RMK SN3SC5 SLP121

CYYC;2007-04-19 23:35;CYYC 192335Z CCB 35017G22KT 3/4SM -SN OVC007 00/ RMK SN4SC4 RVR RWY16 6000 FT

CYYC;2007-04-20 00:00;CYYC 200000Z 35012G18KT 3/4SM -SN OVC004 00/00 A2977 RMK SN4SC4 RVR RWY28 60OO FT SLP125

CYYC;2007-04-20 01:00;CYYC 200100Z 35013G20KT 1SM -SN OVC007 00/M00 A2978 RMK SN3SC5 RVR RWY34 6000 FT SLP126

CYYC;2007-04-20 01:13;CYYC 200113Z 35013KT 1 1/2SM -SN OVC005 00/ RMK SN3SC5

CYYC;2007-04-20 01:28;CYYC 200128Z 34013KT 1 1/4SM -SN BKN009 OVC015 00/ RMK SN2SC4SC2

CYYC;2007-04-20 02:00;CYYC 200200Z 34015KT 1 1/4SM -SN BKN009 OVC018 01/M01 A2977 RMK SN2SC5SC1 SLP123

CYYC;2007-04-20 03:00;CYYC 200300Z 34014KT 2 1/2SM -SN FEW009 BKN022 OVC047 00/M00 A2977 RMK SC2SC5SC2 SLP123

CYYC;2007-04-20 04:00;CYYC 200400Z 34016KT 2SM -SN FEW007 BKN016 OVC022 M00/M01 A2976 RMK SC2SC5SC1 SLP121

CYYC;2007-04-20 04:11;CYYC 200411Z 34016KT 1 1/2SM -SN BKN013 OVC027 M00/ RMK SC6SC2

CYYC;2007-04-20 05:00;CYYC 200500Z 34014KT 2SM -SN BKN013 OVC026 M00/M01 A2976 RMK SC6SC2 SLP120

CYYC;2007-04-20 06:00;CYYC 200600Z 34013KT 1 3/4SM -SN BKN010 OVC022 M00/M01 A2976 RMK SC6SC2 /S01/ SLP119

CYYC;2007-04-20 06:27;CYYC 200627Z 34016KT 1 3/4SM -SN BKN008 OVC022 M00/ RMK SC6SC2

CYYC;2007-04-20 07:00;CYYC 200700Z 34014KT 1 3/4SM -SN BKN009 OVC025 M00/M01 A2976 RMK SC6SC2 SLP119

CYYC;2007-04-20 08:00;CYYC 200800Z 33013KT 1 3/4SM -SN BKN007 OVC022 M01/M01 A2975 RMK SC6SC2 SLP116

CYYC;2007-04-20 09:00;CYYC 200900Z 33016KT 1 1/2SM -SN BKN008 OVC037 M01/M01 A2975 RMK SC6SC2 VIS N-E 1 SLP117

CYYC;2007-04-20 10:00;CYYC 201000Z 32015KT 1 3/4SM -SN FEW009 BKN020 OVC037 M01/M01 A2974 RMK SC2SC6SC1 SLP116

CYYC;2007-04-20 11:00;CYYC 201100Z 33020KT 1 3/4SM -SN FEW009 BKN033 OVC054 M01/M01 A2973 RMK SC2SC4SC2 /S01/ SLP111

CYYC;2007-04-20 11:44;CYYC 201144Z CCA 33012KT 3/4SM -SN BKN009 OVC014 M01/ RMK SN4SC2SC2 RVR RWY28 4500 FT

CYYC;2007-04-20 12:00;CYYC 201200Z CCA 33013KT 5/8SM -SN BKN007 OVC019 M01/M02 A2974 RMK SN6SC2SC1 /S03/ SNOW COVER/MUCH LOOSE/ RVR RWY34 6000 FT SLP115

CYYC;2007-04-20 13:00;CYYC 201300Z 34015KT 5/8SM -SN BKN009 OVC025 M01/M02 A2974 RMK SN6SC2SC1 /S01/ SLP115

CYYC;2007-04-20 13:45;CYYC 201345Z 34014KT 1SM -SN BKN009 OVC025 M01/ RMK SN6SC2SC1 RVR RWY34 6000+FT

CYYC;2007-04-20 14:00;CYYC 201400Z 34013KT 1 1/4SM -SN BKN017 OVC025 M01/M02 A2974 RMK SN5SC2SC1 SLP116

CYYC;2007-04-20 15:00;CYYC 201500Z CCA 34017KT 2SM -SN BKN017 OVC028 M01/M02 A2974 RMK SC6SC2 /S02/ SLP116

CYYC;2007-04-20 16:00;CYYC 201600Z 34019KT 1 1/2SM -SN BKN015 OVC028 M01/M01 A2974 RMK SC7SC1 SLP117

CYYC;2007-04-20 16:33;CYYC 201633Z 33012KT 1 1/4SM -SN BKN012 OVC028 M01/ RMK SC7SC1

CYYC;2007-04-20 16:45;CYYC 201645Z 33010KT 3/4SM -SN OVC012 M01/ RMK SN5SC3 RVR RWY34 6000FT

CYYC;2007-04-20 17:00;CYYC 201700Z 33012G17KT 3/4SM -SN OVC010 M01/M01 A2975 RMK SN5SC3 /S03/ RVR RWY34 6000FT SLP118

CYYC;2007-04-20 17:09;CYYC 201709Z 33013KT 1 1/2SM -SN BKN014 OVC029 M00/ RMK SN2SC6SC1

CYYC;2007-04-20 17:24;CYYC 201724Z 33018KT 3SM -SN BKN017 OVC032 M00/ RMK SC6SC2

CYYC;2007-04-20 18:00;CYYC 201800Z 34020G26KT 1 1/2SM -SN BKN017 OVC032 M00/M01 A2974 RMK SC6SC2 SLP117

CYYC;2007-04-20 18:29;CYYC 201829Z 34018KT 1SM -SN BKN009 OVC027 M00/ RMK SN5SC1SC2 RVR RWY34 6000+FT

CYYC;2007-04-20 18:51;CYYC 201851Z 35013KT 3/4SM -SN VV007 M00/ RMK SN8 RVR RWY34 6000+FT

CYYC;2007-04-20 19:00;CYYC 201900Z CCA 35012KT 3/4SM -SN OVC010 M00/M01 A2974 RMK SN6SC2 RVR RWY34 6000+FT SLP116

CYYC;2007-04-20 19:41;CYYC 201941Z 33014KT 1 1/2SM -SN BKN009 OVC020 M00/ RMK SN2SC5SC2

CYYC;2007-04-20 20:00;CYYC 202000Z 34017KT 3SM -SN BKN008 OVC025 00/M01 A2973 RMK SC3SC5 /S01/ SLP112

CYYC;2007-04-20 20:31;CYYC 202031Z 35015KT 2SM -SN BKN009 OVC025 00/ RMK SC5SC3

CYYC;2007-04-20 21:00;CYYC 202100Z 35013G19KT 2 1/2SM -SN BKN010 OVC025 01/M00 A2973 RMK SC5SC3 SLP112

CYYC;2007-04-20 21:26;CYYC 202126Z CCA 36014KT 1SM -SN BKN010 OVC025 00/ RMK SC5SC3 RVR RWY34 6000FT

CYYC;2007-04-20 22:00;CYYC 202200Z 35012G17KT 2SM -SN SCT006 BKN010 OVC025 00/M01 A2972 RMK SC1SC4SC3 SLP110

CYYC;2007-04-20 22:26;CYYC 202226Z 36014KT 4SM -SN FEW006 BKN010 OVC030 01/ RMK SC1SC2SC6

CYYC;2007-04-20 22:34;CYYC 202234Z CCA 35014KT 2SM -SN FEW006 BKN011 OVC030 01/ RMK SC1SC5SC3

CYYC;2007-04-20 22:45;CYYC 202245Z 35015KT 1 1/4SM -SN FEW006 BKN009 OVC030 00/ RMK SC1SC6SC2

CYYC;2007-04-20 23:00;CYYC 202300Z 36015KT 1 1/2SM -SN FEW006 BKN008 OVC030 00/M01 A2973 RMK SC1SC6SC2 SLP112

CYYC;2007-04-20 23:14;CYYC 202314Z 35015KT 3SM -SN FEW006 BKN008 OVC030 00/ RMK SC1SC6SC2

CYYC;2007-04-20 23:25;CYYC 202325Z 36016KT 1 1/4SM -SN FEW006 BKN008 OVC030 00/ RMK SC1SC6SC2

CYYC;2007-04-21 00:00;CYYC 210000Z CCA 35013KT 1 1/4SM -SN FEW006 BKN009 OVC021 00/M01 A2974 RMK SC1SC7SC1 /S03/ SLP115

CYYC;2007-04-21 00:39;CYYC 210039Z 34012KT 1 1/4SM -SN FEW006 BKN009 OVC021 00/ RMK SC1SC7SC1

CYYC;2007-04-21 01:00;CYYC 210100Z 35012KT 3SM -SN FEW006 BKN009 OVC022 00/M01 A2975 RMK SC0SC6SC2 SLP118

CYYC;2007-04-21 01:46;CYYC 210146Z 33006KT 1SM -SN BKN006 OVC010 00/ RMK SN4SC3SC1 RVR RWY34 6000 FT

CYYC;2007-04-21 02:00;CYYC 210200Z 33009KT 1SM -SN BKN009 OVC012 00/M01 A2976 RMK SN4SC3SC1 RVR RWY34 6000 FT SLP122

CYYC;2007-04-21 03:00;CYYC 210300Z 33010KT 1SM -SN BKN008 OVC021 00/M01 A2977 RMK SC5SC3 VIS N+S 11/2 /S01/ RVR RWY34 6000 FT SLP127

CYYC;2007-04-21 04:00;CYYC 210400Z 32008KT 1SM -SN BKN009 OVC020 00/M01 A2978 RMK SC5SC3 RVR RWY28 6000 FT SLP130

CYYC;2007-04-21 05:00;CYYC 210500Z 32007KT 1SM -SN BKN009 OVC023 00/M01 A2978 RMK SC5SC3 SLP129

CYYC;2007-04-21 05:52;CYYC 210552Z 29006KT 5SM -SN BKN023 OVC052 00/ RMK SC5SC3

CYYC;2007-04-21 06:00;CYYC 210600Z 29007KT 6SM -SN BKN023 OVC044 00/M00 A2979 RMK SC5SC3 /S02/ SLP131

CYYC;2007-04-21 07:00;CYYC 210700Z 32004KT 8SM -SN FEW012 OVC020 00/M00 A2979 RMK SC2SC6 SLP132

CYYC;2007-04-21 08:00;CYYC 210800Z 33007KT 12SM -SN FEW020 BKN052 OVC068 00/M02 A2979 RMK SC1SC6AC2 SLP132

CYYC;2007-04-21 09:00;CYYC 210900Z CCA 31005KT 15SM -SN FEW030 BKN056 OVC067 M00/M01 A2980 RMK SC1SC4AC2 SN VRY LGT SLP135

CYYC;2007-04-21 09:20;CYYC 210920Z 30006KT 15SM BKN056 OVC064 M01/ RMK SC5SC2

CYYC;2007-04-21 10:00;CYYC 211000Z 32007KT 15SM BKN056 OVC070 M01/M03 A2978 RMK SC5AC2 SLP130

CYYC;2007-04-21 11:00;CYYC 211100Z 32006KT 15SM SCT060 OVC095 M01/M03 A2979 RMK SC3AC4 SLP131

CYYC;2007-04-21 12:00;CYYC 211200Z CCA 32006KT 20SM FEW090 OVC160 M01/M04 A2979 RMK AC2AC6 /S01/ SNOW COVER/MUCH LOOSE SLP133

CYYC;2007-04-21 13:00;CYYC 211300Z CCA 34006KT 20SM SCT070 OVC160 M00/M04 A2980 RMK AC3AC5 SLP137

CYYC;2007-04-21 14:00;CYYC 211400Z 34010KT 20SM FEW010 BKN090 BKN170 00/M01 A2981 RMK SC1AC2AC1 SLP138

CYYC;2007-04-21 15:00;CYYC 211500Z 33006KT 40SM FEW050 SCT100 BKN140 BKN240 00/M01 A2982 RMK SC1AC1AC2CI0 SLP142

CYYC;2007-04-21 16:00;CYYC 211600Z 35009KT 30SM FEW010 FEW050 BKN150 BKN240 02/M00 A2982 RMK SC1SC1AC3CI1 SLP143

CYYC;2007-04-21 17:00;CYYC 211700Z 36007KT 30SM FEW015 SCT100 BKN240 02/01 A2982 RMK SC1AC2CI2 SLP142

CYYC;2007-04-21 18:00;CYYC 211800Z 36007KT 30SM FEW030 SCT120 SCT160 BKN240 03/01 A2982 RMK SC1AC2AC1CI0 SLP138

CYYC;2007-04-21 19:00;CYYC 211900Z 36005KT 30SM FEW030 FEW120 BKN260 04/00 A2982 RMK SC1AC1CI0 SLP137

CYYC;2007-04-21 20:00;CYYC 212000Z 07006KT 30SM FEW030 FEW120 BKN260 05/01 A2981 RMK SC1AC0CI0 SLP135

CYYC;2007-04-21 21:00;CYYC 212100Z 09006KT 30SM FEW030 FEW120 BKN260 06/01 A2981 RMK SC2AC1CI0 SLP130

CYYC;2007-04-21 22:00;CYYC 212200Z 10004KT 20SM FEW030 FEW240 07/02 A2980 RMK SC1CI0 SLP127

CYYC;2007-04-21 23:00;CYYC 212300Z 07006KT 20SM FEW028 FEW050 FEW240 07/00 A2980 RMK SC1SC2CI1 SLP127

CYYC;2007-04-22 01:00;CYYC 220100Z 07011KT 20SM FEW055 06/00 A2981 RMK SC0 CVCTV CLD DIST S SLP131

CYYC;2007-04-22 02:00;CYYC 220200Z 08010KT 20SM FEW055TCU FEW100 04/M00 A2983 RMK TCU1AC1 AC TR SLP136

CYYC;2007-04-22 03:00;CYYC 220300Z 07006KT 20SM FEW060 FEW120 02/M01 A2984 RMK SC1AC0 SLP148

CYYC;2007-04-22 04:00;CYYC 220400Z 13004KT 15SM SCT054 00/M01 A2987 RMK SC2 SLP156

CYYC;2007-04-22 05:00;CYYC 220500Z 09002KT 15SM OVC044 01/M00 A2987 RMK SC7 SLP158

CYYC;2007-04-22 06:00;CYYC 220600Z CCA 13003KT 15SM OVC044 01/M00 A2986 RMK SC8 SLP152

CYYC;2007-04-22 07:00;CYYC 220700Z 18003KT 15SM OVC045 01/M00 A2987 RMK SC7 SLP155

CYYC;2007-04-22 08:00;CYYC 220800Z 17005KT 15SM BKN033 01/00 A2987 RMK SC7 SLP153

CYYC;2007-04-22 09:00;CYYC 220900Z 19003KT 15SM OVC034 01/M00 A2986 RMK SC7 SLP148

CYYC;2007-04-22 10:00;CYYC 221000Z 00000KT 15SM OVC029 01/M00 A2986 RMK SC7 SLP148

CYYC;2007-04-22 11:00;CYYC 221100Z 00000KT 15SM OVC024 01/M00 A2987 RMK SC7 SLP149

CYYC;2007-04-22 12:00;CYYC 221200Z 10002KT 10SM BKN027 OVC090 00/M00 A2987 RMK SC6AC1 SLP152

CYYC;2007-04-22 13:00;CYYC 221300Z 14004KT 8SM PRFG FEW030 BKN090 BKN230 M01/M02 A2988 RMK SC2AC2CI1 FOG BANK ALQDS SLP154

CYYC;2007-04-22 14:00;CYYC 221400Z 15006KT 5SM BR FEW010 BKN025 BKN090 BKN240 01/M00 A2989 RMK SC1SC3AC3CI1 SLP158

CYYC;2007-04-22 14:43;CYYC 221443Z CCA 13007KT 5SM BR FEW004 BKN025 BKN110 BKN240 01/ RMK SC1SC3AC3CI1

CYYC;2007-04-22 15:00;CYYC 221500Z 14005KT 5SM BR BKN004 BKN025 BKN110 BKN240 01/00 A2990 RMK SC2SC2AC2CI0 VIS S 3 SLP166

CYYC;2007-04-22 16:00;CYYC 221600Z 14006KT 5SM BR FEW004 BKN009 OVC021 02/00 A2991 RMK SC1SC2SC5 SLP169

CYYC;2007-04-22 16:17;CYYC 221617Z 12005KT 4SM BR BKN006 OVC020 02/ RMK SC6SC1

CYYC;2007-04-22 17:00;CYYC 221700Z 16007KT 4SM BR OVC005 02/01 A2991 RMK ST8 SLP171

CYYC;2007-04-22 18:00;CYYC 221800Z 16007KT 4SM BR OVC006 03/01 A2991 RMK ST8 SLP170

CYYC;2007-04-22 18:41;CYYC 221841Z 17008KT 8SM OVC010 04/ RMK ST8 SC ASOCTD

CYYC;2007-04-22 19:00;CYYC 221900Z 16007KT 8SM OVC011 04/01 A2991 RMK ST8 SC ASOCTD SLP169

CYYC;2007-04-22 20:00;CYYC 222000Z 17006KT 15SM OVC011 05/02 A2991 RMK ST8 SC ASOCTD SLP169

CYYC;2007-04-22 21:00;CYYC 222100Z 15004KT 10SM OVC012 06/02 A2991 RMK SC8 SLP165

CYYC;2007-04-22 22:00;CYYC 222200Z 15007KT 8SM BKN013 BKN090 06/02 A2991 RMK SC6AC2 SLP165

CYYC;2007-04-22 22:48;CYYC 222248Z 17005KT 8SM BKN014 BKN089 06/ RMK SC3AC4

CYYC;2007-04-22 23:00;CYYC 222300Z 10004KT 8SM SCT014 BKN085 06/02 A2992 RMK SC1AC6 SLP167

CYYC;2007-04-23 00:00;CYYC 230000Z 12002KT 10SM FEW014 BKN087 07/02 A2992 RMK SC1AC6 SLP168

CYYC;2007-04-23 01:00;CYYC 230100Z 14005KT 10SM FEW015 BKN085 07/03 A2993 RMK SC1AC7 SLP170

CYYC;2007-04-23 02:00;CYYC 230200Z 09005KT 8SM OVC085 06/03 A2994 RMK AC7 SLP175

CYYC;2007-04-23 03:00;CYYC 230300Z 10005KT 6SM BR BKN084 04/02 A2995 RMK AC6 SLP180

CYYC;2007-04-23 04:00;CYYC 230400Z 08004KT 6SM BR OVC083 03/02 A2997 RMK AC7 SLP186

CYYC;2007-04-23 05:00;CYYC 230500Z 00000KT 5SM BR OVC082 03/02 A2998 RMK AC7 SLP190

CYYC;2007-04-23 06:00;CYYC 230600Z 35002KT 5SM BR OVC082 03/02 A2999 RMK AC8 SLP193

CYYC;2007-04-23 07:00;CYYC 230700Z 00000KT 5SM BR OVC081 03/02 A3000 RMK AC8 SLP195

CYYC;2007-04-23 08:00;CYYC 230800Z 13002KT 4SM BR OVC079 03/02 A3000 RMK AC8 SLP195

CYYC;2007-04-23 09:00;CYYC 230900Z 17002KT 4SM BR OVC087 03/02 A3000 RMK AC8 SLP194

CYYC;2007-04-23 10:00;CYYC 231000Z 21003KT 4SM BR OVC081 02/01 A3001 RMK AC8 SLP195

CYYC;2007-04-23 11:00;CYYC 231100Z 00000KT 4SM BR OVC077 02/01 A3001 RMK AC8 SLP196

CYYC;2007-04-23 12:00;CYYC 231200Z 00000KT 4SM BR OVC077 03/02 A3002 RMK AC8 SLP200

CYYC;2007-04-23 13:00;CYYC 231300Z 00000KT 4SM BR BKN080 02/02 A3003 RMK AC4 SLP201

CYYC;2007-04-23 14:00;CYYC 231400Z 34003KT 5SM BR FEW090 04/03 A3004 RMK AC1 FOG BANK SE-SW SLP205

CYYC;2007-04-23 15:00;CYYC 231500Z 21004KT 5SM BR FEW090 06/03 A3005 RMK AC1 FOG BANK S-W SLP208

CYYC;2007-04-23 16:00;CYYC 231600Z 21005KT 40SM FEW018 FEW090 07/03 A3005 RMK SC1AC1 SLP209

CYYC;2007-04-23 17:00;CYYC 231700Z 07004KT 40SM FEW034 FEW090 10/02 A3006 RMK SC1AC1 SLP210

CYYC;2007-04-23 18:00;CYYC 231800Z 09007KT 40SM FEW042 FEW090 12/01 A3006 RMK CU1AC1 SLP205

CYYC;2007-04-23 19:00;CYYC 231900Z 03008KT 40SM FEW056 13/M00 A3006 RMK CU1 SLP205

CYYC;2007-04-23 20:00;CYYC 232000Z 04007KT 40SM FEW064 14/M03 A3006 RMK CU1 SLP205

CYYC;2007-04-23 21:00;CYYC 232100Z 36009KT 40SM FEW070 FEW120 13/M03 A3006 RMK AC1AC1 SLP201

CYYC;2007-04-23 22:00;CYYC 232200Z 07010KT 40SM FEW060 FEW070 FEW110 15/04 A3005 RMK CF1AC2AC1 SLP200

CYYC;2007-04-23 23:00;CYYC 232300Z 08011G17KT 30SM FEW045 FEW070 FEW240 13/02 A3006 RMK CU1AC1CI0 CU TR SLP201

CYYC;2007-04-24 00:00;CYYC 240000Z 08009KT 20SM FEW045 FEW070 FEW240 13/03 A3005 RMK CU1AC1CI1 SLP201

CYYC;2007-04-24 01:00;CYYC 240100Z 11010KT 20SM FEW041 BKN260 12/01 A3005 RMK CU1CI0 SLP201

CYYC;2007-04-24 02:00;CYYC 240200Z 10010KT 25SM FEW180 SCT260 10/01 A3006 RMK AC1CI1 AC TR SLP202

CYYC;2007-04-24 03:00;CYYC 240300Z CCA 12008KT 25SM SCT260 07/M01 A3006 RMK CI1 CONTRAILS SLP210

CYYC;2007-04-24 04:00;CYYC 240400Z 13009KT 15SM FEW260 07/03 A3007 RMK CI0 SLP211

CYYC;2007-04-24 05:00;CYYC 240500Z CCA 16009KT 15SM FEW240 07/03 A3006 RMK CI0 SLP210

CYYC;2007-04-24 06:00;CYYC 240600Z 17006KT 15SM BKN240 06/03 A3006 RMK CS0 SLP201

CYYC;2007-04-24 07:00;CYYC 240700Z 18007KT 15SM SCT240 05/03 A3005 RMK CS0 SLP197

CYYC;2007-04-24 08:00;CYYC 240800Z 16006KT 15SM FEW240 04/02 A3003 RMK CI0 SLP193

CYYC;2007-04-24 09:00;CYYC 240900Z 16007KT 15SM FEW240 04/03 A3002 RMK CI0 SLP186

CYYC;2007-04-24 10:00;CYYC 241000Z 16007KT 15SM SKC 03/02 A2999 RMK SLP178

CYYC;2007-04-24 11:00;CYYC 241100Z 16005KT 15SM FEW240 02/02 A2997 RMK CI0 SLP173

CYYC;2007-04-24 12:00;CYYC 241200Z 19005KT 10SM FEW160 BKN250 01/M00 A2996 RMK AC1CI0 SLP173

CYYC;2007-04-24 13:00;CYYC 241300Z 18005KT 30SM FEW160 BKN250 02/01 A2997 RMK AC1CI1 SLP174

CYYC;2007-04-24 14:00;CYYC 241400Z 21004KT 40SM FEW100 SCT170 BKN260 05/03 A2995 RMK AC1AC2CI0 SLP170

CYYC;2007-04-24 15:00;CYYC 241500Z 19006KT 40SM FEW100 SCT190 BKN250 07/03 A2993 RMK AC1AC2CI0 SLP162

CYYC;2007-04-24 16:00;CYYC 241600Z 17004KT 40SM FEW100 SCT190 BKN250 10/01 A2991 RMK AC1AC1CI1 SLP156

CYYC;2007-04-24 17:00;CYYC 241700Z 19006KT 30SM FEW100 BKN200 BKN250 14/M00 A2990 RMK AC1CI2CI1 SLP152

CYYC;2007-04-24 18:00;CYYC 241800Z 16005KT 30SM FEW090 BKN190 OVC250 16/M02 A2988 RMK AC1AC4CS1 SLP134

CYYC;2007-04-24 19:00;CYYC 241900Z 00000KT 40SM FEW090 BKN160 OVC250 16/M03 A2986 RMK AC1AC6CS1 SLP127

CYYC;2007-04-24 20:00;CYYC 242000Z 26009KT 40SM FEW090 BKN170 BKN250 15/M02 A2985 RMK AC1AC6CI1 LWR AC TR SLP124

CYYC;2007-04-24 21:00;CYYC 242100Z 28008KT 40SM FEW090 BKN170 BKN250 15/M03 A2986 RMK AC1AC7CI1 SLP130

CYYC;2007-04-24 22:00;CYYC 242200Z 27006KT 40SM FEW090 BKN210 BKN250 16/M04 A2985 RMK AC1CI7CI1 SLP127

CYYC;2007-04-24 23:00;CYYC 242300Z 27017G22KT 40SM FEW090 SCT210 BKN250 18/M03 A2984 RMK AC1CI3CI0 SLP124

CYYC;2007-04-25 00:00;CYYC 250000Z 27016G27KT 40SM FEW090 FEW210 FEW250 18/M02 A2985 RMK AC1CI1CI1 AC+LWR CI TR SLP126

CYYC;2007-04-25 01:00;CYYC 250100Z 28016G22KT 30SM FEW090 FEW210 16/M02 A2985 RMK AC1CI1 AC TR SLP128

CYYC;2007-04-25 02:00;CYYC 250200Z CCA 28019G25KT 25SM FEW050CB FEW080 FEW210 14/M01 A2986 RMK CB1AC1CI1 CB N/S-W SLP131

CYYC;2007-04-25 03:00;CYYC 250300Z 27018KT 25SM FEW050CB FEW080 10/01 A2989 RMK CB1AC1 CB N/S-W SLP145

CYYC;2007-04-25 04:00;CYYC 250400Z 27011G16KT 15SM FEW080 SCT250 09/01 A2991 RMK AC1CI0 SLP149

CYYC;2007-04-25 05:00;CYYC 250500Z 24016KT 15SM BKN250 09/00 A2990 RMK CI2 SLP146

CYYC;2007-04-25 06:00;CYYC 250600Z 23010KT 15SM BKN250 08/M00 A2990 RMK CI0 SLP138

CYYC;2007-04-25 07:00;CYYC 250700Z 21008KT 15SM FEW250 05/M01 A2991 RMK CI0 SLP140

CYYC;2007-04-25 08:00;CYYC 250800Z 19006KT 15SM FEW160 FEW220 05/M01 A2992 RMK AC1CI0 AURBO SLP143

CYYC;2007-04-25 09:00;CYYC 250900Z 19007KT 15SM FEW160 FEW220 05/M01 A2992 RMK AC1CI0 AURBO SLP148

CYYC;2007-04-25 10:00;CYYC 251000Z 04004KT 15SM FEW160 SCT220 04/M01 A2994 RMK AC1CI1 AURBO SLP155

CYYC;2007-04-25 11:00;CYYC 251100Z 34008KT 15SM SCT180 BKN220 03/M03 A2995 RMK AC2CI2 SLP158

CYYC;2007-04-25 12:00;CYYC 251200Z 34007KT 30SM FEW180 OVC220 03/M02 A2996 RMK AC1CI2 SLP161

CYYC;2007-04-25 13:00;CYYC 251300Z 36011KT 30SM FEW120 FEW180 OVC240 02/M03 A2997 RMK AC1AS1CI1 AC TR SLP164

CYYC;2007-04-25 14:00;CYYC 251400Z 34006KT 40SM FEW030 FEW190 BKN220 04/M02 A2998 RMK SC1AC2CI3 SLP169

CYYC;2007-04-25 15:00;CYYC 251500Z 03007KT 40SM FEW036 FEW082 FEW220 BKN240 08/M00 A2999 RMK SC1AC1CI1CI0 SLP176

CYYC;2007-04-25 16:00;CYYC 251600Z 08007KT 40SM FEW040 FEW180 BKN220 09/M01 A3000 RMK SC1AC2CI2 SC TR SLP178

CYYC;2007-04-25 17:00;CYYC 251700Z 10008KT 40SM FEW048 BKN180 BKN220 10/M01 A2999 RMK SC1AC5CI1 CONTRAIL SLP175

CYYC;2007-04-25 18:00;CYYC 251800Z 11007KT 40SM FEW045 BKN180 OVC200 10/M00 A2997 RMK SC1AC4CI1 SC TR/CU ASOCTD SLP169

CYYC;2007-04-25 19:00;CYYC 251900Z 16009KT 30SM FEW050 OVC150 12/01 A2994 RMK SC1AC7 DIST SH SW SLP160

CYYC;2007-04-25 20:00;CYYC 252000Z 17007KT 40SM FEW050 SCT062 BKN090 OVC220 12/00 A2992 RMK CU1SC3AS3CI1 DIST SH SW/ VIS S-SW 20 SLP153

CYYC;2007-04-25 21:00;CYYC 252100Z CCA 18012KT 30SM BKN046 OVC080 11/M00 A2990 RMK SC6AS2 DIST SH S-W/ VIRGA N-SE/TCU EMBD NE SLP147

CYYC;2007-04-25 21:42;CYYC 252142Z 18012KT 30SM -SHRA BKN040 OVC080 12/ RMK SC6AS2 PCPN VRY LGT/TCU EMBD

CYYC;2007-04-25 22:00;CYYC 252200Z 17012KT 30SM BKN040 OVC080 12/00 A2988 RMK SC6AS2 DIST SH S-SW/VIRGA W/TCU ASOCTD SLP142

CYYC;2007-04-25 22:32;CYYC 252232Z 15010KT 30SM -SHRA FEW048TCU SCT065 OVC080 11/ RMK TCU1SC3AS4 AC ASOCTD

CYYC;2007-04-25 23:00;CYYC 252300Z 16010KT 30SM -SHRA FEW052TCU FEW062 OVC080 12/01 A2987 RMK TCU1SC1AS6 PCPN INTMT SLP137

CYYC;2007-04-25 23:10;CYYC 252310Z 16008KT 30SM FEW048TCU OVC080 12/ RMK TCU1AS7 DIST SH S-W

CYYC;2007-04-26 00:00;CYYC 260000Z 16008KT 30SM FEW048TCU OVC080 12/01 A2985 RMK TCU1AS8 DIST SH S-SW/ TCU TR NE SLP131

CYYC;2007-04-26 00:31;CYYC 260031Z 20010KT 30SM FEW048TCU FEW060CB OVC075 11/ RMK TCU1CB1AS7 CB+ DIST SH S/TCU TR SE

CYYC;2007-04-26 01:00;CYYC 260100Z 20016KT 30SM FEW050 FEW060CB OVC072 10/01 A2985 RMK CU1CB2AS6 CB MAMMA + DIST SH S/VIS S 15/TCU ASOCTD SLP130

CYYC;2007-04-26 02:00;CYYC 260200Z 19007KT 40SM SCT070CB OVC090 09/01 A2984 RMK CB3AC5 SH ALQDS SLP128

CYYC;2007-04-26 03:00;CYYC 260300Z 20008KT 20SM FEW070CB OVC140 08/01 A2983 RMK CB2AC6 SH ALQDS SLP124

CYYC;2007-04-26 04:00;CYYC 260400Z 19005KT 15SM FEW080CB OVC150 07/01 A2983 RMK CB2AC6 SH ALQDS SLP125

CYYC;2007-04-26 05:00;CYYC 260500Z 15004KT 15SM FEW092 BKN100 OVC240 08/01 A2983 RMK AC2AC4CI2 SLP124

CYYC;2007-04-26 06:00;CYYC 260600Z 33003KT 15SM FEW090 BKN160 OVC240 08/M01 A2983 RMK AC2AC3CI2 SLP122

CYYC;2007-04-26 07:00;CYYC 260700Z 27009KT 15SM FEW090 FEW160 BKN240 07/M03 A2984 RMK AC2AC1CI2 SLP123

CYYC;2007-04-26 08:00;CYYC 260800Z 32004KT 15SM SCT090 BKN160 06/M04 A2985 RMK AC3AC3 SLP127

CYYC;2007-04-26 09:00;CYYC 260900Z 31005KT 15SM FEW080 SCT160 OVC210 05/M05 A2985 RMK AC1AC2CI2 SLP131

CYYC;2007-04-26 10:00;CYYC 261000Z 31008KT 15SM SCT082 BKN220 04/M05 A2986 RMK AC2CI2 SLP133

CYYC;2007-04-26 11:00;CYYC 261100Z 33009KT 15SM FEW090 FEW240 02/M04 A2988 RMK AC1CI0 SLP139

CYYC;2007-04-26 12:00;CYYC 261200Z 32008KT 40SM FEW090 FEW240 01/M05 A2990 RMK AC0CI1 CI TR SLP152

CYYC;2007-04-26 13:00;CYYC 261300Z 33008KT 40SM FEW050 FEW090 02/M05 A2991 RMK SC1AC1 CLDS TR SLP155

CYYC;2007-04-26 14:00;CYYC 261400Z 32006KT 40SM FEW036 FEW240 05/M04 A2992 RMK SC1CI0 SLP158

CYYC;2007-04-26 15:00;CYYC 261500Z 33005KT 40SM FEW052 FEW240 08/M05 A2992 RMK SC1CI0 SLP155

CYYC;2007-04-26 16:00;CYYC 261600Z 28010KT 40SM FEW065 FEW220 11/M07 A2992 RMK SC1CI0 SLP154

CYYC;2007-04-26 17:00;CYYC 261700Z 25005KT 40SM FEW065 FEW220 12/M08 A2991 RMK SC1CI0 SLP151

CYYC;2007-04-26 18:00;CYYC 261800Z 25010KT 40SM FEW065 BKN220 13/M07 A2988 RMK SC1CI0 CF ASOCTD SLP135

CYYC;2007-04-26 19:00;CYYC 261900Z 27017G22KT 40SM FEW065 FEW220 14/M07 A2987 RMK SC1CI0 CF ASOCTD SLP130

CYYC;2007-04-26 20:00;CYYC 262000Z 28014KT 40SM FEW065 FEW240 14/M07 A2985 RMK SC1CI0 CF ASOCTD SLP126

CYYC;2007-04-26 21:00;CYYC 262100Z 26011G21KT 40SM FEW065 FEW082 FEW230 14/M07 A2984 RMK SC1AC1CI0 SC + AC TR SLP122

CYYC;2007-04-26 22:00;CYYC 262200Z 30012G21KT 40SM FEW065 FEW082 BKN220 15/M07 A2983 RMK SC1AC1CI1 SLP119

CYYC;2007-04-26 23:00;CYYC 262300Z 27014G26KT 40SM FEW065 FEW082 BKN240 15/M06 A2983 RMK SC1AC1CI0 CU ASOCTD/CONTRAIL SLP118

CYYC;2007-04-27 00:00;CYYC 270000Z 26023G28KT 40SM FEW065 FEW082 BKN210 13/M05 A2983 RMK SC1AC1CI6 SLP126

CYYC;2007-04-27 01:00;CYYC 270100Z 27020G26KT 40SM FEW065 FEW180 SCT200 BKN220 13/M05 A2981 RMK SC1AC1CI2CI1 SC TR SLP122

CYYC;2007-04-27 02:00;CYYC 270200Z 26014G22KT 40SM FEW065 BKN130 BKN220 12/M06 A2982 RMK CU1AC6CI1 SLP123

CYYC;2007-04-27 03:00;CYYC 270300Z 26010G16KT 30SM FEW065 FEW080 BKN240 10/M05 A2982 RMK CU1AC2CI3 CU TR SLP115

CYYC;2007-04-27 04:00;CYYC 270400Z 25010G15KT 15SM SCT095 09/M05 A2983 RMK AC2 SLP120

CYYC;2007-04-27 05:00;CYYC 270500Z 27013KT 15SM FEW095 08/M05 A2984 RMK AC0 SLP121

CYYC;2007-04-27 06:00;CYYC 270600Z 26008KT 15SM FEW090 07/M05 A2984 RMK AC1 AC TR SLP121

CYYC;2007-04-27 07:00;CYYC 270700Z 00000KT 15SM FEW090 06/M05 A2984 RMK AC1 AC TR SLP121

CYYC;2007-04-27 08:00;CYYC 270800Z 36004KT 15SM FEW090 06/M05 A2984 RMK AC1 AC TR SLP121

CYYC;2007-04-27 09:00;CYYC 270900Z 28004KT 15SM SKC 07/M05 A2984 RMK SLP118

CYYC;2007-04-27 10:00;CYYC 271000Z 26011KT 15SM OVC240 06/M04 A2985 RMK CI4 SLP122

CYYC;2007-04-27 11:00;CYYC 271100Z 21004KT 15SM OVC240 07/M05 A2987 RMK CI6 SLP128

CYYC;2007-04-27 12:00;CYYC 271200Z 22006KT 40SM FEW160 OVC240 04/M04 A2988 RMK AC1CI6 SLP140

CYYC;2007-04-27 13:00;CYYC 271300Z 00000KT 40SM FEW080 FEW160 OVC240 05/M03 A2988 RMK AC1AC1CI4 SLP141

CYYC;2007-04-27 14:00;CYYC 271400Z 22005KT 40SM FEW036 BKN160 BKN220 07/M02 A2990 RMK SC1AC5CI2 SC TR SLP147

CYYC;2007-04-27 15:00;CYYC 271500Z 22003KT 40SM FEW048 BKN180 BKN240 09/M03 A2991 RMK SC1AC6CI1 SLP147

CYYC;2007-04-27 16:00;CYYC 271600Z 21004KT 40SM FEW048 BKN180 BKN200 11/M02 A2992 RMK SC1AC5CI1 SLP150

CYYC;2007-04-27 17:00;CYYC 271700Z 16002KT 40SM FEW065 FEW180 SCT240 13/M04 A2991 RMK SC1AC1CI2 SLP147

CYYC;2007-04-27 18:00;CYYC 271800Z 23012G17KT 40SM FEW065 SCT080 BKN240 16/M05 A2989 RMK SC1AC2CI2 SLP135

CYYC;2007-04-27 19:00;CYYC 271900Z 25012KT 40SM FEW065 SCT080 SCT240 16/M04 A2988 RMK SC1AC3CI1 SLP131

CYYC;2007-04-27 20:00;CYYC 272000Z 26008G15KT 40SM FEW065 SCT090 SCT120 16/M05 A2986 RMK SC1AC2AC1 SLP127

CYYC;2007-04-27 21:00;CYYC 272100Z 16004KT 40SM FEW065 SCT090 17/M04 A2984 RMK SC1AC3 SLP116

CYYC;2007-04-27 22:00;CYYC 272200Z 30007KT 40SM FEW065 BKN082 18/M03 A2984 RMK SC1AC4 SLP115

CYYC;2007-04-27 22:12;CYYC 272212Z CCA 21011G19KT 40SM FEW065 BKN082 18/ RMK SC1AC4 WSHFT 2202

CYYC;2007-04-27 22:16;CYYC 272216Z 28017KT 40SM FEW065 SCT082 BKN096 18/ RMK SC1AC3AC1 WSHFT 2212

CYYC;2007-04-27 23:00;CYYC 272300Z 28014G25KT 40SM FEW065 FEW070 FEW096 SCT240 18/M02 A2983 RMK SC1AC1AC1CI0 SLP112

CYYC;2007-04-28 00:00;CYYC 280000Z 29016KT 40SM FEW065 FEW230 17/M02 A2983 RMK SC1CI0 TCU EMBD NE SLP117

CYYC;2007-04-28 01:00;CYYC 280100Z 28012KT 40SM FEW065 FEW240 16/M01 A2983 RMK SC1CI0 SC TR/TCU EMBD SLP116

CYYC;2007-04-28 02:00;CYYC 280200Z 28009KT 30SM FEW050 FEW140 SCT250 14/M00 A2983 RMK CU1AC1CI2 SLP116

CYYC;2007-04-28 03:00;CYYC 280300Z 27004KT 40SM FEW050 FEW140 BKN250 10/M00 A2984 RMK CU1AC1CI3 CU TR SLP121

CYYC;2007-04-28 04:00;CYYC 280400Z 25005KT 15SM FEW050 FEW120 BKN250 09/00 A2983 RMK CU1AC1CI2 SLP120

CYYC;2007-04-28 05:00;CYYC 280500Z 11003KT 15SM BKN250 08/01 A2982 RMK CI2 SLP116

CYYC;2007-04-28 06:00;CYYC 280600Z 00000KT 15SM BKN240 06/01 A2980 RMK CI3 SLP105

CYYC;2007-04-28 07:00;CYYC 280700Z 22004KT 15SM BKN230 07/01 A2978 RMK CI3 SLP098

CYYC;2007-04-28 08:00;CYYC 280800Z 21006KT 15SM BKN240 09/01 A2976 RMK CI2 SLP093

CYYC;2007-04-28 09:00;CYYC 280900Z 32008KT 15SM BKN240 03/01 A2975 RMK CI4 SLP089

CYYC;2007-04-28 10:00;CYYC 281000Z 32008KT 15SM BKN210 04/01 A2975 RMK CI2 SLP090

CYYC;2007-04-28 11:00;CYYC 281100Z 00000KT 15SM BKN220 04/M00 A2975 RMK CI2 SLP090

CYYC;2007-04-28 12:00;CYYC 281200Z 33004KT 20SM OVC240 04/01 A2977 RMK CI6 SLP095

CYYC;2007-04-28 13:00;CYYC 281300Z 34006KT 25SM BKN230 03/01 A2979 RMK CI5 SLP103

CYYC;2007-04-28 14:00;CYYC 281400Z 32006KT 40SM FEW016 FEW120 BKN240 08/04 A2981 RMK CU1AC1CS1 SH DIST SW SLP109

CYYC;2007-04-28 15:00;CYYC 281500Z 33012KT 40SM FEW027 FEW080 FEW240 12/05 A2983 RMK CU1AC1CS1 SH DIST SW SLP115

CYYC;2007-04-28 16:00;CYYC 281600Z 33012KT 40SM FEW038 FEW090 SCT240 10/01 A2986 RMK CU1AC2CI0 SH DIST SW SLP125

CYYC;2007-04-28 17:00;CYYC 281700Z 03014G19KT 40SM FEW042 FEW100 BKN240 11/M00 A2987 RMK CU1AC1CS1 SLP127

CYYC;2007-04-28 18:00;CYYC 281800Z 03010G15KT 40SM FEW045 FEW100 BKN220 12/M01 A2988 RMK CU1AC1CI1 SLP138

CYYC;2007-04-28 19:00;CYYC 281900Z 02009G16KT 40SM FEW055 FEW090 BKN220 14/M01 A2988 RMK CU1AC1CI2 SLP140

CYYC;2007-04-28 20:00;CYYC 282000Z 03010KT 40SM FEW055 BKN078 BKN100 BKN220 12/M01 A2990 RMK CU2AC3AC1CI1 SLP145

CYYC;2007-04-28 21:00;CYYC 282100Z 02009KT 40SM FEW055 SCT090 SCT120 BKN200 12/M01 A2991 RMK CU2AC2AC1CI2 SLP153

CYYC;2007-04-28 22:00;CYYC 282200Z 01010G16KT 40SM FEW058 FEW070 FEW120 BKN200 13/M02 A2992 RMK CU1AC1AC1CI1 SLP155

CYYC;2007-04-28 23:00;CYYC 282300Z 03011KT 40SM FEW058 FEW100 BKN240 13/M02 A2992 RMK CU1AC1CI2 SLP155

CYYC;2007-04-29 00:00;CYYC 290000Z 05005KT 40SM FEW060 FEW100 SCT270 13/M02 A2992 RMK CU1AC1CI1 SLP155

CYYC;2007-04-29 01:00;CYYC 290100Z 05009KT 40SM FEW060 FEW100 SCT270 12/M01 A2994 RMK CU1AC1CI0 SLP159

CYYC;2007-04-29 02:00;CYYC 290200Z 05009KT 40SM FEW060 FEW120 SCT270 10/M01 A2995 RMK CU1AC1CI1 CU TR SLP164

CYYC;2007-04-29 03:00;CYYC 290300Z 02010KT 40SM FEW060 FEW110 BKN250 08/00 A2998 RMK CU1AC1CI2 CU+AC TR SLP172

CYYC;2007-04-29 04:00;CYYC 290400Z 35009KT 15SM FEW110 BKN240 06/00 A3002 RMK AC1CI3 SLP183

CYYC;2007-04-29 05:00;CYYC 290500Z 36002KT 15SM FEW090 FEW190 SCT240 04/M01 A3004 RMK AC1AC1CI2 LWR AC TR SLP190

CYYC;2007-04-29 06:00;CYYC 290600Z 35003KT 15SM BKN190 03/M01 A3005 RMK AC3 SLP202

CYYC;2007-04-29 07:00;CYYC 290700Z 00000KT 15SM BKN072 BKN180 03/00 A3005 RMK AC6AC1 SLP203

CYYC;2007-04-29 08:00;CYYC 290800Z 34005KT 15SM BKN051 BKN080 04/01 A3006 RMK SC5AC2 SLP206

CYYC;2007-04-29 09:00;CYYC 290900Z 00000KT 15SM BKN051 OVC100 04/00 A3006 RMK SC6AC1 SLP205

CYYC;2007-04-29 10:00;CYYC 291000Z 01003KT 15SM SCT051 OVC072 05/01 A3006 RMK SC4AC3 SLP204

CYYC;2007-04-29 11:00;CYYC 291100Z 00000KT 15SM BKN056 OVC075 04/01 A3006 RMK SC6AC2 SLP203

CYYC;2007-04-29 12:00;CYYC 291200Z CCA 17006KT 10SM -RA BKN028 OVC050 05/02 A3006 RMK SC6SC2 SLP201

CYYC;2007-04-29 13:00;CYYC 291300Z 15008KT 8SM -RA OVC044 05/02 A3005 RMK SC8 SLP196

CYYC;2007-04-29 14:00;CYYC 291400Z 14006KT 10SM -RA BKN027 OVC058 05/02 A3002 RMK SC5SC3 SLP188

CYYC;2007-04-29 14:49;CYYC 291449Z CCA 13004KT 20SM FEW027 BKN059 OVC070 06/ RMK SC2SC5AC1 SH NW-NE

CYYC;2007-04-29 15:00;CYYC 291500Z 11004KT 30SM FEW027 BKN060 OVC070 06/02 A2998 RMK SC2SC4AC2 SH NW-NE SLP180

CYYC;2007-04-29 16:00;CYYC 291600Z CCA 13009KT 30SM FEW020 BKN061 BKN100 08/02 A2995 RMK SC1SC5AC1 SH N SLP171

CYYC;2007-04-29 17:00;CYYC 291700Z 14008KT 30SM FEW041 FEW070 BKN200 10/M01 A2990 RMK CU1AC1CS1 PRESFR PST HR SLP154

CYYC;2007-04-29 18:00;CYYC 291800Z CCA 15011G17KT 40SM FEW050 SCT062 BKN240 13/M01 A2983 RMK CU1SC3CI0 PRESFR SLP124

CYYC;2007-04-29 19:00;CYYC 291900Z 18009G15KT 40SM FEW056 BKN270 14/M00 A2977 RMK CU2CI1 SLP106

CYYC;2007-04-29 20:00;CYYC 292000Z 17004KT 20SM SCT060 BKN082 BKN100 14/M01 A2973 RMK CU4AC2AC1 SH SW-NE SLP092

CYYC;2007-04-29 21:00;CYYC 292100Z CCA 33014KT 20SM VCSH SCT060 BKN073 14/00 A2972 RMK CU4AC3 SH SW-NE / WSHFT 2052Z SLP080

CYYC;2007-04-29 21:12;CYYC 292112Z 33022KT 20SM -SHRA SCT060 BKN075 BKN090 13/ RMK CU4AC1AC2 TCU ASOCTD

CYYC;2007-04-29 21:34;CYYC 292134Z 31027G33KT 20SM BKN060 BKN074 10/ RMK CU5AC2 SH SW-NE / TCU ASOCTD

CYYC;2007-04-29 22:00;CYYC 292200Z 31021G28KT 10SM VCSH BKN060 BKN080 09/03 A2975 RMK CU6AC2 SH SW-NE / TCU EMBD / PRESRR PAST HR SLP091

CYYC;2007-04-29 22:29;CYYC 292229Z 31016KT 20SM -SHRA SCT045TCU BKN070 11/ RMK TCU4AC1

CYYC;2007-04-29 22:51;CYYC 292251Z 29010G17KT 20SM VCSH FEW015 FEW045TCU SCT070 12/ RMK SC1TCU1AC2 SH NE+SE+SW

CYYC;2007-04-29 23:00;CYYC 292300Z 28012KT 20SM FEW020 FEW045TCU FEW090 13/04 A2976 RMK CF1TCU1AC1 SH NE+SE+SW SLP093

CYYC;2007-04-30 00:00;CYYC 300000Z 28013G22KT 40SM FEW052 FEW100 FEW260 13/00 A2977 RMK CU1AC1CI1 SH N+SW / CB NNW SLP098

CYYC;2007-04-30 01:00;CYYC 300100Z 28022G29KT 40SM FEW055TCU FEW100 FEW250 11/M03 A2980 RMK TCU1AC1CI1 SH NW-NE+SW SLP108

CYYC;2007-04-30 02:00;CYYC 300200Z 29018G24KT 30SM FEW040TCU FEW100 FEW250 10/M05 A2984 RMK TCU1AC1CI0 SH NW-NE+SW / AC TR SLP120

CYYC;2007-04-30 02:34;CYYC 300234Z CCA 01017G28KT 20SM FEW040TCU BKN080 BKN250 06/ RMK TCU1AC4CI0 WSHFT 0225

CYYC;2007-04-30 03:00;CYYC 300300Z CCA 35019G25KT 30SM SCT020 BKN080 BKN250 04/01 A2992 RMK SC2AC2CI0 VIRGA/PRESRR SLP163

CYYC;2007-04-30 04:00;CYYC 300400Z 34012KT 15SM FEW020 FEW080 FEW250 03/00 A2996 RMK SC1AC1CI0 SLP176

CYYC;2007-04-30 05:00;CYYC 300500Z 33013KT 15SM FEW065 FEW210 02/M01 A2999 RMK SC2CI0 SLP183

CYYC;2007-04-30 06:00;CYYC 300600Z 33013KT 15SM FEW060 SCT250 02/M02 A3000 RMK SC1CI0 SLP185

CYYC;2007-04-30 07:00;CYYC 300700Z 34018KT 15SM BKN250 00/M03 A3001 RMK CI0 SLP188

CYYC;2007-04-30 08:00;CYYC 300800Z 34005KT 15SM BKN210 M01/M03 A3003 RMK CI3 SLP192

CYYC;2007-04-30 09:00;CYYC 300900Z 30007KT 15SM BKN210 M02/M04 A3004 RMK CI3 SLP200

CYYC;2007-04-30 10:00;CYYC 301000Z 31006KT 15SM BKN210 M02/M05 A3004 RMK CI2 SLP200

CYYC;2007-04-30 11:00;CYYC 301100Z 31002KT 15SM SCT210 M01/M05 A3005 RMK CI0 SLP203

CYYC;2007-04-30 12:00;CYYC 301200Z 16002KT 30SM FEW180 FEW220 M02/M06 A3006 RMK AS1CI0 SLP211

CYYC;2007-04-30 13:00;CYYC 301300Z 32003KT 40SM FEW180 FEW220 M02/M05 A3006 RMK AS1CI0 SLP211

CYYC;2007-04-30 14:00;CYYC 301400Z 00000KT 40SM FEW090 FEW180 SCT270 01/M03 A3007 RMK AC1AC0CI0 SLP215

CYYC;2007-04-30 15:00;CYYC 301500Z CCA 00000KT 40SM FEW090 FEW200 BKN270 04/M03 A3007 RMK AC1CI1CI0 SLP219

CYYC;2007-04-30 16:00;CYYC 301600Z 00000KT 40SM FEW050 FEW120 BKN200 06/M05 A3007 RMK SC1AC1CI3 SLP218

CYYC;2007-04-30 17:00;CYYC 301700Z 07003KT 40SM FEW045 FEW120 SCT170 OVC220 07/M05 A3006 RMK CU1AC1AS2CS0 SLP215

CYYC;2007-04-30 18:00;CYYC 301800Z 19004KT 40SM FEW051 FEW120 SCT170 BKN220 09/M04 A3005 RMK CU1AC1AS1CS0 AC TR SLP209

CYYC;2007-04-30 19:00;CYYC 301900Z 18008KT 40SM FEW058 FEW120 SCT160 BKN220 09/M05 A3004 RMK CU2AC1AS0CS0 SLP204

CYYC;2007-04-30 20:00;CYYC 302000Z 15007KT 40SM FEW060 FEW100 SCT220 11/M05 A3001 RMK CU2AC1CI0 SLP197

CYYC;2007-04-30 21:00;CYYC 302100Z 21009KT 40SM FEW060 FEW090 SCT220 11/M04 A2999 RMK CU1AC1CI0 SLP189

CYYC;2007-04-30 22:00;CYYC 302200Z 15003KT 40SM FEW064 FEW090 FEW180 SCT240 11/M05 A2998 RMK CU1AC1AC1CI0 AC LYRS TR SLP185

CYYC;2007-04-30 23:00;CYYC 302300Z 16009G18KT 40SM FEW064 FEW090 FEW180 SCT240 12/M04 A2996 RMK CU1AC1AC1CI0 CU+UPR AC TR SLP181

CYYC;2007-05-01 01:00;CYYC 010100Z 17010KT 40SM FEW090 FEW180 SCT240 12/M03 A2994 RMK AC1AC1CI0 SLP173

CYYC;2007-05-01 02:00;CYYC 010200Z 13011KT 40SM FEW150 FEW240 11/M03 A2994 RMK AC1CI0 SLP172

CYYC;2007-05-01 03:00;CYYC 010300Z 12008KT 20SM FEW150 BKN240 09/M03 A2995 RMK AC1CI2 SLP170

CYYC;2007-05-01 04:00;CYYC 010400Z 00000KT 15SM FEW150 BKN240 08/M03 A2997 RMK AC1CI2 SLP176

CYYC;2007-05-01 05:00;CYYC 010500Z 14011KT 15SM FEW120 BKN220 07/M02 A2998 RMK AC1CI2 CONTRAILS SLP179

CYYC;2007-05-01 06:00;CYYC 010600Z 16007KT 15SM FEW210 OVC260 06/M03 A2998 RMK CI2CI2 CONTRAILS SLP178

CYYC;2007-05-01 07:00;CYYC 010700Z 19006KT 15SM BKN080 OVC220 06/M02 A2997 RMK AC5CI2 SLP174

CYYC;2007-05-01 08:00;CYYC 010800Z 17005KT 15SM OVC090 06/M02 A2997 RMK AC7 SLP174

CYYC;2007-05-01 09:00;CYYC 010900Z 15005KT 15SM OVC080 06/M02 A2995 RMK AC8 SLP166

CYYC;2007-05-01 10:00;CYYC 011000Z 14003KT 15SM OVC075 05/M02 A2994 RMK AC8 SLP163

CYYC;2007-05-01 11:00;CYYC 011100Z 03003KT 15SM OVC085 05/M01 A2993 RMK AC8 SLP160

CYYC;2007-05-01 12:00;CYYC 011200Z 04002KT 20SM OVC080 05/M01 A2993 RMK AC8 SLP158

CYYC;2007-05-01 13:00;CYYC 011300Z CCA 09003KT 20SM OVC080 04/00 A2992 RMK AC8 SLP154

CYYC;2007-05-01 14:00;CYYC 011400Z 14004KT 40SM BKN080 OVC110 06/M00 A2991 RMK AC4AC3 SLP153

CYYC;2007-05-01 15:00;CYYC 011500Z 12005KT 30SM BKN079 BKN110 07/M00 A2990 RMK AC4AC3 SLP151

CYYC;2007-05-01 16:00;CYYC 011600Z 18004KT 30SM BKN076 OVC110 07/M01 A2990 RMK AC6AC1 SLP150

CYYC;2007-05-01 17:00;CYYC 011700Z 11003KT 40SM BKN076 BKN110 08/M01 A2988 RMK AC6AC2 SLP145

CYYC;2007-05-01 18:00;CYYC 011800Z 28003KT 30SM SCT082 BKN130 BKN250 10/M01 A2985 RMK AC2AC1CI1 SLP131

CYYC;2007-05-01 19:00;CYYC 011900Z 00000KT 30SM BKN081 BKN098 BKN210 12/M01 A2985 RMK AC5AC2CI1 SLP130

CYYC;2007-05-01 20:00;CYYC 012000Z 11005KT 30SM BKN081 BKN098 12/01 A2984 RMK AC6AC1 SLP126

CYYC;2007-05-01 21:00;CYYC 012100Z 11004KT 20SM SCT086 BKN095 14/02 A2983 RMK AC3AC1 SLP117

CYYC;2007-05-01 22:00;CYYC 012200Z 15005KT 20SM FEW086 BKN100 16/01 A2981 RMK AC2AC2 SLP113

CYYC;2007-05-01 23:00;CYYC 012300Z 12004KT 20SM BKN081 BKN120 BKN220 15/01 A2981 RMK AC5AC1CI1 CI TR SLP111

CYYC;2007-05-02 00:00;CYYC 020000Z 36002KT 20SM SCT070 BKN120 BKN220 16/01 A2979 RMK AC2AC2CI1 SLP104

CYYC;2007-05-02 01:00;CYYC 020100Z 02006KT 20SM SCT070 BKN120 BKN240 15/02 A2978 RMK AC2AC2CI1 SLP102

CYYC;2007-05-02 02:00;CYYC 020200Z 03007KT 15SM FEW070 BKN100 OVC240 15/02 A2977 RMK AC2AC4CI2 SH DIST NE SLP099

CYYC;2007-05-02 03:00;CYYC 020300Z 01007KT 12SM FEW070 BKN110 OVC210 14/03 A2977 RMK AC2AC5CI1 SLP098

CYYC;2007-05-02 04:00;CYYC 020400Z 05009KT 12SM FEW090 BKN110 OVC210 11/03 A2978 RMK AC2AC5CI2 SLP100

CYYC;2007-05-02 05:00;CYYC 020500Z 06007KT 12SM FEW090 BKN110 OVC210 10/03 A2978 RMK AC2AC4CI1 SLP099

CYYC;2007-05-02 06:00;CYYC 020600Z 34005KT 12SM FEW078 BKN120 OVC220 09/03 A2977 RMK AC2AC4CI1 SLP098

CYYC;2007-05-02 07:00;CYYC 020700Z 36006KT 12SM FEW080 BKN120 OVC220 09/02 A2976 RMK AC2AC4CI1 SLP095

CYYC;2007-05-02 08:00;CYYC 020800Z 34008KT 15SM FEW080 BKN130 07/02 A2975 RMK AC1AC2 SLP090

CYYC;2007-05-02 09:00;CYYC 020900Z 35007KT 15SM FEW080 SCT130 BKN240 05/02 A2974 RMK AC1AC2CI1 SLP087

CYYC;2007-05-02 10:00;CYYC 021000Z 32006KT 15SM SCT120 BKN240 04/01 A2973 RMK AC2CI1 SLP084

CYYC;2007-05-02 11:00;CYYC 021100Z 35008KT 15SM FEW080 BKN120 BKN240 04/01 A2971 RMK AC1AC2CI1 SLP078

CYYC;2007-05-02 12:00;CYYC 021200Z 36004KT 15SM FEW080 SCT120 OVC230 04/01 A2969 RMK AC2AC2CI5 SLP069

CYYC;2007-05-02 13:00;CYYC 021300Z 33008KT 20SM FEW085 BKN130 OVC230 05/02 A2966 RMK AC1AC5CI2 SLP061

CYYC;2007-05-02 14:00;CYYC 021400Z 33003KT 20SM FEW110 SCT150 OVC240 07/02 A2967 RMK AC1AC2CI6 SLP065

CYYC;2007-05-02 15:00;CYYC 021500Z 35007KT 15SM FEW050 FEW070 BKN091 OVC240 08/03 A2967 RMK SC1AC1AC6CI2 VIRGA SW-W SLP061

CYYC;2007-05-02 16:00;CYYC 021600Z CCA 30011KT 15SM FEW050 FEW065 BKN078 OVC240 09/03 A2967 RMK SC1SC1AC6CI1 LWR SC TR / VIRGA SLP062

CYYC;2007-05-02 16:11;CYYC 021611Z 29007KT 5SM -SHRA FEW050 FEW065 OVC078 08/ RMK SC1SC1AC7 LWR SC TR

CYYC;2007-05-02 16:53;CYYC 021653Z 35009KT 40SM FEW040 BKN070 BKN140 08/ RMK SC1AC3AC4 SHS NW-SE

CYYC;2007-05-02 17:00;CYYC 021700Z 35009KT 30SM FEW020 BKN070 BKN140 BKN240 08/07 A2966 RMK SC1AC3AC2CI2 SHS NW-S SLP057

CYYC;2007-05-02 18:00;CYYC 021800Z 36012G17KT 20SM FEW010 FEW080 BKN100 OVC210 10/07 A2965 RMK CU1AC2AC3CI2 CF ASOCTD SLP057

CYYC;2007-05-02 19:00;CYYC 021900Z 36010KT 20SM FEW015 BKN100 BKN210 11/07 A2964 RMK CU1AC4CI0 SLP055

CYYC;2007-05-02 20:00;CYYC 022000Z 01009KT 20SM FEW020 SCT110 BKN210 12/07 A2962 RMK CU1AC2CI0 SLP048

CYYC;2007-05-02 21:00;CYYC 022100Z 36007KT 20SM FEW025 BKN080 BKN210 12/07 A2962 RMK SC2AC6CI1 SLP049

CYYC;2007-05-02 22:00;CYYC 022200Z 36006KT 15SM BKN027 BKN055 BKN080 13/07 A2963 RMK SC5SC2AC1 SLP051

CYYC;2007-05-02 23:00;CYYC 022300Z 01009KT 10SM SCT027 BKN060 BKN080 13/07 A2962 RMK SC3SC3AC1 SLP048

CYYC;2007-05-03 00:00;CYYC 030000Z 35009KT 10SM FEW060 FEW100 SCT160 BKN240 13/07 A2960 RMK SC1AC1AC2CI1 SLP042

CYYC;2007-05-03 01:00;CYYC 030100Z 03009KT 15SM FEW060 FEW160 OVC240 13/07 A2961 RMK SC1AC1CI2 SLP045

CYYC;2007-05-03 02:00;CYYC 030200Z 03009KT 15SM FEW050 BKN100 OVC220 11/07 A2963 RMK CU1AC2CI2 SLP050

CYYC;2007-05-03 03:00;CYYC 030300Z 36009KT 12SM SCT080 BKN120 OVC220 09/06 A2964 RMK AC3AC2CI2 SLP056

CYYC;2007-05-03 04:00;CYYC 030400Z 34008KT 12SM SCT088 BKN240 07/06 A2964 RMK AC2CI2 SLP056

CYYC;2007-05-03 05:00;CYYC 030500Z 33010KT 12SM FEW035 SCT088 BKN240 07/05 A2963 RMK SC1AC2CI0 SLP052

CYYC;2007-05-03 06:00;CYYC 030600Z 33008KT 12SM FEW110 BKN240 05/05 A2963 RMK AC1CI2 SLP056

CYYC;2007-05-03 07:00;CYYC 030700Z 35007KT 12SM SCT020 BKN100 BKN240 05/05 A2963 RMK SC3AC2CI1 SLP055

CYYC;2007-05-03 08:00;CYYC 030800Z CCA 34009KT 3SM BR OVC005 06/06 A2962 RMK ST6 SLP052

CYYC;2007-05-03 09:00;CYYC 030900Z 34008KT 3SM BR OVC004 06/06 A2963 RMK ST8 CIG VRB 3-5 SLP050

CYYC;2007-05-03 09:05;CYYC 030905Z 33008KT 1 3/4SM BR OVC002 06/ RMK ST8

CYYC;2007-05-03 10:00;CYYC 031000Z 33008KT 1 3/4SM BR OVC002 06/06 A2963 RMK ST8 SLP051

CYYC;2007-05-03 10:22;CYYC 031022Z 35007KT 2SM BR OVC003 06/ RMK ST7

CYYC;2007-05-03 11:00;CYYC 031100Z 33010KT 2SM BR OVC003 06/05 A2961 RMK ST8 SLP046

CYYC;2007-05-03 11:33;CYYC 031133Z 33012G17KT 4SM BR OVC003 06/ RMK ST7

CYYC;2007-05-03 12:00;CYYC 031200Z 31009KT 3SM BR BKN003 OVC006 06/05 A2961 RMK ST7ST1 VIS 2 W SLP041

CYYC;2007-05-03 12:10;CYYC 031210Z 34013KT 4SM BR SCT004 OVC019 06/ RMK ST3SC5

CYYC;2007-05-03 12:21;CYYC 031221Z 34010KT 4SM BR BKN004 OVC019 06/ RMK ST6SC2

CYYC;2007-05-03 13:00;CYYC 031300Z 34008KT 3SM BR BKN004 OVC020 05/05 A2963 RMK FG2ST5SC1 SLP049

CYYC;2007-05-03 13:48;CYYC 031348Z 34011KT 5SM BR FEW004 BKN020 OVC059 06/ RMK ST2SC2SC4

CYYC;2007-05-03 14:00;CYYC 031400Z 34014KT 6SM BR FEW004 BKN017 OVC059 07/05 A2960 RMK ST0SC5SC3 SLP039

CYYC;2007-05-03 14:35;CYYC 031435Z 34017KT 8SM FEW008 OVC014 07/ RMK ST1SC8

CYYC;2007-05-03 15:00;CYYC 031500Z 35015KT 8SM OVC011 07/04 A2960 RMK SC8 SLP045

CYYC;2007-05-03 15:27;CYYC 031527Z 33016G21KT 15SM -SHRA OVC012 06/ RMK SC8

CYYC;2007-05-03 16:00;CYYC 031600Z 34013KT 4SM RA OVC011 06/05 A2963 RMK SC8 SLP053

CYYC;2007-05-03 16:15;CYYC 031615Z 33015G21KT 3SM RA OVC016 06/ RMK SC8

CYYC;2007-05-03 17:00;CYYC 031700Z 35013G26KT 4SM -RA FEW010 BKN016 OVC035 05/04 A2960 RERA RMK SC1SC4SC3 SLP043

CYYC;2007-05-03 17:20;CYYC 031720Z 35018KT 4SM RA BKN010 OVC016 04/ RMK SC5SC3

CYYC;2007-05-03 17:48;CYYC 031748Z 34013G19KT 4SM RA BKN010 OVC025 04/ RMK SC3SC5

CYYC;2007-05-03 18:00;CYYC 031800Z 35015KT 4SM RA BKN010 OVC025 04/03 A2960 RMK SC3SC5 /R12/ SLP052

CYYC;2007-05-03 18:35;CYYC 031835Z 35020KT 4SM RASN BKN010 OVC025 03/ RMK SC3SC5

CYYC;2007-05-03 19:00;CYYC 031900Z CCA 34015G25KT 4SM RA BKN010 OVC025 04/03 A2956 RMK SC3SC5 /R10/ SLP039

CYYC;2007-05-03 19:11;CYYC 031911Z 36025G30KT 4SM -RA BKN011 OVC025 04/ RERA RMK SC6SC2

CYYC;2007-05-03 20:00;CYYC 032000Z 34015G22KT 4SM -RA BKN012 OVC025 04/04 A2957 RERA RMK SC7SC1 SLP043

CYYC;2007-05-03 21:00;CYYC 032100Z 32017KT 4SM -RA OVC011 03/03 A2958 RMK SC8 SLP047

CYYC;2007-05-03 21:27;CYYC 032127Z CCA 33017KT 2 1/2SM RASN OVC011 02/ RMK SC8

CYYC;2007-05-03 22:00;CYYC 032200Z CCA 32012KT 4SM -RASN SCT006 OVC011 01/M02 A2959 RERA RMK SF0SC8 /R22/ SLP049

CYYC;2007-05-03 22:12;CYYC 032212Z 31015KT 5SM -RA FEW006 OVC020 02/ RERA RMK SF0SC8

CYYC;2007-05-03 23:00;CYYC 032300Z 31015G20KT 5SM -RA FEW005 OVC026 03/02 A2958 RMK SF1SC8 SLP047

CYYC;2007-05-04 00:00;CYYC 040000Z 31016G21KT 15SM -RA FEW005 BKN031 OVC060 04/02 A2956 RMK CF1SC6SC2 SLP039

CYYC;2007-05-04 01:00;CYYC 040100Z 31016G21KT 8SM -RA FEW007 BKN037 OVC045 04/03 A2954 RMK CF1SC6SC2 SLP033

CYYC;2007-05-04 02:00;CYYC 040200Z 31016G21KT 10SM -RA FEW009 OVC039 05/02 A2955 RMK SF1SC8 SLP034

CYYC;2007-05-04 03:00;CYYC 040300Z 31018G25KT 8SM -RA FEW009 OVC040 04/03 A2953 RMK SF1SC8 SLP025

CYYC;2007-05-04 04:00;CYYC 040400Z 31017G22KT 10SM -RA FEW009 OVC045 05/03 A2955 RMK SF1SC8 SLP031

CYYC;2007-05-04 05:00;CYYC 040500Z 31017KT 12SM -RA BKN045 OVC069 05/03 A2954 RMK SC6AC2 SLP028

CYYC;2007-05-04 06:00;CYYC 040600Z 30015KT 12SM -RA OVC044 05/03 A2954 RMK SC8 SLP031

CYYC;2007-05-04 07:00;CYYC 040700Z 28010KT 10SM -RA BKN022 OVC042 05/02 A2953 RMK SC6SC2 SLP029

CYYC;2007-05-04 08:00;CYYC 040800Z 31007KT 10SM -RA BKN039 OVC044 05/01 A2953 RMK SC6SC2 SLP029

CYYC;2007-05-04 09:00;CYYC 040900Z 30010KT 12SM -RA BKN026 OVC040 05/01 A2953 RMK SC6SC2 SLP029

CYYC;2007-05-04 10:00;CYYC 041000Z CCA 32007KT 12SM -RA OVC042 05/02 A2950 RMK SC8 SLP022

CYYC;2007-05-04 11:00;CYYC 041100Z 32010KT 12SM -RA FEW030 OVC061 05/02 A2953 RMK SC2SC6 SLP029

CYYC;2007-05-04 12:00;CYYC 041200Z CCA 30009KT 40SM -RA FEW024 OVC053 05/02 A2953 RMK SC2SC6 SLP031

CYYC;2007-05-04 12:22;CYYC 041222Z 31010KT 40SM FEW024 OVC056 05/ RMK SC1SC7

CYYC;2007-05-04 13:00;CYYC 041300Z CCA 32011KT 40SM FEW022 OVC048 05/02 A2952 RMK SC2SC6 SLP026

CYYC;2007-05-04 14:00;CYYC 041400Z 33014KT 40SM OVC045 05/03 A2953 RMK SC8 DIST SH SW/VIS SW 20 SLP030

CYYC;2007-05-04 14:32;CYYC 041432Z 32011KT 30SM -RA OVC048 05/ RMK SC8

CYYC;2007-05-04 15:00;CYYC 041500Z 31020KT 20SM -RA FEW021 BKN040 OVC052 05/02 A2954 RMK SC2SC2SC3 PCPN VRY LGT SLP032

CYYC;2007-05-04 16:00;CYYC 041600Z 31011G18KT 20SM -RA BKN019 OVC030 05/03 A2952 RMK SC6SC2 PCPN VRY LGT SLP027

CYYC;2007-05-04 17:00;CYYC 041700Z 29014KT 8SM -RA BKN015 OVC030 05/03 A2951 RMK SC6SC2 PCPN VRY LGT SLP023

CYYC;2007-05-04 17:30;CYYC 041730Z 27009KT 8SM -RA BKN009 OVC020 05/ RMK SC5SC3

CYYC;2007-05-04 18:00;CYYC 041800Z 28012KT 10SM -RA FEW011 FEW015 OVC020 05/02 A2950 RMK SC2SC1SC6 SLP018

CYYC;2007-05-04 19:00;CYYC 041900Z 27013KT 6SM -RA FEW012 BKN015 OVC025 04/02 A2950 RMK SC1SC6SC2 SLP018

CYYC;2007-05-04 20:00;CYYC 042000Z 28010G15KT 5SM -RA FEW009 BKN014 OVC020 03/02 A2952 RMK SC2SC2SC3 SLP022

CYYC;2007-05-04 21:00;CYYC 042100Z 27007KT 5SM -RA SCT009 BKN014 OVC020 04/03 A2952 RMK SC4SC2SC2 SLP025

CYYC;2007-05-04 22:00;CYYC 042200Z 25010KT 6SM -RA FEW009 OVC017 04/03 A2953 RMK SC2SC6 SLP028

CYYC;2007-05-04 23:00;CYYC 042300Z 24007KT 6SM -RA SCT011 OVC015 05/03 A2953 RMK SC3SC5 SLP028

CYYC;2007-05-05 00:00;CYYC 050000Z 21007KT 8SM -RA BKN019 OVC025 05/03 A2953 RMK SC5SC3 SLP030

CYYC;2007-05-05 01:00;CYYC 050100Z 20007KT 30SM -RA OVC025 05/03 A2954 RMK SC8 SLP032

CYYC;2007-05-05 02:00;CYYC 050200Z 22006KT 40SM -RA BKN043 OVC060 06/02 A2956 RMK SC7SC1 SLP039

CYYC;2007-05-05 03:00;CYYC 050300Z 27011KT 40SM -RA BKN033 OVC051 06/M00 A2959 RMK SC7SC1 SLP046

CYYC;2007-05-05 04:00;CYYC 050400Z 25012KT 15SM -RA BKN055 OVC071 06/M01 A2961 RMK SC6AC2 SLP054

CYYC;2007-05-05 04:31;CYYC 050431Z 24009KT 15SM BKN062 OVC080 06/ RMK SC6AC2

CYYC;2007-05-05 05:00;CYYC 050500Z CCA 26014KT 15SM BKN059 OVC084 07/M03 A2963 RMK SC6AC2 VIRGA S SLP059

CYYC;2007-05-05 06:00;CYYC 050600Z 18003KT 15SM BKN069 OVC086 06/M01 A2964 RMK AC5AC3 VIRGA S SLP064

CYYC;2007-05-05 07:00;CYYC 050700Z 18010KT 15SM BKN073 OVC096 06/M01 A2967 RMK AC6AC2 VIRGA S SLP075

CYYC;2007-05-05 08:00;CYYC 050800Z 18008KT 15SM BKN073 OVC094 05/00 A2969 RMK AC6AC2 SLP081

CYYC;2007-05-05 09:00;CYYC 050900Z 19009KT 15SM FEW074 OVC100 04/01 A2972 RMK AC1AC8 SLP096

CYYC;2007-05-05 10:00;CYYC 051000Z 23009KT 15SM BKN120 OVC230 05/M01 A2974 RMK AC6CI2 SLP103

CYYC;2007-05-05 11:00;CYYC 051100Z 12004KT 15SM BKN120 OVC230 04/M03 A2977 RMK AC6CI2 SLP112

CYYC;2007-05-05 12:00;CYYC 051200Z 00000KT 40SM SCT120 BKN250 03/M03 A2978 RMK AC3CI1 SLP119

CYYC;2007-05-05 13:00;CYYC 051300Z 25005KT 40SM FEW080 SCT120 BKN250 05/M04 A2981 RMK AC1AC1CI1 SLP126

CYYC;2007-05-05 14:00;CYYC 051400Z 29004KT 40SM FEW030 FEW090 BKN260 07/M04 A2984 RMK SC1AC1CI0 SLP137

CYYC;2007-05-05 15:00;CYYC 051500Z 25010KT 40SM FEW040 FEW080 BKN260 09/M03 A2988 RMK CU1AC1CS1 SLP144

CYYC;2007-05-05 16:00;CYYC 051600Z 26019KT 40SM FEW040 FEW080 SCT260 10/M05 A2991 RMK CU1AC1CS0 SLP152

CYYC;2007-05-05 17:00;CYYC 051700Z 26017KT 40SM FEW050 FEW100 BKN270 11/M03 A2992 RMK CU1AC1CI0 SLP156

CYYC;2007-05-05 18:00;CYYC 051800Z 28010G16KT 40SM FEW068 FEW130 FEW270 12/M05 A2993 RMK CU1AC1CI0 SLP155

CYYC;2007-05-05 19:00;CYYC 051900Z 26009G18KT 40SM SCT077 SCT130 SCT270 13/M05 A2993 RMK CU4AC1CI1 SLP156

CYYC;2007-05-05 20:00;CYYC 052000Z 29011G18KT 40SM FEW077 SCT130 SCT270 13/M05 A2993 RMK CU2AC2CI1 SLP155

CYYC;2007-05-05 21:00;CYYC 052100Z 27009G18KT 40SM FEW077 FEW140 14/M05 A2993 RMK CU1AC1 SLP156

CYYC;2007-05-05 22:00;CYYC 052200Z 30013G19KT 40SM FEW077 FEW140 FEW260 14/M05 A2992 RMK CU1AC1CI1 SLP153

CYYC;2007-05-05 23:00;CYYC 052300Z 27018KT 40SM FEW077 FEW140 FEW260 14/M05 A2993 RMK CU1AC1CI1 SLP155

CYYC;2007-05-06 00:00;CYYC 060000Z 28021KT 40SM FEW077 FEW140 FEW250 13/M06 A2993 RMK CU1AC1CI1 SLP157

CYYC;2007-05-06 01:00;CYYC 060100Z 27020G26KT 40SM FEW077 FEW130 FEW250 12/M06 A2994 RMK CU1AC1CI1 SLP160

CYYC;2007-05-06 02:00;CYYC 060200Z 28020G25KT 40SM FEW080 FEW120 BKN250 11/M07 A2996 RMK AC1AC1CI0 SLP167

CYYC;2007-05-06 03:00;CYYC 060300Z 27011G16KT 40SM FEW080 FEW120 FEW250 09/M06 A2998 RMK AC1AC1CI1 SLP174

CYYC;2007-05-06 04:00;CYYC 060400Z 27012KT 30SM FEW080 FEW120 SCT220 08/M07 A3000 RMK AC1AC1CI0 SLP180

CYYC;2007-05-06 05:00;CYYC 060500Z 28011KT 15SM SCT220 07/M07 A3001 RMK CI0 SLP182

CYYC;2007-05-06 06:00;CYYC 060600Z 30009KT 15SM FEW250 07/M07 A3000 RMK CI0 SLP180

CYYC;2007-05-06 07:00;CYYC 060700Z 30009KT 15SM FEW250 05/M07 A3000 RMK CI0 SLP180

CYYC;2007-05-06 08:00;CYYC 060800Z 33007KT 15SM SKC 03/M06 A3001 RMK SLP182

CYYC;2007-05-06 09:00;CYYC 060900Z 30010KT 15SM SKC 06/M06 A3001 RMK SLP181

CYYC;2007-05-06 10:00;CYYC 061000Z 30008KT 15SM SKC 05/M06 A3000 RMK SLP179

CYYC;2007-05-06 11:00;CYYC 061100Z 31007KT 15SM FEW250 03/M06 A3002 RMK CI0 SLP183

CYYC;2007-05-06 12:00;CYYC 061200Z 23002KT 40SM BKN250 04/M06 A3002 RMK CI0 SLP189

CYYC;2007-05-06 13:00;CYYC 061300Z 00000KT 40SM BKN240 05/M05 A3003 RMK CI0 SLP192

CYYC;2007-05-06 14:00;CYYC 061400Z 00000KT 40SM FEW190 BKN260 08/M03 A3004 RMK AC1CI0 SLP195

CYYC;2007-05-06 15:00;CYYC 061500Z 20003KT 40SM SCT160 BKN250 11/M03 A3006 RMK AC2CI2 SLP197

CYYC;2007-05-06 16:00;CYYC 061600Z 30006KT 40SM FEW160 BKN240 12/M04 A3005 RMK AC1CI2 SLP194

CYYC;2007-05-06 17:00;CYYC 061700Z 34005KT 40SM FEW180 BKN240 12/M05 A3004 RMK AC1CI1 CONTRAILS SLP192

CYYC;2007-05-06 18:00;CYYC 061800Z 28005KT 40SM FEW180 BKN240 14/M05 A3002 RMK AC1CI3 SLP182

CYYC;2007-05-06 19:00;CYYC 061900Z 20008KT 40SM FEW170 BKN240 15/M02 A2999 RMK AC1CI2 SLP174

CYYC;2007-05-06 20:00;CYYC 062000Z 16006KT 40SM FEW150 BKN260 16/M02 A2996 RMK AC1CI2 SLP165

CYYC;2007-05-06 21:00;CYYC 062100Z 16009G15KT 40SM FEW150 FEW260 18/M01 A2992 RMK AC1CI1 SLP146

CYYC;2007-05-06 22:00;CYYC 062200Z 20010KT 40SM FEW150 FEW260 19/M00 A2990 RMK AC1CI1 SLP139

CYYC;2007-05-06 23:00;CYYC 062300Z 27019G29KT 40SM FEW080 FEW180 FEW270 19/M04 A2989 RMK CU1AC1CI1 SLP135

CYYC;2007-05-07 00:00;CYYC 070000Z 27022KT 40SM FEW080 FEW180 FEW270 18/M03 A2988 RMK CU1AC1CI1 SLP133

CYYC;2007-05-07 01:00;CYYC 070100Z 27016G22KT 40SM FEW160 FEW260 18/M03 A2987 RMK AC1CI1 SLP130

CYYC;2007-05-07 02:00;CYYC 070200Z 27020G25KT 40SM FEW080 BKN260 16/M03 A2986 RMK AC1CI0 SLP128

CYYC;2007-05-07 03:00;CYYC 070300Z 28015G22KT 30SM FEW080 FEW200 FEW240 15/M03 A2987 RMK AC1CI1CI0 SLP126

CYYC;2007-05-07 04:00;CYYC 070400Z 27017G22KT 15SM FEW220 BKN250 14/M03 A2989 RMK CI1CI0 SLP131

CYYC;2007-05-07 05:00;CYYC 070500Z 27011KT 15SM BKN250 13/M03 A2992 RMK CI0 SLP139

CYYC;2007-05-07 06:00;CYYC 070600Z 27009KT 15SM SKC 12/M03 A2993 RMK SLP144

CYYC;2007-05-07 07:00;CYYC 070700Z 27010KT 15SM SKC 12/M02 A2995 RMK SLP150

CYYC;2007-05-07 08:00;CYYC 070800Z 26015KT 15SM BKN260 12/M02 A2995 RMK CI2 SLP149

CYYC;2007-05-07 09:00;CYYC 070900Z 22009KT 15SM BKN230 10/M01 A2995 RMK CI6 SLP148

CYYC;2007-05-07 10:00;CYYC 071000Z 23008KT 15SM BKN240 11/M01 A2997 RMK CI4 SLP153

CYYC;2007-05-07 11:00;CYYC 071100Z 22006KT 15SM FEW150 BKN230 11/M01 A2996 RMK AC1CI4 SLP152

CYYC;2007-05-07 12:00;CYYC 071200Z CCA 20005KT 40SM FEW150 BKN240 10/M00 A2996 RMK AC1CI1 SLP151

CYYC;2007-05-07 13:00;CYYC 071300Z 25015G20KT 30SM FEW080 FEW150 BKN240 13/01 A2997 RMK AC1AC1CI3 SLP156

CYYC;2007-05-07 14:00;CYYC 071400Z 23013KT 40SM FEW080 SCT160 BKN250 14/01 A2998 RMK AC1AC2CI2 SLP159

CYYC;2007-05-07 15:00;CYYC 071500Z 23012G17KT 40SM FEW050 FEW080 FEW140 BKN250 16/02 A2998 RMK CU1AC1AC1CI2 CU TR SLP155

CYYC;2007-05-07 16:00;CYYC 071600Z 26017G24KT 40SM FEW050 FEW120 BKN250 17/01 A2998 RMK CU1AC1CI2 CU TR SLP154

CYYC;2007-05-07 17:00;CYYC 071700Z 28016KT 40SM FEW050 FEW120 BKN250 19/00 A2997 RMK CU1AC1CI2 CU TR SLP152

CYYC;2007-05-07 18:00;CYYC 071800Z CCA 24013KT 40SM FEW050 FEW150 OVC250 19/01 A2997 RMK CU1AC1CI5 CU TR SLP151

CYYC;2007-05-07 19:00;CYYC 071900Z 22012G20KT 40SM FEW050 FEW150 BKN250 20/02 A2996 RMK CU1AC1CI5 SLP148

CYYC;2007-05-07 20:00;CYYC 072000Z 25017G27KT 40SM FEW050 FEW150 BKN250 20/01 A2995 RMK CU1AC1CI3 CU TR SLP145

CYYC;2007-05-07 21:00;CYYC 072100Z 26023KT 40SM FEW055 FEW150 BKN250 19/01 A2995 RMK CU1AC1CI3 SLP146

CYYC;2007-05-07 22:00;CYYC 072200Z 26018G27KT 40SM FEW055 FEW160 BKN250 19/01 A2995 RMK CU1AC1CI3 SLP146

CYYC;2007-05-07 23:00;CYYC 072300Z 27015G22KT 40SM FEW060 SCT160 BKN250 20/01 A2994 RMK CU1AC2CI2 CU TR SLP144

CYYC;2007-05-08 00:00;CYYC 080000Z 27014KT 40SM FEW060 SCT180 BKN250 19/01 A2993 RMK CU1AC3CI3 SLP140

CYYC;2007-05-08 01:00;CYYC 080100Z 26013KT 40SM FEW060 SCT140 BKN250 18/01 A2993 RMK CU1AC3CI4 CU TR SLP140

CYYC;2007-05-08 02:00;CYYC 080200Z 26009KT 40SM FEW060 SCT140 OVC250 17/00 A2992 RMK CU1AS3CI4 CU TR SLP137

CYYC;2007-05-08 03:00;CYYC 080300Z 25006KT 40SM FEW080 BKN250 16/M00 A2992 RMK AC1CI6 SLP132

CYYC;2007-05-08 04:00;CYYC 080400Z 25011KT 15SM FEW080 BKN250 15/M01 A2993 RMK AC1CI6 SLP135

CYYC;2007-05-08 05:00;CYYC 080500Z 24009KT 15SM BKN250 13/M00 A2992 RMK CI4 SLP133

CYYC;2007-05-08 06:00;CYYC 080600Z 25007KT 15SM BKN250 11/M01 A2992 RMK CI4 SLP134

CYYC;2007-05-08 07:00;CYYC 080700Z 20007KT 15SM BKN250 11/M01 A2991 RMK CI4 SLP133

CYYC;2007-05-08 08:00;CYYC 080800Z 23009KT 15SM SCT250 10/M01 A2990 RMK CI2 SLP130

CYYC;2007-05-08 09:00;CYYC 080900Z 25005KT 15SM FEW250 11/M02 A2990 RMK CI1 SLP129

CYYC;2007-05-08 10:00;CYYC 081000Z 20008KT 15SM FEW250 07/M01 A2990 RMK CI2 SLP129

CYYC;2007-05-08 11:00;CYYC 081100Z 21006KT 15SM FEW250 09/M03 A2990 RMK CI2 SLP128

CYYC;2007-05-08 12:00;CYYC 081200Z 21007KT 40SM FEW120 SCT250 06/M03 A2990 RMK AC1CI1 SLP135

CYYC;2007-05-08 13:00;CYYC 081300Z 23002KT 40SM FEW120 FEW250 10/M01 A2990 RMK AC1CI0 SLP137

CYYC;2007-05-08 14:00;CYYC 081400Z 18007KT 40SM FEW140 SCT250 13/01 A2990 RMK AC1CI1 SLP137

CYYC;2007-05-08 15:00;CYYC 081500Z 19007KT 40SM FEW160 SCT250 16/01 A2990 RMK AC1CI1 AC TR SLP127

CYYC;2007-05-08 16:00;CYYC 081600Z 20010KT 40SM FEW210 FEW260 18/00 A2988 RMK CI1CI0 SLP120

CYYC;2007-05-08 17:00;CYYC 081700Z 19010KT 40SM FEW210 FEW260 19/M02 A2986 RMK CI1CI0 SLP115

CYYC;2007-05-08 18:00;CYYC 081800Z 16010KT 40SM FEW160 SCT210 BKN260 21/M01 A2984 RMK AC1CI2CI1 AC TR SLP104

CYYC;2007-05-08 19:00;CYYC 081900Z 15007KT 40SM FEW160 FEW210 BKN260 22/00 A2982 RMK AC1CI2CI1 SLP098

CYYC;2007-05-08 20:00;CYYC 082000Z 27010G17KT 40SM FEW060 FEW210 BKN260 23/M04 A2979 RMK CU1CI2CI1 CU TR SLP090

CYYC;2007-05-08 21:00;CYYC 082100Z 28010G17KT 40SM FEW060 FEW220 BKN260 23/M04 A2977 RMK CU1CI2CI1 CU TR SLP078

CYYC;2007-05-08 22:00;CYYC 082200Z 27010G17KT 40SM FEW060 FEW180 BKN260 24/M03 A2975 RMK CU1AC1CI2 SLP071

CYYC;2007-05-08 23:00;CYYC 082300Z 24020G25KT 40SM FEW060 FEW210 SCT260 24/M03 A2972 RMK CU1CI2CI1 CU TR SLP063

CYYC;2007-05-09 00:00;CYYC 090000Z 22021KT 40SM FEW065 FEW210 SCT260 24/M03 A2970 RMK CU1CI2CI0 SLP058

CYYC;2007-05-09 01:00;CYYC 090100Z 21012G17KT 40SM FEW070 FEW130 SCT260 23/M03 A2966 RMK CU1AC1CI2 CU TR SLP046

CYYC;2007-05-09 02:00;CYYC 090200Z 21017KT 30SM FEW060CB FEW120 SCT250 21/M02 A2962 RMK CB1AC1CI1 CB SW-NW SLP033

CYYC;2007-05-09 03:00;CYYC 090300Z 20011G17KT 30SM FEW120 SCT240 19/00 A2960 RMK AC2CI1 TCU ASOCTD N/VIRGA W SLP017

CYYC;2007-05-09 04:00;CYYC 090400Z 27012KT 15SM FEW120 SCT240 17/02 A2961 RMK AC1CI1 SLP021

CYYC;2007-05-09 05:00;CYYC 090500Z 28011G18KT 15SM FEW120 BKN240 15/04 A2960 RMK AC1CI2 SLP018

CYYC;2007-05-09 06:00;CYYC 090600Z 23009KT 15SM FEW120 SCT240 13/05 A2961 RMK AC1CI2 SLP022

CYYC;2007-05-09 07:00;CYYC 090700Z 33012KT 15SM FEW120 SCT240 11/05 A2963 RMK AC1CI2 SLP027

CYYC;2007-05-09 08:00;CYYC 090800Z 27015KT 15SM FEW240 12/03 A2962 RMK CI1 SLP024

CYYC;2007-05-09 09:00;CYYC 090900Z CCA 27015G21KT 15SM FEW240 12/03 A2963 RMK CI1 SLP027

CYYC;2007-05-09 10:00;CYYC 091000Z 30017KT 15SM FEW240 13/02 A2964 RMK CI1 SLP032

CYYC;2007-05-09 11:00;CYYC 091100Z 33018KT 15SM FEW240 08/03 A2971 RMK CI1 SLP051

CYYC;2007-05-09 12:00;CYYC 091200Z 35015G22KT 30SM FEW030 FEW110 FEW260 06/03 A2976 RMK CU1AC1CI1 CU+CI TR SLP080

CYYC;2007-05-09 13:00;CYYC 091300Z 36018KT 40SM FEW050 FEW110 FEW260 06/00 A2980 RMK SC1AC1CI1 SLP093

CYYC;2007-05-09 14:00;CYYC 091400Z 34017G24KT 40SM FEW010 FEW060 FEW080 07/00 A2986 RMK CF1SC1AC1 SLP111

CYYC;2007-05-09 15:00;CYYC 091500Z 34020G28KT 40SM FEW010 FEW040 FEW080 FEW100 08/00 A2989 RMK CF1SC1AC1AC1 SLP132

CYYC;2007-05-09 16:00;CYYC 091600Z 34026G32KT 40SM FEW045 FEW100 FEW270 09/M01 A2992 RMK SC1AC1CI0 SLP140

CYYC;2007-05-09 17:00;CYYC 091700Z 36024G29KT 40SM FEW050 10/M00 A2994 RMK CU1 SLP145

CYYC;2007-05-09 18:00;CYYC 091800Z 01021KT 40SM FEW065 FEW090 11/M01 A2998 RMK SC1ACC1 SLP163

CYYC;2007-05-09 19:00;CYYC 091900Z 36016G24KT 40SM FEW070 FEW260 12/M01 A3000 RMK AC1CI0 SLP169

CYYC;2007-05-09 20:00;CYYC 092000Z 02015G21KT 40SM FEW070 13/00 A3001 RMK AC2 SLP173

CYYC;2007-05-09 21:00;CYYC 092100Z 02011G20KT 40SM BKN067 BKN085 12/M01 A3002 RMK AC6AC1 SLP178

CYYC;2007-05-09 22:00;CYYC 092200Z 03012KT 40SM BKN067 BKN085 14/M00 A3003 RMK AC6AC1 SLP182

CYYC;2007-05-09 23:00;CYYC 092300Z 04011KT 40SM BKN064 11/M01 A3005 RMK SC7 SLP187

CYYC;2007-05-10 00:00;CYYC 100000Z 06011KT 30SM BKN064 BKN080 10/M01 A3007 RMK SC7AC1 SLP206

CYYC;2007-05-10 01:00;CYYC 100100Z 07015KT 30SM BKN063 BKN080 09/00 A3008 RMK SC7AC1 SLP210

CYYC;2007-05-10 02:00;CYYC 100200Z 06008KT 30SM BKN065 BKN080 08/M00 A3009 RMK SC6AC1 SLP212

CYYC;2007-05-10 03:00;CYYC 100300Z 08008KT 30SM SCT065 BKN090 07/M00 A3010 RMK SC3AC2 SLP221

CYYC;2007-05-10 04:00;CYYC 100400Z 09007KT 15SM OVC060 07/01 A3012 RMK SC7 SLP227

CYYC;2007-05-10 05:00;CYYC 100500Z 11010KT 15SM OVC061 07/01 A3014 RMK SC8 SLP232

CYYC;2007-05-10 06:00;CYYC 100600Z 14009KT 15SM BKN062 05/01 A3015 RMK SC6 SLP233

CYYC;2007-05-10 07:00;CYYC 100700Z 15010KT 15SM BKN048 OVC062 05/01 A3015 RMK SC6SC2 SLP234

CYYC;2007-05-10 08:00;CYYC 100800Z 16008KT 15SM OVC050 05/01 A3014 RMK SC8 SLP232

CYYC;2007-05-10 09:00;CYYC 100900Z 16009KT 15SM OVC049 05/01 A3014 RMK SC8 SLP230

CYYC;2007-05-10 10:00;CYYC 101000Z 16009KT 15SM OVC049 04/01 A3013 RMK SC8 SLP227

CYYC;2007-05-10 11:00;CYYC 101100Z 15009KT 15SM SCT050 BKN230 03/01 A3012 RMK SC3CI2 SLP225

CYYC;2007-05-10 12:00;CYYC 101200Z 14009KT 30SM FEW060 BKN250 03/00 A3012 RMK SC2CI1 SLP228

CYYC;2007-05-10 13:00;CYYC 101300Z 14012KT 40SM FEW080 FEW120 FEW250 03/00 A3012 RMK AC1AC1CI0 SLP230

CYYC;2007-05-10 14:00;CYYC 101400Z 16011KT 40SM FEW080 SCT250 04/00 A3011 RMK AC1CI0 SLP227

CYYC;2007-05-10 15:00;CYYC 101500Z 16008KT 40SM FEW080 FEW250 06/01 A3011 RMK AC1CI0 SLP226

CYYC;2007-05-10 16:00;CYYC 101600Z 14011KT 40SM FEW080 FEW250 08/02 A3009 RMK AC1CI0 SLP220

CYYC;2007-05-10 17:00;CYYC 101700Z 13011KT 40SM FEW032 FEW080 BKN250 10/02 A3008 RMK CF1AC1CI0 SLP217

CYYC;2007-05-10 18:00;CYYC 101800Z 15010G17KT 40SM FEW040 FEW080 FEW170 BKN250 13/02 A3007 RMK CU1AC1AC1CI0 SLP204

CYYC;2007-05-10 19:00;CYYC 101900Z 15014G20KT 40SM FEW048 FEW080 FEW170 BKN240 14/01 A3005 RMK CU1AC1AC1CI1 SLP198

CYYC;2007-05-10 20:00;CYYC 102000Z 13012G19KT 40SM FEW048 FEW080 FEW240 14/01 A3004 RMK CU1AC1CI1 SLP194

CYYC;2007-05-10 21:00;CYYC 102100Z 17012KT 30SM FEW052 FEW080 FEW240 15/02 A3003 RMK CU1AC1CI0 SLP189

CYYC;2007-05-10 22:00;CYYC 102200Z 14010G17KT 30SM FEW055 FEW080 FEW240 15/02 A3001 RMK CU1AC1CI1 CU+AC LYRS TR SLP183

CYYC;2007-05-10 23:00;CYYC 102300Z 13010KT 30SM FEW055 FEW080 FEW240 15/02 A3001 RMK CU1AC1CI0 SLP181

CYYC;2007-05-11 00:00;CYYC 110000Z 13010KT 30SM FEW080 FEW240 16/02 A3000 RMK AC1CI0 SLP178

CYYC;2007-05-11 01:00;CYYC 110100Z 13014KT 30SM FEW080 FEW240 15/02 A2999 RMK AC1CI0 SLP177

CYYC;2007-05-11 02:00;CYYC 110200Z 12011KT 30SM FEW085 FEW250 14/02 A3000 RMK AC1CI0 SLP178

CYYC;2007-05-11 03:00;CYYC 110300Z 13010KT 30SM FEW085 FEW250 12/02 A3000 RMK AC1CI0 SLP181

CYYC;2007-05-11 04:00;CYYC 110400Z 11007KT 15SM FEW090 FEW250 09/03 A3002 RMK AC1CI0 SLP185

CYYC;2007-05-11 05:00;CYYC 110500Z 13008KT 15SM SKC 09/03 A3002 RMK SLP186

CYYC;2007-05-11 06:00;CYYC 110600Z 16010KT 15SM SKC 09/03 A3002 RMK SLP180

CYYC;2007-05-11 07:00;CYYC 110700Z 11005KT 15SM SKC 06/03 A3002 RMK SLP179

CYYC;2007-05-11 08:00;CYYC 110800Z 14004KT 15SM SKC 06/02 A3002 RMK SLP179

CYYC;2007-05-11 09:00;CYYC 110900Z 00000KT 15SM SKC 07/03 A3002 RMK SLP181

CYYC;2007-05-11 10:00;CYYC 111000Z 32003KT 15SM SKC 03/01 A3002 RMK SLP182

CYYC;2007-05-11 11:00;CYYC 111100Z 22003KT 20SM FEW210 SCT250 04/01 A3003 RMK CI1CI0 SLP184

CYYC;2007-05-11 12:00;CYYC 111200Z 00000KT 40SM FEW210 SCT250 02/M01 A3003 RMK CI1CI1 SLP189

CYYC;2007-05-11 13:00;CYYC 111300Z 27003KT 40SM FEW210 FEW250 03/00 A3003 RMK CI1CI0 SLP191

CYYC;2007-05-11 14:00;CYYC 111400Z 19002KT 40SM FEW240 06/02 A3004 RMK CI1 SLP193

CYYC;2007-05-11 15:00;CYYC 111500Z 21003KT 40SM FEW240 10/01 A3004 RMK CI1 SLP190

CYYC;2007-05-11 16:00;CYYC 111600Z 20003KT 40SM FEW240 13/01 A3004 RMK CI1 SLP188

CYYC;2007-05-11 17:00;CYYC 111700Z 19003KT 40SM FEW058 16/02 A3004 RMK CU1 SLP189

CYYC;2007-05-11 18:00;CYYC 111800Z 12005KT 40SM FEW085 18/M03 A3003 RMK AC1 SLP177

CYYC;2007-05-11 19:00;CYYC 111900Z 18009KT 40SM FEW090 FEW230 20/M03 A3002 RMK AC1CI0 SLP172

CYYC;2007-05-11 20:00;CYYC 112000Z 16007KT 40SM FEW110 20/M04 A2999 RMK AC1 SLP165

CYYC;2007-05-11 21:00;CYYC 112100Z 18003KT 30SM FEW120 21/M04 A2998 RMK AC1 SLP159

CYYC;2007-05-11 22:00;CYYC 112200Z 30003KT 30SM FEW120 21/M08 A2996 RMK AC1 SLP154

CYYC;2007-05-11 23:00;CYYC 112300Z 28014G19KT 30SM FEW120 22/M06 A2996 RMK AC1 SLP152

CYYC;2007-05-12 00:00;CYYC 120000Z 27010G17KT 30SM FEW120 22/M06 A2995 RMK AC1 SLP157

CYYC;2007-05-12 01:00;CYYC 120100Z 28011KT 30SM FEW120 FEW250 21/M06 A2995 RMK AC1CI1 SLP155

CYYC;2007-05-12 02:00;CYYC 120200Z 28008KT 30SM FEW120 FEW240 19/M05 A2994 RMK AC1CI0 SLP154

CYYC;2007-05-12 03:00;CYYC 120300Z 29007KT 30SM FEW120 FEW240 16/M05 A2995 RMK AC1CI0 SLP152

CYYC;2007-05-12 04:00;CYYC 120400Z 01003KT 15SM FEW240 13/M04 A2996 RMK CI0 SLP155

CYYC;2007-05-12 05:00;CYYC 120500Z 00000KT 15SM FEW240 15/M07 A2996 RMK CI0 SLP154

CYYC;2007-05-12 06:00;CYYC 120600Z 35006KT 15SM FEW240 09/M03 A2995 RMK CI0 SLP150

CYYC;2007-05-12 07:00;CYYC 120700Z 34004KT 15SM SCT210 BKN240 10/M04 A2994 RMK CI4CI0 SLP147

CYYC;2007-05-12 08:00;CYYC 120800Z 29002KT 15SM OVC190 07/M01 A2993 RMK AC8 SLP145

CYYC;2007-05-12 09:00;CYYC 120900Z 25004KT 12SM OVC160 09/M02 A2992 RMK AC8 SLP135

CYYC;2007-05-12 10:00;CYYC 121000Z 34003KT 12SM BKN160 OVC200 07/M02 A2991 RMK AC6CI1 SLP131

CYYC;2007-05-12 11:00;CYYC 121100Z 35002KT 15SM SCT160 BKN190 OVC200 06/M02 A2989 RMK AC4AC2CI1 SLP126

CYYC;2007-05-12 12:00;CYYC 121200Z 20003KT 20SM FEW160 BKN220 07/M03 A2987 RMK AC2CI0 SLP122

CYYC;2007-05-12 13:00;CYYC 121300Z 32003KT 40SM FEW160 FEW180 FEW240 06/M02 A2987 RMK AC1AC1CI1 CONTRAILS SLP122

CYYC;2007-05-12 14:00;CYYC 121400Z 00000KT 40SM FEW240 FEW260 09/M01 A2987 RMK CI1CI0 SLP120

CYYC;2007-05-12 15:00;CYYC 121500Z 21006KT 40SM BKN260 14/01 A2986 RMK CI0 SLP114

CYYC;2007-05-12 16:00;CYYC 121600Z 21006KT 40SM FEW180 BKN260 17/01 A2985 RMK AC1CI1 SLP113

CYYC;2007-05-12 17:00;CYYC 121700Z 24004KT 40SM FEW260 20/M03 A2985 RMK CI1 SLP111

CYYC;2007-05-12 18:00;CYYC 121800Z 29004KT 40SM FEW095 FEW260 20/M04 A2984 RMK AC1CI1 SLP110

CYYC;2007-05-12 19:00;CYYC 121900Z 10004KT 40SM FEW100 FEW260 21/M04 A2983 RMK AC1CI1 SLP105

CYYC;2007-05-12 20:00;CYYC 122000Z 00000KT 40SM FEW100 FEW260 22/M03 A2982 RMK AC1CI1 SLP103

CYYC;2007-05-12 21:00;CYYC 122100Z 30014G20KT 40SM FEW100 FEW260 23/M03 A2981 RMK AC1CI1 SLP094

CYYC;2007-05-12 22:00;CYYC 122200Z 36020G25KT 40SM FEW100 BKN260 21/03 A2982 RMK AC1CI1 SLP098

CYYC;2007-05-12 23:00;CYYC 122300Z 02020G26KT 40SM FEW100 FEW220 BKN260 19/03 A2985 RMK AC1CI0CI1 SLP108

CYYC;2007-05-13 00:00;CYYC 130000Z 03018G24KT 30SM FEW100 FEW220 BKN260 17/03 A2987 RMK AC1CI0CI4 SLP129

CYYC;2007-05-13 01:00;CYYC 130100Z 02020KT 30SM FEW120 SCT220 BKN260 16/02 A2989 RMK AC1CI2CI1 SLP133

CYYC;2007-05-13 02:00;CYYC 130200Z 03017G22KT 20SM FEW120 SCT180 BKN220 OVC240 15/02 A2992 RMK AC2AC2CI2CI1 SLP144

CYYC;2007-05-13 03:00;CYYC 130300Z 02014KT 20SM FEW170 SCT200 BKN240 13/02 A2995 RMK AC2CI1CI0 SLP151

CYYC;2007-05-13 04:00;CYYC 130400Z 02009KT 15SM FEW180 SCT200 BKN220 11/02 A2999 RMK AC2CI2CI0 SLP162

CYYC;2007-05-13 05:00;CYYC 130500Z 01007KT 15SM FEW180 SCT220 08/02 A3001 RMK AC2CI1 SLP168

CYYC;2007-05-13 06:00;CYYC 130600Z 36007KT 15SM FEW180 FEW210 07/01 A3002 RMK AC2CI0 SLP174

CYYC;2007-05-13 07:00;CYYC 130700Z 01005KT 15SM FEW060 FEW180 BKN220 06/01 A3004 RMK SC2AC1CI0 SLP180

CYYC;2007-05-13 08:00;CYYC 130800Z 00000KT 15SM OVC060 07/03 A3008 RMK SC8 SLP194

CYYC;2007-05-13 09:00;CYYC 130900Z 27002KT 15SM OVC064 08/01 A3009 RMK SC8 SLP193

CYYC;2007-05-13 10:00;CYYC 131000Z 26002KT 12SM OVC064 09/01 A3011 RMK SC8 SLP198

CYYC;2007-05-13 11:00;CYYC 131100Z 08005KT 12SM BKN046 OVC064 07/04 A3011 RMK SC6SC2 SLP199

CYYC;2007-05-13 12:00;CYYC 131200Z 08002KT 15SM -RA SCT040 BKN058 BKN064 OVC080 08/00 A3012 RMK SC3SC2SC2AC1 PCPN VRY LGT SLP214

CYYC;2007-05-13 13:00;CYYC 131300Z 23009KT 4SM RA FEW019 BKN026 OVC038 05/04 A3015 RMK SC2SC5SC2 VIS VRB 3-5 SLP222

CYYC;2007-05-13 14:00;CYYC 131400Z 08004KT 8SM -RA BKN030 OVC052 05/03 A3017 RMK SC6SC2 SLP229

CYYC;2007-05-13 15:00;CYYC 131500Z 07006KT 15SM -RA FEW030 OVC047 05/03 A3017 RMK SC1SC7 SLP241

CYYC;2007-05-13 16:00;CYYC 131600Z 05008KT 15SM -RA FEW015 OVC065 06/04 A3015 RMK CF2SC6 SLP234

CYYC;2007-05-13 16:34;CYYC 131634Z 08005KT 15SM FEW020 OVC061 06/ RMK SC2SC6

CYYC;2007-05-13 17:00;CYYC 131700Z 11004KT 20SM FEW030 OVC069 06/03 A3015 RMK SC1AC7 SLP235

CYYC;2007-05-13 18:00;CYYC 131800Z 10004KT 20SM FEW035 OVC076 07/03 A3015 RMK SC2AC6 SLP237

CYYC;2007-05-13 19:00;CYYC 131900Z 12005KT 20SM FEW022 OVC071 08/03 A3013 RMK CF1AC7 SLP233

CYYC;2007-05-13 20:00;CYYC 132000Z 13007KT 20SM FEW035 FEW050 OVC079 09/01 A3011 RMK CU1SC2AC6 SLP227

CYYC;2007-05-13 21:00;CYYC 132100Z 15008KT 20SM FEW035 SCT041 OVC080 09/M00 A3011 RMK CU1SC4AC4 SLP221

CYYC;2007-05-13 21:18;CYYC 132118Z 17008KT 15SM -SHRA FEW027 BKN039 OVC070 08/ RMK CU1SC6AC2

CYYC;2007-05-13 22:00;CYYC 132200Z 16012KT 15SM -SHRA FEW030 BKN064 OVC070 09/01 A3011 RMK CU1SC6AC2 SLP221

CYYC;2007-05-13 22:19;CYYC 132219Z 15014KT 15SM FEW030 BKN065 OVC080 09/ RMK CU1SC6AC2

CYYC;2007-05-13 23:00;CYYC 132300Z 15009KT 15SM FEW035 BKN056 OVC080 09/02 A3011 RMK CU1SC6AC2 SLP219

CYYC;2007-05-14 00:00;CYYC 140000Z 14008KT 15SM FEW035 BKN052 OVC070 08/02 A3010 RMK CU1SC7AC1 SH DIST S SLP219

CYYC;2007-05-14 00:46;CYYC 140046Z 20012KT 10SM -SHRA FEW025 BKN033 OVC060 06/ RMK CU1SC6SC2

CYYC;2007-05-14 01:00;CYYC 140100Z 21011KT 10SM -SHRA FEW025 BKN035 OVC060 06/04 A3011 RMK CU1SC6SC2 SLP222

CYYC;2007-05-14 02:00;CYYC 140200Z 20010KT 8SM -RA FEW020 SCT040 OVC060 05/03 A3013 RMK CF1SC2SC6 SLP227

CYYC;2007-05-14 03:00;CYYC 140300Z 21007KT 8SM -RA FEW018 SCT035 OVC055 04/03 A3014 RMK CF1SC3SC5 SLP241

CYYC;2007-05-14 04:00;CYYC 140400Z 23006KT 15SM -RA FEW011 OVC045 04/03 A3016 RMK ST1SC7 SLP246

CYYC;2007-05-14 05:00;CYYC 140500Z 23005KT 15SM -RA FEW010 BKN049 OVC080 04/03 A3016 RMK ST1SC6AC1 ST TR SLP248

CYYC;2007-05-14 06:00;CYYC 140600Z 25004KT 15SM FEW020 OVC045 04/03 A3018 RMK SC1SC7 SLP251

CYYC;2007-05-14 07:00;CYYC 140700Z 25005KT 15SM BKN045 OVC150 04/02 A3019 RMK SC7AC1 SLP254

CYYC;2007-05-14 08:00;CYYC 140800Z 23007KT 15SM FEW045 SCT150 BKN240 03/01 A3019 RMK SC2AC1CI1 SLP256

CYYC;2007-05-14 09:00;CYYC 140900Z 21005KT 15SM FEW150 FEW240 01/01 A3020 RMK AC1CI1 SLP259

CYYC;2007-05-14 10:00;CYYC 141000Z 22005KT 15SM SKC 01/M01 A3021 RMK SLP264

CYYC;2007-05-14 11:00;CYYC 141100Z 21007KT 15SM FEW150 01/M00 A3023 RMK AC1 SLP270

CYYC;2007-05-14 12:00;CYYC 141200Z 22009KT 8SM BKN140 01/00 A3026 RMK AC3 SLP282

CYYC;2007-05-14 13:00;CYYC 141300Z 23009KT 20SM BKN120 02/01 A3028 RMK AC6 SLP289

CYYC;2007-05-14 14:00;CYYC 141400Z 24007KT 30SM BKN120 04/02 A3030 RMK AC3 SLP295

CYYC;2007-05-14 15:00;CYYC 141500Z 24005KT 40SM FEW100 FEW120 07/03 A3031 RMK AC0AC1 SLP298

CYYC;2007-05-14 16:00;CYYC 141600Z 34007KT 40SM FEW050 FEW120 FEW240 10/03 A3031 RMK SC1AC1CI1 CVCTV CLD DVLPG NW SLP298

CYYC;2007-05-14 17:00;CYYC 141700Z 35006KT 40SM FEW041 FEW120 SCT240 12/02 A3031 RMK CU1AC2CI0 SLP297

CYYC;2007-05-14 18:00;CYYC 141800Z 36004KT 40SM BKN044 BKN120 BKN240 13/01 A3031 RMK CU4AC1CI1 SLP289

CYYC;2007-05-14 19:00;CYYC 141900Z 19002KT 30SM BKN045TCU BKN077 BKN240 12/00 A3030 RMK TCU4AC2CI1 VIRGA SLP287

CYYC;2007-05-14 19:12;CYYC 141912Z 34004KT 30SM -SHRA BKN045TCU BKN077 BKN240 12/ RMK TCU4AC2CI1

CYYC;2007-05-14 19:45;CYYC 141945Z 06004KT 30SM SCT050TCU SCT080 09/ RERA RMK TCU3AC1

CYYC;2007-05-14 20:00;CYYC 142000Z CCA 14002KT 30SM FEW050TCU FEW090 FEW240 11/02 A3030 RERA RMK TCU2AC1CI1 SHS DIST ALQDS SLP286

CYYC;2007-05-14 21:00;CYYC 142100Z 07002KT 30SM SCT060 BKN090 13/02 A3029 RMK SC4AC1 SHS DIST ALQDS / CVCTV CLDS EMBD SLP286

CYYC;2007-05-14 21:11;CYYC 142111Z 02003KT 30SM -SHRA BKN064 BKN090 13/ RMK SC5AC1 CVCTV CLDS EMBD

CYYC;2007-05-14 22:00;CYYC 142200Z 30005KT 30SM -SHRA BKN061 BKN090 13/02 A3030 RMK SC7AC1 CVCTV CLDS EMBD SLP288

CYYC;2007-05-14 22:48;CYYC 142248Z 13007KT 30SM FEW061 SCT090 SCT220 13/ RMK SC2AC0CI0

CYYC;2007-05-14 23:00;CYYC 142300Z 13006KT 30SM FEW061 SCT090 SCT220 13/04 A3028 RMK SC2AC0CI1 CVCTV CLD ASOCTD SLP284

CYYC;2007-05-15 00:00;CYYC 150000Z 00000KT 30SM FEW061 BKN073 13/01 A3028 RMK SC1AC3 SHS DIST NW-NE SLP285

CYYC;2007-05-15 01:00;CYYC 150100Z 09005KT 30SM FEW061 BKN073 BKN100 13/02 A3028 RMK SC1AC2AC1 SLP284

CYYC;2007-05-15 02:00;CYYC 150200Z 11006KT 20SM FEW060 11/03 A3028 RMK SC2 SLP284

CYYC;2007-05-15 03:00;CYYC 150300Z 12005KT 20SM FEW060 SCT250 10/03 A3029 RMK SC1CI2 CONTRAILS SLP282

CYYC;2007-05-15 04:00;CYYC 150400Z 13006KT 10SM FEW060 FEW250 08/03 A3029 RMK SC1CI0 SLP284

CYYC;2007-05-15 05:00;CYYC 150500Z 17007KT 15SM BKN240 07/04 A3029 RMK CI0 SLP284

CYYC;2007-05-15 06:00;CYYC 150600Z 18004KT 15SM FEW240 06/03 A3029 RMK CI0 SLP279

CYYC;2007-05-15 07:00;CYYC 150700Z 20004KT 15SM FEW055 SCT160 BKN240 07/03 A3029 RMK SC1AC3CI0 SLP281

CYYC;2007-05-15 08:00;CYYC 150800Z 21005KT 15SM FEW150 SCT240 06/03 A3029 RMK AC2CI0 SLP280

CYYC;2007-05-15 09:00;CYYC 150900Z 20004KT 15SM SKC 06/03 A3028 RMK SLP275

CYYC;2007-05-15 10:00;CYYC 151000Z 00000KT 15SM FEW160 05/03 A3028 RMK AC1 SLP276

CYYC;2007-05-15 11:00;CYYC 151100Z 00000KT 15SM FEW160 04/02 A3027 RMK AC1 SLP274

CYYC;2007-05-15 12:00;CYYC 151200Z CCA 33007KT 10SM FEW160 BKN260 01/00 A3026 RMK AC1CI3 SLP277

CYYC;2007-05-15 13:00;CYYC 151300Z 00000KT 30SM FEW160 FEW220 FEW250 03/01 A3026 RMK AC1CI1CI1 AC+CI TR SLP277

CYYC;2007-05-15 14:00;CYYC 151400Z 00000KT 40SM FEW120 06/03 A3027 RMK AC1 SLP280

CYYC;2007-05-15 15:00;CYYC 151500Z 19002KT 40SM SKC 10/04 A3027 RMK SLP272

CYYC;2007-05-15 16:00;CYYC 151600Z 19002KT 40SM FEW040 12/03 A3026 RMK CU1 SLP270

CYYC;2007-05-15 17:00;CYYC 151700Z 20004KT 40SM FEW045 FEW260 15/04 A3026 RMK CU1CI1 SLP267

CYYC;2007-05-15 18:00;CYYC 151800Z 20008KT 40SM FEW060 16/01 A3025 RMK CU1 SLP261

CYYC;2007-05-15 19:00;CYYC 151900Z 18003KT 40SM FEW068 17/00 A3024 RMK CU1 SLP257

CYYC;2007-05-15 20:00;CYYC 152000Z 20004KT 40SM FEW070 17/M00 A3022 RMK CU1 SLP253

CYYC;2007-05-15 21:00;CYYC 152100Z 18007KT 30SM FEW072 FEW250 18/01 A3021 RMK CU1CI1 SLP243

CYYC;2007-05-15 22:00;CYYC 152200Z 04003KT 30SM FEW075 FEW230 18/M01 A3019 RMK CU1CI0 SLP238

CYYC;2007-05-15 23:00;CYYC 152300Z 15006KT 30SM FEW080 SCT230 19/00 A3017 RMK AC1CI0 SLP233

CYYC;2007-05-16 00:00;CYYC 160000Z 16008KT 30SM FEW080 FEW230 19/01 A3016 RMK AC1CI0 SLP232

CYYC;2007-05-16 01:00;CYYC 160100Z 13007KT 30SM FEW080 BKN250 18/02 A3014 RMK AC1CI0 SLP227

CYYC;2007-05-16 02:00;CYYC 160200Z 17010KT 30SM FEW080 BKN250 17/M00 A3013 RMK AC1CI0 SLP224

CYYC;2007-05-16 03:00;CYYC 160300Z 15008KT 30SM FEW080 BKN250 15/01 A3013 RMK AC1CI2 SLP215

CYYC;2007-05-16 04:00;CYYC 160400Z 14011KT 10SM BKN240 13/03 A3014 RMK CI2 SLP218

CYYC;2007-05-16 05:00;CYYC 160500Z 15015KT 15SM BKN240 12/03 A3014 RMK CI4 SLP217

CYYC;2007-05-16 06:00;CYYC 160600Z 16010KT 15SM SCT240 11/03 A3013 RMK CI2 SLP215

CYYC;2007-05-16 07:00;CYYC 160700Z 17012KT 15SM BKN260 11/03 A3012 RMK CI4 SLP212

CYYC;2007-05-16 08:00;CYYC 160800Z 17009KT 15SM BKN260 10/02 A3012 RMK CI4 SLP212

CYYC;2007-05-16 09:00;CYYC 160900Z 17010KT 15SM BKN240 09/02 A3008 RMK CI2 SLP194

CYYC;2007-05-16 10:00;CYYC 161000Z 18007KT 15SM FEW240 08/03 A3006 RMK CI1 SLP188

CYYC;2007-05-16 11:00;CYYC 161100Z 18008KT 15SM FEW240 07/03 A3005 RMK CI2 SLP185

CYYC;2007-05-16 12:00;CYYC 161200Z 19006KT 20SM BKN230 06/03 A3004 RMK CI2 SLP184

CYYC;2007-05-16 13:00;CYYC 161300Z 18005KT 20SM OVC250 08/04 A3003 RMK CI4 SLP182

CYYC;2007-05-16 14:00;CYYC 161400Z 21006KT 20SM FEW220 BKN250 08/04 A3002 RMK CI2CS2 SLP177

CYYC;2007-05-16 15:00;CYYC 161500Z 22006KT 20SM FEW220 BKN250 11/04 A3001 RMK CI2CS2 SLP173

CYYC;2007-05-16 16:00;CYYC 161600Z 18005KT 30SM FEW200 BKN250 14/05 A3000 RMK CI1CI2 SLP169

CYYC;2007-05-16 17:00;CYYC 161700Z 16006KT 30SM FEW200 BKN250 16/05 A2998 RMK CI1CI1 SLP163

CYYC;2007-05-16 18:00;CYYC 161800Z 18008KT 30SM FEW200 BKN250 19/06 A2996 RMK CI1CI1 SLP151

CYYC;2007-05-16 19:00;CYYC 161900Z 15005KT 30SM FEW070 BKN250 21/04 A2994 RMK AC1CI1 SLP144

CYYC;2007-05-16 20:00;CYYC 162000Z 23006G15KT 30SM FEW085 BKN250 23/00 A2991 RMK AC1CI0 SLP136

CYYC;2007-05-16 21:00;CYYC 162100Z 25010G17KT 30SM FEW100 FEW260 24/M02 A2989 RMK AC1CI1 SLP120

CYYC;2007-05-16 22:00;CYYC 162200Z 26011G18KT 30SM FEW100 SCT250 24/M02 A2987 RMK AC1CI1 SLP115

CYYC;2007-05-16 23:00;CYYC 162300Z 27012G20KT 30SM FEW120 SCT190 BKN250 23/M02 A2985 RMK AC1AC2CI1 SLP110

CYYC;2007-05-17 00:00;CYYC 170000Z 28010G15KT 30SM FEW120 BKN220 BKN250 22/M01 A2985 RMK AC1CI5CI1 AC LYR TR SLP114

CYYC;2007-05-17 01:00;CYYC 170100Z 26007KT 30SM FEW120 BKN220 BKN250 21/02 A2984 RMK AC1CI7CI1 SLP109

CYYC;2007-05-17 02:00;CYYC 170200Z 24009KT 30SM FEW080 SCT120 BKN240 21/01 A2982 RMK AC1AC2CI4 SLP105

CYYC;2007-05-17 03:00;CYYC 170300Z 25006KT 30SM FEW080 SCT120 BKN240 19/01 A2983 RMK AC1AC2CI2 SLP103

CYYC;2007-05-17 04:00;CYYC 170400Z 25008KT 15SM FEW085 BKN120 BKN240 17/02 A2984 RMK AC1AC3CI2 SLP105

CYYC;2007-05-17 05:00;CYYC 170500Z 22006KT 15SM FEW120 14/00 A2984 RMK AC1 SLP106

CYYC;2007-05-17 06:00;CYYC 170600Z 28003KT 15SM FEW240 15/00 A2984 RMK CI1 CI TR SLP101

CYYC;2007-05-17 07:00;CYYC 170700Z 33006KT 15SM FEW240 11/01 A2984 RMK CI1 CI TR SLP102

CYYC;2007-05-17 08:00;CYYC 170800Z 00000KT 15SM SKC 11/01 A2984 RMK SLP102

CYYC;2007-05-17 09:00;CYYC 170900Z 30003KT 15SM SKC 10/02 A2984 RMK SLP101

CYYC;2007-05-17 10:00;CYYC 171000Z 05005KT 15SM SCT250 07/03 A2984 RMK CI2 SLP103

CYYC;2007-05-17 11:00;CYYC 171100Z 34002KT 15SM BKN250 10/01 A2985 RMK CI3 SLP105

CYYC;2007-05-17 12:00;CYYC 171200Z 33002KT 20SM FEW085 OVC240 07/02 A2986 RMK AC2CI6 SLP116

CYYC;2007-05-17 13:00;CYYC 171300Z 34002KT 20SM FEW085 OVC240 08/04 A2987 RMK AC1CI6 SLP118

CYYC;2007-05-17 14:00;CYYC 171400Z 01003KT 20SM FEW060 FEW085 FEW200 OVC220 11/05 A2988 RMK SC1AC1CI2CI3 SC TR SLP121

CYYC;2007-05-17 15:00;CYYC 171500Z 26002KT 20SM FEW065 FEW200 BKN240 15/05 A2988 RMK SC1CI2CI4 HZ/SC TR SLP117

CYYC;2007-05-17 16:00;CYYC 171600Z 10003KT 20SM FEW120 FEW180 BKN210 18/03 A2988 RMK AC1AC0CI1 HZ SLP117

CYYC;2007-05-17 17:00;CYYC 171700Z 08005KT 20SM FEW140 BKN220 19/02 A2988 RMK AC1CI1 HZ/AC TR SLP115

CYYC;2007-05-17 18:00;CYYC 171800Z CCA 15007KT 20SM FEW140 BKN240 20/02 A2987 RMK AC1CI1 HZ/AC TR SLP110

CYYC;2007-05-17 19:00;CYYC 171900Z 15005KT 20SM FEW170 BKN240 21/02 A2985 RMK AC2CI1 HZ SLP104

CYYC;2007-05-17 20:00;CYYC 172000Z 09004KT 20SM FEW050 FEW120 SCT200 BKN240 22/03 A2983 RMK SC1AC1CI3CI1 HZ/ SC+AC TR SLP098

CYYC;2007-05-17 21:00;CYYC 172100Z 14009KT 20SM FEW065 FEW082 SCT140 BKN190 BKN220 23/04 A2981 RMK CU1AC1AC2AC2CI0 HZ SLP092

CYYC;2007-05-17 22:00;CYYC 172200Z 13009KT 20SM FEW050 SCT090 SCT180 BKN210 23/05 A2979 RMK CU1AC2AC1CI0 HZ SLP087

CYYC;2007-05-17 23:00;CYYC 172300Z 20009G15KT 25SM FEW065 SCT090 SCT180 BKN220 BKN240 23/05 A2978 RMK CU1AC2AC1CI2CI0 HZ SLP084

CYYC;2007-05-18 00:00;CYYC 180000Z 20009KT 30SM FEW065 FEW082 BKN160 OVC220 22/05 A2977 RMK CU1AC2AC2CI2 HZ SLP083

CYYC;2007-05-18 01:00;CYYC 180100Z 22011KT 30SM FEW065 BKN150 BKN190 OVC220 21/02 A2976 RMK CU1AS4AC1CI2 HZ SLP081

CYYC;2007-05-18 02:00;CYYC 180200Z 29010KT 30SM FEW060 SCT160 OVC240 20/00 A2977 RMK CU1AC3CI3 SLP084

CYYC;2007-05-18 03:00;CYYC 180300Z 31006KT 30SM FEW060 SCT120 BKN210 18/00 A2977 RMK CU1AC2CI2 SLP080

CYYC;2007-05-18 04:00;CYYC 180400Z 01004KT 20SM FEW060 BKN180 BKN210 17/01 A2978 RMK CU1AC5CI2 SLP082

CYYC;2007-05-18 05:00;CYYC 180500Z 33009KT 15SM FEW120 SCT230 14/05 A2981 RMK AC2CI1 SLP090

CYYC;2007-05-18 06:00;CYYC 180600Z 34017KT 15SM FEW120 12/05 A2984 RMK AC1 SLP102

CYYC;2007-05-18 07:00;CYYC 180700Z 35018G23KT 15SM FEW120 FEW230 11/05 A2986 RMK AC1CI1 SLP111

CYYC;2007-05-18 08:00;CYYC 180800Z 34015G20KT 15SM BKN110 09/05 A2990 RMK AC3 SLP122

CYYC;2007-05-18 09:00;CYYC 180900Z CCA 34014G19KT 15SM BKN120 08/05 A2992 RMK AC4 SLP133

CYYC;2007-05-18 10:00;CYYC 181000Z 34011KT 15SM SCT120 SCT230 07/05 A2993 RMK AC1CI1 SLP138

CYYC;2007-05-18 11:00;CYYC 181100Z 33012KT 15SM FEW120 FEW230 06/04 A2996 RMK AC1CI1 SLP146

CYYC;2007-05-18 12:00;CYYC 181200Z 34012KT 20SM BKN024 OVC120 07/04 A2997 RMK SC6AC2 SLP155

CYYC;2007-05-18 13:00;CYYC 181300Z 35014KT 20SM OVC020 07/04 A2999 RMK SC8 SLP160

CYYC;2007-05-18 14:00;CYYC 181400Z 34011KT 20SM OVC017 08/04 A3001 RMK SC8 SLP166

CYYC;2007-05-18 15:00;CYYC 181500Z 35012KT 20SM OVC014 08/04 A3001 RMK SC8 SLP173

CYYC;2007-05-18 16:00;CYYC 181600Z 34010KT 20SM BKN011 OVC013 07/05 A3003 RMK SC5SC3 SLP178

CYYC;2007-05-18 16:39;CYYC 181639Z 36009KT 7SM FEW005 SCT007 OVC012 07/ RMK SC1SC3SC4

CYYC;2007-05-18 16:47;CYYC 181647Z 35008KT 8SM BKN006 OVC012 08/ RMK SC6SC2

CYYC;2007-05-18 17:00;CYYC 181700Z 36009KT 10SM OVC006 07/06 A3004 RMK SC8 SLP182

CYYC;2007-05-18 18:00;CYYC 181800Z 36009KT 8SM OVC008 08/06 A3006 RMK SC8 BR SLP196

CYYC;2007-05-18 19:00;CYYC 181900Z 03009KT 10SM OVC009 09/07 A3005 RMK SC8 BR SLP195

CYYC;2007-05-18 20:00;CYYC 182000Z 04008KT 10SM SCT009 OVC020 10/07 A3006 RMK SC4SC4 BR SLP197

CYYC;2007-05-18 21:00;CYYC 182100Z 04006KT 15SM FEW012 OVC019 10/08 A3006 RMK SC2SC6 SLP201

CYYC;2007-05-18 22:00;CYYC 182200Z 09005KT 15SM FEW014 OVC020 10/06 A3006 RMK SC2SC6 SLP201

CYYC;2007-05-18 23:00;CYYC 182300Z 09008KT 15SM SCT019 OVC027 11/07 A3006 RMK SC4SC4 SLP202

CYYC;2007-05-19 00:00;CYYC 190000Z 09009KT 20SM FEW022 OVC030 11/06 A3006 RMK SC2SC6 SLP200

CYYC;2007-05-19 01:00;CYYC 190100Z 08006KT 20SM OVC032 11/06 A3006 RMK SC8 SLP199

CYYC;2007-05-19 02:00;CYYC 190200Z 05003KT 15SM OVC042 10/07 A3004 RMK SC8 SLP194

CYYC;2007-05-19 03:00;CYYC 190300Z 14003KT 12SM OVC033 11/07 A3005 RMK SC8 SLP195

CYYC;2007-05-19 04:00;CYYC 190400Z 11010KT 12SM OVC036 11/06 A3005 RMK SC8 SLP195

CYYC;2007-05-19 05:00;CYYC 190500Z 12018G24KT 12SM OVC038 10/03 A3004 RMK SC8 SLP193

CYYC;2007-05-19 06:00;CYYC 190600Z 13014G20KT 15SM OVC037 09/03 A3004 RMK SC8 SLP195

CYYC;2007-05-19 07:00;CYYC 190700Z 14015G20KT 15SM OVC034 08/02 A3003 RMK SC8 SLP193

CYYC;2007-05-19 08:00;CYYC 190800Z 15017G24KT 15SM OVC035 07/02 A3001 RMK SC8 SLP187

CYYC;2007-05-19 09:00;CYYC 190900Z 15014G19KT 15SM OVC045 06/02 A2999 RMK SC8 SLP178

CYYC;2007-05-19 10:00;CYYC 191000Z 15012KT 15SM OVC041 06/02 A2997 RMK SC8 SLP173

CYYC;2007-05-19 11:00;CYYC 191100Z 17014G19KT 15SM FEW017 BKN050 OVC150 05/02 A2996 RMK SC1SC4AC2 SLP169

CYYC;2007-05-19 12:00;CYYC 191200Z 15013KT 20SM BKN055 OVC150 04/02 A2993 RMK SC5AC3 SLP160

CYYC;2007-05-19 13:00;CYYC 191300Z 14009KT 15SM FEW080 OVC190 04/02 A2989 RMK AC2AC6 SLP149

CYYC;2007-05-19 13:56;CYYC 191356Z 15008KT 15SM BKN011 BKN030 OVC200 05/ RMK SC5SC2CI1

CYYC;2007-05-19 14:00;CYYC 191400Z 15008KT 15SM BKN011 BKN030 OVC200 05/03 A2990 RMK SC6SC2CI1 SLP151

CYYC;2007-05-19 14:40;CYYC 191440Z 17010KT 15SM SCT012 SCT040 SCT120 OVC220 07/ RMK SC3SC1AC1CI2

CYYC;2007-05-19 15:00;CYYC 191500Z 17009KT 15SM FEW012 FEW040 SCT120 BKN200 08/04 A2987 RMK SC1SC2AC2CI2 VIRGA E-S SLP135

CYYC;2007-05-19 16:00;CYYC 191600Z 18010G15KT 30SM FEW016 FEW120 BKN170 09/05 A2985 RMK CU1AC1AC6 SLP130

CYYC;2007-05-19 17:00;CYYC 191700Z 16011KT 30SM FEW016 FEW100 BKN150 09/05 A2983 RMK CU1AC1AC6 SLP122

CYYC;2007-05-19 18:00;CYYC 191800Z 17015KT 30SM FEW016 FEW090 BKN140 09/06 A2981 RMK CU1AC1AC6 SLP112

CYYC;2007-05-19 19:00;CYYC 191900Z 16015KT 30SM FEW016 BKN150 BKN200 11/07 A2979 RMK CU1AC6CI2 SLP107

CYYC;2007-05-19 20:00;CYYC 192000Z CCA 17016KT 30SM FEW020 SCT150 BKN200 14/08 A2975 RMK CU2AC1CI1 VIRGA SE SLP095

CYYC;2007-05-19 21:00;CYYC 192100Z 18016KT 30SM FEW040 FEW130 BKN240 18/08 A2972 RMK CU1AC1CI1 CC ASOCTD SLP075

CYYC;2007-05-19 22:00;CYYC 192200Z CCA 18012G21KT 40SM SCT040TCU BKN094 BKN240 19/06 A2970 RMK TCU3AC2CI1 SH SW+NW-NE SLP070

CYYC;2007-05-19 22:27;CYYC 192227Z 35024G29KT 5SM BLDU BKN040TCU BKN080 BKN240 12/ RMK TCU5AC2CI1 SH NW-NE / VIS SW-NW 30 / WSHFT 2220Z

CYYC;2007-05-19 22:37;CYYC 192237Z 36023G30KT 30SM -SHRA SCT044TCU BKN080 BKN240 12/ RMK TCU4AC1CI1 VIS N-SE 10 / CB EMBD NE

CYYC;2007-05-19 22:48;CYYC 192248Z 36023G28KT 30SM FEW044TCU FEW080 FEW260 13/ RMK TCU2AC1CI1 SH NW-SE

CYYC;2007-05-19 23:00;CYYC 192300Z 36020G26KT 30SM FEW044TCU FEW085 SCT260 13/07 A2974 RMK TCU2AC1CI0 SH NW-SE / PRESRR PAST HR SLP082

CYYC;2007-05-20 00:00;CYYC 200000Z 01013G22KT 30SM FEW044TCU SCT087 BKN270 13/08 A2976 RMK TCU2AC2CI0 SH NE+SE SLP099

CYYC;2007-05-20 01:00;CYYC 200100Z 02012KT 40SM FEW044TCU BKN078 BKN250 11/07 A2978 RMK TCU2AC2CI1 SCT SH ALQDS SLP105

CYYC;2007-05-20 02:00;CYYC 200200Z 03007KT 30SM VCSH FEW045 BKN081 BKN240 10/06 A2980 RMK CU2AC4CI1 SH ALQDS SLP110

CYYC;2007-05-20 03:00;CYYC 200300Z 03008KT 30SM FEW045 SCT090 BKN250 09/06 A2979 RMK CU2AC2CI1 VIRGA S SLP110

CYYC;2007-05-20 04:00;CYYC 200400Z 31002KT 15SM FEW050 SCT090 BKN250 07/05 A2981 RMK SC1AC2CI1 SLP115

CYYC;2007-05-20 05:00;CYYC 200500Z 00000KT 15SM FEW090 SCT240 07/05 A2981 RMK AC2CI0 SLP115

CYYC;2007-05-20 06:00;CYYC 200600Z 23004KT 15SM FEW090 FEW240 06/03 A2981 RMK AC1CI0 SLP117

CYYC;2007-05-20 07:00;CYYC 200700Z 22007KT 15SM FEW150 FEW240 06/04 A2981 RMK AC1CI0 SLP117

CYYC;2007-05-20 08:00;CYYC 200800Z 00000KT 15SM FEW240 07/01 A2981 RMK CI0 SLP117

CYYC;2007-05-20 09:00;CYYC 200900Z 23005KT 15SM FEW240 06/00 A2981 RMK CI0 SLP106

CYYC;2007-05-20 10:00;CYYC 201000Z 24012KT 15SM FEW120 FEW240 07/00 A2980 RMK AC1CI0 SLP103

CYYC;2007-05-20 11:00;CYYC 201100Z 31007KT 15SM FEW080 BKN110 07/M01 A2982 RMK AC1AC4 SLP108

CYYC;2007-05-20 12:00;CYYC 201200Z 34009KT 40SM FEW080 BKN110 05/01 A2984 RMK AC2AC2 SLP124

CYYC;2007-05-20 12:52;CYYC 201252Z CCA 35009KT 8SM BKN007 OVC040 06/ RMK ST6SC2 FOG BANK ALQDS

CYYC;2007-05-20 13:00;CYYC 201300Z 36011KT 7SM VCFG BKN006 OVC035 06/05 A2986 RMK ST6SC2 FOG BANK ALQDS SLP130

CYYC;2007-05-20 13:26;CYYC 201326Z 01010KT 6SM BR SCT006 BKN013 OVC030 06/ RMK ST4SC3SC1

CYYC;2007-05-20 13:42;CYYC 201342Z 36009KT 5SM BR BKN005 07/ RMK SC7

CYYC;2007-05-20 14:00;CYYC 201400Z 36008KT 5SM BR OVC005 07/06 A2986 RMK SC8 SLP131

CYYC;2007-05-20 15:00;CYYC 201500Z 36004KT 6SM BR BKN010 08/05 A2986 RMK SC7 SLP135

CYYC;2007-05-20 16:00;CYYC 201600Z 36004KT 7SM BKN015 BKN025 BKN070 09/06 A2986 RMK SC5SC1AC1 SLP134

CYYC;2007-05-20 17:00;CYYC 201700Z 35003KT 9SM SCT020 SCT050 BKN082 10/05 A2985 RMK CU3SC1AC2 TCU ASOCTD SLP130

CYYC;2007-05-20 18:00;CYYC 201800Z CCA 35005KT 20SM VCSH SCT030TCU BKN080 BKN095 12/03 A2983 RMK TCU3AC2AC2 SH SW+N+E SLP119

CYYC;2007-05-20 19:00;CYYC 201900Z 07009KT 20SM BKN033TCU BKN080 12/04 A2982 RMK TCU5AC1 SH ALQDS / CB EMBD E SLP117

CYYC;2007-05-20 19:44;CYYC 201944Z 06008KT 20SM -SHRA BKN033TCU BKN047 09/ RMK TCU5SC2

CYYC;2007-05-20 20:00;CYYC 202000Z 04003KT 7SM -SHRA BKN039TCU 09/05 A2983 RMK TCU7 SLP120

CYYC;2007-05-20 20:47;CYYC 202047Z 08006KT 20SM SCT039TCU BKN160 BKN220 11/ RMK TCU3AC3CS1 SH ALQDS

CYYC;2007-05-20 21:00;CYYC 202100Z 05003KT 20SM SCT039TCU BKN066 BKN180 11/05 A2980 RMK TCU4AC2AC2 SH N-SW SLP111

CYYC;2007-05-20 21:33;CYYC 202133Z 16004KT 15SM -SHRA SCT039TCU BKN060 10/ RMK TCU4SC3

CYYC;2007-05-20 21:52;CYYC 202152Z 19004KT 15SM SCT039TCU BKN060 OVC100 11/ RMK TCU3SC1AC3 SCT SH ALQDS / CB SE+W

CYYC;2007-05-20 22:00;CYYC 202200Z 14006KT 20SM SCT039TCU BKN100 OVC220 11/03 A2978 RMK TCU3AC3CS1 SCT SH ALQDS / CB SE+W SLP105

CYYC;2007-05-20 23:00;CYYC 202300Z 11007KT 20SM FEW039TCU BKN130 OVC160 12/04 A2976 RMK TCU2AC5AC1 SH E+SW SLP100

CYYC;2007-05-21 00:00;CYYC 210000Z 08008KT 20SM FEW039TCU SCT069 OVC130 12/05 A2975 RMK TCU1AC3AC4 SH S-W SLP094

CYYC;2007-05-21 00:53;CYYC 210053Z 07013KT 20SM TS VCSH SCT035CB BKN041 OVC130 10/ RMK CB3SC2AC2 SH ALQDS / LTGCG W

CYYC;2007-05-21 01:00;CYYC 210100Z 08012KT 15SM TS VCSH SCT035CB BKN041 OVC080 10/05 A2974 RMK CB4SC2AC2 SH ALQDS / LTGCG W SLP093

CYYC;2007-05-21 02:00;CYYC 210200Z 05003KT 5SM -TSRA BKN020CB OVC080 09/05 A2976 RMK CB6AC1 LTGCG / VIS N-SE 15 SLP097

CYYC;2007-05-21 03:00;CYYC 210300Z 02009KT 5SM RA OVC030 07/06 A2977 RETS RMK SC8 SLP105

CYYC;2007-05-21 03:08;CYYC 210308Z 02009KT 2 1/2SM RA SCT015 OVC030 07/ RMK SC2SC6

CYYC;2007-05-21 04:00;CYYC 210400Z 02013KT 2 1/2SM RA OVC030 06/06 A2979 RMK SC8 SLP109

CYYC;2007-05-21 05:00;CYYC 210500Z 01011KT 3SM RA OVC032 06/05 A2978 RMK SC8 SLP107

CYYC;2007-05-21 06:00;CYYC 210600Z CCA 01006KT 2 1/2SM RA SCT010 OVC030 06/06 A2977 RMK SC2SC6 /R10/ SLP101

CYYC;2007-05-21 06:29;CYYC 210629Z CCA 02009KT 3SM -RA BKN012 OVC020 06/ RERA RMK SC6SC2

CYYC;2007-05-21 07:00;CYYC 210700Z 02007KT 4SM -RA BKN010 OVC020 06/06 A2977 RERA RMK SC6SC2 SLP100

CYYC;2007-05-21 08:00;CYYC 210800Z 10007KT 4SM -RA BKN015 OVC020 06/02 A2977 RERA RMK SC6SC2 SLP100

CYYC;2007-05-21 09:00;CYYC 210900Z 01014KT 5SM -RA SCT010 BKN020 OVC040 05/04 A2977 RMK SC2SC4SC2 WSHFT 0857 SLP104

CYYC;2007-05-21 10:00;CYYC 211000Z 36016G22KT 6SM -RA BKN010 OVC020 03/03 A2979 RMK SC4SC4 SLP108

CYYC;2007-05-21 11:00;CYYC 211100Z 35014G20KT 6SM -RA BKN011 OVC028 02/01 A2979 RMK SC4SC4 SLP110

CYYC;2007-05-21 11:36;CYYC 211136Z 35010KT 2 1/2SM -RASN SCT004 BKN010 OVC025 01/ RMK ST2SC4SC2

CYYC;2007-05-21 12:00;CYYC 211200Z 34011KT 1 1/2SM -RASN BKN004 OVC010 01/01 A2980 RMK ST3SC5 SLP119

CYYC;2007-05-21 13:00;CYYC 211300Z 34011G16KT 1 1/2SM -RASN BKN005 OVC012 01/01 A2982 RMK SC4SC4 SLP123

CYYC;2007-05-21 13:18;CYYC 211318Z 34012KT 1SM -RASN BKN005 OVC012 01/ RMK SC6SC2

CYYC;2007-05-21 13:38;CYYC 211338Z 34012KT 1SM -SN OVC004 01/ RMK SN4SC4 RVR RWY34 6000 FT

CYYC;2007-05-21 14:00;CYYC 211400Z 34011KT 1SM -SN BKN004 OVC009 01/01 A2983 RMK SN4SC3SC1 RVR RWY34 6000 FT SLP126

CYYC;2007-05-21 14:27;CYYC 211427Z 34012KT 1 1/4SM -SN OVC007 01/ RMK SN2SC6

CYYC;2007-05-21 15:00;CYYC 211500Z 34016KT 4SM -SN OVC006 02/01 A2983 RMK SC8 SLP135

CYYC;2007-05-21 16:00;CYYC 211600Z 35014G20KT 5SM -SN OVC007 02/02 A2985 RMK SC8 SLP140

CYYC;2007-05-21 17:00;CYYC 211700Z 34016KT 3SM -SN OVC007 02/02 A2985 RMK SC8 SLP142

CYYC;2007-05-21 18:00;CYYC 211800Z 34018KT 8SM -SN OVC007 03/02 A2986 RMK SC8 SLP145

CYYC;2007-05-21 18:09;CYYC 211809Z 34018KT 10SM -RA BKN009 BKN017 OVC031 03/ RMK SC5SC2SC1

CYYC;2007-05-21 19:00;CYYC 211900Z 34017KT 10SM -RA BKN009 OVC022 05/04 A2987 RMK SC5SC3 SLP149

CYYC;2007-05-21 20:00;CYYC 212000Z CCA 36015G21KT 10SM -RA BKN009 OVC030 06/04 A2988 RMK SC5SC3 SLP152

CYYC;2007-05-21 20:14;CYYC 212014Z 35015G20KT 10SM -RA OVC021 05/ RMK SC8

CYYC;2007-05-21 21:00;CYYC 212100Z 33016G21KT 10SM -RA OVC016 05/04 A2990 RMK SC8 SLP158

CYYC;2007-05-21 22:00;CYYC 212200Z 01010KT 10SM -RA FEW016 OVC027 05/05 A2992 RMK SC2SC6 SLP163

CYYC;2007-05-21 23:00;CYYC 212300Z 34014G20KT 20SM -RA FEW020 BKN059 OVC087 07/05 A2993 RMK SC2SC5AC2 RA VRY LGT SLP165

CYYC;2007-05-21 23:29;CYYC 212329Z 34016KT 20SM FEW020 BKN060 OVC086 07/ RMK SC1SC4AC3

CYYC;2007-05-22 00:00;CYYC 220000Z 32014G20KT 20SM FEW030 BKN065 OVC110 07/03 A2993 RMK SC1SC4AC3 SLP168

CYYC;2007-05-22 01:00;CYYC 220100Z 31015KT 25SM FEW048TCU BKN090 OVC120 08/04 A2993 RMK TCU2AC3AC1 SH DIST N-E SLP170

CYYC;2007-05-22 01:20;CYYC 220120Z 31013G18KT 20SM -SHRA SCT034 BKN045CB OVC090 08/ RMK SC3CB2AC1 CB N-E

CYYC;2007-05-22 02:00;CYYC 220200Z 31011G16KT 20SM -SHRA SCT034 BKN045CB OVC090 06/04 A2995 RMK SC3CB2AC1 CB N-E SLP174

CYYC;2007-05-22 02:46;CYYC 220246Z 32011KT 20SM FEW030CB SCT065 SCT120 OVC210 06/ RMK CB1SC2AC1CI2 AC TR/VIRGA N/CB NE-SE

CYYC;2007-05-22 03:00;CYYC 220300Z 32010G15KT 20SM FEW030CB SCT045 SCT075 BKN210 06/04 A2996 RMK CB1SC2AC2CI1 CB NE-SE SLP181

CYYC;2007-05-22 04:00;CYYC 220400Z 32010KT 15SM FEW045 SCT075 BKN230 05/03 A2998 RMK SC1AC2CI1 TCU ASOCTD E SLP186

CYYC;2007-05-22 05:00;CYYC 220500Z 31011KT 15SM FEW045 SCT075 BKN230 04/02 A2999 RMK SC1AC2CI1 SC TR SLP189

CYYC;2007-05-22 06:00;CYYC 220600Z 32012KT 15SM FEW045 SCT080 SCT230 04/02 A2999 RMK SC1AC2CI0 SLP191

CYYC;2007-05-22 07:00;CYYC 220700Z 32011KT 15SM FEW080 BKN250 04/02 A3000 RMK AC1CI0 SLP196

CYYC;2007-05-22 08:00;CYYC 220800Z 31011KT 15SM FEW077 04/01 A3001 RMK AC2 SLP199

CYYC;2007-05-22 09:00;CYYC 220900Z 32011KT 15SM FEW080 FEW220 03/01 A3001 RMK AC1CI0 SLP196

CYYC;2007-05-22 10:00;CYYC 221000Z 31010KT 15SM FEW080 FEW220 03/01 A3003 RMK AC1CI1 AC TR SLP202

CYYC;2007-05-22 11:00;CYYC 221100Z 32009KT 15SM FEW045 FEW080 BKN230 02/01 A3005 RMK SC1AC1CI0 SC TR SLP208

CYYC;2007-05-22 12:00;CYYC 221200Z 32010KT 20SM FEW075 BKN230 03/01 A3006 RMK ACC1CI2 SLP212

CYYC;2007-05-22 13:00;CYYC 221300Z 32011KT 20SM FEW075 FEW230 04/01 A3007 RMK ACC1CI0 SLP216

CYYC;2007-05-22 14:00;CYYC 221400Z 32013KT 20SM FEW058 SCT080 07/02 A3008 RMK SC2AC1 SLP220

CYYC;2007-05-22 15:00;CYYC 221500Z 33013KT 25SM FEW062 FEW080 08/03 A3009 RMK SC1AC0 SLP216

CYYC;2007-05-22 16:00;CYYC 221600Z 36012KT 25SM FEW040 09/01 A3008 RMK CU2 SLP215

CYYC;2007-05-22 17:00;CYYC 221700Z 01013G18KT 40SM BKN045 BKN071 10/01 A3008 RMK CU5AC1 SLP214

CYYC;2007-05-22 18:00;CYYC 221800Z 01010G15KT 40SM SCT050 BKN074TCU BKN090 11/01 A3008 RMK CU4TCU1AC2 SLP212

CYYC;2007-05-22 19:00;CYYC 221900Z 36012KT 30SM SCT050 SCT070TCU BKN100 12/M01 A3008 RMK CU3TCU1AC1 VIRGA SW SLP212

CYYC;2007-05-22 20:00;CYYC 222000Z 01012KT 30SM SCT050 BKN070TCU BKN100 12/00 A3008 RMK CU4TCU1AC1 SLP211

CYYC;2007-05-22 21:00;CYYC 222100Z 02012G17KT 30SM SCT055 SCT070TCU BKN100 13/M01 A3007 RMK CU3TCU1AC1 DIST SH SW+NW SLP207

CYYC;2007-05-22 22:00;CYYC 222200Z 35009KT 30SM FEW055 SCT070CB BKN100 12/M02 A3007 RMK CU2CB2AC1 SH DIST SW+NW/ CB SW SLP207

CYYC;2007-05-22 23:00;CYYC 222300Z 34007KT 25SM FEW055 SCT070TCU SCT100 12/M00 A3007 RMK CU2TCU1AC1 SH DIST NW SLP207

CYYC;2007-05-23 00:00;CYYC 230000Z 35012KT 30SM SCT050 BKN070TCU BKN098 12/M02 A3007 RMK CU3TCU2AC2 SH DIST SSW-W SLP211

CYYC;2007-05-23 01:00;CYYC 230100Z 27007KT 25SM FEW050 FEW070TCU SCT100 13/01 A3006 RMK CU2TCU1AC1 TCU TR SLP207

CYYC;2007-05-23 02:00;CYYC 230200Z 35007KT 25SM FEW060 12/01 A3007 RMK SC2 TCU ASOCTD SLP211

CYYC;2007-05-23 03:00;CYYC 230300Z 34005KT 25SM FEW040CB FEW060 FEW120 10/00 A3009 RMK CB1SC1AC1 CB SW/TCU ASOCTD/CB+SC TR SLP211

CYYC;2007-05-23 04:00;CYYC 230400Z CCA 30005KT 15SM FEW040CB FEW060 FEW120 08/01 A3010 RMK CB1SC1AC2 CB SW/CB+SC TR/VIRGA NW+E SLP216

CYYC;2007-05-23 05:00;CYYC 230500Z 32006KT 15SM FEW120 06/01 A3012 RMK AC2 SLP221

CYYC;2007-05-23 06:00;CYYC 230600Z 32007KT 15SM BKN080 05/02 A3013 RMK AC6 SLP228

CYYC;2007-05-23 07:00;CYYC 230700Z 34013KT 15SM FEW120 06/03 A3015 RMK AC1 SLP233

CYYC;2007-05-23 08:00;CYYC 230800Z 34010KT 15SM FEW120 04/03 A3016 RMK AC1 SLP236

CYYC;2007-05-23 09:00;CYYC 230900Z CCA 34010KT 15SM BKN065 04/03 A3016 RMK SC6 SLP237

CYYC;2007-05-23 10:00;CYYC 231000Z 33008KT 15SM FEW015 OVC065 05/04 A3017 RMK SC2SC6 SLP239

CYYC;2007-05-23 11:00;CYYC 231100Z 33011KT 15SM FEW015 OVC065 05/04 A3017 RMK SC2SC6 SLP239

CYYC;2007-05-23 11:07;CYYC 231107Z 33011KT 15SM -RA BKN014 OVC065 05/ RMK SC6SC2

CYYC;2007-05-23 12:00;CYYC 231200Z 01011KT 8SM -RA OVC008 04/03 A3018 RMK SC8 SLP245

CYYC;2007-05-23 13:00;CYYC 231300Z 01010KT 20SM -RA SCT008 OVC016 03/02 A3017 RMK SC2SC6 SLP244

CYYC;2007-05-23 14:00;CYYC 231400Z 02008KT 20SM FEW009 OVC014 03/02 A3018 RMK SC2SC6 SLP246

CYYC;2007-05-23 14:25;CYYC 231425Z 02010KT 15SM BKN009 OVC014 03/ RMK SC5SC3 CF ASOCTD/BR

CYYC;2007-05-23 15:00;CYYC 231500Z 03008KT 20SM BKN009 OVC013 04/02 A3017 RMK SC6SC2 BR SLP246

CYYC;2007-05-23 16:00;CYYC 231600Z 05006KT 20SM OVC009 04/03 A3016 RMK SC8 SLP244

CYYC;2007-05-23 17:00;CYYC 231700Z 03005KT 20SM BKN009 OVC029 05/02 A3015 RMK SC7SC1 SLP241

CYYC;2007-05-23 17:45;CYYC 231745Z 07006KT 20SM SCT010 OVC013 05/ RMK SC4SC4 HZ

CYYC;2007-05-23 18:00;CYYC 231800Z 07007KT 20SM FEW010 BKN012 OVC014 05/03 A3015 RMK SC2SC3SC2 HZ SLP242

CYYC;2007-05-23 19:00;CYYC 231900Z 07007KT 20SM OVC011 06/03 A3013 RMK SC8 HZ SLP238

CYYC;2007-05-23 19:29;CYYC 231929Z CCA 08005KT 20SM FEW012 BKN015 OVC020 07/ RMK SC2SC3SC2 HZ

CYYC;2007-05-23 20:00;CYYC 232000Z 02006KT 20SM OVC022 07/02 A3013 RMK SC8 HZ SLP237

CYYC;2007-05-23 21:00;CYYC 232100Z 34003KT 20SM BKN021 OVC025 07/02 A3013 RMK SC6SC2 SLP234

CYYC;2007-05-23 21:35;CYYC 232135Z 03004KT 20SM -RA OVC028 07/ RMK SC8

CYYC;2007-05-23 22:00;CYYC 232200Z 03011KT 12SM -RA BKN020 OVC028 06/04 A3013 RMK SC5SC3 SLP235

CYYC;2007-05-23 23:00;CYYC 232300Z 04010G15KT 20SM -RA FEW016 FEW031 BKN041 OVC090 06/03 A3013 RMK SC1SC1SC4AC3 PCPN VRY LGT SLP235

CYYC;2007-05-23 23:26;CYYC 232326Z 03011KT 20SM BKN038 OVC082 06/ RMK SC7AC1

CYYC;2007-05-24 00:00;CYYC 240000Z 36015KT 12SM -RA FEW020 OVC038 05/03 A3013 RMK SC2SC6 SLP240

CYYC;2007-05-24 00:15;CYYC 240015Z 35016KT 10SM -RA FEW007 BKN018 OVC025 04/ RMK SC2SC3SC2

CYYC;2007-05-24 00:34;CYYC 240034Z 35015KT 10SM -RA BKN007 BKN016 OVC020 04/ RMK SC5SC2SC2

CYYC;2007-05-24 01:00;CYYC 240100Z 35014KT 15SM -RA BKN008 OVC020 03/02 A3014 RMK SC7SC1 PCPN VRY LGT SLP241

CYYC;2007-05-24 01:14;CYYC 240114Z 35011G18KT 15SM -RA SCT008 BKN013 OVC045 03/ RMK SC4SC3SC1 PCPN VRY LGT

CYYC;2007-05-24 02:00;CYYC 240200Z CCA 35014KT 10SM -RA FEW010 BKN023 OVC049 03/02 A3012 RMK SC1SC4SC3 SLP236

CYYC;2007-05-24 03:00;CYYC 240300Z 34011KT 7SM -RA SCT011 BKN017 OVC040 02/02 A3012 RMK SC4SC3SC1 BR SLP239

CYYC;2007-05-24 03:35;CYYC 240335Z 35011G16KT 5SM -SN FEW005 OVC011 02/ RMK SC2SC6

CYYC;2007-05-24 04:00;CYYC 240400Z 35009KT 4SM -SN FEW005 BKN011 OVC019 01/01 A3013 RMK SC2SC6SC1 SLP241

CYYC;2007-05-24 04:06;CYYC 240406Z 35011KT 4SM -SN BKN004 OVC024 01/ RMK SC6SC2

CYYC;2007-05-24 04:45;CYYC 240445Z 35009KT 2SM -SN BKN005 OVC016 00/ RMK SN3SC4SC1

CYYC;2007-05-24 05:00;CYYC 240500Z 35009KT 1 3/4SM -SN BKN005 OVC011 00/00 A3013 RMK SN4SC3SC1 SLP242

CYYC;2007-05-24 06:00;CYYC 240600Z 36008KT 3SM -SN BKN008 OVC017 00/00 A3014 RMK SN2SC4SC2 SLP246

CYYC;2007-05-24 06:39;CYYC 240639Z 35011KT 1 1/4SM -SN BKN007 OVC019 00/ RMK SN4SC3SC1

CYYC;2007-05-24 07:00;CYYC 240700Z CCA 35011KT 3/4SM -SN OVC005 00/00 A3013 RMK SN6SC2 /S01/ RVR RWY34 4000 FT SLP244

CYYC;2007-05-24 07:10;CYYC 240710Z 35012KT 5/8SM -SN BKN004 OVC012 00/ RMK SN6SC1SC1 RVR RWY34 4000 FT

CYYC;2007-05-24 07:29;CYYC 240729Z 35013KT 1/2SM SN VV003 M00/ RMK SN8 RVR RWY34 3000 FT

CYYC;2007-05-24 08:00;CYYC 240800Z CCA 35013KT 1/2SM SN BKN004 OVC007 00/00 A3013 RMK SN6SC1SC1 /S02/ RVR RWY34 5000 FT SLP244

CYYC;2007-05-24 09:00;CYYC 240900Z 34012KT 1/2SM SN VV004 00/00 A3012 RMK SN8 RVR RWY34 4500 FT SLP238

CYYC;2007-05-24 09:42;CYYC 240942Z 34017KT 3/8SM SN VV004 00/ RMK SN8 RVR RWY34 4500 FT

CYYC;2007-05-24 10:00;CYYC 241000Z 33014KT 3/8SM SN VV004 M00/M00 A3012 RMK SN8 /S03/ RVR RWY34 3000 FT SLP237

CYYC;2007-05-24 11:00;CYYC 241100Z 34012KT 3/8SM SN VV004 M00/M00 A3012 RMK SN8 /S04/ RVR RWY34 4000 FT SLP237

CYYC;2007-05-24 12:00;CYYC 241200Z CCA 34011KT 3/8SM SN VV004 M00/M00 A3010 RMK SN8 /S07/ RVR RWY34 6000 FT/ SNOW COVER/MUCH LOOSE SLP234

CYYC;2007-05-24 12:16;CYYC 241216Z 34012KT 1/2SM SN VV006 M00/ RMK SN8 CIG VRB 4-8/ RVR RWY34 6000 FT

CYYC;2007-05-24 13:00;CYYC 241300Z 32011KT 7SM -SN FEW009 OVC017 M00/M00 A3010 RESN RMK SC2SC6 /S01/ SLP234

CYYC;2007-05-24 14:00;CYYC 241400Z 34014KT 20SM -SN FEW015 OVC020 00/00 A3010 RMK SC2SC6 PCPN VRY LGT SLP233

CYYC;2007-05-24 15:00;CYYC 241500Z 34016KT 20SM -SN FEW009 BKN018 OVC028 00/00 A3010 RMK SC1SC6SC2 PCPN VRY LGT/LO CLD TR SLP237

CYYC;2007-05-24 16:00;CYYC 241600Z 34016KT 20SM -SN FEW008 FEW017 OVC021 00/00 A3011 RMK SC1SC1SC7 PCPN VRY LGT/LO CLD TR SLP239

CYYC;2007-05-24 16:17;CYYC 241617Z 34015KT 20SM FEW008 FEW016 OVC020 01/ RMK SC2SC1SC6

CYYC;2007-05-24 16:50;CYYC 241650Z 34014G19KT 20SM BKN008 BKN016 OVC020 01/ RMK SC5SC2SC2

CYYC;2007-05-24 17:39;CYYC 241739Z 34018KT 20SM SCT008 OVC018 01/ RMK SC4SC4

CYYC;2007-05-24 18:00;CYYC 241800Z 35017KT 25SM FEW009 OVC018 02/00 A3012 RMK SC2SC6 SLP246

CYYC;2007-05-24 19:00;CYYC 241900Z 35014KT 25SM BKN009 OVC018 02/00 A3013 RMK SC5SC3 SLP248

CYYC;2007-05-24 19:12;CYYC 241912Z 34016G21KT 20SM -SN BKN009 OVC017 02/ RMK SC6SC2 PCPN VRY LGT

CYYC;2007-05-24 20:00;CYYC 242000Z 34013G21KT 25SM BKN010 OVC020 03/00 A3013 RMK SC6SC2 SLP249

CYYC;2007-05-24 21:00;CYYC 242100Z 34017KT 25SM FEW010 OVC013 03/01 A3013 RMK SC2SC6 SLP248

CYYC;2007-05-24 21:24;CYYC 242124Z 35014KT 25SM SCT008 OVC012 03/ RMK SC4SC4

CYYC;2007-05-24 21:32;CYYC 242132Z 35016KT 25SM -RASN BKN008 OVC012 02/ RMK SC6SC2 PCPN VRY LGT

CYYC;2007-05-24 22:00;CYYC 242200Z CCA 35015KT 25SM -RASN OVC007 02/01 A3013 RMK SC8 PCPN VRY LGT SLP248

CYYC;2007-05-24 22:48;CYYC 242248Z CCA 35012KT 20SM -RA OVC006 02/ RMK SC8 PCPN VRY LGT

CYYC;2007-05-24 23:00;CYYC 242300Z 35012KT 20SM -RA OVC006 02/02 A3015 RMK SC8 PCPN VRY LGT SLP253

CYYC;2007-05-24 23:20;CYYC 242320Z 36009G15KT 20SM OVC006 02/ RMK SC8

CYYC;2007-05-24 23:28;CYYC 242328Z 36008KT 12SM -RA OVC005 02/ RMK SC8 PCPN VRY LGT

CYYC;2007-05-24 23:29;CYYC 242329Z 36008KT 7SM -RA OVC005 02/ RMK SC8 PCPN VRY LGT/VIS NE 2

CYYC;2007-05-24 23:32;CYYC 242332Z CCA 36011KT 5SM -RA OVC004 02/ RMK SC8 VIS NE 21/2

CYYC;2007-05-24 23:40;CYYC 242340Z 36013KT 2SM -RA OVC004 02/ RMK SC8

CYYC;2007-05-25 00:00;CYYC 250000Z 36011KT 1 3/4SM -RA BR OVC005 02/02 A3015 RMK SC8 SLP256

CYYC;2007-05-25 00:50;CYYC 250050Z 36011KT 3SM -RA BR BKN005 OVC012 03/ RMK SC7SC1

CYYC;2007-05-25 01:00;CYYC 250100Z 36010KT 4SM -RA BR BKN005 OVC012 03/02 A3015 RMK SC7SC1 SLP255

CYYC;2007-05-25 02:00;CYYC 250200Z 34010KT 4SM -RA BR BKN006 OVC026 03/02 A3015 RMK SC6SC2 SLP255

CYYC;2007-05-25 02:44;CYYC 250244Z 34007KT 7SM -RA FEW009 OVC026 03/ RMK SF1SC7 BR

CYYC;2007-05-25 03:00;CYYC 250300Z 34006KT 7SM -RA FEW009 OVC019 03/03 A3016 RMK SC1SC7 SLP258

CYYC;2007-05-25 04:00;CYYC 250400Z 34008KT 12SM -RA OVC031 03/02 A3016 RMK SC8 SLP258

CYYC;2007-05-25 04:40;CYYC 250440Z 32007KT 12SM FEW020 OVC036 03/ RMK SC1SC7

CYYC;2007-05-25 05:00;CYYC 250500Z 32007KT 12SM FEW025 OVC036 03/02 A3017 RMK SC1SC7 SLP259

CYYC;2007-05-25 06:00;CYYC 250600Z 32007KT 12SM FEW027 OVC038 03/02 A3016 RMK SC1SC7 SLP255

CYYC;2007-05-25 07:00;CYYC 250700Z 34003KT 12SM OVC035 03/03 A3016 RMK SC8 SLP254

CYYC;2007-05-25 08:00;CYYC 250800Z 00000KT 15SM OVC032 04/02 A3015 RMK SC8 SLP251

CYYC;2007-05-25 09:00;CYYC 250900Z 21002KT 15SM OVC028 03/03 A3014 RMK SC8 SLP247

CYYC;2007-05-25 10:00;CYYC 251000Z 33002KT 15SM OVC022 03/03 A3014 RMK SC8 SLP246

CYYC;2007-05-25 11:00;CYYC 251100Z 00000KT 15SM BKN026 OVC031 03/03 A3013 RMK SC6SC2 SLP243

CYYC;2007-05-25 11:55;CYYC 251155Z CCA 21004KT 6SM -RA BR OVC027 04/ RMK SC8

CYYC;2007-05-25 12:00;CYYC 251200Z 20004KT 6SM -RA BR OVC027 04/03 A3013 RMK SC8 SLP241

CYYC;2007-05-25 13:00;CYYC 251300Z 19004KT 40SM -RA FEW020 OVC033 04/04 A3012 RMK SC2SC5 SLP239

CYYC;2007-05-25 13:27;CYYC 251327Z 19005KT 30SM FEW019 BKN032 05/ RMK SC2SC4

CYYC;2007-05-25 14:00;CYYC 251400Z 17006KT 30SM FEW011 SCT015 BKN030 05/04 A3011 RMK SC1SC2SC2 SLP237

CYYC;2007-05-25 14:31;CYYC 251431Z 18007KT 20SM SCT009 BKN036 BKN180 BKN260 06/ RMK SC3SC2AC1CI0

CYYC;2007-05-25 14:46;CYYC 251446Z 18008KT 20SM BKN009 BKN036 BKN180 BKN260 06/ RMK SC5SC1AC1CI0

CYYC;2007-05-25 15:00;CYYC 251500Z CCA 17008KT 20SM BKN009 BKN037 BKN180 OVC260 06/04 A3011 RMK SC6SC1AC1CI0 AC TR SLP230

CYYC;2007-05-25 15:22;CYYC 251522Z 17010KT 20SM FEW009 SCT011 BKN180 BKN260 07/ RMK SC2SC2AC1CI0

CYYC;2007-05-25 16:00;CYYC 251600Z 18011KT 30SM BKN010 BKN020 OVC200 07/05 A3010 RMK SC5SC2CI0 SLP228

CYYC;2007-05-25 17:00;CYYC 251700Z 17010KT 40SM SCT014 BKN018 BKN260 09/05 A3009 RMK SC3SC2CI0 SLP224

CYYC;2007-05-25 18:00;CYYC 251800Z 17011KT 40SM FEW019 BKN021 BKN170 BKN240 09/04 A3008 RMK SC1SC5AC1CI0 SLP217

CYYC;2007-05-25 19:00;CYYC 251900Z 18008KT 40SM BKN028 BKN160 BKN220 11/04 A3007 RMK SC6AC1CI0 SLP214

CYYC;2007-05-25 20:00;CYYC 252000Z 13011G16KT 40SM SCT028 BKN040 BKN160 11/05 A3006 RMK CU4SC1AC1 SLP210

CYYC;2007-05-25 21:00;CYYC 252100Z CCA 16007KT 40SM BKN032 BKN160 14/06 A3006 RMK CU5AC0 TCU EMBD E SLP200

CYYC;2007-05-25 22:00;CYYC 252200Z 22004KT 40SM BKN039 BKN240 14/04 A3004 RMK CU5CI0 TCU EMBD E-S SLP195

CYYC;2007-05-25 23:00;CYYC 252300Z CCA 21004KT 40SM SCT044 SCT160 15/04 A3003 RMK SC4AC1 TCU EMBD SLP191

CYYC;2007-05-26 00:00;CYYC 260000Z CCA 11005KT 40SM SCT048 BKN160 16/05 A3002 RMK CU4AC1 TCU EMBD/CB NW/VIRGA NW SLP185

CYYC;2007-05-26 01:00;CYYC 260100Z 09006KT 40SM FEW050 BKN065CB BKN100 BKN240 14/05 A3002 RMK CU2CB2AC2CI0 SLP183

CYYC;2007-05-26 01:24;CYYC 260124Z CCA 11007KT 30SM -SHRA FEW040 SCT060CB BKN070 14/ RMK CU2CB1AC3 PCPN VRY LGT/TCU EMBD

CYYC;2007-05-26 02:00;CYYC 260200Z CCB 13004KT 40SM VCSH FEW045 FEW058TCU BKN084 BKN100 13/04 A3001 RMK CU1TCU1AC5AC1 SH NE-SE SLP182

CYYC;2007-05-26 03:00;CYYC 260300Z 14007KT 40SM FEW045 BKN110 12/04 A3001 RMK CU1AC6 DIST CB E SLP183

CYYC;2007-05-26 04:00;CYYC 260400Z 14007KT 30SM FEW084 SCT096 SCT220 10/05 A3002 RMK AC2AC1CI0 SLP185

CYYC;2007-05-26 05:00;CYYC 260500Z 16006KT 15SM FEW086 09/05 A3002 RMK AC2 SLP187

CYYC;2007-05-26 06:00;CYYC 260600Z 16006KT 15SM FEW085 FEW110 08/05 A3002 RMK AC1AC1 SLP189

CYYC;2007-05-26 07:00;CYYC 260700Z 18005KT 15SM FEW110 07/04 A3001 RMK AC1 SLP185

CYYC;2007-05-26 08:00;CYYC 260800Z 19005KT 15SM SKC 06/04 A3000 RMK SLP181

CYYC;2007-05-26 09:00;CYYC 260900Z 24002KT 15SM SKC 04/02 A2999 RMK SLP175

CYYC;2007-05-26 10:00;CYYC 261000Z 00000KT 15SM FEW045 04/02 A2998 RMK SC1 SLP174

CYYC;2007-05-26 11:00;CYYC 261100Z 19003KT 30SM FEW013 FEW260 04/01 A2998 RMK CF1CI1 SLP172

CYYC;2007-05-26 12:00;CYYC 261200Z 25002KT 40SM FEW014 FEW160 FEW260 03/M00 A2997 RMK SC1AC1CI1 SLP168

CYYC;2007-05-26 13:00;CYYC 261300Z 00000KT 40SM FEW020 FEW170 FEW260 06/02 A2997 RMK SC1AC1CI0 SLP169

CYYC;2007-05-26 14:00;CYYC 261400Z 09002KT 40SM FEW260 10/03 A2996 RMK CI1 SLP166

CYYC;2007-05-26 15:00;CYYC 261500Z 16004KT 40SM FEW260 12/03 A2996 RMK CI1 SLP159

CYYC;2007-05-26 16:00;CYYC 261600Z 22006KT 40SM FEW160 FEW260 14/03 A2995 RMK AC1CI1 SLP156

CYYC;2007-05-26 17:00;CYYC 261700Z 23003KT 40SM FEW160 FEW270 16/M00 A2994 RMK AC1CI1 SLP153

CYYC;2007-05-26 18:00;CYYC 261800Z 19005KT 40SM FEW068 FEW160 FEW270 17/00 A2993 RMK CU1AC1CI1 SLP147

CYYC;2007-05-26 19:00;CYYC 261900Z 18003KT 40SM FEW070 FEW160 SCT270 18/M02 A2992 RMK CU1AC1CI0 SLP143

CYYC;2007-05-26 20:00;CYYC 262000Z 13007KT 40SM FEW070 SCT180 BKN240 19/02 A2990 RMK CU1AC2CS1 SLP138

CYYC;2007-05-26 21:00;CYYC 262100Z 15006KT 40SM FEW070 FEW180 BKN220 19/01 A2988 RMK CU1AC1CS1 CONTRAILS SLP133

CYYC;2007-05-26 22:00;CYYC 262200Z CCA 14005KT 40SM FEW075 FEW150 BKN250 19/00 A2987 RMK CU1AC1CS0 SLP128

CYYC;2007-05-26 23:00;CYYC 262300Z 17010KT 40SM FEW075 FEW150 BKN220 19/03 A2985 RMK CU1AC1CS0 SLP123

CYYC;2007-05-27 00:00;CYYC 270000Z 15006KT 40SM FEW075 BKN170 BKN220 19/04 A2984 RMK CU1AC4CS1 SLP116

CYYC;2007-05-27 01:00;CYYC 270100Z 18008KT 40SM FEW075 SCT170 OVC250 18/02 A2982 RMK CU1AC3CS2 SLP112

CYYC;2007-05-27 02:00;CYYC 270200Z 16009KT 40SM FEW075 BKN170 OVC240 18/02 A2981 RMK CU2AC2CS2 SLP107

CYYC;2007-05-27 03:00;CYYC 270300Z 14008KT 40SM FEW075 BKN170 OVC240 16/M02 A2981 RMK CU2AC2CS2 SLP099

CYYC;2007-05-27 04:00;CYYC 270400Z 14007KT 30SM FEW070 FEW140 FEW180 SCT200 BKN240 14/03 A2980 RMK CU1AC1AC1CS2CI1 CU + LWR AC TR SLP098

CYYC;2007-05-27 05:00;CYYC 270500Z 18003KT 15SM FEW160 FEW180 BKN230 14/02 A2980 RMK AC1AC1CI2 SLP096

CYYC;2007-05-27 06:00;CYYC 270600Z 00000KT 15SM FEW160 SCT240 13/01 A2979 RMK AC1CI1 SLP089

CYYC;2007-05-27 07:00;CYYC 270700Z 24005KT 15SM FEW160 SCT240 12/02 A2977 RMK AC2CI0 SLP085

CYYC;2007-05-27 08:00;CYYC 270800Z 00000KT 15SM FEW160 SCT240 12/01 A2977 RMK AC2CI0 SLP085

CYYC;2007-05-27 09:00;CYYC 270900Z 27004KT 15SM FEW100 BKN140 BKN240 12/03 A2976 RMK AC1AC4CI0 SLP080

CYYC;2007-05-27 10:00;CYYC 271000Z 22005KT 15SM FEW110 SCT120 BKN230 10/03 A2975 RMK AC1AC3CI0 SLP076

CYYC;2007-05-27 11:00;CYYC 271100Z 21005KT 15SM FEW100 SCT120 OVC220 10/03 A2974 RMK AC2AC2CS1 SLP073

CYYC;2007-05-27 12:00;CYYC 271200Z CCA 27006KT 40SM FEW095 BKN110 OVC220 12/03 A2974 RMK AC1AC5CS1 SLP070

CYYC;2007-05-27 13:00;CYYC 271300Z 20007KT 40SM FEW048 BKN087 OVC110 11/05 A2974 RMK CU1AC5AC2 SLP070

CYYC;2007-05-27 14:00;CYYC 271400Z 16006KT 40SM FEW048 BKN081 OVC130 14/04 A2974 RMK CU1AC5AC2 VIRGA SLP071

CYYC;2007-05-27 15:00;CYYC 271500Z 25005KT 40SM FEW035 BKN085 BKN150 OVC220 14/05 A2973 RMK CU1AC5AC2CI1 VIRGA NW-NE SLP070

CYYC;2007-05-27 16:00;CYYC 271600Z 28013G18KT 40SM FEW045 SCT085 BKN150 OVC220 16/03 A2972 RMK CU1AC2AC2CI3 VIRGA N+S SLP067

CYYC;2007-05-27 17:00;CYYC 271700Z 27013KT 40SM FEW050 FEW085 FEW150 BKN220 17/04 A2972 RMK CU1AC1AC1CI4 SLP065

CYYC;2007-05-27 18:00;CYYC 271800Z 30008KT 40SM FEW050 SCT130 BKN220 18/04 A2971 RMK CU1AC4CI1 SLP062

CYYC;2007-05-27 19:00;CYYC 271900Z 25012G19KT 40SM FEW060 SCT120 BKN220 19/04 A2970 RMK CU1AC3CI0 SH DIST SW SLP059

CYYC;2007-05-27 20:00;CYYC 272000Z 25011G17KT 40SM FEW064 BKN120 BKN230 19/03 A2969 RMK CU1AC5CI2 SLP054

CYYC;2007-05-27 21:00;CYYC 272100Z 25010KT 40SM FEW068 BKN092 BKN200 19/02 A2967 RMK CU1AC5CI2 SH S+W SLP048

CYYC;2007-05-27 22:00;CYYC 272200Z 29007KT 40SM FEW068 SCT100 SCT140 SCT240 19/02 A2965 RMK CU2AC2AC1CI0 SH SW-NW SLP043

CYYC;2007-05-27 23:00;CYYC 272300Z 27007KT 40SM FEW068 BKN085 BKN130 18/02 A2964 RMK CU2AC5AC1 SH SW-N / TCU ASOCTD SLP040

CYYC;2007-05-27 23:53;CYYC 272353Z 27014G21KT 30SM -SHRA BKN064TCU OVC080 17/ RMK TCU5AC3

CYYC;2007-05-28 00:00;CYYC 280000Z CCA 27017KT 30SM -SHRA BKN064TCU OVC080 16/03 A2967 RMK TCU6AC2 SLP052

CYYC;2007-05-28 01:00;CYYC 280100Z 30013G18KT 40SM -SHRA BKN066TCU OVC081 13/07 A2967 RMK TCU5AC3 SLP051

CYYC;2007-05-28 02:00;CYYC 280200Z CCA 35011KT 30SM -SHRA FEW030 BKN085 OVC094 13/07 A2966 RMK CU1AC5AC3 PCPN VRY LGT CVCTV CLD EMBD SLP049

CYYC;2007-05-28 03:00;CYYC 280300Z 35020G26KT 20SM -SHRA FEW035 BKN062 OVC075 10/08 A2969 RMK SC1SC6AC2 CVCTV CLD EMBD SLP063

CYYC;2007-05-28 04:00;CYYC 280400Z 33023G29KT 20SM VCSH FEW035 FEW062TCU OVC091 10/07 A2970 RMK SC1TCU2AC6 SH N+E+S SLP066

CYYC;2007-05-28 04:41;CYYC 280441Z 33012G17KT 15SM -SHRA FEW020 FEW060TCU BKN076 OVC095 RMK SC1TCU2AC6AC1 HVY SH S / VIS S 4

CYYC;2007-05-28 05:00;CYYC 280500Z 34014KT 10SM -SHRA BKN070 OVC096 09/07 A2972 RMK AC6AC2 HVY SH S / VIS S 4 SLP072

CYYC;2007-05-28 06:00;CYYC 280600Z 36011KT 15SM VCSH FEW041TCU BKN083 OVC093 09/07 A2974 RMK TCU1AC5AC2 HVY SH SE / VIS SE 5 SLP077

CYYC;2007-05-28 07:00;CYYC 280700Z 05004KT 15SM BKN050 OVC073 09/07 A2975 RMK SC6AC2 SLP081

CYYC;2007-05-28 07:31;CYYC 280731Z 35004KT 15SM -SHRA SCT050 OVC062 09/ RMK SC3SC5 CVCTV CLD EMBD

CYYC;2007-05-28 08:00;CYYC 280800Z 32004KT 10SM -SHRA SCT050 OVC062 09/06 A2975 RMK SC3SC5 CVCTV CLD EMBD / DIST HVY SH S SLP082

CYYC;2007-05-28 09:00;CYYC 280900Z 32004KT 15SM -SHRA BKN052 BKN064 OVC094 09/06 A2975 RMK SC5SC2AC2 CVCTV CLD EMBD / DIST HVY SH S VIS 4 SLP080

CYYC;2007-05-28 10:00;CYYC 281000Z 01007KT 15SM -SHRA OVC068 09/05 A2977 RMK AC8 CVCTV CLD EMBD / DIST SH S SLP084

CYYC;2007-05-28 10:36;CYYC 281036Z 33007KT 15SM BKN056 OVC068 09/ RMK SC6AC2

CYYC;2007-05-28 11:00;CYYC 281100Z 33016G21KT 15SM BKN062 OVC085 09/03 A2979 RMK SC6AC2 SLP090

CYYC;2007-05-28 12:00;CYYC 281200Z 33019G24KT 20SM FEW059 BKN094 OVC210 08/02 A2981 RMK SC2AC3CI1 SLP104

CYYC;2007-05-28 13:00;CYYC 281300Z 33018G27KT 20SM FEW060 FEW088 FEW140 OVC210 08/01 A2983 RMK SC1AC1AC2CI3 DNS CI PRSNT SLP112

CYYC;2007-05-28 14:00;CYYC 281400Z 34019G27KT 30SM FEW060 FEW080 FEW210 BKN250 10/00 A2985 RMK SC1AC1CI1CI1 SC+AC TR SLP117

CYYC;2007-05-28 15:00;CYYC 281500Z 34025KT 30SM FEW060 FEW080 FEW100 SCT250 11/01 A2987 RMK SC1AC1AC1CI0 SLP130

CYYC;2007-05-28 16:00;CYYC 281600Z 34019G29KT 30SM FEW065 FEW080 FEW100 SCT240 13/01 A2988 RMK SC1AC1AC1CI0 SLP132

CYYC;2007-05-28 17:00;CYYC 281700Z 35019G28KT 40SM FEW065 FEW080 FEW100 BKN240 13/00 A2989 RMK SC1AC1AC1CI1 SLP136

CYYC;2007-05-28 18:00;CYYC 281800Z 36019G27KT 40SM FEW064 BKN240 15/01 A2990 RMK CU1CI1 SLP138

CYYC;2007-05-28 19:00;CYYC 281900Z 35012G24KT 40SM FEW062 SCT240 16/02 A2991 RMK CU1CI1 SLP140

CYYC;2007-05-28 20:00;CYYC 282000Z 34016G25KT 40SM FEW062 SCT240 15/00 A2990 RMK CU2CI0 SLP139

CYYC;2007-05-28 21:00;CYYC 282100Z 35020G26KT 40SM FEW062 FEW080 FEW240 16/02 A2992 RMK CU1AC1CI1 CI LYR TR SLP141

CYYC;2007-05-28 22:00;CYYC 282200Z 35019G31KT 30SM FEW064 FEW080 FEW240 16/01 A2994 RMK CU1AC1CI1 CU+CI LYRS TR SLP147

CYYC;2007-05-28 23:00;CYYC 282300Z 01019G28KT 30SM FEW064 SCT080 SCT240 15/02 A2995 RMK CU1AC2CI1 SLP151

CYYC;2007-05-29 00:00;CYYC 290000Z 01019G24KT 30SM FEW065 BKN090 16/01 A2997 RMK CU1AC5 SLP161

CYYC;2007-05-29 01:00;CYYC 290100Z 36015G21KT 30SM FEW065 BKN110 14/01 A3000 RMK CU1AC4 SHS DIST S-W SLP169

CYYC;2007-05-29 02:00;CYYC 290200Z 36018KT 20SM FEW050 BKN100 14/02 A3002 RMK CU1AC4 SH DIST S-W/TCU ASOCTD NE SLP177

CYYC;2007-05-29 03:00;CYYC 290300Z 01010G16KT 20SM FEW035 FEW100 11/03 A3006 RMK CU1AC2 SH DIST S-W SLP195

CYYC;2007-05-29 04:00;CYYC 290400Z CCA 35006KT 15SM FEW035TCU FEW100 08/03 A3009 RMK TCU1AC2 SH DIST NE/TCU NE SLP203

CYYC;2007-05-29 05:00;CYYC 290500Z 35010KT 15SM FEW120 08/03 A3011 RMK AC1 SLP209

CYYC;2007-05-29 06:00;CYYC 290600Z 34009KT 15SM FEW120 07/03 A3012 RMK AC0 SLP216

CYYC;2007-05-29 07:00;CYYC 290700Z 33005KT 15SM FEW045 FEW100 06/03 A3014 RMK SC1AC1 SC TR SLP222

CYYC;2007-05-29 08:00;CYYC 290800Z 35011KT 15SM FEW100 07/04 A3014 RMK AC1 SLP223

CYYC;2007-05-29 09:00;CYYC 290900Z 32008KT 15SM FEW045 SCT100 07/03 A3016 RMK SC1AC2 SLP228

CYYC;2007-05-29 10:00;CYYC 291000Z 34006KT 15SM FEW045 SCT100 05/03 A3016 RMK SC1AC2 SLP229

CYYC;2007-05-29 11:00;CYYC 291100Z 32007KT 15SM OVC060 07/04 A3018 RMK SC7 SLP234

CYYC;2007-05-29 12:00;CYYC 291200Z 32008KT 30SM BKN060 07/04 A3018 RMK SC6 SLP237

CYYC;2007-05-29 13:00;CYYC 291300Z 32009KT 30SM BKN065 08/05 A3020 RMK SC6 SLP243

CYYC;2007-05-29 14:00;CYYC 291400Z 34009KT 40SM FEW020 BKN061 10/06 A3020 RMK SC1SC4 SLP243

CYYC;2007-05-29 15:00;CYYC 291500Z 34014KT 40SM FEW025 FEW062 11/06 A3021 RMK CU2SC1 SLP246

CYYC;2007-05-29 16:00;CYYC 291600Z 33013KT 40SM FEW028 FEW080 13/06 A3021 RMK CU2AC1 SLP246

CYYC;2007-05-29 17:00;CYYC 291700Z 35012KT 40SM SCT030 SCT080 12/05 A3021 RMK CU3AC1 SLP247

CYYC;2007-05-29 18:00;CYYC 291800Z 36014G20KT 40SM SCT040 SCT080 13/05 A3022 RMK CU3AC1 SLP251

CYYC;2007-05-29 19:00;CYYC 291900Z 03013KT 40SM SCT040 SCT080 15/07 A3022 RMK CU3AC1 SLP251

CYYC;2007-05-29 20:00;CYYC 292000Z 03009G19KT 40SM FEW043 FEW080 16/06 A3021 RMK CU2AC1 SLP249

CYYC;2007-05-29 21:00;CYYC 292100Z 04010KT 40SM FEW045 FEW080 16/07 A3020 RMK CU2AC1 SLP241

CYYC;2007-05-29 22:00;CYYC 292200Z 05012KT 40SM FEW045 FEW080 16/06 A3020 RMK CU2AC1 SLP241

CYYC;2007-05-29 23:00;CYYC 292300Z 05009KT 40SM FEW048 17/07 A3019 RMK CU1 SLP240

CYYC;2007-05-30 00:00;CYYC 300000Z 05008KT 40SM FEW050 17/06 A3018 RMK CU1 SLP236

CYYC;2007-05-30 01:00;CYYC 300100Z 04006KT 30SM FEW050 FEW090 16/05 A3018 RMK CU1AC1 SLP236

CYYC;2007-05-30 02:00;CYYC 300200Z 05006KT 30SM FEW060 FEW090 15/06 A3018 RMK CU1AC1 SLP234

CYYC;2007-05-30 03:00;CYYC 300300Z 08007KT 30SM SKC 13/06 A3018 RMK SLP235

CYYC;2007-05-30 04:00;CYYC 300400Z 12006KT 30SM SKC 11/06 A3018 RMK SLP235

CYYC;2007-05-30 05:00;CYYC 300500Z 13003KT 15SM SKC 12/06 A3018 RMK SLP235

CYYC;2007-05-30 06:00;CYYC 300600Z 13002KT 15SM SKC 11/05 A3018 RMK SLP234

CYYC;2007-05-30 07:00;CYYC 300700Z 13003KT 15SM SKC 09/06 A3018 RMK SLP234

CYYC;2007-05-30 08:00;CYYC 300800Z 00000KT 15SM SKC 09/05 A3018 RMK SLP235

CYYC;2007-05-30 09:00;CYYC 300900Z 36002KT 15SM SKC 05/04 A3017 RMK SLP234

CYYC;2007-05-30 10:00;CYYC 301000Z 34003KT 15SM SKC 04/03 A3017 RMK SLP234

CYYC;2007-05-30 11:00;CYYC 301100Z 33004KT 15SM FEW260 03/02 A3016 RMK CI1 CI TR SLP232

CYYC;2007-05-30 12:00;CYYC 301200Z 04002KT 30SM FEW260 04/02 A3016 RMK CI1 CI TR SLP232

CYYC;2007-05-30 13:00;CYYC 301300Z 00000KT 40SM FEW260 06/04 A3016 RMK CI1 CI TR SLP233

CYYC;2007-05-30 14:00;CYYC 301400Z 10002KT 40SM SKC 10/06 A3017 RMK SLP234

CYYC;2007-05-30 15:00;CYYC 301500Z 19004KT 40SM SKC 13/06 A3017 RMK SLP228

CYYC;2007-05-30 16:00;CYYC 301600Z 18006KT 40SM FEW240 15/07 A3017 RMK CI1 SLP227

CYYC;2007-05-30 17:00;CYYC 301700Z 15009KT 40SM FEW080 FEW240 16/08 A3016 RMK AC1CI1 SLP224

CYYC;2007-05-30 18:00;CYYC 301800Z 13006KT 40SM FEW040 FEW240 17/07 A3015 RMK CU1CI1 SLP217

CYYC;2007-05-30 19:00;CYYC 301900Z 13003KT 40SM FEW047 FEW240 19/07 A3014 RMK CU1CI1 SLP215

CYYC;2007-05-30 20:00;CYYC 302000Z 13006KT 40SM FEW050 FEW240 19/07 A3012 RMK CU1CI1 SLP209

CYYC;2007-05-30 21:00;CYYC 302100Z 12009KT 40SM FEW050 FEW240 20/09 A3012 RMK CU1CI1 SLP210

CYYC;2007-05-30 22:00;CYYC 302200Z 14012KT 30SM FEW057 FEW240 20/06 A3011 RMK CU1CI1 SLP208

CYYC;2007-05-30 23:00;CYYC 302300Z 12004KT 30SM FEW063 FEW240 21/06 A3011 RMK SC1CI1 SLP207

CYYC;2007-05-31 00:00;CYYC 310000Z 14011KT 30SM FEW063 FEW240 20/06 A3010 RMK SC1CI1 SLP205

CYYC;2007-05-31 01:00;CYYC 310100Z 13011KT 30SM FEW063 FEW150 FEW240 20/06 A3008 RMK SC1AC1CI1 SLP200

CYYC;2007-05-31 02:00;CYYC 310200Z 14012KT 30SM FEW065 18/06 A3007 RMK CU1 SLP196

CYYC;2007-05-31 03:00;CYYC 310300Z 13012KT 30SM FEW100 16/04 A3006 RMK AC1 SLP188

CYYC;2007-05-31 04:00;CYYC 310400Z 14012KT 20SM FEW100 14/05 A3006 RMK AC1 SLP188

CYYC;2007-05-31 05:00;CYYC 310500Z 15010KT 15SM SKC 12/06 A3007 RMK SLP189

CYYC;2007-05-31 06:00;CYYC 310600Z 17008KT 15SM SKC 11/05 A3006 RMK SLP188

CYYC;2007-05-31 07:00;CYYC 310700Z 18010KT 15SM SKC 11/07 A3006 RMK SLP185

CYYC;2007-05-31 08:00;CYYC 310800Z 17007KT 15SM SKC 10/07 A3005 RMK SLP184

CYYC;2007-05-31 09:00;CYYC 310900Z 17006KT 15SM SKC 09/06 A3005 RMK SLP183

CYYC;2007-05-31 10:00;CYYC 311000Z 18006KT 15SM SKC 08/06 A3004 RMK SLP180

CYYC;2007-05-31 11:00;CYYC 311100Z 15004KT 20SM FEW210 FEW260 07/06 A3004 RMK CI1CI0 SLP179

CYYC;2007-05-31 12:00;CYYC 311200Z 19005KT 30SM FEW210 SCT260 06/05 A3004 RMK CI1CI0 SLP183

CYYC;2007-05-31 13:00;CYYC 311300Z 21004KT 40SM FEW220 FEW260 07/06 A3005 RMK CI1CI0 SLP186

CYYC;2007-05-31 14:00;CYYC 311400Z 18006KT 40SM FEW220 FEW260 11/07 A3005 RMK CI1CI1 SLP186

CYYC;2007-05-31 15:00;CYYC 311500Z 21004KT 40SM FEW260 14/06 A3005 RMK CI1 SLP182

CYYC;2007-05-31 16:00;CYYC 311600Z 23002KT 40SM FEW260 16/06 A3005 RMK CI1 SLP180

CYYC;2007-05-31 17:00;CYYC 311700Z 16004KT 40SM FEW260 19/06 A3004 RMK CI1 SLP177

CYYC;2007-05-31 20:00;CYYC 312000Z 34002KT 30SM FEW065 22/06 A3001 RMK CU1 SLP167

CYYC;2007-05-31 21:00;CYYC 312100Z 03004KT 30SM FEW070 23/08 A3000 RMK AC1 SLP161

CYYC;2007-05-31 22:00;CYYC 312200Z 12003KT 20SM FEW070 FEW120 23/06 A2998 RMK AC1AC1 SLP156

CYYC;2007-05-31 23:00;CYYC 312300Z 09005KT 20SM FEW070 FEW120 24/07 A2997 RMK AC1AC1 SLP153

CYYC;2007-06-01 01:00;CYYC 010100Z 12007KT 20SM FEW070 FEW120 22/07 A2997 RMK AC1AC1 SLP154

CYYC;2007-06-01 02:00;CYYC 010200Z CCA 13012KT 20SM FEW070 FEW120 21/08 A2997 RMK AC1AC1 SLP155

CYYC;2007-06-01 03:00;CYYC 010300Z 13011KT 20SM FEW070 FEW140 19/08 A2998 RMK AC1AC1 SLP151

CYYC;2007-06-01 04:00;CYYC 010400Z 14009KT 20SM FEW080 FEW140 17/08 A2998 RMK AC1AC1 CLDS TR SLP153

CYYC;2007-06-01 05:00;CYYC 010500Z 15007KT 15SM SKC 15/08 A2999 RMK SLP155

CYYC;2007-06-01 06:00;CYYC 010600Z 16008KT 15SM SKC 13/08 A2999 RMK SLP155

CYYC;2007-06-01 07:00;CYYC 010700Z 18005KT 15SM SKC 12/07 A2999 RMK SLP154

CYYC;2007-06-01 08:00;CYYC 010800Z 16007KT 15SM SKC 12/07 A2998 RMK SLP152

CYYC;2007-06-01 09:00;CYYC 010900Z 14005KT 15SM SKC 11/08 A2998 RMK SLP152

CYYC;2007-06-01 10:00;CYYC 011000Z CCA 14007KT 15SM FEW100 10/08 A2999 RMK AC1 AC TR SLP153

CYYC;2007-06-01 11:00;CYYC 011100Z 16003KT 15SM SKC 10/08 A2999 RMK SLP153

CYYC;2007-06-01 12:00;CYYC 011200Z 15003KT 20SM SKC 10/07 A2999 RMK SLP154

CYYC;2007-06-01 13:00;CYYC 011300Z 21002KT 30SM FEW150 11/09 A3000 RMK AC1 AC TR SLP158

CYYC;2007-06-01 14:00;CYYC 011400Z 22003KT 40SM FEW180 14/09 A3000 RMK AC1 SLP158

CYYC;2007-06-01 15:00;CYYC 011500Z 23004KT 40SM FEW180 FEW240 16/09 A3000 RMK AC1CI1 SLP157

CYYC;2007-06-01 16:00;CYYC 011600Z 19002KT 40SM FEW240 18/09 A3000 RMK CI1 SLP156

CYYC;2007-06-01 17:00;CYYC 011700Z 17005KT 30SM FEW070 FEW240 20/10 A2999 RMK AC1CI0 SLP154

CYYC;2007-06-01 18:00;CYYC 011800Z 20007KT 30SM FEW050 FEW250 21/10 A2998 RMK CU1CI0 SLP149

CYYC;2007-06-01 19:00;CYYC 011900Z 15009KT 30SM FEW052 FEW220 23/11 A2997 RMK CU1CI0 SLP147

CYYC;2007-06-01 20:00;CYYC 012000Z 14006KT 30SM FEW058 FEW220 23/09 A2997 RMK CU1CI0 SLP145

CYYC;2007-06-01 21:00;CYYC 012100Z 11005KT 30SM FEW061 FEW220 24/08 A2996 RMK CU1CI0 SLP142

CYYC;2007-06-01 22:00;CYYC 012200Z 09004KT 30SM FEW073 FEW240 24/07 A2995 RMK CU1CI0 SLP139

CYYC;2007-06-01 23:00;CYYC 012300Z CCA 10007KT 30SM FEW060 SCT250 25/08 A2994 RMK CU1CI1 SLP136

CYYC;2007-06-02 00:00;CYYC 020000Z 14009KT 30SM FEW060 BKN250 24/10 A2992 RMK CU1CI1 SLP131

CYYC;2007-06-02 01:00;CYYC 020100Z 13011KT 30SM FEW060 FEW120 BKN240 23/09 A2992 RMK CU1AC1CI1 SLP129

CYYC;2007-06-02 02:00;CYYC 020200Z 12012KT 30SM FEW050 FEW130 BKN200 BKN230 22/08 A2993 RMK CU1AC1CI0CI0 SLP132

CYYC;2007-06-02 03:00;CYYC 020300Z 12011KT 30SM FEW130 SCT200 BKN240 20/08 A2993 RMK AC1CI1CI0 SLP130

CYYC;2007-06-02 04:00;CYYC 020400Z 14010KT 20SM FEW130 SCT220 BKN240 19/09 A2995 RMK AC1CI1CI0 SLP135

CYYC;2007-06-02 05:00;CYYC 020500Z 14009KT 15SM FEW130 SCT240 BKN260 17/09 A2996 RMK AC1CI1CI0 SLP139

CYYC;2007-06-02 06:00;CYYC 020600Z 14007KT 15SM BKN240 15/09 A2997 RMK CI1 SLP144

CYYC;2007-06-02 07:00;CYYC 020700Z 17007KT 15SM BKN240 14/08 A2998 RMK CI1 SLP146

CYYC;2007-06-02 08:00;CYYC 020800Z 17008KT 15SM FEW130 BKN240 15/08 A2998 RMK AC1CI2 AC TR SLP147

CYYC;2007-06-02 09:00;CYYC 020900Z 17007KT 15SM FEW160 SCT240 14/08 A2999 RMK AC1CI0 AC TR SLP148

CYYC;2007-06-02 10:00;CYYC 021000Z 18003KT 15SM FEW150 12/08 A2999 RMK AC1 SLP148

CYYC;2007-06-02 11:00;CYYC 021100Z 13004KT 20SM FEW120 SCT240 12/08 A2999 RMK AC2CI0 SLP148

CYYC;2007-06-02 12:00;CYYC 021200Z 19002KT 20SM FEW130 FEW180 BKN260 12/08 A2999 RMK AC1AC1CI0 SLP152

CYYC;2007-06-02 13:00;CYYC 021300Z 26002KT 20SM FEW120 SCT160 BKN230 13/09 A3000 RMK AC2AC2CI0 SLP155

CYYC;2007-06-02 14:00;CYYC 021400Z 01002KT 30SM FEW030 FEW140 FEW230 15/10 A3002 RMK CU1AC1CI0 VIRGA NE+SW SLP159

CYYC;2007-06-02 15:00;CYYC 021500Z 00000KT 30SM FEW040 FEW120 SCT280 18/10 A3001 RMK CU1AC1CI0 VIRGA E+S SLP156

CYYC;2007-06-02 16:00;CYYC 021600Z 19006KT 30SM FEW050 FEW120 SCT280 21/10 A3001 RMK CU1AC1CI0 VIRGA S SLP156

CYYC;2007-06-02 17:00;CYYC 021700Z 17005KT 30SM FEW050 FEW120 BKN280 22/09 A3001 RMK CU1AC1CI0 SLP156

CYYC;2007-06-02 18:00;CYYC 021800Z 17006KT 30SM FEW060 FEW140 BKN280 24/09 A3001 RMK CU1AC1CI0 SLP155

CYYC;2007-06-02 19:00;CYYC 021900Z 14008KT 30SM FEW060 BKN260 25/09 A3001 RMK CU1CI1 VIRGA SW / TCU ASOCTD SLP153

CYYC;2007-06-02 20:00;CYYC 022000Z CCA 15002KT 40SM FEW070 BKN260 26/07 A3001 RMK CU1CI1 SH SW / CB ASOCTD SLP153

CYYC;2007-06-02 21:00;CYYC 022100Z 15007KT 30SM FEW070 FEW150 BKN260 27/08 A3000 RMK CU1AC1CI0 SH SW / CB ASOCTD SLP150

CYYC;2007-06-02 22:00;CYYC 022200Z CCA 09011KT 30SM FEW070 FEW090 SCT130 SCT260 26/12 A2999 RMK CU2AC1AC1CI0 SH SW / CB ASOCTD SLP147

CYYC;2007-06-02 23:00;CYYC 022300Z 10005KT 30SM FEW070 FEW090 SCT130 BKN260 25/13 A2999 RMK CU1AC2AC2CI0 TCU ASOCTD SLP147

CYYC;2007-06-03 00:00;CYYC 030000Z CCA 09008KT 30SM FEW070TCU FEW090 FEW130 BKN260 26/11 A2999 RMK TCU1AC2AC1CI0 SH NW SLP148

CYYC;2007-06-03 01:00;CYYC 030100Z 11009KT 30SM FEW070TCU BKN150 BKN260 23/11 A2999 RMK TCU1AC3CI0 SH NW / CB SE SLP150

CYYC;2007-06-03 02:00;CYYC 030200Z 32008KT 20SM TS FEW070CB SCT090 BKN130 BKN260 23/07 A3002 RMK CB2AC2AC1CI0 SLP157

CYYC;2007-06-03 02:12;CYYC 030212Z 05002KT 20SM -SHRA FEW070CB SCT090 BKN130 BKN260 23/ RETS RMK CB2AC2AC2CI0 VIS SW 10

CYYC;2007-06-03 03:00;CYYC 030300Z 10009G19KT 30SM FEW019 SCT040 BKN100 BKN260 21/08 A2999 RETS RMK SC1SC3AC2CI0 SC/CB TR SLP147

CYYC;2007-06-03 04:00;CYYC 030400Z 18010KT 15SM FEW120 FEW140 BKN260 21/09 A3002 RMK AC1AC1CI1 SLP155

CYYC;2007-06-03 05:00;CYYC 030500Z 14003KT 15SM FEW140 SCT260 18/09 A3003 RMK AC1CI0 SLP157

CYYC;2007-06-03 06:00;CYYC 030600Z 13006KT 15SM SCT260 17/10 A3004 RMK CI1 SLP160

CYYC;2007-06-03 07:00;CYYC 030700Z 21004KT 15SM BKN140 16/10 A3005 RMK AC6 SLP163

CYYC;2007-06-03 08:00;CYYC 030800Z 06002KT 15SM BKN120 16/10 A3005 RMK AC6 SLP164

CYYC;2007-06-03 09:00;CYYC 030900Z 00000KT 15SM SCT120 OVC160 15/10 A3006 RMK AC3AC4 SLP167

CYYC;2007-06-03 10:00;CYYC 031000Z 33009KT 15SM FEW090 FEW110 BKN140 14/10 A3008 RMK AC1AC2AC3 SLP174

CYYC;2007-06-03 11:00;CYYC 031100Z 34009KT 15SM FEW110 FEW240 13/11 A3008 RMK AC1CI0 SLP175

CYYC;2007-06-03 12:00;CYYC 031200Z CCA 32006KT 20SM FEW120 FEW240 12/11 A3010 RMK AC1CI1 SH E/CI TR SLP188

CYYC;2007-06-03 13:00;CYYC 031300Z 32009KT 20SM FEW120 13/11 A3012 RMK AC1 SLP194

CYYC;2007-06-03 14:00;CYYC 031400Z 33008KT 30SM FEW140 16/12 A3013 RMK AC1 ACSL NE SLP196

CYYC;2007-06-03 15:00;CYYC 031500Z 34007KT 30SM FEW140 FEW270 18/12 A3013 RMK AC1CI1 SLP195

CYYC;2007-06-03 16:00;CYYC 031600Z 03006KT 30SM FEW030 FEW140 SCT270 19/13 A3013 RMK CU1AC1CI0 SLP196

CYYC;2007-06-03 17:00;CYYC 031700Z 03002KT 30SM FEW036 FEW120 BKN270 22/13 A3012 RMK CU1AC1CI0 SLP194

CYYC;2007-06-03 18:00;CYYC 031800Z 34002KT 30SM FEW040 FEW100 BKN260 23/12 A3012 RMK CU1AC1CI1 TCU ASOCTD SLP192

CYYC;2007-06-03 19:00;CYYC 031900Z 04004KT 30SM FEW045TCU FEW100 SCT260 24/11 A3011 RMK TCU1AC1CI0 SLP190

CYYC;2007-06-03 20:00;CYYC 032000Z 04006KT 30SM FEW045CB FEW170 FEW260 25/12 A3011 RMK CB1AC1CI0 CB SW SLP188

CYYC;2007-06-03 21:00;CYYC 032100Z CCA 09005KT 30SM FEW045TCU SCT170 SCT260 25/12 A3011 RMK TCU2AC1CI0 CB SW SLP187

CYYC;2007-06-03 22:00;CYYC 032200Z 08007KT 40SM FEW055TCU BKN075 BKN170 24/11 A3011 RMK TCU2AC3AC1 SH SW+W / CB SW SLP187

CYYC;2007-06-03 22:48;CYYC 032248Z 07006KT 40SM TS SCT055CB BKN075 BKN200 23/ RMK CB3AC2CI2 SH W

CYYC;2007-06-03 23:00;CYYC 032300Z 05008KT 40SM TS SCT055CB BKN080 BKN220 22/14 A3011 RMK CB3AC3CI1 SH W SLP187

CYYC;2007-06-03 23:33;CYYC 032333Z 04006KT 40SM -TSRA SCT055CB OVC080 21/ RMK CB4AC3 VIS SW 5 / LTGCG W

CYYC;2007-06-03 23:42;CYYC 032342Z 28010KT 40SM -TSRA BKN065CB OVC080 21/ RMK CB6AC2 VIS S-SW 3 / LTGCG S-W / WSHFT 2335Z

CYYC;2007-06-04 00:00;CYYC 040000Z CCA 24015G24KT 30SM -TSRA BKN059CB OVC070 18/11 A3013 RMK CB6AC2 LTGCC / PCPN VRY LGT SLP207

CYYC;2007-06-04 00:16;CYYC 040016Z 24015KT 30SM -TSRA BKN059CB OVC081 16/ RETS RMK CB5AC3

CYYC;2007-06-04 00:51;CYYC 040051Z 29013KT 30SM -SHRA FEW030 BKN059CB BKN080 17/ RETS RMK SC2CB3AC2

CYYC;2007-06-04 01:00;CYYC 040100Z 30013KT 20SM -SHRA FEW030 SCT055CB BKN095 17/13 A3013 RETS RMK SC2CB2AC3 SLP207

CYYC;2007-06-04 02:00;CYYC 040200Z 30003KT 30SM FEW040TCU BKN120 BKN220 17/15 A3011 RMK TCU1AC4CI1 CB ASOCTD SE/SH DIST NE-SE/VIRGA SE-SW SLP203

CYYC;2007-06-04 03:00;CYYC 040300Z CCA 30005KT 25SM FEW040CB FEW080 SCT120 BKN220 17/13 A3011 RMK CB1ACC1AC3CI2 CB SE/SH DIST SE/ACC E-SE SLP196

CYYC;2007-06-04 04:00;CYYC 040400Z 00000KT 20SM FEW120 BKN220 17/14 A3012 RMK AC2CI2 ACC ASOCTD N SLP199

CYYC;2007-06-04 05:00;CYYC 040500Z 32005KT 15SM FEW060 FEW120 SCT230 15/12 A3012 RMK SC1AC1CI2 SLP199

CYYC;2007-06-04 06:00;CYYC 040600Z 34005KT 15SM FEW230 14/11 A3013 RMK CI1 SLP198

CYYC;2007-06-04 07:00;CYYC 040700Z 00000KT 15SM FEW230 12/10 A3013 RMK CI1 CONTRAILS SLP198

CYYC;2007-06-04 08:00;CYYC 040800Z 30005KT 15SM FEW075 FEW210 12/10 A3013 RMK AC1CI1 AC TR SLP198

CYYC;2007-06-04 09:00;CYYC 040900Z 30004KT 15SM FEW075 11/09 A3012 RMK AC1 SLP198

CYYC;2007-06-04 10:00;CYYC 041000Z 31004KT 15SM SCT075 SCT210 10/09 A3012 RMK AC2CI0 SLP197

CYYC;2007-06-04 11:00;CYYC 041100Z 32003KT 15SM FEW075 FEW210 10/08 A3012 RMK AC1CI0 SLP196

CYYC;2007-06-04 12:00;CYYC 041200Z 33003KT 20SM FEW060 10/09 A3012 RMK SC2 SLP210

CYYC;2007-06-04 13:00;CYYC 041300Z 00000KT 30SM FEW058 13/11 A3012 RMK SC0 SLP209

CYYC;2007-06-04 14:00;CYYC 041400Z 23003KT 30SM FEW240 14/11 A3011 RMK CI1 SLP207

CYYC;2007-06-04 15:00;CYYC 041500Z 21003KT 30SM FEW240 16/12 A3010 RMK CI1 SLP193

CYYC;2007-06-04 16:00;CYYC 041600Z 18006KT 30SM FEW240 20/13 A3009 RMK CI1 SLP189

CYYC;2007-06-04 17:00;CYYC 041700Z 14010KT 30SM FEW040 FEW240 21/14 A3007 RMK CU1CI1 SLP183

CYYC;2007-06-04 18:00;CYYC 041800Z 16012G17KT 30SM FEW040 FEW240 23/14 A3005 RMK CU1CI0 CVCTV CLD DVLPG SW SLP172

CYYC;2007-06-04 19:00;CYYC 041900Z 13014G20KT 20SM FEW040 FEW230 23/14 A3003 RMK CU1CI0 TCU ASOCTD W SLP166

CYYC;2007-06-04 20:00;CYYC 042000Z 15015G24KT 20SM FEW042 FEW240 24/14 A3000 RMK CU2CI0 CB ASOCTD DIST W SLP157

CYYC;2007-06-04 21:00;CYYC 042100Z 15017G22KT 20SM SCT050 BKN080 BKN240 24/13 A2999 RMK CU4AC2CI0 CVCTV CLD EMBD SLP151

CYYC;2007-06-04 22:00;CYYC 042200Z 15017G25KT 20SM FEW055 SCT080 BKN250 24/12 A2996 RMK CU1AC3CI0 SLP144

CYYC;2007-06-04 23:00;CYYC 042300Z 16017KT 20SM FEW055 FEW080 BKN240 23/12 A2994 RMK CU1AC1CI3 CU TR SLP136

CYYC;2007-06-05 00:00;CYYC 050000Z 14018KT 20SM FEW060 FEW090 BKN240 24/12 A2991 RMK CU1AC1CI2 SLP128

CYYC;2007-06-05 01:00;CYYC 050100Z 14015G21KT 20SM FEW090 BKN240 23/12 A2989 RMK AC1CI2 SLP122

CYYC;2007-06-05 02:00;CYYC 050200Z 15018KT 10SM FEW090 BKN240 22/12 A2987 RMK AC1CI2 SLP117

CYYC;2007-06-05 03:00;CYYC 050300Z CCA 14013G20KT 10SM FEW100 OVC240 21/12 A2986 RMK AC1CI4 ACC ASOCTD SW SLP106

CYYC;2007-06-05 04:00;CYYC 050400Z 20010KT 10SM FEW100 OVC240 19/12 A2986 RMK AC1CI4 SLP105

CYYC;2007-06-05 05:00;CYYC 050500Z 18010KT 15SM FEW100 OVC240 20/12 A2984 RMK AC1CI6 SLP100

CYYC;2007-06-05 06:00;CYYC 050600Z CCA 18005KT 15SM -RA SCT060 BKN120 OVC240 18/12 A2982 RMK SC3AC2CI2 SLP086

CYYC;2007-06-05 06:30;CYYC 050630Z 20011KT 15SM FEW060 BKN120 BKN240 17/ RMK SC2AC2CI0

CYYC;2007-06-05 07:00;CYYC 050700Z 21005KT 15SM FEW060 SCT120 BKN240 16/11 A2979 RMK SC2AC2CI0 SLP078

CYYC;2007-06-05 08:00;CYYC 050800Z 19002KT 15SM FEW060 SCT120 BKN240 16/11 A2975 RMK SC2AC2CI0 SLP064

CYYC;2007-06-05 09:00;CYYC 050900Z 13002KT 15SM SCT100 OVC250 15/11 A2972 RMK AC3CI3 SLP054

CYYC;2007-06-05 10:00;CYYC 051000Z 11002KT 15SM BKN120 OVC250 14/11 A2970 RMK AC4CI3 SLP047

CYYC;2007-06-05 11:00;CYYC 051100Z 16002KT 15SM OVC110 15/11 A2968 RMK AC7 SLP042

CYYC;2007-06-05 12:00;CYYC 051200Z 22005KT 30SM FEW100 OVC120 14/12 A2966 RMK AC1AC7 SLP036

CYYC;2007-06-05 13:00;CYYC 051300Z 25006KT 30SM FEW100 BKN120 15/12 A2964 RMK AC1AC6 SLP028

CYYC;2007-06-05 14:00;CYYC 051400Z 20004KT 40SM FEW090 FEW120 BKN260 17/12 A2962 RMK AC1AC1CI0 SLP021

CYYC;2007-06-05 15:00;CYYC 051500Z 22005KT 40SM FEW090 FEW120 BKN260 19/12 A2960 RMK AC1AC2CI0 SLP011

CYYC;2007-06-05 16:00;CYYC 051600Z 26006KT 40SM FEW040 SCT120 BKN260 21/12 A2958 RMK SC1AC2CI0 SLP004

CYYC;2007-06-05 17:00;CYYC 051700Z 28008KT 40SM FEW045 BKN110 BKN260 22/12 A2956 RMK CU1AC3CI0 SLP998

CYYC;2007-06-05 18:00;CYYC 051800Z 24005KT 40SM FEW042 FEW085 SCT120 BKN260 22/12 A2954 RMK CU1AC1AC2CI1 CU TR SLP989

CYYC;2007-06-05 19:00;CYYC 051900Z 29004KT 40SM FEW042 SCT085 SCT120 BKN260 22/12 A2952 RMK CU2AC2AC1CI3 SLP983

CYYC;2007-06-05 20:00;CYYC 052000Z 32004KT 40SM FEW058 FEW090 BKN260 22/11 A2949 RMK CU2AC1CI3 CB ASOCTD DIST NE+S / SHS DIST NE+SW SLP974

CYYC;2007-06-05 21:00;CYYC 052100Z 27004KT 40SM FEW058 SCT091 BKN260 22/12 A2946 RMK CU2AC2CI1 CB ASOCTD DIST NE+SE / SHS DIST SW SLP966

CYYC;2007-06-05 22:00;CYYC 052200Z 32004KT 40SM FEW058 BKN080 BKN260 21/12 A2944 RMK CU1AC6CI1 SHS DIST S SLP960

CYYC;2007-06-05 23:00;CYYC 052300Z 35012KT 20SM SCT060CB BKN100 BKN260 20/13 A2942 RMK CB3AC4CI1 LTGIC E / SHS ALQDS SLP956

CYYC;2007-06-06 00:00;CYYC 060000Z 01010G15KT 20SM SCT060CB BKN088 BKN260 20/13 A2941 RMK CB4AC2CI1 LTGCG SW / SHS NE-W SLP952

CYYC;2007-06-06 01:00;CYYC 060100Z 01013KT 8SM FEW030 SCT060CB BKN080 BKN260 20/11 A2940 RMK SC1CB4AC3CI1 LTGICCCCG SW / SHS SE-W SLP950

CYYC;2007-06-06 01:23;CYYC 060123Z 02010G18KT 8SM -TSRA BKN060CB BKN080 BKN260 19/ RMK CB6AC2CI0 LTGCG

CYYC;2007-06-06 01:33;CYYC 060133Z 18021G27KT 3SM -TSRA BKN030CB BKN080 OVC260 15/ RMK CB6AC1CI0 LTGCG/WSHFT 0129

CYYC;2007-06-06 01:37;CYYC 060137Z CCA 20020G28KT 1SM +TSRA SCT010 OVC030CB 13/ RMK SC3CB5 LTGCG/RVR RWY16 2600FT

CYYC;2007-06-06 01:50;CYYC 060150Z 24017G22KT 1/2SM +TSRA BKN006 OVC020CB 12/ RMK SC4CB4 LTGCG/RVR RWY16 2800FT

CYYC;2007-06-06 02:00;CYYC 060200Z 25015G21KT 3/4SM +TSRA BKN010 OVC026CB 11/11 A2946 RMK SC4CB4 LTGCG/RVR RWY16 4500FT/R20/ SLP967

CYYC;2007-06-06 02:32;CYYC 060232Z 25013KT 1 1/2SM +TSRA OVC020CB 13/ RMK CB8 LTGCG/R40/

CYYC;2007-06-06 02:49;CYYC 060249Z 28005KT 6SM TSRA BKN020CB OVC080 13/ RMK CB6AC2 LTGCG/VIS 2 NE-E

CYYC;2007-06-06 03:00;CYYC 060300Z CCA 31005KT 6SM -TSRA BKN020CB OVC040 13/13 A2944 RERA RMK CB6SC2 LTGCG/VIS 2 NE-E/R40/ SLP967

CYYC;2007-06-06 04:00;CYYC 060400Z CCA 36008KT 15SM TSRA BKN020CB BKN040 OVC080 13/12 A2945 RMK CB6SC2AC1 LTGCC/VIS 3 N-NE/R60/ SLP969

CYYC;2007-06-06 05:00;CYYC 060500Z 32009KT 15SM TSRA FEW006 SCT020CB BKN040 OVC080 14/14 A2942 RMK ST1CB4SC2AC1 LTGCG SLP961

CYYC;2007-06-06 05:39;CYYC 060539Z 32010KT 15SM -RA FEW020CB BKN040 OVC080 13/ RETSRA RMK CB1SC5AC2 LTGCG N

CYYC;2007-06-06 06:00;CYYC 060600Z 33012KT 15SM -RA SCT040 OVC080 14/13 A2942 RETSRA RMK SC3AC4 /R70/ SLP953

CYYC;2007-06-06 06:45;CYYC 060645Z 34004KT 15SM OVC070 13/ RMK AC8

CYYC;2007-06-06 07:00;CYYC 060700Z 32006KT 15SM OVC060 13/13 A2941 RMK SC8 SLP951

CYYC;2007-06-06 08:00;CYYC 060800Z 36006KT 15SM FEW030 OVC060 14/13 A2941 RMK SC1SC8 SLP951

CYYC;2007-06-06 09:00;CYYC 060900Z 33007KT 15SM FEW011 OVC060 13/13 A2941 RMK SC2SC6 SLP952

CYYC;2007-06-06 10:00;CYYC 061000Z 32005KT 15SM BKN008 OVC060 13/13 A2941 RMK SC6SC2 SLP951

CYYC;2007-06-06 10:10;CYYC 061010Z 30005KT 8SM -RA BKN008 OVC030 13/ RMK ST6SC2

CYYC;2007-06-06 11:00;CYYC 061100Z 05006KT 3SM -RA OVC005 12/12 A2941 RMK ST8 SLP952

CYYC;2007-06-06 11:49;CYYC 061149Z 06013KT 2 1/2SM -RA OVC005 12/ RMK ST8

CYYC;2007-06-06 12:00;CYYC 061200Z 05012KT 2SM -RA OVC005 12/12 A2942 RMK SC8 SLP961

CYYC;2007-06-06 13:00;CYYC 061300Z 05016KT 2 1/2SM -RA BKN005 OVC012 10/09 A2945 RMK ST6SC2 SLP970

CYYC;2007-06-06 13:22;CYYC 061322Z 03015G20KT 3SM RA OVC005 10/ RMK SC8

CYYC;2007-06-06 14:00;CYYC 061400Z 03016G21KT 3SM +RA OVC005 10/09 A2949 RMK SC8 SLP982

CYYC;2007-06-06 14:20;CYYC 061420Z 03013G20KT 4SM +RA BKN005 OVC027 10/ RMK SC4SC4

CYYC;2007-06-06 14:38;CYYC 061438Z 03014G20KT 4SM +RA BKN005 OVC027 10/ RMK SC6SC2

CYYC;2007-06-06 15:00;CYYC 061500Z 03018KT 4SM +RA BKN005 OVC021 10/09 A2953 RMK SC6SC2 /R14/ SLP009

CYYC;2007-06-06 16:00;CYYC 061600Z 02016KT 4SM +RA BKN006 OVC021 10/10 A2956 RMK SC6SC2 SLP020

CYYC;2007-06-06 16:44;CYYC 061644Z 02015G25KT 4SM -RA BKN006 OVC027 10/ RERA RMK SC4SC4

CYYC;2007-06-06 17:00;CYYC 061700Z 02017G25KT 5SM -RA BKN006 OVC027 10/09 A2959 RERA RMK SC4SC4 SLP029

CYYC;2007-06-06 17:43;CYYC 061743Z 02019KT 5SM -RA BKN006 OVC027 10/ RMK SC6SC2

CYYC;2007-06-06 18:00;CYYC 061800Z CCA 01020G27KT 5SM -RA BKN006 OVC027 10/09 A2962 RMK SC6SC2 /R24/ SLP041

CYYC;2007-06-06 19:00;CYYC 061900Z 01020G25KT 15SM BKN008 OVC021 10/08 A2965 RMK SC6SC2 SLP051

CYYC;2007-06-06 19:19;CYYC 061919Z 01018KT 15SM SCT008 OVC020 11/ RMK SC3SC5

CYYC;2007-06-06 20:00;CYYC 062000Z 01019G27KT 15SM FEW008 OVC030 12/08 A2969 RMK SC2SC6 SLP061

CYYC;2007-06-06 21:00;CYYC 062100Z 01015G25KT 20SM FEW008 BKN030 OVC090 11/06 A2971 RMK SC1SC5AC2 SLP071

CYYC;2007-06-06 22:00;CYYC 062200Z 02010G15KT 20SM FEW014 FEW024 BKN042 BKN100 11/07 A2974 RMK SC1SC2SC3AC2 SLP079

CYYC;2007-06-06 23:00;CYYC 062300Z 03011KT 20SM FEW030 SCT060 OVC100 11/06 A2975 RMK SC1SC3AC3 SLP084

CYYC;2007-06-07 00:00;CYYC 070000Z 02009KT 20SM FEW030 BKN048 11/06 A2977 RMK SC1SC6 SLP095

CYYC;2007-06-07 01:00;CYYC 070100Z 02010KT 20SM FEW025 FEW048 SCT085 BKN130 11/06 A2978 RMK SC1SC1AC2AC4 LWR SC TR SLP097

CYYC;2007-06-07 02:00;CYYC 070200Z 32011KT 10SM FEW030 BKN050 OVC090 11/07 A2980 RMK SC1SC5AC2 SLP104

CYYC;2007-06-07 03:00;CYYC 070300Z 34014KT 12SM FEW030 BKN058 OVC095 10/07 A2982 RMK SC1SC6AC2 SLP113

CYYC;2007-06-07 04:00;CYYC 070400Z 34011KT 12SM BKN042 OVC090 10/07 A2984 RMK SC6AC2 SLP121

CYYC;2007-06-07 05:00;CYYC 070500Z 35011KT 12SM FEW035 BKN065 OVC090 09/07 A2986 RMK SC1SC6AC2 SLP126

CYYC;2007-06-07 06:00;CYYC 070600Z 35008KT 12SM FEW032 SCT065 OVC130 08/06 A2986 RMK SC1SC3AC4 SLP133

CYYC;2007-06-07 07:00;CYYC 070700Z 32008KT 12SM FEW040 BKN082 OVC130 08/06 A2986 RMK SC1AC6AC2 SLP133

CYYC;2007-06-07 08:00;CYYC 070800Z 32010KT 12SM FEW040 OVC071 08/05 A2987 RMK SC1AC7 SLP134

CYYC;2007-06-07 09:00;CYYC 070900Z 31010G15KT 12SM BKN065 OVC085 08/04 A2986 RMK SC6AC2 SLP132

CYYC;2007-06-07 10:00;CYYC 071000Z 34008KT 12SM BKN056 OVC078 07/05 A2987 RMK SC6AC2 SLP135

CYYC;2007-06-07 11:00;CYYC 071100Z 32009KT 15SM BKN058 OVC070 07/04 A2988 RMK SC6AC2 SLP138

CYYC;2007-06-07 12:00;CYYC 071200Z 30005KT 20SM SCT060 BKN100 06/04 A2989 RMK SC4AC3 SLP144

CYYC;2007-06-07 13:00;CYYC 071300Z 31008KT 20SM FEW065 BKN140 08/04 A2990 RMK SC1AC2 SLP146

CYYC;2007-06-07 14:00;CYYC 071400Z 31007KT 20SM FEW140 09/03 A2990 RMK AC1 SLP146

CYYC;2007-06-07 15:00;CYYC 071500Z 34004KT 20SM FEW024 FEW160 10/04 A2991 RMK CU1AC1 SLP144

CYYC;2007-06-07 16:00;CYYC 071600Z 35003KT 25SM FEW032 FEW150 FEW180 12/04 A2990 RMK CU1AC1AC1 SLP141

CYYC;2007-06-07 17:00;CYYC 071700Z 21004KT 25SM FEW032 FEW140 FEW240 13/05 A2988 RMK CU1AC1CC1 SLP136

CYYC;2007-06-07 18:00;CYYC 071800Z 00000KT 25SM SCT050 SCT140 SCT260 14/05 A2987 RMK CU3AC1CI1 CI TR SLP130

CYYC;2007-06-07 19:00;CYYC 071900Z 09003KT 25SM FEW050 SCT120 SCT160 SCT260 15/04 A2986 RMK CU2AC1AC1CI1 HI AC/CI TR SLP126

CYYC;2007-06-07 20:00;CYYC 072000Z 21004KT 25SM FEW052 SCT090 BKN180 BKN250 15/05 A2985 RMK CU2AC2AC1CI0 SLP122

CYYC;2007-06-07 21:00;CYYC 072100Z 18004KT 30SM FEW058 SCT090 SCT260 16/06 A2983 RMK CU2AC2CI0 SLP112

CYYC;2007-06-07 22:00;CYYC 072200Z 21005KT 30SM FEW060 FEW090 FEW260 17/07 A2981 RMK CU1AC1CI0 SLP106

CYYC;2007-06-07 23:00;CYYC 072300Z 12008KT 30SM FEW050 FEW100 FEW260 17/09 A2979 RMK CU1AC1CI0 CU TR SLP100

CYYC;2007-06-08 00:00;CYYC 080000Z 15008KT 30SM FEW040 FEW160 BKN260 17/08 A2978 RMK SC1AC1CI6 SC+AC TR SLP096

CYYC;2007-06-08 01:00;CYYC 080100Z 15009KT 30SM FEW040 SCT220 BKN260 17/09 A2977 RMK SC1CI2CI2 SC TR SLP094

CYYC;2007-06-08 02:00;CYYC 080200Z 16007KT 30SM FEW060 FEW140 BKN250 15/08 A2977 RMK SC1AC2CI1 SLP093

CYYC;2007-06-08 03:00;CYYC 080300Z 15007KT 30SM FEW065 SCT140 BKN250 15/08 A2977 RMK SC1AC2CI1 SLP090

CYYC;2007-06-08 04:00;CYYC 080400Z 16007KT 30SM FEW060 BKN110 OVC180 14/08 A2977 RMK SC2AC4AC1 SLP090

CYYC;2007-06-08 05:00;CYYC 080500Z 19003KT 15SM FEW065 BKN081 OVC170 14/08 A2978 RMK SC1AC5AC1 SLP094

CYYC;2007-06-08 06:00;CYYC 080600Z 05011KT 15SM BKN062 OVC095 12/10 A2980 RMK SC6AC2 SLP099

CYYC;2007-06-08 07:00;CYYC 080700Z 30007KT 15SM OVC063 12/10 A2983 RMK SC8 SLP107

CYYC;2007-06-08 08:00;CYYC 080800Z 31008KT 15SM OVC055 13/10 A2984 RMK SC8 SLP112

CYYC;2007-06-08 09:00;CYYC 080900Z 34008KT 15SM BKN052 OVC074 12/09 A2985 RMK SC6AC2 SLP113

CYYC;2007-06-08 10:00;CYYC 081000Z 33011G16KT 15SM BKN054 OVC080 12/09 A2986 RMK SC7AC1 SLP118

CYYC;2007-06-08 11:00;CYYC 081100Z 33008KT 20SM BKN054 OVC080 11/08 A2987 RMK SC7AC1 SLP120

CYYC;2007-06-08 12:00;CYYC 081200Z 32008KT 20SM BKN049 BKN080 OVC100 11/08 A2987 RMK SC6AC2AC1 SLP122

CYYC;2007-06-08 13:00;CYYC 081300Z 32007KT 30SM BKN054 OVC092 12/07 A2988 RMK SC6AC2 VIRGA E SLP125

CYYC;2007-06-08 14:00;CYYC 081400Z 32009KT 30SM BKN050 OVC091 12/07 A2989 RMK SC7AC1 VIRGA N/DIST SH E SLP126

CYYC;2007-06-08 15:00;CYYC 081500Z 34010KT 30SM BKN050 BKN095 13/06 A2990 RMK SC6AC1 DIST SH NE-E SLP131

CYYC;2007-06-08 16:00;CYYC 081600Z 34011KT 30SM BKN050 BKN092 14/06 A2990 RMK SC6AC2 SLP131

CYYC;2007-06-08 17:00;CYYC 081700Z 34013KT 30SM SCT050 SCT092 BKN260 15/06 A2989 RMK SC3AC1CI0 SLP130

CYYC;2007-06-08 18:00;CYYC 081800Z 03007KT 20SM FEW050 FEW090 SCT250 16/08 A2988 RMK SC2AC1CI0 DIST SH SW SLP124

CYYC;2007-06-08 19:00;CYYC 081900Z CCA 15002KT 30SM BKN045 BKN070 BKN180 16/07 A2986 RMK SC6AC1AC1 TCU EMBD/VIRGA OVRHD/DIST SH W SLP119

CYYC;2007-06-08 20:00;CYYC 082000Z 14003KT 30SM BKN042 BKN070 15/08 A2986 RMK SC6AC1 CB/TCU EMBD/DIST SH SW SLP120

CYYC;2007-06-08 21:00;CYYC 082100Z 04006KT 30SM FEW060 SCT070 SCT100 16/10 A2984 RMK CU2AC2AC1 TCU ASOCTD/DIST SH SW/VIRGA E SLP111

CYYC;2007-06-08 22:00;CYYC 082200Z CCA 22003KT 30SM FEW050 FEW080 BKN260 18/08 A2982 RMK CU1AC1CI0 TCU EMBD SLP105

CYYC;2007-06-08 23:00;CYYC 082300Z 21006KT 30SM FEW045 FEW120 BKN260 18/07 A2981 RMK SC1AC1CI0 TCU ASOCTD SLP101

CYYC;2007-06-09 00:00;CYYC 090000Z 14006KT 30SM FEW058 FEW120 SCT240 BKN260 18/09 A2979 RMK SC1AC2CI1CI0 TCU EMBD SLP089

CYYC;2007-06-09 01:00;CYYC 090100Z 14005KT 30SM FEW060 BKN082 OVC260 18/08 A2978 RMK SC2AC3CI2 TCU EMBD SLP088

CYYC;2007-06-09 02:00;CYYC 090200Z 16010KT 30SM FEW050 BKN065 BKN110 BKN250 16/08 A2977 RMK CU2SC3AC1CI0 SH DIST N SLP085

CYYC;2007-06-09 03:00;CYYC 090300Z 05006KT 30SM VCSH FEW050CB BKN088 15/09 A2979 RMK CB2AC4 LTGIC E/ HEAVY SH DIST N-E SLP092

CYYC;2007-06-09 04:00;CYYC 090400Z 04007KT 20SM VCSH SCT050CB BKN100 11/09 A2979 RMK CB3AC2 LTGCC E/ HVY SH N-E SLP094

CYYC;2007-06-09 05:00;CYYC 090500Z 36003KT 15SM FEW050CB OVC096 11/09 A2982 RMK CB2AC5 LTGCC E SLP102

CYYC;2007-06-09 06:00;CYYC 090600Z 00000KT 15SM FEW060CB BKN100 11/09 A2982 RMK CB1AC4 LTGCC E SLP104

CYYC;2007-06-09 07:00;CYYC 090700Z 13006KT 15SM FEW065 SCT110 10/08 A2982 RMK SC1AC2 SLP106

CYYC;2007-06-09 08:00;CYYC 090800Z 21004KT 15SM FEW110 BKN250 10/07 A2981 RMK AC2CI2 SLP103

CYYC;2007-06-09 09:00;CYYC 090900Z 21004KT 15SM SCT100 OVC250 09/07 A2982 RMK AC2CI2 SLP105

CYYC;2007-06-09 10:00;CYYC 091000Z 21006KT 15SM FEW100 SCT250 08/07 A2982 RMK AC2CI0 SLP105

CYYC;2007-06-09 11:00;CYYC 091100Z 18003KT 20SM FEW070 SCT110 BKN250 08/07 A2981 RMK AC1AC1CI1 SLP104

CYYC;2007-06-09 12:00;CYYC 091200Z 07002KT 30SM FEW085 SCT110 SCT250 08/06 A2982 RMK AC2AC1CI0 SLP105

CYYC;2007-06-09 13:00;CYYC 091300Z 00000KT 30SM FEW085 SCT110 BKN250 10/08 A2982 RMK AC1AC2CI1 ACSL SW SLP107

CYYC;2007-06-09 14:00;CYYC 091400Z 08004KT 30SM FEW020 FEW075 SCT200 BKN260 12/08 A2984 RMK SC1AC1CI1CI0 SC TR SLP111

CYYC;2007-06-09 15:00;CYYC 091500Z 04007KT 30SM FEW150 SCT240 BKN260 14/08 A2984 RMK AC1CI1CI0 VIRGA SW SLP111

CYYC;2007-06-09 16:00;CYYC 091600Z 03006KT 30SM FEW110 OVC260 14/10 A2984 RMK AC1CI6 SLP109

CYYC;2007-06-09 17:00;CYYC 091700Z 00000KT 30SM FEW056 FEW150 OVC260 16/09 A2984 RMK SC1AC1CI6 SLP109

CYYC;2007-06-09 18:00;CYYC 091800Z 11002KT 30SM FEW040CB SCT100 BKN160 OVC260 16/08 A2983 RMK CB2AC2AS2CI2 DIST SH S+W/TCU+CU+SC ASOCTD SLP109

CYYC;2007-06-09 18:09;CYYC 091809Z 00000KT 25SM -SHRA FEW050 SCT090 BKN160 OVC260 16/ RMK SC2AC2AS2CI2 PCPN VRY LGT/CB +TCU ASOCTD

CYYC;2007-06-09 18:23;CYYC 091823Z 13003KT 30SM -SHRA FEW009 FEW020 BKN040 BKN090 OVC110 OVC260 15/ RMK SC1SC1SC4AC1AS2CI1 PCPN VRY LGT/TCU+CU ASOCTD

CYYC;2007-06-09 18:40;CYYC 091840Z CCA 00000KT 30SM FEW010 FEW032TCU SCT040 BKN060 BKN090 OVC260 17/ RMK SC1TCU1SC3SC2AC1CI0 TCU/LO SC TR

CYYC;2007-06-09 19:00;CYYC 091900Z 09004KT 30SM FEW036TCU FEW052 SCT060 BKN140 BKN260 17/08 A2982 RMK TCU1SC2SC1AC2CI0 TCU TR/ VIRGA E/DIST SH W SLP104

CYYC;2007-06-09 20:00;CYYC 092000Z 18006KT 30SM FEW055 BKN090 BKN110 BKN260 18/07 A2980 RMK SC2AC3AC1CI1 TCU EMBD SLP098

CYYC;2007-06-09 21:00;CYYC 092100Z 20007KT 30SM FEW045 SCT090 OVC260 19/09 A2978 RMK SC2AC2CI4 SLP088

CYYC;2007-06-09 22:00;CYYC 092200Z 18010G16KT 30SM FEW060 BKN110 OVC260 19/08 A2976 RMK SC2AC3CI2 TCU/CC ASOCTD SLP084

CYYC;2007-06-09 23:00;CYYC 092300Z CCA 19010KT 30SM FEW065 BKN100 BKN260 18/06 A2975 RMK SC2AC4CI1 TCU EMBD/DIST SH SW-W SLP079

CYYC;2007-06-10 00:00;CYYC 100000Z 16011KT 30SM FEW065 BKN100 BKN180 BKN260 19/06 A2973 RMK SC2AC3AC1CI2 SLP073

CYYC;2007-06-10 01:00;CYYC 100100Z 17009G15KT 30SM FEW065 FEW100 SCT160 OVC260 18/07 A2971 RMK SC1AC2AC1CI4 ACSL ASOCTD SLP067

CYYC;2007-06-10 02:00;CYYC 100200Z 21011KT 40SM FEW065 FEW080 BKN110 OVC240 17/06 A2969 RMK SC1AC2AC3CI2 SLP063

CYYC;2007-06-10 03:00;CYYC 100300Z 21008KT 40SM FEW065 FEW080 BKN110 OVC240 16/06 A2969 RMK SC1AC2AC4CI2 SLP054

CYYC;2007-06-10 04:00;CYYC 100400Z 22009KT 20SM FEW065 BKN110 OVC240 16/05 A2968 RMK SC1AC5CI2 SLP053

CYYC;2007-06-10 05:00;CYYC 100500Z 21007KT 15SM FEW070 BKN110 OVC240 14/06 A2967 RMK AC2AC4CI2 SLP049

CYYC;2007-06-10 06:00;CYYC 100600Z 22006KT 15SM BKN078 BKN140 OVC230 14/06 A2966 RMK AC5AC2CI2 SLP044

CYYC;2007-06-10 07:00;CYYC 100700Z 23004KT 15SM FEW078 BKN140 OVC220 13/06 A2965 RMK AC2AC3CI2 SLP041

CYYC;2007-06-10 08:00;CYYC 100800Z 24006KT 15SM FEW090 BKN120 OVC250 12/05 A2964 RMK AC1AC2CI2 SLP037

CYYC;2007-06-10 09:00;CYYC 100900Z 27011KT 15SM FEW120 OVC250 13/04 A2962 RMK AC1CI2 SLP029

CYYC;2007-06-10 10:00;CYYC 101000Z 27010KT 15SM FEW120 OVC240 13/04 A2962 RMK AC2CI2 SLP029

CYYC;2007-06-10 11:00;CYYC 101100Z 27010G15KT 20SM SCT120 OVC230 14/04 A2962 RMK AC3CI5 SLP027

CYYC;2007-06-10 12:00;CYYC 101200Z 26013KT 40SM FEW090 SCT120 OVC240 14/04 A2962 RMK AC1AC3CI4 SLP028

CYYC;2007-06-10 13:00;CYYC 101300Z 27014G20KT 40SM FEW090 SCT120 OVC240 14/04 A2963 RMK AC1AC3CI3 SLP030

CYYC;2007-06-10 14:00;CYYC 101400Z 27013KT 40SM FEW065 FEW090 SCT140 OVC240 14/05 A2963 RMK SC1AC2AC2CI3 SLP032

CYYC;2007-06-10 15:00;CYYC 101500Z 27011G16KT 40SM FEW065 FEW090 SCT140 BKN240 15/05 A2964 RMK SC1AC2AC2CI3 SLP037

CYYC;2007-06-10 16:00;CYYC 101600Z 28013G20KT 40SM FEW070 SCT150 BKN260 17/06 A2964 RMK AC1AC1CI1 SLP036

CYYC;2007-06-10 17:00;CYYC 101700Z 26013KT 40SM FEW070 SCT150 BKN260 18/06 A2965 RMK AC1AC2CI2 SLP039

CYYC;2007-06-10 18:00;CYYC 101800Z 26007G16KT 40SM FEW054 FEW080 FEW150 BKN250 19/06 A2964 RMK CU1AC1AC1CI2 SLP036

CYYC;2007-06-10 19:00;CYYC 101900Z 05004KT 40SM FEW058 FEW080 FEW170 BKN250 20/05 A2964 RMK CU1AC1AC1CI1 SLP034

CYYC;2007-06-10 20:00;CYYC 102000Z 31004KT 40SM FEW058 FEW080 FEW170 BKN240 20/05 A2963 RMK CU1AC1AC1CI2 AC LYRS TR SLP031

CYYC;2007-06-10 21:00;CYYC 102100Z 28003KT 40SM FEW058 FEW080 BKN240 21/05 A2963 RMK CU1AC1CI1 CU TR SLP027

CYYC;2007-06-10 22:00;CYYC 102200Z 25005KT 40SM FEW058 FEW080 BKN240 20/07 A2963 RMK CU1AC1CI1 CU TR SLP027

CYYC;2007-06-10 23:00;CYYC 102300Z 19003KT 40SM FEW058 FEW084 BKN240 22/06 A2962 RMK CU1AC1CI2 CU TR SLP026

CYYC;2007-06-11 00:00;CYYC 110000Z 19008KT 40SM FEW050 BKN084 BKN240 19/06 A2962 RMK CU1AC3CI1 CU TR SLP027

CYYC;2007-06-11 01:00;CYYC 110100Z 29004KT 40SM FEW050 SCT076 BKN240 19/05 A2962 RMK CU1AC2CI3 SLP028

CYYC;2007-06-11 02:00;CYYC 110200Z 28009KT 40SM FEW050 SCT090 BKN240 19/05 A2963 RMK CU1AC3CI2 SLP030

CYYC;2007-06-11 03:00;CYYC 110300Z 29006KT 40SM FEW055 SCT110 BKN240 18/03 A2964 RMK CU1AC3CI2 SLP034

CYYC;2007-06-11 04:00;CYYC 110400Z 36012G17KT 20SM FEW055 SCT100 OVC240 15/08 A2966 RMK CU1AC3CI2 SLP040

CYYC;2007-06-11 05:00;CYYC 110500Z 34007KT 15SM FEW080 SCT120 OVC240 12/08 A2968 RMK AC1AC2CI2 SLP047

CYYC;2007-06-11 06:00;CYYC 110600Z 32009KT 15SM FEW090 OVC240 11/08 A2970 RMK AC2CI4 SLP060

CYYC;2007-06-11 07:00;CYYC 110700Z 32009KT 15SM FEW170 OVC250 10/07 A2970 RMK AC1CI2 SLP060

CYYC;2007-06-11 08:00;CYYC 110800Z 32010KT 15SM FEW170 OVC250 10/07 A2971 RMK AC1CI2 SLP063

CYYC;2007-06-11 09:00;CYYC 110900Z 33006KT 15SM FEW095 SCT170 BKN250 09/07 A2972 RMK AC1AC1CI2 SLP067

CYYC;2007-06-11 10:00;CYYC 111000Z 35008KT 15SM SCT100 BKN250 09/07 A2972 RMK AC2CI2 SLP067

CYYC;2007-06-11 11:00;CYYC 111100Z 35007KT 20SM SCT097 BKN250 08/07 A2972 RMK AC2CI2 SLP067

CYYC;2007-06-11 12:00;CYYC 111200Z 32005KT 20SM FEW070 BKN110 BKN250 09/07 A2974 RMK AC1AC4CI1 SLP076

CYYC;2007-06-11 13:00;CYYC 111300Z 32006KT 20SM FEW062 BKN110 BKN250 10/07 A2974 RMK SC1AC4CI0 SLP077

CYYC;2007-06-11 14:00;CYYC 111400Z 31005KT 30SM FEW060 BKN075 BKN120 12/09 A2975 RMK SC1AC4AC2 SLP080

CYYC;2007-06-11 15:00;CYYC 111500Z 31006KT 30SM FEW060 SCT075 BKN120 14/10 A2975 RMK SC1AC2AC1 SLP074

CYYC;2007-06-11 16:00;CYYC 111600Z 34007KT 40SM FEW025TCU BKN068 BKN120 16/09 A2975 RMK TCU1AC5AC2 CVCTV CLD ALQDS SLP075

CYYC;2007-06-11 16:35;CYYC 111635Z 36005KT 40SM -SHRA FEW030TCU BKN069 BKN120 16/ RMK TCU1AC5AC2 CVCTV CLD ALQDS

CYYC;2007-06-11 17:00;CYYC 111700Z CCA 26006KT 40SM FEW030TCU BKN069 BKN120 16/11 A2974 RMK TCU2AC3AC1 SHS DIST ALQDS SLP072

CYYC;2007-06-11 18:00;CYYC 111800Z 24004KT 40SM FEW010 BKN048TCU BKN090 18/08 A2973 RMK CF1TCU5AC1 SHS DIST ALQDS SLP072

CYYC;2007-06-11 18:25;CYYC 111825Z 28014KT 40SM TS FEW010 BKN048CB BKN090 16/ RMK CF1CB5AC1 LTGCCCG E / SHS DIST ALQDS

CYYC;2007-06-11 19:00;CYYC 111900Z 27013KT 40SM TS FEW010 BKN048CB BKN090 16/05 A2973 RMK CF1CB6AC2 LTGCCCG E / SHS NW-SE ALQDS SLP072

CYYC;2007-06-11 19:19;CYYC 111919Z 34015KT 40SM FEW010 FEW048CB BKN090 16/ RETS RMK CF1CB2AC3 LTGCCCG DIST NE-SE / SHS NW-SE

CYYC;2007-06-11 20:00;CYYC 112000Z 05011KT 40SM FEW015 SCT050CB BKN080 15/10 A2975 RETS RMK CF1CB3AC2 SHS NW-SE SLP076

CYYC;2007-06-11 20:19;CYYC 112019Z 06009KT 40SM -SHRA FEW015 SCT050CB BKN080 16/ RMK CF1CB4AC2

CYYC;2007-06-11 20:48;CYYC 112048Z 08013KT 40SM SCT060CB BKN090 15/ RMK CB3AC2 SHS ALQDS

CYYC;2007-06-11 21:00;CYYC 112100Z 08013KT 40SM SCT060CB BKN090 16/09 A2976 RMK CB3AC2 SHS ALQDS SLP086

CYYC;2007-06-11 22:00;CYYC 112200Z 05006KT 30SM FEW030 BKN060CB BKN090 15/09 A2977 RMK CF1CB5AC1 SHS ALQDS SLP089

CYYC;2007-06-11 22:05;CYYC 112205Z 03004KT 30SM -SHRA FEW030 BKN060CB BKN090 15/ RMK CF1CB5AC1

CYYC;2007-06-11 22:44;CYYC 112244Z 34014KT 30SM FEW030 BKN060CB BKN090 13/ RMK CF1CB5AC2 SHS ALQDS

CYYC;2007-06-11 23:00;CYYC 112300Z 01016G22KT 40SM FEW030 SCT060CB BKN080 14/10 A2979 RMK CF1CB2AC2 CB N-SE / SHS ALQDS SLP096

CYYC;2007-06-12 00:00;CYYC 120000Z 03008KT 30SM FEW030 FEW060CB BKN080 14/10 A2980 RMK CF1CB2AC3 SHS NE+SW SLP103

CYYC;2007-06-12 02:00;CYYC 120200Z CCB 09008KT 20SM FEW060 BKN080 14/09 A2979 RMK SC2AC2 TCU EMBD/SH DSNT NE-SE SLP101

CYYC;2007-06-12 03:00;CYYC 120300Z 13007KT 20SM VCSH FEW060 BKN090 BKN210 13/10 A2980 RMK SC2AC4CI0 SH NE-SE/TCU EMBD SLP099

CYYC;2007-06-12 04:00;CYYC 120400Z CCB 18002KT 20SM VCSH SCT070 BKN100 12/07 A2982 RMK AC3AC2 SH NE-E/TCU NE-E SLP104

CYYC;2007-06-12 05:00;CYYC 120500Z 05002KT 15SM VCSH BKN060 BKN100 11/08 A2983 RMK SC4AC2 SH NE/TCU EMBD SLP107

CYYC;2007-06-12 06:00;CYYC 120600Z 05004KT 15SM BKN050 BKN080 09/08 A2983 RMK SC4AC2 SLP107

CYYC;2007-06-12 07:00;CYYC 120700Z 30004KT 15SM BKN040 OVC080 10/08 A2984 RMK SC6AC2 SLP110

CYYC;2007-06-12 08:00;CYYC 120800Z 01005KT 15SM OVC040 10/06 A2985 RMK SC8 SLP113

CYYC;2007-06-12 09:00;CYYC 120900Z 34011KT 15SM BKN040 OVC080 09/07 A2986 RMK SC4AC3 SLP122

CYYC;2007-06-12 10:00;CYYC 121000Z 34010KT 15SM FEW040 BKN080 07/06 A2986 RMK SC2AC4 SLP123

CYYC;2007-06-12 11:00;CYYC 121100Z 34009KT 15SM OVC080 07/05 A2987 RMK AC7 SLP125

CYYC;2007-06-12 12:00;CYYC 121200Z 34007KT 20SM OVC090 07/05 A2988 RMK AC7 SLP136

CYYC;2007-06-12 13:00;CYYC 121300Z 28004KT 30SM FEW080 OVC100 07/05 A2990 RMK AC1AC7 SLP141

CYYC;2007-06-12 14:00;CYYC 121400Z 24002KT 40SM FEW016 BKN070 BKN090 09/05 A2991 RMK CU1AC7AC1 VIRGA SLP145

CYYC;2007-06-12 15:00;CYYC 121500Z CCA 02003KT 30SM FEW016 BKN070 11/07 A2992 RMK SC1AC2 SHS DIST SW SLP144

CYYC;2007-06-12 16:00;CYYC 121600Z 36004KT 40SM FEW023 SCT038TCU BKN090 12/06 A2991 RMK CU1TCU3AC1 SHS DIST S-SW SLP142

CYYC;2007-06-12 17:00;CYYC 121700Z CCA 22005KT 40SM FEW026 BKN038CB BKN090 11/04 A2991 RMK CU1CB3AC1 LTGCC SE / SHS SE SLP140

CYYC;2007-06-12 17:48;CYYC 121748Z 14011KT 40SM TS VCSH FEW026 BKN040CB BKN090 BKN160 12/ RMK CU1CB3AC1AC1 LTGCG N

CYYC;2007-06-12 18:00;CYYC 121800Z 15010KT 40SM TS VCSH FEW026 BKN040CB BKN090 BKN160 13/06 A2991 RMK CU1CB5AC1AC1 LTGCG N / SHS NW-NE SLP144

CYYC;2007-06-12 18:28;CYYC 121828Z CCA 12008KT 40SM FEW026 BKN040CB BKN090 14/ RETS RMK CF1CB5AC1 LTGCG NE / SHS ALQDS

CYYC;2007-06-12 19:00;CYYC 121900Z 09009G18KT 40SM FEW030 BKN040CB BKN090 14/07 A2992 RETS RMK CF1CB5AC1 SHS ALQDS SLP146

CYYC;2007-06-12 20:00;CYYC 122000Z 13012KT 40SM FEW030 BKN040CB BKN090 14/06 A2992 RMK CU1CB6AC1 CF ASOCTD / SHS ALQDS SLP146

CYYC;2007-06-12 20:13;CYYC 122013Z CCA 13011KT 30SM -SHRA FEW030 BKN040CB BKN090 13/ RMK CU1CB6AC1 CF ASOCTD

CYYC;2007-06-12 20:42;CYYC 122042Z 22005KT 30SM -TSRA FEW030 BKN040CB BKN090 10/ RMK CU1CB7AC1 LTGCCCG N

CYYC;2007-06-12 21:00;CYYC 122100Z 29012G19KT 30SM -TSRA FC FEW030 BKN040CB BKN090 09/05 A2997 RMK CU1CB7AC1 FUNNEL CLOUD 6 NE / LTGCCCG SLP170

CYYC;2007-06-12 21:08;CYYC 122108Z 01021G27KT 30SM -TSRA FEW030 BKN045CB BKN090 07/ RMK CU1CB7AC1 LTGCCCG

CYYC;2007-06-12 21:47;CYYC 122147Z CCA 03008KT 40SM FEW030 BKN045CB BKN090 07/ RETS RMK CF1CB7AC1

CYYC;2007-06-12 22:00;CYYC 122200Z 03008KT 40SM FEW030 BKN045CB BKN090 08/06 A3000 RETS RMK CF1CB7AC1 SLP178

CYYC;2007-06-12 23:00;CYYC 122300Z 02012G17KT 40SM FEW030 SCT045CB SCT090 BKN260 12/06 A3001 RMK CF1CB3AC1CI0 CB E SLP181

CYYC;2007-06-13 00:00;CYYC 130000Z 03011KT 40SM FEW045CB FEW090 BKN260 11/06 A3001 RMK CB1AC1CI2 SLP182

CYYC;2007-06-13 01:00;CYYC 130100Z CCA 00000KT 40SM FEW045 FEW090 FEW260 12/05 A3001 RMK SC1AC1CI0 SLP183

CYYC;2007-06-13 02:00;CYYC 130200Z 16003KT 30SM FEW090 FEW250 11/05 A3002 RMK AC1CI1 SLP186

CYYC;2007-06-13 03:00;CYYC 130300Z 20007KT 30SM FEW090 FEW250 10/06 A3002 RMK AC1CI1 SLP183

CYYC;2007-06-13 04:00;CYYC 130400Z 21009KT 30SM FEW090 FEW250 10/03 A3004 RMK AC1CI0 CB N SLP188

CYYC;2007-06-13 05:00;CYYC 130500Z 27011G17KT 15SM FEW090 FEW250 10/M02 A3005 RMK AC1CI0 WSHFT 0457 SLP192

CYYC;2007-06-13 06:00;CYYC 130600Z 26006KT 15SM FEW090 FEW250 09/M02 A3006 RMK AC1CI1 SLP194

CYYC;2007-06-13 07:00;CYYC 130700Z 00000KT 15SM SKC 07/M02 A3005 RMK SLP193

CYYC;2007-06-13 08:00;CYYC 130800Z 26010KT 15SM SKC 08/M03 A3004 RMK SLP189

CYYC;2007-06-13 09:00;CYYC 130900Z 26010KT 15SM SKC 08/M04 A3004 RMK SLP194

CYYC;2007-06-13 10:00;CYYC 131000Z 28005KT 15SM FEW100 FEW250 08/M04 A3004 RMK AC1CI1 SLP194

CYYC;2007-06-13 11:00;CYYC 131100Z CCA 00000KT 30SM FEW100 FEW250 06/M03 A3004 RMK AC1CI1 SLP195

CYYC;2007-06-13 12:00;CYYC 131200Z 27003KT 40SM FEW100 FEW250 07/M03 A3005 RMK AC1CI0 SLP195

CYYC;2007-06-13 13:00;CYYC 131300Z 12003KT 40SM FEW100 FEW250 10/01 A3004 RMK AC1CI1 AC TR SLP193

CYYC;2007-06-13 14:00;CYYC 131400Z 21007KT 40SM FEW080 FEW090 FEW220 10/02 A3004 RMK AC1AC1CI1 SLP193

CYYC;2007-06-13 15:00;CYYC 131500Z 22005KT 40SM BKN085 BKN220 11/02 A3004 RMK AC3CI1 SLP188

CYYC;2007-06-13 16:00;CYYC 131600Z 20002KT 40SM BKN080 BKN150 BKN200 13/01 A3003 RMK AC3AC1CI1 SLP185

CYYC;2007-06-13 17:00;CYYC 131700Z 12004KT 40SM FEW080 FEW150 FEW200 15/01 A3001 RMK AC1AC1CI1 SLP181

CYYC;2007-06-13 18:00;CYYC 131800Z 14010KT 40SM FEW055 FEW080 FEW200 17/04 A3000 RMK CU1AC1CI1 SLP169

CYYC;2007-06-13 19:00;CYYC 131900Z 13007KT 40SM FEW055 FEW074 FEW130 17/03 A2998 RMK CU1AC1AC1 SLP163

CYYC;2007-06-13 20:00;CYYC 132000Z 18007KT 40SM FEW052 BKN080 BKN110 17/04 A2996 RMK CU1AC5AC1 SLP157

CYYC;2007-06-13 20:33;CYYC 132033Z 20003KT 40SM -SHRA FEW052 BKN078 BKN110 16/ RMK CU1AC7AC1

CYYC;2007-06-13 20:53;CYYC 132053Z 20009G15KT 40SM FEW052 BKN078 BKN110 18/ RMK CU1AC7AC1

CYYC;2007-06-13 21:00;CYYC 132100Z 20006G15KT 40SM FEW052 BKN078 BKN110 18/05 A2994 RMK CU1AC6AC1 SHS E SLP146

CYYC;2007-06-13 22:00;CYYC 132200Z 23006KT 40SM SCT080 BKN110 18/05 A2993 RMK AC2AC2 VIRGA SLP143

CYYC;2007-06-13 23:00;CYYC 132300Z 23009KT 40SM FEW055CB SCT080 SCT230 19/05 A2992 RMK CB1AC2CI1 CB N-E / SHS N-SE / CI TR SLP140

CYYC;2007-06-14 00:00;CYYC 140000Z 27011G17KT 40SM FEW050CB FEW080 FEW230 19/02 A2991 RMK CB1AC2CI1 CB NE-E / SHS NE-SE SLP137

CYYC;2007-06-14 01:00;CYYC 140100Z 27014KT 30SM FEW060CB FEW080 FEW110 FEW230 18/01 A2991 RMK CB1AC1AC1CI1 CB NW / SHS NW+N SLP136

CYYC;2007-06-14 02:00;CYYC 140200Z 29011G16KT 30SM FEW060 FEW110 FEW240 16/01 A2991 RMK CU1AC1CI1 SLP138

CYYC;2007-06-14 03:00;CYYC 140300Z 28010G16KT 30SM FEW065 FEW110 FEW240 15/02 A2992 RMK CU1AC1CI1 SLP140

CYYC;2007-06-14 04:00;CYYC 140400Z 28010KT 30SM FEW065 FEW110 SCT240 14/01 A2992 RMK CU1AC2CI1 SLP142

CYYC;2007-06-14 05:00;CYYC 140500Z 36005KT 15SM BKN090 BKN240 11/03 A2993 RMK AC5CI1 SLP145

CYYC;2007-06-14 06:00;CYYC 140600Z 35007KT 15SM SCT100 09/06 A2994 RMK AC2 SLP150

CYYC;2007-06-14 07:00;CYYC 140700Z 35006KT 15SM SCT100 08/06 A2994 RMK AC2 SLP149

CYYC;2007-06-14 08:00;CYYC 140800Z 32007KT 15SM FEW100 SCT250 06/05 A2995 RMK AC1CI1 SLP151

CYYC;2007-06-14 09:00;CYYC 140900Z 31007KT 15SM BKN230 07/05 A2995 RMK CI2 SLP153

CYYC;2007-06-14 10:00;CYYC 141000Z 33006KT 15SM BKN230 05/04 A2995 RMK CI2 SLP152

CYYC;2007-06-14 11:00;CYYC 141100Z 34006KT 20SM FEW100 BKN230 04/03 A2994 RMK AC1CI2 SLP150

CYYC;2007-06-14 12:00;CYYC 141200Z 31003KT 30SM SCT092 BKN230 05/04 A2995 RMK AC2CI2 SLP154

CYYC;2007-06-14 13:00;CYYC 141300Z 32003KT 40SM FEW050 BKN097 OVC220 08/05 A2995 RMK SC1AC5CI1 VIRGA E SLP155

CYYC;2007-06-14 14:00;CYYC 141400Z 33005KT 30SM SCT060 BKN095 10/07 A2995 RMK SC2AC5 SHS ALQDS SLP155

CYYC;2007-06-14 15:00;CYYC 141500Z 32008KT 30SM -RA BKN049 BKN095 10/06 A2997 RMK SC5AC2 SLP160

CYYC;2007-06-14 16:00;CYYC 141600Z 30013KT 20SM -RA BKN064 BKN100 10/07 A2998 RMK SC6AC2 VIS W 6 SLP162

CYYC;2007-06-14 16:17;CYYC 141617Z 31010G15KT 20SM BKN064 BKN100 10/ RMK SC6AC2 SHS SW-NE / VIS W 10

CYYC;2007-06-14 16:32;CYYC 141632Z 31009KT 20SM -RA BKN060 BKN100 10/ RMK SC6AC2

CYYC;2007-06-14 17:00;CYYC 141700Z 32015KT 20SM -RA FEW025 BKN064 BKN100 10/08 A2998 RMK CU1SC5AC2 SLP162

CYYC;2007-06-14 17:16;CYYC 141716Z 32014KT 20SM FEW025 BKN064 BKN100 11/ RMK CU1SC4AC3 SHS SW-NE

CYYC;2007-06-14 18:00;CYYC 141800Z 31015G20KT 20SM FEW016 BKN053 BKN100 11/06 A2999 RMK CU1SC7AC1 SHS SW-NE SLP173

CYYC;2007-06-14 19:00;CYYC 141900Z 31014G19KT 20SM FEW016 BKN058 BKN100 10/05 A2999 RMK CU1SC7AC1 SHS W SLP173

CYYC;2007-06-14 20:00;CYYC 142000Z 29016KT 20SM FEW018 SCT058 BKN100 13/07 A2998 RMK CU1SC2AC0 SHS W SLP171

CYYC;2007-06-14 21:00;CYYC 142100Z 30009KT 20SM FEW023 FEW058 BKN085 BKN110 12/07 A2999 RMK CU1SC1AC6AC1 SLP174

CYYC;2007-06-14 22:00;CYYC 142200Z 30008KT 20SM FEW026 FEW058 BKN070 BKN110 14/07 A2999 RMK CU1SC1AC6AC1 CVCTV CLD EMBD / CU+ UPR AC TR SLP176

CYYC;2007-06-14 23:00;CYYC 142300Z 33017G25KT 20SM -SHRA FEW018 SCT040 OVC070 11/07 A3002 RMK CU1SC2AC6 CVCTV CLD EMBD SLP184

CYYC;2007-06-15 00:00;CYYC 150000Z 35013G19KT 20SM -SHRA FEW011 BKN049 BKN070 10/07 A3005 RMK CU1SC6AC1 CVCTV CLD EMBD SLP200

CYYC;2007-06-15 01:00;CYYC 150100Z 34011KT 10SM -RA FEW011 BKN052 BKN070 10/07 A3005 RMK CU1SC6AC1 SLP202

CYYC;2007-06-15 02:00;CYYC 150200Z 34007KT 20SM -RA FEW025 BKN096 OVC140 10/07 A3005 RMK CU1AC6AC2 SLP201

CYYC;2007-06-15 03:00;CYYC 150300Z 30008KT 25SM FEW060 BKN110 BKN240 09/06 A3005 RMK SC1AC4CI0 SLP195

CYYC;2007-06-15 04:00;CYYC 150400Z 26004KT 25SM FEW065 FEW110 OVC240 08/06 A3006 RMK SC1AC2CI4 SLP197

CYYC;2007-06-15 05:00;CYYC 150500Z 28002KT 15SM FEW110 BKN240 08/06 A3006 RMK AC1CI2 SLP198

CYYC;2007-06-15 06:00;CYYC 150600Z 33004KT 15SM SCT110 OVC240 08/06 A3006 RMK AC3CI4 SLP200

CYYC;2007-06-15 07:00;CYYC 150700Z 31004KT 15SM FEW082 BKN240 07/06 A3006 RMK AC2CI2 SLP200

CYYC;2007-06-15 08:00;CYYC 150800Z 30002KT 15SM SCT092 BKN240 06/05 A3006 RMK AC2CI2 SLP200

CYYC;2007-06-15 09:00;CYYC 150900Z 31004KT 15SM SCT093 OVC240 07/06 A3006 RMK AC2CI2 SLP200

CYYC;2007-06-15 10:00;CYYC 151000Z 31005KT 15SM BKN110 OVC240 07/06 A3006 RMK AC5CI2 SLP201

CYYC;2007-06-15 11:00;CYYC 151100Z 33004KT 20SM FEW079 BKN110 OVC240 08/06 A3007 RMK AC2AC4CI2 SLP204

CYYC;2007-06-15 12:00;CYYC 151200Z 31006KT 20SM FEW080 BKN110 OVC240 08/06 A3008 RMK AC1AC5CI2 SLP210

CYYC;2007-06-15 13:00;CYYC 151300Z 31006KT 20SM FEW075 BKN110 OVC240 09/06 A3009 RMK AC1AC6CI1 SLP211

CYYC;2007-06-15 14:00;CYYC 151400Z 33006KT 25SM FEW078 SCT120 BKN240 10/06 A3009 RMK AC2AC2CI1 SLP212

CYYC;2007-06-15 15:00;CYYC 151500Z 35006KT 25SM FEW016 SCT120 SCT150 OVC250 12/08 A3010 RMK CU1AC2AC1CI0 SLP210

CYYC;2007-06-15 16:00;CYYC 151600Z 32002KT 20SM -RA BKN022 BKN048 12/08 A3010 RMK SC5SC2 PCPN VRY LGT SLP210

CYYC;2007-06-15 16:09;CYYC 151609Z CCA 31005KT 20SM -SHRAGS BKN023 BKN048 12/ RMK SC6SC1 TCU EMBD

CYYC;2007-06-15 16:33;CYYC 151633Z CCA 25007KT 15SM SHRA BKN021 BKN038 BKN060 10/ REGS RMK SC5SC1SC2 TCU EMBD/ASOCTD

CYYC;2007-06-15 17:00;CYYC 151700Z 27007KT 15SM SHRA FEW016 FEW022 BKN038 10/07 A3010 RERAGS RMK SC1SC2SC5 VIS SW 7/TCU EMBD SLP211

CYYC;2007-06-15 18:00;CYYC 151800Z 25005KT 20SM -SHRA FEW018 FEW035 OVC042 11/09 A3010 RERA RMK SC1SC1SC7 PCPN VRY LGT/TCU EMBD SLP214

CYYC;2007-06-15 19:00;CYYC 151900Z 00000KT 20SM FEW042 BKN090 13/08 A3009 RMK SC2AC6 SLP211

CYYC;2007-06-15 20:00;CYYC 152000Z 07005KT 20SM FEW050 BKN090 BKN160 BKN240 15/08 A3009 RMK SC2AC3AC1CI1 SLP211

CYYC;2007-06-15 21:00;CYYC 152100Z 35010KT 20SM BKN034 OVC082 14/08 A3009 RMK SC6AC2 DIST SH W/TCU ASOCTD SLP206

CYYC;2007-06-15 22:00;CYYC 152200Z 34010KT 25SM FEW009 FEW065TCU BKN080 BKN250 14/08 A3008 RMK SC1TCU1AC4CI1 SLP204

CYYC;2007-06-15 23:00;CYYC 152300Z CCA 32005KT 25SM FEW030TCU SCT100 BKN120 BKN250 13/06 A3007 RMK TCU1AC3AC2CI2 TCU TR/DIST SH SE-S SLP201

CYYC;2007-06-16 00:00;CYYC 160000Z 32003KT 25SM FEW036TCU FEW065 BKN072 BKN120 BKN250 16/07 A3006 RMK TCU1SC1AC4AC1CI0 DIST SH E/TCU TR SLP191

CYYC;2007-06-16 01:00;CYYC 160100Z 12003KT 25SM FEW030CB SCT060 BKN120 BKN250 15/07 A3005 RMK CB1SC2AC2CI0 TCU ASOCTD/CB S SLP190

CYYC;2007-06-16 02:00;CYYC 160200Z 15010KT 15SM VCSH FEW040TCU BKN080 OVC140 12/08 A3006 RMK TCU2AC4AC2 SH SE SLP193

CYYC;2007-06-16 02:08;CYYC 160208Z 15007KT 15SM -SHRA SCT040TCU BKN077 OVC140 12/ RMK TCU3AC4AC1

CYYC;2007-06-16 03:00;CYYC 160300Z 00000KT 15SM -SHRA FEW020 FEW050TCU BKN078 OVC140 12/09 A3006 RMK SC1TCU2AC4AC1 PCPN VRY LGT SLP193

CYYC;2007-06-16 03:29;CYYC 160329Z 00000KT 15SM FEW030 FEW050TCU BKN085 OVC170 12/ RMK SC1TCU2AC4AC1

CYYC;2007-06-16 04:00;CYYC 160400Z 18004KT 15SM FEW050TCU OVC080 11/06 A3006 RMK TCU2AC6 DIST SH E-S SLP195

CYYC;2007-06-16 04:46;CYYC 160446Z 20008KT 10SM -SHRA BKN047 BKN061 OVC090 10/ RMK SC5SC2AC2 CB EMBD

CYYC;2007-06-16 05:00;CYYC 160500Z 23010KT 15SM -SHRA BKN050 OVC078 10/09 A3007 RMK SC6AC2 SLP198

CYYC;2007-06-16 06:00;CYYC 160600Z 21005KT 10SM -SHRA BKN043 OVC060 10/08 A3009 RMK SC6SC2 TCU EMBD SLP206

CYYC;2007-06-16 07:00;CYYC 160700Z 24005KT 10SM -RA OVC050 09/08 A3007 RMK SC8 SLP202

CYYC;2007-06-16 08:00;CYYC 160800Z 00000KT 10SM -RA OVC056 09/08 A3006 RMK SC8 SLP198

CYYC;2007-06-16 08:29;CYYC 160829Z 00000KT 15SM BKN059 OVC081 09/ RMK SC5AC2

CYYC;2007-06-16 09:00;CYYC 160900Z 32002KT 15SM FEW040 BKN065 OVC080 09/08 A3005 RMK SC1SC4AC2 SLP188

CYYC;2007-06-16 09:19;CYYC 160919Z 31003KT 15SM -RA BKN054 OVC080 09/ RMK SC6AC2

CYYC;2007-06-16 10:00;CYYC 161000Z 00000KT 10SM -RA BKN032 OVC056 09/09 A3005 RMK SC7SC1 SLP188

CYYC;2007-06-16 10:41;CYYC 161041Z 00000KT 6SM -RA BKN005 OVC040 09/ RMK SC6SC2

CYYC;2007-06-16 11:00;CYYC 161100Z 31003KT 10SM -RA BKN006 OVC049 09/09 A3004 RMK SC5SC3 SLP186

CYYC;2007-06-16 11:52;CYYC 161152Z 05002KT 12SM -RA FEW009 OVC047 09/ RMK SC1SC7

CYYC;2007-06-16 12:00;CYYC 161200Z 03002KT 12SM -RA FEW009 FEW034 OVC045 09/09 A3004 RMK SC1SC1SC6 SLP183

CYYC;2007-06-16 13:00;CYYC 161300Z 09005KT 15SM -RA FEW020 BKN055 OVC067 09/09 A3004 RMK SC2SC6AC1 SLP183

CYYC;2007-06-16 13:30;CYYC 161330Z 10005KT 6SM -SHRA FEW006TCU BKN042 BKN070 09/ RMK TCU2SC4AC1

CYYC;2007-06-16 14:00;CYYC 161400Z 11005KT 6SM -SHRA FEW006 BKN048 OVC070 09/09 A3004 RMK CU2SC4AC1 TCU EMBD SLP183

CYYC;2007-06-16 15:00;CYYC 161500Z 03005KT 6SM -SHRA FEW005 SCT030 OVC043 09/09 A3003 RMK CU2SC2SC5 SLP186

CYYC;2007-06-16 16:00;CYYC 161600Z 02002KT 10SM -SHRA SCT007 BKN035 OVC044 10/09 A3003 RMK CU4SC2SC2 PCPN VRY LGT SLP187

CYYC;2007-06-16 16:14;CYYC 161614Z CCA 00000KT 10SM BKN008 BKN015 OVC035 10/ RMK CU5SC2SC1 SH ALQDS

CYYC;2007-06-16 16:31;CYYC 161631Z 03004KT 12SM SCT008 BKN019 OVC035 10/ RMK CU3SC4SC1 SH S-W

CYYC;2007-06-16 17:00;CYYC 161700Z 03005KT 15SM FEW008 BKN020 OVC035 11/09 A3002 RMK CU2SC6SC1 SH N SLP182

CYYC;2007-06-16 17:43;CYYC 161743Z 03006KT 20SM FEW008 OVC012 11/ RMK CU2SC6 SH N+SE

CYYC;2007-06-16 18:00;CYYC 161800Z 04007KT 15SM FEW008 BKN012 OVC020 11/09 A3001 RMK CU2SC6SC1 SH SE SLP181

CYYC;2007-06-16 18:23;CYYC 161823Z 04005KT 20SM FEW008 SCT012 OVC021 11/ RMK CU2SC2SC4 SH SE

CYYC;2007-06-16 19:00;CYYC 161900Z 01004KT 20SM FEW008 OVC022 11/09 A3000 RMK CU1SC7 SH E SLP176

CYYC;2007-06-16 20:00;CYYC 162000Z 04003KT 20SM SCT013 BKN032 BKN050 13/10 A2998 RMK CU4SC2SC1 SH NW-NE / TCU ASOCTD SLP170

CYYC;2007-06-16 21:00;CYYC 162100Z 03006KT 20SM SCT015 BKN030 14/11 A2996 RMK CU4SC3 VIRGA / TCU EMBD SLP159

CYYC;2007-06-16 22:00;CYYC 162200Z 36008KT 20SM SCT017 BKN026 BKN220 14/11 A2993 RMK CU3SC2CS1 VIRGA S / TCU ASOCTD SLP149

CYYC;2007-06-16 23:00;CYYC 162300Z 01007KT 20SM SCT018 BKN030 BKN220 15/11 A2990 RMK CU4SC1CS1 TCU ASOCTD SLP142

CYYC;2007-06-17 00:00;CYYC 170000Z 04011KT 20SM FEW018TCU FEW030 SCT100 BKN180 15/11 A2989 RMK TCU1SC2AC2AC2 SLP134

CYYC;2007-06-17 01:00;CYYC 170100Z CCA 03010KT 20SM SCT018TCU BKN038 OVC080 15/11 A2988 RMK TCU3SC2AC2 SH ALQDS SLP130

CYYC;2007-06-17 01:17;CYYC 170117Z 09012G17KT 20SM SCT018TCU BKN038 OVC080 13/ RMK TCU4SC3AC1 SH ALQDS / WSHFT 0102Z

CYYC;2007-06-17 02:00;CYYC 170200Z 09008KT 20SM -SHRA FEW021CB SCT030 BKN060 BKN090 OVC150 13/10 A2988 RMK CB1SC2SC2AC2AC1 PCPN VRY LGT/LTGCG S SLP132

CYYC;2007-06-17 02:32;CYYC 170232Z 09010KT 20SM FEW030CB BKN042 BKN110 OVC140 13/ RMK CB2SC3AC2AC2 TCU ASOCTD

CYYC;2007-06-17 03:00;CYYC 170300Z 09009KT 20SM FEW001 SCT014 BKN042CB BKN070 OVC140 12/10 A2988 RMK CF1SC3CB2AC1AS2 CF TR/TCU ASOCTD SLP134

CYYC;2007-06-17 03:09;CYYC 170309Z CCA 09006KT 15SM -SHRA BKN010 OVC050CB 12/ RMK SC6CB2 PCPN VRY LGT/SC+TCU ASOCTD

CYYC;2007-06-17 03:53;CYYC 170353Z 12008KT 15SM -SHRA FEW008 OVC081 11/ RMK SC2AC5 PCPN VRY LGT/TCU ASOCTD

CYYC;2007-06-17 04:00;CYYC 170400Z 10009KT 15SM -SHRA FEW008 OVC080 11/11 A2987 RMK SC2AC6 PCPN VRY LGT/TCU + AS ASOCTD SLP130

CYYC;2007-06-17 04:19;CYYC 170419Z CCC 12007KT 15SM -SHRA FEW006 FEW009 BKN080 OVC090 11/ RMK SC1SC1AC4AC2 CLD LO E OVR RWY/PCPN VRY LGT/CU ASOCTD

CYYC;2007-06-17 05:00;CYYC 170500Z 12007KT 15SM FEW002 BKN023 OVC046 11/10 A2987 RMK SC1SC6SC2 LO CLD TR/CU ASOCTD SLP130

CYYC;2007-06-17 05:29;CYYC 170529Z 18009KT 3SM -RA FEW006 BKN012 BKN020 OVC040 11/ RMK SC2SC2SC2SC2

CYYC;2007-06-17 06:00;CYYC 170600Z 22005KT 5SM -RA FEW002 OVC017 10/09 A2986 RERA RMK SC1SC8 SLP129

CYYC;2007-06-17 07:00;CYYC 170700Z 31007KT 5SM -RA BKN021 BKN030 OVC050 10/09 A2985 RMK SC5SC2SC2 SLP123

CYYC;2007-06-17 08:00;CYYC 170800Z 32005KT 7SM -RA OVC026 09/08 A2982 RMK SC8 PCPN VRY LGT SLP115

CYYC;2007-06-17 09:00;CYYC 170900Z 32003KT 6SM -RA OVC032 09/08 A2980 RMK SC8 PCPN VRY LGT SLP105

CYYC;2007-06-17 09:48;CYYC 170948Z 25004KT 2 1/2SM -RA BR OVC032 08/ RMK SC8

CYYC;2007-06-17 10:00;CYYC 171000Z 24006KT 3SM -RA BR FEW015 OVC031 08/08 A2978 RMK SC2SC6 SLP099

CYYC;2007-06-17 11:00;CYYC 171100Z 29007KT 5SM -RA BR SCT011 BKN016 OVC048 08/07 A2977 RMK SC3SC2SC2 SLP095

CYYC;2007-06-17 11:46;CYYC 171146Z CCA 30007KT 10SM -RA FEW009 BKN014 OVC045 07/ RMK SC2SC4SC2

CYYC;2007-06-17 12:00;CYYC 171200Z 30006KT 10SM -RA FEW007 FEW011 BKN017 BKN034 07/07 A2976 RMK SC2SC1SC3SC2 SLP091

CYYC;2007-06-17 13:00;CYYC 171300Z 32009KT 3SM RA BR SCT006 BKN020 OVC035 08/08 A2976 RERA RMK SC3SC2SC2 SLP090

CYYC;2007-06-17 13:05;CYYC 171305Z 30007KT 2 1/2SM RA BR BKN006 BKN020 BKN035 OVC045 08/ RMK SC5SC2SC1SC1

CYYC;2007-06-17 13:12;CYYC 171312Z 31008KT 5SM -RA BR SCT006 BKN020 BKN038 OVC045 08/ RERA RMK SC4SC2SC2SC1

CYYC;2007-06-17 13:36;CYYC 171336Z 33011KT 6SM -RA BKN009 OVC020 08/ RERA RMK SC6SC2

CYYC;2007-06-17 14:00;CYYC 171400Z 32012G17KT 10SM -RA BKN009 OVC015 08/07 A2974 RERA RMK SC5SC3 SLP084

CYYC;2007-06-17 14:16;CYYC 171416Z 31015G20KT 15SM -RA FEW006 BKN015 OVC030 07/ RMK SF1SC5SC2

CYYC;2007-06-17 14:38;CYYC 171438Z 31014KT 10SM -RA FEW006 SCT015 OVC055 07/ RMK SF1SC2SC5

CYYC;2007-06-17 15:00;CYYC 171500Z 30012G18KT 10SM -RA FEW007 FEW015 OVC041 07/07 A2972 RMK SC1SC2SC6 SLP082

CYYC;2007-06-17 15:43;CYYC 171543Z 04011G16KT 5SM -RA BKN009 BKN014 OVC022 09/ RMK SC5SC2SC2

CYYC;2007-06-17 16:00;CYYC 171600Z 05013KT 5SM RA BKN008 OVC021 09/09 A2973 RMK SC6SC2 SLP084

CYYC;2007-06-17 17:00;CYYC 171700Z CCA 01017G27KT 7SM -RA BKN008 BKN020 OVC033 09/08 A2975 RERA RMK SC5SC2SC1 SLP089

CYYC;2007-06-17 17:27;CYYC 171727Z 36018G27KT 5SM -RA SCT008 BKN022 OVC035 08/ RMK SC3SC4SC1

CYYC;2007-06-17 18:00;CYYC 171800Z 35019G26KT 10SM -RA FEW008 BKN022 OVC043 09/08 A2976 RMK SF1SC3SC4 SLP096

CYYC;2007-06-17 19:00;CYYC 171900Z 35018G25KT 6SM -RA FEW008 OVC033 09/08 A2978 RMK SF1SC8 SLP101

CYYC;2007-06-17 20:00;CYYC 172000Z 34013G18KT 6SM -RA FEW009 OVC035 09/09 A2978 RERA RMK SC2SC6 SLP101

CYYC;2007-06-17 21:00;CYYC 172100Z 35019G24KT 5SM -RA FEW008 SCT020 OVC035 09/09 A2980 RMK SC2SC2SC4 SLP110

CYYC;2007-06-17 22:00;CYYC 172200Z 36016G25KT 7SM -RA SCT009 BKN014 OVC030 09/09 A2983 RMK SC3SC2SC2 SLP118

CYYC;2007-06-17 23:00;CYYC 172300Z 34014G19KT 6SM -RA SCT009 BKN014 OVC026 09/09 A2985 RMK SC4SC1SC3 SLP125

CYYC;2007-06-17 23:40;CYYC 172340Z 32015G21KT 15SM -RA FEW007 SCT014 OVC032 10/ RMK SC1SC2SC5

CYYC;2007-06-18 00:00;CYYC 180000Z 32013G20KT 10SM -RA FEW007 SCT016 OVC032 09/08 A2986 RMK SC1SC2SC5 SLP132

CYYC;2007-06-18 00:46;CYYC 180046Z 31017KT 20SM FEW007 SCT030 OVC088 10/ RMK CU1SC2AC5 SH ALQDS

CYYC;2007-06-18 01:00;CYYC 180100Z 31014G20KT 20SM FEW007 SCT030 BKN092 BKN120 11/09 A2985 RMK CU1SC2AC2AC1 SH ALQDS / CB ASOCTD N SLP131

CYYC;2007-06-18 02:00;CYYC 180200Z 31013G18KT 25SM FEW015 SCT050 BKN090 BKN220 10/08 A2987 RMK ST1SC2AC2CI0 TCU ASOCTD N SLP135

CYYC;2007-06-18 03:00;CYYC 180300Z 33019G27KT 20SM VCSH FEW020 SCT050 BKN090 BKN220 10/06 A2988 RMK SC1SC3AC2CI0 CB EMBD/SH N+SE/WSHFT 0256 SLP138

CYYC;2007-06-18 04:00;CYYC 180400Z 29011KT 20SM FEW060 FEW100 SCT250 09/06 A2986 RMK SC1AC1CI0 SH DSNT SSE/CONTRAILS/SC TR SLP133

CYYC;2007-06-18 05:00;CYYC 180500Z 31012KT 15SM FEW100 BKN250 09/05 A2986 RMK AC1CI0 SLP134

CYYC;2007-06-18 06:00;CYYC 180600Z 31009KT 15SM FEW120 SCT240 08/04 A2987 RMK AC1CI0 SLP136

CYYC;2007-06-18 07:00;CYYC 180700Z 27002KT 15SM FEW095 SCT240 07/04 A2986 RMK AC2CI0 SLP134

CYYC;2007-06-18 08:00;CYYC 180800Z 00000KT 15SM OVC100 07/05 A2985 RMK AC7 SLP132

CYYC;2007-06-18 09:00;CYYC 180900Z 25002KT 15SM FEW100 06/05 A2985 RMK AC1 SLP132

CYYC;2007-06-18 10:00;CYYC 181000Z 30002KT 15SM FEW100 07/04 A2985 RMK AC1 SLP132

CYYC;2007-06-18 11:00;CYYC 181100Z 30002KT 15SM FEW100 07/04 A2985 RMK AC1 SLP131

CYYC;2007-06-18 12:00;CYYC 181200Z 32005KT 15SM SCT094 06/04 A2985 RMK AC2 SLP131

CYYC;2007-06-18 13:00;CYYC 181300Z 00000KT 40SM FEW080 FEW100 FEW200 08/06 A2985 RMK AC1AC1CI1 SLP130

CYYC;2007-06-18 14:00;CYYC 181400Z 27003KT 40SM FEW080 FEW100 FEW220 11/07 A2985 RMK AC1AC1CI0 SLP132

CYYC;2007-06-18 15:00;CYYC 181500Z 26006KT 40SM FEW080 FEW100 FEW230 13/07 A2984 RMK AC1AC1CI0 SLP116

CYYC;2007-06-18 16:00;CYYC 181600Z 26006KT 40SM FEW070 FEW100 FEW230 15/07 A2983 RMK AC1AC1CI0 SLP114

CYYC;2007-06-18 17:00;CYYC 181700Z 24003KT 40SM FEW040TCU FEW070 FEW120 FEW240 16/07 A2982 RMK TCU1AC1AC1CI0 TCU S-NW SLP111

CYYC;2007-06-18 18:00;CYYC 181800Z 33003KT 40SM FEW052CB FEW080 SCT240 15/07 A2982 RMK CB1AC1CI0 CB DIST S-NW / AC TR SLP108

CYYC;2007-06-18 19:00;CYYC 181900Z 00000KT 40SM FEW052CB FEW080 BKN240 17/05 A2980 RMK CB2AC1CI0 SLP104

CYYC;2007-06-18 20:00;CYYC 182000Z 10004KT 40SM SCT060CB SCT080 BKN240 17/07 A2981 RMK CB4AC1CI0 SH NW SLP105

CYYC;2007-06-18 21:00;CYYC 182100Z 20007KT 40SM BKN062CB BKN080 BKN240 16/07 A2980 RMK CB6AC1CI0 VIRGA SLP103

CYYC;2007-06-18 21:02;CYYC 182102Z 21008KT 40SM TS VCSH BKN062CB BKN080 BKN240 14/ RMK CB6AC1CI0

CYYC;2007-06-18 21:05;CYYC 182105Z 24008KT 40SM -SHRA BKN062CB BKN080 BKN240 16/ RMK CB6AC1CI0

CYYC;2007-06-18 21:08;CYYC 182108Z 31005KT 40SM -TSRA BKN062CB BKN080 BKN240 15/ RMK CB6AC1CI0

CYYC;2007-06-18 21:30;CYYC 182130Z 21008KT 40SM TS VCSH BKN062CB BKN080 BKN240 14/ RMK CB6AC1CI0

CYYC;2007-06-18 21:48;CYYC 182148Z 12003KT 40SM BKN062CB BKN080 BKN240 16/ RETS RMK CB6AC1CI0

CYYC;2007-06-18 22:00;CYYC 182200Z 10004KT 40SM BKN062CB BKN080 BKN240 16/09 A2980 RETS RMK CB6AC1CI0 SLP104

CYYC;2007-06-18 22:33;CYYC 182233Z CCA 12004KT 40SM TS BKN062CB BKN080 BKN240 17/ RMK CB6AC1CI0 LTGCCCG NW / SH NW

CYYC;2007-06-18 23:00;CYYC 182300Z 07002KT 40SM -TSRA BKN062CB BKN080 BKN240 15/10 A2981 RMK CB6AC1CI0 LTGIC / SH NW SLP107

CYYC;2007-06-18 23:32;CYYC 182332Z 15003KT 40SM -SHRA BKN062CB BKN080 BKN240 12/ RETSRA RMK CB6AC1CI0

CYYC;2007-06-19 00:00;CYYC 190000Z 15006KT 40SM -SHRA BKN066CB BKN080 BKN240 14/11 A2981 RETSRA RMK CB7AC1CI1 SLP112

CYYC;2007-06-19 00:15;CYYC 190015Z CCA 24004KT 40SM BKN066CB BKN080 BKN240 16/ RMK CB5AC1CI1 SH SE-S

CYYC;2007-06-19 01:00;CYYC 190100Z CCA 23003KT 40SM SCT060CB SCT080 BKN240 18/08 A2982 RMK CB2AC1CI1 CB NW-S/SH DSNT NW-S SLP115

CYYC;2007-06-19 02:00;CYYC 190200Z 20005KT 40SM FEW060CB BKN090 14/08 A2983 RMK CB1AC3 CB NE-SE/VIRGA NW-N SLP119

CYYC;2007-06-19 02:38;CYYC 190238Z 24015KT 40SM -SHRA FEW060CB BKN090 15/ RMK CB2AC3 CB NE-SE

CYYC;2007-06-19 03:00;CYYC 190300Z 23004KT 40SM SCT060CB BKN090 14/09 A2984 RMK CB2AC2 CB N-SE/SH DSNT N-SE/VIRGA SLP112

CYYC;2007-06-19 04:00;CYYC 190400Z CCA 24005KT 40SM FEW060CB FEW090 FEW240 12/07 A2985 RMK CB1AC1CI0 CB NNW+NE/ CB TR SLP114

CYYC;2007-06-19 05:00;CYYC 190500Z 27010KT 15SM FEW060CB FEW090 FEW240 12/05 A2986 RMK CB1AC1CI0 CB N SLP118

CYYC;2007-06-19 06:00;CYYC 190600Z 26006KT 15SM FEW100 11/04 A2986 RMK AC1 SLP120

CYYC;2007-06-19 07:00;CYYC 190700Z 28015G22KT 15SM SKC 12/03 A2987 RMK SLP122

CYYC;2007-06-19 08:00;CYYC 190800Z 28013KT 15SM SKC 12/03 A2988 RMK SLP126

CYYC;2007-06-19 09:00;CYYC 190900Z 29013G20KT 15SM FEW100 12/02 A2990 RMK AC1 SLP132

CYYC;2007-06-19 10:00;CYYC 191000Z 35005KT 15SM FEW100 09/03 A2991 RMK AC1 SLP136

CYYC;2007-06-19 11:00;CYYC 191100Z 02004KT 30SM FEW100 FEW250 07/03 A2992 RMK AC1CI0 SLP139

CYYC;2007-06-19 12:00;CYYC 191200Z 36006KT 40SM FEW100 BKN250 09/03 A2993 RMK AC1CI1 AC TR SLP150

CYYC;2007-06-19 13:00;CYYC 191300Z 00000KT 40SM FEW080 BKN250 10/04 A2994 RMK AC1CI1 SLP153

CYYC;2007-06-19 14:00;CYYC 191400Z 24003KT 40SM FEW080 FEW100 FEW240 13/03 A2996 RMK AC1AC1CI0 SLP158

CYYC;2007-06-19 15:00;CYYC 191500Z 19006KT 40SM FEW080 FEW100 BKN220 13/06 A2995 RMK AC1AC1CI7 SLP151

CYYC;2007-06-19 16:00;CYYC 191600Z 21007KT 40SM FEW080 BKN200 13/05 A2997 RMK AC1CI7 SLP155

CYYC;2007-06-19 17:00;CYYC 191700Z 17008KT 40SM FEW080 SCT180 BKN250 14/06 A2994 RMK AC1AC3CI0 SLP146

CYYC;2007-06-19 18:00;CYYC 191800Z 19004KT 40SM FEW080 FEW180 SCT250 16/05 A2994 RMK AC1AC1CI1 SLP148

CYYC;2007-06-19 19:00;CYYC 191900Z 23003KT 40SM FEW050 FEW080 FEW250 18/05 A2994 RMK CU1AC1CI0 SLP147

CYYC;2007-06-19 20:00;CYYC 192000Z 19005KT 40SM FEW055 FEW080 FEW240 19/06 A2993 RMK CU1AC1CI0 SLP143

CYYC;2007-06-19 21:00;CYYC 192100Z 17008KT 40SM FEW055 FEW080 FEW150 SCT240 20/07 A2991 RMK CU1AC1AC1CI0 SLP131

CYYC;2007-06-19 22:00;CYYC 192200Z 22006KT 40SM FEW055 FEW080 FEW150 BKN240 20/08 A2990 RMK CU1AC1AC1CI2 CU + LWR AC TR SLP127

CYYC;2007-06-19 23:00;CYYC 192300Z 19004KT 40SM FEW080 FEW150 BKN240 22/07 A2990 RMK AC1AC1CI2 LWR AC TR SLP128

CYYC;2007-06-20 00:00;CYYC 200000Z 25015G21KT 40SM FEW090 FEW150 BKN240 22/05 A2990 RMK AC1AC1CI1 SLP127

CYYC;2007-06-20 01:00;CYYC 200100Z 27012KT 40SM FEW090 BKN250 21/04 A2989 RMK AC1CI0 SLP126

CYYC;2007-06-20 03:00;CYYC 200300Z CCA 26007KT 40SM FEW050 FEW140 BKN250 19/05 A2990 RMK CU1AC1CI1 CU TR SLP126

CYYC;2007-06-20 04:00;CYYC 200400Z 25003KT 30SM FEW080 SCT140 BKN250 17/05 A2991 RMK AC1AC1CI1 SLP130

CYYC;2007-06-20 05:00;CYYC 200500Z 00000KT 15SM FEW090 SCT210 BKN250 15/05 A2992 RMK AC1CI2CI0 SLP133

CYYC;2007-06-20 06:00;CYYC 200600Z 21005KT 15SM FEW090 SCT250 15/06 A2994 RMK AC1CI0 SLP140

CYYC;2007-06-20 07:00;CYYC 200700Z 20004KT 15SM FEW090 SCT250 14/05 A2995 RMK AC1CI0 SLP143

CYYC;2007-06-20 08:00;CYYC 200800Z 00000KT 15SM SKC 13/05 A2996 RMK SLP146

CYYC;2007-06-20 09:00;CYYC 200900Z 34010G16KT 15SM SKC 10/06 A2998 RMK SLP157

CYYC;2007-06-20 10:00;CYYC 201000Z 34010KT 15SM BKN240 09/08 A3001 RMK CI3 SLP165

CYYC;2007-06-20 11:00;CYYC 201100Z 34008KT 20SM FEW100 BKN240 08/08 A3002 RMK AC2CI4 SLP169

CYYC;2007-06-20 12:00;CYYC 201200Z 33006KT 20SM FEW100 OVC240 08/07 A3003 RMK AC2CI4 SLP175

CYYC;2007-06-20 13:00;CYYC 201300Z 34005KT 30SM FEW080 FEW140 BKN250 09/08 A3005 RMK AC1AC1CI1 SLP179

CYYC;2007-06-20 14:00;CYYC 201400Z 33007KT 40SM FEW080 BKN240 10/08 A3005 RMK AC1CI1 SLP181

CYYC;2007-06-20 15:00;CYYC 201500Z CCA 34004KT 40SM FEW010 FEW080 BKN230 12/09 A3006 RMK CU1AC1CI1 SLP181

CYYC;2007-06-20 16:00;CYYC 201600Z 03002KT 40SM FEW080 BKN230 14/10 A3005 RMK AC1CI6 SLP180

CYYC;2007-06-20 17:00;CYYC 201700Z 00000KT 40SM FEW020 FEW080 BKN230 16/11 A3005 RMK CU1AC1CI2 SLP178

CYYC;2007-06-20 18:00;CYYC 201800Z 00000KT 40SM FEW020 FEW080 SCT230 17/11 A3004 RMK CU1AC1CI1 SLP175

CYYC;2007-06-20 19:00;CYYC 201900Z 10007KT 40SM FEW020 FEW080 BKN230 19/12 A3004 RMK CU1AC1CI2 SLP173

CYYC;2007-06-20 20:00;CYYC 202000Z 08008KT 30SM FEW080 BKN230 20/14 A3003 RMK AC1CI2 SLP171

CYYC;2007-06-20 21:00;CYYC 202100Z 12009KT 30SM FEW026 FEW080 BKN230 20/13 A3003 RMK CU1AC1CI6 SLP173

CYYC;2007-06-20 22:00;CYYC 202200Z 13010KT 30SM FEW035 FEW080 SCT230 22/11 A3001 RMK CU1AC1CI2 SLP168

CYYC;2007-06-20 23:00;CYYC 202300Z 13012G17KT 30SM FEW040 FEW090 FEW230 22/13 A3000 RMK CU1AC1CI1 SLP164

CYYC;2007-06-21 00:00;CYYC 210000Z CCA 12013KT 30SM FEW041 FEW090 FEW230 22/12 A2998 RMK CU1AC1CI1 SLP155

CYYC;2007-06-21 01:00;CYYC 210100Z 14011G16KT 30SM FEW080 FEW100 FEW230 22/13 A2997 RMK AC1AC1CI1 SLP153

CYYC;2007-06-21 02:00;CYYC 210200Z 13013KT 30SM FEW065 FEW120 21/13 A2997 RMK CU1AC1 CU TR SLP152

CYYC;2007-06-21 03:00;CYYC 210300Z 14011KT 30SM FEW065 FEW120 20/12 A2997 RMK CU1AC1 CLDS TR SLP150

CYYC;2007-06-21 04:00;CYYC 210400Z 16009KT 30SM FEW080 FEW120 18/13 A2999 RMK AC1AC1 SLP155

CYYC;2007-06-21 05:00;CYYC 210500Z 17008KT 15SM FEW120 17/11 A3000 RMK AC2 SLP159

CYYC;2007-06-21 06:00;CYYC 210600Z 17005KT 15SM SKC 15/11 A2998 RMK SLP153

CYYC;2007-06-21 07:00;CYYC 210700Z 19004KT 15SM SKC 15/11 A2997 RMK SLP150

CYYC;2007-06-21 08:00;CYYC 210800Z 15006KT 15SM SKC 14/10 A2995 RMK SLP145

CYYC;2007-06-21 09:00;CYYC 210900Z 14005KT 15SM FEW240 13/10 A2995 RMK CI0 SLP141

CYYC;2007-06-21 10:00;CYYC 211000Z 17004KT 15SM FEW240 13/10 A2993 RMK CI0 SLP136

CYYC;2007-06-21 11:00;CYYC 211100Z 21006KT 15SM FEW070 FEW120 FEW240 11/09 A2991 RMK AC1AC1CI0 SLP131

CYYC;2007-06-21 12:00;CYYC 211200Z 28002KT 30SM FEW080 FEW120 FEW240 11/10 A2992 RMK AC1AC1CI0 SLP129

CYYC;2007-06-21 13:00;CYYC 211300Z 20003KT 30SM FEW060 FEW140 FEW250 14/12 A2991 RMK CU1AC1CI0 SLP127

CYYC;2007-06-21 14:00;CYYC 211400Z 21004KT 30SM FEW024 FEW200 16/11 A2991 RMK CU1CI1 SLP126

CYYC;2007-06-21 15:00;CYYC 211500Z 22008KT 30SM FEW032 FEW220 18/11 A2991 RMK CU1CI1 SLP120

CYYC;2007-06-21 16:00;CYYC 211600Z 21007KT 30SM FEW040 BKN230 22/12 A2990 RMK CU1CI0 SLP117

CYYC;2007-06-21 17:00;CYYC 211700Z 18009KT 30SM FEW052 FEW150 BKN220 23/10 A2988 RMK CU1AC1CI1 CC ASOCTD/CU/ACTR SLP112

CYYC;2007-06-21 18:00;CYYC 211800Z 22014G19KT 40SM FEW065 FEW150 SCT220 25/08 A2987 RMK CU1AC1CI3 CC ASOCTD/CU/AC TR SLP106

CYYC;2007-06-21 19:00;CYYC 211900Z 28011KT 40SM FEW065 FEW110 FEW250 26/07 A2987 RMK CU1AC1CI1 CU/AC TR SLP105

CYYC;2007-06-21 20:00;CYYC 212000Z 27008KT 40SM FEW065 FEW110 FEW250 27/07 A2985 RMK SC1AC1CI1 SLP100

CYYC;2007-06-21 21:00;CYYC 212100Z 27008G19KT 30SM FEW065 FEW120 SCT250 27/04 A2985 RMK CU1AC1CI0 CU TR SLP098

CYYC;2007-06-21 22:00;CYYC 212200Z 26013KT 30SM FEW065 FEW130 SCT250 27/06 A2985 RMK CU1AC2CI0 CU TR SLP098

CYYC;2007-06-21 23:00;CYYC 212300Z CCA 24004KT 30SM FEW036 SCT120 SCT210 25/08 A2985 RMK CU1AC4CI1 CU/CI TR SLP098

CYYC;2007-06-22 00:00;CYYC 220000Z 28004KT 30SM FEW065 FEW110 SCT210 25/09 A2985 RMK CU1AC2CI1 CU TR SLP102

CYYC;2007-06-22 01:00;CYYC 220100Z 32007KT 30SM FEW065 FEW140 FEW190 24/08 A2985 RMK CU1AC1AC1 CU TR SLP103

CYYC;2007-06-22 02:00;CYYC 220200Z 33007KT 20SM FEW060 FEW140 FEW210 23/07 A2986 RMK CU1AC2CI1 CU TR SLP106

CYYC;2007-06-22 03:00;CYYC 220300Z 36007KT 20SM FEW060 FEW120 SCT250 20/10 A2989 RMK CU1AC2CI1 SLP113

CYYC;2007-06-22 04:00;CYYC 220400Z 02008KT 20SM FEW060 SCT120 BKN250 18/12 A2992 RMK SC1AC2CI2 SC TR SLP123

CYYC;2007-06-22 05:00;CYYC 220500Z 36009KT 15SM FEW050 SCT120 BKN250 15/11 A2994 RMK SC1AC2CI2 SLP129

CYYC;2007-06-22 06:00;CYYC 220600Z 35006KT 15SM FEW250 13/11 A2995 RMK CI0 SLP135

CYYC;2007-06-22 07:00;CYYC 220700Z 33007KT 15SM FEW250 13/10 A2997 RMK CI0 SLP140

CYYC;2007-06-22 08:00;CYYC 220800Z 31005KT 15SM FEW250 12/10 A2998 RMK CI0 SLP143

CYYC;2007-06-22 09:00;CYYC 220900Z 33007KT 15SM FEW250 11/10 A2998 RMK CI0 SLP145

CYYC;2007-06-22 10:00;CYYC 221000Z 34005KT 15SM FEW250 10/09 A2997 RMK CI0 SLP143

CYYC;2007-06-22 11:00;CYYC 221100Z 35005KT 15SM FEW080 FEW250 09/08 A2997 RMK AC1CI0 SLP141

CYYC;2007-06-22 12:00;CYYC 221200Z 33003KT 15SM FEW080 FEW250 10/09 A2996 RMK AC1CI0 SLP143

CYYC;2007-06-22 13:00;CYYC 221300Z 00000KT 10SM FEW080 12/10 A2996 RMK AC1 HZ SLP141

CYYC;2007-06-22 14:00;CYYC 221400Z 21002KT 25SM SKC 14/12 A2995 RMK HZ SLP138

CYYC;2007-06-22 15:00;CYYC 221500Z 21004KT 25SM FEW140 FEW190 16/12 A2994 RMK AC1AC1 HZ SLP133

CYYC;2007-06-22 16:00;CYYC 221600Z 20008KT 30SM SKC 18/12 A2992 RMK HZ SLP127

CYYC;2007-06-22 17:00;CYYC 221700Z 19009KT 25SM FEW024 FEW210 20/13 A2989 RMK CU1CI1 HZ SLP120

CYYC;2007-06-22 18:00;CYYC 221800Z 19006KT 25SM FEW048 FEW210 22/10 A2987 RMK CU1CI1 HZ SLP113

CYYC;2007-06-22 19:00;CYYC 221900Z 21009KT 25SM FEW065 23/05 A2985 RMK CU1 HZ SLP107

CYYC;2007-06-22 20:00;CYYC 222000Z 21007G15KT 25SM FEW060 FEW140 FEW180 FEW240 23/07 A2984 RMK CU1AC1AC1CI1 HZ SLP102

CYYC;2007-06-22 21:00;CYYC 222100Z 18010G15KT 25SM FEW065 FEW092 FEW190 24/06 A2981 RMK CU1AC1AC1 HZ/CU/HI AC TR SLP091

CYYC;2007-06-22 22:00;CYYC 222200Z 28005KT 25SM FEW100 FEW140 FEW260 24/04 A2980 RMK AC1AC1CI0 HZ/HI AC TR SLP088

CYYC;2007-06-22 23:00;CYYC 222300Z 03005KT 30SM FEW110 FEW210 25/06 A2979 RMK AC1CI1 HZ SLP085

CYYC;2007-06-23 00:00;CYYC 230000Z 34003KT 30SM FEW110 FEW260 25/04 A2978 RMK AC1CI1 HZ SLP079

CYYC;2007-06-23 01:00;CYYC 230100Z 04007KT 30SM FEW120 FEW260 23/09 A2976 RMK AC1CI1 HZ/CI TR SLP073

CYYC;2007-06-23 02:00;CYYC 230200Z 04005KT 25SM FEW110 FEW250 22/12 A2975 RMK AC1CI1 CI TR SLP071

CYYC;2007-06-23 03:00;CYYC 230300Z 04005KT 25SM FEW120 20/10 A2974 RMK AC1 SLP065

CYYC;2007-06-23 04:00;CYYC 230400Z 33013G19KT 20SM FEW120 16/13 A2976 RMK AC1 AC TR SLP071

CYYC;2007-06-23 05:00;CYYC 230500Z 34012KT 15SM FEW120 14/12 A2979 RMK AC1 AC TR SLP079

CYYC;2007-06-23 06:00;CYYC 230600Z 33009KT 15SM SKC 13/11 A2979 RMK SLP084

CYYC;2007-06-23 07:00;CYYC 230700Z 33009KT 15SM SKC 12/11 A2975 RMK SLP073

CYYC;2007-06-23 08:00;CYYC 230800Z 30006KT 15SM SKC 11/10 A2978 RMK SLP080

CYYC;2007-06-23 09:00;CYYC 230900Z 31008KT 12SM FEW060 SCT180 11/10 A2976 RMK SC1AS2 SLP073

CYYC;2007-06-23 10:00;CYYC 231000Z 34004KT 12SM FEW040 BKN180 10/09 A2977 RMK SC2AC2 SLP075

CYYC;2007-06-23 11:00;CYYC 231100Z 31005KT 15SM FEW016 FEW080 BKN200 10/09 A2978 RMK SC1AC2CI1 SLP079

CYYC;2007-06-23 12:00;CYYC 231200Z 31005KT 20SM FEW080 FEW250 10/10 A2979 RMK AC1CI0 SLP085

CYYC;2007-06-23 13:00;CYYC 231300Z 33005KT 20SM FEW015 FEW080 12/11 A2980 RMK ST0AC1 SLP088

CYYC;2007-06-23 13:36;CYYC 231336Z 34004KT 20SM BKN010 BKN080 12/ RMK ST7AC1

CYYC;2007-06-23 14:00;CYYC 231400Z 34009KT 20SM BKN010 12/11 A2982 RMK SC7 SLP093

CYYC;2007-06-23 14:43;CYYC 231443Z 36012KT 20SM BKN010 14/ RMK SC4

CYYC;2007-06-23 15:00;CYYC 231500Z 01014KT 20SM BKN016 14/11 A2983 RMK SC6 SLP099

CYYC;2007-06-23 16:00;CYYC 231600Z 02012KT 20SM SCT018 15/11 A2985 RMK SC3 SLP104

CYYC;2007-06-23 17:00;CYYC 231700Z 02008KT 20SM FEW020 SCT026 16/10 A2985 RMK CF1CU2 CVCTV CLD EMBD SLP106

CYYC;2007-06-23 18:00;CYYC 231800Z 04012G17KT 30SM FEW018 SCT033 BKN094 17/11 A2985 RMK CF1CU2AC1 CVCTV CLD EMBD SLP114

CYYC;2007-06-23 19:00;CYYC 231900Z 06008G16KT 30SM FEW037CB SCT080 16/10 A2985 RMK CB2AC2 SLP111

CYYC;2007-06-23 19:43;CYYC 231943Z 04009KT 30SM -SHRA BKN037CB BKN080 17/ RMK CB6AC1

CYYC;2007-06-23 20:00;CYYC 232000Z 04008KT 30SM BKN037CB BKN080 16/09 A2985 RMK CB6AC1 SH SW SLP112

CYYC;2007-06-23 20:17;CYYC 232017Z 04007KT 30SM -SHRA BKN037CB BKN080 15/ RMK CB6AC1

CYYC;2007-06-23 21:00;CYYC 232100Z 16007KT 30SM BKN040CB BKN080 16/09 A2985 RMK CB6AC2 SH SE-SW SLP116

CYYC;2007-06-23 22:00;CYYC 232200Z 08006KT 30SM SCT050CB BKN250 16/09 A2985 RMK CB4CI1 SH NE-SW SLP114

CYYC;2007-06-23 23:00;CYYC 232300Z 10010G16KT 30SM FEW040CB FEW070 BKN220 16/08 A2985 RMK CB2AC1CI2 SLP115

CYYC;2007-06-24 00:00;CYYC 240000Z 09010KT 30SM FEW040CB FEW070 BKN220 15/09 A2984 RMK CB2AC1CI2 SLP115

CYYC;2007-06-24 01:00;CYYC 240100Z 07008KT 30SM FEW040CB FEW085 BKN200 BKN220 16/09 A2984 RMK CB2AC1CC1CS2 SH S + NE-SW SLP113

CYYC;2007-06-24 02:00;CYYC 240200Z CCA 06010KT 30SM FEW030CB FEW090 FEW200 BKN260 15/08 A2983 RMK CB2AC1CC1CS1 SH NNE + E SLP111

CYYC;2007-06-24 03:00;CYYC 240300Z 07004KT 30SM FEW030CB SCT062 SCT082 BKN230 13/10 A2985 RMK CB1SC3AC1CI2 DIST SH NE SLP116

CYYC;2007-06-24 04:00;CYYC 240400Z 11005KT 20SM SCT062 OVC220 12/09 A2987 RMK SC3CI2 SLP121

CYYC;2007-06-24 05:00;CYYC 240500Z 02005KT 15SM FEW020 BKN062 BKN180 OVC230 11/09 A2988 RMK SC1SC5AC1CI1 LTGCC NW + N SLP125

CYYC;2007-06-24 06:00;CYYC 240600Z 10003KT 15SM FEW020 BKN056 OVC180 11/09 A2989 RMK SC1SC6AC2 SLP129

CYYC;2007-06-24 07:00;CYYC 240700Z 03004KT 15SM SCT061 OVC160 10/08 A2989 RMK SC3AC4 SLP127

CYYC;2007-06-24 08:00;CYYC 240800Z 00000KT 15SM FEW018 SCT058 BKN130 10/09 A2988 RMK SC1SC3AC2 DIST LTNG NW PST HR SLP125

CYYC;2007-06-24 09:00;CYYC 240900Z 02003KT 15SM FEW018 BKN058 BKN130 09/08 A2990 RMK SC1SC6AC1 SLP135

CYYC;2007-06-24 10:00;CYYC 241000Z 06004KT 15SM FEW012 FEW018 SCT060 SCT130 BKN180 08/08 A2990 RMK SF1CU1SC2AC1AC1 SF TR SLP135

CYYC;2007-06-24 11:00;CYYC 241100Z 04003KT 20SM FEW011 FEW020 SCT060 SCT130 07/07 A2989 RMK SF1CU1SC2AC1 SLP133

CYYC;2007-06-24 12:00;CYYC 241200Z 05002KT 30SM FEW042 FEW200 07/07 A2989 RMK SC1CI1 SLP137

CYYC;2007-06-24 13:00;CYYC 241300Z 02004KT 30SM FEW010 FEW045 FEW230 08/08 A2989 RMK ST1SC1CI0 SLP137

CYYC;2007-06-24 14:00;CYYC 241400Z 04007KT 30SM FEW010 BKN034 BKN230 11/09 A2989 RMK SC1SC2CI1 SLP136

CYYC;2007-06-24 15:00;CYYC 241500Z CCA 04010KT 20SM BKN010 BKN034 11/09 A2989 RMK SC2SC3 CF ASOCTD SLP135

CYYC;2007-06-24 16:00;CYYC 241600Z 02008KT 20SM BKN017 BKN037 12/09 A2990 RMK SC6SC2 SLP136

CYYC;2007-06-24 17:00;CYYC 241700Z 05009KT 20SM FEW020 BKN040 13/09 A2989 RMK CF1SC4 CVCTV CLD DVLPG E SLP133

CYYC;2007-06-24 18:00;CYYC 241800Z 07004KT 30SM BKN024 13/08 A2988 RMK CU6 SLP131

CYYC;2007-06-24 19:00;CYYC 241900Z 05008KT 30SM SCT025 SCT090 SCT230 15/09 A2988 RMK CU3AC1CI1 SLP129

CYYC;2007-06-24 20:00;CYYC 242000Z 05006KT 30SM FEW026CB BKN250 16/08 A2987 RMK CB1CI1 CB W SLP127

CYYC;2007-06-24 21:00;CYYC 242100Z 02008KT 30SM BKN040CB BKN250 16/08 A2986 RMK CB4CI0 SLP121

CYYC;2007-06-24 22:00;CYYC 242200Z 07010KT 30SM BKN045CB BKN250 16/08 A2986 RMK CB6CI0 SLP120

CYYC;2007-06-24 22:38;CYYC 242238Z 07009KT 30SM TS BKN045CB BKN250 15/ RMK CB6CI1 LTGCG W

CYYC;2007-06-24 22:51;CYYC 242251Z CCA 04008KT 30SM -TSRA BKN045CB BKN250 14/ RMK CB6CI1 LTGICCCCG

CYYC;2007-06-24 23:00;CYYC 242300Z CCA 27012G18KT 30SM -TSRAGR BKN045CB BKN250 12/09 A2987 RMK CB6CI1 LTGICCCCG PRESRR HAIL DIAM 20MM SLP125

CYYC;2007-06-24 23:12;CYYC 242312Z 19004KT 30SM -TSRA BKN045CB BKN250 13/ RMK CB6CI0 LTGICCCCG PRESFR

CYYC;2007-06-24 23:18;CYYC 242318Z 36012KT 30SM TS BKN045CB BKN250 13/ RMK CB6CI0 LTGICCCCG SH N-NE

CYYC;2007-06-24 23:39;CYYC 242339Z 06005KT 30SM BKN045CB BKN250 16/ RETS RMK CB2CI1 SH NE

CYYC;2007-06-25 00:00;CYYC 250000Z 07005KT 30SM BKN045CB BKN150 BKN250 15/08 A2985 RETS RMK CB4AC1CI0 SH NE + S-SW SLP122

CYYC;2007-06-25 00:30;CYYC 250030Z CCA 05006KT 30SM -SHRA BKN045CB BKN150 BKN250 14/ RMK CB6AC1CI0 SH NE + S-SW / LTGCG S

CYYC;2007-06-25 00:42;CYYC 250042Z 06006KT 30SM -TSRA BKN045CB BKN150 BKN250 13/ RMK CB6AC1CI0 LTG

CYYC;2007-06-25 01:00;CYYC 250100Z 10005G16KT 30SM -TSRA BKN045CB BKN150 BKN250 14/08 A2986 RMK CB7AC1CI1 LTGIC SLP124

CYYC;2007-06-25 02:00;CYYC 250200Z 07013G20KT 30SM BKN045CB BKN120 BKN250 13/06 A2985 RETS RMK CB4AC1CI0 CB NE-E/SH NE-E/VIS NE-E 10/VIRGA W-N SLP120

CYYC;2007-06-25 02:53;CYYC 250253Z 35011KT 30SM FEW045CB FEW120 SCT250 12/ RMK CB1AC1CI0 CB NE/SH DSNT NE/VIRGA W/ACC ASOCTD NW+SE/WSHFT 0253

CYYC;2007-06-25 03:00;CYYC 250300Z 35010KT 30SM FEW045CB FEW120 SCT250 12/08 A2985 RMK CB1AC1CI0 CB NE/SH DSNT NE/VIRGA W/ACC ASOCTD NW+SE SLP121

CYYC;2007-06-25 04:00;CYYC 250400Z 03006KT 30SM FEW045CB FEW120 FEW250 09/06 A2986 RMK CB1AC1CI0 CB NE/ACC ASOCTD SLP124

CYYC;2007-06-25 05:00;CYYC 250500Z 31006KT 15SM FEW045CB FEW120 FEW250 08/06 A2988 RMK CB1AC1CI0 ACC ASOCTD SLP130

CYYC;2007-06-25 06:00;CYYC 250600Z 35006KT 15SM FEW045CB FEW120 FEW250 07/05 A2989 RMK CB1AC1CI0 CB+AC TR/CB N SLP139

CYYC;2007-06-25 07:00;CYYC 250700Z 34005KT 15SM SCT120 BKN250 07/06 A2989 RMK AC2CI0 SLP140

CYYC;2007-06-25 08:00;CYYC 250800Z 34005KT 15SM FEW040 07/07 A2991 RMK SC1 SLP144

CYYC;2007-06-25 09:00;CYYC 250900Z CCA 36005KT 15SM FEW040CB 06/05 A2986 RMK CB1 LTGIC DSNT N-E SLP125

CYYC;2007-06-25 10:00;CYYC 251000Z 33006KT 15SM FEW040CB BKN210 06/05 A2986 RMK CB1CI0 SLP126

CYYC;2007-06-25 11:00;CYYC 251100Z 32006KT 15SM FEW040CB BKN180 BKN210 06/05 A2986 RMK CB1AS2CI0 SLP127

CYYC;2007-06-25 12:00;CYYC 251200Z 32006KT 20SM FEW035 BKN180 BKN210 07/06 A2988 RMK SC2AS2CI0 SLP133

CYYC;2007-06-25 13:00;CYYC 251300Z 32007KT 30SM BKN030 BKN100 BKN180 OVC220 08/07 A2988 RMK SC6AC1AS1CI0 SLP133

CYYC;2007-06-25 14:00;CYYC 251400Z 01008KT 30SM FEW040 BKN140 BKN240 11/07 A2988 RMK SC1AC2CI2 SLP134

CYYC;2007-06-25 15:00;CYYC 251500Z 01010KT 30SM SCT063 BKN140 BKN240 12/07 A2989 RMK SC3AC1CI1 VIRGA E SLP132

CYYC;2007-06-25 16:00;CYYC 251600Z 04011KT 30SM FEW035 SCT041 BKN090 BKN240 12/07 A2989 RMK CU1SC3AC2CI1 CU TR SLP133

CYYC;2007-06-25 17:00;CYYC 251700Z 02011KT 20SM SCT040 SCT060TCU BKN110 BKN240 15/08 A2988 RMK CU3TCU1AC2CI0 SLP131

CYYC;2007-06-25 18:00;CYYC 251800Z 04013KT 20SM FEW024 BKN040 OVC100 13/09 A2987 RMK CU2SC6AC1 VIRGA SW SLP134

CYYC;2007-06-25 18:22;CYYC 251822Z 01014G19KT 20SM -SHRA FEW020 BKN033 OVC069 11/ RMK CU2SC6AC1 CB EMBD

CYYC;2007-06-25 19:00;CYYC 251900Z 01010G16KT 20SM -SHRA FEW030 SCT050CB BKN080 OVC100 12/08 A2988 RMK CU2CB2AC3AC2 SLP137

CYYC;2007-06-25 19:46;CYYC 251946Z 35015KT 30SM FEW043CB BKN080 OVC110 12/ RMK CB2AC4AC2

CYYC;2007-06-25 20:00;CYYC 252000Z 34016KT 30SM FEW043CB BKN080 OVC110 12/07 A2988 RMK CB1AC6AC2 SLP137

CYYC;2007-06-25 20:39;CYYC 252039Z 30024G30KT 7SM -SHRA FEW040CB BKN060 OVC100 09/ RMK CB2SC4AC2

CYYC;2007-06-25 21:00;CYYC 252100Z 33016KT 8SM -SHRA FEW034CB BKN043 OVC090 08/06 A2992 RMK CB2SC6AC1 SLP159

CYYC;2007-06-25 22:00;CYYC 252200Z 28017G26KT 25SM -SHRA BKN046 OVC075 08/06 A2994 RERA RMK SC7AC1 CB EMBD SLP163

CYYC;2007-06-25 23:00;CYYC 252300Z 29016G22KT 40SM -SHRA FEW030 SCT040 OVC094 09/05 A2994 RMK SC1SC3AC4 SLP163

CYYC;2007-06-25 23:26;CYYC 252326Z 32014G19KT 40SM FEW030 FEW050 OVC120 10/ RMK SC1SC2AC6

CYYC;2007-06-26 00:00;CYYC 260000Z 32017KT 40SM FEW030 FEW065 OVC130 11/07 A2997 RMK SC1SC1AC6 SLP168

CYYC;2007-06-26 01:00;CYYC 260100Z 31012G17KT 40SM FEW030 FEW065 OVC170 12/07 A3000 RMK SC1SC1AC6 SLP178

CYYC;2007-06-26 02:00;CYYC 260200Z CCA 33015KT 30SM FEW030TCU FEW065 OVC170 12/05 A3002 RMK TCU1SC2AS3 TCU NE SLP184

CYYC;2007-06-26 03:00;CYYC 260300Z 32011KT 20SM FEW030CB FEW090 FEW170 BKN240 11/05 A3004 RMK CB1AC1AS1CI0 CB NE/VIRGA SW/CB TR SLP186

CYYC;2007-06-26 04:00;CYYC 260400Z 27008KT 25SM FEW030 FEW100 FEW240 09/05 A3006 RMK CU1AC1CI0 SLP193

CYYC;2007-06-26 05:00;CYYC 260500Z 27008KT 15SM FEW070 09/05 A3008 RMK AC1 SLP199

CYYC;2007-06-26 06:00;CYYC 260600Z 31008KT 15SM BKN080 08/05 A3011 RMK AC4 SLP214

CYYC;2007-06-26 07:00;CYYC 260700Z 27005KT 15SM FEW080 08/04 A3011 RMK AC1 SLP216

CYYC;2007-06-26 08:00;CYYC 260800Z 30011KT 15SM FEW080 09/03 A3012 RMK AC1 SLP218

CYYC;2007-06-26 09:00;CYYC 260900Z 29011KT 15SM FEW070 09/02 A3014 RMK AC1 SLP231

CYYC;2007-06-26 10:00;CYYC 261000Z 27007KT 15SM FEW070 08/02 A3016 RMK AC1 SLP235

CYYC;2007-06-26 11:00;CYYC 261100Z 28009KT 30SM FEW070 09/01 A3017 RMK AC1 SLP238

CYYC;2007-06-26 12:00;CYYC 261200Z 27012KT 40SM FEW090 10/01 A3019 RMK AC1 SLP242

CYYC;2007-06-26 13:00;CYYC 261300Z 28016KT 40SM FEW090 11/01 A3021 RMK AC1 SLP248

CYYC;2007-06-26 14:00;CYYC 261400Z 29014KT 40SM FEW090 13/02 A3023 RMK AC1 AC TR SLP253

CYYC;2007-06-26 15:00;CYYC 261500Z 28012G17KT 40SM SKC 15/03 A3026 RMK SLP258

CYYC;2007-06-26 16:00;CYYC 261600Z 31010KT 40SM FEW060 16/03 A3027 RMK CU1 SLP263

CYYC;2007-06-26 17:00;CYYC 261700Z 34011KT 40SM FEW060 16/04 A3028 RMK CU1 SLP265

CYYC;2007-06-26 18:00;CYYC 261800Z 03008KT 40SM FEW070 17/05 A3028 RMK CU1 CU TR SLP269

CYYC;2007-06-26 19:00;CYYC 261900Z 04005KT 40SM FEW070 17/06 A3027 RMK CU1 CU TR SLP267

CYYC;2007-06-26 20:00;CYYC 262000Z 05003KT 40SM FEW070 18/06 A3026 RMK CU1 CU TR SLP264

CYYC;2007-06-26 21:00;CYYC 262100Z CCA 14003KT 40SM FEW070 18/03 A3026 RMK CU1 CU TR SLP256

CYYC;2007-06-26 22:00;CYYC 262200Z 10008KT 40SM FEW070 19/05 A3025 RMK CU1 CU TR SLP255

CYYC;2007-06-26 23:00;CYYC 262300Z 11006KT 40SM FEW080 19/06 A3025 RMK CU1 CU TR SLP254

CYYC;2007-06-27 00:00;CYYC 270000Z 12006KT 40SM FEW080 19/06 A3025 RMK CU1 CU TR SLP250

CYYC;2007-06-27 01:00;CYYC 270100Z 12008KT 40SM FEW080 18/06 A3023 RMK CU1 CU TR SLP245

CYYC;2007-06-27 02:00;CYYC 270200Z 14010G15KT 30SM FEW250 17/06 A3023 RMK CI1 SLP245

CYYC;2007-06-27 03:00;CYYC 270300Z 13010KT 30SM FEW250 16/05 A3024 RMK CI1 SLP244

CYYC;2007-06-27 04:00;CYYC 270400Z 12009KT 30SM FEW250 14/07 A3025 RMK CI1 SLP247

CYYC;2007-06-27 05:00;CYYC 270500Z 12009KT 15SM FEW250 12/07 A3026 RMK CI1 SLP250

CYYC;2007-06-27 06:00;CYYC 270600Z 15008KT 15SM FEW250 12/06 A3026 RMK CI0 SLP256

CYYC;2007-06-27 07:00;CYYC 270700Z 17006KT 15SM FEW250 11/06 A3026 RMK CI0 SLP255

CYYC;2007-06-27 08:00;CYYC 270800Z 17006KT 15SM FEW120 FEW250 10/06 A3025 RMK AC1CI0 SLP252

CYYC;2007-06-27 09:00;CYYC 270900Z 18007KT 15SM FEW170 SCT250 11/06 A3024 RMK AC2CI0 SLP248

CYYC;2007-06-27 10:00;CYYC 271000Z CCA 17011KT 15SM SCT170 BKN250 11/05 A3023 RMK AC3CI1 VIRGA N SLP245

CYYC;2007-06-27 11:00;CYYC 271100Z 16008KT 15SM FEW050 FEW170 SCT250 10/05 A3023 RMK CU1AC2CI0 VIRGA SLP245

CYYC;2007-06-27 12:00;CYYC 271200Z 14005KT 30SM SCT160 BKN250 09/06 A3022 RMK AC3CI1 SLP244

CYYC;2007-06-27 13:00;CYYC 271300Z 16006KT 40SM FEW160 OVC250 11/06 A3023 RMK AC1CI1 VIRGA/ACC ASOCTD SLP245

CYYC;2007-06-27 14:00;CYYC 271400Z 14009KT 40SM FEW160 FEW240 BKN270 12/07 A3023 RMK AC1CI1CI0 SLP245

CYYC;2007-06-27 15:00;CYYC 271500Z 14011KT 40SM FEW160 FEW240 BKN270 14/08 A3022 RMK AC1CI1CI1 SLP241

CYYC;2007-06-27 16:00;CYYC 271600Z 15014G19KT 40SM FEW160 FEW240 BKN270 15/08 A3021 RMK AC1CI1CI0 SLP238

CYYC;2007-06-27 17:00;CYYC 271700Z 16015G25KT 40SM FEW160 FEW240 BKN270 17/08 A3020 RMK AC1CI2CI0 SLP234

CYYC;2007-06-27 18:00;CYYC 271800Z 15016G22KT 40SM FEW160 FEW240 BKN270 18/09 A3020 RMK AC1CI1CI0 SLP231

CYYC;2007-06-27 19:00;CYYC 271900Z 16020G28KT 40SM FEW035 FEW140 FEW220 BKN270 19/10 A3019 RMK CU1AC1CI1CI0 SLP228

CYYC;2007-06-27 20:00;CYYC 272000Z 14019G24KT 40SM FEW035 FEW140 FEW210 BKN270 19/11 A3017 RMK CU1AC1CI1CI0 SLP223

CYYC;2007-06-27 21:00;CYYC 272100Z 14020G25KT 30SM FEW035 FEW140 FEW210 BKN270 20/12 A3016 RMK CU1AC1CI1CI0 SLP217

CYYC;2007-06-27 22:00;CYYC 272200Z 14014G25KT 30SM FEW040 SCT140 SCT210 BKN270 20/11 A3014 RMK CU1AC2CI0CI0 SLP212

CYYC;2007-06-27 23:00;CYYC 272300Z 14015G22KT 30SM FEW040 FEW140 BKN200 20/11 A3013 RMK CU1AC1CI6 SLP209

CYYC;2007-06-28 00:00;CYYC 280000Z 14011G18KT 30SM FEW040 FEW140 BKN200 BKN260 21/12 A3012 RMK CU1AC1CI4CI0 SLP207

CYYC;2007-06-28 01:00;CYYC 280100Z 13014G20KT 30SM FEW050 BKN160 BKN200 BKN260 20/11 A3012 RMK SC1AC2CI3CI0 SLP206

CYYC;2007-06-28 02:00;CYYC 280200Z 12013KT 30SM FEW050 BKN160 BKN260 19/10 A3011 RMK SC1AC5CI1 SLP204

CYYC;2007-06-28 03:00;CYYC 280300Z 12011KT 20SM FEW060 BKN170 OVC250 18/10 A3011 RMK SC1AC4CI2 SLP198

CYYC;2007-06-28 04:00;CYYC 280400Z 12007KT 20SM FEW060 BKN180 OVC250 16/10 A3011 RMK SC1AC5CI2 SLP199

CYYC;2007-06-28 05:00;CYYC 280500Z 16005KT 15SM BKN170 BKN200 OVC250 16/10 A3011 RMK AC5CI2CI1 SLP198

CYYC;2007-06-28 06:00;CYYC 280600Z 15008KT 15SM OVC200 15/10 A3010 RMK CI8 SLP194

CYYC;2007-06-28 07:00;CYYC 280700Z 14005KT 15SM BKN140 OVC200 14/11 A3009 RMK AC5CI3 SLP191

CYYC;2007-06-28 08:00;CYYC 280800Z 13005KT 15SM BKN130 OVC200 14/11 A3007 RMK AC5CI3 SLP186

CYYC;2007-06-28 09:00;CYYC 280900Z 14005KT 15SM BKN130 OVC200 14/11 A3006 RMK AC6CI2 SLP180

CYYC;2007-06-28 10:00;CYYC 281000Z 13007KT 15SM BKN120 OVC200 14/11 A3004 RMK AC6CI2 SLP173

CYYC;2007-06-28 11:00;CYYC 281100Z 14007KT 15SM BKN140 OVC220 13/11 A3004 RMK AC5CI3 SLP172

CYYC;2007-06-28 12:00;CYYC 281200Z 15006KT 20SM BKN120 OVC220 13/11 A3004 RMK AC6CI2 SLP173

CYYC;2007-06-28 13:00;CYYC 281300Z 15007KT 30SM SCT098 OVC240 13/11 A3004 RMK AC4CI4 VIRGA E SLP172

CYYC;2007-06-28 14:00;CYYC 281400Z 16008KT 30SM BKN120 OVC240 14/11 A3004 RMK AC6CI2 VIRGA SLP172

CYYC;2007-06-28 15:00;CYYC 281500Z CCA 18009KT 30SM BKN120 BKN240 15/11 A3004 RMK AC4CI0 SLP173

CYYC;2007-06-28 16:00;CYYC 281600Z 17008KT 30SM FEW120 BKN220 16/12 A3003 RMK AC1CI4 SLP170

CYYC;2007-06-28 17:00;CYYC 281700Z 13006KT 30SM FEW120 BKN220 18/13 A3002 RMK AC1CI4 SLP166

CYYC;2007-06-28 18:00;CYYC 281800Z 14010KT 30SM FEW120 BKN220 20/14 A3000 RMK AC1CI4 SLP158

CYYC;2007-06-28 19:00;CYYC 281900Z 14012KT 30SM FEW024 FEW120 BKN220 20/13 A2999 RMK CU1AC1CI3 SLP153

CYYC;2007-06-28 20:00;CYYC 282000Z 12013KT 30SM FEW027 FEW120 BKN220 21/15 A2996 RMK CU1AC1CI3 SLP146

CYYC;2007-06-28 21:00;CYYC 282100Z 14012G20KT 30SM FEW030 FEW120 BKN220 20/14 A2996 RMK CU1AC1CI3 SLP144

CYYC;2007-06-28 22:00;CYYC 282200Z 13014KT 20SM FEW033 BKN170 BKN220 21/15 A2995 RMK CU1AC3CI2 SLP142

CYYC;2007-06-28 23:00;CYYC 282300Z CCA 14011KT 20SM SCT033 BKN170 BKN220 21/15 A2994 RMK SC2AC1CI4 SLP139

CYYC;2007-06-29 00:00;CYYC 290000Z 13011G16KT 20SM BKN033 BKN150 OVC220 20/15 A2995 RMK SC6AC1CI1 SLP142

CYYC;2007-06-29 00:22;CYYC 290022Z 11014KT 20SM -SHRA SCT033 BKN120 BKN220 20/ RMK SC2AC3CI2

CYYC;2007-06-29 00:39;CYYC 290039Z 17006KT 20SM BKN035 BKN120 BKN220 19/ RMK SC5AC2CI1 CVCTV CLD EMBD

CYYC;2007-06-29 00:45;CYYC 290045Z 17006KT 20SM BKN035 BKN120 BKN220 19/ RMK SC5AC2CI1 CVCTV CLD EMBD

CYYC;2007-06-29 01:00;CYYC 290100Z 11007KT 20SM SCT035 SCT120 BKN210 20/16 A2993 RMK SC2AC2CI2 SH ALQDS SLP135

CYYC;2007-06-29 02:00;CYYC 290200Z 13008KT 20SM FEW025 BKN150 BKN220 19/15 A2993 RMK SC1AC4CI2 SH DIST W-N/ CB ASOCTD W SLP135

CYYC;2007-06-29 02:46;CYYC 290246Z 01005KT 20SM -SHRA FEW020 FEW050CB BKN100 BKN240 19/ RMK SC1CB2AC2CI1

CYYC;2007-06-29 03:00;CYYC 290300Z 05006KT 20SM -SHRA FEW025 FEW045CB BKN150 BKN250 18/16 A2993 RMK SC1CB1AC3CI0 SLP133

CYYC;2007-06-29 03:29;CYYC 290329Z 07004KT 20SM FEW030 BKN120 BKN240 17/ RMK SC2AC4CI1

CYYC;2007-06-29 04:00;CYYC 290400Z 06006KT 20SM FEW030 BKN120 BKN240 17/15 A2993 RMK SC1AC4CI2 SLP134

CYYC;2007-06-29 05:00;CYYC 290500Z 00000KT 15SM SCT050 BKN140 16/15 A2993 RMK SC4AC2 SLP134

CYYC;2007-06-29 06:00;CYYC 290600Z 32004KT 15SM SCT055CB BKN100 15/14 A2991 RMK CB3AC2 LTGCC E-SE SLP127

CYYC;2007-06-29 07:00;CYYC 290700Z 06002KT 15SM FEW055CB BKN100 BKN240 15/14 A2990 RMK CB2AC2CC1 LTGIC E SLP124

CYYC;2007-06-29 08:00;CYYC 290800Z 03003KT 15SM FEW055CB BKN250 14/14 A2988 RMK CB2CI2 LTGIC E SLP118

CYYC;2007-06-29 09:00;CYYC 290900Z 05002KT 15SM FEW100 BKN250 13/13 A2989 RMK AC1CI2 SLP121

CYYC;2007-06-29 10:00;CYYC 291000Z 10004KT 15SM FEW055 BKN100 BKN250 12/12 A2989 RMK SC1AC2CI2 SLP121

CYYC;2007-06-29 11:00;CYYC 291100Z 13006KT 15SM FEW055 SCT120 BKN240 13/13 A2989 RMK SC1AC2CI2 SLP121

CYYC;2007-06-29 12:00;CYYC 291200Z 00000KT 7SM FEW006 SCT100 OVC220 12/12 A2990 RMK ST2AC2CI2 BR SLP127

CYYC;2007-06-29 12:07;CYYC 291207Z 00000KT 7SM BKN005 BKN100 OVC210 13/ RMK ST5AC2CI1

CYYC;2007-06-29 12:38;CYYC 291238Z 31004KT 3SM BR BKN005 BKN120 BKN240 13/ RMK ST5AC2CI0 VIS E 5

CYYC;2007-06-29 13:00;CYYC 291300Z 00000KT 3SM BR BKN005 BKN140 14/14 A2990 RMK ST5AC2 VIS E 5 SLP125

CYYC;2007-06-29 14:00;CYYC 291400Z CCA 00000KT 5SM BR VCSH FEW005 BKN120 BKN240 15/15 A2988 RMK ST1AC6CI0 SLP119

CYYC;2007-06-29 15:00;CYYC 291500Z 19002KT 30SM FEW005 BKN120 BKN240 17/15 A2988 RMK ST1AC5CI1 SH NE+S-SW SLP116

CYYC;2007-06-29 15:52;CYYC 291552Z 24012KT 30SM -SHRA FEW005 BKN120 BKN210 17/ RMK ST1AC5CI1

CYYC;2007-06-29 16:00;CYYC 291600Z 27010G16KT 30SM -SHRA BKN120 BKN210 18/15 A2990 RMK AC6CI1 SLP122

CYYC;2007-06-29 16:24;CYYC 291624Z 31006KT 30SM BKN120 BKN210 20/ RMK AC6CI1 SH ALQDS

CYYC;2007-06-29 17:00;CYYC 291700Z 26002KT 30SM FEW098 BKN200 23/12 A2988 RMK AC2CI3 CVCTV CLD EMBD SLP114

CYYC;2007-06-29 18:00;CYYC 291800Z 04005KT 30SM VCSH BKN094 OVC200 23/17 A2986 RMK AC6CI1 SH ALQDS / PRES UNSTDY SLP105

CYYC;2007-06-29 19:00;CYYC 291900Z 08014KT 15SM BKN065CB OVC180 20/16 A2985 RMK CB6AC2 LTGICCCCG S-W / SH ALQDS / PRES UNSTDY SLP102

CYYC;2007-06-29 19:10;CYYC 291910Z 18002KT 15SM TS BKN060CB OVC100 20/ RMK CB6AC2 LTGICCCCG S-NW / SH ALQDS / PRES UNSTDY

CYYC;2007-06-29 19:15;CYYC 291915Z 19005KT 15SM -TSRA BKN060CB OVC100 19/ RMK CB6AC2 LTGICCCCG S-NW / PRES UNSTDY

CYYC;2007-06-29 20:00;CYYC 292000Z 17012G22KT 30SM -SHRA FEW010 BKN070CB OVC090 18/12 A2988 RETSRA RMK CF1CB6AC2 PRES UNSTDY SLP109

CYYC;2007-06-29 20:25;CYYC 292025Z 02003KT 20SM -TSRA FEW010 BKN080CB OVC100 18/ RMK SC1CB6AC2 LTGCC S

CYYC;2007-06-29 21:00;CYYC 292100Z CCA 09006KT 20SM FEW005 BKN080CB OVC140 19/18 A2989 RETS RMK CF1CB4AC4 CB NW-SE / PRES UNSTDY SLP122

CYYC;2007-06-29 22:00;CYYC 292200Z 08008KT 30SM FEW025 FEW080CB BKN140 BKN220 21/16 A2987 RMK CU1CB2AC2CI3 CB N-SW SLP117

CYYC;2007-06-29 23:00;CYYC 292300Z CCA 08010KT 30SM FEW030 SCT080CB BKN150 BKN220 20/14 A2985 RMK SC1CB2AC0CI0 SLP108

CYYC;2007-06-30 00:00;CYYC 300000Z 09006KT 30SM FEW030 BKN080CB BKN130 BKN220 20/13 A2983 RMK SC1CB6AC1CI1 SH S SLP102

CYYC;2007-06-30 01:00;CYYC 300100Z 14005KT 20SM FEW030 BKN080CB BKN130 BKN220 20/15 A2982 RMK SC1CB6AC1CI1 SC+CI LYRS TR SLP097

CYYC;2007-06-30 02:00;CYYC 300200Z 11006KT 20SM FEW040 FEW090 BKN140 17/14 A2982 RMK SC1AC2AC5 SH ALQDS SLP099

CYYC;2007-06-30 02:09;CYYC 300209Z 12006KT 20SM TS SCT050CB BKN130 17/ RMK CB3AC4 SH ALQDS

CYYC;2007-06-30 02:46;CYYC 300246Z 12004KT 20SM -TSRA BKN018 BKN040CB OVC100 17/ RMK SC5CB2AC1

CYYC;2007-06-30 03:00;CYYC 300300Z CCA 07002KT 20SM -TSRA BKN015 BKN042CB OVC120 17/15 A2983 RMK SC5CB2AC0 SLP100

CYYC;2007-06-30 03:33;CYYC 300333Z 10008KT 20SM TS FEW030 SCT060CB BKN110 16/ RMK SC2CB2AC2 SH DIST N-E

CYYC;2007-06-30 04:00;CYYC 300400Z 08004KT 20SM TS FEW030 SCT060CB BKN110 BKN210 16/15 A2979 RMK SC1CB3AC2CI0 SLP088

CYYC;2007-06-30 04:46;CYYC 300446Z 13014G19KT 15SM TS SCT040CB OVC120 17/ RMK CB4AC3 LTGCC E-S-W

CYYC;2007-06-30 05:00;CYYC 300500Z 16016G31KT 10SM TSRA BKN035CB BKN091 OVC210 17/15 A2980 RMK CB5AS2CS2 LTGCC E-S-W SLP090

CYYC;2007-06-30 05:27;CYYC 300527Z 22011KT 15SM TS SCT050CB BKN160 OVC220 15/ RERA RMK CB3AC2CI1 LTGIC E

CYYC;2007-06-30 06:00;CYYC 300600Z 35008KT 15SM FEW120 13/11 A2980 RETSRA RMK AC1 SLP087

CYYC;2007-06-30 07:00;CYYC 300700Z 35003KT 15SM FEW090 SCT180 13/09 A2983 RMK AC1AC2 SLP094

CYYC;2007-06-30 08:00;CYYC 300800Z 28011KT 15SM FEW160 13/08 A2981 RMK AC2 SLP088

CYYC;2007-06-30 09:00;CYYC 300900Z 27014KT 15SM FEW120 14/06 A2984 RMK AC1 SLP104

CYYC;2007-06-30 10:00;CYYC 301000Z 27011G16KT 15SM FEW120 12/06 A2985 RMK AC1 SLP108

CYYC;2007-06-30 11:00;CYYC 301100Z 28013KT 15SM FEW120 13/06 A2987 RMK AC0 SLP114

CYYC;2007-06-30 12:00;CYYC 301200Z 28010G16KT 40SM FEW060 FEW140 FEW250 13/05 A2989 RMK SC1AC1CI0 SC TR SLP121

CYYC;2007-06-30 13:00;CYYC 301300Z CCA 31010KT 40SM FEW065 SCT140 SCT250 14/06 A2991 RMK SC1AC2CI0 SC TR SLP129

CYYC;2007-06-30 14:00;CYYC 301400Z 28007KT 40SM FEW085 SCT170 BKN240 14/06 A2993 RMK AC1AC3CI1 LWR AC TR SLP135

CYYC;2007-06-30 15:00;CYYC 301500Z 24006KT 40SM FEW085 FEW170 SCT240 12/07 A2995 RMK AC1AC1CI2 SLP146

CYYC;2007-06-30 16:00;CYYC 301600Z 27006KT 40SM FEW085 BKN210 14/07 A2996 RMK AC1CI4 SLP151

CYYC;2007-06-30 17:00;CYYC 301700Z 23004KT 40SM FEW085 BKN200 17/08 A2997 RMK AC1CI2 SLP153

CYYC;2007-06-30 18:00;CYYC 301800Z 23012G19KT 40SM FEW050 FEW085 FEW210 18/06 A2997 RMK CU1AC1CI1 SLP151

CYYC;2007-06-30 19:00;CYYC 301900Z 28013G18KT 40SM FEW058 FEW090 FEW210 19/05 A2998 RMK CU1AC1CI1 SLP154

CYYC;2007-06-30 20:00;CYYC 302000Z 28014KT 40SM FEW067 FEW100 FEW210 20/03 A2998 RMK CU1AC1CI1 SLP155

CYYC;2007-06-30 21:00;CYYC 302100Z 25009G16KT 40SM FEW062 FEW100 FEW210 21/05 A2998 RMK CU1AC1CI1 SLP151

CYYC;2007-06-30 22:00;CYYC 302200Z 29013G19KT 40SM FEW062 FEW090 FEW210 20/03 A2998 RMK CU1AC1CI1 SLP150

CYYC;2007-06-30 23:00;CYYC 302300Z 27012G17KT 40SM FEW065 FEW090 FEW220 21/03 A2998 RMK CU1AC1CI1 SLP151

CYYC;2007-07-01 01:00;CYYC 010100Z 28014G19KT 40SM FEW065 FEW090 FEW220 20/02 A2998 RMK CU1AC1CI1 SLP151

CYYC;2007-07-01 02:00;CYYC 010200Z 26011KT 40SM FEW065 FEW100 19/02 A2998 RMK CU1AC1 CU+AC TR SLP151

CYYC;2007-07-01 03:00;CYYC 010300Z 27014KT 40SM FEW065 FEW100 18/01 A2998 RMK CU1AC1 SLP156

CYYC;2007-07-01 04:00;CYYC 010400Z 29007KT 40SM FEW070 14/02 A3001 RMK AC1 AC TR SLP166

CYYC;2007-07-01 05:00;CYYC 010500Z 29008KT 15SM FEW070 13/01 A3002 RMK AC1 SLP169

CYYC;2007-07-01 06:00;CYYC 010600Z 28012KT 15SM FEW160 14/M00 A3003 RMK AC1 AC TR SLP169

CYYC;2007-07-01 07:00;CYYC 010700Z 27015G20KT 15SM SKC 14/M01 A3003 RMK SLP169

CYYC;2007-07-01 08:00;CYYC 010800Z 30007KT 15SM SKC 13/M01 A3004 RMK SLP172

CYYC;2007-07-01 09:00;CYYC 010900Z 29005KT 15SM SKC 12/M00 A3005 RMK SLP177

CYYC;2007-07-01 10:00;CYYC 011000Z 01004KT 15SM FEW230 10/M00 A3006 RMK CI0 SLP179

CYYC;2007-07-01 11:00;CYYC 011100Z 36004KT 20SM FEW250 08/01 A3006 RMK CI0 SLP180

CYYC;2007-07-01 12:00;CYYC 011200Z 33006KT 40SM FEW250 07/01 A3007 RMK CI0 SLP191

CYYC;2007-07-01 13:00;CYYC 011300Z 00000KT 40SM FEW140 SCT230 BKN260 10/05 A3007 RMK AC1CI1CI0 AC TR SLP191

CYYC;2007-07-01 14:00;CYYC 011400Z 00000KT 40SM FEW140 SCT230 BKN260 12/04 A3008 RMK AC1CI1CI0 SLP195

CYYC;2007-07-01 15:00;CYYC 011500Z 00000KT 40SM FEW140 FEW200 BKN260 16/06 A3007 RMK AC1CI0CI1 SLP181

CYYC;2007-07-01 16:00;CYYC 011600Z 01002KT 40SM FEW140 SCT180 BKN260 17/03 A3006 RMK AC1AC1CI1 SLP179

CYYC;2007-07-01 17:00;CYYC 011700Z 21002KT 40SM FEW140 BKN180 BKN260 18/04 A3005 RMK AC1AC2CI1 LWR AC TR SLP176

CYYC;2007-07-01 18:00;CYYC 011800Z 16009KT 40SM FEW140 FEW180 SCT260 18/05 A3003 RMK AC1AC1CI0 SLP171

CYYC;2007-07-01 19:00;CYYC 011900Z 16008KT 40SM FEW060 FEW140 BKN210 19/06 A3002 RMK SC1AC1CI3 SLP167

CYYC;2007-07-01 20:00;CYYC 012000Z 12007G15KT 40SM FEW060 FEW120 SCT210 19/06 A3001 RMK SC1AC1CI1 SLP163

CYYC;2007-07-01 21:00;CYYC 012100Z CCA 15008KT 40SM FEW060 FEW090 FEW210 FEW250 21/09 A2999 RMK CU1AC1CI1CI0 SLP155

CYYC;2007-07-01 22:00;CYYC 012200Z 15005KT 40SM FEW060 FEW120 FEW250 21/09 A2998 RMK CU1AC1CI0 SLP153

CYYC;2007-07-01 23:00;CYYC 012300Z 15004KT 40SM FEW060 FEW120 FEW250 23/10 A2996 RMK CU1AC1CI0 SLP146

CYYC;2007-07-02 00:00;CYYC 020000Z 13007G15KT 40SM FEW060 FEW120 SCT250 22/08 A2996 RMK CU1AC1CI0 SLP150

CYYC;2007-07-02 01:00;CYYC 020100Z 12010KT 40SM FEW060 FEW120 BKN250 21/09 A2995 RMK CU1AC1CI0 SLP148

CYYC;2007-07-02 02:00;CYYC 020200Z 12009KT 40SM FEW060 FEW160 BKN260 20/10 A2995 RMK CU1AC1CI1 SLP148

CYYC;2007-07-02 03:00;CYYC 020300Z CCA 12007KT 40SM FEW060 FEW160 BKN260 19/11 A2996 RMK CU1AC1CI1 SLP142

CYYC;2007-07-02 04:00;CYYC 020400Z 08004KT 40SM FEW140 BKN250 16/10 A2997 RMK AC2CI1 SLP144

CYYC;2007-07-02 05:00;CYYC 020500Z 00000KT 15SM FEW140 BKN240 17/10 A2996 RMK AC1CI2 SLP143

CYYC;2007-07-02 06:00;CYYC 020600Z 16002KT 15SM FEW140 BKN240 17/09 A2997 RMK AC2CI1 SLP146

CYYC;2007-07-02 07:00;CYYC 020700Z 00000KT 15SM FEW180 BKN240 11/08 A2997 RMK AC2CI2 SLP147

CYYC;2007-07-02 08:00;CYYC 020800Z 32007KT 15SM FEW180 OVC230 11/09 A2997 RMK AC2CI3 SLP145

CYYC;2007-07-02 09:00;CYYC 020900Z 32007KT 15SM FEW190 OVC240 11/09 A2997 RMK AC2CI3 SLP152

CYYC;2007-07-02 10:00;CYYC 021000Z 32006KT 15SM FEW190 OVC240 11/09 A2997 RMK AC2CI3 SLP151

CYYC;2007-07-02 11:00;CYYC 021100Z 31006KT 20SM SCT170 OVC240 11/08 A2997 RMK AC4CI2 SLP151

CYYC;2007-07-02 12:00;CYYC 021200Z CCA 33004KT 20SM BKN170 OVC240 10/08 A2997 RMK AC5CI2 SLP150

CYYC;2007-07-02 13:00;CYYC 021300Z 30005KT 40SM FEW180 OVC240 11/08 A2998 RMK AC1CI5 SLP152

CYYC;2007-07-02 14:00;CYYC 021400Z 00000KT 40SM FEW015 BKN170 BKN210 14/10 A2998 RMK CU1AC5CI2 SLP154

CYYC;2007-07-02 15:00;CYYC 021500Z 00000KT 40SM FEW018 SCT180 BKN270 16/12 A2999 RMK CU1AC3CI1 SLP152

CYYC;2007-07-02 16:00;CYYC 021600Z 17004KT 40SM FEW033 FEW160 BKN260 20/12 A3000 RMK CU1AC1CI1 CC ASOCTD SLP154

CYYC;2007-07-02 17:00;CYYC 021700Z 21003KT 40SM FEW040 SCT180 BKN260 23/13 A2999 RMK CU1AC3CI1 CC ASOCTD SLP153

CYYC;2007-07-02 18:00;CYYC 021800Z 00000KT 40SM FEW060 BKN190 BKN260 24/07 A2998 RMK CU1AC4CI0 SLP144

CYYC;2007-07-02 19:00;CYYC 021900Z CCA 29003KT 40SM FEW068 FEW190 SCT280 24/07 A2998 RMK CU1AC1CI0 SLP143

CYYC;2007-07-02 20:00;CYYC 022000Z 34003KT 40SM FEW070 FEW190 SCT280 24/06 A2998 RMK CU1AC2CI0 SLP142

CYYC;2007-07-02 21:00;CYYC 022100Z 28004KT 40SM SCT072 BKN120 BKN280 23/07 A2998 RMK CU4AC2CI1 SLP151

CYYC;2007-07-02 22:00;CYYC 022200Z 17006KT 40SM SCT072 BKN093 BKN280 25/09 A2999 RMK CU4AC2CI1 SLP153

CYYC;2007-07-02 23:00;CYYC 022300Z 24003KT 40SM SCT072 BKN130 BKN260 23/11 A3000 RMK CU3AC2CI1 SLP157

CYYC;2007-07-03 00:00;CYYC 030000Z 05006KT 40SM FEW072 BKN130 BKN290 21/12 A3001 RMK CU2AC2CI0 SLP166

CYYC;2007-07-03 01:00;CYYC 030100Z 05005KT 40SM FEW072 BKN130 BKN270 22/11 A3002 RMK CU2AC2CI0 SLP169

CYYC;2007-07-03 02:00;CYYC 030200Z 08007KT 30SM SCT130 BKN250 22/12 A3004 RMK AC3CI0 SLP173

CYYC;2007-07-03 03:00;CYYC 030300Z CCA 10006KT 30SM FEW110 BKN250 18/12 A3006 RMK AC2CI2 CONTRAILS SLP176

CYYC;2007-07-03 04:00;CYYC 030400Z 13004KT 30SM SCT120 BKN250 18/12 A3007 RMK AC3CI0 SLP181

CYYC;2007-07-03 05:00;CYYC 030500Z 22003KT 15SM BKN120 BKN250 19/11 A3009 RMK AC5CI0 SLP187

CYYC;2007-07-03 06:00;CYYC 030600Z 21003KT 15SM BKN130 BKN250 18/11 A3010 RMK AC5CI0 CONTRAILS SLP181

CYYC;2007-07-03 07:00;CYYC 030700Z 23002KT 15SM BKN100 BKN250 18/11 A3011 RMK AC6CI0 SLP186

CYYC;2007-07-03 08:00;CYYC 030800Z 22005KT 15SM SCT100 BKN250 15/10 A3012 RMK AC3CI0 SLP187

CYYC;2007-07-03 09:00;CYYC 030900Z 18002KT 15SM FEW100 BKN250 15/10 A3013 RMK AC2CI0 SLP196

CYYC;2007-07-03 10:00;CYYC 031000Z CCA 21007KT 15SM FEW100 SCT250 13/10 A3012 RMK AC1CI0 SLP195

CYYC;2007-07-03 11:00;CYYC 031100Z 21006KT 15SM FEW100 BKN250 12/09 A3013 RMK AC1CI0 SLP197

CYYC;2007-07-03 12:00;CYYC 031200Z 21003KT 30SM FEW100 FEW250 12/08 A3014 RMK AC1CI1 AC TR SLP207

CYYC;2007-07-03 13:00;CYYC 031300Z 21002KT 30SM FEW100 FEW250 14/10 A3015 RMK AC1CI1 AC TR SLP210

CYYC;2007-07-03 14:00;CYYC 031400Z 00000KT 30SM FEW100 FEW250 17/11 A3014 RMK AC1CI1 AC TR SLP209

CYYC;2007-07-03 15:00;CYYC 031500Z 21003KT 30SM FEW150 FEW250 21/12 A3015 RMK AC1CI0 SLP201

CYYC;2007-07-03 16:00;CYYC 031600Z 22003KT 30SM BKN130 BKN230 22/12 A3015 RMK AC5CI1 SLP202

CYYC;2007-07-03 17:00;CYYC 031700Z 22005KT 30SM FEW130 FEW230 24/11 A3014 RMK AC1CI1 SLP200

CYYC;2007-07-03 18:00;CYYC 031800Z 00000KT 30SM FEW070 FEW120 FEW230 25/09 A3012 RMK CU1AC1CI1 SLP187

CYYC;2007-07-03 19:00;CYYC 031900Z 25003KT 40SM FEW080 FEW130 SCT220 25/09 A3013 RMK CU2AC1CI2 SLP190

CYYC;2007-07-03 20:00;CYYC 032000Z 20010KT 30SM FEW086 FEW120 BKN220 25/11 A3013 RMK CU2AC1CI2 SLP189

CYYC;2007-07-03 21:00;CYYC 032100Z CCB 24007KT 30SM SCT090 SCT160 BKN210 25/12 A3012 RMK CU3AC1CI1 ACSL ASOCTD SLP190

CYYC;2007-07-03 22:00;CYYC 032200Z 20011KT 30SM FEW080 FEW140 SCT170 BKN200 BKN230 26/13 A3011 RMK CU2AC1AC1CS1CI1 ACSL ASOCTD SLP188

CYYC;2007-07-03 23:00;CYYC 032300Z 12007KT 30SM FEW083 FEW130 FEW160 SCT200 BKN240 26/14 A3010 RMK AC2AC1AC1CS1CI1 ACSL ASOCTD SLP186

CYYC;2007-07-04 00:00;CYYC 040000Z 19010KT 30SM FEW084 FEW110 SCT170 BKN200 24/12 A3010 RMK AC2AC1AC1CS2 SLP191

CYYC;2007-07-04 01:00;CYYC 040100Z 20010KT 30SM BKN130 BKN210 24/11 A3011 RMK AC6CS1 SLP194

CYYC;2007-07-04 02:00;CYYC 040200Z 33013KT 30SM FEW070TCU BKN100 BKN220 23/09 A3011 RMK TCU2AC4CI1 VIRGA N SLP195

CYYC;2007-07-04 03:00;CYYC 040300Z CCA 36004KT 30SM FEW068CB FEW075 FEW100 21/10 A3011 RMK CB1AC1AC1 CB W / CB TR SLP187

CYYC;2007-07-04 04:00;CYYC 040400Z 33006KT 30SM FEW068CB FEW075 FEW100 17/10 A3016 RMK CB1AC1AC1 CB W / CB TR SLP201

CYYC;2007-07-04 05:00;CYYC 040500Z 36005KT 15SM FEW100 FEW250 15/10 A3018 RMK AC1CI0 SLP207

CYYC;2007-07-04 06:00;CYYC 040600Z 32004KT 15SM FEW110 BKN250 14/10 A3020 RMK AC1CI0 SLP219

CYYC;2007-07-04 07:00;CYYC 040700Z 35004KT 15SM FEW110 SCT250 14/08 A3021 RMK AC1CI0 SLP221

CYYC;2007-07-04 08:00;CYYC 040800Z 32003KT 15SM OVC250 14/07 A3021 RMK CI0 SLP223

CYYC;2007-07-04 09:00;CYYC 040900Z 33004KT 15SM SCT250 13/07 A3022 RMK CI0 SLP228

CYYC;2007-07-04 10:00;CYYC 041000Z 34006KT 15SM BKN250 11/06 A3023 RMK CI0 SLP231

CYYC;2007-07-04 11:00;CYYC 041100Z 32005KT 15SM BKN250 11/06 A3023 RMK CI4 SLP231

CYYC;2007-07-04 12:00;CYYC 041200Z 02002KT 30SM FEW100 OVC250 10/06 A3025 RMK AC1CI1 AC TR SLP245

CYYC;2007-07-04 13:00;CYYC 041300Z 32003KT 40SM FEW090 BKN250 13/09 A3027 RMK AC1CI2 CONTRAILS/AC TR SLP250

CYYC;2007-07-04 14:00;CYYC 041400Z 00000KT 40SM FEW030 FEW240 16/09 A3027 RMK SC1CI0 SC TR SLP251

CYYC;2007-07-04 15:00;CYYC 041500Z 35008KT 40SM FEW036 FEW250 19/11 A3027 RMK SC1CI1 SC TR SLP244

CYYC;2007-07-04 16:00;CYYC 041600Z 33009KT 40SM FEW028 FEW250 20/13 A3027 RMK CU1CI1 CU TR/CONTRAIL SLP246

CYYC;2007-07-04 17:00;CYYC 041700Z 02005KT 40SM FEW036 FEW250 22/13 A3027 RMK CU1CI0 CU TR SLP245

CYYC;2007-07-04 18:00;CYYC 041800Z CCA 06005KT 40SM FEW036 FEW180 FEW250 23/13 A3026 RMK CU1AC1CI0 CU TR/AC TR SLP244

CYYC;2007-07-04 19:00;CYYC 041900Z 09005KT 40SM FEW048 FEW100 FEW200 24/13 A3025 RMK CU1AC1CI1 CONTRAILS SLP241

CYYC;2007-07-04 20:00;CYYC 042000Z 11005KT 30SM FEW048 FEW140 24/12 A3024 RMK CU1AC1 SLP238

CYYC;2007-07-04 21:00;CYYC 042100Z 15010KT 30SM FEW060 FEW160 25/14 A3023 RMK CU1AC1 SLP232

CYYC;2007-07-04 22:00;CYYC 042200Z 15008G15KT 30SM FEW050 FEW140 25/12 A3021 RMK CU1AC1 ACSL ASOCTD SLP227

CYYC;2007-07-04 23:00;CYYC 042300Z 15012G17KT 30SM FEW050 FEW150 FEW240 25/12 A3020 RMK CU1AC1CI1 SLP223

CYYC;2007-07-05 00:00;CYYC 050000Z 14014KT 30SM FEW045 FEW150 FEW200 25/13 A3019 RMK CU1AC1CI1 SLP221

CYYC;2007-07-05 01:00;CYYC 050100Z 15011KT 30SM FEW048 24/13 A3018 RMK CU1 SLP219

CYYC;2007-07-05 02:00;CYYC 050200Z 15011KT 30SM FEW050 24/13 A3018 RMK CU1 CU TR SLP218

CYYC;2007-07-05 03:00;CYYC 050300Z 13007KT 30SM FEW050 22/13 A3018 RMK CU1 CU TR SLP211

CYYC;2007-07-05 04:00;CYYC 050400Z 14006KT 30SM FEW060 20/13 A3019 RMK CU1 SLP214

CYYC;2007-07-05 05:00;CYYC 050500Z 15005KT 15SM SKC 19/13 A3020 RMK SLP217

CYYC;2007-07-05 06:00;CYYC 050600Z 16005KT 15SM SKC 17/13 A3020 RMK SLP220

CYYC;2007-07-05 07:00;CYYC 050700Z 12005KT 15SM SKC 16/12 A3020 RMK SLP218

CYYC;2007-07-05 08:00;CYYC 050800Z 14006KT 15SM SKC 16/12 A3018 RMK SLP214

CYYC;2007-07-05 09:00;CYYC 050900Z 16005KT 15SM SKC 15/11 A3018 RMK SLP211

CYYC;2007-07-05 10:00;CYYC 051000Z 00000KT 15SM SKC 15/11 A3017 RMK SLP208

CYYC;2007-07-05 11:00;CYYC 051100Z 22002KT 20SM SKC 14/11 A3016 RMK SLP206

CYYC;2007-07-05 12:00;CYYC 051200Z 25002KT 30SM SKC 12/11 A3016 RMK SLP208

CYYC;2007-07-05 13:00;CYYC 051300Z 21004KT 40SM FEW260 14/13 A3015 RMK CI1 SLP206

CYYC;2007-07-05 14:00;CYYC 051400Z 00000KT 40SM FEW260 18/13 A3015 RMK CI1 SLP205

CYYC;2007-07-05 15:00;CYYC 051500Z CCA 19005KT 40SM FEW260 21/14 A3014 RMK CI0 SLP196

CYYC;2007-07-05 16:00;CYYC 051600Z 23006KT 40SM FEW260 24/14 A3013 RMK CI0 SLP192

CYYC;2007-07-05 17:00;CYYC 051700Z 16004KT 40SM FEW260 27/15 A3012 RMK CI0 SLP189

CYYC;2007-07-05 18:00;CYYC 051800Z 15006KT 40SM FEW260 28/12 A3011 RMK CI0 SLP182

CYYC;2007-07-05 19:00;CYYC 051900Z 15010KT 40SM SCT200 BKN250 29/12 A3009 RMK CI1CI0 SLP176

CYYC;2007-07-05 20:00;CYYC 052000Z 13007KT 40SM FEW061 FEW210 BKN260 29/15 A3008 RMK CU1CI1CI0 SLP172

CYYC;2007-07-05 21:00;CYYC 052100Z 14009KT 30SM FEW060 FEW210 BKN260 29/15 A3006 RMK CU1CI1CI0 SLP164

CYYC;2007-07-05 22:00;CYYC 052200Z 16010KT 30SM FEW060 SCT250 29/15 A3004 RMK CU1CI0 SLP159

CYYC;2007-07-05 23:00;CYYC 052300Z 15010KT 30SM FEW060 FEW250 30/15 A3002 RMK CU1CI0 SLP151

CYYC;2007-07-06 00:00;CYYC 060000Z 14008KT 30SM FEW090 FEW250 29/16 A2999 RMK AC1CI0 SLP143

CYYC;2007-07-06 01:00;CYYC 060100Z 12009KT 30SM FEW090 FEW190 BKN250 29/15 A2997 RMK AC1AC1CI0 SLP136

CYYC;2007-07-06 02:00;CYYC 060200Z 14007KT 40SM FEW090 FEW190 BKN260 27/15 A2995 RMK AC1AC1CI0 SLP132

CYYC;2007-07-06 03:00;CYYC 060300Z 14003KT 40SM FEW090 FEW180 BKN260 26/16 A2994 RMK AC1AC1CI1 SLP120

CYYC;2007-07-06 04:00;CYYC 060400Z 13003KT 20SM FEW100 FEW180 BKN260 23/16 A2993 RMK AC1AC1CI1 SLP118

CYYC;2007-07-06 05:00;CYYC 060500Z 29004KT 15SM FEW100 FEW180 BKN260 22/15 A2993 RMK AC1AC1CI1 SLP118

CYYC;2007-07-06 06:00;CYYC 060600Z 01004KT 15SM FEW180 SCT250 20/15 A2993 RMK AC1CI1 SLP116

CYYC;2007-07-06 07:00;CYYC 060700Z 00000KT 15SM FEW160 SCT250 19/15 A2992 RMK AC1CI1 SLP113

CYYC;2007-07-06 08:00;CYYC 060800Z 21007KT 15SM FEW160 BKN250 17/14 A2992 RMK AC1CI2 SLP111

CYYC;2007-07-06 09:00;CYYC 060900Z 18002KT 15SM FEW160 BKN250 18/14 A2991 RMK AC1CI2 SLP109

CYYC;2007-07-06 10:00;CYYC 061000Z 00000KT 15SM FEW160 BKN250 16/14 A2991 RMK AC1CI2 SLP109

CYYC;2007-07-06 11:00;CYYC 061100Z 20006KT 20SM FEW160 BKN250 17/10 A2992 RMK AC1CI2 SLP111

CYYC;2007-07-06 11:24;CYYC 061124Z 34017G22KT 20SM FEW180 BKN250 16/ RMK AC1CI2 WSHFT 1117Z

CYYC;2007-07-06 12:00;CYYC 061200Z 34014G24KT 30SM FEW180 BKN250 15/13 A2999 RMK AC1CI2 SLP139

CYYC;2007-07-06 13:00;CYYC 061300Z 34018G27KT 30SM FEW180 BKN250 15/12 A2999 RMK AC1CI2 SLP141

CYYC;2007-07-06 14:00;CYYC 061400Z 34015G20KT 30SM FEW090 SCT250 16/12 A3002 RMK AC1CI1 SLP149

CYYC;2007-07-06 15:00;CYYC 061500Z 35015KT 30SM FEW090 SCT250 17/12 A3001 RMK AC1CI1 SLP148

CYYC;2007-07-06 16:00;CYYC 061600Z 34012KT 30SM FEW090 SCT250 18/12 A2999 RMK AC1CI0 SLP144

CYYC;2007-07-06 17:00;CYYC 061700Z 01012KT 30SM FEW030 SCT250 19/14 A2999 RMK CU1CI0 SLP142

CYYC;2007-07-06 18:00;CYYC 061800Z 35012KT 30SM FEW030 SCT250 20/13 A2997 RMK CU1CI1 SLP141

CYYC;2007-07-06 19:00;CYYC 061900Z 02012KT 30SM FEW030 SCT250 21/14 A2997 RMK CU1CI0 SLP139

CYYC;2007-07-06 20:00;CYYC 062000Z 04010KT 30SM FEW030 SCT260 22/15 A2995 RMK CU1CI0 SLP134

CYYC;2007-07-06 21:00;CYYC 062100Z 01007G15KT 30SM FEW031 BKN260 22/15 A2994 RMK CU1CI0 SLP128

CYYC;2007-07-06 22:00;CYYC 062200Z 03010KT 20SM FEW034 BKN260 22/15 A2992 RMK CU2CI0 SLP124

CYYC;2007-07-06 23:00;CYYC 062300Z 03008KT 20SM FEW034 BKN260 22/15 A2991 RMK CU2CI0 SLP119

CYYC;2007-07-07 00:00;CYYC 070000Z 05009KT 20SM FEW038 BKN240 21/15 A2989 RMK CU2CI0 SLP117

CYYC;2007-07-07 01:00;CYYC 070100Z 03010KT 20SM BKN036 BKN240 21/16 A2988 RMK SC4CI0 SLP115

CYYC;2007-07-07 02:00;CYYC 070200Z 04010KT 20SM BKN041 BKN090 21/15 A2988 RMK SC5AC2 SLP115

CYYC;2007-07-07 03:00;CYYC 070300Z 04008KT 20SM BKN045 OVC090 20/14 A2989 RMK SC6AC2 SLP115

CYYC;2007-07-07 04:00;CYYC 070400Z 02011KT 15SM BKN058 OVC090 19/13 A2991 RMK SC6AC2 SLP121

CYYC;2007-07-07 05:00;CYYC 070500Z CCA 03009KT 15SM OVC061 18/13 A2992 RMK SC7 SLP125

CYYC;2007-07-07 06:00;CYYC 070600Z 04008KT 15SM BKN067 18/13 A2993 RMK AC7 SLP129

CYYC;2007-07-07 07:00;CYYC 070700Z 06004KT 15SM FEW070 BKN130 15/12 A2993 RMK AC2AC3 SLP128

CYYC;2007-07-07 08:00;CYYC 070800Z 34006KT 15SM FEW100 BKN180 14/11 A2995 RMK AC1AC2 SLP134

CYYC;2007-07-07 09:00;CYYC 070900Z 34007KT 15SM BKN040 OVC100 15/12 A2996 RMK SC7AC1 SLP141

CYYC;2007-07-07 10:00;CYYC 071000Z 35007KT 15SM BKN040 BKN077 OVC130 15/12 A2998 RMK SC5AC2AC1 SLP145

CYYC;2007-07-07 11:00;CYYC 071100Z CCA 36016G24KT 15SM FEW018 BKN052 OVC100 13/12 A3003 RMK SC2SC4AC2 SLP162

CYYC;2007-07-07 11:04;CYYC 071104Z 36012G21KT 15SM -SHRA BKN015 OVC053 13/ RMK SC6SC2

CYYC;2007-07-07 11:40;CYYC 071140Z 35015KT 15SM FEW015 OVC045 11/ RMK SC2SC6

CYYC;2007-07-07 12:00;CYYC 071200Z 35013KT 15SM OVC050 11/10 A3005 RMK SC8 SLP179

CYYC;2007-07-07 13:00;CYYC 071300Z 35009KT 20SM OVC046 11/09 A3006 RMK SC8 SLP181

CYYC;2007-07-07 14:00;CYYC 071400Z 34008KT 20SM FEW012 OVC044 11/09 A3007 RMK CF1SC8 SLP184

CYYC;2007-07-07 15:00;CYYC 071500Z 30008KT 20SM OVC041 12/08 A3007 RMK SC8 SLP187

CYYC;2007-07-07 16:00;CYYC 071600Z 29003KT 20SM OVC044 13/09 A3007 RMK SC8 SLP186

CYYC;2007-07-07 17:00;CYYC 071700Z 27006KT 20SM OVC047 14/10 A3006 RMK SC8 SLP183

CYYC;2007-07-07 18:00;CYYC 071800Z 23004KT 20SM OVC050 15/11 A3006 RMK SC8 SLP179

CYYC;2007-07-07 19:00;CYYC 071900Z 17002KT 20SM OVC050 17/10 A3005 RMK SC8 SLP177

CYYC;2007-07-07 20:00;CYYC 072000Z 18003KT 20SM FEW030 BKN053 17/10 A3004 RMK CU1SC6 SLP173

CYYC;2007-07-07 21:00;CYYC 072100Z 24004KT 20SM FEW030 BKN051 18/11 A3003 RMK CU1SC6 SLP169

CYYC;2007-07-07 22:00;CYYC 072200Z 21004KT 20SM FEW036 FEW055 SCT170 BKN220 19/11 A3001 RMK CU1SC1AC2CI1 SLP165

CYYC;2007-07-07 23:00;CYYC 072300Z 15007KT 20SM FEW038 FEW170 BKN260 19/10 A2999 RMK CU1AC1CI3 SLP158

CYYC;2007-07-08 00:00;CYYC 080000Z 14005KT 20SM FEW038 FEW180 SCT260 19/10 A2998 RMK CU1AC1CI2 SLP156

CYYC;2007-07-08 01:00;CYYC 080100Z 09005KT 20SM FEW035 FEW180 BKN260 19/12 A2998 RMK CU1AC1CI2 SLP156

CYYC;2007-07-08 02:00;CYYC 080200Z 10006KT 20SM FEW040 SCT180 BKN250 18/11 A2998 RMK CU1AC2CI2 SLP157

CYYC;2007-07-08 03:00;CYYC 080300Z 07007KT 20SM FEW040 BKN160 OVC240 17/11 A3000 RMK CU1AC5CI2 SLP165

CYYC;2007-07-08 04:00;CYYC 080400Z 07004KT 20SM BKN049 OVC160 14/11 A3001 RMK SC5AC3 SH DIST SE SLP169

CYYC;2007-07-08 05:00;CYYC 080500Z 09005KT 15SM BKN046 OVC140 15/11 A3002 RMK SC6AC2 SLP171

CYYC;2007-07-08 06:00;CYYC 080600Z 12004KT 15SM OVC043 16/12 A3003 RMK SC8 SLP171

CYYC;2007-07-08 07:00;CYYC 080700Z 14002KT 15SM OVC042 16/11 A3003 RMK SC7 SLP172

CYYC;2007-07-08 08:00;CYYC 080800Z 20005KT 15SM BKN042 OVC120 16/11 A3002 RMK SC7AC1 SLP170

CYYC;2007-07-08 09:00;CYYC 080900Z 12008KT 15SM OVC041 16/11 A3003 RMK SC8 SLP168

CYYC;2007-07-08 10:00;CYYC 081000Z 11010KT 15SM OVC043 14/10 A3003 RMK SC8 SLP170

CYYC;2007-07-08 11:00;CYYC 081100Z 11011KT 15SM OVC045 13/10 A3004 RMK SC8 SLP172

CYYC;2007-07-08 12:00;CYYC 081200Z 12008KT 20SM SCT045 OVC120 13/09 A3004 RMK SC3AC4 SLP174

CYYC;2007-07-08 13:00;CYYC 081300Z 13006KT 20SM FEW037TCU BKN044 BKN120 OVC220 13/10 A3005 RMK TCU1SC6AC1CI1 DIST SH ESE SLP178

CYYC;2007-07-08 14:00;CYYC 081400Z 15011KT 20SM FEW037TCU BKN056 BKN120 OVC220 13/11 A3006 RMK TCU1SC5AC1CI1 SLP180

CYYC;2007-07-08 14:32;CYYC 081432Z 15011KT 20SM BKN013 OVC042 13/ RMK SC7SC1

CYYC;2007-07-08 14:42;CYYC 081442Z 16010KT 15SM BKN009 OVC011 13/ RMK SC5SC3

CYYC;2007-07-08 14:55;CYYC 081455Z 16012KT 15SM FEW009 BKN012 OVC016 14/ RMK SF2SC4SC2

CYYC;2007-07-08 15:00;CYYC 081500Z 16010KT 15SM FEW009 BKN012 OVC020 14/12 A3006 RMK SF2SC3SC3 SLP183

CYYC;2007-07-08 16:00;CYYC 081600Z 16011KT 20SM FEW012 BKN016 OVC021 15/12 A3005 RMK CU2SC3SC3 SLP181

CYYC;2007-07-08 17:00;CYYC 081700Z 15013KT 20SM SCT021 BKN039 OVC120 16/12 A3004 RMK CU3SC2AC2 SLP178

CYYC;2007-07-08 18:00;CYYC 081800Z 14014G19KT 20SM SCT023 BKN039 OVC120 17/13 A3003 RMK CU3SC3AC1 SLP170

CYYC;2007-07-08 19:00;CYYC 081900Z 16014KT 25SM FEW029 OVC037 17/12 A3002 RMK CU2SC5 SLP167

CYYC;2007-07-08 20:00;CYYC 082000Z 16013KT 25SM SCT035 BKN041 18/12 A3000 RMK CU4SC2 SLP162

CYYC;2007-07-08 21:00;CYYC 082100Z 15012G17KT 25SM SCT033 BKN100 19/13 A2998 RMK CU4AC2 SLP151

CYYC;2007-07-08 22:00;CYYC 082200Z 17011G16KT 25SM SCT034 BKN110 19/13 A2997 RMK CU3AC3 SLP147

CYYC;2007-07-08 23:00;CYYC 082300Z 15009G16KT 25SM FEW037 SCT096 BKN230 21/14 A2995 RMK CU2AC2CI1 SLP140

CYYC;2007-07-09 00:00;CYYC 090000Z 15012G17KT 25SM FEW037 SCT096 SCT230 19/14 A2993 RMK CU2AC1CI1 SLP138

CYYC;2007-07-09 01:00;CYYC 090100Z 16016KT 20SM FEW040 SCT100 BKN230 20/14 A2992 RMK CU2AC2CI1 SLP133

CYYC;2007-07-09 02:00;CYYC 090200Z 17011G18KT 20SM FEW040 SCT100 BKN230 19/14 A2992 RMK CU2AC2CI1 SLP135

CYYC;2007-07-09 03:00;CYYC 090300Z 17010G15KT 20SM SCT120 BKN180 18/13 A2991 RMK AC4AC2 SLP130

CYYC;2007-07-09 04:00;CYYC 090400Z 18007KT 20SM FEW120 BKN180 BKN250 17/13 A2992 RMK AC2AC2CI1 SLP133

CYYC;2007-07-09 05:00;CYYC 090500Z 20005KT 15SM SCT098 BKN180 16/13 A2995 RMK AC3AC2 SLP140

CYYC;2007-07-09 06:00;CYYC 090600Z 35009KT 15SM FEW042 SCT090 BKN160 14/11 A2997 RMK SC2AC2AC2 SLP151

CYYC;2007-07-09 07:00;CYYC 090700Z 35007KT 15SM FEW090 11/10 A2997 RMK AC2 SLP150

CYYC;2007-07-09 08:00;CYYC 090800Z CCA 31009KT 15SM FEW098 12/11 A2997 RMK AC1 SLP150

CYYC;2007-07-09 09:00;CYYC 090900Z 32009KT 15SM FEW070 FEW100 11/10 A2996 RMK AC1AC1 SLP150

CYYC;2007-07-09 10:00;CYYC 091000Z 32004KT 15SM FEW092 11/09 A2996 RMK AC1 SLP149

CYYC;2007-07-09 11:00;CYYC 091100Z 00000KT 20SM FEW080 SCT130 OVC250 10/09 A2995 RMK AC1AC2CI3 SLP147

CYYC;2007-07-09 12:00;CYYC 091200Z 21004KT 30SM FEW080 SCT140 OVC250 10/08 A2993 RMK AC2AC2CI2 SLP140

CYYC;2007-07-09 13:00;CYYC 091300Z 03003KT 40SM FEW080 SCT180 BKN250 11/09 A2993 RMK AC1AC2CI2 SLP140

CYYC;2007-07-09 13:29;CYYC 091329Z 36008KT 40SM FEW008 FEW030 BKN094 BKN250 12/ RMK SC1SC1AC6CI1 SH NW-N

CYYC;2007-07-09 13:47;CYYC 091347Z 35021G30KT 40SM -RA FEW008 BKN060 BKN094 BKN250 12/ RMK SC1SC3AC2CI1

CYYC;2007-07-09 13:57;CYYC 091357Z 34019G29KT 30SM -RA BKN012 BKN060 BKN250 11/ RMK SC6SC1CI1

CYYC;2007-07-09 14:00;CYYC 091400Z 35023G30KT 30SM -RA BKN012 BKN060 BKN250 11/10 A3004 RMK SC6SC1CI1 PRESRR SLP175

CYYC;2007-07-09 14:06;CYYC 091406Z 34028G38KT 30SM -RA BKN012 BKN060 BKN250 10/ RMK SC4SC3CI1 PRESRR

CYYC;2007-07-09 15:00;CYYC 091500Z 34018G28KT 20SM -RA FEW012 OVC055 08/08 A3008 RMK SC1SC8 SEV TURB REP OVR CITY SLP197

CYYC;2007-07-09 16:00;CYYC 091600Z 31014KT 20SM -RA FEW012 BKN057 BKN080 09/08 A3012 RMK SC1SC7AC1 SLP207

CYYC;2007-07-09 16:46;CYYC 091646Z 31011KT 20SM FEW012 BKN057 BKN090 10/ RMK SC1SC5AC2

CYYC;2007-07-09 17:00;CYYC 091700Z 31011KT 20SM FEW015 BKN057 BKN090 BKN140 12/09 A3013 RMK SC1SC4AC1AC0 SLP210

CYYC;2007-07-09 18:00;CYYC 091800Z 33017KT 40SM FEW025 FEW057 BKN095 BKN140 14/08 A3013 RMK CU1SC1AC3AC0 SC TR SLP210

CYYC;2007-07-09 19:00;CYYC 091900Z 35021G30KT 40SM SCT038 SCT097 SCT250 16/07 A3013 RMK CU3AC1CI0 SLP212

CYYC;2007-07-09 20:00;CYYC 092000Z CCA 35020G29KT 40SM FEW041 FEW090 FEW250 17/08 A3014 RMK CU2AC1CI0 AC TR SLP215

CYYC;2007-07-09 21:00;CYYC 092100Z 35018G24KT 40SM FEW040 FEW090 FEW250 18/08 A3015 RMK CU1AC1CI0 CU TR SLP216

CYYC;2007-07-09 22:00;CYYC 092200Z 35024G30KT 40SM FEW040 FEW090 FEW250 17/08 A3016 RMK CU1AC1CI0 SLP221

CYYC;2007-07-09 23:00;CYYC 092300Z 01022G28KT 40SM FEW043 FEW090 FEW250 17/07 A3019 RMK CU1AC1CI0 SLP228

CYYC;2007-07-10 00:00;CYYC 100000Z 36022G28KT 40SM FEW043 FEW090 FEW250 17/07 A3020 RMK CU1AC1CI0 SLP236

CYYC;2007-07-10 01:00;CYYC 100100Z 36019KT 40SM FEW043 FEW090 FEW250 17/07 A3021 RMK CU1AC1CI0 SLP239

CYYC;2007-07-10 02:00;CYYC 100200Z 36016G21KT 20SM FEW090 FEW250 16/08 A3022 RMK AC1CI0 SLP244

CYYC;2007-07-10 03:00;CYYC 100300Z 36009KT 20SM FEW069 FEW250 15/08 A3024 RMK AC1CI0 SLP257

CYYC;2007-07-10 04:00;CYYC 100400Z 35006KT 15SM FEW067 FEW250 13/08 A3026 RMK AC2CI0 SLP263

CYYC;2007-07-10 05:00;CYYC 100500Z 33003KT 15SM BKN065 13/09 A3027 RMK SC6 SLP267

CYYC;2007-07-10 06:00;CYYC 100600Z 32002KT 15SM OVC065 13/09 A3028 RMK SC7 SLP264

CYYC;2007-07-10 07:00;CYYC 100700Z 00000KT 15SM OVC065 13/08 A3027 RMK SC8 SLP263

CYYC;2007-07-10 08:00;CYYC 100800Z 00000KT 15SM OVC067 14/08 A3027 RMK AC7 SLP262

CYYC;2007-07-10 09:00;CYYC 100900Z 26002KT 15SM SCT067 12/08 A3026 RMK AC2 SLP254

CYYC;2007-07-10 10:00;CYYC 101000Z 00000KT 15SM SCT062 10/08 A3026 RMK SC3 SLP252

CYYC;2007-07-10 11:00;CYYC 101100Z 00000KT 15SM FEW062 10/08 A3025 RMK SC1 SLP250

CYYC;2007-07-10 12:00;CYYC 101200Z CCA 35002KT 30SM FEW062 FEW070 FEW210 08/07 A3025 RMK SC1AC1CI0 AC TR SLP258

CYYC;2007-07-10 13:00;CYYC 101300Z 00000KT 30SM FEW065 FEW210 10/09 A3025 RMK SC1CI0 SLP257

CYYC;2007-07-10 14:00;CYYC 101400Z 23003KT 30SM FEW080 FEW210 14/10 A3025 RMK AC1CI1 SLP258

CYYC;2007-07-10 15:00;CYYC 101500Z 22007KT 40SM FEW090 FEW210 16/09 A3025 RMK AC1CI0 SLP249

CYYC;2007-07-10 16:00;CYYC 101600Z 18005KT 40SM FEW040 FEW093 FEW210 18/10 A3025 RMK CU1AC2CI1 SLP248

CYYC;2007-07-10 17:00;CYYC 101700Z 00000KT 40SM FEW040 BKN100 19/09 A3025 RMK CU1AC3 SLP248

CYYC;2007-07-10 18:00;CYYC 101800Z 16004KT 40SM FEW048 FEW100 FEW260 20/10 A3025 RMK CU1AC1CI1 CU+CI TR SLP244

CYYC;2007-07-10 19:00;CYYC 101900Z CCA 18003KT 40SM FEW048 FEW100 SCT260 22/09 A3024 RMK CU1AC1CI0 CI TR SLP243

CYYC;2007-07-10 20:00;CYYC 102000Z 09005KT 40SM FEW059 FEW100 SCT260 21/09 A3023 RMK CU1AC1CI0 SLP239

CYYC;2007-07-10 21:00;CYYC 102100Z 18003KT 40SM FEW059 SCT100 BKN260 23/09 A3022 RMK CU1AC2CI0 SLP233

CYYC;2007-07-10 22:00;CYYC 102200Z 09003KT 30SM FEW061 FEW094 FEW260 23/08 A3022 RMK CU1AC1CI1 SLP232

CYYC;2007-07-10 23:00;CYYC 102300Z 05005KT 30SM FEW061 FEW094 FEW260 23/08 A3020 RMK CU1AC1CI0 SLP228

CYYC;2007-07-11 00:00;CYYC 110000Z 14006KT 30SM FEW061 FEW094 SCT260 23/09 A3019 RMK CU1AC1CI0 SLP227

CYYC;2007-07-11 01:00;CYYC 110100Z 14003KT 30SM FEW095 SCT260 23/11 A3018 RMK AC1CI0 SLP225

CYYC;2007-07-11 02:00;CYYC 110200Z 09006KT 30SM FEW095 SCT260 22/09 A3018 RMK AC1CI0 SLP225

CYYC;2007-07-11 03:00;CYYC 110300Z 14006KT 30SM FEW095 BKN260 19/11 A3018 RMK AC1CI1 AC TR/CONTRAILS SLP219

CYYC;2007-07-11 04:00;CYYC 110400Z 16007KT 30SM FEW100 BKN250 17/11 A3018 RMK AC1CI1 SLP219

CYYC;2007-07-11 05:00;CYYC 110500Z 14005KT 15SM BKN100 BKN250 17/12 A3019 RMK AC4CI0 SLP221

CYYC;2007-07-11 06:00;CYYC 110600Z 15004KT 15SM BKN120 17/11 A3019 RMK AC6 SLP219

CYYC;2007-07-11 07:00;CYYC 110700Z 17004KT 15SM BKN100 OVC120 17/11 A3018 RMK AC5AC2 SLP216

CYYC;2007-07-11 08:00;CYYC 110800Z 19004KT 15SM SCT100 BKN120 16/11 A3017 RMK AC3AC4 SLP214

CYYC;2007-07-11 09:00;CYYC 110900Z 00000KT 15SM BKN100 16/11 A3017 RMK AC6 SLP211

CYYC;2007-07-11 10:00;CYYC 111000Z 33004KT 15SM BKN100 13/11 A3017 RMK AC4 SLP212

CYYC;2007-07-11 11:00;CYYC 111100Z 35003KT 15SM BKN100 13/11 A3017 RMK AC6 SLP212

CYYC;2007-07-11 12:00;CYYC 111200Z 31003KT 30SM BKN100 13/11 A3018 RMK AC6 SLP218

CYYC;2007-07-11 13:00;CYYC 111300Z 28002KT 40SM BKN080 BKN100 14/11 A3018 RMK AC4AC3 SLP219

CYYC;2007-07-11 14:00;CYYC 111400Z 33004KT 30SM BKN095 16/12 A3019 RMK AC6 HZ SLP221

CYYC;2007-07-11 15:00;CYYC 111500Z 35007KT 30SM FEW022 FEW100 20/14 A3019 RMK CU1AC1 SLP216

CYYC;2007-07-11 16:00;CYYC 111600Z 03008KT 30SM FEW036 FEW100 21/13 A3019 RMK CU1AC1 HZ SLP217

CYYC;2007-07-11 17:00;CYYC 111700Z 02010KT 40SM FEW040 FEW150 22/13 A3018 RMK CU1AC1 SLP215

CYYC;2007-07-11 18:00;CYYC 111800Z 06010KT 40SM FEW044 FEW100 FEW200 23/13 A3017 RMK CU1AC1CI1 SLP208

CYYC;2007-07-11 19:00;CYYC 111900Z 03007KT 40SM FEW048 FEW100 24/13 A3017 RMK CU2AC1 AC TR SLP207

CYYC;2007-07-11 20:00;CYYC 112000Z 05005KT 40SM SCT050 SCT120 24/12 A3016 RMK CU3AC1 SLP204

CYYC;2007-07-11 21:00;CYYC 112100Z 01003KT 30SM SCT058 BKN120 25/12 A3015 RMK CU3CU2 HZ SLP202

CYYC;2007-07-11 22:00;CYYC 112200Z 06005KT 30SM FEW058 FEW120 25/14 A3015 RMK CU1AC1 HZ/AC TR SLP200

CYYC;2007-07-11 23:00;CYYC 112300Z 07005KT 30SM FEW050 FEW240 25/14 A3013 RMK CU1CI1 HZ SLP196

CYYC;2007-07-12 00:00;CYYC 120000Z 06008KT 30SM FEW045 FEW130 FEW240 24/14 A3013 RMK CU1AC1CI1 HZ SLP198

CYYC;2007-07-12 01:00;CYYC 120100Z 09006KT 30SM FEW040 FEW130 FEW250 24/14 A3012 RMK CU1AC1CI1 SLP197

CYYC;2007-07-12 02:00;CYYC 120200Z 11005KT 30SM FEW050 FEW140 FEW260 22/13 A3013 RMK CU1AC1CI1 SLP199

CYYC;2007-07-12 03:00;CYYC 120300Z 10006KT 30SM FEW050 SCT130 20/14 A3014 RMK CU1AC2 SLP197

CYYC;2007-07-12 04:00;CYYC 120400Z 10005KT 30SM BKN130 19/14 A3014 RMK AC6 SLP199

CYYC;2007-07-12 05:00;CYYC 120500Z 10006KT 15SM BKN140 19/14 A3015 RMK AC6 SLP200

CYYC;2007-07-12 06:00;CYYC 120600Z 13004KT 15SM BKN120 18/13 A3015 RMK AC7 SLP199

CYYC;2007-07-12 07:00;CYYC 120700Z CCA 00000KT 15SM BKN082 19/12 A3015 RMK AC7 SLP200

CYYC;2007-07-12 08:00;CYYC 120800Z 20005KT 15SM OVC088 18/14 A3015 RMK AC7 SLP199

CYYC;2007-07-12 09:00;CYYC 120900Z 21004KT 15SM FEW120 OVC210 18/14 A3015 RMK AC2CI6 SLP198

CYYC;2007-07-12 10:00;CYYC 121000Z 17004KT 15SM OVC130 18/13 A3015 RMK AC7 SLP199

CYYC;2007-07-12 11:00;CYYC 121100Z 00000KT 15SM FEW120 BKN210 15/13 A2994 RMK AC2CI0 VIA YEG FIC

CYYC;2007-07-12 12:00;CYYC 121200Z 19003KT 20SM FEW130 BKN240 17/13 A3017 RMK AC2CI1 SLP206

CYYC;2007-07-12 13:00;CYYC 121300Z CCA 20002KT 20SM FEW100 FEW250 18/15 A3017 RMK AC1CI0 SLP206

CYYC;2007-07-12 14:00;CYYC 121400Z 24002KT 30SM FEW024 FEW100 FEW250 20/14 A3017 RMK CU1AC1CI1 HZ SLP208

CYYC;2007-07-12 15:00;CYYC 121500Z 21005KT 30SM FEW028 21/14 A3017 RMK CU1 HZ/CF ASOCTD SLP206

CYYC;2007-07-12 16:00;CYYC 121600Z 21006KT 30SM FEW036 23/14 A3017 RMK CF1 HZ SLP207

CYYC;2007-07-12 17:00;CYYC 121700Z 18005KT 30SM FEW040 FEW090 25/15 A3017 RMK CU1AC1 HZ SLP205

CYYC;2007-07-12 18:00;CYYC 121800Z 17009KT 30SM FEW044TCU 25/15 A3017 RMK TCU1 HZ SLP203

CYYC;2007-07-12 19:00;CYYC 121900Z 16008KT 30SM FEW044TCU 26/14 A3016 RMK TCU1 HZ SLP202

CYYC;2007-07-12 20:00;CYYC 122000Z 14011KT 30SM FEW044 FEW220 26/15 A3015 RMK CU1CI1 HZ SLP198

CYYC;2007-07-12 21:00;CYYC 122100Z 16010G15KT 30SM FEW044 FEW110 FEW220 27/15 A3015 RMK CU1AC1CI1 HZ SLP195

CYYC;2007-07-12 22:00;CYYC 122200Z 15011G16KT 30SM FEW044TCU 26/15 A3014 RMK TCU1 HZ SLP192

CYYC;2007-07-12 23:00;CYYC 122300Z 14009KT 30SM FEW044TCU FEW250 26/15 A3013 RMK TCU1CI1 SLP190

CYYC;2007-07-13 00:00;CYYC 130000Z 13012KT 30SM FEW044TCU FEW250 26/15 A3012 RMK TCU1CI2 HZ/TCU TR SLP188

CYYC;2007-07-13 01:00;CYYC 130100Z 12009KT 30SM FEW040TCU FEW190 SCT250 26/16 A3011 RMK TCU1AC1CI2 HZ/TCU+AC TR SLP186

CYYC;2007-07-13 02:00;CYYC 130200Z 13006KT 30SM FEW040 SCT100 BKN250 25/16 A3011 RMK CU1AC2CI1 CU TR SLP185

CYYC;2007-07-13 03:00;CYYC 130300Z 12007KT 20SM FEW100 SCT250 23/15 A3011 RMK AC1CI0 SLP184

CYYC;2007-07-13 04:00;CYYC 130400Z 11005KT 20SM FEW100 FEW250 20/16 A3012 RMK AC0CI0 SLP186

CYYC;2007-07-13 05:00;CYYC 130500Z 12004KT 15SM FEW250 20/15 A3013 RMK CI1 CI TR SLP188

CYYC;2007-07-13 06:00;CYYC 130600Z 13003KT 15SM SKC 19/15 A3013 RMK SLP189

CYYC;2007-07-13 07:00;CYYC 130700Z 14002KT 15SM SKC 20/15 A3013 RMK SLP190

CYYC;2007-07-13 08:00;CYYC 130800Z 34002KT 15SM SKC 16/14 A3013 RMK SLP190

CYYC;2007-07-13 09:00;CYYC 130900Z 34004KT 15SM SKC 15/13 A3013 RMK SLP191

CYYC;2007-07-13 10:00;CYYC 131000Z 34005KT 15SM BKN250 14/13 A3013 RMK CI2 SLP193

CYYC;2007-07-13 11:00;CYYC 131100Z 19004KT 20SM FEW090 BKN250 15/13 A3013 RMK AC1CI0 SLP192

CYYC;2007-07-13 12:00;CYYC 131200Z 21004KT 20SM FEW100 FEW250 15/14 A3014 RMK AC1CI0 SLP197

CYYC;2007-07-13 13:00;CYYC 131300Z 34003KT 20SM FEW100 FEW250 16/14 A3015 RMK AC1CI0 SLP201

CYYC;2007-07-13 14:00;CYYC 131400Z 33003KT 20SM FEW180 FEW250 19/15 A3015 RMK AC1CI1 HZ SLP201

CYYC;2007-07-13 15:00;CYYC 131500Z 00000KT 20SM FEW180 22/16 A3016 RMK AC1 HZ SLP199

CYYC;2007-07-13 16:00;CYYC 131600Z 20004KT 20SM FEW180 24/16 A3016 RMK AC1 HZ SLP199

CYYC;2007-07-13 17:00;CYYC 131700Z 21007KT 20SM FEW044TCU FEW190 FEW220 26/16 A3015 RMK TCU1AC1CI1 HZ SLP197

CYYC;2007-07-13 18:00;CYYC 131800Z 16007KT 20SM FEW052TCU FEW180 FEW200 FEW240 27/15 A3015 RMK TCU1AC1CI1CI0 HZ SLP191

CYYC;2007-07-13 19:00;CYYC 131900Z 16011KT 30SM FEW056TCU FEW200 28/14 A3014 RMK TCU1CI1 HZ SLP190

CYYC;2007-07-13 20:00;CYYC 132000Z 14005KT 30SM FEW052TCU FEW180 FEW250 29/16 A3013 RMK TCU1AC1CI0 HZ SLP186

CYYC;2007-07-13 21:00;CYYC 132100Z 15009G16KT 30SM FEW052TCU FEW220 29/16 A3012 RMK TCU1CI1 HZ/TCU TR SLP187

CYYC;2007-07-13 22:00;CYYC 132200Z 15011KT 30SM FEW052TCU SCT220 28/16 A3012 RMK TCU1CI2 HZ/TCU TR SLP186

CYYC;2007-07-13 23:00;CYYC 132300Z 18012KT 30SM FEW052TCU BKN220 28/16 A3011 RMK TCU1CI4 HZ SLP183

CYYC;2007-07-14 00:00;CYYC 140000Z 15011KT 30SM FEW052TCU SCT220 28/16 A3009 RMK TCU1CI1 HZ/TCU TR SLP178

CYYC;2007-07-14 01:00;CYYC 140100Z 12008KT 30SM FEW044 FEW220 27/17 A3008 RMK CU1CI1 SLP175

CYYC;2007-07-14 02:00;CYYC 140200Z 13009KT 30SM FEW060 FEW140 FEW250 26/17 A3008 RMK CU1AC1CI1 CU+AC TR SLP173

CYYC;2007-07-14 03:00;CYYC 140300Z 12008KT 20SM FEW110 FEW250 24/17 A3008 RMK AC1CI1 SLP169

CYYC;2007-07-14 04:00;CYYC 140400Z 12007KT 20SM FEW110 SCT250 22/17 A3009 RMK AC1CI1 SLP171

CYYC;2007-07-14 05:00;CYYC 140500Z 13007KT 15SM FEW100 SCT250 21/16 A3009 RMK AC1CI1 SLP171

CYYC;2007-07-14 06:00;CYYC 140600Z 12007KT 15SM FEW110 FEW250 21/16 A3008 RMK AC1CI1 SLP167

CYYC;2007-07-14 07:00;CYYC 140700Z 16003KT 15SM FEW110 SCT250 21/15 A3008 RMK AC1CI1 SLP166

CYYC;2007-07-14 08:00;CYYC 140800Z 19005KT 15SM FEW120 SCT250 19/15 A3008 RMK AC1CI1 SLP167

CYYC;2007-07-14 09:00;CYYC 140900Z 20004KT 15SM FEW120 FEW250 19/15 A3007 RMK AC1CI1 SLP165

CYYC;2007-07-14 10:00;CYYC 141000Z CCA 00000KT 15SM FEW120 FEW250 17/14 A3006 RMK AC1CI1 SLP161

CYYC;2007-07-14 11:00;CYYC 141100Z 29003KT 15SM BKN110 BKN250 16/14 A3007 RMK AC3CI0 SLP163

CYYC;2007-07-14 12:00;CYYC 141200Z 09003KT 20SM FEW100 BKN170 BKN250 16/14 A3006 RMK AC1AC2CI0 SLP163

CYYC;2007-07-14 13:00;CYYC 141300Z 20003KT 30SM FEW085 BKN120 OVC240 19/16 A3004 RMK AC1AC4CI2 SLP159

CYYC;2007-07-14 13:32;CYYC 141332Z CCA 23004KT 30SM FEW015 SCT120 BKN160 19/ RMK CU2AC2AC2 SH NW-S / TCU ASOCTD

CYYC;2007-07-14 14:00;CYYC 141400Z 25002KT 40SM FEW015 SCT120 BKN170 20/17 A3005 RMK CU2AC2AC2 SH N-SE / TCU ASOCTD SLP161

CYYC;2007-07-14 15:00;CYYC 141500Z 00000KT 40SM FEW020 FEW120 BKN170 BKN250 23/18 A3005 RMK CU1AC2AC2CI0 SH NE-SE / TCU EMBD SLP157

CYYC;2007-07-14 16:00;CYYC 141600Z 00000KT 40SM FEW044 FEW120 FEW170 SCT270 27/16 A3005 RMK CU1AC1AC1CI0 SLP157

CYYC;2007-07-14 17:00;CYYC 141700Z 31006KT 40SM FEW056 FEW120 SCT170 BKN270 28/14 A3004 RMK CU1AC1AC2CI1 SLP155

CYYC;2007-07-14 18:00;CYYC 141800Z 36007KT 30SM FEW060 FEW150 SCT270 30/14 A3003 RMK CU1AC2CI0 SLP146

CYYC;2007-07-14 19:00;CYYC 141900Z 02009KT 30SM FEW068 FEW150 FEW250 30/13 A3002 RMK CU1AC2CI0 SLP143

CYYC;2007-07-14 20:00;CYYC 142000Z 05010G15KT 30SM FEW068 FEW160 FEW250 30/14 A3002 RMK CU1AC1CI0 TCU ASOCTD SLP142

CYYC;2007-07-14 21:00;CYYC 142100Z 06010KT 30SM FEW068TCU FEW160 FEW250 30/14 A3001 RMK TCU1AC1CI0 SLP140

CYYC;2007-07-14 22:00;CYYC 142200Z CCA 11008KT 30SM FEW068TCU FEW160 BKN270 30/18 A3000 RMK TCU1AC2CI0 SLP137

CYYC;2007-07-14 23:00;CYYC 142300Z 09008KT 30SM FEW068TCU SCT160 BKN250 29/16 A2999 RMK TCU1AC2CI1 SLP133

CYYC;2007-07-15 00:00;CYYC 150000Z 14007KT 20SM FEW068 SCT160 BKN260 29/17 A2997 RMK CU1AC3CI1 TCU ASOCTD SLP131

CYYC;2007-07-15 01:00;CYYC 150100Z 13008KT 20SM FEW068 FEW160 BKN260 28/17 A2995 RMK CU1AC1CI1 SLP126

CYYC;2007-07-15 02:00;CYYC 150200Z 16007KT 20SM FEW140 BKN260 27/16 A2994 RMK AC2CI1 SLP122

CYYC;2007-07-15 03:00;CYYC 150300Z 18009KT 20SM FEW140 BKN260 26/15 A2994 RMK AC2CI1 SLP118

CYYC;2007-07-15 04:00;CYYC 150400Z 17007KT 20SM SCT140 BKN200 BKN260 26/15 A2992 RMK AC2CI2CI0 SLP111

CYYC;2007-07-15 05:00;CYYC 150500Z 19007KT 15SM FEW140 SCT210 BKN260 23/15 A2992 RMK AC1CI2CI0 SLP112

CYYC;2007-07-15 06:00;CYYC 150600Z 24005KT 15SM FEW140 SCT250 23/12 A2992 RMK AC2CI1 SLP106

CYYC;2007-07-15 07:00;CYYC 150700Z 21002KT 15SM FEW140 FEW210 SCT250 22/10 A2991 RMK AC1CI1CI0 SLP104

CYYC;2007-07-15 08:00;CYYC 150800Z 32004KT 15SM FEW140 SCT250 19/11 A2991 RMK AC1CI0 SLP102

CYYC;2007-07-15 09:00;CYYC 150900Z 02002KT 15SM SCT250 16/12 A2990 RMK CI1 SLP108

CYYC;2007-07-15 10:00;CYYC 151000Z 27002KT 15SM FEW250 15/11 A2990 RMK CI1 SLP106

CYYC;2007-07-15 11:00;CYYC 151100Z 36009KT 15SM SCT120 BKN250 16/10 A2990 RMK AC2CI2 SLP108

CYYC;2007-07-15 12:00;CYYC 151200Z 27002KT 20SM SCT120 BKN250 15/10 A2992 RMK AC2CI2 SLP116

CYYC;2007-07-15 13:00;CYYC 151300Z 34008KT 20SM SCT150 BKN250 18/13 A2993 RMK AC2CI2 SLP118

CYYC;2007-07-15 14:00;CYYC 151400Z 35014KT 10SM SCT180 BKN270 20/17 A2995 RMK AC2CI1 SLP124

CYYC;2007-07-15 15:00;CYYC 151500Z 35009KT 10SM FEW180 FEW270 22/18 A2996 RMK AC1CI1 SLP125

CYYC;2007-07-15 16:00;CYYC 151600Z 36007KT 10SM FEW180 BKN270 22/18 A2996 RMK AC1CI1 SLP125

CYYC;2007-07-15 17:00;CYYC 151700Z 01003KT 15SM FEW190 BKN290 23/18 A2995 RMK AC1CI1 SLP121

CYYC;2007-07-15 18:00;CYYC 151800Z 01003KT 15SM BKN200 BKN290 24/18 A2994 RMK CI5CI1 SLP119

CYYC;2007-07-15 19:00;CYYC 151900Z 01002KT 15SM FEW025 FEW120 BKN210 25/19 A2993 RMK CU1AC2CI5 ACSL W SLP117

CYYC;2007-07-15 20:00;CYYC 152000Z 03003KT 15SM FEW028 FEW120 BKN200 26/19 A2992 RMK CU1AC1CI5 SLP114

CYYC;2007-07-15 21:00;CYYC 152100Z 11005KT 20SM FEW028CB FEW120 FEW200 BKN280 27/19 A2990 RMK CB1AC1CI1CI0 CB NW SLP112

CYYC;2007-07-15 22:00;CYYC 152200Z 11008KT 20SM FEW032CB FEW120 FEW270 29/19 A2989 RMK CB1AC1CI0 CB NW SLP108

CYYC;2007-07-15 23:00;CYYC 152300Z 11005KT 20SM FEW040CB FEW140 FEW240 29/19 A2987 RMK CB1AC1CI1 CB N SLP103

CYYC;2007-07-16 00:00;CYYC 160000Z 15008KT 20SM FEW040CB FEW140 FEW280 28/19 A2985 RMK CB1AC1CI1 CB N SLP095

CYYC;2007-07-16 01:00;CYYC 160100Z 10007KT 20SM FEW040CB BKN130 BKN280 27/20 A2985 RMK CB2AC2CI0 SH NW-E+SW SLP095

CYYC;2007-07-16 01:15;CYYC 160115Z CCA 01019G28KT 6SM BLDU SCT040CB BKN130 BKN280 26/ RMK CB4AC3CI0 WSHFT 0101Z

CYYC;2007-07-16 02:00;CYYC 160200Z 02010G18KT 10SM SCT080CB BKN110 OVC250 21/16 A2991 RMK CB4AC2CI1 SLP111

CYYC;2007-07-16 03:00;CYYC 160300Z 05006KT 10SM TS FEW017 BKN080CB OVC110 18/16 A2988 RMK SC1CB6AC1 LTGIC S SLP110

CYYC;2007-07-16 03:13;CYYC 160313Z 30012G20KT 7SM -TSRA BKN033CB OVC080 19/ RMK CB6AC2 LTGIC S+W

CYYC;2007-07-16 03:45;CYYC 160345Z CCA 35008KT 12SM TS SCT045CB BKN090 OVC140 18/ RMK CB4AC2AC1 LTGIC E

CYYC;2007-07-16 04:00;CYYC 160400Z 31005KT 30SM TS SCT060CB BKN085 OVC160 17/16 A2992 RMK CB4AC2AC1 LTGIC E-SE SLP122

CYYC;2007-07-16 05:00;CYYC 160500Z 23008KT 15SM TS SCT060CB BKN160 18/16 A2990 RMK CB3AC3 LTGIC E SLP116

CYYC;2007-07-16 05:27;CYYC 160527Z 20008KT 15SM FEW060CB BKN160 BKN220 17/ RETS RMK CB2AC3CI1 LTGIC E

CYYC;2007-07-16 06:00;CYYC 160600Z 22008KT 15SM FEW060 SCT160 BKN240 17/16 A2990 RETS RMK SC1AC3CI2 SLP115

CYYC;2007-07-16 07:00;CYYC 160700Z 21008KT 15SM SCT120 BKN250 16/15 A2992 RMK AC1CI1 SLP120

CYYC;2007-07-16 08:00;CYYC 160800Z 22005KT 15SM FEW140 SCT250 16/14 A2992 RMK AC1CI1 SLP120

CYYC;2007-07-16 09:00;CYYC 160900Z 22007KT 15SM FEW140 FEW250 15/14 A2992 RMK AC1CI1 SLP119

CYYC;2007-07-16 10:00;CYYC 161000Z 26003KT 15SM FEW140 FEW250 16/14 A2992 RMK AC1CI1 SLP120

CYYC;2007-07-16 11:00;CYYC 161100Z 19007KT 15SM SCT160 BKN250 17/14 A2992 RMK AC2CI2 SLP120

CYYC;2007-07-16 12:00;CYYC 161200Z CCA 21007KT 15SM SCT160 OVC250 16/14 A2992 RMK AC2CI4 SLP116

CYYC;2007-07-16 13:00;CYYC 161300Z 33006KT 15SM FEW080 FEW200 BKN260 17/14 A2995 RMK AC1CI2CI0 SLP125

CYYC;2007-07-16 14:00;CYYC 161400Z 36011KT 20SM FEW095 FEW200 FEW260 19/16 A2994 RMK AC1CI1CI0 SLP124

CYYC;2007-07-16 15:00;CYYC 161500Z 35012KT 8SM FEW090 FEW200 SCT260 20/17 A2995 RMK AC1CI1CI0 SLP134

CYYC;2007-07-16 16:00;CYYC 161600Z 35008KT 8SM FEW015 FEW090 FEW200 BKN260 21/18 A2995 RMK CU1AC1CI1CI0 SLP136

CYYC;2007-07-16 17:00;CYYC 161700Z 02007KT 10SM SCT015 SCT220 BKN250 21/18 A2996 RMK CU2CI1CI0 SLP139

CYYC;2007-07-16 18:00;CYYC 161800Z 35009KT 10SM FEW015 FEW150 BKN250 22/18 A2996 RMK CU0AC1CI2 SLP137

CYYC;2007-07-16 19:00;CYYC 161900Z 35003KT 10SM FEW015 SCT180 BKN230 23/18 A2995 RMK CU1AC1CI2 SLP133

CYYC;2007-07-16 20:00;CYYC 162000Z 10003KT 10SM FEW015 SCT180 OVC220 24/18 A2994 RMK CU1AC1CI5 SLP130

CYYC;2007-07-16 21:00;CYYC 162100Z 08002KT 15SM FEW015 SCT180 BKN220 25/19 A2994 RMK CU1AC2CI2 SLP128

CYYC;2007-07-16 22:00;CYYC 162200Z CCA 09007KT 10SM FEW028 FEW170 BKN230 25/18 A2993 RMK CU1AC1CI3 CVCTV CLD DVLPG NW SLP124

CYYC;2007-07-16 23:00;CYYC 162300Z 08008KT 10SM FEW030CB FEW170 BKN230 26/18 A2991 RMK CB1AC1CI0 CB NW-N SLP119

CYYC;2007-07-17 00:00;CYYC 170000Z 06008KT 10SM FEW032CB FEW170 BKN250 26/19 A2992 RMK CB1AC1CI0 CB NW-NE / AC TR SLP119

CYYC;2007-07-17 01:00;CYYC 170100Z 08006KT 10SM FEW030CB FEW150 OVC250 25/19 A2991 RMK CB1AC1CI1 AC TR/CB NW-NE SLP117

CYYC;2007-07-17 02:00;CYYC 170200Z 06006KT 10SM FEW030CB BKN250 23/19 A2991 RMK CB1CI2 CB NW-NE/CONTRAILS SLP117

CYYC;2007-07-17 03:00;CYYC 170300Z 05003KT 10SM FEW150 BKN250 20/18 A2992 RMK AC1CI2 SLP123

CYYC;2007-07-17 04:00;CYYC 170400Z 02003KT 6SM BR FEW150 SCT250 20/19 A2993 RMK AC1CI2 SLP124

CYYC;2007-07-17 05:00;CYYC 170500Z 36005KT 8SM FEW150 FEW250 19/18 A2994 RMK AC1CI1 AC TR SLP128

CYYC;2007-07-17 06:00;CYYC 170600Z 35005KT 15SM BKN110 18/18 A2995 RMK AC4 SLP133

CYYC;2007-07-17 07:00;CYYC 170700Z 36005KT 15SM FEW110 17/17 A2996 RMK AC1 SLP135

CYYC;2007-07-17 08:00;CYYC 170800Z 34005KT 15SM SKC 16/16 A2996 RMK SLP136

CYYC;2007-07-17 09:00;CYYC 170900Z 33006KT 15SM SKC 16/16 A2996 RMK SLP132

CYYC;2007-07-17 10:00;CYYC 171000Z 32006KT 15SM SKC 17/16 A2995 RMK SLP131

CYYC;2007-07-17 11:00;CYYC 171100Z 34007KT 15SM FEW110 16/16 A2996 RMK AC1 SLP132

CYYC;2007-07-17 12:00;CYYC 171200Z 34004KT 4SM BR FEW110 15/15 A2997 RMK AC1 SLP137

CYYC;2007-07-17 12:23;CYYC 171223Z 35004KT 2SM BR SCT015 SCT110 15/ RMK ST2AC1

CYYC;2007-07-17 12:31;CYYC 171231Z CCA 36005KT 1/2SM FG BKN005 15/ RMK ST5 VIS S 1

CYYC;2007-07-17 12:47;CYYC 171247Z 34006KT 1/4SM FG OVC003 16/ RMK ST8

CYYC;2007-07-17 13:00;CYYC 171300Z 34007KT 1/4SM FG OVC003 16/16 A2998 RMK ST8 SLP140

CYYC;2007-07-17 13:23;CYYC 171323Z 33008KT 3/4SM BR OVC002 17/ RMK ST8

CYYC;2007-07-17 13:37;CYYC 171337Z 33006KT 1 1/4SM BR OVC002 17/ RMK ST8

CYYC;2007-07-17 14:00;CYYC 171400Z 33007KT 3SM BR OVC002 17/17 A2998 RMK ST6 SLP141

CYYC;2007-07-17 14:21;CYYC 171421Z 32006KT 4SM BR OVC003 18/ RMK ST7

CYYC;2007-07-17 14:39;CYYC 171439Z 34007KT 6SM BR OVC004 18/ RMK ST3

CYYC;2007-07-17 15:00;CYYC 171500Z 33006KT 6SM BR SCT006 19/18 A2999 RMK ST2 SLP146

CYYC;2007-07-17 15:53;CYYC 171553Z 02007KT 6SM BR BKN006 20/ RMK ST6

CYYC;2007-07-17 16:00;CYYC 171600Z 02007KT 6SM BR OVC006 20/19 A3000 RMK ST7 SLP149

CYYC;2007-07-17 17:00;CYYC 171700Z 36005KT 6SM BR BKN006 20/19 A3000 RMK ST6 SC ASOCTD SLP150

CYYC;2007-07-17 17:13;CYYC 171713Z 01008KT 5SM BR SCT006 BKN120 21/ RMK SC3AC0

CYYC;2007-07-17 18:00;CYYC 171800Z 35006KT 8SM FEW008 FEW120 BKN230 23/20 A3000 RMK SC1AC0CI1 SLP146

CYYC;2007-07-17 19:00;CYYC 171900Z 05005KT 10SM FEW021 BKN230 25/20 A2999 RMK CU1CI0 SLP145

CYYC;2007-07-17 20:00;CYYC 172000Z 05006KT 15SM FEW030 BKN200 26/19 A2998 RMK CU1CI1 SLP142

CYYC;2007-07-17 21:00;CYYC 172100Z 09010KT 15SM FEW030 BKN200 27/20 A2997 RMK CU1CI1 CVCTV CLD SW SLP136

CYYC;2007-07-17 22:00;CYYC 172200Z 10007KT 15SM FEW030 SCT060CB BKN220 26/20 A2996 RMK CU1CB2CI1 CB SW SLP133

CYYC;2007-07-17 23:00;CYYC 172300Z 14008KT 10SM FEW030 BKN080 BKN180 27/20 A2995 RMK CU1AC4AC0 SLP130

CYYC;2007-07-18 00:00;CYYC 180000Z 17007KT 20SM FEW030 FEW080 BKN190 BKN250 26/20 A2993 RMK CU1AC1AS5CI2 SLP125

CYYC;2007-07-18 01:00;CYYC 180100Z CCA 15005KT 15SM SCT180 OVC260 26/20 A2992 RMK AS2CI5 SLP121

CYYC;2007-07-18 02:00;CYYC 180200Z 10005KT 15SM SCT180 OVC260 25/19 A2991 RMK AS2CI5 SLP119

CYYC;2007-07-18 03:00;CYYC 180300Z 09005KT 15SM SCT180 OVC260 24/20 A2994 RMK AS2CI4 SLP126

CYYC;2007-07-18 04:00;CYYC 180400Z 36004KT 8SM BKN180 OVC260 22/20 A2995 RMK AS4CI4 SLP128

CYYC;2007-07-18 05:00;CYYC 180500Z 14005KT 15SM OVC260 21/19 A2994 RMK CI8 SLP125

CYYC;2007-07-18 06:00;CYYC 180600Z 11002KT 15SM SCT170 OVC250 21/19 A2996 RMK AC3CI5 SLP131

CYYC;2007-07-18 07:00;CYYC 180700Z CCA 15007KT 15SM FEW030CB SCT180 OVC210 23/17 A2997 RMK CB1AC3CI4 CB W-NW/DSNT LTGCG W-NW SLP134

CYYC;2007-07-18 08:00;CYYC 180800Z 05005KT 15SM FEW030CB FEW065 SCT180 OVC220 20/17 A2998 RMK CB1SC1AC4CI4 CB NW SLP137

CYYC;2007-07-18 09:00;CYYC 180900Z 02010KT 15SM FEW055 SCT180 OVC220 19/18 A3000 RMK SC2AC2CI4 SLP140

CYYC;2007-07-18 10:00;CYYC 181000Z 04009KT 15SM FEW055 BKN190 OVC220 17/15 A3000 RMK SC1AC4CI3 SLP142

CYYC;2007-07-18 11:00;CYYC 181100Z 04012KT 15SM FEW055 BKN190 OVC220 17/15 A3001 RMK SC1AC4CI3 SLP143

CYYC;2007-07-18 11:29;CYYC 181129Z 07013KT 3SM TSRA SCT010 OVC020CB 16/ RMK SC4CB4

CYYC;2007-07-18 12:00;CYYC 181200Z 04014G19KT 3SM -TSRA FEW010 BKN020CB OVC180 16/16 A3000 RMK SC2CB4AC2 LTNG SLP147

CYYC;2007-07-18 13:00;CYYC 181300Z 16002KT 5SM -TSRA FEW015 FEW040 OVC065CB 16/16 A3006 RMK CF1SC2CB6 LTGCG SLP163

CYYC;2007-07-18 13:25;CYYC 181325Z 06013G22KT 7SM FEW015 FEW040 BKN065CB OVC080 16/ RMK CF1SC2CB3AC2 WSHFT 1325/SHRA SW+NE

CYYC;2007-07-18 14:00;CYYC 181400Z 10004KT 8SM FEW010 BKN017 OVC025 16/16 A3004 RMK SF2SC3SC2 SLP157

CYYC;2007-07-18 14:23;CYYC 181423Z 36004KT 8SM BKN011 BKN015 OVC025 17/ RMK SF5SC2SC1

CYYC;2007-07-18 15:00;CYYC 181500Z 02005KT 7SM BKN010 BKN014 OVC020 17/16 A3003 RMK SC5SC2SC1 SLP159

CYYC;2007-07-18 16:00;CYYC 181600Z 33002KT 7SM OVC011 18/17 A3003 RMK SC8 SLP158

CYYC;2007-07-18 17:00;CYYC 181700Z 32002KT 6SM BR OVC010 19/17 A3002 RMK SC8 SLP156

CYYC;2007-07-18 18:00;CYYC 181800Z 00000KT 7SM FEW012 SCT015 OVC020 20/18 A3001 RMK SF1SC3SC5 SLP153

CYYC;2007-07-18 19:00;CYYC 181900Z 07003KT 10SM OVC021 21/18 A3000 RMK SC8 SLP149

CYYC;2007-07-18 20:00;CYYC 182000Z 00000KT 10SM BKN021 BKN140 23/19 A2998 RMK CU5AC1 SLP144

CYYC;2007-07-18 21:00;CYYC 182100Z 13008KT 10SM BKN024 24/20 A2997 RMK CU5 SLP135

CYYC;2007-07-18 22:00;CYYC 182200Z 10007KT 10SM SCT027 BKN250 26/21 A2995 RMK CU3CI0 SLP129

CYYC;2007-07-18 23:00;CYYC 182300Z 14007KT 15SM SCT040 SCT140 27/21 A2993 RMK CU3AC1 SLP122

CYYC;2007-07-19 00:00;CYYC 190000Z 15013KT 15SM FEW041 BKN160 27/20 A2991 RMK CU2AC1 LRG CU ASOCTD SLP113

CYYC;2007-07-19 01:00;CYYC 190100Z 12012G19KT 15SM FEW042 FEW160 FEW240 26/19 A2990 RMK CU2AC1CI1 SLP110

CYYC;2007-07-19 02:00;CYYC 190200Z 15011KT 15SM FEW050 BKN250 26/18 A2989 RMK CU1CI1 HZ S-W SLP107

CYYC;2007-07-19 03:00;CYYC 190300Z 14008KT 15SM FEW050 BKN250 25/19 A2987 RMK CU1CI1 HZ S-W SLP104

CYYC;2007-07-19 04:00;CYYC 190400Z 14004KT 15SM FEW060CB OVC240 23/18 A2988 RMK CB1CI3 SLP105

CYYC;2007-07-19 05:00;CYYC 190500Z 13005KT 15SM FEW080 BKN250 22/18 A2988 RMK AC1CI2 SLP106

CYYC;2007-07-19 06:00;CYYC 190600Z 09004KT 15SM FEW085 OVC240 21/19 A2988 RMK AC2CI3 SLP107

CYYC;2007-07-19 07:00;CYYC 190700Z 14007KT 15SM FEW020 SCT050CB OVC180 21/18 A2988 RMK SC2CB2AC3 LTGIC SW SLP107

CYYC;2007-07-19 07:28;CYYC 190728Z 15008KT 15SM TS FEW020 BKN050CB OVC140 22/ RMK SC2CB5AC2 LTGCC S-W-N

CYYC;2007-07-19 08:00;CYYC 190800Z 25013G20KT 15SM TS BKN050CB OVC140 19/15 A2990 RMK CB5AC3 LTGCC S-W SLP112

CYYC;2007-07-19 08:27;CYYC 190827Z 05008KT 15SM -SHRA FEW050CB OVC110 18/ RETS RMK CB2AC6 LTGIC SW

CYYC;2007-07-19 09:00;CYYC 190900Z 01005KT 15SM -SHRA BKN110 OVC200 18/15 A2985 RETS RMK AC5CI3 SLP095

CYYC;2007-07-19 10:00;CYYC 191000Z 00000KT 15SM BKN110 OVC190 17/15 A2985 RMK AC5AC2 SLP095

CYYC;2007-07-19 11:00;CYYC 191100Z 00000KT 15SM OVC140 17/16 A2981 RMK AC8 SLP084

CYYC;2007-07-19 12:00;CYYC 191200Z 07005KT 15SM FEW090 OVC160 17/16 A2979 RMK AC2AC6 SLP070

CYYC;2007-07-19 12:29;CYYC 191229Z 26012KT 10SM -SHRA FEW070CB OVC120 18/ RMK CB2AC6 CB W

CYYC;2007-07-19 13:00;CYYC 191300Z CCA 32004KT 25SM -SHRA FEW060CB OVC110 18/16 A2981 RMK CB2AC6 LTGCG W SLP078

CYYC;2007-07-19 13:43;CYYC 191343Z 31005KT 25SM FEW017 FEW040CB SCT100 OVC140 18/ RMK SF1CB2AC1AC3

CYYC;2007-07-19 14:00;CYYC 191400Z CCA 34004KT 25SM FEW040 SCT100 BKN140 BKN220 18/15 A2982 RMK SC2AC1AC2CI1 PRES UNSTDY PST HR / LRG CU ASOCTD SLP080

CYYC;2007-07-19 15:00;CYYC 191500Z 36004KT 30SM FEW060 FEW095 SCT250 19/16 A2980 RMK SC1AC1CI0 SLP073

CYYC;2007-07-19 16:00;CYYC 191600Z 00000KT 30SM FEW060 FEW160 22/17 A2981 RMK CU1AC1 SLP078

CYYC;2007-07-19 17:00;CYYC 191700Z 05002KT 30SM FEW024 FEW045TCU FEW150 23/17 A2981 RMK CU1TCU1AC1 SLP077

CYYC;2007-07-19 18:00;CYYC 191800Z 01003KT 30SM FEW037 FEW079 FEW260 24/18 A2981 RMK CU1AC1CI0 TCU ASOCTD SLP077

CYYC;2007-07-19 19:00;CYYC 191900Z 35003KT 30SM BKN053 24/17 A2981 RMK CU5 SLP076

CYYC;2007-07-19 20:00;CYYC 192000Z 30006KT 30SM FEW060 26/17 A2981 RMK CU2 SLP077

CYYC;2007-07-19 21:00;CYYC 192100Z 10004KT 30SM SCT057 26/17 A2981 RMK CU4 SLP077

CYYC;2007-07-19 22:00;CYYC 192200Z 06002KT 30SM SCT057 SCT150 26/16 A2980 RMK CU3AC1 SLP075

CYYC;2007-07-19 23:00;CYYC 192300Z 08004KT 30SM SCT057 SCT100 26/18 A2979 RMK CU3AC1 LRG CU ASOCTD SLP072

CYYC;2007-07-20 00:00;CYYC 200000Z 23016G22KT 30SM FEW061 FEW110 28/10 A2978 RMK CU1AC1 SLP067

CYYC;2007-07-20 01:00;CYYC 200100Z 23017KT 30SM FEW052TCU FEW110 26/08 A2977 RMK TCU1AC1 TCU CVCTNG RPDLY N SLP064

CYYC;2007-07-20 02:00;CYYC 200200Z 22012G22KT 30SM FEW055TCU FEW110 24/06 A2977 RMK TCU1AC1 SLP064

CYYC;2007-07-20 03:00;CYYC 200300Z 25014KT 30SM FEW050 FEW110 SCT260 23/07 A2977 RMK CU1AC1CI0 SLP068

CYYC;2007-07-20 04:00;CYYC 200400Z 30006KT 40SM FEW060CB FEW110 SCT250 19/08 A2981 RMK CB2AC1CI0 CB E SLP078

CYYC;2007-07-20 05:00;CYYC 200500Z 26007KT 15SM FEW110 17/08 A2982 RMK AC1 SLP082

CYYC;2007-07-20 06:00;CYYC 200600Z 25002KT 15SM SKC 17/06 A2985 RMK SLP094

CYYC;2007-07-20 07:00;CYYC 200700Z 09003KT 15SM FEW230 12/09 A2985 RMK CI1 SLP096

CYYC;2007-07-20 08:00;CYYC 200800Z 31002KT 15SM FEW230 15/07 A2986 RMK CI1 SLP099

CYYC;2007-07-20 09:00;CYYC 200900Z 00000KT 15SM FEW240 11/07 A2988 RMK CI0 SLP112

CYYC;2007-07-20 10:00;CYYC 201000Z 00000KT 15SM FEW240 12/07 A2988 RMK CI0 SLP113

CYYC;2007-07-20 11:00;CYYC 201100Z 31003KT 20SM FEW110 09/07 A2988 RMK AC1 SLP113

CYYC;2007-07-20 12:00;CYYC 201200Z 00000KT 30SM FEW110 11/07 A2989 RMK AC1 AC TR SLP113

CYYC;2007-07-20 13:00;CYYC 201300Z 00000KT 40SM FEW240 13/08 A2989 RMK CI1 CI TR SLP113

CYYC;2007-07-20 14:00;CYYC 201400Z 00000KT 40SM FEW055 FEW120 FEW240 16/09 A2988 RMK CU1AC1CI1 SLP112

CYYC;2007-07-20 15:00;CYYC 201500Z 30002KT 40SM FEW160 FEW240 18/09 A2988 RMK AC1CI1 SLP108

CYYC;2007-07-20 16:00;CYYC 201600Z 00000KT 40SM FEW160 FEW210 FEW240 21/10 A2988 RMK AC1CC1CI1 SLP108

CYYC;2007-07-20 17:00;CYYC 201700Z 27003KT 40SM FEW040 FEW160 SCT200 BKN230 21/09 A2988 RMK CU1AC1CC2CI1 SLP107

CYYC;2007-07-20 18:00;CYYC 201800Z 15004KT 40SM FEW040 FEW150 FEW180 FEW200 23/09 A2985 RMK CU1AC1AC1CC0 SLP096

CYYC;2007-07-20 19:00;CYYC 201900Z 10006KT 40SM FEW055 FEW170 FEW200 24/08 A2983 RMK CU1AC1CC1 SLP089

CYYC;2007-07-20 20:00;CYYC 202000Z 12007KT 40SM FEW058 FEW170 25/10 A2983 RMK CU1AC1 SLP091

CYYC;2007-07-20 21:00;CYYC 202100Z 14010KT 40SM FEW063 FEW240 25/09 A2981 RMK CU1CI1 SLP087

CYYC;2007-07-20 22:00;CYYC 202200Z 12012KT 40SM FEW064 FEW170 FEW240 25/11 A2979 RMK CU1AC1CI0 SLP081

CYYC;2007-07-20 23:00;CYYC 202300Z 12012KT 40SM FEW065 FEW160 BKN240 25/11 A2977 RMK CU1AC1CI2 SLP077

CYYC;2007-07-21 00:00;CYYC 210000Z 12011KT 30SM FEW065 SCT150 BKN220 24/12 A2975 RMK CU1AC3CI2 SLP068

CYYC;2007-07-21 01:00;CYYC 210100Z 17010KT 30SM FEW060 OVC150 24/13 A2974 RMK SC1AC7 LRG CU ASOCTD SLP066

CYYC;2007-07-21 02:00;CYYC 210200Z 18014KT 30SM FEW060 BKN150 OVC210 25/11 A2974 RMK SC1AC6CI2 SLP067

CYYC;2007-07-21 03:00;CYYC 210300Z 21017KT 30SM FEW060 BKN120 OVC210 24/05 A2975 RMK SC1AC5CI2 ACSL S SLP061

CYYC;2007-07-21 04:00;CYYC 210400Z 22020G28KT 20SM BKN120 OVC220 23/05 A2977 RMK AC5CI2 SLP066

CYYC;2007-07-21 05:00;CYYC 210500Z 21016KT 15SM BKN170 BKN220 22/06 A2977 RMK AC5CI2 SLP066

CYYC;2007-07-21 06:00;CYYC 210600Z 20016KT 15SM BKN170 BKN240 21/07 A2973 RMK AC5CI2 SLP052

CYYC;2007-07-21 07:00;CYYC 210700Z 19005KT 15SM BKN170 BKN240 19/08 A2974 RMK AC5CI1 SLP055

CYYC;2007-07-21 08:00;CYYC 210800Z 31005KT 15SM SCT170 BKN240 18/07 A2975 RMK AC4CI1 SLP057

CYYC;2007-07-21 09:00;CYYC 210900Z 25006KT 15SM FEW240 16/07 A2975 RMK CI1 SLP063

CYYC;2007-07-21 10:00;CYYC 211000Z 00000KT 15SM FEW240 15/07 A2977 RMK CI1 SLP068

CYYC;2007-07-21 11:00;CYYC 211100Z 32005KT 15SM SCT140 BKN240 14/07 A2979 RMK AC2CI2 SLP075

CYYC;2007-07-21 12:00;CYYC 211200Z 34005KT 20SM FEW100 BKN250 14/07 A2981 RMK AC2CI1 SLP087

CYYC;2007-07-21 13:00;CYYC 211300Z 00000KT 30SM FEW040 SCT100 BKN250 14/07 A2984 RMK CU1AC2CI1 SLP094

CYYC;2007-07-21 14:00;CYYC 211400Z 19003KT 40SM FEW090 FEW140 BKN260 17/11 A2986 RMK AC1AC1CI1 SLP101

CYYC;2007-07-21 15:00;CYYC 211500Z 28007KT 40SM FEW090 FEW190 BKN260 20/08 A2986 RMK AC1AC1CI1 SLP095

CYYC;2007-07-21 16:00;CYYC 211600Z 27011KT 40SM FEW090 FEW190 BKN260 23/08 A2987 RMK AC1AC0CI1 SLP097

CYYC;2007-07-21 17:00;CYYC 211700Z 28007KT 40SM FEW090 FEW190 BKN260 23/08 A2987 RMK AC1AC0CI1 SLP098

CYYC;2007-07-21 18:00;CYYC 211800Z 29007KT 40SM FEW062 FEW090 SCT260 24/08 A2987 RMK CU1AC0CI1 SLP100

CYYC;2007-07-21 19:00;CYYC 211900Z 20008KT 40SM FEW080 SCT260 25/10 A2988 RMK AC1CI0 SLP101

CYYC;2007-07-21 20:00;CYYC 212000Z 18006KT 40SM FEW085 FEW260 25/10 A2988 RMK AC1CI0 SLP101

CYYC;2007-07-21 21:00;CYYC 212100Z 30004KT 40SM FEW085 FEW260 26/08 A2988 RMK AC1CI0 SLP105

CYYC;2007-07-21 22:00;CYYC 212200Z 16003KT 40SM FEW090 BKN260 25/09 A2987 RMK AC1CI1 SLP103

CYYC;2007-07-21 23:00;CYYC 212300Z 08005KT 40SM FEW090 SCT260 26/08 A2987 RMK AC1CI1 SLP104

CYYC;2007-07-22 01:00;CYYC 220100Z 03007KT 40SM FEW090 SCT200 BKN260 26/10 A2989 RMK AC1CI2CI0 SLP112

CYYC;2007-07-22 02:00;CYYC 220200Z 06006KT 40SM FEW048 BKN200 BKN230 OVC260 23/13 A2988 RMK CU1CI3CS1CI1 SLP110

CYYC;2007-07-22 03:00;CYYC 220300Z 06003KT 40SM FEW043 FEW200 BKN230 BKN260 21/14 A2989 RMK CU1CI2CC1CI1 SLP110

CYYC;2007-07-22 04:00;CYYC 220400Z 04002KT 25SM FEW035 FEW190 BKN240 19/14 A2991 RMK CU1AC2CI1 SLP116

CYYC;2007-07-22 05:00;CYYC 220500Z 31003KT 15SM FEW032 FEW180 SCT230 18/12 A2992 RMK CU1AC2CI1 SLP119

CYYC;2007-07-22 06:00;CYYC 220600Z 30003KT 15SM FEW140 FEW240 18/11 A2992 RMK AC1CI1 SLP121

CYYC;2007-07-22 07:00;CYYC 220700Z 26003KT 15SM FEW140 17/08 A2993 RMK AC1 SLP123

CYYC;2007-07-22 08:00;CYYC 220800Z 26005KT 15SM FEW250 15/08 A2994 RMK CI0 SLP125

CYYC;2007-07-22 09:00;CYYC 220900Z 23011KT 15SM FEW180 SCT200 16/08 A2994 RMK AC1CI2 SLP127

CYYC;2007-07-22 10:00;CYYC 221000Z 24006KT 15SM BKN200 17/08 A2995 RMK CI3 SLP129

CYYC;2007-07-22 11:00;CYYC 221100Z 23005KT 15SM FEW035 FEW200 BKN240 17/06 A2997 RMK CU1CI1CI3 SLP135

CYYC;2007-07-22 12:00;CYYC 221200Z 23006KT 40SM FEW045 FEW180 FEW220 BKN260 17/06 A2998 RMK CU1AC1CI2CC2 SLP139

CYYC;2007-07-22 13:00;CYYC 221300Z 22005KT 40SM FEW045 FEW180 BKN240 16/08 A2999 RMK CU1AC2CC2 SLP141

CYYC;2007-07-22 14:00;CYYC 221400Z 20008KT 40SM FEW080 FEW180 SCT250 15/09 A3000 RMK AC1AC1CI2 LWR AC TR SLP145

CYYC;2007-07-22 15:00;CYYC 221500Z 21006KT 40SM FEW080 FEW180 BKN250 18/11 A3002 RMK AC1AC1CI2 SLP157

CYYC;2007-07-22 16:00;CYYC 221600Z 07003KT 40SM FEW080 FEW180 BKN250 22/13 A3002 RMK AC1AC1CI1 SLP159

CYYC;2007-07-22 17:00;CYYC 221700Z 21006KT 40SM FEW080 FEW180 BKN250 25/12 A3002 RMK AC1AC1CI0 SLP158

CYYC;2007-07-22 18:00;CYYC 221800Z 23005KT 40SM FEW080 FEW180 BKN250 26/11 A3001 RMK AC1AC1CI0 SLP149

CYYC;2007-07-22 19:00;CYYC 221900Z 16005KT 40SM FEW080 FEW180 BKN250 27/13 A3001 RMK AC1AC1CI1 SLP148

CYYC;2007-07-22 20:00;CYYC 222000Z 16008KT 40SM FEW080 FEW190 BKN250 28/13 A3002 RMK AC1AC1CI1 SLP150

CYYC;2007-07-22 21:00;CYYC 222100Z 19002KT 40SM FEW090 FEW190 BKN250 29/13 A3002 RMK AC1AC1CI1 SLP148

CYYC;2007-07-22 22:00;CYYC 222200Z 26004KT 40SM FEW100 FEW190 BKN250 31/14 A3002 RMK AC1AC1CI1 SLP147

CYYC;2007-07-22 23:00;CYYC 222300Z CCA 29003KT 40SM FEW100 FEW190 SCT250 31/13 A3002 RMK AC1AC1CI0 SLP147

CYYC;2007-07-23 00:00;CYYC 230000Z 30007KT 40SM FEW100 FEW190 SCT260 30/13 A3002 RMK AC1AC1CI0 SLP147

CYYC;2007-07-23 01:00;CYYC 230100Z 28010KT 40SM FEW100 FEW190 SCT260 29/13 A3002 RMK AC1AC1CI0 SLP148

CYYC;2007-07-23 02:00;CYYC 230200Z 30008KT 40SM FEW100 FEW180 SCT260 27/12 A3002 RMK AC1AC1CI0 SLP148

CYYC;2007-07-23 03:00;CYYC 230300Z 27005KT 40SM FEW100 FEW180 25/12 A3003 RMK AC1AC1 SLP157

CYYC;2007-07-23 04:00;CYYC 230400Z 00000KT 30SM FEW090 FEW170 25/11 A3004 RMK AC1AC1 SLP159

CYYC;2007-07-23 05:00;CYYC 230500Z 32005KT 15SM FEW080 FEW170 24/11 A3004 RMK AC1AC1 SLP160

CYYC;2007-07-23 06:00;CYYC 230600Z 05004KT 15SM FEW170 17/13 A3004 RMK AC1 SLP160

CYYC;2007-07-23 07:00;CYYC 230700Z 32004KT 15SM FEW170 19/13 A3004 RMK AC1 SLP159

CYYC;2007-07-23 08:00;CYYC 230800Z 00000KT 15SM SKC 19/12 A3004 RMK SLP158

CYYC;2007-07-23 09:00;CYYC 230900Z 00000KT 15SM FEW028 18/12 A3003 RMK CU1 SLP151

CYYC;2007-07-23 10:00;CYYC 231000Z 21003KT 15SM FEW240 17/12 A3004 RMK CI1 SLP152

CYYC;2007-07-23 11:00;CYYC 231100Z 05004KT 15SM FEW240 14/12 A3004 RMK CI1 SLP152

CYYC;2007-07-23 12:00;CYYC 231200Z 23002KT 20SM FEW240 15/11 A3004 RMK CI1 SLP158

CYYC;2007-07-23 13:00;CYYC 231300Z 28003KT 40SM FEW180 FEW220 16/12 A3004 RMK AC1CI1 SLP157

CYYC;2007-07-23 14:00;CYYC 231400Z 24002KT 40SM FEW070 FEW180 20/14 A3003 RMK AC1AC1 SLP155

CYYC;2007-07-23 15:00;CYYC 231500Z 21004KT 40SM FEW080 FEW180 23/15 A3003 RMK AC1AC1 SLP147

CYYC;2007-07-23 16:00;CYYC 231600Z 21005KT 40SM FEW080 FEW180 26/15 A3003 RMK AC1AC1 SLP148

CYYC;2007-07-23 17:00;CYYC 231700Z 00000KT 40SM FEW080 FEW190 28/13 A3002 RMK AC1AC1 SLP146

CYYC;2007-07-23 18:00;CYYC 231800Z 00000KT 40SM FEW080 FEW190 30/13 A3001 RMK AC1AC1 SLP144

CYYC;2007-07-23 19:00;CYYC 231900Z 18004KT 40SM FEW080 FEW190 31/12 A2999 RMK AC1AC1 SLP139

CYYC;2007-07-23 20:00;CYYC 232000Z 16006KT 30SM FEW080 FEW240 31/14 A2997 RMK AC1CI1 SLP131

CYYC;2007-07-23 21:00;CYYC 232100Z 12013KT 30SM FEW080 FEW240 30/15 A2994 RMK AC1CI1 CI TR SLP119

CYYC;2007-07-23 22:00;CYYC 232200Z 10007KT 20SM FEW090 FEW240 31/17 A2992 RMK AC1CI1 CI TR SLP113

CYYC;2007-07-23 23:00;CYYC 232300Z 13010G18KT 20SM FEW090TCU FEW240 30/16 A2990 RMK TCU1CI1 TCU S+W / CI TR SLP106

CYYC;2007-07-23 23:14;CYYC 232314Z 13012KT 20SM -SHRA FEW090TCU FEW240 29/ RMK TCU1CI1 CI TR

CYYC;2007-07-23 23:28;CYYC 232328Z 12009KT 30SM FEW090TCU FEW240 30/ RMK TCU2CI1 SH NE

CYYC;2007-07-24 00:00;CYYC 240000Z 14010G15KT 30SM FEW100 FEW240 31/16 A2987 RMK AC2CI1 SLP096

CYYC;2007-07-24 00:16;CYYC 240016Z 14010G16KT 30SM -SHRA FEW100 31/ RMK AC2

CYYC;2007-07-24 00:36;CYYC 240036Z 14010KT 30SM FEW100 30/ RMK AC2

CYYC;2007-07-24 01:00;CYYC 240100Z CCA 13014KT 20SM FEW100 30/15 A2984 RMK AC1 SLP087

CYYC;2007-07-24 02:00;CYYC 240200Z 15009G17KT 20SM FEW100 29/16 A2981 RMK AC1 SLP078

CYYC;2007-07-24 03:00;CYYC 240300Z 16010KT 20SM FEW044CB FEW100 FEW260 28/16 A2980 RMK CB1AC1CI1 CB N+S SLP065

CYYC;2007-07-24 04:00;CYYC 240400Z 17008KT 20SM FEW040CB FEW100 FEW260 26/16 A2980 RMK CB1AC1CI0 CB N/CB+AC TR SLP065

CYYC;2007-07-24 05:00;CYYC 240500Z 18008KT 15SM FEW040CB FEW100 FEW260 25/15 A2980 RMK CB1AC1CI0 CB W-N/LTGCC NW SLP065

CYYC;2007-07-24 06:00;CYYC 240600Z 25003KT 15SM FEW100 SCT180 23/15 A2978 RMK AC1AC2 SLP056

CYYC;2007-07-24 07:00;CYYC 240700Z 34008KT 15SM FEW180 SCT250 19/14 A2982 RMK AC2CI0 SLP068

CYYC;2007-07-24 08:00;CYYC 240800Z 32009G15KT 15SM FEW180 BKN240 18/14 A2983 RMK AC2CI1 SLP072

CYYC;2007-07-24 08:47;CYYC 240847Z 34006KT 15SM -SHRA FEW060CB BKN180 18/ RMK CB2AC2

CYYC;2007-07-24 09:00;CYYC 240900Z 01012KT 15SM -SHRA FEW060 BKN140 18/15 A2985 RMK SC2AC2 CB EMBTD SLP085

CYYC;2007-07-24 09:07;CYYC 240907Z 35011KT 15SM FEW060 BKN140 17/ RMK SC1AC2 CB EMBTD

CYYC;2007-07-24 10:00;CYYC 241000Z 33007KT 15SM FEW060 BKN140 16/14 A2982 RMK SC1AC2 CB EMBTD SLP077

CYYC;2007-07-24 11:00;CYYC 241100Z 32006KT 15SM FEW060CB BKN140 BKN220 17/13 A2984 RMK CB1AC4CI2 SLP082

CYYC;2007-07-24 12:00;CYYC 241200Z 31009KT 20SM FEW060CB FEW180 BKN220 17/14 A2986 RMK CB1AC1CI5 SH DSNT N/VIRGA E+N/CB NW/CB TR SLP092

CYYC;2007-07-24 13:00;CYYC 241300Z 34003KT 20SM FEW180 BKN220 16/14 A2987 RMK AC1CI5 SLP095

CYYC;2007-07-24 14:00;CYYC 241400Z 35007KT 30SM FEW180 SCT220 16/14 A2988 RMK AC1CI2 SLP097

CYYC;2007-07-24 15:00;CYYC 241500Z 35013KT 30SM FEW050 FEW160 19/15 A2988 RMK CU1AC1 SLP101

CYYC;2007-07-24 16:00;CYYC 241600Z 36013KT 30SM FEW050 FEW160 20/16 A2988 RMK CU1AC2 SLP101

CYYC;2007-07-24 17:00;CYYC 241700Z 05006KT 30SM FEW050 FEW160 22/17 A2987 RMK CU1AC1 AC TR SLP098

CYYC;2007-07-24 18:00;CYYC 241800Z 07007KT 30SM SCT026 SCT100 23/17 A2987 RMK CU3AC1 SLP097

CYYC;2007-07-24 19:00;CYYC 241900Z 03008KT 30SM SCT035 SCT100 24/17 A2987 RMK CU3AC1 SLP095

CYYC;2007-07-24 20:00;CYYC 242000Z 06010KT 30SM SCT040 SCT100 25/17 A2986 RMK CU3AC1 SLP093

CYYC;2007-07-24 21:00;CYYC 242100Z 06012KT 20SM BKN029 BKN090 24/17 A2986 RMK CU5AC1 SLP100

CYYC;2007-07-24 21:54;CYYC 242154Z 08007KT 20SM -TSRA SCT030 BKN055CB BKN100 23/ RMK CU3CB2AC1 LTGIC S+W

CYYC;2007-07-24 22:00;CYYC 242200Z 08006KT 15SM -TSRA SCT047 BKN055CB BKN100 23/16 A2985 RMK CU3CB3AC1 LTGIC S+W SLP097

CYYC;2007-07-24 22:33;CYYC 242233Z 09008KT 20SM TS FEW045 BKN060CB BKN100 23/ RMK CU2CB4AC1

CYYC;2007-07-24 23:00;CYYC 242300Z 01013KT 20SM TS FEW040 BKN060CB BKN100 22/16 A2987 RMK CU2CB4AC1 SLP104

CYYC;2007-07-24 23:28;CYYC 242328Z 04017KT 20SM FEW040 SCT060CB SCT100 21/ RETS RMK CU1CB3AC1

CYYC;2007-07-25 00:00;CYYC 250000Z CCA 36008KT 20SM BKN042CB BKN090 19/14 A2990 RETS RMK CB6AC2 SLP120

CYYC;2007-07-25 00:17;CYYC 250017Z CCA 05009KT 20SM TS BKN045CB BKN110 18/ RMK CB6AC1

CYYC;2007-07-25 00:35;CYYC 250035Z 03012KT 20SM -TSRA BKN048CB BKN097 18/ RMK CB6AC2

CYYC;2007-07-25 01:00;CYYC 250100Z CCA 06010G17KT 20SM -TSRA BKN050CB BKN100 19/17 A2988 RMK CB5AC2 SLP114

CYYC;2007-07-25 01:10;CYYC 250110Z 07009KT 20SM TS SCT055CB BKN100 19/ RMK CB3AC2

CYYC;2007-07-25 01:33;CYYC 250133Z 03012KT 20SM -TSRA BKN055CB BKN100 20/ RMK CB5AC2

CYYC;2007-07-25 02:00;CYYC 250200Z 04015G20KT 20SM -TSRA BKN060CB BKN110 20/17 A2989 RMK CB5AC2 SLP119

CYYC;2007-07-25 02:36;CYYC 250236Z 02014G20KT 20SM SCT060CB BKN120 19/ RETS RMK CB3AC3

CYYC;2007-07-25 03:00;CYYC 250300Z 02011G18KT 20SM -TSRA BKN060CB BKN110 18/16 A2993 RMK CB5AC2 SLP129

CYYC;2007-07-25 04:00;CYYC 250400Z 01010G15KT 15SM FEW050CB SCT100 16/14 A2994 RMK CB1AC2 VIRGA NW/CB SE SLP134

CYYC;2007-07-25 05:00;CYYC 250500Z 35009KT 15SM BKN075 BKN110 15/13 A2999 RMK AC4AC2 SLP147

CYYC;2007-07-25 05:29;CYYC 250529Z 26008KT 5SM +SHRA BKN055 OVC080 16/ RMK SC5AC2 CB EMBTD

CYYC;2007-07-25 05:50;CYYC 250550Z 01010G20KT 15SM -SHRA BKN020 BKN040 OVC080 14/ RMK SC4SC2AC0 WSHFT 0550

CYYC;2007-07-25 06:00;CYYC 250600Z 02008KT 15SM -SHRA FEW020 SCT040 BKN080 14/13 A3001 RMK SC1SC2AC1 SLP157

CYYC;2007-07-25 06:34;CYYC 250634Z 35005KT 15SM FEW040 FEW075 BKN120 14/ RMK SC1AC2AC3

CYYC;2007-07-25 07:00;CYYC 250700Z 33005KT 15SM FEW040 FEW075 BKN120 14/13 A3003 RMK SC1AC2AC5 SLP163

CYYC;2007-07-25 07:21;CYYC 250721Z 32005KT 5SM -SHRA BKN060 OVC090 15/ RMK SC4AC3

CYYC;2007-07-25 08:00;CYYC 250800Z 34005KT 15SM -SHRA SCT060 BKN090 14/13 A3005 RMK SC3AC3 SLP168

CYYC;2007-07-25 08:29;CYYC 250829Z 32003KT 15SM BKN065 OVC090 14/ RMK SC5AC2

CYYC;2007-07-25 09:00;CYYC 250900Z 00000KT 15SM VCSH BKN065 OVC090 14/13 A3006 RMK SC4AC3 SLP172

CYYC;2007-07-25 10:00;CYYC 251000Z 00000KT 15SM OVC090 13/13 A3007 RMK AC7 SLP176

CYYC;2007-07-25 11:00;CYYC 251100Z 00000KT 15SM BKN063 OVC090 14/13 A3008 RMK SC5AC2 SLP180

CYYC;2007-07-25 12:00;CYYC 251200Z 32003KT 15SM BKN060 OVC075 13/12 A3008 RMK SC6AC1 SLP189

CYYC;2007-07-25 13:00;CYYC 251300Z 00000KT 20SM BKN060 OVC075 14/13 A3009 RMK SC6AC1 SLP191

CYYC;2007-07-25 14:00;CYYC 251400Z 10003KT 30SM FEW060 BKN085 15/12 A3010 RMK SC2AC1 SLP193

CYYC;2007-07-25 15:00;CYYC 251500Z 13005KT 30SM FEW015 BKN058 BKN085 16/12 A3010 RMK SC1SC7AC1 SLP192

CYYC;2007-07-25 16:00;CYYC 251600Z 17007KT 30SM FEW015 BKN050 BKN085 16/10 A3009 RMK SC1SC7AC1 SF ASOCTD SLP191

CYYC;2007-07-25 17:00;CYYC 251700Z 14008KT 40SM FEW030 SCT060 SCT085 19/11 A3009 RMK SC1SC2AC1 SLP190

CYYC;2007-07-25 18:00;CYYC 251800Z 16008G16KT 40SM FEW042 FEW085 19/09 A3008 RMK CU1AC1 SLP187

CYYC;2007-07-25 19:00;CYYC 251900Z 16008G17KT 40SM FEW045 FEW085 19/10 A3008 RMK CU1AC1 SLP186

CYYC;2007-07-25 20:00;CYYC 252000Z 13011KT 40SM SCT045 SCT100 21/12 A3007 RMK CU2AC1 SLP183

CYYC;2007-07-25 21:00;CYYC 252100Z 15009G17KT 40SM FEW045 SCT100 22/12 A3006 RMK CU1AC2 SLP176

CYYC;2007-07-25 22:00;CYYC 252200Z 15011G18KT 40SM FEW045 FEW110 22/11 A3005 RMK SC1AC1 SC TR SLP172

CYYC;2007-07-25 23:00;CYYC 252300Z 05004KT 30SM FEW035 BKN045CB BKN110 22/10 A3008 RMK CU1CB4AC1 SH W-NE / LTGCG N SLP181

CYYC;2007-07-25 23:42;CYYC 252342Z 02012G17KT 6SM -SHRA FEW035 BKN060CB BKN110 18/ RMK CU1CB4AC1

CYYC;2007-07-25 23:54;CYYC 252354Z 05013KT 30SM FEW035 FEW060CB FEW110 FEW260 16/ RMK CU1CB1AC1CI0

CYYC;2007-07-26 00:00;CYYC 260000Z 05012KT 30SM FEW035 FEW060CB FEW110 FEW260 17/13 A3010 RMK CU1CB1AC1CI0 SLP198

CYYC;2007-07-26 01:00;CYYC 260100Z 03007KT 30SM FEW060 FEW110 FEW260 18/13 A3010 RMK SC1AC1CI0 SC TR SLP199

CYYC;2007-07-26 02:00;CYYC 260200Z 05006KT 30SM FEW060 FEW110 FEW260 18/12 A3012 RMK CU1AC1CI0 CU TR SLP203

CYYC;2007-07-26 03:00;CYYC 260300Z 06003KT 30SM FEW060 FEW110 FEW260 16/12 A3013 RMK CU1AC1CI0 CU TR SLP206

CYYC;2007-07-26 04:00;CYYC 260400Z 04003KT 30SM FEW060 FEW140 FEW260 15/11 A3015 RMK CU1AC1CI0 CU TR SLP212

CYYC;2007-07-26 05:00;CYYC 260500Z 34004KT 15SM FEW140 FEW260 14/12 A3016 RMK AC1CI0 SLP215

CYYC;2007-07-26 06:00;CYYC 260600Z 33003KT 15SM SCT059 13/11 A3018 RMK SC3 SLP222

CYYC;2007-07-26 07:00;CYYC 260700Z 00000KT 15SM BKN065 14/12 A3019 RMK SC4 SLP225

CYYC;2007-07-26 08:00;CYYC 260800Z 00000KT 15SM FEW080 13/12 A3019 RMK AC0 SLP225

CYYC;2007-07-26 09:00;CYYC 260900Z 04003KT 15SM SKC 12/11 A3018 RMK SLP221

CYYC;2007-07-26 10:00;CYYC 261000Z 03003KT 15SM SKC 10/10 A3017 RMK SLP219

CYYC;2007-07-26 11:00;CYYC 261100Z 16002KT 15SM SKC 11/10 A3017 RMK SLP219

CYYC;2007-07-26 12:00;CYYC 261200Z 15005KT 20SM FEW240 11/10 A3017 RMK CI1 CI TR SLP226

CYYC;2007-07-26 13:00;CYYC 261300Z 17005KT 40SM FEW090 FEW240 13/12 A3017 RMK AC1CI1 SLP227

CYYC;2007-07-26 14:00;CYYC 261400Z 17007KT 40SM FEW090 FEW240 15/12 A3016 RMK AC1CI1 SLP224

CYYC;2007-07-26 15:00;CYYC 261500Z 18005KT 40SM FEW080 FEW240 18/12 A3016 RMK AC1CI1 SLP212

CYYC;2007-07-26 16:00;CYYC 261600Z 17010G15KT 40SM FEW080 FEW240 20/13 A3014 RMK AC1CI1 SLP208

CYYC;2007-07-26 17:00;CYYC 261700Z 17019G25KT 40SM FEW080 FEW240 22/11 A3012 RMK AC1CI1 SLP202

CYYC;2007-07-26 18:00;CYYC 261800Z 16018G25KT 40SM FEW080 FEW190 23/11 A3010 RMK AC1AC1 SLP191

CYYC;2007-07-26 19:00;CYYC 261900Z 16017G24KT 40SM FEW090 FEW190 25/12 A3008 RMK AC1AC1 SLP184

CYYC;2007-07-26 20:00;CYYC 262000Z 17019G25KT 30SM FEW090 FEW190 25/12 A3007 RMK AC1AC1 SLP180

CYYC;2007-07-26 21:00;CYYC 262100Z 17020G27KT 30SM FEW090 FEW190 26/13 A3005 RMK AC1AC1 SLP169

CYYC;2007-07-26 22:00;CYYC 262200Z 16015G22KT 30SM FEW090 FEW210 26/13 A3003 RMK AC1CI1 SLP164

CYYC;2007-07-26 23:00;CYYC 262300Z 16014G20KT 30SM FEW090 FEW210 27/13 A3001 RMK AC1CI1 SLP158

CYYC;2007-07-27 00:00;CYYC 270000Z 13017KT 30SM FEW090 FEW240 27/12 A2999 RMK AC1CI1 SLP149

CYYC;2007-07-27 01:00;CYYC 270100Z 13013KT 30SM FEW090 FEW160 FEW250 27/12 A2997 RMK CU1AC1CI1 SLP143

CYYC;2007-07-27 02:00;CYYC 270200Z 13010G15KT 30SM FEW090 FEW160 FEW260 25/13 A2997 RMK CU1AC1CI1 SLP141

CYYC;2007-07-27 03:00;CYYC 270300Z 12008KT 30SM FEW140 FEW260 23/13 A2996 RMK AC1CI1 SLP136

CYYC;2007-07-27 04:00;CYYC 270400Z 13008KT 15SM FEW140 FEW260 21/12 A2997 RMK AC1CI1 SLP138

CYYC;2007-07-27 05:00;CYYC 270500Z 16005KT 15SM FEW140 FEW260 20/11 A2997 RMK AC1CI1 SLP137

CYYC;2007-07-27 06:00;CYYC 270600Z 00000KT 15SM SKC 18/11 A2996 RMK SLP134

CYYC;2007-07-27 07:00;CYYC 270700Z 32003KT 15SM SKC 17/11 A2995 RMK SLP130

CYYC;2007-07-27 08:00;CYYC 270800Z 36004KT 15SM SKC 14/11 A2994 RMK SLP128

CYYC;2007-07-27 09:00;CYYC 270900Z 32003KT 15SM SKC 14/11 A2995 RMK SLP131

CYYC;2007-07-27 10:00;CYYC 271000Z 02004KT 15SM SKC 13/11 A2995 RMK SLP133

CYYC;2007-07-27 11:00;CYYC 271100Z 26002KT 15SM SKC 14/11 A2996 RMK SLP135

CYYC;2007-07-27 12:00;CYYC 271200Z 00000KT 20SM FEW050 FEW110 FEW260 13/11 A2996 RMK CU1AC1CI0 CU TR SLP136

CYYC;2007-07-27 13:00;CYYC 271300Z 23005KT 30SM FEW110 SCT250 14/12 A2996 RMK AC1CI0 SLP136

CYYC;2007-07-27 14:00;CYYC 271400Z 03002KT 30SM FEW110 SCT250 17/13 A2997 RMK AC2CI0 SLP137

CYYC;2007-07-27 15:00;CYYC 271500Z 00000KT 30SM FEW110 FEW250 20/13 A2997 RMK AC1CI1 SLP134

CYYC;2007-07-27 16:00;CYYC 271600Z 00000KT 30SM FEW120 FEW240 24/13 A2996 RMK AC1CI1 SLP133

CYYC;2007-07-27 17:00;CYYC 271700Z 19002KT 30SM FEW180 FEW240 27/12 A2995 RMK AC1CI1 SLP130

CYYC;2007-07-27 18:00;CYYC 271800Z 18003KT 30SM FEW070 FEW190 BKN230 29/11 A2995 RMK CU1AC1CI4 SLP122

CYYC;2007-07-27 19:00;CYYC 271900Z 18006KT 30SM FEW080 FEW200 SCT240 31/08 A2994 RMK CU1CI1CI3 SLP119

CYYC;2007-07-27 20:00;CYYC 272000Z 14003KT 30SM FEW083 FEW170 BKN240 31/07 A2993 RMK CU1AC1CI3 SLP116

CYYC;2007-07-27 21:00;CYYC 272100Z CCA 14003KT 30SM FEW098 FEW170 FEW240 31/07 A2990 RMK CU1AC1CI1 SLP107

CYYC;2007-07-27 22:00;CYYC 272200Z CCA 14007KT 25SM FEW100 FEW170 FEW240 32/10 A2989 RMK CU1AC1CI1 SLP106

CYYC;2007-07-27 23:00;CYYC 272300Z 15007KT 25SM FEW100 FEW170 31/08 A2988 RMK AC1AC1 SLP102

CYYC;2007-07-28 00:00;CYYC 280000Z 11010KT 30SM FEW095 FEW240 31/10 A2986 RMK AC1CC1 SLP097

CYYC;2007-07-28 01:00;CYYC 280100Z 14012KT 30SM FEW090 FEW210 30/10 A2986 RMK AC1CC1 SLP096

CYYC;2007-07-28 02:00;CYYC 280200Z 12013KT 30SM FEW090 FEW170 FEW230 27/11 A2986 RMK AC1AC1CI1 SLP095

CYYC;2007-07-28 03:00;CYYC 280300Z 11008KT 30SM FEW090 FEW170 SCT250 25/12 A2986 RMK AC1AC1CI1 SLP093

CYYC;2007-07-28 04:00;CYYC 280400Z 13008KT 15SM FEW090 SCT160 BKN250 23/12 A2986 RMK AC1AC2CI2 SLP095

CYYC;2007-07-28 05:00;CYYC 280500Z 17004KT 15SM FEW090 SCT160 BKN250 22/13 A2987 RMK AC1AC2CI2 SLP096

CYYC;2007-07-28 06:00;CYYC 280600Z 00000KT 15SM FEW090 SCT140 BKN250 21/13 A2986 RMK AC1AC2CI2 SLP090

CYYC;2007-07-28 07:00;CYYC 280700Z 31004KT 15SM FEW160 BKN250 18/13 A2986 RMK AC1CI2 SLP090

CYYC;2007-07-28 08:00;CYYC 280800Z 30003KT 15SM FEW160 OVC250 17/12 A2986 RMK AC1CI2 SLP089

CYYC;2007-07-28 09:00;CYYC 280900Z 36006KT 15SM FEW160 BKN250 16/12 A2986 RMK AC1CI2 SLP093

CYYC;2007-07-28 10:00;CYYC 281000Z 35004KT 15SM FEW160 BKN250 15/12 A2987 RMK AC1CI2 SLP095

CYYC;2007-07-28 11:00;CYYC 281100Z 26003KT 15SM FEW140 BKN250 16/12 A2987 RMK AC1CI2 SLP095

CYYC;2007-07-28 12:00;CYYC 281200Z 22005KT 15SM FEW140 OVC250 14/10 A2987 RMK AC1CI3 SLP100

CYYC;2007-07-28 13:00;CYYC 281300Z 36006KT 15SM FEW220 BKN260 16/09 A2989 RMK CI2CI2 SLP105

CYYC;2007-07-28 14:00;CYYC 281400Z 33009KT 15SM FEW190 FEW270 19/10 A2990 RMK AC1CI0 SLP109

CYYC;2007-07-28 15:00;CYYC 281500Z 32011G16KT 15SM FEW190 SCT270 21/14 A2991 RMK AC1CI0 SLP109

CYYC;2007-07-28 16:00;CYYC 281600Z 35010KT 15SM FEW290 24/16 A2991 RMK CI1 SLP109

CYYC;2007-07-28 17:00;CYYC 281700Z 35007KT 15SM FEW290 24/16 A2991 RMK CI1 SLP111

CYYC;2007-07-28 18:00;CYYC 281800Z 01009KT 15SM SKC 25/16 A2991 RMK SLP110

CYYC;2007-07-28 19:00;CYYC 281900Z 04004KT 20SM SKC 26/16 A2990 RMK SLP109

CYYC;2007-07-28 20:00;CYYC 282000Z 08004KT 20SM FEW048 FEW290 28/15 A2989 RMK CU1CI0 SLP104

CYYC;2007-07-28 21:00;CYYC 282100Z 08006KT 20SM FEW060 30/15 A2988 RMK CU1 SLP101

CYYC;2007-07-28 22:00;CYYC 282200Z 07009KT 20SM FEW064 30/14 A2987 RMK CU1 SLP097

CYYC;2007-07-28 23:00;CYYC 282300Z 12007KT 20SM FEW072 30/11 A2985 RMK CU1 SLP093

CYYC;2007-07-29 00:00;CYYC 290000Z 10011KT 30SM FEW072 30/12 A2985 RMK CU1 SLP091

CYYC;2007-07-29 01:00;CYYC 290100Z 13008KT 30SM SKC 29/12 A2984 RMK SLP089

CYYC;2007-07-29 02:00;CYYC 290200Z 11007KT 30SM SKC 27/13 A2984 RMK SLP088

CYYC;2007-07-29 03:00;CYYC 290300Z 12006KT 20SM SKC 25/13 A2984 RMK SLP087

CYYC;2007-07-29 04:00;CYYC 290400Z 14003KT 15SM FEW055CB FEW085 25/13 A2985 RMK CB1AC1 CB DIST N SLP089

CYYC;2007-07-29 05:00;CYYC 290500Z 00000KT 15SM FEW055CB 22/13 A2985 RMK CB1 CB DIST N SLP088

CYYC;2007-07-29 06:00;CYYC 290600Z 02002KT 15SM SKC 21/13 A2984 RMK SLP086

CYYC;2007-07-29 07:00;CYYC 290700Z 31007KT 15SM SKC 16/13 A2985 RMK SLP087

CYYC;2007-07-29 08:00;CYYC 290800Z 32003KT 15SM SKC 16/12 A2985 RMK SLP087

CYYC;2007-07-29 09:00;CYYC 290900Z 32006KT 15SM SKC 18/11 A2984 RMK SLP084

CYYC;2007-07-29 10:00;CYYC 291000Z 32005KT 15SM SKC 14/11 A2985 RMK SLP086

CYYC;2007-07-29 11:00;CYYC 291100Z 33004KT 15SM SKC 15/10 A2985 RMK SLP087

CYYC;2007-07-29 12:00;CYYC 291200Z CCA 33005KT 25SM SKC 14/09 A2986 RMK SLP097

CYYC;2007-07-29 13:00;CYYC 291300Z 34006KT 25SM SKC 16/11 A2987 RMK SLP099

CYYC;2007-07-29 14:00;CYYC 291400Z 32005KT 20SM SKC 19/10 A2987 RMK SLP100

CYYC;2007-07-29 15:00;CYYC 291500Z 32006KT 25SM SKC 22/10 A2987 RMK SLP096

CYYC;2007-07-29 16:00;CYYC 291600Z 34006KT 30SM SKC 25/09 A2987 RMK SLP095

CYYC;2007-07-29 17:00;CYYC 291700Z 34003KT 30SM SKC 27/08 A2986 RMK SLP093

CYYC;2007-07-29 18:00;CYYC 291800Z 00000KT 30SM SKC 29/06 A2985 RMK SLP082

CYYC;2007-07-29 19:00;CYYC 291900Z 17006KT 30SM SKC 30/05 A2983 RMK SLP078

CYYC;2007-07-29 20:00;CYYC 292000Z 12008KT 30SM SKC 31/09 A2982 RMK SLP075

CYYC;2007-07-29 21:00;CYYC 292100Z 09004KT 30SM FEW090 31/07 A2981 RMK CU1 SLP072

CYYC;2007-07-29 22:00;CYYC 292200Z 14005KT 30SM FEW090 31/08 A2979 RMK CU1 SLP067

CYYC;2007-07-29 23:00;CYYC 292300Z 12007KT 30SM FEW090 32/08 A2978 RMK CU1 SLP063

CYYC;2007-07-30 00:00;CYYC 300000Z 07010KT 30SM FEW090 31/10 A2977 RMK CU1 SLP062

CYYC;2007-07-30 01:00;CYYC 300100Z 06008KT 40SM FEW090 FEW150 30/10 A2976 RMK CU1AC1 SLP059

CYYC;2007-07-30 02:00;CYYC 300200Z 06008KT 40SM FEW090 28/13 A2976 RMK CU1 SLP059

CYYC;2007-07-30 03:00;CYYC 300300Z CCA 08007KT 40SM FEW045CB FEW070 FEW260 24/13 A2976 RMK CB1CU1CI1 CB DIST N SLP057

CYYC;2007-07-30 04:00;CYYC 300400Z 35004KT 15SM FEW045CB FEW065 FEW140 24/14 A2977 RMK CB1CU1AC1 CB DIST N / ACSL WNW SLP060

CYYC;2007-07-30 05:00;CYYC 300500Z 35005KT 15SM FEW058 FEW140 21/13 A2977 RMK CU1AC1 ACSL NW SLP060

CYYC;2007-07-30 06:00;CYYC 300600Z 23004KT 15SM SKC 20/13 A2977 RMK SLP058

CYYC;2007-07-30 07:00;CYYC 300700Z 32005KT 15SM FEW270 18/12 A2978 RMK CI0 SLP060

CYYC;2007-07-30 08:00;CYYC 300800Z 32004KT 15SM SKC 17/10 A2978 RMK SLP061

CYYC;2007-07-30 09:00;CYYC 300900Z 30005KT 15SM FEW270 16/08 A2979 RMK CI0 SLP066

CYYC;2007-07-30 10:00;CYYC 301000Z 31004KT 15SM SKC 17/07 A2980 RMK SLP069

CYYC;2007-07-30 11:00;CYYC 301100Z 33004KT 15SM FEW260 14/07 A2982 RMK CI0 SLP076

CYYC;2007-07-30 12:00;CYYC 301200Z 33004KT 20SM FEW030 FEW230 FEW260 16/10 A2984 RMK CU1CI1CI1 SLP083

CYYC;2007-07-30 12:56;CYYC 301256Z 34016KT 20SM BKN014 17/ RMK SC5

CYYC;2007-07-30 13:00;CYYC 301300Z 34012G20KT 20SM BKN013 17/14 A2988 RMK SC5 SLP097

CYYC;2007-07-30 13:40;CYYC 301340Z 34021KT 20SM OVC009 17/ RMK SC7

CYYC;2007-07-30 14:00;CYYC 301400Z 34020G27KT 20SM OVC009 17/14 A2991 RMK SC7 SLP105

CYYC;2007-07-30 14:28;CYYC 301428Z 34012G24KT 20SM SCT012 18/ RMK SC2

CYYC;2007-07-30 15:00;CYYC 301500Z 35016G24KT 20SM BKN015 18/14 A2992 RMK SC2 SLP119

CYYC;2007-07-30 16:00;CYYC 301600Z 35016G22KT 20SM BKN020 18/13 A2993 RMK SC3 SLP123

CYYC;2007-07-30 17:00;CYYC 301700Z 35013G18KT 20SM FEW024 20/14 A2993 RMK CU2 SLP122

CYYC;2007-07-30 18:00;CYYC 301800Z 34011KT 20SM FEW032 21/14 A2992 RMK CU1 TCU W SLP120

CYYC;2007-07-30 19:00;CYYC 301900Z CCA 36011KT 20SM FEW032TCU FEW240 21/13 A2990 RMK TCU1CI0 TCU SW-NW SLP115

CYYC;2007-07-30 20:00;CYYC 302000Z 03009KT 20SM FEW032TCU FEW240 22/14 A2989 RMK TCU1CI1 TCU SW-NW / TCU TR SLP110

CYYC;2007-07-30 21:00;CYYC 302100Z 36007KT 20SM FEW034 23/14 A2987 RMK CU1 TCU ASOCTD SW-NW SLP106

CYYC;2007-07-30 22:00;CYYC 302200Z 05005KT 20SM FEW033 FEW210 24/15 A2987 RMK CU1CI1 TCU ASOCTD SW+NW SLP106

CYYC;2007-07-30 23:00;CYYC 302300Z 05007KT 20SM SCT033 SCT210 23/15 A2987 RMK CU2CI1 TCU ASOCTD W SLP105

CYYC;2007-07-31 00:00;CYYC 310000Z 05007KT 20SM SCT033CB SCT210 22/15 A2985 RMK CB4CI1 CB SW-NE / LTG W SLP102

CYYC;2007-07-31 00:10;CYYC 310010Z 04009KT 20SM -SHRA SCT033CB SCT210 21/ RMK CB4CI1

CYYC;2007-07-31 00:18;CYYC 310018Z 04011KT 20SM -TSRA SCT033CB SCT210 20/ RMK CB4CI1 LTGIC S

CYYC;2007-07-31 00:41;CYYC 310041Z 02009KT 20SM TS SCT033CB SCT210 21/ RMK CB4CI1 LTGICCG S

CYYC;2007-07-31 01:00;CYYC 310100Z 03009KT 20SM TS FEW033CB SCT210 22/18 A2986 RMK CB2CI0 LTGICCG SE SLP103

CYYC;2007-07-31 02:00;CYYC 310200Z 03011KT 15SM TS FEW035CB FEW180 SCT230 19/16 A2987 RMK CB2AC1CI1 CB N+E SLP106

CYYC;2007-07-31 03:00;CYYC 310300Z 03008KT 15SM TS FEW040CB SCT090 BKN240 17/15 A2989 RMK CB2AC1CI1 CB N+E SLP117

CYYC;2007-07-31 03:25;CYYC 310325Z 34006KT 15SM FEW045CB SCT100 BKN240 17/ RETS RMK CB2AC1CI1 CB NNE MOVING WNW

CYYC;2007-07-31 04:00;CYYC 310400Z 35011KT 15SM BKN051CB OVC080 17/15 A2992 RETS RMK CB6AC2 SLP126

CYYC;2007-07-31 05:00;CYYC 310500Z 35008KT 15SM FEW060CB SCT150 BKN250 16/15 A2993 RMK CB1AC2CI1 SLP130

CYYC;2007-07-31 06:00;CYYC 310600Z 35008KT 15SM BKN059 BKN120 16/14 A2994 RMK SC5AC2 SLP133

CYYC;2007-07-31 07:00;CYYC 310700Z 01008KT 15SM BKN036 BKN090 16/13 A2996 RMK SC5AC2 SLP138

CYYC;2007-07-31 08:00;CYYC 310800Z 36007KT 15SM OVC038 15/13 A2997 RMK SC8 SLP141

CYYC;2007-07-31 09:00;CYYC 310900Z 36012KT 15SM OVC036 15/13 A2997 RMK SC7 SLP142

CYYC;2007-07-31 10:00;CYYC 311000Z 02009KT 15SM OVC032 15/12 A2998 RMK SC8 SLP145

CYYC;2007-07-31 11:00;CYYC 311100Z 01007KT 15SM BKN046 14/11 A2997 RMK SC7 SLP143

CYYC;2007-07-31 12:00;CYYC 311200Z 34006KT 20SM FEW046 BKN060 13/11 A2997 RMK SC2SC6 SLP148

CYYC;2007-07-31 13:00;CYYC 311300Z 35004KT 25SM FEW046 FEW060 SCT095 BKN250 13/11 A2998 RMK SC2SC1AC2CI2 SLP149

CYYC;2007-07-31 14:00;CYYC 311400Z 35007KT 20SM FEW012 BKN036 BKN058 OVC180 14/11 A2999 RMK SC1SC6SC1AC1 SLP154

CYYC;2007-07-31 15:00;CYYC 311500Z 36007KT 20SM FEW012 SCT045 BKN060 BKN180 BKN240 15/11 A2999 RMK SC1SC4SC2AC1CI1 SLP157

CYYC;2007-07-31 16:00;CYYC 311600Z 01011KT 20SM FEW020 BKN039 BKN190 BKN240 16/12 A3000 RMK SC1SC6AC1CI0 SLP160

CYYC;2007-07-31 17:00;CYYC 311700Z 34016KT 20SM BKN015 BKN030 BKN190 12/08 A3002 RMK SC4SC2AC1 SLP166

CYYC;2007-07-31 18:00;CYYC 311800Z 02012G17KT 20SM FEW018 FEW030 BKN190 14/09 A3001 RMK CU1SC2AC0 SLP167

CYYC;2007-07-31 19:00;CYYC 311900Z 03011G16KT 20SM BKN018 BKN060 15/10 A3001 RMK SC5SC1 SLP165

CYYC;2007-07-31 20:00;CYYC 312000Z 01009KT 20SM BKN018 OVC030 15/10 A3001 RMK SC7SC1 SLP167

CYYC;2007-07-31 21:00;CYYC 312100Z 03003KT 20SM BKN028 16/10 A3001 RMK SC7 SLP165

CYYC;2007-07-31 22:00;CYYC 312200Z 05009KT 20SM BKN027 16/10 A3000 RMK SC7 SLP163

CYYC;2007-07-31 23:00;CYYC 312300Z 01008KT 20SM BKN030 16/10 A3002 RMK SC7 SLP168

CYYC;2007-08-01 01:00;CYYC 010100Z 01010KT 20SM BKN032 16/11 A3004 RMK SC6 SLP176

CYYC;2007-08-01 02:00;CYYC 010200Z 03009KT 15SM BKN041 16/10 A3009 RMK SC6 SH DIST SW SLP190

CYYC;2007-08-01 03:00;CYYC 010300Z 03007KT 15SM BKN046 15/09 A3012 RMK SC6 SH DIST SW SLP204

CYYC;2007-08-01 04:00;CYYC 010400Z 05002KT 15SM SCT050 BKN100 13/09 A3014 RMK SC3AC2 SLP212

CYYC;2007-08-01 05:00;CYYC 010500Z 00000KT 15SM BKN057 OVC100 14/09 A3016 RMK SC6AC1 SLP218

CYYC;2007-08-01 06:00;CYYC 010600Z 32003KT 15SM BKN060 OVC100 12/09 A3018 RMK SC6AC2 SLP230

CYYC;2007-08-01 07:00;CYYC 010700Z 01005KT 15SM SCT058 BKN100 11/09 A3019 RMK SC2AC2 SLP235

CYYC;2007-08-01 08:00;CYYC 010800Z 34005KT 15SM SCT060 BKN100 09/08 A3021 RMK SC2AC2 SLP241

CYYC;2007-08-01 09:00;CYYC 010900Z 32003KT 15SM OVC052 10/08 A3023 RMK SC7 SLP250

CYYC;2007-08-01 10:00;CYYC 011000Z 35003KT 15SM OVC061 10/08 A3025 RMK SC7 SLP255

CYYC;2007-08-01 11:00;CYYC 011100Z 33005KT 15SM SCT061 SCT100 09/07 A3025 RMK SC2AC1 SLP256

CYYC;2007-08-01 12:00;CYYC 011200Z 32006KT 20SM FEW060 SCT100 09/06 A3026 RMK SC2AC2 SLP259

CYYC;2007-08-01 13:00;CYYC 011300Z 32004KT 20SM FEW060 SCT100 SCT240 10/06 A3027 RMK SC2AC1CI0 SLP263

CYYC;2007-08-01 14:00;CYYC 011400Z 32003KT 20SM SCT050 12/07 A3028 RMK SC1 SLP266

CYYC;2007-08-01 15:00;CYYC 011500Z 33004KT 20SM FEW050 15/06 A3029 RMK SC0 SLP265

CYYC;2007-08-01 16:00;CYYC 011600Z 32003KT 20SM FEW050 FEW240 16/06 A3029 RMK SC1CI0 SLP264

CYYC;2007-08-01 17:00;CYYC 011700Z 27003KT 20SM FEW043 18/07 A3027 RMK SC1 SLP259

CYYC;2007-08-01 18:00;CYYC 011800Z 19004KT 20SM FEW047 19/07 A3026 RMK CU1 SLP254

CYYC;2007-08-01 19:00;CYYC 011900Z 20004KT 20SM FEW048 19/08 A3025 RMK CU1 SLP249

CYYC;2007-08-01 20:00;CYYC 012000Z 14004KT 20SM FEW051 20/07 A3024 RMK CU1 SLP247

CYYC;2007-08-01 21:00;CYYC 012100Z 16008KT 20SM FEW052 21/08 A3022 RMK CU1 SLP238

CYYC;2007-08-01 22:00;CYYC 012200Z 16004KT 20SM FEW057 21/07 A3020 RMK CU1 SLP232

CYYC;2007-08-01 23:00;CYYC 012300Z 10007KT 20SM FEW057 22/08 A3018 RMK CU1 SLP227

CYYC;2007-08-02 00:00;CYYC 020000Z 12009KT 20SM FEW055 22/08 A3017 RMK CU1 SLP220

CYYC;2007-08-02 01:00;CYYC 020100Z 12008KT 20SM FEW080 22/09 A3016 RMK AC1 SLP217

CYYC;2007-08-02 02:00;CYYC 020200Z 11009KT 20SM FEW080 20/09 A3015 RMK AC1 SLP214

CYYC;2007-08-02 03:00;CYYC 020300Z 10007KT 20SM FEW080 18/09 A3015 RMK AC1 SLP212

CYYC;2007-08-02 04:00;CYYC 020400Z 10008KT 15SM FEW250 16/10 A3016 RMK CI1 SLP216

CYYC;2007-08-02 05:00;CYYC 020500Z 10007KT 15SM FEW250 15/10 A3017 RMK CI1 SLP217

CYYC;2007-08-02 06:00;CYYC 020600Z 12007KT 15SM SKC 14/09 A3017 RMK SLP218

CYYC;2007-08-02 07:00;CYYC 020700Z 16007KT 15SM SKC 14/09 A3017 RMK SLP218

CYYC;2007-08-02 08:00;CYYC 020800Z 15005KT 15SM SKC 13/09 A3016 RMK SLP216

CYYC;2007-08-02 09:00;CYYC 020900Z 16007KT 15SM FEW250 13/09 A3015 RMK CI1 SLP211

CYYC;2007-08-02 10:00;CYYC 021000Z 15005KT 15SM FEW250 13/09 A3015 RMK CI1 SLP209

CYYC;2007-08-02 11:00;CYYC 021100Z 16005KT 15SM FEW250 11/08 A3014 RMK CI0 SLP206

CYYC;2007-08-02 12:00;CYYC 021200Z 14004KT 20SM SCT260 11/08 A3013 RMK CI1 SLP203

CYYC;2007-08-02 13:00;CYYC 021300Z 16003KT 20SM FEW260 12/08 A3012 RMK CI1 SLP201

CYYC;2007-08-02 14:00;CYYC 021400Z 20005KT 20SM BKN260 14/10 A3011 RMK CI1 SLP198

CYYC;2007-08-02 15:00;CYYC 021500Z 17006KT 20SM SCT260 17/09 A3010 RMK CI1 SLP191

CYYC;2007-08-02 16:00;CYYC 021600Z 18011KT 15SM FEW260 18/08 A3009 RMK CI0 SLP189

CYYC;2007-08-02 17:00;CYYC 021700Z 21009KT 15SM FEW260 20/09 A3007 RMK CI1 SLP184

CYYC;2007-08-02 18:00;CYYC 021800Z 14011KT 15SM SKC 23/11 A3006 RMK SLP174

CYYC;2007-08-02 19:00;CYYC 021900Z 17018KT 15SM FEW057 26/12 A3004 RMK CU1 SLP168

CYYC;2007-08-02 20:00;CYYC 022000Z 16015KT 15SM FEW065 28/12 A3003 RMK CU1 SLP164

CYYC;2007-08-02 21:00;CYYC 022100Z 14016G21KT 15SM FEW070 28/10 A3001 RMK CU1 SLP153

CYYC;2007-08-02 23:00;CYYC 022300Z 17011G16KT 15SM FEW085 29/08 A2999 RMK AC1 SLP124

CYYC;2007-08-03 00:00;CYYC 030000Z 13011KT 15SM FEW085 FEW210 28/09 A2997 RMK AC1CI1 SLP141

CYYC;2007-08-03 01:00;CYYC 030100Z 13010G15KT 15SM FEW210 27/09 A2996 RMK CI1 SLP136

CYYC;2007-08-03 02:00;CYYC 030200Z 11009KT 15SM FEW210 25/10 A2994 RMK CI1 SLP132

CYYC;2007-08-03 03:00;CYYC 030300Z 10007KT 15SM SKC 21/10 A2994 RMK SLP131

CYYC;2007-08-03 04:00;CYYC 030400Z 09006KT 15SM SKC 19/11 A2994 RMK SLP132

CYYC;2007-08-03 05:00;CYYC 030500Z 12005KT 15SM FEW130 20/11 A2993 RMK AC1 SLP128

CYYC;2007-08-03 06:00;CYYC 030600Z 12005KT 15SM FEW130 20/11 A2993 RMK AC1 SLP121

CYYC;2007-08-03 07:00;CYYC 030700Z 00000KT 15SM FEW130 18/10 A2991 RMK AC1 SLP115

CYYC;2007-08-03 08:00;CYYC 030800Z 10004KT 15SM SKC 15/10 A2988 RMK SLP107

CYYC;2007-08-03 09:00;CYYC 030900Z 03004KT 15SM SKC 12/10 A2986 RMK SLP101

CYYC;2007-08-03 10:00;CYYC 031000Z 25003KT 15SM SKC 12/09 A2985 RMK SLP098

CYYC;2007-08-03 11:00;CYYC 031100Z 33002KT 15SM SKC 10/08 A2984 RMK SLP095

CYYC;2007-08-03 12:00;CYYC 031200Z 00000KT 15SM SKC 12/09 A2983 RMK SLP092

CYYC;2007-08-03 13:00;CYYC 031300Z 22004KT 15SM FEW260 12/09 A2982 RMK CI0 SLP089

CYYC;2007-08-03 14:00;CYYC 031400Z 19006KT 8SM FEW060 16/10 A2982 RMK SC1 SLP088

CYYC;2007-08-03 15:00;CYYC 031500Z 20009KT 8SM FEW080 19/10 A2983 RMK AC1 SLP088

CYYC;2007-08-03 16:00;CYYC 031600Z 34011KT 10SM FEW041 FEW080 23/12 A2983 RMK CU1AC1 SLP090

CYYC;2007-08-03 17:00;CYYC 031700Z 36012KT 10SM FEW047 FEW090 24/12 A2984 RMK CU1AC1 SLP091

CYYC;2007-08-03 18:00;CYYC 031800Z 03008KT 15SM FEW056 FEW090 25/11 A2982 RMK CU1AC1 SLP082

CYYC;2007-08-03 19:00;CYYC 031900Z 04009KT 20SM FEW060 FEW100 27/12 A2980 RMK CU1AC1 SLP075

CYYC;2007-08-03 20:00;CYYC 032000Z 03010G15KT 20SM FEW060 FEW240 27/13 A2979 RMK CU1CI1 SLP073

CYYC;2007-08-03 21:00;CYYC 032100Z 05010KT 20SM FEW060 FEW140 FEW240 27/13 A2977 RMK CU1AC1CI0 SLP071

CYYC;2007-08-03 22:00;CYYC 032200Z 01012KT 20SM FEW120 FEW240 27/13 A2977 RMK AC1CI1 SLP069

CYYC;2007-08-03 23:00;CYYC 032300Z 03014KT 15SM FEW120 FEW240 27/13 A2976 RMK AC1CI1 SLP066

CYYC;2007-08-04 00:00;CYYC 040000Z 01016KT 15SM FEW100 FEW180 26/15 A2976 RMK AC1AC0 SLP069

CYYC;2007-08-04 01:00;CYYC 040100Z 36014G21KT 15SM FEW100 FEW180 FEW240 23/14 A2977 RMK AC2AC1CI1 SLP072

CYYC;2007-08-04 02:00;CYYC 040200Z 35010KT 15SM FEW060 FEW100 SCT250 20/14 A2978 RMK CU1AC2CI1 SLP076

CYYC;2007-08-04 03:00;CYYC 040300Z 35014KT 15SM FEW060TCU BKN110 BKN250 20/15 A2983 RMK TCU1AC2CI1 SLP091

CYYC;2007-08-04 03:55;CYYC 040355Z 34022G29KT 15SM TS SCT030CB OVC130 14/ RMK CB4AC3 LTGCC

CYYC;2007-08-04 04:00;CYYC 040400Z 34021G29KT 15SM TS SCT030CB OVC110 14/08 A2988 RMK CB4AC3 LTGCC E-SE SLP107

CYYC;2007-08-04 04:53;CYYC 040453Z 34016G24KT 15SM FEW080 BKN150 13/ RETS RMK AC1AC2

CYYC;2007-08-04 05:00;CYYC 040500Z 34016G21KT 15SM FEW080 BKN160 13/08 A2990 RETS RMK AC2AC3 SLP114

CYYC;2007-08-04 06:00;CYYC 040600Z 33002KT 15SM FEW080 BKN120 13/08 A2993 RMK AC2AC3 SLP128

CYYC;2007-08-04 07:00;CYYC 040700Z 31006KT 15SM FEW085 BKN120 12/08 A2993 RMK AC2AC2 SLP129

CYYC;2007-08-04 08:00;CYYC 040800Z 29006KT 15SM SCT085 BKN120 13/07 A2995 RMK AC3AC2 SLP133

CYYC;2007-08-04 09:00;CYYC 040900Z 30009KT 15SM FEW090 BKN120 12/06 A2994 RMK AC2AC2 SLP131

CYYC;2007-08-04 09:38;CYYC 040938Z 31007KT 12SM -SHRA FEW060 BKN085 OVC120 13/ RMK SC2AC2AC1

CYYC;2007-08-04 10:00;CYYC 041000Z 30006KT 12SM -SHRA FEW060 BKN083 OVC120 13/08 A2994 RMK SC2AC3AC1 SLP131

CYYC;2007-08-04 10:09;CYYC 041009Z 28010KT 15SM FEW060 BKN075 OVC120 13/ RMK SC1AC4AC2

CYYC;2007-08-04 11:00;CYYC 041100Z 34015G22KT 12SM -SHRA FEW060 OVC100 12/09 A2993 RMK SC2AC5 ACC ASOCTD SLP128

CYYC;2007-08-04 11:29;CYYC 041129Z 28004KT 15SM FEW060 FEW070 OVC100 11/ RMK SC1ACC1AC6

CYYC;2007-08-04 12:00;CYYC 041200Z 29002KT 15SM FEW060 FEW070 OVC096 12/09 A2995 RMK SC1ACC1AC6 ACC TR SLP134

CYYC;2007-08-04 13:00;CYYC 041300Z 25008KT 40SM FEW040 FEW100 11/09 A2995 RMK CU1AC1 CU TR SLP136

CYYC;2007-08-04 14:00;CYYC 041400Z 31007KT 40SM FEW020 FEW100 FEW270 13/09 A2996 RMK CU1AC1CI1 SLP137

CYYC;2007-08-04 15:00;CYYC 041500Z 31007KT 40SM FEW030 FEW100 FEW270 15/09 A2995 RMK CU1AC1CI1 SLP141

CYYC;2007-08-04 16:00;CYYC 041600Z 36003KT 40SM FEW030 FEW100 FEW160 FEW270 16/09 A2995 RMK CU1AC1AC1CI1 SLP141

CYYC;2007-08-04 17:00;CYYC 041700Z 05003KT 40SM FEW032 FEW100 FEW160 17/10 A2994 RMK CU1AC1AC1 SLP136

CYYC;2007-08-04 18:00;CYYC 041800Z 19004KT 40SM FEW038 FEW100 FEW180 19/09 A2993 RMK CU1AC1AC1 SLP135

CYYC;2007-08-04 19:00;CYYC 041900Z 20002KT 40SM FEW045 FEW100 FEW180 FEW250 21/09 A2992 RMK CU1AC1AC1CI1 SLP134

CYYC;2007-08-04 20:00;CYYC 042000Z 03009KT 40SM FEW045 FEW080 FEW180 FEW250 21/10 A2991 RMK CU1AC1AC1CI1 SLP130

CYYC;2007-08-04 21:00;CYYC 042100Z 01006KT 40SM FEW045 FEW080 FEW180 21/09 A2990 RMK CU1AC1AC1 SLP126

CYYC;2007-08-04 23:00;CYYC 042300Z CCA 04010G17KT 40SM BKN055 BKN080 BKN150 21/09 A2992 RMK CU5AC1AC1 TCU ASOCTD SLP131

CYYC;2007-08-05 00:00;CYYC 050000Z 02015KT 40SM FEW055 FEW080 FEW150 20/11 A2993 RMK CU2AC1AC1 TCU ASOCTD SLP136

CYYC;2007-08-05 01:00;CYYC 050100Z 36017KT 40SM FEW055TCU FEW080 19/09 A2995 RMK TCU1AC1 SH N SLP141

CYYC;2007-08-05 02:00;CYYC 050200Z 36011G18KT 40SM FEW055TCU SCT065 BKN090 17/09 A2996 RMK TCU1SC2AC1 VIRGA NE SLP145

CYYC;2007-08-05 03:00;CYYC 050300Z 36010KT 20SM SCT060 BKN083 OVC100 16/10 A2998 RMK SC3AC2AC1 VIRGA NE SLP154

CYYC;2007-08-05 03:06;CYYC 050306Z 01012KT 20SM -SHRA SCT060 OVC100 16/ RMK SC3AC3 TCU ASOCTD

CYYC;2007-08-05 03:29;CYYC 050329Z 34011KT 20SM FEW060 SCT080 BKN120 14/ RMK SC2ACC1AC3

CYYC;2007-08-05 04:00;CYYC 050400Z 35007KT 15SM SCT063 BKN100 14/11 A3002 RMK SC3AC3 SLP168

CYYC;2007-08-05 05:00;CYYC 050500Z 35010KT 15SM FEW060 SCT100 13/10 A3003 RMK SC2AC2 SLP170

CYYC;2007-08-05 06:00;CYYC 050600Z 32006KT 15SM BKN084 13/10 A3004 RMK AC7 SLP176

CYYC;2007-08-05 07:00;CYYC 050700Z 31007KT 15SM BKN085 13/10 A3006 RMK AC7 SLP182

CYYC;2007-08-05 08:00;CYYC 050800Z 29005KT 15SM FEW085 BKN190 13/09 A3007 RMK AC2AC2 SLP184

CYYC;2007-08-05 09:00;CYYC 050900Z 28003KT 15SM FEW085 BKN190 12/09 A3007 RMK AC2AC3 SLP185

CYYC;2007-08-05 10:00;CYYC 051000Z 34004KT 15SM FEW030 BKN190 11/09 A3006 RMK SC2AC2 SLP180

CYYC;2007-08-05 11:00;CYYC 051100Z 27003KT 15SM FEW030 BKN190 11/09 A3006 RMK SC2AC2 SLP179

CYYC;2007-08-05 12:00;CYYC 051200Z 32006KT 20SM SCT028 BKN190 10/09 A3005 RMK SC2AC2 SLP181

CYYC;2007-08-05 13:00;CYYC 051300Z 34004KT 25SM FEW040 BKN170 10/09 A3006 RMK SC1AC2 SLP183

CYYC;2007-08-05 14:00;CYYC 051400Z 00000KT 30SM FEW020 FEW090 FEW160 FEW260 12/10 A3006 RMK CU1AC1AC1CI1 SLP184

CYYC;2007-08-05 15:00;CYYC 051500Z 03002KT 30SM FEW020 FEW120 FEW160 15/11 A3006 RMK CU1AC1AC1 SLP182

CYYC;2007-08-05 16:00;CYYC 051600Z 05003KT 30SM FEW020 SCT075 BKN140 15/11 A3005 RMK CU1AC3AC1 SLP180

CYYC;2007-08-05 17:00;CYYC 051700Z 03003KT 30SM FEW024 FEW080 FEW140 17/11 A3004 RMK CU2AC1AC1 SLP177

CYYC;2007-08-05 18:00;CYYC 051800Z CCA 00000KT 30SM SCT033 SCT080 19/10 A3003 RMK CU3AC1 TCU ASOCTD SLP170

CYYC;2007-08-05 19:00;CYYC 051900Z 10004KT 30SM SCT036 SCT090 19/10 A3000 RMK CU3AC1 SLP163

CYYC;2007-08-05 20:00;CYYC 052000Z 07004KT 25SM SCT040 SCT070 20/10 A2997 RMK CU3AC1 SLP153

CYYC;2007-08-05 21:00;CYYC 052100Z 11003KT 25SM BKN048 BKN070 BKN160 20/09 A2996 RMK CU6AC1AC1 SH DIST SW-NW / CB EMBD SLP147

CYYC;2007-08-05 22:00;CYYC 052200Z 19005KT 25SM BKN050TCU BKN120 20/10 A2995 RMK TCU5AC2 SH SW-NW / CB ASOCTD SLP143

CYYC;2007-08-05 22:22;CYYC 052222Z 22007KT 25SM -SHRA BKN050TCU BKN070 BKN120 19/ RMK TCU5AC1AC2 CB SW-NW

CYYC;2007-08-05 23:00;CYYC 052300Z 36002KT 20SM -SHRA BKN050TCU BKN085 BKN120 17/13 A2992 RMK TCU5AC2AC1 CB EMBD SLP133

CYYC;2007-08-05 23:18;CYYC 052318Z 13007KT 20SM FEW050TCU SCT080 BKN094 18/ RMK TCU2AC2AC2 SH ALQDS / CB EMBD

CYYC;2007-08-06 00:00;CYYC 060000Z 20009KT 30SM FEW050CB SCT080 SCT100 BKN160 19/12 A2991 RMK CB2AC1AC1AC2 SH NE-SW SLP132

CYYC;2007-08-06 01:00;CYYC 060100Z 18009KT 30SM FEW050CB FEW100 SCT190 20/10 A2989 RMK CB2AC1AC1 SH E-S SLP127

CYYC;2007-08-06 02:00;CYYC 060200Z 25006KT 30SM FEW050CB BKN120 BKN220 18/11 A2990 RMK CB1AC4CI0 SLP130

CYYC;2007-08-06 03:00;CYYC 060300Z 25007KT 30SM FEW060 SCT120 BKN230 16/10 A2991 RMK SC2AC2CI1 SLP131

CYYC;2007-08-06 04:00;CYYC 060400Z 19006KT 15SM TS SCT070CB OVC097 16/10 A2993 RMK CB3AC2 LTGCG S SLP137

CYYC;2007-08-06 04:22;CYYC 060422Z 23007KT 15SM -TSRA FEW050CB BKN110 OVC240 16/ RMK CB2AC3CI2 LTGCG SE

CYYC;2007-08-06 05:00;CYYC 060500Z 16006KT 10SM -TSRA FEW050CB BKN078 OVC096 15/10 A2991 RMK CB2AC4AC2 SLP130

CYYC;2007-08-06 05:40;CYYC 060540Z 29010KT 15SM FEW055CB BKN078 OVC092 14/ RETS RMK CB2AC2AC3 LTGIC S

CYYC;2007-08-06 06:00;CYYC 060600Z 32008KT 15SM FEW080 BKN140 14/11 A2990 RETS RMK AC2AC2 SLP124

CYYC;2007-08-06 07:00;CYYC 060700Z 34005KT 15SM BKN120 OVC230 12/10 A2991 RMK AC5CI2 SLP128

CYYC;2007-08-06 08:00;CYYC 060800Z 30003KT 15SM SCT120 OVC220 12/10 A2992 RMK AC3CI2 SLP130

CYYC;2007-08-06 09:00;CYYC 060900Z 02004KT 15SM FEW140 SCT230 11/09 A2989 RMK AC1CI2 SLP124

CYYC;2007-08-06 10:00;CYYC 061000Z 32006KT 15SM SCT240 10/09 A2989 RMK CI2 SLP123

CYYC;2007-08-06 11:00;CYYC 061100Z 30003KT 15SM SCT240 09/08 A2988 RMK CI2 SLP119

CYYC;2007-08-06 12:00;CYYC 061200Z 32009KT 20SM FEW160 SCT240 09/07 A2987 RMK AC1CI2 SLP123

CYYC;2007-08-06 13:00;CYYC 061300Z 32004KT 20SM FEW085 FEW160 09/08 A2988 RMK AC1AC1 SLP126

CYYC;2007-08-06 14:00;CYYC 061400Z 00000KT 30SM FEW090 FEW160 12/09 A2988 RMK AC1AC1 SLP124

CYYC;2007-08-06 15:00;CYYC 061500Z 33002KT 30SM FEW090 FEW160 FEW240 15/10 A2988 RMK AC1AC1CI0 LWR AC TR SLP121

CYYC;2007-08-06 16:00;CYYC 061600Z 32002KT 30SM FEW040 FEW085 FEW160 FEW240 16/09 A2987 RMK SC1AC1AC1CI0 SLP118

CYYC;2007-08-06 17:00;CYYC 061700Z 24003KT 30SM FEW030 FEW085 FEW240 18/10 A2986 RMK CU1AC1CI0 SLP115

CYYC;2007-08-06 18:00;CYYC 061800Z 16003KT 30SM FEW037 FEW085 FEW210 19/10 A2985 RMK CU1AC1CI0 CU TR SLP106

CYYC;2007-08-06 19:00;CYYC 061900Z 21003KT 30SM FEW040 BKN092 BKN210 20/10 A2983 RMK CU1AC5CI1 CVCTV CLD DVLPG SW-NW SLP102

CYYC;2007-08-06 20:00;CYYC 062000Z 20003KT 20SM FEW048TCU SCT095 22/10 A2982 RMK TCU1AC2 TCU SW-NW SLP097

CYYC;2007-08-06 21:00;CYYC 062100Z 00000KT 20SM FEW052TCU FEW095 22/09 A2980 RMK TCU1AC0 CB ASOCTD DIST S SLP091

CYYC;2007-08-06 22:00;CYYC 062200Z 13004KT 30SM FEW064 FEW095 23/09 A2978 RMK CU1AC1 CB ASOCTD DIST S / TCU SW SLP084

CYYC;2007-08-06 23:00;CYYC 062300Z 16005KT 30SM FEW064 FEW095 24/10 A2976 RMK CU1AC1 SLP078

CYYC;2007-08-07 00:00;CYYC 070000Z 18006KT 30SM FEW064 FEW095 24/10 A2975 RMK CU1AC1 SLP073

CYYC;2007-08-07 01:00;CYYC 070100Z 15010G15KT 30SM FEW060 FEW095 23/11 A2973 RMK CU1AC1 SLP068

CYYC;2007-08-07 02:00;CYYC 070200Z 18010KT 30SM FEW050 FEW100 FEW250 22/11 A2973 RMK CU1AC1CI1 SLP066

CYYC;2007-08-07 03:00;CYYC 070300Z 17008KT 30SM FEW100 21/11 A2973 RMK AC1 SLP063

CYYC;2007-08-07 04:00;CYYC 070400Z 18008KT 15SM FEW100 20/12 A2974 RMK AC1 SLP065

CYYC;2007-08-07 05:00;CYYC 070500Z 21005KT 15SM FEW100 17/12 A2974 RMK AC1 SLP065

CYYC;2007-08-07 06:00;CYYC 070600Z 19004KT 15SM SKC 16/12 A2973 RMK SLP064

CYYC;2007-08-07 07:00;CYYC 070700Z 21005KT 15SM SKC 15/11 A2972 RMK SLP060

CYYC;2007-08-07 08:00;CYYC 070800Z 21004KT 15SM SKC 13/08 A2971 RMK AURBO SLP056

CYYC;2007-08-07 09:00;CYYC 070900Z CCA 19004KT 15SM SKC 13/07 A2970 RMK AURBO SLP052

CYYC;2007-08-07 10:00;CYYC 071000Z 18004KT 15SM SKC 11/06 A2969 RMK SLP049

CYYC;2007-08-07 11:00;CYYC 071100Z 18005KT 15SM SKC 11/05 A2967 RMK SLP043

CYYC;2007-08-07 12:00;CYYC 071200Z 19006KT 30SM FEW100 11/05 A2967 RMK AC1 ACC ASOCTD SW SLP041

CYYC;2007-08-07 13:00;CYYC 071300Z 20008KT 40SM FEW100 FEW250 13/06 A2966 RMK AC1CI1 ACC ASOCTD SW SLP039

CYYC;2007-08-07 14:00;CYYC 071400Z 22006KT 40SM FEW090 16/07 A2965 RMK AC1 SLP036

CYYC;2007-08-07 15:00;CYYC 071500Z 20006KT 40SM FEW090 20/08 A2964 RMK AC1 SLP025

CYYC;2007-08-07 16:00;CYYC 071600Z 27010KT 40SM FEW085 FEW150 24/08 A2964 RMK AC1AC1 SLP023

CYYC;2007-08-07 17:00;CYYC 071700Z 27012KT 40SM FEW085 FEW150 26/08 A2963 RMK AC1AC1 SLP020

CYYC;2007-08-07 18:00;CYYC 071800Z 30006KT 40SM FEW080 FEW150 26/07 A2962 RMK CU1AC1 AC LYR TR SLP014

CYYC;2007-08-07 19:00;CYYC 071900Z 27009G16KT 40SM FEW090 FEW150 SCT260 27/08 A2961 RMK AC2AC1CI0 SLP011

CYYC;2007-08-07 20:00;CYYC 072000Z 32008G20KT 40SM BKN089 BKN150 BKN240 27/07 A2960 RMK AC5AC1CI2 SLP010

CYYC;2007-08-07 21:00;CYYC 072100Z 31008KT 40SM SCT090 BKN140 BKN240 28/07 A2959 RMK AC4AC2CI1 SLP008

CYYC;2007-08-07 22:00;CYYC 072200Z 28009KT 40SM SCT090 BKN120 BKN240 28/07 A2959 RMK AC3AC3CI1 SH N SLP007

CYYC;2007-08-07 23:00;CYYC 072300Z 32012G17KT 40SM SCT095 BKN120 BKN240 27/07 A2960 RMK AC4AC2CI1 VIRGA SLP009

CYYC;2007-08-08 00:00;CYYC 080000Z 28013G19KT 30SM FEW095 BKN110 BKN240 27/06 A2960 RMK AC2AC2CI0 SH NW-N+NE-SE / CVCTV CLD EMBD SLP012

CYYC;2007-08-08 01:00;CYYC 080100Z 28009KT 30SM FEW095 BKN110 BKN240 26/07 A2962 RMK AC2AC3CI0 CB EMBD NE / LTGCG NE / SH NW-SE SLP018

CYYC;2007-08-08 02:00;CYYC 080200Z 34011KT 30SM SCT100 18/12 A2966 RMK AC3 CB EMBD NE/ SH NE+SE/VIRGA W-NW SLP031

CYYC;2007-08-08 03:00;CYYC 080300Z 36007KT 30SM BKN120 18/13 A2967 RMK AC6 CB EMBD NE/ SH NE/VIRGA NE SLP039

CYYC;2007-08-08 04:00;CYYC 080400Z 35004KT 15SM BKN120 17/13 A2969 RMK AC6 SLP046

CYYC;2007-08-08 05:00;CYYC 080500Z 34004KT 15SM OVC100 17/13 A2971 RMK AC7 SLP051

CYYC;2007-08-08 06:00;CYYC 080600Z 00000KT 15SM BKN100 17/12 A2972 RMK AC4 VIRGA S SLP050

CYYC;2007-08-08 07:00;CYYC 080700Z 00000KT 15SM BKN100 16/12 A2973 RMK AC4 SLP052

CYYC;2007-08-08 08:00;CYYC 080800Z 04008KT 15SM OVC100 15/12 A2974 RMK AC7 SLP056

CYYC;2007-08-08 09:00;CYYC 080900Z 05002KT 10SM OVC100 14/12 A2976 RMK AC8 SLP064

CYYC;2007-08-08 09:33;CYYC 080933Z CCA 32006KT 10SM -SHRA OVC080 15/ RMK AC8

CYYC;2007-08-08 10:00;CYYC 081000Z 36009KT 15SM BKN080 14/13 A2977 RMK AC6 SLP069

CYYC;2007-08-08 11:00;CYYC 081100Z 07006KT 15SM FEW100 13/12 A2977 RMK AC2 SLP068

CYYC;2007-08-08 12:00;CYYC 081200Z 34006KT 15SM FEW015 BKN090 13/12 A2980 RMK ST1AC6 SLP080

CYYC;2007-08-08 13:00;CYYC 081300Z 35010KT 20SM FEW025 BKN040 OVC090 13/12 A2983 RMK CF1SC6AC1 CF TR SLP088

CYYC;2007-08-08 14:00;CYYC 081400Z 02009G15KT 20SM SCT010 BKN021 BKN038 OVC090 13/12 A2985 RMK SC1SC3SC3AC1 SLP094

CYYC;2007-08-08 14:04;CYYC 081404Z 02011KT 20SM BKN007 BKN020 BKN038 OVC090 13/ RMK SC2SC3SC2AC1

CYYC;2007-08-08 14:49;CYYC 081449Z 36005KT 15SM -SHRA SCT007 BKN028 OVC038 13/ RMK SC2SC5SC2

CYYC;2007-08-08 14:56;CYYC 081456Z 32011KT 5SM +SHRA BKN008 BKN028 OVC038 13/ RMK SC6SC1SC1 VIS W 11/2

CYYC;2007-08-08 15:00;CYYC 081500Z CCA 32014KT 5SM +SHRA BKN008 BKN028 OVC038 12/12 A2987 RMK SC6SC1SC1 VIS NW-NE 11/2 / PRESRR SLP119

CYYC;2007-08-08 15:14;CYYC 081514Z 36012KT 5SM SHRA SCT008 OVC032 12/ RERA RMK SC2SC6

CYYC;2007-08-08 16:00;CYYC 081600Z 03007KT 10SM -SHRA FEW008 BKN032 OVC048 12/12 A2987 RERA RMK SC1SC3SC4 SLP119

CYYC;2007-08-08 16:42;CYYC 081642Z 02005KT 10SM SCT008 BKN032 OVC052 13/ RMK SC2SC1SC4

CYYC;2007-08-08 17:00;CYYC 081700Z 01006KT 15SM SCT008 BKN033 OVC045 13/12 A2989 RMK SC2SC3SC2 SLP125

CYYC;2007-08-08 17:34;CYYC 081734Z 36004KT 15SM BKN010 BKN033 OVC045 13/ RMK SC6SC2SC1

CYYC;2007-08-08 17:37;CYYC 081737Z 36004KT 15SM -SHRA BKN010 BKN033 OVC045 13/ RMK SC6SC2SC1

CYYC;2007-08-08 18:00;CYYC 081800Z 02007KT 6SM -SHRA SCT010 OVC033 12/12 A2990 RMK SC3SC5 SLP130

CYYC;2007-08-08 18:36;CYYC 081836Z CCA 04007KT 15SM SCT007 BKN033 BKN082 13/ RMK SC2SC3AC2

CYYC;2007-08-08 19:00;CYYC 081900Z 06004KT 20SM SCT007 BKN041 OVC082 14/13 A2991 RMK SC2SC4AC2 SLP132

CYYC;2007-08-08 20:00;CYYC 082000Z 03005KT 20SM SCT009 BKN041 OVC082 14/12 A2991 RMK SC3SC4AC1 SLP134

CYYC;2007-08-08 20:45;CYYC 082045Z 05005KT 20SM BKN014 OVC041 14/ RMK SC6SC2

CYYC;2007-08-08 21:00;CYYC 082100Z 05009KT 20SM BKN014 OVC040 14/13 A2990 RMK SC6SC2 SLP132

CYYC;2007-08-08 22:00;CYYC 082200Z 06007KT 20SM BKN018 OVC035 14/12 A2991 RMK SC7SC1 SLP136

CYYC;2007-08-08 23:00;CYYC 082300Z 08007KT 20SM BKN018 OVC035 14/12 A2992 RMK SC7SC1 SLP137

CYYC;2007-08-09 00:00;CYYC 090000Z 06007KT 20SM FEW014 BKN020 OVC040 14/12 A2992 RMK SC2SC3SC3 SLP141

CYYC;2007-08-09 01:00;CYYC 090100Z 05008KT 20SM FEW014 FEW020 OVC036 14/12 A2992 RMK SC1SC1SC7 SLP140

CYYC;2007-08-09 01:11;CYYC 090111Z 04007KT 20SM -SHRA FEW014 FEW020 OVC036 14/ RMK SC1SC1SC7

CYYC;2007-08-09 02:00;CYYC 090200Z 01011KT 8SM VCSH BKN006 OVC014 13/12 A2992 RMK SC6SC2 SH N-E-S SLP141

CYYC;2007-08-09 02:16;CYYC 090216Z 03012KT 10SM -SHRA BKN013 OVC019 12/ RMK SC5SC3

CYYC;2007-08-09 03:00;CYYC 090300Z 04007KT 7SM -SHRA FEW004 BKN020 OVC044 12/12 A2994 RMK SF1SC5SC2 BR SLP150

CYYC;2007-08-09 04:00;CYYC 090400Z 02010KT 10SM -RA BKN004 OVC012 12/12 A2996 RMK SC7SC1 SLP156

CYYC;2007-08-09 05:00;CYYC 090500Z 03009KT 10SM -RA FEW008 BKN027 OVC042 11/11 A2996 RMK SC2SC4SC2 RA VRY LGT SLP156

CYYC;2007-08-09 06:00;CYYC 090600Z 36010G15KT 4SM -RA FEW005 OVC012 11/11 A2999 RMK SF2SC6 SLP170

CYYC;2007-08-09 06:47;CYYC 090647Z 01008KT 8SM SCT004 BKN012 OVC052 11/ RMK SF3SC4SC1

CYYC;2007-08-09 07:00;CYYC 090700Z 02010KT 10SM BKN006 BKN012 OVC052 10/10 A2999 RMK SC6SC2SC1 SLP169

CYYC;2007-08-09 07:23;CYYC 090723Z 03009KT 5SM -RA BKN004 OVC010 10/ RMK SC6SC2

CYYC;2007-08-09 08:00;CYYC 090800Z 35012KT 8SM -RA BKN006 OVC012 10/10 A3000 RMK SC6SC2 SLP173

CYYC;2007-08-09 09:00;CYYC 090900Z 36007KT 5SM -RA OVC004 09/09 A3001 RMK SC8 SLP174

CYYC;2007-08-09 10:00;CYYC 091000Z 35010KT 5SM -RA OVC004 09/09 A3002 RMK SC8 SLP177

CYYC;2007-08-09 11:00;CYYC 091100Z 35008KT 5SM -RA OVC006 09/09 A3002 RMK SC8 SLP179

CYYC;2007-08-09 11:48;CYYC 091148Z 03006KT 5SM -RA OVC010 09/ RMK SC8 RA VRY LGT

CYYC;2007-08-09 11:54;CYYC 091154Z 01005KT 5SM -RA OVC005 09/ RMK SC8

CYYC;2007-08-09 12:00;CYYC 091200Z 01007KT 6SM -RA OVC005 09/09 A3003 RMK SC8 SLP182

CYYC;2007-08-09 13:00;CYYC 091300Z 36007KT 7SM -RA OVC009 09/09 A3004 RMK SC8 RAG CIG SLP187

CYYC;2007-08-09 14:00;CYYC 091400Z 34007KT 15SM FEW005 OVC007 09/09 A3005 RMK SC1SC7 SLP188

CYYC;2007-08-09 15:00;CYYC 091500Z 36010KT 15SM FEW007 OVC009 10/09 A3006 RMK SC1SC7 SLP196

CYYC;2007-08-09 16:00;CYYC 091600Z 36009KT 15SM SCT006 OVC019 10/10 A3007 RMK SC4SC4 SLP199

CYYC;2007-08-09 16:44;CYYC 091644Z CCB 01008KT 15SM BKN006 OVC013 10/ RMK SC6SC2 BRK OUT OF LO CLDS 1000FT

CYYC;2007-08-09 17:00;CYYC 091700Z 02008KT 15SM FEW005 BKN013 BKN022 OVC036 10/10 A3008 RMK SC2SC3SC2SC1 SLP203

CYYC;2007-08-09 17:30;CYYC 091730Z 04010KT 15SM -RA FEW007 BKN013 OVC019 10/ RMK SC2SC5SC2 PCPN VRY LGT

CYYC;2007-08-09 18:00;CYYC 091800Z 03006KT 10SM -RA FEW006 SCT013 OVC016 10/10 A3009 RMK SC1SC4SC4 LO SC TR/BRK CLDS 2000 FT SLP206

CYYC;2007-08-09 18:44;CYYC 091844Z 01011KT 15SM OVC007 10/ RMK SC8 BRK CLDS 1500 FT

CYYC;2007-08-09 19:00;CYYC 091900Z 01009KT 20SM SCT007 OVC015 10/10 A3008 RMK SC4SC4 LO CLD OVR RWY SLP205

CYYC;2007-08-09 20:00;CYYC 092000Z 04008KT 20SM BKN011 OVC015 11/09 A3009 RMK SC5SC3 SLP207

CYYC;2007-08-09 21:00;CYYC 092100Z 07007KT 20SM OVC012 11/09 A3008 RMK SC8 CLR CLDS 1900 FT SLP205

CYYC;2007-08-09 21:41;CYYC 092141Z 06007KT 20SM FEW012 SCT021 OVC028 12/ RMK SC2SC2SC4

CYYC;2007-08-09 22:00;CYYC 092200Z 04006KT 20SM FEW012 FEW016 BKN020 OVC028 12/09 A3009 RMK SC1SC1SC5SC2 CF ASOCTD SLP207

CYYC;2007-08-09 23:00;CYYC 092300Z 09011KT 20SM FEW012 OVC022 12/10 A3008 RMK SC2SC6 CF ASOCTD SLP205

CYYC;2007-08-10 00:00;CYYC 100000Z 09007KT 20SM FEW012 BKN017 OVC025 11/09 A3008 RMK SC2SC4SC2 SLP205

CYYC;2007-08-10 00:31;CYYC 100031Z 09004KT 15SM -RA FEW012 OVC020 11/ RMK SC2SC6 PCPN VRY LGT

CYYC;2007-08-10 01:00;CYYC 100100Z CCA 08007KT 15SM -RA OVC009 11/10 A3008 RMK SC8 VIS E 5 SLP205

CYYC;2007-08-10 01:08;CYYC 100108Z CCA 08005KT 3SM -RA SCT009 OVC017 11/ RMK SC3SC5 VIS N 10

CYYC;2007-08-10 02:00;CYYC 100200Z 09006KT 7SM -RA FEW010 OVC025 11/10 A3007 RMK SC2SC6 RAG CIG SLP201

CYYC;2007-08-10 03:00;CYYC 100300Z 10005KT 8SM -RA OVC021 10/10 A3006 RMK SC8 RAG CIG/ RA VRY LGT SLP200

CYYC;2007-08-10 04:00;CYYC 100400Z 10007KT 6SM -RA BR OVC022 10/10 A3007 RMK SC8 SLP201

CYYC;2007-08-10 05:00;CYYC 100500Z 09005KT 3SM -RA BR BKN012 OVC022 10/10 A3007 RMK SC6SC2 SLP202

CYYC;2007-08-10 06:00;CYYC 100600Z 10004KT 3SM -RA BR FEW005 OVC010 10/10 A3006 RMK SC2SC6 SLP199

CYYC;2007-08-10 06:36;CYYC 100636Z 09004KT 3SM -RA BR BKN006 OVC010 10/ RMK SC7SC1

CYYC;2007-08-10 07:00;CYYC 100700Z 07004KT 3SM -RA BR BKN005 OVC014 10/10 A3005 RMK SC6SC2 SLP194

CYYC;2007-08-10 08:00;CYYC 100800Z 07006KT 3SM -RA BR BKN005 OVC012 10/10 A3003 RMK SC6SC2 SLP189

CYYC;2007-08-10 09:00;CYYC 100900Z 09007KT 4SM -RA BR FEW012 OVC018 10/10 A3001 RMK SC2SC6 SLP180

CYYC;2007-08-10 10:00;CYYC 101000Z 09007KT 4SM -RA BR FEW005 OVC012 10/10 A2999 RMK SC2SC6 SLP174

CYYC;2007-08-10 11:00;CYYC 101100Z 10010KT 7SM -RA FEW005 BKN012 OVC018 10/10 A2997 RMK SF2SC4SC2 SLP166

CYYC;2007-08-10 11:20;CYYC 101120Z 11009KT 9SM FEW007 OVC016 10/ RMK SF2SC6

CYYC;2007-08-10 12:00;CYYC 101200Z 11009KT 9SM FEW008 OVC015 10/10 A2996 RMK SF2SC6 SLP163

CYYC;2007-08-10 12:28;CYYC 101228Z 09008KT 10SM OVC006 10/ RMK SC8

CYYC;2007-08-10 13:00;CYYC 101300Z 11010KT 5SM BR OVC005 10/10 A2995 RMK ST8 CIG 300 FT EAST SLP160

CYYC;2007-08-10 13:12;CYYC 101312Z 11007KT 3SM BR OVC004 10/ RMK ST8

CYYC;2007-08-10 13:42;CYYC 101342Z 10008KT 2 1/2SM BR OVC004 10/ RMK ST8

CYYC;2007-08-10 13:44;CYYC 101344Z CCA 11008KT 2 1/2SM -DZ BR OVC004 10/ RMK ST8 VIS E 3/4

CYYC;2007-08-10 14:00;CYYC 101400Z 12008KT 2 1/2SM -DZ BR OVC003 10/10 A2993 RMK SC8 VIS E 1 SLP153

CYYC;2007-08-10 14:02;CYYC 101402Z 11008KT 2SM -DZ BR OVC002 10/ RMK ST8 VIS E 1

CYYC;2007-08-10 15:00;CYYC 101500Z 00000KT 1 1/4SM -RA BR SCT002 OVC005 10/10 A2994 RMK ST4SC4 RAG CIG SLP157

CYYC;2007-08-10 15:36;CYYC 101536Z 32006KT 1 3/4SM -RA BR FEW001 SCT003 OVC010 10/ RMK ST1ST3SC4 RAG CIG/BRK CLDS 1700 FT

CYYC;2007-08-10 15:48;CYYC 101548Z 34007KT 5SM -RA BR SCT002 BKN010 OVC020 10/ RMK ST4SC2SC2 PCPN VRY LGT/RAG CIG

CYYC;2007-08-10 16:00;CYYC 101600Z 02009KT 10SM -RA FEW002 SCT008 BKN011 BKN020 OVC028 10/10 A2993 RMK SF2ST2SC2SC1SC1 RAG CIG/PCPN VRY LGT SLP153

CYYC;2007-08-10 16:15;CYYC 101615Z 03006KT 10SM -RA FEW007 BKN028 OVC041 10/ RMK SF2SC3SC2 PCPN VRY LGT

CYYC;2007-08-10 16:50;CYYC 101650Z 35005KT 10SM -RA SCT004 BKN011 BKN080 OVC100 11/ RMK ST4SC2AC1AC1 PCPN VRY LGT

CYYC;2007-08-10 17:00;CYYC 101700Z 30011KT 20SM BKN004 BKN011 OVC020 10/10 A2993 RMK ST6SC2SC1 INTMT -RA SLP154

CYYC;2007-08-10 17:05;CYYC 101705Z 30010KT 20SM SCT005 BKN011 10/ RMK ST3SC4 CLR CLDS 2100 FT

CYYC;2007-08-10 17:14;CYYC 101714Z 31012KT 15SM -RA FEW005 SCT011 OVC019 11/ RMK ST2SC2SC4 PCPN VRY LGT

CYYC;2007-08-10 17:38;CYYC 101738Z 30016KT 15SM -RA OVC007 10/ RMK SC8 PCPN VRY LGT

CYYC;2007-08-10 18:00;CYYC 101800Z 31014KT 20SM -RA SCT006 BKN011 BKN028 OVC048 09/09 A2996 RMK SC3SC3SC1SC1 PCPN VRY LGT SLP165

CYYC;2007-08-10 18:25;CYYC 101825Z 33011G16KT 15SM -RA FEW009 FEW021 BKN032 BKN048 10/ RMK SC2SC1SC2SC2 SF ASOCTD

CYYC;2007-08-10 19:00;CYYC 101900Z 36013KT 20SM FEW007 BKN050 BKN070 10/10 A2994 RMK SC2SC5AC1 CF ASOCTD SLP158

CYYC;2007-08-10 19:12;CYYC 101912Z 34013KT 20SM -RA BKN007 BKN070 11/ RMK SC6AC2 PCPN VRY LGT

CYYC;2007-08-10 20:00;CYYC 102000Z 36014KT 15SM -RA SCT009 SCT014 OVC020 10/09 A2995 RMK SC3SC1SC4 SLP162

CYYC;2007-08-10 20:34;CYYC 102034Z CCA 36009KT 20SM FEW007 OVC012 09/ RMK SC2SC6 INTMT -RA

CYYC;2007-08-10 20:53;CYYC 102053Z 03013KT 20SM -RA FEW009 OVC011 10/ RMK SC2SC6 PCPN VRY LGT

CYYC;2007-08-10 21:00;CYYC 102100Z 02014G19KT 20SM -RA FEW009 BKN011 OVC025 10/09 A2997 RMK SC2SC6SC1 INTMT -RA SLP168

CYYC;2007-08-10 21:12;CYYC 102112Z 36010KT 20SM OVC009 10/ RMK SC8 RAG CIG/ CLR CLDS 2800 FT

CYYC;2007-08-10 22:00;CYYC 102200Z 35010KT 20SM FEW011 OVC021 10/08 A2999 RMK SC2SC6 SLP174

CYYC;2007-08-10 23:00;CYYC 102300Z 36007KT 20SM FEW014 OVC021 10/08 A3001 RMK SC1SC8 RAG CIG/LO SC TR SLP180

CYYC;2007-08-10 23:53;CYYC 102353Z 33009G15KT 20SM -SHRA OVC030 11/ RMK SC8 PCPN VRY LGT/CB EMBD/CF ASOCTD

CYYC;2007-08-11 00:00;CYYC 110000Z 33012KT 20SM -SHRA OVC030 11/08 A3003 RMK SC8 PCPN VRY LGT/CB EMBD/CF ASOCTD SLP187

CYYC;2007-08-11 00:17;CYYC 110017Z 33011KT 20SM FEW020 BKN030 OVC050 10/ RMK SC1SC6SC2 LO SC TR/CB EMBD

CYYC;2007-08-11 00:20;CYYC 110020Z 33011KT 20SM -SHRA FEW020 BKN030 OVC050 10/ RMK SC1SC6SC2 PCPN VRY LGT/LO SC TR/CB EMBD

CYYC;2007-08-11 00:41;CYYC 110041Z 36009KT 20SM BKN017 BKN052 10/ RMK SC5SC2 OCNL -SHRA/CB EMBD/CF ASOCTD

CYYC;2007-08-11 01:00;CYYC 110100Z 35008KT 20SM FEW017 SCT021 BKN030 OVC044 10/08 A3005 RMK SC2SC2SC2SC2 VIRGA OVR RWY + S/CB EMBD/CF ASOCTD SLP193

CYYC;2007-08-11 02:00;CYYC 110200Z 35008KT 20SM FEW020 SCT048 BKN092 BKN220 10/07 A3006 RMK SC1SC2AC2CI1 SLP197

CYYC;2007-08-11 03:00;CYYC 110300Z 32006KT 20SM FEW016 SCT052 BKN072 BKN220 10/08 A3008 RMK SF1SC2AC2CI1 SLP206

CYYC;2007-08-11 04:00;CYYC 110400Z 35006KT 20SM FEW012 FEW056 FEW220 08/07 A3010 RMK SF1SC1CI1 SLP211

CYYC;2007-08-11 05:00;CYYC 110500Z 31004KT 15SM FEW012 FEW056 07/06 A3009 RMK SF1SC1 SLP208

CYYC;2007-08-11 06:00;CYYC 110600Z 25002KT 15SM FEW056 07/06 A3009 RMK SC1 SLP213

CYYC;2007-08-11 07:00;CYYC 110700Z 22002KT 15SM SKC 06/06 A3009 RMK SLP213

CYYC;2007-08-11 08:00;CYYC 110800Z 22002KT 15SM SKC 05/05 A3009 RMK SLP215

CYYC;2007-08-11 09:00;CYYC 110900Z 23005KT 15SM SKC 05/04 A3009 RMK SLP218

CYYC;2007-08-11 10:00;CYYC 111000Z 20003KT 15SM SKC 05/05 A3010 RMK SLP220

CYYC;2007-08-11 11:00;CYYC 111100Z 20003KT 15SM SKC 05/05 A3010 RMK SLP221

CYYC;2007-08-11 12:00;CYYC 111200Z CCA 21003KT 40SM SKC 03/03 A3012 RMK SLP227

CYYC;2007-08-11 13:00;CYYC 111300Z 21004KT 40SM SKC 04/04 A3012 RMK SLP227

CYYC;2007-08-11 14:00;CYYC 111400Z 00000KT 40SM SKC 07/06 A3013 RMK SLP230

CYYC;2007-08-11 15:00;CYYC 111500Z 20004KT 40SM FEW250 10/07 A3014 RMK CI1 SLP226

CYYC;2007-08-11 16:00;CYYC 111600Z 20006KT 40SM FEW260 12/07 A3014 RMK CI0 CONTRAIL OVRHD-W SLP227

CYYC;2007-08-11 17:00;CYYC 111700Z 19009KT 40SM FEW028 FEW260 14/07 A3013 RMK CU1CI0 THN CONTRAIL OVRHD SLP224

CYYC;2007-08-11 18:00;CYYC 111800Z 18009KT 40SM FEW032 FEW260 16/08 A3012 RMK CU1CI0 SLP215

CYYC;2007-08-11 19:00;CYYC 111900Z 15009KT 40SM FEW036 SCT230 BKN260 17/08 A3011 RMK CU1CI0CI0 SLP212

CYYC;2007-08-11 20:00;CYYC 112000Z 17010KT 40SM FEW044 FEW140 FEW200 SCT230 BKN260 18/07 A3009 RMK CU1AC1CI2CI0CI0 CU+AC TR SLP207

CYYC;2007-08-11 21:00;CYYC 112100Z 14006KT 40SM FEW048 FEW140 SCT220 BKN260 19/07 A3008 RMK CU1AC1CI1CI0 CU+AC TR SLP200

CYYC;2007-08-11 22:00;CYYC 112200Z 17006KT 40SM FEW052 FEW140 SCT220 BKN260 19/06 A3006 RMK CU1AC1CI2CI0 CU+AC TR SLP195

CYYC;2007-08-11 23:00;CYYC 112300Z 14010KT 40SM FEW052 SCT220 BKN260 20/06 A3005 RMK CU1CI2CI0 SLP191

CYYC;2007-08-12 00:00;CYYC 120000Z 12010KT 40SM FEW048 FEW160 BKN220 OVC260 19/07 A3003 RMK CU1AC1CI6CI0 CU TR SLP186

CYYC;2007-08-12 01:00;CYYC 120100Z 14010KT 40SM FEW048 FEW170 BKN230 18/06 A3002 RMK CU1AC1CI2 CU TR SLP183

CYYC;2007-08-12 02:00;CYYC 120200Z 12008KT 30SM FEW050 FEW170 BKN250 16/06 A3002 RMK CU1AC1CI6 SLP182

CYYC;2007-08-12 03:00;CYYC 120300Z 11008KT 30SM FEW045 FEW160 BKN240 15/07 A3002 RMK CU1AC1CI5 SLP179

CYYC;2007-08-12 04:00;CYYC 120400Z 11006KT 15SM BKN240 12/07 A3003 RMK CI4 SLP182

CYYC;2007-08-12 05:00;CYYC 120500Z 13005KT 15SM BKN250 12/07 A3003 RMK CI3 SLP181

CYYC;2007-08-12 06:00;CYYC 120600Z 14004KT 15SM SCT230 11/07 A3003 RMK CI2 SLP177

CYYC;2007-08-12 07:00;CYYC 120700Z 09004KT 15SM FEW240 08/06 A3001 RMK CI1 SLP171

CYYC;2007-08-12 08:00;CYYC 120800Z 08005KT 15SM SCT240 08/06 A2998 RMK CI2 SLP162

CYYC;2007-08-12 09:00;CYYC 120900Z 11003KT 15SM BKN230 09/06 A2996 RMK CI2 SLP154

CYYC;2007-08-12 10:00;CYYC 121000Z 00000KT 15SM BKN220 09/06 A2995 RMK CI5 SLP149

CYYC;2007-08-12 11:00;CYYC 121100Z 00000KT 15SM BKN230 07/06 A2993 RMK CI6 SLP144

CYYC;2007-08-12 12:00;CYYC 121200Z 35003KT 20SM BKN200 06/05 A2993 RMK CI6 SLP145

CYYC;2007-08-12 13:00;CYYC 121300Z 25002KT 20SM SCT140 BKN200 06/06 A2992 RMK AC4CI3 SLP143

CYYC;2007-08-12 14:00;CYYC 121400Z 27002KT 20SM BKN120 08/07 A2992 RMK AC7 SLP144

CYYC;2007-08-12 15:00;CYYC 121500Z 29003KT 25SM FEW030 BKN120 BKN140 09/07 A2992 RMK SC1AC6AC2 SC TR SLP144

CYYC;2007-08-12 16:00;CYYC 121600Z 05002KT 25SM FEW080 BKN120 BKN210 10/08 A2991 RMK AC1AC5CI2 HZ SW/LO AC TR SLP141

CYYC;2007-08-12 17:00;CYYC 121700Z 31004KT 25SM FEW020 FEW140 BKN210 14/09 A2990 RMK CU1AC1CI6 CU TR/HZ SW SLP139

CYYC;2007-08-12 18:00;CYYC 121800Z 02007KT 25SM FEW026 FEW180 FEW220 17/10 A2989 RMK CU1AC1CI2 CU + AC TR/ACSL ASOCTD SLP128

CYYC;2007-08-12 19:00;CYYC 121900Z 01010KT 25SM FEW024 FEW220 17/11 A2989 RMK CU1CI1 SLP129

CYYC;2007-08-12 20:00;CYYC 122000Z 02011KT 25SM FEW028 FEW170 FEW220 18/11 A2989 RMK CU1AC1CI1 SLP129

CYYC;2007-08-12 21:00;CYYC 122100Z 36012KT 25SM FEW032 FEW140 FEW190 18/10 A2989 RMK CU1AC1AC1 SLP130

CYYC;2007-08-12 22:00;CYYC 122200Z 01013KT 25SM FEW032 FEW150 19/11 A2991 RMK SC1AC1 CU ASOCTD/ACLS ASOCTD SLP134

CYYC;2007-08-12 23:00;CYYC 122300Z 36016KT 20SM FEW150 FEW220 19/12 A2992 RMK AC1CI1 ACSL ASOCTD SLP139

CYYC;2007-08-13 00:00;CYYC 130000Z 35017KT 20SM FEW024 BKN140 BKN170 17/12 A2995 RMK CF1AC5AC2 CF TR SLP155

CYYC;2007-08-13 01:00;CYYC 130100Z 35012KT 20SM BKN120 15/11 A2997 RMK AC6 SLP161

CYYC;2007-08-13 02:00;CYYC 130200Z 36012KT 20SM FEW018 BKN130 13/10 A2999 RMK CF1AC6 SLP168

CYYC;2007-08-13 03:00;CYYC 130300Z 34011KT 20SM FEW018 SCT100 BKN120 13/10 A3001 RMK CF1AC3AC4 SLP179

CYYC;2007-08-13 04:00;CYYC 130400Z 34007KT 15SM FEW017 SCT100 OVC130 12/10 A3004 RMK CF1AC3AC4 SLP187

CYYC;2007-08-13 05:00;CYYC 130500Z 32006KT 15SM BKN093 OVC110 12/10 A3007 RMK AC5AC3 SLP196

CYYC;2007-08-13 06:00;CYYC 130600Z 34011KT 15SM BKN018 OVC100 12/10 A3008 RMK SC6AC2 SLP193

CYYC;2007-08-13 06:07;CYYC 130607Z CCA 35012KT 15SM -RA FEW012 BKN018 OVC088 12/ RMK CF1SC6AC2

CYYC;2007-08-13 06:35;CYYC 130635Z 34012KT 15SM -RA BKN013 BKN017 OVC090 11/ RMK SC5SC2AC2 PCPN VRY LGT

CYYC;2007-08-13 06:36;CYYC 130636Z 34012KT 15SM -RA BKN013 BKN017 OVC090 11/ RMK SC5SC2AC2 PCPN VRY LGT

CYYC;2007-08-13 07:00;CYYC 130700Z 35011KT 15SM -RA BKN012 OVC093 11/09 A3009 RMK SC6AC2 PCPN VRY LGT SLP195

CYYC;2007-08-13 07:22;CYYC 130722Z 34010KT 15SM SCT012 BKN081 OVC120 11/ RMK SC3AC2AC3

CYYC;2007-08-13 08:00;CYYC 130800Z 34010KT 15SM FEW012 OVC120 10/09 A3008 RMK SC2AC6 SLP193

CYYC;2007-08-13 08:32;CYYC 130832Z 33010KT 15SM BKN015 OVC120 11/ RMK SC6AC2

CYYC;2007-08-13 09:00;CYYC 130900Z 33010KT 15SM BKN016 OVC120 11/09 A3012 RMK SC7AC1 SLP205

CYYC;2007-08-13 10:00;CYYC 131000Z 33010KT 15SM BKN016 OVC120 11/09 A3013 RMK SC7AC1 SLP210

CYYC;2007-08-13 11:00;CYYC 131100Z 34011KT 15SM BKN020 OVC095 11/09 A3014 RMK SC5AC3 SLP213

CYYC;2007-08-13 12:00;CYYC 131200Z 35008KT 15SM FEW092 OVC110 10/09 A3015 RMK AC2AC6 SLP220

CYYC;2007-08-13 13:00;CYYC 131300Z 35009KT 20SM BKN016 OVC110 11/09 A3018 RMK SC6AC2 SLP227

CYYC;2007-08-13 14:00;CYYC 131400Z 36011KT 15SM BKN016 OVC110 11/09 A3019 RMK SC7AC1 SLP232

CYYC;2007-08-13 14:56;CYYC 131456Z 35010KT 15SM OVC012 11/ RMK SC8

CYYC;2007-08-13 15:00;CYYC 131500Z 36010KT 15SM OVC013 11/09 A3022 RMK SC8 SLP248

CYYC;2007-08-13 16:00;CYYC 131600Z 33009KT 15SM OVC014 11/09 A3024 RMK SC8 SLP253

CYYC;2007-08-13 16:29;CYYC 131629Z 35007KT 20SM BKN015 OVC029 12/ RMK SC6SC2

CYYC;2007-08-13 17:00;CYYC 131700Z 36008KT 20SM BKN015 OVC031 12/09 A3025 RMK SC6SC2 SLP256

CYYC;2007-08-13 18:00;CYYC 131800Z 02008KT 20SM BKN015 OVC037 12/09 A3024 RMK SC5SC3 SLP254

CYYC;2007-08-13 19:00;CYYC 131900Z 04010G15KT 20SM FEW020 OVC046 14/08 A3023 RMK SC2SC5 SLP252

CYYC;2007-08-13 20:00;CYYC 132000Z 03010G15KT 20SM FEW020 OVC032 14/09 A3024 RMK SC2SC5 SLP253

CYYC;2007-08-13 21:00;CYYC 132100Z 03009KT 20SM FEW020 OVC042 14/08 A3024 RMK SC2SC5 SLP253

CYYC;2007-08-13 22:00;CYYC 132200Z 02011KT 20SM FEW022 OVC030 13/09 A3024 RMK SC2SC6 SLP255

CYYC;2007-08-13 23:00;CYYC 132300Z 36010KT 20SM OVC027 13/08 A3024 RMK SC7 SLP255

CYYC;2007-08-14 00:00;CYYC 140000Z 36009KT 20SM OVC029 12/08 A3025 RMK SC8 SLP259

CYYC;2007-08-14 01:00;CYYC 140100Z 36005KT 20SM OVC025 12/07 A3025 RMK SC8 SLP259

CYYC;2007-08-14 02:00;CYYC 140200Z 03008KT 20SM OVC025 11/09 A3025 RMK SC8 SLP259

CYYC;2007-08-14 03:00;CYYC 140300Z 04004KT 10SM OVC023 11/09 A3026 RMK SC8 SLP263

CYYC;2007-08-14 04:00;CYYC 140400Z 05002KT 15SM BKN025 OVC050 10/09 A3026 RMK SC5SC3 SLP264

CYYC;2007-08-14 05:00;CYYC 140500Z 11003KT 15SM OVC027 10/08 A3026 RMK SC8 SLP263

CYYC;2007-08-14 06:00;CYYC 140600Z 12005KT 15SM OVC030 10/07 A3025 RMK SC8 SLP259

CYYC;2007-08-14 07:00;CYYC 140700Z 13003KT 15SM OVC030 10/08 A3024 RMK SC8 SLP257

CYYC;2007-08-14 08:00;CYYC 140800Z 14004KT 15SM OVC030 10/08 A3023 RMK SC8 SLP255

CYYC;2007-08-14 09:00;CYYC 140900Z 15003KT 15SM OVC028 10/07 A3022 RMK SC8 SLP247

CYYC;2007-08-14 10:00;CYYC 141000Z 14005KT 15SM OVC032 10/07 A3020 RMK SC8 SLP242

CYYC;2007-08-14 11:00;CYYC 141100Z 16005KT 15SM OVC035 10/07 A3019 RMK SC8 SLP239

CYYC;2007-08-14 12:00;CYYC 141200Z 15004KT 15SM OVC035 10/07 A3018 RMK SC8 SLP238

CYYC;2007-08-14 13:00;CYYC 141300Z 12004KT 20SM OVC025 10/08 A3017 RMK SC8 SLP235

CYYC;2007-08-14 14:00;CYYC 141400Z 14005KT 20SM BKN027 10/08 A3015 RMK SC7 CU ASOCTD SLP229

CYYC;2007-08-14 15:00;CYYC 141500Z 18010KT 20SM FEW035 FEW050 12/09 A3013 RMK CU1SC2 CU TR SLP218

CYYC;2007-08-14 16:00;CYYC 141600Z 19005KT 20SM FEW020 SCT035 13/09 A3012 RMK SC2CU2 SLP215

CYYC;2007-08-14 17:00;CYYC 141700Z 16003KT 20SM FEW030 FEW040 14/09 A3011 RMK SC2CU1 SLP212

CYYC;2007-08-14 18:00;CYYC 141800Z 18002KT 20SM FEW040 FEW050 16/10 A3008 RMK SC1CU1 SLP197

CYYC;2007-08-14 19:00;CYYC 141900Z 00000KT 20SM FEW050 18/10 A3006 RMK CU1 SLP190

CYYC;2007-08-14 20:00;CYYC 142000Z 10003KT 20SM FEW050 19/09 A3005 RMK CU1 SLP185

CYYC;2007-08-14 21:00;CYYC 142100Z 07004KT 20SM FEW050 20/08 A3003 RMK CU1 CU TR SLP172

CYYC;2007-08-14 22:00;CYYC 142200Z 10003KT 20SM FEW050 20/08 A3001 RMK CU1 CU TR SLP166

CYYC;2007-08-14 23:00;CYYC 142300Z 09007KT 20SM FEW050 21/09 A2999 RMK CU1 CU TR SLP161

CYYC;2007-08-15 00:00;CYYC 150000Z 12007KT 20SM FEW060 21/09 A2997 RMK CU1 CU TR SLP153

CYYC;2007-08-15 01:00;CYYC 150100Z 09008KT 20SM FEW060 FEW100 20/09 A2996 RMK CU1AC1 SLP150

CYYC;2007-08-15 02:00;CYYC 150200Z 12006KT 20SM FEW060 FEW100 19/09 A2996 RMK CU1AC1 SLP150

CYYC;2007-08-15 03:00;CYYC 150300Z 07005KT 25SM FEW100 15/09 A2998 RMK AC1 SLP161

CYYC;2007-08-15 04:00;CYYC 150400Z 05006KT 15SM FEW100 12/08 A3001 RMK AC1 SLP168

CYYC;2007-08-15 05:00;CYYC 150500Z 36003KT 15SM FEW100 13/08 A3002 RMK AC1 SLP173

CYYC;2007-08-15 06:00;CYYC 150600Z 02005KT 15SM FEW100 11/07 A3005 RMK AC1 SLP184

CYYC;2007-08-15 07:00;CYYC 150700Z 35002KT 15SM FEW100 12/06 A3006 RMK AC1 SLP187

CYYC;2007-08-15 08:00;CYYC 150800Z 34007KT 15SM FEW100 09/07 A3007 RMK AC1 SLP191

CYYC;2007-08-15 09:00;CYYC 150900Z 34007KT 15SM FEW100 08/06 A3008 RMK AC1 SLP196

CYYC;2007-08-15 10:00;CYYC 151000Z 34006KT 15SM FEW070 FEW100 07/05 A3010 RMK AC1AC1 SLP200

CYYC;2007-08-15 11:00;CYYC 151100Z 32005KT 15SM FEW070 FEW100 06/05 A3010 RMK AC1AC1 SLP202

CYYC;2007-08-15 12:00;CYYC 151200Z 31004KT 15SM FEW100 FEW240 07/05 A3011 RMK AC1CI1 SLP204

CYYC;2007-08-15 13:00;CYYC 151300Z 21003KT 30SM SCT048 BKN100 BKN240 08/06 A3011 RMK SC3AC1CI0 SLP205

CYYC;2007-08-15 14:00;CYYC 151400Z 20003KT 30SM BKN048 BKN100 10/08 A3012 RMK SC6AC1 SLP208

CYYC;2007-08-15 15:00;CYYC 151500Z 21003KT 30SM SCT048 BKN100 13/08 A3013 RMK SC2AC2 SLP211

CYYC;2007-08-15 16:00;CYYC 151600Z 23006KT 30SM SCT052 BKN100 15/08 A3013 RMK SC2AC2 SLP210

CYYC;2007-08-15 17:00;CYYC 151700Z 18006KT 20SM BKN052 BKN080 17/08 A3013 RMK SC1AC1 SLP210

CYYC;2007-08-15 18:00;CYYC 151800Z 14007KT 20SM BKN045 BKN080 19/08 A3012 RMK SC3AC1 SLP205

CYYC;2007-08-15 19:00;CYYC 151900Z 17006KT 20SM SCT045 SCT080 20/09 A3011 RMK SC1AC1 SLP202

CYYC;2007-08-15 20:00;CYYC 152000Z 15006KT 20SM FEW045 SCT220 21/09 A3010 RMK SC1CI0 SLP199

CYYC;2007-08-15 21:00;CYYC 152100Z 12005KT 20SM FEW050 SCT220 22/08 A3009 RMK SC1CI0 SLP196

CYYC;2007-08-15 22:00;CYYC 152200Z 15005KT 20SM FEW056 SCT220 23/08 A3008 RMK CU1CI0 SLP193

CYYC;2007-08-15 23:00;CYYC 152300Z 09008KT 20SM FEW057 FEW220 23/08 A3007 RMK CU1CI0 SLP190

CYYC;2007-08-16 00:00;CYYC 160000Z 11009KT 20SM FEW058 FEW220 23/08 A3007 RMK CU1CI0 SLP187

CYYC;2007-08-16 01:00;CYYC 160100Z 10009KT 20SM FEW060 FEW100 FEW210 22/08 A3006 RMK CU1AC1CI0 CU TR SLP185

CYYC;2007-08-16 02:00;CYYC 160200Z 09009KT 20SM FEW060 FEW090 SCT230 20/08 A3006 RMK CU1AC2CI1 CU TR SLP186

CYYC;2007-08-16 03:00;CYYC 160300Z 09012KT 20SM SCT070 OVC230 19/08 A3008 RMK AC4CI2 SLP190

CYYC;2007-08-16 04:00;CYYC 160400Z 10011KT 15SM FEW090 BKN240 17/08 A3010 RMK AC1CI2 SLP195

CYYC;2007-08-16 05:00;CYYC 160500Z 10008KT 15SM FEW100 BKN250 15/08 A3011 RMK AC1CI1 SLP200

CYYC;2007-08-16 06:00;CYYC 160600Z 13005KT 15SM FEW110 FEW250 13/08 A3013 RMK AC1CI1 SLP206

CYYC;2007-08-16 07:00;CYYC 160700Z 00000KT 15SM SKC 13/08 A3013 RMK SLP206

CYYC;2007-08-16 08:00;CYYC 160800Z 16005KT 15SM SKC 12/07 A3013 RMK SLP205

CYYC;2007-08-16 09:00;CYYC 160900Z 16002KT 15SM SKC 12/07 A3011 RMK SLP196

CYYC;2007-08-16 10:00;CYYC 161000Z 16002KT 15SM SKC 10/07 A3010 RMK SLP194

CYYC;2007-08-16 11:00;CYYC 161100Z 11005KT 15SM SKC 09/06 A3009 RMK SLP191

CYYC;2007-08-16 12:00;CYYC 161200Z 31002KT 20SM FEW110 FEW250 09/06 A3010 RMK AC1CI1 SLP195

CYYC;2007-08-16 13:00;CYYC 161300Z 34005KT 30SM FEW250 08/06 A3011 RMK CI1 CI TR SLP198

CYYC;2007-08-16 14:00;CYYC 161400Z 33002KT 30SM FEW150 FEW250 10/08 A3012 RMK AC1CI1 SLP201

CYYC;2007-08-16 15:00;CYYC 161500Z 15004KT 30SM FEW180 FEW250 14/08 A3012 RMK AC1CI1 SLP202

CYYC;2007-08-16 16:00;CYYC 161600Z 14004KT 30SM FEW180 16/08 A3012 RMK AC1 SLP201

CYYC;2007-08-16 17:00;CYYC 161700Z 15007KT 30SM SKC 18/08 A3012 RMK SLP202

CYYC;2007-08-16 18:00;CYYC 161800Z 14011KT 30SM FEW210 20/07 A3012 RMK CI1 SLP201

CYYC;2007-08-16 19:00;CYYC 161900Z 14010G16KT 30SM FEW210 21/08 A3011 RMK CI1 SLP199

CYYC;2007-08-16 20:00;CYYC 162000Z 14007G16KT 30SM FEW058 FEW200 22/08 A3010 RMK CU1CI1 SLP196

CYYC;2007-08-16 21:00;CYYC 162100Z 11011KT 30SM FEW064 FEW180 24/08 A3009 RMK CU1AC1 CU TR SLP185

CYYC;2007-08-16 22:00;CYYC 162200Z 12015KT 30SM FEW069 FEW150 25/08 A3005 RMK CU1AC0 SLP174

CYYC;2007-08-16 23:00;CYYC 162300Z 15014G19KT 30SM FEW069 FEW150 FEW240 25/07 A3005 RMK CU1AC1CI1 SLP174

CYYC;2007-08-17 00:00;CYYC 170000Z 12012G17KT 30SM FEW070 FEW150 BKN210 24/08 A3004 RMK AC1AC2CI1 VIRGA SLP173

CYYC;2007-08-17 01:00;CYYC 170100Z 11014KT 30SM FEW070 FEW150 BKN220 23/08 A3002 RMK AC1AC1CI0 SLP167

CYYC;2007-08-17 02:00;CYYC 170200Z 12008KT 25SM FEW090 FEW240 21/09 A3001 RMK AC1CI0 SLP164

CYYC;2007-08-17 03:00;CYYC 170300Z 12009KT 20SM FEW100 BKN250 19/09 A3001 RMK AC1CI2 SLP163

CYYC;2007-08-17 04:00;CYYC 170400Z 12012KT 15SM SCT250 18/08 A3002 RMK CI2 SLP165

CYYC;2007-08-17 05:00;CYYC 170500Z 13012G17KT 15SM SCT250 17/07 A3001 RMK CI2 SLP162

CYYC;2007-08-17 06:00;CYYC 170600Z 12010KT 15SM SCT250 16/07 A3000 RMK CI2 SLP155

CYYC;2007-08-17 07:00;CYYC 170700Z 11007KT 15SM SCT250 14/07 A2999 RMK CI2 SLP151

CYYC;2007-08-17 08:00;CYYC 170800Z 10005KT 15SM SCT250 12/06 A2997 RMK CI2 SLP146

CYYC;2007-08-17 09:00;CYYC 170900Z 00000KT 15SM BKN190 OVC250 12/06 A2996 RMK AC5CI2 SLP142

CYYC;2007-08-17 10:00;CYYC 171000Z 11005KT 15SM BKN170 OVC250 11/07 A2995 RMK AC5CI2 SLP138

CYYC;2007-08-17 11:00;CYYC 171100Z 13003KT 15SM BKN160 OVC250 11/07 A2994 RMK AC6CI2 SLP135

CYYC;2007-08-17 12:00;CYYC 171200Z 00000KT 20SM BKN170 OVC250 11/07 A2994 RMK AC6CI2 SLP135

CYYC;2007-08-17 13:00;CYYC 171300Z 05002KT 15SM FEW080CB SCT140 BKN250 09/06 A2994 RMK CB2AC2CI2 SLP136

CYYC;2007-08-17 14:00;CYYC 171400Z 02002KT 20SM FEW120 10/08 A2994 RMK AC1 SLP136

CYYC;2007-08-17 15:00;CYYC 171500Z 00000KT 15SM FEW120 13/08 A2994 RMK AC1 SLP139

CYYC;2007-08-17 16:00;CYYC 171600Z 28002KT 15SM SCT100 14/08 A2993 RMK AC3 SLP136

CYYC;2007-08-17 16:39;CYYC 171639Z CCA 02005KT 15SM -TSRA BKN080CB 13/ RMK CB6 CB ENBD IN FU ALOFT

CYYC;2007-08-17 17:00;CYYC 171700Z 04006KT 20SM -TSRA BKN080CB 13/10 A2992 RMK CB4 LTGICCCCG NE SLP134

CYYC;2007-08-17 17:23;CYYC 171723Z 03005KT 15SM FEW080CB 14/ RETS RMK CB2

CYYC;2007-08-17 18:00;CYYC 171800Z 04006KT 15SM FEW080 15/10 A2993 RETS RMK AC2 SLP137

CYYC;2007-08-17 19:00;CYYC 171900Z 06007KT 15SM BKN080 16/10 A2992 RMK AC4 CVCTV CLD EMBD SLP134

CYYC;2007-08-17 20:00;CYYC 172000Z 09007KT 15SM BKN070 18/11 A2992 RMK AC5 SLP134

CYYC;2007-08-17 21:00;CYYC 172100Z 09014KT 15SM FEW070 19/10 A2991 RMK AC2 SLP130

CYYC;2007-08-17 22:00;CYYC 172200Z 12009KT 15SM SKC 21/10 A2989 RMK SLP125

CYYC;2007-08-17 23:00;CYYC 172300Z 13008KT 15SM FEW080 21/10 A2988 RMK AC1 SLP122

CYYC;2007-08-18 00:00;CYYC 180000Z 13007KT 15SM FEW080 21/11 A2986 RMK AC1 SLP114

CYYC;2007-08-18 01:00;CYYC 180100Z 07007KT 15SM FEW080 21/12 A2985 RMK AC1 SLP109

CYYC;2007-08-18 02:00;CYYC 180200Z 04005KT 15SM FEW130 18/13 A2985 RMK AC1 SLP108

CYYC;2007-08-18 03:00;CYYC 180300Z 04005KT 15SM FEW130 FEW240 15/12 A2985 RMK AC1CI0 SLP113

CYYC;2007-08-18 04:00;CYYC 180400Z 02005KT 15SM FEW130 FEW240 15/12 A2985 RMK AC1CI0 SLP116

CYYC;2007-08-18 05:00;CYYC 180500Z 35006KT 15SM FEW100 13/11 A2987 RMK AC1 SLP120

CYYC;2007-08-18 06:00;CYYC 180600Z 36007KT 15SM SKC 13/11 A2987 RMK SLP121

CYYC;2007-08-18 07:00;CYYC 180700Z 34006KT 15SM SKC 12/11 A2988 RMK SLP123

CYYC;2007-08-18 08:00;CYYC 180800Z 34006KT 15SM SKC 11/10 A2988 RMK SLP123

CYYC;2007-08-18 09:00;CYYC 180900Z 34007KT 15SM FEW240 10/09 A2987 RMK CI0 SLP120

CYYC;2007-08-18 10:00;CYYC 181000Z 34004KT 15SM SKC 09/08 A2988 RMK SLP122

CYYC;2007-08-18 11:00;CYYC 181100Z 32006KT 15SM SKC 09/08 A2987 RMK SLP119

CYYC;2007-08-18 12:00;CYYC 181200Z 32004KT 20SM SKC 08/07 A2986 RMK SLP118

CYYC;2007-08-18 13:00;CYYC 181300Z 33003KT 15SM SKC 08/08 A2987 RMK SLP120

CYYC;2007-08-18 14:00;CYYC 181400Z 36003KT 20SM FEW170 11/10 A2987 RMK AC1 SLP120

CYYC;2007-08-18 15:00;CYYC 181500Z 01007KT 20SM FEW015 FEW170 13/11 A2987 RMK CU1AC1 SLP122

CYYC;2007-08-18 16:00;CYYC 181600Z 36005KT 20SM FEW017 FEW190 15/12 A2988 RMK CU1AC1 SLP123

CYYC;2007-08-18 17:00;CYYC 181700Z 35006KT 20SM FEW020 FEW210 16/11 A2987 RMK CU1CI1 SLP121

CYYC;2007-08-18 18:00;CYYC 181800Z 35002KT 20SM FEW028 FEW210 18/11 A2985 RMK CU1CI1 SLP111

CYYC;2007-08-18 19:00;CYYC 181900Z 31004KT 20SM FEW035 SCT230 20/12 A2984 RMK CU1CI2 SLP107

CYYC;2007-08-18 20:00;CYYC 182000Z 00000KT 20SM FEW035 FEW160 BKN260 22/12 A2981 RMK CU1AC1CI2 TCU ASOCTD W SLP099

CYYC;2007-08-18 21:00;CYYC 182100Z CCA 06005KT 20SM FEW048 FEW180 BKN240 23/11 A2980 RMK CU1AC1CI1 TCU ASOCTD SLP091

CYYC;2007-08-18 22:00;CYYC 182200Z 10006KT 20SM FEW048TCU FEW180 BKN240 23/11 A2979 RMK TCU2AC1CI1 SH S-W SLP087

CYYC;2007-08-18 23:00;CYYC 182300Z 08009KT 20SM FEW048CB BKN130 BKN240 21/11 A2977 RMK CB2AC4CI1 SH SE-SW SLP082

CYYC;2007-08-18 23:09;CYYC 182309Z 09009KT 15SM TS SCT048CB BKN140 BKN240 21/ RMK CB4AC3CI1 SH SE-SW

CYYC;2007-08-18 23:47;CYYC 182347Z 00000KT 15SM -TSRA SCT048CB BKN088 BKN150 20/ RMK CB4AC2AC1

CYYC;2007-08-19 00:00;CYYC 190000Z CCA 08011KT 15SM -TSRA SCT048CB BKN089 BKN150 19/13 A2977 RMK CB4AC2AC1 PRES UNSTDY SLP089

CYYC;2007-08-19 00:23;CYYC 190023Z 06012KT 20SM FEW048CB BKN090 BKN120 BKN180 21/ RETS RMK CB2AC2AC1AC1 SH NW-E

CYYC;2007-08-19 01:00;CYYC 190100Z 08013KT 20SM FEW048CB SCT120 SCT180 19/12 A2972 RETS RMK CB2AC1AC1 SH SW-NE SLP074

CYYC;2007-08-19 02:00;CYYC 190200Z 02007KT 20SM FEW014 FEW045CB BKN130 17/12 A2976 RMK SC1CB2AC3 SH W-NE SLP086

CYYC;2007-08-19 02:20;CYYC 190220Z 33023G30KT 6SM TS BR FEW015 BKN017CB BKN130 16/ RMK SF1CB6AC1 SH NW-NE

CYYC;2007-08-19 03:00;CYYC 190300Z 35015G21KT 15SM FEW014 FEW018CB FEW130 BKN240 14/10 A2979 RMK SF1CB1AC1CI1 SLP093

CYYC;2007-08-19 04:00;CYYC 190400Z 01012G18KT 15SM FEW018CB FEW130 SCT240 12/10 A2980 RMK CB1AC1CI1 SLP097

CYYC;2007-08-19 05:00;CYYC 190500Z 30006KT 15SM FEW013 FEW018 11/09 A2983 RMK SF1SC2 SLP105

CYYC;2007-08-19 06:00;CYYC 190600Z 32004KT 15SM FEW018 10/09 A2982 RMK SC1 SLP104

CYYC;2007-08-19 07:00;CYYC 190700Z 36003KT 15SM FEW100 10/09 A2983 RMK AC1 SLP106

CYYC;2007-08-19 08:00;CYYC 190800Z 32004KT 15SM FEW100 09/09 A2980 RMK AC1 SLP098

CYYC;2007-08-19 09:00;CYYC 190900Z 30003KT 15SM FEW025 FEW240 09/07 A2980 RMK SC1CI0 SLP093

CYYC;2007-08-19 10:00;CYYC 191000Z 35003KT 15SM FEW025 FEW140 07/06 A2980 RMK SC1AC1 SLP092

CYYC;2007-08-19 11:00;CYYC 191100Z 27002KT 15SM FEW025 FEW150 08/07 A2979 RMK SC1AC1 SLP089

CYYC;2007-08-19 12:00;CYYC 191200Z 34003KT 15SM SCT150 BKN230 08/07 A2979 RMK AC4CI0 SLP093

CYYC;2007-08-19 13:00;CYYC 191300Z 23002KT 20SM BKN140 OVC230 08/07 A2977 RMK AC7CI0 SLP089

CYYC;2007-08-19 14:00;CYYC 191400Z 00000KT 20SM BKN140 BKN230 10/09 A2977 RMK AC5CI2 ACSL W SLP088

CYYC;2007-08-19 15:00;CYYC 191500Z 35004KT 30SM BKN130 OVC180 12/10 A2975 RMK AC5AC3 SLP084

CYYC;2007-08-19 16:00;CYYC 191600Z 05002KT 30SM FEW008 BKN120 OVC180 13/10 A2975 RMK CF1AC6AC2 SLP084

CYYC;2007-08-19 17:00;CYYC 191700Z 08004KT 20SM FEW012 BKN150 OVC180 13/10 A2974 RMK CU1AC7AC1 SLP080

CYYC;2007-08-19 18:00;CYYC 191800Z 36005KT 20SM FEW020 BKN130 OVC180 15/11 A2971 RMK CU1AC5AC2 SLP070

CYYC;2007-08-19 19:00;CYYC 191900Z CCA 14004KT 20SM FEW023 BKN130 OVC220 17/11 A2971 RMK CU1AC3CI2 SLP068

CYYC;2007-08-19 20:00;CYYC 192000Z 15002KT 20SM FEW023 SCT082 OVC140 17/11 A2969 RMK CU1AC4AC3 SLP063

CYYC;2007-08-19 21:00;CYYC 192100Z 12004KT 20SM FEW023 BKN082 BKN140 OVC210 17/11 A2966 RMK CU1AC5AS2CI1 SLP053

CYYC;2007-08-19 22:00;CYYC 192200Z 12007KT 20SM FEW023 FEW080 BKN150 OVC210 17/12 A2965 RMK CU1AC2AS5CI1 SLP050

CYYC;2007-08-19 23:00;CYYC 192300Z 00000KT 15SM FEW023 BKN130 OVC210 17/12 A2964 RMK CU1AS6CI1 SLP047

CYYC;2007-08-20 00:00;CYYC 200000Z 34004KT 15SM SCT023 BKN110 OVC150 17/12 A2966 RMK CU4AS3AC1 SLP054

CYYC;2007-08-20 01:00;CYYC 200100Z 03004KT 12SM FEW023 SCT110 OVC150 17/13 A2967 RMK CU1AS2AC5 SLP055

CYYC;2007-08-20 02:00;CYYC 200200Z 07006KT 12SM SCT110 BKN150 OVC220 16/13 A2966 RMK AC3AS3CS2 SLP052

CYYC;2007-08-20 03:00;CYYC 200300Z 36005KT 12SM FEW030 OVC110 15/13 A2967 RMK SC2AS6 SLP055

CYYC;2007-08-20 04:00;CYYC 200400Z 34005KT 5SM BR FEW012 FEW020 OVC100 14/13 A2967 RMK SF1SC2AS6 SLP055

CYYC;2007-08-20 05:00;CYYC 200500Z 35007KT 5SM BR FEW012 FEW020 OVC100 14/13 A2967 RMK SF1SC1AS7 SLP053

CYYC;2007-08-20 06:00;CYYC 200600Z 34008KT 4SM BR FEW011 SCT018 OVC100 13/12 A2967 RMK SF1SC3AS4 SLP052

CYYC;2007-08-20 06:44;CYYC 200644Z 33010KT 3SM BR BKN007 BKN014 OVC100 13/ RMK SC5SC2AS2

CYYC;2007-08-20 07:00;CYYC 200700Z 32009KT 3SM BR BKN008 OVC014 13/12 A2966 RMK SC7SC1 SLP049

CYYC;2007-08-20 07:36;CYYC 200736Z 32009KT 4SM BR BKN011 BKN018 BKN097 OVC180 13/ RMK SC5SC1AC1AS2

CYYC;2007-08-20 07:49;CYYC 200749Z 32010KT 5SM BR FEW011 SCT023 OVC094 13/ RMK SC1SC3AC4

CYYC;2007-08-20 08:00;CYYC 200800Z CCA 32009KT 5SM BR FEW010 FEW023 OVC100 13/12 A2967 RMK SF1SC1AC7 SLP052

CYYC;2007-08-20 09:00;CYYC 200900Z 31010KT 5SM BR FEW012 OVC110 13/11 A2969 RMK SF1AC8 SLP055

CYYC;2007-08-20 10:00;CYYC 201000Z 30010KT 15SM OVC130 13/09 A2970 RMK AC8 SLP058

CYYC;2007-08-20 11:00;CYYC 201100Z 30007KT 15SM BKN080 OVC140 13/08 A2971 RMK AC6AC2 SLP061

CYYC;2007-08-20 12:00;CYYC 201200Z 32010KT 15SM FEW078 SCT090 BKN140 13/07 A2973 RMK AC1AC3AC1 SLP069

CYYC;2007-08-20 13:00;CYYC 201300Z 33007KT 30SM FEW045 BKN085 BKN120 BKN220 12/07 A2975 RMK SC1AC5AC1CI0 SLP076

CYYC;2007-08-20 14:00;CYYC 201400Z 32009KT 40SM FEW050 FEW085 FEW220 13/08 A2977 RMK SC1AC2CI0 SLP080

CYYC;2007-08-20 15:00;CYYC 201500Z 33011KT 40SM FEW050 FEW085 FEW220 14/06 A2978 RMK SC1AC1CI1 SLP087

CYYC;2007-08-20 16:00;CYYC 201600Z 32012KT 40SM FEW050 FEW085 FEW220 16/06 A2978 RMK SC1AC1CI0 SLP089

CYYC;2007-08-20 17:00;CYYC 201700Z 35006KT 40SM FEW044 FEW085 FEW210 SCT260 17/06 A2978 RMK CU1AC1CI1CI0 CU+AC LYRS TR SLP088

CYYC;2007-08-20 18:00;CYYC 201800Z 34004KT 40SM FEW050 FEW085 SCT190 BKN260 18/06 A2977 RMK CU1AC1AC2CI0 SLP082

CYYC;2007-08-20 19:00;CYYC 201900Z 28011G17KT 40SM FEW065 FEW085 SCT190 BKN240 19/02 A2976 RMK CU1AC1AC3CI2 LWR AC LYR TR SLP079

CYYC;2007-08-20 20:00;CYYC 202000Z 28015KT 40SM FEW072 FEW085 BKN200 19/02 A2976 RMK AC1AC1CI6 LWR AC TR SLP078

CYYC;2007-08-20 21:00;CYYC 202100Z CCA 28017KT 40SM FEW072 FEW085 BKN190 19/01 A2975 RMK AC1AC1AC7 LWR AC LYRS TR SLP074

CYYC;2007-08-20 22:00;CYYC 202200Z 28015G20KT 40SM FEW080 BKN190 20/01 A2975 RMK AC1AC7 SLP073

CYYC;2007-08-20 23:00;CYYC 202300Z 28011G16KT 40SM FEW080 BKN190 BKN260 21/02 A2974 RMK AC1AC5CI1 LWR AC TR SLP072

CYYC;2007-08-21 00:00;CYYC 210000Z CCA 27016G24KT 40SM FEW071 FEW080 BKN180 BKN260 19/02 A2975 RMK CU1AC1AC2CI1 CU TR SLP074

CYYC;2007-08-21 01:00;CYYC 210100Z 26015G20KT 40SM FEW071 FEW080 BKN180 BKN260 17/03 A2976 RMK CU1AC1AC6CI1 CU+LWR AC TR SLP077

CYYC;2007-08-21 02:00;CYYC 210200Z CCA 27014KT 40SM FEW050CB FEW080 BKN160 17/03 A2976 RMK CB1AC1AS3 CB NE/VIRGA S-SW/CB TR SLP077

CYYC;2007-08-21 03:00;CYYC 210300Z 27012G17KT 40SM FEW050CB FEW080 BKN160 BKN220 16/03 A2977 RMK CB1AC1AS2CI2 CB NE/VIRGA SW/CB+AC TR SLP084

CYYC;2007-08-21 04:00;CYYC 210400Z 27014KT 15SM SCT160 BKN220 15/03 A2978 RMK AS2CI2 SLP087

CYYC;2007-08-21 05:00;CYYC 210500Z 27012G18KT 15SM BKN190 14/02 A2979 RMK AC4 SLP088

CYYC;2007-08-21 06:00;CYYC 210600Z 28012KT 15SM SCT120 BKN180 14/02 A2979 RMK AC3AC2 SLP088

CYYC;2007-08-21 07:00;CYYC 210700Z 28013KT 15SM SCT120 BKN140 14/02 A2980 RMK AC3AC2 SLP091

CYYC;2007-08-21 08:00;CYYC 210800Z 28016KT 15SM BKN140 BKN240 14/02 A2981 RMK AC4CI1 SLP092

CYYC;2007-08-21 09:00;CYYC 210900Z 28013G20KT 15SM FEW180 SCT240 14/02 A2982 RMK AC2CI1 SLP095

CYYC;2007-08-21 10:00;CYYC 211000Z 36009KT 15SM FEW180 SCT240 10/03 A2984 RMK AC1CI0 SLP103

CYYC;2007-08-21 11:00;CYYC 211100Z 34008KT 15SM FEW180 FEW240 07/03 A2986 RMK AC1CI1 SLP108

CYYC;2007-08-21 12:00;CYYC 211200Z 30006KT 15SM FEW180 SCT240 08/03 A2986 RMK AC1CI1 SLP119

CYYC;2007-08-21 13:00;CYYC 211300Z 35004KT 40SM FEW100 FEW180 FEW240 06/02 A2987 RMK AC1AC1CI1 AC+CI TR SLP122

CYYC;2007-08-21 14:00;CYYC 211400Z 07002KT 40SM FEW080 FEW120 FEW180 FEW240 11/04 A2988 RMK AC1AC1AC1CI0 SLP124

CYYC;2007-08-21 15:00;CYYC 211500Z 29003KT 40SM FEW080 FEW120 FEW180 SCT240 13/04 A2988 RMK AC1AC1AC1CI1 SLP123

CYYC;2007-08-21 16:00;CYYC 211600Z 28012KT 40SM FEW080 FEW120 FEW180 BKN240 17/03 A2988 RMK AC1AC0AC1CI1 SLP122

CYYC;2007-08-21 17:00;CYYC 211700Z 28016KT 40SM FEW070 FEW080 BKN120 BKN240 19/02 A2988 RMK AC1AC1AC4CI0 SLP124

CYYC;2007-08-21 18:00;CYYC 211800Z 32014G19KT 40SM FEW070 FEW080 FEW120 BKN240 19/02 A2990 RMK AC1AC1AC1CI1 SLP123

CYYC;2007-08-21 19:00;CYYC 211900Z 27008G15KT 40SM SCT071 SCT080 BKN160 BKN240 19/02 A2990 RMK AC4AC1AC2CI0 SLP125

CYYC;2007-08-21 20:00;CYYC 212000Z 03008KT 40SM SCT070 SCT080 BKN170 BKN240 19/05 A2991 RMK AC2AC2AC2CI0 SLP127

CYYC;2007-08-21 21:00;CYYC 212100Z 01012KT 40SM FEW040 BKN080 BKN170 18/05 A2993 RMK CF1AC6AC1 VIRGA NW-NE SLP138

CYYC;2007-08-21 22:00;CYYC 212200Z 35010G19KT 40SM BKN080 BKN100 16/07 A2995 RMK AC6AC1 VIRGA SLP143

CYYC;2007-08-21 22:51;CYYC 212251Z 36013G18KT 30SM -RA BKN080 BKN100 15/ RMK AC6AC1

CYYC;2007-08-21 23:00;CYYC 212300Z 36010G15KT 30SM BKN080 BKN100 17/07 A2996 RMK AC6AC1 SH E SLP146

CYYC;2007-08-22 00:00;CYYC 220000Z 36009KT 30SM BKN090 BKN110 17/06 A2995 RMK AC3AC2 VIRGA N SLP155

CYYC;2007-08-22 01:00;CYYC 220100Z 35008KT 30SM BKN090 BKN110 16/06 A2997 RMK AC5AC2 VIRGA NW-NE SLP161

CYYC;2007-08-22 02:00;CYYC 220200Z 36007KT 30SM BKN100 15/07 A2999 RMK AC6 VIRGA N-NE SLP165

CYYC;2007-08-22 03:00;CYYC 220300Z 35007KT 30SM BKN080 15/07 A3001 RMK AC6 VIRGA NW-NE SLP169

CYYC;2007-08-22 04:00;CYYC 220400Z 34013G20KT 15SM BKN100 14/07 A3003 RMK AC6 VIRGA NW-NE SLP175

CYYC;2007-08-22 05:00;CYYC 220500Z 34013KT 15SM FEW070 BKN100 13/06 A3004 RMK AC1AC6 SLP179

CYYC;2007-08-22 06:00;CYYC 220600Z 33009KT 15SM FEW080 OVC110 13/07 A3005 RMK AC1AC6 SLP178

CYYC;2007-08-22 07:00;CYYC 220700Z 34013KT 15SM BKN080 OVC110 12/07 A3006 RMK AC5AC2 SLP181

CYYC;2007-08-22 08:00;CYYC 220800Z 33011KT 15SM BKN080 OVC110 12/06 A3006 RMK AC5AC2 SLP183

CYYC;2007-08-22 09:00;CYYC 220900Z 34008KT 15SM BKN070 OVC100 11/07 A3007 RMK AC6AC1 VIRGA S SLP189

CYYC;2007-08-22 10:00;CYYC 221000Z 32007KT 15SM BKN075 12/06 A3006 RMK AC6 VIRGA ALQDS SLP186

CYYC;2007-08-22 11:00;CYYC 221100Z 31007KT 15SM SCT080 BKN110 10/06 A3006 RMK AC3AC1 SLP187

CYYC;2007-08-22 12:00;CYYC 221200Z 31006KT 15SM FEW110 FEW240 10/05 A3007 RMK AC1CI0 SLP193

CYYC;2007-08-22 13:00;CYYC 221300Z 29006KT 40SM FEW090 FEW240 09/05 A3008 RMK AC1CI0 CONTRAILS SLP195

CYYC;2007-08-22 14:00;CYYC 221400Z 30008KT 40SM FEW110 FEW250 12/05 A3009 RMK AC1CI1 SLP198

CYYC;2007-08-22 15:00;CYYC 221500Z 33011KT 40SM FEW032 FEW090 FEW250 14/05 A3009 RMK CU1AC1CI1 CU+AC TR SLP197

CYYC;2007-08-22 16:00;CYYC 221600Z 35011KT 40SM FEW044 FEW080 FEW250 15/06 A3009 RMK CU1AC1CI0 SLP198

CYYC;2007-08-22 17:00;CYYC 221700Z 32011G16KT 40SM FEW060 SCT100 BKN260 17/06 A3009 RMK CU1AC2CI0 SLP196

CYYC;2007-08-22 18:00;CYYC 221800Z 36009KT 40SM FEW040 BKN061 BKN240 16/06 A3009 RMK CU2SC5CI0 SLP195

CYYC;2007-08-22 19:00;CYYC 221900Z 34011KT 40SM FEW045 SCT062 BKN075 BKN240 16/05 A3007 RMK CU2SC2AC3CI1 CI TR SLP191

CYYC;2007-08-22 20:00;CYYC 222000Z 36009KT 40SM FEW048 SCT065 OVC080 16/05 A3007 RMK CU2SC2AC4 SLP190

CYYC;2007-08-22 21:00;CYYC 222100Z 36007KT 40SM FEW020 FEW050 SCT078 BKN095 18/04 A3007 RMK CU1CU2AC2AC3 LO CU TR SLP188

CYYC;2007-08-22 22:00;CYYC 222200Z 36006KT 40SM FEW046 BKN062 BKN080 18/06 A3006 RMK CU2SC3AC2 SLP186

CYYC;2007-08-22 23:00;CYYC 222300Z 02008KT 40SM FEW050 BKN075 18/06 A3006 RMK CU2AC5 SLP185

CYYC;2007-08-23 00:00;CYYC 230000Z 36007KT 40SM FEW046 FEW052 BKN062 BKN150 OVC250 17/06 A3005 RMK CU1SC2SC3AC2CI0 SLP185

CYYC;2007-08-23 01:00;CYYC 230100Z 03009KT 40SM SCT050 BKN080 BKN250 16/07 A3006 RMK SC3AC3CI0 SLP186

CYYC;2007-08-23 02:00;CYYC 230200Z 03006KT 30SM FEW050 BKN092 BKN230 15/07 A3006 RMK SC2AC3CI1 SLP186

CYYC;2007-08-23 03:00;CYYC 230300Z 04007KT 20SM FEW050 OVC100 13/08 A3007 RMK SC2AC6 SLP192

CYYC;2007-08-23 04:00;CYYC 230400Z 03006KT 15SM FEW061 OVC100 12/08 A3007 RMK SC2AC6 SLP194

CYYC;2007-08-23 05:00;CYYC 230500Z 35005KT 15SM OVC100 12/09 A3008 RMK AC8 SLP195

CYYC;2007-08-23 06:00;CYYC 230600Z 35004KT 15SM FEW067 SCT072 OVC110 12/07 A3008 RMK AC2AC2AC4 SLP194

CYYC;2007-08-23 07:00;CYYC 230700Z 32003KT 15SM FEW070 OVC110 11/07 A3008 RMK AC2AC6 SLP193

CYYC;2007-08-23 08:00;CYYC 230800Z 31003KT 15SM SCT059 OVC110 11/07 A3007 RMK SC4AC3 SLP190

CYYC;2007-08-23 09:00;CYYC 230900Z CCA 00000KT 15SM SCT065 OVC110 11/07 A3006 RMK SC3AC4 SLP184

CYYC;2007-08-23 10:00;CYYC 231000Z 03002KT 15SM BKN062 OVC090 11/08 A3006 RMK SC6AC2 SLP187

CYYC;2007-08-23 11:00;CYYC 231100Z 00000KT 15SM BKN065 OVC110 10/08 A3006 RMK SC5AC2 SLP184

CYYC;2007-08-23 12:00;CYYC 231200Z 03002KT 15SM BKN059 OVC110 10/08 A3005 RMK SC6AC2 SLP183

CYYC;2007-08-23 13:00;CYYC 231300Z 03003KT 30SM FEW062 BKN077 OVC110 10/08 A3004 RMK SC2AC6AC1 SLP182

CYYC;2007-08-23 14:00;CYYC 231400Z 07002KT 25SM BKN059 OVC078 11/08 A3004 RMK SC6AC2 SH SE / VIRGA NW-NE SLP181

CYYC;2007-08-23 15:00;CYYC 231500Z 03002KT 20SM FEW020 BKN060 BKN120 12/09 A3004 RMK SF1SC5AC2 SH SE + NW-NE SLP184

CYYC;2007-08-23 16:00;CYYC 231600Z 08004KT 15SM FEW036 BKN056 OVC120 12/09 A3004 RMK SC2SC4AC2 SH E-SE + NW SLP184

CYYC;2007-08-23 17:00;CYYC 231700Z 04008KT 20SM FEW024 BKN044 OVC053 11/09 A3005 RMK SC2SC4SC2 SH NW-N SLP186

CYYC;2007-08-23 17:17;CYYC 231717Z 05006KT 20SM -SHRA FEW024 BKN044 OVC052 11/ RMK SC2SC4SC2 CVCTV CLD EMBD

CYYC;2007-08-23 18:00;CYYC 231800Z CCA 04007KT 15SM -SHRA FEW022 FEW033 BKN049 OVC056 11/10 A3005 RERA RMK SF1SC2SC5SC1 CVCTV CLD EMBD SLP192

CYYC;2007-08-23 19:00;CYYC 231900Z 04008KT 12SM FEW031 OVC050 11/10 A3001 RERA RMK SC2SC6 SLP180

CYYC;2007-08-23 19:26;CYYC 231926Z 07008KT 12SM -SHRA FEW029 OVC053 11/ RMK SC2SC6 CVCTV CLD EMBD

CYYC;2007-08-23 19:49;CYYC 231949Z 06007KT 15SM FEW009 FEW024 OVC051 11/ RMK SF1SC1SC7 SH E + N / SF TR

CYYC;2007-08-23 20:00;CYYC 232000Z 04006KT 20SM FEW009 FEW024 OVC051 12/10 A3004 RMK SF1SC1SC7 SH E + NE / SF TR SLP187

CYYC;2007-08-23 21:00;CYYC 232100Z 34006KT 20SM FEW008 FEW024 OVC053 11/08 A3005 RMK SF1SC2SC6 SH E + SW + NW / SF TR SLP193

CYYC;2007-08-23 22:00;CYYC 232200Z 34005KT 20SM FEW023 BKN063 OVC074 11/09 A3005 RMK CU2SC4AC2 SH E + SE-SW SLP191

CYYC;2007-08-23 23:00;CYYC 232300Z 00000KT 20SM FEW015 FEW023 SCT074 BKN093 12/08 A3005 RMK CU1SC1AC2AC3 SLP191

CYYC;2007-08-24 00:00;CYYC 240000Z CCA 25004KT 30SM FEW022 FEW078 BKN120 BKN200 13/08 A3005 RMK CU1AC2AC3CI1 CB N SLP189

CYYC;2007-08-24 01:00;CYYC 240100Z 00000KT 30SM FEW024 SCT058 BKN120 BKN210 13/07 A3005 RMK CU2SC2AC2CI1 TCU ASOCTD SLP190

CYYC;2007-08-24 02:00;CYYC 240200Z 36006KT 20SM FEW030 BKN050 BKN110 12/09 A3005 RMK SC2SC2AC2 SLP189

CYYC;2007-08-24 03:00;CYYC 240300Z 34004KT 20SM FEW030 SCT050 BKN130 10/09 A3005 RMK SC2SC2AC2 SLP192

CYYC;2007-08-24 04:00;CYYC 240400Z 00000KT 15SM FEW040 BKN130 10/08 A3005 RMK SC2AC2 SLP192

CYYC;2007-08-24 05:00;CYYC 240500Z 28002KT 15SM FEW060 FEW110 09/07 A3006 RMK SC1AC1 SLP194

CYYC;2007-08-24 06:00;CYYC 240600Z 02002KT 15SM SCT120 07/06 A3005 RMK AC2 SLP198

CYYC;2007-08-24 07:00;CYYC 240700Z 32002KT 15SM FEW100 07/06 A3005 RMK AC1 SLP198

CYYC;2007-08-24 08:00;CYYC 240800Z 17002KT 15SM FEW100 06/06 A3004 RMK AC1 SLP195

CYYC;2007-08-24 09:00;CYYC 240900Z 21004KT 15SM FEW130 06/05 A3004 RMK AC1 AC TR SLP196

CYYC;2007-08-24 10:00;CYYC 241000Z 20003KT 15SM FEW130 05/05 A3003 RMK AC1 AC TR SLP194

CYYC;2007-08-24 11:00;CYYC 241100Z 00000KT 15SM FEW130 05/05 A3003 RMK AC1 AC TR SLP193

CYYC;2007-08-24 12:00;CYYC 241200Z 00000KT 15SM FEW130 05/05 A3002 RMK AC1 SLP187

CYYC;2007-08-24 13:00;CYYC 241300Z 20002KT 30SM FEW130 FEW260 04/04 A3002 RMK AC1CI0 AC TR SLP185

CYYC;2007-08-24 14:00;CYYC 241400Z 00000KT 40SM FEW130 BKN260 07/06 A3001 RMK AC1CI1 SLP184

CYYC;2007-08-24 15:00;CYYC 241500Z 18003KT 40SM SCT260 09/07 A3002 RMK CI1 SLP184

CYYC;2007-08-24 16:00;CYYC 241600Z 22005KT 40SM SCT260 12/07 A3000 RMK CI0 SLP180

CYYC;2007-08-24 17:00;CYYC 241700Z 18004KT 40SM FEW050 SCT260 15/07 A3000 RMK CU1CI0 SLP178

CYYC;2007-08-24 18:00;CYYC 241800Z 19007KT 40SM FEW050 BKN260 17/08 A2999 RMK CU1CI0 SLP167

CYYC;2007-08-24 19:00;CYYC 241900Z 18006KT 40SM FEW050 BKN260 18/06 A2997 RMK CU1CI2 SLP163

CYYC;2007-08-24 20:00;CYYC 242000Z 18005KT 40SM FEW058 FEW160 BKN260 19/06 A2996 RMK CU1AC1CI2 SLP159

CYYC;2007-08-24 21:00;CYYC 242100Z 16005KT 40SM FEW058 FEW160 BKN260 21/05 A2995 RMK CU1AC1CI2 SLP151

CYYC;2007-08-24 22:00;CYYC 242200Z 12004KT 40SM FEW068 FEW160 BKN260 21/04 A2994 RMK CU1AC1CI2 SLP147

CYYC;2007-08-24 23:00;CYYC 242300Z 27002KT 40SM FEW064 FEW150 SCT260 21/06 A2992 RMK CU1AC1CI1 SLP143

CYYC;2007-08-25 00:00;CYYC 250000Z 14004KT 40SM FEW064 FEW150 FEW260 21/05 A2990 RMK CU1AC1CI1 SLP135

CYYC;2007-08-25 01:00;CYYC 250100Z 13007KT 40SM FEW055 FEW160 FEW250 20/05 A2990 RMK CU1AC1CI1 SLP133

CYYC;2007-08-25 02:00;CYYC 250200Z 14007KT 30SM FEW065 FEW140 FEW250 19/04 A2988 RMK SC1AC1CI1 AC+CI TR SLP129

CYYC;2007-08-25 03:00;CYYC 250300Z 14007KT 30SM FEW065 FEW140 FEW250 15/05 A2988 RMK SC1AC1CI0 SC+AC TR SLP131

CYYC;2007-08-25 04:00;CYYC 250400Z 16006KT 15SM FEW140 FEW250 14/05 A2987 RMK AC1CI0 SLP129

CYYC;2007-08-25 05:00;CYYC 250500Z 18006KT 15SM FEW240 15/04 A2985 RMK CI1 SLP123

CYYC;2007-08-25 06:00;CYYC 250600Z 18008KT 15SM FEW240 14/05 A2983 RMK CI1 SLP102

CYYC;2007-08-25 07:00;CYYC 250700Z 18007KT 15SM FEW220 13/06 A2981 RMK CI2 SLP097

CYYC;2007-08-25 08:00;CYYC 250800Z 18007KT 15SM FEW240 11/06 A2978 RMK CI2 SLP087

CYYC;2007-08-25 09:00;CYYC 250900Z 18004KT 15SM FEW240 10/06 A2976 RMK CI2 SLP080

CYYC;2007-08-25 10:00;CYYC 251000Z 21006KT 15SM SCT220 09/06 A2973 RMK CI2 SLP072

CYYC;2007-08-25 11:00;CYYC 251100Z 20007KT 15SM SCT220 10/06 A2971 RMK CI2 SLP066

CYYC;2007-08-25 12:00;CYYC 251200Z 19006KT 15SM BKN220 11/05 A2970 RMK CI3 SLP055

CYYC;2007-08-25 13:00;CYYC 251300Z 21008KT 40SM FEW050 FEW140 BKN220 11/06 A2969 RMK SC1AC1CI5 SLP053

CYYC;2007-08-25 14:00;CYYC 251400Z 21008KT 40SM FEW080 FEW160 BKN250 BKN270 12/06 A2968 RMK AC1AC1CI7CI1 SLP050

CYYC;2007-08-25 15:00;CYYC 251500Z 21009KT 40SM FEW080 FEW160 BKN230 BKN270 13/06 A2967 RMK AC1AC1CI7CI1 SLP053

CYYC;2007-08-25 16:00;CYYC 251600Z 21005KT 40SM FEW080 FEW160 BKN190 BKN240 14/06 A2967 RMK AC1AC1AC5CI2 SLP053

CYYC;2007-08-25 17:00;CYYC 251700Z 22007KT 40SM FEW080 FEW160 SCT190 BKN240 20/08 A2967 RMK AC1AC1AC2CI0 SLP052

CYYC;2007-08-25 18:00;CYYC 251800Z 01014KT 40SM FEW110 FEW180 BKN240 19/09 A2968 RMK AC1AC1CI4 SLP050

CYYC;2007-08-25 19:00;CYYC 251900Z 03012KT 40SM FEW110 BKN220 18/09 A2967 RMK AC2CI1 SLP047

CYYC;2007-08-25 20:00;CYYC 252000Z 02012G17KT 30SM FEW110 BKN240 20/08 A2967 RMK AC2CI0 SLP047

CYYC;2007-08-25 21:00;CYYC 252100Z 01017KT 30SM FEW110 BKN140 BKN240 19/09 A2968 RMK AC1AC3CI1 SLP056

CYYC;2007-08-25 22:00;CYYC 252200Z 01016KT 30SM BKN120 BKN240 18/09 A2970 RMK AC4CI0 SLP060

CYYC;2007-08-25 23:00;CYYC 252300Z CCA 02013KT 30SM SCT110 BKN240 17/08 A2971 RMK AC3CI1 SLP064

CYYC;2007-08-26 00:00;CYYC 260000Z 03012KT 30SM FEW040 FEW110 BKN240 18/08 A2972 RMK SC1AC1CI2 SLP066

CYYC;2007-08-26 01:00;CYYC 260100Z 01012KT 30SM FEW040 SCT110 BKN230 16/08 A2973 RMK SC1AC2CI2 SLP071

CYYC;2007-08-26 02:00;CYYC 260200Z 02009KT 20SM FEW040 BKN100 OVC210 16/09 A2976 RMK SC2AC6CI1 SH DIST SE SLP079

CYYC;2007-08-26 03:00;CYYC 260300Z 35007KT 15SM FEW050 BKN084 OVC180 13/08 A2979 RMK SC2AC5AC2 SH DIST SE SLP095

CYYC;2007-08-26 04:00;CYYC 260400Z 34003KT 15SM FEW053 BKN085 OVC100 12/09 A2979 RMK SC2AC4AC2 SLP096

CYYC;2007-08-26 05:00;CYYC 260500Z 32004KT 15SM FEW060 BKN089 OVC100 12/08 A2980 RMK SC1AC5AC2 SLP099

CYYC;2007-08-26 05:46;CYYC 260546Z 01016KT 12SM -RA FEW020 BKN040 OVC068 11/ RMK SF1SC4AC3

CYYC;2007-08-26 06:00;CYYC 260600Z 01011G19KT 10SM -RA FEW020 BKN058 OVC070 10/08 A2984 RMK SC2SC6AC1 SLP108

CYYC;2007-08-26 07:00;CYYC 260700Z 02004KT 10SM -RA BKN046 OVC060 09/08 A2985 RMK SC6SC2 SLP113

CYYC;2007-08-26 08:00;CYYC 260800Z 00000KT 12SM -RA OVC049 09/08 A2985 RMK SC8 SLP112

CYYC;2007-08-26 09:00;CYYC 260900Z 17003KT 15SM -RA FEW063 OVC086 09/08 A2985 RMK SC2AC6 SLP114

CYYC;2007-08-26 10:00;CYYC 261000Z 17004KT 12SM -RA FEW040 BKN054 OVC077 09/08 A2985 RMK SC1SC5AC2 SLP113

CYYC;2007-08-26 11:00;CYYC 261100Z 22004KT 12SM -RA FEW035 BKN072 OVC110 09/08 A2985 RMK SC2AC4AC2 SLP113

CYYC;2007-08-26 12:00;CYYC 261200Z 24003KT 15SM -RA SCT038 BKN060 OVC140 09/08 A2984 RMK SC3SC2AC2 RA VRY LGT SLP111

CYYC;2007-08-26 12:24;CYYC 261224Z 27003KT 15SM BKN040 OVC100 09/ RMK SC6AC2

CYYC;2007-08-26 13:00;CYYC 261300Z 25003KT 20SM BKN034 OVC100 09/08 A2983 RMK SC5AC3 SLP109

CYYC;2007-08-26 13:28;CYYC 261328Z 23005KT 20SM -RA BKN034 OVC100 09/ RMK SC7AC1

CYYC;2007-08-26 14:00;CYYC 261400Z 21003KT 20SM -RA FEW020 OVC035 10/08 A2983 RMK SC1SC8 SLP107

CYYC;2007-08-26 15:00;CYYC 261500Z 00000KT 20SM -RA FEW014 OVC038 10/08 A2983 RMK SC1SC8 SLP114

CYYC;2007-08-26 15:53;CYYC 261553Z 12004KT 20SM -RA BKN014 OVC038 10/ RMK SC7SC1

CYYC;2007-08-26 16:00;CYYC 261600Z 12003KT 6SM -RA BKN014 OVC038 10/08 A2983 RMK SC7SC1 SLP114

CYYC;2007-08-26 16:51;CYYC 261651Z 13005KT 4SM -RA SCT004 OVC012 10/ RMK SC3SC5

CYYC;2007-08-26 17:00;CYYC 261700Z 12003KT 4SM -RA BKN004 OVC012 09/09 A2983 RMK SC4SC4 SLP114

CYYC;2007-08-26 18:00;CYYC 261800Z 06005KT 4SM -RA BKN004 OVC012 10/09 A2983 RERA RMK SC4SC4 SLP117

CYYC;2007-08-26 19:00;CYYC 261900Z 04010KT 4SM RA SCT004 BKN012 OVC030 09/09 A2984 RMK SC2SC4SC2 SLP122

CYYC;2007-08-26 19:41;CYYC 261941Z 04010KT 4SM -RA FEW004 BKN012 OVC040 10/ RERA RMK SC1SC2SC5

CYYC;2007-08-26 20:00;CYYC 262000Z 03009KT 7SM -RA FEW004 BKN012 OVC040 10/09 A2985 RERA RMK SC1SC2SC5 SLP126

CYYC;2007-08-26 21:00;CYYC 262100Z 34010KT 8SM -RA FEW004 BKN010 OVC040 10/09 A2987 RMK SC1SC3SC5 SLP134

CYYC;2007-08-26 22:00;CYYC 262200Z 36009KT 20SM -RA FEW006 BKN010 BKN050 10/09 A2988 RMK SC1SC3SC4 SLP137

CYYC;2007-08-26 22:34;CYYC 262234Z 02012KT 20SM FEW006 SCT010 OVC050 10/ RMK SC1SC2SC6

CYYC;2007-08-26 23:00;CYYC 262300Z 36011G16KT 20SM -RA FEW006 BKN010 OVC040 10/08 A2990 RMK SC1SC4SC4 SLP143

CYYC;2007-08-26 23:41;CYYC 262341Z 01011KT 20SM -RA FEW006 BKN012 OVC035 09/ RMK SC1SC5SC3

CYYC;2007-08-27 00:00;CYYC 270000Z 03011KT 20SM -RA FEW006 BKN012 OVC030 09/08 A2992 RMK SC1SC5SC3 SLP154

CYYC;2007-08-27 00:29;CYYC 270029Z 03012KT 20SM FEW006 BKN016 BKN027 09/ RMK SC1SC2SC5

CYYC;2007-08-27 01:00;CYYC 270100Z 03009KT 20SM FEW006 BKN020 OVC028 09/06 A2994 RMK SC1SC6SC2 SLP160

CYYC;2007-08-27 02:00;CYYC 270200Z 03008KT 15SM FEW010 BKN020 OVC030 09/07 A2996 RMK SC1SC3SC4 SLP166

CYYC;2007-08-27 03:00;CYYC 270300Z 02007KT 15SM -RA FEW020 OVC030 08/06 A2997 RMK SC2SC6 SLP170

CYYC;2007-08-27 03:38;CYYC 270338Z 03006KT 15SM FEW010 OVC035 08/ RMK SC1SC7

CYYC;2007-08-27 04:00;CYYC 270400Z 04004KT 15SM FEW010 OVC035 08/07 A2999 RMK SC1SC7 SLP175

CYYC;2007-08-27 05:00;CYYC 270500Z 03005KT 15SM FEW015 FEW025 OVC035 08/07 A2999 RMK SC1SC1SC6 SLP177

CYYC;2007-08-27 06:00;CYYC 270600Z CCA 03003KT 15SM FEW010 FEW025 BKN040 OVC070 08/07 A3000 RMK SC1SC1SC6AC1 SLP182

CYYC;2007-08-27 07:00;CYYC 270700Z 00000KT 15SM FEW025 OVC040 07/07 A3001 RMK SC1SC7 SLP184

CYYC;2007-08-27 08:00;CYYC 270800Z 05002KT 15SM FEW015 BKN040 OVC050 07/07 A3000 RMK SC2SC5SC2 SLP182

CYYC;2007-08-27 09:00;CYYC 270900Z 08002KT 15SM FEW015 OVC040 07/07 A3001 RMK SC1SC8 SLP183

CYYC;2007-08-27 10:00;CYYC 271000Z 04004KT 15SM FEW010 FEW020 OVC030 07/07 A3001 RMK SC1SC1SC7 VIRGA SLP184

CYYC;2007-08-27 11:00;CYYC 271100Z 05004KT 15SM -RA FEW010 FEW020 OVC030 07/07 A3001 RMK SC1SC1SC7 SLP185

CYYC;2007-08-27 11:45;CYYC 271145Z 04004KT 2 1/2SM -RA BR FEW007 BKN015 OVC030 07/ RMK SC1SC5SC2

CYYC;2007-08-27 12:00;CYYC 271200Z 04004KT 2SM -RA BR SCT007 OVC015 07/07 A3002 RMK ST3SC5 SLP191

CYYC;2007-08-27 13:00;CYYC 271300Z 04004KT 3SM -RA BR SCT005 OVC012 07/07 A3003 RMK SC3SC5 SLP193

CYYC;2007-08-27 13:20;CYYC 271320Z 04004KT 2 1/2SM -RA BR BKN006 OVC012 07/ RMK SC7SC1

CYYC;2007-08-27 14:00;CYYC 271400Z 04005KT 2 1/2SM -RA BR BKN005 OVC012 07/07 A3004 RMK SC6SC2 SLP197

CYYC;2007-08-27 14:50;CYYC 271450Z 03008KT 3SM -RA BR BKN005 OVC012 07/ RMK SC6SC2

CYYC;2007-08-27 15:00;CYYC 271500Z 04007KT 3SM -RA BR BKN005 OVC010 07/07 A3006 RMK SC6SC2 SLP204

CYYC;2007-08-27 16:00;CYYC 271600Z 01007KT 4SM -RA BR BKN005 OVC012 08/07 A3006 RMK SC6SC2 SLP204

CYYC;2007-08-27 17:00;CYYC 271700Z 36015KT 4SM RA BR BKN005 BKN012 OVC035 06/06 A3009 RMK SC4SC2SC2 SLP214

CYYC;2007-08-27 17:27;CYYC 271727Z 36012G17KT 15SM -RA SCT005 BKN012 OVC035 06/ RERA RMK SC2SC3SC2

CYYC;2007-08-27 18:00;CYYC 271800Z 36013KT 15SM -RA BKN013 OVC035 07/06 A3010 RERA RMK SC5SC3 SLP220

CYYC;2007-08-27 18:37;CYYC 271837Z 35010G15KT 20SM BKN013 OVC035 07/ RMK SC6SC2

CYYC;2007-08-27 19:00;CYYC 271900Z 36014KT 20SM BKN014 BKN035 08/06 A3010 RMK SC6SC0 SLP220

CYYC;2007-08-27 19:33;CYYC 271933Z CCA 36011KT 20SM BKN016 BKN050 09/ RMK SC5SC1

CYYC;2007-08-27 20:00;CYYC 272000Z 33011KT 20SM BKN018 BKN050 09/05 A3011 RMK SC6SC1 SLP222

CYYC;2007-08-27 21:00;CYYC 272100Z 35008KT 20SM BKN022 BKN050 09/05 A3010 RMK SC6SC1 SLP218

CYYC;2007-08-27 22:00;CYYC 272200Z 32008KT 20SM SCT024 BKN036 BKN050 10/04 A3011 RMK SC3SC4SC1 SLP220

CYYC;2007-08-27 23:00;CYYC 272300Z 34009KT 20SM FEW030 FEW150 BKN260 11/04 A3011 RMK SC2AC1CI1 SLP219

CYYC;2007-08-28 00:00;CYYC 280000Z 31004KT 20SM FEW030 FEW150 BKN260 12/03 A3011 RMK SC2AC1CI0 SLP219

CYYC;2007-08-28 01:00;CYYC 280100Z 36007KT 20SM FEW036 FEW089 FEW150 11/04 A3012 RMK SC1AC0AC1 SLP222

CYYC;2007-08-28 02:00;CYYC 280200Z 01002KT 25SM FEW040 FEW090 FEW150 10/04 A3013 RMK SC1AC1AC0 CB ASOCTD S SLP225

CYYC;2007-08-28 03:00;CYYC 280300Z 05002KT 20SM FEW040 FEW090 07/03 A3015 RMK SC1AC1 SLP238

CYYC;2007-08-28 04:00;CYYC 280400Z 00000KT 15SM FEW050 FEW090 07/03 A3016 RMK SC1AC1 AC TR SLP241

CYYC;2007-08-28 05:00;CYYC 280500Z 20002KT 15SM FEW050 07/03 A3017 RMK SC1 SLP242

CYYC;2007-08-28 06:00;CYYC 280600Z 00000KT 15SM FEW080 06/04 A3018 RMK AC1 SLP250

CYYC;2007-08-28 07:00;CYYC 280700Z 29002KT 15SM FEW080 05/03 A3018 RMK AC1 SLP249

CYYC;2007-08-28 08:00;CYYC 280800Z 00000KT 15SM FEW076 02/01 A3017 RMK AC1 SLP248

CYYC;2007-08-28 09:00;CYYC 280900Z 19004KT 15SM FEW076 03/02 A3017 RMK AC1 SLP246

CYYC;2007-08-28 10:00;CYYC 281000Z 33002KT 10SM SKC 02/01 A3017 RMK SLP247

CYYC;2007-08-28 11:00;CYYC 281100Z 00000KT 15SM SKC 03/02 A3017 RMK SLP247

CYYC;2007-08-28 12:00;CYYC 281200Z 20003KT 10SM FEW080 01/00 A3017 RMK AC1 SLP247

CYYC;2007-08-28 13:00;CYYC 281300Z 22002KT 40SM FEW080 02/01 A3018 RMK AC1 BCFG DSTN SW SLP249

CYYC;2007-08-28 14:00;CYYC 281400Z 33002KT 40SM FEW140 03/03 A3019 RMK AC1 FG BANK SW SLP253

CYYC;2007-08-28 15:00;CYYC 281500Z 00000KT 40SM FEW140 FEW240 07/04 A3020 RMK AC1CI1 SLP256

CYYC;2007-08-28 16:00;CYYC 281600Z 36003KT 40SM FEW080 FEW160 FEW260 10/06 A3020 RMK AC1AC1CI0 SLP256

CYYC;2007-08-28 17:00;CYYC 281700Z 17002KT 40SM FEW030 FEW080 FEW200 FEW260 12/06 A3020 RMK CU1AC1CI1CI0 SLP254

CYYC;2007-08-28 18:00;CYYC 281800Z 15005KT 40SM FEW033 FEW200 FEW260 13/04 A3020 RMK CU1CI1CI0 SLP247

CYYC;2007-08-28 19:00;CYYC 281900Z 12003KT 40SM FEW037 FEW200 FEW260 14/05 A3019 RMK CU1CI1CI0 SLP245

CYYC;2007-08-28 20:00;CYYC 282000Z 11004KT 40SM FEW040 FEW090 FEW200 15/05 A3018 RMK CU1AC1CI1 SLP243

CYYC;2007-08-28 21:00;CYYC 282100Z 05004KT 40SM FEW048 FEW100 BKN210 16/05 A3017 RMK CU1AC1CI1 AC TR SLP236

CYYC;2007-08-28 22:00;CYYC 282200Z 14007KT 40SM FEW056 FEW100 BKN210 18/03 A3016 RMK CU1AC1CI1 AC TR SLP234

CYYC;2007-08-28 23:00;CYYC 282300Z CCA 09004KT 40SM FEW060 FEW100 BKN200 16/03 A3015 RMK CU1AC1CI4 SLP232

CYYC;2007-08-29 00:00;CYYC 290000Z 09007KT 30SM FEW060 FEW100 BKN200 17/03 A3014 RMK CU1AC1CI2 SLP229

CYYC;2007-08-29 01:00;CYYC 290100Z 10007KT 30SM FEW060 FEW100 FEW190 BKN220 17/03 A3014 RMK CU1AC1AC1CI1 SLP229

CYYC;2007-08-29 02:00;CYYC 290200Z 11005KT 30SM FEW060 BKN090 BKN220 14/05 A3015 RMK SC1AC4CI1 SLP232

CYYC;2007-08-29 03:00;CYYC 290300Z 12007KT 15SM FEW065 OVC110 12/05 A3016 RMK SC1AC6 SLP236

CYYC;2007-08-29 04:00;CYYC 290400Z 13005KT 15SM OVC090 13/06 A3016 RMK AC7 SLP236

CYYC;2007-08-29 05:00;CYYC 290500Z 14007KT 15SM BKN081 OVC110 13/05 A3016 RMK AC6AC2 SLP235

CYYC;2007-08-29 06:00;CYYC 290600Z 17005KT 15SM FEW075 OVC097 11/06 A3016 RMK AC1AC7 SLP227

CYYC;2007-08-29 07:00;CYYC 290700Z 16003KT 15SM SCT090 11/05 A3015 RMK AC3 SLP225

CYYC;2007-08-29 08:00;CYYC 290800Z 00000KT 15SM SCT090 10/05 A3014 RMK AC2 SLP222

CYYC;2007-08-29 09:00;CYYC 290900Z 16006KT 15SM FEW090 SCT230 09/05 A3013 RMK AC2CI0 SLP214

CYYC;2007-08-29 10:00;CYYC 291000Z 17004KT 15SM FEW090 SCT230 09/04 A3011 RMK AC2CI0 SLP210

CYYC;2007-08-29 11:00;CYYC 291100Z 18003KT 15SM FEW090 FEW250 08/05 A3010 RMK AC1CI1 AC TR SLP206

CYYC;2007-08-29 12:00;CYYC 291200Z 20006KT 15SM FEW100 FEW250 06/05 A3010 RMK AC1CI1 AC TR SLP206

CYYC;2007-08-29 13:00;CYYC 291300Z 21005KT 30SM FEW060 FEW100 BKN250 06/04 A3009 RMK SC1AC1CI1 SLP203

CYYC;2007-08-29 14:00;CYYC 291400Z 00000KT 30SM FEW020 BKN140 BKN240 09/06 A3009 RMK SC1AS7CI1 SC+CI T/AC ASOCTD SLP205

CYYC;2007-08-29 15:00;CYYC 291500Z 19004KT 40SM FEW030 SCT120 BKN140 BKN240 12/07 A3010 RMK SC1AS4AS2CI1 SC TR/ACSL+ CF ASOCTD SLP206

CYYC;2007-08-29 16:00;CYYC 291600Z 22005KT 40SM FEW040 FEW100 FEW120 BKN200 BKN220 14/06 A3009 RMK SC1AS1AS1CI3CI2 SC TR SLP203

CYYC;2007-08-29 17:00;CYYC 291700Z 23004KT 40SM FEW040 FEW100 BKN200 BKN230 16/08 A3009 RMK SC1AS1CI4CI2 SC TR SLP202

CYYC;2007-08-29 18:00;CYYC 291800Z 21005KT 40SM FEW050 FEW160 BKN200 BKN230 BKN240 20/08 A3009 RMK SC1AS1CI4CI2CI1 SC + HI CI TR SLP195

CYYC;2007-08-29 19:00;CYYC 291900Z 20006KT 40SM FEW052 FEW150 FEW170 SCT200 BKN230 20/08 A3009 RMK SC1AS1AS1CI2CI2 SC TR/CU ASOCTD SLP195

CYYC;2007-08-29 20:00;CYYC 292000Z 21005KT 40SM FEW052 FEW140 SCT160 BKN190 BKN230 21/06 A3008 RMK CU1AS2AS2AS2CI2 CU TR SLP192

CYYC;2007-08-29 21:00;CYYC 292100Z 20006KT 40SM FEW060 FEW160 SCT180 BKN210 22/08 A3008 RMK CU1AC2AS2CI4 CU TR SLP189

CYYC;2007-08-29 22:00;CYYC 292200Z 25005KT 40SM FEW060 FEW140 SCT160 BKN190 BKN220 BKN240 23/08 A3007 RMK CU1AC2AS2AS2CI2CI0 CU TR SLP186

CYYC;2007-08-29 23:00;CYYC 292300Z 27002KT 40SM FEW065 FEW140 SCT190 BKN200 BKN260 24/07 A3006 RMK CU1AC2AS2CI3CI0 SLP185

CYYC;2007-08-30 00:00;CYYC 300000Z 20002KT 40SM FEW065 FEW180 FEW200 FEW240 24/07 A3006 RMK CU1AS1CI1CI0 CU TR SLP181

CYYC;2007-08-30 01:00;CYYC 300100Z 17003KT 40SM FEW060 FEW240 24/07 A3006 RMK CU1CI1 SLP181

CYYC;2007-08-30 02:00;CYYC 300200Z 13005KT 40SM FEW050 FEW230 20/09 A3006 RMK CU1CI1 CLDS TR SLP182

CYYC;2007-08-30 03:00;CYYC 300300Z 14005KT 30SM FEW060 19/08 A3007 RMK CU1 CU TR SLP185

CYYC;2007-08-30 04:00;CYYC 300400Z 10002KT 15SM SKC 16/09 A3008 RMK SLP188

CYYC;2007-08-30 05:00;CYYC 300500Z 18002KT 15SM SKC 16/09 A3008 RMK SLP189

CYYC;2007-08-30 06:00;CYYC 300600Z 12006KT 15SM SKC 15/08 A3008 RMK SLP185

CYYC;2007-08-30 07:00;CYYC 300700Z 19005KT 15SM SKC 12/08 A3008 RMK SLP185

CYYC;2007-08-30 08:00;CYYC 300800Z 28002KT 15SM SKC 10/08 A3007 RMK SLP183

CYYC;2007-08-30 09:00;CYYC 300900Z 30003KT 15SM SKC 09/07 A3007 RMK SLP186

CYYC;2007-08-30 10:00;CYYC 301000Z 22002KT 15SM SKC 09/07 A3007 RMK SLP185

CYYC;2007-08-30 11:00;CYYC 301100Z 19004KT 15SM SKC 08/06 A3006 RMK SLP184

CYYC;2007-08-30 12:00;CYYC 301200Z 00000KT 15SM FEW140 09/06 A3006 RMK AC1 AC TR SLP180

CYYC;2007-08-30 13:00;CYYC 301300Z 26002KT 40SM FEW160 09/06 A3006 RMK AC1 AC TR SLP178

CYYC;2007-08-30 14:00;CYYC 301400Z 30002KT 40SM FEW160 FEW240 10/07 A3006 RMK AC1CI1 FU DIST SW SLP178

CYYC;2007-08-30 15:00;CYYC 301500Z 00000KT 40SM FEW110 FEW250 14/09 A3004 RMK AC1CI1 FU DIST SW SLP174

CYYC;2007-08-30 16:00;CYYC 301600Z 18002KT 40SM FEW032 FEW110 FEW240 17/09 A3005 RMK CU1AC1CI1 CU+CI TR SLP175

CYYC;2007-08-30 17:00;CYYC 301700Z 16003KT 40SM FEW110 FEW240 20/10 A3003 RMK AC1CI0 SLP169

CYYC;2007-08-30 18:00;CYYC 301800Z 18005KT 40SM FEW056 FEW110 SCT250 23/09 A3003 RMK CU1AC1CI2 CU TR SLP162

CYYC;2007-08-30 18:12;CYYC 301812Z CCA 20004KT 40SM FEW052 FEW110 SCT200 BKN230 23/ RMK CU1AC1CI2CI3 DIST SH SE/CLDS DVLPNG RPDLY

CYYC;2007-08-30 19:00;CYYC 301900Z 17005KT 40SM FEW056 FEW150 FEW180 SCT200 BKN240 23/09 A2999 RMK CU1AC1AC1CI2CI2 HZ/CU TR SLP151

CYYC;2007-08-30 20:00;CYYC 302000Z 19005KT 40SM FEW056 FEW065 SCT140 BKN200 24/11 A2998 RMK CU1SC1AC2CI4 DIST SH E-S/HZ/ACSL ASOCTD/CU TR SLP147

CYYC;2007-08-30 21:00;CYYC 302100Z CCA 16010KT 40SM FEW060 FEW120 FEW170 BKN220 25/09 A2995 RMK CU1AC1AC2CI5 DIST SH SE+SW/CU TR SLP141

CYYC;2007-08-30 22:00;CYYC 302200Z 18010KT 40SM FEW065 FEW140 BKN200 25/08 A2995 RMK CU1AC1CI6 DIST SH SE+SW-W/ACSL ASOCTD/CU TR SLP139

CYYC;2007-08-30 23:00;CYYC 302300Z 14004KT 40SM FEW060 FEW140 FEW180 OVC210 25/10 A2992 RMK CU1AC1AS1CI6 DIST SH E-S/CU TR SLP131

CYYC;2007-08-31 00:00;CYYC 310000Z 20005KT 40SM VCSH FEW048 FEW180 BKN210 24/12 A2991 RMK CU1AC1CI6 SH SE/CU TR SLP128

CYYC;2007-08-31 01:00;CYYC 310100Z 21005KT 40SM VCSH FEW044 BKN200 BKN230 24/12 A2990 RMK CU1CI6CI2 SH NE-SE/CU TR SLP127

CYYC;2007-08-31 02:00;CYYC 310200Z 20006KT 40SM FEW060 FEW100 FEW250 22/11 A2990 RMK SC1AC1CI1 CU+AC TR SLP126

CYYC;2007-08-31 03:00;CYYC 310300Z 19006KT 20SM FEW060 FEW250 19/11 A2990 RMK SC1CI1 CLDS TR SLP126

CYYC;2007-08-31 04:00;CYYC 310400Z 21007KT 15SM FEW240 17/10 A2991 RMK CI1 CI TR SLP128

CYYC;2007-08-31 05:00;CYYC 310500Z 22007KT 15SM FEW160 16/09 A2991 RMK AC1 AC TR SLP128

CYYC;2007-08-31 06:00;CYYC 310600Z 23006KT 15SM SKC 15/08 A2991 RMK SLP121

CYYC;2007-08-31 07:00;CYYC 310700Z 21008KT 15SM SKC 14/09 A2991 RMK SLP121

CYYC;2007-08-31 08:00;CYYC 310800Z 22008KT 15SM SKC 13/08 A2991 RMK SLP121

CYYC;2007-08-31 09:00;CYYC 310900Z 21004KT 15SM FEW230 14/08 A2990 RMK CI1 CI TR SLP116

CYYC;2007-08-31 10:00;CYYC 311000Z 18005KT 15SM FEW230 13/07 A2989 RMK CI1 CI TR SLP114

CYYC;2007-08-31 11:00;CYYC 311100Z 21006KT 15SM BKN160 OVC230 15/08 A2990 RMK AC5CI2 SLP116

CYYC;2007-08-31 12:00;CYYC 311200Z 20007KT 15SM SCT160 OVC230 15/08 A2990 RMK AC3CI3 SLP117

CYYC;2007-08-31 13:00;CYYC 311300Z 03003KT 20SM SCT140 BKN230 16/08 A2990 RMK AC3CI2 SLP116

CYYC;2007-08-31 14:00;CYYC 311400Z 35010G16KT 30SM FEW020 FEW190 FEW230 BKN260 12/10 A2994 RMK SC1AC1CI1CI5 CU+CF ASOCTD SLP128

CYYC;2007-08-31 15:00;CYYC 311500Z 35009KT 40SM FEW020 FEW140 BKN260 13/11 A2995 RMK CU1AC1CI5 CF ASOCTD/CU TR SLP143

CYYC;2007-08-31 16:00;CYYC 311600Z 01007KT 40SM VCSH FEW012 FEW160 FEW200 SCT250 15/11 A2995 RMK CU1AC1CI1CI1 SH NE-SE/CU TR/SC ASOCTD SLP142

CYYC;2007-08-31 17:00;CYYC 311700Z 01009KT 40SM FEW020 BKN180 BKN210 18/12 A2992 RMK SC1AC5CI2 DIST SH NE/SC TR/CF ASOCTD SLP134

CYYC;2007-08-31 18:00;CYYC 311800Z 01007KT 40SM FEW024 FEW160 18/12 A2993 RMK CU1AC2 CU TR SLP135

CYYC;2007-08-31 19:00;CYYC 311900Z 06006KT 30SM FEW028 FEW160 20/13 A2990 RMK CU1AC1 CU TR SLP125

CYYC;2007-08-31 20:00;CYYC 312000Z 07007KT 30SM FEW036 FEW120 FEW250 22/13 A2987 RMK CU1AC1CI1 BAROMETER READING + 30 MIN SLP117

CYYC;2007-08-31 21:00;CYYC 312100Z 06008KT 30SM FEW032 FEW110 FEW250 23/14 A2988 RMK CU1AC2CI1 DIST SH S-SW/CU+CI TR SLP112

CYYC;2007-08-31 21:52;CYYC 312152Z 00000KT 30SM -SHRA FEW036 FEW060 BKN090 BKN200 22/ RMK CU1SC2AC4CI2 PCPN VRY LGT

CYYC;2007-08-31 22:00;CYYC 312200Z 31007KT 30SM FEW036 FEW065 BKN090 BKN200 21/13 A2990 RMK CU1SC2AC6CI1 PCPN VRY LGT/VIS SW 10/CB EMBD S SLP119

CYYC;2007-08-31 22:24;CYYC 312224Z CCD 09008KT 30SM FEW006 FEW020 FEW060CB BKN090 BKN120 19/ RERA RMK SC1CU1CB2AC2AC2 WSHFT 2210/VIS SE 10/ OCNL -SHRA/MAMMA

CYYC;2007-08-31 22:39;CYYC 312239Z 13004KT 30SM FEW007 FEW020 FEW060CB BKN090 BKN120 20/ RERA RMK SC1CU1CB2AC2AC2 DIST SH NE-W/MAMMA

CYYC;2007-08-31 22:49;CYYC 312249Z 04002KT 30SM -SHRA FEW020 FEW065CB SCT090 BKN120 21/ RMK CU1CB1AC2AC5 PCPN VRY LGT/CU TR

CYYC;2007-08-31 23:00;CYYC 312300Z 05003KT 30SM FEW020 FEW065CB BKN120 21/15 A2985 RMK CU1CB1AC6 -SHRA OCNL/CU TR SLP103

CYYC;2007-08-31 23:16;CYYC 312316Z 04006KT 40SM FEW020 FEW065CB BKN140 20/ RMK CU1CB1AC6 DIST SH NE-SE+NW/CB W

CYYC;2007-09-01 01:00;CYYC 010100Z 03009KT 40SM FEW016 BKN140 BKN150 17/13 A2984 RMK CU1AC6AC2 DIST SH N+S+NW/CU TR SLP104

CYYC;2007-09-01 02:00;CYYC 010200Z 34004KT 30SM FEW050 OVC170 16/13 A2984 RMK SC1AC6 DIST SH N SLP103

CYYC;2007-09-01 03:00;CYYC 010300Z 34006KT 20SM FEW060 BKN170 OVC220 15/13 A2983 RMK SC1AC6CI1 SLP106

CYYC;2007-09-01 04:00;CYYC 010400Z 33007KT 15SM SCT170 OVC240 14/13 A2982 RMK AC4CI3 SLP104

CYYC;2007-09-01 05:00;CYYC 010500Z 32010KT 15SM FEW170 OVC240 14/13 A2982 RMK AC1CI6 SLP105

CYYC;2007-09-01 06:00;CYYC 010600Z 34013G20KT 15SM BKN030 OVC140 15/12 A2984 RMK SC6AC1 SLP103

CYYC;2007-09-01 07:00;CYYC 010700Z 33015KT 15SM OVC062 15/10 A2988 RMK SC8 LTGIC SW-W/ CB EMBD SLP115

CYYC;2007-09-01 07:07;CYYC 010707Z 34012G19KT 15SM -SHRA OVC055 15/ RMK SC8 LTGIC SW-W/ CB EMBD

CYYC;2007-09-01 08:00;CYYC 010800Z 05003KT 15SM -SHRA FEW060 OVC130 12/11 A2985 RMK SC2AC6 SLP106

CYYC;2007-09-01 08:34;CYYC 010834Z 36006KT 15SM FEW030 SCT090 BKN240 11/ RMK SC1AC2CI2

CYYC;2007-09-01 09:00;CYYC 010900Z 35007KT 15SM FEW090 SCT250 11/10 A2987 RMK AC2CI1 SLP113

CYYC;2007-09-01 10:00;CYYC 011000Z 34006KT 15SM OVC007 11/11 A2988 RMK SC8 SLP117

CYYC;2007-09-01 10:31;CYYC 011031Z 35011KT 15SM OVC011 11/ RMK SC8

CYYC;2007-09-01 11:00;CYYC 011100Z 02005KT 15SM FEW013 BKN090 10/09 A2989 RMK SF2AC3 SLP121

CYYC;2007-09-01 12:00;CYYC 011200Z 35002KT 15SM BKN010 OVC090 10/10 A2991 RMK SC7AC1 SLP132

CYYC;2007-09-01 12:46;CYYC 011246Z 01006KT 12SM OVC006 11/ RMK ST8

CYYC;2007-09-01 13:00;CYYC 011300Z 01007KT 10SM OVC005 11/10 A2993 RMK ST8 SLP138

CYYC;2007-09-01 13:06;CYYC 011306Z CCA 01009KT 10SM -SHRA OVC005 11/ RMK ST8

CYYC;2007-09-01 14:00;CYYC 011400Z 36008KT 20SM -SHRA BKN008 BKN024 OVC120 10/10 A2996 RMK SC4SC2AC1 SLP147

CYYC;2007-09-01 15:00;CYYC 011500Z 34010KT 15SM -SHRA BKN008 BKN032 OVC120 10/10 A3000 RMK SC2SC4AC2 SLP170

CYYC;2007-09-01 15:35;CYYC 011535Z CCA 01008KT 20SM FEW008 BKN040 BKN080 11/ RMK SC2SC3AC2

CYYC;2007-09-01 16:00;CYYC 011600Z 35010KT 20SM BKN009 BKN040 BKN080 11/10 A3002 RMK SC3SC1AC1 SLP175

CYYC;2007-09-01 17:00;CYYC 011700Z 34014KT 20SM FEW009 BKN016 OVC039 12/09 A3005 RMK SC1SC6SC2 SLP186

CYYC;2007-09-01 18:00;CYYC 011800Z 01016KT 20SM FEW017 BKN051 13/09 A3007 RMK SC1SC3 SLP191

CYYC;2007-09-01 19:00;CYYC 011900Z 34011KT 20SM FEW027 FEW051 SCT210 14/08 A3008 RMK SC1SC1CI1 SLP193

CYYC;2007-09-01 20:00;CYYC 012000Z 34007G15KT 20SM FEW030 BKN230 16/08 A3008 RMK CU1CI1 SLP193

CYYC;2007-09-01 21:00;CYYC 012100Z 31007KT 20SM FEW038 FEW160 BKN240 17/08 A3009 RMK CU1AC1CI0 SLP197

CYYC;2007-09-01 22:00;CYYC 012200Z 36006KT 20SM FEW038 FEW160 SCT240 16/07 A3008 RMK CU2AC1CI0 SLP196

CYYC;2007-09-01 23:00;CYYC 012300Z 05003KT 30SM FEW038 FEW160 FEW230 18/08 A3007 RMK CU1AC1CI0 CU TR SLP193

CYYC;2007-09-02 00:00;CYYC 020000Z 06004KT 20SM FEW038 FEW160 BKN210 17/07 A3007 RMK CU1AC1CI2 SLP192

CYYC;2007-09-02 01:00;CYYC 020100Z 10004KT 20SM FEW042 FEW160 SCT210 17/07 A3007 RMK SC1AC1CI1 SLP193

CYYC;2007-09-02 02:00;CYYC 020200Z 10006KT 20SM FEW045 FEW100 SCT250 14/08 A3007 RMK SC1AC1CI1 SC TR SLP193

CYYC;2007-09-02 03:00;CYYC 020300Z 11007KT 15SM FEW045 BKN100 BKN240 12/07 A3008 RMK SC1AC2CI2 SLP204

CYYC;2007-09-02 04:00;CYYC 020400Z 11008KT 15SM FEW100 SCT240 12/07 A3007 RMK AC2CI1 SLP200

CYYC;2007-09-02 05:00;CYYC 020500Z 13006KT 15SM SCT170 BKN240 12/07 A3008 RMK AC2CI2 SLP203

CYYC;2007-09-02 06:00;CYYC 020600Z 13006KT 15SM FEW053 SCT180 11/07 A3007 RMK SC1AC2 SLP197

CYYC;2007-09-02 07:00;CYYC 020700Z 14007KT 15SM FEW050 SCT180 11/07 A3007 RMK SC2AC1 SLP196

CYYC;2007-09-02 08:00;CYYC 020800Z 15005KT 15SM FEW050 SCT170 11/07 A3006 RMK SC1AC2 SLP194

CYYC;2007-09-02 09:00;CYYC 020900Z 16007KT 15SM FEW100 FEW250 10/07 A3005 RMK AC1CI0 SLP183

CYYC;2007-09-02 10:00;CYYC 021000Z 17011KT 15SM BKN140 BKN250 11/07 A3004 RMK AC2CI2 SLP181

CYYC;2007-09-02 11:00;CYYC 021100Z 17008KT 15SM FEW140 BKN240 10/07 A3003 RMK AC1CI2 SLP177

CYYC;2007-09-02 12:00;CYYC 021200Z 20007KT 15SM FEW090 SCT140 OVC240 09/07 A3001 RMK AC1AC2CI2 SLP173

CYYC;2007-09-02 13:00;CYYC 021300Z 00000KT 25SM FEW080 FEW140 OVC220 09/07 A2999 RMK AC1AC2CI5 SLP167

CYYC;2007-09-02 14:00;CYYC 021400Z 12002KT 40SM FEW080 FEW140 BKN190 BKN240 09/08 A2998 RMK AC1AC1AC4CI0 SLP164

CYYC;2007-09-02 15:00;CYYC 021500Z 21003KT 40SM FEW080 FEW140 BKN190 BKN240 11/08 A2999 RMK AC1AC1AC1CI0 SLP169

CYYC;2007-09-02 16:00;CYYC 021600Z 20005KT 40SM FEW080 FEW140 FEW190 BKN260 13/08 A2997 RMK AC1AC1AC1CI1 SLP165

CYYC;2007-09-02 17:00;CYYC 021700Z 22009KT 40SM FEW080 FEW140 FEW200 BKN260 16/09 A2997 RMK AC1AC1CI0CI2 SLP164

CYYC;2007-09-02 18:00;CYYC 021800Z 24008KT 40SM FEW080 FEW140 BKN220 19/09 A2996 RMK AC1AC1CI4 SLP149

CYYC;2007-09-02 19:00;CYYC 021900Z 32010KT 40SM FEW080 BKN200 BKN260 22/04 A2995 RMK AC1CI3CI0 SLP145

CYYC;2007-09-02 20:00;CYYC 022000Z 30007KT 40SM FEW090 FEW200 BKN260 23/04 A2995 RMK AC1CI1CI1 SLP146

CYYC;2007-09-02 21:00;CYYC 022100Z 23002KT 40SM FEW090 FEW180 BKN260 23/02 A2995 RMK AC1AC1CI1 SLP141

CYYC;2007-09-02 22:00;CYYC 022200Z 28002KT 30SM FEW095 FEW180 BKN260 24/03 A2994 RMK AC1AC1CI1 SLP139

CYYC;2007-09-02 23:00;CYYC 022300Z 35004KT 30SM FEW095 FEW180 BKN260 23/04 A2994 RMK AC1AC1CI0 SLP138

CYYC;2007-09-03 00:00;CYYC 030000Z 00000KT 30SM FEW095 BKN180 BKN260 24/04 A2993 RMK AC1AC3CI0 SLP137

CYYC;2007-09-03 01:00;CYYC 030100Z 19005KT 30SM FEW095 BKN180 BKN260 21/07 A2993 RMK AC1AC2CI0 SLP137

CYYC;2007-09-03 02:00;CYYC 030200Z 15005KT 30SM FEW080 BKN110 BKN250 20/07 A2994 RMK AC1AC2CI2 SLP138

CYYC;2007-09-03 03:00;CYYC 030300Z 15009KT 15SM FEW080 BKN100 OVC240 19/08 A2996 RMK AC1AC5CI1 SLP148

CYYC;2007-09-03 04:00;CYYC 030400Z 16006KT 15SM FEW080 BKN120 OVC240 18/08 A2997 RMK AC1AC5CI1 SLP151

CYYC;2007-09-03 05:00;CYYC 030500Z 16004KT 15SM FEW080 BKN160 OVC220 17/09 A2996 RMK AC1AC5CI1 SLP150

CYYC;2007-09-03 06:00;CYYC 030600Z 17005KT 15SM SCT160 OVC210 16/08 A2995 RMK AC3CI3 SLP139

CYYC;2007-09-03 07:00;CYYC 030700Z 19003KT 15SM SCT110 BKN240 14/08 A2996 RMK AC2CI1 SLP142

CYYC;2007-09-03 08:00;CYYC 030800Z 00000KT 15SM FEW110 SCT240 14/08 A2995 RMK AC1CI1 SLP140

CYYC;2007-09-03 09:00;CYYC 030900Z CCA 32005KT 15SM FEW120 FEW240 10/08 A2995 RMK AC1CI1 SLP141

CYYC;2007-09-03 10:00;CYYC 031000Z 33006KT 15SM FEW099 FEW240 09/07 A2995 RMK AC1CI1 SLP142

CYYC;2007-09-03 11:00;CYYC 031100Z 36006KT 15SM FEW140 FEW240 08/06 A2995 RMK AC1CI1 SLP142

CYYC;2007-09-03 12:00;CYYC 031200Z 35005KT 15SM FEW090 SCT240 08/06 A2997 RMK AC1CI1 SLP151

CYYC;2007-09-03 13:00;CYYC 031300Z 34007KT 25SM FEW060 FEW110 BKN250 09/06 A2998 RMK SC1AC1CI2 CC ASOCTD/ SC TR SLP154

CYYC;2007-09-03 14:00;CYYC 031400Z CCA 31005KT 40SM FEW080 FEW200 BKN260 11/08 A3001 RMK AC1CI1CI0 SLP161

CYYC;2007-09-03 15:00;CYYC 031500Z 31004KT 40SM FEW080 FEW200 BKN260 15/08 A3001 RMK AC1CI1CI0 SLP161

CYYC;2007-09-03 16:00;CYYC 031600Z 36004KT 40SM FEW080 FEW150 FEW220 BKN270 17/08 A3002 RMK AC1AC1CI1CI0 SLP163

CYYC;2007-09-03 17:00;CYYC 031700Z 25002KT 40SM FEW080 FEW160 SCT220 BKN270 19/09 A3002 RMK AC1AC1CI2CI0 SLP163

CYYC;2007-09-03 18:00;CYYC 031800Z 07005KT 40SM FEW080 FEW170 SCT220 BKN270 21/07 A3001 RMK AC1AC1CI2CI0 SLP159

CYYC;2007-09-03 19:00;CYYC 031900Z 11003KT 40SM FEW080 FEW170 FEW200 BKN270 22/07 A3001 RMK AC1AC1CI1CI0 SLP157

CYYC;2007-09-03 20:00;CYYC 032000Z 11008KT 40SM FEW080 BKN160 21/08 A2999 RMK AC1AC6 SLP151

CYYC;2007-09-03 21:00;CYYC 032100Z 14006KT 40SM FEW080 SCT170 SCT220 BKN260 22/08 A2997 RMK AC1AC2CI1CS4 SLP151

CYYC;2007-09-03 22:00;CYYC 032200Z 12007KT 40SM FEW080 FEW170 BKN200 BKN250 22/08 A2995 RMK AC1AC2CI4CS2 SLP145

CYYC;2007-09-03 23:00;CYYC 032300Z 14006KT 30SM FEW080 BKN180 BKN250 22/09 A2994 RMK AC1AC4CI2 SLP141

CYYC;2007-09-04 00:00;CYYC 040000Z 09006KT 30SM FEW080 FEW170 BKN240 21/08 A2992 RMK AC1AC2CI3 SLP136

CYYC;2007-09-04 01:00;CYYC 040100Z 09004KT 30SM FEW170 BKN250 20/09 A2990 RMK AC1CI6 SLP131

CYYC;2007-09-04 02:00;CYYC 040200Z 09005KT 30SM FEW170 FEW240 OVC260 17/08 A2989 RMK AC1CC2CI4 SLP128

CYYC;2007-09-04 03:00;CYYC 040300Z 00000KT 15SM BKN250 16/09 A2990 RMK CI4 SLP125

CYYC;2007-09-04 04:00;CYYC 040400Z 03003KT 15SM SCT240 OVC260 15/09 A2989 RMK CC2CI5 SLP124

CYYC;2007-09-04 05:00;CYYC 040500Z 00000KT 15SM SCT240 OVC260 14/09 A2988 RMK CI3CI4 SLP121

CYYC;2007-09-04 06:00;CYYC 040600Z CCA 13003KT 15SM SCT240 OVC260 13/09 A2987 RMK CI3CI4 SLP112

CYYC;2007-09-04 07:00;CYYC 040700Z 00000KT 15SM OVC240 13/09 A2985 RMK CI7 SLP106

CYYC;2007-09-04 08:00;CYYC 040800Z 09004KT 15SM OVC240 12/08 A2981 RMK CI7 SLP095

CYYC;2007-09-04 09:00;CYYC 040900Z 35002KT 15SM BKN240 10/08 A2977 RMK CI5 SLP082

CYYC;2007-09-04 10:00;CYYC 041000Z 26002KT 15SM FEW210 BKN240 11/08 A2976 RMK CI1CI3 SLP079

CYYC;2007-09-04 11:00;CYYC 041100Z 22004KT 15SM FEW210 BKN240 10/08 A2975 RMK CI1CI3 SLP074

CYYC;2007-09-04 12:00;CYYC 041200Z 25002KT 15SM FEW220 BKN250 10/08 A2975 RMK CI2CI4 SLP074

CYYC;2007-09-04 13:00;CYYC 041300Z 20002KT 30SM FEW140 FEW220 BKN260 07/06 A2974 RMK AC1CI1CI0 SLP071

CYYC;2007-09-04 14:00;CYYC 041400Z 20004KT 30SM FEW140 FEW220 SCT260 09/07 A2974 RMK AC1CI1CI1 SLP073

CYYC;2007-09-04 15:00;CYYC 041500Z 36006KT 40SM FEW060 FEW140 FEW220 BKN260 13/09 A2974 RMK SC1AC1CI1CI2 SLP075

CYYC;2007-09-04 16:00;CYYC 041600Z 33015KT 40SM FEW060 FEW140 FEW240 18/10 A2976 RMK SC1AC1CI1 SLP080

CYYC;2007-09-04 17:00;CYYC 041700Z 35016G22KT 40SM FEW070 FEW160 FEW240 19/09 A2977 RMK AC1AC1CI1 SLP083

CYYC;2007-09-04 18:00;CYYC 041800Z 33015G20KT 40SM FEW060 FEW160 FEW240 21/09 A2977 RMK SC1AC1CI1 SLP079

CYYC;2007-09-04 19:00;CYYC 041900Z 36013G18KT 40SM FEW060 FEW080 FEW160 FEW240 21/10 A2977 RMK SC1AC1AC1CI1 SLP078

CYYC;2007-09-04 20:00;CYYC 042000Z 01013KT 30SM FEW060 FEW095 FEW160 BKN240 21/09 A2979 RMK SC1AC1AC1CI1 SC+ UPR AC TR SLP085

CYYC;2007-09-04 21:00;CYYC 042100Z 02009KT 30SM FEW060 FEW100 SCT240 23/10 A2980 RMK SC1AC1CI1 SLP090

CYYC;2007-09-04 22:00;CYYC 042200Z 36006KT 30SM FEW100 FEW240 23/09 A2980 RMK AC1CI1 AC TR SLP088

CYYC;2007-09-04 23:00;CYYC 042300Z 03009KT 30SM FEW057CB FEW100 23/09 A2980 RMK CB1AC1 CB DIST N SLP089

CYYC;2007-09-05 00:00;CYYC 050000Z 03005KT 30SM FEW090 22/09 A2981 RMK AC2 SLP095

CYYC;2007-09-05 01:00;CYYC 050100Z 04006KT 30SM FEW090 21/09 A2982 RMK AC2 TCU ASOCTD S SLP098

CYYC;2007-09-05 02:00;CYYC 050200Z 04006KT 25SM SCT080 18/10 A2984 RMK AC3 TCU ASOCTD NW+E SLP105

CYYC;2007-09-05 03:00;CYYC 050300Z 03009KT 15SM SCT080 16/10 A2987 RMK AC2 SLP120

CYYC;2007-09-05 04:00;CYYC 050400Z 02008KT 15SM FEW080 BKN100 14/10 A2989 RMK AC2AC2 SLP128

CYYC;2007-09-05 05:00;CYYC 050500Z 01003KT 15SM FEW060 BKN090 13/10 A2991 RMK SC2AC3 SLP134

CYYC;2007-09-05 06:00;CYYC 050600Z 34006KT 15SM SCT060 BKN100 13/10 A2994 RMK SC2AC4 SLP136

CYYC;2007-09-05 07:00;CYYC 050700Z 32004KT 15SM SCT060 BKN100 12/10 A2994 RMK SC2AC4 SLP138

CYYC;2007-09-05 08:00;CYYC 050800Z 30003KT 15SM SCT060 BKN090 12/10 A2995 RMK SC2AC4 SLP139

CYYC;2007-09-05 09:00;CYYC 050900Z 00000KT 15SM SCT070 BKN090 10/08 A2995 RMK AC2AC2 SLP142

CYYC;2007-09-05 10:00;CYYC 051000Z 00000KT 15SM BKN050 BKN080 10/08 A2995 RMK SC5AC1 SLP143

CYYC;2007-09-05 11:00;CYYC 051100Z 07002KT 15SM BKN040 10/09 A2995 RMK SC6 SLP144

CYYC;2007-09-05 12:00;CYYC 051200Z 00000KT 15SM BKN060 10/08 A2995 RMK SC5 SLP144

CYYC;2007-09-05 13:00;CYYC 051300Z 35003KT 30SM SCT052 BKN250 09/08 A2996 RMK SC2CI0 SLP145

CYYC;2007-09-05 15:00;CYYC 051500Z 33002KT 40SM FEW042 FEW200 SCT260 12/09 A2996 RMK SC1CI1CI0 HZ DIST SW SLP153

CYYC;2007-09-05 16:00;CYYC 051600Z 17004KT 40SM FEW120 FEW200 FEW240 15/10 A2994 RMK AC1CI1CI1 HZ DIST SW SLP147

CYYC;2007-09-05 17:00;CYYC 051700Z 17011KT 40SM FEW200 FEW240 17/09 A2992 RMK CI1CI0 SLP140

CYYC;2007-09-05 18:00;CYYC 051800Z 19007KT 40SM FEW220 BKN250 19/10 A2990 RMK CI2CI1 SLP126

CYYC;2007-09-05 19:00;CYYC 051900Z 21009KT 40SM FEW140 FEW220 BKN260 20/09 A2987 RMK AC1CI1CI1 SLP118

CYYC;2007-09-05 20:00;CYYC 052000Z 15005KT 40SM FEW055 FEW120 SCT250 21/08 A2985 RMK CU1AC1CI2 CU + AC TR SLP112

CYYC;2007-09-05 21:00;CYYC 052100Z 24005KT 40SM FEW056 FEW110 BKN250 22/07 A2983 RMK CU1AC1CI2 CU TR SLP101

CYYC;2007-09-05 22:00;CYYC 052200Z 17004KT 40SM FEW060 FEW140 SCT200 BKN240 23/08 A2980 RMK CU1AC2CI2CI0 CU TR SLP092

CYYC;2007-09-05 23:00;CYYC 052300Z 16002KT 40SM FEW060 FEW180 SCT220 BKN260 23/07 A2978 RMK CU1AC1CI1CI0 CU TR SLP088

CYYC;2007-09-06 00:00;CYYC 060000Z 15003KT 40SM FEW060 FEW150 BKN220 BKN250 22/08 A2977 RMK CU1AC2CI4CI1 CU TR SLP082

CYYC;2007-09-06 01:00;CYYC 060100Z CCB 12004KT 40SM FEW052 FEW140 BKN220 BKN250 21/08 A2976 RMK CU1AS2CI3CI2 CU TR/AC ASOCTD SLP078

CYYC;2007-09-06 02:00;CYYC 060200Z 12005KT 20SM FEW060 BKN160 OVC210 18/08 A2975 RMK SC1AC4CI2 SLP076

CYYC;2007-09-06 03:00;CYYC 060300Z 28003KT 15SM BKN170 OVC210 18/08 A2976 RMK AS5CI2 SLP081

CYYC;2007-09-06 04:00;CYYC 060400Z 33006KT 15SM BKN170 OVC210 15/09 A2977 RMK AS6CI2 SLP084

CYYC;2007-09-06 05:00;CYYC 060500Z 35019G28KT 15SM FEW080 BKN170 OVC210 12/08 A2983 RMK AC1AS4CI3 SLP102

CYYC;2007-09-06 05:52;CYYC 060552Z 01019KT 15SM SCT013 OVC120 11/ RMK SC3AC5

CYYC;2007-09-06 06:00;CYYC 060600Z 36019G24KT 15SM SCT012 OVC100 10/08 A2985 RMK SC3AC5 SLP110

CYYC;2007-09-06 07:00;CYYC 060700Z 01015KT 15SM FEW014 OVC110 10/08 A2985 RMK SC1AC7 SLP112

CYYC;2007-09-06 07:54;CYYC 060754Z 35013KT 10SM -SHRA FEW012 BKN054 OVC080 10/ RMK SC2SC5AC2

CYYC;2007-09-06 08:00;CYYC 060800Z 35013KT 10SM -SHRA FEW010 BKN063 OVC085 10/09 A2987 RMK SC2SC4AC2 SLP118

CYYC;2007-09-06 09:00;CYYC 060900Z 36007KT 10SM -SHRA FEW014 BKN059 OVC100 09/09 A2988 RMK SC1SC5AC2 SLP122

CYYC;2007-09-06 10:00;CYYC 061000Z 33005KT 15SM -SHRA FEW010 BKN040 OVC082 09/09 A2989 RMK SC2SC4AC2 RA VRY LGT SLP125

CYYC;2007-09-06 10:08;CYYC 061008Z 34005KT 15SM FEW010 BKN044 OVC100 09/ RMK SC2SC4AC2

CYYC;2007-09-06 11:00;CYYC 061100Z 29004KT 15SM FEW010 OVC051 09/09 A2989 RMK SC1SC7 SLP125

CYYC;2007-09-06 12:00;CYYC 061200Z 27004KT 15SM FEW020 OVC040 09/08 A2991 RMK SC1SC7 SLP130

CYYC;2007-09-06 13:00;CYYC 061300Z 26003KT 20SM FEW030 BKN064 BKN220 09/08 A2990 RMK SC2SC3CI1 SLP129

CYYC;2007-09-06 14:00;CYYC 061400Z 23004KT 30SM FEW048 09/08 A2991 RMK SC1 CF ASOCTD SLP132

CYYC;2007-09-06 15:00;CYYC 061500Z 25006KT 30SM FEW012 FEW042 FEW250 11/08 A2991 RMK CU1SC1CI1 SLP133

CYYC;2007-09-06 16:00;CYYC 061600Z 29003KT 30SM FEW028 FEW110 FEW250 13/06 A2992 RMK CU1AC1CI1 CU TR SLP136

CYYC;2007-09-06 17:00;CYYC 061700Z 30004KT 30SM FEW036 SCT110 SCT250 14/05 A2993 RMK CU2AC1CI1 CI TR SLP139

CYYC;2007-09-06 18:00;CYYC 061800Z 00000KT 40SM BKN040 BKN120 15/05 A2994 RMK CU5AC1 DIST SH N/TCU ASOCTD SLP148

CYYC;2007-09-06 18:09;CYYC 061809Z 33006KT 40SM VCSH FEW010CB BKN040 BKN120 15/ RMK CB1CU6AC1 CB/SH N/VIS 10 NE+NW/TCU EMBD

CYYC;2007-09-06 18:17;CYYC 061817Z 01028KT 30SM VCSH FEW018CB BKN040 10/ RMK CB2SC6 SH N/VIS W-NE 10/TCU EMBD

CYYC;2007-09-06 18:37;CYYC 061837Z 36027G32KT 30SM FEW004 BKN020 BKN080 08/ RMK SC1SC6AC1 LO CLD OVR RWY/DIST SH NW

CYYC;2007-09-06 18:49;CYYC 061849Z 36024G31KT 40SM -SHRA FEW016 BKN020 BKN080 08/ RMK CU1SC6AC1 PCPN VRY LGT/CLDS MOVNG RPDLY S

CYYC;2007-09-06 19:00;CYYC 061900Z CCA 35025G33KT 8SM -SHRA FEW016 BKN020 OVC040 07/04 A3002 RMK CU1SC6SC2 CB/TCU EMBD/CU TR SLP173

CYYC;2007-09-06 19:10;CYYC 061910Z 35019G33KT 10SM -SHRA BKN012 OVC020 06/ RMK SC5SC3 TCU EMDB

CYYC;2007-09-06 20:00;CYYC 062000Z 34017G26KT 20SM -SHRA SCT011 BKN020 BKN035 BKN260 07/06 A3003 RMK SC4SC1SC2CI0 PCPN VRY LGT/CU ASOCTD SLP177

CYYC;2007-09-06 20:17;CYYC 062017Z 35018KT 40SM FEW020 FEW075 SCT260 09/ RMK CU2AS1CI0 CLDS MOVNG RPDLY/CF ASOCTD

CYYC;2007-09-06 21:00;CYYC 062100Z 36011G17KT 40SM FEW020 SCT062 BKN110 10/05 A3003 RMK CU2SC2AC2 DIST SH E+S SLP189

CYYC;2007-09-06 22:00;CYYC 062200Z 36015KT 40SM FEW028 FEW110 FEW220 13/05 A3004 RMK CU1AC1CI1 CU+ CI TR SLP190

CYYC;2007-09-06 23:00;CYYC 062300Z 36011KT 40SM FEW040 FEW120 FEW220 13/03 A3004 RMK CU1AC1CI1 TCU ASOCTD + VIRGA NE SLP191

CYYC;2007-09-07 00:00;CYYC 070000Z 01010KT 40SM FEW042 FEW120 13/03 A3004 RMK CU1AC1 SLP188

CYYC;2007-09-07 01:00;CYYC 070100Z 02006KT 40SM FEW040 FEW120 12/03 A3006 RMK CU1AC1 AC TR SLP193

CYYC;2007-09-07 02:00;CYYC 070200Z 04005KT 30SM FEW060 FEW250 08/04 A3007 RMK SC1CI1 CI TR SLP197

CYYC;2007-09-07 03:00;CYYC 070300Z 00000KT 15SM FEW100 SCT250 09/03 A3009 RMK AC1CI1 SLP210

CYYC;2007-09-07 04:00;CYYC 070400Z 19004KT 15SM FEW100 FEW250 09/03 A3010 RMK AC1CI0 SLP212

CYYC;2007-09-07 05:00;CYYC 070500Z 20006KT 15SM SCT250 06/03 A3010 RMK CI1 SLP212

CYYC;2007-09-07 06:00;CYYC 070600Z 22006KT 15SM SCT240 06/03 A3010 RMK CI2 SLP211

CYYC;2007-09-07 07:00;CYYC 070700Z 21005KT 15SM SCT210 06/03 A3009 RMK CI2 SLP209

CYYC;2007-09-07 08:00;CYYC 070800Z 21003KT 15SM FEW190 SCT240 07/03 A3009 RMK AC1CI2 SLP208

CYYC;2007-09-07 09:00;CYYC 070900Z 20005KT 15SM FEW097 BKN150 BKN220 07/04 A3008 RMK AC1AC4CI2 SLP211

CYYC;2007-09-07 10:00;CYYC 071000Z 20004KT 15SM FEW090 BKN150 OVC220 07/04 A3008 RMK AC1AC4CI2 SLP210

CYYC;2007-09-07 11:00;CYYC 071100Z 19004KT 15SM BKN140 BKN240 07/04 A3007 RMK AC4CI1 SLP207

CYYC;2007-09-07 12:00;CYYC 071200Z 23002KT 15SM SCT094 BKN230 07/04 A3006 RMK AC2CI2 SLP197

CYYC;2007-09-07 13:00;CYYC 071300Z 00000KT 40SM BKN085 BKN140 OVC210 06/03 A3005 RMK AC5AC2CI1 SLP195

CYYC;2007-09-07 14:00;CYYC 071400Z 03012KT 30SM BKN080 07/05 A3007 RMK AC7 DIST SH N+E SLP200

CYYC;2007-09-07 15:00;CYYC 071500Z CCA 04008KT 40SM BKN080 BKN090 07/05 A3007 RMK AC5AC2 DIST SH N+E/W-NW SLP208

CYYC;2007-09-07 15:15;CYYC 071515Z 05007KT 30SM -SHRA FEW012 BKN070 BKN240 07/ RMK CU1AC7CI1 PCPN VRY LGT/CU+CI TR/

CYYC;2007-09-07 15:39;CYYC 071539Z 01006KT 40SM FEW010 FEW070 BKN110 BKN240 08/ RMK CU1AC2AC5CI1 OCNL -SHRA/DIST SH N+E+W-NWCU+CI TR

CYYC;2007-09-07 16:00;CYYC 071600Z 03011KT 40SM FEW012 FEW080 BKN110 BKN240 10/06 A3008 RMK CU1AC1AC6CI1 DIST SH N+E+SW+W+NW/CU+CI TR SLP211

CYYC;2007-09-07 17:00;CYYC 071700Z 05012KT 30SM FEW020 SCT022 BKN050 10/04 A3010 RMK CU1SC3SC3 DIST SH SE/VIRGA S SLP217

CYYC;2007-09-07 17:08;CYYC 071708Z 04011KT 30SM -SHRA FEW020 SCT022 BKN050 10/ RMK CU1SC3SC3 PCPN VRY LGT

CYYC;2007-09-07 18:00;CYYC 071800Z 03010KT 25SM -SHRA BKN020 OVC040 10/05 A3011 RMK SC5SC3 PCPN VRY LGT/CU ASOCTD SLP223

CYYC;2007-09-07 19:00;CYYC 071900Z 04009KT 25SM -SHRA FEW022 BKN038 OVC060 10/05 A3011 RMK SC2SC5SC2 PCPN VRY LGT/CU ASOCTD SLP223

CYYC;2007-09-07 19:17;CYYC 071917Z 03009KT 25SM FEW022 OVC032 10/ RMK SC1SC7 DIST SH E+SW

CYYC;2007-09-07 19:54;CYYC 071954Z 02011KT 25SM -SHRA FEW019 OVC032 09/ RMK SC2SC6 PCPN VRY LGT/CU ASOCTD

CYYC;2007-09-07 20:00;CYYC 072000Z 01011KT 25SM -SHRA FEW019 SCT032 OVC040 09/05 A3013 RMK SC1SC2SC5 PCPN VRY LGT/CU ASOCTD SLP227

CYYC;2007-09-07 20:14;CYYC 072014Z 33013KT 25SM -SHRA FEW012CB SCT016 OVC034 08/ RMK CB2SC2SC4 PCPN VRY LGT/CB BLDNG OVRHD S

CYYC;2007-09-07 20:37;CYYC 072037Z CCA 33010KT 25SM BKN012 BKN022CB OVC042 09/ RMK SC5CB1SC2 OCNL -SHRA/CB DIST S/CU ASOCTD

CYYC;2007-09-07 21:00;CYYC 072100Z 32012KT 25SM FEW019 FEW022CB OVC040 08/05 A3013 RMK SC1CB1SC6 -SHRA OCNL/VRY LGT/CU ASOCTD SLP231

CYYC;2007-09-07 21:44;CYYC 072144Z CCA 34007KT 30SM FEW022TCU SCT030 BKN190 BKN220 09/ RMK TCU1SC4AC1CI2 OCNL -SHRA/TCU TR/DIST SH SE-SW

CYYC;2007-09-07 22:00;CYYC 072200Z CCA 33005KT 30SM FEW025CB FEW036 SCT140 BKN190 BKN220 BKN250 10/04 A3015 RMK CB1SC2AC2AC1CI2CI0 TCU ASOCTD/ DIST SH SW SLP235

CYYC;2007-09-07 23:00;CYYC 072300Z 34002KT 30SM FEW030TCU BKN032 BKN042 11/04 A3016 RMK TCU1SC4SC2 SLP238

CYYC;2007-09-08 00:00;CYYC 080000Z 32005KT 30SM VCSH FEW028TCU BKN060 11/04 A3017 RMK TCU1SC6 SH NW/ DIST SH W+N SLP239

CYYC;2007-09-08 00:24;CYYC 080024Z 27010G18KT 25SM -SHRA FEW025TCU SCT038 BKN060 09/ RMK TCU1SC3SC3 WSHFT 0010/VIS W 5/CB EMBD

CYYC;2007-09-08 00:46;CYYC 080046Z CCA 32006KT 25SM FEW025TCU FEW036CB BKN042 10/ RMK TCU1CB2SC5 DIST SH N+NE+S+SW-NW

CYYC;2007-09-08 01:00;CYYC 080100Z 36006KT 25SM FEW020TCU SCT036CB BKN045 10/04 A3020 RMK TCU1CB2SC4 DIST SH ALQDS SLP249

CYYC;2007-09-08 01:31;CYYC 080131Z 34008KT 25SM -SHRA FEW022CB BKN045 08/ RMK CB2SC4 PCPN VRY LGT/TCU ASOCTD

CYYC;2007-09-08 02:00;CYYC 080200Z 32008KT 20SM -SHRA FEW040CB BKN080 BKN220 08/05 A3022 RMK CB2AC2CI1 SLP255

CYYC;2007-09-08 02:49;CYYC 080249Z 31007KT 15SM FEW040 SCT100 SCT210 06/ RMK SC2AC2CI0

CYYC;2007-09-08 03:00;CYYC 080300Z 30006KT 15SM FEW040 SCT100 SCT210 06/04 A3025 RMK SC2AC2CI0 SLP273

CYYC;2007-09-08 04:00;CYYC 080400Z 32004KT 15SM FEW080 BKN210 05/03 A3026 RMK AC2CI2 SLP278

CYYC;2007-09-08 05:00;CYYC 080500Z 29004KT 15SM FEW060 SCT080 BKN210 05/03 A3027 RMK SC1AC1CI2 SLP281

CYYC;2007-09-08 06:00;CYYC 080600Z 32008KT 15SM FEW080 FEW210 05/03 A3028 RMK AC1CI1 SLP283

CYYC;2007-09-08 07:00;CYYC 080700Z 31005KT 15SM FEW080 FEW210 04/02 A3028 RMK AC1CI1 SLP283

CYYC;2007-09-08 08:00;CYYC 080800Z 32008KT 15SM FEW080 FEW220 03/01 A3029 RMK AC1CI1 SLP285

CYYC;2007-09-08 09:00;CYYC 080900Z 00000KT 15SM FEW090 FEW220 03/01 A3030 RMK AC1CI1 SLP294

CYYC;2007-09-08 10:00;CYYC 081000Z 00000KT 15SM FEW090 FEW240 03/01 A3030 RMK AC1CI1 SLP296

CYYC;2007-09-08 11:00;CYYC 081100Z 34002KT 15SM FEW220 02/00 A3030 RMK CI1 SLP295

CYYC;2007-09-08 12:00;CYYC 081200Z 34004KT 15SM SKC 01/M00 A3031 RMK SLP296

CYYC;2007-09-08 13:00;CYYC 081300Z 28002KT 40SM FEW110 FEW240 02/00 A3032 RMK AC1CI1 CLDS TR SLP300

CYYC;2007-09-08 14:00;CYYC 081400Z 31004KT 40SM FEW120 FEW250 03/01 A3033 RMK AC1CI1 SLP303

CYYC;2007-09-08 15:00;CYYC 081500Z CCB 00000KT 40SM FEW080 FEW250 07/04 A3034 RMK AC1CI1 BAROMETER PRESSURE + 12 MIN SLP306

CYYC;2007-09-08 16:00;CYYC 081600Z 22002KT 40SM FEW020 SCT060 BKN075 08/04 A3035 RMK SC1SC3AC3 LO SC TR SLP307

CYYC;2007-09-08 17:00;CYYC 081700Z 34003KT 40SM FEW024 FEW062 BKN090 BKN250 10/04 A3034 RMK CU1SC1AC5CI0 CU TR SLP306

CYYC;2007-09-08 17:30;CYYC 081730Z 06004KT 40SM -SHRA FEW028TCU SCT030 BKN080 11/ RMK TCU1SC3AC2

CYYC;2007-09-08 18:00;CYYC 081800Z 00000KT 40SM -SHRA FEW024TCU BKN030 BKN050 10/04 A3035 RMK TCU1SC4SC2 -SHRA OCNL/CB EMBD SLP304

CYYC;2007-09-08 18:05;CYYC 081805Z CCA 15002KT 40SM FEW024TCU BKN030 BKN050 10/ RMK TCU1SC5SC2 OCNL -SHRA/VIRGA S

CYYC;2007-09-08 19:00;CYYC 081900Z 20008KT 40SM FEW030TCU BKN058 BKN090 BKN250 12/05 A3034 RMK TCU2SC2AC2CI0 VIRGA S SLP301

CYYC;2007-09-08 20:00;CYYC 082000Z 28003KT 40SM FEW009 FEW042TCU SCT058 BKN090 14/02 A3033 RMK SC1TCU2SC2AC2 DIST SH SE+SW/LO SC TR SLP298

CYYC;2007-09-08 21:00;CYYC 082100Z CCA 00000KT 30SM FEW044TCU BKN050 BKN070 15/03 A3031 RMK TCU2SC2AC2 DIST SH SE+SW+NW/CB EMBD NW SLP288

CYYC;2007-09-08 21:40;CYYC 082140Z 35006KT 30SM -SHRA FEW048TCU BKN060CB BKN070 13/ RMK TCU2CB2AC2 PCPN VRY LGT

CYYC;2007-09-08 21:50;CYYC 082150Z 35016G22KT 30SM -SHRA FEW007 BKN045CB BKN070 12/ RMK CF1CB5AS2 VIS W 10/PCPN VRY LGT/CF TR

CYYC;2007-09-08 22:00;CYYC 082200Z 35017G22KT 30SM -SHRA FEW007 BKN045CB BKN070 11/03 A3031 RMK CF1CB6AS2 VIS W 10/PCPN VRY LGT/CF TR SLP288

CYYC;2007-09-08 22:05;CYYC 082205Z 35017G24KT 30SM -TSRA BKN045CB BKN070 10/ RMK CB6AS1 VIS W 10/PCPN VRY LGT

CYYC;2007-09-08 22:22;CYYC 082222Z 36010G15KT 30SM -SHRA SCT045CB BKN060 BKN070 11/ RETS RMK CB3SC2AC2 -SHRA OCNL/VIS 10 SW-W

CYYC;2007-09-08 22:29;CYYC 082229Z 35010KT 30SM SCT045CB SCT060 BKN070 11/ RETS RMK CB3SC1AC3 OCNL -SHRA

CYYC;2007-09-08 23:00;CYYC 082300Z 23010KT 30SM -SHRA FEW028TCU BKN060CB BKN070 10/03 A3033 RETS RMK TCU1CB4AC2 VIS 10 SW-W/WSHFT 2240 SLP293

CYYC;2007-09-08 23:36;CYYC 082336Z CCA 23006KT 30SM VCSH FEW030 FEW048TCU BKN060 BKN100 13/ RMK SC1TCU1SC4AC1 SH SE/VIS 4 SE/DIST SH SW-NW/CB EMBD

CYYC;2007-09-09 00:00;CYYC 090000Z 28004KT 30SM VCSH FEW040TCU FEW045CB BKN060 BKN090 12/02 A3033 RMK TCU1CB1SC3AC2 SH SE/VIS 4 SE/ DIST SH N+SW-NW SLP301

CYYC;2007-09-09 01:00;CYYC 090100Z 36006KT 30SM FEW032TCU FEW090 BKN160 BKN260 10/03 A3033 RMK TCU1AC2AC2CI1 VIS 10 SE/DIST SH ALQDS/TCU TR SLP303

CYYC;2007-09-09 02:00;CYYC 090200Z 36007KT 30SM FEW050 BKN080 OVC230 09/03 A3035 RMK SC1AC5CI2 VIRGA S/ ACC EMBD SLP308

CYYC;2007-09-09 03:00;CYYC 090300Z 36007KT 15SM FEW050 BKN081 OVC170 08/04 A3038 RMK SC1AC5AC2 SLP316

CYYC;2007-09-09 04:00;CYYC 090400Z 35005KT 15SM BKN083 OVC094 07/04 A3038 RMK AC5AC2 SLP317

CYYC;2007-09-09 05:00;CYYC 090500Z 29005KT 15SM FEW065 OVC140 05/04 A3039 RMK SC2AC6 SLP319

CYYC;2007-09-09 06:00;CYYC 090600Z 27003KT 15SM FEW080 BKN140 06/03 A3039 RMK AC2AC4 SLP317

CYYC;2007-09-09 07:00;CYYC 090700Z 29004KT 15SM FEW140 04/02 A3039 RMK AC1 SLP317

CYYC;2007-09-09 08:00;CYYC 090800Z 26002KT 15SM FEW140 03/01 A3038 RMK AC1 SLP314

CYYC;2007-09-09 09:00;CYYC 090900Z 21004KT 15SM SKC 02/01 A3037 RMK SLP309

CYYC;2007-09-09 10:00;CYYC 091000Z 21002KT 15SM SKC 02/01 A3036 RMK SLP307

CYYC;2007-09-09 11:00;CYYC 091100Z 00000KT 15SM SKC 02/01 A3035 RMK SLP305

CYYC;2007-09-09 12:00;CYYC 091200Z 35003KT 15SM SKC 02/01 A3035 RMK SLP306

CYYC;2007-09-09 13:00;CYYC 091300Z 00000KT 40SM FEW230 01/00 A3035 RMK CI1 FROIN SLP306

CYYC;2007-09-09 14:00;CYYC 091400Z 16003KT 40SM FEW240 03/01 A3034 RMK CI1 SLP304

CYYC;2007-09-09 15:00;CYYC 091500Z 21005KT 40SM FEW250 06/03 A3034 RMK CI0 SLP305

CYYC;2007-09-09 16:00;CYYC 091600Z 23007KT 40SM FEW250 08/03 A3033 RMK CI0 SLP301

CYYC;2007-09-09 17:00;CYYC 091700Z 19007KT 40SM FEW250 11/03 A3032 RMK CI0 SLP298

CYYC;2007-09-09 18:00;CYYC 091800Z 18009KT 40SM FEW260 13/02 A3029 RMK CI0 SLP280

CYYC;2007-09-09 19:00;CYYC 091900Z 19010KT 40SM FEW050 FEW260 15/01 A3026 RMK CU1CI0 SLP272

CYYC;2007-09-09 20:00;CYYC 092000Z 20007KT 40SM FEW065 FEW160 BKN260 16/M00 A3025 RMK CU1AC1CI0 SLP266

CYYC;2007-09-09 21:00;CYYC 092100Z 18009KT 40SM FEW069 FEW160 BKN260 17/00 A3022 RMK CU1AC1CI0 SLP253

CYYC;2007-09-09 22:00;CYYC 092200Z 19009KT 40SM FEW069 FEW160 SCT260 17/M01 A3019 RMK CU1AC1CI0 SLP245

CYYC;2007-09-09 23:00;CYYC 092300Z 17006KT 40SM FEW160 FEW270 18/M00 A3017 RMK AC1CI1 SLP238

CYYC;2007-09-10 00:00;CYYC 100000Z 22003KT 40SM FEW160 FEW260 18/M01 A3015 RMK AC1CI1 SLP231

CYYC;2007-09-10 01:00;CYYC 100100Z 18007KT 40SM FEW150 FEW230 BKN250 16/01 A3014 RMK AC1CI1CI0 SLP227

CYYC;2007-09-10 02:00;CYYC 100200Z 18008KT 40SM FEW120 SCT230 SCT260 14/00 A3013 RMK AC1CI1CI0 SLP223

CYYC;2007-09-10 03:00;CYYC 100300Z 11003KT 15SM FEW120 FEW230 SCT260 12/00 A3014 RMK AC1CI1CI0 SLP228

CYYC;2007-09-10 04:00;CYYC 100400Z 19003KT 15SM FEW140 SCT250 13/01 A3014 RMK AC1CI1 SLP230

CYYC;2007-09-10 05:00;CYYC 100500Z 21005KT 15SM FEW240 10/01 A3014 RMK CI0 SLP229

CYYC;2007-09-10 06:00;CYYC 100600Z 36007KT 15SM FEW240 10/01 A3015 RMK CI0 SLP226

CYYC;2007-09-10 07:00;CYYC 100700Z 33005KT 15SM FEW240 08/02 A3018 RMK CI0 SLP233

CYYC;2007-09-10 08:00;CYYC 100800Z 33007KT 15SM FEW240 07/02 A3019 RMK CI0 SLP236

CYYC;2007-09-10 09:00;CYYC 100900Z 34005KT 15SM FEW240 07/02 A3020 RMK CI1 CI TR SLP240

CYYC;2007-09-10 10:00;CYYC 101000Z 33005KT 15SM SKC 07/02 A3021 RMK SLP244

CYYC;2007-09-10 11:00;CYYC 101100Z 00000KT 15SM FEW220 08/02 A3022 RMK CI1 SLP247

CYYC;2007-09-10 12:00;CYYC 101200Z 21002KT 15SM FEW180 06/02 A3022 RMK AC1 SLP250

CYYC;2007-09-10 13:00;CYYC 101300Z 22003KT 40SM FEW180 FEW220 BKN250 07/03 A3022 RMK AC1CI1CI1 SLP249

CYYC;2007-09-10 14:00;CYYC 101400Z 20002KT 40SM FEW180 FEW230 BKN250 09/04 A3023 RMK AC1CI0CI1 SLP251

CYYC;2007-09-10 15:00;CYYC 101500Z 31003KT 40SM FEW180 FEW230 SCT250 15/05 A3023 RMK AC1CI1CI0 SLP248

CYYC;2007-09-10 16:00;CYYC 101600Z 26007KT 40SM FEW120 FEW230 BKN250 18/05 A3024 RMK AC1CI1CI0 SLP250

CYYC;2007-09-10 17:00;CYYC 101700Z 30010KT 40SM FEW100 FEW210 BKN250 19/05 A3024 RMK AC1CI1CI2 SLP250

CYYC;2007-09-10 18:00;CYYC 101800Z 33007KT 40SM FEW053 FEW100 FEW210 BKN250 19/07 A3024 RMK CU1AC1CI0CI2 SLP246

CYYC;2007-09-10 19:00;CYYC 101900Z 36012KT 40SM FEW054 FEW090 FEW200 BKN250 20/07 A3024 RMK CU1AC1CI0CI2 SLP247

CYYC;2007-09-10 20:00;CYYC 102000Z 34005KT 40SM FEW054 FEW090 BKN250 21/08 A3024 RMK CU1AC1CI2 SLP248

CYYC;2007-09-10 21:00;CYYC 102100Z 33005KT 40SM FEW054 FEW090 BKN260 21/08 A3023 RMK CU1AC1CI1 AC TR SLP245

CYYC;2007-09-10 22:00;CYYC 102200Z CCA 05005KT 40SM FEW054 FEW090 BKN240 22/08 A3022 RMK CU1AC1CI1 AC TR SLP243

CYYC;2007-09-10 23:00;CYYC 102300Z 08002KT 40SM FEW052 FEW090 BKN240 21/08 A3021 RMK CU1AC1CI2 SLP240

CYYC;2007-09-11 00:00;CYYC 110000Z 08003KT 40SM FEW052 FEW090 BKN240 21/08 A3021 RMK CU1AC1CI2 SLP239

CYYC;2007-09-11 01:00;CYYC 110100Z 12004KT 40SM FEW090 BKN250 20/08 A3019 RMK AC1CI2 SLP235

CYYC;2007-09-11 02:00;CYYC 110200Z 10006KT 40SM FEW090 BKN250 16/08 A3019 RMK AC1CI1 AC TR SLP234

CYYC;2007-09-11 03:00;CYYC 110300Z 13007KT 40SM BKN250 14/09 A3018 RMK CI0 SLP228

CYYC;2007-09-11 04:00;CYYC 110400Z 14006KT 15SM SCT250 14/08 A3018 RMK CI0 SLP227

CYYC;2007-09-11 05:00;CYYC 110500Z 16005KT 15SM SKC 12/08 A3017 RMK SLP223

CYYC;2007-09-11 06:00;CYYC 110600Z 19006KT 15SM SKC 11/08 A3015 RMK SLP215

CYYC;2007-09-11 07:00;CYYC 110700Z 16003KT 15SM SKC 12/08 A3013 RMK SLP209

CYYC;2007-09-11 08:00;CYYC 110800Z 17003KT 15SM SKC 11/07 A3011 RMK SLP202

CYYC;2007-09-11 09:00;CYYC 110900Z 17003KT 15SM SKC 10/06 A3009 RMK SLP193

CYYC;2007-09-11 10:00;CYYC 111000Z 21002KT 15SM SKC 10/06 A3007 RMK SLP187

CYYC;2007-09-11 11:00;CYYC 111100Z 20004KT 15SM SKC 08/06 A3005 RMK SLP181

CYYC;2007-09-11 12:00;CYYC 111200Z 00000KT 15SM SKC 07/05 A3004 RMK SLP178

CYYC;2007-09-11 13:00;CYYC 111300Z 21003KT 15SM SKC 08/05 A3002 RMK SLP174

CYYC;2007-09-11 14:00;CYYC 111400Z 31004KT 40SM SKC 10/06 A3002 RMK SLP172

CYYC;2007-09-11 15:00;CYYC 111500Z 00000KT 40SM SKC 16/08 A3001 RMK SLP167

CYYC;2007-09-11 16:00;CYYC 111600Z 31007KT 40SM SKC 20/06 A3000 RMK SLP164

CYYC;2007-09-11 17:00;CYYC 111700Z 32007KT 40SM SKC 22/06 A3000 RMK SLP162

CYYC;2007-09-11 18:00;CYYC 111800Z 29006KT 40SM FEW140 22/07 A2999 RMK AC1 AC TR SLP153

CYYC;2007-09-11 19:00;CYYC 111900Z 24003KT 40SM FEW140 23/06 A2996 RMK AC1 AC TR SLP146

CYYC;2007-09-11 20:00;CYYC 112000Z 35005KT 40SM FEW140 24/06 A2995 RMK AC1 AC TR SLP141

CYYC;2007-09-11 21:00;CYYC 112100Z 36006KT 40SM FEW065 FEW120 25/03 A2993 RMK CU1AC1 BOTH CLDS TR SLP133

CYYC;2007-09-11 22:00;CYYC 112200Z 09006KT 40SM FEW065 FEW120 FEW250 26/05 A2991 RMK CU1AC1CI1 SLP126

CYYC;2007-09-11 23:00;CYYC 112300Z 14006KT 40SM FEW060 FEW120 FEW250 26/05 A2989 RMK CU1AC1CI0 CU+AC TR SLP120

CYYC;2007-09-12 00:00;CYYC 120000Z 11004KT 40SM FEW050 FEW120 FEW250 24/04 A2987 RMK CU1AC1CI1 SLP118

CYYC;2007-09-12 01:00;CYYC 120100Z 11005KT 40SM FEW050 FEW110 FEW250 22/04 A2987 RMK CU1AC1CI1 CU+CI TR SLP116

CYYC;2007-09-12 02:00;CYYC 120200Z 08008KT 40SM FEW100 FEW120 17/05 A2987 RMK AC2AC0 SLP118

CYYC;2007-09-12 03:00;CYYC 120300Z 07008KT 15SM FEW120 SCT140 17/05 A2988 RMK AC2AC2 SLP119

CYYC;2007-09-12 04:00;CYYC 120400Z 36015G25KT 15SM BKN120 OVC140 16/07 A2993 RMK AC5AC2 WSHFT 0357 / SH N SLP134

CYYC;2007-09-12 04:10;CYYC 120410Z 02021G27KT 10SM -SHRA OVC100 17/ RMK AC8

CYYC;2007-09-12 04:40;CYYC 120440Z 01018G25KT 15SM BKN100 BKN120 14/ RMK AC6AC1

CYYC;2007-09-12 05:00;CYYC 120500Z 36019G28KT 15SM FEW020 OVC100 13/09 A2998 RMK SC2AC5 SLP149

CYYC;2007-09-12 06:00;CYYC 120600Z 01015KT 15SM -SHRA FEW015 BKN040 OVC080 12/10 A3000 RMK ST2SC5AC1 SLP157

CYYC;2007-09-12 06:30;CYYC 120630Z 36018KT 15SM SCT011 OVC025 11/ RMK SC3SC5

CYYC;2007-09-12 06:51;CYYC 120651Z 01023G33KT 5SM SHRA SCT007 BKN025 OVC050 10/ RMK SC3SC4SC1

CYYC;2007-09-12 07:00;CYYC 120700Z 36020G33KT 4SM SHRA FEW007 BKN025 OVC050 09/09 A3004 RMK ST2SC4SC2 SLP169

CYYC;2007-09-12 08:00;CYYC 120800Z 36018KT 3SM RA FEW012 BKN031 OVC060 09/08 A3005 RMK CF2SC4SC2 SLP172

CYYC;2007-09-12 09:00;CYYC 120900Z 32014KT 5SM RA BKN035 OVC060 08/07 A3007 RMK SC6SC2 SLP184

CYYC;2007-09-12 10:00;CYYC 121000Z 31009KT 8SM RA OVC030 07/06 A3006 RMK SC8 SLP182

CYYC;2007-09-12 11:00;CYYC 121100Z 30012KT 4SM RA FEW020 OVC035 07/06 A3008 RMK SC1SC7 SLP186

CYYC;2007-09-12 13:00;CYYC 121300Z 33013KT 5SM RA BKN032 OVC043 07/06 A3011 RMK SC6SC2 SLP198

CYYC;2007-09-12 14:00;CYYC 121400Z CCA 36012KT 8SM -RA FEW012 BKN015 BKN025 OVC040 06/05 A3010 RERA RMK CF1SC3SC3SC1 SLP197

CYYC;2007-09-12 15:00;CYYC 121500Z 35016G22KT 15SM -RA FEW010 BKN012 BKN028 OVC040 06/04 A3013 RMK CF1SC2SC5SC1 SLP217

CYYC;2007-09-12 15:50;CYYC 121550Z 35017G26KT 15SM BKN014 OVC028 06/ RMK SC3SC5

CYYC;2007-09-12 16:00;CYYC 121600Z 35016G22KT 15SM BKN014 OVC028 06/04 A3012 RMK SC3SC5 SLP216

CYYC;2007-09-12 17:00;CYYC 121700Z 34014KT 20SM BKN020 BKN048 08/04 A3014 RMK SC7SC1 SLP222

CYYC;2007-09-12 18:00;CYYC 121800Z 32015G20KT 20SM FEW019 BKN033 BKN080 08/03 A3015 RMK CF1SC7AC1 SLP229

CYYC;2007-09-12 19:00;CYYC 121900Z 35015G24KT 20SM FEW019 SCT033 SCT080 09/02 A3015 RMK CF1SC3AC1 SLP229

CYYC;2007-09-12 20:00;CYYC 122000Z 34021G26KT 20SM FEW032 FEW050 10/02 A3014 RMK CU2SC1 SLP227

CYYC;2007-09-12 21:00;CYYC 122100Z 36020KT 20SM FEW032 FEW050 11/03 A3015 RMK CU2SC1 SLP231

CYYC;2007-09-12 22:00;CYYC 122200Z 34019G27KT 30SM FEW032 FEW050 11/02 A3016 RMK CU1SC1 CU TR SLP235

CYYC;2007-09-12 23:00;CYYC 122300Z 35019G25KT 30SM FEW032 FEW050 10/03 A3016 RMK CU1SC1 CU TR SLP235

CYYC;2007-09-13 00:00;CYYC 130000Z 36016G21KT 30SM FEW032 FEW050 10/02 A3018 RMK CU1SC1 CU TR SLP245

CYYC;2007-09-13 01:00;CYYC 130100Z 36013KT 20SM FEW027 FEW050 09/02 A3019 RMK CU1SC1 SLP246

CYYC;2007-09-13 02:00;CYYC 130200Z 32005KT 20SM FEW035 07/02 A3020 RMK SC1 CF ASOCTD SLP250

CYYC;2007-09-13 03:00;CYYC 130300Z 33006KT 15SM FEW030 FEW240 05/01 A3023 RMK SC1CI1 CI TR SLP270

CYYC;2007-09-13 04:00;CYYC 130400Z 32005KT 15SM FEW040 FEW090 04/01 A3025 RMK SC1AC1 AC TR SLP276

CYYC;2007-09-13 05:00;CYYC 130500Z 32005KT 15SM FEW050 FEW100 04/01 A3026 RMK SC1AC1 SLP278

CYYC;2007-09-13 06:00;CYYC 130600Z 01006KT 15SM FEW090 03/00 A3026 RMK AC1 SLP281

CYYC;2007-09-13 07:00;CYYC 130700Z 34003KT 15SM FEW050 FEW250 03/00 A3026 RMK SC2CI1 CI TR SLP281

CYYC;2007-09-13 08:00;CYYC 130800Z 00000KT 15SM BKN050 03/00 A3026 RMK SC6 SLP280

CYYC;2007-09-13 09:00;CYYC 130900Z 02002KT 15SM FEW050 01/M00 A3025 RMK SC2 SLP275

CYYC;2007-09-13 10:00;CYYC 131000Z 06003KT 15SM FEW100 00/M01 A3025 RMK AC1 SLP274

CYYC;2007-09-13 11:00;CYYC 131100Z 00000KT 15SM FEW040 01/M01 A3024 RMK SC1 SLP272

CYYC;2007-09-13 12:00;CYYC 131200Z 23002KT 15SM SKC 01/M01 A3023 RMK SLP270

CYYC;2007-09-13 13:00;CYYC 131300Z 20004KT 40SM FEW240 00/M01 A3023 RMK CI1 SLP269

CYYC;2007-09-13 14:00;CYYC 131400Z 21003KT 40SM FEW260 01/00 A3022 RMK CI1 SLP268

CYYC;2007-09-13 15:00;CYYC 131500Z 20003KT 40SM FEW120 FEW260 04/02 A3022 RMK AC1CI1 SLP270

CYYC;2007-09-13 16:00;CYYC 131600Z 19007KT 40SM FEW120 FEW260 06/02 A3022 RMK AC1CI1 SLP268

CYYC;2007-09-13 17:00;CYYC 131700Z 18008KT 40SM FEW260 08/02 A3021 RMK CI1 SLP265

CYYC;2007-09-13 18:00;CYYC 131800Z 18009KT 40SM FEW260 10/03 A3020 RMK CI1 SLP256

CYYC;2007-09-13 19:00;CYYC 131900Z 18007KT 40SM FEW035 FEW080 FEW260 12/03 A3018 RMK CU1AC1CI1 SLP251

CYYC;2007-09-13 20:00;CYYC 132000Z 19006KT 40SM FEW080 FEW260 14/02 A3016 RMK AC1CI1 SLP246

CYYC;2007-09-13 21:00;CYYC 132100Z 19008KT 40SM FEW080 FEW260 15/03 A3014 RMK AC1CI1 SLP231

CYYC;2007-09-13 22:00;CYYC 132200Z 13005KT 40SM FEW080 FEW260 15/01 A3014 RMK AC1CI1 SLP230

CYYC;2007-09-13 23:00;CYYC 132300Z 15006KT 40SM FEW080 FEW260 16/02 A3012 RMK AC1CI1 SLP225

CYYC;2007-09-14 00:00;CYYC 140000Z CCA 16007KT 40SM FEW080 FEW260 16/02 A3011 RMK AC1CI1 SLP221

CYYC;2007-09-14 01:00;CYYC 140100Z 15008KT 40SM SKC 15/01 A3010 RMK SLP218

CYYC;2007-09-14 02:00;CYYC 140200Z 17009KT 40SM SKC 13/02 A3009 RMK SLP215

CYYC;2007-09-14 03:00;CYYC 140300Z 17008KT 15SM SKC 12/03 A3009 RMK SLP216

CYYC;2007-09-14 04:00;CYYC 140400Z 18012KT 15SM SKC 11/02 A3009 RMK SLP214

CYYC;2007-09-14 05:00;CYYC 140500Z 18008KT 15SM SKC 10/02 A3009 RMK SLP214

CYYC;2007-09-14 06:00;CYYC 140600Z 15005KT 15SM SKC 07/03 A3008 RMK SLP209

CYYC;2007-09-14 07:00;CYYC 140700Z 19004KT 15SM SKC 06/02 A3006 RMK SLP202

CYYC;2007-09-14 08:00;CYYC 140800Z 19003KT 15SM SKC 06/03 A3007 RMK SLP205

CYYC;2007-09-14 09:00;CYYC 140900Z 32002KT 15SM SKC 05/02 A3006 RMK SLP198

CYYC;2007-09-14 10:00;CYYC 141000Z 31004KT 15SM SKC 05/02 A3006 RMK SLP196

CYYC;2007-09-14 11:00;CYYC 141100Z 25002KT 15SM SKC 04/01 A3006 RMK SLP196

CYYC;2007-09-14 12:00;CYYC 141200Z 21003KT 15SM SKC 04/02 A3006 RMK SLP196

CYYC;2007-09-14 13:00;CYYC 141300Z 00000KT 40SM SKC 04/02 A3005 RMK SLP195

CYYC;2007-09-14 14:00;CYYC 141400Z 00000KT 40SM SKC 06/02 A3005 RMK SLP194

CYYC;2007-09-14 15:00;CYYC 141500Z 31002KT 40SM SKC 09/03 A3005 RMK SLP193

CYYC;2007-09-14 16:00;CYYC 141600Z 21002KT 40SM FEW120 13/05 A3005 RMK AC1 SLP193

CYYC;2007-09-14 17:00;CYYC 141700Z 00000KT 40SM FEW120 16/05 A3004 RMK AC1 SLP190

CYYC;2007-09-14 18:00;CYYC 141800Z 21005KT 40SM FEW120 19/06 A3003 RMK AC1 SLP177

CYYC;2007-09-14 19:00;CYYC 141900Z 17004KT 40SM FEW120 20/05 A3001 RMK AC1 SLP172

CYYC;2007-09-14 20:00;CYYC 142000Z 18002KT 40SM FEW140 22/05 A2999 RMK AC1 SLP165

CYYC;2007-09-14 21:00;CYYC 142100Z 18003KT 40SM FEW140 22/03 A2999 RMK AC1 SLP162

CYYC;2007-09-14 22:00;CYYC 142200Z 18004KT 40SM FEW240 23/02 A2997 RMK CI1 SLP158

CYYC;2007-09-14 23:00;CYYC 142300Z 08002KT 40SM FEW250 23/00 A2996 RMK CI0 SLP155

CYYC;2007-09-15 00:00;CYYC 150000Z 04003KT 40SM FEW250 22/01 A2996 RMK CI0 SLP153

CYYC;2007-09-15 01:00;CYYC 150100Z 10002KT 30SM FEW250 21/02 A2995 RMK CI1 SLP151

CYYC;2007-09-15 02:00;CYYC 150200Z 14004KT 40SM FEW250 19/01 A2994 RMK CI1 CI TR SLP149

CYYC;2007-09-15 03:00;CYYC 150300Z 14003KT 15SM FEW250 16/02 A2996 RMK CI1 CI TR SLP156

CYYC;2007-09-15 04:00;CYYC 150400Z 34006KT 15SM FEW250 10/04 A2997 RMK CI1 CI TR SLP158

CYYC;2007-09-15 05:00;CYYC 150500Z 31005KT 15SM FEW250 07/03 A2997 RMK CI1 CI TR SLP159

CYYC;2007-09-15 06:00;CYYC 150600Z 34006KT 15SM SKC 07/03 A2997 RMK SLP158

CYYC;2007-09-15 07:00;CYYC 150700Z 00000KT 15SM SKC 06/03 A2997 RMK SLP157

CYYC;2007-09-15 08:00;CYYC 150800Z 00000KT 15SM FEW240 07/03 A2996 RMK CI1 CI TR SLP155

CYYC;2007-09-15 09:00;CYYC 150900Z 00000KT 15SM FEW240 05/02 A2996 RMK CI1 CI TR SLP153

CYYC;2007-09-15 10:00;CYYC 151000Z 26002KT 15SM FEW240 07/03 A2994 RMK CI1 CI TR SLP148

CYYC;2007-09-15 11:00;CYYC 151100Z 00000KT 15SM FEW240 04/02 A2994 RMK CI1 CI TR SLP148

CYYC;2007-09-15 12:00;CYYC 151200Z 35003KT 15SM FEW240 05/02 A2993 RMK CI1 CI TR SLP144

CYYC;2007-09-15 13:00;CYYC 151300Z 00000KT 30SM BKN250 04/02 A2992 RMK CI1 SLP141

CYYC;2007-09-15 14:00;CYYC 151400Z 30003KT 40SM BKN250 05/02 A2993 RMK CI0 SLP142

CYYC;2007-09-15 15:00;CYYC 151500Z 00000KT 40SM BKN270 09/04 A2993 RMK CI0 SLP144

CYYC;2007-09-15 16:00;CYYC 151600Z 18002KT 40SM BKN270 13/05 A2993 RMK CI0 SLP146

CYYC;2007-09-15 17:00;CYYC 151700Z 00000KT 40SM SCT270 17/04 A2993 RMK CI0 SLP144

CYYC;2007-09-15 18:00;CYYC 151800Z 33002KT 40SM FEW270 20/03 A2992 RMK CI0 SLP141

CYYC;2007-09-15 19:00;CYYC 151900Z 32002KT 40SM FEW270 22/05 A2990 RMK CI0 SLP135

CYYC;2007-09-15 20:00;CYYC 152000Z 36004KT 40SM FEW160 FEW270 23/03 A2989 RMK AC1CI0 SLP132

CYYC;2007-09-15 21:00;CYYC 152100Z 31003KT 40SM FEW270 23/02 A2988 RMK CI0 SLP123

CYYC;2007-09-15 22:00;CYYC 152200Z 06005KT 40SM FEW150 FEW270 24/04 A2986 RMK AC1CI1 SLP118

CYYC;2007-09-15 23:00;CYYC 152300Z 02002KT 40SM FEW150 FEW270 24/02 A2985 RMK AC1CI1 SLP114

CYYC;2007-09-16 00:00;CYYC 160000Z 08003KT 40SM FEW150 SCT240 24/03 A2984 RMK AC1CI0 FU ALF SLP108

CYYC;2007-09-16 01:00;CYYC 160100Z 10007KT 40SM SCT100 BKN250 19/04 A2983 RMK AC2CI0 FU ALF SLP106

CYYC;2007-09-16 02:00;CYYC 160200Z 11004KT 30SM FEW100 BKN250 18/03 A2982 RMK AC2CI1 SLP104

CYYC;2007-09-16 03:00;CYYC 160300Z 00000KT 15SM FEW120 BKN250 15/02 A2982 RMK AC2CI2 SLP108

CYYC;2007-09-16 04:00;CYYC 160400Z 00000KT 15SM FEW060 SCT120 BKN250 12/03 A2981 RMK SC1AC2CI2 SLP106

CYYC;2007-09-16 05:00;CYYC 160500Z 00000KT 15SM SCT120 BKN250 10/04 A2981 RMK AC2CI2 SLP104

CYYC;2007-09-16 06:00;CYYC 160600Z 36004KT 15SM SCT140 BKN250 08/04 A2980 RMK AC2CI2 SLP095

CYYC;2007-09-16 07:00;CYYC 160700Z 35006KT 15SM SCT140 BKN250 07/03 A2979 RMK AC2CI2 SLP092

CYYC;2007-09-16 08:00;CYYC 160800Z 00000KT 15SM SCT140 BKN250 07/03 A2978 RMK AC2CI2 SLP089

CYYC;2007-09-16 09:00;CYYC 160900Z 25004KT 15SM FEW140 BKN250 06/03 A2976 RMK AC1CI2 SLP082

CYYC;2007-09-16 10:00;CYYC 161000Z 19002KT 15SM FEW140 SCT250 06/03 A2975 RMK AC1CI1 SLP078

CYYC;2007-09-16 11:00;CYYC 161100Z 20002KT 15SM FEW140 SCT250 05/02 A2974 RMK AC1CI1 SLP074

CYYC;2007-09-16 12:00;CYYC 161200Z 00000KT 15SM FEW160 FEW250 07/02 A2972 RMK AC1CI0 AC TR SLP066

CYYC;2007-09-16 13:00;CYYC 161300Z 20002KT 20SM FEW200 SCT250 06/00 A2972 RMK CI1CI0 HZ S-W SLP064

CYYC;2007-09-16 14:00;CYYC 161400Z 00000KT 40SM FEW150 FEW220 07/02 A2971 RMK AC1CI1 SLP061

CYYC;2007-09-16 15:00;CYYC 161500Z 00000KT 40SM FEW140 FEW220 11/05 A2970 RMK AC1CI1 SLP066

CYYC;2007-09-16 16:00;CYYC 161600Z 26002KT 30SM FEW140 FEW220 15/05 A2969 RMK AC1CI1 SLP062

CYYC;2007-09-16 17:00;CYYC 161700Z 26003KT 30SM FEW140 FEW240 18/06 A2968 RMK AC1CI1 SLP058

CYYC;2007-09-16 18:00;CYYC 161800Z 20002KT 30SM FEW130 FEW240 22/05 A2965 RMK AC1CI1 SLP043

CYYC;2007-09-16 19:00;CYYC 161900Z 00000KT 30SM FEW150 SCT240 23/03 A2963 RMK AC1CI0 SLP036

CYYC;2007-09-16 20:00;CYYC 162000Z 15006KT 30SM FEW150 SCT240 24/02 A2961 RMK AC1CI1 SLP029

CYYC;2007-09-16 21:00;CYYC 162100Z 22005KT 30SM FEW090 FEW140 SCT240 24/01 A2959 RMK AC1AC1CI1 SLP021

CYYC;2007-09-16 22:00;CYYC 162200Z 28004KT 30SM FEW090 FEW140 BKN240 24/00 A2958 RMK AC1AC2CI1 ACSL SW SLP017

CYYC;2007-09-16 23:00;CYYC 162300Z 21005KT 30SM FEW090 FEW160 SCT240 24/01 A2957 RMK AC1AC1CI1 SLP015

CYYC;2007-09-17 00:00;CYYC 170000Z 28018KT 30SM FEW090 FEW140 FEW240 23/M00 A2958 RMK AC1AC1CI0 SLP017

CYYC;2007-09-17 01:00;CYYC 170100Z 27012KT 20SM FEW090 FEW140 FEW240 21/00 A2958 RMK AC1AC2CI1 CU ASOCTD SLP018

CYYC;2007-09-17 02:00;CYYC 170200Z 28009KT 20SM FEW060CB SCT090 BKN180 OVC240 18/M01 A2959 RMK CB1AC2AC2CI2 CB N SLP021

CYYC;2007-09-17 03:00;CYYC 170300Z 32014G19KT 15SM FEW060CB BKN110 OVC220 16/02 A2963 RMK CB1AC5CI2 SLP037

CYYC;2007-09-17 04:00;CYYC 170400Z 34013KT 15SM FEW080 BKN140 BKN220 15/07 A2964 RMK AC1AC4CI1 SLP042

CYYC;2007-09-17 05:00;CYYC 170500Z 33014KT 15SM FEW080 OVC140 14/07 A2967 RMK AC2AC6 SLP051

CYYC;2007-09-17 06:00;CYYC 170600Z 33017G24KT 15SM FEW060 OVC110 13/07 A2970 RMK SC2AC6 SLP054

CYYC;2007-09-17 07:00;CYYC 170700Z 34018G24KT 15SM SCT080 OVC099 12/06 A2972 RMK AC4AC3 SLP060

CYYC;2007-09-17 08:00;CYYC 170800Z 34015G21KT 15SM BKN075 OVC110 10/07 A2976 RMK AC5AC2 SLP070

CYYC;2007-09-17 09:00;CYYC 170900Z 35010G15KT 15SM BKN059 OVC110 09/08 A2977 RMK SC5AC2 SLP077

CYYC;2007-09-17 09:54;CYYC 170954Z 34009KT 12SM -SHRA BKN052 OVC080 09/ RMK SC6AC2

CYYC;2007-09-17 10:00;CYYC 171000Z 34009KT 12SM -SHRA BKN053 OVC100 09/08 A2979 RMK SC6AC2 TCU EMBD SLP083

CYYC;2007-09-17 11:00;CYYC 171100Z 34012KT 15SM -SHRA FEW008 BKN049 OVC080 09/08 A2980 RMK SF1SC6AC2 SLP087

CYYC;2007-09-17 12:00;CYYC 171200Z 36009KT 15SM -SHRA FEW011 BKN025 BKN060 OVC080 09/08 A2982 RMK SF2SC3SC2AC1 TCU EMBD SLP096

CYYC;2007-09-17 12:52;CYYC 171252Z 02010KT 10SM -RA FEW008 OVC013 08/ RMK SF2SC6

CYYC;2007-09-17 13:00;CYYC 171300Z 02012KT 6SM -RA FEW006 OVC012 08/07 A2984 RMK SC2SC6 SLP103

CYYC;2007-09-17 13:34;CYYC 171334Z 36014KT 8SM -RA FEW006 BKN012 OVC040 07/ RMK SC1SC3SC5

CYYC;2007-09-17 14:00;CYYC 171400Z 36012KT 15SM -RA FEW008 BKN018 OVC040 07/05 A2986 RMK CF1SC2SC6 SLP109

CYYC;2007-09-17 15:00;CYYC 171500Z CCA 33010KT 20SM -RA FEW008 SCT030 OVC044 07/05 A2987 RMK SC1SC2SC6 SLP129

CYYC;2007-09-17 15:49;CYYC 171549Z 36008KT 20SM FEW008 OVC040 07/ RMK SC1SC8

CYYC;2007-09-17 16:00;CYYC 171600Z 35008KT 20SM FEW008 OVC040 07/03 A2990 RMK SC1SC8 SLP137

CYYC;2007-09-17 17:00;CYYC 171700Z 36008KT 20SM FEW008 OVC048 08/02 A2991 RMK SC1SC8 SLP140

CYYC;2007-09-17 18:00;CYYC 171800Z 04005KT 20SM FEW020 BKN040 09/02 A2992 RMK SC1SC7 SH NE SLP147

CYYC;2007-09-17 19:00;CYYC 171900Z 12002KT 20SM FEW020 BKN040 09/01 A2991 RMK SC1SC7 SLP143

CYYC;2007-09-17 20:00;CYYC 172000Z 15002KT 20SM FEW020 BKN040 10/01 A2991 RMK SC1SC7 SLP143

CYYC;2007-09-17 21:00;CYYC 172100Z 23005KT 20SM FEW025 BKN045 10/02 A2990 RMK SC1SC7 SH SW SLP145

CYYC;2007-09-17 21:28;CYYC 172128Z 22004KT 20SM -RA FEW025 BKN045 10/ RMK SC1SC7

CYYC;2007-09-17 22:00;CYYC 172200Z 20006KT 20SM FEW025 BKN042 10/03 A2990 RMK SC1SC7 SLP144

CYYC;2007-09-17 23:00;CYYC 172300Z 18007KT 20SM FEW033 FEW042 SCT095 BKN150 11/03 A2989 RMK CU1SC2AC1AC0 SLP140

CYYC;2007-09-18 00:00;CYYC 180000Z 19008KT 20SM FEW028 FEW150 SCT190 BKN200 10/04 A2989 RMK SC1AC1AC2CI0 LWR AC TR SLP140

CYYC;2007-09-18 01:00;CYYC 180100Z 21004KT 20SM FEW028 FEW150 FEW190 10/05 A2989 RMK SC1AC1AC1 LWR AC TR SLP141

CYYC;2007-09-18 02:00;CYYC 180200Z 11004KT 30SM FEW030 FEW180 08/04 A2990 RMK SC1AC1 SC TR SLP144

CYYC;2007-09-18 03:00;CYYC 180300Z 09003KT 15SM FEW030 FEW100 07/04 A2992 RMK SC1AC2 SLP158

CYYC;2007-09-18 04:00;CYYC 180400Z 08003KT 15SM SCT100 06/04 A2993 RMK AC3 VIRGA SLP162

CYYC;2007-09-18 05:00;CYYC 180500Z 34005KT 15SM FEW035 BKN090 06/04 A2995 RMK SC1AC3 SLP168

CYYC;2007-09-18 06:00;CYYC 180600Z 32005KT 15SM FEW035 OVC050 07/05 A2996 RMK SC1SC7 SLP168

CYYC;2007-09-18 07:00;CYYC 180700Z 34010KT 15SM FEW040 BKN055 07/05 A2998 RMK SC1SC6 SLP174

CYYC;2007-09-18 08:00;CYYC 180800Z 32007KT 15SM FEW060 BKN110 05/04 A2998 RMK SC2AC2 SLP176

CYYC;2007-09-18 09:00;CYYC 180900Z 33007KT 15SM BKN075 OVC100 06/04 A2999 RMK AC6AC1 SLP179

CYYC;2007-09-18 10:00;CYYC 181000Z 34008KT 15SM BKN055 OVC075 05/03 A2999 RMK SC6AC1 SLP179

CYYC;2007-09-18 11:00;CYYC 181100Z 33004KT 15SM FEW055 SCT080 BKN100 04/03 A3001 RMK SC2AC2AC2 SLP184

CYYC;2007-09-18 12:00;CYYC 181200Z 32006KT 15SM FEW055 FEW080 FEW100 02/01 A3002 RMK SC1AC1AC1 SC+AC TR SLP193

CYYC;2007-09-18 13:00;CYYC 181300Z 33004KT 15SM FEW060 FEW080 SCT100 BKN250 02/01 A3003 RMK SC1AC2AC2CI0 SC TR SLP196

CYYC;2007-09-18 14:00;CYYC 181400Z 00000KT 30SM FEW050 BKN077 BKN160 BKN260 04/02 A3004 RMK SC1AC5AC1CI1 UPR AC TR SLP199

CYYC;2007-09-18 15:00;CYYC 181500Z 00000KT 30SM FEW050 BKN077 BKN260 05/03 A3005 RMK SC1AC4CI0 SLP207

CYYC;2007-09-18 16:00;CYYC 181600Z 33006KT 30SM FEW024 FEW050 SCT080 BKN260 08/02 A3006 RMK CU1SC1AC2CI0 SLP208

CYYC;2007-09-18 17:00;CYYC 181700Z CCB 01004KT 20SM FEW030 FEW050 FEW090 SCT260 09/03 A3006 RMK CU1SC1AC1CI0 CU+SC TR SLP208

CYYC;2007-09-18 18:00;CYYC 181800Z 00000KT 30SM FEW030 BKN080 BKN260 10/03 A3006 RMK CU1AC2CI0 TCU ASOCTD SLP202

CYYC;2007-09-18 19:00;CYYC 181900Z 01007KT 30SM BKN038 BKN080 BKN260 11/02 A3006 RMK CU5AC1CI0 SLP201

CYYC;2007-09-18 20:00;CYYC 182000Z 33006KT 30SM BKN038 BKN080 BKN260 11/02 A3006 RMK CU5AC1CI0 SLP201

CYYC;2007-09-18 21:00;CYYC 182100Z 36004KT 20SM BKN038 BKN080 BKN260 11/02 A3006 RMK CU5AC1CI1 TCU EMBD SLP201

CYYC;2007-09-18 22:00;CYYC 182200Z 05011G16KT 20SM FEW040TCU BKN110 BKN260 11/02 A3006 RMK TCU2AC2CI0 SLP202

CYYC;2007-09-18 23:00;CYYC 182300Z 06013KT 20SM FEW035TCU FEW100 BKN260 10/03 A3008 RMK TCU2AC1CI0 SH SW SLP208

CYYC;2007-09-19 00:00;CYYC 190000Z 07010KT 20SM FEW030 SCT100 BKN260 09/02 A3009 RMK SC2AC1CI0 SLP223

CYYC;2007-09-19 01:00;CYYC 190100Z 06008KT 20SM FEW030 SCT060 BKN260 07/03 A3010 RMK SC1SC1CI1 LWR SC TR SLP225

CYYC;2007-09-19 02:00;CYYC 190200Z 06008KT 20SM FEW030 BKN060 OVC100 06/03 A3013 RMK SC1SC6AC1 SLP233

CYYC;2007-09-19 03:00;CYYC 190300Z 07009KT 15SM FEW030 BKN060 OVC070 07/02 A3015 RMK SC1SC5AC2 SLP242

CYYC;2007-09-19 04:00;CYYC 190400Z 05013KT 15SM OVC065 06/03 A3016 RMK SC8 SLP245

CYYC;2007-09-19 05:00;CYYC 190500Z 04011KT 15SM BKN039 BKN065 OVC100 05/02 A3018 RMK SC6SC1AC1 SLP251

CYYC;2007-09-19 06:00;CYYC 190600Z 04012KT 15SM FEW040 BKN062 OVC070 05/02 A3020 RMK SC1SC6AC2 SLP253

CYYC;2007-09-19 07:00;CYYC 190700Z 03007KT 15SM BKN038 OVC071 03/00 A3021 RMK SC6AC2 SLP258

CYYC;2007-09-19 08:00;CYYC 190800Z 02012KT 15SM OVC038 03/M00 A3023 RMK SC8 SLP264

CYYC;2007-09-19 09:00;CYYC 190900Z 02010KT 15SM BKN040 OVC062 03/M01 A3025 RMK SC6SC2 SLP272

CYYC;2007-09-19 10:00;CYYC 191000Z 02009KT 15SM OVC039 02/M02 A3026 RMK SC8 SLP274

CYYC;2007-09-19 11:00;CYYC 191100Z 02010KT 15SM FEW031 OVC040 02/M02 A3026 RMK SF1SC8 SLP276

CYYC;2007-09-19 12:00;CYYC 191200Z 02008KT 15SM FEW031 OVC040 01/M02 A3028 RMK SC1SC8 SLP289

CYYC;2007-09-19 13:00;CYYC 191300Z 02005KT 15SM FEW016 FEW030 OVC043 01/M02 A3029 RMK SC1SC1SC6 SLP291

CYYC;2007-09-19 14:00;CYYC 191400Z 35006KT 20SM FEW016 OVC041 01/M02 A3029 RMK SF1SC8 SLP292

CYYC;2007-09-19 15:00;CYYC 191500Z 01002KT 20SM FEW018 FEW032 OVC040 01/M03 A3029 RMK SF1SC1SC7 SLP297

CYYC;2007-09-19 16:00;CYYC 191600Z 02002KT 20SM FEW019 BKN042 OVC052 02/M02 A3028 RMK SC2SC3SC2 SLP294

CYYC;2007-09-19 17:00;CYYC 191700Z 00000KT 20SM FEW020 SCT042 OVC051 02/M03 A3027 RMK SC2SC2SC4 SLP291

CYYC;2007-09-19 17:29;CYYC 191729Z CCA 13003KT 10SM -SN FEW018 SCT031 OVC040 03/ RMK SC1SC2SC5 VIS S 5

CYYC;2007-09-19 18:00;CYYC 191800Z 14003KT 10SM -SN FEW020 SCT031 OVC042 03/M01 A3027 RMK SC1SC2SC4 VIS S 5 SLP289

CYYC;2007-09-19 18:50;CYYC 191850Z 16005KT 10SM -SN BKN013 OVC030 03/ RMK SC5SC3

CYYC;2007-09-19 19:00;CYYC 191900Z 16005KT 10SM -SN BKN012 BKN030 03/00 A3026 RMK SC6SC2 SLP285

CYYC;2007-09-19 20:00;CYYC 192000Z 17005KT 15SM -RA SCT014 BKN022 BKN160 04/01 A3023 RMK SC4SC2AC1 VI S LWR S-SW / PCPN VRY LGT SLP277

CYYC;2007-09-19 20:29;CYYC 192029Z 20006KT 15SM SCT018 BKN170 05/ RMK CU4AC1

CYYC;2007-09-19 21:00;CYYC 192100Z CCA 16006KT 20SM FEW020 FEW170 06/01 A3020 RMK CU1AC1 SLP263

CYYC;2007-09-19 22:00;CYYC 192200Z 19007KT 20SM FEW020 FEW180 FEW210 07/01 A3017 RMK CU1AC1CC1 SLP254

CYYC;2007-09-19 23:00;CYYC 192300Z 17007KT 20SM FEW022 FEW180 FEW210 08/01 A3015 RMK CU1AC1CC1 SLP247

CYYC;2007-09-20 00:00;CYYC 200000Z 17009KT 20SM FEW025 FEW120 FEW260 08/01 A3012 RMK CU1AC1CI1 SLP234

CYYC;2007-09-20 01:00;CYYC 200100Z 15011G17KT 40SM FEW160 06/01 A3009 RMK AC1 SLP226

CYYC;2007-09-20 02:00;CYYC 200200Z 16010G16KT 30SM FEW050 FEW140 05/00 A3007 RMK SC1AC1 CLDS TR SLP221

CYYC;2007-09-20 03:00;CYYC 200300Z 18013KT 15SM FEW050 FEW140 04/01 A3005 RMK SC1AC1 SLP215

CYYC;2007-09-20 04:00;CYYC 200400Z 18012KT 15SM FEW140 03/01 A3002 RMK AC1 SLP205

CYYC;2007-09-20 05:00;CYYC 200500Z 18010KT 15SM FEW030 02/01 A2996 RMK SC1 SC TR SLP189

CYYC;2007-09-20 06:00;CYYC 200600Z 16007KT 15SM FEW030 01/01 A2991 RMK SC1 SLP167

CYYC;2007-09-20 07:00;CYYC 200700Z 18007KT 15SM FEW030 01/00 A2986 RMK SC1 SC TR SLP154

CYYC;2007-09-20 08:00;CYYC 200800Z 19007KT 15SM FEW180 FEW240 01/01 A2981 RMK AC1CI1 SLP138

CYYC;2007-09-20 09:00;CYYC 200900Z 21006KT 15SM FEW240 01/01 A2977 RMK CI1 SLP116

CYYC;2007-09-20 10:00;CYYC 201000Z 20006KT 15SM SCT120 02/01 A2973 RMK AC4 SLP103

CYYC;2007-09-20 11:00;CYYC 201100Z 19006KT 15SM SCT120 BKN210 03/01 A2970 RMK AC4CI2 SLP095

CYYC;2007-09-20 12:00;CYYC 201200Z 20007KT 15SM BKN140 BKN240 04/01 A2966 RMK AC5CI2 SLP072

CYYC;2007-09-20 13:00;CYYC 201300Z 25005KT 20SM BKN140 OVC240 07/M01 A2964 RMK AC6CI2 SLP067

CYYC;2007-09-20 14:00;CYYC 201400Z 29013KT 40SM FEW080 OVC140 10/M01 A2964 RMK AC2AC6 AS ASOCTD SLP067

CYYC;2007-09-20 15:00;CYYC 201500Z 30012KT 40SM BKN080 OVC140 11/M01 A2966 RMK AC6AC2 AS ASOCTD SLP067

CYYC;2007-09-20 16:00;CYYC 201600Z 31009KT 40SM SCT080 OVC100 11/M00 A2967 RMK AC3AC5 SLP069

CYYC;2007-09-20 17:00;CYYC 201700Z 33004KT 30SM OVC062 11/00 A2966 RMK SC8 VIRGA E-S SLP068

CYYC;2007-09-20 17:48;CYYC 201748Z CCA 26010G21KT 30SM FEW036 BKN062 OVC080 11/ RMK CF1SC5AS3 WSHFT 1732/CF TR

CYYC;2007-09-20 18:00;CYYC 201800Z 26013KT 30SM FEW036 SCT062 OVC075 11/02 A2966 RMK CF1SC4AS4 CF TR SLP071

CYYC;2007-09-20 19:00;CYYC 201900Z 28020KT 40SM FEW058 OVC070 10/02 A2966 RMK SC2AS6 SLP071

CYYC;2007-09-20 19:23;CYYC 201923Z 28015KT 30SM -RA BKN030 OVC070 10/ RMK SC6AS2

CYYC;2007-09-20 20:00;CYYC 202000Z 27010KT 30SM -RA FEW028 BKN032 OVC070 10/03 A2968 RMK CU1SC6AS2 -RA INTMT/CU TR SLP075

CYYC;2007-09-20 20:40;CYYC 202040Z 26007KT 30SM FEW032 SCT035 BKN062 OVC080 10/ RMK CU1SC4SC2AS2 DIST SH E-SW

CYYC;2007-09-20 21:00;CYYC 202100Z 21005KT 40SM FEW026 FEW030 BKN061 BKN075 11/03 A2966 RMK CU1SC2SC2AS2 DIST SH NE-S/CU TR SLP071

CYYC;2007-09-20 22:00;CYYC 202200Z 19005KT 40SM FEW044 SCT062 BKN080 12/02 A2965 RMK CU1SC3AC2 DIST SH NE-S/CU TR SLP067

CYYC;2007-09-20 23:00;CYYC 202300Z 17004KT 40SM FEW040 FEW070 BKN120 BKN220 BKN260 13/02 A2965 RMK CU1AC1AC4CI2CI0 DIST SH NW+N+SE SLP068

CYYC;2007-09-20 23:44;CYYC 202344Z 18007KT 40SM -RA FEW036 BKN058 BKN080 12/ RMK CU1SC5AC2 CU TR

CYYC;2007-09-21 00:00;CYYC 210000Z CCA 16006KT 40SM -SHRA FEW034 BKN050 BKN080 11/03 A2966 RMK CU1SC6AC2 PCPN VRY LGT/CU TR SLP067

CYYC;2007-09-21 00:14;CYYC 210014Z CCB 30011G20KT 30SM BKN040CB BKN058 08/ RMK CB5SC2 WSHFT 1210/OCNL SH/DIST SH W-E

CYYC;2007-09-21 00:18;CYYC 210018Z 35022KT 40SM -SHRA BKN021CB BKN040CB BKN060 07/ RMK CB5CB2SC1 WSHFT 0015

CYYC;2007-09-21 00:27;CYYC 210027Z 36018G26KT 5SM SHRA SCT019CB BKN036CB OVC062 05/ RMK CB3CB4SC1

CYYC;2007-09-21 00:39;CYYC 210039Z CCA 06012G18KT 7SM SHRA SCT014CB BKN021CB OVC060 07/ RMK CB3CB2SC2 WSHFT 0028/CU ASOCTD

CYYC;2007-09-21 01:00;CYYC 210100Z 05007KT 40SM VCSH FEW008 FEW013 BKN020CB BKN090 BKN250 07/06 A2969 RERA RMK SC1SC2CB2AC2CI0 SH E/ VIS E 4/ DIST SH SE-S/LO SC TR/LTGCG S SLP077

CYYC;2007-09-21 01:31;CYYC 210131Z 04002KT 20SM -SHRA FEW020 BKN052CB BKN080 07/ RMK SC2CB5AC1

CYYC;2007-09-21 01:52;CYYC 210152Z CCA 35013G23KT 6SM -SHRA FEW020 OVC047CB 04/ RMK SC2CB6 WSHFT 0145Z

CYYC;2007-09-21 02:00;CYYC 210200Z 35010G16KT 7SM -SHRA FEW028 OVC043CB 04/04 A2976 RMK SC2CB6 SLP098

CYYC;2007-09-21 03:00;CYYC 210300Z 25005KT 7SM -SHRA BKN051 BKN065CB OVC072 05/04 A2978 RMK SC5CB2AC1 SLP106

CYYC;2007-09-21 03:32;CYYC 210332Z 24004KT 12SM SCT064 OVC069 05/ RMK SC4AC4

CYYC;2007-09-21 04:00;CYYC 210400Z 26006KT 15SM SCT065 OVC085 06/04 A2979 RMK SC3AC4 SLP110

CYYC;2007-09-21 05:00;CYYC 210500Z 24009KT 15SM FEW065 OVC086 05/04 A2980 RMK SC2AC6 SLP112

CYYC;2007-09-21 06:00;CYYC 210600Z 25007KT 15SM FEW065 OVC083 06/03 A2981 RMK SC1AC6 SLP116

CYYC;2007-09-21 07:00;CYYC 210700Z 36007KT 15SM FEW065 BKN089 06/04 A2985 RMK SC1AC6 SLP127

CYYC;2007-09-21 08:00;CYYC 210800Z 26004KT 15SM SCT089 04/02 A2984 RMK AC3 SLP125

CYYC;2007-09-21 09:00;CYYC 210900Z 19003KT 15SM FEW090 03/02 A2984 RMK AC2 SLP130

CYYC;2007-09-21 10:00;CYYC 211000Z 19003KT 15SM FEW090 02/02 A2984 RMK AC2 SLP130

CYYC;2007-09-21 11:00;CYYC 211100Z 00000KT 15SM FEW100 01/00 A2985 RMK AC1 AC TR SLP132

CYYC;2007-09-21 12:00;CYYC 211200Z 20004KT 15SM FEW100 00/00 A2984 RMK AC1 AC TR SLP132

CYYC;2007-09-21 13:00;CYYC 211300Z 22006KT 40SM FEW070 FEW120 M00/M00 A2982 RMK AC1AC1 CLDS TR SLP128

CYYC;2007-09-21 14:00;CYYC 211400Z 21005KT 40SM FEW070 FEW120 BKN260 01/00 A2981 RMK AC1AC1CI0 SLP123

CYYC;2007-09-21 15:00;CYYC 211500Z 22004KT 40SM FEW070 FEW120 FEW260 04/02 A2978 RMK AC1AC1CI0 LWR AC TR SLP117

CYYC;2007-09-21 16:00;CYYC 211600Z 21005KT 40SM FEW080 FEW120 SCT260 08/03 A2978 RMK AC1AC1CI0 SLP117

CYYC;2007-09-21 17:00;CYYC 211700Z 22009KT 40SM FEW080 BKN094 BKN260 11/03 A2976 RMK AC1AC4CI0 SLP109

CYYC;2007-09-21 18:00;CYYC 211800Z 20009KT 40SM FEW080 FEW090 BKN200 BKN260 14/01 A2974 RMK AC1AC1CI2CI0 SLP088

CYYC;2007-09-21 19:00;CYYC 211900Z 22008KT 40SM FEW080 BKN090 BKN200 BKN260 14/01 A2973 RMK AC1AC7CI1CI1 SLP085

CYYC;2007-09-21 20:00;CYYC 212000Z 22007KT 40SM FEW080 SCT090 BKN200 BKN260 15/01 A2972 RMK AC1AC2CI4CI0 SLP080

CYYC;2007-09-21 21:00;CYYC 212100Z 20008KT 40SM FEW090 BKN140 BKN200 14/00 A2969 RMK AC1AC6CI1 SLP074

CYYC;2007-09-21 22:00;CYYC 212200Z 18010KT 40SM FEW090 BKN100 BKN200 14/00 A2967 RMK AC1AC6CI1 SLP069

CYYC;2007-09-21 23:00;CYYC 212300Z 18008KT 40SM FEW090 SCT140 BKN220 BKN260 15/01 A2965 RMK AC1AC2CI2CI2 SLP063

CYYC;2007-09-22 00:00;CYYC 220000Z 18004KT 40SM FEW080 BKN140 BKN220 15/01 A2965 RMK AC1AC4CI3 SLP063

CYYC;2007-09-22 01:00;CYYC 220100Z 29009KT 30SM SCT092 BKN130 BKN220 14/02 A2964 RMK AC2AC4CI1 SLP061

CYYC;2007-09-22 01:13;CYYC 220113Z 28021G26KT 20SM VCSH BKN098 BKN220 14/ RMK AC6CI1 SH N-NE

CYYC;2007-09-22 02:00;CYYC 220200Z 28017G24KT 15SM FEW080 OVC100 12/02 A2963 RMK AC1AC6 SLP057

CYYC;2007-09-22 03:00;CYYC 220300Z 26015G21KT 15SM FEW080 BKN140 13/01 A2963 RMK AC1AC6 SLP052

CYYC;2007-09-22 04:00;CYYC 220400Z 27013G19KT 15SM FEW085 BKN140 12/01 A2962 RMK AC1AC5 SLP051

CYYC;2007-09-22 05:00;CYYC 220500Z 08004KT 15SM FEW085 FEW120 FEW210 10/01 A2962 RMK AC1AC1CI1 SLP051

CYYC;2007-09-22 06:00;CYYC 220600Z 33004KT 15SM FEW190 09/01 A2962 RMK AC0 SLP039

CYYC;2007-09-22 07:00;CYYC 220700Z 32002KT 15SM BKN190 10/01 A2961 RMK AC5 SLP037

CYYC;2007-09-22 08:00;CYYC 220800Z 30010KT 15SM FEW190 10/01 A2960 RMK AC1 SLP034

CYYC;2007-09-22 09:00;CYYC 220900Z 33009KT 15SM FEW190 08/02 A2959 RMK AC1 AC TR SLP032

CYYC;2007-09-22 10:00;CYYC 221000Z 31007KT 15SM SCT082 07/02 A2959 RMK AC2 SLP032

CYYC;2007-09-22 11:00;CYYC 221100Z 28006KT 15SM BKN082 09/02 A2960 RMK AC5 SLP034

CYYC;2007-09-22 12:00;CYYC 221200Z 19007KT 15SM SCT082 06/02 A2960 RMK AC2 SLP036

CYYC;2007-09-22 13:00;CYYC 221300Z CCA 05003KT 30SM FEW080 SCT240 04/01 A2958 RMK AC2CI0 VIRGA NE SLP032

CYYC;2007-09-22 14:00;CYYC 221400Z 04003KT 40SM FEW080 FEW140 FEW240 04/01 A2961 RMK AC1AC1CI1 LWR AC+CI TR SLP039

CYYC;2007-09-22 15:00;CYYC 221500Z 34008KT 40SM FEW080 BKN140 BKN220 08/03 A2962 RMK AC1AC3CI0 SLP043

CYYC;2007-09-22 16:00;CYYC 221600Z 36010KT 40SM FEW080 BKN120 BKN220 09/02 A2964 RMK AC1AC4CI1 SLP049

CYYC;2007-09-22 17:00;CYYC 221700Z 36011KT 40SM FEW080 BKN120 09/01 A2966 RMK AC1AC6 SLP057

CYYC;2007-09-22 18:00;CYYC 221800Z 34010G15KT 40SM FEW080 BKN100 10/01 A2969 RMK AC1AC6 SLP071

CYYC;2007-09-22 19:00;CYYC 221900Z 01010KT 40SM FEW040 FEW080 BKN120 11/02 A2969 RMK SC1AC1AC6 SLP072

CYYC;2007-09-22 20:00;CYYC 222000Z 04005KT 40SM FEW034 FEW080 BKN120 10/02 A2970 RMK CU1AC1AC6 VIRGA SLP075

CYYC;2007-09-22 21:00;CYYC 222100Z 04007KT 40SM FEW035 FEW080 BKN120 BKN240 11/02 A2970 RMK CU1AC1AC5CI0 VIRGA NE-SW SLP075

CYYC;2007-09-22 22:00;CYYC 222200Z 07005KT 40SM FEW035CB FEW080 FEW120 FEW240 13/03 A2971 RMK CB1AC1AC1CI0 CB NW / CB+LWR AC TR SLP077

CYYC;2007-09-22 23:00;CYYC 222300Z 07006KT 40SM FEW035 FEW080 FEW240 12/02 A2971 RMK CU1AC1CI1 CVCTV CLD ASOCTD / AC TR SLP079

CYYC;2007-09-23 00:00;CYYC 230000Z CCB 04006KT 40SM FEW040 FEW072 BKN220 12/02 A2973 RMK SC2AC1CI1 SLP087

CYYC;2007-09-23 01:00;CYYC 230100Z CCA 04008KT 40SM FEW042 BKN060 BKN090 BKN220 10/02 A2975 RMK SC1SC6AC1CI1 LWR SC TR / CVCTV CLD EMBD / SH SW-N SLP092

CYYC;2007-09-23 01:16;CYYC 230116Z 02011KT 30SM -SHRA BKN048 OVC065CB 10/ RMK SC6CB2

CYYC;2007-09-23 02:00;CYYC 230200Z 35015KT 15SM -SHRA BKN043 OVC050CB 06/04 A2980 RMK SC6CB2 SLP106

CYYC;2007-09-23 03:00;CYYC 230300Z 34011KT 8SM -RA OVC031 06/04 A2984 RMK SC8 SLP128

CYYC;2007-09-23 04:00;CYYC 230400Z 34008KT 10SM -RA BKN030 OVC042 06/05 A2984 RMK SC6SC2 SLP130

CYYC;2007-09-23 05:00;CYYC 230500Z 32010KT 7SM -RA BKN026 OVC038 06/05 A2987 RMK SC6SC2 SLP138

CYYC;2007-09-23 06:00;CYYC 230600Z 31010KT 10SM -RA FEW028 BKN040 OVC065 06/05 A2987 RMK SC1SC6SC2 SLP139

CYYC;2007-09-23 07:00;CYYC 230700Z 32011KT 15SM -RA FEW060 OVC068 05/04 A2988 RMK SC2AC6 RA VRY LGT SLP141

CYYC;2007-09-23 08:00;CYYC 230800Z 32009KT 10SM -RA SCT027 OVC041 05/04 A2989 RMK SC3SC5 SLP145

CYYC;2007-09-23 09:00;CYYC 230900Z 32005KT 12SM -RA OVC043 05/04 A2990 RMK SC8 SLP149

CYYC;2007-09-23 10:00;CYYC 231000Z 35008KT 15SM -RA FEW012 OVC063 05/04 A2991 RMK SC2SC6 SLP151

CYYC;2007-09-23 11:00;CYYC 231100Z 36012G17KT 15SM -RA FEW016 OVC060 04/04 A2991 RMK SC1SC7 SLP153

CYYC;2007-09-23 11:30;CYYC 231130Z 36010G16KT 15SM FEW008 OVC060 04/ RMK SF2SC6 CLDS RPDLY MOVNG FROM N

CYYC;2007-09-23 12:00;CYYC 231200Z 01013KT 15SM SCT009 BKN058 OVC100 04/04 A2993 RMK SF3SC4AC1 SLP158

CYYC;2007-09-23 12:42;CYYC 231242Z 02010KT 15SM BKN006 OVC057 04/ RMK ST7SC1

CYYC;2007-09-23 13:00;CYYC 231300Z 01011G17KT 15SM OVC006 04/04 A2996 RMK SC8 SLP166

CYYC;2007-09-23 13:28;CYYC 231328Z 02014KT 8SM -RA OVC007 04/ RMK SC8

CYYC;2007-09-23 14:00;CYYC 231400Z CCA 03010G16KT 8SM -RA BKN007 BKN016 OVC035 03/03 A2997 RMK SC2SC5SC1 SLP169

CYYC;2007-09-23 14:15;CYYC 231415Z 02010G15KT 6SM -RA BKN007 OVC016 03/ RMK SC5SC3

CYYC;2007-09-23 15:00;CYYC 231500Z 02013KT 6SM -RA BKN006 OVC016 03/02 A2998 RMK SC5SC3 SLP187

CYYC;2007-09-23 16:00;CYYC 231600Z 02009KT 6SM -RA BKN006 OVC016 03/03 A2999 RMK SC5SC3 SLP190

CYYC;2007-09-23 17:00;CYYC 231700Z 01009KT 8SM -RA BKN007 OVC016 04/03 A3000 RMK SC6SC2 SLP191

CYYC;2007-09-23 18:00;CYYC 231800Z 35014KT 15SM -RA BKN014 OVC060 05/03 A3000 RMK SC7SC1 SLP192

CYYC;2007-09-23 18:15;CYYC 231815Z 35012KT 15SM BKN014 OVC060 05/ RMK SC7SC1

CYYC;2007-09-23 18:39;CYYC 231839Z 36013KT 20SM OVC020 05/ RMK SC8

CYYC;2007-09-23 19:00;CYYC 231900Z 36010G16KT 20SM OVC020 05/03 A3002 RMK SC8 SLP197

CYYC;2007-09-23 20:00;CYYC 232000Z 36013KT 20SM OVC020 06/02 A3002 RMK SC7 SLP198

CYYC;2007-09-23 21:00;CYYC 232100Z 35010KT 20SM FEW020 BKN028 OVC220 07/01 A3003 RMK SC1SC7CI0 SLP200

CYYC;2007-09-23 22:00;CYYC 232200Z 36013KT 20SM FEW020 BKN038 OVC220 07/01 A3004 RMK SC1SC7CI0 SLP203

CYYC;2007-09-23 23:00;CYYC 232300Z 36008KT 20SM FEW020 BKN040 BKN220 07/00 A3006 RMK SC1SC7CI1 SLP209

CYYC;2007-09-24 00:00;CYYC 240000Z 36008KT 20SM FEW025 BKN035 BKN120 BKN220 07/01 A3008 RMK SC1SC7AC1CI1 SLP217

CYYC;2007-09-24 01:00;CYYC 240100Z 35006KT 20SM FEW025 BKN038 BKN120 BKN220 06/01 A3009 RMK SC1SC5AC1CI0 SLP220

CYYC;2007-09-24 02:00;CYYC 240200Z 34003KT 15SM FEW040 FEW120 SCT250 04/00 A3009 RMK SC1AC1CI0 SLP221

CYYC;2007-09-24 03:00;CYYC 240300Z 22003KT 15SM FEW120 FEW250 03/00 A3009 RMK AC1CI0 SLP230

CYYC;2007-09-24 04:00;CYYC 240400Z 06004KT 15SM SKC 00/M01 A3010 RMK SLP233

CYYC;2007-09-24 05:00;CYYC 240500Z 02003KT 15SM SKC 01/M01 A3011 RMK SLP235

CYYC;2007-09-24 06:00;CYYC 240600Z 07002KT 15SM SKC 01/M01 A3012 RMK SLP239

CYYC;2007-09-24 07:00;CYYC 240700Z 14003KT 15SM SKC 00/M01 A3012 RMK SLP239

CYYC;2007-09-24 08:00;CYYC 240800Z 19004KT 15SM SKC M01/M02 A3012 RMK SLP241

CYYC;2007-09-24 09:00;CYYC 240900Z 21002KT 15SM SKC M00/M01 A3013 RMK SLP242

CYYC;2007-09-24 10:00;CYYC 241000Z 22003KT 15SM SKC M01/M02 A3012 RMK SLP240

CYYC;2007-09-24 11:00;CYYC 241100Z 19005KT 15SM SKC M02/M03 A3012 RMK SLP240

CYYC;2007-09-24 12:00;CYYC 241200Z 20005KT 15SM SKC M03/M03 A3012 RMK SLP242

CYYC;2007-09-24 13:00;CYYC 241300Z 21004KT 30SM FEW220 M03/M04 A3012 RMK CI1 FROIN SLP241

CYYC;2007-09-24 14:00;CYYC 241400Z 19002KT 40SM FEW080 FEW240 M02/M02 A3010 RMK AC1CI0 FROIN SLP237

CYYC;2007-09-24 15:00;CYYC 241500Z 21002KT 40SM FEW080 FEW240 01/00 A3010 RMK AC1CI1 SLP236

CYYC;2007-09-24 16:00;CYYC 241600Z 21005KT 40SM FEW080 FEW240 04/02 A3009 RMK AC1CI1 SLP233

CYYC;2007-09-24 17:00;CYYC 241700Z 21004KT 40SM FEW080 FEW240 07/01 A3008 RMK AC1CI1 SLP229

CYYC;2007-09-24 18:00;CYYC 241800Z 19006KT 40SM FEW080 FEW260 10/01 A3006 RMK AC1CI1 SLP213

CYYC;2007-09-24 19:00;CYYC 241900Z 18007KT 40SM FEW040 FEW080 FEW260 12/00 A3004 RMK CU1AC1CI0 SLP206

CYYC;2007-09-24 20:00;CYYC 242000Z 16006KT 40SM FEW056 FEW090 FEW260 13/M02 A3002 RMK CU1AC1CI0 SLP200

CYYC;2007-09-24 21:00;CYYC 242100Z 19006KT 40SM FEW050 FEW090 BKN260 13/M00 A3000 RMK CU1AC1CI0 SLP187

CYYC;2007-09-24 22:00;CYYC 242200Z 18003KT 40SM FEW050 FEW090 SCT260 14/M01 A2998 RMK CU1AC1CI0 SLP181

CYYC;2007-09-24 23:00;CYYC 242300Z 24002KT 40SM FEW080 FEW160 FEW260 14/M01 A2997 RMK AC1AC1CI0 SLP177

CYYC;2007-09-25 00:00;CYYC 250000Z 23002KT 40SM FEW080 FEW160 FEW260 14/M01 A2995 RMK AC1AC1CI0 SLP172

CYYC;2007-09-25 01:00;CYYC 250100Z 25006KT 40SM FEW080 FEW160 FEW260 12/M00 A2994 RMK AC1AC1CI0 SLP168

CYYC;2007-09-25 02:00;CYYC 250200Z 19004KT 40SM FEW080 FEW160 FEW260 09/M01 A2993 RMK AC1AC1CI0 SLP165

CYYC;2007-09-25 03:00;CYYC 250300Z 25002KT 15SM FEW100 SCT240 09/M00 A2993 RMK AC1CI1 AC TR SLP166

CYYC;2007-09-25 04:00;CYYC 250400Z 22005KT 15SM BKN250 07/M01 A2991 RMK CI1 SLP161

CYYC;2007-09-25 05:00;CYYC 250500Z 28010KT 15SM OVC250 09/M01 A2991 RMK CI2 SLP160

CYYC;2007-09-25 06:00;CYYC 250600Z 29006KT 15SM BKN250 08/M02 A2990 RMK CI0 SLP148

CYYC;2007-09-25 07:00;CYYC 250700Z 31007KT 15SM FEW240 SCT260 09/M02 A2989 RMK CI1CI0 SLP145

CYYC;2007-09-25 08:00;CYYC 250800Z 28014KT 15SM FEW200 BKN260 10/M03 A2989 RMK CI2CI1 SLP144

CYYC;2007-09-25 09:00;CYYC 250900Z 29010KT 15SM FEW100 BKN260 10/M03 A2989 RMK AC1CI2 SLP134

CYYC;2007-09-25 10:00;CYYC 251000Z 27015KT 15SM BKN110 BKN260 11/M02 A2988 RMK AC6CI0 SLP131

CYYC;2007-09-25 11:00;CYYC 251100Z 27012G17KT 15SM FEW080 BKN100 OVC240 11/M01 A2989 RMK AC2AC5CI0 SLP134

CYYC;2007-09-25 12:00;CYYC 251200Z 28007KT 15SM OVC095 10/M01 A2988 RMK AC7 SLP129

CYYC;2007-09-25 13:00;CYYC 251300Z 27010KT 15SM FEW100 OVC220 10/M01 A2987 RMK AC2CI2 SLP126

CYYC;2007-09-25 14:00;CYYC 251400Z 26007KT 40SM SCT065 BKN180 BKN220 10/M00 A2986 RMK SC3AC2CI2 SLP124

CYYC;2007-09-25 15:00;CYYC 251500Z 00000KT 40SM FEW065 BKN090 BKN180 10/01 A2987 RMK SC1AC5AC2 SLP135

CYYC;2007-09-25 16:00;CYYC 251600Z 27007KT 40SM FEW065 BKN076 11/01 A2987 RMK SC1AC7 VIRGA NW-E/SC TR SLP134

CYYC;2007-09-25 17:00;CYYC 251700Z 27014G21KT 40SM FEW045 BKN070 BKN100 14/02 A2987 RMK CU1AC5AC2 VIRGA N-SE/CU TR/CF ASOCTD SLP134

CYYC;2007-09-25 18:00;CYYC 251800Z 27012G17KT 40SM FEW052 SCT100 BKN110 14/01 A2987 RMK CU1AC3AC4 DIST SH N-SE/CU TR SLP131

CYYC;2007-09-25 19:00;CYYC 251900Z 27014KT 40SM FEW060TCU SCT110 SCT260 16/00 A2987 RMK TCU1AC2CI0 DIST SH NW-S SLP129

CYYC;2007-09-25 19:23;CYYC 251923Z 36015G20KT 40SM FEW062CB BKN110 BKN220 14/ RMK CB2AC4CI1 WSHFT 1910/DIST SH NW-S

CYYC;2007-09-25 19:44;CYYC 251944Z 03014KT 40SM -SHRA BKN062 BKN110 BKN260 13/ RMK SC6AC1CI1 CB EMBD

CYYC;2007-09-25 20:00;CYYC 252000Z 04011KT 40SM BKN062 BKN110 BKN260 13/02 A2988 RMK SC5AC2CI1 DIST SH NW-S/CB EMBD SLP132

CYYC;2007-09-25 20:15;CYYC 252015Z 02014KT 40SM -SHRA FEW040 BKN058 OVC110 13/ RMK SC1SC6AC2 PCPN VRY LGT/CB EMBD

CYYC;2007-09-25 21:00;CYYC 252100Z 02011KT 40SM -SHRA FEW012 BKN042CB BKN100 12/02 A2991 RMK SC1CB6AC1 SH OCNL/VIS E 6/MAMMA SLP145

CYYC;2007-09-25 22:00;CYYC 252200Z 02008KT 40SM -SHRA FEW022 BKN036 BKN120 BKN260 09/05 A2994 RMK SC1SC6AC1CI0 VIS NW+SE 10/SH OCNL/CB EMBD SLP152

CYYC;2007-09-25 22:12;CYYC 252212Z 03005KT 40SM FEW036CB BKN042CB BKN080 BKN120 BKN260 09/ RMK CB2CB3AC1AC1CI1 DIST SH NW+E+S/VIS NW+E 10/VIRGA OVRHD

CYYC;2007-09-25 22:17;CYYC 252217Z 05006KT 40SM -SHRA BKN042CB BKN110 09/ RMK CB6AC1 VIS NW+E 10

CYYC;2007-09-25 23:00;CYYC 252300Z 36008KT 30SM -SHRA FEW030CB BKN040CB 09/06 A2994 RMK CB1CB6 VIS NW 5/VIS E 10 SLP154

CYYC;2007-09-25 23:42;CYYC 252342Z 35007KT 40SM VCSH SCT056CB BKN084 BKN120 10/ RMK CB3AC2AC2 SH SE/VIS SE 5/DIST SH NW+NE

CYYC;2007-09-26 00:00;CYYC 260000Z 32009KT 40SM VCSH FEW056CB FEW084 SCT120 10/05 A2993 RMK CB2AC1AC2 SH SE/VIS SE 5/DIST SH NW+NE/MAMMA SLP153

CYYC;2007-09-26 01:00;CYYC 260100Z 32004KT 30SM FEW024CB FEW140 FEW260 10/04 A2994 RMK CB2AC1CI1 VIS SE 10/DIST SH NW-NE+SE+SW/CI TR SLP156

CYYC;2007-09-26 02:00;CYYC 260200Z 34011G17KT 15SM FEW040 SCT100 06/02 A2997 RMK SC2AC2 SLP164

CYYC;2007-09-26 03:00;CYYC 260300Z 25004KT 15SM FEW100 SCT240 05/01 A2996 RMK AC1CI1 SLP169

CYYC;2007-09-26 04:00;CYYC 260400Z 23007KT 15SM FEW240 05/01 A2995 RMK CI0 SLP167

CYYC;2007-09-26 05:00;CYYC 260500Z 23008KT 15SM FEW240 04/02 A2994 RMK CI1 CI TR SLP163

CYYC;2007-09-26 06:00;CYYC 260600Z 20008KT 15SM FEW240 03/01 A2993 RMK CI1 CI TR SLP158

CYYC;2007-09-26 07:00;CYYC 260700Z 20009KT 15SM FEW240 03/01 A2992 RMK CI1 CI TR SLP155

CYYC;2007-09-26 08:00;CYYC 260800Z 19007KT 15SM FEW240 03/00 A2989 RMK CI1 CI TR SLP147

CYYC;2007-09-26 09:00;CYYC 260900Z 19006KT 15SM SKC 02/M00 A2988 RMK SLP144

CYYC;2007-09-26 10:00;CYYC 261000Z 26007KT 15SM FEW240 07/M01 A2986 RMK CI1 SLP139

CYYC;2007-09-26 11:00;CYYC 261100Z 28002KT 15SM SCT096 BKN240 07/M01 A2986 RMK AC2CI1 SLP137

CYYC;2007-09-26 12:00;CYYC 261200Z 14006KT 15SM FEW096 BKN240 05/M01 A2984 RMK AC1CI2 AC TR SLP129

CYYC;2007-09-26 13:00;CYYC 261300Z 25007KT 20SM FEW080 SCT120 OVC240 08/M00 A2983 RMK AC1AC3CI3 SLP125

CYYC;2007-09-26 14:00;CYYC 261400Z 18006KT 40SM FEW022 FEW050 SCT210 BKN240 06/M00 A2982 RMK CU1SC1CI1CI0 VIRGA SW/CU TR SLP121

CYYC;2007-09-26 15:00;CYYC 261500Z 16003KT 40SM FEW034 FEW150 FEW210 10/01 A2983 RMK CU1AC1CI1 ACSL ASOCTD SLP124

CYYC;2007-09-26 15:12;CYYC 261512Z 27011KT 40SM FEW034 FEW150 FEW240 12/ RMK CU1AC1CI1 WSHFT 1505/ACSL ASOCTD/CU+AC TR

CYYC;2007-09-26 16:00;CYYC 261600Z 28016KT 40SM FEW048 SCT090 BKN200 15/02 A2984 RMK CU1AC3CI3 VIRGA SW-NW/ACSL ASOCTD/CU TR SLP129

CYYC;2007-09-26 17:00;CYYC 261700Z 29010KT 40SM FEW050 SCT065CB BKN090 BKN140 BKN190 14/01 A2985 RMK CU1CB4AC2AC1AS1 DIST SH N-NE/VIRGA SW-NW/ACSL ASOCTD/CU TR SLP132

CYYC;2007-09-26 18:00;CYYC 261800Z 34009KT 40SM FEW044 SCT120 BKN150 BKN200 15/03 A2986 RMK CU1AC3AC2CI1 DIST SH E/VIRGA SE/CU TR SLP133

CYYC;2007-09-26 19:00;CYYC 261900Z 35007KT 40SM FEW056 SCT100 BKN260 16/02 A2985 RMK CU2AC2CI0 DIST SH SE SLP131

CYYC;2007-09-26 20:00;CYYC 262000Z 28012KT 40SM FEW058 SCT065 BKN090 16/01 A2985 RMK CU2SC2AC2 DIST SH N-NE/ VIRGA OVRHD/CB EMBD SLP128

CYYC;2007-09-26 20:22;CYYC 262022Z 32005KT 40SM -SHRA FEW058 BKN062 BKN120 16/ RMK CU2SC5AC1 PCPN VRY LGT/CB EMBD

CYYC;2007-09-26 20:33;CYYC 262033Z CCA 04014G22KT 40SM -SHRA FEW048 SCT060 BKN070 BKN180 15/ RMK CU2SC2AC2AC1 WSHFT 2025/PCPN VRY LGT/CB EMBD

CYYC;2007-09-26 20:36;CYYC 262036Z 34012G26KT 40SM -SHRA FEW048 SCT060 BKN070 BKN180 15/ RMK CU2SC2AC2AC1 WSHFT 2034/PCPN VRY LGT/CB EMBD

CYYC;2007-09-26 20:53;CYYC 262053Z 00000KT 40SM VCSH SCT038CB SCT048 BKN075 16/ RMK CB3CU1AC3 DIST SH N VIS 10/ SH E VIS 5/ MAMMA

CYYC;2007-09-26 21:00;CYYC 262100Z CCA 25007G16KT 40SM VCSH SCT038CB SCT048 BKN078 18/03 A2986 RMK CB3CU1AC3 DIST SH N VIS 10/SH E VIS 5/MAMMA/WSHFT 2054 SLP130

CYYC;2007-09-26 21:02;CYYC 262102Z 33011G25KT 40SM -SHRA FEW038CB SCT058 BKN078 16/ RMK CB2CU1AC4 WSHFT 2101

CYYC;2007-09-26 21:11;CYYC 262111Z 28011G18KT 40SM -SHRA FEW050CB FEW058 BKN078 17/ RMK CB2CU1AC4 WSHFT 2105/-SHRA INTMT

CYYC;2007-09-26 21:15;CYYC 262115Z CCA 04010G18KT 40SM VCSH FEW050CB FEW058 BKN078 16/ RMK CB2CU1AC4 WSHFT 2112/SH N-SE/ VIS N-SE 6

CYYC;2007-09-26 21:21;CYYC 262121Z CCA 08006G18KT 40SM -SHRA FEW040 FEW050CB BKN078 BKN260 14/ RMK CU1CB2AC3CI0 VIS N-SE 6

CYYC;2007-09-26 21:31;CYYC 262131Z CCA 03010KT 40SM -SHRA FEW040 SCT055CB BKN080 14/ RMK CU1CB2AC4 WSHFT 2122/VIS N-SE 6

CYYC;2007-09-26 22:00;CYYC 262200Z CCA 03017KT 40SM -SHRA FEW040 SCT065CB BKN078 14/04 A2993 RMK CU1CB3AC3 -SHRA INTMT/ VIS NW 10/VIS NE 5/VIS E 15/PRESRR SLP150

CYYC;2007-09-26 23:00;CYYC 262300Z 02012G20KT 40SM FEW016 FEW054 BKN110 09/04 A2997 RMK CU1SC2AC3 DIST SH E/CB EMBD SLP162

CYYC;2007-09-27 00:00;CYYC 270000Z 03009KT 40SM FEW020 FEW070 10/05 A3000 RMK CU1AC1 DIST SH E SLP186

CYYC;2007-09-27 01:00;CYYC 270100Z 00000KT 40SM FEW020 FEW070 09/04 A3002 RMK CU1AC1 SLP192

CYYC;2007-09-27 02:00;CYYC 270200Z 19002KT 15SM FEW040 FEW100 08/04 A3005 RMK SC1AC1 CLDS TR SLP199

CYYC;2007-09-27 03:00;CYYC 270300Z 21002KT 15SM FEW100 07/04 A3006 RMK AC1 AC TR SLP204

CYYC;2007-09-27 04:00;CYYC 270400Z 21006KT 15SM FEW100 05/03 A3009 RMK AC1 SLP212

CYYC;2007-09-27 05:00;CYYC 270500Z CCA 22005KT 15SM SKC 03/02 A3010 RMK SLP215

CYYC;2007-09-27 06:00;CYYC 270600Z 21006KT 15SM FEW140 03/02 A3010 RMK AC1 AC TR SLP216

CYYC;2007-09-27 07:00;CYYC 270700Z 20006KT 15SM FEW140 04/02 A3010 RMK AC1 AC TR SLP216

CYYC;2007-09-27 08:00;CYYC 270800Z 19004KT 15SM FEW140 FEW250 04/02 A3009 RMK AC1CI0 AC TR SLP213

CYYC;2007-09-27 09:00;CYYC 270900Z 19004KT 15SM FEW160 OVC250 04/01 A3007 RMK AC1CI2 SLP201

CYYC;2007-09-27 10:00;CYYC 271000Z 19003KT 15SM FEW160 OVC220 04/01 A3005 RMK AC1CI2 SLP193

CYYC;2007-09-27 11:00;CYYC 271100Z 16005KT 15SM FEW160 OVC200 03/01 A3002 RMK AC2CI3 SLP183

CYYC;2007-09-27 12:00;CYYC 271200Z 16002KT 15SM BKN180 OVC220 02/01 A3000 RMK AC3CI2 SLP190

CYYC;2007-09-27 13:00;CYYC 271300Z 21004KT 15SM BKN120 BKN180 OVC220 03/01 A2997 RMK AC5AC1CI2 SLP180

CYYC;2007-09-27 14:00;CYYC 271400Z 15003KT 40SM FEW040 FEW120 BKN170 BKN220 03/02 A2993 RMK CU1AC2AC5CI1 ACSL NW SLP169

CYYC;2007-09-27 15:00;CYYC 271500Z 21006KT 40SM FEW040 FEW180 SCT220 BKN260 04/02 A2991 RMK CU1AC2CI2CI0 SLP158

CYYC;2007-09-27 16:00;CYYC 271600Z 19005KT 40SM FEW050 FEW180 BKN240 06/02 A2987 RMK CU1AC1CC6 ACSL SW SLP146

CYYC;2007-09-27 17:00;CYYC 271700Z 20004KT 40SM FEW050 BKN160 OVC220 08/00 A2984 RMK CU1AC5CI2 SLP137

CYYC;2007-09-27 18:00;CYYC 271800Z CCA 19008KT 40SM FEW050 FEW160 OVC220 11/02 A2981 RMK CU1AC1CS6 SLP118

CYYC;2007-09-27 19:00;CYYC 271900Z 16006KT 40SM FEW050 FEW120 SCT180 BKN200 BKN240 15/03 A2976 RMK CU1AC1AC3CC2CI1 SLP104

CYYC;2007-09-27 20:00;CYYC 272000Z 13007KT 40SM FEW055 FEW170 BKN210 17/04 A2972 RMK CU1AC1CI5 SLP092

CYYC;2007-09-27 21:00;CYYC 272100Z 14009KT 40SM FEW065 FEW170 BKN210 20/02 A2968 RMK CU1AC2CI3 SLP061

CYYC;2007-09-27 22:00;CYYC 272200Z 16013G18KT 40SM FEW065 FEW170 BKN240 19/03 A2965 RMK CU1AC1CI3 SLP053

CYYC;2007-09-27 23:00;CYYC 272300Z 20003KT 40SM FEW065 FEW160 SCT180 BKN260 19/02 A2963 RMK CU1AC1AC1CI2 ACSL S SLP046

CYYC;2007-09-28 00:00;CYYC 280000Z CCA 22006KT 30SM FEW060 FEW160 FEW180 BKN260 18/04 A2962 RMK CU1AC1AC1CS6 ACSL SW SLP044

CYYC;2007-09-28 01:00;CYYC 280100Z 23003KT 30SM FEW055 FEW180 BKN260 17/01 A2961 RMK CU1AC2CI3 SLP041

CYYC;2007-09-28 02:00;CYYC 280200Z 23005KT 15SM FEW055 FEW180 BKN240 15/01 A2960 RMK CU1AC2CI3 SLP038

CYYC;2007-09-28 03:00;CYYC 280300Z 22004KT 15SM FEW180 BKN210 OVC250 15/01 A2958 RMK AC2CI4CI1 SLP034

CYYC;2007-09-28 04:00;CYYC 280400Z 18007KT 15SM FEW180 OVC230 14/02 A2957 RMK AC2CI6 SLP029

CYYC;2007-09-28 05:00;CYYC 280500Z 18013KT 15SM FEW180 OVC240 14/02 A2954 RMK AC2CI6 SLP022

CYYC;2007-09-28 06:00;CYYC 280600Z 18011KT 15SM FEW180 OVC240 13/02 A2953 RMK AC2CI6 SLP006

CYYC;2007-09-28 07:00;CYYC 280700Z 17012KT 15SM FEW180 OVC240 13/02 A2951 RMK AC2CI6 SLP000

CYYC;2007-09-28 08:00;CYYC 280800Z 18012KT 15SM FEW180 OVC240 13/02 A2950 RMK AC2CI6 SLP997

CYYC;2007-09-28 09:00;CYYC 280900Z 18012KT 15SM FEW160 OVC240 12/02 A2949 RMK AC2CI6 SLP985

CYYC;2007-09-28 10:00;CYYC 281000Z 21005KT 15SM FEW160 OVC240 09/02 A2948 RMK AC2CI6 SLP981

CYYC;2007-09-28 11:00;CYYC 281100Z 19004KT 15SM FEW160 BKN220 OVC250 08/02 A2948 RMK AC2CI6CI1 SLP981

CYYC;2007-09-28 12:00;CYYC 281200Z 33005KT 15SM FEW080 FEW180 OVC240 07/02 A2949 RMK AC1AC2CI5 SLP994

CYYC;2007-09-28 13:00;CYYC 281300Z 35008KT 15SM FEW180 OVC240 06/03 A2951 RMK AC2CI6 SLP001

CYYC;2007-09-28 14:00;CYYC 281400Z 35008KT 30SM FEW030 FEW210 BKN260 05/03 A2952 RMK SC2CC1CI6 SLP004

CYYC;2007-09-28 15:00;CYYC 281500Z 35008KT 30SM FEW012 FEW030 BKN240 06/04 A2953 RMK SC1SC1CI7 SLP014

CYYC;2007-09-28 16:00;CYYC 281600Z 36011KT 20SM FEW013 FEW030 FEW160 BKN250 07/05 A2953 RMK SC1SC1AC2CI6 SLP012

CYYC;2007-09-28 17:00;CYYC 281700Z 36007KT 20SM FEW013 BKN015 BKN160 OVC240 08/05 A2953 RMK SF2SC4AC1CI2 SLP013

CYYC;2007-09-28 18:00;CYYC 281800Z 01006KT 20SM BKN020 OVC160 09/05 A2951 RMK SC6AC1 SLP005

CYYC;2007-09-28 19:00;CYYC 281900Z 02006KT 20SM SCT022 OVC180 10/05 A2951 RMK SC3AC3 SLP003

CYYC;2007-09-28 20:00;CYYC 282000Z 36008KT 20SM FEW026 SCT140 OVC210 11/05 A2950 RMK SC2AC1CI2 SLP000

CYYC;2007-09-28 21:00;CYYC 282100Z 36008KT 20SM FEW032 FEW100 OVC200 11/04 A2949 RMK SC2AC1CI2 SLP996

CYYC;2007-09-28 22:00;CYYC 282200Z 01011KT 20SM FEW032 FEW100 OVC200 11/05 A2950 RMK SC2AC1CI2 SLP999

CYYC;2007-09-28 23:00;CYYC 282300Z 01013G20KT 15SM BKN023 OVC200 09/04 A2952 RMK SC6CI2 SLP003

CYYC;2007-09-29 00:00;CYYC 290000Z 34016KT 15SM SCT015 OVC021 07/03 A2955 RMK SC3SC5 SLP031

CYYC;2007-09-29 00:21;CYYC 290021Z 34016KT 15SM BKN014 OVC019 06/ RMK SC6SC2

CYYC;2007-09-29 01:00;CYYC 290100Z 34016KT 15SM OVC012 05/03 A2958 RMK SC8 SLP040

CYYC;2007-09-29 02:00;CYYC 290200Z 34017G22KT 15SM OVC014 04/01 A2961 RMK SC8 SLP048

CYYC;2007-09-29 03:00;CYYC 290300Z 33018KT 15SM BKN012 OVC017 03/01 A2964 RMK SC7SC1 SLP068

CYYC;2007-09-29 04:00;CYYC 290400Z 34011G18KT 7SM -RASN OVC011 03/02 A2965 RMK SC8 SLP071

CYYC;2007-09-29 05:00;CYYC 290500Z 34013KT 6SM -RASN OVC010 02/02 A2968 RMK SC8 SLP079

CYYC;2007-09-29 05:37;CYYC 290537Z 34013KT 7SM -SN BKN012 BKN022 OVC030 02/ RMK SC5SC2SC1

CYYC;2007-09-29 06:00;CYYC 290600Z 35013KT 7SM -SN BKN012 OVC030 02/01 A2968 RMK SC6SC2 SLP079

CYYC;2007-09-29 07:00;CYYC 290700Z 35015KT 6SM -SN BR BKN010 BKN022 OVC038 02/01 A2969 RMK SC6SC2SC1 SN VRY LGT SLP083

CYYC;2007-09-29 08:00;CYYC 290800Z 33012KT 6SM -SN BR BKN014 OVC020 01/01 A2971 RMK SC6SC2 SLP088

CYYC;2007-09-29 09:00;CYYC 290900Z 32008KT 15SM -SN FEW014 FEW030 OVC046 02/01 A2973 RMK SF1SC2SC6 SN VRY LGT SLP092

CYYC;2007-09-29 10:00;CYYC 291000Z 32009KT 15SM -SN OVC041 02/01 A2975 RMK SC8 SLP100

CYYC;2007-09-29 10:54;CYYC 291054Z 32009KT 15SM BKN052 OVC170 02/ RMK SC6AS2

CYYC;2007-09-29 11:00;CYYC 291100Z 32009KT 15SM BKN055 OVC180 02/00 A2977 RMK SC6AS2 SLP104

CYYC;2007-09-29 12:00;CYYC 291200Z 31007KT 15SM FEW065 BKN180 OVC240 02/M00 A2979 RMK SC2AC3CI2 SLP121

CYYC;2007-09-29 13:00;CYYC 291300Z 32008KT 15SM BKN064 BKN180 OVC240 02/M00 A2980 RMK SC5AC2CI1 SLP123

CYYC;2007-09-29 14:00;CYYC 291400Z 32006KT 40SM SCT034 BKN068 BKN160 02/M00 A2983 RMK SC2AC2AS2 SLP131

CYYC;2007-09-29 15:00;CYYC 291500Z 32006KT 40SM FEW034 SCT064 BKN160 BKN240 02/M01 A2985 RMK SC1SC2AC1CI0 SH S SLP144

CYYC;2007-09-29 16:00;CYYC 291600Z 32006KT 40SM FEW030 FEW065 FEW180 04/00 A2985 RMK SC1SC1AC1 VIRGA SE SLP147

CYYC;2007-09-29 17:00;CYYC 291700Z 36007KT 40SM FEW024 FEW065 FEW180 05/M01 A2985 RMK CU1SC1AC1 SLP147

CYYC;2007-09-29 18:00;CYYC 291800Z 04004KT 40SM FEW035 FEW080 FEW150 06/M03 A2986 RMK CU1AC1AC1 SLP145

CYYC;2007-09-29 19:00;CYYC 291900Z 00000KT 40SM FEW042 SCT110 SCT150 07/M04 A2985 RMK CU1AC2AC1 SLP144

CYYC;2007-09-29 20:00;CYYC 292000Z 14004KT 40SM FEW044 FEW110 FEW150 08/M03 A2985 RMK CU1AC1AC1 SLP143

CYYC;2007-09-29 21:00;CYYC 292100Z 22006KT 40SM FEW044 FEW120 09/M02 A2983 RMK CU1AC1 SLP132

CYYC;2007-09-29 22:00;CYYC 292200Z 18007KT 40SM FEW044 FEW120 09/M02 A2983 RMK CU1AC1 SLP130

CYYC;2007-09-29 23:00;CYYC 292300Z 18009KT 40SM FEW044 FEW120 FEW230 10/M01 A2983 RMK CU1AC1CI1 SLP130

CYYC;2007-09-30 00:00;CYYC 300000Z 17006KT 40SM FEW044 FEW120 FEW220 09/M01 A2982 RMK CU1AC1CI0 SLP127

CYYC;2007-09-30 01:00;CYYC 300100Z 15009KT 40SM FEW044 FEW150 BKN220 07/M01 A2982 RMK CU1AC1CI0 SLP127

CYYC;2007-09-30 02:00;CYYC 300200Z 16008KT 15SM FEW036 FEW150 SCT220 06/M01 A2983 RMK CU1AC1CI0 SLP131

CYYC;2007-09-30 03:00;CYYC 300300Z 15011KT 15SM FEW200 06/M00 A2982 RMK CC2 SLP132

CYYC;2007-09-30 04:00;CYYC 300400Z 16006KT 15SM SCT160 BKN200 05/M00 A2982 RMK AC3CI2 SLP131

CYYC;2007-09-30 05:00;CYYC 300500Z 19004KT 15SM SCT160 BKN200 04/00 A2981 RMK AC3CI2 SLP129

CYYC;2007-09-30 06:00;CYYC 300600Z 20005KT 15SM FEW160 FEW210 03/M00 A2980 RMK AC1CI1 SLP123

CYYC;2007-09-30 07:00;CYYC 300700Z 21005KT 15SM FEW240 02/M01 A2979 RMK CI1 SLP120

CYYC;2007-09-30 08:00;CYYC 300800Z 21005KT 15SM SKC 02/M01 A2979 RMK SLP121

CYYC;2007-09-30 09:00;CYYC 300900Z 21007KT 15SM SKC 01/M03 A2979 RMK SLP119

CYYC;2007-09-30 10:00;CYYC 301000Z 21007KT 15SM FEW180 01/M03 A2979 RMK AC1 SLP119

CYYC;2007-09-30 11:00;CYYC 301100Z 20006KT 15SM SCT210 01/M03 A2979 RMK CI2 SLP118

CYYC;2007-09-30 12:00;CYYC 301200Z 19005KT 15SM BKN240 01/M03 A2979 RMK CI4 SLP117

CYYC;2007-09-30 13:00;CYYC 301300Z 23002KT 15SM BKN190 02/M02 A2978 RMK AC6 SLP116

CYYC;2007-09-30 14:00;CYYC 301400Z 16006KT 40SM SCT160 BKN200 03/M02 A2978 RMK AC3CI1 SLP115

CYYC;2007-09-30 15:00;CYYC 301500Z 12002KT 40SM FEW040 FEW160 BKN210 05/M00 A2978 RMK CU1AC2CI2 SLP114

CYYC;2007-09-30 16:00;CYYC 301600Z 24008KT 40SM FEW050 FEW140 BKN210 11/M01 A2978 RMK CU1AC2CI2 SLP113

CYYC;2007-09-30 17:00;CYYC 301700Z 22007KT 40SM FEW050 SCT130 BKN220 12/M01 A2978 RMK CU1AC2CI2 SLP112

CYYC;2007-09-30 18:00;CYYC 301800Z 23006KT 40SM FEW050 SCT130 BKN220 13/M00 A2978 RMK CU1AC2CI2 ACSL SLP105

CYYC;2007-09-30 19:00;CYYC 301900Z 23002KT 40SM FEW055 FEW130 BKN220 14/M01 A2977 RMK CU1AC2CI1 ACSL S SLP103

CYYC;2007-09-30 20:00;CYYC 302000Z 28004KT 40SM FEW060 FEW130 BKN240 15/M00 A2975 RMK CU1AC1CI1 ACSL S / CC ASOCTD SLP098

CYYC;2007-09-30 21:00;CYYC 302100Z 26009KT 40SM FEW060 FEW120 BKN240 16/M00 A2973 RMK CU1AC1CI2 ACSL SLP086

CYYC;2007-09-30 22:00;CYYC 302200Z 19010KT 40SM FEW065 FEW110 SCT150 BKN240 17/01 A2972 RMK CU1AC2AC2CI1 ACSL SLP084

CYYC;2007-09-30 23:00;CYYC 302300Z 31009G16KT 40SM FEW065 FEW110 FEW140 BKN240 15/M01 A2971 RMK CU1AC1AC2CS2 ACSL SLP080

CYYC;2007-09-30 23:17;CYYC 302317Z 27012KT 40SM FEW065 FEW110 FEW140 BKN240 15/ RMK CU1AC1AC2CS2 WSHFT 2302Z / ACSL

CYYC;2007-10-01 01:00;CYYC 010100Z 28009KT 40SM FEW050 FEW100 FEW170 OVC240 12/M01 A2969 RMK SC1AC1AC2CS1 ACSL SLP078

CYYC;2007-10-01 02:00;CYYC 010200Z 05003KT 20SM FEW050 FEW120 FEW160 BKN240 09/M02 A2969 RMK SC1AC1AC1CI4 SLP078

CYYC;2007-10-01 03:00;CYYC 010300Z 23003KT 15SM BKN240 09/M01 A2968 RMK CI5 SLP074

CYYC;2007-10-01 04:00;CYYC 010400Z 25010KT 15SM FEW150 BKN240 08/M01 A2966 RMK AC2CI4 SLP070

CYYC;2007-10-01 05:00;CYYC 010500Z 24007KT 15SM FEW170 BKN250 08/M01 A2966 RMK AC2CI3 SLP069

CYYC;2007-10-01 06:00;CYYC 010600Z CCA 20008KT 15SM FEW170 BKN250 06/M01 A2965 RMK AC1CI5 SLP057

CYYC;2007-10-01 07:00;CYYC 010700Z 22008KT 15SM SCT250 08/M02 A2964 RMK CI1 SLP052

CYYC;2007-10-01 08:00;CYYC 010800Z CCA 18010KT 15SM SCT250 08/M02 A2964 RMK CI1 SLP052

CYYC;2007-10-01 09:00;CYYC 010900Z 21014G22KT 15SM BKN130 09/M01 A2962 RMK AC6 SLP040

CYYC;2007-10-01 10:00;CYYC 011000Z 19004KT 15SM BKN170 08/M02 A2962 RMK AC6 SLP040

CYYC;2007-10-01 11:00;CYYC 011100Z 27020G27KT 15SM FEW180 BKN240 11/M02 A2961 RMK AC2CI4 SLP035

CYYC;2007-10-01 12:00;CYYC 011200Z 28007KT 15SM FEW180 BKN240 09/M02 A2961 RMK AC2CI5 SLP036

CYYC;2007-10-01 13:00;CYYC 011300Z 30003KT 15SM FEW180 BKN210 08/M02 A2962 RMK AC1CI5 SLP039

CYYC;2007-10-01 14:00;CYYC 011400Z CCA 25018KT 30SM FEW080 BKN200 10/M02 A2961 RMK AC1CI6 SLP038

CYYC;2007-10-01 15:00;CYYC 011500Z CCA 25016G24KT 40SM FEW090 BKN180 11/M02 A2962 RMK AC1AC7 SLP046

CYYC;2007-10-01 16:00;CYYC 011600Z 27012KT 40SM FEW090 BKN180 BKN240 11/M01 A2965 RMK AC1AC5CI2 SLP054

CYYC;2007-10-01 17:00;CYYC 011700Z 29007KT 40SM FEW100 BKN160 BKN240 11/M00 A2967 RMK AC1AC5CI2 SLP061

CYYC;2007-10-01 18:00;CYYC 011800Z 34008KT 40SM FEW090 BKN160 BKN240 11/M00 A2967 RMK AC1AC4CI2 SLP068

CYYC;2007-10-01 19:00;CYYC 011900Z 01007KT 40SM FEW090 BKN160 BKN240 13/M00 A2967 RMK AC1AC3CI0 SLP066

CYYC;2007-10-01 20:00;CYYC 012000Z 29011KT 40SM FEW090 BKN160 BKN240 14/M02 A2967 RMK AC2AC2CI1 SLP066

CYYC;2007-10-01 21:00;CYYC 012100Z 29008KT 40SM FEW090 BKN150 BKN240 15/M02 A2967 RMK AC2AC2CI1 VIRGA NW-S SLP059

CYYC;2007-10-01 22:00;CYYC 012200Z 28011KT 40SM FEW075 SCT090 SCT240 15/M02 A2968 RMK AC1AC2CI1 CB ASOCTD SE / VIRGA NE-SE SLP060

CYYC;2007-10-01 23:00;CYYC 012300Z 26012G17KT 40SM FEW075 FEW090 15/M03 A2969 RMK AC1AC0 CB ASOCTD DIST SE / VIRGA NE-SE SLP065

CYYC;2007-10-02 00:00;CYYC 020000Z 26016KT 40SM FEW075 FEW090 FEW240 13/M04 A2971 RMK AC1AC1CI1 SH DIST N-SE SLP073

CYYC;2007-10-02 01:00;CYYC 020100Z 26015KT 40SM FEW075 FEW110 FEW240 12/M04 A2974 RMK AC1AC1CI0 SH DIST NE-E SLP081

CYYC;2007-10-02 02:00;CYYC 020200Z 26013KT 15SM FEW075 FEW110 FEW240 10/M04 A2976 RMK AC1AC1CI0 SH DIST NE SLP088

CYYC;2007-10-02 03:00;CYYC 020300Z 26008KT 15SM FEW100 08/M03 A2976 RMK AC0 SLP097

CYYC;2007-10-02 04:00;CYYC 020400Z 27009KT 15SM FEW100 08/M03 A2977 RMK AC0 SLP100

CYYC;2007-10-02 05:00;CYYC 020500Z 23007KT 15SM FEW100 SCT250 05/M03 A2977 RMK AC1CI0 SLP098

CYYC;2007-10-02 06:00;CYYC 020600Z 24005KT 15SM FEW100 BKN250 04/M03 A2976 RMK AC1CI4 SLP101

CYYC;2007-10-02 07:00;CYYC 020700Z 23002KT 15SM OVC230 05/M03 A2976 RMK CI6 SLP100

CYYC;2007-10-02 08:00;CYYC 020800Z 19008KT 15SM SCT150 OVC210 03/M02 A2974 RMK AC2CI3 SLP094

CYYC;2007-10-02 09:00;CYYC 020900Z 22002KT 15SM SCT180 OVC210 05/M02 A2973 RMK AC3CI2 SLP086

CYYC;2007-10-02 10:00;CYYC 021000Z 17002KT 15SM FEW180 BKN220 05/M03 A2972 RMK AC1CI4 SLP082

CYYC;2007-10-02 11:00;CYYC 021100Z 19003KT 15SM BKN230 05/M03 A2971 RMK CI3 SLP079

CYYC;2007-10-02 12:00;CYYC 021200Z 17005KT 15SM BKN240 03/M03 A2971 RMK CI6 SLP080

CYYC;2007-10-02 13:00;CYYC 021300Z 19007KT 15SM FEW160 BKN180 BKN210 04/M02 A2969 RMK AC1AC4CI2 SLP074

CYYC;2007-10-02 14:00;CYYC 021400Z 24004KT 40SM FEW080 BKN140 06/M03 A2968 RMK AC1AC7 SLP071

CYYC;2007-10-02 15:00;CYYC 021500Z 20007KT 40SM FEW080 BKN140 BKN200 BKN240 06/M01 A2966 RMK AC1AC6CI2CI1 SLP068

CYYC;2007-10-02 16:00;CYYC 021600Z 20005KT 40SM FEW080 FEW140 BKN220 BKN240 09/M02 A2965 RMK AC1AC2CI3CI1 LWR AC TR SLP066

CYYC;2007-10-02 17:00;CYYC 021700Z 17009KT 40SM FEW080 FEW140 BKN230 10/M01 A2963 RMK AC1AC1CI6 UPR AC TR SLP058

CYYC;2007-10-02 18:00;CYYC 021800Z 20008KT 40SM FEW084 FEW140 SCT230 14/M01 A2961 RMK AC2AC1CI2 SLP045

CYYC;2007-10-02 19:00;CYYC 021900Z 21009G22KT 40SM FEW082 FEW140 SCT240 15/M02 A2958 RMK AC1AC1CI1 SLP034

CYYC;2007-10-02 20:00;CYYC 022000Z 27018KT 40SM FEW082 FEW140 BKN240 16/M03 A2955 RMK AC1AC1CI2 UPR AC TR SLP026

CYYC;2007-10-02 21:00;CYYC 022100Z 23015G22KT 30SM FEW082 FEW140 BKN240 16/M03 A2954 RMK AC1AC1CI2 SLP016

CYYC;2007-10-02 22:00;CYYC 022200Z 23021G28KT 20SM FEW082 SCT240 15/M03 A2954 RMK AC1CI1 SLP015

CYYC;2007-10-02 23:00;CYYC 022300Z 25020G26KT 20SM FEW080 SCT250 14/M03 A2954 RMK AC1CI1 SLP015

CYYC;2007-10-03 00:00;CYYC 030000Z 23011G19KT 20SM FEW080 FEW250 12/M02 A2952 RMK AC1CI1 SLP015

CYYC;2007-10-03 01:00;CYYC 030100Z 25014KT 30SM FEW080 FEW180 FEW250 10/M02 A2953 RMK AC1AC0CI0 SLP018

CYYC;2007-10-03 02:00;CYYC 030200Z 34005KT 15SM FEW170 SCT250 07/M02 A2953 RMK AC2CI1 SLP018

CYYC;2007-10-03 03:00;CYYC 030300Z 36012KT 15SM FEW080 FEW150 SCT250 07/02 A2955 RMK AC1AC2CI1 SLP031

CYYC;2007-10-03 04:00;CYYC 030400Z 35014G21KT 15SM FEW060 FEW080 SCT140 BKN250 05/02 A2956 RMK SC1AC2AC1CI1 SLP035

CYYC;2007-10-03 05:00;CYYC 030500Z 34013G18KT 15SM SCT093 BKN140 BKN250 03/01 A2956 RMK AC2AC1CI1 SLP034

CYYC;2007-10-03 06:00;CYYC 030600Z 31009KT 15SM SCT082 BKN110 OVC250 03/01 A2956 RMK AC3AC2CI1 SLP029

CYYC;2007-10-03 07:00;CYYC 030700Z 31006KT 15SM FEW080 SCT140 BKN240 02/00 A2954 RMK AC1AC1CI1 SLP022

CYYC;2007-10-03 08:00;CYYC 030800Z 23002KT 15SM FEW082 OVC180 02/00 A2954 RMK AC1AC3 SLP023

CYYC;2007-10-03 09:00;CYYC 030900Z 25003KT 15SM FEW110 OVC220 02/M00 A2954 RMK AC1CI3 SLP019

CYYC;2007-10-03 10:00;CYYC 031000Z 25007KT 15SM FEW060 BKN110 OVC220 02/M01 A2953 RMK SC1AC3CI1 SLP018

CYYC;2007-10-03 11:00;CYYC 031100Z 31002KT 15SM FEW078 BKN180 BKN240 M00/M02 A2954 RMK AC2AC1CI1 SLP020

CYYC;2007-10-03 12:00;CYYC 031200Z 34004KT 15SM FEW060 SCT140 BKN230 M01/M03 A2954 RMK SC1AC2CI2 SLP030

CYYC;2007-10-03 13:00;CYYC 031300Z 32003KT 15SM FEW090 BKN160 OVC230 M00/M02 A2956 RMK AC1AC2CI2 SLP036

CYYC;2007-10-03 14:00;CYYC 031400Z 34005KT 15SM SCT074 BKN150 OVC200 01/M02 A2959 RMK AC3AC2CI2 SLP045

CYYC;2007-10-03 15:00;CYYC 031500Z 33004KT 40SM SCT073 BKN150 OVC200 01/M01 A2960 RMK AC3AC2CI2 SLP055

CYYC;2007-10-03 16:00;CYYC 031600Z 31004KT 20SM FEW046 SCT077TCU BKN100 OVC200 03/M01 A2962 RMK SC2TCU2AC2CI1 SH W SLP060

CYYC;2007-10-03 16:48;CYYC 031648Z 33007KT 20SM -SHGS FEW038 BKN048 BKN078 OVC100 05/ RMK SC2SC4AC2AC1 TCU EMBD

CYYC;2007-10-03 17:00;CYYC 031700Z 33004KT 20SM FEW016 BKN033 BKN078 BKN100 04/M01 A2963 RMK SC2SC4AC1AC1 VIS LWR S + NE/ SH NE + S-SW SLP064

CYYC;2007-10-03 18:00;CYYC 031800Z 00000KT 30SM FEW020 FEW060 SCT160 BKN240 05/M02 A2964 RMK SC2SC1AC2CI2 SH SW SLP068

CYYC;2007-10-03 19:00;CYYC 031900Z 16003KT 40SM FEW047 SCT078 BKN210 06/M02 A2964 RMK CU1AC2CI3 SLP069

CYYC;2007-10-03 20:00;CYYC 032000Z 08003KT 30SM FEW038 FEW085 SCT200 08/M02 A2964 RMK CU1AC1CI1 SLP069

CYYC;2007-10-03 21:00;CYYC 032100Z 17004KT 20SM FEW038 FEW085 FEW200 10/M01 A2964 RMK CU1AC1CI1 SLP064

CYYC;2007-10-03 22:00;CYYC 032200Z CCA 11005KT 30SM SCT042 SCT100 BKN210 09/M03 A2964 RMK CU3AC1CI0 TCU CVCTNG RPDLY SW SLP064

CYYC;2007-10-03 23:00;CYYC 032300Z 09003KT 30SM FEW042 SCT082TCU BKN170 BKN200 08/M02 A2965 RMK CU2TCU2AC1CI0 CB NE / DIST SH NE SLP068

CYYC;2007-10-04 00:00;CYYC 040000Z 05011G16KT 30SM SCT047CB BKN082 BKN160 06/M00 A2966 RMK CB3AC2AC1 CB ASOCTD E SLP081

CYYC;2007-10-04 00:28;CYYC 040028Z 04013KT 20SM -TSRA BKN037CB OVC100 05/ RMK CB6AC1

CYYC;2007-10-04 00:51;CYYC 040051Z 34011G17KT 5SM -TSGS BKN032CB BKN100 03/ RMK CB7AC1

CYYC;2007-10-04 01:00;CYYC 040100Z 02011KT 6SM -TSGS SCT016 BKN036CB BKN100 02/00 A2970 RMK SC3CB4AC1 SLP092

CYYC;2007-10-04 01:20;CYYC 040120Z CCA 02011KT 15SM TS FEW017 BKN041CB BKN087 02/ RMK SC1CB6AC1 SH E

CYYC;2007-10-04 01:52;CYYC 040152Z 03008KT 15SM -SHRA SCT035CB OVC058 02/ RETS RMK CB4SC2 LTGIC E-S

CYYC;2007-10-04 02:00;CYYC 040200Z 05007KT 15SM -SHRA SCT035CB BKN058 BKN150 02/01 A2971 RETS RMK CB4SC2AC1 LTGIC E-S SLP097

CYYC;2007-10-04 03:00;CYYC 040300Z 05006KT 15SM -SHRA FEW035 BKN055 BKN170 02/00 A2974 RMK SC2SC4AC2 CB EMBD SLP110

CYYC;2007-10-04 03:48;CYYC 040348Z 04007KT 15SM FEW060 FEW140 01/ RMK SC1AC1

CYYC;2007-10-04 04:00;CYYC 040400Z 04005KT 15SM FEW065 FEW120 01/00 A2975 RMK SC1AC1 CLDS TR SLP113

CYYC;2007-10-04 05:00;CYYC 040500Z 00000KT 15SM SCT220 01/00 A2975 RMK CI2 SLP114

CYYC;2007-10-04 06:00;CYYC 040600Z 31003KT 15SM FEW060 BKN190 01/M00 A2975 RMK SC1AC2 SC TR SLP110

CYYC;2007-10-04 07:00;CYYC 040700Z 34005KT 15SM BKN150 BKN220 M00/M01 A2976 RMK AC4CI1 SLP112

CYYC;2007-10-04 08:00;CYYC 040800Z 00000KT 15SM BKN140 BKN220 M01/M02 A2976 RMK AC2CI2 SLP113

CYYC;2007-10-04 09:00;CYYC 040900Z 06003KT 15SM BKN180 BKN230 M03/M04 A2978 RMK AC2CI1 SLP118

CYYC;2007-10-04 10:00;CYYC 041000Z 00000KT 15SM FEW080 BKN170 BKN220 M02/M03 A2979 RMK AC1AC2CI2 SLP121

CYYC;2007-10-04 11:00;CYYC 041100Z 00000KT 15SM BKN140 BKN220 M02/M02 A2980 RMK AC2CI2 SLP124

CYYC;2007-10-04 12:00;CYYC 041200Z 34003KT 15SM BKN120 BKN230 M02/M03 A2981 RMK AC2CI2 SNOW COVER/TRACE LOOSE SLP134

CYYC;2007-10-04 13:00;CYYC 041300Z 36004KT 15SM FEW085 SCT120 BKN230 M02/M03 A2982 RMK AC1AC2CI2 SLP138

CYYC;2007-10-04 14:00;CYYC 041400Z 35006KT 25SM FEW060 FEW100 FEW250 M04/M05 A2984 RMK SC1AC1CI0 SLP143

CYYC;2007-10-04 15:00;CYYC 041500Z 33004KT 20SM FEW100 FEW180 SCT260 M02/M03 A2985 RMK AC1AC1CI0 SLP156

CYYC;2007-10-04 16:00;CYYC 041600Z 36004KT 20SM FEW042 SCT062 BKN100 BKN260 01/M01 A2988 RMK SC1SC3AC1CI0 SLP165

CYYC;2007-10-04 17:00;CYYC 041700Z 01002KT 15SM FEW010 SCT045 BKN062 OVC100 02/01 A2989 RMK CU1SC4SC3AC0 SLP168

CYYC;2007-10-04 17:51;CYYC 041751Z 04002KT 20SM BKN012 OVC090 04/ RMK SC5AC3

CYYC;2007-10-04 18:00;CYYC 041800Z 05002KT 20SM BKN012 OVC090 04/02 A2990 RMK SC6AC2 SLP166

CYYC;2007-10-04 18:23;CYYC 041823Z 13004KT 20SM SCT015 OVC020 04/ RMK SC4SC4

CYYC;2007-10-04 18:25;CYYC 041825Z 12005KT 20SM -RA SCT015 OVC020 04/ RMK SC4SC4 PCPN VRY LGT

CYYC;2007-10-04 18:33;CYYC 041833Z 12005KT 20SM -RA BKN014 OVC020 04/ RMK SC5SC2 PCPN VRY LGT/CF ASOCTD

CYYC;2007-10-04 18:42;CYYC 041842Z 13006KT 15SM -SHGS OVC012 04/ RMK SC8 CU ASOCTD

CYYC;2007-10-04 18:47;CYYC 041847Z 13008KT 15SM -SHRA BKN012 OVC030 05/ RMK SC6SC2 CPN VRY LGT/CU ASOCTD

CYYC;2007-10-04 19:00;CYYC 041900Z 15008KT 15SM SCT012 OVC030 05/02 A2991 RMK SC4SC3 -SH OCNL/CU+CF ASOCTD SLP167

CYYC;2007-10-04 19:30;CYYC 041930Z CCA 14007KT 20SM FEW019 BKN026 BKN090 BKN260 05/ RMK SC1SC5AC2CI0 DIST SH SW-NW+N-NE/CU ASOCTD

CYYC;2007-10-04 20:00;CYYC 042000Z 14007KT 20SM SCT018 BKN032 BKN090 06/02 A2990 RMK SC3SC2AC1 DIST SH S-NE SLP166

CYYC;2007-10-04 21:00;CYYC 042100Z 11004KT 20SM FEW022 BKN030CB BKN040 07/01 A2990 RMK SC2CB3SC2 FUNNEL CLOUD REPD ABT 10-15 N/DIST SH ALQDS/CB N/TCU EMBD SLP166

CYYC;2007-10-04 21:19;CYYC 042119Z CCA 05012KT 20SM VCSH FEW019 BKN030CB BKN040 05/ RMK SC2CB2SC2 WSHFT 2110/VIS NE-E 10/DIST SH ALQDS

CYYC;2007-10-04 22:00;CYYC 042200Z 05012KT 20SM VCSH SCT022CB BKN040 05/02 A2992 RMK CB4SC3 SH NE-E/VIS 5/ DIST SH N+SW SLP171

CYYC;2007-10-04 22:01;CYYC 042201Z CCA 06011KT 20SM -SHRA SCT022CB BKN040 04/ RMK CB4SC3 VIS NE-E 5

CYYC;2007-10-04 23:00;CYYC 042300Z 04008KT 25SM FEW021CB BKN030 BKN078 05/03 A2992 RMK CB2SC3AC2 VIS E 10/DIST SH N-SW SLP171

CYYC;2007-10-05 00:00;CYYC 050000Z 07011G16KT 20SM -SHRA FEW018 BKN045CB OVC085 04/02 A2994 RMK SC1CB5AS1 PCPN VRY LGT SLP180

CYYC;2007-10-05 01:00;CYYC 050100Z 07009KT 20SM -SHRA BKN019CB OVC028 03/02 A2995 RMK CB5SC3 PCPN VRY LGT SLP185

CYYC;2007-10-05 01:31;CYYC 050131Z CCA 07006KT 15SM BKN030CB BKN038 OVC060 03/02 RMK CB4SC2SC2

CYYC;2007-10-05 01:40;CYYC 050140Z CCA 08008KT 4SM -SHRA BKN028CB OVC080 03/ RMK CB6AC2 PCPN VRY LGT

CYYC;2007-10-05 02:00;CYYC 050200Z 08010KT 4SM -SHRA FEW011 BKN020 OVC038 03/02 A2999 RMK SC1SC6SC1 CB EMBD SLP195

CYYC;2007-10-05 02:30;CYYC 050230Z 08008KT 8SM -RASN FEW014 OVC031 02/ RMK SC2SC6

CYYC;2007-10-05 03:00;CYYC 050300Z 36004KT 12SM -RASN FEW020 OVC040 02/02 A2999 RMK SC1SC7 PCPN VRY LGT SLP201

CYYC;2007-10-05 03:51;CYYC 050351Z 04003KT 7SM -RASN BKN011 OVC018 02/ RMK SC5SC3

CYYC;2007-10-05 04:00;CYYC 050400Z 06004KT 10SM -RASN FEW009 BKN014 BKN019 OVC065 02/01 A3000 RMK SF1SC5SC2SC2 SLP205

CYYC;2007-10-05 04:26;CYYC 050426Z 03004KT 15SM FEW009 SCT016 BKN040 BKN067 02/ RMK SF1SC3SC3AC1

CYYC;2007-10-05 05:00;CYYC 050500Z 05005KT 15SM BKN017 OVC023 02/01 A3000 RMK SC6SC2 SLP206

CYYC;2007-10-05 06:00;CYYC 050600Z 08014G20KT 15SM SCT009 BKN050 BKN077 02/01 A2999 RMK SC3SC2AC2 SLP195

CYYC;2007-10-05 06:40;CYYC 050640Z 08013KT 15SM -RA BKN041 OVC080 02/ RMK SC5AC3

CYYC;2007-10-05 07:00;CYYC 050700Z 09008KT 15SM -RA BKN021 BKN039 OVC080 02/01 A3000 RMK SC6SC2AC1 SLP198

CYYC;2007-10-05 08:00;CYYC 050800Z CCA 06005KT 15SM -RA BKN017 OVC040 01/00 A3001 RMK SC6SC2 SLP200

CYYC;2007-10-05 08:54;CYYC 050854Z 03003KT 15SM FEW040 BKN062 OVC080 00/ RMK SC1SC4AC3

CYYC;2007-10-05 09:00;CYYC 050900Z 03004KT 15SM BKN042 OVC080 00/M00 A3002 RMK SC5AC3 SLP203

CYYC;2007-10-05 10:00;CYYC 051000Z 01004KT 15SM FEW040 OVC081 00/M01 A3001 RMK SC2AC6 SLP200

CYYC;2007-10-05 11:00;CYYC 051100Z 01005KT 15SM FEW040 BKN080 BKN240 M00/M01 A3002 RMK SC2AC3CI1 SLP202

CYYC;2007-10-05 12:00;CYYC 051200Z 02007KT 15SM FEW030 FEW085 SCT240 M01/M02 A3003 RMK SC1AC1CI1 SLP212

CYYC;2007-10-05 13:00;CYYC 051300Z 02007KT 15SM FEW013 OVC017 M01/M02 A3004 RMK SC2SC6 SLP214

CYYC;2007-10-05 14:00;CYYC 051400Z 02008KT 15SM FEW010 FEW012 BKN015 OVC160 M01/M02 A3005 RMK ST1SC2SC5AC0 ST TR SLP218

CYYC;2007-10-05 14:16;CYYC 051416Z 01010KT 15SM FEW010 BKN013 OVC160 M01/ RMK ST1SC7AC0 ST TR

CYYC;2007-10-05 15:00;CYYC 051500Z 02008KT 15SM FEW010 BKN012 M01/M02 A3006 RMK ST1SC7 ST TR SLP225

CYYC;2007-10-05 15:46;CYYC 051546Z 03006KT 15SM OVC009 M00/ RMK SC8

CYYC;2007-10-05 16:00;CYYC 051600Z 02006KT 20SM OVC008 00/M01 A3007 RMK SC8 SLP227

CYYC;2007-10-05 17:00;CYYC 051700Z 34005KT 20SM FEW008 OVC009 01/M01 A3007 RMK CF1SC8 CF TR SLP229

CYYC;2007-10-05 18:00;CYYC 051800Z 31005KT 20SM OVC010 01/M00 A3006 RMK SC8 SLP223

CYYC;2007-10-05 19:00;CYYC 051900Z 34003KT 20SM OVC012 02/M00 A3007 RMK SC8 SLP226

CYYC;2007-10-05 20:00;CYYC 052000Z 36004KT 20SM OVC013 03/00 A3006 RMK SC8 SLP222

CYYC;2007-10-05 21:00;CYYC 052100Z 02005KT 20SM OVC013 03/00 A3005 RMK SC8 SLP219

CYYC;2007-10-05 22:00;CYYC 052200Z 00000KT 25SM OVC014 03/M00 A3005 RMK SC8 SLP218

CYYC;2007-10-05 23:00;CYYC 052300Z 12004KT 25SM OVC014 03/00 A3005 RMK SC8 SLP217

CYYC;2007-10-05 23:29;CYYC 052329Z 00000KT 25SM SCT014 OVC026 03/ RMK SC4SC4

CYYC;2007-10-06 00:00;CYYC 060000Z 00000KT 25SM FEW016 BKN022 OVC065 03/00 A3004 RMK SC1SC6SC1 SLP218

CYYC;2007-10-06 01:00;CYYC 060100Z 00000KT 8SM BKN015 OVC033 03/01 A3005 RMK SC6SC2 SLP220

CYYC;2007-10-06 01:30;CYYC 060130Z 16003KT 10SM -RA BKN015 OVC029 03/ RMK SC6SC2 RA VRY LGT

CYYC;2007-10-06 02:00;CYYC 060200Z 14004KT 10SM -RA BKN017 OVC029 03/01 A3004 RMK SC7SC1 SLP217

CYYC;2007-10-06 03:00;CYYC 060300Z 16004KT 7SM -RA FEW009 OVC015 03/02 A3003 RMK SC2SC6 SLP212

CYYC;2007-10-06 03:28;CYYC 060328Z 17003KT 10SM -RA OVC008 03/ RMK SC8

CYYC;2007-10-06 04:00;CYYC 060400Z 19004KT 10SM -RA FEW008 OVC014 03/02 A3002 RMK SC2SC6 SLP210

CYYC;2007-10-06 05:00;CYYC 060500Z 14006KT 12SM -RA FEW008 FEW014 OVC050 02/02 A3000 RMK SC1SC1SC6 RA VRY LGT SLP203

CYYC;2007-10-06 06:00;CYYC 060600Z 14010KT 15SM -RA SCT009 OVC055 02/02 A2997 RMK SC4SC4 SLP190

CYYC;2007-10-06 06:22;CYYC 060622Z 14009KT 15SM FEW004 OVC008 02/ RMK SC2SC6

CYYC;2007-10-06 07:00;CYYC 060700Z 16009KT 6SM BR OVC003 02/02 A2994 RMK ST8 SLP182

CYYC;2007-10-06 08:00;CYYC 060800Z 16012KT 6SM BR OVC009 02/02 A2991 RMK ST8 SLP172

CYYC;2007-10-06 09:00;CYYC 060900Z 18011KT 6SM BR OVC004 02/02 A2990 RMK ST8 SLP165

CYYC;2007-10-06 10:00;CYYC 061000Z 19012KT 6SM BR OVC004 02/02 A2988 RMK ST8 SLP157

CYYC;2007-10-06 11:00;CYYC 061100Z 18010G15KT 6SM BR OVC004 02/01 A2987 RMK ST8 SLP155

CYYC;2007-10-06 11:03;CYYC 061103Z 19010G15KT 6SM BR OVC005 02/ RMK ST8

CYYC;2007-10-06 12:00;CYYC 061200Z 18010KT 6SM BR OVC005 01/01 A2985 RMK ST8 CIG VRB 4-6 SLP149

CYYC;2007-10-06 13:00;CYYC 061300Z 16008KT 6SM BR OVC005 01/00 A2985 RMK ST8 SLP146

CYYC;2007-10-06 14:00;CYYC 061400Z 21010KT 5SM BR OVC005 01/01 A2984 RMK ST8 SLP144

CYYC;2007-10-06 15:00;CYYC 061500Z 21007KT 5SM BR OVC005 01/00 A2984 RMK ST8 SLP144

CYYC;2007-10-06 16:00;CYYC 061600Z 21007KT 5SM BR BKN005 OVC250 02/01 A2983 RMK SC7CI0 ST ASOCTD SLP141

CYYC;2007-10-06 16:53;CYYC 061653Z 16006KT 10SM SCT006 BKN240 02/ RMK SC1CI2 ST ASOCTD

CYYC;2007-10-06 17:00;CYYC 061700Z 16006KT 10SM SCT006 BKN240 03/01 A2984 RMK SC1CI2 ST ASOCTD SLP143

CYYC;2007-10-06 18:00;CYYC 061800Z 16006KT 40SM FEW008 FEW080 FEW240 05/01 A2983 RMK SC1AC1CI1 SLP137

CYYC;2007-10-06 19:00;CYYC 061900Z 18007KT 40SM FEW070 FEW240 07/01 A2982 RMK AC1CI1 SLP133

CYYC;2007-10-06 20:00;CYYC 062000Z 15004KT 40SM FEW030 FEW070 BKN230 09/02 A2981 RMK SC1AC1CI3 SLP130

CYYC;2007-10-06 21:00;CYYC 062100Z 06002KT 40SM FEW070 FEW170 BKN230 12/01 A2981 RMK AC1AC1CI2 SLP119

CYYC;2007-10-06 22:00;CYYC 062200Z 33004KT 40SM FEW070 SCT170 BKN230 13/M02 A2983 RMK AC2AC1CI0 SLP124

CYYC;2007-10-06 23:00;CYYC 062300Z 28008G15KT 40SM FEW070 FEW180 BKN230 13/M03 A2983 RMK AC2AC1CI0 SLP125

CYYC;2007-10-07 00:00;CYYC 070000Z 27013KT 40SM FEW070 FEW180 FEW230 12/M04 A2984 RMK AC1AC1CI0 SLP132

CYYC;2007-10-07 01:00;CYYC 070100Z 26010KT 40SM FEW070 FEW180 FEW240 09/M05 A2985 RMK AC1AC1CI0 SLP134

CYYC;2007-10-07 02:00;CYYC 070200Z 25009KT 20SM FEW090 FEW170 FEW240 07/M04 A2987 RMK AC1AC1CI0 SLP141

CYYC;2007-10-07 03:00;CYYC 070300Z 23009KT 15SM FEW170 FEW240 06/M04 A2988 RMK AC1CI0 AC TR SLP155

CYYC;2007-10-07 04:00;CYYC 070400Z 18004KT 15SM FEW170 FEW240 04/M05 A2990 RMK AC1CI0 AC TR SLP160

CYYC;2007-10-07 05:00;CYYC 070500Z 25003KT 15SM SKC 04/M05 A2990 RMK SLP161

CYYC;2007-10-07 06:00;CYYC 070600Z 20007KT 15SM SKC 03/M04 A2989 RMK SLP156

CYYC;2007-10-07 07:00;CYYC 070700Z 19006KT 15SM SKC 02/M05 A2986 RMK SLP149

CYYC;2007-10-07 08:00;CYYC 070800Z 22004KT 15SM SKC 02/M05 A2985 RMK SLP143

CYYC;2007-10-07 09:00;CYYC 070900Z 14003KT 15SM SKC 01/M04 A2984 RMK SLP132

CYYC;2007-10-07 10:00;CYYC 071000Z 17005KT 15SM FEW230 01/M04 A2983 RMK CI1 SLP127

CYYC;2007-10-07 11:00;CYYC 071100Z 18006KT 15SM FEW230 01/M04 A2981 RMK CI2 SLP122

CYYC;2007-10-07 12:00;CYYC 071200Z 21004KT 15SM FEW110 SCT240 02/M03 A2981 RMK AC1CI2 SLP119

CYYC;2007-10-07 13:00;CYYC 071300Z 19004KT 15SM FEW090 FEW150 BKN240 02/M03 A2980 RMK AC1AC1CI3 LWR AC TR SLP116

CYYC;2007-10-07 14:00;CYYC 071400Z 25006KT 40SM FEW090 SCT150 BKN240 03/M03 A2980 RMK AC1AC3CI0 VIRGA SE-NW SLP117

CYYC;2007-10-07 15:00;CYYC 071500Z 14003KT 40SM FEW090 FEW140 BKN240 06/M02 A2980 RMK AC1AC2CI0 SLP118

CYYC;2007-10-07 16:00;CYYC 071600Z 19005KT 40SM FEW090 SCT140 08/M00 A2980 RMK AC1AC2 SLP117

CYYC;2007-10-07 17:00;CYYC 071700Z 21005KT 40SM FEW090 BKN160 12/01 A2979 RMK AC1AC3 SLP115

CYYC;2007-10-07 18:00;CYYC 071800Z 19005KT 40SM FEW090 BKN160 14/02 A2978 RMK AC1AC2 SLP104

CYYC;2007-10-07 19:00;CYYC 071900Z 21008KT 40SM FEW080 BKN180 BKN240 17/03 A2977 RMK AC1AC1CI1 LWR AC+CI TR SLP101

CYYC;2007-10-07 20:00;CYYC 072000Z 14005KT 40SM FEW080 FEW180 SCT240 18/03 A2974 RMK AC1AC1CI1 LWR AC+CI TR SLP094

CYYC;2007-10-07 21:00;CYYC 072100Z 26012KT 40SM FEW080 FEW180 FEW240 20/02 A2973 RMK AC1AC1CI0 SLP083

CYYC;2007-10-07 22:00;CYYC 072200Z 27019G25KT 40SM FEW080 FEW180 18/01 A2973 RMK AC1AC1 SLP083

CYYC;2007-10-07 23:00;CYYC 072300Z 27016KT 40SM FEW080 FEW180 17/01 A2972 RMK AC1AC1 SLP080

CYYC;2007-10-08 00:00;CYYC 080000Z 27014G19KT 40SM FEW080 FEW180 BKN200 16/01 A2972 RMK AC1AC1CI1 SLP083

CYYC;2007-10-08 01:00;CYYC 080100Z 28009KT 40SM FEW080 BKN180 15/01 A2971 RMK AC1AC1 SLP081

CYYC;2007-10-08 02:00;CYYC 080200Z 26009KT 15SM FEW060 SCT180 BKN210 13/01 A2971 RMK SC1AC1CI2 SC TR SLP080

CYYC;2007-10-08 03:00;CYYC 080300Z 28011KT 15SM FEW180 BKN240 13/00 A2972 RMK AC1CI2 SLP080

CYYC;2007-10-08 04:00;CYYC 080400Z 31008KT 15SM FEW240 11/00 A2973 RMK CI0 SLP083

CYYC;2007-10-08 05:00;CYYC 080500Z 27009KT 15SM FEW180 BKN210 11/01 A2974 RMK AC2CI2 SLP088

CYYC;2007-10-08 06:00;CYYC 080600Z 27010KT 15SM SCT170 OVC240 12/01 A2974 RMK AC2CI2 SLP079

CYYC;2007-10-08 07:00;CYYC 080700Z 27013KT 15SM BKN180 OVC240 13/00 A2976 RMK AC3CI2 SLP083

CYYC;2007-10-08 08:00;CYYC 080800Z 27006KT 15SM BKN170 OVC240 11/01 A2977 RMK AC3CI2 SLP087

CYYC;2007-10-08 09:00;CYYC 080900Z 26008KT 15SM BKN170 OVC240 11/01 A2978 RMK AC3CI2 SLP086

CYYC;2007-10-08 10:00;CYYC 081000Z 35017G25KT 15SM FEW110 BKN170 OVC240 07/01 A2985 RMK AC1AC4CI2 SLP108

CYYC;2007-10-08 11:00;CYYC 081100Z 35011G17KT 15SM FEW100 BKN170 BKN240 05/01 A2988 RMK AC2AC2CI1 SLP115

CYYC;2007-10-08 12:00;CYYC 081200Z 34008KT 15SM SCT050 BKN170 BKN240 05/01 A2992 RMK SC3AC3CI1 SLP147

CYYC;2007-10-08 13:00;CYYC 081300Z 34011KT 15SM BKN042 OVC100 06/00 A2994 RMK SC6AC1 SLP155

CYYC;2007-10-08 13:33;CYYC 081333Z 33015KT 7SM -RA BKN038 BKN100 06/ RMK SC7AC1

CYYC;2007-10-08 14:00;CYYC 081400Z 01016KT 7SM -RA BKN038 04/01 A2999 RMK SC7 SLP169

CYYC;2007-10-08 14:49;CYYC 081449Z 33005KT 20SM BKN038 05/ RMK SC7

CYYC;2007-10-08 15:00;CYYC 081500Z 30004KT 20SM BKN045 05/02 A3002 RMK SC7 VIRGA SLP187

CYYC;2007-10-08 16:00;CYYC 081600Z 24007KT 20SM BKN060 06/03 A3004 RMK SC6 SH DIST SW SLP193

CYYC;2007-10-08 17:00;CYYC 081700Z 30007KT 30SM BKN057 07/01 A3007 RMK SC7 SLP202

CYYC;2007-10-08 18:00;CYYC 081800Z 31003KT 30SM FEW040 BKN067 08/M01 A3006 RMK SC2AC6 SLP198

CYYC;2007-10-08 19:00;CYYC 081900Z CCA 30002KT 40SM FEW040 BKN065 08/M01 A3006 RMK SC1SC6 SLP199

CYYC;2007-10-08 20:00;CYYC 082000Z 19004KT 20SM FEW040 SCT065 BKN260 10/M01 A3006 RMK SC1SC2CI0 SLP198

CYYC;2007-10-08 21:00;CYYC 082100Z CCA 15003KT 30SM FEW037 FEW065 BKN260 11/02 A3005 RMK SC1SC1CI0 SLP192

CYYC;2007-10-08 22:00;CYYC 082200Z 18007KT 20SM FEW040 FEW080 BKN260 11/M01 A3007 RMK SC1AC1CI1 SLP198

CYYC;2007-10-08 23:00;CYYC 082300Z 15004KT 20SM FEW040 FEW080 BKN190 BKN260 10/M01 A3007 RMK SC1AC1AC2CI0 SLP199

CYYC;2007-10-09 00:00;CYYC 090000Z 13005KT 20SM FEW040 FEW080 BKN260 09/M02 A3010 RMK SC1AC1CI1 SLP220

CYYC;2007-10-09 01:00;CYYC 090100Z 14007KT 20SM FEW040 FEW078 BKN260 07/M00 A3009 RMK SC1AC1CI0 SLP219

CYYC;2007-10-09 02:00;CYYC 090200Z 14006KT 15SM FEW082 SCT240 06/M00 A3011 RMK AC2CI2 SLP224

CYYC;2007-10-09 03:00;CYYC 090300Z 13005KT 15SM SCT040 BKN082 07/M01 A3013 RMK SC4AC2 SLP234

CYYC;2007-10-09 04:00;CYYC 090400Z 13007KT 15SM BKN040 OVC082 07/M01 A3014 RMK SC6AC2 SLP239

CYYC;2007-10-09 05:00;CYYC 090500Z 14004KT 15SM OVC041 06/M01 A3015 RMK SC7 SLP241

CYYC;2007-10-09 06:00;CYYC 090600Z 13006KT 15SM OVC041 07/M02 A3016 RMK SC8 SLP241

CYYC;2007-10-09 07:00;CYYC 090700Z 13005KT 15SM OVC042 06/M01 A3016 RMK SC8 SLP242

CYYC;2007-10-09 08:00;CYYC 090800Z 13004KT 15SM OVC041 05/00 A3017 RMK SC8 SLP244

CYYC;2007-10-09 09:00;CYYC 090900Z 14008KT 15SM OVC036 06/M00 A3017 RMK SC8 SLP243

CYYC;2007-10-09 10:00;CYYC 091000Z 13007KT 15SM OVC039 05/00 A3018 RMK SC8 SLP246

CYYC;2007-10-09 11:00;CYYC 091100Z 12008KT 15SM FEW100 SCT240 04/M01 A3017 RMK AC1CI0 SLP241

CYYC;2007-10-09 12:00;CYYC 091200Z 13007KT 15SM BKN035 03/M00 A3017 RMK SC7 SLP248

CYYC;2007-10-09 13:00;CYYC 091300Z 16006KT 15SM SCT040 BKN130 BKN240 03/M01 A3018 RMK SC2AC2CI0 SLP251

CYYC;2007-10-09 14:00;CYYC 091400Z 16008KT 40SM FEW040 FEW090 BKN120 BKN240 03/M01 A3019 RMK SC1AC1AC1CI0 SLP253

CYYC;2007-10-09 15:00;CYYC 091500Z 15008KT 40SM FEW090 FEW140 BKN240 06/M01 A3020 RMK AC1AC1CI0 SLP257

CYYC;2007-10-09 16:00;CYYC 091600Z 15011KT 40SM FEW090 BKN180 BKN240 07/M00 A3019 RMK AC1AC2CI0 SLP255

CYYC;2007-10-09 17:00;CYYC 091700Z 14011KT 40SM FEW090 FEW190 BKN240 08/00 A3018 RMK AC1AC1CI0 SLP253

CYYC;2007-10-09 18:00;CYYC 091800Z 15016KT 40SM FEW090 FEW200 BKN240 10/02 A3017 RMK AC1CI1CI0 SLP242

CYYC;2007-10-09 19:00;CYYC 091900Z 15019KT 40SM FEW080 SCT200 BKN240 12/03 A3016 RMK AC1CI2CI0 SLP237

CYYC;2007-10-09 20:00;CYYC 092000Z 15015G22KT 40SM FEW080 FEW200 SCT240 14/03 A3014 RMK AC1CI1CI0 LWR AC TR SLP231

CYYC;2007-10-09 21:00;CYYC 092100Z 14017G22KT 40SM FEW080 FEW200 FEW260 14/04 A3012 RMK AC1CI1CI0 SLP220

CYYC;2007-10-09 22:00;CYYC 092200Z CCA 16017G22KT 30SM FEW080 FEW200 FEW260 14/04 A3010 RMK AC1CI1CI0 SLP213

CYYC;2007-10-09 23:00;CYYC 092300Z 16020KT 20SM FEW080 FEW200 FEW260 14/04 A3008 RMK AC1CI1CI1 SLP209

CYYC;2007-10-10 00:00;CYYC 100000Z 14013G20KT 30SM FEW080 FEW200 FEW260 13/04 A3007 RMK AC1CI1CI1 SLP206

CYYC;2007-10-10 01:00;CYYC 100100Z 13011G16KT 30SM FEW080 FEW260 11/04 A3007 RMK AC1CI1 SLP205

CYYC;2007-10-10 02:00;CYYC 100200Z 14012KT 15SM FEW080 FEW260 10/04 A3006 RMK AC1CI1 SLP202

CYYC;2007-10-10 03:00;CYYC 100300Z 14014G19KT 15SM FEW080 FEW260 10/03 A3005 RMK AC1CI1 SLP201

CYYC;2007-10-10 04:00;CYYC 100400Z 15012G17KT 15SM SKC 08/03 A3003 RMK SLP196

CYYC;2007-10-10 05:00;CYYC 100500Z 16010KT 15SM SKC 07/03 A3002 RMK SLP192

CYYC;2007-10-10 06:00;CYYC 100600Z 16008KT 15SM SKC 06/03 A3000 RMK SLP182

CYYC;2007-10-10 07:00;CYYC 100700Z 14009KT 15SM FEW080 05/02 A2999 RMK AC1 SLP178

CYYC;2007-10-10 08:00;CYYC 100800Z 14009KT 15SM FEW120 04/01 A2997 RMK AC1 SLP174

CYYC;2007-10-10 09:00;CYYC 100900Z 14012G17KT 15SM SKC 04/00 A2995 RMK AURBO SLP162

CYYC;2007-10-10 10:00;CYYC 101000Z 16007KT 15SM SKC 03/M00 A2992 RMK AURBO SLP153

CYYC;2007-10-10 11:00;CYYC 101100Z 14006KT 15SM FEW260 01/M01 A2990 RMK CI1 SLP146

CYYC;2007-10-10 12:00;CYYC 101200Z 15005KT 15SM FEW240 SCT260 01/M01 A2988 RMK CI1CI1 SLP143

CYYC;2007-10-10 13:00;CYYC 101300Z 17008KT 15SM SCT240 BKN260 02/01 A2986 RMK CI3CI0 SLP137

CYYC;2007-10-10 14:00;CYYC 101400Z 17007KT 20SM FEW008 BKN017 BKN220 02/01 A2985 RMK SF1SC4CI1 SLP133

CYYC;2007-10-10 14:14;CYYC 101414Z 17008KT 20SM BKN007 OVC016 02/ RMK SC5SC2

CYYC;2007-10-10 15:00;CYYC 101500Z 15006KT 15SM BKN006 OVC016 02/01 A2983 RMK SC6SC2 SLP128

CYYC;2007-10-10 15:33;CYYC 101533Z 16007KT 15SM SCT008 BKN016 OVC210 03/ RMK SF3SC2CI2

CYYC;2007-10-10 16:00;CYYC 101600Z 17007KT 15SM FEW008 SCT017 OVC220 03/02 A2982 RMK SC2SC2CI3 SLP126

CYYC;2007-10-10 17:00;CYYC 101700Z 16008KT 15SM SCT010 BKN019 OVC200 05/03 A2981 RMK SC3SC2CI2 SLP122

CYYC;2007-10-10 17:20;CYYC 101720Z 17011KT 15SM FEW011 BKN014 OVC200 05/ RMK SC2SC3CI2

CYYC;2007-10-10 18:00;CYYC 101800Z 17007KT 15SM BKN013 OVC200 05/03 A2979 RMK SC7CI1 SLP115

CYYC;2007-10-10 18:22;CYYC 101822Z 17008KT 15SM SCT013 OVC170 06/ RMK SC3AC5

CYYC;2007-10-10 20:00;CYYC 102000Z 18007KT 15SM FEW018 BKN150 OVC180 07/04 A2976 RMK SC1AC5AC3 SLP108

CYYC;2007-10-10 21:00;CYYC 102100Z 16010KT 20SM FEW021 FEW180 BKN220 09/04 A2974 RMK CU1AC2CI3 SLP097

CYYC;2007-10-10 22:00;CYYC 102200Z CCA 17008KT 15SM FEW170 BKN240 11/04 A2973 RMK AC2CI4 SLP093

CYYC;2007-10-10 23:00;CYYC 102300Z 17010KT 15SM SCT180 OVC220 11/04 A2972 RMK AC3CI5 SLP090

CYYC;2007-10-11 00:00;CYYC 110000Z 19006KT 15SM BKN160 OVC220 10/05 A2972 RMK AC6CI2 SLP091

CYYC;2007-10-11 01:00;CYYC 110100Z 18004KT 15SM BKN160 OVC200 09/04 A2971 RMK AC6CI2 SLP090

CYYC;2007-10-11 02:00;CYYC 110200Z 14004KT 15SM BKN170 OVC220 09/04 A2971 RMK AC6CI2 SLP089

CYYC;2007-10-11 03:00;CYYC 110300Z 17002KT 15SM BKN130 OVC210 09/05 A2971 RMK AC6CI2 SLP090

CYYC;2007-10-11 04:00;CYYC 110400Z 33003KT 15SM BKN130 BKN210 08/04 A2972 RMK AC3CI1 SLP091

CYYC;2007-10-11 05:00;CYYC 110500Z 31010KT 15SM SCT130 BKN230 07/04 A2975 RMK AC3CI3 SLP101

CYYC;2007-10-11 08:00;CYYC 110800Z 33007KT 15SM BKN120 OVC230 07/05 A2976 RMK AC5CI1 SLP103

CYYC;2007-10-11 09:00;CYYC 110900Z 02002KT 15SM BKN130 OVC240 06/04 A2977 RMK AC5CI2 SLP105

CYYC;2007-10-11 10:00;CYYC 111000Z CCA 04004KT 15SM BKN120 OVC240 05/03 A2978 RMK AC5CI2 SLP107

CYYC;2007-10-11 11:00;CYYC 111100Z 33009KT 15SM BKN120 BKN240 05/02 A2983 RMK AC3CI2 SLP123

CYYC;2007-10-11 12:00;CYYC 111200Z 34008KT 15SM BKN120 OVC240 06/03 A2985 RMK AC6CI2 SLP133

CYYC;2007-10-11 13:00;CYYC 111300Z 32008KT 15SM BKN130 BKN240 06/04 A2988 RMK AC5CI2 SLP140

CYYC;2007-10-11 14:00;CYYC 111400Z 32008KT 40SM FEW080 SCT130 06/04 A2990 RMK AC1AC0 SLP146

CYYC;2007-10-11 15:00;CYYC 111500Z 32008KT 40SM FEW080 FEW130 05/03 A2992 RMK AC1AC1 UPR AC TR SLP157

CYYC;2007-10-11 16:00;CYYC 111600Z 32006KT 40SM FEW080 FEW140 FEW240 10/04 A2993 RMK AC1AC1CI1 SLP160

CYYC;2007-10-11 17:00;CYYC 111700Z 34005KT 40SM FEW080 FEW160 12/02 A2993 RMK AC1AC1 SLP161

CYYC;2007-10-11 18:00;CYYC 111800Z 24005KT 40SM FEW080 FEW160 14/M01 A2993 RMK AC1AC1 SLP151

CYYC;2007-10-11 19:00;CYYC 111900Z 27013G20KT 40SM FEW070 FEW080 15/M05 A2991 RMK AC1AC1 CU ASOCTD / UPR AC TR SLP146

CYYC;2007-10-11 20:00;CYYC 112000Z 29015KT 40SM FEW081 15/M05 A2990 RMK AC2 CU ASOCTD SLP143

CYYC;2007-10-11 21:00;CYYC 112100Z 28012KT 40SM FEW090 14/M06 A2990 RMK AC2 VIRGA ALQDS SLP143

CYYC;2007-10-11 22:00;CYYC 112200Z 29006KT 40SM FEW080 SCT091 15/M06 A2989 RMK CU1AC2 VIRGA N-SE SLP141

CYYC;2007-10-11 23:00;CYYC 112300Z 30008KT 40SM FEW080 BKN091 BKN240 14/M06 A2990 RMK CU1AC4CI1 VIRGA N-SE / CI TR SLP142

CYYC;2007-10-12 00:00;CYYC 120000Z 29009KT 30SM FEW075 BKN093 BKN240 13/M06 A2990 RMK CU1AC3CI1 VIRGA N-SE SLP146

CYYC;2007-10-12 01:00;CYYC 120100Z 28010G17KT 30SM FEW075 BKN092 BKN240 11/M06 A2991 RMK AC1AC3CI0 VIRGA NW-SE SLP148

CYYC;2007-10-12 02:00;CYYC 120200Z 34005KT 15SM SCT091 BKN240 09/M07 A2992 RMK AC2CI1 SLP151

CYYC;2007-10-12 03:00;CYYC 120300Z 31002KT 15SM BKN089 BKN240 09/M07 A2993 RMK AC3CI1 SLP161

CYYC;2007-10-12 04:00;CYYC 120400Z 32007KT 15SM BKN092 BKN180 07/M05 A2993 RMK AC5AC1 SLP162

CYYC;2007-10-12 05:00;CYYC 120500Z 36005KT 15SM BKN089 OVC180 04/M05 A2994 RMK AC6AC1 SLP164

CYYC;2007-10-12 06:00;CYYC 120600Z 33009KT 15SM BKN090 OVC200 04/M05 A2993 RMK AC5CI2 SLP155

CYYC;2007-10-12 07:00;CYYC 120700Z 32008KT 15SM BKN130 OVC230 04/M06 A2993 RMK AC6CI2 SLP155

CYYC;2007-10-12 08:00;CYYC 120800Z 35006KT 15SM BKN140 OVC230 02/M06 A2993 RMK AC5CI2 SLP155

CYYC;2007-10-12 09:00;CYYC 120900Z 35004KT 15SM SCT140 BKN230 03/M06 A2993 RMK AC2CI1 SLP157

CYYC;2007-10-12 10:00;CYYC 121000Z 01003KT 15SM BKN075 BKN220 02/M06 A2992 RMK AC6CI1 SLP155

CYYC;2007-10-12 11:00;CYYC 121100Z 25002KT 15SM BKN076 OVC210 03/M05 A2993 RMK AC6CI2 SLP157

CYYC;2007-10-12 12:00;CYYC 121200Z 31004KT 15SM BKN085 OVC210 03/M05 A2993 RMK AC6CI2 SLP159

CYYC;2007-10-12 13:00;CYYC 121300Z 34005KT 15SM BKN099 OVC210 02/M04 A2992 RMK AC6CI2 SLP154

CYYC;2007-10-12 14:00;CYYC 121400Z 32007KT 40SM BKN095 OVC250 03/M04 A2990 RMK AC7CI0 SLP150

CYYC;2007-10-12 15:00;CYYC 121500Z 34008KT 40SM BKN100 BKN160 03/M04 A2990 RMK AC6AC1 SLP154

CYYC;2007-10-12 16:00;CYYC 121600Z 33008KT 40SM BKN150 BKN240 07/M04 A2989 RMK AC6CI0 SLP151

CYYC;2007-10-12 17:00;CYYC 121700Z 34008KT 40SM BKN100 BKN180 BKN240 08/M04 A2989 RMK AC6AC1CI1 SLP150

CYYC;2007-10-12 18:00;CYYC 121800Z 32004KT 40SM BKN080 OVC220 09/M04 A2989 RMK AC6CI1 SLP148

CYYC;2007-10-12 19:00;CYYC 121900Z 32004KT 40SM BKN080 BKN250 10/M04 A2987 RMK AC4CI1 SLP143

CYYC;2007-10-12 20:00;CYYC 122000Z 00000KT 40SM FEW056 BKN085 BKN120 OVC250 11/M03 A2986 RMK CU1AC5AC2CI0 CU TR SLP140

CYYC;2007-10-12 21:00;CYYC 122100Z 19006KT 40SM FEW062 BKN092 BKN130 OVC250 13/M03 A2985 RMK CU1AC6AC1CI0 DIST SH SW-NW/CU TR SLP129

CYYC;2007-10-12 22:00;CYYC 122200Z 17006KT 40SM FEW060 BKN085 OVC250 11/M03 A2984 RMK CU1AC6CI0 DIST SH NE+SW+NW/CU TR SLP127

CYYC;2007-10-12 23:00;CYYC 122300Z 19004KT 40SM FEW058 FEW085 OVC150 11/M03 A2984 RMK CU1AC2AC5 DIST SH SW/CU TR SLP126

CYYC;2007-10-13 00:00;CYYC 130000Z 06002KT 40SM FEW052 BKN070 OVC160 11/M01 A2983 RMK CU1AS5AS2 DIST SH SW/CU TR SLP127

CYYC;2007-10-13 01:00;CYYC 130100Z 07004KT 30SM FEW050 OVC120 08/M01 A2984 RMK SC1AS6 DIST SH SW SLP128

CYYC;2007-10-13 02:00;CYYC 130200Z 10004KT 15SM FEW094 OVC140 07/M01 A2985 RMK AC2AC5 SLP134

CYYC;2007-10-13 03:00;CYYC 130300Z 34005KT 15SM BKN078 BKN110 06/M00 A2986 RMK AC5AC1 SLP143

CYYC;2007-10-13 04:00;CYYC 130400Z 33005KT 15SM FEW071 BKN120 06/M01 A2988 RMK AC2AC5 SLP150

CYYC;2007-10-13 05:00;CYYC 130500Z 33006KT 15SM FEW058 BKN076 OVC180 05/M00 A2989 RMK SC2AC4AC2 SLP152

CYYC;2007-10-13 06:00;CYYC 130600Z 35005KT 15SM FEW058 BKN083 OVC099 05/M00 A2989 RMK SC2AC2AC2 SLP149

CYYC;2007-10-13 07:00;CYYC 130700Z 35005KT 15SM FEW058 SCT080 BKN100 BKN130 OVC180 05/M00 A2989 RMK SC2AC2AC2AC2AC1 SLP149

CYYC;2007-10-13 08:00;CYYC 130800Z 27002KT 15SM BKN084 BKN130 05/M00 A2990 RMK AC6AC1 SLP151

CYYC;2007-10-13 09:00;CYYC 130900Z 32002KT 15SM BKN080 05/M00 A2991 RMK AC7 SLP150

CYYC;2007-10-13 10:00;CYYC 131000Z 32004KT 15SM OVC079 04/00 A2993 RMK AC8 SLP154

CYYC;2007-10-13 11:00;CYYC 131100Z 32006KT 15SM SCT078 03/M00 A2993 RMK AC3 SLP156

CYYC;2007-10-13 11:42;CYYC 131142Z 33004KT 15SM FEW078 FEW210 01/ RMK AC1CI1

CYYC;2007-10-13 12:00;CYYC 131200Z 01004KT 15SM FEW078 FEW210 02/M01 A2994 RMK AC1CI0 SLP168

CYYC;2007-10-13 13:00;CYYC 131300Z 28002KT 15SM FEW078 FEW260 01/M01 A2995 RMK AC1CI0 SLP171

CYYC;2007-10-13 14:00;CYYC 131400Z 00000KT 40SM FEW060 FEW160 FEW250 M01/M03 A2996 RMK SC1AC1CI1 SLP172

CYYC;2007-10-13 15:00;CYYC 131500Z 00000KT 40SM FEW060 FEW150 SCT270 01/M01 A2998 RMK SC1AC1CI0 SLP188

CYYC;2007-10-13 16:00;CYYC 131600Z 00000KT 40SM FEW150 SCT270 05/00 A2997 RMK AC1CI0 SLP187

CYYC;2007-10-13 17:00;CYYC 131700Z 17003KT 40SM FEW150 FEW250 08/00 A2998 RMK AC1CI0 SLP188

CYYC;2007-10-13 18:00;CYYC 131800Z 17004KT 40SM FEW170 FEW250 10/01 A2998 RMK AC1CI0 SLP176

CYYC;2007-10-13 19:00;CYYC 131900Z 16009KT 40SM FEW240 11/00 A2997 RMK CI1 SLP173

CYYC;2007-10-13 20:00;CYYC 132000Z 12007KT 40SM FEW260 11/M00 A2995 RMK CI1 SLP167

CYYC;2007-10-13 21:00;CYYC 132100Z 16011KT 40SM FEW180 FEW250 13/M00 A2993 RMK AC1CI1 SLP157

CYYC;2007-10-13 22:00;CYYC 132200Z 17007KT 40SM FEW140 FEW230 14/M00 A2992 RMK AC1CI1 SLP154

CYYC;2007-10-13 23:00;CYYC 132300Z 16008KT 30SM FEW140 SCT230 13/M00 A2992 RMK AC1CI0 SLP153

CYYC;2007-10-14 00:00;CYYC 140000Z 16007KT 30SM FEW140 SCT260 12/M00 A2992 RMK AC1CI0 SLP159

CYYC;2007-10-14 01:00;CYYC 140100Z 16007KT 40SM FEW140 FEW260 09/M00 A2993 RMK AC1CI1 SLP160

CYYC;2007-10-14 02:00;CYYC 140200Z CCA 14005KT 15SM FEW140 FEW260 08/M00 A2994 RMK AC1CI1 SLP163

CYYC;2007-10-14 03:00;CYYC 140300Z 17006KT 15SM FEW260 07/M00 A2995 RMK CI1 SLP176

CYYC;2007-10-14 04:00;CYYC 140400Z 20005KT 15SM FEW260 06/M00 A2996 RMK CI1 SLP179

CYYC;2007-10-14 05:00;CYYC 140500Z 19004KT 15SM SKC 06/M00 A2996 RMK SLP181

CYYC;2007-10-14 06:00;CYYC 140600Z 18003KT 15SM SKC 05/00 A2997 RMK SLP173

CYYC;2007-10-14 07:00;CYYC 140700Z 21004KT 15SM SKC 04/M00 A2996 RMK SLP172

CYYC;2007-10-14 08:00;CYYC 140800Z 20004KT 15SM SKC 02/M01 A2996 RMK SLP171

CYYC;2007-10-14 09:00;CYYC 140900Z 19006KT 15SM SKC 02/M01 A2996 RMK SLP171

CYYC;2007-10-14 10:00;CYYC 141000Z 21005KT 15SM SKC 02/M02 A2996 RMK SLP170

CYYC;2007-10-14 11:00;CYYC 141100Z 21004KT 15SM SKC 02/M02 A2996 RMK SLP170

CYYC;2007-10-14 12:00;CYYC 141200Z 18004KT 15SM SKC 03/M03 A2995 RMK SLP168

CYYC;2007-10-14 13:00;CYYC 141300Z 21002KT 15SM SKC 02/M03 A2996 RMK SLP170

CYYC;2007-10-14 14:00;CYYC 141400Z 00000KT 40SM FEW100 02/M03 A2996 RMK AC1 SLP171

CYYC;2007-10-14 15:00;CYYC 141500Z 00000KT 40SM FEW100 03/M01 A2997 RMK AC1 SLP180

CYYC;2007-10-14 16:00;CYYC 141600Z 00000KT 40SM FEW120 07/M00 A2997 RMK AC1 SLP180

CYYC;2007-10-14 17:00;CYYC 141700Z 21005KT 40SM FEW070 FEW130 11/00 A2996 RMK AC1AC1 SLP178

CYYC;2007-10-14 18:00;CYYC 141800Z 18006KT 40SM FEW120 FEW240 14/00 A2995 RMK AC1CI1 SLP160

CYYC;2007-10-14 19:00;CYYC 141900Z 15009KT 40SM FEW120 FEW240 15/M00 A2994 RMK AC1CI0 SLP158

CYYC;2007-10-14 20:00;CYYC 142000Z 17009KT 40SM FEW130 FEW240 17/00 A2992 RMK AC1CI1 SLP151

CYYC;2007-10-14 21:00;CYYC 142100Z 17010KT 40SM FEW130 FEW240 18/M01 A2990 RMK AC1CI1 SLP142

CYYC;2007-10-14 22:00;CYYC 142200Z 15011G16KT 40SM FEW150 FEW260 19/M01 A2989 RMK AC1CI1 SLP138

CYYC;2007-10-14 23:00;CYYC 142300Z 14013KT 40SM FEW150 FEW240 18/M02 A2988 RMK AC1CI1 SLP135

CYYC;2007-10-15 00:00;CYYC 150000Z 16008G15KT 40SM FEW150 FEW240 16/M02 A2988 RMK AC1CI1 SLP136

CYYC;2007-10-15 01:00;CYYC 150100Z 15009KT 40SM FEW120 FEW240 14/M02 A2987 RMK AC1CI0 SLP135

CYYC;2007-10-15 02:00;CYYC 150200Z 16013KT 15SM FEW140 FEW240 13/M01 A2986 RMK AC1CI0 AC TR SLP132

CYYC;2007-10-15 03:00;CYYC 150300Z 16008KT 15SM FEW240 09/M01 A2986 RMK CI0 SLP139

CYYC;2007-10-15 04:00;CYYC 150400Z 16004KT 15SM FEW240 08/M01 A2985 RMK CI0 SLP135

CYYC;2007-10-15 06:00;CYYC 150600Z 14003KT 15SM FEW240 05/M01 A2981 RMK CI0 SLP112

CYYC;2007-10-15 07:00;CYYC 150700Z 18002KT 15SM FEW210 05/M01 A2980 RMK CI1 CI TR SLP109

CYYC;2007-10-15 08:00;CYYC 150800Z 04003KT 15SM FEW240 03/M01 A2980 RMK CI1 CI TR SLP108

CYYC;2007-10-15 09:00;CYYC 150900Z 30003KT 15SM FEW240 02/M02 A2979 RMK CI1 SLP103

CYYC;2007-10-15 10:00;CYYC 151000Z 22002KT 15SM FEW240 03/M01 A2978 RMK CI1 SLP100

CYYC;2007-10-15 11:00;CYYC 151100Z 29002KT 15SM FEW240 03/M02 A2976 RMK CI1 SLP096

CYYC;2007-10-15 12:00;CYYC 151200Z 22002KT 15SM FEW250 02/M01 A2975 RMK CI1 SLP094

CYYC;2007-10-15 13:00;CYYC 151300Z 19003KT 15SM FEW180 BKN250 04/M00 A2975 RMK AC1CI2 AC TR SLP092

CYYC;2007-10-15 14:00;CYYC 151400Z 21003KT 40SM FEW180 SCT250 03/M00 A2974 RMK AC0CI0 SLP090

CYYC;2007-10-15 15:00;CYYC 151500Z 24003KT 40SM FEW180 FEW250 05/00 A2974 RMK AC1CI0 SLP096

CYYC;2007-10-15 16:00;CYYC 151600Z 00000KT 40SM FEW180 FEW250 09/02 A2974 RMK AC1CI1 SLP095

CYYC;2007-10-15 17:00;CYYC 151700Z 18002KT 40SM FEW180 FEW250 13/02 A2973 RMK AC1CI1 SLP092

CYYC;2007-10-15 18:00;CYYC 151800Z 19003KT 40SM FEW180 FEW250 16/01 A2972 RMK AC1CI1 SLP078

CYYC;2007-10-15 19:00;CYYC 151900Z 17006KT 40SM FEW180 FEW260 18/02 A2969 RMK AC1CI1 SLP070

CYYC;2007-10-15 20:00;CYYC 152000Z 14003KT 40SM FEW180 FEW260 18/01 A2968 RMK AC1CI1 SLP067

CYYC;2007-10-15 21:00;CYYC 152100Z 16006KT 30SM FEW190 FEW260 19/00 A2966 RMK AC1CI0 SLP058

CYYC;2007-10-15 22:00;CYYC 152200Z 13007KT 30SM FEW190 FEW260 19/01 A2966 RMK AC1CI0 SLP057

CYYC;2007-10-15 23:00;CYYC 152300Z 12002KT 30SM FEW190 FEW260 19/00 A2965 RMK AC1CI0 SLP056

CYYC;2007-10-16 00:00;CYYC 160000Z 08002KT 30SM FEW190 FEW260 17/01 A2964 RMK AC1CI0 SLP055

CYYC;2007-10-16 01:00;CYYC 160100Z 04005KT 30SM FEW180 FEW260 12/00 A2963 RMK AC1CI0 SLP051

CYYC;2007-10-16 02:00;CYYC 160200Z 35006KT 15SM FEW260 09/01 A2962 RMK CI0 SLP047

CYYC;2007-10-16 03:00;CYYC 160300Z 34009KT 15SM FEW260 06/M00 A2962 RMK CI0 SLP057

CYYC;2007-10-16 04:00;CYYC 160400Z 32007KT 15SM FEW260 05/M00 A2961 RMK CI0 SLP056

CYYC;2007-10-16 05:00;CYYC 160500Z 04002KT 15SM FEW260 06/M02 A2959 RMK CI0 SLP050

CYYC;2007-10-16 06:00;CYYC 160600Z 11002KT 15SM FEW260 06/M02 A2958 RMK CI0 SLP029

CYYC;2007-10-16 07:00;CYYC 160700Z 11003KT 15SM FEW260 04/M02 A2957 RMK CI0 SLP026

CYYC;2007-10-16 08:00;CYYC 160800Z 12002KT 15SM FEW250 03/M03 A2956 RMK CI0 SLP023

CYYC;2007-10-16 09:00;CYYC 160900Z 13002KT 15SM FEW250 02/M02 A2956 RMK CI0 SLP021

CYYC;2007-10-16 10:00;CYYC 161000Z 19006KT 15SM FEW250 05/M02 A2955 RMK CI0 SLP018

CYYC;2007-10-16 11:00;CYYC 161100Z 21006KT 15SM FEW250 03/M02 A2954 RMK CI0 SLP015

CYYC;2007-10-16 12:00;CYYC 161200Z 21007KT 15SM FEW250 04/M01 A2953 RMK CI0 SLP012

CYYC;2007-10-16 13:00;CYYC 161300Z 23007KT 15SM FEW160 SCT250 04/M01 A2952 RMK AC1CI1 SLP009

CYYC;2007-10-16 14:00;CYYC 161400Z 00000KT 40SM FEW090 BKN170 BKN260 04/M01 A2951 RMK AC1AC2CI0 SLP006

CYYC;2007-10-16 15:00;CYYC 161500Z 19004KT 40SM FEW090 SCT170 BKN260 04/M01 A2950 RMK AC1AC2CI0 SLP019

CYYC;2007-10-16 16:00;CYYC 161600Z 21005KT 40SM FEW090 SCT190 BKN260 07/02 A2949 RMK AC1AC3CI1 SLP014

CYYC;2007-10-16 17:00;CYYC 161700Z 20003KT 30SM FEW090 BKN200 BKN260 12/02 A2947 RMK AC1CI5CI0 SLP009

CYYC;2007-10-16 18:00;CYYC 161800Z 21007KT 30SM FEW090 BKN200 BKN260 13/01 A2946 RMK AC1CI5CI0 SLP994

CYYC;2007-10-16 19:00;CYYC 161900Z 20005KT 20SM FEW090 BKN180 13/02 A2945 RMK AC1AC7 SLP989

CYYC;2007-10-16 20:00;CYYC 162000Z 20005KT 20SM FEW090 FEW140 BKN180 15/03 A2943 RMK AC1AC1AS7 SLP984

CYYC;2007-10-16 21:00;CYYC 162100Z 18006KT 20SM FEW090 FEW140 BKN180 17/04 A2941 RMK AC1AC1AS7 SLP974

CYYC;2007-10-16 22:00;CYYC 162200Z 18010G15KT 30SM FEW080 SCT180 BKN210 17/02 A2940 RMK AC1AS3CI2 SLP971

CYYC;2007-10-16 23:00;CYYC 162300Z 20014KT 30SM FEW080 SCT180 BKN230 16/01 A2939 RMK AC1AS2CI1 SLP968

CYYC;2007-10-17 00:00;CYYC 170000Z 18010KT 30SM FEW080 FEW180 SCT230 BKN260 14/01 A2940 RMK AC1AC1CI1CI0 SLP969

CYYC;2007-10-17 01:00;CYYC 170100Z 21007KT 30SM FEW080 FEW210 BKN240 09/M01 A2940 RMK AC1CI1CI0 SLP969

CYYC;2007-10-17 02:00;CYYC 170200Z 21006KT 15SM FEW080 FEW240 08/M01 A2939 RMK AC1CI1 AC TR SLP967

CYYC;2007-10-17 03:00;CYYC 170300Z 19007KT 15SM FEW150 BKN260 07/M02 A2939 RMK AC1CI1 AC TR SLP976

CYYC;2007-10-17 04:00;CYYC 170400Z 21008KT 15SM FEW150 BKN260 04/M02 A2938 RMK AC1CI2 AC TR SLP974

CYYC;2007-10-17 05:00;CYYC 170500Z 19009KT 15SM FEW150 BKN250 06/M03 A2938 RMK AC1CI2 AC TR SLP974

CYYC;2007-10-17 06:00;CYYC 170600Z 20006KT 15SM BKN150 BKN250 06/M02 A2938 RMK AC5CI0 SLP963

CYYC;2007-10-17 07:00;CYYC 170700Z 19006KT 15SM BKN150 BKN250 07/M02 A2938 RMK AC6CI0 SLP963

CYYC;2007-10-17 08:00;CYYC 170800Z 22003KT 15SM BKN150 BKN250 08/M03 A2939 RMK AC5CI1 SLP965

CYYC;2007-10-17 09:00;CYYC 170900Z 00000KT 15SM SCT150 BKN250 07/M03 A2939 RMK AC3CI1 SLP958

CYYC;2007-10-17 10:00;CYYC 171000Z 01004KT 15SM FEW150 BKN240 03/M03 A2939 RMK AC2CI3 SLP958

CYYC;2007-10-17 11:00;CYYC 171100Z 36004KT 15SM FEW180 BKN250 03/M03 A2939 RMK AC1CI2 SLP959

CYYC;2007-10-17 12:00;CYYC 171200Z 32009KT 15SM FEW180 BKN250 06/M03 A2940 RMK AC1CI3 SLP967

CYYC;2007-10-17 13:00;CYYC 171300Z 34008KT 15SM FEW210 BKN240 05/M03 A2941 RMK CI1CI2 SLP972

CYYC;2007-10-17 14:00;CYYC 171400Z 33010KT 40SM FEW080 BKN200 OVC240 06/M03 A2943 RMK AC1CI6CI0 SLP979

CYYC;2007-10-17 15:00;CYYC 171500Z 32010KT 40SM FEW080 BKN200 BKN240 05/M03 A2945 RMK AC1CI5CI0 SLP999

CYYC;2007-10-17 16:00;CYYC 171600Z 32008KT 40SM FEW050 FEW080 FEW200 BKN250 07/M02 A2947 RMK SC1AC1CI1CS1 AC TR SLP003

CYYC;2007-10-17 17:00;CYYC 171700Z 32009KT 40SM FEW050 FEW080 FEW200 BKN240 10/M00 A2948 RMK SC1AC1CI1CI0 AC TR SLP008

CYYC;2007-10-17 18:00;CYYC 171800Z 34012KT 40SM FEW050 SCT080 BKN200 BKN240 11/M01 A2949 RMK SC1AC1CI0CI0 SLP002

CYYC;2007-10-17 19:00;CYYC 171900Z 34011KT 40SM FEW050 BKN086 BKN240 11/M01 A2950 RMK SC1AC7CI1 SLP007

CYYC;2007-10-17 20:00;CYYC 172000Z 33009KT 40SM FEW050 BKN089 BKN240 11/M01 A2951 RMK SC1AC7CI1 SLP010

CYYC;2007-10-17 21:00;CYYC 172100Z 32007KT 40SM FEW050 BKN092 BKN240 12/M03 A2952 RMK SC1AC6CI0 SLP012

CYYC;2007-10-17 22:00;CYYC 172200Z 36008KT 40SM FEW050 FEW092 SCT200 BKN250 12/M03 A2954 RMK SC1AC2CI1CI1 SC TR SLP016

CYYC;2007-10-17 23:00;CYYC 172300Z 34005KT 40SM FEW080 BKN110 BKN200 11/M03 A2955 RMK AC2AC2CI0 VIRGA S-NW SLP021

CYYC;2007-10-18 00:00;CYYC 180000Z 01003KT 30SM FEW080 BKN110 BKN200 10/M02 A2958 RMK AC1AC2CI2 SH SW SLP035

CYYC;2007-10-18 01:00;CYYC 180100Z 05002KT 30SM FEW080 BKN110 BKN200 09/M02 A2959 RMK AC2AC2CI1 SH S SLP039

CYYC;2007-10-18 02:00;CYYC 180200Z 30006KT 15SM FEW110 BKN190 BKN210 07/M03 A2962 RMK AC1AC4CC1 SLP048

CYYC;2007-10-18 03:00;CYYC 180300Z 01002KT 15SM FEW090 BKN110 BKN190 07/M05 A2964 RMK AC1AC5AC1 SLP062

CYYC;2007-10-18 04:00;CYYC 180400Z 29011KT 15SM FEW095 OVC110 08/M06 A2965 RMK AC2AC6 SLP066

CYYC;2007-10-18 05:00;CYYC 180500Z 33008KT 15SM BKN093 OVC110 07/M07 A2967 RMK AC5AC3 VIRGA S SLP072

CYYC;2007-10-18 06:00;CYYC 180600Z 32009KT 15SM SCT079 BKN093 OVC120 07/M07 A2969 RMK AC3AC2AC2 VIRGA S SLP071

CYYC;2007-10-18 07:00;CYYC 180700Z 01006KT 15SM FEW075 FEW093 BKN120 05/M07 A2971 RMK AC2AC1AC3 VIRGA SE SLP077

CYYC;2007-10-18 08:00;CYYC 180800Z 36007KT 15SM FEW063 BKN095 05/M07 A2972 RMK SC1AC6 SLP082

CYYC;2007-10-18 09:00;CYYC 180900Z 34004KT 15SM BKN092 03/M08 A2974 RMK AC7 SLP092

CYYC;2007-10-18 10:00;CYYC 181000Z 00000KT 15SM FEW089 02/M08 A2973 RMK AC2 SLP091

CYYC;2007-10-18 11:00;CYYC 181100Z 05004KT 15SM FEW210 00/M09 A2974 RMK CI1 SLP094

CYYC;2007-10-18 12:00;CYYC 181200Z 06003KT 15SM FEW076 M02/M08 A2975 RMK AC1 SLP108

CYYC;2007-10-18 13:00;CYYC 181300Z 08006KT 15SM FEW076 FEW110 M02/M08 A2975 RMK AC1AC1 SLP108

CYYC;2007-10-18 14:00;CYYC 181400Z 16004KT 40SM FEW020 FEW076 M02/M07 A2975 RMK SC1AC1 VIRGA E/CF ASOCTD SLP108

CYYC;2007-10-18 15:00;CYYC 181500Z 19006KT 40SM FEW024 FEW080 00/M06 A2975 RMK CU1AC1 SLP106

CYYC;2007-10-18 16:00;CYYC 181600Z 22007KT 40SM FEW040 FEW100 04/M06 A2974 RMK CU1AC1 SLP105

CYYC;2007-10-18 17:00;CYYC 181700Z 23004KT 40SM FEW052 FEW200 07/M06 A2973 RMK CU1CI1 SLP102

CYYC;2007-10-18 18:00;CYYC 181800Z 17004KT 40SM FEW060 FEW100 FEW250 09/M06 A2972 RMK CU1AC1CI1 ACSL ASOCTD SLP086

CYYC;2007-10-18 19:00;CYYC 181900Z 21003KT 40SM FEW065 10/M07 A2969 RMK CU1 SLP076

CYYC;2007-10-18 20:00;CYYC 182000Z 17008KT 40SM FEW068 FEW260 11/M08 A2966 RMK CU1CI0 SLP068

CYYC;2007-10-18 21:00;CYYC 182100Z 18007KT 40SM FEW068 SCT180 BKN260 10/M07 A2963 RMK CU1AC3CI0 SLP056

CYYC;2007-10-18 22:00;CYYC 182200Z 18010G15KT 40SM FEW070 SCT180 SCT260 11/M08 A2960 RMK CU1AC3CI0 DIST SH SW SLP049

CYYC;2007-10-18 23:00;CYYC 182300Z 17009G17KT 40SM FEW070 BKN120 BKN180 BKN260 10/M08 A2958 RMK CU1AC5AC2CI0 DIST SH SE-SW+NW SLP043

CYYC;2007-10-18 23:15;CYYC 182315Z 25013G20KT 40SM FEW070 BKN100 BKN180 BKN260 10/ RMK CU1AC6AC1CI0 WSHFT 2305/DIST SH SE-SW+NW

CYYC;2007-10-19 00:00;CYYC 190000Z 25009KT 30SM FEW062 BKN100 BKN260 08/M10 A2957 RMK CU1AC6CI0 DIST SH SE/VIRGA SW-W SLP045

CYYC;2007-10-19 01:00;CYYC 190100Z 20010KT 30SM FEW056 SCT080 BKN110 OVC260 07/M08 A2954 RMK SC1AC3AS3CI1 DIST SH SE-SW SLP038

CYYC;2007-10-19 02:00;CYYC 190200Z 18011KT 15SM FEW090 OVC160 07/M07 A2952 RMK AC2AC6 SLP030

CYYC;2007-10-19 03:00;CYYC 190300Z 16008KT 15SM FEW090 BKN160 BKN220 05/M07 A2949 RMK AC1AC4CI2 SLP021

CYYC;2007-10-19 04:00;CYYC 190400Z 18007KT 15SM FEW090 BKN220 04/M06 A2947 RMK AC1CI2 SLP016

CYYC;2007-10-19 05:00;CYYC 190500Z 19009KT 15SM FEW090 SCT180 BKN240 02/M05 A2944 RMK AC1AC1CI2 SLP007

CYYC;2007-10-19 06:00;CYYC 190600Z 19005KT 15SM BKN180 BKN240 03/M04 A2941 RMK AC2CI2 SLP984

CYYC;2007-10-19 07:00;CYYC 190700Z 19004KT 15SM FEW090 BKN170 BKN240 01/M04 A2940 RMK AC1AC2CI2 SLP979

CYYC;2007-10-19 08:00;CYYC 190800Z 19007KT 15SM BKN170 BKN240 02/M03 A2940 RMK AC3CI2 SLP979

CYYC;2007-10-19 09:00;CYYC 190900Z 21007KT 15SM BKN170 BKN240 M00/M04 A2939 RMK AC2CI2 SLP979

CYYC;2007-10-19 10:00;CYYC 191000Z 21007KT 15SM FEW250 M01/M04 A2937 RMK CI1 CI TR SLP972

CYYC;2007-10-19 11:00;CYYC 191100Z 19006KT 15SM FEW240 M02/M05 A2934 RMK CI1 CI TR SLP965

CYYC;2007-10-19 12:00;CYYC 191200Z 20005KT 15SM SKC M01/M05 A2935 RMK SLP968

CYYC;2007-10-19 13:00;CYYC 191300Z 22005KT 15SM FEW120 FEW220 M02/M05 A2934 RMK AC1CI1 CLDS TR SLP965

CYYC;2007-10-19 14:00;CYYC 191400Z 24003KT 40SM FEW012 FEW100 FEW180 M02/M05 A2932 RMK CU1AC1AC1 CU TR SLP961

CYYC;2007-10-19 15:00;CYYC 191500Z 32005KT 40SM FEW012 FEW100 FEW180 M02/M05 A2931 RMK CU1AC1AC1 DIST SH SE+SW SLP963

CYYC;2007-10-19 16:00;CYYC 191600Z CCA 22002KT 40SM FEW012 FEW120 FEW250 M01/M04 A2933 RMK CU1AC1CI1 DIST SH NE-SE+SW SLP967

CYYC;2007-10-19 17:00;CYYC 191700Z 17002KT 40SM FEW032 FEW120 05/M03 A2932 RMK CU1AC1 DIST NE-E+SW SLP964

CYYC;2007-10-19 18:00;CYYC 191800Z 20007KT 40SM FEW048 FEW120 FEW180 11/M03 A2932 RMK CU1AC1AC1 DIST SH NE-E SLP950

CYYC;2007-10-19 19:00;CYYC 191900Z CCA 18006KT 40SM FEW060 BKN082 BKN180 BKN260 11/M04 A2931 RMK CU1AC5AC1CI0 DIST SH E SLP947

CYYC;2007-10-19 20:00;CYYC 192000Z 17003KT 40SM FEW065 BKN080 BKN260 13/M04 A2930 RMK CU1AC5CI1 DIST SH E SLP944

CYYC;2007-10-19 21:00;CYYC 192100Z 10005KT 40SM FEW060 SCT078 11/M04 A2929 RMK CU2AC2 VIRGA SE SLP942

CYYC;2007-10-19 22:00;CYYC 192200Z 07007KT 40SM FEW072 BKN080 13/M05 A2928 RMK CU2AC3 DIST SH SW SLP941

CYYC;2007-10-19 23:00;CYYC 192300Z 06003KT 40SM FEW060 SCT080 BKN100 BKN220 11/M04 A2929 RMK CU1AC3AS3CI1 DIST SH SE+SW+NW SLP942

CYYC;2007-10-19 23:44;CYYC 192344Z CCA 31012KT 30SM -SHRA FEW042CB BKN060 BKN100 11/ RMK CB2SC2AS2 PCPN VRY LGT/WSHFT 2330

CYYC;2007-10-20 00:00;CYYC 200000Z 33007KT 30SM BKN040CB BKN070 10/M03 A2931 RMK CB5AS2 DIST SH E+SW-N/VIS SW 15 SLP952

CYYC;2007-10-20 00:06;CYYC 200006Z 32012KT 30SM -SHRA BKN042CB BKN070 10/ RMK CB6AS2 PCPN VRY LGT

CYYC;2007-10-20 00:35;CYYC 200035Z CCB 30016G22KT 10SM -SHRA SCT040CB BKN055 OVC080 07/ RMK CB3SC2AS2 VIS S-SW 21/2

CYYC;2007-10-20 00:39;CYYC 200039Z 27023G28KT 2SM SHRA FEW018 FEW040CB BKN050 06/ RMK SC1CB2SC5 VIS N-NE 5

CYYC;2007-10-20 00:42;CYYC 200042Z 28017G28KT 5SM -SHRA FEW016 FEW040CB BKN050 06/ RERA RMK SC1CB2SC5 VIS SE-S 21/2

CYYC;2007-10-20 01:00;CYYC 200100Z 31002KT 15SM -SHRA FEW010 FEW015 BKN045CB BKN070 06/03 A2936 RERA RMK CU1SC2CB3AC2 PCPN VRY LGT/VIS SE 5/VIS SW 30 SLP967

CYYC;2007-10-20 01:06;CYYC 200106Z 05002KT 15SM FEW010 FEW015 BKN040CB BKN050 05/ RMK CU1SC2CB3SC2 OCNL SH/VIS N+SE 5/VIS SW 30

CYYC;2007-10-20 02:00;CYYC 200200Z 33004KT 15SM BKN140 BKN230 04/03 A2936 RMK AC5CI2 SLP968

CYYC;2007-10-20 03:00;CYYC 200300Z CCA 22002KT 15SM FEW140 FEW250 04/02 A2937 RMK AC1CI1 AC TR SLP984

CYYC;2007-10-20 04:00;CYYC 200400Z 26012KT 15SM FEW240 04/M00 A2938 RMK CI1 SLP986

CYYC;2007-10-20 05:00;CYYC 200500Z 27008KT 15SM SKC 03/M03 A2939 RMK SLP988

CYYC;2007-10-20 06:00;CYYC 200600Z 24007KT 15SM FEW240 02/M04 A2939 RMK CI1 CI TR SLP976

CYYC;2007-10-20 07:00;CYYC 200700Z 36006KT 15SM FEW240 01/M05 A2942 RMK CI1 CI TR SLP983

CYYC;2007-10-20 08:00;CYYC 200800Z 32010KT 15SM FEW100 FEW240 M01/M04 A2944 RMK AC1CI0 AC TR SLP990

CYYC;2007-10-20 09:00;CYYC 200900Z 32005KT 15SM FEW040 FEW140 FEW240 M02/M03 A2946 RMK SC1AC1CI0 SLP003

CYYC;2007-10-20 10:00;CYYC 201000Z 01004KT 15SM FEW120 BKN230 M02/M04 A2948 RMK AC1CI3 SLP010

CYYC;2007-10-20 11:00;CYYC 201100Z 01003KT 15SM BKN240 M01/M03 A2950 RMK CI4 SLP016

CYYC;2007-10-20 12:00;CYYC 201200Z 36003KT 15SM SCT240 M01/M02 A2951 RMK CI1 SLP022

CYYC;2007-10-20 13:00;CYYC 201300Z 32006KT 15SM FEW140 FEW250 M02/M03 A2953 RMK AC1CI1 BOTH CLDS TR SLP027

CYYC;2007-10-20 14:00;CYYC 201400Z 34006KT 40SM FEW100 FEW250 M04/M05 A2955 RMK AC1CI1 SLP035

CYYC;2007-10-20 15:00;CYYC 201500Z 31007KT 40SM FEW100 FEW240 M01/M03 A2958 RMK AC1CI0 SLP056

CYYC;2007-10-20 16:00;CYYC 201600Z 00000KT 40SM FEW100 FEW240 01/M00 A2961 RMK AC1CI1 AC TR SLP066

CYYC;2007-10-20 17:00;CYYC 201700Z 31007KT 40SM FEW090 FEW120 FEW240 04/01 A2963 RMK AC1AC1CI0 LWR AC TR SLP071

CYYC;2007-10-20 18:00;CYYC 201800Z 29005KT 40SM FEW025 FEW090 FEW120 FEW240 06/M00 A2964 RMK SC1AC1AC1CI0 SC+LWR AC TR SLP070

CYYC;2007-10-20 19:00;CYYC 201900Z CCA 34009KT 40SM FEW035 FEW090 FEW240 09/M03 A2966 RMK SC1AC1CI0 SLP074

CYYC;2007-10-20 20:00;CYYC 202000Z 36007KT 40SM FEW050 FEW090 FEW240 09/M04 A2966 RMK SC1AC1CI0 CU ASOCTD / AC TR / VIRGA SW SLP076

CYYC;2007-10-20 21:00;CYYC 202100Z 32005KT 40SM FEW058 BKN090 BKN240 08/M05 A2968 RMK SC2AC4CI1 SH S-NW SLP088

CYYC;2007-10-20 22:00;CYYC 202200Z 01005KT 40SM FEW060 BKN096 BKN240 07/M05 A2970 RMK SC2AC3CI1 SH ALQDS SLP093

CYYC;2007-10-20 23:00;CYYC 202300Z 04008KT 40SM FEW065 BKN100 BKN240 06/M02 A2973 RMK SC1AC3CI1 SH NW-S SLP102

CYYC;2007-10-21 00:00;CYYC 210000Z 01009KT 30SM FEW065 BKN100 BKN240 05/M00 A2977 RMK SC2AC3CI1 SH N-S SLP121

CYYC;2007-10-21 01:00;CYYC 210100Z 02003KT 30SM FEW065 BKN085 BKN240 03/M01 A2980 RMK SC1AC3CI0 SH NE SLP130

CYYC;2007-10-21 02:00;CYYC 210200Z 32003KT 15SM FEW110 FEW240 02/M02 A2983 RMK AC1CI1 AC TR SLP138

CYYC;2007-10-21 03:00;CYYC 210300Z 33002KT 15SM FEW096 01/M03 A2985 RMK AC1 SLP154

CYYC;2007-10-21 04:00;CYYC 210400Z 00000KT 15SM FEW100 01/M03 A2987 RMK AC2 SLP162

CYYC;2007-10-21 05:00;CYYC 210500Z 00000KT 15SM SCT100 M00/M04 A2991 RMK AC3 SLP172

CYYC;2007-10-21 06:00;CYYC 210600Z 24004KT 15SM SCT088 M01/M04 A2993 RMK AC2 SLP175

CYYC;2007-10-21 07:00;CYYC 210700Z 21003KT 15SM FEW088 SCT180 M01/M05 A2995 RMK AC1AC2 SLP179

CYYC;2007-10-21 08:00;CYYC 210800Z 00000KT 15SM FEW180 M01/M05 A2998 RMK AC2 SLP189

CYYC;2007-10-21 09:00;CYYC 210900Z 36008KT 15SM FEW086 SCT180 M01/M06 A3001 RMK AC1AC1 SLP200

CYYC;2007-10-21 10:00;CYYC 211000Z 34008KT 15SM FEW086 SCT140 M02/M06 A3004 RMK AC1AC1 SLP209

CYYC;2007-10-21 11:00;CYYC 211100Z 35003KT 15SM FEW240 M03/M07 A3007 RMK CI0 SLP217

CYYC;2007-10-21 12:00;CYYC 211200Z 33005KT 15SM SKC M04/M08 A3009 RMK SLP236

CYYC;2007-10-21 13:00;CYYC 211300Z 35003KT 15SM SKC M05/M08 A3009 RMK SLP238

CYYC;2007-10-21 14:00;CYYC 211400Z 21003KT 40SM FEW080 FEW240 M04/M07 A3012 RMK AC1CI0 SLP247

CYYC;2007-10-21 15:00;CYYC 211500Z 21002KT 40SM FEW080 FEW240 M04/M06 A3015 RMK AC1CI0 SLP262

CYYC;2007-10-21 16:00;CYYC 211600Z 20004KT 40SM FEW090 SCT240 BKN270 01/M03 A3017 RMK AC1CI0CI0 SLP268

CYYC;2007-10-21 17:00;CYYC 211700Z 21005KT 40SM FEW090 SCT240 BKN270 04/M03 A3017 RMK AC1CI1CI0 SLP269

CYYC;2007-10-21 18:00;CYYC 211800Z 19007KT 40SM FEW090 SCT190 BKN270 07/M02 A3017 RMK AC1AC1CI0 SLP258

CYYC;2007-10-21 19:00;CYYC 211900Z 19007KT 40SM FEW090 FEW140 SCT200 BKN270 09/M04 A3015 RMK AC1AC1CI1CI0 ACSL S SLP252

CYYC;2007-10-21 20:00;CYYC 212000Z 18008KT 40SM FEW090 FEW140 BKN200 09/M06 A3013 RMK AC1AC1CI7 ACSL S+W SLP246

CYYC;2007-10-21 21:00;CYYC 212100Z 27014KT 40SM FEW090 FEW140 BKN170 10/M08 A3013 RMK AC1AC1AS7 ACSL S SLP239

CYYC;2007-10-21 22:00;CYYC 212200Z 26018KT 40SM FEW090 FEW140 BKN170 BKN230 10/M08 A3012 RMK AC1AC1AS3CI4 SLP235

CYYC;2007-10-21 23:00;CYYC 212300Z 27017G24KT 40SM FEW090 FEW140 FEW170 BKN240 10/M08 A3011 RMK AC1AC1AS1CI3 SLP232

CYYC;2007-10-22 00:00;CYYC 220000Z 24009KT 40SM FEW090 FEW140 FEW240 BKN260 08/M07 A3010 RMK AC1AC1CI2CI0 SLP235

CYYC;2007-10-22 01:00;CYYC 220100Z 25008KT 30SM FEW090 BKN220 06/M07 A3010 RMK AC1CI2 SLP235

CYYC;2007-10-22 02:00;CYYC 220200Z 27011KT 15SM BKN130 BKN240 07/M07 A3009 RMK AC5CI2 SLP234

CYYC;2007-10-22 03:00;CYYC 220300Z 22007KT 15SM BKN110 OVC180 07/M06 A3008 RMK AC6AC2 SLP229

CYYC;2007-10-22 04:00;CYYC 220400Z 23008KT 15SM BKN120 OVC240 07/M06 A3005 RMK AC5CI2 SLP220

CYYC;2007-10-22 05:00;CYYC 220500Z 27019G25KT 15SM BKN100 OVC220 08/M06 A3005 RMK AC6CI2 SLP219

CYYC;2007-10-22 06:00;CYYC 220600Z 27019G27KT 15SM BKN085 OVC160 09/M06 A3006 RMK AC6AC2 SLP203

CYYC;2007-10-22 07:00;CYYC 220700Z 27016KT 15SM BKN076 OVC090 08/M06 A3007 RMK AC6AC2 SLP208

CYYC;2007-10-22 08:00;CYYC 220800Z 26014KT 15SM BKN097 OVC110 08/M06 A3006 RMK AC6AC2 SLP206

CYYC;2007-10-22 09:00;CYYC 220900Z 23010KT 15SM BKN081 OVC160 07/M05 A3006 RMK AC6AC2 SLP204

CYYC;2007-10-22 10:00;CYYC 221000Z 22006KT 15SM BKN077 OVC100 07/M05 A3006 RMK AC6AC2 SLP202

CYYC;2007-10-22 11:00;CYYC 221100Z 24010G15KT 15SM BKN046 BKN064 OVC090 09/M05 A3006 RMK SC5SC2AC1 SLP203

CYYC;2007-10-22 12:00;CYYC 221200Z 23005KT 15SM BKN093 OVC160 06/M04 A3006 RMK AC6AC2 SLP208

CYYC;2007-10-22 13:00;CYYC 221300Z 23004KT 15SM BKN096 OVC110 07/M05 A3008 RMK AC6AC2 SLP213

CYYC;2007-10-22 14:00;CYYC 221400Z 21005KT 40SM FEW100 FEW160 BKN220 04/M05 A3005 RMK AC1AC2CI1 SLP204

CYYC;2007-10-22 15:00;CYYC 221500Z 24006KT 40SM FEW100 FEW160 BKN200 BKN260 06/M04 A3003 RMK AC1AC2CI1CI0 SLP198

CYYC;2007-10-22 16:00;CYYC 221600Z 21005KT 40SM FEW100 BKN200 BKN260 09/M03 A3002 RMK AC2CI4CI1 SLP193

CYYC;2007-10-22 17:00;CYYC 221700Z 27008G21KT 40SM FEW090 BKN140 BKN200 BKN260 11/M03 A2998 RMK AC1AC3CI1CI0 LWR AC TR SLP182

CYYC;2007-10-22 18:00;CYYC 221800Z 28013KT 40SM FEW090 BKN140 BKN200 13/M02 A2999 RMK AC1AC6CI0 SLP170

CYYC;2007-10-22 19:00;CYYC 221900Z 21006KT 40SM FEW090 FEW140 BKN220 14/M01 A2996 RMK AC1AC0CI1 SLP162

CYYC;2007-10-22 20:00;CYYC 222000Z 21011KT 40SM FEW090 FEW140 FEW220 16/M01 A2994 RMK AC1AC1CI0 SLP155

CYYC;2007-10-22 21:00;CYYC 222100Z 24016G27KT 40SM FEW090 FEW150 FEW240 17/00 A2991 RMK AC1AC1CI0 SLP139

CYYC;2007-10-22 22:00;CYYC 222200Z 26021G31KT 40SM FEW090 FEW160 BKN260 17/01 A2991 RMK AC1AC1CI0 SLP140

CYYC;2007-10-22 23:00;CYYC 222300Z CCA 27018G24KT 30SM FEW090 FEW160 FEW260 17/01 A2991 RMK AC1AC1CI0 SLP141

CYYC;2007-10-23 00:00;CYYC 230000Z 26023G29KT 30SM FEW090 FEW160 FEW260 16/01 A2990 RMK AC1AC1CI0 SLP139

CYYC;2007-10-23 01:00;CYYC 230100Z 26017G22KT 30SM FEW090 FEW160 BKN260 15/01 A2991 RMK AC1AC1CI1 SLP141

CYYC;2007-10-23 02:00;CYYC 230200Z 25015KT 15SM FEW160 BKN260 15/01 A2992 RMK AC1CI1 SLP144

CYYC;2007-10-23 03:00;CYYC 230300Z 25014KT 15SM OVC260 15/01 A2993 RMK CS1 SLP152

CYYC;2007-10-23 04:00;CYYC 230400Z 24010KT 15SM OVC260 13/01 A2994 RMK CS0 SLP156

CYYC;2007-10-23 05:00;CYYC 230500Z 25015KT 15SM OVC260 14/01 A2995 RMK CS0 SLP158

CYYC;2007-10-23 06:00;CYYC 230600Z 23012KT 15SM BKN260 14/01 A2996 RMK CI0 SLP155

CYYC;2007-10-23 07:00;CYYC 230700Z 23010G15KT 15SM FEW120 BKN260 13/01 A2999 RMK AC1CS0 SLP163

CYYC;2007-10-23 08:00;CYYC 230800Z 22007KT 15SM FEW120 BKN260 11/01 A3001 RMK AC1CS0 SLP169

CYYC;2007-10-23 09:00;CYYC 230900Z 01006KT 15SM BKN260 04/M01 A3006 RMK CS0 SLP196

CYYC;2007-10-23 10:00;CYYC 231000Z 36008KT 15SM BKN260 02/M01 A3010 RMK CS2 SLP208

CYYC;2007-10-23 11:00;CYYC 231100Z 35007KT 15SM OVC260 02/M01 A3013 RMK CS2 SLP217

CYYC;2007-10-23 12:00;CYYC 231200Z 35005KT 15SM BKN260 01/M02 A3016 RMK CI1 SLP237

CYYC;2007-10-23 13:00;CYYC 231300Z 00000KT 15SM BKN260 01/M02 A3019 RMK CI2 SLP247

CYYC;2007-10-23 14:00;CYYC 231400Z 22002KT 40SM FEW080 BKN260 03/M00 A3020 RMK AC1CI2 SLP249

CYYC;2007-10-23 15:00;CYYC 231500Z 19004KT 40SM FEW080 FEW180 BKN260 03/01 A3021 RMK AC1AC1CI2 SLP255

CYYC;2007-10-23 16:00;CYYC 231600Z 19003KT 40SM FEW080 FEW180 BKN260 06/03 A3022 RMK AC1AC1CI2 SLP256

CYYC;2007-10-23 17:00;CYYC 231700Z CCA 16008KT 40SM FEW080 SCT180 BKN260 08/04 A3021 RMK AC1AC2CI4 SLP255

CYYC;2007-10-23 18:00;CYYC 231800Z CCA 16005KT 40SM FEW080 SCT160 BKN260 10/04 A3020 RMK AC1AC2CI6 SLP242

CYYC;2007-10-23 19:00;CYYC 231900Z 18004KT 40SM FEW080 BKN170 BKN260 11/04 A3019 RMK AC1AC2CI6 SLP240

CYYC;2007-10-23 20:00;CYYC 232000Z 21007KT 40SM FEW080 BKN170 BKN260 13/04 A3017 RMK AC1AC2CI5 SLP233

CYYC;2007-10-23 21:00;CYYC 232100Z 21006KT 40SM FEW080 FEW170 BKN260 15/05 A3015 RMK AC1AC1CI6 SLP231

CYYC;2007-10-23 22:00;CYYC 232200Z 21006KT 40SM FEW080 FEW180 BKN260 16/06 A3014 RMK AC1AC1CI6 SLP226

CYYC;2007-10-23 23:00;CYYC 232300Z 18003KT 40SM FEW080 FEW180 BKN260 16/05 A3013 RMK AC1AC1CI7 SLP224

CYYC;2007-10-24 00:00;CYYC 240000Z 18002KT 30SM FEW080 FEW180 BKN260 17/05 A3012 RMK AC1AC1CI7 SLP223

CYYC;2007-10-24 01:00;CYYC 240100Z 22010KT 30SM FEW080 FEW180 BKN260 15/04 A3011 RMK AC1AC1CI5 SLP221

CYYC;2007-10-24 02:00;CYYC 240200Z 23007KT 15SM SCT140 OVC240 13/03 A3010 RMK AC3CI4 SLP218

CYYC;2007-10-24 03:00;CYYC 240300Z 18009KT 15SM SCT140 OVC240 14/04 A3009 RMK AC3CI5 SLP215

CYYC;2007-10-24 04:00;CYYC 240400Z 19011KT 15SM SCT140 OVC240 14/04 A3008 RMK AC3CS5 SLP211

CYYC;2007-10-24 05:00;CYYC 240500Z 16009KT 15SM SCT160 BKN240 OVC260 13/04 A3007 RMK AC3CS3CI2 SLP207

CYYC;2007-10-24 06:00;CYYC 240600Z 20012KT 15SM SCT160 BKN240 OVC260 11/04 A3005 RMK AC3CS2CI2 SLP192

CYYC;2007-10-24 07:00;CYYC 240700Z 20007KT 15SM SCT100 BKN200 OVC220 09/04 A3003 RMK AC3CS2CI2 SLP186

CYYC;2007-10-24 08:00;CYYC 240800Z 16008KT 15SM SCT160 OVC250 10/03 A3001 RMK AC3CI4 SLP181

CYYC;2007-10-24 09:00;CYYC 240900Z 15006KT 15SM SCT160 OVC250 10/04 A2998 RMK AC3CI5 SLP164

CYYC;2007-10-24 10:00;CYYC 241000Z 21006KT 15SM SCT160 OVC250 08/03 A2994 RMK AC3CI4 SLP151

CYYC;2007-10-24 11:00;CYYC 241100Z 17005KT 15SM SCT180 OVC250 09/03 A2990 RMK AC3CI4 SLP138

CYYC;2007-10-24 12:00;CYYC 241200Z 15004KT 15SM SCT180 OVC250 09/03 A2985 RMK AC4CI4 SLP118

CYYC;2007-10-24 13:00;CYYC 241300Z 00000KT 15SM FEW180 BKN260 08/03 A2984 RMK AC2CI3 SLP113

CYYC;2007-10-24 14:00;CYYC 241400Z 19009KT 40SM FEW130 FEW180 SCT260 10/04 A2982 RMK AC2AC1CI1 SLP106

CYYC;2007-10-24 15:00;CYYC 241500Z CCA 23003KT 40SM FEW040 BKN120 BKN180 BKN260 10/03 A2981 RMK SC1AC6AC1CI1 SLP105

CYYC;2007-10-24 16:00;CYYC 241600Z 16002KT 40SM FEW024 FEW130 FEW240 FEW260 09/03 A2978 RMK CF1AC1CI1CC1 ACSL ASOCTD SLP097

CYYC;2007-10-24 17:00;CYYC 241700Z 00000KT 40SM FEW036 FEW140 FEW260 14/05 A2976 RMK CF1AC1CI2 ACSL ASOCTD/FU OVR MTS SLP089

CYYC;2007-10-24 18:00;CYYC 241800Z 33002KT 40SM FEW052 FEW160 FEW260 18/04 A2974 RMK CU1AC1CI1 CC ASOCTD SLP075

CYYC;2007-10-24 19:00;CYYC 241900Z 12006KT 40SM FEW072 FEW160 FEW200 BKN260 21/03 A2969 RMK CU1AC1CI1CC0 ACSL ASOCTD/PRESFR SLP060

CYYC;2007-10-24 20:00;CYYC 242000Z 12003KT 40SM FEW086 FEW180 BKN260 22/00 A2967 RMK CU1AC1CI6 ACSL ASOCTD SLP054

CYYC;2007-10-24 21:00;CYYC 242100Z 07003KT 40SM FEW088 FEW140 SCT200 BKN260 22/00 A2965 RMK CU1AC1CI2CI3 ACSL ASOCTD SLP039

CYYC;2007-10-24 21:48;CYYC 242148Z 24011KT 40SM FEW088 FEW160 BKN260 22/ RMK CU1AC1CI6 WSHFT 2132/ACSL ASOCTD

CYYC;2007-10-24 22:00;CYYC 242200Z 28009KT 40SM FEW080 FEW160 SCT220 BKN260 21/01 A2964 RMK CU1AC1CI2CI4 ACSL ASOCTD SLP034

CYYC;2007-10-24 22:21;CYYC 242221Z CCA 23022KT 40SM FEW061 FEW084 FEW180 BKN260 21/ RMK SC1CU1AC1CI6 WSHFT 2210/DIST SH SW-W/ACSL ASOCTD

CYYC;2007-10-24 23:00;CYYC 242300Z 23026G36KT 30SM FEW084 FEW140 SCT200 BKN260 22/M00 A2963 RMK CU1AC2CI2CI3 DIST SH N-E+SW-W/BLDU S/ACSL ASOCTD SLP032

CYYC;2007-10-25 00:00;CYYC 250000Z 24012G21KT 30SM FEW065 FEW170 BKN260 19/M00 A2964 RMK CU1AC2CI5 DIST SH SW/ACSL +CC ASOCTD SLP040

CYYC;2007-10-25 00:46;CYYC 250046Z 32009G15KT 30SM FEW064 FEW160 BKN260 17/ RMK SC1AC2CI4 WSHFT 0032/ACSL ASOCTD

CYYC;2007-10-25 01:00;CYYC 250100Z 35012KT 15SM FEW064 SCT160 BKN260 15/01 A2968 RMK SC2AC2CI2 ACSL ASOCTD SLP054

CYYC;2007-10-25 02:00;CYYC 250200Z 35028KT 15SM FEW040 BKN070 BKN130 06/01 A2979 RMK SC2AC3AC1 PRESRR SLP087

CYYC;2007-10-25 03:00;CYYC 250300Z 36021G30KT 15SM BKN015 OVC029 04/01 A2983 RMK SC6SC2 SLP124

CYYC;2007-10-25 03:51;CYYC 250351Z 01021KT 8SM -SN BKN014 OVC019 01/ RMK SC6SC2

CYYC;2007-10-25 03:55;CYYC 250355Z 36019G24KT 2SM -SN BLSN BKN008 OVC015 01/ RMK SC7SC1

CYYC;2007-10-25 04:00;CYYC 250400Z 36014G22KT 2SM -SN BLSN BKN007 OVC015 01/00 A2986 RMK SC7SC1 SLP136

CYYC;2007-10-25 04:22;CYYC 250422Z 35014G20KT 3/8SM SN BLSN VV003 00/ RMK SN8 RVR RWY34 2600 FT

CYYC;2007-10-25 04:54;CYYC 250454Z 36014KT 3/8SM SN VV004 00/ RMK SN8 RVR RWY34 2800 FT

CYYC;2007-10-25 05:00;CYYC 250500Z 36012KT 3/8SM SN VV004 00/00 A2989 REBLSN RMK SN8 /S02/ RVR RWY34 3000 FT SLP145

CYYC;2007-10-25 05:11;CYYC 250511Z 36009KT 3/8SM SN VV003 00/ RMK SN8 RVR RWY34 2400 FT

CYYC;2007-10-25 05:27;CYYC 250527Z 34009KT 4SM -SN BKN016 OVC032 00/ RESN RMK SC6SC2

CYYC;2007-10-25 06:00;CYYC 250600Z CCA 31005KT 6SM -SN BKN024 OVC037 00/00 A2993 RESN RMK SC6SC2 /S03/ SLP155

CYYC;2007-10-25 06:14;CYYC 250614Z 30003KT 9SM BKN030 OVC057 01/ RMK SC5SC3

CYYC;2007-10-25 07:00;CYYC 250700Z 25004KT 15SM BKN057 OVC062 01/M00 A2995 RMK SC6SC2 SLP163

CYYC;2007-10-25 08:00;CYYC 250800Z 33008KT 15SM BKN059 OVC100 01/M01 A2996 RMK SC6AC2 SLP164

CYYC;2007-10-25 09:00;CYYC 250900Z 31005KT 15SM BKN087 OVC100 01/M01 A2997 RMK AC6AC1 SLP163

CYYC;2007-10-25 10:00;CYYC 251000Z 27006KT 15SM BKN071 BKN090 01/M00 A2999 RMK AC5AC2 SLP168

CYYC;2007-10-25 11:00;CYYC 251100Z 24008KT 15SM FEW050 SCT070 BKN100 01/M02 A3001 RMK SC2AC2AC1 SLP174

CYYC;2007-10-25 12:00;CYYC 251200Z CCB 22009KT 15SM FEW065 BKN110 00/M02 A3000 RMK SC2AC3 SNOW COVER/MUCH LOOSE SLP179

CYYC;2007-10-25 13:00;CYYC 251300Z 21008KT 15SM FEW090 FEW110 M00/M02 A3003 RMK AC1AC0 SLP186

CYYC;2007-10-25 14:00;CYYC 251400Z CCA 22007KT 40SM FEW065 FEW110 M01/M03 A3004 RMK SC1AC1 DP FM NON-VENTILATED SCREEN SLP189

CYYC;2007-10-25 15:00;CYYC 251500Z 21005KT 40SM FEW065 FEW120 M01/M01 A3006 RMK SC1AC1 SLP219

CYYC;2007-10-25 16:00;CYYC 251600Z 21006KT 40SM FEW065 FEW120 01/M01 A3008 RMK SC1AC1 DIST SH NE SLP226

CYYC;2007-10-25 17:00;CYYC 251700Z CCA 02004KT 40SM FEW065 FEW100 02/M00 A3010 RMK SC1AC1 DIST SH E SLP234

CYYC;2007-10-25 18:00;CYYC 251800Z 07003KT 40SM FEW065 FEW120 02/01 A3012 RMK SC1AC1 DIST SH E SLP245

CYYC;2007-10-25 19:00;CYYC 251900Z 31005KT 40SM FEW020 FEW160 04/M01 A3013 RMK CU1AC1 DIST SH NE SLP246

CYYC;2007-10-25 20:00;CYYC 252000Z 27012KT 40SM FEW040 FEW180 06/M05 A3013 RMK CU1AC1 SLP247

CYYC;2007-10-25 21:00;CYYC 252100Z CCA 31011G18KT 40SM FEW052 SCT080 SCT260 07/M08 A3014 RMK CU1AC2CI0 DIST SH NW-NE SLP242

CYYC;2007-10-25 22:00;CYYC 252200Z 31009KT 40SM FEW060 SCT075 SCT240 07/M08 A3014 RMK CU1AC2CI1 DIST SH NW-NE+SE SLP244

CYYC;2007-10-25 23:00;CYYC 252300Z 30005KT 40SM FEW044 BKN072 BKN260 05/M07 A3016 RMK CU1AC5CI0 DIST SH SE+SW/VIRGA NW-E SLP250

CYYC;2007-10-26 01:00;CYYC 260100Z 27011KT 15SM FEW058 BKN082 04/M09 A3019 RMK SC1AC6 DIST VIRGA NW-SE SLP264

CYYC;2007-10-26 02:00;CYYC 260200Z 30007KT 15SM BKN093 03/M10 A3021 RMK AC5 SLP269

CYYC;2007-10-26 03:00;CYYC 260300Z 28004KT 15SM FEW093 01/M01 A3023 RMK AC2 SLP283

CYYC;2007-10-26 04:00;CYYC 260400Z CCA 06007KT 15SM SCT093 M03/M09 A3025 RMK AC2 SLP290

CYYC;2007-10-26 05:00;CYYC 260500Z 01004KT 15SM FEW096 M00/M10 A3027 RMK AC1 SLP297

CYYC;2007-10-26 06:00;CYYC 260600Z 34006KT 15SM FEW096 M02/M10 A3029 RMK AC1 SLP307

CYYC;2007-10-26 07:00;CYYC 260700Z 01004KT 15SM FEW096 M04/M10 A3030 RMK AC1 SLP310

CYYC;2007-10-26 08:00;CYYC 260800Z 00000KT 15SM SKC M01/M10 A3030 RMK SLP311

CYYC;2007-10-26 09:00;CYYC 260900Z 22003KT 15SM SKC M03/M09 A3031 RMK SLP308

CYYC;2007-10-26 10:00;CYYC 261000Z 26003KT 15SM SKC M06/M10 A3031 RMK SLP308

CYYC;2007-10-26 11:00;CYYC 261100Z 22007KT 15SM SKC M05/M10 A3030 RMK SLP307

CYYC;2007-10-26 12:00;CYYC 261200Z 22004KT 15SM SKC M05/M10 A3031 RMK SLP315

CYYC;2007-10-26 13:00;CYYC 261300Z 21010KT 15SM FEW095 M05/M09 A3032 RMK AC1 SLP316

CYYC;2007-10-26 14:00;CYYC 261400Z 20002KT 40SM FEW060 FEW100 M02/M10 A3033 RMK SC1AC1 SLP320

CYYC;2007-10-26 15:00;CYYC 261500Z 03014KT 40SM FEW080 FEW260 M02/M08 A3036 RMK AC2CI1 WSHFT 1440 SLP331

CYYC;2007-10-26 16:00;CYYC 261600Z 03006KT 40SM FEW080 00/M07 A3039 RMK AC1 DIST SH E SLP340

CYYC;2007-10-26 17:00;CYYC 261700Z 36009KT 40SM FEW090 FEW260 01/M05 A3040 RMK AC1CI1 DIST SH N-NE SLP344

CYYC;2007-10-26 18:00;CYYC 261800Z 36008KT 40SM FEW030 FEW085 SCT260 03/M04 A3041 RMK CU1AC2CI0 DIST SH NE SLP346

CYYC;2007-10-26 19:00;CYYC 261900Z 34006KT 40SM FEW040 FEW080 FEW260 04/M06 A3041 RMK CU1AC2CI0 SLP348

CYYC;2007-10-26 20:00;CYYC 262000Z 35009KT 40SM FEW044 FEW082 FEW260 05/M06 A3041 RMK CU1AC1CI1 DIST SH NE/HZ DIST SW SLP347

CYYC;2007-10-26 21:00;CYYC 262100Z 34009KT 40SM FEW048 FEW090 05/M06 A3041 RMK CU1AC1 SLP344

CYYC;2007-10-26 22:00;CYYC 262200Z 34003KT 40SM FEW044 FEW130 FEW230 05/M06 A3040 RMK CU1AC1CI1 SLP343

CYYC;2007-10-26 23:00;CYYC 262300Z 09008KT 40SM FEW100 FEW220 04/M04 A3040 RMK AC1CI1 DIST HZ SW SLP343

CYYC;2007-10-27 00:00;CYYC 270000Z 09009KT 40SM FEW260 02/M05 A3040 RMK CI1 DIST HZ SW SLP351

CYYC;2007-10-27 01:00;CYYC 270100Z 11009KT 15SM FEW240 M00/M05 A3041 RMK CI1 VIS SW 40/DIST HZ SW SLP352

CYYC;2007-10-27 02:00;CYYC 270200Z 12008KT 15SM SKC M02/M06 A3041 RMK SLP354

CYYC;2007-10-27 03:00;CYYC 270300Z 16006KT 15SM FEW240 M02/M06 A3041 RMK CI1 CI TR SLP355

CYYC;2007-10-27 04:00;CYYC 270400Z 18007KT 15SM SKC M03/M07 A3041 RMK SLP354

CYYC;2007-10-27 05:00;CYYC 270500Z 19008KT 15SM SKC M03/M06 A3039 RMK SLP348

CYYC;2007-10-27 06:00;CYYC 270600Z 18009KT 15SM SKC M02/M06 A3038 RMK SLP336

CYYC;2007-10-27 07:00;CYYC 270700Z 17009KT 15SM SKC M03/M06 A3036 RMK SLP330

CYYC;2007-10-27 08:00;CYYC 270800Z 17009KT 15SM SKC M03/M06 A3033 RMK SLP321

CYYC;2007-10-27 09:00;CYYC 270900Z 18007KT 15SM FEW240 M03/M07 A3031 RMK CI1 SLP310

CYYC;2007-10-27 10:00;CYYC 271000Z 15005KT 15SM BKN240 M04/M07 A3028 RMK CS2 HALO SLP301

CYYC;2007-10-27 11:00;CYYC 271100Z 21006KT 15SM SCT180 OVC240 M04/M06 A3025 RMK AC3CC5 SLP292

CYYC;2007-10-27 12:00;CYYC 271200Z 21005KT 15SM SCT180 OVC210 M04/M07 A3023 RMK AC3CC5 SLP291

CYYC;2007-10-27 13:00;CYYC 271300Z 19007KT 15SM FEW180 FEW240 M04/M07 A3021 RMK AC1CI1 SLP285

CYYC;2007-10-27 14:00;CYYC 271400Z 19004KT 40SM FEW150 M04/M07 A3019 RMK AC1 SLP279

CYYC;2007-10-27 15:00;CYYC 271500Z 21007KT 40SM FEW020 FEW260 M04/M07 A3017 RMK CU1CI1 SLP275

CYYC;2007-10-27 16:00;CYYC 271600Z 21008KT 40SM FEW270 00/M06 A3015 RMK CI1 SLP269

CYYC;2007-10-27 17:00;CYYC 271700Z 19006KT 40SM FEW160 FEW270 04/M06 A3014 RMK AC1CI1 SLP265

CYYC;2007-10-27 18:00;CYYC 271800Z 18004KT 40SM FEW150 FEW270 08/M07 A3011 RMK AC1CI1 SLP236

CYYC;2007-10-27 19:00;CYYC 271900Z 20007KT 30SM FEW150 SCT250 10/M06 A3008 RMK AC1CI0 SLP227

CYYC;2007-10-27 20:00;CYYC 272000Z CCA 16007KT 40SM FEW160 BKN250 11/M05 A3006 RMK AC2CI1 SLP220

CYYC;2007-10-27 21:00;CYYC 272100Z 21011KT 40SM SCT180 BKN250 11/M04 A3005 RMK AC3CI2 SLP211

CYYC;2007-10-27 22:00;CYYC 272200Z 19006KT 40SM SCT120 BKN180 BKN220 10/M05 A3003 RMK AC3AC2CI2 SLP205

CYYC;2007-10-27 23:00;CYYC 272300Z 23003KT 40SM FEW060 SCT120 BKN160 BKN220 10/M05 A3001 RMK CU1AC3AC4CI1 SLP199

CYYC;2007-10-28 00:00;CYYC 280000Z 05002KT 40SM FEW060 FEW120 BKN180 BKN220 07/M04 A3001 RMK CU1AC2AC4CI1 SLP206

CYYC;2007-10-28 01:00;CYYC 280100Z 26008KT 40SM FEW120 SCT180 BKN260 09/M09 A2999 RMK AC2AC2CI2 SLP200

CYYC;2007-10-28 02:00;CYYC 280200Z 26008KT 15SM BKN170 OVC230 09/M09 A2997 RMK AC5CI2 SLP194

CYYC;2007-10-28 03:00;CYYC 280300Z 23008KT 15SM BKN180 OVC230 09/M09 A2996 RMK AC5CI2 SLP186

CYYC;2007-10-28 04:00;CYYC 280400Z 24005KT 15SM BKN180 OVC240 09/M10 A2996 RMK AC5CI2 SLP186

CYYC;2007-10-28 05:00;CYYC 280500Z 20005KT 15SM SCT180 BKN240 05/M08 A2996 RMK AC3CI2 SLP186

CYYC;2007-10-28 06:00;CYYC 280600Z 23002KT 15SM SCT180 OVC240 08/M10 A2997 RMK AC3CI3 SLP172

CYYC;2007-10-28 07:00;CYYC 280700Z CCA 35002KT 15SM FEW180 BKN250 08/M08 A2997 RMK AC2CI2 SLP173

CYYC;2007-10-28 08:00;CYYC 280800Z CCA 35006KT 15SM BKN170 OVC250 07/M05 A2999 RMK AC4CI2 SLP177

CYYC;2007-10-28 09:00;CYYC 280900Z CCA 28016G21KT 15SM BKN190 OVC250 10/M04 A3002 RMK AC3CI2 SLP183

CYYC;2007-10-28 10:00;CYYC 281000Z 27009KT 15SM BKN180 OVC240 08/M04 A3002 RMK AC5CI2 SLP183

CYYC;2007-10-28 11:00;CYYC 281100Z 28015KT 15SM BKN170 OVC220 09/M03 A3002 RMK AC6CI2 SLP184

CYYC;2007-10-28 12:00;CYYC 281200Z 25005KT 15SM BKN160 OVC220 07/M03 A3006 RMK AC6CI2 SLP207

CYYC;2007-10-28 13:00;CYYC 281300Z 35002KT 15SM FEW090 BKN150 OVC220 07/M04 A3007 RMK AC1AC5CI2 SLP209

CYYC;2007-10-28 14:00;CYYC 281400Z 27005KT 40SM BKN130 BKN230 08/M03 A3006 RMK AC6CI0 SLP207

CYYC;2007-10-28 15:00;CYYC 281500Z 15007KT 40SM FEW100 BKN120 BKN230 06/M02 A3007 RMK AC1AC6CI1 SLP211

CYYC;2007-10-28 16:00;CYYC 281600Z 19008KT 40SM SCT086 BKN100 BKN230 06/M02 A3008 RMK AC3AC4CI1 SLP212

CYYC;2007-10-28 17:00;CYYC 281700Z 19006KT 40SM BKN086 BKN100 BKN230 07/M02 A3007 RMK AC5AC1CI1 SLP209

CYYC;2007-10-28 18:00;CYYC 281800Z 19008KT 40SM BKN081 BKN100 BKN240 09/M02 A3005 RMK AC5AC1CI1 SLP199

CYYC;2007-10-28 19:00;CYYC 281900Z 20008KT 40SM FEW050 SCT080 BKN210 12/M02 A3005 RMK CU1AC3CI2 SLP197

CYYC;2007-10-28 20:00;CYYC 282000Z 18006KT 40SM FEW050 SCT080 BKN210 14/M02 A3002 RMK CU1AC3CI2 SLP188

CYYC;2007-10-28 21:00;CYYC 282100Z 18007KT 40SM FEW060 BKN080 OVC220 15/M02 A2999 RMK CU1AC6CI1 SLP167

CYYC;2007-10-28 22:00;CYYC 282200Z 17004KT 40SM FEW065 SCT080 BKN240 16/M02 A2997 RMK CU1AC3CI1 ACSL S SLP162

CYYC;2007-10-28 23:00;CYYC 282300Z 18002KT 40SM FEW070 FEW090 BKN240 15/M01 A2997 RMK CU1AC2CI2 ACSL W SLP160

CYYC;2007-10-29 00:00;CYYC 290000Z 14005KT 40SM FEW070 FEW090 BKN240 13/M02 A2995 RMK CU1AC2CI1 ACSL W SLP159

CYYC;2007-10-29 01:00;CYYC 290100Z CCA 01003KT 20SM FEW040 FEW090 FEW240 10/M02 A2994 RMK SC1AC1CI0 SLP156

CYYC;2007-10-29 02:00;CYYC 290200Z 05003KT 15SM FEW090 FEW240 09/M01 A2993 RMK AC1CI0 AC TR SLP155

CYYC;2007-10-29 03:00;CYYC 290300Z 28002KT 15SM FEW087 SCT250 10/M00 A2993 RMK AC1CI1 SLP158

CYYC;2007-10-29 04:00;CYYC 290400Z 00000KT 15SM FEW090 SCT240 10/M00 A2992 RMK AC1CI1 SLP155

CYYC;2007-10-29 05:00;CYYC 290500Z 26006KT 15SM FEW130 FEW240 09/00 A2992 RMK AC1CI1 SLP155

CYYC;2007-10-29 06:00;CYYC 290600Z 22003KT 15SM FEW080 FEW170 SCT240 09/00 A2992 RMK AC1AC1CI0 SLP153

CYYC;2007-10-29 07:00;CYYC 290700Z 23011KT 15SM FEW120 FEW230 08/01 A2991 RMK AC1CI1 CLDS TR SLP151

CYYC;2007-10-29 08:00;CYYC 290800Z 18002KT 15SM FEW120 FEW260 07/M00 A2990 RMK AC1CI0 AC TR SLP148

CYYC;2007-10-29 09:00;CYYC 290900Z 18004KT 15SM SCT250 08/M01 A2990 RMK CI1 SLP139

CYYC;2007-10-29 10:00;CYYC 291000Z 22003KT 15SM FEW160 SCT250 07/M00 A2990 RMK AC1CI1 SLP139

CYYC;2007-10-29 11:00;CYYC 291100Z 20006KT 15SM FEW160 SCT250 05/M01 A2989 RMK AC1CI1 SLP135

CYYC;2007-10-29 12:00;CYYC 291200Z 23005KT 15SM FEW160 SCT250 07/M01 A2989 RMK AC1CI1 SLP138

CYYC;2007-10-29 13:00;CYYC 291300Z 25006KT 15SM FEW180 SCT250 07/M01 A2988 RMK AC1CI1 SLP135

CYYC;2007-10-29 14:00;CYYC 291400Z 18002KT 30SM FEW030 FEW045 FEW160 FEW230 BKN260 05/M01 A2987 RMK CU1CU1AC1CI1CI2 SLP134

CYYC;2007-10-29 15:00;CYYC 291500Z 18006KT 30SM FEW035 FEW045 FEW160 FEW230 BKN260 05/M01 A2988 RMK CU1CU1AC1CI1CI2 SLP142

CYYC;2007-10-29 16:00;CYYC 291600Z 15002KT 40SM FEW048 FEW160 BKN250 09/M01 A2987 RMK CU1AC1CC3 ACSL SE SLP138

CYYC;2007-10-29 17:00;CYYC 291700Z 21009KT 40SM FEW048 FEW160 BKN250 12/M01 A2986 RMK CU1AC1CC3 ACSL SE SLP135

CYYC;2007-10-29 18:00;CYYC 291800Z 19011KT 40SM FEW048 FEW160 FEW200 BKN250 14/M02 A2985 RMK CU1AC1CC1CC1 ACSL SE SLP122

CYYC;2007-10-29 19:00;CYYC 291900Z 22011KT 40SM FEW055 FEW150 FEW200 BKN250 16/M03 A2983 RMK CU1AC1CC1CC3 SLP115

CYYC;2007-10-29 20:00;CYYC 292000Z 25015KT 30SM FEW060 FEW150 BKN250 16/M05 A2981 RMK CU1AC2CC2 SLP110

CYYC;2007-10-29 21:00;CYYC 292100Z 26015KT 30SM FEW064 FEW160 BKN240 16/M05 A2981 RMK CU1AC2CC2 SLP105

CYYC;2007-10-29 22:00;CYYC 292200Z 25013KT 30SM FEW065 FEW180 BKN240 15/M05 A2981 RMK CU1AC2CI3 SLP104

CYYC;2007-10-29 23:00;CYYC 292300Z 27018KT 25SM FEW058 FEW160 BKN250 15/M05 A2980 RMK CU1AC1CI2 SLP101

CYYC;2007-10-30 00:00;CYYC 300000Z 30010KT 30SM FEW058 FEW160 SCT250 12/M05 A2979 RMK CU1AC1CI2 SLP105

CYYC;2007-10-30 01:00;CYYC 300100Z 29008KT 15SM FEW055 FEW160 SCT250 10/M04 A2979 RMK CU1AC1CI2 SLP105

CYYC;2007-10-30 02:00;CYYC 300200Z 31010KT 15SM FEW100 09/M05 A2980 RMK AC1 SLP108

CYYC;2007-10-30 03:00;CYYC 300300Z 35020G25KT 15SM SCT090 06/M03 A2983 RMK AC2 SLP131

CYYC;2007-10-30 04:00;CYYC 300400Z 34017KT 15SM SCT090 04/01 A2986 RMK AC3 SLP140

CYYC;2007-10-30 05:00;CYYC 300500Z 35024G32KT 15SM SCT020 BKN090 BKN240 03/M00 A2989 RMK SC3AC3CI0 SLP150

CYYC;2007-10-30 06:00;CYYC 300600Z 33020G28KT 15SM SCT015 OVC060 02/M01 A2992 RMK SC3SC5 SLP155

CYYC;2007-10-30 07:00;CYYC 300700Z 35015G21KT 15SM FEW015 OVC050 02/M02 A2994 RMK SC2SC6 SLP161

CYYC;2007-10-30 08:00;CYYC 300800Z 32015KT 15SM SCT013 OVC040 01/M01 A2998 RMK ST3SC5 SLP172

CYYC;2007-10-30 08:24;CYYC 300824Z 32013KT 2SM -SN SCT010 OVC016 00/ RMK ST3SC5

CYYC;2007-10-30 09:00;CYYC 300900Z 33007KT 3SM -SN SCT015 OVC040 M00/M00 A3000 RMK ST3SC5 SLP181

CYYC;2007-10-30 09:12;CYYC 300912Z 31006KT 10SM FEW015 OVC050 M00/ RMK ST2SC6

CYYC;2007-10-30 10:00;CYYC 301000Z 25011KT 15SM FEW015 OVC060 00/M01 A3001 RMK ST1SC8 SLP184

CYYC;2007-10-30 11:00;CYYC 301100Z 25006KT 15SM FEW015 OVC060 00/M02 A3003 RMK ST1SC8 SLP191

CYYC;2007-10-30 12:00;CYYC 301200Z 31010KT 15SM FEW015 OVC060 02/M04 A3003 RMK ST1SC7 SLP197

CYYC;2007-10-30 13:00;CYYC 301300Z 31004KT 15SM SCT060 M00/M04 A3005 RMK SC2 SLP202

CYYC;2007-10-30 14:00;CYYC 301400Z 24005KT 30SM FEW060 M02/M05 A3007 RMK SC1 VIRGA E SLP209

CYYC;2007-10-30 15:00;CYYC 301500Z 23007KT 30SM FEW060 M02/M05 A3009 RMK SC1 SH E SLP234

CYYC;2007-10-30 16:00;CYYC 301600Z 21008KT 30SM FEW060 FEW260 M00/M04 A3011 RMK SC1CI0 DIST SH N-NE + E SLP240

CYYC;2007-10-30 17:00;CYYC 301700Z CCA 27015KT 40SM FEW040 FEW260 03/M05 A3013 RMK SC1CI0 DIST SH NE SLP245

CYYC;2007-10-30 18:00;CYYC 301800Z 27016KT 40SM FEW040 FEW080 FEW260 04/M06 A3013 RMK SC1AC1CI1 SLP243

CYYC;2007-10-30 19:00;CYYC 301900Z 28014KT 40SM FEW045 FEW080 FEW260 06/M07 A3013 RMK SC1AC1CI1 SLP243

CYYC;2007-10-30 20:00;CYYC 302000Z 28014G19KT 40SM FEW052 FEW250 07/M08 A3013 RMK CU1CI1 SLP243

CYYC;2007-10-30 21:00;CYYC 302100Z 29005G15KT 40SM FEW060 FEW250 07/M09 A3013 RMK CU1CI0 SLP239

CYYC;2007-10-30 22:00;CYYC 302200Z 27008KT 40SM FEW065 FEW250 07/M10 A3013 RMK CU1CI0 SLP239

CYYC;2007-10-30 23:00;CYYC 302300Z CCA 26008KT 40SM FEW070 FEW250 07/M11 A3013 RMK CU1CI0 SLP241

CYYC;2007-10-31 00:00;CYYC 310000Z 27009KT 40SM FEW250 05/M10 A3013 RMK CI1 SLP242

CYYC;2007-10-31 01:00;CYYC 310100Z 26010KT 30SM FEW250 04/M10 A3014 RMK CI0 SLP244

CYYC;2007-10-31 02:00;CYYC 310200Z 26011KT 15SM FEW250 03/M10 A3015 RMK CI0 SLP246

CYYC;2007-10-31 03:00;CYYC 310300Z 25008KT 15SM SKC 02/M11 A3014 RMK SLP255

CYYC;2007-10-31 04:00;CYYC 310400Z 26009KT 15SM SKC 02/M11 A3015 RMK SLP257

CYYC;2007-10-31 05:00;CYYC 310500Z 28008KT 15SM SKC 02/M11 A3015 RMK SLP257

CYYC;2007-10-31 06:00;CYYC 310600Z 26006KT 15SM BKN260 02/M12 A3013 RMK CI0 SLP243

CYYC;2007-10-31 07:00;CYYC 310700Z 19007KT 15SM SCT220 BKN260 M01/M11 A3012 RMK CI0CI0 SLP238

CYYC;2007-10-31 08:00;CYYC 310800Z 19009KT 15SM FEW220 FEW260 M02/M10 A3010 RMK CI1CI1 SLP233

CYYC;2007-10-31 09:00;CYYC 310900Z 19006KT 15SM FEW220 FEW260 M03/M10 A3009 RMK CI1CI1 SLP232

CYYC;2007-10-31 10:00;CYYC 311000Z 20006KT 15SM SKC M02/M11 A3008 RMK SLP228

CYYC;2007-10-31 11:00;CYYC 311100Z 17003KT 15SM FEW260 M02/M11 A3006 RMK CI1 SLP223

CYYC;2007-10-31 12:00;CYYC 311200Z 16002KT 15SM FEW210 SCT260 M01/M11 A3005 RMK CI1CI0 SLP217

CYYC;2007-10-31 13:00;CYYC 311300Z 16004KT 15SM FEW130 BKN220 M02/M10 A3002 RMK AC1CI2 SLP207

CYYC;2007-10-31 14:00;CYYC 311400Z 22005KT 20SM FEW130 SCT160 BKN210 M02/M08 A3002 RMK AC2AC2CI2 SLP208

CYYC;2007-10-31 15:00;CYYC 311500Z 16005KT 20SM BKN100 BKN160 BKN230 01/M08 A3002 RMK AC5AC1CI2 SLP208

CYYC;2007-10-31 16:00;CYYC 311600Z 11004KT 20SM BKN110 BKN150 BKN230 02/M08 A2999 RMK AC5AC1CI2 SLP198

CYYC;2007-10-31 16:38;CYYC 311638Z 14005KT 40SM BKN120 BKN210 03/ RMK AC5CI2 WND SHFT 1629Z

CYYC;2007-10-31 17:00;CYYC 311700Z 13007KT 40SM FEW042 BKN120 BKN210 03/M07 A2997 RMK CU1AC5CI1 SLP192

CYYC;2007-10-31 18:00;CYYC 311800Z 13007KT 40SM FEW048 SCT120 BKN150 OVC220 07/M06 A2996 RMK CU1AC3AC2CI2 SLP178

CYYC;2007-10-31 18:27;CYYC 311827Z 24010KT 40SM FEW048 FEW120 BKN150 OVC220 08/ RMK CU1AC2AC2CI2 WND SHFT 1821Z

CYYC;2007-10-31 19:00;CYYC 311900Z 25012KT 40SM FEW052 FEW120 BKN150 OVC210 09/M07 A2994 RMK CU1AC2AC3CI2 SLP172

CYYC;2007-10-31 20:00;CYYC 312000Z 28010KT 40SM FEW056 FEW130 BKN180 OVC210 10/M07 A2993 RMK CU1AC1AC5CI1 SLP170

CYYC;2007-10-31 21:00;CYYC 312100Z 28007KT 40SM FEW056 FEW130 SCT180 BKN240 11/M06 A2992 RMK CU1AC1AC2CI2 SLP166

CYYC;2007-10-31 22:00;CYYC 312200Z 26008KT 30SM FEW061 FEW180 OVC240 10/M06 A2990 RMK CU1AC1CC6 SLP160

CYYC;2007-10-31 23:00;CYYC 312300Z 20003KT 30SM FEW060 FEW160 OVC240 09/M06 A2990 RMK CU1AC2CC5 SLP160

CYYC;2007-11-01 01:00;CYYC 010100Z 22009KT 15SM FEW055 BKN250 07/M06 A2987 RMK CU1CI3 SLP152

CYYC;2007-11-01 02:00;CYYC 010200Z 27017KT 15SM BKN240 08/M07 A2986 RMK CI5 SLP148

CYYC;2007-11-01 03:00;CYYC 010300Z 27016KT 15SM BKN240 08/M07 A2985 RMK CI6 SLP141

CYYC;2007-11-01 04:00;CYYC 010400Z 28018G25KT 15SM BKN240 08/M07 A2985 RMK CI6 SLP140

CYYC;2007-11-01 05:00;CYYC 010500Z 29013KT 15SM BKN240 07/M07 A2985 RMK CI5 SLP141

CYYC;2007-11-01 06:00;CYYC 010600Z 33013KT 15SM BKN240 07/M08 A2985 RMK CI5 SLP134

CYYC;2007-11-01 07:00;CYYC 010700Z 31010KT 15SM BKN240 06/M08 A2983 RMK CI4 SLP129

CYYC;2007-11-01 08:00;CYYC 010800Z 32013KT 15SM BKN250 06/M07 A2982 RMK CI3 SLP126

CYYC;2007-11-01 09:00;CYYC 010900Z 34008KT 15SM OVC240 04/M07 A2982 RMK CI6 SLP122

CYYC;2007-11-01 10:00;CYYC 011000Z 29004KT 15SM SCT240 01/M07 A2982 RMK CI2 SLP121

CYYC;2007-11-01 11:00;CYYC 011100Z 31004KT 15SM FEW200 SCT250 02/M07 A2981 RMK CI2CI1 SLP119

CYYC;2007-11-01 12:00;CYYC 011200Z 33006KT 15SM FEW200 SCT250 01/M07 A2982 RMK CI1CI1 SLP128

CYYC;2007-11-01 13:00;CYYC 011300Z 25004KT 15SM FEW170 FEW250 01/M07 A2981 RMK AC1CI0 AC TR SLP125

CYYC;2007-11-01 14:00;CYYC 011400Z 28009KT 15SM FEW040 FEW130 FEW250 02/M05 A2983 RMK SC1AC1CI1 SLP133

CYYC;2007-11-01 14:17;CYYC 011417Z 28010KT 30SM FEW050 FEW130 FEW260 02/ RMK SC1AC1CI1 WSHFT 1404

CYYC;2007-11-01 15:00;CYYC 011500Z 32008KT 25SM FEW065 BKN140 BKN260 01/M06 A2985 RMK SC1AC5CI1 DIST SH NW-NW+SW/VIRGA E-S SLP143

CYYC;2007-11-01 16:00;CYYC 011600Z 30005KT 30SM FEW095 BKN140 BKN260 01/M06 A2989 RMK AC1AC6CI0 DIST SH N-NE+W/VIRGA E-S SLP153

CYYC;2007-11-01 17:00;CYYC 011700Z 30008KT 30SM FEW040 FEW080 BKN120 05/M06 A2989 RMK CU1AC2AC6 DIST SH NW-E/VIRGA SW SLP154

CYYC;2007-11-01 18:00;CYYC 011800Z 26007KT 30SM FEW042 FEW090 BKN130 05/M06 A2991 RMK CU1AC2AC6 DIST SH NW-E+S+SW SLP157

CYYC;2007-11-01 19:00;CYYC 011900Z 30010G16KT 30SM FEW060 FEW080 BKN150 BKN260 07/M08 A2991 RMK CU1AC1AC5CI0 DIST SH N-E/ VIRGA S-SW SLP159

CYYC;2007-11-01 19:23;CYYC 011923Z CCA 26016G22KT 20SM -SHSN FEW060 BKN085 04/ RMK SC2AC5 CU ASOCTD

CYYC;2007-11-01 19:26;CYYC 011926Z CCA 25021KT 30SM -SHRASN FEW060 BKN085 04/ RMK SC2AC5 PCPN VRY LGT/CU ASOCTD

CYYC;2007-11-01 19:34;CYYC 011934Z CCA 27013G25KT 40SM FEW009 BKN060 BKN120 04/ RMK SC1SC5AC2 DIST SH S-SE/VIS SE 20/CU ASOCTD

CYYC;2007-11-01 20:00;CYYC 012000Z 32009KT 40SM SCT060 BKN085 BKN260 05/M10 A2992 RMK SC3AC4CI1 DIST SH N-E/VIS SE 15/VIRGA SW/CU ASOCTD SLP160

CYYC;2007-11-01 21:00;CYYC 012100Z 30019G24KT 40SM FEW080TCU FEW110 06/M15 A2993 RMK TCU1AC1 DIST SH NW-SE+SW SLP169

CYYC;2007-11-01 22:00;CYYC 012200Z 31014G22KT 40SM FEW088TCU SCT100 SCT260 06/M16 A2996 RMK TCU1AC2CI0 VIRGA N/DIST SH E-S+SW-W SLP176

CYYC;2007-11-01 23:00;CYYC 012300Z 31013G19KT 40SM FEW080 FEW100 FEW260 05/M16 A2999 RMK CU1AC1CI0 DIST SH SE+SW / SENT VIA YBW SLP186

CYYC;2007-11-02 00:00;CYYC 020000Z 29012G17KT 40SM FEW062 FEW120 FEW260 04/M15 A3002 RMK CU1AC1CI1 SLP203

CYYC;2007-11-02 01:00;CYYC 020100Z 27010KT 15SM FEW064 02/M14 A3004 RMK SC1 SLP209

CYYC;2007-11-02 02:00;CYYC 020200Z 27012KT 15SM FEW140 FEW250 01/M13 A3006 RMK AC1CI1 CLDS TR SLP217

CYYC;2007-11-02 03:00;CYYC 020300Z 28012KT 15SM FEW160 FEW250 02/M13 A3008 RMK AC1CI1 CLDS TR SLP232

CYYC;2007-11-02 04:00;CYYC 020400Z 29013KT 15SM SKC 02/M13 A3011 RMK SLP240

CYYC;2007-11-02 05:00;CYYC 020500Z 28013KT 15SM SKC 02/M13 A3014 RMK SLP248

CYYC;2007-11-02 06:00;CYYC 020600Z 28014G20KT 15SM SKC 02/M14 A3016 RMK SLP253

CYYC;2007-11-02 07:00;CYYC 020700Z 28011KT 15SM SKC 00/M14 A3019 RMK SLP261

CYYC;2007-11-02 08:00;CYYC 020800Z 28013KT 15SM SKC 00/M13 A3020 RMK SLP264

CYYC;2007-11-02 09:00;CYYC 020900Z 26009KT 15SM SKC M01/M13 A3020 RMK SLP269

CYYC;2007-11-02 10:00;CYYC 021000Z 26008KT 15SM SKC M02/M13 A3021 RMK SLP270

CYYC;2007-11-02 11:00;CYYC 021100Z 27010KT 15SM SKC M01/M13 A3021 RMK SLP272

CYYC;2007-11-02 12:00;CYYC 021200Z 28009KT 15SM SKC M01/M13 A3021 RMK SLP272

CYYC;2007-11-02 13:00;CYYC 021300Z 27011KT 15SM SKC M00/M13 A3021 RMK SLP272

CYYC;2007-11-02 14:00;CYYC 021400Z 00000KT 30SM FEW230 M01/M14 A3020 RMK CI1 SLP270

CYYC;2007-11-02 15:00;CYYC 021500Z 25004KT 40SM FEW100 FEW240 M02/M13 A3018 RMK AC1CI1 SLP270

CYYC;2007-11-02 16:00;CYYC 021600Z 20006KT 40SM SCT260 M00/M11 A3018 RMK CI1 SLP268

CYYC;2007-11-02 17:00;CYYC 021700Z 22006KT 40SM BKN230 02/M11 A3016 RMK CI1 SLP263

CYYC;2007-11-02 18:00;CYYC 021800Z 19005KT 40SM FEW160 BKN200 OVC240 03/M12 A3013 RMK AC2CI3CI1 SLP246

CYYC;2007-11-02 19:00;CYYC 021900Z 18009KT 40SM FEW140 FEW190 BKN220 BKN240 04/M13 A3010 RMK AC1AC2CI2CI2 SLP236

CYYC;2007-11-02 20:00;CYYC 022000Z 18008KT 40SM FEW150 FEW220 FEW240 06/M12 A3005 RMK AC1CI1CC1 SLP220

CYYC;2007-11-02 21:00;CYYC 022100Z 20010KT 40SM FEW100 FEW190 BKN230 OVC260 07/M10 A3001 RMK AC1AC1CI2CI0 VIRGA SW SLP199

CYYC;2007-11-02 22:00;CYYC 022200Z 21011KT 40SM FEW072 FEW160 BKN230 OVC260 08/M11 A2996 RMK CU1AC2CI2CI0 ACSL ASOCTD SLP185

CYYC;2007-11-02 23:00;CYYC 022300Z 24010KT 40SM FEW065 FEW120 SCT220 BKN260 06/M12 A2993 RMK SC1AC2CI1CI0 VIRGA W/ACSL ASOCTD SLP175

CYYC;2007-11-03 00:00;CYYC 030000Z 25003KT 40SM FEW065 BKN100 07/M12 A2991 RMK SC1AC6 VIRGA NE+W SLP166

CYYC;2007-11-03 00:12;CYYC 030012Z CCA 30013G18KT 40SM FEW065 BKN110 07/ RMK SC1AC6 WSHFT 0005/VIRGA NE+W

CYYC;2007-11-03 01:00;CYYC 030100Z 27012KT 15SM FEW065 BKN100 07/M09 A2991 RMK SC1AC6 SLP167

CYYC;2007-11-03 02:00;CYYC 030200Z 26010G15KT 15SM BKN170 OVC220 06/M09 A2988 RMK AC6CI2 SLP157

CYYC;2007-11-03 03:00;CYYC 030300Z 26007KT 15SM BKN160 OVC220 05/M08 A2988 RMK AC6CI2 SLP159

CYYC;2007-11-03 04:00;CYYC 030400Z 26023G28KT 15SM BKN170 OVC210 07/M08 A2985 RMK AC5CI2 SLP150

CYYC;2007-11-03 04:45;CYYC 030445Z 27030G38KT 15SM BKN170 OVC210 06/ RMK AC5CI3

CYYC;2007-11-03 05:00;CYYC 030500Z 27028G37KT 15SM BKN190 OVC210 06/M08 A2986 RMK AC5CI3 SLP152

CYYC;2007-11-03 06:00;CYYC 030600Z 27026G37KT 15SM FEW120 BKN190 OVC240 07/M08 A2987 RMK AC2AC3CI2 SLP147

CYYC;2007-11-03 07:00;CYYC 030700Z 27024G30KT 15SM BKN180 OVC210 06/M08 A2988 RMK AC5CI2 SLP149

CYYC;2007-11-03 08:00;CYYC 030800Z 26017KT 15SM BKN190 OVC210 06/M08 A2991 RMK AC5CI2 SLP159

CYYC;2007-11-03 09:00;CYYC 030900Z 27013KT 15SM SCT190 OVC210 06/M08 A2993 RMK AC3CI4 SLP162

CYYC;2007-11-03 10:00;CYYC 031000Z 26015KT 15SM SCT190 OVC210 06/M07 A2993 RMK AC3CI4 SLP164

CYYC;2007-11-03 11:00;CYYC 031100Z 26011KT 15SM SCT190 OVC250 05/M07 A2994 RMK AC2CI4 SLP165

CYYC;2007-11-03 12:00;CYYC 031200Z 26015KT 15SM FEW210 FEW250 06/M08 A2994 RMK CI1CI0 SLP169

CYYC;2007-11-03 13:00;CYYC 031300Z 26013KT 15SM FEW210 FEW250 05/M08 A2995 RMK CI1CI1 SLP170

CYYC;2007-11-03 14:00;CYYC 031400Z 27012KT 15SM FEW160 FEW220 05/M08 A2995 RMK AC1CI0 SLP172

CYYC;2007-11-03 15:00;CYYC 031500Z 27010KT 40SM FEW050 FEW120 BKN260 05/M08 A2997 RMK SC1AC2CI3 SLP181

CYYC;2007-11-03 16:00;CYYC 031600Z 28009KT 40SM FEW050 FEW110 SCT220 BKN260 07/M08 A2998 RMK SC1AC2CI1CI0 SLP182

CYYC;2007-11-03 17:00;CYYC 031700Z 28007KT 40SM FEW060 SCT100 BKN260 10/M07 A2998 RMK SC1AC4CI3 SLP183

CYYC;2007-11-03 18:00;CYYC 031800Z 07003KT 40SM FEW060 BKN140 BKN260 10/M07 A2998 RMK SC1AC5CI1 SLP175

CYYC;2007-11-03 19:00;CYYC 031900Z 10013KT 40SM FEW050 FEW082 BKN140 BKN260 08/M07 A2996 RMK SC1AC1AC5CI1 SLP170

CYYC;2007-11-03 20:00;CYYC 032000Z 10013KT 40SM FEW050 FEW072 SCT150 BKN260 09/M06 A2994 RMK SC1AC2AC2CI2 DIST SH SW/CC ASOCTD SLP162

CYYC;2007-11-03 21:00;CYYC 032100Z 09010KT 40SM FEW060 BKN080 BKN180 09/M07 A2991 RMK SC1AC5AC2 DIST SH SW SLP154

CYYC;2007-11-03 22:00;CYYC 032200Z 10009KT 40SM FEW060 FEW082 FEW200 08/M06 A2986 RMK SC1AC2CI1 DIST SH SW SLP140

CYYC;2007-11-03 23:00;CYYC 032300Z 11012KT 40SM FEW060 BKN078 BKN130 BKN220 07/M06 A2983 RMK SC1AC5AC1CI0 DIST SH SW SLP130

CYYC;2007-11-04 00:00;CYYC 040000Z 11012KT 40SM FEW060 FEW078 FEW260 05/M06 A2979 RMK SC1AC1CI0 DIST SH SW SLP116

CYYC;2007-11-04 01:00;CYYC 040100Z 11008KT 15SM FEW060 FEW080 03/M06 A2973 RMK SC1AC1 PRESFR SLP100

CYYC;2007-11-04 01:33;CYYC 040133Z 12004KT 15SM FEW080 FEW240 02/ RMK AC1CI0

CYYC;2007-11-04 02:00;CYYC 040200Z 06003KT 15SM FEW080 FEW240 01/M06 A2970 RMK AC1CI0 SLP091

CYYC;2007-11-04 03:00;CYYC 040300Z 02005KT 15SM SKC M01/M06 A2967 RMK SLP085

CYYC;2007-11-04 04:00;CYYC 040400Z 35007KT 15SM SKC M02/M06 A2965 RMK SLP080

CYYC;2007-11-04 05:00;CYYC 040500Z 30003KT 15SM SKC M02/M06 A2964 RMK SLP076

CYYC;2007-11-04 06:00;CYYC 040600Z 18003KT 15SM SKC M02/M06 A2962 RMK SLP062

CYYC;2007-11-04 07:00;CYYC 040700Z 35004KT 15SM SKC M03/M06 A2964 RMK SLP067

CYYC;2007-11-04 08:00;CYYC 040800Z 01004KT 15SM SKC M04/M07 A2965 RMK SLP070

CYYC;2007-11-04 09:00;CYYC 040900Z 36015G20KT 15SM SKC M02/M05 A2969 RMK SLP089

CYYC;2007-11-04 10:00;CYYC 041000Z 34020G27KT 15SM SCT070 M02/M07 A2976 RMK AC2 SLP108

CYYC;2007-11-04 11:00;CYYC 041100Z 36015G20KT 15SM OVC016 M02/M03 A2984 RMK SC8 SLP132

CYYC;2007-11-04 11:03;CYYC 041103Z 01014G21KT 15SM BKN009 OVC016 M02/ RMK SC6SC2

CYYC;2007-11-04 12:00;CYYC 041200Z 36016KT 7SM -SN OVC009 M01/M02 A2989 RMK SC8 SLP161

CYYC;2007-11-04 13:00;CYYC 041300Z 36009KT 6SM -SN BKN009 OVC023 M01/M02 A2994 RMK SC7SC1 VIS W 3 SLP176

CYYC;2007-11-04 13:23;CYYC 041323Z 36014KT 10SM -SN FEW011 OVC026 M01/ RMK SC1SC7 SN VRY LGT

CYYC;2007-11-04 13:36;CYYC 041336Z 35011G16KT 10SM -SN FEW008 OVC013 M01/ RMK SC1SC7

CYYC;2007-11-04 14:00;CYYC 041400Z 34012KT 15SM -SN FEW009 BKN014 OVC021 M01/M02 A2997 RMK SC1SC5SC2 SN VRY LGT SLP186

CYYC;2007-11-04 14:47;CYYC 041447Z 36011KT 2 1/2SM -SN FEW007 BKN018 OVC024 M01/ RMK SC1SC6SC2

CYYC;2007-11-04 15:00;CYYC 041500Z 36009KT 2SM -SN FEW010 BKN019 OVC026 M02/M03 A3001 RMK SC1SC5SC2 SLP214

CYYC;2007-11-04 15:02;CYYC 041502Z 35010KT 1SM -SN FEW008 BKN020 OVC025 M02/ RMK SC2SC3SC3

CYYC;2007-11-04 15:14;CYYC 041514Z 35012KT 5/8SM -SN BKN006 OVC020 M02/ RMK SC6SC2

CYYC;2007-11-04 16:00;CYYC 041600Z 35008KT 5/8SM -SN OVC006 M02/M02 A3005 RMK SC8 /S02/ SLP224

CYYC;2007-11-04 16:22;CYYC 041622Z 35007KT 1SM -SN BKN005 OVC007 M02/ RMK SC6SC2

CYYC;2007-11-04 16:26;CYYC 041626Z 34009KT 2SM -SN BKN005 OVC007 M02/ RMK SC6SC2

CYYC;2007-11-04 16:33;CYYC 041633Z 35011KT 2 1/2SM -SN FEW005 SCT007 OVC020 M02/ RMK SC2SC2SC4

CYYC;2007-11-04 17:00;CYYC 041700Z 34007KT 2 1/2SM -SN FEW015 OVC020 M01/M03 A3007 RMK SC2SC6 VIS NE 5 SLP231

CYYC;2007-11-04 17:12;CYYC 041712Z 33012KT 5SM -SN SCT016 OVC030 M01/ RMK SC4SC4 PCPN VRY LGT

CYYC;2007-11-04 17:34;CYYC 041734Z 33012KT 15SM FEW035 OVC050 M01/ RMK SC2SC6

CYYC;2007-11-04 17:50;CYYC 041750Z 33011KT 20SM -SN FEW040 OVC048 M01/ RMK SC2SC6 PCPN VRY LGT

CYYC;2007-11-04 18:00;CYYC 041800Z 33010KT 20SM -SN OVC048 M01/M04 A3010 RMK SC8 PCPN VRY LGT SLP243

CYYC;2007-11-04 18:21;CYYC 041821Z 32012KT 20SM OVC050 M01/ RMK SC8

CYYC;2007-11-04 19:00;CYYC 041900Z 33011KT 25SM FEW030 OVC043 M00/M04 A3011 RMK SC1SC7 SLP247

CYYC;2007-11-04 20:00;CYYC 042000Z 28009KT 25SM FEW024 OVC030 M00/M04 A3013 RMK SC1SC7 SLP252

CYYC;2007-11-04 21:00;CYYC 042100Z 35008G15KT 25SM SCT025 OVC040 M00/M05 A3014 RMK SC4SC4 SLP256

CYYC;2007-11-04 22:00;CYYC 042200Z 33011KT 25SM FEW020 FEW030 BKN040 BKN080 M01/M05 A3016 RMK CF1SC2SC2AC2 SLP262

CYYC;2007-11-04 22:31;CYYC 042231Z 32010G15KT 20SM -SN FEW012 BKN020 OVC080 M01/ RMK CF1SC4AC3

CYYC;2007-11-04 23:00;CYYC 042300Z 31010KT 25SM -SN FEW012 FEW020 SCT030 BKN080 M01/M05 A3019 RMK CF1SC2SC2AC3 PCPN VRY LGT SLP273

CYYC;2007-11-05 00:00;CYYC 050000Z 31007KT 20SM FEW026 FEW050 BKN100 M02/M06 A3022 RMK CF1SC2AC3 SLP285

CYYC;2007-11-05 01:00;CYYC 050100Z 27007KT 15SM FEW060 BKN075 M03/M07 A3024 RMK SC1AC4 SLP293

CYYC;2007-11-05 02:00;CYYC 050200Z 27005KT 15SM FEW060 SCT070 BKN260 M03/M06 A3026 RMK SC1AC2CI3 SLP299

CYYC;2007-11-05 03:00;CYYC 050300Z 28005KT 15SM BKN075 BKN110 M04/M06 A3028 RMK AC5AC2 SLP311

CYYC;2007-11-05 04:00;CYYC 050400Z 29007KT 15SM OVC081 M02/M06 A3030 RMK AC7 SLP318

CYYC;2007-11-05 05:00;CYYC 050500Z 32008KT 15SM OVC095 M02/M07 A3032 RMK AC7 SLP324

CYYC;2007-11-05 06:00;CYYC 050600Z 33008KT 15SM BKN093 M03/M08 A3035 RMK AC7 SLP333

CYYC;2007-11-05 07:00;CYYC 050700Z 32007KT 15SM OVC090 M04/M08 A3037 RMK AC7 SLP340

CYYC;2007-11-05 08:00;CYYC 050800Z 31006KT 15SM OVC088 M04/M09 A3037 RMK AC7 SLP340

CYYC;2007-11-05 09:00;CYYC 050900Z 30006KT 15SM OVC083 M04/M09 A3040 RMK AC7 SLP353

CYYC;2007-11-05 10:00;CYYC 051000Z 30005KT 15SM OVC077 M04/M09 A3040 RMK AC7 SLP352

CYYC;2007-11-05 11:00;CYYC 051100Z 25004KT 15SM OVC077 M05/M10 A3041 RMK AC7 SLP354

CYYC;2007-11-05 12:00;CYYC 051200Z CCA 23004KT 15SM FEW077 FEW120 M07/M10 A3040 RMK AC1AC1 SNOW COVER/ ONE LOOSE SLP359

CYYC;2007-11-05 13:00;CYYC 051300Z 19002KT 15SM FEW085 M07/M09 A3040 RMK AC1 FROIN/ AC TR SLP358

CYYC;2007-11-05 14:00;CYYC 051400Z 23002KT 30SM FEW120 FEW250 M06/M09 A3039 RMK AC1CI0 AC TR SLP356

CYYC;2007-11-05 15:00;CYYC 051500Z 21003KT 40SM FEW130 FEW250 M08/M10 A3039 RMK AC1CI0 SLP357

CYYC;2007-11-05 16:00;CYYC 051600Z 20004KT 40SM SCT260 M05/M08 A3038 RMK CI1 SLP354

CYYC;2007-11-05 17:00;CYYC 051700Z 17006KT 40SM BKN260 M02/M08 A3036 RMK CI2 SLP349

CYYC;2007-11-05 18:00;CYYC 051800Z 16012KT 40SM BKN260 M02/M07 A3034 RMK CI2 SLP333

CYYC;2007-11-05 19:00;CYYC 051900Z 16014KT 40SM FEW170 BKN260 M01/M07 A3032 RMK AC1CI2 SLP325

CYYC;2007-11-05 20:00;CYYC 052000Z 16014KT 40SM FEW038 SCT150 SCT170 OVC250 M00/M06 A3030 RMK CU1AC2AC1CI2 SLP319

CYYC;2007-11-05 21:00;CYYC 052100Z 17015G21KT 40SM FEW035 BKN140 OVC250 00/M06 A3027 RMK CU1AC3CI2 SLP306

CYYC;2007-11-05 22:00;CYYC 052200Z 16016KT 40SM FEW032 SCT120 OVC240 M00/M06 A3025 RMK CU1AC3CI2 SLP299

CYYC;2007-11-05 23:00;CYYC 052300Z 18016KT 40SM SCT140 OVC240 M01/M06 A3023 RMK AC3CI2 SLP294

CYYC;2007-11-06 00:00;CYYC 060000Z 16014KT 40SM FEW150 BKN230 M02/M06 A3021 RMK AC1CI2 SLP292

CYYC;2007-11-06 01:00;CYYC 060100Z CCA 17009KT 15SM FEW150 SCT230 M03/M05 A3020 RMK AC1CI2 SLP289

CYYC;2007-11-06 02:00;CYYC 060200Z 17008KT 15SM FEW170 SCT200 M03/M05 A3017 RMK AC1CI2 SLP280

CYYC;2007-11-06 03:00;CYYC 060300Z 18006KT 15SM FEW140 M03/M05 A3014 RMK AC1 SLP272

CYYC;2007-11-06 04:00;CYYC 060400Z 18007KT 15SM BKN150 M03/M05 A3013 RMK AC3 SLP269

CYYC;2007-11-06 05:00;CYYC 060500Z 16007KT 15SM BKN150 M04/M06 A3011 RMK AC2 SLP263

CYYC;2007-11-06 06:00;CYYC 060600Z 19007KT 15SM SCT150 M04/M05 A3010 RMK AC1 SLP249

CYYC;2007-11-06 07:00;CYYC 060700Z 20005KT 15SM SCT150 OVC210 M05/M05 A3008 RMK AC1CI3 SLP243

CYYC;2007-11-06 08:00;CYYC 060800Z 19006KT 15SM BKN190 M05/M06 A3006 RMK AC2 SLP237

CYYC;2007-11-06 09:00;CYYC 060900Z 20006KT 15SM FEW100 BKN190 M04/M05 A3003 RMK AC1AC2 SLP223

CYYC;2007-11-06 10:00;CYYC 061000Z 19008KT 15SM FEW100 BKN190 M04/M06 A3000 RMK AC1AC2 SLP214

CYYC;2007-11-06 11:00;CYYC 061100Z 20010KT 15SM FEW100 BKN190 M05/M06 A2998 RMK AC1AC2 SLP206

CYYC;2007-11-06 12:00;CYYC 061200Z CCA 18009KT 15SM FEW100 FEW190 M03/M06 A2996 RMK AC1AC0 SNOW COVER/TRACE LOOSE SLP198

CYYC;2007-11-06 13:00;CYYC 061300Z 24007KT 15SM FEW100 00/M05 A2994 RMK AC1 SLP193

CYYC;2007-11-06 14:00;CYYC 061400Z 28006KT 15SM FEW100 BKN250 04/M04 A2993 RMK AC1CI0 SLP191

CYYC;2007-11-06 15:00;CYYC 061500Z CCA 33003KT 40SM FEW045 FEW100 BKN240 03/M04 A2993 RMK CU1AC2CC2 SLP182

CYYC;2007-11-06 16:00;CYYC 061600Z 19003KT 40SM FEW048 FEW170 BKN210 OVC240 05/M03 A2993 RMK CU1AC1CC5CI1 SLP181

CYYC;2007-11-06 17:00;CYYC 061700Z 21002KT 40SM FEW048 FEW180 BKN220 OVC240 07/M03 A2993 RMK CU1AC1CC4CI2 SLP182

CYYC;2007-11-06 18:00;CYYC 061800Z CCA 27011KT 40SM FEW048 FEW170 BKN220 BKN240 11/M01 A2992 RMK CU1AC2CI2CI1 SLP170

CYYC;2007-11-06 19:00;CYYC 061900Z 29012KT 40SM FEW058 FEW170 FEW210 BKN240 12/M01 A2992 RMK CU1AC1CC1CI2 ACSL S-W SLP170

CYYC;2007-11-06 20:00;CYYC 062000Z 31008KT 40SM FEW061 FEW170 SCT210 BKN240 14/M01 A2992 RMK CU1AC2CC2CI1 ACSL S-W SLP169

CYYC;2007-11-06 21:00;CYYC 062100Z 01006KT 40SM FEW068 SCT180 BKN250 13/M02 A2992 RMK CU1AC3CC0 SLP165

CYYC;2007-11-06 22:00;CYYC 062200Z CCA 32005KT 40SM FEW068 FEW180 SCT230 12/M03 A2991 RMK CU1AC1CI2 SLP164

CYYC;2007-11-06 23:00;CYYC 062300Z 33003KT 40SM FEW068 FEW180 BKN240 10/M03 A2990 RMK CU1AC1CI3 SLP161

CYYC;2007-11-07 00:00;CYYC 070000Z 14004KT 30SM FEW068 SCT120 BKN200 09/M02 A2991 RMK CU1AC3CI2 SLP167

CYYC;2007-11-07 01:00;CYYC 070100Z 15003KT 15SM SCT095 BKN110 07/M02 A2991 RMK AC3AC3 SLP167

CYYC;2007-11-07 02:00;CYYC 070200Z 22003KT 15SM FEW030 BKN096 OVC110 07/M02 A2991 RMK SC1AC5AC2 SLP165

CYYC;2007-11-07 03:00;CYYC 070300Z 18005KT 15SM OVC071 06/M01 A2991 RMK AC8 ACC EMBD/ VIRGA S-W SLP160

CYYC;2007-11-07 04:00;CYYC 070400Z 35003KT 15SM BKN052 OVC064 08/M01 A2993 RMK SC6SC2 SLP167

CYYC;2007-11-07 05:00;CYYC 070500Z 14003KT 15SM BKN053 OVC067 08/M01 A2992 RMK SC6AC2 VIRGA S SLP164

CYYC;2007-11-07 06:00;CYYC 070600Z 36005KT 15SM BKN068 OVC080 07/M01 A2992 RMK AC5AC3 VIRGA S SLP152

CYYC;2007-11-07 07:00;CYYC 070700Z 07006KT 15SM OVC071 05/M01 A2992 RMK AC8 SLP152

CYYC;2007-11-07 08:00;CYYC 070800Z 08002KT 15SM BKN095 OVC110 05/M02 A2994 RMK AC5AS2 SLP158

CYYC;2007-11-07 09:00;CYYC 070900Z CCA 12003KT 15SM FEW092 SCT180 03/M02 A2994 RMK AC2AC1 SLP162

CYYC;2007-11-07 10:00;CYYC 071000Z 36002KT 15SM FEW090 FEW180 SCT250 01/M02 A2994 RMK AC1AC1CI0 SLP162

CYYC;2007-11-07 11:00;CYYC 071100Z 03003KT 15SM FEW085 SCT250 M03/M04 A2994 RMK AC2CI0 SLP164

CYYC;2007-11-07 12:00;CYYC 071200Z 34002KT 15SM FEW180 SCT240 M03/M05 A2995 RMK AC1CI1 SLP178

CYYC;2007-11-07 13:00;CYYC 071300Z 01003KT 15SM SCT240 M02/M04 A2995 RMK CI2 SLP178

CYYC;2007-11-07 14:00;CYYC 071400Z 02002KT 15SM OVC230 M03/M04 A2994 RMK CI6 SLP175

CYYC;2007-11-07 15:00;CYYC 071500Z 36005KT 20SM FEW018 FEW170 OVC240 M02/M04 A2995 RMK SC1AC1CI6 SLP182

CYYC;2007-11-07 16:00;CYYC 071600Z 00000KT 20SM FEW025 FEW170 OVC240 M02/M04 A2994 RMK SC1AC1CI6 SLP181

CYYC;2007-11-07 17:00;CYYC 071700Z 16002KT 20SM FEW068 FEW170 OVC240 02/M01 A2994 RMK CU1AC1CI6 SLP180

CYYC;2007-11-07 18:00;CYYC 071800Z 20003KT 30SM FEW065 FEW150 FEW170 OVC240 04/M01 A2993 RMK CU1AC1AC1CI5 ACSL W SLP165

CYYC;2007-11-07 19:00;CYYC 071900Z 17007KT 20SM FEW065 FEW140 FEW170 OVC240 07/M01 A2993 RMK CU1AC1AC1CI5 SLP165

CYYC;2007-11-07 20:00;CYYC 072000Z 15006KT 20SM FEW065 FEW140 FEW170 OVC240 09/M00 A2989 RMK CU1AC2AC1CI4 SLP155

CYYC;2007-11-07 21:00;CYYC 072100Z 15006KT 20SM FEW065 BKN140 OVC220 08/M00 A2986 RMK CU1AC6CI1 SLP144

CYYC;2007-11-07 22:00;CYYC 072200Z 19005KT 20SM FEW065 BKN110 OVC220 08/00 A2985 RMK CU1AC6CI1 SLP141

CYYC;2007-11-07 23:00;CYYC 072300Z 21003KT 20SM BKN059 OVC075 07/01 A2986 RMK SC6AC2 SH SW + NW SLP142

CYYC;2007-11-07 23:27;CYYC 072327Z 17004KT 20SM -RA BKN048 OVC074 07/ RMK SC6AC2

CYYC;2007-11-08 00:00;CYYC 080000Z 00000KT 20SM SCT048 OVC082 07/02 A2986 RMK SC3AC5 SLP150

CYYC;2007-11-08 01:00;CYYC 080100Z 00000KT 15SM FEW050 SCT085 BKN130 05/02 A2985 RMK SC2AC2AC3 SLP147

CYYC;2007-11-08 02:00;CYYC 080200Z 25005KT 15SM SCT140 BKN230 04/00 A2985 RMK AC2CI2 SLP147

CYYC;2007-11-08 03:00;CYYC 080300Z 35003KT 15SM OVC110 03/00 A2985 RMK AC7 SLP154

CYYC;2007-11-08 04:00;CYYC 080400Z 27005KT 15SM SCT085 BKN170 BKN250 04/M00 A2984 RMK AC2AC2CI0 SLP150

CYYC;2007-11-08 05:00;CYYC 080500Z 29004KT 15SM BKN100 BKN250 04/M01 A2985 RMK AC5CI1 SLP154

CYYC;2007-11-08 06:00;CYYC 080600Z 00000KT 15SM FEW100 03/M02 A2985 RMK AC2 SLP145

CYYC;2007-11-08 07:00;CYYC 080700Z 29002KT 15SM SCT090 04/M02 A2985 RMK AC2 SLP145

CYYC;2007-11-08 08:00;CYYC 080800Z 01003KT 15SM FEW090 BKN230 02/M03 A2986 RMK AC1CI2 SLP146

CYYC;2007-11-08 09:00;CYYC 080900Z 01004KT 15SM FEW100 BKN240 02/M02 A2986 RMK AC1CI2 SLP145

CYYC;2007-11-08 10:00;CYYC 081000Z 34003KT 15SM FEW099 BKN230 02/M02 A2988 RMK AC2CI3 SLP150

CYYC;2007-11-08 11:00;CYYC 081100Z 00000KT 15SM FEW099 BKN240 01/M03 A2987 RMK AC2CI3 SLP146

CYYC;2007-11-08 12:00;CYYC 081200Z 06004KT 15SM FEW100 BKN240 M00/M03 A2988 RMK AC2CI2 SLP153

CYYC;2007-11-08 13:00;CYYC 081300Z 08002KT 15SM FEW100 BKN240 01/M04 A2989 RMK AC1CI2 SLP158

CYYC;2007-11-08 14:00;CYYC 081400Z 30004KT 15SM FEW090 FEW150 SCT250 M03/M05 A2991 RMK AC1AC1CI1 LWR AC TR SLP163

CYYC;2007-11-08 15:00;CYYC 081500Z 03002KT 30SM FEW042 FEW090 FEW150 BKN250 M01/M05 A2993 RMK CU1AC1AC2CI2 SLP178

CYYC;2007-11-08 16:00;CYYC 081600Z 34010KT 30SM FEW042 FEW090 BKN240 01/M03 A2998 RMK CU1AC1CI2 SLP194

CYYC;2007-11-08 17:00;CYYC 081700Z CCA 35012KT 40SM FEW048 FEW090 FEW240 04/M01 A3002 RMK CU1AC1CI0 SLP204

CYYC;2007-11-08 18:00;CYYC 081800Z 02016KT 40SM FEW048 FEW080 FEW240 06/M02 A3004 RMK CU1AC1CI1 SLP207

CYYC;2007-11-08 19:00;CYYC 081900Z 02012KT 40SM FEW060 FEW100 SCT240 06/M02 A3004 RMK CU1AC1CI2 SLP208

CYYC;2007-11-08 20:00;CYYC 082000Z 36012KT 40SM FEW065 FEW100 BKN240 06/M04 A3004 RMK CU1AC1CI2 SLP208

CYYC;2007-11-08 21:00;CYYC 082100Z 03011KT 40SM FEW040 FEW110 FEW180 SCT200 BKN230 06/M04 A3004 RMK CU1AC1AC1CC1CI2 SLP208

CYYC;2007-11-08 22:00;CYYC 082200Z 03010KT 20SM FEW050 FEW120 SCT240 05/M04 A3004 RMK CU1AC1CI1 SLP209

CYYC;2007-11-08 23:00;CYYC 082300Z 05007KT 20SM FEW110 FEW180 SCT230 04/M04 A3006 RMK AC1AC1CI1 SLP213

CYYC;2007-11-09 00:00;CYYC 090000Z 06005KT 20SM FEW230 M00/M06 A3007 RMK CI1 SLP230

CYYC;2007-11-09 01:00;CYYC 090100Z 08005KT 15SM FEW150 M02/M06 A3007 RMK AC2 SLP232

CYYC;2007-11-09 02:00;CYYC 090200Z 09006KT 15SM FEW100 BKN140 M01/M06 A3008 RMK AC1AC4 SLP233

CYYC;2007-11-09 03:00;CYYC 090300Z 09006KT 15SM BKN036 OVC120 M01/M05 A3007 RMK SC7AC1 SLP233

CYYC;2007-11-09 04:00;CYYC 090400Z 12004KT 15SM OVC037 M00/M06 A3007 RMK SC8 SLP233

CYYC;2007-11-09 05:00;CYYC 090500Z 15007KT 15SM OVC038 M00/M06 A3006 RMK SC8 SLP229

CYYC;2007-11-09 06:00;CYYC 090600Z 16008KT 15SM OVC037 M00/M06 A3004 RMK SC8 SLP212

CYYC;2007-11-09 07:00;CYYC 090700Z 14007KT 15SM OVC035 M00/M05 A3003 RMK SC8 SLP208

CYYC;2007-11-09 08:00;CYYC 090800Z 17016KT 6SM -SN OVC017 M00/M04 A3000 RMK SC8 SLP199

CYYC;2007-11-09 08:07;CYYC 090807Z 16019G25KT 3SM -SN BLSN BKN008 OVC022 M01/ RMK SC7SC1

CYYC;2007-11-09 08:11;CYYC 090811Z 16019G25KT 1 1/4SM -SN BLSN BKN006 OVC020 M01/ RMK SC7SC1

CYYC;2007-11-09 08:47;CYYC 090847Z 15014KT 7SM -SN FEW007 OVC011 M02/ REBLSN RMK SF1SC7

CYYC;2007-11-09 09:00;CYYC 090900Z 15016KT 8SM -SN FEW009 BKN014 OVC017 M02/M03 A2997 REBLSN RMK SC2SC6SC1 SLP188

CYYC;2007-11-09 10:00;CYYC 091000Z 14014KT 15SM -SN SCT014 OVC024 M02/M04 A2993 RMK SC3SC5 SN VRY LGT SLP178

CYYC;2007-11-09 10:52;CYYC 091052Z 16016G21KT 15SM OVC027 M02/ RMK SC8

CYYC;2007-11-09 11:00;CYYC 091100Z 16012G21KT 15SM OVC026 M02/M05 A2988 RMK SC8 /S01/ SLP163

CYYC;2007-11-09 12:00;CYYC 091200Z 16015KT 15SM OVC020 M02/M05 A2984 RMK SC8 SNOW COVER/ ONE LOOSE SLP151

CYYC;2007-11-09 13:00;CYYC 091300Z 16011KT 15SM OVC019 M02/M06 A2979 RMK SC8 SLP137

CYYC;2007-11-09 14:00;CYYC 091400Z 17016KT 15SM FEW030 SCT150 BKN240 BKN260 M02/M05 A2972 RMK SC1AC2CI1CC1 SC TR SLP117

CYYC;2007-11-09 15:00;CYYC 091500Z 18011KT 30SM FEW018 FEW160 BKN250 M01/M05 A2968 RMK SC1AC2CI1 SLP096

CYYC;2007-11-09 16:00;CYYC 091600Z 18016KT 40SM FEW020 SCT160 BKN250 M01/M04 A2963 RMK SC1AC4CI2 PRESFR SLP082

CYYC;2007-11-09 17:00;CYYC 091700Z 17007KT 40SM FEW020 BKN150 BKN250 M01/M04 A2960 RMK SC1AC5CI2 SLP071

CYYC;2007-11-09 18:00;CYYC 091800Z 18007KT 40SM FEW014 FEW180 FEW230 01/M02 A2958 RMK CU1AC1CI2 SLP057

CYYC;2007-11-09 19:00;CYYC 091900Z 25008KT 40SM FEW020 FEW100 FEW230 06/M01 A2956 RMK CU1AC1CI1 SLP051

CYYC;2007-11-09 20:00;CYYC 092000Z 22005KT 30SM FEW036 FEW100 FEW200 09/M00 A2953 RMK CU1AC1CI1 HZ SLP041

CYYC;2007-11-09 21:00;CYYC 092100Z 23002KT 30SM FEW056 FEW090 12/M02 A2950 RMK CU1AC1 HZ SLP016

CYYC;2007-11-09 22:00;CYYC 092200Z 27019KT 30SM FEW064 FEW090 SCT250 13/M04 A2949 RMK CU1AC1CI1 HZ SLP014

CYYC;2007-11-09 23:00;CYYC 092300Z 27009G17KT 30SM FEW064 BKN160 BKN250 11/M05 A2948 RMK CU1AC4CI1 SLP010

CYYC;2007-11-10 00:00;CYYC 100000Z 26010G15KT 30SM FEW064 BKN160 BKN220 11/M04 A2950 RMK SC2AC2CI2 SLP019

CYYC;2007-11-10 01:00;CYYC 100100Z 26015G20KT 15SM FEW065 FEW180 FEW200 11/M05 A2952 RMK SC1AC1CI1 SLP023

CYYC;2007-11-10 02:00;CYYC 100200Z CCA 35004KT 15SM FEW065 FEW180 FEW250 08/M05 A2954 RMK SC1AC1CI0 SC+AC TR SLP030

CYYC;2007-11-10 03:00;CYYC 100300Z 30006KT 15SM FEW150 BKN230 06/M05 A2956 RMK AC1CI2 SLP044

CYYC;2007-11-10 04:00;CYYC 100400Z 00000KT 15SM FEW180 FEW250 05/M05 A2955 RMK AC1CI0 SLP041

CYYC;2007-11-10 05:00;CYYC 100500Z 27010KT 15SM SKC 08/M04 A2956 RMK SLP044

CYYC;2007-11-10 06:00;CYYC 100600Z 25005KT 15SM FEW240 07/M05 A2957 RMK CI1 SLP046

CYYC;2007-11-10 07:00;CYYC 100700Z 27005KT 15SM SCT230 05/M05 A2957 RMK CI2 SLP044

CYYC;2007-11-10 08:00;CYYC 100800Z 21005KT 15SM FEW180 BKN210 04/M05 A2957 RMK AC2CI3 SLP046

CYYC;2007-11-10 09:00;CYYC 100900Z 18006KT 15SM BKN200 OVC240 04/M05 A2956 RMK CI5CI1 SLP031

CYYC;2007-11-10 10:00;CYYC 101000Z 23003KT 15SM BKN170 OVC210 04/M05 A2955 RMK AC5CI2 SLP026

CYYC;2007-11-10 11:00;CYYC 101100Z 00000KT 15SM SCT180 BKN240 03/M05 A2952 RMK AC3CI3 SLP017

CYYC;2007-11-10 12:00;CYYC 101200Z 31002KT 15SM FEW170 BKN240 02/M05 A2950 RMK AC1CI2 SLP013

CYYC;2007-11-10 13:00;CYYC 101300Z 14005KT 15SM FEW170 SCT240 01/M06 A2948 RMK AC1CI0 SLP008

CYYC;2007-11-10 14:00;CYYC 101400Z 19004KT 15SM BKN180 BKN240 01/M05 A2946 RMK AC5CI2 SLP002

CYYC;2007-11-10 15:00;CYYC 101500Z 17004KT 40SM FEW140 SCT240 M01/M05 A2945 RMK AC2CI1 SLP008

CYYC;2007-11-10 16:00;CYYC 101600Z 20005KT 40SM FEW030 FEW140 SCT240 01/M04 A2943 RMK SC1AC2CI1 SLP000

CYYC;2007-11-10 17:00;CYYC 101700Z 20006KT 40SM FEW030 SCT140 BKN200 02/M04 A2939 RMK SC1AC3CI2 SLP988

CYYC;2007-11-10 18:00;CYYC 101800Z 19005KT 40SM FEW028 FEW130 BKN200 03/M04 A2937 RMK CU1AC2CI1 SLP971

CYYC;2007-11-10 19:00;CYYC 101900Z 21006KT 40SM FEW035 FEW130 SCT190 BKN250 10/M01 A2933 RMK CU1AC2AC1CI1 SLP959

CYYC;2007-11-10 20:00;CYYC 102000Z 19008KT 40SM FEW035 FEW130 SCT190 BKN250 12/00 A2930 RMK CU1AC2AC1CI1 SLP951

CYYC;2007-11-10 21:00;CYYC 102100Z 15004KT 40SM FEW035 BKN190 BKN240 12/M00 A2926 RMK CU1AC6CI1 SH SW OVR MTS SLP927

CYYC;2007-11-10 22:00;CYYC 102200Z 25019KT 40SM FEW050 FEW210 14/M04 A2925 RMK CU1CI2 SH SW OVR MTS SLP922

CYYC;2007-11-10 23:00;CYYC 102300Z 27015G24KT 30SM FEW050 FEW110 FEW210 10/M02 A2927 RMK CU1AC1CI1 SH SW OVR MTS SLP930

CYYC;2007-11-11 00:00;CYYC 110000Z 27028G37KT 30SM FEW050 BKN110 BKN210 06/M02 A2932 RMK CU1AC5CI2 SH N+S-SW SLP958

CYYC;2007-11-11 01:00;CYYC 110100Z 27018G24KT 30SM FEW040 FEW089 BKN100 06/M05 A2935 RMK SC1AC2AC6 SH N SLP967

CYYC;2007-11-11 02:00;CYYC 110200Z 29018KT 15SM SCT058 BKN089 OVC100 06/M07 A2939 RMK SC3AC4AC1 VIRGA ALQDS SLP979

CYYC;2007-11-11 03:00;CYYC 110300Z 29020G26KT 15SM BKN099 OVC210 06/M08 A2945 RMK AC6CI2 VIRGA S-W SLP008

CYYC;2007-11-11 04:00;CYYC 110400Z 33010KT 15SM BKN160 OVC200 02/M03 A2952 RMK AC6CI2 SLP027

CYYC;2007-11-11 05:00;CYYC 110500Z 25003KT 15SM BKN150 BKN220 01/M03 A2956 RMK AC5CI2 SLP041

CYYC;2007-11-11 06:00;CYYC 110600Z 27012KT 15SM FEW180 FEW240 01/M10 A2960 RMK AC1CI0 SLP062

CYYC;2007-11-11 07:00;CYYC 110700Z 27011KT 15SM SKC 00/M12 A2964 RMK SLP072

CYYC;2007-11-11 08:00;CYYC 110800Z 27008KT 15SM SKC M01/M13 A2964 RMK SLP075

CYYC;2007-11-11 09:00;CYYC 110900Z 18004KT 15SM SKC M02/M13 A2966 RMK SLP072

CYYC;2007-11-11 10:00;CYYC 111000Z 17005KT 15SM SKC M01/M14 A2966 RMK SLP074

CYYC;2007-11-11 11:00;CYYC 111100Z 22010KT 15SM SKC M02/M13 A2968 RMK SLP078

CYYC;2007-11-11 12:00;CYYC 111200Z 19002KT 15SM SCT160 BKN240 M02/M13 A2968 RMK AC4CI1 SLP089

CYYC;2007-11-11 13:00;CYYC 111300Z 22010KT 15SM BKN150 BKN240 M02/M12 A2969 RMK AC5CI1 SLP091

CYYC;2007-11-11 14:00;CYYC 111400Z 20010KT 15SM SCT150 BKN220 M04/M13 A2969 RMK AC4CI2 SLP093

CYYC;2007-11-11 15:00;CYYC 111500Z 27007KT 40SM FEW150 BKN200 M01/M13 A2969 RMK AC1CI6 SLP090

CYYC;2007-11-11 16:00;CYYC 111600Z 19007KT 40SM FEW150 SCT190 BKN220 M01/M12 A2969 RMK AC1AC3CI3 SLP089

CYYC;2007-11-11 17:00;CYYC 111700Z 22007KT 40SM FEW150 BKN190 BKN220 01/M11 A2968 RMK AC1AC5CI2 VIRGA W+N SLP087

CYYC;2007-11-11 18:00;CYYC 111800Z 24007KT 40SM FEW050 SCT180 BKN220 04/M12 A2968 RMK CU1AC3CI1 SLP086

CYYC;2007-11-11 19:00;CYYC 111900Z 22008KT 40SM FEW050 BKN180 BKN220 06/M12 A2966 RMK CU1AC6CI1 SLP081

CYYC;2007-11-11 20:00;CYYC 112000Z 24009KT 40SM FEW050 SCT170 BKN240 08/M13 A2967 RMK CU1AC2CI0 SLP083

CYYC;2007-11-11 21:00;CYYC 112100Z 27019G26KT 40SM FEW050 FEW170 FEW240 07/M13 A2967 RMK CU1AC1CI1 SLP083

CYYC;2007-11-11 22:00;CYYC 112200Z 26016G25KT 40SM FEW050 FEW170 SCT240 07/M12 A2968 RMK CU1AC1CI0 SLP086

CYYC;2007-11-11 23:00;CYYC 112300Z 26009KT 40SM FEW050 FEW170 BKN230 05/M12 A2969 RMK CU1AC1CI0 SLP091

CYYC;2007-11-12 00:00;CYYC 120000Z 27008KT 40SM FEW040 FEW170 SCT230 04/M12 A2970 RMK SC1AC1CI1 SLP097

CYYC;2007-11-12 01:00;CYYC 120100Z 27008KT 15SM BKN190 BKN230 04/M12 A2969 RMK AC6CI1 SLP096

CYYC;2007-11-12 02:00;CYYC 120200Z 15004KT 15SM BKN170 OVC230 02/M11 A2970 RMK AC6CI1 SLP097

CYYC;2007-11-12 03:00;CYYC 120300Z 20006KT 15SM FEW170 BKN230 M01/M11 A2971 RMK AC2CI2 SLP106

CYYC;2007-11-12 04:00;CYYC 120400Z 18002KT 15SM FEW180 BKN240 01/M11 A2971 RMK AC2CI2 SLP106

CYYC;2007-11-12 05:00;CYYC 120500Z 21005KT 15SM FEW180 BKN240 M02/M11 A2971 RMK AC2CI2 SLP107

CYYC;2007-11-12 06:00;CYYC 120600Z 15005KT 15SM FEW240 M01/M11 A2969 RMK CI2 SLP093

CYYC;2007-11-12 07:00;CYYC 120700Z 18004KT 15SM FEW240 01/M11 A2967 RMK CI2 SLP088

CYYC;2007-11-12 08:00;CYYC 120800Z 14009KT 15SM BKN210 M00/M10 A2964 RMK CI5 SLP079

CYYC;2007-11-12 09:00;CYYC 120900Z 24009KT 15SM BKN230 03/M10 A2963 RMK CI4 SLP062

CYYC;2007-11-12 10:00;CYYC 121000Z 18009KT 15SM BKN240 04/M09 A2962 RMK CI4 SLP060

CYYC;2007-11-12 11:00;CYYC 121100Z 19006KT 15SM BKN240 05/M09 A2959 RMK CI4 SLP050

CYYC;2007-11-12 12:00;CYYC 121200Z 04003KT 15SM OVC240 M03/M09 A2955 RMK CI5 SLP047

CYYC;2007-11-12 13:00;CYYC 121300Z 09005KT 15SM FEW180 OVC220 M02/M08 A2957 RMK AC2CI3 SLP054

CYYC;2007-11-12 14:00;CYYC 121400Z 00000KT 15SM OVC240 01/M09 A2954 RMK CI6 SLP045

CYYC;2007-11-12 15:00;CYYC 121500Z 00000KT 30SM FEW050 OVC240 03/M09 A2951 RMK CU1CI8 SLP031

CYYC;2007-11-12 16:00;CYYC 121600Z CCA 00000KT 30SM FEW050 OVC240 03/M08 A2946 RMK CU1CI8 SLP017

CYYC;2007-11-12 17:00;CYYC 121700Z 19006KT 25SM FEW065 FEW140 FEW180 OVC250 06/M08 A2945 RMK CU1AC1AC2CI6 SLP014

CYYC;2007-11-12 18:00;CYYC 121800Z 18012G17KT 20SM FEW065 FEW140 FEW180 OVC250 08/M08 A2940 RMK CU1AC1AC2CI6 SLP985

CYYC;2007-11-12 19:00;CYYC 121900Z 20018G24KT 20SM FEW066 FEW140 SCT180 OVC250 09/M07 A2932 RMK CU1AC1AC2CI5 PRESFR SLP962

CYYC;2007-11-12 20:00;CYYC 122000Z 21024KT 20SM FEW068 FEW140 SCT170 OVC250 10/M08 A2923 RMK CU1AC1AC2CI5 PRESFR SLP933

CYYC;2007-11-12 21:00;CYYC 122100Z 18015KT 20SM FEW066 FEW140 BKN180 OVC250 09/M07 A2921 RMK CU1AC1AC4CI3 SLP914

CYYC;2007-11-12 22:00;CYYC 122200Z 21022G31KT 20SM FEW062 FEW160 SCT190 OVC250 08/M05 A2914 RMK CU1AC1AC2CI5 PRESFR SLP891

CYYC;2007-11-12 23:00;CYYC 122300Z 23018G28KT 20SM FEW150 FEW180 BKN250 08/M05 A2913 RMK AC1AC2CI3 SLP888

CYYC;2007-11-13 00:00;CYYC 130000Z 21020G26KT 20SM FEW140 FEW170 SCT240 06/M04 A2912 RMK AC1AC1CI2 PRESUNSTDY SLP895

CYYC;2007-11-13 01:00;CYYC 130100Z 19017G24KT 15SM FEW130 04/M02 A2910 RMK AC2 SLP889

CYYC;2007-11-13 02:00;CYYC 130200Z 18017G24KT 15SM FEW130 04/M00 A2907 RMK AC2 SLP879

CYYC;2007-11-13 03:00;CYYC 130300Z 19011G16KT 15SM FEW120 BKN160 03/00 A2907 RMK AC1AC2 SLP874

CYYC;2007-11-13 04:00;CYYC 130400Z 29007KT 6SM -RA FEW025 BKN050 04/01 A2914 RMK SC2SC4 SLP893

CYYC;2007-11-13 05:00;CYYC 130500Z 21018G26KT 15SM FEW025 FEW050 02/01 A2909 RMK SC1SC1 SLP879

CYYC;2007-11-13 06:00;CYYC 130600Z 24019G25KT 15SM SKC 03/M02 A2913 RMK SLP888

CYYC;2007-11-13 07:00;CYYC 130700Z 26021G32KT 15SM SKC 04/M07 A2916 RMK SLP895

CYYC;2007-11-13 08:00;CYYC 130800Z 27020G27KT 15SM SKC 03/M07 A2921 RMK SLP912

CYYC;2007-11-13 09:00;CYYC 130900Z CCA 28017G22KT 15SM SKC 03/M07 A2931 RMK PRESRR SLP949

CYYC;2007-11-13 10:00;CYYC 131000Z 27015KT 15SM SKC 02/M10 A2935 RMK SLP961

CYYC;2007-11-13 11:00;CYYC 131100Z 25008KT 15SM SKC 00/M11 A2941 RMK SLP979

CYYC;2007-11-13 12:00;CYYC 131200Z 28005KT 15SM FEW140 BKN250 00/M11 A2945 RMK AC2CI0 SLP007

CYYC;2007-11-13 13:00;CYYC 131300Z 27018KT 15SM FEW140 SCT250 03/M11 A2949 RMK AC2CI0 SLP017

CYYC;2007-11-13 14:00;CYYC 131400Z 27015KT 15SM FEW140 SCT180 BKN250 02/M12 A2954 RMK AC1AC2CI0 SLP032

CYYC;2007-11-13 15:00;CYYC 131500Z 27013G19KT 40SM FEW045 SCT180 BKN250 03/M14 A2958 RMK CU1AC2CI0 SLP052

CYYC;2007-11-13 16:00;CYYC 131600Z 27016G21KT 30SM FEW040 SCT170 SCT250 02/M13 A2963 RMK CU1AC2CI0 SLP065

CYYC;2007-11-13 17:00;CYYC 131700Z 29013G19KT 30SM FEW048 FEW170 FEW250 04/M12 A2967 RMK CU1AC1CI1 SLP079

CYYC;2007-11-13 18:00;CYYC 131800Z 27022G29KT 30SM FEW050 FEW160 FEW250 06/M12 A2971 RMK CU1AC1CI1 SLP093

CYYC;2007-11-13 19:00;CYYC 131900Z 27025G30KT 40SM FEW052 SCT090 SCT110 07/M14 A2975 RMK CU1AC3AC1 VIRGA NE-E SLP105

CYYC;2007-11-13 20:00;CYYC 132000Z 27023G29KT 40SM FEW052 FEW095 SCT120 07/M14 A2978 RMK CU1AC2AC1 VIRGA NE-E SLP113

CYYC;2007-11-13 21:00;CYYC 132100Z 28023G28KT 40SM FEW052 SCT100 SCT210 07/M16 A2981 RMK CU1AC3CC1 SH NE SLP125

CYYC;2007-11-13 22:00;CYYC 132200Z 28020G30KT 40SM FEW052 FEW100 FEW180 BKN240 06/M16 A2985 RMK CU1AC2AC1CC1 VIRGA N-E SLP137

CYYC;2007-11-13 23:00;CYYC 132300Z 28023KT 40SM FEW056 FEW120 SCT160 BKN240 05/M16 A2990 RMK CU1AC2AC1CC1 VIRGA N-SE SLP153

CYYC;2007-11-14 00:00;CYYC 140000Z 28015KT 30SM FEW058 SCT100 SCT160 03/M16 A2993 RMK CU1AC2AC1 SLP176

CYYC;2007-11-14 01:00;CYYC 140100Z 29015KT 15SM FEW060 FEW100 FEW160 02/M15 A2998 RMK CU1AC1AC1 SLP192

CYYC;2007-11-14 02:00;CYYC 140200Z 28014KT 15SM FEW090 02/M14 A3002 RMK AC1 SLP204

CYYC;2007-11-14 03:00;CYYC 140300Z 27014KT 15SM FEW100 01/M14 A3006 RMK AC2 SLP219

CYYC;2007-11-14 04:00;CYYC 140400Z 28010G16KT 15SM FEW095 01/M14 A3009 RMK AC1 SLP229

CYYC;2007-11-14 05:00;CYYC 140500Z 30011KT 15SM SCT088 01/M14 A3013 RMK AC4 SLP241

CYYC;2007-11-14 06:00;CYYC 140600Z 29011KT 15SM SCT089 01/M14 A3016 RMK AC2 SLP251

CYYC;2007-11-14 07:00;CYYC 140700Z 29008KT 15SM SCT088 M00/M13 A3018 RMK AC2 SLP259

CYYC;2007-11-14 08:00;CYYC 140800Z 28009KT 15SM FEW100 M00/M13 A3021 RMK AC1 SLP266

CYYC;2007-11-14 09:00;CYYC 140900Z 29009KT 15SM FEW100 M01/M13 A3021 RMK AC1 SLP268

CYYC;2007-11-14 10:00;CYYC 141000Z 27013KT 15SM SKC M00/M13 A3024 RMK SLP279

CYYC;2007-11-14 11:00;CYYC 141100Z 26008KT 15SM SKC M02/M13 A3025 RMK SLP281

CYYC;2007-11-14 12:00;CYYC 141200Z 26010KT 15SM SKC M02/M13 A3026 RMK SLP294

CYYC;2007-11-14 13:00;CYYC 141300Z 27010KT 15SM SKC M02/M13 A3027 RMK SLP296

CYYC;2007-11-14 14:00;CYYC 141400Z 27009KT 15SM FEW250 M02/M13 A3026 RMK CI1 CI TR SLP295

CYYC;2007-11-14 15:00;CYYC 141500Z 00000KT 40SM FEW250 M04/M14 A3026 RMK CI1 SLP301

CYYC;2007-11-14 16:00;CYYC 141600Z 25005KT 40SM SKC M00/M13 A3026 RMK SLP301

CYYC;2007-11-14 17:00;CYYC 141700Z 27010KT 40SM SKC 02/M13 A3026 RMK SLP300

CYYC;2007-11-14 18:00;CYYC 141800Z 24008KT 40SM FEW270 03/M13 A3026 RMK CI1 SLP290

CYYC;2007-11-14 19:00;CYYC 141900Z 23004KT 40SM FEW270 04/M13 A3024 RMK CI0 SLP284

CYYC;2007-11-14 20:00;CYYC 142000Z 19008KT 40SM FEW270 05/M14 A3021 RMK CI0 SLP276

CYYC;2007-11-14 21:00;CYYC 142100Z CCA 18008KT 30SM FEW180 BKN260 05/M14 A3018 RMK AC1CI1 SLP263

CYYC;2007-11-14 22:00;CYYC 142200Z CCA 16007KT 40SM FEW180 OVC250 05/M14 A3015 RMK AC1CS2 SLP254

CYYC;2007-11-14 23:00;CYYC 142300Z 17008KT 40SM FEW180 SCT200 OVC240 03/M14 A3013 RMK AC1CS2CI2 SLP247

CYYC;2007-11-15 00:00;CYYC 150000Z 17010KT 30SM FEW160 BKN200 02/M13 A3009 RMK AC1CS3 SLP238

CYYC;2007-11-15 01:00;CYYC 150100Z 17009KT 15SM BKN150 02/M13 A3005 RMK AC6 SLP225

CYYC;2007-11-15 02:00;CYYC 150200Z 20007KT 15SM BKN130 01/M13 A3002 RMK AC6 SLP215

CYYC;2007-11-15 03:00;CYYC 150300Z 19004KT 15SM BKN100 OVC140 00/M12 A2997 RMK AC6AC2 SLP199

CYYC;2007-11-15 04:00;CYYC 150400Z 25002KT 15SM BKN042 OVC077 01/M11 A2991 RMK SC5AC3 VIRGA S SLP181

CYYC;2007-11-15 05:00;CYYC 150500Z 18002KT 15SM FEW040 SCT060 OVC100 00/M10 A2986 RMK CF1SC3AC5 CF TR SLP168

CYYC;2007-11-15 06:00;CYYC 150600Z 19004KT 15SM FEW090 OVC160 00/M11 A2982 RMK AC2AC6 SLP139

CYYC;2007-11-15 07:00;CYYC 150700Z 22003KT 15SM FEW160 OVC240 M00/M11 A2979 RMK AC2CI5 SLP128

CYYC;2007-11-15 08:00;CYYC 150800Z 18005KT 15SM FEW110 BKN140 OVC240 M01/M11 A2972 RMK AC1AC4CI2 SLP109

CYYC;2007-11-15 09:00;CYYC 150900Z 23004KT 15SM FEW180 FEW240 SCT260 M01/M11 A2966 RMK AC1CI1CI0 SLP083

CYYC;2007-11-15 10:00;CYYC 151000Z 18003KT 15SM FEW220 FEW260 M03/M11 A2964 RMK CI1CI0 SLP074

CYYC;2007-11-15 11:00;CYYC 151100Z 19006KT 15SM FEW220 FEW260 M03/M11 A2962 RMK CI0CI0 SLP068

CYYC;2007-11-15 12:00;CYYC 151200Z 21006KT 15SM FEW250 M02/M11 A2959 RMK CI0 SLP064

CYYC;2007-11-15 13:00;CYYC 151300Z 20005KT 15SM FEW250 M02/M10 A2958 RMK CI1 CI TR SLP059

CYYC;2007-11-15 14:00;CYYC 151400Z 14004KT 15SM FEW140 OVC230 M01/M09 A2957 RMK AC2CI4 SLP056

CYYC;2007-11-15 15:00;CYYC 151500Z 01002KT 40SM FEW024 BKN190 OVC230 M03/M08 A2956 RMK SC1AC6CI2 SLP055

CYYC;2007-11-15 16:00;CYYC 151600Z 21005KT 40SM FEW030 BKN190 OVC210 M01/M07 A2956 RMK SC1AC6CI2 SLP056

CYYC;2007-11-15 17:00;CYYC 151700Z 04003KT 40SM FEW032 FEW100 BKN190 BKN220 02/M06 A2957 RMK SC1AC2AC3CI2 SLP058

CYYC;2007-11-15 18:00;CYYC 151800Z 23002KT 40SM FEW040 FEW130 SCT180 BKN220 05/M05 A2956 RMK CU1AC1AC2CI2 SLP046

CYYC;2007-11-15 19:00;CYYC 151900Z 22006KT 40SM FEW048 FEW160 BKN180 09/M04 A2957 RMK CU1AC1AC6 ACSL ASOCTD SLP047

CYYC;2007-11-15 20:00;CYYC 152000Z CCA 23008KT 40SM FEW058 FEW140 BKN180 10/M04 A2957 RMK CU1AC1AC6 ACSL ASOCTD SLP048

CYYC;2007-11-15 21:00;CYYC 152100Z 26016G24KT 40SM FEW064 BKN140 12/M05 A2958 RMK SC1AC6 ACSL ASOCTD SLP045

CYYC;2007-11-15 22:00;CYYC 152200Z 26014G20KT 40SM FEW044 FEW150 BKN210 11/M05 A2960 RMK SC1AC2CI6 ACSL ASOCTD SLP049

CYYC;2007-11-15 23:00;CYYC 152300Z 26015KT 40SM FEW060 FEW160 BKN220 BKN250 09/M05 A2962 RMK SC1AC1CI4CI0 ACSL ASOCTD SLP055

CYYC;2007-11-16 00:00;CYYC 160000Z 25008KT 40SM FEW060 FEW140 BKN220 08/M05 A2962 RMK SC1AC1CI6 SLP065

CYYC;2007-11-16 01:00;CYYC 160100Z 36002KT 15SM FEW190 BKN240 08/M05 A2962 RMK AC2CI5 SLP065

CYYC;2007-11-16 02:00;CYYC 160200Z 25007KT 15SM BKN240 06/M05 A2963 RMK CI6 SLP066

CYYC;2007-11-16 03:00;CYYC 160300Z 24004KT 15SM SCT250 05/M06 A2963 RMK CI1 SLP074

CYYC;2007-11-16 04:00;CYYC 160400Z 09003KT 15SM SCT180 OVC240 04/M05 A2964 RMK AC3CI2 SLP076

CYYC;2007-11-16 05:00;CYYC 160500Z 27003KT 15SM SCT100 OVC230 06/M05 A2964 RMK AC3CI4 SLP075

CYYC;2007-11-16 06:00;CYYC 160600Z 19003KT 15SM FEW090 FEW160 BKN250 04/M05 A2963 RMK AC1AC2CI2 SLP062

CYYC;2007-11-16 07:00;CYYC 160700Z 18004KT 15SM FEW110 SCT240 03/M05 A2963 RMK AC1CI2 SLP062

CYYC;2007-11-16 08:00;CYYC 160800Z 22002KT 15SM BKN170 BKN240 04/M05 A2962 RMK AC2CI2 SLP061

CYYC;2007-11-16 09:00;CYYC 160900Z 21004KT 15SM FEW180 FEW250 01/M05 A2962 RMK AC1CI0 SLP055

CYYC;2007-11-16 10:00;CYYC 161000Z 20004KT 15SM FEW170 SCT250 02/M05 A2962 RMK AC1CI0 SLP054

CYYC;2007-11-16 11:00;CYYC 161100Z 23004KT 15SM SCT160 BKN250 02/M05 A2961 RMK AC2CI2 SLP052

CYYC;2007-11-16 12:00;CYYC 161200Z 20006KT 15SM BKN150 OVC220 01/M04 A2959 RMK AC5CI2 SLP050

CYYC;2007-11-16 13:00;CYYC 161300Z 23005KT 15SM BKN120 BKN180 OVC220 02/M04 A2958 RMK AC5AC2CI1 SLP047

CYYC;2007-11-16 14:00;CYYC 161400Z 19004KT 15SM BKN130 BKN180 BKN220 04/M04 A2958 RMK AC5AC2CI1 SLP047

CYYC;2007-11-16 15:00;CYYC 161500Z 18004KT 40SM FEW030 SCT110 BKN130 03/M05 A2957 RMK SC1AC3AC4 VIRGA SW-W SLP045

CYYC;2007-11-16 16:00;CYYC 161600Z 23005KT 40SM FEW030 FEW100 BKN120 04/M04 A2958 RMK SC1AC2AC5 VIRGA NE-W SLP046

CYYC;2007-11-16 17:00;CYYC 161700Z 21005KT 40SM FEW030 BKN100 BKN130 05/M03 A2958 RMK SC1AC5AC2 VIRGA N-SE SLP046

CYYC;2007-11-16 18:00;CYYC 161800Z 18006KT 40SM FEW036 BKN130 05/M04 A2959 RMK SC1AC7 VIRGA E-S SLP049

CYYC;2007-11-16 19:00;CYYC 161900Z 21006KT 40SM FEW040 BKN140 07/M03 A2958 RMK SC1AC7 SLP047

CYYC;2007-11-16 20:00;CYYC 162000Z 28013G18KT 40SM FEW060 FEW082 BKN120 11/M03 A2959 RMK SC1AC1AC7 SLP049

CYYC;2007-11-16 21:00;CYYC 162100Z 27011KT 40SM FEW060 FEW075 BKN110 BKN220 12/M04 A2960 RMK SC1AC1AC6CI1 DIST SH SW/VIRGA E SLP048

CYYC;2007-11-16 22:00;CYYC 162200Z 28015KT 40SM FEW060 FEW072 BKN140 13/M04 A2961 RMK SC1AC1AC6 DIST SH SW SLP051

CYYC;2007-11-16 23:00;CYYC 162300Z 25013G24KT 40SM FEW064 BKN160 11/M05 A2962 RMK SC1AC7 SLP055

CYYC;2007-11-17 00:00;CYYC 170000Z 26009KT 40SM FEW052 BKN180 BKN240 08/M05 A2964 RMK SC1AC5CI1 VIRGA N-SE SLP065

CYYC;2007-11-17 01:00;CYYC 170100Z 26009KT 15SM FEW050 FEW190 FEW250 06/M05 A2964 RMK SC1AC1CI1 VIRGA SW SLP067

CYYC;2007-11-17 02:00;CYYC 170200Z 27012KT 15SM BKN085 07/M05 A2966 RMK AC6 SLP072

CYYC;2007-11-17 03:00;CYYC 170300Z 27011G16KT 15SM FEW087 BKN097 07/M05 A2967 RMK AC2AC6 SLP077

CYYC;2007-11-17 04:00;CYYC 170400Z 34006KT 15SM FEW087 BKN100 07/M06 A2969 RMK AC2AC6 SLP083

CYYC;2007-11-17 05:00;CYYC 170500Z 32002KT 15SM BKN096 05/M06 A2971 RMK AC5 SLP089

CYYC;2007-11-17 06:00;CYYC 170600Z 34005KT 15SM FEW100 04/M06 A2973 RMK AC1 AC TR SLP100

CYYC;2007-11-17 07:00;CYYC 170700Z 01002KT 15SM SCT086 M02/M07 A2976 RMK AC2 SLP107

CYYC;2007-11-17 08:00;CYYC 170800Z 28012KT 15SM FEW086 05/M08 A2977 RMK AC1 SLP112

CYYC;2007-11-17 09:00;CYYC 170900Z 34007KT 15SM SKC 02/M09 A2978 RMK SLP108

CYYC;2007-11-17 10:00;CYYC 171000Z 30004KT 15SM SKC 02/M09 A2979 RMK SLP111

CYYC;2007-11-17 11:00;CYYC 171100Z 34004KT 15SM FEW100 SCT230 00/M09 A2979 RMK AC1CI2 SLP111

CYYC;2007-11-17 12:00;CYYC 171200Z 00000KT 15SM FEW100 FEW240 M01/M08 A2979 RMK AC1CI1 AC TR SLP123

CYYC;2007-11-17 13:00;CYYC 171300Z 08003KT 15SM SCT160 BKN240 M03/M08 A2982 RMK AC2CI2 SLP130

CYYC;2007-11-17 14:00;CYYC 171400Z 10006KT 15SM FEW100 FEW240 M03/M08 A2980 RMK AC1CI0 AC TR SLP126

CYYC;2007-11-17 15:00;CYYC 171500Z 16003KT 40SM FEW100 FEW240 M02/M08 A2980 RMK AC1CI1 SLP126

CYYC;2007-11-17 16:00;CYYC 171600Z 23003KT 40SM FEW100 FEW220 M02/M07 A2981 RMK AC1CI2 SLP130

CYYC;2007-11-17 17:00;CYYC 171700Z 22003KT 40SM FEW170 SCT220 01/M06 A2980 RMK AC1CI2 SLP128

CYYC;2007-11-17 18:00;CYYC 171800Z 20004KT 40SM FEW180 BKN210 04/M06 A2979 RMK AC1CI5 SLP120

CYYC;2007-11-17 19:00;CYYC 171900Z 13004KT 40SM FEW050 BKN140 BKN220 05/M06 A2974 RMK CU1AC6CI1 SLP106

CYYC;2007-11-17 20:00;CYYC 172000Z 16008KT 30SM FEW050 BKN140 BKN220 06/M07 A2972 RMK CU1AC6CI1 SLP100

CYYC;2007-11-17 21:00;CYYC 172100Z 12007KT 30SM FEW050 BKN170 BKN220 05/M06 A2967 RMK CU1AC6CI2 SLP079

CYYC;2007-11-17 22:00;CYYC 172200Z 17005KT 20SM FEW100 BKN150 BKN170 BKN220 06/M05 A2966 RMK AC1AC5AC1CI1 SLP078

CYYC;2007-11-17 23:00;CYYC 172300Z 14006KT 20SM SCT082 BKN150 BKN170 BKN220 05/M04 A2963 RMK AC3AC2AC1CI1 SLP068

CYYC;2007-11-18 00:00;CYYC 180000Z 13007KT 20SM BKN080 BKN160 BKN230 04/M04 A2961 RMK AC5AC1CI1 SLP066

CYYC;2007-11-18 01:00;CYYC 180100Z 13008KT 15SM FEW080 FEW160 FEW230 02/M05 A2957 RMK AC1AC1CI1 SLP054

CYYC;2007-11-18 02:00;CYYC 180200Z 09005KT 15SM FEW080 BKN200 M02/M06 A2953 RMK AC1CI4 SLP041

CYYC;2007-11-18 03:00;CYYC 180300Z 00000KT 15SM FEW079 BKN140 BKN200 M00/M04 A2950 RMK AC1AC5CI1 SLP034

CYYC;2007-11-18 04:00;CYYC 180400Z 32005KT 15SM FEW075 BKN150 OVC210 M01/M05 A2947 RMK AC2AC5CI1 SLP024

CYYC;2007-11-18 05:00;CYYC 180500Z 07004KT 15SM FEW078 SCT160 BKN250 M03/M06 A2944 RMK AC1AC2CI0 SLP015

CYYC;2007-11-18 06:00;CYYC 180600Z 27003KT 15SM FEW083 FEW250 M02/M05 A2942 RMK AC1CI0 AC TR SLP003

CYYC;2007-11-18 07:00;CYYC 180700Z 00000KT 15SM FEW120 M03/M06 A2943 RMK AC1 AC TR SLP006

CYYC;2007-11-18 08:00;CYYC 180800Z 23002KT 15SM SKC M03/M06 A2942 RMK SLP002

CYYC;2007-11-18 09:00;CYYC 180900Z 20008KT 15SM SKC M02/M06 A2944 RMK SLP007

CYYC;2007-11-18 10:00;CYYC 181000Z 00000KT 15SM SKC M00/M06 A2946 RMK SLP014

CYYC;2007-11-18 11:00;CYYC 181100Z 25016G24KT 15SM FEW120 03/M04 A2954 RMK AC1 SLP037

CYYC;2007-11-18 12:00;CYYC 181200Z 26019G24KT 15SM FEW120 03/M09 A2950 RMK AC1 AC TR SLP023

CYYC;2007-11-18 13:00;CYYC 181300Z 26019G24KT 15SM FEW120 03/M10 A2954 RMK AC1 SLP035

CYYC;2007-11-18 14:00;CYYC 181400Z 28016G22KT 15SM FEW120 03/M11 A2957 RMK AC1 SLP043

CYYC;2007-11-18 15:00;CYYC 181500Z CCA 27013G18KT 40SM FEW100 FEW250 02/M11 A2961 RMK AC1CI0 SLP068

CYYC;2007-11-18 16:00;CYYC 181600Z 35008KT 40SM FEW052 FEW140 SCT230 02/M11 A2966 RMK CU1AC1CC1 SLP083

CYYC;2007-11-18 17:00;CYYC 181700Z 34014KT 40SM FEW050 FEW130 SCT220 02/M04 A2971 RMK CU1AC1CI1 SLP097

CYYC;2007-11-18 18:00;CYYC 181800Z 32007KT 40SM FEW050 FEW130 FEW220 03/M05 A2973 RMK CU1AC1CI1 SLP112

CYYC;2007-11-18 19:00;CYYC 181900Z 32011G19KT 40SM FEW052 FEW130 SCT220 04/M07 A2973 RMK CU1AC1CI1 SLP111

CYYC;2007-11-18 20:00;CYYC 182000Z 26017G24KT 40SM FEW060 FEW130 SCT180 BKN230 05/M14 A2973 RMK CU1AC1AC2CI2 SLP110

CYYC;2007-11-18 21:00;CYYC 182100Z 27021G28KT 40SM FEW060 FEW130 BKN180 BKN230 05/M14 A2972 RMK CU1AC1AC5CI1 SLP105

CYYC;2007-11-18 22:00;CYYC 182200Z 27020KT 40SM FEW060 FEW180 SCT250 04/M14 A2972 RMK CU1AC1CI1 SLP105

CYYC;2007-11-18 23:00;CYYC 182300Z CCA 27019G24KT 30SM FEW060 FEW170 SCT240 03/M14 A2972 RMK CU1AC1CI1 SLP105

CYYC;2007-11-19 00:00;CYYC 190000Z 27013KT 20SM FEW060 FEW170 FEW240 01/M14 A2973 RMK CU1AC1CI1 SLP106

CYYC;2007-11-19 01:00;CYYC 190100Z CCA 27011G16KT 15SM FEW060 FEW170 FEW240 M01/M14 A2974 RMK CU1AC1CI1 SLP109

CYYC;2007-11-19 02:00;CYYC 190200Z 27010KT 15SM FEW170 M01/M14 A2975 RMK AC1 SLP113

CYYC;2007-11-19 03:00;CYYC 190300Z 29009KT 15SM SKC M01/M14 A2977 RMK SLP124

CYYC;2007-11-19 04:00;CYYC 190400Z 29011KT 15SM SKC M01/M14 A2978 RMK SLP126

CYYC;2007-11-19 05:00;CYYC 190500Z 28011KT 15SM SKC M01/M14 A2979 RMK SLP129

CYYC;2007-11-19 06:00;CYYC 190600Z 27013KT 15SM SKC M01/M14 A2980 RMK SLP135

CYYC;2007-11-19 07:00;CYYC 190700Z 28011KT 15SM SKC M02/M14 A2981 RMK SLP137

CYYC;2007-11-19 08:00;CYYC 190800Z 30010KT 15SM SKC M03/M15 A2981 RMK SLP138

CYYC;2007-11-19 09:00;CYYC 190900Z 32008KT 15SM SKC M05/M15 A2982 RMK SLP144

CYYC;2007-11-19 10:00;CYYC 191000Z 32007KT 15SM SKC M06/M15 A2984 RMK SLP150

CYYC;2007-11-19 13:00;CYYC 191300Z 32007KT 15SM SKC M07/M14 A2989 RMK SLP175

CYYC;2007-11-19 14:00;CYYC 191400Z 32006KT 15SM FEW100 M07/M14 A2990 RMK AC1 AC TR SLP180

CYYC;2007-11-19 15:00;CYYC 191500Z 09003KT 40SM FEW120 M10/M15 A2993 RMK AC1 SLP198

CYYC;2007-11-19 16:00;CYYC 191600Z 16002KT 40SM FEW120 M07/M13 A2995 RMK AC1 SLP204

CYYC;2007-11-19 17:00;CYYC 191700Z 16002KT 40SM FEW120 M02/M12 A2996 RMK AC1 SLP207

CYYC;2007-11-19 18:00;CYYC 191800Z 22006KT 40SM FEW120 01/M13 A2998 RMK AC1 SLP198

CYYC;2007-11-19 19:00;CYYC 191900Z 22004KT 40SM SKC 01/M13 A2997 RMK SLP197

CYYC;2007-11-19 20:00;CYYC 192000Z 18003KT 40SM SKC 02/M14 A2998 RMK SLP198

CYYC;2007-11-19 21:00;CYYC 192100Z CCA 15004KT 40SM SKC 02/M15 A2998 RMK SLP201

CYYC;2007-11-19 22:00;CYYC 192200Z 00000KT 40SM SKC 02/M15 A2998 RMK SLP203

CYYC;2007-11-19 23:00;CYYC 192300Z 13005KT 40SM FEW160 M00/M15 A2999 RMK AC1 SLP205

CYYC;2007-11-20 00:00;CYYC 200000Z 16005KT 40SM FEW160 M03/M15 A3001 RMK AC1 SLP223

CYYC;2007-11-20 01:00;CYYC 200100Z 16006KT 15SM SKC M04/M15 A3002 RMK SLP226

CYYC;2007-11-20 02:00;CYYC 200200Z 16006KT 15SM SKC M05/M14 A3004 RMK SLP232

CYYC;2007-11-20 03:00;CYYC 200300Z 16004KT 15SM FEW250 M05/M13 A3005 RMK CI1 SLP243

CYYC;2007-11-20 04:00;CYYC 200400Z 00000KT 15SM SKC M07/M14 A3005 RMK SLP244

CYYC;2007-11-20 05:00;CYYC 200500Z 33007KT 15SM SKC M12/M15 A3006 RMK SLP248

CYYC;2007-11-20 06:00;CYYC 200600Z 35004KT 15SM SKC M11/M15 A3007 RMK SLP246

CYYC;2007-11-20 07:00;CYYC 200700Z 32002KT 15SM SKC M09/M15 A3007 RMK SLP247

CYYC;2007-11-20 08:00;CYYC 200800Z 02004KT 15SM SKC M11/M15 A3008 RMK SLP249

CYYC;2007-11-20 09:00;CYYC 200900Z 18003KT 15SM SKC M09/M14 A3008 RMK SLP245

CYYC;2007-11-20 10:00;CYYC 201000Z 20003KT 15SM SKC M11/M15 A3009 RMK SLP248

CYYC;2007-11-20 11:00;CYYC 201100Z 00000KT 15SM SKC M11/M15 A3010 RMK SLP251

CYYC;2007-11-20 12:00;CYYC 201200Z 19002KT 15SM SKC M11/M15 A3011 RMK SLP262

CYYC;2007-11-20 13:00;CYYC 201300Z 19003KT 15SM SKC M10/M15 A3012 RMK SLP266

CYYC;2007-11-20 14:00;CYYC 201400Z 32002KT 15SM FEW250 M11/M16 A3014 RMK CI0 SLP272

CYYC;2007-11-20 15:00;CYYC 201500Z 32003KT 40SM FEW140 FEW260 M10/M16 A3016 RMK AC0CI0 SLP284

CYYC;2007-11-20 16:00;CYYC 201600Z 33008KT 40SM FEW120 FEW260 M09/M14 A3018 RMK AC0CI0 SLP291

CYYC;2007-11-20 17:00;CYYC 201700Z 32008KT 40SM FEW120 SCT230 M05/M13 A3021 RMK AC0CI0 SLP298

CYYC;2007-11-20 18:00;CYYC 201800Z 35013KT 40SM FEW120 M03/M11 A3022 RMK AC0 SLP303

CYYC;2007-11-20 19:00;CYYC 201900Z 35010G15KT 40SM FEW120 M02/M10 A3022 RMK AC1 SLP303

CYYC;2007-11-20 20:00;CYYC 202000Z 35014KT 40SM FEW040 FEW080 M02/M11 A3023 RMK SC1AC1 SLP304

CYYC;2007-11-20 21:00;CYYC 202100Z 36013KT 40SM FEW040 FEW070 M01/M11 A3023 RMK SC1AC1 SLP301

CYYC;2007-11-20 22:00;CYYC 202200Z 34013G18KT 30SM FEW040 BKN080 M02/M11 A3024 RMK SC1AC1 SLP303

CYYC;2007-11-20 23:00;CYYC 202300Z 35014KT 30SM FEW040 SCT061 BKN100 M03/M12 A3025 RMK SC1SC2AC1 SLP308

CYYC;2007-11-21 00:00;CYYC 210000Z 02012KT 30SM OVC065 M04/M10 A3028 RMK SC8 SLP326

CYYC;2007-11-21 00:34;CYYC 210034Z 36011KT 6SM -SN OVC042 M05/ RMK SC8

CYYC;2007-11-21 01:00;CYYC 210100Z 01008KT 3SM -SN OVC020 M05/M07 A3031 RMK SC8 SLP333

CYYC;2007-11-21 01:28;CYYC 210128Z 36009KT 2SM -SN OVC020 M06/ RMK SN4SC4

CYYC;2007-11-21 02:00;CYYC 210200Z 34007KT 2 1/2SM -SN BKN007 OVC020 M06/M07 A3033 RMK SC5SC3 SLP339

CYYC;2007-11-21 03:00;CYYC 210300Z 35006KT 3SM -SN BKN020 OVC035 M06/M07 A3034 RMK SC4SC3 SLP349

CYYC;2007-11-21 04:00;CYYC 210400Z 34007KT 2 1/2SM -SN SCT010 OVC020 M06/M07 A3037 RMK SC3SC5 SLP357

CYYC;2007-11-21 04:38;CYYC 210438Z 34008KT 3SM -SN FEW007 BKN015 OVC030 M06/ RMK CF1SC3SC5

CYYC;2007-11-21 05:00;CYYC 210500Z 34006KT 4SM -SN FEW007 SCT015 OVC030 M06/M07 A3039 RMK CF1SC2SC4 SLP363

CYYC;2007-11-21 06:00;CYYC 210600Z 33006KT 15SM -SN SCT015 BKN030 M08/M09 A3041 RMK SC3SC3 SLP363

CYYC;2007-11-21 07:00;CYYC 210700Z 32006KT 15SM -SN BKN015 OVC030 M07/M08 A3041 RMK SC5SC2 SLP363

CYYC;2007-11-21 08:00;CYYC 210800Z 26004KT 15SM BKN015 BKN030 M09/M10 A3041 RMK SC5SC0 SLP364

CYYC;2007-11-21 09:00;CYYC 210900Z 30002KT 15SM FEW015 FEW030 M09/M10 A3041 RMK SC1SC0 SLP362

CYYC;2007-11-21 10:00;CYYC 211000Z 23003KT 15SM SKC M11/M11 A3040 RMK SLP360

CYYC;2007-11-21 11:00;CYYC 211100Z 21006KT 15SM SKC M14/M14 A3038 RMK SLP354

CYYC;2007-11-21 12:00;CYYC 211200Z 22005KT 15SM FEW250 M13/M14 A3037 RMK CI1 SLP361

CYYC;2007-11-21 13:00;CYYC 211300Z 20004KT 15SM FEW250 M14/M15 A3037 RMK CI1 SLP359

CYYC;2007-11-21 14:00;CYYC 211400Z 22004KT 15SM SCT250 M14/M15 A3035 RMK CI0 SLP355

CYYC;2007-11-21 15:00;CYYC 211500Z 20006KT 40SM FEW160 FEW250 M15/M16 A3033 RMK AC1CI0 SLP350

CYYC;2007-11-21 16:00;CYYC 211600Z 19004KT 40SM FEW160 FEW250 M12/M13 A3033 RMK AC1CI1 SLP351

CYYC;2007-11-21 17:00;CYYC 211700Z 00000KT 40SM FEW160 FEW250 M10/M12 A3033 RMK AC1CI1 SLP350

CYYC;2007-11-21 18:00;CYYC 211800Z 19003KT 40SM FEW160 FEW250 M07/M11 A3032 RMK AC0CI1 SLP339

CYYC;2007-11-21 19:00;CYYC 211900Z 29007KT 40SM FEW160 SCT250 M04/M12 A3031 RMK AC1CI0 SLP336

CYYC;2007-11-21 20:00;CYYC 212000Z 22002KT 40SM SCT160 SCT250 M03/M11 A3030 RMK AC1CI1 SLP333

CYYC;2007-11-21 21:00;CYYC 212100Z 29005KT 40SM FEW150 FEW250 M00/M12 A3029 RMK AC1CI0 SLP321

CYYC;2007-11-21 22:00;CYYC 212200Z 31009KT 40SM FEW150 FEW250 M00/M13 A3029 RMK AC1CI1 SLP321

CYYC;2007-11-21 23:00;CYYC 212300Z 33005KT 40SM FEW150 FEW250 M02/M12 A3029 RMK AC1CI1 SLP319

CYYC;2007-11-22 00:00;CYYC 220000Z 32006KT 40SM FEW250 M04/M12 A3028 RMK CI1 SLP330

CYYC;2007-11-22 01:00;CYYC 220100Z 33006KT 15SM BKN250 M07/M13 A3030 RMK CI0 SLP334

CYYC;2007-11-22 02:00;CYYC 220200Z 34005KT 15SM FEW250 M09/M14 A3030 RMK CI0 SLP334

CYYC;2007-11-22 03:00;CYYC 220300Z 33005KT 15SM FEW180 FEW250 M08/M15 A3030 RMK AC1CI1 SLP345

CYYC;2007-11-22 04:00;CYYC 220400Z 27006KT 15SM FEW230 M07/M15 A3030 RMK CI1 SLP345

CYYC;2007-11-22 05:00;CYYC 220500Z 00000KT 15SM FEW220 FEW240 M07/M14 A3030 RMK CI1CI1 SLP345

CYYC;2007-11-22 06:00;CYYC 220600Z 00000KT 15SM FEW220 BKN240 M07/M14 A3030 RMK CI2CI1 SLP332

CYYC;2007-11-22 07:00;CYYC 220700Z 00000KT 15SM BKN200 M08/M14 A3030 RMK CI2 SLP331

CYYC;2007-11-22 08:00;CYYC 220800Z 00000KT 15SM SCT160 BKN180 M07/M14 A3029 RMK AC3AC1 SLP327

CYYC;2007-11-22 09:00;CYYC 220900Z 23003KT 15SM FEW160 SCT180 SCT250 M08/M14 A3028 RMK AC2AC1CI0 SLP316

CYYC;2007-11-22 10:00;CYYC 221000Z 19002KT 15SM SCT140 BKN240 M08/M14 A3028 RMK AC2CI0 SLP315

CYYC;2007-11-22 11:00;CYYC 221100Z 00000KT 15SM BKN140 BKN200 OVC230 M07/M14 A3027 RMK AC2CI0CI0 SLP312

CYYC;2007-11-22 12:00;CYYC 221200Z 21002KT 15SM SCT085 BKN160 BKN240 M08/M13 A3026 RMK AC2AC0CI0 SLP314

CYYC;2007-11-22 13:00;CYYC 221300Z 00000KT 15SM FEW070 FEW160 M08/M13 A3027 RMK AC1AC0 SLP316

CYYC;2007-11-22 14:00;CYYC 221400Z 00000KT 15SM FEW070 FEW200 M08/M13 A3028 RMK AC1CI0 SLP319

CYYC;2007-11-22 15:00;CYYC 221500Z 34004KT 40SM FEW140 SCT250 M10/M15 A3029 RMK AC1CI0 SLP335

CYYC;2007-11-22 16:00;CYYC 221600Z 30003KT 40SM FEW140 FEW200 BKN240 M09/M13 A3029 RMK AC1CI1CI0 SLP334

CYYC;2007-11-22 17:00;CYYC 221700Z 19002KT 40SM FEW160 FEW200 BKN240 M05/M11 A3028 RMK AC1CI1CI0 SLP332

CYYC;2007-11-22 18:00;CYYC 221800Z 22002KT 40SM FEW160 FEW200 BKN240 M01/M11 A3029 RMK AC1CI0CI0 SLP319

CYYC;2007-11-22 19:00;CYYC 221900Z 27008KT 40SM FEW150 FEW200 BKN260 01/M10 A3027 RMK AC1CI0CI0 SLP314

CYYC;2007-11-22 20:00;CYYC 222000Z 29009KT 40SM FEW200 FEW260 02/M10 A3027 RMK CI1CI0 SLP312

CYYC;2007-11-22 21:00;CYYC 222100Z 27008KT 40SM FEW200 03/M10 A3026 RMK CI1 SLP303

CYYC;2007-11-22 22:00;CYYC 222200Z 26006KT 40SM FEW140 FEW200 03/M10 A3024 RMK AC1CI1 SLP297

CYYC;2007-11-22 23:00;CYYC 222300Z 23007KT 40SM FEW180 FEW220 01/M11 A3023 RMK AC1CI0 SLP293

CYYC;2007-11-23 00:00;CYYC 230000Z 23005KT 40SM BKN180 M00/M11 A3021 RMK AC2 SLP290

CYYC;2007-11-23 01:00;CYYC 230100Z 35003KT 15SM BKN190 M03/M11 A3023 RMK AC2 SLP295

CYYC;2007-11-23 02:00;CYYC 230200Z 28003KT 15SM FEW190 M04/M11 A3021 RMK AC1 SLP289

CYYC;2007-11-23 03:00;CYYC 230300Z 32010KT 15SM SKC M05/M11 A3024 RMK SLP311

CYYC;2007-11-23 04:00;CYYC 230400Z 32006KT 15SM SKC M05/M11 A3026 RMK SLP317

CYYC;2007-11-23 05:00;CYYC 230500Z 27003KT 15SM SKC M06/M11 A3026 RMK SLP317

CYYC;2007-11-23 06:00;CYYC 230600Z 27005KT 15SM SKC M06/M11 A3026 RMK SLP305

CYYC;2007-11-23 07:00;CYYC 230700Z 32006KT 15SM SKC M06/M11 A3025 RMK SLP303

CYYC;2007-11-23 08:00;CYYC 230800Z 32007KT 15SM SKC M08/M12 A3023 RMK SLP298

CYYC;2007-11-23 09:00;CYYC 230900Z 17004KT 15SM SKC M08/M12 A3022 RMK SLP291

CYYC;2007-11-23 10:00;CYYC 231000Z 21004KT 15SM SKC M09/M12 A3022 RMK SLP290

CYYC;2007-11-23 11:00;CYYC 231100Z 00000KT 15SM FEW170 M09/M12 A3021 RMK AC1 SLP287

CYYC;2007-11-23 12:00;CYYC 231200Z 18002KT 15SM FEW240 M08/M12 A3020 RMK CI1 SLP288

CYYC;2007-11-23 13:00;CYYC 231300Z 19003KT 15SM FEW240 M08/M12 A3019 RMK CI0 SLP284

CYYC;2007-11-23 14:00;CYYC 231400Z 19004KT 15SM FEW160 SCT240 M09/M12 A3017 RMK AC1CI0 SLP279

CYYC;2007-11-23 15:00;CYYC 231500Z 21004KT 40SM FEW160 SCT240 M09/M13 A3015 RMK AC1CI0 SLP278

CYYC;2007-11-23 16:00;CYYC 231600Z 18002KT 40SM SCT240 M08/M12 A3014 RMK CI0 SLP276

CYYC;2007-11-23 17:00;CYYC 231700Z 22002KT 40SM FEW200 SCT260 M05/M10 A3012 RMK CI0CI0 SLP269

CYYC;2007-11-23 18:00;CYYC 231800Z 21003KT 40SM FEW220 SCT260 M02/M10 A3010 RMK CI1CI0 SLP254

CYYC;2007-11-23 19:00;CYYC 231900Z 21004KT 40SM FEW220 FEW260 02/M08 A3007 RMK CI1CI0 SLP244

CYYC;2007-11-23 20:00;CYYC 232000Z 22008KT 40SM FEW220 FEW260 04/M09 A3004 RMK CI1CI0 SLP235

CYYC;2007-11-23 21:00;CYYC 232100Z 21005KT 40SM SCT220 BKN260 03/M09 A3001 RMK CI2CI0 SLP218

CYYC;2007-11-23 22:00;CYYC 232200Z 23002KT 40SM BKN190 BKN260 04/M07 A2999 RMK AC3CI2 SLP210

CYYC;2007-11-23 23:00;CYYC 232300Z 21002KT 40SM BKN180 BKN260 03/M08 A2996 RMK AC2CI2 SLP202

CYYC;2007-11-24 00:00;CYYC 240000Z 26003KT 40SM BKN160 01/M08 A2995 RMK AC2 SLP199

CYYC;2007-11-24 01:00;CYYC 240100Z 00000KT 15SM BKN160 00/M08 A2993 RMK AC2 SLP193

CYYC;2007-11-24 02:00;CYYC 240200Z 20004KT 15SM BKN160 BKN200 M01/M09 A2990 RMK AC5CI0 SLP182

CYYC;2007-11-24 03:00;CYYC 240300Z 34005KT 15SM FEW160 SCT190 BKN240 M04/M10 A2989 RMK AC1AC2CI2 SLP187

CYYC;2007-11-24 04:00;CYYC 240400Z 00000KT 15SM BKN190 BKN240 M04/M10 A2988 RMK AC4CI1 SLP183

CYYC;2007-11-24 05:00;CYYC 240500Z 00000KT 15SM FEW190 BKN230 M01/M10 A2988 RMK AC2CI1 SLP183

CYYC;2007-11-24 06:00;CYYC 240600Z 22008KT 15SM SCT190 BKN240 M03/M10 A2986 RMK AC2CI1 SLP164

CYYC;2007-11-24 07:00;CYYC 240700Z 23004KT 15SM BKN190 BKN240 M03/M10 A2985 RMK AC3CI1 SLP161

CYYC;2007-11-24 08:00;CYYC 240800Z 18005KT 15SM FEW170 BKN230 M01/M11 A2984 RMK AC1CS0 SLP159

CYYC;2007-11-24 09:00;CYYC 240900Z CCA 27004KT 15SM FEW190 BKN250 02/M11 A2983 RMK AC1CS0 SLP139

CYYC;2007-11-24 10:00;CYYC 241000Z 27006KT 15SM FEW190 FEW250 M01/M11 A2981 RMK AC1CS0 SLP135

CYYC;2007-11-24 11:00;CYYC 241100Z 26004KT 15SM FEW180 BKN250 M02/M11 A2978 RMK AC1CS1 SLP125

CYYC;2007-11-24 12:00;CYYC 241200Z 00000KT 15SM FEW170 BKN240 M04/M11 A2977 RMK AC1CS1 SLP128

CYYC;2007-11-24 13:00;CYYC 241300Z 22002KT 15SM BKN220 M04/M10 A2974 RMK CI3 SLP121

CYYC;2007-11-24 14:00;CYYC 241400Z 00000KT 15SM FEW180 BKN220 M04/M11 A2973 RMK AC2CI2 SLP116

CYYC;2007-11-24 15:00;CYYC 241500Z 20003KT 40SM FEW180 BKN220 M02/M10 A2971 RMK AC2CI0 SLP112

CYYC;2007-11-24 16:00;CYYC 241600Z 09004KT 40SM BKN170 BKN240 M01/M07 A2968 RMK AC3CI1 SLP103

CYYC;2007-11-24 17:00;CYYC 241700Z 18006KT 40SM BKN140 BKN240 01/M08 A2966 RMK AC7CI1 SLP098

CYYC;2007-11-24 18:00;CYYC 241800Z 20004KT 40SM FEW038 BKN130 BKN210 02/M08 A2965 RMK CU1AC7CI1 SLP087

CYYC;2007-11-24 19:00;CYYC 241900Z 06005KT 40SM FEW038 BKN130 BKN180 03/M07 A2963 RMK CU1AC5AC2 SLP080

CYYC;2007-11-24 20:00;CYYC 242000Z 25010KT 40SM FEW050 SCT130 BKN200 07/M06 A2959 RMK CU1AC4CI2 SLP068

CYYC;2007-11-24 21:00;CYYC 242100Z 26023G31KT 40SM FEW050 BKN150 BKN200 09/M06 A2957 RMK CU1AC6CI2 SLP040

CYYC;2007-11-24 22:00;CYYC 242200Z 27018G27KT 40SM FEW050 SCT150 BKN180 08/M07 A2956 RMK CU1AC3AC4 ACSL S SLP037

CYYC;2007-11-24 23:00;CYYC 242300Z 26023G29KT 40SM FEW050 FEW150 SCT190 BKN250 08/M07 A2956 RMK CU1AC2AC1CC0 ACSL S SLP039

CYYC;2007-11-25 00:00;CYYC 250000Z 27021G30KT 40SM FEW160 FEW220 06/M08 A2957 RMK AC1CI1 SLP055

CYYC;2007-11-25 01:00;CYYC 250100Z CCA 29015G22KT 20SM FEW150 04/M08 A2959 RMK AC1 SLP060

CYYC;2007-11-25 02:00;CYYC 250200Z 34014KT 15SM FEW150 FEW220 02/M08 A2963 RMK AC2CI1 SLP072

CYYC;2007-11-25 03:00;CYYC 250300Z 31010KT 15SM FEW150 FEW220 M02/M10 A2965 RMK AC2CI1 SLP090

CYYC;2007-11-25 04:00;CYYC 250400Z 33005KT 15SM VCSH FEW060 SCT140 M01/M09 A2966 RMK SC2AC1 SLP094

CYYC;2007-11-25 05:00;CYYC 250500Z 33007KT 15SM VCSH BKN040 BKN120 00/M08 A2969 RMK SC3AC1 VCSH E-SE/VIS E-SE 3/VIRGA SLP101

CYYC;2007-11-25 06:00;CYYC 250600Z 29003KT 15SM FEW040 FEW080 SCT140 00/M08 A2969 RMK SC1AC2AC0 SLP095

CYYC;2007-11-25 07:00;CYYC 250700Z 28017KT 15SM FEW080 BKN120 01/M10 A2971 RMK AC2AC1 SLP102

CYYC;2007-11-25 08:00;CYYC 250800Z 27017KT 15SM FEW080 FEW120 01/M11 A2973 RMK AC1AC1 SLP106

CYYC;2007-11-25 09:00;CYYC 250900Z 27019G25KT 15SM FEW080 FEW120 01/M11 A2976 RMK AC1AC1 SLP108

CYYC;2007-11-25 10:00;CYYC 251000Z 27015G20KT 15SM FEW080 00/M11 A2978 RMK AC1 SLP114

CYYC;2007-11-25 11:00;CYYC 251100Z 36013G20KT 15SM FEW080 00/M12 A2982 RMK AC1 SLP126

CYYC;2007-11-25 12:00;CYYC 251200Z CCA 35005KT 15SM FEW100 M03/M12 A2984 RMK AC1 SNOW COVER/TRACE LOOSE SLP146

CYYC;2007-11-25 13:00;CYYC 251300Z 07002KT 15SM FEW100 M03/M12 A2985 RMK AC1 SLP149

CYYC;2007-11-25 14:00;CYYC 251400Z 00000KT 15SM FEW100 M06/M13 A2985 RMK AC1 SLP151

CYYC;2007-11-25 15:00;CYYC 251500Z 31004KT 40SM FEW040 FEW120 M04/M13 A2987 RMK SC1AC1 VIRGA E SLP169

CYYC;2007-11-25 16:00;CYYC 251600Z 27013KT 40SM FEW040 FEW120 M01/M13 A2987 RMK SC1AC1 SLP170

CYYC;2007-11-25 17:00;CYYC 251700Z 27016G21KT 40SM FEW040 FEW100 00/M13 A2990 RMK SC1AC1 VIRGA N+E SLP178

CYYC;2007-11-25 18:00;CYYC 251800Z 28015G21KT 40SM FEW050 BKN100 02/M14 A2992 RMK CU1AC6 VIRGA NE-SE SLP174

CYYC;2007-11-25 19:00;CYYC 251900Z 29012G19KT 40SM FEW050 BKN120 02/M15 A2992 RMK CU1AC3 SH SW OVR MTS SLP176

CYYC;2007-11-25 20:00;CYYC 252000Z CCA 30012G18KT 40SM FEW050 BKN080 BKN100 03/M15 A2993 RMK CU2AC3AC2 VIRGA SLP177

CYYC;2007-11-25 21:00;CYYC 252100Z 28014KT 40SM FEW050 BKN080 BKN100 BKN150 02/M15 A2994 RMK CU1AC4AC1AC1 SH NW+SE / TCU ASOCTD SLP179

CYYC;2007-11-25 22:00;CYYC 252200Z 05009KT 40SM FEW050 FEW090 BKN150 M00/M12 A2996 RMK CU1AC2AC1 SH NW+NE / TCU ASOCTD SLP186

CYYC;2007-11-25 23:00;CYYC 252300Z 05003KT 40SM SCT050 SCT090 BKN140 M01/M12 A2998 RMK CU3AC1AC2 SH W-N / CB ASOCTD SLP193

CYYC;2007-11-26 00:00;CYYC 260000Z 02004KT 40SM FEW050 FEW070 FEW140 M03/M11 A3001 RMK SC1AC1AC1 SH SE+W / TCU ASOCTD SLP219

CYYC;2007-11-26 01:00;CYYC 260100Z 31002KT 40SM FEW050 FEW070 FEW140 M04/M11 A3003 RMK SC1AC1AC1 SLP223

CYYC;2007-11-26 02:00;CYYC 260200Z 22003KT 15SM FEW080 M05/M11 A3002 RMK AC1 SLP222

CYYC;2007-11-26 03:00;CYYC 260300Z 20002KT 15SM FEW080 M08/M11 A3004 RMK AC1 SLP236

CYYC;2007-11-26 04:00;CYYC 260400Z 19003KT 15SM SKC M07/M10 A3005 RMK SLP239

CYYC;2007-11-26 05:00;CYYC 260500Z 18003KT 15SM SKC M06/M11 A3006 RMK SLP244

CYYC;2007-11-26 06:00;CYYC 260600Z 19005KT 15SM SKC M08/M12 A3004 RMK SLP227

CYYC;2007-11-26 07:00;CYYC 260700Z 27002KT 15SM SKC M07/M13 A3004 RMK SLP227

CYYC;2007-11-26 08:00;CYYC 260800Z 27006KT 15SM SKC M05/M14 A3001 RMK SLP220

CYYC;2007-11-26 09:00;CYYC 260900Z 34005KT 15SM BKN160 M06/M14 A3002 RMK AC2 SLP219

CYYC;2007-11-26 09:25;CYYC 260925Z 01021G31KT 2 1/2SM BR BKN150 M10/ RMK FG3AC2

CYYC;2007-11-26 09:38;CYYC 260938Z 36017KT 1 1/2SM -SN BR VV004 M09/ RMK FG8

CYYC;2007-11-26 10:00;CYYC 261000Z 01017G22KT 1 1/2SM -SN BR VV006 M09/M10 A3010 RMK FG8 PRESRR SLP244

CYYC;2007-11-26 11:00;CYYC 261100Z 36020KT 1 1/2SM -SN BR VV009 M12/M13 A3016 RMK SN8 SLP262

CYYC;2007-11-26 11:25;CYYC 261125Z 01015G21KT 2 1/2SM -SN BR OVC020 M13/ RMK SN2SC5

CYYC;2007-11-26 12:00;CYYC 261200Z CCA 01013G18KT 4SM -SN OVC020 M13/M15 A3018 RMK SC7 /S01/ SLP290

CYYC;2007-11-26 13:00;CYYC 261300Z 02011KT 6SM -SN DRSN OVC021 M14/M16 A3020 RMK SC7 SLP296

CYYC;2007-11-26 14:00;CYYC 261400Z 03010KT 8SM -SN FEW011 OVC018 M15/M17 A3023 RMK SF1SC8 OCNL DRSN SLP306

CYYC;2007-11-26 15:00;CYYC 261500Z 02009KT 5SM -SN OVC018 M16/M18 A3023 RMK SC8 SLP321

CYYC;2007-11-26 16:00;CYYC 261600Z 04009KT 7SM -SN OVC018 M16/M19 A3023 RMK SC8 SLP319

CYYC;2007-11-26 17:00;CYYC 261700Z 07002KT 8SM -SN OVC024 M16/M19 A3021 RMK SC8 SLP315

CYYC;2007-11-26 18:00;CYYC 261800Z 14008KT 8SM -SN OVC024 M16/M17 A3020 RMK SC8 SLP309

CYYC;2007-11-26 18:54;CYYC 261854Z 12009KT 5SM BR FEW015 OVC022 M15/ RMK SC1SC7

CYYC;2007-11-26 19:00;CYYC 261900Z 13009KT 5SM -SN FEW015 OVC022 M15/M18 A3017 RMK SC1SC7 SLP301

CYYC;2007-11-26 20:00;CYYC 262000Z 14010KT 8SM -SN FEW015 OVC021 M15/M17 A3013 RMK SC1SC8 SLP288

CYYC;2007-11-26 21:00;CYYC 262100Z 14011KT 6SM -SN BR FEW015 OVC021 M15/M17 A3008 RMK SC0SC8 SLP265

CYYC;2007-11-26 22:00;CYYC 262200Z 15013KT 4SM -SN BR OVC018 M15/M16 A3004 RMK SC8 SLP253

CYYC;2007-11-26 22:10;CYYC 262210Z 15013KT 4SM -SN BR SCT009 OVC018 M15/ RMK SC2SC6

CYYC;2007-11-26 22:22;CYYC 262222Z 14011G16KT 2SM -SN BR SCT009 OVC018 M15/ RMK SC2SC6

CYYC;2007-11-26 22:34;CYYC 262234Z 14011G16KT 1 1/2SM -SN BR SCT009 OVC015 M15/ RMK SC2SC6

CYYC;2007-11-26 22:52;CYYC 262252Z CCA 16016KT 3SM -SN BR BKN009 OVC015 M15/ RMK SC2SC6

CYYC;2007-11-26 23:00;CYYC 262300Z 14016G21KT 3SM -SN BR BKN009 OVC015 M15/M16 A3001 RMK SC2SC6 SLP243

CYYC;2007-11-27 00:00;CYYC 270000Z 16018KT 4SM -SN BR FEW010 OVC016 M15/M17 A2995 RMK SC1SC7 SLP230

CYYC;2007-11-27 01:00;CYYC 270100Z 17017KT 8SM -SN OVC016 M15/M17 A2991 RMK SC8 SLP217

CYYC;2007-11-27 01:20;CYYC 270120Z CCA 16015G21KT 15SM BKN015 OVC160 M15/ RMK SC6AC1

CYYC;2007-11-27 02:00;CYYC 270200Z 16015G20KT 15SM BKN016 OVC170 M16/M17 A2985 RMK SC5AC2 SLP200

CYYC;2007-11-27 03:00;CYYC 270300Z 16015KT 6SM BR BKN015 OVC140 M16/M17 A2981 RMK SC6AC1 SLP185

CYYC;2007-11-27 04:00;CYYC 270400Z 16013KT 8SM SCT015 OVC180 M16/M17 A2976 RMK SC2AC6 SLP171

CYYC;2007-11-27 05:00;CYYC 270500Z 15013KT 10SM FEW015 OVC150 M15/M17 A2973 RMK SC1AC6 SLP162

CYYC;2007-11-27 06:00;CYYC 270600Z 15012KT 6SM BR FEW015 OVC100 M15/M16 A2970 RMK SC2AC6 SLP145

CYYC;2007-11-27 07:00;CYYC 270700Z 16008KT 15SM BKN012 OVC080 M15/M16 A2967 RMK SC6AC2 SLP137

CYYC;2007-11-27 08:00;CYYC 270800Z 15007KT 15SM BKN012 OVC050 M14/M15 A2963 RMK SC5SC3 SLP124

CYYC;2007-11-27 09:00;CYYC 270900Z 13006KT 5SM BR BKN012 OVC030 M15/M15 A2962 RMK SC5SC3 SLP116

CYYC;2007-11-27 09:44;CYYC 270944Z 00000KT 3SM -SN BKN010 OVC023 M14/ RMK SC5SC3

CYYC;2007-11-27 10:00;CYYC 271000Z CCA 00000KT 1SM -SN OVC010 M14/M15 A2960 RMK SC8 RVR RWY34 6000+FT SLP111

CYYC;2007-11-27 11:00;CYYC 271100Z 02005KT 1SM -SN OVC007 M14/M15 A2961 RMK SC8 RVR RWY34 6000+FT SLP112

CYYC;2007-11-27 12:00;CYYC 271200Z CCB 04006KT 1SM -SN OVC008 M15/M15 A2961 RMK SC8 RVR RWY34 6000+FT/SNOW COVER MUCH LOOSE/S02/ SLP112

CYYC;2007-11-27 13:00;CYYC 271300Z 04005KT 3SM -SN BKN011 OVC025 M15/M16 A2963 RMK SC6SC2 SLP117

CYYC;2007-11-27 13:20;CYYC 271320Z 03006KT 1 1/2SM -SN BKN007 OVC020 M15/ RMK SC6SC2

CYYC;2007-11-27 14:00;CYYC 271400Z 36006KT 1 1/2SM -SN BKN007 OVC020 M15/M15 A2964 RMK SC6SC2 /S02/ SLP123

CYYC;2007-11-27 14:46;CYYC 271446Z 35008KT 1 1/2SM -SN BKN010 OVC020 M14/ RMK SC6SC2

CYYC;2007-11-27 15:00;CYYC 271500Z 36008KT 3SM -SN OVC030 M14/M15 A2967 RMK SC8 SLP134

CYYC;2007-11-27 15:09;CYYC 271509Z 35009KT 1 1/2SM -SN OVC020 M14/ RMK SN2SC6

CYYC;2007-11-27 16:00;CYYC 271600Z 34014KT 1 1/2SM -SN OVC020 M13/M14 A2970 RMK SN2SC6 SLP144

CYYC;2007-11-27 16:37;CYYC 271637Z 34014G19KT 3SM -SN OVC025 M12/ RMK SC8

CYYC;2007-11-27 17:00;CYYC 271700Z 35015KT 4SM -SN OVC040 M12/M14 A2974 RMK SC7 /S03/ SLP156

CYYC;2007-11-27 17:50;CYYC 271750Z 34014KT 20SM BKN075 BKN240 M11/ RMK AC5CI1

CYYC;2007-11-27 18:00;CYYC 271800Z 34014G19KT 20SM BKN075 BKN240 M10/M13 A2978 RMK AC5CI1 SLP165

CYYC;2007-11-27 19:00;CYYC 271900Z 35017KT 20SM FEW018 BKN080 OVC240 M10/M12 A2981 RMK SC1AC7CI0 SLP176

CYYC;2007-11-27 20:00;CYYC 272000Z 36010KT 20SM FEW018 FEW080 BKN120 OVC140 M09/M12 A2984 RMK SC1AC1AC3AC2 SLP183

CYYC;2007-11-27 21:00;CYYC 272100Z 36013G18KT 20SM FEW018 FEW080 BKN120 OVC240 M09/M11 A2985 RMK SC1AC1AC2CI2 SLP189

CYYC;2007-11-27 22:00;CYYC 272200Z 36012KT 20SM FEW018 BKN073 OVC120 M08/M10 A2988 RMK SC1AC2AC5 SLP197

CYYC;2007-11-27 23:00;CYYC 272300Z CCA 36009KT 15SM FEW020 BKN065 OVC120 M08/M10 A2991 RMK SC1SC7AC1 SLP207

CYYC;2007-11-28 00:00;CYYC 280000Z 36007KT 15SM OVC064 M09/M11 A2995 RMK SC8 SLP222

CYYC;2007-11-28 00:41;CYYC 280041Z 35005KT 7SM -SN FEW020 OVC060 M09/ RMK SC1SC8

CYYC;2007-11-28 01:00;CYYC 280100Z 34004KT 7SM -SN FEW020 BKN060 OVC090 M09/M10 A2998 RMK SC1SC6AC2 SLP232

CYYC;2007-11-28 01:48;CYYC 280148Z 31003KT 15SM FEW012 BKN060 OVC090 M08/ RMK SC1SC4AC4

CYYC;2007-11-28 02:00;CYYC 280200Z 29005KT 15SM FEW012 BKN060 OVC090 M08/M10 A3000 RMK SC1SC4AC4 SLP236

CYYC;2007-11-28 03:00;CYYC 280300Z 31006KT 15SM BKN040 OVC100 M07/M10 A3001 RMK SC4AC4 SLP241

CYYC;2007-11-28 04:00;CYYC 280400Z 34012KT 15SM FEW040 OVC090 M06/M09 A3002 RMK CF1AC7 SLP244

CYYC;2007-11-28 05:00;CYYC 280500Z 33009KT 15SM BKN080 BKN110 M07/M10 A3004 RMK AC3AC2 SLP249

CYYC;2007-11-28 06:00;CYYC 280600Z 32006KT 15SM OVC080 M07/M09 A3005 RMK AC6 SLP247

CYYC;2007-11-28 07:00;CYYC 280700Z 26003KT 15SM OVC080 M06/M09 A3006 RMK AC7 SLP251

CYYC;2007-11-28 08:00;CYYC 280800Z 23006KT 15SM OVC075 M06/M09 A3006 RMK AC8 SLP251

CYYC;2007-11-28 09:00;CYYC 280900Z CCA 27007KT 15SM BKN075 OVC085 M06/M09 A3008 RMK AC6AC2 SLP255

CYYC;2007-11-28 10:00;CYYC 281000Z 27005KT 15SM OVC080 M05/M09 A3009 RMK AC7 SLP258

CYYC;2007-11-28 11:00;CYYC 281100Z 22005KT 15SM OVC085 M06/M09 A3010 RMK AC7 SLP260

CYYC;2007-11-28 12:00;CYYC 281200Z 27005KT 15SM OVC082 M06/M09 A3011 RMK AC8 SLP265

CYYC;2007-11-28 13:00;CYYC 281300Z 19004KT 15SM OVC087 M07/M09 A3012 RMK AC8 SLP268

CYYC;2007-11-28 14:00;CYYC 281400Z 03008KT 6SM -SN FEW015 BKN080 OVC240 M08/M09 A3014 RMK SC2AC4CI0 SLP275

CYYC;2007-11-28 15:00;CYYC 281500Z 03007KT 6SM -SN FEW015 OVC070 M09/M09 A3015 RMK SC1AC5 SLP281

CYYC;2007-11-28 16:00;CYYC 281600Z 05006KT 15SM -SN FEW020 BKN090 M10/M11 A3016 RMK SC1AC3 SLP284

CYYC;2007-11-28 17:00;CYYC 281700Z 07004KT 15SM -SN OVC020 M11/M12 A3017 RMK SC7 SLP286

CYYC;2007-11-28 18:00;CYYC 281800Z 00000KT 15SM -SN OVC022 M10/M12 A3017 RMK SC7 SLP290

CYYC;2007-11-28 18:30;CYYC 281830Z 00000KT 20SM FEW022 BKN081 M10/ RMK SC2AC3

CYYC;2007-11-28 19:00;CYYC 281900Z 03003KT 10SM FEW025 BKN082 M09/M12 A3016 RMK SC2AC2 SLP287

CYYC;2007-11-28 20:00;CYYC 282000Z 00000KT 5SM -SN FEW012 BKN120 M08/M11 A3015 RMK SC2AC0 SLP283

CYYC;2007-11-28 20:47;CYYC 282047Z 18004KT 5SM BR FEW012 BKN120 M08/ RMK SC1AC1

CYYC;2007-11-28 21:00;CYYC 282100Z 18005KT 5SM BR FEW012 FEW020 BKN120 M08/M10 A3014 RMK SC1SC1AC0 SLP275

CYYC;2007-11-28 22:00;CYYC 282200Z 23009KT 10SM FEW022 FEW120 M08/M10 A3013 RMK SC1AC1 SLP271

CYYC;2007-11-28 23:00;CYYC 282300Z 21006KT 15SM FEW022 BKN083 M08/M10 A3013 RMK SC1AC2 SLP271

CYYC;2007-11-29 00:00;CYYC 290000Z 22009KT 15SM FEW020 BKN085 M09/M10 A3012 RMK SC1AC5 SLP268

CYYC;2007-11-29 01:00;CYYC 290100Z 22005KT 10SM FEW085 M10/M11 A3009 RMK AC1 SLP261

CYYC;2007-11-29 02:00;CYYC 290200Z 22005KT 8SM FEW020 M12/M12 A3009 RMK SC1 SLP259

CYYC;2007-11-29 03:00;CYYC 290300Z 00000KT 8SM FEW080 FEW260 M12/M12 A3008 RMK AC1CI2 SLP264

CYYC;2007-11-29 04:00;CYYC 290400Z 36003KT 8SM BKN078 M14/M14 A3008 RMK AC6 SLP263

CYYC;2007-11-29 05:00;CYYC 290500Z 00000KT 10SM SCT078 OVC086 M15/M15 A3008 RMK AC4AC4 SLP264

CYYC;2007-11-29 06:00;CYYC 290600Z 00000KT 8SM FEW078 OVC085 M12/M13 A3008 RMK AC1AC7 SLP268

CYYC;2007-11-29 06:06;CYYC 290606Z 00000KT 8SM -SN OVC080 M14/ RMK AC8 PCPN VRY LGT

CYYC;2007-11-29 07:00;CYYC 290700Z 00000KT 8SM -SN FEW025 OVC082 M12/M12 A3009 RMK SC1AC8 PCPN INTMT/VRY LGT SLP269

CYYC;2007-11-29 08:00;CYYC 290800Z 00000KT 5SM -SN FEW020 FEW058 OVC082 M11/M12 A3008 RMK SC1SC2AC6 PCPN VRY LGT SLP268

CYYC;2007-11-29 09:00;CYYC 290900Z CCA 31004KT 8SM -SN FEW060 OVC080 M11/M11 A3008 RMK SC1AC7 PCPN INTMT/VRY LGT/FROIN SLP262

CYYC;2007-11-29 10:00;CYYC 291000Z 03006KT 8SM OVC080 M11/M11 A3010 RMK AC7 PCPN VRY LGT/FROIN SLP266

CYYC;2007-11-29 10:49;CYYC 291049Z 36012KT 8SM -SN BKN010 OVC082 M10/ RMK SC5AC3

CYYC;2007-11-29 11:00;CYYC 291100Z 02009KT 10SM -SN BKN009 OVC080 M10/M11 A3010 RMK SC6AC2 PCPN VRY LGT SLP268

CYYC;2007-11-29 11:25;CYYC 291125Z 01011KT 10SM -SN FEW010 SCT013 BKN015 OVC080 M11/ RMK SC2SC1SC3AC1 PCPN VRY LGT

CYYC;2007-11-29 12:00;CYYC 291200Z 36011KT 8SM -SN FEW010 BKN014 M11/M12 A3012 RMK SC2SC6 PCPN VRY LGT/SNOW COVER/MUCH LOOSE SLP277

CYYC;2007-11-29 12:40;CYYC 291240Z 36014KT 8SM BKN015 M12/ RMK SC7

CYYC;2007-11-29 13:00;CYYC 291300Z 35010KT 12SM OVC015 M13/M14 A3014 RMK SC7 SLP283

CYYC;2007-11-29 14:00;CYYC 291400Z 36012KT 15SM FEW018 BKN200 M13/M15 A3015 RMK SC1CI1 SLP286

CYYC;2007-11-29 15:00;CYYC 291500Z 35013KT 20SM FEW018 FEW190 BKN230 M14/M16 A3018 RMK SC1AC1CI0 SLP305

CYYC;2007-11-29 16:00;CYYC 291600Z 34010KT 20SM FEW018 FEW190 SCT240 M15/M17 A3020 RMK SC1AC1CI0 SLP311

CYYC;2007-11-29 17:00;CYYC 291700Z 34009KT 20SM FEW018 FEW070 FEW230 M14/M17 A3022 RMK SC1AC1CI1 SLP318

CYYC;2007-11-29 18:00;CYYC 291800Z 33014KT 20SM FEW020 FEW086 M12/M16 A3024 RMK SC1AC1 SLP323

CYYC;2007-11-29 19:00;CYYC 291900Z 33015KT 40SM FEW020 FEW085 FEW230 M11/M18 A3023 RMK SC1AC1CI1 SLP322

CYYC;2007-11-29 20:00;CYYC 292000Z 33017KT 40SM FEW025 FEW090 FEW230 M10/M19 A3023 RMK SC1AC1CI1 SLP322

CYYC;2007-11-29 21:00;CYYC 292100Z 34010G15KT 40SM FEW030 FEW240 M10/M19 A3023 RMK SC1CI1 SLP316

CYYC;2007-11-29 22:00;CYYC 292200Z 34010KT 40SM FEW030 FEW240 M10/M19 A3024 RMK SC1CI1 SLP319

CYYC;2007-11-29 23:00;CYYC 292300Z 35005KT 40SM FEW030 FEW240 M12/M19 A3025 RMK SC1CI1 SLP320

CYYC;2007-11-30 00:00;CYYC 300000Z 33007KT 40SM FEW230 M14/M20 A3026 RMK CI1 SLP333

CYYC;2007-11-30 01:00;CYYC 300100Z 27002KT 15SM SKC M13/M19 A3027 RMK SLP337

CYYC;2007-11-30 02:00;CYYC 300200Z 32005KT 15SM SKC M17/M21 A3027 RMK SLP338

CYYC;2007-11-30 03:00;CYYC 300300Z CCA 35003KT 15SM SCT260 M18/M22 A3027 RMK CI2 SLP348

CYYC;2007-11-30 04:00;CYYC 300400Z 00000KT 15SM SKC M19/M23 A3026 RMK SLP346

CYYC;2007-11-30 05:00;CYYC 300500Z 21006KT 15SM SKC M18/M21 A3025 RMK SLP342

CYYC;2007-11-30 06:00;CYYC 300600Z 29002KT 15SM SKC M16/M19 A3024 RMK SLP330

CYYC;2007-11-30 07:00;CYYC 300700Z 21005KT 15SM SKC M19/M21 A3022 RMK SLP325

CYYC;2007-11-30 08:00;CYYC 300800Z 00000KT 15SM SKC M17/M18 A3022 RMK SLP323

CYYC;2007-11-30 09:00;CYYC 300900Z 21003KT 15SM SKC M18/M20 A3019 RMK SLP313

CYYC;2007-11-30 10:00;CYYC 301000Z 20006KT 15SM SKC M19/M21 A3018 RMK SLP309

CYYC;2007-11-30 11:00;CYYC 301100Z CCA 20006KT 15SM SKC M20/M22 A3015 RMK FROIN SLP302

CYYC;2007-11-30 12:00;CYYC 301200Z CCA 19006KT 15SM SKC M19/M22 A3013 RMK SNOW COVER/MUCH LOOSE/FROIN SLP301

CYYC;2007-11-30 14:00;CYYC 301400Z 00000KT 15SM SKC M20/M21 A3010 RMK SLP294

CYYC;2007-11-30 15:00;CYYC 301500Z 00000KT 40SM FEW120 M23/M24 A3008 RMK AC1 SLP294

CYYC;2007-11-30 16:00;CYYC 301600Z 27003KT 40SM FEW120 FEW240 M17/M21 A3008 RMK AC1CI1 SLP293

CYYC;2007-11-30 17:00;CYYC 301700Z 00000KT 40SM FEW120 FEW240 M15/M18 A3007 RMK AC1CI1 SLP290

CYYC;2007-11-30 18:00;CYYC 301800Z 29004KT 40SM FEW120 FEW240 M12/M18 A3006 RMK AC1CI1 SLP269

CYYC;2007-11-30 19:00;CYYC 301900Z 34006KT 40SM FEW120 FEW240 M09/M19 A3006 RMK AC1CI1 SLP267

CYYC;2007-11-30 20:00;CYYC 302000Z 35014KT 40SM FEW140 FEW240 M09/M19 A3004 RMK AC1CI1 SLP261

CYYC;2007-11-30 21:00;CYYC 302100Z 36014G19KT 40SM FEW140 FEW240 M10/M18 A3001 RMK AC1CI0 SLP251

CYYC;2007-11-30 22:00;CYYC 302200Z 36009KT 40SM FEW240 M10/M16 A3000 RMK CI1 SLP248

CYYC;2007-11-30 23:00;CYYC 302300Z 03009KT 40SM FEW240 M12/M16 A3000 RMK CI1 SLP247

CYYC;2007-12-01 01:00;CYYC 010100Z 32005KT 15SM FEW015 FEW200 M17/M18 A3002 RMK SC1CI0 SLP261

CYYC;2007-12-01 02:00;CYYC 010200Z 32005KT 15SM FEW012 SCT190 BKN260 M17/M18 A3003 RMK SC1AC1CI0 SLP265

CYYC;2007-12-01 03:00;CYYC 010300Z 31004KT 15SM BKN016 M17/M18 A3003 RMK SC7 SLP274

CYYC;2007-12-01 03:35;CYYC 010335Z 33005KT 7SM -SN FEW011 OVC016 M16/ RMK SC1SC7 PCPN VR LGT

CYYC;2007-12-01 04:00;CYYC 010400Z 32005KT 8SM -SN OVC015 M16/M17 A3004 RMK SC8 PCPN VRY LGT/INTMT SLP275

CYYC;2007-12-01 04:21;CYYC 010421Z 33006KT 8SM -SN FEW007 FEW011 OVC015 M15/ RMK SC1SC2SC6 PCPN VRY LGT/INTMT/FROIN

CYYC;2007-12-01 04:32;CYYC 010432Z 33006KT 2 1/2SM -SN SCT010 OVC017 M15/ RMK SC3SC5 PCPN VRY LGT

CYYC;2007-12-01 04:47;CYYC 010447Z 34006KT 5SM -SN FEW010 OVC016 M15/ RMK SC2SC6 PCPN VRY LGT

CYYC;2007-12-01 05:00;CYYC 010500Z 35006KT 7SM -SN FEW010 OVC016 M15/M16 A3002 RMK SC1SC7 PCPN VRY LGT/INTMT/FROIN SLP271

CYYC;2007-12-01 06:00;CYYC 010600Z 34004KT 8SM -SN OVC018 M15/M16 A3001 RMK SC8 PCPN VRY LGT/INTMT SLP248

CYYC;2007-12-01 06:46;CYYC 010646Z 34004KT 2 1/2SM -SN OVC019 M15/ RMK SC8 PCPN VRY LGT

CYYC;2007-12-01 07:00;CYYC 010700Z 35005KT 1 1/2SM -SN FEW006 OVC018 M15/M16 A3000 RMK SC2SC6 PCPN VRY LGT SLP244

CYYC;2007-12-01 07:04;CYYC 010704Z 35007KT 3SM -SN FEW003 FEW006 OVC018 M15/ RMK SC1SC2SC6

CYYC;2007-12-01 07:20;CYYC 010720Z 35009KT 2 1/2SM -SN FEW003 FEW006 OVC022 M15/ RMK SC1SC2SC6

CYYC;2007-12-01 07:33;CYYC 010733Z 35008KT 5SM -SN OVC024 M15/ RMK SC8 PCPN VRY LGT

CYYC;2007-12-01 07:38;CYYC 010738Z 35011KT 5SM -SN FEW003 OVC024 M15/ RMK ST1SC7 PCPN VRY LGT/ LO CLD OVR RWY

CYYC;2007-12-01 08:00;CYYC 010800Z 35008KT 5SM -SN FEW002 OVC023 M15/M16 A2998 RMK SF1SC8 PCPN VRY LGT/LO CLD OVR RWY SLP240

CYYC;2007-12-01 09:00;CYYC 010900Z 03007KT 7SM -SN FEW020 OVC024 M16/M17 A2999 RMK SC1SC7 PCPN VRY LGT/FROIN SLP237

CYYC;2007-12-01 10:00;CYYC 011000Z 03007KT 6SM -SN SCT020 OVC030 M16/M17 A2997 RMK SC3SC5 PCPN VRY LGT/FROIN SLP233

CYYC;2007-12-01 11:00;CYYC 011100Z 34006KT 2 1/2SM -SN FEW009 FEW020 OVC034 M16/M17 A2996 RMK SC1SC2SC6 FROIN SLP230

CYYC;2007-12-01 11:25;CYYC 011125Z 35010KT 4SM -SN FEW007 SCT020 OVC034 M16/ RMK SC2SC2SC5

CYYC;2007-12-01 12:00;CYYC 011200Z 34006KT 7SM -SN OVC030 M16/M19 A2994 RMK SC8 PCPN VRY LGT/FROIN/SNOW COVER/MUCH LOOSE SLP230

CYYC;2007-12-01 13:00;CYYC 011300Z 03005KT 15SM BKN035 M17/M22 A2993 RMK SC7 SLP226

CYYC;2007-12-01 14:00;CYYC 011400Z 36010KT 6SM -SN FEW016 OVC036 M17/M21 A2992 RMK SC1SC8 PCPN VRY LGT SLP224

CYYC;2007-12-01 15:00;CYYC 011500Z 07007KT 8SM -SN OVC038 M18/M21 A2992 RMK SC8 SLP227

CYYC;2007-12-01 16:00;CYYC 011600Z 09005KT 10SM -SN FEW012 BKN038 OVC075 M18/M21 A2991 RMK SC1SC1AC2 SLP224

CYYC;2007-12-01 17:00;CYYC 011700Z 09002KT 6SM -SN FEW015 BKN038 OVC085 M18/M21 A2990 RMK SC1SC2AC3 SLP223

CYYC;2007-12-01 17:46;CYYC 011746Z 00000KT 2SM -SN SCT019 BKN040 OVC085 M18/ RMK SC3SC2AC2

CYYC;2007-12-01 18:00;CYYC 011800Z 00000KT 3SM -SN SCT019 BKN040 OVC085 M17/M21 A2988 RMK SC3SC2AC2 SLP211

CYYC;2007-12-01 19:00;CYYC 011900Z 00000KT 5SM -SN SCT019 SCT040 BKN085 M17/M21 A2985 RMK SC2SC1AC0 SLP200

CYYC;2007-12-01 20:00;CYYC 012000Z 00000KT 8SM -SN SCT020 SCT230 M18/M22 A2981 RMK SC2CI1 SLP188

CYYC;2007-12-01 21:00;CYYC 012100Z 12004KT 5SM -SN SCT018 SCT230 M17/M22 A2978 RMK SC2CI1 SLP177

CYYC;2007-12-01 22:00;CYYC 012200Z 14008KT 5SM -SN SCT018 SCT230 M17/M23 A2977 RMK SC2CI1 SLP174

CYYC;2007-12-01 22:19;CYYC 012219Z 14008KT 20SM FEW018 FEW100 SCT230 M18/ RMK SC1AC1CI0

CYYC;2007-12-01 23:00;CYYC 012300Z 14006KT 20SM FEW018 FEW160 SCT230 M18/M23 A2976 RMK SC1AC1CI0 SLP171

CYYC;2007-12-02 00:00;CYYC 020000Z 14008KT 20SM FEW018 FEW150 BKN230 M19/M22 A2976 RMK SC1AC1CI0 SLP173

CYYC;2007-12-02 01:00;CYYC 020100Z 15006KT 15SM FEW018 FEW080 BKN150 M21/M24 A2976 RMK SC1AC1AC0 SLP172

CYYC;2007-12-02 01:46;CYYC 020146Z 14009KT 7SM -SN BKN020 OVC080 M19/ RMK SC6AC2

CYYC;2007-12-02 02:00;CYYC 020200Z 15008KT 7SM -SN BKN020 BKN080 M19/M23 A2974 RMK SC5AC1 SLP167

CYYC;2007-12-02 02:16;CYYC 020216Z 15008KT 10SM BKN019 BKN080 OVC140 M19/ RMK SC6AC1AC2

CYYC;2007-12-02 03:00;CYYC 020300Z 14008KT 10SM OVC018 M19/M23 A2973 RMK SC8 SLP165

CYYC;2007-12-02 03:22;CYYC 020322Z 14007KT 6SM -SN OVC014 M19/ RMK SC8 PCPN VRY LGT

CYYC;2007-12-02 04:00;CYYC 020400Z 14008KT 8SM -SN OVC015 M19/M23 A2972 RMK SC8 PCPN VRY LGT/INTMT SLP162

CYYC;2007-12-02 05:00;CYYC 020500Z 14007KT 6SM -SN OVC014 M19/M24 A2970 RMK SC8 PCPN VRY LGT/INTMT SLP156

CYYC;2007-12-02 06:00;CYYC 020600Z 15010KT 5SM -SN OVC010 M20/M23 A2969 RMK SC8 PCPN VRY LGT/INTMT SLP152

CYYC;2007-12-02 06:21;CYYC 020621Z 15007KT 5SM -SN OVC009 M20/ RMK SC8 PCPN VRY LGT/INTMT

CYYC;2007-12-02 06:38;CYYC 020638Z 15010KT 2 1/2SM -SN OVC009 M20/ RMK SC8

CYYC;2007-12-02 07:00;CYYC 020700Z 14008KT 2 1/2SM -SN OVC008 M20/M22 A2969 RMK SC8 SLP150

CYYC;2007-12-02 08:00;CYYC 020800Z 16009KT 2 1/2SM -SN FEW004 OVC007 M20/M22 A2967 RMK SC1SC8 PCPN VRY LGT SLP146

CYYC;2007-12-02 09:00;CYYC 020900Z 15009KT 2SM -SN OVC007 M19/M22 A2966 RMK SC8 SLP141

CYYC;2007-12-02 10:00;CYYC 021000Z 16010G15KT 2SM -SN OVC006 M20/M22 A2965 RMK SC8 FROIN SLP138

CYYC;2007-12-02 10:49;CYYC 021049Z 16010KT 3SM -SN FEW002 FEW006 SCT010 BKN085 M21/ RMK SC1SC2SC2AC3

CYYC;2007-12-02 11:00;CYYC 021100Z 16009KT 4SM -SN FEW002 FEW006 FEW010 SCT018 BKN082 M21/M23 A2963 RMK SC1SC2SC1SC1AC4 FROIN SLP129

CYYC;2007-12-02 12:00;CYYC 021200Z 14005KT 5SM -SN FEW075 BKN110 OVC140 M21/M23 A2963 RMK AC2AC3AC2 PCPN VRY LGT/INTMT/FROIN/SNOW COVER/MUCH LOOSE SLP133

CYYC;2007-12-02 12:04;CYYC 021204Z 14006KT 2SM -SN FEW001 FEW005 BKN078 OVC110 M21/ RMK SC1SC2AC2AC3

CYYC;2007-12-02 12:15;CYYC 021215Z 13007KT 3SM -SN SCT001 SCT004 BKN078 OVC130 M21/ RMK SC3SC1AC2AC1

CYYC;2007-12-02 13:00;CYYC 021300Z CCA 15005KT 2 1/2SM -SN BKN003 BKN080 OVC130 M21/M24 A2961 RMK SC5AC1AC1 PCPN VRY LGT/FROIN SLP128

CYYC;2007-12-02 14:00;CYYC 021400Z 11005KT 2 1/2SM -SN OVC004 M22/M25 A2962 RMK SC7 PCPN VRY LGT/FROIN SLP129

CYYC;2007-12-02 14:07;CYYC 021407Z 12005KT 2 1/2SM -SN OVC008 M22/ RMK SC7

CYYC;2007-12-02 15:00;CYYC 021500Z 08005KT 2SM -SN SCT005 OVC010 M22/M25 A2963 RMK SC3SC2 SLP135

CYYC;2007-12-02 16:00;CYYC 021600Z 09004KT 4SM -SN OVC008 M22/M25 A2963 RMK SC7 SLP136

CYYC;2007-12-02 17:00;CYYC 021700Z 10003KT 4SM -SN OVC008 M21/M24 A2965 RMK SC7 SLP142

CYYC;2007-12-02 17:51;CYYC 021751Z 00000KT 4SM -SN FEW004 BKN008 M21/ RMK SC1SC2

CYYC;2007-12-02 18:00;CYYC 021800Z 00000KT 4SM -SN FEW004 BKN008 M21/M24 A2965 RMK SC1SC3 SLP141

CYYC;2007-12-02 18:30;CYYC 021830Z 00000KT 5SM -SN FEW004 BKN008 OVC015 M20/ RMK SC1SC6SC1

CYYC;2007-12-02 19:00;CYYC 021900Z 00000KT 5SM -SN SCT008 BKN230 M20/M23 A2966 RMK SC2CI2 SLP144

CYYC;2007-12-02 19:28;CYYC 021928Z CCA 00000KT 5SM BR SCT008 BKN150 BKN230 M20/ RMK SC2AC2CI2

CYYC;2007-12-02 20:00;CYYC 022000Z 05003KT 6SM BR FEW008 FEW090 OVC140 M19/M21 A2965 RMK SC1AC1AC6 SLP141

CYYC;2007-12-02 21:00;CYYC 022100Z 01004KT 5SM BR FEW008 SCT090 OVC120 M19/M21 A2966 RMK SC1AC1AC7 SLP144

CYYC;2007-12-02 21:33;CYYC 022133Z CCA 05006KT 8SM -SN FEW008 SCT090 OVC120 M19/ RMK SC1AC1AC7

CYYC;2007-12-02 22:00;CYYC 022200Z 03002KT 7SM -SN FEW013 SCT090 OVC120 M19/M22 A2967 RMK SC1AC1AC7 SLP147

CYYC;2007-12-02 22:38;CYYC 022238Z 05005KT 8SM -SN BKN013 BKN090 OVC120 M19/ RMK SC6AC2AC1

CYYC;2007-12-02 23:00;CYYC 022300Z 04006KT 6SM -SN BKN013 OVC090 M19/M22 A2967 RMK SC6AC2 VIS W-NW 3 SLP147

CYYC;2007-12-03 00:00;CYYC 030000Z 02006KT 6SM -SN OVC013 M19/M22 A2969 RMK SC8 SLP154

CYYC;2007-12-03 00:23;CYYC 030023Z 03005KT 5SM BR OVC010 M19/ RMK SC8

CYYC;2007-12-03 01:00;CYYC 030100Z 01008KT 5SM BR BKN010 OVC015 M19/M21 A2968 RMK SC7SC1 SLP151

CYYC;2007-12-03 01:17;CYYC 030117Z 02006KT 4SM -SN BR BKN010 OVC015 M19/ RMK SC7SC1

CYYC;2007-12-03 01:47;CYYC 030147Z 02005KT 2SM -SN BKN010 OVC015 M19/ RMK SC7SC1

CYYC;2007-12-03 02:00;CYYC 030200Z 03006KT 2 1/2SM -SN BKN010 OVC014 M19/M22 A2967 RMK SC6SC2 SLP150

CYYC;2007-12-03 02:47;CYYC 030247Z 01004KT 5SM -SN OVC011 M19/ RMK SC8

CYYC;2007-12-03 03:00;CYYC 030300Z 35004KT 4SM -SN OVC010 M19/M21 A2967 RMK SC8 SLP149

CYYC;2007-12-03 04:00;CYYC 030400Z 34007KT 3SM -SN OVC011 M19/M21 A2967 RMK SC8 SLP150

CYYC;2007-12-03 04:18;CYYC 030418Z 35007KT 2SM -SN OVC011 M19/ RMK SC8

CYYC;2007-12-03 05:00;CYYC 030500Z 35010KT 4SM -SN OVC011 M18/M21 A2968 RMK SC8 SLP151

CYYC;2007-12-03 06:00;CYYC 030600Z 34009KT 2 1/2SM -SN OVC009 M18/M21 A2970 RMK SC8 SLP159

CYYC;2007-12-03 07:00;CYYC 030700Z 34009KT 2 1/2SM -SN OVC006 M18/M20 A2971 RMK SC8 SLP161

CYYC;2007-12-03 08:00;CYYC 030800Z 34010KT 1 1/2SM -SN OVC005 M18/M20 A2973 RMK SC8 SLP166

CYYC;2007-12-03 09:00;CYYC 030900Z 34009KT 1 1/2SM -SN OVC004 M18/M20 A2973 RMK SC8 SLP167

CYYC;2007-12-03 10:00;CYYC 031000Z 35006KT 1 1/2SM -SN OVC007 M18/M20 A2978 RMK SC8 SLP180

CYYC;2007-12-03 10:29;CYYC 031029Z 36008KT 3SM -SN OVC011 M18/ RMK SC8

CYYC;2007-12-03 11:00;CYYC 031100Z 36008KT 3SM -SN OVC010 M18/M20 A2979 RMK SC8 SLP185

CYYC;2007-12-03 12:00;CYYC 031200Z 35007KT 5SM -SN OVC008 M18/M20 A2980 RMK SC8 SLP188

CYYC;2007-12-03 13:00;CYYC 031300Z 36007KT 5SM -SN OVC015 M18/M20 A2980 RMK SC8 SLP188

CYYC;2007-12-03 14:00;CYYC 031400Z 35008KT 5SM -SN BKN015 OVC022 M18/M21 A2982 RMK SC6SC2 SLP195

CYYC;2007-12-03 15:00;CYYC 031500Z 36007KT 3SM -SN SCT016 OVC022 M18/M21 A2983 RMK SC3SC5 SLP200

CYYC;2007-12-03 16:00;CYYC 031600Z 35004KT 5SM -SN SCT016 OVC021 M19/M21 A2981 RMK SC3SC5 VIS W 1 SLP194

CYYC;2007-12-03 17:00;CYYC 031700Z 00000KT 3SM -SN FEW010 OVC019 M18/M21 A2981 RMK SF2SC6 VIS SW 1 + S 5 SLP195

CYYC;2007-12-03 18:00;CYYC 031800Z 00000KT 10SM -SN BKN019 OVC022 M18/M21 A2982 RMK SC6SC2 SLP195

CYYC;2007-12-03 19:00;CYYC 031900Z 10002KT 10SM -SN OVC018 M18/M20 A2978 RMK SC8 VIS S 5 SLP182

CYYC;2007-12-03 20:00;CYYC 032000Z 11004KT 5SM -SN FEW013 OVC016 M17/M21 A2977 RMK SC2SC6 SLP180

CYYC;2007-12-03 21:00;CYYC 032100Z 14006KT 10SM -SN FEW003 BKN016 OVC200 M17/M21 A2974 RMK SF1SC6CI1 VIS S 5 SLP167

CYYC;2007-12-03 22:00;CYYC 032200Z 13008KT 5SM -SN OVC016 M17/M20 A2973 RMK SC8 SLP164

CYYC;2007-12-03 23:00;CYYC 032300Z 12006KT 5SM -SN FEW011 BKN016 BKN090 OVC210 M17/M20 A2975 RMK SF1SC4AC1CI1 SLP170

CYYC;2007-12-04 00:00;CYYC 040000Z 12004KT 5SM -SN BKN015 OVC090 M18/M20 A2974 RMK SC6AC1 PCPN VRY LGT SLP166

CYYC;2007-12-04 00:53;CYYC 040053Z 14004KT 4SM -SN FEW006 OVC013 M17/ RMK SF1SC8

CYYC;2007-12-04 01:00;CYYC 040100Z 11005KT 4SM -SN FEW006 OVC012 M18/M20 A2970 RMK SF1SC8 SLP155

CYYC;2007-12-04 02:00;CYYC 040200Z 15003KT 4SM -SN BKN012 OVC019 M17/M20 A2972 RMK SC6SC1 SLP159

CYYC;2007-12-04 03:00;CYYC 040300Z 13003KT 4SM -SN SCT020 M18/M21 A2971 RMK SC2 SLP159

CYYC;2007-12-04 04:00;CYYC 040400Z 12003KT 5SM -SN SCT020 M18/M21 A2973 RMK SC2 SLP165

CYYC;2007-12-04 05:00;CYYC 040500Z 17007KT 8SM FEW030 M17/M20 A2972 RMK SC1 SLP161

CYYC;2007-12-04 06:00;CYYC 040600Z 03008KT 7SM FEW006 BKN020 BKN080 M19/M22 A2975 RMK ST2SC2AC1 SLP173

CYYC;2007-12-04 07:00;CYYC 040700Z 02010KT 7SM OVC009 M18/M21 A2978 RMK SC7 SLP181

CYYC;2007-12-04 08:00;CYYC 040800Z 02010KT 7SM OVC011 M18/M21 A2983 RMK SC8 SLP195

CYYC;2007-12-04 09:00;CYYC 040900Z 36009KT 7SM OVC007 M18/M21 A2983 RMK SC8 SLP196

CYYC;2007-12-04 10:00;CYYC 041000Z 35011KT 3SM -SN OVC007 M18/M20 A2983 RMK SC8 SLP196

CYYC;2007-12-04 11:00;CYYC 041100Z 03005KT 3SM -SN OVC011 M18/M21 A2988 RMK SC8 SLP212

CYYC;2007-12-04 12:00;CYYC 041200Z 35006KT 3SM -SN OVC012 M18/M20 A2989 RMK SC8 SLP219

CYYC;2007-12-04 13:00;CYYC 041300Z 34004KT 3SM -SN FEW007 OVC012 M18/M21 A2992 RMK SC1SC7 SLP227

CYYC;2007-12-04 14:00;CYYC 041400Z 31003KT 3SM -SN FEW007 OVC012 M17/M20 A2992 RMK SC1SC7 SLP227

CYYC;2007-12-04 15:00;CYYC 041500Z 34004KT 10SM FEW012 OVC170 M17/M20 A2993 RMK SC2AC6 SLP234

CYYC;2007-12-04 16:00;CYYC 041600Z 34004KT 12SM FEW012 OVC170 M17/M20 A2996 RMK SC2AC6 SLP241

CYYC;2007-12-04 17:00;CYYC 041700Z 04003KT 15SM SCT180 OVC200 M16/M19 A2998 RMK AC3CI4 SLP248

CYYC;2007-12-04 18:00;CYYC 041800Z 00000KT 15SM FEW180 OVC200 M16/M19 A3000 RMK AC2CI5 SLP256

CYYC;2007-12-04 18:30;CYYC 041830Z 04004KT 15SM FEW006 BKN008 OVC190 M16/ RMK SF1SC5AC2

CYYC;2007-12-04 18:50;CYYC 041850Z 06002KT 15SM FEW008 BKN180 OVC200 M16/ RMK SC2AC4CI2

CYYC;2007-12-04 19:00;CYYC 041900Z 00000KT 15SM FEW008 SCT180 OVC210 M16/M19 A3000 RMK SC1AC3CI4 -SN W VIS LWR SLP256

CYYC;2007-12-04 20:00;CYYC 042000Z 10003KT 15SM FEW140 SCT180 OVC210 M15/M19 A2999 RMK AC1AC3CI3 SLP252

CYYC;2007-12-04 21:00;CYYC 042100Z 13005KT 15SM FEW140 SCT180 OVC210 M15/M18 A2998 RMK AC1AC3CI3 SLP246

CYYC;2007-12-04 22:00;CYYC 042200Z 10006KT 10SM SCT180 OVC210 M15/M18 A2999 RMK AC3CI4 SLP248

CYYC;2007-12-04 23:00;CYYC 042300Z 10005KT 10SM FEW008 FEW012 BKN110 OVC180 M15/M18 A3000 RMK SF1SC2AC2AC2 IC S-W SLP252

CYYC;2007-12-05 00:00;CYYC 050000Z 08006KT 5SM -SN BKN130 OVC150 M15/M18 A3002 RMK AC6AC2 SLP262

CYYC;2007-12-05 01:00;CYYC 050100Z 07007KT 4SM -SN FEW010 SCT090 OVC120 M15/M18 A3005 RMK CF1AC3AC5 SLP269

CYYC;2007-12-05 02:00;CYYC 050200Z 07004KT 4SM -SN SCT015 OVC110 M15/M18 A3006 RMK SC3AC5 PCPN VRY LGT SLP272

CYYC;2007-12-05 02:42;CYYC 050242Z 09003KT 2 1/2SM -SN FEW002 SCT011 OVC120 M15/ RMK SC1SC2AC5

CYYC;2007-12-05 03:00;CYYC 050300Z 07005KT 3SM -SN BKN012 OVC120 M16/M18 A3006 RMK SC5AC3 SLP273

CYYC;2007-12-05 04:00;CYYC 050400Z 10004KT 3SM -SN OVC015 M16/M18 A3005 RMK SC8 SLP271

CYYC;2007-12-05 04:27;CYYC 050427Z 11005KT 2 1/2SM -SN OVC014 M16/ RMK SC8

CYYC;2007-12-05 05:00;CYYC 050500Z 11005KT 2 1/2SM -SN OVC012 M16/M18 A3004 RMK SC8 SLP268

CYYC;2007-12-05 05:35;CYYC 050535Z CCA 11005KT 4SM -SN FEW001 BKN012 BKN095 OVC200 M17/ RMK SC2SC4AC2CI0

CYYC;2007-12-05 06:00;CYYC 050600Z 12004KT 5SM -SN BKN012 BKN080 BKN100 OVC200 M17/M19 A3003 RMK SC5AC1AC2CI0 PCPN VRY LGT SLP264

CYYC;2007-12-05 06:48;CYYC 050648Z 21004KT 6SM -SN FEW012 BKN095 BKN200 M16/ RMK SC2AC3CI1 PCPN VRY LGT

CYYC;2007-12-05 07:00;CYYC 050700Z 20004KT 5SM -SN FEW012 BKN095 BKN240 M16/M18 A3002 RMK SC1AC5CI1 PCPN VRY LGT SLP259

CYYC;2007-12-05 08:00;CYYC 050800Z CCA 20002KT 5SM -SN FEW100 BKN180 BKN220 M17/M19 A3002 RMK AC2AC3CI2 PCPN VRY LGT SLP260

CYYC;2007-12-05 09:00;CYYC 050900Z 05003KT 6SM -SN BKN100 BKN240 M18/M20 A3002 RMK AC6CI0 PCPN VRY LGT/INTMT SLP260

CYYC;2007-12-05 10:00;CYYC 051000Z 04004KT 6SM -SN FEW082 BKN100 OVC200 M17/M19 A3004 RMK AC2AC3CI1 SLP265

CYYC;2007-12-05 11:00;CYYC 051100Z 00000KT 6SM BR FEW090 SCT100 OVC140 M16/M18 A3003 RMK AC2AC2AC4 SLP263

CYYC;2007-12-05 12:00;CYYC 051200Z 33004KT 6SM BR OVC120 M16/M18 A3003 RMK AC8 SLP259

CYYC;2007-12-05 13:00;CYYC 051300Z 25005KT 7SM BKN018 OVC100 M15/M18 A3002 RMK SC6AC2 SLP256

CYYC;2007-12-05 14:00;CYYC 051400Z 35006KT 7SM OVC080 M15/M18 A3001 RMK AC7 SLP253

CYYC;2007-12-05 15:00;CYYC 051500Z 34004KT 7SM SCT059 OVC078 M15/M18 A2999 RMK SC3AC4 SLP247

CYYC;2007-12-05 16:00;CYYC 051600Z 35005KT 10SM SCT050 OVC062 M14/M17 A2999 RMK SC4SC3 SLP246

CYYC;2007-12-05 17:00;CYYC 051700Z 36009KT 15SM FEW050 OVC130 M14/M17 A2999 RMK SC2AC5 SLP247

CYYC;2007-12-05 18:00;CYYC 051800Z 35010KT 15SM FEW020 SCT065 OVC100 M13/M17 A2999 RMK SC2SC2AC4 SLP245

CYYC;2007-12-05 19:00;CYYC 051900Z 33007KT 15SM OVC023 M13/M16 A2998 RMK SC8 SLP242

CYYC;2007-12-05 19:05;CYYC 051905Z 31009KT 10SM -SN OVC024 M13/ RMK SC8

CYYC;2007-12-05 20:00;CYYC 052000Z 33006KT 1SM -SN FEW007 OVC018 M12/M12 A2997 RMK SC2SC6 SLP238

CYYC;2007-12-05 20:09;CYYC 052009Z 34007KT 1SM -SN VV005 M12/ RMK SN8 RVR RWY 34 5000FT

CYYC;2007-12-05 20:22;CYYC 052022Z 34006KT 2 1/2SM -SN OVC042 M12/ RMK SN2SC6

CYYC;2007-12-05 20:29;CYYC 052029Z 35005KT 1 1/2SM -SN VV012 M12/ RMK SN8 VIS 1 NE

CYYC;2007-12-05 20:36;CYYC 052036Z 35005KT 1SM -SN VV008 M12/ RMK SN8 RVR RWY 34 6000FT

CYYC;2007-12-05 21:00;CYYC 052100Z 35003KT 1SM -SN VV009 M12/M13 A2996 RMK SN8 RVR RWY 34 6000FT SLP234

CYYC;2007-12-05 21:16;CYYC 052116Z 34002KT 2 1/2SM -SN OVC025 M12/ RMK SN2SC6

CYYC;2007-12-05 22:00;CYYC 052200Z 00000KT 15SM -SN OVC051 M11/M13 A2994 RMK SC8 SLP228

CYYC;2007-12-05 23:00;CYYC 052300Z 36003KT 15SM -SN OVC043 M11/M13 A2995 RMK SC8 PCPN VRY LGT SLP233

CYYC;2007-12-06 00:00;CYYC 060000Z 36002KT 15SM -SN OVC048 M10/M13 A2995 RMK SC8 /S01/ SLP227

CYYC;2007-12-06 00:36;CYYC 060036Z 00000KT 15SM OVC049 M10/ RMK SC8

CYYC;2007-12-06 01:00;CYYC 060100Z 31002KT 15SM OVC052 M10/M12 A2996 RMK SC8 SLP228

CYYC;2007-12-06 02:00;CYYC 060200Z 32004KT 15SM OVC066 M09/M12 A2995 RMK AC8 SLP227

CYYC;2007-12-06 03:00;CYYC 060300Z 30004KT 15SM FEW060 OVC080 M08/M13 A2995 RMK SC2AC6 SLP222

CYYC;2007-12-06 04:00;CYYC 060400Z 32005KT 15SM BKN080 OVC100 M09/M13 A2994 RMK AC6AC2 SLP218

CYYC;2007-12-06 05:00;CYYC 060500Z 28002KT 15SM BKN090 BKN100 OVC140 M08/M14 A2992 RMK AC6AC2AC1 SLP213

CYYC;2007-12-06 06:00;CYYC 060600Z 00000KT 15SM FEW080 OVC095 M08/M14 A2991 RMK AC2AC6 SLP205

CYYC;2007-12-06 07:00;CYYC 060700Z 21002KT 15SM FEW080 OVC090 M08/M11 A2990 RMK AC2AC6 VIRGA S SLP202

CYYC;2007-12-06 08:00;CYYC 060800Z 20005KT 15SM OVC085 M09/M11 A2987 RMK AC8 SLP195

CYYC;2007-12-06 09:00;CYYC 060900Z 23005KT 15SM FEW080 OVC100 M08/M11 A2987 RMK AC2AC6 SLP190

CYYC;2007-12-06 10:00;CYYC 061000Z 00000KT 15SM OVC080 M08/M11 A2986 RMK AC8 SLP188

CYYC;2007-12-06 11:00;CYYC 061100Z 32004KT 15SM OVC075 M09/M11 A2985 RMK AC8 SLP185

CYYC;2007-12-06 12:00;CYYC 061200Z 22004KT 15SM BKN075 OVC095 M09/M11 A2985 RMK AC7AC1 SLP179

CYYC;2007-12-06 13:00;CYYC 061300Z 22003KT 15SM OVC085 M08/M11 A2984 RMK AC8 SLP177

CYYC;2007-12-06 14:00;CYYC 061400Z 27004KT 15SM FEW080 OVC090 M06/M14 A2984 RMK AC2AC6 SLP176

CYYC;2007-12-06 15:00;CYYC 061500Z 23002KT 15SM SCT076 BKN096 M07/M13 A2984 RMK AC2AC3 SLP170

CYYC;2007-12-06 16:00;CYYC 061600Z 25005KT 40SM FEW080 BKN093 M07/M13 A2984 RMK AC2AC4 SLP172

CYYC;2007-12-06 17:00;CYYC 061700Z 34004KT 30SM FEW080 BKN090 M09/M14 A2986 RMK AC1AC2 SLP178

CYYC;2007-12-06 18:00;CYYC 061800Z 34009KT 30SM BKN075 M07/M15 A2989 RMK AC4 SLP189

CYYC;2007-12-06 19:00;CYYC 061900Z 34009KT 40SM BKN075 M07/M15 A2988 RMK AC4 SLP188

CYYC;2007-12-06 20:00;CYYC 062000Z 34010KT 40SM FEW075 SCT085 M06/M16 A2988 RMK AC1AC1 SLP187

CYYC;2007-12-06 21:00;CYYC 062100Z 35007KT 40SM FEW085 M08/M16 A2988 RMK AC1 SLP187

CYYC;2007-12-06 22:00;CYYC 062200Z 34007KT 40SM FEW085 M06/M15 A2987 RMK AC1 SLP185

CYYC;2007-12-06 23:00;CYYC 062300Z 33005KT 40SM FEW085 M08/M16 A2989 RMK AC1 SLP190

CYYC;2007-12-07 00:00;CYYC 070000Z 30002KT 30SM FEW085 M08/M15 A2990 RMK AC1 SLP195

CYYC;2007-12-07 01:00;CYYC 070100Z 31004KT 15SM FEW085 M09/M17 A2991 RMK AC1 SLP197

CYYC;2007-12-07 02:00;CYYC 070200Z 03003KT 15SM SKC M14/M19 A2992 RMK SLP201

CYYC;2007-12-07 03:00;CYYC 070300Z 35003KT 15SM SKC M14/M19 A2993 RMK SLP212

CYYC;2007-12-07 04:00;CYYC 070400Z 30004KT 15SM SKC M12/M18 A2995 RMK SLP217

CYYC;2007-12-07 05:00;CYYC 070500Z 21004KT 15SM SKC M14/M18 A2996 RMK SLP220

CYYC;2007-12-07 06:00;CYYC 070600Z 21003KT 15SM SKC M15/M18 A2998 RMK SLP231

CYYC;2007-12-07 07:00;CYYC 070700Z 33005KT 15SM SKC M16/M19 A2999 RMK SLP234

CYYC;2007-12-07 08:00;CYYC 070800Z 32014KT 15SM SKC M12/M16 A2999 RMK SLP234

CYYC;2007-12-07 09:00;CYYC 070900Z 32012KT 15SM SKC M14/M17 A2999 RMK SLP233

CYYC;2007-12-07 10:00;CYYC 071000Z CCA 28003KT 15SM SKC M14/M16 A3000 RMK SLP237

CYYC;2007-12-07 11:00;CYYC 071100Z 23002KT 15SM SKC M16/M18 A3000 RMK SLP236

CYYC;2007-12-07 12:00;CYYC 071200Z 21002KT 15SM SKC M17/M17 A3000 RMK SNOW COVER/MUCH LOOSE SLP241

CYYC;2007-12-07 13:00;CYYC 071300Z 00000KT 15SM SKC M17/M19 A3000 RMK SLP242

CYYC;2007-12-07 14:00;CYYC 071400Z 18003KT 15SM SKC M18/M19 A3001 RMK SLP245

CYYC;2007-12-07 15:00;CYYC 071500Z 00000KT 40SM SKC M17/M19 A3003 RMK SLP260

CYYC;2007-12-07 16:00;CYYC 071600Z 19002KT 40SM SKC M17/M19 A3004 RMK SLP265

CYYC;2007-12-07 17:00;CYYC 071700Z 00000KT 40SM SKC M14/M17 A3006 RMK SLP270

CYYC;2007-12-07 18:00;CYYC 071800Z 00000KT 40SM SKC M10/M16 A3007 RMK SLP267

CYYC;2007-12-07 19:00;CYYC 071900Z 21004KT 40SM SKC M10/M15 A3006 RMK SLP266

CYYC;2007-12-07 20:00;CYYC 072000Z 21004KT 40SM SKC M08/M14 A3006 RMK SLP265

CYYC;2007-12-07 21:00;CYYC 072100Z 21004KT 40SM SKC M07/M14 A3006 RMK SLP259

CYYC;2007-12-07 22:00;CYYC 072200Z 22005KT 40SM SKC M08/M14 A3006 RMK SLP260

CYYC;2007-12-07 23:00;CYYC 072300Z 00000KT 40SM SKC M07/M14 A3008 RMK SLP264

CYYC;2007-12-08 00:00;CYYC 080000Z 00000KT 30SM SKC M10/M15 A3010 RMK SLP278

CYYC;2007-12-08 01:00;CYYC 080100Z 01002KT 15SM SKC M12/M15 A3011 RMK SLP283

CYYC;2007-12-08 02:00;CYYC 080200Z 29002KT 15SM SKC M15/M17 A3012 RMK SLP285

CYYC;2007-12-08 03:00;CYYC 080300Z 00000KT 15SM SKC M17/M19 A3013 RMK SLP302

CYYC;2007-12-08 04:00;CYYC 080400Z 32004KT 15SM SKC M18/M19 A3014 RMK SLP306

CYYC;2007-12-08 05:00;CYYC 080500Z 30003KT 15SM SKC M17/M18 A3016 RMK SLP310

CYYC;2007-12-08 06:00;CYYC 080600Z 00000KT 15SM SKC M16/M18 A3017 RMK SLP303

CYYC;2007-12-08 07:00;CYYC 080700Z 00000KT 15SM SKC M16/M17 A3017 RMK SLP305

CYYC;2007-12-08 08:00;CYYC 080800Z 01002KT 15SM SKC M20/M20 A3017 RMK SLP304

CYYC;2007-12-08 09:00;CYYC 080900Z 18003KT 15SM SKC M19/M21 A3017 RMK SLP303

CYYC;2007-12-08 10:00;CYYC 081000Z 20005KT 15SM SKC M18/M20 A3017 RMK SLP303

CYYC;2007-12-08 11:00;CYYC 081100Z 00000KT 15SM SKC M19/M20 A3017 RMK SLP304

CYYC;2007-12-08 12:00;CYYC 081200Z 23002KT 15SM SKC M18/M19 A3018 RMK SLP310

CYYC;2007-12-08 13:00;CYYC 081300Z 21004KT 15SM SKC M20/M21 A3018 RMK SLP311

CYYC;2007-12-08 14:00;CYYC 081400Z 20006KT 15SM SKC M20/M21 A3019 RMK SLP312

CYYC;2007-12-08 15:00;CYYC 081500Z 20004KT 40SM SKC M18/M20 A3019 RMK FROIN SLP325

CYYC;2007-12-08 16:00;CYYC 081600Z 20005KT 40SM FEW290 M18/M20 A3019 RMK CI1 SLP325

CYYC;2007-12-08 17:00;CYYC 081700Z 20005KT 40SM FEW290 M16/M18 A3020 RMK CI1 SLP326

CYYC;2007-12-08 18:00;CYYC 081800Z 20003KT 40SM FEW290 M12/M16 A3019 RMK CI1 SLP314

CYYC;2007-12-08 19:00;CYYC 081900Z 21007KT 40SM FEW290 M10/M16 A3015 RMK CI1 SLP303

CYYC;2007-12-08 20:00;CYYC 082000Z 21007KT 40SM SKC M08/M15 A3014 RMK SLP298

CYYC;2007-12-08 21:00;CYYC 082100Z 20005KT 40SM SKC M07/M14 A3012 RMK SLP286

CYYC;2007-12-08 22:00;CYYC 082200Z 21004KT 40SM FEW300 M06/M14 A3011 RMK CI1 SLP282

CYYC;2007-12-08 23:00;CYYC 082300Z 22005KT 40SM FEW140 M09/M16 A3011 RMK AC1 SLP281

CYYC;2007-12-09 00:00;CYYC 090000Z 24004KT 40SM FEW140 FEW260 M09/M15 A3010 RMK AC1CI1 SLP283

CYYC;2007-12-09 01:00;CYYC 090100Z 21004KT 20SM FEW140 M11/M16 A3010 RMK AC1 SLP281

CYYC;2007-12-09 02:00;CYYC 090200Z 32007KT 15SM SKC M12/M17 A3010 RMK SLP283

CYYC;2007-12-09 03:00;CYYC 090300Z 32007KT 15SM SCT200 M11/M17 A3010 RMK CI2 SLP285

CYYC;2007-12-09 04:00;CYYC 090400Z 32008KT 15SM SCT190 M12/M17 A3011 RMK AC2 SLP288

CYYC;2007-12-09 05:00;CYYC 090500Z 32006KT 15SM FEW190 M13/M17 A3010 RMK AC1 SLP283

CYYC;2007-12-09 06:00;CYYC 090600Z 00000KT 15SM SKC M13/M16 A3009 RMK SLP274

CYYC;2007-12-09 07:00;CYYC 090700Z 00000KT 15SM SKC M13/M17 A3008 RMK SLP272

CYYC;2007-12-09 08:00;CYYC 090800Z 19002KT 15SM SKC M13/M16 A3006 RMK SLP265

CYYC;2007-12-09 09:00;CYYC 090900Z CCB 24002KT 15SM SKC M14/M17 A3005 RMK SLP251

CYYC;2007-12-09 10:00;CYYC 091000Z 19004KT 15SM SKC M15/M17 A3002 RMK SLP242

CYYC;2007-12-09 11:00;CYYC 091100Z 22002KT 15SM SKC M15/M17 A2998 RMK SLP230

CYYC;2007-12-09 12:00;CYYC 091200Z CCA 00000KT 15SM SKC M16/M18 A2996 RMK SNOW COVER SLP227

CYYC;2007-12-09 13:00;CYYC 091300Z 18002KT 15SM BKN210 M14/M16 A2991 RMK CI5 SLP212

CYYC;2007-12-09 14:00;CYYC 091400Z 19003KT 15SM BKN180 M14/M17 A2990 RMK AC6 SLP207

CYYC;2007-12-09 15:00;CYYC 091500Z 32002KT 30SM BKN170 M14/M16 A2988 RMK AC7 SLP201

CYYC;2007-12-09 16:00;CYYC 091600Z 22002KT 40SM OVC140 M14/M16 A2987 RMK AC7 SLP199

CYYC;2007-12-09 17:00;CYYC 091700Z 22008KT 40SM SCT077 BKN140 OVC240 M06/M13 A2985 RMK AC3AS4CI1 SLP192

CYYC;2007-12-09 18:00;CYYC 091800Z 33007KT 30SM BKN069 OVC082 M02/M09 A2985 RMK AS6AC2 SLP174

CYYC;2007-12-09 19:00;CYYC 091900Z 29009KT 40SM BKN062 OVC075 00/M06 A2981 RMK SC6AS2 SLP162

CYYC;2007-12-09 20:00;CYYC 092000Z 34005KT 40SM FEW060 SCT080 SCT120 BKN240 M01/M06 A2979 RMK SC2AS1AC1CI0 SLP156

CYYC;2007-12-09 21:00;CYYC 092100Z 34005KT 40SM FEW060 SCT180 SCT240 M00/M08 A2977 RMK SC1AC1CI0 SLP146

CYYC;2007-12-09 22:00;CYYC 092200Z 12002KT 40SM FEW040 SCT140 BKN240 M01/M08 A2976 RMK SC1AC2CI1 SLP142

CYYC;2007-12-09 23:00;CYYC 092300Z 07005KT 40SM FEW065 FEW140 SCT240 M03/M08 A2975 RMK SC1AC2CI0 SLP141

CYYC;2007-12-10 00:00;CYYC 100000Z 02006KT 40SM BKN048 BKN080 BKN120 M04/M08 A2977 RMK SC5AC2AC1 SLP155

CYYC;2007-12-10 01:00;CYYC 100100Z 03007KT 40SM BKN041 BKN080 M03/M07 A2978 RMK SC6AC2 VIRGA SLP157

CYYC;2007-12-10 02:00;CYYC 100200Z 30003KT 15SM OVC040 M02/M08 A2979 RMK SC7 VIRGA SLP159

CYYC;2007-12-10 03:00;CYYC 100300Z 04004KT 15SM -SN OVC040 M03/M06 A2979 RMK SC7 VIS N-E 3 SLP158

CYYC;2007-12-10 04:00;CYYC 100400Z 35004KT 15SM -SN OVC040 M03/M06 A2980 RMK SC8 SLP159

CYYC;2007-12-10 04:40;CYYC 100440Z 34005KT 2 1/2SM -SN OVC025 M03/ RMK SC7 VIS S-W 15

CYYC;2007-12-10 05:00;CYYC 100500Z 34007KT 5SM -SN BKN025 OVC045 M03/M06 A2981 RMK SC6SC2 VIS S-W 15 SLP164

CYYC;2007-12-10 05:36;CYYC 100536Z 34008KT 1 1/2SM -SN BKN008 OVC020 M04/ RMK SC6SC2

CYYC;2007-12-10 06:00;CYYC 100600Z 33008KT 3/4SM -SN BKN003 OVC010 M04/M04 A2985 RMK SC6SC2 SLP165

CYYC;2007-12-10 06:18;CYYC 100618Z 31005KT 3SM -SN SCT015 OVC025 M04/ RMK SC3SC5

CYYC;2007-12-10 07:00;CYYC 100700Z CCA 31007KT 5SM -SN SCT025 OVC055 M05/M05 A2986 RMK SC3SC5 /S01/ SLP168

CYYC;2007-12-10 08:00;CYYC 100800Z 31011KT 5SM -SN FEW025 SCT055 BKN120 M04/M05 A2988 RMK SC2SC2AC2 SLP174

CYYC;2007-12-10 09:00;CYYC 100900Z 33013KT 15SM -SN FEW050 OVC120 M04/M06 A2991 RMK SC2AC6 SLP179

CYYC;2007-12-10 10:00;CYYC 101000Z 32012KT 15SM -SN FEW050 OVC160 M04/M06 A2993 RMK SC2AC6 SLP186

CYYC;2007-12-10 11:00;CYYC 101100Z 33011KT 15SM FEW060 SCT180 M06/M08 A2994 RMK SC1AC2 SLP190

CYYC;2007-12-10 12:00;CYYC 101200Z CCB 32009KT 15SM SCT040 OVC070 M05/M07 A2996 RMK SC3AC5 SNOW COVER/MUCH LOOSE /S01/ SLP205

CYYC;2007-12-10 12:38;CYYC 101238Z 32015KT 3SM -SN BKN030 OVC120 M04/ RMK SC6AC2

CYYC;2007-12-10 13:00;CYYC 101300Z 33017KT 2 1/2SM -SN SCT015 OVC030 M04/M06 A2998 RMK SC3SC5 SLP212

CYYC;2007-12-10 13:07;CYYC 101307Z 33016G21KT 1 1/2SM -SN BKN010 OVC020 M04/ RMK SC6SC2

CYYC;2007-12-10 13:11;CYYC 101311Z 34016KT 3/4SM -SN BKN007 OVC020 M05/ RMK SC6SC2

CYYC;2007-12-10 13:13;CYYC 101313Z CCA 34017KT 1/2SM SN BKN005 OVC015 M04/ RMK SC7SC1 RVR RWY34 5000FT

CYYC;2007-12-10 13:45;CYYC 101345Z 33016KT 1 1/2SM -SN BKN008 OVC015 M05/ RMK SC6SC2

CYYC;2007-12-10 14:00;CYYC 101400Z 34011G16KT 1 1/2SM -SN OVC015 M05/M05 A3002 RMK SC8 /S02/ SLP223

CYYC;2007-12-10 14:09;CYYC 101409Z 34018KT 5SM -SN BKN015 OVC040 M05/ RMK SC6SC2

CYYC;2007-12-10 15:00;CYYC 101500Z 34020G25KT 8SM -SN OVC038 M05/M07 A3005 RMK SC7 SLP235

CYYC;2007-12-10 15:24;CYYC 101524Z 35018G25KT 20SM OVC034 M05/ RMK SC8

CYYC;2007-12-10 16:00;CYYC 101600Z 34013G18KT 20SM BKN034 BKN060 OVC080 M05/M08 A3008 RMK SC5SC2AC1 SLP245

CYYC;2007-12-10 17:00;CYYC 101700Z 34014KT 20SM FEW034 BKN074 BKN130 M05/M08 A3012 RMK SC1AC2AC1 UPR AC TR SLP256

CYYC;2007-12-10 18:00;CYYC 101800Z 34010KT 20SM FEW028 FEW074 FEW220 M06/M09 A3013 RMK SC0AC1CI0 SLP267

CYYC;2007-12-10 19:00;CYYC 101900Z 35007KT 20SM FEW028 FEW220 M05/M08 A3015 RMK SC1CI1 SLP273

CYYC;2007-12-10 20:00;CYYC 102000Z 34012KT 30SM FEW028 FEW120 M04/M08 A3014 RMK SC1AC1 SLP268

CYYC;2007-12-10 21:00;CYYC 102100Z 01007KT 40SM FEW070 FEW120 M04/M08 A3014 RMK AC1AC1 SLP265

CYYC;2007-12-10 22:00;CYYC 102200Z 03003KT 40SM FEW080 M05/M10 A3014 RMK AC1 SLP265

CYYC;2007-12-10 23:00;CYYC 102300Z 09002KT 40SM FEW080 M05/M09 A3014 RMK AC1 SLP265

CYYC;2007-12-11 00:00;CYYC 110000Z 13006KT 30SM FEW080 FEW220 M07/M10 A3014 RMK AC1CI1 SLP273

CYYC;2007-12-11 01:00;CYYC 110100Z 20006KT 15SM SKC M09/M11 A3015 RMK SLP276

CYYC;2007-12-11 02:00;CYYC 110200Z 19006KT 15SM SKC M09/M11 A3014 RMK SLP271

CYYC;2007-12-11 03:00;CYYC 110300Z 19005KT 15SM SKC M09/M11 A3014 RMK SLP274

CYYC;2007-12-11 04:00;CYYC 110400Z 19007KT 15SM SKC M10/M12 A3012 RMK SLP270

CYYC;2007-12-11 05:00;CYYC 110500Z 22006KT 15SM SKC M11/M12 A3010 RMK SLP264

CYYC;2007-12-11 06:00;CYYC 110600Z 18002KT 15SM SKC M11/M12 A3009 RMK SLP262

CYYC;2007-12-11 07:00;CYYC 110700Z 00000KT 15SM SKC M12/M12 A3007 RMK SLP255

CYYC;2007-12-11 08:00;CYYC 110800Z 00000KT 15SM SKC M14/M14 A3006 RMK SLP251

CYYC;2007-12-11 09:00;CYYC 110900Z 20003KT 15SM FEW180 M15/M16 A3004 RMK AC1 AURBO SLP246

CYYC;2007-12-11 10:00;CYYC 111000Z 19006KT 15SM FEW160 FEW210 M13/M15 A3003 RMK AC1CC0 AURBO SLP245

CYYC;2007-12-11 11:00;CYYC 111100Z 21006KT 15SM FEW160 FEW210 M12/M15 A3001 RMK AC1CI0 SLP239

CYYC;2007-12-11 12:00;CYYC 111200Z CCA 20003KT 15SM BKN190 M10/M14 A3000 RMK AC1 SNOW COVER/MUCH LOOSE SLP230

CYYC;2007-12-11 13:00;CYYC 111300Z 00000KT 15SM BKN170 M09/M14 A2998 RMK AC1 SLP225

CYYC;2007-12-11 14:00;CYYC 111400Z 19003KT 15SM BKN150 M08/M13 A2996 RMK AC1 SLP218

CYYC;2007-12-11 15:00;CYYC 111500Z 00000KT 40SM BKN150 BKN260 M07/M13 A2994 RMK AC3CI0 SLP208

CYYC;2007-12-11 16:00;CYYC 111600Z CCA 19003KT 40SM BKN140 BKN260 M07/M12 A2993 RMK AC3CI0 SLP206

CYYC;2007-12-11 17:00;CYYC 111700Z 16002KT 40SM FEW130 BKN240 M07/M12 A2992 RMK AC0CI1 SLP202

CYYC;2007-12-11 18:00;CYYC 111800Z 19003KT 40SM FEW130 FEW220 BKN260 M03/M11 A2991 RMK AC1CI1CI0 SLP194

CYYC;2007-12-11 19:00;CYYC 111900Z 30003KT 40SM FEW130 BKN200 BKN260 M03/M11 A2988 RMK AC1CI4CI1 SLP186

CYYC;2007-12-11 20:00;CYYC 112000Z 27007KT 40SM FEW130 BKN220 BKN260 00/M10 A2986 RMK AC1CI1CI0 SLP180

CYYC;2007-12-11 21:00;CYYC 112100Z 22002KT 40SM FEW080 FEW130 FEW220 BKN260 02/M09 A2982 RMK AC1AC1CI1CI0 SLP163

CYYC;2007-12-11 22:00;CYYC 112200Z 28007KT 40SM FEW080 SCT130 BKN180 BKN260 03/M09 A2981 RMK AC1AC1AC3CI0 SLP159

CYYC;2007-12-11 23:00;CYYC 112300Z CCA 31002KT 40SM FEW080 FEW130 FEW180 BKN260 03/M08 A2979 RMK AC1AC1AC2CI0 SLP153

CYYC;2007-12-12 00:00;CYYC 120000Z 28009KT 40SM FEW080 FEW130 FEW180 BKN260 03/M07 A2979 RMK AC1AC1AC0CI0 SLP143

CYYC;2007-12-12 01:00;CYYC 120100Z 00000KT 15SM FEW062 FEW140 BKN260 01/M08 A2978 RMK SC1AC1CI0 SLP139

CYYC;2007-12-12 02:00;CYYC 120200Z 20008KT 15SM FEW070 BKN140 M01/M07 A2976 RMK AC1AC6 SLP134

CYYC;2007-12-12 03:00;CYYC 120300Z 19003KT 15SM FEW100 OVC140 00/M07 A2973 RMK AC1AC7 SLP120

CYYC;2007-12-12 04:00;CYYC 120400Z 22003KT 15SM BKN140 OVC170 01/M10 A2969 RMK AC5AC3 SLP109

CYYC;2007-12-12 05:00;CYYC 120500Z 24009KT 15SM FEW130 BKN160 OVC200 00/M06 A2964 RMK AC1AC6CI1 PRESFR SLP094

CYYC;2007-12-12 06:00;CYYC 120600Z 26020G25KT 15SM BKN160 BKN200 03/M06 A2962 RMK AC5CI2 SLP074

CYYC;2007-12-12 07:00;CYYC 120700Z 29019KT 15SM FEW160 FEW200 03/M06 A2963 RMK AC1CI0 SLP076

CYYC;2007-12-12 08:00;CYYC 120800Z 32012KT 15SM SKC 01/M07 A2961 RMK SLP071

CYYC;2007-12-12 09:00;CYYC 120900Z 29011G16KT 15SM BKN230 02/M07 A2962 RMK CI6 SLP067

CYYC;2007-12-12 10:00;CYYC 121000Z 28022G27KT 15SM BKN220 03/M07 A2961 RMK CI5 SLP063

CYYC;2007-12-12 11:00;CYYC 121100Z 29011G19KT 15SM SKC 00/M08 A2960 RMK SLP061

CYYC;2007-12-12 12:00;CYYC 121200Z 27022G29KT 15SM SKC 01/M09 A2959 RMK SNOW COVER/MUCH LOOSE SLP059

CYYC;2007-12-12 13:00;CYYC 121300Z 29012G19KT 15SM FEW250 M00/M10 A2963 RMK CI1 SLP069

CYYC;2007-12-12 14:00;CYYC 121400Z 30010G17KT 15SM OVC085 00/M10 A2965 RMK AC8 SLP076

CYYC;2007-12-12 15:00;CYYC 121500Z 28018KT 30SM BKN110 M00/M10 A2965 RMK AC7 VIRGA SLP086

CYYC;2007-12-12 16:00;CYYC 121600Z 28010G16KT 40SM FEW100 SCT120 BKN160 M01/M11 A2968 RMK AC1AC2AC2 SLP094

CYYC;2007-12-12 17:00;CYYC 121700Z 27023G28KT 40SM FEW100 SCT120 BKN160 M01/M11 A2971 RMK AC1AC2AC2 SLP102

CYYC;2007-12-12 18:00;CYYC 121800Z 27025G33KT 40SM FEW090 FEW120 BKN160 BKN240 M01/M11 A2973 RMK AC1AC1AC2CI0 SLP107

CYYC;2007-12-12 19:00;CYYC 121900Z 27027G34KT 40SM FEW080 FEW120 FEW170 SCT240 M00/M11 A2974 RMK AC1AC1AC0CI0 SLP109

CYYC;2007-12-12 20:00;CYYC 122000Z 27025G36KT 40SM FEW080 SCT170 00/M12 A2977 RMK AC1AC0 SLP118

CYYC;2007-12-12 21:00;CYYC 122100Z 26025G31KT 40SM BKN100 BKN170 M00/M11 A2979 RMK AC1AC0 SLP128

CYYC;2007-12-12 22:00;CYYC 122200Z 27018G28KT 40SM FEW100 FEW170 M00/M12 A2982 RMK AC1AC1 SLP139

CYYC;2007-12-12 23:00;CYYC 122300Z 27016G21KT 30SM FEW100 M01/M12 A2985 RMK AC1 SLP148

CYYC;2007-12-13 00:00;CYYC 130000Z 27016KT 40SM FEW100 M02/M12 A2989 RMK AC1 SLP169

CYYC;2007-12-13 01:00;CYYC 130100Z 28015KT 15SM FEW100 M03/M13 A2991 RMK AC1 SLP177

CYYC;2007-12-13 02:00;CYYC 130200Z 28017KT 15SM FEW100 M03/M13 A2993 RMK AC1 SLP183

CYYC;2007-12-13 03:00;CYYC 130300Z 27017KT 15SM SKC M03/M13 A2994 RMK SLP189

CYYC;2007-12-13 04:00;CYYC 130400Z 27017G24KT 15SM SKC M03/M13 A2995 RMK SLP193

CYYC;2007-12-13 05:00;CYYC 130500Z 27017KT 15SM SKC M03/M13 A2997 RMK SLP198

CYYC;2007-12-13 06:00;CYYC 130600Z 27016KT 15SM SKC M03/M13 A2998 RMK SLP204

CYYC;2007-12-13 07:00;CYYC 130700Z 26015KT 15SM SKC M04/M13 A2999 RMK SLP206

CYYC;2007-12-13 08:00;CYYC 130800Z 26015KT 15SM FEW250 M04/M13 A3000 RMK CI0 SLP209

CYYC;2007-12-13 09:00;CYYC 130900Z 26015KT 15SM BKN080 M04/M13 A3001 RMK AC5 SLP213

CYYC;2007-12-13 10:00;CYYC 131000Z 26013KT 15SM BKN085 M04/M13 A3002 RMK AC6 SLP217

CYYC;2007-12-13 11:00;CYYC 131100Z 27014KT 15SM OVC088 M03/M13 A3003 RMK AC8 SLP219

CYYC;2007-12-13 12:00;CYYC 131200Z 27017KT 15SM OVC085 M03/M13 A3002 RMK AC8 SNOW COVER/MUCH LOOSE SLP221

CYYC;2007-12-13 13:00;CYYC 131300Z CCA 27014G19KT 15SM OVC100 M03/M13 A3003 RMK AC6 SLP223

CYYC;2007-12-13 14:00;CYYC 131400Z 26012KT 15SM FEW088 M04/M13 A3003 RMK AC1 SLP222

CYYC;2007-12-13 15:00;CYYC 131500Z 26012KT 40SM FEW045 FEW090 SCT130 M04/M13 A3002 RMK CU1AC1AC2 SLP223

CYYC;2007-12-13 16:00;CYYC 131600Z 26012KT 40SM FEW045 FEW090 FEW120 FEW250 M05/M13 A3002 RMK CU1AC1AC1CI0 SLP223

CYYC;2007-12-13 17:00;CYYC 131700Z 26010KT 40SM FEW045 FEW090 FEW120 FEW250 M04/M13 A3002 RMK CU1AC1AC1CI0 SLP221

CYYC;2007-12-13 18:00;CYYC 131800Z 27012KT 40SM FEW045 BKN099 BKN250 M02/M12 A3002 RMK CU1AC3CI0 SLP219

CYYC;2007-12-13 19:00;CYYC 131900Z 27012KT 40SM FEW050 FEW075 BKN097 BKN250 M02/M12 A3000 RMK CU1AC1AC3CI1 SLP214

CYYC;2007-12-13 20:00;CYYC 132000Z 26010KT 40SM FEW050 BKN100 M01/M11 A2998 RMK CU1AC6 SLP206

CYYC;2007-12-13 21:00;CYYC 132100Z 27014G19KT 40SM FEW050 BKN097 M00/M11 A2996 RMK CU1AC5 SLP197

CYYC;2007-12-13 22:00;CYYC 132200Z 27011G16KT 40SM FEW052 BKN092 BKN210 M00/M11 A2995 RMK CU1AC5CI1 SLP195

CYYC;2007-12-13 23:00;CYYC 132300Z 27014KT 40SM FEW040 FEW092 FEW210 M01/M11 A2995 RMK SC1AC1CI1 SLP195

CYYC;2007-12-14 00:00;CYYC 140000Z 27013G18KT 40SM FEW044 FEW110 FEW210 SCT240 M02/M12 A2996 RMK SC1AC1CI1CI0 SLP198

CYYC;2007-12-14 01:00;CYYC 140100Z 27016KT 15SM FEW150 FEW210 M02/M12 A2996 RMK AC1CI1 SLP198

CYYC;2007-12-14 02:00;CYYC 140200Z 27011G19KT 15SM FEW130 FEW210 M03/M12 A2996 RMK AC1CI2 SLP199

CYYC;2007-12-14 03:00;CYYC 140300Z 27012KT 15SM FEW130 M03/M12 A2997 RMK AC2 SLP207

CYYC;2007-12-14 04:00;CYYC 140400Z 26012KT 15SM SKC M04/M12 A2997 RMK SLP205

CYYC;2007-12-14 05:00;CYYC 140500Z 27015KT 15SM SKC M03/M12 A2997 RMK SLP207

CYYC;2007-12-14 06:00;CYYC 140600Z 27014G19KT 15SM SKC M03/M12 A2998 RMK SLP205

CYYC;2007-12-14 07:00;CYYC 140700Z 27015KT 15SM SKC M03/M12 A2998 RMK SLP206

CYYC;2007-12-14 08:00;CYYC 140800Z 26013KT 15SM BKN090 M03/M12 A2997 RMK AC7 SLP204

CYYC;2007-12-14 09:00;CYYC 140900Z 30007KT 15SM FEW090 M04/M12 A2998 RMK AC1 SLP206

CYYC;2007-12-14 10:00;CYYC 141000Z 29009KT 15SM SKC M04/M12 A2999 RMK SLP209

CYYC;2007-12-14 11:00;CYYC 141100Z 00000KT 15SM FEW070 M05/M13 A3000 RMK AC1 SLP212

CYYC;2007-12-14 12:00;CYYC 141200Z 29003KT 15SM BKN085 M04/M13 A3000 RMK AC4 SNOW COVER/MUCH LOOSE SLP214

CYYC;2007-12-14 13:00;CYYC 141300Z 29011KT 15SM BKN080 M03/M11 A3001 RMK AC6 SLP216

CYYC;2007-12-14 14:00;CYYC 141400Z 28010KT 15SM BKN080 M02/M11 A3003 RMK AC7 SLP223

CYYC;2007-12-14 15:00;CYYC 141500Z 31004KT 30SM BKN080 M04/M10 A3004 RMK AC6 SLP229

CYYC;2007-12-14 16:00;CYYC 141600Z 31006KT 40SM SCT088 M03/M11 A3005 RMK AC2 SLP233

CYYC;2007-12-14 17:00;CYYC 141700Z 04003KT 40SM FEW090 M03/M12 A3006 RMK AC1 SLP235

CYYC;2007-12-14 18:00;CYYC 141800Z 01003KT 40SM FEW090 M03/M11 A3007 RMK AC1 SLP239

CYYC;2007-12-14 19:00;CYYC 141900Z 04003KT 40SM SKC M01/M09 A3006 RMK SLP237

CYYC;2007-12-14 20:00;CYYC 142000Z 20002KT 40SM SKC 01/M11 A3006 RMK SLP235

CYYC;2007-12-14 21:00;CYYC 142100Z 22003KT 40SM FEW240 02/M10 A3005 RMK CI1 SLP226

CYYC;2007-12-14 22:00;CYYC 142200Z 20005KT 40SM FEW070 M00/M09 A3005 RMK AC1 SLP225

CYYC;2007-12-14 23:00;CYYC 142300Z 18006KT 40SM FEW070 M03/M10 A3004 RMK AC1 SLP223

CYYC;2007-12-15 00:00;CYYC 150000Z 16006KT 30SM FEW070 M05/M11 A3003 RMK AC1 SLP229

CYYC;2007-12-15 01:00;CYYC 150100Z 18005KT 15SM SKC M05/M12 A3002 RMK SLP226

CYYC;2007-12-15 02:00;CYYC 150200Z 20003KT 15SM SKC M05/M11 A2999 RMK SLP219

CYYC;2007-12-15 03:00;CYYC 150300Z 19002KT 15SM SKC M07/M11 A2997 RMK SLP212

CYYC;2007-12-15 04:00;CYYC 150400Z 34003KT 15SM SKC M13/M15 A2995 RMK SLP206

CYYC;2007-12-15 05:00;CYYC 150500Z 32003KT 15SM SKC M13/M15 A2993 RMK SLP199

CYYC;2007-12-15 06:00;CYYC 150600Z 00000KT 15SM SKC M13/M15 A2991 RMK SLP199

CYYC;2007-12-15 07:00;CYYC 150700Z 20004KT 15SM SKC M12/M14 A2989 RMK SLP191

CYYC;2007-12-15 08:00;CYYC 150800Z 21007KT 15SM SKC M11/M14 A2985 RMK SLP181

CYYC;2007-12-15 09:00;CYYC 150900Z 20003KT 15SM SKC M11/M14 A2983 RMK SLP161

CYYC;2007-12-15 10:00;CYYC 151000Z 00000KT 15SM SKC M12/M15 A2980 RMK SLP152

CYYC;2007-12-15 11:00;CYYC 151100Z 00000KT 15SM SKC M12/M14 A2977 RMK SLP143

CYYC;2007-12-15 12:00;CYYC 151200Z CCB 20002KT 15SM FEW085 FEW170 M12/M14 A2974 RMK AC1AC1 SNOW COVER / MUCH LOOSE SLP140

CYYC;2007-12-15 13:00;CYYC 151300Z 19002KT 15SM FEW140 SCT180 BKN200 M11/M14 A2970 RMK AC2AC1CI2 SLP128

CYYC;2007-12-15 14:00;CYYC 151400Z 16002KT 15SM BKN081 BKN140 BKN240 M11/M14 A2967 RMK AC5AC1CI1 SLP119

CYYC;2007-12-15 15:00;CYYC 151500Z 19003KT 30SM FEW078 BKN110 M09/M12 A2965 RMK AC2AC6 SLP106

CYYC;2007-12-15 16:00;CYYC 151600Z 14005KT 40SM FEW075 OVC110 M08/M10 A2962 RMK AC2AC5 VIRGA SLP098

CYYC;2007-12-15 17:00;CYYC 151700Z 18004KT 40SM FEW070 BKN110 M06/M10 A2961 RMK AC2AC5 VIRGA SLP093

CYYC;2007-12-15 18:00;CYYC 151800Z 21008KT 30SM BKN082 BKN110 M03/M08 A2959 RMK AC6AC2 VIRGA SLP086

CYYC;2007-12-15 19:00;CYYC 151900Z 18005KT 40SM BKN085 BKN110 M01/M07 A2957 RMK AC5AC2 VIRGA SLP079

CYYC;2007-12-15 20:00;CYYC 152000Z 26014KT 40SM FEW080 BKN100 BKN120 03/M07 A2955 RMK AC1AC6AC2 VIRGA SLP075

CYYC;2007-12-15 21:00;CYYC 152100Z 25022KT 40SM FEW080 BKN120 BKN210 03/M07 A2953 RMK AC1AC5CI2 SLP054

CYYC;2007-12-15 22:00;CYYC 152200Z 26022G35KT 30SM FEW080 BKN140 BKN220 03/M08 A2954 RMK AC1AC3CI0 SLP055

CYYC;2007-12-15 23:00;CYYC 152300Z 26018KT 30SM FEW080 FEW140 SCT240 02/M09 A2955 RMK AC1AC2CI0 SLP058

CYYC;2007-12-16 00:00;CYYC 160000Z 25016KT 30SM FEW080 SCT140 BKN240 01/M10 A2957 RMK AC1AC2CI0 SLP071

CYYC;2007-12-16 01:00;CYYC 160100Z 25015KT 15SM FEW080 BKN140 01/M10 A2957 RMK AC1AC6 SLP072

CYYC;2007-12-16 02:00;CYYC 160200Z 26010KT 15SM BKN140 00/M10 A2957 RMK AC6 VIRGA SLP071

CYYC;2007-12-16 03:00;CYYC 160300Z 25011KT 15SM BKN140 M00/M10 A2959 RMK AC6 VIRGA SLP074

CYYC;2007-12-16 04:00;CYYC 160400Z 26013KT 15SM BKN130 01/M11 A2960 RMK AC5 VIRGA SLP078

CYYC;2007-12-16 05:00;CYYC 160500Z 27011KT 15SM BKN130 M00/M11 A2962 RMK AC3 SLP083

CYYC;2007-12-16 06:00;CYYC 160600Z 28009G15KT 15SM FEW130 M01/M11 A2963 RMK AC1 SLP080

CYYC;2007-12-16 07:00;CYYC 160700Z 27016KT 15SM SKC M00/M10 A2962 RMK SLP079

CYYC;2007-12-16 08:00;CYYC 160800Z 27018G28KT 15SM SKC 00/M10 A2963 RMK SLP082

CYYC;2007-12-16 09:00;CYYC 160900Z 27020G27KT 15SM SKC 01/M10 A2964 RMK SLP075

CYYC;2007-12-16 10:00;CYYC 161000Z 27019G30KT 15SM FEW012 M00/M10 A2966 RMK SF1 SLP080

CYYC;2007-12-16 11:00;CYYC 161100Z 27017KT 15SM FEW092 M00/M10 A2967 RMK AC1 SLP083

CYYC;2007-12-16 12:00;CYYC 161200Z 27016KT 15SM SKC M01/M10 A2967 RMK SNOW COVER / MUCH LOOSE SLP090

CYYC;2007-12-16 13:00;CYYC 161300Z 26018KT 15SM FEW130 M00/M10 A2967 RMK AC1 SLP090

CYYC;2007-12-16 14:00;CYYC 161400Z 27017KT 15SM FEW140 M00/M11 A2967 RMK AC1 SLP091

CYYC;2007-12-16 15:00;CYYC 161500Z 27013G18KT 40SM FEW080 FEW150 SCT220 M00/M11 A2968 RMK AC1AC1CI0 SLP096

CYYC;2007-12-16 16:00;CYYC 161600Z 27010G17KT 40SM FEW080 FEW150 FEW220 M01/M11 A2970 RMK AC1AC0CI0 SLP101

CYYC;2007-12-16 17:00;CYYC 161700Z 27015KT 40SM FEW080 FEW160 FEW250 01/M10 A2971 RMK AC1AC1CI0 SLP104

CYYC;2007-12-16 18:00;CYYC 161800Z 26013KT 40SM FEW080 FEW160 FEW250 02/M10 A2972 RMK AC1AC1CI1 SLP105

CYYC;2007-12-16 19:00;CYYC 161900Z 28010KT 40SM FEW080 FEW180 FEW250 03/M10 A2971 RMK AC1AC1CI1 SLP102

CYYC;2007-12-16 20:00;CYYC 162000Z 26008KT 40SM FEW080 FEW180 FEW250 04/M10 A2969 RMK AC1AC1CI1 SLP098

CYYC;2007-12-16 21:00;CYYC 162100Z 17006KT 40SM FEW080 FEW180 FEW250 04/M09 A2968 RMK AC1AC1CI0 SLP088

CYYC;2007-12-16 22:00;CYYC 162200Z 20006KT 40SM FEW080 FEW180 FEW250 03/M08 A2966 RMK AC1AC1CI0 SLP081

CYYC;2007-12-16 23:00;CYYC 162300Z 14005KT 30SM FEW080 FEW180 FEW250 01/M09 A2964 RMK AC1AC1CI0 SLP077

CYYC;2007-12-17 00:00;CYYC 170000Z 11002KT 30SM FEW080 FEW180 FEW250 M02/M09 A2963 RMK AC1AC1CI0 SLP081

CYYC;2007-12-17 01:00;CYYC 170100Z 27002KT 15SM BKN260 M02/M09 A2962 RMK CI0 SLP076

CYYC;2007-12-17 02:00;CYYC 170200Z 00000KT 15SM BKN260 M02/M08 A2960 RMK CI1 SLP071

CYYC;2007-12-17 03:00;CYYC 170300Z 20007KT 15SM BKN240 M05/M10 A2958 RMK CI2 SLP067

CYYC;2007-12-17 04:00;CYYC 170400Z 20007KT 15SM BKN240 M05/M10 A2956 RMK CI4 SLP062

CYYC;2007-12-17 05:00;CYYC 170500Z 20009KT 15SM BKN230 M05/M09 A2955 RMK CI5 SLP057

CYYC;2007-12-17 06:00;CYYC 170600Z 21007KT 15SM BKN230 M05/M10 A2952 RMK CI4 SLP044

CYYC;2007-12-17 07:00;CYYC 170700Z 20007KT 15SM BKN200 M06/M10 A2951 RMK CI4 SLP041

CYYC;2007-12-17 08:00;CYYC 170800Z 19005KT 15SM FEW130 SCT160 OVC200 M05/M10 A2948 RMK AC2AC2CI2 SLP032

CYYC;2007-12-17 09:00;CYYC 170900Z 20006KT 15SM OVC130 M05/M09 A2946 RMK AC8 SLP019

CYYC;2007-12-17 10:00;CYYC 171000Z 19006KT 15SM OVC130 M05/M09 A2945 RMK AC7 SLP017

CYYC;2007-12-17 11:00;CYYC 171100Z 19008KT 15SM OVC130 M04/M09 A2943 RMK AC7 SLP010

CYYC;2007-12-17 12:00;CYYC 171200Z 23008KT 15SM OVC130 M02/M09 A2943 RMK AC8 SNOW COVER/TRACE LOOSE SLP013

CYYC;2007-12-17 13:00;CYYC 171300Z 19006KT 15SM OVC080 M02/M07 A2939 RMK AC8 SLP999

CYYC;2007-12-17 14:00;CYYC 171400Z 21005KT 15SM OVC100 M03/M07 A2937 RMK AC8 SLP994

CYYC;2007-12-17 15:00;CYYC 171500Z 23009KT 30SM BKN160 M02/M08 A2936 RMK AC7 SLP992

CYYC;2007-12-17 16:00;CYYC 171600Z 17002KT 40SM FEW090 BKN160 BKN220 M02/M09 A2936 RMK AC1AC7CI1 SLP993

CYYC;2007-12-17 17:00;CYYC 171700Z 21007KT 40SM FEW090 BKN140 BKN220 M01/M08 A2938 RMK AC1AC7CI1 SLP998

CYYC;2007-12-17 18:00;CYYC 171800Z 27009KT 40SM FEW090 BKN140 02/M07 A2938 RMK AC1AC7 SLP992

CYYC;2007-12-17 19:00;CYYC 171900Z 23005KT 40SM FEW090 BKN140 01/M07 A2937 RMK AC1AC7 SLP991

CYYC;2007-12-17 20:00;CYYC 172000Z 24015KT 40SM FEW090 BKN170 03/M07 A2936 RMK AC1AC7 SLP987

CYYC;2007-12-17 21:00;CYYC 172100Z 26005KT 40SM FEW090 BKN180 03/M08 A2938 RMK AC1AC6 SLP991

CYYC;2007-12-17 22:00;CYYC 172200Z 22009KT 40SM FEW090 BKN180 02/M08 A2939 RMK AC1AC4 SLP996

CYYC;2007-12-17 23:00;CYYC 172300Z 23003KT 20SM FEW090 BKN190 03/M09 A2942 RMK AC1AC2 SLP004

CYYC;2007-12-18 00:00;CYYC 180000Z 25009KT 30SM FEW090 BKN190 00/M10 A2943 RMK AC1AC0 SLP012

CYYC;2007-12-18 01:00;CYYC 180100Z 25008KT 15SM FEW090 FEW190 M02/M11 A2945 RMK AC1AC0 SLP017

CYYC;2007-12-18 02:00;CYYC 180200Z 26012KT 15SM SKC M00/M10 A2947 RMK SLP023

CYYC;2007-12-18 03:00;CYYC 180300Z 27007KT 15SM FEW260 M01/M10 A2949 RMK CI0 SLP034

CYYC;2007-12-18 04:00;CYYC 180400Z 27010KT 15SM FEW260 M01/M11 A2951 RMK CI0 SLP040

CYYC;2007-12-18 05:00;CYYC 180500Z 23009KT 15SM BKN240 M04/M11 A2954 RMK CI2 SLP047

CYYC;2007-12-18 06:00;CYYC 180600Z 24003KT 15SM FEW180 BKN240 M04/M11 A2956 RMK AC1CI3 SLP053

CYYC;2007-12-18 07:00;CYYC 180700Z 21005KT 15SM FEW180 BKN240 M06/M11 A2957 RMK AC1CI3 SLP057

CYYC;2007-12-18 08:00;CYYC 180800Z 01002KT 15SM FEW180 BKN240 M06/M12 A2959 RMK AC2CI3 SLP063

CYYC;2007-12-18 09:00;CYYC 180900Z 19002KT 15SM SCT180 BKN240 M08/M12 A2961 RMK AC3CI3 SLP076

CYYC;2007-12-18 10:00;CYYC 181000Z 22003KT 15SM BKN180 BKN240 M06/M11 A2963 RMK AC5CI2 SLP081

CYYC;2007-12-18 11:00;CYYC 181100Z 03011G18KT 15SM BKN160 BKN210 M05/M10 A2966 RMK AC5CI2 WSHFT 1056 SLP091

CYYC;2007-12-18 12:00;CYYC 181200Z CCA 34005KT 15SM SCT160 BKN210 M07/M11 A2967 RMK AC2CI1 SNOW COVER/TRACE LOOSE SLP102

CYYC;2007-12-18 13:00;CYYC 181300Z 35005KT 15SM FEW160 M07/M12 A2968 RMK AC1 SLP104

CYYC;2007-12-18 14:00;CYYC 181400Z 34004KT 15SM SKC M09/M12 A2969 RMK SLP107

CYYC;2007-12-18 15:00;CYYC 181500Z CCA 00000KT 30SM FEW100 FEW180 BKN240 M10/M13 A2968 RMK AC1AC1CI0 SLP111

CYYC;2007-12-18 16:00;CYYC 181600Z 18003KT 40SM FEW100 FEW180 BKN240 M10/M12 A2968 RMK AC1AC1CI0 SLP109

CYYC;2007-12-18 17:00;CYYC 181700Z 23003KT 30SM FEW080 BKN200 BKN240 M07/M11 A2965 RMK AC1CI2CI0 SLP100

CYYC;2007-12-18 18:00;CYYC 181800Z CCA 18004KT 30SM FEW080 SCT180 BKN240 M05/M09 A2963 RMK AC1AC3CI0 SLP088

CYYC;2007-12-18 19:00;CYYC 181900Z 18007KT 40SM FEW080 SCT180 BKN250 M04/M08 A2960 RMK AC1AC2CI3 SLP079

CYYC;2007-12-18 20:00;CYYC 182000Z 13006KT 40SM FEW080 FEW120 SCT180 BKN240 M02/M09 A2956 RMK AC1AC1AC2CI0 SLP066

CYYC;2007-12-18 21:00;CYYC 182100Z 16005KT 20SM FEW080 FEW120 FEW180 SCT240 M01/M08 A2952 RMK AC1AC1AC1CI1 SLP051

CYYC;2007-12-18 22:00;CYYC 182200Z 15005KT 30SM FEW080 FEW120 FEW180 BKN220 M02/M07 A2949 RMK AC1AC1AC2CI2 SLP042

CYYC;2007-12-18 23:00;CYYC 182300Z 16009KT 40SM FEW080 FEW120 OVC200 M00/M05 A2945 RMK AC1AC1CI6 SLP032

CYYC;2007-12-19 00:00;CYYC 190000Z 17013KT 30SM FEW080 OVC180 00/M04 A2941 RMK AC1AC6 SLP009

CYYC;2007-12-19 01:00;CYYC 190100Z 17016KT 15SM OVC170 01/M04 A2939 RMK AC7 SLP003

CYYC;2007-12-19 02:00;CYYC 190200Z 17019G24KT 15SM OVC170 00/M04 A2935 RMK AC7 SLP991

CYYC;2007-12-19 03:00;CYYC 190300Z 18016KT 15SM BKN180 OVC240 M00/M05 A2931 RMK AC5CI2 SLP981

CYYC;2007-12-19 04:00;CYYC 190400Z 18012G17KT 15SM FEW180 SCT250 M01/M05 A2930 RMK AC2CI0 SLP977

CYYC;2007-12-19 05:00;CYYC 190500Z 24006KT 15SM FEW180 FEW250 M03/M06 A2930 RMK AC1CI0 SLP978

CYYC;2007-12-19 06:00;CYYC 190600Z 32006KT 15SM BKN180 OVC210 M05/M08 A2932 RMK AC6CI2 SLP983

CYYC;2007-12-19 07:00;CYYC 190700Z 00000KT 15SM BKN190 OVC210 M06/M08 A2932 RMK AC5CI2 SLP982

CYYC;2007-12-19 08:00;CYYC 190800Z 00000KT 15SM FEW190 FEW220 M07/M08 A2932 RMK AC1CI0 SLP982

CYYC;2007-12-19 09:00;CYYC 190900Z 00000KT 15SM SCT190 BKN220 M07/M09 A2932 RMK AC2CI2 SLP982

CYYC;2007-12-19 10:00;CYYC 191000Z 00000KT 15SM FEW190 FEW240 M09/M10 A2934 RMK AC1CI0 SLP986

CYYC;2007-12-19 11:00;CYYC 191100Z 01004KT 15SM FEW190 BKN240 M10/M12 A2935 RMK AC2CI2 SLP989

CYYC;2007-12-19 12:00;CYYC 191200Z 16003KT 15SM FEW190 OVC210 M09/M11 A2936 RMK AC2CI6 SNOW COVER/ TRACE LOOSE SLP993

CYYC;2007-12-19 13:00;CYYC 191300Z 23002KT 15SM BKN180 OVC210 M06/M09 A2936 RMK AC5CI2 SLP993

CYYC;2007-12-19 14:00;CYYC 191400Z 20008KT 15SM SCT085 BKN180 BKN210 M03/M07 A2936 RMK AC3AC2CI2 SLP994

CYYC;2007-12-19 15:00;CYYC 191500Z 20008KT 15SM FEW042 OVC093 M01/M07 A2936 RMK SC1AC8 SLP985

CYYC;2007-12-19 16:00;CYYC 191600Z 22005KT 30SM BKN093 OVC100 M01/M07 A2936 RMK AC6AC1 SLP986

CYYC;2007-12-19 17:00;CYYC 191700Z CCA 20006KT 30SM FEW045 OVC090 M01/M05 A2937 RMK SC1AC7 SH NW-N / CIG LWR N SLP988

CYYC;2007-12-19 18:00;CYYC 191800Z 22005KT 40SM FEW045 BKN092 OVC120 01/M04 A2937 RMK SC1AC6AC1 SH NE SLP992

CYYC;2007-12-19 19:00;CYYC 191900Z 23003KT 30SM FEW044 BKN087 BKN110 03/M03 A2938 RMK SC1AC6AC1 SH NE+SE SLP994

CYYC;2007-12-19 20:00;CYYC 192000Z 27008KT 40SM FEW044 BKN095 BKN190 BKN260 03/M05 A2938 RMK SC1AC5AC2CI0 SLP994

CYYC;2007-12-19 21:00;CYYC 192100Z 28009KT 40SM FEW044 FEW095 FEW180 SCT250 05/M05 A2937 RMK SC1AC2AC1CI1 SLP989

CYYC;2007-12-19 22:00;CYYC 192200Z 27007KT 30SM FEW042 FEW100 FEW250 05/M06 A2938 RMK SC1AC1CI1 SLP992

CYYC;2007-12-19 23:00;CYYC 192300Z 23004KT 20SM FEW100 FEW170 FEW240 03/M08 A2938 RMK AC1AC1CI0 SLP993

CYYC;2007-12-20 00:00;CYYC 200000Z 25004KT 20SM FEW220 BKN250 01/M09 A2939 RMK CI2CI1 SLP002

CYYC;2007-12-20 01:00;CYYC 200100Z 10003KT 15SM FEW180 BKN220 M03/M08 A2936 RMK AC2CI2 SLP995

CYYC;2007-12-20 02:00;CYYC 200200Z 15003KT 15SM FEW180 FEW220 M06/M09 A2935 RMK AC1CI1 SLP991

CYYC;2007-12-20 03:00;CYYC 200300Z 18002KT 15SM FEW220 M04/M09 A2934 RMK CI1 CI TR SLP985

CYYC;2007-12-20 04:00;CYYC 200400Z 20005KT 15SM FEW220 M06/M10 A2935 RMK CI1 CI TR SLP988

CYYC;2007-12-20 05:00;CYYC 200500Z 00000KT 15SM SKC M08/M11 A2935 RMK SLP987

CYYC;2007-12-20 06:00;CYYC 200600Z CCA 00000KT 15SM SKC M08/M10 A2935 RMK SLP988

CYYC;2007-12-20 07:00;CYYC 200700Z 19004KT 15SM FEW180 BKN240 M07/M10 A2934 RMK AC1CI2 SLP986

CYYC;2007-12-20 08:00;CYYC 200800Z 18006KT 15SM FEW200 FEW250 M09/M11 A2934 RMK CI1CI0 SLP985

CYYC;2007-12-20 09:00;CYYC 200900Z 00000KT 15SM FEW200 SCT250 M05/M09 A2933 RMK CI2CI0 SLP973

CYYC;2007-12-20 10:00;CYYC 201000Z 23012KT 15SM FEW180 SCT250 M04/M09 A2933 RMK AC2CI0 SLP973

CYYC;2007-12-20 11:00;CYYC 201100Z 24013KT 15SM FEW180 SCT250 M02/M08 A2933 RMK AC2CI0 SLP973

CYYC;2007-12-20 12:00;CYYC 201200Z 24013KT 15SM FEW180 FEW240 M03/M08 A2932 RMK AC1CI0 SNOW COVER/ TRACE LOOSE SLP969

CYYC;2007-12-20 13:00;CYYC 201300Z 25009KT 15SM FEW180 FEW240 M02/M09 A2931 RMK AC1CI0 SLP968

CYYC;2007-12-20 14:00;CYYC 201400Z 27008KT 15SM FEW180 M02/M09 A2931 RMK AC1 AC TR SLP966

CYYC;2007-12-20 15:00;CYYC 201500Z 22004KT 15SM FEW180 FEW210 M03/M10 A2931 RMK AC1CI1 SLP976

CYYC;2007-12-20 16:00;CYYC 201600Z 19013KT 40SM FEW120 FEW180 FEW230 M06/M09 A2933 RMK AC1AC1CI0 SLP982

CYYC;2007-12-20 17:00;CYYC 201700Z 23014KT 40SM FEW050 FEW120 SCT230 M03/M08 A2934 RMK SC1AC2CI1 SLP984

CYYC;2007-12-20 18:00;CYYC 201800Z 22010KT 40SM FEW050 FEW170 BKN240 M02/M09 A2933 RMK SC1AC2CI2 SLP986

CYYC;2007-12-20 19:00;CYYC 201900Z 22011KT 40SM FEW050 FEW170 BKN240 M01/M08 A2935 RMK SC1AC2CI1 SLP993

CYYC;2007-12-20 20:00;CYYC 202000Z 31005KT 40SM FEW050 FEW180 BKN220 02/M08 A2939 RMK CU1AC2CI2 SLP003

CYYC;2007-12-20 21:00;CYYC 202100Z 27012G19KT 30SM FEW045 FEW180 FEW220 04/M09 A2939 RMK SC1AC1CI2 SLP995

CYYC;2007-12-20 22:00;CYYC 202200Z 27015G21KT 40SM FEW046 SCT140 BKN220 03/M08 A2942 RMK SC1AC1CI2 SLP003

CYYC;2007-12-20 23:00;CYYC 202300Z 27012KT 30SM FEW044 BKN140 BKN220 03/M09 A2944 RMK SC1AC3CI1 SLP010

CYYC;2007-12-21 00:00;CYYC 210000Z 28012KT 20SM FEW043 BKN150 BKN220 01/M09 A2947 RMK SC1AC2CI1 SLP022

CYYC;2007-12-21 02:00;CYYC 210200Z 01017G31KT 15SM FEW058 BKN081 BKN100 M04/M07 A2964 RMK SC1AC5AC1 PRESRR SLP073

CYYC;2007-12-21 03:00;CYYC 210300Z 01019KT 15SM FEW015 BKN033 OVC080 M06/M08 A2969 RMK SF1SC4AC3 SLP111

CYYC;2007-12-21 03:41;CYYC 210341Z 01018KT 15SM -SN FEW017 BKN034 OVC100 M06/ RMK SF1SC4AC3

CYYC;2007-12-21 04:00;CYYC 210400Z 01015KT 10SM -SN FEW016 BKN041 OVC100 M07/M08 A2972 RMK SC2SC5AC2 SLP121

CYYC;2007-12-21 05:00;CYYC 210500Z 01015KT 7SM -SN SCT020 OVC088 M07/M09 A2975 RMK SC4AC3 SLP130

CYYC;2007-12-21 06:00;CYYC 210600Z 36007KT 15SM -SN FEW017 SCT042 BKN100 M09/M10 A2980 RMK SC1SC2AC2 SLP151

CYYC;2007-12-21 06:25;CYYC 210625Z 33004KT 15SM FEW016 SCT050 BKN100 M10/ RMK SC1SC1AC1

CYYC;2007-12-21 07:00;CYYC 210700Z 36004KT 15SM FEW017 BKN053 BKN080 M10/M11 A2984 RMK SC2SC4AC2 SLP163

CYYC;2007-12-21 07:56;CYYC 210756Z 02012KT 7SM -SN BKN013 BKN019 OVC038 M09/ RMK SC5SC2SC1

CYYC;2007-12-21 08:00;CYYC 210800Z 03016KT 7SM -SN BKN013 BKN020 OVC037 M10/M12 A2986 RMK SC5SC2SC1 SLP171

CYYC;2007-12-21 09:00;CYYC 210900Z 35007KT 9SM -SN FEW014 OVC034 M11/M13 A2991 RMK SC1SC7 SLP184

CYYC;2007-12-21 10:00;CYYC 211000Z 34002KT 10SM -SN BKN031 OVC040 M11/M13 A2995 RMK SC6SC2 SLP195

CYYC;2007-12-21 11:00;CYYC 211100Z 36003KT 10SM -SN OVC025 M11/M13 A2997 RMK SC8 SLP202

CYYC;2007-12-21 11:28;CYYC 211128Z 00000KT 15SM OVC025 11/ RMK SC8

CYYC;2007-12-21 12:00;CYYC 211200Z CCA 00000KT 15SM OVC024 M11/M14 A2998 RMK SC8 SNOW COVER/ TRACE LOOSE SLP214

CYYC;2007-12-21 13:00;CYYC 211300Z 00000KT 15SM OVC020 M11/M14 A3000 RMK SC8 SLP218

CYYC;2007-12-21 14:00;CYYC 211400Z 15005KT 15SM FEW016 SCT022 M12/M15 A3002 RMK SC1SC1 SLP224

CYYC;2007-12-21 15:00;CYYC 211500Z 18005KT 15SM FEW010 M15/M16 A3003 RMK CF1 SLP245

CYYC;2007-12-21 16:00;CYYC 211600Z 19004KT 40SM FEW016 M13/M15 A3005 RMK SC1 CF ASOCTD SLP251

CYYC;2007-12-21 17:00;CYYC 211700Z 20004KT 40SM FEW017 M12/M14 A3007 RMK SC1 SLP258

CYYC;2007-12-21 18:00;CYYC 211800Z 19009KT 40SM FEW220 M10/M14 A3007 RMK CI1 SLP259

CYYC;2007-12-21 19:00;CYYC 211900Z 19006KT 40SM SKC M08/M13 A3007 RMK SLP258

CYYC;2007-12-21 20:00;CYYC 212000Z 23002KT 40SM SKC M07/M13 A3007 RMK SLP257

CYYC;2007-12-21 21:00;CYYC 212100Z 00000KT 40SM SKC M06/M13 A3007 RMK SLP255

CYYC;2007-12-21 22:00;CYYC 212200Z 00000KT 40SM FEW240 M06/M14 A3007 RMK CI1 SLP255

CYYC;2007-12-21 23:00;CYYC 212300Z 05002KT 40SM FEW240 M08/M15 A3010 RMK CI1 SLP262

CYYC;2007-12-22 00:00;CYYC 220000Z 08003KT 40SM FEW250 M12/M15 A3010 RMK CI1 SLP275

CYYC;2007-12-22 01:00;CYYC 220100Z 00000KT 15SM FEW250 M13/M14 A3012 RMK CI1 SLP279

CYYC;2007-12-22 02:00;CYYC 220200Z 00000KT 15SM SKC M14/M15 A3013 RMK SLP283

CYYC;2007-12-22 03:00;CYYC 220300Z CCA 19002KT 15SM SKC M14/M14 A3013 RMK SLP292

CYYC;2007-12-22 04:00;CYYC 220400Z 00000KT 15SM SKC M17/M19 A3013 RMK SLP293

CYYC;2007-12-22 05:00;CYYC 220500Z 00000KT 15SM SKC M17/M19 A3013 RMK SLP291

CYYC;2007-12-22 06:00;CYYC 220600Z 20005KT 15SM SKC M15/M16 A3012 RMK SLP285

CYYC;2007-12-22 07:00;CYYC 220700Z 21005KT 15SM SKC M15/M16 A3012 RMK SLP284

CYYC;2007-12-22 08:00;CYYC 220800Z 21005KT 15SM SKC M15/M18 A3010 RMK SLP278

CYYC;2007-12-22 09:00;CYYC 220900Z 22005KT 15SM SKC M15/M17 A3010 RMK SLP269

CYYC;2007-12-22 10:00;CYYC 221000Z 21005KT 15SM BKN230 M15/M17 A3009 RMK CI1 SLP267

CYYC;2007-12-22 11:00;CYYC 221100Z 19006KT 15SM FEW210 SCT250 M15/M18 A3007 RMK CI2CI0 SLP260

CYYC;2007-12-22 12:00;CYYC 221200Z CCA 21005KT 15SM FEW210 SCT250 M15/M18 A3003 RMK CI2CI0 SNOW COVER/ TRACE LOOSE SLP255

CYYC;2007-12-22 13:00;CYYC 221300Z 20006KT 15SM FEW210 FEW250 M16/M18 A3002 RMK CI1CI0 SLP251

CYYC;2007-12-22 14:00;CYYC 221400Z 19006KT 15SM FEW240 M16/M18 A2999 RMK CI1 CI TR SLP244

CYYC;2007-12-22 15:00;CYYC 221500Z 19006KT 40SM SCT220 M15/M18 A2996 RMK CI2 SLP233

CYYC;2007-12-22 16:00;CYYC 221600Z 18004KT 40SM BKN220 M15/M17 A2994 RMK CI2 SLP227

CYYC;2007-12-22 17:00;CYYC 221700Z 17005KT 40SM BKN220 M12/M16 A2993 RMK CI4 SLP223

CYYC;2007-12-22 18:00;CYYC 221800Z 18004KT 40SM FEW040 SCT160 BKN220 M11/M16 A2990 RMK SC1AC3CI3 SLP210

CYYC;2007-12-22 19:00;CYYC 221900Z 18007KT 40SM FEW040 BKN160 BKN220 M09/M14 A2987 RMK SC1AC4CI1 SLP201

CYYC;2007-12-22 20:00;CYYC 222000Z 17007KT 30SM FEW040 SCT150 BKN220 M07/M13 A2983 RMK SC1AC3CI2 SLP186

CYYC;2007-12-22 21:00;CYYC 222100Z 18005KT 40SM FEW030 SCT150 BKN200 M07/M13 A2979 RMK SC1AC3CI3 ACSL SLP163

CYYC;2007-12-22 22:00;CYYC 222200Z 19006KT 30SM FEW030 SCT150 BKN240 M07/M12 A2976 RMK SC1AC4CI2 ACSL SLP154

CYYC;2007-12-22 23:00;CYYC 222300Z 18006KT 40SM FEW030 SCT140 BKN230 M07/M12 A2973 RMK SC1AC2CI1 SLP146

CYYC;2007-12-23 00:00;CYYC 230000Z 16008KT 40SM FEW030 SCT120 BKN200 M06/M11 A2970 RMK SC1AC2CI1 SLP133

CYYC;2007-12-23 01:00;CYYC 230100Z 13006KT 20SM FEW030 SCT120 BKN230 M04/M10 A2967 RMK SC1AC2CI1 SLP123

CYYC;2007-12-23 01:48;CYYC 230148Z 26026G34KT 15SM SCT120 BKN210 02/ RMK AC3CI3 WSHFT 0135Z

CYYC;2007-12-23 02:00;CYYC 230200Z 26024G34KT 15SM SCT120 BKN210 02/M08 A2964 RMK AC3CI4 SLP112

CYYC;2007-12-23 03:00;CYYC 230300Z 25028G34KT 15SM FEW085 BKN130 OVC220 02/M09 A2965 RMK AC1AC5CI2 SLP102

CYYC;2007-12-23 04:00;CYYC 230400Z 26028G38KT 15SM FEW085 BKN130 OVC220 01/M10 A2970 RMK AC1AC5CI2 SLP117

CYYC;2007-12-23 05:00;CYYC 230500Z 25019G26KT 15SM FEW090 BKN140 OVC220 01/M10 A2972 RMK AC1AC6CI2 SLP125

CYYC;2007-12-23 06:00;CYYC 230600Z 27019G25KT 15SM BKN130 OVC220 01/M11 A2974 RMK AC6CI2 SLP131

CYYC;2007-12-23 07:00;CYYC 230700Z 28014KT 15SM BKN086 BKN130 00/M11 A2977 RMK AC6AC2 SLP139

CYYC;2007-12-23 08:00;CYYC 230800Z 30011KT 15SM FEW090 FEW130 M01/M12 A2979 RMK AC1AC1 SLP146

CYYC;2007-12-23 09:00;CYYC 230900Z 28013KT 15SM SCT080 BKN150 M01/M11 A2983 RMK AC2AC1 SLP156

CYYC;2007-12-23 10:00;CYYC 231000Z 27017G22KT 15SM FEW085 FEW150 M00/M11 A2986 RMK AC1AC1 SLP166

CYYC;2007-12-23 11:00;CYYC 231100Z 27016G21KT 15SM FEW100 M00/M11 A2988 RMK AC1 SLP174

CYYC;2007-12-23 12:00;CYYC 231200Z CCA 27020G25KT 15SM FEW100 00/M11 A2991 RMK AC1 SNOW COVER/ TRACE LOOSE SLP182

CYYC;2007-12-23 13:00;CYYC 231300Z 27015G20KT 15SM FEW140 M00/M11 A2992 RMK AC1 AC TR SLP185

CYYC;2007-12-23 14:00;CYYC 231400Z 25011G16KT 15SM SKC M01/M11 A2992 RMK SLP186

CYYC;2007-12-23 15:00;CYYC 231500Z 26012KT 40SM FEW250 M01/M11 A2992 RMK CI1 SLP177

CYYC;2007-12-23 16:00;CYYC 231600Z 25007KT 40SM FEW040 SCT240 M01/M11 A2991 RMK CU1CI0 SLP174

CYYC;2007-12-23 17:00;CYYC 231700Z 23008KT 40SM FEW040 BKN220 00/M10 A2992 RMK CU1CI1 SLP176

CYYC;2007-12-23 18:00;CYYC 231800Z 19006KT 40SM FEW040 FEW180 BKN200 M00/M10 A2991 RMK CU1AC2CI5 SLP175

CYYC;2007-12-23 19:00;CYYC 231900Z 20011KT 40SM FEW040 FEW100 BKN200 01/M09 A2987 RMK CF1AC1CI6 SLP162

CYYC;2007-12-23 20:00;CYYC 232000Z 17008KT 40SM FEW040 BKN180 OVC200 01/M10 A2979 RMK SC1AC5CI2 PRESFR SLP137

CYYC;2007-12-23 21:00;CYYC 232100Z 19002KT 40SM FEW036 BKN170 OVC200 00/M08 A2977 RMK SC1AC6CI2 SLP126

CYYC;2007-12-23 22:00;CYYC 232200Z 21004KT 40SM FEW032 BKN120 OVC250 00/M07 A2977 RMK SC1AC7CI0 ACSL ASOCTD SLP125

CYYC;2007-12-23 23:00;CYYC 232300Z 20002KT 40SM FEW032 BKN120 OVC250 00/M08 A2972 RMK SC1AC7CI1 SLP110

CYYC;2007-12-24 00:00;CYYC 240000Z 22008KT 40SM FEW030 BKN110 BKN160 OVC240 M00/M08 A2969 RMK SC1AC5AC2CI1 SLP097

CYYC;2007-12-24 01:00;CYYC 240100Z 21007KT 15SM FEW026 BKN180 OVC220 M02/M07 A2964 RMK SC1AC6CI2 SLP084

CYYC;2007-12-24 02:00;CYYC 240200Z 24007KT 15SM BKN140 OVC240 M00/M08 A2962 RMK AC6CI2 SLP076

CYYC;2007-12-24 03:00;CYYC 240300Z 27006KT 15SM BKN140 M00/M08 A2962 RMK AC5 SLP073

CYYC;2007-12-24 04:00;CYYC 240400Z 27005KT 15SM SCT140 BKN230 01/M08 A2959 RMK AC3CI1 SLP064

CYYC;2007-12-24 05:00;CYYC 240500Z 23002KT 15SM FEW140 BKN230 00/M08 A2957 RMK AC2CI1 SLP060

CYYC;2007-12-24 06:00;CYYC 240600Z 00000KT 15SM FEW140 BKN230 M02/M08 A2959 RMK AC2CI1 SLP064

CYYC;2007-12-24 07:00;CYYC 240700Z 30008KT 15SM FEW140 OVC230 02/M06 A2959 RMK AC1CI0 SLP065

CYYC;2007-12-24 08:00;CYYC 240800Z 29004KT 15SM FEW140 OVC230 01/M06 A2960 RMK AC2CI0 SLP069

CYYC;2007-12-24 09:00;CYYC 240900Z 29018G24KT 15SM FEW140 BKN200 OVC230 02/M06 A2958 RMK AC1CI1CI1 SLP055

CYYC;2007-12-24 10:00;CYYC 241000Z 30010G20KT 15SM FEW140 BKN200 OVC230 03/M07 A2958 RMK AC1CI1CI1 SLP055

CYYC;2007-12-24 11:00;CYYC 241100Z 24017G22KT 15SM BKN230 01/M07 A2957 RMK CI2 SLP051

CYYC;2007-12-24 12:00;CYYC 241200Z CCA 27019G28KT 15SM FEW240 01/M08 A2958 RMK CI0 SNOW COVER/TRACE LOOSE SLP058

CYYC;2007-12-24 13:00;CYYC 241300Z 32014KT 15SM FEW240 M01/M09 A2962 RMK CI1 SLP069

CYYC;2007-12-24 14:00;CYYC 241400Z 32008KT 15SM FEW240 M03/M08 A2962 RMK CI1 SLP070

CYYC;2007-12-24 15:00;CYYC 241500Z 00000KT 15SM SCT130 M03/M09 A2966 RMK AC4 SLP092

CYYC;2007-12-24 16:00;CYYC 241600Z CCA 27015KT 40SM FEW080 SCT140 00/M08 A2967 RMK AC1AC2 SLP094

CYYC;2007-12-24 17:00;CYYC 241700Z 28013G18KT 40SM FEW060 BKN086 BKN140 02/M09 A2970 RMK SC1AC4AC2 SLP104

CYYC;2007-12-24 18:00;CYYC 241800Z 29011KT 40SM FEW060 BKN100 01/M09 A2973 RMK SC2AC5 SLP113

CYYC;2007-12-24 19:00;CYYC 241900Z 29015KT 40SM FEW065 FEW140 FEW220 03/M10 A2973 RMK SC1AC2CI1 CI TR SLP111

CYYC;2007-12-24 20:00;CYYC 242000Z 27019G24KT 40SM FEW065 SCT140 BKN220 03/M10 A2973 RMK SC1AC3CI3 SLP112

CYYC;2007-12-24 21:00;CYYC 242100Z 27017G25KT 40SM FEW065 SCT100 BKN240 03/M10 A2974 RMK SC1AC2CI2 SLP108

CYYC;2007-12-24 22:00;CYYC 242200Z 27018G25KT 40SM FEW065 BKN140 BKN240 02/M11 A2976 RMK SC1AC5CI1 SLP113

CYYC;2007-12-24 23:00;CYYC 242300Z 27017G22KT 40SM FEW080 SCT140 BKN240 01/M11 A2980 RMK AC1AC2CI2 SLP125

CYYC;2007-12-25 00:00;CYYC 250000Z 27017G22KT 40SM FEW085 BKN100 BKN240 01/M12 A2982 RMK AC1AC5CI2 SLP142

CYYC;2007-12-25 01:00;CYYC 250100Z 27018G24KT 15SM BKN093 BKN240 01/M11 A2985 RMK AC6CI1 SLP150

CYYC;2007-12-25 02:00;CYYC 250200Z CCA 27019KT 15SM OVC090 01/M11 A2986 RMK AC7 VIRGA SLP155

CYYC;2007-12-25 03:00;CYYC 250300Z 27019G27KT 15SM OVC100 01/M11 A2988 RMK AC7 VIRGA SLP167

CYYC;2007-12-25 04:00;CYYC 250400Z 28018G24KT 15SM BKN085 01/M11 A2991 RMK AC6 VIRGA SLP176

CYYC;2007-12-25 05:00;CYYC 250500Z 27019KT 15SM BKN085 00/M11 A2992 RMK AC6 VIRGA ALQDS SLP179

CYYC;2007-12-25 06:00;CYYC 250600Z 27017G22KT 15SM BKN085 00/M11 A2995 RMK AC6 VIRGA ALQDS SLP185

CYYC;2007-12-25 07:00;CYYC 250700Z 27017KT 15SM BKN090 00/M11 A2998 RMK AC6 VIRGA ALQDS SLP193

CYYC;2007-12-25 08:00;CYYC 250800Z 28013KT 15SM BKN075 00/M11 A2999 RMK AC6 SLP196

CYYC;2007-12-25 09:00;CYYC 250900Z 27013G18KT 15SM OVC075 00/M11 A3000 RMK AC7 SLP201

CYYC;2007-12-25 10:00;CYYC 251000Z 27013KT 15SM OVC070 00/M11 A3002 RMK AC7 SLP208

CYYC;2007-12-25 11:00;CYYC 251100Z 27011KT 15SM OVC070 00/M11 A3004 RMK AC8 SLP212

CYYC;2007-12-25 12:00;CYYC 251200Z CCA 27012KT 15SM OVC070 00/M11 A3004 RMK AC8 SNOW COVER/TRACE LOOSE SLP218

CYYC;2007-12-25 13:00;CYYC 251300Z 27010G15KT 15SM OVC070 00/M11 A3004 RMK AC8 SLP218

CYYC;2007-12-25 14:00;CYYC 251400Z 00000KT 15SM OVC074 M01/M11 A3004 RMK AC8 SLP219

CYYC;2007-12-25 15:00;CYYC 251500Z 04003KT 20SM BKN075 M03/M11 A3002 RMK AC7 SLP216

CYYC;2007-12-25 16:00;CYYC 251600Z 22006KT 40SM FEW043 FEW075 M04/M12 A3002 RMK CU1AC2 SLP216

CYYC;2007-12-25 17:00;CYYC 251700Z 18005KT 40SM FEW043 FEW076 FEW260 M04/M10 A3002 RMK CU1AC1CI1 SLP214

CYYC;2007-12-25 18:00;CYYC 251800Z 18006KT 40SM FEW076 FEW260 M00/M11 A2999 RMK AC1CI0 SLP202

CYYC;2007-12-25 19:00;CYYC 251900Z 18007KT 40SM BKN260 00/M12 A2995 RMK CI1 SLP190

CYYC;2007-12-25 20:00;CYYC 252000Z 14004KT 40SM BKN260 00/M12 A2991 RMK CI2 SLP177

CYYC;2007-12-25 21:00;CYYC 252100Z 16006KT 40SM OVC230 M00/M11 A2987 RMK CI5 SLP161

CYYC;2007-12-25 22:00;CYYC 252200Z 19004KT 40SM BKN160 OVC230 M02/M09 A2985 RMK AC5CI2 SLP155

CYYC;2007-12-25 23:00;CYYC 252300Z 16004KT 40SM BKN140 OVC210 M03/M09 A2983 RMK AC6CI1 SLP149

CYYC;2007-12-26 00:00;CYYC 260000Z 18003KT 40SM BKN190 OVC240 M04/M09 A2982 RMK AC6CI1 SLP148

CYYC;2007-12-26 01:00;CYYC 260100Z 00000KT 15SM BKN170 OVC240 M04/M09 A2979 RMK AC6CI1 SLP138

CYYC;2007-12-26 02:00;CYYC 260200Z 00000KT 15SM BKN120 OVC150 M07/M10 A2976 RMK AC6AC2 SLP129

CYYC;2007-12-26 03:00;CYYC 260300Z 23004KT 15SM OVC150 M04/M09 A2974 RMK AC8 SLP126

CYYC;2007-12-26 04:00;CYYC 260400Z 18003KT 15SM OVC160 M05/M08 A2972 RMK AC8 SLP119

CYYC;2007-12-26 05:00;CYYC 260500Z 22002KT 15SM OVC130 M06/M09 A2970 RMK AC8 SLP113

CYYC;2007-12-26 06:00;CYYC 260600Z 22003KT 15SM OVC130 M05/M11 A2969 RMK AC8 SLP105

CYYC;2007-12-26 07:00;CYYC 260700Z 00000KT 15SM OVC110 M05/M12 A2966 RMK AC8 SLP097

CYYC;2007-12-26 08:00;CYYC 260800Z 32002KT 15SM BKN140 BKN160 OVC210 M06/M12 A2965 RMK AC5AS2CS2 SLP095

CYYC;2007-12-26 09:00;CYYC 260900Z 27006KT 15SM BKN097 BKN160 OVC210 M02/M12 A2964 RMK AC5AS2CS2 SLP084

CYYC;2007-12-26 10:00;CYYC 261000Z 28005KT 15SM BKN110 OVC220 M02/M12 A2963 RMK AC7CI1 SLP080

CYYC;2007-12-26 11:00;CYYC 261100Z 27014G22KT 15SM BKN110 OVC220 M02/M12 A2961 RMK AC7CI1 SLP073

CYYC;2007-12-26 12:00;CYYC 261200Z 31008KT 15SM SCT085 OVC110 M02/M13 A2961 RMK AC3AC5 SNOW COVER/ TRACE LOOSE SLP077

CYYC;2007-12-26 13:00;CYYC 261300Z 29015G21KT 15SM BKN089 OVC110 M02/M12 A2962 RMK AC6AC2 SLP079

CYYC;2007-12-26 14:00;CYYC 261400Z 29015G21KT 15SM BKN110 OVC140 M02/M13 A2963 RMK AC6AC2 SLP082

CYYC;2007-12-26 15:00;CYYC 261500Z 30011G18KT 15SM SCT082 OVC120 M02/M10 A2964 RMK AC3AC4 SLP091

CYYC;2007-12-26 16:00;CYYC 261600Z 30011G17KT 15SM SCT068 BKN120 OVC200 M03/M07 A2968 RMK AC4AC2CI1 SLP101

CYYC;2007-12-26 17:00;CYYC 261700Z 30011G17KT 15SM FEW024 BKN030 BKN083 OVC120 M03/M07 A2969 RMK SC2SC3AC2AC1 SH S-SW SLP106

CYYC;2007-12-26 17:20;CYYC 261720Z 30012G18KT 10SM -SN FEW024 BKN027 OVC083 M03/ RMK SC1SC6AC1

CYYC;2007-12-26 18:00;CYYC 261800Z 30013KT 10SM -SN FEW020 BKN035 OVC083 M03/M06 A2971 RMK SF1SC7AC1 SLP116

CYYC;2007-12-26 19:00;CYYC 261900Z 30011G17KT 3SM -SN FEW013 OVC035 M04/M06 A2970 RMK SF1SC8 SLP114

CYYC;2007-12-26 20:00;CYYC 262000Z 30014KT 3SM -SN FEW012 OVC038 M04/M05 A2970 RMK SF1SC8 VIS SW-W 11/2 SLP115

CYYC;2007-12-26 20:27;CYYC 262027Z 30013KT 1 1/2SM -SN OVC013 M04/ RMK SC8 VIS SW-NW 3/4

CYYC;2007-12-26 21:00;CYYC 262100Z 31011KT 1 1/2SM -SN OVC012 OVC020 M04/M05 A2971 RMK SC7SC1 VIS W 3/4 SLP114

CYYC;2007-12-26 22:00;CYYC 262200Z 31009KT 2SM -SN OVC014 M04/M05 A2973 RMK SC8 SLP118

CYYC;2007-12-26 22:09;CYYC 262209Z 32011KT 3SM -SN OVC018 M04/ RMK SC8

CYYC;2007-12-26 23:00;CYYC 262300Z 31009KT 4SM -SN OVC026 M04/M05 A2974 RMK SC8 SLP123

CYYC;2007-12-27 00:00;CYYC 270000Z 31011KT 6SM -SN OVC034 M04/M05 A2975 RMK SC8 SLP128

CYYC;2007-12-27 01:00;CYYC 270100Z 31011KT 3SM -SN OVC026 M04/M05 A2977 RMK SC8 SLP132

CYYC;2007-12-27 02:00;CYYC 270200Z 31010KT 3SM -SN OVC019 M04/M06 A2977 RMK SC8 SLP132

CYYC;2007-12-27 03:00;CYYC 270300Z 31010KT 3SM -SN BKN026 OVC044 M04/M05 A2978 RMK SC6SC2 SLP137

CYYC;2007-12-27 04:00;CYYC 270400Z 31009KT 4SM -SN BKN041 OVC070 M05/M06 A2978 RMK SC6AS1 SLP138

CYYC;2007-12-27 05:00;CYYC 270500Z 31013KT 4SM -SN BKN034 OVC051 M05/M06 A2979 RMK SC5SC3 SLP140

CYYC;2007-12-27 06:00;CYYC 270600Z 31012KT 4SM -SN BKN025 OVC049 M05/M06 A2980 RMK SC6SC2 /S01/ SLP147

CYYC;2007-12-27 07:00;CYYC 270700Z 31012G18KT 4SM -SN DRSN SCT016 OVC031 M05/M06 A2981 RMK SC3SC5 SLP151

CYYC;2007-12-27 08:00;CYYC 270800Z 31012KT 4SM -SN DRSN BKN027 OVC051 M05/M06 A2981 RMK SC6SC2 SLP151

CYYC;2007-12-27 09:00;CYYC 270900Z 30013KT 4SM -SN DRSN BKN021 OVC047 M05/M06 A2982 RMK SC6SC2 SLP157

CYYC;2007-12-27 10:00;CYYC 271000Z 30011KT 5SM -SN SCT043 OVC073 M06/M07 A2983 RMK SC4AC4 SLP160

CYYC;2007-12-27 11:00;CYYC 271100Z 31011KT 15SM -SN FEW030 OVC073 M06/M08 A2983 RMK SC2AC5 SLP160

CYYC;2007-12-27 11:10;CYYC 271110Z 31011KT 15SM FEW038 OVC076 M06/ RMK SC2AC5

CYYC;2007-12-27 12:00;CYYC 271200Z CCA 29008KT 15SM FEW061 OVC076 M06/M08 A2983 RMK SC2AS5 /S01/ SNOW COVER/ MUCH LOOSE SLP159

CYYC;2007-12-27 13:00;CYYC 271300Z 30009KT 15SM SCT056 BKN090 OVC180 M07/M09 A2982 RMK SC3AC3AC1 SLP157

CYYC;2007-12-27 14:00;CYYC 271400Z 29006KT 15SM FEW060 BKN079 OVC096 M07/M09 A2981 RMK SC2AC4AC1 SLP155

CYYC;2007-12-27 15:00;CYYC 271500Z 30006KT 40SM FEW060 FEW080 FEW250 M08/M11 A2981 RMK SC1AC1CI0 SLP156

CYYC;2007-12-27 16:00;CYYC 271600Z 28006KT 40SM FEW060 FEW078 BKN250 M09/M12 A2981 RMK SC1AC2CI2 SLP156

CYYC;2007-12-27 17:00;CYYC 271700Z 29004KT 40SM FEW012 SCT065 BKN080 M08/M12 A2981 RMK SC1SC3AC3 VIRGA SE-S SLP156

CYYC;2007-12-27 18:00;CYYC 271800Z 31006KT 40SM FEW065 FEW080 FEW250 M05/M11 A2980 RMK SC1AC1CI0 SLP151

CYYC;2007-12-27 19:00;CYYC 271900Z 30006KT 40SM FEW032 FEW060 FEW160 M04/M13 A2978 RMK CU1SC1AC1 SLP143

CYYC;2007-12-27 20:00;CYYC 272000Z 31007KT 40SM FEW036 FEW140 FEW250 M03/M12 A2976 RMK CU1AC1CI1 SLP139

CYYC;2007-12-27 21:00;CYYC 272100Z 32008KT 40SM FEW036 FEW055 FEW180 M03/M13 A2974 RMK SC1SC1AC1 SLP129

CYYC;2007-12-27 22:00;CYYC 272200Z 34005KT 40SM FEW058 FEW140 FEW250 M04/M12 A2973 RMK SC1AC1CI1 SLP126

CYYC;2007-12-27 23:00;CYYC 272300Z 02002KT 40SM FEW036 FEW140 FEW250 M06/M13 A2973 RMK SC1AC1CI1 SLP126

CYYC;2007-12-28 00:00;CYYC 280000Z 31007KT 40SM FEW032 FEW250 M07/M16 A2973 RMK CU1CI1 SLP130

CYYC;2007-12-28 01:00;CYYC 280100Z 19006KT 15SM FEW250 M09/M16 A2971 RMK CI1 SLP126

CYYC;2007-12-28 02:00;CYYC 280200Z 00000KT 15SM SKC M10/M16 A2970 RMK SLP122

CYYC;2007-12-28 03:00;CYYC 280300Z CCA 36003KT 15SM SKC M13/M17 A2969 RMK SLP127

CYYC;2007-12-28 04:00;CYYC 280400Z 00000KT 15SM SKC M14/M17 A2967 RMK SLP122

CYYC;2007-12-28 05:00;CYYC 280500Z 00000KT 15SM SKC M14/M17 A2965 RMK SLP116

CYYC;2007-12-28 06:00;CYYC 280600Z 36004KT 15SM SKC M17/M19 A2964 RMK SLP113

CYYC;2007-12-28 07:00;CYYC 280700Z 00000KT 15SM SKC M17/M19 A2963 RMK SLP110

CYYC;2007-12-28 08:00;CYYC 280800Z 34002KT 15SM BKN150 BKN220 M17/M19 A2961 RMK AC3CI2 SLP102

CYYC;2007-12-28 09:00;CYYC 280900Z 00000KT 15SM BKN140 BKN220 M16/M18 A2960 RMK AC4CI1 SLP092

CYYC;2007-12-28 10:00;CYYC 281000Z 00000KT 15SM BKN140 BKN220 M15/M17 A2959 RMK AC5CI2 SLP090

CYYC;2007-12-28 11:00;CYYC 281100Z 23003KT 15SM BKN160 BKN220 M14/M16 A2957 RMK AC5CI2 SLP085

CYYC;2007-12-28 12:00;CYYC 281200Z 00000KT 15SM BKN160 OVC240 M13/M16 A2956 RMK AC5CI1 SNOW COVER/ MUCH LOOSE SLP083

CYYC;2007-12-28 13:00;CYYC 281300Z 00000KT 15SM BKN170 OVC220 M14/M16 A2955 RMK AC5CI2 SLP079

CYYC;2007-12-28 14:00;CYYC 281400Z 00000KT 15SM BKN180 OVC230 M14/M16 A2954 RMK AC5CI2 SLP077

CYYC;2007-12-28 15:00;CYYC 281500Z 25003KT 15SM FEW100 BKN140 M13/M16 A2954 RMK AC1AC5 SLP085

CYYC;2007-12-28 16:00;CYYC 281600Z 00000KT 40SM FEW120 BKN180 M15/M17 A2953 RMK AC2AC1 SLP082

CYYC;2007-12-28 17:00;CYYC 281700Z 16002KT 40SM FEW140 M12/M15 A2955 RMK AC1 SLP086

CYYC;2007-12-28 18:00;CYYC 281800Z 00000KT 40SM FEW100 BKN250 M07/M13 A2955 RMK AC1CI0 SLP082

CYYC;2007-12-28 19:00;CYYC 281900Z 00000KT 40SM FEW042 FEW140 FEW230 BKN260 M06/M13 A2953 RMK SC2AC1CI1CI0 SLP076

CYYC;2007-12-28 20:00;CYYC 282000Z 00000KT 40SM FEW050 BKN062 BKN120 BKN220 M04/M12 A2951 RMK SC1SC4AC2CI0 SLP072

CYYC;2007-12-28 21:00;CYYC 282100Z 18002KT 40SM FEW060 SCT078 BKN130 BKN240 M04/M12 A2950 RMK SC1AC3AC2CI1 SLP061

CYYC;2007-12-28 22:00;CYYC 282200Z 19005KT 40SM FEW036 FEW080 BKN240 M03/M12 A2950 RMK CU1AC2CI0 SLP059

CYYC;2007-12-28 23:00;CYYC 282300Z 19005KT 40SM FEW032 FEW082 BKN250 M07/M13 A2950 RMK CU1AC2CI0 SLP059

CYYC;2007-12-29 00:00;CYYC 290000Z 11002KT 40SM FEW024 FEW082 FEW250 M08/M14 A2950 RMK CU1AC1CI0 SLP064

CYYC;2007-12-29 01:00;CYYC 290100Z 19005KT 15SM FEW075 FEW140 FEW250 M09/M13 A2950 RMK AC1AC1CI0 SLP063

CYYC;2007-12-29 02:00;CYYC 290200Z 25003KT 15SM BKN075 BKN140 M07/M13 A2950 RMK AC6AC0 SLP062

CYYC;2007-12-29 03:00;CYYC 290300Z 21002KT 15SM BKN078 BKN140 BKN220 M09/M14 A2949 RMK AC5AC1CI1 SLP061

CYYC;2007-12-29 04:00;CYYC 290400Z 00000KT 15SM FEW080 SCT140 SCT240 M07/M14 A2950 RMK AC1AC1CI0 SLP062

CYYC;2007-12-29 05:00;CYYC 290500Z 00000KT 15SM FEW080 FEW140 M08/M14 A2949 RMK AC1AC1 SLP061

CYYC;2007-12-29 06:00;CYYC 290600Z 34004KT 15SM BKN130 M08/M14 A2949 RMK AC4 SLP048

CYYC;2007-12-29 07:00;CYYC 290700Z 34008KT 15SM BKN150 M09/M14 A2949 RMK AC6 SLP049

CYYC;2007-12-29 08:00;CYYC 290800Z 00000KT 15SM BKN130 OVC160 M09/M14 A2949 RMK AC6AC1 SLP049

CYYC;2007-12-29 09:00;CYYC 290900Z 00000KT 15SM BKN150 OVC220 M10/M14 A2950 RMK AC6CI1 SLP050

CYYC;2007-12-29 10:00;CYYC 291000Z 33008KT 15SM BKN130 OVC210 M08/M13 A2951 RMK AC6CI1 SLP053

CYYC;2007-12-29 11:00;CYYC 291100Z 32006KT 15SM BKN100 OVC180 M10/M14 A2950 RMK AC6AC1 SLP052

CYYC;2007-12-29 12:00;CYYC 291200Z 31004KT 15SM SCT110 BKN240 M10/M14 A2951 RMK AC2CI1 SNOW COVER/ MUCH LOOSE SLP060

CYYC;2007-12-29 13:00;CYYC 291300Z 32005KT 15SM BKN130 BKN240 M10/M14 A2951 RMK AC5CI1 SLP061

CYYC;2007-12-29 14:00;CYYC 291400Z 30007KT 15SM BKN110 BKN240 M09/M14 A2951 RMK AC3CI1 SLP061

CYYC;2007-12-29 15:00;CYYC 291500Z 00000KT 30SM FEW100 BKN250 M09/M14 A2951 RMK AC1CI0 SLP060

CYYC;2007-12-29 16:00;CYYC 291600Z 20003KT 40SM FEW100 FEW250 M09/M14 A2952 RMK AC1CI0 SLP062

CYYC;2007-12-29 17:00;CYYC 291700Z 19003KT 40SM FEW080 FEW160 M09/M13 A2953 RMK AC1AC1 SLP067

CYYC;2007-12-29 18:00;CYYC 291800Z 30002KT 40SM FEW080 FEW160 M05/M13 A2954 RMK AC1AC1 SLP062

CYYC;2007-12-29 19:00;CYYC 291900Z 20004KT 40SM FEW080 FEW110 M02/M12 A2953 RMK AC1AC0 SLP059

CYYC;2007-12-29 20:00;CYYC 292000Z 29011KT 40SM FEW080 FEW110 M01/M12 A2953 RMK AC1AC1 SLP059

CYYC;2007-12-29 21:00;CYYC 292100Z 31010KT 40SM FEW080 FEW110 M01/M13 A2952 RMK AC1AC1 SLP053

CYYC;2007-12-29 22:00;CYYC 292200Z 36009KT 40SM FEW080 FEW120 SCT250 M02/M11 A2952 RMK AC1AC1CI0 SLP053

CYYC;2007-12-29 23:00;CYYC 292300Z 08004KT 30SM FEW080 SCT130 M04/M13 A2954 RMK AC1AC0 SLP058

CYYC;2007-12-30 00:00;CYYC 300000Z CCA 21003KT 30SM FEW080 BKN120 M04/M14 A2954 RMK AC1AC1 SLP066

CYYC;2007-12-30 01:00;CYYC 300100Z 16004KT 15SM SCT120 M05/M13 A2954 RMK AC0 SLP065

CYYC;2007-12-30 02:00;CYYC 300200Z 19005KT 15SM SKC M08/M14 A2953 RMK SLP062

CYYC;2007-12-30 03:00;CYYC 300300Z 20003KT 15SM SKC M07/M14 A2952 RMK SLP059

CYYC;2007-12-30 04:00;CYYC 300400Z 20006KT 15SM SKC M11/M17 A2950 RMK SLP055

CYYC;2007-12-30 05:00;CYYC 300500Z 18003KT 15SM FEW240 M09/M16 A2949 RMK CI1 SLP050

CYYC;2007-12-30 06:00;CYYC 300600Z 00000KT 15SM SKC M11/M16 A2948 RMK SLP048

CYYC;2007-12-30 07:00;CYYC 300700Z 00000KT 15SM FEW170 M13/M17 A2948 RMK AC1 SLP048

CYYC;2007-12-30 08:00;CYYC 300800Z 00000KT 15SM BKN140 M12/M16 A2947 RMK AC5 SLP044

CYYC;2007-12-30 09:00;CYYC 300900Z 00000KT 15SM FEW140 BKN180 M14/M17 A2946 RMK AC2AC3 SLP040

CYYC;2007-12-30 10:00;CYYC 301000Z 07003KT 15SM SCT087 BKN170 M14/M17 A2946 RMK AC4AC2 SLP039

CYYC;2007-12-30 11:00;CYYC 301100Z 01003KT 15SM BKN080 M13/M16 A2946 RMK AC6 SLP039

CYYC;2007-12-30 12:00;CYYC 301200Z CCA 03003KT 15SM BKN077 M13/M16 A2947 RMK AC5 SNOW COVER/MUCH LOOSE SLP046

CYYC;2007-12-30 13:00;CYYC 301300Z CCA 03002KT 15SM FEW078 BKN140 M09/M14 A2948 RMK AC2AC1 VIRGA S-W SLP048

CYYC;2007-12-30 14:00;CYYC 301400Z 32004KT 15SM BKN094 M10/M15 A2949 RMK AC6 VIRGA S-W SLP052

CYYC;2007-12-30 15:00;CYYC 301500Z 32003KT 15SM FEW095 BKN160 M08/M13 A2951 RMK AC1AC2 SLP054

CYYC;2007-12-30 16:00;CYYC 301600Z 00000KT 30SM BKN095 BKN160 M09/M14 A2953 RMK AC2AC1 SLP061

CYYC;2007-12-30 17:00;CYYC 301700Z 01005KT 40SM BKN085 BKN160 M09/M12 A2957 RMK AC4AC2 SLP073

CYYC;2007-12-30 18:00;CYYC 301800Z 32006KT 40SM BKN085 BKN160 BKN240 M07/M12 A2960 RMK AC4AC1CI0 SLP091

CYYC;2007-12-30 19:00;CYYC 301900Z 31007KT 40SM BKN085 BKN160 BKN240 M05/M12 A2960 RMK AC2AC2CI0 VIRGA SLP093

CYYC;2007-12-30 20:00;CYYC 302000Z 34007KT 40SM FEW080 FEW160 BKN260 M05/M12 A2962 RMK AC1AC2CI0 SLP098

CYYC;2007-12-30 21:00;CYYC 302100Z 35008KT 40SM FEW080 BKN120 BKN260 M05/M13 A2964 RMK AC1AC5CI0 SLP109

CYYC;2007-12-30 22:00;CYYC 302200Z 36009KT 30SM FEW080 BKN140 BKN260 M06/M13 A2967 RMK AC1AC3CI0 VIRGA SLP117

CYYC;2007-12-30 23:00;CYYC 302300Z 34009KT 30SM FEW080 SCT140 BKN260 M08/M14 A2971 RMK AC1AC1CI0 SLP128

CYYC;2007-12-31 00:00;CYYC 310000Z 35008KT 30SM FEW080 SCT140 BKN230 M11/M15 A2974 RMK AC1AC2CI0 SLP149

CYYC;2007-12-31 01:00;CYYC 310100Z 34006KT 15SM BKN080 BKN140 M10/M14 A2977 RMK AC2AC2 SLP159

CYYC;2007-12-31 02:00;CYYC 310200Z 36006KT 15SM BKN080 BKN100 M10/M14 A2981 RMK AC3AC2 SLP170

CYYC;2007-12-31 03:00;CYYC 310300Z 36004KT 15SM -SN BKN030 OVC080 M10/M13 A2984 RMK SC2AC4 SLP175

CYYC;2007-12-31 04:00;CYYC 310400Z 32002KT 3SM -SN BKN020 OVC040 M09/M11 A2987 RMK SC2SC5 SLP184

CYYC;2007-12-31 05:00;CYYC 310500Z 31003KT 3SM -SN BKN030 OVC060 M09/M11 A2990 RMK SC4SC3 SLP193

CYYC;2007-12-31 05:26;CYYC 310526Z 36004KT 2 1/2SM -SN BKN010 OVC020 M09/ RMK SC3SC5

CYYC;2007-12-31 06:00;CYYC 310600Z 04002KT 3SM -SN BKN025 OVC050 M09/M10 A2993 RMK SC4SC3 SLP205

CYYC;2007-12-31 07:00;CYYC 310700Z 00000KT 5SM -SN BKN040 OVC075 M10/M10 A2995 RMK SC4AC3 SLP211

CYYC;2007-12-31 08:00;CYYC 310800Z 36004KT 5SM -SN BKN040 OVC080 M10/M11 A2997 RMK SC4AC3 SLP218

CYYC;2007-12-31 09:00;CYYC 310900Z 33003KT 8SM -SN OVC080 M10/M11 A3001 RMK AC7 SLP229

CYYC;2007-12-31 10:00;CYYC 311000Z 34003KT 15SM BKN080 M10/M11 A3004 RMK AC6 SLP240

CYYC;2007-12-31 11:00;CYYC 311100Z 00000KT 15SM BKN090 M11/M12 A3004 RMK AC6 SLP240

CYYC;2007-12-31 12:00;CYYC 311200Z CCA 00000KT 15SM FEW040 BKN080 BKN140 M11/M12 A3008 RMK CU1AC5AC1 SNOW COVER/TRACE LOOSE SLP267

CYYC;2007-12-31 13:00;CYYC 311300Z 31002KT 15SM SCT080 M14/M14 A3011 RMK AC3 SLP275

CYYC;2007-12-31 14:00;CYYC 311400Z 00000KT 15SM BKN077 M13/M13 A3014 RMK AC6 SLP284

CYYC;2007-12-31 15:00;CYYC 311500Z 26002KT 30SM BKN068 BKN120 M12/M13 A3016 RMK AC2AC1 SLP293

CYYC;2007-12-31 16:00;CYYC 311600Z 31003KT 40SM BKN077 BKN120 M12/M14 A3019 RMK AC2AC1 SLP302

CYYC;2007-12-31 17:00;CYYC 311700Z 00000KT 40SM BKN078 BKN120 M12/M14 A3023 RMK AC2AC1 SLP312

CYYC;2007-12-31 18:00;CYYC 311800Z 00000KT 40SM FEW078 FEW120 M09/M11 A3026 RMK AC1AC1 SLP321

CYYC;2007-12-31 19:00;CYYC 311900Z 30003KT 40SM FEW080 M07/M11 A3026 RMK AC1 SLP324

CYYC;2007-12-31 20:00;CYYC 312000Z 31005KT 40SM FEW080 M06/M11 A3028 RMK AC1 SLP328

CYYC;2007-12-31 21:00;CYYC 312100Z 35004KT 40SM FEW080 FEW230 M06/M12 A3025 RMK AC1CI1 SLP314

CYYC;2007-12-31 22:00;CYYC 312200Z 04002KT 40SM FEW080 FEW230 M05/M11 A3030 RMK AC1CI1 SLP331

CYYC;2007-12-31 23:00;CYYC 312300Z 05002KT 30SM FEW080 SCT230 M08/M12 A3032 RMK AC1CI1 SLP338

