CYYG;2012-01-01 07:00;CYYG 010700Z 32007KT 1/4SM R03/1800FT/N FG VV002 04/04 A2961 RMK FG8 SLP029

CYYG;2012-01-01 08:00;CYYG 010800Z 33013KT 3/4SM R03/P6000FT/U BR OVC003 03/03 A2959 RMK SF8 SLP023

CYYG;2012-01-01 08:13;CYYG 010813Z 32012G19KT 3/8SM R03/4500VP6000FT/D FG VV002 03/ RMK FG8

CYYG;2012-01-01 09:00;CYYG 010900Z 33014G20KT 3/8SM R03/2200FT/N FG VV002 02/02 A2959 RMK FG8 SLP021

CYYG;2012-01-01 10:00;CYYG 011000Z 34018G24KT 1/2SM R03/3000V4500FT/D FG VV002 02/02 A2960 RMK FG8 SLP025

CYYG;2012-01-01 11:00;CYYG 011100Z 34016G29KT 1/2SM R03/3000FT/U FG VV002 02/02 A2961 RMK FG8 SLP030

CYYG;2012-01-01 11:18;CYYG 011118Z 35015G24KT 3/4SM R03/3500V5500FT/U BR OVC003 02/ RMK SF8

CYYG;2012-01-01 12:00;CYYG 011200Z 35013G20KT 1 1/2SM BR OVC002 02/02 A2966 RMK SF8 SLP046

CYYG;2012-01-01 12:29;CYYG 011229Z 35016G24KT 4SM -RA BR OVC004 02/ RMK SF8

CYYG;2012-01-01 13:00;CYYG 011300Z 36014G22KT 4SM -SHRA BR OVC003 02/01 A2969 RMK SF8 SLP057

CYYG;2012-01-01 14:00;CYYG 011400Z 35015G24KT 4SM -SHRA BR OVC004 02/02 A2974 RMK SF8 SLP072

CYYG;2012-01-01 15:00;CYYG 011500Z 35014G25KT 4SM -SHRA BR OVC004 01/01 A2975 RMK SF8 SLP076

CYYG;2012-01-01 16:00;CYYG 011600Z 35014G26KT 6SM -SHRA BR OVC005 01/00 A2977 RMK SF8 SLP081

CYYG;2012-01-01 17:00;CYYG 011700Z 35015G25KT 6SM -SHRA BR OVC005 00/M00 A2980 RMK SF8 SLP092

CYYG;2012-01-01 17:16;CYYG 011716Z 36013G22KT 5SM BR OVC007 00/ RMK SF8

CYYG;2012-01-01 17:25;CYYG 011725Z 35013G20KT 1 1/2SM BR OVC007 00/ RMK SF8

CYYG;2012-01-01 17:45;CYYG 011745Z 35012G21KT 2SM -SHSN BR OVC008 M00/ RMK SF8

CYYG;2012-01-01 18:00;CYYG 011800Z 35015G20KT 1 1/2SM -SHSN BR OVC009 M00/M01 A2982 RMK SF8 SLP101

CYYG;2012-01-01 18:40;CYYG 011840Z 34012G22KT 6SM -SHSN BR OVC010 M00/ RMK SF8

CYYG;2012-01-01 19:00;CYYG 011900Z 34010G21KT 3SM -SHSN BR OVC009 M00/M01 A2987 RMK SF8 SLP116

CYYG;2012-01-01 20:00;CYYG 012000Z 35010G19KT 12SM -SHSN OVC009 M00/M02 A2990 RMK SF8 SLP128

CYYG;2012-01-01 21:00;CYYG 012100Z 35009KT 15SM -SHSN OVC010 M01/M02 A2993 RMK SF8 SLP139

CYYG;2012-01-01 22:00;CYYG 012200Z 01008KT 12SM -SHSN OVC011 M01/M03 A2992 RMK SF8 SLP135

CYYG;2012-01-01 23:00;CYYG 012300Z 35005KT 12SM -SHSN OVC012 M01/M03 A2996 RMK SF8 SLP146

CYYG;2012-01-02 00:00;CYYG 020000Z 36006KT 15SM -SHSN OVC011 M01/M03 A2996 RMK SC8 SLP147

CYYG;2012-01-02 00:42;CYYG 020042Z 35004KT 15SM OVC010 M01/ RMK SC8

CYYG;2012-01-02 01:00;CYYG 020100Z 33004KT 15SM OVC010 M01/M03 A2996 RMK SC8 SLP148

CYYG;2012-01-02 02:00;CYYG 020200Z 34003KT 15SM OVC010 M01/M03 A2994 RMK SC8 SLP142

CYYG;2012-01-02 02:47;CYYG 020247Z 00000KT 12SM -SHSN OVC011 M02/ RMK SC8

CYYG;2012-01-02 03:00;CYYG 020300Z 21004KT 12SM -SHSN OVC011 M02/M03 A2994 RMK SC8 SLP140

CYYG;2012-01-02 04:00;CYYG 020400Z 21005KT 12SM -SHSN OVC010 M02/M03 A2990 RMK SC8 SLP126

CYYG;2012-01-02 05:00;CYYG 020500Z 18008KT 15SM OVC009 M02/M03 A2987 RMK SC8 SLP116

CYYG;2012-01-02 06:00;CYYG 020600Z 21007KT 15SM OVC010 M01/M03 A2988 RMK SC8 SLP121

CYYG;2012-01-02 06:19;CYYG 020619Z 18008KT 12SM -SHSN OVC009 M01/ RMK SC8

CYYG;2012-01-02 07:00;CYYG 020700Z 19011KT 12SM -SHSN OVC010 M01/M03 A2986 RMK SC8 SLP114

CYYG;2012-01-02 08:00;CYYG 020800Z 20010KT 15SM OVC011 M01/M02 A2986 RMK SC8 SLP114

CYYG;2012-01-02 09:00;CYYG 020900Z 19015G20KT 15SM OVC010 M00/M01 A2980 RMK SC8 PRESFR SLP093

CYYG;2012-01-02 09:17;CYYG 020917Z 18014G19KT 12SM OVC008 00/ RMK SC8

CYYG;2012-01-02 10:00;CYYG 021000Z 17016KT 12SM OVC009 00/M01 A2974 RMK SC8 SLP075

CYYG;2012-01-02 11:00;CYYG 021100Z 15013KT 12SM FEW007 OVC010 01/M00 A2970 RMK SF2SC6 SLP060

CYYG;2012-01-02 12:00;CYYG 021200Z 17012G18KT 15SM OVC009 01/00 A2970 RMK SC8 SLP059

CYYG;2012-01-02 13:00;CYYG 021300Z 17013G18KT 15SM OVC010 02/01 A2966 RMK SC8 SLP047

CYYG;2012-01-02 13:32;CYYG 021332Z 17014KT 10SM -SHRA OVC009 02/ RMK SC8

CYYG;2012-01-02 14:00;CYYG 021400Z 16014KT 10SM -SHRA OVC008 03/02 A2962 RMK SC8 SLP032

CYYG;2012-01-02 14:49;CYYG 021449Z 15019G27KT 5SM SHRA BR OVC007 03/ RMK SF8

CYYG;2012-01-02 15:00;CYYG 021500Z 15018G25KT 5SM SHRA BR BKN007 OVC014 04/02 A2953 RMK SF7SC1 PRESFR SLP001

CYYG;2012-01-02 15:34;CYYG 021534Z 16015G27KT 15SM -SHRA OVC008 04/ RMK SF8 RESHRA

CYYG;2012-01-02 16:00;CYYG 021600Z 16018KT 10SM -SHRA OVC006 05/04 A2947 RMK SF8 RESHRA PRESFR SLP981

CYYG;2012-01-02 17:00;CYYG 021700Z 17010KT 10SM -SHRA BKN006 OVC012 06/05 A2942 RMK SF6SC2 SLP965

CYYG;2012-01-02 18:00;CYYG 021800Z 18012G17KT 10SM -SHRA SCT006 OVC012 07/07 A2936 RMK SF4SC4 PRESFR SLP944

CYYG;2012-01-02 19:00;CYYG 021900Z 18016KT 15SM -SHRA SCT006 OVC014 09/08 A2933 RMK SF3SC5 SLP933

CYYG;2012-01-02 19:09;CYYG 021909Z 18017KT 15SM FEW008 OVC012 09/ RMK SF2SC6

CYYG;2012-01-02 19:32;CYYG 021932Z 19019G24KT 15SM FEW008 BKN017 08/ RMK SF2SC5

CYYG;2012-01-02 20:00;CYYG 022000Z 19014G19KT 15SM FEW008 BKN020 08/08 A2931 RMK SF2SC5 SLP927

CYYG;2012-01-02 21:00;CYYG 022100Z 24015G25KT 15SM FEW010 BKN034 08/07 A2932 RMK SF2SC4 SLP931

CYYG;2012-01-02 22:00;CYYG 022200Z 24015G22KT 15SM FEW012 BKN044 06/01 A2935 RMK SF2SC4 SLP939

CYYG;2012-01-02 23:00;CYYG 022300Z 24018G29KT 15SM FEW012 BKN054 05/00 A2937 RMK SF2SC4 SLP948

CYYG;2012-01-03 00:00;CYYG 030000Z 25012G17KT 15SM SCT022 BKN059 04/01 A2942 RMK SC3SC3 SLP965

CYYG;2012-01-03 00:09;CYYG 030009Z 25010G17KT 15SM -SHRA SCT022 BKN059 03/ RMK SC4SC3

CYYG;2012-01-03 00:34;CYYG 030034Z 24010KT 15SM FEW022 BKN063 03/ RMK SC2SC4

CYYG;2012-01-03 01:00;CYYG 030100Z 25009G15KT 15SM FEW025 BKN065 03/00 A2945 RMK SC2SC5 SLP975

CYYG;2012-01-03 02:00;CYYG 030200Z 25009KT 15SM FEW030 BKN071 03/M00 A2946 RMK SC2AC5 SLP978

CYYG;2012-01-03 03:00;CYYG 030300Z 26012G18KT 15SM FEW030 FEW070 03/M02 A2948 RMK SC1AC2 SLP984

CYYG;2012-01-03 03:07;CYYG 030307Z 26011G18KT 15SM FEW030 FEW070 02/ RMK SC1AC2

CYYG;2012-01-03 04:00;CYYG 030400Z 25013KT 15SM FEW030 02/M03 A2950 RMK SC1 SLP990

CYYG;2012-01-03 05:00;CYYG 030500Z 25013G18KT 15SM FEW025 01/M04 A2951 RMK SC1 SLP996

CYYG;2012-01-03 06:00;CYYG 030600Z 25009G15KT 15SM FEW025 01/M05 A2954 RMK SC1 SLP004

CYYG;2012-01-03 07:00;CYYG 030700Z 23006KT 15SM FEW025 00/M05 A2956 RMK SC1 SLP012

CYYG;2012-01-03 08:00;CYYG 030800Z 23004KT 15SM FEW025 M00/M04 A2957 RMK SC1 SLP015

CYYG;2012-01-03 09:00;CYYG 030900Z 25004KT 15SM FEW025 M01/M04 A2957 RMK SC1 SLP016

CYYG;2012-01-03 10:00;CYYG 031000Z 26004KT 15SM FEW025 M01/M04 A2958 RMK SC1 SLP018

CYYG;2012-01-03 11:00;CYYG 031100Z 24003KT 15SM FEW025 FEW050 M01/M04 A2960 RMK SC1SC1 SLP026

CYYG;2012-01-03 12:00;CYYG 031200Z 27004KT 15SM FEW025 BKN050 M02/M05 A2963 RMK SC2SC3 SLP034

CYYG;2012-01-03 13:00;CYYG 031300Z 28005KT 15SM FEW025 BKN050 M02/M06 A2966 RMK SC2SC3 SLP044

CYYG;2012-01-03 14:00;CYYG 031400Z 28006KT 15SM FEW025 BKN050 M02/M08 A2968 RMK SC2SC3 SLP052

CYYG;2012-01-03 15:00;CYYG 031500Z 28005KT 15SM FEW025 BKN050 M01/M03 A2967 RMK SC2SC3 OBS TAKEN +14 SLP049

CYYG;2012-01-03 16:00;CYYG 031600Z 30008KT 15SM FEW040 M01/M09 A2966 RMK SC2 SLP045

CYYG;2012-01-03 17:00;CYYG 031700Z 31008KT 15SM FEW029 FEW058 SCT250 M02/M09 A2968 RMK SC2SC1CI1 SLP052

CYYG;2012-01-03 18:00;CYYG 031800Z 30006KT 15SM BKN027 M03/M11 A2966 RMK SC6 SLP046

CYYG;2012-01-03 19:00;CYYG 031900Z 29006KT 15SM BKN029 M03/M11 A2968 RMK SC7 SLP052

CYYG;2012-01-03 20:00;CYYG 032000Z 32009KT 15SM FEW029 BKN045 M03/M10 A2968 RMK SC2SC5 SLP052

CYYG;2012-01-03 21:00;CYYG 032100Z 31006KT 15SM -SHSN FEW045 BKN057 M04/M10 A2971 RMK SC2SC5 SLP063

CYYG;2012-01-03 21:34;CYYG 032134Z 33006KT 15SM BKN057 BKN160 M04/ RMK SC5AC1

CYYG;2012-01-03 22:00;CYYG 032200Z 31006KT 15SM SCT057 BKN140 M04/M10 A2973 RMK SC4AC2 SLP069

CYYG;2012-01-03 23:00;CYYG 032300Z 31007KT 15SM FEW057 BKN130 M05/M11 A2974 RMK SC2AC4 SLP075

CYYG;2012-01-04 00:00;CYYG 040000Z 33005KT 15SM FEW057 BKN140 M05/M11 A2978 RMK SC2AC5 SLP086

CYYG;2012-01-04 01:00;CYYG 040100Z 32007KT 15SM BKN150 M06/M10 A2977 RMK AC6 SLP083

CYYG;2012-01-04 02:00;CYYG 040200Z 31011KT 15SM FEW058 BKN150 M07/M10 A2980 RMK SC2AC5 SLP093

CYYG;2012-01-04 03:00;CYYG 040300Z 31009KT 15SM FEW020 BKN054 OVC150 M08/M12 A2980 RMK SC2SC4AC2 SLP095

CYYG;2012-01-04 04:00;CYYG 040400Z 33009KT 15SM FEW020 OVC058 M09/M13 A2979 RMK SC2SC6 SLP092

CYYG;2012-01-04 05:00;CYYG 040500Z 33009KT 15SM FEW025 OVC053 M10/M14 A2981 RMK SC2SC6 SLP097

CYYG;2012-01-04 06:00;CYYG 040600Z 32006KT 15SM SCT017 OVC048 M11/M14 A2981 RMK SC4SC4 SLP098

CYYG;2012-01-04 07:00;CYYG 040700Z 32008KT 15SM BKN020 OVC050 M11/M15 A2979 RMK SC5SC3 SLP091

CYYG;2012-01-04 08:00;CYYG 040800Z 31008KT 15SM BKN022 OVC048 M12/M14 A2979 RMK SC6SC2 SLP092

CYYG;2012-01-04 09:00;CYYG 040900Z 31008G15KT 15SM OVC024 M11/M14 A2976 RMK SC8 SLP081

CYYG;2012-01-04 10:00;CYYG 041000Z 31010KT 15SM OVC022 M11/M13 A2972 RMK SC8 SLP069

CYYG;2012-01-04 11:00;CYYG 041100Z 31011KT 12SM -SHSN OVC019 M10/M12 A2971 RMK SC8 SLP063

CYYG;2012-01-04 11:39;CYYG 041139Z 31010KT 2 1/2SM -SN OVC020 M10/ RMK SC8

CYYG;2012-01-04 12:00;CYYG 041200Z 31009KT 2 1/2SM -SN OVC020 M10/M12 A2970 RMK SC8 SLP061

CYYG;2012-01-04 13:00;CYYG 041300Z 30007KT 2 1/2SM -SN OVC020 M09/M11 A2971 RMK SC8 SLP063

CYYG;2012-01-04 14:00;CYYG 041400Z 29004KT 2SM -SN OVC022 M08/M10 A2969 RMK SC8 SLP057

CYYG;2012-01-04 14:07;CYYG 041407Z 28005KT 1 1/2SM -SN OVC020 M08/ RMK SN2SC6

CYYG;2012-01-04 14:30;CYYG 041430Z 34007KT 2 1/2SM -SN OVC025 M07/ RMK SC8

CYYG;2012-01-04 15:00;CYYG 041500Z 35007KT 1 1/4SM -SN BKN011 OVC025 M06/M08 A2966 RMK SN2SC3SC2 /S01/ SLP048

CYYG;2012-01-04 15:23;CYYG 041523Z 35009G17KT 4SM -SN FEW015 OVC030 M05/ RMK SC2SC6

CYYG;2012-01-04 16:00;CYYG 041600Z 34009G16KT 3/4SM R03/P6000FT/N -SN DRSN VV008 M05/M09 A2965 RMK SN8 SLP043

CYYG;2012-01-04 16:17;CYYG 041617Z 33009KT 1 1/2SM -SHSN DRSN OVC018 M05/ RMK SC8 VIS VRB 3/4-21/2

CYYG;2012-01-04 17:00;CYYG 041700Z 33014G21KT 1 1/2SM -SHSN DRSN BKN012 OVC032 M05/M08 A2963 RMK SC6SC2 VIS VRB 3/4-21/2 SLP035

CYYG;2012-01-04 18:00;CYYG 041800Z 31016KT 1 1/2SM -SHSN DRSN OVC012 M07/M10 A2962 RMK SC8 SLP035

CYYG;2012-01-04 19:00;CYYG 041900Z 31014G20KT 1 1/2SM -SHSN DRSN FEW012 OVC027 M08/M10 A2964 RMK SC2SC6 VIS VRB 3/4-21/2 SLP040

CYYG;2012-01-04 20:00;CYYG 042000Z 29012G17KT 2 1/2SM -SHSN DRSN OVC030 M08/M10 A2966 RMK SC8 SLP049

CYYG;2012-01-04 21:00;CYYG 042100Z 28014KT 3SM -SHSN DRSN OVC032 M08/M11 A2970 RMK SC8 SLP060

CYYG;2012-01-04 22:00;CYYG 042200Z 28010G15KT 10SM -SHSN DRSN OVC032 M08/M12 A2971 RMK SC8 SLP066

CYYG;2012-01-04 23:00;CYYG 042300Z 26011G17KT 10SM -SHSN DRSN OVC032 M08/M12 A2975 RMK SC8 SLP077

CYYG;2012-01-05 00:00;CYYG 050000Z 25008KT 10SM -SHSN OVC025 M08/M11 A2977 RMK SC8 /S01/ SLP083

CYYG;2012-01-05 01:00;CYYG 050100Z 26012KT 10SM -SHSN OVC026 M09/M13 A2977 RMK SC8 SLP083

CYYG;2012-01-05 02:00;CYYG 050200Z 25012G17KT 15SM -SHSN OVC022 M10/M13 A2977 RMK SC8 SLP083

CYYG;2012-01-05 03:00;CYYG 050300Z 25009G17KT 15SM -SHSN OVC019 M10/M14 A2977 RMK SC8 SLP083

CYYG;2012-01-05 04:00;CYYG 050400Z 26010KT 15SM -SHSN OVC017 M11/M15 A2977 RMK SC8 SLP083

CYYG;2012-01-05 05:00;CYYG 050500Z 25008KT 15SM BKN017 BKN150 M12/M15 A2976 RMK SC5AC2 SLP081

CYYG;2012-01-05 06:00;CYYG 050600Z 26009KT 15SM FEW017 SCT150 M12/M15 A2979 RMK SC2AC2 SLP091

CYYG;2012-01-05 07:00;CYYG 050700Z 25011KT 15SM FEW017 BKN100 M10/M15 A2980 RMK SC1AC4 SLP095

CYYG;2012-01-05 08:00;CYYG 050800Z 26007KT 15SM BKN110 M10/M15 A2979 RMK AC7 SLP091

CYYG;2012-01-05 09:00;CYYG 050900Z 26010KT 15SM BKN100 M09/M15 A2979 RMK AC7 SLP092

CYYG;2012-01-05 10:00;CYYG 051000Z 25006KT 15SM OVC098 M09/M15 A2980 RMK AC8 SLP096

CYYG;2012-01-05 11:00;CYYG 051100Z 25007KT 15SM BKN094 M08/M14 A2981 RMK AC6 SLP097

CYYG;2012-01-05 12:00;CYYG 051200Z 21004KT 15SM FEW020 BKN090 BKN200 M07/M13 A2980 RMK SC1AC5CI1 SLP095

CYYG;2012-01-05 13:00;CYYG 051300Z 21008KT 15SM BKN039 BKN090 BKN200 M05/M10 A2980 RMK SC5AC1CI0 SLP094

CYYG;2012-01-05 14:00;CYYG 051400Z 20015KT 15SM FEW015 FEW035 FEW090 BKN200 M04/M07 A2979 RMK SC1SC1AC1CI0 SLP092

CYYG;2012-01-05 15:00;CYYG 051500Z 19011KT 15SM FEW035 FEW090 BKN200 M03/M07 A2977 RMK SC2AC1CI0 SLP084

CYYG;2012-01-05 16:00;CYYG 051600Z 19010KT 15SM SCT035 BKN085 M02/M07 A2973 RMK SC3AC4 SLP070

CYYG;2012-01-05 16:40;CYYG 051640Z 19009KT 15SM -SHSN FEW022 OVC035 M02/ RMK SC2SC6

CYYG;2012-01-05 17:00;CYYG 051700Z 20015KT 10SM -SHSN BKN022 OVC030 M02/M05 A2970 RMK SC6SC2 SLP061

CYYG;2012-01-05 18:00;CYYG 051800Z 20010KT 10SM -SHSN OVC025 M02/M05 A2967 RMK SC8 SLP050

CYYG;2012-01-05 18:09;CYYG 051809Z 20010KT 2 1/4SM -SHSN OVC016 M02/ RMK SC8

CYYG;2012-01-05 18:25;CYYG 051825Z 20009KT 1SM R03/P6000FT/D -SN OVC010 M02/ RMK SN3SC5

CYYG;2012-01-05 18:35;CYYG 051835Z 20010KT 1 1/2SM -SN FEW010 OVC020 M02/ RMK SN2SC1SC6

CYYG;2012-01-05 18:45;CYYG 051845Z 19010KT 1SM R03/P6000FT/D -SN VV010 M02/ RMK SN8

CYYG;2012-01-05 19:00;CYYG 051900Z 20008KT 1/2SM R03/3000VP6000FT/N SN VV005 M02/M03 A2966 RMK SN8 SLP045

CYYG;2012-01-05 19:08;CYYG 051908Z 22008KT 3/4SM R03/5000FT/D -SN VV008 M02/ RESN RMK SN8

CYYG;2012-01-05 19:37;CYYG 051937Z 20009KT 1 1/2SM -SN VV015 M02/ RESN RMK SN8

CYYG;2012-01-05 20:00;CYYG 052000Z 20005KT 1SM R03/P6000FT/U -SN OVC017 M02/M03 A2964 RESN RMK SN3SC5 /S02/ SLP040

CYYG;2012-01-05 20:28;CYYG 052028Z 21005KT 2SM -SN OVC018 M02/ RMK SC8

CYYG;2012-01-05 20:36;CYYG 052036Z 21005KT 8SM -SN BKN022 OVC050 M02/ RMK SC6SC2

CYYG;2012-01-05 21:00;CYYG 052100Z 21002KT 12SM -SN SCT020 OVC078 M02/M03 A2963 RMK SC3AC5 SLP038

CYYG;2012-01-05 22:00;CYYG 052200Z 00000KT 8SM -SN SCT018 BKN058 BKN080 M02/M03 A2963 RMK SC3SC2AC2 /S03/ SLP038

CYYG;2012-01-05 23:00;CYYG 052300Z 00000KT 10SM -SN FEW018 OVC082 M02/M03 A2964 RMK SC1AC7 SLP039

CYYG;2012-01-05 23:45;CYYG 052345Z 25004KT 15SM FEW018 OVC082 M02/ RMK SC1AC7

CYYG;2012-01-06 00:00;CYYG 060000Z 26004KT 15SM FEW018 OVC082 M02/M03 A2965 RMK SC1AC7 SLP043

CYYG;2012-01-06 01:00;CYYG 060100Z 27005KT 15SM FEW022 OVC082 M03/M04 A2965 RMK SC1AC7 SLP042

CYYG;2012-01-06 02:00;CYYG 060200Z 28005KT 15SM OVC080 M04/M06 A2965 RMK AC8 SLP042

CYYG;2012-01-06 03:00;CYYG 060300Z 28006KT 15SM BKN078 M05/M08 A2966 RMK AC7 SLP046

CYYG;2012-01-06 04:00;CYYG 060400Z 26005KT 15SM BKN078 M06/M09 A2966 RMK AC6 SLP047

CYYG;2012-01-06 05:00;CYYG 060500Z 28006KT 15SM BKN078 M07/M10 A2968 RMK AC5 SLP052

CYYG;2012-01-06 06:00;CYYG 060600Z 27004KT 15SM SCT078 M07/M10 A2969 RMK AC3 SLP057

CYYG;2012-01-06 07:00;CYYG 060700Z 28009KT 15SM FEW078 M07/M10 A2971 RMK AC2 SLP065

CYYG;2012-01-06 08:00;CYYG 060800Z 29009G15KT 15SM -SHSN SCT025 BKN078 M07/M11 A2973 RMK SC3AC2 SLP069

CYYG;2012-01-06 09:00;CYYG 060900Z 30012G19KT 15SM -SHSN FEW025 SCT078 M08/M12 A2974 RMK SC2AC2 SLP075

CYYG;2012-01-06 10:00;CYYG 061000Z 31013G20KT 15SM -SHSN SCT030 M10/M14 A2979 RMK SC4 SLP090

CYYG;2012-01-06 11:00;CYYG 061100Z 30011G17KT 15SM DRSN FEW025 M11/M15 A2984 RMK SC2 SLP106

CYYG;2012-01-06 12:00;CYYG 061200Z 29009KT 15SM DRSN FEW022 FEW250 M12/M15 A2986 RMK SC2CI0 SLP115

CYYG;2012-01-06 13:00;CYYG 061300Z 29010KT 15SM DRSN FEW022 SCT250 M12/M16 A2990 RMK SC2CI0 SLP128

CYYG;2012-01-06 14:00;CYYG 061400Z 27011KT 15SM DRSN FEW026 SCT250 M12/M17 A2992 RMK SC2CI0 SH DIST NE-E SLP134

CYYG;2012-01-06 15:00;CYYG 061500Z 27010KT 15SM -SHSN DRSN FEW025 SCT250 M11/M15 A2993 RMK SC2CI0 SLP139

CYYG;2012-01-06 16:00;CYYG 061600Z 28008KT 15SM FEW024 FEW250 M11/M16 A2992 RMK SC2CI0 SH DIST NE-E SLP135

CYYG;2012-01-06 17:00;CYYG 061700Z 26007KT 15SM FEW024 FEW250 M11/M16 A2991 RMK SC2CI0 SLP131

CYYG;2012-01-06 18:00;CYYG 061800Z 27008KT 15SM FEW024 FEW250 M10/M15 A2990 RMK SC2CI0 SLP129

CYYG;2012-01-06 19:00;CYYG 061900Z 28008KT 15SM FEW020 SCT250 M10/M15 A2991 RMK SC1CI1 SLP133

CYYG;2012-01-06 20:00;CYYG 062000Z 27005KT 15SM FEW020 BKN250 M11/M19 A2991 RMK SC1CI1 SLP133

CYYG;2012-01-06 21:00;CYYG 062100Z 27002KT 15SM FEW020 FEW120 BKN250 M11/M17 A2992 RMK SC1AC2CI0 SLP135

CYYG;2012-01-06 22:00;CYYG 062200Z 23003KT 15SM FEW020 FEW120 M11/M17 A2994 RMK SC1AC2 SLP141

CYYG;2012-01-06 23:00;CYYG 062300Z 28002KT 15SM FEW120 M14/M16 A2994 RMK AC2 SLP142

CYYG;2012-01-07 00:00;CYYG 070000Z 00000KT 15SM FEW120 M15/M17 A2993 RMK AC2 SLP138

CYYG;2012-01-07 01:00;CYYG 070100Z 30002KT 15SM BKN170 M14/M16 A2993 RMK AC2 SLP141

CYYG;2012-01-07 02:00;CYYG 070200Z 10002KT 15SM SCT050 BKN120 M14/M15 A2993 RMK SC3AC1 SLP140

CYYG;2012-01-07 03:00;CYYG 070300Z 11003KT 15SM FEW050 OVC100 M11/M13 A2992 RMK SC2AC6 SLP136

CYYG;2012-01-07 04:00;CYYG 070400Z 00000KT 15SM FEW060 OVC100 M10/M13 A2992 RMK SC2AC6 SLP135

CYYG;2012-01-07 04:28;CYYG 070428Z 12003KT 8SM -SN OVC040 M10/ RMK SN4SC4

CYYG;2012-01-07 05:00;CYYG 070500Z 13002KT 5SM -SN OVC040 M10/M13 A2991 RMK SN5SC3 SLP132

CYYG;2012-01-07 06:00;CYYG 070600Z 13003KT 10SM -SN OVC070 M09/M12 A2989 RMK SN4AC4 SLP124

CYYG;2012-01-07 07:00;CYYG 070700Z 13004KT 8SM -SN OVC063 M08/M10 A2987 RMK SN2SC6 SLP119

CYYG;2012-01-07 07:47;CYYG 070747Z 13004KT 2SM -SN VV007 M07/ RMK SN8

CYYG;2012-01-07 08:00;CYYG 070800Z 13005KT 3SM -SN OVC047 M07/M09 A2987 RMK SN5SC3 SLP117

CYYG;2012-01-07 08:38;CYYG 070838Z 13007KT 2SM -SN VV011 M07/ RMK SN8

CYYG;2012-01-07 09:00;CYYG 070900Z 13006KT 3SM -SN OVC023 M07/M08 A2985 RMK SN3SC5 /S01/ SLP113

CYYG;2012-01-07 10:00;CYYG 071000Z 11006KT 4SM -SN OVC024 M07/M08 A2984 RMK SC8 /S02/ SLP107

CYYG;2012-01-07 10:18;CYYG 071018Z 12008KT 3SM -SN -FZDZ OVC020 M06/ RMK SN2SC6

CYYG;2012-01-07 10:36;CYYG 071036Z 13009KT 1 1/2SM -SN VV009 M06/ REFZDZ RMK SN8

CYYG;2012-01-07 11:00;CYYG 071100Z 13009KT 4SM -SN BR OVC020 M06/M07 A2983 REFZDZ RMK SC8 SLP104

CYYG;2012-01-07 11:09;CYYG 071109Z 13008KT 15SM OVC018 M06/ RMK SC8

CYYG;2012-01-07 12:00;CYYG 071200Z 13005KT 15SM BKN012 OVC016 M05/M06 A2984 RMK SC5SC3 SLP108

CYYG;2012-01-07 12:13;CYYG 071213Z 13009KT 15SM FEW008 SCT012 OVC015 M05/ RMK SF1SC2SC5

CYYG;2012-01-07 12:27;CYYG 071227Z 14007KT 15SM -FZDZ FEW008 FEW012 OVC014 M04/ RMK SF1SC2SC6 VIS LWR NW-E

CYYG;2012-01-07 12:44;CYYG 071244Z 14007KT 5SM -SN -FZDZ OVC014 M04/ RMK ST8

CYYG;2012-01-07 13:00;CYYG 071300Z 14007KT 4SM -SN -FZDZ OVC015 M04/M05 A2984 RMK SC8 SLP109

CYYG;2012-01-07 13:38;CYYG 071338Z 13006KT 15SM OVC014 M04/ REFZDZ RMK SC8

CYYG;2012-01-07 14:00;CYYG 071400Z 12005KT 15SM OVC013 M03/M05 A2984 REFZDZ RMK SC8 SLP108

CYYG;2012-01-07 15:00;CYYG 071500Z 14006KT 15SM BKN012 OVC018 M03/M04 A2983 RMK SC6SC2 SLP106

CYYG;2012-01-07 16:00;CYYG 071600Z 15006KT 15SM OVC011 M01/M03 A2980 RMK SC8 SLP096

CYYG;2012-01-07 17:00;CYYG 071700Z 15007KT 15SM OVC010 M00/M02 A2979 RMK SC8 SLP091

CYYG;2012-01-07 18:00;CYYG 071800Z 16006KT 15SM OVC010 01/M01 A2978 RMK SC8 SLP088

CYYG;2012-01-07 18:32;CYYG 071832Z 15004KT 15SM BKN009 OVC015 01/ RMK SC6SC2

CYYG;2012-01-07 19:00;CYYG 071900Z 15006KT 15SM OVC009 01/M01 A2979 RMK SC8 SLP089

CYYG;2012-01-07 19:18;CYYG 071918Z 16007KT 15SM SCT009 OVC012 01/ RMK SC3SC5

CYYG;2012-01-07 20:00;CYYG 072000Z 17007KT 15SM SCT009 OVC014 01/M00 A2980 RMK SC3SC5 SLP093

CYYG;2012-01-07 20:04;CYYG 072004Z 17007KT 15SM -RA BKN009 OVC016 01/ RMK SC6SC2

CYYG;2012-01-07 20:19;CYYG 072019Z 17007KT 15SM BKN010 OVC017 01/ RMK SC6SC2

CYYG;2012-01-07 20:52;CYYG 072052Z 14006KT 15SM -RA BKN009 OVC120 01/ RMK SC6AC2

CYYG;2012-01-07 21:00;CYYG 072100Z 14006KT 15SM -RA BKN009 OVC120 01/00 A2977 RMK SC6AC2 SLP084

CYYG;2012-01-07 21:51;CYYG 072151Z 14006KT 15SM FEW004 OVC008 01/ RMK SF2SF6

CYYG;2012-01-07 22:00;CYYG 072200Z 14005KT 15SM FEW004 OVC008 01/00 A2976 RMK SF2SF6 SLP079

CYYG;2012-01-07 22:34;CYYG 072234Z 15006KT 15SM BKN004 BKN008 OVC082 01/ RMK SF5SF2AC2

CYYG;2012-01-07 23:00;CYYG 072300Z 15005KT 15SM OVC004 01/00 A2974 RMK ST8 SLP073

CYYG;2012-01-07 23:16;CYYG 072316Z 14007KT 8SM OVC003 01/ RMK ST8

CYYG;2012-01-07 23:24;CYYG 072324Z 15007KT 3SM BR OVC002 01/ RMK ST8

CYYG;2012-01-08 00:00;CYYG 080000Z 17007KT 2 1/2SM BR OVC002 01/01 A2972 RMK ST8 SLP068

CYYG;2012-01-08 00:50;CYYG 080050Z 15003KT 1SM R03/P6000FT/D BR OVC002 01/ RMK ST8

CYYG;2012-01-08 01:00;CYYG 080100Z 16003KT 3/4SM R03/3500VP6000FT/D BR VV001 01/01 A2970 RMK FG8 SLP060

CYYG;2012-01-08 01:07;CYYG 080107Z 15005KT 1/2SM R03/3000FT/D FG VV001 01/01 RMK FG8

CYYG;2012-01-08 01:16;CYYG 080116Z 15006KT 3/8SM R03/2200FT/N FG VV001 02/ RMK FG8

CYYG;2012-01-08 02:00;CYYG 080200Z 13005KT 3/8SM R03/1600V2000FT/N FG VV001 02/01 A2967 RMK FG8 SLP050

CYYG;2012-01-08 03:00;CYYG 080300Z 16003KT 1/4SM R03/1600FT/N FG VV001 02/02 A2965 RMK FG8 SLP042

CYYG;2012-01-08 03:34;CYYG 080334Z 22002KT 3/8SM R03/1600FT/N -DZ FG VV002 01/ RMK FG8

CYYG;2012-01-08 04:00;CYYG 080400Z 23002KT 1/4SM R03/1400FT/N -DZ FG VV002 01/01 A2963 RMK FG8 SLP036

CYYG;2012-01-08 05:00;CYYG 080500Z 29003KT 1/2SM R03/2800FT/N -DZ FG VV002 01/01 A2963 RMK FG8 SLP035

CYYG;2012-01-08 06:00;CYYG 080600Z 31004KT 1/2SM R03/3500FT/U -DZ FG VV002 01/01 A2964 RMK FG8 SLP039

CYYG;2012-01-08 06:11;CYYG 080611Z 30004KT 2SM BR SCT001 OVC005 01/ RMK SF3SF5

CYYG;2012-01-08 07:00;CYYG 080700Z 28005KT 4SM BR BKN002 OVC010 01/01 A2966 RMK SF5SC3 SLP047

CYYG;2012-01-08 08:00;CYYG 080800Z 30005KT 5SM BR OVC003 01/01 A2969 RMK SF8 SLP055

CYYG;2012-01-08 09:00;CYYG 080900Z 29006KT 4SM BR OVC002 00/00 A2972 RMK SF8 SLP066

CYYG;2012-01-08 10:00;CYYG 081000Z 28010KT 10SM OVC004 M00/M00 A2974 RMK SF8 SLP071

CYYG;2012-01-08 10:15;CYYG 081015Z 28008KT 12SM OVC007 M01/ RMK SF8

CYYG;2012-01-08 11:00;CYYG 081100Z 29009KT 12SM FEW009 BKN031 M01/M02 A2977 RMK SF2SC5 SLP084

CYYG;2012-01-08 11:11;CYYG 081111Z 29008KT 12SM BKN009 BKN030 M01/ RMK SF5SC2

CYYG;2012-01-08 12:00;CYYG 081200Z 29007KT 15SM BKN008 BKN021 M02/M03 A2981 RMK SF6SC2 SLP098

CYYG;2012-01-08 13:00;CYYG 081300Z 28007G15KT 15SM BKN008 M02/M04 A2986 RMK SC7 SLP115

CYYG;2012-01-08 14:00;CYYG 081400Z 30009G16KT 15SM OVC009 M02/M04 A2991 RMK SC8 SLP131

CYYG;2012-01-08 15:00;CYYG 081500Z 30010G16KT 15SM BKN010 M02/M04 A2993 RMK SC7 SLP139

CYYG;2012-01-08 16:00;CYYG 081600Z 31010KT 15SM BKN010 M02/M04 A2993 RMK SC7 SLP139

CYYG;2012-01-08 17:00;CYYG 081700Z 29007KT 15SM OVC010 M02/M05 A2996 RMK SC8 SLP147

CYYG;2012-01-08 18:00;CYYG 081800Z 30005KT 15SM BKN011 M02/M05 A2998 RMK SC7 SLP154

CYYG;2012-01-08 19:00;CYYG 081900Z 31006KT 15SM BKN010 M03/M05 A3001 RMK SC7 SLP163

CYYG;2012-01-08 20:00;CYYG 082000Z 30008KT 15SM BKN011 OVC021 M03/M05 A3004 RMK SC6SC2 SLP175

CYYG;2012-01-08 21:00;CYYG 082100Z 27006KT 15SM -SN FEW011 OVC020 M03/M06 A3006 RMK SC2SC6 SLP181

CYYG;2012-01-08 22:00;CYYG 082200Z 27005KT 15SM -SN OVC022 M03/M06 A3008 RMK SC8 SLP189

CYYG;2012-01-08 23:00;CYYG 082300Z 27005KT 15SM -SN BKN014 OVC023 M03/M06 A3010 RMK SC6SC2 SLP195

CYYG;2012-01-08 23:35;CYYG 082335Z 29004KT 10SM OVC013 M03/ RMK SC8

CYYG;2012-01-09 00:00;CYYG 090000Z 29005KT 10SM BKN014 OVC020 M03/M06 A3012 RMK SC7SC1 SLP201

CYYG;2012-01-09 00:30;CYYG 090030Z 30004KT 10SM -SN -FZDZ OVC014 M03/ RMK SC8

CYYG;2012-01-09 01:00;CYYG 090100Z 32003KT 10SM OVC020 M03/M05 A3012 REFZDZ RMK SC8 SLP203

CYYG;2012-01-09 01:52;CYYG 090152Z 30003KT 10SM -SHSN OVC021 M03/ RMK SC8

CYYG;2012-01-09 02:00;CYYG 090200Z 30003KT 10SM -SHSN OVC021 M03/M05 A3014 RMK SC8 SLP208

CYYG;2012-01-09 03:00;CYYG 090300Z 32003KT 12SM -SHSN OVC021 M03/M05 A3013 RMK SC8 SLP205

CYYG;2012-01-09 04:00;CYYG 090400Z 33003KT 10SM -SHSN OVC023 M03/M05 A3012 RMK SC8 SLP202

CYYG;2012-01-09 05:00;CYYG 090500Z 32002KT 5SM -SN OVC024 M03/M05 A3012 RMK SC8 SLP204

CYYG;2012-01-09 06:00;CYYG 090600Z 28002KT 5SM -SN OVC028 M04/M05 A3012 RMK SC8 SLP204

CYYG;2012-01-09 06:27;CYYG 090627Z 29003KT 2 1/2SM -SN OVC031 M04/ RMK SC8

CYYG;2012-01-09 07:00;CYYG 090700Z 31004KT 3SM -SN BKN024 OVC070 M04/M05 A3012 RMK SC6AC2 SLP204

CYYG;2012-01-09 08:00;CYYG 090800Z 31004KT 5SM -SN OVC024 M04/M05 A3012 RMK SC8 SLP201

CYYG;2012-01-09 09:00;CYYG 090900Z 31003KT 2 1/2SM -SN OVC019 M04/M06 A3011 RMK SC8 SLP199

CYYG;2012-01-09 10:00;CYYG 091000Z 29006KT 2 1/2SM -SN OVC020 M05/M06 A3012 RMK SC8 /S01/ SLP202

CYYG;2012-01-09 11:00;CYYG 091100Z 30005KT 5SM -SN FEW007 OVC017 M06/M07 A3012 RMK SF1SC7 SLP204

CYYG;2012-01-09 12:00;CYYG 091200Z 31005KT 5SM -SN FEW007 OVC020 M06/M08 A3013 RMK SF1SC7 SLP205

CYYG;2012-01-09 13:00;CYYG 091300Z 29007KT 8SM -SN FEW007 OVC029 M06/M08 A3013 RMK SF1SC7 SLP207

CYYG;2012-01-09 14:00;CYYG 091400Z 29009KT 15SM -SHSN FEW007 OVC029 M06/M08 A3013 RMK SF2SC6 SLP206

CYYG;2012-01-09 14:29;CYYG 091429Z 30008KT 15SM FEW007 BKN035 OVC048 M06/ RMK SF1SC5SC2

CYYG;2012-01-09 15:00;CYYG 091500Z 28009G16KT 15SM SCT013 BKN035 M06/M09 A3013 RMK SF3SC4 SLP206

CYYG;2012-01-09 16:00;CYYG 091600Z 30008KT 15SM BKN013 BKN035 M07/M09 A3011 RMK SC5SC2 SLP199

CYYG;2012-01-09 17:00;CYYG 091700Z 28009G15KT 15SM BKN016 BKN035 M07/M10 A3009 RMK SC5SC2 SLP193

CYYG;2012-01-09 18:00;CYYG 091800Z 28009KT 15SM SCT018 M06/M10 A3008 RMK SC3 SLP189

CYYG;2012-01-09 19:00;CYYG 091900Z 29011KT 15SM FEW018 M07/M11 A3009 RMK SC2 SLP192

CYYG;2012-01-09 20:00;CYYG 092000Z 29012KT 15SM FEW020 M07/M12 A3010 RMK SC2 SLP197

CYYG;2012-01-09 21:00;CYYG 092100Z 31006KT 15SM FEW020 M09/M13 A3011 RMK SC1 OBS TAKEN +10 SLP198

CYYG;2012-01-09 22:00;CYYG 092200Z 31004KT 15SM FEW020 M10/M13 A3010 RMK SC1 SLP196

CYYG;2012-01-09 23:00;CYYG 092300Z 31004KT 15SM FEW020 M11/M14 A3010 RMK SC1 SLP195

CYYG;2012-01-10 00:00;CYYG 100000Z 29004KT 15SM FEW020 M11/M14 A3010 RMK SC1 FROIN SLP197

CYYG;2012-01-10 01:00;CYYG 100100Z 29003KT 15SM SKC M12/M15 A3010 RMK FROIN SLP195

CYYG;2012-01-10 02:00;CYYG 100200Z 22004KT 15SM FEW270 M12/M14 A3009 RMK CI1 FROIN SLP191

CYYG;2012-01-10 03:00;CYYG 100300Z 25004KT 15SM BKN059 M09/M12 A3006 RMK SC7 FROIN SLP183

CYYG;2012-01-10 04:00;CYYG 100400Z 24004KT 15SM OVC058 M09/M13 A3005 RMK SC8 FROIN SLP178

CYYG;2012-01-10 05:00;CYYG 100500Z 00000KT 15SM FEW057 OVC080 M10/M13 A3003 RMK SC2AC6 FROIN SLP171

CYYG;2012-01-10 06:00;CYYG 100600Z 18005KT 15SM OVC078 M09/M12 A3001 RMK AC8 FROIN SLP164

CYYG;2012-01-10 07:00;CYYG 100700Z 18004KT 15SM OVC073 M08/M10 A2998 RMK AC8 FROIN SLP155

CYYG;2012-01-10 08:00;CYYG 100800Z 19008KT 15SM OVC070 M05/M07 A2996 RMK AC8 FROIN SLP147

CYYG;2012-01-10 09:00;CYYG 100900Z 19008KT 15SM OVC068 M04/M06 A2992 RMK AC8 FROIN SLP136

CYYG;2012-01-10 10:00;CYYG 101000Z 19009KT 15SM SCT068 OVC220 M04/M07 A2990 RMK AC3CS3 FROIN HALO SLP127

CYYG;2012-01-10 11:00;CYYG 101100Z 19009KT 15SM BKN033 OVC058 M04/M06 A2989 RMK SC5SC3 FROIN SLP125

CYYG;2012-01-10 11:24;CYYG 101124Z 19009KT 15SM -SHSN BKN038 OVC060 M03/ RMK SC5SC3

CYYG;2012-01-10 12:00;CYYG 101200Z 19010KT 15SM -SHSN OVC035 M03/M06 A2988 RMK SC8 SLP121

CYYG;2012-01-10 13:00;CYYG 101300Z 19010KT 15SM BKN035 BKN270 M03/M05 A2985 RMK SC5CI2 SLP113

CYYG;2012-01-10 14:00;CYYG 101400Z 20011KT 15SM BKN035 BKN270 M02/M05 A2984 RMK SC5CI2 SLP109

CYYG;2012-01-10 15:00;CYYG 101500Z 20011KT 15SM SCT035 BKN150 BKN270 M01/M04 A2982 RMK SC3AC2CI2 SLP100

CYYG;2012-01-10 16:00;CYYG 101600Z 20015KT 15SM FEW035 BKN160 BKN270 M00/M03 A2977 RMK SC2AC2CI2 SLP084

CYYG;2012-01-10 17:00;CYYG 101700Z 21012KT 15SM FEW015 BKN180 BKN270 00/M02 A2973 RMK SC2AC2CI2 SLP070

CYYG;2012-01-10 18:00;CYYG 101800Z 20011KT 15SM FEW015 BKN080 BKN270 01/M02 A2972 RMK SC2AC2CI1 SLP066

CYYG;2012-01-10 19:00;CYYG 101900Z 20011KT 15SM FEW015 BKN068 BKN270 01/M02 A2969 RMK SC2AC3CI2 SLP058

CYYG;2012-01-10 19:51;CYYG 101951Z 20011KT 15SM -SHSN FEW018 BKN035 01/ RMK SC2SC5

CYYG;2012-01-10 20:00;CYYG 102000Z 19009KT 15SM -SHSN FEW020 OVC038 01/M01 A2969 RMK SC2SC6 SLP055

CYYG;2012-01-10 21:00;CYYG 102100Z 18010KT 15SM -SHSN FEW020 OVC057 01/M01 A2967 RMK SC2SC6 SLP049

CYYG;2012-01-10 21:13;CYYG 102113Z 18011KT 15SM FEW020 BKN065 01/ RMK SC1SC6

CYYG;2012-01-10 22:00;CYYG 102200Z 18013KT 15SM FEW020 BKN090 01/M01 A2965 RMK SC1AC6 SLP044

CYYG;2012-01-10 23:00;CYYG 102300Z 18013G18KT 15SM SCT040 BKN120 01/M01 A2964 RMK SC3AC4 SLP040

CYYG;2012-01-11 00:00;CYYG 110000Z 20012G18KT 15SM FEW040 OVC130 01/M01 A2963 RMK SC2AC6 SLP037

CYYG;2012-01-11 00:28;CYYG 110028Z 21012KT 2 1/2SM -SN OVC040 01/ RMK SC8

CYYG;2012-01-11 00:43;CYYG 110043Z 22012KT 1 1/2SM -SN BKN010 OVC040 01/ RMK SN3SC2SC2

CYYG;2012-01-11 01:00;CYYG 110100Z 23014G19KT 1 1/2SM -SN OVC007 01/M00 A2964 RMK SF8 SLP039

CYYG;2012-01-11 01:25;CYYG 110125Z 23010G15KT 5SM -SN OVC004 01/ RMK SF8

CYYG;2012-01-11 02:00;CYYG 110200Z 23009KT 3SM -SN BKN004 OVC010 01/M00 A2964 RMK SF6SC2 /S01/ SLP039

CYYG;2012-01-11 03:00;CYYG 110300Z 25007KT 3SM -SN BKN004 OVC010 00/M00 A2963 RMK SF6SC2 SLP036

CYYG;2012-01-11 04:00;CYYG 110400Z 27008KT 5SM -SN FEW003 OVC040 00/M00 A2963 RMK SF2SC6 SLP036

CYYG;2012-01-11 04:35;CYYG 110435Z 28007KT 2 1/2SM -SN SCT006 OVC042 00/ RMK SF3SC5

CYYG;2012-01-11 05:00;CYYG 110500Z 29007KT 4SM -SN SCT007 OVC014 00/M01 A2964 RMK SF3SC5 SLP038

CYYG;2012-01-11 05:40;CYYG 110540Z 34015G22KT 1 1/2SM -SN DRSN SCT007 OVC014 M02/ RMK SF3SC5 WSHFT 0536 PRESRR

CYYG;2012-01-11 06:00;CYYG 110600Z 34012G20KT 4SM -SHSN DRSN BKN010 OVC019 M03/M04 A2967 RMK SC6SC2 PRESRR SLP050

CYYG;2012-01-11 07:00;CYYG 110700Z 33015G26KT 5SM -SHSN DRSN SCT012 OVC025 M05/M08 A2972 RMK SC3SC5 SLP067

CYYG;2012-01-11 08:00;CYYG 110800Z 34018G30KT 6SM -SHSN DRSN SCT017 OVC025 M07/M09 A2974 RMK SC3SC5 SLP075

CYYG;2012-01-11 09:00;CYYG 110900Z 32015G25KT 6SM -SHSN DRSN FEW017 BKN025 M08/M11 A2978 RMK SC2SC6 SLP087

CYYG;2012-01-11 10:00;CYYG 111000Z 31014G19KT 6SM -SHSN DRSN OVC026 M09/M12 A2983 RMK SC8 SLP104

CYYG;2012-01-11 11:00;CYYG 111100Z 29009G16KT 4SM -SHSN DRSN OVC025 M09/M12 A2985 RMK SC8 SLP110

CYYG;2012-01-11 12:00;CYYG 111200Z 33018G26KT 6SM -SHSN DRSN OVC025 M08/M12 A2987 RMK SC8 SLP118

CYYG;2012-01-11 13:00;CYYG 111300Z 32011G18KT 6SM -SHSN DRSN OVC025 M09/M13 A2992 RMK SC8 SLP134

CYYG;2012-01-11 14:00;CYYG 111400Z 33014G20KT 15SM BKN024 M09/M13 A2995 RMK SC7 SLP144

CYYG;2012-01-11 15:00;CYYG 111500Z 32012G17KT 4SM -SHSN DRSN OVC028 M09/M13 A2998 RMK SC8 SLP156

CYYG;2012-01-11 16:00;CYYG 111600Z 32010G19KT 2SM -SHSN DRSN FEW020 OVC030 M09/M14 A2998 RMK SC2SC6 SLP157

CYYG;2012-01-11 16:25;CYYG 111625Z 31014KT 1SM R03/4500VP6000FT/D -SHSN DRSN VV006 M10/ RMK SN8

CYYG;2012-01-11 17:00;CYYG 111700Z 32011G17KT 4SM -SHSN DRSN OVC030 M09/M13 A3000 RMK SC8 SLP162

CYYG;2012-01-11 18:00;CYYG 111800Z 34015G20KT 4SM -SHSN DRSN BKN031 M09/M14 A3001 RMK SC7 SLP164

CYYG;2012-01-11 19:00;CYYG 111900Z 33015G22KT 6SM -SHSN DRSN BKN030 M10/M15 A3005 RMK SC6 SLP179

CYYG;2012-01-11 20:00;CYYG 112000Z 33014G20KT 6SM -SHSN DRSN BKN030 M10/M15 A3008 RMK SC6 SLP189

CYYG;2012-01-11 21:00;CYYG 112100Z 33011G16KT 8SM -SHSN DRSN BKN025 M10/M15 A3013 RMK SC7 SLP208

CYYG;2012-01-11 22:00;CYYG 112200Z 34011G18KT 10SM -SHSN DRSN BKN028 M10/M15 A3015 RMK SC7 SLP213

CYYG;2012-01-11 23:00;CYYG 112300Z 33011KT 10SM -SHSN DRSN BKN028 M10/M14 A3016 RMK SC7 SLP218

CYYG;2012-01-11 23:52;CYYG 112352Z 32006KT 15SM BKN028 M09/ RMK SC7

CYYG;2012-01-12 00:00;CYYG 120000Z 33006KT 15SM BKN026 M09/M14 A3018 RMK SC7 SLP223

CYYG;2012-01-12 01:00;CYYG 120100Z 27005KT 15SM BKN027 M10/M14 A3019 RMK SC7 SLP227

CYYG;2012-01-12 02:00;CYYG 120200Z 27009KT 15SM BKN030 M11/M15 A3020 RMK SC7 SLP231

CYYG;2012-01-12 03:00;CYYG 120300Z 28008KT 15SM BKN030 M11/M15 A3020 RMK SC7 SLP230

CYYG;2012-01-12 04:00;CYYG 120400Z 28006KT 15SM BKN032 M11/M15 A3020 RMK SC6 SLP232

CYYG;2012-01-12 05:00;CYYG 120500Z 30006KT 14SM BKN030 M02/M16 A3021 RMK SC6 SLP235

CYYG;2012-01-12 06:00;CYYG 120600Z 27006KT 15SM SCT030 M12/M16 A3024 RMK SC3 SLP244

CYYG;2012-01-12 07:00;CYYG 120700Z 26005KT 15SM FEW030 M12/M15 A3027 RMK SC2 SLP254

CYYG;2012-01-12 08:00;CYYG 120800Z 32003KT 15SM FEW030 M13/M16 A3026 RMK SC2 SLP251

CYYG;2012-01-12 09:00;CYYG 120900Z 27006KT 15SM SKC M13/M16 A3027 RMK SLP255

CYYG;2012-01-12 10:00;CYYG 121000Z 29005KT 15SM FEW095 M12/M15 A3029 RMK AC2 SLP261

CYYG;2012-01-12 11:00;CYYG 121100Z 30004KT 15SM FEW095 M13/M16 A3029 RMK AC2 SLP261

CYYG;2012-01-12 12:00;CYYG 121200Z 27004KT 15SM FEW025 FEW095 SCT240 M12/M15 A3033 RMK SC1AC1CI0 SLP273

CYYG;2012-01-12 13:00;CYYG 121300Z 32004KT 15SM FEW025 FEW120 BKN250 M11/M15 A3033 RMK SC1AC2CI0 SLP274

CYYG;2012-01-12 14:00;CYYG 121400Z 30003KT 15SM FEW030 FEW150 BKN250 M09/M13 A3033 RMK SC1AC1CS1 SLP276

CYYG;2012-01-12 15:00;CYYG 121500Z 00000KT 15SM FEW030 FEW120 BKN250 M07/M12 A3032 RMK SC1AC1CS1 SLP271

CYYG;2012-01-12 16:00;CYYG 121600Z 13004KT 15SM FEW030 FEW120 BKN250 M07/M13 A3032 RMK SC1AC1CS2 SLP271

CYYG;2012-01-12 17:00;CYYG 121700Z 17005KT 15SM FEW030 FEW120 BKN180 M07/M12 A3028 RMK SC1AC1AS3 SLP257

CYYG;2012-01-12 18:00;CYYG 121800Z 11004KT 15SM FEW030 FEW120 BKN180 M07/M12 A3027 RMK SC1AC2AS4 SLP253

CYYG;2012-01-12 19:00;CYYG 121900Z 12009KT 15SM FEW030 SCT100 OVC120 M06/M13 A3025 RMK SC1AC2AS5 SLP249

CYYG;2012-01-12 20:00;CYYG 122000Z 11011KT 15SM FEW030 OVC090 M06/M12 A3024 RMK SC1AS7 SLP243

CYYG;2012-01-12 21:00;CYYG 122100Z 10011KT 15SM FEW030 OVC085 M06/M11 A3020 RMK SC1AS7 PRESFR SLP231

CYYG;2012-01-12 22:00;CYYG 122200Z 11011KT 15SM OVC042 M05/M10 A3017 RMK NS8 SLP219

CYYG;2012-01-12 23:00;CYYG 122300Z 10012G17KT 15SM FEW050 OVC075 M04/M09 A3010 RMK SC2AS6 SLP198

CYYG;2012-01-13 00:00;CYYG 130000Z 13014KT 15SM BKN025 OVC075 M04/M09 A3008 RMK SC6AS2 SLP189

CYYG;2012-01-13 00:09;CYYG 130009Z 13016G21KT 10SM -SHSN DRSN OVC020 M04/ RMK SC8

CYYG;2012-01-13 00:33;CYYG 130033Z 13016G21KT 3SM -SHSN DRSN OVC020 M05/ RMK SN2SC6

CYYG;2012-01-13 01:00;CYYG 130100Z 13016G22KT 3/4SM R03/4500FT/N -SN DRSN VV006 M05/M06 A3004 RMK SN8 SLP175

CYYG;2012-01-13 01:35;CYYG 130135Z 10013G18KT 5/8SM R03/3000V4500FT/N -SN DRSN VV004 M04/ RMK SN8

CYYG;2012-01-13 01:50;CYYG 130150Z 11016KT 1/2SM R03/1800V2600FT/N SN DRSN VV002 M04/ RMK SN8

CYYG;2012-01-13 02:00;CYYG 130200Z 12015G21KT 1/2SM R03/3000FT/U SN DRSN VV003 M04/M05 A2997 RMK SN8 /S02/ PRESFR SLP153

CYYG;2012-01-13 03:00;CYYG 130300Z 11016G21KT 1/2SM R03/3000FT/N SN VV002 M04/M04 A2993 RMK SN8 /S04/ SLP140

CYYG;2012-01-13 03:33;CYYG 130333Z 11018G25KT 1SM R03/P6000FT/N -SN VV004 M03/ RMK SN8

CYYG;2012-01-13 04:00;CYYG 130400Z 11016G21KT 1 1/2SM -SN OVC010 M03/M04 A2986 RMK SN6SF2 /S07/ PRESFR SLP115

CYYG;2012-01-13 04:31;CYYG 130431Z 11018G24KT 1 1/2SM -SHGS OVC010 M03/ RMK SN4SF4

CYYG;2012-01-13 05:00;CYYG 130500Z 11017G27KT 2SM -SN OVC011 M02/M04 A2979 RMK SN2SF6 /S08/ PRESFR SLP092

CYYG;2012-01-13 06:00;CYYG 130600Z 11019G25KT 3SM -SN OVC011 M02/M04 A2974 RMK SF8 /S09/ SLP074

CYYG;2012-01-13 07:00;CYYG 130700Z 12017G25KT 3SM -SN DRSN OVC010 M01/M02 A2971 RMK SF8 SLP062

CYYG;2012-01-13 08:00;CYYG 130800Z 13016G21KT 12SM -SN DRSN OVC011 00/M01 A2966 RMK SC8 SLP045

CYYG;2012-01-13 08:40;CYYG 130840Z 13016G21KT 15SM DRSN OVC012 01/ RMK SC8

CYYG;2012-01-13 09:00;CYYG 130900Z 13016G22KT 15SM DRSN OVC012 01/M00 A2962 RMK SC8 SLP033

CYYG;2012-01-13 10:00;CYYG 131000Z 14018KT 15SM OVC011 01/M00 A2959 RMK SC8 SLP023

CYYG;2012-01-13 10:38;CYYG 131038Z 14014KT 15SM OVC009 01/ RMK SF8

CYYG;2012-01-13 11:00;CYYG 131100Z 14011KT 15SM OVC008 01/01 A2958 RMK SF8 SLP019

CYYG;2012-01-13 11:42;CYYG 131142Z 14013KT 8SM -DZ BKN007 OVC018 02/ RMK SF6SC2

CYYG;2012-01-13 12:00;CYYG 131200Z 14012G18KT 8SM -DZ BKN007 OVC018 02/01 A2956 RMK SF6SC2 /S01/ SLP012

CYYG;2012-01-13 13:00;CYYG 131300Z 17015KT 10SM FEW004 OVC009 03/02 A2955 RMK SF2SF6 SLP009

CYYG;2012-01-13 13:36;CYYG 131336Z 18012G17KT 8SM OVC005 03/ RMK SF8

CYYG;2012-01-13 14:00;CYYG 131400Z 18014KT 8SM OVC004 03/02 A2955 RMK SF8 SLP007

CYYG;2012-01-13 14:20;CYYG 131420Z 17014KT 8SM BKN003 OVC006 03/ RMK SF7SF1

CYYG;2012-01-13 15:00;CYYG 131500Z 18008KT 8SM BKN003 OVC006 03/03 A2954 RMK SF7SF1 SLP004

CYYG;2012-01-13 15:16;CYYG 131516Z 19010KT 8SM SCT003 OVC007 03/ RMK SF3SF5 VIS S 12

CYYG;2012-01-13 16:00;CYYG 131600Z 20011KT 10SM FEW003 OVC009 04/04 A2952 RMK SF2SF6 SLP998

CYYG;2012-01-13 17:00;CYYG 131700Z 18009KT 15SM FEW004 BKN011 OVC200 03/03 A2948 RMK SF1SC6CI1 SLP985

CYYG;2012-01-13 18:00;CYYG 131800Z 18006KT 15SM FEW012 FEW060 BKN180 04/03 A2946 RMK SC2SC1AC5 SLP978

CYYG;2012-01-13 18:37;CYYG 131837Z 18009KT 15SM FEW014 BKN030 OVC180 04/ RMK SC2SC4AC2

CYYG;2012-01-13 19:00;CYYG 131900Z 17009KT 15SM FEW014 SCT030 OVC140 04/03 A2944 RMK SC2SC2AC4 SLP971

CYYG;2012-01-13 19:40;CYYG 131940Z 17010KT 15SM BKN016 BKN025 OVC140 15/ RMK SC5SC2AS2

CYYG;2012-01-13 20:00;CYYG 132000Z 17012KT 15SM OVC012 05/04 A2942 RMK SC8 SLP964

CYYG;2012-01-13 20:08;CYYG 132008Z 16011KT 12SM OVC007 05/ RMK ST8

CYYG;2012-01-13 20:14;CYYG 132014Z 15011KT 12SM -SHRA OVC007 05/ RMK SF8

CYYG;2012-01-13 20:32;CYYG 132032Z 14011G16KT 5SM -SHRA BR OVC005 05/ RMK SF8

CYYG;2012-01-13 20:45;CYYG 132045Z 15009KT 3SM -SHRA BR OVC004 05/ RMK SF8

CYYG;2012-01-13 21:00;CYYG 132100Z 16009KT 2 1/2SM -SHRA BR OVC002 05/05 A2936 RMK FG2SF6 SLP943

CYYG;2012-01-13 21:32;CYYG 132132Z 16009KT 1/2SM R03/2800VP6000FT/D -SHRA FG OVC004 05/ RMK FG6SF2

CYYG;2012-01-13 21:43;CYYG 132143Z 15011KT 3/8SM R03/2200FT/N SHRA FG VV001 06/ RMK FG8

CYYG;2012-01-13 22:00;CYYG 132200Z 14010KT 3/8SM R03/1800FT/N -SHRA FG VV001 06/05 A2930 RERA RMK FG8 SLP923

CYYG;2012-01-13 23:00;CYYG 132300Z 14012G18KT 3/8SM R03/1400V2000FT/N -SHRA FG VV001 06/06 A2921 RMK FG8 SLP893

CYYG;2012-01-13 23:18;CYYG 132318Z 16014KT 3SM -SHRA BR BKN003 OVC013 08/ RMK SF6SC2

CYYG;2012-01-13 23:30;CYYG 132330Z 16015G20KT 6SM BR BKN002 OVC012 08/ RMK SF6SC2

CYYG;2012-01-14 00:00;CYYG 140000Z 17015G20KT 15SM SCT002 OVC013 07/07 A2917 RMK SF3SC5 SLP880

CYYG;2012-01-14 00:15;CYYG 140015Z 17016KT 10SM BKN002 OVC012 07/ RMK SF6SC2

CYYG;2012-01-14 00:49;CYYG 140049Z 19017KT 15SM FEW002 BKN015 OVC042 07/ RMK SF2SC4SC2

CYYG;2012-01-14 01:00;CYYG 140100Z 19018KT 15SM FEW002 BKN013 OVC042 07/07 A2913 RMK SF2SC5SC2 SLP866

CYYG;2012-01-14 02:00;CYYG 140200Z 22021G28KT 15SM FEW020 FEW068 07/05 A2912 RMK SC1AC1 SLP861

CYYG;2012-01-14 03:00;CYYG 140300Z 21021G27KT 15SM SCT032 05/01 A2910 RMK SC3 SLP855

CYYG;2012-01-14 03:07;CYYG 140307Z 23016G30KT 10SM -SHRA BKN021 04/ RMK SC6

CYYG;2012-01-14 03:44;CYYG 140344Z 24017G29KT 5SM -SHSN BKN020 02/ RMK SC6

CYYG;2012-01-14 04:00;CYYG 140400Z 23019G27KT 15SM -SHRA FEW007 BKN025 BKN040 02/00 A2910 RMK SF2SC3SC2 SLP857

CYYG;2012-01-14 04:35;CYYG 140435Z 21017G25KT 15SM SCT030 BKN110 02/ RMK SC3AC2

CYYG;2012-01-14 05:00;CYYG 140500Z 22018G26KT 15SM FEW030 SCT080 BKN110 03/M02 A2910 RMK SC2AC2AC2 SLP855

CYYG;2012-01-14 05:21;CYYG 140521Z 22020G31KT 15SM -SHSN BKN026 03/ RMK SC6

CYYG;2012-01-14 06:00;CYYG 140600Z 22019G29KT 3SM -SHSN OVC013 01/M01 A2910 RMK SC8 SLP857

CYYG;2012-01-14 06:53;CYYG 140653Z 21017G24KT 3/4SM R03/4500VP6000FT/D -SHSN VV003 00/ RMK SN8

CYYG;2012-01-14 07:00;CYYG 140700Z 22019G25KT 5SM -SHSN OVC010 00/M00 A2911 RMK SC8 SLP860

CYYG;2012-01-14 08:00;CYYG 140800Z 23022G30KT 15SM -SHSN FEW005 BKN024 OVC057 01/M00 A2912 RMK SF2SC4SC2 SLP861

CYYG;2012-01-14 09:00;CYYG 140900Z 24020G33KT 15SM -SHSN SCT012 OVC040 01/M01 A2914 RMK SC3SC5 SLP870

CYYG;2012-01-14 09:20;CYYG 140920Z 25022G31KT 15SM OVC042 00/ RMK SC8

CYYG;2012-01-14 10:00;CYYG 141000Z 25022G33KT 15SM OVC032 00/M02 A2920 RMK SC8 SLP888

CYYG;2012-01-14 11:00;CYYG 141100Z 25019G33KT 15SM BKN030 00/M04 A2927 RMK SC7 PRESRR SLP913

CYYG;2012-01-14 12:00;CYYG 141200Z 25020G29KT 15SM FEW030 BKN160 M00/M04 A2934 RMK SC2AC5 PRESRR SLP938

CYYG;2012-01-14 13:00;CYYG 141300Z 26014G26KT 15SM FEW030 SCT200 M01/M06 A2942 RMK SC1CI1 PRESRR SLP962

CYYG;2012-01-14 14:00;CYYG 141400Z 25022G30KT 15SM BKN029 M01/M06 A2947 RMK SC6 SLP980

CYYG;2012-01-14 15:00;CYYG 141500Z 26018G26KT 15SM BKN029 M01/M06 A2950 RMK SC6 SLP992

CYYG;2012-01-14 16:00;CYYG 141600Z 27014G22KT 15SM FEW029 M01/M06 A2950 RMK SC2 SLP992

CYYG;2012-01-14 17:00;CYYG 141700Z 26012G18KT 15SM FEW029 SCT250 M01/M07 A2950 RMK SC1CI1 SLP993

CYYG;2012-01-14 18:00;CYYG 141800Z 27011G16KT 15SM BKN027 BKN040 BKN250 M01/M07 A2952 RMK SC5SC1CI0 SLP997

CYYG;2012-01-14 19:00;CYYG 141900Z 28010KT 15SM BKN024 BKN250 M02/M07 A2952 RMK SC6CI0 SLP999

CYYG;2012-01-14 20:00;CYYG 142000Z 29010KT 15SM BKN029 BKN250 M03/M08 A2954 RMK SC5CI0 SLP005

CYYG;2012-01-14 21:00;CYYG 142100Z 29005KT 15SM SCT030 SCT050 M04/M09 A2956 RMK SC3SC1 SLP011

CYYG;2012-01-14 22:00;CYYG 142200Z 30006KT 15SM FEW030 OVC110 M04/M08 A2956 RMK SC1AC7 SLP013

CYYG;2012-01-14 22:39;CYYG 142239Z 31006KT 15SM -SHSN SCT035 OVC110 M04/ RMK SC3AC5

CYYG;2012-01-14 23:00;CYYG 142300Z 31007KT 4SM -SHSN BKN045 OVC110 M04/M08 A2959 RMK SC6AC2 SLP023

CYYG;2012-01-14 23:15;CYYG 142315Z 31006KT 3SM -SHSN SCT010 OVC022 M04/ RMK SC3SC5

CYYG;2012-01-15 00:00;CYYG 150000Z 32009KT 15SM -SHSN DRSN FEW010 BKN047 BKN070 OVC110 M05/M08 A2962 RMK SC2SC3AC2AC2 SLP032

CYYG;2012-01-15 01:00;CYYG 150100Z 33014KT 10SM -SHSN DRSN BKN013 BKN032 OVC100 M07/M09 A2965 RMK SC5SC2AC2 SLP042

CYYG;2012-01-15 02:00;CYYG 150200Z 33015G20KT 3SM -SHSN DRSN BKN013 OVC038 M07/M10 A2966 RMK SC6SC2 SLP048

CYYG;2012-01-15 03:00;CYYG 150300Z 31010G15KT 10SM -SHSN DRSN FEW013 BKN027 OVC095 M08/M11 A2969 RMK SC2SC5AC2 SLP056

CYYG;2012-01-15 04:00;CYYG 150400Z 30011G16KT 10SM -SHSN DRSN OVC033 M09/M12 A2971 RMK SC8 SLP064

CYYG;2012-01-15 05:00;CYYG 150500Z 29013KT 15SM -SHSN DRSN OVC027 M10/M13 A2971 RMK SC8 SLP064

CYYG;2012-01-15 06:00;CYYG 150600Z 29013KT 15SM -SHSN DRSN BKN036 OVC043 M11/M14 A2973 RMK SC6SC2 SLP071

CYYG;2012-01-15 07:00;CYYG 150700Z 30012KT 15SM -SHSN DRSN OVC043 M11/M13 A2976 RMK SC8 SLP079

CYYG;2012-01-15 08:00;CYYG 150800Z 31010KT 1 1/2SM -SHSN DRSN VV010 M10/M12 A2977 RMK SN8 SLP084

CYYG;2012-01-15 09:00;CYYG 150900Z 33009G15KT 5SM -SHSN DRSN OVC013 M09/M11 A2979 RMK SC8 SLP093

CYYG;2012-01-15 10:00;CYYG 151000Z 33012G17KT 15SM -SHSN DRSN OVC046 M10/M13 A2982 RMK SC8 SLP101

CYYG;2012-01-15 11:00;CYYG 151100Z 34012KT 15SM -SHSN DRSN OVC044 M10/M14 A2985 RMK SC8 SLP111

CYYG;2012-01-15 12:00;CYYG 151200Z 35011KT 10SM -SHSN DRSN OVC040 M10/M14 A2989 RMK SC8 VIS NE-E 5 /S02/ SLP125

CYYG;2012-01-15 13:00;CYYG 151300Z 33013KT 12SM -SHSN DRSN BKN038 BKN250 M10/M15 A2992 RMK SC7CI1 VIS LWR NW-NE SLP134

CYYG;2012-01-15 14:00;CYYG 151400Z 32010G15KT 5SM -SHSN DRSN FEW015 BKN035 BKN250 M11/M14 A2994 RMK CU1SC5CI0 VIS VRB 3-8 SLP142

CYYG;2012-01-15 15:00;CYYG 151500Z 32011KT 2 1/2SM -SHSN DRSN FEW015 OVC035 M11/M14 A2996 RMK CU1SC7 SLP148

CYYG;2012-01-15 15:22;CYYG 151522Z 31011KT 1 1/2SM -SHSN DRSN OVC035 M11/ RMK SN2SC6

CYYG;2012-01-15 15:47;CYYG 151547Z 32011G18KT 2 1/2SM -SHSN DRSN BKN035 M11/ RMK SC7 VIS HIER S-W

CYYG;2012-01-15 16:00;CYYG 151600Z 32012G22KT 3SM -SHSN DRSN FEW020 BKN035 M11/M15 A2996 RMK SC2SC6 SLP147

CYYG;2012-01-15 17:00;CYYG 151700Z 31012KT 5SM -SHSN DRSN FEW020 BKN030 M11/M15 A2996 RMK SC2SC6 SLP149

CYYG;2012-01-15 18:00;CYYG 151800Z 30009G16KT 15SM VCSH FEW020 FEW030 BKN250 M12/M15 A2997 RMK SC1SC2CI1 VIS N-E 5 SLP154

CYYG;2012-01-15 19:00;CYYG 151900Z 31011KT 15SM DRSN VCSH FEW025 BKN250 M12/M17 A3000 RMK SC2CI1 SLP164

CYYG;2012-01-15 20:00;CYYG 152000Z 30011KT 15SM DRSN VCSH SCT027 BKN250 M13/M17 A3002 RMK SC3CI1 SLP170

CYYG;2012-01-15 21:00;CYYG 152100Z 29008KT 15SM DRSN FEW022 FEW250 M14/M17 A3004 RMK SC2CI0 -SHSN DIST N-E SLP177

CYYG;2012-01-15 22:00;CYYG 152200Z 28006KT 15SM FEW022 M15/M19 A3005 RMK SC1 SLP181

CYYG;2012-01-15 23:00;CYYG 152300Z 29004KT 15SM FEW022 M15/M19 A3006 RMK SC1 SLP184

CYYG;2012-01-16 00:00;CYYG 160000Z 27005KT 15SM FEW023 M15/M19 A3007 RMK SC2 SLP187

CYYG;2012-01-16 01:00;CYYG 160100Z 28007KT 15SM SCT024 M13/M17 A3008 RMK SC4 SLP191

CYYG;2012-01-16 02:00;CYYG 160200Z 30014KT 15SM BKN025 M13/M17 A3009 RMK SC6 SLP193

CYYG;2012-01-16 02:18;CYYG 160218Z 30013KT 12SM -SHSN OVC024 M13/ RMK SC8

CYYG;2012-01-16 03:00;CYYG 160300Z 30014KT 15SM -SHSN OVC023 M13/M16 A3010 RMK SC8 SLP198

CYYG;2012-01-16 04:00;CYYG 160400Z 29012G18KT 15SM -SHSN OVC022 M13/M16 A3012 RMK SC8 SLP202

CYYG;2012-01-16 05:00;CYYG 160500Z 24009G16KT 15SM -SHSN OVC024 M14/M16 A3012 RMK SC8 SLP203

CYYG;2012-01-16 06:00;CYYG 160600Z 29012KT 15SM -SHSN OVC025 M14/M16 A3014 RMK SC8 SLP212

CYYG;2012-01-16 07:00;CYYG 160700Z 28012KT 15SM -SHSN OVC026 M13/M16 A3017 RMK SC8 SLP219

CYYG;2012-01-16 08:00;CYYG 160800Z 28014G19KT 15SM -SHSN OVC022 M13/M16 A3019 RMK SC8 SLP226

CYYG;2012-01-16 09:00;CYYG 160900Z 28013G19KT 15SM -SHSN OVC021 M13/M16 A3020 RMK SC8 SLP230

CYYG;2012-01-16 10:00;CYYG 161000Z 28012KT 15SM -SHSN OVC019 M13/M16 A3022 RMK SC8 SLP236

CYYG;2012-01-16 11:00;CYYG 161100Z 28010G16KT 15SM OVC017 M13/M16 A3025 RMK SC8 SLP247

CYYG;2012-01-16 12:00;CYYG 161200Z 27010G15KT 10SM -SHSN DRSN OVC015 M13/M16 A3027 RMK SC8 SLP255

CYYG;2012-01-16 13:00;CYYG 161300Z 29010G15KT 12SM -SHSN DRSN OVC014 M13/M16 A3030 RMK SC8 VIS LWR NW-NE SLP264

CYYG;2012-01-16 14:00;CYYG 161400Z 28011KT 12SM -SHSN DRSN BKN015 M13/M15 A3031 RMK SC7 VIS NW-NE 3 SLP267

CYYG;2012-01-16 14:25;CYYG 161425Z 29010KT 12SM DRSN VCSH BKN014 M13/ RMK SC6

CYYG;2012-01-16 15:00;CYYG 161500Z CCA 31012KT 15SM DRSN VCSH SCT014 M12/M15 A3032 RMK SC4 VIS NE 3 SLP271

CYYG;2012-01-16 16:00;CYYG 161600Z 28006KT 15SM VCSH FEW014 M11/M15 A3031 RMK SC2 SLP267

CYYG;2012-01-16 17:00;CYYG 161700Z 27009KT 15SM FEW015 M10/M14 A3028 RMK SC2 SLP259

CYYG;2012-01-16 18:00;CYYG 161800Z 27007KT 15SM FEW015 M09/M15 A3027 RMK SC2 SLP255

CYYG;2012-01-16 19:00;CYYG 161900Z 29006KT 15SM FEW015 M09/M15 A3028 RMK SC1 SLP257

CYYG;2012-01-16 20:00;CYYG 162000Z 29007KT 15SM FEW015 FEW250 M10/M16 A3029 RMK SC1CI1 SLP260

CYYG;2012-01-16 21:00;CYYG 162100Z 26004KT 15SM FEW015 FEW250 M10/M16 A3029 RMK SC1CS1 SLP262

CYYG;2012-01-16 22:00;CYYG 162200Z 25005KT 15SM FEW015 FEW250 M10/M16 A3030 RMK SC1CS1 SLP263

CYYG;2012-01-16 23:00;CYYG 162300Z 23002KT 15SM BKN210 M10/M16 A3028 RMK CS1 SLP259

CYYG;2012-01-17 00:00;CYYG 170000Z 23005KT 15SM FEW210 M10/M16 A3027 RMK CS1 SLP254

CYYG;2012-01-17 01:00;CYYG 170100Z 25005KT 15SM FEW150 BKN210 M10/M15 A3025 RMK AC2CI1 SLP246

CYYG;2012-01-17 02:00;CYYG 170200Z 22005KT 15SM FEW150 BKN200 M09/M14 A3022 RMK AC2CI1 SLP237

CYYG;2012-01-17 03:00;CYYG 170300Z 22004KT 15SM FEW140 BKN200 M10/M14 A3019 RMK AC1CI1 SLP227

CYYG;2012-01-17 04:00;CYYG 170400Z 22005KT 15SM BKN021 OVC110 M08/M10 A3014 RMK SC6AC2 SLP210

CYYG;2012-01-17 05:00;CYYG 170500Z 21012G17KT 15SM BKN024 OVC090 M06/M09 A3010 RMK SC6AC2 SLP196

CYYG;2012-01-17 06:00;CYYG 170600Z 21013KT 15SM SCT030 OVC071 M05/M08 A3008 RMK SC4AC4 SLP188

CYYG;2012-01-17 07:00;CYYG 170700Z 21012G20KT 15SM OVC034 M04/M07 A3005 RMK SC8 SLP178

CYYG;2012-01-17 08:00;CYYG 170800Z 21016KT 15SM OVC025 M03/M07 A3000 RMK SC8 SLP163

CYYG;2012-01-17 09:00;CYYG 170900Z 21016KT 15SM OVC023 M03/M06 A2995 RMK SC8 SLP146

CYYG;2012-01-17 09:19;CYYG 170919Z 21015G20KT 15SM -SHSN OVC022 M02/ RMK SC8

CYYG;2012-01-17 10:00;CYYG 171000Z 21015G20KT 15SM -SHSN DRSN OVC022 M02/M05 A2992 RMK SC8 SLP135

CYYG;2012-01-17 11:00;CYYG 171100Z 22011G19KT 15SM -SN DRSN OVC019 M01/M04 A2991 RMK SC8 SLP131

CYYG;2012-01-17 11:20;CYYG 171120Z 23011KT 3SM -SN DRSN OVC018 M01/ RMK SC8

CYYG;2012-01-17 12:00;CYYG 171200Z 23009KT 5SM -SHSN DRSN SCT005 OVC011 M01/M03 A2991 RMK SF3SC5 SLP131

CYYG;2012-01-17 12:12;CYYG 171212Z 23009G15KT 8SM -SHSN DRSN BKN006 OVC012 M01/ RMK SF6SC2

CYYG;2012-01-17 13:00;CYYG 171300Z 25008KT 10SM BKN006 OVC012 M01/M02 A2991 RMK SF6SC2 SLP132

CYYG;2012-01-17 14:00;CYYG 171400Z 25006KT 12SM BKN007 BKN020 OVC050 M00/M02 A2991 RMK SF5SC1SC2 SLP132

CYYG;2012-01-17 14:06;CYYG 171406Z 25006KT 15SM SCT007 SCT020 OVC053 M00/ RMK SF3SC1SC4

CYYG;2012-01-17 15:00;CYYG 171500Z 27007KT 15SM FEW008 OVC055 M00/M03 A2990 RMK SF1SC7 SLP130

CYYG;2012-01-17 16:00;CYYG 171600Z 28006KT 15SM FEW020 OVC054 M00/M06 A2989 RMK SC1SC7 SLP124

CYYG;2012-01-17 17:00;CYYG 171700Z 27006KT 15SM FEW020 OVC053 M00/M06 A2986 RMK SC2SC6 SLP116

CYYG;2012-01-17 18:00;CYYG 171800Z 30006KT 15SM FEW020 OVC051 M01/M07 A2985 RMK SC1SC7 SLP112

CYYG;2012-01-17 19:00;CYYG 171900Z 29004KT 15SM OVC051 M01/M07 A2984 RMK SC8 SLP108

CYYG;2012-01-17 20:00;CYYG 172000Z 31003KT 15SM OVC048 M01/M07 A2988 RMK SC8 SLP122

CYYG;2012-01-17 21:00;CYYG 172100Z 00000KT 15SM OVC047 M01/M07 A2988 RMK SC8 SLP120

CYYG;2012-01-17 22:00;CYYG 172200Z 07004KT 15SM OVC044 M01/M06 A2988 RMK SC8 SLP122

CYYG;2012-01-17 23:00;CYYG 172300Z 08004KT 15SM OVC044 M02/M06 A2987 RMK SC8 SLP117

CYYG;2012-01-18 00:00;CYYG 180000Z 08004KT 15SM OVC045 M02/M06 A2986 RMK SC8 SLP114

CYYG;2012-01-18 01:00;CYYG 180100Z 12006KT 15SM BKN045 OVC070 M02/M06 A2986 RMK SC5AC3 SLP113

CYYG;2012-01-18 02:00;CYYG 180200Z 11006KT 15SM SCT045 OVC066 M02/M06 A2982 RMK SC3AC5 SLP099

CYYG;2012-01-18 03:00;CYYG 180300Z 11006KT 15SM SCT045 OVC068 M02/M05 A2978 RMK SC3AC5 SLP086

CYYG;2012-01-18 03:46;CYYG 180346Z 11008KT 10SM -SHSN BKN025 OVC046 M01/ RMK SC5SC3

CYYG;2012-01-18 04:00;CYYG 180400Z 12009KT 10SM -SHSN BKN023 OVC042 M01/M04 A2973 RMK SC6SC2 SLP069

CYYG;2012-01-18 04:48;CYYG 180448Z 13008KT 5SM -SHSN OVC014 M01/ RMK SC8

CYYG;2012-01-18 05:00;CYYG 180500Z 13008KT 5SM -SHSN OVC014 M01/M02 A2970 RMK SC8 SLP059

CYYG;2012-01-18 06:00;CYYG 180600Z CCA 11009KT 4SM -SHSN OVC010 M01/M02 A2965 RMK SC8 /S01/ SLP042

CYYG;2012-01-18 06:07;CYYG 180607Z 12018KT 4SM -SN OVC007 M01/ RMK SF8

CYYG;2012-01-18 07:00;CYYG 180700Z 13009KT 4SM -SN OVC005 M00/M01 A2959 RMK SF8 PRESFR SLP021

CYYG;2012-01-18 08:00;CYYG 180800Z 14011KT 12SM -SHSN OVC005 00/M00 A2953 RMK SF8 PRESFR SLP002

CYYG;2012-01-18 08:09;CYYG 180809Z 14011KT 12SM OVC004 00/ RMK SF8

CYYG;2012-01-18 09:00;CYYG 180900Z 14013KT 12SM OVC003 01/01 A2947 RMK SF8 PRESFR SLP981

CYYG;2012-01-18 10:00;CYYG 181000Z 15012KT 12SM OVC004 02/02 A2942 RMK SF8 SLP966

CYYG;2012-01-18 11:00;CYYG 181100Z 15017KT 12SM OVC003 03/03 A2935 RMK SF8 PRESFR SLP942

CYYG;2012-01-18 12:00;CYYG 181200Z 17013KT 12SM OVC003 03/03 A2935 RMK SF8 SLP941

CYYG;2012-01-18 12:19;CYYG 181219Z 16011G16KT 1 1/2SM BR OVC002 03/ RMK FG3SF5

CYYG;2012-01-18 12:27;CYYG 181227Z 16011G16KT 3/4SM R03/4000VP6000FT/D -DZ BR VV002 03/ RMK FG8

CYYG;2012-01-18 13:00;CYYG 181300Z 17017KT 1/2SM R03/2600FT/N -DZ FG VV002 04/04 A2932 RMK FG8 SLP930

CYYG;2012-01-18 13:44;CYYG 181344Z 19013KT 3/4SM R03/2200VP6000FT/U -DZ BR OVC002 04/ RMK FG4SF4

CYYG;2012-01-18 14:00;CYYG 181400Z 20013G18KT 2SM -DZ BR OVC002 05/05 A2932 RMK FG2SF6 SLP931

CYYG;2012-01-18 14:52;CYYG 181452Z 21012G17KT 10SM SCT004 BKN019 06/ RMK SF4SC3

CYYG;2012-01-18 15:00;CYYG 181500Z 21014KT 10SM SCT004 BKN019 BKN033 06/06 A2931 RMK SF3SC2SC2 SLP926

CYYG;2012-01-18 16:00;CYYG 181600Z 21014KT 12SM FEW008 SCT018 BKN035 06/06 A2928 RMK SF1SC3SC3 SLP918

CYYG;2012-01-18 17:00;CYYG 181700Z 23020G27KT 15SM FEW018 FEW035 BKN060 07/04 A2927 RMK SC1SC2SC2 SLP912

CYYG;2012-01-18 18:00;CYYG 181800Z 23018G29KT 15SM SCT055 06/01 A2929 RMK SC4 SLP919

CYYG;2012-01-18 19:00;CYYG 181900Z 24018G26KT 15SM SCT053 05/00 A2931 RMK SC4 SLP926

CYYG;2012-01-18 20:00;CYYG 182000Z 24015G22KT 15SM BKN055 04/M01 A2934 RMK SC5 SLP938

CYYG;2012-01-18 21:00;CYYG 182100Z 27013KT 15SM SCT028 BKN055 01/M03 A2940 RMK SC3SC2 SLP958

CYYG;2012-01-18 22:00;CYYG 182200Z 28015G24KT 15SM SCT035 BKN055 M01/M06 A2946 RMK SC3SC2 PRESRR SLP978

CYYG;2012-01-18 23:00;CYYG 182300Z 27017G28KT 15SM FEW035 SCT055 M02/M08 A2952 RMK SC2SC1 SLP997

CYYG;2012-01-19 00:00;CYYG 190000Z 27014G28KT 15SM FEW035 SCT055 M04/M10 A2958 RMK SC2SC2 SLP018

CYYG;2012-01-19 01:00;CYYG 190100Z 27024G31KT 15SM BKN027 M05/M11 A2962 RMK SC6 SLP032

CYYG;2012-01-19 02:00;CYYG 190200Z 28019G28KT 15SM BKN029 M06/M12 A2966 RMK SC5 SLP044

CYYG;2012-01-19 03:00;CYYG 190300Z 29019G30KT 15SM BKN027 M07/M13 A2971 RMK SC6 SLP062

CYYG;2012-01-19 04:00;CYYG 190400Z 28017G28KT 15SM BKN030 M07/M13 A2977 RMK SC7 PRESRR SLP082

CYYG;2012-01-19 05:00;CYYG 190500Z 28015G24KT 15SM SCT030 M08/M14 A2980 RMK SC4 SLP094

CYYG;2012-01-19 06:00;CYYG 190600Z 29016G26KT 15SM FEW030 M09/M15 A2986 RMK SC2 PRESRR SLP114

CYYG;2012-01-19 07:00;CYYG 190700Z 19013G19KT 15SM FEW030 M10/M15 A2991 RMK SC2 SLP130

CYYG;2012-01-19 08:00;CYYG 190800Z 28011G19KT 15SM FEW030 M11/M16 A2997 RMK SC1 PRESRR SLP150

CYYG;2012-01-19 09:00;CYYG 190900Z 29008G17KT 15SM FEW030 M11/M17 A3001 RMK SC1 SLP164

CYYG;2012-01-19 10:00;CYYG 191000Z 29012KT 15SM SKC M12/M17 A3004 RMK SLP177

CYYG;2012-01-19 11:00;CYYG 191100Z 30011KT 15SM FEW030 M13/M18 A3009 RMK SC1 SLP192

CYYG;2012-01-19 12:00;CYYG 191200Z 27007KT 15SM FEW030 FEW210 M13/M19 A3017 RMK SC1CI1 PRESRR SLP219

CYYG;2012-01-19 13:00;CYYG 191300Z 28010KT 15SM FEW025 FEW210 M12/M18 A3022 RMK SC2CI1 -SHSN DIST N-NE SLP237

CYYG;2012-01-19 14:00;CYYG 191400Z 28010KT 15SM FEW025 FEW210 M12/M18 A3025 RMK SC1CI1 SLP247

CYYG;2012-01-19 15:00;CYYG 191500Z 27008KT 15SM FEW210 M11/M16 A3027 RMK CI1 SLP254

CYYG;2012-01-19 16:00;CYYG 191600Z 34007KT 15SM FEW025 SCT210 M10/M17 A3028 RMK SC1CI0 SLP257

CYYG;2012-01-19 17:00;CYYG 191700Z 33011KT 15SM FEW025 BKN210 M10/M17 A3027 RMK SC1CI1 SLP253

CYYG;2012-01-19 18:00;CYYG 191800Z 35010G15KT 15SM FEW025 BKN280 M10/M17 A3025 RMK SC1CI1 SLP249

CYYG;2012-01-19 19:00;CYYG 191900Z 35014G21KT 15SM FEW025 SCT280 M10/M15 A3022 RMK SC1CI1 SLP237

CYYG;2012-01-19 19:34;CYYG 191934Z 36008G17KT 15SM -SHSN FEW016 BKN280 M10/ RMK SC2CI1

CYYG;2012-01-19 20:00;CYYG 192000Z 36011G16KT 15SM -SHSN BKN017 BKN280 M10/M14 A3024 RMK SC6CI0 SLP243

CYYG;2012-01-19 20:31;CYYG 192031Z 01008KT 4SM -SHSN BKN018 M10/ RMK SC6

CYYG;2012-01-19 20:46;CYYG 192046Z 02006KT 2 1/2SM -SHSN OVC018 M10/ RMK SC8

CYYG;2012-01-19 21:00;CYYG 192100Z 02005KT 2 1/2SM -SHSN OVC019 M09/M12 A3028 RMK SC8 SLP257

CYYG;2012-01-19 22:00;CYYG 192200Z 05005KT 5SM -SHSN OVC019 M09/M12 A3025 RMK SC8 SLP248

CYYG;2012-01-19 23:00;CYYG 192300Z 09005KT 8SM -SHSN OVC020 M08/M12 A3027 RMK SC8 SLP255

CYYG;2012-01-20 00:00;CYYG 200000Z 00000KT 15SM -SHSN OVC022 M08/M11 A3028 RMK SC8 SLP256

CYYG;2012-01-20 01:00;CYYG 200100Z 09003KT 15SM -SHSN OVC024 M08/M12 A3027 RMK SC8 SLP254

CYYG;2012-01-20 02:00;CYYG 200200Z 06007KT 15SM -SHSN BKN024 M08/M12 A3025 RMK SC6 SLP246

CYYG;2012-01-20 03:00;CYYG 200300Z 08009KT 15SM BKN024 M08/M11 A3024 RMK SC7 SLP244

CYYG;2012-01-20 04:00;CYYG 200400Z 09005KT 15SM OVC023 M07/M11 A3025 RMK SC8 SLP247

CYYG;2012-01-20 05:00;CYYG 200500Z 07007KT 15SM OVC024 M07/M11 A3024 RMK SC8 SLP243

CYYG;2012-01-20 06:00;CYYG 200600Z 06005KT 15SM OVC026 M06/M10 A3022 RMK SC8 SLP238

CYYG;2012-01-20 07:00;CYYG 200700Z 06004KT 15SM BKN027 M08/M11 A3020 RMK SC6 SLP231

CYYG;2012-01-20 08:00;CYYG 200800Z 08003KT 15SM OVC026 M07/M10 A3020 RMK SC8 SLP232

CYYG;2012-01-20 09:00;CYYG 200900Z 00000KT 15SM OVC026 M07/M10 A3021 RMK SC8 SLP234

CYYG;2012-01-20 10:00;CYYG 201000Z 01002KT 15SM OVC028 M07/M10 A3020 RMK SC8 SLP231

CYYG;2012-01-20 11:00;CYYG 201100Z 07006KT 15SM BKN024 M08/M11 A3019 RMK SC5 SLP226

CYYG;2012-01-20 12:00;CYYG 201200Z 07005KT 15SM FEW024 BKN280 M08/M11 A3017 RMK SC1CI2 SLP220

CYYG;2012-01-20 13:00;CYYG 201300Z 11004KT 15SM FEW024 FEW080 BKN280 M06/M10 A3017 RMK SC1AC1CI2 SLP221

CYYG;2012-01-20 14:00;CYYG 201400Z 11009KT 15SM FEW024 FEW080 BKN240 M04/M09 A3016 RMK SC1AC1CI2 SLP216

CYYG;2012-01-20 15:00;CYYG 201500Z 11007KT 15SM FEW024 FEW080 BKN200 M03/M09 A3014 RMK SC1AC1CI2 SLP208

CYYG;2012-01-20 16:00;CYYG 201600Z 11008KT 15SM FEW025 FEW080 BKN120 M03/M09 A3010 RMK SC1AC1AS6 SLP197

CYYG;2012-01-20 17:00;CYYG 201700Z 14006KT 15SM FEW025 FEW080 OVC100 M03/M08 A3008 RMK SC1AC1AS7 SLP188

CYYG;2012-01-20 18:00;CYYG 201800Z 14008KT 15SM FEW025 OVC035 M02/M08 A3006 RMK SC2SC6 SLP182

CYYG;2012-01-20 18:22;CYYG 201822Z 13009KT 15SM -SN FEW025 OVC035 M02/ RMK SC2SC6 VIS LWR SW-NW

CYYG;2012-01-20 19:00;CYYG 201900Z 11012KT 4SM -SN OVC035 M02/M07 A3003 RMK SC8 SLP172

CYYG;2012-01-20 19:15;CYYG 201915Z 11011KT 2 1/2SM -SN VV015 M02/ RMK SN8

CYYG;2012-01-20 19:44;CYYG 201944Z 11012KT 3/4SM R03/P6000FT/D -SN VV008 M03/ RMK SN8

CYYG;2012-01-20 20:00;CYYG 202000Z 11010KT 1/2SM R03/3000VP6000FT/D SN VV005 M03/M05 A3002 RMK SN8 SLP169

CYYG;2012-01-20 20:07;CYYG 202007Z 11009KT 3/4SM R03/3000V5000FT/U -SN VV008 M03/ RESN RMK SN8

CYYG;2012-01-20 20:49;CYYG 202049Z 10010KT 5/8SM R03/5000FT/D -SN VV006 M03/ RESN RMK SN8

CYYG;2012-01-20 21:00;CYYG 202100Z 10011KT 5/8SM R03/5500FT/N -SN VV005 M03/M05 A2999 RMK SN8 /S01/ SLP159

CYYG;2012-01-20 21:10;CYYG 202110Z 09009G15KT 3/4SM R03/P6000FT/U -SN DRSN VV008 M03/ RMK SN8

CYYG;2012-01-20 21:43;CYYG 202143Z 10010KT 1 1/4SM -SN DRSN VV012 M03/ RMK SN8

CYYG;2012-01-20 22:00;CYYG 202200Z 11012KT 2 1/2SM -SN DRSN BKN010 OVC045 M03/M04 A2995 RMK SC5SC3 /S03/ SLP146

CYYG;2012-01-20 22:05;CYYG 202205Z 11013KT 5SM -SHSN DRSN BKN008 OVC045 M03/ RMK SC6SC2

CYYG;2012-01-20 22:35;CYYG 202235Z 11013G19KT 2 1/2SM -SN DRSN OVC009 M02/ RMK SC8

CYYG;2012-01-20 22:53;CYYG 202253Z 11014G19KT 1/2SM R03/4500VP6000FT/D SN DRSN VV005 M02/ RMK SN8

CYYG;2012-01-20 23:00;CYYG 202300Z 11011G18KT 1/2SM R03/5000FT/N SN DRSN VV005 M02/M03 A2993 RMK SN8 /S05/ SLP137

CYYG;2012-01-20 23:35;CYYG 202335Z 11011G17KT 3SM -SN DRSN OVC008 M01/ RESN RMK SN2SF6

CYYG;2012-01-21 00:00;CYYG 210000Z 12012KT 5SM -SN DRSN OVC008 M01/M02 A2990 RESN RMK SN2SF6 /S06/ SLP130

CYYG;2012-01-21 00:37;CYYG 210037Z 14007KT 2 1/2SM -SN DRSN BKN004 OVC010 M01/ RMK SN3SF2SF3

CYYG;2012-01-21 01:00;CYYG 210100Z 15008KT 3SM -SN DRSN OVC008 M01/M02 A2988 RMK SN3SF5 /S01/ SLP123

CYYG;2012-01-21 01:23;CYYG 210123Z 16007KT 1 1/2SM -SN VV007 M01/ RMK SN8

CYYG;2012-01-21 01:45;CYYG 210145Z 18008KT 1SM R03/P6000FT/D -SN VV004 M01/ RMK SN8

CYYG;2012-01-21 02:00;CYYG 210200Z 18010KT 4SM R03/4000VP6000FT/U -SN FEW004 OVC016 M01/M01 A2988 RMK SF2SF6 /S01/ SLP121

CYYG;2012-01-21 02:05;CYYG 210205Z 17011KT 7SM SCT004 OVC013 M01/ RMK SF3SF5

CYYG;2012-01-21 03:00;CYYG 210300Z 24008KT 10SM BKN008 BKN030 M01/M02 A2988 RMK SF5SC1 SLP121

CYYG;2012-01-21 03:12;CYYG 210312Z 25010KT 15SM SCT008 M02/ RMK SF3

CYYG;2012-01-21 03:24;CYYG 210324Z 25009KT 15SM FEW008 BKN016 M02/ RMK SF2SC2

CYYG;2012-01-21 03:48;CYYG 210348Z 26012G17KT 10SM BKN010 M02/ RMK SC6

CYYG;2012-01-21 04:00;CYYG 210400Z 26010G17KT 10SM DRSN OVC008 M02/M04 A2990 RMK SC8 SLP129

CYYG;2012-01-21 05:00;CYYG 210500Z 26010G15KT 12SM DRSN OVC009 M04/M06 A2993 RMK SF8 SLP136

CYYG;2012-01-21 06:00;CYYG 210600Z 27013G18KT 8SM DRSN OVC014 M04/M06 A2995 RMK SC8 SLP144

CYYG;2012-01-21 07:00;CYYG 210700Z 26015G21KT 10SM DRSN FEW011 OVC018 M06/M08 A2997 RMK SC2SC6 SLP152

CYYG;2012-01-21 08:00;CYYG 210800Z 26012G19KT 10SM DRSN OVC014 M07/M09 A3000 RMK SC8 SLP161

CYYG;2012-01-21 09:00;CYYG 210900Z 25010G17KT 10SM DRSN OVC016 M08/M10 A3003 RMK SC8 SLP173

CYYG;2012-01-21 10:00;CYYG 211000Z 26011G17KT 10SM DRSN OVC015 M09/M11 A3006 RMK SC8 SLP184

CYYG;2012-01-21 11:00;CYYG 211100Z 27011G18KT 12SM SCT012 BKN031 M09/M12 A3008 RMK SC3SC4 SLP188

CYYG;2012-01-21 12:00;CYYG 211200Z 27010KT 15SM DRSN FEW012 FEW032 SCT250 M10/M13 A3010 RMK SC1SC1CI0 SLP197

CYYG;2012-01-21 13:00;CYYG 211300Z 27011KT 15SM DRSN FEW012 FEW032 BKN250 M11/M13 A3014 RMK SC1SC1CI1 SLP211

CYYG;2012-01-21 14:00;CYYG 211400Z 26009KT 15SM DRSN FEW012 FEW032 BKN250 M10/M14 A3016 RMK SC1SC1CS2 SLP216

CYYG;2012-01-21 14:14;CYYG 211414Z 27009G15KT 15SM DRSN FEW009 FEW032 BKN250 M10/ RMK SC2SC1CS2

CYYG;2012-01-21 14:36;CYYG 211436Z 26007KT 10SM -SN DRSN FEW009 FEW032 BKN250 M10/ RMK SC2SC1CS4

CYYG;2012-01-21 15:00;CYYG 211500Z 24008KT 15SM -SN FEW009 FEW032 BKN250 M10/M13 A3016 RMK SC1SC1CS5 SLP217

CYYG;2012-01-21 15:33;CYYG 211533Z 25009KT 15SM DRSN FEW009 FEW032 BKN140 M10/ RMK SC1SC1AS6

CYYG;2012-01-21 16:00;CYYG 211600Z 25009KT 15SM DRSN FEW009 FEW032 BKN088 M10/M13 A3014 RMK SC1SC1AS6 SLP211

CYYG;2012-01-21 17:00;CYYG 211700Z 26005KT 15SM FEW032 BKN083 M10/M13 A3012 RMK SC1AS6 SLP203

CYYG;2012-01-21 18:00;CYYG 211800Z 27006KT 15SM FEW030 BKN250 M10/M14 A3013 RMK SC1CS2 SLP205

CYYG;2012-01-21 19:00;CYYG 211900Z 26008KT 15SM FEW030 BKN250 M09/M14 A3014 RMK SC1CS2 SLP209

CYYG;2012-01-21 20:00;CYYG 212000Z 24005KT 15SM FEW030 BKN052 M09/M13 A3015 RMK SC1NS6 SLP213

CYYG;2012-01-21 21:00;CYYG 212100Z 26005KT 15SM FEW030 OVC054 M08/M12 A3016 RMK SC1NS7 SLP217

CYYG;2012-01-21 22:00;CYYG 212200Z 28006KT 15SM FEW030 SCT054 BKN120 M08/M12 A3017 RMK SC1SC2AC4 SLP220

CYYG;2012-01-21 23:00;CYYG 212300Z 28008KT 15SM OVC120 M09/M13 A3019 RMK AC8 SLP228

CYYG;2012-01-22 00:00;CYYG 220000Z 27008KT 15SM OVC110 M10/M14 A3020 RMK AC8 SLP229

CYYG;2012-01-22 01:00;CYYG 220100Z 30006KT 15SM SCT100 M10/M14 A3019 RMK AC4 SLP228

CYYG;2012-01-22 02:00;CYYG 220200Z 28007KT 15SM FEW100 M12/M16 A3020 RMK AC2 SLP230

CYYG;2012-01-22 03:00;CYYG 220300Z 29008KT 15SM FEW100 M12/M16 A3021 RMK AC1 SLP235

CYYG;2012-01-22 04:00;CYYG 220400Z 29004KT 15SM SKC M13/M17 A3024 RMK SLP244

CYYG;2012-01-22 05:00;CYYG 220500Z 29005KT 15SM SCT019 M14/M18 A3023 RMK SC3 SLP240

CYYG;2012-01-22 05:42;CYYG 220542Z 30008KT 12SM -SHSN BKN020 M13/ RMK SC6

CYYG;2012-01-22 06:00;CYYG 220600Z 29009KT 12SM -SHSN BKN021 M13/M17 A3024 RMK SC6 SLP243

CYYG;2012-01-22 07:00;CYYG 220700Z 29010KT 4SM -SHSN DRSN OVC020 M13/M15 A3025 RMK SC8 SLP249

CYYG;2012-01-22 08:00;CYYG 220800Z 29008KT 3SM -SHSN DRSN OVC028 M12/M15 A3027 RMK SC8 SLP253

CYYG;2012-01-22 09:00;CYYG 220900Z 30010KT 8SM -SHSN DRSN OVC030 M11/M13 A3028 RMK SC8 SLP258

CYYG;2012-01-22 10:00;CYYG 221000Z 28008KT 12SM -SHSN BKN029 M12/M14 A3031 RMK SC7 PCPN VRY LGT SLP268

CYYG;2012-01-22 11:00;CYYG 221100Z 30008KT 12SM -SHSN BKN024 M12/M14 A3034 RMK SC7 SLP279

CYYG;2012-01-22 12:00;CYYG 221200Z 28008KT 15SM -SHSN SCT020 M14/M16 A3039 RMK SC3 SLP296

CYYG;2012-01-22 13:00;CYYG 221300Z 30006KT 15SM -SHSN SCT023 M13/M16 A3042 RMK SC4 SLP305

CYYG;2012-01-22 14:00;CYYG 221400Z 29007KT 15SM SCT018 M12/M15 A3045 RMK SC4 SLP315

CYYG;2012-01-22 15:00;CYYG 221500Z 29007KT 15SM -SHSN DRSN FEW015 M11/M15 A3047 RMK SC2 SLP322

CYYG;2012-01-22 16:00;CYYG 221600Z 31008KT 15SM -SHSN DRSN SCT020 M10/M14 A3048 RMK SC3 SLP326

CYYG;2012-01-22 17:00;CYYG 221700Z 31008KT 15SM -SHSN DRSN BKN022 M10/M14 A3048 RMK SC5 SLP326

CYYG;2012-01-22 18:00;CYYG 221800Z 31006KT 15SM -SHSN SCT022 M10/M15 A3048 RMK SC4 SLP327

CYYG;2012-01-22 19:00;CYYG 221900Z 33006KT 15SM FEW022 FEW250 M11/M16 A3049 RMK SC1CI1 SLP329

CYYG;2012-01-22 20:00;CYYG 222000Z 31006KT 15SM FEW022 BKN250 M11/M16 A3052 RMK SC1CI1 SLP338

CYYG;2012-01-22 21:00;CYYG 222100Z 31005KT 15SM FEW022 BKN250 M12/M17 A3054 RMK SC1CI2 SLP346

CYYG;2012-01-22 22:00;CYYG 222200Z 29003KT 15SM FEW022 BKN250 M13/M18 A3054 RMK SC1CI1 SLP346

CYYG;2012-01-22 23:00;CYYG 222300Z 28005KT 15SM BKN250 M13/M20 A3054 RMK CI1 SLP346

CYYG;2012-01-23 00:00;CYYG 230000Z 25005KT 15SM BKN250 M14/M19 A3055 RMK CI0 SLP349

CYYG;2012-01-23 01:00;CYYG 230100Z 00000KT 15SM BKN210 M14/M20 A3053 RMK CI2 SLP344

CYYG;2012-01-23 02:00;CYYG 230200Z 26004KT 15SM BKN180 M13/M19 A3055 RMK AS2 SLP348

CYYG;2012-01-23 03:00;CYYG 230300Z 26006KT 15SM BKN210 M13/M19 A3055 RMK CS2 SLP351

CYYG;2012-01-23 04:00;CYYG 230400Z 25005KT 15SM FEW210 M13/M18 A3055 RMK CS2 SLP350

CYYG;2012-01-23 05:00;CYYG 230500Z 27006KT 15SM BKN150 M11/M16 A3055 RMK AS2 SLP348

CYYG;2012-01-23 06:00;CYYG 230600Z 24004KT 15SM BKN220 M11/M16 A3053 RMK CS2 SLP344

CYYG;2012-01-23 07:00;CYYG 230700Z 24003KT 15SM SCT150 M11/M15 A3054 RMK AC3 SLP347

CYYG;2012-01-23 08:00;CYYG 230800Z 24003KT 15SM BKN150 M10/M14 A3052 RMK AC3 SLP341

CYYG;2012-01-23 09:00;CYYG 230900Z 26005KT 15SM SCT150 M11/M15 A3054 RMK AC3 SLP347

CYYG;2012-01-23 10:00;CYYG 231000Z 22002KT 15SM FEW150 M11/M15 A3054 RMK AC2 SLP346

CYYG;2012-01-23 11:00;CYYG 231100Z 20003KT 15SM FEW150 M12/M14 A3054 RMK AC2 SLP346

CYYG;2012-01-23 12:00;CYYG 231200Z 21004KT 15SM FEW150 SCT250 M11/M13 A3053 RMK AC2CI0 SLP342

CYYG;2012-01-23 13:00;CYYG 231300Z 19006KT 15SM FEW150 SCT250 M11/M13 A3052 RMK AC2CI1 SLP338

CYYG;2012-01-23 14:00;CYYG 231400Z 19007KT 15SM FEW150 SCT250 M07/M11 A3052 RMK AC1CI1 SLP339

CYYG;2012-01-23 15:00;CYYG 231500Z 22006KT 15SM FEW150 SCT250 M06/M10 A3051 RMK AC1CI1 SLP335

CYYG;2012-01-23 16:00;CYYG 231600Z 18009KT 15SM FEW150 BKN250 M05/M09 A3047 RMK AC2CI1 SLP324

CYYG;2012-01-23 17:00;CYYG 231700Z 18007KT 15SM FEW022 SCT150 BKN250 M04/M08 A3044 RMK SC2AC1CI1 SLP311

CYYG;2012-01-23 18:00;CYYG 231800Z 16008KT 15SM BKN025 BKN150 BKN250 M04/M08 A3044 RMK SC5AC1CI1 SLP312

CYYG;2012-01-23 19:00;CYYG 231900Z 17008KT 15SM BKN027 BKN150 M04/M08 A3044 RMK SC6AC2 SLP311

CYYG;2012-01-23 20:00;CYYG 232000Z 15008KT 15SM BKN028 BKN150 M04/M10 A3042 RMK SC6AC1 SLP304

CYYG;2012-01-23 21:00;CYYG 232100Z 15004KT 15SM BKN031 OVC150 M03/M09 A3044 RMK SC7AC1 SLP312

CYYG;2012-01-23 22:00;CYYG 232200Z 17006KT 15SM OVC030 M03/M06 A3041 RMK SC8 SLP303

CYYG;2012-01-23 23:00;CYYG 232300Z 16006KT 15SM OVC038 M03/M06 A3040 RMK SC8 SLP297

CYYG;2012-01-24 00:00;CYYG 240000Z 16010KT 15SM FEW025 OVC047 M02/M06 A3037 RMK SC1SC8 SLP288

CYYG;2012-01-24 00:42;CYYG 240042Z 16011KT 15SM -SHSN OVC047 M02/ RMK SC8 VIS LWR S-W

CYYG;2012-01-24 01:00;CYYG 240100Z 17010KT 12SM -SHSN OVC042 M02/M05 A3035 RMK SC8 SLP282

CYYG;2012-01-24 02:00;CYYG 240200Z 16009KT 12SM SCT018 OVC040 M01/M04 A3034 RMK SC3SC5 SLP278

CYYG;2012-01-24 03:00;CYYG 240300Z 16010KT 15SM FEW018 OVC045 M01/M04 A3032 RMK SC2SC6 SLP269

CYYG;2012-01-24 03:10;CYYG 240310Z 17008KT 6SM -SHSN BKN025 OVC045 M01/ RMK SC6SC2

CYYG;2012-01-24 03:35;CYYG 240335Z 17009KT 15SM FEW025 OVC050 M01/ RMK SC2SC6

CYYG;2012-01-24 04:00;CYYG 240400Z 16007KT 15SM BKN035 OVC050 M01/M02 A3030 RMK SC5SC3 SLP262

CYYG;2012-01-24 05:00;CYYG 240500Z 16009KT 15SM OVC060 M00/M02 A3026 RMK SC8 SLP251

CYYG;2012-01-24 06:00;CYYG 240600Z 16010KT 15SM BKN038 OVC060 00/M01 A3025 RMK SC6SC2 SLP246

CYYG;2012-01-24 07:00;CYYG 240700Z 16009KT 15SM OVC040 01/M01 A3022 RMK SC8 SLP235

CYYG;2012-01-24 08:00;CYYG 240800Z 16011KT 12SM -RA FEW015 OVC045 02/M00 A3018 RMK SC2SC6 SLP223

CYYG;2012-01-24 09:00;CYYG 240900Z 16014KT 8SM -RA BKN011 OVC045 02/01 A3016 RMK SC6SC2 SLP216

CYYG;2012-01-24 09:36;CYYG 240936Z 17015KT 6SM -RA BR BKN005 OVC008 02/ RMK SF6SF2

CYYG;2012-01-24 10:00;CYYG 241000Z 16014G19KT 3SM -RA BR OVC005 02/01 A3014 RMK SF8 SLP210

CYYG;2012-01-24 10:17;CYYG 241017Z 16014KT 3SM -RA BR OVC004 02/ RMK SF8

CYYG;2012-01-24 11:00;CYYG 241100Z 15014KT 3SM -RA BR OVC004 02/02 A3011 RMK SF8 SLP198

CYYG;2012-01-24 11:40;CYYG 241140Z 15015KT 5SM -RA BR OVC005 03/ RMK SF8

CYYG;2012-01-24 12:00;CYYG 241200Z 15018G24KT 6SM -RA BR OVC005 03/03 A3005 RMK SF8 PRESFR SLP177

CYYG;2012-01-24 13:00;CYYG 241300Z 16018G25KT 3SM -RA BR OVC005 04/04 A3001 RMK SF8 SLP163

CYYG;2012-01-24 13:49;CYYG 241349Z 16019G26KT 10SM -RA BKN006 OVC012 05/ RMK SF6SC2

CYYG;2012-01-24 14:00;CYYG 241400Z 17019G27KT 15SM -RA BKN005 OVC014 05/04 A2998 RMK SF6SC2 SLP155

CYYG;2012-01-24 15:00;CYYG 241500Z 17019G24KT 15SM BKN006 OVC017 05/05 A2993 RMK SF6SC2 OBS TAKEN +07 SLP136

CYYG;2012-01-24 15:27;CYYG 241527Z 17023KT 10SM -SHRA BKN007 OVC019 06/ RMK SF5SC3

CYYG;2012-01-24 16:00;CYYG 241600Z 17018G25KT 15SM -SHRA SCT007 OVC012 06/05 A2988 RMK SF4SC4 SLP122

CYYG;2012-01-24 17:00;CYYG 241700Z 19014KT 10SM -SHRA FEW002 OVC012 06/06 A2987 RMK SF2SC6 SLP117

CYYG;2012-01-24 18:00;CYYG 241800Z 18016G24KT 15SM -SHRA FEW002 OVC014 07/07 A2982 RMK SF1SC7 SLP098

CYYG;2012-01-24 19:00;CYYG 241900Z 19011KT 15SM -SHRA OVC012 08/07 A2983 RMK SC8 SLP103

CYYG;2012-01-24 20:00;CYYG 242000Z 18007KT 8SM -SHRA OVC010 07/07 A2982 RMK SF8 SLP100

CYYG;2012-01-24 20:09;CYYG 242009Z 18007KT 3SM -SHRA BR OVC008 07/ RMK SF8

CYYG;2012-01-24 20:33;CYYG 242033Z 18006KT 1SM R03/4000VP6000FT/D -SHRA BR OVC006 07/ RMK SF8

CYYG;2012-01-24 21:00;CYYG 242100Z 20005KT 3/4SM R03/2400V4000FT/U -SHRA BR OVC006 06/06 A2982 RMK SF8 SLP098

CYYG;2012-01-24 21:41;CYYG 242141Z 21005KT 3/4SM R03/3500FT/N -DZ BR SCT002 OVC006 07/ RMK SF3SF5

CYYG;2012-01-24 22:00;CYYG 242200Z 22004KT 1/2SM R03/2400FT/D -DZ FG SCT002 VV005 07/07 A2982 RMK SF3FG5 SLP100

CYYG;2012-01-24 22:15;CYYG 242215Z 23004KT 1/2SM R03/1600V2200FT/U -DZ FG VV002 07/ RMK FG8

CYYG;2012-01-24 22:37;CYYG 242237Z 25006KT 3/4SM R03/2000V3500FT/U -DZ BR FEW002 OVC008 08/ RMK SF2SF6

CYYG;2012-01-24 22:43;CYYG 242243Z 25008KT 5SM R03/2400VP6000FT/U -DZ BR FEW003 BKN006 OVC016 08/ RMK SF2SF6SC1

CYYG;2012-01-24 23:00;CYYG 242300Z 25007KT 10SM -DZ FEW003 SCT006 OVC016 08/08 A2983 RMK SF2SF2SC4 SLP102

CYYG;2012-01-24 23:25;CYYG 242325Z 25008KT 10SM FEW006 OVC020 08/ RMK SF2SC6

CYYG;2012-01-25 00:00;CYYG 250000Z 25007KT 12SM FEW006 OVC020 08/08 A2982 RMK SF1SC8 SLP100

CYYG;2012-01-25 01:00;CYYG 250100Z 24006KT 12SM FEW004 OVC020 07/07 A2983 RMK SF2SC6 SLP104

CYYG;2012-01-25 01:24;CYYG 250124Z 26006KT 4SM -DZ BR BKN004 OVC016 07/ RMK SF7SC1

CYYG;2012-01-25 02:00;CYYG 250200Z 24005KT 5SM -DZ BR BKN004 OVC020 07/07 A2983 RMK SF7SC1 SLP102

CYYG;2012-01-25 03:00;CYYG 250300Z 26008KT 3SM -DZ BR OVC003 06/06 A2983 RMK SF8 SLP103

CYYG;2012-01-25 03:10;CYYG 250310Z 27006KT 2SM -DZ BR OVC002 06/ RMK SF8

CYYG;2012-01-25 03:35;CYYG 250335Z 31007KT 10SM FEW002 OVC013 05/ RMK SF2SC6

CYYG;2012-01-25 04:00;CYYG 250400Z 31005KT 15SM FEW014 OVC023 05/04 A2984 RMK SC2SC6 SLP106

CYYG;2012-01-25 05:00;CYYG 250500Z 29003KT 15SM FEW023 BKN043 05/03 A2982 RMK SC2SC6 SLP101

CYYG;2012-01-25 06:00;CYYG 250600Z 25004KT 15SM FEW030 BKN045 04/02 A2983 RMK SC1SC7 SLP103

CYYG;2012-01-25 07:00;CYYG 250700Z 23005KT 15SM OVC045 04/01 A2984 RMK SC8 SLP105

CYYG;2012-01-25 08:00;CYYG 250800Z 25005KT 15SM OVC052 03/01 A2984 RMK SC8 SLP105

CYYG;2012-01-25 09:00;CYYG 250900Z 24003KT 15SM BKN058 02/00 A2983 RMK SC7 SLP102

CYYG;2012-01-25 10:00;CYYG 251000Z 25006KT 15SM BKN062 02/M00 A2982 RMK SC7 SLP099

CYYG;2012-01-25 11:00;CYYG 251100Z 27006KT 15SM BKN062 02/M01 A2982 RMK SC7 SLP101

CYYG;2012-01-25 12:00;CYYG 251200Z 26005KT 15SM FEW051 BKN066 02/M01 A2982 RMK SC1AC6 SLP100

CYYG;2012-01-25 13:00;CYYG 251300Z 27005KT 15SM BKN056 BKN065 02/M01 A2983 RMK SC6SC2 SLP102

CYYG;2012-01-25 14:00;CYYG 251400Z 26008KT 15SM BKN074 02/M01 A2983 RMK AC7 SLP102

CYYG;2012-01-25 15:00;CYYG 251500Z 28010KT 15SM FEW030 BKN079 02/M01 A2984 RMK SC1AC6 SLP105

CYYG;2012-01-25 16:00;CYYG 251600Z 29009G15KT 15SM FEW030 BKN079 03/M00 A2982 RMK SC2AC3 SLP100

CYYG;2012-01-25 17:00;CYYG 251700Z 28011G16KT 15SM FEW019 FEW032 03/M01 A2982 RMK CU1SC2 SLP100

CYYG;2012-01-25 18:00;CYYG 251800Z 29011G16KT 15SM FEW019 FEW037 04/M01 A2982 RMK CU1SC2 SLP099

CYYG;2012-01-25 19:00;CYYG 251900Z 29008G15KT 15SM BKN034 03/M02 A2983 RMK SC7 SLP103

CYYG;2012-01-25 19:52;CYYG 251952Z 28010G17KT 15SM BKN033 02/ RMK SC7

CYYG;2012-01-25 20:00;CYYG 252000Z 28008G17KT 15SM BKN034 02/M03 A2984 RMK SC7 SLP107

CYYG;2012-01-25 21:00;CYYG 252100Z 28010KT 15SM BKN033 02/M03 A2985 RMK SC7 SLP112

CYYG;2012-01-25 22:00;CYYG 252200Z 28007KT 15SM BKN034 02/M03 A2986 RMK SC7 SLP114

CYYG;2012-01-25 23:00;CYYG 252300Z 27008KT 15SM BKN034 01/M03 A2987 RMK SC7 SLP118

CYYG;2012-01-26 00:00;CYYG 260000Z 35004KT 15SM FEW020 BKN034 M01/M04 A2989 RMK SC2SC5 SLP124

CYYG;2012-01-26 01:00;CYYG 260100Z 33003KT 15SM FEW020 BKN034 M01/M04 A2990 RMK SC2SC5 SLP129

CYYG;2012-01-26 02:00;CYYG 260200Z 34008KT 15SM SCT020 OVC034 M02/M05 A2992 RMK SC4SC4 SLP133

CYYG;2012-01-26 03:00;CYYG 260300Z 34009KT 15SM SCT020 OVC034 M02/M06 A2993 RMK SC4SC4 SLP136

CYYG;2012-01-26 04:00;CYYG 260400Z 32008KT 15SM OVC023 M03/M07 A2994 RMK SC8 SLP142

CYYG;2012-01-26 05:00;CYYG 260500Z 32010G15KT 15SM OVC021 M04/M07 A2995 RMK SC8 SLP144

CYYG;2012-01-26 06:00;CYYG 260600Z 31006KT 15SM OVC021 M05/M09 A2995 RMK SC8 SLP143

CYYG;2012-01-26 07:00;CYYG 260700Z 30010KT 15SM OVC021 M06/M09 A2994 RMK SC8 SLP142

CYYG;2012-01-26 08:00;CYYG 260800Z 29009KT 15SM OVC019 M06/M10 A2994 RMK SC8 SLP142

CYYG;2012-01-26 09:00;CYYG 260900Z 30008KT 15SM SCT018 OVC028 M06/M10 A2995 RMK SC3SC5 SLP144

CYYG;2012-01-26 10:00;CYYG 261000Z 31012KT 15SM FEW018 OVC030 M06/M11 A2996 RMK SC2SC6 SLP149

CYYG;2012-01-26 10:36;CYYG 261036Z 32012KT 15SM -SHSN OVC030 M07/ RMK SC8

CYYG;2012-01-26 11:00;CYYG 261100Z 31011KT 15SM -SHSN BKN032 M07/M12 A2998 RMK SC6 SLP153

CYYG;2012-01-26 12:00;CYYG 261200Z 29011KT 15SM -SHSN DRSN BKN030 M07/M11 A2999 RMK SC7 VIS LWR N-E SLP160

CYYG;2012-01-26 13:00;CYYG 261300Z 29012G17KT 15SM -SHSN DRSN FEW018 FEW032 M07/M11 A3001 RMK CU1SC2 VIS LWR NE-E SLP166

CYYG;2012-01-26 14:00;CYYG 261400Z 31011KT 15SM -SHSN FEW020 BKN034 BKN230 M07/M12 A3002 RMK CU2SC2CI1 VIS LWR NE-E SLP169

CYYG;2012-01-26 15:00;CYYG 261500Z 30012KT 10SM -SHSN BKN022 M06/M11 A3004 RMK SC6 SLP174

CYYG;2012-01-26 16:00;CYYG 261600Z 28011KT 8SM -SHSN DRSN BKN019 M07/M11 A3002 RMK SC7 SLP170

CYYG;2012-01-26 17:00;CYYG 261700Z 31010KT 3SM -SHSN DRSN OVC020 M07/M11 A3002 RMK SC8 SLP169

CYYG;2012-01-26 18:00;CYYG 261800Z 29010G15KT 10SM -SHSN DRSN BKN029 M07/M12 A3002 RMK SC7 SLP169

CYYG;2012-01-26 19:00;CYYG 261900Z 30013KT 15SM -SHSN DRSN BKN024 M07/M12 A3004 RMK SC5 VIS LWR NW-E SLP176

CYYG;2012-01-26 20:00;CYYG 262000Z 32010KT 15SM -SHSN BKN023 M07/M11 A3007 RMK SC6 SLP185

CYYG;2012-01-26 20:33;CYYG 262033Z 32008KT 15SM FEW023 M07/ RMK SC2

CYYG;2012-01-26 21:00;CYYG 262100Z 31009KT 15SM FEW023 FEW250 M07/M12 A3008 RMK SC2CI0 SLP189

CYYG;2012-01-26 22:00;CYYG 262200Z 35003KT 15SM FEW023 FEW250 M08/M12 A3007 RMK SC1CI1 SLP187

CYYG;2012-01-26 23:00;CYYG 262300Z 30004KT 15SM FEW023 FEW250 M08/M12 A3008 RMK SC1CI1 SLP188

CYYG;2012-01-27 00:00;CYYG 270000Z 26003KT 15SM SKC M08/M13 A3009 RMK SLP191

CYYG;2012-01-27 01:00;CYYG 270100Z 27004KT 15SM SKC M08/M13 A3012 RMK SLP201

CYYG;2012-01-27 02:00;CYYG 270200Z 29006KT 15SM SCT230 M08/M12 A3013 RMK CI2 SLP207

CYYG;2012-01-27 03:00;CYYG 270300Z 27003KT 15SM BKN220 M08/M12 A3014 RMK CI3 SLP210

CYYG;2012-01-27 04:00;CYYG 270400Z 00000KT 15SM BKN220 M08/M12 A3012 RMK CI3 SLP204

CYYG;2012-01-27 05:00;CYYG 270500Z 27002KT 15SM BKN220 M09/M12 A3011 RMK CI2 SLP198

CYYG;2012-01-27 06:00;CYYG 270600Z 26005KT 15SM BKN210 M08/M12 A3014 RMK CI3 SLP209

CYYG;2012-01-27 07:00;CYYG 270700Z 27004KT 15SM BKN200 M08/M12 A3014 RMK CI3 SLP211

CYYG;2012-01-27 08:00;CYYG 270800Z 29003KT 15SM SCT200 M09/M12 A3014 RMK CI3 SLP210

CYYG;2012-01-27 09:00;CYYG 270900Z 27004KT 15SM FEW200 M08/M12 A3015 RMK CI2 SLP212

CYYG;2012-01-27 10:00;CYYG 271000Z 35002KT 15SM FEW190 M10/M12 A3014 RMK CI1 SLP210

CYYG;2012-01-27 11:00;CYYG 271100Z 00000KT 15SM BKN200 M09/M11 A3016 RMK CI2 SLP216

CYYG;2012-01-27 12:00;CYYG 271200Z 17002KT 15SM FEW030 BKN180 M08/M11 A3016 RMK SC1AS2 SLP216

CYYG;2012-01-27 13:00;CYYG 271300Z 16003KT 15SM FEW030 BKN160 M07/M10 A3015 RMK SC1AS3 SLP215

CYYG;2012-01-27 14:00;CYYG 271400Z 15004KT 15SM FEW030 OVC110 M06/M09 A3013 RMK SC1AS6 SLP208

CYYG;2012-01-27 15:00;CYYG 271500Z 15006KT 15SM FEW030 OVC098 M05/M08 A3012 RMK SC1AS7 SLP202

CYYG;2012-01-27 16:00;CYYG 271600Z 16007KT 15SM FEW020 OVC095 M05/M08 A3007 RMK SF1AS7 SLP187

CYYG;2012-01-27 17:00;CYYG 271700Z 14007KT 15SM FEW020 OVC083 M04/M08 A3002 RMK SC1AS7 SLP169

CYYG;2012-01-27 18:00;CYYG 271800Z 15011KT 15SM FEW020 OVC063 M04/M08 A2999 RMK SC1NS7 PRESFR SLP158

CYYG;2012-01-27 19:00;CYYG 271900Z 13011KT 15SM FEW020 OVC040 M03/M08 A2995 RMK SC1NS7 SLP145

CYYG;2012-01-27 20:00;CYYG 272000Z 13013KT 6SM -SN OVC024 M03/M08 A2992 RMK SC8 VIS NW-E 10 SLP135

CYYG;2012-01-27 20:06;CYYG 272006Z 12011G16KT 3SM -SN DRSN OVC016 M03/ RMK SC8

CYYG;2012-01-27 20:22;CYYG 272022Z 12011KT 2 1/2SM -SN DRSN VV016 M04/ RMK SN8

CYYG;2012-01-27 20:42;CYYG 272042Z 13012KT 1 1/2SM -SN DRSN VV009 M04/ RMK SN8

CYYG;2012-01-27 21:00;CYYG 272100Z 13011KT 1 1/4SM -SN DRSN VV007 M04/M06 A2988 RMK SN8 SLP121

CYYG;2012-01-27 21:36;CYYG 272136Z 12009KT 3/4SM R03/P6000FT/D -SN DRSN VV004 M04/ RMK SN8

CYYG;2012-01-27 22:00;CYYG 272200Z 11010KT 1SM R03/5000FT/D -SN DRSN VV005 M04/M05 A2982 RMK SN8 PRESFR SLP102

CYYG;2012-01-27 23:00;CYYG 272300Z 12018KT 1 1/4SM -SN DRSN OVC010 M03/M05 A2975 RMK SN5SF3 /S02/ SLP079

CYYG;2012-01-27 23:10;CYYG 272310Z 12015KT 3SM -SNPL DRSN BKN010 OVC030 M03/ RMK SN3SF2NS2

CYYG;2012-01-27 23:34;CYYG 272334Z 12019G25KT 6SM -PL DRSN -FZRA BR BKN006 OVC015 RMK SF5SC3

CYYG;2012-01-28 00:00;CYYG 280000Z 12021G28KT 8SM -PL DRSN -FZRA FEW006 OVC012 M03/M04 A2969 RMK SF2SC6 /S05/ SLP056

CYYG;2012-01-28 01:00;CYYG 280100Z 11020G28KT 5SM -PL DRSN -FZRA BR BKN007 OVC013 M02/M03 A2958 RMK SF6SC2 PRESFR SLP019

CYYG;2012-01-28 02:00;CYYG 280200Z 12019G30KT 3SM -PL DRSN -FZRA BR BKN007 OVC012 M01/M02 A2948 RMK SF6SC2 PRESFR SLP986

CYYG;2012-01-28 03:00;CYYG 280300Z 12020G31KT 8SM -PL -FZRA OVC008 M00/M01 A2940 RMK SF8 PRESFR SLP957

CYYG;2012-01-28 03:02;CYYG 280302Z 13019G27KT 10SM -RA OVC008 00/ REFZRA RMK SF8

CYYG;2012-01-28 04:00;CYYG 280400Z 13018G29KT 10SM -RA BKN008 OVC014 00/M00 A2928 RMK SF6SC2 PRESFR SLP917

CYYG;2012-01-28 05:00;CYYG 280500Z 14017G27KT 5SM -RA BR OVC008 01/M00 A2918 RMK SF8 PRESFR SLP885

CYYG;2012-01-28 06:00;CYYG 280600Z 15015G20KT 10SM -RA OVC010 01/00 A2915 RERA RMK SC8 /S05/ SLP873

CYYG;2012-01-28 07:00;CYYG 280700Z 14011KT 15SM -RA BKN008 OVC019 01/00 A2907 RMK SF6SC2 PRESFR SLP848

CYYG;2012-01-28 08:00;CYYG 280800Z 20008KT 15SM -RA BKN005 OVC013 01/01 A2907 RMK SF6SC2 SLP848

CYYG;2012-01-28 08:19;CYYG 280819Z 25006G18KT 6SM -DZ BR OVC005 02/ RMK ST8

CYYG;2012-01-28 09:00;CYYG 280900Z 30005KT 5SM -DZ BR OVC003 01/01 A2907 RMK SF8 SLP847

CYYG;2012-01-28 09:44;CYYG 280944Z 28007KT 15SM BKN002 OVC006 01/ RMK SF6SF2

CYYG;2012-01-28 10:00;CYYG 281000Z 28007KT 15SM FEW002 OVC004 01/01 A2911 RMK SF2SF6 SLP860

CYYG;2012-01-28 10:15;CYYG 281015Z 28009KT 5SM -DZ BR OVC003 01/ RMK SF8

CYYG;2012-01-28 11:00;CYYG 281100Z 29011G21KT 15SM -DZ FEW003 BKN007 OVC013 01/01 A2915 RMK SF2SF4SC2 SLP874

CYYG;2012-01-28 11:03;CYYG 281103Z 29019G26KT 15SM OVC008 01/ RMK SF8

CYYG;2012-01-28 12:00;CYYG 281200Z 29015G28KT 15SM BKN011 00/M01 A2923 RMK SF7 PRESRR SLP899

CYYG;2012-01-28 12:25;CYYG 281225Z 29020G32KT 12SM -SHSN OVC010 M00/ RMK SF8

CYYG;2012-01-28 13:00;CYYG 281300Z CCA 30022G32KT 10SM -SHSN OVC009 M01/M01 A2930 RMK SF8 PRESRR SLP923

CYYG;2012-01-28 14:00;CYYG 281400Z 31024G37KT 3SM -SHSN DRSN OVC009 M01/M02 A2939 RMK SF8 PRESRR SLP954

CYYG;2012-01-28 15:00;CYYG 281500Z 31025G34KT 7SM -SHSN DRSN OVC010 M01/M02 A2949 RMK SF8 PRESRR SLP989

CYYG;2012-01-28 16:00;CYYG 281600Z 32022G31KT 15SM -SHSN OVC012 M02/M03 A2956 RMK SC8 DRSN PRESRR SLP011

CYYG;2012-01-28 17:00;CYYG 281700Z 32016G28KT 15SM OVC015 M02/M04 A2963 RMK SC8 SLP034

CYYG;2012-01-28 18:00;CYYG 281800Z 32012G26KT 15SM OVC015 M02/M05 A2969 RMK SC8 PRESRR SLP058

CYYG;2012-01-28 19:00;CYYG 281900Z 32013G21KT 15SM OVC015 02/M05 A2975 RMK SC8 SLP077

CYYG;2012-01-28 20:00;CYYG 282000Z 31013KT 15SM BKN020 M01/M04 A2980 RMK SC7 PRESRR SLP094

CYYG;2012-01-28 21:00;CYYG 282100Z 32011G18KT 15SM SCT020 M02/M06 A2983 RMK SC3 SLP104

CYYG;2012-01-28 22:00;CYYG 282200Z 31008G16KT 15SM SCT025 M02/M06 A2985 RMK SC4 SLP112

CYYG;2012-01-28 23:00;CYYG 282300Z 30007KT 15SM SCT025 M03/M06 A2989 RMK SC3 SLP125

CYYG;2012-01-29 00:00;CYYG 290000Z 30008KT 15SM FEW025 M03/M07 A2993 RMK SC2 SLP136

CYYG;2012-01-29 01:00;CYYG 290100Z 27004KT 15SM FEW025 M04/M08 A2993 RMK SC2 SLP138

CYYG;2012-01-29 02:00;CYYG 290200Z 00000KT 15SM SKC M05/M08 A2991 RMK SLP131

CYYG;2012-01-29 03:00;CYYG 290300Z 28003KT 15SM SKC M05/M08 A2992 RMK SLP134

CYYG;2012-01-29 04:00;CYYG 290400Z 22005KT 15SM SKC M05/M08 A2992 RMK SLP134

CYYG;2012-01-29 05:00;CYYG 290500Z 00000KT 15SM BKN021 M07/M08 A2989 RMK SC5 SLP125

CYYG;2012-01-29 06:00;CYYG 290600Z 17005KT 15SM OVC020 M06/M07 A2990 RMK SC8 SLP128

CYYG;2012-01-29 07:00;CYYG 290700Z 20012G18KT 15SM OVC019 M03/M06 A2989 RMK SC8 SLP124

CYYG;2012-01-29 08:00;CYYG 290800Z 20010KT 15SM OVC019 M02/M06 A2985 RMK SC8 SLP112

CYYG;2012-01-29 09:00;CYYG 290900Z 15005KT 15SM FEW019 SCT033 SCT240 M03/M06 A2982 RMK SC2SC2CI1 SLP100

CYYG;2012-01-29 09:49;CYYG 290949Z 14006KT 15SM -SN OVC031 M03/ RMK SC8

CYYG;2012-01-29 10:00;CYYG 291000Z 14007KT 15SM -SN OVC031 M03/M05 A2978 RMK SC8 SLP088

CYYG;2012-01-29 11:00;CYYG 291100Z 14008KT 10SM -SN OVC018 M03/M05 A2973 RMK SC8 SLP071

CYYG;2012-01-29 11:13;CYYG 291113Z 15010KT 2SM -SN OVC016 M02/ RMK SC8

CYYG;2012-01-29 11:43;CYYG 291143Z 17011KT 6SM -SN OVC012 M02/ RMK SC8

CYYG;2012-01-29 12:00;CYYG 291200Z 17011KT 4SM -SN OVC012 M01/M03 A2971 RMK SC8 SLP064

CYYG;2012-01-29 13:00;CYYG 291300Z 18011G16KT 15SM -SHSN BKN012 OVC024 M00/M01 A2969 RMK SC6SC2 SLP058

CYYG;2012-01-29 14:00;CYYG 291400Z 23012G17KT 15SM -SHSN BKN011 OVC022 02/00 A2969 RMK SC5SC3 SLP057

CYYG;2012-01-29 14:29;CYYG 291429Z 25017KT 15SM BKN012 OVC022 02/ RMK SC5SC3

CYYG;2012-01-29 15:00;CYYG 291500Z 26012G17KT 15SM BKN014 OVC024 02/M00 A2972 RMK SC5SC3 SLP067

CYYG;2012-01-29 15:36;CYYG 291536Z 26012G19KT 15SM FEW015 BKN044 02/ RMK SC2SC2

CYYG;2012-01-29 16:00;CYYG 291600Z 25013G20KT 15SM FEW015 SCT045 02/M02 A2973 RMK SC2SC2 SLP069

CYYG;2012-01-29 17:00;CYYG 291700Z 25018G25KT 15SM FEW040 02/M03 A2973 RMK SC2 SLP071

CYYG;2012-01-29 18:00;CYYG 291800Z 25015G25KT 15SM FEW040 02/M04 A2972 RMK SC2 SLP067

CYYG;2012-01-29 19:00;CYYG 291900Z 24017G22KT 15SM FEW040 02/M05 A2972 RMK SC2 SLP066

CYYG;2012-01-29 20:00;CYYG 292000Z 25015G24KT 15SM FEW040 02/M06 A2973 RMK SC2 SLP071

CYYG;2012-01-29 21:00;CYYG 292100Z 26013G21KT 15SM FEW040 01/M07 A2977 RMK SC2 SLP085

CYYG;2012-01-29 22:00;CYYG 292200Z 25013G21KT 15SM FEW040 01/M08 A2979 RMK SC2 SLP091

CYYG;2012-01-29 23:00;CYYG 292300Z 25012G17KT 15SM FEW040 M00/M07 A2981 RMK SC2 SLP098

CYYG;2012-01-30 00:00;CYYG 300000Z 25010G17KT 15SM FEW050 M01/M07 A2984 RMK SC2 SLP107

CYYG;2012-01-30 01:00;CYYG 300100Z 25011G16KT 15SM FEW050 M01/M07 A2986 RMK SC1 SLP115

CYYG;2012-01-30 02:00;CYYG 300200Z 26011G18KT 15SM SKC M01/M08 A2987 RMK SLP118

CYYG;2012-01-30 03:00;CYYG 300300Z 25012G17KT 15SM SKC M01/M08 A2988 RMK SLP122

CYYG;2012-01-30 04:00;CYYG 300400Z 26011G16KT 15SM SKC M01/M09 A2990 RMK SLP126

CYYG;2012-01-30 05:00;CYYG 300500Z 26008KT 15SM FEW076 M01/M10 A2990 RMK AC2 SLP126

CYYG;2012-01-30 06:00;CYYG 300600Z 24006KT 15SM FEW080 M02/M09 A2990 RMK AC2 SLP128

CYYG;2012-01-30 07:00;CYYG 300700Z 24005KT 15SM -SHSN BKN084 M02/M08 A2990 RMK AC5 SLP127

CYYG;2012-01-30 08:00;CYYG 300800Z 23006KT 15SM -SHSN FEW055 OVC086 M02/M08 A2989 RMK SC2AC6 SLP124

CYYG;2012-01-30 09:00;CYYG 300900Z 24005KT 15SM -SHSN FEW055 BKN075 M02/M08 A2990 RMK SC2AC5 SLP126

CYYG;2012-01-30 10:00;CYYG 301000Z 23004KT 15SM BKN065 M03/M09 A2989 RMK SC5 SLP124

CYYG;2012-01-30 11:00;CYYG 301100Z 23004KT 15SM FEW060 FEW160 M03/M08 A2990 RMK SC1AC1 SLP128

CYYG;2012-01-30 12:00;CYYG 301200Z 23006KT 15SM FEW060 SCT160 M03/M08 A2992 RMK SC1AC4 SLP133

CYYG;2012-01-30 13:00;CYYG 301300Z 24004KT 15SM FEW060 BKN110 BKN230 M02/M08 A2993 RMK SC1AC6CI1 SLP136

CYYG;2012-01-30 14:00;CYYG 301400Z 25005KT 15SM BKN040 M01/M07 A2992 RMK SC7 VIRGA SLP135

CYYG;2012-01-30 15:00;CYYG 301500Z 23006KT 15SM BKN045 M01/M06 A2992 RMK SC7 VIRGA SLP135

CYYG;2012-01-30 16:00;CYYG 301600Z 25009KT 15SM BKN055 M01/M07 A2991 RMK SC6 SLP131

CYYG;2012-01-30 17:00;CYYG 301700Z 25011KT 15SM FEW055 FEW250 M00/M08 A2988 RMK SC2CI0 SLP122

CYYG;2012-01-30 18:00;CYYG 301800Z 26009G15KT 15SM FEW040 FEW055 SCT250 00/M08 A2989 RMK CU1SC2CI0 SLP123

CYYG;2012-01-30 19:00;CYYG 301900Z 28005KT 15SM FEW040 SCT080 BKN250 00/M08 A2987 RMK SC2AS2CI1 SLP119

CYYG;2012-01-30 20:00;CYYG 302000Z 33007KT 15SM FEW040 FEW080 BKN160 BKN250 M00/M09 A2987 RMK SC1AC1AS3CI0 SLP119

CYYG;2012-01-30 21:00;CYYG 302100Z 34006KT 15SM FEW040 BKN084 BKN260 M01/M09 A2989 RMK SC1AS5CI0 SLP123

CYYG;2012-01-30 22:00;CYYG 302200Z 34007KT 15SM FEW040 BKN070 M02/M08 A2990 RMK SC1AS7 SLP126

CYYG;2012-01-30 23:00;CYYG 302300Z 36009G15KT 15SM FEW015 OVC070 M03/M07 A2992 RMK SC2AS6 SLP135

CYYG;2012-01-31 00:00;CYYG 310000Z 34010G15KT 15SM FEW017 BKN046 OVC100 M04/M09 A2996 RMK SC2SC4AC2 SLP147

CYYG;2012-01-31 01:00;CYYG 310100Z 34010G17KT 15SM FEW018 BKN046 OVC120 M06/M11 A2998 RMK SC2SC3AC2 SLP156

CYYG;2012-01-31 01:49;CYYG 310149Z 33011G18KT 15SM -SHSN BKN020 OVC120 M07/ RMK SC6AC2

CYYG;2012-01-31 02:00;CYYG 310200Z 33015G20KT 15SM -SHSN OVC022 M08/M12 A3001 RMK SC8 SLP167

CYYG;2012-01-31 03:00;CYYG 310300Z 32013G21KT 15SM -SHSN OVC022 M08/M13 A3003 RMK SC8 SLP172

CYYG;2012-01-31 04:00;CYYG 310400Z 31010G15KT 15SM -SHSN BKN022 M10/M15 A3005 RMK SC5 SLP178

CYYG;2012-01-31 04:23;CYYG 310423Z 30011G16KT 15SM BKN025 M10/ RMK SC6

CYYG;2012-01-31 05:00;CYYG 310500Z 29010G15KT 15SM BKN026 M10/M16 A3006 RMK SC7 SLP183

CYYG;2012-01-31 06:00;CYYG 310600Z 29010G15KT 15SM OVC026 M11/M16 A3007 RMK SC8 SLP186

CYYG;2012-01-31 07:00;CYYG 310700Z 29010G17KT 15SM OVC030 M11/M16 A3009 RMK SC8 SLP193

CYYG;2012-01-31 08:00;CYYG 310800Z 29009KT 15SM BKN030 M12/M17 A3010 RMK SC6 SLP196

CYYG;2012-01-31 09:00;CYYG 310900Z 28007KT 15SM BKN030 M12/M17 A3012 RMK SC5 SLP203

CYYG;2012-01-31 10:00;CYYG 311000Z 30007KT 15SM SCT030 M12/M17 A3013 RMK SC3 SLP207

CYYG;2012-01-31 11:00;CYYG 311100Z 29008KT 15SM FEW030 M13/M17 A3015 RMK SC2 SLP213

CYYG;2012-01-31 12:00;CYYG 311200Z 29009KT 15SM FEW030 M13/M17 A3017 RMK SC1 SLP222

CYYG;2012-01-31 13:00;CYYG 311300Z 29010G15KT 15SM FEW030 FEW250 M13/M18 A3019 RMK SC1CI1 SLP226

CYYG;2012-01-31 14:00;CYYG 311400Z 31014KT 15SM FEW030 FEW250 M12/M17 A3020 RMK SC1CI1 SLP229

CYYG;2012-01-31 15:00;CYYG 311500Z 30009KT 15SM FEW030 M12/M17 A3021 RMK SC1 SLP233

CYYG;2012-01-31 16:00;CYYG 311600Z 29012KT 15SM FEW030 M11/M17 A3020 RMK SC1 SLP231

CYYG;2012-01-31 17:00;CYYG 311700Z 30008KT 15SM FEW030 M11/M17 A3019 RMK SC1 SLP227

CYYG;2012-01-31 18:00;CYYG 311800Z 28009KT 15SM FEW030 FEW250 M10/M17 A3018 RMK SC1CI1 SLP224

CYYG;2012-01-31 19:00;CYYG 311900Z 27007KT 15SM FEW030 FEW250 M10/M16 A3019 RMK SC1CI1 SLP226

CYYG;2012-01-31 20:00;CYYG 312000Z 28008KT 15SM FEW030 SCT250 M09/M17 A3020 RMK SC1CI1 SLP229

CYYG;2012-01-31 21:00;CYYG 312100Z 31004KT 15SM FEW030 FEW150 SCT250 M10/M18 A3019 RMK SC1AC1CS1 SLP228

CYYG;2012-01-31 22:00;CYYG 312200Z 28003KT 15SM FEW030 FEW150 SCT250 M10/M17 A3020 RMK SC1AC1CS1 SLP229

CYYG;2012-01-31 23:00;CYYG 312300Z 24003KT 15SM FEW150 SCT250 M10/M17 A3021 RMK AC1CS1 SLP233

CYYG;2012-02-01 00:00;CYYG 010000Z 25003KT 15SM FEW150 SCT200 M10/M16 A3020 RMK AC1CS1 SLP232

CYYG;2012-02-01 01:00;CYYG 010100Z 24005KT 15SM BKN200 M10/M15 A3021 RMK CS2 SLP234

CYYG;2012-02-01 02:00;CYYG 010200Z 28003KT 15SM SCT200 M10/M15 A3021 RMK CS1 SLP233

CYYG;2012-02-01 03:00;CYYG 010300Z 27004KT 15SM BKN200 M10/M15 A3020 RMK CS2 SLP230

CYYG;2012-02-01 04:00;CYYG 010400Z 29002KT 15SM BKN200 M10/M14 A3020 RMK CS2 SLP230

CYYG;2012-02-01 05:00;CYYG 010500Z 34003KT 15SM SCT120 BKN200 M11/M15 A3020 RMK AC3CS0 SLP230

CYYG;2012-02-01 06:00;CYYG 010600Z 00000KT 15SM SCT120 BKN200 M11/M15 A3019 RMK AC3CS0 SLP226

CYYG;2012-02-01 07:00;CYYG 010700Z 00000KT 15SM OVC089 M11/M14 A3018 RMK AS6 SLP224

CYYG;2012-02-01 08:00;CYYG 010800Z 00000KT 15SM OVC066 M10/M12 A3018 RMK AS8 SLP223

CYYG;2012-02-01 09:00;CYYG 010900Z 00000KT 15SM OVC066 M10/M13 A3018 RMK AS8 SLP224

CYYG;2012-02-01 10:00;CYYG 011000Z 13002KT 15SM FEW079 OVC110 M09/M13 A3017 RMK AC2AC6 SLP219

CYYG;2012-02-01 11:00;CYYG 011100Z 13002KT 15SM OVC046 M09/M12 A3016 RMK SC8 SLP217

CYYG;2012-02-01 12:00;CYYG 011200Z 10002KT 15SM OVC033 M08/M13 A3016 RMK NS8 VIS LWR SW-W SLP218

CYYG;2012-02-01 12:24;CYYG 011224Z 13003KT 10SM -SN OVC032 M08/ RMK NS8 VIS LWR SW-NW

CYYG;2012-02-01 13:00;CYYG 011300Z 12004KT 4SM -SN OVC020 M08/M11 A3016 RMK SN2NS6 SLP218

CYYG;2012-02-01 13:30;CYYG 011330Z 10006KT 3SM -SN OVC014 M07/ RMK SN5NS3

CYYG;2012-02-01 14:00;CYYG 011400Z 10008KT 3SM -SN OVC017 M07/M10 A3012 RMK SN4NS4 SLP204

CYYG;2012-02-01 14:18;CYYG 011418Z 09007KT 2 1/2SM -SN OVC015 M07/ RMK SN5NS3

CYYG;2012-02-01 14:43;CYYG 011443Z 10009KT 1SM R03/P6000FT/D -SN OVC009 M07/ RMK SN5NS3

CYYG;2012-02-01 15:00;CYYG 011500Z 10008KT 1SM R03/P6000FT/U -SN VV007 M07/M09 A3010 RMK SN8 SLP197

CYYG;2012-02-01 16:00;CYYG 011600Z 09007KT 1SM R03/5500FT/D -SN VV006 M07/M08 A3006 RMK SN8 /S02/ SLP184

CYYG;2012-02-01 17:00;CYYG 011700Z 10009KT 1SM R03/P6000FT/U -SN VV008 M06/M07 A3001 RMK SN8 /S03/ PRESFR SLP165

CYYG;2012-02-01 17:38;CYYG 011738Z 10010G15KT 5/8SM R03/3500V5000FT/D -SN VV005 M06/ RMK SN8

CYYG;2012-02-01 18:00;CYYG 011800Z 10009KT 5/8SM R03/3500V5000FT/D -SN VV005 M06/M07 A2996 RMK SN8 /S04/ SLP150

CYYG;2012-02-01 18:17;CYYG 011817Z 10013KT 1/2SM R03/3000FT/D SN VV004 M06/ RMK SN8

CYYG;2012-02-01 19:00;CYYG 011900Z 08013KT 1/2SM R03/3000FT/N SN VV004 M06/M07 A2993 RMK SN8 SLP140

CYYG;2012-02-01 19:32;CYYG 011932Z 08013KT 3/8SM R03/1400V2600FT/N SN VV002 M06/ RMK SN8

CYYG;2012-02-01 20:00;CYYG 012000Z 09011G16KT 3/8SM R03/2400FT/N SN VV002 M05/M07 A2990 RMK SN8 /S02/ SLP127

CYYG;2012-02-01 20:43;CYYG 012043Z 09014KT 5/8SM R03/3500FT/U -SN VV005 M05/ RMK SN8

CYYG;2012-02-01 21:00;CYYG 012100Z 09015KT 5/8SM R03/5000FT/D -SN VV005 M05/M06 A2985 RMK SN8 SLP112

CYYG;2012-02-01 22:00;CYYG 012200Z 09014KT 1SM R03/6000FT/D -SN VV005 M05/M06 A2984 RMK SN8 SLP107

CYYG;2012-02-01 22:18;CYYG 012218Z 09011G16KT 2SM -SN OVC032 M05/ RMK SN2SC6

CYYG;2012-02-01 23:00;CYYG 012300Z 08011KT 3SM -SN SCT009 OVC027 M05/M06 A2983 RMK SF4SC4 /S06/ SLP104

CYYG;2012-02-02 00:00;CYYG 020000Z 05005KT 5SM -SN SCT010 OVC024 M05/M07 A2981 RMK SF4SC4 SLP098

CYYG;2012-02-02 01:00;CYYG 020100Z 05007KT 6SM -SN FEW010 OVC025 M05/M07 A2981 RMK SF2SC6 SLP097

CYYG;2012-02-02 02:00;CYYG 020200Z 05009KT 5SM -SN FEW010 OVC025 M05/M06 A2981 RMK SF2SC6 SLP097

CYYG;2012-02-02 03:00;CYYG 020300Z 04009KT 8SM -SN FEW010 OVC025 M04/M06 A2981 RMK SF2SC6 SLP097

CYYG;2012-02-02 04:00;CYYG 020400Z 06007KT 8SM -SN FEW010 OVC028 M04/M05 A2981 RMK SF2SC6 SLP098

CYYG;2012-02-02 05:00;CYYG 020500Z 04007KT 3SM -SN FEW009 OVC026 M03/M05 A2982 RMK SF2SC6 SLP099

CYYG;2012-02-02 06:00;CYYG 020600Z 04008KT 3SM -SN SCT006 OVC020 M03/M04 A2983 RMK SF3SC5 SLP104

CYYG;2012-02-02 07:00;CYYG 020700Z 04009KT 10SM -SN FEW010 OVC044 M03/M04 A2985 RMK SF2SC6 SLP109

CYYG;2012-02-02 08:00;CYYG 020800Z 04015KT 6SM -SN BKN010 OVC024 M03/M04 A2986 RMK SF5SC3 SLP113

CYYG;2012-02-02 09:00;CYYG 020900Z 04018KT 10SM -SN OVC013 M04/M05 A2987 RMK SC8 SLP119

CYYG;2012-02-02 10:00;CYYG 021000Z 04014KT 15SM -SN OVC013 M04/M06 A2992 RMK SC8 SLP135

CYYG;2012-02-02 11:00;CYYG 021100Z 04014G19KT 15SM -SN OVC018 M04/M06 A2995 RMK SC8 SLP145

CYYG;2012-02-02 12:00;CYYG 021200Z 03012KT 15SM -SN OVC014 M04/M07 A3000 RMK SC8 /S01/ SLP161

CYYG;2012-02-02 13:00;CYYG 021300Z 02011G16KT 3SM -SN DRSN OVC015 M05/M07 A3002 RMK SC8 SLP170

CYYG;2012-02-02 13:13;CYYG 021313Z 02011G16KT 2SM -SN DRSN SCT012 OVC020 M05/ RMK SC4SC4

CYYG;2012-02-02 14:00;CYYG 021400Z 02010G15KT 3SM -SN DRSN SCT012 OVC022 M05/M07 A3004 RMK SC3SC5 SLP174

CYYG;2012-02-02 15:00;CYYG 021500Z 01010KT 4SM -SN DRSN BKN013 OVC020 M05/M07 A3005 RMK SC5SC3 SLP178

CYYG;2012-02-02 16:00;CYYG 021600Z 01008KT 4SM -SN DRSN OVC014 M05/M08 A3005 RMK SC8 SLP179

CYYG;2012-02-02 17:00;CYYG 021700Z 01010KT 10SM -SN DRSN OVC018 M05/M09 A3006 RMK SC8 SLP183

CYYG;2012-02-02 18:00;CYYG 021800Z 36009KT 10SM -SN DRSN OVC018 M05/M09 A3006 RMK SC8 /S01/ SLP184

CYYG;2012-02-02 19:00;CYYG 021900Z 01007KT 12SM -SN OVC020 M06/M10 A3008 RMK SC8 SLP190

CYYG;2012-02-02 20:00;CYYG 022000Z 02009KT 15SM -SN BKN022 M07/M11 A3008 RMK SC7 SLP190

CYYG;2012-02-02 21:00;CYYG 022100Z 01007KT 15SM -SN BKN022 M07/M11 A3011 RMK SC7 SLP200

CYYG;2012-02-02 22:00;CYYG 022200Z 35004KT 15SM -SN OVC022 M07/M11 A3013 RMK SC8 SLP207

CYYG;2012-02-02 23:00;CYYG 022300Z 36006KT 12SM -SN OVC022 M08/M11 A3013 RMK SC8 SLP207

CYYG;2012-02-03 00:00;CYYG 030000Z 01005KT 15SM -SN BKN020 M08/M12 A3013 RMK SC5 SLP207

CYYG;2012-02-03 01:00;CYYG 030100Z 36004KT 15SM BKN019 M09/M12 A3014 RMK SC6 SLP208

CYYG;2012-02-03 02:00;CYYG 030200Z 01005KT 15SM BKN020 M08/M12 A3014 RMK SC6 SLP209

CYYG;2012-02-03 03:00;CYYG 030300Z 01005KT 15SM BKN019 M08/M11 A3013 RMK SC7 SLP207

CYYG;2012-02-03 04:00;CYYG 030400Z 02007KT 15SM BKN020 M08/M12 A3012 RMK SC6 SLP204

CYYG;2012-02-03 05:00;CYYG 030500Z 01004KT 15SM BKN020 M08/M11 A3012 RMK SC6 SLP202

CYYG;2012-02-03 06:00;CYYG 030600Z 36005KT 15SM -SHSN BKN020 M08/M11 A3012 RMK SC6 SLP203

CYYG;2012-02-03 07:00;CYYG 030700Z 01004KT 12SM -SHSN OVC021 M07/M11 A3012 RMK SC8 SLP203

CYYG;2012-02-03 08:00;CYYG 030800Z 36005KT 12SM -SHSN OVC022 M07/M11 A3011 RMK SC8 SLP200

CYYG;2012-02-03 09:00;CYYG 030900Z 01008KT 12SM -SHSN OVC021 M07/M11 A3012 RMK SC8 SLP203

CYYG;2012-02-03 10:00;CYYG 031000Z 01006KT 12SM -SHSN OVC018 M07/M11 A3012 RMK SC8 SLP201

CYYG;2012-02-03 11:00;CYYG 031100Z 36008KT 12SM -SHSN BKN019 M08/M11 A3013 RMK SC7 SLP205

CYYG;2012-02-03 12:00;CYYG 031200Z 36008G15KT 15SM -SHSN BKN021 M08/M12 A3015 RMK SC7 SLP213

CYYG;2012-02-03 13:00;CYYG 031300Z 36009G15KT 12SM -SHSN BKN020 M08/M11 A3015 RMK SC7 SLP214

CYYG;2012-02-03 14:00;CYYG 031400Z 36009G16KT 5SM -SHSN BKN020 M07/M11 A3015 RMK SC7 SLP213

CYYG;2012-02-03 15:00;CYYG 031500Z 36010G15KT 6SM -SHSN DRSN BKN020 M07/M11 A3014 RMK SC7 SLP210

CYYG;2012-02-03 16:00;CYYG 031600Z 36011KT 5SM -SHSN DRSN BKN022 M07/M11 A3012 RMK SC7 SLP201

CYYG;2012-02-03 17:00;CYYG 031700Z 36010G17KT 3SM -SHSN DRSN BKN022 M07/M11 A3010 RMK SC7 SLP196

CYYG;2012-02-03 18:00;CYYG 031800Z 36010G16KT 4SM -SHSN DRSN OVC020 M07/M11 A3009 RMK SC8 SLP194

CYYG;2012-02-03 19:00;CYYG 031900Z 36009G19KT 6SM -SHSN DRSN BKN020 M08/M12 A3010 RMK SC7 SLP196

CYYG;2012-02-03 20:00;CYYG 032000Z 34013G18KT 5SM -SHSN DRSN OVC022 M08/M12 A3010 RMK SC8 SLP197

CYYG;2012-02-03 21:00;CYYG 032100Z 35009G17KT 4SM -SHSN DRSN BKN025 M08/M12 A3011 RMK SC7 SLP199

CYYG;2012-02-03 22:00;CYYG 032200Z 34007KT 3SM -SHSN DRSN OVC020 M09/M11 A3011 RMK SC8 SLP199

CYYG;2012-02-03 23:00;CYYG 032300Z 34007KT 3SM -SHSN DRSN OVC024 M09/M12 A3011 RMK SC8 SLP200

CYYG;2012-02-03 23:39;CYYG 032339Z 33005KT 10SM -SHSN OVC026 M09/ RMK SC8

CYYG;2012-02-04 00:00;CYYG 040000Z 33005KT 10SM -SHSN OVC026 M09/M12 A3011 RMK SC8 SLP200

CYYG;2012-02-04 01:00;CYYG 040100Z 31005KT 15SM -SHSN BKN026 M12/M15 A3010 RMK SC6 SLP196

CYYG;2012-02-04 01:12;CYYG 040112Z 31005KT 15SM BKN026 M13/ RMK SC5

CYYG;2012-02-04 02:00;CYYG 040200Z 32005KT 15SM BKN025 M13/M15 A3007 RMK SC5 SLP187

CYYG;2012-02-04 03:00;CYYG 040300Z 31007KT 15SM SCT025 BKN250 M12/M15 A3005 RMK SC3CI2 SLP181

CYYG;2012-02-04 04:00;CYYG 040400Z 30007KT 15SM FEW025 SCT250 M12/M14 A3006 RMK SC2CI2 SLP182

CYYG;2012-02-04 05:00;CYYG 040500Z 31008KT 15SM FEW017 SCT250 M12/M15 A3004 RMK SC2CI2 SLP178

CYYG;2012-02-04 06:00;CYYG 040600Z 32006KT 15SM FEW017 SCT250 M13/M15 A3005 RMK SC2CI2 SLP179

CYYG;2012-02-04 07:00;CYYG 040700Z 31006KT 15SM FEW020 M14/M15 A3004 RMK SC2 SLP175

CYYG;2012-02-04 08:00;CYYG 040800Z 31007KT 15SM FEW020 M13/M15 A3002 RMK SC2 SLP171

CYYG;2012-02-04 09:00;CYYG 040900Z 31006KT 15SM BKN020 M13/M15 A3001 RMK SC6 SLP165

CYYG;2012-02-04 09:14;CYYG 040914Z 31004KT 12SM -SHSN BKN019 M12/ RMK SC7

CYYG;2012-02-04 10:00;CYYG 041000Z 29009KT 12SM -SHSN OVC022 M12/M15 A3002 RMK SC8 SLP170

CYYG;2012-02-04 11:00;CYYG 041100Z 30009KT 10SM -SHSN BKN020 M12/M14 A3002 RMK SC7 SLP171

CYYG;2012-02-04 12:00;CYYG 041200Z 30008KT 15SM -SHSN FEW022 FEW250 M13/M14 A3003 RMK SC2CI1 VIS NW-E 3 SLP174

CYYG;2012-02-04 13:00;CYYG 041300Z 29008KT 3SM -SHSN SCT024 M12/M14 A3003 RMK SC4 SLP172

CYYG;2012-02-04 13:47;CYYG 041347Z 29009KT 2SM -SHSN BKN025 M11/ RMK SC6

CYYG;2012-02-04 14:00;CYYG 041400Z 30010KT 3SM -SHSN BKN026 M10/M12 A3002 RMK SC6 SLP171

CYYG;2012-02-04 15:00;CYYG 041500Z 31008KT 2SM -SHSN BKN024 M09/M12 A3002 RMK SC6 SLP169

CYYG;2012-02-04 15:34;CYYG 041534Z 34011G16KT 4SM -SHSN DRSN BKN023 M09/ RMK SC6

CYYG;2012-02-04 16:00;CYYG 041600Z 34011G19KT 4SM -SHSN DRSN BKN022 M09/M13 A3001 RMK SC6 SLP165

CYYG;2012-02-04 17:00;CYYG 041700Z 33015G24KT 3SM -SHSN DRSN BKN022 M09/M13 A3000 RMK SC7 SLP162

CYYG;2012-02-04 18:00;CYYG 041800Z 34012G17KT 3SM -SHSN DRSN OVC023 M09/M13 A2999 RMK SC8 SLP159

CYYG;2012-02-04 19:00;CYYG 041900Z 34012KT 2SM -SHSN DRSN OVC023 M10/M12 A2999 RMK SC8 SLP159

CYYG;2012-02-04 19:28;CYYG 041928Z 33010G15KT 3SM -SHSN DRSN OVC024 M10/ RMK SC8

CYYG;2012-02-04 20:00;CYYG 042000Z 33011G16KT 5SM -SHSN DRSN BKN023 M10/M13 A2998 RMK SC6 SLP157

CYYG;2012-02-04 21:00;CYYG 042100Z 33008KT 3SM -SHSN BKN025 M10/M13 A2998 RMK SC6 SLP156

CYYG;2012-02-04 22:00;CYYG 042200Z 31006KT 3SM -SHSN DRSN BKN026 M10/M13 A2998 RMK SC6 VIS SW-NW 12 SLP155

CYYG;2012-02-04 23:00;CYYG 042300Z 31007KT 5SM -SHSN BKN023 M11/M13 A2998 RMK SC7 /S01/ SLP155

CYYG;2012-02-05 00:00;CYYG 050000Z 32004KT 6SM -SHSN BKN020 M12/M14 A2998 RMK SC7 /S02/ SLP156

CYYG;2012-02-05 01:00;CYYG 050100Z 29005KT 12SM VCSH SCT016 M13/M15 A2998 RMK SC4 SLP156

CYYG;2012-02-05 01:09;CYYG 050109Z 30004KT 10SM -SHSN BKN022 M12/ RMK SC6

CYYG;2012-02-05 01:37;CYYG 050137Z 31005KT 2 1/2SM -SHSN OVC022 M12/ RMK SN3SC5

CYYG;2012-02-05 02:00;CYYG 050200Z 30005KT 2 1/2SM -SHSN OVC020 M12/M13 A2996 RMK SN3SC5 SLP151

CYYG;2012-02-05 03:00;CYYG 050300Z 32006KT 2SM -SHSN OVC025 M11/M13 A2996 RMK SN5SC3 /S02/ SLP149

CYYG;2012-02-05 03:20;CYYG 050320Z 30005KT 3SM -SHSN OVC030 M11/ RMK SN3SC5

CYYG;2012-02-05 04:00;CYYG 050400Z 33006KT 4SM -SHSN OVC020 M11/M13 A2996 RMK SN2SC6 /S03/ SLP148

CYYG;2012-02-05 05:00;CYYG 050500Z 31007KT 12SM -SHSN BKN025 M12/M14 A2995 RMK SC6 SLP144

CYYG;2012-02-05 06:00;CYYG 050600Z 29007KT 15SM -SHSN BKN023 M13/M15 A2994 RMK SC7 SLP142

CYYG;2012-02-05 07:00;CYYG 050700Z 29008KT 15SM -SHSN BKN023 M13/M15 A2993 RMK SC7 SLP140

CYYG;2012-02-05 08:00;CYYG 050800Z 29011KT 12SM -SHSN OVC025 M13/M15 A2994 RMK SC8 SLP141

CYYG;2012-02-05 09:00;CYYG 050900Z 29010KT 15SM -SHSN BKN026 M13/M15 A2995 RMK SC6 SLP145

CYYG;2012-02-05 09:11;CYYG 050911Z 29008KT 15SM BKN026 M13/ RMK SC6

CYYG;2012-02-05 09:48;CYYG 050948Z 28007KT 15SM -SHSN OVC028 M13/ RMK SC8

CYYG;2012-02-05 10:00;CYYG 051000Z 27008KT 15SM -SHSN OVC028 M13/M16 A2995 RMK SC8 SLP145

CYYG;2012-02-05 11:00;CYYG 051100Z 26007KT 15SM -SHSN OVC026 M14/M17 A2995 RMK SC8 SLP146

CYYG;2012-02-05 12:00;CYYG 051200Z 27008KT 15SM -SHSN BKN026 M14/M16 A2995 RMK SC7 VIS LWR NW-E SLP147

CYYG;2012-02-05 13:00;CYYG 051300Z 28008KT 5SM -SHSN OVC029 M13/M16 A2996 RMK SC8 VIS SE-W 10 SLP151

CYYG;2012-02-05 14:00;CYYG 051400Z 28010KT 15SM -SHSN BKN023 M13/M15 A2996 RMK SC7 VIS LWR N-E SLP149

CYYG;2012-02-05 15:00;CYYG 051500Z 28008KT 15SM -SHSN FEW015 BKN024 M12/M15 A2995 RMK SC1SC6 SLP147

CYYG;2012-02-05 15:19;CYYG 051519Z 29007KT 15SM FEW015 BKN027 M12/ RMK SC1SC6

CYYG;2012-02-05 16:00;CYYG 051600Z 29009KT 15SM DRSN FEW015 FEW027 M12/M16 A2995 RMK SC1SC1 SLP145

CYYG;2012-02-05 17:00;CYYG 051700Z 29009KT 15SM DRSN FEW015 FEW032 M12/M15 A2993 RMK SC1SC1 SLP140

CYYG;2012-02-05 18:00;CYYG 051800Z 29008KT 15SM DRSN FEW015 FEW032 M11/M15 A2991 RMK SC1SC1 SLP134

CYYG;2012-02-05 19:00;CYYG 051900Z 29008KT 15SM DRSN FEW015 FEW032 M11/M16 A2991 RMK CU1SC1 SLP134

CYYG;2012-02-05 20:00;CYYG 052000Z 29006KT 15SM FEW020 M11/M16 A2991 RMK SC2 SLP133

CYYG;2012-02-05 21:00;CYYG 052100Z 29006KT 15SM FEW020 M11/M17 A2992 RMK SC1 SLP135

CYYG;2012-02-05 22:00;CYYG 052200Z 28005KT 15SM FEW020 FEW250 M13/M17 A2991 RMK SC1CI0 SLP132

CYYG;2012-02-05 23:00;CYYG 052300Z 25005KT 15SM FEW020 FEW250 M14/M17 A2991 RMK SC1CI1 SLP132

CYYG;2012-02-06 00:00;CYYG 060000Z 26004KT 15SM SCT220 M13/M16 A2991 RMK CI2 SLP132

CYYG;2012-02-06 01:00;CYYG 060100Z 23005KT 15SM FEW220 M14/M17 A2989 RMK CI2 SLP126

CYYG;2012-02-06 02:00;CYYG 060200Z 25006KT 15SM SKC M14/M16 A2989 RMK SLP125

CYYG;2012-02-06 03:00;CYYG 060300Z 27007KT 15SM FEW240 M14/M17 A2988 RMK CI1 SLP123

CYYG;2012-02-06 04:00;CYYG 060400Z 26007KT 15SM FEW240 M13/M17 A2987 RMK CI2 SLP120

CYYG;2012-02-06 05:00;CYYG 060500Z 27007KT 15SM SCT150 M13/M17 A2985 RMK AC4 SLP111

CYYG;2012-02-06 06:00;CYYG 060600Z 25006KT 15SM FEW110 BKN220 M13/M17 A2983 RMK AC2CI1 SLP106

CYYG;2012-02-06 07:00;CYYG 060700Z 21005KT 15SM FEW100 BKN200 M12/M16 A2980 RMK AC2CS1 SLP096

CYYG;2012-02-06 08:00;CYYG 060800Z 21007KT 15SM FEW050 BKN080 M10/M14 A2978 RMK SC1AS2 SLP087

CYYG;2012-02-06 09:00;CYYG 060900Z 21008KT 15SM OVC110 M09/M13 A2974 RMK AS6 SLP075

CYYG;2012-02-06 09:29;CYYG 060929Z 23012KT 15SM BKN050 OVC110 M07/ RMK SC6AS2

CYYG;2012-02-06 10:00;CYYG 061000Z 22010KT 15SM SCT050 OVC070 M08/M12 A2972 RMK SC3AS5 SLP069

CYYG;2012-02-06 10:15;CYYG 061015Z 22009KT 10SM -SN BKN038 BKN050 OVC080 M08/ RMK SC5SC2AS1

CYYG;2012-02-06 10:40;CYYG 061040Z 23010G15KT 10SM -SN DRSN BKN021 OVC040 M08/ RMK SC5SC3

CYYG;2012-02-06 11:00;CYYG 061100Z 23011KT 10SM -SN DRSN SCT020 BKN040 BKN140 M07/M09 A2970 RMK SC3SC2AC2 SLP061

CYYG;2012-02-06 12:00;CYYG 061200Z 22010KT 15SM -SHSN DRSN BKN020 OVC040 M06/M08 A2969 RMK SC5SC3 SLP059

CYYG;2012-02-06 13:00;CYYG 061300Z 24012G17KT 4SM -SHSN DRSN SCT013 OVC022 M05/M07 A2969 RMK SC4SC4 SLP057

CYYG;2012-02-06 13:14;CYYG 061314Z 25012G18KT 2 1/2SM -SHSN DRSN SCT012 OVC022 M04/ RMK SC3SC5

CYYG;2012-02-06 13:43;CYYG 061343Z 25011KT 6SM -SHSN DRSN BKN012 OVC022 M04/ RMK SC6SC2

CYYG;2012-02-06 14:00;CYYG 061400Z 25010G17KT 10SM -SHSN DRSN BKN013 OVC022 M04/M06 A2968 RMK SC6SC2 SLP054

CYYG;2012-02-06 14:40;CYYG 061440Z 26010G19KT 15SM -SHSN BKN016 OVC030 M03/ RMK SC5SC3

CYYG;2012-02-06 15:00;CYYG 061500Z 25010G16KT 15SM -SHSN SCT016 OVC045 M03/M06 A2967 RMK SC3SC5 SLP052

CYYG;2012-02-06 15:53;CYYG 061553Z 26009G15KT 15SM SCT016 OVC051 M02/ RMK SC3SC5

CYYG;2012-02-06 16:00;CYYG 061600Z 26010G18KT 15SM FEW016 OVC055 M01/M05 A2965 RMK SC2SC6 OBS TAKEN +10 SLP045

CYYG;2012-02-06 17:00;CYYG 061700Z 27011G18KT 15SM FEW016 OVC057 M01/M05 A2964 RMK SC2SC6 SLP041

CYYG;2012-02-06 18:00;CYYG 061800Z 26012KT 15SM FEW017 OVC057 M00/M05 A2962 RMK SC2SC6 SLP034

CYYG;2012-02-06 19:00;CYYG 061900Z 25011KT 15SM FEW017 OVC055 M00/M05 A2963 RMK SC2SC6 SLP036

CYYG;2012-02-06 20:00;CYYG 062000Z 25008KT 15SM FEW017 SCT055 OVC100 00/M04 A2962 RMK SC2SC2AC5 SLP032

CYYG;2012-02-06 21:00;CYYG 062100Z 25007KT 15SM FEW017 SCT055 OVC089 M00/M04 A2962 RMK SC1SC2AC5 SLP034

CYYG;2012-02-06 22:00;CYYG 062200Z 26008KT 15SM FEW055 BKN094 00/M04 A2962 RMK SC2AC5 SLP033

CYYG;2012-02-06 23:00;CYYG 062300Z 25008KT 15SM BKN090 M00/M04 A2963 RMK AC6 SLP038

CYYG;2012-02-07 00:00;CYYG 070000Z 25007KT 15SM SCT085 M01/M04 A2963 RMK AC4 SLP037

CYYG;2012-02-07 01:00;CYYG 070100Z 23007KT 15SM FEW030 SCT080 BKN130 00/M04 A2963 RMK SC1AC2AC3 SLP038

CYYG;2012-02-07 02:00;CYYG 070200Z 26008KT 15SM FEW040 BKN110 BKN120 01/M03 A2964 RMK SC2AC3AC2 SLP039

CYYG;2012-02-07 03:00;CYYG 070300Z 26009G16KT 15SM FEW040 BKN130 01/M03 A2964 RMK SC2AC5 SLP040

CYYG;2012-02-07 04:00;CYYG 070400Z 26008G15KT 15SM FEW040 BKN120 01/M03 A2964 RMK SC2AC5 SLP041

CYYG;2012-02-07 05:00;CYYG 070500Z 25010KT 15SM BKN099 00/M04 A2964 RMK AC6 SLP039

CYYG;2012-02-07 06:00;CYYG 070600Z 26009KT 15SM SCT090 BKN130 M00/M04 A2965 RMK AC3AC3 SLP042

CYYG;2012-02-07 07:00;CYYG 070700Z 26010KT 15SM FEW060 BKN120 00/M04 A2966 RMK SC2AC4 SLP044

CYYG;2012-02-07 08:00;CYYG 070800Z 25007KT 15SM BKN072 BKN120 M00/M04 A2967 RMK AC5AC2 SLP050

CYYG;2012-02-07 09:00;CYYG 070900Z 26007KT 15SM FEW070 SCT120 M01/M05 A2969 RMK AC2AC2 SLP056

CYYG;2012-02-07 10:00;CYYG 071000Z 26006KT 15SM BKN023 BKN055 M01/M05 A2972 RMK SC6SC2 SLP066

CYYG;2012-02-07 11:00;CYYG 071100Z 33007KT 15SM BKN025 BKN034 M01/M05 A2975 RMK SC6SC2 SLP076

CYYG;2012-02-07 12:00;CYYG 071200Z 33011KT 15SM BKN023 BKN034 M03/M09 A2979 RMK SC5SC2 SLP089

CYYG;2012-02-07 13:00;CYYG 071300Z 32008KT 15SM SCT030 BKN058 M04/M09 A2983 RMK SC3SC4 SLP104

CYYG;2012-02-07 14:00;CYYG 071400Z 32011KT 15SM FEW030 BKN060 M03/M09 A2985 RMK SC2SC3 OBS TAKEN +12 SLP111

CYYG;2012-02-07 15:00;CYYG 071500Z 32011KT 15SM FEW030 BKN060 M04/M10 A2986 RMK SC2SC3 SLP115

CYYG;2012-02-07 16:00;CYYG 071600Z 33007G15KT 15SM BKN030 M03/M10 A2987 RMK SC6 SLP116

CYYG;2012-02-07 17:00;CYYG 071700Z 33010KT 15SM BKN031 M04/M10 A2987 RMK SC6 SLP117

CYYG;2012-02-07 18:00;CYYG 071800Z 32008G18KT 15SM BKN036 M04/M11 A2987 RMK SC7 SLP119

CYYG;2012-02-07 19:00;CYYG 071900Z 33008KT 15SM BKN037 M04/M11 A2988 RMK SC7 SLP121

CYYG;2012-02-07 20:00;CYYG 072000Z 34008KT 15SM BKN040 M04/M11 A2990 RMK SC7 SLP127

CYYG;2012-02-07 21:00;CYYG 072100Z 36005KT 15SM BKN041 M04/M11 A2990 RMK SC7 SLP128

CYYG;2012-02-07 22:00;CYYG 072200Z 31004KT 15SM BKN050 M04/M11 A2993 RMK SC7 SLP136

CYYG;2012-02-07 22:42;CYYG 072242Z 34007KT 10SM -SHSN BKN020 OVC050 M05/ RMK SC6SC2

CYYG;2012-02-07 23:00;CYYG 072300Z 34007KT 10SM -SHSN BKN020 OVC050 M05/M09 A2995 RMK SC6SC2 SLP143

CYYG;2012-02-08 00:00;CYYG 080000Z 34009KT 10SM -SHSN BKN021 OVC035 M06/M10 A2997 RMK SC6SC2 SLP153

CYYG;2012-02-08 01:00;CYYG 080100Z 34013KT 15SM -SHSN DRSN FEW025 OVC042 M07/M12 A2999 RMK SC2SC6 SLP160

CYYG;2012-02-08 01:47;CYYG 080147Z 33007KT 15SM BKN047 M08/ RMK SC7

CYYG;2012-02-08 02:00;CYYG 080200Z 31007KT 15SM BKN047 M08/M14 A3000 RMK SC7 SLP162

CYYG;2012-02-08 03:00;CYYG 080300Z 31007KT 15SM FEW045 M09/M15 A3001 RMK SC1 SLP165

CYYG;2012-02-08 04:00;CYYG 080400Z 28006KT 15SM SCT037 M10/M15 A3001 RMK SC4 SLP167

CYYG;2012-02-08 05:00;CYYG 080500Z 29006KT 15SM BKN038 M10/M15 A3003 RMK SC6 SLP172

CYYG;2012-02-08 06:00;CYYG 080600Z 28007KT 15SM BKN036 M10/M15 A3004 RMK SC7 SLP177

CYYG;2012-02-08 07:00;CYYG 080700Z 32008KT 15SM OVC035 M09/M15 A3007 RMK SC8 SLP185

CYYG;2012-02-08 08:00;CYYG 080800Z 29008KT 15SM OVC032 M10/M16 A3008 RMK SC8 SLP188

CYYG;2012-02-08 09:00;CYYG 080900Z 29008KT 15SM BKN030 M11/M17 A3009 RMK SC6 SLP194

CYYG;2012-02-08 10:00;CYYG 081000Z 29007KT 15SM FEW030 M12/M17 A3012 RMK SC2 SLP201

CYYG;2012-02-08 11:00;CYYG 081100Z 27005KT 15SM FEW030 M13/M18 A3013 RMK SC2 SLP207

CYYG;2012-02-08 12:00;CYYG 081200Z 27005KT 15SM FEW030 M14/M18 A3016 RMK SC2 SLP218

CYYG;2012-02-08 13:00;CYYG 081300Z 27003KT 15SM FEW030 M14/M17 A3018 RMK SC2 SLP224

CYYG;2012-02-08 14:00;CYYG 081400Z 25008KT 15SM FEW030 M13/M17 A3018 RMK SC2 SLP224

CYYG;2012-02-08 15:00;CYYG 081500Z 25009KT 15SM FEW030 M13/M17 A3017 RMK SC2 SLP222

CYYG;2012-02-08 16:00;CYYG 081600Z 26007KT 15SM FEW030 M12/M18 A3016 RMK SC2 SLP217

CYYG;2012-02-08 17:00;CYYG 081700Z 23010G15KT 15SM FEW030 M11/M19 A3013 RMK SC1 SLP207

CYYG;2012-02-08 18:00;CYYG 081800Z 23013G18KT 15SM FEW030 M09/M19 A3010 RMK SC1 SLP198

CYYG;2012-02-08 19:00;CYYG 081900Z 22011G17KT 15SM SKC M07/M18 A3009 RMK SLP192

CYYG;2012-02-08 20:00;CYYG 082000Z 22013KT 15SM DRSN SKC M06/M17 A3006 RMK D SLP183

CYYG;2012-02-08 21:00;CYYG 082100Z 22012G17KT 15SM DRSN SKC M05/M16 A3005 RMK SLP180

CYYG;2012-02-08 22:00;CYYG 082200Z 22011KT 15SM DRSN FEW250 M06/M14 A3006 RMK CI0 SLP181

CYYG;2012-02-08 23:00;CYYG 082300Z 22010KT 15SM DRSN SKC M05/M11 A3007 RMK SLP187

CYYG;2012-02-09 00:00;CYYG 090000Z 21008KT 15SM SKC M06/M10 A3008 RMK SLP189

CYYG;2012-02-09 01:00;CYYG 090100Z 20007KT 15SM SKC M06/M10 A3008 RMK SLP191

CYYG;2012-02-09 02:00;CYYG 090200Z 20009KT 15SM SKC M06/M11 A3008 RMK SLP189

CYYG;2012-02-09 03:00;CYYG 090300Z 20008KT 15SM FEW250 M07/M11 A3007 RMK CI1 SLP186

CYYG;2012-02-09 04:00;CYYG 090400Z 18009KT 15SM FEW250 M08/M11 A3007 RMK CI1 FROIN SLP187

CYYG;2012-02-09 05:00;CYYG 090500Z 19009KT 15SM BKN250 M08/M11 A3006 RMK CI2 FROIN SLP184

CYYG;2012-02-09 06:00;CYYG 090600Z 19007KT 15SM FEW020 BKN250 M07/M10 A3006 RMK SC1CS2 FROIN HALO SLP184

CYYG;2012-02-09 07:00;CYYG 090700Z 19006KT 15SM BKN250 M08/M10 A3005 RMK CI2 FROIN SLP179

CYYG;2012-02-09 08:00;CYYG 090800Z 19009KT 15SM FEW025 BKN250 M07/M10 A3005 RMK SC1CI2 FROIN SLP178

CYYG;2012-02-09 09:00;CYYG 090900Z 18006KT 15SM BKN200 M07/M10 A3004 RMK CI3 FROIN SLP176

CYYG;2012-02-09 10:00;CYYG 091000Z 19008KT 15SM BKN220 M07/M09 A3005 RMK CI2 FROIN SLP178

CYYG;2012-02-09 11:00;CYYG 091100Z 19011KT 15SM BKN023 BKN220 M05/M07 A3006 RMK SC6CI0 SLP182

CYYG;2012-02-09 12:00;CYYG 091200Z 15005KT 15SM FEW032 BKN210 M05/M07 A3004 RMK SC2CI2 SLP174

CYYG;2012-02-09 13:00;CYYG 091300Z 18006KT 15SM FEW014 SCT029 BKN210 M05/M08 A3003 RMK SC1SC2CI1 SLP173

CYYG;2012-02-09 14:00;CYYG 091400Z 18007KT 15SM BKN033 BKN210 M03/M06 A3002 RMK SC6CI1 SLP169

CYYG;2012-02-09 15:00;CYYG 091500Z 16007KT 15SM SCT031 BKN210 M02/M06 A3000 RMK SC3CI1 SLP161

CYYG;2012-02-09 16:00;CYYG 091600Z 19005KT 15SM FEW031 BKN230 M02/M05 A2997 RMK SC2CS2 SLP153

CYYG;2012-02-09 17:00;CYYG 091700Z 17010KT 15SM FEW031 BKN230 M02/M05 A2997 RMK SC1CS2 SLP152

CYYG;2012-02-09 18:00;CYYG 091800Z 22004KT 15SM FEW031 BKN230 M01/M05 A2993 RMK SC1CS2 SLP137

CYYG;2012-02-09 19:00;CYYG 091900Z 00000KT 15SM FEW031 BKN220 00/M05 A2988 RMK SC1CS2 SLP120

CYYG;2012-02-09 20:00;CYYG 092000Z 00000KT 15SM OVC220 00/M05 A2989 RMK CS4 SLP123

CYYG;2012-02-09 21:00;CYYG 092100Z 00000KT 15SM BKN220 M01/M05 A2990 RMK CS4 SLP126

CYYG;2012-02-09 22:00;CYYG 092200Z 02006KT 15SM BKN220 M04/M06 A2989 RMK CS4 SLP124

CYYG;2012-02-09 23:00;CYYG 092300Z 36004KT 15SM BKN220 M04/M07 A2989 RMK CS4 SLP124

CYYG;2012-02-10 00:00;CYYG 100000Z 35004KT 15SM SCT220 M06/M07 A2990 RMK CS2 SLP128

CYYG;2012-02-10 01:00;CYYG 100100Z 34005KT 15SM SCT220 M05/M06 A2989 RMK CS1 SLP126

CYYG;2012-02-10 02:00;CYYG 100200Z 33004KT 15SM BKN230 M05/M06 A2990 RMK CS1 SLP128

CYYG;2012-02-10 03:00;CYYG 100300Z 33004KT 15SM SCT230 M06/M07 A2990 RMK CS1 SLP126

CYYG;2012-02-10 04:00;CYYG 100400Z 32004KT 15SM SCT230 M06/M07 A2990 RMK CS1 SLP129

CYYG;2012-02-10 05:00;CYYG 100500Z 33006KT 15SM FEW230 M05/M06 A2993 RMK CS0 SLP136

CYYG;2012-02-10 06:00;CYYG 100600Z 31005KT 15SM SKC M06/M08 A2994 RMK SLP142

CYYG;2012-02-10 07:00;CYYG 100700Z 33004KT 15SM SKC M07/M08 A2996 RMK SLP147

CYYG;2012-02-10 08:00;CYYG 100800Z 33004KT 15SM SKC M07/M09 A2998 RMK SLP155

CYYG;2012-02-10 09:00;CYYG 100900Z 31004KT 15SM SKC M08/M09 A3000 RMK SLP162

CYYG;2012-02-10 10:00;CYYG 101000Z 32003KT 15SM SKC M08/M10 A3002 RMK FROIN SLP169

CYYG;2012-02-10 11:00;CYYG 101100Z 30004KT 15SM SKC M08/M09 A3005 RMK FROIN SLP178

CYYG;2012-02-10 12:00;CYYG 101200Z 30004KT 15SM FEW250 M08/M10 A3007 RMK CI0 SLP185

CYYG;2012-02-10 13:00;CYYG 101300Z 26004KT 15SM FEW250 M07/M09 A3009 RMK CI0 SLP191

CYYG;2012-02-10 14:00;CYYG 101400Z 25004KT 15SM FEW250 M05/M08 A3010 RMK CI0 SLP196

CYYG;2012-02-10 15:00;CYYG 101500Z 22005KT 15SM FEW250 M03/M08 A3012 RMK CI0 SLP201

CYYG;2012-02-10 16:00;CYYG 101600Z 22010KT 15SM SKC M03/M07 A3011 RMK SLP198

CYYG;2012-02-10 17:00;CYYG 101700Z 21012KT 15SM SKC M02/M09 A3009 RMK SLP192

CYYG;2012-02-10 18:00;CYYG 101800Z 19009KT 15SM FEW250 M01/M09 A3006 RMK CI0 OBS TAKEN +07 SLP181

CYYG;2012-02-10 19:00;CYYG 101900Z 18008KT 15SM FEW250 M01/M08 A3005 RMK CI0 SLP180

CYYG;2012-02-10 20:00;CYYG 102000Z 18008KT 15SM FEW250 M01/M09 A3004 RMK CI0 SLP175

CYYG;2012-02-10 21:00;CYYG 102100Z 18010KT 15SM FEW250 M01/M08 A3004 RMK CI1 SLP174

CYYG;2012-02-10 22:00;CYYG 102200Z 17009KT 15SM FEW250 M02/M08 A3003 RMK CI1 SLP173

CYYG;2012-02-10 23:00;CYYG 102300Z 19010KT 15SM FEW250 M02/M07 A3003 RMK CI1 SLP173

CYYG;2012-02-11 00:00;CYYG 110000Z 18009KT 15SM FEW250 M02/M08 A3003 RMK CI0 SLP173

CYYG;2012-02-11 01:00;CYYG 110100Z 18012KT 15SM SKC M01/M07 A3002 RMK SLP169

CYYG;2012-02-11 02:00;CYYG 110200Z 19014KT 15SM SCT260 M01/M05 A3000 RMK CI0 SLP162

CYYG;2012-02-11 03:00;CYYG 110300Z 18011KT 15SM BKN230 M02/M05 A2999 RMK CI1 SLP158

CYYG;2012-02-11 04:00;CYYG 110400Z 17011KT 15SM BKN210 M01/M04 A2998 RMK CI1 SLP155

CYYG;2012-02-11 05:00;CYYG 110500Z 18009KT 15SM BKN210 M02/M03 A2997 RMK CI1 SLP150

CYYG;2012-02-11 06:00;CYYG 110600Z 18012KT 15SM FEW150 BKN210 M00/M02 A2995 RMK AC2CI1 SLP145

CYYG;2012-02-11 07:00;CYYG 110700Z 19009KT 15SM FEW015 OVC180 M00/M02 A2995 RMK SC2AC4 SLP143

CYYG;2012-02-11 08:00;CYYG 110800Z 18009KT 15SM SCT015 OVC140 00/M01 A2992 RMK SC3AC5 SLP133

CYYG;2012-02-11 09:00;CYYG 110900Z 19012KT 15SM FEW015 FEW030 OVC120 01/M01 A2991 RMK SC1SC1AC6 SLP130

CYYG;2012-02-11 10:00;CYYG 111000Z 19010KT 15SM FEW030 OVC100 01/M01 A2990 RMK SC2AC6 SLP128

CYYG;2012-02-11 11:00;CYYG 111100Z 18009KT 15SM FEW030 BKN064 OVC100 01/M00 A2988 RMK SC1SC6AC1 SLP120

CYYG;2012-02-11 12:00;CYYG 111200Z 18009KT 15SM FEW015 OVC050 01/M00 A2988 RMK SF1NS7 SLP121

CYYG;2012-02-11 13:00;CYYG 111300Z 19009KT 10SM FEW010 OVC040 01/00 A2987 RMK SF2NS6 SLP119

CYYG;2012-02-11 13:22;CYYG 111322Z 17008KT 10SM -SHRA FEW008 OVC032 02/ RMK SF2SC6

CYYG;2012-02-11 14:00;CYYG 111400Z 17009KT 10SM -SHRA FEW004 OVC030 02/01 A2985 RMK SF2SC6 PCPN VRY LGT SLP110

CYYG;2012-02-11 15:00;CYYG 111500Z 17011KT 12SM FEW004 OVC028 03/01 A2982 RMK SF1SC7 SLP102

CYYG;2012-02-11 15:30;CYYG 111530Z 18012KT 12SM -RA FEW004 OVC024 03/ RMK SF2SC6

CYYG;2012-02-11 16:00;CYYG 111600Z 18011KT 10SM -RA FEW014 OVC031 03/01 A2981 RMK SC2SC6 OBS TAKEN +06 SLP096

CYYG;2012-02-11 17:00;CYYG 111700Z 16010KT 10SM -RA FEW005 FEW015 OVC030 03/02 A2977 RMK SF1SC2SC6 SLP083

CYYG;2012-02-11 17:29;CYYG 111729Z 16011KT 8SM -RA FEW005 BKN014 OVC030 03/ RMK SF2SC6SC1

CYYG;2012-02-11 18:00;CYYG 111800Z 17008KT 8SM -RA FEW004 OVC014 03/02 A2973 RMK SF2SC6 SLP070

CYYG;2012-02-11 19:00;CYYG 111900Z 17008KT 8SM -RA FEW005 BKN012 OVC020 02/01 A2970 RMK SF2SC6SC1 SLP058

CYYG;2012-02-11 19:47;CYYG 111947Z 16003KT 4SM -RA BR SCT002 OVC014 03/ RMK SF3SC5

CYYG;2012-02-11 20:00;CYYG 112000Z 17003KT 3SM -RA BR SCT002 OVC016 03/02 A2968 RMK SF3SC5 SLP051

CYYG;2012-02-11 20:06;CYYG 112006Z 16004KT 3SM -RA BR BKN002 OVC006 03/ RMK SF6SF2

CYYG;2012-02-11 20:15;CYYG 112015Z 18002KT 2SM R03/4500VP6000FT/D -RA BR OVC002 03/ RMK SF8

CYYG;2012-02-11 20:36;CYYG 112036Z 14002KT 3SM -RA BR BKN004 OVC011 03/ RMK SF6SC2

CYYG;2012-02-11 21:00;CYYG 112100Z 00000KT 3SM -RA BR SCT003 OVC012 03/02 A2963 RMK SF3SC5 PRESFR SLP035

CYYG;2012-02-11 22:00;CYYG 112200Z 00000KT 6SM -RA BR FEW003 OVC010 03/02 A2958 RMK SF2SC6 SLP020

CYYG;2012-02-11 22:11;CYYG 112211Z 36002KT 6SM -RASN BR OVC009 02/ RMK SF8

CYYG;2012-02-11 23:00;CYYG 112300Z 00000KT 8SM -RASN FEW008 BKN020 OVC035 01/01 A2956 RMK SF2SC3SC3 OBS TAKEN +06 SLP011

CYYG;2012-02-11 23:19;CYYG 112319Z 01004KT 2 1/2SM -RASN BR BKN010 OVC035 01/ RMK SC6SC2

CYYG;2012-02-11 23:33;CYYG 112333Z 36003KT 1 1/2SM -SN BR OVC008 01/ RMK SF8

CYYG;2012-02-11 23:43;CYYG 112343Z 36004KT 1SM R03/P6000FT/D -SN VV008 00/ RMK SN8

CYYG;2012-02-12 00:00;CYYG 120000Z 36006KT 3/4SM R03/5500FT/D -SN VV006 00/M00 A2952 RMK SN8 SLP000

CYYG;2012-02-12 00:42;CYYG 120042Z 01012G17KT 1 1/2SM R03/2800V5500FT/U -SN OVC005 M02/ RMK SF8

CYYG;2012-02-12 00:52;CYYG 120052Z 01013G18KT 2 1/2SM -SNPL OVC005 M03/ RMK SF8

CYYG;2012-02-12 01:00;CYYG 120100Z 01013KT 2 1/2SM -SNPL -FZRA OVC006 M03/M03 A2947 RMK SF8 /S02/ SLP982

CYYG;2012-02-12 02:00;CYYG 120200Z 02018G25KT 3SM -PL -FZRA BR OVC006 M03/M04 A2942 RMK SF8 SLP966

CYYG;2012-02-12 03:00;CYYG 120300Z 02019G27KT 2SM R03/6000FT/D -PL -FZRA OVC007 M03/M04 A2935 RMK SF8 PRESFR /S03/ SLP942

CYYG;2012-02-12 03:21;CYYG 120321Z 02017G26KT 1 1/2SM R03/3500V5500FT/D -SNPL DRSN -FZRA OVC007 M03/ RMK SF8 PRESFR

CYYG;2012-02-12 04:00;CYYG 120400Z 02020G28KT 1SM R03/3000FT/N -SNPL DRSN -FZRA OVC007 M04/M05 A2928 RMK SF8 PRESFR SLP918

CYYG;2012-02-12 04:25;CYYG 120425Z 01019G29KT 1SM R03/3000FT/N -SNPL DRSN OVC010 M04/ REFZRA RMK NS8 PRESFR

CYYG;2012-02-12 05:00;CYYG 120500Z 01019G29KT 1SM R03/2600V4000FT/N +PLSN DRSN FEW008 OVC012 M05/M06 A2920 REFZRA RMK SF2NS6 PRESFR /S04/ SLP891

CYYG;2012-02-12 05:48;CYYG 120548Z 36025G34KT 3/8SM PLSN BLSN VV005 M05/ RMK SN8 PRESFR

CYYG;2012-02-12 06:00;CYYG 120600Z 36025G32KT 1/4SM +SN +BLSN VV003 M05/M07 A2909 RMK SN8 PRESFR /S06/ SLP854

CYYG;2012-02-12 06:14;CYYG 120614Z 36024G40KT 1/8SM +SN +BLSN VV002 M05/ RMK SN8 PRESFR

CYYG;2012-02-12 06:50;CYYG 120650Z 36023G39KT 0SM +SN +BLSN VV000 M06/ RMK BLSN8 PRESFR

CYYG;2012-02-12 07:00;CYYG 120700Z 36024G40KT 0SM +SN +BLSN VV000 M06/M06 A2898 RMK BLSN8 PRESFR /S05/ SLP815

CYYG;2012-02-12 07:12;CYYG 120712Z 36027G39KT 1/8SM +SN +BLSN VV001 M06/ RMK BLSN8 PRESFR

CYYG;2012-02-12 07:45;CYYG 120745Z 35024G42KT 1/8SM +SN +BLSN VV001 M07/ RMK BLSN8 PRESFR VIS VRB 0-1/4

CYYG;2012-02-12 08:00;CYYG 120800Z 35029G44KT 1/8SM +SN +BLSN VV001 M07/M07 A2893 RMK BLSN8 VIS VRB 0-1/4 /S11/ SLP799

CYYG;2012-02-12 09:00;CYYG 120900Z 35024G37KT 1/8SM +SN +BLSN VV001 M07/M07 A2896 RMK BLSN8 VIS VRB 0-1/4 /S17/ SLP807

CYYG;2012-02-12 09:11;CYYG 120911Z 35027G37KT 1/8SM SN +BLSN VV001 M07/ RESN RMK BLSN8 VIS VRB 0-1/4

CYYG;2012-02-12 09:16;CYYG 120916Z 35023G37KT 1/4SM -SN +BLSN VV006 M07/ RESN RMK SN8 VIS VRB 1/8-1/2

CYYG;2012-02-12 09:41;CYYG 120941Z 34020G38KT 1/2SM -SN BLSN VV007 M07/ RESN REBLSN RMK SN8

CYYG;2012-02-12 10:00;CYYG 121000Z 34024G35KT 5/8SM -SN BLSN OVC011 M07/M07 A2903 RESN REBLSN RMK SN5SC3 PRESRR /S20/ SLP833

CYYG;2012-02-12 10:37;CYYG 121037Z 33019G33KT 1 1/2SM -SN BLSN OVC013 M07/ RMK SN3SC5

CYYG;2012-02-12 11:00;CYYG 121100Z 32018G28KT 1 1/2SM -SN BLSN VV008 M07/M07 A2910 RMK SN8 PRESRR SLP856

CYYG;2012-02-12 11:38;CYYG 121138Z 31016G21KT 5SM -SN BLSN FEW008 BKN013 M08/ RMK SF2SC6

CYYG;2012-02-12 12:00;CYYG 121200Z 30015G21KT 5SM -SN BLSN FEW016 BKN024 BKN033 M08/M08 A2919 RMK SC2SC4SC2 /S32/ PRESRR SLP886

CYYG;2012-02-12 13:00;CYYG 121300Z 31014G20KT 10SM -SN DRSN FEW016 FEW024 SCT033 BKN250 M09/M09 A2924 RMK SC1SC1SC2CI1 SLP903

CYYG;2012-02-12 14:00;CYYG 121400Z 31015KT 6SM -SN DRSN FEW018 SCT048 BKN068 M09/M09 A2925 RMK SC2SC2AC4 SLP909

CYYG;2012-02-12 15:00;CYYG 121500Z 30009G17KT 15SM -SN DRSN FEW018 SCT045 BKN064 M09/M10 A2931 RMK SC2SC2SC4 SLP928

CYYG;2012-02-12 16:00;CYYG 121600Z 30012KT 4SM -SN DRSN FEW015 OVC033 M10/M10 A2930 RMK SC2SC6 SLP925

CYYG;2012-02-12 16:36;CYYG 121636Z 30015G22KT 10SM DRSN FEW015 FEW035 SCT090 OVC130 M10/ RMK SC2SC1AC1AS5

CYYG;2012-02-12 17:00;CYYG 121700Z 30013G22KT 15SM DRSN FEW015 SCT090 OVC130 M10/M10 A2928 RMK SC1AC2AS5 SLP917

CYYG;2012-02-12 18:00;CYYG 121800Z 32011G16KT 15SM DRSN FEW015 BKN090 BKN150 M10/M10 A2927 RMK SC1AC4AS2 SLP916

CYYG;2012-02-12 19:00;CYYG 121900Z 31008G17KT 15SM DRSN FEW015 FEW090 BKN130 M09/M10 A2929 RMK SC1AC2AS5 SLP922

CYYG;2012-02-12 20:00;CYYG 122000Z 33005KT 15SM FEW025 BKN110 BKN150 M09/M09 A2931 RMK SC1AC5AS0 SLP927

CYYG;2012-02-12 21:00;CYYG 122100Z 32007KT 15SM FEW030 BKN110 BKN150 M09/M10 A2931 RMK SC1AC5AS0 SLP928

CYYG;2012-02-12 22:00;CYYG 122200Z 31006KT 15SM FEW030 BKN110 M10/M10 A2932 RMK SC2AC3 SLP931

CYYG;2012-02-12 23:00;CYYG 122300Z 31008KT 15SM FEW030 BKN130 M10/M10 A2934 RMK SC2AC3 SLP940

CYYG;2012-02-13 00:00;CYYG 130000Z 30005KT 15SM SCT032 M11/M11 A2937 RMK SC3 SLP949

CYYG;2012-02-13 01:00;CYYG 130100Z 30008KT 15SM OVC034 M11/M15 A2941 RMK SC8 SLP961

CYYG;2012-02-13 02:00;CYYG 130200Z 31011G19KT 15SM -SHSN OVC033 M12/M16 A2942 RMK SC8 SLP964

CYYG;2012-02-13 03:00;CYYG 130300Z 29014KT 15SM -SHSN OVC038 M13/M18 A2945 RMK SC8 SLP978

CYYG;2012-02-13 03:50;CYYG 130350Z 30012G19KT 15SM OVC037 M15/ RMK SC8

CYYG;2012-02-13 04:00;CYYG 130400Z 30013G18KT 15SM OVC036 M15/M20 A2947 RMK SC8 SLP984

CYYG;2012-02-13 05:00;CYYG 130500Z 29011G16KT 15SM OVC036 M16/M20 A2948 RMK SC8 SLP987

CYYG;2012-02-13 06:00;CYYG 130600Z 28013G19KT 15SM SCT041 M17/M21 A2950 RMK SC3 SLP992

CYYG;2012-02-13 07:00;CYYG 130700Z 27012G18KT 15SM FEW022 FEW041 M18/M21 A2952 RMK SC1SC1 SLP000

CYYG;2012-02-13 08:00;CYYG 130800Z 27012G19KT 15SM FEW022 M19/M22 A2954 RMK SC1 SLP007

CYYG;2012-02-13 09:00;CYYG 130900Z 26009KT 15SM FEW022 M20/M24 A2957 RMK SC1 SLP017

CYYG;2012-02-13 10:00;CYYG 131000Z 26012G17KT 15SM FEW022 M20/M24 A2959 RMK SC1 SLP025

CYYG;2012-02-13 11:00;CYYG 131100Z 26014G19KT 15SM FEW022 M20/M25 A2960 RMK SC1 SLP029

CYYG;2012-02-13 12:00;CYYG 131200Z 26014G21KT 15SM FEW022 M20/M24 A2963 RMK SC1 SLP038

CYYG;2012-02-13 13:00;CYYG 131300Z 27015G22KT 15SM DRSN FEW022 M19/M24 A2965 RMK SC1 SLP044

CYYG;2012-02-13 14:00;CYYG 131400Z 27014G25KT 15SM DRSN FEW020 M19/M23 A2967 RMK SC1 SLP052

CYYG;2012-02-13 15:00;CYYG 131500Z 26011G19KT 15SM DRSN FEW020 SCT300 M16/M22 A2967 RMK CF1CI1 SLP053

CYYG;2012-02-13 16:00;CYYG 131600Z 27013G20KT 15SM DRSN FEW040 FEW064 BKN300 M15/M19 A2964 RMK SC1SC1CI1 SLP041

CYYG;2012-02-13 17:00;CYYG 131700Z 25016G21KT 15SM FEW040 FEW060 BKN300 M14/M18 A2964 RMK SC1SC1CI1 SLP041

CYYG;2012-02-13 18:00;CYYG 131800Z 27017G26KT 15SM DRSN SCT038 BKN300 M12/M16 A2962 RMK SC3CI1 SLP035

CYYG;2012-02-13 19:00;CYYG 131900Z 27014G28KT 15SM DRSN FEW035 FEW300 M12/M16 A2964 RMK CF1CI1 SLP040

CYYG;2012-02-13 20:00;CYYG 132000Z 27013G24KT 15SM DRSN FEW035 M12/M16 A2966 RMK CF1 SLP048

CYYG;2012-02-13 21:00;CYYG 132100Z 27012G17KT 15SM DRSN FEW035 M12/M17 A2969 RMK CF1 SLP057

CYYG;2012-02-13 22:00;CYYG 132200Z 26012KT 15SM DRSN FEW035 M13/M18 A2973 RMK CF1 SLP071

CYYG;2012-02-13 23:00;CYYG 132300Z 27010KT 15SM FEW035 13/M18 A2974 RMK CF1 SLP075

CYYG;2012-02-14 00:00;CYYG 140000Z 26009KT 15SM FEW035 M13/M22 A2977 RMK CU1 SLP087

CYYG;2012-02-14 01:00;CYYG 140100Z 27006KT 15SM SKC M14/M21 A2980 RMK SLP096

CYYG;2012-02-14 02:00;CYYG 140200Z 26008KT 15SM SKC M14/M20 A2983 RMK SLP105

CYYG;2012-02-14 03:00;CYYG 140300Z 27006KT 15SM SKC M14/M20 A2985 RMK SLP113

CYYG;2012-02-14 04:00;CYYG 140400Z 27006KT 15SM SKC M15/M21 A2987 RMK SLP121

CYYG;2012-02-14 05:00;CYYG 140500Z 27005KT 15SM SKC M16/M22 A2990 RMK SLP128

CYYG;2012-02-14 06:00;CYYG 140600Z 23005KT 15SM SKC M16/M22 A2992 RMK SLP136

CYYG;2012-02-14 07:00;CYYG 140700Z 24005KT 15SM SKC M16/M22 A2994 RMK SLP143

CYYG;2012-02-14 08:00;CYYG 140800Z 25005KT 15SM SKC M17/M22 A2998 RMK SLP155

CYYG;2012-02-14 09:00;CYYG 140900Z 26008KT 15SM SKC M17/M22 A3001 RMK SLP168

CYYG;2012-02-14 10:00;CYYG 141000Z 25008KT 15SM SKC M17/M22 A3004 RMK SLP178

CYYG;2012-02-14 11:00;CYYG 141100Z 25006KT 15SM FEW020 FEW250 M17/M22 A3008 RMK CU1CI1 SLP190

CYYG;2012-02-14 12:00;CYYG 141200Z 24006KT 15SM FEW250 M17/M23 A3011 RMK CI1 SLP199

CYYG;2012-02-14 13:00;CYYG 141300Z 26007KT 15SM FEW250 M16/M21 A3014 RMK CI1 SLP209

CYYG;2012-02-14 14:00;CYYG 141400Z 23008KT 15SM FEW250 M14/M20 A3017 RMK CI1 SLP220

CYYG;2012-02-14 15:00;CYYG 141500Z 25007KT 15SM BKN250 M13/M19 A3019 RMK CI2 SLP226

CYYG;2012-02-14 16:00;CYYG 141600Z 21008KT 15SM BKN250 M12/M19 A3020 RMK CI2 SLP230

CYYG;2012-02-14 17:00;CYYG 141700Z 22007KT 15SM BKN250 M11/M17 A3020 RMK CI2 SLP230

CYYG;2012-02-14 18:00;CYYG 141800Z 21007KT 15SM BKN250 M10/M17 A3020 RMK CI2 SLP229

CYYG;2012-02-14 19:00;CYYG 141900Z 19008KT 15SM SCT045 BKN250 M10/M16 A3020 RMK SC4CI2 SLP229

CYYG;2012-02-14 20:00;CYYG 142000Z 16006KT 15SM FEW045 BKN250 M09/M16 A3020 RMK SC1CI1 SLP230

CYYG;2012-02-14 21:00;CYYG 142100Z 16006KT 15SM FEW045 BKN250 M09/M16 A3020 RMK SC1CI1 SLP230

CYYG;2012-02-14 22:00;CYYG 142200Z 14005KT 15SM FEW058 BKN250 M09/M16 A3020 RMK SC2CI1 SLP231

CYYG;2012-02-14 23:00;CYYG 142300Z 13004KT 15SM BKN058 BKN250 M09/M15 A3020 RMK SC5CI1 SLP231

CYYG;2012-02-15 00:00;CYYG 150000Z 13007KT 15SM -SHSN FEW030 OVC052 M07/M11 A3020 RMK SC2SC6 SLP232

CYYG;2012-02-15 00:48;CYYG 150048Z 14005KT 15SM FEW030 OVC058 M06/ RMK SC2SC6

CYYG;2012-02-15 01:00;CYYG 150100Z 15006KT 15SM BKN049 OVC057 M05/M09 A3020 RMK SC6SC2 SLP231

CYYG;2012-02-15 02:00;CYYG 150200Z 16013G18KT 15SM SCT040 OVC053 M04/M07 A3020 RMK SC3SC5 SLP230

CYYG;2012-02-15 03:00;CYYG 150300Z 17011G16KT 15SM FEW042 SCT053 OVC070 M03/M07 A3020 RMK SC2SC2AC5 SLP229

CYYG;2012-02-15 04:00;CYYG 150400Z 17006KT 15SM SCT038 BKN060 OVC070 M03/M07 A3020 RMK SC3SC2AC2 SLP229

CYYG;2012-02-15 05:00;CYYG 150500Z 16007KT 15SM BKN046 OVC064 M02/M04 A3020 RMK SC6SC2 SLP230

CYYG;2012-02-15 06:00;CYYG 150600Z 17004KT 15SM FEW018 FEW025 OVC070 M02/M04 A3020 RMK SC2SC1AC6 SLP229

CYYG;2012-02-15 07:00;CYYG 150700Z 16003KT 15SM OVC057 M02/M04 A3020 RMK SC8 SLP228

CYYG;2012-02-15 08:00;CYYG 150800Z 18003KT 15SM FEW048 BKN057 BKN068 M03/M05 A3020 RMK SC2SC3AC2 SLP231

CYYG;2012-02-15 09:00;CYYG 150900Z 23003KT 15SM FEW036 BKN045 BKN064 BKN120 M02/M03 A3022 RMK SC1SC4SC1AC1 SLP237

CYYG;2012-02-15 10:00;CYYG 151000Z 17003KT 15SM FEW036 FEW045 SCT120 BKN140 M02/M03 A3023 RMK SC1SC1AC2AC3 SLP238

CYYG;2012-02-15 11:00;CYYG 151100Z 18003KT 15SM MIFG BKN120 BKN250 M02/M03 A3023 RMK AC6CI2 SLP240

CYYG;2012-02-15 12:00;CYYG 151200Z 00000KT 15SM MIFG FEW080 BKN120 BKN250 M03/M04 A3025 RMK AC2AC3CI2 SLP246

CYYG;2012-02-15 13:00;CYYG 151300Z 14004KT 10SM BCFG FEW080 BKN120 BKN250 M02/M03 A3025 RMK AC2AC4CI2 SLP248

CYYG;2012-02-15 14:00;CYYG 151400Z 13002KT 15SM FEW050 SCT120 BKN250 01/M00 A3025 RMK SC1AC3CI2 SLP246

CYYG;2012-02-15 15:00;CYYG 151500Z 16003KT 15SM FEW025 SCT120 BKN250 01/M00 A3024 RMK SC1AC3CI2 SLP243

CYYG;2012-02-15 16:00;CYYG 151600Z 00000KT 15SM FEW025 FEW120 BKN250 04/02 A3023 RMK SC1AC2CI2 SLP239

CYYG;2012-02-15 17:00;CYYG 151700Z 00000KT 15SM FEW025 FEW120 BKN250 05/01 A3020 RMK CF1AC1CI1 SLP231

CYYG;2012-02-15 18:00;CYYG 151800Z 04002KT 15SM FEW025 FEW120 BKN250 05/01 A3020 RMK CF1AC1CI1 SLP227

CYYG;2012-02-15 19:00;CYYG 151900Z 00000KT 15SM FEW025 FEW120 BKN250 07/01 A3020 RMK CF1AC1CI1 SLP227

CYYG;2012-02-15 20:00;CYYG 152000Z 18002KT 15SM FEW025 FEW120 BKN250 06/00 A3020 RMK CF1AC1CI1 SLP228

CYYG;2012-02-15 21:00;CYYG 152100Z 08002KT 15SM FEW120 BKN250 03/M01 A3020 RMK AC1CI1 SLP229

CYYG;2012-02-15 22:00;CYYG 152200Z 07004KT 15SM FEW120 SCT250 01/M02 A3021 RMK AC1CI1 SLP231

CYYG;2012-02-15 23:00;CYYG 152300Z 09002KT 15SM SCT200 M01/M02 A3022 RMK CI2 SLP235

CYYG;2012-02-16 00:00;CYYG 160000Z 35003KT 15SM SCT220 M03/M04 A3022 RMK CI2 SLP235

CYYG;2012-02-16 01:00;CYYG 160100Z 36002KT 15SM MIFG FEW220 M04/M05 A3021 RMK CI1 SLP233

CYYG;2012-02-16 01:41;CYYG 160141Z 35003KT 3/4SM R03/3500FT/N BR SKC M04/ RMK FG2

CYYG;2012-02-16 02:00;CYYG 160200Z 36003KT 5SM BR SKC M04/M05 A3021 RMK SLP233

CYYG;2012-02-16 03:00;CYYG 160300Z 00000KT 2SM BR BKN050 M04/M05 A3021 RMK SC6 SLP232

CYYG;2012-02-16 04:00;CYYG 160400Z 35003KT 15SM FEW006 OVC047 M04/M05 A3020 RMK SF2SC6 SLP230

CYYG;2012-02-16 05:00;CYYG 160500Z 33004KT 2SM BR OVC048 M04/M05 A3020 RMK SC8 SLP231

CYYG;2012-02-16 05:32;CYYG 160532Z 34005KT 1/2SM R03/3500V5000FT/D FZFG OVC046 M03/ RMK FG6SC2 FROIN

CYYG;2012-02-16 06:00;CYYG 160600Z 35005KT 3/4SM R03/5000FT/N BR VV002 M03/M03 A3021 RMK FG8 FROIN SLP232

CYYG;2012-02-16 07:00;CYYG 160700Z 35002KT 5SM BR BKN008 OVC048 M03/M04 A3021 RMK SF6SC2 SLP233

CYYG;2012-02-16 08:00;CYYG 160800Z 34004KT 5SM BR BKN002 OVC047 M02/M02 A3021 RMK SF5SC3 FROIN SLP233

CYYG;2012-02-16 09:00;CYYG 160900Z CCA 35003KT 2SM BR OVC002 M02/M02 A3021 RMK ST8 RIME ON INDICATOR SLP234

CYYG;2012-02-16 10:00;CYYG 161000Z 36009KT 2SM BR OVC002 M03/M03 A3022 RMK ST8 RIME ON INDICATOR SLP236

CYYG;2012-02-16 10:44;CYYG 161044Z 36007KT 3/4SM R03/5500FT/D BR OVC002 M03/ RMK FG6ST2 RIME ON INDICATOR

CYYG;2012-02-16 11:00;CYYG 161100Z 36007KT 3/4SM R03/4000V6000FT/D BR VV002 M03/M03 A3023 RMK FG8 RIME ON INDICATOR SLP238

CYYG;2012-02-16 11:25;CYYG 161125Z 36006KT 3/8SM R03/2200FT/N FZFG VV002 M03/ RMK FG8 RIME ON INDICATOR

CYYG;2012-02-16 11:50;CYYG 161150Z 36005KT 1/4SM R03/1200V2000FT/D FZFG VV002 M03/ RMK FG8 RIME ON INDICATOR

CYYG;2012-02-16 12:00;CYYG 161200Z 36005KT 1/4SM R03/1200FT/N FZFG VV002 M02/M02 A3024 RMK FG8 SLP243

CYYG;2012-02-16 13:00;CYYG 161300Z 36005KT 1/4SM R03/2000FT/N FZFG VV002 M02/M02 A3024 RMK FG8 SLP243

CYYG;2012-02-16 13:17;CYYG 161317Z 02004KT 3/8SM R03/2800FT/N FZFG VV002 M02/ RMK FG8 RIME ON INDICATOR

CYYG;2012-02-16 13:29;CYYG 161329Z 02004KT 1/2SM R03/2400V4000FT/U FZFG VV002 M02/ RMK FG8 RIME ON INDICTOR

CYYG;2012-02-16 13:51;CYYG 161351Z 02004KT 3/4SM R03/P6000FT/U BR OVC002 M01/ RMK FG4ST4 RIME ON INDICATOR

CYYG;2012-02-16 14:00;CYYG 161400Z 01004KT 2SM BR OVC002 M01/M02 A3024 RMK FG3ST5 RIME ON INDICATOR SLP243

CYYG;2012-02-16 14:15;CYYG 161415Z 04006KT 3SM BR OVC003 M01/ RMK ST8 RIME ON INDICATOR

CYYG;2012-02-16 15:00;CYYG 161500Z 03008KT 3SM BR OVC002 M02/M02 A3023 RMK ST8 SLP241

CYYG;2012-02-16 15:11;CYYG 161511Z 04007KT 3/4SM R03/P6000FT/N BR OVC002 M02/ RMK FG4ST4

CYYG;2012-02-16 15:19;CYYG 161519Z 03010KT 1/2SM R03/P6000FT/N FZFG OVC001 M02/ RMK FG6ST2

CYYG;2012-02-16 15:26;CYYG 161526Z 02009KT 3/4SM R03/P6000FT/D BR OVC001 M03/ RMK FG6ST2

CYYG;2012-02-16 15:35;CYYG 161535Z 03007KT 1SM R03/P6000FT/N BR OVC002 M03/ RMK FG3ST5

CYYG;2012-02-16 15:50;CYYG 161550Z 03009KT 1/2SM R03/4000VP6000FT/D FZFG OVC002 M03/ RMK FG6ST2

CYYG;2012-02-16 16:00;CYYG 161600Z 02006KT 1/2SM R03/2800V5500FT/D FZFG OVC002 M03/M03 A3023 RMK FG6SF2 SLP241

CYYG;2012-02-16 16:27;CYYG 161627Z 36006KT 1SM R03/4500VP6000FT/U BR OVC002 M03/ RMK FG4SF4

CYYG;2012-02-16 16:48;CYYG 161648Z 36005KT 2 1/2SM R03/4500VP6000FT/U BR OVC003 M03/ RMK FG3SF5

CYYG;2012-02-16 17:00;CYYG 161700Z 36006KT 4SM BR OVC003 M03/M04 A3022 RMK ST8 SLP236

CYYG;2012-02-16 18:00;CYYG 161800Z 03005KT 6SM -SG BR BKN003 M03/M04 A3021 RMK ST7 SLP233

CYYG;2012-02-16 18:21;CYYG 161821Z 01004KT 8SM -SG BKN005 M03/ RMK SF7

CYYG;2012-02-16 18:40;CYYG 161840Z 36004KT 8SM VCSH BKN006 M03/ RMK SF7

CYYG;2012-02-16 19:00;CYYG 161900Z 01004KT 10SM BKN007 BKN060 M03/M03 A3020 RMK SF5SC2 SLP228

CYYG;2012-02-16 20:00;CYYG 162000Z 01006KT 10SM BKN005 M03/M04 A3019 RMK SF7 SLP226

CYYG;2012-02-16 21:00;CYYG 162100Z 02007KT 10SM OVC004 M04/M05 A3017 RMK ST8 VIS LWR NW-NE SLP219

CYYG;2012-02-16 22:00;CYYG 162200Z 04008KT 10SM OVC004 M04/M05 A3017 RMK ST8 VIS LWR NW-NE SLP219

CYYG;2012-02-16 23:00;CYYG 162300Z 36007KT 10SM OVC003 M04/M05 A3017 RMK ST8 SLP219

CYYG;2012-02-17 00:00;CYYG 170000Z 02003KT 10SM OVC004 M04/M05 A3015 RMK ST8 SLP212

CYYG;2012-02-17 00:17;CYYG 170017Z 36007KT 6SM -SG OVC002 M04/ RMK SF8

CYYG;2012-02-17 01:00;CYYG 170100Z 35005KT 6SM -SG OVC003 M04/M05 A3015 RMK SF8 SLP213

CYYG;2012-02-17 02:00;CYYG 170200Z 33006KT 6SM -SG OVC003 M04/M05 A3014 RMK SF8 SLP210

CYYG;2012-02-17 03:00;CYYG 170300Z 36006KT 8SM -SG OVC005 M04/M04 A3013 RMK SF8 SLP206

CYYG;2012-02-17 04:00;CYYG 170400Z 35005KT 10SM -SG OVC008 M04/M05 A3013 RMK SF8 SLP205

CYYG;2012-02-17 05:00;CYYG 170500Z 33005KT 12SM -SG OVC008 M04/M05 A3011 RMK SF8 SLP198

CYYG;2012-02-17 06:00;CYYG 170600Z 34005KT 10SM -SG OVC009 M04/M05 A3009 RMK SF8 SLP194

CYYG;2012-02-17 07:00;CYYG 170700Z 01006KT 12SM -SG OVC009 M04/M05 A3007 RMK SF8 SLP187

CYYG;2012-02-17 08:00;CYYG 170800Z 02007KT 12SM -SG OVC010 M04/M06 A3006 RMK SF8 SLP181

CYYG;2012-02-17 09:00;CYYG 170900Z 36003KT 12SM -SG OVC009 M04/M05 A3006 RMK SF8 SLP182

CYYG;2012-02-17 10:00;CYYG 171000Z 35004KT 12SM -SG OVC010 M04/M05 A3006 RMK SF8 SLP184

CYYG;2012-02-17 11:00;CYYG 171100Z 33003KT 12SM -SG OVC010 M04/M05 A3007 RMK SF8 SLP186

CYYG;2012-02-17 12:00;CYYG 171200Z 36003KT 15SM -SG SCT006 OVC013 M04/M06 A3006 RMK SF3SC5 SLP184

CYYG;2012-02-17 12:21;CYYG 171221Z 34002KT 15SM VCSH FEW006 BKN013 M04/ RMK SF2SC4

CYYG;2012-02-17 12:32;CYYG 171232Z 31003KT 15SM VCSH BKN005 BKN013 M04/ RMK SF5SC2

CYYG;2012-02-17 13:00;CYYG 171300Z 32003KT 12SM VCSH BKN005 OVC012 M04/M05 A3006 RMK SF5SC3 SLP184

CYYG;2012-02-17 14:00;CYYG 171400Z 00000KT 12SM VCSH BKN007 M04/M04 A3005 RMK SF7 SLP179

CYYG;2012-02-17 15:00;CYYG 171500Z 00000KT 12SM BKN009 M03/M04 A3004 RMK SF7 SLP175

CYYG;2012-02-17 15:34;CYYG 171534Z 00000KT 15SM BKN011 M02/ RMK SC7

CYYG;2012-02-17 16:00;CYYG 171600Z 19002KT 15SM BKN011 M02/M05 A3002 RMK SC7 SLP169

CYYG;2012-02-17 17:00;CYYG 171700Z 13002KT 15SM SCT013 M01/M05 A3000 RMK SC4 SLP161

CYYG;2012-02-17 18:00;CYYG 171800Z 00000KT 15SM FEW015 SCT080 00/M06 A2997 RMK SC2AC2 SLP150

CYYG;2012-02-17 19:00;CYYG 171900Z 11002KT 15SM FEW015 BKN087 M01/M06 A2995 RMK SC2AC5 SLP144

CYYG;2012-02-17 20:00;CYYG 172000Z 17003KT 15SM FEW015 SCT085 BKN120 M01/M06 A2993 RMK SC1AC2AC2 VIRGA SLP137

CYYG;2012-02-17 21:00;CYYG 172100Z 15003KT 15SM FEW015 SCT085 BKN095 M02/M05 A2992 RMK SC1AC2AC2 SLP133

CYYG;2012-02-17 21:52;CYYG 172152Z 17004KT 10SM -SHSN FEW015 BKN070 M03/ RMK SC2AC6

CYYG;2012-02-17 22:00;CYYG 172200Z 16004KT 6SM -SHSN FEW015 OVC070 M03/M05 A2990 RMK SC2AC6 SLP129

CYYG;2012-02-17 22:46;CYYG 172246Z 14004KT 6SM -SHSN BKN026 BKN035 OVC065 M03/ RMK SC5SC2SC1 VIS LWR SW

CYYG;2012-02-17 23:00;CYYG 172300Z 14005KT 6SM -SHSN SCT026 BKN035 OVC060 M03/M05 A2988 RMK SC3SC2SC2 VIS LWR SW SLP122

CYYG;2012-02-18 00:00;CYYG 180000Z 14006KT 6SM -SHSN OVC019 M03/M06 A2987 RMK SC8 SLP117

CYYG;2012-02-18 00:32;CYYG 180032Z 14006KT 3SM -SHSN OVC017 M03/ RMK SC8

CYYG;2012-02-18 01:00;CYYG 180100Z 14006KT 6SM -SHSN OVC018 M03/M05 A2985 RMK SC8 SLP109

CYYG;2012-02-18 02:00;CYYG 180200Z 14007KT 4SM -SHSN SCT004 OVC015 M02/M04 A2983 RMK SF3SC5 SLP103

CYYG;2012-02-18 02:02;CYYG 180202Z 14007KT 1SM R03/P6000FT/D -SHSN SCT004 OVC015 M02/ RMK SF3SC5

CYYG;2012-02-18 03:00;CYYG 180300Z 14006KT 4SM -SHSN SCT004 OVC010 M02/M03 A2980 RMK SF3SC5 SLP093

CYYG;2012-02-18 04:00;CYYG 180400Z 14007KT 5SM -SHSN SCT003 OVC007 M01/M02 A2976 RMK SF3SF5 SLP081

CYYG;2012-02-18 04:06;CYYG 180406Z 16006KT 5SM -SHSN OVC003 M01/ RMK SF8

CYYG;2012-02-18 04:34;CYYG 180434Z 15006KT 6SM -SN BKN003 OVC011 M01/ RMK SF6SC2

CYYG;2012-02-18 05:00;CYYG 180500Z 15006KT 8SM -SN BKN004 OVC011 M01/M02 A2974 RMK SF6SC2 SLP074

CYYG;2012-02-18 06:00;CYYG 180600Z 17007KT 4SM -SN OVC003 00/M01 A2972 RMK SF8 /S03/ SLP067

CYYG;2012-02-18 07:00;CYYG 180700Z 17005KT 5SM -SN OVC002 00/M00 A2969 RMK SF8 SLP056

CYYG;2012-02-18 08:00;CYYG 180800Z 18004KT 5SM -SN OVC002 00/M00 A2968 RMK SF8 SLP052

CYYG;2012-02-18 09:00;CYYG 180900Z 18003KT 3SM -SN OVC002 00/M00 A2965 RMK SF8 SLP043

CYYG;2012-02-18 09:13;CYYG 180913Z 18002KT 1 1/2SM -SN BR OVC002 00/ RMK SF8

CYYG;2012-02-18 09:42;CYYG 180942Z 00000KT 3/4SM R03/5000FT/N -SN BR VV002 00/ RMK SN8

CYYG;2012-02-18 10:00;CYYG 181000Z 00000KT 3/4SM R03/5500FT/U -SN BR VV004 00/00 A2963 RMK SN8 SLP037

CYYG;2012-02-18 11:00;CYYG 181100Z 33002KT 3/4SM R03/6000FT/D -SN BR OVC005 M00/M00 A2963 RMK SF8 SLP035

CYYG;2012-02-18 12:00;CYYG 181200Z 34005KT 3/4SM R03/4000V5500FT/U -SN BR VV007 M02/M02 A2962 RMK SN8 /S07/ SLP033

CYYG;2012-02-18 12:30;CYYG 181230Z 33006KT 1/2SM R03/2200V4000FT/D SN FZFG VV004 M02/ RMK SN8

CYYG;2012-02-18 13:00;CYYG 181300Z 33006KT 3/4SM R03/3500FT/N -SN BR VV005 M02/M03 A2962 RESN RMK SN8 /S01/ SLP034

CYYG;2012-02-18 14:00;CYYG 181400Z 32005KT 3/4SM R03/6000FT/U -SN VV006 M02/M03 A2961 RMK SN8 SLP030

CYYG;2012-02-18 15:00;CYYG 181500Z 33006KT 3/4SM R03/P6000FT/U -SN BR VV006 M02/M03 A2959 RMK SN8 /S03/ SLP023

CYYG;2012-02-18 15:15;CYYG 181515Z 32007KT 1 1/4SM -SN BR OVC006 M02/ RMK SN3SF5

CYYG;2012-02-18 16:00;CYYG 181600Z 32007KT 1SM R03/P6000FT/D -SN BR OVC008 M02/M03 A2958 RMK SN3SF5 /S04/ SLP018

CYYG;2012-02-18 17:00;CYYG 181700Z 31012KT 1SM R03/6000FT/U -SN DRSN BR OVC010 M02/M03 A2955 RMK SN2SC6 SLP008

CYYG;2012-02-18 17:32;CYYG 181732Z 31012KT 1 3/4SM -SN DRSN BR FEW006 OVC010 M02/ RMK SF2SC6

CYYG;2012-02-18 18:00;CYYG 181800Z 31012G17KT 1 3/4SM -SN DRSN FEW006 OVC010 M03/M03 A2953 RMK SF2SC6 SLP001

CYYG;2012-02-18 19:00;CYYG 181900Z 32013KT 2 1/2SM -SN DRSN FEW007 OVC010 M03/M04 A2952 RMK SF2SC6 SLP999

CYYG;2012-02-18 19:16;CYYG 181916Z 32011G21KT 3SM -SN DRSN FEW007 OVC010 M03/ RMK SF1SC7 VIS HIER SW-NW

CYYG;2012-02-18 20:00;CYYG 182000Z 32012G19KT 15SM OVC008 M03/M04 A2953 RMK SF8 SLP002

CYYG;2012-02-18 20:26;CYYG 182026Z 31011G16KT 15SM -SHSN OVC008 M03/ RMK SF8 VIS N 6

CYYG;2012-02-18 21:00;CYYG 182100Z 30011KT 15SM OVC008 M03/M04 A2954 RMK SF8 SLP005

CYYG;2012-02-18 21:43;CYYG 182143Z 31012G17KT 10SM -SHSN DRSN OVC009 M03/ RMK SF8

CYYG;2012-02-18 22:00;CYYG 182200Z 31010G16KT 7SM -SHSN DRSN OVC010 M03/M04 A2955 RMK SC8 SLP008

CYYG;2012-02-18 23:00;CYYG 182300Z 31013KT 4SM -SHSN DRSN BKN010 OVC035 M03/M04 A2956 RMK SC7SC1 SLP011

CYYG;2012-02-19 00:00;CYYG 190000Z 31011KT 8SM -SHSN DRSN BKN011 OVC035 M03/M04 A2956 RMK SC7SC1 SLP014

CYYG;2012-02-19 01:00;CYYG 190100Z 31010KT 12SM -SHSN SCT011 OVC034 M03/M04 A2957 RMK SC3SC5 SLP017

CYYG;2012-02-19 02:00;CYYG 190200Z 31009KT 15SM -SHSN SCT009 OVC035 M03/M04 A2959 RMK SC3SC5 SLP023

CYYG;2012-02-19 03:00;CYYG 190300Z 30008KT 15SM -SHSN FEW009 OVC026 M03/M03 A2960 RMK SC2SC6 PCPN VRY LGT SLP025

CYYG;2012-02-19 03:45;CYYG 190345Z 29006KT 15SM -SHSN BKN010 OVC026 M03/ RMK SC5SC3

CYYG;2012-02-19 04:00;CYYG 190400Z 30007KT 15SM -SHSN SCT010 OVC030 M03/M04 A2961 RMK SC3SC5 OBS TAKEN +11 SLP029

CYYG;2012-02-19 05:00;CYYG 190500Z 29008KT 15SM -SHSN SCT010 OVC030 M03/M04 A2961 RMK SC3SC5 SLP031

CYYG;2012-02-19 06:00;CYYG 190600Z 29009KT 12SM -SHSN BKN014 OVC030 M02/M03 A2962 RMK SC5SC3 SLP033

CYYG;2012-02-19 07:00;CYYG 190700Z 29012KT 15SM -SHSN OVC018 M03/M04 A2962 RMK SC8 SLP033

CYYG;2012-02-19 08:00;CYYG 190800Z 29012G17KT 15SM -SHSN OVC018 M03/M05 A2962 RMK SC8 SLP034

CYYG;2012-02-19 09:00;CYYG 190900Z 29012G18KT 15SM BKN018 OVC044 M04/M06 A2964 RMK SC6SC2 SLP040

CYYG;2012-02-19 10:00;CYYG 191000Z 29011KT 15SM FEW018 OVC039 M04/M06 A2965 RMK SC2SC6 SLP044

CYYG;2012-02-19 11:00;CYYG 191100Z 28012G17KT 15SM FEW018 OVC032 M05/M07 A2967 RMK SC2SC6 SLP049

CYYG;2012-02-19 12:00;CYYG 191200Z 29011G19KT 15SM DRSN FEW015 SCT035 M05/M08 A2969 RMK SC1SC3 SLP056

CYYG;2012-02-19 13:00;CYYG 191300Z 29011G20KT 15SM DRSN FEW015 FEW035 FEW250 M06/M08 A2970 RMK SC1SC1CI1 SLP060

CYYG;2012-02-19 14:00;CYYG 191400Z 29015KT 15SM DRSN FEW020 FEW035 FEW250 M06/M09 A2970 RMK SC1SC1CI1 SLP060

CYYG;2012-02-19 15:00;CYYG 191500Z 28013G18KT 15SM DRSN FEW020 FEW035 FEW250 M05/M09 A2971 RMK SC1SC1CI1 SLP062

CYYG;2012-02-19 16:00;CYYG 191600Z 30013G18KT 15SM DRSN FEW020 FEW250 M05/M09 A2971 RMK SC1CI1 SLP064

CYYG;2012-02-19 17:00;CYYG 191700Z 29011KT 15SM DRSN FEW020 FEW250 M04/M09 A2970 RMK SC1CI0 SLP059

CYYG;2012-02-19 18:00;CYYG 191800Z 28009G17KT 15SM FEW020 FEW250 M04/M08 A2970 RMK SC1CI1 SLP059

CYYG;2012-02-19 19:00;CYYG 191900Z 30011G16KT 15SM FEW025 FEW250 M03/M08 A2971 RMK SC1CI1 SLP062

CYYG;2012-02-19 20:00;CYYG 192000Z 29010G16KT 15SM FEW025 FEW250 M02/M08 A2972 RMK SC1CI1 SLP067

CYYG;2012-02-19 21:00;CYYG 192100Z 29008KT 15SM FEW040 FEW250 M02/M08 A2973 RMK SC1CI1 SLP071

CYYG;2012-02-19 22:00;CYYG 192200Z 28007KT 15SM FEW060 FEW250 M03/M09 A2975 RMK SC1CI1 SLP077

CYYG;2012-02-19 23:00;CYYG 192300Z 28009KT 15SM FEW060 M03/M09 A2977 RMK SC1 SLP083

CYYG;2012-02-20 00:00;CYYG 200000Z 28006KT 15SM FEW060 M04/M09 A2977 RMK SC1 SLP085

CYYG;2012-02-20 01:00;CYYG 200100Z 29006KT 15SM FEW060 M05/M10 A2978 RMK SC1 SLP088

CYYG;2012-02-20 02:00;CYYG 200200Z 30010KT 15SM FEW060 M06/M10 A2979 RMK SC1 SLP090

CYYG;2012-02-20 03:00;CYYG 200300Z 31012G17KT 15SM SKC M06/M11 A2979 RMK SLP090

CYYG;2012-02-20 04:00;CYYG 200400Z 30009KT 15SM SKC M07/M11 A2979 RMK SLP092

CYYG;2012-02-20 05:00;CYYG 200500Z 29007KT 15SM SKC M08/M12 A2982 RMK SLP099

CYYG;2012-02-20 06:00;CYYG 200600Z 28008KT 15SM SKC M09/M13 A2982 RMK SLP100

CYYG;2012-02-20 07:00;CYYG 200700Z 29007KT 15SM SKC M09/M13 A2981 RMK SLP098

CYYG;2012-02-20 08:00;CYYG 200800Z 27008KT 15SM BKN018 M09/M12 A2982 RMK SC6 SLP103

CYYG;2012-02-20 09:00;CYYG 200900Z 29007KT 15SM BKN019 M09/M12 A2983 RMK SC6 SLP103

CYYG;2012-02-20 10:00;CYYG 201000Z 30008KT 15SM BKN016 M09/M12 A2983 RMK SC6 SLP105

CYYG;2012-02-20 10:43;CYYG 201043Z 28008KT 15SM BKN014 M09/ RMK SC7

CYYG;2012-02-20 11:00;CYYG 201100Z 28007KT 15SM BKN014 M09/M12 A2985 RMK SC7 SLP109

CYYG;2012-02-20 12:00;CYYG 201200Z 29009KT 15SM BKN015 M09/M12 A2986 RMK SC7 SLP114

CYYG;2012-02-20 13:00;CYYG 201300Z 31010G17KT 15SM DRSN BKN014 M09/M12 A2985 RMK SC3 SLP112

CYYG;2012-02-20 13:05;CYYG 201305Z 31009G16KT 15SM -SN DRSN BKN014 M09/ RMK SC3

CYYG;2012-02-20 14:00;CYYG 201400Z 30007KT 10SM -SN OVC015 M08/M12 A2987 RMK SC8 SLP119

CYYG;2012-02-20 15:00;CYYG 201500Z 30011KT 6SM -SN DRSN BKN016 M08/M11 A2987 RMK SC7 SLP120

CYYG;2012-02-20 16:00;CYYG 201600Z 31009KT 10SM -SN BKN018 M07/M11 A2988 RMK SC6 SLP122

CYYG;2012-02-20 17:00;CYYG 201700Z 31008KT 10SM -SN BKN018 M07/M11 A2988 RMK SC7 SLP121

CYYG;2012-02-20 18:00;CYYG 201800Z 29009KT 10SM -SN FEW015 OVC023 M07/M11 A2987 RMK SC2SC6 SLP119

CYYG;2012-02-20 19:00;CYYG 201900Z 31008KT 15SM -SN FEW017 BKN023 M07/M11 A2988 RMK SC2SC6 SLP123

CYYG;2012-02-20 20:00;CYYG 202000Z 31011G16KT 15SM -SN FEW016 BKN024 M07/M11 A2990 RMK SC2SC6 VIS N-SE 5 SLP127

CYYG;2012-02-20 21:00;CYYG 202100Z 32008KT 5SM -SN BKN021 M07/M11 A2991 RMK SC6 VIS SW-NW 15 SLP132

CYYG;2012-02-20 22:00;CYYG 202200Z 32006KT 15SM -SN BKN020 M07/M11 A2993 RMK SC7 VIS NE-E 5 SLP137

CYYG;2012-02-20 22:29;CYYG 202229Z 33005KT 15SM SCT018 M08/ RMK SC3

CYYG;2012-02-20 23:00;CYYG 202300Z 33002KT 15SM FEW018 M09/M13 A2994 RMK SC2 SLP142

CYYG;2012-02-21 00:00;CYYG 210000Z 31004KT 15SM FEW019 M10/M13 A2996 RMK SC2 SLP147

CYYG;2012-02-21 01:00;CYYG 210100Z 30005KT 15SM FEW019 M10/M13 A2998 RMK SC2 SLP154

CYYG;2012-02-21 02:00;CYYG 210200Z 31004KT 15SM SCT019 M10/M12 A2999 RMK SC4 SLP160

CYYG;2012-02-21 03:00;CYYG 210300Z 33007KT 15SM BKN015 M07/M10 A3000 RMK SC6 SLP161

CYYG;2012-02-21 04:00;CYYG 210400Z CCA 33010KT 15SM -SHSN BKN012 BKN027 M07/M10 A3001 RMK SC5SC2 SLP164

CYYG;2012-02-21 05:00;CYYG 210500Z 34007KT 15SM VCSH SCT012 BKN027 M07/M09 A3003 RMK SC4SC3 SLP171

CYYG;2012-02-21 05:45;CYYG 210545Z 34008KT 12SM -SHSN FEW012 OVC024 M07/ RMK SC2SC6

CYYG;2012-02-21 06:00;CYYG 210600Z 33012KT 12SM -SHSN FEW012 OVC024 M07/M09 A3004 RMK SC2SC6 SLP175

CYYG;2012-02-21 07:00;CYYG 210700Z 31010KT 12SM -SHSN FEW012 OVC026 M08/M11 A3005 RMK SC2SC6 SLP180

CYYG;2012-02-21 08:00;CYYG 210800Z 32011KT 15SM -SHSN FEW012 BKN022 M10/M12 A3007 RMK SC2SC3 PCPN VRY LGT SLP185

CYYG;2012-02-21 08:39;CYYG 210839Z 31009KT 15SM FEW012 SCT020 M11/ RMK SC2SC2

CYYG;2012-02-21 09:00;CYYG 210900Z 31009KT 15SM FEW012 SCT020 M11/M13 A3009 RMK SC2SC2 SLP194

CYYG;2012-02-21 10:00;CYYG 211000Z 31008KT 15SM FEW012 SCT020 M11/M13 A3012 RMK SC2SC2 SLP202

CYYG;2012-02-21 11:00;CYYG 211100Z 31007KT 15SM FEW012 FEW020 M12/M13 A3012 RMK SC1SC1 SLP204

CYYG;2012-02-21 12:00;CYYG 211200Z 31009KT 15SM FEW020 M12/M14 A3015 RMK SC1 SLP215

CYYG;2012-02-21 13:00;CYYG 211300Z 31010KT 15SM FEW020 M10/M13 A3016 RMK SC1 SLP218

CYYG;2012-02-21 14:00;CYYG 211400Z 31010KT 15SM FEW020 M09/M13 A3017 RMK SC1 SLP221

CYYG;2012-02-21 15:00;CYYG 211500Z 31010KT 15SM FEW020 M08/M12 A3017 RMK SC1 SLP220

CYYG;2012-02-21 16:00;CYYG 211600Z 32008KT 15SM FEW020 M07/M12 A3016 RMK SC1 SLP216

CYYG;2012-02-21 17:00;CYYG 211700Z 33006KT 15SM FEW020 M07/M12 A3013 RMK SC1 SLP208

CYYG;2012-02-21 18:00;CYYG 211800Z 28007KT 15SM FEW020 M06/M12 A3012 RMK SC1 SLP204

CYYG;2012-02-21 19:00;CYYG 211900Z 30005KT 15SM FEW020 FEW200 M06/M12 A3011 RMK SC1CI0 SLP200

CYYG;2012-02-21 20:00;CYYG 212000Z 27008KT 15SM FEW020 FEW200 M06/M12 A3011 RMK SC1CI0 SLP198

CYYG;2012-02-21 21:00;CYYG 212100Z 28005KT 15SM FEW020 FEW200 M06/M12 A3009 RMK SC1CI1 SLP193

CYYG;2012-02-21 22:00;CYYG 212200Z 33002KT 15SM FEW200 M07/M13 A3009 RMK CI1 SLP191

CYYG;2012-02-21 23:00;CYYG 212300Z 00000KT 15SM FEW200 M10/M16 A3009 RMK CI1 SLP193

CYYG;2012-02-22 00:00;CYYG 220000Z 21006KT 15SM FEW200 M09/M14 A3009 RMK CI1 SLP193

CYYG;2012-02-22 01:00;CYYG 220100Z 22005KT 15SM FEW200 M08/M13 A3007 RMK CI1 SLP188

CYYG;2012-02-22 02:00;CYYG 220200Z 18005KT 15SM SCT200 M09/M12 A3004 RMK CI0 SLP176

CYYG;2012-02-22 03:00;CYYG 220300Z 18005KT 15SM BKN170 M09/M12 A3002 RMK AS2 SLP170

CYYG;2012-02-22 04:00;CYYG 220400Z 18005KT 15SM BKN180 M10/M12 A3001 RMK AS3 SLP165

CYYG;2012-02-22 05:00;CYYG 220500Z 17005KT 15SM BKN180 M10/M11 A2999 RMK AS3 SLP158

CYYG;2012-02-22 06:00;CYYG 220600Z 16005KT 15SM BKN160 M09/M11 A2997 RMK AS4 SLP151

CYYG;2012-02-22 07:00;CYYG 220700Z 18008KT 15SM BKN180 M09/M11 A2995 RMK AS4 SLP144

CYYG;2012-02-22 08:00;CYYG 220800Z 16005KT 15SM SCT024 BKN200 M06/M08 A2993 RMK SC3CS1 SLP138

CYYG;2012-02-22 09:00;CYYG 220900Z 17003KT 15SM OVC029 M06/M08 A2990 RMK SC8 SLP128

CYYG;2012-02-22 10:00;CYYG 221000Z 18009KT 15SM SCT029 OVC100 M05/M07 A2987 RMK SC3AS5 SLP117

CYYG;2012-02-22 11:00;CYYG 221100Z 17010KT 15SM BKN023 BKN080 M03/M06 A2985 RMK SC5AC2 OBS TAKEN +07 SLP110

CYYG;2012-02-22 12:00;CYYG 221200Z 18011KT 15SM OVC023 M03/M05 A2983 RMK SC8 SLP106

CYYG;2012-02-22 13:00;CYYG 221300Z 17012KT 15SM VCSH OVC024 M02/M04 A2980 RMK SC8 SLP095

CYYG;2012-02-22 13:32;CYYG 221332Z 16011KT 12SM -SHSN OVC018 M02/ RMK SC8

CYYG;2012-02-22 14:00;CYYG 221400Z 16012KT 10SM -SHSN SCT012 OVC019 M01/M02 A2977 RMK SC3SC5 SLP086

CYYG;2012-02-22 15:00;CYYG 221500Z 16009KT 3SM -SHSN FEW003 OVC015 M01/M02 A2974 RMK SF2SC6 SLP073

CYYG;2012-02-22 15:36;CYYG 221536Z 15008KT 6SM -SHSN BKN004 OVC021 00/ RMK SF5SC3

CYYG;2012-02-22 16:00;CYYG 221600Z 15011KT 6SM -SHSN BKN006 OVC022 00/M01 A2967 RMK SF5SC3 PRESFR SLP051

CYYG;2012-02-22 16:15;CYYG 221615Z 16008KT 1 1/2SM -SHSN OVC004 00/ RMK SF8

CYYG;2012-02-22 16:35;CYYG 221635Z 16008KT 3/4SM R03/3000V5000FT/U -SHSN OVC002 00/ RMK SF8

CYYG;2012-02-22 17:00;CYYG 221700Z 16008KT 3/4SM R03/5500FT/U -SHSN OVC002 01/M00 A2963 RMK SF8 SLP036

CYYG;2012-02-22 17:26;CYYG 221726Z 15009KT 6SM -RASN BKN005 OVC018 01/ RMK SF7SC1

CYYG;2012-02-22 17:41;CYYG 221741Z 15006KT 10SM -RA SCT005 OVC021 01/ RMK SF4SC4

CYYG;2012-02-22 18:00;CYYG 221800Z 15009KT 10SM -RA SCT005 OVC019 01/01 A2959 RMK SF3SC5 SLP023

CYYG;2012-02-22 18:51;CYYG 221851Z 00000KT 4SM -RA BR OVC004 02/ RMK SF8

CYYG;2012-02-22 19:00;CYYG 221900Z 00000KT 5SM -RA BR OVC003 02/02 A2958 RMK SF8 SLP019

CYYG;2012-02-22 20:00;CYYG 222000Z 20003KT 4SM -DZ BR OVC002 02/02 A2956 RMK SF8 SLP012

CYYG;2012-02-22 20:42;CYYG 222042Z 21004KT 1 1/2SM -DZ BR OVC002 02/ RMK SF8

CYYG;2012-02-22 21:00;CYYG 222100Z 20004KT 1 1/2SM -DZ BR OVC002 02/01 A2955 RMK SF8 SLP009

CYYG;2012-02-22 21:19;CYYG 222119Z 18007KT 3SM BR OVC002 01/ RMK SF8

CYYG;2012-02-22 22:00;CYYG 222200Z 18005KT 5SM BR BKN002 OVC013 01/01 A2956 RMK SF7SC1 SLP011

CYYG;2012-02-22 22:41;CYYG 222241Z 18005KT 1SM R03/P6000FT/D BR OVC002 01/ RMK SF8

CYYG;2012-02-22 22:50;CYYG 222250Z 17006KT 3/4SM R03/6000FT/N BR VV001 01/ RMK FG8

CYYG;2012-02-22 23:00;CYYG 222300Z 16004KT 3/4SM R03/4000VP6000FT/D BR VV001 01/00 A2955 RMK FG8 SLP010

CYYG;2012-02-22 23:12;CYYG 222312Z 18005KT 3SM BR BKN003 OVC031 01/ RMK SF7SC1

CYYG;2012-02-23 00:00;CYYG 230000Z 18004KT 3SM BR BKN002 OVC030 01/00 A2955 RMK SF7SC1 SLP010

CYYG;2012-02-23 00:35;CYYG 230035Z 19004KT 3SM BR SCT002 OVC045 01/ RMK SF3SC5

CYYG;2012-02-23 00:46;CYYG 230046Z 18004KT 3SM -SHRA BR BKN002 OVC027 01/ RMK SF6SC2

CYYG;2012-02-23 01:00;CYYG 230100Z 19006KT 3SM -SHRA BR BKN001 OVC027 01/01 A2955 RMK SF6SC2 SLP009

CYYG;2012-02-23 02:00;CYYG 230200Z 20005KT 4SM -SHRA BR SCT001 OVC042 01/01 A2954 RMK SF3SC5 SLP006

CYYG;2012-02-23 03:00;CYYG 230300Z 20005KT 6SM -SHRA BR FEW001 BKN012 OVC020 01/01 A2954 RMK SF1SC5SC3 SLP005

CYYG;2012-02-23 04:00;CYYG 230400Z 23003KT 8SM OVC009 02/01 A2955 RMK ST8 SLP009

CYYG;2012-02-23 05:00;CYYG 230500Z 23006KT 7SM OVC006 02/02 A2956 RMK ST8 SLP012

CYYG;2012-02-23 05:30;CYYG 230530Z 26007KT 5SM BR OVC004 02/ RMK ST8

CYYG;2012-02-23 06:00;CYYG 230600Z 26007KT 5SM BR BKN004 OVC008 02/01 A2958 RMK SF7SF1 SLP019

CYYG;2012-02-23 07:00;CYYG 230700Z 25008KT 5SM BR BKN002 OVC008 01/01 A2960 RMK SF6SC2 SLP026

CYYG;2012-02-23 08:00;CYYG 230800Z 23006KT 1/2SM R03/3000VP6000FT/D FG VV002 01/00 A2962 RMK FG8 SLP031

CYYG;2012-02-23 08:20;CYYG 230820Z 23005KT 1/4SM R03/1600FT/N FG VV001 01/ RMK FG8

CYYG;2012-02-23 09:00;CYYG 230900Z 18005KT 1/4SM R03/1200FT/N FG VV001 00/M00 A2961 RMK FG8 SLP030

CYYG;2012-02-23 09:25;CYYG 230925Z 19006KT 1/8SM R03/1000FT/N FG VV001 00/ RMK FG8

CYYG;2012-02-23 10:00;CYYG 231000Z 18005KT 1/8SM R03/1200FT/N FZFG VV001 M00/M00 A2962 RMK FG8 SLP032

CYYG;2012-02-23 10:29;CYYG 231029Z 18005KT 1/8SM R03/1200FT/N FZFG SKC M00/ RMK FG6

CYYG;2012-02-23 10:42;CYYG 231042Z 17004KT 1/4SM R03/1200V2200FT/U FZFG SCT250 M01/ RMK FG2CI1

CYYG;2012-02-23 10:46;CYYG 231046Z 16004KT 1/2SM R03/1400V2800FT/U FZFG SCT250 M01/ RMK CI2 TWR VIS 15

CYYG;2012-02-23 11:00;CYYG 231100Z 18005KT 15SM R03/2000VP6000FT/U BKN250 M01/M01 A2962 RMK CI2 SLP033

CYYG;2012-02-23 12:00;CYYG 231200Z 16005KT 15SM BKN250 M01/M01 A2962 RMK CI2 SLP033

CYYG;2012-02-23 13:00;CYYG 231300Z 15008KT 15SM BKN250 00/M00 A2961 RMK CI7 SLP029

CYYG;2012-02-23 14:00;CYYG 231400Z 16006KT 15SM BKN180 02/01 A2960 RMK AC6 SLP024

CYYG;2012-02-23 15:00;CYYG 231500Z 18013G19KT 15SM BKN160 02/00 A2959 RMK AC6 SLP023

CYYG;2012-02-23 16:00;CYYG 231600Z 18011KT 15SM BKN150 03/00 A2958 RMK AC6 SLP020

CYYG;2012-02-23 17:00;CYYG 231700Z 18012KT 15SM SCT080 OVC120 03/01 A2955 RMK AC3AC5 SLP007

CYYG;2012-02-23 18:00;CYYG 231800Z 18012KT 15SM SCT070 OVC110 03/01 A2950 RMK AC3AC5 SLP991

CYYG;2012-02-23 19:00;CYYG 231900Z 14010KT 15SM SCT075 OVC090 04/02 A2944 RMK AC3AC5 SLP973

CYYG;2012-02-23 20:00;CYYG 232000Z 14011KT 15SM BKN075 OVC100 04/01 A2941 RMK AC6AC2 SLP960

CYYG;2012-02-23 20:34;CYYG 232034Z 16016G21KT 15SM -SHRA SCT020 OVC060 04/ RMK SC3SC5

CYYG;2012-02-23 21:00;CYYG 232100Z 16013G22KT 12SM -SHRA BKN019 OVC060 03/01 A2939 RMK SC5SC3 SLP953

CYYG;2012-02-23 22:00;CYYG 232200Z 13010KT 12SM -SHRA OVC018 03/01 A2932 RMK SC8 PRESFR SLP932

CYYG;2012-02-23 23:00;CYYG 232300Z 13009KT 10SM SHRA BKN019 OVC034 02/01 A2929 RMK SC7SC1 SLP922

CYYG;2012-02-23 23:30;CYYG 232330Z 10010G16KT 3SM -RASN BR BKN008 OVC022 02/ RERA RMK SF6SC2

CYYG;2012-02-23 23:50;CYYG 232350Z 09011KT 2SM -RASN BR BKN003 OVC008 01/ RERA RMK SF7SF1

CYYG;2012-02-24 00:00;CYYG 240000Z 09011KT 2SM -SN BR OVC003 01/M00 A2924 RMK SF8 SLP903

CYYG;2012-02-24 01:00;CYYG 240100Z 07015G20KT 2 1/2SM -SN BR BKN003 OVC010 01/M00 A2918 RMK SF6SC2 PRESFR SLP883

CYYG;2012-02-24 02:00;CYYG 240200Z 03008KT 1 1/2SM -SN BR BKN003 OVC010 00/M00 A2916 RMK SF7SC1 SLP878

CYYG;2012-02-24 02:34;CYYG 240234Z 03010KT 3SM -SN BR SCT003 OVC008 00/ RMK SF3SF5

CYYG;2012-02-24 02:42;CYYG 240242Z 03008KT 1/2SM R03/3500VP6000FT/D SN VV005 00/ RMK SN8

CYYG;2012-02-24 02:51;CYYG 240251Z 02007KT 3/8SM R03/2800V4500FT/D SN VV004 00/ RMK SN8

CYYG;2012-02-24 03:00;CYYG 240300Z 01006KT 1/4SM R03/2800FT/N +SN VV003 00/00 A2913 RMK SN8 /S02/ SLP866

CYYG;2012-02-24 03:08;CYYG 240308Z 36006KT 3/8SM R03/3500FT/U SN VV004 00/ RESN RMK SN8

CYYG;2012-02-24 03:23;CYYG 240323Z 35006KT 1/2SM R03/1800V3000FT/N SN VV005 00/ RESN RMK SN8

CYYG;2012-02-24 03:28;CYYG 240328Z 36005KT 1SM R03/1800V4000FT/U -SN OVC017 00/ RESN RMK SN3SC5

CYYG;2012-02-24 04:00;CYYG 240400Z 33007KT 3SM -SN BKN005 OVC017 M00/M00 A2914 RMK SF6SC2 /S04/ SLP869

CYYG;2012-02-24 04:20;CYYG 240420Z 31012KT 1SM R03/P6000FT/D -SN OVC006 M00/ RMK SF8

CYYG;2012-02-24 05:00;CYYG 240500Z 31010KT 2SM -SN BKN006 OVC010 M00/M01 A2916 RMK SF6SC2 /S05/ SLP876

CYYG;2012-02-24 06:00;CYYG 240600Z 30014KT 2SM -SN DRSN OVC006 00/M00 A2920 RMK SF8 /S06/ SLP890

CYYG;2012-02-24 07:00;CYYG 240700Z 30015KT 1 1/2SM R03/6000FT/U -SN DRSN BKN004 OVC010 00/M00 A2924 RMK SF6SC2 /S01/ SLP904

CYYG;2012-02-24 08:00;CYYG 240800Z 31013G22KT 2SM -SN DRSN OVC008 00/M00 A2929 RMK SF8 SLP920

CYYG;2012-02-24 09:00;CYYG 240900Z 31019G26KT 1 1/2SM R03/3000VP6000FT/U -SN BLSN OVC008 00/M00 A2935 RMK SF8 PRESRR /S02/ SLP941

CYYG;2012-02-24 09:23;CYYG 240923Z 32016G24KT 3SM R03/4500VP6000FT/D -SN BLSN OVC008 M00/ RMK SF8

CYYG;2012-02-24 09:45;CYYG 240945Z 32017G25KT 1/2SM R03/2200V4500FT/N -SN BLSN OVC008 M00/ RMK SF8 TWR VIS 2

CYYG;2012-02-24 10:00;CYYG 241000Z 32016G25KT 3/4SM R03/2600V6000FT/U -SN BLSN OVC008 M00/M01 A2942 RMK SF8 VIS VRB 1/2-1 TWR VIS 2 PRESRR SLP964

CYYG;2012-02-24 10:42;CYYG 241042Z 30017G25KT 3SM -SN BLSN OVC008 M00/ RMK SF8

CYYG;2012-02-24 11:00;CYYG 241100Z 31017G24KT 3SM -SN BLSN OVC008 M00/M01 A2947 RMK SF8 SLP983

CYYG;2012-02-24 11:21;CYYG 241121Z 31019G25KT 12SM -SN DRSN OVC010 M00/ REBLSN RMK SC8

CYYG;2012-02-24 12:00;CYYG 241200Z 31014G22KT 15SM DRSN OVC011 M00/M01 A2956 RMK SC8 PRESRR SLP013

CYYG;2012-02-24 12:50;CYYG 241250Z 29013KT 12SM -SN OVC011 M00/ RMK SC8

CYYG;2012-02-24 13:00;CYYG 241300Z 30011G18KT 12SM -SN OVC014 M00/M01 A2961 RMK SC8 SLP030

CYYG;2012-02-24 14:00;CYYG 241400Z 31011G18KT 12SM -SN BKN014 BKN035 M00/M00 A2962 RMK SC5SC2 SLP033

CYYG;2012-02-24 15:00;CYYG 241500Z 31014G19KT 15SM -SHSN BKN012 BKN035 00/M00 A2966 RMK SC5SC2 SLP044

CYYG;2012-02-24 15:30;CYYG 241530Z 32013G20KT 15SM FEW012 SCT035 BKN250 00/ RMK SC2SC1CI0

CYYG;2012-02-24 16:00;CYYG 241600Z 32010G18KT 15SM FEW012 FEW035 BKN250 00/M01 A2968 RMK SC1SC1CI1 SLP052

CYYG;2012-02-24 17:00;CYYG 241700Z 31011KT 15SM FEW015 SCT028 BKN040 BKN250 01/M01 A2971 RMK SC1SC3SC2CI2 SLP063

CYYG;2012-02-24 18:00;CYYG 241800Z 32007KT 15SM FEW015 BKN035 01/00 A2973 RMK SC2SC6 SLP070

CYYG;2012-02-24 19:00;CYYG 241900Z 33004KT 15SM BKN019 OVC035 01/00 A2975 RMK SC6SC2 SLP077

CYYG;2012-02-24 20:00;CYYG 242000Z 33004KT 15SM OVC023 01/00 A2977 RMK SC8 SLP081

CYYG;2012-02-24 21:00;CYYG 242100Z 33003KT 15SM OVC025 01/00 A2979 RMK SC8 SLP089

CYYG;2012-02-24 22:00;CYYG 242200Z 01003KT 15SM OVC024 00/M01 A2978 RMK SC8 SLP086

CYYG;2012-02-24 23:00;CYYG 242300Z 05004KT 15SM SCT025 M01/M03 A2977 RMK SC4 SLP084

CYYG;2012-02-25 00:00;CYYG 250000Z 04004KT 15SM FEW025 FEW160 SCT250 M02/M04 A2974 RMK SC1AC2CI0 SLP075

CYYG;2012-02-25 01:00;CYYG 250100Z 12003KT 15SM FEW025 FEW160 SCT250 M02/M04 A2975 RMK SC1AC1CI0 SLP078

CYYG;2012-02-25 02:00;CYYG 250200Z 16005KT 15SM FEW140 BKN250 M03/M04 A2974 RMK AC2CI1 SLP072

CYYG;2012-02-25 03:00;CYYG 250300Z 11004KT 15SM BKN160 OVC240 M03/M04 A2973 RMK AC5CI2 FROIN SLP070

CYYG;2012-02-25 04:00;CYYG 250400Z 11009KT 15SM SCT110 OVC150 M02/M04 A2965 RMK AC4AC4 FROIN PRESFR SLP044

CYYG;2012-02-25 04:14;CYYG 250414Z 14005KT 15SM BKN007 OVC100 M02/ RMK SF6AC2

CYYG;2012-02-25 04:38;CYYG 250438Z 13005KT 15SM FEW007 OVC100 M01/ RMK SF2AC6

CYYG;2012-02-25 05:00;CYYG 250500Z 13006KT 15SM FEW007 FEW014 OVC100 M01/M03 A2964 RMK SF1SC1AC6 SLP040

CYYG;2012-02-25 06:00;CYYG 250600Z 13010KT 15SM FEW014 OVC070 M01/M03 A2958 RMK SC2AC6 PRESFR SLP018

CYYG;2012-02-25 07:00;CYYG 250700Z 11011KT 15SM OVC078 M01/M02 A2949 RMK AC8 PRESFR SLP989

CYYG;2012-02-25 08:00;CYYG 250800Z 13017G22KT 15SM OVC058 M00/M02 A2938 RMK SC8 PRESFR SLP950

CYYG;2012-02-25 08:06;CYYG 250806Z 13018G24KT 15SM -SN OVC055 M00/ RMK SC8

CYYG;2012-02-25 08:16;CYYG 250816Z 12021G27KT 1 1/2SM -SN DRSN VV010 M01/ RMK SN8

CYYG;2012-02-25 08:40;CYYG 250840Z 12016G26KT 3SM -SNPL BLSN OVC009 M01/ RMK SF8

CYYG;2012-02-25 08:46;CYYG 250846Z 11017G24KT 5SM -PL DRSN -FZRA OVC009 M01/ RMK SF8

CYYG;2012-02-25 09:00;CYYG 250900Z CCA 12021G29KT 3SM -SNPL DRSN OVC007 M01/M02 A2923 RMK SF8 REFZRA PRESFR SLP902

CYYG;2012-02-25 09:35;CYYG 250935Z 11022G27KT 8SM -RAPL BKN009 OVC047 00/ RMK SF6SC2

CYYG;2012-02-25 10:00;CYYG 251000Z 11021G32KT 8SM -RAPL OVC010 00/M01 A2911 RMK SF8 /S03/ SLP859

CYYG;2012-02-25 10:11;CYYG 251011Z 11022G32KT 8SM -PL -FZRA OVC009 M00/ RMK SF8

CYYG;2012-02-25 10:49;CYYG 251049Z 13027G33KT 8SM -PL OVC009 00/ REFZRA RMK SF8 PCPN VRY LGT

CYYG;2012-02-25 11:00;CYYG 251100Z 14020G28KT 3SM -RAPL BR OVC009 00/M01 A2897 REFZRA RMK SF8 SLP812

CYYG;2012-02-25 11:28;CYYG 251128Z 14022G30KT 10SM -RA OVC008 00/ RMK SF8 PCPN VRY LGT

CYYG;2012-02-25 12:00;CYYG 251200Z 14023G32KT 10SM OVC008 01/M00 A2879 RMK SF8 SLP751

CYYG;2012-02-25 12:33;CYYG 251233Z 16021G29KT 10SM -PL BKN010 OVC014 02/ RMK SF6SC2 PCPN VRY LGT

CYYG;2012-02-25 12:43;CYYG 251243Z 18021G29KT 8SM -RAPL OVC010 02/ RMK SF8

CYYG;2012-02-25 13:00;CYYG 251300Z 16024G37KT 10SM VCSH SCT010 BKN024 02/01 A2881 RMK SF3SC4 PRESFR SLP759

CYYG;2012-02-25 14:00;CYYG 251400Z 18018G28KT 15SM SCT012 BKN024 03/02 A2877 RMK SF3SC4 SLP744

CYYG;2012-02-25 14:06;CYYG 251406Z 19024G31KT 12SM -SHRA SCT012 BKN027 03/ RMK SF3SC4

CYYG;2012-02-25 14:22;CYYG 251422Z 22027G36KT 15SM VCSH FEW012 BKN028 04/ RMK SF2SC5

CYYG;2012-02-25 15:00;CYYG 251500Z 22026G40KT 15SM BKN028 03/01 A2876 RMK SC5 SLP740

CYYG;2012-02-25 16:00;CYYG 251600Z 22024G39KT 15SM FEW020 BKN032 03/01 A2877 RMK SC2SC5 SLP745

CYYG;2012-02-25 17:00;CYYG 251700Z 22020G32KT 15SM FEW030 BKN040 03/02 A2879 RMK SC2SC4 SLP751

CYYG;2012-02-25 18:00;CYYG 251800Z 23025G33KT 15SM FEW020 BKN038 02/M01 A2880 RMK SC2SC6 SLP755

CYYG;2012-02-25 19:00;CYYG 251900Z 24021G35KT 15SM FEW020 BKN045 02/M03 A2881 RMK SC2SC6 SLP759

CYYG;2012-02-25 20:00;CYYG 252000Z 24020G35KT 15SM FEW028 BKN046 02/M03 A2883 RMK SC2SC6 SLP765

CYYG;2012-02-25 21:00;CYYG 252100Z 25019G31KT 15SM FEW020 BKN046 02/M03 A2884 RMK SC2SC5 SLP769

CYYG;2012-02-25 22:00;CYYG 252200Z 25021G29KT 15SM FEW038 BKN049 BKN250 02/M03 A2886 RMK CU1SC4CI0 SLP776

CYYG;2012-02-25 23:00;CYYG 252300Z 26013G25KT 15SM FEW039 FEW049 SCT250 02/M03 A2889 RMK CU1SC2CI1 SLP784

CYYG;2012-02-26 00:00;CYYG 260000Z 26018G27KT 15SM BKN033 02/M04 A2890 RMK SC6 WS RWY 21 SLP790

CYYG;2012-02-26 00:16;CYYG 260016Z 27014G29KT 15SM -SHSN DRSN BKN032 BKN060 02/ RMK SC6SC2

CYYG;2012-02-26 01:00;CYYG 260100Z 26014G28KT 15SM -SHSN BKN022 BKN095 01/M03 A2894 RMK SC5AC2 SLP801

CYYG;2012-02-26 01:52;CYYG 260152Z 29016G26KT 15SM FEW022 BKN042 M00/ RMK SC2SC4

CYYG;2012-02-26 02:00;CYYG 260200Z 28015G25KT 15SM BKN024 BKN038 M00/M04 A2898 RMK SC5SC2 SLP815

CYYG;2012-02-26 02:54;CYYG 260254Z 28014G26KT 15SM -SHSN DRSN FEW018 OVC023 M01/ RMK SC2SC6

CYYG;2012-02-26 03:00;CYYG 260300Z 28016G22KT 15SM -SHSN DRSN FEW018 OVC023 M01/M05 A2901 RMK SC2SC6 SLP826

CYYG;2012-02-26 04:00;CYYG 260400Z 28013G24KT 15SM -SHSN DRSN BKN023 OVC033 M01/M05 A2905 RMK SC6SC2 SLP838

CYYG;2012-02-26 05:00;CYYG 260500Z 29013G25KT 15SM FEW024 SCT110 M01/M05 A2908 RMK CU2AC2 SLP850

CYYG;2012-02-26 06:00;CYYG 260600Z 28015G22KT 15SM FEW024 SCT110 M01/M06 A2912 RMK CU2AC2 SLP862

CYYG;2012-02-26 07:00;CYYG 260700Z 29014G27KT 15SM FEW025 SCT120 M01/M05 A2915 RMK SC2AC2 SLP873

CYYG;2012-02-26 08:00;CYYG 260800Z 30022G32KT 15SM FEW026 FEW120 M01/M07 A2920 RMK SC1AC2 SLP890

CYYG;2012-02-26 09:00;CYYG 260900Z CCA 30015G21KT 15SM FEW026 SCT100 M02/M07 A2926 RMK SC2AC2 PRESRR SLP912

CYYG;2012-02-26 10:00;CYYG 261000Z 30015G21KT 15SM FEW026 FEW100 M02/M07 A2931 RMK SC1AC1 SLP929

CYYG;2012-02-26 11:00;CYYG 261100Z 30016G22KT 15SM FEW026 BKN069 M02/M08 A2937 RMK SC1AC2 SLP947

CYYG;2012-02-26 12:00;CYYG 261200Z 30016G26KT 15SM FEW025 FEW042 BKN063 M02/M08 A2945 RMK SC1SC2SC3 PRESRR SLP974

CYYG;2012-02-26 13:00;CYYG 261300Z 31016G27KT 15SM FEW030 SCT060 SCT250 M01/M07 A2950 RMK SC1SC2CI1 PRESRR SLP993

CYYG;2012-02-26 14:00;CYYG 261400Z 31017G30KT 15SM FEW030 SCT060 SCT250 M01/M07 A2955 RMK SC2SC2CI1 SLP007

CYYG;2012-02-26 15:00;CYYG 261500Z 31017G30KT 15SM FEW030 SCT060 BKN250 M01/M07 A2959 RMK SC2SC2CI1 SLP022

CYYG;2012-02-26 16:00;CYYG 261600Z 32022G30KT 15SM BKN032 BKN060 M01/M07 A2963 RMK SC5SC2 SLP036

CYYG;2012-02-26 17:00;CYYG 261700Z 31018G30KT 15SM FEW029 BKN036 M01/M07 A2968 RMK SC2SC5 SLP052

CYYG;2012-02-26 18:00;CYYG 261800Z 31017G29KT 15SM FEW025 BKN036 M01/M07 A2971 RMK SC2SC6 SLP065

CYYG;2012-02-26 19:00;CYYG 261900Z 31018KT 15SM BKN036 BKN060 M01/M08 A2977 RMK SC6SC1 PRESRR SLP085

CYYG;2012-02-26 20:00;CYYG 262000Z 30011G19KT 15SM BKN032 BKN060 M01/M07 A2981 RMK SC6SC1 SLP098

CYYG;2012-02-26 21:00;CYYG 262100Z 31014G19KT 15SM SCT032 M01/M08 A2986 RMK SC3 PRESRR SLP113

CYYG;2012-02-26 22:00;CYYG 262200Z 30008G17KT 15SM SCT032 M02/M09 A2991 RMK SC3 SLP132

CYYG;2012-02-26 23:00;CYYG 262300Z 31011G17KT 15SM SCT030 M04/M09 A2996 RMK SC3 SLP149

CYYG;2012-02-27 00:00;CYYG 270000Z 33013G18KT 15SM SCT030 M04/M09 A3001 RMK SC3 SLP166

CYYG;2012-02-27 00:52;CYYG 270052Z 31017G25KT 15SM -SHSN SCT020 BKN033 M05/ RMK SC4SC2

CYYG;2012-02-27 01:00;CYYG 270100Z 31017G25KT 15SM -SHSN FEW020 BKN033 M05/M10 A3005 RMK SC2SC4 SLP180

CYYG;2012-02-27 02:00;CYYG 270200Z 31015G20KT 15SM -SHSN BKN030 M05/M10 A3008 RMK SC7 SLP189

CYYG;2012-02-27 03:00;CYYG 270300Z 30011KT 7SM -SHSN OVC025 M06/M10 A3010 RMK SC8 SLP196

CYYG;2012-02-27 04:00;CYYG 270400Z 29011G18KT 7SM -SN OVC027 M06/M11 A3013 RMK SC8 SLP206

CYYG;2012-02-27 05:00;CYYG 270500Z 29011G18KT 10SM -SN OVC030 M07/M11 A3015 RMK SC8 SLP212

CYYG;2012-02-27 06:00;CYYG 270600Z 29013G18KT 10SM -SN OVC032 M08/M12 A3019 RMK SC8 SLP225

CYYG;2012-02-27 07:00;CYYG 270700Z 29012G17KT 8SM -SN OVC031 M08/M13 A3021 RMK SC8 SLP234

CYYG;2012-02-27 08:00;CYYG 270800Z 29011G19KT 8SM -SN OVC028 M09/M13 A3023 RMK SC8 SLP239

CYYG;2012-02-27 09:00;CYYG 270900Z 29013G18KT 15SM -SHSN BKN025 M10/M14 A3025 RMK SC6 SLP248

CYYG;2012-02-27 10:00;CYYG 271000Z 29011G20KT 15SM -SHSN BKN022 M10/M14 A3028 RMK SC6 SLP255

CYYG;2012-02-27 11:00;CYYG 271100Z 29009KT 15SM -SHSN BKN024 M11/M14 A3031 RMK SC6 SLP266

CYYG;2012-02-27 12:00;CYYG 271200Z 28011KT 15SM -SHSN BKN024 M11/M15 A3033 RMK SC7 SLP275

CYYG;2012-02-27 13:00;CYYG 271300Z 28012KT 15SM -SHSN OVC026 M11/M15 A3035 RMK SC8 SLP282

CYYG;2012-02-27 14:00;CYYG 271400Z 28010KT 10SM -SHSN BKN026 M11/M15 A3036 RMK SC6 SLP285

CYYG;2012-02-27 15:00;CYYG 271500Z 28009KT 15SM VCSH BKN026 M10/M14 A3036 RMK SC6 SLP285

CYYG;2012-02-27 16:00;CYYG 271600Z 27007KT 15SM BKN026 M10/M14 A3036 RMK SC7 SLP284

CYYG;2012-02-27 17:00;CYYG 271700Z 31006KT 15SM BKN023 M10/M14 A3035 RMK SC7 SLP280

CYYG;2012-02-27 18:00;CYYG 271800Z 27005KT 15SM BKN026 M09/M14 A3035 RMK SC6 SH DIST NE-E SLP282

CYYG;2012-02-27 19:00;CYYG 271900Z 33003KT 15SM SCT026 SCT250 M09/M14 A3033 RMK SC3CI0 SLP275

CYYG;2012-02-27 20:00;CYYG 272000Z 30003KT 15SM FEW027 BKN250 M09/M15 A3033 RMK SC1CI2 SLP276

CYYG;2012-02-27 21:00;CYYG 272100Z 28003KT 15SM FEW027 BKN250 M09/M14 A3033 RMK SC1CI2 SLP275

CYYG;2012-02-27 22:00;CYYG 272200Z 36002KT 15SM FEW027 BKN250 M09/M15 A3032 RMK SC1CI2 SLP272

CYYG;2012-02-27 23:00;CYYG 272300Z 00000KT 15SM FEW027 BKN250 M10/M15 A3032 RMK SC1CI2 SLP271

CYYG;2012-02-28 00:00;CYYG 280000Z 13002KT 15SM FEW027 FEW140 BKN250 M10/M15 A3031 RMK SC1AC1CI1 SLP267

CYYG;2012-02-28 01:00;CYYG 280100Z 11003KT 15SM SCT055 BKN100 M10/M14 A3029 RMK SC4AC2 SLP261

CYYG;2012-02-28 02:00;CYYG 280200Z 13004KT 15SM BKN024 BKN065 M10/M14 A3028 RMK SC6SC2 SLP259

CYYG;2012-02-28 02:19;CYYG 280219Z 14005KT 15SM -SHSN OVC030 M10/ RMK SC8

CYYG;2012-02-28 03:00;CYYG 280300Z CCA 13007KT 15SM -SHSN OVC027 M10/M14 A3026 RMK SC8 SLP251

CYYG;2012-02-28 04:00;CYYG 280400Z 12008KT 10SM -SN OVC015 M10/M12 A3023 RMK SC8 SLP240

CYYG;2012-02-28 05:00;CYYG 280500Z 11006KT 15SM -SN OVC012 M10/M12 A3021 RMK SC8 SLP235

CYYG;2012-02-28 06:00;CYYG 280600Z 10007KT 6SM -SN VV012 M09/M12 A3017 RMK SN8 /S01/ SLP222

CYYG;2012-02-28 07:00;CYYG 280700Z 10008KT 6SM -SN VV012 M09/M12 A3013 RMK SN8 /S01/ SLP208

CYYG;2012-02-28 08:00;CYYG 280800Z 09007KT 3SM -SN VV010 M08/M11 A3010 RMK SN8 SLP198

CYYG;2012-02-28 09:00;CYYG 280900Z 07007KT 10SM -SN OVC043 M08/M10 A3008 RMK SC8 /S02/ SLP189

CYYG;2012-02-28 10:00;CYYG 281000Z 08011KT 12SM -SN FEW022 OVC039 M07/M09 A3005 RMK SC2SC6 SLP179

CYYG;2012-02-28 10:44;CYYG 281044Z 07012KT 1SM R03/4500VP6000FT/D -SN OVC018 M07/ RMK SN6SC2

CYYG;2012-02-28 10:54;CYYG 281054Z 07011KT 5/8SM R03/4000FT/N -SN VV005 M07/ RMK SN8

CYYG;2012-02-28 11:00;CYYG 281100Z 07011KT 5/8SM R03/2400V4000FT/D -SN VV004 M07/M09 A3003 RMK SN8 /S03/ SLP171

CYYG;2012-02-28 11:39;CYYG 281139Z 06013KT 1/2SM R03/3000FT/D SN DRSN VV005 M07/ RMK SN8

CYYG;2012-02-28 11:48;CYYG 281148Z 06012KT 1 1/4SM R03/2800V5500FT/U -SN DRSN VV011 M07/ RESN RMK SN8

CYYG;2012-02-28 12:00;CYYG 281200Z 06012KT 1 1/4SM R03/5500FT/N -SN DRSN VV011 M07/M09 A3002 RESN RMK SN8 /S05/ SLP169

CYYG;2012-02-28 12:24;CYYG 281224Z 06013KT 5/8SM R03/3000V5500FT/D -SN DRSN VV006 M07/ RMK SN8

CYYG;2012-02-28 12:42;CYYG 281242Z 06012KT 1 1/2SM R03/2800V6000FT/U -SN DRSN VV013 M06/ RMK SN8

CYYG;2012-02-28 13:00;CYYG 281300Z 06012KT 1 3/4SM R03/4500VP6000FT/U -SN DRSN OVC021 M06/M08 A3002 RMK SN6SC2 /S01/ SLP168

CYYG;2012-02-28 13:35;CYYG 281335Z 05015KT 2SM -SN DRSN FEW010 OVC026 M06/ RMK SC1SC7

CYYG;2012-02-28 13:45;CYYG 281345Z 05016G21KT 1SM R03/4500VP6000FT/D -SN DRSN VV010 M06/ RMK SN8

CYYG;2012-02-28 14:00;CYYG 281400Z 06017KT 3/4SM R03/4000FT/D -SN DRSN VV007 M06/M08 A3002 RMK SN8 /S03/ SLP168

CYYG;2012-02-28 14:34;CYYG 281434Z 04017G22KT 1 1/4SM R03/2000V6000FT/U -SN DRSN VV009 M06/ RMK SN8

CYYG;2012-02-28 15:00;CYYG 281500Z 05018G24KT 1 1/2SM R03/2600VP6000FT/D -SN DRSN OVC035 M06/M08 A3002 RMK SN6SC2 SLP169

CYYG;2012-02-28 15:15;CYYG 281515Z 05018KT 1 1/4SM -SN DRSN VV011 M06/ RMK SN8

CYYG;2012-02-28 15:30;CYYG 281530Z 04021G26KT 5/8SM R03/4000VP6000FT/D -SN DRSN VV008 M06/ RMK SN8

CYYG;2012-02-28 16:00;CYYG 281600Z 04018KT 1SM R03/5000FT/N -SN DRSN OVC010 M06/M07 A3003 RMK SN5SC3 /S04/ SLP171

CYYG;2012-02-28 17:00;CYYG 281700Z 04016G21KT 1 1/2SM -SN DRSN OVC010 M05/M07 A3002 RMK SN2SC6 /S05/ SLP170

CYYG;2012-02-28 17:29;CYYG 281729Z 04016G22KT 3/4SM R03/4500FT/N -SN DRSN VV007 M05/ RMK SN8

CYYG;2012-02-28 18:00;CYYG 281800Z 04017G25KT 5/8SM R03/3500VP6000FT/U -SN DRSN VV010 M05/M07 A3004 RMK SN8 /S06/ SLP176

CYYG;2012-02-28 18:10;CYYG 281810Z 04018KT 5/8SM R03/3500V5500FT/D -SN DRSN VV004 M05/ RMK SN8

CYYG;2012-02-28 18:48;CYYG 281848Z 04017G24KT 1 1/2SM -SN DRSN OVC012 M05/ RMK SN2SC6 SUN OCNL VISBL

CYYG;2012-02-28 19:00;CYYG 281900Z 03017KT 1 1/2SM -SN DRSN OVC012 M05/M07 A3007 RMK SN2SC6 /S01/ SLP186

CYYG;2012-02-28 19:44;CYYG 281944Z 02015KT 3/4SM R03/5000FT/D -SN DRSN OVC012 M05/ RMK SN4SC4

CYYG;2012-02-28 20:00;CYYG 282000Z 02012G17KT 1 1/2SM R03/4000V6000FT/U -SN DRSN OVC012 M05/M07 A3010 RMK SN2SC6 /S02/ SLP197

CYYG;2012-02-28 21:00;CYYG 282100Z 02013G19KT 1 1/2SM -SN DRSN OVC012 M06/M08 A3012 RMK SN2SC6 SUN OCNL VISBL SLP204

CYYG;2012-02-28 21:41;CYYG 282141Z 03017KT 3SM -SHSN DRSN BKN012 BKN070 M06/ RMK SC5AC2

CYYG;2012-02-28 22:00;CYYG 282200Z 03017KT 6SM -SHSN DRSN BKN015 BKN072 M06/M08 A3015 RMK SC6AC2 /S03/ SLP212

CYYG;2012-02-28 23:00;CYYG 282300Z 02016KT 6SM -SHSN DRSN OVC015 M06/M09 A3019 RMK SC8 SLP226

CYYG;2012-02-29 00:00;CYYG 290000Z 03009KT 15SM -SHSN DRSN OVC017 M07/M10 A3022 RMK SC8 SLP235

CYYG;2012-02-29 01:00;CYYG 290100Z 01010G15KT 12SM -SHSN DRSN OVC018 M07/M09 A3024 RMK SC8 SLP244

CYYG;2012-02-29 02:00;CYYG 290200Z 36009KT 12SM -SHSN DRSN OVC025 M07/M10 A3027 RMK SC8 SLP252

CYYG;2012-02-29 03:00;CYYG 290300Z 35004KT 15SM -SHSN OVC024 M08/M11 A3027 RMK SC8 SLP255

CYYG;2012-02-29 04:00;CYYG 290400Z 33003KT 15SM SCT024 M10/M12 A3027 RMK SC4 SLP254

CYYG;2012-02-29 05:00;CYYG 290500Z 29004KT 15SM SCT024 M11/M13 A3027 RMK SC3 SLP255

CYYG;2012-02-29 06:00;CYYG 290600Z 30003KT 15SM SCT040 M12/M14 A3027 RMK SC4 SLP255

CYYG;2012-02-29 07:00;CYYG 290700Z 28006KT 15SM BKN041 M11/M13 A3027 RMK SC7 SLP255

CYYG;2012-02-29 08:00;CYYG 290800Z 28006KT 15SM FEW025 BKN042 M11/M13 A3028 RMK SC2SC6 SLP256

CYYG;2012-02-29 09:00;CYYG 290900Z 26004KT 15SM FEW015 BKN047 M11/M13 A3028 RMK SC2SC4 SLP258

CYYG;2012-02-29 10:00;CYYG 291000Z 27006KT 15SM FEW020 BKN040 M12/M14 A3028 RMK SC2SC4 SLP257

CYYG;2012-02-29 11:00;CYYG 291100Z 27004KT 15SM FEW020 BKN040 M11/M13 A3028 RMK SC1SC4 SLP256

CYYG;2012-02-29 12:00;CYYG 291200Z 26005KT 15SM FEW020 FEW040 M10/M12 A3028 RMK SC1SC1 SLP258

CYYG;2012-02-29 13:00;CYYG 291300Z 27005KT 15SM FEW020 FEW280 M09/M11 A3027 RMK SC1CI1 SLP254

CYYG;2012-02-29 14:00;CYYG 291400Z 25005KT 15SM FEW020 SCT280 M07/M08 A3026 RMK SC1CI1 SLP250

CYYG;2012-02-29 15:00;CYYG 291500Z 25010KT 15SM FEW022 FEW280 M06/M12 A3024 RMK SC1CI0 SLP244

CYYG;2012-02-29 16:00;CYYG 291600Z 27012G17KT 15SM FEW022 BKN280 M06/M12 A3023 RMK SC2CI1 SLP242

CYYG;2012-02-29 17:00;CYYG 291700Z 28009G15KT 15SM FEW022 SCT280 M06/M12 A3022 RMK SC2CI1 SLP237

CYYG;2012-02-29 18:00;CYYG 291800Z 31010G15KT 15SM FEW028 M06/M14 A3021 RMK SC2 SLP235

CYYG;2012-02-29 19:00;CYYG 291900Z 31009KT 15SM FEW035 BKN095 M06/M13 A3021 RMK SC2AC5 SLP234

CYYG;2012-02-29 20:00;CYYG 292000Z 29006KT 15SM BKN040 BKN095 M06/M13 A3020 RMK SC5AC2 SLP231

CYYG;2012-02-29 21:00;CYYG 292100Z 35006KT 15SM BKN048 M06/M13 A3022 RMK SC6 SLP236

CYYG;2012-02-29 22:00;CYYG 292200Z 34003KT 15SM FEW045 M08/M14 A3023 RMK SC2 SLP242

CYYG;2012-02-29 22:31;CYYG 292231Z 34005KT 10SM -SHSN BKN050 M08/ RMK SC5

CYYG;2012-02-29 22:51;CYYG 292251Z 33003KT 5SM -SHSN BKN030 M08/ RMK SC6

CYYG;2012-02-29 23:00;CYYG 292300Z 34002KT 5SM -SHSN BKN030 M08/M12 A3025 RMK SC6 SLP246

CYYG;2012-03-01 00:00;CYYG 010000Z 35004KT 15SM BKN048 M09/M14 A3027 RMK SC7 SLP254

CYYG;2012-03-01 01:00;CYYG 010100Z 32003KT 15SM FEW047 M10/M15 A3027 RMK SC2 SLP255

CYYG;2012-03-01 02:00;CYYG 010200Z 30004KT 15SM FEW052 M10/M15 A3027 RMK SC2 FROIN SLP253

CYYG;2012-03-01 03:00;CYYG 010300Z 33004KT 15SM FEW050 M12/M16 A3026 RMK SC2 FROIN SLP250

CYYG;2012-03-01 03:41;CYYG 010341Z 36005KT 10SM -SHSN BKN025 M11/ RMK SC6

CYYG;2012-03-01 04:00;CYYG 010400Z 01004KT 1 1/2SM -SHSN VV008 M11/M14 A3027 RMK SN8 SLP253

CYYG;2012-03-01 04:08;CYYG 010408Z 02007KT 5SM -SHSN BKN022 M10/ RMK SC6

CYYG;2012-03-01 05:00;CYYG 010500Z 03006KT 15SM -SHSN FEW022 M11/M15 A3027 RMK SC2 SLP255

CYYG;2012-03-01 05:32;CYYG 010532Z 02005KT 15SM FEW022 M12/ RMK SC2

CYYG;2012-03-01 06:00;CYYG 010600Z 02004KT 15SM FEW022 M12/M15 A3027 RMK SC2 SLP255

CYYG;2012-03-01 07:00;CYYG 010700Z 03005KT 15SM SKC M14/M17 A3026 RMK SLP252

CYYG;2012-03-01 08:00;CYYG 010800Z 06003KT 15SM SKC M16/M17 A3026 RMK SLP251

CYYG;2012-03-01 09:00;CYYG 010900Z 04002KT 15SM FEW028 M15/M18 A3028 RMK SC2 SLP257

CYYG;2012-03-01 10:00;CYYG 011000Z 04004KT 15SM FEW028 BKN220 M17/M20 A3027 RMK SC2CI1 SLP254

CYYG;2012-03-01 10:49;CYYG 011049Z 04005KT 15SM -SHSN FEW020 BKN220 M18/ RMK SC2CI1 VIS N-E 2

CYYG;2012-03-01 11:00;CYYG 011100Z 05005KT 5SM -SHSN FEW020 BKN220 M17/M20 A3027 RMK SC2CI1 VIS SW-NW 15 SLP254

CYYG;2012-03-01 11:12;CYYG 011112Z 05006KT 12SM VCSH FEW015 BKN029 BKN220 M15/ RMK SC2SC3CI0 VIS LWR SW-NW

CYYG;2012-03-01 12:00;CYYG 011200Z 09006KT 15SM FEW015 SCT029 BKN200 M13/M16 A3028 RMK SC1SC2CS0 SLP256

CYYG;2012-03-01 13:00;CYYG 011300Z 08011KT 15SM DRSN FEW015 FEW029 BKN200 M11/M16 A3026 RMK SC1SC2CS0 SLP251

CYYG;2012-03-01 14:00;CYYG 011400Z 06014KT 15SM DRSN FEW028 BKN200 M10/M17 A3027 RMK SC2CS0 SLP253

CYYG;2012-03-01 15:00;CYYG 011500Z 06016KT 15SM DRSN FEW028 BKN160 M10/M16 A3025 RMK SC2AS0 SLP247

CYYG;2012-03-01 16:00;CYYG 011600Z 07014KT 15SM DRSN FEW025 FEW060 BKN230 M10/M16 A3024 RMK SC2SC1CS0 SLP243

CYYG;2012-03-01 17:00;CYYG 011700Z 06015KT 15SM DRSN SCT024 SCT100 BKN240 M09/M15 A3022 RMK SC3AC1CS0 OBS TAKEN +12 SLP236

CYYG;2012-03-01 18:00;CYYG 011800Z 06015KT 15SM DRSN FEW024 SCT100 BKN240 M09/M14 A3019 RMK SC2AC1CS1 SLP228

CYYG;2012-03-01 19:00;CYYG 011900Z 05013KT 15SM DRSN FEW025 FEW100 BKN240 M09/M15 A3018 RMK SC2AC1CS1 SLP223

CYYG;2012-03-01 20:00;CYYG 012000Z 06015KT 15SM DRSN SCT026 BKN100 BKN240 M09/M14 A3018 RMK SC3AC2CS0 SLP224

CYYG;2012-03-01 21:00;CYYG 012100Z 06014KT 15SM FEW025 OVC150 M10/M14 A3017 RMK SC2AS6 SLP222

CYYG;2012-03-01 22:00;CYYG 012200Z 05012G17KT 15SM DRSN FEW025 OVC130 M08/M14 A3017 RMK SC2AS6 SLP222

CYYG;2012-03-02 00:00;CYYG 020000Z 07010KT 15SM FEW025 OVC130 M10/M14 A3019 RMK SC2AS6 SLP228

CYYG;2012-03-02 01:00;CYYG 020100Z 07009KT 15SM FEW130 OVC260 M10/M14 A3019 RMK AS2CS3 SLP228

CYYG;2012-03-02 02:00;CYYG 020200Z 07011KT 15SM SCT023 OVC260 M10/M14 A3019 RMK SC3CS2 SLP226

CYYG;2012-03-02 03:00;CYYG 020300Z 07010KT 15SM FEW022 OVC260 M10/M14 A3018 RMK SC2CS2 SLP225

CYYG;2012-03-02 04:00;CYYG 020400Z 06008KT 15SM FEW022 BKN120 OVC260 M10/M15 A3018 RMK SC2AC3CS1 SLP224

CYYG;2012-03-02 05:00;CYYG 020500Z 06008KT 15SM FEW022 SCT140 OVC260 M10/M15 A3017 RMK SC2AC2CS1 SLP222

CYYG;2012-03-02 05:36;CYYG 020536Z 07007KT 15SM -SN BKN023 OVC260 M10/ RMK SC5CS2

CYYG;2012-03-02 06:00;CYYG 020600Z 07008KT 15SM -SN BKN023 M10/M15 A3018 RMK SC6 SLP223

CYYG;2012-03-02 07:00;CYYG 020700Z 06006KT 15SM -SN OVC024 M10/M14 A3018 RMK SC8 SLP223

CYYG;2012-03-02 08:00;CYYG 020800Z 05007KT 15SM -SN BKN024 M10/M14 A3018 RMK SC7 SLP223

CYYG;2012-03-02 08:32;CYYG 020832Z 04007KT 15SM BKN024 BKN130 M10/ RMK SC6AC2

CYYG;2012-03-02 09:00;CYYG 020900Z 04007KT 15SM OVC025 M10/M14 A3017 RMK SC8 SLP220

CYYG;2012-03-02 10:00;CYYG 021000Z 04006KT 15SM SCT025 BKN140 M10/M14 A3017 RMK SC3AC3 SLP219

CYYG;2012-03-02 11:00;CYYG 021100Z 04007KT 15SM FEW025 BKN170 BKN260 M10/M13 A3017 RMK SC2AC4CI1 SLP219

CYYG;2012-03-02 12:00;CYYG 021200Z 04008KT 15SM FEW025 BKN170 BKN260 M08/M12 A3017 RMK SC1AC5CI1 SLP220

CYYG;2012-03-02 13:00;CYYG 021300Z 05012KT 15SM DRSN FEW025 BKN160 BKN250 M07/M11 A3017 RMK SC1AC4CI1 SLP220

CYYG;2012-03-02 14:00;CYYG 021400Z 03010KT 15SM BKN028 BKN160 M06/M11 A3018 RMK SC6AC1 SLP223

CYYG;2012-03-02 15:00;CYYG 021500Z 04013KT 15SM BKN029 BKN160 M06/M11 A3018 RMK SC5AC2 SLP225

CYYG;2012-03-02 15:19;CYYG 021519Z 04011KT 15SM -SHSN BKN030 BKN160 M05/ RMK SC6AC2

CYYG;2012-03-02 16:00;CYYG 021600Z 07009G16KT 15SM -SHSN BKN030 M04/M10 A3018 RMK SC6 SLP225

CYYG;2012-03-02 16:46;CYYG 021646Z 04013KT 15SM VCSH SCT030 SCT160 BKN220 M05/ RMK SC3AC1CI2

CYYG;2012-03-02 17:00;CYYG 021700Z 04013KT 15SM FEW030 SCT160 BKN200 M05/M11 A3014 RMK SC2AC2CI2 SLP211

CYYG;2012-03-02 18:00;CYYG 021800Z 04011KT 15SM FEW030 BKN140 BKN220 M04/M10 A3014 RMK SC2AS2CI0 SLP208

CYYG;2012-03-02 19:00;CYYG 021900Z 03011KT 15SM SCT034 BKN140 M04/M10 A3014 RMK SC3AC2 SLP208

CYYG;2012-03-02 20:00;CYYG 022000Z 04011KT 15SM BKN034 BKN140 M04/M10 A3014 RMK SC6AC1 SLP210

CYYG;2012-03-02 21:00;CYYG 022100Z 03008KT 15SM BKN031 BKN220 M05/M10 A3015 RMK SC6CI1 SLP214

CYYG;2012-03-02 22:00;CYYG 022200Z 04006KT 15SM BKN030 BKN220 M05/M10 A3016 RMK SC6CI1 SLP215

CYYG;2012-03-02 23:00;CYYG 022300Z 03004KT 15SM BKN029 M07/M11 A3014 RMK SC6 OBS TAKEN +14 SLP211

CYYG;2012-03-03 00:00;CYYG 030000Z 02003KT 15SM SCT027 M08/M12 A3015 RMK SC4 SLP213

CYYG;2012-03-03 01:00;CYYG 030100Z 27002KT 15SM BKN030 M07/M10 A3019 RMK SC7 SLP226

CYYG;2012-03-03 02:00;CYYG 030200Z 01003KT 15SM BKN029 M08/M11 A3016 RMK SC7 SLP218

CYYG;2012-03-03 03:00;CYYG 030300Z 35002KT 15SM BKN027 M09/M12 A3017 RMK SC7 SLP218

CYYG;2012-03-03 04:00;CYYG 030400Z 09002KT 15SM BKN028 M07/M11 A3014 RMK SC6 SLP208

CYYG;2012-03-03 05:00;CYYG 030500Z 16002KT 15SM BKN027 M06/M10 A3013 RMK SC7 SLP205

CYYG;2012-03-03 06:00;CYYG 030600Z 12003KT 15SM BKN026 M06/M10 A3011 RMK SC7 SLP200

CYYG;2012-03-03 07:00;CYYG 030700Z 17003KT 15SM SCT026 M07/M10 A3012 RMK SC4 SLP202

CYYG;2012-03-03 08:00;CYYG 030800Z 17005KT 15SM SCT024 M07/M11 A3010 RMK SC3 SLP195

CYYG;2012-03-03 09:00;CYYG 030900Z 18004KT 15SM FEW024 M07/M11 A3010 RMK SC2 SLP195

CYYG;2012-03-03 10:00;CYYG 031000Z 13004KT 15SM FEW024 BKN230 M08/M11 A3008 RMK SC2CI4 SLP189

CYYG;2012-03-03 11:00;CYYG 031100Z 15004KT 15SM FEW024 OVC210 M07/M10 A3004 RMK SC2CS2 SLP177

CYYG;2012-03-03 12:00;CYYG 031200Z 15004KT 15SM BKN024 OVC210 M06/M09 A3004 RMK SC6CS2 SLP174

CYYG;2012-03-03 13:00;CYYG 031300Z 17010KT 15SM OVC024 M04/M07 A3003 RMK SC8 SLP171

CYYG;2012-03-03 14:00;CYYG 031400Z 18012KT 15SM OVC019 M03/M07 A3002 RMK SC8 SLP169

CYYG;2012-03-03 15:00;CYYG 031500Z 17011KT 15SM OVC019 M02/M07 A2998 RMK SC8 SLP154

CYYG;2012-03-03 16:00;CYYG 031600Z 17015KT 15SM OVC019 M01/M06 A2993 RMK SC8 SLP140

CYYG;2012-03-03 17:00;CYYG 031700Z 16015G21KT 15SM OVC020 M00/M05 A2987 RMK SC8 PRESFR SLP120

CYYG;2012-03-03 18:00;CYYG 031800Z 15015KT 15SM OVC020 00/M04 A2979 RMK SC8 PRESFR SLP091

CYYG;2012-03-03 18:39;CYYG 031839Z 15018KT 12SM -SN OVC022 00/ RMK SC8

CYYG;2012-03-03 19:00;CYYG 031900Z 15019G25KT 3SM -SN OVC020 00/M03 A2971 RMK SN4SC4 PRESFR SLP064

CYYG;2012-03-03 20:00;CYYG 032000Z 14019G27KT 10SM -SN OVC012 00/M03 A2961 RMK SC8 PRESFR SLP030

CYYG;2012-03-03 20:14;CYYG 032014Z 14019G25KT 12SM -RA OVC010 01/ RMK SC8

CYYG;2012-03-03 20:47;CYYG 032047Z 15016G22KT 12SM -RA OVC008 00/ RMK SF8

CYYG;2012-03-03 21:00;CYYG 032100Z 15017G22KT 15SM -RA OVC008 00/M02 A2954 RMK SF8 PRESFR SLP006

CYYG;2012-03-03 21:44;CYYG 032144Z 14017G25KT 10SM -RA OVC005 00/ RMK SF8

CYYG;2012-03-03 22:00;CYYG 032200Z 15020G26KT 10SM -RA OVC006 01/M01 A2944 RMK SF8 PRESFR SLP974

CYYG;2012-03-03 23:00;CYYG 032300Z 15022G30KT 10SM RA OVC006 01/M00 A2935 RMK SF8 PRESFR SLP941

CYYG;2012-03-04 00:00;CYYG 040000Z 16021G32KT 12SM -RA OVC006 02/00 A2927 RMK SF8 PRESFR SLP914

CYYG;2012-03-04 01:00;CYYG 040100Z 18016KT 12SM -RA OVC008 03/01 A2926 RMK SF8 SLP910

CYYG;2012-03-04 02:00;CYYG 040200Z 17010KT 15SM -RA OVC011 03/01 A2921 RMK SF8 SLP894

CYYG;2012-03-04 02:36;CYYG 040236Z 21008KT 15SM OVC011 03/ RMK SF8

CYYG;2012-03-04 03:00;CYYG 040300Z 23008KT 12SM OVC009 04/03 A2923 RMK SF8 SLP898

CYYG;2012-03-04 03:13;CYYG 040313Z 23011KT 10SM -RA OVC005 05/ RMK SF8

CYYG;2012-03-04 04:00;CYYG 040400Z 27014G25KT 10SM -RA OVC009 05/03 A2927 RMK SF8 SLP912

CYYG;2012-03-04 04:06;CYYG 040406Z 28013G21KT 15SM BKN011 OVC040 04/ RMK SF6SC2

CYYG;2012-03-04 05:00;CYYG 040500Z 27009G18KT 15SM SCT011 BKN041 03/00 A2931 RMK SF4SC2 SLP926

CYYG;2012-03-04 06:00;CYYG 040600Z 25005KT 15SM SCT040 02/M00 A2935 RMK SC3 SLP941

CYYG;2012-03-04 07:00;CYYG 040700Z 25007KT 15SM FEW040 02/M01 A2936 RMK SC1 SLP945

CYYG;2012-03-04 08:00;CYYG 040800Z 23006KT 15SM FEW080 01/M01 A2939 RMK AC1 SLP954

CYYG;2012-03-04 09:00;CYYG 040900Z 24009G17KT 15SM SCT008 SCT080 01/M01 A2942 RMK SF3AC1 SLP964

CYYG;2012-03-04 10:00;CYYG 041000Z 23013KT 15SM FEW008 SCT080 02/M01 A2944 RMK SF1AC2 SLP973

CYYG;2012-03-04 11:00;CYYG 041100Z 23011KT 15SM FEW080 02/M01 A2946 RMK AC2 SLP978

CYYG;2012-03-04 12:00;CYYG 041200Z 24010KT 15SM FEW200 02/M02 A2950 RMK CI1 SLP991

CYYG;2012-03-04 13:00;CYYG 041300Z 24014G19KT 15SM SCT200 02/M02 A2952 RMK CI2 SLP999

CYYG;2012-03-04 14:00;CYYG 041400Z 25011G16KT 15SM BKN200 02/M03 A2954 RMK CI5 SLP006

CYYG;2012-03-04 15:00;CYYG 041500Z 24010G17KT 15SM FEW015 BKN220 02/M03 A2955 RMK SC1CI6 SLP010

CYYG;2012-03-04 16:00;CYYG 041600Z 25009G15KT 15SM FEW032 BKN220 03/M03 A2957 RMK SC1CS6 SLP016

CYYG;2012-03-04 17:00;CYYG 041700Z 26009KT 15SM FEW032 BKN170 03/M04 A2956 RMK SC1AS7 SLP011

CYYG;2012-03-04 18:00;CYYG 041800Z 25010KT 15SM FEW032 BKN140 03/M04 A2956 RMK SC1AS7 SLP012

CYYG;2012-03-04 19:00;CYYG 041900Z 24008KT 15SM FEW030 BKN120 03/M04 A2955 RMK SC1AC7 SLP008

CYYG;2012-03-04 20:00;CYYG 042000Z 25004KT 15SM FEW030 OVC120 03/M04 A2958 RMK SC1AS8 SLP019

CYYG;2012-03-04 21:00;CYYG 042100Z 22002KT 15SM FEW070 OVC110 03/M04 A2956 RMK AC1AS8 SLP011

CYYG;2012-03-04 22:00;CYYG 042200Z 27002KT 15SM FEW070 OVC095 02/M04 A2958 RMK AC1AS7 SLP018

CYYG;2012-03-04 23:00;CYYG 042300Z 24002KT 15SM OVC070 02/M04 A2960 RMK AC8 SLP025

CYYG;2012-03-05 00:00;CYYG 050000Z 14003KT 15SM OVC065 01/M04 A2959 RMK SC8 SLP022

CYYG;2012-03-05 01:00;CYYG 050100Z 33002KT 15SM OVC040 01/M04 A2957 RMK SC8 SLP016

CYYG;2012-03-05 02:00;CYYG 050200Z 27002KT 15SM OVC048 02/M05 A2955 RMK SC8 SLP009

CYYG;2012-03-05 02:26;CYYG 050226Z 14002KT 12SM -SHSN SCT024 OVC047 01/ RMK SC3SC5

CYYG;2012-03-05 03:00;CYYG 050300Z 00000KT 15SM -SHSN SCT024 OVC043 01/M04 A2954 RMK SC3SC5 SLP006

CYYG;2012-03-05 03:31;CYYG 050331Z 19005KT 5SM -SHSN FEW009 OVC015 00/ RMK SF2SC6

CYYG;2012-03-05 04:00;CYYG 050400Z 20004KT 5SM -SHSN FEW009 OVC015 M00/M02 A2954 RMK SF2SC6 SLP005

CYYG;2012-03-05 05:00;CYYG 050500Z 00000KT 6SM -SHSN FEW010 OVC019 M00/M02 A2951 RMK SF2SC6 SLP995

CYYG;2012-03-05 06:00;CYYG 050600Z 13002KT 3SM -SHSN OVC010 M01/M03 A2949 RMK SF8 SLP989

CYYG;2012-03-05 06:15;CYYG 050615Z 00000KT 1SM R03/5500FT/N -SHSN BR BKN004 OVC010 M01/ RMK SF6SF2

CYYG;2012-03-05 07:00;CYYG 050700Z 00000KT 3/4SM R03/P6000FT/D -SN BR OVC002 M01/M02 A2948 RMK SF8 SLP986

CYYG;2012-03-05 08:00;CYYG 050800Z 26003KT 3SM BR BKN002 OVC028 M01/M02 A2949 RMK SF7SC1 SLP987

CYYG;2012-03-05 09:00;CYYG 050900Z 00000KT 5SM BR BKN004 OVC035 M01/M03 A2949 RMK SF5SC3 SLP988

CYYG;2012-03-05 09:18;CYYG 050918Z 26003KT 3SM -SN BR SCT004 OVC011 M01/ RMK SF4SC4

CYYG;2012-03-05 09:50;CYYG 050950Z 26004KT 12SM FEW004 SCT011 OVC021 M01/ RMK SF2SC2SC4

CYYG;2012-03-05 10:00;CYYG 051000Z 26003KT 12SM FEW004 SCT011 OVC022 M01/M03 A2950 RMK SF1SC2SC5 SLP993

CYYG;2012-03-05 11:00;CYYG 051100Z 27004KT 15SM FEW008 SCT015 BKN056 M01/M03 A2952 RMK SF1SC2SC4 SLP999

CYYG;2012-03-05 11:30;CYYG 051130Z 28007KT 10SM -SHSN OVC005 M02/ RMK SF8

CYYG;2012-03-05 11:42;CYYG 051142Z 31009KT 6SM -SHSN BR OVC003 M02/ RMK SF8

CYYG;2012-03-05 12:00;CYYG 051200Z 30010KT 6SM -SHSN BR OVC003 M02/M04 A2957 RMK SF8 SLP016

CYYG;2012-03-05 12:10;CYYG 051210Z 29006KT 15SM OVC005 M02/ RMK SF8

CYYG;2012-03-05 12:40;CYYG 051240Z 29009G15KT 15SM FEW005 OVC011 M01/ RMK SF1SC8 SUN OCNL VISBL

CYYG;2012-03-05 13:00;CYYG 051300Z 30012KT 15SM BKN010 M01/M05 A2959 RMK SC7 SLP023

CYYG;2012-03-05 13:26;CYYG 051326Z 30008KT 15SM SCT011 SCT150 M01/ RMK SC3AC1

CYYG;2012-03-05 14:00;CYYG 051400Z CCA 29008KT 15SM SCT012 SCT150 M01/M05 A2961 RMK SC3AC1 SLP030

CYYG;2012-03-05 15:00;CYYG 051500Z 30008KT 15SM BKN017 M00/M05 A2965 RMK SC7 SLP043

CYYG;2012-03-05 15:40;CYYG 051540Z 34011KT 10SM BKN012 OVC018 M01/ RMK SC6SC2

CYYG;2012-03-05 15:50;CYYG 051550Z 35009G16KT 10SM OVC009 M01/ RMK SF8

CYYG;2012-03-05 16:00;CYYG 051600Z 34008G15KT 8SM OVC008 M01/M05 A2971 RMK SF8 SLP064

CYYG;2012-03-05 16:20;CYYG 051620Z 35009G17KT 10SM -SG OVC009 M02/ RMK SF8

CYYG;2012-03-05 17:00;CYYG 051700Z 36014KT 10SM -SG OVC010 M03/M07 A2976 RMK SF8 SLP080

CYYG;2012-03-05 18:00;CYYG 051800Z 36011G18KT 12SM -SG OVC012 M04/M08 A2981 RMK SF8 SLP096

CYYG;2012-03-05 18:38;CYYG 051838Z 01011KT 15SM OVC011 M04/ RMK SF8

CYYG;2012-03-05 19:00;CYYG 051900Z 36011KT 15SM OVC012 M04/M08 A2984 RMK SF8 SUN OCNL VISBL SLP107

CYYG;2012-03-05 20:00;CYYG 052000Z 36009G15KT 15SM BKN012 M04/M08 A2987 RMK SC7 SLP117

CYYG;2012-03-05 21:00;CYYG 052100Z 03011KT 15SM OVC013 M05/M09 A2991 RMK SC8 SLP131

CYYG;2012-03-05 22:00;CYYG 052200Z 01008KT 15SM OVC014 M05/M09 A2996 RMK SC8 SLP147

CYYG;2012-03-05 22:43;CYYG 052243Z 02008KT 15SM OVC017 M04/ RMK SC8

CYYG;2012-03-05 23:00;CYYG 052300Z 02005KT 15SM OVC017 M05/M09 A3000 RMK SC8 SLP162

CYYG;2012-03-06 00:00;CYYG 060000Z 01006KT 15SM OVC015 M04/M08 A3004 RMK SC8 SLP175

CYYG;2012-03-06 01:00;CYYG 060100Z 02005KT 15SM OVC016 M04/M09 A3008 RMK SC8 SLP189

CYYG;2012-03-06 01:22;CYYG 060122Z 01004KT 12SM -SHSN OVC015 M04/ RMK SC8

CYYG;2012-03-06 02:00;CYYG 060200Z 03007KT 10SM -SHSN OVC018 M05/M08 A3010 RMK SC8 SLP195

CYYG;2012-03-06 03:00;CYYG 060300Z 03007KT 10SM -SHSN OVC020 M05/M08 A3012 RMK SC8 SLP202

CYYG;2012-03-06 04:00;CYYG 060400Z 03005KT 10SM -SHSN OVC022 M05/M08 A3017 RMK SC8 SLP218

CYYG;2012-03-06 05:00;CYYG 060500Z 02006KT 6SM -SHSN OVC022 M05/M08 A3018 RMK SC8 SLP224

CYYG;2012-03-06 06:00;CYYG 060600Z 02007KT 10SM -SHSN OVC015 M05/M08 A3020 RMK SC8 SLP229

CYYG;2012-03-06 07:00;CYYG 060700Z 02005KT 10SM -SHSN OVC015 M05/M08 A3023 RMK SC8 SLP239

CYYG;2012-03-06 08:00;CYYG 060800Z 02006KT 10SM -SHSN OVC011 M05/M08 A3023 RMK SC8 SLP239

CYYG;2012-03-06 09:00;CYYG 060900Z 04007KT 15SM -SHSN BKN015 BKN040 M06/M09 A3025 RMK SC5SC2 PCPN VRY LGT SLP247

CYYG;2012-03-06 09:12;CYYG 060912Z 01008KT 15SM SCT014 BKN044 M06/ RMK SC3SC4

CYYG;2012-03-06 10:00;CYYG 061000Z 03005KT 15SM SCT017 OVC044 06/M09 A3027 RMK SC3SC5 SLP253

CYYG;2012-03-06 11:00;CYYG 061100Z CCB 03006KT 15SM FEW017 SCT048 BKN076 M06/M09 A3030 RMK SC2SC2AC3 SLP263

CYYG;2012-03-06 12:00;CYYG 061200Z 04009KT 15SM SCT024 BKN075 M05/M10 A3032 RMK SC3AC4 SLP270

CYYG;2012-03-06 12:17;CYYG 061217Z 04012KT 15SM -SHSN BKN023 BKN075 M05/ RMK SC6AC2

CYYG;2012-03-06 13:00;CYYG 061300Z 04010KT 15SM -SHSN BKN021 BKN075 M05/M10 A3033 RMK SC6AC1 SLP273

CYYG;2012-03-06 14:00;CYYG 061400Z 03013KT 15SM -SHSN OVC021 M05/M09 A3036 RMK SC8 SLP282

CYYG;2012-03-06 15:00;CYYG 061500Z 01011G16KT 10SM -SHSN OVC018 M04/M09 A3035 RMK SC8 SLP281

CYYG;2012-03-06 16:00;CYYG 061600Z 36012G17KT 15SM -SHSN SCT015 OVC026 M04/M09 A3035 RMK SC3SC5 SLP280

CYYG;2012-03-06 17:00;CYYG 061700Z 36015G20KT 15SM -SHSN DRSN BKN017 BKN029 M04/M10 A3032 RMK SC5SC2 SLP271

CYYG;2012-03-06 18:00;CYYG 061800Z 02012G19KT 15SM -SHSN DRSN BKN015 M04/M09 A3032 RMK SC7 SLP270

CYYG;2012-03-06 19:00;CYYG 061900Z 34012KT 15SM BKN016 BKN075 M04/M09 A3033 RMK SC6AC1 SLP275

CYYG;2012-03-06 20:00;CYYG 062000Z 35014G19KT 15SM -SHSN BKN015 M04/M09 A3034 RMK SC7 VIS LWR E SLP277

CYYG;2012-03-06 21:00;CYYG 062100Z 34014G19KT 15SM -SHSN DRSN SCT019 BKN035 M05/M10 A3035 RMK SC4SC3 VIS LWR NE-SE SLP280

CYYG;2012-03-06 22:00;CYYG 062200Z 35011G18KT 15SM -SHSN DRSN BKN017 M05/M09 A3036 RMK SC7 VIS LWR NE-SE SLP283

CYYG;2012-03-06 23:00;CYYG 062300Z 34012KT 15SM -SHSN DRSN OVC013 M05/M09 A3037 RMK SC8 SLP289

CYYG;2012-03-07 00:00;CYYG 070000Z 35013G22KT 15SM -SHSN DRSN OVC013 M05/M09 A3039 RMK SC8 SLP296

CYYG;2012-03-07 01:00;CYYG 070100Z 36011G16KT 15SM DRSN BKN019 M06/M10 A3042 RMK SC7 SLP305

CYYG;2012-03-07 01:44;CYYG 070144Z 36008G16KT 15SM -SHSN DRSN BKN019 M06/ RMK SC7

CYYG;2012-03-07 02:00;CYYG 070200Z 34010KT 15SM -SHSN DRSN BKN019 M06/M11 A3044 RMK SC7 SLP311

CYYG;2012-03-07 03:00;CYYG 070300Z 34010KT 15SM -SHSN DRSN BKN019 M06/M11 A3044 RMK SC7 SLP312

CYYG;2012-03-07 03:18;CYYG 070318Z 33009KT 15SM DRSN SCT019 M07/ RMK SC3

CYYG;2012-03-07 04:00;CYYG 070400Z 34005KT 15SM FEW019 M07/M12 A3045 RMK SC2 SLP315

CYYG;2012-03-07 05:00;CYYG 070500Z 32003KT 15SM FEW015 M09/M12 A3046 RMK SC2 SLP317

CYYG;2012-03-07 06:00;CYYG 070600Z 31004KT 15SM FEW015 M10/M13 A3047 RMK SC2 SLP322

CYYG;2012-03-07 07:00;CYYG 070700Z 28005KT 15SM FEW015 M10/M13 A3050 RMK SC1 SLP331

CYYG;2012-03-07 08:00;CYYG 070800Z 31002KT 15SM FEW015 M10/M13 A3051 RMK SC1 SLP335

CYYG;2012-03-07 09:00;CYYG 070900Z 30002KT 15SM FEW028 M12/M14 A3051 RMK SC1 SLP335

CYYG;2012-03-07 10:00;CYYG 071000Z 28006KT 15SM FEW030 FEW140 M10/M13 A3053 RMK SC1AC1 SLP342

CYYG;2012-03-07 11:00;CYYG 071100Z 27006KT 15SM FEW030 FEW120 M10/M12 A3054 RMK SC1AC1 FROIN SLP344

CYYG;2012-03-07 12:00;CYYG 071200Z 24005KT 15SM FEW015 SCT250 M10/M12 A3055 RMK SC1CI0 SLP349

CYYG;2012-03-07 13:00;CYYG 071300Z 24007KT 15SM FEW015 SCT250 M07/M10 A3055 RMK SC1CI1 SLP348

CYYG;2012-03-07 14:00;CYYG 071400Z 25005KT 15SM SCT250 M05/M10 A3054 RMK CI1 SLP344

CYYG;2012-03-07 15:00;CYYG 071500Z 23006KT 15SM SCT250 M03/M11 A3051 RMK CI1 SLP335

CYYG;2012-03-07 16:00;CYYG 071600Z 21009KT 15SM FEW100 BKN250 M02/M10 A3048 RMK AC2CI1 SLP325

CYYG;2012-03-07 17:00;CYYG 071700Z 22009KT 15SM SCT065 BKN220 M03/M10 A3045 RMK SC4CI2 SLP315

CYYG;2012-03-07 18:00;CYYG 071800Z 22008KT 15SM FEW052 BKN220 M01/M10 A3043 RMK SC2CI1 SLP307

CYYG;2012-03-07 19:00;CYYG 071900Z 18007KT 15SM SCT047 BKN090 M01/M09 A3040 RMK SC3AC4 SLP298

CYYG;2012-03-07 20:00;CYYG 072000Z 18008KT 15SM FEW047 OVC074 M01/M08 A3037 RMK SC2AC6 SLP288

CYYG;2012-03-07 21:00;CYYG 072100Z 19015KT 15SM FEW045 OVC064 M00/M07 A3034 RMK SC1SC7 SLP278

CYYG;2012-03-07 22:00;CYYG 072200Z 18016KT 15SM FEW036 OVC058 00/M07 A3031 RMK SC2SC6 SLP268

CYYG;2012-03-07 23:00;CYYG 072300Z 18017KT 15SM SCT036 BKN058 BKN110 M00/M06 A3028 RMK SC3SC3AC1 SLP256

CYYG;2012-03-08 00:00;CYYG 080000Z 18016G22KT 15SM SCT036 BKN110 M00/M05 A3025 RMK SC3AC2 SLP246

CYYG;2012-03-08 01:00;CYYG 080100Z 19018KT 15SM BKN026 00/M04 A3021 RMK SC6 SLP234

CYYG;2012-03-08 02:00;CYYG 080200Z 19019KT 15SM BKN022 BKN110 01/M03 A3018 RMK SC6AC1 SLP223

CYYG;2012-03-08 03:00;CYYG 080300Z 19017KT 15SM BKN020 01/M03 A3015 RMK SC7 SLP214

CYYG;2012-03-08 04:00;CYYG 080400Z 20014KT 15SM OVC018 01/M02 A3013 RMK SC8 SLP207

CYYG;2012-03-08 05:00;CYYG 080500Z 20015KT 15SM OVC017 01/M02 A3011 RMK SC8 SLP198

CYYG;2012-03-08 05:37;CYYG 080537Z 21013KT 15SM BKN014 02/ RMK SC7

CYYG;2012-03-08 06:00;CYYG 080600Z 21012KT 15SM SCT014 01/M02 A3009 RMK SC3 SLP191

CYYG;2012-03-08 07:00;CYYG 080700Z 21013KT 12SM FEW014 01/M01 A3006 RMK SC2 SLP181

CYYG;2012-03-08 08:00;CYYG 080800Z 20014KT 15SM FEW012 02/M01 A3004 RMK SC2 SLP173

CYYG;2012-03-08 09:00;CYYG 080900Z 20013KT 15SM FEW012 BKN200 02/M01 A3002 RMK SC2CI1 SLP169

CYYG;2012-03-08 10:00;CYYG 081000Z 21011KT 15SM FEW012 BKN080 BKN200 02/M01 A3001 RMK SC2AC3CI0 SLP164

CYYG;2012-03-08 11:00;CYYG 081100Z 21013KT 12SM SCT083 BKN250 02/M01 A3000 RMK AC3CI1 SLP161

CYYG;2012-03-08 12:00;CYYG 081200Z 22011G16KT 15SM FEW080 BKN250 04/00 A2999 RMK AC2CI1 SLP159

CYYG;2012-03-08 13:00;CYYG 081300Z 22017KT 15SM FEW080 BKN250 05/00 A2998 RMK AC1CI1 SLP155

CYYG;2012-03-08 14:00;CYYG 081400Z 22015G20KT 15SM FEW080 SCT250 06/00 A2997 RMK AC1CI1 SLP150

CYYG;2012-03-08 15:00;CYYG 081500Z 22013G20KT 15SM SCT250 07/01 A2994 RMK CI1 SLP141

CYYG;2012-03-08 16:00;CYYG 081600Z 22015G20KT 15SM SCT250 08/01 A2992 RMK CI1 SLP133

CYYG;2012-03-08 17:00;CYYG 081700Z 22016KT 15SM BKN250 09/02 A2988 RMK CI2 SLP121

CYYG;2012-03-08 18:00;CYYG 081800Z 22017G24KT 15SM BKN250 09/02 A2985 RMK CI2 SLP110

CYYG;2012-03-08 19:00;CYYG 081900Z 22012G17KT 15SM BKN250 10/02 A2983 RMK CI3 SLP104

CYYG;2012-03-08 20:00;CYYG 082000Z 22017G26KT 15SM BKN250 10/03 A2982 RMK CI2 SLP100

CYYG;2012-03-08 21:00;CYYG 082100Z 22012G18KT 15SM BKN250 09/03 A2980 RMK CI2 SLP092

CYYG;2012-03-08 22:00;CYYG 082200Z 22013G18KT 15SM BKN250 10/03 A2979 RMK CI2 SLP088

CYYG;2012-03-08 23:00;CYYG 082300Z 22012KT 15SM BKN250 09/03 A2978 RMK CI2 SLP087

CYYG;2012-03-09 00:00;CYYG 090000Z 23020G25KT 15SM BKN250 10/04 A2978 RMK CI2 SLP085

CYYG;2012-03-09 01:00;CYYG 090100Z 22019G26KT 15SM BKN250 10/04 A2977 RMK CI2 SLP081

CYYG;2012-03-09 02:00;CYYG 090200Z 21012G17KT 15SM FEW035 FEW120 BKN250 08/02 A2974 RMK SC1AC1CI2 SLP073

CYYG;2012-03-09 03:00;CYYG 090300Z 18015KT 15SM BKN034 BKN250 07/02 A2969 RMK SC6CI0 SLP056

CYYG;2012-03-09 04:00;CYYG 090400Z 20016KT 15SM OVC033 08/03 A2970 RMK SC8 SLP058

CYYG;2012-03-09 05:00;CYYG 090500Z 17014KT 15SM OVC032 04/01 A2964 RMK SC8 SLP040

CYYG;2012-03-09 06:00;CYYG 090600Z 18016G21KT 15SM OVC032 06/02 A2961 RMK SC8 SLP027

CYYG;2012-03-09 07:00;CYYG 090700Z 20021G26KT 15SM OVC033 06/03 A2956 RMK SC8 SLP010

CYYG;2012-03-09 08:00;CYYG 090800Z 20023G31KT 15SM FEW033 OVC080 07/03 A2951 RMK SC2AC6 SLP995

CYYG;2012-03-09 09:00;CYYG 090900Z 20022G30KT 15SM OVC032 08/04 A2951 RMK SC8 SLP993

CYYG;2012-03-09 09:50;CYYG 090950Z 20020G27KT 10SM -SHRA OVC027 08/ RMK SC8

CYYG;2012-03-09 10:00;CYYG 091000Z 21016G22KT 10SM -SHRA OVC027 07/05 A2949 RMK SC8 SLP988

CYYG;2012-03-09 10:40;CYYG 091040Z 23009KT 6SM -SHRA BR FEW008 OVC012 06/ RMK SF2SC6

CYYG;2012-03-09 11:00;CYYG 091100Z 24006KT 4SM -SHRA BR OVC007 06/04 A2949 RMK SF8 SLP988

CYYG;2012-03-09 11:17;CYYG 091117Z 25021G31KT 6SM -SHRA BR SCT007 OVC025 08/ RMK SF3SC5

CYYG;2012-03-09 11:20;CYYG 091120Z 25027G36KT 10SM -SHRA SCT007 OVC030 08/ RMK SF3SC5

CYYG;2012-03-09 12:00;CYYG 091200Z 31014G24KT 10SM -SHRA SCT007 OVC029 04/02 A2954 RMK SF3SC5 G38 PAST HOUR SLP003

CYYG;2012-03-09 13:00;CYYG 091300Z 28009G15KT 10SM -SHRA SCT007 OVC025 04/02 A2956 RMK SF3SC5 SLP012

CYYG;2012-03-09 14:00;CYYG 091400Z 27013G20KT 10SM -SHRA SCT007 OVC015 03/00 A2962 RMK SF4SC4 SLP031

CYYG;2012-03-09 14:41;CYYG 091441Z 28013G21KT 6SM -SHRASN BKN005 OVC013 01/ RMK SF6SC2

CYYG;2012-03-09 15:00;CYYG 091500Z 27012KT 15SM -SHSN SCT005 BKN016 BKN041 01/M01 A2967 RMK SF4SC2SC2 SLP050

CYYG;2012-03-09 15:28;CYYG 091528Z 27014KT 15SM FEW005 SCT016 BKN041 02/ RMK SF2SC2SC4

CYYG;2012-03-09 16:00;CYYG 091600Z 25011G19KT 15SM FEW005 SCT016 BKN041 02/M02 A2971 RMK SF1SC3SC3 SLP062

CYYG;2012-03-09 16:27;CYYG 091627Z 29010G21KT 8SM -SHSN BKN012 OVC041 02/ RMK SC6SC2 VIS LWR N

CYYG;2012-03-09 16:42;CYYG 091642Z 29013G24KT 15SM SCT012 BKN029 01/ RMK SC3SC4 VIS LWR S

CYYG;2012-03-09 17:00;CYYG 091700Z 28012G18KT 15SM FEW012 BKN030 01/M03 A2974 RMK SC2SC2 SLP074

CYYG;2012-03-09 18:00;CYYG 091800Z 28009G17KT 15SM FEW012 BKN029 02/M04 A2977 RMK SC2SC3 SLP084

CYYG;2012-03-09 19:00;CYYG 091900Z 29010G18KT 15SM FEW012 SCT030 BKN250 02/M07 A2980 RMK SC1SC2CI2 SLP094

CYYG;2012-03-09 20:00;CYYG 092000Z 29014G20KT 15SM FEW015 SCT030 BKN250 02/M09 A2983 RMK SC1SC2CI2 SLP102

CYYG;2012-03-09 21:00;CYYG 092100Z 31012G20KT 15SM FEW030 BKN250 02/M09 A2986 RMK SC2CI3 SLP113

CYYG;2012-03-09 22:00;CYYG 092200Z 31011G17KT 15SM FEW030 BKN250 01/M10 A2990 RMK SC2CI3 SLP127

CYYG;2012-03-09 23:00;CYYG 092300Z 31005KT 15SM FEW030 BKN250 00/M10 A2996 RMK SC2CI3 SLP145

CYYG;2012-03-10 00:00;CYYG 100000Z 30004KT 15SM SCT250 M00/M10 A2998 RMK CI2 SLP154

CYYG;2012-03-10 01:00;CYYG 100100Z 27003KT 15SM FEW250 M01/M10 A3001 RMK CI1 SLP166

CYYG;2012-03-10 02:00;CYYG 100200Z 29005KT 15SM FEW250 M01/M10 A3006 RMK CI1 SLP180

CYYG;2012-03-10 03:00;CYYG 100300Z 31006KT 15SM FEW250 M02/M10 A3007 RMK CI1 SLP186

CYYG;2012-03-10 04:00;CYYG 100400Z 34002KT 15SM FEW250 M03/M10 A3008 RMK CI1 SLP189

CYYG;2012-03-10 05:00;CYYG 100500Z 01005KT 15SM FEW030 FEW250 M04/M09 A3010 RMK SC1CI1 SLP196

CYYG;2012-03-10 06:00;CYYG 100600Z 35005KT 15SM SKC M04/M11 A3013 RMK SLP204

CYYG;2012-03-10 07:00;CYYG 100700Z 34005KT 15SM SKC M04/M11 A3013 RMK SLP206

CYYG;2012-03-10 08:00;CYYG 100800Z 34004KT 15SM FEW035 M04/M11 A3016 RMK SC1 SLP216

CYYG;2012-03-10 09:00;CYYG 100900Z 36006KT 15SM FEW035 M05/M11 A3019 RMK SC1 SLP226

CYYG;2012-03-10 10:00;CYYG 101000Z 34005KT 15SM FEW035 FEW250 M05/M11 A3021 RMK SC1CI1 SLP234

CYYG;2012-03-10 11:00;CYYG 101100Z 34005KT 15SM FEW035 M05/M11 A3024 RMK SC1 SLP243

CYYG;2012-03-10 12:00;CYYG 101200Z 01006KT 15SM FEW035 M04/M10 A3026 RMK SC1 SLP251

CYYG;2012-03-10 13:00;CYYG 101300Z 36010KT 15SM FEW030 M03/M11 A3029 RMK SC2 SLP259

CYYG;2012-03-10 14:00;CYYG 101400Z 01008KT 15SM SCT030 M03/M10 A3031 RMK SC4 SLP267

CYYG;2012-03-10 15:00;CYYG 101500Z 36005KT 15SM SCT036 M03/M11 A3034 RMK SC4 OBD TSKRN +11 SLP277

CYYG;2012-03-10 16:00;CYYG 101600Z 36006KT 15SM BKN035 M03/M11 A3034 RMK SC6 SLP278

CYYG;2012-03-10 17:00;CYYG 101700Z 36006KT 15SM BKN031 M03/M10 A3035 RMK SC6 SLP280

CYYG;2012-03-10 18:00;CYYG 101800Z 34008KT 15SM BKN031 M02/M11 A3035 RMK SC6 SLP281

CYYG;2012-03-10 19:00;CYYG 101900Z 02008KT 15SM BKN031 M03/M11 A3037 RMK SC5 SLP286

CYYG;2012-03-10 20:00;CYYG 102000Z 36006G15KT 15SM SCT030 M03/M10 A3038 RMK SC3 SLP290

CYYG;2012-03-10 21:00;CYYG 102100Z 01006KT 15SM FEW030 M03/M10 A3040 RMK SC2 SLP297

CYYG;2012-03-10 22:00;CYYG 102200Z 36005KT 15SM FEW030 M04/M11 A3042 RMK SC2 SLP303

CYYG;2012-03-10 23:00;CYYG 102300Z 36002KT 15SM FEW070 M05/M11 A3044 RMK AC1 SLP310

CYYG;2012-03-11 00:00;CYYG 110000Z 10002KT 15SM SKC M06/M11 A3044 RMK SLP312

CYYG;2012-03-11 01:00;CYYG 110100Z 09002KT 15SM SKC M07/M11 A3044 RMK FROIN SLP312

CYYG;2012-03-11 02:00;CYYG 110200Z 00000KT 15SM SKC M07/M10 A3045 RMK FROIN SLP316

CYYG;2012-03-11 03:00;CYYG 110300Z 36002KT 15SM SKC M10/M12 A3047 RMK FROIN SLP320

CYYG;2012-03-11 04:00;CYYG 110400Z 04002KT 15SM SCT050 M10/M13 A3046 RMK SC3 FROIN SLP319

CYYG;2012-03-11 05:00;CYYG 110500Z 00000KT 15SM FEW050 M09/M12 A3047 RMK SC1 FROIN SLP320

CYYG;2012-03-11 06:00;CYYG 110600Z 00000KT 15SM FEW050 M10/M13 A3047 RMK SC1 FROIN SLP322

CYYG;2012-03-11 07:00;CYYG 110700Z 00000KT 15SM SKC M11/M13 A3047 RMK FROIN SLP320

CYYG;2012-03-11 08:00;CYYG 110800Z 13002KT 15SM SKC M09/M12 A3047 RMK FROIN SLP320

CYYG;2012-03-11 09:00;CYYG 110900Z 15002KT 15SM SKC M10/M12 A3046 RMK FROIN SLP317

CYYG;2012-03-11 10:00;CYYG 111000Z 13003KT 15SM FEW050 M10/M13 A3046 RMK SC1 FROIN SLP317

CYYG;2012-03-11 11:00;CYYG 111100Z 17004KT 15SM FEW050 FEW250 M09/M12 A3046 RMK SC1CI0 SLP318

CYYG;2012-03-11 12:00;CYYG 111200Z 18005KT 15SM FEW050 BKN250 M07/M10 A3047 RMK SC1CI0 SLP321

CYYG;2012-03-11 13:00;CYYG 111300Z 20007KT 15SM FEW050 BKN250 M04/M09 A3046 RMK SC1CI2 SLP318

CYYG;2012-03-11 14:00;CYYG 111400Z 22007KT 15SM FEW050 BKN100 BKN250 M03/M09 A3045 RMK SC1AS2CS1 SLP315

CYYG;2012-03-11 15:00;CYYG 111500Z 22007KT 15SM SCT057 BKN100 M01/M10 A3043 RMK SC3AS1 SLP307

CYYG;2012-03-11 16:00;CYYG 111600Z 20008KT 15SM FEW032 SCT057 BKN090 M01/M09 A3041 RMK CF1SC2AS1 SLP301

CYYG;2012-03-11 17:00;CYYG 111700Z 20005KT 15SM FEW030 BKN040 BKN090 M00/M08 A3037 RMK SC2NS3AS1 SLP289

CYYG;2012-03-11 18:00;CYYG 111800Z 19007KT 15SM BKN036 BKN120 00/M08 A3034 RMK NS5AS2 SLP278

CYYG;2012-03-11 18:41;CYYG 111841Z 20009KT 12SM -SHSN BKN027 01/ RMK NS7 VIS LWR W-NW

CYYG;2012-03-11 19:00;CYYG 111900Z 21010KT 12SM -SHSN BKN025 01/M07 A3030 RMK NS7 VIS W-NW 4 SLP264

CYYG;2012-03-11 19:22;CYYG 111922Z 21011KT 12SM VCSH SCT025 BKN044 01/ RMK SC3SC4

CYYG;2012-03-11 20:00;CYYG 112000Z 22011KT 15SM VCSH FEW025 BKN046 01/M05 A3027 RMK SC2SC4 SLP252

CYYG;2012-03-11 20:34;CYYG 112034Z 21011KT 15SM -SHSN FEW025 BKN038 01/ RMK SC2SC5

CYYG;2012-03-11 21:00;CYYG 112100Z 20009KT 12SM -SHSN FEW025 OVC038 01/M05 A3024 RMK SC2SC6 VIS LWR NW SLP243

CYYG;2012-03-11 22:00;CYYG 112200Z 22013KT 12SM -SHSN OVC039 02/M05 A3022 RMK SC8 VIS W-NW 6 SLP236

CYYG;2012-03-11 23:00;CYYG 112300Z 21008KT 10SM -SHSN OVC031 01/M03 A3022 RMK SC8 SLP235

CYYG;2012-03-12 00:00;CYYG 120000Z 21012KT 8SM -SHSN OVC024 M00/M03 A3020 RMK SC8 SLP229

CYYG;2012-03-12 01:00;CYYG 120100Z 22007KT 10SM -SHSN OVC014 M00/M03 A3019 RMK SC8 SLP226

CYYG;2012-03-12 02:00;CYYG 120200Z 22008KT 12SM -SHSN OVC014 00/M02 A3017 RMK SC8 SLP220

CYYG;2012-03-12 02:49;CYYG 120249Z 22007KT 15SM OVC011 00/ RMK SC8

CYYG;2012-03-12 03:00;CYYG 120300Z 23005KT 15SM BKN011 BKN080 OVC120 00/M03 A3017 RMK SC5AC2AC1 SLP219

CYYG;2012-03-12 04:00;CYYG 120400Z 24004KT 15SM SCT012 SCT080 M01/M03 A3016 RMK SC3AC1 SLP217

CYYG;2012-03-12 05:00;CYYG 120500Z 23005KT 15SM FEW015 M01/M03 A3015 RMK SC2 SLP214

CYYG;2012-03-12 06:00;CYYG 120600Z 23004KT 15SM FEW015 M01/M03 A3014 RMK SC1 SLP210

CYYG;2012-03-12 07:00;CYYG 120700Z 24004KT 15SM FEW015 M02/M04 A3012 RMK SC1 SLP202

CYYG;2012-03-12 08:00;CYYG 120800Z 22003KT 15SM FEW015 BKN090 M02/M04 A3011 RMK SC1AC6 SLP197

CYYG;2012-03-12 09:00;CYYG 120900Z 22005KT 15SM FEW015 BKN100 M01/M03 A3010 RMK SC1AC4 SLP195

CYYG;2012-03-12 10:00;CYYG 121000Z 22006KT 15SM FEW015 SCT100 M01/M03 A3009 RMK SC1AC3 SLP191

CYYG;2012-03-12 11:00;CYYG 121100Z 24005KT 6SM BR FEW100 BKN250 M02/M04 A3009 RMK AC2CI1 SLP193

CYYG;2012-03-12 12:00;CYYG 121200Z 26006KT 10SM FEW100 BKN250 00/M02 A3009 RMK AC1CI2 SLP193

CYYG;2012-03-12 13:00;CYYG 121300Z 27008KT 10SM FEW100 BKN250 02/M03 A3010 RMK AC1CI2 SLP196

CYYG;2012-03-12 14:00;CYYG 121400Z 29006KT 15SM FEW250 04/M04 A3009 RMK CI1 SLP193

CYYG;2012-03-12 15:00;CYYG 121500Z 29005KT 15SM FEW250 05/M03 A3009 RMK CI0 SLP192

CYYG;2012-03-12 16:00;CYYG 121600Z 29007KT 15SM FEW250 05/M04 A3009 RMK CI0 SLP191

CYYG;2012-03-12 17:00;CYYG 121700Z 29008KT 15SM FEW030 06/M03 A3009 RMK CU1 SLP190

CYYG;2012-03-12 18:00;CYYG 121800Z 29008KT 15SM FEW030 06/M04 A3008 RMK CU1 SLP189

CYYG;2012-03-12 19:00;CYYG 121900Z 33006KT 15SM FEW030 06/M03 A3008 RMK CU1 SLP189

CYYG;2012-03-12 20:00;CYYG 122000Z 01007KT 15SM FEW030 04/M04 A3009 RMK CU1 SLP190

CYYG;2012-03-12 21:00;CYYG 122100Z 01007KT 15SM FEW250 03/M05 A3009 RMK CI0 SLP191

CYYG;2012-03-12 22:00;CYYG 122200Z 01002KT 15SM FEW250 02/M06 A3009 RMK CI0 SLP191

CYYG;2012-03-12 23:00;CYYG 122300Z 00000KT 15SM FEW250 M00/M06 A3009 RMK CI0 SLP193

CYYG;2012-03-13 00:00;CYYG 130000Z 19004KT 15SM FEW250 01/M06 A3010 RMK CI0 SLP195

CYYG;2012-03-13 01:00;CYYG 130100Z 23005KT 15SM FEW250 M00/M06 A3011 RMK CI0 SLP197

CYYG;2012-03-13 02:00;CYYG 130200Z 23008KT 15SM FEW250 00/M06 A3011 RMK CI0 SLP198

CYYG;2012-03-13 03:00;CYYG 130300Z 32002KT 15SM SKC 00/M06 A3011 RMK SLP198

CYYG;2012-03-13 04:00;CYYG 130400Z 27004KT 15SM SKC M00/M06 A3013 RMK SLP205

CYYG;2012-03-13 05:00;CYYG 130500Z 32006KT 15SM FEW270 01/M07 A3013 RMK CI0 SLP206

CYYG;2012-03-13 06:00;CYYG 130600Z 35006KT 15SM SCT250 01/M08 A3014 RMK CI1 SLP210

CYYG;2012-03-13 07:00;CYYG 130700Z 02011KT 15SM BKN240 M01/M07 A3017 RMK CI2 SLP219

CYYG;2012-03-13 08:00;CYYG 130800Z 03011KT 15SM BKN230 M02/M09 A3020 RMK CI2 SLP228

CYYG;2012-03-13 09:00;CYYG 130900Z 03011KT 15SM OVC180 M02/M08 A3022 RMK AS2 SLP234

CYYG;2012-03-13 10:00;CYYG 131000Z 03011KT 15SM OVC150 M02/M09 A3023 RMK AS3 SLP239

CYYG;2012-03-13 11:00;CYYG 131100Z 02007KT 15SM BKN130 M02/M09 A3025 RMK AS6 SLP247

CYYG;2012-03-13 12:00;CYYG 131200Z 04012KT 15SM OVC110 M02/M10 A3027 RMK AS5 SLP253

CYYG;2012-03-13 13:00;CYYG 131300Z 04009KT 15SM FEW110 OVC300 M02/M10 A3029 RMK AC2CS1 SLP259

CYYG;2012-03-13 14:00;CYYG 131400Z 04009KT 15SM BKN097 BKN300 M02/M10 A3029 RMK AC6CI1 SLP261

CYYG;2012-03-13 15:00;CYYG 131500Z 04010KT 15SM FEW020 BKN092 M02/M10 A3029 RMK SC1AC6 SLP259

CYYG;2012-03-13 16:00;CYYG 131600Z 04009KT 15SM FEW020 BKN082 M02/M09 A3030 RMK SC1AC6 SLP264

CYYG;2012-03-13 17:00;CYYG 131700Z 07007KT 15SM FEW020 BKN080 M02/M09 A3028 RMK SC1AC6 SLP257

CYYG;2012-03-13 18:00;CYYG 131800Z 06008KT 15SM FEW020 OVC058 M01/M09 A3028 RMK SC1SC7 SLP257

CYYG;2012-03-13 19:00;CYYG 131900Z 06010KT 15SM FEW020 OVC061 M02/M08 A3025 RMK SC1SC7 SLP248

CYYG;2012-03-13 20:00;CYYG 132000Z 07014KT 15SM FEW020 OVC050 M02/M09 A3026 RMK SC2SC6 OBS TAKEN + 13 SLP250

CYYG;2012-03-13 21:00;CYYG 132100Z 07012KT 15SM FEW020 OVC051 M03/M09 A3027 RMK SC1SC7 SLP253

CYYG;2012-03-13 22:00;CYYG 132200Z 08012G18KT 15SM FEW020 OVC057 M03/M10 A3026 RMK SC1SC7 SLP251

CYYG;2012-03-13 23:00;CYYG 132300Z 09011KT 15SM OVC070 M03/M10 A3024 RMK AC8 SLP244

CYYG;2012-03-14 00:00;CYYG 140000Z 08011KT 15SM OVC065 M04/M09 A3024 RMK SC8 SLP243

CYYG;2012-03-14 01:00;CYYG 140100Z 12009KT 15SM BKN020 OVC045 M04/M08 A3025 RMK SC5SC3 SLP248

CYYG;2012-03-14 01:10;CYYG 140110Z 12010KT 15SM -SHSN OVC014 M04/ RMK SC8

CYYG;2012-03-14 01:23;CYYG 140123Z 12009KT 3SM -SN OVC009 M04/ RMK SN3SF5

CYYG;2012-03-14 01:50;CYYG 140150Z 11008KT 3/4SM R03/5000FT/D -SN VV003 M04/ RMK SN8

CYYG;2012-03-14 02:00;CYYG 140200Z 10009KT 3/4SM R03/5500FT/N -SN VV003 M04/M06 A3025 RMK SN8 SLP246

CYYG;2012-03-14 02:33;CYYG 140233Z 07008KT 1 1/2SM -SN OVC014 M04/ RMK SN5SC3

CYYG;2012-03-14 03:00;CYYG 140300Z 05007KT 2SM -SN OVC014 M04/M06 A3025 RMK SN2SC6 SLP247

CYYG;2012-03-14 04:00;CYYG 140400Z 06008KT 2SM -SN OVC012 M04/M07 A3025 RMK SN2SC6 /S02/ SLP248

CYYG;2012-03-14 04:43;CYYG 140443Z 07006KT 6SM -SN OVC011 M04/ RMK SC8

CYYG;2012-03-14 05:00;CYYG 140500Z 08007KT 10SM -SN OVC011 M04/M06 A3025 RMK SC8 SLP248

CYYG;2012-03-14 06:00;CYYG 140600Z 10011KT 12SM -SN BKN011 OVC020 M03/M06 A3026 RMK SC6SC2 /S03/ SLP249

CYYG;2012-03-14 07:00;CYYG 140700Z 09011KT 15SM BKN011 OVC036 M03/M06 A3025 RMK SC5SC3 SLP248

CYYG;2012-03-14 08:00;CYYG 140800Z 08008KT 15SM SCT010 OVC022 M03/M06 A3027 RMK SC3SC5 SLP253

CYYG;2012-03-14 08:52;CYYG 140852Z 08012KT 12SM -SN FEW010 OVC031 M03/ RMK SC2SC6

CYYG;2012-03-14 09:00;CYYG 140900Z 08009G15KT 12SM -SN FEW010 OVC032 M03/M06 A3027 RMK SC2SC6 SLP252

CYYG;2012-03-14 10:00;CYYG 141000Z 07009KT 15SM -SN SCT012 OVC030 M04/M07 A3029 RMK SC4SC4 SLP261

CYYG;2012-03-14 11:00;CYYG 141100Z 07015KT 10SM -SN FEW006 OVC021 M04/M06 A3029 RMK SF2SC6 SLP260

CYYG;2012-03-14 11:25;CYYG 141125Z 07011G16KT 12SM SCT008 OVC021 M04/ RMK SF3SC5

CYYG;2012-03-14 12:00;CYYG 141200Z 08014KT 15SM SCT008 OVC022 M03/M06 A3030 RMK SF3SC5 SLP263

CYYG;2012-03-14 13:00;CYYG 141300Z 08009KT 15SM SCT008 OVC022 M03/M06 A3033 RMK SF3SC5 SLP272

CYYG;2012-03-14 14:00;CYYG 141400Z 08012KT 15SM SCT008 OVC020 M02/M06 A3031 RMK SF3SC5 SLP268

CYYG;2012-03-14 15:00;CYYG 141500Z 08007KT 15SM SCT008 OVC017 M02/M06 A3035 RMK SF3SC5 SLP280

CYYG;2012-03-14 16:00;CYYG 141600Z 07007KT 15SM SCT008 OVC022 M01/M05 A3033 RMK SF3SC5 SLP275

CYYG;2012-03-14 17:00;CYYG 141700Z 08012KT 15SM FEW010 OVC024 M01/M05 A3033 RMK SF2SC6 SLP273

CYYG;2012-03-14 18:00;CYYG 141800Z 09011KT 15SM SCT012 OVC017 M01/M05 A3033 RMK SF3SC5 SLP274

CYYG;2012-03-14 18:52;CYYG 141852Z 06009KT 15SM -SN SCT012 OVC018 M01/ RMK SF3SC5

CYYG;2012-03-14 19:00;CYYG 141900Z 07009KT 8SM -SN SCT012 OVC021 M01/M05 A3033 RMK SF4SC4 SLP272

CYYG;2012-03-14 19:19;CYYG 141919Z 06012KT 3SM -SN BKN010 OVC024 M01/ RMK SF5SC3

CYYG;2012-03-14 20:00;CYYG 142000Z 06010KT 3SM -SN BKN011 OVC028 M02/M04 A3032 RMK SF6SC2 SLP270

CYYG;2012-03-14 20:25;CYYG 142025Z 07012G17KT 1 1/2SM -SN BKN008 OVC024 M02/ RMK SF6SC2

CYYG;2012-03-14 21:00;CYYG 142100Z 08014KT 3SM -SN BKN008 OVC024 M02/M04 A3032 RMK SF6SC2 SLP271

CYYG;2012-03-14 22:00;CYYG 142200Z 08010KT 3SM -SN BKN010 OVC024 M01/M04 A3033 RMK SF6SC2 SLP272

CYYG;2012-03-14 23:00;CYYG 142300Z 08017KT 2SM -SN OVC010 M02/M05 A3033 RMK SN3SF5 /S01/ SLP272

CYYG;2012-03-15 00:00;CYYG 150000Z 07010KT 2SM -SN OVC010 M02/M05 A3034 RMK SN4SF4 /S01/ SLP278

CYYG;2012-03-15 01:00;CYYG 150100Z 07015KT 2SM -SN OVC010 M02/M05 A3034 RMK SN4SF4 /S01/ SLP278

CYYG;2012-03-15 02:00;CYYG 150200Z 06014G21KT 1 1/2SM R03/5500FT/U -SN VV009 M02/M05 A3034 RMK SN8 /S02/ SLP278

CYYG;2012-03-15 03:00;CYYG 150300Z 06014KT 2SM R03/5500FT/N -SN BKN009 OVC033 M03/M05 A3034 RMK SN3SF3SC2 /S03/ SLP277

CYYG;2012-03-15 03:40;CYYG 150340Z 05014G19KT 3SM -SN OVC033 M02/ RMK SN3SC5

CYYG;2012-03-15 04:00;CYYG 150400Z 05014G20KT 6SM -PLSN OVC033 M02/M05 A3033 RMK SN2SC6 SLP275

CYYG;2012-03-15 05:00;CYYG 150500Z 05016KT 6SM -PLSN OVC032 M02/M05 A3033 RMK SC8 SLP273

CYYG;2012-03-15 06:00;CYYG 150600Z 06013G18KT 4SM -SN OVC035 M02/M05 A3032 RMK SN3SC5 /S04/ SLP270

CYYG;2012-03-15 07:00;CYYG 150700Z 06010KT 3SM -SN BKN007 OVC030 M03/M05 A3032 RMK SC6SC2 SLP269

CYYG;2012-03-15 08:00;CYYG 150800Z 06014KT 5SM -SN BKN007 OVC040 M02/M05 A3031 RMK SF5SC3 /S02/ SLP267

CYYG;2012-03-15 08:32;CYYG 150832Z 06012KT 1SM R03/P6000FT/N -SN OVC007 M03/ RMK SN3SF5

CYYG;2012-03-15 09:00;CYYG 150900Z 05013KT 2SM -SN OVC009 M02/M05 A3031 RMK SN2SF6 SLP267

CYYG;2012-03-15 10:00;CYYG 151000Z 05016KT 2SM -SN DRSN BKN009 OVC051 M02/M05 A3031 RMK SN2SF5SC2 SLP267

CYYG;2012-03-15 10:28;CYYG 151028Z 05015G20KT 5/8SM R03/3500VP6000FT/D -SN DRSN VV005 M02/ RMK SN8

CYYG;2012-03-15 11:00;CYYG 151100Z 04015KT 1SM R03/5500FT/U -SN DRSN BKN007 OVC030 M02/M05 A3032 RMK SN5SF2NS2 SLP270

CYYG;2012-03-15 11:44;CYYG 151144Z 15013KT 2 1/2SM -SN DRSN BKN007 OVC028 M02/ RMK SN3SF2NS2

CYYG;2012-03-15 12:00;CYYG 151200Z 05014KT 3SM -SN DRSN BKN007 OVC028 M02/M04 A3033 RMK SN3SF2NS2 /S03/ SLP274

CYYG;2012-03-15 12:52;CYYG 151252Z 05016G21KT 2 1/2SM -SNPL DRSN BKN007 OVC028 M02/ RMK SN3SF2NS2

CYYG;2012-03-15 13:00;CYYG 151300Z 05016G21KT 2 1/2SM -SNPL DRSN BKN007 OVC028 M02/M05 A3034 RMK SN3SF2NS2 SLP276

CYYG;2012-03-15 14:00;CYYG 151400Z 05016KT 4SM -SNPL SCT007 OVC028 M02/M05 A3034 RMK SF3NS5 SLP278

CYYG;2012-03-15 14:25;CYYG 151425Z 05014G19KT 8SM -SN SCT007 OVC025 M01/ RMK SF3NS5

CYYG;2012-03-15 15:00;CYYG 151500Z 05015KT 8SM -SN DRSN BKN009 OVC025 M02/M05 A3034 RMK SF5NS3 VIS LWR NE-E SLP277

CYYG;2012-03-15 15:09;CYYG 151509Z 05014G20KT 2 1/2SM -SG DRSN BKN008 OVC025 M02/ RMK SF6NS2

CYYG;2012-03-15 15:48;CYYG 151548Z 05015G21KT 1 1/2SM -SNSG DRSN BKN008 OVC025 M02/ RMK SN2SF3NS2

CYYG;2012-03-15 16:00;CYYG 151600Z 05015G20KT 2SM -SNSG DRSN BKN008 OVC025 M02/M05 A3033 RMK SN2SF3NS2 SLP272

CYYG;2012-03-15 17:00;CYYG 151700Z 05019KT 6SM -SN DRSN BKN008 OVC025 M02/M05 A3032 RMK SF6NS2 SLP269

CYYG;2012-03-15 17:30;CYYG 151730Z 04014G19KT 6SM -SG BKN009 OVC023 M02/ RMK SF6NS2

CYYG;2012-03-15 18:00;CYYG 151800Z 05018KT 6SM -SG BKN009 OVC024 M02/M05 A3031 RMK SF6NS2 SLP265

CYYG;2012-03-15 18:45;CYYG 151845Z 06016G22KT 6SM -SG -FZDZ BR BKN009 OVC024 M02/ RMK SF6NS2

CYYG;2012-03-15 19:00;CYYG 151900Z 05013G20KT 5SM -SG -FZDZ BR OVC009 M02/M05 A3031 RMK SF8 SLP265

CYYG;2012-03-15 20:00;CYYG 152000Z CCA 05015KT 2 1/2SM -SG BR OVC006 M02/M05 A3030 REFZDZ RMK SF8 OBS TAKEN +09 SLP262

CYYG;2012-03-15 21:00;CYYG 152100Z 05012G20KT 2SM -SG BR OVC007 M02/M05 A3030 RMK SF8 SLP263

CYYG;2012-03-15 22:00;CYYG 152200Z 05012G17KT 2 1/2SM -SG BR OVC008 M02/M05 A3031 RMK SF8 SLP265

CYYG;2012-03-15 23:00;CYYG 152300Z 04011G16KT 5SM -SG OVC008 M03/M05 A3032 RMK SF8 SLP269

CYYG;2012-03-15 23:30;CYYG 152330Z 05010G15KT 10SM -FZDZ OVC007 M02/ RMK SF8

CYYG;2012-03-16 00:00;CYYG 160000Z 04009KT 10SM -FZDZ OVC006 M02/M05 A3032 RMK SF8 SLP270

CYYG;2012-03-16 01:00;CYYG 160100Z 05011KT 12SM -FZDZ OVC008 M02/M05 A3032 RMK SF8 SLP270

CYYG;2012-03-16 01:19;CYYG 160119Z 04011KT 10SM -SN OVC010 M02/ RMK SF8 REFZDZ

CYYG;2012-03-16 02:00;CYYG 160200Z 03011KT 10SM -SN OVC009 M03/M05 A3031 RMK SF8 REFZDZ SLP265

CYYG;2012-03-16 03:00;CYYG 160300Z 03010KT 12SM -SN OVC008 M02/M05 A3030 RMK SF8 SLP262

CYYG;2012-03-16 04:00;CYYG 160400Z 04011KT 15SM BKN010 OVC040 M02/M05 A3027 RMK SF6SC2 SLP253

CYYG;2012-03-16 05:00;CYYG 160500Z 04009KT 15SM BKN012 BKN041 M02/M05 A3025 RMK SF5SC2 SLP248

CYYG;2012-03-16 06:00;CYYG 160600Z 03009KT 15SM BKN011 OVC040 M02/M05 A3024 RMK SF5SC3 SLP244

CYYG;2012-03-16 07:00;CYYG 160700Z 03007KT 15SM BKN010 OVC040 M02/M05 A3023 RMK SF7SC1 SLP240

CYYG;2012-03-16 08:00;CYYG 160800Z 36005KT 15SM BKN012 OVC028 M02/M05 A3023 RMK SF6SC2 SLP241

CYYG;2012-03-16 09:00;CYYG 160900Z 35007KT 15SM BKN015 OVC024 M02/M05 A3023 RMK SC6SC2 SLP241

CYYG;2012-03-16 10:00;CYYG 161000Z 36004KT 15SM BKN015 OVC033 M02/M05 A3024 RMK SC5SC3 SLP242

CYYG;2012-03-16 11:00;CYYG 161100Z 35005KT 15SM FEW015 OVC033 M02/M05 A3024 RMK SC1SC7 SLP242

CYYG;2012-03-16 11:48;CYYG 161148Z 36005KT 15SM FEW008 OVC035 M02/ RMK SF1SC7

CYYG;2012-03-16 12:00;CYYG 161200Z 36007KT 15SM FEW008 OVC035 M02/M05 A3024 RMK SF1SC7 SLP243

CYYG;2012-03-16 12:30;CYYG 161230Z 01007KT 15SM BKN008 OVC035 M01/ RMK SF6SC2

CYYG;2012-03-16 13:00;CYYG 161300Z 36006KT 15SM FEW008 OVC033 M01/M04 A3024 RMK SF2SC6 SLP243

CYYG;2012-03-16 14:00;CYYG 161400Z 36004KT 15SM FEW008 OVC040 M00/M05 A3023 RMK SF2SC5 SLP238

CYYG;2012-03-16 15:00;CYYG 161500Z 35006KT 15SM FEW008 BKN042 00/M06 A3020 RMK SF1SC6 SLP231

CYYG;2012-03-16 16:00;CYYG 161600Z 36007KT 15SM BKN037 01/M07 A3019 RMK SC6 SLP225

CYYG;2012-03-16 17:00;CYYG 161700Z 33007KT 15SM BKN028 BKN040 01/M09 A3018 RMK SC5SC2 SLP223

CYYG;2012-03-16 18:00;CYYG 161800Z 04005KT 15SM FEW028 BKN048 01/M10 A3016 RMK SC1SC6 SLP215

CYYG;2012-03-16 19:00;CYYG 161900Z 33004KT 15SM BKN046 01/M09 A3014 RMK SC7 SLP209

CYYG;2012-03-16 20:00;CYYG 162000Z 04003KT 15SM BKN045 01/M09 A3011 RMK SC7 SLP200

CYYG;2012-03-16 21:00;CYYG 162100Z 03002KT 15SM BKN043 01/M10 A3011 RMK SC7 SLP198

CYYG;2012-03-16 22:00;CYYG 162200Z 03002KT 15SM BKN040 01/M10 A3010 RMK SC7 SLP195

CYYG;2012-03-16 23:00;CYYG 162300Z 00000KT 15SM BKN038 01/M09 A3009 RMK SC7 SLP193

CYYG;2012-03-17 00:00;CYYG 170000Z 00000KT 15SM BKN036 01/M09 A3010 RMK SC7 SLP195

CYYG;2012-03-17 01:00;CYYG 170100Z 15002KT 15SM OVC032 01/M07 A3010 RMK SC8 SLP194

CYYG;2012-03-17 02:00;CYYG 170200Z 19004KT 15SM OVC030 00/M05 A3009 RMK SC8 SLP190

CYYG;2012-03-17 02:15;CYYG 170215Z 23004KT 15SM -SN BKN030 OVC041 01/ RMK SC6SC2

CYYG;2012-03-17 03:00;CYYG 170300Z 24005KT 10SM -SN BKN031 OVC048 M00/M06 A3008 RMK SC6SC2 SLP188

CYYG;2012-03-17 03:45;CYYG 170345Z 24006KT 10SM -FZRA BKN021 OVC031 M01/ RMK SC6SC2

CYYG;2012-03-17 04:00;CYYG 170400Z 24005KT 15SM -FZRA SCT021 OVC024 M01/M04 A3006 RMK SC3SC5 SLP183

CYYG;2012-03-17 04:12;CYYG 170412Z 25006KT 10SM -SN OVC021 M01/ REFZRA RMK SC8

CYYG;2012-03-17 05:00;CYYG 170500Z 24004KT 15SM -SN BKN019 OVC072 M01/M03 A3006 REFZRA RMK SC6AC2 SLP180

CYYG;2012-03-17 05:03;CYYG 170503Z 25005KT 15SM -FZRA BKN019 BKN033 OVC072 M01/ RMK SC5SC2AC2

CYYG;2012-03-17 05:28;CYYG 170528Z 25005KT 15SM -FZDZ BKN019 OVC074 M00/ REFZRA RMK SC6AC2

CYYG;2012-03-17 06:00;CYYG 170600Z 27003KT 15SM -FZDZ BKN005 OVC017 M00/M02 A3006 REFZRA RMK SF6SC2 SLP180

CYYG;2012-03-17 06:09;CYYG 170609Z 27003KT 6SM -SN OVC006 M00/ REFZDZ RMK SF8

CYYG;2012-03-17 07:00;CYYG 170700Z 26002KT 10SM -SN BKN002 OVC006 M00/M02 A3005 REFZDZ RMK SF5SF3 SLP177

CYYG;2012-03-17 08:00;CYYG 170800Z 30005KT 10SM -SN OVC004 00/M01 A3006 RMK SF8 SLP182

CYYG;2012-03-17 09:00;CYYG 170900Z 32007KT 15SM -SN OVC004 01/M01 A3008 RMK SF8 SLP187

CYYG;2012-03-17 09:07;CYYG 170907Z 32007KT 15SM OVC004 01/ RMK SF8

CYYG;2012-03-17 10:00;CYYG 171000Z 34010KT 15SM OVC004 01/M01 A3010 RMK SF8 SLP194

CYYG;2012-03-17 10:33;CYYG 171033Z 36009G15KT 8SM OVC003 00/ RMK SF8

CYYG;2012-03-17 11:00;CYYG 171100Z 34009KT 5SM BR OVC003 M00/M02 A3012 RMK SF8 SLP203

CYYG;2012-03-17 12:00;CYYG 171200Z 34008KT 3SM BR OVC003 M01/M03 A3016 RMK SF8 SLP215

CYYG;2012-03-17 12:24;CYYG 171224Z 34008KT 1 1/2SM BR OVC002 M01/ RMK SF8

CYYG;2012-03-17 12:30;CYYG 171230Z 34008KT 1/2SM R03/3500VP6000FT/D FZFG OVC002 M01/ RMK FG4SF4

CYYG;2012-03-17 12:40;CYYG 171240Z 34007KT 1 1/2SM R03/3500VP6000FT/U BR OVC002 M01/ RMK SF8

CYYG;2012-03-17 13:00;CYYG 171300Z 34010KT 1 1/2SM BR BKN002 M01/M03 A3020 RMK SF7 SLP228

CYYG;2012-03-17 13:24;CYYG 171324Z 34005KT 5SM BR BKN003 M01/ RMK SF6

CYYG;2012-03-17 13:50;CYYG 171350Z 33007KT 15SM BKN004 M00/ RMK SF6

CYYG;2012-03-17 14:00;CYYG 171400Z 33006KT 15SM SCT005 M00/M03 A3021 RMK SF4 SLP231

CYYG;2012-03-17 15:00;CYYG 171500Z 33008KT 15SM FEW009 01/M03 A3021 RMK SF1 SLP232

CYYG;2012-03-17 16:00;CYYG 171600Z 32009KT 15SM FEW012 FEW300 03/M03 A3022 RMK CF1CI1 SLP236

CYYG;2012-03-17 17:00;CYYG 171700Z 31007KT 15SM FEW015 FEW300 04/M03 A3021 RMK CF1CI1 SLP232

CYYG;2012-03-17 18:00;CYYG 171800Z 31005KT 15SM FEW300 05/M03 A3019 RMK CI1 SLP224

CYYG;2012-03-17 19:00;CYYG 171900Z 25008KT 15SM FEW300 06/M03 A3018 RMK CI1 SLP222

CYYG;2012-03-17 20:00;CYYG 172000Z 25008KT 15SM BKN300 06/M02 A3018 RMK CI1 SLP222

CYYG;2012-03-17 21:00;CYYG 172100Z 25005KT 15SM BKN300 07/M04 A3018 RMK CI2 CONTRAILS SLP222

CYYG;2012-03-17 22:00;CYYG 172200Z 23005KT 15SM BKN300 06/M03 A3018 RMK CI3 CONTRAILS SLP221

CYYG;2012-03-17 23:00;CYYG 172300Z 25006KT 15SM BKN220 05/M04 A3019 RMK CI2 SLP226

CYYG;2012-03-18 00:00;CYYG 180000Z 25008KT 15SM BKN210 04/M02 A3020 RMK CI2 SLP228

CYYG;2012-03-18 01:00;CYYG 180100Z 25008KT 15SM BKN210 04/M02 A3022 RMK CI1 SLP234

CYYG;2012-03-18 02:00;CYYG 180200Z 25007KT 15SM SCT210 04/M02 A3021 RMK CI0 SLP233

CYYG;2012-03-18 03:00;CYYG 180300Z 26007KT 15SM SKC 04/M02 A3021 RMK SLP232

CYYG;2012-03-18 04:00;CYYG 180400Z 26009KT 15SM SKC 04/M02 A3020 RMK SLP227

CYYG;2012-03-18 05:00;CYYG 180500Z 26009KT 15SM SKC 04/M03 A3019 RMK SLP225

CYYG;2012-03-18 06:00;CYYG 180600Z 24007KT 15SM SKC 02/M03 A3018 RMK SLP221

CYYG;2012-03-18 07:00;CYYG 180700Z 25007KT 15SM SKC 03/M03 A3016 RMK SLP214

CYYG;2012-03-18 08:00;CYYG 180800Z 24009KT 15SM SKC 03/M03 A3013 RMK SLP206

CYYG;2012-03-18 09:00;CYYG 180900Z 22006KT 15SM BKN300 03/M03 A3013 RMK CI2 SLP206

CYYG;2012-03-18 10:00;CYYG 181000Z 23008KT 15SM SCT300 03/M04 A3012 RMK CI2 SLP201

CYYG;2012-03-18 11:00;CYYG 181100Z 23012KT 15SM BKN280 05/M05 A3010 RMK CI5 CONTRAILS SLP194

CYYG;2012-03-18 12:00;CYYG 181200Z 24013G22KT 15SM FEW070 BKN280 06/M07 A3008 RMK AC1CI5 SLP189

CYYG;2012-03-18 13:00;CYYG 181300Z 23017G22KT 15SM BKN050 BKN280 06/M07 A3006 RMK SC6CI1 SLP182

CYYG;2012-03-18 14:00;CYYG 181400Z 23018KT 15SM BKN040 BKN280 07/M04 A3003 RMK SC5CI1 SLP171

CYYG;2012-03-18 15:00;CYYG 181500Z 23019G25KT 15SM FEW035 BKN250 08/M01 A2998 RMK SC1CI2 SLP154

CYYG;2012-03-18 16:00;CYYG 181600Z 25016KT 15SM FEW035 BKN250 09/01 A2998 RMK SC2CI3 SLP153

CYYG;2012-03-18 17:00;CYYG 181700Z 24017KT 15SM FEW150 BKN200 09/02 A2995 RMK AC1CS6 G28 PST HR SLP142

CYYG;2012-03-18 18:00;CYYG 181800Z 25013G18KT 15SM FEW070 FEW150 BKN200 08/03 A2992 RMK AC1AC1CI2 SLP134

CYYG;2012-03-18 19:00;CYYG 181900Z 25011G17KT 15SM SCT140 BKN250 09/03 A2990 RMK AC3CI2 SLP126

CYYG;2012-03-18 20:00;CYYG 182000Z 26009KT 15SM FEW150 BKN250 08/03 A2990 RMK AC2CI2 SLP127

CYYG;2012-03-18 21:00;CYYG 182100Z 25011G17KT 15SM FEW150 BKN250 08/03 A2988 RMK AC1CI2 SLP120

CYYG;2012-03-18 22:00;CYYG 182200Z 25011G18KT 15SM FEW150 BKN250 06/03 A2987 RMK AC1CI2 CONTRAILS SLP117

CYYG;2012-03-18 23:00;CYYG 182300Z 25012G17KT 15SM FEW150 BKN250 06/03 A2988 RMK AC2CI3 SLP119

CYYG;2012-03-19 00:00;CYYG 190000Z 25015KT 15SM FEW150 BKN250 06/02 A2987 RMK AC2CI4 SLP116

CYYG;2012-03-19 01:00;CYYG 190100Z 25014G23KT 15SM FEW150 BKN220 05/02 A2987 RMK AC2CI4 SLP115

CYYG;2012-03-19 02:00;CYYG 190200Z 26013KT 15SM FEW220 06/03 A2986 RMK CI2 SLP112

CYYG;2012-03-19 03:00;CYYG 190300Z 26009G15KT 15SM SCT220 05/03 A2987 RMK CI4 SLP118

CYYG;2012-03-19 04:00;CYYG 190400Z 27007KT 15SM FEW220 05/03 A2988 RMK CI2 SLP121

CYYG;2012-03-19 05:00;CYYG 190500Z 30008KT 15SM FEW220 09/05 A2990 RMK CI2 SLP127

CYYG;2012-03-19 06:00;CYYG 190600Z 32004KT 15SM FEW220 07/03 A2993 RMK CI2 SLP137

CYYG;2012-03-19 07:00;CYYG 190700Z 36014G25KT 15SM FEW220 08/01 A2998 RMK CI2 SLP154

CYYG;2012-03-19 08:00;CYYG 190800Z 02012KT 15SM SCT220 04/M02 A3003 RMK CI4 SLP169

CYYG;2012-03-19 09:00;CYYG 190900Z 01009KT 15SM FEW220 03/M03 A3007 RMK CI2 SLP184

CYYG;2012-03-19 10:00;CYYG 191000Z 02006KT 15SM BKN220 01/M03 A3012 RMK CI5 SLP201

CYYG;2012-03-19 11:00;CYYG 191100Z 01009KT 15SM SCT220 BKN260 01/M04 A3017 RMK CI1CI2 SLP220

CYYG;2012-03-19 12:00;CYYG 191200Z 03017KT 15SM FEW220 BKN260 01/M05 A3022 RMK CI1CI2 SLP234

CYYG;2012-03-19 13:00;CYYG 191300Z 03018KT 15SM BKN260 01/M07 A3025 RMK CI1 SLP247

CYYG;2012-03-19 14:00;CYYG 191400Z 04016KT 15SM BKN260 02/M07 A3028 RMK CI2 SLP256

CYYG;2012-03-19 15:00;CYYG 191500Z 02014KT 15SM BKN260 02/M06 A3031 RMK CI2 SLP265

CYYG;2012-03-19 16:00;CYYG 191600Z 03013KT 15SM BKN260 02/M06 A3033 RMK CI2 CONTRAILS SLP272

CYYG;2012-03-19 17:00;CYYG 191700Z 04012KT 15SM BKN260 02/M06 A3034 RMK CI2 CONTRAILS SLP277

CYYG;2012-03-19 18:00;CYYG 191800Z 05006KT 15SM BKN260 01/M06 A3036 RMK CI2 CONTRAILS SLP282

CYYG;2012-03-19 19:00;CYYG 191900Z 03007KT 15SM OVC260 02/M06 A3036 RMK CI2 CONTRAILS SLP284

CYYG;2012-03-19 20:00;CYYG 192000Z 03007KT 15SM OVC260 02/M06 A3036 RMK CI2 CONTRAILS SLP281

CYYG;2012-03-19 21:00;CYYG 192100Z 03004KT 15SM OVC260 00/M06 A3036 RMK CI2 CONTRAILS SLP283

CYYG;2012-03-19 22:00;CYYG 192200Z 36004KT 15SM OVC260 M00/M07 A3037 RMK CI2 CONTRAILS SLP287

CYYG;2012-03-19 23:00;CYYG 192300Z 03004KT 15SM BKN260 M02/M07 A3037 RMK CI2 SLP288

CYYG;2012-03-20 00:00;CYYG 200000Z 09003KT 15SM BKN260 M02/M07 A3037 RMK CI2 SLP288

CYYG;2012-03-20 01:00;CYYG 200100Z 13003KT 15SM BKN260 M03/M07 A3037 RMK CI2 SLP288

CYYG;2012-03-20 02:00;CYYG 200200Z 16004KT 15SM FEW260 M03/M06 A3036 RMK CI2 SLP284

CYYG;2012-03-20 03:00;CYYG 200300Z 16005KT 15SM SCT260 M03/M06 A3034 RMK CI3 SLP278

CYYG;2012-03-20 04:00;CYYG 200400Z 18007KT 15SM SCT260 M03/M06 A3033 RMK CI3 SLP272

CYYG;2012-03-20 05:00;CYYG 200500Z 21007KT 15SM SCT100 M01/M05 A3032 RMK AC4 SLP269

CYYG;2012-03-20 06:00;CYYG 200600Z 21008KT 15SM BKN100 M01/M05 A3030 RMK AC6 SLP264

CYYG;2012-03-20 07:00;CYYG 200700Z 21007KT 15SM FEW074 BKN100 M01/M05 A3028 RMK AC2AC5 SLP256

CYYG;2012-03-20 08:00;CYYG 200800Z 21007KT 15SM BKN081 BKN100 00/M05 A3025 RMK AC5AC2 SLP245

CYYG;2012-03-20 09:00;CYYG 200900Z 22009KT 15SM BKN080 01/M05 A3022 RMK AC6 SLP235

CYYG;2012-03-20 10:00;CYYG 201000Z 22010KT 15SM BKN040 BKN080 BKN260 02/M04 A3020 RMK SC5AC1CI1 SLP227

CYYG;2012-03-20 11:00;CYYG 201100Z 23012G17KT 15SM FEW040 BKN300 03/M04 A3018 RMK SC1CI1 CONTRAILS SLP223

CYYG;2012-03-20 12:00;CYYG 201200Z 23017G22KT 15SM FEW040 BKN300 04/M04 A3017 RMK SC1CI1 CONTRAILS SLP220

CYYG;2012-03-20 13:00;CYYG 201300Z 23014G20KT 15SM FEW090 BKN300 05/M04 A3016 RMK AC1CI1 CONTRAILS SLP214

CYYG;2012-03-20 14:00;CYYG 201400Z 24015KT 15SM FEW090 BKN300 07/M02 A3013 RMK AC1CI1 SLP204

CYYG;2012-03-20 15:00;CYYG 201500Z 25016KT 15SM FEW100 FEW300 09/00 A3011 RMK AC2CI0 SLP197

CYYG;2012-03-20 16:00;CYYG 201600Z 25016G22KT 15SM FEW100 BKN300 11/02 A3006 RMK AC1CI1 CONTRAILS SLP183

CYYG;2012-03-20 17:00;CYYG 201700Z 26017G24KT 15SM FEW100 BKN300 12/04 A3004 RMK AC1CI1 CONTRAILS SLP174

CYYG;2012-03-20 18:00;CYYG 201800Z 25017G24KT 15SM FEW100 BKN300 13/05 A3001 RMK AC1CI1 CONTRAILS SLP164

CYYG;2012-03-20 19:00;CYYG 201900Z 26017G26KT 15SM FEW100 BKN300 13/05 A2999 RMK AC1CI1 CONTRAILS SLP157

CYYG;2012-03-20 20:00;CYYG 202000Z 26012G19KT 15SM SCT300 13/05 A2997 RMK CI1 SLP149

CYYG;2012-03-20 21:00;CYYG 202100Z 26012KT 15SM FEW093 BKN300 13/05 A2997 RMK AC2CI0 SLP150

CYYG;2012-03-20 22:00;CYYG 202200Z 26012KT 15SM FEW093 BKN300 12/05 A2997 RMK AC1CI1 SLP151

CYYG;2012-03-20 23:00;CYYG 202300Z 27011KT 15SM FEW093 SCT300 11/04 A2999 RMK AC1CI1 CONTRAILS SLP157

CYYG;2012-03-21 00:00;CYYG 210000Z 27010KT 15SM FEW093 SCT300 12/05 A3001 RMK AC1CI1 SLP162

CYYG;2012-03-21 00:42;CYYG 210042Z 02010KT 15SM SCT300 11/ RMK CI0 WSHFT 0039

CYYG;2012-03-21 01:00;CYYG 210100Z 35004KT 15SM SCT300 11/05 A3004 RMK CI0 SLP172

CYYG;2012-03-21 02:00;CYYG 210200Z 30006KT 15SM FEW300 09/04 A3006 RMK CI0 SLP179

CYYG;2012-03-21 03:00;CYYG 210300Z 35004KT 15SM SKC 07/03 A3008 RMK SLP187

CYYG;2012-03-21 04:00;CYYG 210400Z 35003KT 15SM FEW160 05/02 A3009 RMK AC2 SLP192

CYYG;2012-03-21 05:00;CYYG 210500Z 36003KT 15SM SKC 04/01 A3011 RMK SLP197

CYYG;2012-03-21 06:00;CYYG 210600Z 02006KT 15SM SKC 04/01 A3011 RMK SLP198

CYYG;2012-03-21 07:00;CYYG 210700Z 01003KT 15SM SKC 03/M00 A3012 RMK SLP201

CYYG;2012-03-21 08:00;CYYG 210800Z 02003KT 15SM SKC 02/M01 A3012 RMK SLP200

CYYG;2012-03-21 09:00;CYYG 210900Z 36003KT 15SM SKC 01/M01 A3014 RMK SLP208

CYYG;2012-03-21 10:00;CYYG 211000Z 02003KT 15SM SCT300 02/M01 A3016 RMK CI1 SLP214

CYYG;2012-03-21 11:00;CYYG 211100Z 17002KT 15SM BKN300 03/M00 A3016 RMK CI2 CONTRAILS SLP214

CYYG;2012-03-21 12:00;CYYG 211200Z 00000KT 15SM BKN300 04/01 A3016 RMK CI2 CONTRAILS SLP213

CYYG;2012-03-21 13:00;CYYG 211300Z 19009KT 15SM BKN300 07/02 A3015 RMK CI2 SLP212

CYYG;2012-03-21 14:00;CYYG 211400Z 18009KT 15SM BKN300 08/03 A3015 RMK CI2 CONTRAILS SLP212

CYYG;2012-03-21 15:00;CYYG 211500Z 17010KT 15SM BKN300 08/03 A3014 RMK CI2 CONTRAILS SLP206

CYYG;2012-03-21 16:00;CYYG 211600Z 20007KT 15SM BKN300 11/05 A3012 RMK CI2 CONTRAILS SLP200

CYYG;2012-03-21 17:00;CYYG 211700Z 21006KT 15SM BKN300 13/07 A3009 RMK CI2 CONTRAILS SLP192

CYYG;2012-03-21 18:00;CYYG 211800Z 25008KT 15SM BKN300 18/09 A3006 RMK CI1 CONTRAILS SLP180

CYYG;2012-03-21 19:00;CYYG 211900Z 26007KT 15SM SCT300 20/11 A3003 RMK CI1 SLP169

CYYG;2012-03-21 20:00;CYYG 212000Z 27008KT 15SM FEW100 BKN300 20/10 A3001 RMK AC1CI0 CONTRAILS SLP165

CYYG;2012-03-21 21:00;CYYG 212100Z 25010KT 15SM FEW100 SCT300 19/10 A3000 RMK AC1CI0 CONTRAILS SLP160

CYYG;2012-03-21 22:00;CYYG 212200Z 25011KT 15SM FEW100 FEW300 17/09 A3000 RMK AC1CI0 SLP159

CYYG;2012-03-21 23:00;CYYG 212300Z 26008KT 15SM FEW100 FEW300 16/08 A2999 RMK AC1CI1 SLP157

CYYG;2012-03-22 00:00;CYYG 220000Z 27010KT 15SM FEW100 15/08 A3000 RMK AC1 SLP159

CYYG;2012-03-22 01:00;CYYG 220100Z 26007KT 15SM FEW100 15/08 A3001 RMK AC1 SLP162

CYYG;2012-03-22 02:00;CYYG 220200Z 26008KT 15SM SKC 14/08 A3000 RMK SLP161

CYYG;2012-03-22 03:00;CYYG 220300Z 26008KT 15SM SKC 13/07 A2999 RMK SLP156

CYYG;2012-03-22 04:00;CYYG 220400Z 27010KT 15SM SKC 13/08 A2998 RMK SLP152

CYYG;2012-03-22 05:00;CYYG 220500Z 26009KT 15SM SKC 13/07 A2996 RMK SLP148

CYYG;2012-03-22 06:00;CYYG 220600Z 27009KT 15SM SKC 13/07 A2996 RMK SLP144

CYYG;2012-03-22 07:00;CYYG 220700Z 27008KT 15SM SKC 12/06 A2994 RMK SLP139

CYYG;2012-03-22 08:00;CYYG 220800Z 27010KT 15SM SKC 13/07 A2994 RMK SLP139

CYYG;2012-03-22 09:00;CYYG 220900Z 27009KT 15SM SKC 13/07 A2993 RMK SLP134

CYYG;2012-03-22 10:00;CYYG 221000Z 27010KT 15SM FEW150 FEW250 13/07 A2992 RMK AC1CI0 SLP132

CYYG;2012-03-22 11:00;CYYG 221100Z 27011KT 15SM FEW150 FEW250 13/08 A2990 RMK AC1CI0 SLP127

CYYG;2012-03-22 12:00;CYYG 221200Z 26011G17KT 15SM FEW250 15/08 A2989 RMK CI1 SLP123

CYYG;2012-03-22 13:00;CYYG 221300Z 26010KT 15SM SCT250 16/09 A2988 RMK CI1 SLP118

CYYG;2012-03-22 14:00;CYYG 221400Z 26010KT 15SM BKN250 18/10 A2986 RMK CI1 SLP113

CYYG;2012-03-22 15:00;CYYG 221500Z 27010G15KT 15SM FEW160 BKN250 20/11 A2985 RMK AC1CI2 SLP110

CYYG;2012-03-22 16:00;CYYG 221600Z 28011G18KT 15SM FEW160 BKN250 22/11 A2982 RMK AC1CI2 SLP097

CYYG;2012-03-22 17:00;CYYG 221700Z 28012G17KT 15SM FEW160 BKN250 23/12 A2979 RMK AC1CI2 SLP090

CYYG;2012-03-22 18:00;CYYG 221800Z 28013G18KT 15SM FEW180 BKN250 24/12 A2977 RMK AC2CI2 SLP079

CYYG;2012-03-22 19:00;CYYG 221900Z 28013G18KT 15SM FEW180 BKN280 24/12 A2974 RMK AC2AC2 SLP070

CYYG;2012-03-22 20:00;CYYG 222000Z 27010KT 15SM FEW180 BKN280 23/11 A2973 RMK AC1CI2 SLP066

CYYG;2012-03-22 21:00;CYYG 222100Z 29004KT 15SM FEW170 BKN280 22/11 A2972 RMK AC2CI2 SLP065

CYYG;2012-03-22 22:00;CYYG 222200Z 33004KT 15SM FEW120 FEW170 BKN280 19/09 A2971 RMK AC2AC1CI2 SLP063

CYYG;2012-03-22 23:00;CYYG 222300Z 31009KT 15SM BKN090 BKN130 BKN250 17/08 A2973 RMK AC5AC2CI1 SLP069

CYYG;2012-03-23 00:00;CYYG 230000Z 32013KT 15SM SCT090 BKN240 16/05 A2976 RMK AC3CI1 SLP079

CYYG;2012-03-23 01:00;CYYG 230100Z 32012KT 15SM FEW090 SCT240 14/02 A2977 RMK AC2CI1 SLP083

CYYG;2012-03-23 02:00;CYYG 230200Z 31012G20KT 15SM FEW090 FEW240 14/02 A2978 RMK AC1CI1 SLP085

CYYG;2012-03-23 03:00;CYYG 230300Z 31017G25KT 15SM FEW090 FEW240 13/M00 A2979 RMK AC1CI1 SLP087

CYYG;2012-03-23 04:00;CYYG 230400Z 32015G22KT 15SM FEW240 11/M03 A2979 RMK CI2 SLP089

CYYG;2012-03-23 05:00;CYYG 230500Z 32014G22KT 15SM FEW240 10/M05 A2979 RMK CI2 SLP087

CYYG;2012-03-23 06:00;CYYG 230600Z 32016G24KT 15SM FEW240 09/M06 A2979 RMK CI2 SLP089

CYYG;2012-03-23 07:00;CYYG 230700Z 31013G22KT 15SM FEW240 08/M06 A2979 RMK CI1 SLP087

CYYG;2012-03-23 08:00;CYYG 230800Z 32015G22KT 15SM FEW240 07/M06 A2979 RMK CI1 SLP087

CYYG;2012-03-23 09:00;CYYG 230900Z 31011G21KT 15SM SKC 06/M06 A2979 RMK SLP090

CYYG;2012-03-23 10:00;CYYG 231000Z 32009G15KT 15SM FEW240 05/M06 A2980 RMK CI1 SLP092

CYYG;2012-03-23 11:00;CYYG 231100Z 30012G17KT 15SM FEW240 05/M05 A2980 RMK CI1 SLP092

CYYG;2012-03-23 12:00;CYYG 231200Z 32013G18KT 15SM FEW120 06/M06 A2979 RMK AC1 SLP088

CYYG;2012-03-23 13:00;CYYG 231300Z 31016G22KT 15SM FEW060 07/M06 A2978 RMK SC2 SLP084

CYYG;2012-03-23 14:00;CYYG 231400Z 32020G32KT 15SM BKN055 06/M06 A2977 RMK SC6 SLP081

CYYG;2012-03-23 15:00;CYYG 231500Z 32020G34KT 15SM BKN060 06/M06 A2977 RMK SC6 SLP084

CYYG;2012-03-23 16:00;CYYG 231600Z 32020G30KT 15SM BKN065 06/M06 A2978 RMK SC6 SLP086

CYYG;2012-03-23 17:00;CYYG 231700Z 32022G30KT 15SM BKN075 06/M09 A2979 RMK AC6 SLP089

CYYG;2012-03-23 18:00;CYYG 231800Z 36018G24KT 15SM BKN070 04/M04 A2980 RMK AC6 SLP093

CYYG;2012-03-23 19:00;CYYG 231900Z 02016G21KT 15SM FEW018 BKN080 02/M04 A2981 RMK CU1AC4 SLP097

CYYG;2012-03-23 20:00;CYYG 232000Z 01016G21KT 15SM FEW015 FEW078 01/M04 A2982 RMK CU2AC1 SLP100

CYYG;2012-03-23 21:00;CYYG 232100Z 01012G20KT 15SM FEW015 FEW078 01/M07 A2983 RMK CU1AC1 SLP103

CYYG;2012-03-23 22:00;CYYG 232200Z 02015G20KT 15SM SCT018 M01/M07 A2985 RMK SC3 SLP109

CYYG;2012-03-23 23:00;CYYG 232300Z 01011G19KT 15SM SCT023 M03/M09 A2989 RMK SC3 SLP123

CYYG;2012-03-24 00:00;CYYG 240000Z 36013G22KT 15SM FEW025 M03/M10 A2990 RMK SC2 SLP129

CYYG;2012-03-24 01:00;CYYG 240100Z 01017G24KT 15SM FEW032 M03/M12 A2993 RMK SC2 SLP139

CYYG;2012-03-24 02:00;CYYG 240200Z 36018G26KT 15SM FEW030 FEW050 M03/M13 A2994 RMK SC2SC1 SLP140

CYYG;2012-03-24 03:00;CYYG 240300Z 36017G25KT 15SM FEW050 M03/M14 A2993 RMK SC2 SLP139

CYYG;2012-03-24 04:00;CYYG 240400Z 35012G22KT 15SM BKN048 M02/M13 A2993 RMK SC5 SLP137

CYYG;2012-03-24 05:00;CYYG 240500Z 34018G24KT 15SM BKN048 M02/M12 A2993 RMK SC6 SLP139

CYYG;2012-03-24 05:26;CYYG 240526Z 34018G25KT 15SM -SHSN BKN046 M02/ RMK SC6

CYYG;2012-03-24 06:00;CYYG 240600Z 34012G20KT 15SM -SHSN BKN050 M02/M12 A2993 RMK SC7 SLP138

CYYG;2012-03-24 07:00;CYYG 240700Z 36012G19KT 15SM -SHSN BKN051 M03/M10 A2993 RMK SC6 PCPN VRY LGT SLP136

CYYG;2012-03-24 08:00;CYYG 240800Z 36013G21KT 15SM -SHSN BKN051 M03/M10 A2995 RMK SC7 SLP143

CYYG;2012-03-24 09:00;CYYG 240900Z 34009G17KT 15SM -SHSN BKN046 M03/M10 A2995 RMK SC7 SLP145

CYYG;2012-03-24 10:00;CYYG 241000Z 35009G15KT 15SM -SHSN DRSN FEW020 SCT046 M04/M09 A2996 RMK CU2SC2 SLP149

CYYG;2012-03-24 11:00;CYYG 241100Z 34012KT 15SM -SHSN FEW028 BKN043 M03/M11 A2999 RMK CU2SC3 SLP157

CYYG;2012-03-24 12:00;CYYG 241200Z 32014G19KT 15SM -SHSN FEW028 BKN036 M03/M11 A2999 RMK CU1SC6 SLP158

CYYG;2012-03-24 13:00;CYYG 241300Z 34017G26KT 15SM BKN031 M02/M11 A2998 RMK SC7 SLP155

CYYG;2012-03-24 14:00;CYYG 241400Z 32014G21KT 15SM FEW031 M02/M11 A2999 RMK SC2 SLP159

CYYG;2012-03-24 15:00;CYYG 241500Z 34013G20KT 15SM FEW031 M02/M11 A2999 RMK SC2 SLP159

CYYG;2012-03-24 16:00;CYYG 241600Z 32016G22KT 15SM FEW033 FEW250 M01/M11 A2997 RMK SC2CI0 SLP151

CYYG;2012-03-24 17:00;CYYG 241700Z 33011G19KT 15SM FEW033 FEW250 M00/M11 A2995 RMK SC1CI0 SLP143

CYYG;2012-03-24 18:00;CYYG 241800Z 32015G21KT 15SM FEW033 FEW250 00/M12 A2993 RMK SC1CI1 SLP136

CYYG;2012-03-24 19:00;CYYG 241900Z 33012KT 15SM FEW033 FEW250 01/M12 A2992 RMK SC1CI1 SLP133

CYYG;2012-03-24 20:00;CYYG 242000Z 33009G16KT 15SM FEW033 FEW250 02/M11 A2990 RMK SC1CI1 SLP128

CYYG;2012-03-24 21:00;CYYG 242100Z 33007KT 15SM FEW250 03/M11 A2989 RMK CI1 SLP124

CYYG;2012-03-24 22:00;CYYG 242200Z 32008KT 15SM SCT250 01/M12 A2990 RMK CI1 SLP126

CYYG;2012-03-24 23:00;CYYG 242300Z 31006KT 15SM FEW250 M00/M12 A2990 RMK CI1 SLP126

CYYG;2012-03-25 00:00;CYYG 250000Z 36008KT 15SM FEW250 M00/M08 A2993 RMK CI1 SLP136

CYYG;2012-03-25 01:00;CYYG 250100Z 03005KT 15SM FEW250 M04/M08 A2994 RMK CI1 SLP142

CYYG;2012-03-25 02:00;CYYG 250200Z 28003KT 15SM FEW250 M04/M08 A2994 RMK CI1 FROIN SLP142

CYYG;2012-03-25 03:00;CYYG 250300Z 31002KT 15SM FEW250 M04/M08 A2995 RMK CI0 FROIN SLP143

CYYG;2012-03-25 04:00;CYYG 250400Z 27002KT 15SM SKC M04/M09 A2994 RMK FROIN SLP141

CYYG;2012-03-25 05:00;CYYG 250500Z 31003KT 15SM SKC M03/M09 A2995 RMK FROIN SLP144

CYYG;2012-03-25 06:00;CYYG 250600Z 31004KT 15SM SKC M03/M10 A2996 RMK FROIN SLP147

CYYG;2012-03-25 07:00;CYYG 250700Z 32004KT 15SM FEW250 M03/M10 A2996 RMK CI0 FROIN SLP147

CYYG;2012-03-25 08:00;CYYG 250800Z 34007KT 15SM FEW250 M02/M10 A2997 RMK CI0 FROIN SLP151

CYYG;2012-03-25 09:00;CYYG 250900Z 02004KT 15SM FEW250 M03/M09 A2998 RMK CI0 FROIN SLP154

CYYG;2012-03-25 10:00;CYYG 251000Z 36003KT 15SM SCT250 M04/M09 A2998 RMK CI1 FROIN SLP156

CYYG;2012-03-25 11:00;CYYG 251100Z 34002KT 15SM SCT300 M03/M08 A3000 RMK CI1 SLP160

CYYG;2012-03-25 12:00;CYYG 251200Z 36004KT 15SM FEW300 M02/M08 A3001 RMK CI1 SLP163

CYYG;2012-03-25 13:00;CYYG 251300Z 34006KT 15SM FEW030 FEW300 M00/M09 A3001 RMK CF1CI2 SLP166

CYYG;2012-03-25 14:00;CYYG 251400Z 34004KT 15SM FEW030 BKN300 01/M09 A3001 RMK CF1CI2 CONTRAILS SLP163

CYYG;2012-03-25 15:00;CYYG 251500Z 27004KT 15SM BKN300 02/M09 A2998 RMK CI2 CONTRAILS OBS TAKEN +10 SLP156

CYYG;2012-03-25 16:00;CYYG 251600Z 20009G16KT 15SM FEW100 BKN300 03/M08 A2997 RMK AC1CI1 CONTRAILS SLP150

CYYG;2012-03-25 17:00;CYYG 251700Z 21011KT 15SM BKN300 02/M07 A2996 RMK CS2 SLP146

CYYG;2012-03-25 18:00;CYYG 251800Z 21010KT 15SM OVC200 02/M09 A2995 RMK CS3 SLP144

CYYG;2012-03-25 19:00;CYYG 251900Z 17002KT 15SM OVC200 03/M10 A2991 RMK CS4 SLP131

CYYG;2012-03-25 20:00;CYYG 252000Z 21004KT 15SM BKN071 OVC200 03/M10 A2990 RMK AS6CS2 SLP126

CYYG;2012-03-25 21:00;CYYG 252100Z 19005KT 15SM OVC058 03/M10 A2988 RMK NS8 SLP120

CYYG;2012-03-25 22:00;CYYG 252200Z 17005KT 15SM OVC045 02/M11 A2987 RMK NS8 SLP118

CYYG;2012-03-25 23:00;CYYG 252300Z 22004KT 15SM BKN040 OVC060 02/M10 A2986 RMK SC5SC3 SLP114

CYYG;2012-03-26 00:00;CYYG 260000Z 18007KT 15SM OVC053 02/M08 A2985 RMK SC8 SLP111

CYYG;2012-03-26 01:00;CYYG 260100Z 18006KT 15SM SCT033 OVC053 01/M06 A2983 RMK SC3SC5 SLP103

CYYG;2012-03-26 01:49;CYYG 260149Z 20008KT 15SM -SHSN SCT033 OVC045 02/ RMK SC3SC5 PCPN VRY LGT

CYYG;2012-03-26 02:00;CYYG 260200Z 19007KT 15SM -SHSN FEW033 OVC047 02/M05 A2981 RMK SC2SC6 PCPN VRY LGT SLP096

CYYG;2012-03-26 03:00;CYYG 260300Z 18011KT 8SM -SHSN BKN030 OVC060 01/M02 A2977 RMK SC5SC3 SLP084

CYYG;2012-03-26 03:25;CYYG 260325Z 18011KT 3SM -SN BKN003 OVC035 00/ RMK SF6SC2

CYYG;2012-03-26 04:00;CYYG 260400Z 18010KT 4SM -RASN BKN003 OVC024 00/M02 A2975 RMK SF6SC2 SLP077

CYYG;2012-03-26 04:25;CYYG 260425Z 18010KT 3SM -SN OVC003 M00/ RMK SF8 SNW WET

CYYG;2012-03-26 05:00;CYYG 260500Z 17009KT 3SM -SN OVC003 M00/M02 A2973 RMK SF8 SNW WET SLP068

CYYG;2012-03-26 06:00;CYYG 260600Z CCA 17010KT 5SM -SN OVC002 M00/M02 A2969 RMK SF8 SNW WET /S01/ SLP054

CYYG;2012-03-26 07:00;CYYG 260700Z 17010KT 3SM -SN BR OVC002 00/M01 A2964 RMK SF8 SLP038

CYYG;2012-03-26 08:00;CYYG 260800Z 17009KT 3SM -DZ BR OVC002 00/M02 A2961 RMK SF8 SLP029

CYYG;2012-03-26 08:37;CYYG 260837Z 18009KT 3SM -SN BR OVC002 00/ RMK SF8

CYYG;2012-03-26 08:49;CYYG 260849Z 18008KT 2SM -SN BR OVC002 00/ RMK SF8 SNW WET

CYYG;2012-03-26 09:00;CYYG 260900Z 18008KT 2SM -SN BR OVC002 00/M02 A2960 RMK SF8 SLP026

CYYG;2012-03-26 10:00;CYYG 261000Z 18010KT 2SM -SN BR OVC002 00/M01 A2958 RMK SF8 SNW WET SLP019

CYYG;2012-03-26 10:52;CYYG 261052Z 18008KT 3SM -DZ BR BKN002 OVC012 01/ RMK SF6SC2

CYYG;2012-03-26 11:00;CYYG 261100Z 18009KT 3SM -DZ BR BKN002 OVC012 01/M01 A2957 RMK SF7SC1 SLP016

CYYG;2012-03-26 12:00;CYYG 261200Z 18007KT 3SM -DZ BR BKN002 OVC006 01/M01 A2955 RMK SF6SF2 SLP008

CYYG;2012-03-26 12:09;CYYG 261209Z 18008KT 2SM -SN BR BKN002 OVC005 01/ RMK SF6SF2

CYYG;2012-03-26 12:38;CYYG 261238Z 18007KT 3SM -DZ BR BKN002 OVC005 01/ RMK SF6SF2

CYYG;2012-03-26 13:00;CYYG 261300Z 18007KT 5SM -DZ BR OVC002 01/M01 A2952 RMK SF8 SLP997

CYYG;2012-03-26 13:06;CYYG 261306Z 17007KT 5SM BR OVC002 01/ RMK SF8 VIS N-E 2

CYYG;2012-03-26 14:00;CYYG 261400Z 18005KT 5SM BR BKN002 OVC004 01/M00 A2950 RMK SF6SF2 SLP991

CYYG;2012-03-26 15:00;CYYG 261500Z 23003KT 15SM BKN003 OVC014 02/00 A2948 RMK SF6SC2 VIS LWR W-N SLP985

CYYG;2012-03-26 15:38;CYYG 261538Z 24003KT 15SM -RA OVC004 02/ RMK SF8

CYYG;2012-03-26 15:52;CYYG 261552Z 26003KT 15SM BKN003 OVC006 03/ RMK SF6SF2

CYYG;2012-03-26 16:00;CYYG 261600Z 25003KT 15SM OVC004 03/01 A2947 RMK SF8 SLP981

CYYG;2012-03-26 16:35;CYYG 261635Z 26003KT 15SM -RA OVC005 03/ RMK SF8

CYYG;2012-03-26 17:00;CYYG 261700Z 30003KT 15SM -RA OVC005 03/01 A2945 RMK SF8 SLP976

CYYG;2012-03-26 17:31;CYYG 261731Z 35011G16KT 3SM -DZ BR OVC007 03/ RMK SF8

CYYG;2012-03-26 17:35;CYYG 261735Z 36013G18KT 3SM -DZ BR OVC006 01/ RMK SF8

CYYG;2012-03-26 18:00;CYYG 261800Z 35017G22KT 10SM -RA OVC007 00/M03 A2946 RMK SF8 VIS LWR SE-SW SLP977

CYYG;2012-03-26 18:06;CYYG 261806Z 35012G22KT 15SM BKN006 OVC015 M00/ RMK SF6SC2

CYYG;2012-03-26 18:28;CYYG 261828Z 34016G25KT 15SM FEW006 OVC020 00/ RMK SF2SC6

CYYG;2012-03-26 19:00;CYYG 261900Z 33018G27KT 15SM OVC023 M00/M05 A2946 RMK SC8 SLP979

CYYG;2012-03-26 20:00;CYYG 262000Z 34017G26KT 15SM BKN019 OVC027 M01/M06 A2947 RMK SC6SC2 SLP981

CYYG;2012-03-26 20:11;CYYG 262011Z 34013G20KT 10SM -SN DRSN OVC018 M01/ RMK SC8

CYYG;2012-03-26 21:00;CYYG 262100Z 35009G24KT 6SM -SN DRSN OVC014 M02/M06 A2949 RMK SC8 SLP987

CYYG;2012-03-26 21:10;CYYG 262110Z 34013G25KT 2SM -SN DRSN OVC012 M02/ RMK SC8

CYYG;2012-03-26 21:48;CYYG 262148Z 34015G24KT 5SM -SN DRSN BKN012 BKN032 OVC037 M02/ RMK SC5SC2SC2

CYYG;2012-03-26 22:00;CYYG 262200Z 34015G24KT 8SM -SN DRSN BKN010 BKN032 OVC037 M02/M06 A2949 RMK SC6SC2SC1 SLP989

CYYG;2012-03-26 22:42;CYYG 262242Z 34018KT 2SM -SN DRSN BKN011 OVC043 M03/ RMK SC6SC2

CYYG;2012-03-26 23:00;CYYG 262300Z 33018G26KT 2SM -SN BLSN BKN012 OVC019 M03/M06 A2950 RMK SC6SC2 SLP991

CYYG;2012-03-26 23:17;CYYG 262317Z 32016KT 10SM -SN DRSN OVC016 M03/ RMK SC8

CYYG;2012-03-27 00:00;CYYG 270000Z 33017G25KT 10SM -SN DRSN OVC013 M03/M06 A2951 RMK SC8 SLP995

CYYG;2012-03-27 00:42;CYYG 270042Z 32014G19KT 2SM -SN DRSN OVC013 M03/ RMK SN2SC6

CYYG;2012-03-27 01:00;CYYG 270100Z 33012G17KT 2SM -SN DRSN OVC013 M03/M05 A2951 RMK SN2SC6 SLP995

CYYG;2012-03-27 02:00;CYYG 270200Z 34011G16KT 10SM -SN DRSN OVC015 M02/M06 A2950 RMK SC8 SLP991

CYYG;2012-03-27 03:00;CYYG 270300Z 35013G21KT 15SM -SN DRSN OVC017 M02/M07 A2949 RMK SC8 /S01/ SLP988

CYYG;2012-03-27 04:00;CYYG 270400Z 34015G24KT 15SM -SN DRSN OVC017 M02/M07 A2949 RMK SC8 SLP987

CYYG;2012-03-27 05:00;CYYG 270500Z 32017G28KT 15SM -SN DRSN OVC017 M03/M07 A2949 RMK SC8 SLP988

CYYG;2012-03-27 06:00;CYYG 270600Z 23019G28KT 15SM -SN DRSN OVC015 M04/M07 A2947 RMK SC8 SLP983

CYYG;2012-03-27 07:00;CYYG 270700Z 31018G26KT 1SM R03/P6000FT/D -SN BLSN OVC010 M04/M06 A2944 RMK SN4SC4 SLP972

CYYG;2012-03-27 07:45;CYYG 270745Z 36020G28KT 1/2SM R03/3500FT/N -SN BLSN OVC008 M01/ RMK SN4SF4

CYYG;2012-03-27 08:00;CYYG 270800Z 36019G27KT 1/2SM R03/3000FT/N -SN BLSN OVC006 M02/M04 A2944 RMK SN4SF4 /S01/ SLP973

CYYG;2012-03-27 09:00;CYYG 270900Z 36018G29KT 1/2SM R03/2600V4000FT/D -SN BLSN OVC006 M03/M06 A2950 RMK SN3SF5 /S02/ SLP991

CYYG;2012-03-27 09:50;CYYG 270950Z 36021G32KT 5/8SM R03/3500V6000FT/D -SN BLSN OVC010 M04/ RMK SN2SF6

CYYG;2012-03-27 10:00;CYYG 271000Z 36018G33KT 5/8SM R03/3000V6000FT/U -SN BLSN OVC010 M04/M07 A2954 RMK SN2SF6 /S03/ SLP006

CYYG;2012-03-27 11:00;CYYG 271100Z 36020G31KT 5/8SM R03/2400V5000FT/D -SN BLSN OVC010 M06/M08 A2959 RMK SN2SF6 SLP022

CYYG;2012-03-27 12:00;CYYG 271200Z 36022G30KT 1/2SM R03/3000FT/N -SN BLSN OVC010 M05/M09 A2964 RMK SN4SF4 /S04/ SLP039

CYYG;2012-03-27 12:45;CYYG 271245Z 36019G30KT 3/4SM R03/2800FT/N -SN BLSN OVC012 M06/ RMK SN2SF6

CYYG;2012-03-27 13:00;CYYG 271300Z 36017G29KT 1SM R03/3500VP6000FT/D -SN BLSN OVC013 M05/M10 A2966 RMK SN2SF6 SLP047

CYYG;2012-03-27 13:32;CYYG 271332Z 36015G33KT 5/8SM R03/2600V5000FT/D -SN BLSN OVC012 M06/ RMK SN3SF5

CYYG;2012-03-27 14:00;CYYG 271400Z 35018G33KT 5/8SM R03/P6000FT/N -SN BLSN OVC014 M06/M10 A2969 RMK SN3SF5 /S01/ SLP058

CYYG;2012-03-27 14:39;CYYG 271439Z 35017G27KT 1/2SM R03/2600FT/N -SN BLSN OVC012 M06/ RMK SN5SF3

CYYG;2012-03-27 15:00;CYYG 271500Z 35015G32KT 1 1/4SM R03/2800V5500FT/U -SN BLSN OVC015 M06/M10 A2971 RMK SN3SF5 /S02/ SLP062

CYYG;2012-03-27 15:18;CYYG 271518Z 35017G31KT 1/2SM R03/3000V5000FT/D -SN BLSN OVC014 M06/ RMK SN5SF3

CYYG;2012-03-27 15:24;CYYG 271524Z 36021G31KT 3/8SM R03/2400V4500FT/D SN BLSN VV004 M06/ RMK BLSN8

CYYG;2012-03-27 15:32;CYYG 271532Z 36021G31KT 1/4SM R03/1800FT/N SN +BLSN VV003 M06/ RMK BLSN8

CYYG;2012-03-27 15:43;CYYG 271543Z 35019G27KT 3/8SM R03/1400V2200FT/N SN BLSN VV005 M06/ REBLSN RMK BLSN8

CYYG;2012-03-27 16:00;CYYG 271600Z 36022G35KT 5/8SM R03/3000V5000FT/N -SN BLSN OVC013 M06/M10 A2972 RESN REBLSN RMK BLSN3SF5 SLP067

CYYG;2012-03-27 17:00;CYYG 271700Z 35019G32KT 1 1/4SM R03/3500VP6000FT/U -SN BLSN OVC016 M06/M11 A2974 RMK BLSN3SF5 /S03/ SLP073

CYYG;2012-03-27 17:26;CYYG 271726Z 35017G28KT 5/8SM R03/2400V4000FT/D -SN BLSN OVC016 M06/ RMK BLSN4SF4

CYYG;2012-03-27 17:44;CYYG 271744Z 35016G27KT 1/2SM R03/1400V1800FT/N -SN BLSN OVC013 M06/ RMK BLSN5SF3

CYYG;2012-03-27 18:00;CYYG 271800Z 35020G25KT 5/8SM R03/2800V4000FT/N -SN BLSN OVC014 M06/M10 A2976 RMK BLSN5SF3 /S05/ SLP079

CYYG;2012-03-27 18:44;CYYG 271844Z 35017G27KT 1/2SM R03/2400VP6000FT/D SN BLSN VV005 M06/ RMK BLSN8

CYYG;2012-03-27 19:00;CYYG 271900Z 35017G27KT 5/8SM R03/3000FT/N -SN BLSN OVC013 M06/M10 A2978 RESN RMK BLSN3SF5 SLP087

CYYG;2012-03-27 19:25;CYYG 271925Z 35019G32KT 1 1/4SM R03/3000V5500FT/U -SN BLSN OVC015 M06/ RMK BLSN3SF5

CYYG;2012-03-27 20:00;CYYG 272000Z 35018G29KT 2 1/2SM R03/3000VP6000FT/U -SN BLSN OVC020 M06/M11 A2980 RMK BLSN2SF6 SLP095

CYYG;2012-03-27 21:00;CYYG 272100Z 36019G28KT 3SM -SN DRSN VCBLSN OVC020 M06/M12 A2983 RMK SN2SF6 SLP103

CYYG;2012-03-27 22:00;CYYG 272200Z 36015G25KT 5SM -SN DRSN VCBLSN OVC020 M05/M11 A2983 RMK SN2SF6 SLP105

CYYG;2012-03-27 23:00;CYYG 272300Z 36022G34KT 10SM -SN DRSN OVC025 M04/M12 A2985 RMK SC8 SLP110

CYYG;2012-03-28 00:00;CYYG 280000Z 35016G28KT 10SM -SN DRSN OVC025 M04/M10 A2986 RMK SC8 /S01/ SLP113

CYYG;2012-03-28 01:00;CYYG 280100Z 35012G28KT 10SM -SN DRSN OVC027 M04/M10 A2986 RMK SC8 SLP113

CYYG;2012-03-28 02:00;CYYG 280200Z 35018G27KT 15SM -SN DRSN OVC030 M03/M11 A2985 RMK SC8 SLP112

CYYG;2012-03-28 03:00;CYYG 280300Z 34017G29KT 15SM -SHSN DRSN SCT030 OVC045 M03/M10 A2985 RMK SC4SC4 SLP111

CYYG;2012-03-28 04:00;CYYG 280400Z 36012G25KT 15SM -SN DRSN SCT030 OVC045 M04/M11 A2986 RMK SC3SC5 SLP113

CYYG;2012-03-28 05:00;CYYG 280500Z 35013G21KT 15SM -SN DRSN SCT028 OVC044 M04/M11 A2986 RMK SC3SC5 /S01/ SLP114

CYYG;2012-03-28 06:00;CYYG 280600Z 36015G22KT 15SM -SN DRSN BKN032 OVC044 M04/M11 A2986 RMK SC5SC3 SLP116

CYYG;2012-03-28 07:00;CYYG 280700Z 35014G21KT 15SM -SN DRSN OVC033 M04/M12 A2986 RMK SC8 SLP114

CYYG;2012-03-28 08:00;CYYG 280800Z 35013G26KT 15SM OVC032 M04/M11 A2987 RMK SC8 SLP117

CYYG;2012-03-28 09:00;CYYG 280900Z 35016G22KT 15SM -SN DRSN OVC027 M04/M11 A2987 RMK SC8 SLP116

CYYG;2012-03-28 10:00;CYYG 281000Z 35011G19KT 15SM -SHSN OVC024 M05/M11 A2988 RMK SC8 SLP122

CYYG;2012-03-28 11:00;CYYG 281100Z 34013G19KT 15SM -SHSN OVC023 M04/M11 A2990 RMK SC8 VIS LWR NW-NE SLP126

CYYG;2012-03-28 12:00;CYYG 281200Z 35014G20KT 15SM -SHSN OVC024 M04/M10 A2990 RMK SC8 VIS LWR SW+NE SLP126

CYYG;2012-03-28 13:00;CYYG 281300Z 35009G18KT 15SM -SHSN BKN019 M03/M09 A2989 RMK SC7 SLP125

CYYG;2012-03-28 14:00;CYYG 281400Z 35011G18KT 15SM -SHSN OVC019 M03/M09 A2989 RMK SC8 PCPN VRY LGT SLP125

CYYG;2012-03-28 15:00;CYYG 281500Z 36012KT 15SM -SHSN OVC019 M03/M09 A2989 RMK SC8 PCPN VRY LGT SLP125

CYYG;2012-03-28 16:00;CYYG 281600Z 36010KT 15SM -SHSN OVC018 M03/M08 A2988 RMK SC8 PCPN VRY LGT SLP122

CYYG;2012-03-28 16:22;CYYG 281622Z 35010G16KT 15SM VCSH OVC017 M03/ RMK SC8

CYYG;2012-03-28 17:00;CYYG 281700Z 36008KT 15SM VCSH OVC019 M03/M08 A2986 RMK SC8 SLP115

CYYG;2012-03-28 18:00;CYYG 281800Z 36006KT 15SM VCSH OVC016 M03/M08 A2985 RMK SC8 SLP111

CYYG;2012-03-28 19:00;CYYG 281900Z 35009KT 15SM VCSH OVC019 M02/M08 A2984 RMK SC8 SLP108

CYYG;2012-03-28 20:00;CYYG 282000Z 35008KT 15SM OVC019 M03/M08 A2983 RMK SC8 SLP105

CYYG;2012-03-28 21:00;CYYG 282100Z 33008KT 15SM OVC017 M03/M08 A2983 RMK SC8 SLP104

CYYG;2012-03-28 22:00;CYYG 282200Z 35005KT 15SM VCSH OVC016 M03/M08 A2983 RMK SC8 SLP103

CYYG;2012-03-28 23:00;CYYG 282300Z 34005KT 15SM OVC016 M03/M08 A2983 RMK SC8 SLP103

CYYG;2012-03-29 00:00;CYYG 290000Z 01004KT 15SM OVC016 M03/M08 A2983 RMK SC8 SLP105

CYYG;2012-03-29 01:00;CYYG 290100Z 04002KT 15SM BKN016 M05/M09 A2981 RMK SC6 SLP098

CYYG;2012-03-29 02:00;CYYG 290200Z 28002KT 15SM BKN016 M06/M09 A2980 RMK SC6 SLP095

CYYG;2012-03-29 03:00;CYYG 290300Z 00000KT 15SM SCT016 M07/M10 A2979 RMK SC4 SLP091

CYYG;2012-03-29 04:00;CYYG 290400Z 33002KT 15SM SCT016 M09/M11 A2977 RMK SC3 SLP085

CYYG;2012-03-29 05:00;CYYG 290500Z 27003KT 15SM FEW016 M07/M09 A2976 RMK SC2 SLP079

CYYG;2012-03-29 06:00;CYYG 290600Z 28003KT 15SM FEW016 M07/M10 A2973 RMK SC1 SLP070

CYYG;2012-03-29 07:00;CYYG 290700Z 30004KT 15SM FEW016 M06/M09 A2971 RMK SC1 SLP064

CYYG;2012-03-29 08:00;CYYG 290800Z 32004KT 15SM FEW016 M06/M09 A2971 RMK SC1 SLP063

CYYG;2012-03-29 09:00;CYYG 290900Z 34004KT 15SM FEW016 SCT250 M06/M08 A2970 RMK SC1CI1 SLP061

CYYG;2012-03-29 10:00;CYYG 291000Z 33004KT 15SM FEW015 FEW035 BKN120 M06/M09 A2971 RMK SC1SC2AC2 SLP064

CYYG;2012-03-29 11:00;CYYG 291100Z 36002KT 15SM FEW015 SCT038 BKN120 M04/M07 A2972 RMK SC1SC3AC2 SLP066

CYYG;2012-03-29 12:00;CYYG 291200Z 36004KT 15SM FEW015 BKN042 BKN120 M02/M06 A2971 RMK SC1SC4AC2 SLP064

CYYG;2012-03-29 13:00;CYYG 291300Z 02005KT 15SM FEW015 BKN040 BKN120 M01/M06 A2971 RMK SC1SC4AC2 SLP062

CYYG;2012-03-29 14:00;CYYG 291400Z 34003KT 15SM FEW021 BKN048 M00/M07 A2970 RMK SC2SC4 SLP060

CYYG;2012-03-29 15:00;CYYG 291500Z 31006KT 15SM FEW020 SCT050 01/M08 A2969 RMK SC2SC2 SLP056

CYYG;2012-03-29 16:00;CYYG 291600Z 34011KT 15SM SCT050 00/M08 A2969 RMK SC3 SLP055

CYYG;2012-03-29 17:00;CYYG 291700Z 35012KT 15SM BKN030 01/M07 A2968 RMK SC5 SLP053

CYYG;2012-03-29 18:00;CYYG 291800Z 35009KT 15SM BKN023 01/M06 A2969 RMK SC6 SLP055

CYYG;2012-03-29 19:00;CYYG 291900Z 33008KT 15SM BKN024 M00/M07 A2968 RMK SC5 SLP054

CYYG;2012-03-29 20:00;CYYG 292000Z 34007KT 15SM SCT024 M01/M08 A2968 RMK SC4 SLP052

CYYG;2012-03-29 21:00;CYYG 292100Z 35005KT 15SM FEW025 M01/M08 A2968 RMK SC1 SLP052

CYYG;2012-03-29 22:00;CYYG 292200Z 01005KT 15SM FEW025 FEW250 M02/M09 A2967 RMK SC1CI1 CONTRAILS SLP050

CYYG;2012-03-29 23:00;CYYG 292300Z 04003KT 15SM FEW100 FEW250 M03/M09 A2968 RMK AC1CI0 SLP052

CYYG;2012-03-30 00:00;CYYG 300000Z 09002KT 15SM FEW100 FEW250 M04/M08 A2968 RMK AC1CI0 SLP054

CYYG;2012-03-30 01:00;CYYG 300100Z 00000KT 15SM FEW100 FEW250 M05/M08 A2969 RMK AC1CI0 SLP055

CYYG;2012-03-30 02:00;CYYG 300200Z 22003KT 15SM SKC M04/M08 A2968 RMK SLP054

CYYG;2012-03-30 03:00;CYYG 300300Z 25004KT 15SM SCT140 M04/M08 A2968 RMK AC2 SLP054

CYYG;2012-03-30 04:00;CYYG 300400Z 22003KT 15SM SCT130 M03/M08 A2968 RMK AC3 FROIN SLP052

CYYG;2012-03-30 05:00;CYYG 300500Z 16003KT 15SM BKN130 M04/M08 A2966 RMK AC6 FROIN SLP046

CYYG;2012-03-30 06:00;CYYG 300600Z 17003KT 15SM BKN130 M04/M07 A2965 RMK AC6 FROIN SLP043

CYYG;2012-03-30 07:00;CYYG 300700Z 19004KT 15SM FEW130 M04/M07 A2964 RMK AC2 FROIN SLP041

CYYG;2012-03-30 08:00;CYYG 300800Z 21005KT 15SM BKN120 M02/M06 A2965 RMK AC6 FROIN SLP042

CYYG;2012-03-30 09:00;CYYG 300900Z 20006KT 15SM BKN120 M02/M06 A2965 RMK AC6 FROIN SLP043

CYYG;2012-03-30 10:00;CYYG 301000Z 22004KT 15SM BKN110 M02/M06 A2965 RMK AC6 SLP044

CYYG;2012-03-30 11:00;CYYG 301100Z 24003KT 15SM OVC110 M01/M05 A2967 RMK AC8 SLP049

CYYG;2012-03-30 12:00;CYYG 301200Z 26004KT 15SM OVC110 M00/M05 A2967 RMK AC8 SLP051

CYYG;2012-03-30 13:00;CYYG 301300Z 33005KT 15SM BKN120 01/M06 A2968 RMK AC6 SLP052

CYYG;2012-03-30 14:00;CYYG 301400Z 34005KT 15SM SCT100 BKN250 03/M07 A2969 RMK AC3CI1 SLP056

CYYG;2012-03-30 15:00;CYYG 301500Z 35008KT 15SM FEW020 SCT250 03/M06 A2970 RMK SC1CI2 SLP060

CYYG;2012-03-30 16:00;CYYG 301600Z 32008KT 15SM FEW020 SCT250 03/M08 A2970 RMK SC1CI2 SLP060

CYYG;2012-03-30 17:00;CYYG 301700Z 36012KT 15SM FEW020 SCT250 03/M10 A2971 RMK SC1CI2 SLP064

CYYG;2012-03-30 18:00;CYYG 301800Z 01010G15KT 15SM FEW020 SCT250 03/M10 A2971 RMK SC1CI2 SLP065

CYYG;2012-03-30 19:00;CYYG 301900Z 02010KT 15SM FEW020 BKN250 02/M10 A2972 RMK SC1CI2 SLP067

CYYG;2012-03-30 20:00;CYYG 302000Z 36008KT 15SM FEW050 BKN250 02/M11 A2973 RMK SC1CI2 SLP069

CYYG;2012-03-30 21:00;CYYG 302100Z 36007KT 15SM FEW050 BKN250 01/M12 A2974 RMK SC1CI2 SLP073

CYYG;2012-03-30 22:00;CYYG 302200Z 36004KT 15SM FEW050 SCT250 00/M11 A2976 RMK SC2CI2 SLP080

CYYG;2012-03-30 23:00;CYYG 302300Z 00000KT 15SM FEW120 M01/M09 A2978 RMK AC2 SLP086

CYYG;2012-03-31 00:00;CYYG 310000Z 36003KT 15SM FEW120 M03/M08 A2982 RMK AC1 SLP100

CYYG;2012-03-31 01:00;CYYG 310100Z 00000KT 15SM FEW120 M03/M07 A2983 RMK AC1 SLP105

CYYG;2012-03-31 02:00;CYYG 310200Z 34004KT 15SM FEW120 M05/M09 A2985 RMK AC1 SLP110

CYYG;2012-03-31 03:00;CYYG 310300Z 35002KT 15SM FEW120 M05/M08 A2985 RMK AC1 SLP110

CYYG;2012-03-31 04:00;CYYG 310400Z 36004KT 15SM FEW120 M05/M08 A2985 RMK AC1 FROIN SLP111

CYYG;2012-03-31 05:00;CYYG 310500Z 26002KT 15SM SKC M04/M07 A2987 RMK FROIN SLP116

CYYG;2012-03-31 06:00;CYYG 310600Z 00000KT 15SM SKC M06/M08 A2986 RMK FROIN SLP114

CYYG;2012-03-31 07:00;CYYG 310700Z 25002KT 15SM SKC M05/M08 A2986 RMK FROIN SLP113

CYYG;2012-03-31 08:00;CYYG 310800Z 25003KT 15SM SKC M06/M09 A2986 RMK FROIN SLP114

CYYG;2012-03-31 09:00;CYYG 310900Z 25004KT 15SM FEW120 M05/M08 A2987 RMK AC1 FROIN SLP118

CYYG;2012-03-31 10:00;CYYG 311000Z 29003KT 15SM FEW300 M05/M09 A2988 RMK CI0 FROIN SLP122

CYYG;2012-03-31 11:00;CYYG 311100Z 31006KT 15SM FEW300 M02/M07 A2990 RMK CI1 SLP126

CYYG;2012-03-31 12:00;CYYG 311200Z 32006KT 15SM FEW020 FEW040 FEW300 M00/M05 A2991 RMK CF1SC1CI1 SLP131

CYYG;2012-03-31 13:00;CYYG 311300Z 33009KT 15SM FEW020 FEW300 01/M06 A2992 RMK CF1CI1 SLP134

CYYG;2012-03-31 14:00;CYYG 311400Z 35010G15KT 15SM SCT020 01/M06 A2992 RMK CF3 SLP134

CYYG;2012-03-31 15:00;CYYG 311500Z 36012KT 15SM FEW022 01/M07 A2991 RMK CU2 SLP131

CYYG;2012-03-31 16:00;CYYG 311600Z 36010G15KT 15SM SCT028 01/M07 A2990 RMK CU3 SLP128

CYYG;2012-03-31 16:34;CYYG 311634Z 35010KT 15SM BKN027 00/ RMK SC6

CYYG;2012-03-31 17:00;CYYG 311700Z 02010G17KT 15SM BKN027 BKN045 00/M08 A2990 RMK SC5SC2 SLP127

CYYG;2012-03-31 17:17;CYYG 311717Z 36007KT 15SM -SHSN SCT027 BKN038 00/ RMK SC3SC4 PCPN VRY LGT

CYYG;2012-03-31 18:00;CYYG 311800Z 02007KT 15SM -SHSN FEW025 BKN035 M00/M08 A2990 RMK SC2SC5 PCPN VRY LGT SLP127

CYYG;2012-03-31 19:00;CYYG 311900Z 36007G15KT 15SM -SHSN FEW025 SCT035 BKN052 01/M08 A2989 RMK SC2SC2SC3 SLP125

CYYG;2012-03-31 19:30;CYYG 311930Z 02006KT 15SM FEW025 BKN052 00/ RMK SC2SC5

CYYG;2012-03-31 20:00;CYYG 312000Z 02007KT 15SM FEW025 BKN052 M00/M08 A2988 RMK SC2SC5 SLP120

CYYG;2012-03-31 21:00;CYYG 312100Z 36007KT 15SM FEW030 SCT052 BKN250 M01/M09 A2989 RMK CF1SC2CI1 SLP123

CYYG;2012-03-31 22:00;CYYG 312200Z 05004KT 15SM FEW050 BKN250 M02/M09 A2987 RMK SC1CI2 SLP119

CYYG;2012-03-31 23:00;CYYG 312300Z 04003KT 15SM BKN200 M03/M09 A2988 RMK CI2 SLP120

CYYG;2012-04-01 00:00;CYYG 010000Z 16002KT 15SM BKN200 M03/M09 A2988 RMK CI2 SLP121

CYYG;2012-04-01 01:00;CYYG 010100Z 21003KT 15SM FEW200 M03/M09 A2987 RMK CI1 SLP117

CYYG;2012-04-01 02:00;CYYG 010200Z 21004KT 15SM FEW200 M02/M08 A2986 RMK CI1 SLP113

CYYG;2012-04-01 03:00;CYYG 010300Z 00000KT 15SM SKC M06/M09 A2985 RMK SLP112

CYYG;2012-04-01 04:00;CYYG 010400Z 04004KT 15SM SKC M05/M09 A2986 RMK FROIN SLP113

CYYG;2012-04-01 05:00;CYYG 010500Z 17003KT 15SM SKC M05/M08 A2984 RMK FROIN SLP107

CYYG;2012-04-01 06:00;CYYG 010600Z 00000KT 15SM SKC M05/M09 A2983 RMK FROIN SLP103

CYYG;2012-04-01 07:00;CYYG 010700Z 27003KT 15SM SKC M07/M10 A2981 RMK FROIN SLP098

CYYG;2012-04-01 08:00;CYYG 010800Z 03003KT 15SM SKC M07/M10 A2982 RMK FROIN SLP099

CYYG;2012-04-01 09:00;CYYG 010900Z 00000KT 15SM BKN200 M07/M09 A2982 RMK CI2 FROIN SLP100

CYYG;2012-04-01 10:00;CYYG 011000Z 00000KT 15SM BKN200 M07/M09 A2981 RMK CI1 FROIN SLP098

CYYG;2012-04-01 11:00;CYYG 011100Z 23003KT 15SM FEW010 BKN200 M04/M07 A2984 RMK ST1CI0 SLP106

CYYG;2012-04-01 12:00;CYYG 011200Z 22002KT 15SM FEW010 BKN200 M02/M06 A2984 RMK ST1CI0 SLP106

CYYG;2012-04-01 13:00;CYYG 011300Z 27004KT 15SM FEW015 FEW200 00/M05 A2982 RMK CF1CI1 SLP102

CYYG;2012-04-01 14:00;CYYG 011400Z 24002KT 15SM FEW020 FEW190 02/M06 A2981 RMK CF1CI1 SLP097

CYYG;2012-04-01 15:00;CYYG 011500Z 30004KT 15SM FEW025 FEW180 03/M09 A2979 RMK CF1AC1 SLP090

CYYG;2012-04-01 16:00;CYYG 011600Z 27006KT 15SM FEW030 FEW250 04/M08 A2977 RMK CF1CI1 SLP084

CYYG;2012-04-01 17:00;CYYG 011700Z 02008KT 15SM FEW045 FEW250 05/M06 A2975 RMK CF1CI1 FOG OVR WTR DIST N-NE SLP078

CYYG;2012-04-01 18:00;CYYG 011800Z 03009KT 15SM FEW010 FEW045 FEW250 05/M06 A2974 RMK SF1CF1CI0 SLP075

CYYG;2012-04-01 19:00;CYYG 011900Z 36007KT 15SM FEW045 FEW250 04/M07 A2974 RMK CF1CI0 SLP073

CYYG;2012-04-01 20:00;CYYG 012000Z 07005KT 15SM FEW045 FEW250 04/M08 A2973 RMK CF1CI0 SLP070

CYYG;2012-04-01 21:00;CYYG 012100Z 07007KT 15SM FEW250 03/M08 A2972 RMK CI1 SLP066

CYYG;2012-04-01 22:00;CYYG 012200Z 08003KT 15SM BKN250 02/M10 A2972 RMK CS2 SLP066

CYYG;2012-04-01 23:00;CYYG 012300Z 09002KT 15SM FEW180 BKN240 00/M10 A2971 RMK AC1CI2 SLP064

CYYG;2012-04-02 00:00;CYYG 020000Z 13006KT 15SM FEW160 BKN240 M00/M08 A2971 RMK AC1CI1 SLP065

CYYG;2012-04-02 01:00;CYYG 020100Z 16005KT 15SM FEW160 BKN250 M01/M08 A2971 RMK AC1CI1 SLP063

CYYG;2012-04-02 02:00;CYYG 020200Z 16006KT 15SM FEW140 BKN250 M01/M08 A2970 RMK AC2CI0 SLP060

CYYG;2012-04-02 03:00;CYYG 020300Z 16005KT 15SM FEW130 BKN180 M01/M08 A2968 RMK AC1AC2 SLP053

CYYG;2012-04-02 04:00;CYYG 020400Z 17005KT 15SM BKN180 M01/M07 A2966 RMK AC3 SLP047

CYYG;2012-04-02 05:00;CYYG 020500Z 15004KT 15SM BKN130 M00/M07 A2965 RMK AC2 SLP041

CYYG;2012-04-02 06:00;CYYG 020600Z 17003KT 15SM BKN140 M01/M06 A2963 RMK AC3 SLP037

CYYG;2012-04-02 07:00;CYYG 020700Z 20006KT 15SM OVC120 M01/M05 A2962 RMK AS4 SLP033

CYYG;2012-04-02 08:00;CYYG 020800Z 14003KT 15SM FEW090 OVC140 M02/M05 A2961 RMK AC2AS3 SLP030

CYYG;2012-04-02 09:00;CYYG 020900Z 00000KT 15SM BKN120 M02/M06 A2961 RMK AS5 SLP030

CYYG;2012-04-02 10:00;CYYG 021000Z 04003KT 15SM FEW090 BKN180 M04/M07 A2962 RMK AC1AS2 SLP031

CYYG;2012-04-02 11:00;CYYG 021100Z 34004KT 15SM FEW090 BKN180 M03/M06 A2963 RMK AC1AC2 SLP035

CYYG;2012-04-02 12:00;CYYG 021200Z 27003KT 15SM BKN180 01/M03 A2963 RMK AC3 SLP034

CYYG;2012-04-02 13:00;CYYG 021300Z 33004KT 15SM BKN170 03/M04 A2963 RMK AC2 SLP034

CYYG;2012-04-02 14:00;CYYG 021400Z 36007KT 15SM BKN160 05/M08 A2960 RMK AC2 SLP027

CYYG;2012-04-02 15:00;CYYG 021500Z 03010G18KT 15SM FEW030 SCT160 06/M08 A2961 RMK CU1AC1 SLP028

CYYG;2012-04-02 16:00;CYYG 021600Z 03010KT 15SM FEW030 SCT160 05/M08 A2961 RMK CU1AC1 SLP029

CYYG;2012-04-02 17:00;CYYG 021700Z 35008KT 15SM FEW030 FEW200 05/M06 A2961 RMK CU1CI1 SLP028

CYYG;2012-04-02 18:00;CYYG 021800Z 36006KT 15SM FEW035 FEW220 04/M06 A2960 RMK CF1CI1 SLP025

CYYG;2012-04-02 19:00;CYYG 021900Z 02010KT 15SM FEW035 FEW220 04/M06 A2960 RMK CF1CI1 SLP027

CYYG;2012-04-02 20:00;CYYG 022000Z 02008KT 15SM FEW035 03/M06 A2960 RMK CF1 SLP024

CYYG;2012-04-02 21:00;CYYG 022100Z 05006KT 15SM FEW035 02/M06 A2960 RMK CF1 SLP027

CYYG;2012-04-02 22:00;CYYG 022200Z 03005KT 15SM SKC 00/M06 A2962 RMK SLP031

CYYG;2012-04-02 23:00;CYYG 022300Z 02004KT 15SM FEW100 M01/M05 A2962 RMK AC1 SLP032

CYYG;2012-04-03 00:00;CYYG 030000Z 01004KT 15SM SKC M02/M06 A2963 RMK SLP035

CYYG;2012-04-03 01:00;CYYG 030100Z 02003KT 15SM SKC M03/M06 A2964 RMK SLP038

CYYG;2012-04-03 02:00;CYYG 030200Z 00000KT 15SM SKC M04/M06 A2963 RMK SLP037

CYYG;2012-04-03 03:00;CYYG 030300Z 36004KT 15SM SKC M05/M07 A2964 RMK FROIN SLP039

CYYG;2012-04-03 04:00;CYYG 030400Z 35003KT 15SM SKC M04/M06 A2963 RMK FROIN SLP035

CYYG;2012-04-03 05:00;CYYG 030500Z 00000KT 15SM SKC M04/M06 A2963 RMK FROIN SLP036

CYYG;2012-04-03 06:00;CYYG 030600Z 33003KT 15SM SKC M05/M08 A2963 RMK FROIN SLP034

CYYG;2012-04-03 07:00;CYYG 030700Z 33004KT 15SM SKC M05/M08 A2961 RMK FROIN SLP029

CYYG;2012-04-03 08:00;CYYG 030800Z 34004KT 15SM FEW100 M05/M07 A2960 RMK AC1 FROIN SLP024

CYYG;2012-04-03 09:00;CYYG 030900Z 34004KT 15SM FEW100 M05/M08 A2960 RMK AC1 SLP025

CYYG;2012-04-03 10:00;CYYG 031000Z 34005KT 15SM FEW100 FEW250 M05/M08 A2960 RMK AC1CI0 FROIN SLP024

CYYG;2012-04-03 11:00;CYYG 031100Z 36003KT 15SM FEW015 FEW100 FEW250 M02/M06 A2961 RMK CF1AC1CI0 FROIN SLP030

CYYG;2012-04-03 12:00;CYYG 031200Z 36013G18KT 15SM BKN020 BKN100 M01/M06 A2962 RMK SC5AC1 SLP032

CYYG;2012-04-03 13:00;CYYG 031300Z 36010G18KT 15SM SCT020 01/M05 A2963 RMK SC4 SLP036

CYYG;2012-04-03 14:00;CYYG 031400Z 36013G20KT 15SM BKN025 01/M07 A2961 RMK SC6 SLP030

CYYG;2012-04-03 15:00;CYYG 031500Z 01013G21KT 15SM BKN026 01/M07 A2961 RMK SC7 SLP029

CYYG;2012-04-03 16:00;CYYG 031600Z 36014G26KT 15SM BKN027 01/M07 A2962 RMK SC7 SLP032

CYYG;2012-04-03 17:00;CYYG 031700Z 35018G26KT 15SM BKN024 M00/M07 A2959 RMK SC7 SLP023

CYYG;2012-04-03 18:00;CYYG 031800Z 36017G24KT 15SM BKN024 00/M07 A2959 RMK SC7 SLP023

CYYG;2012-04-03 19:00;CYYG 031900Z 02016G28KT 15SM BKN018 M00/M06 A2956 RMK SC7 SLP014

CYYG;2012-04-03 20:00;CYYG 032000Z 36017G26KT 15SM BKN017 M01/M07 A2955 RMK SC7 SLP010

CYYG;2012-04-03 21:00;CYYG 032100Z 36016G24KT 15SM BKN017 M01/M07 A2955 RMK SC7 SLP008

CYYG;2012-04-03 22:00;CYYG 032200Z 36015G22KT 15SM BKN017 M01/M06 A2954 RMK SC5 SLP005

CYYG;2012-04-03 23:00;CYYG 032300Z 36010G19KT 15SM SCT017 M01/M06 A2955 RMK SC4 SLP008

CYYG;2012-04-04 00:00;CYYG 040000Z 36009KT 15SM SCT015 M01/M05 A2955 RMK SC3 SLP010

CYYG;2012-04-04 01:00;CYYG 040100Z 35009KT 15SM FEW015 M01/M05 A2953 RMK SC2 SLP001

CYYG;2012-04-04 02:00;CYYG 040200Z 36012KT 15SM FEW015 M01/M05 A2950 RMK SC2 SLP992

CYYG;2012-04-04 03:00;CYYG 040300Z 35009G16KT 15SM FEW015 M01/M05 A2948 RMK SC2 SLP985

CYYG;2012-04-04 04:00;CYYG 040400Z 35009G15KT 15SM FEW015 M00/M05 A2946 RMK SC2 SLP979

CYYG;2012-04-04 05:00;CYYG 040500Z 34009KT 15SM FEW015 M00/M05 A2944 RMK SC1 SLP972

CYYG;2012-04-04 06:00;CYYG 040600Z 34011G16KT 15SM FEW015 00/M05 A2942 RMK SC1 SLP966

CYYG;2012-04-04 07:00;CYYG 040700Z 36010KT 15SM FEW015 00/M05 A2942 RMK SC1 SLP963

CYYG;2012-04-04 08:00;CYYG 040800Z 34011KT 15SM FEW015 M00/M04 A2940 RMK SC1 SLP957

CYYG;2012-04-04 09:00;CYYG 040900Z 33008KT 15SM FEW015 M01/M04 A2941 RMK SC1 SLP960

CYYG;2012-04-04 10:00;CYYG 041000Z 33008KT 15SM FEW015 FEW030 M01/M04 A2941 RMK SC1SC1 SLP962

CYYG;2012-04-04 11:00;CYYG 041100Z 33010KT 15SM FEW015 FEW300 M00/M04 A2942 RMK SC1CI1 SLP964

CYYG;2012-04-04 12:00;CYYG 041200Z 34010G15KT 15SM FEW015 FEW140 BKN300 01/M04 A2940 RMK CF1AC1CI1 SLP957

CYYG;2012-04-04 13:00;CYYG 041300Z 35010G16KT 15SM FEW015 FEW140 BKN300 02/M04 A2938 RMK CF1AC1CI2 SLP952

CYYG;2012-04-04 14:00;CYYG 041400Z 33011G17KT 15SM FEW020 BKN180 04/M04 A2936 RMK CF1AC2 SLP946

CYYG;2012-04-04 15:00;CYYG 041500Z 35011G18KT 15SM FEW020 FEW180 BKN300 04/M04 A2934 RMK CU1AC1CI1 SLP938

CYYG;2012-04-04 16:00;CYYG 041600Z 35013G19KT 15SM FEW025 FEW180 BKN300 03/M04 A2933 RMK CU1AC1CI1 SLP933

CYYG;2012-04-04 17:00;CYYG 041700Z 34012G20KT 15SM FEW024 FEW180 BKN300 03/M05 A2933 RMK CU1AC1CI2 SLP933

CYYG;2012-04-04 18:00;CYYG 041800Z 35010G20KT 15SM FEW024 BKN200 03/M05 A2932 RMK CU1CI2 SLP930

CYYG;2012-04-04 19:00;CYYG 041900Z 02009KT 15SM FEW024 BKN200 02/M05 A2931 RMK CU1CS4 SLP928

CYYG;2012-04-04 20:00;CYYG 042000Z 01012KT 15SM FEW024 FEW080 BKN180 02/M06 A2931 RMK CU1AC1AS2 SLP927

CYYG;2012-04-04 21:00;CYYG 042100Z 36006KT 15SM FEW024 BKN049 BKN160 02/M06 A2931 RMK CU1SC5AS2 SLP927

CYYG;2012-04-04 22:00;CYYG 042200Z 01005KT 15SM BKN052 BKN250 02/M06 A2931 RMK SC6CI1 SLP929

CYYG;2012-04-04 23:00;CYYG 042300Z 28004KT 15SM BKN052 01/M06 A2933 RMK SC7 SLP935

CYYG;2012-04-05 00:00;CYYG 050000Z 34002KT 15SM OVC055 01/M06 A2934 RMK SC8 SLP938

CYYG;2012-04-05 01:00;CYYG 050100Z 26003KT 15SM OVC061 01/M05 A2933 RMK SC8 SLP936

CYYG;2012-04-05 02:00;CYYG 050200Z 23008KT 15SM OVC070 01/M03 A2932 RMK AC8 SLP932

CYYG;2012-04-05 02:17;CYYG 050217Z 24007KT 15SM FEW004 OVC025 01/ RMK SF2SC6

CYYG;2012-04-05 02:48;CYYG 050248Z 24006KT 12SM FEW003 OVC014 01/ RMK SF2SC6

CYYG;2012-04-05 03:00;CYYG 050300Z 23006KT 12SM FEW003 OVC014 01/M02 A2931 RMK SF2SC6 SLP927

CYYG;2012-04-05 03:21;CYYG 050321Z 23005KT 10SM -SHSN BKN004 OVC014 01/ RMK SF6SC2 PCPN VRY LGT

CYYG;2012-04-05 04:00;CYYG 050400Z 25006KT 10SM -SHSN BKN003 OVC012 01/M02 A2931 RMK SF7SC1 PCPN VRY LGT SLP925

CYYG;2012-04-05 05:00;CYYG 050500Z 27004KT 10SM -SHSN BKN003 OVC009 01/M01 A2931 RMK SF7SC1 SLP925

CYYG;2012-04-05 06:00;CYYG 050600Z 27004KT 15SM BKN005 OVC077 01/M01 A2930 RMK SF5AC3 SLP923

CYYG;2012-04-05 06:10;CYYG 050610Z 28004KT 15SM SCT005 OVC078 01/ RMK SF3AC5

CYYG;2012-04-05 07:00;CYYG 050700Z 28005KT 15SM FEW005 OVC080 01/M02 A2930 RMK SF2AC6 SLP924

CYYG;2012-04-05 08:00;CYYG 050800Z 29005KT 15SM FEW005 OVC079 01/M02 A2931 RMK SF1AC7 SLP925

CYYG;2012-04-05 09:00;CYYG 050900Z 30006KT 15SM FEW005 OVC074 01/M03 A2931 RMK SF1AC7 SLP929

CYYG;2012-04-05 10:00;CYYG 051000Z 29006KT 15SM BKN071 01/M03 A2933 RMK AC7 SLP934

CYYG;2012-04-05 11:00;CYYG 051100Z 28006KT 15SM BKN049 BKN069 01/M03 A2936 RMK SC5AC2 SLP944

CYYG;2012-04-05 11:24;CYYG 051124Z 31008KT 15SM -SHSN FEW049 BKN069 02/ RMK SC2AC4

CYYG;2012-04-05 11:50;CYYG 051150Z 32010KT 15SM -SHRA FEW049 OVC069 03/ RMK SC2AC5

CYYG;2012-04-05 12:00;CYYG 051200Z 32007KT 15SM -SHRA FEW020 OVC044 03/M02 A2938 RMK CU1SC6 SLP951

CYYG;2012-04-05 12:11;CYYG 051211Z 32008KT 15SM -SHSN FEW020 BKN041 03/ RMK CU1SC6

CYYG;2012-04-05 13:00;CYYG 051300Z 32011G16KT 15SM FEW028 BKN063 04/M04 A2939 RMK CU2SC4 SLP954

CYYG;2012-04-05 14:00;CYYG 051400Z 32011G20KT 15SM FEW028 BKN045 BKN063 04/M07 A2941 RMK CU1SC5SC2 SH DIST E-SE SLP960

CYYG;2012-04-05 15:00;CYYG 051500Z 34012KT 15SM BKN043 BKN052 04/M07 A2942 RMK SC6SC2 SH DIST SE SLP965

CYYG;2012-04-05 16:00;CYYG 051600Z 32013G18KT 15SM FEW030 BKN043 04/M08 A2944 RMK CU1SC6 SLP970

CYYG;2012-04-05 17:00;CYYG 051700Z 31010G16KT 15SM BKN045 05/M07 A2944 RMK SC6 SLP972

CYYG;2012-04-05 18:00;CYYG 051800Z 29010KT 15SM BKN050 06/M07 A2944 RMK SC6 SLP973

CYYG;2012-04-05 19:00;CYYG 051900Z 29012G19KT 15SM BKN064 06/M06 A2947 RMK SC6 SLP980

CYYG;2012-04-05 20:00;CYYG 052000Z 29012G17KT 15SM FEW052 BKN062 06/M06 A2948 RMK SC2SC6 SH DIST W-N SLP985

CYYG;2012-04-05 21:00;CYYG 052100Z 30008KT 15SM BKN056 06/M06 A2950 RMK SC7 SH DIST ALQDS SLP990

CYYG;2012-04-05 22:00;CYYG 052200Z 34006KT 15SM BKN048 BKN070 04/M07 A2952 RMK SC6AC1 VIRGA ALQDS SLP000

CYYG;2012-04-05 23:00;CYYG 052300Z 27005KT 15SM SCT053 BKN065 04/M06 A2955 RMK SC3SC4 SLP008

CYYG;2012-04-06 00:00;CYYG 060000Z 28007KT 15SM FEW050 BKN073 04/M07 A2958 RMK SC2AC4 SLP017

CYYG;2012-04-06 01:00;CYYG 060100Z 27009KT 15SM FEW050 OVC074 04/M06 A2959 RMK SC2AC6 SLP021

CYYG;2012-04-06 02:00;CYYG 060200Z 27008KT 15SM FEW050 OVC075 03/M06 A2960 RMK SC2AC6 SLP024

CYYG;2012-04-06 03:00;CYYG 060300Z 26007KT 15SM FEW050 OVC080 03/M06 A2960 RMK SC2AC6 SLP026

CYYG;2012-04-06 04:00;CYYG 060400Z 26007KT 15SM FEW050 BKN080 02/M06 A2960 RMK SC2AC4 SLP027

CYYG;2012-04-06 05:00;CYYG 060500Z 26007KT 15SM SCT060 SCT080 02/M06 A2962 RMK SC3AC1 SLP032

CYYG;2012-04-06 06:00;CYYG 060600Z 27008KT 15SM FEW060 01/M06 A2963 RMK SC2 SLP034

CYYG;2012-04-06 07:00;CYYG 060700Z 26007KT 15SM FEW060 00/M05 A2964 RMK SC2 SLP038

CYYG;2012-04-06 08:00;CYYG 060800Z 27006KT 15SM FEW060 M00/M05 A2965 RMK SC1 SLP041

CYYG;2012-04-06 09:00;CYYG 060900Z 27005KT 15SM FEW060 M01/M05 A2966 RMK SC1 FROIN SLP046

CYYG;2012-04-06 10:00;CYYG 061000Z 27005KT 15SM FEW040 M01/M06 A2968 RMK SC1 FROIN SLP053

CYYG;2012-04-06 11:00;CYYG 061100Z 28006KT 15SM FEW040 01/M05 A2970 RMK SC1 SLP060

CYYG;2012-04-06 12:00;CYYG 061200Z 29012KT 15SM FEW050 03/M05 A2972 RMK SC1 SLP066

CYYG;2012-04-06 13:00;CYYG 061300Z 27011KT 15SM FEW050 04/M05 A2974 RMK CF1 SLP072

CYYG;2012-04-06 14:00;CYYG 061400Z 27006KT 15SM FEW037 04/M06 A2974 RMK SC2 SLP073

CYYG;2012-04-06 15:00;CYYG 061500Z 27006KT 15SM SCT037 05/M06 A2975 RMK SC3 SLP077

CYYG;2012-04-06 16:00;CYYG 061600Z 24010KT 15SM BKN045 05/M06 A2975 RMK SC6 SLP077

CYYG;2012-04-06 17:00;CYYG 061700Z 25010KT 15SM BKN045 06/M06 A2976 RMK SC6 SLP079

CYYG;2012-04-06 18:00;CYYG 061800Z 24010KT 15SM BKN052 07/M07 A2976 RMK SC6 SLP080

CYYG;2012-04-06 19:00;CYYG 061900Z 03006KT 15SM BKN050 05/M06 A2977 RMK SC6 SLP081

CYYG;2012-04-06 20:00;CYYG 062000Z 06004KT 15SM FEW048 BKN064 05/M05 A2977 RMK SC2SC4 SLP083

CYYG;2012-04-06 21:00;CYYG 062100Z 07006KT 15SM FEW048 BKN062 05/M05 A2978 RMK SC2SC4 SLP086

CYYG;2012-04-06 22:00;CYYG 062200Z 10004KT 15SM BKN064 04/M05 A2981 RMK SC6 SLP095

CYYG;2012-04-06 23:00;CYYG 062300Z 09003KT 15SM BKN064 04/M05 A2982 RMK SC6 SLP100

CYYG;2012-04-07 00:00;CYYG 070000Z 13008KT 15SM BKN065 03/M04 A2985 RMK SC6 SLP108

CYYG;2012-04-07 01:00;CYYG 070100Z 16006KT 15SM SCT070 01/M05 A2987 RMK AC3 SLP115

CYYG;2012-04-07 02:00;CYYG 070200Z 16005KT 15SM SCT074 00/M05 A2987 RMK AC3 SLP118

CYYG;2012-04-07 03:00;CYYG 070300Z 18005KT 15SM SCT075 M00/M05 A2988 RMK AC4 SLP120

CYYG;2012-04-07 04:00;CYYG 070400Z 21005KT 15SM BKN077 01/M03 A2989 RMK AC5 SLP125

CYYG;2012-04-07 05:00;CYYG 070500Z 21003KT 15SM BKN074 01/M04 A2989 RMK AC5 SLP123

CYYG;2012-04-07 06:00;CYYG 070600Z 20006KT 15SM SCT074 M01/M04 A2988 RMK AC3 SLP121

CYYG;2012-04-07 07:00;CYYG 070700Z 00000KT 15SM FEW075 M01/M04 A2989 RMK AC2 SLP122

CYYG;2012-04-07 08:00;CYYG 070800Z 00000KT 15SM FEW075 M02/M04 A2989 RMK AC1 FROIN SLP122

CYYG;2012-04-07 09:00;CYYG 070900Z 01002KT 15SM FEW070 BKN220 M04/M07 A2988 RMK AC1CI1 SLP122

CYYG;2012-04-07 10:00;CYYG 071000Z 35006KT 15SM FEW070 BKN220 M01/M04 A2990 RMK AC1CS2 SLP128

CYYG;2012-04-07 11:00;CYYG 071100Z 36006KT 15SM FEW070 BKN200 00/M03 A2990 RMK AC1CS3 FROIN SLP128

CYYG;2012-04-07 12:00;CYYG 071200Z 36006KT 15SM FEW180 BKN250 02/M02 A2990 RMK AC1CI2 SLP129

CYYG;2012-04-07 13:00;CYYG 071300Z 36008KT 15SM BKN250 04/M01 A2993 RMK CI2 SLP137

CYYG;2012-04-07 14:00;CYYG 071400Z 02011KT 15SM SCT250 05/M02 A2992 RMK CI2 SLP134

CYYG;2012-04-07 15:00;CYYG 071500Z 03013KT 15SM FEW030 BKN250 06/M03 A2992 RMK CF1CI2 SLP133

CYYG;2012-04-07 16:00;CYYG 071600Z 01012KT 15SM FEW030 FEW060 BKN220 05/M03 A2990 RMK CF1SC2CI2 SLP129

CYYG;2012-04-07 17:00;CYYG 071700Z 02014KT 15SM FEW030 FEW060 BKN220 05/M03 A2989 RMK CF1SC2CI4 SLP124

CYYG;2012-04-07 18:00;CYYG 071800Z 02016KT 15SM FEW020 SCT064 BKN220 04/M02 A2988 RMK CF1SC3CI4 SLP122

CYYG;2012-04-07 19:00;CYYG 071900Z 01012G17KT 15SM FEW020 BKN064 OVC120 03/M02 A2988 RMK SC2SC4AC2 SLP122

CYYG;2012-04-07 20:00;CYYG 072000Z 01011G16KT 15SM BKN010 OVC064 01/M02 A2986 RMK SF5SC3 SLP115

CYYG;2012-04-07 20:23;CYYG 072023Z 03016G22KT 15SM OVC007 01/ RMK SF8

CYYG;2012-04-07 21:00;CYYG 072100Z 04014G22KT 15SM OVC008 01/M02 A2987 RMK SF8 SLP116

CYYG;2012-04-07 21:47;CYYG 072147Z 05015G20KT 12SM -SHSN OVC008 01/ RMK SF8

CYYG;2012-04-07 22:00;CYYG 072200Z 05014G20KT 4SM -SHSN OVC008 01/M02 A2987 RMK SF8 SLP118

CYYG;2012-04-07 22:26;CYYG 072226Z 05014G19KT 1SM R03/P6000FT/D -SN OVC005 01/ RMK SN3SF5

CYYG;2012-04-07 23:00;CYYG 072300Z 05014KT 1 1/2SM -SN OVC005 00/M02 A2986 RMK SN3SF5 SLP114

CYYG;2012-04-07 23:28;CYYG 072328Z 03017G22KT 2 1/2SM -SN OVC005 00/ RMK SN3SF5

CYYG;2012-04-08 00:00;CYYG 080000Z 02016G21KT 2 1/2SM -SN OVC005 M00/M03 A2985 RMK SN3SF5 /S01/ SLP111

CYYG;2012-04-08 01:00;CYYG 080100Z 03019G25KT 2 1/2SM R03/4500VP6000FT/U -SN OVC006 M01/M04 A2983 RMK SN3SF5 SLP104

CYYG;2012-04-08 01:34;CYYG 080134Z 02017G28KT 3SM -SN BKN008 OVC030 M01/ RMK SN2SF3NS3

CYYG;2012-04-08 02:00;CYYG 080200Z 01015G26KT 2 1/2SM R03/4500VP6000FT/D -SN BKN010 OVC025 M01/M04 A2980 RMK SN3SF3NS2 SLP095

CYYG;2012-04-08 02:46;CYYG 080246Z 02019G27KT 1 1/2SM R03/3500VP6000FT/D -SN DRSN VV006 M01/ RMK SN8

CYYG;2012-04-08 03:00;CYYG 080300Z 01018G27KT 5/8SM R03/2600FT/D -SN DRSN VV004 M01/M04 A2977 RMK SN8 SLP082

CYYG;2012-04-08 03:19;CYYG 080319Z 01017G26KT 1SM R03/3500VP6000FT/U -SN DRSN OVC008 M01/ RMK SN3SF5

CYYG;2012-04-08 04:00;CYYG 080400Z 36018G31KT 1SM R03/4000V5500FT/U -SN BLSN OVC006 M01/M04 A2972 RMK BLSN2SF6 /S02/ PRESFR SLP067

CYYG;2012-04-08 05:00;CYYG 080500Z 36019G27KT 1 1/2SM -SN BLSN OVC008 M02/M04 A2966 RMK BLSN2SF6 PRESFR SLP046

CYYG;2012-04-08 06:00;CYYG 080600Z CCA 36019G31KT 2SM -SN BLSN OVC006 M02/M04 A2956 RMK BLSN2SF6 /S04/ PRESFR SLP013

CYYG;2012-04-08 06:24;CYYG 080624Z 34023G34KT 1 1/2SM R03/4500VP6000FT/D -SNPL DRSN -FZDZ OVC005 RMK SF8 ICE ON INDICATOR

CYYG;2012-04-08 07:00;CYYG 080700Z 35020G33KT 3/4SM R03/2600V5500FT/D -SNPL BLSN OVC007 M02/M03 A2947 REFZDZ RMK BLSN3SF5 PRESFR SLP980

CYYG;2012-04-08 07:38;CYYG 080738Z 36018G32KT 1/2SM R03/2800FT/N -SNPL BLSN OVC007 M02/ RMK BLSN5SF3

CYYG;2012-04-08 08:00;CYYG 080800Z 36018G35KT 1/2SM R03/3000FT/N -SNPL BLSN OVC006 M01/M02 A2941 RMK BLSN5SF3 PRESFR /S02/ SLP960

CYYG;2012-04-08 08:11;CYYG 080811Z 35018G27KT 3/8SM R03/2400FT/N -SNPL BLSN VV003 M01/ RMK BLSN8

CYYG;2012-04-08 08:43;CYYG 080843Z 35017G30KT 1/2SM R03/3000FT/N -SNPL BLSN OVC006 M01/ RMK BLSN5SF3

CYYG;2012-04-08 09:00;CYYG 080900Z 35018G31KT 1/2SM R03/3000FT/N -SNPL BLSN OVC007 M01/M01 A2932 RMK BLSN5SF3 /S03/ SLP932

CYYG;2012-04-08 10:00;CYYG 081000Z 33017G28KT 3/4SM R03/4500FT/U -SNPL BLSN OVC006 M01/M01 A2927 RMK BLSN4SF4 /S05/ SLP915

CYYG;2012-04-08 11:00;CYYG 081100Z 32016G24KT 2 1/2SM -SNPL DRSN OVC006 M00/M01 A2922 RMK SF8 SLP898

CYYG;2012-04-08 12:00;CYYG 081200Z 31015KT 3SM -SNPL DRSN OVC007 M00/M00 A2917 RMK SF8 /S08/ SLP880

CYYG;2012-04-08 13:00;CYYG 081300Z 28012KT 3SM -SNPL DRSN BR OVC007 00/00 A2916 RMK SF8 SLP877

CYYG;2012-04-08 13:15;CYYG 081315Z 24009KT 3SM -SN DRSN BR OVC006 00/ RMK SF8

CYYG;2012-04-08 14:00;CYYG 081400Z 23012G18KT 3SM -SN DRSN BR OVC006 00/M00 A2919 RMK SF8 SLP885

CYYG;2012-04-08 14:47;CYYG 081447Z 23019G30KT 3/4SM R03/4500VP6000FT/D -SN DRSN BR OVC006 00/ RMK SF8

CYYG;2012-04-08 15:00;CYYG 081500Z 22023G30KT 1SM R03/3500V5000FT/D -SN DRSN BR OVC005 00/M01 A2922 RMK SF8 SLP897

CYYG;2012-04-08 16:00;CYYG 081600Z 21027G39KT 2SM -SN DRSN BR OVC006 00/M01 A2928 RMK SF8 PRESRR SLP917

CYYG;2012-04-08 16:33;CYYG 081633Z 21028G39KT 6SM -SN DRSN BKN006 OVC014 00/ RMK SF6SC2

CYYG;2012-04-08 17:00;CYYG 081700Z 21028G35KT 6SM -SN DRSN BKN008 OVC014 01/M00 A2935 RMK SF7SC1 PRESRR SLP940

CYYG;2012-04-08 18:00;CYYG 081800Z 21022G30KT 15SM -SN SCT008 OVC017 02/00 A2940 RMK SF4SC4 SLP959

CYYG;2012-04-08 18:22;CYYG 081822Z 20021G30KT 15SM FEW008 OVC021 02/ RMK SF2SC6

CYYG;2012-04-08 19:00;CYYG 081900Z 20023G31KT 15SM FEW008 BKN029 02/M00 A2944 RMK SF2SC6 SLP972

CYYG;2012-04-08 20:00;CYYG 082000Z 20018G25KT 15SM FEW008 BKN030 03/M00 A2948 RMK SF2SC5 SLP985

CYYG;2012-04-08 21:00;CYYG 082100Z 18023KT 15SM FEW012 BKN030 02/M01 A2951 RMK SF2SC5 SLP995

CYYG;2012-04-08 22:00;CYYG 082200Z 18021G29KT 15SM FEW012 SCT030 BKN071 02/M01 A2955 RMK SF1SC3AC2 SLP010

CYYG;2012-04-08 23:00;CYYG 082300Z 18021G28KT 15SM SCT022 BKN070 BKN130 02/M01 A2958 RMK SC3AC2AS2 SLP019

CYYG;2012-04-09 00:00;CYYG 090000Z 17019G25KT 15SM BKN024 BKN050 02/M01 A2961 RMK SC6SC2 SLP030

CYYG;2012-04-09 01:00;CYYG 090100Z 17019G26KT 15SM BKN028 OVC060 02/M02 A2963 RMK SC5SC3 SLP035

CYYG;2012-04-09 02:00;CYYG 090200Z 17017KT 15SM BKN021 OVC060 02/M02 A2963 RMK SC6SC2 SLP035

CYYG;2012-04-09 03:00;CYYG 090300Z 17012G18KT 15SM BKN022 OVC064 01/M00 A2963 RMK SC5SC3 SLP037

CYYG;2012-04-09 04:00;CYYG 090400Z 17016KT 15SM SCT020 OVC060 01/M01 A2963 RMK SC3SC5 SLP035

CYYG;2012-04-09 05:00;CYYG 090500Z 17015KT 15SM FEW020 OVC064 01/M01 A2962 RMK SC2SC6 SLP032

CYYG;2012-04-09 06:00;CYYG 090600Z 16014KT 15SM SCT020 OVC063 01/M01 A2961 RMK SC3SC5 SLP029

CYYG;2012-04-09 07:00;CYYG 090700Z 17012G17KT 15SM SCT015 OVC060 01/M01 A2960 RMK SC4SC4 SLP027

CYYG;2012-04-09 08:00;CYYG 090800Z 16012KT 15SM FEW018 OVC053 01/M01 A2959 RMK SC2SC6 SLP022

CYYG;2012-04-09 09:00;CYYG 090900Z 17012KT 15SM FEW018 BKN036 OVC080 01/M01 A2959 RMK SC2SC5AC2 SLP021

CYYG;2012-04-09 10:00;CYYG 091000Z 17013G18KT 15SM BKN013 BKN040 01/M01 A2959 RMK SC5SC2 SLP021

CYYG;2012-04-09 11:00;CYYG 091100Z 17015KT 15SM BKN013 OVC040 02/M00 A2959 RMK SC6SC2 SLP023

CYYG;2012-04-09 12:00;CYYG 091200Z 18017G24KT 15SM BKN019 BKN040 03/00 A2959 RMK SC6SC1 SLP023

CYYG;2012-04-09 13:00;CYYG 091300Z 17013KT 15SM BKN016 OVC040 03/00 A2960 RMK SC7SC1 SLP025

CYYG;2012-04-09 14:00;CYYG 091400Z 17016KT 15SM BKN016 OVC040 03/01 A2960 RMK SC7SC1 SLP024

CYYG;2012-04-09 15:00;CYYG 091500Z 18012G20KT 15SM OVC016 04/01 A2959 RMK SC8 SLP022

CYYG;2012-04-09 16:00;CYYG 091600Z 17014KT 15SM FEW016 SCT040 BKN120 06/02 A2957 RMK SC2SC2AC2 SLP016

CYYG;2012-04-09 17:00;CYYG 091700Z 16009KT 15SM FEW020 SCT040 BKN100 08/03 A2955 RMK SC2SC2AC2 SLP007

CYYG;2012-04-09 18:00;CYYG 091800Z 16015G20KT 15SM FEW020 BKN044 08/01 A2952 RMK SC2SC6 SLP999

CYYG;2012-04-09 19:00;CYYG 091900Z 16019G27KT 15SM FEW020 BKN032 07/02 A2950 RMK SC2SC6 SLP993

CYYG;2012-04-09 20:00;CYYG 092000Z 15017G24KT 15SM FEW020 SCT030 BKN099 06/02 A2948 RMK SC1SC3AC3 SLP986

CYYG;2012-04-09 21:00;CYYG 092100Z 15018G25KT 15SM VCSH FEW020 SCT030 BKN100 06/02 A2947 RMK SC1SC3AC3 SLP980

CYYG;2012-04-09 22:00;CYYG 092200Z 15014KT 15SM FEW020 FEW040 BKN130 06/03 A2945 RMK SC1SC2AC2 SLP975

CYYG;2012-04-09 23:00;CYYG 092300Z 16010KT 15SM FEW010 FEW050 FEW140 05/03 A2944 RMK SF1CU1AC2 SLP971

CYYG;2012-04-09 23:54;CYYG 092354Z 17015KT 10SM -SHRA OVC028 05/ RMK SC8

CYYG;2012-04-10 00:00;CYYG 100000Z 17015KT 10SM -SHRA OVC028 05/03 A2946 RMK SC8 SLP979

CYYG;2012-04-10 00:45;CYYG 100045Z 19011KT 15SM FEW005 BKN018 OVC070 04/ RMK SF1SC6AC2

CYYG;2012-04-10 01:00;CYYG 100100Z 18010KT 15SM FEW005 SCT018 OVC028 04/03 A2948 RMK SF1SC3SC5 SLP984

CYYG;2012-04-10 01:16;CYYG 100116Z 18008KT 15SM -SHRA FEW005 FEW017 OVC033 04/ RMK SF1SC1SC7

CYYG;2012-04-10 02:00;CYYG 100200Z 16006KT 15SM OVC035 04/03 A2949 RMK SC8 SLP988

CYYG;2012-04-10 03:00;CYYG 100300Z 18010KT 15SM OVC033 04/02 A2950 RMK SC8 SLP993

CYYG;2012-04-10 04:00;CYYG 100400Z 19012KT 15SM OVC026 04/02 A2951 RMK SC8 SLP994

CYYG;2012-04-10 05:00;CYYG 100500Z 19012KT 15SM OVC024 04/02 A2952 RMK SC8 SLP997

CYYG;2012-04-10 06:00;CYYG 100600Z 20012KT 15SM OVC023 04/03 A2952 RMK SC8 SLP999

CYYG;2012-04-10 07:00;CYYG 100700Z 19010KT 15SM OVC022 04/03 A2953 RMK SC8 SLP002

CYYG;2012-04-10 08:00;CYYG 100800Z 18010KT 15SM SCT018 OVC023 04/02 A2954 RMK SC3SC5 SLP005

CYYG;2012-04-10 09:00;CYYG 100900Z 18008KT 15SM SCT020 SCT060 03/02 A2956 RMK SC3SC1 SLP013

CYYG;2012-04-10 09:12;CYYG 100912Z 18008KT 15SM FEW005 BKN020 03/ RMK SF1SC6

CYYG;2012-04-10 10:00;CYYG 101000Z 19009KT 15SM BKN020 BKN060 04/02 A2958 RMK SC5SC1 SLP019

CYYG;2012-04-10 11:00;CYYG 101100Z 21008KT 15SM SCT020 BKN064 04/03 A2960 RMK SC3SC3 SLP027

CYYG;2012-04-10 12:00;CYYG 101200Z 19007KT 15SM FEW020 BKN064 05/03 A2962 RMK SC2SC2 SLP031

CYYG;2012-04-10 13:00;CYYG 101300Z 18011KT 15SM FEW025 BKN080 06/03 A2965 RMK SC2AC2 SLP041

CYYG;2012-04-10 14:00;CYYG 101400Z 19010KT 15SM FEW025 BKN087 07/03 A2966 RMK SC2AC3 SLP045

CYYG;2012-04-10 15:00;CYYG 101500Z 21010KT 15SM FEW025 BKN078 08/03 A2967 RMK SC2AC5 SLP049

CYYG;2012-04-10 16:00;CYYG 101600Z 22016G21KT 15SM FEW028 BKN041 BKN080 10/03 A2968 RMK CU2SC2AC1 SLP051

CYYG;2012-04-10 17:00;CYYG 101700Z 22014KT 15SM FEW032 FEW050 BKN250 11/03 A2967 RMK CU2SC1CI1 SLP048

CYYG;2012-04-10 18:00;CYYG 101800Z 21010KT 15SM FEW040 FEW080 BKN250 13/03 A2966 RMK CU2AC1CI0 SLP043

CYYG;2012-04-10 19:00;CYYG 101900Z 21006KT 15SM FEW044 BKN075 BKN250 12/02 A2965 RMK CU2AC3CI0 VIRGA SW SLP041

CYYG;2012-04-10 20:00;CYYG 102000Z 24006KT 15SM FEW052 SCT100 BKN250 13/01 A2964 RMK CU2AC2CI0 VIRGA NE-NW SLP038

CYYG;2012-04-10 21:00;CYYG 102100Z CCA 19003KT 15SM FEW050 BKN090 BKN250 13/01 A2964 RMK CU1AC4CI0 VIRGA NE-SW SLP038

CYYG;2012-04-10 22:00;CYYG 102200Z 18005KT 15SM BKN060 BKN250 12/02 A2965 RMK SC6CI1 SLP042

CYYG;2012-04-10 22:04;CYYG 102204Z 14002KT 15SM -SHRA BKN060 BKN250 12/ RMK SC5CI1

CYYG;2012-04-10 23:00;CYYG 102300Z 23005KT 15SM BKN060 BKN250 11/02 A2968 RMK SC5CI0 CU ASOCTD VIRGA SLP050

CYYG;2012-04-11 00:00;CYYG 110000Z 23005KT 15SM FEW060 09/M02 A2970 RMK SC2 SLP058

CYYG;2012-04-11 01:00;CYYG 110100Z 23005KT 15SM FEW060 08/M03 A2971 RMK SC1 SLP062

CYYG;2012-04-11 02:00;CYYG 110200Z 22005KT 15SM FEW060 07/M03 A2972 RMK SC1 SLP067

CYYG;2012-04-11 03:00;CYYG 110300Z 22005KT 15SM SKC 06/M02 A2973 RMK SLP070

CYYG;2012-04-11 04:00;CYYG 110400Z 21006KT 15SM SKC 04/M03 A2974 RMK SLP074

CYYG;2012-04-11 05:00;CYYG 110500Z 21006KT 15SM SKC 04/M01 A2975 RMK SLP076

CYYG;2012-04-11 06:00;CYYG 110600Z 21006KT 15SM SKC 03/00 A2976 RMK SLP078

CYYG;2012-04-11 07:00;CYYG 110700Z 21007KT 15SM SKC 03/01 A2976 RMK SLP078

CYYG;2012-04-11 08:00;CYYG 110800Z 19006KT 15SM SKC 01/M01 A2977 RMK SLP082

CYYG;2012-04-11 09:00;CYYG 110900Z 18005KT 15SM FEW210 01/M00 A2977 RMK CI1 SLP084

CYYG;2012-04-11 10:00;CYYG 111000Z 20003KT 15SM FEW100 FEW210 02/00 A2979 RMK AC1CI1 SLP090

CYYG;2012-04-11 11:00;CYYG 111100Z 22006KT 15SM FEW100 FEW210 04/02 A2982 RMK AC1CI1 SLP098

CYYG;2012-04-11 12:00;CYYG 111200Z 23007KT 15SM BKN092 BKN210 05/02 A2983 RMK AC5CI1 SLP104

CYYG;2012-04-11 13:00;CYYG 111300Z 27004KT 15SM BKN088 BKN210 07/02 A2985 RMK AC5CI1 ACC ASOCTD SW SLP111

CYYG;2012-04-11 14:00;CYYG 111400Z 22005KT 15SM SCT085 09/03 A2987 RMK AC3 SLP115

CYYG;2012-04-11 15:00;CYYG 111500Z 20003KT 15SM FEW032 FEW080 11/03 A2987 RMK CF1AC1 SLP115

CYYG;2012-04-11 16:00;CYYG 111600Z 22008KT 15SM FEW040 FEW080 FEW250 13/02 A2987 RMK CU1AC1CI1 MDT CU SLP117

CYYG;2012-04-11 17:00;CYYG 111700Z 29008KT 15SM FEW052 FEW080 FEW250 14/01 A2987 RMK CU1AC1CI1 MDT CU S+SW SLP117

CYYG;2012-04-11 18:00;CYYG 111800Z 19006KT 15SM FEW052 FEW080 BKN250 14/01 A2987 RMK CU2AC1CI1 SLP115

CYYG;2012-04-11 19:00;CYYG 111900Z 05008KT 15SM FEW052 SCT080 BKN250 12/03 A2986 RMK CU2AC1CI1 MDT CU SW+W SLP114

CYYG;2012-04-11 20:00;CYYG 112000Z 02011KT 15SM FEW052 SCT090 BKN250 10/03 A2987 RMK CU2AC2CI0 VIRGA E SLP116

CYYG;2012-04-11 21:00;CYYG 112100Z 04009KT 15SM FEW050 FEW090 BKN250 11/03 A2987 RMK SC1AC2CI1 SLP117

CYYG;2012-04-11 22:00;CYYG 112200Z 06010KT 15SM FEW050 FEW090 BKN250 10/02 A2989 RMK SC1AC1CS1 SLP122

CYYG;2012-04-11 23:00;CYYG 112300Z 01004KT 15SM FEW080 BKN200 07/02 A2988 RMK AC2CI4 SLP120

CYYG;2012-04-12 00:00;CYYG 120000Z 01006KT 15SM FEW075 BKN180 05/01 A2988 RMK CI2CI4 SLP119

CYYG;2012-04-12 01:00;CYYG 120100Z 02008KT 15SM FEW075 BKN150 04/01 A2987 RMK AC2AC5 SLP118

CYYG;2012-04-12 02:00;CYYG 120200Z 02004KT 15SM FEW075 OVC130 03/01 A2987 RMK AC2AC6 SLP118

CYYG;2012-04-12 03:00;CYYG 120300Z 02010KT 15SM BKN075 OVC120 03/01 A2987 RMK AC6AC2 SLP115

CYYG;2012-04-12 04:00;CYYG 120400Z 05006KT 15SM OVC065 04/01 A2987 RMK SC8 SLP115

CYYG;2012-04-12 05:00;CYYG 120500Z 04006KT 15SM OVC060 04/01 A2985 RMK SC8 SLP109

CYYG;2012-04-12 06:00;CYYG 120600Z 02005KT 15SM OVC049 03/01 A2985 RMK SC8 SLP109

CYYG;2012-04-12 07:00;CYYG 120700Z 36007KT 15SM BKN050 OVC070 02/00 A2984 RMK SC6AC2 SLP106

CYYG;2012-04-12 08:00;CYYG 120800Z 02007KT 15SM BKN039 OVC070 02/00 A2983 RMK SC6AC2 SLP103

CYYG;2012-04-12 09:00;CYYG 120900Z 36007KT 15SM BKN050 OVC090 02/00 A2983 RMK SC5AC3 SLP103

CYYG;2012-04-12 10:00;CYYG 121000Z 01007KT 15SM SCT004 OVC032 01/00 A2985 RMK SF3SC5 SLP108

CYYG;2012-04-12 10:08;CYYG 121008Z 01008KT 12SM BKN004 OVC032 01/ RMK SF6SC2

CYYG;2012-04-12 10:36;CYYG 121036Z 01007KT 7SM -DZ OVC003 02/ RMK SF8

CYYG;2012-04-12 11:00;CYYG 121100Z 01008KT 6SM -DZ BR OVC003 01/00 A2986 RMK SF8 SLP112

CYYG;2012-04-12 11:22;CYYG 121122Z 36011KT 3SM -DZ BR OVC002 01/ RMK SF8

CYYG;2012-04-12 11:42;CYYG 121142Z 01010KT 1SM -DZ BR OVC001 01/ RMK FG4SF4

CYYG;2012-04-12 11:51;CYYG 121151Z 01011G16KT 3/4SM R03/P6000FT/N -DZ BR OVC002 01/ RMK FG5SF3

CYYG;2012-04-12 12:00;CYYG 121200Z 36008G16KT 3/4SM -DZ BR OVC001 01/01 A2986 RMK FG5SF3 SLP113

CYYG;2012-04-12 12:31;CYYG 121231Z 36009G15KT 1SM R03/P6000FT/N -DZ BR OVC002 01/ RMK FG4SF4

CYYG;2012-04-12 12:44;CYYG 121244Z 01013KT 5/8SM R03/P6000FT/N -DZ BR OVC001 01/ RMK FG6SF2

CYYG;2012-04-12 12:54;CYYG 121254Z 01010G15KT 3/8SM R03/P6000FT/D -DZ FG VV001 01/ RMK FG8

CYYG;2012-04-12 13:00;CYYG 121300Z 01012KT 3/8SM R03/P6000FT/D -DZ FG OVC001 01/00 A2986 RMK FG6SF2 SLP114

CYYG;2012-04-12 13:38;CYYG 121338Z 01012G17KT 1/2SM R03/P6000FT/N -DZ FG OVC001 01/ RMK FG6SF2 PCPN VRY LGT

CYYG;2012-04-12 14:00;CYYG 121400Z 02011G17KT 1 1/4SM -DZ BR OVC001 02/01 A2988 RMK FG3SF5 PCPN VRY LGT SLP119

CYYG;2012-04-12 14:19;CYYG 121419Z 01011KT 3SM -DZ BR OVC002 02/ RMK SF8

CYYG;2012-04-12 14:34;CYYG 121434Z 01011KT 2SM -RADZ BR OVC002 02/ RMK FG3SF5

CYYG;2012-04-12 15:00;CYYG 121500Z 36011G17KT 2 1/2SM -RADZ BR OVC002 02/01 A2989 RMK FG4SF4 SLP124

CYYG;2012-04-12 15:09;CYYG 121509Z 36012G17KT 1 1/4SM -RADZ BR OVC002 01/ RMK FG5SF3

CYYG;2012-04-12 15:30;CYYG 121530Z 36014KT 3/4SM R03/P6000FT/N -RADZ BR OVC002 01/ RMK FG6SF2

CYYG;2012-04-12 15:45;CYYG 121545Z 01013G18KT 2 1/2SM -RASN BR OVC002 01/ RMK SF8

CYYG;2012-04-12 16:00;CYYG 121600Z 36012G19KT 3SM -SN BR OVC003 01/M00 A2990 RMK SF8 OBS TAKEN +06 SLP127

CYYG;2012-04-12 17:00;CYYG 121700Z 36013G18KT 1 1/2SM -SN BR OVC002 00/M00 A2990 RMK SF8 VIS NW-NE 1 SLP128

CYYG;2012-04-12 18:00;CYYG 121800Z 36011G17KT 2 1/2SM -SN BR OVC002 00/M01 A2990 RMK SF8 PCPN VRY LGT SLP129

CYYG;2012-04-12 18:19;CYYG 121819Z 36009G18KT 4SM BR OVC003 01/ RMK SF8

CYYG;2012-04-12 19:00;CYYG 121900Z 36015KT 3SM BR OVC003 00/M00 A2992 RMK SF8 VIS NW-NE 2 SLP133

CYYG;2012-04-12 19:05;CYYG 121905Z 36012G19KT 1 1/2SM BR OVC002 00/ RMK FG3SF5

CYYG;2012-04-12 19:14;CYYG 121914Z 36015G20KT 5/8SM R03/P6000FT/D BR OVC002 00/ RMK FG5SF3

CYYG;2012-04-12 19:49;CYYG 121949Z 36016G22KT 1 1/2SM BR OVC002 00/ RMK FG3SF5

CYYG;2012-04-12 20:00;CYYG 122000Z 36016G24KT 4SM BR OVC003 00/M01 A2993 RMK FG2SF6 SLP137

CYYG;2012-04-12 20:39;CYYG 122039Z 36009G18KT 2 1/2SM BR OVC003 01/ RMK FG3SF5

CYYG;2012-04-12 20:48;CYYG 122048Z 01013G18KT 1 1/4SM BR OVC003 01/ RMK FG4SF4

CYYG;2012-04-12 21:00;CYYG 122100Z 01011G20KT 1SM R03/P6000FT/N BR OVC002 01/M00 A2992 RMK FG5SF3 SLP135

CYYG;2012-04-12 21:07;CYYG 122107Z 36011G20KT 3/4SM R03/P6000FT/N -DZ BR OVC002 01/ RMK FG6SF2

CYYG;2012-04-12 21:15;CYYG 122115Z 36011G18KT 1/2SM R03/P6000FT/N -DZ FG OVC001 01/ RMK FG6SF2

CYYG;2012-04-12 21:24;CYYG 122124Z 36013G21KT 1 1/2SM -DZ BR OVC002 00/ RMK FG5SF3

CYYG;2012-04-12 21:46;CYYG 122146Z 36011G22KT 4SM -DZ BR OVC004 00/ RMK SF8

CYYG;2012-04-12 22:00;CYYG 122200Z 36012G21KT 5SM -DZ BR OVC005 00/M01 A2994 RMK SF8 PCPN VRY LGT SLP140

CYYG;2012-04-12 23:00;CYYG 122300Z 01012G19KT 5SM -DZ BR OVC005 00/M01 A2994 RMK SF8 PCPN VRY LGT SLP141

CYYG;2012-04-13 00:00;CYYG 130000Z 02012G18KT 5SM BR OVC005 00/M01 A2996 RMK SF8 SLP149

CYYG;2012-04-13 01:00;CYYG 130100Z 01015G20KT 6SM BR OVC005 00/M01 A2997 RMK SF8 SLP150

CYYG;2012-04-13 01:45;CYYG 130145Z 01011G18KT 10SM -SHSN OVC005 M00/ RMK SF8

CYYG;2012-04-13 02:00;CYYG 130200Z 01007G15KT 10SM -SHSN OVC005 M00/M01 A2997 RMK SF8 SLP152

CYYG;2012-04-13 03:00;CYYG 130300Z 35010G15KT 10SM -SHSN OVC006 M00/M01 A2997 RMK SF8 SLP150

CYYG;2012-04-13 03:48;CYYG 130348Z 35010KT 15SM BKN007 OVC012 00/ RMK SF6SF2

CYYG;2012-04-13 04:00;CYYG 130400Z 36012KT 15SM BKN007 OVC013 00/M01 A2996 RMK SF6SF2 SLP147

CYYG;2012-04-13 05:00;CYYG 130500Z 35008KT 15SM SCT007 OVC013 00/M02 A2995 RMK SF4SC4 SLP145

CYYG;2012-04-13 06:00;CYYG 130600Z 36011G16KT 15SM FEW007 OVC013 00/M02 A2995 RMK SF2SC6 SLP143

CYYG;2012-04-13 07:00;CYYG 130700Z 36010G15KT 15SM OVC012 00/M01 A2995 RMK SF8 SLP143

CYYG;2012-04-13 08:00;CYYG 130800Z 35008G18KT 15SM OVC012 00/M01 A2995 RMK SF8 SLP144

CYYG;2012-04-13 09:00;CYYG 130900Z 36008KT 15SM OVC012 00/M02 A2996 RMK SC8 SLP146

CYYG;2012-04-13 10:00;CYYG 131000Z 35011G17KT 15SM OVC011 00/M02 A2997 RMK SC8 SLP150

CYYG;2012-04-13 11:00;CYYG 131100Z 36012KT 15SM BKN012 00/M02 A2998 RMK SC6 SLP153

CYYG;2012-04-13 11:49;CYYG 131149Z 34012G19KT 15SM FEW012 BKN063 01/ RMK SC2SC3

CYYG;2012-04-13 12:00;CYYG 131200Z 36010G18KT 15SM FEW014 BKN063 02/M02 A2998 RMK SC2SC3 SLP154

CYYG;2012-04-13 13:00;CYYG 131300Z 35011G19KT 15SM FEW014 BKN062 03/M01 A2999 RMK SC2SC3 SLP159

CYYG;2012-04-13 14:00;CYYG 131400Z 36011G18KT 15SM FEW014 BKN062 03/M02 A2999 RMK SC2SC4 SLP157

CYYG;2012-04-13 15:00;CYYG 131500Z 34010G17KT 15SM SCT016 BKN061 04/M01 A2998 RMK SC3SC4 SLP155

CYYG;2012-04-13 16:00;CYYG 131600Z 36009G20KT 15SM FEW020 BKN062 04/M02 A2998 RMK SC2SC3 SLP153

CYYG;2012-04-13 17:00;CYYG 131700Z 02012KT 15SM FEW025 SCT062 05/M02 A2997 RMK SC2SC2 SLP151

CYYG;2012-04-13 18:00;CYYG 131800Z 01010G15KT 15SM FEW025 FEW060 05/M02 A2996 RMK SC1SC2 SLP147

CYYG;2012-04-13 19:00;CYYG 131900Z 01009KT 15SM FEW025 FEW060 06/M05 A2994 RMK SC1SC2 SLP140

CYYG;2012-04-13 20:00;CYYG 132000Z 34006KT 15SM FEW025 FEW060 05/M04 A2993 RMK SC1SC2 SLP139

CYYG;2012-04-13 21:00;CYYG 132100Z 02008KT 15SM FEW025 FEW060 05/M04 A2992 RMK SC1SC1 SLP134

CYYG;2012-04-13 22:00;CYYG 132200Z 02004KT 15SM FEW060 04/M04 A2992 RMK SC1 SLP134

CYYG;2012-04-13 23:00;CYYG 132300Z 08005KT 15SM FEW250 01/M04 A2993 RMK CI1 SLP138

CYYG;2012-04-14 00:00;CYYG 140000Z 00000KT 15SM FEW250 M00/M04 A2993 RMK CI1 SLP139

CYYG;2012-04-14 01:00;CYYG 140100Z 15003KT 15SM SKC 00/M04 A2993 RMK SLP137

CYYG;2012-04-14 02:00;CYYG 140200Z 16004KT 15SM SKC M00/M04 A2992 RMK SLP133

CYYG;2012-04-14 03:00;CYYG 140300Z 17005KT 15SM FEW250 M01/M05 A2990 RMK CI0 FROIN SLP129

CYYG;2012-04-14 04:00;CYYG 140400Z 16007KT 15SM SCT250 M01/M03 A2988 RMK CI1 FROIN SLP120

CYYG;2012-04-14 05:00;CYYG 140500Z 18005KT 15SM SCT250 M00/M02 A2986 RMK CI1 FROIN SLP114

CYYG;2012-04-14 06:00;CYYG 140600Z 20006KT 15SM SCT250 M01/M02 A2984 RMK CI2 FROIN SLP107

CYYG;2012-04-14 07:00;CYYG 140700Z 23007KT 15SM SCT200 01/M01 A2982 RMK CI2 SLP102

CYYG;2012-04-14 08:00;CYYG 140800Z 25008KT 15SM SCT140 BKN200 01/M01 A2982 RMK AC3CI0 SLP100

CYYG;2012-04-14 09:00;CYYG 140900Z 25008KT 15SM FEW140 FEW200 00/M01 A2982 RMK AC1CI0 SLP098

CYYG;2012-04-14 10:00;CYYG 141000Z 27008KT 15SM FEW140 FEW200 01/M02 A2983 RMK AC2CI1 SLP102

CYYG;2012-04-14 11:00;CYYG 141100Z 27007KT 15SM FEW160 FEW250 03/M01 A2985 RMK AC1CI1 SLP111

CYYG;2012-04-14 12:00;CYYG 141200Z 26004KT 15SM SCT100 05/M00 A2986 RMK AC4 SLP114

CYYG;2012-04-14 13:00;CYYG 141300Z 34008KT 15SM FEW100 07/M03 A2987 RMK AC2 SLP118

CYYG;2012-04-14 14:00;CYYG 141400Z 32011KT 15SM FEW100 08/M04 A2987 RMK AC1 SLP119

CYYG;2012-04-14 15:00;CYYG 141500Z 32013G19KT 15SM FEW100 09/M05 A2988 RMK AC1 SLP120

CYYG;2012-04-14 16:00;CYYG 141600Z 35009G18KT 15SM FEW030 FEW100 09/M08 A2988 RMK SC1AC1 SLP120

CYYG;2012-04-14 17:00;CYYG 141700Z 34011KT 15SM FEW030 FEW100 09/M08 A2990 RMK SC1AC1 SLP125

CYYG;2012-04-14 18:00;CYYG 141800Z 01011G16KT 15SM FEW030 FEW100 10/M08 A2990 RMK SC1AC2 SLP126

CYYG;2012-04-14 19:00;CYYG 141900Z 04011KT 15SM FEW030 SCT120 10/M07 A2987 RMK SC2AC2 SLP118

CYYG;2012-04-14 20:00;CYYG 142000Z 09004KT 15SM FEW030 SCT120 10/M06 A2986 RMK SC1AC2 SLP112

CYYG;2012-04-14 21:00;CYYG 142100Z 19008KT 15SM FEW020 BKN070 10/M07 A2986 RMK SC2AC4 SLP113

CYYG;2012-04-14 22:00;CYYG 142200Z 18007KT 15SM FEW030 SCT070 BKN250 09/M06 A2985 RMK SC1AC2CI1 SLP110

CYYG;2012-04-14 23:00;CYYG 142300Z 18011KT 15SM FEW070 BKN250 06/M05 A2987 RMK AC1CI1 SLP115

CYYG;2012-04-15 00:00;CYYG 150000Z 18004KT 15SM FEW070 BKN250 05/M05 A2989 RMK AC1CI1 SLP124

CYYG;2012-04-15 01:00;CYYG 150100Z 19004KT 15SM BKN250 05/M06 A2991 RMK CI1 SLP129

CYYG;2012-04-15 01:40;CYYG 150140Z 36005KT 15SM BKN250 01/ RMK CI1

CYYG;2012-04-15 02:00;CYYG 150200Z 02003KT 15SM BKN250 01/M05 A2992 RMK CI2 SLP133

CYYG;2012-04-15 03:00;CYYG 150300Z 29003KT 15SM SCT250 00/M06 A2993 RMK CI1 SLP137

CYYG;2012-04-15 04:00;CYYG 150400Z 27004KT 15SM BKN250 02/M04 A2994 RMK CI2 SLP140

CYYG;2012-04-15 05:00;CYYG 150500Z 36003KT 15SM BKN250 M00/M05 A2995 RMK CI3 SLP144

CYYG;2012-04-15 06:00;CYYG 150600Z 18002KT 15SM BKN250 01/M05 A2996 RMK CI3 SLP148

CYYG;2012-04-15 07:00;CYYG 150700Z 23002KT 15SM BKN230 01/M04 A2997 RMK CI3 SLP150

CYYG;2012-04-15 08:00;CYYG 150800Z 20002KT 15SM BKN230 M00/M03 A2998 RMK CI1 SLP153

CYYG;2012-04-15 09:00;CYYG 150900Z 18002KT 15SM SCT230 M00/M03 A2999 RMK CI1 SLP158

CYYG;2012-04-15 10:00;CYYG 151000Z 00000KT 15SM FEW120 BKN250 01/M02 A3001 RMK AC1CI2 SLP163

CYYG;2012-04-15 11:00;CYYG 151100Z 18002KT 15SM FEW120 BKN250 03/01 A3002 RMK AC1CI1 SLP168

CYYG;2012-04-15 12:00;CYYG 151200Z 17002KT 15SM FEW120 SCT250 06/02 A3004 RMK AC1CI1 SLP172

CYYG;2012-04-15 13:00;CYYG 151300Z 20003KT 15SM FEW120 BKN250 09/M00 A3005 RMK AC1CI2 SLP178

CYYG;2012-04-15 14:00;CYYG 151400Z 14006KT 15SM FEW120 BKN250 11/00 A3005 RMK AC2CI2 SLP177

CYYG;2012-04-15 15:00;CYYG 151500Z 18010KT 15SM FEW120 BKN250 13/M08 A3004 RMK AC1CI2 SLP173

CYYG;2012-04-15 16:00;CYYG 151600Z 18010KT 15SM SCT110 BKN250 13/M10 A3003 RMK AC3CI2 SLP169

CYYG;2012-04-15 17:00;CYYG 151700Z 16006KT 15SM SCT120 BKN250 15/M07 A3001 RMK AC4CI2 SLP163

CYYG;2012-04-15 18:00;CYYG 151800Z 18007KT 15SM BKN130 BKN250 17/M05 A2998 RMK AC5CI2 OBS TAKEN +11 SLP153

CYYG;2012-04-15 19:00;CYYG 151900Z 17009KT 15SM SCT120 BKN250 18/05 A2997 RMK AC4CI2 SLP149

CYYG;2012-04-15 20:00;CYYG 152000Z 13008KT 15SM BKN099 BKN250 15/M02 A2998 RMK AC5CI2 OBS TAKEN +10 SLP153

CYYG;2012-04-15 21:00;CYYG 152100Z 13009KT 15SM BKN100 BKN250 15/M03 A2999 RMK AC5CI1 SLP156

CYYG;2012-04-15 22:00;CYYG 152200Z 15007KT 15SM SCT100 BKN260 15/M02 A2999 RMK AC3CI2 SLP156

CYYG;2012-04-15 23:00;CYYG 152300Z 17008KT 15SM SCT100 BKN260 13/M00 A3000 RMK AC4CI2 SLP160

CYYG;2012-04-16 00:00;CYYG 160000Z 17008KT 15SM BKN094 BKN260 12/01 A3003 RMK AC5CI2 SLP169

CYYG;2012-04-16 01:00;CYYG 160100Z 18009KT 15SM BKN094 BKN190 09/02 A3004 RMK AC5AC2 SLP175

CYYG;2012-04-16 02:00;CYYG 160200Z 18009KT 15SM FEW094 SCT190 08/03 A3005 RMK AC2AC1 SLP176

CYYG;2012-04-16 03:00;CYYG 160300Z 17006KT 15SM FEW100 SCT190 07/03 A3005 RMK AC2AC1 SLP176

CYYG;2012-04-16 04:00;CYYG 160400Z 18010KT 15SM FEW100 07/04 A3005 RMK AC2 SLP178

CYYG;2012-04-16 05:00;CYYG 160500Z 18009KT 15SM FEW100 06/04 A3006 RMK AC1 SLP179

CYYG;2012-04-16 06:00;CYYG 160600Z 18011KT 15SM FEW100 06/04 A3006 RMK AC1 SLP179

CYYG;2012-04-16 07:00;CYYG 160700Z 19009KT 15SM SKC 06/05 A3006 RMK SLP182

CYYG;2012-04-16 08:00;CYYG 160800Z 18010KT 15SM SKC 07/05 A3006 RMK SLP179

CYYG;2012-04-16 09:00;CYYG 160900Z 18008KT 15SM FEW300 06/05 A3006 RMK CI1 SLP182

CYYG;2012-04-16 10:00;CYYG 161000Z 18007KT 15SM FEW300 07/06 A3008 RMK CI1 SLP188

CYYG;2012-04-16 11:00;CYYG 161100Z 18008KT 15SM FEW330 09/07 A3011 RMK CI1 SLP197

CYYG;2012-04-16 12:00;CYYG 161200Z 19013G18KT 15SM FEW330 12/06 A3013 RMK CI1 SLP204

CYYG;2012-04-16 12:50;CYYG 161250Z 19016KT 15SM SCT012 SCT330 13/ RMK SC3CI0 SC INDVG FM S

CYYG;2012-04-16 13:00;CYYG 161300Z 19015KT 15SM BKN011 BKN330 13/07 A3014 RMK SC6CI0 SLP208

CYYG;2012-04-16 13:21;CYYG 161321Z 18015KT 15SM FEW011 SCT330 13/ RMK SC2CI0

CYYG;2012-04-16 14:00;CYYG 161400Z 18019G25KT 15SM FEW015 FEW330 14/09 A3013 RMK CU1CI1 SLP204

CYYG;2012-04-16 15:00;CYYG 161500Z 19018G25KT 15SM FEW015 FEW330 15/10 A3011 RMK CU1CI1 SLP197

CYYG;2012-04-16 16:00;CYYG 161600Z 19018G25KT 15SM FEW015 FEW330 15/10 A3011 RMK CU1CI1 SLP197

CYYG;2012-04-16 17:00;CYYG 161700Z 21019G27KT 15SM FEW020 SCT330 17/11 A3010 RMK CF1CI2 SLP194

CYYG;2012-04-16 18:00;CYYG 161800Z 21013G20KT 15SM FEW025 BKN300 19/11 A3008 RMK CU1CI4 SLP188

CYYG;2012-04-16 19:00;CYYG 161900Z 19015G20KT 15SM FEW030 BKN300 19/11 A3007 RMK CU1CI4 SLP184

CYYG;2012-04-16 20:00;CYYG 162000Z 19016G21KT 15SM FEW035 BKN300 18/10 A3007 RMK CU1CI1 SLP183

CYYG;2012-04-16 21:00;CYYG 162100Z 19018KT 15SM FEW035 FEW300 18/10 A3006 RMK SC1CI1 SLP180

CYYG;2012-04-16 22:00;CYYG 162200Z 19016KT 15SM SCT300 16/09 A3004 RMK CI1 SLP174

CYYG;2012-04-16 23:00;CYYG 162300Z 20013KT 15SM FEW140 FEW260 SCT300 14/09 A3006 RMK AC1CI1CI1 SLP179

CYYG;2012-04-17 00:00;CYYG 170000Z 18014G19KT 15SM FEW140 FEW260 13/08 A3005 RMK AC1CI1 SLP178

CYYG;2012-04-17 01:00;CYYG 170100Z 18016G22KT 15SM FEW260 13/09 A3006 RMK CI0 SLP179

CYYG;2012-04-17 02:00;CYYG 170200Z 18016G21KT 15SM FEW260 12/08 A3005 RMK CI0 SLP177

CYYG;2012-04-17 03:00;CYYG 170300Z 18015KT 15SM FEW250 11/10 A3005 RMK CI0 SLP176

CYYG;2012-04-17 04:00;CYYG 170400Z 18016KT 15SM FEW015 11/09 A3004 RMK SC2 SLP174

CYYG;2012-04-17 05:00;CYYG 170500Z 18016KT 12SM FEW015 BKN190 11/10 A3002 RMK SC2AC2 SLP166

CYYG;2012-04-17 06:00;CYYG 170600Z 18013G18KT 12SM SCT012 11/10 A3002 RMK SC3 SLP165

CYYG;2012-04-17 06:10;CYYG 170610Z 19014KT 12SM BKN011 11/ RMK SC5

CYYG;2012-04-17 07:00;CYYG 170700Z 19014KT 10SM FEW006 OVC012 11/10 A3002 RMK SF1SC7 SLP167

CYYG;2012-04-17 08:00;CYYG 170800Z 18015KT 10SM FEW004 OVC012 11/10 A3001 RMK SF2SC6 SLP161

CYYG;2012-04-17 09:00;CYYG 170900Z 18015KT 10SM FEW004 SCT012 BKN250 11/10 A3000 RMK SF1SC2CI1 SLP160

CYYG;2012-04-17 10:00;CYYG 171000Z 16009KT 12SM FEW004 SCT250 11/10 A3001 RMK SF1CI2 SLP161

CYYG;2012-04-17 11:00;CYYG 171100Z 17014KT 15SM FEW250 13/11 A3001 RMK CI1 SLP162

CYYG;2012-04-17 12:00;CYYG 171200Z 18016KT 15SM FEW250 14/11 A3000 RMK CI1 SLP158

CYYG;2012-04-17 13:00;CYYG 171300Z 19020G26KT 15SM FEW250 15/11 A3000 RMK CI1 SLP158

CYYG;2012-04-17 14:00;CYYG 171400Z 18021G26KT 15SM FEW250 15/11 A3001 RMK CI1 SLP163

CYYG;2012-04-17 15:00;CYYG 171500Z 18021G28KT 15SM FEW015 FEW250 16/11 A2999 RMK SC1CI1 SLP157

CYYG;2012-04-17 16:00;CYYG 171600Z 18021G27KT 15SM FEW015 FEW250 18/13 A2997 RMK SC1CI1 SLP148

CYYG;2012-04-17 17:00;CYYG 171700Z 18021G27KT 15SM FEW020 SCT250 18/12 A2998 RMK SC1CI1 SLP151

CYYG;2012-04-17 18:00;CYYG 171800Z 19020G27KT 15SM FEW020 SCT250 19/13 A2996 RMK SC1CI1 SLP147

CYYG;2012-04-17 19:00;CYYG 171900Z 18018G24KT 15SM FEW020 BKN250 19/13 A2995 RMK SC1CI2 SLP141

CYYG;2012-04-17 20:00;CYYG 172000Z 18020G26KT 15SM BKN220 18/13 A2993 RMK CI3 SLP136

CYYG;2012-04-17 21:00;CYYG 172100Z 18020KT 15SM OVC220 17/13 A2993 RMK CI3 SLP136

CYYG;2012-04-17 22:00;CYYG 172200Z 18016G21KT 15SM OVC220 15/12 A2992 RMK CI4 SLP133

CYYG;2012-04-17 23:00;CYYG 172300Z 18012KT 15SM OVC250 14/11 A2993 RMK CI5 SLP137

CYYG;2012-04-18 00:00;CYYG 180000Z 19013KT 15SM FEW088 BKN250 14/12 A2995 RMK AC2CI6 SLP143

CYYG;2012-04-18 01:00;CYYG 180100Z 19011KT 15SM SCT014 OVC080 14/13 A2996 RMK SC4AC4 SLP146

CYYG;2012-04-18 01:11;CYYG 180111Z 20012KT 15SM BKN013 OVC080 15/ RMK SC6AC2

CYYG;2012-04-18 02:00;CYYG 180200Z 20013KT 15SM BKN011 OVC077 14/12 A2996 RMK SC6AC2 SLP144

CYYG;2012-04-18 03:00;CYYG 180300Z 20009KT 15SM BKN015 OVC077 13/12 A2996 RMK SC7AC1 SLP146

CYYG;2012-04-18 04:00;CYYG 180400Z 23005KT 15SM BKN020 BKN075 13/12 A2997 RMK SC5AC2 SLP149

CYYG;2012-04-18 05:00;CYYG 180500Z 24009KT 15SM SCT020 BKN074 12/11 A2996 RMK SC3AC2 SLP145

CYYG;2012-04-18 06:00;CYYG 180600Z 32004KT 15SM FEW020 SCT075 BKN250 10/10 A2999 RMK SC1AC2CI2 SLP155

CYYG;2012-04-18 07:00;CYYG 180700Z 03012G18KT 15SM FEW075 BKN250 08/02 A3002 RMK AC1CI2 SLP165

CYYG;2012-04-18 08:00;CYYG 180800Z 03012G17KT 15SM FEW075 BKN250 06/01 A3003 RMK AC1CI2 SLP168

CYYG;2012-04-18 09:00;CYYG 180900Z 01009KT 15SM FEW075 BKN250 06/01 A3005 RMK AC1CI2 SLP178

CYYG;2012-04-18 10:00;CYYG 181000Z 36008KT 15SM FEW075 BKN250 05/01 A3008 RMK AC1CI2 SLP186

CYYG;2012-04-18 11:00;CYYG 181100Z 36009KT 15SM BKN250 06/01 A3010 RMK CI2 SLP193

CYYG;2012-04-18 12:00;CYYG 181200Z 36011G18KT 15SM BKN250 06/01 A3012 RMK CI4 SLP199

CYYG;2012-04-18 13:00;CYYG 181300Z 36013G22KT 15SM OVC220 06/M00 A3013 RMK CI5 SLP204

CYYG;2012-04-18 14:00;CYYG 181400Z 33015KT 15SM OVC220 07/00 A3015 RMK CI5 SLP210

CYYG;2012-04-18 15:00;CYYG 181500Z 36014G20KT 15SM BKN220 06/M00 A3015 RMK CI6 SLP211

CYYG;2012-04-18 16:00;CYYG 181600Z 01011G16KT 15SM BKN220 06/00 A3016 RMK CI5 SLP214

CYYG;2012-04-18 17:00;CYYG 181700Z 02012G18KT 15SM BKN220 05/M01 A3017 RMK CI2 SLP218

CYYG;2012-04-18 18:00;CYYG 181800Z 02011G21KT 15SM SCT220 05/M01 A3017 RMK CI2 SLP218

CYYG;2012-04-18 19:00;CYYG 181900Z 03014KT 15SM SCT220 05/M01 A3017 RMK CI1 SLP216

CYYG;2012-04-18 20:00;CYYG 182000Z 01008G15KT 15SM FEW220 05/M01 A3017 RMK CI1 SLP216

CYYG;2012-04-18 21:00;CYYG 182100Z 04009KT 15SM FEW050 FEW220 04/M01 A3017 RMK SC1CI1 SLP217

CYYG;2012-04-18 22:00;CYYG 182200Z 02007KT 15SM FEW220 03/M02 A3018 RMK CI1 SLP223

CYYG;2012-04-18 23:00;CYYG 182300Z 04009KT 15SM FEW220 01/M03 A3020 RMK CI1 SLP227

CYYG;2012-04-19 00:00;CYYG 190000Z 02004KT 15SM FEW220 M01/M03 A3021 RMK CI2 SLP233

CYYG;2012-04-19 01:00;CYYG 190100Z 02003KT 15SM FEW220 M01/M03 A3022 RMK CI2 SLP235

CYYG;2012-04-19 02:00;CYYG 190200Z 36003KT 15SM FEW220 M01/M03 A3022 RMK CI2 SLP234

CYYG;2012-04-19 03:00;CYYG 190300Z 01003KT 15SM FEW220 M02/M03 A3021 RMK CI2 SLP232

CYYG;2012-04-19 04:00;CYYG 190400Z 07002KT 15SM FEW220 02/M03 A3020 RMK CI2 SLP230

CYYG;2012-04-19 05:00;CYYG 190500Z 02004KT 15SM FEW220 M03/M04 A3019 RMK CI2 SLP225

CYYG;2012-04-19 06:00;CYYG 190600Z 35004KT 15SM FEW220 M03/M04 A3019 RMK CI2 FROIN SLP224

CYYG;2012-04-19 07:00;CYYG 190700Z 01004KT 15SM FEW220 M02/M04 A3018 RMK CI2 FROIN SLP221

CYYG;2012-04-19 08:00;CYYG 190800Z 36003KT 15SM FEW220 M03/M04 A3017 RMK CI2 FROIN SLP220

CYYG;2012-04-19 09:00;CYYG 190900Z 35005KT 15SM SCT220 M03/M04 A3018 RMK CI3 SLP222

CYYG;2012-04-19 10:00;CYYG 191000Z 35003KT 15SM SCT220 M02/M03 A3019 RMK CI4 SLP224

CYYG;2012-04-19 11:00;CYYG 191100Z 36005KT 15SM SCT250 01/M01 A3019 RMK CI1 SLP224

CYYG;2012-04-19 12:00;CYYG 191200Z 04006KT 15SM FEW015 BKN250 03/M02 A3019 RMK CF1CI1 SLP224

CYYG;2012-04-19 13:00;CYYG 191300Z 04005KT 15SM FEW015 BKN250 05/M03 A3018 RMK CF1CI2 SLP223

CYYG;2012-04-19 14:00;CYYG 191400Z 06007KT 15SM FEW015 BKN250 06/M03 A3018 RMK CF1CI2 SLP222

CYYG;2012-04-19 15:00;CYYG 191500Z 02009G15KT 15SM FEW015 BKN250 07/M03 A3016 RMK CF1CI2 SLP214

CYYG;2012-04-19 16:00;CYYG 191600Z 03008KT 15SM FEW015 BKN250 06/M04 A3014 RMK CF1CI2 SLP210

CYYG;2012-04-19 17:00;CYYG 191700Z 03010KT 15SM FEW020 BKN250 07/M04 A3013 RMK CF1CI1 SLP205

CYYG;2012-04-19 18:00;CYYG 191800Z 02006KT 15SM FEW020 BKN250 06/M04 A3012 RMK CF1CI1 SLP200

CYYG;2012-04-19 19:00;CYYG 191900Z 06006KT 15SM FEW020 BKN250 06/M03 A3009 RMK CF1CI1 SLP193

CYYG;2012-04-19 20:00;CYYG 192000Z 02008KT 15SM FEW020 BKN250 06/M03 A3008 RMK CF1CI1 SLP187

CYYG;2012-04-19 21:00;CYYG 192100Z 02008KT 15SM FEW020 SCT220 05/M04 A3008 RMK CF1CI1 SLP187

CYYG;2012-04-19 22:00;CYYG 192200Z 04007KT 15SM FEW020 SCT250 03/M03 A3007 RMK SC1CI1 SLP185

CYYG;2012-04-19 23:00;CYYG 192300Z 04006KT 15SM FEW010 FEW250 01/M03 A3007 RMK SF1CI2 SLP185

CYYG;2012-04-19 23:20;CYYG 192320Z 05004KT 15SM FEW005 M00/ RMK SF1 SF N-NE

CYYG;2012-04-20 00:00;CYYG 200000Z 03003KT 15SM FEW005 M01/M03 A3008 RMK SF1 SLP187

CYYG;2012-04-20 01:00;CYYG 200100Z 09003KT 15SM FEW005 M01/M03 A3006 RMK SF1 SLP182

CYYG;2012-04-20 02:00;CYYG 200200Z 13002KT 15SM FEW005 M00/M02 A3005 RMK SF1 FROIN SLP179

CYYG;2012-04-20 03:00;CYYG 200300Z 17004KT 15SM FEW005 M01/M02 A3004 RMK SF1 FROIN SLP176

CYYG;2012-04-20 03:32;CYYG 200332Z 14004KT 3/4SM R03/4000VP6000FT/D BR SKC M00/ RMK FG3 RIME ON INDICATOR

CYYG;2012-04-20 03:40;CYYG 200340Z 15005KT 1/2SM R03/3000VP6000FT/D FZFG SKC M00/ RMK FG6

CYYG;2012-04-20 04:00;CYYG 200400Z 17007KT 1/2SM R03/3500FT/U FG VV001 00/M01 A3003 RMK FG8 SLP172

CYYG;2012-04-20 04:19;CYYG 200419Z 18006KT 2SM BR OVC002 01/ RMK FG3SF5

CYYG;2012-04-20 04:44;CYYG 200444Z 19009KT 3/4SM R03/P6000FT/U BR VV001 01/ RMK FG8

CYYG;2012-04-20 05:00;CYYG 200500Z 19009KT 3/4SM R03/P6000FT/D BR VV001 00/M01 A3003 RMK FG8 SLP171

CYYG;2012-04-20 06:00;CYYG 200600Z 19008KT 1 1/2SM BR OVC002 01/M00 A3002 RMK FG3SF5 SLP169

CYYG;2012-04-20 07:00;CYYG 200700Z 18007KT 1 1/2SM BR OVC002 01/00 A3001 RMK FG3SF5 VIS SE-SW 3 SLP164

CYYG;2012-04-20 08:00;CYYG 200800Z 18006KT 3SM BR OVC002 01/01 A3000 RMK SF8 SLP162

CYYG;2012-04-20 08:35;CYYG 200835Z 18006KT 6SM BR SCT002 01/ RMK SF3

CYYG;2012-04-20 09:00;CYYG 200900Z 22005KT 12SM VCFG FEW002 BKN250 01/01 A3000 RMK SF2CI0 SLP161

CYYG;2012-04-20 10:00;CYYG 201000Z 20006KT 12SM VCFG FEW100 BKN250 02/01 A3002 RMK AC1CI1 VIS SW-NW 3 SLP167

CYYG;2012-04-20 11:00;CYYG 201100Z 21009KT 15SM FEW005 FEW100 FEW250 05/03 A3002 RMK SF1AC1CI0 SLP169

CYYG;2012-04-20 12:00;CYYG 201200Z 22011KT 15SM FEW005 FEW250 06/03 A3002 RMK SF1CI0 SLP168

CYYG;2012-04-20 13:00;CYYG 201300Z 20012KT 15SM FEW100 FEW250 08/03 A3001 RMK AC1CI0 SLP165

CYYG;2012-04-20 14:00;CYYG 201400Z 22010KT 15SM FEW100 FEW250 10/03 A3002 RMK AC1CI0 SLP169

CYYG;2012-04-20 15:00;CYYG 201500Z 21013KT 15SM FEW100 FEW250 12/03 A3001 RMK AC1CI0 SLP164

CYYG;2012-04-20 16:00;CYYG 201600Z 21012KT 15SM FEW100 14/03 A2999 RMK AC1 SLP158

CYYG;2012-04-20 17:00;CYYG 201700Z 19010KT 15SM SCT086 BKN250 16/04 A2999 RMK AC3CI1 SLP158

CYYG;2012-04-20 18:00;CYYG 201800Z 22010KT 15SM FEW086 SCT250 17/04 A2998 RMK AC2CI0 SLP154

CYYG;2012-04-20 19:00;CYYG 201900Z 23010G15KT 15SM FEW086 BKN250 18/05 A2999 RMK AC2CI1 SLP156

CYYG;2012-04-20 20:00;CYYG 202000Z 25010G15KT 15SM SCT140 BKN250 17/05 A2999 RMK AC3CI0 SLP156

CYYG;2012-04-20 21:00;CYYG 202100Z 02010KT 15SM BKN140 BKN250 11/04 A2998 RMK AC5CI1 SLP155

CYYG;2012-04-20 22:00;CYYG 202200Z 01006KT 15SM BKN110 BKN250 09/04 A2999 RMK AC5CI1 SLP157

CYYG;2012-04-20 23:00;CYYG 202300Z 04004KT 15SM SCT120 BKN250 07/03 A3001 RMK AC3CI1 SLP163

CYYG;2012-04-21 00:00;CYYG 210000Z 01003KT 15SM SCT120 BKN210 06/03 A3002 RMK AC3CI1 SLP168

CYYG;2012-04-21 01:00;CYYG 210100Z 01003KT 15SM FEW120 05/02 A3003 RMK AC2 SLP171

CYYG;2012-04-21 02:00;CYYG 210200Z 12002KT 15SM FEW120 04/02 A3002 RMK AC2 SLP167

CYYG;2012-04-21 03:00;CYYG 210300Z 14004KT 15SM SCT095 05/03 A3002 RMK AC3 SLP167

CYYG;2012-04-21 04:00;CYYG 210400Z 14004KT 15SM FEW095 SCT230 05/03 A3001 RMK AC1CI1 SLP163

CYYG;2012-04-21 05:00;CYYG 210500Z 16004KT 15SM FEW090 FEW250 05/03 A3000 RMK AC1CI2 SLP160

CYYG;2012-04-21 06:00;CYYG 210600Z 18006KT 15SM FEW100 05/03 A2999 RMK AC1 SLP158

CYYG;2012-04-21 07:00;CYYG 210700Z 21008KT 15SM SCT160 07/05 A3000 RMK AC3 SLP159

CYYG;2012-04-21 08:00;CYYG 210800Z 20006KT 15SM SCT160 05/03 A3000 RMK AC3 SLP159

CYYG;2012-04-21 09:00;CYYG 210900Z 18006KT 15SM FEW160 FEW250 05/04 A3000 RMK AC1CS2 SLP159

CYYG;2012-04-21 10:00;CYYG 211000Z 18008KT 15SM FEW250 06/04 A2999 RMK CS2 SLP157

CYYG;2012-04-21 11:00;CYYG 211100Z 18010KT 15SM BKN300 08/04 A2998 RMK CI1 CONTRAILS SLP155

CYYG;2012-04-21 12:00;CYYG 211200Z 18013KT 15SM FEW040 BKN300 10/03 A2999 RMK SC1CI1 CONTRAILS SLP157

CYYG;2012-04-21 13:00;CYYG 211300Z 18015G21KT 15SM FEW040 BKN300 11/04 A2999 RMK SC1CI1 CONTRAILS SLP156

CYYG;2012-04-21 14:00;CYYG 211400Z 19019KT 15SM FEW080 BKN300 12/06 A2997 RMK AC2CI1 CONTRAILS SLP151

CYYG;2012-04-21 15:00;CYYG 211500Z 19017G24KT 15SM FEW087 BKN300 13/07 A2998 RMK AC2CI1 SLP152

CYYG;2012-04-21 16:00;CYYG 211600Z 19013G20KT 15SM FEW085 BKN300 17/07 A2994 RMK AC2CI1 CONTRAILS SLP141

CYYG;2012-04-21 17:00;CYYG 211700Z 18019KT 15SM SCT100 BKN300 18/07 A2992 RMK AC4CI0 CONTRAILS SLP134

CYYG;2012-04-21 18:00;CYYG 211800Z 18017KT 15SM BKN100 BKN300 17/07 A2991 RMK AC6CI1 SLP129

CYYG;2012-04-21 19:00;CYYG 211900Z 18018G24KT 15SM FEW080 BKN094 16/06 A2990 RMK AC2AC6 SLP127

CYYG;2012-04-21 20:00;CYYG 212000Z 18020KT 15SM BKN077 15/05 A2990 RMK AC6 SH DIST N-NE SLP125

CYYG;2012-04-21 20:12;CYYG 212012Z 18018KT 15SM -SHRA BKN079 16/ RMK AC7

CYYG;2012-04-21 21:00;CYYG 212100Z 18015G22KT 15SM -SHRA BKN062 16/06 A2988 RMK SC6 SLP120

CYYG;2012-04-21 22:00;CYYG 212200Z 18018G24KT 15SM -SHRA FEW035 BKN043 14/07 A2988 RMK SC2SC6 SLP121

CYYG;2012-04-21 23:00;CYYG 212300Z 18015KT 15SM -SHRA FEW020 OVC034 12/08 A2989 RMK SC1SC7 SLP124

CYYG;2012-04-22 00:00;CYYG 220000Z 19009KT 6SM SHRA BR OVC024 11/09 A2990 RMK SC8 SLP128

CYYG;2012-04-22 01:00;CYYG 220100Z 18014G19KT 6SM -SHRA BR OVC018 11/09 A2989 RERA RMK SC8 SLP124

CYYG;2012-04-22 01:38;CYYG 220138Z 17009KT 15SM OVC021 10/ RMK SC8

CYYG;2012-04-22 02:00;CYYG 220200Z 18011KT 15SM OVC017 11/09 A2990 RMK SC8 SLP125

CYYG;2012-04-22 02:14;CYYG 220214Z 18009KT 15SM OVC013 11/ RMK SC8

CYYG;2012-04-22 03:00;CYYG 220300Z 17007KT 12SM OVC012 10/09 A2990 RMK SC8 SLP128

CYYG;2012-04-22 03:35;CYYG 220335Z 18009KT 10SM FEW008 OVC010 10/ RMK SF2SC6

CYYG;2012-04-22 04:00;CYYG 220400Z 17009KT 10SM FEW008 OVC010 10/09 A2990 RMK SF2SC6 SLP126

CYYG;2012-04-22 04:34;CYYG 220434Z 19008KT 10SM OVC008 10/ RMK ST8

CYYG;2012-04-22 04:38;CYYG 220438Z 18008KT 10SM -SHRA OVC008 10/ RMK ST8

CYYG;2012-04-22 05:00;CYYG 220500Z 17006KT 6SM -SHRA BR OVC007 10/09 A2989 RERA RMK ST8 SLP122

CYYG;2012-04-22 06:00;CYYG 220600Z 17008KT 6SM -SHRA BR SCT004 OVC007 10/09 A2987 RMK SF3SC5 SLP116

CYYG;2012-04-22 06:30;CYYG 220630Z 18009KT 3SM SHRA BR OVC003 11/ RMK SF8

CYYG;2012-04-22 07:00;CYYG 220700Z 18008KT 3SM -SHRA BR OVC002 11/11 A2986 RERA RMK SF8 SLP113

CYYG;2012-04-22 07:38;CYYG 220738Z 17008KT 3SM BR OVC002 11/ RMK SF8

CYYG;2012-04-22 08:00;CYYG 220800Z 17008KT 2 1/2SM BR OVC002 11/10 A2986 RMK SF8 SLP111

CYYG;2012-04-22 08:31;CYYG 220831Z 18006KT 1SM R03/P6000FT/D -SHRA BR VV002 11/ RMK FG8

CYYG;2012-04-22 09:00;CYYG 220900Z 20005KT 5/8SM R03/6000FT/D -SHRA BR VV002 11/11 A2985 RMK FG8 SLP108

CYYG;2012-04-22 09:14;CYYG 220914Z 25002KT 1/2SM R03/4500FT/N FG VV002 11/ RMK FG8

CYYG;2012-04-22 10:00;CYYG 221000Z 19003KT 1/2SM R03/3500FT/N -SHRA FG VV002 11/11 A2985 RMK FG8 SLP108

CYYG;2012-04-22 10:05;CYYG 221005Z 19005KT 3/8SM R03/3000FT/D -SHRA FG VV002 11/ RMK FG8

CYYG;2012-04-22 11:00;CYYG 221100Z 17005KT 3/8SM R03/1600FT/N -DZ FG VV001 11/11 A2985 RMK FG8 SLP110

CYYG;2012-04-22 11:39;CYYG 221139Z 17005KT 1/8SM R03/1400FT/N -DZ FG VV001 11/ RMK FG8

CYYG;2012-04-22 12:00;CYYG 221200Z 18006KT 3/8SM R03/1400V2000FT/U -DZ FG VV001 11/11 A2984 RMK FG8 SLP106

CYYG;2012-04-22 12:21;CYYG 221221Z 18005KT 3/4SM R03/2600V5000FT/U -DZ BR OVC002 12/ RMK SF8

CYYG;2012-04-22 13:00;CYYG 221300Z 18004KT 1/2SM R03/3000FT/D -DZ FG VV001 12/12 A2983 RMK FG8 SLP103

CYYG;2012-04-22 13:40;CYYG 221340Z 16006KT 3/8SM R03/1800FT/N -DZ FG VV001 12/ RMK FG8

CYYG;2012-04-22 14:00;CYYG 221400Z 16006KT 1/4SM R03/1800FT/N -DZ FG VV001 12/11 A2981 RMK FG8 SLP095

CYYG;2012-04-22 14:20;CYYG 221420Z 16006KT 3/4SM R03/2800VP6000FT/U BR OVC002 12/ RMK SF8

CYYG;2012-04-22 15:00;CYYG 221500Z 32005KT 3/4SM R03/P6000FT/N BR VV002 08/08 A2980 RMK FG8 SLP094

CYYG;2012-04-22 15:19;CYYG 221519Z 33007KT 3/4SM R03/P6000FT/D -SHRA BR OVC002 07/ RMK SF8

CYYG;2012-04-22 16:00;CYYG 221600Z 30015KT 7SM -SHRA OVC004 05/05 A2983 RMK SF8 SLP103

CYYG;2012-04-22 16:31;CYYG 221631Z 32015KT 10SM -SHRA OVC005 04/ RMK SF8

CYYG;2012-04-22 17:00;CYYG 221700Z 33011G18KT 10SM -SHRA OVC005 04/03 A2987 RMK SF8 SLP117

CYYG;2012-04-22 17:08;CYYG 221708Z 34010G17KT 12SM OVC005 03/ RMK SF8

CYYG;2012-04-22 18:00;CYYG 221800Z 34009G16KT 15SM OVC005 03/03 A2990 RMK SF8 SLP128

CYYG;2012-04-22 19:00;CYYG 221900Z 33010KT 15SM OVC006 04/02 A2993 RMK SF8 SLP138

CYYG;2012-04-22 20:00;CYYG 222000Z 33013KT 15SM OVC007 02/01 A2998 RMK SF8 SLP153

CYYG;2012-04-22 21:00;CYYG 222100Z 35011G20KT 10SM OVC005 02/00 A2997 RMK SF8 SLP151

CYYG;2012-04-22 21:44;CYYG 222144Z 36011G18KT 10SM -SHRA OVC004 02/ RMK SF8

CYYG;2012-04-22 22:00;CYYG 222200Z 01011G22KT 10SM -SHRA OVC005 01/00 A2999 RMK SF8 SLP158

CYYG;2012-04-22 23:00;CYYG 222300Z 02015KT 3SM SHRA BR OVC005 01/M00 A3001 RMK SF8 SLP162

CYYG;2012-04-23 00:00;CYYG 230000Z 01010G16KT 4SM -RA BR OVC005 01/00 A3005 RERA RMK SF8 SLP177

CYYG;2012-04-23 01:00;CYYG 230100Z 01012KT 5SM -RA BR OVC005 01/00 A3007 RMK SF8 SLP183

CYYG;2012-04-23 01:33;CYYG 230133Z 01008G15KT 6SM -RA BR BKN006 OVC014 01/ RMK SF7SC1

CYYG;2012-04-23 01:39;CYYG 230139Z 02012G17KT 2 1/2SM +RA BR BKN006 OVC014 01/ RMK SF7SC1

CYYG;2012-04-23 01:50;CYYG 230150Z 02009G15KT 5SM -RA BR BKN006 OVC015 01/ RERA RMK SF7SC1

CYYG;2012-04-23 02:00;CYYG 230200Z 01009G17KT 5SM -RA BR OVC006 01/M00 A3009 RERA RMK SF8 SLP190

CYYG;2012-04-23 02:40;CYYG 230240Z 03021KT 5SM -RA BR BKN006 OVC015 01/ RMK SF7SC1 PRES UNSTDY

CYYG;2012-04-23 03:00;CYYG 230300Z 02009KT 10SM -RA OVC006 01/M00 A3009 RERA RMK SF8 PRES UNSTDY SLP192

CYYG;2012-04-23 03:21;CYYG 230321Z 01009G15KT 12SM OVC006 01/ RMK SF8

CYYG;2012-04-23 04:00;CYYG 230400Z 02012KT 12SM OVC007 01/M00 A3010 RMK SF8 SLP194

CYYG;2012-04-23 05:00;CYYG 230500Z 03011G16KT 10SM OVC007 01/M00 A3010 RMK SF8 SLP194

CYYG;2012-04-23 06:00;CYYG 230600Z 02010G16KT 6SM BR OVC007 01/M01 A3011 RMK SF8 SLP197

CYYG;2012-04-23 06:08;CYYG 230608Z 03011KT 4SM -DZ BR OVC006 01/ RMK SF8

CYYG;2012-04-23 07:00;CYYG 230700Z 04010KT 3SM -DZ BR OVC006 01/M00 A3010 RMK SF8 SLP195

CYYG;2012-04-23 08:00;CYYG 230800Z 04010G16KT 3SM -DZ BR OVC006 01/M00 A3009 RMK SF8 SLP192

CYYG;2012-04-23 09:00;CYYG 230900Z 05014KT 5SM BR OVC006 01/M00 A3008 RMK SF8 SLP187

CYYG;2012-04-23 09:35;CYYG 230935Z 04011KT 6SM BR OVC005 01/ RMK SF8

CYYG;2012-04-23 10:00;CYYG 231000Z 05012KT 5SM BR OVC005 01/M00 A3009 RMK SF8 SLP192

CYYG;2012-04-23 10:18;CYYG 231018Z 06010G15KT 2 1/2SM -DZ BR OVC005 01/ RMK SF8

CYYG;2012-04-23 10:46;CYYG 231046Z 06010KT 2SM -DZ BR OVC003 01/ RMK SF8

CYYG;2012-04-23 11:00;CYYG 231100Z 07010KT 2SM -DZ BR OVC003 01/00 A3009 RMK SF8 SLP190

CYYG;2012-04-23 11:35;CYYG 231135Z 06011KT 6SM -DZ BR OVC005 02/ RMK SF8

CYYG;2012-04-23 12:00;CYYG 231200Z 06011G17KT 6SM -DZ BR OVC005 02/01 A3007 RMK SF8 SLP186

CYYG;2012-04-23 13:00;CYYG 231300Z 07013KT 6SM BR OVC005 03/02 A3006 RMK SF8 SLP182

CYYG;2012-04-23 13:21;CYYG 231321Z 08010KT 8SM OVC006 03/ RMK SF8

CYYG;2012-04-23 14:00;CYYG 231400Z 08007KT 6SM BR OVC006 04/03 A3006 RMK SF8 SLP182

CYYG;2012-04-23 15:00;CYYG 231500Z 08009KT 6SM BR OVC005 05/04 A3004 RMK SF8 SLP173

CYYG;2012-04-23 16:00;CYYG 231600Z 08009KT 6SM BR OVC005 06/06 A3002 RMK SF8 SLP167

CYYG;2012-04-23 17:00;CYYG 231700Z 09010KT 12SM OVC006 08/07 A2998 RMK SF8 SLP155

CYYG;2012-04-23 18:00;CYYG 231800Z 12009KT 15SM OVC008 09/08 A2998 RMK SF8 SLP152

CYYG;2012-04-23 19:00;CYYG 231900Z 11009KT 15SM BKN009 OVC250 11/09 A2994 RMK SF7CI1 SLP141

CYYG;2012-04-23 19:21;CYYG 231921Z 12008KT 15SM BKN012 OVC140 11/ RMK SC5AC3

CYYG;2012-04-23 20:00;CYYG 232000Z 12013KT 15SM BKN010 OVC140 12/10 A2993 RMK SC6AC2 SLP138

CYYG;2012-04-23 20:11;CYYG 232011Z 12009KT 15SM SCT010 OVC140 12/ RMK SC4AC4

CYYG;2012-04-23 21:00;CYYG 232100Z 13011KT 15SM FEW010 OVC150 13/12 A2991 RMK SC2AC6 SLP129

CYYG;2012-04-23 22:00;CYYG 232200Z 14012G19KT 15SM SCT010 OVC120 14/12 A2990 RMK SC4AC4 SLP128

CYYG;2012-04-23 23:00;CYYG 232300Z 14013G19KT 15SM SCT007 OVC100 13/12 A2989 RMK SF4AC4 SLP124

CYYG;2012-04-24 00:00;CYYG 240000Z 14013KT 15SM SCT008 BKN042 OVC110 14/12 A2989 RMK SF4SC2AC2 SLP122

CYYG;2012-04-24 01:00;CYYG 240100Z 14015G20KT 15SM FEW008 BKN042 OVC130 14/13 A2987 RMK SF2SC2AC3 SLP116

CYYG;2012-04-24 02:00;CYYG 240200Z 14015G20KT 15SM FEW008 BKN024 OVC120 15/13 A2986 RMK SF2SC4AC2 SLP114

CYYG;2012-04-24 03:00;CYYG 240300Z 15017G25KT 15SM FEW008 BKN022 OVC055 15/13 A2985 RMK SF2SC4SC2 SLP110

CYYG;2012-04-24 04:00;CYYG 240400Z 25016G25KT 15SM BKN021 OVC052 16/14 A2983 RMK SC6SC2 SLP102

CYYG;2012-04-24 05:00;CYYG 240500Z 16019G26KT 15SM BKN018 OVC047 15/13 A2982 RMK SC5SC3 SLP098

CYYG;2012-04-24 06:00;CYYG 240600Z 15019G24KT 15SM BKN018 OVC047 15/13 A2982 RMK SC5SC3 SLP097

CYYG;2012-04-24 07:00;CYYG 240700Z 16015G24KT 15SM BKN008 OVC020 14/13 A2982 RMK SF5SC3 SLP097

CYYG;2012-04-24 07:50;CYYG 240750Z 15013G21KT 15SM -SHRA SCT008 OVC020 14/ RMK SF3SC5

CYYG;2012-04-24 08:00;CYYG 240800Z 15014G21KT 15SM -SHRA SCT008 OVC020 14/13 A2980 RMK SF4SC4 SLP092

CYYG;2012-04-24 09:00;CYYG 240900Z 15018KT 15SM -SHRA BKN007 BKN020 OVC110 14/13 A2978 RMK SF6SC1AC2 SLP085

CYYG;2012-04-24 10:00;CYYG 241000Z 16019G25KT 15SM -SHRA SCT007 BKN080 15/13 A2977 RMK SF4AC3 SLP080

CYYG;2012-04-24 11:00;CYYG 241100Z 16020G28KT 12SM -SHRA SCT007 BKN070 15/13 A2977 RMK SF3AC4 SLP082

CYYG;2012-04-24 12:00;CYYG 241200Z 16023G30KT 10SM -SHRA SCT008 BKN070 15/13 A2977 RMK SF3AC4 SLP081

CYYG;2012-04-24 12:20;CYYG 241220Z 16019G27KT 10SM -SHRA BKN008 BKN040 BKN070 15/ RMK SF5SC1AC2

CYYG;2012-04-24 12:38;CYYG 241238Z 15019G28KT 10SM -SHRA SCT008 BKN040 BKN070 15/ RMK SF3SC2AC2

CYYG;2012-04-24 13:00;CYYG 241300Z 15022G34KT 10SM VCSH BKN009 BKN050 16/13 A2976 RMK SF5SC2 SLP079

CYYG;2012-04-24 13:41;CYYG 241341Z 15023G31KT 8SM FEW006 OVC011 16/ RMK SF1SC7

CYYG;2012-04-24 14:00;CYYG 241400Z 15022G30KT 8SM BKN014 BKN050 17/13 A2976 RMK SC6SC2 SLP077

CYYG;2012-04-24 14:48;CYYG 241448Z 15019G31KT 8SM FEW010 BKN018 OVC050 18/ RMK SF2SC5SC2

CYYG;2012-04-24 15:00;CYYG 241500Z 15023G33KT 10SM FEW006 BKN018 OVC050 18/14 A2975 RMK CF1SC6SC2 VIS SW-W 6 SLP074

CYYG;2012-04-24 15:35;CYYG 241535Z 16025G32KT 10SM -SHRA FEW006 BKN018 OVC050 17/ RMK CF1SC6SC2 VIS S-NW 4

CYYG;2012-04-24 15:40;CYYG 241540Z 16021G32KT 2 1/2SM SHRA BR FEW006 OVC023 16/ RMK SF1SC7

CYYG;2012-04-24 16:00;CYYG 241600Z 15020G26KT 2 1/2SM -SHRA BR FEW006 OVC018 16/14 A2975 RERA RMK SF2SC6 SLP076

CYYG;2012-04-24 16:16;CYYG 241616Z 16017G28KT 4SM -SHRA BR FEW012 OVC030 15/ RERA RMK SC2SC6

CYYG;2012-04-24 16:38;CYYG 241638Z 16018G26KT 2SM SHRA BR OVC007 15/ RMK SF8

CYYG;2012-04-24 17:00;CYYG 241700Z 16014G22KT 2SM SHRA BR OVC008 15/14 A2975 RMK SF8 SLP074

CYYG;2012-04-24 17:27;CYYG 241727Z 14012G19KT 4SM -SHRA BR OVC005 15/ RERA RMK SF8

CYYG;2012-04-24 18:00;CYYG 241800Z 14015G26KT 10SM -SHRA OVC006 15/14 A2972 RERA RMK SF8 /R12/ SLP064

CYYG;2012-04-24 18:45;CYYG 241845Z 15018G25KT 10SM -SHRA SCT009 BKN018 OVC060 15/ RMK SF3SC2SC2 PCPN VRY LGT

CYYG;2012-04-24 19:00;CYYG 241900Z 15019G25KT 12SM VCSH SCT009 BKN015 OVC057 15/14 A2971 RMK SF3SC2SC2 SLP061

CYYG;2012-04-24 20:00;CYYG 242000Z 17019G26KT 12SM -SHRA FEW009 BKN016 14/12 A2973 RMK SF2SC5 SLP067

CYYG;2012-04-24 20:29;CYYG 242029Z 17017KT 10SM -SHRA FEW006 OVC014 14/ RMK SF2SC6

CYYG;2012-04-24 21:09;CYYG 242109Z 17014KT 12SM VCSH FEW006 SCT014 OVC090 13/ RMK SF2SC2AS5

CYYG;2012-04-24 21:35;CYYG 242135Z 16010G16KT 12SM -SHRA FEW006 FEW015 BKN090 13/ RMK SF2SC1AC5

CYYG;2012-04-24 22:00;CYYG 242200Z 16012KT 12SM -SHRA FEW006 FEW015 SCT045 BKN090 13/12 A2974 RMK SF2SC1SC2AC3 OBS TAKEN +19 SLP072

CYYG;2012-04-24 23:00;CYYG 242300Z 16015G20KT 15SM -SHRA FEW005 FEW012 BKN044 BKN090 13/12 A2977 RMK SF2SC1SC2AC2 SLP081

CYYG;2012-04-25 00:00;CYYG 250000Z 16012G17KT 15SM -SHRA FEW005 FEW044 SCT090 BKN200 13/12 A2979 RMK SF2SC1AC2CI2 SLP089

CYYG;2012-04-25 01:00;CYYG 250100Z 17013KT 15SM -SHRA FEW008 SCT021 BKN180 12/11 A2982 RMK SF2SC2AC2 SLP098

CYYG;2012-04-25 02:00;CYYG 250200Z 19011KT 15SM SCT017 BKN140 11/10 A2982 RMK SC3AC3 SLP099

CYYG;2012-04-25 03:00;CYYG 250300Z 15004KT 15SM FEW028 SCT140 BKN200 10/09 A2984 RMK SC2AC2CI2 SLP104

CYYG;2012-04-25 03:31;CYYG 250331Z 19007KT 10SM SCT002 OVC020 09/ RMK SF3SC4

CYYG;2012-04-25 04:00;CYYG 250400Z 21006KT 3SM BR SCT002 OVC006 10/10 A2986 RMK SF4SF4 SLP111

CYYG;2012-04-25 05:00;CYYG 250500Z 00000KT 10SM FEW002 OVC008 10/10 A2986 RMK SF2SC6 SLP111

CYYG;2012-04-25 06:00;CYYG 250600Z 00000KT 15SM BKN008 OVC057 10/10 A2987 RMK SF5SC3 SLP114

CYYG;2012-04-25 07:00;CYYG 250700Z 00000KT 15SM SCT012 OVC065 09/09 A2987 RMK SC3SC5 SLP116

CYYG;2012-04-25 08:00;CYYG 250800Z 16003KT 15SM FEW012 OVC061 09/08 A2988 RMK SC2SC6 SLP119

CYYG;2012-04-25 09:00;CYYG 250900Z 13003KT 15SM MIFG FEW012 SCT060 07/07 A2989 RMK SC2SC2 SLP122

CYYG;2012-04-25 09:50;CYYG 250950Z 00000KT 15SM BKN009 08/ RMK SF7

CYYG;2012-04-25 10:00;CYYG 251000Z 00000KT 15SM BKN009 09/08 A2991 RMK SF7 SLP130

CYYG;2012-04-25 10:30;CYYG 251030Z 00000KT 8SM VCFG SCT009 09/ RMK SF4

CYYG;2012-04-25 11:00;CYYG 251100Z 00000KT 8SM VCFG FEW009 10/10 A2993 RMK SF2 VIS SW 2 MI SLP136

CYYG;2012-04-25 11:30;CYYG 251130Z 23002KT 12SM VCFG SCT009 11/ RMK SF3

CYYG;2012-04-25 12:00;CYYG 251200Z 00000KT 15SM SCT009 11/11 A2993 RMK CU4 SLP138

CYYG;2012-04-25 13:00;CYYG 251300Z 04002KT 15SM FEW016 FEW035 12/09 A2993 RMK SC2SC1 SLP135

CYYG;2012-04-25 14:00;CYYG 251400Z 07004KT 15SM FEW020 FEW080 SCT250 14/09 A2992 RMK SC2AC1CI0 SLP132

CYYG;2012-04-25 15:00;CYYG 251500Z 10007KT 15SM FEW020 BKN100 BKN250 15/10 A2989 RMK SC2AC3CI0 SLP122

CYYG;2012-04-25 16:00;CYYG 251600Z 05006KT 15SM FEW020 BKN090 BKN250 14/10 A2986 RMK SC2AC4CI1 SLP113

CYYG;2012-04-25 17:00;CYYG 251700Z 36006KT 15SM -SHRA SCT020 BKN040 OVC090 13/10 A2985 RMK SC3SC2AC2 SLP109

CYYG;2012-04-25 17:24;CYYG 251724Z 02009KT 6SM -SHRA BR FEW005 SCT020 OVC044 12/ RMK SF1SC3SC4

CYYG;2012-04-25 18:00;CYYG 251800Z CCA 04008KT 6SM -SHRA BR FEW005 SCT020 OVC062 11/09 A2981 RMK SF1SC2SC5 VIS N-NE 3 SLP094

CYYG;2012-04-25 18:14;CYYG 251814Z 05006KT 8SM -SHRA VCFG SCT003 BKN016 OVC060 13/ RMK SF3SC3SC2 VIS NW-NE 2

CYYG;2012-04-25 18:32;CYYG 251832Z 08004KT 10SM VCFG SCT003 BKN009 OVC060 13/ RMK SF3SF4SC1 VIS N 2

CYYG;2012-04-25 19:00;CYYG 251900Z 02003KT 12SM VCFG SCT003 OVC008 12/12 A2980 RMK SF3SF5 VIS NW 2 MI SLP091

CYYG;2012-04-25 19:26;CYYG 251926Z 31004KT 12SM VCFG SCT003 OVC005 12/ RMK SF3SF5 VIS W-NW 2MI

CYYG;2012-04-25 20:00;CYYG 252000Z 33005KT 12SM VCFG SCT003 BKN007 OVC030 12/11 A2977 RMK SF3SF3SC2 VIS W 3 OBS TAKEN +06 SLP083

CYYG;2012-04-25 20:41;CYYG 252041Z 33004KT 10SM -SHRA SCT003 OVC007 11/ RMK SF3SF5

CYYG;2012-04-25 21:00;CYYG 252100Z 33006KT 10SM -SHRA SCT003 OVC005 10/09 A2977 RMK SF3SF5 SLP082

CYYG;2012-04-25 21:06;CYYG 252106Z 35005KT 8SM -DZ SCT003 OVC005 10/ RMK SF3SF5 VIS W-N 3

CYYG;2012-04-25 21:50;CYYG 252150Z 31005KT 6SM BR BKN003 OVC006 09/ RMK SF5SF3 VIS E -SE 10

CYYG;2012-04-25 22:00;CYYG 252200Z 34003KT 6SM BR BKN003 OVC007 09/09 A2974 RMK SF6SF2 VIS E-SE 10 SLP073

CYYG;2012-04-25 23:00;CYYG 252300Z 34007KT 3SM BR BKN003 OVC006 07/06 A2972 RMK SF6SF2 SLP067

CYYG;2012-04-26 00:00;CYYG 260000Z 33005KT 2SM BR OVC002 07/07 A2972 RMK SF8 SLP066

CYYG;2012-04-26 01:00;CYYG 260100Z 32004KT 2SM BR OVC002 07/07 A2971 RMK SF8 SLP061

CYYG;2012-04-26 01:33;CYYG 260133Z 36003KT 1 1/2SM BR VV002 07/ RMK FG8

CYYG;2012-04-26 02:00;CYYG 260200Z 30002KT 3/4SM R03/3000V4500FT/N -SHRA BR VV002 07/07 A2970 RMK FG8 SLP059

CYYG;2012-04-26 03:00;CYYG 260300Z 05003KT 3SM -SHRA BR BKN003 OVC017 07/06 A2968 RMK SF5SC3 SLP050

CYYG;2012-04-26 04:00;CYYG 260400Z 34003KT 10SM -SHRA BKN004 OVC017 07/06 A2966 RMK SF7SC1 SLP045

CYYG;2012-04-26 05:00;CYYG 260500Z 36005KT 15SM -SHRA SCT004 OVC010 07/06 A2963 RMK SF3SC5 SLP036

CYYG;2012-04-26 06:00;CYYG 260600Z CCA 31010G15KT 15SM -SHRA FEW004 BKN010 OVC028 07/07 A2964 RMK SF1SC4SC3 RERA SLP039

CYYG;2012-04-26 06:16;CYYG 260616Z 30008KT 12SM -SHRA FEW007 BKN015 OVC028 07/ RMK SF2SC3SC3

CYYG;2012-04-26 07:00;CYYG 260700Z 26006KT 12SM -SHRA SCT008 BKN016 OVC028 08/07 A2967 RMK SF4SC2SC2 SLP049

CYYG;2012-04-26 08:00;CYYG 260800Z 27008G15KT 10SM -SHRA SCT008 BKN016 OVC032 07/07 A2971 RMK SF4SC2SC2 SLP061

CYYG;2012-04-26 09:00;CYYG 260900Z 27004KT 15SM -SHRA FEW008 SCT040 OVC120 07/06 A2971 RMK SF1SC2AC5 SLP063

CYYG;2012-04-26 10:00;CYYG 261000Z 23005KT 15SM -SHRA FEW008 BKN060 OVC120 07/06 A2973 RMK SF1SC6AC2 SLP069

CYYG;2012-04-26 10:33;CYYG 261033Z 21008KT 12SM FEW008 BKN070 08/ RMK SF2AC6

CYYG;2012-04-26 11:00;CYYG 261100Z 20010KT 15SM FEW008 BKN076 07/06 A2977 RMK SF2AC5 SLP082

CYYG;2012-04-26 11:32;CYYG 261132Z 21010KT 15SM SCT008 SCT075 08/ RMK SF3AC1

CYYG;2012-04-26 12:00;CYYG 261200Z 21011KT 15SM SCT009 SCT075 08/06 A2977 RMK SF3AC1 SLP084

CYYG;2012-04-26 13:00;CYYG 261300Z 22012KT 15SM FEW012 SCT075 09/06 A2979 RMK CF2AC1 SLP088

CYYG;2012-04-26 14:00;CYYG 261400Z 25011G18KT 15SM FEW016 FEW075 FEW250 11/06 A2980 RMK CU1AC1CI1 SLP092

CYYG;2012-04-26 15:00;CYYG 261500Z 23012G18KT 15SM FEW024TCU FEW250 12/07 A2980 RMK TCU1CI1 SLP092

CYYG;2012-04-26 16:00;CYYG 261600Z 25015G22KT 15SM FEW028TCU FEW070 13/07 A2980 RMK TCU1AC1 SLP093

CYYG;2012-04-26 16:19;CYYG 261619Z 26016KT 15SM FEW028 SCT084 13/ RMK CU2ACC2 CB TOPS DIST W VIRGA

CYYG;2012-04-26 17:00;CYYG 261700Z 23013KT 15SM FEW028TCU SCT088 13/05 A2983 RMK TCU2AC2 CB TOPS DIST NNW SLP102

CYYG;2012-04-26 18:00;CYYG 261800Z 24011G19KT 15SM FEW030TCU SCT067 14/01 A2983 RMK TCU1AC2 OBS TAKEN +04 SLP102

CYYG;2012-04-26 19:00;CYYG 261900Z 24012G20KT 15SM FEW032 FEW067 15/01 A2984 RMK CU2AC1 SLP104

CYYG;2012-04-26 20:00;CYYG 262000Z 25011G16KT 15SM FEW050 BKN079 14/01 A2984 RMK CU2AC4 SLP106

CYYG;2012-04-26 21:00;CYYG 262100Z 23011G17KT 15SM FEW050 FEW078 14/M01 A2984 RMK CU2AC1 SLP106

CYYG;2012-04-26 22:00;CYYG 262200Z 18006KT 15SM FEW050 FEW078 13/03 A2984 RMK CU2AC1 SLP107

CYYG;2012-04-26 23:00;CYYG 262300Z 18008KT 15SM FEW050 FEW078 10/02 A2987 RMK SC1AC1 SLP116

CYYG;2012-04-27 00:00;CYYG 270000Z 17004KT 15SM SCT065 09/03 A2988 RMK SC3 SLP119

CYYG;2012-04-27 01:00;CYYG 270100Z 19007KT 15SM FEW051 09/02 A2989 RMK SC2 SLP122

CYYG;2012-04-27 02:00;CYYG 270200Z 18009KT 15SM FEW051 09/04 A2987 RMK SC2 SLP118

CYYG;2012-04-27 03:00;CYYG 270300Z 19008KT 15SM FEW051 08/03 A2986 RMK SC2 SLP114

CYYG;2012-04-27 04:00;CYYG 270400Z 18008KT 15SM FEW050 07/03 A2986 RMK SC2 SLP114

CYYG;2012-04-27 05:00;CYYG 270500Z 17009KT 15SM FEW050 06/03 A2985 RMK SC1 SLP110

CYYG;2012-04-27 06:00;CYYG 270600Z 18008KT 15SM FEW050 05/03 A2985 RMK SC1 SLP108

CYYG;2012-04-27 07:00;CYYG 270700Z 17006KT 15SM SCT110 06/04 A2983 RMK AC4 SLP103

CYYG;2012-04-27 08:00;CYYG 270800Z 16007KT 15SM BKN110 05/04 A2981 RMK AC6 SLP096

CYYG;2012-04-27 09:00;CYYG 270900Z 13007KT 15SM BKN100 06/04 A2979 RMK AC7 SLP087

CYYG;2012-04-27 10:00;CYYG 271000Z 11009KT 15SM OVC100 06/03 A2975 RMK AC8 SLP074

CYYG;2012-04-27 10:36;CYYG 271036Z 13010KT 12SM -RA OVC060 06/ RMK NS8

CYYG;2012-04-27 11:00;CYYG 271100Z 13007KT 10SM -RA OVC055 06/03 A2974 RMK NS8 SLP071

CYYG;2012-04-27 12:00;CYYG 271200Z 11009KT 2 1/2SM RA BR SCT035 OVC050 06/05 A2968 RMK SC3NS5 PRESFR SLP051

CYYG;2012-04-27 13:00;CYYG 271300Z 08015KT 2 1/2SM RA BR OVC031 06/05 A2956 RMK NS8 PRESFR SLP011

CYYG;2012-04-27 13:10;CYYG 271310Z 08015KT 2SM +RA BR FEW005 OVC028 07/ RMK SF1NS7 PRESFR

CYYG;2012-04-27 13:21;CYYG 271321Z 08019G24KT 2SM +RA BR BKN005 OVC028 07/ RMK SF5NS3

CYYG;2012-04-27 13:35;CYYG 271335Z 09015G24KT 2 1/2SM RA BR BKN008 OVC022 07/ RERA RMK SF6NS2 PRESFR

CYYG;2012-04-27 14:00;CYYG 271400Z 10013G27KT 3SM RA BR BKN006 OVC015 07/06 A2944 RERA RMK SF7NS1 PRESFR /R17/ SLP970

CYYG;2012-04-27 14:10;CYYG 271410Z 10013G20KT 3SM -RA BR BKN006 OVC013 07/ RERA RMK SF7NS1

CYYG;2012-04-27 15:00;CYYG 271500Z 11008KT 3SM -RADZ BR BKN006 OVC010 08/07 A2935 RERA RMK SF7NS1 PRESFR SLP941

CYYG;2012-04-27 15:40;CYYG 271540Z 14012KT 3SM -DZ BR OVC005 10/ RMK SF8

CYYG;2012-04-27 16:00;CYYG 271600Z 15017G22KT 6SM -DZ BR OVC006 12/11 A2927 RMK SF8 PRESFR SLP912

CYYG;2012-04-27 16:22;CYYG 271622Z 16020G27KT 10SM BKN010 OVC020 12/ RMK SC5SC3

CYYG;2012-04-27 16:28;CYYG 271628Z 16018G26KT 15SM SCT005 OVC010 12/ RMK SF3SC5

CYYG;2012-04-27 17:00;CYYG 271700Z 17016G22KT 6SM -SHRA BR FEW005 OVC010 12/10 A2923 RMK SF2SC6 SLP900

CYYG;2012-04-27 17:17;CYYG 271717Z 17018KT 6SM -DZ BR OVC006 11/ RMK SF8

CYYG;2012-04-27 17:28;CYYG 271728Z 18015KT 5SM -DZ BR BKN004 OVC009 11/ RMK SF7SC1

CYYG;2012-04-27 18:00;CYYG 271800Z 19016KT 15SM BKN005 OVC014 12/11 A2925 RMK SF6SC2 SLP905

CYYG;2012-04-27 18:10;CYYG 271810Z 20014G20KT 15SM SCT005 OVC011 12/ RMK SF3SC5

CYYG;2012-04-27 18:24;CYYG 271824Z 20016KT 15SM FEW006 FEW011 OVC018 13/ RMK SF1SC2SC6

CYYG;2012-04-27 19:00;CYYG 271900Z 22015KT 15SM FEW017 OVC022 13/11 A2925 RMK SC2SC6 SLP907

CYYG;2012-04-27 20:00;CYYG 272000Z 21010G16KT 15SM FEW015 SCT022 BKN070 14/11 A2924 RMK SC2SC2AC3 SLP902

CYYG;2012-04-27 20:21;CYYG 272021Z 15011KT 15SM -SHRA BKN017 BKN027 11/ RMK SC6SC2

CYYG;2012-04-27 20:44;CYYG 272044Z 16011KT 15SM VCSH SCT012 BKN027 12/ RMK SC3SC4 TCU ASOCTD

CYYG;2012-04-27 21:00;CYYG 272100Z 17014KT 15SM SHRA FEW010 BKN025TCU 13/11 A2922 RMK SF2TCU6 SLP894

CYYG;2012-04-27 21:28;CYYG 272128Z 18022G28KT 15SM FEW010 BKN018 13/ RERA RMK SF1SC7 TCU ASOCTD

CYYG;2012-04-27 21:47;CYYG 272147Z 18021G32KT 15SM FEW010 SCT018TCU 12/ RERA RMK SF1TCU3 LN TCU SW-NW

CYYG;2012-04-27 22:00;CYYG 272200Z 18021G29KT 15SM SCT020TCU SCT100 12/09 A2920 RERA RMK TCU3AC1 LN TCU SW-N SLP890

CYYG;2012-04-27 22:18;CYYG 272218Z 18022G29KT 15SM -SHRA BKN030TCU BKN061 11/ RMK TCU5SC2

CYYG;2012-04-27 23:00;CYYG 272300Z 22018G24KT 15SM BKN031 BKN060 11/07 A2922 RMK SC5SC2 SLP894

CYYG;2012-04-27 23:50;CYYG 272350Z 22023G30KT 10SM -SHRA BKN014 BKN030 08/ RMK SC6SC2

CYYG;2012-04-28 00:00;CYYG 280000Z 22022G30KT 10SM -SHRA BKN011 OVC030 08/06 A2925 RMK SC7SC1 SLP906

CYYG;2012-04-28 00:38;CYYG 280038Z 26019G26KT 15SM -SHRA OVC017 07/ RMK SC8

CYYG;2012-04-28 01:00;CYYG 280100Z 23017G30KT 15SM -SHRA OVC019 07/05 A2928 RMK SC8 SLP916

CYYG;2012-04-28 02:00;CYYG 280200Z 25019G31KT 15SM -SHRA SCT012 OVC019 05/03 A2932 RMK SF3SC5 SLP930

CYYG;2012-04-28 02:34;CYYG 280234Z 25020G25KT 15SM FEW012 OVC022 05/ RMK SF2SC6

CYYG;2012-04-28 03:00;CYYG 280300Z 25019G25KT 15SM OVC015 05/02 A2936 RMK SC8 SLP943

CYYG;2012-04-28 04:00;CYYG 280400Z 26012G27KT 15SM OVC017 04/02 A2939 RMK SC8 SLP954

CYYG;2012-04-28 04:32;CYYG 280432Z 25018KT 12SM -SHRA OVC017 04/ RMK SC8

CYYG;2012-04-28 05:00;CYYG 280500Z 25014G20KT 12SM -SHRA OVC018 04/01 A2942 RMK SC8 SLP965

CYYG;2012-04-28 06:00;CYYG 280600Z 27017G27KT 15SM -SHRA OVC020 04/01 A2945 RMK SC8 SLP973

CYYG;2012-04-28 07:00;CYYG 280700Z 26014G25KT 15SM -SHRA OVC023 03/M01 A2949 RMK SC8 SLP987

CYYG;2012-04-28 08:00;CYYG 280800Z 26018G27KT 15SM -SHRA OVC021 03/M02 A2952 RMK SC8 SLP998

CYYG;2012-04-28 08:21;CYYG 280821Z 26015G26KT 15SM OVC023 02/ RMK SC8

CYYG;2012-04-28 09:00;CYYG 280900Z 27014G21KT 15SM OVC026 02/M02 A2954 RMK SC8 SLP005

CYYG;2012-04-28 10:00;CYYG 281000Z 26011G25KT 15SM OVC022 01/M03 A2958 RMK SC8 SLP016

CYYG;2012-04-28 11:00;CYYG 281100Z 26015G21KT 15SM OVC022 01/M03 A2962 RMK SC8 SLP030

CYYG;2012-04-28 12:00;CYYG 281200Z 26015G22KT 15SM OVC025 01/M04 A2963 RMK SC8 SLP037

CYYG;2012-04-28 13:00;CYYG 281300Z 26016G27KT 15SM OVC026 02/M04 A2966 RMK SC8 SLP044

CYYG;2012-04-28 14:00;CYYG 281400Z 25019G24KT 15SM OVC026 02/M05 A2967 RMK SC8 SLP048

CYYG;2012-04-28 15:00;CYYG 281500Z 26016G24KT 15SM OVC035 02/M05 A2968 RMK SC8 SLP051

CYYG;2012-04-28 16:00;CYYG 281600Z 27019G29KT 15SM OVC035 02/M05 A2969 RMK SC8 SLP054

CYYG;2012-04-28 17:00;CYYG 281700Z 26016G25KT 15SM OVC036 03/M06 A2969 RMK SC8 SLP055

CYYG;2012-04-28 17:36;CYYG 281736Z 27017G24KT 15SM -SHSN OVC039 03/ RMK SC8 PCPN VRY LGT

CYYG;2012-04-28 18:00;CYYG 281800Z 27019G24KT 15SM -SHSN OVC039 03/M06 A2970 RMK SC8 PCPN VRY LGT SLP059

CYYG;2012-04-28 19:00;CYYG 281900Z 28019G27KT 15SM OVC037 02/M06 A2971 RMK SC8 SLP063

CYYG;2012-04-28 20:00;CYYG 282000Z 28012G19KT 15SM VCSH OVC042 03/M06 A2972 RMK SC8 SLP066

CYYG;2012-04-28 20:34;CYYG 282034Z 29013G21KT 15SM -SHSN BKN042 OVC050 03/ RMK CU5SC3

CYYG;2012-04-28 21:00;CYYG 282100Z 30015G22KT 15SM -SHSN SCT042 OVC055 03/M06 A2974 RMK CU3SC5 SLP071

CYYG;2012-04-28 21:42;CYYG 282142Z 28008G20KT 15SM SCT040 OVC060 03/ RMK SC3SC5

CYYG;2012-04-28 22:00;CYYG 282200Z 29009KT 15SM FEW040 BKN058 03/M06 A2976 RMK SC2SC5 SLP080

CYYG;2012-04-28 23:00;CYYG 282300Z 30011G17KT 15SM FEW040 BKN068 03/M07 A2979 RMK SC2AC6 SLP089

CYYG;2012-04-29 00:00;CYYG 290000Z 30007KT 15SM BKN070 02/M07 A2982 RMK AC6 SLP100

CYYG;2012-04-29 01:00;CYYG 290100Z 30008KT 15SM BKN065 02/M08 A2985 RMK SC6 SLP111

CYYG;2012-04-29 02:00;CYYG 290200Z 27005KT 15SM SCT065 01/M07 A2987 RMK SC4 SLP118

CYYG;2012-04-29 03:00;CYYG 290300Z 26005KT 15SM FEW065 M00/M07 A2988 RMK SC2 SLP121

CYYG;2012-04-29 04:00;CYYG 290400Z 28007KT 15SM FEW065 M00/M08 A2989 RMK SC2 SLP123

CYYG;2012-04-29 05:00;CYYG 290500Z 27006KT 15SM FEW065 M00/M08 A2989 RMK SC2 SLP125

CYYG;2012-04-29 06:00;CYYG 290600Z 27005KT 15SM FEW065 M01/M09 A2990 RMK SC2 SLP127

CYYG;2012-04-29 07:00;CYYG 290700Z 27006KT 15SM FEW060 M01/M09 A2991 RMK SC2 SLP130

CYYG;2012-04-29 08:00;CYYG 290800Z 26004KT 15SM FEW060 M01/M09 A2990 RMK SC2 SLP129

CYYG;2012-04-29 09:00;CYYG 290900Z 26005KT 15SM FEW060 M01/M09 A2991 RMK SC1 SLP130

CYYG;2012-04-29 10:00;CYYG 291000Z 27005KT 15SM FEW030 M01/M08 A2991 RMK SC1 SLP132

CYYG;2012-04-29 11:00;CYYG 291100Z 27008KT 15SM FEW020 01/M09 A2993 RMK CF1 SLP136

CYYG;2012-04-29 12:00;CYYG 291200Z 27008G15KT 15SM FEW020 03/M08 A2993 RMK CF1 SLP136

CYYG;2012-04-29 13:00;CYYG 291300Z 27012G17KT 15SM FEW030 03/M09 A2993 RMK CF1 SLP136

CYYG;2012-04-29 14:00;CYYG 291400Z 27009G18KT 15SM FEW040 04/M09 A2992 RMK CU2 SLP135

CYYG;2012-04-29 15:00;CYYG 291500Z 22014G20KT 15SM FEW050 04/M09 A2991 RMK CU2 SLP131

CYYG;2012-04-29 16:00;CYYG 291600Z 24011G19KT 15SM FEW060 05/M09 A2988 RMK CU2 SLP122

CYYG;2012-04-29 17:00;CYYG 291700Z 25013G18KT 15SM SCT063 07/M08 A2986 RMK CU3 VIRGA SLP115

CYYG;2012-04-29 18:00;CYYG 291800Z 27011G20KT 15SM BKN070 08/M07 A2985 RMK CU6 VIRGA SLP109

CYYG;2012-04-29 19:00;CYYG 291900Z 26013G18KT 15SM BKN065 06/M06 A2985 RMK CU6 VIRGA/SHS ALQDS SLP109

CYYG;2012-04-29 20:00;CYYG 292000Z 25008G16KT 15SM BKN065 06/M07 A2984 RMK SC6 CU ASOCTD VIRGA/SHS ALQDS SLP107

CYYG;2012-04-29 20:17;CYYG 292017Z 02010KT 15SM BKN065 05/ RMK SC6 CU ASOCTD VIRGA/SHS ALQDS WSHFT 2010

CYYG;2012-04-29 21:00;CYYG 292100Z 36007KT 15SM BKN065 05/M05 A2987 RMK SC5 CU ASOCTD VIRGA/SHS ALQDS SLP116

CYYG;2012-04-29 22:00;CYYG 292200Z 03011KT 15SM BKN060 03/M06 A2989 RMK SC6 CU ASOCTD VIRGA/SHS ALQDS SLP123

CYYG;2012-04-29 23:00;CYYG 292300Z 03007KT 15SM FEW060 01/M06 A2991 RMK SC2 SHWRS/VIRGA SE-SW SLP132

CYYG;2012-04-30 00:00;CYYG 300000Z 01007KT 15SM FEW060 00/M06 A2996 RMK SC2 SLP146

CYYG;2012-04-30 01:00;CYYG 300100Z 01006KT 15SM FEW070 SCT090 M00/M06 A2998 RMK AC2AC2 SLP156

CYYG;2012-04-30 02:00;CYYG 300200Z 36004KT 15SM FEW070 FEW090 M01/M05 A3000 RMK AC2AC1 SLP160

CYYG;2012-04-30 03:00;CYYG 300300Z 01003KT 15SM FEW070 M01/M06 A3001 RMK AC2 SLP163

CYYG;2012-04-30 04:00;CYYG 300400Z 34002KT 15SM SCT040 M02/M06 A3001 RMK SC3 SLP164

CYYG;2012-04-30 05:00;CYYG 300500Z 32003KT 15SM SCT035 M02/M06 A3001 RMK SC3 SLP163

CYYG;2012-04-30 06:00;CYYG 300600Z 28004KT 15SM SCT035 BKN063 M01/M05 A3001 RMK SC3SC2 SLP163

CYYG;2012-04-30 06:10;CYYG 300610Z 31008KT 10SM -SHSN SCT030 BKN060 M01/ RMK SC3SC3 VIS LWR W

CYYG;2012-04-30 07:00;CYYG 300700Z 30003KT 15SM VCSH FEW030 BKN058 M01/M05 A3001 RMK SC2SC4 SLP163

CYYG;2012-04-30 08:00;CYYG 300800Z 28004KT 15SM FEW030 SCT055 M02/M06 A3003 RMK SC2SC2 SLP171

CYYG;2012-04-30 09:00;CYYG 300900Z 28005KT 15SM FEW030 SCT050 M02/M07 A3004 RMK SC1SC2 SHWRS NE SLP174

CYYG;2012-04-30 10:00;CYYG 301000Z 27004KT 15SM FEW035 M02/M07 A3006 RMK SC2 SLP182

CYYG;2012-04-30 11:00;CYYG 301100Z 28007KT 15SM FEW035 01/M05 A3008 RMK SC1 SLP188

CYYG;2012-04-30 12:00;CYYG 301200Z 29008KT 15SM FEW035 02/M05 A3009 RMK SC1 SLP191

CYYG;2012-04-30 13:00;CYYG 301300Z 31008KT 15SM FEW032 SCT061 03/M05 A3011 RMK SC2SC2 SLP197

CYYG;2012-04-30 14:00;CYYG 301400Z 30009KT 15SM SCT036 BKN060 03/M05 A3012 RMK SC4SC3 SLP201

CYYG;2012-04-30 15:00;CYYG 301500Z 34008KT 15SM BKN035 BKN060 04/M04 A3012 RMK SC5SC2 SLP203

CYYG;2012-04-30 16:00;CYYG 301600Z 35008G19KT 15SM SCT035 BKN055 05/M04 A3013 RMK SC3SC4 SLP204

CYYG;2012-04-30 17:00;CYYG 301700Z 33009KT 15SM FEW030 BKN048 04/M04 A3014 RMK SC2SC5 SLP210

CYYG;2012-04-30 18:00;CYYG 301800Z 36013KT 15SM FEW030 BKN048 04/M05 A3016 RMK SC2SC5 SLP216

CYYG;2012-04-30 19:00;CYYG 301900Z 01013KT 15SM FEW030 BKN048 04/M05 A3019 RMK SC1SC6 SLP224

CYYG;2012-04-30 20:00;CYYG 302000Z 36008KT 15SM BKN052 04/M04 A3020 RMK SC7 SLP229

CYYG;2012-04-30 21:00;CYYG 302100Z 03008KT 15SM BKN049 04/M04 A3021 RMK SC7 SLP232

CYYG;2012-04-30 22:00;CYYG 302200Z 01004KT 15SM BKN053 03/M04 A3022 RMK SC7 SLP236

CYYG;2012-04-30 23:00;CYYG 302300Z 07006KT 15SM BKN053 02/M04 A3023 RMK SC6 SLP237

CYYG;2012-05-01 00:00;CYYG 010000Z 06003KT 15SM BKN052 02/M04 A3024 RMK SC6 SLP242

CYYG;2012-05-01 01:00;CYYG 010100Z 07003KT 15SM BKN052 01/M04 A3025 RMK SC6 SLP246

CYYG;2012-05-01 02:00;CYYG 010200Z 12002KT 15SM FEW052 01/M04 A3025 RMK SC2 SLP244

CYYG;2012-05-01 03:00;CYYG 010300Z 00000KT 15SM FEW050 M01/M06 A3026 RMK SC1 SLP249

CYYG;2012-05-01 04:00;CYYG 010400Z 27004KT 15SM SKC M02/M06 A3028 RMK SLP254

CYYG;2012-05-01 05:00;CYYG 010500Z 26003KT 15SM FEW250 M01/M05 A3029 RMK CI2 SLP258

CYYG;2012-05-01 06:00;CYYG 010600Z 11002KT 15SM SCT250 M03/M06 A3029 RMK CI1 SLP261

CYYG;2012-05-01 07:00;CYYG 010700Z 09002KT 15SM SCT250 M02/M05 A3029 RMK CI1 SLP260

CYYG;2012-05-01 08:00;CYYG 010800Z 00000KT 15SM SCT250 M03/M06 A3030 RMK CI1 FROIN SLP262

CYYG;2012-05-01 09:00;CYYG 010900Z 00000KT 15SM FEW250 M03/M06 A3031 RMK CI2 SLP266

CYYG;2012-05-01 10:00;CYYG 011000Z 17002KT 15SM FEW250 M01/M03 A3031 RMK CI1 SLP268

CYYG;2012-05-01 11:00;CYYG 011100Z 18003KT 15SM FEW250 03/M01 A3032 RMK CI1 SLP271

CYYG;2012-05-01 12:00;CYYG 011200Z 18004KT 15SM FEW300 05/M01 A3033 RMK CI1 SLP274

CYYG;2012-05-01 13:00;CYYG 011300Z 19003KT 15SM SCT300 06/M00 A3033 RMK CI1 SLP273

CYYG;2012-05-01 14:00;CYYG 011400Z 00000KT 15SM FEW025 SCT300 07/00 A3032 RMK CF1CI1 SLP269

CYYG;2012-05-01 15:00;CYYG 011500Z 15005KT 15SM FEW030 BKN300 08/M00 A3031 RMK SC1CI1 WND ESTD SLP265

CYYG;2012-05-01 16:00;CYYG 011600Z 15005KT 15SM FEW030 BKN300 09/01 A3029 RMK SC2CI1 SLP258

CYYG;2012-05-01 17:00;CYYG 011700Z 18005KT 15SM FEW038 BKN300 10/00 A3026 RMK SC2CI2 WND ESTD SLP250

CYYG;2012-05-01 18:00;CYYG 011800Z 18005KT 15SM FEW038 BKN300 10/M00 A3025 RMK SC1CI2 WND ESTD SLP245

CYYG;2012-05-01 19:00;CYYG 011900Z 08008KT 15SM FEW038 FEW160 BKN330 10/00 A3025 RMK SC1AC2CI2 SLP245

CYYG;2012-05-01 20:00;CYYG 012000Z 09004KT 15SM FEW040 FEW160 BKN300 11/00 A3024 RMK SC1AC1CI5 SLP243

CYYG;2012-05-01 21:00;CYYG 012100Z 09006KT 15SM FEW040 FEW160 BKN300 10/M00 A3023 RMK SC1AC1CI5 SLP239

CYYG;2012-05-01 22:00;CYYG 012200Z 18004KT 15SM FEW040 FEW160 BKN300 08/01 A3025 RMK SC1AC1CI5 SLP244

CYYG;2012-05-01 23:00;CYYG 012300Z 13005KT 15SM FEW040 BKN220 07/M02 A3025 RMK SC2CS5 SLP246

CYYG;2012-05-02 00:00;CYYG 020000Z 12007KT 15SM BKN063 BKN200 05/M03 A3026 RMK SC5CS2 SLP248

CYYG;2012-05-02 01:00;CYYG 020100Z 13005KT 15SM BKN065 BKN200 05/M02 A3026 RMK SC6CS2 SLP248

CYYG;2012-05-02 02:00;CYYG 020200Z 12004KT 15SM BKN065 04/M02 A3025 RMK SC6 SLP246

CYYG;2012-05-02 03:00;CYYG 020300Z 14002KT 15SM SCT064 BKN200 04/M01 A3025 RMK SC3CS2 SLP245

CYYG;2012-05-02 04:00;CYYG 020400Z 18003KT 15SM FEW060 BKN190 04/M02 A3025 RMK SC2AS3 SLP245

CYYG;2012-05-02 05:00;CYYG 020500Z 00000KT 15SM FEW060 BKN180 02/M03 A3025 RMK SC1AS4 SLP244

CYYG;2012-05-02 06:00;CYYG 020600Z 00000KT 15SM FEW060 SCT180 01/M03 A3024 RMK SC1AS2 SLP243

CYYG;2012-05-02 07:00;CYYG 020700Z 00000KT 15SM FEW030 SCT060 00/M03 A3024 RMK SC1SC2 SLP241

CYYG;2012-05-02 08:00;CYYG 020800Z 26002KT 15SM FEW030 BKN063 03/M00 A3024 RMK SC1SC4 SLP241

CYYG;2012-05-02 09:00;CYYG 020900Z 26002KT 15SM FEW039 BKN065 02/M01 A3025 RMK SC2SC3 SLP244

CYYG;2012-05-02 10:00;CYYG 021000Z 00000KT 15SM FEW039 SCT065 BKN260 03/00 A3025 RMK SC2SC2CI1 SLP246

CYYG;2012-05-02 11:00;CYYG 021100Z 29004KT 15SM FEW040 BKN056 BKN260 06/03 A3026 RMK SC1SC4CI1 SLP250

CYYG;2012-05-02 12:00;CYYG 021200Z 32003KT 15SM FEW040 SCT060 BKN260 08/01 A3028 RMK SC2SC2CI0 SLP254

CYYG;2012-05-02 13:00;CYYG 021300Z 25002KT 15SM FEW020 SCT060 BKN260 09/05 A3027 RMK CF1SC2CI1 SLP251

CYYG;2012-05-02 14:00;CYYG 021400Z 36003KT 15SM FEW022 BKN044 BKN260 10/05 A3027 RMK CF2SC3CI1 SLP251

CYYG;2012-05-02 15:00;CYYG 021500Z 36005KT 15SM FEW024 BKN050 BKN260 10/05 A3026 RMK CF2SC3CI1 WND ESTD SLP250

CYYG;2012-05-02 16:00;CYYG 021600Z 36010KT 15SM FEW025 SCT050 BKN160 BKN260 11/05 A3025 RMK CF2SC2AC2CI1 WND ESTD SLP247

CYYG;2012-05-02 17:00;CYYG 021700Z 36010KT 15SM FEW026 SCT050 BKN160 OVC260 11/04 A3024 RMK CU2SC2AC2CI1 WND ESTD SLP242

CYYG;2012-05-02 18:00;CYYG 021800Z 36010KT 15SM FEW030 FEW050 BKN170 OVC260 11/03 A3022 RMK CU2SC1AC2CI1 WND ESTD SLP235

CYYG;2012-05-02 19:00;CYYG 021900Z 36010KT 15SM FEW030 SCT160 BKN260 10/03 A3022 RMK SC2AC2CI1 WND ESTD SLP236

CYYG;2012-05-02 20:00;CYYG 022000Z 03010KT 15SM FEW030 FEW150 BKN260 09/02 A3023 RMK SC1AC1CI2 SLP239

CYYG;2012-05-02 21:00;CYYG 022100Z 02008KT 15SM FEW035 FEW150 SCT260 08/M01 A3023 RMK SC1AC1CI1 SLP239

CYYG;2012-05-02 22:00;CYYG 022200Z 04009KT 15SM FEW035 FEW150 FEW260 07/M02 A3023 RMK SC1AC1CI1 SLP237

CYYG;2012-05-02 23:00;CYYG 022300Z 03008KT 15SM FEW035 FEW260 04/M01 A3023 RMK SC1CI1 SLP239

CYYG;2012-05-02 23:53;CYYG 022353Z 03008KT 15SM FEW260 02/ RMK CI1

CYYG;2012-05-03 00:00;CYYG 030000Z 03007KT 15SM FEW260 02/M01 A3024 RMK CI1 SLP241

CYYG;2012-05-03 01:00;CYYG 030100Z 32002KT 15SM FEW260 01/M01 A3024 RMK CI0 SLP243

CYYG;2012-05-03 02:00;CYYG 030200Z 34003KT 15SM SKC 00/M02 A3023 RMK SLP240

CYYG;2012-05-03 03:00;CYYG 030300Z 04005KT 15SM SKC M00/M02 A3022 RMK FROIN SLP235

CYYG;2012-05-03 04:00;CYYG 030400Z 31003KT 15SM FEW260 M00/M02 A3022 RMK CI0 FROIN SLP236

CYYG;2012-05-03 05:00;CYYG 030500Z 32004KT 15SM FEW260 M01/M02 A3021 RMK CI0 FROIN SLP233

CYYG;2012-05-03 06:00;CYYG 030600Z 34002KT 15SM FEW260 M01/M01 A3020 RMK CI1 FROIN SLP227

CYYG;2012-05-03 07:00;CYYG 030700Z 32004KT 15SM FEW260 M01/M02 A3019 RMK CI1 FROIN SLP225

CYYG;2012-05-03 08:00;CYYG 030800Z 36005KT 15SM FEW260 M00/M01 A3019 RMK CI1 FROIN SLP224

CYYG;2012-05-03 09:00;CYYG 030900Z 33004KT 15SM FEW025 BKN260 M01/M02 A3020 RMK SC1CI1 FROIN SLP229

CYYG;2012-05-03 10:00;CYYG 031000Z 36004KT 15SM BKN260 01/M00 A3020 RMK CI1 SLP227

CYYG;2012-05-03 11:00;CYYG 031100Z 36010KT 15SM FEW070 BKN260 04/00 A3020 RMK AC1CI2 SLP227

CYYG;2012-05-03 12:00;CYYG 031200Z 36009KT 15SM FEW070 BKN260 06/M01 A3020 RMK AC1CI2 SLP227

CYYG;2012-05-03 13:00;CYYG 031300Z 36010KT 15SM FEW070 BKN260 07/M01 A3018 RMK AC1CI2 SLP223

CYYG;2012-05-03 14:00;CYYG 031400Z 35010KT 15SM BKN260 09/M01 A3017 RMK CI2 SLP219

CYYG;2012-05-03 15:00;CYYG 031500Z 35010G16KT 15SM BKN260 09/M01 A3016 RMK CI2 SLP216

CYYG;2012-05-03 16:00;CYYG 031600Z 01011G16KT 15SM BKN260 09/M00 A3016 RMK CI2 SLP214

CYYG;2012-05-03 17:00;CYYG 031700Z 01012KT 15SM FEW070 BKN260 09/02 A3015 RMK AC2CI2 SLP212

CYYG;2012-05-03 18:00;CYYG 031800Z 35010G15KT 15SM BKN070 BKN260 10/M00 A3014 RMK AC5CI2 SLP210

CYYG;2012-05-03 19:00;CYYG 031900Z 01011G17KT 15SM BKN067 BKN260 09/M00 A3012 RMK AC5CI2 SLP201

CYYG;2012-05-03 20:00;CYYG 032000Z 02011KT 15SM SCT067 BKN260 08/M00 A3012 RMK AC3CI2 SLP203

CYYG;2012-05-03 21:00;CYYG 032100Z 36007KT 15SM FEW067 BKN260 08/M02 A3010 RMK AC2CI2 SLP196

CYYG;2012-05-03 22:00;CYYG 032200Z 02011KT 15SM FEW070 BKN260 06/M02 A3010 RMK AC1CI2 SLP194

CYYG;2012-05-03 23:00;CYYG 032300Z 02008KT 15SM FEW070 FEW200 SCT300 05/M02 A3010 RMK AC1CI1CI0 SLP195

CYYG;2012-05-03 23:41;CYYG 032341Z 02008KT 15SM BKN012 BKN070 BKN300 04/ RMK SC5AC1CI0

CYYG;2012-05-04 00:00;CYYG 040000Z 02007KT 15SM BKN011 BKN300 04/00 A3009 RMK SC7CI1 SLP193

CYYG;2012-05-04 00:25;CYYG 040025Z 03009KT 15SM FEW011 OVC016 05/ RMK SC2SC6

CYYG;2012-05-04 01:00;CYYG 040100Z 02009KT 15SM FEW008 BKN013 OVC021 05/03 A3010 RMK SF2SC5SC2 SLP194

CYYG;2012-05-04 01:35;CYYG 040135Z 35006KT 15SM BKN007 OVC012 05/ RMK SF6SC2

CYYG;2012-05-04 02:00;CYYG 040200Z 34004KT 15SM OVC008 05/03 A3010 RMK SF8 SLP195

CYYG;2012-05-04 03:00;CYYG 040300Z 33005KT 12SM BKN009 OVC027 05/04 A3008 RMK SF7SC1 SLP187

CYYG;2012-05-04 03:51;CYYG 040351Z 01006KT 6SM -DZ BR OVC010 06/ RMK SF8

CYYG;2012-05-04 04:00;CYYG 040400Z 01006KT 6SM -DZ BR OVC009 06/05 A3006 RMK SF8 SLP182

CYYG;2012-05-04 04:48;CYYG 040448Z 01005KT 12SM OVC009 06/ RMK SF8

CYYG;2012-05-04 05:00;CYYG 040500Z 36006KT 12SM OVC010 06/05 A3005 RMK SF8 SLP176

CYYG;2012-05-04 05:45;CYYG 040545Z 01007KT 12SM -DZ OVC011 06/ RMK SF8

CYYG;2012-05-04 06:00;CYYG 040600Z 02007KT 12SM -DZ OVC012 06/05 A3004 RMK SF8 SLP175

CYYG;2012-05-04 06:40;CYYG 040640Z 01008KT 15SM OVC015 06/ RMK SC8

CYYG;2012-05-04 07:00;CYYG 040700Z 01008KT 15SM OVC013 06/04 A3006 RMK SC8 SLP179

CYYG;2012-05-04 08:00;CYYG 040800Z 01007KT 15SM OVC013 05/04 A3007 RMK ST8 SLP184

CYYG;2012-05-04 09:00;CYYG 040900Z 02006KT 15SM OVC011 05/04 A3008 RMK ST8 SLP187

CYYG;2012-05-04 09:19;CYYG 040919Z 01005KT 15SM OVC007 05/ RMK ST8

CYYG;2012-05-04 10:00;CYYG 041000Z 02009KT 15SM OVC007 05/03 A3010 RMK ST8 SLP194

CYYG;2012-05-04 11:00;CYYG 041100Z 04006KT 15SM BKN006 OVC040 05/04 A3009 RMK SF7SC1 SLP192

CYYG;2012-05-04 12:00;CYYG 041200Z 33005KT 15SM BKN007 BKN043 06/05 A3010 RMK SF5SC2 SLP195

CYYG;2012-05-04 13:00;CYYG 041300Z 02004KT 15SM SCT008 BKN044 BKN260 08/05 A3008 RMK SF3SC2CI0 SLP189

CYYG;2012-05-04 14:00;CYYG 041400Z 02004KT 15SM BKN018 BKN045 BKN260 08/05 A3009 RMK SC5SC1CI1 SLP190

CYYG;2012-05-04 15:00;CYYG 041500Z 12007KT 15SM FEW010 BKN023 BKN260 12/07 A3008 RMK SF1SC4CI1 OBS TAKEN +10 SLP188

CYYG;2012-05-04 16:00;CYYG 041600Z 14005KT 15SM FEW010 BKN022 BKN260 11/06 A3008 RMK SF1SC4CI1 SLP187

CYYG;2012-05-04 17:00;CYYG 041700Z 03003KT 15SM FEW026 BKN260 11/05 A3007 RMK CU2CI2 SLP184

CYYG;2012-05-04 18:00;CYYG 041800Z 01009KT 15SM FEW030 BKN250 12/03 A3005 RMK SC2CI1 SLP178

CYYG;2012-05-04 19:00;CYYG 041900Z 02009KT 15SM FEW030 BKN250 11/03 A3006 RMK SC2CI1 SLP180

CYYG;2012-05-04 20:00;CYYG 042000Z 02012KT 15SM FEW030 SCT250 10/03 A3005 RMK SC1CI1 SLP178

CYYG;2012-05-04 21:00;CYYG 042100Z 04011KT 15SM FEW030 FEW260 08/02 A3006 RMK SC1CI1 SLP179

CYYG;2012-05-04 22:00;CYYG 042200Z 03012KT 15SM FEW120 FEW260 06/02 A3006 RMK AC1CI1 SLP182

CYYG;2012-05-04 23:00;CYYG 042300Z 04011KT 15SM FEW120 FEW260 05/02 A3005 RMK AC1CI1 SLP178

CYYG;2012-05-05 00:00;CYYG 050000Z 04007KT 15SM FEW260 03/02 A3005 RMK CI1 SLP179

CYYG;2012-05-05 01:00;CYYG 050100Z 06004KT 15SM FEW260 02/01 A3007 RMK CI1 SLP185

CYYG;2012-05-05 02:00;CYYG 050200Z 07004KT 15SM FEW260 02/01 A3005 RMK CI1 SLP179

CYYG;2012-05-05 03:00;CYYG 050300Z 00000KT 15SM SKC 02/02 A3004 RMK SLP174

CYYG;2012-05-05 04:00;CYYG 050400Z 00000KT 15SM SKC 01/M00 A3003 RMK SLP169

CYYG;2012-05-05 05:00;CYYG 050500Z 00000KT 15SM SKC 00/M01 A3001 RMK SLP162

CYYG;2012-05-05 06:00;CYYG 050600Z 23003KT 15SM FEW260 02/01 A2999 RMK CI1 SLP157

CYYG;2012-05-05 07:00;CYYG 050700Z 00000KT 15SM SCT220 00/M00 A2998 RMK CI1 SLP154

CYYG;2012-05-05 08:00;CYYG 050800Z 00000KT 15SM BKN220 M00/M01 A2998 RMK CI1 SLP154

CYYG;2012-05-05 09:00;CYYG 050900Z 35002KT 15SM BKN210 M00/M01 A2999 RMK CI3 SLP157

CYYG;2012-05-05 10:00;CYYG 051000Z 34004KT 15SM BKN190 02/01 A3001 RMK AC6 SLP163

CYYG;2012-05-05 11:00;CYYG 051100Z 35003KT 15SM FEW030 BKN190 05/04 A3002 RMK SC1AC6 SLP167

CYYG;2012-05-05 12:00;CYYG 051200Z 35004KT 15SM FEW030 BKN170 BKN250 06/06 A3001 RMK SC1AC6CI1 SLP165

CYYG;2012-05-05 13:00;CYYG 051300Z 04003KT 15SM FEW030 SCT170 BKN200 09/06 A3001 RMK SC1AC2CI3 SLP164

CYYG;2012-05-05 14:00;CYYG 051400Z 03004KT 15SM FEW028 FEW050 SCT150 BKN200 13/06 A3000 RMK CU1SC2AC2CI1 ACC ASOCTD SLP160

CYYG;2012-05-05 15:00;CYYG 051500Z 12005KT 15SM FEW036 FEW060 SCT150 BKN200 14/05 A2998 RMK CU1SC1AC2CI1 SLP155

CYYG;2012-05-05 16:00;CYYG 051600Z 05006KT 15SM FEW036 SCT060 BKN170 BKN250 15/06 A2998 RMK CU1SC2AC2CI1 VIRGA W SLP153

CYYG;2012-05-05 17:00;CYYG 051700Z 02006KT 15SM FEW040 SCT090 BKN180 BKN250 15/05 A2999 RMK CU2AC2AC2CI1 SLP156

CYYG;2012-05-05 18:00;CYYG 051800Z 02003KT 15SM FEW044 SCT080 BKN190 15/05 A2998 RMK CU2AC2AS3 SLP152

CYYG;2012-05-05 19:00;CYYG 051900Z 01009KT 15SM FEW044 BKN140 BKN160 13/04 A2998 RMK CU2AC3AC2 SLP155

CYYG;2012-05-05 20:00;CYYG 052000Z 01009KT 15SM FEW044 BKN140 BKN250 11/04 A2999 RMK SC2AC3CI1 SLP157

CYYG;2012-05-05 21:00;CYYG 052100Z 01008KT 15SM SCT045 BKN140 10/04 A3000 RMK SC3AC3 SLP161

CYYG;2012-05-05 22:00;CYYG 052200Z 36007KT 15SM FEW042 BKN076 BKN120 08/04 A3000 RMK SC2AC2AC2 SLP162

CYYG;2012-05-05 23:00;CYYG 052300Z 01007KT 15SM FEW042 BKN078 BKN140 07/04 A3001 RMK SC2AC4AC2 SLP165

CYYG;2012-05-06 00:00;CYYG 060000Z 36007KT 15SM SCT075 OVC110 06/04 A3003 RMK AC4AC4 SLP169

CYYG;2012-05-06 01:00;CYYG 060100Z 35004KT 15SM FEW075 OVC110 06/04 A3004 RMK AC2AC6 SLP172

CYYG;2012-05-06 02:00;CYYG 060200Z 34006KT 15SM FEW090 BKN110 05/04 A3004 RMK AC2AC5 SLP173

CYYG;2012-05-06 03:00;CYYG 060300Z 34007KT 15SM FEW035 SCT090 OVC120 05/04 A3004 RMK SC2AC2AC4 SLP172

CYYG;2012-05-06 04:00;CYYG 060400Z 34011KT 15SM BKN037 OVC100 05/04 A3004 RMK SC6AC2 SLP172

CYYG;2012-05-06 05:00;CYYG 060500Z 35009KT 15SM FEW005 OVC037 05/04 A3004 RMK SF2SC6 SLP173

CYYG;2012-05-06 06:00;CYYG 060600Z 36006KT 15SM BKN005 OVC010 05/04 A3004 RMK SF5SC3 SLP172

CYYG;2012-05-06 07:00;CYYG 060700Z 36008KT 15SM OVC005 04/04 A3004 RMK SF8 SLP174

CYYG;2012-05-06 08:00;CYYG 060800Z 01010KT 15SM OVC005 04/03 A3004 RMK SF8 SLP175

CYYG;2012-05-06 09:00;CYYG 060900Z 02009KT 15SM BKN006 OVC012 04/04 A3005 RMK SF6SC2 SLP176

CYYG;2012-05-06 10:00;CYYG 061000Z 36010G16KT 15SM BKN008 BKN015 05/04 A3005 RMK SF5SC2 SLP176

CYYG;2012-05-06 11:00;CYYG 061100Z 36011G16KT 15SM BKN008 BKN018 BKN026 05/04 A3006 RMK SF5SC2SC1 SLP180

CYYG;2012-05-06 12:00;CYYG 061200Z 36012KT 15SM SCT011 SCT025 BKN045 07/04 A3004 RMK SF3SC1SC2 SLP175

CYYG;2012-05-06 13:00;CYYG 061300Z 36011G19KT 15SM SCT014 SCT028 BKN250 08/04 A3006 RMK SF3SC1CI0 SLP180

CYYG;2012-05-06 14:00;CYYG 061400Z 35012G18KT 15SM FEW014 BKN030 BKN250 08/04 A3006 RMK SF2SC3CI1 CF ASOCTD SLP180

CYYG;2012-05-06 15:00;CYYG 061500Z 01012KT 15SM FEW014 BKN031 BKN250 08/04 A3006 RMK SF2SC2CI0 SLP182

CYYG;2012-05-06 16:00;CYYG 061600Z 35014G19KT 15SM FEW014 BKN037 BKN250 08/04 A3007 RMK SF2SC2CI0 CF ASOCTD SLP184

CYYG;2012-05-06 17:00;CYYG 061700Z 35012G17KT 15SM SCT013 SCT035 BKN250 08/04 A3006 RMK SF3SC1CI0 CF ASOCTD SLP182

CYYG;2012-05-06 18:00;CYYG 061800Z 36012G17KT 15SM SCT014 SCT035 BKN250 08/04 A3006 RMK SF3SC1CI0 SLP180

CYYG;2012-05-06 19:00;CYYG 061900Z 36014G20KT 15SM FEW015 BKN068 BKN250 07/03 A3005 RMK CF2AC2CI0 SLP178

CYYG;2012-05-06 20:00;CYYG 062000Z 01013G19KT 15SM FEW015 SCT068 BKN250 07/03 A3006 RMK SF2AC2CI1 SLP179

CYYG;2012-05-06 20:55;CYYG 062055Z 01012KT 15SM BKN009 BKN070 05/ RMK SF6AC2 SF INVDG FM NE

CYYG;2012-05-06 21:00;CYYG 062100Z 01012KT 15SM BKN009 BKN070 05/03 A3006 RMK SF6AC2 SF INVDG FM NE SLP182

CYYG;2012-05-06 21:45;CYYG 062145Z 01010G15KT 12SM BKN005 04/ RMK SF7 VIS NW-NE 3

CYYG;2012-05-06 22:00;CYYG 062200Z 02011G17KT 12SM BKN004 04/04 A3007 RMK SF7 VIS NW-NE 3 SLP185

CYYG;2012-05-06 23:00;CYYG 062300Z 01007KT 15SM BKN005 05/05 A3007 RMK ST7 SLP185

CYYG;2012-05-07 00:00;CYYG 070000Z 35007KT 15SM BKN008 05/04 A3007 RMK SF7 SLP186

CYYG;2012-05-07 01:00;CYYG 070100Z 36006KT 15SM BKN006 05/03 A3007 RMK SF7 SLP184

CYYG;2012-05-07 01:41;CYYG 070141Z 02012KT 10SM -DZ BKN004 OVC009 05/ RMK SF6SC2

CYYG;2012-05-07 02:00;CYYG 070200Z 01008KT 6SM -DZ BR BKN004 BKN008 OVC017 05/05 A3006 RMK SF5SF2SC2 SLP182

CYYG;2012-05-07 03:00;CYYG 070300Z 36009KT 6SM -DZ BR OVC003 04/04 A3006 RMK ST8 SLP179

CYYG;2012-05-07 04:00;CYYG 070400Z 35008KT 6SM -DZ BR BKN004 BKN010 OVC018 04/04 A3006 RMK SF5SC2SC2 SLP182

CYYG;2012-05-07 05:00;CYYG 070500Z 36008KT 5SM -DZ BR BKN003 OVC009 04/04 A3005 RMK SF6SF2 SLP177

CYYG;2012-05-07 06:00;CYYG 070600Z 01009KT 3SM -DZ BR OVC003 04/04 A3004 RMK SF8 SLP174

CYYG;2012-05-07 07:00;CYYG 070700Z 03010KT 3SM -DZ BR OVC003 05/05 A3004 RMK ST8 SLP175

CYYG;2012-05-07 08:00;CYYG 070800Z 01009KT 3SM -DZ BR OVC002 04/04 A3005 RMK ST8 SLP178

CYYG;2012-05-07 09:00;CYYG 070900Z 02011KT 3SM -DZ BR OVC003 05/05 A3006 RMK ST8 SLP182

CYYG;2012-05-07 10:00;CYYG 071000Z 02010KT 2SM -DZ BR OVC003 05/05 A3007 RMK ST8 SLP184

CYYG;2012-05-07 11:00;CYYG 071100Z 01007KT 2SM -DZ BR OVC003 05/05 A3009 RMK ST8 SLP190

CYYG;2012-05-07 11:50;CYYG 071150Z 02010KT 2SM -DZ BR OVC004 05/ RMK SF8

CYYG;2012-05-07 12:00;CYYG 071200Z 02011KT 2SM -DZ BR OVC004 05/05 A3009 RMK SF8 SLP193

CYYG;2012-05-07 12:37;CYYG 071237Z 02012KT 4SM -DZ BR OVC004 06/ RMK SF8

CYYG;2012-05-07 13:00;CYYG 071300Z 02011KT 3SM -DZ BR OVC004 06/06 A3009 RMK SF8 SLP193

CYYG;2012-05-07 13:16;CYYG 071316Z 01008KT 2SM -DZ BR OVC003 06/ RMK SF8

CYYG;2012-05-07 13:51;CYYG 071351Z 02011KT 2 1/2SM BR OVC004 06/ RMK SF8

CYYG;2012-05-07 14:00;CYYG 071400Z 02009KT 3SM BR OVC004 06/06 A3011 RMK SF8 SLP197

CYYG;2012-05-07 15:00;CYYG 071500Z 36007KT 2 1/2SM BR OVC004 06/06 A3012 RMK SF8 SLP200

CYYG;2012-05-07 15:13;CYYG 071513Z 36009KT 5SM BR OVC005 06/ RMK SF8

CYYG;2012-05-07 16:00;CYYG 071600Z 36010KT 4SM BR OVC005 07/07 A3012 RMK SF8 SLP203

CYYG;2012-05-07 16:22;CYYG 071622Z 01008G15KT 8SM OVC006 08/ RMK SF8

CYYG;2012-05-07 16:45;CYYG 071645Z 02011G17KT 15SM BKN008 BKN045 08/ RMK SF7SC1 VIS E 5

CYYG;2012-05-07 17:00;CYYG 071700Z 36011G16KT 15SM BKN008 BKN045 08/08 A3012 RMK SF7SC1 SLP200

CYYG;2012-05-07 17:19;CYYG 071719Z 01011KT 15SM BKN010 BKN045 08/ RMK SC7SC1 CU DVLPG

CYYG;2012-05-07 18:00;CYYG 071800Z 02011KT 15SM BKN013 BKN035 09/06 A3011 RMK CU6SC2 SLP198

CYYG;2012-05-07 18:19;CYYG 071819Z 02010KT 15SM FEW013 BKN017 BKN030 09/ RMK CU2SC5SC1

CYYG;2012-05-07 19:00;CYYG 071900Z 36009KT 15SM SCT013 BKN020 09/06 A3011 RMK CU3SC3 SLP199

CYYG;2012-05-07 20:00;CYYG 072000Z 01007KT 15SM BKN022 09/02 A3012 RMK SC6 SLP202

CYYG;2012-05-07 21:00;CYYG 072100Z 02007KT 15SM FEW022 FEW300 08/01 A3012 RMK SC1CI0 SLP201

CYYG;2012-05-07 22:00;CYYG 072200Z 03007KT 15SM FEW022 FEW300 08/M00 A3013 RMK SC1CI1 SLP205

CYYG;2012-05-07 23:00;CYYG 072300Z 02005KT 15SM FEW022 06/01 A3014 RMK SC1 SLP208

CYYG;2012-05-08 00:00;CYYG 080000Z 05004KT 15SM FEW020 04/M00 A3013 RMK SC1 SLP206

CYYG;2012-05-08 00:48;CYYG 080048Z 04003KT 15SM BKN003 03/ RMK SF6

CYYG;2012-05-08 01:00;CYYG 080100Z 01002KT 10SM BKN003 03/01 A3014 RMK SF7 SLP208

CYYG;2012-05-08 01:03;CYYG 080103Z 03002KT 2SM BR OVC003 03/ RMK ST8

CYYG;2012-05-08 01:11;CYYG 080111Z 06003KT 1/2SM R03/2800VP6000FT/D FG VV001 04/ RMK FG8

CYYG;2012-05-08 01:31;CYYG 080131Z 07004KT 1/4SM R03/1800FT/N FG VV001 04/ RMK FG8

CYYG;2012-05-08 02:00;CYYG 080200Z 05005KT 1/8SM R03/1100V1800FT/U FG VV001 04/04 A3014 RMK FG8 SLP208

CYYG;2012-05-08 03:00;CYYG 080300Z 08005KT 1/8SM R03/0800V1000FT/N FG VV001 04/04 A3013 RMK FG8 SLP206

CYYG;2012-05-08 04:00;CYYG 080400Z 13004KT 1/8SM R03/0800FT/N FG VV001 04/04 A3014 RMK FG8 SLP209

CYYG;2012-05-08 05:00;CYYG 080500Z 17004KT 1/8SM R03/1100FT/N FG VV001 04/04 A3014 RMK FG8 SLP210

CYYG;2012-05-08 06:00;CYYG 080600Z 22005KT 1/8SM R03/1400FT/N FG VV001 04/04 A3016 RMK FG8 SLP214

CYYG;2012-05-08 07:00;CYYG 080700Z 24004KT 1/8SM R03/1200FT/N FG VV001 04/04 A3015 RMK FG8 SLP212

CYYG;2012-05-08 08:00;CYYG 080800Z 27003KT 1/8SM R03/1100FT/N FG VV001 04/04 A3017 RMK FG8 SLP217

CYYG;2012-05-08 09:00;CYYG 080900Z 18003KT 0SM R03/0800FT/N FG VV001 03/03 A3016 RMK FG8 SLP215

CYYG;2012-05-08 10:00;CYYG 081000Z 19003KT 1/8SM R03/0800FT/N FG VV001 04/04 A3017 RMK FG8 SLP220

CYYG;2012-05-08 11:00;CYYG 081100Z 19005KT 1/8SM R03/1100V1600FT/N FG VV001 05/05 A3019 RMK FG8 SLP224

CYYG;2012-05-08 11:51;CYYG 081151Z 16005KT 1/4SM R03/3000FT/N FG VV002 05/ RMK FG8

CYYG;2012-05-08 12:00;CYYG 081200Z 18005KT 1/4SM R03/1800FT/N FG VV002 05/05 A3019 RMK FG8 SLP225

CYYG;2012-05-08 12:39;CYYG 081239Z 18005KT 5/8SM R03/3500VP6000FT/U BR OVC002 05/ RMK FG3ST5

CYYG;2012-05-08 12:48;CYYG 081248Z 18006KT 1SM R03/P6000FT/U BR OVC003 05/ RMK ST8

CYYG;2012-05-08 13:00;CYYG 081300Z 17005KT 2SM BR OVC002 06/06 A3020 RMK SF8 SUN OCNL VISBL SLP227

CYYG;2012-05-08 13:20;CYYG 081320Z 15005KT 3SM BR BKN004 06/ RMK SF7

CYYG;2012-05-08 13:52;CYYG 081352Z 18006KT 15SM SCT004 BKN300 07/ RMK SF4CI0 VIS LWR SE-W

CYYG;2012-05-08 14:00;CYYG 081400Z 19004KT 15SM FEW005 BKN300 07/07 A3019 RMK SF2CI0 SLP224

CYYG;2012-05-08 15:00;CYYG 081500Z 15007KT 15SM VCFG FEW010 BKN300 09/07 A3016 RMK CF1CI2 F BNK S-SW CONTRAILS SLP216

CYYG;2012-05-08 16:00;CYYG 081600Z 18009KT 15SM FEW020 BKN300 12/06 A3015 RMK CF1CI2 CONTRAILS SLP211

CYYG;2012-05-08 17:00;CYYG 081700Z 16007KT 15SM FEW030 BKN300 13/04 A3013 RMK CU1CI2 CONTRAILS SLP204

CYYG;2012-05-08 18:00;CYYG 081800Z 16008KT 15SM FEW030 FEW150 BKN300 15/M02 A3011 RMK CU1AC1CI2 CONTRAILS SLP196

CYYG;2012-05-08 19:00;CYYG 081900Z 16007KT 15SM FEW030 FEW150 BKN280 16/00 A3009 RMK CU1AC1CS5 HALO CONTRAILS SLP190

CYYG;2012-05-08 20:00;CYYG 082000Z 15010KT 15SM FEW035 FEW150 OVC270 16/04 A3007 RMK SC1AC1CS6 HALO SLP185

CYYG;2012-05-08 21:00;CYYG 082100Z 16009KT 15SM FEW040 FEW150 OVC250 16/05 A3006 RMK SC1AC2CS6 SLP180

CYYG;2012-05-08 22:00;CYYG 082200Z 16010KT 15SM FEW040 OVC170 15/05 A3005 RMK SC1AS8 SLP178

CYYG;2012-05-08 23:00;CYYG 082300Z 30013KT 15SM FEW040 OVC130 13/04 A3006 RMK SC2AS6 SLP182

CYYG;2012-05-09 00:00;CYYG 090000Z 19007KT 15SM FEW040 OVC130 11/05 A3007 RMK SC2AS6 SLP185

CYYG;2012-05-09 01:00;CYYG 090100Z 23013G20KT 15SM FEW040 OVC110 13/M03 A3009 RMK SC2AS6 SLP190

CYYG;2012-05-09 02:00;CYYG 090200Z 25013G18KT 15SM FEW040 OVC090 11/00 A3009 RMK SC2AS6 SLP190

CYYG;2012-05-09 03:00;CYYG 090300Z 23011KT 15SM FEW040 OVC078 11/03 A3008 RMK SC2AS6 SLP186

CYYG;2012-05-09 03:35;CYYG 090335Z 23008KT 15SM -SHRA SCT038 OVC066 09/ RMK SC4AS4

CYYG;2012-05-09 04:00;CYYG 090400Z 22007KT 15SM -SHRA SCT038 OVC065 08/05 A3008 RMK SC4SC4 SLP187

CYYG;2012-05-09 05:00;CYYG 090500Z 19012KT 10SM -SHRA OVC043 08/07 A3007 RMK SC8 SLP184

CYYG;2012-05-09 06:00;CYYG 090600Z 18012KT 10SM -SHRA OVC029 08/07 A3006 RMK SC8 SLP179

CYYG;2012-05-09 07:00;CYYG 090700Z 18012KT 10SM -SHRA SCT014 OVC021 07/07 A3005 RMK SC3SC5 SLP178

CYYG;2012-05-09 08:00;CYYG 090800Z 27007KT 10SM -SHRA FEW024 OVC029 07/07 A3004 RMK SC2SC6 SLP173

CYYG;2012-05-09 09:00;CYYG 090900Z 14007KT 10SM -SHRA FEW014 OVC038 07/07 A3001 RMK SC2SC6 SLP164

CYYG;2012-05-09 10:00;CYYG 091000Z 16010KT 8SM -SHRA OVC044 08/07 A3001 RMK SC8 SLP165

CYYG;2012-05-09 10:53;CYYG 091053Z 16010G16KT 3SM -SHRA BR FEW005 OVC032 08/ RMK SF2SC6

CYYG;2012-05-09 11:00;CYYG 091100Z 16013KT 3SM -SHRA BR FEW005 OVC028 08/07 A3000 RMK SF2SC6 CIG RGD SLP161

CYYG;2012-05-09 11:20;CYYG 091120Z 16013KT 2 1/2SM -SHRA BR BKN005 OVC022 08/ RMK SF6SC2

CYYG;2012-05-09 11:45;CYYG 091145Z 16014KT 2 1/2SM -SHRA BR OVC004 08/ RMK SF8

CYYG;2012-05-09 12:00;CYYG 091200Z 16013KT 2SM -RA BR OVC004 08/08 A2998 RMK SF8 SLP154

CYYG;2012-05-09 12:43;CYYG 091243Z 16014KT 6SM -RA BR BKN005 OVC020 08/ RMK SF6SC2

CYYG;2012-05-09 13:00;CYYG 091300Z 16015KT 6SM -RA BR BKN006 OVC013 08/08 A2996 RMK SF6SC2 SLP148

CYYG;2012-05-09 14:00;CYYG 091400Z 17016KT 4SM -RA BR BKN006 OVC015 09/09 A2995 RMK SF5SC3 SLP143

CYYG;2012-05-09 15:00;CYYG 091500Z 16012G17KT 2SM -RA BR BKN005 OVC015 09/09 A2994 RMK SF6SC2 SLP140

CYYG;2012-05-09 16:00;CYYG 091600Z 17014KT 1 1/2SM -RA BR BKN004 OVC012 09/09 A2991 RMK SF6SC2 SLP130

CYYG;2012-05-09 17:00;CYYG 091700Z 17014KT 1 1/2SM -RA BR BKN004 OVC012 10/10 A2988 RMK SF5SC3 SLP120

CYYG;2012-05-09 17:42;CYYG 091742Z 18016KT 6SM -RA BR SCT004 OVC014 11/ RMK SF3SC5

CYYG;2012-05-09 18:00;CYYG 091800Z 18015KT 10SM -RA SCT004 OVC015 11/10 A2987 RMK SF3SC5 SLP116

CYYG;2012-05-09 18:45;CYYG 091845Z 18017KT 2SM -RA BR SCT004 OVC014 11/ RMK SF4SC4

CYYG;2012-05-09 19:00;CYYG 091900Z 18017KT 2 1/2SM -RA BR SCT004 OVC014 11/11 A2985 RMK SF3SC5 SLP111

CYYG;2012-05-09 20:00;CYYG 092000Z 18019KT 2SM -RA BR SCT004 BKN015 OVC036 11/11 A2985 RMK FG2SF2SC3SC2 SLP108

CYYG;2012-05-09 21:00;CYYG 092100Z 17016KT 2 1/2SM -RA BR OVC015 11/10 A2983 RMK FG2SC6 SLP102

CYYG;2012-05-09 22:00;CYYG 092200Z 17015KT 2 1/2SM -RA BR BKN015 OVC048 11/10 A2981 RMK FG2SC4SC2 SLP095

CYYG;2012-05-09 22:17;CYYG 092217Z 17017KT 10SM -RA BKN016 OVC048 11/ RMK SC6SC2

CYYG;2012-05-09 23:00;CYYG 092300Z 18016G21KT 6SM -RA OVC014 11/11 A2979 RMK SC8 SLP089

CYYG;2012-05-10 00:00;CYYG 100000Z 18016KT 6SM -RA OVC014 11/11 A2979 RMK SC8 SLP089

CYYG;2012-05-10 00:39;CYYG 100039Z 18018KT 10SM -RA BKN018 OVC043 11/ RMK SC7SC1

CYYG;2012-05-10 01:00;CYYG 100100Z 18016G22KT 8SM RA BKN016 OVC025 11/11 A2979 RMK SC7SC1 SLP089

CYYG;2012-05-10 01:35;CYYG 100135Z 18015KT 10SM -RA BKN020 OVC044 11/ RMK SC5SC3 RERA

CYYG;2012-05-10 02:00;CYYG 100200Z 18019KT 12SM -RA BKN024 OVC040 12/11 A2977 RMK SC5SC3 RERA SLP081

CYYG;2012-05-10 03:00;CYYG 100300Z 18016G21KT 15SM RA BKN028 OVC042 12/11 A2976 RMK SC5SC3 SLP077

CYYG;2012-05-10 04:00;CYYG 100400Z 18016G21KT 15SM -RA OVC029 12/11 A2975 RMK SC8 SLP074

CYYG;2012-05-10 05:00;CYYG 100500Z 19013KT 10SM -RA OVC024 11/11 A2974 RMK SC8 SLP073

CYYG;2012-05-10 06:00;CYYG 100600Z 18013KT 15SM -RA OVC030 11/11 A2974 RMK SC8 SLP070

CYYG;2012-05-10 07:00;CYYG 100700Z 18012KT 10SM -RA OVC040 12/12 A2973 RMK SC8 SLP067

CYYG;2012-05-10 08:00;CYYG 100800Z 18013KT 10SM -RA OVC040 12/12 A2972 RMK SC8 SLP064

CYYG;2012-05-10 09:00;CYYG 100900Z 18012KT 10SM -RA OVC043 12/12 A2971 RMK SC8 SLP063

CYYG;2012-05-10 10:00;CYYG 101000Z 17013KT 10SM -RA OVC050 12/11 A2971 RMK SC8 SLP060

CYYG;2012-05-10 11:00;CYYG 101100Z 17016KT 15SM FEW013 OVC065 13/12 A2970 RMK SC2SC6 SLP059

CYYG;2012-05-10 11:41;CYYG 101141Z 17014KT 15SM -RA OVC012 13/ RMK SC8

CYYG;2012-05-10 12:00;CYYG 101200Z 17015KT 15SM -SHRA OVC012 13/13 A2970 RMK SC8 SLP059

CYYG;2012-05-10 12:39;CYYG 101239Z 18012G17KT 15SM OVC014 13/ RMK SC8

CYYG;2012-05-10 13:00;CYYG 101300Z 17013KT 15SM OVC017 14/13 A2970 RMK SC8 SLP057

CYYG;2012-05-10 14:00;CYYG 101400Z 17020G26KT 15SM FEW018 SCT060 BKN250 15/13 A2968 RMK SC2SC2CI3 SLP050

CYYG;2012-05-10 15:00;CYYG 101500Z 18018G24KT 15SM FEW018 BKN069 BKN230 16/12 A2967 RMK SC1AC4CI2 SLP049

CYYG;2012-05-10 16:00;CYYG 101600Z 17015G20KT 15SM BKN064 BKN088 BKN230 17/12 A2965 RMK SC5AC2CI1 SLP040

CYYG;2012-05-10 17:00;CYYG 101700Z 18019G26KT 15SM BKN045 BKN088 17/12 A2962 RMK SC5AC2 SLP031

CYYG;2012-05-10 18:00;CYYG 101800Z 17017G25KT 15SM BKN038 OVC060 17/12 A2960 RMK SC6SC2 SLP023

CYYG;2012-05-10 19:00;CYYG 101900Z 17020G28KT 15SM BKN026 OVC052 16/12 A2955 RMK SC6SC2 SLP009

CYYG;2012-05-10 20:00;CYYG 102000Z 16018G27KT 15SM OVC023 16/13 A2952 RMK SC8 SLP999

CYYG;2012-05-10 20:34;CYYG 102034Z 16020G27KT 12SM -SHRA OVC018 15/ RMK SC8

CYYG;2012-05-10 21:00;CYYG 102100Z 16022G29KT 10SM -SHRA FEW007 OVC018 14/14 A2947 RMK SF2SC6 SLP981

CYYG;2012-05-10 21:38;CYYG 102138Z 16025G33KT 6SM -SHRA BR BKN006 OVC018 15/ RMK SF5SC3

CYYG;2012-05-10 22:00;CYYG 102200Z 16024G30KT 5SM -SHRA BR BKN006 OVC014 15/14 A2944 RMK SF6SC2 SLP970

CYYG;2012-05-10 23:00;CYYG 102300Z 16024G31KT 10SM -SHRA BKN005 OVC012 15/15 A2943 RMK SF6SC2 SLP965

CYYG;2012-05-11 00:00;CYYG 110000Z 17023G30KT 8SM -SHRA FEW005 OVC022 15/15 A2942 RMK SF2SC6 SLP963

CYYG;2012-05-11 00:41;CYYG 110041Z 17018G24KT 6SM -SHRA BR BKN005 OVC012 15/ RMK SF6SC2

CYYG;2012-05-11 01:00;CYYG 110100Z 17019G24KT 6SM -SHRA BR BKN005 OVC016 15/15 A2942 RMK SF5SC3 SLP962

CYYG;2012-05-11 01:21;CYYG 110121Z 18019G26KT 15SM FEW005 OVC017 15/ RMK SF2SC6

CYYG;2012-05-11 02:00;CYYG 110200Z 19019G28KT 15SM OVC020 15/14 A2943 RMK SC8 SLP966

CYYG;2012-05-11 02:34;CYYG 110234Z 21019KT 15SM SCT020 OVC220 15/ RMK SC3CS3

CYYG;2012-05-11 03:00;CYYG 110300Z 20017G22KT 15SM BKN017 OVC025 14/13 A2947 RMK SC6SC2 SLP979

CYYG;2012-05-11 04:00;CYYG 110400Z 23014G19KT 15SM BKN021 13/11 A2952 RMK SC7 SLP995

CYYG;2012-05-11 05:00;CYYG 110500Z 21011KT 15SM SCT019 BKN250 12/11 A2953 RMK SC3CI0 SLP001

CYYG;2012-05-11 06:00;CYYG 110600Z 20013G18KT 15SM BKN019 13/11 A2956 RMK SC7 SLP009

CYYG;2012-05-11 07:00;CYYG 110700Z 21010G16KT 15SM BKN018 12/11 A2958 RMK SC7 SLP018

CYYG;2012-05-11 08:00;CYYG 110800Z 21009KT 15SM FEW016 BKN250 11/10 A2961 RMK SC2CI1 SLP028

CYYG;2012-05-11 09:00;CYYG 110900Z 20008KT 15SM FEW014 BKN250 10/09 A2965 RMK SC2CI3 SLP040

CYYG;2012-05-11 10:00;CYYG 111000Z 21008KT 15SM BKN015 BKN250 11/10 A2966 RMK SC6CI1 SLP044

CYYG;2012-05-11 11:00;CYYG 111100Z 20010KT 15SM FEW014 BKN260 11/10 A2968 RMK SC2CI2 SLP051

CYYG;2012-05-11 12:00;CYYG 111200Z 18014KT 15SM FEW014 FEW080 SCT260 13/11 A2970 RMK CU1AC1CI1 SLP057

CYYG;2012-05-11 13:00;CYYG 111300Z 20013G19KT 15SM FEW015 FEW051 SCT260 14/11 A2971 RMK SC1SC1CI1 SLP061

CYYG;2012-05-11 14:00;CYYG 111400Z 19012KT 15SM FEW020 FEW260 16/12 A2971 RMK SC1CI1 SLP063

CYYG;2012-05-11 15:00;CYYG 111500Z 22015G20KT 15SM SCT020 BKN260 16/11 A2974 RMK SC3CI0 SLP072

CYYG;2012-05-11 16:00;CYYG 111600Z 21015G20KT 15SM FEW026 SCT260 16/10 A2975 RMK CU2CI1 SLP074

CYYG;2012-05-11 17:00;CYYG 111700Z 21011G17KT 15SM FEW033 BKN260 17/11 A2975 RMK CU2CI2 SLP076

CYYG;2012-05-11 18:00;CYYG 111800Z 23009G16KT 15SM FEW040 BKN260 17/09 A2975 RMK CU2CI2 SLP076

CYYG;2012-05-11 19:00;CYYG 111900Z 22008KT 15SM FEW040 BKN260 17/09 A2975 RMK CU2CS2 SLP076

CYYG;2012-05-11 20:00;CYYG 112000Z 22005KT 15SM SCT050 BKN260 17/09 A2977 RMK SC3CS1 SLP081

CYYG;2012-05-11 21:00;CYYG 112100Z 23007KT 15SM SCT050 BKN260 16/08 A2979 RMK SC3CS2 SLP087

CYYG;2012-05-11 22:00;CYYG 112200Z 22005KT 15SM FEW036 FEW048 BKN260 16/08 A2980 RMK SC1SC2CS2 SLP092

CYYG;2012-05-11 23:00;CYYG 112300Z 23006KT 15SM BKN038 15/07 A2983 RMK SC6 CU ASOCTD SLP101

CYYG;2012-05-12 00:00;CYYG 120000Z 23006KT 15SM BKN038 BKN070 14/06 A2985 RMK SC6AC1 CU ASOCTD SLP109

CYYG;2012-05-12 01:00;CYYG 120100Z 18007KT 15SM BKN035 BKN055 12/07 A2987 RMK SC6SC2 SLP116

CYYG;2012-05-12 02:00;CYYG 120200Z 18013KT 15SM SCT035 SCT070 BKN200 11/07 A2987 RMK SC3AC1CI0 SLP115

CYYG;2012-05-12 03:00;CYYG 120300Z 21010KT 15SM FEW062 BKN082 11/08 A2987 RMK SC2AC4 SLP116

CYYG;2012-05-12 04:00;CYYG 120400Z 19010KT 15SM BKN045 BKN080 10/07 A2987 RMK SC5AC1 SLP114

CYYG;2012-05-12 05:00;CYYG 120500Z 21007KT 15SM FEW045 SCT085 09/07 A2986 RMK SC2AC1 SLP111

CYYG;2012-05-12 06:00;CYYG 120600Z 22010KT 15SM FEW050 09/06 A2987 RMK SC2 SLP114

CYYG;2012-05-12 07:00;CYYG 120700Z 22008KT 15SM BKN021 OVC075 09/06 A2989 RMK SC7AC1 SLP121

CYYG;2012-05-12 08:00;CYYG 120800Z 22007KT 15SM SCT023 08/06 A2989 RMK SC3 SLP121

CYYG;2012-05-12 08:15;CYYG 120815Z 22008KT 15SM FEW008 SCT023 08/ RMK SF1SC3

CYYG;2012-05-12 09:00;CYYG 120900Z 24006KT 15SM FEW008 FEW023 FEW070 08/06 A2990 RMK SF1SC1ACC1 ACC SW-N SLP125

CYYG;2012-05-12 10:00;CYYG 121000Z 23006KT 15SM FEW008 FEW025 FEW070 SCT250 08/07 A2993 RMK SF1SC2AC1CI0 SLP134

CYYG;2012-05-12 11:00;CYYG 121100Z 24007KT 15SM FEW010 FEW100 SCT250 09/07 A2995 RMK SF2AC1CI1 SLP141

CYYG;2012-05-12 12:00;CYYG 121200Z 25012KT 15SM FEW010 FEW100 FEW250 10/03 A2996 RMK CU1AC1CI1 SLP148

CYYG;2012-05-12 13:00;CYYG 121300Z 23012KT 15SM FEW015 BKN076 10/03 A2997 RMK CU1AC5 SH DIST SW-N SLP149

CYYG;2012-05-12 14:00;CYYG 121400Z 25013G19KT 15SM FEW020 FEW090 BKN260 11/04 A2998 RMK CU1AC1CI2 SLP152

CYYG;2012-05-12 15:00;CYYG 121500Z 22013G18KT 15SM FEW020 FEW080 BKN130 12/05 A2998 RMK CU1AC2AC4 SLP154

CYYG;2012-05-12 16:00;CYYG 121600Z 24010KT 15SM FEW025 FEW055 BKN090 12/04 A2999 RMK CU1SC1AS6 SLP156

CYYG;2012-05-12 17:00;CYYG 121700Z 24011G16KT 15SM FEW055 BKN093 13/04 A2999 RMK CU1AC6 SLP157

CYYG;2012-05-12 18:00;CYYG 121800Z 28005KT 15SM VCSH FEW055TCU BKN089 12/05 A2998 RMK TCU2AC6 SH ALQDS SLP155

CYYG;2012-05-12 18:46;CYYG 121846Z 00000KT 15SM -SHRA BKN049TCU OVC089 12/ RMK TCU6AC2 VIS LWR SE-S

CYYG;2012-05-12 19:00;CYYG 121900Z 22004KT 10SM -SHRA OVC039 12/06 A3001 RMK SC8 TCU ASOCTD VIS S 5 SLP164

CYYG;2012-05-12 19:50;CYYG 121950Z 24006KT 15SM SCT039 OVC065 11/ RMK SC3SC5 SH DIST NE-SE

CYYG;2012-05-12 20:00;CYYG 122000Z 24005KT 15SM FEW039 BKN065 BKN075 11/06 A3001 RMK SC2SC2AC2 SH DIST NE-SE SLP162

CYYG;2012-05-12 21:00;CYYG 122100Z 05006KT 15SM FEW040 BKN076 09/06 A3003 RMK SC2AC6 SLP170

CYYG;2012-05-12 22:00;CYYG 122200Z 03003KT 15SM FEW020 FEW042 BKN088 09/06 A3004 RMK CU1SC2AC5 SLP175

CYYG;2012-05-12 23:00;CYYG 122300Z 33003KT 15SM FEW015 FEW042 BKN080 09/07 A3007 RMK CU1SC2AC4 MDT CU VIRGA SLP183

CYYG;2012-05-13 00:00;CYYG 130000Z 00000KT 15SM FEW015TCU FEW040 BKN090 08/06 A3008 RMK TCU1SC1AC5 TCU E SLP188

CYYG;2012-05-13 01:00;CYYG 130100Z 18002KT 15SM FEW070 BKN120 08/06 A3011 RMK AC1AC4 SLP196

CYYG;2012-05-13 02:00;CYYG 130200Z 22004KT 15SM FEW120 08/06 A3011 RMK AC2 SLP197

CYYG;2012-05-13 03:00;CYYG 130300Z 23004KT 15SM FEW120 07/05 A3010 RMK AC1 SLP195

CYYG;2012-05-13 04:00;CYYG 130400Z 24004KT 15SM FEW120 07/05 A3011 RMK AC2 SLP198

CYYG;2012-05-13 05:00;CYYG 130500Z 23003KT 15SM FEW120 06/05 A3010 RMK AC2 SLP194

CYYG;2012-05-13 06:00;CYYG 130600Z 24005KT 15SM FEW045 FEW120 06/05 A3010 RMK SC2AC1 SLP194

CYYG;2012-05-13 07:00;CYYG 130700Z 24005KT 15SM BKN041 06/05 A3011 RMK SC5 SLP197

CYYG;2012-05-13 08:00;CYYG 130800Z 27005KT 15SM FEW040 06/04 A3012 RMK SC2 SLP202

CYYG;2012-05-13 09:00;CYYG 130900Z 27003KT 15SM FEW040 FEW080 05/04 A3014 RMK SC1AC1 SLP210

CYYG;2012-05-13 10:00;CYYG 131000Z 27002KT 15SM FEW010 FEW040 FEW080 07/06 A3017 RMK CF1SC1AC1 SLP217

CYYG;2012-05-13 11:00;CYYG 131100Z 33006KT 15SM FEW010 FEW080 08/07 A3019 RMK CF1AC1 SLP226

CYYG;2012-05-13 12:00;CYYG 131200Z 33007KT 15SM FEW013 09/06 A3021 RMK CU2 SLP231

CYYG;2012-05-13 13:00;CYYG 131300Z 33007KT 15SM FEW018 FEW080 11/07 A3021 RMK CU2AC1 SLP232

CYYG;2012-05-13 14:00;CYYG 131400Z 32005KT 15SM FEW021 FEW080 12/07 A3021 RMK CU2AC1 SLP231

CYYG;2012-05-13 15:00;CYYG 131500Z 36004KT 15SM FEW024 FEW100 13/08 A3021 RMK CU1AC1 SLP232

CYYG;2012-05-13 16:00;CYYG 131600Z 01006KT 15SM FEW024 FEW100 FEW260 13/07 A3021 RMK CU1AC1CI0 SLP231

CYYG;2012-05-13 17:00;CYYG 131700Z 33003KT 15SM FEW030 BKN093 14/08 A3021 RMK CU1AC4 SLP231

CYYG;2012-05-13 18:00;CYYG 131800Z 01007KT 15SM FEW030 FEW088 SCT300 14/08 A3020 RMK CU1AC2CI0 CONTRAILS SLP229

CYYG;2012-05-13 19:00;CYYG 131900Z 04003KT 15SM FEW030 FEW088 SCT150 15/08 A3020 RMK CU1AC2AC2 SLP229

CYYG;2012-05-13 20:00;CYYG 132000Z 07007KT 15SM FEW030 SCT069 BKN074 14/08 A3021 RMK CU1AC3AC3 SLP230

CYYG;2012-05-13 20:06;CYYG 132006Z 04007KT 15SM -SHRA FEW030 BKN068 13/ RMK CU1AC6

CYYG;2012-05-13 21:00;CYYG 132100Z 04005KT 15SM -SHRA BKN066 11/07 A3021 RMK AC7 SLP232

CYYG;2012-05-13 22:00;CYYG 132200Z 00000KT 15SM BKN063 OVC078 11/07 A3022 RMK SC5AC3 SLP234

CYYG;2012-05-13 23:00;CYYG 132300Z 09002KT 15SM BKN065 OVC080 11/08 A3022 RMK SC6AC2 SLP234

CYYG;2012-05-13 23:34;CYYG 132334Z 06002KT 15SM -SHRA BKN065 OVC080 11/ RMK SC6AC2

CYYG;2012-05-14 00:00;CYYG 140000Z 00000KT 15SM -SHRA SCT065 OVC085 11/09 A3024 RMK SC4AC4 SLP240

CYYG;2012-05-14 00:52;CYYG 140052Z 12003KT 15SM FEW060 OVC090 11/ RMK SC2AC6

CYYG;2012-05-14 01:00;CYYG 140100Z 13003KT 15SM FEW060 OVC092 11/09 A3025 RMK SC2AC6 SLP243

CYYG;2012-05-14 02:00;CYYG 140200Z 10002KT 15SM FEW060 OVC090 10/09 A3025 RMK SC2AC6 SLP245

CYYG;2012-05-14 03:00;CYYG 140300Z 14005KT 15SM OVC083 10/08 A3024 RMK AC8 SLP242

CYYG;2012-05-14 04:00;CYYG 140400Z 13004KT 15SM OVC075 09/08 A3024 RMK AC8 SLP241

CYYG;2012-05-14 05:00;CYYG 140500Z 10003KT 15SM OVC082 09/07 A3023 RMK AC8 SLP239

CYYG;2012-05-14 06:00;CYYG 140600Z 08003KT 15SM SCT065 OVC086 09/07 A3023 RMK SC3AC5 SLP236

CYYG;2012-05-14 07:00;CYYG 140700Z 09005KT 15SM FEW065 OVC110 09/07 A3022 RMK SC2AC6 SLP234

CYYG;2012-05-14 08:00;CYYG 140800Z 12004KT 15SM FEW065 BKN110 09/07 A3023 RMK SC2AC4 SLP236

CYYG;2012-05-14 09:00;CYYG 140900Z 14006KT 15SM FEW065 FEW090 BKN190 09/07 A3023 RMK SC1AC2AC2 SLP237

CYYG;2012-05-14 10:00;CYYG 141000Z 15005KT 15SM FEW090 BKN180 09/08 A3023 RMK AC2AC2 SLP237

CYYG;2012-05-14 11:00;CYYG 141100Z 16010KT 15SM FEW090 BKN180 11/05 A3023 RMK AC2AC3 SLP239

CYYG;2012-05-14 12:00;CYYG 141200Z 16010KT 15SM FEW090 BKN160 12/05 A3024 RMK AC2AC3 SLP241

CYYG;2012-05-14 13:00;CYYG 141300Z 17010KT 15SM SCT094 BKN160 13/06 A3024 RMK AC3AC3 SLP241

CYYG;2012-05-14 13:46;CYYG 141346Z 17009KT 15SM BKN015 BKN095 13/ RMK SC5AC2

CYYG;2012-05-14 14:00;CYYG 141400Z 16007KT 15SM BKN016 OVC095 13/08 A3024 RMK SC6AC2 SLP240

CYYG;2012-05-14 14:28;CYYG 141428Z 17011KT 15SM -SHRA BKN015 OVC080 12/ RMK SC7AC1

CYYG;2012-05-14 15:00;CYYG 141500Z 17010KT 15SM -SHRA SCT015 OVC110 12/09 A3024 RMK SC4AC4 SLP240

CYYG;2012-05-14 15:27;CYYG 141527Z 17011KT 15SM SCT015 OVC081 12/ RMK SC3AC5

CYYG;2012-05-14 16:00;CYYG 141600Z 16009KT 15SM SCT015 OVC081 12/09 A3023 RMK SC3AC5 SLP236

CYYG;2012-05-14 17:00;CYYG 141700Z 18006KT 15SM FEW015 OVC085 14/10 A3023 RMK SC2AC6 SLP236

CYYG;2012-05-14 18:00;CYYG 141800Z 15005KT 15SM BKN088 BKN250 16/11 A3020 RMK AC5CI2 SLP227

CYYG;2012-05-14 19:00;CYYG 141900Z 18006KT 15SM BKN090 BKN250 16/10 A3018 RMK AC5CI2 SLP222

CYYG;2012-05-14 20:00;CYYG 142000Z 20006KT 15SM SCT090 BKN250 17/11 A3017 RMK AC4CI2 SLP216

CYYG;2012-05-14 21:00;CYYG 142100Z 00000KT 15SM SCT094 BKN250 18/11 A3015 RMK AC4CI2 SLP212

CYYG;2012-05-14 22:00;CYYG 142200Z 15002KT 15SM SCT095 BKN250 19/11 A3015 RMK AC3CI3 SLP210

CYYG;2012-05-14 23:00;CYYG 142300Z 27002KT 15SM SCT090 BKN250 18/12 A3015 RMK AC3CI2 SLP212

CYYG;2012-05-15 00:00;CYYG 150000Z 08003KT 15SM SCT095 BKN230 14/11 A3017 RMK AC3CI2 SLP217

CYYG;2012-05-15 01:00;CYYG 150100Z 14004KT 15SM SCT110 BKN230 15/11 A3017 RMK AC4CI2 SLP219

CYYG;2012-05-15 02:00;CYYG 150200Z 17003KT 15SM BKN090 BKN230 14/12 A3018 RMK AC6CI2 SLP221

CYYG;2012-05-15 03:00;CYYG 150300Z 19005KT 15SM BKN089 14/11 A3018 RMK AC7 SLP222

CYYG;2012-05-15 03:51;CYYG 150351Z 20006KT 15SM -SHRA OVC077 13/ RMK AC8

CYYG;2012-05-15 04:00;CYYG 150400Z 20005KT 15SM -SHRA OVC077 13/12 A3020 RMK AC8 SLP226

CYYG;2012-05-15 05:00;CYYG 150500Z 21006KT 15SM -SHRA OVC085 13/12 A3019 RMK AC8 SLP224

CYYG;2012-05-15 06:00;CYYG 150600Z 20007KT 15SM -SHRA OVC090 13/12 A3019 RMK AC8 SLP224

CYYG;2012-05-15 07:00;CYYG 150700Z 20006KT 15SM -SHRA OVC090 13/12 A3020 RMK AC8 SLP227

CYYG;2012-05-15 08:00;CYYG 150800Z 20006KT 15SM -SHRA OVC092 13/12 A3020 RMK AC8 SLP226

CYYG;2012-05-15 09:00;CYYG 150900Z 18006KT 4SM -SHRA BR OVC089 12/12 A3021 RMK AC8 SLP230

CYYG;2012-05-15 10:00;CYYG 151000Z 18007KT 10SM -SHRA OVC090 12/12 A3022 RMK AC8 SLP233

CYYG;2012-05-15 10:39;CYYG 151039Z 18007KT 12SM OVC098 12/ RMK AC8

CYYG;2012-05-15 11:00;CYYG 151100Z 19007KT 12SM OVC084 12/12 A3022 RMK AC8 SLP235

CYYG;2012-05-15 12:00;CYYG 151200Z 21008KT 15SM BKN090 13/13 A3023 RMK AC7 SLP238

CYYG;2012-05-15 13:00;CYYG 151300Z 20008KT 12SM SCT027 OVC092 14/13 A3024 RMK SC3AC5 SLP242

CYYG;2012-05-15 14:00;CYYG 151400Z 21007KT 15SM BKN018 OVC030 15/14 A3025 RMK SC6SC2 SLP244

CYYG;2012-05-15 15:00;CYYG 151500Z 21009KT 15SM SCT018 OVC100 16/14 A3025 RMK SC3AC5 SLP245

CYYG;2012-05-15 16:00;CYYG 151600Z 21011KT 15SM FEW018 OVC100 18/14 A3025 RMK SC2AC6 SLP244

CYYG;2012-05-15 17:00;CYYG 151700Z 25010KT 15SM FEW020 OVC080 19/15 A3024 RMK SC2AC6 OBS TAKEN +07 SLP242

CYYG;2012-05-15 18:00;CYYG 151800Z 26008KT 15SM FEW020 OVC070 20/14 A3023 RMK SC2AC6 SLP239

CYYG;2012-05-15 19:00;CYYG 151900Z 27007KT 15SM FEW020 SCT070 BKN280 21/15 A3022 RMK SC1AC3CI3 SLP233

CYYG;2012-05-15 20:00;CYYG 152000Z 21005KT 15SM FEW020 BKN160 BKN280 21/15 A3020 RMK SC1AC5CI2 SLP229

CYYG;2012-05-15 21:00;CYYG 152100Z 20006KT 15SM FEW030 BKN150 20/15 A3020 RMK SC2AC6 SLP228

CYYG;2012-05-15 22:00;CYYG 152200Z 25006KT 15SM FEW030 BKN045 OVC150 19/13 A3023 RMK SC2SC3AC3 SLP238

CYYG;2012-05-15 23:00;CYYG 152300Z 20006KT 15SM SCT045 OVC150 17/13 A3023 RMK SC3AC5 SLP239

CYYG;2012-05-16 00:00;CYYG 160000Z 20007KT 15SM FEW045 SCT072 BKN150 17/12 A3023 RMK SC2AC2AC3 SLP239

CYYG;2012-05-16 01:00;CYYG 160100Z 19010G15KT 15SM SCT075 BKN160 17/11 A3023 RMK AC3AC4 SLP239

CYYG;2012-05-16 02:00;CYYG 160200Z 18010KT 15SM FEW075 BKN160 15/11 A3023 RMK AC2AC5 SLP237

CYYG;2012-05-16 03:00;CYYG 160300Z 18011KT 15SM FEW075 BKN170 15/12 A3021 RMK AC2AC6 SLP232

CYYG;2012-05-16 04:00;CYYG 160400Z 18013KT 15SM SCT080 BKN160 15/12 A3020 RMK AC3AC4 SLP229

CYYG;2012-05-16 05:00;CYYG 160500Z 18010KT 15SM BKN071 BKN160 15/12 A3020 RMK AC5AC2 SLP227

CYYG;2012-05-16 06:00;CYYG 160600Z 19011KT 15SM SCT048 BKN075 OVC160 15/12 A3019 RMK SC3AC3AC2 SLP223

CYYG;2012-05-16 07:00;CYYG 160700Z 14012KT 15SM SCT040 BKN060 OVC160 15/12 A3018 RMK SC3AC3AC2 SLP220

CYYG;2012-05-16 08:00;CYYG 160800Z 18012KT 15SM BKN038 OVC055 14/12 A3017 RMK SC6SC2 SLP218

CYYG;2012-05-16 09:00;CYYG 160900Z 18009KT 15SM BKN028 OVC055 14/12 A3017 RMK SC6SC2 SLP216

CYYG;2012-05-16 09:09;CYYG 160909Z 18011KT 15SM -SHRA BKN028 OVC055 14/ RMK SC6SC2

CYYG;2012-05-16 10:00;CYYG 161000Z 17012KT 15SM -SHRA BKN030 BKN050 OVC080 14/12 A3017 RMK SC5SC2AC2 SLP215

CYYG;2012-05-16 11:00;CYYG 161100Z 17010KT 15SM -SHRA BKN030 OVC062 14/13 A3017 RMK SC5SC3 SLP217

CYYG;2012-05-16 12:00;CYYG 161200Z 17008KT 15SM -SHRA FEW030 BKN062 OVC100 15/13 A3017 RMK SC2SC2AC3 SLP216

CYYG;2012-05-16 13:00;CYYG 161300Z 18012KT 15SM FEW030 OVC098 16/13 A3015 RMK SC2AC6 SLP212

CYYG;2012-05-16 14:00;CYYG 161400Z 18012G17KT 15SM FEW030 OVC095 16/14 A3013 RMK SC2AC6 SLP204

CYYG;2012-05-16 15:00;CYYG 161500Z 18015G20KT 15SM FEW030 OVC095 18/14 A3011 RMK SC2AC6 SLP196

CYYG;2012-05-16 16:00;CYYG 161600Z 19016KT 15SM FEW030 OVC100 19/14 A3009 RMK SC2AC6 SLP188

CYYG;2012-05-16 17:00;CYYG 161700Z 16015G20KT 15SM FEW030 OVC120 19/15 A3006 RMK SC2AC6 SLP178

CYYG;2012-05-16 18:00;CYYG 161800Z 17018KT 15SM FEW030 OVC140 19/14 A3003 RMK SC2AC6 SLP170

CYYG;2012-05-16 19:00;CYYG 161900Z 18014G21KT 15SM FEW030 OVC130 19/13 A3001 RMK SC2AC6 SLP161

CYYG;2012-05-16 19:11;CYYG 161911Z 18018KT 15SM SCT030 OVC120 18/ RMK SC4AC4

CYYG;2012-05-16 20:00;CYYG 162000Z 18017KT 15SM -SHRA FEW030 OVC100 19/14 A2999 RMK SC2AC6 SLP155

CYYG;2012-05-16 21:00;CYYG 162100Z 18016G22KT 15SM -SHRA SCT056 OVC100 18/15 A2998 RMK SC4AC4 SLP151

CYYG;2012-05-16 22:00;CYYG 162200Z 18014KT 15SM -SHRA SCT030 OVC079 17/15 A2997 RMK SC4AC4 SLP148

CYYG;2012-05-16 23:00;CYYG 162300Z 19014KT 15SM -SHRA BKN037 OVC060 16/15 A2996 RMK SC5SC3 SLP147

CYYG;2012-05-17 00:00;CYYG 170000Z 18015KT 12SM -SHRA BKN042 OVC072 16/15 A2996 RMK SC5AC3 SLP145

CYYG;2012-05-17 01:00;CYYG 170100Z 18014KT 12SM -SHRA BKN046 OVC094 15/14 A2994 RMK SC6AC2 SLP140

CYYG;2012-05-17 02:00;CYYG 170200Z 18014G21KT 10SM -SHRA OVC037 15/14 A2993 RMK SC8 SLP136

CYYG;2012-05-17 03:00;CYYG 170300Z 18014G20KT 6SM -SHRA BR SCT012 OVC031 14/14 A2993 RMK SC4SC4 SLP134

CYYG;2012-05-17 04:00;CYYG 170400Z 18013KT 8SM -SHRA FEW012 OVC043 15/14 A2990 RMK SC2SC6 SLP126

CYYG;2012-05-17 05:00;CYYG 170500Z 18014KT 10SM -SHRA SCT014 OVC023 15/14 A2988 RMK SC3SC5 SLP119

CYYG;2012-05-17 06:00;CYYG 170600Z 19012G17KT 15SM -SHRA FEW015 OVC025 14/14 A2988 RMK SC2SC6 SLP118

CYYG;2012-05-17 06:39;CYYG 170639Z 18009KT 15SM BKN014 OVC022 15/ RMK SC5SC3

CYYG;2012-05-17 07:00;CYYG 170700Z 20011G17KT 15SM OVC011 15/14 A2987 RMK SC8 SLP115

CYYG;2012-05-17 08:00;CYYG 170800Z 19010KT 15SM OVC013 15/14 A2986 RMK SC8 SLP113

CYYG;2012-05-17 09:00;CYYG 170900Z 19010KT 15SM BKN012 OVC200 14/14 A2986 RMK SC6CI2 SLP113

CYYG;2012-05-17 09:49;CYYG 170949Z 18010KT 15SM SCT012 SCT180 BKN210 14/ RMK SC3AC1CI3

CYYG;2012-05-17 10:00;CYYG 171000Z 18011KT 15SM FEW010 SCT022 BKN210 14/14 A2986 RMK SF2SC2CI4 SLP113

CYYG;2012-05-17 11:00;CYYG 171100Z 18011KT 15SM FEW004 BKN010 OVC025 14/14 A2988 RMK SF2SC5SC1 SLP118

CYYG;2012-05-17 11:32;CYYG 171132Z 18010KT 15SM FEW004 OVC009 14/ RMK SF1ST7

CYYG;2012-05-17 12:00;CYYG 171200Z 19010KT 15SM FEW004 OVC009 15/14 A2987 RMK SF1ST7 SLP114

CYYG;2012-05-17 12:31;CYYG 171231Z 17009KT 15SM BKN005 OVC009 15/ RMK SF6SC2

CYYG;2012-05-17 13:00;CYYG 171300Z 18009KT 15SM SCT005 OVC010 15/14 A2986 RMK SF3SC5 SLP113

CYYG;2012-05-17 14:00;CYYG 171400Z 19010KT 15SM FEW005 OVC009 15/14 A2984 RMK SF2SC6 SLP106

CYYG;2012-05-17 14:18;CYYG 171418Z 20013KT 15SM FEW007 OVC018 16/ RMK SF2SC6

CYYG;2012-05-17 15:00;CYYG 171500Z 19012KT 15SM FEW009 OVC015 16/15 A2984 RMK SC2SC6 SLP105

CYYG;2012-05-17 16:00;CYYG 171600Z 20011KT 15SM FEW006 BKN014 OVC025 17/15 A2984 RMK SF1SC6SC2 SLP104

CYYG;2012-05-17 17:00;CYYG 171700Z 21012KT 15SM BKN012 OVC018 18/15 A2983 RMK SC6SC2 SLP101

CYYG;2012-05-17 18:00;CYYG 171800Z 25016KT 15SM -SHRA BKN008 OVC018 15/14 A2983 RMK SF6SC2 SLP103

CYYG;2012-05-17 18:35;CYYG 171835Z 27012KT 6SM -DZ BR OVC007 15/ RMK SF8

CYYG;2012-05-17 19:00;CYYG 171900Z 25009KT 15SM SCT007 OVC021 16/15 A2983 RMK SF3SC5 SLP102

CYYG;2012-05-17 19:11;CYYG 171911Z 25012G19KT 15SM BKN010 OVC021 16/ RMK SC6SC2

CYYG;2012-05-17 20:00;CYYG 172000Z 24010G16KT 15SM SCT010 BKN045 BKN250 17/14 A2983 RMK SC3SC2CI2 SLP103

CYYG;2012-05-17 21:00;CYYG 172100Z 24008KT 15SM BKN018 BKN250 17/14 A2985 RMK CU6CI1 SLP108

CYYG;2012-05-17 21:50;CYYG 172150Z 25011KT 15SM SCT022 SCT250 17/ RMK CU3CI1

CYYG;2012-05-17 22:00;CYYG 172200Z 25008KT 15SM SCT022 SCT250 17/13 A2987 RMK CU3CI1 SLP114

CYYG;2012-05-17 23:00;CYYG 172300Z 27006KT 15SM FEW022 FEW050 SCT250 16/12 A2990 RMK CU2SC1CI1 SLP124

CYYG;2012-05-18 00:00;CYYG 180000Z 25005KT 15SM FEW020 FEW062 SCT250 14/09 A2993 RMK CU1SC2CI1 SLP136

CYYG;2012-05-18 01:00;CYYG 180100Z 36003KT 15SM FEW070 FEW250 10/06 A2998 RMK AC2CI0 SLP154

CYYG;2012-05-18 02:00;CYYG 180200Z 29002KT 15SM FEW070 08/06 A3001 RMK AC1 SLP163

CYYG;2012-05-18 03:00;CYYG 180300Z 28007KT 15SM SKC 09/05 A3002 RMK SLP168

CYYG;2012-05-18 04:00;CYYG 180400Z 29007KT 15SM SKC 09/01 A3003 RMK SLP171

CYYG;2012-05-18 05:00;CYYG 180500Z 26005KT 15SM SKC 08/M00 A3005 RMK SLP176

CYYG;2012-05-18 06:00;CYYG 180600Z 23004KT 15SM SKC 06/00 A3006 RMK SLP181

CYYG;2012-05-18 07:00;CYYG 180700Z 24005KT 15SM SKC 06/01 A3006 RMK SLP182

CYYG;2012-05-18 08:00;CYYG 180800Z 24006KT 15SM FEW260 06/02 A3007 RMK CI1 SLP184

CYYG;2012-05-18 09:00;CYYG 180900Z 25006KT 15SM FEW260 06/01 A3008 RMK CI0 SLP188

CYYG;2012-05-18 10:00;CYYG 181000Z 27007KT 15SM FEW260 07/02 A3010 RMK CI0 SLP193

CYYG;2012-05-18 11:00;CYYG 181100Z 27008KT 15SM FEW260 10/03 A3012 RMK CI0 SLP201

CYYG;2012-05-18 12:00;CYYG 181200Z 30013KT 15SM FEW260 11/02 A3012 RMK CI1 SLP202

CYYG;2012-05-18 13:00;CYYG 181300Z 29012G17KT 15SM FEW260 12/01 A3012 RMK CI1 SLP202

CYYG;2012-05-18 14:00;CYYG 181400Z 29014G20KT 15SM FEW260 13/02 A3011 RMK CI1 SLP198

CYYG;2012-05-18 15:00;CYYG 181500Z 28011G17KT 15SM FEW260 14/02 A3011 RMK CI1 SLP197

CYYG;2012-05-18 16:00;CYYG 181600Z 25009G15KT 15SM FEW260 15/04 A3010 RMK CI1 SLP193

CYYG;2012-05-18 17:00;CYYG 181700Z 24013KT 15SM FEW030 FEW260 16/03 A3009 RMK SC1CI1 SLP191

CYYG;2012-05-18 18:00;CYYG 181800Z 24014KT 15SM FEW030 FEW260 16/03 A3009 RMK SC1CI1 SLP190

CYYG;2012-05-18 19:00;CYYG 181900Z 24011G19KT 15SM FEW030 SCT260 17/03 A3009 RMK SC1CI1 SLP191

CYYG;2012-05-18 20:00;CYYG 182000Z 24013KT 15SM FEW030 SCT260 17/04 A3007 RMK SC1CI1 SLP184

CYYG;2012-05-18 21:00;CYYG 182100Z 24014KT 15SM FEW030 SCT260 17/04 A3006 RMK SC1CI1 SLP182

CYYG;2012-05-18 22:00;CYYG 182200Z 24015KT 15SM FEW030 SCT260 16/04 A3006 RMK SC1CI1 SLP181

CYYG;2012-05-18 23:00;CYYG 182300Z 25010G15KT 15SM FEW030 15/04 A3007 RMK SC1 SLP183

CYYG;2012-05-19 00:00;CYYG 190000Z 25007KT 15SM FEW030 14/04 A3009 RMK SC2 SLP190

CYYG;2012-05-19 01:00;CYYG 190100Z 24006KT 15SM FEW030 13/04 A3009 RMK SC2 SLP191

CYYG;2012-05-19 02:00;CYYG 190200Z 23009KT 15SM FEW030 12/04 A3009 RMK SC2 SLP190

CYYG;2012-05-19 03:00;CYYG 190300Z 24011G17KT 15SM FEW030 12/03 A3009 RMK SC2 SLP192

CYYG;2012-05-19 04:00;CYYG 190400Z 25010G15KT 15SM FEW030 12/03 A3010 RMK SC2 SLP193

CYYG;2012-05-19 05:00;CYYG 190500Z 25010G16KT 15SM FEW030 11/03 A3010 RMK SC2 SLP193

CYYG;2012-05-19 06:00;CYYG 190600Z 25012KT 15SM FEW030 11/04 A3010 RMK SC2 SLP194

CYYG;2012-05-19 07:00;CYYG 190700Z CCA 26009KT 15SM SCT140 11/04 A3009 RMK AC3 SLP192

CYYG;2012-05-19 08:00;CYYG 190800Z 25010KT 15SM SCT140 11/04 A3009 RMK AC3 SLP191

CYYG;2012-05-19 09:00;CYYG 190900Z 25010G15KT 15SM BKN150 10/05 A3009 RMK AC6 SLP191

CYYG;2012-05-19 10:00;CYYG 191000Z 26008KT 15SM BKN150 11/06 A3010 RMK AC5 SLP193

CYYG;2012-05-19 11:00;CYYG 191100Z 27009KT 15SM FEW110 SCT150 BKN260 13/07 A3010 RMK AC2AC2CI1 SLP195

CYYG;2012-05-19 12:00;CYYG 191200Z 26005KT 15SM BKN098 BKN260 14/08 A3010 RMK AC5CI2 SLP195

CYYG;2012-05-19 13:00;CYYG 191300Z 29006KT 15SM BKN100 BKN260 15/08 A3011 RMK AC6CI2 SLP197

CYYG;2012-05-19 14:00;CYYG 191400Z 27005KT 15SM SCT097 BKN260 17/08 A3010 RMK AC3CI2 SLP194

CYYG;2012-05-19 15:00;CYYG 191500Z 27006KT 15SM FEW040 SCT090 BKN260 20/07 A3008 RMK CF1AC2CI1 SLP187

CYYG;2012-05-19 16:00;CYYG 191600Z 31008KT 15SM FEW048 SCT090 BKN250 21/08 A3008 RMK CF1AC2CI1 SLP185

CYYG;2012-05-19 17:00;CYYG 191700Z 36008KT 15SM FEW050 FEW090 BKN260 20/09 A3007 RMK CU1AC2CI1 SLP182

CYYG;2012-05-19 18:00;CYYG 191800Z 36005KT 15SM FEW050 FEW090 BKN260 20/08 A3007 RMK CU1AC2CI1 SLP183

CYYG;2012-05-19 19:00;CYYG 191900Z 06005KT 15SM SCT070 BKN260 20/09 A3005 RMK AC3CI1 SLP176

CYYG;2012-05-19 20:00;CYYG 192000Z 03010KT 15SM FEW080 BKN260 19/07 A3005 RMK AC2CI1 SLP176

CYYG;2012-05-19 21:00;CYYG 192100Z 03005KT 15SM BKN087 BKN260 18/06 A3005 RMK AC5CI0 SLP177

CYYG;2012-05-19 22:00;CYYG 192200Z 03005KT 15SM BKN088 BKN260 18/07 A3005 RMK AC5CI0 SLP177

CYYG;2012-05-19 23:00;CYYG 192300Z 02005KT 15SM BKN080 BKN260 16/06 A3008 RMK AC5CI0 SLP185

CYYG;2012-05-20 00:00;CYYG 200000Z 04005KT 15SM BKN080 BKN260 13/04 A3010 RMK AC5CI2 SLP193

CYYG;2012-05-20 01:00;CYYG 200100Z 07002KT 15SM BKN080 13/04 A3012 RMK AC5 SLP200

CYYG;2012-05-20 02:00;CYYG 200200Z 04009KT 15SM BKN080 10/05 A3015 RMK AC5 SLP210

CYYG;2012-05-20 03:00;CYYG 200300Z 06006KT 15SM SCT080 09/03 A3016 RMK AC3 SLP214

CYYG;2012-05-20 04:00;CYYG 200400Z 16002KT 15SM FEW080 10/02 A3018 RMK AC2 SLP220

CYYG;2012-05-20 05:00;CYYG 200500Z 00000KT 15SM FEW080 07/01 A3019 RMK AC2 SLP225

CYYG;2012-05-20 06:00;CYYG 200600Z 21002KT 15SM FEW080 07/02 A3020 RMK AC2 SLP226

CYYG;2012-05-20 07:00;CYYG 200700Z 19002KT 15SM FEW080 05/01 A3020 RMK AC2 SLP226

CYYG;2012-05-20 08:00;CYYG 200800Z 00000KT 15SM FEW080 05/01 A3020 RMK AC1 SLP228

CYYG;2012-05-20 09:00;CYYG 200900Z 25005KT 15SM SKC 09/00 A3022 RMK SLP233

CYYG;2012-05-20 10:00;CYYG 201000Z 25005KT 15SM FEW280 10/02 A3023 RMK CI1 SLP237

CYYG;2012-05-20 11:00;CYYG 201100Z 25004KT 15SM BKN280 13/01 A3025 RMK CI1 SLP245

CYYG;2012-05-20 12:00;CYYG 201200Z 20004KT 15SM BKN280 15/M01 A3026 RMK CI3 SLP249

CYYG;2012-05-20 13:00;CYYG 201300Z 15002KT 15SM BKN250 17/00 A3028 RMK CI3 SLP253

CYYG;2012-05-20 14:00;CYYG 201400Z 02010KT 15SM BKN250 15/05 A3029 RMK CI3 SLP258

CYYG;2012-05-20 15:00;CYYG 201500Z 04003KT 15SM BKN250 16/03 A3030 RMK CI3 SLP261

CYYG;2012-05-20 16:00;CYYG 201600Z 08003KT 15SM BKN250 18/04 A3030 RMK CI2 SLP260

CYYG;2012-05-20 17:00;CYYG 201700Z 33004KT 15SM BKN250 19/05 A3030 RMK CI2 SLP262

CYYG;2012-05-20 18:00;CYYG 201800Z 36006KT 15SM BKN250 19/05 A3031 RMK CI2 SLP265

CYYG;2012-05-20 19:00;CYYG 201900Z 03008KT 15SM BKN250 19/03 A3031 RMK CI2 SLP266

CYYG;2012-05-20 20:00;CYYG 202000Z 04005KT 15SM BKN250 17/03 A3031 RMK CI2 SLP264

CYYG;2012-05-20 21:00;CYYG 202100Z 08004KT 15SM BKN250 18/03 A3031 RMK CI2 SLP264

CYYG;2012-05-20 22:00;CYYG 202200Z 08005KT 15SM BKN250 17/04 A3031 RMK CI2 SLP263

CYYG;2012-05-20 23:00;CYYG 202300Z 16003KT 15SM BKN250 16/05 A3031 RMK CI1 SLP266

CYYG;2012-05-21 00:00;CYYG 210000Z 11005KT 15SM FEW150 BKN250 14/05 A3032 RMK AC1CI1 SLP268

CYYG;2012-05-21 01:00;CYYG 210100Z 13005KT 15SM BKN250 11/03 A3033 RMK CI2 SLP272

CYYG;2012-05-21 02:00;CYYG 210200Z 14006KT 15SM FEW250 10/03 A3033 RMK CI2 SLP272

CYYG;2012-05-21 03:00;CYYG 210300Z 14005KT 15SM FEW250 10/02 A3032 RMK CI2 SLP268

CYYG;2012-05-21 04:00;CYYG 210400Z 13007KT 15SM FEW250 10/03 A3031 RMK CI2 SLP264

CYYG;2012-05-21 05:00;CYYG 210500Z 16006KT 15SM FEW250 10/04 A3031 RMK CI2 SLP263

CYYG;2012-05-21 06:00;CYYG 210600Z 19007KT 15SM FEW250 11/05 A3030 RMK CI1 SLP261

CYYG;2012-05-21 07:00;CYYG 210700Z 19007KT 15SM FEW250 11/06 A3030 RMK CI2 SLP260

CYYG;2012-05-21 08:00;CYYG 210800Z 20008KT 15SM FEW250 12/06 A3029 RMK CI1 SLP259

CYYG;2012-05-21 09:00;CYYG 210900Z 20008KT 15SM BKN300 11/07 A3030 RMK CS1 SLP260

CYYG;2012-05-21 10:00;CYYG 211000Z 21010KT 15SM BKN300 13/08 A3028 RMK CS1 COTRA SLP256

CYYG;2012-05-21 11:00;CYYG 211100Z 22014KT 15SM BKN300 16/07 A3028 RMK CS1 CONTRAILS SLP254

CYYG;2012-05-21 12:00;CYYG 211200Z 22013G19KT 15SM OVC300 17/08 A3027 RMK CI2 SLP250

CYYG;2012-05-21 13:00;CYYG 211300Z 23014G20KT 15SM OVC300 19/09 A3026 RMK CI2 SLP248

CYYG;2012-05-21 14:00;CYYG 211400Z 23016G24KT 15SM OVC300 21/10 A3025 RMK CI2 CONTRAILS OBS TAKEN +17 SLP244

CYYG;2012-05-21 15:00;CYYG 211500Z 23013G21KT 15SM OVC300 23/10 A3024 RMK CI2 CONTRAILS SLP242

CYYG;2012-05-21 16:00;CYYG 211600Z 22015G25KT 15SM FEW180 OVC300 24/10 A3023 RMK AC1CI2 CONTRAILS SLP239

CYYG;2012-05-21 17:00;CYYG 211700Z 23017G25KT 15SM FEW160 OVC300 25/10 A3023 RMK AC1CI1 CONTRAILS SLP236

CYYG;2012-05-21 18:00;CYYG 211800Z CCA 23014G22KT 15SM FEW160 OVC300 25/11 A3022 RMK AC1CI1 CONTRAILS SLP232

CYYG;2012-05-21 19:00;CYYG 211900Z 25014G19KT 15SM FEW160 OVC300 25/10 A3020 RMK AC1CI1 CONTRAILS SLP227

CYYG;2012-05-21 20:00;CYYG 212000Z 25011G18KT 15SM BKN300 26/11 A3018 RMK CI1 SLP221

CYYG;2012-05-21 21:00;CYYG 212100Z 25012G18KT 15SM BKN300 25/10 A3018 RMK CI1 SLP220

CYYG;2012-05-21 22:00;CYYG 212200Z 25012G18KT 15SM BKN300 24/09 A3018 RMK CI1 SLP220

CYYG;2012-05-21 23:00;CYYG 212300Z 24010G15KT 15SM SCT300 22/09 A3018 RMK CI1 SLP220

CYYG;2012-05-22 00:00;CYYG 220000Z 23011KT 15SM FEW300 21/08 A3018 RMK CI2 SLP219

CYYG;2012-05-22 01:00;CYYG 220100Z 21008KT 15SM FEW300 19/09 A3018 RMK CI2 SLP221

CYYG;2012-05-22 02:00;CYYG 220200Z 21011KT 15SM FEW300 18/09 A3017 RMK CI2 SLP217

CYYG;2012-05-22 03:00;CYYG 220300Z 22008KT 15SM FEW300 17/06 A3017 RMK CI2 SLP217

CYYG;2012-05-22 04:00;CYYG 220400Z 20006KT 15SM FEW300 16/07 A3017 RMK CI2 SLP216

CYYG;2012-05-22 05:00;CYYG 220500Z 21009KT 15SM FEW300 15/08 A3016 RMK CI2 SLP212

CYYG;2012-05-22 06:00;CYYG 220600Z 20008KT 15SM FEW300 14/09 A3015 RMK CI2 SLP210

CYYG;2012-05-22 07:00;CYYG 220700Z 20009KT 15SM FEW300 13/10 A3014 RMK CI2 SLP206

CYYG;2012-05-22 08:00;CYYG 220800Z 20006KT 15SM FEW300 12/10 A3014 RMK CI2 SLP206

CYYG;2012-05-22 09:00;CYYG 220900Z 17004KT 15SM FEW150 SCT300 11/09 A3013 RMK AC1CI0 SLP204

CYYG;2012-05-22 10:00;CYYG 221000Z 18008KT 15SM FEW150 BKN300 12/11 A3013 RMK AC1CI0 SLP203

CYYG;2012-05-22 11:00;CYYG 221100Z 19006KT 15SM FEW150 BKN300 14/11 A3013 RMK AC1CI1 SLP202

CYYG;2012-05-22 12:00;CYYG 221200Z 19010KT 15SM FEW025 BKN300 15/12 A3012 RMK SC1CI2 SLP198

CYYG;2012-05-22 13:00;CYYG 221300Z 20011KT 15SM BKN017 BKN300 16/13 A3011 RMK SC6CI1 SLP196

CYYG;2012-05-22 14:00;CYYG 221400Z 19009KT 15SM BKN015 17/14 A3009 RMK SC7 SLP191

CYYG;2012-05-22 15:00;CYYG 221500Z 18011KT 15SM SCT015 BKN250 19/16 A3008 RMK SC4CI2 SLP185

CYYG;2012-05-22 16:00;CYYG 221600Z 17013KT 15SM SCT015 BKN250 20/16 A3005 RMK SC3CI2 SLP177

CYYG;2012-05-22 17:00;CYYG 221700Z 19012G17KT 15SM FEW015 BKN055 BKN250 20/17 A3004 RMK SC2SC3CI2 SLP173

CYYG;2012-05-22 18:00;CYYG 221800Z 19016G21KT 15SM FEW015 BKN055 OVC200 18/16 A3003 RMK SC2SC5CI1 SLP170

CYYG;2012-05-22 19:00;CYYG 221900Z 21011G16KT 15SM -SHRA FEW015 OVC060 18/17 A3001 RMK SC2SC6 SLP164

CYYG;2012-05-22 20:00;CYYG 222000Z 23007KT 15SM FEW015 SCT060 OVC120 20/16 A2998 RMK SC2SC2AC3 SLP151

CYYG;2012-05-22 21:00;CYYG 222100Z 18010KT 15SM FEW060 SCT140 OVC250 18/16 A2998 RMK SC2AC2CI2 SLP152

CYYG;2012-05-22 22:00;CYYG 222200Z 18011G18KT 15SM FEW060 SCT130 OVC220 19/17 A2997 RMK SC1AC3CI3 SLP150

CYYG;2012-05-22 23:00;CYYG 222300Z 17010KT 15SM FEW070 OVC120 18/16 A2996 RMK ACC1AS7 SLP145

CYYG;2012-05-23 00:00;CYYG 230000Z 17010KT 15SM FEW090 OVC120 17/16 A2996 RMK ACC1AS7 SLP145

CYYG;2012-05-23 00:43;CYYG 230043Z 16009KT 15SM -SHRA OVC100 17/ RMK AC8

CYYG;2012-05-23 01:00;CYYG 230100Z 17008KT 15SM -SHRA OVC110 17/15 A2996 RMK AC8 SLP144

CYYG;2012-05-23 01:46;CYYG 230146Z 16008KT 15SM -SHRA FEW004 OVC110 17/ RMK SF2AC6

CYYG;2012-05-23 02:00;CYYG 230200Z 17007KT 15SM -SHRA FEW004 OVC100 16/16 A2993 RMK SF1AC7 SLP136

CYYG;2012-05-23 02:33;CYYG 230233Z 16007KT 10SM OVC004 16/ RMK SF8

CYYG;2012-05-23 02:44;CYYG 230244Z 17006KT 10SM BKN003 OVC007 16/ RMK SF6SC2

CYYG;2012-05-23 03:00;CYYG 230300Z 18007KT 8SM OVC003 16/16 A2992 RMK SF8 SLP132

CYYG;2012-05-23 04:00;CYYG 230400Z 18008KT 8SM OVC003 16/16 A2990 RMK SF8 SLP127

CYYG;2012-05-23 04:22;CYYG 230422Z 17006KT 10SM -SHRA SCT003 OVC110 16/ RMK SF3AC5

CYYG;2012-05-23 05:00;CYYG 230500Z 17005KT 10SM FEW003 BKN062 OVC110 16/15 A2988 RMK SF2SC3AC3 SLP120

CYYG;2012-05-23 06:00;CYYG 230600Z 18004KT 10SM -SHRA FEW007 BKN026 OVC055 16/15 A2986 RMK SF2SC6SC1 SLP111

CYYG;2012-05-23 06:28;CYYG 230628Z 00000KT 10SM OVC006 16/ RMK SF8

CYYG;2012-05-23 07:00;CYYG 230700Z 00000KT 10SM OVC006 16/16 A2983 RMK SF8 SLP103

CYYG;2012-05-23 08:00;CYYG 230800Z 29002KT 6SM BR OVC006 15/15 A2982 RMK SF8 SLP097

CYYG;2012-05-23 08:28;CYYG 230828Z 00000KT 6SM BR SCT007 BKN090 15/ RMK SF3AC4

CYYG;2012-05-23 08:44;CYYG 230844Z 33003KT 6SM BR BKN004 OVC009 15/ RMK SF6SF2

CYYG;2012-05-23 09:00;CYYG 230900Z 32003KT 1 1/2SM BR OVC002 15/15 A2982 RMK FG2SF6 SLP098

CYYG;2012-05-23 09:15;CYYG 230915Z 34003KT 1 1/2SM BR OVC008 15/ RMK FG2SF6

CYYG;2012-05-23 09:21;CYYG 230921Z 34003KT 1 1/2SM BR OVC006 15/ RMK FG2SF6

CYYG;2012-05-23 09:41;CYYG 230941Z 34002KT 2SM BR OVC003 15/ RMK SF8

CYYG;2012-05-23 10:00;CYYG 231000Z 32002KT 2SM BR BKN003 OVC008 16/15 A2982 RMK SF6SF2 SLP098

CYYG;2012-05-23 10:30;CYYG 231030Z 00000KT 10SM BKN004 BKN042 16/ RMK SF6SC2

CYYG;2012-05-23 11:00;CYYG 231100Z 00000KT 12SM BKN005 BKN040 17/16 A2983 RMK SF6SC2 SLP102

CYYG;2012-05-23 11:26;CYYG 231126Z 00000KT 15SM BKN009 BKN040 18/ RMK SF5SC2

CYYG;2012-05-23 12:00;CYYG 231200Z 35003KT 15SM BKN014 18/17 A2985 RMK SC7 SLP107

CYYG;2012-05-23 13:00;CYYG 231300Z 35006KT 15SM OVC020 19/16 A2985 RMK SC8 SLP108

CYYG;2012-05-23 13:27;CYYG 231327Z 34010KT 15SM BKN004 OVC020 16/ RMK SF5SC3 VIS W-NE 3

CYYG;2012-05-23 13:35;CYYG 231335Z 33010KT 3SM BR OVC004 15/ RMK SF8 VIS NE-SW 10

CYYG;2012-05-23 14:00;CYYG 231400Z 36008KT 2SM BR OVC004 14/13 A2988 RMK SF8 SLP119

CYYG;2012-05-23 14:31;CYYG 231431Z 01008KT 1 1/2SM R03/4000VP6000FT/D BR OVC002 12/ RMK SF8

CYYG;2012-05-23 15:00;CYYG 231500Z 36010KT 1 1/2SM BR OVC003 12/12 A2989 RMK SF8 SLP123

CYYG;2012-05-23 15:08;CYYG 231508Z 35006KT 5SM BR OVC003 12/ RMK SF8

CYYG;2012-05-23 16:00;CYYG 231600Z 36010G16KT 10SM OVC004 11/10 A2991 RMK SF8 SLP128

CYYG;2012-05-23 17:00;CYYG 231700Z 01011G17KT 15SM OVC007 11/09 A2993 RMK SF8 SLP135

CYYG;2012-05-23 18:00;CYYG 231800Z 35010G15KT 15SM OVC005 10/09 A2996 RMK SF8 SLP147

CYYG;2012-05-23 19:00;CYYG 231900Z 36011G16KT 15SM OVC006 11/09 A2997 RMK SF8 SLP149

CYYG;2012-05-23 20:00;CYYG 232000Z 01011KT 15SM OVC006 10/09 A2999 RMK SF8 SLP155

CYYG;2012-05-23 21:00;CYYG 232100Z 01013G19KT 15SM OVC006 10/09 A3000 RMK SF8 SLP160

CYYG;2012-05-23 22:00;CYYG 232200Z 36010G16KT 15SM OVC009 10/09 A3001 RMK SF8 SLP165

CYYG;2012-05-23 23:00;CYYG 232300Z 02012KT 15SM BKN010 09/08 A3004 RMK SC7 SLP175

CYYG;2012-05-23 23:17;CYYG 232317Z 01007KT 15SM FEW009 FEW025 09/ RMK SF2SC1

CYYG;2012-05-23 23:44;CYYG 232344Z 01007KT 15SM BKN009 BKN025 BKN310 08/ RMK SF6SC1CI0

CYYG;2012-05-24 00:00;CYYG 240000Z 02008KT 15SM FEW009 FEW025 FEW310 08/07 A3006 RMK SF2SC1CI0 SLP180

CYYG;2012-05-24 01:00;CYYG 240100Z 35004KT 15SM FEW009 FEW240 07/07 A3009 RMK SF1CI1 SLP189

CYYG;2012-05-24 02:00;CYYG 240200Z 35004KT 15SM FEW240 07/06 A3010 RMK CI1 SLP193

CYYG;2012-05-24 03:00;CYYG 240300Z 35003KT 15SM FEW240 06/06 A3010 RMK CI1 SLP195

CYYG;2012-05-24 04:00;CYYG 240400Z 36004KT 15SM MIFG FEW240 06/06 A3012 RMK CI1 SLP202

CYYG;2012-05-24 05:00;CYYG 240500Z 34005KT 15SM MIFG SKC 06/05 A3014 RMK SLP206

CYYG;2012-05-24 06:00;CYYG 240600Z 36004KT 15SM MIFG SKC 05/05 A3015 RMK SLP211

CYYG;2012-05-24 07:00;CYYG 240700Z 26003KT 15SM MIFG SKC 06/06 A3017 RMK SLP216

CYYG;2012-05-24 08:00;CYYG 240800Z 36003KT 15SM MIFG FEW240 06/06 A3020 RMK CI1 SLP226

CYYG;2012-05-24 09:00;CYYG 240900Z 01004KT 15SM MIFG FEW240 05/05 A3023 RMK CI1 SLP237

CYYG;2012-05-24 10:00;CYYG 241000Z 36002KT 15SM FEW005 FEW240 08/08 A3025 RMK SF1CI1 SLP246

CYYG;2012-05-24 11:00;CYYG 241100Z 02005KT 15SM FEW005 FEW240 10/10 A3028 RMK SF2CI0 SLP255

CYYG;2012-05-24 12:00;CYYG 241200Z 36004KT 15SM FEW005 SCT280 12/10 A3030 RMK SF1CI1 SLP260

CYYG;2012-05-24 13:00;CYYG 241300Z 08004KT 15SM SCT280 14/09 A3031 RMK CI2 SLP263

CYYG;2012-05-24 14:00;CYYG 241400Z 10004KT 15SM SCT280 16/10 A3031 RMK CI1 SLP266

CYYG;2012-05-24 15:00;CYYG 241500Z 00000KT 15SM FEW280 17/10 A3032 RMK CI1 SLP269

CYYG;2012-05-24 16:00;CYYG 241600Z 22013KT 15SM FEW030 FEW280 19/11 A3032 RMK CU1CI0 SLP269

CYYG;2012-05-24 17:00;CYYG 241700Z 18007KT 15SM FEW030 FEW280 19/11 A3032 RMK CU1CI0 SLP267

CYYG;2012-05-24 18:00;CYYG 241800Z 21010KT 15SM FEW030 SCT280 19/09 A3031 RMK CU1CI0 SLP266

CYYG;2012-05-24 19:00;CYYG 241900Z 17009KT 15SM FEW040 BKN280 20/06 A3031 RMK CU1CI1 SLP266

CYYG;2012-05-24 20:00;CYYG 242000Z 16008KT 15SM FEW040 BKN280 20/03 A3031 RMK CU1CI1 SLP263

CYYG;2012-05-24 21:00;CYYG 242100Z 18008KT 15SM FEW040 BKN280 20/02 A3028 RMK CU1CI1 SLP256

CYYG;2012-05-24 22:00;CYYG 242200Z 16007KT 15SM BKN280 20/03 A3028 RMK CI1 CONTRAILS SLP254

CYYG;2012-05-24 23:00;CYYG 242300Z 16005KT 15SM BKN280 18/03 A3027 RMK CI1 CONTRAILS SLP251

CYYG;2012-05-25 00:00;CYYG 250000Z 16007KT 15SM BKN280 15/08 A3029 RMK CI1 CONTRAILS SLP258

CYYG;2012-05-25 01:00;CYYG 250100Z 18010KT 15SM BKN280 14/08 A3032 RMK CI1 SLP267

CYYG;2012-05-25 02:00;CYYG 250200Z 18010KT 15SM BKN280 13/07 A3033 RMK CI1 SLP271

CYYG;2012-05-25 03:00;CYYG 250300Z 19011KT 15SM BKN280 12/07 A3034 RMK CI1 SLP276

CYYG;2012-05-25 04:00;CYYG 250400Z 18011KT 15SM BKN280 11/07 A3034 RMK CI1 SLP274

CYYG;2012-05-25 05:00;CYYG 250500Z 18008KT 15SM BKN280 10/07 A3034 RMK CI1 SLP275

CYYG;2012-05-25 06:00;CYYG 250600Z 18008KT 15SM BKN280 10/07 A3034 RMK CI1 SLP275

CYYG;2012-05-25 07:00;CYYG 250700Z 18009KT 15SM BKN280 10/07 A3033 RMK CI1 SLP273

CYYG;2012-05-25 08:00;CYYG 250800Z 19008KT 15SM FEW050 BKN280 09/07 A3033 RMK SC2CI0 SLP273

CYYG;2012-05-25 09:00;CYYG 250900Z 20008KT 15SM FEW055 BKN310 10/07 A3033 RMK SC2CI1 CONTRAILS SLP272

CYYG;2012-05-25 10:00;CYYG 251000Z 20008KT 15SM FEW055 BKN350 11/08 A3033 RMK SC1CI1 CONTRAILS SLP270

CYYG;2012-05-25 11:00;CYYG 251100Z 21011KT 15SM FEW055 BKN350 12/06 A3034 RMK SC1CI1 SLP274

CYYG;2012-05-25 12:00;CYYG 251200Z 22009G15KT 15SM FEW055 BKN350 14/06 A3034 RMK SC1CI1 SLP274

CYYG;2012-05-25 13:00;CYYG 251300Z 20013KT 15SM FEW060 BKN350 15/05 A3034 RMK SC1CI1 SLP274

CYYG;2012-05-25 14:00;CYYG 251400Z 19010KT 15SM FEW060 BKN350 16/07 A3031 RMK SC1CI1 SLP265

CYYG;2012-05-25 15:00;CYYG 251500Z 19012KT 15SM FEW060 SCT350 16/07 A3029 RMK SC1CI1 SLP258

CYYG;2012-05-25 16:00;CYYG 251600Z 19013KT 15SM FEW350 18/07 A3026 RMK CI2 SLP249

CYYG;2012-05-25 17:00;CYYG 251700Z 20012G17KT 15SM FEW350 19/07 A3024 RMK CI2 SLP241

CYYG;2012-05-25 18:00;CYYG 251800Z 20014KT 15SM FEW350 22/09 A3021 RMK CI2 SLP230

CYYG;2012-05-25 19:00;CYYG 251900Z 21013KT 15SM FEW350 22/09 A3020 RMK CI2 SLP226

CYYG;2012-05-25 20:00;CYYG 252000Z 19012KT 15SM FEW350 22/09 A3017 RMK CI1 SLP219

CYYG;2012-05-25 21:00;CYYG 252100Z 20011KT 15SM FEW350 22/11 A3016 RMK CI1 OBS TAKEN +20 SLP213

CYYG;2012-05-25 22:00;CYYG 252200Z 20011KT 15SM FEW350 21/11 A3015 RMK CI1 SLP211

CYYG;2012-05-25 23:00;CYYG 252300Z 20010G16KT 15SM SCT350 19/11 A3015 RMK CI1 CONTRAILS SLP210

CYYG;2012-05-26 00:00;CYYG 260000Z 21013G18KT 15SM SCT350 17/11 A3014 RMK CI1 CONTRAILS SLP208

CYYG;2012-05-26 01:00;CYYG 260100Z 21008KT 15SM SCT350 15/11 A3014 RMK CI1 SLP207

CYYG;2012-05-26 02:00;CYYG 260200Z 21014KT 15SM SCT350 15/10 A3013 RMK CI1 SLP205

CYYG;2012-05-26 03:00;CYYG 260300Z 22015KT 15SM SCT350 13/10 A3010 RMK CI1 SLP195

CYYG;2012-05-26 04:00;CYYG 260400Z 22013G22KT 15SM FEW020 SCT350 12/10 A3010 RMK CU1CI1 SLP193

CYYG;2012-05-26 04:16;CYYG 260416Z 21016KT 15SM BKN011 12/ RMK SC6

CYYG;2012-05-26 04:43;CYYG 260443Z 21018KT 15SM BKN009 12/ RMK SC7

CYYG;2012-05-26 05:00;CYYG 260500Z 21015G21KT 15SM BKN008 12/10 A3007 RMK SF7 SLP184

CYYG;2012-05-26 06:00;CYYG 260600Z 20011G17KT 15SM SCT006 OVC011 11/10 A3006 RMK SF3SC5 SLP179

CYYG;2012-05-26 07:00;CYYG 260700Z 19013KT 15SM OVC009 11/10 A3004 RMK ST8 SLP172

CYYG;2012-05-26 08:00;CYYG 260800Z 19014KT 15SM OVC007 11/10 A3002 RMK ST8 SLP166

CYYG;2012-05-26 08:37;CYYG 260837Z 20013KT 10SM -DZ OVC007 12/ RMK ST8

CYYG;2012-05-26 09:00;CYYG 260900Z 19012G17KT 10SM -DZ OVC007 12/11 A3002 RMK ST8 SLP166

CYYG;2012-05-26 09:12;CYYG 260912Z 19013KT 15SM OVC007 12/ RMK ST8

CYYG;2012-05-26 10:00;CYYG 261000Z 19011G17KT 15SM BKN007 13/12 A3001 RMK SF7 SLP162

CYYG;2012-05-26 11:00;CYYG 261100Z 18010KT 15SM FEW004 OVC008 12/12 A2999 RMK SF1SF7 SLP155

CYYG;2012-05-26 12:00;CYYG 261200Z 20011KT 15SM OVC009 14/13 A2997 RMK SF8 VIS LWR W SLP150

CYYG;2012-05-26 13:00;CYYG 261300Z 22011KT 15SM OVC007 16/14 A2995 RMK SF8 SLP143

CYYG;2012-05-26 14:00;CYYG 261400Z 23012KT 15SM OVC007 17/15 A2994 RMK SF8 SLP139

CYYG;2012-05-26 14:46;CYYG 261446Z 26015G25KT 15SM BKN010 19/ RMK SF7

CYYG;2012-05-26 15:00;CYYG 261500Z 24012G21KT 15SM BKN011 19/17 A2993 RMK SC7 SLP137

CYYG;2012-05-26 15:20;CYYG 261520Z 23014G20KT 15SM SCT011 BKN016 19/ RMK SC3SC4

CYYG;2012-05-26 16:00;CYYG 261600Z 23013KT 15SM FEW011 BKN019 BKN200 19/16 A2992 RMK SC2SC4CI1 SLP133

CYYG;2012-05-26 17:00;CYYG 261700Z 23010KT 15SM SCT016 BKN200 20/16 A2992 RMK SC3CI1 SLP132

CYYG;2012-05-26 18:00;CYYG 261800Z 25011KT 15SM FEW018 BKN200 21/16 A2991 RMK CF2CI2 SLP128

CYYG;2012-05-26 19:00;CYYG 261900Z 24010G15KT 15SM FEW018 BKN200 21/16 A2990 RMK CF1CI3 SLP125

CYYG;2012-05-26 20:00;CYYG 262000Z 22011KT 15SM FEW030TCU SCT200 22/16 A2988 RMK TCU1CI3 SLP120

CYYG;2012-05-26 21:00;CYYG 262100Z 24009KT 15SM FEW053TCU BKN200 22/17 A2989 RMK TCU2CI2 SLP123

CYYG;2012-05-26 21:19;CYYG 262119Z 34011G17KT 15SM BKN030TCU BKN200 20/ RMK TCU5CI1 SHWRS DIST NE

CYYG;2012-05-26 22:00;CYYG 262200Z 36012G18KT 15SM FEW030TCU SCT050 SCT250 18/07 A2994 RMK TCU2SC1CI1 SLP140

CYYG;2012-05-26 23:00;CYYG 262300Z 01011G16KT 15SM FEW030CB FEW090 FEW250 16/05 A2997 RMK CB1AC1CI0 CB DIST SE SLP150

CYYG;2012-05-27 00:00;CYYG 270000Z 06008KT 15SM FEW080 BKN250 11/07 A3000 RMK ACC1CI2 SLP160

CYYG;2012-05-27 01:00;CYYG 270100Z 06006KT 15SM FEW080 BKN250 10/06 A3005 RMK AC1CI3 SLP176

CYYG;2012-05-27 02:00;CYYG 270200Z 09002KT 15SM FEW080 BKN250 09/06 A3005 RMK AC1CI3 SLP176

CYYG;2012-05-27 03:00;CYYG 270300Z 17003KT 15SM FEW250 08/05 A3006 RMK CI1 SLP182

CYYG;2012-05-27 04:00;CYYG 270400Z 20003KT 15SM FEW230 09/05 A3007 RMK CI1 SLP184

CYYG;2012-05-27 05:00;CYYG 270500Z 00000KT 15SM FEW230 07/04 A3007 RMK CI1 SLP184

CYYG;2012-05-27 06:00;CYYG 270600Z 24004KT 15SM FEW230 07/05 A3008 RMK CI1 SLP186

CYYG;2012-05-27 07:00;CYYG 270700Z 27003KT 15SM FEW230 07/05 A3007 RMK CI1 SLP184

CYYG;2012-05-27 08:00;CYYG 270800Z 25004KT 15SM BKN250 08/06 A3007 RMK CI2 SLP183

CYYG;2012-05-27 09:00;CYYG 270900Z 26004KT 15SM FEW100 BKN250 08/06 A3008 RMK AC1CI1 SLP186

CYYG;2012-05-27 10:00;CYYG 271000Z 26003KT 15SM FEW100 FEW250 09/07 A3010 RMK AC1CI1 SLP192

CYYG;2012-05-27 11:00;CYYG 271100Z 24004KT 15SM FEW100 FEW250 12/08 A3012 RMK AC1CI1 SLP199

CYYG;2012-05-27 12:00;CYYG 271200Z 00000KT 15SM FEW032 14/05 A3013 RMK CF1 SLP203

CYYG;2012-05-27 13:00;CYYG 271300Z 00000KT 15SM FEW032 15/07 A3012 RMK CU2 SLP201

CYYG;2012-05-27 14:00;CYYG 271400Z 04011KT 15SM FEW040 13/06 A3012 RMK CU1 SLP199

CYYG;2012-05-27 15:00;CYYG 271500Z 35007KT 15SM FEW040 14/05 A3012 RMK CU1 SLP201

CYYG;2012-05-27 16:00;CYYG 271600Z 02005KT 15SM FEW044 13/02 A3012 RMK CU1 OBS TAKEN +07 SLP200

CYYG;2012-05-27 17:00;CYYG 271700Z 04008KT 15SM FEW044 14/03 A3012 RMK CU1 SLP199

CYYG;2012-05-27 18:00;CYYG 271800Z 36007KT 15SM FEW044 15/04 A3010 RMK CU1 SLP194

CYYG;2012-05-27 19:00;CYYG 271900Z 01005KT 15SM FEW044 FEW250 15/04 A3010 RMK CU1CI2 SLP193

CYYG;2012-05-27 20:00;CYYG 272000Z 07007KT 15SM FEW044 BKN250 14/03 A3009 RMK CU1CI2 SLP190

CYYG;2012-05-27 21:00;CYYG 272100Z 06004KT 15SM FEW044 BKN250 15/02 A3006 RMK CU1CI1 OBS TAKEN +12 SLP182

CYYG;2012-05-27 22:00;CYYG 272200Z 10003KT 15SM FEW220 BKN260 15/03 A3006 RMK CC2CI2 SLP181

CYYG;2012-05-27 23:00;CYYG 272300Z 18009KT 15SM BKN190 BKN260 11/07 A3006 RMK AC5CI2 SLP182

CYYG;2012-05-28 00:00;CYYG 280000Z 11005KT 15SM BKN190 11/07 A3006 RMK AC7 SLP179

CYYG;2012-05-28 01:00;CYYG 280100Z 15007KT 15SM BKN180 09/04 A3006 RMK AC7 SLP179

CYYG;2012-05-28 02:00;CYYG 280200Z 11004KT 15SM BKN180 08/03 A3004 RMK AC7 SLP175

CYYG;2012-05-28 03:00;CYYG 280300Z 13005KT 15SM BKN180 08/03 A3003 RMK AC6 SLP171

CYYG;2012-05-28 04:00;CYYG 280400Z 04008KT 15SM BKN180 07/02 A3002 RMK AC6 SLP167

CYYG;2012-05-28 05:00;CYYG 280500Z 09003KT 15SM BKN180 06/02 A3001 RMK AC6 SLP164

CYYG;2012-05-28 06:00;CYYG 280600Z 36002KT 15SM BKN180 05/02 A3002 RMK AC6 SLP167

CYYG;2012-05-28 07:00;CYYG 280700Z 06003KT 15SM BKN210 05/03 A3001 RMK CI5 SLP164

CYYG;2012-05-28 08:00;CYYG 280800Z 06002KT 15SM BKN210 05/03 A3001 RMK CI5 SLP163

CYYG;2012-05-28 09:00;CYYG 280900Z 09002KT 15SM BKN220 06/04 A3001 RMK CI5 SLP163

CYYG;2012-05-28 10:00;CYYG 281000Z 10002KT 15SM BKN089 BKN230 07/05 A3000 RMK AC5CI2 SLP161

CYYG;2012-05-28 11:00;CYYG 281100Z 12004KT 15SM SCT096 BKN240 10/07 A3001 RMK AC3CI2 SLP163

CYYG;2012-05-28 12:00;CYYG 281200Z 22003KT 15SM FEW100 BKN250 13/07 A3001 RMK AC2CI2 SLP163

CYYG;2012-05-28 13:00;CYYG 281300Z 19004KT 15SM FEW030 FEW100 SCT250 14/06 A3000 RMK CF1AC1CI1 SLP161

CYYG;2012-05-28 14:00;CYYG 281400Z 32006KT 15SM FEW040 FEW100 SCT250 16/04 A3000 RMK CF1AC1CI1 SLP159

CYYG;2012-05-28 15:00;CYYG 281500Z 32010G15KT 15SM FEW048 SCT250 16/04 A2998 RMK CU1CI1 SLP155

CYYG;2012-05-28 16:00;CYYG 281600Z 34010G16KT 15SM FEW050 SCT250 15/03 A2999 RMK CU1CI1 SLP158

CYYG;2012-05-28 17:00;CYYG 281700Z 35013G18KT 15SM FEW048 SCT250 14/08 A3001 RMK CU2CI1 SLP164

CYYG;2012-05-28 18:00;CYYG 281800Z 36013G20KT 15SM SCT034 BKN250 13/08 A3002 RMK SC3CI1 SLP167

CYYG;2012-05-28 19:00;CYYG 281900Z 02012G21KT 15SM FEW024 BKN250 12/06 A3003 RMK SC2CI1 SLP170

CYYG;2012-05-28 20:00;CYYG 282000Z 02013G18KT 15SM FEW020 BKN250 11/06 A3004 RMK CF1CI2 SLP175

CYYG;2012-05-28 21:00;CYYG 282100Z 01014KT 15SM FEW020 FEW160 BKN250 10/05 A3004 RMK CF1AC1CI1 SLP175

CYYG;2012-05-28 22:00;CYYG 282200Z 04011KT 15SM FEW020 FEW160 BKN250 10/03 A3004 RMK CF1AC1CI2 SLP174

CYYG;2012-05-28 23:00;CYYG 282300Z 04013KT 15SM FEW020 BKN250 09/03 A3004 RMK CF1CI2 SLP172

CYYG;2012-05-29 00:00;CYYG 290000Z 04005KT 15SM FEW020 SCT250 07/03 A3007 RMK SC1CI1 SLP183

CYYG;2012-05-29 01:00;CYYG 290100Z 09003KT 15SM FEW020 SCT250 06/04 A3008 RMK SC2CI1 SLP188

CYYG;2012-05-29 02:00;CYYG 290200Z 07003KT 15SM FEW020 FEW250 05/03 A3009 RMK SC2CI1 SLP190

CYYG;2012-05-29 03:00;CYYG 290300Z 07004KT 15SM FEW020 FEW250 05/04 A3010 RMK SC2CI1 SLP194

CYYG;2012-05-29 04:00;CYYG 290400Z 07006KT 15SM FEW020 FEW180 04/02 A3009 RMK SC2AC1 SLP191

CYYG;2012-05-29 05:00;CYYG 290500Z 09003KT 15SM FEW020 FEW180 04/02 A3010 RMK SC2AC1 SLP193

CYYG;2012-05-29 06:00;CYYG 290600Z 10003KT 15SM FEW020 BKN160 04/02 A3010 RMK SC1AC4 SLP193

CYYG;2012-05-29 07:00;CYYG 290700Z 10003KT 15SM FEW020 SCT160 04/02 A3010 RMK SC1AC3 SLP195

CYYG;2012-05-29 08:00;CYYG 290800Z 10002KT 15SM SCT160 03/02 A3011 RMK AC4 SLP196

CYYG;2012-05-29 09:00;CYYG 290900Z 09004KT 15SM BKN130 04/01 A3011 RMK AC6 SLP197

CYYG;2012-05-29 10:00;CYYG 291000Z 10003KT 15SM BKN120 05/02 A3012 RMK AC7 SLP201

CYYG;2012-05-29 11:00;CYYG 291100Z 09003KT 15SM FEW020 BKN120 06/02 A3014 RMK CF1AC7 SLP207

CYYG;2012-05-29 12:00;CYYG 291200Z 10006KT 15SM FEW020 OVC110 07/01 A3015 RMK CF1AC8 SLP211

CYYG;2012-05-29 13:00;CYYG 291300Z 14006KT 15SM FEW024 BKN100 OVC250 09/01 A3012 RMK CF1AC7CI1 SLP201

CYYG;2012-05-29 14:00;CYYG 291400Z 16010KT 15SM SCT100 OVC250 09/00 A3012 RMK AC4CI4 SLP203

CYYG;2012-05-29 15:00;CYYG 291500Z 20009KT 15SM FEW090 OVC260 09/02 A3011 RMK AC2CI6 SLP198

CYYG;2012-05-29 16:00;CYYG 291600Z 15005KT 15SM FEW090 OVC260 09/M01 A3013 RMK AC2CI6 SLP203

CYYG;2012-05-29 17:00;CYYG 291700Z 12008KT 15SM FEW080 OVC260 09/M01 A3009 RMK AC2CI6 SLP192

CYYG;2012-05-29 18:00;CYYG 291800Z 14005KT 15SM VCSH FEW012 SCT080 OVC260 09/M01 A3012 RMK SC2AC2CI5 SLP199

CYYG;2012-05-29 18:36;CYYG 291836Z 17006KT 12SM -SHRA BKN012 OVC080 09/ RMK SC5AC3

CYYG;2012-05-29 19:00;CYYG 291900Z 15006KT 15SM VCSH SCT012 BKN080 OVC250 09/M00 A3009 RMK SC3AC2CI2 SLP190

CYYG;2012-05-29 19:39;CYYG 291939Z 14006KT 15SM FEW012 BKN070 OVC250 09/ RMK SC2AC2CI3

CYYG;2012-05-29 20:00;CYYG 292000Z 13005KT 15SM FEW012 BKN066 OVC250 08/M01 A3009 RMK SC2AC2CI3 SLP189

CYYG;2012-05-29 21:00;CYYG 292100Z 16006KT 15SM FEW012 BKN066 OVC250 08/M00 A3006 RMK SC2AC3CI3 SLP182

CYYG;2012-05-29 22:00;CYYG 292200Z 14004KT 15SM SCT012 BKN074 OVC250 08/01 A3006 RMK SC3AC2CI3 SLP179

CYYG;2012-05-29 22:36;CYYG 292236Z 14007KT 15SM -SHRA FEW050 OVC070 08/ RMK SC2AC6 VIS LWR S-NW

CYYG;2012-05-29 23:00;CYYG 292300Z 17008KT 12SM -SHRA BKN040 OVC070 07/02 A3007 RMK SC6AC2 SLP183

CYYG;2012-05-30 00:00;CYYG 300000Z 17010KT 15SM -SHRA BKN025 OVC040 06/04 A3006 RMK SC5SC3 VIS S-W 6 SLP182

CYYG;2012-05-30 00:41;CYYG 300041Z 15005KT 10SM -SHRA FEW007 OVC010 05/ RMK CF2SC6

CYYG;2012-05-30 01:00;CYYG 300100Z 13005KT 15SM -SHRA FEW007 OVC017 05/05 A3007 RMK CF2SC6 SLP185

CYYG;2012-05-30 01:13;CYYG 300113Z 15005KT 15SM BKN008 OVC020 06/ RMK CF5SC3

CYYG;2012-05-30 01:44;CYYG 300144Z 15008KT 15SM FEW008 BKN025 OVC060 06/ RMK CF2SC4SC2

CYYG;2012-05-30 02:00;CYYG 300200Z 15008KT 15SM FEW008 FEW025 OVC060 06/05 A3004 RMK CF1SC2SC6 SLP173

CYYG;2012-05-30 03:00;CYYG 300300Z 14007KT 15SM FEW025 OVC035 06/05 A3005 RMK SC2SC6 SLP176

CYYG;2012-05-30 04:00;CYYG 300400Z 12008KT 15SM OVC032 06/04 A3002 RMK SC8 SLP166

CYYG;2012-05-30 05:00;CYYG 300500Z 14007KT 15SM OVC033 06/03 A2998 RMK SC8 SLP155

CYYG;2012-05-30 06:00;CYYG 300600Z 16005KT 15SM OVC032 07/03 A3000 RMK SC8 SLP160

CYYG;2012-05-30 07:00;CYYG 300700Z 14010KT 15SM FEW022 OVC045 07/03 A2995 RMK SC2SC6 SLP144

CYYG;2012-05-30 07:18;CYYG 300718Z 13010KT 15SM -SHRA FEW022 OVC048 07/ RMK SC2SC6

CYYG;2012-05-30 08:00;CYYG 300800Z 17011KT 4SM SHRA BR BKN020 OVC045 06/04 A2995 RMK SC6SC2 SLP142

CYYG;2012-05-30 09:00;CYYG 300900Z 15010G16KT 15SM -SHRA FEW006 BKN020 OVC050 06/05 A2993 RERA RMK SF1SC6SC2 SLP135

CYYG;2012-05-30 10:00;CYYG 301000Z 14013KT 8SM -SHRA FEW006 BKN020 OVC031 06/05 A2989 RMK SF1SC6SC2 SLP122

CYYG;2012-05-30 11:00;CYYG 301100Z 15012G17KT 7SM -SHRA FEW006 BKN012 OVC020 06/05 A2987 RMK SF2SF4SC2 SLP116

CYYG;2012-05-30 11:15;CYYG 301115Z 15014KT 7SM -SHRA BKN007 OVC012 06/ RMK SF6SF2

CYYG;2012-05-30 11:34;CYYG 301134Z 14009G16KT 3SM -SHRA BR BKN006 OVC008 06/ RMK SF6SF2

CYYG;2012-05-30 12:00;CYYG 301200Z 14011G16KT 5SM -SHRA BR BKN007 OVC019 06/06 A2987 RMK SF6SC2 SLP118

CYYG;2012-05-30 12:49;CYYG 301249Z 11008KT 2 1/2SM SHRA BR SCT005 OVC008 06/ RMK SF3SF5

CYYG;2012-05-30 13:00;CYYG 301300Z 13008KT 2 1/2SM SHRA BR SCT004 OVC009 06/06 A2985 RMK SF3SF5 SLP108

CYYG;2012-05-30 13:44;CYYG 301344Z 13010KT 6SM -SHRA BR SCT003 OVC005 06/ RERA RMK SF3SF5

CYYG;2012-05-30 14:00;CYYG 301400Z 13009KT 7SM -SHRA SCT003 OVC005 06/06 A2984 RERA RMK SF3SF5 SLP106

CYYG;2012-05-30 15:00;CYYG 301500Z 13010KT 8SM -SHRA BKN005 OVC014 07/07 A2982 RMK SF5SC3 SLP099

CYYG;2012-05-30 15:49;CYYG 301549Z 12010G15KT 3SM -SHRA BR OVC005 07/ RERA RMK SF8

CYYG;2012-05-30 16:00;CYYG 301600Z 13010KT 3SM -SHRA BR OVC005 07/07 A2979 RERA RMK SF8 SLP090

CYYG;2012-05-30 16:26;CYYG 301626Z 13014KT 2SM -SHRA BR OVC005 07/ RMK FG2SF6

CYYG;2012-05-30 17:00;CYYG 301700Z 12011KT 2SM -DZ BR FEW002 OVC005 07/07 A2978 RMK SF2SF6 SLP087

CYYG;2012-05-30 18:00;CYYG 301800Z 13009KT 2SM -DZ BR BKN003 OVC005 07/07 A2976 RMK SF6SF2 SLP080

CYYG;2012-05-30 19:00;CYYG 301900Z 12008KT 2 1/2SM -DZ BR OVC004 08/08 A2974 RMK FG2SF6 SLP074

CYYG;2012-05-30 20:00;CYYG 302000Z 12012KT 2 1/2SM -DZ BR FEW002 OVC005 08/08 A2972 RMK SF2SF6 SLP066

CYYG;2012-05-30 20:50;CYYG 302050Z 13009KT 6SM -DZ BR OVC004 08/ RMK SF8

CYYG;2012-05-30 21:00;CYYG 302100Z 14008KT 6SM -DZ BR OVC004 08/08 A2971 RMK SF8 SLP064

CYYG;2012-05-30 22:00;CYYG 302200Z 14006KT 6SM -DZ BR OVC004 08/08 A2974 RMK SF8 SLP071

CYYG;2012-05-30 22:44;CYYG 302244Z 14005KT 2 1/2SM -DZ BR OVC003 08/ RMK SF8

CYYG;2012-05-30 23:00;CYYG 302300Z 14005KT 6SM -DZ BR OVC003 08/08 A2974 RMK SF8 SLP071

CYYG;2012-05-31 00:00;CYYG 310000Z 13004KT 5SM -DZ BR OVC004 08/08 A2974 RMK SF8 SLP074

CYYG;2012-05-31 00:28;CYYG 310028Z 13004KT 2 1/2SM -DZ BR OVC004 08/ RMK SF8

CYYG;2012-05-31 01:00;CYYG 310100Z 17002KT 2 1/2SM -DZ BR OVC004 08/08 A2976 RMK SF8 SLP080

CYYG;2012-05-31 02:00;CYYG 310200Z 14002KT 1SM R03/P6000FT/D BR OVC003 08/08 A2978 RMK FG4SF4 SLP085

CYYG;2012-05-31 02:10;CYYG 310210Z 00000KT 5/8SM R03/5500FT/D BR VV002 08/ RMK FG8

CYYG;2012-05-31 02:35;CYYG 310235Z 00000KT 5/8SM R03/4500FT/N -SHRA BR OVC003 08/ RMK FG6SF2

CYYG;2012-05-31 03:00;CYYG 310300Z 00000KT 3/4SM R03/P6000FT/U -SHRA BR OVC003 08/08 A2977 RMK FG5SF3 SLP084

CYYG;2012-05-31 03:14;CYYG 310314Z 09002KT 2SM BR OVC004 08/ RMK SF8

CYYG;2012-05-31 04:00;CYYG 310400Z 00000KT 2 1/2SM BR SCT003 OVC008 08/08 A2977 RMK SF3SF5 SLP083

CYYG;2012-05-31 04:37;CYYG 310437Z 00000KT 2 1/2SM BR BKN002 OVC008 08/ RMK SF5SF3

CYYG;2012-05-31 05:00;CYYG 310500Z 00000KT 2 1/2SM BR SCT003 OVC006 08/08 A2977 RMK SF3SF5 SLP082

CYYG;2012-05-31 05:46;CYYG 310546Z 26002KT 2 1/2SM -DZ BR BKN003 OVC005 09/ RMK SF6SF2

CYYG;2012-05-31 06:00;CYYG 310600Z 00000KT 2 1/2SM -DZ BR BKN003 OVC005 09/09 A2977 RMK SF5SF3 SLP084

CYYG;2012-05-31 07:00;CYYG 310700Z 30003KT 2SM -DZ BR OVC003 09/09 A2979 RMK SF8 SLP088

CYYG;2012-05-31 08:00;CYYG 310800Z 31003KT 2SM -DZ BR OVC004 09/09 A2979 RMK SF8 SLP088

CYYG;2012-05-31 08:29;CYYG 310829Z 33003KT 3SM -DZ BR FEW002 OVC006 09/ RMK SF2SF6

CYYG;2012-05-31 08:50;CYYG 310850Z 32002KT 6SM BR FEW002 SCT006 OVC010 09/ RMK SF1SF2SC5

CYYG;2012-05-31 09:00;CYYG 310900Z 33002KT 6SM BR FEW002 FEW006 OVC010 09/09 A2980 RMK SF1SF2SC6 SLP093

CYYG;2012-05-31 09:21;CYYG 310921Z 32003KT 6SM BR BKN002 OVC010 09/ RMK SF5SC3 VIS NW-NE 2 SUN OCNL VISBL

CYYG;2012-05-31 10:00;CYYG 311000Z 28004KT 2 1/2SM BR OVC004 09/09 A2982 RMK SF8 SLP099

CYYG;2012-05-31 10:48;CYYG 311048Z 32004KT 15SM FEW004 BKN014 09/ RMK SF2SC5

CYYG;2012-05-31 11:00;CYYG 311100Z 34003KT 15SM SCT004 BKN014 09/09 A2982 RMK SF4SC3 VIS NW-NE 3 SLP101

CYYG;2012-05-31 11:37;CYYG 311137Z 35003KT 15SM BKN006 BKN012 10/ RMK SF6SC2 VIS LWR N-E

CYYG;2012-05-31 12:00;CYYG 311200Z 00000KT 15SM FEW006 BKN012 10/10 A2984 RMK SF2SC6 SLP105

CYYG;2012-05-31 12:25;CYYG 311225Z 02005KT 15SM BKN008 11/ RMK SC7

CYYG;2012-05-31 13:00;CYYG 311300Z 34002KT 15SM OVC009 11/10 A2985 RMK SC8 SLP108

CYYG;2012-05-31 14:00;CYYG 311400Z 32003KT 15SM OVC009 11/10 A2983 RMK SC8 SLP104

CYYG;2012-05-31 15:00;CYYG 311500Z 00000KT 15SM OVC009 12/10 A2983 RMK SC8 SLP103

CYYG;2012-05-31 15:29;CYYG 311529Z 19005KT 15SM OVC010 12/ RMK SC8

CYYG;2012-05-31 16:00;CYYG 311600Z 21002KT 15SM OVC010 12/10 A2984 RMK SC8 SLP105

CYYG;2012-05-31 17:00;CYYG 311700Z 16002KT 15SM OVC011 12/10 A2982 RMK SC8 SLP101

CYYG;2012-05-31 18:00;CYYG 311800Z 09004KT 15SM OVC008 12/10 A2984 RMK SC8 SLP105

CYYG;2012-05-31 18:17;CYYG 311817Z 10004KT 15SM FEW008 OVC012 12/ RMK SF1SC7

CYYG;2012-05-31 19:00;CYYG 311900Z 18006KT 15SM OVC014 12/10 A2983 RMK SC8 SLP104

CYYG;2012-05-31 20:00;CYYG 312000Z 14004KT 15SM OVC014 12/10 A2982 RMK SC8 SLP100

CYYG;2012-05-31 21:00;CYYG 312100Z 09003KT 15SM FEW013 OVC063 12/10 A2983 RMK SC2SC6 SLP101

CYYG;2012-05-31 22:00;CYYG 312200Z 08003KT 15SM BKN012 OVC063 12/10 A2983 RMK SC5SC3 SLP102

CYYG;2012-05-31 22:20;CYYG 312220Z 05003KT 15SM SCT012 OVC063 12/ RMK SC3SC5

CYYG;2012-05-31 23:00;CYYG 312300Z 36003KT 15SM FEW012 BKN026 OVC060 11/10 A2984 RMK SC2SC2SC3 SLP105

CYYG;2012-06-01 00:00;CYYG 010000Z 01003KT 12SM -SHRA FEW012 BKN025 OVC040 11/10 A2985 RMK SC2SC2SC3 SLP111

CYYG;2012-06-01 00:44;CYYG 010044Z 02002KT 12SM -SHRA BKN011 OVC025 10/ RMK SC6SC2

CYYG;2012-06-01 01:00;CYYG 010100Z 01002KT 8SM -SHRA OVC011 10/10 A2986 RMK SC8 SLP114

CYYG;2012-06-01 01:46;CYYG 010146Z 00000KT 8SM -SHRA OVC009 10/ RMK SF8

CYYG;2012-06-01 02:00;CYYG 010200Z 00000KT 10SM -SHRA FEW006 OVC010 10/10 A2986 RMK SF2SF6 SLP112

CYYG;2012-06-01 02:10;CYYG 010210Z 32003KT 10SM -SHRA BKN006 OVC011 10/ RMK SF5SF3

CYYG;2012-06-01 03:00;CYYG 010300Z 33003KT 7SM -DZ BKN007 OVC011 10/10 A2987 RMK SF6SF2 SLP116

CYYG;2012-06-01 03:17;CYYG 010317Z 33003KT 4SM -DZ BR FEW001 BKN006 OVC010 10/ RMK SF1SF6SF2

CYYG;2012-06-01 04:00;CYYG 010400Z 33022KT 6SM -DZ BR SCT002 OVC007 10/10 A2987 RMK SF3SF5 SLP116

CYYG;2012-06-01 04:28;CYYG 010428Z 32005KT 6SM -DZ BR OVC004 10/ RMK SF8

CYYG;2012-06-01 04:42;CYYG 010442Z 32004KT 3SM -DZ BR OVC002 10/ RMK SF8

CYYG;2012-06-01 05:00;CYYG 010500Z 33003KT 7SM -DZ OVC003 10/10 A2987 RMK SF8 PCPN VRY LGT SLP118

CYYG;2012-06-01 06:00;CYYG 010600Z 32006KT 8SM BKN004 OVC021 10/10 A2987 RMK SF6SC2 SLP116

CYYG;2012-06-01 07:00;CYYG 010700Z 33005KT 12SM FEW006 BKN012 09/09 A2988 RMK SF2SC4 SLP119

CYYG;2012-06-01 08:00;CYYG 010800Z 33004KT 15SM FEW008 BKN040 09/09 A2988 RMK SF2SC3 SLP121

CYYG;2012-06-01 08:50;CYYG 010850Z 34003KT 12SM SCT004 BKN014 BKN060 09/ RMK SF3SC3SC1

CYYG;2012-06-01 09:00;CYYG 010900Z 31003KT 12SM SCT004 BKN014 BKN060 09/09 A2990 RMK SF3SC3SC1 SLP128

CYYG;2012-06-01 09:50;CYYG 010950Z 32004KT 12SM BKN009 BKN014 09/ RMK SF5SC2

CYYG;2012-06-01 10:00;CYYG 011000Z 34004KT 12SM -SHRA BKN009 OVC014 09/09 A2993 RMK SF6SC2 VIS LWR W-N SLP135

CYYG;2012-06-01 10:14;CYYG 011014Z 32004KT 10SM -DZ BKN006 OVC010 09/ RMK SF6SC2

CYYG;2012-06-01 10:31;CYYG 011031Z 34005KT 2SM -DZ BR BKN005 OVC008 09/ RMK SF6SF2

CYYG;2012-06-01 11:00;CYYG 011100Z 31005KT 2SM -DZ BR BKN004 OVC008 09/09 A2995 RMK SF6SF2 SLP143

CYYG;2012-06-01 12:00;CYYG 011200Z 34003KT 2SM -DZ BR OVC004 09/09 A2995 RMK SF8 SLP144

CYYG;2012-06-01 13:00;CYYG 011300Z 34003KT 5SM -DZ BR OVC006 10/10 A2996 RMK SF8 VIS W 15 SLP146

CYYG;2012-06-01 13:54;CYYG 011354Z 33005KT 15SM SCT007 OVC015 11/ RMK SF4SC4 VIS LWR W-NW

CYYG;2012-06-01 14:00;CYYG 011400Z 34006KT 15SM SCT007 OVC014 11/10 A2996 RMK SF4SC4 VIS LWR W-NW SLP146

CYYG;2012-06-01 14:18;CYYG 011418Z 34009KT 5SM -DZ BR OVC007 11/ RMK SF8 VIS SE-SW 15

CYYG;2012-06-01 14:36;CYYG 011436Z 36010KT 2SM -DZ BR OVC004 10/ RMK SF8

CYYG;2012-06-01 15:00;CYYG 011500Z 35008KT 3SM -DZ BR BKN005 OVC011 09/09 A2998 RMK SF6SF2 SLP154

CYYG;2012-06-01 15:24;CYYG 011524Z 35005KT 15SM OVC007 10/ RMK SF8 VIS LWR E-SE

CYYG;2012-06-01 16:00;CYYG 011600Z 36012KT 15SM OVC009 10/08 A2999 RMK SC8 SLP157

CYYG;2012-06-01 16:16;CYYG 011616Z 34008KT 15SM OVC012 10/ RMK SC8

CYYG;2012-06-01 17:00;CYYG 011700Z 36006KT 15SM BKN014 11/08 A3000 RMK SC7 SLP160

CYYG;2012-06-01 18:00;CYYG 011800Z 34009G16KT 15SM BKN016 11/07 A3001 RMK SC7 SLP164

CYYG;2012-06-01 19:00;CYYG 011900Z 33010G15KT 15SM FEW018 FEW080 13/08 A3001 RMK CU1AC1 SLP163

CYYG;2012-06-01 20:00;CYYG 012000Z 01010KT 15SM FEW018 FEW037 BKN045 12/07 A3002 RMK CU1SC2SC3 SLP167

CYYG;2012-06-01 21:00;CYYG 012100Z 02008KT 15SM FEW018 FEW033 FEW045 12/08 A3001 RMK CU1SC1SC1 SLP165

CYYG;2012-06-01 22:00;CYYG 012200Z 35008KT 15SM FEW018 FEW045 12/08 A3003 RMK CU1SC1 SLP171

CYYG;2012-06-01 23:00;CYYG 012300Z 35007KT 15SM FEW015 FEW045 11/07 A3004 RMK SC1SC1 SLP175

CYYG;2012-06-02 00:00;CYYG 020000Z 36003KT 15SM FEW015 09/07 A3005 RMK SC1 SLP176

CYYG;2012-06-02 01:00;CYYG 020100Z 30002KT 15SM MIFG FEW015 08/06 A3007 RMK SC1 SLP183

CYYG;2012-06-02 02:00;CYYG 020200Z 29002KT 15SM MIFG FEW015 06/05 A3008 RMK SC1 SLP187

CYYG;2012-06-02 03:00;CYYG 020300Z 31003KT 15SM MIFG SKC 06/05 A3008 RMK OBS TAKEN +08 SLP187

CYYG;2012-06-02 04:00;CYYG 020400Z 30003KT 15SM MIFG SKC 06/05 A3008 RMK SLP187

CYYG;2012-06-02 05:00;CYYG 020500Z 31003KT 15SM SKC 06/05 A3009 RMK SLP189

CYYG;2012-06-02 06:00;CYYG 020600Z 27006KT 15SM MIFG SKC 07/06 A3010 RMK SLP194

CYYG;2012-06-02 07:00;CYYG 020700Z 32003KT 15SM FEW250 06/05 A3010 RMK CI0 SLP194

CYYG;2012-06-02 08:00;CYYG 020800Z 32003KT 15SM FEW060 FEW250 05/04 A3010 RMK SC1CI0 SLP194

CYYG;2012-06-02 09:00;CYYG 020900Z 31003KT 15SM FEW060 FEW250 05/04 A3011 RMK SC1CI0 FOG OVR RIVER E SLP198

CYYG;2012-06-02 10:00;CYYG 021000Z 26002KT 15SM FEW060 FEW250 09/08 A3012 RMK SC1CI0 SLP200

CYYG;2012-06-02 11:00;CYYG 021100Z 27004KT 15SM FEW020 FEW300 12/10 A3013 RMK SC1CI1 CONTRAILS SLP203

CYYG;2012-06-02 12:00;CYYG 021200Z 32004KT 15SM FEW300 14/10 A3012 RMK CI1 CONTRAILS SLP202

CYYG;2012-06-02 13:00;CYYG 021300Z 03007KT 15SM FEW030 FEW300 16/09 A3011 RMK CU1CI1 SLP197

CYYG;2012-06-02 14:00;CYYG 021400Z 03008KT 15SM FEW030 FEW300 16/09 A3011 RMK CU1CI0 CONTRAILS SLP197

CYYG;2012-06-02 15:00;CYYG 021500Z 01009G15KT 15SM FEW035 FEW300 17/10 A3011 RMK CU1CI1 CONTRAILS SLP197

CYYG;2012-06-02 16:00;CYYG 021600Z 02009KT 15SM FEW050 BKN300 17/10 A3012 RMK SC1CI1 SLP199

CYYG;2012-06-02 17:00;CYYG 021700Z 34007KT 15SM FEW050 BKN300 18/10 A3011 RMK SC1CI2 SLP198

CYYG;2012-06-02 18:00;CYYG 021800Z 36006KT 15SM FEW050 BKN300 18/09 A3010 RMK SC1CI2 SLP195

CYYG;2012-06-02 19:00;CYYG 021900Z 04009KT 15SM FEW050 BKN300 17/10 A3009 RMK CU1CS2 SLP189

CYYG;2012-06-02 20:00;CYYG 022000Z 02012KT 15SM FEW050 BKN300 16/10 A3009 RMK CU1CS2 SLP190

CYYG;2012-06-02 21:00;CYYG 022100Z 04010KT 15SM FEW050 BKN300 14/10 A3010 RMK SC1CS2 SLP194

CYYG;2012-06-02 22:00;CYYG 022200Z 03007KT 15SM FEW010 FEW050 FEW140 BKN300 13/09 A3011 RMK SF1SC1AC1CI1 SLP198

CYYG;2012-06-02 23:00;CYYG 022300Z 04009KT 15SM FEW010 FEW140 BKN300 11/09 A3010 RMK SC1AC1CI3 SLP193

CYYG;2012-06-03 00:00;CYYG 030000Z 06011KT 15SM FEW010 FEW140 BKN300 10/08 A3009 RMK SC1AC1CI3 SLP190

CYYG;2012-06-03 01:00;CYYG 030100Z 06009KT 15SM FEW140 BKN300 09/06 A3009 RMK AC1CI3 SLP191

CYYG;2012-06-03 02:00;CYYG 030200Z 08004KT 15SM FEW140 BKN240 08/06 A3008 RMK AC1CI4 SLP188

CYYG;2012-06-03 03:00;CYYG 030300Z 05005KT 15SM BKN220 07/06 A3007 RMK CI6 SLP185

CYYG;2012-06-03 04:00;CYYG 030400Z 03002KT 15SM BKN220 06/05 A3008 RMK CI6 SLP186

CYYG;2012-06-03 05:00;CYYG 030500Z 02005KT 15SM BKN220 06/05 A3007 RMK CI6 SLP184

CYYG;2012-06-03 06:00;CYYG 030600Z 05005KT 15SM BKN220 06/06 A3006 RMK CI6 SLP182

CYYG;2012-06-03 07:00;CYYG 030700Z 04005KT 15SM OVC230 07/06 A3005 RMK CI6 SLP178

CYYG;2012-06-03 08:00;CYYG 030800Z 05007KT 15SM BKN230 07/06 A3002 RMK CI6 SLP168

CYYG;2012-06-03 09:00;CYYG 030900Z 05007KT 15SM FEW010 BKN230 07/06 A3002 RMK SF1CI3 SLP166

CYYG;2012-06-03 10:00;CYYG 031000Z 07006KT 15SM FEW010 BKN230 08/08 A3002 RMK SF1CI3 SLP166

CYYG;2012-06-03 11:00;CYYG 031100Z 07007KT 15SM FEW010 FEW030 BKN220 BKN310 10/08 A3002 RMK SF1SC1CC5CI0 SLP166

CYYG;2012-06-03 12:00;CYYG 031200Z 08006KT 15SM FEW012 FEW030 BKN220 BKN310 12/09 A3002 RMK CF1SC1CC4CI0 SLP166

CYYG;2012-06-03 13:00;CYYG 031300Z 09007KT 15SM FEW018 FEW220 SCT310 14/09 A3001 RMK CF1CC1CI0 SLP164

CYYG;2012-06-03 14:00;CYYG 031400Z 09011KT 15SM BKN034 BKN220 BKN310 16/09 A2999 RMK CU5CC1CI0 SLP158

CYYG;2012-06-03 15:00;CYYG 031500Z 04012KT 15SM BKN038 BKN220 BKN310 15/10 A2998 RMK SC5CC1CI0 CU ASOCTD SLP155

CYYG;2012-06-03 16:00;CYYG 031600Z 04009KT 15SM BKN038 BKN310 15/10 A2998 RMK SC6CI0 CU ASOCTD SLP152

CYYG;2012-06-03 17:00;CYYG 031700Z 04010KT 15SM BKN038 BKN310 15/10 A2996 RMK SC6CI0 SLP147

CYYG;2012-06-03 18:00;CYYG 031800Z 03013KT 15SM BKN045 BKN310 15/10 A2995 RMK SC5CI0 CU ASOCTD SLP142

CYYG;2012-06-03 19:00;CYYG 031900Z 03016KT 15SM FEW015 FEW045 BKN210 14/09 A2993 RMK CF1SC2CS2 SLP137

CYYG;2012-06-03 20:00;CYYG 032000Z 04014G20KT 15SM FEW010 FEW045 BKN210 13/09 A2992 RMK SF1SC1CS5 SF NW-NE SLP134

CYYG;2012-06-03 21:00;CYYG 032100Z 06015G21KT 15SM FEW010 FEW040 SCT210 BKN270 12/07 A2991 RMK SF1SC1CC3CI2 SLP129

CYYG;2012-06-03 22:00;CYYG 032200Z 05013KT 15SM FEW040 FEW210 BKN270 12/07 A2992 RMK SC1CC2CI2 SLP134

CYYG;2012-06-03 23:00;CYYG 032300Z 06016G21KT 15SM FEW040 FEW210 BKN270 11/04 A2990 RMK SC1CC2CI2 SLP128

CYYG;2012-06-04 00:00;CYYG 040000Z 05008KT 15SM FEW055 SCT210 BKN270 10/04 A2990 RMK SC2CC2CI2 SLP127

CYYG;2012-06-04 01:00;CYYG 040100Z 05011KT 15SM FEW055 SCT220 BKN270 09/05 A2989 RMK SC2CC2CI2 SLP123

CYYG;2012-06-04 02:00;CYYG 040200Z 05014KT 15SM FEW055 FEW220 BKN270 09/06 A2986 RMK SC1CC2CI2 SLP113

CYYG;2012-06-04 03:00;CYYG 040300Z 05013KT 15SM SCT220 BKN270 09/05 A2985 RMK CC3CI2 SLP110

CYYG;2012-06-04 04:00;CYYG 040400Z 06011KT 15SM SCT210 09/06 A2985 RMK CI2 SLP109

CYYG;2012-06-04 05:00;CYYG 040500Z 05009KT 15SM BKN210 08/06 A2984 RMK CI2 SLP105

CYYG;2012-06-04 06:00;CYYG 040600Z 06009KT 15SM SCT210 08/06 A2982 RMK CI2 SLP099

CYYG;2012-06-04 07:00;CYYG 040700Z 04009KT 15SM SCT210 08/07 A2981 RMK CI2 SLP096

CYYG;2012-06-04 08:00;CYYG 040800Z 05011G16KT 15SM FEW010 BKN240 08/07 A2979 RMK SF1CI5 SLP089

CYYG;2012-06-04 09:00;CYYG 040900Z 05009KT 15SM FEW010 BKN230 08/07 A2979 RMK SF1CI6 SLP088

CYYG;2012-06-04 10:00;CYYG 041000Z 07012KT 15SM FEW040 BKN230 10/08 A2980 RMK SC2CI5 SLP091

CYYG;2012-06-04 11:00;CYYG 041100Z 05012KT 15SM BKN030 OVC250 11/08 A2979 RMK SC5CI2 SLP090

CYYG;2012-06-04 12:00;CYYG 041200Z 05018KT 15SM BKN017 OVC250 12/08 A2980 RMK SC6CI1 SLP092

CYYG;2012-06-04 13:00;CYYG 041300Z 05019G24KT 15SM BKN020 OVC250 11/07 A2979 RMK SC7CI0 SLP089

CYYG;2012-06-04 14:00;CYYG 041400Z 05015G21KT 15SM BKN018 OVC250 11/08 A2979 RMK SC7CI0 SLP090

CYYG;2012-06-04 15:00;CYYG 041500Z 03017KT 15SM OVC017 11/08 A2979 RMK SC8 SLP089

CYYG;2012-06-04 16:00;CYYG 041600Z 04016G21KT 15SM BKN015 OVC250 11/08 A2979 RMK SC7CI0 SLP090

CYYG;2012-06-04 16:13;CYYG 041613Z 04020G25KT 15SM OVC013 11/ RMK SC8

CYYG;2012-06-04 17:00;CYYG 041700Z 04015G21KT 15SM OVC013 11/08 A2979 RMK SC8 SLP089

CYYG;2012-06-04 18:00;CYYG 041800Z 04021G27KT 15SM OVC012 10/07 A2979 RMK SC8 SLP091

CYYG;2012-06-04 18:32;CYYG 041832Z 05018G28KT 15SM OVC010 09/ RMK SC8

CYYG;2012-06-04 19:00;CYYG 041900Z 04017G22KT 15SM OVC010 09/07 A2980 RMK SC8 SLP092

CYYG;2012-06-04 20:00;CYYG 042000Z 05019G27KT 12SM BKN011 OVC030 09/07 A2980 RMK SC7SC1 SLP094

CYYG;2012-06-04 20:22;CYYG 042022Z 04017G22KT 10SM -SHRA OVC010 09/ RMK SC8

CYYG;2012-06-04 21:00;CYYG 042100Z 03016KT 8SM -SHRA BKN010 OVC035 09/08 A2979 RMK SC6SC2 SLP089

CYYG;2012-06-04 21:39;CYYG 042139Z 03015KT 8SM VCSH BKN009 OVC040 09/ RMK SC7SC1

CYYG;2012-06-04 22:00;CYYG 042200Z 03015KT 10SM VCSH BKN009 OVC014 09/08 A2979 RMK SC7SC1 SLP088

CYYG;2012-06-04 23:00;CYYG 042300Z 03014G19KT 12SM VCSH BKN008 BKN014 OVC036 08/07 A2979 RMK SF6SC1SC1 SLP088

CYYG;2012-06-04 23:28;CYYG 042328Z 03015KT 10SM -SHRA BKN008 BKN014 OVC037 08/ RMK SF6SC1SC1

CYYG;2012-06-05 00:00;CYYG 050000Z 03014KT 10SM -SHRA BKN008 OVC037 08/07 A2978 RMK SF6SC2 SLP085

CYYG;2012-06-05 01:00;CYYG 050100Z 04014KT 10SM -SHRA BKN008 OVC038 08/07 A2977 RMK SF6SC2 SLP083

CYYG;2012-06-05 02:00;CYYG 050200Z 04011G17KT 12SM SCT008 OVC038 08/08 A2976 RMK SF4SC4 SLP078

CYYG;2012-06-05 03:00;CYYG 050300Z 04011G16KT 15SM SCT008 OVC046 08/07 A2975 RMK SF3SC5 SLP076

CYYG;2012-06-05 04:00;CYYG 050400Z 03011KT 15SM FEW008 OVC046 08/07 A2975 RMK SF2SC6 SLP076

CYYG;2012-06-05 05:00;CYYG 050500Z CCA 03011KT 15SM -SHRA BKN011 OVC045 08/07 A2975 RMK SC6SC2 SLP075

CYYG;2012-06-05 06:00;CYYG 050600Z 03011KT 10SM -SHRA BKN011 OVC037 08/07 A2975 RMK SC5SC3 SLP074

CYYG;2012-06-05 07:00;CYYG 050700Z 04010G17KT 10SM -SHRA BKN008 OVC034 08/08 A2974 RMK SF5SC3 SLP071

CYYG;2012-06-05 08:00;CYYG 050800Z 04012KT 10SM -SHRA BKN008 OVC028 08/08 A2975 RMK SF5SC3 SLP076

CYYG;2012-06-05 09:00;CYYG 050900Z 04011G16KT 10SM -SHRA BKN009 OVC025 08/07 A2976 RMK SF6SC2 SLP079

CYYG;2012-06-05 10:00;CYYG 051000Z 04012KT 10SM -SHRA BKN008 OVC025 08/07 A2977 RMK SF6SC2 SLP082

CYYG;2012-06-05 10:45;CYYG 051045Z 04014KT 4SM -SHRA BR BKN005 OVC017 08/ RMK SF6SC2

CYYG;2012-06-05 11:00;CYYG 051100Z 04013KT 4SM -SHRA BR OVC005 08/08 A2978 RMK SF8 SLP085

CYYG;2012-06-05 12:00;CYYG 051200Z 04012G17KT 8SM -SHRA OVC006 08/08 A2979 RMK SF8 SLP090

CYYG;2012-06-05 13:00;CYYG 051300Z 04015G20KT 8SM -SHRA OVC006 09/08 A2979 RMK SF8 SLP091

CYYG;2012-06-05 14:00;CYYG 051400Z 04014G19KT 8SM -SHRA OVC007 09/08 A2980 RMK SF8 SLP094

CYYG;2012-06-05 15:00;CYYG 051500Z 04013G19KT 10SM -SHRA OVC008 09/08 A2981 RMK SF8 SLP097

CYYG;2012-06-05 16:00;CYYG 051600Z 04016KT 10SM -SHRA OVC008 09/08 A2983 RMK SF8 PCPN VRY LGT SLP102

CYYG;2012-06-05 17:00;CYYG 051700Z 03017KT 12SM -SHRA BKN010 OVC021 10/08 A2983 RMK SF7SC1 PCPN VRY LGT SLP103

CYYG;2012-06-05 18:00;CYYG 051800Z 04015G20KT 12SM -SHRA FEW010 OVC013 10/08 A2983 RMK SF2SC6 SLP104

CYYG;2012-06-05 18:27;CYYG 051827Z 04016G22KT 12SM -SHRA BKN008 OVC014 09/ RMK SF5SC3

CYYG;2012-06-05 19:00;CYYG 051900Z 04018KT 12SM -SHRA BKN008 OVC014 09/08 A2984 RMK SF6SC2 SLP105

CYYG;2012-06-05 20:00;CYYG 052000Z 03014G19KT 12SM -SHRA OVC009 09/08 A2983 RMK SF8 SLP103

CYYG;2012-06-05 21:00;CYYG 052100Z 03016KT 12SM -SHRA BKN009 OVC023 09/07 A2982 RMK SF6SC2 PCPN VRY LGT SLP101

CYYG;2012-06-05 21:39;CYYG 052139Z 02011G16KT 10SM -DZ BKN006 OVC025 08/ RMK SF6SC2 OCNL -SHRA

CYYG;2012-06-05 22:00;CYYG 052200Z 03011KT 10SM -DZ OVC006 08/08 A2982 RMK SF8 SLP101

CYYG;2012-06-05 23:00;CYYG 052300Z 03012G17KT 8SM -DZ OVC007 08/07 A2983 RMK SF8 SLP103

CYYG;2012-06-05 23:16;CYYG 052316Z 02011G18KT 8SM OVC006 08/ RMK SF8

CYYG;2012-06-06 00:00;CYYG 060000Z 02014KT 6SM BR OVC006 08/07 A2983 RMK SF8 SLP102

CYYG;2012-06-06 01:00;CYYG 060100Z 02012G17KT 6SM BR OVC006 08/07 A2983 RMK SF8 SLP103

CYYG;2012-06-06 02:00;CYYG 060200Z 01008KT 10SM OVC007 08/07 A2982 RMK SF8 SLP100

CYYG;2012-06-06 02:30;CYYG 060230Z 02014KT 10SM -SHRA OVC006 08/ RMK SF8

CYYG;2012-06-06 03:00;CYYG 060300Z 01013KT 10SM -SHRA OVC006 08/07 A2980 RMK SF8 SLP094

CYYG;2012-06-06 04:00;CYYG 060400Z 01009G15KT 10SM -SHRA OVC004 08/08 A2980 RMK SF8 SLP092

CYYG;2012-06-06 04:29;CYYG 060429Z 02009KT 10SM -DZ OVC005 08/ RMK SF8

CYYG;2012-06-06 05:00;CYYG 060500Z 02011KT 5SM -DZ BR OVC004 08/08 A2979 RMK SF8 SLP089

CYYG;2012-06-06 06:00;CYYG 060600Z 01008KT 3SM -DZ BR BKN004 OVC013 08/08 A2979 RMK SF6SC2 SLP090

CYYG;2012-06-06 07:00;CYYG 060700Z 01008KT 3SM -DZ BR OVC003 08/08 A2978 RMK SF8 SLP087

CYYG;2012-06-06 08:00;CYYG 060800Z 01006KT 3SM -DZ BR OVC004 08/08 A2979 RMK SF8 SLP089

CYYG;2012-06-06 09:00;CYYG 060900Z 36007KT 2SM -DZ BR OVC003 08/08 A2978 RMK SF8 SLP086

CYYG;2012-06-06 09:22;CYYG 060922Z 03010KT 5SM -DZ BR OVC004 08/ RMK ST8

CYYG;2012-06-06 10:00;CYYG 061000Z 03015KT 8SM -DZ OVC005 08/08 A2979 RMK ST8 SLP089

CYYG;2012-06-06 11:00;CYYG 061100Z 02011G17KT 8SM -RADZ OVC006 08/08 A2980 RMK SF8 SLP094

CYYG;2012-06-06 11:27;CYYG 061127Z 01011KT 2SM -RADZ BR OVC006 08/ RMK SF8

CYYG;2012-06-06 12:00;CYYG 061200Z 02012G18KT 8SM -RADZ OVC005 08/08 A2982 RMK SF8 VIS NW-NE 2 SLP100

CYYG;2012-06-06 12:35;CYYG 061235Z 02014G20KT 2 1/2SM -RADZ BR OVC004 08/ RMK SF8

CYYG;2012-06-06 13:00;CYYG 061300Z 02013KT 2 1/2SM -RADZ BR OVC004 08/08 A2982 RMK SF8 SLP100

CYYG;2012-06-06 13:36;CYYG 061336Z 02014G19KT 5SM -RADZ BR OVC005 08/ RMK SF8

CYYG;2012-06-06 14:00;CYYG 061400Z 02011G19KT 6SM -RADZ BR OVC005 08/08 A2982 RMK SF8 SLP101

CYYG;2012-06-06 15:00;CYYG 061500Z 01013KT 8SM -RADZ OVC005 08/08 A2983 RMK SF8 SLP102

CYYG;2012-06-06 16:00;CYYG 061600Z 01013KT 8SM -RADZ OVC005 09/08 A2983 RMK SF8 SLP104

CYYG;2012-06-06 16:47;CYYG 061647Z 02015G20KT 4SM -RADZ OVC004 08/ RMK SF8

CYYG;2012-06-06 17:00;CYYG 061700Z 01011G20KT 3SM -RADZ BR OVC004 08/08 A2985 RMK SF8 VIS NW-NE 2 SLP108

CYYG;2012-06-06 17:24;CYYG 061724Z 01011G17KT 2SM -DZ BR OVC003 08/ RMK SF8

CYYG;2012-06-06 18:00;CYYG 061800Z 01010G18KT 1 1/2SM -DZ BR OVC003 08/08 A2985 RMK SF8 SLP110

CYYG;2012-06-06 19:00;CYYG 061900Z 02016G21KT 1 1/2SM -DZ BR OVC004 08/08 A2985 RMK SF8 SLP110

CYYG;2012-06-06 20:00;CYYG 062000Z 02016KT 2SM -DZ BR OVC005 08/08 A2986 RMK SF8 SLP112

CYYG;2012-06-06 20:39;CYYG 062039Z 02014KT 2 1/2SM -DZ BR OVC004 08/ RMK SF8

CYYG;2012-06-06 21:00;CYYG 062100Z 01012KT 5SM -DZ BR OVC006 08/07 A2986 RMK SF8 SLP113

CYYG;2012-06-06 22:00;CYYG 062200Z 02009G16KT 8SM -DZ OVC008 08/07 A2987 RMK SF8 PCPN VRY LGT SLP118

CYYG;2012-06-06 22:17;CYYG 062217Z 02014KT 10SM OVC009 08/ RMK SF8

CYYG;2012-06-06 23:00;CYYG 062300Z 02011KT 8SM -RA OVC009 08/07 A2989 RMK SF8 SLP123

CYYG;2012-06-06 23:46;CYYG 062346Z 02011G17KT 8SM -DZ OVC008 08/ RMK SF8

CYYG;2012-06-07 00:00;CYYG 070000Z 02011G17KT 8SM -DZ BKN007 OVC011 08/07 A2990 RMK SF6SF2 SLP125

CYYG;2012-06-07 00:32;CYYG 070032Z 02010KT 15SM FEW007 SCT038 BKN095 08/ RMK SF2SC2AC3

CYYG;2012-06-07 01:00;CYYG 070100Z 02010G15KT 15SM FEW007 SCT038 BKN095 08/07 A2990 RMK SF2SC2AC4 SLP128

CYYG;2012-06-07 02:00;CYYG 070200Z 01010KT 15SM BKN009 OVC074 08/07 A2990 RMK SF6AC2 SLP126

CYYG;2012-06-07 03:00;CYYG 070300Z 36006KT 15SM FEW008 SCT052 OVC081 07/07 A2990 RMK SF2SC2AC5 SLP127

CYYG;2012-06-07 04:00;CYYG 070400Z 36006KT 15SM BKN013 BKN074 OVC088 08/06 A2991 RMK SC5AC2AC2 SLP129

CYYG;2012-06-07 05:00;CYYG 070500Z 36005KT 15SM BKN015 BKN048 OVC084 07/06 A2990 RMK SC5SC1AC2 SLP125

CYYG;2012-06-07 06:00;CYYG 070600Z 34008KT 15SM BKN018 OVC050 08/06 A2990 RMK SC6SC2 SLP127

CYYG;2012-06-07 07:00;CYYG 070700Z 36010KT 15SM BKN016 BKN023 08/05 A2989 RMK SC5SC2 SLP122

CYYG;2012-06-07 08:00;CYYG 070800Z 36006KT 15SM FEW016 BKN150 07/06 A2989 RMK SC2AC5 SLP123

CYYG;2012-06-07 09:00;CYYG 070900Z 35004KT 15SM FEW014 FEW038 BKN100 BKN150 08/06 A2989 RMK SC1SC2AC3AC2 SLP123

CYYG;2012-06-07 09:14;CYYG 070914Z 35004KT 15SM BKN009 BKN110 08/ RMK SC6AC2

CYYG;2012-06-07 10:00;CYYG 071000Z 34007KT 15SM BKN008 OVC110 08/07 A2989 RMK SF6AC2 SLP123

CYYG;2012-06-07 10:03;CYYG 071003Z 35007KT 15SM FEW008 BKN017 OVC110 08/ RMK SF2SC4AC2

CYYG;2012-06-07 11:00;CYYG 071100Z 33006KT 15SM FEW008 OVC018 09/08 A2989 RMK SF2SC6 SLP124

CYYG;2012-06-07 12:00;CYYG 071200Z 33007KT 15SM FEW009 OVC029 09/08 A2988 RMK SF1SC7 SLP121

CYYG;2012-06-07 13:00;CYYG 071300Z 34009KT 15SM FEW008 BKN016 OVC032 09/07 A2988 RMK SF1SC6SC2 SLP120

CYYG;2012-06-07 14:00;CYYG 071400Z 33009KT 15SM FEW008 BKN017 OVC040 10/08 A2987 RMK SF1SC6SC2 SLP116

CYYG;2012-06-07 15:00;CYYG 071500Z 36010KT 15SM BKN016 BKN036 11/08 A2986 RMK SC5SC2 SLP113

CYYG;2012-06-07 16:00;CYYG 071600Z 35007KT 15SM BKN019 BKN032 11/08 A2986 RMK SC5SC2 SLP113

CYYG;2012-06-07 17:00;CYYG 071700Z 35008KT 15SM BKN020 11/08 A2985 RMK SC7 SLP110

CYYG;2012-06-07 18:00;CYYG 071800Z 33009KT 15SM SCT021 BKN260 12/08 A2985 RMK CF3CI1 SLP108

CYYG;2012-06-07 19:00;CYYG 071900Z 34008KT 15SM FEW020 BKN260 12/07 A2984 RMK CF2CI1 SLP106

CYYG;2012-06-07 20:00;CYYG 072000Z 36009KT 15SM FEW020 BKN260 12/04 A2985 RMK CF1CI1 SLP108

CYYG;2012-06-07 21:00;CYYG 072100Z 35006KT 15SM FEW020 SCT260 12/04 A2984 RMK CF1CI1 SLP106

CYYG;2012-06-07 22:00;CYYG 072200Z 36005KT 15SM FEW160 SCT260 12/04 A2984 RMK AC1CI1 SLP107

CYYG;2012-06-07 23:00;CYYG 072300Z 01003KT 15SM FEW160 BKN260 11/04 A2984 RMK AC1CI1 SLP107

CYYG;2012-06-08 00:00;CYYG 080000Z 32003KT 15SM BKN160 BKN260 11/05 A2985 RMK AC5CI1 SLP110

CYYG;2012-06-08 01:00;CYYG 080100Z 29002KT 15SM BKN130 BKN260 09/04 A2985 RMK AC5CI1 SLP110

CYYG;2012-06-08 02:00;CYYG 080200Z 27004KT 15SM BKN130 09/04 A2984 RMK AC6 SLP107

CYYG;2012-06-08 03:00;CYYG 080300Z 26004KT 15SM BKN140 10/05 A2984 RMK AC6 SLP106

CYYG;2012-06-08 04:00;CYYG 080400Z 25005KT 15SM BKN130 10/04 A2984 RMK AC6 SLP105

CYYG;2012-06-08 05:00;CYYG 080500Z 26006KT 15SM BKN150 10/04 A2983 RMK AC6 SLP103

CYYG;2012-06-08 06:00;CYYG 080600Z 25007KT 15SM OVC140 10/05 A2982 RMK AC8 SLP098

CYYG;2012-06-08 07:00;CYYG 080700Z 25007KT 15SM BKN140 10/07 A2981 RMK AC6 SLP096

CYYG;2012-06-08 08:00;CYYG 080800Z 25005KT 15SM SCT140 BKN260 09/06 A2981 RMK AC3CI0 SLP095

CYYG;2012-06-08 09:00;CYYG 080900Z 25006KT 15SM FEW140 FEW260 09/07 A2981 RMK AC1CI1 SLP094

CYYG;2012-06-08 10:00;CYYG 081000Z 24006KT 15SM FEW140 FEW260 10/08 A2981 RMK AC1CI1 SLP095

CYYG;2012-06-08 11:00;CYYG 081100Z 23009KT 15SM FEW140 FEW260 13/08 A2981 RMK AC1CI1 SLP096

CYYG;2012-06-08 12:00;CYYG 081200Z 24006KT 15SM FEW260 15/10 A2981 RMK CI1 SLP096

CYYG;2012-06-08 13:00;CYYG 081300Z 22007KT 15SM SCT260 16/10 A2981 RMK CI1 SLP095

CYYG;2012-06-08 14:00;CYYG 081400Z 22008KT 15SM BKN260 18/10 A2980 RMK CI1 SLP093

CYYG;2012-06-08 15:00;CYYG 081500Z 21009KT 15SM FEW020 BKN260 19/11 A2980 RMK CU1CI1 SLP091

CYYG;2012-06-08 16:00;CYYG 081600Z 24009KT 15SM FEW030 BKN260 18/09 A2980 RMK CU1CI2 SLP092

CYYG;2012-06-08 17:00;CYYG 081700Z 25005KT 15SM FEW030 BKN220 20/10 A2979 RMK CU1CI2 SLP087

CYYG;2012-06-08 18:00;CYYG 081800Z 25006KT 15SM FEW036 BKN250 22/10 A2977 RMK CU2CI1 CONTRAILS SLP080

CYYG;2012-06-08 19:00;CYYG 081900Z 29006KT 15SM FEW040 FEW070 BKN250 23/06 A2975 RMK CU1AC1CI1 CONTRAILS SLP075

CYYG;2012-06-08 20:00;CYYG 082000Z 24009KT 15SM FEW065 BKN250 23/07 A2974 RMK CU1CI1 SLP073

CYYG;2012-06-08 21:00;CYYG 082100Z 25007KT 15SM FEW065 BKN250 21/09 A2974 RMK CU1CI1 SLP071

CYYG;2012-06-08 22:00;CYYG 082200Z 23008KT 15SM FEW030 FEW065 BKN250 19/09 A2976 RMK CU1SC1CI1 SLP077

CYYG;2012-06-08 23:00;CYYG 082300Z 25007KT 15SM FEW060 BKN250 18/07 A2976 RMK SC1CI1 SLP079

CYYG;2012-06-09 00:00;CYYG 090000Z 25010G16KT 15SM FEW070 SCT250 16/05 A2976 RMK AC1CI1 SLP077

CYYG;2012-06-09 01:00;CYYG 090100Z 24008KT 15SM FEW070 FEW250 14/05 A2977 RMK AC2CI1 SLP083

CYYG;2012-06-09 02:00;CYYG 090200Z 23007KT 15SM FEW250 13/06 A2978 RMK CI2 SLP084

CYYG;2012-06-09 03:00;CYYG 090300Z 23007KT 15SM FEW250 12/07 A2979 RMK CI2 SLP087

CYYG;2012-06-09 04:00;CYYG 090400Z 24005KT 15SM FEW250 12/07 A2979 RMK CI2 SLP089

CYYG;2012-06-09 05:00;CYYG 090500Z 22005KT 15SM FEW250 11/08 A2979 RMK CI2 SLP089

CYYG;2012-06-09 06:00;CYYG 090600Z 18005KT 15SM FEW250 09/08 A2979 RMK CI2 SLP088

CYYG;2012-06-09 07:00;CYYG 090700Z 17005KT 15SM FEW250 09/07 A2977 RMK CI2 SLP083

CYYG;2012-06-09 08:00;CYYG 090800Z 17007KT 15SM SCT097 BKN250 11/08 A2977 RMK AC3CI2 SLP083

CYYG;2012-06-09 09:00;CYYG 090900Z 18005KT 15SM BKN100 BKN250 11/09 A2978 RMK AC5CI2 SLP084

CYYG;2012-06-09 10:00;CYYG 091000Z 17007KT 15SM BKN100 BKN250 11/09 A2977 RMK AC5CI2 SLP083

CYYG;2012-06-09 11:00;CYYG 091100Z 18011KT 15SM FEW100 BKN250 13/10 A2979 RMK AC2CI2 SLP087

CYYG;2012-06-09 12:00;CYYG 091200Z 19013KT 15SM FEW090 BKN220 13/10 A2979 RMK AC2CI2 SLP087

CYYG;2012-06-09 13:00;CYYG 091300Z 18012KT 15SM FEW090 SCT110 BKN190 13/10 A2979 RMK AC2AC2CI2 SLP089

CYYG;2012-06-09 14:00;CYYG 091400Z 16009G15KT 15SM FEW040 BKN080 BKN200 14/11 A2979 RMK SC2AC4CI1 SLP089

CYYG;2012-06-09 15:00;CYYG 091500Z 16010KT 15SM FEW015 BKN060 OVC200 15/12 A2979 RMK SC2SC3CI2 SLP090

CYYG;2012-06-09 15:16;CYYG 091516Z 16012KT 15SM -SHRA FEW012 BKN058 OVC200 15/ RMK SC2SC3CI2

CYYG;2012-06-09 16:00;CYYG 091600Z 15012KT 10SM -SHRA SCT010 BKN042 OVC080 15/13 A2979 RMK CF3SC3AC2 SLP088

CYYG;2012-06-09 16:30;CYYG 091630Z 14010KT 8SM -SHRA FEW008 BKN036 OVC070 15/ RMK SF2SC5AC1

CYYG;2012-06-09 17:00;CYYG 091700Z 13008KT 8SM -SHRA FEW008 BKN030 OVC055 14/13 A2977 RMK SF2SC4SC2 SLP082

CYYG;2012-06-09 18:00;CYYG 091800Z 11011KT 6SM -SHRA BR FEW008 BKN014 OVC050 14/13 A2975 RMK SF2SC5SC1 SLP074

CYYG;2012-06-09 18:48;CYYG 091848Z 12012KT 4SM -SHRA BR BKN008 OVC014 14/ RMK SF6SC2

CYYG;2012-06-09 19:00;CYYG 091900Z 12009G16KT 4SM -SHRA BR BKN007 OVC012 14/14 A2974 RMK SF6SC2 SLP072

CYYG;2012-06-09 20:00;CYYG 092000Z 14009G15KT 5SM -SHRA BR BKN008 OVC012 14/14 A2974 RMK SF6SC2 SLP071

CYYG;2012-06-09 21:00;CYYG 092100Z 13009KT 10SM -SHRA BKN008 OVC014 14/14 A2974 RMK SF6SC2 SLP070

CYYG;2012-06-09 22:00;CYYG 092200Z 13011KT 10SM -SHRA BKN007 OVC014 13/13 A2974 RMK SF6SC2 SLP073

CYYG;2012-06-09 23:00;CYYG 092300Z 14008KT 12SM -SHRA BKN007 OVC014 13/13 A2976 RMK SF6SC2 PCPN VRY LGT VIS SW 6 SLP078

CYYG;2012-06-10 00:00;CYYG 100000Z 13010G15KT 6SM -SHRA BR BKN006 OVC015 13/12 A2977 RMK SF6SC2 VIS LWR E SLP082

CYYG;2012-06-10 00:09;CYYG 100009Z 13010KT 4SM -SHRA BR BKN003 OVC006 13/ RMK SF5SF3

CYYG;2012-06-10 00:43;CYYG 100043Z 13009KT 6SM -SHRA BR FEW003 BKN007 OVC010 13/ RMK SF2SF3SF2

CYYG;2012-06-10 01:00;CYYG 100100Z 12006KT 8SM -SHRA FEW003 BKN006 OVC010 12/12 A2979 RMK SF2SF4SF2 SLP090

CYYG;2012-06-10 02:00;CYYG 100200Z 11008KT 8SM -SHRA FEW003 OVC006 12/12 A2980 RMK SF2SF6 SLP093

CYYG;2012-06-10 02:18;CYYG 100218Z 10009KT 8SM -SHRA BKN004 OVC008 12/ RMK SF6SF2

CYYG;2012-06-10 03:00;CYYG 100300Z 10009KT 8SM -SHRA OVC004 11/11 A2982 RMK SF8 SLP098

CYYG;2012-06-10 04:00;CYYG 100400Z 09006KT 8SM -SHRA OVC005 11/11 A2983 RMK SF8 SLP101

CYYG;2012-06-10 05:00;CYYG 100500Z 07007KT 10SM VCSH OVC005 11/11 A2983 RMK SF8 SLP102

CYYG;2012-06-10 05:18;CYYG 100518Z 07007KT 8SM -DZ OVC004 11/ RMK SF8

CYYG;2012-06-10 06:00;CYYG 100600Z 06006KT 8SM -DZ OVC004 11/11 A2984 RMK SF8 SLP105

CYYG;2012-06-10 07:00;CYYG 100700Z 05005KT 5SM -DZ BR OVC003 11/11 A2985 RMK SF8 VIS NW-NE 3 SLP107

CYYG;2012-06-10 07:26;CYYG 100726Z 04004KT 1SM R03/P6000FT/N -DZ BR OVC002 11/ RMK SF8

CYYG;2012-06-10 08:00;CYYG 100800Z 09007KT 2 1/2SM -DZ BR OVC002 11/11 A2986 RMK SF8 VIS NW-NE 11/2 SLP112

CYYG;2012-06-10 08:44;CYYG 100844Z 09005KT 4SM -DZ BR OVC003 11/ RMK SF8 PCPN VRY LGT

CYYG;2012-06-10 09:00;CYYG 100900Z 09006KT 4SM -DZ BR OVC004 11/11 A2988 RMK SF8 SLP119

CYYG;2012-06-10 10:00;CYYG 101000Z 08005KT 3SM -DZ BR OVC003 12/11 A2992 RMK SF8 SLP132

CYYG;2012-06-10 10:20;CYYG 101020Z 09006KT 4SM BR OVC004 12/ RMK SF8

CYYG;2012-06-10 11:00;CYYG 101100Z 09006KT 4SM BR OVC004 12/12 A2996 RMK SF8 SLP144

CYYG;2012-06-10 11:44;CYYG 101144Z 10007KT 10SM OVC006 12/ RMK SF8

CYYG;2012-06-10 12:00;CYYG 101200Z 09005KT 15SM OVC006 12/12 A2998 RMK SF8 SLP153

CYYG;2012-06-10 13:00;CYYG 101300Z 08006KT 15SM OVC009 13/12 A3000 RMK SF8 SLP161

CYYG;2012-06-10 13:28;CYYG 101328Z 03006KT 10SM -SHRA BKN008 OVC012 13/ RMK SF6SC2

CYYG;2012-06-10 14:00;CYYG 101400Z 02005KT 15SM -SHRA BKN007 OVC012 13/12 A3003 RMK SF7SC1 SLP171

CYYG;2012-06-10 15:00;CYYG 101500Z 04007KT 12SM -SHRA BKN007 OVC023 13/13 A3005 RMK SF6SC2 SLP178

CYYG;2012-06-10 15:38;CYYG 101538Z 08006KT 15SM SCT007 BKN075 15/ RMK SF3AC3

CYYG;2012-06-10 16:00;CYYG 101600Z 10008KT 15SM SCT012 BKN075 16/14 A3006 RMK SC4AC2 SLP180

CYYG;2012-06-10 17:00;CYYG 101700Z 05007KT 15SM SCT024 BKN075 16/13 A3009 RMK SC4AC2 SLP189

CYYG;2012-06-10 18:00;CYYG 101800Z 01009KT 15SM VCSH SCT030 BKN075 15/12 A3010 RMK SC4AC3 SLP193

CYYG;2012-06-10 19:00;CYYG 101900Z 04008KT 15SM SCT030 BKN067 16/13 A3011 RMK SC4AC3 SLP198

CYYG;2012-06-10 20:00;CYYG 102000Z 06007KT 15SM FEW030 BKN084 17/13 A3013 RMK SC2AC2 SLP205

CYYG;2012-06-10 21:00;CYYG 102100Z 02010KT 15SM FEW030 SCT085 17/12 A3014 RMK SC2AC2 SLP209

CYYG;2012-06-10 22:00;CYYG 102200Z 02007KT 15SM FEW030 FEW085 16/11 A3017 RMK SC2AC1 SLP216

CYYG;2012-06-10 23:00;CYYG 102300Z 03007KT 15SM FEW030 FEW250 13/09 A3018 RMK SC1CI1 SLP220

CYYG;2012-06-11 00:00;CYYG 110000Z 35005KT 15SM FEW030 FEW250 11/08 A3020 RMK SC1CI1 SLP226

CYYG;2012-06-11 01:00;CYYG 110100Z 36006KT 15SM FEW250 10/09 A3023 RMK CI2 SLP236

CYYG;2012-06-11 02:00;CYYG 110200Z 01005KT 15SM FEW250 09/08 A3025 RMK CI2 SLP244

CYYG;2012-06-11 02:52;CYYG 110252Z 02008KT 15SM FEW004 08/ RMK SF1 VIS LWR SE-S

CYYG;2012-06-11 03:00;CYYG 110300Z 02007KT 15SM FEW004 08/08 A3025 RMK SF1 VIS LWR SE SLP246

CYYG;2012-06-11 03:53;CYYG 110353Z 01007KT 8SM VCFG BKN002 08/ RMK SF2 SF INVDG FM N

CYYG;2012-06-11 04:00;CYYG 110400Z 01009KT 1/2SM R03/P6000FT/N FG OVC001 08/08 A3027 RMK SF8 SLP251

CYYG;2012-06-11 04:16;CYYG 110416Z 02009KT 1/2SM R03/3500V6000FT/D FG VV001 08/ RMK FG8

CYYG;2012-06-11 05:00;CYYG 110500Z 04003KT 1/2SM R03/3000FT/D FG VV001 08/08 A3027 RMK FG8 SLP250

CYYG;2012-06-11 05:30;CYYG 110530Z 03005KT 3/8SM R03/2400FT/N FG VV001 08/ RMK FG8

CYYG;2012-06-11 05:48;CYYG 110548Z 04004KT 1/4SM R03/2000FT/N FG SKC 08/ RMK FG7 MOON DIMLY VSBL

CYYG;2012-06-11 06:00;CYYG 110600Z 03005KT 1/4SM R03/1800FT/N FG SKC 08/08 A3025 RMK FG7 MOON DIMLY VSBL SLP246

CYYG;2012-06-11 07:00;CYYG 110700Z 35003KT 1/8SM R03/1600FT/N FG VV001 08/08 A3026 RMK FG8 SLP248

CYYG;2012-06-11 08:00;CYYG 110800Z 34003KT 1/8SM R03/1800FT/N FG VV001 07/07 A3028 RMK FG8 SLP253

CYYG;2012-06-11 08:16;CYYG 110816Z 32004KT 1/4SM R03/2400FT/N FG VV002 07/ RMK FG8

CYYG;2012-06-11 09:00;CYYG 110900Z 31003KT 1/4SM R03/2000FT/N FG VV002 07/07 A3030 RMK FG8 SLP261

CYYG;2012-06-11 10:00;CYYG 111000Z 36003KT 1/4SM R03/1600FT/N FG VV002 08/08 A3031 RMK FG8 SLP265

CYYG;2012-06-11 10:51;CYYG 111051Z 36003KT 1/2SM R03/2400FT/N FG SKC 08/ RMK FG6

CYYG;2012-06-11 11:00;CYYG 111100Z 02003KT 1/2SM R03/3000VP6000FT/N FG SKC 08/08 A3033 RMK FG4 SLP270

CYYG;2012-06-11 11:33;CYYG 111133Z 36004KT 5SM BR SCT002 09/ RMK SF4

CYYG;2012-06-11 12:00;CYYG 111200Z 05003KT 15SM FEW002 10/10 A3033 RMK SF2 SLP271

CYYG;2012-06-11 13:00;CYYG 111300Z CCA 32003KT 15SM FEW005 FEW300 12/12 A3033 RMK SF1CI1 SLP273

CYYG;2012-06-11 14:00;CYYG 111400Z 05003KT 15SM FEW005 FEW300 15/13 A3034 RMK SF1CI1 SLP275

CYYG;2012-06-11 15:00;CYYG 111500Z 09004KT 15SM FEW005 FEW020 SCT300 17/13 A3032 RMK SF1CU1CI2 SLP269

CYYG;2012-06-11 16:00;CYYG 111600Z 07004KT 15SM FEW005 FEW025 BKN300 18/10 A3033 RMK SF1CU1CI1 SLP271

CYYG;2012-06-11 17:00;CYYG 111700Z 07002KT 15SM FEW005 FEW035TCU SCT300 19/11 A3031 RMK SF1TCU1CI1 SLP263

CYYG;2012-06-11 18:00;CYYG 111800Z 04005KT 15SM FEW005 FEW040TCU FEW300 19/12 A3028 RMK SF1TCU1CI1 SLP255

CYYG;2012-06-11 19:00;CYYG 111900Z 09004KT 15SM FEW005 FEW040TCU SCT300 20/12 A3027 RMK SF1TCU1CI1 SLP250

CYYG;2012-06-11 20:00;CYYG 112000Z 20005KT 15SM FEW031TCU BKN300 20/12 A3025 RMK TCU1CI2 SLP246

CYYG;2012-06-11 21:00;CYYG 112100Z 21004KT 15SM FEW031TCU BKN300 19/10 A3024 RMK TCU1CI3 SLP242

CYYG;2012-06-11 22:00;CYYG 112200Z 22006KT 15SM FEW031 BKN300 18/10 A3024 RMK SC1CS2 SLP241

CYYG;2012-06-11 23:00;CYYG 112300Z 19007KT 15SM FEW035 BKN300 16/08 A3025 RMK SC1CS6 SLP243

CYYG;2012-06-12 00:00;CYYG 120000Z 18006KT 15SM FEW150 BKN300 14/08 A3025 RMK AC1CS5 SLP246

CYYG;2012-06-12 01:00;CYYG 120100Z 15006KT 15SM FEW150 BKN300 13/08 A3025 RMK AC1CS3 SLP246

CYYG;2012-06-12 02:00;CYYG 120200Z 16007KT 15SM FEW150 BKN300 12/10 A3023 RMK AC1CI2 SLP239

CYYG;2012-06-12 03:00;CYYG 120300Z 19007KT 15SM FEW150 BKN300 11/08 A3023 RMK AC2CI1 SLP238

CYYG;2012-06-12 04:00;CYYG 120400Z 18004KT 15SM SCT150 BKN300 11/08 A3023 RMK AC3CI2 SLP236

CYYG;2012-06-12 05:00;CYYG 120500Z 20005KT 15SM FEW150 SCT300 10/08 A3022 RMK AC1CI0 SLP233

CYYG;2012-06-12 06:00;CYYG 120600Z 19006KT 15SM FEW150 FEW300 10/08 A3021 RMK AC1CI1 SLP231

CYYG;2012-06-12 07:00;CYYG 120700Z 18006KT 15SM FEW150 FEW300 09/08 A3020 RMK AC1CI0 SLP228

CYYG;2012-06-12 08:00;CYYG 120800Z 18006KT 15SM SCT170 BKN300 09/08 A3020 RMK AC3CI0 SLP229

CYYG;2012-06-12 09:00;CYYG 120900Z 20007KT 15SM SCT170 BKN300 11/10 A3020 RMK AC3CI0 SLP227

CYYG;2012-06-12 10:00;CYYG 121000Z 20008KT 15SM FEW170 BKN300 12/11 A3020 RMK AC2CI0 SLP229

CYYG;2012-06-12 11:00;CYYG 121100Z 19009KT 15SM SCT120 BKN300 13/11 A3021 RMK AC3CI0 SLP232

CYYG;2012-06-12 12:00;CYYG 121200Z 18012KT 15SM FEW120 SCT170 BKN300 13/10 A3021 RMK AC2AC1CI0 SLP230

CYYG;2012-06-12 13:00;CYYG 121300Z 19009KT 15SM BKN120 BKN300 15/10 A3019 RMK AC5CI0 SLP224

CYYG;2012-06-12 14:00;CYYG 121400Z 19010KT 15SM FEW120 FEW300 16/11 A3018 RMK AC1CI0 CONTRAILS SLP220

CYYG;2012-06-12 15:00;CYYG 121500Z 19009KT 15SM FEW120 FEW300 17/12 A3017 RMK AC1CI0 CONTRAILS SLP218

CYYG;2012-06-12 16:00;CYYG 121600Z 20009KT 15SM FEW030 FEW300 19/12 A3016 RMK CU1CI1 SLP213

CYYG;2012-06-12 17:00;CYYG 121700Z 18009KT 15SM FEW030 FEW300 21/12 A3014 RMK CU1CI1 CONTRAILS SLP208

CYYG;2012-06-12 18:00;CYYG 121800Z 18009KT 15SM FEW030 FEW300 22/13 A3012 RMK CU1CI1 CONTRAILS SLP198

CYYG;2012-06-12 19:00;CYYG 121900Z 16010G15KT 15SM FEW030 FEW300 22/12 A3010 RMK CU1CI0 SLP194

CYYG;2012-06-12 20:00;CYYG 122000Z 17009KT 15SM FEW030 23/11 A3008 RMK CU1 SLP186

CYYG;2012-06-12 21:00;CYYG 122100Z 16009KT 15SM FEW030 FEW300 22/11 A3006 RMK CU1CI1 SLP180

CYYG;2012-06-12 22:00;CYYG 122200Z 16010KT 15SM FEW030 FEW300 22/10 A3005 RMK SC1CI1 SLP176

CYYG;2012-06-12 23:00;CYYG 122300Z 15008G15KT 15SM FEW330 20/11 A3005 RMK CI1 SLP176

CYYG;2012-06-13 00:00;CYYG 130000Z 18010G16KT 15SM FEW330 17/12 A3006 RMK CI1 SLP179

CYYG;2012-06-13 01:00;CYYG 130100Z 19011G16KT 15SM FEW120 FEW330 17/11 A3008 RMK AC1CI1 SLP185

CYYG;2012-06-13 02:00;CYYG 130200Z 20010KT 15SM FEW330 15/10 A3008 RMK CI1 SLP186

CYYG;2012-06-13 03:00;CYYG 130300Z 18013KT 15SM FEW330 14/10 A3009 RMK CI1 SLP188

CYYG;2012-06-13 04:00;CYYG 130400Z 19010KT 15SM FEW330 13/09 A3009 RMK CI1 SLP188

CYYG;2012-06-13 05:00;CYYG 130500Z 19007KT 15SM SKC 13/08 A3008 RMK SLP185

CYYG;2012-06-13 06:00;CYYG 130600Z 17007KT 15SM SKC 12/08 A3007 RMK SLP182

CYYG;2012-06-13 07:00;CYYG 130700Z 16009KT 15SM SKC 11/09 A3006 RMK SLP180

CYYG;2012-06-13 08:00;CYYG 130800Z 16008KT 15SM SKC 10/08 A3006 RMK SLP179

CYYG;2012-06-13 09:00;CYYG 130900Z 17006KT 15SM FEW090 FEW330 10/09 A3006 RMK AC1CI0 SLP180

CYYG;2012-06-13 10:00;CYYG 131000Z 17009KT 15SM FEW090 FEW330 12/09 A3006 RMK AC1CI0 SLP179

CYYG;2012-06-13 11:00;CYYG 131100Z 18008KT 15SM FEW330 14/09 A3007 RMK CI0 SLP184

CYYG;2012-06-13 12:00;CYYG 131200Z 17008KT 15SM FEW330 15/10 A3008 RMK CI1 SLP185

CYYG;2012-06-13 13:00;CYYG 131300Z 19008KT 15SM FEW330 16/11 A3007 RMK CI1 SLP182

CYYG;2012-06-13 14:00;CYYG 131400Z 18007KT 15SM FEW300 17/10 A3006 RMK CI1 SLP180

CYYG;2012-06-13 15:00;CYYG 131500Z 18008KT 15SM FEW300 18/10 A3006 RMK CI1 SLP179

CYYG;2012-06-13 16:00;CYYG 131600Z 16007KT 15SM FEW300 19/10 A3005 RMK CI2 SLP176

CYYG;2012-06-13 17:00;CYYG 131700Z 20009KT 15SM FEW300 20/11 A3005 RMK CI2 SLP175

CYYG;2012-06-13 18:00;CYYG 131800Z 22009KT 15SM FEW300 22/10 A3004 RMK CI2 SLP172

CYYG;2012-06-13 19:00;CYYG 131900Z 20008KT 15SM SCT300 22/10 A3003 RMK CI2 SLP170

CYYG;2012-06-13 20:00;CYYG 132000Z 19007KT 15SM FEW030 SCT300 22/10 A3003 RMK SC1CI2 SLP169

CYYG;2012-06-13 21:00;CYYG 132100Z 19005KT 15SM FEW030 BKN300 22/10 A3003 RMK SC1CI2 SLP169

CYYG;2012-06-13 22:00;CYYG 132200Z 18006KT 15SM FEW030 BKN300 21/10 A3003 RMK SC1CI2 SLP169

CYYG;2012-06-13 23:00;CYYG 132300Z 20004KT 15SM FEW030 BKN300 20/11 A3003 RMK SC1CI1 SLP169

CYYG;2012-06-14 00:00;CYYG 140000Z 20003KT 15SM FEW030 BKN300 18/10 A3004 RMK SC1CI2 SLP172

CYYG;2012-06-14 01:00;CYYG 140100Z 16003KT 15SM BKN300 16/10 A3005 RMK CI2 SLP176

CYYG;2012-06-14 02:00;CYYG 140200Z 27004KT 15SM BKN300 15/11 A3005 RMK CI2 SLP176

CYYG;2012-06-14 03:00;CYYG 140300Z 23004KT 15SM BKN300 15/12 A3005 RMK CI2 SLP177

CYYG;2012-06-14 04:00;CYYG 140400Z 25004KT 15SM BKN300 15/11 A3006 RMK CI2 SLP178

CYYG;2012-06-14 05:00;CYYG 140500Z 16002KT 15SM BKN300 13/10 A3006 RMK CI2 SLP181

CYYG;2012-06-14 06:00;CYYG 140600Z 23004KT 15SM BKN300 13/11 A3006 RMK CI2 SLP181

CYYG;2012-06-14 07:00;CYYG 140700Z 24004KT 15SM BKN300 13/11 A3007 RMK CI2 SLP182

CYYG;2012-06-14 08:00;CYYG 140800Z 25003KT 15SM BKN300 12/11 A3008 RMK CI2 SLP185

CYYG;2012-06-14 09:00;CYYG 140900Z 25002KT 15SM FEW100 BKN300 13/12 A3008 RMK AC1CI3 SLP187

CYYG;2012-06-14 10:00;CYYG 141000Z 27002KT 15SM FEW020 FEW100 BKN300 13/12 A3010 RMK SC1AC1CI1 SLP194

CYYG;2012-06-14 11:00;CYYG 141100Z 30004KT 15SM FEW020 SCT100 BKN300 15/13 A3011 RMK SC2AC2CI2 SLP197

CYYG;2012-06-14 12:00;CYYG 141200Z 33006KT 15SM SCT007 OVC022 17/15 A3012 RMK SC4SC4 SLP199

CYYG;2012-06-14 12:05;CYYG 141205Z 33006KT 15SM BKN007 OVC022 17/ RMK SC6SC2

CYYG;2012-06-14 13:00;CYYG 141300Z 36003KT 15SM BKN009 OVC022 17/15 A3013 RMK SC6SC2 SLP202

CYYG;2012-06-14 13:35;CYYG 141335Z 02004KT 15SM BKN011 OVC024 18/ RMK SC6SC2

CYYG;2012-06-14 14:00;CYYG 141400Z 36003KT 15SM BKN011 OVC024 18/15 A3014 RMK SC6SC2 SLP205

CYYG;2012-06-14 15:00;CYYG 141500Z 36005KT 15SM BKN013 OVC024 18/15 A3014 RMK SC6SC2 SLP208

CYYG;2012-06-14 15:49;CYYG 141549Z 36005KT 15SM BKN007 OVC014 16/ RMK SF6SC2

CYYG;2012-06-14 16:00;CYYG 141600Z 36005KT 2SM BR OVC004 15/14 A3016 RMK SF8 SLP213

CYYG;2012-06-14 16:08;CYYG 141608Z 36005KT 4SM BR OVC004 14/ RMK SF8

CYYG;2012-06-14 17:00;CYYG 141700Z CCA 36010KT 5SM BR OVC006 13/12 A3018 RMK SF8 WND ESTD SLP220

CYYG;2012-06-14 17:46;CYYG 141746Z 36015KT 6SM -DZ BR OVC006 13/ RMK SF8 WND ESTD

CYYG;2012-06-14 18:00;CYYG 141800Z 36015KT 6SM -DZ BR BKN006 OVC011 13/11 A3020 RMK SF6SF2 WND ESTD SLP226

CYYG;2012-06-14 18:19;CYYG 141819Z 36010KT 2SM -DZ BR OVC005 12/ RMK SF8 WND ESTD

CYYG;2012-06-14 19:00;CYYG 141900Z 36013KT 2SM -DZ BR BKN004 OVC007 12/12 A3021 RMK SF6SF2 SLP230

CYYG;2012-06-14 19:53;CYYG 141953Z 36010G18KT 10SM BKN007 OVC014 13/ RMK SF6SC2

CYYG;2012-06-14 20:00;CYYG 142000Z 36009G18KT 15SM BKN007 OVC014 13/11 A3021 RMK SF6SC2 SLP231

CYYG;2012-06-14 20:41;CYYG 142041Z 36010G16KT 10SM -DZ OVC006 12/ RMK SF8 VIS N-NE 3

CYYG;2012-06-14 21:00;CYYG 142100Z 36011KT 15SM -DZ BKN005 OVC042 12/11 A3021 RMK SF7SC1 VIS LWR N-E SLP230

CYYG;2012-06-14 21:12;CYYG 142112Z 36010G18KT 15SM FEW005 BKN053 12/ RMK SF2SC5

CYYG;2012-06-14 22:00;CYYG 142200Z 35009G16KT 15SM FEW005 SCT049 OVC300 13/10 A3021 RMK SF1SC2CI3 CONTRAILS SLP232

CYYG;2012-06-14 23:00;CYYG 142300Z 35008KT 15SM BKN008 OVC045 12/10 A3023 RMK SF6SC2 SLP237

CYYG;2012-06-15 00:00;CYYG 150000Z 01009KT 15SM OVC008 12/11 A3023 RMK SF8 SLP239

CYYG;2012-06-15 01:00;CYYG 150100Z 36008KT 15SM OVC008 12/11 A3025 RMK SF8 SLP244

CYYG;2012-06-15 01:41;CYYG 150141Z 01010KT 5SM -DZ BR OVC006 12/ RMK SF8

CYYG;2012-06-15 02:00;CYYG 150200Z 36007KT 4SM -DZ BR OVC005 12/11 A3026 RMK SF8 SLP247

CYYG;2012-06-15 02:34;CYYG 150234Z 35008KT 15SM SCT005 OVC022 12/ RMK SF4SC4

CYYG;2012-06-15 03:00;CYYG 150300Z 36008KT 15SM FEW005 OVC024 12/10 A3026 RMK SF2SC6 SLP248

CYYG;2012-06-15 04:00;CYYG 150400Z 01009KT 15SM FEW005 BKN024 OVC060 12/10 A3025 RMK SF2SC4SC2 SLP245

CYYG;2012-06-15 05:00;CYYG 150500Z 36005KT 15SM FEW006 BKN026 OVC060 12/10 A3025 RMK SF2SC4SC2 SLP245

CYYG;2012-06-15 06:00;CYYG 150600Z 35007KT 15SM BKN028 BKN060 OVC086 12/10 A3024 RMK SC5SC2AC2 SLP241

CYYG;2012-06-15 07:00;CYYG 150700Z 35005KT 15SM FEW028 SCT060 OVC086 11/10 A3025 RMK SC2SC2AC5 SLP243

CYYG;2012-06-15 08:00;CYYG 150800Z 34006KT 15SM FEW060 BKN085 BKN240 11/10 A3024 RMK SC2AC4CI2 SLP242

CYYG;2012-06-15 09:00;CYYG 150900Z 36009KT 15SM BKN084 BKN240 12/11 A3024 RMK AC6CI2 SLP242

CYYG;2012-06-15 10:00;CYYG 151000Z 01012KT 15SM BKN010 OVC084 13/11 A3025 RMK SF6AC2 SLP246

CYYG;2012-06-15 10:36;CYYG 151036Z 02016KT 15SM BKN008 OVC080 12/ RMK SF7AC1

CYYG;2012-06-15 11:00;CYYG 151100Z 36011G19KT 12SM OVC005 12/11 A3026 RMK SF8 SLP248

CYYG;2012-06-15 12:00;CYYG 151200Z 01015G21KT 12SM OVC007 13/11 A3027 RMK SF8 SLP251

CYYG;2012-06-15 13:00;CYYG 151300Z 36012G19KT 15SM OVC007 13/11 A3028 RMK SF8 SLP255

CYYG;2012-06-15 13:35;CYYG 151335Z 01013G21KT 12SM OVC005 13/ RMK SF8

CYYG;2012-06-15 14:00;CYYG 151400Z 01014G19KT 10SM OVC005 12/11 A3029 RMK SF8 SLP258

CYYG;2012-06-15 15:00;CYYG 151500Z 01014G19KT 12SM OVC007 13/10 A3031 RMK SF8 SLP263

CYYG;2012-06-15 16:00;CYYG 151600Z 01013G22KT 10SM OVC006 12/10 A3032 RMK SF8 SLP268

CYYG;2012-06-15 17:00;CYYG 151700Z 36014G25KT 8SM OVC005 12/10 A3033 RMK SF8 SLP273

CYYG;2012-06-15 18:00;CYYG 151800Z 36014G21KT 8SM OVC005 12/10 A3034 RMK SF8 SLP274

CYYG;2012-06-15 19:00;CYYG 151900Z 36011G21KT 6SM BR OVC005 12/10 A3034 RMK SF8 SLP274

CYYG;2012-06-15 20:00;CYYG 152000Z 01013G20KT 6SM BR BKN008 OVC024 13/11 A3033 RMK SF6SC2 SLP271

CYYG;2012-06-15 20:23;CYYG 152023Z 03015KT 8SM BKN010 BKN024 BKN280 14/ RMK SF5SC2CI1

CYYG;2012-06-15 21:00;CYYG 152100Z 02019KT 8SM BKN008 BKN280 13/11 A3032 RMK SF6CI1 SLP269

CYYG;2012-06-15 21:39;CYYG 152139Z 03013KT 10SM BKN012 BKN280 14/ RMK SF6CI0

CYYG;2012-06-15 22:00;CYYG 152200Z 04012G19KT 12SM BKN014 13/11 A3033 RMK SC7 SLP270

CYYG;2012-06-15 23:00;CYYG 152300Z 03013G18KT 15SM FEW008 BKN025 BKN280 13/11 A3034 RMK SF2SC3CI1 SLP275

CYYG;2012-06-16 00:00;CYYG 160000Z 04011KT 15SM FEW009 SCT031 BKN280 12/10 A3035 RMK SF2SC2CI1 SLP278

CYYG;2012-06-16 00:30;CYYG 160030Z 04013KT 15SM BKN007 BKN036 BKN280 12/ RMK SF5SC1CI1

CYYG;2012-06-16 01:00;CYYG 160100Z 05010G16KT 15SM BKN006 BKN039 12/10 A3037 RMK SF6SC1 SLP284

CYYG;2012-06-16 02:00;CYYG 160200Z 04011G17KT 15SM OVC007 12/10 A3037 RMK SF8 SLP285

CYYG;2012-06-16 03:00;CYYG 160300Z 04007KT 15SM BKN008 OVC016 12/10 A3038 RMK SF6SC2 SLP288

CYYG;2012-06-16 03:18;CYYG 160318Z 03007KT 15SM FEW008 FEW013 10/ RMK SF1SC2

CYYG;2012-06-16 04:00;CYYG 160400Z 04007KT 15SM FEW006 10/09 A3038 RMK SF1 SLP288

CYYG;2012-06-16 05:00;CYYG 160500Z 01004KT 15SM FEW028 09/09 A3039 RMK SC2 SLP291

CYYG;2012-06-16 06:00;CYYG 160600Z 01005KT 15SM FEW032 08/08 A3039 RMK SC2 SLP293

CYYG;2012-06-16 07:00;CYYG 160700Z 35004KT 15SM FEW032 08/08 A3040 RMK SC2 SLP295

CYYG;2012-06-16 07:51;CYYG 160751Z 01006KT 10SM MIFG FEW005 FEW100 08/ RMK SF1AC1

CYYG;2012-06-16 08:00;CYYG 160800Z 01005KT 10SM MIFG FEW005 FEW100 09/08 A3040 RMK SF1AC1 SLP297

CYYG;2012-06-16 09:00;CYYG 160900Z 01004KT 5SM BR FEW005 BKN048 10/09 A3041 RMK SF1SC6 SLP299

CYYG;2012-06-16 10:00;CYYG 161000Z 02003KT 5SM BR VCFG FEW002 BKN050 10/10 A3041 RMK SF2SC6 SLP299

CYYG;2012-06-16 11:00;CYYG 161100Z 03007KT 8SM FEW004 BKN050 12/11 A3042 RMK SF2SC5 SLP302

CYYG;2012-06-16 12:00;CYYG 161200Z 09007KT 12SM FEW012 BKN051 14/10 A3042 RMK CF1SC6 SLP301

CYYG;2012-06-16 13:00;CYYG 161300Z 07006KT 15SM FEW020 BKN050 15/09 A3042 RMK CU2SC5 SLP303

CYYG;2012-06-16 14:00;CYYG 161400Z 08003KT 15SM SCT030 BKN043 16/08 A3042 RMK SC3SC4 SLP303

CYYG;2012-06-16 15:00;CYYG 161500Z 08004KT 15SM FEW030 BKN038 15/09 A3041 RMK SC2SC5 SLP300

CYYG;2012-06-16 16:00;CYYG 161600Z 33005KT 15SM SCT024 BKN040 15/11 A3041 RMK SC3SC4 SLP297

CYYG;2012-06-16 17:00;CYYG 161700Z 06004KT 15SM FEW015 SCT028 OVC040 16/09 A3040 RMK SC1SC2SC5 SLP294

CYYG;2012-06-16 18:00;CYYG 161800Z 01009KT 15SM FEW015 SCT028 OVC045 16/11 A3039 RMK SC1SC2SC5 SLP293

CYYG;2012-06-16 19:00;CYYG 161900Z 01009KT 15SM FEW010 SCT028 BKN044 16/10 A3038 RMK SF1SC2SC4 SLP289

CYYG;2012-06-16 20:00;CYYG 162000Z 02008KT 15SM FEW010 FEW028 BKN046 16/10 A3037 RMK SF1SC2SC6 TR SF NW-N SLP285

CYYG;2012-06-16 21:00;CYYG 162100Z 02008KT 15SM FEW010 FEW028 BKN044 15/10 A3035 RMK SF1SC2SC5 SLP279

CYYG;2012-06-16 22:00;CYYG 162200Z 03008KT 15SM FEW028 SCT044 BKN250 15/10 A3035 RMK SC1SC2CI0 SLP278

CYYG;2012-06-16 23:00;CYYG 162300Z 03007KT 15SM FEW042 FEW300 14/09 A3035 RMK SC2CI0 SLP279

CYYG;2012-06-17 00:00;CYYG 170000Z 05005KT 15SM FEW042 FEW350 12/08 A3035 RMK SC1CI0 CONTRAILS SLP278

CYYG;2012-06-17 01:00;CYYG 170100Z 07003KT 15SM FEW042 FEW350 09/07 A3035 RMK SC1CI1 SLP277

CYYG;2012-06-17 02:00;CYYG 170200Z 00000KT 15SM FEW042 FEW350 08/07 A3035 RMK SC1CI1 SLP277

CYYG;2012-06-17 03:00;CYYG 170300Z 08002KT 15SM SKC 07/07 A3034 RMK SLP274

CYYG;2012-06-17 04:00;CYYG 170400Z 00000KT 15SM MIFG SKC 06/06 A3033 RMK SLP272

CYYG;2012-06-17 05:00;CYYG 170500Z 00000KT 15SM MIFG SKC 06/05 A3032 RMK SLP269

CYYG;2012-06-17 06:00;CYYG 170600Z 00000KT 15SM MIFG SKC 05/04 A3032 RMK SLP267

CYYG;2012-06-17 06:19;CYYG 170619Z 16002KT 1/4SM R03/2000FT/N FG SKC 05/ RMK FG3

CYYG;2012-06-17 06:29;CYYG 170629Z 15002KT 1/2SM R03/2200FT/N FG SKC 04/ RMK FG3 TWR VIS 15

CYYG;2012-06-17 07:00;CYYG 170700Z 15003KT 1/2SM R03/3500VP6000FT/N FG SKC 05/05 A3031 RMK FG3 TWR VIS 15 SLP263

CYYG;2012-06-17 07:43;CYYG 170743Z 17002KT 1/4SM R03/1400V2000FT/N FG SKC 04/ RMK FG4 TWR VIS 15

CYYG;2012-06-17 08:00;CYYG 170800Z CCA 00000KT 1/4SM R03/1800FT/N FG SCT300 04/04 A3030 RMK FG3CI1 TWR VIS 15 SLP261

CYYG;2012-06-17 09:00;CYYG 170900Z 00000KT 1/2SM R03/2000FT/N FG SCT300 05/05 A3030 RMK FG3CI1 TWR VIS 15 SLP262

CYYG;2012-06-17 09:34;CYYG 170934Z 18002KT 5SM BR MIFG FEW300 08/ RMK CI1

CYYG;2012-06-17 10:00;CYYG 171000Z 14002KT 10SM BCFG FEW300 09/09 A3030 RMK CI1 SLP261

CYYG;2012-06-17 11:00;CYYG 171100Z 25006KT 15SM FEW300 12/10 A3031 RMK CI1 SLP263

CYYG;2012-06-17 12:00;CYYG 171200Z 24004KT 15SM FEW016 FEW300 14/10 A3031 RMK CF1CI1 SLP265

CYYG;2012-06-17 13:00;CYYG 171300Z 21004KT 15SM FEW020 FEW300 15/10 A3030 RMK CF1CI1 SLP262

CYYG;2012-06-17 14:00;CYYG 171400Z 16007KT 15SM FEW024 FEW240 FEW300 15/10 A3029 RMK CF1CI1CI0 SLP257

CYYG;2012-06-17 15:00;CYYG 171500Z 18006KT 15SM FEW028 SCT260 16/09 A3029 RMK CF1CI1 SLP257

CYYG;2012-06-17 16:00;CYYG 171600Z 14007KT 15SM FEW032 SCT260 16/08 A3028 RMK CF1CI1 SLP253

CYYG;2012-06-17 17:00;CYYG 171700Z 19006KT 15SM FEW036 SCT260 17/09 A3025 RMK CF1CI1 SLP245

CYYG;2012-06-17 18:00;CYYG 171800Z 18006KT 15SM FEW036 FEW260 17/09 A3024 RMK CF1CI1 SLP240

CYYG;2012-06-17 19:00;CYYG 171900Z 15012KT 15SM FEW040 FEW260 19/07 A3022 RMK SC1CI1 SLP233

CYYG;2012-06-17 20:00;CYYG 172000Z 15006KT 15SM FEW040 FEW260 19/06 A3020 RMK SC1CI1 SLP227

CYYG;2012-06-17 21:00;CYYG 172100Z 14005KT 15SM FEW040 FEW260 19/07 A3018 RMK SC1CI1 SLP222

CYYG;2012-06-17 22:00;CYYG 172200Z 17006KT 15SM FEW260 18/08 A3017 RMK CI1 SLP219

CYYG;2012-06-17 23:00;CYYG 172300Z 17005KT 15SM FEW260 17/08 A3017 RMK CI1 SLP217

CYYG;2012-06-18 00:00;CYYG 180000Z 19004KT 15SM FEW260 15/08 A3017 RMK CI1 SLP217

CYYG;2012-06-18 01:00;CYYG 180100Z 11005KT 15SM FEW260 13/09 A3018 RMK CI1 SLP220

CYYG;2012-06-18 02:00;CYYG 180200Z 11005KT 15SM FEW260 13/09 A3020 RMK CI2 SLP226

CYYG;2012-06-18 03:00;CYYG 180300Z 17011KT 15SM FEW260 12/10 A3020 RMK CI2 SLP228

CYYG;2012-06-18 04:00;CYYG 180400Z 18012KT 15SM FEW260 11/09 A3020 RMK CI2 SLP226

CYYG;2012-06-18 05:00;CYYG 180500Z 18010KT 15SM FEW260 11/08 A3020 RMK CI2 SLP227

CYYG;2012-06-18 06:00;CYYG 180600Z 18007KT 15SM FEW260 10/08 A3019 RMK CI2 SLP225

CYYG;2012-06-18 07:00;CYYG 180700Z 18007KT 15SM FEW260 08/07 A3019 RMK CI2 SLP225

CYYG;2012-06-18 08:00;CYYG 180800Z 20007KT 15SM FEW260 10/08 A3020 RMK CI1 SLP226

CYYG;2012-06-18 09:00;CYYG 180900Z 20006KT 15SM FEW260 10/08 A3020 RMK CI1 SLP229

CYYG;2012-06-18 10:00;CYYG 181000Z 20007KT 15SM FEW260 11/09 A3021 RMK CI1 SLP230

CYYG;2012-06-18 11:00;CYYG 181100Z 20008KT 15SM FEW010 FEW260 12/09 A3021 RMK CF1CI1 SLP231

CYYG;2012-06-18 12:00;CYYG 181200Z 20008KT 15SM FEW012 FEW260 13/10 A3020 RMK CF1CI1 SLP228

CYYG;2012-06-18 13:00;CYYG 181300Z CCA 19007KT 15SM FEW016 FEW260 SCT300 14/10 A3019 RMK CF1CI1CI1 CONTRAILS SLP223

CYYG;2012-06-18 14:00;CYYG 181400Z 22003KT 15SM FEW260 FEW300 16/11 A3018 RMK CI1CI1 CONTRAILS SLP222

CYYG;2012-06-18 15:00;CYYG 181500Z 20005KT 15SM FEW020 FEW260 16/11 A3019 RMK CF1CI1 CONTRAILS SLP224

CYYG;2012-06-18 16:00;CYYG 181600Z 13006KT 15SM FEW024 FEW260 18/12 A3018 RMK CF1CI1 CONTRAILS SLP221

CYYG;2012-06-18 17:00;CYYG 181700Z 21006KT 15SM FEW030 SCT260 19/09 A3018 RMK SC1CI1 SLP222

CYYG;2012-06-18 18:00;CYYG 181800Z 21006KT 15SM FEW034 SCT280 19/10 A3017 RMK SC1CI2 SLP218

CYYG;2012-06-18 19:00;CYYG 181900Z 14007KT 15SM FEW040 SCT280 20/09 A3016 RMK SC1CI1 SLP215

CYYG;2012-06-18 20:00;CYYG 182000Z 15009KT 15SM FEW040 BKN280 21/07 A3014 RMK SC1CI2 SLP208

CYYG;2012-06-18 21:00;CYYG 182100Z 17007KT 15SM BKN280 21/09 A3013 RMK CI1 SLP205

CYYG;2012-06-18 22:00;CYYG 182200Z 18007KT 15SM SCT280 20/09 A3013 RMK CI1 SLP204

CYYG;2012-06-18 23:00;CYYG 182300Z 18006KT 15SM SCT280 18/10 A3013 RMK CI1 SLP205

CYYG;2012-06-19 00:00;CYYG 190000Z 18005KT 15SM FEW280 16/10 A3013 RMK CI1 SLP205

CYYG;2012-06-19 01:00;CYYG 190100Z 17003KT 15SM FEW280 14/10 A3014 RMK CI1 SLP208

CYYG;2012-06-19 02:00;CYYG 190200Z 14005KT 15SM FEW280 13/09 A3014 RMK CI1 SLP207

CYYG;2012-06-19 03:00;CYYG 190300Z 16004KT 15SM FEW280 13/09 A3013 RMK CI1 SLP205

CYYG;2012-06-19 04:00;CYYG 190400Z 16007KT 15SM FEW280 12/11 A3014 RMK CI1 SLP207

CYYG;2012-06-19 05:00;CYYG 190500Z 17007KT 15SM FEW280 12/11 A3014 RMK CI1 SLP208

CYYG;2012-06-19 06:00;CYYG 190600Z 20007KT 15SM FEW280 13/11 A3013 RMK CI1 SLP204

CYYG;2012-06-19 07:00;CYYG 190700Z 21006KT 15SM FEW280 12/11 A3013 RMK CI1 SLP203

CYYG;2012-06-19 08:00;CYYG 190800Z 23006KT 15SM FEW280 11/10 A3014 RMK CI1 SLP208

CYYG;2012-06-19 09:00;CYYG 190900Z 22005KT 15SM SKC 11/10 A3015 RMK SLP212

CYYG;2012-06-19 10:00;CYYG 191000Z 22005KT 15SM FEW280 12/10 A3017 RMK CI1 SLP219

CYYG;2012-06-19 11:00;CYYG 191100Z 22005KT 15SM FEW280 14/11 A3017 RMK CI1 SLP219

CYYG;2012-06-19 12:00;CYYG 191200Z 19005KT 15SM FEW280 15/11 A3017 RMK CI1 SLP217

CYYG;2012-06-19 13:00;CYYG 191300Z 17007KT 15SM FEW280 16/12 A3015 RMK CI1 SLP210

CYYG;2012-06-19 14:00;CYYG 191400Z 18006KT 15SM SCT280 18/11 A3013 RMK CI1 SLP204

CYYG;2012-06-19 15:00;CYYG 191500Z 16008KT 15SM BKN250 18/12 A3011 RMK CI1 SLP196

CYYG;2012-06-19 16:00;CYYG 191600Z 19008KT 15SM FEW020 BKN250 18/11 A3010 RMK CF1CI1 SLP193

CYYG;2012-06-19 17:00;CYYG 191700Z 17009KT 15SM FEW020 BKN250 20/13 A3008 RMK CF1CI2 SLP185

CYYG;2012-06-19 18:00;CYYG 191800Z 17010KT 15SM FEW020 BKN250 21/13 A3004 RMK CF1CI2 SLP173

CYYG;2012-06-19 19:00;CYYG 191900Z 20010KT 15SM FEW025 BKN250 22/12 A3004 RMK CF1CI2 SLP173

CYYG;2012-06-19 20:00;CYYG 192000Z 22011KT 15SM BKN250 21/12 A3005 RMK CI2 SLP176

CYYG;2012-06-19 21:00;CYYG 192100Z 25007KT 15SM BKN250 21/12 A3004 RMK CI4 SLP173

CYYG;2012-06-19 22:00;CYYG 192200Z 20009KT 15SM BKN250 20/12 A3001 RMK CI4 SLP162

CYYG;2012-06-19 23:00;CYYG 192300Z 22009KT 15SM BKN250 20/12 A3000 RMK CI4 SLP159

CYYG;2012-06-20 00:00;CYYG 200000Z 20010KT 15SM BKN260 17/13 A2998 RMK CI6 SLP154

CYYG;2012-06-20 01:00;CYYG 200100Z 20009KT 15SM BKN260 16/12 A2998 RMK CI6 SLP151

CYYG;2012-06-20 02:00;CYYG 200200Z 20009KT 15SM BKN260 14/11 A2995 RMK CI6 SLP142

CYYG;2012-06-20 03:00;CYYG 200300Z 25012KT 15SM BKN260 13/11 A2997 RMK CI6 SLP148

CYYG;2012-06-20 03:07;CYYG 200307Z 22015KT 15SM BKN010 BKN260 13/ RMK SF5CI2

CYYG;2012-06-20 04:00;CYYG 200400Z 23010G21KT 15SM OVC012 13/11 A2997 RMK SC8 SLP150

CYYG;2012-06-20 05:00;CYYG 200500Z 22010KT 15SM OVC010 13/12 A2996 RMK SC8 SLP144

CYYG;2012-06-20 06:00;CYYG 200600Z 21013G22KT 15SM OVC009 13/12 A2992 RMK SC8 SLP133

CYYG;2012-06-20 07:00;CYYG 200700Z 21013G20KT 15SM OVC009 13/11 A2991 RMK SC8 SLP128

CYYG;2012-06-20 08:00;CYYG 200800Z 22011G19KT 15SM OVC008 13/11 A2990 RMK SC8 SLP125

CYYG;2012-06-20 09:00;CYYG 200900Z 21010G16KT 15SM BKN008 13/11 A2988 RMK SC7 SLP120

CYYG;2012-06-20 10:00;CYYG 201000Z 21012KT 15SM OVC007 13/12 A2988 RMK SC8 SLP120

CYYG;2012-06-20 11:00;CYYG 201100Z 22009G18KT 15SM OVC007 14/12 A2988 RMK ST8 SLP120

CYYG;2012-06-20 12:00;CYYG 201200Z 24011G17KT 15SM OVC008 15/13 A2987 RMK ST8 SLP117

CYYG;2012-06-20 13:00;CYYG 201300Z 23010KT 15SM BKN009 OVC300 16/14 A2984 RMK SF7CI0 SLP105

CYYG;2012-06-20 14:00;CYYG 201400Z 24010KT 15SM BKN010 OVC300 18/15 A2982 RMK SC7CI0 SLP100

CYYG;2012-06-20 15:00;CYYG 201500Z 22008KT 15SM FEW010 SCT180 OVC300 20/15 A2979 RMK SC2AC2CI2 SLP087

CYYG;2012-06-20 16:00;CYYG 201600Z 23009KT 15SM FEW180 BKN300 21/16 A2978 RMK AC2CI3 SLP085

CYYG;2012-06-20 17:00;CYYG 201700Z 23011KT 15SM FEW095 SCT200 BKN300 22/17 A2976 RMK AC2CI2CI2 SLP077

CYYG;2012-06-20 18:00;CYYG 201800Z 23012KT 15SM SCT090 BKN200 OVC300 24/18 A2973 RMK AC3CI2CI2 SLP066

CYYG;2012-06-20 19:00;CYYG 201900Z 24010G15KT 15SM BKN083 BKN200 OVC300 25/18 A2971 RMK AC5CI2CI1 SLP061

CYYG;2012-06-20 20:00;CYYG 202000Z 20010KT 15SM BKN090 OVC200 24/18 A2969 RMK AC6CI1 SHRA DIST N SLP053

CYYG;2012-06-20 21:00;CYYG 202100Z 10006KT 15SM SCT085 BKN200 22/17 A2969 RMK AC4CI3 SLP052

CYYG;2012-06-20 22:00;CYYG 202200Z 18003KT 15SM SCT075 BKN200 23/18 A2967 RMK AC4CI2 SLP046

CYYG;2012-06-20 23:00;CYYG 202300Z 25004KT 15SM FEW040TCU FEW080 BKN300 22/18 A2967 RMK TCU1AC2CI2 TCU DIST NE-S SLP048

CYYG;2012-06-21 00:00;CYYG 210000Z 29003KT 15SM FEW040TCU FEW080 BKN300 21/17 A2968 RMK TCU1AC1CI1 TCU DIST NE-E CONTRAILS SLP049

CYYG;2012-06-21 01:00;CYYG 210100Z 32006KT 15SM FEW080 BKN300 21/16 A2969 RMK AC1CI1 SLP052

CYYG;2012-06-21 02:00;CYYG 210200Z 32006KT 15SM BKN300 20/14 A2968 RMK CI2 SLP050

CYYG;2012-06-21 03:00;CYYG 210300Z 34007KT 15SM BKN300 17/15 A2968 RMK CI2 SLP051

CYYG;2012-06-21 04:00;CYYG 210400Z 35006KT 15SM BKN300 16/15 A2969 RMK CI2 SLP055

CYYG;2012-06-21 05:00;CYYG 210500Z 36007KT 15SM FEW049 FEW062 BKN300 15/15 A2969 RMK SC2SC1CI1 SLP053

CYYG;2012-06-21 06:00;CYYG 210600Z 32006KT 15SM FEW049 FEW062 BKN300 15/14 A2969 RMK SC1SC2CI1 SLP054

CYYG;2012-06-21 07:00;CYYG 210700Z 30006KT 15SM FEW062 BKN300 14/14 A2968 RMK SC1CI1 SLP049

CYYG;2012-06-21 08:00;CYYG 210800Z 30008KT 15SM FEW062 FEW300 15/14 A2968 RMK SC1CI0 SLP050

CYYG;2012-06-21 09:00;CYYG 210900Z 32006KT 15SM FEW060 SCT300 15/13 A2969 RMK SC2CI0 SLP052

CYYG;2012-06-21 10:00;CYYG 211000Z 33008G15KT 15SM BKN030 BKN300 17/13 A2969 RMK SC6CI0 SLP055

CYYG;2012-06-21 11:00;CYYG 211100Z 34009G16KT 15SM BKN021 18/13 A2971 RMK SC7 SLP061

CYYG;2012-06-21 11:49;CYYG 211149Z 35012KT 15SM BKN013 18/ RMK SC7

CYYG;2012-06-21 12:00;CYYG 211200Z 33010G17KT 15SM BKN014 18/14 A2971 RMK SC7 SLP062

CYYG;2012-06-21 13:00;CYYG 211300Z 33009G18KT 15SM BKN015 18/14 A2973 RMK SC7 SLP066

CYYG;2012-06-21 14:00;CYYG 211400Z 33011G19KT 15SM FEW010 BKN026 18/14 A2973 RMK SF2SC6 VIS LWR N-NE SLP067

CYYG;2012-06-21 15:00;CYYG 211500Z 32011G17KT 15SM SCT012 BKN026 19/15 A2974 RMK SF4SC3 VIS LWR N-NE SLP069

CYYG;2012-06-21 16:00;CYYG 211600Z 36011G19KT 12SM FEW007 BKN018 18/15 A2974 RMK SF2SC6 VIS LWR N-NE SLP069

CYYG;2012-06-21 16:20;CYYG 211620Z 34010KT 10SM BKN008 OVC020 17/ RMK SF6SC2 VIS LWR NE

CYYG;2012-06-21 17:00;CYYG 211700Z 34009KT 8SM BKN008 OVC018 18/15 A2974 RMK SF7SC1 HAZY VIS LWR NW-E SLP072

CYYG;2012-06-21 18:00;CYYG 211800Z 36010KT 8SM BKN008 BKN018 18/15 A2974 RMK SF6SC1 HAZY VIS LWR E SLP073

CYYG;2012-06-21 19:00;CYYG 211900Z 01010KT 8SM BKN008 OVC018 17/14 A2975 RMK SF7SC1 HAZY VIS LWR E SLP076

CYYG;2012-06-21 20:00;CYYG 212000Z 36010KT 10SM BKN008 OVC019 17/14 A2976 RMK SF7SC1 HAZY VIS LWR NE SLP077

CYYG;2012-06-21 20:45;CYYG 212045Z 03011KT 12SM SCT009 BKN020 18/ RMK SF4SC3

CYYG;2012-06-21 21:00;CYYG 212100Z 02010KT 15SM SCT009 BKN020 18/15 A2976 RMK SF4SC3 SLP077

CYYG;2012-06-21 22:00;CYYG 212200Z 36007KT 15SM FEW009 SCT020 18/15 A2976 RMK SF2SC2 SLP077

CYYG;2012-06-21 23:00;CYYG 212300Z 36007KT 15SM FEW009 FEW020 SCT300 16/14 A2977 RMK SF1SC1CI1 SLP080

CYYG;2012-06-22 00:00;CYYG 220000Z 04004KT 15SM FEW020 SCT300 14/13 A2978 RMK SC1CI1 SLP084

CYYG;2012-06-22 01:00;CYYG 220100Z 34003KT 15SM SCT300 13/13 A2979 RMK CI1 SLP089

CYYG;2012-06-22 02:00;CYYG 220200Z 34004KT 6SM BR SKC 13/12 A2979 RMK FG4 SLP090

CYYG;2012-06-22 03:00;CYYG 220300Z 35003KT 10SM MIFG SKC 11/11 A2979 RMK FG2 SLP089

CYYG;2012-06-22 04:00;CYYG 220400Z 01002KT 10SM MIFG SKC 10/10 A2979 RMK SLP088

CYYG;2012-06-22 04:51;CYYG 220451Z 04003KT 3/8SM R03/1800FT/N FG VV001 11/ RMK FG8

CYYG;2012-06-22 05:00;CYYG 220500Z 00000KT 1/4SM R03/1400FT/N FG VV001 11/11 A2979 RMK FG8 SLP089

CYYG;2012-06-22 06:00;CYYG 220600Z 26005KT 1/4SM R03/1600FT/N FG VV001 12/12 A2981 RMK FG8 SLP094

CYYG;2012-06-22 07:00;CYYG 220700Z 00000KT 1/4SM R03/2200FT/N FG VV001 12/12 A2980 RMK FG8 SLP093

CYYG;2012-06-22 08:00;CYYG 220800Z 00000KT 1/8SM R03/1400FT/N FG VV001 12/12 A2981 RMK FG8 SLP094

CYYG;2012-06-22 09:00;CYYG 220900Z 00000KT 1/8SM R03/0800FT/N FG VV001 12/12 A2981 RMK FG8 SLP096

CYYG;2012-06-22 09:54;CYYG 220954Z 12004KT 1/4SM R03/1200V2200FT/U FG VV001 13/ RMK FG8

CYYG;2012-06-22 10:00;CYYG 221000Z 11004KT 1/4SM R03/2000FT/U FG VV001 13/13 A2982 RMK FG8 SLP099

CYYG;2012-06-22 10:07;CYYG 221007Z 13004KT 1/2SM R03/2600V6000FT/U FG OVC013 13/ RMK FG6SC2

CYYG;2012-06-22 10:15;CYYG 221015Z 12004KT 3/4SM R03/P6000FT/D BR OVC013 14/ RMK FG6SC2

CYYG;2012-06-22 10:46;CYYG 221046Z 14003KT 5/8SM R03/4000VP6000FT/U BR BKN002 OVC007 14/ RMK SF6SF2

CYYG;2012-06-22 11:00;CYYG 221100Z 15002KT 3/4SM R03/4500VP6000FT/U BR BKN002 OVC007 14/14 A2984 RMK SF7SF1 SLP105

CYYG;2012-06-22 11:36;CYYG 221136Z 15003KT 1SM R03/P6000FT/N BR BKN002 OVC006 14/ RMK SF6SF2

CYYG;2012-06-22 12:00;CYYG 221200Z 17002KT 2SM BR BKN003 OVC012 15/15 A2985 RMK SF6SF2 SLP107

CYYG;2012-06-22 12:12;CYYG 221212Z 20004KT 8SM FEW003 BKN013 15/ RMK SF2SC5

CYYG;2012-06-22 13:00;CYYG 221300Z 15005KT 15SM BKN013 BKN140 BKN300 17/15 A2985 RMK SC5AC1CI1 SLP108

CYYG;2012-06-22 14:00;CYYG 221400Z 14007KT 15SM BKN014 18/15 A2985 RMK SC7 SLP108

CYYG;2012-06-22 15:00;CYYG 221500Z 19008KT 15SM OVC013 17/14 A2985 RMK SC8 SLP109

CYYG;2012-06-22 16:00;CYYG 221600Z 19007KT 15SM -SHRA BKN014 OVC120 17/14 A2985 RMK SC6AS2 SLP107

CYYG;2012-06-22 17:00;CYYG 221700Z 15007KT 10SM -SHRA FEW014 OVC039 17/15 A2984 RMK SC2SC6 SLP106

CYYG;2012-06-22 18:00;CYYG 221800Z 16004KT 10SM -SHRA FEW014 OVC037 17/15 A2985 RMK SC2SC6 SLP109

CYYG;2012-06-22 19:00;CYYG 221900Z 15009KT 15SM -SHRA FEW012 OVC070 18/16 A2983 RMK SF2AC6 SLP103

CYYG;2012-06-22 19:26;CYYG 221926Z 16008KT 15SM FEW012 OVC077 17/ RMK SF2AC6

CYYG;2012-06-22 20:00;CYYG 222000Z 14008KT 15SM FEW014 BKN095 18/16 A2982 RMK SC2AC5 SLP100

CYYG;2012-06-22 21:00;CYYG 222100Z 14008KT 15SM FEW015 BKN083 18/16 A2982 RMK SC2AC5 SLP097

CYYG;2012-06-22 22:00;CYYG 222200Z 15010KT 15SM FEW015 SCT090 BKN120 18/16 A2981 RMK SC1AC2AC4 SLP094

CYYG;2012-06-22 23:00;CYYG 222300Z 13008KT 15SM BKN070 BKN120 BKN190 18/16 A2983 RMK AC5AC2AC1 SLP101

CYYG;2012-06-23 00:00;CYYG 230000Z 15009KT 15SM OVC064 18/16 A2984 RMK SC8 SLP105

CYYG;2012-06-23 01:00;CYYG 230100Z 18010KT 15SM OVC064 16/15 A2987 RMK SC8 SLP114

CYYG;2012-06-23 02:00;CYYG 230200Z 16009KT 15SM OVC047 16/14 A2986 RMK SC8 SLP113

CYYG;2012-06-23 02:45;CYYG 230245Z 18011KT 15SM -SHRA BKN050 OVC074 15/ RMK SC6AC2

CYYG;2012-06-23 03:00;CYYG 230300Z 17010KT 15SM -SHRA BKN050 OVC074 15/14 A2986 RMK SC6AC2 SLP113

CYYG;2012-06-23 03:52;CYYG 230352Z 19009KT 12SM -SHRA BKN004 OVC040 15/ RMK SF5SC3

CYYG;2012-06-23 04:00;CYYG 230400Z 19009KT 12SM -SHRA BKN004 OVC040 15/14 A2986 RMK SF6SC2 SLP113

CYYG;2012-06-23 05:00;CYYG 230500Z 18013KT 12SM -SHRA BKN004 OVC033 15/14 A2986 RMK SF5SC3 SLP113

CYYG;2012-06-23 06:00;CYYG 230600Z 18010KT 10SM -SHRA SCT004 BKN040 OVC100 14/14 A2987 RMK SF4SC2AC2 SLP114

CYYG;2012-06-23 07:00;CYYG 230700Z 18009KT 15SM -SHRA SCT004 SCT035 OVC059 14/14 A2987 RMK SF3SC1SC4 SLP117

CYYG;2012-06-23 08:00;CYYG 230800Z 18008KT 15SM -SHRA SCT005 OVC061 14/14 A2988 RMK SF3SC5 SLP120

CYYG;2012-06-23 09:00;CYYG 230900Z 17011KT 15SM -SHRA SCT005 OVC063 14/13 A2989 RMK SF4SC4 SLP121

CYYG;2012-06-23 09:46;CYYG 230946Z 17011KT 15SM BKN005 OVC065 14/ RMK SF5SC3

CYYG;2012-06-23 10:00;CYYG 231000Z 16009KT 15SM BKN005 OVC064 14/13 A2990 RMK SF5SC3 SLP126

CYYG;2012-06-23 11:00;CYYG 231100Z 17010KT 15SM SCT005 OVC062 14/13 A2991 RMK SF4SC4 SLP129

CYYG;2012-06-23 12:00;CYYG 231200Z 15012KT 15SM FEW005 BKN067 OVC260 15/13 A2992 RMK SF2AC4CC2 SLP133

CYYG;2012-06-23 13:00;CYYG 231300Z 16012KT 15SM FEW006 BKN071 BKN260 16/14 A2992 RMK SF2AC4CC2 SLP133

CYYG;2012-06-23 14:00;CYYG 231400Z 17013KT 15SM FEW009 BKN076 BKN260 16/13 A2993 RMK SF1AC5CC2 SLP135

CYYG;2012-06-23 15:00;CYYG 231500Z 17013KT 15SM BKN072 BKN260 17/13 A2993 RMK AC5CC2 SLP136

CYYG;2012-06-23 16:00;CYYG 231600Z 16013KT 15SM BKN075 BKN260 17/13 A2993 RMK AC5CI2 SLP137

CYYG;2012-06-23 17:00;CYYG 231700Z 15013KT 15SM BKN090 BKN260 18/12 A2993 RMK AC5CI2 SLP137

CYYG;2012-06-23 18:00;CYYG 231800Z 15015KT 15SM BKN078 BKN260 18/12 A2993 RMK AC6CI2 SLP134

CYYG;2012-06-23 19:00;CYYG 231900Z 16010KT 15SM BKN058 OVC260 18/12 A2992 RMK SC6CI2 SLP133

CYYG;2012-06-23 20:00;CYYG 232000Z 20008KT 15SM BKN058 OVC260 17/12 A2993 RMK SC6CI2 SLP137

CYYG;2012-06-23 21:00;CYYG 232100Z 21004KT 15SM BKN059 OVC260 17/12 A2994 RMK SC6CI2 SLP140

CYYG;2012-06-23 21:14;CYYG 232114Z 18006KT 15SM -SHRA BKN059 OVC260 17/ RMK SC6CI2

CYYG;2012-06-23 22:00;CYYG 232200Z 13006KT 15SM -SHRA BKN059 OVC100 16/13 A2994 RMK SC5AC3 SLP140

CYYG;2012-06-23 23:00;CYYG 232300Z 15008KT 15SM -SHRA FEW010 FEW060 OVC085 15/13 A2995 RMK SC1SC2AC6 SLP143

CYYG;2012-06-24 00:00;CYYG 240000Z 15007KT 15SM -SHRA FEW010 SCT060 OVC120 14/13 A2994 RMK SC1SC2AC5 SLP140

CYYG;2012-06-24 01:00;CYYG 240100Z 15008KT 15SM -SHRA FEW060 OVC075 14/12 A2995 RMK SC2AC6 SLP141

CYYG;2012-06-24 02:00;CYYG 240200Z 12008KT 15SM -SHRA OVC048 13/12 A2994 RMK SC8 SLP138

CYYG;2012-06-24 02:40;CYYG 240240Z 11010KT 15SM FEW045 OVC055 13/ RMK SC2SC6

CYYG;2012-06-24 03:00;CYYG 240300Z 12007KT 15SM -SHRA BKN036 OVC050 13/12 A2992 RMK SC5SC3 SLP132

CYYG;2012-06-24 04:00;CYYG 240400Z 11007KT 10SM -SHRA BKN020 OVC045 13/12 A2990 RMK SC6SC2 SLP126

CYYG;2012-06-24 05:00;CYYG 240500Z 11008KT 10SM -SHRA FEW006 OVC017 13/12 A2988 RMK SF1SC7 SLP119

CYYG;2012-06-24 06:00;CYYG 240600Z 10009KT 10SM -SHRA FEW006 OVC013 13/12 A2987 RMK SF1SC7 SLP114

CYYG;2012-06-24 07:00;CYYG 240700Z 11011KT 7SM SHRA OVC006 13/12 A2985 RMK SF8 SLP108

CYYG;2012-06-24 08:00;CYYG 240800Z 12010KT 15SM -SHRA OVC006 13/12 A2984 RERA RMK SF8 SLP105

CYYG;2012-06-24 08:29;CYYG 240829Z 12010G15KT 15SM -SHRA SCT006 OVC010 13/ RMK SF3SC5

CYYG;2012-06-24 08:50;CYYG 240850Z 12011KT 15SM FEW006 OVC014 13/ RMK SF2SC6

CYYG;2012-06-24 09:00;CYYG 240900Z 12012KT 15SM FEW006 OVC014 13/12 A2982 RMK SF2SC6 SLP099

CYYG;2012-06-24 10:00;CYYG 241000Z 12012KT 15SM VCSH FEW006 OVC012 13/12 A2981 RMK SF2SC6 SLP094

CYYG;2012-06-24 11:00;CYYG 241100Z 12011KT 15SM BKN009 OVC012 14/13 A2981 RMK SF6SC2 SLP096

CYYG;2012-06-24 12:00;CYYG 241200Z 15015G21KT 15SM OVC009 14/13 A2981 RMK SC8 SLP096

CYYG;2012-06-24 13:00;CYYG 241300Z 14011G18KT 15SM OVC009 15/13 A2981 RMK SC8 SLP094

CYYG;2012-06-24 14:00;CYYG 241400Z 15011G17KT 15SM OVC009 15/13 A2980 RMK SC8 SLP092

CYYG;2012-06-24 15:00;CYYG 241500Z 14011KT 15SM OVC009 15/14 A2979 RMK SC8 SLP089

CYYG;2012-06-24 16:00;CYYG 241600Z 15011KT 15SM OVC008 16/14 A2979 RMK SC8 SLP087

CYYG;2012-06-24 17:00;CYYG 241700Z 14009KT 15SM OVC009 16/14 A2978 RMK SC8 SLP084

CYYG;2012-06-24 18:00;CYYG 241800Z 15010KT 15SM OVC012 17/15 A2977 RMK SC8 SLP080

CYYG;2012-06-24 19:00;CYYG 241900Z 16007KT 15SM OVC013 18/16 A2976 RMK SC8 SLP079

CYYG;2012-06-24 20:00;CYYG 242000Z 16007KT 15SM OVC013 18/16 A2975 RMK SC8 SLP076

CYYG;2012-06-24 21:00;CYYG 242100Z 14005KT 15SM OVC011 18/16 A2975 RMK SC8 SLP075

CYYG;2012-06-24 21:40;CYYG 242140Z 11004KT 4SM -SHRA OVC012 18/ RMK SC8

CYYG;2012-06-24 22:00;CYYG 242200Z 00000KT 4SM -SHRA OVC011 17/16 A2976 RMK SC8 SLP077

CYYG;2012-06-24 22:25;CYYG 242225Z 09004KT 3SM -SHRA BR FEW007 OVC012 16/ RMK SF2SC6

CYYG;2012-06-24 22:39;CYYG 242239Z 08003KT 2SM -SHRA BR BKN007 OVC012 16/ RMK SF6SC2

CYYG;2012-06-24 23:00;CYYG 242300Z 07003KT 2SM BR FEW002 SCT007 OVC012 16/16 A2976 RMK SF1SF2SC5 SLP078

CYYG;2012-06-25 00:00;CYYG 250000Z 00000KT 2 1/2SM BR BKN003 OVC007 16/16 A2976 RMK SF6SC2 SLP078

CYYG;2012-06-25 00:24;CYYG 250024Z 04003KT 2 1/2SM -SHRA BR BKN003 OVC007 16/ RMK SF6SF2

CYYG;2012-06-25 00:47;CYYG 250047Z 04003KT 2 1/2SM -SHRA BR FEW003 OVC008 16/ RMK SF2SF6

CYYG;2012-06-25 01:00;CYYG 250100Z 02004KT 2 1/2SM -SHRA BR FEW003 OVC008 16/15 A2977 RMK SF2SF6 SLP081

CYYG;2012-06-25 01:44;CYYG 250144Z 06002KT 2 1/2SM -SHRA BR SCT001 OVC011 16/ RERA RMK SF3SC5

CYYG;2012-06-25 02:00;CYYG 250200Z 03002KT 2 1/2SM -SHRA BR SCT001 OVC007 16/16 A2977 RERA RMK SF3SF5 SLP082

CYYG;2012-06-25 02:14;CYYG 250214Z 30002KT 1 1/2SM -SHRA BR SCT001 OVC005 16/ RMK SF4SF4

CYYG;2012-06-25 02:46;CYYG 250246Z 00000KT 2 1/2SM -SHRA BR BKN002 BKN006 OVC010 15/ RMK SF6SF2SC1

CYYG;2012-06-25 03:00;CYYG 250300Z 30002KT 2 1/2SM BR BKN002 OVC008 16/16 A2978 RMK SF6SF2 SLP084

CYYG;2012-06-25 03:21;CYYG 250321Z 30002KT 2SM -DZ BR OVC003 16/ RMK SF8

CYYG;2012-06-25 04:00;CYYG 250400Z 29006KT 2SM -DZ BR OVC003 16/16 A2978 RMK SF8 SLP085

CYYG;2012-06-25 05:00;CYYG 250500Z 27005KT 2SM -DZ BR OVC003 15/15 A2979 RMK SF8 SLP089

CYYG;2012-06-25 06:00;CYYG 250600Z 29009KT 10SM OVC008 14/13 A2980 RMK SF8 SLP093

CYYG;2012-06-25 07:00;CYYG 250700Z 26006KT 15SM FEW008 BKN017 13/12 A2981 RMK SF2SC5 SLP094

CYYG;2012-06-25 08:00;CYYG 250800Z 26004KT 15SM BKN017 13/12 A2981 RMK SC6 SLP096

CYYG;2012-06-25 09:00;CYYG 250900Z 26003KT 15SM FEW011 BKN015 13/12 A2983 RMK SF1SC6 SLP103

CYYG;2012-06-25 10:00;CYYG 251000Z 26006KT 15SM BKN010 14/13 A2985 RMK SC6 SLP107

CYYG;2012-06-25 11:00;CYYG 251100Z 24007KT 15SM FEW008 BKN012 BKN260 14/13 A2987 RMK SF1SC5CI1 SLP114

CYYG;2012-06-25 11:39;CYYG 251139Z 23006KT 15SM FEW008 SCT012 BKN260 15/ RMK SF1SC3CI2

CYYG;2012-06-25 12:00;CYYG 251200Z 23006KT 15SM FEW012 BKN022 BKN260 16/13 A2988 RMK CF2SC3CI1 SLP118

CYYG;2012-06-25 13:00;CYYG 251300Z 22007KT 15SM BKN018 BKN260 17/13 A2988 RMK SC6CI1 SLP120

CYYG;2012-06-25 14:00;CYYG 251400Z 20006KT 15SM BKN019 BKN260 18/14 A2989 RMK SC5CI1 SLP123

CYYG;2012-06-25 15:00;CYYG 251500Z 20008KT 15SM BKN017 BKN260 19/15 A2991 RMK SC5CI2 SLP128

CYYG;2012-06-25 16:00;CYYG 251600Z 21007KT 15SM FEW020 BKN260 20/15 A2990 RMK CF2CI2 SLP125

CYYG;2012-06-25 17:00;CYYG 251700Z 19007KT 15SM FEW024 FEW160 BKN260 21/17 A2989 RMK CF1AC1CI2 SLP121

CYYG;2012-06-25 18:00;CYYG 251800Z 17005KT 15SM FEW028 BKN170 BKN260 22/16 A2988 RMK CF1AC4CI1 SLP119

CYYG;2012-06-25 19:00;CYYG 251900Z 15008KT 15SM FEW030 BKN150 BKN260 23/16 A2989 RMK CF1AC4CI1 SLP121

CYYG;2012-06-25 20:00;CYYG 252000Z 16006KT 15SM FEW030 BKN170 BKN260 24/16 A2988 RMK CU1AC4CI1 SLP118

CYYG;2012-06-25 21:00;CYYG 252100Z 15006KT 15SM FEW036 SCT170 BKN260 24/16 A2988 RMK CU1AC2CI2 SLP119

CYYG;2012-06-25 22:00;CYYG 252200Z 17005KT 15SM FEW040 SCT170 BKN260 24/15 A2987 RMK CU2AC2CI1 SLP117

CYYG;2012-06-25 23:00;CYYG 252300Z 16007KT 15SM BKN068 BKN260 23/15 A2988 RMK AC5CI1 SLP119

CYYG;2012-06-26 00:00;CYYG 260000Z 15008KT 15SM FEW056 FEW067 SCT150 BKN260 21/15 A2989 RMK CU1AC2AC1CI1 SLP122

CYYG;2012-06-26 01:00;CYYG 260100Z 17013KT 15SM SCT070 BKN180 20/13 A2992 RMK AC3AC2 SLP131

CYYG;2012-06-26 02:00;CYYG 260200Z 16010KT 15SM FEW070 SCT160 18/13 A2993 RMK AC2AC2 SLP135

CYYG;2012-06-26 03:00;CYYG 260300Z 16013G18KT 15SM FEW160 17/14 A2993 RMK AC2 SLP134

CYYG;2012-06-26 04:00;CYYG 260400Z 16011KT 15SM FEW160 16/14 A2993 RMK AC2 SLP134

CYYG;2012-06-26 05:00;CYYG 260500Z 14007KT 15SM FEW160 15/14 A2993 RMK AC2 SLP134

CYYG;2012-06-26 06:00;CYYG 260600Z 14008KT 15SM SCT200 15/14 A2992 RMK CI2 SLP132

CYYG;2012-06-26 07:00;CYYG 260700Z 13009KT 15SM FEW013 BKN210 15/15 A2992 RMK SC2CI1 SLP131

CYYG;2012-06-26 08:00;CYYG 260800Z 12008KT 15SM FEW013 FEW210 BKN300 15/14 A2991 RMK SC1CC1CI1 SLP128

CYYG;2012-06-26 09:00;CYYG 260900Z 13010KT 15SM FEW120 BKN300 15/14 A2991 RMK AC2CI2 SLP128

CYYG;2012-06-26 10:00;CYYG 261000Z 11010G16KT 15SM FEW013 FEW087 SCT100 BKN300 16/14 A2990 RMK SC1AC1AC2CS2 SLP125

CYYG;2012-06-26 10:02;CYYG 261002Z 12010KT 15SM BKN008 BKN100 BKN300 16/ RMK SF6AC1CS1

CYYG;2012-06-26 11:00;CYYG 261100Z 13009KT 12SM OVC006 16/15 A2989 RMK ST8 SLP122

CYYG;2012-06-26 12:00;CYYG 261200Z 11014KT 15SM BKN009 BKN200 19/16 A2987 RMK SF6CI0 SLP114

CYYG;2012-06-26 13:00;CYYG 261300Z 11015G22KT 15SM SCT009 BKN070 BKN200 19/15 A2985 RMK SF3AC2CI2 SLP109

CYYG;2012-06-26 13:50;CYYG 261350Z 12019G25KT 15SM -SHRA FEW009 BKN021 BKN070 20/ RMK SF2SC3AC2 VIS S 6

CYYG;2012-06-26 14:00;CYYG 261400Z 11018G26KT 8SM -SHRA FEW007 BKN018 OVC070 19/16 A2984 RMK SF2SC4AC2 VIS W 3 SLP106

CYYG;2012-06-26 15:00;CYYG 261500Z 11014G20KT 12SM -SHRA FEW008 BKN015 OVC090 17/16 A2984 RMK SF1SC5AC2 VIS E 5 SLP104

CYYG;2012-06-26 15:17;CYYG 261517Z 11017G25KT 12SM FEW008 BKN024 OVC086 18/ RMK SF2SC4AC2

CYYG;2012-06-26 16:00;CYYG 261600Z 11021G27KT 15SM FEW007 BKN012 OVC030 18/15 A2982 RMK SF1SC6SC1 SLP097

CYYG;2012-06-26 16:47;CYYG 261647Z 11021G32KT 12SM -SHRA FEW006 OVC011 17/ RMK SF2SC6

CYYG;2012-06-26 17:00;CYYG 261700Z 12018G31KT 12SM -SHRA FEW006 OVC013 17/15 A2980 RMK SF2SC6 SLP093

CYYG;2012-06-26 18:00;CYYG 261800Z 10018G25KT 12SM -SHRA SCT006 OVC011 16/15 A2978 RMK SF3SC5 SLP085

CYYG;2012-06-26 19:00;CYYG 261900Z 10019G26KT 6SM -SHRA BR FEW003 OVC010 16/15 A2974 RMK SF2SC6 SLP072

CYYG;2012-06-26 19:41;CYYG 261941Z 10017G26KT 6SM -SHRA BR BKN004 OVC011 16/ RMK SF7SC1

CYYG;2012-06-26 20:00;CYYG 262000Z 10015G22KT 6SM -SHRA BR OVC004 16/15 A2971 RMK SF8 VIS HIER S SLP062

CYYG;2012-06-26 20:43;CYYG 262043Z 10016G23KT 5SM -SHRA BR OVC003 16/ RMK SF8 VIS LWR E

CYYG;2012-06-26 21:00;CYYG 262100Z 09015G26KT 6SM -SHRA BR OVC004 16/15 A2967 RMK SF8 VIS LWR E SLP049

CYYG;2012-06-26 21:11;CYYG 262111Z 10020G27KT 8SM -SHRA BKN005 OVC012 16/ RMK SF7SC1

CYYG;2012-06-26 22:00;CYYG 262200Z 10018G30KT 8SM -SHRA BKN006 OVC012 16/16 A2960 RMK SF7SC1 VIS LWR E PRESFR SLP025

CYYG;2012-06-26 23:00;CYYG 262300Z 11018G26KT 8SM -SHRA OVC008 16/16 A2959 RMK SF8 SLP021

CYYG;2012-06-26 23:19;CYYG 262319Z 11022G32KT 1 1/2SM +SHRA OVC005 16/ RMK SF8

CYYG;2012-06-26 23:28;CYYG 262328Z 10020G30KT 8SM -SHRA OVC005 16/ RERA RMK SF8

CYYG;2012-06-26 23:39;CYYG 262339Z 11019G29KT 1 1/2SM +SHRA BKN004 OVC017 16/ RMK SF6SC2

CYYG;2012-06-26 23:52;CYYG 262352Z 11018G28KT 5SM -SHRA BR BKN006 OVC012 16/ RERA RMK SF6SF2

CYYG;2012-06-27 00:00;CYYG 270000Z 11017G26KT 5SM -SHRA BR BKN006 OVC012 16/16 A2956 RERA RMK SF6SF2 SLP010

CYYG;2012-06-27 00:47;CYYG 270047Z 12013G20KT 15SM OVC007 17/ RMK SF8

CYYG;2012-06-27 01:00;CYYG 270100Z 13013G20KT 15SM OVC006 17/16 A2957 RMK SF8 SLP013

CYYG;2012-06-27 01:24;CYYG 270124Z 13013G22KT 15SM -RA BKN006 OVC015 17/ RMK SF6SC2

CYYG;2012-06-27 02:00;CYYG 270200Z 15014KT 15SM OVC007 18/17 A2959 RMK SF8 SLP019

CYYG;2012-06-27 02:26;CYYG 270226Z 16013KT 15SM SCT007 OVC018 18/ RMK SF3SC5

CYYG;2012-06-27 03:00;CYYG 270300Z 16013G18KT 15SM FEW007 OVC015 18/17 A2960 RMK SF2SC6 SLP024

CYYG;2012-06-27 04:00;CYYG 270400Z 16010KT 15SM FEW010 OVC017 17/16 A2962 RMK SF2SC6 SLP029

CYYG;2012-06-27 05:00;CYYG 270500Z 15008KT 15SM BKN014 OVC067 17/16 A2961 RMK SC6AC2 SLP028

CYYG;2012-06-27 06:00;CYYG 270600Z 15006KT 15SM FEW007 OVC011 17/16 A2962 RMK SF2SC6 SLP031

CYYG;2012-06-27 07:00;CYYG 270700Z 15009KT 15SM BKN005 OVC010 16/16 A2963 RMK SF6SF2 SLP032

CYYG;2012-06-27 08:00;CYYG 270800Z 16011G18KT 15SM SCT005 OVC017 16/16 A2963 RMK SF3SC5 SLP034

CYYG;2012-06-27 09:00;CYYG 270900Z 15009KT 15SM FEW005 BKN014 BKN250 16/15 A2964 RMK SF2SC4CI1 SLP038

CYYG;2012-06-27 09:15;CYYG 270915Z 15010KT 15SM BKN005 BKN010 16/ RMK SF5SC2

CYYG;2012-06-27 10:00;CYYG 271000Z 16013KT 15SM SCT005 BKN015 16/15 A2965 RMK SF3SC4 SLP042

CYYG;2012-06-27 11:00;CYYG 271100Z 17014KT 15SM FEW005 BKN025 17/15 A2969 RMK SF1SC6 SLP054

CYYG;2012-06-27 12:00;CYYG 271200Z 17014KT 15SM FEW010 BKN035 18/15 A2970 RMK CU2SC5 SLP059

CYYG;2012-06-27 13:00;CYYG 271300Z 17015G25KT 15SM FEW015 FEW035 SCT250 18/14 A2971 RMK CU2SC1CI1 SLP063

CYYG;2012-06-27 14:00;CYYG 271400Z 16013G21KT 15SM FEW020 BKN033 BKN250 17/14 A2973 RMK CU1SC6CI1 SLP067

CYYG;2012-06-27 15:00;CYYG 271500Z 16016G21KT 15SM FEW022 BKN034 BKN250 18/14 A2972 RMK CU1SC4CI2 SLP065

CYYG;2012-06-27 16:00;CYYG 271600Z 17016G23KT 15SM FEW025 BKN033 BKN250 19/15 A2972 RMK CU1SC5CI2 SLP063

CYYG;2012-06-27 17:00;CYYG 271700Z 15015KT 15SM FEW025 FEW033 BKN250 19/15 A2970 RMK CU1SC1CI6 SLP058

CYYG;2012-06-27 18:00;CYYG 271800Z 15017G24KT 15SM FEW025 FEW042 BKN250 21/15 A2969 RMK CU1SC1CI5 SLP054

CYYG;2012-06-27 19:00;CYYG 271900Z 15015G22KT 15SM FEW025 FEW042 BKN250 20/15 A2967 RMK CU1SC1CI3 SLP048

CYYG;2012-06-27 20:00;CYYG 272000Z 15016G22KT 15SM FEW030 SCT220 BKN270 21/15 A2968 RMK CU1CC2CI2 SLP050

CYYG;2012-06-27 21:00;CYYG 272100Z 15016G23KT 15SM BKN035 BKN270 20/15 A2967 RMK CU5CI1 SLP047

CYYG;2012-06-27 22:00;CYYG 272200Z 15013G19KT 15SM FEW035 FEW200 FEW270 20/14 A2967 RMK CU1CC1CI1 SLP046

CYYG;2012-06-27 23:00;CYYG 272300Z 16012G18KT 15SM FEW035 SCT180 BKN270 19/13 A2968 RMK SC2AC2CI1 SLP049

CYYG;2012-06-28 00:00;CYYG 280000Z 17014G22KT 15SM FEW030 BKN180 18/13 A2967 RMK SC2AC3 SLP047

CYYG;2012-06-28 01:00;CYYG 280100Z 16013KT 15SM FEW030 BKN180 17/13 A2968 RMK SC2AC2 SLP050

CYYG;2012-06-28 02:00;CYYG 280200Z 15014KT 15SM FEW030 BKN180 17/12 A2967 RMK SC2AC2 SLP047

CYYG;2012-06-28 03:00;CYYG 280300Z 16012KT 15SM FEW030 OVC083 16/13 A2967 RMK SC2AC6 SLP047

CYYG;2012-06-28 04:00;CYYG 280400Z 16012KT 15SM FEW030 OVC090 15/13 A2966 RMK SC2AC6 SLP044

CYYG;2012-06-28 05:00;CYYG 280500Z 15010KT 15SM FEW030 OVC082 15/13 A2965 RMK SC2AC6 SLP040

CYYG;2012-06-28 06:00;CYYG 280600Z 16010G16KT 15SM SCT018 OVC080 15/13 A2965 RMK SC4AC4 SLP041

CYYG;2012-06-28 07:00;CYYG 280700Z 15008KT 15SM FEW018 BKN056 15/13 A2964 RMK SC2SC5 SLP036

CYYG;2012-06-28 08:00;CYYG 280800Z 16012KT 12SM -SHRA FEW018 OVC036 15/13 A2964 RMK SC2SC6 SLP036

CYYG;2012-06-28 09:00;CYYG 280900Z 16012KT 15SM -SHRA FEW020 BKN042 15/14 A2964 RMK SC2SC5 SLP038

CYYG;2012-06-28 10:00;CYYG 281000Z 16013KT 15SM -SHRA FEW020 BKN052 BKN089 15/14 A2964 RMK SC2SC2AC2 SLP038

CYYG;2012-06-28 10:38;CYYG 281038Z 16012G17KT 15SM VCSH FEW020 BKN050 16/ RMK CF1SC6

CYYG;2012-06-28 11:00;CYYG 281100Z 16014KT 15SM VCSH FEW015 BKN050 BKN300 16/14 A2964 RMK SC1SC6CI1 SLP036

CYYG;2012-06-28 12:00;CYYG 281200Z 16016KT 15SM FEW020 FEW050 BKN072 BKN300 18/15 A2964 RMK SC1SC1AC3CI1 SLP036

CYYG;2012-06-28 13:00;CYYG 281300Z 16017KT 15SM FEW020 FEW050 SCT072 BKN300 18/15 A2963 RMK CU1SC1AC2CI2 SLP034

CYYG;2012-06-28 14:00;CYYG 281400Z 16015G20KT 15SM FEW028 BKN060 19/15 A2963 RMK CU1SC6 SLP034

CYYG;2012-06-28 15:00;CYYG 281500Z 17013KT 15SM BKN045 BKN300 19/15 A2964 RMK SC6CI1 MDT CU ASOCTD SLP037

CYYG;2012-06-28 16:00;CYYG 281600Z 21010G18KT 15SM VCSH BKN027TCU BKN055 20/15 A2963 RMK TCU5SC2 SLP034

CYYG;2012-06-28 17:00;CYYG 281700Z 17014G21KT 15SM SCT020 BKN055 BKN300 21/16 A2962 RMK CU3SC2CI2 TCU ASOCTD SLP030

CYYG;2012-06-28 18:00;CYYG 281800Z 18012KT 15SM -SHRA BKN027TCU BKN300 20/16 A2961 RMK TCU6CI2 SLP028

CYYG;2012-06-28 18:26;CYYG 281826Z 18007KT 15SM VCSH BKN030TCU BKN300 19/ RMK TCU5CI2

CYYG;2012-06-28 19:00;CYYG 281900Z 23007KT 15SM VCSH SCT035TCU BKN220 21/16 A2960 RMK TCU4CI2 CB DIST S MOVG NE SLP024

CYYG;2012-06-28 19:30;CYYG 281930Z 17009KT 15SM TS BKN035TCU BKN200 20/ RMK TCU5CI2 CB ASOCTD SE MOVG NE OCNL LTGCG

CYYG;2012-06-28 19:47;CYYG 281947Z 18007KT 15SM SCT035TCU BKN200 20/ RETS RMK TCU3CI4 CB E MOVG NE OCNL LTGCG

CYYG;2012-06-28 20:00;CYYG 282000Z 17007KT 15SM FEW035TCU BKN200 21/17 A2960 RETS RMK TCU2CI4 CB DIST E SLP024

CYYG;2012-06-28 21:00;CYYG 282100Z 18009KT 15SM FEW035TCU BKN200 20/15 A2959 RMK TCU2CI6 CB DIST NE AND S SLP020

CYYG;2012-06-28 22:00;CYYG 282200Z 20009KT 15SM FEW035TCU BKN200 20/15 A2960 RMK TCU2CI6 SLP022

CYYG;2012-06-28 23:00;CYYG 282300Z 18010KT 15SM SCT038TCU BKN092 BKN200 18/16 A2960 RMK TCU3AC2CI2 CB DIST S-SW SH DIST W-N SLP025

CYYG;2012-06-28 23:33;CYYG 282333Z 20009KT 15SM -SHRA FEW040 BKN057TCU OVC100 17/ RMK SC2TCU4AC2 VIS LWR NW-N

CYYG;2012-06-29 00:00;CYYG 290000Z 20009KT 15SM -SHRA BKN028TCU BKN060 BKN100 17/15 A2962 RMK TCU5SC2AC1 VIS LWR S-SW SLP029

CYYG;2012-06-29 00:57;CYYG 290057Z 21008KT 15SM FEW012 SCT023 BKN094 16/ RMK SC2SC2AC3

CYYG;2012-06-29 01:00;CYYG 290100Z 21008KT 15SM FEW012 FEW019 BKN094 17/15 A2962 RMK SC2SC1AC4 SLP029

CYYG;2012-06-29 02:00;CYYG 290200Z 22008KT 15SM FEW018 FEW028 BKN094 17/14 A2962 RMK CU1SC2AC4 SLP030

CYYG;2012-06-29 03:00;CYYG 290300Z 23008KT 15SM FEW085 BKN110 16/14 A2962 RMK AC2AC5 SLP031

CYYG;2012-06-29 04:00;CYYG 290400Z 23009KT 15SM FEW080 BKN100 16/14 A2961 RMK AC2AC5 SLP028

CYYG;2012-06-29 05:00;CYYG 290500Z 20007KT 15SM FEW100 15/14 A2961 RMK AC2 SLP026

CYYG;2012-06-29 06:00;CYYG 290600Z 21007KT 15SM FEW100 15/13 A2960 RMK AC2 SLP024

CYYG;2012-06-29 07:00;CYYG 290700Z 22008KT 15SM FEW100 15/14 A2960 RMK AC2 SLP024

CYYG;2012-06-29 08:00;CYYG 290800Z 22008KT 15SM FEW030 FEW100 BKN300 14/14 A2961 RMK SC1AC1CI1 SLP027

CYYG;2012-06-29 08:21;CYYG 290821Z 22009KT 15SM FEW007 FEW100 SCT300 14/ RMK SF1AC1CI1

CYYG;2012-06-29 09:00;CYYG 290900Z 22007KT 15SM FEW005 SCT300 14/14 A2961 RMK SF1CI1 SLP026

CYYG;2012-06-29 10:00;CYYG 291000Z 22008KT 15SM FEW005 BKN310 15/14 A2962 RMK SF2CI0 SLP031

CYYG;2012-06-29 11:00;CYYG 291100Z 23011G17KT 15SM FEW007 FEW310 17/15 A2964 RMK SF1CI1 SLP037

CYYG;2012-06-29 12:00;CYYG 291200Z 21010KT 15SM FEW012 FEW150 SCT310 18/15 A2965 RMK SC1AC1CI2 SLP039

CYYG;2012-06-29 13:00;CYYG 291300Z 22012KT 15SM FEW015 FEW310 19/15 A2963 RMK CF1CI1 SLP034

CYYG;2012-06-29 14:00;CYYG 291400Z 20011KT 15SM FEW020 FEW120 SCT280 21/16 A2961 RMK CF1AC1CI1 SLP028

CYYG;2012-06-29 15:00;CYYG 291500Z 22013G20KT 15SM FEW025 SCT280 22/16 A2962 RMK CF1CI1 SLP029

CYYG;2012-06-29 16:00;CYYG 291600Z 21013G23KT 15SM FEW030 SCT280 24/16 A2961 RMK CU1CI2 SLP028

CYYG;2012-06-29 17:00;CYYG 291700Z 22014G22KT 15SM FEW036 BKN280 25/16 A2960 RMK CU1CI2 SLP024

CYYG;2012-06-29 18:00;CYYG 291800Z 21021G28KT 15SM FEW040 BKN280 25/16 A2959 RMK CU1CI2 SLP019

CYYG;2012-06-29 19:00;CYYG 291900Z 21017G26KT 15SM FEW040 SCT280 25/15 A2959 RMK CU1CI2 SLP019

CYYG;2012-06-29 20:00;CYYG 292000Z 21016G26KT 15SM FEW040 FEW280 26/15 A2958 RMK CU1CI1 SLP016

CYYG;2012-06-29 21:00;CYYG 292100Z 20014G21KT 15SM FEW280 26/15 A2956 RMK CI1 SLP010

CYYG;2012-06-29 22:00;CYYG 292200Z 19014G20KT 15SM FEW150 FEW280 24/17 A2955 RMK AC1CI1 SLP007

CYYG;2012-06-29 23:00;CYYG 292300Z 18012KT 15SM SCT088 BKN280 23/16 A2955 RMK AC3CI0 SLP005

CYYG;2012-06-30 00:00;CYYG 300000Z 18015KT 15SM FEW088 BKN280 22/16 A2954 RMK AC2CI0 SLP004

CYYG;2012-06-30 01:00;CYYG 300100Z 19013G18KT 15SM FEW100 SCT280 21/16 A2955 RMK AC2CI0 SLP008

CYYG;2012-06-30 02:00;CYYG 300200Z 19012G19KT 15SM FEW100 20/16 A2956 RMK AC2 SLP009

CYYG;2012-06-30 03:00;CYYG 300300Z 18011KT 15SM SCT120 SCT160 20/16 A2956 RMK AC3AC1 SLP011

CYYG;2012-06-30 03:48;CYYG 300348Z 22005KT 15SM BKN035 BKN080 19/ RMK SC6AC1

CYYG;2012-06-30 04:00;CYYG 300400Z 21006KT 15SM BKN034 19/16 A2958 RMK SC7 SLP015

CYYG;2012-06-30 05:00;CYYG 300500Z 20010KT 15SM SCT035 19/16 A2955 RMK SC3 SLP007

CYYG;2012-06-30 06:00;CYYG 300600Z 19011KT 15SM FEW035 SCT170 18/16 A2952 RMK SC2AC2 SLP998

CYYG;2012-06-30 07:00;CYYG 300700Z 19008KT 15SM FEW080 SCT140 17/16 A2952 RMK AC2AC2 SLP998

CYYG;2012-06-30 08:00;CYYG 300800Z 21010KT 12SM FEW080 SCT100 18/16 A2952 RMK AC2ACC2 SLP998

CYYG;2012-06-30 08:07;CYYG 300807Z 20009KT 12SM VCSH FEW080 SCT100 17/ RMK AC2ACC2 CB EMBDD NE OCNL LTGCG

CYYG;2012-06-30 09:00;CYYG 300900Z 21010KT 12SM SCT100 17/16 A2953 RMK ACC3 CB ANVIL DIST ENE SLP001

CYYG;2012-06-30 09:45;CYYG 300945Z 19009KT 10SM FEW009 SCT100 BKN140 18/ RMK SF2ACC2AC1

CYYG;2012-06-30 10:00;CYYG 301000Z 20008KT 10SM BKN008 BKN100 BKN140 18/17 A2955 RMK SF2ACC2AC1 SLP006

CYYG;2012-06-30 11:00;CYYG 301100Z 22009KT 8SM OVC007 19/17 A2958 RMK SF8 SLP015

CYYG;2012-06-30 12:00;CYYG 301200Z 19011G16KT 10SM OVC009 20/18 A2956 RMK SC8 SLP011

CYYG;2012-06-30 13:00;CYYG 301300Z 24012G17KT 10SM BKN008 20/18 A2957 RMK SF7 SLP013

CYYG;2012-06-30 14:00;CYYG 301400Z 23012KT 10SM BKN009 21/18 A2958 RMK SC7 SLP015

CYYG;2012-06-30 14:40;CYYG 301440Z 23009KT 10SM BKN010 21/ RMK SC7

CYYG;2012-06-30 15:00;CYYG 301500Z 23009KT 15SM BKN011 22/19 A2958 RMK SC6 SLP015

CYYG;2012-06-30 15:07;CYYG 301507Z 22011KT 10SM SCT011 22/ RMK SC4

CYYG;2012-06-30 16:00;CYYG 301600Z 23007G18KT 15SM FEW014 23/20 A2957 RMK CU2 SLP012

CYYG;2012-06-30 17:00;CYYG 301700Z 24009KT 15SM FEW014 FEW300 25/19 A2956 RMK CU1CI1 SLP009

CYYG;2012-06-30 18:00;CYYG 301800Z 19009KT 15SM FEW020 FEW300 25/19 A2955 RMK CU1CI1 SLP007

CYYG;2012-06-30 19:00;CYYG 301900Z 23008KT 15SM FEW030TCU FEW300 27/18 A2955 RMK TCU1CI1 TCU DIST S-SW SLP005

CYYG;2012-06-30 20:00;CYYG 302000Z 23008G16KT 15SM FEW030TCU FEW300 27/20 A2955 RMK TCU1CI1 TCU DIST S-SW SLP006

CYYG;2012-06-30 21:00;CYYG 302100Z 20009KT 15SM FEW030TCU SCT300 27/20 A2955 RMK TCU1CI1 TCU DIST SE-S SLP005

CYYG;2012-06-30 22:00;CYYG 302200Z 18007KT 15SM FEW030CB FEW100 BKN300 24/19 A2956 RMK CB1AC1CI1 CB DIST W-NW SLP010

CYYG;2012-06-30 23:00;CYYG 302300Z 18007KT 15SM FEW030CB FEW100 BKN210 23/18 A2957 RMK CB1AC2CI1 CB DIST S+NW SLP012

CYYG;2012-07-01 00:00;CYYG 010000Z CCA 22009KT 15SM FEW050CB BKN150 BKN210 23/17 A2959 RMK CB1AC4CI1 OCNL LTGCG DIST NW SLP019

CYYG;2012-07-01 01:00;CYYG 010100Z CCA 26008G17KT 15SM FEW050 BKN150 BKN210 23/15 A2961 RMK SC1AC4CI1 SLP027

CYYG;2012-07-01 02:00;CYYG 010200Z 21007KT 15SM FEW050 BKN140 22/15 A2961 RMK SC2AC4 SLP026

CYYG;2012-07-01 03:00;CYYG 010300Z 23006KT 15SM FEW050 SCT120 BKN240 21/14 A2961 RMK SC2AC2CI0 SLP028

CYYG;2012-07-01 04:00;CYYG 010400Z 24007KT 15SM FEW080 SCT120 BKN240 20/14 A2961 RMK AC2AC2CI0 SLP027

CYYG;2012-07-01 05:00;CYYG 010500Z 19007KT 15SM FEW080 SCT120 BKN240 18/14 A2960 RMK AC1AC2CI0 SLP022

CYYG;2012-07-01 06:00;CYYG 010600Z 22005KT 15SM FEW120 18/14 A2960 RMK AC2 SLP025

CYYG;2012-07-01 07:00;CYYG 010700Z 20007KT 15SM FEW150 18/14 A2960 RMK AC2 SLP022

CYYG;2012-07-01 08:00;CYYG 010800Z 22008KT 15SM FEW150 18/14 A2961 RMK AC1 SLP028

CYYG;2012-07-01 09:00;CYYG 010900Z 21005KT 15SM FEW150 17/14 A2962 RMK AC1 SLP031

CYYG;2012-07-01 10:00;CYYG 011000Z 23009KT 15SM FEW150 18/14 A2963 RMK AC1 SLP035

CYYG;2012-07-01 11:00;CYYG 011100Z 24012KT 15SM SKC 19/15 A2966 RMK SLP042

CYYG;2012-07-01 12:00;CYYG 011200Z 24010G15KT 15SM FEW030 21/16 A2967 RMK SC1 SLP047

CYYG;2012-07-01 13:00;CYYG 011300Z 25011G16KT 15SM FEW030 FEW300 22/15 A2967 RMK CF1CI0 SLP047

CYYG;2012-07-01 14:00;CYYG 011400Z 26011G16KT 15SM FEW030 FEW080 FEW300 23/16 A2968 RMK CF1AC1CI0 SLP051

CYYG;2012-07-01 15:00;CYYG 011500Z 25010G19KT 15SM FEW030 FEW300 24/15 A2970 RMK CU1CI1 SLP056

CYYG;2012-07-01 16:00;CYYG 011600Z 24014G20KT 15SM FEW030 FEW300 24/16 A2971 RMK CU1CI0 SLP059

CYYG;2012-07-01 17:00;CYYG 011700Z 24009KT 15SM FEW030 SCT300 25/17 A2970 RMK CU1CI1 SLP058

CYYG;2012-07-01 18:00;CYYG 011800Z 25009KT 15SM FEW037 FEW300 26/16 A2970 RMK CU1CI0 SLP057

CYYG;2012-07-01 19:00;CYYG 011900Z 24009KT 15SM FEW043 FEW300 26/15 A2969 RMK CU2CI0 SLP055

CYYG;2012-07-01 20:00;CYYG 012000Z 25007KT 15SM FEW046 SCT300 27/16 A2969 RMK CU2CI0 TCU DIST SE-S SLP055

CYYG;2012-07-01 21:00;CYYG 012100Z 26008KT 15SM FEW046 SCT300 26/15 A2970 RMK CU1CI1 TCU DIST SE-SW SLP057

CYYG;2012-07-01 22:00;CYYG 012200Z 26006KT 15SM FEW050 SCT300 26/15 A2971 RMK CU1CI1 TCU DIST E-SE SLP059

CYYG;2012-07-01 23:00;CYYG 012300Z 23006KT 15SM FEW050 FEW300 25/16 A2972 RMK CU1CI2 TCU DIST SE SLP063

CYYG;2012-07-02 00:00;CYYG 020000Z 23006KT 15SM FEW060 FEW300 23/16 A2973 RMK SC1CI1 SLP066

CYYG;2012-07-02 01:00;CYYG 020100Z 23005KT 15SM FEW060 FEW300 21/15 A2974 RMK SC1CI1 SLP070

CYYG;2012-07-02 02:00;CYYG 020200Z 24007KT 15SM SCT075 21/15 A2973 RMK AC3 SLP068

CYYG;2012-07-02 03:00;CYYG 020300Z 22008KT 15SM FEW050 BKN074 20/15 A2973 RMK SC2AC3 SLP066

CYYG;2012-07-02 04:00;CYYG 020400Z 21006KT 15SM FEW070 FEW090 BKN140 19/16 A2973 RMK AC2AC1AC2 SLP066

CYYG;2012-07-02 05:00;CYYG 020500Z 22006KT 15SM BKN120 19/16 A2973 RMK AC6 SLP068

CYYG;2012-07-02 06:00;CYYG 020600Z 22002KT 15SM SCT120 19/16 A2973 RMK AC3 SLP067

CYYG;2012-07-02 07:00;CYYG 020700Z 24003KT 15SM SCT075 SCT200 18/15 A2972 RMK AC3CC1 SLP064

CYYG;2012-07-02 08:00;CYYG 020800Z 32003KT 15SM FEW080 BKN100 18/15 A2973 RMK AC2AC4 SLP066

CYYG;2012-07-02 09:00;CYYG 020900Z 29005KT 15SM VCSH SCT080 BKN140 18/15 A2974 RMK ACC3AC2 SLP069

CYYG;2012-07-02 10:00;CYYG 021000Z 29002KT 15SM VCSH BKN055 BKN080 18/15 A2974 RMK SC5AC2 TCU EMBDD VIS LWR W SLP070

CYYG;2012-07-02 10:11;CYYG 021011Z 27006KT 15SM -SHRA BKN051TCU BKN110 19/ RMK TCU5AC2 VIS SW 3

CYYG;2012-07-02 10:48;CYYG 021048Z 33003KT 15SM BKN059TCU BKN110 18/ RERA RMK TCU5AC2 SH DIST E

CYYG;2012-07-02 11:00;CYYG 021100Z 36002KT 15SM BKN057TCU BKN110 18/16 A2975 RERA RMK TCU5AC2 SH DIST E SLP073

CYYG;2012-07-02 12:00;CYYG 021200Z 35005KT 15SM FEW057TCU SCT110 21/16 A2975 RMK TCU2ACC2 CB DIST SW SH DIST E-SW SLP073

CYYG;2012-07-02 12:15;CYYG 021215Z 34005KT 15SM -SHRA FEW057TCU SCT110 20/ RMK TCU2ACC2 CB DIST S-SW

CYYG;2012-07-02 12:37;CYYG 021237Z 36007KT 15SM FEW057TCU FEW067 FEW090 21/ RMK TCU1ACC1AC1

CYYG;2012-07-02 13:00;CYYG 021300Z 34005KT 15SM FEW057TCU FEW090 FEW190 SCT300 21/15 A2975 RMK TCU1AC1AC1CI1 TCU E SLP075

CYYG;2012-07-02 14:00;CYYG 021400Z 33002KT 15SM FEW040CB FEW200 FEW300 22/15 A2976 RMK CB1CC1CI1 CB DIST SE-SW SLP076

CYYG;2012-07-02 15:00;CYYG 021500Z 32003KT 15SM FEW035 FEW090 FEW300 23/16 A2975 RMK CU1AC1CI0 SLP075

CYYG;2012-07-02 16:00;CYYG 021600Z 17011KT 15SM FEW033TCU FEW090 BKN300 24/17 A2975 RMK TCU2AC1CI1 SLP073

CYYG;2012-07-02 17:00;CYYG 021700Z 01005KT 15SM FEW044TCU FEW055CB FEW090 SCT300 24/16 A2974 RMK TCU1CB1AC1CI0 CB DIST SE-SW SLP070

CYYG;2012-07-02 18:00;CYYG 021800Z 30007KT 15SM FEW047TCU FEW055CB BKN300 25/15 A2973 RMK TCU1CB1CI1 CB DIST SE-SW SLP066

CYYG;2012-07-02 19:00;CYYG 021900Z 02010KT 15SM FEW047CB FEW064TCU BKN300 23/15 A2973 RMK CB1TCU1CI3 CB DIST SE-SW SLP068

CYYG;2012-07-02 20:00;CYYG 022000Z 36007KT 15SM FEW050TCU SCT300 24/16 A2974 RMK TCU2CI1 CB DIST S SLP069

CYYG;2012-07-02 21:00;CYYG 022100Z 02007KT 15SM FEW050TCU SCT300 23/15 A2973 RMK TCU2CI1 CB DIST SW SLP067

CYYG;2012-07-02 22:00;CYYG 022200Z 05005KT 15SM BKN053TCU BKN300 23/15 A2974 RMK TCU5CI1 SH DIST S SLP071

CYYG;2012-07-02 23:00;CYYG 022300Z 13007KT 15SM SCT055 BKN180 BKN300 22/16 A2974 RMK SC3AC2CI1 CB DIST SE-S SLP072

CYYG;2012-07-03 00:00;CYYG 030000Z 13009KT 15SM FEW055 SCT180 19/15 A2976 RMK SC2AC2 CB DSPTG SE SLP076

CYYG;2012-07-03 01:00;CYYG 030100Z 14006KT 15SM FEW055 18/15 A2977 RMK SC1 SLP079

CYYG;2012-07-03 02:00;CYYG 030200Z 16005KT 15SM FEW055 17/14 A2977 RMK SC1 SLP080

CYYG;2012-07-03 03:00;CYYG 030300Z 17003KT 15SM FEW080 18/15 A2976 RMK AC1 SLP077

CYYG;2012-07-03 04:00;CYYG 030400Z 21005KT 15SM FEW060 18/16 A2975 RMK SC1 CU ASOCTD SLP075

CYYG;2012-07-03 05:00;CYYG 030500Z 21007KT 15SM FEW030 17/16 A2975 RMK SC1 SLP075

CYYG;2012-07-03 06:00;CYYG 030600Z 21005KT 15SM FEW030 FEW080 17/16 A2975 RMK SC1AC1 SLP075

CYYG;2012-07-03 07:00;CYYG 030700Z 19005KT 15SM FEW080 16/16 A2975 RMK AC1 SLP074

CYYG;2012-07-03 08:00;CYYG 030800Z 23004KT 15SM MIFG SCT070 16/16 A2976 RMK AC3 ACC ASOCTD SLP077

CYYG;2012-07-03 08:14;CYYG 030814Z 13002KT 10SM PRFG FEW002 SCT070 16/ RMK SF1AC3 ACC ASOCTD

CYYG;2012-07-03 09:00;CYYG 030900Z 27003KT 15SM PRFG FEW060 15/15 A2976 RMK SC2 CU ASOCTD SLP076

CYYG;2012-07-03 10:00;CYYG 031000Z 30003KT 15SM FEW060 FEW120 18/15 A2976 RMK SC1AC1 SLP078

CYYG;2012-07-03 11:00;CYYG 031100Z 33003KT 15SM FEW060 FEW120 20/15 A2977 RMK SC1AC1 SLP080

CYYG;2012-07-03 12:00;CYYG 031200Z 30007KT 15SM FEW060 FEW120 22/16 A2978 RMK SC1AC1 SLP083

CYYG;2012-07-03 13:00;CYYG 031300Z 27005KT 15SM FEW060 23/15 A2977 RMK SC1 SLP082

CYYG;2012-07-03 14:00;CYYG 031400Z 29007KT 15SM FEW040 24/14 A2978 RMK CU1 SLP084

CYYG;2012-07-03 15:00;CYYG 031500Z 02005G16KT 15SM FEW040 23/15 A2979 RMK CU2 SLP086

CYYG;2012-07-03 16:00;CYYG 031600Z 30006KT 15SM SCT040 25/14 A2979 RMK SC3 SLP087

CYYG;2012-07-03 17:00;CYYG 031700Z 02008KT 15SM SCT054 24/16 A2979 RMK SC4 SLP089

CYYG;2012-07-03 18:00;CYYG 031800Z 01005KT 15SM SCT050 SCT120 24/15 A2980 RMK SC3AC1 SLP092

CYYG;2012-07-03 19:00;CYYG 031900Z 32006KT 15SM SCT040 SCT120 24/16 A2981 RMK SC3AC1 SLP094

CYYG;2012-07-03 20:00;CYYG 032000Z 31003KT 15SM FEW040 SCT120 25/15 A2981 RMK SC2AC1 SLP093

CYYG;2012-07-03 21:00;CYYG 032100Z 35005KT 15SM FEW040 FEW120 25/15 A2981 RMK SC2AC1 SLP093

CYYG;2012-07-03 22:00;CYYG 032200Z 06003KT 15SM FEW040 FEW120 25/16 A2980 RMK SC1AC2 SLP091

CYYG;2012-07-03 23:00;CYYG 032300Z 00000KT 15SM FEW060TCU FEW250 24/15 A2981 RMK TCU1CI0 TCU SE-SW SLP095

CYYG;2012-07-04 00:00;CYYG 040000Z 20004KT 15SM FEW060 22/15 A2982 RMK SC2 TCU ASOCTD DIST S-SW SLP097

CYYG;2012-07-04 01:00;CYYG 040100Z 17003KT 15SM FEW060 18/15 A2984 RMK SC1 SLP103

CYYG;2012-07-04 02:00;CYYG 040200Z 20006KT 15SM FEW120 20/15 A2985 RMK AC1 SLP106

CYYG;2012-07-04 03:00;CYYG 040300Z 25004KT 15SM FEW120 18/15 A2984 RMK AC1 SLP104

CYYG;2012-07-04 04:00;CYYG 040400Z 14004KT 15SM FEW120 17/14 A2984 RMK AC1 SLP105

CYYG;2012-07-04 05:00;CYYG 040500Z 16005KT 15SM SKC 17/14 A2984 RMK SLP104

CYYG;2012-07-04 06:00;CYYG 040600Z 18003KT 15SM FEW120 17/15 A2985 RMK AC1 SLP106

CYYG;2012-07-04 07:00;CYYG 040700Z 18003KT 15SM FEW110 17/16 A2984 RMK AC1 SLP103

CYYG;2012-07-04 08:00;CYYG 040800Z 22003KT 15SM MIFG FEW110 17/16 A2984 RMK AC1 SLP105

CYYG;2012-07-04 09:00;CYYG 040900Z 17004KT 15SM MIFG FEW110 17/16 A2985 RMK AC1 SLP107

CYYG;2012-07-04 10:00;CYYG 041000Z 16006KT 15SM FEW110 FEW250 19/17 A2985 RMK AC1CI0 SLP108

CYYG;2012-07-04 11:00;CYYG 041100Z 18007KT 15SM FEW110 FEW250 20/18 A2987 RMK AC1CI1 SLP114

CYYG;2012-07-04 12:00;CYYG 041200Z 20009KT 15SM FEW110 FEW250 22/16 A2986 RMK AC2CI1 SLP111

CYYG;2012-07-04 13:00;CYYG 041300Z 21009KT 15SM FEW110 SCT280 23/16 A2985 RMK AC2CI1 SLP109

CYYG;2012-07-04 14:00;CYYG 041400Z 18007KT 15SM FEW110 SCT280 25/15 A2985 RMK AC2CI1 SLP107

CYYG;2012-07-04 15:00;CYYG 041500Z 18008KT 15SM FEW030 FEW110 SCT280 24/16 A2985 RMK CU1AC2CI1 SLP107

CYYG;2012-07-04 16:00;CYYG 041600Z 17010KT 15SM FEW030 FEW110 SCT280 25/16 A2984 RMK CU1AC2CI1 SLP104

CYYG;2012-07-04 17:00;CYYG 041700Z 17010KT 15SM FEW030 FEW160 SCT260 26/17 A2982 RMK CU1AC2CI1 SLP099

CYYG;2012-07-04 18:00;CYYG 041800Z 19009KT 15SM FEW030 FEW160 BKN260 26/16 A2982 RMK CU2AC1CI2 SLP097

CYYG;2012-07-04 19:00;CYYG 041900Z 17007KT 15SM FEW050 SCT160 BKN270 25/16 A2981 RMK CU2AC2CI1 SLP094

CYYG;2012-07-04 20:00;CYYG 042000Z 19008KT 15SM SCT050 SCT160 BKN270 26/16 A2980 RMK CU3AC1CI2 SLP092

CYYG;2012-07-04 21:00;CYYG 042100Z 20007KT 15SM SCT050 SCT160 BKN270 25/15 A2980 RMK CU3AC1CI2 SLP090

CYYG;2012-07-04 22:00;CYYG 042200Z 17007KT 15SM FEW050 SCT180 BKN270 24/15 A2979 RMK CU2AC2CI2 SLP088

CYYG;2012-07-04 23:00;CYYG 042300Z 21005KT 15SM FEW060 BKN270 23/17 A2980 RMK CU1CI6 SLP091

CYYG;2012-07-05 00:00;CYYG 050000Z 17009KT 15SM FEW060 BKN220 22/15 A2980 RMK CU1CI6 SLP091

CYYG;2012-07-05 01:00;CYYG 050100Z 16007KT 15SM FEW060 BKN210 21/17 A2981 RMK CU1CI6 SLP094

CYYG;2012-07-05 02:00;CYYG 050200Z 17010KT 15SM OVC120 20/15 A2981 RMK AC8 SLP095

CYYG;2012-07-05 02:54;CYYG 050254Z 18009KT 15SM -SHRA OVC110 19/ RMK AC8

CYYG;2012-07-05 03:00;CYYG 050300Z 17008KT 15SM -SHRA FEW015 OVC110 19/15 A2980 RMK SC1AC7 SLP092

CYYG;2012-07-05 04:00;CYYG 050400Z 16007KT 12SM -SHRA FEW015 OVC110 18/16 A2981 RMK SC1AC7 SLP093

CYYG;2012-07-05 04:46;CYYG 050446Z 15007KT 15SM OVC120 17/ RMK AC8

CYYG;2012-07-05 05:00;CYYG 050500Z 14006KT 15SM OVC120 17/16 A2980 RMK AC8 SLP090

CYYG;2012-07-05 05:48;CYYG 050548Z 14006KT 15SM -SHRA OVC120 17/ RMK AC8

CYYG;2012-07-05 06:00;CYYG 050600Z 11005KT 12SM -SHRA OVC120 17/16 A2979 RMK AC8 SLP089

CYYG;2012-07-05 07:00;CYYG 050700Z 15007KT 15SM -SHRA OVC095 17/16 A2979 RMK AC8 SLP086

CYYG;2012-07-05 07:45;CYYG 050745Z 13005KT 15SM BKN011 OVC080 17/ RMK SC5AC3

CYYG;2012-07-05 08:00;CYYG 050800Z 13007KT 15SM BKN012 OVC085 17/16 A2977 RMK SC5AC3 SLP082

CYYG;2012-07-05 09:00;CYYG 050900Z 13007KT 15SM BKN070 BKN110 17/16 A2979 RMK AC6AC2 ACC ASOCTD SLP086

CYYG;2012-07-05 10:00;CYYG 051000Z 13010KT 15SM BKN019 BKN070 BKN110 17/16 A2978 RMK SC5AC2AC1 ACC ASOCTD SLP085

CYYG;2012-07-05 11:00;CYYG 051100Z 14011G17KT 15SM FEW010 BKN014 BKN110 19/16 A2979 RMK SF1SC6AC1 ACC ASOCTD SLP086

CYYG;2012-07-05 12:00;CYYG 051200Z 15012KT 15SM FEW010 BKN017 BKN110 20/17 A2980 RMK SF1SC5ACC1 SLP090

CYYG;2012-07-05 12:24;CYYG 051224Z 15012KT 15SM BKN012 19/ RMK SC7

CYYG;2012-07-05 13:00;CYYG 051300Z 16012KT 15SM FEW009 BKN014 19/17 A2979 RMK SF1SC6 SLP087

CYYG;2012-07-05 13:18;CYYG 051318Z 15010KT 15SM FEW009 SCT014 BKN100 19/ RMK SF1SC2AC4

CYYG;2012-07-05 14:00;CYYG 051400Z 16013KT 15SM SCT009 BKN100 19/17 A2979 RMK SF3AC4 SLP089

CYYG;2012-07-05 15:00;CYYG 051500Z 15014G19KT 15SM FEW015 SCT040 BKN073 BKN120 21/17 A2980 RMK SC2SC2AC3AC1 SLP090

CYYG;2012-07-05 16:00;CYYG 051600Z 14012KT 15SM FEW018 BKN056 BKN080 22/17 A2980 RMK SC2SC3AC2 SLP091

CYYG;2012-07-05 17:00;CYYG 051700Z 14014KT 15SM FEW020 BKN065 OVC086 22/17 A2978 RMK CU1SC6AC2 SLP084

CYYG;2012-07-05 18:00;CYYG 051800Z 12014G20KT 15SM BKN023 BKN050 OVC085 22/17 A2978 RMK SC5SC2AC2 SLP083

CYYG;2012-07-05 19:00;CYYG 051900Z 12011KT 15SM -SHRA OVC015 20/17 A2978 RMK SC8 SLP084

CYYG;2012-07-05 20:00;CYYG 052000Z 10011KT 15SM -SHRA FEW009 OVC015 20/18 A2978 RMK SF2SC6 PCPN VRY LGT SLP084

CYYG;2012-07-05 20:17;CYYG 052017Z 09008KT 15SM VCSH FEW009 OVC014 20/ RMK SF2SC6

CYYG;2012-07-05 21:00;CYYG 052100Z 12012KT 15SM -SHRA OVC010 19/18 A2978 RMK SC8 PCPN VRY LGT SLP084

CYYG;2012-07-05 21:48;CYYG 052148Z 11009KT 12SM -SHRA OVC007 19/ RMK SF8

CYYG;2012-07-05 22:00;CYYG 052200Z 11008KT 8SM -SHRA OVC006 19/18 A2979 RMK SF8 SLP088

CYYG;2012-07-05 22:12;CYYG 052212Z 11008KT 3SM -SHRA BR BKN004 OVC008 18/ RMK SF6SF2

CYYG;2012-07-05 22:20;CYYG 052220Z 12009KT 3/4SM R03/P6000FT/U +SHRA BR BKN004 OVC013 18/ RMK SF6SC2

CYYG;2012-07-05 22:47;CYYG 052247Z 11007KT 10SM -SHRA FEW004 OVC007 18/ RERA RMK SF2SF6 VIS LWR W-N

CYYG;2012-07-05 23:00;CYYG 052300Z 10005KT 15SM -SHRA OVC007 18/18 A2980 RERA RMK SF8 VIS LWR W-N SLP091

CYYG;2012-07-06 00:00;CYYG 060000Z 10007KT 10SM -SHRA FEW003 OVC006 18/18 A2980 RMK SF2SF6 SLP090

CYYG;2012-07-06 01:00;CYYG 060100Z 10009KT 15SM -SHRA BKN004 OVC008 18/18 A2981 RMK SF6SF2 SLP095

CYYG;2012-07-06 01:20;CYYG 060120Z 10010G18KT 15SM BKN006 OVC028 18/ RMK SF7SC1

CYYG;2012-07-06 02:00;CYYG 060200Z 10013KT 15SM BKN006 OVC022 18/18 A2982 RMK SF6SC2 SLP097

CYYG;2012-07-06 03:00;CYYG 060300Z 10009G16KT 15SM BKN006 OVC029 18/18 A2982 RMK SF6SC2 SLP096

CYYG;2012-07-06 04:00;CYYG 060400Z 11011G18KT 15SM OVC007 18/17 A2981 RMK SF8 SLP095

CYYG;2012-07-06 05:00;CYYG 060500Z 12008G16KT 15SM BKN007 OVC022 18/17 A2982 RMK SF6SC2 SLP096

CYYG;2012-07-06 06:00;CYYG 060600Z 12011G16KT 15SM BKN007 OVC014 18/17 A2982 RMK SF6SC2 SLP097

CYYG;2012-07-06 07:00;CYYG 060700Z 11008KT 15SM BKN007 OVC014 18/17 A2983 RMK SF6SC2 SLP101

CYYG;2012-07-06 08:00;CYYG 060800Z 12007KT 10SM -RA BKN004 OVC034 17/17 A2984 RMK SF6SC2 SLP105

CYYG;2012-07-06 08:24;CYYG 060824Z 11008KT 10SM -RA FEW004 OVC067 17/ RMK SF2AC6

CYYG;2012-07-06 09:00;CYYG 060900Z 11007KT 10SM -RA FEW003 SCT048 OVC068 17/17 A2985 RMK SF2SC2AC5 SLP108

CYYG;2012-07-06 09:06;CYYG 060906Z 11006KT 10SM SCT003 BKN039 OVC068 17/ RMK SF3SC2AC2

CYYG;2012-07-06 10:00;CYYG 061000Z 10006KT 10SM SCT003 OVC030 17/17 A2986 RMK SF4SC4 SLP111

CYYG;2012-07-06 10:32;CYYG 061032Z 10008KT 10SM BKN003 BKN028 OVC058 18/ RMK SF3SC2SC2

CYYG;2012-07-06 11:00;CYYG 061100Z 10008KT 10SM SCT003 BKN028 OVC058 18/18 A2987 RMK SF3SC2SC2 SLP116

CYYG;2012-07-06 11:11;CYYG 061111Z 10008KT 12SM BKN004 OVC086 18/ RMK SF5AC3

CYYG;2012-07-06 12:00;CYYG 061200Z 10011KT 12SM BKN004 BKN086 20/19 A2988 RMK SF5AC2 SLP118

CYYG;2012-07-06 12:13;CYYG 061213Z 08009KT 12SM BKN007 BKN017 OVC078 20/ RMK SF5SC2AC2

CYYG;2012-07-06 13:00;CYYG 061300Z 08008KT 12SM OVC006 20/19 A2987 RMK SF8 SLP117

CYYG;2012-07-06 13:36;CYYG 061336Z 11010KT 15SM BKN010 21/ RMK SC7

CYYG;2012-07-06 14:00;CYYG 061400Z 11009KT 12SM BKN013 21/19 A2987 RMK SC7 SLP115

CYYG;2012-07-06 15:00;CYYG 061500Z 10008KT 15SM BKN015 22/19 A2986 RMK SC7 SLP112

CYYG;2012-07-06 16:00;CYYG 061600Z 11005KT 15SM BKN017 24/18 A2985 RMK SC7 CU ASOCTD SLP107

CYYG;2012-07-06 17:00;CYYG 061700Z 08003KT 15SM SCT026 BKN260 24/17 A2983 RMK SC3CI0 CU ASOCTD SLP101

CYYG;2012-07-06 18:00;CYYG 061800Z 01012KT 15SM FEW030 SCT260 24/18 A2982 RMK SC2CI0 SLP098

CYYG;2012-07-06 19:00;CYYG 061900Z 01010KT 15SM FEW030TCU SCT260 24/18 A2981 RMK TCU2CI0 SLP094

CYYG;2012-07-06 20:00;CYYG 062000Z 36010KT 15SM FEW030 SCT260 23/17 A2980 RMK CU1CI1 TCU ASOCTD W SLP090

CYYG;2012-07-06 21:00;CYYG 062100Z 02012KT 15SM FEW030 FEW260 22/16 A2979 RMK CU1CI1 SLP087

CYYG;2012-07-06 22:00;CYYG 062200Z 01010KT 15SM FEW030 FEW260 20/16 A2979 RMK CU1CI1 SLP087

CYYG;2012-07-06 23:00;CYYG 062300Z 36006KT 15SM FEW070 FEW260 19/15 A2978 RMK ACC1CI1 SLP085

CYYG;2012-07-07 00:00;CYYG 070000Z 36005KT 15SM FEW070 FEW260 17/15 A2978 RMK AC1CI1 SLP084

CYYG;2012-07-07 01:00;CYYG 070100Z 36004KT 15SM FEW070 FEW260 15/15 A2979 RMK AC1CI1 SLP087

CYYG;2012-07-07 02:00;CYYG 070200Z 36003KT 15SM FEW070 FEW260 15/15 A2977 RMK AC1CI1 SLP083

CYYG;2012-07-07 02:29;CYYG 070229Z 35005KT 5SM BR BKN002 15/ RMK SF7

CYYG;2012-07-07 02:45;CYYG 070245Z 36004KT 3/4SM R03/P6000FT/D BR VV002 15/ RMK FG8

CYYG;2012-07-07 02:49;CYYG 070249Z 01004KT 1/2SM R03/3500VP6000FT/D FG VV002 16/ RMK FG8

CYYG;2012-07-07 03:00;CYYG 070300Z 01006KT 3/8SM R03/2800FT/N FG VV001 16/16 A2976 RMK FG8 SLP077

CYYG;2012-07-07 04:00;CYYG 070400Z 32002KT 1/4SM R03/2200FT/U FG VV001 16/16 A2974 RMK FG8 SLP072

CYYG;2012-07-07 04:47;CYYG 070447Z 26002KT 1/2SM R03/3000V4500FT/U FG VV002 16/ RMK FG8

CYYG;2012-07-07 05:00;CYYG 070500Z 00000KT 1/2SM R03/3000V4500FT/D FG VV002 16/16 A2973 RMK FG8 SLP068

CYYG;2012-07-07 06:00;CYYG 070600Z 00000KT 1/2SM R03/2800FT/N FG VV002 16/16 A2972 RMK FG8 SLP065

CYYG;2012-07-07 07:00;CYYG 070700Z 29002KT 1/4SM R03/2000FT/N FG SKC 15/15 A2971 RMK FG3 SLP062

CYYG;2012-07-07 07:36;CYYG 070736Z 26002KT 1/8SM R03/1400FT/N FG SKC 15/ RMK FG3

CYYG;2012-07-07 08:00;CYYG 070800Z 22003KT 1/8SM R03/1100FT/N FG SKC 15/15 A2971 RMK FG4 SLP060

CYYG;2012-07-07 08:14;CYYG 070814Z 19003KT 1/8SM R03/1200V1800FT/U FG VV001 15/ RMK FG8

CYYG;2012-07-07 09:00;CYYG 070900Z 23003KT 1/8SM R03/1400FT/N FG VV001 15/15 A2971 RMK FG8 SLP059

CYYG;2012-07-07 09:17;CYYG 070917Z 20005KT 1/4SM R03/3000FT/N FG SCT120 15/ RMK FG2AC2

CYYG;2012-07-07 09:31;CYYG 070931Z 21005KT 1/2SM R03/P6000FT/U FG BKN074 15/ RMK FG2AC5

CYYG;2012-07-07 09:37;CYYG 070937Z 21004KT 1SM R03/P6000FT/U BR BKN074 15/ RMK FG2AC5

CYYG;2012-07-07 10:00;CYYG 071000Z 20004KT 2SM BR FEW001 BKN074 16/16 A2969 RMK SF2AC5 VIS LWR SW-W SLP053

CYYG;2012-07-07 10:43;CYYG 071043Z 21006KT 6SM BR FEW001 SCT074 17/ RMK SF2AC2

CYYG;2012-07-07 11:00;CYYG 071100Z 20007KT 6SM BR FEW002 FEW070 SCT120 17/17 A2968 RMK SF1AC2AC1 VIS LWR SW SLP049

CYYG;2012-07-07 11:16;CYYG 071116Z 22007KT 3SM BR BKN003 BKN070 18/ RMK SF5AC2 VIS HIER N-NE

CYYG;2012-07-07 12:00;CYYG 071200Z 21007KT 6SM BR BKN003 BKN140 19/18 A2966 RMK SF5AC2 SLP045

CYYG;2012-07-07 12:31;CYYG 071231Z 21006KT 6SM BR BKN005 BKN140 20/ RMK SF5AC2

CYYG;2012-07-07 12:49;CYYG 071249Z 20009KT 6SM -SHRA BR OVC005 20/ RMK SF8

CYYG;2012-07-07 13:00;CYYG 071300Z 19007KT 6SM -SHRA BR OVC005 20/19 A2965 RMK SF8 SLP041

CYYG;2012-07-07 13:38;CYYG 071338Z 19009KT 8SM BKN006 OVC100 20/ RMK SF6AC2

CYYG;2012-07-07 14:00;CYYG 071400Z 19009KT 10SM -SHRA SCT006 BKN070 BKN120 20/19 A2964 RMK SF4AC2AC2 TCU SW-W SLP036

CYYG;2012-07-07 15:00;CYYG 071500Z 21009KT 12SM FEW007 BKN068 BKN120 21/19 A2962 RMK SF2ACC3AC2 SLP031

CYYG;2012-07-07 15:13;CYYG 071513Z 19012KT 12SM BKN009 OVC068 21/ RMK SC6AC2

CYYG;2012-07-07 15:40;CYYG 071540Z 17011KT 12SM OVC006 20/ RMK SF8

CYYG;2012-07-07 16:00;CYYG 071600Z 19011KT 12SM OVC008 20/18 A2962 RMK SF8 SLP029

CYYG;2012-07-07 16:40;CYYG 071640Z 20012G18KT 12SM BKN012 OVC050 21/ RMK SC5SC3

CYYG;2012-07-07 17:00;CYYG 071700Z 18012G18KT 12SM OVC012 21/19 A2961 RMK SC8 SLP027

CYYG;2012-07-07 18:00;CYYG 071800Z 20015KT 12SM OVC010 22/19 A2960 RMK SC8 SLP023

CYYG;2012-07-07 19:00;CYYG 071900Z 20013KT 15SM BKN012 BKN100 23/20 A2958 RMK SC6AC2 SLP018

CYYG;2012-07-07 20:00;CYYG 072000Z 20009KT 12SM SCT014 BKN021 BKN100 23/20 A2960 RMK SC3SC2AC2 SLP023

CYYG;2012-07-07 21:00;CYYG 072100Z 23006KT 12SM FEW015 FEW050 BKN140 24/20 A2958 RMK SC1SC1AC5 TCU ASOCTD DIST S+W+N SLP018

CYYG;2012-07-07 21:23;CYYG 072123Z 25007KT 12SM BKN018 BKN140 24/ RMK SC6AC2 TCU ASOCTD

CYYG;2012-07-07 22:00;CYYG 072200Z 25007KT 12SM FEW018 BKN120 23/19 A2960 RMK SC2AC5 TCU ASOCTD SLP022

CYYG;2012-07-07 22:09;CYYG 072209Z 27008KT 15SM -SHRA FEW018 FEW040CB BKN120 22/ RMK CU1CB1AC6 CB DIST W-NW

CYYG;2012-07-07 23:00;CYYG 072300Z 24007KT 15SM FEW018 FEW040CB SCT130 BKN300 21/18 A2957 RMK SC1CB1AC2CI1 CB DIST NW SLP014

CYYG;2012-07-08 00:00;CYYG 080000Z 25007KT 15SM FEW020 FEW140 BKN300 20/17 A2959 RMK SC1AC1CI1 CB DIST NW MOVG E SH DIST NW SLP021

CYYG;2012-07-08 01:00;CYYG 080100Z 26008KT 15SM FEW020TCU BKN100 BKN300 19/17 A2960 RMK TCU1AC4CI1 CB DIST NE SLP025

CYYG;2012-07-08 02:00;CYYG 080200Z 22007KT 15SM FEW120 SCT300 19/16 A2959 RMK AC2CI0 SLP021

CYYG;2012-07-08 03:00;CYYG 080300Z 24007KT 15SM FEW130 SCT300 19/16 A2959 RMK AC2CI0 SLP021

CYYG;2012-07-08 04:00;CYYG 080400Z 24007KT 15SM FEW130 FEW300 18/15 A2960 RMK AC1CI1 SLP022

CYYG;2012-07-08 05:00;CYYG 080500Z 27009KT 15SM SCT084 17/16 A2959 RMK AC3 SLP021

CYYG;2012-07-08 06:00;CYYG 080600Z 24006KT 15SM FEW055 BKN110 18/16 A2959 RMK SC2AC4 SLP020

CYYG;2012-07-08 07:00;CYYG 080700Z 25005KT 15SM FEW050 SCT090 17/16 A2959 RMK SC2AC2 SLP020

CYYG;2012-07-08 08:00;CYYG 080800Z 26005KT 15SM FEW058 SCT068 17/16 A2959 RMK SC2AC2 SLP019

CYYG;2012-07-08 09:00;CYYG 080900Z 25005KT 15SM FEW060 16/15 A2959 RMK SC2 SLP019

CYYG;2012-07-08 10:00;CYYG 081000Z 27007KT 15SM FEW060 18/15 A2960 RMK SC1 SLP022

CYYG;2012-07-08 11:00;CYYG 081100Z 28007KT 15SM FEW060 19/15 A2960 RMK SC1 SLP024

CYYG;2012-07-08 12:00;CYYG 081200Z 28007KT 15SM FEW020 FEW070 20/15 A2960 RMK CF1AC1 SLP023

CYYG;2012-07-08 13:00;CYYG 081300Z 28007KT 15SM FEW025 FEW070 21/15 A2959 RMK CF1AC1 SLP020

CYYG;2012-07-08 14:00;CYYG 081400Z 27011KT 15SM FEW028 22/15 A2959 RMK CU2 SLP021

CYYG;2012-07-08 15:00;CYYG 081500Z 24011KT 15SM SCT032 23/14 A2958 RMK CU3 SLP018

CYYG;2012-07-08 16:00;CYYG 081600Z 25013G20KT 15SM BKN035 23/13 A2959 RMK CU5 MDT CU SLP021

CYYG;2012-07-08 17:00;CYYG 081700Z 27009G16KT 15SM SCT038 SCT060 23/14 A2959 RMK CU3SC1 SLP021

CYYG;2012-07-08 18:00;CYYG 081800Z 28012G18KT 15SM FEW042 BKN082 23/14 A2959 RMK CU2AC3 SLP019

CYYG;2012-07-08 19:00;CYYG 081900Z 29007G16KT 15SM BKN045 BKN080 22/13 A2959 RMK CU5AC2 SLP019

CYYG;2012-07-08 20:00;CYYG 082000Z 01010KT 15SM FEW045 BKN070 22/14 A2960 RMK CU2AC3 SLP022

CYYG;2012-07-08 21:00;CYYG 082100Z 01006KT 15SM SCT045 22/12 A2960 RMK SC4 CU ASOCTD SLP024

CYYG;2012-07-08 22:00;CYYG 082200Z 32004KT 15SM FEW045 BKN070 20/12 A2961 RMK CU2AC3 SLP026

CYYG;2012-07-08 23:00;CYYG 082300Z 33002KT 15SM FEW045 BKN086 19/13 A2963 RMK CU1AC6 SLP032

CYYG;2012-07-09 00:00;CYYG 090000Z 25003KT 15SM BKN090 19/12 A2963 RMK AC6 SLP034

CYYG;2012-07-09 01:00;CYYG 090100Z 27005KT 15SM FEW060 BKN091 19/11 A2965 RMK SC1AC6 SLP039

CYYG;2012-07-09 02:00;CYYG 090200Z 30007KT 15SM FEW060 BKN082 18/11 A2966 RMK SC1AC6 SLP042

CYYG;2012-07-09 03:00;CYYG 090300Z 25003KT 15SM SCT076 16/11 A2966 RMK AC3 SLP043

CYYG;2012-07-09 04:00;CYYG 090400Z 27007KT 15SM FEW078 16/10 A2966 RMK AC2 SLP045

CYYG;2012-07-09 05:00;CYYG 090500Z 25006KT 15SM FEW074 15/10 A2966 RMK AC1 SLP045

CYYG;2012-07-09 06:00;CYYG 090600Z 25008KT 15SM BKN062 16/11 A2966 RMK SC5 SLP045

CYYG;2012-07-09 07:00;CYYG 090700Z 25006KT 15SM BKN064 15/11 A2966 RMK SC6 SLP042

CYYG;2012-07-09 08:00;CYYG 090800Z 25007KT 15SM FEW030 FEW070 15/10 A2965 RMK SC1AC1 SLP041

CYYG;2012-07-09 09:00;CYYG 090900Z 25008KT 15SM FEW025 FEW070 14/10 A2966 RMK SC1AC2 SLP044

CYYG;2012-07-09 10:00;CYYG 091000Z 27010G17KT 15SM FEW025 BKN047 BKN070 16/09 A2968 RMK SC1SC4AC2 SLP049

CYYG;2012-07-09 11:00;CYYG 091100Z 26010KT 15SM FEW025 BKN048 17/10 A2969 RMK SC1SC4 SLP055

CYYG;2012-07-09 12:00;CYYG 091200Z 24015KT 15SM FEW030 BKN045 18/11 A2969 RMK CU1SC6 SLP055

CYYG;2012-07-09 13:00;CYYG 091300Z 26010G22KT 15SM FEW030 BKN045 18/11 A2971 RMK CU2SC5 SLP059

CYYG;2012-07-09 14:00;CYYG 091400Z 27013G19KT 15SM FEW035 BKN050 19/10 A2971 RMK CU2SC4 SLP061

CYYG;2012-07-09 15:00;CYYG 091500Z 27013G21KT 15SM BKN045 19/10 A2972 RMK SC7 CU ASOCTD SLP064

CYYG;2012-07-09 16:00;CYYG 091600Z 28014G23KT 15SM FEW045 BKN055 21/10 A2971 RMK CU2SC4 SLP060

CYYG;2012-07-09 17:00;CYYG 091700Z 27010G19KT 15SM FEW050 BKN070 21/11 A2971 RMK CU2AC5 SLP059

CYYG;2012-07-09 18:00;CYYG 091800Z 28013G19KT 15SM FEW050 BKN070 23/10 A2971 RMK CU2AC4 SLP060

CYYG;2012-07-09 19:00;CYYG 091900Z 28011G20KT 15SM FEW050 BKN080 22/10 A2971 RMK CU2AC4 SLP062

CYYG;2012-07-09 20:00;CYYG 092000Z 29011KT 15SM FEW060 BKN085 22/10 A2973 RMK CU2AC4 SLP067

CYYG;2012-07-09 21:00;CYYG 092100Z 26007KT 15SM FEW060 BKN085 21/11 A2974 RMK CU2AC6 SLP071

CYYG;2012-07-09 22:00;CYYG 092200Z 27004KT 15SM FEW065 BKN085 21/12 A2974 RMK CU2AC5 SLP072

CYYG;2012-07-09 23:00;CYYG 092300Z 24004KT 15SM FEW065 BKN090 20/12 A2975 RMK CU1AC6 SLP076

CYYG;2012-07-10 00:00;CYYG 100000Z 25006KT 15SM FEW065 BKN090 19/12 A2978 RMK SC1AC6 SLP083

CYYG;2012-07-10 01:00;CYYG 100100Z 26005KT 15SM FEW065 BKN089 19/12 A2980 RMK SC1AC6 SLP092

CYYG;2012-07-10 02:00;CYYG 100200Z 25005KT 15SM BKN089 18/12 A2981 RMK AC7 SLP094

CYYG;2012-07-10 03:00;CYYG 100300Z 24005KT 15SM FEW090 17/11 A2982 RMK AC2 SLP097

CYYG;2012-07-10 04:00;CYYG 100400Z 22006KT 15SM FEW090 16/12 A2983 RMK AC2 SLP101

CYYG;2012-07-10 05:00;CYYG 100500Z 22006KT 15SM FEW090 15/13 A2983 RMK AC1 SLP101

CYYG;2012-07-10 06:00;CYYG 100600Z 24007KT 15SM SKC 15/12 A2983 RMK SLP102

CYYG;2012-07-10 07:00;CYYG 100700Z 25006KT 15SM SKC 15/12 A2983 RMK SLP102

CYYG;2012-07-10 08:00;CYYG 100800Z 24008KT 15SM FEW020 FEW280 15/11 A2984 RMK SC1CI1 SLP105

CYYG;2012-07-10 09:00;CYYG 100900Z 23008KT 15SM FEW280 15/11 A2985 RMK CI1 SLP109

CYYG;2012-07-10 10:00;CYYG 101000Z 24008KT 15SM FEW280 16/11 A2987 RMK CI1 SLP114

CYYG;2012-07-10 11:00;CYYG 101100Z 25008KT 15SM FEW280 17/12 A2988 RMK CI1 SLP120

CYYG;2012-07-10 12:00;CYYG 101200Z 25008KT 15SM FEW280 19/11 A2989 RMK CI1 SLP123

CYYG;2012-07-10 13:00;CYYG 101300Z 25011KT 15SM FEW280 21/10 A2990 RMK CI1 SLP125

CYYG;2012-07-10 14:00;CYYG 101400Z 25013KT 15SM FEW030 23/09 A2990 RMK CU1 SLP127

CYYG;2012-07-10 15:00;CYYG 101500Z 23010G16KT 15SM FEW030 24/09 A2990 RMK CU1 SLP126

CYYG;2012-07-10 16:00;CYYG 101600Z 24015G21KT 15SM FEW040 24/06 A2989 RMK CU1 SLP123

CYYG;2012-07-10 17:00;CYYG 101700Z 24014G19KT 15SM FEW040 25/08 A2988 RMK CU1 SLP119

CYYG;2012-07-10 18:00;CYYG 101800Z 23014G23KT 15SM FEW064 25/09 A2987 RMK CU1 SLP116

CYYG;2012-07-10 19:00;CYYG 101900Z 23013G21KT 15SM FEW064 26/10 A2987 RMK CU1 SLP115

CYYG;2012-07-10 20:00;CYYG 102000Z 25015G22KT 15SM FEW064 25/10 A2987 RMK CU1 SLP116

CYYG;2012-07-10 21:00;CYYG 102100Z 24013G20KT 15SM FEW064 25/10 A2987 RMK CU1 SLP115

CYYG;2012-07-10 22:00;CYYG 102200Z 24013G20KT 15SM FEW064 24/09 A2987 RMK CU1 SLP116

CYYG;2012-07-10 23:00;CYYG 102300Z 24016G23KT 15SM FEW060 22/09 A2989 RMK SC1 SLP121

CYYG;2012-07-11 00:00;CYYG 110000Z 24010KT 15SM SCT078 20/09 A2991 RMK AC3 SLP129

CYYG;2012-07-11 01:00;CYYG 110100Z 24009KT 15SM FEW080 20/09 A2993 RMK ACC2 SLP135

CYYG;2012-07-11 02:00;CYYG 110200Z 25007KT 15SM FEW080 18/10 A2996 RMK ACC2 SLP144

CYYG;2012-07-11 03:00;CYYG 110300Z 24006KT 15SM FEW075 17/11 A2997 RMK AC2 SLP149

CYYG;2012-07-11 04:00;CYYG 110400Z 24006KT 15SM FEW090 16/11 A2998 RMK AC2 SLP152

CYYG;2012-07-11 05:00;CYYG 110500Z 28003KT 15SM BKN086 17/10 A2999 RMK AC5 SLP155

CYYG;2012-07-11 06:00;CYYG 110600Z 27003KT 15SM SCT093 15/09 A3000 RMK AC4 SLP158

CYYG;2012-07-11 07:00;CYYG 110700Z 24004KT 15SM FEW085 14/09 A3000 RMK AC2 SLP158

CYYG;2012-07-11 08:00;CYYG 110800Z 23006KT 15SM FEW090 14/09 A3001 RMK AC2 SLP164

CYYG;2012-07-11 09:00;CYYG 110900Z 25007KT 15SM FEW085 15/12 A3004 RMK AC1 SLP172

CYYG;2012-07-11 10:00;CYYG 111000Z 27004KT 15SM FEW085 15/12 A3006 RMK AC2 SLP179

CYYG;2012-07-11 11:00;CYYG 111100Z 27006KT 15SM FEW085 18/12 A3008 RMK AC2 SLP186

CYYG;2012-07-11 12:00;CYYG 111200Z 25006KT 15SM FEW084 FEW300 21/11 A3009 RMK AC1CI0 SLP191

CYYG;2012-07-11 13:00;CYYG 111300Z 27005KT 15SM FEW300 22/10 A3010 RMK CI1 SLP193

CYYG;2012-07-11 14:00;CYYG 111400Z 23011KT 15SM FEW040TCU FEW300 23/09 A3010 RMK TCU1CI1 TCU DIST S-SW SLP194

CYYG;2012-07-11 15:00;CYYG 111500Z 24011KT 15SM FEW050 SCT300 24/06 A3010 RMK CU1CI1 SLP193

CYYG;2012-07-11 16:00;CYYG 111600Z 28008G16KT 15SM FEW068 SCT300 25/08 A3010 RMK AC1CI1 SLP194

CYYG;2012-07-11 17:00;CYYG 111700Z 28010G18KT 15SM FEW071 FEW300 24/07 A3011 RMK AC1CI1 SLP195

CYYG;2012-07-11 18:00;CYYG 111800Z 27006G17KT 15SM FEW071 FEW300 24/09 A3011 RMK AC1CI1 SLP196

CYYG;2012-07-11 19:00;CYYG 111900Z 30012KT 15SM FEW071 FEW300 25/07 A3011 RMK AC1CI1 SLP196

CYYG;2012-07-11 20:00;CYYG 112000Z 28009KT 15SM FEW071 FEW300 25/08 A3011 RMK AC1CI1 SLP195

CYYG;2012-07-11 21:00;CYYG 112100Z 26008KT 15SM FEW071 FEW300 25/08 A3010 RMK AC1CI1 SLP194

CYYG;2012-07-11 22:00;CYYG 112200Z 25007KT 15SM FEW071 FEW300 25/08 A3011 RMK AC1CI0 SLP196

CYYG;2012-07-11 23:00;CYYG 112300Z 22007KT 15SM FEW070 FEW300 24/09 A3013 RMK AC1CI0 SLP202

CYYG;2012-07-12 00:00;CYYG 120000Z 19005KT 15SM FEW070 FEW300 21/10 A3014 RMK AC1CI1 SLP207

CYYG;2012-07-12 01:00;CYYG 120100Z 21006KT 15SM FEW070 19/11 A3016 RMK AC1 SLP212

CYYG;2012-07-12 02:00;CYYG 120200Z 18005KT 15SM FEW070 18/12 A3016 RMK AC1 SLP213

CYYG;2012-07-12 03:00;CYYG 120300Z 17006KT 15SM FEW070 16/11 A3015 RMK AC1 SLP210

CYYG;2012-07-12 04:00;CYYG 120400Z 20007KT 15SM FEW070 18/12 A3015 RMK AC1 SLP211

CYYG;2012-07-12 05:00;CYYG 120500Z 22007KT 15SM FEW070 17/11 A3016 RMK AC1 SLP212

CYYG;2012-07-12 06:00;CYYG 120600Z 22008KT 15SM SKC 17/11 A3016 RMK SLP212

CYYG;2012-07-12 07:00;CYYG 120700Z 21007KT 15SM FEW070 17/11 A3016 RMK AC1 SLP212

CYYG;2012-07-12 08:00;CYYG 120800Z 20007KT 15SM FEW300 17/12 A3015 RMK CI1 SLP211

CYYG;2012-07-12 09:00;CYYG 120900Z 21007KT 15SM FEW300 17/12 A3017 RMK CI1 SLP215

CYYG;2012-07-12 10:00;CYYG 121000Z 22007KT 15SM FEW300 18/13 A3016 RMK CI1 SLP213

CYYG;2012-07-12 11:00;CYYG 121100Z 21008KT 15SM FEW300 19/13 A3016 RMK CI2 SLP212

CYYG;2012-07-12 12:00;CYYG 121200Z 23010KT 15SM FEW300 21/13 A3017 RMK CI2 SLP215

CYYG;2012-07-12 13:00;CYYG 121300Z 20013KT 15SM FEW300 23/13 A3015 RMK CI2 SLP211

CYYG;2012-07-12 14:00;CYYG 121400Z 21015KT 15SM FEW300 24/13 A3014 RMK CI2 SLP207

CYYG;2012-07-12 15:00;CYYG 121500Z 22016G24KT 15SM FEW300 26/12 A3013 RMK CI2 SLP203

CYYG;2012-07-12 16:00;CYYG 121600Z 19016G25KT 15SM FEW300 28/13 A3012 RMK CI2 SLP199

CYYG;2012-07-12 17:00;CYYG 121700Z 20022KT 15SM FEW060 FEW300 28/12 A3011 RMK CU1CI2 SLP196

CYYG;2012-07-12 18:00;CYYG 121800Z 22018G28KT 15SM FEW060 FEW300 28/13 A3009 RMK CU1CI2 OBS TAKEN +18 SLP189

CYYG;2012-07-12 19:00;CYYG 121900Z 22014G24KT 15SM FEW060 FEW300 29/13 A3008 RMK CU1CI2 SLP187

CYYG;2012-07-12 20:00;CYYG 122000Z 22015G20KT 15SM FEW060 FEW300 28/15 A3007 RMK CU1CI2 SLP184

CYYG;2012-07-12 21:00;CYYG 122100Z 22013G20KT 15SM FEW060 FEW300 27/14 A3005 RMK CU1CI2 SLP177

CYYG;2012-07-12 22:00;CYYG 122200Z 24012G18KT 15SM FEW300 26/12 A3004 RMK CI1 SLP173

CYYG;2012-07-12 23:00;CYYG 122300Z 24008KT 15SM FEW300 24/11 A3005 RMK CI1 SLP177

CYYG;2012-07-13 00:00;CYYG 130000Z 21007KT 15SM FEW300 23/11 A3006 RMK CI1 SLP181

CYYG;2012-07-13 01:00;CYYG 130100Z 21009KT 15SM FEW300 21/11 A3007 RMK CI1 SLP182

CYYG;2012-07-13 02:00;CYYG 130200Z 21012G19KT 15SM FEW300 21/12 A3007 RMK CI1 SLP182

CYYG;2012-07-13 03:00;CYYG 130300Z 21010G18KT 15SM FEW300 20/12 A3008 RMK CI1 SLP185

CYYG;2012-07-13 04:00;CYYG 130400Z 20010G17KT 15SM FEW300 19/12 A3006 RMK CI1 SLP179

CYYG;2012-07-13 05:00;CYYG 130500Z 23013G21KT 15SM FEW300 19/11 A3004 RMK CI1 SLP174

CYYG;2012-07-13 06:00;CYYG 130600Z 23011G17KT 15SM FEW300 19/10 A3003 RMK CI1 SLP169

CYYG;2012-07-13 07:00;CYYG 130700Z 23010KT 15SM FEW300 18/11 A3003 RMK CI1 SLP167

CYYG;2012-07-13 08:00;CYYG 130800Z 24011KT 15SM SCT300 18/11 A3003 RMK CI1 SLP169

CYYG;2012-07-13 09:00;CYYG 130900Z 24010KT 15SM FEW210 SCT300 18/12 A3005 RMK CI1CI1 SLP175

CYYG;2012-07-13 10:00;CYYG 131000Z 24008KT 15SM SCT300 18/13 A3006 RMK CI1 SLP180

CYYG;2012-07-13 11:00;CYYG 131100Z 26008KT 15SM FEW300 20/14 A3007 RMK CI1 SLP183

CYYG;2012-07-13 12:00;CYYG 131200Z 29007KT 15SM FEW300 22/15 A3009 RMK CI1 SLP188

CYYG;2012-07-13 14:00;CYYG 131400Z 35007KT 15SM SCT300 22/17 A3010 RMK CI2 SLP194

CYYG;2012-07-13 15:00;CYYG 131500Z 34007KT 15SM FEW120 BKN300 23/17 A3012 RMK AC1CI2 SLP199

CYYG;2012-07-13 16:00;CYYG 131600Z 36005KT 15SM FEW030 SCT120 BKN280 23/17 A3012 RMK CF1AC3CI1 SLP200

CYYG;2012-07-13 17:00;CYYG 131700Z 02008KT 15SM FEW028 BKN110 BKN280 22/16 A3013 RMK CU1AC4CI1 SLP202

CYYG;2012-07-13 18:00;CYYG 131800Z 01006KT 15SM FEW030 SCT110 BKN280 24/17 A3012 RMK CF1AC2CI1 SLP198

CYYG;2012-07-13 19:00;CYYG 131900Z 03006KT 15SM FEW030 FEW120 BKN280 24/17 A3011 RMK CF1AC1CI2 SLP197

CYYG;2012-07-13 20:00;CYYG 132000Z 02009KT 15SM FEW030 FEW130 BKN280 23/17 A3012 RMK CF1AC1CI2 SLP198

CYYG;2012-07-13 21:00;CYYG 132100Z 02008KT 15SM FEW150 BKN280 23/17 A3011 RMK AC2CI2 SLP197

CYYG;2012-07-13 22:00;CYYG 132200Z 04004KT 15SM FEW160 BKN280 21/17 A3011 RMK AC2CI1 SLP195

CYYG;2012-07-13 23:00;CYYG 132300Z 07002KT 15SM BKN140 BKN280 20/17 A3010 RMK AC6CI2 SLP194

CYYG;2012-07-14 00:00;CYYG 140000Z 04003KT 15SM BKN130 OVC280 19/17 A3011 RMK AC7CI1 VIRGA SLP197

CYYG;2012-07-14 00:15;CYYG 140015Z 06003KT 15SM -SHRA BKN130 OVC280 19/ RMK AC7CI1

CYYG;2012-07-14 00:43;CYYG 140043Z 09003KT 15SM BKN140 OVC280 19/ RMK AC7CI1

CYYG;2012-07-14 01:00;CYYG 140100Z 10002KT 15SM BKN140 19/17 A3012 RMK AC7 SLP198

CYYG;2012-07-14 02:00;CYYG 140200Z 13008KT 15SM BKN120 OVC160 19/16 A3012 RMK AC6AC2 SLP198

CYYG;2012-07-14 03:00;CYYG 140300Z 12006KT 15SM SCT080 BKN120 18/16 A3010 RMK AC3AC4 SLP194

CYYG;2012-07-14 03:08;CYYG 140308Z 00000KT 15SM -SHRA BKN070 OVC110 18/ RMK AC6AC2 CB DIST NW OCNL LTG

CYYG;2012-07-14 03:29;CYYG 140329Z 13008KT 15SM -TSRA BKN070 OVC110 18/ RERA RMK AC6AC2 WSHFT 0314 CB NW MOVG E FQT LTG PRES UNSTDY

CYYG;2012-07-14 03:53;CYYG 140353Z 13009KT 15SM TS SCT070 OVC100 18/ RERA RMK AC3AC5 CB NNW MOVG E OCNL LTG

CYYG;2012-07-14 04:00;CYYG 140400Z 14008KT 15SM TS SCT070 OVC100 18/16 A3008 RMK AC3AC5 CB NNW MOVG E OCNL LTGCG SLP185

CYYG;2012-07-14 04:50;CYYG 140450Z 36005KT 15SM BKN070 OVC110 17/ RETS RMK AC6AC2 CB DIST NE OCNL LTNG

CYYG;2012-07-14 05:00;CYYG 140500Z 05004KT 15SM SCT070 OVC110 17/17 A3008 RETS RMK AC4AC4 CB DIST NE OCNL LTNG SLP185

CYYG;2012-07-14 06:00;CYYG 140600Z 16006KT 15SM OVC095 18/17 A3004 RMK AC8 SLP174

CYYG;2012-07-14 07:00;CYYG 140700Z 18008KT 15SM SCT090 OVC120 19/17 A3002 RMK AC3AC5 CB DIST NE OCNL LTNG SLP166

CYYG;2012-07-14 08:00;CYYG 140800Z 20010KT 15SM BKN080 BKN110 19/17 A3001 RMK AC5AC2 ACC ASOCTD SLP161

CYYG;2012-07-14 08:26;CYYG 140826Z 20009KT 15SM -SHRA BKN080 19/ RMK AC7 ACC ASOCTD

CYYG;2012-07-14 08:40;CYYG 140840Z 20012KT 15SM VCSH BKN075 19/ RMK AC7 ACC ASOCTD

CYYG;2012-07-14 09:00;CYYG 140900Z 21010KT 15SM BKN075 19/17 A3000 RMK AC7 ACC ASOCTD SLP159

CYYG;2012-07-14 10:00;CYYG 141000Z 24007KT 15SM SCT090 BKN120 19/17 A3002 RMK ACC3AC4 SLP165

CYYG;2012-07-14 11:00;CYYG 141100Z 22009KT 15SM FEW080 BKN130 19/16 A3002 RMK ACC2AC6 SLP165

CYYG;2012-07-14 12:00;CYYG 141200Z 22006KT 15SM FEW090 BKN130 19/16 A3001 RMK AC2AC6 SLP162

CYYG;2012-07-14 13:00;CYYG 141300Z 25011KT 15SM BKN120 BKN280 20/16 A3000 RMK AC5CI2 SLP159

CYYG;2012-07-14 14:00;CYYG 141400Z 26005KT 15SM BKN110 BKN220 BKN280 22/17 A2999 RMK AC5CC1CI1 SLP157

CYYG;2012-07-14 15:00;CYYG 141500Z 25007KT 15SM SCT080 BKN150 BKN280 22/17 A2999 RMK AC3AC2CI1 SLP156

CYYG;2012-07-14 16:00;CYYG 141600Z 28007KT 15SM FEW030 FEW070 BKN140 BKN280 24/18 A2998 RMK CF1ACC1AC3CI1 SLP153

CYYG;2012-07-14 17:00;CYYG 141700Z 31004KT 15SM SCT036 BKN062 BKN280 26/19 A2999 RMK CU4SC2CI1 SLP155

CYYG;2012-07-14 18:00;CYYG 141800Z 34009KT 15SM FEW038 BKN064 BKN280 24/19 A2999 RMK CU2SC4CI1 MDT CU ASOCTD SLP157

CYYG;2012-07-14 19:00;CYYG 141900Z 34007KT 15SM FEW030 BKN056 BKN080 23/19 A3000 RMK CU2SC4AC2 SLP158

CYYG;2012-07-14 19:33;CYYG 141933Z CCA 36010G16KT 15SM BKN011 OVC050 21/ RMK SC5SC3

CYYG;2012-07-14 20:00;CYYG 142000Z 36010KT 12SM BKN010 BKN054 21/18 A3002 RMK SC6SC2 SLP165

CYYG;2012-07-14 20:22;CYYG 142022Z 01007KT 12SM BKN009 BKN050 20/ RMK SC6SC2

CYYG;2012-07-14 21:00;CYYG 142100Z 36005KT 12SM BKN008 OVC050 20/18 A3002 RMK SC6SC2 SLP165

CYYG;2012-07-14 22:00;CYYG 142200Z 01008KT 12SM OVC008 19/18 A3003 RMK SC8 SLP170

CYYG;2012-07-14 22:33;CYYG 142233Z 01007KT 12SM -DZ OVC007 18/ RMK SC8

CYYG;2012-07-14 23:00;CYYG 142300Z 01011KT 10SM -DZ OVC006 18/17 A3004 RMK ST8 SLP174

CYYG;2012-07-14 23:48;CYYG 142348Z 02007KT 10SM OVC006 18/ RMK SF8

CYYG;2012-07-15 00:00;CYYG 150000Z 03008KT 10SM OVC006 18/17 A3006 RMK SF8 SLP178

CYYG;2012-07-15 00:06;CYYG 150006Z 02011KT 3SM -DZ BR OVC003 17/ RMK SF8 VIS S-SW 10

CYYG;2012-07-15 00:53;CYYG 150053Z 01008KT 5SM BR OVC002 17/ RMK SF8

CYYG;2012-07-15 01:00;CYYG 150100Z 01009KT 5SM BR OVC002 17/16 A3007 RMK SF8 SLP184

CYYG;2012-07-15 02:00;CYYG 150200Z 02009KT 3SM BR OVC002 16/16 A3007 RMK SF8 SLP184

CYYG;2012-07-15 03:00;CYYG 150300Z 01009KT 3SM BR OVC002 16/16 A3008 RMK SF8 SLP187

CYYG;2012-07-15 04:00;CYYG 150400Z 02007KT 5SM BR OVC002 16/16 A3009 RMK SF8 SLP189

CYYG;2012-07-15 05:00;CYYG 150500Z 34003KT 15SM OVC004 16/16 A3009 RMK SF8 SLP190

CYYG;2012-07-15 06:00;CYYG 150600Z 36005KT 15SM OVC006 16/16 A3009 RMK SF8 SLP188

CYYG;2012-07-15 06:21;CYYG 150621Z 36005KT 15SM OVC010 16/ RMK SC8

CYYG;2012-07-15 07:00;CYYG 150700Z 36007KT 15SM SCT009 16/15 A3009 RMK SC3 SLP188

CYYG;2012-07-15 07:36;CYYG 150736Z 01006KT 15SM BKN009 15/ RMK SC6

CYYG;2012-07-15 08:00;CYYG 150800Z 01008KT 15SM BKN009 16/15 A3009 RMK SC6 SLP191

CYYG;2012-07-15 08:04;CYYG 150804Z 01006KT 15SM SCT009 BKN300 15/ RMK SC3CI0

CYYG;2012-07-15 09:00;CYYG 150900Z 01004KT 15SM FEW009 BKN013 BKN300 14/14 A3010 RMK SC1SC5CI1 SLP192

CYYG;2012-07-15 09:24;CYYG 150924Z 35003KT 15SM FEW013 BKN300 15/ RMK SC1CI2

CYYG;2012-07-15 10:00;CYYG 151000Z 36004KT 15SM FEW013 BKN300 15/14 A3010 RMK SC1CI2 SLP193

CYYG;2012-07-15 11:00;CYYG 151100Z 01008KT 15SM FEW015 FEW100 BKN300 17/15 A3012 RMK SC1AC1CI1 CONTRAILS SLP198

CYYG;2012-07-15 12:00;CYYG 151200Z 02008KT 15SM FEW015 BKN300 19/14 A3012 RMK SC1CI2 SLP200

CYYG;2012-07-15 13:00;CYYG 151300Z 02007KT 15SM FEW015 BKN300 20/15 A3012 RMK SC1CI2 SLP199

CYYG;2012-07-15 14:00;CYYG 151400Z 36003KT 15SM FEW015 BKN300 21/14 A3010 RMK SC1CI1 CONTRAILS SLP193

CYYG;2012-07-15 15:00;CYYG 151500Z 24002KT 15SM FEW020 BKN300 22/14 A3009 RMK CF1CI1 CONTRAILS SLP191

CYYG;2012-07-15 16:00;CYYG 151600Z 23003KT 15SM FEW026 FEW140 BKN300 23/14 A3008 RMK CF1AC1CI1 CONTRAILS SLP185

CYYG;2012-07-15 17:00;CYYG 151700Z 17010KT 15SM FEW030 FEW150 BKN300 25/13 A3005 RMK CU1AC2CI1 SLP177

CYYG;2012-07-15 18:00;CYYG 151800Z 17009KT 15SM FEW036 FEW140 BKN300 25/11 A3004 RMK CU1AC2CI1 SLP174

CYYG;2012-07-15 19:00;CYYG 151900Z 16008KT 15SM FEW040 FEW140 BKN300 25/10 A3003 RMK CU1AC1CI1 SLP168

CYYG;2012-07-15 20:00;CYYG 152000Z 16010KT 15SM FEW044 BKN300 25/11 A2999 RMK CU1CI1 SLP157

CYYG;2012-07-15 21:00;CYYG 152100Z 19008KT 15SM BKN300 25/11 A2997 RMK CI1 CU TOPS DSNT S SLP148

CYYG;2012-07-15 22:00;CYYG 152200Z 19008KT 15SM BKN300 24/12 A2996 RMK CI1 SLP147

CYYG;2012-07-15 23:00;CYYG 152300Z 17008KT 15SM SCT300 22/14 A2996 RMK CI1 SLP144

CYYG;2012-07-16 00:00;CYYG 160000Z 17008KT 15SM SCT300 21/14 A2995 RMK CI2 SLP141

CYYG;2012-07-16 01:00;CYYG 160100Z 15005KT 15SM SCT300 20/14 A2996 RMK CI2 SLP144

CYYG;2012-07-16 02:00;CYYG 160200Z 17011KT 15SM SCT300 20/16 A2994 RMK CI2 SLP138

CYYG;2012-07-16 03:00;CYYG 160300Z 18013KT 15SM OVC240 20/16 A2994 RMK CI6 SLP138

CYYG;2012-07-16 04:00;CYYG 160400Z 18011KT 15SM OVC210 19/15 A2993 RMK CI8 SLP136

CYYG;2012-07-16 05:00;CYYG 160500Z CCA 18010KT 15SM SCT190 18/15 A2991 RMK AC4 OCNL DIST LTGIC NW SLP128

CYYG;2012-07-16 06:00;CYYG 160600Z 18009KT 15SM FEW130 18/15 A2990 RMK AC2 OCNL DIST LTGIC NW-N SLP124

CYYG;2012-07-16 07:00;CYYG 160700Z 19012KT 15SM FEW130 17/15 A2988 RMK AC2 SLP118

CYYG;2012-07-16 08:00;CYYG 160800Z 18010KT 15SM FEW130 BKN300 17/15 A2986 RMK AC2CI2 SLP112

CYYG;2012-07-16 09:00;CYYG 160900Z 18013KT 15SM FEW040CB FEW130 OVC300 17/15 A2985 RMK CB1AC2CI2 CB DIST NE SLP108

CYYG;2012-07-16 10:00;CYYG 161000Z 18013KT 12SM FEW130 OVC300 17/15 A2984 RMK AC2CI3 SLP105

CYYG;2012-07-16 11:00;CYYG 161100Z 19013G19KT 15SM FEW130 OVC300 18/16 A2984 RMK AC1CI5 TCU TOPS W SLP105

CYYG;2012-07-16 12:00;CYYG 161200Z 19009KT 15SM FEW010 BKN075 OVC170 19/16 A2985 RMK CF1ACC4AC3 SLP108

CYYG;2012-07-16 12:26;CYYG 161226Z 20012KT 15SM -SHRA FEW010 BKN075 OVC160 19/ RMK CF1ACC4AC3

CYYG;2012-07-16 13:00;CYYG 161300Z 19014KT 15SM -SHRA FEW010 BKN075 OVC140 19/16 A2983 RMK CF1ACC4AC3 SLP103

CYYG;2012-07-16 13:32;CYYG 161332Z 18014KT 15SM FEW012 SCT075 OVC140 19/ RMK CF1ACC2AC5

CYYG;2012-07-16 14:00;CYYG 161400Z 20010G15KT 15SM VCSH FEW012 FEW030 BKN080 OVC140 19/16 A2983 RMK CF1SC1ACC4AC2 SLP101

CYYG;2012-07-16 14:07;CYYG 161407Z 19012KT 15SM -SHRA FEW012 BKN017 OVC080 19/ RMK CF1SC4ACC3

CYYG;2012-07-16 14:36;CYYG 161436Z 18011KT 15SM FEW012 SCT080 OVC160 20/ RMK SC2ACC2AC5

CYYG;2012-07-16 15:00;CYYG 161500Z 20013KT 15SM FEW016 SCT080 BKN160 21/17 A2981 RMK SC2ACC2AC4 SLP093

CYYG;2012-07-16 16:00;CYYG 161600Z 19011KT 15SM FEW016 SCT080 OVC100 20/17 A2980 RMK SC1ACC2AC5 SLP092

CYYG;2012-07-16 17:00;CYYG 161700Z 18014KT 15SM FEW020 BKN075 OVC100 20/17 A2979 RMK SC1ACC5AC3 SLP086

CYYG;2012-07-16 18:00;CYYG 161800Z 19015G20KT 15SM FEW020 SCT080 BKN120 22/17 A2978 RMK SC1ACC3AC3 SLP083

CYYG;2012-07-16 19:00;CYYG 161900Z 17013KT 15SM FEW020 SCT080 BKN120 22/17 A2977 RMK SC1ACC2AC4 SLP081

CYYG;2012-07-16 20:00;CYYG 162000Z 18011KT 15SM FEW020 BKN085 OVC120 20/17 A2976 RMK SC1AC6AC2 ACC ASOCTD SLP078

CYYG;2012-07-16 21:00;CYYG 162100Z 19011KT 15SM FEW020 BKN088 OVC120 20/17 A2975 RMK CF1AC6AC2 ACC ASOCTD SLP073

CYYG;2012-07-16 22:00;CYYG 162200Z 17007KT 15SM FEW020 OVC080 20/17 A2975 RMK CF1AC8 SLP074

CYYG;2012-07-16 23:00;CYYG 162300Z 16003KT 15SM FEW020 OVC073 19/17 A2975 RMK SC2AC6 SLP074

CYYG;2012-07-17 00:00;CYYG 170000Z 18009KT 15SM FEW020 OVC075 19/18 A2974 RMK SC2AC6 SLP071

CYYG;2012-07-17 01:00;CYYG 170100Z 17009KT 15SM FEW020 OVC072 19/18 A2975 RMK SC2AC6 SLP074

CYYG;2012-07-17 02:00;CYYG 170200Z 16008KT 15SM FEW020 BKN075 BKN160 18/17 A2974 RMK SC2AC5AC1 SLP071

CYYG;2012-07-17 03:00;CYYG 170300Z 16007KT 15SM FEW020 OVC080 18/17 A2974 RMK SC2AC6 SLP072

CYYG;2012-07-17 04:00;CYYG 170400Z 18005KT 15SM FEW020 OVC085 19/18 A2975 RMK SC2AC6 SLP073

CYYG;2012-07-17 05:00;CYYG 170500Z 20005KT 15SM FEW020 OVC085 19/18 A2974 RMK SC2AC6 SLP069

CYYG;2012-07-17 06:00;CYYG 170600Z 20006KT 15SM OVC074 19/18 A2973 RMK AC8 SLP067

CYYG;2012-07-17 07:00;CYYG 170700Z 20009KT 15SM FEW008 OVC074 19/17 A2972 RMK SF2AC6 SLP065

CYYG;2012-07-17 08:00;CYYG 170800Z 22006KT 15SM FEW008 BKN019 OVC070 18/17 A2973 RMK SF2SC2AC3 SLP068

CYYG;2012-07-17 09:00;CYYG 170900Z 21006KT 15SM FEW008 SCT019 OVC063 18/17 A2973 RMK SF2SC2SC4 SLP066

CYYG;2012-07-17 10:00;CYYG 171000Z 22007KT 15SM BKN008 OVC019 18/17 A2973 RMK SF6SC2 SLP067

CYYG;2012-07-17 11:00;CYYG 171100Z 22004KT 12SM VCSH BKN007 OVC050 19/18 A2973 RMK SF7SC1 SLP066

CYYG;2012-07-17 12:00;CYYG 171200Z 27003KT 15SM BKN007 BKN050 BKN250 20/18 A2974 RMK SF5SC1CI1 SLP070

CYYG;2012-07-17 13:00;CYYG 171300Z 00000KT 15SM FEW015 SCT160 BKN260 22/18 A2974 RMK SC2AC2CI1 SLP071

CYYG;2012-07-17 14:00;CYYG 171400Z 30006KT 15SM FEW022 SCT160 BKN250 24/16 A2974 RMK CU1AC2CI2 SLP069

CYYG;2012-07-17 15:00;CYYG 171500Z 32004KT 15SM FEW029 BKN250 24/18 A2974 RMK CU2CI3 SLP069

CYYG;2012-07-17 16:00;CYYG 171600Z 32007KT 15SM FEW030 BKN250 23/19 A2975 RMK CU2CI2 SLP073

CYYG;2012-07-17 17:00;CYYG 171700Z 32003KT 15SM FEW030 BKN250 25/17 A2973 RMK CU2CI2 SLP066

CYYG;2012-07-17 18:00;CYYG 171800Z 01008KT 15SM FEW035 SCT250 25/16 A2972 RMK CU1CI2 SLP064

CYYG;2012-07-17 19:00;CYYG 171900Z 02006KT 15SM FEW040 SCT250 25/16 A2971 RMK CU1CI2 SLP061

CYYG;2012-07-17 20:00;CYYG 172000Z 00000KT 15SM FEW038 BKN250 25/17 A2971 RMK CU1CI3 SLP059

CYYG;2012-07-17 21:00;CYYG 172100Z 18006KT 15SM FEW040 SCT150 BKN240 25/13 A2970 RMK CF1AC2CI1 SLP056

CYYG;2012-07-17 22:00;CYYG 172200Z 01006KT 15SM FEW040 BKN150 BKN240 23/17 A2971 RMK CF1AC4CI1 SLP059

CYYG;2012-07-17 23:00;CYYG 172300Z 06005KT 15SM FEW040 BKN130 OVC240 21/17 A2970 RMK SC1AC5CI2 SLP058

CYYG;2012-07-18 00:00;CYYG 180000Z 07003KT 15SM FEW030 OVC086 20/17 A2971 RMK CF2AC6 SLP060

CYYG;2012-07-18 01:00;CYYG 180100Z 11004KT 15SM -SHRA OVC040 20/18 A2971 RMK SC8 SLP060

CYYG;2012-07-18 01:31;CYYG 180131Z 16005KT 12SM -SHRA FEW008 OVC017 20/ RMK SF2SC6

CYYG;2012-07-18 02:00;CYYG 180200Z 19007KT 12SM -SHRA SCT008 OVC021 20/18 A2971 RMK SF3SC5 SLP059

CYYG;2012-07-18 03:00;CYYG 180300Z 18006KT 12SM -SHRA FEW008 SCT020 OVC081 20/19 A2968 RMK SF2SC2AC4 SLP049

CYYG;2012-07-18 04:00;CYYG 180400Z 17010KT 10SM -SHRA FEW004 OVC033 19/19 A2966 RMK SF2SC6 SLP042

CYYG;2012-07-18 05:00;CYYG 180500Z 16014KT 10SM -SHRA FEW004 OVC040 19/19 A2961 RMK SF2SC6 SLP027

CYYG;2012-07-18 06:00;CYYG 180600Z 16014G20KT 12SM -SHRA FEW004 OVC040 19/19 A2959 RMK SF2SC6 SLP019

CYYG;2012-07-18 07:00;CYYG 180700Z 17014KT 15SM -SHRA FEW006 OVC052 19/18 A2957 RMK SF2SC6 SLP013

CYYG;2012-07-18 07:46;CYYG 180746Z 18014KT 15SM SCT015 OVC051 19/ RMK SC3SC5

CYYG;2012-07-18 08:00;CYYG 180800Z 18012KT 15SM SCT015 OVC055 19/18 A2956 RMK SC3SC5 SLP010

CYYG;2012-07-18 08:29;CYYG 180829Z 18010KT 15SM -SHRA BKN015 OVC050 19/ RMK SC5SC3

CYYG;2012-07-18 09:00;CYYG 180900Z 20010KT 15SM -SHRA FEW008 BKN015 OVC050 19/19 A2956 RMK SF2SC3SC3 SLP011

CYYG;2012-07-18 09:18;CYYG 180918Z 20011KT 15SM OVC011 20/ RMK SC8

CYYG;2012-07-18 10:00;CYYG 181000Z 22013KT 15SM OVC008 20/19 A2956 RMK SF8 SLP011

CYYG;2012-07-18 11:00;CYYG 181100Z 22010G18KT 15SM OVC007 20/19 A2956 RMK SF8 SLP011

CYYG;2012-07-18 12:00;CYYG 181200Z 24011G18KT 10SM BKN007 OVC013 20/19 A2959 RMK SF6SC2 SLP020

CYYG;2012-07-18 12:22;CYYG 181222Z 24011G18KT 6SM -DZ BR BKN006 OVC013 20/ RMK SF6SC2

CYYG;2012-07-18 12:53;CYYG 181253Z 28010G15KT 15SM SCT007 BKN022 20/ RMK SF4SC2

CYYG;2012-07-18 13:00;CYYG 181300Z 27011G17KT 15SM BKN008 BKN024 20/19 A2961 RMK SF6SC2 SLP027

CYYG;2012-07-18 13:25;CYYG 181325Z 29010G19KT 15SM BKN012 BKN024 20/ RMK SC6SC2

CYYG;2012-07-18 14:00;CYYG 181400Z 31015KT 15SM BKN016 20/17 A2964 RMK SC7 SLP036

CYYG;2012-07-18 15:00;CYYG 181500Z 30013G20KT 15SM BKN022 19/15 A2969 RMK SC7 SLP053

CYYG;2012-07-18 16:00;CYYG 181600Z 32012G17KT 15SM BKN020 19/16 A2970 RMK SC7 SLP058

CYYG;2012-07-18 17:00;CYYG 181700Z 33008KT 15SM BKN018 19/16 A2972 RMK SC7 SLP065

CYYG;2012-07-18 18:00;CYYG 181800Z 31005KT 15SM BKN020 19/16 A2974 RMK SC7 SLP070

CYYG;2012-07-18 19:00;CYYG 181900Z 26006KT 15SM FEW020 SCT180 22/16 A2973 RMK CU2AC2 SLP068

CYYG;2012-07-18 20:00;CYYG 182000Z 28006KT 15SM FEW035 FEW220 24/16 A2972 RMK CU1CI1 SLP064

CYYG;2012-07-18 21:00;CYYG 182100Z 24007KT 15SM FEW035 SCT250 24/16 A2972 RMK CU1CI1 SLP065

CYYG;2012-07-18 22:00;CYYG 182200Z 16009KT 15SM FEW035 SCT250 22/17 A2972 RMK CU1CI1 SLP065

CYYG;2012-07-18 23:00;CYYG 182300Z 18006KT 15SM FEW035 SCT250 21/16 A2973 RMK CU2CI1 SLP068

CYYG;2012-07-19 00:00;CYYG 190000Z 21007KT 15SM FEW035 BKN260 20/15 A2975 RMK CU2CI3 SLP074

CYYG;2012-07-19 01:00;CYYG 190100Z 20007KT 15SM FEW035 BKN250 19/15 A2977 RMK SC2CI2 SLP080

CYYG;2012-07-19 02:00;CYYG 190200Z 23016KT 15SM FEW035 SCT260 19/17 A2977 RMK SC2CI2 SLP079

CYYG;2012-07-19 03:00;CYYG 190300Z 24011KT 15SM FEW035 SCT260 20/17 A2977 RMK SC2CI2 SLP082

CYYG;2012-07-19 04:00;CYYG 190400Z 23005KT 15SM FEW035 SCT260 19/17 A2978 RMK SC2CI2 SLP083

CYYG;2012-07-19 05:00;CYYG 190500Z 23007KT 15SM FEW035 FEW260 18/17 A2978 RMK SC1CI2 SLP084

CYYG;2012-07-19 06:00;CYYG 190600Z 27005KT 15SM FEW030 FEW260 17/16 A2975 RMK SC1CI1 SLP076

CYYG;2012-07-19 07:00;CYYG 190700Z 23006KT 15SM FEW074 17/16 A2976 RMK AC2 SLP078

CYYG;2012-07-19 08:00;CYYG 190800Z 27005KT 15SM FEW075 16/16 A2977 RMK AC2 SLP081

CYYG;2012-07-19 09:00;CYYG 190900Z 30005KT 15SM BKN066 16/14 A2978 RMK AC5 SLP083

CYYG;2012-07-19 10:00;CYYG 191000Z 32006KT 15SM BKN080 16/14 A2979 RMK AC6 SLP086

CYYG;2012-07-19 11:00;CYYG 191100Z 32007KT 15SM BKN066 BKN085 17/14 A2981 RMK CU5AC2 SLP095

CYYG;2012-07-19 12:00;CYYG 191200Z 34008KT 15SM FEW065 SCT085 BKN250 18/14 A2981 RMK CU2AC2CI1 SLP093

CYYG;2012-07-19 13:00;CYYG 191300Z 30011KT 15SM SCT062 BKN250 19/13 A2980 RMK CU3CI1 SLP092

CYYG;2012-07-19 14:00;CYYG 191400Z 32010G15KT 15SM FEW060 FEW075 BKN250 21/12 A2981 RMK CU1AC2CI1 SLP093

CYYG;2012-07-19 15:00;CYYG 191500Z 29006KT 15SM FEW035 FEW060 SCT250 21/13 A2979 RMK CU2SC1CI1 SLP089

CYYG;2012-07-19 16:00;CYYG 191600Z 28007KT 15SM FEW040 SCT250 21/12 A2978 RMK CU2CI1 SLP083

CYYG;2012-07-19 17:00;CYYG 191700Z 30010G16KT 15SM FEW045 SCT250 23/11 A2977 RMK CU2CI1 SLP079

CYYG;2012-07-19 18:00;CYYG 191800Z 31011KT 15SM SCT048 BKN250 22/11 A2976 RMK CU4CI2 SLP077

CYYG;2012-07-19 19:00;CYYG 191900Z 33005KT 15SM SCT050 BKN250 21/13 A2975 RMK CU3CI2 SLP075

CYYG;2012-07-19 20:00;CYYG 192000Z 35007KT 15SM FEW060 BKN250 20/12 A2977 RMK CU2CI2 SLP079

CYYG;2012-07-19 21:00;CYYG 192100Z 31003KT 15SM FEW056 BKN250 21/11 A2975 RMK CU2CI1 SLP075

CYYG;2012-07-19 22:00;CYYG 192200Z 34003KT 15SM FEW060 BKN250 20/11 A2976 RMK SC2CI1 SLP076

CYYG;2012-07-19 22:52;CYYG 192252Z 33009KT 15SM TS VCSH BKN050CB BKN250 19/ RMK CB5CI1 LTGCGIC SW-NM CB W MVG E

CYYG;2012-07-19 22:56;CYYG 192256Z 33009KT 15SM -TSRA BKN050CB BKN250 19/ RMK CB5CI1 LTGCGIC SW-NW CB W MVG E

CYYG;2012-07-19 23:00;CYYG 192300Z 33007KT 15SM -TSRA BKN053CB BKN250 18/12 A2978 RMK CB6CI1 LTGICCG SW-W VIS SW-W 2 SLP083

CYYG;2012-07-19 23:44;CYYG 192344Z 33002KT 15SM VCSH FEW030 BKN053CB BKN080 16/ RETSRA RMK SC2CB3AC2 LTGCG DIST E

CYYG;2012-07-20 00:00;CYYG 200000Z 24002KT 15SM VCSH FEW030 SCT053CB BKN090 16/13 A2979 RETSRA RMK SC2CB2AC2 OCNL LTGCG DIST E-S-SW SLP090

CYYG;2012-07-20 01:00;CYYG 200100Z 28005KT 15SM FEW045CB SCT090 15/13 A2980 RMK CB2AC2 OCNL LTGIC N MVG E SLP093

CYYG;2012-07-20 01:07;CYYG 200107Z 33007G16KT 15SM FEW028 SCT042CB SCT090 14/ RMK SC2CB2AC1 OCNL LTG DIST NE

CYYG;2012-07-20 02:00;CYYG 200200Z 25004KT 15SM FEW030 SCT060 SCT200 13/11 A2981 RMK SC2SC2CC1 SLP095

CYYG;2012-07-20 03:00;CYYG 200300Z 28007KT 15SM FEW030 14/11 A2981 RMK SC2 SLP094

CYYG;2012-07-20 04:00;CYYG 200400Z 28008KT 15SM FEW030 14/12 A2981 RMK SC2 SLP095

CYYG;2012-07-20 05:00;CYYG 200500Z 28007KT 15SM FEW030 14/11 A2982 RMK SC2 SLP097

CYYG;2012-07-20 06:00;CYYG 200600Z 27007KT 15SM FEW022 BKN039 14/12 A2982 RMK SC1SC4 SLP098

CYYG;2012-07-20 06:49;CYYG 200649Z 28009KT 12SM -SHRA SCT015 BKN044 14/ RMK SC3SC4

CYYG;2012-07-20 07:15;CYYG 200715Z 28008KT 12SM -SHRA BKN009 BKN033 14/ RMK SF5SC2

CYYG;2012-07-20 07:40;CYYG 200740Z 32010G19KT 8SM -SHRA FEW009 BKN014 OVC030 14/ RMK SF2SC3SC2

CYYG;2012-07-20 08:00;CYYG 200800Z 33012G19KT 10SM FEW009 SCT014 BKN032 14/13 A2985 RMK SF2SC2SC4 SLP108

CYYG;2012-07-20 08:48;CYYG 200848Z 33011G16KT 10SM -SHRA FEW012 BKN022 BKN030 14/ RMK SF2SC3SC2

CYYG;2012-07-20 09:00;CYYG 200900Z 33010G17KT 12SM -SHRA FEW012 BKN027 14/11 A2988 RMK SF2SC4 SLP118

CYYG;2012-07-20 09:40;CYYG 200940Z 33010G17KT 12SM BKN022 BKN250 14/ RMK SC5CI0

CYYG;2012-07-20 10:00;CYYG 201000Z 34010G19KT 15SM FEW015 BKN028 14/10 A2991 RMK SC2SC4 CU ASOCTD SLP128

CYYG;2012-07-20 10:37;CYYG 201037Z 34012G22KT 15SM -SHRA BKN028 15/ RMK SC6 CU ASOCTD

CYYG;2012-07-20 11:00;CYYG 201100Z 32012G17KT 15SM -SHRA BKN026 15/12 A2993 RMK SC6 CU ASOCTD SLP137

CYYG;2012-07-20 11:23;CYYG 201123Z 34012KT 15SM SCT024 BKN045 15/ RMK CU3SC2

CYYG;2012-07-20 12:00;CYYG 201200Z 32012G20KT 15SM SCT022 BKN048 16/11 A2995 RMK CU3SC3 SLP143

CYYG;2012-07-20 13:00;CYYG 201300Z 32015KT 15SM VCSH SCT021 BKN052 15/11 A2997 RMK CU3SC3 SLP148

CYYG;2012-07-20 13:24;CYYG 201324Z 34013G20KT 15SM -SHRA SCT022 BKN044 16/ RMK CU4SC3

CYYG;2012-07-20 13:46;CYYG 201346Z 34013G21KT 15SM VCSH SCT024 BKN048 17/ RMK CU3SC3

CYYG;2012-07-20 14:00;CYYG 201400Z 33009G20KT 15SM VCSH SCT024 BKN050 17/11 A2998 RMK CU3SC3 SLP154

CYYG;2012-07-20 15:00;CYYG 201500Z 35012KT 15SM VCSH SCT028 BKN058 18/11 A3000 RMK CU3SC3 SLP159

CYYG;2012-07-20 16:00;CYYG 201600Z 34012G18KT 15SM SCT030 BKN060 18/11 A3001 RMK CU3SC2 SLP164

CYYG;2012-07-20 17:00;CYYG 201700Z 34011G17KT 15SM SCT030 BKN060 18/10 A3002 RMK CU4SC1 SLP167

CYYG;2012-07-20 18:00;CYYG 201800Z 34008KT 15SM FEW030 SCT060 18/10 A3003 RMK CU2SC1 SLP170

CYYG;2012-07-20 19:00;CYYG 201900Z 31007KT 15SM FEW032 FEW060 18/10 A3004 RMK CU2SC1 SLP172

CYYG;2012-07-20 20:00;CYYG 202000Z 36011KT 15SM FEW032 FEW060 18/10 A3004 RMK CU2SC1 SLP173

CYYG;2012-07-20 21:00;CYYG 202100Z 33005KT 15SM FEW034 FEW060 18/10 A3005 RMK CF1SC1 SLP175

CYYG;2012-07-20 22:00;CYYG 202200Z 36008KT 15SM FEW030 FEW060 17/11 A3005 RMK SC1SC1 SLP177

CYYG;2012-07-20 23:00;CYYG 202300Z 35006KT 15SM FEW030 16/10 A3006 RMK CF1 TCU DIST SE SLP178

CYYG;2012-07-21 00:00;CYYG 210000Z 35003KT 15SM FEW100 FEW250 14/11 A3006 RMK AC1CI1 SLP181

CYYG;2012-07-21 01:00;CYYG 210100Z 00000KT 15SM FEW100 11/10 A3008 RMK AC1 SLP185

CYYG;2012-07-21 02:00;CYYG 210200Z 00000KT 15SM FEW100 10/09 A3009 RMK AC1 SLP188

CYYG;2012-07-21 03:00;CYYG 210300Z 23002KT 15SM SKC 10/09 A3009 RMK SLP191

CYYG;2012-07-21 04:00;CYYG 210400Z 27002KT 15SM SKC 09/08 A3009 RMK SLP191

CYYG;2012-07-21 05:00;CYYG 210500Z 00000KT 15SM SKC 08/08 A3009 RMK SLP191

CYYG;2012-07-21 06:00;CYYG 210600Z 26002KT 15SM SKC 08/08 A3008 RMK SLP188

CYYG;2012-07-21 07:00;CYYG 210700Z 00000KT 15SM SKC 07/07 A3008 RMK SLP187

CYYG;2012-07-21 08:00;CYYG 210800Z 00000KT 15SM PRFG SKC 07/07 A3009 RMK FG1 VIS N-NE 1/2 SLP189

CYYG;2012-07-21 09:00;CYYG 210900Z 27002KT 15SM VCFG FEW050 FEW300 06/06 A3009 RMK SC1CI1 FOG OVR RIVER NE-E SLP189

CYYG;2012-07-21 10:00;CYYG 211000Z 12002KT 15SM R03/2600FT/N BCFG FEW050 FEW300 11/11 A3009 RMK FG1SC1CI1 VIS NE-SE 1/2 SLP192

CYYG;2012-07-21 11:00;CYYG 211100Z 15003KT 15SM VCFG FEW020 FEW080 15/13 A3011 RMK SC1AC1 FG OVR RVR NE-S SLP198

CYYG;2012-07-21 12:00;CYYG 211200Z 20003KT 15SM FEW018 FEW080 17/13 A3011 RMK CF1AC1 SLP196

CYYG;2012-07-21 13:00;CYYG 211300Z 19003KT 15SM FEW022 FEW080 19/10 A3011 RMK CF1AC1 SLP195

CYYG;2012-07-21 14:00;CYYG 211400Z 18006KT 15SM FEW024 19/13 A3010 RMK CU2 SLP193

CYYG;2012-07-21 15:00;CYYG 211500Z 15007KT 15SM FEW032 20/13 A3009 RMK CU2 SLP191

CYYG;2012-07-21 16:00;CYYG 211600Z 18006KT 15SM FEW034 21/12 A3009 RMK CU2 SLP190

CYYG;2012-07-21 17:00;CYYG 211700Z 18008KT 15SM FEW040 22/11 A3009 RMK CU2 SLP188

CYYG;2012-07-21 18:00;CYYG 211800Z 21006KT 15SM FEW044 22/11 A3008 RMK CU2 SLP185

CYYG;2012-07-21 19:00;CYYG 211900Z 19006KT 15SM FEW044 22/11 A3006 RMK CU2 SLP179

CYYG;2012-07-21 20:00;CYYG 212000Z 20007KT 15SM FEW050 23/11 A3006 RMK CU2 SLP178

CYYG;2012-07-21 21:00;CYYG 212100Z 18007KT 15SM FEW050 23/10 A3005 RMK SC1 CU ASOCTD SLP175

CYYG;2012-07-21 22:00;CYYG 212200Z 16005KT 15SM FEW048 22/10 A3004 RMK CF1 TCU TOPS DIST S SLP172

CYYG;2012-07-21 23:00;CYYG 212300Z 19008KT 15SM FEW050 21/09 A3004 RMK SC1 TCU TOPS DIST S SLP173

CYYG;2012-07-22 00:00;CYYG 220000Z 18007KT 15SM FEW050 17/12 A3005 RMK SC1 SLP176

CYYG;2012-07-22 01:00;CYYG 220100Z 14005KT 15SM FEW050 17/13 A3006 RMK SC1 SLP180

CYYG;2012-07-22 02:00;CYYG 220200Z 13003KT 15SM FEW050 14/11 A3006 RMK SC1 SLP181

CYYG;2012-07-22 03:00;CYYG 220300Z 14003KT 15SM FEW010 15/12 A3006 RMK ST1 SLP181

CYYG;2012-07-22 04:00;CYYG 220400Z 17004KT 15SM FEW030 16/12 A3006 RMK SC1 SLP178

CYYG;2012-07-22 05:00;CYYG 220500Z 20005KT 15SM FEW030 16/14 A3006 RMK SC1 SLP178

CYYG;2012-07-22 06:00;CYYG 220600Z 23006KT 15SM FEW030 15/13 A3006 RMK SC1 SLP178

CYYG;2012-07-22 07:00;CYYG 220700Z 22006KT 15SM FEW250 15/13 A3005 RMK CI2 SLP175

CYYG;2012-07-22 08:00;CYYG 220800Z 22005KT 15SM FEW090 FEW250 14/12 A3005 RMK AC1CI2 SLP175

CYYG;2012-07-22 09:00;CYYG 220900Z 20007KT 15SM FEW180 FEW250 15/13 A3005 RMK AC1CI1 VIRGA W SLP176

CYYG;2012-07-22 10:00;CYYG 221000Z 20006KT 15SM FEW180 SCT250 16/14 A3006 RMK AC1CI2 SLP179

CYYG;2012-07-22 11:00;CYYG 221100Z 21008KT 15SM FEW070 FEW140 BKN260 18/14 A3007 RMK AC1AC1CI1 SLP183

CYYG;2012-07-22 12:00;CYYG 221200Z 23005KT 15SM FEW070 FEW140 BKN260 20/14 A3007 RMK AC1AC2CI1 SLP184

CYYG;2012-07-22 13:00;CYYG 221300Z 19006KT 15SM FEW060 SCT120 BKN240 22/16 A3007 RMK SC1AC2CI2 SLP184

CYYG;2012-07-22 14:00;CYYG 221400Z 20006KT 15SM FEW060 SCT120 BKN230 22/16 A3007 RMK SC1AC2CI2 SLP184

CYYG;2012-07-22 15:00;CYYG 221500Z 19006KT 15SM FEW060 SCT120 BKN200 22/16 A3007 RMK SC1AC2CI2 CC ASOCTD SLP183

CYYG;2012-07-22 16:00;CYYG 221600Z 19009KT 15SM FEW030 SCT140 BKN200 23/15 A3006 RMK CU1AC2CI2 CC ASOCTD SLP179

CYYG;2012-07-22 17:00;CYYG 221700Z 23010G15KT 15SM FEW036 FEW140 SCT200 25/14 A3006 RMK CU1AC1CI2 SLP178

CYYG;2012-07-22 18:00;CYYG 221800Z 21011G16KT 15SM FEW040 FEW140 SCT200 26/14 A3004 RMK CU1AC1CI1 SLP173

CYYG;2012-07-22 19:00;CYYG 221900Z 22012KT 15SM FEW044 FEW200 27/12 A3003 RMK CU1CI1 SLP169

CYYG;2012-07-22 20:00;CYYG 222000Z 23010G15KT 15SM FEW045 FEW140 27/12 A3002 RMK CU1AC1 SLP167

CYYG;2012-07-22 21:00;CYYG 222100Z 18011KT 15SM FEW040 FEW130 26/15 A3002 RMK CU1AC1 SLP166

CYYG;2012-07-22 22:00;CYYG 222200Z 18008KT 15SM FEW040 SCT080 24/15 A3002 RMK SC1AC2 SLP166

CYYG;2012-07-22 23:00;CYYG 222300Z 24010KT 15SM FEW040 FEW075 SCT250 23/14 A3002 RMK CU1AC1CI1 SLP167

CYYG;2012-07-23 00:00;CYYG 230000Z 22007KT 15SM FEW080 SCT250 21/14 A3003 RMK AC1CI1 SLP168

CYYG;2012-07-23 01:00;CYYG 230100Z 21008KT 15SM FEW080 SCT250 20/14 A3004 RMK AC1CI1 SLP172

CYYG;2012-07-23 02:00;CYYG 230200Z 22010G18KT 15SM FEW110 SCT250 20/13 A3004 RMK AC2CI1 SLP171

CYYG;2012-07-23 03:00;CYYG 230300Z 22012KT 15SM FEW110 SCT250 19/11 A3003 RMK AC1CI1 SLP170

CYYG;2012-07-23 04:00;CYYG 230400Z 22011G17KT 15SM FEW090 BKN250 19/11 A3003 RMK AC2CI1 SLP168

CYYG;2012-07-23 05:00;CYYG 230500Z 23010G19KT 15SM SCT080 BKN250 19/11 A3002 RMK AC3CI1 SLP165

CYYG;2012-07-23 06:00;CYYG 230600Z 22012KT 15SM BKN082 BKN250 19/12 A3001 RMK AC5CI1 SLP163

CYYG;2012-07-23 07:00;CYYG 230700Z 22012KT 15SM BKN083 BKN120 BKN250 18/13 A3000 RMK AC5AC1CI1 SLP160

CYYG;2012-07-23 08:00;CYYG 230800Z 22013KT 15SM FEW083 BKN110 18/14 A2999 RMK AC2AC4 SLP157

CYYG;2012-07-23 09:00;CYYG 230900Z 23011KT 15SM FEW083 SCT130 BKN250 18/14 A3000 RMK AC1AC2CI1 SLP159

CYYG;2012-07-23 10:00;CYYG 231000Z 22011KT 15SM FEW070 SCT120 BKN250 18/15 A3001 RMK AC1AC2CI1 SLP161

CYYG;2012-07-23 11:00;CYYG 231100Z 23012G18KT 15SM FEW070 SCT120 BKN250 19/15 A3000 RMK AC1AC2CI1 SLP160

CYYG;2012-07-23 12:00;CYYG 231200Z 22014G19KT 15SM FEW070 FEW120 BKN280 20/15 A3000 RMK AC1AC2CI1 SLP160

CYYG;2012-07-23 13:00;CYYG 231300Z 22012KT 15SM FEW070 SCT120 BKN280 22/16 A2998 RMK AC1AC2CI1 SLP154

CYYG;2012-07-23 14:00;CYYG 231400Z 23014G20KT 15SM FEW070 SCT120 23/16 A2998 RMK AC2AC2 SLP152

CYYG;2012-07-23 15:00;CYYG 231500Z 22014G21KT 15SM FEW120 SCT280 24/16 A2997 RMK AC2CI1 SLP149

CYYG;2012-07-23 16:00;CYYG 231600Z 21016G22KT 15SM FEW120 SCT280 26/17 A2995 RMK AC1CI2 SLP141

CYYG;2012-07-23 17:00;CYYG 231700Z 22014G21KT 15SM FEW160 SCT280 27/18 A2994 RMK AC1CI1 SLP139

CYYG;2012-07-23 18:00;CYYG 231800Z 24016G21KT 15SM FEW160 SCT280 27/17 A2993 RMK AC1CI1 SLP134

CYYG;2012-07-23 19:00;CYYG 231900Z 23018G27KT 15SM FEW160 SCT280 27/17 A2991 RMK AC1CI1 SLP128

CYYG;2012-07-23 20:00;CYYG 232000Z 22015G22KT 15SM BKN280 27/17 A2989 RMK CI2 SLP121

CYYG;2012-07-23 21:00;CYYG 232100Z 23013G20KT 15SM BKN280 27/15 A2989 RMK CI4 SLP121

CYYG;2012-07-23 22:00;CYYG 232200Z 24012G21KT 15SM FEW150 BKN280 25/15 A2989 RMK AC2CI3 SLP122

CYYG;2012-07-23 23:00;CYYG 232300Z 25007KT 15SM FEW150 BKN280 23/13 A2989 RMK AC1CI4 SLP121

CYYG;2012-07-24 00:00;CYYG 240000Z 24008KT 15SM BKN250 22/13 A2990 RMK CI5 SLP124

CYYG;2012-07-24 01:00;CYYG 240100Z 22010KT 15SM BKN250 21/13 A2990 RMK CI5 SLP125

CYYG;2012-07-24 02:00;CYYG 240200Z 22009KT 15SM BKN250 21/13 A2989 RMK CI3 SLP121

CYYG;2012-07-24 03:00;CYYG 240300Z 19010KT 15SM BKN250 19/13 A2987 RMK CI3 SLP113

CYYG;2012-07-24 04:00;CYYG 240400Z 20007KT 15SM SCT250 18/14 A2985 RMK CI2 SLP109

CYYG;2012-07-24 05:00;CYYG 240500Z 19010G15KT 15SM SCT250 18/14 A2984 RMK CI2 SLP104

CYYG;2012-07-24 06:00;CYYG 240600Z 18009KT 15SM FEW250 17/13 A2983 RMK CI2 SLP101

CYYG;2012-07-24 07:00;CYYG 240700Z 20014G20KT 15SM SKC 18/15 A2982 RMK SLP096

CYYG;2012-07-24 08:00;CYYG 240800Z 18016G25KT 15SM FEW014 SCT250 17/14 A2980 RMK SC1CI1 SLP091

CYYG;2012-07-24 09:00;CYYG 240900Z 18016G22KT 15SM FEW015 BKN250 17/15 A2977 RMK SC1CI2 SLP081

CYYG;2012-07-24 10:00;CYYG 241000Z 18018G25KT 15SM FEW015 BKN250 18/15 A2975 RMK SC1CI2 SLP074

CYYG;2012-07-24 11:00;CYYG 241100Z 17021G28KT 15SM FEW020 BKN270 19/16 A2973 RMK CF1CI3 SLP066

CYYG;2012-07-24 12:00;CYYG 241200Z 17019G27KT 15SM FEW020 BKN270 20/16 A2970 RMK CF2CI2 SLP058

CYYG;2012-07-24 13:00;CYYG 241300Z 17019G27KT 15SM SCT020 BKN270 21/16 A2968 RMK SC3CI3 SLP050

CYYG;2012-07-24 14:00;CYYG 241400Z 17018G28KT 15SM SCT028 BKN270 24/17 A2965 RMK SC3CI3 SLP039

CYYG;2012-07-24 15:00;CYYG 241500Z 17017G25KT 15SM BKN031 OVC270 22/16 A2963 RMK SC6CI2 SLP032

CYYG;2012-07-24 15:36;CYYG 241536Z 17018G25KT 10SM -SHRA OVC038 21/ RMK SC8

CYYG;2012-07-24 16:00;CYYG 241600Z 18019KT 10SM -SHRA OVC031 20/18 A2960 RMK SC8 SLP024

CYYG;2012-07-24 17:00;CYYG 241700Z 18018G24KT 10SM -SHRA OVC028 20/18 A2959 RMK SC8 SLP019

CYYG;2012-07-24 18:00;CYYG 241800Z 18016G23KT 12SM -SHRA OVC028 20/19 A2958 RMK SC8 SLP016

CYYG;2012-07-24 19:00;CYYG 241900Z 18017G25KT 10SM -SHRA FEW004 OVC018 19/19 A2956 RMK SF2SC6 SLP011

CYYG;2012-07-24 19:14;CYYG 241914Z 17018G24KT 10SM -SHRA BKN004 OVC011 19/ RMK SF5SC3

CYYG;2012-07-24 20:00;CYYG 242000Z 17016KT 10SM -SHRA BKN004 OVC010 19/19 A2955 RMK SF6SC2 SLP006

CYYG;2012-07-24 20:38;CYYG 242038Z 17012G22KT 15SM -SHRA SCT005 OVC024 19/ RMK SF4SC4

CYYG;2012-07-24 21:00;CYYG 242100Z 17013G18KT 15SM -SHRA SCT005 OVC027 19/19 A2954 RMK SF3SC5 SLP003

CYYG;2012-07-24 21:21;CYYG 242121Z 16013KT 15SM SCT005 OVC025 19/ RMK SF3SC5

CYYG;2012-07-24 22:00;CYYG 242200Z 17014G20KT 15SM SCT005 OVC016 19/19 A2952 RMK SF4SC4 SLP998

CYYG;2012-07-24 22:03;CYYG 242203Z 17016KT 15SM -SHRA SCT005 OVC014 19/ RMK SF4SC4

CYYG;2012-07-24 23:00;CYYG 242300Z 17012KT 15SM -SHRA SCT007 OVC012 19/19 A2952 RMK SF3SC5 SLP996

CYYG;2012-07-25 00:00;CYYG 250000Z 18011KT 15SM -SHRA FEW007 OVC011 19/19 A2952 RMK SF1SC7 SLP995

CYYG;2012-07-25 01:00;CYYG 250100Z 18010KT 12SM -SHRA FEW005 OVC010 19/19 A2950 RMK SF2SC6 SLP991

CYYG;2012-07-25 02:00;CYYG 250200Z 18007KT 10SM -SHRA BKN004 OVC008 19/19 A2950 RMK SF5SF3 SLP988

CYYG;2012-07-25 03:00;CYYG 250300Z 20007KT 8SM -SHRA BKN004 OVC042 19/19 A2948 RMK SF7SC1 SLP983

CYYG;2012-07-25 03:40;CYYG 250340Z 23006KT 6SM SHRA BR SCT004 OVC040 19/ RMK SF3SC5 LTG SW CIG RAG

CYYG;2012-07-25 04:00;CYYG 250400Z 23004KT 6SM SHRA BR BKN004 OVC040 19/19 A2946 RMK SF6SC2 SLP977

CYYG;2012-07-25 05:00;CYYG 250500Z 22005KT 4SM -SHRA BR OVC003 19/19 A2946 RMK SF8 SLP975

CYYG;2012-07-25 06:00;CYYG 250600Z 29004KT 2SM BR OVC003 19/19 A2945 RMK SF8 SLP972

CYYG;2012-07-25 07:00;CYYG 250700Z 32006KT 10SM BKN003 BKN007 OVC012 19/19 A2945 RMK SF5SF2SC2 SLP972

CYYG;2012-07-25 08:00;CYYG 250800Z 34005KT 10SM OVC003 18/18 A2945 RMK SF8 SLP972

CYYG;2012-07-25 09:00;CYYG 250900Z 34008KT 15SM OVC004 18/18 A2946 RMK SF8 SLP976

CYYG;2012-07-25 09:38;CYYG 250938Z 36007KT 15SM BKN007 OVC038 17/ RMK SF6SC2

CYYG;2012-07-25 09:45;CYYG 250945Z 36010KT 15SM SCT007 OVC038 17/ RMK SF3SC5

CYYG;2012-07-25 10:00;CYYG 251000Z 36008KT 15SM FEW007 BKN038 OVC220 17/17 A2948 RMK SF2SC3CI3 SLP984

CYYG;2012-07-25 11:00;CYYG 251100Z 34007KT 15SM FEW007 SCT040 BKN080 OVC220 17/17 A2951 RMK SF1SC2AC2CI3 SLP992

CYYG;2012-07-25 12:00;CYYG 251200Z 32010KT 15SM FEW010 SCT040 BKN090 OVC220 18/17 A2952 RMK SF1SC2AC2CI3 OBS TAKEN +07 SLP997

CYYG;2012-07-25 13:00;CYYG 251300Z 33010KT 15SM FEW010 BKN080 BKN220 18/16 A2952 RMK SC2AC3CI2 SLP998

CYYG;2012-07-25 14:00;CYYG 251400Z 34010KT 15SM FEW020 SCT080 BKN220 19/15 A2955 RMK CU1AC2CI3 SLP005

CYYG;2012-07-25 15:00;CYYG 251500Z 32013KT 15SM FEW018 FEW080 BKN250 20/15 A2955 RMK CU1AC2CI2 SLP006

CYYG;2012-07-25 16:00;CYYG 251600Z 33012G21KT 15SM FEW020 BKN250 20/15 A2956 RMK CU2CI3 SLP011

CYYG;2012-07-25 17:00;CYYG 251700Z 35012KT 15SM FEW018 BKN250 20/15 A2958 RMK CU2CI2 SLP017

CYYG;2012-07-25 18:00;CYYG 251800Z 34010KT 15SM FEW018 BKN250 20/15 A2960 RMK CU2CI2 SLP024

CYYG;2012-07-25 19:00;CYYG 251900Z 35011G18KT 15SM FEW022 BKN250 20/14 A2962 RMK CU2CI0 SLP029

CYYG;2012-07-25 20:00;CYYG 252000Z 35013G20KT 15SM FEW022 BKN250 20/13 A2963 RMK CU1CI1 SLP035

CYYG;2012-07-25 21:00;CYYG 252100Z 34010G16KT 15SM FEW030 BKN250 20/13 A2963 RMK CU1CI1 SLP035

CYYG;2012-07-25 22:00;CYYG 252200Z 35008KT 15SM FEW030 SCT250 20/14 A2962 RMK SC1CI2 SLP031

CYYG;2012-07-25 23:00;CYYG 252300Z 34005KT 15SM FEW030 SCT250 18/14 A2964 RMK SC1CI2 CU TOPS DIST S SLP037

CYYG;2012-07-26 00:00;CYYG 260000Z 34004KT 15SM FEW030 FEW260 16/14 A2965 RMK SC1CI2 SLP041

CYYG;2012-07-26 01:00;CYYG 260100Z 34004KT 15SM FEW260 15/14 A2965 RMK CI2 SLP040

CYYG;2012-07-26 02:00;CYYG 260200Z 34005KT 15SM FEW260 14/13 A2965 RMK CI1 SLP039

CYYG;2012-07-26 03:00;CYYG 260300Z 32004KT 15SM SKC 13/13 A2965 RMK SLP039

CYYG;2012-07-26 04:00;CYYG 260400Z 31003KT 15SM SKC 13/13 A2965 RMK SLP040

CYYG;2012-07-26 05:00;CYYG 260500Z 31005KT 15SM SKC 12/12 A2964 RMK SLP037

CYYG;2012-07-26 06:00;CYYG 260600Z 29004KT 15SM SKC 13/12 A2964 RMK SLP037

CYYG;2012-07-26 07:00;CYYG 260700Z 27004KT 15SM SKC 13/11 A2963 RMK SLP034

CYYG;2012-07-26 08:00;CYYG 260800Z 28004KT 15SM FEW120 13/10 A2963 RMK AC1 SLP032

CYYG;2012-07-26 09:00;CYYG 260900Z 29002KT 15SM MIFG FEW120 10/10 A2962 RMK AC1 SLP031

CYYG;2012-07-26 10:00;CYYG 261000Z 27005KT 15SM FEW120 FEW260 14/14 A2962 RMK AC1CI1 SLP032

CYYG;2012-07-26 11:00;CYYG 261100Z 28005KT 15SM FEW120 FEW260 17/14 A2963 RMK AC1CI1 SLP035

CYYG;2012-07-26 12:00;CYYG 261200Z 28008KT 15SM BKN220 20/12 A2964 RMK CC5 SLP036

CYYG;2012-07-26 13:00;CYYG 261300Z 27008KT 15SM BKN210 20/12 A2963 RMK CC5 SLP033

CYYG;2012-07-26 14:00;CYYG 261400Z 27008KT 15SM BKN210 23/13 A2962 RMK CC5 SLP031

CYYG;2012-07-26 15:00;CYYG 261500Z 30008G15KT 15SM SCT210 24/14 A2962 RMK CC2 SLP030

CYYG;2012-07-26 16:00;CYYG 261600Z 27010G17KT 15SM FEW050 FEW210 25/13 A2962 RMK CU1CC2 SLP031

CYYG;2012-07-26 17:00;CYYG 261700Z 29008KT 15SM FEW050 FEW210 25/13 A2962 RMK CU1CC2 SLP031

CYYG;2012-07-26 18:00;CYYG 261800Z 25010KT 15SM FEW050 FEW250 26/13 A2963 RMK CU1CI1 SLP033

CYYG;2012-07-26 19:00;CYYG 261900Z 26012G20KT 15SM FEW050 FEW250 26/12 A2964 RMK CU1CI1 SLP036

CYYG;2012-07-26 20:00;CYYG 262000Z 27012G17KT 15SM FEW050 FEW250 26/12 A2964 RMK CU1CI1 SLP036

CYYG;2012-07-26 21:00;CYYG 262100Z 23013G19KT 15SM FEW050 FEW250 25/14 A2964 RMK CU1CI1 OBS TAKEN +06 SLP037

CYYG;2012-07-26 22:00;CYYG 262200Z 25011G16KT 15SM FEW050 FEW250 24/13 A2965 RMK CU1CI1 SLP039

CYYG;2012-07-26 23:00;CYYG 262300Z 24007KT 15SM FEW050 FEW250 23/13 A2966 RMK SC1CI1 SLP042

CYYG;2012-07-27 00:00;CYYG 270000Z 24005KT 15SM FEW120 FEW250 21/13 A2966 RMK AC1CI1 SLP044

CYYG;2012-07-27 01:00;CYYG 270100Z 23005KT 15SM FEW120 19/13 A2968 RMK AC1 SLP049

CYYG;2012-07-27 02:00;CYYG 270200Z 24007KT 15SM FEW120 19/12 A2969 RMK AC1 SLP055

CYYG;2012-07-27 03:00;CYYG 270300Z 24007KT 15SM FEW250 18/12 A2969 RMK CI1 SLP055

CYYG;2012-07-27 04:00;CYYG 270400Z 23007KT 15SM SKC 18/12 A2970 RMK SLP056

CYYG;2012-07-27 05:00;CYYG 270500Z 22007KT 15SM FEW260 17/12 A2970 RMK CI1 SLP056

CYYG;2012-07-27 06:00;CYYG 270600Z 22006KT 15SM FEW250 17/13 A2970 RMK CI1 SLP056

CYYG;2012-07-27 07:00;CYYG 270700Z 20006KT 15SM FEW110 SCT250 16/13 A2970 RMK AC1CI1 SLP058

CYYG;2012-07-27 08:00;CYYG 270800Z 19007KT 15SM BKN110 BKN250 17/14 A2971 RMK AC5CI0 SLP062

CYYG;2012-07-27 09:00;CYYG 270900Z 18006KT 15SM FEW110 BKN130 17/14 A2972 RMK AC2AC5 SLP063

CYYG;2012-07-27 10:00;CYYG 271000Z 17005KT 15SM FEW110 BKN130 18/15 A2973 RMK AC2AC6 SLP066

CYYG;2012-07-27 11:00;CYYG 271100Z 18005KT 15SM FEW110 BKN130 19/16 A2974 RMK AC2AC5 SLP069

CYYG;2012-07-27 12:00;CYYG 271200Z 19011KT 15SM SCT110 BKN130 19/15 A2974 RMK AC3AC4 SLP072

CYYG;2012-07-27 13:00;CYYG 271300Z 19007KT 15SM SCT087 BKN110 20/16 A2975 RMK AC4AC3 SLP074

CYYG;2012-07-27 14:00;CYYG 271400Z 17010KT 15SM FEW085 BKN120 BKN250 22/17 A2974 RMK AC2AC2CI2 SLP071

CYYG;2012-07-27 15:00;CYYG 271500Z 16008KT 15SM FEW020 FEW090 BKN240 22/17 A2974 RMK CU1AC2CI3 SLP070

CYYG;2012-07-27 16:00;CYYG 271600Z 18006KT 15SM FEW018 SCT090 BKN240 22/17 A2974 RMK CU2AC2CI1 SLP072

CYYG;2012-07-27 17:00;CYYG 271700Z 17004KT 15SM BKN020 BKN100 BKN220 24/17 A2974 RMK CU6AC1CC1 SLP071

CYYG;2012-07-27 18:00;CYYG 271800Z 26006KT 15SM SCT025 SCT100 BKN240 23/17 A2974 RMK CU3AC1CC2 SLP070

CYYG;2012-07-27 19:00;CYYG 271900Z 16004KT 15SM SCT027 SCT050 BKN240 23/18 A2975 RMK CU3SC1CC2 SLP074

CYYG;2012-07-27 20:00;CYYG 272000Z 14006KT 15SM BKN027 BKN120 23/18 A2976 RMK CU5AC2 SLP077

CYYG;2012-07-27 21:00;CYYG 272100Z 04007KT 15SM FEW030 BKN110 23/16 A2977 RMK CU2AC5 SLP080

CYYG;2012-07-27 22:00;CYYG 272200Z 18005KT 15SM FEW030 BKN110 22/18 A2979 RMK CU1AC5 SLP088

CYYG;2012-07-27 23:00;CYYG 272300Z 20006KT 15SM FEW030 BKN110 21/18 A2982 RMK CU1AC5 SLP097

CYYG;2012-07-28 00:00;CYYG 280000Z 19004KT 15SM SCT110 BKN240 19/18 A2984 RMK AC4CC2 SLP105

CYYG;2012-07-28 01:00;CYYG 280100Z 19005KT 15SM BKN100 BKN240 19/17 A2987 RMK AC6CC1 SLP114

CYYG;2012-07-28 02:00;CYYG 280200Z 20004KT 15SM FEW100 SCT240 18/17 A2987 RMK AC2CC2 SLP116

CYYG;2012-07-28 03:00;CYYG 280300Z 23003KT 15SM FEW100 FEW240 17/17 A2988 RMK AC2CC1 SLP119

CYYG;2012-07-28 04:00;CYYG 280400Z 23002KT 15SM FEW100 FEW240 17/16 A2989 RMK AC1CC1 SLP122

CYYG;2012-07-28 05:00;CYYG 280500Z 21002KT 15SM FEW100 FEW240 17/16 A2990 RMK AC1CC1 SLP126

CYYG;2012-07-28 06:00;CYYG 280600Z 28003KT 15SM FEW100 FEW240 15/15 A2991 RMK AC1CC1 SLP130

CYYG;2012-07-28 07:00;CYYG 280700Z 29003KT 15SM FEW110 FEW240 16/16 A2993 RMK AC1CC1 SLP134

CYYG;2012-07-28 07:44;CYYG 280744Z 30005KT 1 1/2SM BR BKN110 17/ RMK FG6AC1

CYYG;2012-07-28 07:51;CYYG 280751Z 30003KT 1/2SM R03/3500VP6000FT/D FG VV001 17/ RMK FG8

CYYG;2012-07-28 08:00;CYYG 280800Z 30002KT 1/2SM R03/3000VP6000FT/D FG VV001 17/17 A2994 RMK FG8 SLP138

CYYG;2012-07-28 09:00;CYYG 280900Z 00000KT 1/2SM R03/1800FT/N FG VV001 17/17 A2995 RMK FG8 SLP143

CYYG;2012-07-28 09:20;CYYG 280920Z 32003KT 1SM R03/2800FT/N BR BKN110 17/ RMK FG5AC2

CYYG;2012-07-28 09:28;CYYG 280928Z 34002KT 3SM R03/3000VP6000FT/U BR BKN006 OVC110 17/ RMK SF5AC3

CYYG;2012-07-28 10:00;CYYG 281000Z 33002KT 8SM BKN007 OVC110 18/18 A2997 RMK SF6AC2 SLP150

CYYG;2012-07-28 11:00;CYYG 281100Z 35003KT 8SM SCT007 BKN110 19/18 A2999 RMK SF3AC3 SLP156

CYYG;2012-07-28 11:16;CYYG 281116Z 03004KT 10SM BKN007 BKN110 19/ RMK SF5AC2

CYYG;2012-07-28 11:35;CYYG 281135Z 32004KT 12SM FEW007 BKN110 19/ RMK SF2AC4

CYYG;2012-07-28 12:00;CYYG 281200Z 32003KT 15SM FEW007 BKN110 19/18 A3001 RMK SF1AC6 SLP163

CYYG;2012-07-28 13:00;CYYG 281300Z 04007KT 15SM FEW010 BKN110 BKN350 22/14 A3002 RMK CF1AC4CI1 SLP166

CYYG;2012-07-28 14:00;CYYG 281400Z 02012KT 15SM FEW110 BKN350 23/13 A3002 RMK AC2CI3 SLP167

CYYG;2012-07-28 15:00;CYYG 281500Z 04007KT 15SM FEW110 BKN350 24/14 A3003 RMK AC2CI2 SLP168

CYYG;2012-07-28 16:00;CYYG 281600Z 04007KT 15SM FEW030 BKN110 BKN350 24/14 A3003 RMK CU1AC4CI1 SLP169

CYYG;2012-07-28 17:00;CYYG 281700Z 36007KT 15SM FEW030 BKN080 BKN300 24/14 A3003 RMK CU1ACC4CI1 AC FLOCCUS SLP170

CYYG;2012-07-28 18:00;CYYG 281800Z 36008KT 15SM FEW030 SCT070 BKN300 22/16 A3004 RMK CU1ACC2CI2 SLP172

CYYG;2012-07-28 19:00;CYYG 281900Z 35009KT 15SM FEW030 FEW070 BKN280 23/14 A3003 RMK CU1ACC1CS5 SLP170

CYYG;2012-07-28 20:00;CYYG 282000Z 01007KT 15SM FEW030 FEW220 BKN280 23/13 A3003 RMK CU1CC1CS3 SLP169

CYYG;2012-07-28 21:00;CYYG 282100Z 36006KT 15SM FEW090 FEW220 BKN280 23/13 A3004 RMK ACC1CC2CI1 SLP172

CYYG;2012-07-28 22:00;CYYG 282200Z 35004KT 15SM SCT220 BKN280 21/13 A3004 RMK CC3CI2 SLP174

CYYG;2012-07-28 23:00;CYYG 282300Z 01006KT 15SM SCT220 BKN280 19/15 A3005 RMK CC3CI2 SLP176

CYYG;2012-07-29 00:00;CYYG 290000Z 36005KT 15SM SCT220 BKN280 17/16 A3006 RMK CC3CI2 SLP178

CYYG;2012-07-29 01:00;CYYG 290100Z 03004KT 15SM FEW220 SCT280 15/15 A3006 RMK CC2CI2 SLP178

CYYG;2012-07-29 02:00;CYYG 290200Z 01003KT 15SM FEW030 SCT280 15/15 A3006 RMK SC1CC2 SLP179

CYYG;2012-07-29 03:00;CYYG 290300Z 09003KT 15SM FEW030 SCT280 15/15 A3006 RMK SC2CC2 SLP179

CYYG;2012-07-29 04:00;CYYG 290400Z 02003KT 15SM FEW030 FEW280 13/13 A3006 RMK SC1CC2 SLP178

CYYG;2012-07-29 05:00;CYYG 290500Z 36003KT 15SM MIFG FEW030 FEW230 12/12 A3006 RMK SC1CC2 SLP178

CYYG;2012-07-29 06:00;CYYG 290600Z 00000KT 15SM SCT230 12/12 A3005 RMK CC4 SLP177

CYYG;2012-07-29 07:00;CYYG 290700Z 01004KT 15SM MIFG BKN230 12/12 A3004 RMK CC6 SLP173

CYYG;2012-07-29 08:00;CYYG 290800Z 01005KT 15SM BKN230 13/13 A3004 RMK CC6 SLP172

CYYG;2012-07-29 09:00;CYYG 290900Z 02004KT 10SM MIFG FEW110 BKN220 13/13 A3004 RMK AC2CC3 SLP173

CYYG;2012-07-29 09:12;CYYG 290912Z 01003KT 3/4SM R03/P6000FT/N BR SKC 13/ RMK FG7

CYYG;2012-07-29 09:38;CYYG 290938Z 03005KT 1/2SM R03/2600VP6000FT/D FG SKC 16/ RMK FG7

CYYG;2012-07-29 10:00;CYYG 291000Z 03004KT 3/4SM R03/P6000FT/U BR BKN110 16/16 A3005 RMK FG6AC2 SLP175

CYYG;2012-07-29 10:49;CYYG 291049Z 00000KT 3SM BR SCT110 BKN200 17/ RMK FG1AC2CI3

CYYG;2012-07-29 11:00;CYYG 291100Z 05005KT 15SM FEW110 BKN190 17/17 A3007 RMK FG1AC2AC4 SLP182

CYYG;2012-07-29 12:00;CYYG 291200Z 10005KT 15SM SCT005 BKN180 18/18 A3009 RMK SF3AC3 SLP188

CYYG;2012-07-29 13:00;CYYG 291300Z 06005KT 15SM FEW005 BKN180 19/17 A3008 RMK SF1AC5 SLP186

CYYG;2012-07-29 14:00;CYYG 291400Z 08006KT 15SM BKN200 21/15 A3007 RMK CI6 SLP183

CYYG;2012-07-29 15:00;CYYG 291500Z 02007KT 15SM BKN200 23/16 A3007 RMK CI5 SLP183

CYYG;2012-07-29 16:00;CYYG 291600Z 30006KT 15SM FEW020 BKN200 23/12 A3006 RMK SC1CI5 SLP180

CYYG;2012-07-29 17:00;CYYG 291700Z 05009KT 15SM FEW025 BKN200 23/13 A3006 RMK SC1CI4 SLP180

CYYG;2012-07-29 18:00;CYYG 291800Z 03009KT 15SM FEW025 BKN220 23/13 A3005 RMK SC1CI6 SLP176

CYYG;2012-07-29 19:00;CYYG 291900Z 01007KT 15SM FEW025 BKN200 23/15 A3004 RMK SC1CI6 SLP172

CYYG;2012-07-29 20:00;CYYG 292000Z 03010KT 15SM FEW025 BKN200 22/13 A3003 RMK SC1CI6 SLP170

CYYG;2012-07-29 21:00;CYYG 292100Z 02010KT 15SM BKN220 21/14 A3003 RMK CS6 SLP169

CYYG;2012-07-29 22:00;CYYG 292200Z 04007KT 15SM BKN220 20/14 A3004 RMK CS6 SLP172

CYYG;2012-07-29 23:00;CYYG 292300Z 36003KT 15SM OVC210 19/15 A3004 RMK CS8 SLP173

CYYG;2012-07-30 00:00;CYYG 300000Z 01002KT 15SM OVC190 18/15 A3005 RMK AS8 SLP176

CYYG;2012-07-30 01:00;CYYG 300100Z 35002KT 15SM OVC150 17/15 A3006 RMK AS8 SLP178

CYYG;2012-07-30 02:00;CYYG 300200Z 00000KT 15SM OVC140 17/15 A3006 RMK AS8 SLP179

CYYG;2012-07-30 03:00;CYYG 300300Z 00000KT 15SM OVC130 16/15 A3005 RMK AS8 SLP176

CYYG;2012-07-30 04:00;CYYG 300400Z 14002KT 15SM OVC120 16/15 A3004 RMK AS8 SLP174

CYYG;2012-07-30 04:17;CYYG 300417Z 00000KT 15SM FEW010 OVC120 16/ RMK SF2AS6

CYYG;2012-07-30 05:00;CYYG 300500Z 00000KT 15SM FEW010 OVC110 16/15 A3003 RMK SF2AC6 SLP169

CYYG;2012-07-30 06:00;CYYG 300600Z 03002KT 15SM FEW010 OVC110 16/15 A3003 RMK SF2AC6 SLP169

CYYG;2012-07-30 07:00;CYYG 300700Z 32006KT 15SM OVC100 16/15 A3003 RMK AC8 SLP169

CYYG;2012-07-30 08:00;CYYG 300800Z 32003KT 15SM OVC100 16/16 A3003 RMK AC8 SLP169

CYYG;2012-07-30 09:00;CYYG 300900Z 00000KT 15SM FEW020 OVC100 16/15 A3004 RMK CU1AC7 SLP171

CYYG;2012-07-30 10:00;CYYG 301000Z 30004KT 15SM FEW030 BKN110 17/14 A3004 RMK SC1AC6 SLP173

CYYG;2012-07-30 11:00;CYYG 301100Z 32006KT 15SM FEW020 BKN120 19/15 A3005 RMK SC1AC6 SLP176

CYYG;2012-07-30 12:00;CYYG 301200Z 02004KT 15SM FEW015 SCT120 20/17 A3006 RMK SC1AC3 SLP178

CYYG;2012-07-30 13:00;CYYG 301300Z 35006KT 15SM FEW035 SCT130 BKN250 21/15 A3006 RMK CU2AC2CI1 SLP180

CYYG;2012-07-30 14:00;CYYG 301400Z 30004KT 15SM FEW035 SCT190 BKN250 22/16 A3005 RMK CU2AC2CI1 SLP177

CYYG;2012-07-30 15:00;CYYG 301500Z 08003KT 15SM FEW034 FEW190 BKN280 21/15 A3005 RMK CU2AC1CI1 SLP177

CYYG;2012-07-30 16:00;CYYG 301600Z 31005KT 15SM FEW034 FEW190 BKN280 24/15 A3004 RMK CU2AC1CI1 SLP173

CYYG;2012-07-30 17:00;CYYG 301700Z 29003KT 15SM FEW040 SCT280 23/12 A3004 RMK CU2CI1 SLP171

CYYG;2012-07-30 18:00;CYYG 301800Z 01008KT 15SM FEW045 SCT280 25/13 A3004 RMK CU1CI1 SLP171

CYYG;2012-07-30 19:00;CYYG 301900Z 06004KT 15SM FEW045 SCT280 24/13 A3003 RMK CU1CI1 SLP169

CYYG;2012-07-30 20:00;CYYG 302000Z 03009KT 15SM FEW045 FEW280 25/11 A3003 RMK CU1CI1 SLP170

CYYG;2012-07-30 21:00;CYYG 302100Z 01007KT 15SM FEW045 FEW280 24/10 A3002 RMK CU1CI1 SLP167

CYYG;2012-07-30 22:00;CYYG 302200Z 06005KT 15SM FEW280 23/11 A3003 RMK CI1 SLP169

CYYG;2012-07-30 23:00;CYYG 302300Z 03003KT 15SM SKC 21/12 A3004 RMK SLP171

CYYG;2012-07-31 00:00;CYYG 310000Z 00000KT 15SM SKC 17/10 A3004 RMK SLP173

CYYG;2012-07-31 01:00;CYYG 310100Z 00000KT 15SM SKC 15/11 A3006 RMK SLP179

CYYG;2012-07-31 02:00;CYYG 310200Z 11003KT 15SM SKC 14/12 A3007 RMK SLP182

CYYG;2012-07-31 03:00;CYYG 310300Z 17004KT 15SM SKC 18/16 A3007 RMK SLP182

CYYG;2012-07-31 04:00;CYYG 310400Z 18005KT 15SM SKC 17/16 A3007 RMK SLP183

CYYG;2012-07-31 05:00;CYYG 310500Z 19004KT 15SM SKC 17/16 A3007 RMK SLP182

CYYG;2012-07-31 06:00;CYYG 310600Z 20006KT 15SM SKC 18/16 A3006 RMK SLP181

CYYG;2012-07-31 07:00;CYYG 310700Z 19005KT 15SM MIFG SKC 17/16 A3006 RMK SLP181

CYYG;2012-07-31 08:00;CYYG 310800Z 18005KT 15SM MIFG SKC 16/16 A3007 RMK SLP182

CYYG;2012-07-31 09:00;CYYG 310900Z 18006KT 15SM MIFG FEW100 16/15 A3008 RMK AC1 SLP185

CYYG;2012-07-31 10:00;CYYG 311000Z 18006KT 15SM FEW100 18/17 A3008 RMK AC1 OBS TAKEN +09 SLP186

CYYG;2012-07-31 11:00;CYYG 311100Z 19008KT 15SM FEW030 20/17 A3008 RMK SC1 SLP185

CYYG;2012-07-31 12:00;CYYG 311200Z 20008KT 15SM FEW030 21/18 A3008 RMK SC1 SLP186

CYYG;2012-07-31 13:00;CYYG 311300Z 22008KT 15SM FEW030 23/17 A3008 RMK SC1 SLP186

CYYG;2012-07-31 14:00;CYYG 311400Z 23007KT 15SM FEW030 25/18 A3007 RMK SC1 SLP184

CYYG;2012-07-31 15:00;CYYG 311500Z 19007KT 15SM FEW030 25/18 A3007 RMK SC1 SLP182

CYYG;2012-07-31 16:00;CYYG 311600Z 23007KT 15SM FEW035 27/19 A3006 RMK SC1 SLP179

CYYG;2012-07-31 17:00;CYYG 311700Z 25005KT 15SM FEW035 28/19 A3005 RMK CU1 SLP176

CYYG;2012-07-31 18:00;CYYG 311800Z 23012KT 15SM FEW045TCU 29/17 A3004 RMK TCU1 SLP174

CYYG;2012-07-31 19:00;CYYG 311900Z 25011G16KT 15SM FEW045TCU 29/18 A3004 RMK TCU1 SLP172

CYYG;2012-07-31 20:00;CYYG 312000Z 23010G16KT 15SM FEW045 29/19 A3003 RMK CU1 SLP169

CYYG;2012-07-31 21:00;CYYG 312100Z 23013KT 15SM FEW045 FEW300 28/18 A3003 RMK CU1CI1 SLP168

CYYG;2012-07-31 22:00;CYYG 312200Z 25008KT 15SM FEW045 FEW300 26/19 A3003 RMK CU1CI1 SLP169

CYYG;2012-07-31 23:00;CYYG 312300Z 23010KT 15SM FEW300 24/17 A3003 RMK CI1 SLP170

CYYG;2012-08-01 00:00;CYYG 010000Z 24010G16KT 15SM FEW300 23/14 A3004 RMK CI1 SLP174

CYYG;2012-08-01 01:00;CYYG 010100Z 22010G19KT 15SM FEW300 21/13 A3006 RMK CI1 SLP179

CYYG;2012-08-01 02:00;CYYG 010200Z 24009KT 15SM SCT300 20/12 A3006 RMK CI1 SLP181

CYYG;2012-08-01 03:00;CYYG 010300Z 23009KT 15SM BKN280 20/12 A3007 RMK CI3 SLP182

CYYG;2012-08-01 04:00;CYYG 010400Z 22008KT 15SM BKN280 19/12 A3007 RMK CI2 SLP182

CYYG;2012-08-01 05:00;CYYG 010500Z 23006KT 15SM BKN280 19/12 A3006 RMK CI2 SLP180

CYYG;2012-08-01 06:00;CYYG 010600Z 22007KT 15SM BKN280 19/12 A3005 RMK CI2 SLP177

CYYG;2012-08-01 07:00;CYYG 010700Z 21006KT 15SM BKN280 18/13 A3004 RMK CI2 SLP174

CYYG;2012-08-01 08:00;CYYG 010800Z 20005KT 15SM BKN280 17/13 A3003 RMK CI2 SLP170

CYYG;2012-08-01 09:00;CYYG 010900Z 16004KT 15SM SCT280 17/14 A3003 RMK CI2 SLP169

CYYG;2012-08-01 10:00;CYYG 011000Z 17004KT 15SM FEW140 BKN280 18/15 A3003 RMK AC1CI2 SLP168

CYYG;2012-08-01 11:00;CYYG 011100Z 15009KT 15SM BKN160 BKN280 20/16 A3002 RMK AC5CI2 SLP166

CYYG;2012-08-01 12:00;CYYG 011200Z 17010KT 15SM BKN130 OVC280 19/16 A3002 RMK AC6CI2 SLP165

CYYG;2012-08-01 13:00;CYYG 011300Z 17009KT 15SM BKN120 OVC280 20/16 A3002 RMK AC6CI2 SLP165

CYYG;2012-08-01 14:00;CYYG 011400Z 16010KT 15SM -SHRA BKN045 OVC120 20/16 A3001 RMK SC5AC3 SLP162

CYYG;2012-08-01 15:00;CYYG 011500Z 14011KT 15SM -SHRA SCT045 OVC088 20/14 A2999 RMK SC4AC4 SLP157

CYYG;2012-08-01 16:00;CYYG 011600Z 16016KT 10SM -SHRA BKN045 OVC080 18/15 A2998 RMK SC6AC2 SLP154

CYYG;2012-08-01 17:00;CYYG 011700Z 11013KT 15SM -SHRA BKN037 OVC080 17/15 A2993 RMK SC5AC3 OBS TAKEN +07 SLP135

CYYG;2012-08-01 18:00;CYYG 011800Z 11013KT 15SM -SHRA BKN030 OVC080 20/15 A2989 RMK SC6AC2 SLP123

CYYG;2012-08-01 18:16;CYYG 011816Z 12015G21KT 15SM BKN025 OVC080 19/ RMK SC6AC2

CYYG;2012-08-01 19:00;CYYG 011900Z 12015G23KT 15SM BKN023 OVC080 19/16 A2987 RMK SC7AC1 SLP114

CYYG;2012-08-01 20:00;CYYG 012000Z 11017G24KT 15SM BKN018 OVC070 19/15 A2984 RMK SC7AC1 SLP104

CYYG;2012-08-01 21:00;CYYG 012100Z 11013G20KT 15SM OVC014 19/16 A2981 RMK SC8 SLP094

CYYG;2012-08-01 21:38;CYYG 012138Z 11011G19KT 8SM -SHRA OVC011 19/ RMK SC8

CYYG;2012-08-01 22:00;CYYG 012200Z 11013KT 4SM -SHRA BR OVC007 18/17 A2979 RMK SF8 SLP089

CYYG;2012-08-01 22:44;CYYG 012244Z 11011KT 2 1/2SM -SHRA BR OVC004 18/ RMK SF8

CYYG;2012-08-01 23:00;CYYG 012300Z 11008KT 2SM -SHRA BR OVC004 18/18 A2978 RMK SF8 SLP086

CYYG;2012-08-01 23:19;CYYG 012319Z 12007KT 6SM -DZ BR BKN004 OVC010 18/ RMK SF7SC1

CYYG;2012-08-01 23:40;CYYG 012340Z 15006KT 15SM OVC004 19/ RMK SF8

CYYG;2012-08-02 00:00;CYYG 020000Z 15007KT 15SM BKN004 OVC018 19/19 A2979 RMK SF7SC1 SLP087

CYYG;2012-08-02 01:00;CYYG 020100Z 16009KT 15SM BKN004 OVC018 19/19 A2980 RMK SF7SC1 SLP091

CYYG;2012-08-02 01:24;CYYG 020124Z 19010KT 15SM OVC007 19/ RMK SF8

CYYG;2012-08-02 02:00;CYYG 020200Z 23007KT 15SM OVC006 19/19 A2980 RMK SF8 SLP092

CYYG;2012-08-02 02:32;CYYG 020232Z 23006KT 6SM -DZ BR OVC004 19/ RMK SF8

CYYG;2012-08-02 03:00;CYYG 020300Z 26008KT 10SM BKN004 OVC008 19/19 A2981 RMK SF6SF2 MOON VISBL SLP095

CYYG;2012-08-02 03:46;CYYG 020346Z 27007KT 10SM OVC007 19/ RMK SF8

CYYG;2012-08-02 04:00;CYYG 020400Z 27008KT 10SM OVC005 19/19 A2982 RMK SF8 SLP098

CYYG;2012-08-02 04:47;CYYG 020447Z 27009G15KT 15SM SCT005 OVC011 18/ RMK SF3SC5

CYYG;2012-08-02 05:00;CYYG 020500Z 27008KT 15SM FEW006 OVC010 18/18 A2984 RMK SF2SC6 SLP105

CYYG;2012-08-02 06:00;CYYG 020600Z 28009KT 15SM BKN006 OVC010 18/17 A2984 RMK SF6SC2 SLP106

CYYG;2012-08-02 07:00;CYYG 020700Z 25009G16KT 15SM OVC008 18/17 A2987 RMK SF8 SLP114

CYYG;2012-08-02 07:13;CYYG 020713Z 25008KT 5SM -DZ BR OVC007 17/ RMK SF8

CYYG;2012-08-02 08:00;CYYG 020800Z 26006KT 5SM -DZ BR OVC005 17/17 A2987 RMK SF8 SLP116

CYYG;2012-08-02 09:00;CYYG 020900Z 25007KT 5SM -DZ BR OVC005 17/16 A2989 RMK SF8 SLP123

CYYG;2012-08-02 09:31;CYYG 020931Z 24009KT 10SM OVC005 17/ RMK SF8

CYYG;2012-08-02 10:00;CYYG 021000Z 25006KT 15SM OVC005 17/16 A2991 RMK SF8 SLP128

CYYG;2012-08-02 12:00;CYYG 021200Z 24006KT 15SM OVC009 18/16 A2993 RMK SF8 OBS TAKEN +12 SLP135

CYYG;2012-08-02 13:00;CYYG 021300Z 24007KT 15SM BKN010 19/16 A2993 RMK SF7 SLP134

CYYG;2012-08-02 14:00;CYYG 021400Z 21007KT 15SM SCT011 BKN170 20/17 A2992 RMK SC3AC4 SLP132

CYYG;2012-08-02 15:00;CYYG 021500Z 19007KT 15SM FEW011 OVC120 20/17 A2993 RMK SC2AC6 SLP134

CYYG;2012-08-02 16:00;CYYG 021600Z 19007KT 15SM FEW015 OVC130 20/17 A2992 RMK SC1AS7 SLP132

CYYG;2012-08-02 16:51;CYYG 021651Z 18007KT 15SM -RA FEW015 OVC040 19/ RMK SC1NS7

CYYG;2012-08-02 17:00;CYYG 021700Z 18005KT 12SM -RA FEW015 OVC040 19/18 A2992 RMK SC1NS7 SLP132

CYYG;2012-08-02 18:00;CYYG 021800Z 16007KT 10SM -RA FEW015 OVC040 19/18 A2991 RMK SC1NS7 SLP130

CYYG;2012-08-02 19:51;CYYG 021951Z 16011KT 10SM -RA SCT005 OVC045 20/ RMK SF3NS5 SF INVDG FM S

CYYG;2012-08-02 20:00;CYYG 022000Z 16010KT 10SM -RA BKN006 OVC045 20/19 A2990 RMK SF6NS2 SLP126

CYYG;2012-08-02 20:39;CYYG 022039Z 16011KT 10SM SCT006 BKN045 BKN060 20/ RMK SF4SC2SC2

CYYG;2012-08-02 21:00;CYYG 022100Z 16008KT 10SM BKN006 BKN045 BKN140 20/19 A2989 RMK SF5SC2AC1 OBS TAKEN +06 SLP122

CYYG;2012-08-02 21:47;CYYG 022147Z 17010KT 15SM FEW006 SCT045 BKN130 20/ RMK SF2SC2AC2

CYYG;2012-08-02 22:00;CYYG 022200Z 18008KT 15SM FEW007 BKN140 21/19 A2990 RMK SF2AC3 CF ASOCTD SLP124

CYYG;2012-08-02 23:00;CYYG 022300Z 16007KT 15SM FEW010 FEW140 FEW300 19/18 A2989 RMK SF1AC1CI0 SLP122

CYYG;2012-08-02 23:39;CYYG 022339Z 16008KT 12SM FEW007 FEW140 18/ RMK SF1AC1

CYYG;2012-08-03 00:00;CYYG 030000Z 16009KT 12SM FEW007 FEW140 18/18 A2988 RMK SF1AC1 SLP120

CYYG;2012-08-03 01:00;CYYG 030100Z 18008KT 15SM FEW140 17/17 A2990 RMK AC1 SLP124

CYYG;2012-08-03 02:00;CYYG 030200Z 20006KT 15SM SKC 17/17 A2991 RMK SLP128

CYYG;2012-08-03 03:00;CYYG 030300Z 16006KT 15SM SKC 16/16 A2990 RMK SLP126

CYYG;2012-08-03 04:00;CYYG 030400Z 18004KT 15SM FEW010 16/16 A2989 RMK SC1 SLP122

CYYG;2012-08-03 05:00;CYYG 030500Z 20005KT 15SM SKC 17/17 A2988 RMK SLP120

CYYG;2012-08-03 06:00;CYYG 030600Z 20003KT 15SM SKC 17/17 A2988 RMK SLP119

CYYG;2012-08-03 07:00;CYYG 030700Z 21005KT 12SM FEW032 18/18 A2988 RMK SC2 SLP119

CYYG;2012-08-03 07:24;CYYG 030724Z 21007KT 10SM BKN005 BKN032 18/ RMK SF5SC2

CYYG;2012-08-03 08:00;CYYG 030800Z 19005KT 10SM BKN005 18/18 A2989 RMK SF6 SLP123

CYYG;2012-08-03 09:00;CYYG 030900Z 21006KT 10SM BKN006 18/18 A2990 RMK SF5 SLP126

CYYG;2012-08-03 09:53;CYYG 030953Z 20007KT 12SM OVC005 19/ RMK SF8

CYYG;2012-08-03 10:00;CYYG 031000Z 19009KT 12SM OVC005 19/18 A2992 RMK SF8 SLP131

CYYG;2012-08-03 11:00;CYYG 031100Z 22009G17KT 12SM OVC005 19/18 A2993 RMK SF8 SLP137

CYYG;2012-08-03 12:00;CYYG 031200Z 22008KT 12SM OVC006 19/19 A2994 RMK SF8 SLP139

CYYG;2012-08-03 13:00;CYYG 031300Z 22013KT 12SM OVC006 20/18 A2994 RMK SF8 SLP138

CYYG;2012-08-03 14:00;CYYG 031400Z 22011G17KT 15SM BKN008 21/19 A2994 RMK SF7 SLP138

CYYG;2012-08-03 14:35;CYYG 031435Z 22013KT 15SM BKN012 BKN250 23/ RMK SF5CI2

CYYG;2012-08-03 15:00;CYYG 031500Z 21013G19KT 15SM SCT012 BKN250 23/19 A2993 RMK CF3CI2 SLP136

CYYG;2012-08-03 16:00;CYYG 031600Z 20012G19KT 15SM FEW020 BKN250 25/20 A2993 RMK CF2CI3 SLP136

CYYG;2012-08-03 17:00;CYYG 031700Z 22011G16KT 15SM FEW020 BKN250 26/21 A2993 RMK CU1CI5 SLP135

CYYG;2012-08-03 18:00;CYYG 031800Z 21014G20KT 15SM FEW025 BKN250 27/21 A2992 RMK CU1CI6 OBS TAKEN +08 SLP132

CYYG;2012-08-03 19:00;CYYG 031900Z 23011G17KT 15SM FEW028 BKN250 27/21 A2993 RMK CU1CI6 SLP134

CYYG;2012-08-03 20:00;CYYG 032000Z 22013G19KT 15SM FEW028 FEW240 BKN300 27/21 A2992 RMK CU1CC2CS3 SLP132

CYYG;2012-08-03 21:00;CYYG 032100Z 24013G18KT 15SM FEW030 FEW240 BKN300 28/21 A2992 RMK CU1CC2CS3 HAZY SLP130

CYYG;2012-08-03 22:00;CYYG 032200Z 24006KT 15SM FEW240 BKN300 27/22 A2993 RMK CC2CS3 HAZY SLP133

CYYG;2012-08-03 23:00;CYYG 032300Z 23007KT 15SM FEW070 FEW190 BKN300 25/21 A2993 RMK ACC1AC1CI2 ACC SE-S SLP135

CYYG;2012-08-04 00:00;CYYG 040000Z 23007KT 15SM FEW170 BKN300 24/21 A2995 RMK AC2CI2 SLP143

CYYG;2012-08-04 01:00;CYYG 040100Z 22008KT 15SM FEW150 BKN300 23/21 A2996 RMK AC2CI2 OCNL DIST LTGIC N SLP146

CYYG;2012-08-04 02:00;CYYG 040200Z 20010KT 15SM FEW150 BKN300 23/19 A2997 RMK AC2CI2 OCNL DIST LTGIC NW-N SLP148

CYYG;2012-08-04 03:00;CYYG 040300Z 23010KT 15SM SCT130 SCT200 BKN300 21/19 A3000 RMK AC3CI1CI0 SLP158

CYYG;2012-08-04 04:00;CYYG 040400Z 22009KT 15SM FEW042 FEW130 SCT300 21/18 A2999 RMK SC1AC1CI1 SLP155

CYYG;2012-08-04 05:00;CYYG 040500Z 24010KT 15SM FEW130 FEW300 20/18 A2999 RMK AC1CI1 SLP156

CYYG;2012-08-04 06:00;CYYG 040600Z 25008KT 15SM FEW300 19/18 A3000 RMK CI1 SLP159

CYYG;2012-08-04 07:00;CYYG 040700Z 26008KT 15SM FEW300 19/18 A3003 RMK CI1 SLP167

CYYG;2012-08-04 08:00;CYYG 040800Z 27005KT 15SM SKC 19/18 A3005 RMK SLP174

CYYG;2012-08-04 09:00;CYYG 040900Z 28005KT 15SM FEW300 19/18 A3008 RMK CI1 SLP185

CYYG;2012-08-04 10:00;CYYG 041000Z 30006KT 15SM FEW300 20/18 A3010 RMK CI1 SLP193

CYYG;2012-08-04 11:00;CYYG 041100Z 33007KT 15SM FEW300 21/18 A3011 RMK CI2 OBS TAKEN +08 SLP197

CYYG;2012-08-04 12:00;CYYG 041200Z 33006KT 15SM FEW300 23/18 A3013 RMK CI2 SLP202

CYYG;2012-08-04 13:00;CYYG 041300Z 33008KT 15SM FEW300 24/18 A3015 RMK CI2 SLP210

CYYG;2012-08-04 14:00;CYYG 041400Z 02009KT 15SM FEW020 FEW300 24/18 A3017 RMK CU1CI2 SLP216

CYYG;2012-08-04 15:00;CYYG 041500Z 29003KT 15SM FEW030 FEW300 25/17 A3018 RMK CU1CI2 SLP220

CYYG;2012-08-04 16:00;CYYG 041600Z 32007KT 15SM FEW032 FEW300 25/18 A3019 RMK CU1CI2 COTRA OBS TAKEN +14 SLP222

CYYG;2012-08-04 17:00;CYYG 041700Z 33005KT 15SM FEW032 FEW300 26/13 A3019 RMK CU1CI2 SLP222

CYYG;2012-08-04 18:00;CYYG 041800Z 36003KT 15SM FEW032 FEW300 26/17 A3019 RMK CU2CI1 SLP222

CYYG;2012-08-04 19:00;CYYG 041900Z 35008KT 15SM FEW036 SCT300 25/18 A3021 RMK CU2CI2 TCU DIST SW SLP229

CYYG;2012-08-04 20:00;CYYG 042000Z 36010KT 15SM FEW042 SCT300 25/17 A3021 RMK CU2CI2 TCU DIST S+SW SLP231

CYYG;2012-08-04 21:00;CYYG 042100Z 36010KT 15SM FEW042 SCT300 24/17 A3022 RMK CU2CI2 TCU DIST S SLP234

CYYG;2012-08-04 22:00;CYYG 042200Z 01010KT 15SM FEW042 SCT300 23/17 A3023 RMK CU1CI3 TCU DIST SE SLP235

CYYG;2012-08-04 23:00;CYYG 042300Z 03010KT 15SM FEW040 FEW300 21/17 A3024 RMK CU1CI1 SLP240

CYYG;2012-08-05 00:00;CYYG 050000Z 04004KT 15SM FEW300 19/17 A3025 RMK CI1 SLP242

CYYG;2012-08-05 01:00;CYYG 050100Z 07002KT 15SM FEW300 17/17 A3026 RMK CI1 SLP248

CYYG;2012-08-05 02:00;CYYG 050200Z 00000KT 15SM FEW300 16/16 A3028 RMK CI1 SLP253

CYYG;2012-08-05 03:00;CYYG 050300Z 00000KT 15SM SKC 15/15 A3028 RMK SLP254

CYYG;2012-08-05 04:00;CYYG 050400Z 05003KT 15SM SKC 14/14 A3028 RMK SLP254

CYYG;2012-08-05 05:00;CYYG 050500Z 03003KT 15SM MIFG SKC 13/13 A3029 RMK SLP256

CYYG;2012-08-05 05:14;CYYG 050514Z 36002KT 1/2SM R03/3500FT/N FG SKC 13/ RMK FG2

CYYG;2012-08-05 05:50;CYYG 050550Z 08002KT 15SM MIFG SKC 13/

CYYG;2012-08-05 06:00;CYYG 050600Z 00000KT 15SM MIFG SKC 13/13 A3028 RMK SLP252

CYYG;2012-08-05 06:24;CYYG 050624Z 12002KT 1/8SM R03/1200V1800FT/N FG SKC 14/ RMK FG3

CYYG;2012-08-05 07:00;CYYG 050700Z 00000KT 1/2SM R03/2200FT/N FG SKC 14/14 A3028 RMK FG3 SLP253

CYYG;2012-08-05 07:23;CYYG 050723Z 00000KT 2SM BR SKC 14/

CYYG;2012-08-05 08:00;CYYG 050800Z 11003KT 2SM BR SKC 14/14 A3028 RMK SLP253

CYYG;2012-08-05 08:03;CYYG 050803Z 12003KT 1/4SM R03/2400FT/N FG VV001 14/ RMK FG8

CYYG;2012-08-05 08:23;CYYG 050823Z 35002KT 1/8SM R03/1100FT/N FG VV001 14/ RMK FG8

CYYG;2012-08-05 09:00;CYYG 050900Z 00000KT 1/8SM R03/0900V1200FT/N FG VV001 14/14 A3028 RMK FG8 SLP254

CYYG;2012-08-05 09:31;CYYG 050931Z 09003KT 1/8SM R03/1000FT/N FG SKC 15/ RMK FG6

CYYG;2012-08-05 10:00;CYYG 051000Z 12003KT 1/8SM R03/0900FT/N FG SKC 16/16 A3028 RMK FG6 SLP252

CYYG;2012-08-05 10:39;CYYG 051039Z 13003KT 1/4SM R03/1100V2000FT/N FG SKC 17/17 RMK FG4

CYYG;2012-08-05 10:44;CYYG 051044Z 12003KT 1SM R03/2600VP6000FT/N BR SKC 17/17 RMK FG2

CYYG;2012-08-05 10:50;CYYG 051050Z 13003KT 10SM FEW300 17/ RMK CI1

CYYG;2012-08-05 11:00;CYYG 051100Z 13003KT 15SM FEW300 18/18 A3027 RMK CI1 SLP249

CYYG;2012-08-05 12:00;CYYG 051200Z 16007KT 15SM FEW005 FEW300 21/19 A3026 RMK SF1CI0 SLP246

CYYG;2012-08-05 13:00;CYYG 051300Z 14009KT 15SM FEW300 23/19 A3025 RMK CI1 SLP243

CYYG;2012-08-05 14:00;CYYG 051400Z 16008KT 15SM FEW300 24/19 A3023 RMK CI1 SLP238

CYYG;2012-08-05 15:00;CYYG 051500Z 18009KT 15SM FEW020 FEW300 25/19 A3021 RMK CF1CI1 SLP231

CYYG;2012-08-05 16:00;CYYG 051600Z 20010KT 15SM FEW025 SCT300 27/20 A3019 RMK CU1CI1 SLP223

CYYG;2012-08-05 17:00;CYYG 051700Z 17013KT 15SM FEW025 SCT300 28/19 A3016 RMK CU1CI1 SLP212

CYYG;2012-08-05 18:00;CYYG 051800Z 16009KT 15SM FEW040 BKN300 28/19 A3014 RMK CU1CI1 SLP207

CYYG;2012-08-05 19:00;CYYG 051900Z 17010G15KT 15SM FEW040 BKN300 29/18 A3012 RMK CU1CI1 SLP199

CYYG;2012-08-05 20:00;CYYG 052000Z 16011KT 15SM FEW040 BKN300 29/17 A3010 RMK CU1CI1 SLP194

CYYG;2012-08-05 21:00;CYYG 052100Z 16012KT 15SM BKN300 29/18 A3008 RMK CI1 SLP186

CYYG;2012-08-05 22:00;CYYG 052200Z 16010KT 15SM BKN300 28/18 A3005 RMK CI1 SLP175

CYYG;2012-08-05 23:00;CYYG 052300Z 18013KT 15SM FEW030 BKN300 26/19 A3003 RMK SC1CI1 SLP168

CYYG;2012-08-06 00:00;CYYG 060000Z 18015G20KT 15SM FEW050 BKN300 24/19 A3003 RMK SC1CI2 CONTRAILS SLP168

CYYG;2012-08-06 01:00;CYYG 060100Z 18015G21KT 15SM FEW044 BKN300 23/19 A3003 RMK SC2CI1 SLP169

CYYG;2012-08-06 02:00;CYYG 060200Z 18014KT 15SM FEW044 BKN300 22/19 A3004 RMK SC1CI2 SLP172

CYYG;2012-08-06 02:54;CYYG 060254Z 17012KT 15SM FEW008 BKN300 20/ RMK SF2CI1

CYYG;2012-08-06 03:00;CYYG 060300Z 18014KT 15SM FEW008 BKN300 21/19 A3002 RMK SF2CI1 SLP165

CYYG;2012-08-06 04:00;CYYG 060400Z 17013G19KT 15SM BKN006 BKN036 BKN300 21/20 A2999 RMK SF5SC1CI1 SLP157

CYYG;2012-08-06 04:17;CYYG 060417Z 18011G18KT 15SM FEW006 FEW036 SCT300 21/ RMK SF1SC1CI0

CYYG;2012-08-06 05:00;CYYG 060500Z 17013KT 15SM BKN007 21/20 A2997 RMK SF6 SLP149

CYYG;2012-08-06 05:53;CYYG 060553Z 17017KT 15SM FEW006 SCT300 21/ RMK SF2CI0

CYYG;2012-08-06 06:00;CYYG 060600Z 17018G23KT 15SM FEW006 SCT300 21/20 A2994 RMK SF2CI0 SLP139

CYYG;2012-08-06 07:00;CYYG 060700Z 18016G24KT 15SM FEW015 BKN032 22/21 A2993 RMK SC2SC5 SLP135

CYYG;2012-08-06 08:00;CYYG 060800Z 18015KT 15SM FEW016 FEW033 BKN300 22/21 A2990 RMK SC1SC2CI0 SLP126

CYYG;2012-08-06 09:00;CYYG 060900Z 18014KT 15SM FEW015 SCT300 21/21 A2988 RMK SC1CI1 SLP119

CYYG;2012-08-06 10:00;CYYG 061000Z 17015G22KT 15SM FEW016 FEW028 BKN300 22/21 A2987 RMK SC1SC1CI0 SLP116

CYYG;2012-08-06 11:00;CYYG 061100Z 18017G23KT 14SM FEW010 FEW017 SCT300 23/21 A2986 RMK CF1SC1CI0 SLP110

CYYG;2012-08-06 12:00;CYYG 061200Z 18017G23KT 15SM FEW024 FEW150 BKN300 24/21 A2985 RMK SC2AC1CI0 SLP107

CYYG;2012-08-06 13:00;CYYG 061300Z 18015G23KT 15SM BKN024 OVC300 24/21 A2984 RMK SC7CI0 SLP104

CYYG;2012-08-06 14:00;CYYG 061400Z 17011KT 15SM OVC019 23/21 A2984 RMK SC8 SHS NW-NE SLP104

CYYG;2012-08-06 14:23;CYYG 061423Z 19010KT 15SM -SHRA OVC019 24/ RMK SC8

CYYG;2012-08-06 15:00;CYYG 061500Z 19013KT 10SM -SHRA OVC017 25/22 A2983 RMK SC8 VIS LWR SW-W SLP100

CYYG;2012-08-06 15:18;CYYG 061518Z 21009G17KT 8SM -SHRA OVC011 23/ RMK SC8

CYYG;2012-08-06 15:32;CYYG 061532Z 22010KT 12SM -SHRA BKN006 OVC014 23/ RMK SF6SC2

CYYG;2012-08-06 16:00;CYYG 061600Z 23006KT 10SM -SHRA OVC005 22/22 A2982 RMK SF8 SLP099

CYYG;2012-08-06 16:35;CYYG 061635Z 21011KT 15SM BKN007 OVC025 23/ RMK SF6SC2

CYYG;2012-08-06 17:00;CYYG 061700Z 21014KT 15SM BKN008 BKN025 24/23 A2981 RMK SC6SC2 SLP094

CYYG;2012-08-06 17:33;CYYG 061733Z 23014KT 15SM BKN017 BKN030 25/ RMK SC6SC2

CYYG;2012-08-06 18:00;CYYG 061800Z 21013KT 15SM BKN012 BKN030 BKN300 25/22 A2982 RMK SC5SC2CI0 SLP096

CYYG;2012-08-06 18:27;CYYG 061827Z 21011KT 15SM FEW014 FEW200 BKN300 26/ RMK SC2CC1CI0

CYYG;2012-08-06 19:00;CYYG 061900Z 21012G17KT 15SM FEW020 FEW200 BKN300 28/22 A2981 RMK CU2CC1CI0 SLP094

CYYG;2012-08-06 20:00;CYYG 062000Z 21016KT 15SM FEW024 FEW200 BKN300 28/21 A2981 RMK CU1CC2CI1 SLP095

CYYG;2012-08-06 21:00;CYYG 062100Z 23011G18KT 15SM FEW025 FEW200 BKN300 27/18 A2982 RMK CU1CC1CI2 SLP096

CYYG;2012-08-06 22:00;CYYG 062200Z 24007KT 15SM FEW050 FEW200 BKN300 25/19 A2983 RMK CU1CC1CI2 SLP101

CYYG;2012-08-06 23:00;CYYG 062300Z 24009KT 15SM FEW060 FEW200 BKN300 25/19 A2984 RMK CU1CC2CI1 SLP105

CYYG;2012-08-07 00:00;CYYG 070000Z 22007KT 15SM FEW060 FEW200 BKN300 23/18 A2985 RMK SC1CC1CI1 SLP109

CYYG;2012-08-07 01:00;CYYG 070100Z 22004KT 15SM FEW056 BKN300 22/18 A2987 RMK SC2CI0 SLP115

CYYG;2012-08-07 02:00;CYYG 070200Z 23006KT 15SM FEW063 BKN300 22/17 A2988 RMK SC2CI0 SLP117

CYYG;2012-08-07 03:00;CYYG 070300Z 22006KT 15SM FEW058 BKN072 BKN300 22/16 A2989 RMK SC2AC3CI0 SLP120

CYYG;2012-08-07 04:00;CYYG 070400Z 23006KT 15SM BKN054 BKN075 BKN300 21/17 A2989 RMK SC5AC1CI0 SLP120

CYYG;2012-08-07 05:00;CYYG 070500Z 27006KT 15SM FEW056 FEW075 FEW300 19/17 A2989 RMK SC1AC1CI1 SLP120

CYYG;2012-08-07 06:00;CYYG 070600Z 31006KT 15SM FEW056 FEW075 19/16 A2988 RMK SC1AC1 SLP117

CYYG;2012-08-07 07:00;CYYG 070700Z 32004KT 15SM FEW300 18/15 A2989 RMK CI0 SLP120

CYYG;2012-08-07 08:00;CYYG 070800Z 00000KT 15SM FEW062 16/15 A2990 RMK SC2 SLP126

CYYG;2012-08-07 09:00;CYYG 070900Z 00000KT 15SM BKN062 15/15 A2992 RMK SC5 SLP131

CYYG;2012-08-07 10:00;CYYG 071000Z 00000KT 15SM FEW063 15/14 A2993 RMK SC2 SLP136

CYYG;2012-08-07 11:00;CYYG 071100Z 31003KT 15SM FEW063 20/17 A2994 RMK SC1 SLP140

CYYG;2012-08-07 12:00;CYYG 071200Z 01006KT 15SM FEW063 22/17 A2995 RMK SC1 SLP140

CYYG;2012-08-07 13:00;CYYG 071300Z 35004KT 15SM FEW065 23/16 A2995 RMK SC1 SLP141

CYYG;2012-08-07 14:00;CYYG 071400Z 04005KT 15SM FEW300 25/15 A2995 RMK CI1 SLP142

CYYG;2012-08-07 15:00;CYYG 071500Z 03005KT 15SM FEW035 FEW250 25/15 A2995 RMK CF1CI1 SLP141

CYYG;2012-08-07 16:00;CYYG 071600Z 05003KT 15SM FEW040 SCT220 26/17 A2994 RMK CF1CI2 SLP137

CYYG;2012-08-07 17:00;CYYG 071700Z 03009KT 15SM FEW040 SCT100 BKN220 25/16 A2993 RMK SC2AC1CI1 SLP135

CYYG;2012-08-07 18:00;CYYG 071800Z 02010KT 15SM FEW045 SCT090 BKN220 25/16 A2993 RMK SC2AC2CI1 SLP134

CYYG;2012-08-07 19:00;CYYG 071900Z 03011KT 15SM FEW045 SCT076 BKN220 25/16 A2992 RMK SC1AC2CI1 SLP131

CYYG;2012-08-07 20:00;CYYG 072000Z 04011KT 15SM FEW040 SCT080 BKN250 25/17 A2992 RMK SC1AC2CI1 SLP130

CYYG;2012-08-07 21:00;CYYG 072100Z 03010KT 15SM FEW040 SCT070 BKN250 23/18 A2991 RMK SC1AC3CI1 SLP130

CYYG;2012-08-07 22:00;CYYG 072200Z 36006KT 15SM FEW040 BKN061 22/18 A2992 RMK SC1SC6 SLP132

CYYG;2012-08-07 23:00;CYYG 072300Z 03009KT 15SM FEW040 BKN065 21/18 A2992 RMK SC1SC5 TCU E SLP132

CYYG;2012-08-08 00:00;CYYG 080000Z 35003KT 15SM FEW040 SCT060 20/18 A2993 RMK SC1SC3 VIS LWR E SLP136

CYYG;2012-08-08 01:00;CYYG 080100Z 33003KT 15SM FEW040 FEW060 18/18 A2993 RMK SC1SC2 SLP137

CYYG;2012-08-08 01:20;CYYG 080120Z 35004KT 15SM MIFG FEW004 FEW040 FEW060 18/ RMK ST1SC1SC1 VIS LWR S-SW

CYYG;2012-08-08 02:00;CYYG 080200Z 35003KT 10SM MIFG VCFG FEW001 18/18 A2993 RMK ST1 SLP136

CYYG;2012-08-08 02:17;CYYG 080217Z 33003KT 2SM BR BCFG SCT000 17/ RMK FG2ST2 VIS NW-NE 1/2 FOG 100 FT THICK

CYYG;2012-08-08 02:27;CYYG 080227Z 33003KT 3/8SM R03/2600VP6000FT/D FG SKC 17/ RMK FG5

CYYG;2012-08-08 02:32;CYYG 080232Z 34003KT 1/4SM R03/2000FT/N FG SKC 17/ RMK FG5

CYYG;2012-08-08 02:42;CYYG 080242Z 33003KT 1/8SM R03/1200FT/N FG SKC 17/ RMK FG5

CYYG;2012-08-08 03:00;CYYG 080300Z 31002KT 1/8SM R03/0900V1200FT/N FG SKC 17/17 A2993 RMK FG5 SLP137

CYYG;2012-08-08 03:13;CYYG 080313Z 00000KT 1/2SM R03/1600FT/N FG SKC 17/ RMK FG5

CYYG;2012-08-08 03:42;CYYG 080342Z 32002KT 5/8SM R03/4000VP6000FT/D BR SKC 17/ RMK FG5

CYYG;2012-08-08 04:00;CYYG 080400Z 00000KT 1/2SM R03/1800V2600FT/N FG SKC 17/17 A2994 RMK FG2 SLP138

CYYG;2012-08-08 04:19;CYYG 080419Z 00000KT 1/4SM R03/0800V1800FT/N FG SKC 17/ RMK FG5

CYYG;2012-08-08 05:00;CYYG 080500Z 00000KT 3/8SM R03/2400FT/N FG SKC 16/16 A2994 RMK FG4 SLP139

CYYG;2012-08-08 06:00;CYYG 080600Z 23005KT 5/8SM R03/3500VP6000FT/D BR SKC 18/18 A2994 RMK FG3 SLP138

CYYG;2012-08-08 07:00;CYYG 080700Z 21004KT 1SM R03/P6000FT/U BR SKC 18/18 A2994 RMK FG2 SLP138

CYYG;2012-08-08 08:00;CYYG 080800Z 21006KT 6SM BR SKC 18/18 A2994 RMK FG2 SLP138

CYYG;2012-08-08 08:24;CYYG 080824Z 22005KT 12SM VCFG FEW005 FEW300 17/ RMK SF1CI2

CYYG;2012-08-08 09:00;CYYG 080900Z 22006KT 12SM FEW005 FEW300 17/17 A2995 RMK SF1CI2 SLP142

CYYG;2012-08-08 10:00;CYYG 081000Z 22007KT 15SM FEW005 FEW300 17/17 A2995 RMK SF1CI2 SLP143

CYYG;2012-08-08 11:00;CYYG 081100Z 23006KT 15SM FEW300 19/17 A2996 RMK CI1 SLP147

CYYG;2012-08-08 12:00;CYYG 081200Z 19006KT 15SM FEW300 21/17 A2996 RMK CI1 SLP147

CYYG;2012-08-08 13:00;CYYG 081300Z 21006KT 15SM FEW300 23/17 A2996 RMK CI1 SLP146

CYYG;2012-08-08 14:00;CYYG 081400Z 23006KT 15SM FEW030 FEW300 25/17 A2996 RMK CF1CI1 SLP145

CYYG;2012-08-08 15:00;CYYG 081500Z 20009KT 15SM FEW035 FEW300 26/16 A2996 RMK CF1CI1 SLP144

CYYG;2012-08-08 16:00;CYYG 081600Z 24008KT 15SM FEW040 27/16 A2995 RMK CU1 SLP141

CYYG;2012-08-08 17:00;CYYG 081700Z 20011G16KT 15SM FEW045 28/15 A2994 RMK CU1 SLP138

CYYG;2012-08-08 18:00;CYYG 081800Z 24009KT 15SM FEW050 28/15 A2994 RMK CU1 SLP137

CYYG;2012-08-08 19:00;CYYG 081900Z 24009KT 15SM FEW050 28/15 A2993 RMK CU1 SLP135

CYYG;2012-08-08 20:00;CYYG 082000Z 23005KT 15SM FEW050 29/14 A2993 RMK CU1 SLP133

CYYG;2012-08-08 21:00;CYYG 082100Z 26008KT 15SM FEW050 FEW300 28/15 A2993 RMK SC1CI1 SLP134

CYYG;2012-08-08 22:00;CYYG 082200Z 19010KT 15SM FEW050 FEW300 27/17 A2994 RMK CU1CI1 SLP137

CYYG;2012-08-08 23:00;CYYG 082300Z 25006KT 15SM FEW050 FEW300 25/18 A2994 RMK SC1CI2 SLP138

CYYG;2012-08-09 00:00;CYYG 090000Z 24005KT 15SM FEW060 FEW300 23/17 A2995 RMK SC1CI2 SLP142

CYYG;2012-08-09 01:00;CYYG 090100Z 19004KT 15SM FEW060 FEW300 22/17 A2996 RMK SC1CI2 SLP144

CYYG;2012-08-09 02:00;CYYG 090200Z 20005KT 15SM FEW060 22/17 A2996 RMK SC2 SLP146

CYYG;2012-08-09 03:00;CYYG 090300Z 21004KT 15SM FEW060 21/18 A2997 RMK SC2 SLP147

CYYG;2012-08-09 04:00;CYYG 090400Z 21006KT 15SM FEW060 21/17 A2996 RMK SC1 SLP145

CYYG;2012-08-09 05:00;CYYG 090500Z 22006KT 15SM FEW100 20/18 A2996 RMK AC2 SLP146

CYYG;2012-08-09 06:00;CYYG 090600Z 22006KT 15SM FEW100 19/18 A2995 RMK AC1 SLP142

CYYG;2012-08-09 07:00;CYYG 090700Z 22006KT 12SM FEW005 BKN300 19/18 A2996 RMK ST1CS1 VIS LWR SW SLP143

CYYG;2012-08-09 08:00;CYYG 090800Z 21004KT 12SM FEW003 BKN300 19/18 A2996 RMK ST1CS2 SLP144

CYYG;2012-08-09 09:00;CYYG 090900Z 22007KT 8SM FEW005 FEW150 SCT300 18/18 A2996 RMK SF1AC1CS2 SLP145

CYYG;2012-08-09 10:00;CYYG 091000Z 24008KT 12SM FEW008 FEW100 SCT300 18/18 A2998 RMK SF1ACC1CI2 SLP151

CYYG;2012-08-09 11:00;CYYG 091100Z 25009KT 15SM FEW010 FEW078 BKN300 20/18 A2999 RMK SF1AC2CI1 SLP156

CYYG;2012-08-09 12:00;CYYG 091200Z 28005KT 15SM FEW065 SCT300 21/18 A2999 RMK SC2CI1 SLP157

CYYG;2012-08-09 13:00;CYYG 091300Z 23004KT 15SM FEW300 23/19 A2998 RMK CI1 SLP154

CYYG;2012-08-09 14:00;CYYG 091400Z 21003KT 15SM FEW300 25/19 A2998 RMK CI1 SLP152

CYYG;2012-08-09 15:00;CYYG 091500Z 20005KT 15SM FEW030 FEW300 27/20 A2998 RMK CU1CI1 SLP151

CYYG;2012-08-09 16:00;CYYG 091600Z 19007KT 15SM FEW035 SCT300 28/18 A2996 RMK CU2CI1 SLP146

CYYG;2012-08-09 17:00;CYYG 091700Z 18005KT 15SM FEW040TCU SCT300 28/18 A2996 RMK TCU2CI1 SLP143

CYYG;2012-08-09 18:00;CYYG 091800Z 08005KT 15SM FEW046TCU SCT300 28/19 A2995 RMK TCU2CI1 SLP142

CYYG;2012-08-09 19:00;CYYG 091900Z 03007KT 15SM FEW044TCU BKN300 28/19 A2995 RMK TCU2CI2 SLP140

CYYG;2012-08-09 20:00;CYYG 092000Z 02009KT 15SM FEW050TCU BKN300 27/20 A2993 RMK TCU2CI2 SLP136

CYYG;2012-08-09 21:00;CYYG 092100Z 02006KT 15SM FEW050TCU SCT140 BKN300 26/19 A2994 RMK TCU1AC2CI1 SLP139

CYYG;2012-08-09 22:00;CYYG 092200Z 01006KT 15SM FEW050TCU SCT140 BKN300 25/18 A2996 RMK TCU1AC3CI1 SLP143

CYYG;2012-08-09 23:00;CYYG 092300Z 03008KT 15SM FEW050 FEW090 BKN130 23/18 A2996 RMK SC1AC2AC4 TCU EMBDD DIST S-W SLP146

CYYG;2012-08-10 00:00;CYYG 100000Z 36004KT 15SM FEW050 BKN110 22/19 A2996 RMK SC2AC5 SLP147

CYYG;2012-08-10 01:00;CYYG 100100Z 12004KT 15SM FEW050 BKN100 22/18 A2997 RMK SC2AC5 SLP150

CYYG;2012-08-10 02:00;CYYG 100200Z 12005KT 15SM FEW050 BKN090 22/19 A2998 RMK SC2AC4 SLP151

CYYG;2012-08-10 03:00;CYYG 100300Z 00000KT 15SM FEW050 BKN100 21/19 A2998 RMK SC2AC4 SLP151

CYYG;2012-08-10 04:00;CYYG 100400Z 00000KT 15SM FEW055 BKN130 21/19 A2998 RMK SC2AC5 SLP152

CYYG;2012-08-10 05:00;CYYG 100500Z 04005KT 15SM FEW070 BKN130 20/19 A2997 RMK AC2AC5 SLP149

CYYG;2012-08-10 06:00;CYYG 100600Z 36008KT 15SM FEW100 BKN140 20/20 A2996 RMK AC2AC5 SLP146

CYYG;2012-08-10 07:00;CYYG 100700Z 00000KT 15SM FEW110 BKN130 20/19 A2997 RMK AC2AC5 SLP148

CYYG;2012-08-10 08:00;CYYG 100800Z 10003KT 15SM FEW050 BKN110 19/19 A2997 RMK SC2AC6 SLP147

CYYG;2012-08-10 09:00;CYYG 100900Z 35002KT 15SM FEW070 SCT090 BKN120 19/19 A2999 RMK ACC1AC2AC3 SLP155

CYYG;2012-08-10 10:00;CYYG 101000Z 00000KT 15SM FEW008 FEW060 SCT100 BKN130 BKN300 20/19 A3000 RMK SF1SC1ACC2AC2CI2 SLP159

CYYG;2012-08-10 11:00;CYYG 101100Z 09002KT 15SM FEW009 SCT060 BKN130 BKN300 22/20 A3002 RMK SF1SC3AC2CI1 SLP166

CYYG;2012-08-10 12:00;CYYG 101200Z 06005KT 15SM FEW009 FEW060 BKN130 BKN300 23/20 A3002 RMK SF1SC2AC2CI2 SLP167

CYYG;2012-08-10 13:00;CYYG 101300Z 08008KT 15SM FEW010 FEW060 BKN130 OVC180 24/19 A3003 RMK CF1SC1AC5AC2 SLP168

CYYG;2012-08-10 14:00;CYYG 101400Z 06006KT 15SM FEW012 FEW060 BKN130 25/19 A3003 RMK CF1SC1AC6 SLP168

CYYG;2012-08-10 15:00;CYYG 101500Z 07008KT 15SM FEW015 FEW060 BKN120 25/18 A3002 RMK CF1SC1AC6 SLP167

CYYG;2012-08-10 16:00;CYYG 101600Z 07008KT 15SM FEW040 BKN160 26/18 A3002 RMK SC2AC6 SLP165

CYYG;2012-08-10 17:00;CYYG 101700Z 10008KT 15SM SCT042 BKN120 BKN160 27/18 A3001 RMK SC3AC2AC2 SLP164

CYYG;2012-08-10 18:00;CYYG 101800Z 09009KT 15SM SCT044 BKN120 BKN160 27/17 A3001 RMK SC3AC2AC2 TCU ASOCTD SLP162

CYYG;2012-08-10 19:00;CYYG 101900Z 09007KT 15SM FEW045 BKN120 BKN260 27/18 A3001 RMK CU2AC4CI2 SLP162

CYYG;2012-08-10 20:00;CYYG 102000Z 07010KT 15SM FEW048TCU BKN120 BKN150 27/18 A3001 RMK TCU2AC3AC2 SLP161

CYYG;2012-08-10 21:00;CYYG 102100Z 04010KT 15SM FEW050TCU BKN110 BKN160 26/19 A3001 RMK TCU1AC4AC2 SLP163

CYYG;2012-08-10 22:00;CYYG 102200Z 04008KT 15SM FEW050TCU BKN110 BKN150 23/18 A3002 RMK TCU2AC4AC2 SLP167

CYYG;2012-08-10 23:00;CYYG 102300Z 06008KT 15SM FEW050TCU FEW110 BKN140 BKN300 22/18 A3004 RMK TCU1AC2AC4CI0 SLP172

CYYG;2012-08-11 00:00;CYYG 110000Z 36003KT 15SM FEW050 FEW150 SCT300 20/18 A3004 RMK SC1AC2CI0 SLP174

CYYG;2012-08-11 01:00;CYYG 110100Z 02005KT 15SM FEW060 FEW130 SCT150 19/18 A3005 RMK SC1AC2AC2 SLP175

CYYG;2012-08-11 02:00;CYYG 110200Z 05004KT 15SM SCT130 BKN300 19/18 A3005 RMK AC3CI1 SLP175

CYYG;2012-08-11 03:00;CYYG 110300Z 10005KT 15SM FEW120 BKN300 20/18 A3003 RMK AC2CI2 SLP170

CYYG;2012-08-11 04:00;CYYG 110400Z 12003KT 15SM FEW120 BKN200 19/18 A3004 RMK AC2CI2 SLP171

CYYG;2012-08-11 05:00;CYYG 110500Z 15004KT 15SM BKN058 20/19 A3003 RMK SC6 SLP168

CYYG;2012-08-11 06:00;CYYG 110600Z 14004KT 15SM FEW056 BKN077 OVC210 20/19 A3002 RMK SC2AC3CI1 SLP166

CYYG;2012-08-11 07:00;CYYG 110700Z 23003KT 15SM FEW072 SCT210 20/20 A3003 RMK AC2CI1 SLP168

CYYG;2012-08-11 08:00;CYYG 110800Z 21005KT 15SM FEW072 OVC180 20/19 A3004 RMK AC2AC3 SLP170

CYYG;2012-08-11 09:00;CYYG 110900Z 21005KT 15SM FEW058 FEW078 BKN160 20/19 A3004 RMK SC1AC2AS5 SLP173

CYYG;2012-08-11 09:48;CYYG 110948Z 22007KT 15SM FEW008 BKN078 BKN160 20/ RMK ST2AC3AC2

CYYG;2012-08-11 10:00;CYYG 111000Z 22007KT 15SM FEW008 SCT078 BKN160 20/19 A3005 RMK ST1AC3AC3 SLP176

CYYG;2012-08-11 11:00;CYYG 111100Z 19005KT 15SM FEW009 BKN069 BKN160 21/19 A3006 RMK SF1AC4AC2 SLP179

CYYG;2012-08-11 12:00;CYYG 111200Z 21008KT 15SM FEW009 FEW070 BKN140 22/19 A3007 RMK SF1AC1AC6 SLP183

CYYG;2012-08-11 13:00;CYYG 111300Z 20006KT 15SM FEW009 FEW025 BKN120 22/20 A3008 RMK SC1SC1AC6 SLP185

CYYG;2012-08-11 13:39;CYYG 111339Z 20009KT 12SM -SHRA BKN010 BKN100 22/ RMK SC5AC2

CYYG;2012-08-11 14:00;CYYG 111400Z 19009KT 15SM -SHRA BKN009 BKN090 22/20 A3009 RMK SC6AC2 SLP190

CYYG;2012-08-11 15:00;CYYG 111500Z 18008KT 15SM -SHRA SCT009 BKN041 BKN090 22/20 A3009 RMK SC3SC2AC2 SLP190

CYYG;2012-08-11 15:23;CYYG 111523Z 21007KT 15SM BKN012 BKN040 OVC083 22/ RMK SC5SC2AC2

CYYG;2012-08-11 16:00;CYYG 111600Z 18010KT 15SM SCT012 BKN042 OVC090 23/20 A3009 RMK SC3SC2AC3 SLP188

CYYG;2012-08-11 17:00;CYYG 111700Z 18012KT 15SM SCT015 BKN060 OVC086 23/17 A3008 RMK SC4SC2AC2 SLP186

CYYG;2012-08-11 18:00;CYYG 111800Z 17015KT 15SM VCSH SCT018 OVC056 22/16 A3008 RMK SC3SC5 -SHRA S-SW SLP187

CYYG;2012-08-11 18:33;CYYG 111833Z 16009KT 8SM -SHRA SCT015 OVC054 21/ RMK SC4SC4 VIS SW 4

CYYG;2012-08-11 19:00;CYYG 111900Z 13009KT 8SM -SHRA FEW016 BKN038 OVC060 19/17 A3009 RMK SC2SC5SC1 SLP188

CYYG;2012-08-11 20:00;CYYG 112000Z 11006KT 10SM -SHRA SCT012 OVC044 19/17 A3007 RMK SC3SC5 SLP184

CYYG;2012-08-11 20:28;CYYG 112028Z 11007KT 8SM FEW012 OVC027 19/ RMK SC2SC6

CYYG;2012-08-11 21:00;CYYG 112100Z 10008KT 8SM VCSH FEW012 OVC021 19/17 A3007 RMK SC2SC6 SLP182

CYYG;2012-08-11 21:32;CYYG 112132Z 10009KT 5SM -SHRA BR FEW008 OVC018 19/ RMK SF2SC6 VIS LWR E-S

CYYG;2012-08-11 22:00;CYYG 112200Z 09009KT 5SM -SHRA BR SCT004 OVC017 18/18 A3006 RMK SF4SC4 SLP180

CYYG;2012-08-11 22:12;CYYG 112212Z 09009KT 3SM -SHRA BR BKN006 OVC014 18/ RMK SF6SC2

CYYG;2012-08-11 22:27;CYYG 112227Z 10011KT 5SM -DZ BR BKN005 OVC020 18/ RMK SF6SC2

CYYG;2012-08-11 23:00;CYYG 112300Z 10010KT 5SM -RA BR FEW005 SCT012 OVC022 18/18 A3006 RMK SF2SC2SC4 SLP181

CYYG;2012-08-12 00:00;CYYG 120000Z 10009KT 10SM -RA FEW009 OVC018 19/17 A3006 RMK SF2SC6 SLP180

CYYG;2012-08-12 01:00;CYYG 120100Z 10008KT 5SM -RA BR FEW004 OVC018 18/17 A3007 RMK SF2SC6 SLP184

CYYG;2012-08-12 01:17;CYYG 120117Z 10009KT 3SM -RA BR BKN005 OVC018 18/ RMK SF5SC3

CYYG;2012-08-12 02:00;CYYG 120200Z 11007KT 5SM -RA BR OVC004 18/18 A3006 RMK SF8 SLP180

CYYG;2012-08-12 02:14;CYYG 120214Z 11007KT 5SM -DZ BR BKN004 OVC008 18/ RMK SF6SF2

CYYG;2012-08-12 03:00;CYYG 120300Z 10008KT 5SM -DZ BR BKN002 OVC007 18/18 A3006 RMK SF6SF2 SLP178

CYYG;2012-08-12 04:00;CYYG 120400Z 11006KT 3SM -DZ BR OVC003 18/18 A3005 RMK SF8 SLP177

CYYG;2012-08-12 05:00;CYYG 120500Z 12006KT 3SM BR OVC003 18/18 A3004 RMK SF8 SLP173

CYYG;2012-08-12 06:00;CYYG 120600Z 11006KT 10SM OVC004 18/18 A3003 RMK SF8 SLP170

CYYG;2012-08-12 07:00;CYYG 120700Z 11003KT 10SM OVC003 18/18 A3003 RMK ST8 SLP170

CYYG;2012-08-12 08:00;CYYG 120800Z 08003KT 3SM BR OVC003 18/18 A3003 RMK ST8 SLP170

CYYG;2012-08-12 08:22;CYYG 120822Z 11005KT 2SM BR OVC003 18/ RMK ST8

CYYG;2012-08-12 08:51;CYYG 120851Z 11005KT 1SM R03/P6000FT/D BR OVC002 18/ RMK ST8

CYYG;2012-08-12 09:00;CYYG 120900Z 11005KT 1SM R03/P6000FT/D BR OVC002 18/18 A3003 RMK ST8 SLP169

CYYG;2012-08-12 09:04;CYYG 120904Z 11005KT 3/4SM R03/P6000FT/D BR VV002 18/ RMK FG8

CYYG;2012-08-12 09:28;CYYG 120928Z 10005KT 1/2SM R03/4000FT/D FG VV002 18/ RMK FG8

CYYG;2012-08-12 10:00;CYYG 121000Z 11003KT 1/2SM R03/3500FT/N FG VV002 19/19 A3004 RMK FG8 SLP172

CYYG;2012-08-12 10:26;CYYG 121026Z 10005KT 1/4SM R03/3000FT/U FG VV001 19/ RMK FG8

CYYG;2012-08-12 10:56;CYYG 121056Z 09004KT 1/2SM R03/P6000FT/U FG VV002 19/ RMK FG8

CYYG;2012-08-12 11:00;CYYG 121100Z 10004KT 3/4SM R03/P6000FT/N BR VV002 19/19 A3004 RMK FG8 SLP172

CYYG;2012-08-12 12:00;CYYG 121200Z 14004KT 3/4SM R03/P6000FT/D BR OVC002 19/19 A3005 RMK ST8 SLP177

CYYG;2012-08-12 12:23;CYYG 121223Z 11004KT 1SM R03/P6000FT/N BR OVC003 20/ RMK ST8

CYYG;2012-08-12 13:00;CYYG 121300Z 12005KT 1 1/2SM BR OVC003 20/20 A3004 RMK ST8 SLP172

CYYG;2012-08-12 13:13;CYYG 121313Z 13006KT 3SM BR OVC004 21/ RMK ST8

CYYG;2012-08-12 14:00;CYYG 121400Z 14006KT 5SM BR BKN005 OVC008 22/21 A3004 RMK SF6SF2 SLP172

CYYG;2012-08-12 14:44;CYYG 121444Z 16006KT 10SM FEW006 OVC010 23/ RMK SF2SC6

CYYG;2012-08-12 15:00;CYYG 121500Z 14007KT 10SM FEW006 OVC010 23/21 A3003 RMK SF2SC6 SLP168

CYYG;2012-08-12 16:00;CYYG 121600Z 15008KT 10SM FEW006 BKN011 OVC040 24/22 A3002 RMK SF1SC6SC1 SLP165

CYYG;2012-08-12 17:00;CYYG 121700Z 17009KT 12SM FEW007 BKN012 OVC035 25/22 A3001 RMK SF1SC6SC1 SLP161

CYYG;2012-08-12 18:00;CYYG 121800Z 18010KT 15SM FEW012 BKN026 BKN150 26/22 A3000 RMK CF2SC4AC2 SLP158

CYYG;2012-08-12 19:00;CYYG 121900Z 18008KT 15SM SCT016TCU BKN042 BKN130 26/23 A2998 RMK TCU3SC2AC2 -SHRA DIST SW SLP153

CYYG;2012-08-12 19:16;CYYG 121916Z 18008KT 12SM -SHRA SCT016TCU BKN040 BKN130 26/ RMK TCU3SC3AC1

CYYG;2012-08-12 20:00;CYYG 122000Z 20006KT 10SM -SHRA BKN018TCU OVC073 24/23 A2999 RMK TCU5AC3 VIS N-NE 2 SLP155

CYYG;2012-08-12 21:00;CYYG 122100Z 19007KT 12SM -SHRA SCT022 OVC100 23/23 A2999 RMK SC4AC4 TCU EMBD SLP155

CYYG;2012-08-12 21:22;CYYG 122122Z 18007KT 12SM FEW010 SCT030 OVC086 23/ RMK SF2SC2AC4

CYYG;2012-08-12 22:00;CYYG 122200Z 18007KT 10SM FEW010 FEW030 OVC090 23/23 A3000 RMK SF1SC2AC6 SLP158

CYYG;2012-08-12 23:00;CYYG 122300Z 18004KT 12SM FEW025 OVC120 23/23 A2998 RMK SC2AC6 SLP154

CYYG;2012-08-13 00:00;CYYG 130000Z 17008KT 12SM FEW015 BKN034 OVC140 23/22 A2998 RMK SC2SC3AC3 SLP153

CYYG;2012-08-13 01:00;CYYG 130100Z 16008KT 15SM BKN018 OVC140 23/22 A2997 RMK SC5AC3 SLP149

CYYG;2012-08-13 01:51;CYYG 130151Z 16008KT 12SM -SHRA SCT018 BKN037 OVC130 23/ RMK SC3SC3AC2

CYYG;2012-08-13 02:00;CYYG 130200Z 16010KT 12SM -SHRA FEW018 BKN035 OVC130 22/22 A2996 RMK SC2SC4AC2 SLP147

CYYG;2012-08-13 03:00;CYYG 130300Z 16011KT 12SM -SHRA FEW018 BKN035 OVC075 22/22 A2994 RMK SC2SC5AC2 SLP139

CYYG;2012-08-13 04:00;CYYG 130400Z 19014G22KT 15SM -SHRA FEW018 BKN040 OVC090 23/22 A2993 RMK SC2SC3AC3 SLP135

CYYG;2012-08-13 05:00;CYYG 130500Z 20014G20KT 15SM BKN018 OVC090 23/21 A2993 RMK SC6AC2 SLP133

CYYG;2012-08-13 06:00;CYYG 130600Z 21011G17KT 15SM BKN017 OVC180 22/21 A2991 RMK SC7AC1 SLP129

CYYG;2012-08-13 07:00;CYYG 130700Z 20009KT 15SM BKN017 OVC160 22/21 A2991 RMK SC6AC2 SLP129

CYYG;2012-08-13 08:00;CYYG 130800Z 19009KT 15SM BKN020 OVC150 22/21 A2991 RMK SC6AC2 SLP127

CYYG;2012-08-13 09:00;CYYG 130900Z 19011KT 15SM OVC019 22/21 A2991 RMK SC8 SLP127

CYYG;2012-08-13 10:00;CYYG 131000Z 19010G15KT 15SM OVC020 22/21 A2991 RMK SC8 SLP127

CYYG;2012-08-13 11:00;CYYG 131100Z 20009KT 15SM OVC012 22/21 A2992 RMK SC8 SLP130

CYYG;2012-08-13 11:29;CYYG 131129Z 20009KT 15SM OVC009 22/ RMK SC8

CYYG;2012-08-13 12:00;CYYG 131200Z 20010KT 15SM OVC009 22/21 A2993 RMK SC8 SLP133

CYYG;2012-08-13 13:00;CYYG 131300Z 20010G16KT 15SM BKN009 OVC040 23/21 A2993 RMK SC7SC1 SLP133

CYYG;2012-08-13 14:00;CYYG 131400Z 21010G17KT 15SM BKN009 OVC045 23/21 A2991 RMK SC6SC2 SLP129

CYYG;2012-08-13 15:00;CYYG 131500Z 19013KT 15SM BKN010 OVC040 23/21 A2990 RMK SC6SC2 SLP126

CYYG;2012-08-13 16:00;CYYG 131600Z 23010KT 15SM BKN014 BKN050 25/22 A2988 RMK SC6SC1 SLP119

CYYG;2012-08-13 17:00;CYYG 131700Z 23010G15KT 15SM BKN017 BKN050 26/22 A2987 RMK SC6SC1 SLP116

CYYG;2012-08-13 18:00;CYYG 131800Z 23009KT 15SM SCT020 BKN047 BKN090 27/22 A2987 RMK CU3SC2AC2 SLP114

CYYG;2012-08-13 19:00;CYYG 131900Z 24010G17KT 15SM FEW024 SCT050 BKN090 BKN260 27/21 A2986 RMK CU2SC2AC1CI1 SLP112

CYYG;2012-08-13 20:00;CYYG 132000Z 21010G15KT 15SM FEW028 SCT048 BKN260 28/21 A2985 RMK CU2SC2CI0 SLP109

CYYG;2012-08-13 21:00;CYYG 132100Z 22010KT 15SM FEW030TCU SCT110 BKN260 27/21 A2985 RMK TCU2AC2CI1 SLP109

CYYG;2012-08-13 22:00;CYYG 132200Z 23007KT 15SM FEW030TCU FEW110 BKN260 27/21 A2986 RMK TCU2AC1CI1 TCU E-SW SLP110

CYYG;2012-08-13 23:00;CYYG 132300Z 25005KT 15SM FEW030TCU FEW110 BKN260 25/21 A2987 RMK TCU1AC1CI1 SLP113

CYYG;2012-08-14 00:00;CYYG 140000Z 19007KT 15SM FEW030TCU FEW110 BKN260 23/21 A2987 RMK TCU1AC1CI1 SLP114

CYYG;2012-08-14 01:00;CYYG 140100Z 22007KT 15SM FEW030 SCT260 23/21 A2987 RMK CU1CI1 SLP116

CYYG;2012-08-14 02:00;CYYG 140200Z 19006KT 15SM SCT260 22/20 A2987 RMK CI1 SLP114

CYYG;2012-08-14 03:00;CYYG 140300Z 23007KT 15SM SCT260 22/19 A2987 RMK CI1 SLP115

CYYG;2012-08-14 04:00;CYYG 140400Z 23005KT 15SM FEW260 21/20 A2987 RMK CI1 SLP116

CYYG;2012-08-14 05:00;CYYG 140500Z 21007KT 15SM FEW260 20/19 A2986 RMK CI1 SLP112

CYYG;2012-08-14 06:00;CYYG 140600Z 22006KT 15SM FEW260 20/19 A2986 RMK CI1 SLP112

CYYG;2012-08-14 07:00;CYYG 140700Z 22006KT 15SM SKC 19/19 A2986 RMK SLP112

CYYG;2012-08-14 08:00;CYYG 140800Z 23008KT 15SM SKC 19/18 A2985 RMK SLP109

CYYG;2012-08-14 09:00;CYYG 140900Z 22005KT 15SM FEW010 SCT240 19/18 A2987 RMK SF1CI1 SLP113

CYYG;2012-08-14 09:34;CYYG 140934Z 22006KT 12SM FEW007 BKN240 19/ RMK SF1CI2

CYYG;2012-08-14 10:00;CYYG 141000Z 22005KT 12SM FEW007 BKN240 19/18 A2987 RMK SF1CI2 SLP113

CYYG;2012-08-14 10:33;CYYG 141033Z 22007KT 12SM BKN004 BKN045 BKN200 19/ RMK SF5SC2CC1 VIS LWR SW-NW

CYYG;2012-08-14 11:00;CYYG 141100Z 22003KT 12SM BKN004 BKN045 BKN170 19/19 A2988 RMK SC5SC2AC1 VIS LWR SW-NW SLP117

CYYG;2012-08-14 12:00;CYYG 141200Z 24007KT 12SM OVC005 20/19 A2988 RMK SF8 SLP119

CYYG;2012-08-14 13:00;CYYG 141300Z 22005KT 12SM BKN006 21/19 A2988 RMK SF7 SLP119

CYYG;2012-08-14 13:33;CYYG 141333Z 23005KT 12SM BKN007 BKN180 22/ RMK SF5AC1

CYYG;2012-08-14 14:00;CYYG 141400Z 21006KT 12SM SCT007 BKN300 23/20 A2988 RMK SF3CI2 SLP118

CYYG;2012-08-14 15:00;CYYG 141500Z 16004KT 15SM FEW016 BKN300 25/20 A2987 RMK CF2CI2 SLP116

CYYG;2012-08-14 16:00;CYYG 141600Z 17006KT 15SM FEW020TCU BKN300 26/21 A2987 RMK TCU1CI1 SLP115

CYYG;2012-08-14 17:00;CYYG 141700Z 22007KT 15SM FEW028TCU BKN300 27/21 A2986 RMK TCU2CI1 SLP112

CYYG;2012-08-14 18:00;CYYG 141800Z CCA 02009KT 15SM VCSH BKN038TCU BKN300 25/21 A2986 RMK TCU5CI0 SHWRS E SLP111

CYYG;2012-08-14 19:00;CYYG 141900Z 30003KT 15SM FEW040TCU SCT090 BKN300 26/20 A2986 RMK TCU2AC2CI0 SLP112

CYYG;2012-08-14 20:00;CYYG 142000Z 00000KT 15SM FEW040TCU SCT100 BKN300 27/20 A2986 RMK TCU2AC2CI0 SLP111

CYYG;2012-08-14 21:00;CYYG 142100Z 03007KT 15SM FEW040TCU SCT100 BKN300 26/22 A2986 RMK TCU2AC2CI0 OBS TAKEN +08 SLP112

CYYG;2012-08-14 22:00;CYYG 142200Z 03005KT 15SM FEW040TCU FEW100 BKN300 25/21 A2987 RMK TCU1AC1CI2 SLP114

CYYG;2012-08-14 23:00;CYYG 142300Z 36004KT 15SM FEW040TCU FEW100 BKN250 23/21 A2988 RMK TCU1AC1CI2 SLP118

CYYG;2012-08-15 00:00;CYYG 150000Z 00000KT 15SM FEW040 FEW110 BKN250 22/21 A2989 RMK CU1AC1CI2 SLP122

CYYG;2012-08-15 01:00;CYYG 150100Z 00000KT 15SM FEW110 BKN250 22/21 A2990 RMK AC1CI2 SLP123

CYYG;2012-08-15 02:00;CYYG 150200Z 09003KT 15SM FEW110 BKN250 20/20 A2990 RMK AC1CI2 SLP125

CYYG;2012-08-15 03:00;CYYG 150300Z 13005KT 15SM FEW110 BKN210 20/20 A2991 RMK AC1CI3 SLP127

CYYG;2012-08-15 04:00;CYYG 150400Z 16003KT 12SM FEW110 BKN230 20/20 A2992 RMK AC1CI3 SLP130

CYYG;2012-08-15 05:00;CYYG 150500Z 13003KT 10SM FEW110 BKN220 20/20 A2991 RMK AC1CI3 SLP128

CYYG;2012-08-15 06:00;CYYG 150600Z 00000KT 10SM FEW110 BKN220 19/19 A2991 RMK AC1CI4 SLP129

CYYG;2012-08-15 07:00;CYYG 150700Z 15004KT 8SM MIFG BKN220 19/19 A2991 RMK FG2CI2 SLP128

CYYG;2012-08-15 08:00;CYYG 150800Z 18003KT 15SM BKN220 19/19 A2991 RMK CI2 SLP128

CYYG;2012-08-15 09:00;CYYG 150900Z 18004KT 15SM BKN190 19/19 A2992 RMK AC5 SLP130

CYYG;2012-08-15 10:00;CYYG 151000Z 17003KT 15SM BKN190 20/19 A2992 RMK AC4 SLP131

CYYG;2012-08-15 11:00;CYYG 151100Z 19006KT 15SM FEW070 FEW190 BKN300 21/20 A2992 RMK ACC1AC1CI2 ACC DIST SW-W SLP131

CYYG;2012-08-15 12:00;CYYG 151200Z 18007KT 15SM FEW070 FEW190 BKN300 22/20 A2992 RMK AC1AC1CI1 SLP131

CYYG;2012-08-15 13:00;CYYG 151300Z 20007KT 15SM FEW070 FEW190 BKN300 23/19 A2993 RMK AC1AC1CI1 SLP134

CYYG;2012-08-15 14:00;CYYG 151400Z 17008KT 15SM FEW090 SCT190 BKN300 25/19 A2993 RMK AC1AC2CI0 SLP135

CYYG;2012-08-15 15:00;CYYG 151500Z 18009KT 15SM FEW040TCU FEW096 SCT180 BKN300 26/19 A2993 RMK TCU1AC1AC2CI0 TCU DIST S SLP136

CYYG;2012-08-15 16:00;CYYG 151600Z 18009KT 15SM FEW040TCU FEW096 BKN180 BKN300 26/19 A2993 RMK TCU1AC1AC3CI1 TCU DIST S-NW SLP135

CYYG;2012-08-15 17:00;CYYG 151700Z 20007KT 15SM FEW050TCU FEW085 BKN180 BKN300 27/18 A2993 RMK TCU1AC1AC3CI0 CB DIST W SLP133

CYYG;2012-08-15 18:00;CYYG 151800Z 21005KT 15SM FEW050TCU FEW180 OVC300 27/19 A2992 RMK TCU2AC1CI1 SLP131

CYYG;2012-08-15 19:00;CYYG 151900Z 20005KT 15SM FEW041TCU BKN300 28/18 A2991 RMK TCU2CI1 SLP128

CYYG;2012-08-15 20:00;CYYG 152000Z 21005KT 15SM FEW041CB BKN300 28/18 A2990 RMK CB2CS2 CB NE-E SLP125

CYYG;2012-08-15 21:00;CYYG 152100Z 11011KT 15SM SCT047TCU BKN085 BKN300 26/20 A2990 RMK TCU3AC2CS0 CB DIST NE-E SLP126

CYYG;2012-08-15 22:00;CYYG 152200Z 13011KT 15SM FEW047TCU BKN300 25/20 A2991 RMK TCU2CI1 CB DIST E SLP129

CYYG;2012-08-15 23:00;CYYG 152300Z 12010KT 15SM FEW045TCU BKN300 23/19 A2992 RMK TCU2CI3 CBS NW-NE SLP131

CYYG;2012-08-16 00:00;CYYG 160000Z 13004KT 15SM SCT045TCU BKN300 22/20 A2993 RMK TCU3CI2 SLP136

CYYG;2012-08-16 01:00;CYYG 160100Z 13003KT 15SM SCT050TCU BKN300 21/20 A2994 RMK TCU3CI2 SLP139

CYYG;2012-08-16 02:00;CYYG 160200Z 10004KT 15SM SCT050 BKN240 20/20 A2993 RMK SC3CI2 SLP135

CYYG;2012-08-16 03:00;CYYG 160300Z 11005KT 15SM SCT050 BKN280 20/20 A2993 RMK SC3CI3 SLP135

CYYG;2012-08-16 04:00;CYYG 160400Z 14006KT 15SM FEW050 SCT280 20/19 A2993 RMK SC2CI2 SLP135

CYYG;2012-08-16 05:00;CYYG 160500Z 13005KT 15SM FEW050 SCT240 19/19 A2993 RMK SC2CI2 SLP135

CYYG;2012-08-16 06:00;CYYG 160600Z 14004KT 15SM FEW050 SCT240 19/19 A2993 RMK SC2CI2 SLP134

CYYG;2012-08-16 07:00;CYYG 160700Z 17003KT 15SM FEW240 19/19 A2993 RMK CI2 SLP136

CYYG;2012-08-16 07:28;CYYG 160728Z 15004KT 15SM BKN012 BKN240 19/ RMK SC5CI1

CYYG;2012-08-16 08:00;CYYG 160800Z 17003KT 15SM FEW012 SCT240 19/19 A2993 RMK SC2CI2 SLP135

CYYG;2012-08-16 08:44;CYYG 160844Z 18007KT 15SM FEW004 SCT012 BKN240 20/ RMK SF2SC2CI2

CYYG;2012-08-16 09:00;CYYG 160900Z 18007KT 15SM FEW006 SCT012 BKN240 20/19 A2994 RMK SF2SC2CI2 SLP138

CYYG;2012-08-16 10:00;CYYG 161000Z 17005KT 15SM FEW012 BKN160 OVC280 19/19 A2994 RMK SC2ACC3CI2 SLP137

CYYG;2012-08-16 10:29;CYYG 161029Z 15007KT 15SM FEW006 BKN067 BKN160 20/ RMK SF2AC3AC2

CYYG;2012-08-16 11:00;CYYG 161100Z 16007KT 15SM BKN007 BKN067 BKN160 20/19 A2996 RMK SF5AC2AC1 SLP145

CYYG;2012-08-16 11:14;CYYG 161114Z 16007KT 15SM FEW007 BKN063 BKN160 20/ RMK SF2SC3AC2

CYYG;2012-08-16 12:00;CYYG 161200Z 16008KT 15SM FEW007 BKN068 BKN160 20/19 A2996 RMK SF2AC4AC2 SLP146

CYYG;2012-08-16 13:00;CYYG 161300Z 17010KT 15SM FEW007 BKN068 BKN170 OVC300 21/19 A2996 RMK SF1AC4AC2CI1 SLP146

CYYG;2012-08-16 14:00;CYYG 161400Z 14009KT 15SM FEW015 FEW068 SCT170 OVC300 23/18 A2994 RMK CU1AC2AC1CI1 SLP139

CYYG;2012-08-16 15:00;CYYG 161500Z 16015KT 15SM FEW020 BKN240 OVC300 23/18 A2994 RMK CU1CC4CI1 SLP138

CYYG;2012-08-16 16:00;CYYG 161600Z 16014KT 15SM FEW030TCU FEW240 OVC300 24/18 A2993 RMK TCU1CC2CI1 TCU NW SLP133

CYYG;2012-08-16 17:00;CYYG 161700Z 14009G16KT 15SM FEW024 BKN220 25/18 A2990 RMK CU2CI2 TCU DIST NW OBS TAKEN +13 SLP126

CYYG;2012-08-16 18:00;CYYG 161800Z 15010KT 15SM FEW029 SCT160 OVC240 26/18 A2990 RMK CU2AC2CI3 TCU DIST NW SLP124

CYYG;2012-08-16 19:00;CYYG 161900Z 12011KT 15SM FEW031 OVC200 25/18 A2989 RMK CU2CS6 SLP121

CYYG;2012-08-16 20:00;CYYG 162000Z 13008KT 15SM SCT035 BKN042 OVC200 25/18 A2988 RMK SC3SC2CI2 SLP117

CYYG;2012-08-16 21:00;CYYG 162100Z 12009KT 15SM FEW033TCU BKN053 OVC140 23/19 A2987 RMK TCU2SC4AS2 SLP116

CYYG;2012-08-16 21:14;CYYG 162114Z 13010KT 15SM -SHRA BKN028TCU OVC053 23/ RMK TCU5SC3

CYYG;2012-08-16 22:00;CYYG 162200Z 14009KT 10SM -SHRA SCT027TCU BKN037 OVC098 21/18 A2987 RMK TCU3SC2AC2 SLP115

CYYG;2012-08-16 23:00;CYYG 162300Z 11007KT 5SM SHRA BR SCT020 OVC060 20/19 A2985 RMK SC3SC5 SLP109

CYYG;2012-08-16 23:34;CYYG 162334Z 10013KT 6SM -SHRA BR BKN007 BKN020 OVC100 20/ RERA RMK SF5SC2AS2

CYYG;2012-08-17 00:00;CYYG 170000Z 10012G17KT 8SM -SHRA BKN007 BKN020 OVC100 20/20 A2983 RMK SF6SC1AS2 SLP102

CYYG;2012-08-17 01:00;CYYG 170100Z 10010G15KT 8SM SHRA SCT007 BKN050 OVC090 20/19 A2983 RMK SF3SC2AC2 SLP100

CYYG;2012-08-17 01:15;CYYG 170115Z 10007KT 8SM SHRA BKN007 BKN020 OVC060 20/ RMK SF5SC2SC1

CYYG;2012-08-17 02:00;CYYG 170200Z 08010G16KT 6SM SHRA BR OVC007 20/19 A2981 RMK SF8 SLP093

CYYG;2012-08-17 03:00;CYYG 170300Z 07007KT 6SM SHRA BR OVC004 19/19 A2979 RERA RMK SF8 /R14/ SLP088

CYYG;2012-08-17 04:00;CYYG 170400Z 09012G22KT 6SM SHRA BR OVC007 19/19 A2976 RERA RMK SF8 /R24/ SLP077

CYYG;2012-08-17 05:00;CYYG 170500Z 09009KT 6SM SHRA BR OVC004 19/19 A2971 RMK SF8 SLP062

CYYG;2012-08-17 06:00;CYYG 170600Z 11011G16KT 8SM -SHRA OVC008 19/19 A2969 RERA RMK SF8 SLP052

CYYG;2012-08-17 07:00;CYYG 170700Z 14012KT 8SM OVC008 19/19 A2967 RMK SF8 SLP046

CYYG;2012-08-17 08:00;CYYG 170800Z 15011G18KT 6SM -DZ BR OVC005 20/20 A2967 RMK SF8 SLP046

CYYG;2012-08-17 09:00;CYYG 170900Z 19013KT 10SM OVC012 20/19 A2967 RMK SC8 SLP046

CYYG;2012-08-17 10:00;CYYG 171000Z 18010KT 15SM VCSH BKN012 BKN025 20/19 A2968 RMK SC6SC2 SLP051

CYYG;2012-08-17 11:00;CYYG 171100Z 18010KT 15SM BKN017 OVC025 20/19 A2969 RMK SC6SC2 SLP054

CYYG;2012-08-17 12:00;CYYG 171200Z 18010KT 15SM OVC013 20/19 A2969 RMK SC8 SLP052

CYYG;2012-08-17 13:00;CYYG 171300Z 17010KT 15SM OVC016 21/19 A2969 RMK SC8 SLP053

CYYG;2012-08-17 14:00;CYYG 171400Z 16012KT 15SM BKN019 22/18 A2968 RMK SC6 SLP051

CYYG;2012-08-17 15:00;CYYG 171500Z 19006KT 15SM BKN024 22/18 A2968 RMK SC6 SLP050

CYYG;2012-08-17 16:00;CYYG 171600Z 13008KT 15SM SCT030 23/17 A2967 RMK SC4 SLP047

CYYG;2012-08-17 17:00;CYYG 171700Z 20004KT 15SM SCT030 24/17 A2969 RMK SC4 SLP052

CYYG;2012-08-17 18:00;CYYG 171800Z 25006KT 15SM BKN025 24/18 A2969 RMK SC5 SLP053

CYYG;2012-08-17 19:00;CYYG 171900Z 26008KT 15SM SCT025 BKN250 24/18 A2969 RMK SC4CI1 SLP052

CYYG;2012-08-17 20:00;CYYG 172000Z 27005KT 15SM SCT045 SCT250 25/18 A2968 RMK SC3CI1 SLP049

CYYG;2012-08-17 21:00;CYYG 172100Z 28004KT 15SM SCT045 SCT250 25/18 A2968 RMK SC3CI1 SLP049

CYYG;2012-08-17 22:00;CYYG 172200Z 26007KT 15SM SCT045 BKN250 24/19 A2969 RMK SC3CI2 SLP054

CYYG;2012-08-17 23:00;CYYG 172300Z 24004KT 15SM FEW050TCU BKN095 BKN250 22/19 A2971 RMK TCU1AC4CI1 SLP060

CYYG;2012-08-18 00:00;CYYG 180000Z 00000KT 15SM FEW050TCU BKN095 BKN250 21/19 A2973 RMK TCU1AC4CI1 SLP066

CYYG;2012-08-18 01:00;CYYG 180100Z 24006KT 15SM BKN035 BKN090 21/19 A2974 RMK SC5AC2 SLP071

CYYG;2012-08-18 02:00;CYYG 180200Z 23005KT 15SM SCT035 BKN050 21/19 A2975 RMK SC3SC3 SLP073

CYYG;2012-08-18 03:00;CYYG 180300Z 24005KT 15SM FEW030 SCT050 20/19 A2974 RMK SC2SC2 SLP072

CYYG;2012-08-18 04:00;CYYG 180400Z 24006KT 15SM FEW010 19/19 A2974 RMK ST1 SLP072

CYYG;2012-08-18 04:41;CYYG 180441Z 23005KT 12SM FEW005 19/ RMK SF2 SF INVDG FM SW

CYYG;2012-08-18 05:00;CYYG 180500Z 24006KT 12SM SCT003 SCT050 19/19 A2975 RMK SF3SC1 SLP075

CYYG;2012-08-18 05:16;CYYG 180516Z 23007KT 10SM BKN002 19/ RMK SF6

CYYG;2012-08-18 06:00;CYYG 180600Z 24006KT 6SM BR FEW002 SCT030 BKN065 19/19 A2976 RMK SF2SC2SC3 SLP078

CYYG;2012-08-18 07:00;CYYG 180700Z 24007KT 8SM FEW002 FEW030 SCT075 19/19 A2977 RMK SF2SC1AC1 SLP081

CYYG;2012-08-18 07:12;CYYG 180712Z 24005KT 8SM BKN004 19/ RMK SF5

CYYG;2012-08-18 07:44;CYYG 180744Z 24007KT 2SM BR OVC002 19/ RMK FG2SF6

CYYG;2012-08-18 08:00;CYYG 180800Z 23007KT 1 1/2SM BR OVC002 19/19 A2977 RMK FG3SF5 SLP082

CYYG;2012-08-18 08:18;CYYG 180818Z 25006KT 5/8SM R03/4500VP6000FT/D BR OVC001 19/ RMK FG5SF3

CYYG;2012-08-18 08:31;CYYG 180831Z 24005KT 1/2SM R03/2600FT/N FG VV001 19/ RMK FG8

CYYG;2012-08-18 08:36;CYYG 180836Z 25005KT 3/8SM FG VV001 19/ RMK FG8

CYYG;2012-08-18 09:00;CYYG 180900Z 25005KT 1/4SM FG VV001 19/19 A2978 RMK FG8 SLP084

CYYG;2012-08-18 09:31;CYYG 180931Z 27004KT 3/4SM R03/3000FT/N BR BKN004 19/ RMK FG2SF4

CYYG;2012-08-18 09:49;CYYG 180949Z 25004KT 3SM BR VCFG BKN009 19/ RMK FG2SF5 VIS SW-NW 1

CYYG;2012-08-18 10:00;CYYG 181000Z 23004KT 2 1/2SM BR VCFG FEW002 BKN008 19/19 A2979 RMK FG2SF1SF5 VIS W 1 SLP089

CYYG;2012-08-18 10:29;CYYG 181029Z 23003KT 10SM BKN008 19/ RMK SF7

CYYG;2012-08-18 11:00;CYYG 181100Z 24003KT 15SM OVC007 20/19 A2980 RMK SF8 SLP091

CYYG;2012-08-18 12:00;CYYG 181200Z 24007KT 15SM BKN009 OVC015 20/19 A2982 RMK SF6SC2 SLP098

CYYG;2012-08-18 13:00;CYYG 181300Z 28003KT 15SM BKN011 21/19 A2982 RMK SC7 SLP098

CYYG;2012-08-18 14:00;CYYG 181400Z 24004KT 15SM SCT014 SCT160 BKN300 23/19 A2982 RMK SC3AC1CI2 SLP097

CYYG;2012-08-18 15:00;CYYG 181500Z 20009KT 15SM SCT014 SCT160 BKN300 23/20 A2983 RMK SC3AC1CI2 SLP101

CYYG;2012-08-18 16:00;CYYG 181600Z 22007KT 15SM FEW014 SCT160 BKN330 24/20 A2983 RMK SC2AC2CI2 SLP100

CYYG;2012-08-18 17:00;CYYG 181700Z 20010KT 15SM FEW025 SCT160 BKN300 26/18 A2982 RMK SC1AC2CI2 SLP098

CYYG;2012-08-18 18:00;CYYG 181800Z 23008KT 15SM FEW035 FEW160 BKN300 27/17 A2982 RMK SC2AC1CI2 SLP096

CYYG;2012-08-18 19:00;CYYG 181900Z 19007KT 15SM FEW045 FEW160 BKN300 26/19 A2981 RMK SC2AC1CI2 SLP095

CYYG;2012-08-18 20:00;CYYG 182000Z 18006KT 15SM FEW045 FEW160 BKN300 26/19 A2982 RMK SC2AC1CI2 SLP096

CYYG;2012-08-18 21:00;CYYG 182100Z 15004KT 15SM BKN046 25/19 A2982 RMK SC7 SLP096

CYYG;2012-08-18 22:00;CYYG 182200Z 22005KT 15SM SCT045 BKN080 BKN120 25/19 A2983 RMK SC3AC2AC2 SLP100

CYYG;2012-08-18 23:00;CYYG 182300Z 23003KT 15SM FEW045 BKN150 OVC200 24/19 A2983 RMK SC2AC3CS2 SLP101

CYYG;2012-08-19 00:00;CYYG 190000Z 18006KT 15SM FEW080 SCT140 OVC170 23/20 A2985 RMK AC2AC2AC5 SLP106

CYYG;2012-08-19 01:00;CYYG 190100Z 16004KT 15SM FEW080 OVC170 22/20 A2985 RMK AC2AC6 SLP106

CYYG;2012-08-19 02:00;CYYG 190200Z 20003KT 15SM OVC150 22/20 A2984 RMK AC8 SLP105

CYYG;2012-08-19 03:00;CYYG 190300Z 22005KT 12SM OVC120 22/21 A2984 RMK AS8 SLP105

CYYG;2012-08-19 04:00;CYYG 190400Z 23009KT 15SM OVC150 21/20 A2985 RMK AC8 SLP108

CYYG;2012-08-19 05:00;CYYG 190500Z 23007KT 12SM FEW008 OVC190 21/19 A2986 RMK SF2AS6 SLP110

CYYG;2012-08-19 06:00;CYYG 190600Z 22006KT 10SM BKN006 20/19 A2986 RMK SF5 SLP112

CYYG;2012-08-19 07:00;CYYG 190700Z 23006KT 10SM SCT006 BKN170 20/19 A2987 RMK SF3AC2 SLP116

CYYG;2012-08-19 08:00;CYYG 190800Z 25005KT 10SM SCT006 BKN170 19/19 A2989 RMK SF3AC2 VIS LWR SW SLP120

CYYG;2012-08-19 09:00;CYYG 190900Z 25004KT 8SM FEW006 SCT090 BKN120 19/19 A2989 RMK SF2AC2AC3 VIRGA SLP120

CYYG;2012-08-19 10:00;CYYG 191000Z 23003KT 10SM FEW006 FEW030 BKN130 19/19 A2989 RMK SF1SC2AC5 ACC ASOCTD SLP122

CYYG;2012-08-19 11:00;CYYG 191100Z 22004KT 15SM FEW032 BKN110 BKN300 20/19 A2990 RMK SC2AC5CI1 SLP126

CYYG;2012-08-19 12:00;CYYG 191200Z 23004KT 15SM FEW033 SCT110 OVC130 20/19 A2990 RMK SC2AC2AC5 SLP126

CYYG;2012-08-19 12:29;CYYG 191229Z 24004KT 15SM SCT008 BKN039 OVC130 21/ RMK SF3SC2AC2

CYYG;2012-08-19 13:00;CYYG 191300Z 28004KT 15SM -SHRA FEW007 BKN038 OVC098 21/19 A2992 RMK SF2SC2AC3 SLP131

CYYG;2012-08-19 13:46;CYYG 191346Z 00000KT 15SM FEW007 BKN051 OVC240 21/ RMK SF1SC5CI2

CYYG;2012-08-19 14:00;CYYG 191400Z 19002KT 15SM FEW009 BKN051 OVC260 21/19 A2993 RMK SF2SC5CI2 SLP133

CYYG;2012-08-19 14:12;CYYG 191412Z 00000KT 15SM -SHRA FEW011 BKN051 OVC260 21/ RMK SF2SC5CI2

CYYG;2012-08-19 15:00;CYYG 191500Z 24005KT 15SM -SHRA FEW011 BKN043TCU OVC260 21/19 A2993 RMK SC2TCU5CI2 VIS LWR W-NW SLP137

CYYG;2012-08-19 16:00;CYYG 191600Z 17002KT 15SM VCSH FEW015 SCT043TCU BKN110 22/20 A2992 RMK CU1TCU2AC4 SH NE-E OBS TAKEN +11 SLP132

CYYG;2012-08-19 17:00;CYYG 191700Z 25004KT 15SM VCSH FEW014TCU BKN085 22/18 A2992 RMK TCU2AC6 SH S-SW SLP132

CYYG;2012-08-19 18:00;CYYG 191800Z 17005KT 15SM FEW018TCU BKN088 22/18 A2992 RMK TCU2AC6 SLP131

CYYG;2012-08-19 19:00;CYYG 191900Z 36003KT 15SM FEW018TCU SCT088 BKN110 23/18 A2991 RMK TCU2AC2AC3 TCU W-NE SLP129

CYYG;2012-08-19 20:00;CYYG 192000Z 34005KT 15SM SCT024TCU OVC063 22/19 A2992 RMK TCU3SC5 SH DIST SW-W SLP132

CYYG;2012-08-19 20:37;CYYG 192037Z 02005KT 15SM -SHRA FEW024TCU OVC046 22/ RMK TCU2SC6

CYYG;2012-08-19 21:00;CYYG 192100Z 00000KT 15SM -SHRA FEW024 OVC055 21/19 A2993 RMK SC1SC7 SLP134

CYYG;2012-08-19 21:50;CYYG 192150Z 36002KT 15SM VCSH FEW024TCU BKN053 BKN066 21/ RMK TCU1SC5AC2 SH NW-NE

CYYG;2012-08-19 22:00;CYYG 192200Z 04004KT 15SM VCSH FEW024TCU BKN052 BKN062 21/19 A2992 RMK TCU1SC5SC2 SH NW-NE SLP132

CYYG;2012-08-19 23:00;CYYG 192300Z 05003KT 15SM FEW024 BKN056 BKN300 20/18 A2991 RMK SC2SC4CI1 SLP129

CYYG;2012-08-20 00:00;CYYG 200000Z 08007KT 15SM FEW022 BKN055 BKN300 19/18 A2991 RMK SC2SC3CI1 SLP129

CYYG;2012-08-20 01:00;CYYG 200100Z 10004KT 15SM FEW022 BKN062 20/19 A2992 RMK SC2SC3 SLP132

CYYG;2012-08-20 02:00;CYYG 200200Z 09004KT 10SM FEW020 SCT050 BKN070 20/19 A2991 RMK SC2SC2AC3 SLP130

CYYG;2012-08-20 03:00;CYYG 200300Z 09004KT 10SM FEW020 SCT050 BKN070 20/19 A2990 RMK SC2SC2AC3 SLP126

CYYG;2012-08-20 03:14;CYYG 200314Z 10003KT 15SM FEW020 BKN040 BKN070 20/ RMK SC2SC3AC2 CB ASOCTD OCNL LTGIC W

CYYG;2012-08-20 04:00;CYYG 200400Z 10004KT 10SM FEW006 BKN060 BKN200 19/19 A2988 RMK SF2SC3CI1 SLP120

CYYG;2012-08-20 05:00;CYYG 200500Z 00000KT 10SM OVC005 20/19 A2988 RMK SF8 SLP120

CYYG;2012-08-20 06:00;CYYG 200600Z 15005KT 10SM OVC005 20/20 A2988 RMK SF8 SLP119

CYYG;2012-08-20 07:00;CYYG 200700Z 00000KT 10SM BKN004 BKN035 OVC220 20/20 A2988 RMK SF6SC1CC1 SLP118

CYYG;2012-08-20 08:00;CYYG 200800Z 00000KT 10SM SCT004 BKN028 OVC220 19/19 A2987 RMK SF3SC2CC2 SLP116

CYYG;2012-08-20 08:24;CYYG 200824Z 00000KT 10SM SCT005 BKN010 OVC026 19/ RMK SF3SC2SC2

CYYG;2012-08-20 08:41;CYYG 200841Z 02003KT 5SM BR BKN005 BKN011 OVC025 19/ RMK SF5SC2SC1

CYYG;2012-08-20 09:00;CYYG 200900Z 04005KT 4SM BR SCT005 BKN025 BKN035 19/19 A2987 RMK SF3SC3SC1 SLP114

CYYG;2012-08-20 10:00;CYYG 201000Z 34003KT 2SM BR SCT007 BKN028 BKN076 19/19 A2986 RMK SF3SC2AC2 VIS SE 4 SLP113

CYYG;2012-08-20 10:16;CYYG 201016Z 04005KT 3SM BR BKN003 BKN015 OVC028 19/ RMK SF6SC1SC1

CYYG;2012-08-20 10:36;CYYG 201036Z 04006KT 10SM FEW003 BKN009 OVC018 19/ RMK SF2SF5SC2

CYYG;2012-08-20 11:00;CYYG 201100Z 04007KT 12SM FEW003 BKN010 BKN029 20/19 A2988 RMK SF2SC4SC2 SLP118

CYYG;2012-08-20 12:00;CYYG 201200Z 08006KT 15SM FEW008 FEW021 BKN110 21/19 A2986 RMK SF1SC1AC6 SLP113

CYYG;2012-08-20 13:00;CYYG 201300Z 05005KT 15SM SCT007 BKN075 21/20 A2986 RMK SF3AC3 SLP111

CYYG;2012-08-20 13:43;CYYG 201343Z 08003KT 15SM BKN011 BKN075 22/ RMK SC5AC2

CYYG;2012-08-20 14:00;CYYG 201400Z 09002KT 15SM BKN013 BKN075 22/20 A2985 RMK SC6AC1 SLP107

CYYG;2012-08-20 15:00;CYYG 201500Z 36006KT 15SM BKN020TCU 23/20 A2984 RMK TCU6 SLP105

CYYG;2012-08-20 16:00;CYYG 201600Z 36008KT 15SM BKN013TCU BKN280 24/20 A2985 RMK TCU6CI0 SLP107

CYYG;2012-08-20 17:00;CYYG 201700Z 35010G16KT 15SM BKN013 BKN280 23/19 A2985 RMK SC6CI1 SLP108

CYYG;2012-08-20 18:00;CYYG 201800Z 36010KT 15SM BKN014 BKN280 23/19 A2985 RMK SC5CI1 SLP109

CYYG;2012-08-20 19:00;CYYG 201900Z 36010KT 15SM SCT017 BKN280 23/18 A2985 RMK SC3CI1 SLP108

CYYG;2012-08-20 20:00;CYYG 202000Z 35008KT 15SM FEW017 BKN280 22/18 A2984 RMK SC2CI1 SLP105

CYYG;2012-08-20 21:00;CYYG 202100Z 35008KT 15SM FEW018 BKN280 22/18 A2984 RMK CU2CI1 SLP104

CYYG;2012-08-20 22:00;CYYG 202200Z 02007KT 15SM FEW014 BKN280 21/18 A2985 RMK SC2CI2 SLP107

CYYG;2012-08-20 23:00;CYYG 202300Z 35005KT 15SM FEW014 BKN280 19/18 A2986 RMK SC2CI2 SLP110

CYYG;2012-08-21 00:00;CYYG 210000Z 34002KT 15SM FEW014 BKN280 18/18 A2986 RMK SC1CI6 SLP111

CYYG;2012-08-21 01:00;CYYG 210100Z 34002KT 15SM FEW014 BKN280 17/17 A2986 RMK SC1CS6 SLP113

CYYG;2012-08-21 02:00;CYYG 210200Z 32003KT 12SM BKN250 16/16 A2987 RMK CI5 SLP114

CYYG;2012-08-21 03:00;CYYG 210300Z 31003KT 15SM BKN250 16/16 A2987 RMK CI3 SLP116

CYYG;2012-08-21 04:00;CYYG 210400Z 00000KT 15SM BKN220 16/16 A2987 RMK CS6 SLP117

CYYG;2012-08-21 05:00;CYYG 210500Z 32003KT 15SM MIFG OVC220 15/15 A2987 RMK CS8 SLP114

CYYG;2012-08-21 06:00;CYYG 210600Z 00000KT 15SM MIFG BKN220 15/15 A2987 RMK CI2 SLP116

CYYG;2012-08-21 07:00;CYYG 210700Z 31002KT 15SM MIFG BKN210 15/15 A2987 RMK CI3 SLP114

CYYG;2012-08-21 08:00;CYYG 210800Z 00000KT 15SM R03/3500FT/N MIFG SCT160 OVC200 14/14 A2987 RMK AC3CS5 SLP116

CYYG;2012-08-21 09:00;CYYG 210900Z 00000KT 15SM PRFG SCT160 BKN200 14/14 A2988 RMK AC3CS2 SLP119

CYYG;2012-08-21 09:45;CYYG 210945Z 02003KT 1SM R03/4000VP6000FT/U BR FEW002 BKN160 BKN200 13/ RMK SF1AC5CI1

CYYG;2012-08-21 10:00;CYYG 211000Z 36002KT 8SM PRFG FEW003 BKN160 BKN200 14/14 A2989 RMK SF1AC5CI1 SLP122

CYYG;2012-08-21 11:00;CYYG 211100Z 13002KT 10SM PRFG FEW001 SCT160 BKN300 18/18 A2989 RMK SF1AC3CI1 VIS SE-SW 1/4 SLP123

CYYG;2012-08-21 12:00;CYYG 211200Z 16003KT 15SM FEW003 BKN160 BKN300 20/19 A2990 RMK SF1AC4CI0 SLP124

CYYG;2012-08-21 13:00;CYYG 211300Z 18003KT 15SM FEW005 SCT150 BKN300 21/18 A2989 RMK SF2AC2CC2 SLP122

CYYG;2012-08-21 14:00;CYYG 211400Z 20005KT 15SM FEW016 FEW150 BKN300 23/19 A2989 RMK CU1AC2CC2 SLP123

CYYG;2012-08-21 15:00;CYYG 211500Z 15007KT 15SM FEW019 SCT140 BKN300 23/18 A2990 RMK CU1AC2CC1 SLP124

CYYG;2012-08-21 16:00;CYYG 211600Z 20006KT 15SM FEW020TCU BKN130 BKN300 23/18 A2990 RMK TCU1AC5CC1 TCU S AND NW SLP127

CYYG;2012-08-21 17:00;CYYG 211700Z 19007KT 15SM FEW024TCU SCT150 BKN300 25/19 A2990 RMK TCU1AC3CC2 TCU W AND N SLP124

CYYG;2012-08-21 17:46;CYYG 211746Z 20008KT 15SM TS FEW026CB SCT080 BKN150 BKN300 25/ RMK CB2AC2AC2CI1 CB NW AND NE MOVG E LTGCG SHRA DIST NE

CYYG;2012-08-21 18:00;CYYG 211800Z CCA 20007KT 15SM TS VCSH FEW030CB FEW075 FEW150 SCT300 26/18 A2989 RMK CB1AC1AC1CI0 CB NE AND DIST S-SW MOVG E SH NE SLP123

CYYG;2012-08-21 18:20;CYYG 211820Z 24007KT 15SM FEW042TCU FEW075 FEW130 SCT300 26/ RETS RMK TCU1AC1AC1CI1 CB DIST NE MOVG E SH DIST NE

CYYG;2012-08-21 19:00;CYYG 211900Z 22008KT 15SM FEW042TCU FEW130 SCT300 26/14 A2990 RETS RMK TCU2AC1CI1 TCU ALQDS SLP124

CYYG;2012-08-21 20:00;CYYG 212000Z 32005G15KT 15SM BKN036TCU BKN170 24/17 A2990 RMK TCU5AC1 SH DIST W SLP126

CYYG;2012-08-21 21:00;CYYG 212100Z 26004KT 15SM FEW050TCU BKN120 24/15 A2991 RMK TCU1AC6 SH DIST E TCU E AND DIST S-SW SLP129

CYYG;2012-08-21 22:00;CYYG 212200Z 28007KT 15SM FEW050TCU SCT110 SCT300 24/16 A2992 RMK TCU1AC2CI0 TCU DIST E AND S-SW SLP131

CYYG;2012-08-21 23:00;CYYG 212300Z 30005KT 15SM FEW050TCU FEW080 SCT110 22/17 A2994 RMK TCU1ACC1AC2 TCU S SLP139

CYYG;2012-08-22 00:00;CYYG 220000Z 00000KT 15SM SCT080 20/17 A2996 RMK AC3 ACC ASOCTD SLP144

CYYG;2012-08-22 01:00;CYYG 220100Z 24003KT 15SM FEW080 SCT100 19/16 A2998 RMK AC2AC2 SLP151

CYYG;2012-08-22 02:00;CYYG 220200Z CCA 22005KT 15SM FEW090 19/16 A2998 RMK AC2 SLP154

CYYG;2012-08-22 03:00;CYYG 220300Z 24006KT 15SM FEW080 BKN300 19/17 A3000 RMK AC2CI2 SLP158

CYYG;2012-08-22 04:00;CYYG 220400Z 23005KT 15SM FEW080 BKN300 19/17 A3000 RMK AC2CI4 SLP160

CYYG;2012-08-22 05:00;CYYG 220500Z 25006KT 15SM FEW052 OVC300 18/16 A3000 RMK SC2CI4 SLP159

CYYG;2012-08-22 06:00;CYYG 220600Z 26006KT 15SM FEW063 BKN300 18/16 A3002 RMK SC2CI2 SLP165

CYYG;2012-08-22 07:00;CYYG 220700Z 24006KT 15SM BKN300 18/15 A3002 RMK CI2 SLP166

CYYG;2012-08-22 08:00;CYYG 220800Z 23007KT 15SM BKN300 17/14 A3003 RMK CI2 SLP169

CYYG;2012-08-22 09:00;CYYG 220900Z 27005KT 15SM FEW030 BKN300 16/14 A3005 RMK CU1CI5 SLP175

CYYG;2012-08-22 10:00;CYYG 221000Z 29006KT 15SM FEW030 BKN300 17/14 A3007 RMK CU1CI6 SLP184

CYYG;2012-08-22 11:00;CYYG 221100Z 29008KT 15SM FEW030 BKN300 18/16 A3009 RMK CU1CI5 SLP190

CYYG;2012-08-22 12:00;CYYG 221200Z 29006KT 15SM FEW030 BKN300 18/13 A3011 RMK CU1CI3 SLP195

CYYG;2012-08-22 13:00;CYYG 221300Z 28005KT 15SM SCT280 21/12 A3012 RMK CI2 SLP198

CYYG;2012-08-22 14:00;CYYG 221400Z 26009KT 15SM FEW260 22/11 A3012 RMK CI2 SLP199

CYYG;2012-08-22 15:00;CYYG 221500Z 27009G15KT 15SM FEW030 FEW260 23/11 A3012 RMK CU1CI1 SLP198

CYYG;2012-08-22 16:00;CYYG 221600Z 30007KT 15SM FEW030 FEW260 23/12 A3011 RMK CU1CI1 SLP196

CYYG;2012-08-22 17:00;CYYG 221700Z 26007KT 15SM FEW030 FEW260 24/12 A3010 RMK CU1CI1 SLP194

CYYG;2012-08-22 18:00;CYYG 221800Z 26007KT 15SM FEW030 FEW260 24/09 A3010 RMK CU1CI1 SLP193

CYYG;2012-08-22 19:00;CYYG 221900Z 30005KT 15SM FEW034 FEW260 24/10 A3010 RMK CU1CI1 SLP192

CYYG;2012-08-22 20:00;CYYG 222000Z 26006KT 15SM FEW034 FEW260 25/10 A3009 RMK CU1CI1 SLP189

CYYG;2012-08-22 21:00;CYYG 222100Z 20006KT 15SM FEW034 FEW260 25/10 A3009 RMK SC1CI1 SLP190

CYYG;2012-08-22 22:00;CYYG 222200Z 17006KT 15SM FEW034 FEW260 23/12 A3009 RMK SC1CI1 SLP189

CYYG;2012-08-22 23:00;CYYG 222300Z 16006KT 15SM FEW035 BKN260 20/12 A3009 RMK SC1CI1 SLP189

CYYG;2012-08-23 00:00;CYYG 230000Z 17006KT 15SM FEW035 BKN260 19/13 A3010 RMK SC1CI1 SLP193

CYYG;2012-08-23 01:00;CYYG 230100Z 18005KT 15SM FEW035 BKN260 20/13 A3011 RMK SC1CI1 SLP196

CYYG;2012-08-23 02:00;CYYG 230200Z 13004KT 15SM FEW035 SCT260 18/13 A3010 RMK SC1CI1 SLP194

CYYG;2012-08-23 03:00;CYYG 230300Z 24005KT 15SM SCT260 18/15 A3011 RMK CI1 SLP196

CYYG;2012-08-23 04:00;CYYG 230400Z 22005KT 15SM SCT260 18/14 A3010 RMK CI1 SLP194

CYYG;2012-08-23 05:00;CYYG 230500Z 24006KT 15SM SCT260 17/13 A3009 RMK CI1 SLP191

CYYG;2012-08-23 06:00;CYYG 230600Z 22006KT 15SM FEW260 17/13 A3009 RMK CI1 SLP190

CYYG;2012-08-23 07:00;CYYG 230700Z 22006KT 15SM FEW260 17/12 A3009 RMK CI1 SLP191

CYYG;2012-08-23 08:00;CYYG 230800Z 22005KT 15SM FEW260 16/13 A3009 RMK CI1 SLP189

CYYG;2012-08-23 09:00;CYYG 230900Z 21006KT 15SM FEW260 17/13 A3009 RMK CI1 SLP189

CYYG;2012-08-23 10:00;CYYG 231000Z 21008KT 15SM FEW260 17/14 A3010 RMK CI1 SLP193

CYYG;2012-08-23 11:00;CYYG 231100Z 19008KT 15SM FEW260 19/15 A3010 RMK CI1 SLP194

CYYG;2012-08-23 12:00;CYYG 231200Z 19008KT 15SM FEW260 20/16 A3010 RMK CI1 SLP194

CYYG;2012-08-23 13:00;CYYG 231300Z 19009KT 15SM FEW260 22/14 A3010 RMK CI1 SLP192

CYYG;2012-08-23 14:00;CYYG 231400Z 21010KT 15SM FEW260 23/14 A3009 RMK CI1 SLP190

CYYG;2012-08-23 15:00;CYYG 231500Z 23011KT 15SM SKC 24/13 A3008 RMK SLP186

CYYG;2012-08-23 16:00;CYYG 231600Z 22011KT 15SM SKC 25/13 A3006 RMK SLP179

CYYG;2012-08-23 17:00;CYYG 231700Z 22013KT 15SM FEW030 26/12 A3005 RMK CU1 SLP177

CYYG;2012-08-23 18:00;CYYG 231800Z 18013G19KT 15SM FEW034 FEW260 25/15 A3004 RMK CU1CI1 SLP172

CYYG;2012-08-23 19:00;CYYG 231900Z 17011KT 15SM FEW034 FEW260 26/15 A3003 RMK CU1CI1 SLP169

CYYG;2012-08-23 20:00;CYYG 232000Z 18010KT 15SM FEW034 FEW260 26/14 A3002 RMK CU1CI1 SLP165

CYYG;2012-08-23 21:00;CYYG 232100Z 19007KT 15SM FEW035 SCT260 25/15 A3001 RMK CU1CI2 SLP162

CYYG;2012-08-23 22:00;CYYG 232200Z 21009KT 15SM FEW050 FEW180 SCT260 24/14 A3000 RMK SC1AC1CI1 SLP158

CYYG;2012-08-23 23:00;CYYG 232300Z 24007KT 15SM FEW050 FEW180 SCT260 22/13 A3000 RMK SC1AC1CI1 SLP159

CYYG;2012-08-24 00:00;CYYG 240000Z 24009KT 15SM FEW080 FEW180 SCT260 22/13 A3002 RMK AC1AC1CI1 SLP165

CYYG;2012-08-24 01:00;CYYG 240100Z 24011G17KT 15SM FEW095 SCT260 21/15 A3002 RMK AC2CI1 SLP165

CYYG;2012-08-24 02:00;CYYG 240200Z 24010KT 15SM FEW095 SCT170 BKN260 20/16 A3001 RMK AC2AC2CI1 SLP163

CYYG;2012-08-24 03:00;CYYG 240300Z 23007KT 15SM FEW095 SCT160 BKN260 20/17 A3000 RMK AC1AC2CI1 SLP160

CYYG;2012-08-24 04:00;CYYG 240400Z 24007KT 15SM FEW095 BKN160 19/16 A3000 RMK AC1AC3 SLP158

CYYG;2012-08-24 05:00;CYYG 240500Z 24007KT 15SM FEW095 BKN160 19/16 A3001 RMK AC1AC4 SLP161

CYYG;2012-08-24 06:00;CYYG 240600Z 24007KT 15SM BKN140 18/16 A3001 RMK AC5 SLP161

CYYG;2012-08-24 07:00;CYYG 240700Z 24008KT 15SM BKN140 18/16 A3000 RMK AC4 SLP160

CYYG;2012-08-24 08:00;CYYG 240800Z 24006KT 15SM SCT140 17/16 A3000 RMK AC2 SLP159

CYYG;2012-08-24 09:00;CYYG 240900Z 27004KT 15SM FEW140 16/16 A3001 RMK AC1 SLP162

CYYG;2012-08-24 10:00;CYYG 241000Z 26006KT 15SM FEW140 17/16 A3002 RMK AC1 SLP167

CYYG;2012-08-24 11:00;CYYG 241100Z 28010KT 15SM FEW010 FEW120 18/17 A3004 RMK SF1CI1 SLP172

CYYG;2012-08-24 12:00;CYYG 241200Z 30008KT 15SM FEW012 20/16 A3005 RMK CF2 SLP175

CYYG;2012-08-24 13:00;CYYG 241300Z 31008KT 15SM FEW018 21/16 A3006 RMK CU2 OBS TAKEN +08 SLP179

CYYG;2012-08-24 14:00;CYYG 241400Z 30009KT 15SM BKN035 22/15 A3007 RMK CU6 SLP182

CYYG;2012-08-24 15:00;CYYG 241500Z 32009G17KT 15SM BKN035 22/15 A3009 RMK CU6 SLP189

CYYG;2012-08-24 16:00;CYYG 241600Z 30009KT 15SM BKN035 22/15 A3009 RMK CU7 SLP190

CYYG;2012-08-24 17:00;CYYG 241700Z 35010G16KT 15SM BKN022 20/15 A3011 RMK CU7 SLP195

CYYG;2012-08-24 18:00;CYYG 241800Z 34010G19KT 15SM BKN022 20/15 A3013 RMK CU7 SLP202

CYYG;2012-08-24 19:00;CYYG 241900Z 34010G18KT 15SM BKN028 20/14 A3014 RMK SC7 SLP207

CYYG;2012-08-24 20:00;CYYG 242000Z 33009G16KT 15SM BKN032 19/13 A3016 RMK SC7 SLP212

CYYG;2012-08-24 21:00;CYYG 242100Z 35007KT 15SM BKN024 18/13 A3017 RMK SC6 SLP215

CYYG;2012-08-24 22:00;CYYG 242200Z 34007KT 15SM SCT023 18/13 A3017 RMK SC3 SLP217

CYYG;2012-08-24 23:00;CYYG 242300Z 34006KT 15SM FEW028 17/13 A3018 RMK SC2 SLP221

CYYG;2012-08-25 00:00;CYYG 250000Z 33004KT 15SM FEW023 16/13 A3021 RMK SC2 SLP229

CYYG;2012-08-25 01:00;CYYG 250100Z 32004KT 15SM FEW032 15/13 A3023 RMK SC1 SLP235

CYYG;2012-08-25 02:00;CYYG 250200Z 31004KT 15SM SCT020 15/13 A3023 RMK CU3 SLP237

CYYG;2012-08-25 03:00;CYYG 250300Z 33004KT 15SM FEW022 14/13 A3024 RMK SC2 SLP239

CYYG;2012-08-25 04:00;CYYG 250400Z 35003KT 15SM FEW022 13/13 A3025 RMK SC2 SLP242

CYYG;2012-08-25 05:00;CYYG 250500Z 34003KT 15SM FEW022 13/12 A3026 RMK SC2 SLP246

CYYG;2012-08-25 06:00;CYYG 250600Z 34004KT 15SM SKC 12/12 A3027 RMK SLP251

CYYG;2012-08-25 07:00;CYYG 250700Z 30002KT 15SM SKC 11/11 A3028 RMK SLP254

CYYG;2012-08-25 08:00;CYYG 250800Z 27002KT 15SM SKC 11/10 A3029 RMK SLP257

CYYG;2012-08-25 09:00;CYYG 250900Z 33002KT 15SM MIFG FEW025 10/10 A3030 RMK CU1 SLP261

CYYG;2012-08-25 10:00;CYYG 251000Z 24002KT 15SM MIFG FEW025 FEW300 11/11 A3032 RMK SC1CI1 SLP268

CYYG;2012-08-25 11:00;CYYG 251100Z 30003KT 15SM FEW015 16/15 A3034 RMK CU1 SLP275

CYYG;2012-08-25 12:00;CYYG 251200Z 30004KT 15SM FEW018 19/14 A3035 RMK CU1 SLP278

CYYG;2012-08-25 13:00;CYYG 251300Z 00000KT 15SM FEW020 20/15 A3036 RMK CU2 SLP281

CYYG;2012-08-25 14:00;CYYG 251400Z 00000KT 15SM FEW022 21/14 A3037 RMK CU2 SLP284

CYYG;2012-08-25 15:00;CYYG 251500Z 27003KT 15SM SCT035 23/14 A3037 RMK CU3 SLP286

CYYG;2012-08-25 16:00;CYYG 251600Z 00000KT 15SM SCT040 22/13 A3036 RMK CU4 SLP282

CYYG;2012-08-25 17:00;CYYG 251700Z 21004KT 15SM BKN042 23/13 A3035 RMK SC5 SLP278

CYYG;2012-08-25 18:00;CYYG 251800Z 19006KT 15SM FEW045 22/13 A3034 RMK CU2 SLP276

CYYG;2012-08-25 19:00;CYYG 251900Z 18008KT 15SM FEW045 FEW250 23/13 A3034 RMK CU2CI1 SLP275

CYYG;2012-08-25 20:00;CYYG 252000Z 18005KT 15SM FEW045 FEW250 23/13 A3034 RMK CU1CI1 SLP274

CYYG;2012-08-25 21:00;CYYG 252100Z 17006KT 15SM FEW050 SCT250 23/12 A3033 RMK CU1CI1 SLP272

CYYG;2012-08-25 22:00;CYYG 252200Z 16004KT 15SM FEW050 FEW250 22/11 A3032 RMK CU1CI1 SLP269

CYYG;2012-08-25 23:00;CYYG 252300Z 18003KT 15SM FEW050 FEW250 21/09 A3034 RMK SC1CI1 SLP274

CYYG;2012-08-26 00:00;CYYG 260000Z 12004KT 15SM FEW050 FEW250 17/10 A3034 RMK SC1CI0 SLP276

CYYG;2012-08-26 01:00;CYYG 260100Z 15004KT 15SM FEW250 17/11 A3035 RMK CI1 SLP277

CYYG;2012-08-26 02:00;CYYG 260200Z 17009KT 15SM FEW250 18/15 A3035 RMK CI1 SLP277

CYYG;2012-08-26 03:00;CYYG 260300Z 18008KT 15SM FEW250 18/15 A3034 RMK CI1 SLP274

CYYG;2012-08-26 04:00;CYYG 260400Z 20011KT 15SM FEW250 18/13 A3034 RMK CI1 SLP273

CYYG;2012-08-26 05:00;CYYG 260500Z 21008KT 15SM FEW250 18/13 A3033 RMK CI1 SLP271

CYYG;2012-08-26 06:00;CYYG 260600Z 21008KT 15SM FEW250 17/13 A3033 RMK CI1 SLP270

CYYG;2012-08-26 07:00;CYYG 260700Z 20009KT 15SM FEW250 17/13 A3033 RMK CI1 SLP270

CYYG;2012-08-26 08:00;CYYG 260800Z 21007KT 15SM FEW250 17/14 A3032 RMK CI1 SLP268

CYYG;2012-08-26 09:00;CYYG 260900Z 22006KT 15SM FEW250 16/15 A3032 RMK CI1 SLP268

CYYG;2012-08-26 10:00;CYYG 261000Z 21009KT 15SM FEW250 17/15 A3032 RMK CI1 SLP268

CYYG;2012-08-26 11:00;CYYG 261100Z 21009KT 15SM FEW250 18/15 A3032 RMK CI1 SLP268

CYYG;2012-08-26 12:00;CYYG 261200Z 23007G16KT 15SM SCT250 19/14 A3032 RMK CI2 SLP267

CYYG;2012-08-26 13:00;CYYG 261300Z 21011KT 15SM FEW250 21/14 A3030 RMK CI1 SLP261

CYYG;2012-08-26 14:00;CYYG 261400Z 21015KT 15SM FEW250 22/14 A3029 RMK CI1 SLP259

CYYG;2012-08-26 15:00;CYYG 261500Z 21016KT 15SM FEW250 23/13 A3027 RMK CI1 SLP250

CYYG;2012-08-26 16:00;CYYG 261600Z 22015G22KT 15SM FEW250 24/13 A3025 RMK CI1 SLP244

CYYG;2012-08-26 17:00;CYYG 261700Z 22014G21KT 15SM FEW250 26/14 A3023 RMK CI1 SLP236

CYYG;2012-08-26 18:00;CYYG 261800Z 21012G20KT 15SM FEW250 26/15 A3021 RMK CI1 SLP231

CYYG;2012-08-26 19:00;CYYG 261900Z 21015G20KT 15SM FEW250 27/14 A3019 RMK CI1 SLP223

CYYG;2012-08-26 20:00;CYYG 262000Z 21016KT 15SM FEW250 26/14 A3017 RMK CI1 SLP217

CYYG;2012-08-26 21:00;CYYG 262100Z 22014G21KT 15SM SCT250 26/15 A3015 RMK CI1 SLP210

CYYG;2012-08-26 22:00;CYYG 262200Z 23010G16KT 15SM BKN250 24/15 A3015 RMK CI2 SLP209

CYYG;2012-08-26 23:00;CYYG 262300Z 24011KT 15SM BKN250 23/14 A3015 RMK CI2 SLP211

CYYG;2012-08-27 00:00;CYYG 270000Z 24011G19KT 15SM SCT250 22/12 A3015 RMK CI2 SLP211

CYYG;2012-08-27 01:00;CYYG 270100Z 23011G17KT 15SM SCT250 21/12 A3014 RMK CI2 SLP208

CYYG;2012-08-27 02:00;CYYG 270200Z 23011KT 15SM BKN260 20/13 A3013 RMK CI5 SLP203

CYYG;2012-08-27 03:00;CYYG 270300Z 22010KT 15SM BKN260 20/14 A3013 RMK CI3 SLP203

CYYG;2012-08-27 04:00;CYYG 270400Z 23011KT 15SM BKN260 19/14 A3012 RMK CI3 SLP201

CYYG;2012-08-27 05:00;CYYG 270500Z 23009KT 15SM SCT260 19/15 A3012 RMK CI2 SLP199

CYYG;2012-08-27 06:00;CYYG 270600Z 23011KT 15SM FEW260 19/15 A3012 RMK CI1 SLP198

CYYG;2012-08-27 07:00;CYYG 270700Z 23011KT 15SM FEW260 19/16 A3010 RMK CI1 SLP194

CYYG;2012-08-27 08:00;CYYG 270800Z 24012KT 15SM FEW260 19/16 A3010 RMK CI1 SLP192

CYYG;2012-08-27 09:00;CYYG 270900Z 24011KT 15SM BKN260 19/16 A3009 RMK CI3 SLP191

CYYG;2012-08-27 10:00;CYYG 271000Z 24010KT 15SM BKN260 18/17 A3009 RMK CI3 SLP191

CYYG;2012-08-27 11:00;CYYG 271100Z 24011KT 15SM BKN260 19/17 A3010 RMK CI2 SLP192

CYYG;2012-08-27 12:00;CYYG 271200Z 24010KT 15SM BKN260 21/18 A3009 RMK CI2 SLP191

CYYG;2012-08-27 13:00;CYYG 271300Z 24009KT 15SM BKN260 23/18 A3009 RMK CI2 SLP191

CYYG;2012-08-27 14:00;CYYG 271400Z 24009KT 15SM BKN260 24/19 A3009 RMK CI2 SLP189

CYYG;2012-08-27 15:00;CYYG 271500Z 22009KT 15SM BKN260 25/19 A3008 RMK CI2 SLP185

CYYG;2012-08-27 16:00;CYYG 271600Z 22012KT 15SM BKN260 26/19 A3006 RMK CI2 SLP179

CYYG;2012-08-27 17:00;CYYG 271700Z 21011KT 15SM BKN260 27/19 A3004 RMK CI2 SLP171

CYYG;2012-08-27 18:00;CYYG 271800Z 22012KT 15SM BKN260 28/19 A3001 RMK CI2 SLP162

CYYG;2012-08-27 19:00;CYYG 271900Z 22011G18KT 15SM SCT260 29/19 A2999 RMK CI2 SLP154

CYYG;2012-08-27 20:00;CYYG 272000Z 21012KT 15SM SCT260 28/18 A2997 RMK CI1 SLP148

CYYG;2012-08-27 21:00;CYYG 272100Z 23011G17KT 15SM FEW260 27/13 A2996 RMK CI1 SLP145

CYYG;2012-08-27 22:00;CYYG 272200Z 24008KT 15SM FEW260 25/18 A2995 RMK CI1 SLP141

CYYG;2012-08-27 23:00;CYYG 272300Z 23009KT 15SM FEW260 23/15 A2994 RMK CI2 SLP138

CYYG;2012-08-28 00:00;CYYG 280000Z 25010KT 15SM FEW260 22/13 A2995 RMK CI2 SLP143

CYYG;2012-08-28 01:00;CYYG 280100Z 22009KT 15SM FEW260 21/12 A2994 RMK CI2 SLP140

CYYG;2012-08-28 02:00;CYYG 280200Z 21008KT 15SM FEW260 19/11 A2993 RMK CI2 SLP135

CYYG;2012-08-28 03:00;CYYG 280300Z 22009KT 15SM FEW260 19/10 A2991 RMK CI2 SLP127

CYYG;2012-08-28 04:00;CYYG 280400Z 22011KT 15SM FEW260 19/10 A2990 RMK CI2 SLP123

CYYG;2012-08-28 05:00;CYYG 280500Z 22011KT 15SM SCT130 BKN260 19/11 A2988 RMK ACC3CI2 SLP117

CYYG;2012-08-28 06:00;CYYG 280600Z 21010KT 15SM BKN130 BKN260 18/12 A2985 RMK AC5CI2 SLP108

CYYG;2012-08-28 07:00;CYYG 280700Z 20011KT 15SM BKN130 BKN200 19/12 A2983 RMK AC5CI2 SLP100

CYYG;2012-08-28 08:00;CYYG 280800Z 21011KT 15SM BKN120 BKN260 19/12 A2982 RMK AC6CI2 SLP097

CYYG;2012-08-28 09:00;CYYG 280900Z 20011KT 15SM BKN100 18/15 A2981 RMK AC7 SLP093

CYYG;2012-08-28 10:00;CYYG 281000Z 21011KT 15SM BKN110 18/14 A2979 RMK AC7 SLP089

CYYG;2012-08-28 11:00;CYYG 281100Z 21011G17KT 15SM SCT014 BKN120 18/14 A2978 RMK SC3AC4 SLP083

CYYG;2012-08-28 11:36;CYYG 281136Z 21011G16KT 15SM -SHRA BKN014 OVC120 19/ RMK SC6AC2

CYYG;2012-08-28 12:00;CYYG 281200Z 20014KT 15SM -SHRA OVC013 18/15 A2975 RMK SC8 SLP073

CYYG;2012-08-28 13:00;CYYG 281300Z 19014G19KT 15SM -SHRA OVC012 18/17 A2972 RMK SC8 SLP065

CYYG;2012-08-28 14:00;CYYG 281400Z 20013G19KT 15SM -SHRA OVC011 19/18 A2971 RMK SC8 SLP059

CYYG;2012-08-28 15:00;CYYG 281500Z 22012G17KT 15SM -DZ OVC010 20/18 A2968 RMK SC8 SLP049

CYYG;2012-08-28 15:43;CYYG 281543Z 22012G19KT 15SM -DZ OVC008 20/ RMK SF8

CYYG;2012-08-28 16:00;CYYG 281600Z 22013G21KT 15SM -DZ OVC008 20/19 A2966 RMK SF8 SLP044

CYYG;2012-08-28 17:00;CYYG 281700Z 23012KT 15SM -DZ OVC007 20/19 A2964 RMK SF8 SLP036

CYYG;2012-08-28 17:43;CYYG 281743Z 23013KT 15SM SCT009 BKN024 BKN120 21/ RMK SF4SC2AC2

CYYG;2012-08-28 18:00;CYYG 281800Z 24008G17KT 15SM FEW009 BKN023 BKN120 22/20 A2962 RMK SF2SC4AC2 SLP029

CYYG;2012-08-28 19:00;CYYG 281900Z 24009KT 15SM BKN021 BKN120 23/19 A2960 RMK SC5AC2 SLP023

CYYG;2012-08-28 20:00;CYYG 282000Z 22010G15KT 15SM SCT021 BKN120 OVC160 22/19 A2957 RMK SC3AC3AC2 SLP014

CYYG;2012-08-28 21:00;CYYG 282100Z 21010KT 15SM FEW020 BKN100 OVC160 21/19 A2956 RMK SC2AC3AC3 SLP009

CYYG;2012-08-28 22:00;CYYG 282200Z 22011KT 15SM FEW038 BKN065 OVC120 20/18 A2955 RMK SC2SC4AC2 SLP007

CYYG;2012-08-28 22:28;CYYG 282228Z 22010KT 10SM -SHRA BKN040 OVC071 20/ RMK SC6AC2

CYYG;2012-08-28 22:36;CYYG 282236Z 23009KT 4SM +TSRA SCT007 OVC020CB 20/ RMK SF4CB4

CYYG;2012-08-28 22:47;CYYG 282247Z 21011KT 15SM -TSRA FEW007 BKN025CB BKN070 19/ RMK SF2CB4AC2 RERA

CYYG;2012-08-28 23:00;CYYG 282300Z 22008KT 15SM -TSRA FEW008 BKN022CB BKN070 19/19 A2956 RMK SF2CB4AC2 RERA SLP011

CYYG;2012-08-29 00:00;CYYG 290000Z 28006KT 15SM -SHRA FEW008 SCT022 OVC070 18/17 A2958 RMK SF1SC3AC4 RETS SLP015

CYYG;2012-08-29 00:31;CYYG 290031Z 28007KT 15SM FEW029 BKN049 18/ RMK SC2SC5

CYYG;2012-08-29 01:00;CYYG 290100Z 31008KT 15SM SCT049 BKN230 18/17 A2958 RMK SC4CI3 SLP017

CYYG;2012-08-29 02:00;CYYG 290200Z 32012KT 15SM SCT038 BKN230 18/14 A2959 RMK SC3CI4 SLP020

CYYG;2012-08-29 03:00;CYYG 290300Z 31008KT 15SM BKN044 OVC230 16/12 A2961 RMK SC6CI2 SLP026

CYYG;2012-08-29 04:00;CYYG 290400Z 30009KT 15SM BKN059 16/11 A2962 RMK SC7 SLP029

CYYG;2012-08-29 05:00;CYYG 290500Z 29009KT 15SM BKN061 15/10 A2961 RMK SC7 SLP028

CYYG;2012-08-29 06:00;CYYG 290600Z 26006KT 15SM BKN060 15/10 A2962 RMK SC6 SLP030

CYYG;2012-08-29 07:00;CYYG 290700Z 27006KT 15SM SCT060 13/09 A2962 RMK SC3 SLP030

CYYG;2012-08-29 08:00;CYYG 290800Z 28008KT 15SM FEW060 13/09 A2962 RMK SC2 SLP030

CYYG;2012-08-29 09:00;CYYG 290900Z 28008KT 15SM FEW060 12/09 A2962 RMK SC2 SLP031

CYYG;2012-08-29 10:00;CYYG 291000Z 28009KT 15SM FEW060 12/09 A2964 RMK SC2 SLP036

CYYG;2012-08-29 11:00;CYYG 291100Z 29008KT 15SM FEW030 14/10 A2965 RMK CU1 SLP041

CYYG;2012-08-29 12:00;CYYG 291200Z 30010G16KT 15SM FEW030 16/10 A2966 RMK CU1 SLP043

CYYG;2012-08-29 13:00;CYYG 291300Z 29010G16KT 15SM FEW030 FEW100 17/10 A2966 RMK CU1AC1 SLP044

CYYG;2012-08-29 14:00;CYYG 291400Z 29008G17KT 15SM FEW030 BKN058 18/10 A2967 RMK CU2SC4 SLP046

CYYG;2012-08-29 15:00;CYYG 291500Z 28008KT 15SM BKN040 17/09 A2966 RMK SC6 CU ASOCTD SLP045

CYYG;2012-08-29 16:00;CYYG 291600Z 29011G18KT 15SM BKN045 17/08 A2966 RMK SC6 CU ASOCTD SLP045

CYYG;2012-08-29 17:00;CYYG 291700Z 26012G21KT 15SM BKN055 17/07 A2966 RMK SC6 CU ASOCTD SLP044

CYYG;2012-08-29 18:00;CYYG 291800Z 29010G20KT 15SM BKN055 17/07 A2965 RMK SC6 CU ASOCTD SLP039

CYYG;2012-08-29 19:00;CYYG 291900Z 27011G18KT 15SM SCT055 19/08 A2963 RMK SC4 SLP034

CYYG;2012-08-29 20:00;CYYG 292000Z 28012G21KT 15SM FEW055 19/07 A2963 RMK SC2 SLP034

CYYG;2012-08-29 21:00;CYYG 292100Z 28012G21KT 15SM FEW060 19/07 A2962 RMK SC2 SLP030

CYYG;2012-08-29 22:00;CYYG 292200Z 27012KT 15SM FEW055 SCT079 19/09 A2963 RMK CU2AC2 SLP032

CYYG;2012-08-29 23:00;CYYG 292300Z 28013G18KT 15SM VCSH BKN050 18/09 A2965 RMK CU6 TCU ASOCTD SLP039

CYYG;2012-08-30 00:00;CYYG 300000Z 28003KT 15SM FEW050 15/10 A2969 RMK CU2 SLP053

CYYG;2012-08-30 00:40;CYYG 300040Z 34006KT 10SM -SHRA BKN045 15/ RMK CU6

CYYG;2012-08-30 01:00;CYYG 300100Z 33007KT 6SM +SHRA OVC038TCU 13/12 A2971 RMK TCU8 SLP060

CYYG;2012-08-30 01:09;CYYG 300109Z 35004KT 15SM BKN038TCU 13/ RERA RMK TCU6

CYYG;2012-08-30 01:19;CYYG 300119Z 00000KT 15SM -SHRA BKN040TCU 13/ RERA RMK TCU6

CYYG;2012-08-30 02:00;CYYG 300200Z 24005KT 15SM FEW040TCU BKN070 14/12 A2971 RERA RMK TCU2AC4 SLP061

CYYG;2012-08-30 03:00;CYYG 300300Z 24005KT 15SM FEW040 FEW070 14/12 A2971 RMK CU1AC2 SLP063

CYYG;2012-08-30 04:00;CYYG 300400Z 28008KT 15SM -SHRA BKN045 BKN085 15/11 A2972 RMK CU5AC1 SLP064

CYYG;2012-08-30 04:20;CYYG 300420Z 26006KT 15SM FEW045 SCT080 14/ RMK CU2AC2

CYYG;2012-08-30 05:00;CYYG 300500Z 25006KT 15SM FEW045 FEW080 13/11 A2972 RMK CU1AC1 SLP064

CYYG;2012-08-30 06:00;CYYG 300600Z 26007KT 15SM FEW045 FEW075 13/11 A2972 RMK CU1AC1 SLP064

CYYG;2012-08-30 07:00;CYYG 300700Z 25005KT 15SM FEW075 13/11 A2971 RMK AC1 SLP062

CYYG;2012-08-30 08:00;CYYG 300800Z 25005KT 15SM FEW075 FEW250 13/12 A2971 RMK AC1CI1 SLP062

CYYG;2012-08-30 09:00;CYYG 300900Z 25007KT 15SM FEW040 FEW250 13/12 A2972 RMK CU1CI1 SLP066

CYYG;2012-08-30 10:00;CYYG 301000Z 25007KT 15SM FEW040 SCT250 14/12 A2973 RMK CU1CI1 SLP069

CYYG;2012-08-30 11:00;CYYG 301100Z 25005KT 15SM FEW040 SCT250 16/14 A2974 RMK CU1CI1 SLP070

CYYG;2012-08-30 12:00;CYYG 301200Z 24010KT 15SM FEW040 SCT250 17/14 A2974 RMK SC1CI1 SLP071

CYYG;2012-08-30 13:00;CYYG 301300Z 23015KT 15SM FEW040 FEW250 18/14 A2973 RMK SC1CI1 SLP068

CYYG;2012-08-30 14:00;CYYG 301400Z 24012KT 15SM FEW280 20/15 A2972 RMK CI1 SLP064

CYYG;2012-08-30 15:00;CYYG 301500Z 22017G24KT 15SM FEW280 22/14 A2971 RMK CI2 SLP062

CYYG;2012-08-30 16:00;CYYG 301600Z 23014G21KT 15SM FEW280 24/14 A2971 RMK CI2 SLP060

CYYG;2012-08-30 17:00;CYYG 301700Z 25014G21KT 15SM FEW040 FEW280 24/14 A2971 RMK CU1CI1 SLP060

CYYG;2012-08-30 18:00;CYYG 301800Z 23015G24KT 15SM FEW075 SCT280 25/14 A2969 RMK AC2CI2 SLP055

CYYG;2012-08-30 19:00;CYYG 301900Z 24017G26KT 15SM FEW075 SCT280 25/14 A2970 RMK AC2CI2 SLP057

CYYG;2012-08-30 20:00;CYYG 302000Z 23014G21KT 15SM FEW075 BKN220 23/14 A2970 RMK AC2CI2 SLP056

CYYG;2012-08-30 21:00;CYYG 302100Z 24011G21KT 15SM FEW075 BKN220 BKN280 22/14 A2970 RMK AC2CI3CI2 SLP058

CYYG;2012-08-30 22:00;CYYG 302200Z 24015G23KT 15SM SCT050 BKN280 22/14 A2971 RMK SC3CI3 SLP062

CYYG;2012-08-30 23:00;CYYG 302300Z 24014G26KT 15SM FEW060 BKN130 BKN280 21/12 A2972 RMK SC1AC5CI0 SLP064

CYYG;2012-08-31 00:00;CYYG 310000Z 23012G18KT 15SM FEW060 SCT130 BKN280 20/13 A2974 RMK SC1AC2CI1 SLP070

CYYG;2012-08-31 01:00;CYYG 310100Z 24011G17KT 15SM BKN063 BKN120 20/13 A2975 RMK SC6AC2 SLP073

CYYG;2012-08-31 02:00;CYYG 310200Z 25009KT 15SM SCT060 BKN085 20/13 A2974 RMK SC3AC2 SLP072

CYYG;2012-08-31 03:00;CYYG 310300Z 23006KT 15SM FEW085 18/13 A2974 RMK AC2 SLP069

CYYG;2012-08-31 04:00;CYYG 310400Z 24007KT 15SM BKN110 18/13 A2974 RMK AC5 SLP070

CYYG;2012-08-31 05:00;CYYG 310500Z 24010KT 15SM SCT110 28/13 A2974 RMK AC3 SLP070

CYYG;2012-08-31 06:00;CYYG 310600Z 21009KT 15SM FEW110 BKN300 18/14 A2972 RMK AC1CI1 SLP065

CYYG;2012-08-31 07:00;CYYG 310700Z 20008KT 15SM BKN300 17/14 A2971 RMK CI1 SLP059

CYYG;2012-08-31 08:00;CYYG 310800Z 21008KT 15SM FEW200 BKN300 18/14 A2969 RMK CC2CI1 SLP053

CYYG;2012-08-31 09:00;CYYG 310900Z 19010KT 15SM BKN160 18/14 A2965 RMK AC7 CB DIST N FQT LTNG SLP041

CYYG;2012-08-31 10:00;CYYG 311000Z 20014KT 15SM FEW060 SCT160 BKN300 19/14 A2964 RMK SC1AC2CI0 SLP036

CYYG;2012-08-31 11:00;CYYG 311100Z 22011G20KT 15SM FEW064 FEW150 OVC300 20/15 A2964 RMK SC1AC2CI2 SLP038

CYYG;2012-08-31 12:00;CYYG 311200Z 22015KT 15SM FEW077 FEW150 OVC200 21/15 A2962 RMK AC2AC1CI2 SLP030

CYYG;2012-08-31 13:00;CYYG 311300Z 25012G22KT 15SM FEW072 BKN094 OVC200 21/15 A2966 RMK AC2AC6CI1 SLP043

CYYG;2012-08-31 14:00;CYYG 311400Z 24019G26KT 15SM BKN100 OVC200 21/15 A2966 RMK AC6CI2 SH DIST S-W SLP043

CYYG;2012-08-31 14:20;CYYG 311420Z 24014G24KT 15SM -SHRA BKN100 OVC200 21/ RMK AC5CI2

CYYG;2012-08-31 14:43;CYYG 311443Z 24016G21KT 15SM SCT100 OVC250 22/ RMK AC3CI3

CYYG;2012-08-31 15:00;CYYG 311500Z 24014G21KT 15SM SCT100 BKN250 22/16 A2964 RMK AC3CI3 SLP037

CYYG;2012-08-31 15:14;CYYG 311514Z 21014KT 15SM -SHRA SCT100 BKN250 22/ RMK AC3CI4

CYYG;2012-08-31 15:35;CYYG 311535Z 21013G19KT 15SM FEW100 FEW150 BKN250 22/ RMK AC1AC2CI2

CYYG;2012-08-31 16:00;CYYG 311600Z 23016G24KT 15SM FEW180 25/16 A2960 RMK AC2 SLP025

CYYG;2012-08-31 17:00;CYYG 311700Z 23012G18KT 15SM FEW300 27/16 A2960 RMK CI1 SLP024

CYYG;2012-08-31 18:00;CYYG 311800Z 24009G21KT 15SM BKN300 27/16 A2960 RMK CI2 SLP023

CYYG;2012-08-31 19:00;CYYG 311900Z 23020G26KT 15SM FEW110 BKN300 26/17 A2960 RMK ACC2CI2 SLP024

CYYG;2012-08-31 20:00;CYYG 312000Z 23017G27KT 15SM SCT100 BKN300 26/16 A2958 RMK AC3CI1 SLP017

CYYG;2012-08-31 21:00;CYYG 312100Z 23010G19KT 15SM BKN091 26/16 A2957 RMK AC6 SLP012

CYYG;2012-08-31 22:00;CYYG 312200Z 23008KT 15SM BKN082 BKN300 25/16 A2957 RMK ACC5CI0 SLP012

CYYG;2012-08-31 22:36;CYYG 312236Z 24009KT 15SM SCT080TCU BKN130 24/ RMK TCU3AC3 CB ASOCTD SE OCNL LTGCG

CYYG;2012-08-31 23:00;CYYG 312300Z 24011KT 15SM BKN090TCU 23/16 A2957 RMK TCU6 CB ASOCTD DIST SE SLP012

CYYG;2012-09-01 00:00;CYYG 010000Z 24010G19KT 15SM FEW090TCU SCT140 21/15 A2958 RMK TCU2AC2 CB DIST N OCNL LTGIC SLP017

CYYG;2012-09-01 01:00;CYYG 010100Z 26010G15KT 15SM BKN150 20/16 A2960 RMK AC6 ACC ASOCTD SLP023

CYYG;2012-09-01 02:00;CYYG 010200Z 26008KT 15SM SCT045 SCT140 19/16 A2962 RMK SC3AC1 SLP029

CYYG;2012-09-01 03:00;CYYG 010300Z 29007KT 15SM BKN085 20/16 A2964 RMK AC6 SLP036

CYYG;2012-09-01 04:00;CYYG 010400Z 30010G20KT 15SM FEW025 BKN110 19/13 A2966 RMK SC1AC6 SLP042

CYYG;2012-09-01 05:00;CYYG 010500Z 30010G17KT 15SM FEW025 FEW110 18/13 A2968 RMK SC1AC2 SLP049

CYYG;2012-09-01 06:00;CYYG 010600Z 29008KT 15SM FEW040 17/13 A2970 RMK CU1 SLP058

CYYG;2012-09-01 07:00;CYYG 010700Z 29009KT 15SM FEW040 16/12 A2972 RMK CU1 SLP064

CYYG;2012-09-01 08:00;CYYG 010800Z 30008KT 15SM SCT030 15/12 A2974 RMK CU3 SLP071

CYYG;2012-09-01 09:00;CYYG 010900Z 33014G24KT 15SM SCT022 15/11 A2977 RMK CU3 SLP081

CYYG;2012-09-01 10:00;CYYG 011000Z 33011G19KT 15SM BKN025 15/10 A2981 RMK CU5 SLP094

CYYG;2012-09-01 10:26;CYYG 011026Z 34017G23KT 15SM -SHRA BKN019 BKN026 BKN041 14/ RMK CU5SC1SC1

CYYG;2012-09-01 11:00;CYYG 011100Z 34011G18KT 15SM -SHRA BKN017 14/12 A2985 RMK SC6 SLP109

CYYG;2012-09-01 12:00;CYYG 011200Z 33013G25KT 15SM -SHRA FEW021 16/10 A2988 RMK SC2 SLP120

CYYG;2012-09-01 13:00;CYYG 011300Z 34014G25KT 15SM -SHRA SCT023 16/11 A2990 RMK CU3 SLP127

CYYG;2012-09-01 13:31;CYYG 011331Z 35016G27KT 15SM SCT028 17/ RMK CU3

CYYG;2012-09-01 14:00;CYYG 011400Z 33019G26KT 15SM SCT027 17/10 A2993 RMK CU4 SLP136

CYYG;2012-09-01 15:00;CYYG 011500Z 34017G29KT 15SM SCT024 17/10 A2995 RMK CU4 SLP142

CYYG;2012-09-01 16:00;CYYG 011600Z 34013G25KT 15SM BKN027 16/10 A2998 RMK CU6 SLP151

CYYG;2012-09-01 17:00;CYYG 011700Z 35015G25KT 15SM SCT026 16/09 A2999 RMK CU3 SLP156

CYYG;2012-09-01 18:00;CYYG 011800Z 33014G28KT 15SM FEW030 16/07 A3001 RMK CU2 SLP161

CYYG;2012-09-01 19:00;CYYG 011900Z 34013G24KT 15SM FEW030 FEW300 16/07 A3003 RMK CU1CI0 SLP168

CYYG;2012-09-01 20:00;CYYG 012000Z 35014G23KT 15SM FEW030 FEW300 16/05 A3004 RMK CU1CI0 SLP172

CYYG;2012-09-01 21:00;CYYG 012100Z 36012G17KT 15SM FEW030 FEW300 16/03 A3004 RMK CU1CI0 SLP171

CYYG;2012-09-01 22:00;CYYG 012200Z 36014G20KT 15SM FEW030 15/05 A3005 RMK CU1 SLP177

CYYG;2012-09-01 23:00;CYYG 012300Z 36007KT 15SM FEW030 13/05 A3008 RMK SC1 SLP186

CYYG;2012-09-02 00:00;CYYG 020000Z 36006KT 15SM SKC 12/05 A3010 RMK SLP193

CYYG;2012-09-02 01:00;CYYG 020100Z 29004KT 15SM SKC 11/06 A3011 RMK SLP198

CYYG;2012-09-02 02:00;CYYG 020200Z 30004KT 15SM SKC 10/06 A3013 RMK SLP205

CYYG;2012-09-02 03:00;CYYG 020300Z 00000KT 15SM SKC 07/06 A3014 RMK SLP207

CYYG;2012-09-02 04:00;CYYG 020400Z 17004KT 15SM SKC 07/05 A3013 RMK SLP205

CYYG;2012-09-02 05:00;CYYG 020500Z 25005KT 15SM FEW030 09/05 A3014 RMK SC1 SLP207

CYYG;2012-09-02 06:00;CYYG 020600Z 27004KT 15SM FEW030 09/05 A3015 RMK SC1 SLP210

CYYG;2012-09-02 07:00;CYYG 020700Z 27004KT 15SM FEW030 08/05 A3015 RMK SC1 SLP210

CYYG;2012-09-02 08:00;CYYG 020800Z 26005KT 15SM FEW030 FEW300 09/05 A3015 RMK SC1CI0 SLP212

CYYG;2012-09-02 09:00;CYYG 020900Z 27005KT 15SM FEW030 FEW300 09/05 A3016 RMK SC1CI1 SLP215

CYYG;2012-09-02 10:00;CYYG 021000Z 27003KT 15SM FEW020 FEW030 BKN300 09/05 A3018 RMK CU1SC1CI2 SLP220

CYYG;2012-09-02 11:00;CYYG 021100Z 26004KT 15SM FEW020 FEW030 BKN300 13/06 A3019 RMK CU1SC1CI2 SLP225

CYYG;2012-09-02 12:00;CYYG 021200Z 24003KT 15SM FEW030 BKN300 15/07 A3020 RMK SC2CI1 SLP227

CYYG;2012-09-02 13:00;CYYG 021300Z 24003KT 15SM FEW030 FEW040 BKN300 15/06 A3020 RMK CU1SC1CI2 SLP228

CYYG;2012-09-02 14:00;CYYG 021400Z 15003KT 15SM FEW040 BKN300 16/08 A3020 RMK SC2CI2 SLP229

CYYG;2012-09-02 15:00;CYYG 021500Z 16008KT 15SM FEW040 BKN300 17/07 A3020 RMK CU2CI2 OBS TAKEN +08 SLP229

CYYG;2012-09-02 16:00;CYYG 021600Z 21004KT 15SM FEW040 BKN300 17/07 A3020 RMK CU2CI2 SLP226

CYYG;2012-09-02 17:00;CYYG 021700Z 15006KT 15SM FEW040 BKN300 18/08 A3019 RMK CU2CI2 SLP223

CYYG;2012-09-02 18:00;CYYG 021800Z 13005KT 15SM FEW040 BKN300 18/07 A3018 RMK CU2CI2 OBS TAKEN +24 SLP220

CYYG;2012-09-02 19:00;CYYG 021900Z 19005KT 15SM FEW040 BKN300 18/07 A3018 RMK CU1CI2 SLP220

CYYG;2012-09-02 20:00;CYYG 022000Z 15005KT 15SM FEW040 BKN300 18/06 A3017 RMK CU1CI2 SLP217

CYYG;2012-09-02 21:00;CYYG 022100Z 13006KT 15SM FEW040 BKN300 18/04 A3017 RMK CU1CI1 SLP217

CYYG;2012-09-02 22:00;CYYG 022200Z 11004KT 15SM FEW040 FEW100 BKN300 15/04 A3017 RMK CU1AC1CI1 SLP218

CYYG;2012-09-02 23:00;CYYG 022300Z 11004KT 15SM FEW040 SCT100 14/05 A3017 RMK SC2AC2 SLP219

CYYG;2012-09-03 00:00;CYYG 030000Z 12004KT 15SM FEW040 SCT100 12/06 A3020 RMK SC2AC2 SLP226

CYYG;2012-09-03 01:00;CYYG 030100Z 13004KT 15SM BKN063 13/08 A3020 RMK SC5 SLP227

CYYG;2012-09-03 02:00;CYYG 030200Z 17006KT 15SM FEW063 SCT100 13/10 A3019 RMK SC2AC1 SLP225

CYYG;2012-09-03 03:00;CYYG 030300Z 20008KT 15SM FEW060 FEW100 14/10 A3019 RMK SC2AC1 SLP224

CYYG;2012-09-03 04:00;CYYG 030400Z 20006KT 15SM FEW060 FEW100 14/09 A3020 RMK SC2AC1 SLP227

CYYG;2012-09-03 05:00;CYYG 030500Z 20007KT 15SM FEW060 FEW100 14/10 A3018 RMK SC2AC1 SLP221

CYYG;2012-09-03 06:00;CYYG 030600Z 20007KT 15SM FEW060 FEW100 14/10 A3018 RMK SC2AC1 SLP222

CYYG;2012-09-03 07:00;CYYG 030700Z 20006KT 15SM FEW063 13/11 A3019 RMK SC2 SLP224

CYYG;2012-09-03 08:00;CYYG 030800Z 22005KT 15SM FEW060 13/11 A3020 RMK SC1 SLP226

CYYG;2012-09-03 09:00;CYYG 030900Z 21006KT 15SM FEW060 13/11 A3019 RMK SC2 SLP224

CYYG;2012-09-03 10:00;CYYG 031000Z 22006KT 15SM FEW060 FEW100 13/11 A3020 RMK SC2AC1 SLP229

CYYG;2012-09-03 11:00;CYYG 031100Z 21006KT 15SM FEW015 FEW030 FEW100 14/12 A3021 RMK SC1CU1AC1 MDT CU N SLP232

CYYG;2012-09-03 11:44;CYYG 031144Z 22007KT 15SM SCT010 SCT030 16/ RMK SC3CU1 SC INVDG FM W

CYYG;2012-09-03 12:00;CYYG 031200Z 23008KT 15SM BKN010 BKN030 16/13 A3021 RMK SC5CU1 SLP232

CYYG;2012-09-03 13:00;CYYG 031300Z 25005KT 15SM BKN014 16/14 A3021 RMK SC6 CU EMBDD SLP231

CYYG;2012-09-03 14:00;CYYG 031400Z 22004KT 15SM BKN019 17/13 A3021 RMK SC5 MDT CU ASOCTD SLP230

CYYG;2012-09-03 15:00;CYYG 031500Z 21007KT 15SM BKN022 19/14 A3020 RMK SC5 MDT CU ASOCTD SLP226

CYYG;2012-09-03 16:00;CYYG 031600Z 18011KT 15SM BKN030 20/14 A3018 RMK SC5 OBS TAKEN +14 MDT CU ASOCTD SLP221

CYYG;2012-09-03 17:00;CYYG 031700Z 19008KT 15SM BKN048 19/14 A3017 RMK SC5 MDT CU ASOCTD SLP219

CYYG;2012-09-03 18:00;CYYG 031800Z 23007KT 15SM SCT044 SCT250 20/12 A3015 RMK CU3CI1 MDT CU SLP211

CYYG;2012-09-03 19:00;CYYG 031900Z 00000KT 15SM FEW045 SCT250 20/12 A3014 RMK CU2CI1 SLP208

CYYG;2012-09-03 20:00;CYYG 032000Z 13004KT 15SM FEW055 SCT250 20/13 A3014 RMK SC2CI1 CU ASOCTD SLP208

CYYG;2012-09-03 21:00;CYYG 032100Z 17007KT 15SM FEW055 BKN250 19/12 A3013 RMK SC2CI0 SLP204

CYYG;2012-09-03 22:00;CYYG 032200Z 18005KT 15SM FEW070 BKN250 19/12 A3013 RMK AC2CI1 SLP202

CYYG;2012-09-03 23:00;CYYG 032300Z 17004KT 15SM BKN075 17/13 A3013 RMK AC5 SLP203

CYYG;2012-09-04 00:00;CYYG 040000Z 15004KT 15SM BKN075 17/14 A3013 RMK AC7 SLP203

CYYG;2012-09-04 01:00;CYYG 040100Z 24002KT 15SM BKN068 13/12 A3014 RMK AC5 SLP205

CYYG;2012-09-04 02:00;CYYG 040200Z 21004KT 15SM BKN068 15/13 A3012 RMK AC5 SLP199

CYYG;2012-09-04 03:00;CYYG 040300Z 23005KT 15SM SCT068 15/13 A3012 RMK AC4 SLP198

CYYG;2012-09-04 04:00;CYYG 040400Z 21004KT 15SM FEW068 14/13 A3011 RMK AC2 SLP197

CYYG;2012-09-04 05:00;CYYG 040500Z 22005KT 15SM FEW068 14/14 A3011 RMK AC2 SLP197

CYYG;2012-09-04 06:00;CYYG 040600Z 23005KT 15SM FEW068 14/14 A3011 RMK AC2 SLP195

CYYG;2012-09-04 07:00;CYYG 040700Z 24007KT 15SM FEW004 SCT065 14/14 A3010 RMK SF2SC2 SLP192

CYYG;2012-09-04 08:00;CYYG 040800Z 24008KT 15SM FEW004 SCT065 14/14 A3010 RMK SF2SC2 SLP193

CYYG;2012-09-04 09:00;CYYG 040900Z 23005KT 15SM FEW004 FEW065 14/14 A3009 RMK SF1SC2 SLP189

CYYG;2012-09-04 10:00;CYYG 041000Z 25005KT 15SM FEW065 BKN270 14/14 A3009 RMK SC2CI1 SLP190

CYYG;2012-09-04 10:47;CYYG 041047Z 23005KT 15SM FEW004 BKN270 15/ RMK SF1CI2

CYYG;2012-09-04 11:00;CYYG 041100Z 24006KT 15SM FEW004 BKN270 15/15 A3010 RMK SF1CI2 SLP193

CYYG;2012-09-04 12:00;CYYG 041200Z 22005KT 15SM FEW004 BKN270 17/15 A3010 RMK SF1CI2 SLP194

CYYG;2012-09-04 13:00;CYYG 041300Z 22005KT 15SM FEW008 BKN270 19/16 A3010 RMK SF1CI1 SLP192

CYYG;2012-09-04 14:00;CYYG 041400Z 20006KT 15SM FEW010 BKN270 21/16 A3009 RMK SC1CI2 SLP188

CYYG;2012-09-04 15:00;CYYG 041500Z 18008KT 15SM FEW015 BKN270 22/17 A3007 RMK CF1CI2 SLP184

CYYG;2012-09-04 16:00;CYYG 041600Z 20010KT 15SM FEW020 BKN270 22/17 A3006 RMK CF1CI2 SLP178

CYYG;2012-09-04 17:00;CYYG 041700Z 24011KT 15SM FEW025 FEW160 BKN270 23/15 A3004 RMK SC1AC1CI2 SLP172

CYYG;2012-09-04 18:00;CYYG 041800Z 24010KT 15SM FEW030 BKN160 BKN270 23/15 A3003 RMK SC1AC5CI0 SLP170

CYYG;2012-09-04 19:00;CYYG 041900Z 23010KT 15SM FEW030 SCT160 BKN270 24/14 A3001 RMK SC1AC3CI0 SLP164

CYYG;2012-09-04 20:00;CYYG 042000Z 24009G17KT 15SM FEW035 FEW160 BKN270 24/14 A3001 RMK SC1AC1CI1 SLP162

CYYG;2012-09-04 21:00;CYYG 042100Z 25009G16KT 15SM FEW160 SCT270 23/15 A3000 RMK AC2CI0 SLP160

CYYG;2012-09-04 22:00;CYYG 042200Z 22011KT 15SM FEW170 SCT270 21/15 A3000 RMK AC2CI0 SLP160

CYYG;2012-09-04 23:00;CYYG 042300Z 21006KT 15SM SCT170 BKN270 19/16 A3001 RMK AC3CI1 SLP161

CYYG;2012-09-05 00:00;CYYG 050000Z 21008KT 15SM BKN150 20/15 A3000 RMK AC6 SLP160

CYYG;2012-09-05 01:00;CYYG 050100Z 23008KT 15SM BKN180 19/14 A2999 RMK AC6 SLP157

CYYG;2012-09-05 02:00;CYYG 050200Z 24010KT 15SM BKN180 18/13 A2999 RMK AC6 SLP157

CYYG;2012-09-05 03:00;CYYG 050300Z 24010KT 15SM BKN150 BKN300 18/14 A2999 RMK AC5CI1 SLP156

CYYG;2012-09-05 04:00;CYYG 050400Z 24010KT 15SM BKN170 OVC220 17/15 A2998 RMK AC5CI2 SLP153

CYYG;2012-09-05 05:00;CYYG 050500Z 22007KT 15SM FEW170 OVC220 17/15 A2998 RMK AC2CS2 SLP152

CYYG;2012-09-05 06:00;CYYG 050600Z 23009KT 15SM OVC240 17/15 A2998 RMK CC6 SLP152

CYYG;2012-09-05 07:00;CYYG 050700Z 23008KT 15SM BKN160 OVC210 16/15 A2998 RMK AC5CS2 SLP152

CYYG;2012-09-05 08:00;CYYG 050800Z 24007KT 15SM BKN160 BKN230 17/15 A2998 RMK AC6CI2 SLP153

CYYG;2012-09-05 09:00;CYYG 050900Z 22007KT 15SM BKN150 BKN230 16/15 A2998 RMK AC6CI2 SLP152

CYYG;2012-09-05 10:00;CYYG 051000Z 22011KT 15SM FEW086 BKN160 16/15 A2998 RMK AC2AC6 SLP154

CYYG;2012-09-05 11:00;CYYG 051100Z 23007KT 15SM FEW086 OVC110 17/13 A2999 RMK AC1AS7 SLP156

CYYG;2012-09-05 11:50;CYYG 051150Z 21012KT 15SM -RA OVC080 17/ RMK AS8

CYYG;2012-09-05 12:00;CYYG 051200Z 20011KT 15SM -RA FEW015 OVC080 16/12 A2999 RMK SC1AS7 SLP156

CYYG;2012-09-05 13:00;CYYG 051300Z 17010KT 15SM -RA FEW015 OVC110 16/14 A2999 RMK SC2AS6 SLP155

CYYG;2012-09-05 14:00;CYYG 051400Z 16010G18KT 10SM -RA FEW007 FEW015 OVC110 15/14 A2997 RMK SF1SC1AS6 SLP149

CYYG;2012-09-05 15:00;CYYG 051500Z 14009G15KT 12SM -RA FEW011 BKN017 OVC095 15/14 A2995 RMK SF1SC6AS1 SLP142

CYYG;2012-09-05 15:12;CYYG 051512Z 14012KT 8SM -RA OVC011 15/ RMK SC8

CYYG;2012-09-05 15:38;CYYG 051538Z 13009KT 5SM -RA BR SCT008 OVC011 14/ RMK SF3SC5

CYYG;2012-09-05 16:00;CYYG 051600Z 12011G16KT 3SM RA BR BKN009 OVC014 14/14 A2993 RMK SF5SC3 SLP134

CYYG;2012-09-05 16:42;CYYG 051642Z 13011KT 2 1/2SM +RA BR SCT005 OVC009 14/ RMK SF3NS5

CYYG;2012-09-05 17:00;CYYG 051700Z 12012KT 2 1/2SM +RA BR BKN004 OVC008 14/14 A2991 RMK SF6NS2 /R11/ SLP128

CYYG;2012-09-05 18:00;CYYG 051800Z 10010KT 2SM +RA BR FEW003 OVC006 14/14 A2986 RMK SF2NS6 /R22/ SLP112

CYYG;2012-09-05 19:00;CYYG 051900Z 07011KT 2 1/2SM RA BR FEW003 BKN008 OVC022 14/14 A2985 RERA RMK SF2SC6SC1 /R20/ SLP108

CYYG;2012-09-05 19:31;CYYG 051931Z 06014KT 2 1/2SM +RA BR SCT008 OVC021 14/ RMK SF3NS5

CYYG;2012-09-05 20:00;CYYG 052000Z 07012KT 2 1/2SM +RA BR BKN008 OVC020 14/14 A2982 RMK SF6NS2 /R30/ SLP100

CYYG;2012-09-05 20:33;CYYG 052033Z 09020G25KT 5SM -RA BR BKN007 OVC031 15/ RERA RMK SF6NS2

CYYG;2012-09-05 21:00;CYYG 052100Z 09015G27KT 12SM -RA FEW007 BKN009 OVC024 15/14 A2976 RERA RMK SF1SC6NS2 G28 PST HR PRESFR SLP078

CYYG;2012-09-05 21:35;CYYG 052135Z 08015G24KT 2 1/2SM -RA BR BKN007 OVC021 15/ RMK SF6NS2

CYYG;2012-09-05 22:00;CYYG 052200Z 09012G26KT 2SM -RA BR BKN006 OVC019 15/15 A2973 RERA RMK SF7NS1 G28 PST HR SLP068

CYYG;2012-09-05 23:00;CYYG 052300Z 09017G29KT 3SM RA BR BKN004 OVC017 15/15 A2971 RMK SF6SC2 SLP062

CYYG;2012-09-06 00:00;CYYG 060000Z 09017G24KT 5SM -RA BR BKN004 OVC014 15/15 A2969 RERA RMK SF6SC2 SLP056

CYYG;2012-09-06 00:41;CYYG 060041Z 09012G20KT 15SM -DZ OVC004 15/ RMK SF8

CYYG;2012-09-06 01:00;CYYG 060100Z 08013G20KT 15SM OVC005 16/15 A2968 RMK SF8 SLP052

CYYG;2012-09-06 01:27;CYYG 060127Z 07012KT 15SM -DZ OVC004 16/ RMK SF8

CYYG;2012-09-06 02:00;CYYG 060200Z 06009KT 5SM -DZ BR OVC003 16/16 A2968 RMK ST8 SLP051

CYYG;2012-09-06 02:52;CYYG 060252Z 05007KT 5SM BR OVC003 16/ RMK ST8

CYYG;2012-09-06 03:00;CYYG 060300Z 05008KT 5SM BR OVC002 16/16 A2966 RMK ST8 SLP043

CYYG;2012-09-06 03:22;CYYG 060322Z 02007KT 1SM BR OVC002 16/ RMK ST8

CYYG;2012-09-06 04:00;CYYG 060400Z 03004KT 1SM BR OVC002 16/16 A2964 RMK ST8 SLP037

CYYG;2012-09-06 05:00;CYYG 060500Z 04003KT 2SM -RA BR OVC002 17/17 A2963 RMK SF8 SLP036

CYYG;2012-09-06 06:00;CYYG 060600Z 06007KT 10SM -RA BKN002 OVC013 17/17 A2963 RMK SF6SC2 SLP036

CYYG;2012-09-06 06:14;CYYG 060614Z 05005KT 10SM -DZ BKN003 OVC012 17/ RMK SF6SC2

CYYG;2012-09-06 07:00;CYYG 060700Z 07006KT 3SM BR OVC002 17/17 A2962 RMK ST8 SLP032

CYYG;2012-09-06 07:52;CYYG 060752Z 04002KT 2SM -DZ BR OVC002 17/ RMK ST8

CYYG;2012-09-06 08:00;CYYG 060800Z 05002KT 2SM -DZ BR OVC002 17/17 A2963 RMK ST8 SLP036

CYYG;2012-09-06 09:00;CYYG 060900Z 08003KT 1SM -DZ BR OVC002 18/18 A2963 RMK ST8 SLP035

CYYG;2012-09-06 09:03;CYYG 060903Z 10003KT 1/2SM -DZ FG VV002 18/ RMK FG8

CYYG;2012-09-06 10:00;CYYG 061000Z 08003KT 1/2SM -DZ FG VV002 17/17 A2965 RMK FG8 SLP041

CYYG;2012-09-06 10:43;CYYG 061043Z 05005KT 1SM -RA BR BKN002 OVC005 17/ RMK SF5SF3

CYYG;2012-09-06 11:00;CYYG 061100Z 03007KT 2SM -RA BR OVC003 18/18 A2967 RMK SF8 SLP048

CYYG;2012-09-06 12:00;CYYG 061200Z 04009KT 3SM -RA BR OVC004 18/18 A2967 RMK SF8 SLP047

CYYG;2012-09-06 12:40;CYYG 061240Z 06010KT 5SM BR OVC005 18/ RMK SF8

CYYG;2012-09-06 13:00;CYYG 061300Z 05011KT 6SM BR OVC006 18/18 A2968 RMK SF8 SLP050

CYYG;2012-09-06 14:00;CYYG 061400Z 06007KT 10SM OVC004 18/18 A2969 RMK SF8 SLP055

CYYG;2012-09-06 15:00;CYYG 061500Z 03007KT 3SM BR OVC006 19/18 A2968 RMK SF8 SLP049

CYYG;2012-09-06 15:15;CYYG 061515Z 01006KT 3SM -DZ BR OVC005 19/ RMK SF8

CYYG;2012-09-06 15:53;CYYG 061553Z 03010KT 3SM -DZ BR OVC004 19/ RMK SF8

CYYG;2012-09-06 16:00;CYYG 061600Z 02009KT 3SM -DZ BR OVC004 19/18 A2967 RMK SF8 SLP046

CYYG;2012-09-06 17:00;CYYG 061700Z 03010KT 3SM -DZ BR OVC004 19/19 A2966 RMK SF8 SLP045

CYYG;2012-09-06 18:00;CYYG 061800Z 01006KT 3SM -DZ BR OVC005 19/18 A2968 RMK SF8 SLP049

CYYG;2012-09-06 18:16;CYYG 061816Z 36006KT 1 1/2SM -DZ BR OVC004 18/ RMK SF8

CYYG;2012-09-06 19:00;CYYG 061900Z 01009KT 2SM -DZ BR OVC004 19/19 A2966 RMK SF8 SLP043

CYYG;2012-09-06 20:00;CYYG 062000Z 01005KT 3SM -DZ BR OVC006 19/18 A2969 RMK SF8 SLP052

CYYG;2012-09-06 21:00;CYYG 062100Z 01008KT 10SM OVC006 18/18 A2968 RMK SF8 SLP050

CYYG;2012-09-06 21:37;CYYG 062137Z 02009KT 15SM BKN008 OVC033 18/ RMK SF6SC2

CYYG;2012-09-06 22:00;CYYG 062200Z 36005KT 15SM BKN009 OVC033 18/17 A2969 RMK SF7SC1 SLP052

CYYG;2012-09-06 23:00;CYYG 062300Z 35004KT 15SM SCT007 BKN014 OVC075 17/17 A2969 RMK SC3SC2AC2 SLP054

CYYG;2012-09-06 23:24;CYYG 062324Z 32004KT 15SM BKN007 OVC060 17/ RMK SF6SC2

CYYG;2012-09-07 00:00;CYYG 070000Z 35004KT 10SM FEW006 SCT009 BKN020 OVC060 17/17 A2971 RMK SF2SC2SC3SC2 SLP060

CYYG;2012-09-07 00:46;CYYG 070046Z 32004KT 6SM -DZ BR BKN005 OVC045 17/ RMK SF6SC2

CYYG;2012-09-07 01:00;CYYG 070100Z 32005KT 4SM -DZ BR BKN005 OVC040 17/17 A2972 RMK SF6SC2 SLP064

CYYG;2012-09-07 01:27;CYYG 070127Z 34004KT 6SM -DZ BR BKN004 OVC060 17/ RMK SF7SC1

CYYG;2012-09-07 02:00;CYYG 070200Z 33004KT 8SM -DZ BKN006 OVC060 17/17 A2971 RMK SF6SC2 SLP062

CYYG;2012-09-07 03:00;CYYG 070300Z 32007KT 8SM BKN006 OVC010 16/16 A2972 RMK SF5SC3 SLP064

CYYG;2012-09-07 04:00;CYYG 070400Z 34006KT 10SM BKN007 OVC040 16/16 A2972 RMK SF6SC2 SLP064

CYYG;2012-09-07 05:00;CYYG 070500Z 33007KT 10SM BKN006 BKN009 OVC038 16/16 A2973 RMK SF6SC2SC1 SLP067

CYYG;2012-09-07 06:00;CYYG 070600Z 34008KT 4SM -DZ BR BKN003 OVC010 15/15 A2974 RMK SF6SC2 SLP073

CYYG;2012-09-07 07:00;CYYG 070700Z 34009KT 6SM -DZ BR BKN004 OVC010 15/15 A2977 RMK SF6SC2 SLP081

CYYG;2012-09-07 08:00;CYYG 070800Z 35005KT 6SM -DZ BR BKN004 OVC010 15/15 A2979 RMK SF6SC2 SLP088

CYYG;2012-09-07 09:00;CYYG 070900Z 35007KT 10SM -DZ BKN008 OVC040 15/15 A2981 RMK SF6SC2 SLP094

CYYG;2012-09-07 10:00;CYYG 071000Z 35006KT 12SM VCSH FEW008 BKN015 OVC040 15/14 A2984 RMK SF2SC4SC2 VIS LWR NE-E SLP104

CYYG;2012-09-07 10:05;CYYG 071005Z 35006KT 4SM -DZ BR FEW008 OVC010 15/ RMK SF2SC6

CYYG;2012-09-07 11:00;CYYG 071100Z 36007KT 15SM FEW008 BKN015 BKN047 15/15 A2985 RMK SF2SC3SC2 SLP110

CYYG;2012-09-07 12:00;CYYG 071200Z 36008KT 15SM FEW008 BKN019 BKN047 17/15 A2987 RMK SF1SC5SC2 SLP114

CYYG;2012-09-07 13:00;CYYG 071300Z 34007KT 15SM VCSH BKN016 BKN047 18/15 A2989 RMK SC6SC2 SLP121

CYYG;2012-09-07 13:22;CYYG 071322Z 36013KT 15SM -SHRA BKN019 BKN045 18/ RMK SC6SC2

CYYG;2012-09-07 14:00;CYYG 071400Z 32008KT 15SM -SHRA BKN022 17/15 A2990 RMK SC7 SLP126

CYYG;2012-09-07 15:00;CYYG 071500Z 32004KT 15SM BKN023 18/15 A2990 RMK SC7 SLP127

CYYG;2012-09-07 16:00;CYYG 071600Z 32004KT 15SM OVC020 18/15 A2991 RMK SC8 SLP128

CYYG;2012-09-07 17:00;CYYG 071700Z 32005KT 15SM OVC021 18/14 A2991 RMK SC8 SLP128

CYYG;2012-09-07 18:00;CYYG 071800Z 32004KT 15SM BKN024 18/15 A2990 RMK SC7 SLP127

CYYG;2012-09-07 19:00;CYYG 071900Z 02002KT 15SM BKN024 19/15 A2990 RMK SC7 SLP126

CYYG;2012-09-07 20:00;CYYG 072000Z 26005KT 15SM BKN022 19/15 A2991 RMK SC7 SLP129

CYYG;2012-09-07 21:00;CYYG 072100Z 23005KT 15SM BKN025 19/15 A2991 RMK SC7 SLP128

CYYG;2012-09-07 22:00;CYYG 072200Z 22004KT 15SM SCT025 BKN070 19/14 A2991 RMK SC3AC4 SLP128

CYYG;2012-09-07 23:00;CYYG 072300Z 19003KT 15SM BKN032 18/15 A2993 RMK SC6 SLP134

CYYG;2012-09-08 00:00;CYYG 080000Z 14002KT 15SM BKN033 17/15 A2993 RMK SC6 SLP136

CYYG;2012-09-08 01:00;CYYG 080100Z 13004KT 15SM SCT030 16/15 A2992 RMK SC3 SLP133

CYYG;2012-09-08 02:00;CYYG 080200Z 20002KT 15SM FEW020 BKN034 BKN090 15/15 A2994 RMK SC2SC3AC1 SLP140

CYYG;2012-09-08 03:00;CYYG 080300Z 15005KT 15SM FEW020 BKN045 16/15 A2995 RMK SC2SC4 SLP141

CYYG;2012-09-08 04:00;CYYG 080400Z 16004KT 15SM FEW020 SCT045 15/15 A2994 RMK SC2SC2 SLP140

CYYG;2012-09-08 05:00;CYYG 080500Z 22004KT 15SM BKN018 16/16 A2994 RMK SC2 SLP138

CYYG;2012-09-08 05:33;CYYG 080533Z 23004KT 12SM BKN004 16/ RMK SF6

CYYG;2012-09-08 06:00;CYYG 080600Z 22006KT 10SM BKN004 17/17 A2994 RMK SF6 SLP138

CYYG;2012-09-08 07:00;CYYG 080700Z 23006KT 10SM VCFG OVC003 17/17 A2995 RMK ST8 VIS LWR SW-NW SLP142

CYYG;2012-09-08 07:26;CYYG 080726Z 24006KT 2SM BR OVC002 17/ RMK FG2SF6

CYYG;2012-09-08 08:00;CYYG 080800Z 22006KT 5SM BR OVC003 17/17 A2994 RMK SF8 VIS LWR SW-NW SLP140

CYYG;2012-09-08 09:00;CYYG 080900Z 22006KT 2SM BR OVC002 17/17 A2995 RMK SF8 SLP142

CYYG;2012-09-08 10:00;CYYG 081000Z 20007KT 1SM R03/P6000FT/U BR OVC002 17/17 A2998 RMK ST8 SLP152

CYYG;2012-09-08 10:11;CYYG 081011Z 21007KT 8SM OVC003 17/ RMK SF8

CYYG;2012-09-08 11:00;CYYG 081100Z 19008KT 15SM OVC005 17/17 A2998 RMK SF8 SLP154

CYYG;2012-09-08 12:00;CYYG 081200Z 19010KT 15SM OVC007 17/16 A3000 RMK SF8 SLP158

CYYG;2012-09-08 13:00;CYYG 081300Z 20011KT 15SM BKN007 18/16 A3000 RMK SF7 SLP160

CYYG;2012-09-08 13:29;CYYG 081329Z 17010KT 15SM SCT007 BKN120 18/ RMK SF4AC3

CYYG;2012-09-08 14:00;CYYG 081400Z 19010KT 15SM FEW007 SCT120 BKN280 19/16 A3000 RMK SF2AC2CI3 SLP160

CYYG;2012-09-08 15:00;CYYG 081500Z 17010KT 15SM FEW007 SCT160 BKN280 20/16 A2999 RMK SF1AC2CI3 SLP155

CYYG;2012-09-08 16:00;CYYG 081600Z 17010KT 15SM FEW160 BKN280 21/17 A2998 RMK AC2CI3 SLP152

CYYG;2012-09-08 17:00;CYYG 081700Z 17010KT 15SM FEW160 BKN280 22/17 A2996 RMK AC1CI4 SLP147

CYYG;2012-09-08 18:00;CYYG 081800Z 16013KT 15SM FEW160 BKN280 23/17 A2994 RMK AC1CI4 SLP140

CYYG;2012-09-08 19:00;CYYG 081900Z 17012KT 15SM FEW160 BKN280 24/18 A2994 RMK AC1CI4 SLP139

CYYG;2012-09-08 20:00;CYYG 082000Z 16011KT 15SM FEW160 BKN280 25/17 A2993 RMK AC1CI4 SLP136

CYYG;2012-09-08 21:00;CYYG 082100Z 16011KT 15SM BKN280 24/17 A2993 RMK CI2 SLP134

CYYG;2012-09-08 22:00;CYYG 082200Z 17013KT 15SM BKN280 23/17 A2992 RMK CI4 SLP132

CYYG;2012-09-08 23:00;CYYG 082300Z 18016KT 15SM BKN280 21/18 A2993 RMK CI3 SLP136

CYYG;2012-09-09 00:00;CYYG 090000Z 17013KT 15SM BKN280 20/17 A2994 RMK CI3 SLP138

CYYG;2012-09-09 01:00;CYYG 090100Z 16013KT 15SM BKN280 19/17 A2993 RMK CI3 SLP137

CYYG;2012-09-09 02:00;CYYG 090200Z 17016KT 15SM FEW280 19/17 A2993 RMK CI2 SLP136

CYYG;2012-09-09 03:00;CYYG 090300Z 17015KT 15SM FEW280 18/16 A2992 RMK CI2 SLP133

CYYG;2012-09-09 04:00;CYYG 090400Z 16015G21KT 15SM FEW280 18/16 A2991 RMK CI2 SLP130

CYYG;2012-09-09 05:00;CYYG 090500Z 15015G20KT 15SM BKN020 18/16 A2989 RMK SC5 SLP123

CYYG;2012-09-09 06:00;CYYG 090600Z 15018KT 15SM BKN020 18/17 A2987 RMK SC5 SLP113

CYYG;2012-09-09 07:00;CYYG 090700Z 14012KT 15SM BKN018 18/17 A2984 RMK SC6 SLP103

CYYG;2012-09-09 08:00;CYYG 090800Z 15013G22KT 15SM OVC014 19/18 A2980 RMK SC8 SLP091

CYYG;2012-09-09 08:38;CYYG 090838Z 15019G27KT 12SM FEW006 OVC014 20/ RMK SF2SC6

CYYG;2012-09-09 09:00;CYYG 090900Z 15021G27KT 12SM FEW006 OVC014 20/19 A2978 RMK SF2SC6 SLP085

CYYG;2012-09-09 09:24;CYYG 090924Z 16018G25KT 12SM BKN009 20/ RMK SF7

CYYG;2012-09-09 10:00;CYYG 091000Z 16021G27KT 10SM BKN006 OVC013 20/19 A2977 RMK SF6SC2 SLP082

CYYG;2012-09-09 11:00;CYYG 091100Z 16018G25KT 15SM -SHRA FEW006 OVC011 21/20 A2977 RMK SF2SC6 SLP082

CYYG;2012-09-09 11:21;CYYG 091121Z 16018G24KT 15SM -SHRA BKN009 21/ RMK SF7

CYYG;2012-09-09 12:00;CYYG 091200Z 16019G24KT 15SM -SHRA OVC009 21/20 A2977 RMK SF8 VIS LWR S-W SLP082

CYYG;2012-09-09 12:17;CYYG 091217Z 16015G20KT 15SM -SHRA FEW003 BKN100 21/ RMK SF2AC5 VIS LWR E-SW

CYYG;2012-09-09 13:00;CYYG 091300Z 17020G25KT 15SM -SHRA FEW006 BKN016 BKN064 OVC097 21/21 A2977 RMK SF2SC3SC2AC2 SLP081

CYYG;2012-09-09 14:00;CYYG 091400Z 18017G25KT 15SM -SHRA FEW006 BKN037 OVC100 22/21 A2978 RMK SF2SC4AC2 SLP085

CYYG;2012-09-09 14:24;CYYG 091424Z 18017G25KT 5SM -SHRA BR BKN005 OVC016 22/ RMK SF6SC2

CYYG;2012-09-09 15:00;CYYG 091500Z 17014G21KT 5SM -SHRA BR BKN004 OVC016 21/21 A2977 RERA RMK SF5SC3 SLP079

CYYG;2012-09-09 15:39;CYYG 091539Z 18017G22KT 15SM -SHRA FEW003 FEW026 BKN100 BKN300 22/ RMK SF1SC2AC3CI2

CYYG;2012-09-09 15:50;CYYG 091550Z CCA 18017G22KT 15SM -SHRA FEW003 FEW026 BKN100 BKN300 22/ RMK SF1SC2AC3CI2

CYYG;2012-09-09 16:00;CYYG 091600Z 19017G24KT 15SM -SHRA FEW016 BKN110 BKN300 22/21 A2977 RMK SC2AC4CI2 OBS TAKEN +08 SLP081

CYYG;2012-09-09 17:00;CYYG 091700Z 18015KT 15SM -SHRA FEW006 BKN038 BKN110 22/21 A2977 RMK SF1SC4AC2 SLP080

CYYG;2012-09-09 18:00;CYYG 091800Z 18014KT 15SM -SHRA FEW018TCU BKN025 22/21 A2976 RMK TCU1SC6 TCU SE-S VIS W-NE 3 SLP078

CYYG;2012-09-09 18:35;CYYG 091835Z 23008KT 5SM -SHRA BR OVC007 21/ RMK SF8

CYYG;2012-09-09 19:00;CYYG 091900Z 25006KT 5SM -SHRA BR BKN004 OVC011 21/21 A2978 RERA RMK SF6SF2 SLP083

CYYG;2012-09-09 19:44;CYYG 091944Z 25008KT 15SM BKN004 OVC025 20/ RMK SF5SC3

CYYG;2012-09-09 20:00;CYYG 092000Z 26006KT 15SM SCT004 BKN014 OVC030 20/20 A2978 RMK SF3SC2SC2 SLP085

CYYG;2012-09-09 20:02;CYYG 092002Z 25005KT 15SM -SHRA SCT004 BKN014 OVC053 20/ RMK SF3SC3SC2 VIS LWR S-SW

CYYG;2012-09-09 20:21;CYYG 092021Z 25008KT 2SM +SHRA SCT004 OVC021TCU 19/ RMK SF3TCU5

CYYG;2012-09-09 20:30;CYYG 092030Z 24008KT 15SM -SHRA FEW005 OVC010 19/ RERA RMK SF2SC6 VIS LWR NE-S

CYYG;2012-09-09 20:50;CYYG 092050Z 23006KT 15SM FEW005 OVC010 19/ RERA RMK SF2SC6 SH DIST NE-E

CYYG;2012-09-09 21:00;CYYG 092100Z 24005KT 15SM FEW005 BKN010 OVC045 19/18 A2978 RERA RMK SF1SC6SC1 SH DIST NE-E SLP085

CYYG;2012-09-09 21:12;CYYG 092112Z 21005KT 10SM -SHRA FEW005 OVC013 19/ RMK SF1SC7 VIS LWR SE-SW

CYYG;2012-09-09 21:28;CYYG 092128Z 18007KT 2SM +SHRA OVC015TCU 19/ RMK TCU8

CYYG;2012-09-09 22:00;CYYG 092200Z 25012KT 3SM -SHRA BR BKN015 OVC034 18/18 A2979 RERA RMK SC6SC2 /R20/ SLP089

CYYG;2012-09-09 22:35;CYYG 092235Z 24005KT 10SM -SHRA FEW003 BKN030 OVC060 18/ RERA RMK SF1SC6SC2

CYYG;2012-09-09 23:00;CYYG 092300Z 23004KT 6SM -SHRA BR FEW003 BKN028 OVC065 18/18 A2981 RERA RMK SF1SC6SC2 SLP093

CYYG;2012-09-09 23:46;CYYG 092346Z 24008KT 2 1/2SM +SHRA BR BKN004 OVC022 18/ RMK SF5SC3

CYYG;2012-09-10 00:00;CYYG 100000Z 21006KT 5SM -SHRA BR BKN004 OVC022 18/18 A2982 RERA RMK SF5SC3 SLP100

CYYG;2012-09-10 01:00;CYYG 100100Z 22005KT 15SM BKN003 OVC030 18/18 A2982 RERA RMK SF6SC2 SLP100

CYYG;2012-09-10 01:24;CYYG 100124Z 22005KT 10SM FEW003 OVC030 18/ RMK SF2SC6

CYYG;2012-09-10 01:48;CYYG 100148Z 25005KT 10SM -SHRA FEW003 OVC031 18/ RMK SF2SC6

CYYG;2012-09-10 02:00;CYYG 100200Z 25007KT 5SM SHRA BR FEW003 OVC031 18/18 A2982 RMK SF2SC6 SLP100

CYYG;2012-09-10 02:22;CYYG 100222Z 24005KT 2 1/2SM +SHRA BR FEW003 OVC021 18/ RMK SF2SC6

CYYG;2012-09-10 03:00;CYYG 100300Z 00000KT 6SM -SHRA BR FEW003 OVC043 17/17 A2981 RERA RMK SF2SC6 SLP093

CYYG;2012-09-10 04:00;CYYG 100400Z 01003KT 10SM -SHRA FEW002 OVC033 17/17 A2979 RMK SF1SC7 SLP088

CYYG;2012-09-10 04:17;CYYG 100417Z 35004KT 5SM BR FEW001 OVC033 17/ RMK SF2SC6

CYYG;2012-09-10 04:30;CYYG 100430Z 30007KT 2 1/2SM -SHRA BR BKN003 OVC032 17/ RMK SF6SC2

CYYG;2012-09-10 05:00;CYYG 100500Z 34008KT 5SM -SHRA BR BKN004 OVC011 16/16 A2979 RMK SF7SC1 SLP087

CYYG;2012-09-10 05:32;CYYG 100532Z 35008KT 3SM +TSRA BR SCT004 OVC012 15/ RMK SF3SC5 CB ASOCTD OCNL LTGIC

CYYG;2012-09-10 05:51;CYYG 100551Z 36008KT 3SM SHRA BR FEW004 OVC020 15/ RETSRA RMK SF2SC6

CYYG;2012-09-10 06:00;CYYG 100600Z CCA 36005KT 3SM -SHRA BR FEW004 OVC020 15/15 A2976 RETSRA RMK SF1SC7 /R10/ SLP076

CYYG;2012-09-10 07:00;CYYG 100700Z 36006KT 5SM -SHRA BR FEW004 OVC020 15/15 A2976 RERA RMK SF1SC7 SLP076

CYYG;2012-09-10 08:00;CYYG 100800Z 01012KT 4SM +SHRA BR BKN005 OVC013 15/15 A2974 RMK SF6SC2 SLP072

CYYG;2012-09-10 08:42;CYYG 100842Z 02013KT 4SM -SHRA BR BKN005 OVC040 14/ RERA RMK SF5SC3

CYYG;2012-09-10 09:00;CYYG 100900Z 01010G17KT 4SM -SHRA BR BKN005 OVC075 14/14 A2971 RERA RMK SF6AC2 SLP060

CYYG;2012-09-10 09:31;CYYG 100931Z 33009KT 2SM +SHRA BR BKN005 OVC018 14/ RMK SF5SC3

CYYG;2012-09-10 10:00;CYYG 101000Z 33009KT 1 1/2SM R03/4000V6000FT/U +RA FEW005 OVC024 14/14 A2975 RMK SF2SC6 SLP074

CYYG;2012-09-10 10:42;CYYG 101042Z 34006KT 2SM +RA BR BKN005 OVC025 14/ RMK SF6SC2

CYYG;2012-09-10 11:00;CYYG 101100Z 36013KT 2SM +RA BR SCT005 OVC025 13/13 A2973 RMK SF3SC5 /R43/ SLP069

CYYG;2012-09-10 11:17;CYYG 101117Z 36011G18KT 4SM RA BR FEW005 SCT025 OVC045 13/ RERA RMK SF2SC2SC4

CYYG;2012-09-10 11:39;CYYG 101139Z 02012KT 4SM RA BR BKN004 OVC045 13/ RERA RMK SF6SC2

CYYG;2012-09-10 12:00;CYYG 101200Z 01010G17KT 5SM RA BR BKN004 BKN027 OVC047 13/13 A2972 RERA RMK SF5SC2SC2 SLP065

CYYG;2012-09-10 13:00;CYYG 101300Z 36007KT 8SM -RA BKN004 OVC008 14/14 A2974 RERA RMK SF6SF2 SLP070

CYYG;2012-09-10 14:00;CYYG 101400Z 35006KT 8SM -RA OVC005 14/14 A2974 RMK SF8 VIS NW-NE 3 SLP073

CYYG;2012-09-10 14:20;CYYG 101420Z 34006KT 3SM -DZ BR BKN004 OVC007 14/ RMK SF6SF2

CYYG;2012-09-10 15:00;CYYG 101500Z 34008KT 5SM -DZ BR BKN004 OVC012 14/14 A2974 RMK SF6SC2 SLP073

CYYG;2012-09-10 15:22;CYYG 101522Z 35007KT 4SM -RA BR SCT004 BKN012 OVC023 14/ RMK SF4SC2SC2

CYYG;2012-09-10 16:00;CYYG 101600Z 35008KT 2SM -DZ BR BKN005 OVC014 14/14 A2974 RMK SF6SC2 SLP070

CYYG;2012-09-10 16:42;CYYG 101642Z 36009G16KT 15SM -DZ BKN005 OVC018 15/ RMK SF6SC2 VIS LWR E-SE

CYYG;2012-09-10 16:53;CYYG 101653Z 36008KT 15SM BKN006 OVC017 15/ RMK SF6SC2 VIS LWR NE-E

CYYG;2012-09-10 17:00;CYYG 101700Z 36010G16KT 15SM BKN006 OVC017 15/14 A2971 RMK SF6SC2 VIS LWR E SLP062

CYYG;2012-09-10 17:48;CYYG 101748Z 01010KT 10SM -DZ OVC008 15/ RMK SF8 VIS E-SW 3

CYYG;2012-09-10 18:00;CYYG 101800Z 36007KT 10SM -DZ OVC008 14/14 A2973 RMK SF8 VIS E-SW 3 SLP069

CYYG;2012-09-10 18:18;CYYG 101818Z 01008KT 2SM -DZ BR SCT005 OVC010 15/ RMK SF3SC5

CYYG;2012-09-10 19:00;CYYG 101900Z 35009KT 3SM -DZ BR SCT004 BKN015 OVC024 14/14 A2971 RMK SF4SC2SC2 SLP061

CYYG;2012-09-10 19:29;CYYG 101929Z 33006KT 10SM -DZ BKN005 OVC010 15/ RMK SF6SC2 VIS LWR NW-NE

CYYG;2012-09-10 20:00;CYYG 102000Z 36007KT 8SM -DZ BKN005 OVC019 15/15 A2973 RMK SF6SC2 VIS LWR NW-NE SLP067

CYYG;2012-09-10 21:00;CYYG 102100Z 36009G16KT 10SM -DZ SCT004 OVC017 15/15 A2970 RMK SF4SC4 SLP059

CYYG;2012-09-10 21:17;CYYG 102117Z 36009KT 3SM -DZ BR OVC005 15/ RMK SF8

CYYG;2012-09-10 21:38;CYYG 102138Z 02012KT 15SM SCT005 OVC026 15/ RMK SF4SC4 VIS LWR E-S

CYYG;2012-09-10 22:00;CYYG 102200Z 01012G18KT 15SM SCT005 BKN012 BKN031 15/14 A2970 RMK SF3SC2SC2 VIS LWR E SLP058

CYYG;2012-09-10 22:17;CYYG 102217Z 01012G17KT 10SM -DZ SCT005 BKN016 15/ RMK SF3SC4

CYYG;2012-09-10 22:30;CYYG 102230Z 01011KT 12SM -DZ BKN009 BKN030 15/ RMK SF6SC1

CYYG;2012-09-10 22:36;CYYG 102236Z 01010G17KT 12SM -RA BKN009 OVC030 15/ RMK SF7SC1 VIS SE-S 3

CYYG;2012-09-10 23:00;CYYG 102300Z 01012KT 10SM -RA BKN009 OVC030 15/14 A2971 RMK SF6SC2 VIS SE 4 SLP060

CYYG;2012-09-10 23:16;CYYG 102316Z 35008G17KT 2 1/2SM RA BR OVC009 15/ RMK SF8

CYYG;2012-09-10 23:43;CYYG 102343Z 01015G22KT 5SM -RA BR FEW009 OVC042 15/ RERA RMK SF2SC6

CYYG;2012-09-11 00:00;CYYG 110000Z 01013KT 6SM -RA BR FEW009 OVC034 15/14 A2972 RERA RMK SF1SC7 SLP065

CYYG;2012-09-11 00:22;CYYG 110022Z 01013G19KT 15SM BKN016 OVC059 14/ RMK SC5SC3

CYYG;2012-09-11 01:00;CYYG 110100Z 02011G16KT 7SM -SHRA BKN018 OVC050 14/13 A2973 RMK SC5SC3 G22 PST HR SLP068

CYYG;2012-09-11 01:26;CYYG 110126Z 01011KT 12SM BKN012 OVC060 14/ RMK SC7SC1

CYYG;2012-09-11 02:00;CYYG 110200Z 01009KT 15SM OVC012 13/13 A2971 RMK SC8 G20 PST HR SLP060

CYYG;2012-09-11 02:08;CYYG 110208Z 01015KT 12SM -SHRA OVC010 13/ RMK SC8

CYYG;2012-09-11 02:42;CYYG 110242Z 36010KT 15SM FEW010 OVC056 13/ RMK SC1SC7

CYYG;2012-09-11 03:00;CYYG 110300Z 01011G20KT 15SM BKN016 OVC055 14/13 A2968 RMK SC5SC3 SLP051

CYYG;2012-09-11 04:00;CYYG 110400Z 36017G30KT 15SM FEW018 OVC060 14/12 A2963 RMK SC2SC6 SLP036

CYYG;2012-09-11 05:00;CYYG 110500Z 36014G23KT 15SM FEW022 OVC070 15/11 A2964 RMK SC2AC6 G31 PST HR SLP039

CYYG;2012-09-11 06:00;CYYG 110600Z 36014G25KT 15SM FEW021 OVC090 15/12 A2962 RMK SC2AC6 SLP031

CYYG;2012-09-11 07:00;CYYG 110700Z 36014G25KT 15SM BKN021 OVC080 15/12 A2963 RMK SC6AC2 SLP035

CYYG;2012-09-11 08:00;CYYG 110800Z 34012G23KT 15SM SCT019 OVC110 15/12 A2962 RMK SC3AC5 G26 PST HR SLP032

CYYG;2012-09-11 09:00;CYYG 110900Z 34015G23KT 15SM SCT019 BKN120 OVC230 15/12 A2964 RMK SC3AC2CI2 SLP037

CYYG;2012-09-11 10:00;CYYG 111000Z 32013G24KT 15SM BKN018 BKN120 15/13 A2969 RMK SC6AC1 CU ASOCTD SLP053

CYYG;2012-09-11 11:00;CYYG 111100Z 33015G27KT 15SM BKN022 15/12 A2974 RMK SC7 SLP072

CYYG;2012-09-11 12:00;CYYG 111200Z 33016G28KT 15SM BKN026 15/11 A2978 RMK SC7 SLP086

CYYG;2012-09-11 13:00;CYYG 111300Z 35019G31KT 15SM SCT026 SCT160 16/11 A2982 RMK SC3AC1 SLP100

CYYG;2012-09-11 14:00;CYYG 111400Z 33017G28KT 15SM FEW030 FEW180 16/10 A2986 RMK SC1AC2 SLP113

CYYG;2012-09-11 15:00;CYYG 111500Z 33012G26KT 15SM FEW030 FEW180 17/11 A2989 RMK CU1AC2 SLP123

CYYG;2012-09-11 16:00;CYYG 111600Z 33016G27KT 15SM FEW030 FEW180 17/09 A2991 RMK CU1AC2 SLP129

CYYG;2012-09-11 17:00;CYYG 111700Z 32010G20KT 15SM FEW030 FEW180 18/11 A2993 RMK CU1AC2 SLP137

CYYG;2012-09-11 18:00;CYYG 111800Z 31014G40KT 15SM FEW030 FEW180 19/08 A2995 RMK CU1AC2 SLP142

CYYG;2012-09-11 19:00;CYYG 111900Z CCA 31014G20KT 15SM FEW030 FEW180 19/08 A2995 RMK CU1AC2 SLP142

CYYG;2012-09-11 20:00;CYYG 112000Z 33009G15KT 15SM FEW030 FEW180 19/09 A2998 RMK CU1AC1 SLP153

CYYG;2012-09-11 21:00;CYYG 112100Z 31008G17KT 15SM FEW180 19/09 A3000 RMK AC1 SLP158

CYYG;2012-09-11 22:00;CYYG 112200Z 30005KT 15SM SKC 18/09 A3002 RMK SLP165

CYYG;2012-09-11 23:00;CYYG 112300Z 26005KT 15SM SKC 16/09 A3005 RMK SLP175

CYYG;2012-09-12 00:00;CYYG 120000Z 25005KT 15SM SKC 15/09 A3008 RMK SLP186

CYYG;2012-09-12 01:00;CYYG 120100Z 26006KT 15SM SKC 14/09 A3010 RMK SLP194

CYYG;2012-09-12 02:00;CYYG 120200Z 25005KT 15SM SKC 14/09 A3012 RMK SLP201

CYYG;2012-09-12 03:00;CYYG 120300Z 24006KT 15SM SKC 14/10 A3014 RMK SLP206

CYYG;2012-09-12 04:00;CYYG 120400Z 24006KT 15SM SKC 14/11 A3015 RMK SLP211

CYYG;2012-09-12 06:00;CYYG 120600Z 26005KT 15SM SKC 12/10 A3016 RMK SLP213

CYYG;2012-09-12 07:00;CYYG 120700Z 25004KT 15SM SKC 12/10 A3018 RMK SLP220

CYYG;2012-09-12 08:00;CYYG 120800Z 24006KT 15SM SKC 12/11 A3019 RMK SLP223

CYYG;2012-09-12 09:00;CYYG 120900Z 24007KT 15SM SKC 12/11 A3020 RMK SLP228

CYYG;2012-09-12 10:00;CYYG 121000Z 25006KT 15SM FEW300 12/11 A3022 RMK CI1 SLP234

CYYG;2012-09-12 11:00;CYYG 121100Z 26005KT 15SM FEW300 13/11 A3024 RMK CI0 SLP240

CYYG;2012-09-12 12:00;CYYG 121200Z 22005KT 15SM FEW300 15/12 A3025 RMK CI0 SLP243

CYYG;2012-09-12 13:00;CYYG 121300Z 23005KT 15SM FEW300 18/13 A3028 RMK CI0 OBS TAKEN +22 SLP253

CYYG;2012-09-12 14:00;CYYG 121400Z 25006KT 15SM SKC 18/12 A3028 RMK SLP254

CYYG;2012-09-12 15:00;CYYG 121500Z 24008KT 15SM SKC 20/12 A3028 RMK SLP255

CYYG;2012-09-12 16:00;CYYG 121600Z 21009G17KT 15SM FEW030 20/11 A3028 RMK CU1 SLP255

CYYG;2012-09-12 17:00;CYYG 121700Z 24008KT 15SM FEW030 21/10 A3028 RMK CU1 SLP255

CYYG;2012-09-12 18:00;CYYG 121800Z 23006KT 15SM FEW030 21/10 A3028 RMK CU1 SLP254

CYYG;2012-09-12 19:00;CYYG 121900Z 23003KT 15SM FEW044 21/10 A3028 RMK CU1 SLP255

CYYG;2012-09-12 20:00;CYYG 122000Z 24005KT 15SM SKC 21/11 A3028 RMK SLP253

CYYG;2012-09-12 21:00;CYYG 122100Z 23007KT 15SM SKC 21/10 A3028 RMK SLP254

CYYG;2012-09-12 22:00;CYYG 122200Z 18005KT 15SM SKC 18/13 A3028 RMK OBS TAKEN +08 SLP255

CYYG;2012-09-12 23:00;CYYG 122300Z 22004KT 15SM SKC 17/13 A3029 RMK SLP258

CYYG;2012-09-13 00:00;CYYG 130000Z 22006KT 15SM SKC 16/13 A3030 RMK SLP261

CYYG;2012-09-13 01:00;CYYG 130100Z 24004KT 15SM SKC 15/12 A3031 RMK SLP265

CYYG;2012-09-13 02:00;CYYG 130200Z 20006KT 15SM SKC 15/12 A3031 RMK SLP266

CYYG;2012-09-13 03:00;CYYG 130300Z 20007KT 15SM SKC 15/12 A3031 RMK SLP266

CYYG;2012-09-13 04:00;CYYG 130400Z 22006KT 15SM SKC 14/11 A3032 RMK SLP267

CYYG;2012-09-13 05:00;CYYG 130500Z 20006KT 15SM SKC 14/10 A3031 RMK SLP266

CYYG;2012-09-13 06:00;CYYG 130600Z 21008KT 15SM SKC 14/10 A3031 RMK SLP266

CYYG;2012-09-13 07:00;CYYG 130700Z 21007KT 15SM SKC 14/11 A3031 RMK SLP265

CYYG;2012-09-13 08:00;CYYG 130800Z 20006KT 15SM SKC 14/11 A3032 RMK SLP267

CYYG;2012-09-13 09:00;CYYG 130900Z 20007KT 15SM SKC 14/12 A3031 RMK SLP264

CYYG;2012-09-13 10:00;CYYG 131000Z 20007KT 15SM FEW280 14/12 A3031 RMK CI1 SLP264

CYYG;2012-09-13 11:00;CYYG 131100Z 21011KT 15SM FEW015 FEW280 15/13 A3031 RMK SF1CI1 SLP265

CYYG;2012-09-13 12:00;CYYG 131200Z 21010KT 15SM FEW015 FEW250 16/14 A3031 RMK CF1CI1 SLP263

CYYG;2012-09-13 13:00;CYYG 131300Z 21012G17KT 15SM SCT280 18/13 A3030 RMK CI0 SLP261

CYYG;2012-09-13 14:00;CYYG 131400Z 22013G19KT 15SM FEW280 19/13 A3030 RMK CI2 SLP262

CYYG;2012-09-13 15:00;CYYG 131500Z 22014G19KT 15SM FEW280 20/13 A3030 RMK CI2 SLP260

CYYG;2012-09-13 16:00;CYYG 131600Z 22012G19KT 14SM FEW280 21/13 A3029 RMK CI1 SLP257

CYYG;2012-09-13 17:00;CYYG 131700Z 21014G20KT 15SM FEW280 23/14 A3026 RMK CI1 SLP249

CYYG;2012-09-13 18:00;CYYG 131800Z 22015G21KT 15SM FEW280 24/14 A3025 RMK CI1 SLP242

CYYG;2012-09-13 19:00;CYYG 131900Z 21011G20KT 15SM FEW280 24/14 A3024 RMK CI2 SLP241 DENSITY ALT 800FT

CYYG;2012-09-13 20:00;CYYG 132000Z 22013G21KT 15SM SCT280 23/14 A3023 RMK CI3 SLP236 DENSITY ALT 800FT

CYYG;2012-09-13 21:00;CYYG 132100Z 22013G19KT 15SM BKN280 23/13 A3023 RMK CI6 SLP236 DENSITY ALT 700FT

CYYG;2012-09-13 22:00;CYYG 132200Z 22007KT 15SM BKN280 21/14 A3023 RMK CI6 SLP238 DENSITY ALT 400FT

CYYG;2012-09-13 23:00;CYYG 132300Z 23008KT 15SM SCT280 19/13 A3024 RMK CI4 SLP242 DENSITY ALT 300FT

CYYG;2012-09-14 00:00;CYYG 140000Z 23010G16KT 15SM SCT280 19/13 A3025 RMK CI4 SLP243 DENSITY ALT 200FT

CYYG;2012-09-14 01:00;CYYG 140100Z 23010KT 15SM SCT280 18/14 A3024 RMK CI4 SLP241

CYYG;2012-09-14 02:00;CYYG 140200Z 22010KT 15SM SCT280 17/14 A3024 RMK CI4 SLP239

CYYG;2012-09-14 03:00;CYYG 140300Z 22009KT 15SM SCT280 17/14 A3023 RMK CI4 SLP238

CYYG;2012-09-14 04:00;CYYG 140400Z 22009KT 15SM SCT280 16/15 A3023 RMK CI4 SLP238

CYYG;2012-09-14 05:00;CYYG 140500Z 22008KT 15SM SCT280 16/15 A3024 RMK CI4 SLP240

CYYG;2012-09-14 06:00;CYYG 140600Z 22011KT 15SM SCT280 16/15 A3023 RMK CI4 SLP238

CYYG;2012-09-14 06:29;CYYG 140629Z 22010KT 15SM FEW006 BKN280 16/15 A3023 RMK SF2CI4 SLP237

CYYG;2012-09-14 07:00;CYYG 140700Z CCA 22009KT 15SM FEW006 BKN280 16/15 A3023 RMK SF2CI4 SLP236

CYYG;2012-09-14 08:00;CYYG 140800Z 22008KT 15SM SCT006 BKN280 15/15 A3023 RMK SF3CI3 SLP238

CYYG;2012-09-14 09:00;CYYG 140900Z 21010KT 15SM SCT006 BKN280 15/15 A3023 RMK SF3CI2 SLP238

CYYG;2012-09-14 10:00;CYYG 141000Z 21009KT 15SM FEW005 SCT280 15/15 A3023 RMK SF2CI1 SLP237

CYYG;2012-09-14 10:29;CYYG 141029Z 21010KT 15SM BKN005 16/15 A3023 RMK SF6 SLP238

CYYG;2012-09-14 11:00;CYYG 141100Z 22009KT 15SM BKN005 16/15 A3023 RMK SF7 SLP238

CYYG;2012-09-14 12:00;CYYG 141200Z 21007KT 15SM BKN007 17/15 A3024 RMK SF7 SLP239

CYYG;2012-09-14 12:47;CYYG 141247Z 22011KT 15SM SCT007 17/16 A3023 RMK SF4 SLP238

CYYG;2012-09-14 13:00;CYYG 141300Z 20010KT 15SM FEW007 SCT250 18/16 A3023 RMK SF2CI1 SLP238

CYYG;2012-09-14 14:00;CYYG 141400Z 22009KT 15SM FEW010 SCT250 19/16 A3023 RMK CF1CI2 SLP236 DENSITY ALT 300FT

CYYG;2012-09-14 15:00;CYYG 141500Z 21010KT 15SM FEW010 SCT250 20/16 A3023 RMK CF1CI2 SLP236 DENSITY ALT 400FT

CYYG;2012-09-14 16:00;CYYG 141600Z 20011KT 15SM SCT250 21/16 A3021 RMK CI3 SLP230 DENSITY ALT 600FT

CYYG;2012-09-14 17:00;CYYG 141700Z 22012G18KT 15SM SCT250 23/16 A3020 RMK CI3 SLP226 DENSITY ALT 700FT

CYYG;2012-09-14 18:00;CYYG 141800Z 19010KT 15SM SCT250 24/17 A3019 RMK CI3 SLP224 DENSITY ALT 800FT

CYYG;2012-09-14 19:00;CYYG 141900Z 18011KT 15SM BKN250 24/17 A3018 RMK CI5 SLP220 DENSITY ALT 900FT

CYYG;2012-09-14 20:00;CYYG 142000Z 18008KT 15SM FEW220 SCT250 23/16 A3019 RMK CC1CI2 SLP222 DENSITY ALT 800FT

CYYG;2012-09-14 21:00;CYYG 142100Z 20009KT 15SM FEW250 23/16 A3018 RMK CI2 SLP220 DENSITY ALT 800FT

CYYG;2012-09-14 22:00;CYYG 142200Z 20007KT 15SM FEW100 SCT250 21/15 A3018 RMK AC1CI2 SLP219 DENSITY ALT 600FT

CYYG;2012-09-14 23:00;CYYG 142300Z 22004KT 15SM BKN250 20/15 A3018 RMK CI6 SLP221 DENSITY ALT 400FT

CYYG;2012-09-15 00:00;CYYG 150000Z 20005KT 15SM BKN250 19/15 A3019 RMK CI6 SLP222 DENSITY ALT 300FT

CYYG;2012-09-15 01:00;CYYG 150100Z 21005KT 15SM BKN250 17/15 A3018 RMK CI6 SLP219

CYYG;2012-09-15 02:00;CYYG 150200Z 19005KT 15SM BKN250 16/16 A3016 RMK CI6 SLP214

CYYG;2012-09-15 03:00;CYYG 150300Z 18007KT 15SM BKN250 16/15 A3015 RMK CI6 SLP211

CYYG;2012-09-15 04:00;CYYG 150400Z 20008KT 15SM BKN250 16/15 A3014 RMK CI6 SLP207

CYYG;2012-09-15 05:00;CYYG 150500Z 19008KT 15SM BKN250 16/15 A3013 RMK CI6 SLP204

CYYG;2012-09-15 06:00;CYYG 150600Z 20007KT 15SM FEW008 SCT250 15/14 A3012 RMK SF1CI3 SLP202

CYYG;2012-09-15 07:00;CYYG 150700Z 20011KT 15SM BKN005 15/14 A3011 RMK SF7 SLP196

CYYG;2012-09-15 07:08;CYYG 150708Z 21010KT 15SM OVC003 15/14 A3011 RMK SF8 SLP196

CYYG;2012-09-15 08:00;CYYG 150800Z 18008KT 15SM OVC007 15/14 A3010 RMK SF8 SLP193

CYYG;2012-09-15 08:13;CYYG 150813Z 18008KT 15SM FEW009 14/13 A3010 RMK SF2 SLP193

CYYG;2012-09-15 09:00;CYYG 150900Z 18008KT 15SM BKN008 14/14 A3009 RMK SF6 SLP192

CYYG;2012-09-15 09:26;CYYG 150926Z 19012KT 15SM BKN004 14/14 A3010 RMK SF7 SLP193

CYYG;2012-09-15 09:53;CYYG 150953Z 20011KT 15SM FEW004 BKN013 BKN300 14/13 A3010 RMK SF2SC3CI1 SLP195

CYYG;2012-09-15 10:00;CYYG 151000Z 20010KT 15SM FEW004 BKN012 BKN300 14/13 A3010 RMK SF2SC4CI1 SLP195

CYYG;2012-09-15 11:00;CYYG 151100Z 19010KT 15SM SCT012 BKN017 15/13 A3010 RMK SC3SC4 SLP194

CYYG;2012-09-15 11:29;CYYG 151129Z 19008KT 15SM BKN012 BKN017 15/13 A3010 RMK SC5SC2 SLP195

CYYG;2012-09-15 12:00;CYYG 151200Z 19010KT 15SM BKN012 BKN021 15/13 A3010 RMK SC6SC1 SLP195

CYYG;2012-09-15 13:00;CYYG 151300Z 18012KT 15SM BKN010 16/14 A3010 RMK SC7 G16 PST HR SLP194

CYYG;2012-09-15 14:00;CYYG 151400Z 18009KT 15SM BKN010 17/15 A3008 RMK SC7 G15 PST HR SLP186 DENSITY ALT 200FT

CYYG;2012-09-15 14:35;CYYG 151435Z 17013G18KT 15SM SCT012 BKN032 BKN300 19/16 A3006 RMK SC4SC2CI1 SLP181 DENSITY ALT 400FT

CYYG;2012-09-15 15:00;CYYG 151500Z 19015G21KT 15SM SCT016 BKN035 BKN300 19/15 A3005 RMK CU3SC2CI1 SLP177 DENSITY ALT 400FT

CYYG;2012-09-15 17:00;CYYG 151700Z 18017G23KT 15SM FEW025 BKN300 21/15 A3001 RMK CU1CI5 SLP162 DENSITY ALT 800FT

CYYG;2012-09-15 18:00;CYYG 151800Z 15012G17KT 15SM FEW040 FEW055 SCT300 21/16 A2998 RMK CU1SC1CI2 SLP152 DENSITY ALT 800FT

CYYG;2012-09-15 19:00;CYYG 151900Z 16015KT 15SM FEW045 FEW300 22/15 A2995 RMK CU1CI1 SLP141 DENSITY ALT 900FT

CYYG;2012-09-15 20:00;CYYG 152000Z 15013G18KT 15SM FEW045 FEW150 SCT300 22/16 A2993 RMK CU1AC1CI2 SLP134 DENSITY ALT 900FT

CYYG;2012-09-15 21:00;CYYG 152100Z 17014KT 15SM FEW045 SCT300 21/15 A2991 RMK SC1CI3 SLP127 DENSITY ALT 900FT

CYYG;2012-09-15 22:00;CYYG 152200Z 17012KT 15SM FEW045 BKN240 19/14 A2991 RMK SC2CI5 SLP127 DENSITY ALT 700FT

CYYG;2012-09-15 23:00;CYYG 152300Z 18013KT 15SM FEW045 SCT061 BKN300 19/15 A2991 RMK SC1SC2CI3 SLP127 DENSITY ALT 600FT

CYYG;2012-09-16 00:00;CYYG 160000Z 17017G22KT 15SM FEW058 SCT074 BKN210 18/16 A2990 RMK SC1AC2CI3 SLP126 DENSITY ALT 600FT

CYYG;2012-09-16 01:00;CYYG 160100Z 16012G17KT 15SM SCT062 BKN210 18/16 A2989 RMK SC3CI3 OCNL DIST LTGIC NW SLP121 DENSITY ALT 500FT

CYYG;2012-09-16 02:00;CYYG 160200Z 18011KT 15SM BKN038 BKN077 17/15 A2989 RMK SC5AC2 SLP121 DENSITY ALT 400FT

CYYG;2012-09-16 02:18;CYYG 160218Z 17011KT 10SM -SHRA SCT014 BKN038 OVC078 17/15 A2989 RMK SC3SC3AC2 VIS LWR SW-W SLP121 DENSITY ALT 500FT

CYYG;2012-09-16 03:00;CYYG 160300Z 22007KT 10SM -SHRA BKN012 OVC069 15/14 A2988 RERA RMK SC5AC3 SLP120 DENSITY ALT 200FT

CYYG;2012-09-16 04:00;CYYG 160400Z 16007KT 10SM -SHRA FEW012 OVC053 15/14 A2986 RERA RMK SC2SC6 SLP112 DENSITY ALT 200FT

CYYG;2012-09-16 05:00;CYYG 160500Z 18012KT 15SM FEW008 OVC130 15/15 A2985 RMK SF2AC6 SLP109 DENSITY ALT 300FT

CYYG;2012-09-16 06:00;CYYG 160600Z 18009KT 15SM FEW010 BKN080 15/14 A2983 RMK SF2AC3 SLP100 DENSITY ALT 200FT

CYYG;2012-09-16 07:00;CYYG 160700Z 19009KT 15SM FEW014 SCT033 BKN066 BKN077 15/14 A2981 RMK SC2SC2AC2AC1 SLP094 DENSITY ALT 300FT

CYYG;2012-09-16 08:00;CYYG 160800Z 26008KT 15SM FEW010 OVC022 15/14 A2979 RMK SF2SC6 SLP090 DENSITY ALT 200FT

CYYG;2012-09-16 09:00;CYYG 160900Z 28009KT 15SM FEW008 FEW018 SCT028 SCT063 BKN072 13/11 A2980 RMK SF1SC1SC1SC1AC1 SLP091

CYYG;2012-09-16 10:00;CYYG 161000Z 28004KT 15SM FEW008 FEW026 SCT068 12/09 A2981 RMK SF1SC1AC1 SLP095

CYYG;2012-09-16 11:00;CYYG 161100Z 25006KT 15SM FEW010 FEW025 12/10 A2981 RMK CF1SC1 SLP095

CYYG;2012-09-16 12:00;CYYG 161200Z 27011KT 15SM FEW012 FEW030 12/09 A2981 RMK CF1SC1 G18 PST HR SLP095

CYYG;2012-09-16 13:00;CYYG 161300Z 26013KT 15SM FEW012 13/08 A2982 RMK SC1 SLP097

CYYG;2012-09-16 14:00;CYYG 161400Z 27011G17KT 15SM FEW022 14/08 A2981 RMK SC2 SLP095

CYYG;2012-09-16 15:00;CYYG 161500Z 26014G24KT 15SM FEW025 14/06 A2980 RMK SC1 SLP093 DENSITY ALT 200FT

CYYG;2012-09-16 16:00;CYYG 161600Z 25013G21KT 15SM SCT030 14/07 A2980 RMK SC3 SLP092 DENSITY ALT 200FT

CYYG;2012-09-16 17:00;CYYG 161700Z 25013G19KT 15SM SCT032 15/07 A2979 RMK SC4 SLP089 DENSITY ALT 300FT

CYYG;2012-09-16 18:00;CYYG 161800Z 27016G22KT 15SM SCT035 15/06 A2978 RMK SC3 SLP086 DENSITY ALT 300FT

CYYG;2012-09-16 19:00;CYYG 161900Z 27011G18KT 15SM SCT035 15/07 A2979 RMK SC4 G23 PST HR SLP088 DENSITY ALT 300FT

CYYG;2012-09-16 20:00;CYYG 162000Z 28011G22KT 15SM SCT040 15/07 A2979 RMK SC3 SLP087 DENSITY ALT 300FT

CYYG;2012-09-16 21:00;CYYG 162100Z 27012G18KT 15SM FEW035 BKN050 14/07 A2979 RMK CU1SC6 SLP090 DENSITY ALT 200FT

CYYG;2012-09-16 22:00;CYYG 162200Z 27007KT 15SM FEW040 BKN055 14/07 A2980 RMK CU1SC6 SLP094

CYYG;2012-09-16 23:00;CYYG 162300Z 26005KT 15SM FEW040 BKN055 13/07 A2982 RMK CU1SC6 SLP099

CYYG;2012-09-17 00:00;CYYG 170000Z 26004KT 15SM FEW040 BKN054 13/07 A2983 RMK SC1SC6 SLP103

CYYG;2012-09-17 01:00;CYYG 170100Z 25005KT 15SM FEW040 BKN056 13/07 A2984 RMK SC1SC6 SLP105

CYYG;2012-09-17 02:00;CYYG 170200Z 29007KT 15SM FEW040 BKN050 13/07 A2985 RMK SC1SC4 SLP111

CYYG;2012-09-17 03:00;CYYG 170300Z 26004KT 15SM BKN050 12/07 A2985 RMK SC5 SLP110

CYYG;2012-09-17 04:00;CYYG 170400Z 24005KT 15SM SCT058 11/06 A2985 RMK SC4 SLP109

CYYG;2012-09-17 05:00;CYYG 170500Z 25005KT 15SM FEW055 11/06 A2985 RMK SC2 SLP108

CYYG;2012-09-17 06:00;CYYG 170600Z 25008KT 15SM FEW050 11/08 A2984 RMK SC1 SLP107

CYYG;2012-09-17 07:00;CYYG 170700Z 25008KT 15SM FEW050 11/07 A2984 RMK SC1 SLP107

CYYG;2012-09-17 08:00;CYYG 170800Z 24009KT 15SM FEW050 11/08 A2985 RMK SC1 SLP109

CYYG;2012-09-17 09:00;CYYG 170900Z 25008KT 15SM FEW015 10/07 A2985 RMK SF1 SLP111

CYYG;2012-09-17 10:00;CYYG 171000Z 26009KT 15SM FEW015 FEW150 10/07 A2987 RMK SC1AC1 SLP116

CYYG;2012-09-17 11:00;CYYG 171100Z 27009G16KT 15SM SKC 11/08 A2989 RMK CI TR SLP124

CYYG;2012-09-17 12:00;CYYG 171200Z 27010G19KT 15SM SKC 13/08 A2991 RMK CI TR SLP131

CYYG;2012-09-17 13:00;CYYG 171300Z 26013G19KT 15SM SKC 15/07 A2993 RMK CI TR SLP137

CYYG;2012-09-17 14:00;CYYG 171400Z 26013G19KT 15SM SKC 16/07 A2994 RMK CI TR SLP140 DENSITY ALT 200FT

CYYG;2012-09-17 15:00;CYYG 171500Z 27012G18KT 15SM SKC 17/06 A2994 RMK CI TR SLP141 DENSITY ALT 400FT

CYYG;2012-09-17 16:00;CYYG 171600Z 28011G19KT 15SM SKC 18/06 A2994 RMK CI TR SLP140 DENSITY ALT 500FT

CYYG;2012-09-17 17:00;CYYG 171700Z 26012G18KT 15SM SKC 18/06 A2994 RMK CI TR SLP140 DENSITY ALT 500FT

CYYG;2012-09-17 18:00;CYYG 171800Z 26013KT 15SM FEW240 19/04 A2995 RMK CI2 SLP142 DENSITY ALT 600FT

CYYG;2012-09-17 19:00;CYYG 171900Z 28012G19KT 15SM FEW240 19/06 A2995 RMK CI2 SLP143 DENSITY ALT 600FT

CYYG;2012-09-17 20:00;CYYG 172000Z 28010G16KT 15SM FEW240 19/07 A2996 RMK CI1 SLP147 DENSITY ALT 600FT

CYYG;2012-09-17 21:00;CYYG 172100Z 27008KT 15SM SKC 19/07 A2997 RMK CI TR SLP151 DENSITY ALT 600FT

CYYG;2012-09-17 22:00;CYYG 172200Z 24005KT 15SM SKC 17/08 A2999 RMK CI TR SLP157 DENSITY ALT 300FT

CYYG;2012-09-17 23:00;CYYG 172300Z 24007KT 15SM SKC 15/10 A3001 RMK CI TR SLP164

CYYG;2012-09-18 00:00;CYYG 180000Z 23007KT 15SM SKC 14/10 A3003 RMK CI TR SLP170

CYYG;2012-09-18 01:00;CYYG 180100Z 23006KT 15SM SKC 14/09 A3004 RMK CI TR SLP174

CYYG;2012-09-18 02:00;CYYG 180200Z 23005KT 15SM SKC 13/09 A3006 RMK CI TR SLP178

CYYG;2012-09-18 03:00;CYYG 180300Z 23007KT 15SM SKC 13/10 A3006 RMK CI TR SLP181

CYYG;2012-09-18 04:00;CYYG 180400Z 23006KT 15SM FEW015 SCT210 12/11 A3007 RMK SC2CI2 SLP183

CYYG;2012-09-18 05:00;CYYG 180500Z 22006KT 15SM FEW015 FEW210 12/11 A3009 RMK SC1CI1 SLP189

CYYG;2012-09-18 06:00;CYYG 180600Z 22007KT 15SM FEW015 12/11 A3010 RMK SC1 SLP192

CYYG;2012-09-18 07:00;CYYG 180700Z 22005KT 15SM FEW015 12/11 A3010 RMK SC1 SLP193

CYYG;2012-09-18 08:00;CYYG 180800Z 23006KT 15SM FEW015 12/11 A3010 RMK SC1 SLP194

CYYG;2012-09-18 08:38;CYYG 180838Z 19006KT 15SM MIFG FEW015 11/11 A3010 RMK SC1 SLP193

CYYG;2012-09-18 09:00;CYYG 180900Z 19004KT 15SM MIFG FEW015 10/10 A3011 RMK SC1 SLP196

CYYG;2012-09-18 10:00;CYYG 181000Z 21004KT 15SM MIFG FEW020 FEW250 11/11 A3013 RMK SC1CI1 SLP203

CYYG;2012-09-18 11:00;CYYG 181100Z 21004KT 15SM FEW250 13/11 A3014 RMK CI2 SLP207

CYYG;2012-09-18 12:00;CYYG 181200Z 22008KT 15SM FEW250 14/12 A3016 RMK CI2 SLP213

CYYG;2012-09-18 13:00;CYYG 181300Z 21008KT 15SM FEW250 16/12 A3017 RMK CI2 SLP217

CYYG;2012-09-18 14:00;CYYG 181400Z 20010KT 15SM SCT250 17/11 A3016 RMK CI3 SLP216

CYYG;2012-09-18 15:00;CYYG 181500Z 17011G16KT 15SM BKN250 17/11 A3016 RMK CI5 SLP216

CYYG;2012-09-18 16:00;CYYG 181600Z 20013KT 15SM BKN250 18/09 A3017 RMK CI5 SLP218 DENSITY ALT 200FT

CYYG;2012-09-18 17:00;CYYG 181700Z 19012G18KT 15SM BKN280 19/09 A3016 RMK CI6 SLP213 DENSITY ALT 300FT

CYYG;2012-09-18 18:00;CYYG 181800Z 17014KT 15SM BKN280 19/10 A3015 RMK CI6 SLP211 DENSITY ALT 400FT

CYYG;2012-09-18 19:00;CYYG 181900Z 16014G19KT 15SM BKN280 20/10 A3014 RMK CI6 SLP208 DENSITY ALT 500FT

CYYG;2012-09-18 20:00;CYYG 182000Z 17015KT 15SM BKN280 20/10 A3014 RMK CI5 SLP205 DENSITY ALT 500FT

CYYG;2012-09-18 21:00;CYYG 182100Z 17012G18KT 15SM BKN280 20/11 A3012 RMK CI5 SLP200 DENSITY ALT 500FT

CYYG;2012-09-18 22:00;CYYG 182200Z 18012KT 15SM BKN250 18/12 A3012 RMK CI5 SLP202 DENSITY ALT 300FT

CYYG;2012-09-18 23:00;CYYG 182300Z 18015G22KT 15SM SCT130 BKN250 17/11 A3013 RMK AC3CI3 SLP203 DENSITY ALT 200FT

CYYG;2012-09-19 00:00;CYYG 190000Z 17020G25KT 15SM SCT130 BKN250 16/11 A3013 RMK AC3CI3 SLP204

CYYG;2012-09-19 01:00;CYYG 190100Z 19020G27KT 15SM SCT130 BKN250 16/12 A3014 RMK AC3CI3 SLP207

CYYG;2012-09-19 02:00;CYYG 190200Z 17017G25KT 15SM FEW130 SCT250 15/13 A3013 RMK AC2CI2 SLP202

CYYG;2012-09-19 03:00;CYYG 190300Z 18019KT 15SM SCT130 BKN250 15/13 A3012 RMK AC3CI3 SLP201

CYYG;2012-09-19 04:00;CYYG 190400Z 18017G23KT 15SM SCT150 BKN250 16/13 A3010 RMK AC4CI2 SLP195

CYYG;2012-09-19 05:00;CYYG 190500Z 17019G26KT 15SM BKN210 16/14 A3010 RMK CC5 SLP193

CYYG;2012-09-19 06:00;CYYG 190600Z 16021G27KT 15SM FEW150 BKN200 16/14 A3007 RMK AC1CC5 SLP184

CYYG;2012-09-19 07:00;CYYG 190700Z 16018G25KT 15SM FEW150 BKN210 16/14 A3006 RMK AC1CC4 SLP179

CYYG;2012-09-19 08:00;CYYG 190800Z 16018KT 15SM FEW022 SCT210 16/14 A3003 RMK SC1CC3 SLP172

CYYG;2012-09-19 09:00;CYYG 190900Z 17017KT 15SM FEW020 SCT210 16/14 A3003 RMK SC1CC3 SLP168 DENSITY ALT 200FT

CYYG;2012-09-19 10:00;CYYG 191000Z 16019G25KT 15SM BKN220 BKN300 17/13 A3001 RMK CC5CI1 VIRGA SLP165 DENSITY ALT 300FT

CYYG;2012-09-19 11:00;CYYG 191100Z 16019G27KT 15SM FEW100 BKN220 BKN300 18/13 A3001 RMK AC1CC5CI1 SLP163 DENSITY ALT 400FT

CYYG;2012-09-19 12:00;CYYG 191200Z 16020G29KT 15SM FEW100 BKN190 BKN300 19/14 A3001 RMK AC1CC5CI1 SLP162 DENSITY ALT 500FT

CYYG;2012-09-19 13:00;CYYG 191300Z 16023G31KT 15SM FEW055 BKN200 BKN300 20/15 A3000 RMK SC1CI5CI1 SLP158 DENSITY ALT 600FT

CYYG;2012-09-19 14:00;CYYG 191400Z 17026G33KT 15SM FEW028 BKN210 21/16 A2999 RMK SC2CI5 SLP157 DENSITY ALT 700FT

CYYG;2012-09-19 15:00;CYYG 191500Z 17021G32KT 15SM FEW028 BKN055 BKN220 21/17 A2998 RMK SC2SC3CI2 SLP153 DENSITY ALT 800FT

CYYG;2012-09-19 16:00;CYYG 191600Z 17019G30KT 15SM FEW032 BKN055 BKN220 21/16 A2998 RMK SC2SC3CI2 SLP152 DENSITY ALT 800FT

CYYG;2012-09-19 17:00;CYYG 191700Z 17022G28KT 15SM FEW030 BKN055 BKN220 22/17 A2997 RMK SC2SC3CI2 SLP148 DENSITY ALT 900FT

CYYG;2012-09-19 18:00;CYYG 191800Z 16020G31KT 15SM SCT030 BKN055 BKN200 21/17 A2995 RMK SC4SC1CI2 SLP142 DENSITY ALT 800FT

CYYG;2012-09-19 19:00;CYYG 191900Z 18022G35KT 15SM SCT030 BKN170 21/17 A2994 RMK SC4AC3 SLP138 DENSITY ALT 900FT

CYYG;2012-09-19 20:00;CYYG 192000Z 18020G29KT 15SM FEW030 BKN065 OVC120 21/18 A2996 RMK SC2SC3AC3 PRESRR SLP146 DENSITY ALT 800FT

CYYG;2012-09-19 20:25;CYYG 192025Z 18020G28KT 15SM -SHRA FEW030 BKN065 OVC120 21/18 A2996 RMK SC1SC5AC2 SLP147 DENSITY ALT 800FT

CYYG;2012-09-19 21:00;CYYG 192100Z 18021G28KT 15SM -SHRA FEW030 BKN052 OVC110 20/18 A2997 RMK SC1SC5AC2 SLP149 DENSITY ALT 700FT

CYYG;2012-09-19 21:40;CYYG 192140Z 18017G24KT 2 1/2SM -SHRA BR SCT006 OVC030 19/19 A2999 RMK SF4SC4 SLP156 DENSITY ALT 600FT

CYYG;2012-09-19 22:00;CYYG 192200Z 19014G25KT 1 1/2SM -SHRA BR SCT006 OVC015 19/19 A3000 RMK SF4SC4 SLP160 DENSITY ALT 500FT

CYYG;2012-09-19 22:45;CYYG 192245Z 31011KT 10SM -RA FEW007 BKN021 OVC032 14/13 A3005 RMK SF2SC4SC2 SLP176

CYYG;2012-09-19 23:00;CYYG 192300Z 30010KT 15SM -RA FEW007 OVC022 13/12 A3006 RMK SF2SC6 SLP180

CYYG;2012-09-20 00:00;CYYG 200000Z 30005KT 8SM RA BKN024 OVC031 13/12 A3009 RMK SC5SC3 SLP189

CYYG;2012-09-20 01:00;CYYG 200100Z 31002KT 6SM -RA BR OVC034 12/11 A3012 RERA RMK SC8 SLP199

CYYG;2012-09-20 02:00;CYYG 200200Z 29003KT 290V040 10SM -RA SCT034 OVC044 13/11 A3014 RMK SC3SC5 PRESRR SLP208

CYYG;2012-09-20 03:00;CYYG 200300Z 00000KT 10SM -RA OVC050 13/12 A3015 RMK SC8 SLP209

CYYG;2012-09-20 04:00;CYYG 200400Z 32008KT 10SM -RA SCT030 OVC046 12/11 A3017 RERA RMK SC3SC5 SLP218

CYYG;2012-09-20 04:18;CYYG 200418Z 36005KT 15SM FEW022 OVC047 12/10 A3018 RMK SC2SC6 SLP219

CYYG;2012-09-20 05:00;CYYG 200500Z 03004KT 15SM BKN048 OVC062 12/10 A3018 RMK SC5SC3 SLP221

CYYG;2012-09-20 06:00;CYYG 200600Z 01005KT 15SM BKN027 OVC046 12/11 A3018 RMK SC5SC3 SLP221

CYYG;2012-09-20 06:13;CYYG 200613Z 36006KT 8SM -DZ BKN015 OVC027 12/11 A3019 RMK SC5SC3 SLP222

CYYG;2012-09-20 07:00;CYYG 200700Z 04008KT 10SM -DZ FEW008 OVC034 12/12 A3019 RMK SF2SC6 SLP225

CYYG;2012-09-20 07:37;CYYG 200737Z 01004KT 15SM FEW038 OVC045 12/11 A3020 RMK SC2SC6 SLP228

CYYG;2012-09-20 08:00;CYYG 200800Z 04004KT 15SM FEW038 OVC043 12/11 A3021 RMK SC2SC6 SLP230

CYYG;2012-09-20 09:00;CYYG 200900Z 34005KT 15SM OVC041 11/09 A3022 RMK SC8 SLP235

CYYG;2012-09-20 10:00;CYYG 201000Z 35005KT 15SM BKN039 11/09 A3024 RMK SC7 SLP241

CYYG;2012-09-20 11:00;CYYG 201100Z 36007KT 15SM BKN037 BKN220 12/10 A3025 RMK SC6CC1 SLP245

CYYG;2012-09-20 12:00;CYYG 201200Z 01008KT 15SM FEW025 BKN037 13/10 A3026 RMK SC1SC6 SLP249

CYYG;2012-09-20 13:00;CYYG 201300Z 03012G19KT 15SM SCT025 BKN037 13/11 A3026 RMK SC4SC3 SLP249

CYYG;2012-09-20 14:00;CYYG 201400Z 03015G22KT 15SM BKN019 BKN045 14/11 A3026 RMK SC5SC2 SLP249

CYYG;2012-09-20 15:00;CYYG 201500Z 03012G18KT 15SM OVC019 13/10 A3027 RMK SC8 SLP252

CYYG;2012-09-20 16:00;CYYG 201600Z 04013G18KT 15SM OVC022 14/10 A3027 RMK SC8 SLP252

CYYG;2012-09-20 17:00;CYYG 201700Z 05013KT 15SM OVC020 14/10 A3026 RMK SC8 SLP248

CYYG;2012-09-20 18:00;CYYG 201800Z 02013KT 15SM OVC019 14/10 A3026 RMK SC8 SLP247

CYYG;2012-09-20 19:00;CYYG 201900Z 04013G18KT 15SM BKN018 BKN029 14/10 A3024 RMK SC5SC2 SLP243

CYYG;2012-09-20 20:00;CYYG 202000Z 02013KT 15SM SCT018 BKN027 14/10 A3024 RMK SC3SC4 SLP242

CYYG;2012-09-20 21:00;CYYG 202100Z 03012KT 15SM FEW022 BKN028 14/09 A3024 RMK SC2SC5 SLP241

CYYG;2012-09-20 22:00;CYYG 202200Z 05011KT 15SM FEW025 BKN045 13/09 A3024 RMK SC2SC5 VIS LWR SE SLP241

CYYG;2012-09-20 23:00;CYYG 202300Z 06007KT 15SM FEW014 BKN040 13/10 A3023 RMK SC2SC5 SLP238

CYYG;2012-09-20 23:29;CYYG 202329Z 06006KT 10SM -DZ FEW014 OVC035 13/11 A3024 RMK SC2SC6 SLP240

CYYG;2012-09-21 00:00;CYYG 210000Z 05004KT 8SM -DZ FEW018 OVC035 12/12 A3023 RMK SC2SC6 SLP239

CYYG;2012-09-21 01:00;CYYG 210100Z 04005KT 8SM -DZ FEW018 OVC027 12/12 A3022 RMK SC2SC6 SLP235

CYYG;2012-09-21 01:41;CYYG 210141Z 06005KT 5SM -DZ BR BKN003 OVC027 12/12 A3022 RMK SF5SC3 SLP233

CYYG;2012-09-21 02:00;CYYG 210200Z 05005KT 5SM -DZ BR BKN003 OVC025 12/12 A3021 RMK SF6SC2 SLP231

CYYG;2012-09-21 03:00;CYYG 210300Z 05004KT 10SM -DZ SCT002 OVC014 13/13 A3019 RMK SF4SC4 SLP225

CYYG;2012-09-21 03:42;CYYG 210342Z 02005KT 6SM -DZ BR BKN003 OVC012 13/13 A3018 RMK SF5SC3 SLP220

CYYG;2012-09-21 04:00;CYYG 210400Z 03005KT 6SM -DZ BR BKN003 OVC013 13/13 A3017 RMK SF6SC2 SLP218

CYYG;2012-09-21 04:24;CYYG 210424Z 05004KT 6SM -RA BR BKN003 OVC009 13/13 A3017 RMK SF6SC2 SLP217

CYYG;2012-09-21 05:00;CYYG 210500Z 06004KT 6SM RA BR BKN002 OVC006 14/14 A3016 RMK SF5SF3 SLP214

CYYG;2012-09-21 05:53;CYYG 210553Z 12005KT 3SM -DZ BR OVC003 15/15 A3015 RERA RMK SF8 SLP210

CYYG;2012-09-21 06:00;CYYG 210600Z 13006KT 3SM -DZ BR OVC003 15/15 A3015 RERA RMK SF8 SLP210

CYYG;2012-09-21 07:00;CYYG 210700Z 14008KT 10SM OVC003 17/17 A3014 RMK SF8 SLP205

CYYG;2012-09-21 08:00;CYYG 210800Z 16012KT 15SM -RA OVC005 18/18 A3014 RMK SF8 SLP206 DENSITY ALT 300FT

CYYG;2012-09-21 08:52;CYYG 210852Z 16012KT 15SM BKN004 OVC008 18/18 A3015 RMK SF5SF3 SLP210 DENSITY ALT 200FT

CYYG;2012-09-21 09:00;CYYG 210900Z 16010KT 15SM BKN004 OVC008 18/18 A3015 RMK SF5SF3 SLP210 DENSITY ALT 200FT

CYYG;2012-09-21 09:41;CYYG 210941Z 16011KT 5SM -DZ BR BKN004 OVC008 18/18 A3016 RMK SF5SF3 SLP213 DENSITY ALT 200FT

CYYG;2012-09-21 10:00;CYYG 211000Z 18009KT 5SM -DZ BR OVC004 18/18 A3016 RMK SF8 SLP215 DENSITY ALT 200FT

CYYG;2012-09-21 10:23;CYYG 211023Z 19007KT 1 1/2SM -DZ BR OVC003 17/17 A3017 RMK SF8 SLP218

CYYG;2012-09-21 11:00;CYYG 211100Z 17005KT 1 1/2SM -DZ BR BKN003 OVC008 17/17 A3018 RMK SF7SF1 SLP220

CYYG;2012-09-21 12:00;CYYG 211200Z 18007KT 4SM -DZ BR BKN003 OVC007 17/17 A3019 RMK SF7SF1 SLP223

CYYG;2012-09-21 12:45;CYYG 211245Z 19009KT 10SM BKN003 OVC012 17/17 A3020 RMK SF7SC1 SLP228

CYYG;2012-09-21 13:00;CYYG 211300Z 19009KT 10SM BKN003 OVC015 17/17 A3020 RMK SF7SC1 SLP229

CYYG;2012-09-21 13:26;CYYG 211326Z 18008KT 4SM -DZ BR BKN003 OVC025 18/18 A3021 RMK SF7SC1 SLP230

CYYG;2012-09-21 13:53;CYYG 211353Z 18008KT 15SM BKN003 OVC012 17/17 A3020 RMK SF7SC1 SLP229

CYYG;2012-09-21 14:00;CYYG 211400Z 17007KT 15SM BKN003 OVC012 17/17 A3021 RMK SF6SC2 SLP230

CYYG;2012-09-21 14:06;CYYG 211406Z 18006KT 15SM SCT004 OVC012 17/17 A3021 RMK SF3SC5 SLP230

CYYG;2012-09-21 14:45;CYYG 211445Z 15007KT 15SM BKN003 OVC010 18/18 A3020 RMK SF5SC3 SLP227 DENSITY ALT 200FT

CYYG;2012-09-21 15:00;CYYG 211500Z 15006KT 15SM BKN003 OVC011 18/18 A3019 RMK SF6SC2 SLP226 DENSITY ALT 200FT

CYYG;2012-09-21 15:23;CYYG 211523Z 17005KT 15SM BKN004 OVC011 18/18 A3019 RMK SF6SC2 SLP226 DENSITY ALT 200FT

CYYG;2012-09-21 16:00;CYYG 211600Z 15007KT 15SM -SHRA FEW005 BKN013 19/19 A3020 RMK SF2SC5 SLP227 DENSITY ALT 300FT

CYYG;2012-09-21 17:00;CYYG 211700Z 17009KT 15SM -SHRA SCT005 BKN012 21/20 A3018 RMK SF3SC4 PCPN VRY LGT SLP220 DENSITY ALT 500FT

CYYG;2012-09-21 17:18;CYYG 211718Z 17011KT 15SM FEW005 OVC013 21/20 A3018 RMK SF2SC6 SLP221 DENSITY ALT 500FT

CYYG;2012-09-21 18:00;CYYG 211800Z 16011KT 15SM FEW005 BKN012 OVC075 21/20 A3019 RMK SF1SC5AC2 SLP223 DENSITY ALT 600FT

CYYG;2012-09-21 18:30;CYYG 211830Z 16009KT 15SM SCT012 BKN035 OVC075 22/20 A3019 RMK SC3SC3AC2 SLP224 DENSITY ALT 600FT

CYYG;2012-09-21 19:00;CYYG 211900Z 16007KT 15SM FEW010 BKN020 OVC075 21/20 A3019 RMK SC1SC6AC1 SLP225 DENSITY ALT 600FT

CYYG;2012-09-21 19:40;CYYG 211940Z 15010KT 15SM -SHRA FEW010 BKN015 OVC075 21/20 A3019 RMK SF1SC6AC1 CU ASOCTD SLP223 DENSITY ALT 500FT

CYYG;2012-09-21 20:00;CYYG 212000Z 16010KT 10SM -SHRA FEW010 BKN015 OVC075 21/20 A3019 RMK SF1SC6AC1 CU ASOCTD VIS LWR SE-SW SLP223 DENSITY ALT 500FT

CYYG;2012-09-21 21:00;CYYG 212100Z 17009KT 12SM -SHRA FEW010 SCT017 BKN110 20/20 A3019 RERA RMK SF1SC3AC3 CU ASOCTD SLP222 DENSITY ALT 500FT

CYYG;2012-09-21 21:46;CYYG 212146Z 16010KT 15SM FEW017 FEW110 BKN180 20/20 A3019 RMK SC1AC1AC5 SLP224 DENSITY ALT 500FT

CYYG;2012-09-21 22:00;CYYG 212200Z 17008KT 15SM FEW060 SCT110 BKN180 20/20 A3020 RMK SC1AC2AC4 SLP226 DENSITY ALT 400FT

CYYG;2012-09-21 23:00;CYYG 212300Z 15006KT 15SM FEW022 SCT078 BKN240 20/19 A3020 RMK SC2AC2CI2 SLP226 DENSITY ALT 400FT

CYYG;2012-09-22 01:00;CYYG 220100Z 16010KT 15SM FEW018 SCT070 BKN230 20/19 A3020 RMK SC2AC2CI2 SLP227 DENSITY ALT 400FT

CYYG;2012-09-22 02:00;CYYG 220200Z 14009KT 15SM FEW005 SCT018 BKN240 20/19 A3019 RMK SF2SC1CI4 SLP225 DENSITY ALT 400FT

CYYG;2012-09-22 03:00;CYYG 220300Z 15010G17KT 15SM SCT005 OVC018 20/20 A3019 RMK SF4SC4 SLP224 DENSITY ALT 400FT

CYYG;2012-09-22 04:00;CYYG 220400Z 15011KT 15SM BKN007 OVC015 20/19 A3019 RMK SF5CU3 SLP223 DENSITY ALT 400FT

CYYG;2012-09-22 05:00;CYYG 220500Z 14008KT 15SM FEW007 BKN015 OVC200 20/19 A3018 RMK SF2SC4CI2 SLP220 DENSITY ALT 400FT

CYYG;2012-09-22 06:00;CYYG 220600Z 13007KT 15SM FEW007 FEW014 OVC170 20/19 A3016 RMK SF1SC1AC6 SLP215 DENSITY ALT 400FT

CYYG;2012-09-22 07:00;CYYG 220700Z 14009KT 15SM FEW007 BKN013 OVC120 20/19 A3015 RMK SF2SC4AC2 SLP211 DENSITY ALT 400FT

CYYG;2012-09-22 08:00;CYYG 220800Z 13009KT 10SM -SHRA BKN005 OVC060 20/20 A3014 RMK SF5SC3 SLP209 DENSITY ALT 400FT

CYYG;2012-09-22 08:30;CYYG 220830Z 11009KT 10SM SHRA BKN002 OVC037 20/20 A3013 RMK SF6SC2 SLP205 DENSITY ALT 400FT

CYYG;2012-09-22 09:00;CYYG 220900Z 11008KT 15SM SHRA BKN002 OVC005 20/20 A3013 RMK SF6SF2 SLP204 DENSITY ALT 400FT

CYYG;2012-09-22 09:47;CYYG 220947Z 12011KT 12SM -SHRA FEW003 OVC009 20/20 A3012 RERA RMK SF2SF6 SLP201 DENSITY ALT 500FT

CYYG;2012-09-22 10:00;CYYG 221000Z 13010KT 10SM -SHRA FEW004 BKN009 OVC014 20/20 A3012 RERA RMK SF1SF4SC3 SLP200 DENSITY ALT 500FT

CYYG;2012-09-22 10:37;CYYG 221037Z 14013KT 12SM FEW004 OVC008 20/20 A3011 RMK SF1SF7 SLP198 DENSITY ALT 500FT

CYYG;2012-09-22 11:00;CYYG 221100Z 15014G19KT 12SM FEW004 OVC007 20/20 A3011 RMK SF1SF7 SLP198 DENSITY ALT 500FT

CYYG;2012-09-22 12:00;CYYG 221200Z 15012G19KT 12SM FEW004 OVC008 20/20 A3012 RMK SF1SF7 SLP201 DENSITY ALT 600FT

CYYG;2012-09-22 13:00;CYYG 221300Z 15012G17KT 10SM BKN007 OVC014 21/20 A3011 RMK SF6SC2 VIS LWR W SLP198 DENSITY ALT 600FT

CYYG;2012-09-22 13:50;CYYG 221350Z 14011G17KT 10SM -SHRA SCT007 OVC014 21/20 A3010 RMK SF4SC4 SLP194 DENSITY ALT 700FT

CYYG;2012-09-22 14:00;CYYG 221400Z 15015KT 10SM -SHRA SCT007 OVC014 21/20 A3010 RMK SF4SC4 VIS LWR W SLP193 DENSITY ALT 700FT

CYYG;2012-09-22 14:44;CYYG 221444Z 15014KT 12SM VCSH BKN007 OVC014 22/21 A3009 RMK SF6SC2 SLP188 DENSITY ALT 700FT

CYYG;2012-09-22 15:00;CYYG 221500Z 15014KT 12SM VCSH BKN007 OVC012 22/21 A3008 RMK SF6SC2 SLP186 DENSITY ALT 800FT

CYYG;2012-09-22 15:47;CYYG 221547Z 15012G21KT 12SM VCSH BKN010 OVC021 22/21 A3007 RMK SF6SC2 SLP182 DENSITY ALT 800FT

CYYG;2012-09-22 16:00;CYYG 221600Z 15015G20KT 15SM VCSH SCT007 OVC012 22/21 A3007 RMK SF4SC4 SLP183 DENSITY ALT 800FT

CYYG;2012-09-22 17:00;CYYG 221700Z 15012G18KT 12SM VCSH SCT007 OVC013 22/21 A3006 RMK SF4SC4 SLP178 DENSITY ALT 800FT

CYYG;2012-09-22 18:00;CYYG 221800Z 15010KT 12SM -SHRA FEW007 BKN013 OVC025 22/21 A3005 RMK SF2SC4SC2 SLP175 DENSITY ALT 800FT

CYYG;2012-09-22 18:24;CYYG 221824Z 15013G18KT 15SM VCSH FEW007 SCT025 OVC066 23/21 A3004 RMK SF2SC2AC4 SLP174 DENSITY ALT 900FT

CYYG;2012-09-22 19:00;CYYG 221900Z 15014KT 15SM FEW007 SCT025 OVC075 23/21 A3003 RMK SF2SC2AC4 VIS LWR W SLP171 DENSITY ALT 900FT

CYYG;2012-09-22 20:00;CYYG 222000Z 15013G20KT 12SM VCSH FEW007 SCT020 OVC100 22/21 A3002 RMK SF2SC2AC4 VIS LWR W+NE SLP167 DENSITY ALT 900FT

CYYG;2012-09-22 20:14;CYYG 222014Z 15011G19KT 12SM -SHRA FEW007 BKN030 OVC100 22/21 A3002 RMK SF2SC4AC2 TCU ASOCTD SLP166 DENSITY ALT 900FT

CYYG;2012-09-22 21:00;CYYG 222100Z 14012G18KT 12SM VCSH FEW006 BKN028 OVC100 22/21 A3001 RMK SF2SC4AC2 TCU ASOCTD SLP163 DENSITY ALT 800FT

CYYG;2012-09-22 22:00;CYYG 222200Z 15013KT 12SM VCSH FEW006 BKN020 BKN130 22/21 A3000 RMK SF2SC4AC1 SLP160 DENSITY ALT 800FT

CYYG;2012-09-22 23:00;CYYG 222300Z 15012KT 15SM BKN011 21/21 A3001 RMK SC7 SLP162 DENSITY ALT 800FT

CYYG;2012-09-22 23:36;CYYG 222336Z 15011G18KT 12SM -SHRA FEW006 BKN012 21/21 A3001 RMK SF2SC5 SLP162 DENSITY ALT 800FT

CYYG;2012-09-23 00:00;CYYG 230000Z 16012G19KT 12SM -SHRA FEW006 OVC012 21/21 A3001 RMK SF2SC6 SLP161 DENSITY ALT 800FT

CYYG;2012-09-23 01:00;CYYG 230100Z 15012G17KT 15SM -SHRA FEW006 BKN013 OVC060 21/21 A3000 RMK SF2SC5SC1 SLP158 DENSITY ALT 800FT

CYYG;2012-09-23 02:00;CYYG 230200Z 15012KT 15SM FEW006 BKN014 OVC054 21/21 A2998 RMK SF1SC5SC2 SLP152 DENSITY ALT 800FT

CYYG;2012-09-23 02:36;CYYG 230236Z 14011G16KT 12SM -SHRA FEW005 BKN014 OVC054 21/21 A2997 RMK SF2SC4SC2 LTNG DIST SW SLP148 DENSITY ALT 800FT

CYYG;2012-09-23 03:00;CYYG 230300Z 14012G18KT 15SM -SHRA FEW005 BKN015 OVC062 21/21 A2997 RMK SF2SC4SC2 SLP149 DENSITY ALT 800FT

CYYG;2012-09-23 03:33;CYYG 230333Z 14011KT 12SM -SHRA BKN004 OVC015 21/21 A2995 RMK SF5SC3 SLP143 DENSITY ALT 800FT

CYYG;2012-09-23 04:00;CYYG 230400Z 14012KT 12SM -SHRA BKN004 OVC015 21/21 A2994 RERA RMK SF5SC3 SLP140 DENSITY ALT 800FT

CYYG;2012-09-23 05:00;CYYG 230500Z 15014KT 12SM -SHRA BKN004 OVC015 21/21 A2992 RMK SF5SC3 SLP131 DENSITY ALT 800FT

CYYG;2012-09-23 05:39;CYYG 230539Z 15014G19KT 12SM -SHRA SCT004 OVC013 21/21 A2990 RMK SF4SC4 SLP125 DENSITY ALT 900FT

CYYG;2012-09-23 06:00;CYYG 230600Z 15012G18KT 12SM -SHRA SCT004 OVC012 21/21 A2989 RMK SF3SC5 SLP123 DENSITY ALT 900FT

CYYG;2012-09-23 07:00;CYYG 230700Z 15013G20KT 15SM FEW004 OVC015 21/21 A2987 RMK SF2SC6 SLP115 DENSITY ALT 900FT

CYYG;2012-09-23 08:00;CYYG 230800Z 16012G19KT 12SM -SHRA BKN004 OVC015 21/21 A2985 RMK SF5SC3 SLP108 DENSITY ALT 900FT

CYYG;2012-09-23 09:00;CYYG 230900Z 16015G21KT 10SM +SHRA BKN004 OVC015 21/21 A2984 RMK SF7SC1 SLP104 DENSITY ALT 900FT

CYYG;2012-09-23 10:00;CYYG 231000Z 18009G15KT 2SM -SHRA BR BKN002 OVC010 20/20 A2985 RERA RMK ST7SC1 SLP108 DENSITY ALT 800FT

CYYG;2012-09-23 10:35;CYYG 231035Z 17008KT 3/4SM -DZ BR OVC002 20/20 A2985 RMK SF8 SLP107 DENSITY ALT 800FT

CYYG;2012-09-23 11:00;CYYG 231100Z 18007KT 3/4SM -DZ BR OVC002 20/20 A2985 RMK SF8 SLP108 DENSITY ALT 800FT

CYYG;2012-09-23 11:10;CYYG 231110Z 19008KT 2SM BR BKN002 OVC011 20/20 A2984 RMK SF6SC2 SLP106 DENSITY ALT 800FT

CYYG;2012-09-23 11:33;CYYG 231133Z 18009KT 5SM BR BKN002 BKN010 20/20 A2985 RMK SF6SC1 SLP109 DENSITY ALT 800FT

CYYG;2012-09-23 12:00;CYYG 231200Z 19007KT 12SM FEW002 SCT010 BKN034 20/20 A2985 RMK SF2SC2SC3 /R15/ SLP110 DENSITY ALT 900FT

CYYG;2012-09-23 13:00;CYYG 231300Z 19008KT 15SM SCT004 BKN015 BKN040 21/21 A2985 RMK SF3SC3SC1 SLP110 DENSITY ALT 1000FT

CYYG;2012-09-23 13:45;CYYG 231345Z 19010KT 15SM BKN007 BKN038 23/21 A2985 RMK SF5SC2 SLP107 DENSITY ALT 1100FT

CYYG;2012-09-23 14:00;CYYG 231400Z 19011KT 15SM BKN010 BKN038 22/21 A2985 RMK SC6SC1 SLP107 DENSITY ALT 1100FT

CYYG;2012-09-23 15:00;CYYG 231500Z 19010KT 15SM BKN012 23/21 A2984 RMK SC6 CU EMBDD SLP105 DENSITY ALT 1100FT

CYYG;2012-09-23 15:34;CYYG 231534Z 18011KT 15SM FEW011 SCT038 BKN300 22/20 A2984 RMK SC1SC2CI3 SLP105 DENSITY ALT 1000FT

CYYG;2012-09-23 16:00;CYYG 231600Z 19010KT 15SM FEW011 FEW038 BKN300 22/19 A2983 RMK SC1SC1CI4 SLP103 DENSITY ALT 1100FT

CYYG;2012-09-23 17:00;CYYG 231700Z 22012G18KT 15SM FEW020 FEW150 BKN300 23/18 A2983 RMK CU1AC1CI4 SLP101 DENSITY ALT 1200FT

CYYG;2012-09-23 18:00;CYYG 231800Z 22010G17KT 15SM FEW020 BKN300 23/18 A2983 RMK CU1CI5 SLP102 DENSITY ALT 1200FT

CYYG;2012-09-23 19:00;CYYG 231900Z 22011G20KT 15SM FEW020 FEW120 BKN300 23/17 A2983 RMK CU1AC1CI4 SLP103 DENSITY ALT 1100FT

CYYG;2012-09-23 19:31;CYYG 231931Z 23009G16KT 15SM FEW020 BKN034 BKN300 21/17 A2985 RMK SC1SC5CI1 SLP108 DENSITY ALT 900FT

CYYG;2012-09-23 20:00;CYYG 232000Z 24009G17KT 15SM FEW030 BKN050 BKN300 20/17 A2986 RMK SC2SC3CI2 SLP111 DENSITY ALT 800FT

CYYG;2012-09-23 21:00;CYYG 232100Z 24009G18KT 15SM FEW020 BKN057 20/17 A2986 RMK SC2SC5 SLP113 DENSITY ALT 800FT

CYYG;2012-09-23 22:00;CYYG 232200Z 24008KT 15SM FEW020 BKN036 19/17 A2988 RMK SC2SC5 SLP117 DENSITY ALT 700FT

CYYG;2012-09-23 23:00;CYYG 232300Z 24009KT 15SM BKN035 19/17 A2989 RMK SC7 SLP123 DENSITY ALT 600FT

CYYG;2012-09-24 00:00;CYYG 240000Z 24007KT 15SM BKN038 BKN140 18/16 A2991 RMK SC5AC2 SLP127 DENSITY ALT 500FT

CYYG;2012-09-24 01:00;CYYG 240100Z 25007KT 15SM FEW007 SCT040 OVC140 17/16 A2992 RMK SF1SC2AC5 SLP133 DENSITY ALT 400FT

CYYG;2012-09-24 02:00;CYYG 240200Z 26005KT 15SM FEW007 FEW040 OVC140 17/16 A2995 RMK SF1SC1AC6 SLP141 DENSITY ALT 300FT

CYYG;2012-09-24 03:00;CYYG 240300Z 26006KT 15SM FEW020 BKN130 16/15 A2996 RMK SC1AC6 SLP147 DENSITY ALT 200FT

CYYG;2012-09-24 04:00;CYYG 240400Z 27006KT 15SM BKN130 15/14 A2997 RMK AC6 SLP150

CYYG;2012-09-24 05:00;CYYG 240500Z 28005KT 15SM SCT130 14/13 A2999 RMK AC4 SLP157

CYYG;2012-09-24 06:00;CYYG 240600Z 30004KT 15SM SCT130 13/11 A3001 RMK AC3 SLP162

CYYG;2012-09-24 07:00;CYYG 240700Z 30007KT 15SM FEW130 12/09 A3001 RMK AC2 SLP162

CYYG;2012-09-24 08:00;CYYG 240800Z 31005KT 15SM FEW130 11/08 A3002 RMK AC1 SLP166

CYYG;2012-09-24 09:00;CYYG 240900Z 30005KT 15SM FEW130 10/08 A3003 RMK AC1 SLP171

CYYG;2012-09-24 10:00;CYYG 241000Z 32004KT 15SM FEW130 10/08 A3004 RMK AC1 SLP175

CYYG;2012-09-24 11:00;CYYG 241100Z 00000KT 15SM FEW130 FEW250 09/08 A3007 RMK AC1CI1 SLP183

CYYG;2012-09-24 12:00;CYYG 241200Z 17002KT 15SM FEW130 FEW250 14/11 A3007 RMK AC1CI1 SLP185

CYYG;2012-09-24 13:00;CYYG 241300Z 00000KT 15SM FEW020 FEW130 SCT250 15/10 A3009 RMK CF1AC1CI1 SLP189

CYYG;2012-09-24 14:00;CYYG 241400Z 18003KT 15SM FEW028 FEW130 SCT250 16/08 A3009 RMK CU1AC1CI1 SLP190

CYYG;2012-09-24 15:00;CYYG 241500Z 19006KT 160V320 15SM FEW032 FEW120 SCT250 17/08 A3008 RMK CU1AC1CI1 SLP186 DENSITY ALT 200FT

CYYG;2012-09-24 16:00;CYYG 241600Z 21005KT 15SM FEW032 FEW120 SCT250 18/09 A3008 RMK CU1AC1CI1 SLP187 DENSITY ALT 300FT

CYYG;2012-09-24 17:00;CYYG 241700Z 20004KT 15SM FEW040 SCT060 BKN250 18/09 A3006 RMK CU1SC3CI1 SLP180 DENSITY ALT 300FT

CYYG;2012-09-24 18:00;CYYG 241800Z 21006KT 15SM FEW040 SCT052 SCT120 BKN250 18/08 A3005 RMK CU1SC2AC1CI2 SLP176 DENSITY ALT 400FT

CYYG;2012-09-24 19:00;CYYG 241900Z 19004KT 15SM FEW040 FEW052 BKN110 BKN250 18/06 A3002 RMK CU1SC1AC3CI1 SLP166 DENSITY ALT 400FT

CYYG;2012-09-24 19:37;CYYG 241937Z 01008KT 15SM FEW040 FEW052 BKN110 BKN250 17/11 A3002 RMK CU1SC1AC3CI1 SLP166 DENSITY ALT 300FT

CYYG;2012-09-24 20:00;CYYG 242000Z 02009KT 15SM FEW040 FEW050 BKN110 BKN250 16/10 A3001 RMK CU1SC1AC3CI2 SLP163

CYYG;2012-09-24 21:00;CYYG 242100Z 03007KT 15SM FEW050 BKN100 BKN250 15/10 A3001 RMK CU1AC5CI1 SLP163

CYYG;2012-09-24 22:00;CYYG 242200Z 36004KT 15SM FEW035 BKN047 BKN100 14/10 A3001 RMK SC1SC4AC2 SLP165

CYYG;2012-09-24 23:00;CYYG 242300Z 01004KT 15SM BKN049 BKN075 14/11 A3001 RMK SC5AC2 SLP163

CYYG;2012-09-24 23:51;CYYG 242351Z 04005KT 15SM -RA BKN052 BKN077 14/11 A3000 RMK SC5AC2 SLP160

CYYG;2012-09-25 00:00;CYYG 250000Z 02005KT 15SM -RA BKN052 BKN077 14/11 A2999 RMK SC5AC2 SLP158

CYYG;2012-09-25 01:00;CYYG 250100Z 07006KT 10SM RA BKN053 OVC078 13/11 A3002 RMK SC5AC3 SLP167

CYYG;2012-09-25 02:00;CYYG 250200Z 05007KT 15SM -RA FEW035 OVC077 12/11 A2996 RERA RMK SC2AC6 SLP146

CYYG;2012-09-25 03:00;CYYG 250300Z 00000KT 10SM RA BKN050 OVC070 12/11 A2998 RMK SC5AC3 SLP155

CYYG;2012-09-25 04:00;CYYG 250400Z 13003KT 10SM RA BKN037 OVC067 11/11 A2999 RMK SC5AC3 SLP156

CYYG;2012-09-25 05:00;CYYG 250500Z VRB02KT 10SM -RA OVC052 11/11 A2999 RERA RMK SC8 /R11/ SLP156

CYYG;2012-09-25 06:00;CYYG 250600Z 04004KT 10SM RA OVC039 10/09 A2996 RMK SC8 PRESFR SLP146

CYYG;2012-09-25 06:53;CYYG 250653Z 15004KT 050V150 15SM FEW015 BKN043 OVC064 10/09 A2998 RERA RMK CU1SC4SC3 SLP152

CYYG;2012-09-25 07:00;CYYG 250700Z 18004KT 15SM FEW015 BKN043 OVC064 10/10 A2998 RERA RMK CU1SC4SC3 SLP154

CYYG;2012-09-25 08:00;CYYG 250800Z 21004KT 15SM FEW028 FEW082 10/09 A3001 RMK SC1AC1 SLP162

CYYG;2012-09-25 09:00;CYYG 250900Z 21005KT 15SM FEW023 FEW082 09/08 A3001 RMK SC1AC1 SLP165

CYYG;2012-09-25 10:00;CYYG 251000Z 21005KT 15SM FEW023 FEW082 09/09 A3003 RMK SC1AC1 SLP171

CYYG;2012-09-25 11:00;CYYG 251100Z 22006KT 15SM FEW025 FEW220 11/09 A3006 RMK CF1CI1 SLP181

CYYG;2012-09-25 12:00;CYYG 251200Z 24007KT 15SM FEW025 FEW220 13/11 A3009 RMK CF1CI1 SLP190

CYYG;2012-09-25 13:00;CYYG 251300Z 23008KT 15SM FEW025 FEW220 14/10 A3011 RMK CF1CI1 SLP199

CYYG;2012-09-25 14:00;CYYG 251400Z 23008KT 15SM FEW025 15/08 A3012 RMK CF1 SLP202

CYYG;2012-09-25 15:00;CYYG 251500Z 23010G16KT 15SM FEW025 16/06 A3011 RMK CF1 SLP198

CYYG;2012-09-25 16:00;CYYG 251600Z 22011KT 15SM FEW030 17/08 A3011 RMK CF1 SLP196 DENSITY ALT 200FT

CYYG;2012-09-25 17:00;CYYG 251700Z 22014G20KT 15SM FEW030 17/07 A3009 RMK CF1 SLP191 DENSITY ALT 200FT

CYYG;2012-09-25 18:00;CYYG 251800Z 21012G23KT 15SM FEW030 18/09 A3008 RMK CF1 SLP188 DENSITY ALT 300FT

CYYG;2012-09-25 19:00;CYYG 251900Z 22016G24KT 15SM FEW035 18/06 A3009 RMK CF1 SLP188 DENSITY ALT 300FT

CYYG;2012-09-25 20:00;CYYG 252000Z 22013G23KT 15SM FEW035 18/07 A3010 RMK CF1 SLP193 DENSITY ALT 300FT

CYYG;2012-09-25 21:00;CYYG 252100Z 23013G20KT 15SM FEW040 17/07 A3010 RMK SC1 SLP194

CYYG;2012-09-25 22:00;CYYG 252200Z 23013G21KT 15SM FEW040 15/06 A3011 RMK SC1 SLP197

CYYG;2012-09-25 23:00;CYYG 252300Z 23012G25KT 15SM FEW040 15/08 A3013 RMK SC1 SLP204

CYYG;2012-09-26 00:00;CYYG 260000Z 24011G16KT 15SM FEW040 15/07 A3014 RMK SC1 SLP208

CYYG;2012-09-26 01:00;CYYG 260100Z 22011G19KT 15SM FEW040 15/07 A3015 RMK SC1 SLP211

CYYG;2012-09-26 02:00;CYYG 260200Z 21009G17KT 15SM FEW040 14/09 A3016 RMK SC1 SLP213

CYYG;2012-09-26 03:00;CYYG 260300Z 22011KT 15SM FEW040 14/09 A3016 RMK SC1 SLP213

CYYG;2012-09-26 04:00;CYYG 260400Z 22009KT 15SM FEW040 14/09 A3016 RMK SC1 SLP216

CYYG;2012-09-26 05:00;CYYG 260500Z 22011KT 15SM SKC 13/10 A3017 RMK CI TR SLP218

CYYG;2012-09-26 06:00;CYYG 260600Z 22008KT 15SM SKC 13/10 A3016 RMK CI TR SLP215

CYYG;2012-09-26 07:00;CYYG 260700Z 20008KT 15SM SKC 13/11 A3016 RMK CI TR SLP215

CYYG;2012-09-26 08:00;CYYG 260800Z 18008KT 15SM SKC 13/11 A3016 RMK CI TR SLP213

CYYG;2012-09-26 09:00;CYYG 260900Z 20008KT 15SM SKC 13/12 A3016 RMK CI TR SLP213

CYYG;2012-09-26 10:00;CYYG 261000Z 19010KT 15SM FEW010 BKN300 13/12 A3017 RMK CF1CI6 SLP217

CYYG;2012-09-26 11:00;CYYG 261100Z 20009KT 15SM BKN330 14/12 A3018 RMK CI7 CONTRAILS SLP220

CYYG;2012-09-26 12:00;CYYG 261200Z 20010G16KT 15SM FEW011 BKN330 15/13 A3019 RMK SC1CI6 CS ASOCTD HALO CONTRAILS SLP224

CYYG;2012-09-26 12:53;CYYG 261253Z 19011KT 15SM BKN013 BKN330 15/13 A3019 RMK SC5CI2 SLP226

CYYG;2012-09-26 13:00;CYYG 261300Z 19016KT 15SM BKN013 BKN330 15/13 A3020 RMK SC5CI2 SLP227

CYYG;2012-09-26 14:00;CYYG 261400Z 19015KT 15SM SCT015 BKN210 BKN330 16/13 A3018 RMK SC4CC1CI2 SLP222

CYYG;2012-09-26 15:00;CYYG 261500Z 20017G22KT 15SM FEW018 BKN160 OVC300 17/13 A3016 RMK SC1AC4CS3 SLP213

CYYG;2012-09-26 16:00;CYYG 261600Z 18016KT 15SM FEW018 BKN150 OVC300 18/13 A3016 RMK SC1AC4CS3 SLP213 DENSITY ALT 200FT

CYYG;2012-09-26 17:00;CYYG 261700Z 19018KT 15SM FEW035 BKN150 18/13 A3014 RMK SC2AC5 SLP206 DENSITY ALT 300FT

CYYG;2012-09-26 18:00;CYYG 261800Z 20014G21KT 15SM FEW035 BKN120 OVC300 20/13 A3013 RMK SC1AC5CS2 SLP202 DENSITY ALT 500FT

CYYG;2012-09-26 19:00;CYYG 261900Z 19015KT 15SM FEW035 OVC120 19/13 A3011 RMK SC1AC7 VIRGA SLP196 DENSITY ALT 400FT

CYYG;2012-09-26 20:00;CYYG 262000Z 18013G19KT 15SM FEW040 OVC110 18/13 A3009 RMK SC2AC6 VIRGA SLP189 DENSITY ALT 300FT

CYYG;2012-09-26 20:29;CYYG 262029Z 18014KT 15SM -SHRA FEW045 OVC100 18/14 A3008 RMK SC1AC7 SLP186 DENSITY ALT 300FT

CYYG;2012-09-26 21:00;CYYG 262100Z 18015KT 15SM FEW045 OVC100 18/14 A3008 RMK SC2AC6 SLP186 DENSITY ALT 300FT

CYYG;2012-09-26 22:00;CYYG 262200Z 19012G20KT 15SM BKN046 OVC100 18/13 A3007 RMK SC5AC3 SLP184 DENSITY ALT 300FT

CYYG;2012-09-26 22:14;CYYG 262214Z 18015G23KT 15SM SCT045 OVC090 18/13 A3007 RMK SC4AC4 SLP182 DENSITY ALT 300FT

CYYG;2012-09-26 23:00;CYYG 262300Z 19016G27KT 15SM -SHRA SCT040 OVC086 17/13 A3006 RMK SC4AC4 SLP180 DENSITY ALT 200FT

CYYG;2012-09-27 00:00;CYYG 270000Z 18018G24KT 15SM -SHRA SCT040 OVC069 17/13 A3005 RMK SC4AC4 SLP176 DENSITY ALT 200FT

CYYG;2012-09-27 00:37;CYYG 270037Z 18016G24KT 15SM FEW040 OVC072 17/13 A3005 RMK SC2AC6 SLP176 DENSITY ALT 200FT

CYYG;2012-09-27 01:00;CYYG 270100Z 18016G24KT 15SM FEW040 OVC056 17/13 A3003 RMK SC2SC6 SLP172 DENSITY ALT 200FT

CYYG;2012-09-27 01:18;CYYG 270118Z 19014G20KT 15SM -SHRA OVC060 17/13 A3004 RMK SC8 SLP173 DENSITY ALT 200FT

CYYG;2012-09-27 02:00;CYYG 270200Z 18015KT 15SM -SHRA OVC044 16/14 A3002 RMK SC8 SLP168

CYYG;2012-09-27 03:00;CYYG 270300Z 18014G23KT 15SM -SHRA OVC047 17/14 A3000 RMK SC8 SLP160 DENSITY ALT 200FT

CYYG;2012-09-27 03:47;CYYG 270347Z 19019G26KT 15SM OVC030 17/14 A2998 RMK SC8 SLP153 DENSITY ALT 300FT

CYYG;2012-09-27 04:00;CYYG 270400Z 19020G27KT 15SM OVC029 17/14 A2998 RMK NS8 SLP152 DENSITY ALT 300FT

CYYG;2012-09-27 05:00;CYYG 270500Z 19015G23KT 15SM OVC023 16/14 A2997 RMK SC8 SLP148 DENSITY ALT 200FT

CYYG;2012-09-27 06:00;CYYG 270600Z 20011G20KT 15SM OVC022 16/15 A2994 RMK SC8 SLP139 DENSITY ALT 300FT

CYYG;2012-09-27 07:00;CYYG 270700Z 19013KT 15SM OVC016 16/15 A2991 RMK SC8 SLP130 DENSITY ALT 200FT

CYYG;2012-09-27 07:48;CYYG 270748Z 20016KT 10SM -SHRA BKN008 16/15 A2991 RMK ST6 SLP127 DENSITY ALT 300FT

CYYG;2012-09-27 08:00;CYYG 270800Z 20013KT 10SM OVC007 16/15 A2991 RMK SF8 SLP128 DENSITY ALT 300FT

CYYG;2012-09-27 08:43;CYYG 270843Z 20012G20KT 10SM SHRA OVC007 16/15 A2989 RMK SF8 SLP123 DENSITY ALT 300FT

CYYG;2012-09-27 09:00;CYYG 270900Z 21012G17KT 10SM -SHRA OVC007 16/15 A2990 RMK SF8 SLP124 DENSITY ALT 300FT

CYYG;2012-09-27 10:00;CYYG 271000Z 23009KT 10SM OVC005 16/15 A2990 RMK SF8 SLP124 DENSITY ALT 300FT

CYYG;2012-09-27 10:36;CYYG 271036Z 22007KT 15SM BKN006 BKN020 16/15 A2990 RMK SF6SC1 SLP124 DENSITY ALT 300FT

CYYG;2012-09-27 11:00;CYYG 271100Z 24008KT 15SM OVC006 16/16 A2991 RMK SF8 SLP128 DENSITY ALT 300FT

CYYG;2012-09-27 12:00;CYYG 271200Z 26009KT 15SM BKN009 BKN100 16/15 A2992 RMK SC5AC1 SLP132 DENSITY ALT 300FT

CYYG;2012-09-27 12:04;CYYG 271204Z 26010G16KT 15SM BKN010 16/15 A2992 RMK SC7 SLP133 DENSITY ALT 300FT

CYYG;2012-09-27 12:36;CYYG 271236Z 33015G22KT 15SM BKN012 OVC045 14/12 A2993 RMK SC5SC3 FROPA WSHFT 1231 SLP136

CYYG;2012-09-27 12:46;CYYG 271246Z 32012G18KT 15SM -SHRA OVC019 13/11 A2994 RMK SC8 PRESRR SLP140

CYYG;2012-09-27 13:00;CYYG 271300Z 32010G18KT 15SM OVC018 13/11 A2995 RMK SC8 SLP143

CYYG;2012-09-27 14:00;CYYG 271400Z 31010G19KT 15SM FEW015 BKN027 13/08 A2997 RMK CF1SC6 SLP151

CYYG;2012-09-27 15:00;CYYG 271500Z 32010G19KT 15SM FEW020 BKN045 13/08 A2998 RMK SC1SC4 SLP155

CYYG;2012-09-27 16:00;CYYG 271600Z 32010G19KT 15SM FEW002 SCT050 14/07 A3000 RMK NS2SC1 SLP161

CYYG;2012-09-27 17:00;CYYG 271700Z 33011G21KT 15SM SCT032 14/06 A3001 RMK SC4 SLP163

CYYG;2012-09-27 18:00;CYYG 271800Z 31012G18KT 15SM FEW032 14/06 A3001 RMK SC2 SLP164

CYYG;2012-09-27 19:00;CYYG 271900Z 32013G18KT 15SM FEW035 14/05 A3002 RMK SC1 SLP167

CYYG;2012-09-27 20:00;CYYG 272000Z 32010G18KT 15SM FEW035 13/04 A3004 RMK SC1 SLP174

CYYG;2012-09-27 21:00;CYYG 272100Z 30009G15KT 15SM FEW035 13/04 A3006 RMK SC1 SLP179

CYYG;2012-09-27 22:00;CYYG 272200Z 29006KT 15SM FEW035 11/04 A3007 RMK SC1 SLP185

CYYG;2012-09-27 23:00;CYYG 272300Z 31003KT 15SM FEW035 09/05 A3009 RMK SC2 SLP190

CYYG;2012-09-28 00:00;CYYG 280000Z 32006KT 15SM FEW035 09/05 A3011 RMK SC2 SLP196

CYYG;2012-09-28 01:00;CYYG 280100Z 30006KT 15SM FEW030 10/05 A3012 RMK SC1 SLP201

CYYG;2012-09-28 02:00;CYYG 280200Z 30004KT 15SM FEW030 09/05 A3014 RMK SC2 SLP207

CYYG;2012-09-28 03:00;CYYG 280300Z 27006KT 15SM FEW030 08/04 A3015 RMK SC1 SLP210

CYYG;2012-09-28 04:00;CYYG 280400Z 27007KT 15SM FEW030 08/04 A3016 RMK SC1 SLP214

CYYG;2012-09-28 05:00;CYYG 280500Z 27007KT 15SM FEW030 08/05 A3017 RMK SC1 SLP218

CYYG;2012-09-28 06:00;CYYG 280600Z 29007KT 15SM FEW030 08/05 A3016 RMK SC1 SLP215

CYYG;2012-09-28 07:00;CYYG 280700Z 28006KT 15SM FEW030 08/05 A3018 RMK SC1 SLP220

CYYG;2012-09-28 08:00;CYYG 280800Z 27008KT 15SM FEW030 07/05 A3018 RMK SC1 SLP222

CYYG;2012-09-28 09:00;CYYG 280900Z 28004KT 15SM FEW030 07/05 A3019 RMK SC1 SLP225

CYYG;2012-09-28 10:00;CYYG 281000Z 26006KT 15SM FEW030 07/05 A3020 RMK SC2 SLP230

CYYG;2012-09-28 11:00;CYYG 281100Z 25007KT 15SM FEW025 07/06 A3023 RMK SC2 SLP238

CYYG;2012-09-28 12:00;CYYG 281200Z 26007KT 15SM FEW025 SCT300 09/07 A3024 RMK SC2CI2 SLP243

CYYG;2012-09-28 13:00;CYYG 281300Z 29004KT 15SM FEW025 SCT300 12/09 A3024 RMK SC2CI2 SLP243

CYYG;2012-09-28 14:00;CYYG 281400Z 28007KT 15SM FEW019 SCT300 13/07 A3025 RMK CU2CI2 SLP247

CYYG;2012-09-28 15:00;CYYG 281500Z 28003KT 250V310 15SM SCT020 BKN300 14/08 A3024 RMK CU3CI3 SLP244

CYYG;2012-09-28 16:00;CYYG 281600Z 32007KT 240V330 15SM FEW035 BKN300 14/06 A3024 RMK CU2CI3 SLP241

CYYG;2012-09-28 17:00;CYYG 281700Z 25005KT 240V310 15SM FEW040 BKN300 15/06 A3022 RMK CU2CI3 SLP234

CYYG;2012-09-28 18:00;CYYG 281800Z 26005KT 15SM FEW040 BKN300 15/07 A3022 RMK CU2CI3 SLP233

CYYG;2012-09-28 19:00;CYYG 281900Z 24003KT 180V250 15SM FEW043 SCT300 15/06 A3021 RMK SC2CI2 SLP231

CYYG;2012-09-28 20:00;CYYG 282000Z 02007KT 15SM FEW033 BKN300 14/08 A3021 RMK SC1CI6 SLP232

CYYG;2012-09-28 21:00;CYYG 282100Z 05003KT 15SM FEW033 BKN300 14/07 A3022 RMK SC1CI6 SLP234

CYYG;2012-09-28 22:00;CYYG 282200Z 07002KT 15SM FEW033 SCT160 BKN300 10/06 A3023 RMK SC1AC2CI4 SLP238

CYYG;2012-09-28 23:00;CYYG 282300Z 00000KT 15SM SCT160 BKN300 08/06 A3024 RMK AC3CI4 SLP243

CYYG;2012-09-29 00:00;CYYG 290000Z 10004KT 15SM SCT160 BKN300 10/06 A3024 RMK AC3CI4 SLP243

CYYG;2012-09-29 01:00;CYYG 290100Z 11004KT 15SM SCT160 BKN250 08/06 A3024 RMK AC3CI4 SLP241

CYYG;2012-09-29 02:00;CYYG 290200Z 11005KT 15SM FEW160 BKN250 09/06 A3024 RMK AC2CI4 SLP242

CYYG;2012-09-29 03:00;CYYG 290300Z 12003KT 15SM BKN200 09/06 A3023 RMK CC5 SLP239

CYYG;2012-09-29 04:00;CYYG 290400Z 10003KT 15SM BKN180 08/06 A3023 RMK CC5 SLP238

CYYG;2012-09-29 05:00;CYYG 290500Z 10003KT 15SM BKN160 07/07 A3023 RMK AC5 SLP240

CYYG;2012-09-29 06:00;CYYG 290600Z 11004KT 15SM BKN160 07/07 A3023 RMK AC5 SLP237

CYYG;2012-09-29 07:00;CYYG 290700Z 00000KT 15SM SCT150 BKN240 07/07 A3022 RMK AC3CI3 SLP233

CYYG;2012-09-29 08:00;CYYG 290800Z 09002KT 15SM SCT150 BKN240 08/08 A3022 RMK AC3CI3 SLP233

CYYG;2012-09-29 09:00;CYYG 290900Z 11005KT 15SM FEW150 BKN240 08/07 A3022 RMK AC2CI3 SLP233

CYYG;2012-09-29 10:00;CYYG 291000Z 12006KT 15SM FEW025 SCT130 BKN240 09/08 A3022 RMK SC1AC2CS3 SLP237

CYYG;2012-09-29 11:00;CYYG 291100Z 11005KT 15SM FEW020 SCT140 BKN240 10/08 A3025 RMK SC1AC3CS3 SLP245

CYYG;2012-09-29 12:00;CYYG 291200Z 11003KT 15SM FEW020 BKN110 BKN180 11/09 A3026 RMK SC1AC4AC2 SLP248

CYYG;2012-09-29 13:00;CYYG 291300Z 12006KT 15SM FEW025 BKN090 OVC170 12/10 A3026 RMK SC1AC4AC3 SLP248

CYYG;2012-09-29 14:00;CYYG 291400Z 13008KT 15SM FEW025 SCT060 OVC090 13/11 A3025 RMK SC1SC3AC4 SLP245

CYYG;2012-09-29 14:20;CYYG 291420Z 12008KT 15SM -RA FEW025 BKN055 OVC090 13/11 A3024 RMK SC1SC4AC3 SLP244

CYYG;2012-09-29 15:00;CYYG 291500Z 13011KT 15SM -RA FEW025 OVC054 13/11 A3024 RMK SC1SC7 SLP240

CYYG;2012-09-29 16:00;CYYG 291600Z 12009KT 15SM -RA FEW025 OVC051 13/11 A3022 RMK SC1SC7 SLP236

CYYG;2012-09-29 17:00;CYYG 291700Z 11010G16KT 12SM -RA BKN035 OVC080 13/12 A3019 RMK SC6AC2 SLP227

CYYG;2012-09-29 18:00;CYYG 291800Z 09009KT 12SM -RA BKN035 OVC069 13/12 A3018 RMK SC5AC3 SLP222

CYYG;2012-09-29 19:00;CYYG 291900Z 10012G17KT 8SM -RA SCT035 OVC060 13/12 A3016 RMK SC4SC4 SLP215

CYYG;2012-09-29 20:00;CYYG 292000Z 09011G18KT 6SM -RA BR SCT010 OVC029 13/13 A3014 RMK SF4SC4 SLP209

CYYG;2012-09-29 21:00;CYYG 292100Z 10014G20KT 5SM -RA BR BKN009 OVC020 13/13 A3013 RMK SF5SC3 SLP205

CYYG;2012-09-29 21:51;CYYG 292151Z 11013G21KT 2SM -RA BR BKN006 OVC020 14/13 A3013 RMK SF6CU2 SLP203

CYYG;2012-09-29 22:00;CYYG 292200Z 10011G21KT 3SM -RA BR BKN006 OVC015 14/13 A3013 RMK SF6SC2 SLP204

CYYG;2012-09-29 23:00;CYYG 292300Z 11013G20KT 6SM -RA BR OVC006 14/13 A3013 RMK SF8 /R12/ SLP203

CYYG;2012-09-30 00:00;CYYG 300000Z 11015KT 6SM -RA BR OVC007 14/13 A3012 RMK SF8 SLP200

CYYG;2012-09-30 01:00;CYYG 300100Z 11016G22KT 6SM -RA BR BKN005 OVC024 14/14 A3011 RERA RMK SF7NS1 SLP197

CYYG;2012-09-30 02:00;CYYG 300200Z 11017KT 8SM -RA OVC007 14/14 A3009 RMK SF8 SLP188

CYYG;2012-09-30 03:00;CYYG 300300Z 11013G21KT 8SM -RA OVC007 14/14 A3008 RMK SF8 SLP188

CYYG;2012-09-30 04:00;CYYG 300400Z 12017G23KT 10SM -SHRA OVC007 15/14 A3006 RMK SF8 SLP180

CYYG;2012-09-30 05:00;CYYG 300500Z 12016G21KT 12SM -SHRA OVC007 15/15 A3006 RMK SF8 SLP178

CYYG;2012-09-30 06:00;CYYG 300600Z 11012G20KT 12SM -SHRA OVC008 15/15 A3004 RMK SF8 SLP175

CYYG;2012-09-30 07:00;CYYG 300700Z 12012G17KT 12SM -SHRA BKN008 OVC020 16/15 A3004 RMK SF6SC2 SLP173

CYYG;2012-09-30 08:00;CYYG 300800Z 11013KT 12SM -SHRA BKN007 OVC014 16/16 A3003 RERA RMK SF6SC2 SLP170

CYYG;2012-09-30 09:00;CYYG 300900Z 13008KT 12SM -SHRA BKN006 OVC011 16/16 A3003 RMK SF6SC2 SLP170

CYYG;2012-09-30 09:45;CYYG 300945Z 12008KT 12SM SCT004 BKN013 OVC080 16/16 A3004 RMK SF3SC4AC1 SLP173

CYYG;2012-09-30 10:00;CYYG 301000Z 14007KT 12SM BKN005 BKN015 BKN080 16/16 A3004 RMK SF5SC1AC1 SLP175

CYYG;2012-09-30 10:23;CYYG 301023Z 13008KT 15SM SCT003 BKN018 BKN076 16/16 A3005 RMK SF3SC3AC1 SLP177

CYYG;2012-09-30 10:28;CYYG 301028Z 12006KT 15SM BKN003 BKN017 16/16 A3005 RMK SF5SC2 SLP176

CYYG;2012-09-30 11:00;CYYG 301100Z 11007KT 10SM OVC003 16/16 A3003 RMK SF8 SLP169 DENSITY ALT 200FT

CYYG;2012-09-30 11:31;CYYG 301131Z 13006KT 10SM -DZ BKN003 OVC016 17/17 A3003 RMK SF6SC2 VIS SW 4 SLP171 DENSITY ALT 200FT

CYYG;2012-09-30 12:00;CYYG 301200Z 12008KT 10SM -DZ BKN003 OVC012 17/17 A3003 RMK SF6SC2 VIS SW-W 4 SLP171 DENSITY ALT 300FT

CYYG;2012-09-30 12:07;CYYG 301207Z 12010KT 15SM SCT003 BKN012 OVC032 17/17 A3003 RMK SF4SC2SC2 VIS LWR NW SLP170 DENSITY ALT 300FT

CYYG;2012-09-30 12:16;CYYG 301216Z 12010KT 15SM BKN005 BKN011 OVC029 17/17 A3003 RMK SF6SC1SC1 SLP170 DENSITY ALT 300FT

CYYG;2012-09-30 12:36;CYYG 301236Z 11010KT 10SM -DZ BKN005 BKN011 OVC029 18/18 A3003 RMK SF6SC1SC1 SLP170 DENSITY ALT 300FT

CYYG;2012-09-30 13:00;CYYG 301300Z 12010KT 15SM -DZ BKN004 OVC009 18/18 A3002 RMK SF7SF1 SLP168 DENSITY ALT 400FT

CYYG;2012-09-30 14:00;CYYG 301400Z 13007KT 10SM -DZ BKN005 OVC009 18/18 A3004 RMK SF6SF2 SLP173 DENSITY ALT 400FT

CYYG;2012-09-30 14:48;CYYG 301448Z 13007KT 15SM SCT006 OVC017 19/19 A3003 RMK SF4SC4 SLP171 DENSITY ALT 500FT

CYYG;2012-09-30 15:00;CYYG 301500Z 13008KT 15SM -RA FEW006 BKN016 OVC130 19/19 A3002 RMK SF2SC4AS2 SLP167 DENSITY ALT 500FT

CYYG;2012-09-30 15:27;CYYG 301527Z 12009KT 15SM BKN006 OVC019 19/19 A3001 RMK SF5SC3 SLP165 DENSITY ALT 600FT

CYYG;2012-09-30 15:42;CYYG 301542Z 11010KT 15SM FEW007 OVC016 20/19 A3001 RMK SF2SC6 SLP162 DENSITY ALT 600FT

CYYG;2012-09-30 16:00;CYYG 301600Z 10008KT 15SM FEW007 OVC016 19/19 A3000 RMK SF2SC6 SLP160 DENSITY ALT 600FT

CYYG;2012-09-30 16:09;CYYG 301609Z 10009KT 10SM -DZ BKN007 OVC012 19/19 A2999 RMK ST7SC1 SLP157 DENSITY ALT 600FT

CYYG;2012-09-30 17:00;CYYG 301700Z 11011G17KT 15SM -RA OVC007 19/19 A2997 RMK SF8 SLP148 DENSITY ALT 600FT

CYYG;2012-09-30 17:40;CYYG 301740Z 10010KT 2SM RA BR OVC005 19/18 A2995 RMK SF8 SLP143 DENSITY ALT 500FT

CYYG;2012-09-30 18:00;CYYG 301800Z 08009KT 3SM RA BR OVC006 18/18 A2993 RERA RMK SF8 SLP138 DENSITY ALT 500FT

CYYG;2012-09-30 18:24;CYYG 301824Z 11008KT 10SM -RA BKN003 OVC007 18/18 A2993 RERA RMK SF5SF3 VIS LWR W-NE SLP137 DENSITY ALT 500FT

CYYG;2012-09-30 18:37;CYYG 301837Z 10010KT 15SM SCT004 OVC007 18/18 A2992 RERA RMK SF4SF4 SLP133 DENSITY ALT 500FT

CYYG;2012-09-30 19:00;CYYG 301900Z 12010KT 15SM OVC005 19/19 A2991 RERA RMK SF8 SLP129 DENSITY ALT 600FT

CYYG;2012-09-30 19:16;CYYG 301916Z 12009KT 6SM -RA BR OVC005 19/19 A2991 RMK SF8 SLP127 DENSITY ALT 600FT

CYYG;2012-09-30 20:00;CYYG 302000Z 12009KT 5SM -RA BR BKN006 OVC013 19/19 A2989 RMK SF6SC2 SLP123 DENSITY ALT 600FT

CYYG;2012-09-30 20:12;CYYG 302012Z 11010KT 1 1/2SM +RA BR OVC005 19/19 A2989 RMK SF8 SLP121 DENSITY ALT 600FT

CYYG;2012-09-30 20:28;CYYG 302028Z 11010KT 4SM RA BR BKN004 OVC013 19/19 A2988 RERA RMK SF5SC3 SLP118 DENSITY ALT 600FT

CYYG;2012-09-30 21:00;CYYG 302100Z 12011G16KT 6SM -RA BR OVC005 19/19 A2986 RERA RMK SF8 SLP112 DENSITY ALT 700FT

CYYG;2012-09-30 22:00;CYYG 302200Z 11011G16KT 3SM RA BR BKN005 OVC009 19/19 A2983 RMK SF5SF3 SLP102 DENSITY ALT 700FT

CYYG;2012-09-30 23:00;CYYG 302300Z 13018G24KT 4SM +RA BR BKN007 OVC015 19/19 A2983 RMK SF7NS1 /R14/ SLP100 DENSITY ALT 700FT

CYYG;2012-10-01 00:00;CYYG 010000Z CCA 13018G24KT 2 1/2SM +RA BR SCT005 OVC009 18/18 A2980 RMK SF4SF4 PK G35 PST HR SLP093 DENSITY ALT 700FT

CYYG;2012-10-01 00:28;CYYG 010028Z 13017G28KT 10SM FEW005 OVC045 19/18 A2980 RERA RMK SF2SC6 SLP090 DENSITY ALT 700FT

CYYG;2012-10-01 01:00;CYYG 010100Z 13013G23KT 15SM FEW009 SCT026 OVC050 18/18 A2979 RERA RMK SF1SC3SC4 SLP089 DENSITY ALT 700FT

CYYG;2012-10-01 01:18;CYYG 010118Z 13017G25KT 10SM -SHRA FEW009 OVC022 19/17 A2978 RMK SF2SC6 SLP087 DENSITY ALT 700FT

CYYG;2012-10-01 01:47;CYYG 010147Z 12016G24KT 2 1/2SM SHRA BR OVC008 18/17 A2978 RMK SF8 SLP086 DENSITY ALT 600FT

CYYG;2012-10-01 02:00;CYYG 010200Z 12014G23KT 4SM -SHRA BR BKN005 OVC021 18/17 A2978 RERA RMK SF6SC2 PK G27 PST HR SLP085 DENSITY ALT 600FT

CYYG;2012-10-01 03:00;CYYG 010300Z 14017G25KT 4SM -SHRA BR OVC005 18/18 A2976 RERA RMK SF8 SLP080 DENSITY ALT 700FT

CYYG;2012-10-01 03:22;CYYG 010322Z 12020G30KT 6SM -SHRA BR BKN007 OVC017 18/17 A2975 RMK SF5SC3 SLP074 DENSITY ALT 700FT

CYYG;2012-10-01 04:00;CYYG 010400Z 13018G26KT 12SM OVC008 18/18 A2973 RMK SF8 SLP068 DENSITY ALT 700FT

CYYG;2012-10-01 04:28;CYYG 010428Z 13014G21KT 3SM -SHRA BR OVC007 18/18 A2973 RMK SF8 SLP068 DENSITY ALT 700FT

CYYG;2012-10-01 05:00;CYYG 010500Z 14012G20KT 15SM BKN008 OVC015 18/18 A2973 RMK SF7SC1 PK G25 PST HR SLP070 DENSITY ALT 700FT

CYYG;2012-10-01 06:00;CYYG 010600Z 16012G19KT 15SM BKN005 BKN030 18/18 A2972 RMK SF5SC2 SLP066 DENSITY ALT 700FT

CYYG;2012-10-01 07:00;CYYG 010700Z 17012KT 15SM FEW005 BKN028 18/17 A2972 RMK SF2SC3 SLP064 DENSITY ALT 700FT

CYYG;2012-10-01 08:00;CYYG 010800Z 18013KT 15SM FEW008 FEW028 17/16 A2972 RMK SF1SC1 SLP064 DENSITY ALT 600FT

CYYG;2012-10-01 09:00;CYYG 010900Z 19012KT 15SM FEW015 BKN025 17/16 A2973 RMK SC2SC5 SLP069 DENSITY ALT 500FT

CYYG;2012-10-01 10:00;CYYG 011000Z 18009KT 15SM SCT020 BKN035 16/15 A2974 RMK CU3SC3 SLP072 DENSITY ALT 400FT

CYYG;2012-10-01 11:00;CYYG 011100Z 18011KT 15SM SCT016 BKN033 BKN046 16/15 A2976 RMK SC3SC2SC2 SLP077 DENSITY ALT 400FT

CYYG;2012-10-01 12:00;CYYG 011200Z 17011G17KT 15SM FEW016TCU FEW046 16/15 A2976 RMK TCU1SC1 TCU W-NE SLP079 DENSITY ALT 500FT

CYYG;2012-10-01 12:04;CYYG 011204Z 17012KT 15SM FEW008 FEW016TCU SCT050 16/15 A2976 RMK SF1TCU1SC1 TCU W-N SLP079 DENSITY ALT 500FT

CYYG;2012-10-01 13:00;CYYG 011300Z 17015KT 15SM FEW010 SCT023 BKN042 16/14 A2978 RMK CU1SC2SC3 SLP083 DENSITY ALT 400FT

CYYG;2012-10-01 14:00;CYYG 011400Z 18019G25KT 15SM FEW013 FEW023TCU SCT062 17/14 A2977 RMK CU1TCU1SC1 TCU W-NW SLP080 DENSITY ALT 600FT

CYYG;2012-10-01 15:00;CYYG 011500Z 20016G22KT 15SM FEW018 SCT140 SCT250 18/14 A2974 RMK CU2AC1CI1 TCU NW-N SLP072 DENSITY ALT 700FT

CYYG;2012-10-01 16:00;CYYG 011600Z 19013G18KT 15SM FEW027 SCT250 19/13 A2974 RMK CU2CI1 SLP072 DENSITY ALT 800FT

CYYG;2012-10-01 17:00;CYYG 011700Z 20013G20KT 15SM SCT029 BKN250 19/13 A2972 RMK CU3CI2 SLP067 DENSITY ALT 900FT

CYYG;2012-10-01 18:00;CYYG 011800Z 17011KT 15SM FEW040 SCT170 BKN250 18/12 A2971 RMK CU1AC2CI4 SLP061 DENSITY ALT 800FT

CYYG;2012-10-01 19:00;CYYG 011900Z 16009KT 15SM FEW052 SCT140 BKN250 18/13 A2969 RMK CU1AC3CI3 SH DIST W-NW SLP055 DENSITY ALT 800FT

CYYG;2012-10-01 19:37;CYYG 011937Z 16008KT 15SM TS FEW052CB BKN078 BKN250 18/12 A2967 RMK CB2AC3CI2 OCNL LTGCG W SLP047 DENSITY ALT 800FT

CYYG;2012-10-01 20:00;CYYG 012000Z 16010KT 15SM TS VCSH SCT043CB BKN070 BKN250 18/12 A2967 RMK CB3AC2CI2 OCNL LTGCG W-NW SH SW-NW SLP048 DENSITY ALT 700FT

CYYG;2012-10-01 20:16;CYYG 012016Z 17014KT 15SM -TSRA SCT040CB BKN070 BKN250 17/12 A2966 RMK CB4AC2CI1 SLP045 DENSITY ALT 700FT

CYYG;2012-10-01 20:35;CYYG 012035Z 19012G24KT 10SM -SHRA SCT040TCU BKN066 OVC250 16/13 A2967 RETS RMK TCU4AC2CI2 CB MOVD N OCNL LTGCG DIST N SLP047 DENSITY ALT 500FT

CYYG;2012-10-01 20:52;CYYG 012052Z 28007KT 200V280 2SM +SHRA OVC041TCU 14/13 A2966 RETS RMK TCU8 SLP046 DENSITY ALT 300FT

CYYG;2012-10-01 21:00;CYYG 012100Z 25009KT 3SM SHRA BR OVC041TCU 14/13 A2967 RETS RMK TCU8 SLP048 DENSITY ALT 300FT

CYYG;2012-10-01 22:00;CYYG 012200Z 18008KT 5SM -SHRA BR SCT040TCU OVC068 14/13 A2965 RERA RMK TCU4AC4 SLP043 DENSITY ALT 300FT

CYYG;2012-10-01 22:32;CYYG 012232Z 23008KT 4SM +SHRA BR SCT040TCU OVC068 13/13 A2967 RMK TCU4AC4 SLP047 DENSITY ALT 200FT

CYYG;2012-10-01 23:00;CYYG 012300Z 23002KT 6SM -SHRA BR SCT030TCU OVC050 13/12 A2966 RERA RMK TCU4SC4 SLP046 DENSITY ALT 200FT

CYYG;2012-10-01 23:35;CYYG 012335Z 18003KT 10SM -SHRA BKN015 OVC030 13/13 A2966 RMK SC5SC3 SLP044 DENSITY ALT 200FT

CYYG;2012-10-02 00:00;CYYG 020000Z 21009KT 12SM -SHRA SCT015 OVC032 13/12 A2966 RMK SC4SC4 SLP045 DENSITY ALT 300FT

CYYG;2012-10-02 01:00;CYYG 020100Z 22009G16KT 12SM -SHRA FEW009 BKN021 OVC060 13/12 A2966 RMK SF1SC4SC3 SLP045 DENSITY ALT 200FT

CYYG;2012-10-02 02:00;CYYG 020200Z 24009KT 12SM FEW009 BKN020 OVC060 13/12 A2967 RMK SF1SC4SC3 SLP049 DENSITY ALT 200FT

CYYG;2012-10-02 04:00;CYYG 020400Z 24011KT 15SM FEW015 BKN025 12/11 A2969 RMK SC1SC6 SLP056

CYYG;2012-10-02 05:00;CYYG 020500Z 25008KT 15SM FEW012 BKN020 12/11 A2970 RMK SC1SC5 SLP058

CYYG;2012-10-02 06:00;CYYG 020600Z 25007KT 15SM FEW012 12/11 A2971 RMK SC2 SLP061

CYYG;2012-10-02 07:00;CYYG 020700Z 23007KT 15SM SCT014 12/11 A2972 RMK SC4 SLP066

CYYG;2012-10-02 07:21;CYYG 020721Z 25010KT 15SM BKN011 12/11 A2973 RMK SC6 SLP069

CYYG;2012-10-02 08:00;CYYG 020800Z 24010KT 15SM BKN011 12/11 A2974 RMK SC7 SLP072

CYYG;2012-10-02 09:00;CYYG 020900Z 24008KT 15SM BKN009 12/11 A2975 RMK SC7 SLP075

CYYG;2012-10-02 09:18;CYYG 020918Z 23007KT 15SM FEW009 12/11 A2975 RMK SC2 SLP076

CYYG;2012-10-02 09:44;CYYG 020944Z 24010G16KT 15SM BKN008 11/11 A2975 RMK SC5 SLP077

CYYG;2012-10-02 10:00;CYYG 021000Z 24009KT 15SM BKN008 11/11 A2976 RMK SC7 SLP078

CYYG;2012-10-02 11:00;CYYG 021100Z 25011KT 15SM BKN008 12/11 A2978 RMK SC7 SLP084

CYYG;2012-10-02 12:00;CYYG 021200Z 25009G16KT 15SM BKN009 12/11 A2980 RMK SC7 SLP091

CYYG;2012-10-02 13:00;CYYG 021300Z 26014G20KT 15SM BKN012 13/11 A2981 RMK SC7 SLP096

CYYG;2012-10-02 14:00;CYYG 021400Z 27011KT 15SM BKN014 14/12 A2983 RMK SC7 SLP103

CYYG;2012-10-02 15:00;CYYG 021500Z 27015G21KT 15SM SCT018 BKN035 15/12 A2982 RMK SC4SC3 SLP100 DENSITY ALT 300FT

CYYG;2012-10-02 16:00;CYYG 021600Z 27010G17KT 15SM SCT018 BKN032 16/12 A2983 RMK SC4SC3 SLP103 DENSITY ALT 300FT

CYYG;2012-10-02 17:00;CYYG 021700Z 28010G17KT 15SM BKN026 16/11 A2984 RMK SC7 SLP105 DENSITY ALT 400FT

CYYG;2012-10-02 18:00;CYYG 021800Z 26009G17KT 15SM BKN026 17/12 A2984 RMK SC5 SLP107 DENSITY ALT 400FT

CYYG;2012-10-02 19:00;CYYG 021900Z 27009KT 15SM SCT025 18/12 A2985 RMK SC4 SLP108 DENSITY ALT 500FT

CYYG;2012-10-02 20:00;CYYG 022000Z 27008G18KT 15SM FEW028 FEW250 18/13 A2986 RMK SC1CI1 SLP112 DENSITY ALT 600FT

CYYG;2012-10-02 21:00;CYYG 022100Z 29006KT 15SM FEW028 FEW140 SCT250 18/13 A2985 RMK SC1AC1CI1 SLP111 DENSITY ALT 500FT

CYYG;2012-10-02 22:00;CYYG 022200Z 25004KT 15SM FEW140 FEW250 16/13 A2987 RMK AC1CI1 SLP117 DENSITY ALT 300FT

CYYG;2012-10-02 23:00;CYYG 022300Z 22005KT 15SM FEW140 FEW210 15/13 A2988 RMK AC1CI1 SLP119 DENSITY ALT 200FT

CYYG;2012-10-03 00:00;CYYG 030000Z 24008KT 15SM FEW210 15/13 A2988 RMK CI1 SLP120 DENSITY ALT 200FT

CYYG;2012-10-03 01:00;CYYG 030100Z 26009KT 15SM FEW210 15/13 A2990 RMK CI1 SLP125 DENSITY ALT 200FT

CYYG;2012-10-03 02:00;CYYG 030200Z 26009KT 15SM FEW210 15/12 A2991 RMK CI1 SLP130

CYYG;2012-10-03 03:00;CYYG 030300Z 26007KT 15SM FEW210 14/11 A2991 RMK CI1 SLP129

CYYG;2012-10-03 04:00;CYYG 030400Z 26007KT 15SM FEW210 14/11 A2992 RMK CI1 SLP133

CYYG;2012-10-03 05:00;CYYG 030500Z 26006KT 15SM SKC 13/12 A2993 RMK CI TR SLP136

CYYG;2012-10-03 06:00;CYYG 030600Z 27007KT 15SM SKC 13/12 A2993 RMK CI TR SLP138

CYYG;2012-10-03 08:00;CYYG 030800Z 28007KT 15SM SKC 14/10 A2995 RMK CI TR SLP143

CYYG;2012-10-03 09:00;CYYG 030900Z 29008KT 15SM SKC 13/09 A2996 RMK CI TR SLP145

CYYG;2012-10-03 10:00;CYYG 031000Z 28007KT 15SM SKC 13/10 A2998 RMK CI TR SLP153

CYYG;2012-10-03 11:00;CYYG 031100Z 29008KT 15SM SKC 13/10 A2999 RMK CI TR SLP158

CYYG;2012-10-03 12:00;CYYG 031200Z 30008KT 15SM SKC 15/11 A3001 RMK CI TR SLP162

CYYG;2012-10-03 13:00;CYYG 031300Z 31008KT 15SM SKC 17/11 A3002 RMK CI TR SLP166 DENSITY ALT 200FT

CYYG;2012-10-03 14:00;CYYG 031400Z 30010G16KT 15SM SKC 18/11 A3003 RMK CI TR SLP169 DENSITY ALT 400FT

CYYG;2012-10-03 15:00;CYYG 031500Z 33014G21KT 15SM SKC 18/10 A3003 RMK CI TR SLP172 DENSITY ALT 300FT

CYYG;2012-10-03 16:00;CYYG 031600Z 32012G19KT 15SM FEW024 18/12 A3003 RMK SC2 SLP172 DENSITY ALT 300FT

CYYG;2012-10-03 17:00;CYYG 031700Z 33015G21KT 15SM FEW023 16/11 A3004 RMK NS2 SLP175

CYYG;2012-10-03 18:00;CYYG 031800Z 33016G24KT 15SM SCT024 16/10 A3006 RMK SC3 SLP181

CYYG;2012-10-03 19:00;CYYG 031900Z 34011G17KT 15SM FEW025 15/09 A3008 RMK SC2 SLP188

CYYG;2012-10-03 20:00;CYYG 032000Z 34010G20KT 15SM FEW025 15/09 A3010 RMK SC2 SLP193

CYYG;2012-10-03 21:00;CYYG 032100Z 33008G15KT 15SM FEW030 14/09 A3010 RMK SC1 SLP194

CYYG;2012-10-03 22:00;CYYG 032200Z 34006KT 15SM FEW120 12/09 A3012 RMK AC1 SLP200

CYYG;2012-10-03 23:00;CYYG 032300Z 34006KT 15SM FEW120 11/08 A3014 RMK AC1 SLP207

CYYG;2012-10-04 00:00;CYYG 040000Z 35007KT 15SM FEW120 11/07 A3014 RMK AC1 SLP209

CYYG;2012-10-04 01:00;CYYG 040100Z 35006KT 15SM SKC 11/08 A3015 RMK CI TR SLP211

CYYG;2012-10-04 02:00;CYYG 040200Z 35007KT 15SM SKC 11/08 A3016 RMK CI TR SLP215

CYYG;2012-10-04 03:00;CYYG 040300Z 35006KT 15SM SKC 11/09 A3016 RMK CI TR SLP215

CYYG;2012-10-04 04:00;CYYG 040400Z 35006KT 15SM SKC 11/09 A3016 RMK CI TR SLP216

CYYG;2012-10-04 05:00;CYYG 040500Z 34006KT 15SM SKC 11/09 A3018 RMK CI TR SLP220

CYYG;2012-10-04 06:00;CYYG 040600Z 32004KT 15SM SKC 10/09 A3017 RMK CI TR SLP219

CYYG;2012-10-04 07:00;CYYG 040700Z 33005KT 15SM SKC 10/09 A3017 RMK CI TR SLP218

CYYG;2012-10-04 08:00;CYYG 040800Z 33005KT 15SM SKC 10/09 A3018 RMK CI TR SLP220

CYYG;2012-10-04 09:00;CYYG 040900Z 30004KT 15SM SKC 10/10 A3018 RMK CI TR SLP221

CYYG;2012-10-04 10:00;CYYG 041000Z 30004KT 15SM FEW020 10/10 A3019 RMK SC1 SLP226

CYYG;2012-10-04 11:00;CYYG 041100Z 33004KT 15SM FEW020 SCT280 09/09 A3021 RMK SC2CI2 SLP231

CYYG;2012-10-04 12:00;CYYG 041200Z 01006KT 15SM FEW020 SCT280 13/12 A3022 RMK SC2CI2 SLP233

CYYG;2012-10-04 13:00;CYYG 041300Z 01012KT 15SM SCT020 BKN280 14/11 A3021 RMK SC3CI3 SLP230

CYYG;2012-10-04 14:00;CYYG 041400Z 03011KT 15SM BKN018 15/11 A3021 RMK SC7 SLP232

CYYG;2012-10-04 15:00;CYYG 041500Z 02010KT 15SM BKN020 14/11 A3022 RMK SC7 SLP234

CYYG;2012-10-04 16:00;CYYG 041600Z 02009KT 15SM BKN022 14/10 A3021 RMK SC7 SLP230

CYYG;2012-10-04 17:00;CYYG 041700Z 01006KT 15SM OVC021 14/10 A3020 RMK SC8 SLP229

CYYG;2012-10-04 18:00;CYYG 041800Z 02008KT 15SM OVC023 14/10 A3017 RMK SC8 SLP219

CYYG;2012-10-04 19:00;CYYG 041900Z 35006KT 15SM VCSH FEW015 BKN022 14/10 A3016 RMK SF1SC6 VIS LWR N-NE SLP216

CYYG;2012-10-04 20:00;CYYG 042000Z 01008KT 15SM FEW011 BKN023 13/11 A3014 RMK SF1SC6 SLP208

CYYG;2012-10-04 21:00;CYYG 042100Z 02008KT 15SM OVC021 13/10 A3014 RMK SC8 SLP206

CYYG;2012-10-04 21:40;CYYG 042140Z 05007KT 15SM FEW010 OVC018 12/11 A3013 RMK SF1SC7 VIS LWR NE-E+ SLP204

CYYG;2012-10-04 22:00;CYYG 042200Z 03005KT 12SM -SHRA FEW010 OVC018 12/11 A3013 RMK SF2SC6 SLP203

CYYG;2012-10-04 23:00;CYYG 042300Z 00000KT 15SM FEW010 OVC018 12/11 A3013 RMK SF2SC6 SLP203

CYYG;2012-10-05 00:00;CYYG 050000Z 04003KT 15SM SCT008 OVC018 12/11 A3012 RMK SF4SC4 SLP200

CYYG;2012-10-05 00:18;CYYG 050018Z 03004KT 12SM -DZ BKN008 OVC018 12/12 A3011 RMK SF5SC3 SLP198

CYYG;2012-10-05 00:48;CYYG 050048Z 30002KT 15SM -DZ SCT008 OVC018 12/11 A3012 RMK SF3SC5 SLP202

CYYG;2012-10-05 01:00;CYYG 050100Z 29002KT 15SM -DZ FEW008 OVC018 12/11 A3012 RMK SF2SC6 SLP201

CYYG;2012-10-05 01:47;CYYG 050147Z VRB02KT 15SM FEW008 OVC017 12/11 A3009 RMK SF2SC6 SLP192

CYYG;2012-10-05 02:00;CYYG 050200Z 17003KT 15SM FEW008 OVC017 11/11 A3009 RMK SF1SC7 SLP191

CYYG;2012-10-05 03:00;CYYG 050300Z 00000KT 15SM FEW008 OVC015 11/11 A3007 RMK SF1SC7 SLP184

CYYG;2012-10-05 04:00;CYYG 050400Z 01002KT 15SM SCT015 BKN030 OVC170 11/11 A3005 RMK SC3SC2AC3 SLP178

CYYG;2012-10-05 05:00;CYYG 050500Z 31003KT 15SM SCT015 BKN027 OVC170 11/11 A3005 RMK SC3SC3AC2 SLP176

CYYG;2012-10-05 06:00;CYYG 050600Z 00000KT 15SM BKN027 OVC170 11/11 A3003 RMK SC6AC2 SLP171

CYYG;2012-10-05 07:00;CYYG 050700Z 30003KT 15SM BKN024 OVC120 11/11 A3002 RMK CU6AC2 SLP167

CYYG;2012-10-05 08:00;CYYG 050800Z 00000KT 15SM BKN024 OVC097 11/11 A3001 RMK SC5AC3 SLP162

CYYG;2012-10-05 08:37;CYYG 050837Z 00000KT 15SM -SHRA BKN022 OVC095 11/11 A3000 RMK SC5AC3 SLP160

CYYG;2012-10-05 09:00;CYYG 050900Z 24003KT 15SM -SHRA SCT022 OVC093 11/11 A3001 RMK SC4AC4 SLP163

CYYG;2012-10-05 10:00;CYYG 051000Z 00000KT 15SM FEW022 OVC093 11/11 A2998 RMK SC1AC7 PRESFR SLP153

CYYG;2012-10-05 11:00;CYYG 051100Z 31004KT 220V310 15SM FEW007 SCT020 BKN088 11/11 A2998 RMK SF2SC2AC3 SLP153

CYYG;2012-10-05 11:21;CYYG 051121Z 34003KT 15SM FEW007 BKN014 BKN088 11/11 A2998 RMK SF2SC4AC1 SLP155

CYYG;2012-10-05 12:00;CYYG 051200Z 30004KT 15SM VCSH FEW007 BKN016 BKN080 12/12 A2998 RMK SF1SC5AC1 VIS LWR W SLP153

CYYG;2012-10-05 13:00;CYYG 051300Z 25005KT 15SM VCSH FEW009 BKN031 BKN080 13/12 A2998 RMK SF1SC5AC1 VIS LWR E SLP156

CYYG;2012-10-05 14:00;CYYG 051400Z 32003KT 300V360 15SM BKN018 BKN080 15/12 A2997 RMK SC5AC1 CU ASOCTD SLP150

CYYG;2012-10-05 15:00;CYYG 051500Z VRB04KT 15SM BKN022 BKN080 16/12 A2996 RMK SC5AC1 SLP147 DENSITY ALT 200FT

CYYG;2012-10-05 16:00;CYYG 051600Z 35004KT 280V030 15SM SCT022 BKN037 BKN050 15/10 A2995 RMK SC3SC2SC1 SLP144

CYYG;2012-10-05 17:00;CYYG 051700Z 09003KT 15SM SCT018 BKN026 BKN040 14/10 A2994 RMK SC3SC3SC1 SLP139

CYYG;2012-10-05 18:00;CYYG 051800Z 11005KT 15SM FEW015 BKN028 BKN040 14/12 A2993 RMK SC2SC4SC1 SLP136

CYYG;2012-10-05 19:00;CYYG 051900Z 22005KT 15SM FEW020 SCT040 BKN080 16/11 A2992 RMK SC1SC2AC2 SLP134 DENSITY ALT 300FT

CYYG;2012-10-05 20:00;CYYG 052000Z 18007KT 15SM FEW020 BKN038 BKN090 15/12 A2993 RMK SC1SC4AC2 SLP135

CYYG;2012-10-05 21:00;CYYG 052100Z 18005KT 15SM FEW020 BKN037 14/11 A2992 RMK CU1SC6 SLP133

CYYG;2012-10-05 22:00;CYYG 052200Z 20005KT 15SM FEW020 BKN034 14/11 A2992 RMK SC1SC6 SLP133

CYYG;2012-10-05 22:32;CYYG 052232Z 22004KT 10SM -DZ BKN036 14/11 A2993 RMK SC7 SLP136

CYYG;2012-10-05 22:44;CYYG 052244Z 19004KT 15SM BKN023 BKN036 14/12 A2993 RMK SC5SC2 SLP136

CYYG;2012-10-05 23:00;CYYG 052300Z 16003KT 15SM BKN024 BKN036 14/12 A2993 RMK SC5SC2 SLP135

CYYG;2012-10-05 23:50;CYYG 052350Z 17006KT 10SM -SHRA SCT024 OVC030 14/12 A2993 RMK SC4SC4 SLP136

CYYG;2012-10-06 00:00;CYYG 060000Z 18006KT 10SM -SHRA BKN024 OVC030 14/12 A2993 RMK SC5SC3 SLP137

CYYG;2012-10-06 00:35;CYYG 060035Z 17006KT 15SM -DZ BKN011 OVC033 14/13 A2993 RMK SC5SC3 SLP137

CYYG;2012-10-06 01:00;CYYG 060100Z 18005KT 15SM FEW011 BKN024 OVC035 14/13 A2993 RMK SC2SC3SC3 SLP137

CYYG;2012-10-06 02:00;CYYG 060200Z 20005KT 15SM FEW012 OVC033 14/13 A2993 RMK SC2SC6 SLP135

CYYG;2012-10-06 03:00;CYYG 060300Z 21005KT 15SM FEW014 OVC034 14/13 A2992 RMK SC2SC6 SLP133

CYYG;2012-10-06 04:00;CYYG 060400Z 21006KT 15SM SCT012 OVC032 14/13 A2991 RMK SC4SC4 SLP131

CYYG;2012-10-06 05:00;CYYG 060500Z 20006KT 15SM SCT011 OVC029 14/13 A2992 RMK SC3SC5 SLP132

CYYG;2012-10-06 06:00;CYYG 060600Z 23005KT 15SM SCT011 OVC025 14/13 A2991 RMK SC3SC5 SLP131

CYYG;2012-10-06 06:44;CYYG 060644Z 22006KT 15SM BKN008 OVC025 14/13 A2991 RMK ST5SC3 SLP130

CYYG;2012-10-06 07:00;CYYG 060700Z 21007KT 15SM BKN008 OVC024 14/13 A2991 RMK SF5SC3 SLP130

CYYG;2012-10-06 07:09;CYYG 060709Z 21006KT 15SM FEW009 OVC023 14/13 A2991 RMK SF2SC6 SLP129

CYYG;2012-10-06 08:00;CYYG 060800Z 22009KT 15SM FEW012 BKN018 OVC024 14/12 A2991 RMK SC2SC3SC3 SLP129

CYYG;2012-10-06 09:00;CYYG 060900Z 21006KT 15SM SCT009 OVC022 14/13 A2991 RMK SC3SC5 SLP131

CYYG;2012-10-06 10:00;CYYG 061000Z 19008KT 15SM FEW008 BKN016 BKN098 14/12 A2991 RMK SF1SC5AC1 SLP130

CYYG;2012-10-06 11:00;CYYG 061100Z 19010G17KT 15SM FEW008 BKN016 BKN095 14/12 A2991 RMK SF1SC5AC1 SLP128

CYYG;2012-10-06 11:26;CYYG 061126Z 20014KT 15SM FEW008 OVC013 14/12 A2991 RMK SF1SC7 SLP128

CYYG;2012-10-06 12:00;CYYG 061200Z 18014KT 15SM BKN014 15/13 A2990 RMK SC7 SLP126

CYYG;2012-10-06 13:00;CYYG 061300Z 19011G17KT 15SM OVC012 15/13 A2991 RMK SC8 SLP129

CYYG;2012-10-06 14:00;CYYG 061400Z 18014KT 15SM BKN012 16/13 A2989 RMK SC7 SLP124 DENSITY ALT 200FT

CYYG;2012-10-06 15:00;CYYG 061500Z 18019KT 15SM BKN012 BKN130 17/13 A2989 RMK SC6AC1 PRESRR SLP122 DENSITY ALT 400FT

CYYG;2012-10-06 15:43;CYYG 061543Z 17017KT 15SM FEW015 SCT140 17/13 A2987 RMK SC2AC2 SLP117 DENSITY ALT 500FT

CYYG;2012-10-06 16:00;CYYG 061600Z 18018KT 15SM FEW015 SCT140 18/14 A2987 RMK SC2AC2 SLP117 DENSITY ALT 500FT

CYYG;2012-10-06 17:00;CYYG 061700Z 17019KT 15SM FEW015 BKN110 18/13 A2984 RMK SC1AC4 SLP106 DENSITY ALT 500FT

CYYG;2012-10-06 18:00;CYYG 061800Z 19016G23KT 15SM FEW018 BKN110 18/14 A2984 RMK SC1AC5 SLP106 DENSITY ALT 500FT

CYYG;2012-10-06 19:00;CYYG 061900Z 19019G25KT 15SM FEW018 FEW110 BKN310 17/13 A2983 RMK SC1AC1CI4 SLP101 DENSITY ALT 500FT

CYYG;2012-10-06 20:00;CYYG 062000Z 19017G25KT 15SM FEW020 FEW160 BKN310 17/13 A2982 RMK SC1AC1CI5 SLP099 DENSITY ALT 500FT

CYYG;2012-10-06 21:00;CYYG 062100Z 19013G21KT 15SM FEW025 SCT160 BKN280 16/13 A2982 RMK SC2AC2CI3 SLP098 DENSITY ALT 400FT

CYYG;2012-10-06 22:00;CYYG 062200Z 17015G23KT 15SM BKN020 BKN160 BKN220 16/13 A2981 RMK SC5AC1CI1 SLP095 DENSITY ALT 300FT

CYYG;2012-10-06 23:00;CYYG 062300Z 19023G28KT 15SM FEW017 BKN220 15/12 A2979 RMK SC2CI4 SLP087 DENSITY ALT 300FT

CYYG;2012-10-07 00:00;CYYG 070000Z 18022G28KT 15SM FEW014 BKN200 15/12 A2978 RMK SC2CI4 SLP086 DENSITY ALT 300FT

CYYG;2012-10-07 01:00;CYYG 070100Z 19018G28KT 15SM BKN016 15/13 A2979 RMK SC7 SLP088 DENSITY ALT 300FT

CYYG;2012-10-07 02:00;CYYG 070200Z 18017G26KT 15SM FEW013 SCT190 15/13 A2978 RMK CU2AC2 SLP084 DENSITY ALT 300FT

CYYG;2012-10-07 03:00;CYYG 070300Z 19016G24KT 15SM FEW013 BKN180 BKN210 16/13 A2976 RMK CU2AC3CI2 SLP079 DENSITY ALT 400FT

CYYG;2012-10-07 04:00;CYYG 070400Z 18017G24KT 15SM SCT180 BKN210 16/14 A2974 RMK AC4CI3 SLP072 DENSITY ALT 500FT

CYYG;2012-10-07 05:00;CYYG 070500Z 18016G26KT 15SM BKN043 BKN180 16/14 A2973 RMK SC5AC2 SLP070 DENSITY ALT 500FT

CYYG;2012-10-07 06:00;CYYG 070600Z 18021G29KT 15SM SCT028 BKN043 17/15 A2971 RMK SC4SC3 SLP063 DENSITY ALT 600FT

CYYG;2012-10-07 07:00;CYYG 070700Z 19018G26KT 15SM OVC020 17/14 A2971 RMK SC8 SLP061 DENSITY ALT 600FT

CYYG;2012-10-07 07:39;CYYG 070739Z 26013G20KT 200V260 10SM -SHRA OVC011 15/13 A2975 RMK SC8 WSHFT 0739 PRESRR SLP073 DENSITY ALT 300FT

CYYG;2012-10-07 08:00;CYYG 070800Z 27008KT 15SM -SHRA OVC020 14/13 A2975 RMK SC8 SLP076 DENSITY ALT 200FT

CYYG;2012-10-07 08:35;CYYG 070835Z 27009G16KT 10SM -SHRA BKN007 OVC013 13/13 A2978 RMK SF5SC3 PRESRR SLP083

CYYG;2012-10-07 09:00;CYYG 070900Z 28006KT 5SM -SHRA BR BKN005 OVC017 13/12 A2979 RMK SF5SC3 SLP088

CYYG;2012-10-07 09:42;CYYG 070942Z 27009G15KT 15SM FEW005 BKN030 12/11 A2981 RMK SF1SC5 SLP096

CYYG;2012-10-07 10:00;CYYG 071000Z 27008G15KT 15SM FEW005 SCT018 BKN029 BKN038 12/11 A2983 RMK SF1SC2SC2SC2 SLP101

CYYG;2012-10-07 11:00;CYYG 071100Z 27009G17KT 15SM FEW010 FEW080 BKN310 11/10 A2986 RMK SC1AC1CI5 SLP114

CYYG;2012-10-07 12:00;CYYG 071200Z 28008KT 15SM FEW010 SCT310 12/09 A2989 RMK SC1CI3 SLP124

CYYG;2012-10-07 13:00;CYYG 071300Z 27010G16KT 15SM FEW015 SCT310 12/09 A2992 RMK SC1CI2 SLP134

CYYG;2012-10-07 14:00;CYYG 071400Z 28008KT 15SM FEW018 BKN270 13/08 A2994 RMK SC1CI5 SLP140

CYYG;2012-10-07 15:00;CYYG 071500Z 25010G16KT 15SM FEW020 BKN220 13/08 A2996 RMK SC1CI6 SLP148

CYYG;2012-10-07 16:00;CYYG 071600Z 27008KT 15SM FEW020 BKN210 13/08 A2998 RMK SC1CI6 SLP153

CYYG;2012-10-07 17:00;CYYG 071700Z 27006KT 15SM SCT025 BKN210 14/08 A2998 RMK SC4CI3 SLP155

CYYG;2012-10-07 18:00;CYYG 071800Z 32006KT 15SM SCT030 SCT160 BKN210 14/08 A2998 RMK SC3AC1CI3 SLP154

CYYG;2012-10-07 19:00;CYYG 071900Z 29005KT 15SM FEW032 BKN160 BKN210 14/07 A2999 RMK SC2AC3CI1 SLP157

CYYG;2012-10-07 20:00;CYYG 072000Z 29004KT 15SM FEW032 FEW160 BKN200 13/07 A3000 RMK SC1AC1CS5 SLP159

CYYG;2012-10-07 21:00;CYYG 072100Z 35003KT 15SM FEW120 BKN160 12/07 A3001 RMK AC1AS6 SLP163

CYYG;2012-10-07 22:00;CYYG 072200Z 00000KT 15SM FEW120 OVC160 11/09 A3002 RMK AC1AS7 SLP168

CYYG;2012-10-07 23:00;CYYG 072300Z 10003KT 15SM OVC150 10/08 A3004 RMK AS8 SLP175

CYYG;2012-10-08 00:00;CYYG 080000Z 00000KT 15SM OVC150 09/08 A3007 RMK AS8 SLP185

CYYG;2012-10-08 01:00;CYYG 080100Z 12002KT 15SM OVC150 09/08 A3007 RMK AS8 SLP183

CYYG;2012-10-08 02:00;CYYG 080200Z 09004KT 15SM OVC100 11/09 A3005 RMK AS8 SLP176

CYYG;2012-10-08 03:00;CYYG 080300Z 11003KT 15SM OVC100 11/09 A3005 RMK AS8 SLP177

CYYG;2012-10-08 04:00;CYYG 080400Z 09004KT 15SM OVC083 11/09 A3003 RMK AS8 SLP172

CYYG;2012-10-08 05:00;CYYG 080500Z 11004KT 15SM -SHRA OVC081 11/10 A3002 RMK AS8 SLP168

CYYG;2012-10-08 06:00;CYYG 080600Z 17003KT 15SM -SHRA OVC088 11/10 A3000 RMK AS8 SLP160

CYYG;2012-10-08 07:00;CYYG 080700Z 17004KT 15SM +SHRA OVC057 11/10 A2998 RMK SC8 SLP155

CYYG;2012-10-08 08:00;CYYG 080800Z 09003KT 15SM -SHRA OVC063 11/10 A2995 RMK SC8 PRESFR SLP143

CYYG;2012-10-08 09:00;CYYG 080900Z 27011G16KT 15SM -SHRA SCT045 OVC059 10/09 A3002 RMK SC4SC4 PRESRR SLP168

CYYG;2012-10-08 10:00;CYYG 081000Z 28004KT 10SM -RA SCT045 OVC058 09/08 A2998 RMK SC4SC4 SLP154

CYYG;2012-10-08 11:00;CYYG 081100Z 26004KT 15SM -SHRA FEW008 OVC043 09/08 A2999 RMK SF1SC7 PRESRR SLP157

CYYG;2012-10-08 12:00;CYYG 081200Z 29006KT 15SM -SHRA FEW010 BKN035 BKN083 10/09 A2999 RMK CU2SC4AC1 SLP157

CYYG;2012-10-08 13:00;CYYG 081300Z 30009KT 15SM -SHRA SCT007 OVC032 10/09 A3000 RMK SF3SC5 CU ASOCTD SLP161

CYYG;2012-10-08 13:14;CYYG 081314Z 30007KT 15SM FEW007 BKN040 10/09 A2999 RMK SC2SC4 CU ASOCTD SLP158

CYYG;2012-10-08 14:00;CYYG 081400Z 31007G16KT 15SM BKN013 BKN040 12/09 A3000 RMK CU6SC1 SLP159

CYYG;2012-10-08 15:00;CYYG 081500Z 31011G17KT 15SM BKN016 12/09 A3001 RMK CU6 SLP165

CYYG;2012-10-08 16:00;CYYG 081600Z 30011KT 15SM SCT018 BKN030 11/07 A3003 RMK CU4SC3 SLP172

CYYG;2012-10-08 17:00;CYYG 081700Z 28007G18KT 15SM SCT022 BKN030 11/07 A3006 RMK CU4SC3 SLP179

CYYG;2012-10-08 18:00;CYYG 081800Z 31008KT 15SM SCT020 OVC030 10/07 A3009 RMK CU4SC4 SLP189

CYYG;2012-10-08 19:00;CYYG 081900Z 27008KT 15SM FEW020 BKN045 10/06 A3011 RMK CU1SC6 SLP198

CYYG;2012-10-08 20:00;CYYG 082000Z 28008KT 15SM FEW030 OVC040 10/06 A3013 RMK CU1SC7 SLP205

CYYG;2012-10-08 21:00;CYYG 082100Z 29005KT 15SM FEW030 BKN045 09/06 A3015 RMK CU1SC6 SLP212

CYYG;2012-10-08 22:00;CYYG 082200Z 26004KT 15SM FEW030 BKN045 09/06 A3019 RMK CU1SC6 SLP226

CYYG;2012-10-08 23:00;CYYG 082300Z 28009KT 15SM OVC054 09/04 A3023 RMK SC8 SLP240

CYYG;2012-10-09 00:00;CYYG 090000Z 28008KT 15SM OVC047 09/04 A3026 RMK SC8 SLP248

CYYG;2012-10-09 01:00;CYYG 090100Z 28008KT 15SM OVC045 08/02 A3027 RMK SC8 SLP252

CYYG;2012-10-09 02:00;CYYG 090200Z 27006KT 15SM SCT045 07/03 A3030 RMK SC4 SLP263

CYYG;2012-10-09 03:00;CYYG 090300Z 29006KT 15SM FEW045 06/03 A3031 RMK SC2 SLP266

CYYG;2012-10-09 04:00;CYYG 090400Z 29004KT 15SM FEW045 SCT220 06/03 A3033 RMK SC2CI2 SLP271

CYYG;2012-10-09 05:00;CYYG 090500Z 28005KT 15SM FEW045 SCT200 06/03 A3035 RMK NS1CI2 SLP280

CYYG;2012-10-09 06:00;CYYG 090600Z 30007KT 15SM FEW045 SCT200 06/03 A3037 RMK SC1CI2 SLP285

CYYG;2012-10-09 07:00;CYYG 090700Z 32005KT 15SM FEW045 SCT200 05/02 A3037 RMK SC1CI2 SLP287

CYYG;2012-10-09 08:00;CYYG 090800Z 32004KT 15SM FEW045 SCT200 05/02 A3038 RMK SC1CC2 SLP291

CYYG;2012-10-09 09:00;CYYG 090900Z 33004KT 15SM FEW045 SCT220 05/02 A3039 RMK SC1CI2 SLP294

CYYG;2012-10-09 10:00;CYYG 091000Z 30003KT 15SM FEW045 SCT220 04/03 A3040 RMK SC1CI3 SLP298

CYYG;2012-10-09 11:00;CYYG 091100Z 25002KT 15SM FEW045 OVC240 05/02 A3043 RMK SC1CI7 PRESRR SLP307

CYYG;2012-10-09 13:00;CYYG 091300Z 00000KT 15SM BKN220 08/02 A3045 RMK CI7 SLP313

CYYG;2012-10-09 14:00;CYYG 091400Z 04004KT 15SM BKN220 09/02 A3043 RMK CI7 SLP306

CYYG;2012-10-09 15:00;CYYG 091500Z 05008KT 15SM BKN220 10/01 A3042 RMK CI6 SLP305

CYYG;2012-10-09 16:00;CYYG 091600Z 09006KT 15SM FEW025 BKN230 10/02 A3040 RMK SC1CI6 SLP298

CYYG;2012-10-09 17:00;CYYG 091700Z 06007KT 15SM FEW025 BKN230 11/03 A3037 RMK SC1CI6 SLP287

CYYG;2012-10-09 18:00;CYYG 091800Z 04006KT 15SM FEW035 BKN230 11/04 A3037 RMK SC1CI5 SLP286

CYYG;2012-10-09 19:00;CYYG 091900Z 08003KT 15SM FEW035 SCT230 11/03 A3035 RMK SC2CI2 SLP279

CYYG;2012-10-09 20:00;CYYG 092000Z 08003KT 15SM FEW035 SCT230 11/04 A3034 RMK SC2CI2 SLP275

CYYG;2012-10-09 21:00;CYYG 092100Z 10004KT 15SM FEW040 SCT130 BKN230 10/03 A3033 RMK SC1AC2CI2 SLP271

CYYG;2012-10-09 22:00;CYYG 092200Z 10003KT 15SM FEW040 FEW130 07/03 A3032 RMK SC1AC1 SLP268

CYYG;2012-10-09 23:00;CYYG 092300Z 07003KT 15SM FEW040 FEW130 05/03 A3030 RMK SC1AC1 SLP263

CYYG;2012-10-10 00:00;CYYG 100000Z 01003KT 15SM FEW040 04/03 A3029 RMK SC1 SLP259

CYYG;2012-10-10 01:00;CYYG 100100Z 35003KT 15SM FEW040 03/03 A3028 RMK SC1 SLP256

CYYG;2012-10-10 02:00;CYYG 100200Z 01004KT 15SM BKN035 04/03 A3027 RMK SC6 SLP254

CYYG;2012-10-10 03:00;CYYG 100300Z 02004KT 15SM BKN038 06/04 A3025 RMK SC6 SLP244

CYYG;2012-10-10 04:00;CYYG 100400Z 06005KT 15SM BKN025 08/06 A3023 RMK SC7 SLP238

CYYG;2012-10-10 05:00;CYYG 100500Z 06007KT 15SM OVC020 09/07 A3022 RMK SC8 SLP237

CYYG;2012-10-10 06:00;CYYG 100600Z 06007KT 15SM OVC019 09/08 A3020 RMK SC8 SLP230

CYYG;2012-10-10 07:00;CYYG 100700Z 07006KT 15SM OVC015 10/08 A3018 RMK SC8 SLP222

CYYG;2012-10-10 08:00;CYYG 100800Z 07006KT 15SM BKN016 OVC023 10/08 A3018 RMK SC5SC3 SLP220

CYYG;2012-10-10 08:40;CYYG 100840Z 07007KT 6SM -DZ BR FEW006 OVC014 10/09 A3017 RMK SF2ST6 SLP218

CYYG;2012-10-10 09:00;CYYG 100900Z 06006KT 6SM -DZ BR BKN006 OVC014 10/09 A3017 RMK SF5ST3 SLP218

CYYG;2012-10-10 09:29;CYYG 100929Z 05006KT 3SM BCFG BR BKN005 OVC013 09/09 A3017 RMK SF5ST3 SLP218

CYYG;2012-10-10 10:00;CYYG 101000Z 05005KT 2 1/2SM -DZ BR BKN006 OVC013 10/10 A3017 RMK SF5ST3 SLP219

CYYG;2012-10-10 11:00;CYYG 101100Z 06005KT 2SM -DZ BR OVC006 10/10 A3017 RMK SF8 SLP218

CYYG;2012-10-10 11:34;CYYG 101134Z 07004KT 1 1/2SM -DZ BR FEW002 OVC005 10/10 A3016 RMK SF2SF6 SLP217

CYYG;2012-10-10 12:00;CYYG 101200Z 09006KT 1 1/4SM -DZ BR BKN003 OVC006 10/10 A3016 RMK SF5SF3 CIG RAG SLP216

CYYG;2012-10-10 12:52;CYYG 101252Z 11006KT 3SM -DZ BR SCT003 OVC006 11/11 A3016 RMK SF4SF4 SLP214

CYYG;2012-10-10 13:00;CYYG 101300Z 12006KT 3SM -DZ BR SCT003 OVC006 11/11 A3016 RMK SF4SF4 SLP214

CYYG;2012-10-10 13:39;CYYG 101339Z 12007KT 10SM -DZ FEW005 OVC030 12/11 A3014 RMK SF2SC6 SLP209

CYYG;2012-10-10 14:00;CYYG 101400Z 12009KT 12SM -DZ FEW004 BKN009 OVC025 12/11 A3014 RMK SF1SF6SC1 SLP207

CYYG;2012-10-10 15:00;CYYG 101500Z 13009G16KT 15SM FEW010 OVC029 12/10 A3012 RMK SC1SC7 SLP202

CYYG;2012-10-10 16:00;CYYG 101600Z 13011KT 15SM SCT018 OVC029 13/09 A3010 RMK CU3SC5 SLP194

CYYG;2012-10-10 17:00;CYYG 101700Z 13011KT 15SM SCT020 OVC035 14/09 A3008 RMK SC4SC4 SLP187

CYYG;2012-10-10 18:00;CYYG 101800Z 14010G17KT 15SM BKN028 BKN100 14/09 A3006 RMK SC6AC1 SLP180

CYYG;2012-10-10 19:00;CYYG 101900Z 15011KT 15SM SCT025 BKN050 BKN100 14/10 A3004 RMK SC3SC2AC2 SLP175

CYYG;2012-10-10 20:00;CYYG 102000Z 14009KT 15SM BKN026 BKN100 13/09 A3003 RMK SC6AC1 SLP169

CYYG;2012-10-10 21:00;CYYG 102100Z 13007KT 15SM SCT030 BKN051 BKN100 13/10 A3001 RMK SC4SC2AC1 SLP163

CYYG;2012-10-10 22:00;CYYG 102200Z 13008KT 15SM FEW030 BKN050 BKN090 13/09 A2999 RMK SC2SC3AC2 SLP157

CYYG;2012-10-10 23:00;CYYG 102300Z 13009KT 15SM BKN029 12/09 A2997 RMK SC7 SLP150

CYYG;2012-10-11 00:00;CYYG 110000Z 13007KT 15SM BKN024 BKN090 12/10 A2996 RMK SC5AC2 SLP146

CYYG;2012-10-11 01:00;CYYG 110100Z 13010KT 15SM BKN022 12/10 A2991 RMK SC7 SLP131

CYYG;2012-10-11 02:00;CYYG 110200Z 13010KT 15SM BKN016 12/10 A2988 RMK SC6 PRESFR SLP119

CYYG;2012-10-11 02:45;CYYG 110245Z 14009G15KT 15SM OVC011 12/11 A2986 RMK SC8 SLP113

CYYG;2012-10-11 03:00;CYYG 110300Z 14011KT 15SM OVC011 12/11 A2985 RMK SC8 SLP109

CYYG;2012-10-11 03:25;CYYG 110325Z 14011KT 10SM -DZ OVC010 12/11 A2983 RMK SC8 PRESFR SLP102

CYYG;2012-10-11 04:00;CYYG 110400Z 13012KT 10SM -DZ BKN008 OVC013 12/12 A2980 RMK SF6ST2 PRESFR SLP091

CYYG;2012-10-11 04:37;CYYG 110437Z 13012KT 12SM BKN008 OVC013 13/12 A2975 RMK SF6ST2 SLP076

CYYG;2012-10-11 05:00;CYYG 110500Z 12013G19KT 12SM OVC008 13/12 A2973 RMK SF8 PRESFR SLP068

CYYG;2012-10-11 06:00;CYYG 110600Z 14015G20KT 0SM BKN009 OVC021 14/13 A2966 RMK SF6SC2 PRESFR SLP045 DENSITY ALT 300FT

CYYG;2012-10-11 07:00;CYYG 110700Z 13016G24KT 15SM OVC009 14/13 A2959 RMK SF8 SLP023 DENSITY ALT 400FT

CYYG;2012-10-11 08:00;CYYG 110800Z 14018G28KT 15SM OVC011 15/14 A2954 RMK SC8 PRESFR SLP004 DENSITY ALT 600FT

CYYG;2012-10-11 08:12;CYYG 110812Z 14016G27KT 12SM -SHRA BKN011 OVC035 15/14 A2952 RMK SC6SC2 SLP996 DENSITY ALT 600FT

CYYG;2012-10-11 09:00;CYYG 110900Z 14017G24KT 12SM BKN010 OVC035 16/14 A2948 RMK SC6SC2 PRESFR SLP983 DENSITY ALT 700FT

CYYG;2012-10-11 09:40;CYYG 110940Z 14021G30KT 12SM -SHRA BKN009 OVC035 16/15 A2943 RMK SC6SC2 PRESFR SLP967 DENSITY ALT 800FT

CYYG;2012-10-11 10:00;CYYG 111000Z 15022G31KT 8SM -SHRA BKN009 OVC035 16/15 A2942 RMK SC6SC2 SLP962 DENSITY ALT 800FT

CYYG;2012-10-11 10:46;CYYG 111046Z 16020G31KT 2SM -SHRA BR BKN005 OVC019 16/16 A2939 RMK SF5SC3 SLP952 DENSITY ALT 900FT

CYYG;2012-10-11 11:00;CYYG 111100Z 17025KT 3SM -SHRA BR BKN006 OVC022 16/16 A2939 RERA RMK SF5SC3 SLP953 DENSITY ALT 900FT

CYYG;2012-10-11 11:41;CYYG 111141Z 22019G26KT 15SM BKN009 14/13 A2942 RMK SF7 SLP963 DENSITY ALT 600FT

CYYG;2012-10-11 12:00;CYYG 111200Z 24018G27KT 15SM BKN009 BKN034 14/12 A2943 RMK SF5SC2 SLP968 DENSITY ALT 600FT

CYYG;2012-10-11 12:07;CYYG 111207Z 26017G24KT 15SM SCT010 BKN043 13/12 A2944 RMK SC3SC3 PRESRR SLP970 DENSITY ALT 500FT

CYYG;2012-10-11 13:00;CYYG 111300Z 24018G28KT 15SM BKN012 BKN030 12/10 A2948 RMK SC5SC2 SLP983 DENSITY ALT 300FT

CYYG;2012-10-11 14:00;CYYG 111400Z 25017G31KT 15SM BKN020 11/07 A2954 RMK SC7 PRESRR SLP005

CYYG;2012-10-11 14:49;CYYG 111449Z 24018G32KT 15SM BKN024 BKN050 11/06 A2957 RMK CU5SC1 SLP015

CYYG;2012-10-11 15:00;CYYG 111500Z 25020G32KT 15SM VCSH SCT024 BKN054 11/06 A2958 RMK CU4SC2 PRESRR SLP019

CYYG;2012-10-11 16:00;CYYG 111600Z 26022G34KT 15SM -SHRA BKN035 10/05 A2961 RMK CU6 TCU ASOCTD SLP028

CYYG;2012-10-11 16:33;CYYG 111633Z 25018G30KT 15SM BKN032 11/05 A2962 RMK CU5 SLP031

CYYG;2012-10-11 17:00;CYYG 111700Z 26024G40KT 15SM BKN033 12/03 A2963 RMK SC5 SLP035

CYYG;2012-10-11 18:00;CYYG 111800Z 25018G29KT 15SM -SHRA SCT040TCU 11/04 A2965 RMK TCU4 OBS TAKEN +11 SLP042

CYYG;2012-10-11 18:18;CYYG 111818Z 26020G29KT 15SM SCT040TCU 11/03 A2966 RMK TCU4 SH DIST E SLP044

CYYG;2012-10-11 19:00;CYYG 111900Z 26017G35KT 15SM VCSH BKN042TCU 11/03 A2969 RMK TCU5 SH W-NW SLP056

CYYG;2012-10-11 19:27;CYYG 111927Z 27025G39KT 15SM -SHRA BKN038TCU 09/03 A2973 RMK TCU6 PRESRR SLP068

CYYG;2012-10-11 19:39;CYYG 111939Z 27018G29KT 15SM VCSH BKN030TCU 09/04 A2973 RMK TCU5 SLP069

CYYG;2012-10-11 20:00;CYYG 112000Z 25020G29KT 15SM FEW030TCU FEW050 09/03 A2974 WS RWY28 RMK TCU1SC1 TCU DIST E-SE SH DIST E-SE SLP071

CYYG;2012-10-11 21:00;CYYG 112100Z 26015G25KT 15SM SCT035TCU 08/02 A2980 RMK TCU3 SH DIST NW-N PRESRR SLP091

CYYG;2012-10-11 22:00;CYYG 112200Z 27014G23KT 15SM FEW043TCU SCT064 09/M00 A2984 RMK TCU2SC2 SLP105

CYYG;2012-10-11 23:00;CYYG 112300Z 27014G24KT 15SM FEW045TCU SCT064 08/M00 A2987 RMK TCU2SC2 SLP117

CYYG;2012-10-12 00:00;CYYG 120000Z 28016G28KT 15SM FEW050 08/M03 A2990 RMK SC2 SLP128

CYYG;2012-10-12 01:00;CYYG 120100Z 27013G22KT 15SM FEW050 07/M03 A2993 RMK SC2 SLP136

CYYG;2012-10-12 02:00;CYYG 120200Z 27012G19KT 15SM FEW050 07/M02 A2996 RMK SC1 SLP146

CYYG;2012-10-12 03:00;CYYG 120300Z 27013G18KT 15SM FEW050 06/M02 A2998 WS RWY21 RMK SC1 SLP152

CYYG;2012-10-12 04:00;CYYG 120400Z 24007KT 15SM FEW050 05/M01 A2999 RMK SC1 SLP157

CYYG;2012-10-12 05:00;CYYG 120500Z 24008KT 15SM SKC 05/M01 A3001 RMK CI TR SLP164

CYYG;2012-10-12 06:00;CYYG 120600Z 24009KT 15SM SKC 05/M01 A3001 RMK CI TR SLP162

CYYG;2012-10-12 07:00;CYYG 120700Z 24007KT 15SM SKC 05/M01 A3001 RMK CI TR SLP163

CYYG;2012-10-12 08:00;CYYG 120800Z 25006KT 15SM SCT170 05/M01 A3001 RMK AC4 SLP162

CYYG;2012-10-12 09:00;CYYG 120900Z 18004KT 15SM FEW170 BKN210 04/M01 A2999 RMK AC2CC3 SLP158

CYYG;2012-10-12 10:00;CYYG 121000Z 19005KT 15SM FEW050 FEW170 SCT210 04/M02 A2997 RMK SC1AC1CC1 VIRGA SLP151

CYYG;2012-10-12 11:00;CYYG 121100Z 17007KT 15SM SCT055 SCT250 04/00 A2996 RMK SC3CI1 SLP146

CYYG;2012-10-12 12:00;CYYG 121200Z 19012KT 15SM BKN043 08/03 A2994 RMK SC7 SLP140

CYYG;2012-10-12 12:10;CYYG 121210Z 18013KT 15SM -RA BKN041 09/03 A2993 RMK SC7 SLP137

CYYG;2012-10-12 13:00;CYYG 121300Z 21012KT 15SM -RA OVC035 09/05 A2993 RMK SC8 SLP135

CYYG;2012-10-12 14:00;CYYG 121400Z 22008G17KT 8SM -RA BKN033 OVC049 09/07 A2991 RMK SC5SC3 SLP130

CYYG;2012-10-12 15:00;CYYG 121500Z 22006KT 8SM -RA BKN027 OVC038 09/07 A2988 RMK SC5SC3 SLP120

CYYG;2012-10-12 15:49;CYYG 121549Z 29006KT 5SM -RA BR BKN012 OVC030 09/08 A2986 RMK SF5SC3 SLP113

CYYG;2012-10-12 16:00;CYYG 121600Z 28008KT 4SM +RA BR BKN010 OVC034 08/08 A2985 RMK SF5SC3 SLP111

CYYG;2012-10-12 16:43;CYYG 121643Z 28010G16KT 8SM -RA FEW009 OVC050 09/07 A2983 RERA RMK SF2SC6 SLP103

CYYG;2012-10-12 17:00;CYYG 121700Z 29017G24KT 10SM -RA FEW011 SCT022 OVC040 08/06 A2983 RERA RMK CU2SC2SC4 SLP105

CYYG;2012-10-12 18:00;CYYG 121800Z 29010G18KT 8SM -RA SCT011 OVC045 06/05 A2984 RMK CU3SC5 SLP106

CYYG;2012-10-12 19:00;CYYG 121900Z 30011G16KT 8SM -RA FEW011 OVC032 06/04 A2983 RMK SF2SC6 SLP104

CYYG;2012-10-12 20:00;CYYG 122000Z 26007KT 15SM -RA FEW011 OVC048 06/05 A2984 RMK CU1SC7 SLP107

CYYG;2012-10-12 21:00;CYYG 122100Z 27005KT 10SM -RA BKN025 OVC059 06/05 A2985 RMK SC6SC2 SLP109

CYYG;2012-10-12 22:00;CYYG 122200Z 31009G15KT 10SM -RA OVC019 05/04 A2987 RMK SC8 SLP117

CYYG;2012-10-12 23:00;CYYG 122300Z 30007KT 10SM -RA OVC025 05/03 A2989 RMK SC8 SLP124

CYYG;2012-10-13 00:00;CYYG 130000Z 29007KT 15SM FEW025 OVC070 05/02 A2990 RMK SC2AC6 SLP126

CYYG;2012-10-13 01:00;CYYG 130100Z 29008KT 15SM FEW045 BKN070 04/02 A2991 RMK SC2AC4 SLP130

CYYG;2012-10-13 02:00;CYYG 130200Z 29008G16KT 15SM SCT045 04/00 A2993 RMK SC3 SLP135

CYYG;2012-10-13 03:00;CYYG 130300Z 27010KT 15SM BKN045 03/M00 A2994 RMK SC5 SLP140

CYYG;2012-10-13 03:37;CYYG 130337Z 28008KT 12SM -SHRA SCT016 BKN045 04/00 A2995 RMK CU4SC2 SLP143

CYYG;2012-10-13 04:00;CYYG 130400Z 28007KT 10SM -SHGS SCT016 BKN030 04/00 A2996 RMK CU4SC3 SLP146

CYYG;2012-10-13 04:11;CYYG 130411Z 28007KT 12SM -SHRA SCT022 BKN033 03/00 A2996 RMK CU4SC3 SLP146

CYYG;2012-10-13 05:00;CYYG 130500Z 27006KT 15SM FEW025 SCT055 03/M00 A2996 RMK CU1SC2 SLP148

CYYG;2012-10-13 06:00;CYYG 130600Z 29010G18KT 15SM FEW025 03/M00 A2997 RMK CU2 SLP150

CYYG;2012-10-13 07:00;CYYG 130700Z 29010G16KT 15SM VCSH SCT040TCU 03/00 A2998 RMK TCU4 AURBO SLP156

CYYG;2012-10-13 08:00;CYYG 130800Z 28010G18KT 15SM FEW040TCU 02/00 A3000 RMK TCU1 AURBO SLP160

CYYG;2012-10-13 09:00;CYYG 130900Z 29009G16KT 15SM FEW040TCU 02/M00 A3001 RMK TCU1 SLP166

CYYG;2012-10-13 11:00;CYYG 131100Z 28011G17KT 15SM FEW025TCU 02/M00 A3006 RMK TCU2 SH DIST N-E SLP181

CYYG;2012-10-13 12:00;CYYG 131200Z 27012G17KT 15SM FEW025TCU 03/M01 A3008 RMK TCU2 SH DIST NE-E SLP189

CYYG;2012-10-13 13:00;CYYG 131300Z 28017KT 15SM FEW025TCU 04/M01 A3010 RMK TCU2 SH DIST NE-E SLP194

CYYG;2012-10-13 14:00;CYYG 131400Z 29016G23KT 15SM SCT032 05/M02 A3011 RMK SC3 TCU N SLP197

CYYG;2012-10-13 15:00;CYYG 131500Z 28014G19KT 15SM SCT033 05/M02 A3011 RMK SC3 TCU SH DIST NE-E SLP198

CYYG;2012-10-13 16:00;CYYG 131600Z 28014G23KT 15SM SCT038 06/M03 A3011 RMK CU4 TCU SH DIST NE-E SLP198

CYYG;2012-10-13 17:00;CYYG 131700Z 27018G25KT 15SM SCT045 06/M03 A3010 RMK CU4 TCU SH DIST NE-E SLP196

CYYG;2012-10-13 18:00;CYYG 131800Z 26014G23KT 15SM SCT047 06/M02 A3011 RMK CU4 TCU SH DIST NE-E SLP198

CYYG;2012-10-13 19:00;CYYG 131900Z 26014G23KT 15SM SCT043 06/M03 A3011 RMK CU4 SH DIST E SLP200

CYYG;2012-10-13 20:00;CYYG 132000Z 29012G18KT 15SM SCT047 06/M04 A3013 RMK CU3 SLP204

CYYG;2012-10-13 21:00;CYYG 132100Z 27010G16KT 15SM FEW055 05/M05 A3014 RMK SC2 SLP210

CYYG;2012-10-13 22:00;CYYG 132200Z 27008KT 15SM FEW055 04/M05 A3017 RMK SC2 SLP218

CYYG;2012-10-13 23:00;CYYG 132300Z 27008KT 15SM FEW060 04/M04 A3019 RMK SC2 SLP226

CYYG;2012-10-14 00:00;CYYG 140000Z 26007KT 15SM SCT060 03/M04 A3021 RMK SC3 SLP231

CYYG;2012-10-14 01:00;CYYG 140100Z 28006KT 15SM FEW060 03/M05 A3022 RMK SC1 SLP234

CYYG;2012-10-14 02:00;CYYG 140200Z 28004KT 15SM BKN055 02/M04 A3023 RMK SC5 SLP240

CYYG;2012-10-14 03:00;CYYG 140300Z 27006KT 15SM BKN055 02/M05 A3024 RMK SC5 SLP241

CYYG;2012-10-14 04:00;CYYG 140400Z 27006KT 15SM FEW055 02/M05 A3024 RMK SC1 SLP242

CYYG;2012-10-14 05:00;CYYG 140500Z 23004KT 15SM FEW055 SCT250 01/M06 A3024 RMK SC1CI3 SLP243

CYYG;2012-10-14 06:00;CYYG 140600Z 23006KT 15SM FEW055 BKN250 00/M05 A3024 RMK SC1CI5 SLP244

CYYG;2012-10-14 07:00;CYYG 140700Z 25006KT 15SM FEW055 BKN250 01/M04 A3024 RMK SC1CI5 SLP243

CYYG;2012-10-14 08:00;CYYG 140800Z 26006KT 15SM FEW055 OVC250 01/M04 A3025 RMK SC1CS7 SLP245

CYYG;2012-10-14 09:00;CYYG 140900Z 26005KT 15SM FEW170 OVC250 01/M03 A3026 RMK AC1CS7 SLP248

CYYG;2012-10-14 10:00;CYYG 141000Z 25005KT 15SM FEW055 BKN200 OVC250 02/M02 A3026 RMK SC1CC5CS2 SLP250

CYYG;2012-10-14 11:00;CYYG 141100Z 25005KT 15SM FEW040 SCT120 OVC200 02/M01 A3027 RMK SC1AC2CS5 SLP252

CYYG;2012-10-14 12:00;CYYG 141200Z 25005KT 15SM FEW035 OVC090 04/M02 A3027 RMK CU1AS7 SLP253

CYYG;2012-10-14 13:00;CYYG 141300Z 24004KT 15SM FEW030 OVC070 05/M02 A3026 RMK CU1AS7 SLP250

CYYG;2012-10-14 14:00;CYYG 141400Z 25011G17KT 15SM FEW035 BKN085 OVC120 06/M03 A3025 RMK CU1AC4AS3 SLP247

CYYG;2012-10-14 15:00;CYYG 141500Z 26010G16KT 15SM FEW035 BKN070 OVC120 06/M01 A3024 RMK CU1AC4AS3 SLP242

CYYG;2012-10-14 16:00;CYYG 141600Z 24010KT 15SM FEW025 BKN062 OVC120 05/01 A3024 RMK SC2SC4AS2 SLP241

CYYG;2012-10-14 16:31;CYYG 141631Z 24008KT 12SM -SHRA FEW018 OVC058 05/02 A3022 RMK SC2SC6 SLP237

CYYG;2012-10-14 17:00;CYYG 141700Z 23008KT 15SM FEW020 OVC057 05/02 A3021 RMK SC2SC6 SLP233

CYYG;2012-10-14 17:45;CYYG 141745Z 21009KT 15SM SCT025 OVC054 06/01 A3020 RMK SC4SC4 SLP230

CYYG;2012-10-14 18:00;CYYG 141800Z 20008KT SCT025 OVC047 06/01 A3020 RMK SC4SC4 SLP228

CYYG;2012-10-14 19:00;CYYG 141900Z 19009KT 15SM BKN024 OVC046 06/02 A3017 RMK SC5SC3 SLP219

CYYG;2012-10-14 19:35;CYYG 141935Z 18009KT 12SM -SHRA BKN024 OVC042 06/03 A3016 RMK SC5SC3 SLP214

CYYG;2012-10-14 20:00;CYYG 142000Z 18009KT 10SM -SHRA BKN024 OVC030 06/03 A3015 RMK SC5SC3 SLP211

CYYG;2012-10-14 21:00;CYYG 142100Z 19009KT 10SM -DZ BKN019 OVC040 06/04 A3013 RMK SC5SC3 VIS LWR SW-NW SLP204

CYYG;2012-10-14 22:00;CYYG 142200Z 18008KT 10SM -DZ SCT020 OVC038 06/05 A3011 RMK SC3SC5 SLP198

CYYG;2012-10-14 22:17;CYYG 142217Z 17006KT 10SM -DZ SCT009 OVC030 06/05 A3010 RMK SF3SC5 SLP196

CYYG;2012-10-14 23:49;CYYG 142349Z 11006KT 10SM -DZ FEW007 OVC015 06/05 A3009 RMK SF2SC6 SLP192

CYYG;2012-10-15 00:00;CYYG 150000Z 12005KT 6SM -DZ BR SCT006 OVC015 06/05 A3009 RMK SF4SC4 SLP190

CYYG;2012-10-15 01:00;CYYG 150100Z 10006KT 3SM -DZ BR BKN004 OVC010 05/05 A3006 RMK SF6SC2 SLP182

CYYG;2012-10-15 01:38;CYYG 150138Z 09004KT 3SM -DZ BR OVC003 05/05 A3005 RMK SF8 SLP177

CYYG;2012-10-15 02:00;CYYG 150200Z 09005KT 3SM -DZ BR OVC002 06/06 A3004 RMK SF8 SLP174

CYYG;2012-10-15 03:00;CYYG 150300Z 06004KT 3SM -DZ BR OVC002 06/06 A3003 RMK SF8 SLP173

CYYG;2012-10-15 04:00;CYYG 150400Z 05004KT 2SM -DZ BR OVC002 06/06 A3002 RMK SF8 SLP168

CYYG;2012-10-15 05:00;CYYG 150500Z 07006KT 3SM -DZ BR SCT002 OVC006 07/07 A3000 RMK SF4SF4 SLP162

CYYG;2012-10-15 06:00;CYYG 150600Z 08003KT 2SM -RA BR FEW002 BKN006 OVC014 07/07 A2999 RMK SF2SF4SC2 SLP159

CYYG;2012-10-15 07:00;CYYG 150700Z 08005KT 4SM -RA BR FEW002 BKN006 OVC020 07/07 A2997 RMK SF2SF4SC2 SLP152

CYYG;2012-10-15 08:00;CYYG 150800Z 11004KT 2SM -RA BR BKN002 OVC006 08/08 A2997 RMK SF5SF3 SLP152

CYYG;2012-10-15 09:00;CYYG 150900Z 12005KT 2SM -RA BR BKN002 OVC006 08/08 A2995 RMK SF5SF3 SLP143

CYYG;2012-10-15 10:00;CYYG 151000Z 11006KT 1 1/2SM -RA BR BKN002 OVC006 08/08 A2993 RMK SF5SF3 SLP138

CYYG;2012-10-15 10:30;CYYG 151030Z 11005KT 1SM -DZ BR VV002 08/08 A2993 RMK FG8 SLP137

CYYG;2012-10-15 11:00;CYYG 151100Z 11005KT 1SM -DZ BR VV002 09/09 A2993 RMK FG8 SLP136

CYYG;2012-10-15 12:00;CYYG 151200Z 13005KT 3/4SM -DZ BR VV002 09/09 A2992 RMK FG8 SLP132

CYYG;2012-10-15 12:16;CYYG 151216Z 13006KT 1 1/4SM -DZ BR OVC002 09/09 A2991 RMK FG4SF4 SLP130

CYYG;2012-10-15 12:41;CYYG 151241Z 13005KT 2SM -DZ BR OVC003 10/10 A2991 RMK SF8 SLP130

CYYG;2012-10-15 13:00;CYYG 151300Z 12005KT 1 1/2SM -DZ BR OVC002 10/10 A2991 RMK SF8 SLP128

CYYG;2012-10-15 14:00;CYYG 151400Z 13006KT 1 1/2SM -DZ BR OVC002 10/10 A2988 RMK SF8 SLP119

CYYG;2012-10-15 15:00;CYYG 151500Z 14006KT 4SM -DZ BR OVC003 11/11 A2986 RMK SF8 SLP115

CYYG;2012-10-15 15:07;CYYG 151507Z 14005KT 4SM -DZ BR BKN003 OVC005 11/11 A2986 RMK SF6SF2 SLP115

CYYG;2012-10-15 15:36;CYYG 151536Z 15009KT 7SM -DZ BKN005 OVC013 12/12 A2985 RMK SF5SC3 VIS LWR NW-NE SLP111

CYYG;2012-10-15 16:00;CYYG 151600Z 16008KT 7SM -DZ SCT005 OVC013 12/12 A2985 RMK SF3SC5 VIS LWR NW-NE SLP110

CYYG;2012-10-15 16:35;CYYG 151635Z 17008KT 12SM FEW005 OVC013 14/13 A2983 RMK SF1SC7 SLP105

CYYG;2012-10-15 17:00;CYYG 151700Z 19008KT 15SM FEW005 OVC014 14/13 A2983 RMK SF1SC7 SLP104

CYYG;2012-10-15 17:28;CYYG 151728Z 18006KT 15SM SCT015 OVC035 14/14 A2982 RMK SC3SC5 SLP100 DENSITY ALT 200FT

CYYG;2012-10-15 18:00;CYYG 151800Z 18004KT 15SM FEW015 SCT035 OVC150 15/14 A2981 RMK SC1SC3AS4 SUN VISBL SLP095 DENSITY ALT 300FT

CYYG;2012-10-15 19:00;CYYG 151900Z 15006KT 15SM FEW035 BKN180 BKN250 17/15 A2979 RMK SC1AC5CI1 CU ASOCTD SLP089 DENSITY ALT 500FT

CYYG;2012-10-15 20:00;CYYG 152000Z 20009KT 15SM FEW040 BKN180 18/15 A2978 RMK SC1AC6 SLP087 DENSITY ALT 600FT

CYYG;2012-10-15 21:00;CYYG 152100Z 24003KT 15SM FEW050 BKN180 16/14 A2979 RMK SC2AC5 SLP089 DENSITY ALT 400FT

CYYG;2012-10-15 22:00;CYYG 152200Z 12004KT 15SM BKN050 BKN120 15/14 A2979 RMK SC5AC2 SLP088 DENSITY ALT 300FT

CYYG;2012-10-15 23:00;CYYG 152300Z 18005KT 15SM BKN046 BKN120 15/14 A2978 RMK SC6AC1 SLP085 DENSITY ALT 300FT

CYYG;2012-10-16 00:00;CYYG 160000Z 17011KT 15SM BKN045 OVC140 16/14 A2978 RMK SC6AC2 SLP085 DENSITY ALT 400FT

CYYG;2012-10-16 01:00;CYYG 160100Z 18014KT 15SM BKN045 OVC130 16/14 A2978 RMK SC5AC3 SLP084 DENSITY ALT 500FT

CYYG;2012-10-16 02:00;CYYG 160200Z 18018KT 15SM BKN050 OVC120 16/15 A2977 RMK SC5AC3 SLP083 DENSITY ALT 500FT

CYYG;2012-10-16 03:00;CYYG 160300Z 18014G21KT 15SM BKN055 OVC120 17/15 A2975 RMK SC5AC3 SLP077 DENSITY ALT 500FT

CYYG;2012-10-16 04:00;CYYG 160400Z 18014KT 15SM SCT060 BKN110 16/15 A2975 RMK SC3AC3 SLP073 DENSITY ALT 400FT

CYYG;2012-10-16 05:00;CYYG 160500Z 18012G18KT 15SM SCT060 BKN110 16/15 A2973 RMK CU3AC3 SLP068 DENSITY ALT 400FT

CYYG;2012-10-16 06:00;CYYG 160600Z 18012KT 15SM FEW060 BKN140 16/15 A2972 RMK SC2AC4 SLP064 DENSITY ALT 500FT

CYYG;2012-10-16 07:00;CYYG 160700Z 17011KT 15SM FEW055 SCT140 BKN220 16/16 A2969 RMK SC1AC2CI2 SLP056 DENSITY ALT 500FT

CYYG;2012-10-16 08:00;CYYG 160800Z 15013KT 15SM FEW055 SCT110 BKN210 16/15 A2967 RMK SC1AC2CI2 PRESFR SLP047 DENSITY ALT 500FT

CYYG;2012-10-16 09:00;CYYG 160900Z 17011G16KT 15SM FEW011 SCT100 BKN160 17/16 A2967 RMK SC2AC2AC1 SLP047 DENSITY ALT 700FT

CYYG;2012-10-16 09:34;CYYG 160934Z 16011KT 15SM -SHRA BKN008 OVC090 17/16 A2965 RMK SF5AC3 SLP040 DENSITY ALT 600FT

CYYG;2012-10-16 10:00;CYYG 161000Z 15010KT 15SM -SHRA SCT003 OVC009 16/16 A2963 RMK SF4SF4 PRESFR SLP034 DENSITY ALT 600FT

CYYG;2012-10-16 10:31;CYYG 161031Z 15012KT 6SM -DZ BR BKN002 OVC008 17/17 A2963 RMK SF6SF2 SLP034 DENSITY ALT 700FT

CYYG;2012-10-16 11:00;CYYG 161100Z 15012G18KT 10SM -SHRA SCT002 BKN009 OVC020 17/17 A2962 RMK SF3SF3SC2 SLP031 DENSITY ALT 700FT

CYYG;2012-10-16 11:31;CYYG 161131Z 16012KT 8SM -SHRA BKN004 OVC008 17/17 A2961 RMK SF6SF2 SLP028 DENSITY ALT 700FT

CYYG;2012-10-16 12:00;CYYG 161200Z 16014KT 8SM -SHRA BKN003 OVC008 17/17 A2960 RMK SF5SF3 SLP023 DENSITY ALT 800FT

CYYG;2012-10-16 13:00;CYYG 161300Z 15014KT 8SM -SHRA BKN003 OVC009 17/17 A2958 RMK SF5SF3 SLP018 DENSITY ALT 800FT

CYYG;2012-10-16 14:00;CYYG 161400Z 16015KT 8SM -SHRA VCFG BKN003 BKN007 OVC030 17/17 A2956 RMK SF5SF2SC1 VIS LWR S-SW SLP010 DENSITY ALT 800FT

CYYG;2012-10-16 14:17;CYYG 161417Z 16015KT 8SM -SHRA VCFG SCT004 OVC058 17/17 A2955 RMK SF4SC4 SLP008 DENSITY ALT 800FT

CYYG;2012-10-16 14:49;CYYG 161449Z 16012KT 8SM BKN003 BKN010 OVC060 17/17 A2954 RMK SF5SF2SC1 SLP003 DENSITY ALT 800FT

CYYG;2012-10-16 15:00;CYYG 161500Z 15012KT 4SM SHRA BR BKN003 BKN012 OVC060 17/17 A2953 RMK SF5SF2SC1 SLP001 DENSITY ALT 800FT

CYYG;2012-10-16 16:00;CYYG 161600Z 16011KT 4SM -SHRA BR BKN003 BKN012 OVC060 17/17 A2949 RERA RMK SF5SC1SC2 PRESFR SLP985 DENSITY ALT 900FT

CYYG;2012-10-16 16:10;CYYG 161610Z 16010KT 4SM SHRA BR SCT003 BKN012 OVC045 17/17 A2947 RMK SF4SF2SC2 SLP981 DENSITY ALT 900FT

CYYG;2012-10-16 16:24;CYYG 161624Z 15009KT 4SM SHRA BR BKN003 BKN010 OVC038 17/17 A2946 RMK SF5SF2SC1 PRESFR SLP976 DENSITY ALT 900FT

CYYG;2012-10-16 16:54;CYYG 161654Z 14012KT 10SM BKN004 BKN040 OVC110 17/17 A2942 RMK SF5SC1AC2 PRESFR SLP964 DENSITY ALT 1000FT

CYYG;2012-10-16 17:00;CYYG 161700Z 14013KT 12SM VCFG BKN004 BKN040 OVC110 17/17 A2942 RERA RMK SF5SC1AC2 PRESFR SLP962 DENSITY ALT 1000FT

CYYG;2012-10-16 17:41;CYYG 161741Z 15013G19KT 12SM FEW006 BKN016 OVC060 18/17 A2939 RMK SF2SC4SC2 SLP951 DENSITY ALT 1100FT

CYYG;2012-10-16 18:00;CYYG 161800Z 15012G17KT 15SM FEW006 BKN011 OVC060 18/17 A2937 RMK SF2SC5SC1 SLP946 DENSITY ALT 1100FT

CYYG;2012-10-16 18:15;CYYG 161815Z 15011G17KT 15SM -SHRA FEW006 BKN015 OVC060 18/17 A2935 RMK SF2SC5SC1 PRESFR SLP940 DENSITY ALT 1100FT

CYYG;2012-10-16 19:00;CYYG 161900Z 16012KT 15SM -SHRA FEW007 OVC017 18/17 A2931 RMK SF2SC6 SLP926 DENSITY ALT 1200FT

CYYG;2012-10-16 19:46;CYYG 161946Z 16016G25KT 15SM FEW007 BKN020 OVC120 17/17 A2928 RMK SF2SC5AC1 SLP916 DENSITY ALT 1200FT

CYYG;2012-10-16 20:00;CYYG 162000Z 17016G25KT 15SM FEW008 OVC023 17/17 A2929 RMK SF2SC6 SLP918 DENSITY ALT 1100FT

CYYG;2012-10-16 21:00;CYYG 162100Z 18016G22KT 15SM VCSH FEW008 BKN021 OVC080 17/15 A2930 RMK SF2SC5AC1 SHWRS SW-NW SLP921 DENSITY ALT 1100FT

CYYG;2012-10-16 21:21;CYYG 162121Z 21021G31KT 2SM +SHRA FEW008 OVC025 17/16 A2932 RMK SF2SC6 PRESRR SLP931 DENSITY ALT 1100FT

CYYG;2012-10-16 21:23;CYYG 162123Z 22024G35KT 6SM SHRA FEW008 OVC029 17/15 A2932 RMK SF2SC6 VIS LWR W PRESRR SLP930 DENSITY ALT 1000FT

CYYG;2012-10-16 22:00;CYYG 162200Z 23020G26KT 10SM VCSH FEW008 BKN025 BKN059 16/15 A2934 RERA RMK SF2SC4SC1 VIS LWR SW TCU ASOCTD SLP935 DENSITY ALT 900FT

CYYG;2012-10-16 22:07;CYYG 162207Z 26017G32KT 10SM VCSH FEW009 BKN022 BKN060 14/12 A2936 RMK SF2SC4SC1 WSHFT 2204 PRESRR SLP943 DENSITY ALT 600FT

CYYG;2012-10-16 22:13;CYYG 162213Z 26016G32KT 8SM -SHRA FEW009 BKN025 OVC060 13/12 A2937 RMK SF2SC5SC1 SLP947 DENSITY ALT 500FT

CYYG;2012-10-16 22:36;CYYG 162236Z 27013G24KT 8SM -SHRA FEW006 BKN011 OVC035 12/11 A2941 RMK SF1SF6SC1 PRESRR SLP958 DENSITY ALT 300FT

CYYG;2012-10-16 23:00;CYYG 162300Z 27012G22KT 15SM FEW009 BKN036 BKN061 11/09 A2943 RMK SF1SC4SC1 PRESRR SLP966 DENSITY ALT 200FT

CYYG;2012-10-17 00:00;CYYG 170000Z 26009KT 15SM BKN047 BKN056 10/09 A2945 RMK SC5SC2 SLP975

CYYG;2012-10-17 01:00;CYYG 170100Z 23011KT 15SM BKN013 OVC058 11/09 A2949 RMK SC6SC2 SLP989

CYYG;2012-10-17 02:00;CYYG 170200Z 24014G23KT 15SM BKN013 OVC021 09/07 A2953 RMK SC5SC3 SLP001

CYYG;2012-10-17 03:00;CYYG 170300Z 25015G20KT 15SM FEW015 BKN024 09/06 A2956 RMK SC2SC5 SLP011

CYYG;2012-10-17 04:00;CYYG 170400Z 26019G26KT 15SM FEW017 BKN039 08/05 A2959 RMK CU2SC5 SLP020

CYYG;2012-10-17 05:00;CYYG 170500Z 26011G17KT 15SM BKN030 07/02 A2962 RMK SC6 SLP030

CYYG;2012-10-17 06:00;CYYG 170600Z 25011G16KT 15SM FEW028 06/02 A2964 RMK SC2 SLP038

CYYG;2012-10-17 07:00;CYYG 170700Z 25012G18KT 15SM BKN028 06/02 A2965 RMK SC5 SLP043

CYYG;2012-10-17 08:00;CYYG 170800Z 25011G18KT 15SM BKN020 BKN031 06/03 A2967 RMK SC5SC2 SLP048

CYYG;2012-10-17 09:00;CYYG 170900Z 24009KT 15SM BKN025 05/03 A2968 RMK SC6 SLP053

CYYG;2012-10-17 10:00;CYYG 171000Z 24010KT 15SM FEW023 SCT250 05/02 A2971 RMK SC1CI2 SLP062

CYYG;2012-10-17 11:00;CYYG 171100Z 25010G16KT 15SM FEW023 BKN250 04/02 A2974 RMK SC2CI3 SLP072

CYYG;2012-10-17 12:00;CYYG 171200Z 28011G20KT 15SM FEW023 SCT250 05/02 A2975 RMK SC2CI2 SLP077

CYYG;2012-10-17 13:00;CYYG 171300Z 27013G20KT 15SM FEW023 BKN250 07/03 A2977 RMK SC2CI3 SLP083

CYYG;2012-10-17 14:00;CYYG 171400Z 27010G19KT 15SM FEW025 BKN250 08/03 A2978 RMK SC2CI4 SLP087

CYYG;2012-10-17 15:00;CYYG 171500Z 28008KT 15SM FEW025 BKN250 09/03 A2979 RMK SC1CI5 SLP090

CYYG;2012-10-17 16:00;CYYG 171600Z 29010KT 15SM FEW026 BKN250 10/03 A2978 RMK SC2CI4 SLP086

CYYG;2012-10-17 17:00;CYYG 171700Z 31008G16KT 15SM SCT026 BKN250 10/03 A2977 RMK SC3CI3 SLP082

CYYG;2012-10-17 18:00;CYYG 171800Z 32008KT 15SM BKN028 BKN250 09/04 A2977 RMK SC5CI1 SLP083

CYYG;2012-10-17 19:00;CYYG 171900Z 32012G18KT 15SM SCT028 BKN250 09/03 A2979 RMK SC4CI2 SLP091

CYYG;2012-10-17 19:33;CYYG 171933Z 33009KT 15SM BKN028 BKN250 09/03 A2981 RMK SC5CI1 SLP097

CYYG;2012-10-17 20:00;CYYG 172000Z 34009KT 15SM BKN028 BKN250 09/03 A2982 RMK SC5CI1 SLP100

CYYG;2012-10-17 21:00;CYYG 172100Z 32008KT 15SM SCT028 BKN250 08/03 A2982 RMK SC3CI2 SLP099

CYYG;2012-10-17 22:00;CYYG 172200Z 31005KT 15SM FEW033 SCT250 07/03 A2982 RMK SC2CI2 SLP101

CYYG;2012-10-17 23:00;CYYG 172300Z 34008KT 15SM SCT027 BKN250 07/03 A2985 RMK SC4CI2 SLP111

CYYG;2012-10-18 00:00;CYYG 180000Z 32009KT 15SM SCT027 BKN250 07/03 A2986 RMK SC4CI2 SLP114

CYYG;2012-10-18 01:00;CYYG 180100Z 32006KT 15SM FEW027 SCT250 06/03 A2988 RMK SC2CI2 SLP118

CYYG;2012-10-18 02:00;CYYG 180200Z 29004KT 15SM BKN027 07/03 A2990 RMK SC7 SLP126

CYYG;2012-10-18 03:00;CYYG 180300Z 26006KT 15SM BKN027 06/03 A2992 RMK SC7 SLP133

CYYG;2012-10-18 04:00;CYYG 180400Z 26005KT 15SM BKN026 06/04 A2993 RMK SC7 SLP137

CYYG;2012-10-18 05:00;CYYG 180500Z 28006KT 15SM OVC025 06/04 A2994 RMK SC8 SLP141

CYYG;2012-10-18 06:00;CYYG 180600Z 27005KT 15SM OVC025 06/04 A2996 RMK SC8 SLP146

CYYG;2012-10-18 07:00;CYYG 180700Z 26006KT 15SM OVC026 06/04 A2997 RMK SC8 SLP150

CYYG;2012-10-18 08:00;CYYG 180800Z 26006KT 15SM OVC021 06/04 A3000 RMK SC8 SLP161

CYYG;2012-10-18 09:00;CYYG 180900Z 27006KT 15SM OVC023 06/04 A3003 RMK SC8 SLP170

CYYG;2012-10-18 10:00;CYYG 181000Z 29006KT 15SM OVC018 06/04 A3005 RMK SC8 SLP179

CYYG;2012-10-18 11:00;CYYG 181100Z 29006KT 15SM BKN019 OVC028 06/03 A3008 RMK SC5SC3 SLP188

CYYG;2012-10-18 13:00;CYYG 181300Z 27005KT 15SM BKN022 07/04 A3012 RMK NS7 SLP202

CYYG;2012-10-18 14:00;CYYG 181400Z 28005KT 15SM BKN024 08/04 A3014 RMK SC7 SLP208

CYYG;2012-10-18 15:00;CYYG 181500Z 34005KT 15SM BKN025 BKN300 10/04 A3014 RMK SC5CI1 SLP209

CYYG;2012-10-18 16:00;CYYG 181600Z 28005KT 15SM SCT027 BKN300 10/04 A3014 RMK SC4CI1 SLP210

CYYG;2012-10-18 17:00;CYYG 181700Z 28005KT 15SM FEW028 SCT300 11/04 A3014 RMK SC2CI1 SLP209

CYYG;2012-10-18 18:00;CYYG 181800Z 36006KT 15SM FEW028 SCT300 11/05 A3015 RMK SC2CI1 SLP212

CYYG;2012-10-18 19:00;CYYG 181900Z VRB02KT 15SM FEW028 SCT250 11/06 A3016 RMK SC2CI1 SLP216

CYYG;2012-10-18 20:00;CYYG 182000Z 11005KT 15SM FEW030 SCT250 10/06 A3017 RMK SC1CI2 SLP218

CYYG;2012-10-18 21:00;CYYG 182100Z 28003KT 280V030 15SM FEW030 SCT250 08/05 A3018 RMK SC1CI2 SLP221

CYYG;2012-10-18 22:00;CYYG 182200Z 00000KT 15SM SCT250 06/04 A3019 RMK CC4 SLP223

CYYG;2012-10-18 23:00;CYYG 182300Z 10002KT 15SM SCT250 05/04 A3019 RMK CI4 SLP226

CYYG;2012-10-19 00:00;CYYG 190000Z 16003KT 15SM SCT250 06/05 A3022 RMK CI4 SLP233

CYYG;2012-10-19 01:00;CYYG 190100Z 17003KT 15SM SCT250 05/05 A3022 RMK CI4 SLP235

CYYG;2012-10-19 02:00;CYYG 190200Z 14003KT 15SM SCT250 05/05 A3022 RMK CI4 SLP235

CYYG;2012-10-19 03:00;CYYG 190300Z 16004KT 15SM SCT250 05/05 A3022 RMK CI4 SLP236

CYYG;2012-10-19 04:00;CYYG 190400Z 18004KT 15SM SCT250 06/05 A3022 RMK CI4 SLP236

CYYG;2012-10-19 05:00;CYYG 190500Z 16003KT 15SM SCT250 07/06 A3022 RMK CI4 SLP236

CYYG;2012-10-19 06:00;CYYG 190600Z 18002KT 15SM SCT250 06/06 A3023 RMK CI4 SLP239

CYYG;2012-10-19 07:00;CYYG 190700Z 18003KT 15SM SCT250 07/07 A3025 RMK CI4 SLP246

CYYG;2012-10-19 08:00;CYYG 190800Z 15002KT 15SM MIFG SCT250 05/05 A3025 RMK CI4 SLP244

CYYG;2012-10-19 09:00;CYYG 190900Z 00000KT 15SM MIFG SCT250 03/03 A3025 RMK CI4 SLP246

CYYG;2012-10-19 10:00;CYYG 191000Z 00000KT 15SM MIFG FEW250 05/05 A3025 RMK CI2 SLP246

CYYG;2012-10-19 11:00;CYYG 191100Z 14003KT 15SM MIFG FEW210 06/06 A3025 RMK CI1 SLP247

CYYG;2012-10-19 12:00;CYYG 191200Z 17003KT 15SM FEW210 08/08 A3027 RMK CI2 SLP250

CYYG;2012-10-19 13:00;CYYG 191300Z 19008KT 15SM FEW210 11/08 A3028 RMK CI1 SLP256

CYYG;2012-10-19 14:00;CYYG 191400Z 18007KT 15SM FEW210 12/08 A3028 RMK CI1 SLP255

CYYG;2012-10-19 15:00;CYYG 191500Z 17007KT 15SM FEW210 14/08 A3026 RMK CI1 SLP250

CYYG;2012-10-19 17:00;CYYG 191700Z 18007KT 15SM BKN220 15/04 A3025 RMK CI5 SLP245

CYYG;2012-10-19 18:00;CYYG 191800Z 19006KT 15SM BKN290 15/03 A3024 RMK CI7 SLP243

CYYG;2012-10-19 19:00;CYYG 191900Z 15007KT 15SM BKN290 15/05 A3024 RMK CI7 SLP241

CYYG;2012-10-19 20:00;CYYG 192000Z 15004KT 15SM BKN290 15/06 A3023 RMK CI7 SLP239

CYYG;2012-10-19 21:00;CYYG 192100Z 15004KT 15SM SCT200 BKN290 13/06 A3022 RMK CI3CI4 SLP237

CYYG;2012-10-19 22:00;CYYG 192200Z 13004KT 15SM FEW200 BKN290 12/06 A3023 RMK CI2CI5 SLP239

CYYG;2012-10-19 23:00;CYYG 192300Z 12006KT 15SM BKN170 11/07 A3022 RMK AS7 SLP236

CYYG;2012-10-20 00:00;CYYG 200000Z 16009KT 15SM OVC240 11/09 A3024 RMK CS8 SLP242

CYYG;2012-10-20 01:00;CYYG 200100Z 16011KT 15SM OVC240 11/09 A3024 RMK CS8 SLP242

CYYG;2012-10-20 02:00;CYYG 200200Z 15010KT 15SM OVC180 10/09 A3022 RMK CS8 SLP233

CYYG;2012-10-20 03:00;CYYG 200300Z 14011KT 15SM OVC200 10/09 A3019 RMK CS8 PRESFR SLP225

CYYG;2012-10-20 04:00;CYYG 200400Z 16008KT 15SM OVC200 10/09 A3020 RMK CS8 PRESRR SLP229

CYYG;2012-10-20 05:00;CYYG 200500Z 14011KT 15SM FEW008 BKN200 10/09 A3019 RMK SF1CI6 SLP224

CYYG;2012-10-20 06:00;CYYG 200600Z 14009G17KT 15SM SCT008 BKN075 BKN200 10/09 A3016 RMK SF3AC3CI1 SLP216

CYYG;2012-10-20 07:00;CYYG 200700Z 15017KT 15SM FEW008 SCT070 BKN140 11/10 A3014 RMK SF2AC2AC3 SLP206

CYYG;2012-10-20 08:00;CYYG 200800Z 14012KT 15SM FEW008 BKN085 BKN150 12/11 A3012 RMK SF1AC4AC2 SLP201

CYYG;2012-10-20 09:00;CYYG 200900Z 14013G18KT 15SM FEW011 BKN100 12/11 A3011 RMK SC2AC5 SLP198

CYYG;2012-10-20 10:00;CYYG 201000Z 14014G19KT 15SM FEW017 BKN089 BKN120 13/12 A3009 RMK SC2AC4AC1 SLP190

CYYG;2012-10-20 11:00;CYYG 201100Z 14012G19KT 15SM FEW035 BKN120 OVC200 13/12 A3010 RMK SC2AC5CI1 SLP193

CYYG;2012-10-20 12:00;CYYG 201200Z 14013KT 15SM FEW012 FEW032 BKN110 OVC200 14/12 A3009 RMK SF1SC1AC5CI1 SLP192

CYYG;2012-10-20 12:49;CYYG 201249Z 15015G22KT 15SM -SHRA FEW012 BKN039 OVC110 14/13 A3009 RMK SF2SC3AC3 SLP189

CYYG;2012-10-20 13:00;CYYG 201300Z 15018G24KT 15SM -SHRA FEW012 BKN040 OVC110 14/13 A3009 RMK SF2SC4AC2 SLP191

CYYG;2012-10-20 14:00;CYYG 201400Z 15014KT 12SM -SHRA FEW010 BKN033 OVC049 14/13 A3008 RMK SF2SC4SC2 SLP186

CYYG;2012-10-20 15:00;CYYG 201500Z 14011G17KT 12SM -SHRA FEW010 SCT029 BKN120 OVC250 15/14 A3005 RMK SF1SC3AC3CI1 SLP178

CYYG;2012-10-20 15:25;CYYG 201525Z 14013KT 15SM FEW010 BKN040 BKN120 OVC250 15/14 A3004 RMK SF1SC4AC2CI1 SLP175

CYYG;2012-10-20 16:00;CYYG 201600Z 14012G19KT 15SM FEW012 BKN042 OVC250 16/15 A3002 RMK SF1SC5CI2 SLP167 DENSITY ALT 200FT

CYYG;2012-10-20 17:00;CYYG 201700Z 14013G20KT 15SM FEW012 SCT040 BKN130 OVC250 17/14 A2998 RMK SF1SC2AC4CI1 SLP153 DENSITY ALT 300FT

CYYG;2012-10-20 17:32;CYYG 201732Z 15015G22KT 15SM -SHRA FEW012 SCT046 BKN120 OVC250 18/14 A2996 RMK SF1SC2AC4CI1 SLP148 DENSITY ALT 400FT

CYYG;2012-10-20 18:00;CYYG 201800Z 15019G24KT 15SM FEW012 FEW048 BKN130 OVC250 18/14 A2995 RMK SF1SC1AC4CI2 SLP144 DENSITY ALT 400FT

CYYG;2012-10-20 19:00;CYYG 201900Z 15018G24KT 15SM FEW030 BKN130 OVC250 18/15 A2992 RMK SC2AC3CI3 SLP134 DENSITY ALT 500FT

CYYG;2012-10-20 20:00;CYYG 202000Z 15018G26KT 15SM BKN026 BKN150 BKN250 18/15 A2990 RMK SC5AC1CI1 SLP126 DENSITY ALT 500FT

CYYG;2012-10-20 21:00;CYYG 202100Z 15014G22KT 12SM SCT028 BKN130 OVC230 17/15 A2989 RMK SC3AC3CI2 SLP122 DENSITY ALT 400FT

CYYG;2012-10-20 22:00;CYYG 202200Z 16017G23KT 12SM FEW025 SCT068 OVC140 17/15 A2987 RMK SC2AC2AC4 SLP117 DENSITY ALT 400FT

CYYG;2012-10-20 23:00;CYYG 202300Z 17018G27KT 15SM OVC016 17/15 A2986 RMK SC8 SLP112 DENSITY ALT 400FT

CYYG;2012-10-21 00:00;CYYG 210000Z 15016G23KT 12SM OVC017 18/16 A2983 RMK SC8 SLP103 DENSITY ALT 500FT

CYYG;2012-10-21 01:00;CYYG 210100Z 15015G21KT 12SM OVC013 17/16 A2981 RMK SC8 SLP096 DENSITY ALT 500FT

CYYG;2012-10-21 02:00;CYYG 210200Z 15015G23KT 12SM -SHRA OVC013 17/16 A2979 RMK SC8 SLP089 DENSITY ALT 600FT

CYYG;2012-10-21 02:23;CYYG 210223Z 15013G18KT 10SM -SHRA FEW005 OVC012 17/16 A2978 RMK SF1SC7 SLP084 DENSITY ALT 500FT

CYYG;2012-10-21 03:00;CYYG 210300Z 15017G24KT 12SM -SHRA FEW005 OVC011 17/16 A2976 RMK SF2SC6 SLP077 DENSITY ALT 500FT

CYYG;2012-10-21 04:00;CYYG 210400Z 15013G19KT 12SM SCT003 OVC014 17/16 A2973 RMK SF4SC4 SLP070 DENSITY ALT 500FT

CYYG;2012-10-21 05:00;CYYG 210500Z 16011G19KT 12SM FEW003 OVC010 17/17 A2972 RMK SF2SC6 SLP065 DENSITY ALT 600FT

CYYG;2012-10-21 06:00;CYYG 210600Z 16013KT 12SM FEW004 OVC011 17/16 A2971 RMK SF2SC6 SLP061 DENSITY ALT 600FT

CYYG;2012-10-21 06:42;CYYG 210642Z 16013KT 12SM FEW005 OVC011 17/16 A2969 RMK SF2SC6 SLP056 DENSITY ALT 600FT

CYYG;2012-10-21 07:00;CYYG 210700Z 16011KT 0SM FEW005 OVC011 17/17 A2969 RMK SF2SC6 SLP054 DENSITY ALT 600FT

CYYG;2012-10-21 08:00;CYYG 210800Z 17011KT 10SM -SHRA SCT003 OVC016 17/17 A2968 RMK SF4SC4 SLP052 DENSITY ALT 600FT

CYYG;2012-10-21 08:10;CYYG 210810Z 16008KT 10SM -SHRA BKN003 OVC016 17/17 A2968 RMK SF6SC2 SLP052 DENSITY ALT 600FT

CYYG;2012-10-21 09:00;CYYG 210900Z 16008KT 10SM -SHRA BKN003 OVC009 16/16 A2967 RERA RMK SF7SC1 SLP047 DENSITY ALT 600FT

CYYG;2012-10-21 09:26;CYYG 210926Z 16009KT 10SM SCT003 BKN008 OVC030 17/17 A2966 RMK SF3SF3SC2 SLP046 DENSITY ALT 600FT

CYYG;2012-10-21 09:41;CYYG 210941Z 16009KT 2 1/2SM -SHRA BR BKN002 OVC009 17/17 A2966 RMK SF6SF2 SLP044 DENSITY ALT 600FT

CYYG;2012-10-21 10:00;CYYG 211000Z 16007KT 5SM -SHRA BR BKN002 OVC026 17/17 A2965 RMK SF6SC2 SLP043 DENSITY ALT 700FT

CYYG;2012-10-21 10:11;CYYG 211011Z 16006KT 5SM -SHRA BR SCT002 BKN027 OVC036 17/17 A2965 RMK SF3SC3SC2 SLP042 DENSITY ALT 700FT

CYYG;2012-10-21 10:26;CYYG 211026Z 15008KT 3SM BR BKN002 BKN026 OVC033 17/17 A2965 RMK SF6SC1SC1 SLP042 DENSITY ALT 700FT

CYYG;2012-10-21 10:51;CYYG 211051Z 18007KT 1/2SM FG VV002 17/17 A2966 RMK FG8 SLP046 DENSITY ALT 600FT

CYYG;2012-10-21 11:00;CYYG 211100Z 19008KT 1/2SM FG VV002 17/17 A2967 RMK FG8 SLP047 DENSITY ALT 600FT

CYYG;2012-10-21 11:10;CYYG 211110Z 17008KT 1/4SM FG VV002 16/16 A2966 RMK FG8 R03/2000FT/D SLP045 DENSITY ALT 600FT

CYYG;2012-10-21 11:51;CYYG 211151Z 20005KT 1/2SM FG BKN019 16/16 A2965 RMK FG4SC3 SLP043 DENSITY ALT 600FT

CYYG;2012-10-21 12:00;CYYG 211200Z 20005KT 1/2SM FG BKN019 BKN061 16/16 A2965 RMK FG2SC4SC1 SLP041 DENSITY ALT 600FT

CYYG;2012-10-21 12:27;CYYG 211227Z 19004KT 1/4SM FG VV001 16/16 A2965 RMK FG8 R03/0900FT/D SLP041 DENSITY ALT 600FT

CYYG;2012-10-21 12:38;CYYG 211238Z 20005KT 1/8SM FG BKN019 16/16 A2965 RMK FG4SC3 R03/0800FT/N SLP040 DENSITY ALT 600FT

CYYG;2012-10-21 13:00;CYYG 211300Z 21005KT 1/4SM FG BKN011 OVC250 16/16 A2965 RMK FG3SF3CI2 R03/2600FT/U SLP042 DENSITY ALT 500FT

CYYG;2012-10-21 13:09;CYYG 211309Z 20005KT 1/2SM FG BKN011 BKN250 16/16 A2965 RMK FG2SF3CI2 R03/3500FT/U SLP040 DENSITY ALT 500FT

CYYG;2012-10-21 13:14;CYYG 211314Z 20006KT 2SM BR FEW011 BKN250 16/16 A2965 RMK SC2CI5 VIS W-N 15 SLP041 DENSITY ALT 600FT

CYYG;2012-10-21 13:18;CYYG 211318Z 21006KT 15SM FEW011 BKN250 16/16 A2965 RMK SC2CI5 VIS E-S 3 SLP041 DENSITY ALT 600FT

CYYG;2012-10-21 13:38;CYYG 211338Z 23008KT 15SM BKN009 OVC250 16/16 A2964 RMK SF6CI2 FG BANK DIST E SLP038 DENSITY ALT 600FT

CYYG;2012-10-21 14:00;CYYG 211400Z 24011KT 15SM BKN007 OVC250 17/16 A2964 RMK SF7CI1 SLP038 DENSITY ALT 700FT

CYYG;2012-10-21 15:00;CYYG 211500Z 23011KT 15SM BKN005 OVC250 16/15 A2964 RMK SF7CI1 SLP037 DENSITY ALT 600FT

CYYG;2012-10-21 15:12;CYYG 211512Z 23009G15KT 15SM SCT007 OVC250 16/14 A2963 RMK SF3CI5 SLP035 DENSITY ALT 500FT

CYYG;2012-10-21 16:00;CYYG 211600Z 22011KT 15SM BKN009 OVC250 16/14 A2963 RMK SF6CI2 SLP034 DENSITY ALT 600FT

CYYG;2012-10-21 16:21;CYYG 211621Z 22010G16KT 15SM BKN010 OVC250 16/14 A2963 RMK SC7CI1 SLP034 DENSITY ALT 600FT

CYYG;2012-10-21 17:00;CYYG 211700Z 23012G18KT 15SM BKN012 OVC250 16/13 A2963 RMK SC7CI1 SLP034 DENSITY ALT 600FT

CYYG;2012-10-21 18:00;CYYG 211800Z 25009G18KT 15SM BKN019 BKN250 16/13 A2962 RMK SC6CI1 SLP031 DENSITY ALT 600FT

CYYG;2012-10-21 19:00;CYYG 211900Z 24011KT 15SM FEW015 FEW023 BKN250 15/13 A2962 RMK CU1SC1CI5 SLP030 DENSITY ALT 500FT

CYYG;2012-10-21 20:00;CYYG 212000Z 24007KT 15SM FEW012 SCT100 BKN250 15/13 A2960 RMK CU1AC2CI4 SLP026 DENSITY ALT 500FT

CYYG;2012-10-21 21:00;CYYG 212100Z 23007KT 15SM FEW020TCU SCT100 BKN250 14/12 A2960 RMK TCU1AC2CI3 TCU W SLP026 DENSITY ALT 400FT

CYYG;2012-10-21 22:00;CYYG 212200Z 24006KT 15SM FEW020 SCT100 BKN250 13/12 A2961 RMK SC1AC2CI2 SLP028 DENSITY ALT 200FT

CYYG;2012-10-21 23:00;CYYG 212300Z 25006KT 15SM FEW020 SCT180 12/11 A2961 RMK SC1CC3 SLP029 DENSITY ALT 200FT

CYYG;2012-10-22 00:00;CYYG 220000Z 25007KT 15SM FEW020 FEW190 12/11 A2962 RMK SC1CF1 SLP031

CYYG;2012-10-22 01:00;CYYG 220100Z 24009KT 15SM FEW015 11/11 A2962 RMK SC1 SLP033

CYYG;2012-10-22 02:00;CYYG 220200Z 22005KT 15SM FEW120 10/10 A2961 RMK AC2 SLP028

CYYG;2012-10-22 03:00;CYYG 220300Z 25007KT 15SM FEW120 11/09 A2960 RMK AC2 SLP025

CYYG;2012-10-22 04:00;CYYG 220400Z 25007KT 15SM BKN070 10/09 A2960 RMK AC5 SLP026

CYYG;2012-10-22 05:00;CYYG 220500Z 23007KT 15SM BKN068 10/07 A2961 RMK AC5 SLP029

CYYG;2012-10-22 06:00;CYYG 220600Z 23005KT 15SM SCT068 09/06 A2960 RMK AC3 SLP025

CYYG;2012-10-22 07:00;CYYG 220700Z 24008KT 15SM FEW068 09/06 A2959 RMK AC2 SLP020

CYYG;2012-10-22 08:00;CYYG 220800Z 22007KT 15SM FEW070 09/06 A2958 RMK AC1 SLP018

CYYG;2012-10-22 09:00;CYYG 220900Z 22007KT 15SM SCT040 08/06 A2958 RMK SC3 SLP018

CYYG;2012-10-22 10:00;CYYG 221000Z 24009KT 15SM SCT040 09/06 A2958 RMK SC3 SLP019

CYYG;2012-10-22 11:00;CYYG 221100Z 23008KT 15SM FEW020 SCT038 SCT250 09/06 A2958 RMK CU1SC2CI1 SLP020

CYYG;2012-10-22 12:00;CYYG 221200Z 24015G20KT 15SM FEW020 BKN034 10/06 A2958 RMK CU1SC6 SLP019

CYYG;2012-10-22 13:00;CYYG 221300Z 25014G23KT 15SM BKN033 10/05 A2959 RMK SC7 SLP021

CYYG;2012-10-22 13:02;CYYG 221302Z 25015G23KT 15SM -SHRA BKN033 10/05 A2959 RMK SC7 SLP022

CYYG;2012-10-22 13:23;CYYG 221323Z 24011G23KT 15SM FEW028 BKN037 10/05 A2959 RMK SC2SC5 SLP021

CYYG;2012-10-22 14:00;CYYG 221400Z 24011G19KT 15SM BKN027 10/06 A2958 RMK SC7 SLP020

CYYG;2012-10-22 15:00;CYYG 221500Z 24011G19KT 15SM BKN028 BKN250 11/06 A2959 RMK SC6CI1 SLP021

CYYG;2012-10-22 16:00;CYYG 221600Z 26016G22KT 15SM BKN033 12/05 A2957 RMK SC6 SLP016 DENSITY ALT 200FT

CYYG;2012-10-22 17:00;CYYG 221700Z 26013G24KT 15SM BKN038 12/05 A2957 RMK SC7 SH DIST N-NE SLP014 DENSITY ALT 200FT

CYYG;2012-10-22 18:00;CYYG 221800Z 26013G21KT 15SM BKN038 12/05 A2957 RMK SC7 SH DIST N-NE SLP015 DENSITY ALT 200FT

CYYG;2012-10-22 19:00;CYYG 221900Z 25011G20KT 15SM BKN045 12/05 A2958 RMK SC7 SH DIST NW-E SLP018 DENSITY ALT 200FT

CYYG;2012-10-22 20:00;CYYG 222000Z 25011G18KT 15SM BKN038 12/06 A2958 RMK SC6 SH DIST W-NE SLP018 DENSITY ALT 200FT

CYYG;2012-10-22 20:18;CYYG 222018Z 26010G17KT 15SM -SHRA BKN042TCU 11/06 A2959 RMK TCU6 SLP021

CYYG;2012-10-22 21:00;CYYG 222100Z 27009KT 15SM -SHRA BKN045TCU 10/06 A2961 RMK TCU7 SLP027

CYYG;2012-10-22 22:00;CYYG 222200Z 27006KT 15SM -SHRA BKN039TCU 09/07 A2962 RMK TCU7 SLP032

CYYG;2012-10-22 23:00;CYYG 222300Z 28007KT 15SM -SHRA BKN040 10/05 A2962 RMK CU7 TCU ASOCTD SLP033

CYYG;2012-10-22 23:52;CYYG 222352Z 26005KT 15SM FEW040 BKN080 08/07 A2963 RMK CU2AC5 SLP036

CYYG;2012-10-23 00:00;CYYG 230000Z 26005KT 15SM FEW040 BKN080 09/07 A2963 RMK CU2AC5 SLP036

CYYG;2012-10-23 01:00;CYYG 230100Z 29008KT 15SM FEW040 BKN075 09/04 A2965 RMK CU1AC6 SLP041

CYYG;2012-10-23 02:00;CYYG 230200Z 29005KT 15SM FEW040 BKN080 09/03 A2965 RMK CU1AC6 SLP042

CYYG;2012-10-23 03:00;CYYG 230300Z 28007KT 15SM FEW040 BKN075 08/03 A2965 RMK CU1AC6 SLP043

CYYG;2012-10-23 04:00;CYYG 230400Z 29009G16KT 15SM FEW035 OVC068 07/03 A2967 RMK CU1AC7 SLP047

CYYG;2012-10-23 05:00;CYYG 230500Z 29010G17KT 15SM FEW035 SCT068 06/02 A2967 RMK CU1AC3 SLP049

CYYG;2012-10-23 06:00;CYYG 230600Z 29009G16KT 15SM BKN037 06/02 A2968 RMK SC5 SLP053

CYYG;2012-10-23 07:00;CYYG 230700Z 28007G15KT 15SM BKN032 06/02 A2969 RMK SC7 SLP054

CYYG;2012-10-23 08:00;CYYG 230800Z 28009KT 15SM BKN026 06/02 A2969 RMK SC7 SLP054

CYYG;2012-10-23 09:00;CYYG 230900Z 28007KT 15SM BKN027 06/02 A2970 RMK SC7 SLP059

CYYG;2012-10-23 10:00;CYYG 231000Z 28009KT 15SM OVC024 06/02 A2972 RMK SC8 SLP068

CYYG;2012-10-23 11:00;CYYG 231100Z 29009KT 15SM BKN025 06/03 A2975 RMK SC7 SLP077

CYYG;2012-10-23 12:00;CYYG 231200Z 29007KT 15SM BKN023 07/03 A2977 RMK SC7 SLP083

CYYG;2012-10-23 13:00;CYYG 231300Z 30009KT 15SM BKN022 07/03 A2978 RMK SC7 SLP086

CYYG;2012-10-23 14:00;CYYG 231400Z 30012G21KT 15SM BKN024 07/03 A2979 RMK SC7 SLP090

CYYG;2012-10-23 15:00;CYYG 231500Z 30012G20KT 15SM BKN025 07/02 A2980 RMK SC7 SLP092

CYYG;2012-10-23 16:00;CYYG 231600Z 29013G18KT 15SM BKN029 07/01 A2980 RMK SC7 SLP094

CYYG;2012-10-23 17:00;CYYG 231700Z 30012G19KT 15SM BKN029 07/01 A2980 RMK SC7 SLP092

CYYG;2012-10-23 18:00;CYYG 231800Z 30015G22KT 15SM BKN034 07/01 A2981 RMK SC7 SLP096

CYYG;2012-10-23 19:00;CYYG 231900Z 28010KT 15SM BKN038 BKN110 07/01 A2982 RMK SC5AC2 SH DIST NE-E SLP099

CYYG;2012-10-23 20:00;CYYG 232000Z 30010KT 15SM SCT043 BKN120 07/01 A2982 RMK SC4AC3 SH DIST N-E SLP100

CYYG;2012-10-23 21:00;CYYG 232100Z 31011G18KT 15SM BKN044 BKN130 07/01 A2983 RMK SC5AC2 SH DIST NE-E SLP103

CYYG;2012-10-23 21:53;CYYG 232153Z 29018G24KT 15SM -SHRA BKN044 BKN130 06/02 A2986 RMK SC5AC2 SLP113

CYYG;2012-10-23 22:00;CYYG 232200Z 29013G24KT 15SM -SHRA BKN031 BKN130 06/02 A2987 RMK SC5AC2 SLP115

CYYG;2012-10-23 23:00;CYYG 232300Z 30013G21KT 10SM -SHRA BKN030 OVC055 06/01 A2988 RMK SC6SC2 CU ASOCTD SLP121

CYYG;2012-10-23 23:30;CYYG 232330Z 30012G19KT 15SM FEW033 OVC045 06/01 A2989 RMK SC1SC7 SLP123

CYYG;2012-10-23 23:46;CYYG 232346Z 30011G16KT 15SM -SHRA FEW033 OVC047 06/01 A2990 RMK SC1SC7 SLP125

CYYG;2012-10-24 00:00;CYYG 240000Z 29011G16KT 15SM -SHRA FEW033 OVC047 06/01 A2989 RMK SC1SC7 SLP124

CYYG;2012-10-24 01:00;CYYG 240100Z 31015KT 15SM FEW030 BKN060 06/01 A2991 RMK SC1SC6 SLP129

CYYG;2012-10-24 01:45;CYYG 240145Z 32011G18KT 12SM -SHRA BKN035 OVC055 05/01 A2991 RMK SC6SC2 SLP129

CYYG;2012-10-24 02:00;CYYG 240200Z 29006KT 15SM -SHRA BKN035 OVC050 05/01 A2991 RMK SC5SC3 SLP128

CYYG;2012-10-24 03:00;CYYG 240300Z 29008KT 7SM -SHRA OVC033 05/02 A2991 RMK SC8 SLP130

CYYG;2012-10-24 04:00;CYYG 240400Z 28011G16KT 8SM -SHRA OVC025 04/02 A2992 RMK SC8 SLP135

CYYG;2012-10-24 05:00;CYYG 240500Z 27007KT 15SM -SHRA BKN025 OVC050 04/03 A2993 RMK SC6SC2 SLP136

CYYG;2012-10-24 06:00;CYYG 240600Z 28010G16KT 15SM -SHRA FEW025 BKN052 04/03 A2993 RMK CU2SC5 SLP138

CYYG;2012-10-24 07:00;CYYG 240700Z 32004KT 15SM -SHRA FEW025 BKN050 04/03 A2994 RMK CU2SC5 SLP142

CYYG;2012-10-24 08:00;CYYG 240800Z 28005KT 15SM -SHRA BKN024 04/02 A2995 RMK SC7 SLP144

CYYG;2012-10-24 09:00;CYYG 240900Z 27006KT 12SM -SHRA BKN024 BKN045 04/02 A2997 RMK CU5SC2 SLP150

CYYG;2012-10-24 09:20;CYYG 240920Z 27006KT 15SM FEW024 SCT045 03/02 A2997 RMK CU2SC2 SLP150

CYYG;2012-10-24 10:00;CYYG 241000Z 29009KT 15SM -SHRA SCT024 BKN045 04/02 A2998 RMK CU3SC2 SLP154

CYYG;2012-10-24 11:00;CYYG 241100Z 31004KT 15SM -SHRA SCT024 03/02 A2999 RMK SC4 SLP159

CYYG;2012-10-24 12:00;CYYG 241200Z 29006KT 15SM -SHRA BKN023 04/03 A3001 RMK SC5 SLP164

CYYG;2012-10-24 13:00;CYYG 241300Z 28012G19KT 15SM -SHRA SCT029 05/02 A3001 RMK SC3 SLP163

CYYG;2012-10-24 13:23;CYYG 241323Z 29010G20KT 15SM VCSH FEW017 SCT030 05/02 A3001 RMK CU1SC2 SH NE-E SLP163

CYYG;2012-10-24 14:00;CYYG 241400Z 28013G19KT 15SM SCT018 06/02 A3000 RMK CU3 SH DIST NW-E SLP162

CYYG;2012-10-24 15:00;CYYG 241500Z 30010G18KT 15SM BKN023 06/02 A3000 RMK CU5 SH DIST NW-E SLP161

CYYG;2012-10-24 16:00;CYYG 241600Z 30017G23KT 15SM VCSH FEW025TCU SCT035 07/01 A3000 RMK TCU2SC1 SH NW-E SLP160

CYYG;2012-10-24 16:03;CYYG 241603Z 30019G24KT 15SM -SHRA FEW025TCU SCT035 07/01 A3000 RMK TCU2SC2 SLP161

CYYG;2012-10-24 17:00;CYYG 241700Z CCA 31009G18KT 10SM -SHRA BKN025TCU 04/02 A3002 RMK TCU5 SLP167

CYYG;2012-10-24 17:45;CYYG 241745Z 29012G21KT 15SM FEW015TCU SCT040 05/02 A3001 RMK TCU2SC2 SH DIST NW-E SLP163

CYYG;2012-10-24 18:00;CYYG 241800Z 29010G18KT 15SM FEW015TCU SCT040 05/02 A3000 RMK TCU2SC2 SH DIST NW-E SLP162

CYYG;2012-10-24 19:00;CYYG 241900Z 29007G17KT 15SM FEW015TCU BKN030 05/01 A3002 RMK TCU2SC5 SH DIST NW-E SLP168

CYYG;2012-10-24 20:00;CYYG 242000Z 29007KT 15SM FEW022 BKN034 04/01 A3003 RMK CU2SC5 TCU ASOCTD SH DIST NW-SE SLP171

CYYG;2012-10-24 21:00;CYYG 242100Z 28009KT 15SM BKN032 04/01 A3004 RMK SC7 TCU ASOCTD SH DIST NE-S SLP174

CYYG;2012-10-24 22:00;CYYG 242200Z 30011KT 15SM BKN030 05/M01 A3006 RMK SC7 SLP180

CYYG;2012-10-24 23:00;CYYG 242300Z 30009KT 15SM BKN035 05/M01 A3008 RMK SC7 SLP187

CYYG;2012-10-25 00:00;CYYG 250000Z 29007KT 15SM BKN036 05/M00 A3009 RMK SC7 SLP192

CYYG;2012-10-25 01:00;CYYG 250100Z 34004KT 15SM BKN025 05/00 A3010 RMK SC7 SLP196

CYYG;2012-10-25 01:11;CYYG 250111Z 01005KT 15SM -SHRA OVC021 05/01 A3011 RMK SC8 SLP197

CYYG;2012-10-25 02:00;CYYG 250200Z 32003KT 15SM -SHRA SCT016 OVC030 04/02 A3011 RMK SC3SC5 SLP199

CYYG;2012-10-25 03:00;CYYG 250300Z 34003KT 15SM -SHRA FEW016 OVC030 04/01 A3011 RMK SC2SC6 SLP200

CYYG;2012-10-25 04:00;CYYG 250400Z 31004KT 15SM -SHRA FEW018 OVC034 04/01 A3013 RMK SC2SC6 SLP205

CYYG;2012-10-25 05:00;CYYG 250500Z 33005KT 15SM OVC036 04/M01 A3014 RMK SC8 SLP210

CYYG;2012-10-25 06:00;CYYG 250600Z 32008KT 15SM -SHRA OVC036 04/M01 A3016 RMK SC8 SLP214

CYYG;2012-10-25 07:00;CYYG 250700Z 31005KT 15SM OVC030 04/M00 A3016 RMK SC8 SLP216

CYYG;2012-10-25 08:00;CYYG 250800Z 33007KT 15SM OVC030 04/M00 A3017 RMK SC8 SLP218

CYYG;2012-10-25 09:00;CYYG 250900Z 33007KT 15SM OVC028 04/M00 A3018 RMK SC8 SLP221

CYYG;2012-10-25 10:00;CYYG 251000Z 33009KT 15SM OVC028 04/M01 A3019 RMK SC8 SLP226

CYYG;2012-10-25 10:39;CYYG 251039Z 33009G16KT 12SM -SHRA FEW020 OVC030 04/00 A3020 RMK SC1SC7 SLP229

CYYG;2012-10-25 11:41;CYYG 251141Z 33008KT 15SM VCSH BKN024 04/01 A3023 RMK SC7 SLP240

CYYG;2012-10-25 12:00;CYYG 251200Z 33009KT 15SM BKN028 05/01 A3024 RMK SC7 SHWRS NE-E SLP244

CYYG;2012-10-25 13:00;CYYG 251300Z 33011G17KT 15SM OVC021 05/01 A3026 RMK SC8 SHWRS E SLP248

CYYG;2012-10-25 14:00;CYYG 251400Z 34011G18KT 15SM OVC024 05/01 A3027 RMK SC8 SLP252

CYYG;2012-10-25 15:00;CYYG 251500Z 33010G19KT 15SM OVC024 06/01 A3024 RMK SC8 SLP244

CYYG;2012-10-25 16:00;CYYG 251600Z 33012G17KT 15SM OVC025 06/01 A3023 RMK SC8 SLP238

CYYG;2012-10-25 17:00;CYYG 251700Z 33010G17KT 15SM BKN024 06/01 A3023 RMK SC7 SLP239

CYYG;2012-10-25 18:00;CYYG 251800Z 31012G17KT 15SM BKN022 05/01 A3022 RMK SC7 SLP237

CYYG;2012-10-25 19:00;CYYG 251900Z 31013G20KT 15SM BKN026 06/01 A3022 RMK SC6 SLP237

CYYG;2012-10-25 20:00;CYYG 252000Z 34009G18KT 15SM BKN022 05/01 A3024 RMK SC7 SLP241

CYYG;2012-10-25 21:00;CYYG 252100Z 33008KT 15SM BKN022 05/01 A3024 RMK SC7 SLP241

CYYG;2012-10-25 22:00;CYYG 252200Z 35006KT 15SM BKN025 05/01 A3025 RMK SC7 SLP245

CYYG;2012-10-25 23:00;CYYG 252300Z 33005KT 15SM BKN025 04/01 A3025 RMK SC6 SLP246

CYYG;2012-10-26 00:00;CYYG 260000Z 33004KT 15SM BKN025 03/00 A3025 RMK SC5 SLP246

CYYG;2012-10-26 01:00;CYYG 260100Z 34006KT 15SM BKN023 04/02 A3025 RMK SC5 SLP247

CYYG;2012-10-26 02:00;CYYG 260200Z 34005KT 15SM BKN025 04/01 A3025 RMK SC5 SLP245

CYYG;2012-10-26 03:00;CYYG 260300Z 34004KT 15SM SCT025 04/01 A3024 RMK SC4 SLP241

CYYG;2012-10-26 04:00;CYYG 260400Z 34005KT 15SM SCT025 04/01 A3022 RMK SC3 SLP237

CYYG;2012-10-26 05:00;CYYG 260500Z 35006KT 15SM SCT025 05/02 A3020 RMK SC3 SLP230

CYYG;2012-10-26 06:00;CYYG 260600Z CCA 32006KT 15SM FEW025 04/01 A3021 RMK SC2 SLP232

CYYG;2012-10-26 07:00;CYYG 260700Z 32005KT 15SM FEW025 03/00 A3020 RMK SC1 SLP230

CYYG;2012-10-26 08:00;CYYG 260800Z 32005KT 15SM FEW025 02/01 A3021 RMK SC1 SLP231

CYYG;2012-10-26 09:00;CYYG 260900Z 32006KT 15SM SKC 03/01 A3020 RMK CI TR SLP229

CYYG;2012-10-26 10:00;CYYG 261000Z 33006KT 15SM SKC 04/01 A3021 RMK CI TR SLP232

CYYG;2012-10-26 11:00;CYYG 261100Z 31006KT 15SM FEW030 FEW120 04/02 A3022 RMK SC1AC1 COTRA SLP234

CYYG;2012-10-26 12:00;CYYG 261200Z 33007KT 15SM FEW120 07/03 A3021 RMK AC1 SLP233

CYYG;2012-10-26 13:00;CYYG 261300Z 35011G16KT 15SM FEW025 FEW120 08/04 A3022 RMK SC1AC1 SLP235

CYYG;2012-10-26 14:00;CYYG 261400Z 35011G17KT 15SM FEW025 FEW120 09/03 A3022 RMK CF1AC1 SLP234

CYYG;2012-10-26 15:00;CYYG 261500Z 33010G18KT 15SM FEW120 10/04 A3020 RMK AC1 COTRA SLP230

CYYG;2012-10-26 16:00;CYYG 261600Z 32009G16KT 15SM FEW120 10/03 A3018 RMK AC1 SLP223

CYYG;2012-10-26 17:00;CYYG 261700Z 32010G15KT 15SM FEW120 10/03 A3017 RMK AC2 COTRA SLP220

CYYG;2012-10-26 18:00;CYYG 261800Z 32011G17KT 15SM FEW120 10/03 A3015 RMK AC1 COTRA SLP213

CYYG;2012-10-26 19:00;CYYG 261900Z 33011G16KT 15SM FEW120 10/02 A3015 RMK AC1 SLP212

CYYG;2012-10-26 20:00;CYYG 262000Z 34009KT 15SM FEW120 09/03 A3015 RMK AC1 SLP211

CYYG;2012-10-26 21:00;CYYG 262100Z 35006KT 15SM FEW120 07/03 A3015 RMK AC1 SLP211

CYYG;2012-10-26 22:00;CYYG 262200Z 32004KT 15SM FEW120 05/03 A3014 RMK AC1 SLP210

CYYG;2012-10-26 23:00;CYYG 262300Z 33003KT 15SM FEW120 05/03 A3014 RMK AC1 SLP211

CYYG;2012-10-27 00:00;CYYG 270000Z 33004KT 15SM FEW120 04/03 A3014 RMK AC1 SLP210

CYYG;2012-10-27 01:00;CYYG 270100Z 32005KT 15SM FEW120 04/02 A3015 RMK AC1 SLP211

CYYG;2012-10-27 02:00;CYYG 270200Z 34005KT 15SM FEW120 05/03 A3013 RMK AC1 SLP204

CYYG;2012-10-27 03:00;CYYG 270300Z 34004KT 15SM SKC 03/02 A3013 RMK CI TR SLP204

CYYG;2012-10-27 04:00;CYYG 270400Z 35004KT 15SM SKC 04/02 A3012 RMK CI TR SLP202

CYYG;2012-10-27 05:00;CYYG 270500Z 33004KT 15SM SKC 03/02 A3011 RMK CI TR SLP200

CYYG;2012-10-27 06:00;CYYG 270600Z 35005KT 15SM SKC 04/03 A3011 RMK CI TR SLP197

CYYG;2012-10-27 07:00;CYYG 270700Z 33005KT 15SM SKC 04/03 A3011 RMK CI TR SLP198

CYYG;2012-10-27 08:00;CYYG 270800Z 35004KT 15SM SKC 04/04 A3011 RMK CI TR SLP198

CYYG;2012-10-27 09:00;CYYG 270900Z 34005KT 15SM SKC 04/04 A3011 RMK CI TR SLP199

CYYG;2012-10-27 10:00;CYYG 271000Z 33004KT 15SM SKC 04/04 A3012 RMK CI TR SLP203

CYYG;2012-10-27 11:00;CYYG 271100Z 34006KT 15SM SKC 05/05 A3013 RMK CI TR SLP204

CYYG;2012-10-27 12:00;CYYG 271200Z 36006KT 15SM SKC 07/06 A3013 RMK CI TR SLP206

CYYG;2012-10-27 13:00;CYYG 271300Z 36010G16KT 15SM FEW010 10/07 A3015 RMK CF1 SLP211

CYYG;2012-10-27 14:00;CYYG 271400Z 36011G18KT 15SM FEW010 11/06 A3014 RMK CF1 SLP208

CYYG;2012-10-27 15:00;CYYG 271500Z 01015G20KT 15SM FEW013 11/07 A3013 RMK SC2 SC INVDG FM NE SLP206

CYYG;2012-10-27 16:00;CYYG 271600Z 02016KT 15SM BKN012 11/08 A3012 RMK SC6 SLP202

CYYG;2012-10-27 17:00;CYYG 271700Z 02013G20KT 15SM BKN009 09/08 A3012 RMK SC7 SLP201

CYYG;2012-10-27 17:25;CYYG 271725Z 01011KT 15SM BKN008 09/08 A3011 RMK SC7 SLP200

CYYG;2012-10-27 18:00;CYYG 271800Z 03013KT 15SM OVC008 09/08 A3011 RMK SF8 SLP199

CYYG;2012-10-27 18:24;CYYG 271824Z 01010G17KT 15SM OVC007 09/08 A3011 RMK SF8 SLP197

CYYG;2012-10-27 19:00;CYYG 271900Z 02011KT 15SM OVC007 09/08 A3011 RMK SF8 SLP199

CYYG;2012-10-27 19:21;CYYG 271921Z 02011KT 15SM OVC006 09/08 A3011 RMK SF8 SLP199

CYYG;2012-10-27 20:00;CYYG 272000Z 02014KT 15SM OVC006 09/08 A3011 RMK SF8 SLP200

CYYG;2012-10-27 20:22;CYYG 272022Z 02012KT 12SM OVC005 08/08 A3011 RMK SF8 SLP200

CYYG;2012-10-27 20:48;CYYG 272048Z 01011KT 10SM OVC004 08/08 A3011 RMK SF8 SLP200

CYYG;2012-10-27 21:00;CYYG 272100Z 36009KT 8SM OVC004 08/08 A3013 RMK SF8 SLP204

CYYG;2012-10-27 21:16;CYYG 272116Z 01010KT 5SM BR OVC003 08/08 A3013 RMK SF8 SLP204

CYYG;2012-10-27 21:44;CYYG 272144Z 01011KT 3SM -DZ BR OVC003 08/08 A3014 RMK SF8 SLP209

CYYG;2012-10-27 22:00;CYYG 272200Z 36009KT 3SM -DZ BR OVC003 07/07 A3014 RMK SF8 SLP208

CYYG;2012-10-27 23:00;CYYG 272300Z 01014KT 3SM -DZ BR OVC003 07/07 A3014 RMK ST8 SLP210

CYYG;2012-10-28 00:00;CYYG 280000Z 01014KT 3SM -DZ BR BKN003 07/07 A3014 RMK SF7 SLP208

CYYG;2012-10-28 00:32;CYYG 280032Z 02011G17KT 1SM -DZ BR VV002 07/07 A3014 RMK FG8 SLP209

CYYG;2012-10-28 01:00;CYYG 280100Z 02013KT 3SM -DZ BR OVC003 07/07 A3014 RMK SF8 SLP210

CYYG;2012-10-28 02:00;CYYG 280200Z 03010G17KT 3SM -DZ BR OVC003 08/08 A3014 RMK SF8 SLP208

CYYG;2012-10-28 03:00;CYYG 280300Z 04008KT 2SM -DZ BR OVC002 08/08 A3013 RMK SF8 SLP203

CYYG;2012-10-28 04:00;CYYG 280400Z 03010KT 2SM -DZ BR OVC002 08/08 A3014 RMK SF8 SLP207

CYYG;2012-10-28 05:00;CYYG 280500Z 02008KT 2SM -DZ BR OVC002 08/08 A3014 RMK SF8 SLP207

CYYG;2012-10-28 06:00;CYYG 280600Z 36006KT 3SM -DZ BR OVC002 08/08 A3014 RMK SF8 SLP207

CYYG;2012-10-28 07:00;CYYG 280700Z 03012KT 2SM -DZ BR OVC002 08/08 A3013 RMK SF8 SLP205

CYYG;2012-10-28 08:00;CYYG 280800Z 01007KT 2SM -DZ BR OVC002 09/09 A3013 RMK SF8 SLP204

CYYG;2012-10-28 08:45;CYYG 280845Z 01011KT 3/4SM -DZ BR VV002 08/08 A3012 RMK FG8 R03/4500FT/D SLP203

CYYG;2012-10-28 09:00;CYYG 280900Z 36010G16KT 1SM -DZ BR VV002 08/08 A3012 RMK FG8 R03/5000FT/N SLP203

CYYG;2012-10-28 09:11;CYYG 280911Z 35008G17KT 1/2SM -DZ FG VV002 08/08 A3012 RMK FG8 R03/3000FT/D SLP202

CYYG;2012-10-28 10:00;CYYG 281000Z 01011G19KT 2SM -DZ BR OVC002 07/07 A3012 RMK SF8 SLP202

CYYG;2012-10-28 10:06;CYYG 281006Z 01010G16KT 3/4SM -DZ BR VV002 07/07 A3012 RMK FG8 R03/4500FT/D SLP201

CYYG;2012-10-28 10:25;CYYG 281025Z 36009KT 1/2SM -DZ FG VV002 08/08 A3012 RMK FG8 SLP201

CYYG;2012-10-28 11:00;CYYG 281100Z 01012KT 1/2SM -DZ FG VV002 08/08 A3012 RMK FG8 SLP201

CYYG;2012-10-28 11:25;CYYG 281125Z 01014KT 1SM DU BR OVC002 08/08 A3012 RMK SF8 SLP203

CYYG;2012-10-28 12:00;CYYG 281200Z 03014KT 1 1/2SM -DZ BR OVC003 08/08 A3013 RMK SF8 SLP205

CYYG;2012-10-28 12:36;CYYG 281236Z 02013KT 1SM -DZ BR OVC002 09/09 A3013 RMK SF8 SLP206

CYYG;2012-10-28 12:45;CYYG 281245Z 02011G16KT 3/4SM -DZ BR VV002 09/09 A3014 RMK FG8 SLP207

CYYG;2012-10-28 13:00;CYYG 281300Z 02013KT 1SM -DZ BR OVC003 09/09 A3014 RMK SF8 SLP207

CYYG;2012-10-28 13:14;CYYG 281314Z 03016KT 3SM -DZ BR OVC004 09/09 A3013 RMK SF8 SLP205

CYYG;2012-10-28 14:00;CYYG 281400Z 03016KT 2 1/2SM -DZ BR OVC003 09/09 A3012 RMK SF8 SLP202

CYYG;2012-10-28 15:00;CYYG 281500Z 03015KT 2SM -DZ BR OVC003 10/10 A3011 RMK SF8 SLP197

CYYG;2012-10-28 15:33;CYYG 281533Z 03016KT 2SM BR OVC003 10/10 A3009 RMK SF8 SLP192

CYYG;2012-10-28 16:00;CYYG 281600Z 02014KT 2SM BR OVC003 10/10 A3009 RMK SF8 SLP191

CYYG;2012-10-28 17:00;CYYG 281700Z 02014G19KT 3SM BR OVC003 10/10 A3008 RMK SF8 SLP187

CYYG;2012-10-28 17:13;CYYG 281713Z 03012G18KT 6SM BR OVC004 10/10 A3008 RMK SF8 SLP187

CYYG;2012-10-28 17:39;CYYG 281739Z 02011G17KT 10SM OVC005 10/10 A3008 RMK SF8 SLP187

CYYG;2012-10-28 18:00;CYYG 281800Z 01013KT 10SM OVC006 11/10 A3007 RMK SF8 SLP184

CYYG;2012-10-28 19:00;CYYG 281900Z 36010G17KT 10SM OVC006 11/10 A3006 RMK SF8 SLP182

CYYG;2012-10-28 20:00;CYYG 282000Z 01011G17KT 8SM BKN005 OVC023 10/10 A3008 RMK SF7SC1 SLP186

CYYG;2012-10-28 21:00;CYYG 282100Z 02013KT 6SM BR BKN005 OVC022 10/10 A3008 RMK SF6SC2 SLP187

CYYG;2012-10-28 21:28;CYYG 282128Z 03011KT 6SM BR SCT005 OVC022 10/10 A3007 RMK SF4SC4 SLP185

CYYG;2012-10-28 22:00;CYYG 282200Z 03010G16KT 8SM FEW005 OVC024 11/10 A3008 RMK SF2SC6 SLP186

CYYG;2012-10-28 23:00;CYYG 282300Z 03013KT 10SM FEW005 OVC024 11/10 A3008 RMK SF2SC6 SLP186

CYYG;2012-10-29 00:00;CYYG 290000Z 03010KT 10SM FEW005 OVC022 11/11 A3007 RMK SF2SC6 SLP185

CYYG;2012-10-29 01:00;CYYG 290100Z 03010KT 12SM FEW005 OVC022 11/11 A3007 RMK SF2SC6 SLP183

CYYG;2012-10-29 02:00;CYYG 290200Z 03009KT 12SM FEW004 OVC022 12/11 A3006 RMK SF2SC6 SLP182

CYYG;2012-10-29 03:00;CYYG 290300Z 04010KT 12SM FEW004 OVC021 12/11 A3006 RMK SF2SC6 SLP180

CYYG;2012-10-29 04:00;CYYG 290400Z 04010KT 12SM FEW004 OVC020 12/11 A3006 RMK ST2SC6 SLP181

CYYG;2012-10-29 05:00;CYYG 290500Z 03007KT 12SM FEW004 OVC019 12/11 A3006 RMK SF2SC6 SLP182

CYYG;2012-10-29 06:00;CYYG 290600Z 04007KT 12SM FEW005 OVC015 12/11 A3007 RMK SF2NS6 SLP185

CYYG;2012-10-29 07:00;CYYG 290700Z 06008KT 15SM FEW005 BKN017 12/11 A3007 RMK SF2NS5 SLP183

CYYG;2012-10-29 08:00;CYYG 290800Z 06008KT 15SM FEW005 OVC015 12/11 A3007 RMK SF1SC7 SLP185

CYYG;2012-10-29 09:00;CYYG 290900Z 05009KT 15SM FEW005 OVC015 12/11 A3008 RMK SF1SC7 SLP187

CYYG;2012-10-29 10:00;CYYG 291000Z 04009KT 15SM FEW005 OVC015 12/11 A3008 RMK SF1SC7 SLP188

CYYG;2012-10-29 11:00;CYYG 291100Z 03008KT 15SM OVC015 12/11 A3009 RMK SC8 SLP189

CYYG;2012-10-29 12:00;CYYG 291200Z 06009KT 15SM OVC016 13/11 A3010 RMK SC8 SLP193

CYYG;2012-10-29 13:00;CYYG 291300Z 07014KT 15SM OVC016 13/12 A3009 RMK SC8 SLP190

CYYG;2012-10-29 14:00;CYYG 291400Z 09013G21KT 15SM FEW015 SCT025 15/12 A3009 RMK SC2SC2 SLP190

CYYG;2012-10-29 15:00;CYYG 291500Z 11017G29KT 15SM SCT025 16/12 A3009 RMK SC3 SLP190

CYYG;2012-10-29 16:00;CYYG 291600Z 10015G27KT 15SM FEW025 16/11 A3008 RMK SC2 SLP188

CYYG;2012-10-29 17:00;CYYG 291700Z 10012G24KT 15SM BKN022 16/11 A3009 RMK SC6 SLP188

CYYG;2012-10-29 18:00;CYYG 291800Z 10019G25KT 15SM BKN020 15/11 A3008 RMK SC6 SLP188

CYYG;2012-10-29 19:00;CYYG 291900Z 10015G24KT 15SM OVC017 14/11 A3009 RMK SC8 SLP190

CYYG;2012-10-29 20:00;CYYG 292000Z 10015G22KT 15SM OVC016 13/10 A3009 RMK SC8 SLP192

CYYG;2012-10-29 21:00;CYYG 292100Z 10014G19KT 15SM OVC017 13/10 A3010 RMK SC8 SLP195

CYYG;2012-10-29 22:00;CYYG 292200Z 10012G18KT 15SM OVC016 13/10 A3011 RMK SC8 SLP198

CYYG;2012-10-29 23:00;CYYG 292300Z 10014G20KT 15SM OVC012 12/10 A3011 RMK SC8 SLP199

CYYG;2012-10-30 00:00;CYYG 300000Z 10014G20KT 15SM OVC011 12/11 A3013 RMK SC8 SLP204

CYYG;2012-10-30 01:00;CYYG 300100Z CCA 09012G20KT 15SM OVC011 12/11 A3013 RMK SC8 SLP204

CYYG;2012-10-30 02:00;CYYG 300200Z 10016G24KT 15SM OVC012 12/10 A3013 RMK SC8 SLP205

CYYG;2012-10-30 03:00;CYYG 300300Z 10019G25KT 15SM OVC012 12/11 A3013 RMK SC8 SLP203

CYYG;2012-10-30 04:00;CYYG 300400Z 09019G29KT 12SM OVC010 12/11 A3011 RMK SC8 SLP196

CYYG;2012-10-30 05:00;CYYG 300500Z 11017G26KT 12SM OVC010 13/11 A3011 RMK SC8 SLP198

CYYG;2012-10-30 06:00;CYYG 300600Z 12016G28KT 15SM OVC014 12/11 A3014 RMK SC8 SLP206

CYYG;2012-10-30 07:00;CYYG 300700Z 11014G29KT 15SM OVC014 12/11 A3013 RMK SC8 SLP205

CYYG;2012-10-30 08:00;CYYG 300800Z 11021G28KT 15SM OVC015 12/10 A3012 RMK SC8 SLP200

CYYG;2012-10-30 09:00;CYYG 300900Z 10018G30KT 15SM OVC012 12/11 A3012 RMK SC8 SLP201

CYYG;2012-10-30 10:00;CYYG 301000Z 11018G27KT 15SM OVC014 12/10 A3012 RMK SC8 SLP200

CYYG;2012-10-30 11:00;CYYG 301100Z 11018G26KT 15SM OVC012 12/11 A3014 RMK SC8 SLP207

CYYG;2012-10-30 12:00;CYYG 301200Z 11019G24KT 15SM OVC012 12/11 A3016 RMK SC8 SLP216

CYYG;2012-10-30 13:00;CYYG 301300Z 11021G26KT 15SM OVC013 13/11 A3016 RMK SC8 SLP214

CYYG;2012-10-30 14:00;CYYG 301400Z 11018G26KT 15SM OVC014 13/11 A3016 RMK SC8 SLP216

CYYG;2012-10-30 15:00;CYYG 301500Z CCA /////KT 15SM BKN015 RMK SC7

CYYG;2012-10-30 15:01;CYYG 301501Z 12022G32KT 15SM BKN015 14/11 A3015 RMK SC7 SLP212

CYYG;2012-10-30 16:00;CYYG 301600Z 12017G26KT 15SM OVC015 14/11 A3015 RMK SC8 SLP212

CYYG;2012-10-30 17:00;CYYG 301700Z 12017G24KT 15SM OVC018 14/11 A3015 RMK SC8 SLP211

CYYG;2012-10-30 18:00;CYYG 301800Z 12018G26KT 15SM OVC016 14/11 A3014 RMK SC8 SLP207

CYYG;2012-10-30 19:00;CYYG 301900Z 12015G24KT 15SM OVC016 14/11 A3014 RMK SC8 SLP208

CYYG;2012-10-30 20:00;CYYG 302000Z 12015G23KT 15SM OVC015 13/11 A3013 RMK SC8 SLP205

CYYG;2012-10-30 21:00;CYYG 302100Z 12015G25KT 15SM OVC013 13/11 A3013 RMK SC8 SLP203

CYYG;2012-10-30 22:00;CYYG 302200Z 12014G20KT 15SM OVC012 13/11 A3014 RMK SC8 SLP206

CYYG;2012-10-30 23:00;CYYG 302300Z 11016G23KT 12SM OVC011 12/11 A3013 RMK SC8 SLP203

CYYG;2012-10-31 00:00;CYYG 310000Z 11015G22KT 12SM OVC009 12/11 A3012 RMK SF8 SLP201

CYYG;2012-10-31 01:00;CYYG 310100Z 12014G22KT 12SM OVC011 12/11 A3013 RMK SF8 SLP203

CYYG;2012-10-31 02:00;CYYG 310200Z CCA 11014G21KT 12SM BKN013 OVC030 12/11 A3011 RMK SC6SC2 SLP197

CYYG;2012-10-31 03:00;CYYG 310300Z 11015G24KT 15SM BKN013 12/11 RMK SC7

CYYG;2012-10-31 04:00;CYYG 310400Z 12017G25KT 15SM BKN011 BKN032 12/11 A3006 RMK SC5SC2 SLP182

CYYG;2012-10-31 05:00;CYYG 310500Z 12016G24KT 15SM BKN013 BKN032 12/10 A3004 RMK SF5SC2 SLP173

CYYG;2012-10-31 06:00;CYYG 310600Z 11017G23KT 15SM SCT011 BKN023 BKN032 12/11 A3003 RMK SF3SC2SC2 SLP172

CYYG;2012-10-31 07:00;CYYG 310700Z 12014KT 15SM OVC013 13/11 A3003 RMK SC8 SLP171

CYYG;2012-10-31 08:00;CYYG 310800Z 11017KT 15SM OVC011 13/11 A3001 RMK SC8 SLP162

CYYG;2012-10-31 09:00;CYYG 310900Z 12015G21KT 0SM OVC013 13/11 A2999 RMK SC8 SLP156

CYYG;2012-10-31 10:00;CYYG 311000Z 12014G21KT 15SM BKN014 BKN024 BKN280 12/11 A2997 RMK SC5SC1CI1 SLP150

CYYG;2012-10-31 11:00;CYYG 311100Z 12016G21KT 15SM FEW011 BKN019 12/11 A2997 RMK SC1SC6 SLP151

CYYG;2012-10-31 12:00;CYYG 311200Z 12014G22KT 15SM FEW011 SCT018 BKN045 BKN250 12/11 A2996 RMK SC1SC2SC2CI2 SLP146

CYYG;2012-10-31 13:00;CYYG 311300Z 11014G19KT 15SM OVC016 13/11 A2994 RMK SC8 SLP139

CYYG;2012-10-31 14:00;CYYG 311400Z 13013G24KT 15SM BKN016 BKN230 14/12 A2993 RMK SC6CI1 SLP138

CYYG;2012-10-31 14:25;CYYG 311425Z 12014G19KT 15SM -SHRA BKN014 OVC230 14/12 A2992 RMK SC7CI1 SLP134

CYYG;2012-10-31 15:00;CYYG 311500Z 13014G25KT 15SM SCT013 BKN043 BKN230 15/12 A2991 RMK SC3SC2CI2 SLP129

CYYG;2012-10-31 16:00;CYYG 311600Z 13014G21KT 15SM -SHRA OVC012 14/13 A2987 RMK SC8 SLP116

CYYG;2012-10-31 17:00;CYYG 311700Z 13017G23KT 15SM -SHRA FEW008 BKN049 OVC063 14/13 A2985 RMK SF1SC4SC3 TCU ASOCTD SLP111

CYYG;2012-10-31 17:47;CYYG 311747Z 12013G19KT 15SM -SHRA BKN008 BKN072 14/14 A2985 RMK SF5AC2 SLP108

CYYG;2012-10-31 18:00;CYYG 311800Z 11012KT 10SM -SHRA BKN006 BKN072 14/14 A2984 RMK SF5AC2 SLP106

CYYG;2012-10-31 19:00;CYYG 311900Z 11011G19KT 15SM -SHRA SCT004 OVC088 15/15 A2982 RMK SF3AC5 SLP100 DENSITY ALT 200FT

CYYG;2012-10-31 20:00;CYYG 312000Z 10016KT 10SM -SHRA FEW004 BKN057TCU OVC070 14/14 A2980 RERA RMK SF2TCU4AC2 PRESFR SLP092

CYYG;2012-10-31 21:00;CYYG 312100Z 10014G20KT 15SM -SHRA FEW004 OVC046 13/13 A2978 RMK SF2SC6 SLP086

CYYG;2012-10-31 21:20;CYYG 312120Z 10011G16KT 15SM -SHRA BKN005 OVC033 13/13 A2977 RMK SF5SC3 SLP083

CYYG;2012-10-31 22:00;CYYG 312200Z 10010KT 15SM -SHRA BKN004 OVC020 13/13 A2976 RMK SF5SC3 SLP080

CYYG;2012-10-31 23:00;CYYG 312300Z 10008KT 15SM -SHRA SCT002 BKN005 OVC012 13/13 A2975 RMK SF3SF4SC1 SLP077

CYYG;2012-11-01 00:00;CYYG 010000Z 11012KT 15SM -SHRA BKN005 OVC011 14/14 A2972 RMK SF6SC2 SLP067 DENSITY ALT 200FT

CYYG;2012-11-01 01:00;CYYG 010100Z 11009G17KT 15SM -DZ OVC004 14/14 A2971 RMK SF8 SLP061 DENSITY ALT 300FT

CYYG;2012-11-01 02:00;CYYG 010200Z 11012G17KT 10SM -DZ OVC004 14/14 A2969 RMK SF8 SLP054 DENSITY ALT 300FT

CYYG;2012-11-01 03:00;CYYG 010300Z 12010G15KT 10SM -DZ OVC005 14/14 A2966 RMK SF8 SLP046 DENSITY ALT 400FT

CYYG;2012-11-01 04:00;CYYG 010400Z 11010G15KT 12SM SCT005 OVC016 15/15 A2964 RMK SF4SC4 SLP039 DENSITY ALT 400FT

CYYG;2012-11-01 04:47;CYYG 010447Z 09006KT 8SM -SHRA FEW005 OVC011 14/14 A2963 RMK SF2SC6 SLP035 DENSITY ALT 400FT

CYYG;2012-11-01 05:00;CYYG 010500Z 12005KT 8SM SHRA FEW005 14/14 A2964 RMK SF2 SLP037 DENSITY ALT 400FT

CYYG;2012-11-01 05:09;CYYG 010509Z 13005KT 4SM +SHRA BR FEW002 OVC004 15/15 A2964 RMK SF2SF6 TCU EMBDD SLP037 DENSITY ALT 400FT

CYYG;2012-11-01 06:00;CYYG 010600Z 10005KT 2SM -SHRA BR OVC002 14/14 A2962 RERA RMK FG2SF6 SLP033 DENSITY ALT 400FT

CYYG;2012-11-01 06:36;CYYG 010636Z 12005KT 7SM OVC004 15/15 A2961 RMK SF8 SLP028 DENSITY ALT 500FT

CYYG;2012-11-01 07:00;CYYG 010700Z 13005KT 12SM OVC004 15/15 A2960 RMK SF8 SLP025 DENSITY ALT 500FT

CYYG;2012-11-01 08:00;CYYG 010800Z 16010KT 10SM BKN003 BKN014 OVC045 15/15 A2961 RMK SF5SC1SC2 SLP027 DENSITY ALT 500FT

CYYG;2012-11-01 08:49;CYYG 010849Z 15008KT 10SM BKN001 BKN020 15/15 A2961 RMK SF5SC1 SLP027 DENSITY ALT 400FT

CYYG;2012-11-01 09:00;CYYG 010900Z 15008KT 10SM VCFG BKN001 BKN020 14/14 A2961 RMK SF5SC1 VIS S 3 SLP028 DENSITY ALT 400FT

CYYG;2012-11-01 09:29;CYYG 010929Z 16006KT 10SM SCT001 BKN024 BKN240 14/14 A2961 RMK SF3SC2CI1 SLP028 DENSITY ALT 300FT

CYYG;2012-11-01 10:00;CYYG 011000Z 17007KT 12SM FEW002 BKN022 BKN160 14/14 A2961 RMK SF2SC4AC1 VIS LWR S-SW SLP029 DENSITY ALT 300FT

CYYG;2012-11-01 11:00;CYYG 011100Z 17008KT 15SM FEW019 FEW160 13/13 A2962 RMK SC1AC1 VIS LWR E SLP031 DENSITY ALT 300FT

CYYG;2012-11-01 12:00;CYYG 011200Z 18007KT 15SM FEW019 FEW160 14/14 A2962 RMK SC1AC1 VIS N-E 2 BR SLP033 DENSITY ALT 400FT

CYYG;2012-11-01 12:31;CYYG 011231Z 19008KT 15SM FEW005 FEW019 SCT160 14/14 A2963 RMK SF1SC1AC1 SLP034 DENSITY ALT 400FT

CYYG;2012-11-01 13:00;CYYG 011300Z 20008KT 15SM FEW005 FEW019 SCT160 15/14 A2963 RMK SF1SC1AC1 SLP036 DENSITY ALT 400FT

CYYG;2012-11-01 14:00;CYYG 011400Z 18009KT 15SM FEW007 SCT160 SCT250 15/14 A2964 RMK CU2AC1CI1 SLP038 DENSITY ALT 500FT

CYYG;2012-11-01 15:00;CYYG 011500Z 18006KT 15SM FEW008 SCT160 SCT250 16/14 A2964 RMK CU2AC1CI1 SLP039 DENSITY ALT 600FT

CYYG;2012-11-01 16:00;CYYG 011600Z 19007KT 15SM FEW009 FEW160 SCT250 16/13 A2963 RMK CF1AC1CI1 SLP034 DENSITY ALT 600FT

CYYG;2012-11-01 17:00;CYYG 011700Z 15007KT 15SM FEW045 BKN300 17/13 A2961 RMK SC2CI3 CONTRAILS SLP029 DENSITY ALT 700FT

CYYG;2012-11-01 18:00;CYYG 011800Z 16006KT 15SM FEW045 SCT160 BKN300 16/12 A2959 RMK SC2AC2CI2 SLP022 DENSITY ALT 700FT

CYYG;2012-11-01 19:00;CYYG 011900Z 17004KT 15SM SCT056 BKN068 BKN300 16/11 A2959 RMK SC4AC2CI1 SLP020 DENSITY ALT 700FT

CYYG;2012-11-01 19:07;CYYG 011907Z 16004KT 15SM -RA SCT056 BKN068 BKN300 16/11 A2958 RMK SC4AC2CI1 VIS LWR SE-SW SLP019 DENSITY ALT 700FT

CYYG;2012-11-01 20:00;CYYG 012000Z 20002KT 10SM -RA FEW056 OVC075 15/12 A2957 RMK SC2AC6 SLP016 DENSITY ALT 500FT

CYYG;2012-11-01 21:00;CYYG 012100Z 00000KT 10SM -RA OVC081 13/13 A2956 RMK AC8 SLP012 DENSITY ALT 400FT

CYYG;2012-11-01 22:00;CYYG 012200Z 07006KT 10SM -RA FEW015 SCT028 OVC049 13/13 A2954 RMK SC2SC2SC4 SLP006 DENSITY ALT 400FT

CYYG;2012-11-01 23:00;CYYG 012300Z 05004KT 15SM -RA FEW010 FEW030 OVC090 13/12 A2954 RMK SC1SC1AC6 SLP003 DENSITY ALT 300FT

CYYG;2012-11-01 23:30;CYYG 012330Z 05006KT 15SM FEW007 FEW030 BKN085 13/12 A2952 RMK SF1SC1AC5 SLP999 DENSITY ALT 300FT

CYYG;2012-11-02 00:00;CYYG 020000Z 04005KT 15SM FEW007 FEW018 BKN140 12/12 A2953 RMK SF1SC1AC4 SLP001 DENSITY ALT 200FT

CYYG;2012-11-02 00:32;CYYG 020032Z 07004KT 15SM BKN007 BKN018 OVC055 12/12 A2952 RMK SF5SC2SC1 SLP998 DENSITY ALT 200FT

CYYG;2012-11-02 01:00;CYYG 020100Z 08004KT 15SM SCT007 OVC012 12/12 A2952 RMK SF4SC4 SLP996 DENSITY ALT 300FT

CYYG;2012-11-02 01:34;CYYG 020134Z 07003KT 15SM OVC007 12/12 A2951 RMK ST8 SLP993 DENSITY ALT 300FT

CYYG;2012-11-02 02:00;CYYG 020200Z 08002KT 15SM OVC007 12/12 A2950 RMK ST8 SLP990 DENSITY ALT 300FT

CYYG;2012-11-02 02:54;CYYG 020254Z 14003KT 4SM BR OVC003 13/13 A2949 RMK ST8 SLP987 DENSITY ALT 400FT

CYYG;2012-11-02 03:00;CYYG 020300Z 12003KT 2SM BR OVC002 13/13 A2948 RMK ST8 SLP984 DENSITY ALT 400FT

CYYG;2012-11-02 03:30;CYYG 020330Z 16005KT 1/2SM FG VV002 13/13 A2948 RMK FG8 SLP984 DENSITY ALT 400FT

CYYG;2012-11-02 04:00;CYYG 020400Z 14005KT 3/8SM FG VV002 13/13 A2947 RMK FG8 RVR RWY 03 2000FT SLP980 DENSITY ALT 400FT

CYYG;2012-11-02 05:00;CYYG 020500Z 15005KT 1SM BR OVC002 12/12 A2948 RMK ST8 SLP982 DENSITY ALT 300FT

CYYG;2012-11-02 05:06;CYYG 020506Z 15006KT 1SM -DZ BR OVC002 12/12 A2948 RMK ST8 SLP983 DENSITY ALT 300FT

CYYG;2012-11-02 05:30;CYYG 020530Z 18006KT 3SM BR BKN002 OVC018 12/12 A2948 RMK SF5SC3 SLP983 DENSITY ALT 300FT

CYYG;2012-11-02 05:49;CYYG 020549Z 19007KT 5SM BR SCT002 OVC020 12/12 A2948 RMK SF3SC5 SLP983 DENSITY ALT 300FT

CYYG;2012-11-02 06:00;CYYG 020600Z 20007KT 5SM BR FEW002 OVC022 12/12 A2948 RMK SF2SC6 SLP983 DENSITY ALT 300FT

CYYG;2012-11-02 07:00;CYYG 020700Z 22006KT 15SM FEW022 BKN075 12/12 A2947 RMK SC2AC5 SLP981 DENSITY ALT 400FT

CYYG;2012-11-02 07:22;CYYG 020722Z 21006KT 15SM BKN008 OVC075 13/12 A2948 RMK SF6AC2 SLP982 DENSITY ALT 400FT

CYYG;2012-11-02 07:40;CYYG 020740Z 22006KT 10SM OVC005 13/12 A2948 RMK SF8 SLP983 DENSITY ALT 400FT

CYYG;2012-11-02 08:00;CYYG 020800Z 24009KT 15SM SCT007 OVC015 12/11 A2948 RMK SF3SC5 SLP985 DENSITY ALT 300FT

CYYG;2012-11-02 09:00;CYYG 020900Z 23009KT 15SM FEW015 BKN039 11/09 A2949 RMK SC2SC5 SLP987 DENSITY ALT 200FT

CYYG;2012-11-02 10:00;CYYG 021000Z 22008KT 15SM FEW015 SCT039 10/09 A2949 RMK SC1SC2 SLP987

CYYG;2012-11-02 11:00;CYYG 021100Z 22008KT 15SM FEW019 SCT300 09/08 A2950 RMK SC1CI3 SLP991

CYYG;2012-11-02 12:00;CYYG 021200Z 23007KT 15SM FEW019 BKN300 10/08 A2952 RMK CU1CI5 SLP998

CYYG;2012-11-02 13:00;CYYG 021300Z 22010KT 15SM FEW020 BKN230 11/08 A2953 RMK CU1CI5 SLP001

CYYG;2012-11-02 14:00;CYYG 021400Z 21010G15KT 15SM FEW019 BKN230 11/08 A2953 RMK CU1CI5 SLP000 DENSITY ALT 200FT

CYYG;2012-11-02 15:00;CYYG 021500Z 21011G16KT 15SM FEW019 BKN280 12/08 A2953 RMK CU2CI4 SLP001 DENSITY ALT 200FT

CYYG;2012-11-02 16:00;CYYG 021600Z 19014KT 15SM FEW017 SCT120 BKN280 13/08 A2952 RMK CU2AC2CI2 SLP997 DENSITY ALT 300FT

CYYG;2012-11-02 17:00;CYYG 021700Z 21012KT 15SM SCT020 BKN120 BKN280 12/08 A2952 RMK CU4AC2CI1 SLP996 DENSITY ALT 200FT

CYYG;2012-11-02 18:00;CYYG 021800Z 20011G17KT 15SM FEW022 BKN120 BKN280 13/08 A2951 RMK CU2AC4CI1 SLP995 DENSITY ALT 300FT

CYYG;2012-11-02 19:00;CYYG 021900Z 18009KT 15SM FEW022 BKN110 BKN280 12/09 A2952 RMK SC1AC5CI1 SLP998 DENSITY ALT 200FT

CYYG;2012-11-02 20:00;CYYG 022000Z 20006KT 15SM BKN029 BKN069 BKN120 12/08 A2952 RMK SC5AC1AC1 SH DIST SW-W SLP999 DENSITY ALT 300FT

CYYG;2012-11-02 20:41;CYYG 022041Z 18005KT 15SM -SHRA BKN028 BKN039 12/09 A2953 RMK SC5SC2 VIS LWR SW-W SLP001 DENSITY ALT 200FT

CYYG;2012-11-02 21:00;CYYG 022100Z 21004KT 15SM -SHRA BKN025 BKN035 12/09 A2953 RMK SC5SC2 VIS LWR SW-W SLP002 DENSITY ALT 200FT

CYYG;2012-11-02 22:00;CYYG 022200Z 17002KT 15SM -SHRA FEW025 OVC050 10/09 A2954 RMK SC2SC6 SLP004

CYYG;2012-11-02 23:00;CYYG 022300Z 00000KT 10SM -SHRA FEW030 OVC048 10/10 A2954 RMK SC2SC6 SLP006

CYYG;2012-11-03 00:00;CYYG 030000Z 00000KT 12SM -SHRA FEW021 BKN049 10/10 A2954 RMK SC2SC5 SLP003

CYYG;2012-11-03 00:38;CYYG 030038Z 12003KT 12SM BKN020 OVC055 10/10 A2954 RMK SC6SC2 SLP005

CYYG;2012-11-03 01:00;CYYG 030100Z 11004KT 12SM FEW020 OVC050 10/10 A2954 RMK SC2SC6 SLP003

CYYG;2012-11-03 01:04;CYYG 030104Z 11004KT 12SM -SHRA FEW020 OVC050 10/10 A2954 RMK SC2SC6 SLP003

CYYG;2012-11-03 01:38;CYYG 030138Z 14002KT 12SM BKN014 BKN055 10/10 A2953 RMK SC5SC2 SLP001

CYYG;2012-11-03 02:00;CYYG 030200Z 13004KT 10SM SCT010 OVC014 10/10 A2953 RMK SC4SC4 SLP001

CYYG;2012-11-03 02:16;CYYG 030216Z 15002KT 12SM FEW012 BKN072 10/10 A2953 RMK SC2AC5 SLP000

CYYG;2012-11-03 03:00;CYYG 030300Z 17004KT 12SM FEW007 BKN065 10/10 A2952 RMK SF1SC6 SLP998

CYYG;2012-11-03 04:00;CYYG 030400Z 25003KT 15SM MIFG FEW007 BKN065 09/09 A2952 RMK SF1SC6 SLP997

CYYG;2012-11-03 04:34;CYYG 030434Z 15002KT 10SM MIFG BKN007 OVC065 09/09 A2952 RMK SF5SC3 SLP998

CYYG;2012-11-03 05:00;CYYG 030500Z 00000KT 1SM BR BKN008 OVC065 09/09 A2951 RMK SF5SC3 FG 20 FT THK TOWER VIS 12 SLP995

CYYG;2012-11-03 06:00;CYYG 030600Z 00000KT 7SM PRFG FEW008 OVC064 09/09 A2952 RMK SF2SC6 SLP998

CYYG;2012-11-03 06:31;CYYG 030631Z 00000KT 2 1/2SM BR BKN003 OVC060 09/09 A2952 RMK SF6SC2 SLP997

CYYG;2012-11-03 06:45;CYYG 030645Z 00000KT 1SM BR OVC003 09/09 A2952 RMK SF8 SLP997

CYYG;2012-11-03 07:00;CYYG 030700Z 29002KT 1SM BR SCT003 BKN060 09/09 A2952 RMK SF3SC4 SLP996

CYYG;2012-11-03 08:00;CYYG 030800Z 33003KT 1SM BR FEW002 BKN055 09/09 A2951 RMK SF2SC5 SLP993

CYYG;2012-11-03 08:21;CYYG 030821Z 33003KT 5SM BR FEW002 OVC056 09/09 A2951 RMK SF1SC7 SLP993

CYYG;2012-11-03 09:00;CYYG 030900Z 34003KT 3SM BR FEW002 OVC056 09/09 A2951 RMK SF1SC7 SLP994

CYYG;2012-11-03 10:00;CYYG 031000Z 36003KT 3SM BR FEW002 OVC056 09/09 A2950 RMK SF1SC7 SLP991

CYYG;2012-11-03 11:00;CYYG 031100Z 35004KT 8SM FEW002 OVC056 09/09 A2950 RMK SF2SC6 SLP990

CYYG;2012-11-03 12:00;CYYG 031200Z 02002KT 10SM FEW002 OVC053 10/10 A2950 RMK SF2SC6 SLP990

CYYG;2012-11-03 13:00;CYYG 031300Z 35003KT 30SM FEW003 OVC052 10/10 A2950 RMK SF2SC6 SLP991

CYYG;2012-11-03 14:00;CYYG 031400Z 34004KT 15SM BKN009 OVC053 11/11 A2950 RMK SF5SC3 SLP992

CYYG;2012-11-03 14:41;CYYG 031441Z 36006KT 15SM SCT012 OVC052 11/11 A2949 RMK SF4SC4 SLP987 DENSITY ALT 200FT

CYYG;2012-11-03 15:00;CYYG 031500Z 35007KT 15SM BKN008 OVC052 11/10 A2949 RMK ST5SC3 SLP986 DENSITY ALT 200FT

CYYG;2012-11-03 15:22;CYYG 031522Z 02009KT 15SM BKN010 BKN052 12/11 A2948 RMK SF6NS1 SLP983 DENSITY ALT 300FT

CYYG;2012-11-03 16:00;CYYG 031600Z 35008KT 15SM BKN019 BKN050 11/10 A2947 RMK SC5SC2 SLP980 DENSITY ALT 200FT

CYYG;2012-11-03 17:00;CYYG 031700Z 34007KT 15SM BKN015 BKN050 12/10 A2946 RMK SC5SC2 SLP976 DENSITY ALT 300FT

CYYG;2012-11-03 18:00;CYYG 031800Z 36009KT 15SM SCT016 OVC029 12/09 A2945 RMK SC3SC5 SLP974 DENSITY ALT 300FT

CYYG;2012-11-03 19:00;CYYG 031900Z CCA 34011KT 15SM SCT018 BKN034 11/09 A2945 RMK NS3SC4 SLP975 DENSITY ALT 200FT

CYYG;2012-11-03 20:00;CYYG 032000Z 35009G16KT 15SM SCT022 OVC044 10/09 A2946 RMK SC3SC5 SLP977

CYYG;2012-11-03 21:00;CYYG 032100Z 35009G16KT 15SM BKN016 OVC040 10/08 A2947 RMK SC5NS3 SLP980

CYYG;2012-11-03 21:48;CYYG 032148Z 35009KT 15SM BKN011 OVC022 10/08 A2947 RMK SC7SC1 SLP981

CYYG;2012-11-03 22:00;CYYG 032200Z 35008G16KT 15SM OVC013 10/08 A2947 RMK SC8 SLP982

CYYG;2012-11-03 23:00;CYYG 032300Z 35007KT 15SM OVC010 10/08 A2947 RMK SC8 SLP980

CYYG;2012-11-04 00:00;CYYG 040000Z 33007KT 15SM BKN010 OVC026 09/08 A2947 RMK SC5SC3 SLP979

CYYG;2012-11-04 01:00;CYYG 040100Z 33009KT 15SM SCT010 BKN026 OVC056 09/08 A2947 RMK SC3SC2SC3 SLP981

CYYG;2012-11-04 02:00;CYYG 040200Z 32008KT 15SM FEW010 SCT024 OVC058 09/08 A2947 RMK SC1SC2SC5 SLP982

CYYG;2012-11-04 03:00;CYYG 040300Z 32008KT 15SM FEW024 BKN055 09/07 A2946 RMK SC2SC5 SLP978

CYYG;2012-11-04 04:00;CYYG 040400Z 33007KT 15SM SCT055 BKN071 09/06 A2947 RMK SC4AC3 SLP979

CYYG;2012-11-04 05:00;CYYG 040500Z 30006KT 15SM FEW055 BKN070 08/07 A2947 RMK SC2AC5 SLP981

CYYG;2012-11-04 07:00;CYYG 040600Z 29007KT 15SM FEW055 BKN070 08/07 A2948 RMK SC2CC5 SLP984

CYYG;2012-11-04 08:00;CYYG 040800Z 28008KT 15SM SCT054 OVC069 08/07 A2949 RMK SC3AC5 SLP989

CYYG;2012-11-04 09:00;CYYG 040900Z 27007KT 15SM SCT050 OVC068 08/07 A2951 RMK SC3AC5 SLP995

CYYG;2012-11-04 10:00;CYYG 041000Z 27006KT 15SM BKN060 08/07 A2952 RMK SC7 SLP999

CYYG;2012-11-04 11:00;CYYG 041100Z 28004KT 15SM FEW018 BKN064 08/07 A2953 RMK SC2SC5 SLP003

CYYG;2012-11-04 11:29;CYYG 041129Z 26006KT 15SM BKN015 OVC062 08/07 A2954 RMK SC5SC3 SLP007

CYYG;2012-11-04 12:00;CYYG 041200Z 26006KT 15SM SCT015 OVC055 08/07 A2956 RMK SC4SC4 SLP010

CYYG;2012-11-04 13:00;CYYG 041300Z 26008KT 15SM BKN014 OVC055 09/07 A2956 RMK SC5SC3 SLP012

CYYG;2012-11-04 13:35;CYYG 041335Z 26007KT 15SM SCT018 BKN035 09/07 A2957 RMK SC4SC3 SLP013

CYYG;2012-11-04 14:00;CYYG 041400Z 26006KT 15SM BKN023 BKN035 09/07 A2957 RMK SC5NS2 SLP013

CYYG;2012-11-04 15:00;CYYG 041500Z 25008KT 15SM BKN020 BKN035 09/07 A2957 RMK SC5SC2 SLP014

CYYG;2012-11-04 16:00;CYYG 041600Z 27007KT 15SM VCSH BKN017 BKN035 10/07 A2957 RMK SC6SC1 SLP014

CYYG;2012-11-04 16:08;CYYG 041608Z 28009KT 12SM -SHRA BKN017 BKN030 09/07 A2957 RMK SC6NS1 SLP015

CYYG;2012-11-04 17:00;CYYG 041700Z 27007KT 15SM -SHRA BKN016 OVC030 08/08 A2958 RMK SC6SC2 SLP018

CYYG;2012-11-04 18:00;CYYG 041800Z 26011KT 15SM -SHRA BKN010 OVC024 08/07 A2959 RMK SC7SC1 SLP021

CYYG;2012-11-04 18:14;CYYG 041814Z 28010G16KT 15SM OVC010 08/06 A2959 RMK SC8 SLP022

CYYG;2012-11-04 19:00;CYYG 041900Z 28006KT 15SM OVC015 08/06 A2961 RMK SC8 SLP027

CYYG;2012-11-04 20:00;CYYG 042000Z 29007KT 15SM BKN016 OVC035 07/06 A2962 RMK SC5SC3 SLP033

CYYG;2012-11-04 21:00;CYYG 042100Z 27009KT 15SM BKN015 OVC035 07/05 A2965 RMK SC5SC3 SLP041

CYYG;2012-11-04 21:38;CYYG 042138Z 28006KT 15SM BKN011 OVC035 07/06 A2965 RMK SC6SC2 SLP043

CYYG;2012-11-04 22:00;CYYG 042200Z 27007KT 15SM SCT011 OVC035 07/06 A2966 RMK SC4SC4 SLP046

CYYG;2012-11-04 23:00;CYYG 042300Z 28007KT 15SM SCT008 OVC035 07/06 A2967 RMK SF4SC4 SLP049

CYYG;2012-11-05 00:00;CYYG 050000Z 28007KT 15SM SCT008 OVC021 07/06 A2968 RMK SF4SC4 SLP052

CYYG;2012-11-05 00:18;CYYG 050018Z 28005KT 15SM -SHRA SCT008 OVC023 07/06 A2969 RMK SF4SC4 SLP055

CYYG;2012-11-05 01:00;CYYG 050100Z 29007KT 15SM -SHRA SCT009 OVC020 06/06 A2970 RMK SF4SC4 SLP058

CYYG;2012-11-05 02:00;CYYG 050200Z 28008KT 15SM -SHRA OVC009 06/05 A2970 RMK SF8 SLP061

CYYG;2012-11-05 03:00;CYYG 050300Z 28011G16KT 15SM -SHRA OVC008 05/05 A2971 RMK SF8 SLP063

CYYG;2012-11-05 04:00;CYYG 050400Z 29009KT 12SM -SHRA BKN006 OVC018 05/05 A2972 RMK SF5SC3 SLP067

CYYG;2012-11-05 05:00;CYYG 050500Z 28008KT 12SM BKN006 OVC018 05/05 A2973 RMK SF5SC3 SLP070

CYYG;2012-11-05 06:00;CYYG 050600Z 27009KT 12SM -SHRA OVC007 04/04 A2975 RMK SF8 SLP075

CYYG;2012-11-05 07:00;CYYG 050700Z 27010G15KT 10SM -SHRA OVC007 04/04 A2976 RMK SF8 SLP080

CYYG;2012-11-05 08:00;CYYG 050800Z 28009G15KT 15SM -SHRA BKN007 OVC030 04/03 A2977 RMK SF5SC3 SLP084

CYYG;2012-11-05 09:00;CYYG 050900Z 28009KT 15SM -SHRA BKN007 OVC035 04/03 A2980 RMK SF7SC1 SLP092

CYYG;2012-11-05 10:00;CYYG 051000Z 28009KT 15SM SCT007 OVC033 03/02 A2981 RMK SF4SC4 SLP096

CYYG;2012-11-05 11:00;CYYG 051100Z 28006KT 15SM FEW007 OVC029 03/02 A2983 RMK SF2SC6 SLP103

CYYG;2012-11-05 12:00;CYYG 051200Z 30009KT 10SM VCSH SCT007 BKN042 03/02 A2986 RMK SF4SC3 VIS N-NE 3 SLP112

CYYG;2012-11-05 12:30;CYYG 051230Z 29008KT 12SM VCSH FEW007 BKN012 BKN043 03/02 A2987 RMK SF2SC3SC2 VIS NE 4 SLP116

CYYG;2012-11-05 13:00;CYYG 051300Z 30009KT 15SM VCSH FEW007 BKN012 BKN042 03/02 A2987 RMK SF2SC3SC2 SLP117

CYYG;2012-11-05 14:00;CYYG 051400Z 30010G15KT 15SM VCSH BKN012 BKN048 04/02 A2988 RMK SC5SC2 SLP120

CYYG;2012-11-05 15:00;CYYG 051500Z 30007KT 15SM BKN018 BKN048 04/02 A2989 RMK SC6SC1 CU ASCOTD SLP124

CYYG;2012-11-05 16:00;CYYG 051600Z 28008KT 15SM BKN024 05/00 A2990 RMK SC7 SLP126

CYYG;2012-11-05 17:00;CYYG 051700Z 32007KT 15SM BKN028 04/00 A2990 RMK SC7 SLP128

CYYG;2012-11-05 18:00;CYYG 051800Z 28005KT 15SM SCT028 BKN036 04/M01 A2991 RMK SC3SC4 SLP129

CYYG;2012-11-05 19:00;CYYG 051900Z 31007KT 15SM BKN024 BKN036 03/M01 A2991 RMK SC5SC2 SLP132

CYYG;2012-11-05 20:00;CYYG 052000Z 30004KT 15SM SCT021 BKN028 OVC039 03/M01 A2993 RMK SC3SC3SC2 SHWRS SW-W SLP136

CYYG;2012-11-05 20:42;CYYG 052042Z 32004KT 15SM -SHSN SCT023 OVC034 03/M01 A2993 RMK SC3SC5 PCPN VRY LGT SLP137

CYYG;2012-11-05 21:00;CYYG 052100Z 33004KT 15SM VCSH FEW023 OVC035 02/M01 A2993 RMK SC2SC6 SHWRS SE-SW SLP138

CYYG;2012-11-05 21:28;CYYG 052128Z 34004KT 15SM -SHSN FEW023 OVC040 02/M01 A2993 RMK SC2SC6 VIS LWR SE-SW SLP139

CYYG;2012-11-05 22:00;CYYG 052200Z 28003KT 15SM -SHSN SCT023 OVC032 02/M01 A2995 RMK SC4SC4 PRESRR SLP145

CYYG;2012-11-05 22:52;CYYG 052252Z 01003KT 15SM FEW023 OVC045 02/M01 A2994 RMK SC2SC6 SLP142

CYYG;2012-11-05 23:00;CYYG 052300Z 36002KT 15SM FEW023 OVC045 02/M01 A2994 RMK SC2SC6 SLP141

CYYG;2012-11-06 00:00;CYYG 060000Z 30002KT 15SM FEW023 BKN042 BKN240 01/M02 A2993 RMK SC1SC5CI1 SLP139

CYYG;2012-11-06 01:00;CYYG 060100Z 30005KT 15SM BKN026 OVC240 02/M02 A2994 RMK SC7CI1 SLP140

CYYG;2012-11-06 02:00;CYYG 060200Z CCA 30005KT 15SM OVC035 02/M02 A2993 RMK SC8 SLP137

CYYG;2012-11-06 03:00;CYYG 060300Z 30006KT 15SM BKN038 OVC078 01/M01 A2992 RMK SC6AC2 SLP135

CYYG;2012-11-06 04:00;CYYG 060400Z 31006KT 15SM BKN033 OVC083 01/M02 A2991 RMK SC6AC2 SLP130

CYYG;2012-11-06 05:00;CYYG 060500Z 31003KT 15SM BKN033 OVC064 01/M02 A2990 RMK SC6SC2 SLP127

CYYG;2012-11-06 06:00;CYYG 060600Z 29005KT 15SM SCT033 OVC065 01/M02 A2990 RMK SC4SC4 SLP128

CYYG;2012-11-06 07:00;CYYG 060700Z 31007KT 15SM FEW033 OVC075 01/M02 A2990 RMK SC1CC7 SLP127

CYYG;2012-11-06 08:00;CYYG 060800Z 30009G17KT 15SM SCT040 OVC078 00/M02 A2990 RMK SC4AC4 SLP128

CYYG;2012-11-06 09:00;CYYG 060900Z 30011KT 15SM BKN034 OVC060 01/M04 A2991 RMK SC6SC2 SLP130

CYYG;2012-11-06 10:00;CYYG 061000Z 29010G16KT 15SM SCT035 OVC050 M00/M04 A2992 RMK SC3SC5 SLP133

CYYG;2012-11-06 11:00;CYYG 061100Z 28008KT 15SM FEW035 SCT050 M01/M06 A2994 RMK SC2SC2 SLP141

CYYG;2012-11-06 11:44;CYYG 061144Z 29009G18KT 15SM FEW025 BKN043 00/M06 A2997 RMK SC1SC5 SLP152

CYYG;2012-11-06 12:00;CYYG 061200Z 30008KT 15SM FEW025 BKN043 00/M07 A2997 RMK SC2SC5 SLP153

CYYG;2012-11-06 13:00;CYYG 061300Z 29009G16KT 15SM FEW025 SCT043 00/M08 A3000 RMK SC2SC2 SLP161

CYYG;2012-11-06 14:00;CYYG 061400Z 27012G22KT 15SM SCT030 01/M08 A3001 RMK SC3 SLP164

CYYG;2012-11-06 15:00;CYYG 061500Z 27016G23KT 15SM FEW045 02/M10 A3002 RMK SC2 SLP170

CYYG;2012-11-06 16:00;CYYG 061600Z 26014G20KT 15SM FEW045 01/M09 A3003 RMK CU2 SLP174

CYYG;2012-11-06 17:00;CYYG 061700Z 28015G21KT 15SM SCT048 02/M09 A3005 RMK SC3 SLP179

CYYG;2012-11-06 18:00;CYYG 061800Z 26014G23KT 15SM SCT050 02/M09 A3006 RMK SC4 SLP183

CYYG;2012-11-06 19:00;CYYG 061900Z 24010G19KT 15SM BKN053 01/M09 A3008 RMK SC6 SLP188

CYYG;2012-11-06 20:00;CYYG 062000Z 27009G16KT 15SM BKN049 01/M08 A3009 RMK SC5 SLP192

CYYG;2012-11-06 21:00;CYYG 062100Z 25009G16KT 15SM BKN050 01/M08 A3011 RMK SC5 SLP200

CYYG;2012-11-06 22:00;CYYG 062200Z 25008G15KT 15SM BKN053 01/M08 A3014 RMK SC5 SLP209

CYYG;2012-11-06 23:00;CYYG 062300Z 26009KT 15SM BKN056 01/M08 A3016 RMK SC5 SLP215

CYYG;2012-11-06 23:28;CYYG 062328Z 25011G17KT 15SM BKN045 01/M09 A3017 RMK SC5 SLP218

CYYG;2012-11-07 00:00;CYYG 070000Z 31004KT 15SM BKN047 M00/M08 A3018 RMK SC5 SLP223

CYYG;2012-11-07 01:00;CYYG 070100Z 27006KT 15SM FEW047 M01/M08 A3020 RMK SC2 SLP229

CYYG;2012-11-07 02:00;CYYG 070200Z 27006KT 15SM FEW047 M01/M09 A3021 RMK SC2 SLP234

CYYG;2012-11-07 03:00;CYYG 070300Z 26005KT 15SM SKC M02/M09 A3022 RMK CI TR SLP238

CYYG;2012-11-07 04:00;CYYG 070400Z 26005KT 15SM SKC M03/M09 A3023 RMK CI TR SLP240

CYYG;2012-11-07 05:00;CYYG 070500Z 26005KT 15SM SKC M03/M09 A3023 RMK CI TR SLP241

CYYG;2012-11-07 06:00;CYYG 070600Z 26004KT 15SM SKC M03/M09 A3023 RMK CI TR SLP240

CYYG;2012-11-07 07:00;CYYG 070700Z 27005KT 15SM SKC M03/M09 A3023 RMK CI TR SLP240

CYYG;2012-11-07 08:00;CYYG 070800Z 28004KT 15SM SKC M03/M09 A3024 RMK CI TR SLP244

CYYG;2012-11-07 09:00;CYYG 070900Z 22003KT 15SM SKC M03/M08 A3026 RMK CI TR SLP251

CYYG;2012-11-07 10:00;CYYG 071000Z 24002KT 15SM SKC M06/M09 A3026 RMK CI TR SLP250

CYYG;2012-11-07 11:00;CYYG 071100Z 27005KT 15SM FEW025 FEW250 M04/M08 A3028 RMK SC1CI1 FROIN SLP256

CYYG;2012-11-07 12:00;CYYG 071200Z 32004KT 15SM FEW025 FEW250 M04/M07 A3029 RMK SC1CI1 SLP262

CYYG;2012-11-07 13:00;CYYG 071300Z 32007KT 15SM FEW025 SCT250 M02/M06 A3030 RMK SC1CI2 SLP263

CYYG;2012-11-07 14:00;CYYG 071400Z 31006KT 15SM FEW030 BKN250 00/M05 A3029 RMK SC1CI6 SLP262

CYYG;2012-11-07 15:00;CYYG 071500Z 32002KT 15SM FEW022 BKN250 01/M04 A3030 RMK SC2CI5 SLP264

CYYG;2012-11-07 16:00;CYYG 071600Z 02009KT 15SM BKN024 OVC250 03/M02 A3027 RMK SC5CS3 PRESFR SLP254

CYYG;2012-11-07 17:00;CYYG 071700Z 04008KT 15SM BKN024 OVC250 03/M02 A3025 RMK SC6CS2 SLP247

CYYG;2012-11-07 18:00;CYYG 071800Z 04009KT 15SM BKN025 OVC250 03/M02 A3024 RMK SC6CS2 SLP243

CYYG;2012-11-07 19:00;CYYG 071900Z 05009KT 15SM BKN024 OVC210 03/M02 A3023 RMK SC6CI2 SLP241

CYYG;2012-11-07 20:00;CYYG 072000Z 06010KT 15SM BKN026 OVC210 03/M02 A3021 RMK SC6CS2 SLP233

CYYG;2012-11-07 21:00;CYYG 072100Z 06010KT 15SM SCT027 OVC180 02/M02 A3019 RMK SC4AS4 SLP226

CYYG;2012-11-07 22:00;CYYG 072200Z 04011KT 15SM SCT026 OVC140 03/M02 A3018 RMK SC4AS4 SLP222

CYYG;2012-11-07 23:00;CYYG 072300Z 06013KT 15SM SCT026 OVC140 03/M01 A3015 RMK SC4AS4 SLP211

CYYG;2012-11-08 00:00;CYYG 080000Z 06015G23KT 15SM BKN025 OVC130 04/M01 A3012 RMK SC5AS3 SLP201

CYYG;2012-11-08 01:00;CYYG 080100Z 05020G26KT 15SM OVC024 04/M00 A3008 RMK SC8 SLP189

CYYG;2012-11-08 02:00;CYYG 080200Z 06015G23KT 15SM BKN024 OVC078 05/00 A3006 RMK SC5AS3 SLP181

CYYG;2012-11-08 03:00;CYYG 080300Z 07014G23KT 15SM BKN027 OVC062 05/00 A3006 RMK SC5SC3 SLP180

CYYG;2012-11-08 03:21;CYYG 080321Z 06013KT 15SM -RA BKN027 OVC062 04/01 A3005 RMK SC5SC3 SLP177

CYYG;2012-11-08 04:00;CYYG 080400Z 05018G25KT 10SM RA BKN011 OVC022 03/02 A3004 RMK SC5SC3 SLP176

CYYG;2012-11-08 04:43;CYYG 080443Z 06016G23KT 10SM RA OVC008 02/01 A3003 RMK SF8 SLP171

CYYG;2012-11-08 05:00;CYYG 080500Z 06013KT 10SM RA BKN008 OVC019 02/02 A3003 RMK SF5SC3 SLP171

CYYG;2012-11-08 05:10;CYYG 080510Z 05014KT 10SM -RA SCT008 OVC046 02/02 A3002 RERA RMK SF3SC5 SLP168

CYYG;2012-11-08 06:00;CYYG 080600Z 04014G21KT 15SM -RA FEW008 OVC033 03/03 A2999 RERA RMK SF2SC6 SLP157

CYYG;2012-11-08 07:00;CYYG 080700Z 04019G27KT 5SM -RA BR BKN006 OVC032 04/03 A2997 RMK SF6SC2 SLP150

CYYG;2012-11-08 08:00;CYYG 080800Z 04020G27KT 5SM -RA BR BKN006 OVC028 05/04 A2992 RMK SF6SC2 SLP134

CYYG;2012-11-08 09:00;CYYG 080900Z 05016G28KT 10SM -RA OVC007 05/05 A2992 RMK SF8 SLP133

CYYG;2012-11-08 10:00;CYYG 081000Z 05018G24KT 8SM -RA OVC007 06/05 A2991 RMK SF8 SLP129

CYYG;2012-11-08 11:00;CYYG 081100Z 05018G23KT 3SM -RA BR OVC006 06/06 A2989 RMK SF8 SLP125

CYYG;2012-11-08 11:39;CYYG 081139Z 05016KT 2SM -RA BR BKN006 OVC011 06/06 A2990 RMK SF7NS1 SLP128

CYYG;2012-11-08 12:00;CYYG 081200Z 05014G20KT 2 1/2SM -RA BR BKN006 OVC011 06/06 A2990 RMK SF7NS1 SLP128

CYYG;2012-11-08 12:35;CYYG 081235Z 05014KT 8SM -RA BKN006 OVC010 06/06 A2991 RMK SF7NS1 SLP131

CYYG;2012-11-08 13:00;CYYG 081300Z 05015G20KT 7SM -RA BKN006 OVC012 06/06 A2989 RMK SF7NS1 SLP122

CYYG;2012-11-08 13:35;CYYG 081335Z 04013G19KT 6SM -DZ BR OVC007 07/06 A2990 RMK SF8 SLP128

CYYG;2012-11-08 14:00;CYYG 081400Z 04012KT 6SM -DZ BR OVC007 07/07 A2991 RMK SF8 SLP130

CYYG;2012-11-08 14:15;CYYG 081415Z 04012KT 2 1/2SM -DZ BR BKN007 OVC015 07/07 A2990 RMK SF7NS1 SLP127

CYYG;2012-11-08 15:00;CYYG 081500Z 04011G16KT 6SM -DZ BR BKN005 OVC012 07/07 A2988 RMK SF7SC1 SLP120

CYYG;2012-11-08 16:00;CYYG 081600Z 03013KT 15SM BKN006 OVC014 08/07 A2984 RMK SF6SC2 SLP106

CYYG;2012-11-08 17:00;CYYG 081700Z 04016KT 15SM BKN007 OVC014 08/07 A2982 RMK SF6SC2 SLP098

CYYG;2012-11-08 17:39;CYYG 081739Z 04011G18KT 15SM OVC008 08/07 A2982 RMK SF8 SLP100

CYYG;2012-11-08 17:51;CYYG 081751Z 05011G17KT 10SM -DZ OVC008 08/07 A2983 RMK SF8 SLP101

CYYG;2012-11-08 18:00;CYYG 081800Z 05013G20KT 10SM -DZ OVC008 08/07 A2982 RMK SF8 SLP100

CYYG;2012-11-08 18:47;CYYG 081847Z 05014G19KT 15SM BKN008 OVC018 08/07 A2980 RMK SF6SC2 SLP092

CYYG;2012-11-08 19:00;CYYG 081900Z 04014KT 15SM BKN008 OVC018 08/08 A2979 RMK SF6SC2 SLP089

CYYG;2012-11-08 20:00;CYYG 082000Z 04017G22KT 15SM BKN008 OVC017 08/07 A2978 RMK SF7SC1 SLP087

CYYG;2012-11-08 20:24;CYYG 082024Z 03016G23KT 8SM -RA OVC008 08/08 A2976 RMK SF8 SLP081

CYYG;2012-11-08 21:00;CYYG 082100Z 04016G21KT 5SM -RA BR OVC008 08/08 A2975 RMK ST8 SLP078

CYYG;2012-11-08 21:40;CYYG 082140Z 04016G22KT 5SM -RA BR OVC007 08/08 A2972 RMK SF8 SLP068

CYYG;2012-11-08 22:00;CYYG 082200Z 04015G24KT 5SM -RA BR OVC006 08/08 A2972 RMK SF8 SLP066

CYYG;2012-11-08 23:00;CYYG 082300Z 03015G22KT 5SM -RA BR OVC006 08/08 A2970 RMK SF8 SLP060

CYYG;2012-11-09 00:00;CYYG 090000Z 03012G20KT 8SM -RA BKN008 OVC023 08/08 A2969 RMK SF6SC2 RERA PRESRR SLP057

CYYG;2012-11-09 01:00;CYYG 090100Z 02017G24KT 10SM -RA BKN005 OVC018 08/08 A2962 RMK SF7SC1 SLP030

CYYG;2012-11-09 02:00;CYYG 090200Z 03018G24KT 10SM -RA OVC004 08/08 A2958 RMK ST8 PRESFR SLP019

CYYG;2012-11-09 03:00;CYYG 090300Z 36005KT 8SM RA OVC005 08/08 A2962 RMK SF8 PRESRR SLP032

CYYG;2012-11-09 04:00;CYYG 090400Z 34011G25KT 8SM -RA OVC004 07/07 A2958 RMK SF8 RERA SLP017

CYYG;2012-11-09 04:26;CYYG 090426Z 01017G24KT 10SM OVC004 07/07 A2956 RMK SF8 PRESFR SLP010

CYYG;2012-11-09 05:00;CYYG 090500Z 01014G21KT 10SM OVC006 07/07 A2957 RMK SF8 PRESRR SLP016

CYYG;2012-11-09 06:00;CYYG 090600Z 33007KT 10SM OVC007 07/07 A2958 RMK SF8 PRESRR SLP019

CYYG;2012-11-09 07:00;CYYG 090700Z 33006KT 8SM OVC005 07/07 A2958 RMK ST8 SLP019

CYYG;2012-11-09 08:00;CYYG 090800Z 35005KT 8SM OVC008 07/06 A2960 RMK SF8 SLP024

CYYG;2012-11-09 09:00;CYYG 090900Z 31005KT 8SM OVC008 07/06 A2959 RMK ST8 SLP023

CYYG;2012-11-09 09:27;CYYG 090927Z 32005KT 8SM -DZ OVC008 07/06 A2958 RMK ST8 SLP019

CYYG;2012-11-09 10:00;CYYG 091000Z 31006KT 10SM -DZ OVC006 07/06 A2958 RMK SF8 SLP017

CYYG;2012-11-09 11:00;CYYG 091100Z 33006KT 6SM -DZ BR OVC007 06/06 A2957 RMK SF8 PRESFR SLP013

CYYG;2012-11-09 11:29;CYYG 091129Z 34008KT 2SM -DZ BR BKN004 OVC010 06/06 A2959 RMK SF7SC1 SLP021

CYYG;2012-11-09 12:00;CYYG 091200Z 35009G16KT 5SM -DZ BR BKN004 OVC010 06/06 A2958 RMK SF7SC1 SLP018

CYYG;2012-11-09 12:45;CYYG 091245Z 35008KT 2SM -DZ BR OVC004 06/06 A2958 RMK ST8 SLP019

CYYG;2012-11-09 13:00;CYYG 091300Z 34007KT 2 1/2SM -DZ BR BKN004 OVC016 06/06 A2960 RMK SF7SC1 PRESRR SLP025

CYYG;2012-11-09 14:00;CYYG 091400Z 34012G19KT 2SM -DZ BR OVC004 06/06 A2959 RMK SF8 SLP022

CYYG;2012-11-09 14:36;CYYG 091436Z 34008G17KT 4SM -DZ BR OVC005 06/06 A2960 RMK SF8 VIS VRB 2-6 SLP025

CYYG;2012-11-09 15:00;CYYG 091500Z 34009KT 4SM -DZ BR BKN005 OVC015 06/05 A2961 RMK SF7SC1 VIS VRB 2-6 SLP027

CYYG;2012-11-09 16:00;CYYG 091600Z 33010G24KT 4SM -DZ BR BKN006 OVC011 06/05 A2959 RMK SF7SC1 VIS VRB 2-6 SLP022

CYYG;2012-11-09 17:00;CYYG 091700Z 32010G21KT 4SM -DZ BR BKN007 OVC012 05/04 A2959 RMK SF7SC1 VIS VRB 2-6 SLP020

CYYG;2012-11-09 17:48;CYYG 091748Z 33012G21KT 5SM -DZ BR OVC009 05/03 A2959 RMK SF8 SLP020

CYYG;2012-11-09 18:00;CYYG 091800Z 32013G21KT 5SM -DZ BR OVC009 04/03 A2959 RMK SF8 SLP020

CYYG;2012-11-09 18:37;CYYG 091837Z 32014G20KT 8SM -SHRA BKN010 OVC018 04/02 A2959 RMK SC7SC1 SLP022

CYYG;2012-11-09 19:00;CYYG 091900Z 32014G20KT 12SM -SHRA BKN013 OVC050 04/02 A2959 RMK SC7SC1 SLP022

CYYG;2012-11-09 19:24;CYYG 091924Z 31011G17KT 2SM -DZ BR BKN006 OVC020 04/04 A2960 RMK SF7SC1 SLP025

CYYG;2012-11-09 20:00;CYYG 092000Z 31010G16KT 4SM -DZ BR BKN006 OVC017 04/03 A2961 RMK SF7SC1 VIS VRB 2-6 SLP028

CYYG;2012-11-09 21:00;CYYG 092100Z 28006KT 6SM -DZ BR BKN006 OVC015 04/03 A2962 RMK SF7SC1 VIS VRB 2-10 SLP032

CYYG;2012-11-09 21:13;CYYG 092113Z 28009KT 15SM SCT006 BKN020 OVC060 04/03 A2962 RMK ST3SC4SC1 SLP033

CYYG;2012-11-09 22:00;CYYG 092200Z 28010G16KT 8SM -SHRA FEW006 OVC020 03/02 A2964 RMK SF2SC6 SLP039

CYYG;2012-11-09 22:33;CYYG 092233Z 27008KT 15SM OVC014 04/02 A2965 RMK SC8 SLP042

CYYG;2012-11-09 23:00;CYYG 092300Z 28010G17KT 15SM OVC013 04/02 A2966 RMK SC8 SLP046

CYYG;2012-11-10 00:00;CYYG 100000Z 27009KT 15SM BKN014 BKN100 03/01 A2967 RMK SC5AC2 SLP048

CYYG;2012-11-10 01:00;CYYG 100100Z 27009KT 15SM SCT015 BKN100 03/01 A2968 RMK SC4AC1 SLP052

CYYG;2012-11-10 02:00;CYYG 100200Z 28009G16KT 15SM SCT100 03/00 A2969 RMK AC3 SLP057

CYYG;2012-11-10 03:00;CYYG 100300Z 29012KT 15SM FEW100 03/00 A2970 RMK AC2 SLP060

CYYG;2012-11-10 04:00;CYYG 100400Z 28012G21KT 15SM FEW100 03/00 A2970 RMK AC1 SLP061

CYYG;2012-11-10 05:00;CYYG 100500Z 29015G20KT 15SM FEW100 02/M01 A2972 RMK AC1 SLP066

CYYG;2012-11-10 06:00;CYYG 100600Z 27012KT 15SM FEW100 02/M01 A2975 RMK AC1 SLP076

CYYG;2012-11-10 07:00;CYYG 100700Z 26008G17KT 15SM FEW022 02/M01 A2977 RMK NS2 SLP083

CYYG;2012-11-10 08:00;CYYG 100800Z 25009G16KT 15SM SCT028 02/M01 A2978 RMK SC4 SLP088

CYYG;2012-11-10 09:00;CYYG 100900Z 27009KT 15SM FEW025 02/M02 A2980 RMK SC2 SLP092

CYYG;2012-11-10 10:00;CYYG 101000Z 27008KT 15SM FEW025 02/M02 A2981 RMK SC2 SLP098

CYYG;2012-11-10 11:00;CYYG 101100Z 28013G19KT 15SM FEW025 02/M03 A2983 RMK SC2 SLP103

CYYG;2012-11-10 12:00;CYYG 101200Z 29013G24KT 15SM SCT035 03/M04 A2987 RMK SC3 SLP117

CYYG;2012-11-10 13:00;CYYG 101300Z 29018G28KT 15SM SCT035 03/M05 A2991 RMK SC3 SLP129

CYYG;2012-11-10 14:00;CYYG 101400Z 29013G29KT 15SM FEW035 02/M07 A2994 RMK SC2 SLP141

CYYG;2012-11-10 14:42;CYYG 101442Z 30016G25KT 15SM FEW040 02/M07 A2997 RMK SC2 SLP150

CYYG;2012-11-10 15:00;CYYG 101500Z 29017G26KT 15SM FEW040 02/M07 A2997 RMK SC2 SLP151

CYYG;2012-11-10 16:00;CYYG 101600Z 27020G27KT 15SM FEW040 02/M07 A2998 RMK SC1 SLP155

CYYG;2012-11-10 17:00;CYYG 101700Z 29015G26KT 15SM FEW038 03/M06 A2999 RMK SC1 SLP159

CYYG;2012-11-10 18:00;CYYG 101800Z 28016G23KT 15SM FEW038 03/M07 A3001 RMK SC1 SLP164

CYYG;2012-11-10 19:00;CYYG 101900Z 27017G24KT 15SM FEW045 03/M06 A3003 RMK SC1 SLP173

CYYG;2012-11-10 20:00;CYYG 102000Z 29016G25KT 15SM FEW045 03/M08 A3007 RMK SC1 SLP187

CYYG;2012-11-10 20:33;CYYG 102033Z 29015G27KT 15SM FEW045 02/M09 A3009 RMK SC1 SLP192

CYYG;2012-11-10 21:00;CYYG 102100Z 29014G22KT 15SM FEW045 02/M09 A3011 RMK SC1 SLP200

CYYG;2012-11-10 22:00;CYYG 102200Z 30012G19KT 15SM FEW045 01/M08 A3016 RMK SC1 SLP215

CYYG;2012-11-10 23:00;CYYG 102300Z 28012G19KT 15SM FEW045 01/M08 A3019 RMK SC2 SLP225

CYYG;2012-11-11 00:00;CYYG 110000Z 28012G18KT 15SM FEW045 01/M07 A3022 RMK SC2 SLP235

CYYG;2012-11-11 01:00;CYYG 110100Z 29010G17KT 15SM FEW040 01/M07 A3024 RMK SC2 SLP244

CYYG;2012-11-11 02:00;CYYG 110200Z 27009KT 15SM FEW040 00/M07 A3027 RMK NS1 SLP252

CYYG;2012-11-11 03:00;CYYG 110300Z 27011G19KT 15SM FEW040 00/M07 A3028 RMK SC1 SLP255

CYYG;2012-11-11 04:00;CYYG 110400Z 28007KT 15SM FEW040 M00/M06 A3031 RMK SC1 SLP267

CYYG;2012-11-11 05:00;CYYG 110500Z 28008KT 15SM FEW040 M01/M06 A3032 RMK SC1 SLP271

CYYG;2012-11-11 06:00;CYYG 110600Z 28010KT 15SM FEW040 M01/M06 A3034 RMK SC1 SLP276

CYYG;2012-11-11 07:00;CYYG 110700Z 29009G17KT 15SM FEW040 M01/M06 A3035 RMK NS1 SLP280

CYYG;2012-11-11 08:00;CYYG 110800Z 30012KT 15SM FEW040 M01/M06 A3034 RMK SC1 SLP278

CYYG;2012-11-11 09:00;CYYG 110900Z 28007KT 15SM FEW040 M01/M05 A3039 RMK SC1 PRESRR SLP293

CYYG;2012-11-11 10:00;CYYG 111000Z 26006KT 15SM FEW040 M02/M06 A3041 RMK SC1 SLP301

CYYG;2012-11-11 11:00;CYYG 111100Z 24004KT 15SM FEW040 M02/M06 A3044 RMK SC1 SLP310

CYYG;2012-11-11 12:00;CYYG 111200Z 25008KT 15SM FEW040 SCT300 M02/M05 A3047 RMK SC1CI2 SLP320

CYYG;2012-11-11 13:00;CYYG 111300Z 27010KT 15SM FEW040 BKN250 00/M04 A3048 RMK SC1CI4 SLP324

CYYG;2012-11-11 14:00;CYYG 111400Z 26012KT 15SM FEW040 BKN250 01/M04 A3048 RMK SC1CI4 SLP325

CYYG;2012-11-11 15:00;CYYG 111500Z 25012KT 15SM FEW040 BKN250 02/M05 A3047 RMK SC1CI4 SLP321

CYYG;2012-11-11 16:00;CYYG 111600Z 27009KT 15SM FEW040 BKN250 03/M05 A3046 RMK SC1CI4 SLP316

CYYG;2012-11-11 17:00;CYYG 111700Z 28007KT 15SM FEW140 BKN250 03/M05 A3046 RMK AC2CI4 SLP318

CYYG;2012-11-11 18:00;CYYG 111800Z 27008KT 15SM BKN110 BKN250 02/M05 A3049 RMK AC5CI2 SLP326

CYYG;2012-11-11 19:00;CYYG 111900Z 27007KT 15SM BKN082 BKN250 02/M05 A3050 RMK AC6CI1 SLP330

CYYG;2012-11-11 20:00;CYYG 112000Z 26005KT 15SM BKN074 BKN094 02/M05 A3050 RMK AC5AC2 SLP332

CYYG;2012-11-11 21:00;CYYG 112100Z 23002KT 15SM OVC068 02/M04 A3050 RMK AC8 SLP332

CYYG;2012-11-11 22:00;CYYG 112200Z 24006KT 15SM OVC063 03/M04 A3052 RMK SC8 SLP337

CYYG;2012-11-11 23:00;CYYG 112300Z 25006KT 15SM OVC057 03/M05 A3053 RMK SC8 SLP342

CYYG;2012-11-12 00:00;CYYG 120000Z 25008KT 15SM BKN031 OVC040 03/M05 A3055 RMK SC5SC3 SLP347

CYYG;2012-11-12 01:00;CYYG 120100Z 25005KT 15SM OVC034 03/M05 A3056 RMK SC8 SLP350

CYYG;2012-11-12 02:00;CYYG 120200Z 22004KT 15SM BKN023 OVC030 03/M04 A3056 RMK SC6SC2 SLP350

CYYG;2012-11-12 03:00;CYYG 120300Z 00000KT 15SM OVC027 04/M03 A3055 RMK SC8 SLP346

CYYG;2012-11-12 04:00;CYYG 120400Z 14004KT 15SM OVC030 04/M02 A3053 RMK SC8 SLP339

CYYG;2012-11-12 05:00;CYYG 120500Z 14005KT 15SM BKN032 BKN042 OVC051 04/M01 A3050 RMK SC5SC1SC2 SLP331

CYYG;2012-11-12 06:00;CYYG 120600Z 17007KT 15SM SCT032 OVC041 06/02 A3051 RMK SC3SC5 SLP333

CYYG;2012-11-12 07:00;CYYG 120700Z 19009KT 15SM OVC022 07/03 A3049 RMK SC8 SLP329

CYYG;2012-11-12 08:00;CYYG 120800Z 20009KT 15SM OVC028 07/04 A3048 RMK SC8 SLP324

CYYG;2012-11-12 09:00;CYYG 120900Z 19008KT 15SM OVC015 07/04 A3049 RMK SC8 SLP327

CYYG;2012-11-12 09:27;CYYG 120927Z 19008KT 15SM BKN012 OVC018 07/04 A3048 RMK SC5SC3 SLP325

CYYG;2012-11-12 10:00;CYYG 121000Z 18006KT 15SM OVC015 07/05 A3048 RMK SC8 SLP325

CYYG;2012-11-12 11:00;CYYG 121100Z 18008KT 15SM OVC015 08/05 A3049 RMK SC8 SLP326

CYYG;2012-11-12 12:00;CYYG 121200Z 19008KT 15SM OVC015 08/06 A3050 RMK SC8 SLP331

CYYG;2012-11-12 13:00;CYYG 121300Z 19011KT 15SM OVC013 09/07 A3050 RMK SC8 SLP330

CYYG;2012-11-12 14:00;CYYG 121400Z 17012KT 15SM BKN012 10/08 A3047 RMK SC7 SLP322

CYYG;2012-11-12 15:00;CYYG 121500Z 19012KT 15SM BKN012 11/08 A3046 RMK SC7 SLP317

CYYG;2012-11-12 16:00;CYYG 121600Z 19013G19KT 15SM BKN012 11/09 A3043 RMK SC7 SLP308

CYYG;2012-11-12 16:06;CYYG 121606Z 17012G19KT 15SM FEW012 BKN250 11/09 A3043 RMK SC2CI3 SLP307

CYYG;2012-11-12 17:00;CYYG 121700Z 18013KT 15SM FEW012 SCT250 12/09 A3041 RMK SC1CI3 SLP301

CYYG;2012-11-12 18:00;CYYG 121800Z 18014KT 15SM SCT250 13/09 A3040 RMK CI4 SLP295

CYYG;2012-11-12 19:00;CYYG 121900Z 19012KT 15SM SCT250 13/09 A3039 RMK CI4 SLP293

CYYG;2012-11-12 20:00;CYYG 122000Z 18009KT 15SM SCT250 13/09 A3038 RMK CI4 SLP290

CYYG;2012-11-12 21:00;CYYG 122100Z 20007KT 15SM SCT250 11/08 A3038 RMK CI4 SLP289

CYYG;2012-11-12 22:00;CYYG 122200Z 19011KT 15SM SCT250 12/07 A3039 RMK CI4 SLP291

CYYG;2012-11-12 23:00;CYYG 122300Z 19011KT 15SM SCT250 13/08 A3039 RMK CI4 SLP291

CYYG;2012-11-13 00:00;CYYG 130000Z 19009KT 15SM FEW250 11/08 A3039 RMK CI2 SLP291

CYYG;2012-11-13 01:00;CYYG 130100Z 17011KT 15SM FEW250 12/08 A3037 RMK CI2 SLP287

CYYG;2012-11-13 02:00;CYYG 130200Z 18012G19KT 15SM FEW250 11/09 A3037 RMK CI2 SLP284

CYYG;2012-11-13 03:00;CYYG 130300Z 19012KT 12SM FEW250 11/09 A3035 RMK CI2 SLP280

CYYG;2012-11-13 04:00;CYYG 130400Z 16011G18KT 15SM SKC 11/09 A3035 RMK CI TR SLP278

CYYG;2012-11-13 05:00;CYYG 130500Z 18011KT 15SM SKC 11/09 A3034 RMK CI TR SLP274

CYYG;2012-11-13 06:00;CYYG 130600Z 19013G21KT 12SM SCT020 11/10 A3032 RMK SC3 SLP269

CYYG;2012-11-13 07:00;CYYG 130700Z 20017KT 15SM FEW020 13/11 A3031 RMK SC2 SLP264

CYYG;2012-11-13 08:00;CYYG 130800Z 19013KT 15SM FEW020 12/11 A3030 RMK SC2 SLP261

CYYG;2012-11-13 09:00;CYYG 130900Z 19012KT 15SM FEW020 11/09 A3029 RMK SC2 SLP261

CYYG;2012-11-13 10:00;CYYG 131000Z 19014G21KT 15SM FEW020 12/09 A3029 RMK SC2 SLP257

CYYG;2012-11-13 11:00;CYYG 131100Z 18012KT 15SM FEW060 11/09 A3029 RMK SC2 SLP258

CYYG;2012-11-13 12:00;CYYG 131200Z 17010KT 15SM FEW047 11/10 A3027 RMK NS2 SLP254

CYYG;2012-11-13 13:00;CYYG 131300Z 17014KT 15SM FEW050 13/11 A3025 RMK SC2 SLP246

CYYG;2012-11-13 14:00;CYYG 131400Z 19020G28KT 15SM SCT042 14/12 A3024 RMK SC4 SLP242

CYYG;2012-11-13 15:00;CYYG 131500Z 18017KT 15SM BKN045 15/12 A3024 RMK SC5 SLP241

CYYG;2012-11-13 16:00;CYYG 131600Z 18014G21KT 15SM SCT045 BKN250 17/13 A3021 RMK SC4CI1 SLP230

CYYG;2012-11-13 17:00;CYYG 131700Z 18016G21KT 15SM SCT045 BKN071 16/12 A3018 RMK SC4AC2 SLP221

CYYG;2012-11-13 18:00;CYYG 131800Z 17012G17KT 15SM SCT045 BKN076 16/12 A3016 RMK SC4AC2 SLP215

CYYG;2012-11-13 19:00;CYYG 131900Z 19013KT 15SM FEW045 SCT075 BKN250 17/12 A3014 RMK SC2AC2CI3 SLP208

CYYG;2012-11-13 20:00;CYYG 132000Z 18019KT 15SM FEW045 SCT075 BKN250 17/12 A3014 RMK SC2AC2CI3 SLP207

CYYG;2012-11-13 21:00;CYYG 132100Z 18020G28KT 15SM SCT075 BKN250 17/12 A3013 RMK AC4CI3 SLP205

CYYG;2012-11-13 22:00;CYYG 132200Z 19020G26KT 15SM FEW075 BKN230 16/12 A3013 RMK AC2CC5 SLP204

CYYG;2012-11-13 23:00;CYYG 132300Z 18015G22KT 15SM FEW075 BKN230 15/13 A3015 RMK AC2CI5 SLP211

CYYG;2012-11-13 23:41;CYYG 132341Z 32007KT 12SM -SHRA BKN015 OVC085 12/11 A3019 RMK SC6AC2 SLP225

CYYG;2012-11-14 00:00;CYYG 140000Z 31008KT 12SM -SHRA FEW015 OVC020 11/10 A3020 RMK SC2SC6 SLP229

CYYG;2012-11-14 01:00;CYYG 140100Z 33012G19KT 6SM -SHRA BR FEW005 OVC010 10/10 A3023 RMK SF2SC6 SLP238

CYYG;2012-11-14 02:00;CYYG 140200Z 32012G20KT 6SM -SHRA BR FEW005 OVC021 06/06 A3028 RMK SF2SC6 PRESRR SLP257

CYYG;2012-11-14 03:00;CYYG 140300Z 30009KT 6SM -SHRA BR BKN010 OVC026 06/06 A3031 RMK ST5SC3 PRESRR SLP265

CYYG;2012-11-14 04:00;CYYG 140400Z 32008KT 4SM -SHRA BR BKN006 OVC030 06/05 A3032 RMK SF5SC3 SLP269

CYYG;2012-11-14 04:24;CYYG 140424Z 31006KT 4SM -RA BR FEW006 OVC035 06/05 A3034 RMK SF2SC6 SLP274

CYYG;2012-11-14 04:46;CYYG 140446Z 32007KT 5SM -RA BR BKN005 OVC020 06/05 A3034 RMK SF6SC2 SLP276

CYYG;2012-11-14 05:00;CYYG 140500Z 33009G15KT 5SM -RA BR BKN005 OVC020 05/05 A3034 RMK SF6SC2 SLP276

CYYG;2012-11-14 06:00;CYYG 140600Z 34005KT 6SM RA BR SCT005 OVC035 05/04 A3036 RMK SF3SC5 SLP282

CYYG;2012-11-14 07:00;CYYG 140700Z 35006KT 6SM -RA BR FEW009 OVC035 05/04 A3037 RERA RMK SF1SC7 SLP286

CYYG;2012-11-14 08:00;CYYG 140800Z 01005KT 6SM -RA BR FEW009 OVC045 05/04 A3038 RMK SF1SC7 SLP289

CYYG;2012-11-14 09:00;CYYG 140900Z 00000KT 8SM -RA FEW009 OVC024 05/05 A3040 RMK ST1SC7 SLP296

CYYG;2012-11-14 10:00;CYYG 141000Z 35005KT 8SM -RA FEW009 OVC064 04/03 A3040 RMK SF1SC7 SLP296

CYYG;2012-11-14 11:00;CYYG 141100Z 02004KT 15SM -RA SCT031 OVC041 04/03 A3042 RMK SC3SC5 SLP302

CYYG;2012-11-14 12:00;CYYG 141200Z 35005KT 15SM -RA BKN022 OVC040 05/04 A3045 RMK SC5SC3 SLP314

CYYG;2012-11-14 13:00;CYYG 141300Z 36006KT 15SM -RA OVC030 05/04 A3047 RMK SC8 SLP319

CYYG;2012-11-14 14:00;CYYG 141400Z 02008KT 15SM -DZ OVC032 05/03 A3046 RMK NS8 SLP316

CYYG;2012-11-14 15:00;CYYG 141500Z 01010G16KT 15SM -DZ OVC032 05/03 A3047 RMK SC8 SLP322

CYYG;2012-11-14 16:00;CYYG 141600Z 02009KT 15SM -DZ OVC045 05/03 A3046 RMK NS8 SLP318

CYYG;2012-11-14 16:42;CYYG 141642Z 02011KT 10SM -RA OVC040 05/03 A3046 RMK SC8 SLP317

CYYG;2012-11-14 17:00;CYYG 141700Z 01008KT 15SM -RA OVC040 05/03 A3047 RMK SC8 SLP319

CYYG;2012-11-14 18:00;CYYG 141800Z 01010KT 15SM -RA OVC027 05/03 A3047 RMK SC8 SLP319

CYYG;2012-11-14 19:00;CYYG 141900Z 01009G19KT 15SM -RA BKN027 OVC100 04/02 A3047 RMK SC5AC3 SLP320

CYYG;2012-11-14 20:00;CYYG 142000Z 01010KT 15SM -SHRA BKN026 OVC070 04/01 A3048 RMK SC5AC3 SLP324

CYYG;2012-11-14 20:22;CYYG 142022Z 36008KT 15SM BKN030 OVC070 04/01 A3048 RMK SC5AC3 SLP325

CYYG;2012-11-14 21:00;CYYG 142100Z 01009KT 15SM BKN026 BKN046 04/01 A3049 RMK SC5SC2 SLP327

CYYG;2012-11-14 22:00;CYYG 142200Z 01009KT 15SM BKN024 BKN045 04/01 A3049 RMK SC6SC1 SLP327

CYYG;2012-11-14 23:00;CYYG 142300Z 01011G17KT 15SM SCT025 BKN050 04/01 A3049 RMK SC4SC2 SLP327

CYYG;2012-11-15 00:00;CYYG 150000Z 02008KT 15SM BKN027 04/01 A3049 RMK SC6 SLP328

CYYG;2012-11-15 01:00;CYYG 150100Z 01012KT 15SM BKN028 05/01 A3048 RMK SC7 SLP324

CYYG;2012-11-15 02:00;CYYG 150200Z 02011G17KT 15SM BKN028 04/01 A3048 RMK SC7 SLP325

CYYG;2012-11-15 03:00;CYYG 150300Z 03014KT 15SM BKN028 04/00 A3048 RMK SC7 SLP324

CYYG;2012-11-15 04:00;CYYG 150400Z 02014G20KT 15SM BKN025 04/00 A3047 RMK SC7 SLP322

CYYG;2012-11-15 05:00;CYYG 150500Z 02013KT 15SM BKN024 04/00 A3046 RMK SC7 SLP317

CYYG;2012-11-15 06:00;CYYG 150600Z 03014G22KT 15SM BKN024 04/01 A3045 RMK SC7 SLP315

CYYG;2012-11-15 07:00;CYYG 150700Z 02013G19KT 15SM BKN025 04/00 A3045 RMK SC7 SLP314

CYYG;2012-11-15 08:00;CYYG 150800Z 03014G19KT 15SM BKN028 05/00 A3043 RMK SC7 SLP308

CYYG;2012-11-15 09:00;CYYG 150900Z 03013KT 15SM BKN026 05/01 A3043 RMK SC7 SLP307

CYYG;2012-11-15 10:00;CYYG 151000Z 04012G19KT 15SM BKN024 04/01 A3043 RMK SC7 SLP307

CYYG;2012-11-15 11:00;CYYG 151100Z 02011G20KT 15SM BKN024 04/01 A3042 RMK SC7 SLP305

CYYG;2012-11-15 12:00;CYYG 151200Z 02015G21KT 15SM BKN021 04/01 A3042 RMK SC7 SLP305

CYYG;2012-11-15 13:00;CYYG 151300Z 02014G19KT 15SM OVC020 05/02 A3042 RMK SC8 SLP305

CYYG;2012-11-15 14:00;CYYG 151400Z 03015KT 15SM OVC021 06/02 A3040 RMK SC8 SLP298

CYYG;2012-11-15 15:00;CYYG 151500Z 03018KT 15SM OVC022 06/02 A3039 RMK SC8 SLP294

CYYG;2012-11-15 16:00;CYYG 151600Z 03014G22KT 15SM OVC020 06/02 A3037 RMK SC8 SLP285

CYYG;2012-11-15 17:00;CYYG 151700Z 03020KT 15SM OVC022 06/02 A3035 RMK SC8 SLP278

CYYG;2012-11-15 18:00;CYYG 151800Z 02016G25KT 15SM OVC021 06/02 A3032 RMK SC8 SLP269

CYYG;2012-11-15 19:00;CYYG 151900Z 03011G19KT 15SM OVC020 06/02 A3033 RMK SC8 SLP273

CYYG;2012-11-15 20:00;CYYG 152000Z 01012G18KT 15SM OVC018 05/02 A3034 RMK SC8 SLP275

CYYG;2012-11-15 21:00;CYYG 152100Z 03012KT 15SM OVC017 05/02 A3032 RMK SC8 SLP270

CYYG;2012-11-15 22:00;CYYG 152200Z CCA 02009KT 15SM OVC017 05/03 A3030 RMK SC8 SLP262

CYYG;2012-11-15 23:00;CYYG 152300Z 36008KT 15SM OVC016 05/03 A3029 RMK SC8 SLP260

CYYG;2012-11-15 23:37;CYYG 152337Z 01009KT 12SM -SHRA BKN012 OVC020 05/04 A3029 RMK SC5SC3 SLP260

CYYG;2012-11-16 00:00;CYYG 160000Z 01010KT 6SM -DZ BR OVC007 05/04 A3028 RMK SF8 SLP257

CYYG;2012-11-16 00:46;CYYG 160046Z 01007KT 2 1/2SM -DZ BR OVC005 05/05 A3027 RMK SF8 SLP252

CYYG;2012-11-16 01:00;CYYG 160100Z 01010KT 2 1/2SM -DZ BR FEW005 SCT011 05/05 A3026 RMK SF2SC2 SLP250

CYYG;2012-11-16 02:00;CYYG 160200Z 02009KT 2SM -DZ BR OVC004 05/05 A3024 RMK SF8 SLP244

CYYG;2012-11-16 03:00;CYYG 160300Z 36006KT 2SM -DZ BR OVC004 05/05 A3023 RMK SF8 SLP238

CYYG;2012-11-16 04:00;CYYG 160400Z 36007KT 2SM -DZ BR BKN003 OVC010 05/05 A3022 RMK SF7SC1 SLP235

CYYG;2012-11-16 05:00;CYYG 160500Z 36009KT 2SM -DZ BR OVC003 05/05 A3022 RMK SF8 SLP233

CYYG;2012-11-16 06:00;CYYG 160600Z 36007KT 2SM -DZ BR BKN003 OVC010 05/05 A3021 RMK SF6SC2 SLP232

CYYG;2012-11-16 07:00;CYYG 160700Z 35005KT 3SM -DZ BR BKN003 OVC010 05/05 A3021 RMK SF5SC3 SLP231

CYYG;2012-11-16 07:05;CYYG 160705Z 35005KT 6SM BR SCT003 BKN012 OVC025 05/05 A3020 RMK SF3SC2SC3 SLP228

CYYG;2012-11-16 07:36;CYYG 160736Z 32005KT 6SM -DZ BR FEW003 BKN008 OVC025 05/05 A3020 RMK SF2SC5SC1 SLP230

CYYG;2012-11-16 08:00;CYYG 160800Z 32005KT 60SM -DZ BR FEW003 OVC006 05/05 A3020 RMK SF2SF6 SLP230

CYYG;2012-11-16 09:00;CYYG 160900Z 34007KT 3SM -DZ BR BKN004 OVC010 05/05 A3020 RMK SF5SC3 SLP228

CYYG;2012-11-16 10:00;CYYG 161000Z 34004KT 8SM FEW004 BKN020 04/04 A3020 RMK SF2SC5 SLP230

CYYG;2012-11-16 11:00;CYYG 161100Z 34005KT 15SM OVC019 04/03 A3020 RMK SC8 SLP228

CYYG;2012-11-16 12:00;CYYG 161200Z 34005KT 15SM FEW010 OVC020 04/02 A3022 RMK SF1SC7 SLP234

CYYG;2012-11-16 13:00;CYYG 161300Z 34006KT 15SM FEW010 OVC021 04/02 A3022 RMK SF1SC7 SLP236

CYYG;2012-11-16 14:00;CYYG 161400Z 35007KT 15SM OVC020 05/02 A3023 RMK SC8 SLP239

CYYG;2012-11-16 15:00;CYYG 161500Z 36007KT 15SM OVC018 04/01 A3022 RMK SC8 SLP237

CYYG;2012-11-16 16:00;CYYG 161600Z 33006KT 15SM OVC020 04/01 A3021 RMK SC8 SLP233

CYYG;2012-11-16 17:00;CYYG 161700Z 35007KT 15SM OVC020 04/00 A3022 RMK SC8 SLP234

CYYG;2012-11-16 18:00;CYYG 161800Z 36005KT 15SM -DZ OVC019 04/01 A3021 RMK SC8 VIS SW-NW 3 SLP232

CYYG;2012-11-16 18:36;CYYG 161836Z 35008KT 3SM -DZ BR FEW009 OVC017 03/02 A3021 RMK SF2SC6 SLP233

CYYG;2012-11-16 19:00;CYYG 161900Z 35008KT 4SM -DZ BR FEW009 BKN014 BKN030 03/02 A3022 RMK SF2SC4SC1 SLP235

CYYG;2012-11-16 19:26;CYYG 161926Z 34004KT 12SM FEW009 BKN018 BKN030 03/02 A3022 RMK SF1SC5SC1 VIS LWR SW-W + NE-E SLP237

CYYG;2012-11-16 20:00;CYYG 162000Z 34007KT 15SM FEW012 BKN023 03/01 A3023 RMK SC1SC6 VIS LWR NW-N SLP238

CYYG;2012-11-16 21:00;CYYG 162100Z 35005KT 15SM FEW012 BKN027 03/01 A3022 RMK SC1SC6 SLP236

CYYG;2012-11-16 22:00;CYYG 162200Z 33006KT 15SM FEW010 BKN022 03/M00 A3024 RMK SC1SC6 SLP243

CYYG;2012-11-16 23:00;CYYG 162300Z 33005KT 15SM FEW010 BKN021 03/M01 A3025 RMK SC1SC6 SLP246

CYYG;2012-11-17 00:00;CYYG 170000Z 32004KT 15SM FEW010 OVC022 03/M01 A3026 RMK SC1SC7 SLP248

CYYG;2012-11-17 01:00;CYYG 170100Z 32004KT 15SM FEW010 OVC023 03/M01 A3027 RMK SC1SC7 SLP251

CYYG;2012-11-17 02:00;CYYG 170200Z 27004KT 15SM FEW010 OVC023 02/M00 A3027 RMK NS1SC7 SLP253

CYYG;2012-11-17 03:00;CYYG 170300Z 29003KT 15SM OVC024 02/M00 A3026 RMK SC8 SLP250

CYYG;2012-11-17 04:00;CYYG 170400Z 27005KT 15SM OVC025 02/M01 A3028 RMK SC8 SLP257

CYYG;2012-11-17 05:00;CYYG 170500Z 28006KT 15SM OVC024 02/M01 A3028 RMK SC8 SLP255

CYYG;2012-11-17 06:00;CYYG 170600Z 27005KT 15SM OVC022 02/M01 A3029 RMK SC8 SLP258

CYYG;2012-11-17 07:00;CYYG 170700Z 28007KT 15SM OVC024 02/M01 A3029 RMK SC8 SLP260

CYYG;2012-11-17 08:00;CYYG 170800Z 26007KT 15SM OVC026 02/M01 A3030 RMK NS8 SLP264

CYYG;2012-11-17 09:00;CYYG 170900Z 26005KT 15SM OVC030 02/M00 A3032 RMK SC8 SLP269

CYYG;2012-11-17 10:00;CYYG 171000Z 34006KT 15SM BKN038 03/00 A3034 RMK SC6 SLP276

CYYG;2012-11-17 11:00;CYYG 171100Z 33011G18KT 15SM BKN027 03/00 A3037 RMK SC7 SLP285

CYYG;2012-11-17 11:09;CYYG 171109Z 34006KT 15SM -SHRA OVC021 03/01 A3037 RMK SC8 PCPN VRY LGT SLP287

CYYG;2012-11-17 12:00;CYYG 171200Z 33009G16KT 12SM -SHRA BKN020 BKN044 03/01 A3040 RMK SC5SC2 SLP298

CYYG;2012-11-17 12:37;CYYG 171237Z 35009G19KT 10SM -SHRAPL FEW012 BKN030 BKN046 03/01 A3042 RMK SF1SC4SC2 VIS NW-N 3 PRESRR SLP304

CYYG;2012-11-17 13:00;CYYG 171300Z 36010G16KT 12SM -SHRASN FEW012 BKN020 BKN046 02/01 A3042 RMK SF2SC4SC1 SLP306

CYYG;2012-11-17 13:15;CYYG 171315Z 34008KT 15SM VCSH FEW015 BKN022 BKN045 02/00 A3044 RMK SC1SC5SC1 VIS LWR NE-SE SLP310

CYYG;2012-11-17 14:00;CYYG 171400Z 36011G17KT 15SM VCSH BKN025 BKN048 03/M00 A3045 RMK SC5SC2 SLP316

CYYG;2012-11-17 15:00;CYYG 171500Z 36010G15KT 15SM -SHSN BKN026 BKN040 03/M02 A3047 RMK SC5SC2 PCPN VRY LGT SLP321

CYYG;2012-11-17 15:33;CYYG 171533Z 34010G18KT 15SM VCSH BKN033 02/M02 A3047 RMK SC7 SLP322

CYYG;2012-11-17 16:00;CYYG 171600Z 35009G16KT 15SM VCSH FEW025 BKN034 02/M03 A3048 RMK SC2SC5 SLP323

CYYG;2012-11-17 16:35;CYYG 171635Z 34012KT 15SM FEW025 BKN032 02/M03 A3048 RMK SC2SC5 SLP325

CYYG;2012-11-17 17:00;CYYG 171700Z 34009G17KT 15SM FEW025 BKN034 02/M04 A3049 RMK SC2SC5 SLP328

CYYG;2012-11-17 18:00;CYYG 171800Z 34009G17KT 15SM BKN032 02/M04 A3049 RMK SC7 SLP328

CYYG;2012-11-17 19:00;CYYG 171900Z CCA 33009G15KT 15SM BKN030 01/M05 A3051 RMK SC7 SLP334

CYYG;2012-11-17 20:00;CYYG 172000Z 32005KT 15SM BKN030 01/M05 A3053 RMK SC7 SLP342

CYYG;2012-11-17 21:00;CYYG 172100Z 33006KT 15SM BKN031 00/M05 A3055 RMK SC7 SLP349

CYYG;2012-11-17 22:00;CYYG 172200Z 29004KT 15SM BKN027 00/M04 A3056 RMK SC7 SLP351

CYYG;2012-11-17 23:00;CYYG 172300Z 29005KT 15SM BKN029 M00/M04 A3058 RMK SC7 SLP357

CYYG;2012-11-18 00:00;CYYG 180000Z 27004KT 15SM SCT028 M02/M05 A3058 RMK SC4 SLP360

CYYG;2012-11-18 01:00;CYYG 180100Z 27006KT 15SM SCT028 M01/M05 A3059 RMK SC4 SLP361

CYYG;2012-11-18 02:00;CYYG 180200Z 26005KT 15SM FEW028 M02/M05 A3058 RMK SC2 SLP360

CYYG;2012-11-18 03:00;CYYG 180300Z 27006KT 15SM FEW028 M02/M06 A3058 RMK SC1 SLP360

CYYG;2012-11-18 04:00;CYYG 180400Z 25006KT 15SM FEW028 M02/M06 A3059 RMK SC1 SLP363

CYYG;2012-11-18 05:00;CYYG 180500Z 25006KT 15SM FEW028 M02/M06 A3059 RMK SC1 SLP362

CYYG;2012-11-18 06:00;CYYG 180600Z 27006KT 15SM SKC M03/M07 A3060 RMK CI TR SLP365

CYYG;2012-11-18 07:00;CYYG 180700Z 29007KT 15SM SKC M02/M07 A3061 RMK CI TR SLP368

CYYG;2012-11-18 08:00;CYYG 180800Z 28007KT 15SM SKC M02/M07 A3061 RMK CI TR SLP368

CYYG;2012-11-18 09:00;CYYG 180900Z 30005KT 15SM SKC M02/M06 A3062 RMK CI TR SLP371

CYYG;2012-11-18 10:00;CYYG 181000Z 30004KT 15SM FEW029 M02/M05 A3063 RMK SC2 SLP377

CYYG;2012-11-18 11:00;CYYG 181100Z 34004KT 15SM FEW030 M02/M05 A3066 RMK SC2 SLP384

CYYG;2012-11-18 12:00;CYYG 181200Z 33004KT 15SM SCT028 M00/M04 A3068 RMK SC4 SC INVDG FM NW SLP391

CYYG;2012-11-18 13:00;CYYG 181300Z 30003KT 15SM BKN028 01/M03 A3068 RMK SC6 SLP393

CYYG;2012-11-18 14:00;CYYG 181400Z 35005KT 15SM BKN028 02/M02 A3069 RMK SC7 SLP396

CYYG;2012-11-18 15:00;CYYG 181500Z 01010KT 15SM BKN026 03/M03 A3069 RMK SC7 SLP397

CYYG;2012-11-18 16:00;CYYG 181600Z 01009KT 15SM BKN028 02/M03 A3069 RMK SC7 SLP397

CYYG;2012-11-18 16:38;CYYG 181638Z 36008KT 15SM OVC027 02/M03 A3070 RMK SC8 SLP398

CYYG;2012-11-18 17:00;CYYG 181700Z 01008KT 15SM OVC028 02/M03 A3069 RMK SC8 SLP397

CYYG;2012-11-18 18:00;CYYG 181800Z 36006KT 15SM OVC028 02/M03 A3069 RMK SC8 SLP395

CYYG;2012-11-18 19:00;CYYG 181900Z 35005KT 15SM OVC028 02/M03 A3069 RMK SC8 SLP395

CYYG;2012-11-18 20:00;CYYG 182000Z 30003KT 15SM OVC030 02/M03 A3070 RMK SC8 SLP398

CYYG;2012-11-18 21:00;CYYG 182100Z 30005KT 15SM BKN026 01/M03 A3069 RMK SC7 SLP397

CYYG;2012-11-18 22:00;CYYG 182200Z 28003KT 15SM BKN029 01/M04 A3070 RMK SC7 SLP399

CYYG;2012-11-18 23:00;CYYG 182300Z 29005KT 15SM BKN029 01/M04 A3070 RMK SC7 SLP399

CYYG;2012-11-19 00:00;CYYG 190000Z VRB02KT 15SM BKN028 01/M04 A3069 RMK SC7 SLP396

CYYG;2012-11-19 01:00;CYYG 190100Z 24004KT 15SM BKN028 00/M04 A3070 RMK SC5 SLP398

CYYG;2012-11-19 02:00;CYYG 190200Z 23004KT 15SM SCT025 M01/M04 A3068 RMK SC4 SLP393

CYYG;2012-11-19 03:00;CYYG 190300Z 23004KT 15SM FEW025 M01/M05 A3067 RMK SC2 SLP390

CYYG;2012-11-19 04:00;CYYG 190400Z 22006KT 15SM FEW025 M01/M04 A3066 RMK SC2 SLP386

CYYG;2012-11-19 05:00;CYYG 190500Z 23003KT 15SM FEW025 M03/M05 A3065 RMK SC2 SLP383

CYYG;2012-11-19 06:00;CYYG 190600Z 00000KT 15SM FEW025 M04/M05 A3064 RMK NS2 SLP379

CYYG;2012-11-19 07:00;CYYG 190700Z 00000KT 15SM FEW025 M05/M06 A3063 RMK SC1 SLP376

CYYG;2012-11-19 08:00;CYYG 190800Z 23002KT 15SM FEW025 M05/M06 A3061 RMK SC1 SLP370

CYYG;2012-11-19 09:00;CYYG 190900Z 24002KT 15SM FEW025 M04/M07 A3060 RMK SC1 SLP365

CYYG;2012-11-19 10:00;CYYG 191000Z 25004KT 15SM FEW025 M02/M04 A3058 RMK SC1 SLP359

CYYG;2012-11-19 11:00;CYYG 191100Z 25005KT 15SM FEW030 FEW250 M02/M04 A3057 RMK SC1CC1 SLP355

CYYG;2012-11-19 12:00;CYYG 191200Z 25005KT 15SM FEW030 BKN310 M01/M03 A3057 RMK SC1CI6 CONTRAILS SLP355

CYYG;2012-11-19 13:00;CYYG 191300Z 23004KT 15SM FEW030 BKN310 01/M02 A3055 RMK SC1CI6 CONTRAILS SLP350

CYYG;2012-11-19 14:00;CYYG 191400Z 24008KT 15SM FEW030 BKN310 03/M01 A3054 RMK SC1CI6 CONTRAILS SLP344

CYYG;2012-11-19 15:00;CYYG 191500Z 24011KT 15SM FEW015 BKN310 04/M00 A3051 RMK SC1CI5 SLP335

CYYG;2012-11-19 16:00;CYYG 191600Z 26009G16KT 15SM FEW016 BKN290 04/M00 A3047 RMK SC1CI6 SLP320

CYYG;2012-11-19 17:00;CYYG 191700Z 24008KT 15SM FEW016 BKN250 05/M00 A3045 RMK SC1CI6 SLP312

CYYG;2012-11-19 18:00;CYYG 191800Z 24008KT 15SM BKN250 06/M00 A3041 RMK CI7 SLP301

CYYG;2012-11-19 19:00;CYYG 191900Z 23007KT 15SM BKN250 06/M01 A3040 RMK CI7 SLP295

CYYG;2012-11-19 20:00;CYYG 192000Z 24008KT 15SM FEW140 BKN250 05/M01 A3038 RMK AC1CI5 SLP291

CYYG;2012-11-19 21:00;CYYG 192100Z 23003KT 15SM FEW140 BKN250 03/M00 A3036 RMK AC1CI4 SLP284

CYYG;2012-11-19 22:00;CYYG 192200Z 21006KT 15SM FEW140 SCT250 03/00 A3034 RMK AC1CI2 SLP277

CYYG;2012-11-19 22:52;CYYG 192252Z 22006KT 15SM SKC 02/M01 A3033 RMK CI TR SLP274

CYYG;2012-11-19 23:00;CYYG 192300Z 22006KT 15SM SKC 02/M00 A3033 RMK CI TR SLP273

CYYG;2012-11-20 00:00;CYYG 200000Z 22005KT 15SM SKC 02/M01 A3032 RMK CI TR SLP269

CYYG;2012-11-20 01:00;CYYG 200100Z 22005KT 15SM SKC 02/M00 A3030 RMK CI TR SLP264

CYYG;2012-11-20 02:00;CYYG 200200Z 23005KT 15SM SKC 02/M00 A3028 RMK CI TR SLP256

CYYG;2012-11-20 03:00;CYYG 200300Z 23006KT 15SM SKC 01/M01 A3026 RMK CI TR SLP248

CYYG;2012-11-20 04:00;CYYG 200400Z 22006KT 15SM SKC 00/M02 A3024 RMK CI TR SLP242

CYYG;2012-11-20 05:00;CYYG 200500Z 24007KT 15SM SKC 01/M02 A3022 RMK CI TR SLP237

CYYG;2012-11-20 06:00;CYYG 200600Z 26006KT 15SM SKC 00/M02 A3020 RMK CI TR SLP229

CYYG;2012-11-20 07:00;CYYG 200700Z 24005KT 15SM SKC M00/M02 A3019 RMK CI TR SLP224

CYYG;2012-11-20 08:00;CYYG 200800Z 24007KT 15SM SKC M00/M02 A3018 RMK CI TR SLP222

CYYG;2012-11-20 09:00;CYYG 200900Z 25006KT 15SM SKC M00/M02 A3017 RMK CI TR SLP219

CYYG;2012-11-20 10:00;CYYG 201000Z 25005KT 15SM SKC M00/M02 A3017 RMK CI TR SLP218

CYYG;2012-11-20 11:00;CYYG 201100Z 28003KT 15SM SKC M02/M04 A3017 RMK CI TR SLP221

CYYG;2012-11-20 12:00;CYYG 201200Z 29005KT 15SM FEW170 FEW280 M02/M03 A3018 RMK AC1CI1 SLP222

CYYG;2012-11-20 13:00;CYYG 201300Z 29004KT 15SM FEW150 FEW280 02/M02 A3018 RMK AC1CI1 SLP223

CYYG;2012-11-20 14:00;CYYG 201400Z 30004KT 15SM FEW150 FEW280 04/M01 A3018 RMK AC1CI1 VIRGA SLP222

CYYG;2012-11-20 15:00;CYYG 201500Z 34005KT 15SM FEW150 05/01 A3018 RMK AC1 SLP221

CYYG;2012-11-20 16:00;CYYG 201600Z 01007KT 15SM FEW030 FEW150 07/02 A3016 RMK SC1AC1 SLP217

CYYG;2012-11-20 17:00;CYYG 201700Z 34007KT 15SM FEW030 FEW140 SCT260 07/01 A3015 RMK SC1AC1CI1 VIRGA SLP212

CYYG;2012-11-20 18:00;CYYG 201800Z 34007KT 15SM FEW140 FEW220 07/01 A3016 RMK AC1CI1 SLP215

CYYG;2012-11-20 19:00;CYYG 201900Z CCA 02009KT 15SM FEW030 06/02 A3016 RMK SC1 VIRGA SLP217

CYYG;2012-11-20 20:00;CYYG 202000Z 03007KT 15SM FEW030 SCT140 SCT260 06/02 A3018 RMK SC1AC2CI1 SLP221

CYYG;2012-11-20 21:00;CYYG 202100Z 04004KT 15SM FEW030 SCT140 SCT260 03/01 A3018 RMK SC1AC2CI1 SLP222

CYYG;2012-11-20 22:00;CYYG 202200Z 06005KT 15SM FEW140 03/01 A3019 RMK AC1 SLP224

CYYG;2012-11-20 22:35;CYYG 202235Z 04005KT 15SM FEW140 01/00 A3019 RMK AC1 SLP228

CYYG;2012-11-20 23:00;CYYG 202300Z 01004KT 12SM SKC 01/01 A3020 RMK CI TR SLP230

CYYG;2012-11-21 00:00;CYYG 210000Z 04007KT 15SM SKC M01/M01 A3022 RMK CI TR SLP236

CYYG;2012-11-21 01:00;CYYG 210100Z 03006KT 15SM SKC M00/M00 A3023 RMK CI TR SLP238

CYYG;2012-11-21 02:00;CYYG 210200Z 05007KT 15SM SKC 01/00 A3023 RMK CI TR SLP240

CYYG;2012-11-21 03:00;CYYG 210300Z 05007KT 15SM SKC 02/01 A3024 RMK CI TR SLP242

CYYG;2012-11-21 04:00;CYYG 210400Z 06006KT 15SM SCT025 02/00 A3025 RMK SC4 SLP247

CYYG;2012-11-21 05:00;CYYG 210500Z 05007KT 15SM FEW025 01/M01 A3026 RMK SC2 SLP250

CYYG;2012-11-21 06:00;CYYG 210600Z 05005KT 15SM FEW025 01/M02 A3027 RMK SC2 SLP252

CYYG;2012-11-21 07:00;CYYG 210700Z 01004KT 15SM FEW025 M01/M02 A3027 RMK SC1 SLP253

CYYG;2012-11-21 08:00;CYYG 210800Z 02006KT 15SM FEW025 M01/M03 A3027 RMK SC1 SLP251

CYYG;2012-11-21 09:00;CYYG 210900Z 05006KT 15SM FEW025 M00/M02 A3027 RMK NS1 SLP252

CYYG;2012-11-21 10:00;CYYG 211000Z 36003KT 15SM FEW025 M02/M03 A3027 RMK SC1 SLP255

CYYG;2012-11-21 11:00;CYYG 211100Z 36003KT 15SM FEW025 M03/M04 A3028 RMK SC1 SLP257

CYYG;2012-11-21 12:00;CYYG 211200Z 02004KT 15SM FEW025 SCT280 M03/M04 A3030 RMK SC1CI2 FROIN SLP264

CYYG;2012-11-21 13:00;CYYG 211300Z 06004KT 15SM FEW025 SCT280 01/M00 A3031 RMK SC1CI2 SLP267

CYYG;2012-11-21 14:00;CYYG 211400Z 08005KT 15SM FEW015 BKN025 BKN280 05/01 A3032 RMK CU1SC4CI2 SLP270

CYYG;2012-11-21 15:00;CYYG 211500Z 07006KT 15SM FEW015 SCT030 BKN280 05/02 A3032 RMK CU1SC3CI3 SLP270

CYYG;2012-11-21 16:00;CYYG 211600Z 10007KT 15SM BKN017 BKN030 05/03 A3031 RMK SC6SC1 SHS DIST NE-S SLP265

CYYG;2012-11-21 16:12;CYYG 211612Z 10005KT 15SM VCSH FEW009 BKN016 05/03 A3031 RMK SF2SC5 SHS NE-SW SLP265

CYYG;2012-11-21 16:23;CYYG 211623Z 12008KT 15SM -SHRA BKN009 BKN016 05/03 A3030 RMK SF5SC2 SLP263

CYYG;2012-11-21 17:00;CYYG 211700Z 11006KT 15SM -SHRA SCT009 BKN015 05/03 A3030 RMK SF4SC3 PCPN VRY LGT SLP263

CYYG;2012-11-21 17:21;CYYG 211721Z 14006KT 15SM VCSH SCT009 BKN020 05/03 A3030 RMK SF4SC3 SHS SW-N SLP264

CYYG;2012-11-21 18:00;CYYG 211800Z 16005KT 12SM -SHRA SCT009 BKN020 05/03 A3030 RMK SC4SC3 PCPN VRY LGT SLP262

CYYG;2012-11-21 19:00;CYYG 211900Z 10007KT 15SM -SHRA FEW009 BKN018 05/03 A3029 RMK SC2SC5 PCPN VRY LGT SLP260

CYYG;2012-11-21 19:13;CYYG 211913Z 09005KT 15SM FEW009 BKN018 BKN030 05/03 A3029 RMK SC1SC4SC2 SLP260

CYYG;2012-11-21 20:00;CYYG 212000Z 10004KT 15SM SCT021 BKN032 05/02 A3029 RMK SC3SC4 SLP260

CYYG;2012-11-21 21:00;CYYG 212100Z 11003KT 15SM OVC032 04/02 A3029 RMK SC8 SLP262

CYYG;2012-11-21 22:00;CYYG 212200Z 00000KT 15SM OVC034 04/02 A3030 RMK SC8 SLP263

CYYG;2012-11-21 23:00;CYYG 212300Z 00000KT 15SM OVC035 04/02 A3030 RMK SC8 SLP264

CYYG;2012-11-22 00:00;CYYG 220000Z 00000KT 15SM OVC033 03/02 A3030 RMK SC8 SLP264

CYYG;2012-11-22 01:00;CYYG 220100Z 12003KT 15SM OVC039 03/02 A3029 RMK SC8 SLP261

CYYG;2012-11-22 02:00;CYYG 220200Z 12006KT 15SM OVC038 04/01 A3029 RMK SC8 SLP258

CYYG;2012-11-22 03:00;CYYG 220300Z 16006KT 15SM BKN034 04/01 A3027 RMK SC7 SLP254

CYYG;2012-11-22 04:00;CYYG 220400Z 19007KT 15SM BKN036 03/01 A3027 RMK SC7 SLP253

CYYG;2012-11-22 05:00;CYYG 220500Z 18008KT 15SM BKN032 03/00 A3027 RMK SC5 SLP251

CYYG;2012-11-22 05:40;CYYG 220540Z 18006KT 15SM SCT030 02/M00 A3027 RMK SC3 SLP252

CYYG;2012-11-22 06:00;CYYG 220600Z 18007KT 15SM FEW030 02/M00 A3027 RMK SC2 SLP252

CYYG;2012-11-22 07:00;CYYG 220700Z 20003KT 15SM SCT034 03/01 A3027 RMK SC3 SLP252

CYYG;2012-11-22 07:20;CYYG 220720Z 18003KT 15SM SCT035 02/M00 A3027 RMK SC4 SLP251

CYYG;2012-11-22 08:00;CYYG 220800Z 18003KT 15SM FEW035 M01/M02 A3025 RMK SC1 FROIN SLP246

CYYG;2012-11-22 09:00;CYYG 220900Z 00000KT 15SM FEW030 M00/M00 A3025 RMK SC1 SLP245

CYYG;2012-11-22 10:00;CYYG 221000Z 17003KT 15SM FEW030 01/01 A3024 RMK SC1 SLP244

CYYG;2012-11-22 11:00;CYYG 221100Z 00000KT 15SM MIFG FEW280 M01/M01 A3025 RMK CI1 FROIN SLP247

CYYG;2012-11-22 12:00;CYYG 221200Z 17002KT 15SM FEW280 M00/M00 A3026 RMK CI2 SLP250

CYYG;2012-11-22 13:00;CYYG 221300Z 15003KT 15SM FEW280 03/03 A3026 RMK CI2 SLP249

CYYG;2012-11-22 14:00;CYYG 221400Z 20008KT 15SM FEW280 06/02 A3025 RMK CI2 SLP246

CYYG;2012-11-22 15:00;CYYG 221500Z 20011KT 15SM FEW280 07/02 A3024 RMK CI2 SLP242

CYYG;2012-11-22 16:00;CYYG 221600Z 20008KT 15SM FEW280 08/03 A3021 RMK CI2 SLP232

CYYG;2012-11-22 17:00;CYYG 221700Z 21011KT 15SM FEW280 08/03 A3019 RMK CI2 SLP225

CYYG;2012-11-22 18:00;CYYG 221800Z 22011KT 15SM FEW280 09/03 A3018 RMK CI2 SLP222

CYYG;2012-11-22 19:00;CYYG 221900Z 19011KT 15SM FEW280 08/03 A3016 RMK CI2 SLP215

CYYG;2012-11-22 20:00;CYYG 222000Z 18009KT 15SM FEW280 07/02 A3016 RMK CI1 SLP216

CYYG;2012-11-22 21:00;CYYG 222100Z 19009KT 15SM FEW280 06/03 A3016 RMK CI1 SLP217

CYYG;2012-11-22 22:00;CYYG 222200Z 20010KT 15SM FEW280 06/03 A3016 RMK CI1 SLP216

CYYG;2012-11-22 23:00;CYYG 222300Z 21010KT 15SM FEW280 06/03 A3016 RMK CI1 SLP216

CYYG;2012-11-23 00:00;CYYG 230000Z 21009KT 15SM SKC 06/03 A3016 RMK SLP214

CYYG;2012-11-23 01:00;CYYG 230100Z 21007KT 15SM SKC 05/03 A3015 RMK SLP211

CYYG;2012-11-23 02:00;CYYG 230200Z 21008KT 15SM SKC 05/04 A3013 RMK SLP205

CYYG;2012-11-23 03:00;CYYG 230300Z 20010KT 15SM SKC 05/04 A3012 RMK SLP201

CYYG;2012-11-23 04:00;CYYG 230400Z 20010KT 15SM SKC 05/03 A3010 RMK SLP196

CYYG;2012-11-23 05:00;CYYG 230500Z 18010KT 15SM SKC 04/03 A3009 RMK SLP192

CYYG;2012-11-23 06:00;CYYG 230600Z 19009KT 15SM FEW260 04/03 A3008 RMK CI1 SLP188

CYYG;2012-11-23 07:00;CYYG 230700Z 20008KT 15SM FEW260 05/03 A3008 RMK CI1 SLP187

CYYG;2012-11-23 08:00;CYYG 230800Z 19009KT 15SM FEW260 04/03 A3006 RMK CI1 SLP183

CYYG;2012-11-23 09:00;CYYG 230900Z 20010KT 15SM FEW012 05/04 A3005 RMK SC2 SLP179

CYYG;2012-11-23 10:00;CYYG 231000Z 20013KT 15SM BKN012 05/04 A3004 RMK SC5 SLP176

CYYG;2012-11-23 10:36;CYYG 231036Z 20011KT 15SM FEW007 BKN012 05/04 A3005 RMK SF1SC6 SLP177

CYYG;2012-11-23 11:00;CYYG 231100Z 21012KT 15SM FEW007 BKN011 05/04 A3004 RMK SF1SC6 SLP175

CYYG;2012-11-23 12:00;CYYG 231200Z 20012KT 15SM FEW007 SCT280 05/04 A3004 RMK SF1CI3 SLP175

CYYG;2012-11-23 13:00;CYYG 231300Z 21013G19KT 15SM SCT008 BKN280 06/05 A3004 RMK SF4CI3 SLP175

CYYG;2012-11-23 16:00;CYYG 231600Z 20011KT 15SM FEW280 09/05 A2997 RMK CI2 SLP149

CYYG;2012-11-23 17:00;CYYG 231700Z 19011KT 15SM FEW280 09/04 A2994 RMK CI2 SLP141

CYYG;2012-11-23 18:00;CYYG 231800Z 16008KT 15SM FEW280 09/04 A2992 RMK CI1 SLP133

CYYG;2012-11-23 19:00;CYYG 231900Z 17009KT 15SM FEW280 09/04 A2990 RMK CI1 SLP127

CYYG;2012-11-23 20:00;CYYG 232000Z 18012KT 15SM FEW280 09/03 A2989 RMK CI1 SLP123

CYYG;2012-11-23 21:00;CYYG 232100Z 19011KT 15SM FEW280 08/02 A2988 RMK CI1 SLP118

CYYG;2012-11-23 22:00;CYYG 232200Z 19009KT 15SM FEW280 07/02 A2987 RMK CI1 SLP117

CYYG;2012-11-23 23:00;CYYG 232300Z 18012KT 15SM SKC 07/03 A2985 RMK SLP112

CYYG;2012-11-24 00:00;CYYG 240000Z 18014KT 15SM SKC 07/04 A2985 RMK SLP109

CYYG;2012-11-24 01:00;CYYG 240100Z 18012KT 15SM SKC 06/04 A2984 RMK SLP107

CYYG;2012-11-24 02:00;CYYG 240200Z 18010G15KT 15SM FEW011 05/03 A2982 RMK SC2 SLP100

CYYG;2012-11-24 03:00;CYYG 240300Z 18010KT 15SM BKN010 05/04 A2979 RMK SC6 SLP091

CYYG;2012-11-24 04:00;CYYG 240400Z 17011KT 15SM BKN010 06/05 A2978 RMK SC7 SLP087

CYYG;2012-11-24 05:00;CYYG 240500Z 18009KT 15SM OVC010 07/06 A2976 RMK SC8 SLP081

CYYG;2012-11-24 06:00;CYYG 240600Z 18006KT 15SM OVC010 07/06 A2975 RMK SC8 SLP078

CYYG;2012-11-24 06:48;CYYG 240648Z 17005KT 15SM OVC009 07/07 A2974 RMK SC8 SLP073

CYYG;2012-11-24 07:00;CYYG 240700Z 17004KT 15SM OVC009 07/07 A2974 RMK SC8 SLP072

CYYG;2012-11-24 08:00;CYYG 240800Z 13004KT 12SM FEW004 OVC009 07/07 A2970 RMK SF1SC7 SLP060

CYYG;2012-11-24 09:00;CYYG 240900Z 11004KT 1 1/2SM R03/3000VP6000FT/D BR FEW002 OVC006 07/07 A2968 RMK SF2SF6 SLP051

CYYG;2012-11-24 09:10;CYYG 240910Z 13005KT 1/2SM R03/3000FT/D FG VV002 07/07 A2968 RMK FG8 SLP051

CYYG;2012-11-24 09:18;CYYG 240918Z 12005KT 3/8SM R03/2800FT/N FG VV002 07/07 A2967 RMK FG8 SLP050

CYYG;2012-11-24 10:00;CYYG 241000Z 11005KT 3/8SM R03/4000FT/N FG VV002 07/07 A2966 RMK FG8 SLP044

CYYG;2012-11-24 11:00;CYYG 241100Z 06003KT 1/2SM R03/P6000FT/N FG OVC006 07/07 A2964 RMK FG4SF4 SLP037

CYYG;2012-11-24 11:10;CYYG 241110Z 05003KT 3/4SM R03/P6000FT/U BR OVC006 07/07 A2963 RMK FG2SF6 SLP036

CYYG;2012-11-24 12:00;CYYG 241200Z 03004KT 2SM BR OVC008 07/07 A2962 RMK SF8 SLP032

CYYG;2012-11-24 12:37;CYYG 241237Z 02004KT 1 1/4SM BR OVC004 07/07 A2961 RMK SF8 SLP027

CYYG;2012-11-24 13:00;CYYG 241300Z 01004KT 3SM BR OVC004 08/08 A2959 RMK SF8 SLP021

CYYG;2012-11-24 14:00;CYYG 241400Z 06004KT 1 1/2SM BR OVC002 08/08 A2956 RMK SF8 SLP010

CYYG;2012-11-24 15:00;CYYG 241500Z 11006KT 1 1/2SM BR OVC004 09/09 A2952 RMK SF8 SLP998

CYYG;2012-11-24 15:35;CYYG 241535Z 12004KT 2SM -RA BR OVC004 10/10 A2949 RMK SF8 SLP989

CYYG;2012-11-24 16:00;CYYG 241600Z 11007KT 2SM -RA BR OVC003 10/10 A2947 RMK ST8 PRESFR SLP980

CYYG;2012-11-24 16:40;CYYG 241640Z 11006KT 5SM -RA BR OVC003 10/10 A2944 RMK SF8 SLP972

CYYG;2012-11-24 17:00;CYYG 241700Z 10006KT 5SM -DZ BR OVC004 10/10 A2942 RMK SF8 SLP965

CYYG;2012-11-24 18:00;CYYG 241800Z 12002KT 5SM -DZ BR OVC003 10/10 A2939 RMK SC8 SLP952 DENSITY ALT 200FT

CYYG;2012-11-24 19:00;CYYG 241900Z 10002KT 5SM -DZ BR OVC003 11/11 A2935 RMK SF8 SLP940 DENSITY ALT 300FT

CYYG;2012-11-24 19:40;CYYG 241940Z 00000KT 3SM -DZ BR OVC003 10/10 A2934 RMK ST8 SLP936 DENSITY ALT 200FT

CYYG;2012-11-24 20:00;CYYG 242000Z 00000KT 2 1/2SM -RA BR OVC002 10/10 A2933 RMK SF8 SLP934 DENSITY ALT 200FT

CYYG;2012-11-24 20:27;CYYG 242027Z VRB02KT 1 1/2SM -RA BR OVC002 10/10 A2932 RMK ST8 SLP930 DENSITY ALT 200FT

CYYG;2012-11-24 20:42;CYYG 242042Z 19003KT 3/4SM R03/6000FT/D -RA BR OVC002 10/10 A2931 RMK ST8 SLP928 DENSITY ALT 200FT

CYYG;2012-11-24 20:48;CYYG 242048Z 00000KT 3/8SM R03/3500VP6000FT/D -RA FG VV001 10/10 A2931 RMK FG8 SLP927 DENSITY ALT 300FT

CYYG;2012-11-24 21:00;CYYG 242100Z 23002KT 1/2SM R03/4000FT/U -RA FG VV002 10/10 A2931 RMK FG8 SLP925 DENSITY ALT 200FT

CYYG;2012-11-24 21:18;CYYG 242118Z 28005KT 220V280 2 1/2SM R03/3000VP6000FT/U -RA BR OVC002 10/10 A2930 RMK SF8 SLP923 DENSITY ALT 200FT

CYYG;2012-11-24 21:26;CYYG 242126Z 30006KT 5SM -RA BR OVC005 09/09 A2929 RMK SF8 SLP921

CYYG;2012-11-24 22:00;CYYG 242200Z 30006KT 5SM -RA BR OVC004 08/08 A2929 RMK ST8 SLP920

CYYG;2012-11-24 22:35;CYYG 242235Z 27005KT 6SM -DZ BR BKN009 08/08 A2929 RMK ST7 SLP919

CYYG;2012-11-24 23:00;CYYG 242300Z 31004KT 6SM -DZ BR SCT009 OVC029 08/08 A2928 RMK SF4SC4 SLP915

CYYG;2012-11-24 23:33;CYYG 242333Z 28003KT 6SM -DZ BR BKN003 OVC012 08/08 A2926 RMK SF7SC1 SLP911

CYYG;2012-11-24 23:45;CYYG 242345Z 31004KT 6SM -SHRADZ BR BKN003 OVC013 08/08 A2926 RMK SF7SC1 SLP909

CYYG;2012-11-25 00:00;CYYG 250000Z 29003KT 6SM BR OVC004 07/07 A2925 RMK SF8 SLP906

CYYG;2012-11-25 00:29;CYYG 250029Z 25004KT 2 1/2SM BR BKN003 OVC009 07/07 A2924 RMK SF6SF2 SLP903

CYYG;2012-11-25 01:00;CYYG 250100Z 28004KT 2 1/2SM BR BKN004 OVC055 07/07 A2922 RMK SF6SC2 MOON VISBL SLP895

CYYG;2012-11-25 01:33;CYYG 250133Z 25004KT 1/2SM R03/4500VP6000FT/D FG VV002 07/07 A2921 RMK FG8 R03/4500VP6000FT/D SLP892

CYYG;2012-11-25 01:44;CYYG 250144Z 26005KT 3/8SM R03/3000FT/D FG VV002 07/07 A2921 RMK FG8 SLP892

CYYG;2012-11-25 02:00;CYYG 250200Z 24004KT 3/8SM R03/2200FT/D FG VV002 07/07 A2920 RMK FG8 SLP889

CYYG;2012-11-25 02:23;CYYG 250223Z 23003KT 1/4SM R03/1800FT/N FG VV002 06/06 A2918 RMK FG8 SLP883

CYYG;2012-11-25 03:00;CYYG 250300Z 22003KT 3/8SM R03/2200FT/N FG VV002 06/06 A2916 RMK FG8 PRESFR SLP876

CYYG;2012-11-25 03:41;CYYG 250341Z 20006KT 1/2SM R03/3000FT/U FG VV002 06/06 A2915 RMK FG8 SLP875

CYYG;2012-11-25 04:00;CYYG 250400Z 21003KT 1/2SM R03/3500FT/D FG VV002 06/06 A2914 RMK FG8 SLP871

CYYG;2012-11-25 04:28;CYYG 250428Z 22004KT 1/4SM R03/1800FT/N FG VV002 06/06 A2913 RMK FG8 SLP866

CYYG;2012-11-25 05:00;CYYG 250500Z 20005KT 1/2SM R03/3000FT/U FG VV002 06/06 A2912 RMK FG8 SLP862

CYYG;2012-11-25 05:10;CYYG 250510Z 19006KT 5/8SM R03/3500V5500FT/N -SHRA BR OVC017 06/06 A2912 RMK FG6SC2 SLP861

CYYG;2012-11-25 05:33;CYYG 250533Z 20005KT 1 1/2SM -SHRA BR SCT002 OVC007 06/06 A2911 RMK SF3SF5 SLP860

CYYG;2012-11-25 06:00;CYYG 250600Z 23009KT 10SM -SHRA SCT004 OVC009 07/07 A2911 RMK SF4SC4 SLP859

CYYG;2012-11-25 07:00;CYYG 250700Z 27015KT 10SM -SHRA OVC005 04/04 A2913 RMK SF8 SLP867

CYYG;2012-11-25 07:42;CYYG 250742Z 26017G24KT 15SM OVC008 03/02 A2913 RMK SC8 SLP868

CYYG;2012-11-25 08:00;CYYG 250800Z 25013G27KT 15SM OVC011 03/02 A2915 RMK SC8 SLP872

CYYG;2012-11-25 08:39;CYYG 250839Z 24014G22KT 15SM OVC012 02/01 A2916 RMK SC8 PRESRR SLP875

CYYG;2012-11-25 09:00;CYYG 250900Z 25016G22KT 15SM OVC014 02/00 A2915 RMK SC8 SLP874

CYYG;2012-11-25 10:00;CYYG 251000Z 24013G21KT 15SM OVC016 01/M01 A2917 RMK SC8 SLP880

CYYG;2012-11-25 11:00;CYYG 251100Z 24013KT 15SM BKN017 01/M02 A2918 RMK SC7 SLP884

CYYG;2012-11-25 12:00;CYYG 251200Z 25014G22KT 15SM BKN025 00/M03 A2920 RMK SC7 SLP891

CYYG;2012-11-25 13:00;CYYG 251300Z 25017G24KT 15SM OVC023 00/M03 A2921 RMK SC8 SLP893

CYYG;2012-11-25 14:00;CYYG 251400Z 24019G27KT 15SM OVC023 00/M04 A2922 RMK NS8 SLP896

CYYG;2012-11-25 15:00;CYYG 251500Z 25015G23KT 15SM BKN026 00/M04 A2921 RMK SC7 SLP895

CYYG;2012-11-25 16:00;CYYG 251600Z 24020G32KT 15SM BKN028 00/M05 A2921 RMK SC7 SLP895

CYYG;2012-11-25 17:00;CYYG 251700Z 23017G28KT 15SM SCT030 BKN079 00/M06 A2921 RMK SC4AC2 SLP894

CYYG;2012-11-25 18:00;CYYG 251800Z 25019G30KT 15SM SCT038 BKN078 01/M07 A2923 RMK SC4AC2 SLP899

CYYG;2012-11-25 19:00;CYYG 251900Z 24021G29KT 15SM SCT037 BKN080 00/M08 A2924 RMK NS4AC2 SLP903

CYYG;2012-11-25 20:00;CYYG 252000Z 24017G27KT 15SM SCT040 BKN080 00/M08 A2926 RMK SC4AC2 SLP912

CYYG;2012-11-25 21:00;CYYG 252100Z 24017G26KT 15SM BKN043 BKN080 M00/M08 A2929 RMK SC5AC1 SLP920

CYYG;2012-11-25 22:00;CYYG 252200Z 25015G22KT 15SM BKN038 M01/M08 A2933 RMK SC6 SLP935

CYYG;2012-11-25 23:00;CYYG 252300Z 24016G27KT 15SM BKN045 M01/M08 A2935 RMK SC7 SLP941

CYYG;2012-11-26 00:00;CYYG 260000Z 24010G21KT 15SM FEW045 M02/M09 A2937 RMK SC2 SLP947

CYYG;2012-11-26 01:00;CYYG 260100Z 24013G22KT 15SM BKN045 M01/M08 A2939 RMK SC6 SLP956

CYYG;2012-11-26 02:00;CYYG 260200Z 25015G26KT 15SM OVC040 M01/M09 A2942 RMK SC8 SLP964

CYYG;2012-11-26 03:00;CYYG 260300Z 24021G30KT 15SM BKN038 M02/M09 A2944 RMK SC7 SLP970

CYYG;2012-11-26 04:00;CYYG 260400Z 24017G30KT 15SM BKN036 M02/M09 A2946 RMK SC6 SLP978

CYYG;2012-11-26 05:00;CYYG 260500Z 24017G26KT 15SM BKN034 M02/M09 A2947 RMK SC7 SLP981

CYYG;2012-11-26 06:00;CYYG 260600Z 25014G26KT 15SM BKN034 M03/M09 A2949 RMK SC6 PRESRR SLP987

CYYG;2012-11-26 07:00;CYYG 260700Z 24014G25KT 15SM BKN035 M03/M09 A2951 RMK SC5 SLP995

CYYG;2012-11-26 08:00;CYYG 260800Z 25016G27KT 15SM FEW035 M03/M10 A2952 RMK SC2 SLP998

CYYG;2012-11-26 09:00;CYYG 260900Z 25015G24KT 15SM FEW035 M03/M09 A2954 RMK SC1 SLP005

CYYG;2012-11-26 10:00;CYYG 261000Z 25014G25KT 15SM BKN031 M03/M09 A2956 RMK SC5 SLP012

CYYG;2012-11-26 11:00;CYYG 261100Z 24014G24KT 15SM BKN032 M03/M09 A2958 RMK SC6 SLP019

CYYG;2012-11-26 12:00;CYYG 261200Z 25013G22KT 15SM BKN030 M03/M09 A2961 RMK SC7 SLP030

CYYG;2012-11-26 13:00;CYYG 261300Z 25015G23KT 15SM BKN029 M03/M09 A2964 RMK NS7 SLP040

CYYG;2012-11-26 14:00;CYYG 261400Z 25016G21KT 15SM BKN029 M03/M09 A2965 RMK SC7 SLP043

CYYG;2012-11-26 15:00;CYYG 261500Z 25018G25KT 15SM BKN030 M02/M09 A2966 RMK SC7 SLP045

CYYG;2012-11-26 16:00;CYYG 261600Z 25018G27KT 15SM BKN030 M02/M08 A2966 RMK SC7 SLP047

CYYG;2012-11-26 17:00;CYYG 261700Z 26019G24KT 15SM BKN032 M01/M08 A2968 RMK SC7 SLP053

CYYG;2012-11-26 18:00;CYYG 261800Z 26016G24KT 15SM BKN030 M01/M08 A2969 RMK SC5 SLP057

CYYG;2012-11-26 19:00;CYYG 261900Z 26012G22KT 15SM SCT030 SCT250 M01/M08 A2972 RMK SC3CI1 SLP066

CYYG;2012-11-26 20:00;CYYG 262000Z 26011G20KT 15SM SCT035 BKN250 M01/M09 A2975 RMK SC4CI1 SLP078

CYYG;2012-11-26 21:00;CYYG 262100Z 26009KT 15SM SCT035 BKN250 M01/M09 A2979 RMK SC4CI1 SLP092

CYYG;2012-11-26 22:00;CYYG 262200Z 27007KT 15SM SCT043 BKN250 M01/M09 A2983 RMK SC4CC1 SLP105

CYYG;2012-11-26 23:00;CYYG 262300Z 27009G17KT 15SM SCT043 BKN250 M02/M10 A2987 RMK SC4CI1 SLP117

CYYG;2012-11-27 00:00;CYYG 270000Z 27011G17KT 15SM FEW043 SCT250 M02/M10 A2990 RMK SC2CI2 SLP129

CYYG;2012-11-27 01:00;CYYG 270100Z 28008KT 15SM FEW043 SCT250 M02/M10 A2992 RMK SC2CI1 SLP136

CYYG;2012-11-27 02:00;CYYG 270200Z 27008KT 15SM FEW040 M03/M10 A2995 RMK SC2 SLP144

CYYG;2012-11-27 03:00;CYYG 270300Z 28007KT 15SM BKN040 M03/M09 A2997 RMK SC5 SLP152

CYYG;2012-11-27 04:00;CYYG 270400Z 28009G16KT 15SM BKN040 M03/M09 A3001 RMK SC7 SLP163

CYYG;2012-11-27 05:00;CYYG 270500Z 27009KT 15SM BKN038 M03/M09 A3002 RMK SC7 SLP169

CYYG;2012-11-27 06:00;CYYG 270600Z 27009KT 15SM OVC037 M03/M09 A3006 RMK SC8 SLP181

CYYG;2012-11-27 07:00;CYYG 270700Z 26009G16KT 15SM OVC034 M03/M09 A3009 RMK SC8 SLP193

CYYG;2012-11-27 08:00;CYYG 270800Z 27009KT 15SM OVC033 M03/M09 A3010 RMK SC8 SLP197

CYYG;2012-11-27 09:00;CYYG 270900Z 26007KT 15SM OVC031 M03/M08 A3013 RMK SC8 SLP205

CYYG;2012-11-27 10:00;CYYG 271000Z 27008KT 15SM OVC025 M03/M08 A3014 RMK CU8 SLP210

CYYG;2012-11-27 11:00;CYYG 271100Z 27007KT 15SM OVC024 M03/M08 A3017 RMK SC8 SLP219

CYYG;2012-11-27 12:00;CYYG 271200Z 28010KT 15SM BKN024 M03/M08 A3020 RMK SC7 SLP230

CYYG;2012-11-27 13:00;CYYG 271300Z 28009G16KT 15SM BKN025 M04/M09 A3024 RMK SC7 SLP242

CYYG;2012-11-27 14:00;CYYG 271400Z 29006KT 15SM BKN026 M03/M09 A3024 RMK SC6 SLP245

CYYG;2012-11-27 15:00;CYYG 271500Z 28011G17KT 15SM FEW027 SCT260 M03/M09 A3025 RMK SC2CI2 SLP248

CYYG;2012-11-27 16:00;CYYG 271600Z 27009KT 15SM FEW025 BKN260 M02/M09 A3025 RMK SC2CI3 SLP247

CYYG;2012-11-27 17:00;CYYG 271700Z 29007KT 15SM FEW025 BKN260 M03/M10 A3026 RMK SC2CI4 SLP250

CYYG;2012-11-27 18:00;CYYG 271800Z 27008KT 15SM FEW025 BKN260 M02/M10 A3027 RMK SC2CI3 SLP253

CYYG;2012-11-27 19:00;CYYG 271900Z 29006KT 15SM FEW025 SCT260 M03/M10 A3028 RMK SC1CI3 SLP256

CYYG;2012-11-27 20:00;CYYG 272000Z 27006KT 15SM FEW025 SCT260 M03/M10 A3030 RMK SC1CI2 SLP265

CYYG;2012-11-27 21:00;CYYG 272100Z 27003KT 15SM FEW025 SCT260 M04/M10 A3031 RMK SC1CI2 SLP268

CYYG;2012-11-27 22:00;CYYG 272200Z 31003KT 15SM FEW025 FEW260 M07/M11 A3032 RMK SC1CI1 SLP271

CYYG;2012-11-27 23:00;CYYG 272300Z 00000KT 15SM FEW025 FEW260 M08/M10 A3034 RMK SC1CI1 SLP278

CYYG;2012-11-28 00:00;CYYG 280000Z 36002KT 15SM FEW250 M09/M11 A3034 RMK CI2 SLP277

CYYG;2012-11-28 01:00;CYYG 280100Z 00000KT 15SM FEW250 M10/M11 A3034 RMK CI2 SLP277

CYYG;2012-11-28 02:00;CYYG 280200Z 00000KT 15SM FEW250 M10/M11 A3034 RMK CI2 SLP276

CYYG;2012-11-28 03:00;CYYG 280300Z 00000KT 15SM FEW250 M10/M12 A3034 RMK CI1 SLP276

CYYG;2012-11-28 04:00;CYYG 280400Z 13002KT 15SM SKC M08/M10 A3033 RMK SLP275

CYYG;2012-11-28 05:00;CYYG 280500Z 00000KT 15SM SKC M10/M11 A3032 RMK SLP271

CYYG;2012-11-28 06:00;CYYG 280600Z 28002KT 15SM BKN300 M11/M12 A3032 RMK CI7 SLP270

CYYG;2012-11-28 07:00;CYYG 280700Z VRB02KT 15SM SKC M08/M12 A3032 RMK SLP272

CYYG;2012-11-28 08:00;CYYG 280800Z 00000KT 15SM SKC M08/M10 A3031 RMK SLP268

CYYG;2012-11-28 09:00;CYYG 280900Z 00000KT 15SM SKC M09/M11 A3030 RMK SLP265

CYYG;2012-11-28 10:00;CYYG 281000Z 00000KT 15SM FEW240 M08/M10 A3029 RMK CI2 SLP261

CYYG;2012-11-28 11:00;CYYG 281100Z 35003KT 15SM BKN230 M08/M10 A3027 RMK CI6 SLP255

CYYG;2012-11-28 12:00;CYYG 281200Z 33003KT 15SM FEW025 FEW180 BKN230 M08/M10 A3027 RMK SC1AC1CI5 FROIN SLP256

CYYG;2012-11-28 13:00;CYYG 281300Z 00000KT 15SM FEW025 FEW170 BKN230 M07/M08 A3028 RMK SC1AC1CI5 SLP258

CYYG;2012-11-28 14:00;CYYG 281400Z 00000KT 15SM FEW025 FEW180 BKN240 M04/M06 A3028 RMK SC1AC1CI4 VIRGA OVR N SHR SLP256

CYYG;2012-11-28 15:00;CYYG 281500Z 08006KT 15SM FEW034 SCT180 BKN250 M01/M06 A3023 RMK SC2AC1CI2 SLP240

CYYG;2012-11-28 16:00;CYYG 281600Z 05007KT 15SM FEW034 SCT180 BKN250 00/M06 A3021 RMK SC2AC1CI4 VIRGA OVR N SHR SLP232

CYYG;2012-11-28 17:00;CYYG 281700Z 06009KT 15SM SCT033 SCT180 BKN250 01/M06 A3015 RMK SC3AC1CI3 VIRGA OVR N SHR SLP214

CYYG;2012-11-28 18:00;CYYG 281800Z 35007KT 15SM BKN030 BKN250 00/M06 A3014 RMK SC6CI1 SLP210

CYYG;2012-11-28 18:17;CYYG 281817Z 34007KT 15SM -SHSN BKN030 BKN250 M01/M05 A3013 RMK SC6CI1 VIS NW 6 SLP208

CYYG;2012-11-28 19:00;CYYG 281900Z 01006KT 15SM -SHSN BKN034 OVC250 M01/M04 A3011 RMK SC6CI2 PRESFR SLP201

CYYG;2012-11-28 20:00;CYYG 282000Z 01005KT 15SM -SHSN BKN028 OVC250 M01/M04 A3011 RMK SC7CI1 SLP199

CYYG;2012-11-28 21:00;CYYG 282100Z 02009KT 15SM -SHSN OVC032 M01/M04 A3009 RMK SC8 SLP192

CYYG;2012-11-28 22:00;CYYG 282200Z 02007KT 15SM -SHSN OVC035 M01/M04 A3009 RMK SC8 SLP191

CYYG;2012-11-28 23:00;CYYG 282300Z 34005KT 15SM -SHSN OVC037 M01/M04 A3008 RMK SC8 SLP190

CYYG;2012-11-29 00:00;CYYG 290000Z 36004KT 15SM -SHSN FEW020 OVC035 M01/M04 A3007 RMK SC1SC7 SLP185

CYYG;2012-11-29 01:00;CYYG 290100Z 32002KT 15SM FEW021 OVC032 M01/M03 A3005 RMK SC1SC7 SLP180

CYYG;2012-11-29 02:00;CYYG 290200Z 01007KT 15SM FEW035 OVC043 M01/M06 A3003 RMK SC2SC6 SLP172

CYYG;2012-11-29 03:00;CYYG 290300Z 35005KT 15SM OVC040 M01/M05 A3000 RMK SC8 SLP161

CYYG;2012-11-29 04:00;CYYG 290400Z 33004KT 15SM OVC034 M01/M06 A2999 RMK SC8 SLP160

CYYG;2012-11-29 04:30;CYYG 290430Z 32003KT 15SM -SN OVC032 M01/M05 A2999 RMK SC8 SLP158

CYYG;2012-11-29 05:00;CYYG 290500Z 31003KT 15SM -SN OVC025 M01/M05 A2998 RMK SC8 SLP155

CYYG;2012-11-29 06:00;CYYG 290600Z 33003KT 5SM -SN OVC022 M01/M03 A2998 RMK SC8 SLP155

CYYG;2012-11-29 07:00;CYYG 290700Z 31007KT 1SM -SN VV004 M01/M02 A2997 RMK SN8 SLP153

CYYG;2012-11-29 08:00;CYYG 290800Z 30005KT 15SM -SN OVC051 M01/M02 A2995 RMK SC8 /S01/ SLP144

CYYG;2012-11-29 09:00;CYYG 290900Z 30006KT 2SM -SN SCT018 OVC056 M01/M02 A2995 RMK SC3SC5 SLP145

CYYG;2012-11-29 09:10;CYYG 290910Z 30007KT 5SM -SN SCT009 OVC015 M02/M02 A2995 RMK SF4SC4 SLP144

CYYG;2012-11-29 10:00;CYYG 291000Z 30008KT 15SM FEW009 BKN031 BKN049 M02/M05 A2994 RMK SF2SC3SC2 SLP142

CYYG;2012-11-29 11:00;CYYG 291100Z 29007KT 15SM BKN057 M03/M06 A2993 RMK SC5 SLP140

CYYG;2012-11-29 12:00;CYYG 291200Z 28009KT 15SM FEW020 SCT045 BKN057 M03/M05 A2994 RMK CU1SC3SC1 SN SHS DIST NE-S SLP142

CYYG;2012-11-29 13:00;CYYG 291300Z 28006KT 15SM FEW025 SCT045 SCT055 M03/M05 A2994 RMK CU1SC2SC1 SN SHS DIST N-E SLP143

CYYG;2012-11-29 14:00;CYYG 291400Z 28009G15KT 15SM FEW025 SCT050 SCT250 M01/M06 A2995 RMK CU1SC2CI1 SN SHS DIST NE SLP144

CYYG;2012-11-29 15:00;CYYG 291500Z 28009G16KT 15SM FEW025 FEW050 SCT250 M01/M06 A2994 RMK CU1SC1CI2 SN SHS DIST NE SLP141

CYYG;2012-11-29 16:00;CYYG 291600Z 27011G16KT 15SM FEW025 SCT050 M01/M07 A2992 RMK CU1SC2 SLP136

CYYG;2012-11-29 17:00;CYYG 291700Z 27012KT 15SM FEW030 FEW050 M01/M07 A2991 RMK SC1SC1 SLP130

CYYG;2012-11-29 18:00;CYYG 291800Z 25012KT 15SM SCT022 M01/M06 A2988 RMK SC4 SLP120

CYYG;2012-11-29 19:00;CYYG 291900Z 25007KT 15SM BKN022 BKN050 M01/M05 A2987 RMK SC5SC1 SLP118

CYYG;2012-11-29 19:32;CYYG 291932Z 26012G21KT 15SM -SHSN BKN025 BKN050 M01/M06 A2988 RMK SC6SC1 VIS LWR NW SLP121

CYYG;2012-11-29 20:00;CYYG 292000Z 28011G19KT 10SM -SHSN BKN028 BKN050 M02/M06 A2988 RMK SC6SC1 VIS W-N 4 SLP123

CYYG;2012-11-29 21:00;CYYG 292100Z 28007KT 15SM FEW030 BKN055 M02/M06 A2988 RMK SC1SC6 SLP122

CYYG;2012-11-29 21:52;CYYG 292152Z 27012G18KT 15SM -SHSN OVC042 M02/M07 A2989 RMK SC8 SLP125

CYYG;2012-11-29 22:00;CYYG 292200Z 28011G18KT 15SM -SHSN OVC032 M02/M07 A2989 RMK SC8 SLP126

CYYG;2012-11-29 22:51;CYYG 292251Z 29013KT 15SM FEW035 M03/M10 A2991 RMK SC2 SLP132

CYYG;2012-11-29 23:00;CYYG 292300Z 27013G20KT 15SM FEW035 M03/M10 A2991 RMK SC2 SLP133

CYYG;2012-11-30 00:00;CYYG 300000Z 28014G21KT 15SM FEW035 M04/M11 A2993 RMK SC2 SLP139

CYYG;2012-11-30 01:00;CYYG 300100Z 28013G20KT 15SM FEW035 BKN120 M05/M11 A2995 RMK SC1AC4 SLP145

CYYG;2012-11-30 02:00;CYYG 300200Z 29006KT 15SM SCT110 M06/M12 A2996 RMK AC4 SLP150

CYYG;2012-11-30 03:00;CYYG 300300Z 28006KT 15SM FEW110 M06/M13 A2995 RMK AC1 SLP146

CYYG;2012-11-30 04:00;CYYG 300400Z 28005KT 15SM SCT083 M07/M13 A2996 RMK AC3 SLP148

CYYG;2012-11-30 05:00;CYYG 300500Z 26004KT 15SM BKN042 M07/M13 A2996 RMK SC6 SLP148

CYYG;2012-11-30 06:00;CYYG 300600Z 29012G24KT 15SM FEW042 M07/M13 A2997 RMK SC2 SLP151

CYYG;2012-11-30 07:00;CYYG 300700Z 28012KT 15SM FEW032 M08/M14 A2999 RMK SC2 SLP159

CYYG;2012-11-30 08:00;CYYG 300800Z 28014G27KT 15SM SCT036 M09/M16 A2999 RMK SC3 SLP160

CYYG;2012-11-30 09:00;CYYG 300900Z 27015G25KT 15SM BKN032 M10/M16 A3001 RMK SC5 SLP165

CYYG;2012-11-30 10:00;CYYG 301000Z 28015G28KT 15SM -SHSN BKN036 M10/M17 A3002 RMK SC6 SLP170

CYYG;2012-11-30 11:00;CYYG 301100Z 27012G24KT 15SM -SHSN BKN034 M10/M17 A3006 RMK SC7 SLP185

CYYG;2012-11-30 11:35;CYYG 301135Z 27013G20KT 15SM VCSH BKN028 BKN040 M11/M16 A3008 RMK SC6SC1 SN SHS ALQDS SLP191

CYYG;2012-11-30 12:00;CYYG 301200Z 28014G26KT 15SM BKN029 BKN040 M11/M17 A3009 RMK SC5SC1 SN SHS DIST N-E-SW SLP195

CYYG;2012-11-30 13:00;CYYG 301300Z 28014G25KT 15SM FEW029 SCT040 M11/M16 A3011 RMK SC2SC2 SN SHS DIST N-E SLP202

CYYG;2012-11-30 14:00;CYYG 301400Z 27016G26KT 15SM FEW027 BKN035 M10/M16 A3014 RMK CF1SC5 SN SHS ALQDS SLP211

CYYG;2012-11-30 15:00;CYYG 301500Z 28013G24KT 15SM FEW025 BKN032 M09/M15 A3016 RMK CF1SC6 SN SHS ALQDS SLP218

CYYG;2012-11-30 16:00;CYYG 301600Z 27014G23KT 15SM BKN028 M08/M14 A3018 RMK SC7 SN SHS ALQDS SLP224

CYYG;2012-11-30 17:00;CYYG 301700Z 28014G24KT 15SM BKN030 M08/M14 A3019 RMK SC7 SN SHS ALQDS SLP227

CYYG;2012-11-30 17:11;CYYG 301711Z 28014G25KT 15SM -SHSN BKN028 M07/M13 A3020 RMK SC7 SLP230

CYYG;2012-11-30 18:00;CYYG 301800Z 28013G25KT 15SM -SHSN BKN029 M07/M14 A3021 RMK SC7 PCPN VRY LGT SLP233

CYYG;2012-11-30 18:29;CYYG 301829Z 29014G23KT 15SM BKN033 M07/M14 A3022 RMK SC7 SN SHS DIST N-SE SLP237

CYYG;2012-11-30 19:00;CYYG 301900Z 28013G26KT 15SM BKN033 M07/M14 A3023 RMK SC6 SN SHS DIST N-SE SLP240

CYYG;2012-11-30 20:00;CYYG 302000Z 29012G21KT 15SM SCT032 M07/M14 A3025 RMK SC3 XTNSV SN SHS N-E SLP247

CYYG;2012-11-30 21:00;CYYG 302100Z 29012G20KT 15SM BKN035 M07/M14 A3027 RMK SC6 XTNSV SN SHS NW-E SLP255

CYYG;2012-11-30 22:00;CYYG 302200Z 29014G21KT 15SM -SHSN BKN042 M06/M13 A3029 RMK SC7 SLP263

CYYG;2012-11-30 23:00;CYYG 302300Z 29014G22KT 10SM -SHSN BKN045 M06/M11 A3032 RMK SC7 VIS LWR N-E SLP271

CYYG;2012-12-01 00:00;CYYG 010000Z 28014G21KT 10SM -SHSN BKN045 M06/M10 A3034 RMK SC7 SLP278

CYYG;2012-12-01 01:00;CYYG 010100Z 29013G22KT 6SM -SHSN SCT011 OVC030 M06/M09 A3035 RMK SC3SC5 SLP282

CYYG;2012-12-01 02:00;CYYG 010200Z 29016G24KT 15SM -SHSN SCT011 BKN040 M06/M10 A3037 RMK SC3NS4 SLP287

CYYG;2012-12-01 03:00;CYYG 010300Z 30011G19KT 15SM -SHSN BKN031 M06/M10 A3039 RMK SC7 SLP294

CYYG;2012-12-01 04:00;CYYG 010400Z 29012G20KT 15SM -SHSN BKN033 M06/M11 A3041 RMK NS7 SLP302

CYYG;2012-12-01 05:00;CYYG 010500Z 29010G16KT 15SM BKN033 M07/M11 A3042 RMK SC5 SLP307

CYYG;2012-12-01 06:00;CYYG 010600Z 28010G20KT 15SM SCT028 M07/M10 A3045 RMK SC4 SLP314

CYYG;2012-12-01 06:33;CYYG 010633Z 28012KT 10SM -SHSN BKN026 M07/M10 A3046 RMK SC7 SLP319

CYYG;2012-12-01 07:00;CYYG 010700Z 28010G16KT 10SM BKN028 M07/M10 A3047 RMK NS7 SLP322

CYYG;2012-12-01 08:00;CYYG 010800Z 27010G16KT 10SM -SHSN FEW015 OVC031 M07/M10 A3048 RMK SC2SC6 SLP327

CYYG;2012-12-01 09:00;CYYG 010900Z 28008G16KT 15SM -SHSN FEW015 OVC038 M07/M09 A3051 RMK SC2SC6 SLP335

CYYG;2012-12-01 10:00;CYYG 011000Z 27011G16KT 15SM FEW015 OVC030 M07/M10 A3053 RMK SC2SC6 SLP341

CYYG;2012-12-01 11:00;CYYG 011100Z 26010G18KT 15SM FEW015 BKN030 M08/M10 A3055 RMK SC2NS4 SLP348

CYYG;2012-12-01 11:37;CYYG 011137Z 26009G15KT 15SM FEW030 M08/M10 A3057 RMK SC2 SN SHS N-E SLP354

CYYG;2012-12-01 12:00;CYYG 011200Z 26009KT 15SM FEW030 SCT270 M08/M11 A3058 RMK SC2CI1 SN SHS N-E SLP358

CYYG;2012-12-01 13:00;CYYG 011300Z 27007KT 15SM VCSH FEW030 SCT270 M07/M10 A3060 RMK SC2CI2 SN SHS NW-E SLP365

CYYG;2012-12-01 14:00;CYYG 011400Z 27009KT 15SM VCSH FEW030 SCT270 M05/M10 A3062 RMK SC2CI2 SN SHS N-E SLP372

CYYG;2012-12-01 15:00;CYYG 011500Z 29011G16KT 15SM VCSH FEW030 BKN270 M04/M10 A3063 RMK SC2CI3 SN SHS NW-E SLP374

CYYG;2012-12-01 16:00;CYYG 011600Z 29011G16KT 15SM VCSH SCT030 BKN270 M04/M10 A3062 RMK SC4CI2 SN SHS N-E SLP371

CYYG;2012-12-01 16:04;CYYG 011604Z 28009G16KT 15SM -SHSN SCT030 BKN270 M04/M10 A3061 RMK SC4CI2 VIS N-E 5 SLP370

CYYG;2012-12-01 16:40;CYYG 011640Z 29011KT 15SM VCSH SCT030 SCT270 M03/M10 A3061 RMK SC3CI1 SN SHS N-E SLP369

CYYG;2012-12-01 17:00;CYYG 011700Z 30013KT 15SM VCSH SCT030 BKN270 M04/M11 A3061 RMK SC3CI2 SN SHS N-E SLP368

CYYG;2012-12-01 18:00;CYYG 011800Z 28011G16KT 15SM VCSH SCT003 BKN270 M04/M12 A3060 RMK SC3CI2 SN SHS N-E SLP366

CYYG;2012-12-01 19:00;CYYG 011900Z 28007KT 15SM VCSH SCT030 BKN270 M03/M12 A3061 RMK SC4CI2 SN SHS NE SLP370

CYYG;2012-12-01 20:00;CYYG 012000Z 27007KT 15SM FEW030 SCT270 M05/M11 A3064 RMK SC2CI2 SN SHS DIST ALQDS SLP379

CYYG;2012-12-01 21:00;CYYG 012100Z 26006KT 15SM FEW030 FEW270 M06/M11 A3066 RMK SC1CI1 SN SHS DIST NE SLP385

CYYG;2012-12-01 22:00;CYYG 012200Z 25006KT 15SM FEW030 M07/M11 A3066 RMK SC1 SLP388

CYYG;2012-12-01 23:00;CYYG 012300Z 24007KT 15SM SCT030 M07/M11 A3068 RMK SC3 SLP394

CYYG;2012-12-02 00:00;CYYG 020000Z 26006KT 15SM SCT030 M08/M12 A3069 RMK SC3 SLP398

CYYG;2012-12-02 01:00;CYYG 020100Z 26005KT 15SM FEW030 M08/M13 A3069 RMK SC2 SLP397

CYYG;2012-12-02 02:00;CYYG 020200Z 28004KT 15SM FEW030 M07/M13 A3069 RMK SC2 SLP396

CYYG;2012-12-02 03:00;CYYG 020300Z 26005KT 15SM FEW030 M08/M13 A3069 RMK SC2 SLP396

CYYG;2012-12-02 04:00;CYYG 020400Z 25004KT 15SM FEW030 M10/M14 A3068 RMK SC1 SLP392

CYYG;2012-12-02 05:00;CYYG 020500Z 25002KT 15SM FEW030 M12/M14 A3066 RMK SC1 SLP387

CYYG;2012-12-02 06:00;CYYG 020600Z 13002KT 15SM FEW030 M13/M14 A3066 RMK SC1 SLP385

CYYG;2012-12-02 07:00;CYYG 020700Z 12003KT 15SM FEW030 M10/M12 A3066 RMK SC1 SLP387

CYYG;2012-12-02 08:00;CYYG 020800Z 14005KT 15SM FEW030 M09/M10 A3064 RMK SC1 SLP381

CYYG;2012-12-02 09:00;CYYG 020900Z 18008KT 15SM FEW030 BKN074 M06/M09 A3063 RMK SC2AC3 SLP374

CYYG;2012-12-02 10:00;CYYG 021000Z 17014KT 15SM FEW030 BKN068 M04/M10 A3061 RMK NS2AC5 SLP369

CYYG;2012-12-02 11:00;CYYG 021100Z 18010KT 15SM FEW030 BKN051 M03/M10 A3060 RMK SC1SC6 SLP366

CYYG;2012-12-02 12:00;CYYG 021200Z 18010KT 15SM FEW025 BKN041 M03/M09 A3060 RMK SC1SC6 SLP365

CYYG;2012-12-02 13:00;CYYG 021300Z 18013KT 15SM FEW025 BKN045 M03/M09 A3058 RMK SC1SC6 SLP360

CYYG;2012-12-02 14:00;CYYG 021400Z 18012KT 15SM FEW025 BKN045 BKN060 M02/M08 A3056 RMK SC1SC4SC2 SLP352

CYYG;2012-12-02 16:00;CYYG 021600Z 17016KT 15SM FEW025 FEW040 OVC078 00/M06 A3050 RMK SC1SC1AC6 SLP332

CYYG;2012-12-02 17:00;CYYG 021700Z 19020G25KT 15SM FEW025 SCT050 OVC078 01/M06 A3045 RMK SC1SC3AC4 SLP317

CYYG;2012-12-02 18:00;CYYG 021800Z 18016G23KT 15SM FEW025 SCT034 OVC070 01/M05 A3043 RMK SC1SC3AC4 SN SHS DIST W-N SLP307

CYYG;2012-12-02 18:24;CYYG 021824Z 18017G25KT 12SM -SHSN OVC035 01/M05 A3041 RMK SC8 VIS W 6 SLP300

CYYG;2012-12-02 19:00;CYYG 021900Z 18019G26KT 4SM -SHSN VV020 01/M03 A3039 RMK SN8 SLP294

CYYG;2012-12-02 19:38;CYYG 021938Z 17017G23KT 15SM -SHRA FEW030 OVC068 01/M02 A3037 RMK SC2AC6 PCPN VRY LGT SLP286

CYYG;2012-12-02 20:00;CYYG 022000Z 17017G25KT 15SM -SHRA FEW030 BKN043 OVC062 02/M02 A3036 RMK SC1SC4SC3 PCPN VRY LGT SLP285

CYYG;2012-12-02 21:00;CYYG 022100Z 17020G25KT 12SM -SHRA FEW030 OVC062 02/M01 A3033 RMK SC2SC6 SLP273

CYYG;2012-12-02 22:00;CYYG 022200Z 17018G25KT 12SM -SHRA FEW030 BKN056 OVC110 03/M00 A3030 RMK SC1SC6AC1 SLP265

CYYG;2012-12-02 22:24;CYYG 022224Z 17018G23KT 15SM FEW030 BKN053 OVC110 03/M00 A3029 RMK SC1SC6AC1 SLP260

CYYG;2012-12-02 23:00;CYYG 022300Z 17019G25KT 15SM -SHRA FEW022 BKN050 OVC090 04/00 A3027 RMK SC2SC5AC1 SLP255

CYYG;2012-12-03 00:00;CYYG 030000Z 17015G21KT 15SM -SHRA FEW020 OVC055 04/02 A3025 RMK SC2SC6 SLP247

CYYG;2012-12-03 01:00;CYYG 030100Z 17016G22KT 15SM -SHRA FEW020 OVC042 04/03 A3023 RMK SC2SC6 SLP240

CYYG;2012-12-03 02:00;CYYG 030200Z 17013G19KT 15SM FEW020 OVC046 05/03 A3019 RMK SC2SC6 SLP225

CYYG;2012-12-03 02:43;CYYG 030243Z 17016G21KT 15SM FEW020 SCT035 OVC046 05/03 A3016 RMK SC2SC2SC4 SLP215

CYYG;2012-12-03 03:00;CYYG 030300Z 17014G20KT 15SM FEW020 SCT035 OVC048 05/03 A3015 RMK SC2SC2SC4 SLP213

CYYG;2012-12-03 03:43;CYYG 030343Z 17018G25KT 10SM -RA BKN020 OVC045 05/03 A3013 RMK SC6SC2 SLP205

CYYG;2012-12-03 04:00;CYYG 030400Z 16021KT 10SM -RA OVC019 05/04 A3011 RMK SC8 PRESFR SLP200

CYYG;2012-12-03 05:00;CYYG 030500Z 16018KT 10SM -RA OVC016 05/04 A3006 RMK SC8 SLP183

CYYG;2012-12-03 06:00;CYYG 030600Z 17021G27KT 10SM -RA OVC015 06/05 A3004 RMK SC8 SLP174

CYYG;2012-12-03 07:00;CYYG 030700Z 17020G30KT 10SM -RA OVC014 07/06 A3001 RMK SC8 SLP164

CYYG;2012-12-03 08:00;CYYG 030800Z 18021G29KT 8SM -RA OVC010 07/06 A2999 RMK SC8 SLP157

CYYG;2012-12-03 09:00;CYYG 030900Z 17020G29KT 10SM -RA FEW008 SCT020 OVC060 08/07 A2995 RMK SF1SC3SC4 SLP143

CYYG;2012-12-03 10:00;CYYG 031000Z 17020G29KT 10SM -RA FEW006 SCT015 OVC044 08/08 A2992 RMK SF1SC2SC5 SLP133

CYYG;2012-12-03 11:00;CYYG 031100Z 18019G24KT 12SM -RA OVC022 08/08 A2990 WS RWY21 RMK SC8 SLP127

CYYG;2012-12-03 11:24;CYYG 031124Z 18018G26KT 6SM RA BR OVC022 09/08 A2991 RMK SC8 SLP129

CYYG;2012-12-03 11:42;CYYG 031142Z 19015G20KT 8SM FEW008 OVC020 09/09 A2992 RMK SF2SC6 SLP134

CYYG;2012-12-03 12:00;CYYG 031200Z 19013KT 10SM -RA BKN007 OVC020 09/08 A2993 RERA RMK SF5SC3 SLP137

CYYG;2012-12-03 12:55;CYYG 031255Z 21010KT 15SM -RA FEW007 OVC015 09/09 A2994 RMK SF2SC6 SLP139

CYYG;2012-12-03 13:00;CYYG 031300Z 21010G16KT 15SM -RA FEW007 OVC014 09/09 A2994 RMK SF2SC6 SLP139

CYYG;2012-12-03 13:34;CYYG 031334Z 21007KT 15SM -RA BKN006 OVC012 09/09 A2994 RMK SF6SC2 SLP140

CYYG;2012-12-03 14:00;CYYG 031400Z 21008KT 15SM -RA BKN004 OVC012 09/09 A2994 RMK SF5SC3 SLP139

CYYG;2012-12-03 15:00;CYYG 031500Z 21005KT 10SM -RA BKN003 OVC010 09/09 A2993 RMK SF6SC2 SLP138

CYYG;2012-12-03 16:00;CYYG 031600Z 21004KT 2SM -RA BR OVC003 08/08 A2992 RMK SF8 SLP134

CYYG;2012-12-03 16:44;CYYG 031644Z 21005KT 1SM R03/5500VP6000FT/D -RA BR BKN002 OVC008 08/08 A2991 RMK SF6SF2 SLP131

CYYG;2012-12-03 17:00;CYYG 031700Z 23005KT 1SM R03/P6000FT/U -RA BR BKN002 OVC008 08/08 A2991 RMK SF5SF3 SLP131

CYYG;2012-12-03 17:39;CYYG 031739Z 22004KT 3SM -RA BR FEW002 BKN006 OVC022 09/09 A2991 RMK SF2SF4SC2 SLP131

CYYG;2012-12-03 18:00;CYYG 031800Z 24006KT 3SM -RA BR BKN003 OVC025 09/09 A2992 RMK SF6SC2 SLP132

CYYG;2012-12-03 18:22;CYYG 031822Z 25005KT 3SM BR SCT003 OVC016 09/09 A2992 RMK SF4SC4 SLP133

CYYG;2012-12-03 19:00;CYYG 031900Z 28007KT 10SM FEW003 BKN006 OVC018 09/09 A2993 RMK SF2SF3SC3 SLP138

CYYG;2012-12-03 20:00;CYYG 032000Z 31006KT 15SM FEW003 SCT006 OVC025 08/07 A2997 RMK SF1SF2SC5 SLP150

CYYG;2012-12-03 21:00;CYYG 032100Z 33009KT 15SM FEW006 OVC017 06/05 A3000 RMK SF2SC6 SLP162

CYYG;2012-12-03 22:00;CYYG 032200Z 33008KT 15SM FEW008 OVC019 05/04 A3004 RMK SF2SC6 SLP176

CYYG;2012-12-03 23:00;CYYG 032300Z 31009KT 15SM FEW007 BKN012 OVC037 04/04 A3009 RMK SF1SC5SC2 SLP190

CYYG;2012-12-03 23:37;CYYG 032337Z 33010KT 15SM BKN009 OVC028 04/04 A3010 RMK SF6SC2 SLP196

CYYG;2012-12-04 00:00;CYYG 040000Z 32007KT 15SM BKN008 OVC030 04/04 A3012 RMK SF5SC3 SLP201

CYYG;2012-12-04 00:30;CYYG 040030Z 33007KT 10SM -DZ BKN012 OVC030 04/04 A3013 RMK SC5SC3 SLP206

CYYG;2012-12-04 01:00;CYYG 040100Z 33007KT 10SM -DZ OVC009 04/03 A3014 RMK SF8 SLP210

CYYG;2012-12-04 02:00;CYYG 040200Z 35007KT 12SM -DZ OVC013 03/02 A3017 RMK SC8 SLP218

CYYG;2012-12-04 03:00;CYYG 040300Z 35005KT 12SM OVC011 03/02 A3019 RMK SC8 SLP224

CYYG;2012-12-04 04:00;CYYG 040400Z 36008KT 12SM -DZ BKN009 OVC016 02/01 A3021 RMK SF5SC3 SLP230

CYYG;2012-12-04 04:41;CYYG 040441Z 36006KT 15SM OVC014 02/01 A3021 RMK SC8 SLP233

CYYG;2012-12-04 05:00;CYYG 040500Z 01009KT 15SM OVC013 02/01 A3022 RMK SC8 SLP236

CYYG;2012-12-04 05:26;CYYG 040526Z 36006KT 15SM OVC013 02/01 A3022 RMK SC8 SLP237

CYYG;2012-12-04 06:00;CYYG 040600Z 36007KT 15SM OVC016 02/01 A3024 RMK SC8 SLP243

CYYG;2012-12-04 07:00;CYYG 040700Z 35003KT 15SM OVC018 02/00 A3026 RMK SC8 SLP248

CYYG;2012-12-04 08:00;CYYG 040800Z 32004KT 15SM BKN018 01/M00 A3027 RMK SC6 PRESRR SLP253

CYYG;2012-12-04 09:00;CYYG 040900Z 32004KT 15SM BKN016 02/00 A3029 RMK SC7 SLP258

CYYG;2012-12-04 10:00;CYYG 041000Z 35003KT 15SM OVC017 02/M00 A3030 RMK SC8 SLP263

CYYG;2012-12-04 11:00;CYYG 041100Z 00000KT 15SM OVC016 02/M00 A3032 RMK SC8 SLP268

CYYG;2012-12-04 12:00;CYYG 041200Z 31003KT 15SM OVC016 02/M00 A3033 RMK SC8 SLP272

CYYG;2012-12-04 13:00;CYYG 041300Z 00000KT 15SM OVC016 02/M00 A3033 RMK SC8 SLP273

CYYG;2012-12-04 14:00;CYYG 041400Z 03004KT 020V080 15SM OVC014 03/M00 A3031 RMK SC8 SLP266

CYYG;2012-12-04 15:00;CYYG 041500Z 00000KT 15SM OVC014 03/M00 A3032 RMK SC8 SLP270

CYYG;2012-12-04 16:00;CYYG 041600Z 00000KT 15SM OVC013 02/M01 A3031 RMK SC8 SLP266

CYYG;2012-12-04 17:00;CYYG 041700Z 17008KT 15SM OVC012 02/M00 A3027 RMK SC8 PRESFR SLP251

CYYG;2012-12-04 18:00;CYYG 041800Z 20007KT 15SM OVC011 02/M00 A3026 RMK SC8 SLP248

CYYG;2012-12-04 19:00;CYYG 041900Z 20008KT 15SM OVC010 02/00 A3025 RMK SC8 SLP247

CYYG;2012-12-04 20:00;CYYG 042000Z 21007KT 15SM OVC009 02/01 A3025 RMK SF8 SLP245

CYYG;2012-12-04 21:00;CYYG 042100Z 21011KT 15SM OVC005 02/01 A3025 RMK SF8 SLP246

CYYG;2012-12-04 22:00;CYYG 042200Z 18009KT 15SM OVC006 02/01 A3024 RMK SF8 SLP242

CYYG;2012-12-04 23:00;CYYG 042300Z 18012KT 15SM BKN006 OVC011 02/02 A3021 RMK SF5SC3 SLP232

CYYG;2012-12-05 00:00;CYYG 050000Z 19012G18KT 15SM FEW006 OVC014 03/02 A3019 RMK SF2SC6 SLP227

CYYG;2012-12-05 01:00;CYYG 050100Z 19009G16KT 15SM FEW006 OVC014 03/02 A3019 RMK SF2SC6 SLP225

CYYG;2012-12-05 02:00;CYYG 050200Z 17012KT 15SM OVC013 03/02 A3016 RMK SC8 SLP216

CYYG;2012-12-05 03:00;CYYG 050300Z 17012G18KT 15SM OVC011 03/02 A3012 RMK SC8 SLP202

CYYG;2012-12-05 04:00;CYYG 050400Z 17012G19KT 15SM 03/02 A3010 RMK SLP196

CYYG;2012-12-05 04:32;CYYG 050432Z 17016KT 15SM OVC008 03/02 A3008 RMK SF8 SLP189

CYYG;2012-12-05 05:00;CYYG 050500Z 17013G18KT 15SM OVC006 03/02 A3007 RMK SF8 SLP186

CYYG;2012-12-05 06:00;CYYG 050600Z 18010G16KT 15SM SCT008 OVC029 03/02 A3006 RMK SF4SC4 SLP181

CYYG;2012-12-05 06:18;CYYG 050618Z 17011KT 15SM BKN008 OVC029 03/02 A3005 RMK SF5SC3 SLP180

CYYG;2012-12-05 07:00;CYYG 050700Z 18013KT 15SM SCT008 OVC036 03/02 A3002 RMK SF3SC5 SLP169

CYYG;2012-12-05 08:00;CYYG 050800Z 18018G23KT 15SM BKN011 OVC034 04/02 A2999 RMK SC5SC3 SLP157

CYYG;2012-12-05 09:00;CYYG 050900Z 18018G25KT 15SM OVC008 04/03 A2997 RMK SF8 SLP151

CYYG;2012-12-05 10:00;CYYG 051000Z 18016KT 15SM OVC010 05/03 A2994 RMK SF8 SLP140

CYYG;2012-12-05 11:00;CYYG 051100Z 17017G23KT 15SM SCT009 BKN023 OVC100 05/04 A2991 RMK SF4SC3AC1 SLP131

CYYG;2012-12-05 12:00;CYYG 051200Z 17015G22KT 15SM FEW009 BKN030 OVC100 06/05 A2989 RMK SF1SC5AC2 SLP124

CYYG;2012-12-05 13:00;CYYG 051300Z 17015KT 15SM OVC032 06/05 A2986 RMK SC8 SLP115

CYYG;2012-12-05 13:21;CYYG 051321Z 16014KT 15SM BKN032 OVC090 07/05 A2985 RMK SC7AC1 SLP111

CYYG;2012-12-05 14:00;CYYG 051400Z 18013G21KT 15SM BKN032 OVC075 07/06 A2984 RMK SC7AC1 SLP106

CYYG;2012-12-05 15:00;CYYG 051500Z 17016KT 15SM -SHRA BR SCT011 OVC030 07/06 A2981 RMK SC4SC4 SLP096

CYYG;2012-12-05 16:00;CYYG 051600Z 18015G22KT 15SM -SHRA BKN009 OVC023 08/07 A2976 RMK SF5SC3 SLP079

CYYG;2012-12-05 16:42;CYYG 051642Z 17017G22KT 15SM -SHRA SCT009 BKN023 OVC058 08/07 A2972 RMK SF3SC3SC2 PRESFR SLP065

CYYG;2012-12-05 17:00;CYYG 051700Z 17021G27KT 15SM FEW009 SCT023 OVC070 08/07 A2970 RMK SF2SC2AC4 PRESFR SLP060

CYYG;2012-12-05 18:00;CYYG 051800Z 18018G24KT 15SM FEW009 OVC015 08/07 A2967 RMK SF1SC7 PRESFR SLP048

CYYG;2012-12-05 19:00;CYYG 051900Z 18020G28KT 3SM -SHRA BR OVC010 09/08 A2964 RMK SC8 SLP038

CYYG;2012-12-05 19:23;CYYG 051923Z 18017G25KT 3SM -SHRA BR FEW004 OVC008 09/08 A2964 RMK SF2SF6 SLP038

CYYG;2012-12-05 20:00;CYYG 052000Z 20011G18KT 2SM -SHRA BR BKN003 OVC008 09/09 A2965 RMK SF6SF2 SLP043

CYYG;2012-12-05 20:52;CYYG 052052Z 28005KT 10SM -SHRA SCT003 OVC030 08/08 A2967 RMK SF3SC5 WSHFT 2002 SLP049

CYYG;2012-12-05 21:00;CYYG 052100Z 27006KT 12SM -SHRA FEW003 OVC030 08/08 A2967 RMK SF2SC6 SLP050

CYYG;2012-12-05 22:00;CYYG 052200Z 27006KT 15SM -SHRA FEW005 OVC040 08/07 A2969 RMK SF2SC6 SLP056

CYYG;2012-12-05 23:00;CYYG 052300Z 27006KT 15SM FEW005 OVC055 07/06 A2969 RMK SF1SC7 SLP057

CYYG;2012-12-06 00:00;CYYG 060000Z 26008KT 15SM BKN030 OVC045 07/04 A2971 RMK SC6SC2 SLP062

CYYG;2012-12-06 01:00;CYYG 060100Z 26008KT 15SM SCT055 BKN240 05/02 A2970 RMK SC3CI4 SLP061

CYYG;2012-12-06 02:00;CYYG 060200Z 28011KT 15SM FEW058 BKN230 04/01 A2971 RMK SC2CI5 SLP063

CYYG;2012-12-06 02:51;CYYG 060251Z 30010KT 15SM BKN013 OVC230 04/02 A2971 RMK SC6CI2 SLP063

CYYG;2012-12-06 03:00;CYYG 060300Z 30011G16KT 15SM BKN013 BKN230 04/02 A2971 RMK SC6CI1 SLP064

CYYG;2012-12-06 03:32;CYYG 060332Z 30013G20KT 15SM FEW016 BKN240 03/M00 A2972 RMK SC2CI5 SLP067

CYYG;2012-12-06 04:00;CYYG 060400Z 30013G21KT 15SM FEW016 BKN240 02/M01 A2973 RMK SC2CI5 SLP069

CYYG;2012-12-06 04:41;CYYG 060441Z 29009G21KT 15SM OVC018 02/M00 A2974 RMK SC8 SLP073

CYYG;2012-12-06 05:00;CYYG 060500Z 30011G18KT 15SM OVC019 02/M01 A2974 RMK SC8 SLP073

CYYG;2012-12-06 05:39;CYYG 060539Z 30010G20KT 4SM -SHSN OVC019 01/M01 A2974 RMK SC8 SLP074

CYYG;2012-12-06 06:00;CYYG 060600Z 29009G15KT 4SM -SHSN SCT012 BKN022 01/M01 A2975 RMK SC4SC3 SLP077

CYYG;2012-12-06 06:41;CYYG 060641Z 30012KT 15SM BKN020 BKN063 00/M02 A2977 RMK SC6SC1 SLP082

CYYG;2012-12-06 07:00;CYYG 060700Z 29015G21KT 15SM BKN020 OVC063 00/M03 A2977 RMK SC7SC1 SLP084

CYYG;2012-12-06 08:00;CYYG 060800Z 28014G20KT 15SM OVC024 M01/M04 A2978 RMK SC8 SLP088

CYYG;2012-12-06 09:00;CYYG 060900Z 28010G16KT 15SM OVC025 M01/M05 A2980 RMK SC8 SLP093

CYYG;2012-12-06 10:00;CYYG 061000Z 28009G17KT 15SM OVC025 M01/M05 A2982 RMK SC8 SLP099

CYYG;2012-12-06 10:50;CYYG 061050Z 29009G17KT 7SM -SHSN BKN018 OVC027 M01/M04 A2983 RMK SC5SC3 SLP104

CYYG;2012-12-06 11:00;CYYG 061100Z 30012KT 3SM -SHSN BKN020 OVC030 M01/M03 A2983 RMK NS6SC2 SLP105

CYYG;2012-12-06 11:33;CYYG 061133Z 29006KT 1 1/2SM -SHSN SCT004 OVC014 M01/M02 A2984 RMK SF4SC4 SLP108

CYYG;2012-12-06 12:00;CYYG 061200Z CCA 31009KT 1 1/2SM -SHSN OVC007 M01/M01 A2985 RMK SF8 SLP111

CYYG;2012-12-06 13:00;CYYG 061300Z 31015G22KT 1 1/2SM -SHSN OVC010 M01/M01 A2988 RMK ST8 SLP122

CYYG;2012-12-06 13:10;CYYG 061310Z 31013G21KT 5SM -SHSN BKN010 OVC025 M00/M02 A2989 RMK SF5SC3 SLP123

CYYG;2012-12-06 13:20;CYYG 061320Z 31012G20KT 15SM -SHSN BKN020 OVC030 M00/M02 A2989 RMK SC5SC3 SLP124

CYYG;2012-12-06 14:00;CYYG 061400Z 32013G27KT 15SM -SHSN BKN023 M00/M03 A2991 RMK NS6 SLP131

CYYG;2012-12-06 15:00;CYYG 061500Z 31017G28KT 15SM -SHSN OVC022 M01/M04 A2994 RMK SC8 SLP141

CYYG;2012-12-06 15:20;CYYG 061520Z 32013G28KT 15SM OVC022 M01/M04 A2995 RMK NS8 SLP143

CYYG;2012-12-06 16:00;CYYG 061600Z 32015G25KT 15SM OVC025 M01/M05 A2996 RMK SC8 SLP147

CYYG;2012-12-06 16:45;CYYG 061645Z 31018G26KT 15SM -SHSN OVC023 M02/M06 A2996 RMK SC8 SLP150

CYYG;2012-12-06 17:00;CYYG 061700Z 32016G23KT 15SM -SHSN OVC024 M02/M06 A2997 RMK SC8 SLP153

CYYG;2012-12-06 18:00;CYYG 061800Z 32017G29KT 15SM -SHSN OVC026 M02/M06 A2999 RMK SC8 SLP159

CYYG;2012-12-06 18:43;CYYG 061843Z 32018G27KT 15SM OVC026 M02/M06 A3001 RMK SC8 SLP166

CYYG;2012-12-06 19:00;CYYG 061900Z 33011G24KT 15SM OVC026 M02/M06 A3002 RMK SC8 SLP168

CYYG;2012-12-06 20:00;CYYG 062000Z 33013G24KT 15SM OVC027 M01/M06 A3005 RMK NS8 SLP179

CYYG;2012-12-06 21:00;CYYG 062100Z 32015G21KT 15SM OVC027 M01/M05 A3008 RMK SC8 SLP188

CYYG;2012-12-06 22:00;CYYG 062200Z 33013G24KT 15SM OVC026 M01/M05 A3009 RMK SC8 SLP193

CYYG;2012-12-06 23:00;CYYG 062300Z 32015G21KT 15SM OVC024 M01/M05 A3011 RMK SC8 SLP201

CYYG;2012-12-07 00:00;CYYG 070000Z 32011G17KT 12SM -SHSN OVC024 M01/M05 A3014 RMK SC8 SLP208

CYYG;2012-12-07 01:00;CYYG 070100Z 32010G20KT 15SM -SHSN OVC023 M01/M05 A3015 RMK SC8 SLP213

CYYG;2012-12-07 01:47;CYYG 070147Z 33011G17KT 15SM OVC025 M01/M05 A3015 RMK SC8 SLP213

CYYG;2012-12-07 02:00;CYYG 070200Z 32012G18KT 15SM OVC025 M01/M05 A3016 RMK SC8 SLP216

CYYG;2012-12-07 03:00;CYYG 070300Z 33009G18KT 15SM OVC025 M01/M05 A3016 RMK SC8 SLP215

CYYG;2012-12-07 04:00;CYYG 070400Z 32007G15KT 15SM OVC026 M01/M05 A3016 RMK SC8 SLP218

CYYG;2012-12-07 05:00;CYYG 070500Z 35009G15KT 15SM BKN026 M01/M06 A3016 RMK SC7 SLP217

CYYG;2012-12-07 06:00;CYYG 070600Z 31008G17KT 15SM BKN026 M01/M05 A3018 RMK SC7 SLP223

CYYG;2012-12-07 07:00;CYYG 070700Z 28006KT 15SM BKN026 M01/M05 A3021 RMK SC7 SLP233

CYYG;2012-12-07 08:00;CYYG 070800Z 29009KT 15SM BKN024 M02/M05 A3021 RMK SC7 SLP233

CYYG;2012-12-07 09:00;CYYG 070900Z 30006KT 15SM SCT020 M03/M06 A3020 RMK SC4 SLP231

CYYG;2012-12-07 10:00;CYYG 071000Z 30006KT 15SM SCT018 OVC250 M03/M05 A3020 RMK SC4CI4 SLP230

CYYG;2012-12-07 11:00;CYYG 071100Z CCA 28004KT 15SM SCT017 BKN170 BKN250 M03/M05 A3022 RMK SC4AC2CI1 SLP235

CYYG;2012-12-07 12:00;CYYG 071200Z 27004KT 15SM SCT020 BKN160 BKN250 M04/M06 A3023 RMK SC4AC2CC1 SLP239

CYYG;2012-12-07 13:00;CYYG 071300Z 27004KT 15SM FEW020 SCT160 BKN250 M03/M05 A3022 RMK SC2AC2CI1 SLP236

CYYG;2012-12-07 14:00;CYYG 071400Z 26004KT 15SM SCT018 SCT160 BKN250 M02/M04 A3022 RMK SC3AC1CC1 SLP235

CYYG;2012-12-07 15:00;CYYG 071500Z 26006KT 15SM BKN019 M01/M03 A3022 RMK SC7 SLP235

CYYG;2012-12-07 16:00;CYYG 071600Z 26008KT 15SM BKN017 M01/M04 A3020 RMK SC7 SLP230

CYYG;2012-12-07 17:00;CYYG 071700Z 29003KT 240V300 15SM BKN017 BKN250 M01/M04 A3017 RMK SC5CI2 SLP220

CYYG;2012-12-07 18:00;CYYG 071800Z 22005KT 15SM SCT013 SCT170 BKN250 M01/M04 A3016 RMK SC3AC1CC3 SLP216

CYYG;2012-12-07 19:00;CYYG 071900Z 19007KT 15SM FEW015 FEW170 BKN250 M01/M04 A3016 RMK SC1AC1CI5 SLP215

CYYG;2012-12-07 20:00;CYYG 072000Z 21007KT 15SM FEW015 SCT120 BKN250 M01/M04 A3016 RMK SC1AC3CI3 SLP217

CYYG;2012-12-07 21:00;CYYG 072100Z 21005KT 15SM BKN120 BKN250 M02/M04 A3016 RMK AC5CI2 SLP218

CYYG;2012-12-07 22:00;CYYG 072200Z 20004KT 15SM BKN100 BKN250 M02/M04 A3016 RMK AC5CI2 SLP215

CYYG;2012-12-07 23:00;CYYG 072300Z 20006KT 15SM FEW100 SCT250 M02/M04 A3015 RMK AC2CC2 SLP213

CYYG;2012-12-08 00:00;CYYG 080000Z 18008KT 15SM BKN250 M02/M04 A3014 RMK CI7 SLP209

CYYG;2012-12-08 01:00;CYYG 080100Z 19007KT 15SM BKN250 M01/M04 A3012 RMK CI7 FROIN SLP203

CYYG;2012-12-08 02:00;CYYG 080200Z 19005KT 15SM SCT250 M01/M02 A3012 RMK CI4 FROIN SLP202

CYYG;2012-12-08 03:00;CYYG 080300Z 19007KT 15SM BKN250 M01/M02 A3011 RMK CI6 FROIN SLP198

CYYG;2012-12-08 04:00;CYYG 080400Z CCA 19006KT 15SM SCT150 BKN250 M01/M03 A3010 RMK AC3CI3 FROIN SLP195

CYYG;2012-12-08 05:00;CYYG 080500Z 18008KT 15SM FEW025 FEW150 OVC250 M00/M02 A3009 RMK SC1AC1CI6 FROIN SLP191

CYYG;2012-12-08 06:00;CYYG 080600Z 19007KT 15SM OVC250 M00/M02 A3009 RMK CI8 FROIN SLP190

CYYG;2012-12-08 07:00;CYYG 080700Z 19005KT 15SM BKN035 OVC140 01/M01 A3009 RMK SC6AC2 SLP190

CYYG;2012-12-08 08:00;CYYG 080800Z 19004KT 15SM OVC022 01/M00 A3008 RMK SC8 SLP189

CYYG;2012-12-08 08:53;CYYG 080853Z 17005KT 15SM -SHRA FEW021 OVC055 01/M00 A3008 RMK SC2SC6 SLP189

CYYG;2012-12-08 09:00;CYYG 080900Z 16005KT 15SM -SHRA FEW021 SCT031 OVC050 01/00 A3008 RMK SC2SC1SC5 SLP189

CYYG;2012-12-08 10:00;CYYG 081000Z 20007KT 12SM -SHRA FEW010 SCT025 OVC055 02/01 A3008 RMK SC2SC2SC4 SLP187

CYYG;2012-12-08 10:36;CYYG 081036Z 20007KT 15SM FEW010 OVC060 02/01 A3008 RMK SC2SC6 SLP187

CYYG;2012-12-08 11:00;CYYG 081100Z 20006KT 15SM FEW010 BKN045 OVC060 02/01 A3008 RMK SC1SC4SC3 SLP188

CYYG;2012-12-08 12:00;CYYG 081200Z 20006KT 15SM BKN027 OVC045 03/01 A3008 RMK SC5SC3 SLP189

CYYG;2012-12-08 12:41;CYYG 081241Z 20006KT 10SM -SHRA BKN005 OVC025 03/02 A3009 RMK ST6SC2 SLP191

CYYG;2012-12-08 12:48;CYYG 081248Z 20006KT 5SM -SHRA BR OVC008 03/03 A3009 RMK ST8 SLP191

CYYG;2012-12-08 13:00;CYYG 081300Z 20006KT 5SM -SHRA BR OVC007 03/03 A3009 RMK SF8 SLP191

CYYG;2012-12-08 13:26;CYYG 081326Z 18006KT 10SM -DZ OVC008 03/03 A3009 RMK SF8 SLP191

CYYG;2012-12-08 14:00;CYYG 081400Z 21004KT 15SM OVC011 04/03 A3009 RMK SF8 SLP193

CYYG;2012-12-08 15:00;CYYG 081500Z 21005KT 15SM OVC009 05/04 A3009 RMK SF8 SLP191

CYYG;2012-12-08 16:00;CYYG 081600Z 18004KT 15SM OVC008 05/04 A3007 RMK ST8 SLP185

CYYG;2012-12-08 17:00;CYYG 081700Z 17005KT 15SM OVC010 05/04 A3005 RMK SF8 SLP179

CYYG;2012-12-08 18:00;CYYG 081800Z 13003KT 2SM -DZ BR BKN004 OVC010 04/04 A3003 RMK SF7SC1 SLP173

CYYG;2012-12-08 19:00;CYYG 081900Z 11005KT 3/4SM R03/P6000FT/D -DZ BR OVC004 05/05 A3002 RMK SF8 SLP169

CYYG;2012-12-08 20:00;CYYG 082000Z 09004KT 2SM -DZ BR OVC002 04/04 A3002 RMK SF8 SLP168

CYYG;2012-12-08 20:12;CYYG 082012Z 10004KT 5SM -DZ BR OVC008 04/04 A3002 RMK SF8 SLP167

CYYG;2012-12-08 21:00;CYYG 082100Z 09005KT 5SM -RA BR BKN004 OVC011 04/04 A3000 RMK SF7SC1 SLP162

CYYG;2012-12-08 22:00;CYYG 082200Z 10004KT 4SM -RA BR BKN003 OVC010 05/05 A3000 RMK SF6ST2 SLP160

CYYG;2012-12-08 23:00;CYYG 082300Z 09005KT 4SM -RA BR OVC003 05/05 A2999 RMK SF8 SLP157

CYYG;2012-12-09 00:00;CYYG 090000Z 08006KT 4SM -RA BR BKN003 OVC012 05/05 A2996 RMK SF5SC3 SLP148

CYYG;2012-12-09 01:00;CYYG 090100Z 11007KT 6SM -RA BR BKN003 OVC010 05/05 A2992 RMK SF6SC2 SLP135

CYYG;2012-12-09 02:00;CYYG 090200Z 12007KT 15SM -RA BKN003 OVC009 05/05 A2988 RMK SF5SF3 SLP121

CYYG;2012-12-09 03:00;CYYG 090300Z 10007KT 3SM -RA BR OVC002 06/06 A2984 RMK SF8 SLP106

CYYG;2012-12-09 04:00;CYYG 090400Z 12006KT 2SM -RA BR OVC002 06/06 A2980 RMK SF8 SLP094

CYYG;2012-12-09 05:00;CYYG 090500Z 12004KT 1SM R03/5500VP6000FT/D -RA BR OVC002 07/07 A2978 RMK SF8 SLP085

CYYG;2012-12-09 06:00;CYYG 090600Z 17009KT 1SM R03/P6000FT/N -RA BR OVC002 08/08 A2975 RMK SF8 SLP078

CYYG;2012-12-09 07:50;CYYG 090750Z 21005KT 5/8SM R03/4500FT/N -RA BR OVC002 07/07 A2975 RMK SF8 SLP075

CYYG;2012-12-09 08:00;CYYG 090800Z 21006KT 5/8SM R03/3500V5000FT/U -RA BR OVC002 08/08 A2975 RMK ST8 SLP075

CYYG;2012-12-09 09:00;CYYG 090900Z 25012G17KT 3SM BR OVC004 07/07 A2976 RMK SF8 SLP080

CYYG;2012-12-09 10:00;CYYG 091000Z 25010G16KT 15SM BKN006 OVC030 06/06 A2978 RMK SF5SC3 SLP088

CYYG;2012-12-09 11:00;CYYG 091100Z 25011KT 15SM OVC006 06/06 A2981 RMK SF8 SLP096

CYYG;2012-12-09 12:00;CYYG 091200Z 25020G28KT 15SM BKN008 05/04 A2984 RMK SF7 SLP107

CYYG;2012-12-09 12:26;CYYG 091226Z 27017G29KT 15SM BKN011 04/03 A2985 RMK SC7 SLP112

CYYG;2012-12-09 13:00;CYYG 091300Z 26017G24KT 15SM SCT013 SCT030 BKN250 05/03 A2988 RMK SF3SC1CI2 SLP118

CYYG;2012-12-09 14:00;CYYG 091400Z 27011G25KT 15SM FEW020 BKN027 05/02 A2991 RMK SF2SC5 SLP132

CYYG;2012-12-09 15:00;CYYG 091500Z 27018G27KT 15SM BKN022 BKN027 04/01 A2993 RMK SC5SC2 SLP139

CYYG;2012-12-09 16:00;CYYG 091600Z 29017G27KT 15SM BKN025 04/M01 A2996 RMK SC6 SLP147

CYYG;2012-12-09 17:00;CYYG 091700Z 29018G28KT 15SM SCT025 04/M02 A2998 RMK SC4 SLP156

CYYG;2012-12-09 18:00;CYYG 091800Z 29012G21KT 15SM SCT028 04/M02 A3002 RMK SC3 SLP168

CYYG;2012-12-09 19:00;CYYG 091900Z 28013G22KT 15SM FEW030 FEW250 04/M03 A3005 RMK CF1CI1 SLP177

CYYG;2012-12-09 20:00;CYYG 092000Z 28009KT 15SM FEW030 FEW250 03/M03 A3008 RMK CF1CI1 SLP187

CYYG;2012-12-09 21:00;CYYG 092100Z 26005KT 15SM FEW030 FEW250 01/M03 A3011 RMK CF1CI1 PRESRR SLP197

CYYG;2012-12-09 22:00;CYYG 092200Z 27007KT 15SM FEW250 01/M03 A3011 RMK CI2 SLP201

CYYG;2012-12-09 23:00;CYYG 092300Z 28013G22KT 15SM FEW250 02/M05 A3016 RMK CI2 PRESRR SLP216

CYYG;2012-12-10 00:00;CYYG 100000Z 28011G18KT 15SM FEW250 01/M06 A3020 RMK CI2 SLP230

CYYG;2012-12-10 01:00;CYYG 100100Z 30009G19KT 15SM FEW250 M01/M07 A3023 RMK CI1 SLP238

CYYG;2012-12-10 02:00;CYYG 100200Z 31006KT 15SM FEW250 M02/M08 A3024 RMK CI1 SLP243

CYYG;2012-12-10 03:00;CYYG 100300Z 30007KT 15SM FEW250 M03/M09 A3025 RMK CI1 SLP247

CYYG;2012-12-10 04:00;CYYG 100400Z 27005KT 15SM FEW250 M03/M09 A3028 RMK CI1 SLP256

CYYG;2012-12-10 05:00;CYYG 100500Z 28007KT 15SM FEW200 M03/M09 A3029 RMK CI2 SLP260

CYYG;2012-12-10 06:00;CYYG 100600Z 29006KT 15SM FEW200 M04/M09 A3029 RMK CI2 SLP260

CYYG;2012-12-10 07:00;CYYG 100700Z 30006KT 15SM FEW200 M05/M09 A3027 RMK CI2 SLP255

CYYG;2012-12-10 08:00;CYYG 100800Z 31004KT 15SM FEW150 M05/M08 A3027 RMK AC2 SLP253

CYYG;2012-12-10 09:00;CYYG 100900Z 26002KT 15SM FEW019 SCT130 M05/M08 A3028 RMK SC2AC2 SLP256

CYYG;2012-12-10 10:00;CYYG 101000Z 33004KT 15SM FEW019 BKN100 M04/M07 A3027 RMK SC2AC3 SLP254

CYYG;2012-12-10 11:00;CYYG 101100Z 26004KT 15SM FEW020 BKN120 M04/M07 A3029 RMK SC2AC5 SLP260

CYYG;2012-12-10 12:00;CYYG 101200Z 00000KT R03/P6000FT/D FEW020 OVC110 M04/M06 A3027 RMK SC2AS6 VIRGA SLP254

CYYG;2012-12-10 13:00;CYYG 101300Z 14003KT 15SM FEW020 OVC090 M03/M06 A3027 RMK SC2AS6 VIRGA SLP255

CYYG;2012-12-10 14:00;CYYG 101400Z 13004KT 060V130 15SM -SN FEW020 OVC050 M02/M05 A3027 RMK SC2NS6 PCPN VRY LGT SLP253

CYYG;2012-12-10 14:36;CYYG 101436Z 09005KT 2SM -SN VV008 M02/M05 A3025 RMK SN8 SLP246

CYYG;2012-12-10 14:41;CYYG 101441Z 10007KT 3/4SM R03/P6000FT/D -SN VV005 M02/M05 A3024 RMK SN8 PRESFR SLP244

CYYG;2012-12-10 15:00;CYYG 101500Z 10007KT 5/8SM R03/5500VP6000FT/D -SN VV005 M03/M04 A3024 RMK SN8 SLP243

CYYG;2012-12-10 15:06;CYYG 101506Z 11008KT 1/8SM R03/5000FT/D SN VV003 M03/M04 A3023 RMK SN8 SLP241

CYYG;2012-12-10 15:17;CYYG 101517Z 09008KT 5/8SM R03/4000VP6000FT/U -SN VV006 M03/M04 A3022 RESN RMK SN8 PRESFR SLP236

CYYG;2012-12-10 16:00;CYYG 101600Z 09007KT 5/8SM R03/5000FT/D -SN VV005 M03/M03 A3018 RESN RMK SN8 /S01/ PRESFR SLP222

CYYG;2012-12-10 17:00;CYYG 101700Z 10008KT 3/4SM R03/5000VP6000FT/U -SN VV006 M02/M03 A3011 RMK SN8 /S02/ PRESFR SLP199

CYYG;2012-12-10 17:12;CYYG 101712Z 10010KT 1/2SM R03/5000FT/D SN VV004 M02/M03 A3008 RMK SN8 PRESFR SLP190

CYYG;2012-12-10 17:44;CYYG 101744Z 10008KT 1 1/2SM R03/5000VP6000FT/U -SN OVC005 M02/M02 A3006 RESN RMK SN5SF3 PRESFR SLP183

CYYG;2012-12-10 18:00;CYYG 101800Z 10008KT 1SM R03/P6000FT/D -SN OVC005 M02/M02 A3004 RESN RMK SN4SF4 /S05/ PRESFR SLP176

CYYG;2012-12-10 18:42;CYYG 101842Z 11012G17KT 2 1/2SM -SNPL BKN004 OVC007 M01/M02 A2997 RMK SF5SF3 PRESFR SLP150

CYYG;2012-12-10 19:00;CYYG 101900Z 11015KT 4SM -FZRA -PL BR BKN004 OVC033 M01/M02 A2995 RMK SF5NS3 PRESFR SLP143

CYYG;2012-12-10 19:40;CYYG 101940Z 11018G23KT 6SM -FZRA BR BKN008 OVC022 M01/M01 A2991 RMK SF5NS3 SLP132

CYYG;2012-12-10 20:00;CYYG 102000Z 11016KT 5SM -FZRA BR BKN007 OVC019 M00/M01 A2988 RMK SF5NS3 PRESFR SLP122

CYYG;2012-12-10 20:44;CYYG 102044Z 13016G25KT 8SM -RA OVC007 00/M00 A2983 REFZRA RMK SF8 SLP106

CYYG;2012-12-10 21:00;CYYG 102100Z 13013G23KT 8SM -RA OVC008 00/M00 A2983 REFZRA RMK SF8 SLP103

CYYG;2012-12-10 22:00;CYYG 102200Z 13013KT 8SM -DZ OVC009 01/00 A2975 RMK SF8 PRESFR SLP076

CYYG;2012-12-10 23:00;CYYG 102300Z 13008KT 10SM -DZ OVC007 02/01 A2969 RMK SF8 PRESFR SLP055

CYYG;2012-12-11 00:00;CYYG 110000Z 15013KT 12SM OVC005 04/04 A2965 RMK SF8 SLP042

CYYG;2012-12-11 00:21;CYYG 110021Z 15009KT 8SM -RA OVC005 04/04 A2963 RMK SF8 SLP038

CYYG;2012-12-11 01:00;CYYG 110100Z 15010KT 8SM -RA OVC003 05/05 A2960 RMK SF8 SLP025

CYYG;2012-12-11 01:19;CYYG 110119Z 16009KT 3/4SM R03/6000FT/D -RA BR OVC002 05/05 A2960 RMK SF8 SLP025

CYYG;2012-12-11 01:35;CYYG 110135Z 16010KT 1/4SM R03/2200FT/N -RA FG VV002 05/05 A2958 RMK FG8 PRESFR SLP020

CYYG;2012-12-11 02:00;CYYG 110200Z 18010KT 1/4SM R03/2200FT/N RA FG VV002 05/05 A2957 RMK FG8 SLP016

CYYG;2012-12-11 02:09;CYYG 110209Z 17010KT 2SM RA BR BKN008 OVC016 05/05 A2957 RMK SF5SC3 SLP015

CYYG;2012-12-11 02:48;CYYG 110248Z 13006KT 1/4SM -RA FG OVC007 06/06 A2954 RERA RMK FG4SF4 SLP005

CYYG;2012-12-11 03:00;CYYG 110300Z 13004KT 1/4SM R03/1800FT/N -RA FG OVC007 04/04 A2954 RERA RMK FG4SF4 SLP004

CYYG;2012-12-11 04:00;CYYG 110400Z 13007KT 1/4SM R03/1800FT/N -RA FG BKN002 OVC010 06/06 A2947 RMK FG3SF2SC3 PRESFR SLP981

CYYG;2012-12-11 05:00;CYYG 110500Z 17011KT 1/4SM R03/2400FT/N RA FG OVC007 09/09 A2941 RMK FG3SF5 PRESFR SLP963

CYYG;2012-12-11 05:38;CYYG 110538Z 17013KT 1SM R03/3500VP6000FT/U +RA BR BKN002 OVC012 10/10 A2939 RMK SF5SC3 PRESFR SLP953

CYYG;2012-12-11 06:00;CYYG 110600Z 18013G19KT 8SM RA BKN002 OVC014 11/11 A2936 RERA RMK SF5SC3 /R23/ PRESFR SLP945 DENSITY ALT 300FT

CYYG;2012-12-11 07:00;CYYG 110700Z 20014KT 15SM -RA BKN002 OVC013 12/12 A2936 RERA RMK SF5SC3 SLP946 DENSITY ALT 400FT

CYYG;2012-12-11 07:15;CYYG 110715Z 25012G20KT 10SM -RA OVC002 12/12 A2939 RMK SF8 WSHFT 0715 PRESRR SLP953 DENSITY ALT 400FT

CYYG;2012-12-11 08:00;CYYG 110800Z 27010KT 5SM -RA BR FEW002 BKN007 OVC024 10/10 A2939 RMK SF2SF3SC3 SLP953 DENSITY ALT 200FT

CYYG;2012-12-11 09:00;CYYG 110900Z 30009KT 10SM -RA SCT003 BKN034 OVC059 06/06 A2939 RMK SF3SC3SC2 SLP955

CYYG;2012-12-11 09:41;CYYG 110941Z 29008KT 15SM SCT003 OVC045 06/05 A2941 RMK SF3SC5 SLP963

CYYG;2012-12-11 10:00;CYYG 111000Z 28010KT 15SM OVC045 05/05 A2943 RMK SC8 SLP968

CYYG;2012-12-11 11:00;CYYG 111100Z 26010G17KT 15SM FEW003 BKN045 04/04 A2946 RMK SF1SC5 SLP978

CYYG;2012-12-11 12:00;CYYG 111200Z 26011G18KT 15SM FEW005 FEW060 BKN160 03/02 A2952 RMK SF1SC1AC3 SLP997

CYYG;2012-12-11 13:00;CYYG 111300Z 26010G16KT 15SM FEW005 BKN052 BKN160 03/03 A2956 RMK SF1SC5AC1 SLP012

CYYG;2012-12-11 14:00;CYYG 111400Z 27011G16KT 15SM FEW010 BKN051 BKN160 04/02 A2959 RMK SF1SC5AC1 SLP022

CYYG;2012-12-11 15:00;CYYG 111500Z 25010KT 15SM FEW010 BKN046 04/02 A2963 RMK SF1SC6 SLP036

CYYG;2012-12-11 16:00;CYYG 111600Z 26010G15KT 15SM FEW015 BKN050 04/02 A2964 RMK SF1SC6 SLP039

CYYG;2012-12-11 17:00;CYYG 111700Z 26009G16KT 15SM FEW020 BKN053 04/00 A2965 RMK SC1SC6 SLP042

CYYG;2012-12-11 18:00;CYYG 111800Z 27011G18KT 15SM SCT018 OVC050 03/M01 A2969 RMK SC3SC5 SLP055

CYYG;2012-12-11 19:00;CYYG 111900Z 27009KT 15SM OVC026 03/M01 A2972 RMK SC8 PRESRR SLP066

CYYG;2012-12-11 19:42;CYYG 111942Z 30011G16KT 15SM BKN024 02/M02 A2973 RMK SC7 SLP071

CYYG;2012-12-11 20:00;CYYG 112000Z 29009KT 15SM BKN025 02/M02 A2974 RMK SC7 SLP072

CYYG;2012-12-11 21:00;CYYG 112100Z 29009KT 15SM OVC027 01/M03 A2978 RMK SC8 SLP085

CYYG;2012-12-11 22:00;CYYG 112200Z 29007KT 15SM OVC031 01/M02 A2981 RMK SC8 SLP098

CYYG;2012-12-11 23:00;CYYG 112300Z 29008G17KT 15SM OVC030 01/M03 A2983 RMK SC8 SLP105

CYYG;2012-12-12 00:00;CYYG 120000Z 28008KT 15SM BKN029 M00/M05 A2987 RMK SC7 SLP118

CYYG;2012-12-12 01:00;CYYG 120100Z 28007KT 15SM FEW027 M01/M06 A2988 RMK SC2 SLP121

CYYG;2012-12-12 02:00;CYYG 120200Z 30009KT 15SM SCT019 BKN026 M02/M05 A2992 RMK SC3SC4 SLP133

CYYG;2012-12-12 03:00;CYYG 120300Z 30010KT 15SM OVC018 M02/M06 A2995 RMK SC8 SLP145

CYYG;2012-12-12 04:00;CYYG 120400Z 30007KT 15SM BKN018 M03/M06 A2996 RMK SC6 SLP149

CYYG;2012-12-12 05:00;CYYG 120500Z 30007KT 15SM SCT018 M04/M08 A2998 RMK SC3 SLP156

CYYG;2012-12-12 06:00;CYYG 120600Z 30007KT 15SM FEW018 M05/M09 A3001 RMK SC2 SLP166

CYYG;2012-12-12 07:00;CYYG 120700Z 29007KT 15SM FEW018 M06/M09 A3004 RMK SC2 FROIN SLP174

CYYG;2012-12-12 08:00;CYYG 120800Z 28007KT 15SM BKN017 M05/M09 A3005 RMK SC6 FROIN SLP178

CYYG;2012-12-12 09:00;CYYG 120900Z 27006KT 15SM BKN016 M05/M09 A3007 RMK SC7 FROIN SLP187

CYYG;2012-12-12 10:00;CYYG 121000Z 29006KT 15SM SCT017 M06/M09 A3010 RMK SC4 FROIN SLP196

CYYG;2012-12-12 11:00;CYYG 121100Z 28009KT 15SM BKN013 M06/M09 A3012 RMK SC5 SLP202

CYYG;2012-12-12 12:00;CYYG 121200Z 27009KT 15SM BKN012 BKN120 M06/M08 A3014 RMK SC5AC2 SLP210

CYYG;2012-12-12 13:00;CYYG 121300Z 29007KT 15SM SCT012 BKN120 M06/M09 A3016 RMK NS3AC2 SLP217

CYYG;2012-12-12 14:00;CYYG 121400Z 28009KT 15SM BKN015 M06/M09 A3018 RMK SC5 SLP224

CYYG;2012-12-12 15:00;CYYG 121500Z 31006KT 15SM SCT015 SCT120 M05/M09 A3020 RMK SC3AC1 SLP229

CYYG;2012-12-12 16:00;CYYG 121600Z 29007KT 15SM FEW015 FEW120 M04/M09 A3018 RMK SC1AC1 SLP222

CYYG;2012-12-12 17:00;CYYG 121700Z 28008KT 15SM FEW020 FEW120 M02/M08 A3017 RMK SC1AC1 SLP219

CYYG;2012-12-12 18:00;CYYG 121800Z 27010G16KT 15SM FEW020 FEW120 M03/M09 A3017 RMK SC1AC1 SLP220

CYYG;2012-12-12 19:00;CYYG 121900Z 27009G15KT 15SM FEW020 FEW120 M02/M10 A3017 RMK SC1AC1 SLP220

CYYG;2012-12-12 20:00;CYYG 122000Z 27007KT 15SM FEW020 FEW120 M04/M09 A3019 RMK SC1AC1 SLP228

CYYG;2012-12-12 21:00;CYYG 122100Z 28006KT 15SM FEW020 FEW120 M04/M09 A3022 RMK NS1AC1 SLP237

CYYG;2012-12-12 22:00;CYYG 122200Z 30005KT 15SM FEW020 FEW120 M05/M09 A3023 RMK NS1AC1 SLP241

CYYG;2012-12-12 23:00;CYYG 122300Z 29004KT 15SM FEW120 M06/M09 A3025 RMK AC1 SLP247

CYYG;2012-12-13 00:00;CYYG 130000Z 27007KT 15SM FEW250 M05/M09 A3026 RMK CI1 SLP250

CYYG;2012-12-13 01:00;CYYG 130100Z 27005KT 15SM SKC M05/M08 A3026 RMK SLP251

CYYG;2012-12-13 02:00;CYYG 130200Z 26005KT 15SM SKC M06/M08 A3027 RMK FROIN SLP252

CYYG;2012-12-13 03:00;CYYG 130300Z 26007KT 15SM SKC M06/M08 A3027 RMK FROIN SLP253

CYYG;2012-12-13 04:00;CYYG 130400Z 26006KT 15SM SKC M07/M09 A3027 RMK SLP255

CYYG;2012-12-13 05:00;CYYG 130500Z 27007KT 15SM SKC M07/M09 A3028 RMK SLP257

CYYG;2012-12-13 06:00;CYYG 130600Z 28005KT 15SM SKC M07/M09 A3029 RMK SLP261

CYYG;2012-12-13 07:00;CYYG 130700Z 24004KT 15SM SKC M07/M09 A3029 RMK FROIN SLP261

CYYG;2012-12-13 08:00;CYYG 130800Z 24006KT 15SM SKC M07/M09 A3030 RMK SLP264

CYYG;2012-12-13 09:00;CYYG 130900Z 22003KT 15SM SKC M08/M09 A3030 RMK FROIN SLP263

CYYG;2012-12-13 10:00;CYYG 131000Z 26005KT 15SM SKC M07/M09 A3030 RMK FROIN SLP265

CYYG;2012-12-13 11:00;CYYG 131100Z 27007KT 15SM FEW025 M06/M08 A3032 RMK SC1 SLP272

CYYG;2012-12-13 12:00;CYYG 131200Z 30009G16KT 15SM FEW025 M06/M08 A3033 RMK SC1 SLP274

CYYG;2012-12-13 13:00;CYYG 131300Z 29008KT 15SM FEW025 M05/M07 A3035 RMK SC1 SLP279

CYYG;2012-12-13 14:00;CYYG 131400Z 29009KT 15SM FEW020 M04/M07 A3035 RMK SC2 SLP281

CYYG;2012-12-13 15:00;CYYG 131500Z 29010G20KT 15SM SCT016 M03/M07 A3036 RMK SC3 SLP285

CYYG;2012-12-13 16:00;CYYG 131600Z 31008KT 15SM SCT018 M02/M07 A3035 RMK SC4 SLP279

CYYG;2012-12-13 17:00;CYYG 131700Z 31007KT 15SM SCT018 M02/M07 A3033 RMK SC3 PRESRR SLP275

CYYG;2012-12-13 18:00;CYYG 131800Z 32008KT 15SM FEW022 BKN250 M02/M07 A3030 RMK SC2CI3 SLP264

CYYG;2012-12-13 19:00;CYYG 131900Z 29005KT 15SM FEW022 BKN250 M02/M07 A3031 RMK SC2CI3 SLP266

CYYG;2012-12-13 20:00;CYYG 132000Z 30004KT 15SM FEW022 BKN250 M03/M08 A3032 RMK SC2CI3 CC ASOCTD SLP270

CYYG;2012-12-13 21:00;CYYG 132100Z 26003KT 15SM FEW025 BKN210 M03/M08 A3032 RMK SC2CS4 SLP272

CYYG;2012-12-13 22:00;CYYG 132200Z 26004KT 15SM FEW025 BKN190 M04/M07 A3032 RMK SC2CS4 SLP270

CYYG;2012-12-13 23:00;CYYG 132300Z 27005KT 15SM FEW025 BKN190 M04/M07 A3032 RMK SC2CS4 SLP271

CYYG;2012-12-14 00:00;CYYG 140000Z 25004KT 15SM FEW025 BKN170 M04/M08 A3031 RMK SC1AC4 SLP266

CYYG;2012-12-14 01:00;CYYG 140100Z 25003KT 15SM FEW025 BKN160 M04/M07 A3030 RMK SC1AC6 SLP264

CYYG;2012-12-14 02:00;CYYG 140200Z 22003KT 15SM FEW025 BKN140 M04/M07 A3028 RMK SC1AC6 SLP258

CYYG;2012-12-14 03:00;CYYG 140300Z 24002KT 15SM FEW025 OVC110 M04/M07 A3026 RMK SC1AC7 SLP252

CYYG;2012-12-14 04:00;CYYG 140400Z 20004KT 15SM FEW025 M04/M07 A3024 RMK SC1 SLP243

CYYG;2012-12-14 05:00;CYYG 140500Z 20004KT 15SM FEW025 OVC120 M03/M06 A3023 RMK SC1AC7 SLP239

CYYG;2012-12-14 06:00;CYYG 140600Z 22004KT 15SM FEW025 OVC110 M03/M06 A3020 RMK SC1AC7 SLP231

CYYG;2012-12-14 07:00;CYYG 140700Z 23005KT 15SM FEW025 SCT120 M04/M07 A3020 RMK SC1AC2 SLP230

CYYG;2012-12-14 08:00;CYYG 140800Z 22006KT 15SM FEW025 M05/M07 A3018 RMK SC1 SLP223

CYYG;2012-12-14 09:00;CYYG 140900Z 22005KT 15SM FEW025 SCT120 M04/M06 A3016 RMK SC1AC3 FROIN SLP215

CYYG;2012-12-14 10:00;CYYG 141000Z 20005KT 15SM FEW025 BKN100 M03/M05 A3014 RMK SC1AC4 SLP209

CYYG;2012-12-14 11:00;CYYG 141100Z 20005KT 15SM FEW025 BKN070 M03/M05 A3013 RMK SC1AC6 FROIN SLP205

CYYG;2012-12-14 12:00;CYYG 141200Z 20006KT 15SM FEW150 BKN250 M03/M04 A3011 RMK AC2CI3 FROIN SLP199

CYYG;2012-12-14 13:00;CYYG 141300Z 21006KT 15SM SCT068 BKN200 M01/M04 A3010 RMK AC3CI4 SLP196

CYYG;2012-12-14 14:00;CYYG 141400Z 21011KT 15SM SCT080 BKN200 00/M03 A3009 RMK AC3CI4 SLP192

CYYG;2012-12-14 15:00;CYYG 141500Z 22009KT 15SM FEW080 OVC140 01/M02 A3007 RMK AC2AS6 SLP184

CYYG;2012-12-14 16:00;CYYG 141600Z 22009KT 15SM FEW070 OVC110 01/M02 A3003 RMK AC2AS6 SLP172

CYYG;2012-12-14 17:00;CYYG 141700Z 21012KT 15SM FEW070 SCT110 BKN250 03/M02 A2999 RMK AC2AS2CI1 SLP158

CYYG;2012-12-14 18:00;CYYG 141800Z 22006KT 15SM SCT055 BKN250 03/M01 A2996 RMK SC4CI3 SLP150

CYYG;2012-12-14 19:00;CYYG 141900Z 19011KT 15SM SCT062 BKN250 03/M01 A2994 RMK SC4CI1 SLP143

CYYG;2012-12-14 19:23;CYYG 141923Z 18009KT 15SM SCT062 BKN250 02/M01 A2994 RMK SC4CI1 SLP142

CYYG;2012-12-14 20:00;CYYG 142000Z 17007KT 15SM FEW033 SCT058 BKN140 01/M01 A2993 RMK SC2SC2AC2 SLP138

CYYG;2012-12-14 21:00;CYYG 142100Z 19009KT 15SM SCT058 OVC078 02/M00 A2992 RMK SC4AC4 SLP134

CYYG;2012-12-14 21:36;CYYG 142136Z 19010KT 15SM -SHRA SCT022 OVC042 02/M00 A2991 RMK SC4SC4 SLP133

CYYG;2012-12-14 22:00;CYYG 142200Z 20007KT 10SM -SHRA SCT015 OVC028 02/01 A2991 RMK SC4SC4 SLP131

CYYG;2012-12-14 22:34;CYYG 142234Z 22004KT 15SM -RA OVC013 02/01 A2990 RMK SC8 SLP129

CYYG;2012-12-14 22:49;CYYG 142249Z 31006KT 240V310 15SM -RA BKN008 OVC013 02/01 A2990 RMK SF5SC3 SLP128

CYYG;2012-12-14 22:52;CYYG 142252Z 32006KT 240V320 10SM -SN BKN006 OVC013 02/01 A2990 RMK SF5SC3 SLP129

CYYG;2012-12-14 23:00;CYYG 142300Z 26006KT 260V320 5SM -SN BKN006 OVC013 01/00 A2990 RMK SF6SC2 SLP129

CYYG;2012-12-14 23:22;CYYG 142322Z 16006KT 12SM -RASN SCT006 OVC040 01/01 A2988 RMK SF4SC4 SLP122

CYYG;2012-12-15 00:00;CYYG 150000Z 20008KT 12SM SCT007 OVC050 02/01 A2987 RMK SF4SC4 SLP119

CYYG;2012-12-15 00:31;CYYG 150031Z 20008KT 12SM BKN004 OVC050 02/01 A2986 RMK SF6SC2 SLP116

CYYG;2012-12-15 01:00;CYYG 150100Z 21007KT 12SM FEW004 BKN008 OVC030 02/01 A2985 RMK SF2SF4SC2 SLP112

CYYG;2012-12-15 01:40;CYYG 150140Z 24005KT 12SM SCT007 OVC021 02/01 A2985 RMK SF3SC5 SLP110

CYYG;2012-12-15 02:00;CYYG 150200Z 24005KT 12SM FEW006 BKN012 OVC030 01/01 A2984 RMK SF2SC3SC3 SLP108

CYYG;2012-12-15 02:38;CYYG 150238Z 27008KT 12SM FEW006 SCT025 OVC060 01/00 A2983 RMK SF1SC3SC4 SLP104

CYYG;2012-12-15 03:00;CYYG 150300Z 27011G18KT 12SM -SHSN BKN014 BKN030 OVC070 01/M01 A2983 RMK SC5SC1AC2 VIS LWR W SLP105

CYYG;2012-12-15 04:00;CYYG 150400Z 27007KT 12SM -SHSN BKN013 OVC040 01/M01 A2983 RMK SC6SC2 PCPN VRY LGT SLP103

CYYG;2012-12-15 05:00;CYYG 150500Z 28011G17KT 12SM FEW016 BKN025 OVC040 01/M01 A2983 RMK SC2SC4SC2 SLP104

CYYG;2012-12-15 06:00;CYYG 150600Z 29013G23KT 12SM SCT017 OVC033 01/M02 A2985 RMK SC3SC5 SLP110

CYYG;2012-12-15 06:35;CYYG 150635Z 28013G23KT 12SM -SHSN OVC019 M00/M04 A2987 RMK SC8 SLP116

CYYG;2012-12-15 07:00;CYYG 150700Z 30015G24KT 15SM -SHSN BKN019 OVC040 M02/M06 A2988 RMK SC5SC3 SLP121

CYYG;2012-12-15 08:00;CYYG 150800Z 29015G27KT 15SM OVC024 M03/M07 A2988 RMK SC8 PCPN VRY LGT SLP121

CYYG;2012-12-15 09:00;CYYG 150900Z 28017G25KT 15SM -SHSN OVC018 M04/M07 A2988 RMK SC8 PCPN VRY LGT SLP120

CYYG;2012-12-15 09:29;CYYG 150929Z 27014G20KT 4SM -SHSN DRSN OVC018 M04/M06 A2988 RMK SC8 SLP121

CYYG;2012-12-15 09:36;CYYG 150936Z 27015G24KT 2SM -SHSN DRSN OVC015 M04/M05 A2988 RMK SN3SC5 SLP120

CYYG;2012-12-15 10:00;CYYG 151000Z 33016G27KT 2 1/2SM -SHSN DRSN SCT009 OVC020 M02/M03 A2989 RMK SN2SF2SC4 WSHFT 0946 PRESRR SLP124

CYYG;2012-12-15 10:18;CYYG 151018Z 34015G32KT 4SM -SHSN DRSN BKN014 OVC021 M02/M04 A2991 RMK SC5SC3 PRESRR SLP131

CYYG;2012-12-15 11:00;CYYG 151100Z 34018G29KT 3SM -SHSN DRSN BKN012 OVC025 M03/M04 A2995 RMK SC5SC3 PRESRR SLP144

CYYG;2012-12-15 12:00;CYYG 151200Z 32018G29KT 2SM -SHSN DRSN BKN014 OVC027 M03/M05 A2998 RMK SC5SC3 SLP157

CYYG;2012-12-15 13:00;CYYG 151300Z 33016G26KT 2SM -SHSN DRSN OVC020 M04/M07 A3001 RMK SN3SC5 SLP165

CYYG;2012-12-15 14:00;CYYG 151400Z 32016G22KT 1 1/2SM -SHSN DRSN OVC020 M04/M08 A3004 RMK SN4SC4 SLP176

CYYG;2012-12-15 15:00;CYYG 151500Z 34018G30KT 1 1/2SM -SHSN DRSN OVC025 M05/M07 A3006 RMK SN2SC6 SLP183

CYYG;2012-12-15 16:00;CYYG 151600Z 33014G20KT 3SM R03/3000VP6000FT/U -SHSN DRSN OVC025 M05/M08 A3007 RMK SC8 SLP185

CYYG;2012-12-15 16:41;CYYG 151641Z 32015G25KT 3SM -SHSN DRSN OVC020 M05/M09 A3007 RMK SN1SC7 SLP186

CYYG;2012-12-15 17:00;CYYG 151700Z 32017G28KT 3SM -SHSN DRSN BKN020 M05/M10 A3007 RMK SC7 TCU ASOCTD VIS VRB 1-6 SLP186

CYYG;2012-12-15 18:00;CYYG 151800Z 32016G24KT 3SM R03/5000VP6000FT/U -SHSN DRSN BKN025 M06/M11 A3008 RMK SC7 TCU ASOCTD VIS VRB 1-6 /S02/ SLP189

CYYG;2012-12-15 19:00;CYYG 151900Z 31017G28KT 3SM R03/4500VP6000FT/D -SHSN DRSN SCT025 BKN049 M07/M11 A3009 RMK SC3SC4 SLP193

CYYG;2012-12-15 19:30;CYYG 151930Z 31017G27KT 3/4SM R03/5500VP6000FT/D -SHSN BLSN BKN030 M07/M11 A3011 RMK SN4SC3 SLP198

CYYG;2012-12-15 20:00;CYYG 152000Z 32013G19KT 1SM R03/4000VP6000FT/U -SHSN BLSN BKN013 BKN030 M08/M10 A3011 RMK SN3SC2SC2 SLP200

CYYG;2012-12-15 21:00;CYYG 152100Z 31016G24KT 3SM -SHSN DRSN SCT013 BKN046 M08/M13 A3013 RMK SC3SC4 SLP208

CYYG;2012-12-15 22:00;CYYG 152200Z 30011G18KT 6SM -SHSN DRSN FEW020 BKN050 M08/M11 A3014 RMK SC2SC5 SLP210

CYYG;2012-12-15 22:20;CYYG 152220Z 31013G21KT 2SM -SHSN DRSN SCT020 BKN050 M08/M10 A3014 RMK SN2SC2SC3 VIS VRB 1-3 SLP212

CYYG;2012-12-15 22:49;CYYG 152249Z 31012G20KT 3/4SM R03/5500VP6000FT/N -SHSN DRSN OVC015 M08/M10 A3015 RMK SN5SC3 SLP213

CYYG;2012-12-15 23:00;CYYG 152300Z 31014G20KT 1/2SM R03/4500VP6000FT/D SHSN DRSN OVC010 M08/M10 A3015 RMK SN6SC2 /S02/ SLP213

CYYG;2012-12-16 00:00;CYYG 160000Z 29011G17KT 3/4SM R03/P6000FT/D -SHSN DRSN OVC012 M09/M10 A3015 RESN RMK SN6SC2 SLP214

CYYG;2012-12-16 01:00;CYYG 160100Z 30012G22KT 2 1/2SM -SHSN DRSN OVC015 M08/M10 A3015 RMK SN4SC4 SLP213

CYYG;2012-12-16 02:00;CYYG 160200Z 31010G15KT 8SM -SHSN DRSN SCT015 BKN027 BKN050 M09/M13 A3014 RMK SC3SC2SC2 PCPN VRY LGT SLP212

CYYG;2012-12-16 02:42;CYYG 160242Z 32014G22KT 1SM R03/P6000FT/U -SHSN DRSN OVC015 M08/M11 A3014 RMK SN4SC4 SLP212

CYYG;2012-12-16 03:00;CYYG 160300Z 31010G18KT 3SM -SHSN DRSN BKN018 OVC040 M09/M11 A3014 RMK SC5SC3 SLP210

CYYG;2012-12-16 04:00;CYYG 160400Z 31013KT 8SM -SHSN DRSN SCT018 OVC044 M08/M12 A3014 RMK SC3SC5 SLP210

CYYG;2012-12-16 05:00;CYYG 160500Z 30013KT 10SM -SHSN BKN028 M08/M12 A3013 RMK SC7 SLP208

CYYG;2012-12-16 06:00;CYYG 160600Z CCA 31012G19KT 8SM -SHSN DRSN OVC030 M07/M11 A3014 RMK SC8 /S03/ SLP209

CYYG;2012-12-16 07:00;CYYG 160700Z 27008KT 3SM -SHSN DRSN OVC030 M08/M10 A3014 RMK SC8 SLP212

CYYG;2012-12-16 08:00;CYYG 160800Z 27012G18KT 3SM -SHSN DRSN OVC030 M08/M10 A3016 RMK SC8 SLP216

CYYG;2012-12-16 09:00;CYYG 160900Z 29012G18KT 3SM -SHSN DRSN OVC030 M08/M10 A3018 RMK SC8 SLP222

CYYG;2012-12-16 10:00;CYYG 161000Z 28013G20KT 3SM -SHSN DRSN OVC030 M09/M11 A3018 RMK SC8 SLP224

CYYG;2012-12-16 11:00;CYYG 161100Z 28010KT 3SM -SHSN OVC025 M10/M12 A3019 RMK SC8 SLP227

CYYG;2012-12-16 12:00;CYYG 161200Z 28012G20KT 3SM -SHSN DRSN BKN022 M10/M12 A3020 RMK SC7 /S01/ OBS TAKEN +17 SLP231

CYYG;2012-12-16 13:00;CYYG 161300Z 27010G16KT 3SM -SHSN DRSN BKN023 M10/M12 A3021 RMK SC7 SLP234

CYYG;2012-12-16 14:00;CYYG 161400Z 28010G16KT 8SM -SN DRSN SCT023 M09/M11 A3021 RMK SC4 SLP233

CYYG;2012-12-16 15:00;CYYG 161500Z 28012G20KT 15SM -SN DRSN FEW023 M08/M11 A3020 RMK SC2 SLP230

CYYG;2012-12-16 16:00;CYYG 161600Z 28013G19KT 15SM -SN DRSN FEW007 FEW023 M07/M11 A3019 RMK SF1SC1 SLP226

CYYG;2012-12-16 17:00;CYYG 161700Z 27010G17KT 15SM -SN DRSN FEW007 BKN022 M07/M11 A3019 RMK SF1SC5 SLP226

CYYG;2012-12-16 18:00;CYYG 161800Z 28010G16KT 15SM -SN DRSN FEW008 BKN021 M07/M11 A3019 RMK SF1SC6 SLP228

CYYG;2012-12-16 19:00;CYYG 161900Z 27009G16KT 10SM -SN DRSN BKN018 M08/M10 A3021 RMK SC7 SLP232

CYYG;2012-12-16 20:00;CYYG 162000Z 26009KT 4SM -SN DRSN BKN017 OVC026 M07/M09 A3022 RMK SC5SC3 SLP236

CYYG;2012-12-16 21:00;CYYG 162100Z 27011KT 10SM -SN DRSN BKN022 M07/M09 A3022 RMK SC7 SLP238

CYYG;2012-12-16 21:17;CYYG 162117Z 28009G15KT 15SM DRSN BKN021 M07/M09 A3022 RMK SC7 SLP237

CYYG;2012-12-16 21:24;CYYG 162124Z 28009KT 15SM -SN DRSN BKN021 M07/M09 A3022 RMK SC7 SLP237

CYYG;2012-12-16 22:00;CYYG 162200Z 27008KT 15SM -SN DRSN OVC018 M07/M09 A3022 RMK SC8 SLP237

CYYG;2012-12-16 23:00;CYYG 162300Z 28009KT 15SM -SN OVC014 M06/M08 A3023 RMK SC8 SLP239

CYYG;2012-12-16 23:15;CYYG 162315Z 28010KT 10SM -FZDZ OVC008 M06/M07 A3023 RMK SF8 SLP241

CYYG;2012-12-16 23:50;CYYG 162350Z 28009KT 6SM FZDZ BR OVC011 M06/M07 A3023 RMK SF8 SLP241

CYYG;2012-12-17 00:00;CYYG 170000Z 28009KT 6SM FZDZ BR BKN012 OVC018 M05/M07 A3023 RMK SF7SC1 SLP241

CYYG;2012-12-17 01:00;CYYG 170100Z 29007KT 8SM -FZDZ OVC008 M05/M05 A3024 REFZDZ RMK SF8 SLP242

CYYG;2012-12-17 01:37;CYYG 170137Z 30009KT 8SM -SN OVC008 M04/M05 A3024 REFZDZ RMK SF8 SLP243

CYYG;2012-12-17 02:00;CYYG 170200Z 29010KT 8SM -SN OVC008 M03/M04 A3024 REFZDZ RMK SF8 SLP243

CYYG;2012-12-17 02:26;CYYG 170226Z 30006KT 1 1/2SM -SN OVC009 M03/M04 A3024 RMK SN2SF6 SLP244

CYYG;2012-12-17 02:34;CYYG 170234Z 30006KT 1SM R03/P6000FT/D -SN OVC010 M03/M04 A3024 RMK SN5SF3 SLP244

CYYG;2012-12-17 03:00;CYYG 170300Z 27006KT 1SM R03/P6000FT/D -SN OVC006 M03/M03 A3024 RMK SN5SF3 SLP244

CYYG;2012-12-17 03:42;CYYG 170342Z 26005KT 2SM -SHSN BKN006 OVC012 M03/M03 A3024 RMK SF6SC2 VIS VRB 1-3 SLP244

CYYG;2012-12-17 04:00;CYYG 170400Z 25005KT 3SM -SHSN BKN008 OVC020 M03/M03 A3024 RMK SF7SC1 VIS VRB 1-5 SLP245

CYYG;2012-12-17 05:00;CYYG 170500Z 32004KT 8SM -SHSN SCT008 OVC026 M02/M02 A3024 RMK SF3SC5 SLP244

CYYG;2012-12-17 06:00;CYYG 170600Z 36005KT 8SM -SHSN FEW008 BKN025 M02/M02 A3024 RMK SF1SC6 /S01/ SLP245

CYYG;2012-12-17 07:00;CYYG 170700Z 35005KT 6SM -SHSN SCT005 BKN024 M01/M01 A3025 RMK SF4SC3 SLP247

CYYG;2012-12-17 07:22;CYYG 170722Z 36007KT 2SM -SHSN BKN006 OVC024 M01/M01 A3025 RMK SF6SC2 SLP248

CYYG;2012-12-17 08:00;CYYG 170800Z 34005KT 2SM -SHSN BKN006 OVC024 M01/M01 A3025 RMK SF6SC2 SLP247

CYYG;2012-12-17 09:00;CYYG 170900Z 01004KT 2 1/2SM -SHSN BKN004 OVC024 M02/M02 A3025 RMK SF5SC3 SLP248

CYYG;2012-12-17 10:00;CYYG 171000Z 01005KT 2 1/2SM -SHSN SCT004 OVC012 M00/M00 A3024 RMK SF3SC5 /S01/ SLP245

CYYG;2012-12-17 11:00;CYYG 171100Z 01004KT 3SM -SHSN FEW004 BKN010 M01/M01 A3025 RMK SF1SC6 SLP247

CYYG;2012-12-17 11:05;CYYG 171105Z 36003KT 3SM -FZDZ BR FEW004 OVC012 M00/M00 A3025 RMK SF1SC7 SLP249

CYYG;2012-12-17 11:28;CYYG 171128Z 01004KT 8SM -DZ SCT010 BKN014 00/00 A3026 REFZDZ RMK SF3SC4 SLP249

CYYG;2012-12-17 11:44;CYYG 171144Z 03004KT 3SM -SHSN SCT010 OVC017 00/M00 A3025 REFZDZ RMK SF3SC5 SLP248

CYYG;2012-12-17 12:00;CYYG 171200Z 03005KT 10SM -SHSN OVC014 00/M00 A3025 REFZDZ RMK SC8 VIS S-W 3 SLP246

CYYG;2012-12-17 12:34;CYYG 171234Z 07003KT 15SM OVC012 01/M01 A3026 RMK SC8 VIS LWR W SLP249

CYYG;2012-12-17 12:48;CYYG 171248Z 06005KT 10SM -DZ OVC012 00/M00 A3026 RMK SC8 VIS S-SW 5 SLP249

CYYG;2012-12-17 13:00;CYYG 171300Z 06003KT 10SM -DZ OVC012 00/M00 A3026 RMK SC8 VIS S-SW 5 SLP251

CYYG;2012-12-17 13:29;CYYG 171329Z 08002KT 3SM -DZ BR OVC009 00/M00 A3027 RMK ST8 SLP253

CYYG;2012-12-17 13:40;CYYG 171340Z 00000KT 2SM -SN SCT009 OVC017 00/M00 A3027 RMK SF3SC5 SLP253

CYYG;2012-12-17 14:00;CYYG 171400Z 00000KT 3SM -SHSN FEW009 BKN017 BKN025 00/00 A3027 RMK SF1SC4SC2 PRESRR SLP255

CYYG;2012-12-17 14:25;CYYG 171425Z 00000KT 2SM -SHSN SCT005 OVC014 01/00 A3028 RMK SF3SC5 SLP258

CYYG;2012-12-17 14:43;CYYG 171443Z 00000KT 5SM -SHSN FEW005 BKN009 00/00 A3028 RMK SF1SF6 SLP258

CYYG;2012-12-17 15:00;CYYG 171500Z 06004KT 4SM -SHSN FEW005 BKN011 01/00 A3027 RMK SF1SF5 SLP255

CYYG;2012-12-17 16:00;CYYG 171600Z 09004KT 030V090 4SM -SHSN BKN003 BKN007 01/01 A3027 RMK SF5SF2 SLP252

CYYG;2012-12-17 16:22;CYYG 171622Z 06005KT 4SM -SHSN FEW003 BKN007 01/01 A3026 RMK SF2SF5 SLP250

CYYG;2012-12-17 17:00;CYYG 171700Z 04006KT 10SM -SHSN FEW007 SCT017TCU BKN250 01/01 A3025 RMK SF2TCU1CI2 VIS LWR E SLP246

CYYG;2012-12-17 17:39;CYYG 171739Z 05008KT 15SM FEW008 SCT250 02/00 A3024 RMK SF2CI2 SLP242

CYYG;2012-12-17 18:00;CYYG 171800Z 04008KT 15SM VCSH FEW010 SCT250 02/M00 A3024 RMK SC2CI2 SH N AND SE SLP243

CYYG;2012-12-17 18:04;CYYG 171804Z 03010KT 10SM -SHRA BKN010 BKN250 02/00 A3024 RMK SC5CI1 SLP243

CYYG;2012-12-17 18:45;CYYG 171845Z 05009KT 15SM FEW008 SCT250 02/M00 A3022 RMK SF2CI2 SLP238

CYYG;2012-12-17 19:00;CYYG 171900Z 04011KT 15SM SCT008 BKN250 02/00 A3022 RMK SF3CI2 SH DIST E-SE SLP238

CYYG;2012-12-17 19:08;CYYG 171908Z 07009KT 15SM BKN008 01/00 A3022 RMK SF6 SLP238

CYYG;2012-12-17 20:00;CYYG 172000Z 07005KT 15SM SCT007 BKN250 01/00 A3023 RMK SF4CI2 SH DIST E SLP238

CYYG;2012-12-17 20:09;CYYG 172009Z 07008KT 15SM VCSH BKN007 01/00 A3023 RMK SF7 VIS N-NE 3 SLP238

CYYG;2012-12-17 20:41;CYYG 172041Z 06008KT 15SM SCT007 BKN019 01/01 A3022 RMK SF3SC4 SLP238

CYYG;2012-12-17 21:00;CYYG 172100Z 05007KT 15SM FEW007 BKN018 01/01 A3022 RMK SF1SC6 SLP238

CYYG;2012-12-17 22:00;CYYG 172200Z 09009KT 15SM OVC015 02/00 A3022 RMK SC8 SLP237

CYYG;2012-12-17 23:00;CYYG 172300Z 10009KT 15SM OVC015 01/M00 A3022 RMK SC8 SLP236

CYYG;2012-12-18 00:00;CYYG 180000Z 08005KT 15SM OVC016 01/M00 A3022 RMK SC8 SLP236

CYYG;2012-12-18 00:49;CYYG 180049Z 08005KT 10SM -SHSN BKN016 OVC023 01/M00 A3022 RMK SC6SC2 SLP236

CYYG;2012-12-18 01:00;CYYG 180100Z 07004KT 10SM -SHSN BKN015 OVC023 01/M00 A3022 RMK SC6SC2 SLP238

CYYG;2012-12-18 01:37;CYYG 180137Z 04005KT 15SM FEW015 FEW023 00/M01 A3022 RMK SC1SC1 SLP236

CYYG;2012-12-18 02:00;CYYG 180200Z 04005KT 0SM R03/P6000FT/N FEW015 SCT025 M01/M02 A3021 RMK SC2SC2 SLP234

CYYG;2012-12-18 03:00;CYYG 180300Z 05006KT 15SM FEW015 OVC021 00/M01 A3022 RMK SC1SC7 SLP235

CYYG;2012-12-18 04:00;CYYG 180400Z 07007KT 15SM OVC021 01/M00 A3020 RMK SC8 SLP230

CYYG;2012-12-18 05:00;CYYG 180500Z 09004KT 15SM OVC020 01/M00 A3022 RMK SC8 SLP234

CYYG;2012-12-18 06:00;CYYG 180600Z 07007KT 15SM OVC022 01/M00 A3021 RMK SC8 SLP231

CYYG;2012-12-18 07:00;CYYG 180700Z 07006KT 15SM OVC021 01/M00 A3019 RMK SC8 SLP227

CYYG;2012-12-18 08:00;CYYG 180800Z 08007KT 15SM OVC022 01/M01 A3016 RMK SC8 PRESFR SLP217

CYYG;2012-12-18 09:00;CYYG 180900Z 08003KT 15SM FEW020 OVC170 00/M01 A3018 RMK SC2AC6 SLP221

CYYG;2012-12-18 10:00;CYYG 181000Z 07005KT 15SM OVC020 00/M01 A3017 RMK SC8 SLP219

CYYG;2012-12-18 11:00;CYYG 181100Z 09008KT 15SM BKN019 OVC110 00/M01 A3014 RMK SC5AC3 SLP209

CYYG;2012-12-18 12:00;CYYG 181200Z 07008KT 15SM SCT021 BKN170 00/M01 A3013 RMK SC4AC3 SLP206

CYYG;2012-12-18 13:00;CYYG 181300Z 08010KT 15SM BKN013 OVC025 01/M00 A3010 RMK NS6SC2 SLP196

CYYG;2012-12-18 14:00;CYYG 181400Z 10014KT 15SM BKN014 OVC025 01/M00 A3009 RMK NS6SC2 SLP190

CYYG;2012-12-18 15:00;CYYG 181500Z 09011G18KT 15SM OVC014 02/M00 A3007 RMK SC8 SLP184

CYYG;2012-12-18 16:00;CYYG 181600Z 09015KT 15SM OVC016 02/M00 A3004 RMK SC8 SLP175

CYYG;2012-12-18 17:00;CYYG 181700Z 10015G23KT 15SM OVC015 02/M00 A3002 RMK NS8 SLP169

CYYG;2012-12-18 17:04;CYYG 181704Z 10012G23KT 10SM -DZ OVC016 02/M00 A3002 RMK SC8 SLP168

CYYG;2012-12-18 17:47;CYYG 181747Z 09015KT 15SM OVC018 02/00 A3001 RMK SC8 SLP164

CYYG;2012-12-18 18:00;CYYG 181800Z 09013KT 15SM OVC014 02/00 A3000 RMK SC8 SLP163

CYYG;2012-12-18 18:41;CYYG 181841Z 10012G19KT 10SM -DZ BKN011 BKN020 02/00 A3000 RMK NS6SC1 SLP161

CYYG;2012-12-18 19:00;CYYG 181900Z 10014G20KT 10SM -DZ BKN011 OVC021 02/00 A2999 RMK SC7NS1 SLP159

CYYG;2012-12-18 20:00;CYYG 182000Z 09014KT 15SM OVC018 02/M00 A2997 RMK NS8 SLP151

CYYG;2012-12-18 21:00;CYYG 182100Z 09014KT 15SM OVC018 02/M01 A2995 RMK SC8 SLP144

CYYG;2012-12-18 22:00;CYYG 182200Z 08011G18KT 15SM OVC020 02/M01 A2992 RMK SC8 SLP135

CYYG;2012-12-18 23:00;CYYG 182300Z 09014G23KT 15SM OVC020 02/M01 A2991 RMK NS8 SLP132

CYYG;2012-12-19 00:00;CYYG 190000Z 09013G20KT 15SM OVC017 02/M01 A2990 RMK SC8 SLP126

CYYG;2012-12-19 01:00;CYYG 190100Z 09015G23KT 15SM OVC017 02/M01 A2989 RMK SC8 SLP125

CYYG;2012-12-19 02:00;CYYG 190200Z 09012G22KT 15SM OVC018 01/M01 A2988 RMK SC8 SLP119

CYYG;2012-12-19 03:00;CYYG 190300Z 09013G23KT 15SM OVC018 02/M01 A2986 RMK SC8 SLP114

CYYG;2012-12-19 04:00;CYYG 190400Z 09017G22KT 15SM OVC016 02/M01 A2984 RMK SC8 SLP108

CYYG;2012-12-19 05:00;CYYG 190500Z 10018G26KT 15SM OVC018 02/M01 A2983 RMK SC8 SLP103

CYYG;2012-12-19 06:00;CYYG 190600Z 08015G21KT 15SM OVC018 02/M01 A2981 RMK SC8 SLP098

CYYG;2012-12-19 07:00;CYYG 190700Z 08016G24KT 15SM BKN020 OVC070 02/M01 A2980 RMK SC6AC2 SLP094

CYYG;2012-12-19 08:00;CYYG 190800Z 07016G24KT 15SM BKN019 OVC070 02/M01 A2978 RMK SC5AC3 SLP086

CYYG;2012-12-19 09:00;CYYG 190900Z 08015G22KT 15SM BKN019 OVC082 02/M01 A2977 RMK SC5AC3 SLP082

CYYG;2012-12-19 10:00;CYYG 191000Z 08016G21KT 15SM BKN017 OVC080 01/M01 A2976 RMK SC6AC2 SLP081

CYYG;2012-12-19 11:00;CYYG 191100Z 07016KT 15SM FEW022 FEW080 02/M01 A2976 RMK SC1AC1 SLP081

CYYG;2012-12-19 12:00;CYYG 191200Z 07014G21KT 15SM BKN022 OVC080 01/M01 A2975 RMK SC7AC1 SLP075

CYYG;2012-12-19 13:00;CYYG 191300Z 08015G23KT 15SM OVC019 02/M01 A2975 RMK SC8 SLP076

CYYG;2012-12-19 14:00;CYYG 191400Z 08016KT 15SM OVC023 02/M02 A2975 RMK SC8 SLP076

CYYG;2012-12-19 15:00;CYYG 191500Z 07014KT 15SM OVC020 02/M01 A2974 RMK SC8 SLP074

CYYG;2012-12-19 16:00;CYYG 191600Z 07018G23KT 15SM OVC024 02/M02 A2972 RMK NS8 SLP068

CYYG;2012-12-19 17:00;CYYG 191700Z 06011G19KT 15SM OVC026 02/M02 A2970 RMK SC8 SLP061

CYYG;2012-12-19 18:00;CYYG 191800Z 05018KT 15SM OVC026 02/M02 A2970 RMK SC8 SLP061

CYYG;2012-12-19 19:00;CYYG 191900Z 05018G26KT 15SM OVC020 01/M02 A2970 RMK SC8 SLP062

CYYG;2012-12-19 20:00;CYYG 192000Z 04018G24KT 15SM OVC024 01/M02 A2971 RMK SC8 SLP065

CYYG;2012-12-19 21:00;CYYG 192100Z 05016G25KT 15SM OVC025 01/M02 A2974 RMK NS8 SLP074

CYYG;2012-12-19 22:00;CYYG 192200Z 05018G25KT 15SM OVC023 01/M02 A2976 RMK SC8 SLP079

CYYG;2012-12-19 23:00;CYYG 192300Z 05014G24KT 15SM OVC024 01/M03 A2979 RMK SC8 SLP090

CYYG;2012-12-20 00:00;CYYG 200000Z 04014G19KT 15SM OVC025 01/M02 A2982 RMK SC8 SLP099

CYYG;2012-12-20 00:26;CYYG 200026Z 05015KT 12SM -SHSN OVC025 01/M01 A2983 RMK SC8 SLP102

CYYG;2012-12-20 01:00;CYYG 200100Z 03011KT 15SM -SHSN OVC025 01/M01 A2984 RMK SC8 SLP107

CYYG;2012-12-20 02:00;CYYG 200200Z 03014G20KT 15SM -SHSN OVC026 01/M02 A2985 RMK SC8 SLP110

CYYG;2012-12-20 03:00;CYYG 200300Z 03016KT 15SM -SHSN OVC030 01/M01 A2987 RMK SC8 SLP116

CYYG;2012-12-20 03:40;CYYG 200340Z 02013G21KT 15SM OVC033 01/M01 A2988 RMK SC8 SLP120

CYYG;2012-12-20 04:00;CYYG 200400Z 02015KT 10SM -SHSN FEW012 OVC033 00/M01 A2988 RMK SC2SC6 SLP121

CYYG;2012-12-20 05:00;CYYG 200500Z 02015KT 15SM -SHSN SCT012 OVC033 01/M01 A2990 RMK SC3SC5 SLP128

CYYG;2012-12-20 06:00;CYYG 200600Z 03014G21KT 15SM -SHSN SCT010 OVC030 00/M01 A2992 RMK SC3SC5 SLP134

CYYG;2012-12-20 07:00;CYYG 200700Z 03012KT 10SM -SHSN SCT010 OVC028 00/M01 A2994 RMK SC3SC5 SLP142

CYYG;2012-12-20 08:00;CYYG 200800Z 02012G18KT 15SM -SHSN FEW010 OVC024 00/M02 A2996 RMK SC2SC6 SLP148

CYYG;2012-12-20 09:00;CYYG 200900Z 02010KT 15SM -SHSN OVC022 00/M03 A2998 RMK SC8 SLP154

CYYG;2012-12-20 10:00;CYYG 201000Z 01010KT 15SM OVC022 00/M03 A2999 RMK SC8 SLP159

CYYG;2012-12-20 11:00;CYYG 201100Z 01009KT 15SM OVC023 00/M03 A3002 RMK SC8 SLP170

CYYG;2012-12-20 12:00;CYYG 201200Z 01006KT 15SM VCSH OVC026 00/M02 A3006 RMK SC8 SLP180

CYYG;2012-12-20 12:14;CYYG 201214Z 36005KT 12SM -SHSN OVC019 00/M02 A3006 RMK SC8 VIS NE-E 2 SLP182

CYYG;2012-12-20 13:00;CYYG 201300Z 35005KT 15SM -SHSN OVC025 00/M01 A3008 RMK SC8 VIS W 6 SLP187

CYYG;2012-12-20 14:00;CYYG 201400Z 01007KT 15SM -SHSN OVC024 01/M01 A3009 RMK SC8 VIS NE 3 SLP190

CYYG;2012-12-20 15:00;CYYG 201500Z 01009KT 15SM -SHSN FEW010 OVC022 01/M02 A3009 RMK SF1SC7 VIS SW 6 SLP193

CYYG;2012-12-20 16:00;CYYG 201600Z 02012KT 15SM -SHSN OVC023 01/M02 A3009 RMK SC8 SLP191

CYYG;2012-12-20 16:41;CYYG 201641Z 03009KT 15SM OVC024 02/M02 A3008 RMK SC8 DIST -SHSN OVR GLF/STR SLP188

CYYG;2012-12-20 17:00;CYYG 201700Z 02010KT 15SM OVC022 01/M02 A3008 RMK SC8 DIST -SHSN OVR GLF/STR SLP188

CYYG;2012-12-20 18:00;CYYG 201800Z 01009KT 15SM BKN018 BKN250 01/M02 A3008 RMK SC6CI1 DIST -SHSN OVR GLF/STR SLP187

CYYG;2012-12-20 18:14;CYYG 201814Z 01007KT 15SM -SHSN BKN016 BKN210 02/M01 A3009 RMK SC6CC1 VIS W 3 SLP190

CYYG;2012-12-20 19:00;CYYG 201900Z 03007KT 12SM -SHSN BKN012 OVC210 01/M01 A3010 RMK SC6CC2 VIS N-NE 2 SLP195

CYYG;2012-12-20 20:00;CYYG 202000Z 36004KT 15SM -SHSN BKN016 OVC210 00/M01 A3013 RMK SC7CC1 VIS N 3 SLP205

CYYG;2012-12-20 21:00;CYYG 202100Z 36005KT 12SM -SHSN OVC026 M00/M01 A3014 RMK SC8 VIS SW 6 SLP207

CYYG;2012-12-20 22:00;CYYG 202200Z 03006KT 10SM -SHSN FEW010 OVC020 M00/M01 A3011 RMK SF2SC6 SLP199

CYYG;2012-12-20 22:44;CYYG 202244Z 02006KT 15SM FEW010 BKN022 OVC150 M00/M01 A3011 RMK SF2SC3AC3 SLP199

CYYG;2012-12-20 23:00;CYYG 202300Z 01005KT 15SM FEW010 SCT025 OVC150 M01/M02 A3012 RMK SF2SC2AC4 SLP202

CYYG;2012-12-20 23:28;CYYG 202328Z 02006KT 15SM FEW007 SCT022 OVC140 M01/M01 A3013 RMK SF2SC2AC4 SLP206

CYYG;2012-12-21 00:00;CYYG 210000Z 36004KT 15SM FEW005 SCT022 OVC130 M00/M01 A3014 RMK SF1SC3AC4 SLP210

CYYG;2012-12-21 00:34;CYYG 210034Z 33004KT 12SM -SHSN FEW007 OVC019 M00/M01 A3017 RMK SF2SC6 PRESRR SLP218

CYYG;2012-12-21 01:00;CYYG 210100Z 36005KT 6SM -SHSN FEW005 OVC015 M00/M01 A3016 RMK SF2SC6 SLP217

CYYG;2012-12-21 02:00;CYYG 210200Z 01006KT 10SM -SHSN FEW005 OVC024 M01/M01 A3014 RMK SF1SC7 SLP208

CYYG;2012-12-21 03:00;CYYG 210300Z 36003KT 15SM -SHSN OVC022 M02/M02 A3014 RMK SC8 SLP207

CYYG;2012-12-21 04:00;CYYG 210400Z 01004KT 15SM -SHSN OVC024 M01/M02 A3013 RMK SC8 SLP204

CYYG;2012-12-21 05:00;CYYG 210500Z 36002KT 15SM OVC022 M01/M02 A3012 RMK SC8 SLP201

CYYG;2012-12-21 06:00;CYYG 210600Z 34003KT 15SM OVC022 M01/M02 A3014 RMK SC8 SLP207

CYYG;2012-12-21 07:00;CYYG 210700Z 35002KT 15SM OVC019 M01/M02 A3015 RMK SC8 SLP212

CYYG;2012-12-21 08:00;CYYG 210800Z 00000KT 15SM OVC020 M01/M04 A3013 RMK SC8 SLP205

CYYG;2012-12-21 09:00;CYYG 210900Z 00000KT 15SM OVC017 M02/M03 A3013 RMK SC8 SLP206

CYYG;2012-12-21 10:00;CYYG 211000Z 09003KT 15SM OVC016 M02/M03 A3012 RMK SC8 SLP203

CYYG;2012-12-21 11:00;CYYG 211100Z 00000KT 15SM OVC016 M02/M04 A3012 RMK SC8 SLP203

CYYG;2012-12-21 12:00;CYYG 211200Z CCA 02002KT 15SM FEW010 OVC015 M02/M03 A3012 RMK SF1SC7 SLP203

CYYG;2012-12-21 13:00;CYYG 211300Z 04003KT 15SM FEW010 OVC021 M02/M03 A3012 RMK SF1SC7 SLP203

CYYG;2012-12-21 14:00;CYYG 211400Z 08006KT 15SM OVC023 M01/M03 A3010 RMK SC8 SLP195

CYYG;2012-12-21 15:00;CYYG 211500Z 10007KT 15SM OVC022 M01/M03 A3007 RMK SC8 SLP186

CYYG;2012-12-21 15:48;CYYG 211548Z 12005KT 15SM -SHSN OVC016 M01/M03 A3008 RMK SC8 SLP187

CYYG;2012-12-21 16:00;CYYG 211600Z 14004KT 15SM -SHSN OVC015 M01/M02 A3006 RMK SC8 PRESFR SLP183

CYYG;2012-12-21 17:00;CYYG 211700Z 11009KT 15SM FEW012 OVC022 M00/M02 A3003 RMK SC1SC7 DIST -SHSN OVR GLF PRESFR SLP170

CYYG;2012-12-21 18:00;CYYG 211800Z 12009KT 15SM VCSH FEW014 BKN024 OVC150 M00/M01 A3001 RMK SC1SC6AC1 SLP165

CYYG;2012-12-21 19:00;CYYG 211900Z 11007KT 15SM FEW015 BKN026 OVC150 00/M01 A2999 RMK SC1SC4AC3 PRESFR SLP158

CYYG;2012-12-21 20:00;CYYG 212000Z 12009KT 15SM SCT028 BKN130 OVC220 00/M02 A2996 RMK SC4AC2CS2 DIST -SHSN OVR GLF SLP149

CYYG;2012-12-21 21:00;CYYG 212100Z 09007KT 15SM FEW030 BKN150 OVC220 M00/M02 A2993 RMK SC2AC3CS3 SLP138

CYYG;2012-12-21 22:00;CYYG 212200Z 12007KT 15SM FEW030 OVC160 00/M01 A2993 RMK SC1AC7 SLP139

CYYG;2012-12-21 23:00;CYYG 212300Z 10009KT 15SM BKN025 OVC160 01/M01 A2991 RMK SC7AC1 SLP133

CYYG;2012-12-22 00:00;CYYG 220000Z 10010KT 15SM BKN018 OVC024 01/M00 A2988 RMK SC5SC3 SLP121

CYYG;2012-12-22 01:00;CYYG 220100Z 10012G18KT 15SM BKN015 OVC021 02/00 A2984 RMK SC5SC3 SLP106

CYYG;2012-12-22 01:52;CYYG 220152Z 11016G22KT 15SM -RA FEW015 BKN035 OVC074 02/00 A2980 RMK SC2SC3AS3 SLP094

CYYG;2012-12-22 02:00;CYYG 220200Z 11015G22KT 15SM -RA FEW015 BKN035 OVC074 02/00 A2979 RMK SC2SC3AS3 PRESFR SLP090

CYYG;2012-12-22 03:00;CYYG 220300Z 11013G25KT 15SM -RA BKN013 OVC037 02/01 A2977 RMK SC5SC3 SLP083

CYYG;2012-12-22 03:45;CYYG 220345Z 10016G27KT 15SM FEW013 OVC054 03/01 A2972 RMK SC2SC6 PRESFR SLP068

CYYG;2012-12-22 04:00;CYYG 220400Z 11015G25KT 15SM FEW013 BKN054 OVC092 03/01 A2972 RMK SC2SC4AC2 SLP066

CYYG;2012-12-22 05:00;CYYG 220500Z 11020G29KT 10SM -RA OVC011 03/02 A2966 RMK SC8 SLP047

CYYG;2012-12-22 05:21;CYYG 220521Z 11022G31KT 10SM -RA OVC008 03/02 A2963 RMK SF8 PRESFR SLP037

CYYG;2012-12-22 06:00;CYYG 220600Z 11024G33KT 15SM -RA BKN007 BKN017 OVC062 03/03 A2960 RMK SF5SC2SC1 SLP025

CYYG;2012-12-22 07:00;CYYG 220700Z 11022G36KT 15SM -RA OVC008 04/04 A2956 RMK SF8 PRESFR SLP013

CYYG;2012-12-22 08:00;CYYG 220800Z 11019G32KT 15SM -RA OVC008 05/05 A2952 RMK SF8 SLP998

CYYG;2012-12-22 09:00;CYYG 220900Z 12022G39KT 10SM -RA OVC008 06/05 A2946 RMK SF8 SLP977

CYYG;2012-12-22 10:00;CYYG 221000Z 12023G37KT 10SM RA BKN009 OVC018 07/06 A2942 RMK SF5SC3 SLP964

CYYG;2012-12-22 11:00;CYYG 221100Z 18017G29KT 6SM RA BR OVC008 07/07 A2944 RMK SF8 WSHFT 1100 PRESRR SLP972

CYYG;2012-12-22 11:23;CYYG 221123Z 16013G20KT 2 1/2SM RA BR SCT003 OVC006 07/07 A2945 RMK SF3SF5 PRESRR SLP975

CYYG;2012-12-22 11:53;CYYG 221153Z 14014G19KT 3SM -RA BR FEW003 SCT006 OVC050 07/07 A2944 RERA RMK SF1SF2NS5 PRES UNSTDY SLP969

CYYG;2012-12-22 12:00;CYYG 221200Z 13014KT 4SM -RA BR FEW003 SCT006 OVC050 08/08 A2943 RERA RMK SF1SF2NS5 SLP968

CYYG;2012-12-22 12:29;CYYG 221229Z 12012KT 2 1/2SM -RA BR BKN002 OVC025 08/08 A2941 RMK SF6SC2 PRESFR SLP961

CYYG;2012-12-22 13:00;CYYG 221300Z 11010G16KT 3SM -RA BR BKN002 OVC049 08/08 A2941 RMK SF5NS3 SLP960

CYYG;2012-12-22 13:38;CYYG 221338Z 12009KT 1 1/2SM PRFG BR BKN002 OVC006 09/09 A2939 RMK SF7SF1 SLP956

CYYG;2012-12-22 14:00;CYYG 221400Z 12009KT 1 1/2SM -RA BR BKN002 OVC006 09/09 A2939 RMK SF7SF1 SLP955

CYYG;2012-12-22 14:46;CYYG 221446Z 12005KT 1SM R03/P6000FT/D -RA BR VV002 09/09 A2938 RMK FG8 SLP950

CYYG;2012-12-22 15:00;CYYG 221500Z 10006KT 3/4SM R03/4500VP6000FT/D -RA BR BKN006 OVC022 09/09 A2936 RMK FG5SF1SC2 PRESFR SLP945

CYYG;2012-12-22 15:21;CYYG 221521Z 10004KT 1SM R03/P6000FT/D -RA BR OVC002 09/09 A2935 RMK FG5SF3 SLP942

CYYG;2012-12-22 16:00;CYYG 221600Z 13007KT 1SM R03/P6000FT/U -RA BR OVC002 09/09 A2934 RMK FG5SF3 SLP937

CYYG;2012-12-22 16:25;CYYG 221625Z 14007KT 2SM RA BR OVC002 09/09 A2931 RMK SF8 PRESFR SLP927 DENSITY ALT 200FT

CYYG;2012-12-22 16:38;CYYG 221638Z 14006KT 2SM -RA BR OVC002 10/10 A2930 RERA RMK SF8 PRESFR SLP923 DENSITY ALT 200FT

CYYG;2012-12-22 16:51;CYYG 221651Z 16006KT 10SM -RA SCT002 BKN030 OVC053 10/10 A2930 RERA RMK SF3SC2SC3 SLP922 DENSITY ALT 200FT

CYYG;2012-12-22 17:00;CYYG 221700Z 16006KT 10SM -RA FEW002 FEW030 OVC053 10/10 A2930 RERA RMK SF1SC1SC6 /R11/ SLP922 DENSITY ALT 200FT

CYYG;2012-12-22 18:00;CYYG 221800Z 21005KT 12SM -RA FEW003 SCT020 BKN045 09/09 A2928 RMK SF1SC2SC4 SLP917

CYYG;2012-12-22 18:17;CYYG 221817Z 20007KT 12SM BKN002 OVC011 09/09 A2930 RMK SF7SC1 SLP923

CYYG;2012-12-22 18:34;CYYG 221834Z 21007KT 15SM SCT002 BKN018 OVC080 08/08 A2932 RMK SF3SC3AC2 PRESRR SLP930

CYYG;2012-12-22 19:00;CYYG 221900Z 24004KT 15SM FEW020 BKN080 08/08 A2931 RMK SC1AC6 SF TR SLP928

CYYG;2012-12-22 20:00;CYYG 222000Z 21005KT 15SM FEW020 SCT080 BKN110 08/08 A2931 RMK SC1AC2AC4 SF TR SLP928

CYYG;2012-12-22 20:50;CYYG 222050Z 18003KT 10SM R03/2800FT/N PRFG SCT010 SCT110 06/06 A2932 RMK SC3AC1 SLP932

CYYG;2012-12-22 21:00;CYYG 222100Z 21004KT 6SM R03/2600V4500FT/N BR PRFG SCT012 BKN110 06/06 A2933 RMK SC4AC1 SLP935

CYYG;2012-12-22 21:21;CYYG 222121Z 21003KT 1SM R03/4500VP6000FT/D BR BKN018 BKN110 06/06 A2934 RMK NS5AC1 SLP936

CYYG;2012-12-22 21:41;CYYG 222141Z 21004KT 1/2SM R03/4500VP6000FT/U FG BKN018 06/06 A2934 RMK SC6 FG 40 FT THK SLP938

CYYG;2012-12-22 21:52;CYYG 222152Z 22004KT 10SM PRFG BKN018 06/06 A2934 RMK SC6 FG 40 FT THK SLP938

CYYG;2012-12-22 22:00;CYYG 222200Z 17004KT 10SM PRFG BKN018 06/06 A2934 RMK SC7 FG 75 FT THK SLP938

CYYG;2012-12-22 22:24;CYYG 222224Z 12003KT 1/2SM R03/4000VP6000FT/D FG BKN013 05/05 A2935 RMK SC7 SLP941

CYYG;2012-12-22 22:42;CYYG 222242Z 11003KT 3/8SM R03/2600FT/N FG SCT013 04/04 A2935 RMK SC4 TWR VIS 15 SLP942

CYYG;2012-12-22 23:00;CYYG 222300Z 14004KT 1/4SM R03/1600V2000FT/N FG BKN011 04/04 A2936 RMK FG3SC2 SLP944

CYYG;2012-12-23 00:00;CYYG 230000Z 15002KT 3/8SM R03/3000FT/N FG BKN014 03/03 A2937 RMK FG3SC2 SLP948

CYYG;2012-12-23 00:23;CYYG 230023Z 19003KT 1/2SM R03/2600V4500FT/N FG BKN056 03/03 A2937 RMK FG3SC4 SLP948

CYYG;2012-12-23 01:00;CYYG 230100Z 16006KT 15SM BKN054 04/04 A2938 RMK SC7 SLP950

CYYG;2012-12-23 02:00;CYYG 230200Z 18009KT 15SM SCT044 04/04 A2938 RMK SC4 SLP952

CYYG;2012-12-23 03:00;CYYG 230300Z 18011G17KT 15SM SCT039 OVC045 05/04 A2938 RMK SC3SC5 SLP952

CYYG;2012-12-23 04:00;CYYG 230400Z 17011KT 15SM BKN045 04/03 A2937 RMK SC5 SLP947

CYYG;2012-12-23 05:00;CYYG 230500Z 17010KT 15SM SCT046 04/03 A2937 RMK SC3 SLP948

CYYG;2012-12-23 06:00;CYYG 230600Z 16009KT 15SM SCT043 03/03 A2937 RMK SC3 SLP949

CYYG;2012-12-23 07:00;CYYG 230700Z 14008KT 60SM FEW022 SCT049 BKN069 04/04 A2937 RMK SC2SC2AC1 SLP947

CYYG;2012-12-23 08:00;CYYG 230800Z 16008KT 15SM FEW039 BKN051 04/04 A2936 RMK SC2SC4 SLP944

CYYG;2012-12-23 08:26;CYYG 230826Z 17011KT 15SM -RA OVC034 04/03 A2936 RMK SC8 SLP944

CYYG;2012-12-23 08:48;CYYG 230848Z 18010G16KT 15SM FEW015 OVC030 04/04 A2936 RMK SC2SC6 SLP944

CYYG;2012-12-23 09:00;CYYG 230900Z 17012KT 15SM FEW015 OVC031 04/03 A2936 RMK SC2SC6 SLP944

CYYG;2012-12-23 09:02;CYYG 230902Z 17012KT 15SM -SHRA BKN019 OVC036 04/03 A2936 RMK SC5SC3 SLP943

CYYG;2012-12-23 10:00;CYYG 231000Z 18007KT 15SM BKN018 OVC028 03/03 A2936 RMK SC5SC3 SLP943

CYYG;2012-12-23 11:00;CYYG 231100Z 19006KT 15SM FEW013 SCT042 BKN062 03/02 A2935 RMK SC2SC2SC3 SLP942

CYYG;2012-12-23 12:00;CYYG 231200Z 20008KT 15SM FEW022 SCT050 BKN061 03/02 A2936 RMK SC1SC2SC4 SLP945

CYYG;2012-12-23 13:00;CYYG 231300Z 20012KT 15SM SCT025 BKN060 03/01 A2937 RMK SC3SC4 SF TR CI TR SLP948

CYYG;2012-12-23 13:24;CYYG 231324Z 20012KT 15SM BKN014 BKN058 03/01 A2937 RMK SC5SC2 SHS DIST S SLP947

CYYG;2012-12-23 14:00;CYYG 231400Z 21015KT 15SM OVC014 02/00 A2937 RMK SC8 SHS DIST N AND S SLP948

CYYG;2012-12-23 14:32;CYYG 231432Z 22011G17KT 15SM -SHSN BKN012 BKN030 02/01 A2937 RMK SC5SC2 VIS LWR NW SLP947

CYYG;2012-12-23 15:00;CYYG 231500Z 26011KT 12SM -SHSN BKN009 OVC038 01/M00 A2937 RMK SC6SC2 VIS LWR NW-N SLP948

CYYG;2012-12-23 16:00;CYYG 231600Z 26013KT 15SM -SHSN BKN012 OVC040 00/M02 A2936 RMK SC5SC3 SLP943

CYYG;2012-12-23 17:00;CYYG 231700Z 27016KT 15SM -SHSN OVC010 M01/M03 A2936 RMK SC8 SLP945

CYYG;2012-12-23 18:00;CYYG 231800Z 24012G21KT 12SM -SHSN OVC012 M02/M05 A2937 RMK SC8 SLP949

CYYG;2012-12-23 18:24;CYYG 231824Z 24013G20KT 2 1/2SM -SHSN OVC015 M03/M05 A2938 RMK SC8 SLP951

CYYG;2012-12-23 19:00;CYYG 231900Z 25014G22KT 2SM -SHSN DRSN OVC012 M04/M06 A2939 RMK SC8 SLP955

CYYG;2012-12-23 19:23;CYYG 231923Z 25016G22KT 1SM -SHSN DRSN VV008 M05/M06 A2940 RMK SN8 SLP958

CYYG;2012-12-23 20:00;CYYG 232000Z 24015G22KT 2SM -SHSN DRSN OVC010 M05/M07 A2941 RMK SN1SC7 SLP962

CYYG;2012-12-23 21:00;CYYG 232100Z 25014G23KT 2SM -SHSN DRSN OVC014 M05/M07 A2944 RMK SN1SC7 /S01/ SLP971

CYYG;2012-12-23 22:00;CYYG 232200Z 25019G25KT 2 1/2SM -SHSN DRSN BKN012 OVC035 M06/M08 A2946 RMK SC6SC2 SLP978

CYYG;2012-12-23 23:00;CYYG 232300Z 25018G24KT 2 1/2SM -SHSN DRSN BKN013 OVC028 M07/M09 A2949 RMK SC6SC2 /S02/ SLP990

CYYG;2012-12-24 00:00;CYYG 240000Z 25015G22KT 10SM -SHSN DRSN SCT013 OVC028 M07/M10 A2952 RMK SC4SC4 SLP998

CYYG;2012-12-24 01:00;CYYG 240100Z 25014G23KT 15SM -SHSN BKN023 M07/M11 A2953 RMK SC7 SLP003

CYYG;2012-12-24 02:00;CYYG 240200Z 25015G28KT 15SM -SHSN OVC029 M07/M11 A2954 RMK SC8 SLP007

CYYG;2012-12-24 03:00;CYYG 240300Z 25014G28KT 15SM OVC025 M06/M11 A2956 RMK SC8 SLP012

CYYG;2012-12-24 04:00;CYYG 240400Z 24018G27KT 15SM OVC024 M07/M11 A2956 RMK SC8 SLP013

CYYG;2012-12-24 05:00;CYYG 240500Z 24020G30KT 15SM BKN024 M07/M12 A2957 RMK SC5 SLP015

CYYG;2012-12-24 06:00;CYYG 240600Z CCA 24017G24KT 15SM FEW024 M07/M12 A2959 RMK SC2 SLP023

CYYG;2012-12-24 07:00;CYYG 240700Z 24014G24KT 14SM FEW025 M08/M12 A2961 RMK NS1 SLP029

CYYG;2012-12-24 08:00;CYYG 240800Z 25016G27KT 15SM FEW025 M08/M12 A2962 RMK SC1 SLP032

CYYG;2012-12-24 09:00;CYYG 240900Z 25019G29KT 15SM FEW025 M07/M12 A2962 RMK SC1 SLP034

CYYG;2012-12-24 10:00;CYYG 241000Z 26017G25KT 15SM FEW025 M07/M13 A2963 RMK SC1 SLP036

CYYG;2012-12-24 11:00;CYYG 241100Z 27011G21KT 15SM FEW025 M08/M12 A2965 RMK SC1 SLP044

CYYG;2012-12-24 12:00;CYYG 241200Z 26011G19KT 15SM FEW025 M08/M12 A2968 RMK SC1 SLP054

CYYG;2012-12-24 13:00;CYYG 241300Z 25015G24KT 15SM -SHSN DRSN FEW016 M08/M12 A2970 RMK CF1 SLP059

CYYG;2012-12-24 14:00;CYYG 241400Z 25015G24KT 15SM -SN FEW013 M08/M13 A2972 RMK CF1 SLP068

CYYG;2012-12-24 15:00;CYYG 241500Z 24014G28KT 15SM -SN FEW018 M08/M13 A2972 RMK CF2 SLP070

CYYG;2012-12-24 15:14;CYYG 241514Z 24016G26KT 15SM FEW018 M08/M13 A2972 RMK CF2 SLP070

CYYG;2012-12-24 16:00;CYYG 241600Z 25014G27KT 15SM FEW018 M07/M13 A2972 RMK CU2 SLP068

CYYG;2012-12-24 17:00;CYYG 241700Z 25014G27KT 15SM FEW024 M07/M14 A2972 RMK CU2 SLP068

CYYG;2012-12-24 18:00;CYYG 241800Z 25017G25KT 15SM FEW030 M07/M14 A2971 RMK CU2 SLP064

CYYG;2012-12-24 19:00;CYYG 241900Z 24017G25KT 15SM FEW035 M07/M14 A2971 RMK CU1 SLP063

CYYG;2012-12-24 20:00;CYYG 242000Z 25017G30KT 15SM FEW035 M07/M14 A2972 RMK SC2 SLP068

CYYG;2012-12-24 21:00;CYYG 242100Z 25014G29KT 15SM FEW035 M07/M15 A2974 RMK SC1 SLP074

CYYG;2012-12-24 22:00;CYYG 242200Z 26017G27KT 15SM FEW035 M08/M15 A2976 RMK CU1 SLP082

CYYG;2012-12-24 23:00;CYYG 242300Z 26024G32KT 15SM FEW035 M08/M14 A2977 RMK CU1 SLP084

CYYG;2012-12-25 00:00;CYYG 250000Z 26020G30KT 15SM FEW035 M08/M14 A2978 RMK SC1 SLP089

CYYG;2012-12-25 01:00;CYYG 250100Z 27016G31KT 15SM FEW035 M08/M13 A2979 RMK SC1 SLP092

CYYG;2012-12-25 02:00;CYYG 250200Z 26019G28KT 15SM FEW035 M08/M13 A2980 RMK SC1 SLP094

CYYG;2012-12-25 03:00;CYYG 250300Z 26015G25KT 15SM FEW035 M08/M13 A2982 RMK SC1 SLP100

CYYG;2012-12-25 04:00;CYYG 250400Z 25015G21KT 15SM FEW035 M08/M13 A2981 RMK SC1 SLP099

CYYG;2012-12-25 05:00;CYYG 250500Z 25016G27KT 15SM FEW035 M09/M13 A2981 RMK SC1 SLP099

CYYG;2012-12-25 06:00;CYYG 250600Z 25017G23KT 15SM FEW035 M09/M13 A2983 RMK SC1 SLP103

CYYG;2012-12-25 07:00;CYYG 250700Z 24020G30KT 15SM SKC M09/M13 A2984 RMK SLP107

CYYG;2012-12-25 08:00;CYYG 250800Z 24015G24KT 15SM SKC M09/M13 A2985 RMK SLP110

CYYG;2012-12-25 09:00;CYYG 250900Z 25013G21KT 15SM SKC M09/M13 A2984 RMK SLP109

CYYG;2012-12-25 10:00;CYYG 251000Z 25015G23KT 15SM SKC M09/M13 A2986 RMK SLP115

CYYG;2012-12-25 11:00;CYYG 251100Z 26011G18KT 15SM FEW035 M10/M13 A2989 RMK SC2 SLP126

CYYG;2012-12-25 12:00;CYYG 251200Z 27010KT 15SM FEW035 SCT120 M09/M12 A2991 RMK SC1AC2 SLP131

CYYG;2012-12-25 13:00;CYYG 251300Z 27008G17KT 15SM FEW030 FEW120 M09/M13 A2993 RMK SC1AC1 SLP138

CYYG;2012-12-25 14:00;CYYG 251400Z 27010G16KT 15SM FEW020 M08/M12 A2996 RMK SC2 SLP148

CYYG;2012-12-25 15:00;CYYG 251500Z 27009G16KT 15SM BKN020 M08/M12 A2996 RMK SC5 SLP151

CYYG;2012-12-25 16:00;CYYG 251600Z 26008KT 15SM SCT010 M07/M12 A2994 RMK SC4 SLP143

CYYG;2012-12-25 17:00;CYYG 251700Z 25009KT 15SM SCT019 M07/M11 A2994 RMK SC3 SLP141

CYYG;2012-12-25 18:00;CYYG 251800Z 30005KT 15SM FEW019 BKN170 M06/M11 A2995 RMK SC2AC5 SLP144

CYYG;2012-12-25 19:00;CYYG 251900Z 30006KT 15SM SCT020 BKN170 M07/M11 A2997 RMK SC4AC2 SLP152

CYYG;2012-12-25 20:00;CYYG 252000Z 32004KT 15SM FEW020 SCT160 M07/M11 A2998 RMK SC2AC2 SLP156

CYYG;2012-12-25 21:00;CYYG 252100Z 00000KT 15SM FEW019 SCT160 M09/M12 A2999 RMK SC2AC2 SLP159

CYYG;2012-12-25 22:00;CYYG 252200Z 29003KT 15SM FEW018 SCT160 M09/M12 A2999 RMK SC2AC2 SLP160

CYYG;2012-12-25 23:00;CYYG 252300Z 25002KT 15SM SCT019 M08/M11 A3000 RMK SC4 SLP162

CYYG;2012-12-26 00:00;CYYG 260000Z 25004KT 240V350 15SM BKN018 M07/M11 A3002 RMK SC6 SLP169

CYYG;2012-12-26 01:00;CYYG 260100Z 24005KT 15SM OVC017 M07/M10 A3002 RMK SC8 SLP170

CYYG;2012-12-26 02:00;CYYG 260200Z 26006KT 15SM OVC020 M06/M09 A3003 RMK SC8 SLP173

CYYG;2012-12-26 02:07;CYYG 260207Z 25006KT 12SM -SHSN BKN019 M06/M09 A3003 RMK SC7 SLP175

CYYG;2012-12-26 03:00;CYYG 260300Z 25006KT 12SM -SHSN OVC016 M06/M08 A3005 RMK SC8 SLP181

CYYG;2012-12-26 04:00;CYYG 260400Z 26007KT 12SM -SHSN OVC016 M06/M08 A3005 RMK SC8 SLP181

CYYG;2012-12-26 05:00;CYYG 260500Z 31007KT 15SM OVC017 M05/M07 A3005 RMK SC8 SLP178

CYYG;2012-12-26 06:00;CYYG 260600Z 31007KT 15SM OVC018 M05/M07 A3006 RMK SC8 SLP182

CYYG;2012-12-26 07:00;CYYG 260700Z 29006KT 15SM OVC023 M04/M06 A3008 RMK SC8 SLP188

CYYG;2012-12-26 08:00;CYYG 260800Z 30007KT 15SM OVC024 M04/M06 A3009 RMK SC8 SLP195

CYYG;2012-12-26 09:00;CYYG 260900Z 29007KT 12SM VCSH OVC024 M05/M06 A3010 RMK SC8 SLP198

CYYG;2012-12-26 09:11;CYYG 260911Z 29008KT 12SM -SHSN OVC026 M05/M06 A3010 RMK SC8 SLP198

CYYG;2012-12-26 10:00;CYYG 261000Z 29007KT 12SM -SHSN OVC023 M05/M06 A3011 RMK SC8 SLP201

CYYG;2012-12-26 11:00;CYYG 261100Z 29009KT 15SM -SHSN OVC021 M05/M06 A3013 RMK SC8 SLP208

CYYG;2012-12-26 12:00;CYYG 261200Z 29009KT 10SM -SN DRSN OVC015 M04/M06 A3015 RMK SC8 SLP213

CYYG;2012-12-26 13:00;CYYG 261300Z 28009KT 8SM -SN DRSN OVC013 M04/M06 A3017 RMK SC8 SLP222

CYYG;2012-12-26 14:00;CYYG 261400Z 30010KT 10SM -SN OVC018 M04/M05 A3019 RMK SC8 SLP227

CYYG;2012-12-26 14:40;CYYG 261440Z 29010G16KT 8SM -FZDZ OVC014 M04/M05 A3019 RMK SC8 SLP228

CYYG;2012-12-26 15:00;CYYG 261500Z 28008KT 8SM -FZDZ OVC013 M04/M05 A3019 RMK SC8 SLP228

CYYG;2012-12-26 15:24;CYYG 261524Z CCA 28010KT 8SM -SN OVC011 M04/M05 A3020 REFZDZ RMK SC8 SLP230

CYYG;2012-12-26 16:00;CYYG 261600Z 30007G17KT 8SM -SN OVC012 M03/M05 A3019 REFZDZ RMK SC8 SLP228

CYYG;2012-12-26 17:00;CYYG 261700Z 30012KT 10SM -SN OVC013 M03/M05 A3020 RMK SC8 SLP231

CYYG;2012-12-26 17:51;CYYG 261751Z 28009G19KT 15SM OVC016 M03/M05 A3022 RMK SC8 SLP238

CYYG;2012-12-26 18:00;CYYG 261800Z 29008KT 15SM OVC016 M03/M05 A3023 RMK SC8 SLP240

CYYG;2012-12-26 19:00;CYYG 261900Z 30008KT 15SM BKN018 M03/M06 A3022 RMK SC7 SLP238

CYYG;2012-12-26 20:00;CYYG 262000Z 28004KT 15SM BKN022 M02/M06 A3024 RMK SC7 SLP245

CYYG;2012-12-26 21:00;CYYG 262100Z 28005KT 15SM BKN022 BKN250 M03/M06 A3026 RMK SC5CI1 SLP250

CYYG;2012-12-26 22:00;CYYG 262200Z 29006KT 15SM FEW022 FEW250 M05/M07 A3029 RMK SC1CI1 SLP262

CYYG;2012-12-26 23:00;CYYG 262300Z 27006KT 15SM FEW022 FEW250 M05/M07 A3030 RMK SC1CI1 SLP263

CYYG;2012-12-27 00:00;CYYG 270000Z 31004KT 15SM FEW022 M06/M08 A3030 RMK SC1 FROIN SLP264

CYYG;2012-12-27 01:00;CYYG 270100Z 33004KT 15SM FEW022 M09/M10 A3029 RMK SC1 FROIN SLP260

CYYG;2012-12-27 02:00;CYYG 270200Z 29004KT 15SM FEW022 M07/M07 A3030 RMK SC2 FROIN SLP264

CYYG;2012-12-27 03:00;CYYG 270300Z 28004KT 15SM FEW013 BKN022 M06/M07 A3030 RMK SC1SC5 FROIN SLP265

CYYG;2012-12-27 04:00;CYYG 270400Z 27006KT 15SM BKN023 M07/M08 A3029 RMK SC6 FROIN CU ASOCTD SLP262

CYYG;2012-12-27 04:29;CYYG 270429Z 27003KT 15SM -SHSN OVC019 M06/M07 A3028 RMK SC8 FROIN CU ASOCTD VIS LWR NW SLP257

CYYG;2012-12-27 05:00;CYYG 270500Z 30004KT 15SM -SHSN OVC018 M05/M06 A3029 RMK SC8 FROIN SLP261

CYYG;2012-12-27 06:00;CYYG 270600Z 26004KT 15SM -SHSN OVC015 M05/M06 A3029 RMK SC8 FROIN SLP260

CYYG;2012-12-27 07:00;CYYG 270700Z 00000KT 15SM -SHSN OVC017 M05/M06 A3029 RMK SC8 FROIN SLP262

CYYG;2012-12-27 07:33;CYYG 270733Z 00000KT 15SM OVC017 M04/M06 A3028 RMK SC8 FROIN SLP257

CYYG;2012-12-27 08:00;CYYG 270800Z 29003KT 15SM OVC018 M04/M05 A3027 RMK SC8 FROIN SLP254

CYYG;2012-12-27 09:00;CYYG 270900Z 00000KT 15SM OVC023 M04/M05 A3025 RMK SC8 FROIN SLP247

CYYG;2012-12-27 10:00;CYYG 271000Z 00000KT 15SM OVC022 M04/M05 A3026 RMK SC8 FROIN SLP249

CYYG;2012-12-27 11:00;CYYG 271100Z 03008KT 15SM OVC017 M03/M05 A3023 RMK SC8 FROIN SLP240

CYYG;2012-12-27 12:00;CYYG 271200Z 08004KT 15SM OVC018 M03/M05 A3025 RMK SC8 SLP246

CYYG;2012-12-27 13:00;CYYG 271300Z 11003KT 15SM OVC018 M03/M05 A3025 RMK SC8 SLP246

CYYG;2012-12-27 14:00;CYYG 271400Z 07007KT 15SM OVC020 M02/M05 A3021 RMK SC8 PRESFR SLP233

CYYG;2012-12-27 15:00;CYYG 271500Z 07011KT 15SM OVC017 M02/M05 A3018 RMK SC8 SLP223

CYYG;2012-12-27 16:00;CYYG 271600Z 07011KT 15SM OVC019 M02/M05 A3011 RMK SC8 PRESFR SLP201

CYYG;2012-12-27 17:00;CYYG 271700Z 07010KT 15SM OVC021 M01/M05 A3008 RMK SC8 SLP188

CYYG;2012-12-27 18:00;CYYG 271800Z 11015G21KT 15SM OVC018 M01/M05 A3003 RMK SC8 SLP173

CYYG;2012-12-27 19:00;CYYG 271900Z 10011G19KT 15SM OVC016 M02/M04 A3002 RMK SC8 SLP170

CYYG;2012-12-27 20:00;CYYG 272000Z 09013KT 15SM OVC017 M02/M05 A2999 RMK SC8 SLP157

CYYG;2012-12-27 20:35;CYYG 272035Z 08014KT 10SM -SN BKN017 OVC023 M01/M04 A2996 RMK SC5SC3 VIS LWR SE-SW PRESFR SLP146

CYYG;2012-12-27 21:00;CYYG 272100Z 07014G19KT 8SM -SN DRSN OVC018 M01/M04 A2992 RMK SC8 PRESFR SLP136

CYYG;2012-12-27 21:41;CYYG 272141Z 07015G22KT 2SM -SN DRSN OVC018 M01/M03 A2988 RMK SC8 PRESFR SLP123

CYYG;2012-12-27 22:00;CYYG 272200Z 07016G21KT 1 1/2SM -SN DRSN VV006 M02/M03 A2987 RMK SN8 SLP119

CYYG;2012-12-27 23:00;CYYG 272300Z 05014G20KT 1 1/2SM R03/5500VP6000FT/D -SN DRSN VV006 M02/M02 A2984 RMK SN8 SLP108

CYYG;2012-12-27 23:14;CYYG 272314Z 05014KT 1/2SM R03/4000V5500FT/D SN DRSN VV003 M02/M03 A2984 RMK SN8 SLP108

CYYG;2012-12-27 23:49;CYYG 272349Z 04017G24KT 3/4SM R03/2400FT/N -SN DRSN VV006 M02/M02 A2981 RESN RMK SHGR8 PRESFR SLP098

CYYG;2012-12-28 00:00;CYYG 280000Z 04018KT 1 1/2SM R03/3500FT/N -SN DRSN VV008 M02/M02 A2979 RESN RMK SN8 /S05/ PRESFR SLP090

CYYG;2012-12-28 00:11;CYYG 280011Z 04019KT 2SM R03/5000FT/U -SNPL DRSN BKN022 M02/M02 A2977 RMK SN3NS4 SLP084

CYYG;2012-12-28 00:22;CYYG 280022Z 04019G26KT 1SM R03/5000FT/D -SN DRSN VV007 M02/M02 A2975 RMK SHGR8 SLP078

CYYG;2012-12-28 00:32;CYYG 280032Z 04021G28KT 3/4SM R03/3500FT/D -SN DRSN VV006 M02/M02 A2974 RMK SN8 SLP075

CYYG;2012-12-28 01:00;CYYG 280100Z 05024G30KT 1SM R03/3500FT/N -SN DRSN OVC007 M01/M02 A2972 RMK SN5SF3 /S01/ SLP065

CYYG;2012-12-28 01:29;CYYG 280129Z 05020G27KT 2SM -SN DRSN OVC007 M01/M02 A2970 RMK SF8 SLP059

CYYG;2012-12-28 01:54;CYYG 280154Z 05022G29KT 1/2SM R03/4500VP6000FT/D SN DRSN VV005 M01/M01 A2965 RMK SN8 PRESFR SLP044

CYYG;2012-12-28 02:00;CYYG 280200Z 05023G34KT 3/4SM R03/3000VP6000FT/D -SNPL DRSN OVC007 M01/M01 A2964 RESN RMK SN6SF2 PRESFR SLP039

CYYG;2012-12-28 02:11;CYYG 280211Z 05020G33KT 1 1/2SM R03/3500VP6000FT/U -SNPL DRSN OVC007 M01/M01 A2964 RMK SN2SF6 SLP039

CYYG;2012-12-28 03:00;CYYG 280300Z CCA 06017G25KT 1 1/2SM -SNPL DRSN OVC006 M00/M01 A2961 RMK SN2SF6 /S02/ SLP029

CYYG;2012-12-28 03:15;CYYG 280315Z 06016G24KT 1 1/2SM -SN DRSN OVC005 M00/M01 A2960 RMK SN2SF6 SLP027

CYYG;2012-12-28 03:38;CYYG 280338Z 06016G22KT 2SM -FZDZ BR DRSN OVC005 M00/M01 A2958 RMK SF8 SLP021

CYYG;2012-12-28 04:00;CYYG 280400Z 07013G19KT 2 1/2SM -RA BR OVC006 00/M00 A2956 REFZDZ RMK SF8 /S03/ PRESFR SLP014

CYYG;2012-12-28 05:00;CYYG 280500Z 07013G20KT 2 1/4SM -RA BR OVC006 01/00 A2950 RMK SF8 PRESFR SLP992

CYYG;2012-12-28 06:00;CYYG 280600Z 08014KT 8SM -RA OVC007 01/01 A2946 RMK SF8 SLP977

CYYG;2012-12-28 06:33;CYYG 280633Z 08014G20KT 10SM OVC007 02/01 A2944 RMK SF8 PRESFR SLP971

CYYG;2012-12-28 07:00;CYYG 280700Z 08012G23KT 6SM -DZ BR OVC007 02/01 A2943 RMK SF8 SLP967

CYYG;2012-12-28 08:00;CYYG 280800Z 07013G18KT 6SM -DZ BR OVC007 02/01 A2939 RMK SF8 SLP954

CYYG;2012-12-28 09:00;CYYG 280900Z 08013KT 8SM OVC009 03/02 A2936 RMK SF8 SLP944

CYYG;2012-12-28 09:45;CYYG 280945Z 08010G17KT 4SM -RA BR OVC011 03/02 A2934 RMK NS8 SLP937

CYYG;2012-12-28 10:00;CYYG 281000Z 08010KT 5SM -RA BR OVC011 03/02 A2933 RMK SC8 SLP936

CYYG;2012-12-28 10:14;CYYG 281014Z 08010KT 5SM -DZ BR OVC009 03/02 A2933 RMK SF8 SLP934

CYYG;2012-12-28 11:00;CYYG 281100Z 07007KT 6SM -DZ BR BKN009 OVC019 03/02 A2932 RMK SF6SC2 SLP932

CYYG;2012-12-28 11:51;CYYG 281151Z 05005KT 15SM BKN008 OVC013 03/02 A2931 RMK SF5SC3 SLP930

CYYG;2012-12-28 12:00;CYYG 281200Z 06006KT 15SM BKN008 OVC013 02/02 A2931 RMK SF5SC3 SLP930

CYYG;2012-12-28 13:00;CYYG 281300Z 06005KT 15SM OVC012 03/02 A2931 RMK SC8 SLP927

CYYG;2012-12-28 13:09;CYYG 281309Z 04003KT 15SM OVC011 02/02 A2931 RMK SC8 SLP928

CYYG;2012-12-28 13:15;CYYG 281315Z 03003KT 15SM BKN007 OVC011 02/02 A2931 RMK SF7SC1 SLP928

CYYG;2012-12-28 14:00;CYYG 281400Z 04004KT 15SM BKN006 BKN009 OVC013 02/02 A2931 RMK SF5SF2SC1 VIS LWR W-NE SLP928

CYYG;2012-12-28 14:07;CYYG 281407Z 02004KT 15SM -DZ BKN006 OVC010 02/02 A2931 RMK SF5SF3 VIS W-NE 5 SLP928

CYYG;2012-12-28 14:24;CYYG 281424Z 36003KT 5SM -RA BR BKN006 OVC009 03/03 A2932 RMK SF5SF3 SLP931

CYYG;2012-12-28 14:39;CYYG 281439Z 31004KT 2SM -DZ BR OVC006 03/03 A2932 RMK ST8 SLP931

CYYG;2012-12-28 15:00;CYYG 281500Z 33005KT 1 1/2SM -DZ BR BKN003 OVC006 02/02 A2931 RMK ST5ST3 SLP930

CYYG;2012-12-28 15:15;CYYG 281515Z 32005KT 1SM R03/P6000FT/U -DZ BR OVC004 02/02 A2931 RMK ST8 SLP928

CYYG;2012-12-28 16:00;CYYG 281600Z 31004KT 1SM R03/P6000FT/U -DZ BR BKN006 OVC012 02/02 A2931 RMK SF5SF3 SLP926

CYYG;2012-12-28 16:31;CYYG 281631Z 30005KT 2SM -RA BR SCT006 OVC019 02/02 A2930 RMK SF3SC5 SLP924

CYYG;2012-12-28 17:00;CYYG 281700Z 30003KT 2SM -RA BR FEW001 OVC018 02/02 A2929 RMK SF2SC6 SLP922

CYYG;2012-12-28 17:23;CYYG 281723Z 30005KT 2SM -RA BR BKN002 OVC019 02/02 A2929 RMK SF5SC3 SLP921

CYYG;2012-12-28 17:47;CYYG 281747Z 30006KT 1SM R03/5000VP6000FT/D -RA BR OVC002 02/02 A2929 RMK SF8 SLP922

CYYG;2012-12-28 18:00;CYYG 281800Z 31005KT 1/2SM R03/3000V5000FT/D -RA FG VV002 02/02 A2929 RMK FG8 SLP922

CYYG;2012-12-28 18:21;CYYG 281821Z 31004KT 1 1/2SM BR OVC002 02/02 A2930 RMK SF8 SLP923

CYYG;2012-12-28 19:00;CYYG 281900Z 31008KT 1/4SM R03/2000FT/N FG VV002 02/02 A2931 RMK FG8 SLP926

CYYG;2012-12-28 20:00;CYYG 282000Z 30009G16KT 1/4SM R03/2400FT/N FG VV002 02/02 A2933 RMK FG8 SLP934

CYYG;2012-12-28 20:33;CYYG 282033Z 30011G19KT 1/2SM R03/3000FT/N FG VV002 02/02 A2934 RMK FG8 SLP938

CYYG;2012-12-28 21:00;CYYG 282100Z 30012G17KT 1/2SM R03/5000FT/N -DZ FG VV002 01/01 A2935 RMK FG8 SLP942

CYYG;2012-12-28 21:17;CYYG 282117Z 31013G21KT 1 1/2SM -DZ BR OVC002 01/01 A2936 RMK SF8 SLP945

CYYG;2012-12-28 22:00;CYYG 282200Z 30012G21KT 3SM -DZ BR OVC003 01/01 A2938 RMK SF8 SLP952

CYYG;2012-12-28 23:00;CYYG 282300Z 31014G27KT 5SM -DZ BR OVC004 01/01 A2941 RMK SF8 SLP961

CYYG;2012-12-29 00:00;CYYG 290000Z 32014G30KT 5SM -DZ BR OVC005 00/00 A2944 RMK SF8 SLP971

CYYG;2012-12-29 00:27;CYYG 290027Z 32017G31KT 4SM -SHSN OVC006 01/00 A2945 RMK SF8 SLP976

CYYG;2012-12-29 01:00;CYYG 290100Z 31014G23KT 3SM -SHSN OVC006 00/00 A2947 RMK SF8 SLP982

CYYG;2012-12-29 01:29;CYYG 290129Z 30018G26KT 1SM -SHSN OVC006 00/M00 A2949 RMK SF8 SLP988

CYYG;2012-12-29 02:00;CYYG 290200Z 30016G29KT 1SM -SHSN OVC006 M01/M01 A2952 RMK SF8 /S01/ SLP997

CYYG;2012-12-29 02:48;CYYG 290248Z 30018G28KT 3SM -SHSN OVC010 M01/M02 A2954 RMK SF8 SLP007

CYYG;2012-12-29 03:00;CYYG 290300Z 30017G26KT 3SM -SHSN OVC010 M01/M02 A2955 RMK SF8 SLP008

CYYG;2012-12-29 04:00;CYYG 290400Z 29015G26KT 3SM -SHSN DRSN BKN010 OVC020 M02/M02 A2957 RMK SF6SC2 /S03/ SLP015

CYYG;2012-12-29 05:00;CYYG 290500Z 29014G22KT 3SM -SHSN DRSN BKN009 OVC015 M02/M03 A2959 RMK SF7SC1 SLP023

CYYG;2012-12-29 06:00;CYYG 290600Z 29012G21KT 5SM -SHSN DRSN BKN009 OVC018 M02/M03 A2962 RMK SF6SC2 SLP033

CYYG;2012-12-29 07:00;CYYG 290700Z 28012KT 5SM -SHSN BR OVC011 M02/M03 A2965 RMK SC8 SLP043

CYYG;2012-12-29 08:00;CYYG 290800Z 28015G23KT 6SM -SHSN DRSN OVC011 M03/M04 A2967 RMK SC8 SLP049

CYYG;2012-12-29 09:00;CYYG 290900Z 28014G21KT 15SM -SHSN DRSN OVC008 M03/M04 A2969 RMK SF8 SLP057

CYYG;2012-12-29 10:00;CYYG 291000Z 28011G19KT 15SM -SHSN DRSN OVC008 M03/M04 A2971 RMK SF8 SLP063

CYYG;2012-12-29 11:00;CYYG 291100Z 28012G17KT 15SM OVC008 M04/M05 A2973 RMK SF8 SLP070

CYYG;2012-12-29 12:00;CYYG 291200Z 28012G20KT 12SM OVC009 M04/M05 A2976 RMK SF8 SLP081

CYYG;2012-12-29 12:40;CYYG 291240Z 28013G19KT 12SM SCT009 OVC018 M04/M05 A2978 RMK SF4SC4 SLP088

CYYG;2012-12-29 13:00;CYYG 291300Z 28011G18KT 12SM BKN009 OVC020 M04/M05 A2979 RMK SF5SC3 SLP091

CYYG;2012-12-29 13:40;CYYG 291340Z 27011G17KT 15SM BKN011 BKN020 BKN055 M04/M06 A2980 RMK SC5SC1SC1 SLP096

CYYG;2012-12-29 14:00;CYYG 291400Z 27011G17KT 15SM SCT012 BKN021 OVC055 M04/M06 A2981 RMK SC4SC3SC1 SLP098

CYYG;2012-12-29 15:00;CYYG 291500Z 26010G16KT 15SM -SHSN FEW010 OVC019 M04/M06 A2984 RMK SC2SC6 SLP107

CYYG;2012-12-29 16:00;CYYG 291600Z 27008KT 15SM -SHSN BKN012 OVC019 M04/M06 A2983 RMK SC5SC3 PCPN VRY LGT SLP105

CYYG;2012-12-29 17:00;CYYG 291700Z 26009KT 15SM SCT011 OVC019 M04/M06 A2983 RMK SC4SC4 SLP103

CYYG;2012-12-29 18:00;CYYG 291800Z 26007KT 15SM FEW012 OVC018 M03/M06 A2983 RMK SC2SC6 SLP104

CYYG;2012-12-29 19:00;CYYG 291900Z 25008KT 15SM FEW011 OVC020 M04/M06 A2985 RMK SC2SC6 SLP112

CYYG;2012-12-29 20:00;CYYG 292000Z 26008KT 15SM FEW010 BKN021 M04/M06 A2987 RMK SC2SC5 SLP118

CYYG;2012-12-29 21:00;CYYG 292100Z 24010KT 15SM FEW010 BKN022 M05/M07 A2988 RMK SC2SC5 SLP121

CYYG;2012-12-29 22:00;CYYG 292200Z 24006KT 15SM FEW010 BKN023 M05/M07 A2986 RMK SC2SC5 SLP115

CYYG;2012-12-29 23:00;CYYG 292300Z 26006KT 15SM FEW010 BKN024 M05/M07 A2986 RMK SC1SC6 SLP116

CYYG;2012-12-30 00:00;CYYG 300000Z 25005KT 15SM OVC023 M05/M06 A2987 RMK SC8 SLP117

CYYG;2012-12-30 01:00;CYYG 300100Z 35002KT 15SM OVC023 M05/M06 A2981 RMK SC8 PRESFR SLP099

CYYG;2012-12-30 02:00;CYYG 300200Z 00000KT 15SM OVC024 M05/M06 A2980 RMK SC8 PRESFR SLP096

CYYG;2012-12-30 03:00;CYYG 300300Z 06004KT 15SM OVC020 M05/M06 A2977 RMK SC8 PRESFR SLP085

CYYG;2012-12-30 04:00;CYYG 300400Z 05004KT 15SM OVC018 M05/M06 A2973 RMK SC8 PRESFR SLP071

CYYG;2012-12-30 05:00;CYYG 300500Z 05004KT 15SM BKN018 OVC086 M04/M05 A2968 RMK SC5AC3 SLP053

CYYG;2012-12-30 06:00;CYYG 300600Z 06011KT 15SM BKN016 OVC084 M03/M05 A2958 RMK SC6AC2 PRESFR SLP020

CYYG;2012-12-30 07:00;CYYG 300700Z 06014KT 15SM BKN015 OVC082 M03/M04 A2952 RMK SC6AC2 PRESFR SLP999

CYYG;2012-12-30 08:00;CYYG 300800Z 06014KT 15SM BKN015 OVC070 M02/M04 A2944 RMK SC6AC2 SLP974

CYYG;2012-12-30 09:00;CYYG 300900Z 06016G24KT 12SM -SN DRSN OVC012 M02/M03 A2934 RMK SC8 PRESRR SLP936

CYYG;2012-12-30 09:21;CYYG 300921Z 06016G26KT 1 1/2SM -SN DRSN OVC010 M01/M03 A2934 RMK SN4SC4 PRESRR SLP938

CYYG;2012-12-30 09:37;CYYG 300937Z 04017G22KT 3/4SM -SN BLSN VV004 M02/M02 A2930 RMK SN8 PRESFR SLP923

CYYG;2012-12-30 10:00;CYYG 301000Z CCA 04013KT 5/8SM -SN BLSN VV004 M01/M02 A2934 RMK SN8 /S01/ PRESRR SLP936

CYYG;2012-12-30 10:30;CYYG 301030Z 04019KT 3/8SM SN BLSN VV003 M01/M01 A2925 RMK SN8 SLP908

CYYG;2012-12-30 11:00;CYYG 301100Z CCA 05019G28KT 3/8SM SN BLSN VV002 M01/M01 A2921 RMK SN8 /S04/ PRESFR SLP895

CYYG;2012-12-30 12:00;CYYG 301200Z 05022KT 1/2SM R03/3500FT/N SN BLSN VV006 M01/M01 A2913 RMK SN8 /S06/ PRESFR SLP868

CYYG;2012-12-30 12:16;CYYG 301216Z 05020G27KT 5/8SM R03/4000FT/U -SN BLSN VV007 M00/M01 A2910 REBLSN RMK SN8 PRESFR SLP858

CYYG;2012-12-30 13:00;CYYG 301300Z 04022G28KT 3/4SM R03/5500VP6000FT/U -SN BLSN VV008 M00/M00 A2904 RESN REBLSN RMK SN8 PRESFR SLP835

CYYG;2012-12-30 14:00;CYYG 301400Z 04024G35KT 3/4SM R03/5000FT/N -SN BLSN OVC005 00/M00 A2895 RMK SN5SF3 /S01/ SLP804

CYYG;2012-12-30 15:00;CYYG 301500Z 04025G35KT 3/4SM R03/4500VP6000FT/U -SN BLSN OVC005 01/00 A2886 RMK SN6SF2 PRESFR SLP776

CYYG;2012-12-30 16:00;CYYG 301600Z 04020G27KT 1 1/4SM -RASN BR OVC005 01/00 A2879 RMK SF8 PRESFR SLP750

CYYG;2012-12-30 16:28;CYYG 301628Z 03022G28KT 5SM -RASN BR OVC005 01/00 A2875 RMK SF8 VIS LWR SE PRESFR SLP738

CYYG;2012-12-30 16:49;CYYG 301649Z 03018G26KT 3SM -SNPL OVC006 01/00 A2873 RMK SF8 VIS LWR E PRESFR SLP730

CYYG;2012-12-30 17:00;CYYG 301700Z 03020G26KT 1 1/2SM -SNPL OVC005 01/00 A2871 RMK SF8 PRESFR SLP725

CYYG;2012-12-30 17:28;CYYG 301728Z 03022G31KT 3SM -SN BR OVC006 01/00 A2869 RMK SF8 PRESFR SLP717

CYYG;2012-12-30 18:00;CYYG 301800Z 02021G31KT 2 1/2SM R03/5500VP6000FT/D -SN BR OVC005 01/00 A2866 RMK SF8 SNW WET VIS LWR E-NE PRESFR SLP708

CYYG;2012-12-30 18:11;CYYG 301811Z 02023G32KT 3/4SM R03/4500FT/N -SN VV005 01/00 A2866 RMK SN8 SLP707

CYYG;2012-12-30 19:00;CYYG 301900Z 36016G25KT 1 1/2SM -SN OVC006 01/00 A2866 RMK SN4SF4 SNW WET SLP708

CYYG;2012-12-30 19:29;CYYG 301929Z 35014G24KT 1SM R03/5000VP6000FT/D -SN OVC003 00/00 A2866 RMK SN4SF4 SNW WET SLP709

CYYG;2012-12-30 19:40;CYYG 301940Z 35015G23KT 5/8SM R03/4500VP6000FT/D -SN VV004 00/00 A2866 RMK SN8 SNW WET SLP709

CYYG;2012-12-30 19:46;CYYG 301946Z 35016G23KT 3/8SM R03/3000V4500FT/D SN VV004 00/00 A2867 RMK SN8 SNW WET SLP710

CYYG;2012-12-30 20:00;CYYG 302000Z 34017G27KT 3/8SM SN VV003 00/00 A2868 RMK SN8 SNW WET /S02/ SLP713

CYYG;2012-12-30 20:36;CYYG 302036Z 34016G28KT 3/8SM SN BLSN VV004 00/00 A2869 RMK SN8 SLP717

CYYG;2012-12-30 21:00;CYYG 302100Z 34022G34KT 3/4SM R03/3500FT/N -SN BLSN VV005 00/00 A2870 REBLSN RESN RMK SN8 /S04/ SLP720

CYYG;2012-12-30 22:00;CYYG 302200Z 33021G36KT 1SM R03/5000FT/D -SN BLSN OVC005 00/00 A2873 RMK SN3SF5 /S05/ SLP730

CYYG;2012-12-30 22:30;CYYG 302230Z 33024G44KT 3SM -SN BLSN BKN007 OVC033 01/00 A2874 RMK SF7NS1 SLP736

CYYG;2012-12-30 23:00;CYYG 302300Z 33023G33KT 3SM -SN BLSN OVC007 01/00 A2877 RMK SF8 PRESRR SLP746

CYYG;2012-12-30 23:30;CYYG 302330Z 32025G37KT 2 1/2SM -RASN BR OVC006 00/M00 A2879 REBLSN RMK SF8 SLP751

CYYG;2012-12-31 00:00;CYYG 310000Z 32027G40KT 2SM -SN OVC006 00/M00 A2880 RMK SF8 /S06/ SLP756

CYYG;2012-12-31 01:00;CYYG 310100Z 32025G41KT 3/4SM R03/4500VP6000FT/D -SN BLSN OVC006 00/M01 A2884 RMK SF8 /S01/ SLP768

CYYG;2012-12-31 01:16;CYYG 310116Z 32028G38KT 1/2SM R03/4000FT/N -SN BLSN OVC006 M00/M01 A2885 RMK SN2SF6 SLP771

CYYG;2012-12-31 02:00;CYYG 310200Z 31026G38KT 1/2SM R03/3500FT/U -SN BLSN OVC006 M01/M01 A2888 RMK SN2SF6 /S03/ SLP781

CYYG;2012-12-31 03:00;CYYG 310300Z 31023G35KT 3/4SM R03/4000FT/N -SN BLSN OVC008 M01/M01 A2891 RMK SF8 SLP793

CYYG;2012-12-31 03:15;CYYG 310315Z 30021G38KT 1 1/2SM R03/5000FT/U -SN BLSN OVC008 M01/M02 A2892 RMK SF8 SLP796

CYYG;2012-12-31 04:00;CYYG 310400Z 30020G33KT 1 1/2SM R03/4000V5500FT/D -SN BLSN OVC008 M01/M02 A2895 RMK SF8 SLP806

CYYG;2012-12-31 04:46;CYYG 310446Z 30022G37KT 3SM R03/4500VP6000FT/N -FZDZ -SN BLSN OVC011 M02/M03 A2898 RMK SF8 SLP815

CYYG;2012-12-31 05:00;CYYG 310500Z 30024G37KT 3SM R03/5000VP6000FT/U -FZDZ -SN BLSN OVC011 M02/M03 A2899 RMK ST8 SLP818

CYYG;2012-12-31 06:00;CYYG 310600Z 30024G40KT 5SM -SHSN BLSN BKN012 M02/M04 A2903 REFZDZ RMK SC7 PRESRR SLP832

CYYG;2012-12-31 07:00;CYYG 310700Z 30019G32KT 8SM -SHSN DRSN OVC016 M02/M05 A2906 RMK SC8 SLP844

CYYG;2012-12-31 08:00;CYYG 310800Z 28019G31KT 8SM -SHSN DRSN OVC016 M04/M06 A2910 RMK SC8 SLP855

CYYG;2012-12-31 09:00;CYYG 310900Z 28021G36KT 10SM -SHSN DRSN SCT018 BKN027 M05/M07 A2913 RMK SC3SC4 SLP866

CYYG;2012-12-31 10:00;CYYG 311000Z 29016G28KT 8SM -SHSN DRSN FEW018 BKN028 M05/M08 A2915 RMK SC1SC6 SLP876

CYYG;2012-12-31 10:39;CYYG 311039Z 28019G29KT 10SM DRSN FEW018 SCT030 OVC080 M06/M09 A2918 RMK SC2SC2AC4 SLP883

CYYG;2012-12-31 11:00;CYYG 311100Z 29020G29KT 10SM DRSN FEW018 FEW030 BKN120 M06/M09 A2918 RMK SC1SC1AC5 SLP886

CYYG;2012-12-31 12:00;CYYG 311200Z 28017G30KT 15SM DRSN FEW020 SCT035 BKN130 M07/M10 A2922 RMK SC2SC2AC3 SLP899

CYYG;2012-12-31 13:00;CYYG 311300Z 28018G26KT 15SM DRSN FEW020 SCT035 BKN140 M07/M10 A2926 RMK SC2SC2AC3 SLP910

CYYG;2012-12-31 14:00;CYYG 311400Z 29019G38KT 15SM DRSN FEW020 FEW035 SCT140 M07/M11 A2928 RMK SC1SC1AC2 SLP916

CYYG;2012-12-31 15:00;CYYG 311500Z 29020G31KT 15SM DRSN FEW020 SCT140 M06/M11 A2930 WS RWY03 RMK SC2AC2 SLP925

CYYG;2012-12-31 16:00;CYYG 311600Z 29018G30KT 15SM FEW023 SCT036 M06/M10 A2931 RMK SC2SC2 SLP928

CYYG;2012-12-31 17:00;CYYG 311700Z 28019G30KT 15SM SCT019 BKN036 M06/M10 A2933 RMK SC3SC2 SLP936

CYYG;2012-12-31 18:00;CYYG 311800Z 28017G29KT 15SM FEW019 SCT036 BKN120 M06/M10 A2935 RMK SC2SC1AC2 SLP942

CYYG;2012-12-31 19:00;CYYG 311900Z 28019G30KT 15SM FEW020 FEW120 SCT210 M06/M11 A2938 RMK SC1AC1CI2 SLP952

CYYG;2012-12-31 20:00;CYYG 312000Z 28014G23KT 15SM FEW020 BKN250 M06/M10 A2941 RMK SC1CI4 SLP964

CYYG;2012-12-31 21:00;CYYG 312100Z CCA 28010G16KT 15SM FEW020 FEW040 M07/M10 A2943 RMK SC1SC1 SLP970

CYYG;2012-12-31 22:00;CYYG 312200Z 28012G19KT 15SM FEW020 M06/M10 A2945 RMK SC2 SLP976

CYYG;2012-12-31 23:00;CYYG 312300Z 28012G18KT 15SM FEW022 M07/M09 A2947 RMK SC2 SLP982

