CYYG;2008-01-01 01:00;CYYG 010100Z 29012G20KT 2 1/2SM -SN BLSN BKN006 OVC012 M02/M02 A2953 RMK SF6SC2 SLP003

CYYG;2008-01-01 02:00;CYYG 010200Z 30018G26KT 3SM -SN BLSN OVC009 M03/M03 A2959 RMK SF8 /PRESRR/ SLP023

CYYG;2008-01-01 03:00;CYYG 010300Z 29017G26KT 3SM -SN BLSN OVC009 M04/M05 A2966 RMK SF8 /PRESRR/ SLP047

CYYG;2008-01-01 04:00;CYYG 010400Z 28013G21KT 4SM -SN BLSN OVC010 M05/M05 A2972 RMK SF8 /PRESRR/ SLP068

CYYG;2008-01-01 05:00;CYYG 010500Z 28017KT 6SM -SN OVC011 M06/M06 A2977 RMK SF8 SLP084

CYYG;2008-01-01 06:00;CYYG 010600Z 29014G19KT 15SM -SHSN BKN015 BKN033 M06/M08 A2982 RMK SC6SC2 SLP100

CYYG;2008-01-01 07:00;CYYG 010700Z 29012G17KT 15SM -SHSN BKN015 M07/M09 A2986 RMK SC6 SLP114

CYYG;2008-01-01 08:00;CYYG 010800Z 30018G24KT 15SM -SHSN BKN022 M07/M10 A2990 RMK SC6 SLP127

CYYG;2008-01-01 08:46;CYYG 010846Z 30010G16KT 15SM FEW025 M08/ RMK SC2

CYYG;2008-01-01 09:00;CYYG 010900Z 29011KT 15SM FEW025 M08/M11 A2995 RMK SC2 SLP144

CYYG;2008-01-01 10:00;CYYG 011000Z 29007KT 15SM BKN019 M09/M12 A2999 RMK SC5 SLP158

CYYG;2008-01-01 11:00;CYYG 011100Z 29007KT 15SM BKN018 M09/M12 A3001 RMK SC6 SLP167

CYYG;2008-01-01 12:00;CYYG 011200Z 27006KT 15SM FEW018 M10/M13 A3006 RMK SC2 SLP182

CYYG;2008-01-01 13:00;CYYG 011300Z 28008KT 15SM FEW018 FEW300 M10/M12 A3009 RMK SC1CI0 SLP192

CYYG;2008-01-01 14:00;CYYG 011400Z 25008KT 15SM FEW018 FEW300 M08/M11 A3013 RMK SC1CI0 SLP205

CYYG;2008-01-01 15:00;CYYG 011500Z 25012KT 15SM FEW018 FEW300 M08/M11 A3014 RMK SC1CI1 SLP208

CYYG;2008-01-01 16:00;CYYG 011600Z 27008KT 15SM FEW018 FEW300 M07/M11 A3011 RMK SC1CI1 SLP200

CYYG;2008-01-01 17:00;CYYG 011700Z 25006KT 15SM FEW018 FEW300 M06/M11 A3010 RMK SC1CI1 SLP195

CYYG;2008-01-01 18:00;CYYG 011800Z 22007KT 15SM SCT300 M06/M10 A3010 RMK CI1 SLP195

CYYG;2008-01-01 19:00;CYYG 011900Z 24005KT 15SM SCT300 M05/M09 A3009 RMK CI1 SLP192

CYYG;2008-01-01 20:00;CYYG 012000Z 21003KT 15SM SCT300 M06/M10 A3008 RMK CI1 SLP189

CYYG;2008-01-01 21:00;CYYG 012100Z 20005KT 15SM SCT300 M07/M10 A3009 RMK CI1 SLP193

CYYG;2008-01-01 22:00;CYYG 012200Z 20002KT 15SM SCT300 M08/M10 A3010 RMK CI1 SLP195

CYYG;2008-01-01 23:00;CYYG 012300Z 16005KT 15SM SCT130 OVC300 M07/M09 A3008 RMK AC3CI2 SLP190

CYYG;2008-01-02 00:00;CYYG 020000Z 16004KT 15SM SCT110 OVC130 M07/M09 A3007 RMK AC3AC2 SLP185

CYYG;2008-01-02 01:00;CYYG 020100Z 14004KT 15SM BKN078 OVC086 M07/M09 A3004 RMK AC5AC2 SLP177

CYYG;2008-01-02 02:00;CYYG 020200Z 11002KT 15SM BKN072 OVC091 M06/M08 A3001 RMK AC5AC2 SLP164

CYYG;2008-01-02 03:00;CYYG 020300Z 12006KT 15SM BKN061 OVC072 M05/M08 A2996 RMK SC6AC2 SLP149

CYYG;2008-01-02 04:00;CYYG 020400Z 09011KT 15SM BKN079 OVC091 M05/M08 A2987 RMK AC5AC3 /PRESFR/ SLP118

CYYG;2008-01-02 05:00;CYYG 020500Z 10009KT 15SM BKN070 OVC084 M04/M07 A2980 RMK AC6AC2 /PRESFR/ SLP095

CYYG;2008-01-02 06:00;CYYG 020600Z 07012KT 15SM BKN025 OVC035 M04/M07 A2971 RMK SC6SC2 /PRESFR/ SLP065

CYYG;2008-01-02 07:00;CYYG 020700Z 09018KT 15SM BKN033 OVC045 M03/M06 A2963 RMK SC5SC3 /PRESFR/ SLP035

CYYG;2008-01-02 07:46;CYYG 020746Z 09016G22KT 3SM -SHSN BKN007 OVC013 M04/ RMK SF6SC2

CYYG;2008-01-02 08:00;CYYG 020800Z 10018G26KT 1/2SM R03/2400V4500FT/D SN VV002 M04/M06 A2952 RMK SN8 /PRESFR/ SLP999

CYYG;2008-01-02 09:00;CYYG 020900Z 09016G21KT 1/2SM R03/2800FT/N SN VV002 M04/M05 A2946 RMK SN8 SLP979

CYYG;2008-01-02 09:48;CYYG 020948Z 09019G25KT 1/2SM R03/3000FT/N TSSN VV002 M03/ RMK SN8 CB EMBDD/LTGCC

CYYG;2008-01-02 10:00;CYYG 021000Z 08018G26KT 1/2SM R03/2200V3000FT/N TSSN VV002 M03/M03 A2934 RMK SN8 CB EMBDD/LTGCC/PRESFR SLP939

CYYG;2008-01-02 11:00;CYYG 021100Z 07013KT 1/2SM R03/1800FT/N SN OVC004 M03/M03 A2930 RETS RMK SF8 SLP924

CYYG;2008-01-02 11:11;CYYG 021111Z 07014G20KT 3/8SM R03/1200V2200FT/D SN OVC003 M03/ RMK SF8

CYYG;2008-01-02 12:00;CYYG 021200Z 06013G21KT 3/4SM R03/5500FT/D -SN BLSN VV007 M03/M03 A2923 RESN RMK SN8 /S09/ PRESFR SLP901

CYYG;2008-01-02 12:45;CYYG 021245Z 05016KT 1/2SM R03/3000FT/N -SN BLSN VV004 M02/ RMK SN8

CYYG;2008-01-02 13:00;CYYG 021300Z 05018KT 1/2SM R03/3000FT/N -SN BLSN VV005 M02/M02 A2918 RMK SN8 SLP884

CYYG;2008-01-02 13:43;CYYG 021343Z 04011G19KT 3/4SM R03/5500FT/D -SN BLSN VV008 M02/ RMK SN8

CYYG;2008-01-02 14:00;CYYG 021400Z 04012KT 1SM R03/P6000FT/U -SN BLSN VV008 M02/M02 A2915 RMK SN8 SLP874

CYYG;2008-01-02 14:12;CYYG 021412Z 04010KT 1 1/2SM -SN BLSN VV012 M01/ RMK SN8

CYYG;2008-01-02 14:43;CYYG 021443Z 04014KT 2SM -SN DRSN OVC008 M01/ RMK SF8

CYYG;2008-01-02 15:00;CYYG 021500Z 04014KT 2SM -SN BKN004 OVC021 M01/M01 A2913 RMK SF6SC2 SLP867

CYYG;2008-01-02 16:00;CYYG 021600Z 03012KT 2SM -SN OVC006 M01/M01 A2911 RMK SF8 SLP861

CYYG;2008-01-02 16:06;CYYG 021606Z 03016KT 1/2SM R03/3000VP6000FT/D SN OVC006 M01/ RMK SF8

CYYG;2008-01-02 16:34;CYYG 021634Z 01017G24KT 3/4SM R03/3000V4500FT/N -SN OVC009 M01/ RMK SF8 R03/5000FT/N

CYYG;2008-01-02 16:51;CYYG 021651Z 02021G33KT 1/2SM R03/1800V3000FT/D SN OVC009 M02/ RMK SF8 R03/1800/D

CYYG;2008-01-02 17:00;CYYG 021700Z 02017G32KT 1/2SM R03/1600V2600FT/U SN BLSN OVC009 M02/M03 A2917 RMK SF8 SLP880

CYYG;2008-01-02 18:00;CYYG 021800Z 01021G30KT 1/2SM R03/1600V4000FT/U -SN BLSN OVC009 M02/M03 A2923 RMK SF8 PRESRR RESN /S04/ SLP900

CYYG;2008-01-02 18:43;CYYG 021843Z 35023G36KT 1/4SM R03/1200V2000FT/N SN +BLSN OVC009 M03/ RMK SF8

CYYG;2008-01-02 19:00;CYYG 021900Z 36020G30KT 1/4SM R03/1100V3500FT/U SN +BLSN OVC010 M03/M04 A2933 RMK SF8 PRESRR SLP933

CYYG;2008-01-02 20:00;CYYG 022000Z 34025G34KT 1/4SM R03/1400V3000FT/N SN +BLSN OVC010 M05/M06 A2942 RMK SF8 SLP966

CYYG;2008-01-02 20:16;CYYG 022016Z 34016G28KT 3/4SM R03/2200V4000FT/U -SN BLSN OVC010 M05/ RMK SF8 PRESRR

CYYG;2008-01-02 21:00;CYYG 022100Z 34018G28KT 3/4SM R03/2400V5000FT/N -SN BLSN OVC010 M05/M07 A2950 RMK SF8 PRESRR SLP993

CYYG;2008-01-02 22:00;CYYG 022200Z 34018G28KT 2SM -SN BLSN OVC010 M06/M07 A2957 RMK SF8 SLP016

CYYG;2008-01-02 23:00;CYYG 022300Z 33017G29KT 6SM -SN BLSN OVC015 M06/M08 A2963 RMK SF8 SLP035

CYYG;2008-01-02 23:54;CYYG 022354Z 33017G22KT 2 1/2SM -SN BLSN BKN011 OVC022 M07/ RMK SF6SC2

CYYG;2008-01-03 00:00;CYYG 030000Z 33015G22KT 3SM -SN BLSN BKN010 OVC032 M07/M09 A2968 RMK SF6SC2 /S06/PRESRR/ SLP054

CYYG;2008-01-03 00:39;CYYG 030039Z 32014KT 1 1/2SM R03/4500VP6000FT/U -SN BLSN BKN008 OVC018 M07/ RMK SF6SC2

CYYG;2008-01-03 01:00;CYYG 030100Z 32013G19KT 1 1/2SM -SN BLSN OVC009 M07/M09 A2971 RMK SF8 SLP064

CYYG;2008-01-03 01:19;CYYG 030119Z 33013G20KT 10SM -SN SCT010 OVC029 M07/ RMK SF3SC5

CYYG;2008-01-03 01:45;CYYG 030145Z 31017KT 1SM R03/4500VP6000FT/D -SN BKN007 OVC019 M08/ RMK SF6SC2

CYYG;2008-01-03 02:00;CYYG 030200Z 31014G22KT 2SM R03/2600VP6000FT/U -SN BLSN OVC010 M08/M10 A2974 RMK SF8 SLP073

CYYG;2008-01-03 03:00;CYYG 030300Z 30013G18KT 2SM -SN BLSN BKN012 OVC027 M10/M12 A2978 RMK SF6SC2 SLP088

CYYG;2008-01-03 04:00;CYYG 030400Z 29012G19KT 4SM -SN BLSN SCT010 OVC026 M11/M13 A2982 RMK SF3SC5 SLP101

CYYG;2008-01-03 05:00;CYYG 030500Z 29012KT 4SM -SN OVC024 M11/M13 A2985 RMK SC8 SLP109

CYYG;2008-01-03 06:00;CYYG 030600Z 29012KT 4SM -SN OVC025 M12/M14 A2988 RMK SC8 SLP121

CYYG;2008-01-03 07:00;CYYG 030700Z 28011KT 3SM -SN FEW010 OVC026 M12/M14 A2991 RMK SF2SC6 SLP132

CYYG;2008-01-03 08:00;CYYG 030800Z 29010G16KT 4SM -SN BLSN FEW010 OVC030 M13/M14 A2993 RMK SF2SC6 SLP138

CYYG;2008-01-03 09:00;CYYG 030900Z 29015KT 4SM -SN BLSN OVC032 M13/M15 A2996 RMK SC8 SLP147

CYYG;2008-01-03 10:00;CYYG 031000Z 29012G18KT 4SM -SN BLSN OVC035 M13/M15 A2999 RMK SC8 SLP158

CYYG;2008-01-03 11:00;CYYG 031100Z 30012KT 5SM -SN BLSN SCT012 OVC035 M14/M15 A3002 RMK SF3SC5 SLP168

CYYG;2008-01-03 12:00;CYYG 031200Z 29012KT 6SM -SN BLSN BKN017 M14/M16 A3004 RMK SC7 SLP177

CYYG;2008-01-03 12:23;CYYG 031223Z 29012KT 1SM R03/P6000FT/D -SN DRSN OVC017 M14/ RMK SN6SC2 REBLSN

CYYG;2008-01-03 12:51;CYYG 031251Z 29009KT 2SM -SN DRSN BKN017 OVC035 M14/ RMK SN2SC2SC3 REBLSN

CYYG;2008-01-03 13:00;CYYG 031300Z 29013KT 3SM -SN DRSN BKN015 OVC035 M13/M15 A3008 RMK SN2SC2SC3 REBLSN SLP191

CYYG;2008-01-03 14:00;CYYG 031400Z 29010KT 3SM -SN DRSN BKN017 BKN035 M13/M14 A3011 RMK SN2SC3SC2 SLP200

CYYG;2008-01-03 15:00;CYYG 031500Z 29012KT 6SM -SN DRSN SCT017 BKN035 M12/M14 A3012 RMK SC3SC4 SLP204

CYYG;2008-01-03 16:00;CYYG 031600Z 29013G18KT 6SM -SN DRSN SCT017 BKN035 M12/M14 A3013 RMK SC3SC4 SLP207

CYYG;2008-01-03 16:40;CYYG 031640Z 29013KT 1 1/2SM -SN DRSN SCT017 OVC035 M11/ RMK SC4SC4

CYYG;2008-01-03 17:00;CYYG 031700Z 29010G16KT 1 1/2SM R03/4500VP6000FT/N -SN DRSN SCT017 OVC035 M11/M12 A3013 RMK SC4SC4 SLP208

CYYG;2008-01-03 18:00;CYYG 031800Z 33013G19KT 1 1/2SM -SN DRSN BKN012 OVC025 M09/M11 A3016 RMK SC5SC3 SLP217

CYYG;2008-01-03 18:25;CYYG 031825Z 32012G19KT 3SM -SN DRSN OVC012 M09/ RMK SC8

CYYG;2008-01-03 19:00;CYYG 031900Z 33011G17KT 3SM -SN DRSN OVC016 M09/M11 A3018 RMK SC8 SLP225

CYYG;2008-01-03 19:15;CYYG 031915Z 34009G15KT 1/4SM R03/1800VP6000FT/D SN DRSN VV006 M09/ RMK SN8

CYYG;2008-01-03 19:24;CYYG 031924Z 34011G17KT 3/4SM R03/1100V2600FT/N -SN DRSN OVC010 M09/ RMK SF8 RESN

CYYG;2008-01-03 19:42;CYYG 031942Z 34012G17KT 6SM -SN DRSN BKN020 OVC040 M09/ RMK SF6SC2 RESN

CYYG;2008-01-03 20:00;CYYG 032000Z 34013G19KT 6SM -SN DRSN BKN020 OVC040 M09/M12 A3022 RMK SF6SC2 SLP236

CYYG;2008-01-03 20:50;CYYG 032050Z 34012KT 3/4SM R03/P6000FT/D -SN DRSN VV003 M10/ RMK SN8

CYYG;2008-01-03 21:00;CYYG 032100Z 34012KT 3/4SM R03/P6000FT/D -SN DRSN VV003 M10/M11 A3025 RMK SN8 SLP246

CYYG;2008-01-03 22:00;CYYG 032200Z 33013KT 8SM -SN DRSN BKN010 OVC040 M10/M12 A3027 RMK SF6SC2 SLP254

CYYG;2008-01-03 22:18;CYYG 032218Z 34010KT 8SM -SN SCT010 OVC038 M09/ RMK SF3SC5

CYYG;2008-01-03 23:00;CYYG 032300Z 34009G16KT 6SM -SN SCT010 OVC038 M10/M13 A3030 RMK SF3SC5 SLP265

CYYG;2008-01-03 23:08;CYYG 032308Z 34007KT 3SM -SN OVC014 M10/ RMK SN2SF6

CYYG;2008-01-04 00:00;CYYG 040000Z 29010KT 6SM -SN FEW015 OVC025 M11/M13 A3034 RMK SF2SC6 /S01/ SLP278

CYYG;2008-01-04 01:00;CYYG 040100Z CCA 31009KT 3SM -SHSN DRSN BKN025 OVC040 M12/M13 A3035 RMK CU5SC3 OBS TAKEN +11 VIS VRB 1-6 SLP282

CYYG;2008-01-04 02:00;CYYG 040200Z 29008KT 4SM -SHSN DRSN BKN025 OVC042 M12/M14 A3035 RMK CU5SC3 SLP283

CYYG;2008-01-04 03:00;CYYG 040300Z 29008KT 3SM -SHSN DRSN BKN020 OVC037 M13/M14 A3036 RMK CU5SC3 VIS VRB 2-4 SLP285

CYYG;2008-01-04 04:00;CYYG 040400Z 29011KT 5SM -SHSN DRSN FEW020 OVC037 M13/M15 A3036 RMK CU2SC6 SLP287

CYYG;2008-01-04 05:00;CYYG 040500Z 29011KT 4SM -SHSN DRSN FEW012 OVC040 M13/M15 A3037 RMK CU2SC6 SLP288

CYYG;2008-01-04 06:00;CYYG 040600Z CCA 29011G16KT 5SM -SHSN DRSN BKN035 M13/M15 A3037 RMK SC7 /S01/ SLP288

CYYG;2008-01-04 07:00;CYYG 040700Z 29010G15KT 10SM -SHSN DRSN BKN035 M15/M16 A3039 RMK SC6 SLP294

CYYG;2008-01-04 08:00;CYYG 040800Z 28008KT 15SM DRSN SCT032 M15/M17 A3037 RMK SC3 SLP288

CYYG;2008-01-04 09:00;CYYG 040900Z 30006KT 15SM FEW030 M16/M17 A3037 RMK SC1 SLP288

CYYG;2008-01-04 09:50;CYYG 040950Z 26007KT 15SM FEW030 M16/ RMK SC1

CYYG;2008-01-04 10:00;CYYG 041000Z 25009KT 6SM IC FEW030 M16/M17 A3038 RMK SC1 SLP291

CYYG;2008-01-04 10:35;CYYG 041035Z 25007KT 15SM FEW030 BKN200 M16/ RMK SC1CI2

CYYG;2008-01-04 11:00;CYYG 041100Z 25007KT 15SM FEW030 BKN200 M16/M18 A3038 RMK SC1CS5 SLP292

CYYG;2008-01-04 12:00;CYYG 041200Z 24006KT 15SM FEW030 SCT200 BKN280 M16/M17 A3036 RMK SC2CI2CI1 SLP286

CYYG;2008-01-04 13:00;CYYG 041300Z 25005KT 15SM FEW160 SCT250 M16/M18 A3035 RMK AC2CC1 SLP283

CYYG;2008-01-04 14:00;CYYG 041400Z 21007KT 15SM FEW110 SCT200 M14/M16 A3033 RMK AC2CS1 SLP276

CYYG;2008-01-04 15:00;CYYG 041500Z CCA 21009KT 15SM FEW030 FEW110 BKN250 M12/M14 A3030 RMK CF1AC1CS1 SLP263

CYYG;2008-01-04 16:00;CYYG 041600Z 23010KT 15SM FEW030 BKN110 BKN250 M10/M13 A3025 RMK CF1AC6CS1 SLP248

CYYG;2008-01-04 17:00;CYYG 041700Z 23011G18KT 15SM FEW030 BKN100 OVC250 M10/M12 A3023 RMK SC1AC6CI1 SLP240

CYYG;2008-01-04 18:00;CYYG 041800Z 22011G16KT 15SM FEW047 BKN090 OVC250 M08/M11 A3020 RMK SC1AC4CI2 SLP230

CYYG;2008-01-04 18:20;CYYG 041820Z 23012G20KT 10SM -SHSN BKN023 OVC090 M08/ RMK SC6AC2

CYYG;2008-01-04 19:00;CYYG 041900Z 23008KT 3SM -SHSN DRSN OVC020 M08/M10 A3018 RMK SN2SC6 SLP223

CYYG;2008-01-04 20:00;CYYG 042000Z 22013G18KT 15SM -SHSN DRSN FEW015 BKN086 M07/M09 A3015 RMK SC1AC6 SLP214

CYYG;2008-01-04 20:50;CYYG 042050Z 22008KT 15SM FEW020 BKN080 M07/ RMK SC1AC6

CYYG;2008-01-04 21:00;CYYG 042100Z 22008KT 15SM FEW020 BKN078 M07/M09 A3014 RMK CF1AC7 SLP211

CYYG;2008-01-04 22:00;CYYG 042200Z 23011KT 15SM FEW020 BKN071 M07/M08 A3012 RMK SC1AC6 SLP205

CYYG;2008-01-04 23:00;CYYG 042300Z 25007KT 15SM FEW020 BKN064 M07/M08 A3014 RMK SC1SC6 SLP209

CYYG;2008-01-05 00:00;CYYG 050000Z 26006KT 15SM BKN060 M07/M11 A3014 RMK SC5 SLP211

CYYG;2008-01-05 01:00;CYYG 050100Z 26007KT 15SM BKN060 M08/M11 A3014 RMK SC5 SLP210

CYYG;2008-01-05 02:00;CYYG 050200Z 25009KT 15SM FEW060 BKN100 M08/M11 A3014 RMK SC2AC2 SLP209

CYYG;2008-01-05 03:00;CYYG 050300Z 25007KT 15SM BKN100 M09/M11 A3014 RMK AC2 SLP211

CYYG;2008-01-05 04:00;CYYG 050400Z 24006KT 15SM BKN100 M09/M11 A3013 RMK AC2 SLP208

CYYG;2008-01-05 05:00;CYYG 050500Z 25010KT 15SM SCT100 M09/M11 A3013 RMK AC2 SLP207

CYYG;2008-01-05 06:00;CYYG 050600Z 25009KT 15SM SKC M08/M10 A3014 RMK SLP209

CYYG;2008-01-05 07:00;CYYG 050700Z 28009G15KT 15SM SKC M08/M10 A3014 RMK SLP211

CYYG;2008-01-05 08:00;CYYG 050800Z 28013KT 15SM FEW150 M07/M10 A3013 RMK AC2 SLP208

CYYG;2008-01-05 09:00;CYYG 050900Z 28011G16KT 15SM SCT150 M08/M10 A3014 RMK AC2 SLP209

CYYG;2008-01-05 10:00;CYYG 051000Z 27014KT 15SM SCT150 M08/M10 A3016 RMK AC2 SLP215

CYYG;2008-01-05 11:00;CYYG 051100Z 27010KT 15SM FEW150 M08/M10 A3018 RMK AC1 SLP224

CYYG;2008-01-05 12:00;CYYG 051200Z 27008KT 15SM SKC M08/M10 A3022 RMK SLP236

CYYG;2008-01-05 13:00;CYYG 051300Z 29009KT 15SM SKC M08/M10 A3024 RMK SLP245

CYYG;2008-01-05 14:00;CYYG 051400Z 29010G15KT 15SM SKC M06/M09 A3026 RMK SLP250

CYYG;2008-01-05 15:00;CYYG 051500Z 27007KT 15SM SKC M06/M09 A3027 RMK SLP255

CYYG;2008-01-05 16:00;CYYG 051600Z 28006KT 15SM FEW150 M05/M08 A3027 RMK AC1 SLP253

CYYG;2008-01-05 17:00;CYYG 051700Z 33006KT 15SM FEW020 M05/M09 A3026 RMK SC1 SLP250

CYYG;2008-01-05 18:00;CYYG 051800Z 30003KT 15SM FEW030 M05/M08 A3027 RMK SC1 SLP253

CYYG;2008-01-05 19:00;CYYG 051900Z 22003KT 15SM FEW020 FEW140 M04/M08 A3028 RMK SC1AC1 SLP259

CYYG;2008-01-05 20:00;CYYG 052000Z 21005KT 15SM FEW020 BKN300 M05/M09 A3028 RMK SC1CI2 SLP258

CYYG;2008-01-05 21:00;CYYG 052100Z 15003KT 15SM FEW030 BKN300 M07/M08 A3029 RMK SC1CI2 SLP260

CYYG;2008-01-05 22:00;CYYG 052200Z 19005KT 15SM FEW020 FEW120 BKN300 M07/M09 A3028 RMK SC1AC1CI2 SLP257

CYYG;2008-01-05 23:00;CYYG 052300Z 22004KT 15SM FEW090 BKN110 M07/M08 A3028 RMK AC1AC2 SLP258

CYYG;2008-01-06 00:00;CYYG 060000Z 18003KT 15SM SCT130 M07/M09 A3028 RMK AC2 SLP256

CYYG;2008-01-06 01:00;CYYG 060100Z 17003KT 15SM BKN140 M08/M08 A3027 RMK AC2 SLP255

CYYG;2008-01-06 02:00;CYYG 060200Z 17004KT 15SM FEW030 BKN140 M07/M08 A3027 RMK SC2AC3 SLP253

CYYG;2008-01-06 03:00;CYYG 060300Z 16004KT 15SM SCT030 BKN140 M07/M08 A3025 RMK SC3AC2 SLP245

CYYG;2008-01-06 04:00;CYYG 060400Z 18004KT 15SM BKN031 OVC140 M06/M07 A3023 RMK SC5AC2 SLP240

CYYG;2008-01-06 05:00;CYYG 060500Z 16004KT 15SM OVC026 M05/M06 A3019 RMK SC8 SLP227

CYYG;2008-01-06 06:00;CYYG 060600Z 18008KT 15SM OVC019 M04/M05 A3017 RMK SC8 SLP219

CYYG;2008-01-06 07:00;CYYG 060700Z 21006KT 15SM OVC033 M04/M05 A3017 RMK SC8 SLP221

CYYG;2008-01-06 08:00;CYYG 060800Z 20004KT 15SM OVC029 M04/M05 A3016 RMK SC8 SLP216

CYYG;2008-01-06 09:00;CYYG 060900Z 20006KT 15SM OVC032 M04/M05 A3013 RMK SC8 SLP207

CYYG;2008-01-06 10:00;CYYG 061000Z 20005KT 15SM OVC032 M03/M05 A3012 RMK SC8 SLP202

CYYG;2008-01-06 11:00;CYYG 061100Z 19006KT 15SM OVC031 M03/M04 A3011 RMK SC8 SLP200

CYYG;2008-01-06 11:37;CYYG 061137Z 19006KT 10SM -SN OVC028 M03/ RMK SC8

CYYG;2008-01-06 12:00;CYYG 061200Z 20005KT 5SM -SN OVC022 M03/M04 A3012 RMK SC8 SLP201

CYYG;2008-01-06 12:23;CYYG 061223Z 18005KT 5SM -FZDZ OVC018 M03/ RMK SC8

CYYG;2008-01-06 13:00;CYYG 061300Z 18005KT 3SM -FZDZ BR BKN008 OVC018 M03/M03 A3012 RMK SF5SC3 SLP204

CYYG;2008-01-06 13:21;CYYG 061321Z 19004KT 5SM -SN -FZDZ OVC008 M03/ RMK SF8

CYYG;2008-01-06 14:00;CYYG 061400Z 20004KT 8SM -SN -FZDZ OVC011 M03/M03 A3012 RMK SF8 SLP204

CYYG;2008-01-06 14:26;CYYG 061426Z 19004KT 10SM OVC009 M03/ REFZDZ RMK ST8

CYYG;2008-01-06 15:00;CYYG 061500Z 18007KT 15SM FEW009 OVC067 M02/M03 A3010 REFZDZ RMK SF2AC6 SLP195

CYYG;2008-01-06 15:04;CYYG 061504Z 23005KT 15SM BKN007 BKN067 M02/ RMK SF6AC2

CYYG;2008-01-06 15:13;CYYG 061513Z 22006KT 15SM FEW007 BKN074 M02/ RMK SF2AC6

CYYG;2008-01-06 16:00;CYYG 061600Z 24005KT 15SM OVC072 M01/M02 A3009 RMK AC8 SLP192

CYYG;2008-01-06 17:00;CYYG 061700Z 25005KT 15SM BKN058 OVC074 M00/M02 A3008 RMK SC5AC3 SLP188

CYYG;2008-01-06 18:00;CYYG 061800Z 26006KT 15SM BKN052 OVC074 00/M01 A3007 RMK SC6AC2 SLP187

CYYG;2008-01-06 19:00;CYYG 061900Z 24005KT 15SM FEW018 OVC037 01/M01 A3008 RMK SC2SC6 SLP189

CYYG;2008-01-06 20:00;CYYG 062000Z 26004KT 15SM FEW022 OVC069 01/M01 A3010 RMK SC2AC6 SLP195

CYYG;2008-01-06 21:00;CYYG 062100Z 28004KT 15SM OVC068 01/M01 A3011 RMK AC8 SLP199

CYYG;2008-01-06 22:00;CYYG 062200Z 28005KT 15SM OVC067 01/M02 A3012 RMK AC8 SLP203

CYYG;2008-01-06 23:00;CYYG 062300Z 27003KT 15SM OVC060 00/M02 A3014 RMK SC8 SLP209

CYYG;2008-01-07 00:00;CYYG 070000Z 27004KT 15SM OVC054 M00/M02 A3016 RMK SC8 SLP216

CYYG;2008-01-07 01:00;CYYG 070100Z 27004KT 15SM OVC050 00/M02 A3018 RMK SC8 SLP223

CYYG;2008-01-07 02:00;CYYG 070200Z 25003KT 12SM OVC050 M00/M01 A3019 RMK SC8 SLP225

CYYG;2008-01-07 03:00;CYYG 070300Z 18002KT 12SM OVC047 M01/M01 A3019 RMK SC8 SLP227

CYYG;2008-01-07 04:00;CYYG 070400Z 24003KT 12SM OVC047 M01/M01 A3020 RMK SC8 SLP229

CYYG;2008-01-07 05:00;CYYG 070500Z 19003KT 10SM OVC046 M01/M02 A3020 RMK SC8 SLP229

CYYG;2008-01-07 06:00;CYYG 070600Z 19003KT 10SM OVC046 M01/M01 A3020 RMK SC8 SLP230

CYYG;2008-01-07 07:00;CYYG 070700Z 21004KT 10SM OVC046 M01/M01 A3020 RMK SC8 SLP230

CYYG;2008-01-07 08:00;CYYG 070800Z 19004KT 10SM OVC049 M00/M01 A3019 RMK SC8 SLP227

CYYG;2008-01-07 09:00;CYYG 070900Z 19005KT 10SM OVC050 M00/M01 A3019 RMK SC8 SLP226

CYYG;2008-01-07 10:00;CYYG 071000Z 17005KT 15SM OVC050 M00/M01 A3020 RMK SC8 SLP230

CYYG;2008-01-07 11:00;CYYG 071100Z 17006KT 15SM OVC051 M00/M00 A3019 RMK SC8 SLP224

CYYG;2008-01-07 12:00;CYYG 071200Z 21008KT 15SM OVC054 01/01 A3018 RMK SC8 SLP222

CYYG;2008-01-07 13:00;CYYG 071300Z 21009KT 10SM OVC056 02/01 A3018 RMK SC8 SLP222

CYYG;2008-01-07 14:00;CYYG 071400Z 21008KT 12SM OVC056 02/01 A3018 RMK SC8 SLP221

CYYG;2008-01-07 15:00;CYYG 071500Z 20010KT 12SM OVC058 03/01 A3016 RMK SC8 SLP215

CYYG;2008-01-07 16:00;CYYG 071600Z 20011KT 12SM OVC060 03/01 A3013 RMK SC8 SLP206

CYYG;2008-01-07 17:00;CYYG 071700Z 19009KT 15SM BKN060 03/01 A3011 RMK SC7 SLP198

CYYG;2008-01-07 18:00;CYYG 071800Z 20010G15KT 15SM BKN058 03/01 A3008 RMK SC7 SLP188

CYYG;2008-01-07 19:00;CYYG 071900Z 20010KT 15SM FEW030 FEW058 OVC280 03/01 A3007 RMK SC1SC1CI2 SLP185

CYYG;2008-01-07 20:00;CYYG 072000Z 19011KT 15SM SCT059 OVC200 03/01 A3006 RMK SC3CI5 SLP180

CYYG;2008-01-07 21:00;CYYG 072100Z 19010KT 15SM FEW060 SCT085 OVC130 03/02 A3004 RMK SC2AC2AS4 SLP173

CYYG;2008-01-07 22:00;CYYG 072200Z 20010KT 10SM FEW030 SCT094 OVC140 02/02 A3002 RMK SC2AC2AS4 SLP167

CYYG;2008-01-07 23:00;CYYG 072300Z 20008KT 10SM BKN013 OVC080 02/02 A3001 RMK SC6AC2 SLP166

CYYG;2008-01-07 23:53;CYYG 072353Z 22010KT 8SM OVC009 04/ RMK SF8

CYYG;2008-01-08 00:00;CYYG 080000Z 23008KT 8SM OVC008 04/04 A3001 RMK SF8 SLP166

CYYG;2008-01-08 00:19;CYYG 080019Z 25008KT 10SM -SHRA OVC007 05/ RMK SF8

CYYG;2008-01-08 01:00;CYYG 080100Z 25011KT 10SM -SHRA OVC006 05/05 A3003 RMK SF8 SLP170

CYYG;2008-01-08 01:42;CYYG 080142Z 26011KT 6SM -SHRA BR OVC004 05/ RMK SF8

CYYG;2008-01-08 02:00;CYYG 080200Z 25010KT 6SM -SHRA BR BKN004 OVC030 04/04 A3002 RMK SF7SC1 SLP167

CYYG;2008-01-08 03:00;CYYG 080300Z 25009KT 6SM -SHRA BR OVC004 04/04 A3001 RMK SF8 SLP165

CYYG;2008-01-08 04:00;CYYG 080400Z 25007KT 6SM -SHRA BR OVC002 04/04 A3002 RMK SF8 SLP169

CYYG;2008-01-08 05:00;CYYG 080500Z 25007KT 6SM -SHRA BR OVC002 04/04 A3003 RMK SF8 SLP170

CYYG;2008-01-08 06:00;CYYG 080600Z 24008KT 3SM -SHRA BR OVC002 03/03 A3004 RMK SF8 SLP173

CYYG;2008-01-08 07:00;CYYG 080700Z 25008KT 3SM -SHRA BR OVC002 03/03 A3003 RMK SF8 SLP171

CYYG;2008-01-08 08:00;CYYG 080800Z 27008KT 5SM -SHRA BR OVC003 04/04 A3003 RMK SF8 SLP171

CYYG;2008-01-08 08:51;CYYG 080851Z 22004KT 3/4SM R03/2800V5000FT/D -RA BR OVC002 03/ RMK SF8

CYYG;2008-01-08 09:00;CYYG 080900Z 22005KT 3/4SM R03/3000V5000FT/U -DZ BR OVC002 03/03 A3002 RMK SF8 SLP169

CYYG;2008-01-08 09:38;CYYG 080938Z 22005KT 3/4SM R03/5500FT/D -DZ BR VV001 03/ RMK FG8

CYYG;2008-01-08 09:47;CYYG 080947Z 22005KT 1/2SM R03/2600V4000FT/D -DZ FG VV001 03/ RMK FG8

CYYG;2008-01-08 10:00;CYYG 081000Z 24006KT 1/2SM R03/2000V3000FT/D -DZ FG VV001 03/03 A3002 RMK FG8 SLP168

CYYG;2008-01-08 10:13;CYYG 081013Z 24006KT 1/4SM R03/1400FT/N -DZ FG VV001 03/ RMK FG8

CYYG;2008-01-08 11:00;CYYG 081100Z 24005KT 1/4SM R03/1100FT/N -DZ FG VV001 03/03 A3002 RMK FG8 SLP167

CYYG;2008-01-08 12:00;CYYG 081200Z 22005KT 1/8SM R03/1400FT/N FG VV001 03/03 A3000 RMK FG8 SLP162

CYYG;2008-01-08 12:22;CYYG 081222Z 23004KT 1/8SM R03/1400FT/N -SHRA FG OVC008 03/ RMK FG6SC2

CYYG;2008-01-08 13:00;CYYG 081300Z 18007KT 1/8SM R03/1000FT/N -SHRA FG VV001 03/03 A2999 RMK FG8 SLP157

CYYG;2008-01-08 14:00;CYYG 081400Z 18009KT 1/8SM R03/1200V2200FT/U -SHRA FG VV001 02/02 A2996 RMK FG8 SLP149

CYYG;2008-01-08 14:31;CYYG 081431Z 22006KT 1/4SM R03/1800V5500FT/U -SHRA FG OVC041 02/ RMK FG6SC2

CYYG;2008-01-08 15:00;CYYG 081500Z 21007KT 1SM R03/3500VP6000FT/U BR BKN040 BKN082 03/03 A2996 RMK FG2SC3AC2 SLP146

CYYG;2008-01-08 15:23;CYYG 081523Z 21011KT 3SM BR BKN011 BKN040 BKN082 04/ RMK SC5SC1AC2

CYYG;2008-01-08 15:40;CYYG 081540Z 22010KT 3SM BR BKN008 OVC082 04/ RMK SF6AC2

CYYG;2008-01-08 16:00;CYYG 081600Z 22008KT 3SM BR OVC007 04/03 A2991 RMK SF8 SLP132

CYYG;2008-01-08 17:00;CYYG 081700Z 24008KT 4SM BR BKN006 OVC033 05/05 A2989 RMK SF6SC2 SLP123

CYYG;2008-01-08 18:00;CYYG 081800Z 26007KT 5SM BR BKN006 BKN039 06/06 A2988 RMK SF5SC2 SLP121

CYYG;2008-01-08 18:20;CYYG 081820Z 26010KT 6SM BR FEW006 OVC040 06/ RMK SF2SC6

CYYG;2008-01-08 19:00;CYYG 081900Z 26011G16KT 6SM BR FEW006 BKN040 BKN120 06/05 A2990 RMK SF1SC5AC2 SLP128

CYYG;2008-01-08 20:00;CYYG 082000Z 25011KT 6SM BR BKN038 OVC100 06/05 A2992 RMK SC6AC2 SLP133

CYYG;2008-01-08 21:00;CYYG 082100Z 25009KT 6SM BR BKN038 OVC086 06/05 A2993 RMK SC5AC3 SLP137

CYYG;2008-01-08 21:20;CYYG 082120Z 27008KT 4SM -SHRA BR BKN038 OVC086 05/ RMK SC5AC3

CYYG;2008-01-08 22:00;CYYG 082200Z 26007KT 3SM -SHRA BR FEW040 OVC080 05/05 A2996 RMK SC2AC6 SLP146

CYYG;2008-01-08 22:23;CYYG 082223Z 26007KT 2SM -SHRA BR FEW040 OVC080 05/ RMK SC2AC6

CYYG;2008-01-08 22:57;CYYG 082257Z 35002KT 2SM -SHRA BR FEW005 BKN012 OVC030 04/ RMK SF1SC4SC3

CYYG;2008-01-08 23:00;CYYG 082300Z 35002KT 2SM -SHRA BR FEW005 BKN012 OVC030 04/04 A2998 RMK SF1SC4SC3 SLP154

CYYG;2008-01-08 23:15;CYYG 082315Z 00000KT 2SM -SHRA BR OVC004 04/ RMK SF8

CYYG;2008-01-08 23:39;CYYG 082339Z 22005KT 1SM R03/3000V5500FT/D -SHRA BR OVC005 04/ RMK SF8

CYYG;2008-01-09 00:00;CYYG 090000Z 23002KT 1SM R03/3500VP6000FT/D -SHRA BR OVC006 04/04 A2998 RMK SF8 SLP154

CYYG;2008-01-09 00:56;CYYG 090056Z 00000KT 1SM R03/1600FT/N -DZ BR OVC006 03/ RMK SF8

CYYG;2008-01-09 01:00;CYYG 090100Z 02002KT 1SM R03/1600FT/N -DZ BR OVC006 04/04 A2997 RMK SF8 SLP151

CYYG;2008-01-09 01:15;CYYG 090115Z 14002KT 3/8SM R03/1400FT/N FG VV004 04/ RMK FG8

CYYG;2008-01-09 02:00;CYYG 090200Z 17002KT 1/2SM R03/1200FT/N FG OVC007 04/04 A2996 RMK FG6SF2 SLP148

CYYG;2008-01-09 03:00;CYYG 090300Z 00000KT 1/2SM R03/1400FT/N FG OVC015 04/04 A2995 RMK FG6SF2 SLP144

CYYG;2008-01-09 04:00;CYYG 090400Z 17003KT 1/4SM R03/1200FT/N FG VV005 04/04 A2993 RMK FG8 SLP137

CYYG;2008-01-09 05:00;CYYG 090500Z 00000KT 1/2SM R03/1600FT/N FG VV003 03/03 A2994 RMK FG8 SLP140

CYYG;2008-01-09 06:00;CYYG 090600Z 15006KT 1/8SM R03/1200FT/N FG VV001 03/03 A2992 RMK FG8 SLP132

CYYG;2008-01-09 07:00;CYYG 090700Z 15004KT 1/8SM R03/0900FT/N FG VV001 04/04 A2990 RMK FG8 SLP128

CYYG;2008-01-09 08:00;CYYG 090800Z 15006KT 1/8SM R03/0900FT/N FG VV001 04/04 A2988 RMK FG8 SLP120

CYYG;2008-01-09 09:00;CYYG 090900Z 16007KT 1/8SM R03/0800FT/N FG VV001 04/04 A2986 RMK FG8 SLP114

CYYG;2008-01-09 10:00;CYYG 091000Z 22007KT 1/8SM R03/1200FT/N FG VV001 04/03 A2985 RMK FG8 SLP108

CYYG;2008-01-09 11:00;CYYG 091100Z 21010KT 3/8SM R03/2200FT/N FG VV001 03/03 A2984 RMK FG8 SLP107

CYYG;2008-01-09 12:00;CYYG 091200Z 21014KT 1/4SM FG VV001 04/04 A2982

CYYG;2008-01-09 12:44;CYYG 091244Z 20012KT 1/8SM R03/0900FT/N FG VV001 04/ RMK FG8

CYYG;2008-01-09 13:00;CYYG 091300Z 20012KT 1/8SM R03/0900FT/N FG VV001 04/04 A2982 RMK FG8 SLP099

CYYG;2008-01-09 14:00;CYYG 091400Z 20009KT 1/8SM R03/0800V1000FT/N FG VV001 04/04 A2983 RMK FG8 SLP103

CYYG;2008-01-09 15:00;CYYG 091500Z 19007KT 0SM R03/0500FT/N FG VV000 04/04 A2980 RMK FG8 SLP094

CYYG;2008-01-09 15:34;CYYG 091534Z 20010KT 1/8SM R03/0700V1000FT/N FG VV001 05/ RMK FG8

CYYG;2008-01-09 16:00;CYYG 091600Z 20012KT 1/8SM R03/1200FT/N FG VV001 05/05 A2977 RMK FG8 SLP083

CYYG;2008-01-09 17:00;CYYG 091700Z 19013G18KT 1/8SM FG OVC001 05/05 A2974 RMK SF8 SLP072

CYYG;2008-01-09 17:24;CYYG 091724Z 18013KT 3/4SM R03/1800VP6000FT/U BR OVC003 06/ RMK SF8

CYYG;2008-01-09 18:00;CYYG 091800Z 17013KT 1 1/2SM R03/3000VP6000FT/U BR BKN003 OVC010 06/06 A2971 RMK SF6SC2 SLP062

CYYG;2008-01-09 19:00;CYYG 091900Z 17013KT 2SM BR BKN003 OVC014 06/06 A2969 RMK SF5SC3 SLP054

CYYG;2008-01-09 19:07;CYYG 091907Z 16010KT 3SM BR SCT003 OVC016 06/ RMK SF3SC5

CYYG;2008-01-09 19:52;CYYG 091952Z 15008KT 1 1/2SM BR FEW003 OVC016 06/ RMK SF2SC6

CYYG;2008-01-09 20:00;CYYG 092000Z 17011KT 1 1/2SM BR SCT003 OVC016 06/06 A2965 RMK SF3SC5 SLP041

CYYG;2008-01-09 20:14;CYYG 092014Z 17014G19KT 1/4SM R03/1400V5500FT/D FG VV002 06/ RMK FG8

CYYG;2008-01-09 20:37;CYYG 092037Z 18017KT 1 1/2SM R03/4500VP6000FT/U BR BKN003 OVC015 06/ RMK SF6SC2

CYYG;2008-01-09 21:00;CYYG 092100Z 19020KT 4SM BR BKN003 OVC012 07/07 A2961 RMK SF6SC2 SLP030

CYYG;2008-01-09 21:48;CYYG 092148Z 18016G22KT 1/2SM R03/2200VP6000FT/D FG BKN002 OVC012 06/ RMK SF6SC2

CYYG;2008-01-09 22:00;CYYG 092200Z 19018KT 1/2SM R03/1800V2800FT/N FG VV002 06/06 A2957 RMK FG8 SLP015

CYYG;2008-01-09 22:24;CYYG 092224Z 19019KT 3SM R03/3000VP6000FT/U BR BKN003 OVC029 07/ RMK SF6SC2 CIG RGD

CYYG;2008-01-09 22:36;CYYG 092236Z 19020G26KT 4SM R03/4000VP6000FT/U BR SCT003 OVC029 06/ RMK SF4SC4

CYYG;2008-01-09 22:56;CYYG 092256Z 18021G26KT 4SM -SHRA BR SCT003 OVC028 08/ RMK SF4SC4

CYYG;2008-01-09 23:00;CYYG 092300Z 18019G26KT 4SM -SHRA BR SCT003 SCT016 OVC024 07/07 A2954 RMK SF3SC1SC4 SLP005

CYYG;2008-01-10 00:00;CYYG 100000Z 19018KT 6SM BR SCT002 BKN013 OVC032 07/07 A2952 RMK SF3SC3SC2 OCNL -SHRA SLP997

CYYG;2008-01-10 01:00;CYYG 100100Z 20017KT 12SM SCT006 OVC015 07/07 A2949 RMK SF4SC4 SLP988

CYYG;2008-01-10 01:21;CYYG 100121Z 21017G22KT 8SM -SHRA FEW007 OVC010 08/ RMK SF2SC6

CYYG;2008-01-10 01:40;CYYG 100140Z 22011G18KT 5SM BR BKN004 OVC010 07/ RMK SF6SC2 OCNL -SHRA

CYYG;2008-01-10 02:00;CYYG 100200Z 23016KT 10SM FEW007 BKN015 OVC060 08/08 A2950 RMK SF2SC3SC2 OCNL -SHRA SLP991

CYYG;2008-01-10 03:00;CYYG 100300Z 23015G24KT 10SM FEW009 OVC015 07/07 A2952 RMK SF2SC6 SLP997

CYYG;2008-01-10 04:00;CYYG 100400Z 25015G24KT 12SM FEW010 SCT030 SCT060 06/05 A2954 RMK SF2SC2SC1 SLP005

CYYG;2008-01-10 05:00;CYYG 100500Z 23012G21KT 15SM FEW015 SCT035 05/04 A2955 RMK SC2SC2 SLP006

CYYG;2008-01-10 06:00;CYYG 100600Z 23011G17KT 15SM FEW035 04/01 A2955 RMK SC2 SLP008

CYYG;2008-01-10 07:00;CYYG 100700Z 23017G25KT 15SM SKC 04/00 A2955 RMK SLP009

CYYG;2008-01-10 08:00;CYYG 100800Z 24014G20KT 15SM SKC 04/M01 A2955 RMK SLP010

CYYG;2008-01-10 09:00;CYYG 100900Z 24014G24KT 15SM BKN054 04/M02 A2955 RMK SC5 SLP008

CYYG;2008-01-10 10:00;CYYG 101000Z 24018G27KT 15SM BKN047 05/M02 A2957 RMK SC6 SLP014

CYYG;2008-01-10 11:00;CYYG 101100Z 25016G21KT 12SM OVC043 04/M02 A2958 RMK SC8 SLP019

CYYG;2008-01-10 12:00;CYYG 101200Z 25013G21KT 15SM BKN039 04/M02 A2960 RMK SC7 SLP027

CYYG;2008-01-10 13:00;CYYG 101300Z 25013KT 15SM OVC039 04/M02 A2962 RMK SC8 SLP033

CYYG;2008-01-10 14:00;CYYG 101400Z 25014KT 15SM OVC038 04/M02 A2965 RMK SC8 SLP043

CYYG;2008-01-10 15:00;CYYG 101500Z 25016G21KT 15SM OVC039 04/M02 A2966 RMK SC8 SLP046

CYYG;2008-01-10 16:00;CYYG 101600Z 25013KT 15SM OVC040 04/M02 A2967 RMK SC8 SLP049

CYYG;2008-01-10 17:00;CYYG 101700Z 25012G17KT 15SM OVC041 04/M02 A2967 RMK SC8 SLP048

CYYG;2008-01-10 18:00;CYYG 101800Z 25015G21KT 15SM OVC044 04/M02 A2969 RMK SC8 SLP055

CYYG;2008-01-10 19:00;CYYG 101900Z 26012G18KT 15SM BKN045 05/M02 A2971 RMK SC5 SLP064

CYYG;2008-01-10 20:00;CYYG 102000Z 27009KT 15SM FEW042 05/M03 A2976 RMK SC2 SLP078

CYYG;2008-01-10 21:00;CYYG 102100Z 26008KT 15SM FEW040 04/M03 A2979 RMK SC1 SLP088

CYYG;2008-01-10 22:00;CYYG 102200Z 26008KT 15SM FEW100 03/M03 A2981 RMK AC1 SLP095

CYYG;2008-01-10 23:00;CYYG 102300Z 26012KT 15SM FEW130 03/M03 A2984 RMK AC2 SLP105

CYYG;2008-01-11 00:00;CYYG 110000Z 27011KT 15SM FEW130 03/M04 A2987 RMK AC1 SLP116

CYYG;2008-01-11 01:00;CYYG 110100Z 27010KT 15SM SKC 02/M04 A2990 RMK SLP126

CYYG;2008-01-11 02:00;CYYG 110200Z 27009KT 15SM SKC 02/M04 A2991 RMK SLP131

CYYG;2008-01-11 03:00;CYYG 110300Z 25007KT 15SM SKC 01/M04 A2993 RMK SLP139

CYYG;2008-01-11 04:00;CYYG 110400Z 27008KT 15SM SKC 01/M05 A2996 RMK SLP146

CYYG;2008-01-11 05:00;CYYG 110500Z 27010G15KT 15SM SKC 00/M05 A2998 RMK SLP154

CYYG;2008-01-11 06:00;CYYG 110600Z 27010KT 15SM SKC M00/M05 A3001 RMK SLP165

CYYG;2008-01-11 07:00;CYYG 110700Z 27008KT 15SM SKC M01/M05 A3005 RMK SLP178

CYYG;2008-01-11 08:00;CYYG 110800Z 27007KT 15SM SKC M02/M05 A3009 RMK SLP190

CYYG;2008-01-11 09:00;CYYG 110900Z 29004KT 15SM SKC M02/M05 A3010 RMK SLP196

CYYG;2008-01-11 10:00;CYYG 111000Z 29005KT 15SM SKC M02/M05 A3013 RMK SLP206

CYYG;2008-01-11 11:00;CYYG 111100Z 34002KT 15SM SCT250 M03/M06 A3015 RMK CI2 SLP213

CYYG;2008-01-11 12:00;CYYG 111200Z 29002KT 15SM BKN240 M03/M06 A3017 RMK CI2 SLP219

CYYG;2008-01-11 13:00;CYYG 111300Z 00000KT 15SM SCT240 M03/M06 A3018 RMK CI2 SLP223

CYYG;2008-01-11 14:00;CYYG 111400Z 01005KT 15SM SCT240 M02/M06 A3018 RMK CI2 SLP222

CYYG;2008-01-11 15:00;CYYG 111500Z 34004KT 15SM BKN120 M01/M07 A3021 RMK AC6 SLP232

CYYG;2008-01-11 16:00;CYYG 111600Z 00000KT 15SM BKN110 M01/M06 A3019 RMK AC7 SLP226

CYYG;2008-01-11 17:00;CYYG 111700Z 08003KT 15SM OVC095 M01/M06 A3016 RMK AC8 SLP217

CYYG;2008-01-11 18:00;CYYG 111800Z 12003KT 15SM OVC070 M01/M06 A3016 RMK AS8 SLP214

CYYG;2008-01-11 19:00;CYYG 111900Z 15003KT 15SM OVC049 M01/M05 A3016 RMK SC8 SLP215

CYYG;2008-01-11 20:00;CYYG 112000Z 16004KT 15SM OVC062 M01/M05 A3017 RMK SC8 SLP219

CYYG;2008-01-11 21:00;CYYG 112100Z 13005KT 10SM OVC061 M01/M04 A3015 RMK SC8 SLP213

CYYG;2008-01-11 21:39;CYYG 112139Z 13011KT 10SM -SHPL OVC057 M01/ RMK SC8

CYYG;2008-01-11 22:00;CYYG 112200Z 12010KT 10SM -SHPL OVC047 M01/M03 A3009 RMK SC8 SLP193

CYYG;2008-01-11 23:00;CYYG 112300Z 12010KT 15SM -SHPL BKN051 OVC080 M01/M03 A3006 RMK SC6AC2 SLP184

CYYG;2008-01-11 23:36;CYYG 112336Z 12011KT 15SM -FZRA BKN049 OVC087 M01/ RMK SC6AC2

CYYG;2008-01-12 00:00;CYYG 120000Z 13010KT 15SM -FZRA OVC045 M01/M01 A3004 RMK SC8 /S02/ SLP174

CYYG;2008-01-12 00:45;CYYG 120045Z 15012KT 10SM RA OVC039 00/ REFZRA RMK SC8

CYYG;2008-01-12 01:00;CYYG 120100Z 15016KT 10SM RA BKN038 OVC049 00/M00 A2998 REFZRA RMK SC6SC2 PRESFR SLP153

CYYG;2008-01-12 02:00;CYYG 120200Z CCA 15015KT 10SM RA SCT038 OVC048 01/00 A2990 RMK SC3SC5 PRESFR SLP127

CYYG;2008-01-12 03:00;CYYG 120300Z 15019G24KT 15SM -RA FEW022 OVC030 01/00 A2984 RERA RMK SC2SC6 PRESFR SLP107

CYYG;2008-01-12 03:34;CYYG 120334Z 22010G21KT 10SM RA BKN008 OVC022 01/ RMK SF6SC2

CYYG;2008-01-12 04:00;CYYG 120400Z 16016G26KT 15SM -RA FEW008 OVC011 01/00 A2983 RERA RMK SF2SC6 SLP105

CYYG;2008-01-12 04:13;CYYG 120413Z 16017G24KT 10SM RA OVC008 01/ RMK SF8

CYYG;2008-01-12 05:00;CYYG 120500Z 15020G28KT 8SM RA BKN004 OVC081 02/02 A2975 RMK SF6AC2 PRESFR SLP077

CYYG;2008-01-12 05:39;CYYG 120539Z 16020G31KT 15SM OVC005 03/ RERA RMK SF8

CYYG;2008-01-12 06:00;CYYG 120600Z 16020G29KT 15SM OVC006 03/03 A2971 RERA RMK SF8 /R12/ SLP064

CYYG;2008-01-12 07:00;CYYG 120700Z 18016G22KT 15SM FEW004 OVC013 03/03 A2971 RMK SF2SC6 SLP063

CYYG;2008-01-12 07:51;CYYG 120751Z 19015G20KT 15SM BKN002 OVC009 05/ RMK SF6SF2

CYYG;2008-01-12 08:00;CYYG 120800Z 19015G20KT 15SM BKN002 OVC009 05/05 A2970 RMK SF6SF2 SLP060

CYYG;2008-01-12 08:11;CYYG 120811Z 19013KT 1 1/2SM BR VV002 06/ RMK FG8

CYYG;2008-01-12 08:36;CYYG 120836Z 21012KT 1/2SM R03/2800VP6000FT/D FG VV002 06/ RMK FG8

CYYG;2008-01-12 09:00;CYYG 120900Z 22007KT 3/8SM R03/1800V2600FT/N FG VV002 06/06 A2973 RMK FG8 SLP070

CYYG;2008-01-12 09:12;CYYG 120912Z 22010KT 1/2SM R03/1800V3500FT/U FG VV002 07/ RMK FG8

CYYG;2008-01-12 09:32;CYYG 120932Z 25009KT 1 1/2SM R03/1600VP6000FT/U -DZ BR OVC003 08/ RMK SF8

CYYG;2008-01-12 09:41;CYYG 120941Z 27009G15KT 5SM -DZ BR OVC003 07/ RMK SF8

CYYG;2008-01-12 10:00;CYYG 121000Z 26012G19KT 10SM FEW003 OVC005 07/07 A2977 RMK SF2SF6 SLP082

CYYG;2008-01-12 10:39;CYYG 121039Z 25009KT 15SM FEW003 OVC020 06/ RMK SF2SC6

CYYG;2008-01-12 11:00;CYYG 121100Z 25006KT 15SM BKN014 OVC022 06/06 A2978 RMK SC5SC3 SLP086

CYYG;2008-01-12 11:20;CYYG 121120Z 24004KT 15SM BKN006 OVC014 06/ RMK SF6SC2

CYYG;2008-01-12 12:00;CYYG 121200Z 24005KT 4SM BR BKN003 OVC012 05/04 A2979 RMK SF6SC2 SLP091

CYYG;2008-01-12 13:00;CYYG 121300Z 27006KT 4SM BR BKN003 OVC012 05/04 A2983 RMK SF6SC2 SLP102

CYYG;2008-01-12 13:23;CYYG 121323Z 23006KT 1/2SM R03/P6000FT/N FG BKN006 OVC250 04/ RMK FG2SF3CI2

CYYG;2008-01-12 13:37;CYYG 121337Z 24005KT 6SM R03/3000VP6000FT/U BR FEW006 OVC250 04/ RMK SF1CI6 VIS NW-NE 2

CYYG;2008-01-12 14:00;CYYG 121400Z 25006KT 8SM SCT007 OVC250 04/04 A2985 RMK SF3CI4 FG BANK SE SLP110

CYYG;2008-01-12 14:27;CYYG 121427Z 25005KT 1SM R03/P6000FT/N BR OVC002 04/ RMK SF8

CYYG;2008-01-12 14:38;CYYG 121438Z 25007KT 1/2SM R03/2000VP6000FT/D FG VV002 04/ RMK FG8

CYYG;2008-01-12 15:00;CYYG 121500Z 25006KT 8SM SCT003 OVC250 04/04 A2985 RMK SF3CI3 SLP110

CYYG;2008-01-12 16:00;CYYG 121600Z 22005KT 12SM FEW003 OVC200 05/04 A2984 RMK SF1CI6 FG BANK SE-SW SLP106

CYYG;2008-01-12 17:00;CYYG 121700Z 24005KT 12SM FEW003 FEW120 OVC200 06/04 A2982 RMK SF1AC2CI6 FG BANK E-SE VIS 21/2 SLP101

CYYG;2008-01-12 18:00;CYYG 121800Z 24006KT 12SM FEW062 FEW120 OVC200 05/05 A2982 RMK SC1AC2CI6 FG BANK E-SE VIS 21/2 SLP098

CYYG;2008-01-12 19:00;CYYG 121900Z 25004KT 12SM FEW006 BKN050 OVC230 05/04 A2980 RMK SF1SC6CI1 SLP094

CYYG;2008-01-12 20:00;CYYG 122000Z 26002KT 10SM FEW006 BKN045 OVC220 04/04 A2982 RMK SF1SC6CI1 OBS TAKEN +07 SLP099

CYYG;2008-01-12 20:19;CYYG 122019Z 27003KT 8SM BKN010 OVC045 04/ RMK SF5SC3

CYYG;2008-01-12 20:32;CYYG 122032Z 28004KT 8SM BKN007 OVC010 04/ RMK SF5SC3

CYYG;2008-01-12 20:48;CYYG 122048Z 27005KT 8SM OVC004 04/ RMK SF8

CYYG;2008-01-12 21:00;CYYG 122100Z 27007KT 8SM OVC003 04/04 A2984 RMK SF8 SLP105

CYYG;2008-01-12 21:23;CYYG 122123Z 26009KT 8SM BKN007 OVC013 04/ RMK SF7SC1

CYYG;2008-01-12 21:48;CYYG 122148Z 25008KT 8SM OVC004 04/ RMK SF8

CYYG;2008-01-12 21:52;CYYG 122152Z 25009KT 2SM -DZ BR OVC004 04/ RMK SF8

CYYG;2008-01-12 22:00;CYYG 122200Z 27007KT 2SM -DZ BR OVC003 04/03 A2985 RMK SF8 SLP110

CYYG;2008-01-12 22:18;CYYG 122218Z 27005KT 4SM BR BKN003 OVC014 03/ RMK SF6SC2

CYYG;2008-01-12 22:45;CYYG 122245Z 28007KT 15SM FEW004 BKN026 03/ RMK SF2SC6

CYYG;2008-01-12 23:00;CYYG 122300Z 29010KT 15SM FEW004 BKN026 03/01 A2987 RMK SF2SC6 SLP116

CYYG;2008-01-12 23:09;CYYG 122309Z 29007KT 15SM FEW026 SCT200 03/ RMK SC2CI1

CYYG;2008-01-13 00:00;CYYG 130000Z 28007KT 15SM FEW026 02/M01 A2988 RMK SC2 SLP121

CYYG;2008-01-13 01:00;CYYG 130100Z 26005KT 15SM FEW026 02/M00 A2989 RMK SC2 SLP124

CYYG;2008-01-13 02:00;CYYG 130200Z 27008KT 15SM SKC 02/M01 A2990 RMK SLP127

CYYG;2008-01-13 03:00;CYYG 130300Z 27008KT 15SM SKC 01/M02 A2991 RMK SLP132

CYYG;2008-01-13 04:00;CYYG 130400Z 27009G15KT 15SM SKC 01/M02 A2993 RMK SLP136

CYYG;2008-01-13 05:00;CYYG 130500Z 28006KT 15SM SKC M00/M03 A2995 RMK FROIN SLP143

CYYG;2008-01-13 06:00;CYYG 130600Z 28009KT 15SM SKC M01/M03 A2996 RMK FROIN SLP148

CYYG;2008-01-13 07:00;CYYG 130700Z 27008KT 15SM SKC M01/M04 A2998 RMK FROIN SLP156

CYYG;2008-01-13 08:00;CYYG 130800Z 27008KT 15SM SKC M01/M04 A2998 RMK FROIN SLP156

CYYG;2008-01-13 09:00;CYYG 130900Z 27011KT 15SM SKC M02/M04 A3000 RMK SLP160

CYYG;2008-01-13 10:00;CYYG 131000Z 27010KT 15SM SKC M02/M05 A3001 RMK SLP166

CYYG;2008-01-13 11:00;CYYG 131100Z 28010KT 15SM FEW300 M03/M06 A3003 RMK CI1 FROIN SLP172

CYYG;2008-01-13 12:00;CYYG 131200Z 27009KT 15SM FEW025 FEW250 M03/M06 A3005 RMK SC1CI1 SLP179

CYYG;2008-01-13 13:00;CYYG 131300Z 28010KT 15SM FEW025 FEW250 M03/M06 A3008 RMK SC1CI1 SLP188

CYYG;2008-01-13 14:00;CYYG 131400Z 27008KT 15SM FEW025 FEW250 M03/M06 A3011 RMK SC1CI1 SLP198

CYYG;2008-01-13 15:00;CYYG 131500Z 28012KT 15SM FEW025 FEW250 M02/M07 A3012 RMK SC1CI1 SLP202

CYYG;2008-01-13 16:00;CYYG 131600Z 28012KT 15SM FEW025 FEW250 M02/M07 A3011 RMK SC1CI1 SLP199

CYYG;2008-01-13 17:00;CYYG 131700Z 29014KT 15SM FEW025 FEW250 M02/M07 A3011 RMK SC1CI1 SLP198

CYYG;2008-01-13 18:00;CYYG 131800Z 29010KT 15SM FEW025 FEW250 M02/M08 A3011 RMK SC1CI1 SLP199

CYYG;2008-01-13 19:00;CYYG 131900Z 29012KT 15SM FEW025 FEW250 M02/M08 A3012 RMK SC1CI1 SLP204

CYYG;2008-01-13 20:00;CYYG 132000Z 29007KT 15SM FEW025 FEW250 M02/M08 A3015 RMK SC1CI2 SLP213

CYYG;2008-01-13 21:00;CYYG 132100Z 30009KT 15SM FEW025 FEW250 M03/M09 A3017 RMK SC1CI2 SLP221

CYYG;2008-01-13 22:00;CYYG 132200Z 29008KT 15SM FEW025 FEW250 M03/M09 A3019 RMK SC1CI1 SLP225

CYYG;2008-01-13 23:00;CYYG 132300Z 28005KT 15SM FEW025 FEW250 M04/M09 A3020 RMK SC1CI1 SLP231

CYYG;2008-01-14 00:00;CYYG 140000Z 29004KT 15SM SKC M05/M09 A3022 RMK SLP236

CYYG;2008-01-14 01:00;CYYG 140100Z 29003KT 15SM SKC M05/M09 A3024 RMK SLP242

CYYG;2008-01-14 02:00;CYYG 140200Z 30005KT 15SM SKC M05/M09 A3025 RMK SLP246

CYYG;2008-01-14 03:00;CYYG 140300Z 31005KT 15SM SKC M06/M10 A3025 RMK SLP245

CYYG;2008-01-14 04:00;CYYG 140400Z 34006KT 15SM SKC M06/M10 A3023 RMK SLP240

CYYG;2008-01-14 05:00;CYYG 140500Z 00000KT 15SM SKC M06/M09 A3023 RMK SLP239

CYYG;2008-01-14 06:00;CYYG 140600Z 31003KT 15SM SCT018 M07/M09 A3023 RMK SC3 SLP241

CYYG;2008-01-14 07:00;CYYG 140700Z 30003KT 15SM BKN017 M08/M10 A3024 RMK SC6 SLP244

CYYG;2008-01-14 08:00;CYYG 140800Z 23005KT 15SM BKN018 M07/M09 A3026 RMK SC7 SLP250

CYYG;2008-01-14 09:00;CYYG 140900Z 30003KT 15SM OVC018 M07/M09 A3025 RMK SC8 SLP248

CYYG;2008-01-14 10:00;CYYG 141000Z 28003KT 15SM OVC018 M06/M08 A3024 RMK SC8 SLP243

CYYG;2008-01-14 11:00;CYYG 141100Z 01003KT 15SM OVC019 M06/M08 A3022 RMK SC8 SLP235

CYYG;2008-01-14 12:00;CYYG 141200Z 05004KT 15SM BKN019 OVC180 M05/M07 A3020 RMK SC5AS3 SLP229

CYYG;2008-01-14 13:00;CYYG 141300Z 07007KT 15SM BKN017 OVC160 M04/M07 A3020 RMK SC6AS2 SLP231

CYYG;2008-01-14 14:00;CYYG 141400Z 05015KT 15SM BKN016 OVC140 M04/M07 A3016 RMK SC7AS1 OBS TAKEN +3 SLP216

CYYG;2008-01-14 15:00;CYYG 141500Z CCA 05012KT 15SM OVC016 M03/M06 A3014 RMK SC6 TRANSMITTED BY CYHZ FIC SLP210

CYYG;2008-01-14 16:00;CYYG 141600Z 07012KT 15SM OVC016 M03/M06 A3012 RMK SC8 SLP202

CYYG;2008-01-14 17:00;CYYG 141700Z 07012KT 15SM OVC014 M03/M06 A3008 RMK SC8 SLP189

CYYG;2008-01-14 18:00;CYYG 141800Z CCA 05014KT 15SM OVC014 M03/M06 A3003 RMK SC8 VIA CYHZ SLP176

CYYG;2008-01-14 19:00;CYYG 141900Z 04012KT 15SM OVC014 M03/M06 A3001 RMK SC8 SLP167

CYYG;2008-01-14 20:00;CYYG 142000Z 07014G19KT 15SM OVC014 M03/M06 A2995 RMK SC8 PRESFR SLP145

CYYG;2008-01-14 20:20;CYYG 142020Z 06014G20KT 15SM -SN OVC014 M03/ RMK SC8

CYYG;2008-01-14 20:44;CYYG 142044Z 07012G18KT 15SM OVC015 M03/ RMK SC8

CYYG;2008-01-14 21:00;CYYG 142100Z 06012KT 15SM BKN015 OVC028 M03/M06 A2992 RMK SC7SC1 SLP136

CYYG;2008-01-14 21:06;CYYG 142106Z 06011KT 6SM -SN OVC014 M03/ RMK SC8

CYYG;2008-01-14 22:00;CYYG 142200Z 05013G18KT 8SM -SN OVC015 M04/M06 A2989 RMK SC8 SLP125

CYYG;2008-01-14 23:00;CYYG 142300Z 05014G21KT 4SM -SN DRSN OVC013 M04/M05 A2983 RMK SC8 SLP106

CYYG;2008-01-14 23:30;CYYG 142330Z 07015G21KT 5SM -SN DRSN -FZRA BKN009 OVC046 M04/ RMK SC7NS1

CYYG;2008-01-15 00:00;CYYG 150000Z 07017G25KT 3SM -SN -FZRA BKN009 OVC028 M03/M04 A2979 RMK SF7SC1 SLP089

CYYG;2008-01-15 01:00;CYYG 150100Z 06017G27KT 3SM -SN BKN009 OVC024 M03/M04 A2971 RMK SF7SC1 /PRESFR/ SLP063

CYYG;2008-01-15 02:00;CYYG 150200Z 06018G24KT 3SM -SN BLSN OVC008 M03/M04 A2961 RMK SF8 /PRESFR/ SLP031

CYYG;2008-01-15 02:37;CYYG 150237Z 06013G19KT 3/4SM R03/P6000FT/N -SN BLSN OVC006 M03/ RMK SF8

CYYG;2008-01-15 03:00;CYYG 150300Z 06014G20KT 3/4SM R03/3000FT/N -SN BLSN OVC006 M03/M03 A2959 RMK SF8 SLP023

CYYG;2008-01-15 03:49;CYYG 150349Z 05015KT 3/8SM R03/1400V3000FT/D SN BLSN OVC003 M02/ RMK SF8

CYYG;2008-01-15 04:00;CYYG 150400Z 05016KT 1/2SM R03/1800V2600FT/N SN BLSN OVC004 M02/M03 A2953 RMK SF8 /PRESFR/S04/ SLP003

CYYG;2008-01-15 04:44;CYYG 150444Z 05011KT 1 1/2SM -SN OVC006 M02/ RMK SF8

CYYG;2008-01-15 05:00;CYYG 150500Z 04014KT 1 1/2SM R03/4000VP6000FT/D -SN OVC008 M02/M03 A2948 RMK SF8 SLP987

CYYG;2008-01-15 06:00;CYYG 150600Z 05014KT 1 1/2SM R03/4500FT/D -SN OVC007 M02/M02 A2944 RMK SF8 SLP970

CYYG;2008-01-15 07:00;CYYG 150700Z 04014KT 2 1/2SM -SN OVC008 M01/M02 A2939 RMK SF8 SLP954

CYYG;2008-01-15 08:00;CYYG 150800Z 05013G18KT 3SM -SN OVC007 M01/M01 A2933 RMK SF8 SLP936

CYYG;2008-01-15 09:00;CYYG 150900Z 04013KT 2 1/2SM -SN OVC007 M01/M01 A2931 RMK SF8 /S03/ SLP926

CYYG;2008-01-15 10:00;CYYG 151000Z 04017KT 2 1/2SM -SN OVC006 M01/M01 A2926 RMK SF8 SLP912

CYYG;2008-01-15 10:48;CYYG 151048Z 04018KT 1 1/2SM R03/3000V4500FT/D -SN OVC006 M01/ RMK SF8

CYYG;2008-01-15 11:00;CYYG 151100Z 04015KT 3/4SM R03/3500FT/N -SN OVC006 M01/M01 A2923 RMK SF8 SLP902

CYYG;2008-01-15 12:00;CYYG 151200Z 03015KT 3/4SM R03/4000VP6000FT/U -SN OVC006 M01/M01 A2922 RMK SF8 SLP897

CYYG;2008-01-15 13:00;CYYG 151300Z 04015KT 3/4SM R03/4000FT/N -SN OVC006 M01/M01 A2921 RMK SF8 SLP895

CYYG;2008-01-15 14:00;CYYG 151400Z 04015G20KT 3/4SM R03/5000FT/D -SN BKN006 OVC010 M01/M01 A2921 RMK SF6SF2 SLP894

CYYG;2008-01-15 15:00;CYYG 151500Z 03012G18KT 1SM R03/P6000FT/N -SN OVC006 M01/M01 A2921 RMK SF8 SLP895

CYYG;2008-01-15 16:00;CYYG 151600Z 01010G15KT 3/4SM R03/4500FT/D -SN OVC006 M01/M01 A2921 RMK SF8 SLP894

CYYG;2008-01-15 17:00;CYYG 151700Z 36012G17KT 3/4SM R03/P6000FT/U -SN OVC004 M01/M01 A2921 RMK SF8 SLP894

CYYG;2008-01-15 18:00;CYYG 151800Z 36015KT 1SM R03/P6000FT/N -SN OVC006 M01/M01 A2923 RMK SF8 SLP900

CYYG;2008-01-15 19:00;CYYG 151900Z 35010G15KT 3/4SM R03/3500V6000FT/N -SN OVC007 M01/M01 A2926 RMK SF8 SLP912

CYYG;2008-01-15 20:00;CYYG 152000Z 32010G15KT 1SM R03/P6000FT/N -SN OVC008 M01/M01 A2931 RMK SF8 SLP926

CYYG;2008-01-15 21:00;CYYG 152100Z 32014G19KT 1SM R03/P6000FT/U -SN OVC008 M01/M02 A2933 RMK SF8 SLP936

CYYG;2008-01-15 22:00;CYYG 152200Z 31011G19KT 4SM -SN OVC008 M02/M02 A2935 RMK SF8 SLP941

CYYG;2008-01-15 23:00;CYYG 152300Z 32014KT 3SM -SN OVC007 M01/M02 A2937 RMK SF8 SLP948

CYYG;2008-01-16 00:00;CYYG 160000Z 32013G19KT 3SM -SN OVC008 M01/M02 A2939 RMK SF8 SLP956

CYYG;2008-01-16 02:00;CYYG 160200Z 33013KT 2SM -SN OVC006 M01/M02 A2943 RMK SF8 SLP967

CYYG;2008-01-16 03:00;CYYG 160300Z 35011G17KT 2 1/2SM -SN OVC006 M01/M02 A2945 RMK SF8 SLP974

CYYG;2008-01-16 04:00;CYYG 160400Z 36012G22KT 3SM -SN OVC006 M02/M02 A2947 RMK SF8 SLP981

CYYG;2008-01-16 05:00;CYYG 160500Z 36011G19KT 3SM R03/4500VP6000FT/D -SN OVC006 M02/M02 A2947 RMK SF8 /S02/ SLP982

CYYG;2008-01-16 06:00;CYYG 160600Z 36013KT 4SM -SN OVC008 M01/M02 A2950 RMK SF8 SLP990

CYYG;2008-01-16 07:00;CYYG 160700Z 01010G21KT 3SM -SN OVC008 M02/M02 A2952 RMK SF8 SLP998

CYYG;2008-01-16 08:00;CYYG 160800Z 02015G21KT 5SM -SN OVC009 M02/M03 A2955 RMK SF8 SLP008

CYYG;2008-01-16 09:00;CYYG 160900Z 02017G25KT 3SM R03/4000VP6000FT/D -SN BLSN OVC009 M02/M03 A2958 RMK SF8 SLP017

CYYG;2008-01-16 10:00;CYYG 161000Z 01013G25KT 2 1/2SM R03/4000V6000FT/D -SN BLSN OVC009 M02/M03 A2959 RMK SF8 SLP023

CYYG;2008-01-16 11:00;CYYG 161100Z 01016G27KT 3/4SM R03/1400V2400FT/N -SN BLSN OVC007 M02/M03 A2963 RMK SF8 SLP035

CYYG;2008-01-16 12:00;CYYG 161200Z 01017G24KT 3SM -SN BLSN FEW007 OVC010 M02/M03 A2969 RMK SF2SF6 /S02/ SLP055

CYYG;2008-01-16 12:16;CYYG 161216Z 01018G26KT 1SM R03/3500V5500FT/D -SN BLSN BKN008 OVC021 M02/ RMK SN2SF3SC2

CYYG;2008-01-16 12:39;CYYG 161239Z 01018G26KT 2SM R03/3000FT/N -SN BLSN -FZRA BKN007 OVC016 M02/ RMK SF6SC2

CYYG;2008-01-16 13:00;CYYG 161300Z 01018G29KT 3SM R03/3500VP6000FT/U -SN BLSN -FZRA BKN007 OVC016 M03/M04 A2972 RMK SF6SC2 SLP068

CYYG;2008-01-16 13:27;CYYG 161327Z 01017G25KT 2SM -SN DRSN -FZDZ OVC008 M02/ REFZRA RMK SF8

CYYG;2008-01-16 14:00;CYYG 161400Z 01016G28KT 3SM -SN DRSN -FZDZ SCT007 OVC014 M03/M04 A2976 REFZRA RMK SF3SC5 PRESRR SLP080

CYYG;2008-01-16 14:28;CYYG 161428Z 01016G22KT 3SM -SN DRSN OVC010 M03/ REFZDZ RMK SC8

CYYG;2008-01-16 15:00;CYYG 161500Z 01017G28KT 5SM -SN DRSN OVC010 M03/M04 A2978 REFZDZ RMK SC8 SLP086

CYYG;2008-01-16 16:00;CYYG 161600Z 02017G29KT 10SM -SN DRSN OVC015 M03/M05 A2978 RMK SC8 SLP086

CYYG;2008-01-16 16:41;CYYG 161641Z 02018G31KT 2SM -SN BLSN OVC012 M03/ RMK SC8

CYYG;2008-01-16 17:00;CYYG 161700Z 02017G25KT 2SM -SN BLSN OVC012 M03/M04 A2978 RMK SC8 SLP088

CYYG;2008-01-16 18:00;CYYG 161800Z 01015G20KT 10SM -SN DRSN OVC012 M03/M04 A2981 RMK SC8 /S02/ SLP096

CYYG;2008-01-16 19:00;CYYG 161900Z 02017G22KT 10SM -SN DRSN OVC017 M03/M05 A2984 RMK SC8 SLP107

CYYG;2008-01-16 19:44;CYYG 161944Z 36014G22KT 10SM OVC018 M03/ RMK SC8

CYYG;2008-01-16 20:00;CYYG 162000Z 01015G21KT 10SM -SHSN OVC017 M03/M05 A2990 RMK SC8 SLP126

CYYG;2008-01-16 20:06;CYYG 162006Z 01015G24KT 10SM -SN -FZDZ OVC015 M03/ RMK SC8

CYYG;2008-01-16 21:00;CYYG 162100Z 01015G21KT 15SM -SN DRSN OVC018 M03/M06 A2994 REFZDZ RMK SC8 SLP141

CYYG;2008-01-16 22:00;CYYG 162200Z 36015G21KT 15SM -SN DRSN OVC018 M03/M06 A2998 RMK SC8 SLP154

CYYG;2008-01-16 22:22;CYYG 162222Z 36016G21KT 10SM -SN DRSN -FZDZ OVC018 M03/ RMK SC8

CYYG;2008-01-16 23:00;CYYG 162300Z 36012G19KT 10SM -SN DRSN -FZRA OVC016 M04/M06 A3001 REFZDZ RMK SC8 SLP165

CYYG;2008-01-17 00:00;CYYG 170000Z 01010G19KT 10SM DRSN -FZDZ OVC018 M03/M06 A3004 REFZRA RMK SC8 SLP177

CYYG;2008-01-17 00:44;CYYG 170044Z 36010G18KT 10SM -SHSN DRSN OVC025 M03/ REFZDZ RMK SC8

CYYG;2008-01-17 01:00;CYYG 170100Z 36010G16KT 10SM -SHSN DRSN -FZDZ OVC021 M04/M06 A3006 RMK SC8 SLP183

CYYG;2008-01-17 02:00;CYYG 170200Z 36012KT 10SM -SHSN DRSN -FZDZ OVC022 M03/M06 A3009 RMK SC8 SLP191

CYYG;2008-01-17 03:00;CYYG 170300Z 01013G19KT 10SM -SHSN SCT022 OVC035 M03/M07 A3011 RMK SC3SC5 SLP199

CYYG;2008-01-17 04:00;CYYG 170400Z 01009G15KT 15SM DRSN BKN030 M04/M07 A3012 RMK SC7 SLP201

CYYG;2008-01-17 05:00;CYYG 170500Z 26010KT 10SM -SHSN DRSN BKN022 OVC032 M03/M07 A3013 RMK SC6SC2 SLP207

CYYG;2008-01-17 05:43;CYYG 170543Z 36012G17KT 15SM DRSN BKN033 M04/ RMK SC7

CYYG;2008-01-17 06:00;CYYG 170600Z 36013KT 15SM DRSN BKN033 M04/M07 A3016 RMK SC7 SLP215

CYYG;2008-01-17 07:00;CYYG 170700Z 36011G19KT 15SM DRSN BKN028 M04/M07 A3019 RMK SC7 SLP226

CYYG;2008-01-17 08:00;CYYG 170800Z 35012KT 8SM -SHSN DRSN SCT018 OVC028 M04/M07 A3020 RMK SC3SC5 SLP231

CYYG;2008-01-17 09:00;CYYG 170900Z 35010G16KT 10SM -SHSN DRSN OVC025 M04/M08 A3023 RMK SC8 SLP241

CYYG;2008-01-17 10:00;CYYG 171000Z 35011KT 12SM -SHSN OVC022 M05/M08 A3024 RMK SC8 SLP244

CYYG;2008-01-17 11:00;CYYG 171100Z 35008G15KT 15SM -SHSN OVC023 M05/M09 A3026 RMK SC8 SLP249

CYYG;2008-01-17 11:30;CYYG 171130Z 34007KT 15SM BKN024 M05/ RMK SC7

CYYG;2008-01-17 12:00;CYYG 171200Z 35005KT 15SM BKN022 M05/M08 A3028 RMK SC7 SLP255

CYYG;2008-01-17 13:00;CYYG 171300Z 35007KT 15SM BKN026 M05/M09 A3031 RMK SC6 SLP265

CYYG;2008-01-17 14:00;CYYG 171400Z 34005KT 15SM BKN025 M04/M09 A3032 RMK SC6 SLP270

CYYG;2008-01-17 15:00;CYYG 171500Z 33007KT 15SM BKN025 M04/M09 A3033 RMK SC6 SLP275

CYYG;2008-01-17 16:00;CYYG 171600Z 31009KT 15SM SCT023 M04/M09 A3033 RMK SC4 SLP272

CYYG;2008-01-17 17:00;CYYG 171700Z 32008KT 15SM BKN025 M04/M09 A3033 RMK SC6 SLP274

CYYG;2008-01-17 18:00;CYYG 171800Z 32006KT 15SM BKN022 M04/M08 A3032 RMK SC6 SLP270

CYYG;2008-01-17 19:00;CYYG 171900Z 32007KT 15SM FEW020 M04/M09 A3033 RMK SC2 SLP274

CYYG;2008-01-17 20:00;CYYG 172000Z 31005KT 15SM FEW020 M05/M09 A3034 RMK SC2 SLP277

CYYG;2008-01-17 21:00;CYYG 172100Z 29003KT 15SM FEW020 FEW300 M07/M10 A3035 RMK SC1CI0 SLP280

CYYG;2008-01-17 22:00;CYYG 172200Z 26004KT 15SM FEW020 FEW300 M08/M09 A3036 RMK SC1CI0 SLP284

CYYG;2008-01-17 23:00;CYYG 172300Z 28005KT 15SM FEW300 M09/M11 A3037 RMK CI1 SLP287

CYYG;2008-01-18 00:00;CYYG 180000Z 25004KT 15SM FEW300 M09/M10 A3037 RMK CI1 SLP289

CYYG;2008-01-18 01:00;CYYG 180100Z 22005KT 15SM BKN300 M09/M10 A3038 RMK CI1 SLP290

CYYG;2008-01-18 02:00;CYYG 180200Z 20007KT 15SM BKN300 M09/M10 A3036 RMK CI1 SLP283

CYYG;2008-01-18 03:00;CYYG 180300Z 18004KT 15SM BKN300 M10/M11 A3035 RMK CI1 SLP281

CYYG;2008-01-18 04:00;CYYG 180400Z 21006KT 15SM OVC240 M09/M10 A3035 RMK CS6 HALO FROIN SLP281

CYYG;2008-01-18 05:00;CYYG 180500Z 20008KT 15SM OVC210 M08/M09 A3035 RMK CS6 SLP280

CYYG;2008-01-18 06:00;CYYG 180600Z 21005KT 15SM OVC200 M08/M09 A3033 RMK CS6 HALO FROIN SLP274

CYYG;2008-01-18 07:00;CYYG 180700Z 20007KT 15SM OVC160 M07/M08 A3031 RMK AS8 FROIN SLP268

CYYG;2008-01-18 08:00;CYYG 180800Z 19009KT 15SM SCT160 OVC230 M06/M08 A3030 RMK AS4CI2 FROIN SLP263

CYYG;2008-01-18 09:00;CYYG 180900Z 18009KT 15SM SCT160 BKN230 M07/M08 A3028 RMK AS4CI2 SLP256

CYYG;2008-01-18 10:00;CYYG 181000Z 14006KT 15SM OVC130 M08/M10 A3025 RMK AS8 SLP246

CYYG;2008-01-18 11:00;CYYG 181100Z 16007KT 15SM FEW025 BKN160 BKN230 M08/M09 A3025 RMK SC1AC4CI1 FROIN SLP247

CYYG;2008-01-18 12:00;CYYG 181200Z 14007KT 15SM FEW025 FEW150 M07/M08 A3020 RMK SC1AC2 FROIN SLP232

CYYG;2008-01-18 13:00;CYYG 181300Z 16011KT 15SM BKN018 BKN097 M06/M07 A3019 RMK SC5AC2 SLP227

CYYG;2008-01-18 14:00;CYYG 181400Z 17010G15KT 15SM FEW020 BKN096 M04/M06 A3017 RMK SC2AC6 SLP220

CYYG;2008-01-18 15:00;CYYG 181500Z 16011KT 15SM FEW020 BKN097 M03/M05 A3012 RMK SC1AC6 SLP201

CYYG;2008-01-18 16:00;CYYG 181600Z 16013G18KT 15SM FEW020 OVC090 M02/M04 A3004 RMK SC1AS7 PRESFR SLP176

CYYG;2008-01-18 16:46;CYYG 181646Z 16014G19KT 6SM -SN OVC022 M01/ RMK SC8

CYYG;2008-01-18 17:00;CYYG 181700Z 16014G20KT 3SM -SN SCT010 OVC026 M02/M03 A2996 RMK SF4SC4 PRESFR SLP149

CYYG;2008-01-18 17:13;CYYG 181713Z 16015KT 3/4SM R03/3500VP6000FT/D -SN OVC009 M02/ RMK SF8

CYYG;2008-01-18 18:00;CYYG 181800Z 15014G22KT 3/4SM R03/4500FT/U -SN DRSN VV008 M01/M02 A2988 RMK SN8 PRESFR SLP120

CYYG;2008-01-18 18:33;CYYG 181833Z 15017G22KT 1/2SM R03/2400V4500FT/D SN DRSN VV005 M01/ RMK SN8

CYYG;2008-01-18 18:36;CYYG 181836Z 14016G21KT 1/4SM R03/1400V3500FT/D +SN DRSN VV004 M01/ RMK SN8

CYYG;2008-01-18 18:47;CYYG 181847Z 14018G25KT 1/2SM R03/1400V5500FT/U SNPL DRSN BKN007 OVC010 M01/ RMK SN2SF3SF2

CYYG;2008-01-18 19:00;CYYG 181900Z 15017G25KT 2SM R03/2000VP6000FT/U -SNPL DRSN BKN004 OVC013 M01/M01 A2977 RESN RMK SF5SC3 PRESFR SLP085

CYYG;2008-01-18 19:12;CYYG 181912Z 16020G28KT 3SM -SN DRSN OVC005 M01/ RMK SF8

CYYG;2008-01-18 19:23;CYYG 181923Z 15024G29KT 2SM -SNPL DRSN BKN005 OVC012 M01/ RMK SF6SF2

CYYG;2008-01-18 20:00;CYYG 182000Z 15023G29KT 2SM -SN BLSN SCT005 OVC010 00/M00 A2968 RMK SF3SF5 PRESFR /S03/ SLP052

CYYG;2008-01-18 20:17;CYYG 182017Z 15024G33KT 3SM -SNPL BLSN BKN005 OVC010 00/ RMK SF6SF2

CYYG;2008-01-18 21:00;CYYG 182100Z 15025G35KT 5SM -SNPL DRSN FEW005 OVC010 01/00 A2958 RMK SF2SF6 PRESFR SLP018

CYYG;2008-01-18 21:12;CYYG 182112Z 16024G35KT 8SM -RAPL DRSN OVC010 01/ RMK SF8

CYYG;2008-01-18 21:33;CYYG 182133Z 16025G31KT 10SM -RA OVC012 01/ RMK SF8

CYYG;2008-01-18 22:00;CYYG 182200Z 16027G36KT 10SM RA BKN008 OVC016 01/ A2949 RMK SF6SC2 SLP989

CYYG;2008-01-18 23:00;CYYG 182300Z 18021G29KT 10SM -RA BKN007 OVC013 02/ A2949 RERA RMK SF6SC2 SLP990

CYYG;2008-01-18 23:42;CYYG 182342Z 18018G24KT 10SM BKN007 OVC013 02/ RMK SF6SC2 RERA

CYYG;2008-01-19 00:00;CYYG 190000Z 20018KT 10SM -SHRA BKN007 OVC013 02/02 A2947 RMK SF6SC2 SLP982

CYYG;2008-01-19 00:39;CYYG 190039Z CCA 20014KT 3SM -DZ BR BKN005 OVC012 03/ RMK SF7SC1

CYYG;2008-01-19 00:40;CYYG 190040Z CCA 20014KT 3SM -DZ BR BKN005 OVC012 03/ RMK SF7SC1

CYYG;2008-01-19 01:00;CYYG 190100Z 25011KT 15SM BKN007 OVC015 04/04 A2950 RMK SF7SC1 WSHFT 0050 SLP991

CYYG;2008-01-19 01:42;CYYG 190142Z 28016G21KT 15SM BKN016 03/ RMK SC6

CYYG;2008-01-19 02:00;CYYG 190200Z 28012G21KT 15SM FEW012 02/02 A2955 RMK SC2 SLP007

CYYG;2008-01-19 03:00;CYYG 190300Z 28013KT 15SM FEW012 01/00 A2959 RMK SC2 SLP021

CYYG;2008-01-19 04:00;CYYG 190400Z 26011KT 15SM FEW020 FEW040 01/00 A2961 RMK SC1SC2 SLP030

CYYG;2008-01-19 05:00;CYYG 190500Z 27018G24KT 15SM FEW020 SCT040 M00/M03 A2964 RMK SC2SC2 SLP038

CYYG;2008-01-19 06:00;CYYG 190600Z 27018G25KT 15SM FEW020 FEW040 M01/M06 A2967 RMK SC1SC2 SLP050

CYYG;2008-01-19 07:00;CYYG 190700Z 26011G20KT 15SM FEW040 M02/M06 A2970 RMK SC1 SLP059

CYYG;2008-01-19 08:00;CYYG 190800Z 27018G25KT 15SM FEW250 M03/M08 A2972 RMK CI1 SLP066

CYYG;2008-01-19 09:00;CYYG 190900Z 27015G20KT 15SM FEW200 M03/M08 A2973 RMK CI2 SLP071

CYYG;2008-01-19 10:00;CYYG 191000Z 27010G17KT 15SM FEW200 M03/M08 A2977 RMK CI2 SLP082

CYYG;2008-01-19 11:00;CYYG 191100Z 27012G17KT 15SM SCT160 M03/M08 A2979 RMK AC4 SLP091

CYYG;2008-01-19 12:00;CYYG 191200Z 27011G18KT 15SM FEW020 FEW150 BKN200 M04/M08 A2984 RMK SC1AC2CI1 SLP107

CYYG;2008-01-19 13:00;CYYG 191300Z 27013G18KT 15SM FEW150 SCT200 M04/M09 A2986 RMK AC1CI1 SLP114

CYYG;2008-01-19 14:00;CYYG 191400Z 28013G22KT 15SM FEW220 M04/M09 A2988 RMK CI1 SLP122

CYYG;2008-01-19 15:00;CYYG 191500Z 27012G19KT 15SM FEW220 M03/M09 A2989 RMK CI1 SLP123

CYYG;2008-01-19 16:00;CYYG 191600Z 28013G18KT 15SM FEW020 FEW220 M03/M10 A2988 RMK SC1CI1 SLP120

CYYG;2008-01-19 17:00;CYYG 191700Z 28012KT 15SM FEW020 FEW220 M03/M11 A2987 RMK SC1CI1 SLP117

CYYG;2008-01-19 18:00;CYYG 191800Z 28010KT 15SM FEW020 FEW220 M03/M11 A2986 RMK SC1CI1 SLP113

CYYG;2008-01-19 19:00;CYYG 191900Z 28009KT 15SM FEW220 M03/M12 A2987 RMK CI1 SLP118

CYYG;2008-01-19 20:00;CYYG 192000Z 21006KT 15SM SCT220 M03/M11 A2986 RMK CI1 SLP115

CYYG;2008-01-19 21:00;CYYG 192100Z 19006KT 15SM SCT240 M03/M10 A2987 RMK CI2 SLP117

CYYG;2008-01-19 22:00;CYYG 192200Z 21006KT 15SM SCT240 M04/M09 A2987 RMK CI2 SLP117

CYYG;2008-01-19 23:00;CYYG 192300Z 19009KT 15SM SCT240 M05/M08 A2987 RMK CI2 SLP118

CYYG;2008-01-20 00:00;CYYG 200000Z 20009KT 15SM BKN240 M04/M08 A2987 RMK CI2 SLP116

CYYG;2008-01-20 01:00;CYYG 200100Z 21005KT 15SM BKN220 M04/M08 A2985 RMK CI2 SLP110

CYYG;2008-01-20 02:00;CYYG 200200Z 19006KT 15SM FEW027 SCT150 BKN220 M05/M08 A2985 RMK SC2AC2CI2 SLP109

CYYG;2008-01-20 03:00;CYYG 200300Z 20004KT 15SM FEW021 BKN150 OVC220 M04/M07 A2983 RMK SC2AC2CI1 SLP105

CYYG;2008-01-20 04:00;CYYG 200400Z 18005KT 15SM FEW020 OVC140 M05/M08 A2981 RMK SC2AC2 SLP098

CYYG;2008-01-20 05:00;CYYG 200500Z 19004KT 15SM OVC120 M05/M07 A2979 RMK AC6 SLP092

CYYG;2008-01-20 06:00;CYYG 200600Z 20003KT 15SM FEW040 OVC140 M04/M07 A2978 RMK SC2AC3 SLP088

CYYG;2008-01-20 07:00;CYYG 200700Z 21003KT 15SM FEW037 OVC078 M04/M07 A2977 RMK SC2AC2 SLP082

CYYG;2008-01-20 08:00;CYYG 200800Z 17003KT 15SM BKN038 OVC057 M04/M05 A2972 RMK SC6SC2 SLP067

CYYG;2008-01-20 09:00;CYYG 200900Z 15002KT 15SM OVC037 M04/M05 A2972 RMK SC8 SLP066

CYYG;2008-01-20 09:35;CYYG 200935Z 06002KT 15SM -SHSN SCT022 OVC035 M04/ RMK SC4SC4

CYYG;2008-01-20 10:00;CYYG 201000Z 20003KT 10SM -SHSN SCT019 OVC033 M04/M04 A2969 RMK SC4SC4 SLP058

CYYG;2008-01-20 11:00;CYYG 201100Z 24002KT 6SM -SN OVC013 M04/M04 A2971 RMK SC8 SLP062

CYYG;2008-01-20 12:00;CYYG 201200Z CCA 32003KT 4SM -SN BKN013 OVC030 M04/M05 A2971 RMK SC5SC3 /S01/ SLP063

CYYG;2008-01-20 12:49;CYYG 201249Z 32006KT 8SM -SN BKN008 OVC015 M05/ RMK SF6SC2

CYYG;2008-01-20 13:00;CYYG 201300Z 32007KT 8SM -SN OVC008 M05/M06 A2971 RMK SF8 SLP062

CYYG;2008-01-20 13:17;CYYG 201317Z 32006KT 8SM -SN FEW008 BKN015 OVC024 M05/ RMK SF1SC6SC2

CYYG;2008-01-20 13:39;CYYG 201339Z 32007KT 5SM -SN OVC008 M04/ RMK SF8

CYYG;2008-01-20 14:00;CYYG 201400Z 32010G17KT 5SM -SN BKN008 OVC015 M05/M06 A2970 RMK SF6SC2 SLP060

CYYG;2008-01-20 14:24;CYYG 201424Z 31010G16KT 2SM -SN OVC011 M05/ RMK SC8

CYYG;2008-01-20 14:33;CYYG 201433Z 32014KT 3/4SM R03/P6000FT/D -SN OVC009 M05/ RMK SF8

CYYG;2008-01-20 15:00;CYYG 201500Z 36016G21KT 5/8SM R03/2800FT/N -SN BKN008 OVC020 M05/M07 A2969 RMK SF6SC2 SLP055

CYYG;2008-01-20 15:37;CYYG 201537Z 35012G17KT 1/2SM R03/2600FT/N SN VV006 M06/ RMK SN8 /S02/

CYYG;2008-01-20 16:00;CYYG 201600Z 36011G17KT 1/2SM R03/2200V3500FT/U SN DRSN VV005 M06/M07 A2968 RMK SN8 SLP052

CYYG;2008-01-20 16:37;CYYG 201637Z 34012G21KT 3/4SM R03/2800V5500FT/U -SN DRSN OVC009 M07/ RMK SN2SF6

CYYG;2008-01-20 17:00;CYYG 201700Z 35012G20KT 3/4SM R03/P6000FT/D -SN DRSN OVC009 M07/M09 A2964 RMK SN2SF6 SLP041

CYYG;2008-01-20 17:14;CYYG 201714Z 35014G20KT 3SM -SN DRSN OVC013 M07/ RMK SC8

CYYG;2008-01-20 18:00;CYYG 201800Z 35012G18KT 2 1/2SM -SN DRSN OVC011 M08/M10 A2963 RMK SC8 /S04/ SLP038

CYYG;2008-01-20 19:00;CYYG 201900Z 35014G19KT 3SM -SN DRSN BKN011 OVC020 M08/M12 A2967 RMK SC6SC2 SLP049

CYYG;2008-01-20 19:49;CYYG 201949Z 33015KT 1SM R03/P6000FT/D -SHSN DRSN VV008 M09/ RMK SN8

CYYG;2008-01-20 20:00;CYYG 202000Z 33011G20KT 2SM R03/4500VP6000FT/U -SHSN DRSN BKN010 OVC015 M09/M12 A2971 RMK SF6SC2 /S01/ SLP063

CYYG;2008-01-20 20:09;CYYG 202009Z 33010G20KT 6SM -SHSN DRSN SCT020 BKN060 OVC077 M10/ RMK SC3SC2AC2

CYYG;2008-01-20 21:00;CYYG 202100Z 33010KT 5SM -SHSN BKN015 OVC074 M10/M14 A2974 RMK SC5AC2 SLP073

CYYG;2008-01-20 22:00;CYYG 202200Z 33011KT 2SM -SHSN BKN010 BKN020 M11/M13 A2977 RMK SC5SC2 SLP083

CYYG;2008-01-20 23:00;CYYG 202300Z 31009KT 15SM VCSH FEW015 FEW050 M12/M16 A2980 RMK SC2SC1 SLP096

CYYG;2008-01-20 23:49;CYYG 202349Z 31007KT 15SM -SHSN BKN015 M13/ RMK SC2

CYYG;2008-01-21 00:00;CYYG 210000Z 31008KT 15SM SCT015 M13/M17 A2983 RMK SC2 SLP106

CYYG;2008-01-21 01:00;CYYG 210100Z 31016G24KT 15SM FEW020 M14/M18 A2987 RMK SC2 SLP120

CYYG;2008-01-21 02:00;CYYG 210200Z 30010G18KT 15SM FEW025 M16/M20 A2991 RMK SC2 SLP133

CYYG;2008-01-21 03:00;CYYG 210300Z 29014KT 15SM FEW025 M17/M21 A2995 RMK SC2 SLP145

CYYG;2008-01-21 04:00;CYYG 210400Z 30015G22KT 15SM SKC M18/M23 A2998 RMK SLP157

CYYG;2008-01-21 05:00;CYYG 210500Z 30010KT 15SM FEW035 M19/M23 A3000 RMK SC2 SLP163

CYYG;2008-01-21 06:00;CYYG 210600Z 30008KT 15SM FEW030 M19/M22 A3003 RMK SC2 SLP174

CYYG;2008-01-21 07:00;CYYG 210700Z 31008KT 15SM FEW030 M20/M23 A3005 RMK SC2 SLP181

CYYG;2008-01-21 08:00;CYYG 210800Z 28013KT 15SM FEW030 M20/M25 A3008 RMK SC1 SLP190

CYYG;2008-01-21 09:00;CYYG 210900Z 29013G19KT 15SM SKC M21/M25 A3011 RMK SLP200

CYYG;2008-01-21 10:00;CYYG 211000Z 29015KT 15SM SKC M21/M25 A3014 RMK SLP211

CYYG;2008-01-21 11:00;CYYG 211100Z 29012G19KT 15SM SKC M22/M26 A3018 RMK SLP225

CYYG;2008-01-21 12:00;CYYG 211200Z 29015KT 15SM FEW030 M22/M27 A3021 RMK SC1 SLP234

CYYG;2008-01-21 13:00;CYYG 211300Z 29012G18KT 15SM FEW030 M22/M27 A3024 RMK SC1 SLP246

CYYG;2008-01-21 14:00;CYYG 211400Z 29014G20KT 15SM FEW030 M21/M28 A3028 RMK SC1 SLP257

CYYG;2008-01-21 15:00;CYYG 211500Z 29012G22KT 15SM FEW030 M21/M29 A3030 RMK SC1 SLP265

CYYG;2008-01-21 16:00;CYYG 211600Z 28016G21KT 15SM FEW030 M21/M28 A3029 RMK SC2 SLP262

CYYG;2008-01-21 17:00;CYYG 211700Z 29013G20KT 15SM FEW030 M20/M27 A3029 RMK SC2 SLP261

CYYG;2008-01-21 18:00;CYYG 211800Z 28015G24KT 15SM FEW030 M20/M27 A3028 RMK SC1 SLP261

CYYG;2008-01-21 19:00;CYYG 211900Z 28014G20KT 15SM FEW030 M19/M27 A3030 RMK SC1 SLP267

CYYG;2008-01-21 20:00;CYYG 212000Z 27015G21KT 15SM FEW030 M19/M27 A3032 RMK SC1 SLP272

CYYG;2008-01-21 21:00;CYYG 212100Z 27009G15KT 15SM FEW030 M19/M27 A3034 RMK SC1 SLP281

CYYG;2008-01-21 22:00;CYYG 212200Z 27011KT 15SM FEW030 M19/M27 A3036 RMK SC1 SLP288

CYYG;2008-01-21 23:00;CYYG 212300Z 28016KT 15SM SCT025 M18/M26 A3039 RMK SC3 SLP295

CYYG;2008-01-22 00:00;CYYG 220000Z 28016G24KT 15SM SCT025 M18/M25 A3041 RMK SC3 SLP302

CYYG;2008-01-22 01:00;CYYG 220100Z 28012KT 15SM SKC M18/M26 A3043 RMK SLP310

CYYG;2008-01-22 02:00;CYYG 220200Z 28009G17KT 15SM SKC M18/M26 A3043 RMK SLP310

CYYG;2008-01-22 03:00;CYYG 220300Z 27010G16KT 15SM SKC M18/M24 A3044 RMK SLP315

CYYG;2008-01-22 04:00;CYYG 220400Z 26009KT 15SM SKC M18/M25 A3045 RMK SLP317

CYYG;2008-01-22 05:00;CYYG 220500Z 27007KT 15SM SKC M19/M25 A3046 RMK SLP320

CYYG;2008-01-22 06:00;CYYG 220600Z 27006KT 15SM SKC M19/M25 A3047 RMK SLP324

CYYG;2008-01-22 07:00;CYYG 220700Z 27008KT 15SM SKC M18/M24 A3049 RMK SLP329

CYYG;2008-01-22 08:00;CYYG 220800Z 27006KT 15SM SKC M18/M25 A3050 RMK SLP332

CYYG;2008-01-22 09:00;CYYG 220900Z 28007KT 15SM SKC M19/M25 A3049 RMK SLP331

CYYG;2008-01-22 10:00;CYYG 221000Z 26008KT 15SM SKC M18/M24 A3050 RMK SLP332

CYYG;2008-01-22 11:00;CYYG 221100Z 25007KT 15SM SCT250 M18/M24 A3050 RMK CI2 SLP332

CYYG;2008-01-22 12:00;CYYG 221200Z 26006KT 15SM FEW025 BKN240 M18/M23 A3050 RMK SC1CS1 SLP334

CYYG;2008-01-22 13:00;CYYG 221300Z 24006KT 15SM FEW025 BKN240 M17/M22 A3051 RMK SC1CS2 SLP336

CYYG;2008-01-22 14:00;CYYG 221400Z 27006KT 15SM FEW025 BKN240 M15/M23 A3050 RMK SC1CS4 SLP335

CYYG;2008-01-22 15:00;CYYG 221500Z 23005KT 15SM FEW025 SCT090 BKN240 M14/M23 A3047 RMK SC1AC2CS3 SLP324

CYYG;2008-01-22 16:00;CYYG 221600Z 19008KT 15SM OVC240 M12/M21 A3043 RMK CS2 SLP309

CYYG;2008-01-22 17:00;CYYG 221700Z 18011KT 15SM OVC240 M12/M18 A3037 RMK CS2 SLP290

CYYG;2008-01-22 17:14;CYYG 221714Z 17010KT 15SM -SN SCT140 OVC240 M12/ RMK AS3CS2

CYYG;2008-01-22 18:00;CYYG 221800Z 18014KT 15SM -SN FEW040 SCT140 OVC240 M12/M18 A3033 RMK SC2AS2CS2 SLP275

CYYG;2008-01-22 19:00;CYYG 221900Z 17016KT 15SM -SN SCT029 BKN049 OVC140 M10/M16 A3027 RMK SC3SC2AS3 SLP256

CYYG;2008-01-22 19:52;CYYG 221952Z 16017KT 15SM FEW040 OVC240 M09/ RMK SC2CS4

CYYG;2008-01-22 20:00;CYYG 222000Z 16016KT 15SM BKN049 OVC240 M09/M15 A3024 RMK SC5CS2 SLP245

CYYG;2008-01-22 21:00;CYYG 222100Z 16014G21KT 15SM DRSN FEW049 OVC060 M09/M14 A3017 RMK SC2NS6 PRESFR SLP221

CYYG;2008-01-22 21:17;CYYG 222117Z 16015KT 15SM -SN DRSN BKN024 OVC060 M09/ RMK SC6NS2

CYYG;2008-01-22 22:00;CYYG 222200Z 16015KT 10SM -SN DRSN OVC030 M08/M10 A3009 RMK SC8 PRESFR SLP193

CYYG;2008-01-22 22:38;CYYG 222238Z 16016KT 15SM DRSN FEW042 OVC070 M07/ RMK SC2AC6

CYYG;2008-01-22 23:00;CYYG 222300Z 15015KT 15SM DRSN BKN043 OVC057 M07/M08 A3001 RMK SC5SC3 PRESFR SLP166

CYYG;2008-01-22 23:07;CYYG 222307Z 16017KT 15SM -SN DRSN BKN042 OVC057 M07/ RMK SC6SC2

CYYG;2008-01-23 00:00;CYYG 230000Z 16014G19KT 15SM -SN DRSN FEW009 OVC034 M05/M06 A2995 RMK SF2SC6 PRESFR SLP145

CYYG;2008-01-23 00:33;CYYG 230033Z 17014G20KT 15SM -SN DRSN FEW007 OVC014 M05/ RMK SF2SC6

CYYG;2008-01-23 01:00;CYYG 230100Z 17015KT 10SM -SN DRSN FEW005 OVC013 M04/M05 A2987 RMK SF2SC6 PRESFR SLP120

CYYG;2008-01-23 01:34;CYYG 230134Z 17013KT 6SM -SN BKN005 OVC013 M04/ RMK SF6SC2

CYYG;2008-01-23 02:00;CYYG 230200Z 18014KT 6SM -SN OVC005 M03/M03 A2980 RMK SF8 PRESFR SLP096

CYYG;2008-01-23 02:35;CYYG 230235Z 18015G21KT 5SM -SN DRSN OVC003 M02/ RMK SF8

CYYG;2008-01-23 03:00;CYYG 230300Z 20012G19KT 10SM -SN DRSN OVC003 M01/M01 A2974 RMK SF8 SLP075

CYYG;2008-01-23 03:29;CYYG 230329Z 20015G20KT 12SM DRSN OVC004 M00/ RMK SF8

CYYG;2008-01-23 03:45;CYYG 230345Z 20015KT 10SM -SN DRSN OVC005 M00/ RMK SF8

CYYG;2008-01-23 04:00;CYYG 230400Z 20016KT 8SM -SN DRSN OVC005 00/M00 A2969 RMK SF8 SLP058

CYYG;2008-01-23 04:17;CYYG 230417Z 25008G16KT 1 1/2SM -SN DRSN OVC005 M00/ RMK SF8

CYYG;2008-01-23 04:35;CYYG 230435Z 24009G16KT 6SM -SN DRSN OVC005 00/ RMK SF8

CYYG;2008-01-23 05:00;CYYG 230500Z 30015G28KT 6SM -SN DRSN BKN005 OVC015 M02/M02 A2969 RMK SF7SC1 SLP057

CYYG;2008-01-23 06:00;CYYG 230600Z 30012KT 15SM -SN FEW005 OVC024 M03/M06 A2969 RMK SF2SC6 SLP055

CYYG;2008-01-23 07:00;CYYG 230700Z 30008KT 15SM -SN FEW007 OVC032 M04/M07 A2970 RMK SF1SC7 SLP059

CYYG;2008-01-23 08:00;CYYG 230800Z 29006KT 15SM BKN040 M05/M08 A2969 RMK SC6 SLP058

CYYG;2008-01-23 09:00;CYYG 230900Z 26002KT 15SM BKN040 BKN082 M06/M09 A2969 RMK SC5AC2 SLP057

CYYG;2008-01-23 11:00;CYYG 231100Z 29005KT 15SM SCT082 M08/M10 A2971 RMK AC3 SLP063

CYYG;2008-01-23 12:00;CYYG 231200Z 00000KT 15SM FEW090 M09/M10 A2971 RMK AC2 SLP064

CYYG;2008-01-23 13:00;CYYG 231300Z 03002KT 15SM SCT060 SCT200 M09/M10 A2972 RMK SC3CI1 SLP066

CYYG;2008-01-23 14:00;CYYG 231400Z 02003KT 15SM FEW060 SCT150 BKN200 M08/M10 A2973 RMK SC2AC2CI1 SLP071

CYYG;2008-01-23 14:45;CYYG 231445Z 32003KT 15SM -SHSN FEW020 BKN054 M06/ RMK SC1SC6

CYYG;2008-01-23 15:00;CYYG 231500Z 34003KT 15SM -SHSN FEW020 BKN054 M06/M09 A2974 RMK SC1SC6 SLP073

CYYG;2008-01-23 15:22;CYYG 231522Z 34004KT 15SM FEW030 FEW056 SCT200 M06/ RMK SC1SC2CI1

CYYG;2008-01-23 16:00;CYYG 231600Z 00000KT 15SM FEW050 BKN074 M05/M09 A2972 RMK SC2AC5 SLP068

CYYG;2008-01-23 17:00;CYYG 231700Z CCA 27002KT 15SM -SN BKN023 OVC050 M05/M09 A2972 RMK SC6SC2 SLP066

CYYG;2008-01-23 18:00;CYYG 231800Z 26005KT 15SM -SN BKN016 OVC060 M04/M08 A2972 RMK SC6SC2 VIS LWR NW-NE SLP068

CYYG;2008-01-23 18:15;CYYG 231815Z 25005KT 2 1/2SM -SN OVC016 M05/ RMK SC8

CYYG;2008-01-23 18:54;CYYG 231854Z 26007KT 8SM -SN OVC012 M04/ RMK SC8

CYYG;2008-01-23 19:00;CYYG 231900Z 28009KT 8SM -SN OVC016 M04/M06 A2975 RMK SC8 SLP077

CYYG;2008-01-23 19:26;CYYG 231926Z 29014KT 15SM BKN018 M05/ RMK SC6

CYYG;2008-01-23 20:00;CYYG 232000Z 30013G20KT 15SM DRSN SCT018 M06/M09 A2979 RMK SC3 OBS TAKEN +11 SLP090

CYYG;2008-01-23 21:00;CYYG 232100Z 31008KT 15SM FEW018 M07/M10 A2980 RMK SC2 SLP095

CYYG;2008-01-23 22:00;CYYG 232200Z 31007KT 15SM FEW018 M08/M10 A2982 RMK SC1 SLP102

CYYG;2008-01-23 23:00;CYYG 232300Z 29006KT 15SM FEW018 M09/M10 A2985 RMK SC1 SLP110

CYYG;2008-01-24 00:00;CYYG 240000Z 23004KT 15SM FEW100 M10/M11 A2987 RMK AC1 SLP117

CYYG;2008-01-24 01:00;CYYG 240100Z 23004KT 15SM FEW100 M10/M11 A2989 RMK AC2 SLP124

CYYG;2008-01-24 02:00;CYYG 240200Z 22004KT 15SM FEW100 M09/M10 A2988 RMK AC2 SLP121

CYYG;2008-01-24 03:00;CYYG 240300Z 19007KT 15SM SCT100 M10/M10 A2988 RMK AC3 SLP121

CYYG;2008-01-24 04:00;CYYG 240400Z 19006KT 15SM SCT100 M10/M11 A2987 RMK AC3 SLP119

CYYG;2008-01-24 05:00;CYYG 240500Z 23003KT 15SM BKN070 M09/M10 A2987 RMK AC6 SLP119

CYYG;2008-01-24 06:00;CYYG 240600Z 21004KT 15SM BKN070 M09/M10 A2988 RMK AC6 SLP121

CYYG;2008-01-24 07:00;CYYG 240700Z 24005KT 15SM SCT070 M10/M12 A2990 RMK AC4 SLP129

CYYG;2008-01-24 08:00;CYYG 240800Z 25006KT 15SM FEW070 M10/M13 A2992 RMK AC2 SLP134

CYYG;2008-01-24 09:00;CYYG 240900Z 23005KT 15SM FEW070 BKN220 M10/M12 A2993 RMK AC2CI3 SLP139

CYYG;2008-01-24 10:00;CYYG 241000Z 28008KT 15SM FEW070 BKN190 M10/M14 A2995 RMK AC2AC5 SLP144

CYYG;2008-01-24 11:00;CYYG 241100Z 28006KT 15SM FEW022 BKN200 M10/M14 A2995 RMK SC2CI6 SLP146

CYYG;2008-01-24 12:00;CYYG 241200Z 29008KT 15SM FEW022 BKN200 M11/M15 A2998 RMK SC2CI4 SLP154

CYYG;2008-01-24 13:00;CYYG 241300Z 28006KT 15SM FEW022 BKN160 M11/M16 A2999 RMK SC2AC4 SLP158

CYYG;2008-01-24 14:00;CYYG 241400Z 28008KT 15SM FEW022 BKN140 M12/M16 A3001 RMK SC1AC4 SLP164

CYYG;2008-01-24 15:00;CYYG 241500Z 28010KT 15SM FEW022 BKN140 M12/M16 A3002 RMK SC1AC6 SLP171

CYYG;2008-01-24 16:00;CYYG 241600Z 29009KT 15SM FEW022 BKN140 M12/M18 A3003 RMK SC1AC4 SLP172

CYYG;2008-01-24 17:00;CYYG 241700Z 29007KT 15SM FEW022 BKN250 M12/M17 A3001 RMK SC1CI2 SLP168

CYYG;2008-01-24 18:00;CYYG 241800Z 29006KT 15SM FEW025 FEW250 M11/M18 A3000 RMK SC1CI1 SLP164

CYYG;2008-01-24 19:00;CYYG 241900Z 33007KT 15SM FEW025 FEW250 M12/M18 A3000 RMK SC1CI1 SLP164

CYYG;2008-01-24 20:00;CYYG 242000Z 31004KT 15SM FEW025 FEW250 M12/M19 A3003 RMK SC1CI1 SLP172

CYYG;2008-01-24 21:00;CYYG 242100Z 29004KT 15SM FEW025 BKN250 M12/M20 A3004 RMK CU1CI2 SLP177

CYYG;2008-01-24 22:00;CYYG 242200Z 31003KT 15SM SCT130 BKN250 M14/M20 A3004 RMK AC4CI2 SLP177

CYYG;2008-01-24 23:00;CYYG 242300Z 05002KT 15SM SCT130 BKN250 M15/M20 A3006 RMK AC4CI2 SLP182

CYYG;2008-01-25 00:00;CYYG 250000Z 03002KT 15SM BKN170 M17/M18 A3005 RMK AC6 SLP179

CYYG;2008-01-25 01:00;CYYG 250100Z 00000KT 15SM BKN170 M17/M19 A3003 RMK AC6 SLP174

CYYG;2008-01-25 02:00;CYYG 250200Z 30003KT 15SM BKN170 M19/M21 A3002 RMK AC6 SLP170

CYYG;2008-01-25 03:00;CYYG 250300Z 29003KT 15SM BKN170 M16/M20 A3002 RMK AC7 SLP169

CYYG;2008-01-25 04:00;CYYG 250400Z 29004KT 15SM FEW032 BKN170 M16/M19 A3003 RMK SC2AC6 SLP174

CYYG;2008-01-25 05:00;CYYG 250500Z 32005KT 15SM BKN170 M16/M19 A3000 RMK AC7 SLP164

CYYG;2008-01-25 06:00;CYYG 250600Z 29003KT 15SM BKN170 M16/M19 A3001 RMK AC7 SLP168

CYYG;2008-01-25 07:00;CYYG 250700Z 32008KT 15SM BKN170 M15/M19 A2999 RMK AC7 SLP161

CYYG;2008-01-25 08:00;CYYG 250800Z 33005KT 15SM BKN170 M16/M19 A2997 RMK AC7 SLP154

CYYG;2008-01-25 09:00;CYYG 250900Z 32004KT 15SM FEW100 BKN170 M17/M20 A2997 RMK AC2AC6 SLP154

CYYG;2008-01-25 10:00;CYYG 251000Z 32005KT 15SM SCT023 OVC170 M17/M20 A2997 RMK SC3AC5 SLP153

CYYG;2008-01-25 11:00;CYYG 251100Z 32004KT 15SM FEW023 SCT170 M18/M20 A2997 RMK SC1AC3 SLP153

CYYG;2008-01-25 12:00;CYYG 251200Z 33006KT 15SM FEW022 FEW180 M17/M20 A2997 RMK SC1AC2 SLP153

CYYG;2008-01-25 13:00;CYYG 251300Z 31008KT 15SM FEW022 FEW180 M16/M20 A2997 RMK SC1AC1 SLP153

CYYG;2008-01-25 14:00;CYYG 251400Z 34011KT 15SM FEW020 FEW180 M14/M19 A2996 RMK SC1AC1 SLP149

CYYG;2008-01-25 15:00;CYYG 251500Z 33012G18KT 12SM -SHSN BKN022 M14/M19 A2996 RMK SC6 SLP151

CYYG;2008-01-25 15:29;CYYG 251529Z 33011G18KT 6SM -SHSN DRSN BKN022 M14/ RMK SC6 VIS NE-S 2

CYYG;2008-01-25 15:39;CYYG 251539Z 34010G15KT 2 1/2SM -SHSN DRSN BKN022 M14/ RMK SC6

CYYG;2008-01-25 16:00;CYYG 251600Z 33014G19KT 3SM -SHSN DRSN FEW012 BKN022 M14/M18 A2994 RMK CF2SC5 SLP143

CYYG;2008-01-25 17:00;CYYG 251700Z 32011G18KT 3SM -SHSN DRSN FEW012 BKN024 M14/M18 A2992 RMK CF2SC5 SLP137

CYYG;2008-01-25 18:00;CYYG 251800Z 32011G16KT 3SM -SHSN DRSN FEW012 BKN022 M15/M20 A2991 RMK CF1SC4 SLP134

CYYG;2008-01-25 19:00;CYYG 251900Z 32012G17KT 6SM -SHSN DRSN FEW012 SCT022 M15/M20 A2992 RMK CF1SC2 SLP135

CYYG;2008-01-25 20:00;CYYG 252000Z 32010G15KT 10SM -SHSN DRSN FEW012 SCT025 M15/M21 A2993 RMK CF1SC2 SLP138

CYYG;2008-01-25 21:00;CYYG 252100Z 31008KT 10SM -SHSN DRSN FEW012 SCT022 M16/M20 A2994 RMK CF1SC2 SLP142

CYYG;2008-01-25 22:00;CYYG 252200Z 29006KT 15SM -SHSN FEW012 BKN024 M16/M21 A2995 RMK CF1SC4 SLP146

CYYG;2008-01-25 23:00;CYYG 252300Z 27005KT 15SM -SHSN BKN024 BKN140 M17/M22 A2996 RMK SC5AC1 SLP151

CYYG;2008-01-26 00:00;CYYG 260000Z 27003KT 15SM SCT140 M18/M24 A2997 RMK AC4 SLP154

CYYG;2008-01-26 01:00;CYYG 260100Z 24005KT 15SM SCT140 M18/M22 A2997 RMK AC3 SLP153

CYYG;2008-01-26 02:00;CYYG 260200Z 26005KT 15SM FEW120 M17/M22 A2997 RMK AC2 SLP153

CYYG;2008-01-26 03:00;CYYG 260300Z 27006KT 15SM FEW250 M17/M21 A2997 RMK CI1 SLP153

CYYG;2008-01-26 04:00;CYYG 260400Z 27006KT 15SM FEW040 SCT100 M16/M20 A2996 RMK SC2AC1 SLP150

CYYG;2008-01-26 05:00;CYYG 260500Z 27006KT 15SM SCT050 BKN080 M15/M20 A2996 RMK SC3AC2 SLP148

CYYG;2008-01-26 05:20;CYYG 260520Z 27006KT 15SM -SHSN OVC058 M15/ RMK SC8

CYYG;2008-01-26 06:00;CYYG 260600Z 29007KT 10SM -SHSN BKN058 OVC088 M15/M18 A2995 RMK SC6AC2 SLP146

CYYG;2008-01-26 07:00;CYYG 260700Z 28005KT 10SM -SHSN FEW060 OVC100 M15/M18 A2996 RMK SC2AC6 SLP151

CYYG;2008-01-26 08:00;CYYG 260800Z 28006KT 15SM SCT100 M16/M19 A2997 RMK AC4 SLP154

CYYG;2008-01-26 09:00;CYYG 260900Z 28006KT 15SM BKN040 M16/M19 A3000 RMK SC5 SLP162

CYYG;2008-01-26 09:25;CYYG 260925Z 28007KT 15SM -SHSN BKN040 M16/ RMK SC6

CYYG;2008-01-26 10:00;CYYG 261000Z 29009KT 5SM -SHSN OVC023 M16/M18 A3002 RMK SC8 SLP169

CYYG;2008-01-26 11:00;CYYG 261100Z 29009KT 12SM -SHSN FEW020 SCT200 M15/M19 A3005 RMK SC2CI1 SLP180

CYYG;2008-01-26 11:17;CYYG 261117Z 29010KT 15SM VCSH FEW020 FEW200 M16/ RMK SC1CI1

CYYG;2008-01-26 12:00;CYYG 261200Z 28007KT 15SM FEW020 FEW070 SCT200 M16/M20 A3007 RMK SC1AC1CI1 SLP189

CYYG;2008-01-26 13:00;CYYG 261300Z 29010KT 15SM FEW020 FEW070 FEW200 M16/M20 A3012 RMK SC1AC1CI1 SLP203

CYYG;2008-01-26 14:00;CYYG 261400Z 28008KT 15SM FEW020 M16/M21 A3014 RMK SC1 SLP212

CYYG;2008-01-26 15:00;CYYG 261500Z 32008KT 15SM FEW020 M15/M21 A3016 RMK SC1 SLP218

CYYG;2008-01-26 16:00;CYYG 261600Z 30009G16KT 15SM FEW020 M15/M22 A3017 RMK SC1 SLP221

CYYG;2008-01-26 17:00;CYYG 261700Z 32008KT 15SM VCSH SCT030 M15/M22 A3017 RMK SC2 SLP222

CYYG;2008-01-26 18:00;CYYG 261800Z 32008KT 15SM FEW026 M15/M21 A3018 RMK SC2 SLP226

CYYG;2008-01-26 19:00;CYYG 261900Z 32005KT 15SM FEW023 M15/M21 A3020 RMK SC2 SLP230

CYYG;2008-01-26 20:00;CYYG 262000Z 32009KT 15SM VCSH SCT023 M14/M21 A3023 RMK SC3 SLP240

CYYG;2008-01-26 21:00;CYYG 262100Z 31005KT 15SM VCSH FEW020 M15/M22 A3025 RMK SC2 SLP248

CYYG;2008-01-26 22:00;CYYG 262200Z 30003KT 15SM FEW020 M16/M23 A3028 RMK SC1 SLP257

CYYG;2008-01-26 23:00;CYYG 262300Z 30003KT 15SM FEW180 M18/M23 A3029 RMK AC2 SLP262

CYYG;2008-01-27 00:00;CYYG 270000Z 24004KT 15SM FEW180 M17/M22 A3032 RMK AC1 SLP271

CYYG;2008-01-27 01:00;CYYG 270100Z 26004KT 15SM SKC M19/M23 A3034 RMK SLP278

CYYG;2008-01-27 02:00;CYYG 270200Z 26003KT 15SM SKC M18/M23 A3034 RMK SLP278

CYYG;2008-01-27 03:00;CYYG 270300Z 25005KT 15SM SKC M17/M22 A3035 RMK SLP281

CYYG;2008-01-27 04:00;CYYG 270400Z 27004KT 15SM SKC M16/M22 A3035 RMK SLP283

CYYG;2008-01-27 05:00;CYYG 270500Z 26005KT 15SM SKC M16/M22 A3036 RMK SLP284

CYYG;2008-01-27 06:00;CYYG 270600Z 27004KT 15SM SKC M18/M23 A3036 RMK SLP285

CYYG;2008-01-27 07:00;CYYG 270700Z 26004KT 15SM SKC M16/M20 A3037 RMK SLP290

CYYG;2008-01-27 08:00;CYYG 270800Z 26003KT 15SM SKC M18/M22 A3037 RMK SLP290

CYYG;2008-01-27 09:00;CYYG 270900Z 24004KT 15SM SKC M18/M20 A3038 RMK SLP293

CYYG;2008-01-27 10:00;CYYG 271000Z 23004KT 15SM SKC M19/M21 A3040 RMK SLP299

CYYG;2008-01-27 11:00;CYYG 271100Z 19002KT 15SM SKC M18/M21 A3041 RMK SLP303

CYYG;2008-01-27 12:00;CYYG 271200Z 00000KT 15SM FEW030 M19/M21 A3044 RMK SC1 SLP312

CYYG;2008-01-27 13:00;CYYG 271300Z 12003KT 15SM FEW030 FEW100 M16/M19 A3045 RMK SC1AS1 SLP316

CYYG;2008-01-27 14:00;CYYG 271400Z 17003KT 15SM FEW030 FEW100 SCT230 M16/M19 A3046 RMK SC1AS1CI1 SLP319

CYYG;2008-01-27 15:00;CYYG 271500Z 17003KT 15SM FEW100 SCT350 M13/M17 A3045 RMK AS1CI2 SLP317

CYYG;2008-01-27 16:00;CYYG 271600Z 18003KT 15SM BKN300 M11/M17 A3043 RMK CI2 SLP310

CYYG;2008-01-27 17:00;CYYG 271700Z 19003KT 15SM BKN300 M11/M17 A3044 RMK CI2 SLP314

CYYG;2008-01-27 18:00;CYYG 271800Z 14003KT 15SM BKN300 M11/M17 A3042 RMK CI4 SLP307

CYYG;2008-01-27 19:00;CYYG 271900Z 06003KT 15SM SCT200 BKN300 M11/M17 A3041 RMK CI2CI3 SLP302

CYYG;2008-01-27 20:00;CYYG 272000Z 07004KT 15SM SCT180 BKN300 M11/M18 A3039 RMK CI2CI2 SLP297

CYYG;2008-01-27 21:00;CYYG 272100Z 04007KT 15SM SCT200 BKN300 M12/M18 A3039 RMK CI2CI3 SLP296

CYYG;2008-01-27 22:00;CYYG 272200Z 08007KT 15SM BKN250 BKN300 M13/M18 A3040 RMK CI5CI2 SLP298

CYYG;2008-01-27 23:00;CYYG 272300Z 08006KT 15SM BKN210 BKN240 M13/M17 A3038 RMK CI5CI2 SLP291

CYYG;2008-01-28 00:00;CYYG 280000Z 07007KT 15SM OVC220 M12/M16 A3036 RMK CI4 SLP287

CYYG;2008-01-28 01:00;CYYG 280100Z 05006KT 15SM OVC220 M13/M17 A3039 RMK CI4 SLP295

CYYG;2008-01-28 02:00;CYYG 280200Z 06005KT 15SM OVC210 M13/M15 A3035 RMK CI6 SLP282

CYYG;2008-01-28 03:00;CYYG 280300Z 09006KT 15SM OVC200 M11/M14 A3034 RMK CI8 SLP280

CYYG;2008-01-28 04:00;CYYG 280400Z 02006KT 15SM OVC170 M12/M14 A3034 RMK AS8 SLP278

CYYG;2008-01-28 05:00;CYYG 280500Z 05007KT 15SM OVC170 M11/M13 A3028 RMK AS8 SLP260

CYYG;2008-01-28 06:00;CYYG 280600Z 05009KT 15SM OVC130 M10/M12 A3025 RMK AS8 SLP246

CYYG;2008-01-28 07:00;CYYG 280700Z 05011KT 15SM BKN022 OVC100 M09/M11 A3022 RMK SC6AS2 SLP236

CYYG;2008-01-28 08:00;CYYG 280800Z 06012KT 15SM BKN025 OVC054 M08/M10 A3019 RMK SC6SC2 SLP226

CYYG;2008-01-28 09:00;CYYG 280900Z 07015KT 15SM FEW023 OVC045 M06/M09 A3016 RMK SC2SC6 SLP218

CYYG;2008-01-28 09:04;CYYG 280904Z 07013KT 10SM -SN FEW023 OVC045 M06/ RMK SC2SC6

CYYG;2008-01-28 09:38;CYYG 280938Z 07014G19KT 2SM -SN DRSN BKN029 OVC045 M06/ RMK SC6SC2

CYYG;2008-01-28 10:00;CYYG 281000Z 06011G17KT 5SM -SN DRSN OVC033 M06/M07 A3014 RMK SC8 SLP212

CYYG;2008-01-28 11:00;CYYG 281100Z 06014KT 8SM -SN DRSN OVC038 M06/M07 A3012 RMK SC8 SLP202

CYYG;2008-01-28 11:39;CYYG 281139Z 04018KT 10SM -SN DRSN BKN013 OVC038 M05/ RMK SC6SC2

CYYG;2008-01-28 12:00;CYYG 281200Z CCA 05017KT 2 1/2SM -SN DRSN BKN013 OVC034 M05/M06 A3008 RMK SC7SC1 /S01/ SLP188

CYYG;2008-01-28 12:45;CYYG 281245Z 04016KT 4SM -SNPL DRSN BKN013 OVC034 M04/ RMK SC6SC2

CYYG;2008-01-28 13:00;CYYG 281300Z 05018KT 4SM -SNPL DRSN -FZRA BKN013 OVC034 M04/M05 A3005 RMK SC6SC2 SLP178

CYYG;2008-01-28 13:36;CYYG 281336Z 04017KT 2 1/2SM -SNPL DRSN -FZRA BKN010 OVC028 M03/ RMK SC6SC2

CYYG;2008-01-28 14:00;CYYG 281400Z 05016KT 3SM -SNPL -FZRA BKN010 OVC020 M03/M04 A3004 RMK SC6SC2 SLP177

CYYG;2008-01-28 14:24;CYYG 281424Z 04016KT 2 1/2SM -SNPL -FZRA BKN007 OVC020 M03/ RMK SF6SC2

CYYG;2008-01-28 15:00;CYYG 281500Z 04018KT 3SM -SNPL -FZRA BKN005 OVC015 M02/M02 A3001 RMK SF7SC1 SLP165

CYYG;2008-01-28 15:37;CYYG 281537Z 04013KT 3SM -FZRA BR BKN005 OVC012 M01/ RMK SF7SC1

CYYG;2008-01-28 16:00;CYYG 281600Z 04013KT 5SM -FZRA BR BKN005 OVC012 M01/M01 A2995 RMK SF7SC1 SLP146

CYYG;2008-01-28 17:00;CYYG 281700Z 04011KT 4SM -FZRA BR BKN006 OVC014 M01/M01 A2989 RMK SF7SC1 PRESFR SLP126

CYYG;2008-01-28 18:00;CYYG 281800Z 04009KT 5SM -FZRA BR BKN006 OVC014 M01/M01 A2984 RMK SF7SC1 SLP107

CYYG;2008-01-28 19:00;CYYG 281900Z 04008KT 4SM -FZRA BR BKN005 OVC012 M00/M00 A2979 RMK SF7SC1 SLP092

CYYG;2008-01-28 20:00;CYYG 282000Z 05012KT 2 1/2SM -FZRA BR BKN005 OVC010 M00/M00 A2978 RMK SF7SC1 WND ESTD DUE ICE ACCRETION SLP089

CYYG;2008-01-28 21:00;CYYG 282100Z CCA 05012KT 2 1/2SM -FZRA BR BKN006 OVC010 M00/M00 A2978 RMK SF7SC1 WND ESTD DUE ICE ACCRETION SLP088

CYYG;2008-01-28 22:00;CYYG 282200Z 05015KT 4SM -FZRA BR OVC006 M00/M00 A2975 RMK SF8 WND ESTD DUE ICE ACCRETION SLP076

CYYG;2008-01-28 23:00;CYYG 282300Z 05020KT 4SM -RA BR OVC006 00/00 A2973 REFZRA RMK SF8 WIND ESTD DUE ICE ACCRETION ICE 10MM THK SLP070

CYYG;2008-01-29 00:00;CYYG 290000Z 05015KT 4SM -RA BR OVC006 00/00 A2969 RMK SF8 WND ESTD DUE ICE ACCRETION SLP055

CYYG;2008-01-29 01:00;CYYG 290100Z 07020KT 10SM -RA OVC006 00/00 A2967 RMK SF8 WND ESTD DUE ICE ACCRETION SLP049

CYYG;2008-01-29 02:00;CYYG 290200Z 05020KT 8SM RA OVC006 00/00 A2963 RMK SF8 WND ESTD DUE ICE ACCRETION SLP037

CYYG;2008-01-29 03:00;CYYG 290300Z 05020KT 10SM -RA OVC006 01/00 A2961 RERA RMK SF8 WND ESTD DUE ICE ACCRETION SLP030

CYYG;2008-01-29 04:00;CYYG 290400Z 02020KT 15SM -RA OVC005 00/00 A2958 RMK SF8 WND ESTD DUE ICE ACCRETION SLP019

CYYG;2008-01-29 05:00;CYYG 290500Z 02020KT 5SM -DZ BR OVC004 00/00 A2956 RMK SF8 WND ESTD DUE ICE ACCRETION SLP011

CYYG;2008-01-29 06:00;CYYG 290600Z 02020KT 5SM -DZ BR OVC004 00/00 A2952 RMK SF8 WND ESTD DUE ICE ACCRETION SLP000

CYYG;2008-01-29 07:00;CYYG 290700Z 02015KT 5SM -DZ BR OVC003 00/00 A2953 RMK SF8 WND ESTD DUE ICE ACCRETION SLP001

CYYG;2008-01-29 08:00;CYYG 290800Z 36015KT 5SM -DZ BR OVC003 00/00 A2952 RMK SF8 WND ESTD DUE ICE ACCRETION SLP000

CYYG;2008-01-29 09:00;CYYG 290900Z 36015KT 2SM -DZ BR OVC003 00/00 A2953 RMK SF8 WND ESTD DUE ICE ACCRETION SLP003

CYYG;2008-01-29 10:00;CYYG 291000Z 36015KT 3SM -FZRA BR OVC004 M00/M00 A2957 RMK SF8 WND ESTD DUE ICE ACCRETION SLP014

CYYG;2008-01-29 10:16;CYYG 291016Z 36020KT 5SM R03/6000FT/N -FZDZ BR OVC004 M00/ REFZRA RMK SF8 WND ESTD DUE ICE ACCRETION

CYYG;2008-01-29 10:21;CYYG 291021Z 36020KT 5SM R03/6000FT/N -DZ BR OVC004 00/  RMK SF8 WND ESTD DUE ICE ACCRETION

CYYG;2008-01-29 10:39;CYYG 291039Z 36020KT 3SM -FZRA BR OVC004 M00/ REFZDZ RMK SF8 WND ESTD DUE ICE ACCRETION

CYYG;2008-01-29 11:00;CYYG 291100Z 36020KT 5SM -FZDZ BR OVC004 M00/M00 A2958 REFZRA RMK SF8 WND ESTD DUE ICE ACCRETION SLP020

CYYG;2008-01-29 12:00;CYYG 291200Z 05020KT 4SM -FZDZ BR OVC004 M00/M00 A2959 RMK SF8 WND ESTD DUE ICE ACCRETION SLP021

CYYG;2008-01-29 12:32;CYYG 291232Z 05015KT 2 1/2SM -FZDZ BR OVC004 M00/ RMK SF8 WND ESTD DUE ICE ACCRETION

CYYG;2008-01-29 13:00;CYYG 291300Z 05015KT 2 1/2SM -FZDZ BR OVC003 M00/M00 A2963 RMK SF8 WND ESTD DUE ICE ACCRETION SLP035

CYYG;2008-01-29 13:40;CYYG 291340Z 05015KT 5/8SM R03/P6000FT/D -FZDZ BR OVC002 M00/M00 RMK SF8 WND ESTD DUE ICE ACCRETION

CYYG;2008-01-29 14:00;CYYG 291400Z 05015KT 5/8SM R03/P6000FT/N -FZDZ BR OVC002 M00/M00 A2964 RMK FG3SF5 SLP040

CYYG;2008-01-29 15:00;CYYG 291500Z 02008KT 1/2SM R03/2800FT/N DZ FG VV002 00/00 A2966 RMK FG8 SLP044

CYYG;2008-01-29 15:13;CYYG 291513Z 36007KT 3/8SM R03/2400FT/N FZDZ FZFG VV002 M00/ RMK FG8

CYYG;2008-01-29 16:00;CYYG 291600Z 36009KT 1/2SM R03/5500FT/U -FZDZ FZFG VV002 M00/M00 A2966 RMK FG8 SLP044

CYYG;2008-01-29 17:00;CYYG 291700Z 36006KT 1/2SM R03/P6000FT -FZDZ FZFG VV002 M00/M00 A2964 RMK FG8 SLP039

CYYG;2008-01-29 17:28;CYYG 291728Z 36006KT 1SM R03/P6000FT/N -FZDZ BR OVC002 M00/ RMK FG3SF5

CYYG;2008-01-29 18:00;CYYG 291800Z 36007KT 3/4SM R03/P6000FT/D -FZDZ BR OVC003 M00/M00 A2964 RMK FG3SF5 SLP038

CYYG;2008-01-29 18:38;CYYG 291838Z 36005KT 1/2SM R03/3500FT/N FZFG OVC003 M00/ RMK FG4SF4

CYYG;2008-01-29 19:00;CYYG 291900Z 33005KT 3/8SM R03/2600FT/N FZFG VV002 M00/M00 A2967 RMK FG8 SLP049

CYYG;2008-01-29 20:00;CYYG 292000Z 34005KT 3/8SM R03/1800V2800FT/N FZFG VV002 M01/M01 A2970 RMK FG8 SLP059

CYYG;2008-01-29 21:00;CYYG 292100Z 34006KT 3/8SM R03/3500VP6000FT/D FZFG VV003 M01/M01 A2972 RMK FG8 SLP066

CYYG;2008-01-29 22:00;CYYG 292200Z 32004KT 3/8SM R03/P6000FT/U FZFG VV004 M01/M01 A2974 RMK FG8 SLP074

CYYG;2008-01-29 22:10;CYYG 292210Z 34006KT 1/2SM R03/P6000FT/U FZFG VV004 M01/ RMK FG8

CYYG;2008-01-29 22:43;CYYG 292243Z 34005KT 3/4SM R03/P6000FT/N BR VV003 M01/ RMK FG8

CYYG;2008-01-29 23:00;CYYG 292300Z 36005KT 1SM R03/P6000FT/D BR VV003 M01/M01 A2975 RMK FG8 SLP078

CYYG;2008-01-30 00:00;CYYG 300000Z 30005KT 2SM BR OVC002 M01/M01 A2978 RMK ST8 SLP087

CYYG;2008-01-30 00:29;CYYG 300029Z 33007KT 2SM -FZDZ BR OVC002 M01/ RMK ST8

CYYG;2008-01-30 01:00;CYYG 300100Z 33003KT 2SM -FZDZ BR OVC002 M01/M01 A2977 RMK ST8 SLP085

CYYG;2008-01-30 01:48;CYYG 300148Z 31004KT 2SM BR OVC003 M01/ REFZDZ RMK ST8

CYYG;2008-01-30 02:00;CYYG 300200Z 33004KT 2SM BR OVC002 M01/M01 A2978 REFZDZ RMK ST8 SLP086

CYYG;2008-01-30 02:08;CYYG 300208Z 34003KT 1SM R03/P6000FT/D BR VV002 M01/ RMK FG8

CYYG;2008-01-30 02:36;CYYG 300236Z 35004KT 3SM R03/6000FT/N BR OVC002 M01/ RMK ST8

CYYG;2008-01-30 03:00;CYYG 300300Z 33004KT 3SM BR OVC003 M01/M01 A2977 RMK SF8 SLP085

CYYG;2008-01-30 04:00;CYYG 300400Z 29008KT 5SM BR OVC003 M01/M01 A2981 RMK SF8 SLP097

CYYG;2008-01-30 05:00;CYYG 300500Z 29004KT 6SM BR OVC003 M01/M01 A2980 RMK SF8 SLP093

CYYG;2008-01-30 06:00;CYYG 300600Z 00000KT 2SM BR OVC003 M01/M01 A2979 RMK SF8 SLP089

CYYG;2008-01-30 07:00;CYYG 300700Z 27004KT 2SM BR OVC003 M02/M02 A2980 RMK SF8 SLP093

CYYG;2008-01-30 08:00;CYYG 300800Z 27003KT 3SM BR OVC003 M01/M01 A2981 RMK SF8 SLP098

CYYG;2008-01-30 09:00;CYYG 300900Z 26003KT 2SM BR OVC003 M01/M01 A2982 RMK SF8 SLP101

CYYG;2008-01-30 09:14;CYYG 300914Z 23002KT 3/4SM R03/4000V5500FT/N BR OVC003 M01/ RMK FG2SF6

CYYG;2008-01-30 10:00;CYYG 301000Z 25003KT 1SM R03/P6000FT/D BR OVC003 M01/M01 A2983 RMK SF8 SLP103

CYYG;2008-01-30 10:47;CYYG 301047Z 22002KT 3/4SM R03/3500V4500FT/U BR VV002 M01/ RMK FG8

CYYG;2008-01-30 11:00;CYYG 301100Z 23003KT 3/4SM R03/5000FT/U BR VV002 M01/M01 A2986 RMK FG8 SLP114

CYYG;2008-01-30 12:00;CYYG 301200Z 20004KT 1SM R03/P6000FT/N BR VV003 M01/M01 A2986 RMK FG8 SLP113

CYYG;2008-01-30 12:16;CYYG 301216Z 18005KT 3/8SM R03/1800V3000FT/D FZFG VV002 M01/ RMK FG8

CYYG;2008-01-30 12:34;CYYG 301234Z 19005KT 1SM R03/P6000FT/N BR VV003 M01/ RMK FG8

CYYG;2008-01-30 12:44;CYYG 301244Z 20006KT 2SM BR OVC003 M02/ RMK FG2SF6

CYYG;2008-01-30 13:00;CYYG 301300Z 21007KT 1SM R03/P6000FT/N BR VV003 M02/M02 A2985 RMK FG8 SLP111

CYYG;2008-01-30 14:00;CYYG 301400Z 21010KT 1/2SM R03/2800VP6000FT/D FZFG VV002 M02/M02 A2987 RMK FG8 SLP118

CYYG;2008-01-30 14:19;CYYG 301419Z 21010KT 3SM BR OVC003 M02/ RMK ST8

CYYG;2008-01-30 15:00;CYYG 301500Z 20007KT 3SM BR OVC002 M01/M01 A2986 RMK ST8 VIS LWR SW-NW SLP115

CYYG;2008-01-30 15:28;CYYG 301528Z 18010KT 1 1/2SM BR OVC003 M01/ RMK ST8

CYYG;2008-01-30 15:38;CYYG 301538Z 17010KT 1/2SM R03/3000VP6000FT/D FZFG VV002 M01/ RMK FG8

CYYG;2008-01-30 16:00;CYYG 301600Z 18009KT 1/2SM R03/P6000FT/N FZFG VV002 M01/M01 A2983 RMK FG8 SLP105

CYYG;2008-01-30 16:52;CYYG 301652Z 16008KT 4SM BR OVC002 M01/ RMK ST8

CYYG;2008-01-30 17:00;CYYG 301700Z 16007KT 10SM OVC002 M00/M00 A2979 RMK ST8 SLP092

CYYG;2008-01-30 17:23;CYYG 301723Z 16007KT 10SM BKN004 OVC012 M00/ RMK SF6SC2

CYYG;2008-01-30 18:00;CYYG 301800Z 16012KT 10SM SCT004 BKN110 OVC140 00/00 A2977 RMK SF3AC4AS1 SLP084

CYYG;2008-01-30 19:00;CYYG 301900Z 16009KT 15SM FEW004 SCT030 BKN110 OVC140 01/01 A2977 RMK SF2SC2AC2AS2 SLP083

CYYG;2008-01-30 20:00;CYYG 302000Z 15013KT 15SM SCT030 BKN110 OVC140 02/01 A2974 RMK SC3AC2AS2 SLP074

CYYG;2008-01-30 21:00;CYYG 302100Z 15011KT 15SM FEW004 FEW020 OVC160 03/01 A2970 RMK SF1SC2AS6 SLP060

CYYG;2008-01-30 22:00;CYYG 302200Z 16016KT 15SM OVC014 04/02 A2969 RMK SC8 SLP054

CYYG;2008-01-30 22:14;CYYG 302214Z CCA 16016G21KT 15SM -RA OVC012 04/ RMK SC8

CYYG;2008-01-30 22:40;CYYG 302240Z 16016G26KT 6SM RA BR OVC009 04/ RMK SC8

CYYG;2008-01-30 23:00;CYYG 302300Z 16017G24KT 6SM RA BR OVC009 04/03 A2965 RMK SC8 SLP043

CYYG;2008-01-30 23:10;CYYG 302310Z 16016KT 5SM RA BR OVC006 04/ RMK SF8

CYYG;2008-01-30 23:34;CYYG 302334Z 15017KT 4SM RA BR OVC004 04/ RMK SF8

CYYG;2008-01-30 23:49;CYYG 302349Z 15019G30KT 6SM -RA BR OVC005 05/ RERA RMK SF8

CYYG;2008-01-31 00:00;CYYG 310000Z 15018G30KT 10SM -RA OVC005 05/05 A2959 RMK SF8 RERA PRESFR SLP023

CYYG;2008-01-31 01:00;CYYG 310100Z 17020G27KT 6SM -RA BR BKN004 OVC015 05/05 A2960 RMK SF7SC1 SLP024

CYYG;2008-01-31 01:45;CYYG 310145Z 18020G26KT 10SM SCT004 OVC030 06/ RMK SF4SC4

CYYG;2008-01-31 02:00;CYYG 310200Z 18020G27KT 12SM SCT004 BKN017 OVC030 06/06 A2960 RMK SF3SC2SC3 SLP027

CYYG;2008-01-31 03:00;CYYG 310300Z 21017G25KT 15SM FEW004 BKN020 OVC040 06/05 A2965 RMK SF1SC4SC3 SLP042

CYYG;2008-01-31 04:00;CYYG 310400Z 23019G27KT 15SM SCT020 BKN040 06/02 A2969 RMK SC4SC2 SLP054

CYYG;2008-01-31 05:00;CYYG 310500Z 23018G27KT 15SM BKN028 04/01 A2974 RMK SC7 PRESRR SLP074

CYYG;2008-01-31 06:00;CYYG 310600Z 26014G21KT 15SM BKN015 BKN030 03/01 A2984 RMK SC5SC2 PRESRR SLP107

CYYG;2008-01-31 07:00;CYYG 310700Z 26014G20KT 15SM BKN015 OVC030 01/M03 A2991 RMK SC5SC3 PRESRR SLP132

CYYG;2008-01-31 08:00;CYYG 310800Z 27015G22KT 15SM SCT015 BKN035 M01/M06 A2998 RMK SC3SC3 PRESRR SLP153

CYYG;2008-01-31 09:00;CYYG 310900Z 26012G18KT 15SM FEW015 BKN035 M01/M07 A3002 RMK SC2SC5 SLP167

CYYG;2008-01-31 10:00;CYYG 311000Z 26010KT 15SM BKN032 M02/M07 A3007 RMK SC6 SLP185

CYYG;2008-01-31 11:00;CYYG 311100Z 27012G20KT 15SM FEW032 M03/M10 A3013 RMK SC2 PRESRR SLP205

CYYG;2008-01-31 12:00;CYYG 311200Z 26015G24KT 15SM SKC M04/M13 A3020 RMK SLP227

CYYG;2008-01-31 13:00;CYYG 311300Z 25021G26KT 15SM SKC M04/M12 A3024 RMK SLP243

CYYG;2008-01-31 14:00;CYYG 311400Z 26017G25KT 15SM SKC M04/M12 A3028 RMK SLP254

CYYG;2008-01-31 15:00;CYYG 311500Z 27013G24KT 15SM FEW030 M04/M12 A3032 RMK SC1 SLP269

CYYG;2008-01-31 16:00;CYYG 311600Z 26013G19KT 15SM FEW300 M04/M12 A3033 RMK CI1 SLP273

CYYG;2008-01-31 17:00;CYYG 311700Z 26015G20KT 15SM FEW300 M03/M14 A3034 RMK CI1 SLP277

CYYG;2008-01-31 18:00;CYYG 311800Z 26017G22KT 15SM FEW300 M03/M14 A3035 RMK CI1 SLP280

CYYG;2008-01-31 19:00;CYYG 311900Z 26013KT 15SM FEW300 M03/M14 A3038 RMK CI1 SLP290

CYYG;2008-01-31 20:00;CYYG 312000Z 26010G16KT 15SM FEW300 M03/M12 A3041 RMK CI1 SLP299

CYYG;2008-01-31 21:00;CYYG 312100Z 25008G15KT 15SM SCT300 M03/M11 A3044 RMK CI2 SLP310

CYYG;2008-01-31 22:00;CYYG 312200Z 27005KT 15SM FEW300 M04/M11 A3047 RMK CI1 SLP319

CYYG;2008-01-31 23:00;CYYG 312300Z 28004KT 15SM FEW300 M05/M12 A3050 RMK CI1 SLP331

CYYG;2008-02-01 01:00;CYYG 010100Z 28005KT 15SM SKC M06/M13 A3055 RMK SLP350

CYYG;2008-02-01 02:00;CYYG 010200Z 27005KT 15SM FEW180 M06/M13 A3057 RMK AC2 SLP355

CYYG;2008-02-01 03:00;CYYG 010300Z 28008KT 15SM FEW200 M05/M13 A3060 RMK CI2 SLP364

CYYG;2008-02-01 04:00;CYYG 010400Z 28008KT 15SM FEW240 M06/M13 A3061 RMK CI2 SLP370

CYYG;2008-02-01 05:00;CYYG 010500Z 29009KT 15SM SCT180 M06/M13 A3064 RMK AC3 SLP379

CYYG;2008-02-01 06:00;CYYG 010600Z 31007KT 15SM BKN160 M07/M13 A3066 RMK AC5 SLP386

CYYG;2008-02-01 07:00;CYYG 010700Z 31008KT 15SM SCT160 M08/M13 A3067 RMK AC3 SLP389

CYYG;2008-02-01 08:00;CYYG 010800Z 30006KT 15SM FEW160 M08/M13 A3068 RMK AC2 SLP392

CYYG;2008-02-01 09:00;CYYG 010900Z 30005KT 15SM SCT120 M08/M13 A3070 RMK AC4 SLP398

CYYG;2008-02-01 10:00;CYYG 011000Z 31005KT 15SM SCT120 M09/M13 A3071 RMK AC4 SLP404

CYYG;2008-02-01 11:00;CYYG 011100Z 30002KT 15SM FEW120 BKN240 M09/M13 A3074 RMK AC2CI1 SLP413

CYYG;2008-02-01 12:00;CYYG 011200Z 31004KT 15SM FEW120 OVC250 M09/M13 A3075 RMK AC1CI3 SLP418

CYYG;2008-02-01 13:00;CYYG 011300Z 34003KT 15SM FEW120 BKN250 M09/M12 A3076 RMK AC1CI2 SLP421

CYYG;2008-02-01 14:00;CYYG 011400Z 29004KT 15SM FEW190 BKN250 M07/M13 A3079 RMK AC1CI2 SLP429

CYYG;2008-02-01 15:00;CYYG 011500Z 33004KT 15SM BKN170 BKN250 M07/M14 A3079 RMK AC6CI1 SLP429

CYYG;2008-02-01 16:00;CYYG 011600Z 33006KT 15SM SCT140 BKN250 M06/M13 A3076 RMK AC3CI1 SLP421

CYYG;2008-02-01 17:00;CYYG 011700Z 03008KT 15SM BKN140 BKN250 M06/M13 A3074 RMK AC6CI1 SLP413

CYYG;2008-02-01 18:00;CYYG 011800Z 31003KT 15SM FEW140 BKN250 M06/M13 A3073 RMK AC2CI2 SLP410

CYYG;2008-02-01 19:00;CYYG 011900Z 33003KT 15SM BKN120 OVC220 M06/M13 A3073 RMK AC7CI1 SLP411

CYYG;2008-02-01 20:00;CYYG 012000Z 04003KT 15SM BKN095 OVC200 M06/M12 A3071 RMK AC7CI1 SLP404

CYYG;2008-02-01 21:00;CYYG 012100Z 04005KT 15SM FEW085 BKN110 OVC200 M06/M11 A3068 RMK AC1AC6CI1 SLP391

CYYG;2008-02-01 22:00;CYYG 012200Z 06007KT 15SM BKN110 OVC200 M06/M11 A3063 RMK AC7CI1 SLP377

CYYG;2008-02-01 23:00;CYYG 012300Z 09005KT 15SM OVC120 M06/M10 A3065 RMK AC8 SLP382

CYYG;2008-02-02 00:00;CYYG 020000Z 06005KT 15SM OVC120 M06/M09 A3064 RMK AC8 SLP380

CYYG;2008-02-02 01:00;CYYG 020100Z 07005KT 15SM OVC082 M06/M09 A3061 RMK AC8 SLP369

CYYG;2008-02-02 01:38;CYYG 020138Z 09009KT 2SM -SN VV005 M06/ RMK SN8

CYYG;2008-02-02 02:00;CYYG 020200Z 08011KT 1SM R03/4000VP6000FT/D -SN VV003 M06/M07 A3053 RMK SN8 PRESFR SLP341

CYYG;2008-02-02 02:12;CYYG 020212Z 09014KT 3SM -SN OVC015 M06/ RMK SC8

CYYG;2008-02-02 03:00;CYYG 020300Z 09007KT 10SM -SN OVC050 M06/M07 A3051 RMK SC8 SLP336

CYYG;2008-02-02 04:00;CYYG 020400Z 09010KT 15SM OVC078 M05/M07 A3047 RMK AC8 SLP320

CYYG;2008-02-02 04:50;CYYG 020450Z 09009KT 8SM -SN OVC020 M04/ RMK SC8

CYYG;2008-02-02 05:00;CYYG 020500Z 09007KT 3SM -SN OVC012 M04/M06 A3043 RMK SC8 SLP307

CYYG;2008-02-02 06:00;CYYG 020600Z 10013KT 6SM -PL -FZRA OVC050 M03/M05 A3035 RMK SC8 PRESFR SLP280

CYYG;2008-02-02 07:00;CYYG 020700Z 10012G22KT 12SM -FZRA FEW010 OVC034 M03/M04 A3024 RMK SC2SC6 PRESFR SLP244

CYYG;2008-02-02 08:00;CYYG 020800Z 11016G34KT 8SM -PL -FZRA OVC012 M03/M04 A3015 RMK SC8 PRESFR SLP212

CYYG;2008-02-02 09:00;CYYG 020900Z 12022G32KT 10SM -PL -FZRA OVC009 M03/M04 A3006 RMK SF8 PRESFR SLP183

CYYG;2008-02-02 10:00;CYYG 021000Z 12019G27KT 10SM -FZRA OVC006 M02/M02 A2993 RMK SF8 PRESFR REPL SLP138

CYYG;2008-02-02 11:00;CYYG 021100Z 13013G22KT 10SM -FZRA OVC007 M01/M01 A2985 RMK SF8 PRESFR SLP112

CYYG;2008-02-02 12:00;CYYG 021200Z 13012G21KT 10SM -RA OVC007 00/M00 A2974 REFZRA RMK SF8 PRESFR SLP074

CYYG;2008-02-02 13:00;CYYG 021300Z 14017KT 8SM RA OVC006 01/01 A2971 RMK SF8 SLP063

CYYG;2008-02-02 14:00;CYYG 021400Z 15020G29KT 15SM BKN006 OVC017 02/02 A2957 RERA RMK SF6SC2 /R10/ PRESFR SLP015

CYYG;2008-02-02 14:06;CYYG 021406Z 16018G27KT 6SM -SHRA BR OVC007 02/ RMK SF8

CYYG;2008-02-02 14:47;CYYG 021447Z 17017KT 15SM OVC004 03/ RMK SF8

CYYG;2008-02-02 15:00;CYYG 021500Z 15019G24KT 15SM BKN004 04/04 A2950 RMK SF7 PRESFR SLP990

CYYG;2008-02-02 15:23;CYYG 021523Z 16018G24KT 15SM FEW004 BKN019 BKN250 06/ RMK SF2SC4CI1

CYYG;2008-02-02 16:00;CYYG 021600Z 18023G28KT 15SM BKN018 05/05 A2943 RMK SC6 PRESFR SLP967

CYYG;2008-02-02 16:49;CYYG 021649Z 21023G29KT 10SM -SHRA FEW018 BKN031 05/ RMK SC1SC6

CYYG;2008-02-02 17:00;CYYG 021700Z 21023G30KT 15SM -SHRA OVC024 05/03 A2941 RMK SC8 SLP961

CYYG;2008-02-02 17:46;CYYG 021746Z 22018G24KT 15SM SCT010 BKN033 04/ RMK SC3SC4

CYYG;2008-02-02 18:00;CYYG 021800Z 22022G27KT 15SM FEW010 BKN023 04/02 A2939 RMK SC2SC6 SLP954

CYYG;2008-02-02 18:37;CYYG 021837Z 23021G33KT 15SM -SHRA OVC014 03/ RMK SC8

CYYG;2008-02-02 19:00;CYYG 021900Z 23018G31KT 15SM -SHRA OVC013 03/01 A2940 RMK SC8 SLP958

CYYG;2008-02-02 19:16;CYYG 021916Z 24026G36KT 15SM -SHRA BKN013 02/ RMK SC7

CYYG;2008-02-02 19:27;CYYG 021927Z 25030G39KT 15SM -SHSN BKN013 02/ RMK SC7 VIS LWR NW-N

CYYG;2008-02-02 19:47;CYYG 021947Z 25024G38KT 15SM BKN020 02/ RMK SC7

CYYG;2008-02-02 20:00;CYYG 022000Z 26026G36KT 15SM BKN022 01/M02 A2947 RMK SC7 PRESRR SLP983

CYYG;2008-02-02 21:00;CYYG 022100Z 26023G35KT 15SM OVC020 00/M03 A2953 RMK SC8 SLP002

CYYG;2008-02-02 22:00;CYYG 022200Z 27023G33KT 15SM -SHSN DRSN OVC018 M00/M03 A2960 RMK SC8 PRESRR SLP026

CYYG;2008-02-02 23:00;CYYG 022300Z CCA 28020G33KT 15SM -SHSN DRSN OVC017 M01/M04 A2967 RMK SC8 PRESRR SLP050

CYYG;2008-02-03 00:00;CYYG 030000Z 28021G26KT 15SM -SHSN DRSN OVC020 M01/M05 A2975 RMK SC8 PRESRR SLP076

CYYG;2008-02-03 01:00;CYYG 030100Z 29025G33KT 15SM -SHSN DRSN SCT023 OVC038 M02/M06 A2979 RMK SC3SC5 SLP091

CYYG;2008-02-03 02:00;CYYG 030200Z 30021G28KT 15SM -SHSN DRSN OVC025 M03/M07 A2983 RMK SC8 SLP103

CYYG;2008-02-03 03:00;CYYG 030300Z 31013G20KT 15SM -SHSN DRSN OVC020 M03/M06 A2985 RMK SC8 SLP111

CYYG;2008-02-03 04:00;CYYG 030400Z 33013G19KT 15SM -SHSN DRSN OVC017 M05/M07 A2990 RMK SC8 SLP129

CYYG;2008-02-03 05:00;CYYG 030500Z 31018G24KT 15SM DRSN BKN030 M06/M10 A2994 RMK SC6 SLP141

CYYG;2008-02-03 06:00;CYYG 030600Z 29010KT 15SM SCT030 M06/M10 A2997 RMK SC3 SLP152

CYYG;2008-02-03 07:00;CYYG 030700Z 29011KT 15SM FEW030 M07/M10 A2999 RMK SC2 SLP158

CYYG;2008-02-03 08:00;CYYG 030800Z 29008KT 15SM SKC M07/M11 A3000 RMK SLP160

CYYG;2008-02-03 09:00;CYYG 030900Z 29009KT 15SM SKC M07/M11 A3001 RMK SLP165

CYYG;2008-02-03 10:00;CYYG 031000Z 29009KT 15SM SKC M08/M11 A3004 RMK SLP174

CYYG;2008-02-03 11:00;CYYG 031100Z 30007KT 15SM SKC M08/M11 A3006 RMK SLP182

CYYG;2008-02-03 12:00;CYYG 031200Z 31005KT 15SM FEW030 M08/M11 A3007 RMK SC1 SLP186

CYYG;2008-02-03 13:00;CYYG 031300Z 29010KT 15SM FEW022 FEW250 M08/M11 A3010 RMK SC1CI0 SLP195

CYYG;2008-02-03 14:00;CYYG 031400Z 27007KT 15SM FEW022 FEW250 M08/M11 A3011 RMK SC1CI1 SLP200

CYYG;2008-02-03 15:00;CYYG 031500Z 29007KT 15SM FEW025 SCT250 M07/M10 A3011 RMK SC2CI1 SLP199

CYYG;2008-02-03 16:00;CYYG 031600Z 28007KT 15SM FEW025 SCT250 M07/M10 A3010 RMK SC1CI2 SLP196

CYYG;2008-02-03 17:00;CYYG 031700Z 33006KT 15SM FEW025 SCT250 M06/M10 A3009 RMK SC1CI2 SLP193

CYYG;2008-02-03 18:00;CYYG 031800Z 29006KT 15SM FEW025 SCT250 M05/M10 A3008 RMK SC1CI2 SLP190

CYYG;2008-02-03 19:00;CYYG 031900Z 33005KT 15SM FEW024 BKN250 M05/M10 A3009 RMK SC2CI1 SLP191

CYYG;2008-02-03 20:00;CYYG 032000Z 31006KT 15SM FEW024 BKN250 M06/M10 A3010 RMK SC2CI1 SLP196

CYYG;2008-02-03 21:00;CYYG 032100Z 30005KT 15SM FEW024 BKN250 M06/M11 A3012 RMK SC1CI2 SLP201

CYYG;2008-02-03 22:00;CYYG 032200Z CCA 33003KT 15SM FEW024 SCT160 BKN250 M07/M11 A3012 RMK SC1AC2CI1 SLP201

CYYG;2008-02-03 23:00;CYYG 032300Z 33004KT 15SM FEW024 SCT160 BKN250 M08/M11 A3013 RMK SC1AC2CI1 SLP205

CYYG;2008-02-04 00:00;CYYG 040000Z 33003KT 15SM BKN120 M08/M11 A3012 RMK AC6 SLP204

CYYG;2008-02-04 01:00;CYYG 040100Z 33003KT 15SM FEW035 BKN120 M08/M10 A3013 RMK SC1AC6 SLP207

CYYG;2008-02-04 01:15;CYYG 040115Z 32002KT 15SM -SN BKN035 OVC120 M08/ RMK SC6AC2

CYYG;2008-02-04 02:00;CYYG 040200Z 31002KT 10SM -SN BKN034 M08/M09 A3013 RMK SC6 SLP207

CYYG;2008-02-04 02:39;CYYG 040239Z 27004KT 15SM FEW015 SCT035 SCT120 M08/ RMK SC1SC2AC1

CYYG;2008-02-04 03:00;CYYG 040300Z 28004KT 15SM FEW015 SCT035 BKN120 M08/M10 A3014 RMK SC2SC2AC2 SLP208

CYYG;2008-02-04 04:00;CYYG 040400Z 32003KT 10SM -SHSN FEW019 SCT038 BKN120 M09/M10 A3014 RMK SC2SC2AC2 SLP209

CYYG;2008-02-04 05:00;CYYG 040500Z 32004KT 15SM FEW025 OVC120 M08/M10 A3015 RMK SC1AC7 SLP212

CYYG;2008-02-04 06:00;CYYG 040600Z 32003KT 15SM BKN110 M08/M10 A3016 RMK AC6 SLP216

CYYG;2008-02-04 07:00;CYYG 040700Z 30003KT 15SM FEW110 M10/M11 A3017 RMK AC2 SLP219

CYYG;2008-02-04 08:00;CYYG 040800Z 32004KT 15SM SKC M10/M11 A3017 RMK SLP219

CYYG;2008-02-04 09:00;CYYG 040900Z 29006KT 15SM SKC M09/M11 A3018 RMK SLP225

CYYG;2008-02-04 10:00;CYYG 041000Z 29006KT 15SM FEW110 M10/M11 A3020 RMK AC1 SLP232

CYYG;2008-02-04 11:00;CYYG 041100Z 31005KT 15SM FEW110 M10/M11 A3023 RMK AC2 SLP239

CYYG;2008-02-04 12:00;CYYG 041200Z 29008KT 15SM FEW035 M09/M10 A3025 RMK SC1 SLP248

CYYG;2008-02-04 13:00;CYYG 041300Z 29006KT 15SM FEW035 M08/M10 A3026 RMK SC1 SLP250

CYYG;2008-02-04 14:00;CYYG 041400Z 29005KT 15SM FEW035 M07/M09 A3026 RMK SC1 SLP252

CYYG;2008-02-04 15:00;CYYG 041500Z 30006KT 15SM FEW010 M07/M10 A3028 RMK SC1 SLP256

CYYG;2008-02-04 16:00;CYYG 041600Z 32007KT 15SM FEW010 M07/M10 A3028 RMK SC1 SLP257

CYYG;2008-02-04 17:00;CYYG 041700Z 33006KT 15SM FEW010 M07/M10 A3028 RMK SC2 SLP257

CYYG;2008-02-04 18:00;CYYG 041800Z 33006KT 15SM SCT015 M06/M10 A3028 RMK SC3 SLP257

CYYG;2008-02-04 19:00;CYYG 041900Z 34007KT 15SM SCT015 M06/M09 A3029 RMK SC4 SLP262

CYYG;2008-02-04 20:00;CYYG 042000Z 32007KT 15SM SCT015 M07/M10 A3031 RMK SC4 SLP267

CYYG;2008-02-04 21:00;CYYG 042100Z 32007KT 15SM BKN015 M07/M10 A3033 RMK SC6 SLP273

CYYG;2008-02-04 22:00;CYYG 042200Z 35004KT 15SM SCT015 M07/M10 A3034 RMK SC3 SLP277

CYYG;2008-02-04 23:00;CYYG 042300Z 27003KT 15SM FEW015 M08/M10 A3035 RMK SC1 SLP281

CYYG;2008-02-05 00:00;CYYG 050000Z 27003KT 15SM FEW015 M08/M10 A3035 RMK SC1 SLP282

CYYG;2008-02-05 01:00;CYYG 050100Z CCA 27004KT 15SM FEW015 M09/M10 A3037 RMK SC2 OBS TAKEN +11 SLP289

CYYG;2008-02-05 02:00;CYYG 050200Z 26003KT 15SM FEW015 M09/M11 A3038 RMK SC2 SLP291

CYYG;2008-02-05 03:00;CYYG 050300Z 27003KT 15SM SKC M10/M11 A3038 RMK FROIN SLP292

CYYG;2008-02-05 04:00;CYYG 050400Z 26003KT 15SM SKC M10/M11 A3039 RMK FROIN SLP295

CYYG;2008-02-05 05:00;CYYG 050500Z 26003KT 15SM SKC M09/M11 A3039 RMK SLP294

CYYG;2008-02-05 06:00;CYYG 050600Z 25003KT 15SM SKC M10/M11 A3039 RMK FROIN SLP294

CYYG;2008-02-05 07:00;CYYG 050700Z 27003KT 15SM SKC M10/M11 A3039 RMK FROIN SLP293

CYYG;2008-02-05 08:00;CYYG 050800Z 27002KT 15SM SKC M11/M14 A3038 RMK FROIN SLP290

CYYG;2008-02-05 09:00;CYYG 050900Z 00000KT 15SM SKC M11/M12 A3036 RMK SLP286

CYYG;2008-02-05 10:00;CYYG 051000Z CCA 14002KT 15SM FEW030 FEW250 M12/M13 A3034 RMK SC1CI1 FROIN SLP279

CYYG;2008-02-05 11:00;CYYG 051100Z 14002KT 15SM FEW030 BKN250 M12/M12 A3033 RMK SC1CS4 FROIN SLP276

CYYG;2008-02-05 11:42;CYYG 051142Z 22004KT 15SM FEW002 BKN250 M10/ RMK SF1CS3

CYYG;2008-02-05 11:46;CYYG 051146Z CCA 22004KT 15SM FEW002 BKN250 M10/ RMK SF1CS3 FROIN

CYYG;2008-02-05 12:00;CYYG 051200Z 23005KT 12SM FEW002 BKN180 OVC250 M10/M11 A3037 RMK SF1AS6CI1 SLP287

CYYG;2008-02-05 13:00;CYYG 051300Z 24006KT 15SM BKN160 OVC200 M09/M10 A3036 RMK AS6CI2 SLP286

CYYG;2008-02-05 14:00;CYYG 051400Z 17005KT 15SM BKN160 OVC200 M08/M09 A3034 RMK AS5CI2 SLP278

CYYG;2008-02-05 15:00;CYYG 051500Z 16006KT 15SM BKN160 OVC200 M07/M09 A3030 RMK AS6CI2 SLP265

CYYG;2008-02-05 16:00;CYYG 051600Z 16010KT 15SM BKN150 OVC200 M06/M09 A3026 RMK AC6CI2 SLP251

CYYG;2008-02-05 17:00;CYYG 051700Z 16012KT 15SM BKN110 OVC200 M05/M08 A3020 RMK AC6CI2 SLP232

CYYG;2008-02-05 18:00;CYYG 051800Z 18011KT 15SM BKN080 OVC200 M05/M08 A3017 RMK AC7CI1 SLP219

CYYG;2008-02-05 19:00;CYYG 051900Z 15011KT 15SM BKN067 OVC110 M05/M07 A3012 RMK AC6AC2 SLP204

CYYG;2008-02-05 20:00;CYYG 052000Z 15010KT 10SM VCSH BKN027 OVC055 M04/M07 A3007 RMK SC6SC2 SLP186

CYYG;2008-02-05 20:02;CYYG 052002Z 15010KT 8SM -SHSN BKN025 OVC055 M04/ RMK SC7SC1

CYYG;2008-02-05 20:19;CYYG 052019Z 14007KT 2 1/2SM -SN BKN014 OVC034 M04/ RMK SC7SC1

CYYG;2008-02-05 20:23;CYYG 052023Z 13009KT 1 1/4SM -SN BKN014 OVC031 M04/ RMK SF7SC1

CYYG;2008-02-05 20:47;CYYG 052047Z 14009KT 5SM -SN BKN024 OVC041 M05/ RMK SC7SC1

CYYG;2008-02-05 21:00;CYYG 052100Z 13008KT 8SM -SN BKN030 OVC050 M04/M07 A3000 RMK SC7SC1 PRESFR SLP163

CYYG;2008-02-05 21:52;CYYG 052152Z 15012G19KT 3SM -SN DRSN BKN011 OVC030 M04/ RMK SC7SC1

CYYG;2008-02-05 22:00;CYYG 052200Z 15012G17KT 3SM -SN DRSN BKN011 OVC028 M04/M06 A2996 RMK SC7SC1 SLP147

CYYG;2008-02-05 22:10;CYYG 052210Z 16009G16KT 2 1/2SM -SN DRSN BKN008 OVC024 M04/ RMK SF6SC2

CYYG;2008-02-05 22:24;CYYG 052224Z 15010KT 4SM -SN DRSN BKN011 OVC025 M05/ RMK SF6SC2

CYYG;2008-02-05 22:39;CYYG 052239Z 14008KT 2SM -SN DRSN BKN007 OVC016 M05/ RMK SF7SC1

CYYG;2008-02-05 22:53;CYYG 052253Z 14007KT 3/4SM R03/4500VP6000FT/U -SN DRSN VV004 M05/ RMK SN8

CYYG;2008-02-05 23:00;CYYG 052300Z 13008KT 3/4SM R03/P6000FT/N -SN DRSN VV003 M05/M05 A2997 RMK SN8 SLP152

CYYG;2008-02-05 23:13;CYYG 052313Z 13006KT 1/2SM R03/P6000FT/D SN DRSN VV003 M05/ RMK SN8 /S02/

CYYG;2008-02-05 23:46;CYYG 052346Z 13008KT 1/4SM R03/2400VP6000FT/D +SN DRSN VV002 M05/ RMK SN8 /S05/

CYYG;2008-02-06 00:00;CYYG 060000Z 13009KT 1/4SM R03/1800V4000FT/U +SN DRSN VV002 M04/M05 A2992 RMK SN8 /S07/ SLP136

CYYG;2008-02-06 01:00;CYYG 060100Z 13011KT 1/2SM R03/4000V5500FT/U SN DRSN OVC004 M04/M04 A2986 RMK SC8 RESN PRESFR SLP115

CYYG;2008-02-06 01:21;CYYG 060121Z 13012KT 1SM R03/P6000FT/U -SN OVC007 M04/ RMK SF8 RESN

CYYG;2008-02-06 02:00;CYYG 060200Z 12012KT 1 1/2SM -SN SCT007 OVC012 M03/M04 A2980 RMK SF4SC4 RESN PRESFR SLP095

CYYG;2008-02-06 03:00;CYYG 060300Z 13011KT 1 1/2SM -SN BKN010 OVC020 M03/M04 A2977 RMK SC6SC2 SLP085

CYYG;2008-02-06 04:00;CYYG 060400Z 14006KT 1SM R03/P6000FT/N -SN OVC007 M03/M03 A2977 RMK SF8 SLP082

CYYG;2008-02-06 05:00;CYYG 060500Z 14008KT 2SM -SN BKN004 OVC026 M03/M03 A2975 RMK SC6SC2 SLP076

CYYG;2008-02-06 06:00;CYYG 060600Z 14007KT 2SM -SN OVC027 M03/M03 A2973 RMK SC8 SLP070

CYYG;2008-02-06 07:00;CYYG 060700Z 14005KT 3SM -SN OVC042 M02/M02 A2970 RMK SC8 SLP060

CYYG;2008-02-06 08:00;CYYG 060800Z 16004KT 10SM SCT008 OVC017 M02/M02 A2968 RMK SF3SC5 SLP054

CYYG;2008-02-06 09:00;CYYG 060900Z 25004KT 10SM BKN003 OVC008 M01/M01 A2970 RMK SF5SF3 SLP061

CYYG;2008-02-06 10:00;CYYG 061000Z 20004KT 8SM -SN OVC004 M02/M02 A2970 RMK SF8 SLP061

CYYG;2008-02-06 10:50;CYYG 061050Z 00000KT 10SM OVC005 M01/ RMK SF8

CYYG;2008-02-06 11:00;CYYG 061100Z 21002KT 12SM OVC004 M01/M01 A2973 RMK SF8 SLP069

CYYG;2008-02-06 12:00;CYYG 061200Z 28006KT 8SM OVC003 M01/M01 A2974 RMK SF8 SLP073

CYYG;2008-02-06 13:00;CYYG 061300Z 31005KT 8SM OVC003 M02/M02 A2975 RMK SF8 SLP078

CYYG;2008-02-06 14:00;CYYG 061400Z 31005KT 10SM OVC006 M02/M03 A2974 RMK SF8 SLP075

CYYG;2008-02-06 15:00;CYYG 061500Z 33003KT 10SM OVC004 M03/M03 A2972 RMK SF8 SLP066

CYYG;2008-02-06 16:00;CYYG 061600Z 32005KT 10SM OVC005 M03/M03 A2970 RMK SF8 SLP060

CYYG;2008-02-06 17:00;CYYG 061700Z 33005KT 10SM OVC006 M03/M04 A2969 RMK SF8 SLP057

CYYG;2008-02-06 18:00;CYYG 061800Z 32005KT 10SM OVC007 M03/M05 A2971 RMK SF8 SLP063

CYYG;2008-02-06 19:00;CYYG 061900Z 35003KT 10SM OVC007 M03/M04 A2964 RMK SF8 /PRESFR/ SLP041

CYYG;2008-02-06 20:00;CYYG 062000Z 34005KT 8SM OVC006 M03/M04 A2965 RMK SF8 SLP042

CYYG;2008-02-06 21:00;CYYG 062100Z 32005KT 8SM OVC006 M04/M04 A2966 RMK SF8 SLP048

CYYG;2008-02-06 22:00;CYYG 062200Z 32005KT 8SM OVC008 M04/M04 A2966 RMK SF8 SLP047

CYYG;2008-02-06 23:00;CYYG 062300Z 32004KT 8SM BKN008 OVC080 M04/M05 A2964 RMK SF6AC2 SLP040

CYYG;2008-02-07 00:00;CYYG 070000Z 32005KT 12SM SCT008 OVC063 M04/M05 A2964 RMK SF4SC4 SLP039

CYYG;2008-02-07 00:14;CYYG 070014Z 32006KT 12SM BKN007 OVC061 M04/ RMK SF6SC2

CYYG;2008-02-07 01:00;CYYG 070100Z 32006KT 15SM OVC007 M04/M05 A2965 RMK SF8 SLP042

CYYG;2008-02-07 02:00;CYYG 070200Z 32008KT 15SM OVC007 M04/M05 A2967 RMK SF8 SLP049

CYYG;2008-02-07 03:00;CYYG 070300Z 33008KT 10SM -SHSN OVC007 M04/M05 A2965 RMK SF8 SLP043

CYYG;2008-02-07 04:00;CYYG 070400Z 32005KT 10SM -SHSN OVC006 M04/M05 A2965 RMK SF8 SLP043

CYYG;2008-02-07 05:00;CYYG 070500Z 32007KT 10SM -SHSN BKN006 OVC013 M04/M05 A2966 RMK SF6SC2 SLP047

CYYG;2008-02-07 05:14;CYYG 070514Z 32007KT 15SM OVC011 M04/ RMK SC8

CYYG;2008-02-07 06:00;CYYG 070600Z 33007KT 15SM BKN011 OVC019 M04/M05 A2966 RMK SC6SC2 SLP048

CYYG;2008-02-07 07:00;CYYG 070700Z 33011G16KT 15SM BKN012 OVC140 M05/M07 A2968 RMK SC6AC2 SLP052

CYYG;2008-02-07 08:00;CYYG 070800Z 33010G15KT 15SM SCT012 OVC240 M07/M09 A2970 RMK SC4CS4 SLP060

CYYG;2008-02-07 09:00;CYYG 070900Z 33009G15KT 15SM OVC230 M08/M10 A2971 RMK CS6 SLP065

CYYG;2008-02-07 10:00;CYYG 071000Z 33007KT 15SM SCT014 OVC230 M08/M10 A2975 RMK SC3CS5 SLP076

CYYG;2008-02-07 11:00;CYYG 071100Z 34010G17KT 15SM OVC018 M08/M10 A2974 RMK SC8 SLP074

CYYG;2008-02-07 12:00;CYYG 071200Z 35009KT 15SM DRSN FEW018 BKN200 M09/M11 A2978 RMK SC2CI5 SLP087

CYYG;2008-02-07 13:00;CYYG 071300Z 35009KT 15SM FEW018 BKN200 M09/M11 A2979 RMK SC1CI6 SLP091

CYYG;2008-02-07 14:00;CYYG 071400Z 36008KT 15SM FEW160 BKN200 M08/M10 A2981 RMK AC2CI4 SLP099

CYYG;2008-02-07 15:00;CYYG 071500Z 36010G15KT 15SM DRSN FEW013 BKN200 M07/M10 A2981 RMK SC2CC4 SLP097

CYYG;2008-02-07 16:00;CYYG 071600Z 01009KT 15SM BKN013 M06/M08 A2979 RMK SC7 SLP092

CYYG;2008-02-07 16:31;CYYG 071631Z 02008KT 15SM -SHSN OVC013 M06/ RMK SC8 VIS LWR NE-E

CYYG;2008-02-07 17:00;CYYG 071700Z 03015KT 3SM -SHSN DRSN OVC013 M06/M08 A2982 RMK SC8 VIS N-NE 15 SLP099

CYYG;2008-02-07 18:00;CYYG 071800Z 03017KT 3SM -SHSN DRSN SCT011 OVC025 M06/M08 A2982 RMK SC3SC5 SLP099

CYYG;2008-02-07 19:00;CYYG 071900Z 04015G22KT 10SM -SHSN DRSN BKN017 M06/M09 A2982 RMK SC7 SLP102

CYYG;2008-02-07 20:00;CYYG 072000Z 05015G24KT 4SM -SHSN DRSN OVC019 M06/M09 A2985 RMK SC8 SLP112

CYYG;2008-02-07 21:00;CYYG 072100Z 05012KT 3SM -SHSN DRSN BKN013 OVC025 M07/M09 A2990 RMK SC6SC2 SLP128

CYYG;2008-02-07 21:24;CYYG 072124Z 04008G16KT 1 1/2SM -SHSN DRSN VV011 M07/ RMK SN8

CYYG;2008-02-07 21:42;CYYG 072142Z 02006KT 2SM -SHSN OVC016 M07/ RMK SN4SC4

CYYG;2008-02-07 22:00;CYYG 072200Z 02008KT 5SM -SHSN OVC014 M07/M08 A2995 RMK SC8 SLP145

CYYG;2008-02-07 23:00;CYYG 072300Z 03012KT 10SM -SHSN SCT014 OVC025 M07/M09 A2996 RMK SC3SC5 SLP149

CYYG;2008-02-08 00:00;CYYG 080000Z 03013KT 10SM -SHSN BKN025 OVC220 M09/M11 A2996 RMK SC6CS2 SLP149

CYYG;2008-02-08 01:00;CYYG 080100Z 03010KT 10SM -SHSN FEW030 BKN150 M08/M10 A2999 RMK SC2AC3 SLP159

CYYG;2008-02-08 02:00;CYYG 080200Z 03011KT 10SM -SHSN FEW030 OVC120 M08/M09 A3000 RMK SC2AC6 SLP163

CYYG;2008-02-08 03:00;CYYG 080300Z 02009KT 15SM -SHSN OVC120 M07/M10 A3002 RMK AC8 SLP170

CYYG;2008-02-08 04:00;CYYG 080400Z 01006KT 15SM OVC100 M07/M09 A3005 RMK AC8 SLP178

CYYG;2008-02-08 05:00;CYYG 080500Z 01006KT 15SM FEW037 OVC110 M08/M10 A3006 RMK SC2AC6 SLP181

CYYG;2008-02-08 06:00;CYYG 080600Z 01006KT 15SM BKN036 OVC110 M08/M09 A3006 RMK SC6AC2 SLP184

CYYG;2008-02-08 07:00;CYYG 080700Z 36006KT 15SM FEW036 SCT110 BKN240 M08/M09 A3008 RMK SC2AC1CI1 SLP189

CYYG;2008-02-08 08:00;CYYG 080800Z 34005KT 15SM BKN240 M10/M10 A3009 RMK CI2 SLP194

CYYG;2008-02-08 09:00;CYYG 080900Z 34006KT 15SM BKN240 M10/M11 A3011 RMK CI2 SLP199

CYYG;2008-02-08 10:00;CYYG 081000Z 36004KT 15SM BKN014 BKN240 M11/M11 A3010 RMK SC5CI1 SLP196

CYYG;2008-02-08 11:00;CYYG 081100Z 36005KT 15SM FEW012 SCT240 M11/M12 A3010 RMK SC2CI1 SLP198

CYYG;2008-02-08 11:50;CYYG 081150Z 34005KT 15SM FEW008 FEW022 SCT250 M11/ RMK SF2SC1CI0 FROIN

CYYG;2008-02-08 12:00;CYYG 081200Z 34005KT 15SM FEW008 FEW022 FEW250 M11/M12 A3012 RMK SF1SC1CI0 FROIN SLP203

CYYG;2008-02-08 13:00;CYYG 081300Z 33004KT 15SM BKN037 M09/M10 A3013 RMK SC7 SLP208

CYYG;2008-02-08 13:14;CYYG 081314Z 35003KT 15SM -SN FEW032 BKN038 M08/ RMK SC2SC6

CYYG;2008-02-08 14:00;CYYG 081400Z 02003KT 4SM -SN BKN038 M08/M08 A3013 RMK SC6 SLP206

CYYG;2008-02-08 15:00;CYYG 081500Z 00000KT 10SM -SN BKN023 M05/M06 A3012 RMK SC7 VIS S 5 SLP203

CYYG;2008-02-08 16:00;CYYG 081600Z 13002KT 15SM -SN FEW016 BKN038 M05/M07 A3010 RMK SC1SC4 SLP197

CYYG;2008-02-08 17:00;CYYG 081700Z 23005KT 5SM -SN FEW016 OVC035 M04/M06 A3011 RMK SC2SC6 SLP198

CYYG;2008-02-08 18:00;CYYG 081800Z 20004KT 10SM -SN FEW016 SCT042 M04/M06 A3009 RMK SC1SC2 SLP192

CYYG;2008-02-08 18:52;CYYG 081852Z 20002KT 15SM FEW020 BKN200 M04/ RMK SC1CI2

CYYG;2008-02-08 19:00;CYYG 081900Z 20002KT 15SM FEW020 BKN200 M04/M07 A3008 RMK SC2CI2 SLP189

CYYG;2008-02-08 20:00;CYYG 082000Z 00000KT 15SM FEW020 BKN200 M04/M07 A3006 RMK SC1CI4 SLP183

CYYG;2008-02-08 21:00;CYYG 082100Z 16003KT 15SM FEW020 FEW100 OVC140 M05/M07 A3005 RMK SC1AC2AS3 SLP179

CYYG;2008-02-08 22:00;CYYG 082200Z 00000KT 15SM OVC044 M05/M07 A3004 RMK SC8 SLP174

CYYG;2008-02-08 23:00;CYYG 082300Z 13002KT 15SM BKN039 OVC079 M06/M07 A3002 RMK SC6AC2 SLP169

CYYG;2008-02-09 00:00;CYYG 090000Z 16002KT 15SM BKN040 OVC140 M07/M08 A3001 RMK SC6AC2 SLP166

CYYG;2008-02-09 01:00;CYYG 090100Z 00000KT 15SM BKN035 OVC140 M07/M08 A3001 RMK SC6AC2 SLP164

CYYG;2008-02-09 02:00;CYYG 090200Z 18002KT 15SM BKN028 BKN088 M08/M09 A2999 RMK SC5AC2 SLP159

CYYG;2008-02-09 03:00;CYYG 090300Z 27002KT 15SM SCT028 BKN088 M09/M10 A2999 RMK SC4AC3 SLP158

CYYG;2008-02-09 04:00;CYYG 090400Z 00000KT 15SM SCT022 OVC088 M10/M11 A2998 RMK SC4AC4 SLP154

CYYG;2008-02-09 05:00;CYYG 090500Z 00000KT 15SM SCT022 OVC050 M08/M08 A2996 RMK SC4SC4 SLP147

CYYG;2008-02-09 06:00;CYYG 090600Z 26003KT 12SM OVC032 M08/M09 A2995 RMK SC8 SLP145

CYYG;2008-02-09 07:00;CYYG 090700Z 26003KT 15SM OVC045 M07/M07 A2995 RMK SC8 SLP146

CYYG;2008-02-09 07:07;CYYG 090707Z 26004KT 10SM -SHSN BKN039 M07/ RMK SC7

CYYG;2008-02-09 08:00;CYYG 090800Z 25005KT 12SM -SHSN BKN035 M07/M08 A2996 RMK SC7 SLP149

CYYG;2008-02-09 09:00;CYYG 090900Z 27003KT 15SM BKN033 M07/M07 A2997 RMK SC7 SLP153

CYYG;2008-02-09 10:00;CYYG 091000Z 26002KT 12SM OVC055 M07/M07 A2998 RMK SC8 SLP155

CYYG;2008-02-09 10:40;CYYG 091040Z 26004KT 12SM -SHSN BKN055 M07/ RMK SC7

CYYG;2008-02-09 11:00;CYYG 091100Z 26004KT 12SM -SHSN FEW029 BKN038 M07/M07 A2999 RMK SC2SC6 SLP160

CYYG;2008-02-09 12:00;CYYG 091200Z 22004KT 12SM -SHSN FEW029 SCT032 BKN060 M07/M08 A3000 RMK SC2SC2AC2 SLP163

CYYG;2008-02-09 13:00;CYYG 091300Z 24004KT 12SM -SHSN FEW030 BKN055 M07/M07 A3001 RMK SC2AC6 SLP167

CYYG;2008-02-09 14:00;CYYG 091400Z 26002KT 15SM -SHSN FEW007 FEW030 BKN055 M06/M06 A3003 RMK CF1SC1AC4 SLP171

CYYG;2008-02-09 14:19;CYYG 091419Z 23004KT 15SM FEW007 FEW030 SCT055 M05/ RMK CF1SC1AC2

CYYG;2008-02-09 14:29;CYYG 091429Z 25006KT 15SM -SHSN FEW007 FEW030 SCT055 M05/ RMK CF1SC1AC2

CYYG;2008-02-09 15:00;CYYG 091500Z 25004KT 15SM -SHSN FEW007 FEW025 BKN044 M05/M06 A3004 RMK CF1SC1AC4 SLP174

CYYG;2008-02-09 16:00;CYYG 091600Z 26004KT 15SM BKN010 OVC018 M03/M05 A3003 RMK SC6SC2 SLP172

CYYG;2008-02-09 17:00;CYYG 091700Z 25008KT 15SM BKN013 OVC020 M03/M06 A3002 RMK SC6SC2 SLP170

CYYG;2008-02-09 17:47;CYYG 091747Z 27007KT 15SM OVC015 M03/ RMK SC8

CYYG;2008-02-09 18:00;CYYG 091800Z 25006KT 15SM OVC015 M03/M05 A3003 RMK SC8 SLP171

CYYG;2008-02-09 19:00;CYYG 091900Z 28002KT 15SM BKN015 OVC028 M02/M05 A3003 RMK SC7SC1 SLP173

CYYG;2008-02-09 20:00;CYYG 092000Z 03007KT 15SM OVC015 M04/M06 A3003 RMK SC8 SLP173

CYYG;2008-02-09 21:00;CYYG 092100Z 07004KT 15SM OVC022 M05/M07 A3005 RMK SC8 SLP179

CYYG;2008-02-09 22:00;CYYG 092200Z 03003KT 15SM OVC027 M05/M07 A3006 RMK SC8 SLP181

CYYG;2008-02-09 23:00;CYYG 092300Z 12002KT 15SM OVC029 M05/M06 A3007 RMK SC8 SLP187

CYYG;2008-02-10 00:00;CYYG 100000Z 14002KT 15SM BKN018 OVC031 M05/M06 A3008 RMK SC6SC2 SLP188

CYYG;2008-02-10 00:20;CYYG 100020Z 09002KT 12SM -SHSN BKN017 OVC032 M04/ RMK SC7SC1

CYYG;2008-02-10 01:00;CYYG 100100Z 12003KT 12SM -SHSN BKN017 OVC032 M04/M06 A3009 RMK SC7SC1 SLP191

CYYG;2008-02-10 01:21;CYYG 100121Z 12003KT 15SM SCT017 OVC035 M04/ RMK SC4SC4

CYYG;2008-02-10 02:00;CYYG 100200Z 10004KT 15SM SCT017 OVC034 M04/M05 A3008 RMK SC3SC5 SLP189

CYYG;2008-02-10 03:00;CYYG 100300Z 10006KT 15SM FEW017 OVC036 M04/M05 A3008 RMK SC2SC6 SLP188

CYYG;2008-02-10 04:00;CYYG 100400Z 11005KT 15SM FEW020 OVC034 M04/M05 A3006 RMK SC2SC6 SLP181

CYYG;2008-02-10 05:00;CYYG 100500Z 11006KT 15SM FEW020 OVC034 M04/M05 A3003 RMK SC2SC6 SLP173

CYYG;2008-02-10 06:00;CYYG 100600Z 11005KT 15SM FEW020 OVC035 M04/M05 A3002 RMK SC2SC6 SLP168

CYYG;2008-02-10 07:00;CYYG 100700Z 11005KT 15SM BKN036 M04/M05 A2999 RMK SC7 SLP159

CYYG;2008-02-10 08:00;CYYG 100800Z 11006KT 15SM OVC038 M03/M04 A2998 RMK SC8 SLP155

CYYG;2008-02-10 09:00;CYYG 100900Z 11005KT 15SM FEW010 OVC038 M03/M04 A2996 RMK SF1SC7 SLP148

CYYG;2008-02-10 10:00;CYYG 101000Z 12005KT 12SM SCT013 OVC037 M03/M04 A2996 RMK SC4SC4 SLP147

CYYG;2008-02-10 10:35;CYYG 101035Z 11006KT 10SM -SN BKN008 OVC013 M03/ RMK SF6SC2

CYYG;2008-02-10 11:00;CYYG 101100Z 11009KT 10SM -SN OVC007 M02/M03 A2992 RMK SF8 SLP136

CYYG;2008-02-10 12:00;CYYG 101200Z 13011G16KT 10SM -SN OVC007 M02/M03 A2991 RMK SF8 SLP131

CYYG;2008-02-10 13:00;CYYG 101300Z 13010KT 10SM OVC007 M02/M03 A2988 RMK SC8 SLP121

CYYG;2008-02-10 14:00;CYYG 101400Z 13013KT 10SM OVC009 M02/M03 A2984 RMK SC8 SLP106

CYYG;2008-02-10 15:00;CYYG 101500Z 13013G18KT 10SM DRSN OVC012 M02/M03 A2979 RMK SC8 SLP091

CYYG;2008-02-10 16:00;CYYG 101600Z CCA 13017G24KT 10SM -SN DRSN OVC012 M01/M03 A2975 RMK SC8 SLP077

CYYG;2008-02-10 16:36;CYYG 101636Z 12013G22KT 2 1/2SM -SN DRSN OVC012 M01/ RMK SC8

CYYG;2008-02-10 17:00;CYYG 101700Z 11013G19KT 2SM -SN DRSN OVC010 M02/M03 A2970 RMK SC8 SLP060

CYYG;2008-02-10 17:31;CYYG 101731Z 12013G18KT 6SM -SN DRSN OVC011 M01/ RMK SC8

CYYG;2008-02-10 18:00;CYYG 101800Z 11016KT 2 1/2SM -SN DRSN OVC011 M01/M03 A2964 RMK SC8 PRESFR SLP039

CYYG;2008-02-10 19:00;CYYG 101900Z 11014G22KT 2 1/2SM -SN DRSN OVC011 M01/M03 A2958 RMK SC8 SLP019

CYYG;2008-02-10 20:00;CYYG 102000Z 11012KT 1SM R03/P6000FT/D -SN DRSN BR OVC010 M02/M02 A2955 RMK SC8 SLP008

CYYG;2008-02-10 20:11;CYYG 102011Z 11013G18KT 3/4SM R03/4000V5500FT/U -SN DRSN VV009 M02/ RMK SN8

CYYG;2008-02-10 21:00;CYYG 102100Z 11011G17KT 1 1/2SM -SN DRSN OVC009 M02/M03 A2949 RMK SF8 SLP989

CYYG;2008-02-10 22:00;CYYG 102200Z 11014KT 1 1/2SM -SN DRSN OVC009 M02/M03 A2944 RMK SF8 SLP973

CYYG;2008-02-10 22:09;CYYG 102209Z 11011G18KT 1 1/2SM -SN DRSN OVC009 M02/ RMK SN2SF6

CYYG;2008-02-10 22:12;CYYG 102212Z 11011G18KT 3/4SM R03/P6000FT/D -SN DRSN OVC009 M02/ RMK SN2SF6

CYYG;2008-02-10 23:00;CYYG 102300Z 09011KT 1SM R03/P6000FT/U -SN DRSN OVC009 M02/M03 A2940 RMK SN2SF6 SLP959

CYYG;2008-02-10 23:40;CYYG 102340Z 09009KT 3/4SM R03/4500FT/N -SN DRSN OVC006 M02/ RMK SN2SF6

CYYG;2008-02-11 00:00;CYYG 110000Z 10008KT 3/4SM R03/5000FT/N -SN DRSN VV005 M02/M03 A2936 RMK SN8 /S05/ SLP944

CYYG;2008-02-11 00:34;CYYG 110034Z 08004KT 1/2SM R03/2600V4000FT/N SN DRSN VV002 M02/ RMK SN8

CYYG;2008-02-11 01:00;CYYG 110100Z 04004KT 1/2SM R03/3500V5000FT/U SN VV002 M02/M03 A2932 RMK SN8 /S02/ SLP931

CYYG;2008-02-11 02:00;CYYG 110200Z CCA 36004KT 5/8SM R03/3500FT/N -SN VV002 M03/M03 A2928 RESN RMK SN8 /S04/ SLP918

CYYG;2008-02-11 03:00;CYYG 110300Z 02005KT 3/4SM R03/3000V5000FT/U -SN VV004 M03/M03 A2921 RMK SN8 /S05/ SLP895

CYYG;2008-02-11 03:24;CYYG 110324Z 03007KT 1 1/2SM -SN VV006 M03/ RMK SN8

CYYG;2008-02-11 04:00;CYYG 110400Z CCA 03008KT 1SM R03/6000FT/D -SN VV007 M03/M03 A2915 RMK SN8 PRESFR /S06/ SLP875

CYYG;2008-02-11 05:00;CYYG 110500Z 04002KT 2SM -SN OVC009 M03/M03 A2910 RMK SF8 SLP857

CYYG;2008-02-11 06:00;CYYG 110600Z 00000KT 2SM -SN OVC008 M03/M03 A2904 RMK SF8 PRESFR /S07/ SLP836

CYYG;2008-02-11 07:00;CYYG 110700Z 21003KT 3SM -SN SCT006 OVC028 M03/M03 A2899 RMK SF4SC4 SLP819

CYYG;2008-02-11 07:29;CYYG 110729Z 21003KT 1SM R03/P6000FT/D -SN VV005 M03/ RMK SN8

CYYG;2008-02-11 08:00;CYYG 110800Z 00000KT 3/4SM R03/5000FT/N -SN VV005 M03/M03 A2895 RMK SN8 /S01/ SLP804

CYYG;2008-02-11 09:00;CYYG 110900Z 27003KT 1 1/2SM -SN VV008 M03/M03 A2893 RMK SN8 SLP800

CYYG;2008-02-11 10:00;CYYG 111000Z 27005KT 2SM -SN OVC009 M03/M03 A2893 RMK SF8 SLP799

CYYG;2008-02-11 11:00;CYYG 111100Z 28008KT 3SM -SN BKN009 OVC075 M03/M04 A2894 RMK SF7AC1 SLP803

CYYG;2008-02-11 11:33;CYYG 111133Z 33011KT 5SM -SN DRSN OVC007 M03/ RMK SF8

CYYG;2008-02-11 12:00;CYYG 111200Z 34008KT 8SM -SN DRSN OVC007 M04/M04 A2899 RMK SF8 /S09/ SLP819

CYYG;2008-02-11 12:27;CYYG 111227Z 34010KT 2 1/2SM -SN DRSN OVC008 M04/ RMK SF8

CYYG;2008-02-11 13:00;CYYG 111300Z 34011KT 2 1/2SM -SN DRSN OVC008 M04/M05 A2904 RMK SF8 SLP837

CYYG;2008-02-11 14:00;CYYG 111400Z 33016G24KT 1SM R03/4500FT/D -SN DRSN OVC009 M05/M06 A2911 RMK SF8 PRESRR SLP858

CYYG;2008-02-11 15:00;CYYG 111500Z CCA 32019G28KT 3/4SM R03/2600V4500FT/D -SN DRSN BKN005 OVC016 M07/M08 A2917 RMK SF6SC2 SLP880

CYYG;2008-02-11 16:00;CYYG 111600Z 31019G26KT 1SM R03/P6000FT/D -SN DRSN SCT008 OVC016 M08/M10 A2921 RMK SF4SC4 SLP894

CYYG;2008-02-11 17:00;CYYG 111700Z 30015G26KT 1 1/2SM -SN DRSN OVC015 M08/M10 A2924 RMK SC8 SLP903

CYYG;2008-02-11 18:00;CYYG 111800Z 29018KT 3/4SM R03/4500VP6000FT/D -SN DRSN SCT008 OVC016 M08/M09 A2926 RMK SF4SC4 SLP912

CYYG;2008-02-11 19:00;CYYG 111900Z 29014G22KT 1SM R03/P6000FT/N -SN DRSN OVC011 M07/M09 A2929 RMK SC8 SLP922

CYYG;2008-02-11 20:00;CYYG 112000Z 29014G22KT 1 1/2SM -SN DRSN SCT009 OVC018 M07/M09 A2932 RMK SF3SC5 SLP931

CYYG;2008-02-11 21:00;CYYG 112100Z 30016G21KT 1 1/2SM -SN DRSN BKN018 OVC030 M06/M08 A2936 RMK SC6SC2 SLP945

CYYG;2008-02-11 22:00;CYYG 112200Z 29015G26KT 3SM -SN DRSN BKN018 OVC030 M06/M08 A2940 RMK SC6SC2 SLP957

CYYG;2008-02-11 22:46;CYYG 112246Z 29020G27KT 15SM BKN017 OVC080 M06/ RMK SC5AC3

CYYG;2008-02-11 23:00;CYYG 112300Z 29019G24KT 15SM FEW017 OVC075 M06/M10 A2945 RMK SC2AC6 SLP974

CYYG;2008-02-12 00:00;CYYG 120000Z 29014G24KT 10SM -SHSN DRSN BKN048 OVC075 M06/M09 A2948 RMK SC5AC3 SLP987

CYYG;2008-02-12 01:00;CYYG 120100Z 29019G26KT 8SM -SHSN DRSN OVC040 M06/M09 A2953 RMK SC8 SLP002

CYYG;2008-02-12 02:00;CYYG 120200Z 30018G25KT 8SM -SHSN DRSN SCT040 OVC053 M06/M09 A2957 RMK SC3SC5 SLP015

CYYG;2008-02-12 03:00;CYYG 120300Z 29017G30KT 10SM -SHSN DRSN FEW038 OVC043 M06/M10 A2960 RMK SC2SC6 SLP026

CYYG;2008-02-12 03:48;CYYG 120348Z 29015G25KT 15SM DRSN FEW040 BKN048 M07/ RMK SC2SC4

CYYG;2008-02-12 04:00;CYYG 120400Z 28012G24KT 15SM DRSN BKN042 M08/M11 A2963 RMK SC6 SLP038

CYYG;2008-02-12 05:00;CYYG 120500Z 29016G21KT 15SM DRSN BKN048 M08/M11 A2967 RMK SC7 SLP051

CYYG;2008-02-12 06:00;CYYG 120600Z 28014G24KT 15SM DRSN FEW048 M09/M11 A2971 RMK SC2 /S01/ SLP065

CYYG;2008-02-12 07:00;CYYG 120700Z 29015G22KT 15SM DRSN FEW055 M09/M12 A2974 RMK SC2 SLP073

CYYG;2008-02-12 08:00;CYYG 120800Z 29016G24KT 15SM DRSN BKN057 M09/M12 A2976 RMK SC5 SLP081

CYYG;2008-02-12 09:00;CYYG 120900Z 29013G18KT 15SM FEW060 M10/M12 A2980 RMK SC2 SLP095

CYYG;2008-02-12 10:00;CYYG 121000Z 29015KT 15SM FEW060 M09/M12 A2984 RMK SC2 SLP107

CYYG;2008-02-12 11:00;CYYG 121100Z 29013G18KT 15SM FEW120 BKN240 M09/M12 A2988 RMK AC2CI2 SLP122

CYYG;2008-02-12 12:00;CYYG 121200Z 29012G19KT 15SM BKN240 M09/M12 A2993 RMK CI6 SLP139

CYYG;2008-02-12 13:00;CYYG 121300Z 29013G19KT 15SM BKN230 M08/M12 A2996 RMK CI6 SLP150

CYYG;2008-02-12 14:00;CYYG 121400Z 29012G17KT 15SM SCT190 OVC230 M08/M11 A2999 RMK CI3CI4 SLP158

CYYG;2008-02-12 15:00;CYYG 121500Z 29015G20KT 15SM FEW090 BKN140 OVC240 M08/M12 A3001 RMK AC2AC3CI3 SLP165

CYYG;2008-02-12 16:00;CYYG 121600Z 29016KT 15SM OVC140 M07/M11 A3003 RMK AC8 SLP171

CYYG;2008-02-12 17:00;CYYG 121700Z 29014G20KT 15SM FEW020 BKN140 M07/M11 A3004 RMK SC2AC3 SLP177

CYYG;2008-02-12 18:00;CYYG 121800Z 29014G20KT 15SM BKN023 BKN140 M07/M11 A3007 RMK SC5AC2 SLP185

CYYG;2008-02-12 19:00;CYYG 121900Z 29012KT 15SM SCT025 BKN150 M07/M11 A3010 RMK SC2AC3 SLP197

CYYG;2008-02-12 20:00;CYYG 122000Z 29012KT 15SM FEW025 BKN150 M07/M11 A3012 RMK SC2AC2 SLP204

CYYG;2008-02-12 21:00;CYYG 122100Z 28009KT 15SM FEW025 FEW150 M07/M12 A3016 RMK SC1AC1 SLP217

CYYG;2008-02-12 22:00;CYYG 122200Z 27006KT 15SM FEW150 M09/M12 A3020 RMK AC1 SLP229

CYYG;2008-02-12 23:00;CYYG 122300Z 27005KT 15SM FEW150 M09/M12 A3022 RMK AC2 SLP236

CYYG;2008-02-13 00:00;CYYG 130000Z 26006KT 15SM SKC M09/M12 A3024 RMK SLP245

CYYG;2008-02-13 01:00;CYYG 130100Z 27006KT 15SM FEW027 M10/M12 A3026 RMK SC2 SLP252

CYYG;2008-02-13 02:00;CYYG 130200Z 26006KT 15SM SKC M10/M12 A3028 RMK SLP258

CYYG;2008-02-13 03:00;CYYG 130300Z 29007KT 15SM FEW250 M11/M13 A3030 RMK CI0 SLP264

CYYG;2008-02-13 04:00;CYYG 130400Z 28006KT 15SM BKN250 M10/M13 A3032 RMK CI2 SLP270

CYYG;2008-02-13 05:00;CYYG 130500Z 26004KT 15SM BKN250 M11/M13 A3033 RMK CI2 SLP274

CYYG;2008-02-13 06:00;CYYG 130600Z 32005KT 15SM BKN250 M12/M13 A3032 RMK CI2 SLP272

CYYG;2008-02-13 07:00;CYYG 130700Z 28003KT 15SM BKN250 M12/M13 A3033 RMK CI2 SLP276

CYYG;2008-02-13 08:00;CYYG 130800Z 29004KT 15SM OVC230 M12/M13 A3035 RMK CI5 SLP281

CYYG;2008-02-13 09:00;CYYG 130900Z 27004KT 15SM OVC210 M12/M13 A3036 RMK CI8 SLP286

CYYG;2008-02-13 10:00;CYYG 131000Z 35002KT 15SM OVC180 M13/M14 A3036 RMK AS8 SLP283

CYYG;2008-02-13 11:00;CYYG 131100Z 00000KT 15SM OVC140 M13/M14 A3037 RMK AS8 SLP289

CYYG;2008-02-13 12:00;CYYG 131200Z 12002KT 15SM OVC120 M13/M13 A3038 RMK AS8 SLP292

CYYG;2008-02-13 13:00;CYYG 131300Z 00000KT 15SM OVC096 M11/M12 A3038 RMK AS8 SLP292

CYYG;2008-02-13 14:00;CYYG 131400Z 15003KT 15SM OVC073 M10/M12 A3039 RMK AS8 SLP296

CYYG;2008-02-13 15:00;CYYG 131500Z 15006KT 12SM OVC036 M09/M10 A3036 RMK SC8 SLP286

CYYG;2008-02-13 15:06;CYYG 131506Z 15006KT 10SM -SN OVC035 M08/ RMK SC8

CYYG;2008-02-13 16:00;CYYG 131600Z 14007KT 10SM -SN OVC029 M08/M10 A3031 RMK SC8 PRESFR SLP266

CYYG;2008-02-13 16:32;CYYG 131632Z 14009KT 3SM -SN OVC009 M07/ RMK SF8

CYYG;2008-02-13 16:50;CYYG 131650Z 13009KT 1SM R03/5500FT/N -SN OVC005 M07/ RMK SF8

CYYG;2008-02-13 17:00;CYYG 131700Z 13008KT 3/4SM R03/3500V5500FT/D -SN OVC004 M07/M08 A3025 RMK SF8 SLP249

CYYG;2008-02-13 17:43;CYYG 131743Z 14010KT 1/2SM R03/2000V3000FT/D SN OVC003 M07/ RMK SF8

CYYG;2008-02-13 18:00;CYYG 131800Z 14011KT 1/2SM R03/1600FT/N SN OVC003 M06/M07 A3020 RMK SF8 SLP231

CYYG;2008-02-13 19:00;CYYG 131900Z 12015KT 1/2SM R03/2000FT/N SN OVC003 M06/M07 A3014 RMK SF8 PRESFR /S02/ SLP209

CYYG;2008-02-13 19:18;CYYG 131918Z 12015KT 3/4SM R03/3000V4500FT/U -SN BKN003 OVC033 M06/ RMK SF6SC2 RESN

CYYG;2008-02-13 19:29;CYYG 131929Z 12015KT 10SM SCT003 OVC027 M05/ RMK SF3SC5 RESN

CYYG;2008-02-13 20:00;CYYG 132000Z 13020G26KT 8SM -FZRA FEW003 OVC014 M04/M06 A3004 RMK SF2SC6 PRESFR RESN SLP178

CYYG;2008-02-13 20:12;CYYG 132012Z 13021G26KT 6SM -PL DRSN -FZRA FEW003 OVC010 M04/ RMK SF2SC6

CYYG;2008-02-13 20:28;CYYG 132028Z 13018KT 8SM -PLSN DRSN FEW003 OVC010 M04/ RMK SF2SC6 REFZRA

CYYG;2008-02-13 21:00;CYYG 132100Z 13016KT 4SM -FZDZ BR OVC009 M04/M05 A3000 RMK SF8 REFZRA REPL SLP163

CYYG;2008-02-13 22:00;CYYG 132200Z 14016G21KT 4SM -FZRA BR OVC007 M02/M02 A2993 RMK SF8 PRESFR REFZDZ SLP138

CYYG;2008-02-13 22:34;CYYG 132234Z 16018G24KT 4SM -RA BR OVC007 00/ RMK SF8 REFZRA

CYYG;2008-02-13 23:00;CYYG 132300Z 16020G27KT 4SM -RA BR OVC009 01/00 A2987 RMK SF8 REFZRA PRESFR SLP117

CYYG;2008-02-14 00:00;CYYG 140000Z 17021G29KT 10SM -RA OVC006 01/01 A2982 RMK SF8 SLP101

CYYG;2008-02-14 01:00;CYYG 140100Z 17019G27KT 15SM -RA OVC005 02/02 A2977 RMK SF8 SLP083

CYYG;2008-02-14 02:00;CYYG 140200Z 17020G26KT 10SM -RA BKN004 OVC010 03/03 A2969 RMK SF6SF2 PRESFR SLP055

CYYG;2008-02-14 03:00;CYYG 140300Z 17017KT 10SM -RA BKN004 OVC008 04/04 A2965 RMK SF6SF2 SLP043

CYYG;2008-02-14 03:13;CYYG 140313Z 17018KT 5SM RA BR BKN002 OVC011 04/ RMK SF6SF2

CYYG;2008-02-14 04:00;CYYG 140400Z 17018KT 3SM +RA BR BKN002 OVC005 05/05 A2960 RMK SF6SF2 /R11/ SLP026

CYYG;2008-02-14 04:16;CYYG 140416Z 15015G21KT 10SM -RA BKN003 OVC024 06/ RERA RMK SF6SC2

CYYG;2008-02-14 04:29;CYYG 140429Z 15015G21KT 15SM -RA SCT004 OVC015 06/ RERA RMK SF4SC4

CYYG;2008-02-14 05:00;CYYG 140500Z 16020G27KT 10SM RA BKN004 OVC012 07/07 A2946 RMK SF6SC2 PRESFR SLP980

CYYG;2008-02-14 06:00;CYYG 140600Z 19019G26KT 10SM RA BKN004 OVC009 06/06 A2944 RMK SF6SF2 /R24/ SLP972

CYYG;2008-02-14 07:00;CYYG 140700Z 19013KT 2SM -RA BR BKN002 OVC007 06/06 A2940 RERA RMK SF6SF2 SLP957

CYYG;2008-02-14 07:04;CYYG 140704Z 18013KT 1/4SM R03/1600V4500FT/D -RA FG VV002 06/ RMK FG8

CYYG;2008-02-14 07:39;CYYG 140739Z 18008KT 1/4SM R03/1200V2000FT/U FG VV002 05/ RMK FG8

CYYG;2008-02-14 08:00;CYYG 140800Z 19013KT 1/4SM R03/1800FT/N FG VV002 06/06 A2936 RMK FG8 SLP944

CYYG;2008-02-14 08:33;CYYG 140833Z 19009KT 1/2SM R03/1400V3500FT/U FG OVC012 05/ RMK FG3SC5

CYYG;2008-02-14 08:40;CYYG 140840Z 20008KT 3SM BR FEW002 OVC011 05/ RMK SF2SC6

CYYG;2008-02-14 08:51;CYYG 140851Z 21008KT 5SM -DZ BR FEW002 OVC009 05/ RMK SF2SF6

CYYG;2008-02-14 09:00;CYYG 140900Z 21007KT 5SM -DZ BR FEW002 OVC008 06/06 A2937 RMK SF2SF6 SLP947

CYYG;2008-02-14 09:04;CYYG 140904Z 21007KT 3SM -DZ BR OVC004 06/ RMK SF8

CYYG;2008-02-14 09:23;CYYG 140923Z 22007KT 1/2SM R03/2000V3000FT/D -DZ FG VV002 06/ RMK FG8

CYYG;2008-02-14 10:00;CYYG 141000Z 23007KT 1/4SM R03/1600FT/N -DZ FG VV002 07/07 A2938 RMK FG8 SLP952

CYYG;2008-02-14 10:07;CYYG 141007Z 27011KT 2SM -DZ BR OVC004 07/ RMK SF8

CYYG;2008-02-14 10:10;CYYG 141010Z 27013KT 5SM -RA BR OVC004 06/ RMK SF8

CYYG;2008-02-14 10:23;CYYG 141023Z 33015G28KT 5SM -RA BR BKN004 OVC011 02/ RMK SF6SF2

CYYG;2008-02-14 11:00;CYYG 141100Z 34009G18KT 10SM -RA OVC004 01/01 A2943 RMK SF8 SLP968

CYYG;2008-02-14 11:21;CYYG 141121Z 34014KT 15SM OVC003 00/ RMK SF8

CYYG;2008-02-14 12:00;CYYG 141200Z 34010KT 8SM OVC003 00/00 A2946 RMK SF8 SLP978

CYYG;2008-02-14 12:18;CYYG 141218Z 34014KT 1 1/2SM BR OVC003 00/ RMK SF8

CYYG;2008-02-14 12:30;CYYG 141230Z 34011G19KT 3/4SM R03/P6000FT/D BR OVC002 M00/ RMK SF8

CYYG;2008-02-14 13:00;CYYG 141300Z 34015KT 1 1/2SM R03/3500VP6000FT/U BR OVC003 M00/M00 A2951 RMK SF8 SLP994

CYYG;2008-02-14 13:37;CYYG 141337Z 35017G22KT 2 1/2SM -FZDZ BR OVC005 M01/ RMK SF8

CYYG;2008-02-14 14:00;CYYG 141400Z 35015G24KT 6SM -FZDZ BR OVC007 M01/M01 A2955 RMK SF8 SLP010

CYYG;2008-02-14 14:05;CYYG 141405Z 35012G20KT 12SM OVC009 M01/ RMK SF8 REFZDZ

CYYG;2008-02-14 14:19;CYYG 141419Z 35011G22KT 12SM OVC011 M01/ RMK SF8 REFZDZ

CYYG;2008-02-14 15:00;CYYG 141500Z 35011G19KT 15SM OVC009 M01/M02 A2955 RMK SC8 SLP008

CYYG;2008-02-14 16:00;CYYG 141600Z 36013G22KT 15SM BKN012 OVC018 M02/M04 A2958 RMK SC7SC1 SLP020

CYYG;2008-02-14 17:00;CYYG 141700Z 35012G22KT 15SM OVC012 M02/M04 A2960 RMK SC8 SLP026

CYYG;2008-02-14 18:00;CYYG 141800Z 35012KT 15SM OVC011 M02/M04 A2961 RMK SC8 SLP030

CYYG;2008-02-14 19:00;CYYG 141900Z 34010G21KT 15SM BKN012 BKN025 BKN200 M02/M04 A2966 RMK SC6SC1CI1 SLP046

CYYG;2008-02-14 20:00;CYYG 142000Z 34012G18KT 15SM OVC012 M02/M04 A2970 RMK SC8 SLP058

CYYG;2008-02-14 21:00;CYYG 142100Z 32010KT 15SM OVC014 M02/M05 A2972 RMK SC8 SLP065

CYYG;2008-02-14 21:50;CYYG 142150Z 34007KT 15SM OVC020 M02/ RMK SC8

CYYG;2008-02-14 22:00;CYYG 142200Z 33007KT 15SM OVC019 M02/M05 A2974 RMK SC8 SLP072

CYYG;2008-02-14 23:00;CYYG 142300Z 32009KT 15SM BKN021 OVC027 M02/M06 A2978 RMK SC6SC2 SLP085

CYYG;2008-02-15 00:00;CYYG 150000Z 32009KT 15SM SCT020 M03/M06 A2980 RMK SC3 SLP094

CYYG;2008-02-15 01:00;CYYG 150100Z 31007KT 15SM FEW020 M04/M07 A2982 RMK SC2 SLP101

CYYG;2008-02-15 02:00;CYYG 150200Z 31011G16KT 15SM FEW020 M04/M08 A2985 RMK SC2 SLP112

CYYG;2008-02-15 03:00;CYYG 150300Z 31011G16KT 15SM FEW020 M04/M08 A2988 RMK SC1 SLP120

CYYG;2008-02-15 04:00;CYYG 150400Z 31008KT 15SM FEW020 M06/M10 A2990 RMK SC1 SLP128

CYYG;2008-02-15 05:00;CYYG 150500Z 31010KT 15SM FEW020 M07/M11 A2991 RMK SC1 SLP130

CYYG;2008-02-15 06:00;CYYG 150600Z 29008KT 15SM SKC M08/M12 A2994 RMK SLP142

CYYG;2008-02-15 07:00;CYYG 150700Z 29008KT 15SM FEW150 M08/M12 A2996 RMK AC2 SLP147

CYYG;2008-02-15 08:00;CYYG 150800Z 29008KT 15SM FEW120 M08/M12 A2996 RMK AC2 SLP150

CYYG;2008-02-15 09:00;CYYG 150900Z 28007KT 15SM FEW120 M09/M13 A2998 RMK AC2 SLP157

CYYG;2008-02-15 10:00;CYYG 151000Z 27005KT 15SM SCT200 M09/M13 A3000 RMK CI3 SLP161

CYYG;2008-02-15 11:00;CYYG 151100Z 25005KT 15SM BKN180 M08/M12 A2998 RMK AC6 SLP157

CYYG;2008-02-15 12:00;CYYG 151200Z 23005KT 15SM BKN200 M08/M12 A3001 RMK CI4 SLP165

CYYG;2008-02-15 13:00;CYYG 151300Z 23005KT 15SM FEW120 OVC210 M08/M12 A3001 RMK AC2CI6 SLP166

CYYG;2008-02-15 14:00;CYYG 151400Z 25007KT 15SM FEW070 OVC120 M07/M13 A2999 RMK AC2AC6 SLP160

CYYG;2008-02-15 15:00;CYYG 151500Z 23007KT 15SM SCT044 OVC054 M06/M12 A2998 RMK SC3SC5 SLP155

CYYG;2008-02-15 16:00;CYYG 151600Z 22010KT 15SM BKN034 OVC044 M05/M10 A2995 RMK SC6SC2 SLP144

CYYG;2008-02-15 16:23;CYYG 151623Z 21011KT 12SM -SN BKN026 OVC040 M05/ RMK SC6SC2

CYYG;2008-02-15 16:39;CYYG 151639Z 20010KT 2 1/2SM -SN FEW012 OVC025 M05/ RMK SC2SC6

CYYG;2008-02-15 17:00;CYYG 151700Z 18012KT 2SM -SN FEW011 OVC025 M06/M07 A2990 RMK SC2SC6 SLP129

CYYG;2008-02-15 17:22;CYYG 151722Z 17012KT 1 1/4SM R03/4000VP6000FT/D -SN DRSN OVC017 M06/ RMK SN3SC5

CYYG;2008-02-15 18:00;CYYG 151800Z 18015KT 3/4SM R03/2400FT/N -SN DRSN OVC015 M05/M06 A2985 RMK SN6SC2 /S01/ SLP110

CYYG;2008-02-15 18:42;CYYG 151842Z 17015KT 2SM R03/3500VP6000FT/U -SN DRSN FEW007 OVC014 M05/ RMK SF2SC6

CYYG;2008-02-15 19:00;CYYG 151900Z 16013G19KT 2 1/2SM -SN DRSN FEW006 OVC012 M04/M06 A2980 RMK SF2SC6 /S02/ SLP094

CYYG;2008-02-15 19:24;CYYG 151924Z 17013G19KT 6SM -SN DRSN SCT007 OVC014 M04/ RMK SF3SC5 VIS N-NE 2

CYYG;2008-02-15 20:00;CYYG 152000Z 17011KT 10SM -SHSN FEW007 OVC017 M04/M05 A2979 RMK SF2SC6 SLP090

CYYG;2008-02-15 20:31;CYYG 152031Z 17012KT 15SM OVC030 M03/ RMK SC8

CYYG;2008-02-15 21:00;CYYG 152100Z 17012KT 15SM FEW015 OVC032 M03/M04 A2974 RMK SC2SC6 SLP073

CYYG;2008-02-15 21:24;CYYG 152124Z 18015KT 12SM -SHSN FEW015 OVC035 M02/ RMK SC1SC7

CYYG;2008-02-15 22:00;CYYG 152200Z 17016KT 10SM -SHSN FEW016 OVC033 M01/M03 A2970 RMK SC2SC6 SLP060

CYYG;2008-02-15 23:00;CYYG 152300Z 20014G20KT 6SM -SHSN DRSN FEW010 SCT016 OVC029 M01/M02 A2968 RMK SF1SC2SC5 SLP053

CYYG;2008-02-15 23:22;CYYG 152322Z 20017KT 4SM -SHSN DRSN FEW008 BKN014 OVC032 M00/ RMK SF2SC3SC3

CYYG;2008-02-16 00:00;CYYG 160000Z 25011KT 8SM -SHSN FEW007 OVC017 00/M01 A2968 RMK SF2SC6 SLP053

CYYG;2008-02-16 01:00;CYYG 160100Z 26010G16KT 12SM -SHSN FEW007 BKN017 OVC090 M00/M02 A2969 RMK SF2SC5AC2 SLP057

CYYG;2008-02-16 02:00;CYYG 160200Z 26006KT 15SM SCT015 OVC090 M01/M03 A2970 RMK SC3AC5 SLP059

CYYG;2008-02-16 03:00;CYYG 160300Z 26006KT 15SM FEW015 OVC094 M01/M03 A2969 RMK SC2AC6 SLP058

CYYG;2008-02-16 04:00;CYYG 160400Z 28012G18KT 15SM FEW018 SCT036 OVC090 M01/M04 A2970 RMK SC2SC2AC5 SLP061

CYYG;2008-02-16 04:18;CYYG 160418Z 29014G21KT 1 1/2SM -SHSN DRSN OVC015 M02/ RMK SN6SC2

CYYG;2008-02-16 05:00;CYYG 160500Z 32017G26KT 2SM -SHSN DRSN BKN015 OVC030 M04/M05 A2975 RMK SN2SC3SC3 SLP077

CYYG;2008-02-16 06:00;CYYG 160600Z 31016G24KT 15SM -SHSN DRSN SCT015 OVC040 M06/M10 A2980 RMK SC3SC5 SLP094

CYYG;2008-02-16 07:00;CYYG 160700Z 31014G19KT 15SM DRSN BKN019 BKN040 M09/M13 A2985 RMK SC6SC2 SLP111

CYYG;2008-02-16 08:00;CYYG 160800Z 29016KT 15SM SCT019 BKN040 M12/M16 A2988 RMK SC4SC1 SLP122

CYYG;2008-02-16 09:00;CYYG 160900Z 31013G19KT 15SM FEW020 M13/M19 A2993 RMK SC2 SLP137

CYYG;2008-02-16 10:00;CYYG 161000Z 30014KT 15SM FEW020 M14/M19 A2996 RMK SC2 SLP149

CYYG;2008-02-16 11:00;CYYG 161100Z 29012G17KT 15SM FEW020 M15/M20 A3000 RMK SC2 SLP162

CYYG;2008-02-16 12:00;CYYG 161200Z 30012G17KT 15SM FEW020 FEW250 M15/M24 A3004 RMK SC1CI0 SLP175

CYYG;2008-02-16 13:00;CYYG 161300Z CCA 31013G18KT 15SM DRSN FEW020 FEW250 M16/M24 A3007 RMK SC1CI0 SLP185

CYYG;2008-02-16 14:00;CYYG 161400Z 29013KT 15SM FEW020 M16/M23 A3009 RMK SC1 SLP191

CYYG;2008-02-16 15:00;CYYG 161500Z 29013KT 15SM FEW020 M15/M23 A3009 RMK SC1 SLP193

CYYG;2008-02-16 16:00;CYYG 161600Z 31014G19KT 15SM DRSN FEW020 M15/M23 A3009 RMK SC1 SLP191

CYYG;2008-02-16 17:00;CYYG 161700Z 30013G18KT 15SM DRSN FEW020 M15/M24 A3009 RMK SC1 SLP191

CYYG;2008-02-16 18:00;CYYG 161800Z 30011G18KT 15SM FEW020 M15/M24 A3009 RMK SC1 SLP193

CYYG;2008-02-16 19:00;CYYG 161900Z 29012G17KT 15SM FEW020 M14/M22 A3009 RMK SC1 SLP194

CYYG;2008-02-16 20:00;CYYG 162000Z 29014KT 15SM FEW020 M14/M22 A3010 RMK SC1 SLP198

CYYG;2008-02-16 21:00;CYYG 162100Z 29011KT 15SM FEW030 M14/M21 A3013 RMK SC1 SLP208

CYYG;2008-02-16 22:00;CYYG 162200Z 28005KT 15SM FEW030 M14/M21 A3015 RMK SC1 SLP215

CYYG;2008-02-16 23:00;CYYG 162300Z 28005KT 15SM SKC M15/M21 A3018 RMK SLP225

CYYG;2008-02-17 00:00;CYYG 170000Z 28005KT 15SM SKC M16/M21 A3022 RMK SLP237

CYYG;2008-02-17 01:00;CYYG 170100Z 28004KT 15SM FEW032 M16/M20 A3023 RMK SC2 SLP243

CYYG;2008-02-17 02:00;CYYG 170200Z 27005KT 15SM FEW032 M16/M20 A3025 RMK SC2 SLP247

CYYG;2008-02-17 03:00;CYYG 170300Z 27005KT 15SM FEW030 M16/M20 A3026 RMK SC2 SLP252

CYYG;2008-02-17 04:00;CYYG 170400Z 27005KT 15SM SKC M17/M21 A3027 RMK SLP255

CYYG;2008-02-17 05:00;CYYG 170500Z 27006KT 15SM SKC M17/M20 A3029 RMK SLP262

CYYG;2008-02-17 06:00;CYYG 170600Z 27006KT 15SM SKC M17/M21 A3030 RMK SLP266

CYYG;2008-02-17 07:00;CYYG 170700Z 27006KT 15SM SKC M17/M21 A3032 RMK SLP271

CYYG;2008-02-17 08:00;CYYG 170800Z 27006KT 15SM SKC M17/M21 A3033 RMK SLP276

CYYG;2008-02-17 09:00;CYYG 170900Z 27004KT 15SM SKC M17/M21 A3033 RMK SLP277

CYYG;2008-02-17 10:00;CYYG 171000Z 26004KT 15SM SKC M16/M20 A3033 RMK SLP277

CYYG;2008-02-17 11:00;CYYG 171100Z 24005KT 15SM FEW150 M17/M20 A3034 RMK AC2 SLP279

CYYG;2008-02-17 12:00;CYYG 171200Z 23004KT 15SM FEW150 BKN240 M17/M20 A3037 RMK AC1CI2 SLP288

CYYG;2008-02-17 13:00;CYYG 171300Z 25004KT 15SM FEW030 BKN240 M15/M20 A3040 RMK SC1CI2 SLP299

CYYG;2008-02-17 14:00;CYYG 171400Z 24002KT 15SM FEW020 BKN200 M13/M17 A3039 RMK SC1CI6 SLP297

CYYG;2008-02-17 15:00;CYYG 171500Z 26002KT 15SM FEW020 BKN200 M12/M18 A3041 RMK CU1CI2 SLP302

CYYG;2008-02-17 16:00;CYYG 171600Z 21005KT 15SM FEW020 BKN200 M11/M17 A3039 RMK CU1CI2 SLP294

CYYG;2008-02-17 17:00;CYYG 171700Z 22008KT 15SM SCT200 M10/M16 A3036 RMK CI2 SLP285

CYYG;2008-02-17 18:00;CYYG 171800Z 22006KT 15SM SCT160 BKN220 M09/M16 A3035 RMK AC3CI0 SLP281

CYYG;2008-02-17 19:00;CYYG 171900Z 20007KT 15SM FEW150 OVC220 M08/M16 A3032 RMK AC2CI2 SLP272

CYYG;2008-02-17 20:00;CYYG 172000Z 16007KT 15SM OVC220 M09/M15 A3031 RMK CI3 SLP267

CYYG;2008-02-17 21:00;CYYG 172100Z 16008KT 15SM BKN071 OVC200 M08/M18 A3031 RMK AS6CI2 SLP269

CYYG;2008-02-17 22:00;CYYG 172200Z 16010KT 15SM FEW071 OVC160 M07/M11 A3030 RMK AS2AS3 SLP264

CYYG;2008-02-17 23:00;CYYG 172300Z 16009KT 15SM OVC037 M06/M10 A3027 RMK SC8 SLP255

CYYG;2008-02-18 00:00;CYYG 180000Z 18010KT 15SM OVC035 M05/M09 A3026 RMK SC8 SLP251

CYYG;2008-02-18 01:00;CYYG 180100Z 17010KT 15SM BKN035 OVC190 M05/M08 A3023 RMK SC7AC1 SLP242

CYYG;2008-02-18 02:00;CYYG 180200Z 19015KT 15SM BKN035 OVC120 M04/M06 A3020 RMK SC5AC3 SLP231

CYYG;2008-02-18 03:00;CYYG 180300Z 19017KT 15SM FEW035 OVC140 M03/M05 A3018 RMK SC2AC6 SLP224

CYYG;2008-02-18 04:00;CYYG 180400Z 18014KT 15SM BKN062 OVC140 M03/M05 A3017 RMK SC5AC3 SLP219

CYYG;2008-02-18 05:00;CYYG 180500Z 19017KT 15SM -SN OVC052 M03/M05 A3015 RMK SC8 SLP214

CYYG;2008-02-18 06:00;CYYG 180600Z 19017KT 3SM -SN OVC015 M03/M03 A3014 RMK SC8 SLP208

CYYG;2008-02-18 06:06;CYYG 180606Z 19019G24KT 1SM R03/5000FT/D -SN BKN005 OVC014 M03/ RMK SF6SC2

CYYG;2008-02-18 07:00;CYYG 180700Z 18017KT 1 1/2SM R03/6000FT/U -SN OVC005 M03/M03 A3009 RMK SF8 SLP193

CYYG;2008-02-18 08:00;CYYG 180800Z 17016KT 2SM -SN OVC004 M02/M03 A3005 RMK SF8 SLP179

CYYG;2008-02-18 09:00;CYYG 180900Z 18017G22KT 3SM -SN OVC003 M01/M01 A3001 RMK SF8 SLP165

CYYG;2008-02-18 10:00;CYYG 181000Z 18017KT 3/4SM R03/4500FT/N -SN OVC003 M00/M01 A2997 RMK SF8 SLP152

CYYG;2008-02-18 10:12;CYYG 181012Z 18018G26KT 2SM R03/6000FT/U -SN OVC003 00/ RMK SF8

CYYG;2008-02-18 10:31;CYYG 181031Z 18020G25KT 6SM -RASN BKN003 OVC030 01/ RMK SF7SC1

CYYG;2008-02-18 10:49;CYYG 181049Z 18020G26KT 10SM -RA BKN008 OVC031 01/ RMK SF6SC2 /S04/

CYYG;2008-02-18 11:00;CYYG 181100Z 18020G26KT 10SM -RA BKN010 OVC031 01/01 A2993 RMK SF6SC2 SLP140

CYYG;2008-02-18 12:00;CYYG 181200Z 18020G25KT 8SM -RA FEW015 OVC045 02/01 A2991 RMK SC2SC6 SLP130

CYYG;2008-02-18 13:00;CYYG 181300Z 18018KT 10SM -RA FEW015 OVC037 02/02 A2988 RMK SC1SC7 SLP121

CYYG;2008-02-18 14:00;CYYG 181400Z 18018KT 10SM -RA BKN015 OVC043 03/03 A2984 RMK SC6SC2 SLP108

CYYG;2008-02-18 14:52;CYYG 181452Z 19012G19KT 6SM RA BR BKN007 OVC013 03/ RMK SF6SC2

CYYG;2008-02-18 15:00;CYYG 181500Z 18014KT 8SM RA BKN005 OVC024 03/03 A2982 RMK SF6SC2 /R11/ SLP101

CYYG;2008-02-18 15:21;CYYG 181521Z 18014KT 6SM RA BR BKN004 OVC014 04/ RMK SF6SC2

CYYG;2008-02-18 16:00;CYYG 181600Z 19014G19KT 3SM RA BR FEW005 OVC014 04/04 A2980 RMK SF2SC6 SLP094

CYYG;2008-02-18 17:00;CYYG 181700Z 18015KT 5SM RA BR SCT003 OVC016 04/04 A2975 RMK SF3SC5 /R25/ SLP077

CYYG;2008-02-18 18:00;CYYG 181800Z 18012G17KT 10SM -RA FEW003 BKN016 OVC029 04/04 A2970 RERA RMK SF2SC4SC2 SLP060

CYYG;2008-02-18 19:00;CYYG 181900Z 18017KT 15SM -RA FEW005 FEW015 OVC030 05/05 A2967 RMK SF2SC1SC6 SLP048

CYYG;2008-02-18 19:06;CYYG 181906Z 18017KT 15SM FEW005 SCT015 OVC029 05/ RMK SF2SC2SC5

CYYG;2008-02-18 19:51;CYYG 181951Z 18018G25KT 15SM BKN004 OVC013 05/ RMK SF6SC2

CYYG;2008-02-18 20:00;CYYG 182000Z 18020KT 15SM BKN004 OVC014 05/05 A2965 RMK SF6SC2 SLP041

CYYG;2008-02-18 20:21;CYYG 182021Z 18020G25KT 10SM -RA BKN003 OVC016 06/ RMK SF6SC2

CYYG;2008-02-18 21:00;CYYG 182100Z 18017G24KT 10SM -RA BKN002 BKN009 OVC014 05/05 A2961 RERA RMK SF6SF1SC2 SLP029

CYYG;2008-02-18 21:03;CYYG 182103Z 18016KT 10SM -RA SCT002 OVC005 05/ RMK SF4SF4

CYYG;2008-02-18 21:29;CYYG 182129Z 20018G27KT 15SM -RA SCT005 OVC033 07/ RERA RMK SF3SC5

CYYG;2008-02-18 21:39;CYYG 182139Z 19019G27KT 15SM BKN005 OVC033 06/ RERA RMK SF6SC2

CYYG;2008-02-18 22:00;CYYG 182200Z 20021G31KT 15SM BKN005 BKN028 OVC044 07/07 A2958 RERA RMK SF5SC2SC2 SLP020

CYYG;2008-02-18 22:25;CYYG 182225Z 20021G30KT 15SM FEW005 FEW010 OVC024 08/ RMK SF1SF2SC6

CYYG;2008-02-18 23:00;CYYG 182300Z 19018G26KT 15SM FEW005 OVC025 07/07 A2958 RMK SF2SC6 SLP017

CYYG;2008-02-19 00:00;CYYG 190000Z 19018G25KT 15SM FEW007 BKN028 OVC150 08/07 A2957 RMK SF2SC5AC1 SLP014

CYYG;2008-02-19 00:31;CYYG 190031Z 20020G27KT 15SM -SHRA SCT008 OVC028 08/ RMK SF3SC5

CYYG;2008-02-19 01:00;CYYG 190100Z 18019G25KT 8SM -SHRA BKN002 OVC030 07/07 A2954 RMK SF4SC4 SLP004

CYYG;2008-02-19 01:34;CYYG 190134Z 18020G26KT 8SM -SHRA BKN002 OVC030 08/ RMK SF6SC2

CYYG;2008-02-19 02:00;CYYG 190200Z 18020G26KT 3/4SM R03/2400V5500FT/D -RADZ BR OVC002 07/07 A2948 RMK SF8 SLP984

CYYG;2008-02-19 02:26;CYYG 190226Z 19022G33KT 15SM SCT002 OVC050 08/ RMK SF3SC5 INTMT -RADZ

CYYG;2008-02-19 03:00;CYYG 190300Z 18017G22KT 8SM -RADZ SCT002 BKN015 OVC056 08/08 A2944 RMK SF4SC2SC2 SLP969

CYYG;2008-02-19 04:00;CYYG 190400Z 20019G24KT 12SM -RADZ FEW002 SCT015 OVC035 08/08 A2940 RMK SF2SC2SC4 SLP957

CYYG;2008-02-19 05:00;CYYG 190500Z 19021G28KT 12SM -RADZ FEW005 BKN030 OVC052 08/08 A2935 RMK SF2SC5SC2 SLP940

CYYG;2008-02-19 05:39;CYYG 190539Z 18015G20KT 1 1/2SM R03/3000VP6000FT/D -RADZ BKN003 OVC015 07/ RERA RMK SF7SC1

CYYG;2008-02-19 06:00;CYYG 190600Z 18013KT 5/8SM R03/1600V2600FT/N -RADZ OVC002 06/06 A2933 RERA RMK SF8 SLP932

CYYG;2008-02-19 06:19;CYYG 190619Z 18016G22KT 1/2SM R03/1800FT/N -DZ FG OVC002 07/ RMK SF8

CYYG;2008-02-19 07:00;CYYG 190700Z 20018G27KT 15SM FEW002 BKN014 OVC030 08/08 A2928 RMK SF2SC4SC2 OCNL -SHRA SLP918

CYYG;2008-02-19 07:35;CYYG 190735Z 23010G18KT 2 1/2SM -SHRA BR BKN002 OVC009 08/ RMK SF5SF3

CYYG;2008-02-19 08:00;CYYG 190800Z 24014KT 5SM R03/4000VP6000FT/U -SHRA BR BKN002 OVC010 08/08 A2931 RMK SF7SC1 SLP928

CYYG;2008-02-19 08:53;CYYG 190853Z 25013KT 15SM FEW008 SCT015 OVC037 07/ RMK SF2SC2SC4

CYYG;2008-02-19 09:00;CYYG 190900Z 25010G17KT 15SM FEW008 SCT015 OVC037 07/06 A2936 RMK SF2SC2SC4 SLP944

CYYG;2008-02-19 10:00;CYYG 191000Z 19008KT 15SM FEW015 BKN060 05/05 A2934 RMK SC2SC5 SLP938

CYYG;2008-02-19 11:00;CYYG 191100Z 26009KT 8SM BKN003 OVC030 05/05 A2939 RMK SF6SC2 SLP952

CYYG;2008-02-19 11:19;CYYG 191119Z 27011G17KT 3SM -DZ BR OVC003 05/ RMK SF8

CYYG;2008-02-19 12:00;CYYG 191200Z 27008KT 10SM -DZ OVC005 04/03 A2944 RMK SF8 PRESRR SLP971

CYYG;2008-02-19 12:23;CYYG 191223Z 28009KT 15SM SCT005 OVC014 03/ RMK SF4SC4

CYYG;2008-02-19 13:00;CYYG 191300Z 26007KT 15SM OVC024 03/01 A2947 RMK SC8 SLP980

CYYG;2008-02-19 13:14;CYYG 191314Z 26007KT 15SM FEW008 OVC022 03/ RMK SF2SC6

CYYG;2008-02-19 13:16;CYYG 191316Z 26008KT 15SM BKN008 OVC022 03/ RMK SF5SC3

CYYG;2008-02-19 13:28;CYYG 191328Z 26009G15KT 15SM FEW008 BKN030 BKN055 03/ RMK SF2SC4SC2

CYYG;2008-02-19 14:00;CYYG 191400Z 25010KT 15SM FEW027 BKN054 03/01 A2950 RMK SC2SC5 SLP989

CYYG;2008-02-19 15:00;CYYG 191500Z 29014KT 15SM FEW030 SCT050 03/00 A2950 RMK SC1SC2 SLP990

CYYG;2008-02-19 16:00;CYYG 191600Z 25016KT 15SM FEW035 04/M01 A2951 RMK SC2 SLP993

CYYG;2008-02-19 17:00;CYYG 191700Z 25012G21KT 15SM FEW035 04/M01 A2951 RMK SC2 SLP995

CYYG;2008-02-19 18:00;CYYG 191800Z 25011G16KT 15SM FEW023 04/M01 A2952 RMK SC2 SLP997

CYYG;2008-02-19 19:00;CYYG 191900Z 25011G16KT 15SM FEW023 04/M02 A2952 RMK SC2 SLP998

CYYG;2008-02-19 20:00;CYYG 192000Z 25013G18KT 15SM SCT043 04/M03 A2954 RMK SC4 SLP005

CYYG;2008-02-19 21:00;CYYG 192100Z 25008KT 15SM SCT043 03/M03 A2955 RMK SC4 SLP007

CYYG;2008-02-19 22:00;CYYG 192200Z 25007KT 15SM FEW040 03/M03 A2955 RMK SC2 SLP010

CYYG;2008-02-19 23:00;CYYG 192300Z 24009KT 15SM FEW040 02/M04 A2956 RMK SC2 SLP012

CYYG;2008-02-20 00:00;CYYG 200000Z 22005KT 15SM FEW040 01/M03 A2957 RMK SC2 SLP016

CYYG;2008-02-20 01:00;CYYG 200100Z 23008KT 15SM FEW040 01/M04 A2958 RMK SC2 SLP017

CYYG;2008-02-20 02:00;CYYG 200200Z 25010G15KT 15SM BKN052 01/M03 A2957 RMK SC6 SLP016

CYYG;2008-02-20 03:00;CYYG 200300Z 23007KT 15SM BKN055 00/M03 A2957 RMK SC6 SLP015

CYYG;2008-02-20 04:00;CYYG 200400Z 22004KT 15SM BKN058 M00/M03 A2955 RMK SC6 SLP010

CYYG;2008-02-20 05:00;CYYG 200500Z 23003KT 15SM BKN050 00/M03 A2954 RMK SC6 SLP005

CYYG;2008-02-20 06:00;CYYG 200600Z 26002KT 5SM -SHSN SCT010 OVC017 M01/M02 A2952 RMK SC4SC4 SLP000

CYYG;2008-02-20 06:40;CYYG 200640Z 29004KT 1SM R03/3000V6000FT/U -SN OVC010 M02/ RMK SN3SC5

CYYG;2008-02-20 07:00;CYYG 200700Z 31004KT 1 1/2SM R03/6000FT/U -SN OVC015 M02/M02 A2951 RMK SN2SC6 SLP996

CYYG;2008-02-20 08:00;CYYG 200800Z 29003KT 1SM R03/2600V5000FT/U -SN OVC012 M02/M02 A2951 RMK SN5SC3 SLP994

CYYG;2008-02-20 08:21;CYYG 200821Z 29006KT 3/4SM R03/3500VP6000FT/D -SN VV006 M02/ RMK SN8

CYYG;2008-02-20 09:00;CYYG 200900Z 28012G20KT 1SM R03/P6000FT/D -SN VV008 M03/M04 A2956 RMK SN8 SLP011

CYYG;2008-02-20 09:35;CYYG 200935Z 29010KT 12SM -SN FEW010 BKN020 BKN070 M03/ RMK SF2SC2AC2

CYYG;2008-02-20 10:00;CYYG 201000Z 26010G15KT 15SM -SN FEW018 BKN070 BKN120 M03/M05 A2958 RMK SC2AC3AC2 /S05/ SLP019

CYYG;2008-02-20 11:00;CYYG 201100Z 26015G21KT 15SM -SN DRSN SCT020 BKN040 BKN070 M04/M07 A2960 RMK SC3SC3AC1 SLP027

CYYG;2008-02-20 12:00;CYYG 201200Z CCA 26016KT 15SM -SHSN DRSN FEW020 SCT040 M04/M09 A2964 RMK SC1SC2 SLP041

CYYG;2008-02-20 12:25;CYYG 201225Z 26016G25KT 2 1/2SM -SHSN DRSN BKN024 M05/ RMK SC7

CYYG;2008-02-20 12:40;CYYG 201240Z 26013G21KT 15SM -SHSN DRSN BKN024 M05/ RMK SC6

CYYG;2008-02-20 13:00;CYYG 201300Z 25013G18KT 15SM -SHSN DRSN FEW020 SCT050 M04/M09 A2968 RMK SC1SC2 SLP054

CYYG;2008-02-20 13:39;CYYG 201339Z 26016G24KT 15SM DRSN FEW020 M04/ RMK SC1

CYYG;2008-02-20 14:00;CYYG 201400Z 27015G20KT 15SM DRSN FEW020 M04/M10 A2970 RMK SC1 SLP061

CYYG;2008-02-20 15:00;CYYG 201500Z 25010G21KT 15SM DRSN FEW030 M03/M09 A2972 RMK SC2 SLP066

CYYG;2008-02-20 16:00;CYYG 201600Z 24011G20KT 12SM -SHSN DRSN BKN026 M03/M08 A2972 RMK SC6 VIS LWR NW-NE SLP066

CYYG;2008-02-20 17:00;CYYG 201700Z 26012G17KT 15SM -SHSN DRSN BKN030 M03/M09 A2970 RMK SC6 SLP061

CYYG;2008-02-20 18:00;CYYG 201800Z CCA 25010KT 15SM -SHSN DRSN BKN030 M03/M09 A2971 RMK CU6 SLP063

CYYG;2008-02-20 19:00;CYYG 201900Z 26009KT 15SM -SHSN BKN040 M03/M10 A2971 RMK CU6 SLP063

CYYG;2008-02-20 20:00;CYYG 202000Z 27008G16KT 15SM -SHSN BKN043 M03/M10 A2971 RMK SC5 SLP065

CYYG;2008-02-20 21:00;CYYG 202100Z 29010KT 15SM -SHSN BKN048 M04/M12 A2974 RMK SC6 SLP072

CYYG;2008-02-20 22:00;CYYG 202200Z 27010KT 15SM -SHSN BKN048 M04/M13 A2976 RMK SC6 SLP081

CYYG;2008-02-20 23:00;CYYG 202300Z 28013G19KT 15SM FEW070 M06/M14 A2980 RMK AC2 SLP094

CYYG;2008-02-21 00:00;CYYG 210000Z 28013G18KT 15SM FEW070 M06/M16 A2984 RMK AC2 SLP108

CYYG;2008-02-21 01:00;CYYG 210100Z 28011G17KT 15SM FEW070 M07/M16 A2987 RMK AC2 SLP118

CYYG;2008-02-21 02:00;CYYG 210200Z 28006KT 15SM SKC M08/M16 A2990 RMK SLP128

CYYG;2008-02-21 03:00;CYYG 210300Z 28009KT 15SM SKC M08/M16 A2992 RMK SLP136

CYYG;2008-02-21 04:00;CYYG 210400Z 27011KT 15SM SKC M09/M16 A2993 RMK SLP140

CYYG;2008-02-21 05:00;CYYG 210500Z 27010KT 15SM SKC M09/M17 A2995 RMK SLP146

CYYG;2008-02-21 06:00;CYYG 210600Z 27006KT 15SM SKC M11/M17 A2997 RMK SLP151

CYYG;2008-02-21 07:00;CYYG 210700Z 28010KT 15SM SCT038 M11/M17 A2998 RMK SC3 SLP157

CYYG;2008-02-21 08:00;CYYG 210800Z 27007KT 15SM FEW038 M12/M21 A2998 RMK SC2 SLP155

CYYG;2008-02-21 09:00;CYYG 210900Z 27006KT 15SM FEW040 M13/M21 A3001 RMK SC2 SLP164

CYYG;2008-02-21 10:00;CYYG 211000Z 27006KT 15SM FEW040 M14/M20 A3003 RMK SC1 SLP173

CYYG;2008-02-21 11:00;CYYG 211100Z 27005KT 15SM FEW040 M14/M20 A3006 RMK SC1 SLP182

CYYG;2008-02-21 12:00;CYYG 211200Z 28004KT 15SM FEW030 M14/M20 A3009 RMK SC1 SLP193

CYYG;2008-02-21 13:00;CYYG 211300Z 29010KT 15SM FEW030 FEW240 M13/M20 A3010 RMK SC1CI0 SLP197

CYYG;2008-02-21 14:00;CYYG 211400Z 28006KT 15SM FEW030 M13/M20 A3010 RMK SC1 SLP198

CYYG;2008-02-21 15:00;CYYG 211500Z 29007KT 15SM FEW030 M12/M20 A3010 RMK SC1 SLP197

CYYG;2008-02-21 16:00;CYYG 211600Z 29008KT 15SM FEW030 M12/M20 A3010 RMK SC1 SLP196

CYYG;2008-02-21 17:00;CYYG 211700Z 27007KT 15SM FEW030 M11/M18 A3009 RMK SC1 SLP193

CYYG;2008-02-21 18:00;CYYG 211800Z 28008KT 15SM FEW030 M11/M20 A3008 RMK SC1 SLP191

CYYG;2008-02-21 19:00;CYYG 211900Z 29010G16KT 15SM FEW030 FEW200 M11/M20 A3008 RMK SC1CI1 SLP190

CYYG;2008-02-21 20:00;CYYG 212000Z 29012KT 15SM FEW030 FEW200 M10/M22 A3009 RMK SC1CI1 SLP192

CYYG;2008-02-21 21:00;CYYG 212100Z 29007KT 15SM FEW030 M10/M21 A3009 RMK SC1 SLP194

CYYG;2008-02-21 22:00;CYYG 212200Z 29004KT 15SM FEW030 M11/M21 A3010 RMK SC1 SLP198

CYYG;2008-02-21 23:00;CYYG 212300Z 26004KT 15SM FEW030 M11/M20 A3013 RMK SC1 SLP206

CYYG;2008-02-22 00:00;CYYG 220000Z 26005KT 15SM FEW030 M11/M21 A3014 RMK SC1 SLP211

CYYG;2008-02-22 01:00;CYYG 220100Z 27006KT 15SM FEW030 M13/M21 A3016 RMK SC1 SLP216

CYYG;2008-02-22 02:00;CYYG 220200Z 28005KT 15SM FEW030 M13/M20 A3018 RMK SC1 SLP223

CYYG;2008-02-22 03:00;CYYG 220300Z 29007KT 15SM FEW030 M12/M21 A3018 RMK SC1 SLP223

CYYG;2008-02-22 04:00;CYYG 220400Z 28006KT 15SM FEW030 M13/M21 A3019 RMK SC1 SLP226

CYYG;2008-02-22 05:00;CYYG 220500Z 28006KT 15SM FEW030 M14/M21 A3020 RMK SC1 SLP230

CYYG;2008-02-22 06:00;CYYG 220600Z 27007KT 15SM FEW030 M13/M21 A3021 RMK SC1 SLP233

CYYG;2008-02-22 07:00;CYYG 220700Z 28006KT 15SM FEW030 M13/M21 A3023 RMK SC1 SLP239

CYYG;2008-02-22 08:00;CYYG 220800Z 25007KT 15SM FEW030 M14/M20 A3023 RMK SC1 SLP242

CYYG;2008-02-22 09:00;CYYG 220900Z 25007KT 15SM FEW030 M14/M20 A3025 RMK SC1 SLP246

CYYG;2008-02-22 10:00;CYYG 221000Z 26007KT 15SM FEW030 M15/M21 A3025 RMK SC1 SLP247

CYYG;2008-02-22 11:00;CYYG 221100Z 27008KT 15SM FEW030 M15/M21 A3027 RMK SC1 SLP254

CYYG;2008-02-22 12:00;CYYG 221200Z 26006KT 15SM FEW030 M15/M20 A3029 RMK SC1 SLP262

CYYG;2008-02-22 13:00;CYYG 221300Z 27009KT 15SM FEW030 FEW200 M13/M21 A3029 RMK SC1CI0 SLP262

CYYG;2008-02-22 14:00;CYYG 221400Z 24008KT 15SM FEW200 M12/M20 A3031 RMK CI1 SLP268

CYYG;2008-02-22 15:00;CYYG 221500Z 25007KT 15SM FEW200 M11/M19 A3032 RMK CI1 SLP270

CYYG;2008-02-22 16:00;CYYG 221600Z 25008G15KT 15SM FEW200 M10/M19 A3030 RMK CI1 SLP265

CYYG;2008-02-22 17:00;CYYG 221700Z 25009KT 15SM BKN220 M08/M18 A3029 RMK CS3 SLP260

CYYG;2008-02-22 18:00;CYYG 221800Z 23011KT 15SM BKN220 M07/M16 A3027 RMK CS3 SLP254

CYYG;2008-02-22 19:00;CYYG 221900Z 21009KT 15SM BKN220 M06/M16 A3025 RMK CS3 SLP247

CYYG;2008-02-22 20:00;CYYG 222000Z 21008KT 15SM BKN220 M06/M16 A3023 RMK CS3 SLP240

CYYG;2008-02-22 21:00;CYYG 222100Z 20006KT 15SM OVC130 M06/M15 A3020 RMK AS8 SLP231

CYYG;2008-02-22 22:00;CYYG 222200Z 19006KT 15SM OVC120 M06/M13 A3020 RMK AS8 SLP231

CYYG;2008-02-22 23:00;CYYG 222300Z 18006KT 15SM OVC110 M06/M11 A3018 RMK AS8 SLP225

CYYG;2008-02-23 00:00;CYYG 230000Z 21009KT 15SM OVC053 M05/M12 A3017 RMK SC8 SLP221

CYYG;2008-02-23 01:00;CYYG 230100Z 20007KT 15SM OVC075 M05/M12 A3016 RMK AS8 SLP217

CYYG;2008-02-23 02:00;CYYG 230200Z 20006KT 15SM OVC063 M05/M10 A3014 RMK SC8 SLP210

CYYG;2008-02-23 03:00;CYYG 230300Z 22007KT 10SM -SHSN OVC029 M06/M09 A3010 RMK SC8 SLP196

CYYG;2008-02-23 04:00;CYYG 230400Z 22002KT 10SM -SHSN OVC029 M06/M08 A3007 RMK SC8 SLP187

CYYG;2008-02-23 05:00;CYYG 230500Z 09002KT 10SM -SHSN OVC032 M06/M08 A3004 RMK SC8 SLP175

CYYG;2008-02-23 06:00;CYYG 230600Z 08003KT 4SM -SHSN OVC012 M07/M07 A3001 RMK SC8 SLP166

CYYG;2008-02-23 07:00;CYYG 230700Z 06004KT 3SM -SN OVC014 M07/M08 A2998 RMK SC8 SLP154

CYYG;2008-02-23 08:00;CYYG 230800Z 06007KT 3SM -SN OVC010 M07/M08 A2993 RMK SC8 SLP139

CYYG;2008-02-23 09:00;CYYG 230900Z 06007KT 4SM -SN OVC018 M07/M08 A2988 RMK SC8 /S08/ SLP122

CYYG;2008-02-23 10:00;CYYG 231000Z 05007KT 6SM -SN OVC019 M07/M08 A2987 RMK SC8 SLP117

CYYG;2008-02-23 11:00;CYYG 231100Z 04008KT 3SM -SN OVC019 M07/M08 A2984 RMK SC8 SLP108

CYYG;2008-02-23 12:00;CYYG 231200Z 03008KT 8SM -SN SCT014 BKN100 M07/M09 A2985 RMK SC3AC2 SLP111

CYYG;2008-02-23 12:42;CYYG 231242Z 04010KT 15SM BKN010 M07/ RMK SF7

CYYG;2008-02-23 13:00;CYYG 231300Z 04010G15KT 15SM BKN010 BKN090 M07/M08 A2984 RMK SF6AC2 SLP108

CYYG;2008-02-23 14:00;CYYG 231400Z 04011KT 15SM BKN017 M06/M08 A2982 RMK SC6 SLP103

CYYG;2008-02-23 15:00;CYYG 231500Z 01008KT 15SM BKN011 OVC016 M06/M08 A2985 RMK SC6SC2 SLP112

CYYG;2008-02-23 15:30;CYYG 231530Z 02010KT 8SM -SHSN BKN012 OVC017 M06/ RMK SC6SC2

CYYG;2008-02-23 16:00;CYYG 231600Z 02010KT 5SM -SHSN BKN012 OVC022 M06/M08 A2982 RMK SC6SC2 SLP103

CYYG;2008-02-23 17:00;CYYG 231700Z 01009KT 5SM -SHSN OVC015 M06/M09 A2981 RMK SC8 SLP099

CYYG;2008-02-23 17:41;CYYG 231741Z 36010KT 2SM -SHSN BKN011 OVC018 M06/ RMK SC6SC2

CYYG;2008-02-23 18:00;CYYG 231800Z 01008KT 2 1/2SM -SHSN SCT012 OVC019 M06/M08 A2979 RMK SC4SC4 SLP093

CYYG;2008-02-23 18:37;CYYG 231837Z 36006KT 8SM -SHSN OVC019 M06/ RMK SC8

CYYG;2008-02-23 19:00;CYYG 231900Z 36006KT 15SM BKN023 M06/M09 A2980 RMK SC6 SLP095

CYYG;2008-02-23 19:34;CYYG 231934Z 34007KT 15SM SCT022 M05/ RMK SC4

CYYG;2008-02-23 20:00;CYYG 232000Z 02006KT 15SM SCT018 M06/M10 A2979 RMK SC3 SLP093

CYYG;2008-02-23 20:30;CYYG 232030Z 36006KT 8SM -SHSN SCT018 BKN023 M06/ RMK SC3SC2

CYYG;2008-02-23 21:00;CYYG 232100Z 32004KT 10SM -SHSN SCT020 BKN026 M06/M09 A2981 RMK SC3SC2 SLP099

CYYG;2008-02-23 21:53;CYYG 232153Z 34002KT 15SM FEW015 FEW230 M08/ RMK SC1CI2

CYYG;2008-02-23 22:00;CYYG 232200Z 34002KT 15SM FEW015 FEW230 M08/M09 A2981 RMK SC1CI2 SLP099

CYYG;2008-02-23 23:00;CYYG 232300Z 27002KT 15SM -SHSN BKN016 M10/M10 A2983 RMK SC6 SLP104

CYYG;2008-02-23 23:32;CYYG 232332Z 29003KT 15SM FEW210 M10/ RMK CI2

CYYG;2008-02-24 00:00;CYYG 240000Z 24004KT 15SM FEW210 M10/M10 A2985 RMK CI2 SLP110

CYYG;2008-02-24 01:00;CYYG 240100Z 27003KT 15SM SCT240 M11/M12 A2985 RMK CI2 SLP110

CYYG;2008-02-24 02:00;CYYG 240200Z 25006KT 15SM SKC M10/M10 A2984 RMK SLP109

CYYG;2008-02-24 03:00;CYYG 240300Z 24005KT 15SM SKC M10/M11 A2984 RMK SLP108

CYYG;2008-02-24 04:00;CYYG 240400Z 22005KT 15SM SKC M10/M11 A2982 RMK SLP102

CYYG;2008-02-24 05:00;CYYG 240500Z 23006KT 15SM SKC M10/M11 A2981 RMK SLP099

CYYG;2008-02-24 06:00;CYYG 240600Z 25005KT 15SM SKC M11/M12 A2981 RMK SLP099

CYYG;2008-02-24 07:00;CYYG 240700Z 26005KT 15SM SKC M11/M13 A2981 RMK SLP099

CYYG;2008-02-24 08:00;CYYG 240800Z 28007KT 15SM SKC M11/M13 A2982 RMK SLP100

CYYG;2008-02-24 09:00;CYYG 240900Z 29007KT 15SM SKC M10/M13 A2982 RMK SLP103

CYYG;2008-02-24 10:00;CYYG 241000Z 26006KT 15SM SKC M11/M13 A2984 RMK SLP107

CYYG;2008-02-24 11:00;CYYG 241100Z 27007KT 15SM SKC M11/M13 A2985 RMK SLP112

CYYG;2008-02-24 12:00;CYYG 241200Z 27007KT 15SM SKC M10/M13 A2986 RMK FROIN SLP116

CYYG;2008-02-24 13:00;CYYG 241300Z 27008KT 15SM SKC M08/M11 A2987 RMK SLP118

CYYG;2008-02-24 14:00;CYYG 241400Z 29007KT 15SM SKC M06/M11 A2987 RMK SLP120

CYYG;2008-02-24 15:00;CYYG 241500Z 28006KT 15SM SKC M05/M11 A2987 RMK SLP118

CYYG;2008-02-24 16:00;CYYG 241600Z 25007KT 15SM SKC M04/M11 A2986 RMK SLP114

CYYG;2008-02-24 17:00;CYYG 241700Z 25008KT 15SM FEW030 FEW250 M03/M12 A2983 RMK CU1CI1 SLP106

CYYG;2008-02-24 18:00;CYYG 241800Z 25009KT 15SM FEW030 FEW250 M03/M12 A2981 RMK CU1CI0 SLP097

CYYG;2008-02-24 19:00;CYYG 241900Z 27009KT 15SM FEW250 M02/M11 A2979 RMK CI1 SLP092

CYYG;2008-02-24 20:00;CYYG 242000Z 22007KT 15SM FEW030 FEW250 M02/M09 A2978 RMK CU1CI0 SLP089

CYYG;2008-02-24 21:00;CYYG 242100Z 23007KT 15SM FEW250 M02/M09 A2977 RMK CI1 SLP084

CYYG;2008-02-24 22:00;CYYG 242200Z 23007KT 15SM FEW250 M02/M09 A2976 RMK CI0 SLP081

CYYG;2008-02-24 23:00;CYYG 242300Z 25007KT 15SM FEW250 M03/M09 A2977 RMK CI1 SLP084

CYYG;2008-02-25 00:00;CYYG 250000Z 23005KT 15SM FEW100 M04/M08 A2977 RMK AC1 SLP086

CYYG;2008-02-25 01:00;CYYG 250100Z 23007KT 15SM FEW100 M04/M09 A2978 RMK AC1 SLP087

CYYG;2008-02-25 02:00;CYYG 250200Z 23007KT 15SM FEW100 M04/M07 A2978 RMK AC1 SLP087

CYYG;2008-02-25 03:00;CYYG 250300Z 23008KT 15SM FEW120 M03/M07 A2977 RMK AC1 SLP085

CYYG;2008-02-25 04:00;CYYG 250400Z 23007KT 15SM FEW120 M03/M06 A2976 RMK AC1 SLP081

CYYG;2008-02-25 05:00;CYYG 250500Z 25010KT 15SM SKC M03/M06 A2975 RMK SLP078

CYYG;2008-02-25 06:00;CYYG 250600Z 26007KT 15SM SKC M03/M06 A2975 RMK SLP078

CYYG;2008-02-25 07:00;CYYG 250700Z 25008KT 15SM SKC M03/M08 A2976 RMK SLP080

CYYG;2008-02-25 08:00;CYYG 250800Z 36009KT 15SM SKC M04/M09 A2977 RMK SLP085

CYYG;2008-02-25 09:00;CYYG 250900Z 26009KT 15SM SKC M04/M09 A2978 RMK SLP088

CYYG;2008-02-25 10:00;CYYG 251000Z 26009KT 15SM SKC M04/M10 A2980 RMK SLP094

CYYG;2008-02-25 11:00;CYYG 251100Z 25008KT 15SM FEW250 M05/M10 A2981 RMK CI1 SLP097

CYYG;2008-02-25 12:00;CYYG 251200Z 25009KT 15SM SCT250 M05/M10 A2983 RMK CI1 SLP104

CYYG;2008-02-25 13:00;CYYG 251300Z 26010KT 15SM SCT250 M04/M09 A2983 RMK CI1 SLP105

CYYG;2008-02-25 14:00;CYYG 251400Z 24008KT 15SM FEW160 SCT250 M03/M08 A2984 RMK AC1CI1 SLP106

CYYG;2008-02-25 15:00;CYYG 251500Z 23007KT 15SM FEW160 SCT250 M01/M08 A2983 RMK AC2CI0 SLP105

CYYG;2008-02-25 16:00;CYYG 251600Z 24007KT 15SM BKN068 BKN250 M00/M06 A2983 RMK AC7CI1 SLP103

CYYG;2008-02-25 17:00;CYYG 251700Z 23007KT 15SM BKN067 01/M06 A2982 RMK SC7 SLP099

CYYG;2008-02-25 18:00;CYYG 251800Z 20009KT 15SM BKN067 01/M07 A2979 RMK AC6 SLP092

CYYG;2008-02-25 19:00;CYYG 251900Z 16007KT 15SM FEW067 SCT250 02/M06 A2977 RMK AC2CI0 SLP085

CYYG;2008-02-25 20:00;CYYG 252000Z 18008KT 15SM FEW067 BKN250 02/M05 A2977 RMK AC1CI2 SLP084

CYYG;2008-02-25 21:00;CYYG 252100Z 18004KT 15SM BKN062 BKN250 01/M05 A2977 RMK SC5CI1 SLP082

CYYG;2008-02-25 22:00;CYYG 252200Z 19005KT 15SM BKN064 M00/M05 A2977 RMK SC7 SLP083

CYYG;2008-02-25 23:00;CYYG 252300Z 23004KT 15SM BKN064 M00/M05 A2978 RMK SC7 SLP088

CYYG;2008-02-26 00:00;CYYG 260000Z 18003KT 15SM BKN066 M00/M05 A2979 RMK SC7 SLP089

CYYG;2008-02-26 01:00;CYYG 260100Z 23005KT 15SM OVC060 00/M06 A2978 RMK SC8 SLP087

CYYG;2008-02-26 02:00;CYYG 260200Z 22005KT 15SM BKN060 OVC160 M00/M06 A2978 RMK SC7AC1 SLP087

CYYG;2008-02-26 03:00;CYYG 260300Z 22006KT 15SM SCT060 BKN180 M01/M06 A2977 RMK SC3AC2 SLP085

CYYG;2008-02-26 04:00;CYYG 260400Z 23006KT 15SM FEW060 BKN180 M02/M07 A2977 RMK SC2AC2 SLP082

CYYG;2008-02-26 05:00;CYYG 260500Z 22006KT 15SM SCT180 M02/M07 A2977 RMK AC3 SLP082

CYYG;2008-02-26 06:00;CYYG 260600Z 22005KT 15SM FEW210 M03/M06 A2976 RMK CI2 SLP080

CYYG;2008-02-26 07:00;CYYG 260700Z 18002KT 15SM FEW210 M06/M07 A2977 RMK CI1 SLP083

CYYG;2008-02-26 08:00;CYYG 260800Z 22005KT 15SM FEW210 M04/M05 A2976 RMK CI1 SLP081

CYYG;2008-02-26 09:00;CYYG 260900Z 22005KT 15SM FEW210 M04/M05 A2976 RMK CI1 SLP080

CYYG;2008-02-26 10:00;CYYG 261000Z 22005KT 15SM FEW210 M04/M05 A2977 RMK CI1 SLP084

CYYG;2008-02-26 10:33;CYYG 261033Z 23006KT 15SM BKN005 BKN210 M05/ RMK SF5CI1

CYYG;2008-02-26 10:49;CYYG 261049Z 23006KT 10SM BKN003 OVC210 M05/ RMK SF7CI1

CYYG;2008-02-26 11:00;CYYG 261100Z 23005KT 12SM BKN003 BKN210 M05/M05 A2978 RMK SF5CI2 SLP086

CYYG;2008-02-26 11:26;CYYG 261126Z 20004KT 15SM FEW003 SCT210 M05/ RMK SF2CI2

CYYG;2008-02-26 12:00;CYYG 261200Z 22004KT 5SM BR SCT210 M04/M05 A2980 RMK CI2 SLP094

CYYG;2008-02-26 13:00;CYYG 261300Z CCB 21005KT 6SM BR FEW012 FEW210 M03/M04 A2980 RMK SC2CI1 SLP095

CYYG;2008-02-26 14:00;CYYG 261400Z 21005KT 12SM FEW012 FEW200 M01/M03 A2981 RMK SC1CI1 SLP097

CYYG;2008-02-26 15:00;CYYG 261500Z 25004KT 15SM SCT200 00/M03 A2981 RMK CI2 SLP098

CYYG;2008-02-26 16:00;CYYG 261600Z 24003KT 15SM BKN200 02/M04 A2982 RMK CI6 SLP099

CYYG;2008-02-26 17:00;CYYG 261700Z 28004KT 15SM FEW030 OVC270 02/M05 A2980 RMK SC1CI5 SLP094

CYYG;2008-02-26 18:00;CYYG 261800Z 27005KT 15SM FEW030 OVC220 03/M06 A2979 RMK SC1CI5 SLP090

CYYG;2008-02-26 19:00;CYYG 261900Z 02008KT 15SM FEW030 OVC220 01/M03 A2979 RMK SC1CI5 SLP089

CYYG;2008-02-26 20:00;CYYG 262000Z 36006KT 15SM FEW030 OVC220 M01/M03 A2980 RMK SC1CI6 SLP095

CYYG;2008-02-26 21:00;CYYG 262100Z 02006KT 15SM BKN080 OVC220 M01/M03 A2980 RMK AC6CI2 SLP095

CYYG;2008-02-26 22:00;CYYG 262200Z 03009KT 15SM OVC050 M01/M04 A2980 RMK SC8 SLP093

CYYG;2008-02-26 23:00;CYYG 262300Z 03006KT 15SM OVC045 M02/M03 A2982 RMK SC8 SLP099

CYYG;2008-02-26 23:23;CYYG 262323Z 04005KT 8SM -SN SCT038 OVC068 M02/ RMK SC3AS5

CYYG;2008-02-27 00:00;CYYG 270000Z 06004KT 3SM -SN BKN023 OVC044 M02/M03 A2982 RMK SC6SC2 SLP102

CYYG;2008-02-27 01:00;CYYG 270100Z 07002KT 3SM -SN BKN018 OVC042 M02/M03 A2982 RMK SC7SC1 SLP102

CYYG;2008-02-27 02:00;CYYG 270200Z 07003KT 3SM -SN BKN015 OVC038 M02/M03 A2981 RMK SC6SC2 SLP098

CYYG;2008-02-27 03:00;CYYG 270300Z 08005KT 5SM -SN OVC040 M02/M03 A2978 RMK SC8 SLP086

CYYG;2008-02-27 04:00;CYYG 270400Z 10005KT 8SM -SN OVC050 M02/M03 A2976 RMK SC8 SLP080

CYYG;2008-02-27 05:00;CYYG 270500Z 11006KT 8SM -SN BKN047 OVC060 M02/M03 A2971 RMK SC6SC2 SLP065

CYYG;2008-02-27 05:20;CYYG 270520Z 11007KT 8SM FEW047 OVC140 M02/ RMK SC2AC6

CYYG;2008-02-27 06:00;CYYG 270600Z 11005KT 8SM BKN065 OVC120 M02/M02 A2968 RMK SC6AC2 /S01/ SLP051

CYYG;2008-02-27 07:00;CYYG 270700Z 14006KT 6SM -SN SCT021 OVC045 M01/M02 A2966 RMK SC4SC4 SLP045

CYYG;2008-02-27 08:00;CYYG 270800Z 13007KT 3SM -SN BKN020 OVC045 M01/M02 A2960 RMK SC5SC3 SLP026

CYYG;2008-02-27 08:25;CYYG 270825Z 14007KT 2SM -SN OVC008 M01/ RMK SF8

CYYG;2008-02-27 08:46;CYYG 270846Z 13008KT 3/4SM R03/P6000FT/D -SN VV006 M01/ RMK SN8

CYYG;2008-02-27 09:00;CYYG 270900Z 12008KT 3/4SM R03/6000FT/U -SN VV003 M01/M01 A2957 RMK SN8 /S02/ SLP014

CYYG;2008-02-27 09:37;CYYG 270937Z 12011KT 1/2SM R03/2600V4500FT/D SN VV002 M00/ RMK SN8 /S04/

CYYG;2008-02-27 10:00;CYYG 271000Z 11011KT 1/2SM R03/3000V4000FT/N SN VV002 M00/M01 A2950 RMK SN8 /S05/ SLP991

CYYG;2008-02-27 11:00;CYYG 271100Z CCA 10011G17KT 1SM R03/5000FT/U -SN DRSN VV005 M00/M01 A2940 RESN RMK SN8 PRESFR /S08/ SLP958

CYYG;2008-02-27 11:09;CYYG 271109Z 11014KT 2SM -SN DRSN FEW002 OVC007 M00/ RESN RMK SF2SF6

CYYG;2008-02-27 11:31;CYYG 271131Z 10017KT 6SM -SNPL DRSN FEW004 OVC008 M00/ RMK SF2SF6

CYYG;2008-02-27 11:41;CYYG 271141Z 11016G21KT 8SM BKN005 OVC015 M00/ RESN RMK SF5SC3

CYYG;2008-02-27 12:00;CYYG 271200Z 11018KT 8SM -SNPL OVC008 M00/M00 A2931 RMK SF8 PRESFR SLP926

CYYG;2008-02-27 12:20;CYYG 271220Z 12016G21KT 10SM -DZ OVC006 00/ RMK SF8

CYYG;2008-02-27 12:32;CYYG 271232Z 12017KT 12SM -RA OVC008 00/ RMK SF8

CYYG;2008-02-27 13:00;CYYG 271300Z 13018G28KT 15SM -RA OVC008 01/00 A2921 RMK SF8 PRESFR SLP895

CYYG;2008-02-27 13:17;CYYG 271317Z 13017G24KT 15SM OVC007 01/00 RMK SF8

CYYG;2008-02-27 14:00;CYYG 271400Z 14015G26KT 15SM OVC007 01/01 A2917 RMK SF8 SLP880

CYYG;2008-02-27 15:00;CYYG 271500Z 14015KT 15SM OVC009 02/02 A2910 RMK SF8 SLP855

CYYG;2008-02-27 16:00;CYYG 271600Z 17012KT 15SM OVC006 03/02 A2908 RMK SF8 SLP849

CYYG;2008-02-27 17:00;CYYG 271700Z 20008KT 12SM OVC007 03/03 A2908 RMK SF8 SLP849

CYYG;2008-02-27 17:42;CYYG 271742Z 22007KT 12SM OVC010 05/ RMK SF8

CYYG;2008-02-27 18:00;CYYG 271800Z 23008KT 12SM OVC006 05/04 A2907 RMK SF8 SLP847

CYYG;2008-02-27 19:00;CYYG 271900Z 25009G15KT 15SM OVC006 04/03 A2911 RMK SF8 SLP859

CYYG;2008-02-27 20:00;CYYG 272000Z 25017KT 12SM OVC004 03/02 A2916 RMK SF8 SLP875

CYYG;2008-02-27 21:00;CYYG 272100Z 27011KT 15SM OVC006 01/00 A2921 RMK SF8 SLP893

CYYG;2008-02-27 22:00;CYYG 272200Z 27011G16KT 15SM SCT006 OVC034 00/M01 A2927 RMK SF4SC4 PRESRR SLP912

CYYG;2008-02-27 22:28;CYYG 272228Z 28012KT 12SM BKN008 OVC030 00/ RMK SF6SC2

CYYG;2008-02-27 22:46;CYYG 272246Z 31013G18KT 6SM BR OVC003 M01/ RMK SF8

CYYG;2008-02-27 23:00;CYYG 272300Z 31012G17KT 6SM BR OVC003 M01/M02 A2931 RMK SF8 SLP926

CYYG;2008-02-27 23:21;CYYG 272321Z 32013G20KT 10SM OVC007 M02/ RMK SF8

CYYG;2008-02-28 00:00;CYYG 280000Z 34012G18KT 10SM OVC008 M03/M05 A2935 RMK SF8 SLP940

CYYG;2008-02-28 01:00;CYYG 280100Z 34012G19KT 10SM OVC008 M04/M05 A2936 RMK SF8 SLP944

CYYG;2008-02-28 02:00;CYYG 280200Z 01013KT 8SM OVC008 M04/M06 A2939 RMK SF8 SLP956

CYYG;2008-02-28 03:00;CYYG 280300Z 36009KT 8SM OVC007 M04/M06 A2942 RMK SF8 SLP965

CYYG;2008-02-28 04:00;CYYG 280400Z 36008KT 10SM OVC008 M05/M06 A2944 RMK SF8 SLP970

CYYG;2008-02-28 05:00;CYYG 280500Z 01008KT 10SM OVC008 M05/M07 A2945 RMK SF8 SLP974

CYYG;2008-02-28 05:28;CYYG 280528Z 36007KT 8SM -SN OVC009 M05/ RMK SF8

CYYG;2008-02-28 06:00;CYYG 280600Z 35006KT 8SM -SN OVC009 M05/M06 A2946 RMK SF8 SLP979

CYYG;2008-02-28 06:16;CYYG 280616Z 36008KT 8SM -FZDZ OVC007 M05/ RMK SF8

CYYG;2008-02-28 07:00;CYYG 280700Z 01005KT 8SM -FZDZ OVC007 M05/M06 A2946 RMK SF8 SLP978

CYYG;2008-02-28 07:47;CYYG 280747Z 02006KT 6SM -SN OVC008 M05/ REFZDZ RMK SF8

CYYG;2008-02-28 08:00;CYYG 280800Z 35006KT 6SM -SN OVC009 M05/M07 A2947 REFZDZ RMK SF8 SLP981

CYYG;2008-02-28 09:00;CYYG 280900Z 02006KT 6SM -SN BKN009 OVC014 M06/M07 A2950 RMK SF6SC2 SLP990

CYYG;2008-02-28 10:00;CYYG 281000Z 02007KT 3SM -SN BKN009 OVC022 M06/M08 A2950 RMK SF6SC2 /S01/ SLP992

CYYG;2008-02-28 10:54;CYYG 281054Z 01005KT 1 1/2SM -SN SCT008 OVC018 M06/ RMK SF4SC4

CYYG;2008-02-28 11:00;CYYG 281100Z 36004KT 1SM R03/P6000FT/D -SN SCT008 OVC018 M06/M07 A2954 RMK SF4SC4 SLP006

CYYG;2008-02-28 11:14;CYYG 281114Z 36007KT 3/4SM R03/P6000FT/D -SN BKN009 OVC015 M06/ RMK SF7SC1

CYYG;2008-02-28 11:34;CYYG 281134Z 36008KT 5/8SM R03/3000V5000FT/D -SN VV005 M06/ RMK SN8

CYYG;2008-02-28 11:52;CYYG 281152Z 35006KT 1/2SM R03/2200V3500FT/D SN VV004 M06/ RMK SN8

CYYG;2008-02-28 12:00;CYYG 281200Z 36009KT 1/2SM R03/2400FT/N SN VV005 M07/M08 A2958 RMK SN8 /S05/ SLP021

CYYG;2008-02-28 12:16;CYYG 281216Z 36010G15KT 3/4SM R03/P6000FT/D -SN VV007 M07/ RMK SN8

CYYG;2008-02-28 12:28;CYYG 281228Z 36008KT 1 1/2SM -SN VV008 M07/ RMK SN8

CYYG;2008-02-28 12:46;CYYG 281246Z 36010G15KT 2SM -SN OVC010 M07/ RMK SN2SF6 RESN

CYYG;2008-02-28 13:00;CYYG 281300Z 01008KT 3SM -SN OVC009 M07/M09 A2962 RESN RMK SF8 SLP032

CYYG;2008-02-28 13:19;CYYG 281319Z 36010KT 2SM -SN VV007 M07/ RMK SN8 VIS VRB 1-3

CYYG;2008-02-28 14:00;CYYG 281400Z 01007KT 2SM -SN BKN009 OVC012 M07/M09 A2965 RMK SF7SC1 VIS VRB 1-3 SLP043

CYYG;2008-02-28 14:32;CYYG 281432Z 36009KT 3SM -SN FEW009 BKN012 M06/ RMK SF2SC4

CYYG;2008-02-28 14:47;CYYG 281447Z 01009KT 10SM -SN FEW009 BKN012 M06/ RMK SF2SC3

CYYG;2008-02-28 15:00;CYYG 281500Z 01009KT 8SM -SN FEW009 BKN013 M06/M09 A2968 RMK SF2SC4 SLP053

CYYG;2008-02-28 15:32;CYYG 281532Z 36009KT 12SM BKN014 M06/ RMK SC6

CYYG;2008-02-28 16:00;CYYG 281600Z 34008KT 15SM BKN016 M06/M10 A2970 RMK SC6 SLP059

CYYG;2008-02-28 17:00;CYYG 281700Z 35007KT 15SM FEW012 BKN017 M06/M10 A2971 RMK SC2SC6 SLP063

CYYG;2008-02-28 17:26;CYYG 281726Z 36008KT 15SM -SHSN FEW012 OVC018 M06/ RMK SC2SC6 VIS LWR W

CYYG;2008-02-28 18:00;CYYG 281800Z 33006KT 12SM -SHSN OVC023 M06/M10 A2974 RMK SC8 SLP074

CYYG;2008-02-28 18:32;CYYG 281832Z 35007KT 2SM -SN SCT015 OVC022 M06/ RMK SC3SC5

CYYG;2008-02-28 19:00;CYYG 281900Z 34006KT 2SM -SN FEW015 OVC022 M06/M09 A2979 RMK SC2SC6 SLP089

CYYG;2008-02-28 20:00;CYYG 282000Z 34009KT 3SM -SN FEW015 SCT022 OVC037 M07/M10 A2982 RMK SC1SC2SC5 SLP100

CYYG;2008-02-28 21:00;CYYG 282100Z CCA 34009KT 2 1/2SM -SN FEW015 OVC033 M08/M11 A2985 RMK SC1SC7 /S01/ SLP112

CYYG;2008-02-28 21:26;CYYG 282126Z 01007KT 4SM -SN FEW015 OVC036 M08/ RMK SC1SC7

CYYG;2008-02-28 22:00;CYYG 282200Z 36007KT 3SM -SN FEW015 OVC038 M08/M11 A2989 RMK SC1SC7 SLP126

CYYG;2008-02-28 23:00;CYYG 282300Z 36007KT 5SM -SN OVC038 M09/M11 A2993 RMK SC8 SLP139

CYYG;2008-02-29 00:00;CYYG 290000Z 02008KT 15SM FEW012 OVC042 M09/M12 A2996 RMK SC2SC6 SLP147

CYYG;2008-02-29 00:53;CYYG 290053Z 02004KT 15SM -SHSN OVC039 M09/ RMK SC8

CYYG;2008-02-29 01:00;CYYG 290100Z 02004KT 15SM -SHSN OVC039 M09/M12 A2999 RMK SC8 SLP158

CYYG;2008-02-29 02:00;CYYG 290200Z 33008KT 10SM -SHSN FEW016 OVC027 M09/M12 A3001 RMK SC2SC6 SLP166

CYYG;2008-02-29 03:00;CYYG 290300Z 33010G17KT 15SM -SHSN DRSN FEW016 SCT027 OVC040 M10/M14 A3003 RMK SC2SC2SC5 SLP173

CYYG;2008-02-29 04:00;CYYG 290400Z 33010G17KT 10SM -SHSN DRSN SCT023 OVC042 M11/M14 A3006 RMK SC3SC5 SLP184

CYYG;2008-02-29 05:00;CYYG 290500Z 32010KT 3SM -SHSN DRSN BKN025 OVC042 M11/M14 A3010 RMK SC5SC3 SLP195

CYYG;2008-02-29 06:00;CYYG 290600Z 36007KT 5SM -SHSN BKN015 OVC039 M12/M14 A3014 RMK SC6SC2 SLP210

CYYG;2008-02-29 07:00;CYYG 290700Z 36008KT 10SM -SHSN FEW015 OVC038 M12/M15 A3017 RMK SC2SC6 SLP221

CYYG;2008-02-29 08:00;CYYG 290800Z 35005KT 10SM -SHSN FEW023 BKN040 M13/M15 A3019 RMK SC2SC6 SLP227

CYYG;2008-02-29 08:22;CYYG 290822Z 35005KT 15SM FEW022 SCT039 M13/ RMK SC1SC3

CYYG;2008-02-29 09:00;CYYG 290900Z 33004KT 15SM FEW022 FEW039 M14/M17 A3023 RMK SC1SC1 SLP240

CYYG;2008-02-29 10:00;CYYG 291000Z 34004KT 15SM SCT025 M15/M18 A3028 RMK SC4 SLP256

CYYG;2008-02-29 11:00;CYYG 291100Z 35005KT 15SM FEW025 BKN150 M14/M18 A3032 RMK SC1AC1 SLP270

CYYG;2008-02-29 12:00;CYYG 291200Z 34004KT 15SM FEW020 FEW050 FEW150 M15/M19 A3036 RMK SC1SC1AC1 SLP283

CYYG;2008-02-29 13:00;CYYG 291300Z 02008KT 15SM DRSN FEW020 FEW050 FEW150 M14/M19 A3040 RMK SC1SC1AC1 SLP299

CYYG;2008-02-29 14:00;CYYG 291400Z 33007KT 15SM DRSN BKN028 M13/M19 A3043 RMK SC6 SLP309

CYYG;2008-02-29 14:36;CYYG 291436Z 35008KT 15SM -SHSN DRSN BKN028 M13/ RMK SC7

CYYG;2008-02-29 15:00;CYYG 291500Z 01010KT 15SM -SHSN DRSN BKN029 M13/M18 A3046 RMK SC7 SLP318

CYYG;2008-02-29 16:00;CYYG 291600Z 35006KT 15SM -SHSN BKN027 M13/M18 A3047 RMK SC6 SLP324

CYYG;2008-02-29 17:00;CYYG 291700Z 32006KT 15SM -SHSN SCT025 M12/M17 A3048 RMK SC4 SLP325

CYYG;2008-02-29 18:00;CYYG 291800Z 34007KT 15SM FEW030 M12/M18 A3049 RMK SC2 SLP328

CYYG;2008-02-29 19:00;CYYG 291900Z 33005KT 15SM FEW028 M12/M20 A3049 RMK SC1 SLP330

CYYG;2008-02-29 20:00;CYYG 292000Z 02004KT 15SM FEW028 M12/M20 A3051 RMK SC1 SLP336

CYYG;2008-02-29 21:00;CYYG 292100Z 00000KT 15SM FEW030 M11/M20 A3052 RMK SC1 SLP340

CYYG;2008-02-29 22:00;CYYG 292200Z 00000KT 15SM FEW270 M13/M20 A3055 RMK CI0 SLP348

CYYG;2008-02-29 23:00;CYYG 292300Z 00000KT 15SM FEW270 M15/M20 A3057 RMK CI1 SLP355

CYYG;2008-03-01 01:00;CYYG 010100Z 15002KT 15SM SKC M16/M20 A3058 RMK SLP361

CYYG;2008-03-01 02:00;CYYG 010200Z 15002KT 15SM SKC M16/M20 A3059 RMK SLP364

CYYG;2008-03-01 03:00;CYYG 010300Z 13003KT 15SM SKC M17/M21 A3059 RMK SLP364

CYYG;2008-03-01 04:00;CYYG 010400Z 14002KT 15SM SKC M17/M20 A3059 RMK SLP363

CYYG;2008-03-01 05:00;CYYG 010500Z 14003KT 15SM SKC M17/M20 A3058 RMK FROIN SLP360

CYYG;2008-03-01 06:00;CYYG 010600Z 14005KT 15SM SKC M16/M20 A3058 RMK FROIN SLP358

CYYG;2008-03-01 07:00;CYYG 010700Z 13005KT 15SM SKC M16/M20 A3056 RMK FROIN SLP354

CYYG;2008-03-01 08:00;CYYG 010800Z 14005KT 15SM SKC M15/M19 A3056 RMK FROIN SLP354

CYYG;2008-03-01 09:00;CYYG 010900Z 15007KT 15SM SKC M14/M18 A3057 RMK FROIN SLP355

CYYG;2008-03-01 10:00;CYYG 011000Z 14007KT 15SM SCT250 M14/M18 A3055 RMK CI0 FROIN SLP350

CYYG;2008-03-01 11:00;CYYG 011100Z 14005KT 15SM BKN250 M13/M17 A3053 RMK CI2 FROIN SLP343

CYYG;2008-03-01 12:00;CYYG 011200Z 14006KT 15SM OVC250 M12/M15 A3053 RMK CS6 HALO SLP342

CYYG;2008-03-01 13:00;CYYG 011300Z 15009KT 15SM FEW080 OVC250 M09/M12 A3051 RMK AC1CS7 SLP336

CYYG;2008-03-01 14:00;CYYG 011400Z 14012KT 15SM FEW030 FEW080 OVC250 M07/M11 A3047 RMK SC1AC1CS6 SLP322

CYYG;2008-03-01 15:00;CYYG 011500Z 14016G24KT 15SM DRSN FEW030 SCT080 OVC250 M06/M11 A3044 RMK SC2AC2CS5 SLP312

CYYG;2008-03-01 15:55;CYYG 011555Z 14016KT 10SM -SN DRSN BKN020 OVC250 M06/ RMK SC6CS2

CYYG;2008-03-01 16:00;CYYG 011600Z 14013G19KT 6SM -SN DRSN BKN020 OVC250 M06/M10 A3040 RMK SC7CS1 VIS LWR S-W SLP298

CYYG;2008-03-01 16:14;CYYG 011614Z 14012G19KT 2SM -SN DRSN VV013 M06/ RMK SN8

CYYG;2008-03-01 17:00;CYYG 011700Z 13009G15KT 8SM -SN DRSN OVC025 M06/M09 A3037 RMK SC8 VIS N-NE 2 SLP289

CYYG;2008-03-01 18:00;CYYG 011800Z CCA 14009KT 15SM OVC024 M05/M09 A3031 RMK SC8 PRESFR SLP268

CYYG;2008-03-01 19:00;CYYG 011900Z 13014KT 15SM DRSN BKN024 OVC100 M05/M09 A3027 RMK SC7AC1 SLP255

CYYG;2008-03-01 20:00;CYYG 012000Z 13014G19KT 15SM DRSN FEW024 OVC055 M04/M08 A3022 RMK SC2SC6 SLP236

CYYG;2008-03-01 21:00;CYYG 012100Z 12015KT 15SM DRSN FEW024 OVC070 M04/M09 A3017 RMK SC2AC6 SLP220

CYYG;2008-03-01 21:14;CYYG 012114Z 12015KT 6SM -SN DRSN FEW024 OVC070 M04/ RMK SC2AC6

CYYG;2008-03-01 21:26;CYYG 012126Z 12017KT 1 1/2SM -SN DRSN VV012 M04/ RMK SN8

CYYG;2008-03-01 21:33;CYYG 012133Z 12016KT 1SM R03/P6000FT/N -SN DRSN VV010 M04/ RMK SN8

CYYG;2008-03-01 22:00;CYYG 012200Z 11013G18KT 1 1/2SM -SN DRSN VV012 M04/M06 A3010 RMK SN8 PRESFR SLP196

CYYG;2008-03-01 22:09;CYYG 012209Z 11013KT 3/4SM R03/P6000FT/D -SN DRSN VV008 M04/ RMK SN8

CYYG;2008-03-01 22:47;CYYG 012247Z 11014KT 1/2SM R03/5000FT/D SN DRSN VV005 M04/ RMK SN8

CYYG;2008-03-01 23:00;CYYG 012300Z 11016KT 1/2SM R03/4000FT/N SN DRSN VV005 M03/M04 A3009 RMK SN8 /S01/ SLP192

CYYG;2008-03-01 23:21;CYYG 012321Z 10017KT 5/8SM R03/4000FT/N -SN DRSN VV006 M03/ RESN RMK SN8

CYYG;2008-03-01 23:41;CYYG 012341Z 10016G21KT 3/4SM R03/5500FT/U -SN DRSN OVC010 M04/ RESN RMK SN4NS4

CYYG;2008-03-02 00:00;CYYG 020000Z 09015G26KT 1 1/4SM R03/6000FT/U -SN DRSN OVC010 M03/M05 A2998 RESN RMK SN2NS6 PRESFR /S03/ SLP157

CYYG;2008-03-02 01:00;CYYG 020100Z 11019G25KT 1SM R03/P6000FT/D -SN DRSN OVC008 M03/M04 A2990 RMK SN4NS4 SLP130

CYYG;2008-03-02 02:00;CYYG 020200Z 11020G29KT 1 1/2SM -SN DRSN OVC009 M03/M04 A2982 RMK SN2NS6 PRESFR /SO4/ SLP102

CYYG;2008-03-02 02:27;CYYG 020227Z 10018G27KT 2SM -SN DRSN BKN010 OVC017 M03/ RMK SN2SC5SC2

CYYG;2008-03-02 03:00;CYYG 020300Z 11018G26KT 2SM -SN DRSN OVC010 M02/M03 A2974 RMK SN2SC6 PRESFR /S06/ SLP074

CYYG;2008-03-02 04:00;CYYG 020400Z 11020G25KT 1 1/2SM -SN DRSN OVC010 M01/M02 A2964 RMK SN2SC6 PRESFR /S07/ SLP041

CYYG;2008-03-02 05:00;CYYG 020500Z 10018G25KT 10SM -SN DRSN OVC009 M01/M02 A2953 RMK SF8 PRESFR /S08/ SLP004

CYYG;2008-03-02 05:47;CYYG 020547Z 11015G28KT 12SM -FZRA OVC007 M00/ RMK SF8

CYYG;2008-03-02 06:00;CYYG 020600Z 11017G28KT 12SM -FZRA OVC007 00/M01 A2945 RMK SF8 SLP975

CYYG;2008-03-02 07:00;CYYG 020700Z 11011G16KT 6SM -RA BR OVC008 01/M00 A2937 RMK SF8 PRESFR SLP949

CYYG;2008-03-02 08:00;CYYG 020800Z 11008KT 6SM BR OVC005 00/M00 A2930 RMK SF8 PRESFR SLP923

CYYG;2008-03-02 08:53;CYYG 020853Z 15005KT 2SM -SHSN OVC005 00/ RMK SN2SF6

CYYG;2008-03-02 09:00;CYYG 020900Z 14005KT 2SM -SHSN OVC005 00/00 A2926 RMK SN2SF6 SLP910

CYYG;2008-03-02 10:00;CYYG 021000Z 20010KT 2SM -SN OVC005 00/00 A2923 RMK SN2SF6 /S02/ SLP899

CYYG;2008-03-02 10:44;CYYG 021044Z 23012KT 10SM -SN OVC004 01/ RMK SF8

CYYG;2008-03-02 11:00;CYYG 021100Z 23013G18KT 5SM -SN OVC004 00/M00 A2921 RMK SF8 /S03/ SLP894

CYYG;2008-03-02 12:00;CYYG 021200Z 24010KT 2SM -SN OVC004 M00/M01 A2922 RMK SF8 SLP896

CYYG;2008-03-02 12:32;CYYG 021232Z 25013KT 1SM R03/P6000FT/D -SN OVC005 M01/ RMK SF8

CYYG;2008-03-02 13:00;CYYG 021300Z 24010KT 1 1/2SM -SN OVC005 M01/M02 A2923 RMK SF8 SLP900

CYYG;2008-03-02 13:44;CYYG 021344Z 26012KT 2SM -SN BKN005 OVC013 M01/ RMK SF6SC2

CYYG;2008-03-02 14:00;CYYG 021400Z 29013KT 1SM R03/P6000FT/D -SN OVC005 M02/M03 A2923 RMK SF8 SLP901

CYYG;2008-03-02 14:14;CYYG 021414Z 28015KT 3/4SM R03/3500V5500FT/D -SN OVC005 M02/ RMK SF8

CYYG;2008-03-02 15:00;CYYG 021500Z 33018G25KT 3/4SM R03/3500V5500FT/D -SN BLSN OVC009 M04/M06 A2927 RMK SF8 SLP913

CYYG;2008-03-02 15:20;CYYG 021520Z 33022G37KT 1/4SM R03/1400V2200FT/D -SN +BLSN OVC009 M05/ RMK SN3SF5

CYYG;2008-03-02 16:00;CYYG 021600Z 33024G36KT 1/4SM R03/1200V1800FT/N -SN +BLSN VV005 M06/M07 A2931 RMK SN8 SLP929

CYYG;2008-03-02 16:50;CYYG 021650Z 33024G36KT 1/4SM R03/0700V1600FT/N -SN +BLSN VV003 M06/ RMK SN8

CYYG;2008-03-02 17:00;CYYG 021700Z 33031G48KT 1/4SM R03/1100FT/N -SN +BLSN VV003 M07/M08 A2936 RMK SN8 SLP943

CYYG;2008-03-02 18:00;CYYG 021800Z CCA 33027G51KT 1/4SM R03/0700V1800FT/D -SN +BLSN OVC010 M07/M09 A2941 RMK SN3SF5 /S04/ SLP962

CYYG;2008-03-02 19:00;CYYG 021900Z 32027G41KT 1/4SM R03/0900V1400FT/N -SN +BLSN VV004 M07/M08 A2949 RMK SN8 PRESRR SLP987

CYYG;2008-03-02 20:00;CYYG 022000Z 32027G39KT 1/4SM R03/0800V1400FT/N -SN +BLSN VV004 M07/M08 A2955 RMK SN8 PRESRR SLP007

CYYG;2008-03-02 20:32;CYYG 022032Z 33023G41KT 1/2SM R03/1400V2800FT/N -SN BLSN VV007 M07/ REBLSN RMK SN8

CYYG;2008-03-02 21:00;CYYG 022100Z 33025G37KT 3/4SM R03/1400V4000FT/U -SN BLSN VV009 M06/M08 A2961 REBLSN RMK SN8 PRESRR /S02/ SLP029

CYYG;2008-03-02 21:08;CYYG 022108Z 33021G38KT 1SM R03/2000V4500FT/D -SN BLSN OVC015 M06/ RMK SC8

CYYG;2008-03-02 21:26;CYYG 022126Z 33017G35KT 2SM R03/4000VP6000FT/U -SN BLSN BKN015 OVC023 M06/ RMK SC6SC2

CYYG;2008-03-02 21:45;CYYG 022145Z 33018G30KT 8SM -SN DRSN BKN020 OVC034 M06/ REBLSN RMK SC6SC2

CYYG;2008-03-02 22:00;CYYG 022200Z 33021G30KT 8SM -SN DRSN BKN020 OVC035 M06/M10 A2966 REBLSN RMK SC5SC3 SLP046

CYYG;2008-03-02 23:00;CYYG 022300Z 33020G30KT 10SM -SN DRSN BKN030 M05/M10 A2971 RMK SC7 SLP062

CYYG;2008-03-03 00:00;CYYG 030000Z 33018G27KT 15SM DRSN BKN039 M05/M10 A2975 RMK SC7 SLP077

CYYG;2008-03-03 00:06;CYYG 030006Z 33020G29KT 15SM -SHSN DRSN OVC039 M05/ RMK SC8

CYYG;2008-03-03 01:00;CYYG 030100Z 33024G29KT 15SM -SHSN DRSN OVC040 M04/M10 A2977 RMK SC8 SLP085

CYYG;2008-03-03 02:00;CYYG 030200Z 31018G24KT 15SM -SHSN DRSN FEW030 OVC044 M05/M09 A2980 RMK SC2SC6 SLP093

CYYG;2008-03-03 02:26;CYYG 030226Z 31019G27KT 15SM DRSN OVC045 M05/ RMK SC8

CYYG;2008-03-03 03:00;CYYG 030300Z 31019G27KT 15SM DRSN OVC045 M05/M10 A2983 RMK SC8 SLP104

CYYG;2008-03-03 04:00;CYYG 030400Z 33019G31KT 15SM DRSN FEW045 M06/M11 A2986 RMK SC2 SLP113

CYYG;2008-03-03 05:00;CYYG 030500Z 32015G22KT 15SM DRSN FEW040 M06/M11 A2988 RMK SC2 SLP121

CYYG;2008-03-03 06:00;CYYG 030600Z 31013G18KT 15SM SKC M07/M12 A2991 RMK SLP131

CYYG;2008-03-03 07:00;CYYG 030700Z 29010G19KT 15SM SKC M08/M12 A2994 RMK SLP141

CYYG;2008-03-03 08:00;CYYG 030800Z 31012KT 15SM SKC M09/M12 A2995 RMK SLP145

CYYG;2008-03-03 09:00;CYYG 030900Z 31012G18KT 15SM SKC M09/M13 A2998 RMK SLP157

CYYG;2008-03-03 10:00;CYYG 031000Z 31012G19KT 15SM FEW040 M09/M14 A3001 RMK SC1 SLP165

CYYG;2008-03-03 11:00;CYYG 031100Z 30009KT 15SM FEW040 M10/M14 A3002 RMK SC1 SLP170

CYYG;2008-03-03 12:00;CYYG 031200Z 30009KT 15SM FEW040 FEW200 M10/M14 A3007 RMK SC1CI1 SLP187

CYYG;2008-03-03 13:00;CYYG 031300Z 31012G18KT 15SM FEW040 FEW200 M09/M14 A3012 RMK SC1CI1 SLP202

CYYG;2008-03-03 14:00;CYYG 031400Z 32012G19KT 15SM FEW040 FEW200 M08/M14 A3013 RMK SC1CI1 SLP207

CYYG;2008-03-03 15:00;CYYG 031500Z 33014G21KT 15SM FEW040 FEW200 M08/M14 A3013 RMK SC1CI1 SLP206

CYYG;2008-03-03 16:00;CYYG 031600Z 32013G19KT 15SM FEW040 FEW200 M07/M14 A3013 RMK SC1CI1 SLP207

CYYG;2008-03-03 17:00;CYYG 031700Z 32011G17KT 15SM FEW040 FEW200 M07/M14 A3012 RMK SC1CI2 SLP202

CYYG;2008-03-03 18:00;CYYG 031800Z 31010KT 15SM SCT200 M06/M14 A3010 RMK CI2 SLP196

CYYG;2008-03-03 19:00;CYYG 031900Z 29013KT 15SM FEW110 SCT200 M06/M14 A3011 RMK AC2CI2 SLP198

CYYG;2008-03-03 20:00;CYYG 032000Z 29006KT 15SM FEW110 SCT200 M05/M14 A3008 RMK AC1CI2 SLP190

CYYG;2008-03-03 21:00;CYYG 032100Z 25004KT 15SM OVC130 M05/M12 A3008 RMK AC8 SLP189

CYYG;2008-03-03 22:00;CYYG 032200Z 23002KT 15SM OVC095 M04/M14 A3009 RMK AC8 SLP191

CYYG;2008-03-03 23:00;CYYG 032300Z 17005KT 15SM BKN064 OVC090 M05/M13 A3006 RMK SC6AC2 SLP181

CYYG;2008-03-03 23:50;CYYG 032350Z 21006KT 10SM -SN OVC046 M04/ RMK SC8

CYYG;2008-03-04 00:00;CYYG 040000Z 21007KT 8SM -SN OVC044 M04/M09 A3006 RMK SC8 SLP184

CYYG;2008-03-04 00:48;CYYG 040048Z 18009KT 15SM OVC051 M04/ RMK SC8

CYYG;2008-03-04 01:00;CYYG 040100Z 18009KT 15SM OVC048 M04/M07 A3003 RMK SC8 SLP173

CYYG;2008-03-04 01:25;CYYG 040125Z 17008KT 15SM -FZRA OVC042 M04/ RMK SC8

CYYG;2008-03-04 02:00;CYYG 040200Z 17011KT 15SM -FZDZ OVC038 M04/M06 A3000 RMK SC8 REFZRA SLP162

CYYG;2008-03-04 03:00;CYYG 040300Z 18014KT 15SM -FZDZ SCT025 OVC050 M03/M06 A2996 RMK SC4SC4 SLP150

CYYG;2008-03-04 04:00;CYYG 040400Z 18015G20KT 15SM FEW027 BKN044 OVC110 M02/M07 A2991 RMK SC2SC4AC2 SLP131

CYYG;2008-03-04 05:00;CYYG 040500Z 19014KT 15SM FEW088 BKN150 M02/M06 A2989 RMK AC2AC2 SLP124

CYYG;2008-03-04 06:00;CYYG 040600Z 20017KT 15SM FEW080 OVC170 M01/M04 A2982 RMK AC2AC4 PRESFR SLP102

CYYG;2008-03-04 07:00;CYYG 040700Z 20015G20KT 15SM SCT080 OVC180 M00/M03 A2980 RMK AC3AC3 SLP095

CYYG;2008-03-04 08:00;CYYG 040800Z 21014KT 15SM OVC180 00/M02 A2980 RMK AC8 SLP095

CYYG;2008-03-04 09:00;CYYG 040900Z 21012KT 15SM OVC170 01/M01 A2977 RMK AC6 SLP082

CYYG;2008-03-04 10:00;CYYG 041000Z 21012KT 15SM OVC170 02/M00 A2974 RMK AC8 SLP075

CYYG;2008-03-04 11:00;CYYG 041100Z 22013KT 15SM BKN170 OVC260 03/00 A2972 RMK AC6CI2 SLP068

CYYG;2008-03-04 12:00;CYYG 041200Z 23012KT 15SM SCT080 BKN160 03/01 A2971 RMK AC4AC2 SLP065

CYYG;2008-03-04 12:08;CYYG 041208Z 23013KT 15SM SCT018 BKN080 03/ RMK SC3AC4

CYYG;2008-03-04 12:27;CYYG 041227Z 22012G21KT 15SM OVC013 04/ RMK SC8

CYYG;2008-03-04 12:55;CYYG 041255Z 21013KT 12SM OVC010 04/ RMK SC8

CYYG;2008-03-04 13:00;CYYG 041300Z 21012KT 12SM OVC010 04/02 A2972 RMK SC8 SLP066

CYYG;2008-03-04 13:11;CYYG 041311Z 22012G18KT 12SM OVC009 05/ RMK SF8

CYYG;2008-03-04 13:52;CYYG 041352Z 22016G21KT 10SM OVC007 05/ RMK SF8

CYYG;2008-03-04 14:00;CYYG 041400Z 23016G24KT 10SM OVC007 05/04 A2969 RMK SF8 SLP055

CYYG;2008-03-04 14:46;CYYG 041446Z 22017G24KT 10SM OVC009 06/ RMK SF8

CYYG;2008-03-04 15:00;CYYG 041500Z 23014G20KT 15SM OVC009 06/04 A2969 RMK SF8 SLP057

CYYG;2008-03-04 15:39;CYYG 041539Z 25015G24KT 15SM BKN010 OVC015 06/ RMK SF6SC2

CYYG;2008-03-04 16:00;CYYG 041600Z 25016G22KT 15SM BKN010 OVC015 06/05 A2971 RMK SF6SC2 SLP063

CYYG;2008-03-04 17:00;CYYG 041700Z 24014G19KT 15SM BKN011 BKN077 OVC110 06/04 A2969 RMK SC6AC1AC2 SLP057

CYYG;2008-03-04 17:27;CYYG 041727Z 24009G17KT 10SM -SHRA SCT011 BKN048 OVC075 06/ RMK SC4SC2AC2

CYYG;2008-03-04 18:00;CYYG 041800Z 24010G16KT 10SM -SHRA SCT011 BKN048 OVC073 05/04 A2972 RMK SC3SC2AC2 SLP065

CYYG;2008-03-04 19:00;CYYG 041900Z 25009KT 10SM BKN010 OVC130 05/04 A2976 RMK SC6AC2 SLP079

CYYG;2008-03-04 20:00;CYYG 042000Z 27010KT 10SM SCT009 OVC130 05/03 A2981 RMK SC3AC5 SLP097

CYYG;2008-03-04 21:00;CYYG 042100Z 34012G20KT 10SM BKN035 OVC130 02/M02 A2990 RMK SC5AC3 PRESRR SLP128

CYYG;2008-03-04 22:00;CYYG 042200Z 35008KT 10SM BKN060 BKN130 BKN200 01/M04 A2996 RMK SC5AC2CI1 PRESRR SLP148

CYYG;2008-03-04 23:00;CYYG 042300Z CCA 34007KT 10SM BKN060 BKN130 M00/M04 A3003 RMK SC5AC2 PRESRR SLP171

CYYG;2008-03-05 00:00;CYYG 050000Z 34012G18KT 15SM BKN160 M01/M05 A3009 RMK AC7 PRESRR SLP191

CYYG;2008-03-05 01:00;CYYG 050100Z 34010G15KT 15SM OVC170 M03/M09 A3014 RMK AC8 SLP210

CYYG;2008-03-05 02:00;CYYG 050200Z 35012G19KT 15SM OVC170 M04/M10 A3018 RMK AC8 SLP221

CYYG;2008-03-05 03:00;CYYG 050300Z 35011G20KT 15SM OVC160 M05/M11 A3022 RMK AC8 SLP234

CYYG;2008-03-05 04:00;CYYG 050400Z 35014G19KT 15SM OVC140 M06/M12 A3024 RMK AC8 SLP243

CYYG;2008-03-05 05:00;CYYG 050500Z 35012G18KT 15SM OVC130 M07/M13 A3028 RMK AC8 SLP254

CYYG;2008-03-05 06:00;CYYG 050600Z 01012KT 15SM OVC120 M07/M12 A3031 RMK AC8 SLP265

CYYG;2008-03-05 07:00;CYYG 050700Z 03012KT 15SM OVC100 M07/M12 A3031 RMK AC8 SLP267

CYYG;2008-03-05 08:00;CYYG 050800Z 04009KT 15SM OVC090 M08/M13 A3032 RMK AC8 SLP269

CYYG;2008-03-05 09:00;CYYG 050900Z 06010KT 15SM OVC087 M08/M13 A3033 RMK AC8 SLP273

CYYG;2008-03-05 10:00;CYYG 051000Z 07009KT 15SM OVC060 M08/M13 A3034 RMK SC8 SLP276

CYYG;2008-03-05 11:00;CYYG 051100Z 08008KT 15SM OVC042 M08/M13 A3034 RMK SC8 SLP278

CYYG;2008-03-05 11:27;CYYG 051127Z 07012KT 4SM -SN SCT035 OVC051 M08/ RMK SC4SC4

CYYG;2008-03-05 12:00;CYYG 051200Z 08010KT 3SM -SN DRSN OVC024 M09/M13 A3034 RMK SC8 SLP277

CYYG;2008-03-05 12:33;CYYG 051233Z 07013KT 2SM -SN DRSN OVC011 M09/ RMK SC8

CYYG;2008-03-05 12:43;CYYG 051243Z 07011KT 1 1/2SM -SN DRSN VV009 M09/ RMK SN8

CYYG;2008-03-05 13:00;CYYG 051300Z 08011KT 1 1/2SM -SN DRSN VV016 M09/M11 A3033 RMK SN8 SLP274

CYYG;2008-03-05 13:10;CYYG 051310Z 07013KT 2SM -SNPL DRSN OVC039 M10/ RMK SC8

CYYG;2008-03-05 13:27;CYYG 051327Z 07013KT 5SM -FZRA BR FEW011 OVC035 M09/ RMK SF2SC6

CYYG;2008-03-05 13:30;CYYG 051330Z 07014KT 5SM -FZDZ BR FEW011 OVC034 M10/ REFZRA RMK SF2SC6

CYYG;2008-03-05 14:00;CYYG 051400Z 08011G16KT 5SM -FZDZ BR OVC034 M09/M11 A3031 REFZRA RMK SC8 SLP268

CYYG;2008-03-05 14:26;CYYG 051426Z 08011KT 10SM -FZDZ BKN008 BKN021 OVC029 M09/ RMK SF6SC2SC1

CYYG;2008-03-05 15:00;CYYG 051500Z 09010KT 6SM -FZDZ BR OVC013 M09/M10 A3030 RMK SF8 SLP263

CYYG;2008-03-05 15:06;CYYG 051506Z 09010KT 5SM -FZDZ BR OVC008 M09/ RMK SF8

CYYG;2008-03-05 16:00;CYYG 051600Z 09013KT 2SM -FZRA BR OVC005 M08/M09 A3024 REFZDZ RMK SF8 SLP244

CYYG;2008-03-05 16:33;CYYG 051633Z 09010KT 10SM -FZDZ BKN006 OVC011 M07/ REFZRA RMK SF6SF2

CYYG;2008-03-05 17:00;CYYG 051700Z 10010KT 8SM -FZDZ OVC007 M06/M08 A3017 REFZRA RMK SF8 SLP220

CYYG;2008-03-05 18:00;CYYG 051800Z 11017KT 3SM -FZDZ BR OVC007 M05/M07 A3008 RMK SF8 PRESFR SLP190

CYYG;2008-03-05 19:00;CYYG 051900Z 12018G24KT 4SM -FZDZ BR OVC005 M05/M06 A3002 RMK SF8 PRESFR SLP168

CYYG;2008-03-05 19:18;CYYG 051918Z 13017KT 10SM OVC004 M04/ REFZDZ RMK SF8

CYYG;2008-03-05 19:39;CYYG 051939Z 13016G21KT 3SM -FZRA BR OVC004 M04/ REFZDZ RMK SF8

CYYG;2008-03-05 20:00;CYYG 052000Z 12018KT 10SM -FZRA BKN004 OVC007 M04/M04 A2993 REFZDZ RMK SF6SF2 PRESFR SLP138

CYYG;2008-03-05 20:08;CYYG 052008Z CCA 13017KT 15SM OVC006 M03/ REFZRA RMK SF8

CYYG;2008-03-05 21:00;CYYG 052100Z 13017G22KT 15SM OVC006 M03/M04 A2985 REFZRA RMK ST8 PRESFR SLP112

CYYG;2008-03-05 21:16;CYYG 052116Z 14018G24KT 10SM -FZRA OVC006 M03/ RMK SF8

CYYG;2008-03-05 21:41;CYYG 052141Z 14018G25KT 15SM BKN006 OVC009 M02/ REFZRA RMK SF6SF2

CYYG;2008-03-05 22:00;CYYG 052200Z 13018G25KT 15SM BKN007 OVC011 M01/M03 A2978 REFZRA RMK SF6SF2 PRESFR SLP087

CYYG;2008-03-05 22:07;CYYG 052207Z 13014G22KT 15SM -FZRA OVC008 M01/ RMK SF8

CYYG;2008-03-05 22:19;CYYG 052219Z 14019G25KT 15SM OVC008 M01/ REFZRA RMK SF8

CYYG;2008-03-05 22:44;CYYG 052244Z 14018G26KT 15SM -FZRA OVC008 M00/ RMK SF8

CYYG;2008-03-05 23:00;CYYG 052300Z 14017G24KT 8SM FZRA OVC007 M00/M01 A2972 RMK SF8 SLP069

CYYG;2008-03-05 23:02;CYYG 052302Z 15017KT 8SM RA OVC006 00/ REFZRA RMK SF8

CYYG;2008-03-06 00:00;CYYG 060000Z CCA 15022G27KT 8SM -RA OVC004 04/03 A2961 REFZRARA RMK SF8 PRESFR SLP030

CYYG;2008-03-06 00:15;CYYG 060015Z 19016G27KT 2 1/2SM +RA OVC004 04/ RMK SF8 PRESFR

CYYG;2008-03-06 00:27;CYYG 060027Z 16024KT 7SM -RA OVC003 04/ RERA RMK SF8

CYYG;2008-03-06 01:00;CYYG 060100Z 16019G25KT 7SM OVC004 05/05 A2958 RERA RMK SF8 SLP020

CYYG;2008-03-06 01:29;CYYG 060129Z 17019G25KT 10SM SCT004 OVC024 06/ RMK SF3SC5

CYYG;2008-03-06 01:45;CYYG 060145Z 16018G24KT 10SM BKN004 OVC018 07/ RMK SF6SC2

CYYG;2008-03-06 02:00;CYYG 060200Z 17018KT 10SM FEW004 OVC015 07/07 A2953 RMK SF2SC6 SLP002

CYYG;2008-03-06 03:00;CYYG 060300Z 19020G27KT 15SM FEW005 BKN016 OVC032 07/07 A2953 RMK SF1SC6SC2 SLP002

CYYG;2008-03-06 04:00;CYYG 060400Z 19016G21KT 15SM FEW016 BKN035 06/06 A2952 RMK SC2SC5 SLP000

CYYG;2008-03-06 05:00;CYYG 060500Z 21012G20KT 15SM FEW008 OVC020 06/06 A2954 RMK SF2SC6 SLP005

CYYG;2008-03-06 05:14;CYYG 060514Z 25012KT 3SM -DZ BR OVC004 05/ RMK SF8

CYYG;2008-03-06 05:43;CYYG 060543Z 25018G27KT 12SM BKN008 OVC014 05/ RMK SF6SC2

CYYG;2008-03-06 06:00;CYYG 060600Z 24018G25KT 15SM FEW008 FEW014 OVC028 06/03 A2959 RMK SF1SC2SC6 SLP021

CYYG;2008-03-06 06:24;CYYG 060624Z 26020G32KT 5SM -DZ BR OVC006 04/ RMK SF8

CYYG;2008-03-06 07:00;CYYG 060700Z 28013G20KT 15SM FEW006 OVC027 03/M00 A2966 RMK SF1SC7 PRESRR SLP047

CYYG;2008-03-06 08:00;CYYG 060800Z 27020G25KT 15SM OVC017 00/M03 A2972 RMK SC8 SLP065

CYYG;2008-03-06 09:00;CYYG 060900Z 27019G25KT 15SM BKN020 M01/M05 A2979 RMK SC7 PRESRR SLP089

CYYG;2008-03-06 10:00;CYYG 061000Z 27015G24KT 15SM SCT020 M03/M06 A2985 RMK SC4 SLP112

CYYG;2008-03-06 11:00;CYYG 061100Z 27016G21KT 15SM FEW020 M03/M08 A2991 RMK SC1 SLP130

CYYG;2008-03-06 12:00;CYYG 061200Z 28015G21KT 15SM FEW020 M03/M09 A2997 RMK SC1 SLP152

CYYG;2008-03-06 13:00;CYYG 061300Z 27012G18KT 15SM FEW024 FEW250 M03/M09 A3002 RMK SC1CI0 SLP169

CYYG;2008-03-06 14:00;CYYG 061400Z 28012G20KT 15SM FEW024 FEW250 M03/M08 A3005 RMK SC1CI0 SLP178

CYYG;2008-03-06 15:00;CYYG 061500Z 27012G18KT 15SM FEW024 FEW250 M03/M09 A3008 RMK SC1CI0 SLP188

CYYG;2008-03-06 16:00;CYYG 061600Z 28012KT 15SM FEW250 M03/M09 A3011 RMK CI1 SLP198

CYYG;2008-03-06 17:00;CYYG 061700Z 27009KT 15SM FEW250 M02/M08 A3013 RMK CI1 SLP205

CYYG;2008-03-06 18:00;CYYG 061800Z 29008KT 15SM FEW250 M02/M10 A3015 RMK CI1 SLP211

CYYG;2008-03-06 19:00;CYYG 061900Z 29004KT 15SM FEW250 M02/M08 A3017 RMK CI1 SLP218

CYYG;2008-03-06 20:00;CYYG 062000Z 30008KT 15SM FEW250 M01/M09 A3019 RMK CI1 SLP226

CYYG;2008-03-06 21:00;CYYG 062100Z 28005KT 15SM FEW250 M01/M09 A3021 RMK CI1 SLP233

CYYG;2008-03-06 22:00;CYYG 062200Z 32003KT 15SM SCT250 M02/M09 A3023 RMK CI2 SLP241

CYYG;2008-03-06 23:00;CYYG 062300Z 00000KT 15SM SCT250 M03/M07 A3027 RMK CI2 SLP252

CYYG;2008-03-07 00:00;CYYG 070000Z 17002KT 15SM SCT250 M04/M08 A3028 RMK CI2 SLP258

CYYG;2008-03-07 01:00;CYYG 070100Z 17003KT 15SM SCT250 M03/M07 A3031 RMK CI2 SLP267

CYYG;2008-03-07 02:00;CYYG 070200Z 14002KT 15SM FEW250 M04/M07 A3033 RMK CI1 SLP272

CYYG;2008-03-07 03:00;CYYG 070300Z 17003KT 15SM SKC M04/M07 A3034 RMK FROIN SLP277

CYYG;2008-03-07 04:00;CYYG 070400Z 22003KT 15SM SKC M04/M06 A3035 RMK FROIN SLP279

CYYG;2008-03-07 05:00;CYYG 070500Z 21002KT 15SM SKC M04/M06 A3036 RMK FROIN SLP283

CYYG;2008-03-07 06:00;CYYG 070600Z 17003KT 15SM SKC M04/M07 A3035 RMK FROIN SLP280

CYYG;2008-03-07 07:00;CYYG 070700Z 00000KT 15SM SKC M06/M07 A3036 RMK FROIN SLP285

CYYG;2008-03-07 08:00;CYYG 070800Z 14002KT 15SM SKC M05/M07 A3038 RMK FROIN SLP289

CYYG;2008-03-07 09:00;CYYG 070900Z 16002KT 15SM SKC M06/M07 A3039 RMK FROIN SLP294

CYYG;2008-03-07 10:00;CYYG 071000Z 18005KT 15SM FEW280 M06/M07 A3041 RMK CI1 FROIN SLP301

CYYG;2008-03-07 11:00;CYYG 071100Z 18006KT 15SM SCT280 M05/M07 A3044 RMK CI1 SLP312

CYYG;2008-03-07 12:00;CYYG 071200Z 17006KT 15SM SCT280 M04/M07 A3046 RMK CI1 SLP319

CYYG;2008-03-07 13:00;CYYG 071300Z 17009KT 15SM BKN280 M01/M07 A3046 RMK CI0 SLP318

CYYG;2008-03-07 14:00;CYYG 071400Z 17009KT 15SM BKN280 M01/M06 A3044 RMK CI1 SLP311

CYYG;2008-03-07 15:00;CYYG 071500Z 18008KT 15SM BKN280 01/M06 A3043 RMK CI1 SLP308

CYYG;2008-03-07 16:00;CYYG 071600Z 16007KT 15SM BKN280 02/M06 A3044 RMK CI1 SLP309

CYYG;2008-03-07 17:00;CYYG 071700Z 19005KT 15SM BKN280 03/M05 A3043 RMK CI1 SLP306

CYYG;2008-03-07 18:00;CYYG 071800Z 17004KT 15SM BKN280 04/M05 A3040 RMK CI1 SLP298

CYYG;2008-03-07 19:00;CYYG 071900Z 17005KT 15SM OVC280 05/M04 A3039 RMK CS2 SLP294

CYYG;2008-03-07 20:00;CYYG 072000Z CCA 17007KT 15SM BKN280 06/M04 A3038 RMK CS2 SLP289

CYYG;2008-03-07 21:00;CYYG 072100Z 16007KT 15SM SCT280 06/M04 A3035 RMK CI1 SLP279

CYYG;2008-03-07 22:00;CYYG 072200Z 13006KT 15SM BKN280 04/M03 A3033 RMK CI2 SLP273

CYYG;2008-03-07 23:00;CYYG 072300Z 14005KT 15SM BKN280 02/M03 A3029 RMK CI2 SLP259

CYYG;2008-03-08 00:00;CYYG 080000Z 17015KT 15SM BKN280 02/M03 A3028 RMK CI2 SLP255

CYYG;2008-03-08 01:00;CYYG 080100Z 17013KT 15SM SCT280 01/M03 A3026 RMK CI2 SLP251

CYYG;2008-03-08 02:00;CYYG 080200Z 16008KT 15SM SCT210 01/M03 A3025 RMK CI2 SLP247

CYYG;2008-03-08 03:00;CYYG 080300Z 17011KT 15SM FEW078 SCT210 00/M03 A3026 RMK AC2CI2 SLP249

CYYG;2008-03-08 04:00;CYYG 080400Z 16015G20KT 15SM SCT078 BKN110 M00/M03 A3021 RMK AC4AC2 SLP232

CYYG;2008-03-08 05:00;CYYG 080500Z 15011KT 15SM FEW014 OVC061 00/M02 A3015 RMK SC2SC6 SLP213

CYYG;2008-03-08 05:48;CYYG 080548Z 14013KT 15SM -SHRA BKN014 OVC062 01/ RMK SC7SC1

CYYG;2008-03-08 06:00;CYYG 080600Z 13010KT 15SM -SHRA OVC014 00/M01 A3010 RMK SC8 SLP194

CYYG;2008-03-08 06:18;CYYG 080618Z 12008KT 15SM -SHRA OVC007 00/ RMK SC8

CYYG;2008-03-08 06:45;CYYG 080645Z 11007KT 10SM OVC007 00/ RMK SC8

CYYG;2008-03-08 07:00;CYYG 080700Z 10009KT 10SM OVC007 00/M01 A3001 RMK SC8 PRESFR SLP164

CYYG;2008-03-08 07:26;CYYG 080726Z 10010KT 10SM -FZRA OVC005 M00/ RMK SF8

CYYG;2008-03-08 08:00;CYYG 080800Z 11005KT 6SM -FZRA BR BKN003 OVC008 M00/M01 A2995 RMK SF6SF2 SLP145

CYYG;2008-03-08 08:30;CYYG 080830Z 07005KT 6SM -RA BR BKN003 OVC006 00/ RMK SF6SF2

CYYG;2008-03-08 09:00;CYYG 080900Z 36004KT 6SM -RA BR OVC004 00/M00 A2992 RMK SF8 SLP133

CYYG;2008-03-08 09:21;CYYG 080921Z 06004KT 2SM -RA BR OVC004 00/ RMK SF8

CYYG;2008-03-08 10:00;CYYG 081000Z 08007KT 6SM -RA BR OVC004 01/00 A2982 RMK SF8 PRESFR SLP100

CYYG;2008-03-08 10:49;CYYG 081049Z 24002KT 2SM -RA BR OVC002 01/ RMK SF8

CYYG;2008-03-08 11:00;CYYG 081100Z 25002KT 2SM -RA BR OVC002 01/01 A2983 RMK SF8 SLP104

CYYG;2008-03-08 11:20;CYYG 081120Z 00000KT 1SM R03/1400VP6000FT/D -RA BR OVC002 01/ RMK SF8

CYYG;2008-03-08 11:42;CYYG 081142Z 00000KT 1/2SM R03/1200V2000FT/N -RA FG OVC002 01/ RMK SF8

CYYG;2008-03-08 12:00;CYYG 081200Z CCA 00000KT 1/2SM R03/1800V3500FT/D -RA FG BKN002 OVC007 02/01 A2978 RMK SF6SF2 RERA /R18/ SLP086

CYYG;2008-03-08 12:51;CYYG 081251Z 15007KT 3/8SM R03/1400FT/N FG BKN007 OVC022 04/ RMK FG4SF2SC2

CYYG;2008-03-08 13:00;CYYG 081300Z 16005KT 3/8SM R03/1200V1800FT/N -RA FG BKN007 OVC020 03/03 A2974 RMK FG4SF2SC2 SLP073

CYYG;2008-03-08 13:26;CYYG 081326Z 23006KT 1/4SM R03/1200FT/N -RA FG VV002 04/ RMK FG8

CYYG;2008-03-08 14:00;CYYG 081400Z 27004KT 1/4SM R03/1400V2000FT/N -RA FG BKN005 OVC018 04/04 A2974 RMK FG5SF2SC1 SLP074

CYYG;2008-03-08 14:23;CYYG 081423Z 33006KT 3/4SM R03/P6000FT/U -RA BR OVC007 02/ RMK FG2SF6

CYYG;2008-03-08 14:41;CYYG 081441Z 31002KT 3SM -RA BR SCT005 OVC011 03/ RMK FG2SF2SC4

CYYG;2008-03-08 15:00;CYYG 081500Z 30005KT 4SM BR FEW003 OVC013 05/04 A2974 RMK SF2SC6 SLP074

CYYG;2008-03-08 15:25;CYYG 081525Z 29005KT 10SM FEW003 BKN015 05/ RMK SF1SC6

CYYG;2008-03-08 16:00;CYYG 081600Z 29006KT 15SM FEW004 BKN017 BKN250 06/05 A2976 RMK SF1SC4CI2 SLP080

CYYG;2008-03-08 16:46;CYYG 081646Z 29007KT 15SM FEW005 BKN009 OVC024 06/ RMK SF1SF6SC1

CYYG;2008-03-08 17:00;CYYG 081700Z 32007KT 15SM BKN008 OVC022 06/04 A2978 RMK SF6SC2 SLP086

CYYG;2008-03-08 18:00;CYYG 081800Z 32005KT 15SM BKN008 OVC020 03/02 A2984 RMK SF6SC2 PRESRR SLP108

CYYG;2008-03-08 19:00;CYYG 081900Z 34013KT 15SM BKN006 OVC018 02/00 A2984 RMK SF6SC2 SLP107

CYYG;2008-03-08 20:00;CYYG 082000Z 36010KT 15SM BKN006 OVC024 01/M00 A2988 RMK SF6SC2 SLP122

CYYG;2008-03-08 20:49;CYYG 082049Z 01008KT 5SM BR OVC003 00/ RMK SF8

CYYG;2008-03-08 21:00;CYYG 082100Z 02010G15KT 1SM R03/P6000FT/N BR OVC002 00/M00 A2989 RMK SF8 SLP123

CYYG;2008-03-08 21:05;CYYG 082105Z 02010KT 1/2SM R03/4000VP6000FT/D -SHRA FG OVC002 00/ RMK SF8

CYYG;2008-03-08 22:00;CYYG 082200Z 04009KT 1SM R03/P6000FT/D -SHRA BR BKN002 OVC014 00/M00 A2992 RMK SF6SC2 VSBY VRBL 1/2-11/2 SLP134

CYYG;2008-03-08 22:30;CYYG 082230Z 04012KT 2SM -RA BR OVC003 00/ RMK SF8

CYYG;2008-03-08 23:00;CYYG 082300Z 04014KT 3SM RA BR OVC003 00/M01 A2991 RMK SF8 SLP132

CYYG;2008-03-09 00:00;CYYG 090000Z 04015KT 5SM -RA BR OVC003 00/M01 A2990 RERA RMK SF8 SLP129

CYYG;2008-03-09 00:19;CYYG 090019Z 05014KT 6SM -FZRA BR OVC006 M00/ RERA RMK SF8

CYYG;2008-03-09 01:00;CYYG 090100Z 05013KT 6SM -FZRA BR OVC004 M00/M01 A2987 RMK SF8 SLP118

CYYG;2008-03-09 02:00;CYYG 090200Z 05015KT 6SM -FZRA BR OVC004 M00/M00 A2990 RMK SF8 SLP127

CYYG;2008-03-09 03:00;CYYG 090300Z 06014G22KT 8SM -FZRA OVC006 M00/M00 A2983 RMK SF8 PRESFR SLP102

CYYG;2008-03-09 04:00;CYYG 090400Z 06016KT 6SM -FZRA BR OVC006 M01/M01 A2978 RMK SF8 SLP087

CYYG;2008-03-09 05:00;CYYG 090500Z CCA 06011G19KT 6SM -FZRA BR OVC008 M01/M01 A2973 RMK SF8 /R12/ SLP069

CYYG;2008-03-09 06:00;CYYG 090600Z 07012G18KT 6SM -FZRA BR OVC008 M01/M01 A2969 RMK SF8 SLP057

CYYG;2008-03-09 06:29;CYYG 090629Z 00000KT 5SM -PL -FZRA BR OVC008 M01/ RMK SF8

CYYG;2008-03-09 06:33;CYYG 090633Z CCA 07014KT 5SM -PL -FZRA BR OVC008 M01/ RMK SF8

CYYG;2008-03-09 07:00;CYYG 090700Z 07015KT 5SM -FZRA BR OVC008 M01/M01 A2956 RMK SF8 PRESFR WND ESTD DUE ICE ACCRETION SLP013

CYYG;2008-03-09 08:00;CYYG 090800Z CCA 05005KT 5SM -FZRA BR OVC007 M00/M00 A2956 RMK SF8 WND ESTD DUE ICE ACCRETION SLP011

CYYG;2008-03-09 09:00;CYYG 090900Z 05005KT 8SM -FZRA OVC005 M01/M01 A2948 RMK SF8 PRESFR WND ESTD DUE ICE ACCRETION SLP986

CYYG;2008-03-09 10:00;CYYG 091000Z 05005KT 8SM -FZRA OVC005 M01/M01 A2944 RMK SF8 WND ESTD DUE ICE ACCRETION SLP970

CYYG;2008-03-09 10:46;CYYG 091046Z 05005KT 2 1/2SM -FZRA BR OVC003 M01/ RMK SF8 WND ESTD DUE ICE ACCRETION

CYYG;2008-03-09 11:00;CYYG 091100Z 05005KT 2 1/2SM -FZRA BR OVC003 M01/M01 A2944 RMK SF8 WND ESTD DUE ICE ACCRETION SLP970

CYYG;2008-03-09 11:18;CYYG 091118Z 05005KT 1 1/2SM -FZRA BR OVC002 M01/ RMK SF8 WND ESTD DUE ICE ACCRETION

CYYG;2008-03-09 11:48;CYYG 091148Z 05005KT 1/2SM R03/2400FT/N FZFG OVC001 M00/ RMK SF8 WND ESTD DUE ICE ACCRETION

CYYG;2008-03-09 12:00;CYYG 091200Z CCA 05005KT 1/4SM R03/2000FT/U FZFG OVC001 M00/M00 A2942 RMK SF8 REFZRA WND ESTD DUE ICE ACCRETION SLP965

CYYG;2008-03-09 13:00;CYYG 091300Z 05010KT 1/4SM FG OVC001 00/00 A2942 RMK SF8 WND ESTD DUE ICE ACCRETION SLP966

CYYG;2008-03-09 13:28;CYYG 091328Z 05010KT 3SM BR FEW002 OVC038 01/ RMK SC2SC6 WND ESTD DUE ICE ACCRETION

CYYG;2008-03-09 14:00;CYYG 091400Z 18005KT 10SM OVC041 02/02 A2940 RMK SC8 WND ESTD DUE ICE ACCRETION SLP959

CYYG;2008-03-09 15:00;CYYG 091500Z 22011KT 10SM FEW026 OVC045 04/04 A2939 RMK SC2SC6 SLP954

CYYG;2008-03-09 15:28;CYYG 091528Z 23015G27KT 10SM -SHRA BKN022 OVC045 03/ RMK SC5SC3

CYYG;2008-03-09 16:00;CYYG 091600Z 23015G22KT 10SM -SHRA OVC036 03/03 A2940 RMK SC8 SLP958

CYYG;2008-03-09 17:00;CYYG 091700Z 23013G21KT 10SM SCT033 OVC055 03/02 A2939 RMK SC4SC4 SLP954

CYYG;2008-03-09 18:00;CYYG 091800Z 26013G20KT 12SM SCT022 OVC060 02/M01 A2940 RMK SC4SC4 SLP958

CYYG;2008-03-09 18:49;CYYG 091849Z 24015G22KT 4SM -SHSN OVC018 01/M02 RMK SC8

CYYG;2008-03-09 19:00;CYYG 091900Z 24014G19KT 3SM -SHSN OVC015 01/M01 A2942 RMK SC8 SLP964

CYYG;2008-03-09 20:00;CYYG 092000Z 29020KT 2SM -SN OVC008 M01/M02 A2948 RMK SF8 PRESRR SLP986

CYYG;2008-03-09 21:00;CYYG 092100Z CCA 33019G28KT 1SM R03/P6000FT/N -SN DRSN SCT008 OVC014 M06/M08 A2960 RMK SF3SF5 PRESRR SLP025

CYYG;2008-03-09 22:00;CYYG 092200Z 33018G27KT 1SM R03/2200VP6000FT/U -SN DRSN SCT008 OVC015 M08/M11 A2970 RMK SF3SC5 PRESRR SLP061

CYYG;2008-03-09 23:00;CYYG 092300Z 33017G25KT 3SM -SN DRSN SCT011 OVC021 M09/M12 A2979 RMK SF3SC5 PRESRR SLP089

CYYG;2008-03-10 00:00;CYYG 100000Z 33011G16KT 5SM -SN BKN021 OVC071 M09/M12 A2983 RMK SC6AC2 SLP104

CYYG;2008-03-10 01:00;CYYG 100100Z 33008KT 2SM -SN BKN010 OVC022 M09/M11 A2986 RMK SF5SC3 SLP115

CYYG;2008-03-10 01:22;CYYG 100122Z 33009KT 1SM R03/4500VP6000FT/D -SN BKN005 OVC017 M09/ RMK SF6SC2

CYYG;2008-03-10 02:00;CYYG 100200Z 33011G17KT 3SM -SN BKN009 OVC020 M10/M12 A2990 RMK SF5SC3 SLP126

CYYG;2008-03-10 03:00;CYYG 100300Z 33011G20KT 10SM -SN SCT010 OVC025 M10/M13 A2992 RMK SF3SC5 SLP134

CYYG;2008-03-10 04:00;CYYG 100400Z 33012KT 15SM -SN BKN024 OVC077 M10/M14 A2994 RMK SC6AC2 SLP140

CYYG;2008-03-10 05:00;CYYG 100500Z 32011G18KT 15SM -SN SCT025 OVC032 M09/M13 A2997 RMK SC4SC4 SLP150

CYYG;2008-03-10 06:00;CYYG 100600Z 31008KT 15SM -SN OVC041 M10/M13 A3000 RMK SC8 SLP161

CYYG;2008-03-10 07:00;CYYG 100700Z 32010G19KT 15SM -SN OVC032 M09/M13 A3001 RMK SC8 SLP165

CYYG;2008-03-10 08:00;CYYG 100800Z 31008KT 10SM -SHSN OVC025 M10/M12 A3004 RMK SC8 SLP174

CYYG;2008-03-10 09:00;CYYG 100900Z 34009KT 8SM -SHSN SCT018 OVC031 M10/M13 A3006 RMK SC3SC5 SLP183

CYYG;2008-03-10 10:00;CYYG 101000Z 35009G16KT 10SM -SHSN BKN030 BKN100 M10/M14 A3009 RMK SC5AC2 SLP194

CYYG;2008-03-10 10:26;CYYG 101026Z 35010G15KT 15SM SCT030 BKN100 BKN300 M10/ RMK SC2AC1CI2

CYYG;2008-03-10 11:00;CYYG 101100Z 34006KT 15SM FEW010 FEW030 BKN300 M11/M15 A3013 RMK SC1SC1CI1 SLP206

CYYG;2008-03-10 12:00;CYYG 101200Z 35010KT 15SM DRSN FEW010 FEW030 BKN300 M10/M14 A3016 RMK SC1SC1CI2 SLP216

CYYG;2008-03-10 13:00;CYYG 101300Z 34008KT 15SM DRSN FEW010 FEW030 BKN300 M10/M14 A3017 RMK SC1SC1CI2 SLP222

CYYG;2008-03-10 14:00;CYYG 101400Z 36007KT 15SM FEW020 BKN300 M09/M14 A3017 RMK SC2CI1 SLP222

CYYG;2008-03-10 14:29;CYYG 101429Z 01011KT 15SM -SHSN FEW015 BKN300 M09/ RMK SC2CI1

CYYG;2008-03-10 15:00;CYYG 101500Z 03009KT 15SM -SHSN FEW020 BKN300 M09/M13 A3017 RMK SC2CI1 SLP220

CYYG;2008-03-10 16:00;CYYG 101600Z 36007KT 15SM SCT022 BKN300 M08/M13 A3017 RMK SC3CI0 SLP220

CYYG;2008-03-10 17:00;CYYG 101700Z 02008KT 15SM FEW023 BKN300 M08/M12 A3015 RMK SC1CI2 SLP214

CYYG;2008-03-10 18:00;CYYG 101800Z 01008KT 15SM FEW023 BKN300 M08/M14 A3013 RMK SC1CI2 SLP208

CYYG;2008-03-10 19:00;CYYG 101900Z 01007KT 15SM FEW023 BKN300 M08/M14 A3013 RMK SC1CI2 SLP207

CYYG;2008-03-10 20:00;CYYG 102000Z 31005KT 15SM FEW023 BKN300 M07/M15 A3012 RMK SC1CI2 SLP203

CYYG;2008-03-10 21:00;CYYG 102100Z 36004KT 15SM FEW025 BKN300 M08/M15 A3011 RMK SC1CI2 SLP200

CYYG;2008-03-10 22:00;CYYG 102200Z 00000KT 15SM FEW025 BKN300 M09/M15 A3010 RMK SC1CI2 SLP196

CYYG;2008-03-10 23:00;CYYG 102300Z 00000KT 15SM BKN300 M09/M15 A3009 RMK CI2 SLP195

CYYG;2008-03-11 00:00;CYYG 110000Z 00000KT 15SM SCT300 M11/M14 A3008 RMK CI2 SLP190

CYYG;2008-03-11 01:00;CYYG 110100Z 00000KT 15SM FEW300 M12/M14 A3007 RMK CI1 SLP188

CYYG;2008-03-11 02:00;CYYG 110200Z 18003KT 15SM FEW300 M10/M13 A3004 RMK CI1 SLP178

CYYG;2008-03-11 03:00;CYYG 110300Z 22002KT 15SM SKC M11/M14 A3003 RMK SLP173

CYYG;2008-03-11 04:00;CYYG 110400Z 00000KT 15SM SKC M12/M14 A3002 RMK SLP170

CYYG;2008-03-11 05:00;CYYG 110500Z 22005KT 15SM FEW230 M10/M13 A3001 RMK CI2 SLP165

CYYG;2008-03-11 06:00;CYYG 110600Z 22005KT 15SM FEW230 M09/M12 A3000 RMK CI2 SLP163

CYYG;2008-03-11 07:00;CYYG 110700Z 23004KT 15SM SCT230 M09/M12 A2998 RMK CI3 SLP154

CYYG;2008-03-11 08:00;CYYG 110800Z 24006KT 15SM BKN200 M09/M12 A2996 RMK CI6 SLP149

CYYG;2008-03-11 09:00;CYYG 110900Z 25007KT 15SM SCT220 M09/M11 A2996 RMK CI2 SLP147

CYYG;2008-03-11 10:00;CYYG 111000Z 27007KT 15SM FEW100 SCT220 M10/M12 A2996 RMK AC1CI2 SLP147

CYYG;2008-03-11 11:00;CYYG 111100Z 27004KT 15SM BKN220 M10/M12 A2996 RMK CI1 FROIN SLP147

CYYG;2008-03-11 12:00;CYYG 111200Z 26006KT 15SM BKN300 M09/M12 A2996 RMK CI2 SLP149

CYYG;2008-03-11 13:00;CYYG 111300Z 27006KT 15SM BKN300 M08/M12 A2996 RMK CI2 SLP148

CYYG;2008-03-11 14:00;CYYG 111400Z 24006KT 15SM FEW300 M06/M12 A2995 RMK CI0 SLP144

CYYG;2008-03-11 15:00;CYYG 111500Z 27006KT 15SM FEW300 M05/M13 A2995 RMK CI0 SLP144

CYYG;2008-03-11 16:00;CYYG 111600Z 27008KT 15SM FEW300 M04/M15 A2992 RMK CI0 SLP136

CYYG;2008-03-11 17:00;CYYG 111700Z 26010G15KT 15SM FEW300 M03/M13 A2990 RMK CI0 SLP130

CYYG;2008-03-11 18:00;CYYG 111800Z 25008KT 15SM FEW300 M03/M13 A2988 RMK CI1 SLP122

CYYG;2008-03-11 19:00;CYYG 111900Z 26006KT 15SM SCT300 M01/M12 A2985 RMK CI1 SLP111

CYYG;2008-03-11 20:00;CYYG 112000Z 27011KT 15SM FEW300 M01/M10 A2984 RMK CI1 SLP108

CYYG;2008-03-11 21:00;CYYG 112100Z 25010KT 15SM FEW300 M01/M09 A2984 RMK CI1 SLP106

CYYG;2008-03-11 22:00;CYYG 112200Z 27008KT 15SM FEW300 M02/M09 A2984 RMK CI1 SLP108

CYYG;2008-03-11 22:17;CYYG 112217Z 27006KT 15SM FEW300 M03/ RMK CI1

CYYG;2008-03-11 23:00;CYYG 112300Z 26004KT 15SM FEW170 FEW300 M03/M09 A2985 RMK AC1CI1 SLP111

CYYG;2008-03-12 00:00;CYYG 120000Z 26008KT 15SM FEW170 FEW300 M03/M08 A2986 RMK AC1CI1 SLP114

CYYG;2008-03-12 01:00;CYYG 120100Z 23007KT 15SM SKC M03/M08 A2985 RMK SLP111

CYYG;2008-03-12 02:00;CYYG 120200Z 22007KT 15SM SKC M03/M08 A2985 RMK SLP110

CYYG;2008-03-12 03:00;CYYG 120300Z 23005KT 15SM SKC M04/M08 A2984 RMK SLP106

CYYG;2008-03-12 04:00;CYYG 120400Z 21005KT 15SM FEW140 M04/M08 A2984 RMK AC1 SLP106

CYYG;2008-03-12 05:00;CYYG 120500Z 17004KT 15SM FEW130 M06/M09 A2984 RMK AC2 SLP106

CYYG;2008-03-12 06:00;CYYG 120600Z 21007KT 15SM FEW130 M05/M08 A2983 RMK AC2 SLP103

CYYG;2008-03-12 07:00;CYYG 120700Z 20006KT 15SM FEW150 M05/M08 A2981 RMK AC2 SLP097

CYYG;2008-03-12 08:00;CYYG 120800Z 21008KT 15SM FEW150 M05/M07 A2982 RMK AC2 SLP099

CYYG;2008-03-12 09:00;CYYG 120900Z 20008KT 15SM SCT130 M04/M07 A2981 RMK AC4 SLP096

CYYG;2008-03-12 10:00;CYYG 121000Z 20007KT 15SM FEW130 BKN180 M05/M07 A2979 RMK AC2AC4 SLP090

CYYG;2008-03-12 11:00;CYYG 121100Z 19006KT 15SM BKN220 M05/M07 A2979 RMK CI3 FROIN SLP089

CYYG;2008-03-12 12:00;CYYG 121200Z 19010KT 15SM BKN180 M03/M06 A2978 RMK CI3 SLP086

CYYG;2008-03-12 13:00;CYYG 121300Z 19012KT 15SM OVC180 M03/M06 A2977 RMK AC6 SLP083

CYYG;2008-03-12 14:00;CYYG 121400Z 20012KT 15SM OVC180 M02/M06 A2975 RMK AC6 SLP077

CYYG;2008-03-12 15:00;CYYG 121500Z 21015KT 15SM FEW040 BKN200 M01/M05 A2973 RMK SC1CS2 SLP071

CYYG;2008-03-12 16:00;CYYG 121600Z 18014KT 15SM FEW040 OVC200 00/M05 A2971 RMK CU1CS2 SLP065

CYYG;2008-03-12 17:00;CYYG 121700Z 19015KT 15SM FEW040 SCT100 OVC200 01/M05 A2969 RMK CU1AC2CS2 SLP056

CYYG;2008-03-12 18:00;CYYG 121800Z 19014KT 15SM FEW030 BKN090 OVC200 01/M05 A2967 RMK CU1AC5CI2 SLP049

CYYG;2008-03-12 19:00;CYYG 121900Z 18011KT 15SM OVC090 02/M05 A2965 RMK AS8 SLP042

CYYG;2008-03-12 20:00;CYYG 122000Z 18009KT 15SM OVC075 02/M05 A2962 RMK AS8 SLP033

CYYG;2008-03-12 21:00;CYYG 122100Z 16005KT 15SM OVC070 01/M05 A2960 RMK AS8 SLP024

CYYG;2008-03-12 22:00;CYYG 122200Z 16006KT 15SM SCT070 OVC140 01/M05 A2958 RMK AC3AS5 SLP020

CYYG;2008-03-12 23:00;CYYG 122300Z 15004KT 15SM SCT070 OVC120 01/M05 A2958 RMK AC3AS5 SLP019

CYYG;2008-03-13 00:00;CYYG 130000Z 11004KT 15SM SCT070 OVC120 00/M05 A2956 RMK AC3AS5 SLP012

CYYG;2008-03-13 01:00;CYYG 130100Z 09004KT 15SM SCT070 OVC120 M00/M05 A2954 RMK AC3AS5 SLP005

CYYG;2008-03-13 02:00;CYYG 130200Z 09002KT 15SM SCT080 OVC110 M01/M05 A2952 RMK AC4AS4 SLP000

CYYG;2008-03-13 03:00;CYYG 130300Z 36002KT 15SM OVC083 M01/M04 A2951 RMK AC8 SLP995

CYYG;2008-03-13 04:00;CYYG 130400Z 36003KT 15SM SCT056 OVC081 M01/M04 A2951 RMK SC3AC5 SLP995

CYYG;2008-03-13 05:00;CYYG 130500Z 35004KT 15SM FEW059 OVC082 M02/M04 A2950 RMK SC2AC6 SLP991

CYYG;2008-03-13 06:00;CYYG 130600Z 34008KT 15SM FEW059 BKN083 M02/M04 A2950 RMK SC2AC5 SLP991

CYYG;2008-03-13 07:00;CYYG 130700Z 35007KT 15SM FEW060 BKN130 M02/M04 A2950 RMK SC2AC5 SLP990

CYYG;2008-03-13 07:11;CYYG 130711Z 35009KT 15SM SCT005 OVC060 M02/ RMK SF3SC5

CYYG;2008-03-13 07:24;CYYG 130724Z 35008G16KT 15SM BKN004 OVC060 M02/ RMK SF5SC3

CYYG;2008-03-13 07:47;CYYG 130747Z 36013G18KT 10SM -SHSN OVC003 M02/ RMK SF8

CYYG;2008-03-13 08:00;CYYG 130800Z 36013KT 8SM -SHSN OVC004 M02/M03 A2950 RMK SF8 SLP992

CYYG;2008-03-13 08:07;CYYG 130807Z 35013G19KT 3SM -SHSN DRSN OVC006 M02/ RMK SF8

CYYG;2008-03-13 08:22;CYYG 130822Z 35013G22KT 6SM -SHSN DRSN OVC005 M03/ RMK SF8

CYYG;2008-03-13 09:00;CYYG 130900Z 36012G20KT 8SM -SHSN DRSN OVC006 M03/M04 A2952 RMK SF8 SLP000

CYYG;2008-03-13 10:00;CYYG 131000Z 35019G25KT 8SM -SHSN DRSN OVC007 M03/M05 A2956 RMK SF8 SLP012

CYYG;2008-03-13 11:00;CYYG 131100Z 35014G27KT 8SM -SHSN DRSN OVC007 M05/M07 A2960 RMK SF8 SLP024

CYYG;2008-03-13 12:00;CYYG 131200Z 34020G31KT 8SM -SHSN DRSN OVC011 M06/M09 A2964 RMK SF8 SLP040

CYYG;2008-03-13 12:26;CYYG 131226Z CCA 35020G31KT 3SM -SHSN DRSN BR OVC011 M07/ RMK SF8

CYYG;2008-03-13 13:00;CYYG 131300Z 34019G27KT 2 1/2SM -SHSN DRSN BR OVC011 M08/M10 A2969 RMK SF8 SLP056

CYYG;2008-03-13 14:00;CYYG 131400Z 35014G28KT 2SM -SHSN BLSN OVC014 M08/M11 A2971 RMK SF8 SLP065

CYYG;2008-03-13 14:24;CYYG 131424Z 35020G30KT 15SM -SHSN BKN014 M09/ RMK SC5

CYYG;2008-03-13 15:00;CYYG 131500Z 35021G30KT 12SM BKN018 M08/M12 A2975 RMK SC5 SLP076

CYYG;2008-03-13 15:16;CYYG 131516Z 34020G28KT 12SM -SHSN BKN017 M08/ RMK SC6

CYYG;2008-03-13 16:00;CYYG 131600Z 35020G30KT 10SM -SHSN BKN020 M08/M12 A2976 RMK SC6 SLP080

CYYG;2008-03-13 17:00;CYYG 131700Z 34016G29KT 10SM -SHSN BKN019 M08/M12 A2977 RMK SC7 SLP085

CYYG;2008-03-13 18:00;CYYG 131800Z 35015G25KT 8SM -SHSN BKN017 M08/M11 A2978 RMK SC7 SLP086

CYYG;2008-03-13 19:00;CYYG 131900Z 34015G22KT 15SM -SHSN BKN020 M08/M12 A2980 RMK SC5 SLP095

CYYG;2008-03-13 20:00;CYYG 132000Z 35014G22KT 15SM -SHSN SCT022 SCT200 M08/M13 A2983 RMK SC4CI1 SLP104

CYYG;2008-03-13 20:12;CYYG 132012Z 32016G21KT 15SM SCT022 BKN200 M08/ RMK SC4CI1

CYYG;2008-03-13 21:00;CYYG 132100Z 34013G20KT 15SM FEW022 SCT200 M08/M14 A2985 RMK SC2CI2 SLP110

CYYG;2008-03-13 22:00;CYYG 132200Z 33013KT 15SM FEW022 FEW200 M08/M14 A2987 RMK SC1CI2 SLP118

CYYG;2008-03-13 23:00;CYYG 132300Z 33006KT 15SM FEW022 SCT220 M09/M14 A2989 RMK SC1CI2 SLP125

CYYG;2008-03-14 00:00;CYYG 140000Z 35004KT 15SM SKC M10/M14 A2990 RMK SLP128

CYYG;2008-03-14 01:00;CYYG 140100Z 36003KT 15SM SKC M11/M13 A2992 RMK SLP134

CYYG;2008-03-14 02:00;CYYG 140200Z 02006KT 15SM SKC M11/M14 A2993 RMK SLP138

CYYG;2008-03-14 03:00;CYYG 140300Z 36004KT 15SM SKC M12/M14 A2994 RMK SLP141

CYYG;2008-03-14 04:00;CYYG 140400Z 35005KT 15SM SKC M12/M15 A2995 RMK SLP146

CYYG;2008-03-14 05:00;CYYG 140500Z 32003KT 15SM SKC M12/M16 A2996 RMK SLP148

CYYG;2008-03-14 06:00;CYYG 140600Z 31005KT 15SM SKC M12/M15 A2996 RMK SLP149

CYYG;2008-03-14 07:00;CYYG 140700Z 29006KT 15SM SKC M12/M15 A2996 RMK SLP150

CYYG;2008-03-14 08:00;CYYG 140800Z 31004KT 15SM SKC M12/M16 A2996 RMK SLP150

CYYG;2008-03-14 09:00;CYYG 140900Z 29004KT 15SM FEW110 M12/M15 A2998 RMK AC2 SLP154

CYYG;2008-03-14 10:00;CYYG 141000Z 30004KT 15SM SCT120 BKN250 M12/M15 A2997 RMK AC3CI1 SLP153

CYYG;2008-03-14 11:00;CYYG 141100Z 32004KT 15SM BKN250 M12/M15 A2998 RMK CI2 SLP156

CYYG;2008-03-14 12:00;CYYG 141200Z 31004KT 15SM FEW120 BKN250 M11/M14 A3000 RMK AC1CI1 SLP163

CYYG;2008-03-14 13:00;CYYG 141300Z 34006KT 15SM FEW030 BKN250 M10/M15 A3001 RMK CF1CI2 SLP165

CYYG;2008-03-14 14:00;CYYG 141400Z 33006KT 15SM FEW030 FEW090 BKN250 M09/M14 A3003 RMK CF1AC1CI2 SLP172

CYYG;2008-03-14 15:00;CYYG 141500Z 32007KT 15SM FEW030 FEW090 BKN250 M08/M14 A3002 RMK SC1AC1CI1 SLP170

CYYG;2008-03-14 16:00;CYYG 141600Z 36006KT 15SM FEW030 FEW090 FEW250 M08/M14 A3001 RMK SC1AC1CI0 SLP165

CYYG;2008-03-14 17:00;CYYG 141700Z 35005KT 15SM SCT250 M07/M13 A2999 RMK CI1 SLP160

CYYG;2008-03-14 18:00;CYYG 141800Z 35007KT 15SM SCT250 M07/M14 A2999 RMK CC2 SLP160

CYYG;2008-03-14 19:00;CYYG 141900Z 34006KT 15SM FEW250 M07/M14 A2999 RMK CI1 SLP159

CYYG;2008-03-14 20:00;CYYG 142000Z 33006KT 15SM FEW250 M07/M12 A2999 RMK CI1 SLP159

CYYG;2008-03-14 21:00;CYYG 142100Z 01006KT 15SM FEW250 M07/M13 A2999 RMK CI0 SLP160

CYYG;2008-03-14 22:00;CYYG 142200Z 02007KT 15SM FEW250 M09/M13 A3001 RMK CI0 SLP166

CYYG;2008-03-14 23:00;CYYG 142300Z 05004KT 15SM FEW250 M10/M14 A3002 RMK CI0 SLP169

CYYG;2008-03-15 00:00;CYYG 150000Z 00000KT 15SM FEW250 M10/M14 A3003 RMK CI1 SLP173

CYYG;2008-03-15 01:00;CYYG 150100Z 08003KT 15SM SCT250 M10/M13 A3003 RMK CS2 SLP172

CYYG;2008-03-15 02:00;CYYG 150200Z 08002KT 15SM SCT250 M10/M13 A3003 RMK CS2 SLP174

CYYG;2008-03-15 03:00;CYYG 150300Z 08003KT 15SM BKN220 M11/M13 A3003 RMK CS3 SLP172

CYYG;2008-03-15 04:00;CYYG 150400Z 06003KT 15SM BKN077 BKN200 M10/M13 A3003 RMK AC5CS2 SLP172

CYYG;2008-03-15 05:00;CYYG 150500Z 07004KT 15SM FEW055 SCT080 M11/M13 A3003 RMK SC1AC2 SLP172

CYYG;2008-03-15 06:00;CYYG 150600Z 08002KT 15SM FEW055 BKN250 M12/M14 A3002 RMK SC2CI1 SLP170

CYYG;2008-03-15 07:00;CYYG 150700Z 09003KT 15SM SCT045 BKN240 M11/M14 A3000 RMK SC4CI1 SLP163

CYYG;2008-03-15 08:00;CYYG 150800Z 07003KT 15SM FEW045 FEW220 M12/M14 A3000 RMK SC1CI0 SLP162

CYYG;2008-03-15 09:00;CYYG 150900Z 09005KT 15SM FEW045 BKN065 M11/M13 A3001 RMK SC1SC6 SLP165

CYYG;2008-03-15 10:00;CYYG 151000Z 07005KT 15SM BKN065 OVC220 M11/M13 A3001 RMK SC5CI2 SLP167

CYYG;2008-03-15 11:00;CYYG 151100Z 08005KT 15SM SCT039 BKN064 OVC220 M10/M13 A3002 RMK SC3SC2CI2 SLP169

CYYG;2008-03-15 12:00;CYYG 151200Z 09006KT 15SM SCT040 BKN061 OVC220 M09/M12 A3002 RMK SC3SC2CI2 SLP169

CYYG;2008-03-15 13:00;CYYG 151300Z 09009KT 15SM FEW040 BKN130 BKN220 M08/M12 A3001 RMK SC2AS2CI2 SLP167

CYYG;2008-03-15 14:00;CYYG 151400Z 09006KT 15SM BKN120 M06/M11 A3001 RMK AS6 SLP164

CYYG;2008-03-15 15:00;CYYG 151500Z 08008KT 15SM OVC120 M05/M11 A2998 RMK AS6 SLP157

CYYG;2008-03-15 16:00;CYYG 151600Z 09006KT 15SM OVC100 M04/M11 A2997 RMK AS6 SLP153

CYYG;2008-03-15 17:00;CYYG 151700Z 06008KT 15SM OVC110 M04/M10 A2995 RMK AS6 SLP146

CYYG;2008-03-15 18:00;CYYG 151800Z 03011KT 15SM OVC100 M04/M10 A2992 RMK AS6 SLP136

CYYG;2008-03-15 19:00;CYYG 151900Z 03014KT 15SM OVC090 M05/M10 A2991 RMK AS8 SLP133

CYYG;2008-03-15 20:00;CYYG 152000Z 05012G18KT 15SM OVC090 M05/M12 A2990 RMK AS8 SLP129

CYYG;2008-03-15 21:00;CYYG 152100Z 06011G16KT 15SM BKN088 M05/M11 A2989 RMK AS7 SLP126

CYYG;2008-03-15 22:00;CYYG 152200Z 06011G16KT 15SM FEW082 BKN190 M06/M12 A2988 RMK AS2CI3 SLP122

CYYG;2008-03-15 23:00;CYYG 152300Z 05010KT 15SM BKN120 OVC200 M06/M11 A2990 RMK AC5CI1 SLP128

CYYG;2008-03-16 00:00;CYYG 160000Z 04012KT 15SM OVC110 M06/M11 A2991 RMK AC8 SLP132

CYYG;2008-03-16 01:00;CYYG 160100Z 04009KT 15SM OVC095 M06/M10 A2992 RMK AC8 SLP135

CYYG;2008-03-16 02:00;CYYG 160200Z 04011KT 15SM OVC095 M06/M10 A2991 RMK AC8 SLP131

CYYG;2008-03-16 03:00;CYYG 160300Z 04008KT 15SM BKN095 M07/M11 A2988 RMK AC5 SLP122

CYYG;2008-03-16 04:00;CYYG 160400Z 04010KT 15SM FEW095 SCT230 M08/M11 A2986 RMK AC2CI1 SLP116

CYYG;2008-03-16 05:00;CYYG 160500Z 02008KT 15SM SCT230 M08/M11 A2987 RMK CI1 SLP119

CYYG;2008-03-16 06:00;CYYG 160600Z 01009KT 15SM FEW180 M09/M11 A2987 RMK AC2 SLP119

CYYG;2008-03-16 07:00;CYYG 160700Z 01007KT 15SM FEW120 M09/M11 A2987 RMK AC2 SLP120

CYYG;2008-03-16 08:00;CYYG 160800Z 01010KT 15SM FEW120 M09/M12 A2990 RMK AC2 SLP128

CYYG;2008-03-16 09:00;CYYG 160900Z 01010KT 15SM SKC M10/M12 A2991 RMK SLP132

CYYG;2008-03-16 10:00;CYYG 161000Z 01007KT 15SM SCT110 M10/M12 A2992 RMK AC3 SLP135

CYYG;2008-03-16 11:00;CYYG 161100Z 36008KT 15SM FEW110 FEW280 M10/M12 A2993 RMK AC1CI0 FROIN SLP138

CYYG;2008-03-16 12:00;CYYG 161200Z 02009KT 15SM FEW110 FEW280 M08/M11 A2995 RMK AC1CI0 SLP145

CYYG;2008-03-16 13:00;CYYG 161300Z 02010G15KT 15SM FEW110 SCT280 M07/M10 A2996 RMK AC1CI1 SLP150

CYYG;2008-03-16 14:00;CYYG 161400Z 02011KT 15SM FEW015 SCT280 M06/M10 A2996 RMK SC1CI1 SLP149

CYYG;2008-03-16 15:00;CYYG 161500Z 02008KT 15SM FEW015 SCT280 M05/M09 A2996 RMK SC1CI2 SLP150

CYYG;2008-03-16 16:00;CYYG 161600Z 02009KT 15SM FEW015 BKN280 M03/M08 A2994 RMK SC1CI2 SLP143

CYYG;2008-03-16 17:00;CYYG 161700Z 36008KT 15SM FEW015 BKN280 M03/M08 A2995 RMK SC1CI2 SLP144

CYYG;2008-03-16 18:00;CYYG 161800Z 02009KT 15SM FEW015 BKN280 M03/M08 A2993 RMK SC1CI2 SLP138

CYYG;2008-03-16 19:00;CYYG 161900Z 02007KT 15SM FEW015 BKN280 M03/M08 A2995 RMK SC1CI4 SLP145

CYYG;2008-03-16 20:00;CYYG 162000Z 01009KT 15SM FEW015 BKN280 M04/M08 A2996 RMK SC1CI3 SLP148

CYYG;2008-03-16 21:00;CYYG 162100Z 02011KT 15SM FEW015 BKN280 M05/M08 A2996 RMK SC1CI2 SLP148

CYYG;2008-03-16 22:00;CYYG 162200Z 02011KT 15SM FEW015 SCT220 BKN280 M05/M08 A2998 RMK SC1CI1CI2 SLP154

CYYG;2008-03-16 23:00;CYYG 162300Z 02006KT 15SM FEW015 SCT220 BKN280 M06/M09 A2999 RMK SC1CI1CI1 SLP158

CYYG;2008-03-17 00:00;CYYG 170000Z 02009KT 15SM FEW015 BKN200 M07/M09 A2999 RMK SC1CI2 SLP158

CYYG;2008-03-17 01:00;CYYG 170100Z 02008KT 15SM FEW015 BKN200 M07/M09 A2999 RMK SC1CI2 SLP159

CYYG;2008-03-17 02:00;CYYG 170200Z 02010KT 15SM FEW015 BKN200 M07/M09 A2999 RMK SC1CI2 SLP158

CYYG;2008-03-17 03:00;CYYG 170300Z 02009KT 15SM BKN200 M07/M10 A2998 RMK CS2 SLP155

CYYG;2008-03-17 04:00;CYYG 170400Z 02009KT 15SM BKN200 M08/M10 A2997 RMK CS2 SLP152

CYYG;2008-03-17 05:00;CYYG 170500Z 01010KT 15SM BKN200 M08/M10 A2998 RMK CS2 SLP154

CYYG;2008-03-17 06:00;CYYG 170600Z 01011KT 15SM BKN200 M08/M10 A2997 RMK CS2 SLP153

CYYG;2008-03-17 07:00;CYYG 170700Z 01014KT 15SM OVC200 M08/M10 A2996 RMK CS2 SLP149

CYYG;2008-03-17 08:00;CYYG 170800Z 02012G17KT 15SM OVC200 M08/M10 A2997 RMK CS2 SLP153

CYYG;2008-03-17 09:00;CYYG 170900Z 01013G20KT 15SM OVC200 M07/M11 A2999 RMK CS2 SLP158

CYYG;2008-03-17 10:00;CYYG 171000Z 02016G21KT 15SM OVC160 M07/M11 A3001 RMK AS5 SLP165

CYYG;2008-03-17 11:00;CYYG 171100Z 01014G21KT 15SM OVC160 M06/M09 A3003 RMK AS8 SLP172

CYYG;2008-03-17 12:00;CYYG 171200Z 01014G22KT 15SM OVC180 M06/M10 A3005 RMK AS8 SLP180

CYYG;2008-03-17 13:00;CYYG 171300Z 01014G21KT 15SM FEW010 OVC170 M05/M09 A3008 RMK SC1AS8 SLP189

CYYG;2008-03-17 14:00;CYYG 171400Z 01015G27KT 15SM FEW010 OVC150 M04/M09 A3010 RMK SC1AS7 SLP195

CYYG;2008-03-17 15:00;CYYG 171500Z 36017G25KT 15SM FEW015 OVC140 M04/M09 A3009 RMK SC1AS7 SLP193

CYYG;2008-03-17 16:00;CYYG 171600Z 36020G27KT 15SM FEW015 OVC180 M03/M08 A3008 RMK SC1AS7 SLP189

CYYG;2008-03-17 17:00;CYYG 171700Z 36017G26KT 15SM FEW015 OVC180 M03/M07 A3008 RMK SC1AS8 SLP188

CYYG;2008-03-17 18:00;CYYG 171800Z 36017G30KT 15SM FEW015 BKN068 OVC180 M03/M07 A3008 RMK SC1AC5AS2 SLP188

CYYG;2008-03-17 19:00;CYYG 171900Z 36023G36KT 15SM FEW015 BKN071 OVC180 M02/M07 A3009 RMK SC1AC6AS2 SLP192

CYYG;2008-03-17 20:00;CYYG 172000Z 36022G33KT 15SM FEW020 BKN068 BKN180 M02/M07 A3009 RMK SC2AC3AS1 SLP194

CYYG;2008-03-17 21:00;CYYG 172100Z 36020G29KT 15SM FEW026 BKN070 BKN210 M03/M06 A3012 RMK SC2AC2CI1 SLP201

CYYG;2008-03-17 22:00;CYYG 172200Z 35016G30KT 15SM FEW025 SCT080 BKN210 M04/M07 A3013 RMK SC1AC2CI1 SLP205

CYYG;2008-03-17 23:00;CYYG 172300Z 35015G34KT 15SM BKN044 BKN053 OVC210 M04/M08 A3014 RMK SC5SC1CI0 SLP208

CYYG;2008-03-18 00:00;CYYG 180000Z 36017G29KT 15SM FEW044 BKN057 OVC210 M05/M08 A3015 RMK SC2SC3CI1 SLP214

CYYG;2008-03-18 01:00;CYYG 180100Z 35019G30KT 15SM FEW044 FEW057 OVC210 M05/M09 A3016 RMK SC2SC1CI2 SLP216

CYYG;2008-03-18 02:00;CYYG 180200Z 35018G27KT 15SM OVC210 M05/M10 A3017 RMK CI4 SLP221

CYYG;2008-03-18 03:00;CYYG 180300Z 35018G29KT 15SM SCT210 M06/M11 A3018 RMK CI2 SLP222

CYYG;2008-03-18 04:00;CYYG 180400Z 36018G29KT 15SM FEW210 M06/M12 A3018 RMK CI0 SLP222

CYYG;2008-03-18 05:00;CYYG 180500Z 36020G28KT 15SM FEW210 M07/M13 A3018 RMK CI0 SLP223

CYYG;2008-03-18 06:00;CYYG 180600Z 36017G29KT 15SM FEW210 M08/M13 A3019 RMK CI0 SLP225

CYYG;2008-03-18 07:00;CYYG 180700Z 36020G27KT 15SM SCT230 M08/M14 A3019 RMK CI2 SLP225

CYYG;2008-03-18 08:00;CYYG 180800Z 36018G31KT 15SM BKN200 M09/M14 A3019 RMK CI2 SLP225

CYYG;2008-03-18 09:00;CYYG 180900Z 36021G29KT 15SM BKN200 M09/M15 A3021 RMK CI2 SLP233

CYYG;2008-03-18 10:00;CYYG 181000Z 36020G31KT 15SM BKN210 M09/M15 A3022 RMK CI6 SLP237

CYYG;2008-03-18 11:00;CYYG 181100Z 36019G32KT 15SM BKN210 M09/M15 A3022 RMK CI6 SLP237

CYYG;2008-03-18 12:00;CYYG 181200Z 01020G33KT 15SM BKN200 M09/M15 A3023 RMK CI6 SLP239

CYYG;2008-03-18 13:00;CYYG 181300Z 01019G30KT 15SM FEW030 BKN200 M09/M15 A3023 RMK SC1CS6 SLP240

CYYG;2008-03-18 14:00;CYYG 181400Z 01017G30KT 15SM FEW030 BKN220 M09/M15 A3024 RMK SC1CS5 SLP245

CYYG;2008-03-18 15:00;CYYG 181500Z 36015G26KT 15SM FEW022 BKN220 M08/M13 A3024 RMK SC2CS2 SLP244

CYYG;2008-03-18 16:00;CYYG 181600Z 35016G25KT 15SM SCT024 BKN220 M07/M13 A3023 RMK SC3CS2 SLP242

CYYG;2008-03-18 17:00;CYYG 181700Z 35013G22KT 15SM SCT024 BKN220 M06/M12 A3022 RMK SC3CS2 SLP237

CYYG;2008-03-18 18:00;CYYG 181800Z 36020G27KT 15SM FEW024 SCT220 M06/M12 A3021 RMK SC1CI2 SLP233

CYYG;2008-03-18 19:00;CYYG 181900Z 36020G28KT 15SM FEW024 SCT220 M06/M12 A3021 RMK SC2CI1 SLP234

CYYG;2008-03-18 20:00;CYYG 182000Z 35017G27KT 15SM FEW024 FEW220 M06/M11 A3022 RMK SC2CI1 SLP237

CYYG;2008-03-18 21:00;CYYG 182100Z 34014G26KT 15SM FEW024 FEW220 M06/M12 A3025 RMK SC1CI1 SLP246

CYYG;2008-03-18 22:00;CYYG 182200Z 35015G24KT 15SM FEW025 M07/M12 A3025 RMK SC1 SLP248

CYYG;2008-03-18 23:00;CYYG 182300Z 35012G17KT 15SM SKC M08/M12 A3025 RMK SLP248

CYYG;2008-03-19 00:00;CYYG 190000Z 36015KT 15SM SKC M08/M11 A3023 RMK SLP241

CYYG;2008-03-19 01:00;CYYG 190100Z 36011G16KT 15SM SKC M08/M11 A3022 RMK SLP237

CYYG;2008-03-19 02:00;CYYG 190200Z 35008KT 15SM SKC M08/M11 A3024 RMK SLP244

CYYG;2008-03-19 03:00;CYYG 190300Z 34009KT 15SM SKC M08/M11 A3025 RMK SLP248

CYYG;2008-03-19 04:00;CYYG 190400Z 36010KT 15SM SKC M08/M11 A3023 RMK SLP239

CYYG;2008-03-19 05:00;CYYG 190500Z 35009KT 15SM SKC M08/M11 A3022 RMK SLP238

CYYG;2008-03-19 06:00;CYYG 190600Z 35008KT 15SM SKC M08/M11 A3021 RMK SLP234

CYYG;2008-03-19 07:00;CYYG 190700Z 01010G15KT 15SM SKC M08/M11 A3018 RMK SLP222

CYYG;2008-03-19 08:00;CYYG 190800Z 36008KT 15SM SKC M08/M11 A3021 RMK SLP234

CYYG;2008-03-19 09:00;CYYG 190900Z 01010KT 15SM SKC M08/M11 A3021 RMK SLP232

CYYG;2008-03-19 10:00;CYYG 191000Z 36009KT 15SM SKC M08/M11 A3020 RMK SLP231

CYYG;2008-03-19 11:00;CYYG 191100Z 36009KT 15SM FEW250 M08/M11 A3020 RMK CI0 SLP230

CYYG;2008-03-19 12:00;CYYG 191200Z 36012KT 15SM FEW250 M07/M11 A3018 RMK CI1 SLP224

CYYG;2008-03-19 13:00;CYYG 191300Z 36010G17KT 15SM FEW250 M06/M11 A3018 RMK CI0 SLP224

CYYG;2008-03-19 14:00;CYYG 191400Z 02014KT 15SM FEW250 M05/M11 A3016 RMK CI1 SLP216

CYYG;2008-03-19 15:00;CYYG 191500Z 01012KT 15SM FEW250 M04/M10 A3016 RMK CI1 SLP217

CYYG;2008-03-19 16:00;CYYG 191600Z 01011G16KT 15SM FEW250 M04/M10 A3015 RMK CI1 SLP213

CYYG;2008-03-19 17:00;CYYG 191700Z 36011KT 15SM FEW020 FEW250 M02/M09 A3012 RMK CF1CI1 SLP201

CYYG;2008-03-19 18:00;CYYG 191800Z 36011KT 15SM FEW020 FEW250 M03/M09 A3008 RMK CF1CI1 SLP189

CYYG;2008-03-19 19:00;CYYG 191900Z 01007KT 15SM FEW020 FEW250 M02/M08 A3007 RMK CF1CI1 SLP187

CYYG;2008-03-19 20:00;CYYG 192000Z 35007KT 15SM FEW015 FEW250 M03/M08 A3006 RMK CF1CI1 SLP183

CYYG;2008-03-19 21:00;CYYG 192100Z 01009KT 15SM FEW015 FEW250 M03/M08 A3003 RMK CF1CI1 SLP173

CYYG;2008-03-19 22:00;CYYG 192200Z 01007KT 15SM FEW015 SCT250 M04/M08 A3003 RMK SC1CI1 SLP171

CYYG;2008-03-19 23:00;CYYG 192300Z 04007KT 15SM FEW015 BKN250 M06/M08 A3002 RMK SC1CI2 SLP168

CYYG;2008-03-20 00:00;CYYG 200000Z 06009KT 15SM SCT010 BKN250 M05/M08 A3000 RMK SC3CI2 SLP163

CYYG;2008-03-20 01:00;CYYG 200100Z 05007KT 15SM BKN010 OVC250 M05/M07 A3001 RMK SC6CI2 SLP164

CYYG;2008-03-20 02:00;CYYG 200200Z 07007KT 15SM OVC008 M05/M07 A2998 RMK SC8 SLP156

CYYG;2008-03-20 03:00;CYYG 200300Z 07007KT 15SM OVC010 M05/M07 A2995 RMK SC8 SLP144

CYYG;2008-03-20 04:00;CYYG 200400Z 11005KT 15SM OVC009 M05/M07 A2995 RMK SC8 SLP145

CYYG;2008-03-20 05:00;CYYG 200500Z 09007KT 15SM OVC008 M05/M07 A2991 RMK SF8 SLP133

CYYG;2008-03-20 06:00;CYYG 200600Z 14005KT 15SM OVC008 M05/M07 A2989 RMK SF8 SLP124

CYYG;2008-03-20 07:00;CYYG 200700Z 13006KT 15SM OVC008 M05/M07 A2986 RMK SF8 SLP114

CYYG;2008-03-20 08:00;CYYG 200800Z 11007KT 15SM OVC006 M05/M06 A2982 RMK SF8 SLP101

CYYG;2008-03-20 09:00;CYYG 200900Z 12007KT 15SM OVC006 M05/M06 A2981 RMK SF8 SLP097

CYYG;2008-03-20 10:00;CYYG 201000Z 13007KT 15SM OVC007 M04/M06 A2981 RMK SF8 SLP096

CYYG;2008-03-20 11:00;CYYG 201100Z 11008KT 8SM OVC005 M04/M06 A2977 RMK SF8 SLP082

CYYG;2008-03-20 11:25;CYYG 201125Z 12010KT 4SM -SN OVC006 M04/ RMK SF8

CYYG;2008-03-20 11:40;CYYG 201140Z 10011KT 4SM -SNPL BKN007 OVC085 M34/ RMK SF6AC2

CYYG;2008-03-20 11:51;CYYG 201151Z 11011KT 4SM -PL -FZRA OVC006 M04/ RMK SF8

CYYG;2008-03-20 12:00;CYYG 201200Z 11009KT 5SM -PL -FZRA OVC006 M04/M05 A2971 RMK SF8 SLP065

CYYG;2008-03-20 13:00;CYYG 201300Z 12010KT 8SM -FZRA OVC008 M03/M04 A2967 RMK SF8 SLP049

CYYG;2008-03-20 14:00;CYYG 201400Z CCA 12011KT 15SM SCT009 BKN041 M03/M04 A2966 RMK SF4SC3 PRECIP VRY LGT SLP046

CYYG;2008-03-20 14:12;CYYG 201412Z 12011G16KT 15SM SCT010 BKN041 M03/ RMK SF3SC4

CYYG;2008-03-20 15:00;CYYG 201500Z 11013KT 8SM -FZRA SCT008 OVC036 M02/M04 A2960 RMK SF3SC5 SLP027

CYYG;2008-03-20 16:00;CYYG 201600Z 12013KT 10SM -FZRA FEW010 BKN028 M02/M04 A2955 RMK SF2SC5 SLP009

CYYG;2008-03-20 16:17;CYYG 201617Z 12013KT 15SM FEW010 BKN034 M01/ RMK SF2SC6

CYYG;2008-03-20 16:41;CYYG 201641Z 13012KT 15SM -FZRA FEW010 OVC028 M01/ RMK SF2SC6

CYYG;2008-03-20 17:00;CYYG 201700Z 14012G18KT 15SM -FZRA FEW010 OVC020 M01/M03 A2951 RMK SF2SC6 PCPN VRY LGT SLP997

CYYG;2008-03-20 17:54;CYYG 201754Z 12012KT 15SM OVC020 M01/ REFZRA RMK SC8

CYYG;2008-03-20 18:00;CYYG 201800Z 12011KT 15SM OVC020 M01/M03 A2947 RMK SC8 REFZRA SLP982

CYYG;2008-03-20 18:36;CYYG 201836Z 10010G15KT 15SM -FZRA OVC020 M00/ RMK SC8

CYYG;2008-03-20 19:00;CYYG 201900Z 11009KT 15SM OVC018 M00/M02 A2942 REFZRA RMK SC8 SLP966

CYYG;2008-03-20 19:49;CYYG 201949Z 11013KT 10SM -FZRA OVC011 M00/ RMK SF8

CYYG;2008-03-20 20:00;CYYG 202000Z 10011KT 8SM -FZRA OVC008 M00/M02 A2936 RMK SF8 /PRESFR/ SLP945

CYYG;2008-03-20 20:21;CYYG 202021Z 10011KT 6SM -FZRA BR OVC006 M00/ RMK SF8

CYYG;2008-03-20 21:00;CYYG 202100Z 11013KT 6SM -FZRA BR OVC006 M00/M01 A2929 RMK SF8 /PCPN VRY LGT/PRESFR/ SLP921

CYYG;2008-03-20 21:51;CYYG 202151Z 12015KT 6SM -RA BR OVC005 01/ REFZRA RMK SF8

CYYG;2008-03-20 22:00;CYYG 202200Z 12013KT 10SM -RA OVC006 01/00 A2922 REFZRA RMK SF8 /PRESFR/ SLP896

CYYG;2008-03-20 23:00;CYYG 202300Z 13014G21KT 10SM -RA OVC006 02/01 A2915 RMK SF8 PRESFR SLP874

CYYG;2008-03-21 00:00;CYYG 210000Z 12016KT 10SM OVC006 03/02 A2911 RMK SF8 SLP858

CYYG;2008-03-21 00:34;CYYG 210034Z 12015KT 8SM -SHRA OVC005 02/ RMK SF8

CYYG;2008-03-21 01:00;CYYG 210100Z 13014G19KT 10SM -SHRA OVC006 03/02 A2906 RMK SF8 SLP844

CYYG;2008-03-21 02:00;CYYG 210200Z 13015KT 10SM -SHRA OVC008 03/02 A2900 RMK SF8 PRESFR SLP823

CYYG;2008-03-21 03:00;CYYG 210300Z 13015KT 10SM -SHRA OVC008 03/02 A2896 RMK SF8 SLP809

CYYG;2008-03-21 04:00;CYYG 210400Z 14010KT 10SM -SHRA OVC008 03/03 A2890 RMK SF8 SLP790

CYYG;2008-03-21 05:00;CYYG 210500Z 14010KT 1/2SM R03/2800V5000FT/D FG OVC001 04/03 A2887 RMK SF8 SLP779

CYYG;2008-03-21 06:00;CYYG 210600Z 19013G18KT 1SM R03/P6000FT/D BR OVC001 04/04 A2886 RMK SF8 SLP774

CYYG;2008-03-21 07:00;CYYG 210700Z 25011G18KT 3SM BR OVC005 00/M00 A2888 RMK SF8 SLP780

CYYG;2008-03-21 08:00;CYYG 210800Z 25011G17KT 8SM -SHSN OVC011 M00/M01 A2890 RMK SC8 SLP787

CYYG;2008-03-21 08:16;CYYG 210816Z 25010KT 2SM -SHSN OVC008 M00/ RMK SF8

CYYG;2008-03-21 09:00;CYYG 210900Z 25014G20KT 6SM -SHSN OVC012 M01/M03 A2892 RMK SC8 SLP794

CYYG;2008-03-21 10:00;CYYG 211000Z 25014G22KT 15SM -SHSN OVC015 M02/M04 A2894 RMK SC8 SLP801

CYYG;2008-03-21 10:16;CYYG 211016Z 25016G24KT 15SM OVC015 M02/ RMK SC8

CYYG;2008-03-21 11:00;CYYG 211100Z 24016G25KT 15SM OVC013 M02/M04 A2896 RMK SC8 SLP807

CYYG;2008-03-21 12:00;CYYG 211200Z 24016G25KT 15SM OVC014 M02/M05 A2899 RMK SC8 SLP818

CYYG;2008-03-21 13:00;CYYG 211300Z 24015G27KT 15SM OVC017 M02/M06 A2900 RMK SC8 SLP823

CYYG;2008-03-21 14:00;CYYG 211400Z 23015G22KT 15SM OVC018 M02/M05 A2901 RMK SC8 SLP824

CYYG;2008-03-21 14:49;CYYG 211449Z 25020G25KT 15SM OVC013 M02/M05 RMK SC8

CYYG;2008-03-21 15:00;CYYG 211500Z 23018G29KT 15SM OVC012 M02/M05 A2901 RMK SC8 SLP825

CYYG;2008-03-21 15:36;CYYG 211536Z 24017G29KT 10SM -SHSN BKN012 OVC030 M02/ RMK SC6SC2

CYYG;2008-03-21 16:00;CYYG 211600Z 23021G28KT 8SM -SHSN BKN018 OVC028 M02/M05 A2902 RMK SC6SC2 SLP828

CYYG;2008-03-21 17:00;CYYG 211700Z 23018G29KT 10SM -SHSN OVC024 M02/M06 A2904 RMK SC8 SLP835

CYYG;2008-03-21 18:00;CYYG 211800Z 24021G27KT 12SM -SHSN SCT020 OVC036 M02/M06 A2906 RMK SC3SC5 SLP841

CYYG;2008-03-21 19:00;CYYG 211900Z 24018G28KT 15SM -SHSN SCT018 OVC035 M03/M07 A2908 RMK SC3SC5 SLP848

CYYG;2008-03-21 20:00;CYYG 212000Z 25015G22KT 12SM -SHSN SCT018 OVC035 M03/M07 A2910 RMK SC3SC5 SLP857

CYYG;2008-03-21 21:00;CYYG 212100Z 24014G22KT 10SM -SHSN SCT018 BKN035 M04/M07 A2913 RMK SC3SC4 SLP867

CYYG;2008-03-21 22:00;CYYG 212200Z 24013G18KT 3SM -SHSN BKN015 OVC030 M05/M07 A2915 RMK SC5SC3 SLP874

CYYG;2008-03-21 23:00;CYYG 212300Z 23013KT 4SM -SHSN BKN015 BKN030 M05/M08 A2917 RMK SC5SC2 SLP879

CYYG;2008-03-22 00:00;CYYG 220000Z CCA 23010G18KT 6SM -SHSN DRSN BKN023 M05/M09 A2919 RMK SC7 SLP888

CYYG;2008-03-22 01:00;CYYG 220100Z 24011G19KT 8SM -SHSN DRSN BKN022 BKN045 M06/M09 A2921 RMK SC6SC2 SLP893

CYYG;2008-03-22 02:00;CYYG 220200Z 23012G19KT 12SM -SHSN DRSN SCT024 BKN036 M06/M10 A2922 RMK SC3SC3 SLP898

CYYG;2008-03-22 03:00;CYYG 220300Z 24011KT 12SM -SHSN FEW018 BKN032 M06/M10 A2924 RMK SC2SC4 SLP903

CYYG;2008-03-22 04:00;CYYG 220400Z 24011G16KT 10SM -SHSN FEW018 BKN030 M06/M10 A2925 RMK SC2SC6 SLP906

CYYG;2008-03-22 04:22;CYYG 220422Z 25008KT 1SM R03/P6000FT/U -SHSN OVC013 M07/ RMK SC8

CYYG;2008-03-22 05:00;CYYG 220500Z 26008KT 2 1/2SM -SHSN BKN014 OVC047 M08/M11 A2926 RMK SC5SC3 SLP912

CYYG;2008-03-22 05:51;CYYG 220551Z 23009KT 8SM -SHSN FEW015 OVC049 M08/ RMK SC2SC6

CYYG;2008-03-22 06:00;CYYG 220600Z CCA 25014KT 12SM -SHSN DRSN FEW015 OVC048 M08/M11 A2927 RMK SC2SC6 /S01/ SLP915

CYYG;2008-03-22 07:00;CYYG 220700Z 25010G18KT 15SM -SHSN DRSN OVC036 M08/M13 A2929 RMK SC8 SLP921

CYYG;2008-03-22 08:00;CYYG 220800Z 25012G17KT 8SM -SHSN DRSN FEW016 OVC031 M08/M12 A2930 RMK SC2SC6 SLP924

CYYG;2008-03-22 09:00;CYYG 220900Z 25012G20KT 12SM -SHSN DRSN FEW018 OVC033 M08/M12 A2931 RMK SC1SC7 SLP929

CYYG;2008-03-22 10:00;CYYG 221000Z 26012G18KT 8SM -SHSN DRSN FEW020 OVC032 M08/M12 A2934 RMK SC2SC6 SLP937

CYYG;2008-03-22 11:00;CYYG 221100Z 26010KT 6SM -SHSN DRSN FEW020 OVC031 M08/M11 A2935 RMK SC2SC6 SLP942

CYYG;2008-03-22 11:49;CYYG 221149Z 25013KT 3SM -SHSN DRSN OVC024 M08/ RMK SC8

CYYG;2008-03-22 12:00;CYYG 221200Z 25011G16KT 3SM -SHSN DRSN BKN018 OVC026 M08/M11 A2937 RMK SC5SC3 SLP948

CYYG;2008-03-22 13:00;CYYG 221300Z 26012G20KT 12SM -SHSN DRSN FEW020 SCT037 BKN077 M07/M12 A2939 RMK SC2SC2AC2 SLP954

CYYG;2008-03-22 14:00;CYYG 221400Z 25015KT 10SM -SHSN DRSN SCT024 OVC037 M07/M12 A2940 RMK SC4SC4 SLP959

CYYG;2008-03-22 15:00;CYYG 221500Z 26011G18KT 10SM -SHSN SCT024 OVC031 M07/M12 A2941 RMK SC4SC4 SLP962

CYYG;2008-03-22 16:00;CYYG 221600Z 27013G19KT 10SM -SHSN SCT024 OVC031 M07/M12 A2942 RMK SC4SC4 SLP967

CYYG;2008-03-22 17:00;CYYG 221700Z 26014KT 10SM -SHSN OVC020 M07/M11 A2943 RMK SC8 SLP970

CYYG;2008-03-22 18:00;CYYG 221800Z 26012KT 12SM -SHSN OVC025 M06/M11 A2944 RMK SC8 SLP973

CYYG;2008-03-22 19:00;CYYG 221900Z 25014G22KT 12SM -SHSN OVC031 M06/M10 A2946 RMK SC8 SLP979

CYYG;2008-03-22 20:00;CYYG 222000Z 27014G19KT 15SM -SHSN OVC034 M06/M12 A2948 RMK SC8 SLP987

CYYG;2008-03-22 20:24;CYYG 222024Z 26013G19KT 15SM OVC036 M06/ RMK SC8

CYYG;2008-03-22 21:00;CYYG 222100Z 27013G18KT 15SM OVC037 M06/M12 A2950 RMK SC8 SLP993

CYYG;2008-03-22 21:49;CYYG 222149Z 26010G15KT 15SM -SHSN OVC037 M06/ RMK SC8

CYYG;2008-03-22 22:00;CYYG 222200Z 27009G15KT 15SM -SHSN OVC039 M06/M12 A2952 RMK SC8 SLP999

CYYG;2008-03-22 23:00;CYYG 222300Z 26011G16KT 15SM -SHSN OVC040 M06/M12 A2954 RMK SC8 SLP005

CYYG;2008-03-23 00:00;CYYG 230000Z 27010KT 12SM -SHSN OVC037 M07/M10 A2956 RMK SC8 SLP012

CYYG;2008-03-23 01:00;CYYG 230100Z 28009KT 15SM -SHSN OVC040 M06/M11 A2958 RMK SC8 SLP019

CYYG;2008-03-23 02:00;CYYG 230200Z 27012KT 15SM -SHSN OVC041 M06/M12 A2958 RMK SC8 SLP021

CYYG;2008-03-23 03:00;CYYG 230300Z 26012KT 15SM -SHSN FEW015 OVC039 M07/M11 A2958 RMK SC2SC6 SLP021

CYYG;2008-03-23 03:25;CYYG 230325Z 26012G17KT 15SM FEW015 SCT042 OVC076 M07/ RMK SC2SC2AC4

CYYG;2008-03-23 04:00;CYYG 230400Z 26011G16KT 15SM FEW015 SCT040 OVC079 M08/M12 A2958 RMK SC1SC2AC5 SLP021

CYYG;2008-03-23 05:00;CYYG 230500Z 26010G15KT 15SM FEW015 FEW040 BKN079 M08/M13 A2959 RMK SC1SC2AC4 SLP024

CYYG;2008-03-23 06:00;CYYG 230600Z 26013KT 15SM FEW015 FEW040 SCT080 M08/M13 A2960 RMK SC1SC2AC2 SLP026

CYYG;2008-03-23 07:00;CYYG 230700Z 27014G20KT 15SM FEW015 FEW080 M09/M14 A2960 RMK SC1AC1 SLP027

CYYG;2008-03-23 08:00;CYYG 230800Z 27012G22KT 15SM FEW015 FEW080 M09/M14 A2962 RMK SC1AC1 SLP032

CYYG;2008-03-23 09:00;CYYG 230900Z 27012G17KT 15SM FEW015 M10/M15 A2963 RMK SC1 SLP038

CYYG;2008-03-23 10:00;CYYG 231000Z 27012G18KT 15SM FEW015 M10/M15 A2966 RMK SC2 SLP045

CYYG;2008-03-23 11:00;CYYG 231100Z 27012G18KT 15SM DRSN FEW015 M10/M16 A2968 RMK SC2 SLP053

CYYG;2008-03-23 11:36;CYYG 231136Z 26013G20KT 15SM -SHSN DRSN BKN028 M10/ RMK SC6

CYYG;2008-03-23 12:00;CYYG 231200Z 27015G22KT 15SM -SHSN DRSN BKN026 M10/M15 A2970 RMK SC5 SLP062

CYYG;2008-03-23 13:00;CYYG 231300Z 27019G26KT 15SM -SHSN DRSN BKN026 M10/M16 A2971 RMK SC5 SLP065

CYYG;2008-03-23 14:00;CYYG 231400Z 27017G28KT 15SM DRSN SCT024 M10/M16 A2972 RMK SC4 SLP068

CYYG;2008-03-23 15:00;CYYG 231500Z 26017G24KT 15SM SCT034 M08/M15 A2973 RMK SC4 SLP072

CYYG;2008-03-23 16:00;CYYG 231600Z 28021G27KT 15SM BKN033 M08/M15 A2974 RMK SC5 SLP075

CYYG;2008-03-23 17:00;CYYG 231700Z 25023G31KT 15SM SCT035 M07/M15 A2976 RMK SC3 SLP080

CYYG;2008-03-23 18:00;CYYG 231800Z 27020G33KT 15SM SCT035 M07/M14 A2977 RMK SC4 SLP084

CYYG;2008-03-23 19:00;CYYG 231900Z 27023G28KT 15SM BKN035 M06/M13 A2979 RMK SC6 SLP091

CYYG;2008-03-23 20:00;CYYG 232000Z 28017G24KT 15SM BKN037 M06/M14 A2982 RMK SC6 SLP100

CYYG;2008-03-23 21:00;CYYG 232100Z 27012G20KT 15SM BKN037 M05/M13 A2985 RMK SC6 SLP112

CYYG;2008-03-23 22:00;CYYG 232200Z 27013G19KT 15SM FEW037 M05/M13 A2987 RMK SC2 SLP120

CYYG;2008-03-23 23:00;CYYG 232300Z 27010G16KT 15SM FEW037 M06/M13 A2992 RMK SC1 SLP134

CYYG;2008-03-24 00:00;CYYG 240000Z 27008KT 15SM FEW037 M06/M13 A2996 RMK SC1 SLP147

CYYG;2008-03-24 01:00;CYYG 240100Z 28005KT 15SM FEW037 M07/M12 A2998 RMK SC1 SLP155

CYYG;2008-03-24 02:00;CYYG 240200Z 27005KT 15SM SKC M08/M12 A3002 RMK SLP170

CYYG;2008-03-24 03:00;CYYG 240300Z 29011G16KT 15SM SKC M07/M15 A3006 RMK SLP181

CYYG;2008-03-24 04:00;CYYG 240400Z 29010KT 15SM SKC M08/M16 A3008 RMK SLP190

CYYG;2008-03-24 05:00;CYYG 240500Z 29008KT 15SM SKC M08/M16 A3012 RMK SLP202

CYYG;2008-03-24 06:00;CYYG 240600Z 30012KT 15SM SKC M09/M16 A3014 RMK SLP210

CYYG;2008-03-24 07:00;CYYG 240700Z 30009KT 15SM SKC M10/M17 A3017 RMK SLP218

CYYG;2008-03-24 08:00;CYYG 240800Z 27006KT 15SM SKC M10/M17 A3020 RMK SLP228

CYYG;2008-03-24 09:00;CYYG 240900Z 29003KT 15SM SKC M12/M18 A3022 RMK SLP237

CYYG;2008-03-24 10:00;CYYG 241000Z 27004KT 15SM FEW200 M12/M19 A3024 RMK CI0 SLP245

CYYG;2008-03-24 11:00;CYYG 241100Z 25004KT 15SM SKC M12/M20 A3027 RMK SLP254

CYYG;2008-03-24 12:00;CYYG 241200Z 30007KT 15SM SKC M11/M21 A3029 RMK SLP262

CYYG;2008-03-24 13:00;CYYG 241300Z 29006KT 15SM SKC M10/M21 A3031 RMK SLP267

CYYG;2008-03-24 14:00;CYYG 241400Z 27006KT 15SM SKC M09/M21 A3033 RMK SLP274

CYYG;2008-03-24 15:00;CYYG 241500Z 27006KT 15SM SKC M08/M20 A3032 RMK SLP272

CYYG;2008-03-24 16:00;CYYG 241600Z 25007KT 15SM SKC M07/M18 A3032 RMK SLP271

CYYG;2008-03-24 17:00;CYYG 241700Z 23006KT 15SM SKC M06/M18 A3031 RMK SLP267

CYYG;2008-03-24 18:00;CYYG 241800Z 23006KT 15SM SKC M04/M19 A3028 RMK SLP256

CYYG;2008-03-24 19:00;CYYG 241900Z 22006KT 15SM SKC M03/M18 A3026 RMK SLP251

CYYG;2008-03-24 20:00;CYYG 242000Z 20006KT 15SM SKC M03/M16 A3024 RMK SLP245

CYYG;2008-03-24 21:00;CYYG 242100Z 17008KT 15SM FEW040 FEW300 M04/M16 A3023 RMK SC1CI0 SLP241

CYYG;2008-03-24 22:00;CYYG 242200Z 19006KT 15SM FEW040 FEW300 M04/M13 A3023 RMK SC1CI0 SLP241

CYYG;2008-03-24 23:00;CYYG 242300Z 00000KT 15SM FEW040 FEW300 M05/M11 A3023 RMK SC1CI1 SLP241

CYYG;2008-03-25 00:00;CYYG 250000Z 18002KT 15SM FEW040 FEW300 M05/M10 A3025 RMK SC1CI1 SLP246

CYYG;2008-03-25 01:00;CYYG 250100Z 19005KT 15SM FEW300 M05/M11 A3025 RMK CI0 SLP247

CYYG;2008-03-25 02:00;CYYG 250200Z 20004KT 15SM FEW300 M06/M10 A3025 RMK CI0 SLP249

CYYG;2008-03-25 03:00;CYYG 250300Z 20005KT 15SM FEW080 SCT300 M05/M09 A3025 RMK AS2CI1 SLP245

CYYG;2008-03-25 04:00;CYYG 250400Z 22004KT 15SM FEW080 SCT300 M05/M10 A3024 RMK AS2CI1 SLP244

CYYG;2008-03-25 05:00;CYYG 250500Z 26004KT 15SM FEW080 SCT300 M05/M10 A3025 RMK AS2CI1 SLP246

CYYG;2008-03-25 06:00;CYYG 250600Z 31005KT 15SM FEW080 FEW300 M05/M10 A3025 RMK AS1CI1 SLP247

CYYG;2008-03-25 07:00;CYYG 250700Z 36009G16KT 15SM FEW080 FEW300 M06/M09 A3026 RMK AS1CI2 SLP249

CYYG;2008-03-25 08:00;CYYG 250800Z 36012G17KT 15SM SCT180 M07/M12 A3026 RMK CI4 SLP251

CYYG;2008-03-25 09:00;CYYG 250900Z 36016KT 15SM FEW018 SCT180 M07/M14 A3029 RMK SC1CI3 SLP260

CYYG;2008-03-25 10:00;CYYG 251000Z 01012G17KT 15SM FEW024 BKN170 M08/M12 A3029 RMK SC2AS4 SLP259

CYYG;2008-03-25 11:00;CYYG 251100Z 01010G15KT 15SM FEW021 OVC180 M08/M17 A3029 RMK SC2AS6 SLP260

CYYG;2008-03-25 12:00;CYYG 251200Z 36012KT 15SM OVC170 M08/M16 A3029 RMK AS8 SLP260

CYYG;2008-03-25 13:00;CYYG 251300Z 36010KT 15SM OVC170 M08/M17 A3029 RMK AS8 SLP262

CYYG;2008-03-25 14:00;CYYG 251400Z 01011KT 15SM OVC200 M08/M15 A3028 RMK CS6 SLP258

CYYG;2008-03-25 15:00;CYYG 251500Z 02011KT 15SM FEW025 BKN180 BKN250 M08/M14 A3027 RMK SC1AS4CI2 SLP255

CYYG;2008-03-25 16:00;CYYG 251600Z 02013KT 15SM FEW030 BKN180 M07/M15 A3026 RMK SC2AS3 SLP251

CYYG;2008-03-25 17:00;CYYG 251700Z 01011KT 15SM FEW030 SCT180 BKN250 M08/M15 A3024 RMK SC2AS2CI1 SLP243

CYYG;2008-03-25 18:00;CYYG 251800Z 01011KT 15SM FEW030 BKN200 M07/M14 A3023 RMK SC1CI5 SLP238

CYYG;2008-03-25 19:00;CYYG 251900Z 36007KT 15SM FEW030 BKN240 M07/M14 A3021 RMK SC2CI2 SLP234

CYYG;2008-03-25 20:00;CYYG 252000Z 01007KT 15SM FEW030 SCT250 M08/M15 A3020 RMK SC1CI1 SLP229

CYYG;2008-03-25 21:00;CYYG 252100Z 36006KT 15SM FEW030 FEW250 M07/M15 A3020 RMK SC1CI0 SLP232

CYYG;2008-03-25 22:00;CYYG 252200Z 36005KT 15SM FEW030 FEW250 M08/M16 A3021 RMK SC1CI0 SLP235

CYYG;2008-03-25 23:00;CYYG 252300Z 35003KT 15SM FEW200 M10/M16 A3021 RMK CI2 SLP234

CYYG;2008-03-26 00:00;CYYG 260000Z 32004KT 15SM FEW200 M10/M14 A3023 RMK CI2 SLP242

CYYG;2008-03-26 01:00;CYYG 260100Z 09002KT 15SM FEW200 M11/M14 A3020 RMK CI2 SLP232

CYYG;2008-03-26 02:00;CYYG 260200Z 00000KT 15SM SKC M11/M15 A3020 RMK SLP230

CYYG;2008-03-26 03:00;CYYG 260300Z 18003KT 15SM SKC M11/M14 A3018 RMK SLP224

CYYG;2008-03-26 04:00;CYYG 260400Z 18004KT 15SM SKC M11/M14 A3018 RMK SLP223

CYYG;2008-03-26 05:00;CYYG 260500Z 18004KT 15SM SKC M11/M14 A3018 RMK SLP225

CYYG;2008-03-26 06:00;CYYG 260600Z 16005KT 15SM FEW180 M11/M14 A3017 RMK CI2 SLP220

CYYG;2008-03-26 07:00;CYYG 260700Z 18005KT 15SM SCT140 M11/M13 A3017 RMK AC2 SLP219

CYYG;2008-03-26 08:00;CYYG 260800Z 17007KT 15SM BKN140 M10/M12 A3015 RMK AC4 SLP213

CYYG;2008-03-26 09:00;CYYG 260900Z 21006KT 15SM BKN140 M09/M12 A3016 RMK AC4 SLP216

CYYG;2008-03-26 10:00;CYYG 261000Z 16007KT 15SM BKN140 BKN190 M09/M12 A3013 RMK AC4CI2 SLP206

CYYG;2008-03-26 11:00;CYYG 261100Z 18010KT 15SM BKN180 M08/M11 A3013 RMK AS6 SLP207

CYYG;2008-03-26 12:00;CYYG 261200Z 18012G18KT 15SM BKN060 BKN180 M06/M11 A3011 RMK NS5AS0 SLP200

CYYG;2008-03-26 12:43;CYYG 261243Z 19015KT 8SM -SHSN BKN023 OVC060 M06/ RMK SC6NS2

CYYG;2008-03-26 13:00;CYYG 261300Z 18017KT 15SM -SHSN BKN020 OVC060 M06/M12 A3009 RMK SC6NS2 VIS LWR NE SLP193

CYYG;2008-03-26 13:17;CYYG 261317Z 18014KT 15SM FEW020 OVC042 M06/ RMK SC2NS6

CYYG;2008-03-26 14:00;CYYG 261400Z 18015KT 15SM -SN OVC026 M04/M10 A3007 RMK NS8 VIS LWR NW-N SLP186

CYYG;2008-03-26 14:47;CYYG 261447Z 17014KT 15SM OVC037 M04/ RMK SC8

CYYG;2008-03-26 15:00;CYYG 261500Z 17014KT 15SM OVC035 M03/M08 A3004 RMK SC8 SLP174

CYYG;2008-03-26 15:46;CYYG 261546Z 17014G20KT 15SM -SN OVC026 M02/ RMK SC8

CYYG;2008-03-26 16:00;CYYG 261600Z 16016KT 15SM -SN OVC025 M02/M07 A2999 RMK SC8 SLP160

CYYG;2008-03-26 17:00;CYYG 261700Z 18015KT 15SM -SN OVC026 M00/M06 A2995 RMK SC8 VIS LWR W-NE SLP144

CYYG;2008-03-26 18:00;CYYG 261800Z 18018G24KT 15SM -SN FEW025 OVC036 00/M04 A2992 RMK SC2SC6 SLP136

CYYG;2008-03-26 19:00;CYYG 261900Z 18018G24KT 15SM -SN FEW012 OVC032 M00/M03 A2990 RMK SC2SC6 SLP127

CYYG;2008-03-26 19:47;CYYG 261947Z 19017G26KT 15SM FEW009 SCT025 OVC034 00/ RMK SF2SC2SC4

CYYG;2008-03-26 20:00;CYYG 262000Z 19021KT 15SM FEW009 OVC033 00/M02 A2986 RMK SF2SC6 SLP116

CYYG;2008-03-26 21:00;CYYG 262100Z 18015G22KT 15SM FEW009 OVC021 00/M02 A2984 RMK SF2SC6 SLP107

CYYG;2008-03-26 21:08;CYYG 262108Z 18015G22KT 15SM -SN OVC016 00/ RMK SC8 VIS NW-NE 3

CYYG;2008-03-26 21:46;CYYG 262146Z 19016KT 10SM -SN OVC011 00/ RMK SC8

CYYG;2008-03-26 22:00;CYYG 262200Z 18015G20KT 10SM -SN OVC012 01/M01 A2982 RMK SC8 SLP102

CYYG;2008-03-26 22:05;CYYG 262205Z 19013G18KT 15SM -SN SCT009 OVC012 00/ RMK SF3SC5

CYYG;2008-03-26 22:23;CYYG 262223Z 18015KT 15SM -RA FEW007 OVC012 01/ RMK SF2SF6

CYYG;2008-03-26 23:00;CYYG 262300Z 18012KT 10SM -RA FEW008 OVC012 01/M01 A2981 RMK SF2SF6 SLP097

CYYG;2008-03-27 00:00;CYYG 270000Z 19013KT 15SM -SHRA OVC019 01/M01 A2980 RMK SC8 SLP093

CYYG;2008-03-27 01:00;CYYG 270100Z 20009KT 15SM -SHRASN SCT012 OVC018 01/M01 A2979 RMK SF3SC5 SLP092

CYYG;2008-03-27 01:54;CYYG 270154Z 20007KT 15SM -SHRASN OVC011 01/ RMK SF8

CYYG;2008-03-27 02:00;CYYG 270200Z 21007KT 15SM OVC011 01/M00 A2979 RMK SF8 SLP091

CYYG;2008-03-27 03:00;CYYG 270300Z 24007KT 10SM -SHSN OVC009 01/00 A2979 RMK SF8 SLP091

CYYG;2008-03-27 04:00;CYYG 270400Z 23007KT 15SM -SHSN SCT007 BKN020 OVC067 01/00 A2979 RMK SF3SC3AC2 SLP091

CYYG;2008-03-27 05:00;CYYG 270500Z 24007KT 15SM SCT020 BKN068 01/M01 A2979 RMK SC3AC2 SLP091

CYYG;2008-03-27 06:00;CYYG 270600Z 27009G15KT 15SM SCT084 01/M02 A2979 RMK AC3 SLP092

CYYG;2008-03-27 07:00;CYYG 270700Z 28011G17KT 15SM FEW080 FEW180 00/M02 A2980 RMK AC2CI1 SLP095

CYYG;2008-03-27 08:00;CYYG 270800Z 26008KT 15SM SCT051 M00/M03 A2982 RMK SC2 SLP100

CYYG;2008-03-27 09:00;CYYG 270900Z 27010KT 15SM BKN047 M01/M03 A2984 RMK SC4 SLP106

CYYG;2008-03-27 10:00;CYYG 271000Z 28009KT 15SM FEW018 SCT049 M01/M05 A2987 RMK SC1SC2 SLP118

CYYG;2008-03-27 11:00;CYYG 271100Z 29015G20KT 15SM FEW018 FEW050 M02/M09 A2991 RMK SC1SC1 SLP130

CYYG;2008-03-27 12:00;CYYG 271200Z 27013G19KT 15SM FEW018 FEW050 M03/M10 A2993 RMK SC1SC1 SLP138

CYYG;2008-03-27 13:00;CYYG 271300Z 28011G20KT 15SM FEW018 FEW050 M03/M10 A2995 RMK CF1SC1 SLP143

CYYG;2008-03-27 14:00;CYYG 271400Z 28014G24KT 15SM FEW018 FEW050 FEW220 M03/M11 A2997 RMK CF1SC1CI0 SLP152

CYYG;2008-03-27 15:00;CYYG 271500Z 29017KT 15SM FEW025 FEW220 M03/M13 A2999 RMK SC1CI1 SLP159

CYYG;2008-03-27 16:00;CYYG 271600Z 28015G20KT 15SM FEW220 M02/M12 A3001 RMK CI1 SLP164

CYYG;2008-03-27 17:00;CYYG 271700Z 27009G16KT 15SM FEW220 M00/M12 A3002 RMK CI1 SLP168

CYYG;2008-03-27 18:00;CYYG 271800Z 30008KT 15SM FEW220 01/M12 A2999 RMK CI0 SLP157

CYYG;2008-03-27 19:00;CYYG 271900Z 26007KT 15SM FEW220 02/M13 A2998 RMK CI1 SLP155

CYYG;2008-03-27 20:00;CYYG 272000Z 21004KT 15SM FEW220 02/M13 A2996 RMK CI1 SLP148

CYYG;2008-03-27 21:00;CYYG 272100Z 22007KT 15SM FEW220 02/M12 A2995 RMK CI1 SLP145

CYYG;2008-03-27 22:00;CYYG 272200Z 17007KT 15SM FEW110 SCT220 M00/M09 A2997 RMK AC1CI1 SLP150

CYYG;2008-03-27 23:00;CYYG 272300Z 20005KT 15SM FEW110 SCT220 M01/M09 A2997 RMK AC2CI1 SLP151

CYYG;2008-03-28 00:00;CYYG 280000Z 20006KT 15SM FEW110 BKN250 M02/M08 A2997 RMK AC2CI2 SLP150

CYYG;2008-03-28 01:00;CYYG 280100Z 20006KT 15SM FEW110 SCT250 M01/M07 A2997 RMK AC2CI2 SLP150

CYYG;2008-03-28 02:00;CYYG 280200Z 21008KT 15SM FEW110 SCT230 M01/M07 A2997 RMK AC2CI2 SLP151

CYYG;2008-03-28 03:00;CYYG 280300Z 21006KT 15SM FEW090 FEW230 M01/M07 A2997 RMK AC2CI1 SLP152

CYYG;2008-03-28 04:00;CYYG 280400Z 22006KT 15SM BKN030 OVC080 M01/M06 A2997 RMK SC7AC1 SLP152

CYYG;2008-03-28 05:00;CYYG 280500Z 23007KT 15SM BKN022 OVC100 M00/M06 A2998 RMK SC7AC1 SLP154

CYYG;2008-03-28 06:00;CYYG 280600Z 25005KT 15SM SCT020 OVC090 M00/M05 A2997 RMK SC3AC5 SLP152

CYYG;2008-03-28 06:06;CYYG 280606Z 25005KT 15SM -SHSN BKN020 OVC090 M00/ RMK SC6AC2

CYYG;2008-03-28 06:51;CYYG 280651Z 28004KT 15SM FEW014 BKN022 OVC090 M00/ RMK SC2SC6AC1

CYYG;2008-03-28 07:00;CYYG 280700Z 27005KT 15SM FEW014 BKN022 OVC090 M00/M04 A2997 RMK SC2SC5AC1 SLP151

CYYG;2008-03-28 07:32;CYYG 280732Z 29004KT 15SM BKN012 OVC050 M00/ RMK SC5SC3

CYYG;2008-03-28 08:00;CYYG 280800Z 29003KT 15SM OVC011 M00/M03 A2997 RMK SC8 SLP152

CYYG;2008-03-28 08:15;CYYG 280815Z 34002KT 15SM -SHSN OVC011 M00/ RMK SC8

CYYG;2008-03-28 09:00;CYYG 280900Z 35004KT 15SM -SHSN OVC010 M00/M02 A2999 RMK SC8 SLP157

CYYG;2008-03-28 09:12;CYYG 280912Z 35004KT 15SM OVC014 M00/ RMK SC8

CYYG;2008-03-28 10:00;CYYG 281000Z 36003KT 15SM OVC014 M01/M02 A3000 RMK SC8 SLP161

CYYG;2008-03-28 10:21;CYYG 281021Z 01006KT 12SM BKN007 OVC014 M01/ RMK SC6SC2

CYYG;2008-03-28 11:00;CYYG 281100Z 02005KT 12SM BKN006 OVC015 M01/M03 A3002 RMK SF6SC2 SLP167

CYYG;2008-03-28 11:21;CYYG 281121Z 04005KT 12SM OVC005 M01/ RMK SF8

CYYG;2008-03-28 12:00;CYYG 281200Z 02004KT 15SM OVC005 M01/M03 A3003 RMK SF8 SLP170

CYYG;2008-03-28 13:00;CYYG 281300Z 03004KT 15SM OVC005 M02/M03 A3003 RMK SF8 SLP171

CYYG;2008-03-28 13:52;CYYG 281352Z 04006KT 15SM OVC008 M01/ RMK SF8

CYYG;2008-03-28 14:00;CYYG 281400Z 04006KT 15SM BKN008 OVC011 M01/M03 A3003 RMK SF6SC2 SLP171

CYYG;2008-03-28 14:16;CYYG 281416Z 05006KT 15SM OVC010 M01/ RMK SC8

CYYG;2008-03-28 15:00;CYYG 281500Z 05007KT 15SM OVC009 M01/M04 A3002 RMK SC8 SLP169

CYYG;2008-03-28 16:00;CYYG 281600Z 04007KT 15SM OVC006 M02/M04 A3002 RMK SF8 SLP167

CYYG;2008-03-28 17:00;CYYG 281700Z 03007KT 15SM OVC008 M02/M04 A3001 RMK SF8 SLP165

CYYG;2008-03-28 17:18;CYYG 281718Z 04007KT 15SM FEW008 BKN011 OVC033 M01/ RMK SF2SC2SC3

CYYG;2008-03-28 18:00;CYYG 281800Z 01006KT 15SM SCT015 OVC034 M01/M05 A2999 RMK SC3SC5 VIS LWR SW SLP159

CYYG;2008-03-28 18:31;CYYG 281831Z 03008KT 15SM -SN FEW015 OVC034 M01/ RMK SC2SC6 VIS LWR S-SW

CYYG;2008-03-28 19:00;CYYG 281900Z 04009KT 10SM -SN FEW013 OVC033 M02/M05 A2998 RMK SC2SC6 VIS S-SW 5 SLP153

CYYG;2008-03-28 20:00;CYYG 282000Z 02010KT 5SM -SN BKN010 OVC034 M02/M05 A2996 RMK SC5SC3 SLP148

CYYG;2008-03-28 21:00;CYYG 282100Z 04009KT 10SM -SN BKN009 OVC034 M02/M05 A2996 RMK SC6SC2 VIS SE-SW 5 SLP148

CYYG;2008-03-28 22:00;CYYG 282200Z 05007KT 10SM -SN BKN008 OVC040 M03/M05 A2995 RMK SF6SC2 VIS SE-SW 5 SLP144

CYYG;2008-03-28 23:00;CYYG 282300Z 05006KT 20SM -SN OVC008 M03/M05 A2995 RMK SF8 SLP144

CYYG;2008-03-29 00:00;CYYG 290000Z 03009KT 15SM -SN OVC009 M03/M05 A2996 RMK SF8 SLP147

CYYG;2008-03-29 01:00;CYYG 290100Z 04009KT 10SM -SN OVC009 M03/M05 A2996 RMK SF8 SLP148

CYYG;2008-03-29 02:00;CYYG 290200Z 04012KT 10SM -SN BKN008 OVC020 M03/M06 A2995 RMK SF6SC2 SLP145

CYYG;2008-03-29 03:00;CYYG 290300Z 04008KT 4SM -SN OVC009 M04/M06 A2995 RMK SF8 SLP145

CYYG;2008-03-29 04:00;CYYG 290400Z 02010KT 2 1/2SM -SN OVC008 M04/M05 A2996 RMK SF8 SLP147

CYYG;2008-03-29 05:00;CYYG 290500Z 04008KT 5SM -SN OVC009 M04/M06 A2995 RMK SF8 /S01/ SLP144

CYYG;2008-03-29 06:00;CYYG 290600Z 04008KT 10SM -SN BKN009 OVC033 M04/M06 A2995 RMK SF6SC2 SLP143

CYYG;2008-03-29 07:00;CYYG 290700Z 01007KT 6SM -SN SCT009 OVC020 M04/M06 A2996 RMK SF3SC5 SLP147

CYYG;2008-03-29 08:00;CYYG 290800Z 01008KT 4SM -SN BKN008 OVC018 M05/M12 A2996 RMK SF6SC2 SLP147

CYYG;2008-03-29 09:00;CYYG 290900Z 34006KT 4SM -SN SCT009 OVC016 M05/M06 A2997 RMK SF3SC5 SLP153

CYYG;2008-03-29 10:00;CYYG 291000Z 35007KT 5SM -SN SCT010 OVC018 M05/M07 A2998 RMK SF4SC4 SLP157

CYYG;2008-03-29 11:00;CYYG 291100Z 35004KT 10SM -SN SCT010 BKN016 M05/M08 A2999 RMK SF4SC2 SLP160

CYYG;2008-03-29 12:00;CYYG 291200Z 35006KT 15SM -SN FEW010 OVC014 M05/M08 A3001 RMK SF2SC6 SLP167

CYYG;2008-03-29 13:00;CYYG 291300Z 33010KT 15SM BKN020 M05/M10 A3003 RMK SC6 SLP173

CYYG;2008-03-29 14:00;CYYG 291400Z 35009KT 15SM BKN025 M04/M10 A3005 RMK SC5 SLP179

CYYG;2008-03-29 14:18;CYYG 291418Z 34008KT 10SM -SN BKN025 M04/ RMK SC6

CYYG;2008-03-29 15:00;CYYG 291500Z 31010KT 15SM -SHSN BKN030 M04/M09 A3005 RMK SC6 SLP180

CYYG;2008-03-29 16:00;CYYG 291600Z 34007KT 15SM SCT030 M03/M09 A3004 RMK SC4 SLP176

CYYG;2008-03-29 17:00;CYYG 291700Z 34008KT 15SM FEW030 M03/M11 A3004 RMK SC2 SLP175

CYYG;2008-03-29 18:00;CYYG 291800Z 30009KT 15SM FEW030 M02/M12 A3004 RMK SC1 SLP175

CYYG;2008-03-29 19:00;CYYG 291900Z 31010G15KT 15SM FEW030 M02/M12 A3005 RMK SC1 SLP178

CYYG;2008-03-29 20:00;CYYG 292000Z 33008KT 15SM FEW030 M03/M13 A3005 RMK SC1 SLP178

CYYG;2008-03-29 21:00;CYYG 292100Z 36007KT 15SM FEW030 M03/M12 A3006 RMK SC1 SLP182

CYYG;2008-03-29 22:00;CYYG 292200Z 36007KT 15SM FEW030 M04/M13 A3007 RMK SC1 SLP187

CYYG;2008-03-29 23:00;CYYG 292300Z 35003KT 15SM FEW075 BKN250 M05/M13 A3009 RMK AC2CI1 SLP193

CYYG;2008-03-30 00:00;CYYG 300000Z 32002KT 15SM FEW080 FEW250 M05/M12 A3010 RMK AC1CI1 SLP195

CYYG;2008-03-30 01:00;CYYG 300100Z 28004KT 15SM FEW080 FEW250 M05/M13 A3010 RMK AC1CI1 SLP197

CYYG;2008-03-30 02:00;CYYG 300200Z 27006KT 15SM SKC M05/M14 A3011 RMK SLP198

CYYG;2008-03-30 03:00;CYYG 300300Z 28005KT 15SM SKC M06/M13 A3011 RMK SLP200

CYYG;2008-03-30 04:00;CYYG 300400Z 27007KT 15SM SKC M05/M13 A3012 RMK SLP201

CYYG;2008-03-30 05:00;CYYG 300500Z 27006KT 15SM FEW100 M06/M13 A3012 RMK AC2 SLP202

CYYG;2008-03-30 06:00;CYYG 300600Z 28007KT 15SM BKN024 BKN070 M06/M12 A3012 RMK SC5AC2 SLP203

CYYG;2008-03-30 06:32;CYYG 300632Z 29010KT 15SM -SHSN BKN020 OVC045 M05/ RMK SC6SC2

CYYG;2008-03-30 07:00;CYYG 300700Z 29009KT 8SM -SN BKN018 OVC030 M05/M08 A3013 RMK SC7SC1 SLP205

CYYG;2008-03-30 07:22;CYYG 300722Z 29010KT 2 1/2SM -SN BKN012 OVC024 M05/ RMK SC6SC2

CYYG;2008-03-30 08:00;CYYG 300800Z 29009KT 1 1/2SM -SN VV006 M06/M07 A3013 RMK SN8 SLP207

CYYG;2008-03-30 08:28;CYYG 300828Z 31008KT 2 1/2SM -SN BKN009 OVC020 M05/ RMK SF6SC2

CYYG;2008-03-30 08:42;CYYG 300842Z 32006KT 1SM R03/3000VP6000FT/D -SN VV005 M05/ RMK SN8

CYYG;2008-03-30 09:00;CYYG 300900Z 34009KT 2SM -SN BKN007 OVC015 M04/M06 A3016 RMK SF6SC2 SLP215

CYYG;2008-03-30 09:23;CYYG 300923Z 36010G16KT 12SM -SHSN DRSN BKN021 BKN068 M04/ RMK SC5AC2

CYYG;2008-03-30 10:00;CYYG 301000Z 36011G18KT 8SM -SHSN DRSN BKN012 OVC028 M04/M07 A3019 RMK SC7SC1 /S01/ SLP227

CYYG;2008-03-30 10:37;CYYG 301037Z 01011G17KT 15SM BKN016 M04/ RMK SC5 OCNL -SHSN

CYYG;2008-03-30 11:00;CYYG 301100Z 01012G18KT 15SM DRSN SCT016 M04/M08 A3024 RMK SC4 OCNL -SHSN SLP244

CYYG;2008-03-30 11:34;CYYG 301134Z 02016G21KT 12SM -SHSN FEW023 BKN042 M04/ RMK SC2SC3

CYYG;2008-03-30 12:00;CYYG 301200Z 01014G22KT 8SM -SHSN DRSN BKN023 BKN042 M04/M09 A3029 RMK SC6SC2 SLP260

CYYG;2008-03-30 12:23;CYYG 301223Z 36010G15KT 2 1/2SM -SHSN DRSN FEW012 OVC023 M04/ RMK SC2SC6

CYYG;2008-03-30 12:51;CYYG 301251Z 36011G17KT 3SM -SHSN DRSN FEW012 OVC023 M03/ RMK SC2SC6

CYYG;2008-03-30 13:00;CYYG 301300Z CCA 36010G17KT 2 1/2SM -SHSN DRSN SCT012 BKN033 M03/M05 A3033 RMK SC3SC4 SLP274

CYYG;2008-03-30 14:00;CYYG 301400Z 36013G19KT 1 1/2SM R03/4000VP6000FT/U -SHSN DRSN OVC012 M03/M05 A3036 RMK SF8 SLP285

CYYG;2008-03-30 14:36;CYYG 301436Z 36017G25KT 2 1/2SM -SHSN DRSN OVC012 M03/ RMK SF8

CYYG;2008-03-30 15:00;CYYG 301500Z 01020G27KT 4SM -SHSN DRSN OVC012 M03/M05 A3040 RMK SF8 SLP299

CYYG;2008-03-30 15:15;CYYG 301515Z 01014G24KT 12SM -SHSN DRSN BKN012 M02/ RMK SC6

CYYG;2008-03-30 16:00;CYYG 301600Z 01016G26KT 12SM -SHSN DRSN OVC013 M03/M06 A3043 RMK SC8 PCPN VRY LGT SLP308

CYYG;2008-03-30 16:29;CYYG 301629Z 35018G24KT 12SM DRSN OVC012 M03/ RMK SC8

CYYG;2008-03-30 17:00;CYYG 301700Z 36015G21KT 12SM DRSN OVC012 M03/M06 A3046 RMK SC8 SLP318

CYYG;2008-03-30 18:00;CYYG 301800Z 36012G21KT 15SM DRSN OVC012 M03/M06 A3048 RMK SC8 SLP324

CYYG;2008-03-30 19:00;CYYG 301900Z 01015G21KT 15SM DRSN OVC013 M03/M06 A3050 RMK SC8 SLP331

CYYG;2008-03-30 20:00;CYYG 302000Z 36014G19KT 15SM DRSN BKN016 M03/M07 A3052 RMK SC7 SLP338

CYYG;2008-03-30 21:00;CYYG 302100Z 36014G19KT 15SM FEW016 M03/M07 A3053 RMK SC2 SLP343

CYYG;2008-03-30 22:00;CYYG 302200Z 02010KT 15SM FEW016 M03/M07 A3055 RMK SC1 SLP347

CYYG;2008-03-30 23:00;CYYG 302300Z 32003KT 15SM FEW020 FEW250 M05/M08 A3057 RMK SC1CI1 SLP355

CYYG;2008-03-31 00:00;CYYG 310000Z 33003KT 15SM SKC M06/M08 A3059 RMK SLP361

CYYG;2008-03-31 01:00;CYYG 310100Z 34004KT 15SM SKC M06/M08 A3060 RMK SLP366

CYYG;2008-03-31 02:00;CYYG 310200Z 32002KT 15SM SKC M07/M08 A3061 RMK SLP370

CYYG;2008-03-31 03:00;CYYG 310300Z 29003KT 15SM SKC M08/M09 A3063 RMK SLP374

CYYG;2008-03-31 04:00;CYYG 310400Z 28004KT 15SM SKC M07/M09 A3063 RMK SLP374

CYYG;2008-03-31 05:00;CYYG 310500Z 26006KT 15SM SKC M07/M09 A3063 RMK SLP376

CYYG;2008-03-31 06:00;CYYG 310600Z 25006KT 15SM SKC M08/M10 A3063 RMK SLP374

CYYG;2008-03-31 07:00;CYYG 310700Z 26006KT 15SM SKC M07/M09 A3062 RMK SLP372

CYYG;2008-03-31 08:00;CYYG 310800Z 27007KT 15SM SKC M07/M09 A3061 RMK SLP370

CYYG;2008-03-31 09:00;CYYG 310900Z 26006KT 15SM SKC M06/M10 A3062 RMK SLP371

CYYG;2008-03-31 10:00;CYYG 311000Z 26007KT 15SM BKN200 M06/M11 A3061 RMK CI2 SLP368

CYYG;2008-03-31 11:00;CYYG 311100Z 26006KT 15SM BKN250 M05/M10 A3062 RMK CI2 SLP371

CYYG;2008-03-31 12:00;CYYG 311200Z 26005KT 15SM BKN200 M03/M09 A3063 RMK CI2 SLP374

CYYG;2008-03-31 13:00;CYYG 311300Z 26005KT 15SM BKN200 M01/M10 A3062 RMK CI4 SLP372

CYYG;2008-03-31 14:00;CYYG 311400Z 27005KT 15SM OVC250 01/M11 A3062 RMK CS4 /HALO/ SLP373

CYYG;2008-03-31 15:00;CYYG 311500Z 21008KT 15SM SCT150 OVC250 01/M09 A3060 RMK AS3CS2 SLP366

CYYG;2008-03-31 16:00;CYYG 311600Z 20007KT 15SM SCT150 OVC250 02/M09 A3058 RMK AS2CS3 SLP357

CYYG;2008-03-31 17:00;CYYG 311700Z 22007KT 15SM BKN140 OVC250 02/M07 A3055 RMK AS5CS2 SLP349

CYYG;2008-03-31 18:00;CYYG 311800Z 22007KT 15SM BKN150 OVC250 03/M08 A3053 RMK AS3CS2 SLP341

CYYG;2008-03-31 19:00;CYYG 311900Z 20006KT 15SM OVC140 03/M06 A3050 RMK AS6 SLP329

CYYG;2008-03-31 20:00;CYYG 312000Z 18006KT 15SM OVC140 03/M06 A3047 RMK AS6 SLP322

CYYG;2008-03-31 21:00;CYYG 312100Z 19007KT 15SM BKN097 02/M07 A3047 RMK AS7 SLP321

CYYG;2008-03-31 22:00;CYYG 312200Z 19006KT 15SM BKN078 BKN092 00/M06 A3047 RMK AS5AS2 SLP319

CYYG;2008-03-31 23:00;CYYG 312300Z 23004KT 15SM BKN075 OVC200 01/M05 A3044 RMK AS5CI1 SLP309

CYYG;2008-04-01 01:00;CYYG 010100Z 24004KT 15SM BKN068 OVC092 01/M05 A3046 RMK AC6AS2 SLP317

CYYG;2008-04-01 01:39;CYYG 010139Z 24012G17KT 15SM -SN SCT053 OVC061 01/ RMK SC3SC5

CYYG;2008-04-01 02:00;CYYG 010200Z 23008KT 15SM -SN FEW044 OVC055 01/M03 A3040 RMK SC2SC6 PRESFR SLP297

CYYG;2008-04-01 03:00;CYYG 010300Z 22009KT 15SM -SN OVC055 01/M03 A3037 RMK SC8 SLP287

CYYG;2008-04-01 04:00;CYYG 010400Z 20010KT 10SM -SN FEW007 BKN020 OVC040 M00/M02 A3036 RMK SF2SC4SC2 SLP282

CYYG;2008-04-01 04:17;CYYG 010417Z 19010KT 5SM -SN BKN005 OVC010 M00/ RMK SF6SF2

CYYG;2008-04-01 05:00;CYYG 010500Z 18010KT 5SM -SN OVC003 M01/M01 A3032 RMK SF8 SLP269

CYYG;2008-04-01 06:00;CYYG 010600Z 18011KT 3SM -SN OVC003 M01/M01 A3029 RMK SF8 /S01/ SLP260

CYYG;2008-04-01 07:00;CYYG 010700Z 18012KT 2SM -SN OVC003 M01/M01 A3026 RMK SF8 SLP249

CYYG;2008-04-01 07:06;CYYG 010706Z 17011KT 1SM R03/5500FT/D -SN OVC003 M01/ RMK SN2SF6

CYYG;2008-04-01 08:00;CYYG 010800Z 18010KT 1SM R03/6000FT/N -SN OVC003 M00/M01 A3023 RMK SN2SF6 /S01/ SLP239

CYYG;2008-04-01 09:00;CYYG 010900Z 17009KT 1SM R03/P6000FT/D -SN OVC003 M00/M01 A3019 RMK SN2SF6 SLP225

CYYG;2008-04-01 10:00;CYYG 011000Z CCA 17009KT 1SM R03/P6000FT/U -SN OVC003 M00/M01 A3017 RMK SN2SF6 /S02/ SLP217

CYYG;2008-04-01 11:00;CYYG 011100Z 16008KT 1SM R03/P6000FT/U -SN OVC003 00/M00 A3013 RMK SN3SF5 SLP206

CYYG;2008-04-01 11:14;CYYG 011114Z 16006KT 1 1/2SM -SN BR OVC003 00/ RMK SF8

CYYG;2008-04-01 12:00;CYYG 011200Z 16006KT 2SM -SN BR OVC002 00/M00 A3012 RMK SF8 /S07/ SLP201

CYYG;2008-04-01 13:00;CYYG 011300Z 17006KT 2 1/2SM -RASN BR OVC002 00/00 A3007 RMK SF8 SLP186

CYYG;2008-04-01 13:40;CYYG 011340Z 15006KT 6SM -RA BR OVC002 01/ RMK SF8

CYYG;2008-04-01 14:00;CYYG 011400Z 16005KT 10SM OVC002 01/00 A3005 RMK ST8 SLP179

CYYG;2008-04-01 14:45;CYYG 011445Z 16005KT 8SM OVC003 01/ RMK ST8

CYYG;2008-04-01 15:00;CYYG 011500Z 17008KT 5SM BR OVC002 01/01 A3003 RMK ST8 SLP170

CYYG;2008-04-01 16:00;CYYG 011600Z 14007KT 6SM -DZ BR OVC003 02/01 A2997 RMK ST8 PRESFR SLP150

CYYG;2008-04-01 16:48;CYYG 011648Z 15008KT 3SM -RA BR OVC003 02/ RMK ST8

CYYG;2008-04-01 17:00;CYYG 011700Z 15008KT 3SM -RA BR OVC003 02/01 A2995 RMK ST8 SLP143

CYYG;2008-04-01 17:22;CYYG 011722Z 14007KT 1 1/2SM BR OVC002 02/ RMK ST8

CYYG;2008-04-01 18:00;CYYG 011800Z 15007KT 1 1/2SM -RA BR OVC002 02/01 A2991 RMK ST8 SLP130

CYYG;2008-04-01 18:19;CYYG 011819Z 15007KT 5/8SM R03/P6000FT/D -RA BR OVC002 02/ RMK FG2ST6

CYYG;2008-04-01 18:40;CYYG 011840Z 14006KT 1SM R03/4500VP6000FT/D -RA BR OVC002 02/ RMK FG1ST7

CYYG;2008-04-01 18:45;CYYG 011845Z 14006KT 1/2SM R03/2400VP6000FT/D FG VV002 02/ RMK FG8

CYYG;2008-04-01 19:00;CYYG 011900Z 15008KT 3/8SM R03/1400V2000FT/D -SHRA FG VV002 02/01 A2987 RMK FG8 SLP118

CYYG;2008-04-01 19:45;CYYG 011945Z 15008KT 1/4SM R03/1000FT/N -DZ FG VV002 02/ RMK FG8

CYYG;2008-04-01 20:00;CYYG 012000Z 15008KT 1/8SM R03/1000FT/N -DZ FG VV002 02/02 A2983 RMK FG8 SLP103

CYYG;2008-04-01 20:10;CYYG 012010Z 15007KT 1/4SM R03/1100V1800FT/N -DZ FG VV002 02/ RMK FG8

CYYG;2008-04-01 21:00;CYYG 012100Z 14007KT 1/4SM R03/1200FT/N -DZ FG VV002 02/02 A2979 RMK FG8 SLP091

CYYG;2008-04-01 21:31;CYYG 012131Z 15008KT 1/4SM R03/1200FT/N -SHRA FG VV002 03/ RMK FG8

CYYG;2008-04-01 22:00;CYYG 012200Z 15008KT 3/8SM R03/1400V2600FT/D -SHRA FG VV002 03/02 A2976 RMK FG8 SLP080

CYYG;2008-04-01 22:09;CYYG 012209Z 15008KT 1/4SM R03/1200V1800FT/N -SHRA FG VV002 03/ RMK FG8

CYYG;2008-04-01 23:00;CYYG 012300Z 16010KT 1/4SM R03/1800FT/N -RA FG VV001 04/03 A2972 RMK FG8 SLP066

CYYG;2008-04-01 23:49;CYYG 012349Z 17007KT 1/8SM R03/1200FT/N -DZ FG VV001 04/ RMK FG8

CYYG;2008-04-02 00:00;CYYG 020000Z 18007KT 1/8SM R03/1200FT/N -DZ FG VV001 04/04 A2970 RMK FG8 SLP058

CYYG;2008-04-02 00:16;CYYG 020016Z 19013KT 1/2SM R03/1600V2600FT/N -RA FG OVC004 06/ RMK FG6SF2

CYYG;2008-04-02 00:52;CYYG 020052Z 19010KT 1/4SM R03/1600FT/N -RA FG VV001 05/ RMK FG8

CYYG;2008-04-02 01:00;CYYG 020100Z 19010KT 1/4SM R03/1600FT/N -RA FG VV001 05/05 A2968 RMK FG8 SLP051

CYYG;2008-04-02 02:00;CYYG 020200Z 20008KT 1/4SM R03/1600FT/N -RA FG VV001 05/05 A2966 RMK FG8 SLP045

CYYG;2008-04-02 03:00;CYYG 020300Z 21008KT 1/4SM R03/2000FT/N -RA FG VV002 06/06 A2963 RMK FG8 SLP036

CYYG;2008-04-02 03:18;CYYG 020318Z 22008KT 1 1/2SM R03/2200VP6000FT/U -RA BR BKN003 OVC008 06/ RMK FG2SF3SF2

CYYG;2008-04-02 03:35;CYYG 020335Z 22008G15KT 3SM -RA BR OVC003 07/ RMK SF8

CYYG;2008-04-02 04:00;CYYG 020400Z 22009KT 5SM -RA BR OVC003 07/07 A2961 RMK SF8 SLP028

CYYG;2008-04-02 04:08;CYYG 020408Z 22006KT 1/2SM R03/2400VP6000FT/D -RA FG VV001 06/ RMK FG8

CYYG;2008-04-02 05:00;CYYG 020500Z 19005KT 1/4SM R03/1600FT/N FG VV001 05/05 A2958 RMK FG8 SLP017

CYYG;2008-04-02 06:00;CYYG 020600Z 16005KT 1/8SM R03/1200FT/N FG VV001 05/04 A2954 RMK FG8 SLP004

CYYG;2008-04-02 07:00;CYYG 020700Z 18006KT 1/4SM R03/1400FT/N FG VV001 04/04 A2949 RMK FG8 SLP988

CYYG;2008-04-02 07:29;CYYG 020729Z 21005KT 1/4SM R03/1800FT/N -DZ FG VV002 06/ RMK FG8

CYYG;2008-04-02 08:00;CYYG 020800Z 20008KT 1/2SM R03/1600V4000FT/U -DZ FG VV002 07/07 A2944 RMK FG8 SLP973

CYYG;2008-04-02 08:03;CYYG 020803Z 20010KT 3SM -DZ BR BKN002 OVC008 07/ RMK SF5SF3

CYYG;2008-04-02 08:49;CYYG 020849Z 22008KT 1/2SM R03/3000V5000FT/D -DZ FG VV002 06/ RMK FG8

CYYG;2008-04-02 09:00;CYYG 020900Z 22008KT 1/2SM R03/2800V4500FT/D -DZ FG VV002 06/06 A2943 RMK FG8 SLP967

CYYG;2008-04-02 09:17;CYYG 020917Z 22012KT 2SM -SHRA BR BKN002 OVC008 07/ RMK SF6SF2

CYYG;2008-04-02 09:23;CYYG 020923Z 22012G18KT 10SM -SHRA SCT002 BKN005 OVC019 07/ RMK SF3SF2SC2

CYYG;2008-04-02 09:35;CYYG 020935Z 21011KT 15SM FEW003 OVC120 07/ RMK SF2AC6

CYYG;2008-04-02 10:00;CYYG 021000Z 21008KT 15SM FEW003 SCT120 06/06 A2939 RMK SF2AC2 SLP953

CYYG;2008-04-02 10:02;CYYG 021002Z 20008KT 15SM BKN002 BKN120 06/ RMK SF6AC1 VIS E-SW 1

CYYG;2008-04-02 10:06;CYYG 021006Z 21008KT 1/2SM R03/2600VP6000FT/D FG VV002 06/ RMK FG8

CYYG;2008-04-02 10:33;CYYG 021033Z 21006KT 3SM BR OVC002 06/ RMK SF8

CYYG;2008-04-02 10:46;CYYG 021046Z 21009KT 1/2SM R03/1600VP6000FT/D FG BKN002 BKN120 06/ RMK FG2SF2AC2

CYYG;2008-04-02 10:53;CYYG 021053Z 22007KT 12SM BKN007 BKN025 06/ RMK SF5SC2

CYYG;2008-04-02 11:00;CYYG 021100Z 24009KT 15SM BKN007 OVC015 07/06 A2941 RMK SF5SC3 VIS LWR N SLP960

CYYG;2008-04-02 11:28;CYYG 021128Z 25017KT 8SM -SHRA OVC005 06/ RMK SF8

CYYG;2008-04-02 11:49;CYYG 021149Z 27014G24KT 15SM -SHRA BKN007 OVC030 05/ RMK SF5SC3

CYYG;2008-04-02 12:00;CYYG 021200Z 27013G19KT 15SM -SHRA SCT007 OVC031 05/04 A2944 RMK SF4SC4 SLP969

CYYG;2008-04-02 12:26;CYYG 021226Z 28016KT 15SM FEW007 OVC035 05/ RMK SF2SC6

CYYG;2008-04-02 13:00;CYYG 021300Z 27016KT 15SM FEW012 OVC042 04/M01 A2945 RMK SC1SC8 SLP974

CYYG;2008-04-02 14:00;CYYG 021400Z 27012G18KT 15SM FEW012 BKN038 05/M01 A2947 RMK SC2SC6 SLP981

CYYG;2008-04-02 15:00;CYYG 021500Z 28015G25KT 15SM FEW012 BKN031 04/M01 A2949 RMK SC2SC5 SLP987

CYYG;2008-04-02 16:00;CYYG 021600Z 26016G26KT 15SM FEW015 BKN035 04/M04 A2950 RMK SC2SC5 SLP989

CYYG;2008-04-02 17:00;CYYG 021700Z 26022G28KT 15SM SCT044 04/M04 A2951 RMK SC3 SLP995

CYYG;2008-04-02 18:00;CYYG 021800Z 27023G30KT 15SM FEW040 04/M05 A2952 RMK SC2 SLP000

CYYG;2008-04-02 19:00;CYYG 021900Z 27018G27KT 15SM FEW040 05/M06 A2953 RMK SC1 SLP001

CYYG;2008-04-02 20:00;CYYG 022000Z 26020G28KT 15SM FEW040 04/M06 A2955 RMK SC1 SLP008

CYYG;2008-04-02 21:00;CYYG 022100Z 26017G28KT 15SM FEW040 04/M07 A2957 RMK SC1 SLP014

CYYG;2008-04-02 22:00;CYYG 022200Z 27019G29KT 15SM FEW040 03/M07 A2959 RMK SC1 SLP023

CYYG;2008-04-02 23:00;CYYG 022300Z 27018G29KT 15SM FEW040 02/M08 A2963 RMK SC2 SLP034

CYYG;2008-04-03 00:00;CYYG 030000Z 27016G21KT 15SM SCT066 01/M08 A2967 RMK SC3 SLP049

CYYG;2008-04-03 01:00;CYYG 030100Z 27015G30KT 15SM FEW060 00/M10 A2969 RMK SC2 SLP056

CYYG;2008-04-03 02:00;CYYG 030200Z 29022G28KT 15SM FEW060 M00/M11 A2971 RMK SC2 SLP063

CYYG;2008-04-03 03:00;CYYG 030300Z 30019G27KT 15SM FEW054 M01/M11 A2973 RMK SC2 SLP070

CYYG;2008-04-03 04:00;CYYG 030400Z 29017G27KT 15SM SCT055 M01/M12 A2975 RMK SC3 SLP075

CYYG;2008-04-03 05:00;CYYG 030500Z 29016G26KT 15SM FEW055 M02/M12 A2978 RMK SC2 SLP085

CYYG;2008-04-03 06:00;CYYG 030600Z 29014G22KT 15SM FEW050 M03/M12 A2979 RMK SC2 SLP092

CYYG;2008-04-03 07:00;CYYG 030700Z 29022G32KT 15SM FEW050 M03/M13 A2982 RMK SC1 SLP100

CYYG;2008-04-03 08:00;CYYG 030800Z 29024G30KT 15SM FEW050 M04/M13 A2982 RMK SC1 SLP102

CYYG;2008-04-03 09:00;CYYG 030900Z 29017G31KT 15SM FEW040 M04/M14 A2984 RMK SC1 SLP107

CYYG;2008-04-03 10:00;CYYG 031000Z 29018G30KT 15SM FEW040 M05/M14 A2985 RMK SC1 SLP110

CYYG;2008-04-03 11:00;CYYG 031100Z 28022G32KT 15SM FEW040 M04/M14 A2988 RMK SC1 SLP122

CYYG;2008-04-03 12:00;CYYG 031200Z 29025G32KT 15SM FEW040 M04/M14 A2990 RMK SC1 SLP129

CYYG;2008-04-03 13:00;CYYG 031300Z 28024G38KT 15SM FEW040 M03/M15 A2991 RMK SC1 SLP132

CYYG;2008-04-03 14:00;CYYG 031400Z 28023G38KT 15SM FEW250 M02/M15 A2991 RMK CI1 SLP131

CYYG;2008-04-03 15:00;CYYG 031500Z 28026G35KT 15SM FEW250 M01/M13 A2990 RMK CI0 SLP127

CYYG;2008-04-03 16:00;CYYG 031600Z 28024G37KT 15SM FEW040 01/M11 A2989 RMK SC1 SLP123

CYYG;2008-04-03 17:00;CYYG 031700Z 28028G39KT 15SM FEW040 02/M10 A2988 RMK SC1 SLP120

CYYG;2008-04-03 18:00;CYYG 031800Z 28023G34KT 15SM FEW040 FEW250 03/M10 A2987 RMK SC1CI1 SLP118

CYYG;2008-04-03 19:00;CYYG 031900Z 29029G38KT 15SM FEW040 SCT250 04/M10 A2987 RMK SC2CI1 SLP116

CYYG;2008-04-03 20:00;CYYG 032000Z 29024G34KT 15SM FEW040 FEW080 FEW250 04/M10 A2987 RMK SC1AC1CI1 SLP118

CYYG;2008-04-03 21:00;CYYG 032100Z 29024G34KT 15SM FEW040 FEW080 FEW250 04/M09 A2989 RMK SC1AC1CI1 SLP124

CYYG;2008-04-03 22:00;CYYG 032200Z 29018G24KT 15SM FEW040 FEW080 FEW250 04/M09 A2991 RMK SC1AC1CI1 SLP130

CYYG;2008-04-03 23:00;CYYG 032300Z 29017G24KT 15SM FEW040 03/M08 A2994 RMK SC1 SLP141

CYYG;2008-04-04 00:00;CYYG 040000Z 29012G17KT 15SM FEW040 03/M08 A2998 RMK SC1 SLP153

CYYG;2008-04-04 01:00;CYYG 040100Z 29019G25KT 15SM SKC 03/M08 A3001 RMK SLP163

CYYG;2008-04-04 02:00;CYYG 040200Z 29014G20KT 15SM SKC 03/M07 A3003 RMK SLP171

CYYG;2008-04-04 02:23;CYYG 040223Z 28010G18KT 15SM SKC 02/

CYYG;2008-04-04 03:00;CYYG 040300Z 29013G21KT 15SM FEW062 03/M06 A3003 RMK SC2 SLP172

CYYG;2008-04-04 04:00;CYYG 040400Z 27010G15KT 15SM BKN061 03/M06 A3005 RMK SC7 SLP178

CYYG;2008-04-04 04:30;CYYG 040430Z 26008KT 15SM FEW060 02/ RMK SC2

CYYG;2008-04-04 05:00;CYYG 040500Z 26007KT 15SM FEW060 02/M07 A3006 RMK SC2 SLP182

CYYG;2008-04-04 06:00;CYYG 040600Z 27007KT 15SM FEW060 01/M07 A3007 RMK SC1 SLP186

CYYG;2008-04-04 07:00;CYYG 040700Z 20006KT 15SM FEW070 M00/M07 A3008 RMK AC2 SLP189

CYYG;2008-04-04 08:00;CYYG 040800Z 26008KT 15SM FEW070 01/M07 A3009 RMK AC1 SLP190

CYYG;2008-04-04 09:00;CYYG 040900Z 27008KT 15SM FEW070 01/M08 A3008 RMK AC1 SLP189

CYYG;2008-04-04 10:00;CYYG 041000Z 27010KT 15SM FEW070 02/M08 A3009 RMK AC1 SLP193

CYYG;2008-04-04 11:00;CYYG 041100Z 27009KT 15SM SKC 02/M08 A3012 RMK SLP200

CYYG;2008-04-04 12:00;CYYG 041200Z 27010G15KT 15SM SKC 04/M08 A3013 RMK SLP205

CYYG;2008-04-04 13:00;CYYG 041300Z 29011G16KT 15SM FEW250 05/M07 A3014 RMK CI1 SLP208

CYYG;2008-04-04 14:00;CYYG 041400Z 28010G15KT 15SM FEW250 06/M06 A3014 RMK CI1 SLP207

CYYG;2008-04-04 15:00;CYYG 041500Z 27009G16KT 15SM FEW250 08/M05 A3014 RMK CI1 SLP210

CYYG;2008-04-04 16:00;CYYG 041600Z 27011G16KT 15SM FEW250 08/M05 A3013 RMK CI1 SLP205

CYYG;2008-04-04 17:00;CYYG 041700Z 27009KT 15SM FEW050 FEW250 09/M05 A3011 RMK CU1CI1 SLP197

CYYG;2008-04-04 18:00;CYYG 041800Z 25008G15KT 15SM BKN250 10/M05 A3010 RMK CI3 SLP194

CYYG;2008-04-04 19:00;CYYG 041900Z 25012KT 15SM SCT080 OVC220 10/M08 A3007 RMK AC3CI4 SLP185

CYYG;2008-04-04 20:00;CYYG 042000Z 25007KT 15SM FEW080 OVC220 09/M08 A3005 RMK AC1CI6 SLP179

CYYG;2008-04-04 21:00;CYYG 042100Z 23007KT 15SM OVC160 07/M04 A3005 RMK AC8 SLP177

CYYG;2008-04-04 22:00;CYYG 042200Z 00000KT 15SM OVC150 05/M04 A3004 RMK AC8 SLP174

CYYG;2008-04-04 23:00;CYYG 042300Z 25006KT 15SM OVC130 04/M03 A3003 RMK AC8 SLP172

CYYG;2008-04-05 00:00;CYYG 050000Z 23004KT 15SM OVC100 04/M02 A3004 RMK AC8 SLP174

CYYG;2008-04-05 01:00;CYYG 050100Z 22005KT 15SM OVC090 04/M02 A3004 RMK AC8 SLP173

CYYG;2008-04-05 02:00;CYYG 050200Z 13003KT 15SM OVC070 02/M02 A3000 RMK AC8 SLP162

CYYG;2008-04-05 03:00;CYYG 050300Z 16006KT 15SM OVC037 03/M03 A3001 RMK SC8 SLP163

CYYG;2008-04-05 03:14;CYYG 050314Z 14004KT 15SM -SHRA OVC025 03/ RMK SC8

CYYG;2008-04-05 04:00;CYYG 050400Z 16006KT 15SM -SHRA OVC025 03/M00 A2999 RMK SC8 SLP157

CYYG;2008-04-05 05:00;CYYG 050500Z 13005KT 12SM -SHRA SCT009 OVC016 02/01 A2995 RMK SF3SC5 SLP144

CYYG;2008-04-05 06:00;CYYG 050600Z 12006KT 10SM -SHRA SCT009 OVC020 01/00 A2994 RMK SF3SC5 SLP139

CYYG;2008-04-05 06:38;CYYG 050638Z 10007KT 10SM -RASN SCT009 OVC022 01/ RMK SF4SC4

CYYG;2008-04-05 07:00;CYYG 050700Z 10007KT 10SM -RASN SCT009 OVC020 01/00 A2991 RMK SF4SC4 SLP130

CYYG;2008-04-05 07:16;CYYG 050716Z 10008KT 8SM -RASN OVC005 01/ RMK SF8

CYYG;2008-04-05 08:00;CYYG 050800Z 09007KT 8SM -RASN OVC006 01/00 A2992 RMK SF8 SLP132

CYYG;2008-04-05 09:00;CYYG 050900Z 09013G18KT 8SM -RASN OVC007 01/00 A2988 RMK SF8 SLP119

CYYG;2008-04-05 09:41;CYYG 050941Z 09012KT 12SM -RA OVC007 01/ RMK SF8

CYYG;2008-04-05 10:00;CYYG 051000Z 09010G15KT 10SM -RA OVC005 01/00 A2991 RMK SF8 SLP130

CYYG;2008-04-05 11:00;CYYG 051100Z 09012KT 10SM -DZ OVC005 01/00 A2990 RMK SF8 SLP127

CYYG;2008-04-05 12:00;CYYG 051200Z 11011G16KT 15SM -DZ BKN008 OVC040 02/01 A2992 RMK SF5SC3 SLP135

CYYG;2008-04-05 13:00;CYYG 051300Z 09010G16KT 15SM -DZ BKN008 OVC013 03/01 A2994 RMK SF7SC1 SLP140

CYYG;2008-04-05 14:00;CYYG 051400Z 09015KT 12SM -DZ BKN009 OVC013 03/01 A2995 RMK SF7SC1 SLP145

CYYG;2008-04-05 15:00;CYYG 051500Z 08013KT 8SM -DZ BKN007 OVC014 03/02 A2994 RMK SF7SC1 SLP142

CYYG;2008-04-05 16:00;CYYG 051600Z 05007KT 15SM FEW005 OVC009 03/02 A2994 RMK SF2SF6 INTMT -DZ SLP141

CYYG;2008-04-05 17:00;CYYG 051700Z 03007KT 12SM BKN009 OVC015 03/02 A2995 RMK SF6SC2 SLP145

CYYG;2008-04-05 17:53;CYYG 051753Z 04009KT 12SM -SHRA FEW008 OVC015 02/ RMK SF2SC6

CYYG;2008-04-05 18:00;CYYG 051800Z 04009KT 12SM -SHRA FEW008 SCT015 OVC020 02/01 A2999 RMK SF2SC2SC5 PCPN VERY LGT SLP158

CYYG;2008-04-05 18:31;CYYG 051831Z 05009KT 6SM -RASN FEW015 OVC020 02/ RMK SF2SC6

CYYG;2008-04-05 19:00;CYYG 051900Z 04008KT 10SM -RASN FEW015 OVC020 02/01 A3000 RMK SF2SC6 SLP161

CYYG;2008-04-05 19:44;CYYG 051944Z 05008KT 6SM -SHRA BR SCT005 OVC024 02/ RMK SF3SC5

CYYG;2008-04-05 20:00;CYYG 052000Z 05008KT 8SM -SHRA SCT004 OVC030 03/01 A3001 RMK SF4SC4 SLP165

CYYG;2008-04-05 20:27;CYYG 052027Z 04008KT 8SM -SHRA BKN005 OVC009 02/ RMK SF7SF1

CYYG;2008-04-05 21:00;CYYG 052100Z 05008KT 8SM -SHRA OVC004 02/01 A3003 RMK SF8 SLP170

CYYG;2008-04-05 22:00;CYYG 052200Z 05009KT 12SM -SHRA BKN004 OVC033 01/00 A3004 RMK SF6SC2 SLP175

CYYG;2008-04-05 22:42;CYYG 052242Z 05008KT 15SM SCT004 BKN035 OVC055 01/ RMK SF3SC3SC2

CYYG;2008-04-05 23:00;CYYG 052300Z 05009KT 15SM SCT005 BKN037 OVC050 01/M00 A3007 RMK SF3SC2SC3 SLP185

CYYG;2008-04-06 00:00;CYYG 060000Z 05007KT 15SM FEW005 OVC053 01/M00 A3011 RMK SF2SC6 SLP197

CYYG;2008-04-06 01:00;CYYG 060100Z 05008KT 15SM BKN027 OVC045 01/M00 A3014 RMK SC6SC2 SLP210

CYYG;2008-04-06 02:00;CYYG 060200Z 04012KT 15SM OVC023 00/M01 A3017 RMK SC8 SLP220

CYYG;2008-04-06 03:00;CYYG 060300Z 05009KT 15SM SCT023 OVC110 00/M01 A3019 RMK SC4AC4 SLP225

CYYG;2008-04-06 03:40;CYYG 060340Z 05009KT 15SM FEW004 BKN024 OVC110 00/ RMK SF2SC5AC2

CYYG;2008-04-06 04:00;CYYG 060400Z 05009KT 15SM FEW004 OVC024 00/M01 A3023 RMK SF2SC6 SLP237

CYYG;2008-04-06 05:00;CYYG 060500Z 06008KT 15SM FEW025 OVC043 01/M01 A3024 RMK SC2SC6 SLP242

CYYG;2008-04-06 06:00;CYYG 060600Z CCA 05009KT 15SM FEW024 OVC046 01/M01 A3027 RMK SC2SC6 SLP252

CYYG;2008-04-06 07:00;CYYG 060700Z 05009KT 15SM FEW020 OVC041 00/M01 A3030 RMK SC2SC6 SLP261

CYYG;2008-04-06 08:00;CYYG 060800Z 05008KT 15SM OVC048 00/M01 A3033 RMK SC8 SLP272

CYYG;2008-04-06 09:00;CYYG 060900Z 04007KT 15SM BKN048 BKN240 M00/M02 A3036 RMK SC6CI0 SLP283

CYYG;2008-04-06 10:00;CYYG 061000Z 05010KT 15SM FEW048 BKN240 M01/M02 A3037 RMK SC2CI1 FROIN SLP286

CYYG;2008-04-06 11:00;CYYG 061100Z 05008KT 15SM FEW050 OVC250 01/M01 A3041 RMK SC1CI2 SLP299

CYYG;2008-04-06 12:00;CYYG 061200Z 04009KT 15SM FEW050 OVC250 02/M01 A3042 RMK SC1CI2 SLP305

CYYG;2008-04-06 13:00;CYYG 061300Z 04009KT 15SM FEW050 OVC250 03/M01 A3045 RMK SC1CI2 SLP314

CYYG;2008-04-06 14:00;CYYG 061400Z 04009KT 15SM BKN250 04/M00 A3046 RMK CI2 SLP318

CYYG;2008-04-06 15:00;CYYG 061500Z 04008KT 15SM BKN250 05/M01 A3049 RMK CI2 SLP328

CYYG;2008-04-06 16:00;CYYG 061600Z 03010KT 15SM BKN250 06/M01 A3049 RMK CI2 SLP327

CYYG;2008-04-06 17:00;CYYG 061700Z 04011KT 15SM BKN250 07/M02 A3049 RMK CI2 SLP328

CYYG;2008-04-06 18:00;CYYG 061800Z 04012KT 15SM SCT250 07/M01 A3050 RMK CI2 SLP329

CYYG;2008-04-06 19:00;CYYG 061900Z 04011KT 15SM FEW250 06/M03 A3050 RMK CI1 SLP329

CYYG;2008-04-06 20:00;CYYG 062000Z 05010KT 15SM FEW250 05/M03 A3049 RMK CI1 SLP327

CYYG;2008-04-06 21:00;CYYG 062100Z 04009KT 15SM FEW250 04/M03 A3051 RMK CI1 SLP333

CYYG;2008-04-06 22:00;CYYG 062200Z 04010KT 15SM FEW250 03/M04 A3052 RMK CI1 SLP339

CYYG;2008-04-06 23:00;CYYG 062300Z 02005KT 15SM FEW250 M00/M04 A3054 RMK CI1 SLP344

CYYG;2008-04-07 00:00;CYYG 070000Z 02005KT 15SM SKC M01/M04 A3055 RMK SLP349

CYYG;2008-04-07 01:00;CYYG 070100Z 03004KT 15SM SKC M02/M04 A3056 RMK SLP351

CYYG;2008-04-07 02:00;CYYG 070200Z 05005KT 15SM SKC M03/M05 A3056 RMK FROIN SLP351

CYYG;2008-04-07 03:00;CYYG 070300Z 03006KT 15SM SKC M03/M05 A3055 RMK FROIN SLP347

CYYG;2008-04-07 04:00;CYYG 070400Z 03006KT 15SM SKC M03/M06 A3055 RMK FROIN SLP346

CYYG;2008-04-07 05:00;CYYG 070500Z 02003KT 15SM SKC M03/M05 A3055 RMK FROIN SLP347

CYYG;2008-04-07 06:00;CYYG 070600Z 01003KT 15SM SKC M04/M06 A3055 RMK FROIN SLP346

CYYG;2008-04-07 07:00;CYYG 070700Z 02003KT 15SM SKC M04/M06 A3055 RMK FROIN SLP347

CYYG;2008-04-07 08:00;CYYG 070800Z 01003KT 15SM SKC M04/M06 A3055 RMK FROIN SLP349

CYYG;2008-04-07 09:00;CYYG 070900Z 01004KT 15SM SKC M05/M06 A3056 RMK FROIN SLP351

CYYG;2008-04-07 10:00;CYYG 071000Z 01006KT 15SM FEW300 M03/M05 A3056 RMK CI1 FROIN SLP352

CYYG;2008-04-07 11:00;CYYG 071100Z 02005KT 15SM FEW300 M02/M04 A3058 RMK CI0 SLP356

CYYG;2008-04-07 12:00;CYYG 071200Z 03008KT 15SM FEW300 00/M03 A3058 RMK CI0 SLP357

CYYG;2008-04-07 13:00;CYYG 071300Z 04008KT 15SM FEW300 03/M03 A3059 RMK CI0 SLP360

CYYG;2008-04-07 14:00;CYYG 071400Z 05008KT 15SM FEW300 04/M04 A3059 RMK CI0 SLP360

CYYG;2008-04-07 15:00;CYYG 071500Z 04007KT 15SM FEW300 06/M03 A3059 RMK CI0 SLP360

CYYG;2008-04-07 16:00;CYYG 071600Z 04009KT 15SM FEW300 08/M04 A3058 RMK CI0 SLP359

CYYG;2008-04-07 17:00;CYYG 071700Z 05011KT 15SM FEW300 08/M03 A3057 RMK CI0 SLP355

CYYG;2008-04-07 18:00;CYYG 071800Z 03013KT 15SM FEW300 07/M05 A3057 RMK CI0 SLP353

CYYG;2008-04-07 19:00;CYYG 071900Z 04011KT 15SM FEW300 06/M05 A3056 RMK CI1 SLP350

CYYG;2008-04-07 20:00;CYYG 072000Z 04013KT 15SM FEW300 05/M06 A3055 RMK CI1 SLP349

CYYG;2008-04-07 21:00;CYYG 072100Z 04011KT 15SM FEW300 04/M06 A3054 RMK CI1 SLP345

CYYG;2008-04-07 22:00;CYYG 072200Z 02010KT 15SM FEW300 02/M08 A3054 RMK CI1 SLP344

CYYG;2008-04-07 23:00;CYYG 072300Z 01008KT 15SM FEW300 01/M06 A3054 RMK CI1 SLP345

CYYG;2008-04-08 00:00;CYYG 080000Z 01008KT 15SM FEW300 M00/M04 A3055 RMK CI0 SLP346

CYYG;2008-04-08 01:00;CYYG 080100Z 01007KT 15SM SKC M01/M04 A3053 RMK SLP342

CYYG;2008-04-08 02:00;CYYG 080200Z 01006KT 15SM SKC M01/M04 A3054 RMK FROIN SLP344

CYYG;2008-04-08 03:00;CYYG 080300Z 02007KT 15SM SKC M01/M04 A3052 RMK FROIN SLP339

CYYG;2008-04-08 04:00;CYYG 080400Z 36005KT 15SM SKC M01/M04 A3052 RMK FROIN SLP338

CYYG;2008-04-08 05:00;CYYG 080500Z 01004KT 15SM SKC M02/M05 A3052 RMK FROIN SLP337

CYYG;2008-04-08 06:00;CYYG 080600Z 36005KT 15SM SKC M02/M05 A3050 RMK FROIN SLP331

CYYG;2008-04-08 07:00;CYYG 080700Z 34006KT 15SM SKC M01/M06 A3049 RMK SLP328

CYYG;2008-04-08 08:00;CYYG 080800Z 34008KT 15SM SKC M02/M06 A3048 RMK SLP324

CYYG;2008-04-08 09:00;CYYG 080900Z 35007KT 15SM FEW070 M02/M06 A3046 RMK AC1 SLP318

CYYG;2008-04-08 11:00;CYYG 081100Z 35006KT 15SM FEW060 00/M04 A3047 RMK SC2 SLP321

CYYG;2008-04-08 12:00;CYYG 081200Z 36007KT 15SM BKN052 01/M03 A3047 RMK SC5 SLP321

CYYG;2008-04-08 13:00;CYYG 081300Z 02007KT 15SM FEW052 03/M02 A3046 RMK SC2 SLP318

CYYG;2008-04-08 14:00;CYYG 081400Z 35005KT 15SM SCT038 05/M02 A3046 RMK SC3 SLP316

CYYG;2008-04-08 15:00;CYYG 081500Z 36006KT 15SM BKN038 05/M03 A3046 RMK SC6 SLP317

CYYG;2008-04-08 16:00;CYYG 081600Z 35005KT 15SM SCT037 06/M02 A3044 RMK SC3 SLP309

CYYG;2008-04-08 17:00;CYYG 081700Z 36007KT 15SM FEW037 FEW300 07/M01 A3042 RMK SC1CI0 SLP304

CYYG;2008-04-08 18:00;CYYG 081800Z 02010KT 15SM FEW037 FEW300 07/M01 A3040 RMK SC1CI1 SLP297

CYYG;2008-04-08 19:00;CYYG 081900Z 01010KT 15SM FEW037 BKN300 07/M01 A3039 RMK SC1CI1 SLP292

CYYG;2008-04-08 20:00;CYYG 082000Z 02009KT 15SM FEW037 BKN300 05/M01 A3038 RMK SC1CI1 SLP291

CYYG;2008-04-08 21:00;CYYG 082100Z 01008KT 15SM FEW037 SCT300 05/M01 A3039 RMK SC1CI1 SLP292

CYYG;2008-04-08 22:00;CYYG 082200Z 04006KT 15SM FEW037 FEW300 04/M02 A3038 RMK SC1CI0 SLP289

CYYG;2008-04-08 23:00;CYYG 082300Z 35004KT 15SM FEW037 FEW300 02/M03 A3040 RMK SC1CI0 SLP297

CYYG;2008-04-09 00:00;CYYG 090000Z 02004KT 15SM FEW037 SCT068 SCT300 00/M02 A3040 RMK SC1AC2CI0 SLP297

CYYG;2008-04-09 01:00;CYYG 090100Z 04003KT 15SM BKN065 BKN300 00/M02 A3039 RMK SC5CI0 SLP293

CYYG;2008-04-09 02:00;CYYG 090200Z 00000KT 15SM BKN065 M01/M02 A3037 RMK SC5 SLP287

CYYG;2008-04-09 03:00;CYYG 090300Z 00000KT 15SM BKN065 BKN300 M00/M02 A3036 RMK SC5CI0 SLP284

CYYG;2008-04-09 04:00;CYYG 090400Z 00000KT 15SM FEW065 FEW230 M01/M02 A3035 RMK SC2CI1 SLP281

CYYG;2008-04-09 05:00;CYYG 090500Z 23002KT 15SM FEW065 FEW230 00/M01 A3034 RMK SC2CI1 SLP278

CYYG;2008-04-09 06:00;CYYG 090600Z 20003KT 15SM FEW065 FEW230 M01/M02 A3032 RMK SC1CI1 SLP270

CYYG;2008-04-09 07:00;CYYG 090700Z 25003KT 15SM FEW065 FEW230 M00/M02 A3031 RMK SC1CI1 SLP267

CYYG;2008-04-09 08:00;CYYG 090800Z 27002KT 15SM SCT051 M01/M03 A3032 RMK SC3 SLP268

CYYG;2008-04-09 09:00;CYYG 090900Z 28002KT 15SM SCT056 01/M01 A3032 RMK SC4 SLP269

CYYG;2008-04-09 10:00;CYYG 091000Z 20002KT 15SM FEW056 SCT140 M00/M02 A3032 RMK SC1AS2 SLP269

CYYG;2008-04-09 11:00;CYYG 091100Z 14002KT 15SM FEW055 FEW140 SCT240 01/M01 A3032 RMK SC1AS1CI0 SLP268

CYYG;2008-04-09 12:00;CYYG 091200Z 18003KT 15SM FEW035 SCT240 04/M00 A3031 RMK SC1CI1 SLP266

CYYG;2008-04-09 13:00;CYYG 091300Z 22003KT 15SM FEW035 BKN240 05/M00 A3031 RMK SC1CI1 SLP265

CYYG;2008-04-09 14:00;CYYG 091400Z 23004KT 15SM BKN250 08/01 A3031 RMK CI2 SLP266

CYYG;2008-04-09 15:00;CYYG 091500Z 19004KT 15SM BKN250 10/01 A3030 RMK CI2 CONTRAILS SLP261

CYYG;2008-04-09 16:00;CYYG 091600Z 18004KT 15SM SCT250 11/01 A3028 RMK CI1 CONTRAILS SLP255

CYYG;2008-04-09 17:00;CYYG 091700Z 21005KT 15SM SCT250 13/M01 A3026 RMK CI1 CONTRAILS SLP248

CYYG;2008-04-09 18:00;CYYG 091800Z 20006KT 15SM BKN250 14/M04 A3024 RMK CI2 CONTRAILS SLP242

CYYG;2008-04-09 19:00;CYYG 091900Z 20008KT 15SM BKN250 14/M04 A3023 RMK CI2 CONTRAILS SLP239

CYYG;2008-04-09 20:00;CYYG 092000Z 19004KT 15SM BKN250 14/M05 A3021 RMK CI2 SLP231

CYYG;2008-04-09 21:00;CYYG 092100Z 20005KT 15SM BKN250 14/M05 A3020 RMK CI2 SLP227

CYYG;2008-04-09 22:00;CYYG 092200Z 21003KT 15SM BKN250 12/M05 A3019 RMK CI2 SLP225

CYYG;2008-04-09 23:00;CYYG 092300Z 21005KT 15SM BKN250 09/M07 A3019 RMK CI2 SLP226

CYYG;2008-04-10 00:00;CYYG 100000Z 19005KT 15SM BKN250 06/M06 A3020 RMK CI2 SLP227

CYYG;2008-04-10 01:00;CYYG 100100Z 17006KT 15SM BKN250 04/M05 A3018 RMK CI2 SLP223

CYYG;2008-04-10 02:00;CYYG 100200Z 20007KT 15SM SCT250 05/M04 A3017 RMK CI2 SLP217

CYYG;2008-04-10 03:00;CYYG 100300Z 21006KT 15SM FEW250 03/M05 A3015 RMK CI2 SLP211

CYYG;2008-04-10 04:00;CYYG 100400Z 23006KT 15SM FEW250 04/M07 A3013 RMK CI1 SLP206

CYYG;2008-04-10 05:00;CYYG 100500Z 21007KT 15SM FEW250 04/M07 A3013 RMK CI1 SLP204

CYYG;2008-04-10 06:00;CYYG 100600Z 22006KT 15SM FEW250 04/M06 A3012 RMK CI1 SLP199

CYYG;2008-04-10 07:00;CYYG 100700Z 21007KT 15SM FEW160 03/M06 A3011 RMK AC2 SLP196

CYYG;2008-04-10 08:00;CYYG 100800Z 22011KT 15SM FEW190 04/M06 A3010 RMK AC2 SLP195

CYYG;2008-04-10 09:00;CYYG 100900Z 20008KT 15SM SCT190 02/M05 A3009 RMK AC3 SLP192

CYYG;2008-04-10 10:00;CYYG 101000Z 20010KT 15SM BKN250 03/M05 A3009 RMK CS4 SLP190

CYYG;2008-04-10 11:00;CYYG 101100Z 20008KT 15SM BKN220 04/M05 A3007 RMK CI5 SLP183

CYYG;2008-04-10 12:00;CYYG 101200Z 20011KT 15SM BKN200 06/M04 A3003 RMK CI5 SLP171

CYYG;2008-04-10 13:00;CYYG 101300Z 19013KT 15SM SCT140 BKN220 07/M04 A3000 RMK AC3CI3 SLP159

CYYG;2008-04-10 14:00;CYYG 101400Z 20012KT 15SM SCT120 BKN220 08/M02 A2998 RMK AC4CI2 SLP155

CYYG;2008-04-10 15:00;CYYG 101500Z 21011G16KT 15SM FEW070 SCT120 BKN220 09/00 A2997 RMK AC2AC2CI2 VIS W-NW 12 -SHRA SLP150

CYYG;2008-04-10 15:11;CYYG 101511Z 22009KT 15SM -SHRA SCT069 BKN120 BKN220 09/ RMK AC4AC2CI2

CYYG;2008-04-10 16:00;CYYG 101600Z 18009KT 8SM -SHRA BKN060 OVC120 06/03 A2995 RMK SC6AC2 SLP143

CYYG;2008-04-10 17:00;CYYG 101700Z 21011KT 15SM OVC031 06/04 A2994 RMK SC8 OCNL -SHRA SLP139

CYYG;2008-04-10 17:48;CYYG 101748Z 18018G25KT 15SM OVC027 07/ RMK SC8

CYYG;2008-04-10 18:00;CYYG 101800Z CCA 18015G26KT 15SM OVC027 07/05 A2987 RMK SC8 PRESFR SLP117

CYYG;2008-04-10 19:00;CYYG 101900Z 18014G19KT 15SM OVC027 07/05 A2984 RMK SC8 SLP105

CYYG;2008-04-10 20:00;CYYG 102000Z 18010KT 15SM OVC028 06/03 A2983 RMK SC8 SLP104

CYYG;2008-04-10 20:28;CYYG 102028Z 21006KT 5SM -DZ BR OVC013 05/ RMK SC8

CYYG;2008-04-10 21:00;CYYG 102100Z 21005KT 12SM -DZ SCT013 OVC035 06/05 A2982 RMK SC3SC5 SLP101

CYYG;2008-04-10 21:11;CYYG 102111Z 21007KT 8SM -DZ BKN007 OVC025 06/ RMK SF6SC2

CYYG;2008-04-10 21:23;CYYG 102123Z 23008KT 10SM -DZ OVC005 06/ RMK SF8

CYYG;2008-04-10 21:50;CYYG 102150Z 22007KT 12SM SCT006 BKN025 BKN035 06/ RMK SF4SC2SC2

CYYG;2008-04-10 22:00;CYYG 102200Z 22008KT 12SM VCSH FEW006 SCT025 BKN055 06/05 A2982 RMK SF2SC2SC3 SLP099

CYYG;2008-04-10 22:07;CYYG 102207Z 23008KT 12SM BKN006 OVC055 06/ RMK SF6SC2

CYYG;2008-04-10 23:00;CYYG 102300Z 23009KT 12SM OVC005 06/04 A2983 RMK SF8 SLP103

CYYG;2008-04-11 00:00;CYYG 110000Z 24006KT 15SM BKN004 OVC046 05/04 A2982 RMK SF5SC3 SLP101

CYYG;2008-04-11 01:00;CYYG 110100Z 27009KT 15SM FEW006 OVC052 05/04 A2983 RMK SF1SC7 SLP104

CYYG;2008-04-11 02:00;CYYG 110200Z 29007KT 15SM OVC050 05/02 A2983 RMK SC8 SLP102

CYYG;2008-04-11 03:00;CYYG 110300Z 27007KT 15SM OVC046 05/00 A2983 RMK SC8 SLP102

CYYG;2008-04-11 04:00;CYYG 110400Z 27008KT 15SM OVC043 04/M00 A2982 RMK SC8 SLP101

CYYG;2008-04-11 05:00;CYYG 110500Z 28006KT 15SM OVC046 04/M01 A2982 RMK SC8 SLP099

CYYG;2008-04-11 06:00;CYYG 110600Z 30008KT 15SM OVC044 04/M01 A2982 RMK SC8 SLP100

CYYG;2008-04-11 07:00;CYYG 110700Z 27005KT 15SM OVC038 02/M01 A2982 RMK SC8 SLP100

CYYG;2008-04-11 08:00;CYYG 110800Z 27007KT 15SM FEW035 01/M03 A2981 RMK SC2 SLP097

CYYG;2008-04-11 09:00;CYYG 110900Z 26004KT 15SM BKN028 01/M03 A2981 RMK SC5 SLP097

CYYG;2008-04-11 10:00;CYYG 111000Z 27007KT 15SM FEW025 01/M03 A2980 RMK SC2 SLP092

CYYG;2008-04-11 11:00;CYYG 111100Z 28010KT 15SM FEW025 03/M02 A2983 RMK SC1 SLP104

CYYG;2008-04-11 12:00;CYYG 111200Z 29013KT 15SM FEW025 04/M01 A2985 RMK SC1 SLP108

CYYG;2008-04-11 13:00;CYYG 111300Z 31011G17KT 15SM FEW025 05/M01 A2984 RMK SC2 SLP105

CYYG;2008-04-11 14:00;CYYG 111400Z 29011G16KT 15SM BKN025 06/00 A2985 RMK SC6 SLP108

CYYG;2008-04-11 15:00;CYYG 111500Z 29013G18KT 15SM BKN025 BKN037 07/M00 A2985 RMK SC5SC2 SLP109

CYYG;2008-04-11 16:00;CYYG 111600Z 34013G18KT 15SM BKN030 07/M01 A2983 RMK SC6 SLP103

CYYG;2008-04-11 17:00;CYYG 111700Z 33009KT 15SM BKN034 08/M00 A2982 RMK SC6 SLP100

CYYG;2008-04-11 18:00;CYYG 111800Z 34009KT 15SM BKN036 BKN140 08/M00 A2982 RMK SC5AS2 SLP101

CYYG;2008-04-11 19:00;CYYG 111900Z 35006KT 15SM BKN036 08/M01 A2983 RMK SC5 SLP102

CYYG;2008-04-11 20:00;CYYG 112000Z 01010KT 15SM BKN030 BKN058 07/M01 A2983 RMK SC5SC2 BAR READ AT 2030 SLP102

CYYG;2008-04-11 21:00;CYYG 112100Z 01007KT 15SM FEW035 BKN060 06/M02 A2982 RMK SC2SC4 SLP101

CYYG;2008-04-11 22:00;CYYG 112200Z 32005KT 15SM FEW035 BKN060 05/M02 A2985 RMK SC2SC4 SLP109

CYYG;2008-04-11 23:00;CYYG 112300Z 35004KT 15SM SCT052 BKN068 04/M03 A2986 RMK SC3AC3 SLP112

CYYG;2008-04-12 00:00;CYYG 120000Z 01006KT 15SM BKN068 03/M02 A2986 RMK AC6 SLP113

CYYG;2008-04-12 01:00;CYYG 120100Z 02003KT 15SM BKN061 03/M02 A2987 RMK SC7 SLP115

CYYG;2008-04-12 02:00;CYYG 120200Z 33003KT 15SM OVC060 02/M02 A2987 RMK SC8 SLP117

CYYG;2008-04-12 03:00;CYYG 120300Z 00000KT 15SM OVC060 02/M02 A2986 RMK SC8 SLP112

CYYG;2008-04-12 04:00;CYYG 120400Z 30003KT 15SM BKN060 OVC120 02/M01 A2985 RMK SC6AC2 SLP109

CYYG;2008-04-12 05:00;CYYG 120500Z 27004KT 15SM SCT060 OVC110 02/M01 A2986 RMK SC3AC5 SLP112

CYYG;2008-04-12 06:00;CYYG 120600Z 27003KT 15SM OVC110 02/M01 A2985 RMK AC8 SLP110

CYYG;2008-04-12 07:00;CYYG 120700Z 35003KT 15SM FEW042 OVC100 01/M01 A2983 RMK SC2AC6 SLP104

CYYG;2008-04-12 08:00;CYYG 120800Z 02003KT 15SM OVC097 01/M01 A2984 RMK AC8 SLP105

CYYG;2008-04-12 09:00;CYYG 120900Z 02003KT 15SM OVC090 01/M02 A2982 RMK AC8 SLP099

CYYG;2008-04-12 10:00;CYYG 121000Z 06002KT 15SM OVC089 01/M02 A2982 RMK AC8 SLP100

CYYG;2008-04-12 11:00;CYYG 121100Z 04003KT 15SM BKN090 BKN300 02/M02 A2982 RMK AC6CI0 SLP099

CYYG;2008-04-12 12:00;CYYG 121200Z 04006KT 15SM FEW085 BKN200 03/M01 A2981 RMK AC2CI3 SLP096

CYYG;2008-04-12 13:00;CYYG 121300Z 07006KT 15SM FEW085 BKN200 05/00 A2977 RMK AC2CI3 SLP083

CYYG;2008-04-12 14:00;CYYG 121400Z 09006KT 15SM FEW020 FEW085 OVC150 06/M01 A2977 RMK SC1AC2AS6 SLP081

CYYG;2008-04-12 15:00;CYYG 121500Z 14005KT 15SM FEW030 OVC060 06/M00 A2973 RMK SC1NS8 SLP068

CYYG;2008-04-12 15:27;CYYG 121527Z 13006KT 15SM -RA FEW030 OVC045 06/ RMK SC1NS7

CYYG;2008-04-12 16:00;CYYG 121600Z 18005KT 10SM -RA OVC030 05/01 A2970 RMK NS8 SLP059

CYYG;2008-04-12 16:39;CYYG 121639Z 15009KT 4SM -RASN BR OVC016 03/ RMK NS8

CYYG;2008-04-12 17:00;CYYG 121700Z 14007KT 4SM -RASN BR OVC014 02/01 A2971 RMK NS8 SLP062

CYYG;2008-04-12 17:17;CYYG 121717Z 11005KT 2SM -SN BR SCT007 VV012 02/ RMK SF3SN5

CYYG;2008-04-12 17:25;CYYG 121725Z 11005KT 1 1/4SM -SN BR SCT004 VV008 01/ RMK SF4SN4

CYYG;2008-04-12 17:36;CYYG 121736Z 12005KT 3/4SM R03/P6000FT/D -SN BR VV007 01/ RMK SN8

CYYG;2008-04-12 17:50;CYYG 121750Z 12007KT 1/2SM R03/3500V6000FT/D SN VV005 00/ RMK SN8

CYYG;2008-04-12 18:00;CYYG 121800Z 11007KT 3/8SM R03/2200V3500FT/D SN VV003 00/M00 A2967 RMK SN8 /S01/ SLP048

CYYG;2008-04-12 18:08;CYYG 121808Z 12005KT 3/4SM R03/2400V4000FT/U -SN VV005 00/ RESN RMK SN8

CYYG;2008-04-12 18:17;CYYG 121817Z 11003KT 1 1/2SM R03/4000VP6000FT/U -SN BR OVC003 00/ RESN RMK SN2SF6

CYYG;2008-04-12 18:24;CYYG 121824Z 09005KT 3SM -SN BR OVC003 00/ RESN RMK ST8

CYYG;2008-04-12 19:00;CYYG 121900Z 06005KT 10SM -RASN BKN003 OVC030 01/00 A2969 RMK SF7NS1 SLP055

CYYG;2008-04-12 19:19;CYYG 121919Z 07006KT 8SM -RADZ BKN003 OVC038 01/ RMK SF7NS1

CYYG;2008-04-12 19:39;CYYG 121939Z 08010KT 8SM -RADZ OVC005 01/ RMK SF8

CYYG;2008-04-12 20:00;CYYG 122000Z 08008KT 3SM -DZ BR OVC004 01/00 A2965 RMK SF8 SLP041

CYYG;2008-04-12 20:47;CYYG 122047Z 09011KT 2 1/2SM -DZ BR OVC003 01/ RMK SF8

CYYG;2008-04-12 21:00;CYYG 122100Z 08010KT 2 1/2SM -DZ BR OVC003 02/01 A2962 RMK SF8 SLP031

CYYG;2008-04-12 22:00;CYYG 122200Z 09011KT 3SM -DZ BR OVC004 01/01 A2960 RMK SF8 SLP024

CYYG;2008-04-12 23:00;CYYG 122300Z 09009KT 3SM -DZ BR OVC004 01/00 A2958 RMK SF8 SLP020

CYYG;2008-04-13 00:00;CYYG 130000Z 08007KT 3SM -DZ BR OVC003 01/00 A2959 RMK SF8 SLP022

CYYG;2008-04-13 00:22;CYYG 130022Z 07007KT 8SM -DZ OVC005 01/ RMK SF8

CYYG;2008-04-13 01:00;CYYG 130100Z 09009KT 10SM -DZ OVC005 01/00 A2956 RMK SF8 SLP011

CYYG;2008-04-13 02:00;CYYG 130200Z 10007KT 8SM -DZ OVC003 01/01 A2954 RMK SF8 SLP006

CYYG;2008-04-13 03:00;CYYG 130300Z 11007KT 8SM -DZ OVC003 01/01 A2952 RMK SF8 SLP997

CYYG;2008-04-13 03:20;CYYG 130320Z 12007KT 8SM -RA OVC002 01/ RMK SF8

CYYG;2008-04-13 04:00;CYYG 130400Z 12006KT 8SM -RA OVC003 01/01 A2948 RMK SF8 SLP986

CYYG;2008-04-13 05:00;CYYG 130500Z 09004KT 8SM -RA OVC002 01/01 A2947 RMK SF8 SLP982

CYYG;2008-04-13 06:00;CYYG 130600Z 00000KT 6SM -RA BR OVC002 01/01 A2947 RMK SF8 SLP981

CYYG;2008-04-13 06:11;CYYG 130611Z 00000KT 8SM OVC002 01/ RMK SF8

CYYG;2008-04-13 07:00;CYYG 130700Z 09002KT 3SM BR OVC002 01/01 A2946 RMK SF8 SLP978

CYYG;2008-04-13 08:00;CYYG 130800Z 00000KT 2 1/2SM BR OVC002 01/00 A2945 RMK SF8 SLP974

CYYG;2008-04-13 09:00;CYYG 130900Z 00000KT 3SM BR OVC002 01/01 A2945 RMK SF8 SLP975

CYYG;2008-04-13 09:13;CYYG 130913Z 01002KT 3SM -RA BR OVC002 01/ RMK SF8

CYYG;2008-04-13 09:23;CYYG 130923Z 36002KT 1 1/2SM -RA BR OVC002 01/ RMK SF8

CYYG;2008-04-13 09:46;CYYG 130946Z 35003KT 3/4SM R03/P6000FT/U -RA BR OVC002 01/ RMK SF8

CYYG;2008-04-13 10:00;CYYG 131000Z 35002KT 3/4SM R03/6000FT/D -RA BR OVC002 01/01 A2945 RMK SF8 SLP976

CYYG;2008-04-13 10:40;CYYG 131040Z 02005KT 1/2SM R03/3500FT/N -DZ FG OVC022 01/ RMK FG6SC2

CYYG;2008-04-13 11:00;CYYG 131100Z 03005KT 1/2SM R03/4500VP6000FT/U -DZ FG OVC022 01/00 A2946 RMK FG6SC2 SLP977

CYYG;2008-04-13 11:14;CYYG 131114Z 03009KT 1SM R03/P6000FT/N BR FEW019 OVC049 01/ RMK SC2SC6

CYYG;2008-04-13 11:19;CYYG 131119Z 03004KT 1 1/2SM BR BKN002 OVC049 01/ RMK SF5SC3

CYYG;2008-04-13 11:31;CYYG 131131Z 14002KT 8SM BKN002 OVC020 01/ RMK SF6SC2 VIS NW-E 2

CYYG;2008-04-13 12:00;CYYG 131200Z 01002KT 10SM BKN003 OVC020 01/01 A2946 RMK SF7SC1 VIS LWR NW-NE SLP979

CYYG;2008-04-13 12:32;CYYG 131232Z 07003KT 15SM OVC004 02/ RMK ST8

CYYG;2008-04-13 13:00;CYYG 131300Z 04004KT 15SM OVC004 02/01 A2946 RMK ST8 SLP979

CYYG;2008-04-13 13:22;CYYG 131322Z 06004KT 15SM OVC005 02/ RMK SF8

CYYG;2008-04-13 13:42;CYYG 131342Z 03003KT 15SM OVC007 02/ RMK SF8

CYYG;2008-04-13 14:00;CYYG 131400Z 00000KT 15SM OVC007 02/01 A2947 RMK SF8 SLP981

CYYG;2008-04-13 15:00;CYYG 131500Z 33002KT 15SM OVC007 03/01 A2947 RMK SF8 SLP980

CYYG;2008-04-13 16:00;CYYG 131600Z 27005KT 15SM OVC007 03/01 A2946 RMK SF8 SLP978

CYYG;2008-04-13 16:19;CYYG 131619Z 20006KT 8SM BKN003 OVC007 03/ RMK SF6SF2

CYYG;2008-04-13 17:00;CYYG 131700Z 36004KT 8SM OVC003 02/01 A2945 RMK SF8 SLP976

CYYG;2008-04-13 18:00;CYYG 131800Z 36007KT 8SM OVC003 01/00 A2945 RMK SF8 SLP974

CYYG;2008-04-13 19:00;CYYG 131900Z 36007KT 6SM BR OVC003 01/M00 A2945 RMK SF8 SLP976

CYYG;2008-04-13 20:00;CYYG 132000Z 35007KT 6SM BR OVC003 00/M01 A2947 RMK SF8 SLP980

CYYG;2008-04-13 20:17;CYYG 132017Z 34008KT 2SM BR OVC003 00/ RMK SF8 VIS LWR NW-NE

CYYG;2008-04-13 20:26;CYYG 132026Z 34007KT 1SM R03/P6000FT/D BR OVC002 M00/ RMK SF8

CYYG;2008-04-13 20:31;CYYG 132031Z 35007KT 3/4SM R03/4000VP6000FT/D BR VV002 M00/ RMK FG8

CYYG;2008-04-13 20:43;CYYG 132043Z 35007KT 3/4SM R03/3500V5000FT/N -FZDZ BR VV002 M00/ RMK FG8

CYYG;2008-04-13 21:00;CYYG 132100Z 34008KT 1 1/2SM -FZDZ BR OVC003 M01/M01 A2948 RMK FG2SF6 SLP986

CYYG;2008-04-13 21:13;CYYG 132113Z 35006KT 6SM -FZDZ BR OVC004 M01/ RMK SF8

CYYG;2008-04-13 21:38;CYYG 132138Z 35004KT 6SM -FZDZ BR BKN006 OVC015 M01/ RMK SF6SC2

CYYG;2008-04-13 22:00;CYYG 132200Z 34007KT 6SM -SN -FZDZ BR BKN008 OVC025 M00/M01 A2950 RMK SF6SC2 SLP992

CYYG;2008-04-13 22:17;CYYG 132217Z 35004KT 6SM -SN BR BKN006 OVC025 M00/ REFZDZ RMK SF6SC2

CYYG;2008-04-13 23:00;CYYG 132300Z 34004KT 8SM -SN OVC007 M01/M02 A2951 RMK SF8 SLP994

CYYG;2008-04-13 23:32;CYYG 132332Z 31005KT 15SM SCT007 BKN025 M01/ RMK SF4SC3

CYYG;2008-04-14 00:00;CYYG 140000Z 30004KT 15SM FEW007 BKN031 M01/M02 A2951 RMK SF2SC5 SLP995

CYYG;2008-04-14 01:00;CYYG 140100Z 29004KT 15SM FEW007 OVC021 M01/M02 A2953 RMK SF2SC6 SLP001

CYYG;2008-04-14 01:36;CYYG 140136Z 28005KT 15SM FEW007 OVC012 M00/ RMK SF2SC6

CYYG;2008-04-14 01:43;CYYG 140143Z 29006KT 12SM -SHSN OVC010 M00/ RMK SC8

CYYG;2008-04-14 02:00;CYYG 140200Z 29005KT 12SM -SHSN OVC010 M00/M02 A2952 RMK SC8 SLP000

CYYG;2008-04-14 03:00;CYYG 140300Z 29005KT 12SM -SHSN OVC008 M00/M02 A2952 RMK SF8 SLP998

CYYG;2008-04-14 03:12;CYYG 140312Z 29005KT 15SM BKN007 OVC012 M00/ RMK SF6SC2

CYYG;2008-04-14 04:00;CYYG 140400Z 30007KT 15SM OVC007 M01/M02 A2951 RMK SF8 SLP995

CYYG;2008-04-14 05:00;CYYG 140500Z 32005KT 12SM OVC006 M01/M02 A2951 RMK SF8 SLP994

CYYG;2008-04-14 06:00;CYYG 140600Z 31007KT 12SM BKN007 OVC024 M01/M02 A2950 RMK SF7SC1 SLP993

CYYG;2008-04-14 07:00;CYYG 140700Z 31007KT 15SM OVC007 M01/M02 A2952 RMK SF8 SLP997

CYYG;2008-04-14 08:00;CYYG 140800Z 31007KT 15SM OVC006 M01/M02 A2952 RMK SF8 SLP997

CYYG;2008-04-14 08:48;CYYG 140848Z 29006KT 6SM -SHSN OVC004 M01/ RMK SF8

CYYG;2008-04-14 09:00;CYYG 140900Z 29007KT 5SM -SHSN OVC003 M01/M01 A2952 RMK SF8 SLP000

CYYG;2008-04-14 09:34;CYYG 140934Z 30007KT 2 1/2SM -SHSN OVC006 M01/ RMK SF8

CYYG;2008-04-14 10:00;CYYG 141000Z 31006KT 2 1/2SM -SHSN BKN008 OVC022 M01/M01 A2954 RMK SF7SC1 SLP005

CYYG;2008-04-14 10:23;CYYG 141023Z 32006KT 5SM -SHSN OVC005 M00/ RMK SF8

CYYG;2008-04-14 11:00;CYYG 141100Z 32006KT 3SM -SHSN OVC005 M00/M01 A2956 RMK SF8 SLP013

CYYG;2008-04-14 11:50;CYYG 141150Z 32011KT 6SM -SHSN BKN006 M00/ RMK SF7

CYYG;2008-04-14 12:00;CYYG 141200Z 32008KT 10SM -SHSN BKN006 BKN011 00/M01 A2958 RMK SF6SC2 SLP018

CYYG;2008-04-14 12:30;CYYG 141230Z 33008KT 12SM -SHSN BKN007 BKN012 00/ RMK SF5SC2

CYYG;2008-04-14 13:00;CYYG 141300Z 32007KT 2 1/2SM -SHSN BKN007 OVC012 01/M01 A2959 RMK SF6SC2 SLP023

CYYG;2008-04-14 13:29;CYYG 141329Z 31005KT 4SM -SHSN BKN007 OVC012 01/ RMK SF6SC2

CYYG;2008-04-14 14:00;CYYG 141400Z CCA 30006KT 6SM -SHSN BKN008 OVC012 01/00 A2960 RMK SF6SC2 SLP027

CYYG;2008-04-14 15:00;CYYG 141500Z CCA 27009G16KT 8SM -SHSN FEW008 BKN016 03/00 A2960 RMK SF1SC6 SLP025

CYYG;2008-04-14 15:12;CYYG 141512Z 34008G21KT 1SM R03/P6000FT/D -SHSN OVC010 00/ RMK SN4SC4

CYYG;2008-04-14 16:00;CYYG 141600Z 31010G17KT 15SM -SHSN FEW006 SCT010 BKN022 01/M01 A2962 RMK SF2SC2SC3 SLP032

CYYG;2008-04-14 17:00;CYYG 141700Z 30013G19KT 15SM FEW006 SCT010 BKN030 02/M03 A2963 RMK SF1SC2SC4 SLP035

CYYG;2008-04-14 18:00;CYYG 141800Z 30013G20KT 15SM FEW010 BKN030 02/M04 A2963 RMK SC1SC6 SLP037

CYYG;2008-04-14 19:00;CYYG 141900Z 29013G18KT 15SM BKN030 03/M04 A2964 RMK SC7 SLP040

CYYG;2008-04-14 20:00;CYYG 142000Z 29017G22KT 15SM BKN037 03/M05 A2966 RMK SC6 SLP047

CYYG;2008-04-14 21:00;CYYG 142100Z 29015G21KT 15SM BKN040 03/M05 A2968 RMK SC5 SLP053

CYYG;2008-04-14 22:00;CYYG 142200Z 28011G18KT 15SM FEW040 03/M05 A2971 RMK SC2 SLP061

CYYG;2008-04-14 23:00;CYYG 142300Z 27007KT 15SM FEW050 02/M05 A2972 RMK SC2 SLP066

CYYG;2008-04-15 00:00;CYYG 150000Z 28006KT 15SM FEW050 01/M04 A2975 RMK SC2 SLP077

CYYG;2008-04-15 01:00;CYYG 150100Z 29007KT 15SM SKC 01/M05 A2977 RMK SLP084

CYYG;2008-04-15 02:00;CYYG 150200Z 29006KT 15SM FEW080 01/M05 A2978 RMK AC1 SLP088

CYYG;2008-04-15 03:00;CYYG 150300Z 26006KT 15SM FEW080 01/M05 A2979 RMK AC1 SLP091

CYYG;2008-04-15 04:00;CYYG 150400Z 26008KT 15SM FEW100 01/M05 A2980 RMK AC1 SLP093

CYYG;2008-04-15 05:00;CYYG 150500Z 27008KT 15SM FEW100 01/M06 A2980 RMK AC1 SLP094

CYYG;2008-04-15 06:00;CYYG 150600Z 28008KT 15SM SKC 01/M05 A2981 RMK SLP097

CYYG;2008-04-15 07:00;CYYG 150700Z 29011KT 15SM SKC 01/M05 A2982 RMK SLP102

CYYG;2008-04-15 08:00;CYYG 150800Z 29012KT 15SM SKC 01/M05 A2984 RMK SLP106

CYYG;2008-04-15 09:00;CYYG 150900Z 29011KT 15SM FEW250 00/M05 A2987 RMK CI1 SLP116

CYYG;2008-04-15 10:00;CYYG 151000Z 29008KT 15SM FEW250 00/M05 A2989 RMK CI1 SLP125

CYYG;2008-04-15 11:00;CYYG 151100Z 29010KT 15SM FEW250 01/M05 A2992 RMK CI1 SLP135

CYYG;2008-04-15 12:00;CYYG 151200Z 30008KT 15SM FEW250 03/M05 A2994 RMK CI0 SLP140

CYYG;2008-04-15 13:00;CYYG 151300Z 32010G16KT 15SM FEW250 03/M07 A2995 RMK CI0 SLP144

CYYG;2008-04-15 14:00;CYYG 151400Z 31009KT 15SM FEW250 04/M06 A2997 RMK CI0 SLP151

CYYG;2008-04-15 15:00;CYYG 151500Z 32009G15KT 15SM FEW250 05/M05 A2998 RMK CI0 SLP153

CYYG;2008-04-15 16:00;CYYG 151600Z 34009KT 15SM FEW250 06/M05 A2997 RMK CI0 SLP151

CYYG;2008-04-15 17:00;CYYG 151700Z 34010G15KT 15SM SKC 05/M06 A2997 RMK SLP151

CYYG;2008-04-15 18:00;CYYG 151800Z 36007KT 15SM SKC 06/M06 A2997 RMK SLP152

CYYG;2008-04-15 19:00;CYYG 151900Z 33009KT 15SM SKC 07/M06 A2997 RMK SLP150

CYYG;2008-04-15 20:00;CYYG 152000Z 34007KT 15SM SKC 07/M07 A2997 RMK SLP151

CYYG;2008-04-15 21:00;CYYG 152100Z 34003KT 15SM FEW250 07/M09 A2997 RMK CI0 SLP152

CYYG;2008-04-15 22:00;CYYG 152200Z 02005KT 15SM FEW250 06/M07 A2998 RMK CI1 SLP154

CYYG;2008-04-15 23:00;CYYG 152300Z 04002KT 15SM FEW150 BKN250 04/M08 A3000 RMK AC2CI1 SLP162

CYYG;2008-04-16 00:00;CYYG 160000Z 11003KT 15SM FEW150 SCT250 03/M07 A3003 RMK AC2CI0 SLP170

CYYG;2008-04-16 01:00;CYYG 160100Z 20003KT 15SM FEW150 03/M07 A3006 RMK AC1 SLP180

CYYG;2008-04-16 02:00;CYYG 160200Z 22004KT 15SM FEW150 02/M05 A3007 RMK AC1 SLP184

CYYG;2008-04-16 03:00;CYYG 160300Z 23003KT 15SM FEW080 01/M05 A3008 RMK AC2 SLP188

CYYG;2008-04-16 04:00;CYYG 160400Z 26003KT 15SM FEW080 01/M07 A3009 RMK AC2 SLP191

CYYG;2008-04-16 05:00;CYYG 160500Z 26003KT 15SM SKC 01/M09 A3009 RMK SLP192

CYYG;2008-04-16 06:00;CYYG 160600Z 25004KT 15SM SKC 01/M10 A3010 RMK SLP195

CYYG;2008-04-16 07:00;CYYG 160700Z 24005KT 15SM SKC 00/M08 A3010 RMK SLP196

CYYG;2008-04-16 08:00;CYYG 160800Z 23003KT 15SM SKC M01/M07 A3011 RMK SLP198

CYYG;2008-04-16 09:00;CYYG 160900Z 34006KT 15SM SKC M00/M06 A3014 RMK SLP207

CYYG;2008-04-16 10:00;CYYG 161000Z 26006KT 15SM SKC 01/M09 A3017 RMK SLP217

CYYG;2008-04-16 11:00;CYYG 161100Z 26004KT 15SM SKC 02/M06 A3020 RMK SLP229

CYYG;2008-04-16 12:00;CYYG 161200Z 25005KT 15SM SKC 05/M04 A3021 RMK SLP233

CYYG;2008-04-16 13:00;CYYG 161300Z 23007KT 15SM SKC 07/M05 A3021 RMK SLP232

CYYG;2008-04-16 14:00;CYYG 161400Z 25012KT 15SM FEW300 09/M07 A3022 RMK CI1 SLP235

CYYG;2008-04-16 15:00;CYYG 161500Z 25008KT 15SM FEW300 11/M07 A3021 RMK CI1 SLP233

CYYG;2008-04-16 16:00;CYYG 161600Z 25007KT 15SM FEW300 11/M07 A3020 RMK CI1 SLP227

CYYG;2008-04-16 17:00;CYYG 161700Z 24009KT 15SM FEW300 12/M06 A3018 RMK CI2 SLP223

CYYG;2008-04-16 18:00;CYYG 161800Z 20009G15KT 15SM FEW300 13/M04 A3017 RMK CI1 SLP218

CYYG;2008-04-16 19:00;CYYG 161900Z 22010KT 15SM FEW300 14/M05 A3016 RMK CI1 SLP215

CYYG;2008-04-16 20:00;CYYG 162000Z 19012KT 15SM FEW300 12/M05 A3016 RMK CI1 SLP214

CYYG;2008-04-16 21:00;CYYG 162100Z 22011KT 15SM FEW300 13/M04 A3016 RMK CI1 SLP216

CYYG;2008-04-16 22:00;CYYG 162200Z 20006KT 15SM FEW300 11/M05 A3017 RMK CI1 SLP217

CYYG;2008-04-16 23:00;CYYG 162300Z 23006KT 15SM SCT300 10/M06 A3017 RMK CI2 SLP217

CYYG;2008-04-17 00:00;CYYG 170000Z 25007KT 15SM SKC 09/M09 A3018 RMK SLP223

CYYG;2008-04-17 01:00;CYYG 170100Z 23006KT 15SM FEW250 07/M07 A3020 RMK CI1 SLP228

CYYG;2008-04-17 02:00;CYYG 170200Z 22008KT 15SM FEW160 SCT250 07/M07 A3020 RMK AC2CI0 SLP229

CYYG;2008-04-17 03:00;CYYG 170300Z 21008KT 15SM FEW250 06/M06 A3020 RMK CI1 SLP228

CYYG;2008-04-17 04:00;CYYG 170400Z 21008KT 15SM FEW250 05/M06 A3022 RMK CI1 SLP235

CYYG;2008-04-17 05:00;CYYG 170500Z 23010G15KT 15SM FEW250 05/M06 A3023 RMK CI1 SLP237

CYYG;2008-04-17 06:00;CYYG 170600Z 23006KT 15SM SKC 05/M07 A3023 RMK SLP236

CYYG;2008-04-17 07:00;CYYG 170700Z 24006KT 15SM SKC 04/M07 A3021 RMK SLP232

CYYG;2008-04-17 08:00;CYYG 170800Z 23009KT 15SM FEW200 04/M07 A3020 RMK CI1 SLP228

CYYG;2008-04-17 09:00;CYYG 170900Z 23007KT 15SM FEW200 04/M06 A3020 RMK CI1 SLP229

CYYG;2008-04-17 10:00;CYYG 171000Z 22010KT 15SM FEW250 04/M05 A3022 RMK CI1 SLP235

CYYG;2008-04-17 11:00;CYYG 171100Z 23011KT 15SM FEW250 06/M06 A3023 RMK CI1 SLP238

CYYG;2008-04-17 12:00;CYYG 171200Z 24013G19KT 15SM FEW250 08/M06 A3021 RMK CI1 SLP232

CYYG;2008-04-17 13:00;CYYG 171300Z 22013KT 15SM FEW250 10/M04 A3021 RMK CI1 SLP232

CYYG;2008-04-17 14:00;CYYG 171400Z 22013G18KT 15SM FEW250 12/M04 A3021 RMK CI1 SLP232

CYYG;2008-04-17 15:00;CYYG 171500Z 22015KT 15SM SCT250 14/M05 A3020 RMK CI1 SLP229

CYYG;2008-04-17 16:00;CYYG 171600Z 23016KT 15SM FEW250 16/M06 A3019 RMK CI1 SLP223

CYYG;2008-04-17 17:00;CYYG 171700Z 20013KT 15SM SKC 17/M03 A3017 RMK SLP217

CYYG;2008-04-17 18:00;CYYG 171800Z 20014KT 15SM SKC 17/M04 A3014 RMK SLP208

CYYG;2008-04-17 19:00;CYYG 171900Z 20015KT 15SM SKC 18/M05 A3013 RMK SLP204

CYYG;2008-04-17 20:00;CYYG 172000Z 21013KT 15SM SKC 18/M05 A3010 RMK SLP195

CYYG;2008-04-17 21:00;CYYG 172100Z 21012KT 15SM SKC 18/M05 A3009 RMK SLP191

CYYG;2008-04-17 22:00;CYYG 172200Z 19010G15KT 15SM SKC 14/M03 A3009 RMK SLP191

CYYG;2008-04-17 23:00;CYYG 172300Z 21017G25KT 15SM FEW250 13/M04 A3011 RMK CI1 SLP197

CYYG;2008-04-18 00:00;CYYG 180000Z 21013KT 15SM FEW250 10/M07 A3013 RMK CI1 SLP203

CYYG;2008-04-18 01:00;CYYG 180100Z 21009KT 15SM FEW250 09/M07 A3012 RMK CI1 SLP200

CYYG;2008-04-18 02:00;CYYG 180200Z 21003KT 15SM FEW250 08/M06 A3013 RMK CI1 SLP203

CYYG;2008-04-18 03:00;CYYG 180300Z 18005KT 15SM FEW250 06/M05 A3012 RMK CI1 SLP202

CYYG;2008-04-18 04:00;CYYG 180400Z 19005KT 15SM FEW080 SCT250 05/M06 A3013 RMK AC1CI1 SLP204

CYYG;2008-04-18 05:00;CYYG 180500Z 18007KT 15SM BKN210 05/M04 A3012 RMK CI2 SLP199

CYYG;2008-04-18 06:00;CYYG 180600Z 18005KT 15SM SCT220 05/M01 A3009 RMK CI2 SLP189

CYYG;2008-04-18 07:00;CYYG 180700Z 15003KT 15SM BKN210 05/M01 A3005 RMK CI2 SLP176

CYYG;2008-04-18 08:00;CYYG 180800Z 19010G25KT 15SM OVC210 05/01 A3003 RMK CI5 SLP170

CYYG;2008-04-18 09:00;CYYG 180900Z 20004KT 15SM FEW160 BKN210 05/02 A3002 RMK AC2CI2 SLP168

CYYG;2008-04-18 10:00;CYYG 181000Z 00000KT 15SM FEW080 SCT160 BKN240 04/02 A3005 RMK AC2AC2CI2 SLP178

CYYG;2008-04-18 11:00;CYYG 181100Z 35003KT 15SM FEW080 OVC240 05/03 A3003 RMK AC2CI4 SLP169

CYYG;2008-04-18 11:34;CYYG 181134Z 11002KT 10SM BKN007 OVC080 07/ RMK SF5AC2

CYYG;2008-04-18 12:00;CYYG 181200Z 01002KT 8SM OVC005 08/05 A3003 RMK SF8 SLP170

CYYG;2008-04-18 12:09;CYYG 181209Z 07002KT 8SM OVC004 09/ RMK SF8

CYYG;2008-04-18 12:48;CYYG 181248Z 08005KT 10SM SCT004 OVC100 08/ RMK SF2AC4

CYYG;2008-04-18 13:00;CYYG 181300Z 09003KT 8SM BKN004 OVC100 11/09 A3002 RMK SF6AC2 SLP168

CYYG;2008-04-18 14:00;CYYG 181400Z 08006KT 15SM FEW005 SCT062 BKN090 BKN170 13/10 A3002 RMK SF2SC2AC2CI1 SLP168

CYYG;2008-04-18 14:24;CYYG 181424Z 04007KT 15SM BKN006 BKN062 OVC090 13/ RMK SF5SC1AC2

CYYG;2008-04-18 15:00;CYYG 181500Z 04006KT 15SM BKN006 OVC079 13/10 A3001 RMK SF6AC2 SLP165

CYYG;2008-04-18 16:00;CYYG 181600Z 01007KT 8SM FEW008 BKN014 OVC032 10/08 A3001 RMK SF2SC4SC2 SLP164

CYYG;2008-04-18 16:53;CYYG 181653Z 36007KT 6SM BR BKN005 OVC053 09/ RMK SF6SC2

CYYG;2008-04-18 17:00;CYYG 181700Z 36005KT 8SM -SHRA BKN006 OVC059 09/06 A2999 RMK SF6SC2 SLP156

CYYG;2008-04-18 17:29;CYYG 181729Z 36008KT 10SM -SHRA SCT007 OVC060 08/ RMK SF4SC4

CYYG;2008-04-18 18:00;CYYG 181800Z 02004KT 15SM -SHRA FEW009 OVC048 08/02 A2998 RMK SF2SC6 SLP153

CYYG;2008-04-18 19:00;CYYG 181900Z 34005KT 15SM -SHRA BKN024 OVC070 10/01 A2997 RMK SC5AC3 SLP151

CYYG;2008-04-18 19:55;CYYG 181955Z 35005KT 15SM BKN023 OVC080 10/ RMK SC6AC2

CYYG;2008-04-18 20:00;CYYG 182000Z 33004KT 15SM BKN024 OVC080 11/01 A2996 RMK SC6AC2 SLP148

CYYG;2008-04-18 21:00;CYYG 182100Z 35009G15KT 15SM FEW024 BKN080 BKN100 07/00 A2997 RMK SC2AC5AC1 VIRGA SLP150

CYYG;2008-04-18 22:00;CYYG 182200Z 36008KT 15SM FEW025 BKN110 04/M00 A2997 RMK SC2AC6 SLP150

CYYG;2008-04-18 23:00;CYYG 182300Z 02007KT 15SM FEW020 BKN110 BKN170 03/M01 A2997 RMK SC2AC3AC2 SLP150

CYYG;2008-04-19 00:00;CYYG 190000Z 01006KT 15SM FEW020 BKN110 BKN170 03/M01 A2998 RMK SC2AC3AC2 SLP154

CYYG;2008-04-19 01:00;CYYG 190100Z 01003KT 15SM BKN120 OVC240 01/M01 A2999 RMK AC6CI1 SLP156

CYYG;2008-04-19 02:00;CYYG 190200Z 35010KT 15SM BKN120 OVC240 01/M01 A2999 RMK AC5CI2 SLP157

CYYG;2008-04-19 03:00;CYYG 190300Z 01009KT 15SM SCT120 BKN240 01/M01 A2999 RMK AC3CI1 SLP158

CYYG;2008-04-19 04:00;CYYG 190400Z 01009KT 15SM FEW080 BKN240 01/M01 A3001 RMK AC2CI1 SLP162

CYYG;2008-04-19 05:00;CYYG 190500Z 01005KT 15SM SCT240 01/M01 A2999 RMK CI2 SLP158

CYYG;2008-04-19 06:00;CYYG 190600Z 36007KT 15SM SCT110 00/M01 A3001 RMK AC2 SLP164

CYYG;2008-04-19 07:00;CYYG 190700Z 36008KT 15SM SCT080 00/M01 A3002 RMK AC2 SLP169

CYYG;2008-04-19 08:00;CYYG 190800Z 36007KT 15SM SCT080 01/M01 A3002 RMK AC2 SLP168

CYYG;2008-04-19 09:00;CYYG 190900Z 01008KT 15SM SCT100 02/M00 A3004 RMK AC3 SLP174

CYYG;2008-04-19 10:00;CYYG 191000Z 36006KT 15SM BKN100 02/00 A3005 RMK AC6 SLP179

CYYG;2008-04-19 11:00;CYYG 191100Z 36008KT 15SM BKN090 BKN300 04/01 A3008 RMK AC6CI0 SLP189

CYYG;2008-04-19 12:00;CYYG 191200Z 02012KT 15SM BKN100 OVC300 04/M00 A3009 RMK AC7CI0 SLP192

CYYG;2008-04-19 13:00;CYYG 191300Z 02014KT 15SM FEW100 SCT300 05/01 A3011 RMK AC1CI1 SLP199

CYYG;2008-04-19 14:00;CYYG 191400Z 02013KT 15SM FEW010 FEW100 BKN300 07/01 A3013 RMK CF1AC1CI1 CONTRAILS SLP206

CYYG;2008-04-19 15:00;CYYG 191500Z 01012G18KT 15SM FEW010 SCT300 05/00 A3016 RMK CF1CI1 SLP216

CYYG;2008-04-19 16:00;CYYG 191600Z 01013G18KT 15SM FEW010 FEW300 05/00 A3017 RMK CF1CI1 SLP220

CYYG;2008-04-19 17:00;CYYG 191700Z 03015KT 15SM FEW010 FEW300 05/00 A3019 RMK CF1CI1 SLP225

CYYG;2008-04-19 18:00;CYYG 191800Z 03018KT 15SM FEW015 SCT300 05/M00 A3020 RMK CF1CI1 SLP229

CYYG;2008-04-19 19:00;CYYG 191900Z 02011G17KT 15SM FEW015 SCT300 05/M01 A3022 RMK CF1CI2 SLP235

CYYG;2008-04-19 20:00;CYYG 192000Z 03016KT 15SM FEW015 BKN300 04/M02 A3023 RMK CF1CI2 SLP238

CYYG;2008-04-19 21:00;CYYG 192100Z 02014KT 15SM FEW095 BKN300 03/M02 A3023 RMK AC1CI2 CONTRAILS SLP239

CYYG;2008-04-19 21:23;CYYG 192123Z 03013KT 15SM FEW095 BKN300 02/ RMK AC1CI1 CONTRAILS

CYYG;2008-04-19 22:00;CYYG 192200Z 02012KT 15SM FEW150 BKN300 01/M03 A3025 RMK AC1CI2 CONTRAILS SLP244

CYYG;2008-04-19 23:00;CYYG 192300Z 02007KT 15SM FEW150 BKN300 00/M03 A3026 RMK AC1CI2 SLP248

CYYG;2008-04-20 00:00;CYYG 200000Z 01005KT 15SM FEW150 BKN300 M01/M03 A3028 RMK AC1CI2 SLP257

CYYG;2008-04-20 01:00;CYYG 200100Z 36004KT 15SM FEW100 FEW150 BKN300 M01/M03 A3030 RMK AC1AC1CI1 SLP261

CYYG;2008-04-20 02:00;CYYG 200200Z 31003KT 15SM FEW100 SCT300 M01/M03 A3031 RMK AC1CI1 SLP266

CYYG;2008-04-20 03:00;CYYG 200300Z 31002KT 15SM FEW300 M02/M03 A3031 RMK CI1 SLP268

CYYG;2008-04-20 04:00;CYYG 200400Z 34003KT 15SM FEW300 M03/M04 A3032 RMK CI1 SLP269

CYYG;2008-04-20 05:00;CYYG 200500Z 35004KT 15SM FEW300 M02/M04 A3032 RMK CI1 SLP271

CYYG;2008-04-20 06:00;CYYG 200600Z 01005KT 15SM FEW300 M03/M04 A3033 RMK CI1 SLP272

CYYG;2008-04-20 07:00;CYYG 200700Z 01006KT 15SM FEW300 M03/M04 A3034 RMK CI2 SLP276

CYYG;2008-04-20 08:00;CYYG 200800Z 03003KT 15SM FEW300 M04/M05 A3035 RMK CI2 SLP279

CYYG;2008-04-20 09:00;CYYG 200900Z 35003KT 15SM FEW300 M03/M05 A3036 RMK CI1 SLP284

CYYG;2008-04-20 10:00;CYYG 201000Z 01004KT 15SM FEW300 M03/M04 A3037 RMK CI1 SLP287

CYYG;2008-04-20 11:00;CYYG 201100Z 04005KT 15SM FEW080 FEW100 SCT300 01/M02 A3039 RMK AC1AC2CI0 SLP294

CYYG;2008-04-20 12:00;CYYG 201200Z 06006KT 15SM FEW080 SCT130 BKN300 03/M03 A3040 RMK AC1AC2CI0 SLP297

CYYG;2008-04-20 13:00;CYYG 201300Z 11002KT 15SM FEW090 SCT130 BKN300 05/M04 A3041 RMK AC1AC2CI1 SLP301

CYYG;2008-04-20 14:00;CYYG 201400Z 12003KT 15SM SCT100 SCT130 BKN300 06/M05 A3042 RMK AC3AC1CI0 SLP303

CYYG;2008-04-20 15:00;CYYG 201500Z 02004KT 15SM BKN110 BKN300 06/M04 A3041 RMK AC6CI0 SLP301

CYYG;2008-04-20 16:00;CYYG 201600Z 06004KT 15SM BKN100 BKN120 07/M05 A3041 RMK AC6AC2 SLP301

CYYG;2008-04-20 17:00;CYYG 201700Z 16003KT 15SM FEW100 BKN150 06/M03 A3041 RMK AC1AC6 SLP302

CYYG;2008-04-20 18:00;CYYG 201800Z 17005KT 15SM FEW090 BKN120 07/M03 A3040 RMK AC1AC6 SLP298

CYYG;2008-04-20 19:00;CYYG 201900Z 14004KT 15SM BKN070 BKN140 07/M04 A3039 RMK AC5AC2 SLP295

CYYG;2008-04-20 20:00;CYYG 202000Z 05004KT 15SM BKN070 BKN150 08/M03 A3039 RMK AC5AC2 SLP293

CYYG;2008-04-20 21:00;CYYG 202100Z 04006KT 15SM FEW070 BKN130 BKN280 07/M04 A3039 RMK AC2AC4CI0 SLP292

CYYG;2008-04-20 22:00;CYYG 202200Z 05006KT 15SM BKN078 BKN130 06/M03 A3037 RMK AC5AC2 SLP288

CYYG;2008-04-20 23:00;CYYG 202300Z 04004KT 15SM BKN080 BKN110 05/M03 A3038 RMK AC5AC2 SLP290

CYYG;2008-04-21 00:00;CYYG 210000Z 12002KT 15SM FEW068 BKN100 05/M03 A3040 RMK SC2AC5 SLP295

CYYG;2008-04-21 01:00;CYYG 210100Z 15005KT 15SM SCT065 BKN088 05/M03 A3041 RMK SC3AC4 SLP298

CYYG;2008-04-21 02:00;CYYG 210200Z 13005KT 15SM OVC084 04/M03 A3040 RMK AC8 SLP296

CYYG;2008-04-21 03:00;CYYG 210300Z 13004KT 15SM BKN089 04/M03 A3039 RMK AC7 SLP294

CYYG;2008-04-21 04:00;CYYG 210400Z 16004KT 15SM BKN080 04/M04 A3039 RMK AC7 SLP291

CYYG;2008-04-21 05:00;CYYG 210500Z 18007KT 15SM BKN084 04/M03 A3038 RMK AC7 SLP288

CYYG;2008-04-21 06:00;CYYG 210600Z 19004KT 15SM BKN078 02/M02 A3037 RMK AC6 SLP287

CYYG;2008-04-21 07:00;CYYG 210700Z 24007KT 15SM BKN080 03/M01 A3037 RMK AC6 SLP285

CYYG;2008-04-21 08:00;CYYG 210800Z 36003KT 15SM BKN084 03/M00 A3037 RMK AC6 SLP286

CYYG;2008-04-21 09:00;CYYG 210900Z 16003KT 15SM OVC070 03/M00 A3036 RMK AS8 SLP283

CYYG;2008-04-21 10:00;CYYG 211000Z 00000KT 15SM OVC073 03/00 A3038 RMK AS8 SLP290

CYYG;2008-04-21 11:00;CYYG 211100Z 24003KT 15SM OVC071 04/01 A3039 RMK AS8 SLP293

CYYG;2008-04-21 12:00;CYYG 211200Z 25004KT 15SM OVC073 05/02 A3040 RMK AS8 SLP295

CYYG;2008-04-21 13:00;CYYG 211300Z 25004KT 15SM OVC082 07/02 A3040 RMK AS8 SLP296

CYYG;2008-04-21 14:00;CYYG 211400Z 24002KT 15SM OVC061 08/01 A3040 RMK SC8 SLP296

CYYG;2008-04-21 15:00;CYYG 211500Z 26002KT 15SM OVC056 09/01 A3040 RMK SC8 SLP296

CYYG;2008-04-21 16:00;CYYG 211600Z 21003KT 15SM OVC058 10/02 A3040 RMK SC8 SLP295

CYYG;2008-04-21 17:00;CYYG 211700Z 36002KT 15SM BKN048 OVC062 11/01 A3039 RMK SC6SC2 SLP293

CYYG;2008-04-21 18:00;CYYG 211800Z 03006KT 15SM OVC065 10/03 A3038 RMK SC8 SLP290

CYYG;2008-04-21 19:00;CYYG 211900Z 09003KT 15SM BKN058 11/03 A3036 RMK SC7 SLP284

CYYG;2008-04-21 20:00;CYYG 212000Z 08005KT 15SM BKN056 11/03 A3036 RMK SC6 SLP282

CYYG;2008-04-21 21:00;CYYG 212100Z 06002KT 15SM SCT055 BKN300 12/03 A3035 RMK SC3CI2 SLP280

CYYG;2008-04-21 22:00;CYYG 212200Z 03005KT 15SM FEW300 11/03 A3035 RMK CI2 SLP278

CYYG;2008-04-21 23:00;CYYG 212300Z CCA 04003KT 8SM FEW100 FEW300 07/01 A3034 RMK AC1CI1 HAZY SLP276

CYYG;2008-04-22 00:00;CYYG 220000Z 00000KT 10SM FEW100 FEW200 06/01 A3034 RMK AC1CI1 HAZY SLP276

CYYG;2008-04-22 01:00;CYYG 220100Z 14002KT 15SM SCT110 05/01 A3034 RMK AC2 SLP275

CYYG;2008-04-22 02:00;CYYG 220200Z 26003KT 15SM BKN110 03/M00 A3034 RMK AC2 SLP275

CYYG;2008-04-22 03:00;CYYG 220300Z 27003KT 15SM BKN110 04/00 A3033 RMK AC2 SLP273

CYYG;2008-04-22 04:00;CYYG 220400Z 00000KT 15SM SCT100 02/00 A3033 RMK AC1 SLP273

CYYG;2008-04-22 05:00;CYYG 220500Z 23007KT 15SM SKC 05/M02 A3032 RMK SLP270

CYYG;2008-04-22 06:00;CYYG 220600Z 24007KT 15SM SKC 03/M01 A3031 RMK SLP265

CYYG;2008-04-22 07:00;CYYG 220700Z 24007KT 15SM SKC 03/M02 A3029 RMK SLP259

CYYG;2008-04-22 08:00;CYYG 220800Z 27002KT 15SM SKC 02/M01 A3029 RMK SLP258

CYYG;2008-04-22 09:00;CYYG 220900Z 28002KT 15SM FEW100 01/M01 A3028 RMK AC1 SLP257

CYYG;2008-04-22 10:00;CYYG 221000Z 27003KT 15SM FEW100 03/M00 A3029 RMK AC1 SLP260

CYYG;2008-04-22 11:00;CYYG 221100Z 31003KT 15SM FEW300 05/01 A3030 RMK CI1 SLP263

CYYG;2008-04-22 12:00;CYYG 221200Z 00000KT 15SM FEW300 09/01 A3030 RMK CI0 SLP263

CYYG;2008-04-22 13:00;CYYG 221300Z 04004KT 15SM FEW300 11/02 A3031 RMK CI0 SLP264

CYYG;2008-04-22 14:00;CYYG 221400Z 06006KT 15SM FEW300 13/03 A3030 RMK CI1 SLP262

CYYG;2008-04-22 15:00;CYYG 221500Z 01003KT 15SM FEW300 13/03 A3029 RMK CI1 SLP259

CYYG;2008-04-22 16:00;CYYG 221600Z 31005KT 15SM FEW030 BKN300 15/03 A3028 RMK SC1CI2 SLP254

CYYG;2008-04-22 17:00;CYYG 221700Z 33004KT 15SM FEW040 BKN220 15/02 A3025 RMK SC1CI2 SLP247

CYYG;2008-04-22 18:00;CYYG 221800Z 24006KT 15SM FEW040 BKN220 15/04 A3025 RMK SC1CI2 SLP245

CYYG;2008-04-22 19:00;CYYG 221900Z 36005KT 15SM FEW048 BKN220 16/03 A3023 RMK SC2CI1 SLP238

CYYG;2008-04-22 20:00;CYYG 222000Z 05007KT 15SM FEW050 BKN110 BKN220 14/03 A3022 RMK SC1AC2CI1 SLP234

CYYG;2008-04-22 21:00;CYYG 222100Z 05006KT 15SM BKN120 BKN220 13/04 A3022 RMK AC6CI1 SLP235

CYYG;2008-04-22 22:00;CYYG 222200Z 04006KT 15SM FEW090 BKN120 11/03 A3021 RMK AC2AC2 SLP232

CYYG;2008-04-22 23:00;CYYG 222300Z 01003KT 15SM BKN100 09/03 A3021 RMK AC3 SLP232

CYYG;2008-04-23 00:00;CYYG 230000Z 36003KT 15SM FEW090 BKN140 06/02 A3023 RMK AC2AC2 SLP237

CYYG;2008-04-23 01:00;CYYG 230100Z 03002KT 15SM FEW090 SCT120 05/02 A3022 RMK AC1AC2 SLP235

CYYG;2008-04-23 02:00;CYYG 230200Z 00000KT 15SM BKN120 04/02 A3022 RMK AC5 SLP234

CYYG;2008-04-23 03:00;CYYG 230300Z 15004KT 15SM FEW060 BKN120 06/02 A3021 RMK SC2AC3 SLP232

CYYG;2008-04-23 04:00;CYYG 230400Z 17004KT 15SM BKN066 BKN120 05/02 A3020 RMK SC5AC1 SLP228

CYYG;2008-04-23 05:00;CYYG 230500Z 13002KT 15SM OVC059 05/02 A3019 RMK SC8 SLP224

CYYG;2008-04-23 06:00;CYYG 230600Z 00000KT 15SM OVC054 05/02 A3017 RMK SC8 SLP217

CYYG;2008-04-23 07:00;CYYG 230700Z 00000KT 15SM OVC054 05/02 A3014 RMK SC8 SLP208

CYYG;2008-04-23 08:00;CYYG 230800Z 19002KT 15SM -SHRA OVC045 05/03 A3012 RMK SC8 SLP202

CYYG;2008-04-23 09:00;CYYG 230900Z 22002KT 10SM -SHRA OVC049 05/03 A3012 RMK SC8 SLP199

CYYG;2008-04-23 10:00;CYYG 231000Z 18002KT 10SM -SHRA OVC046 05/04 A3012 RMK SC8 SLP201

CYYG;2008-04-23 10:35;CYYG 231035Z 18005KT 10SM OVC063 06/ RMK SC8

CYYG;2008-04-23 11:00;CYYG 231100Z 21003KT 12SM SCT027 OVC045 06/04 A3012 RMK SC3SC5 SLP201

CYYG;2008-04-23 12:00;CYYG 231200Z 04005KT 15SM OVC046 06/04 A3013 RMK SC8 SLP204

CYYG;2008-04-23 13:00;CYYG 231300Z 00000KT 15SM BKN052 08/05 A3011 RMK SC7 SLP198

CYYG;2008-04-23 14:00;CYYG 231400Z 04002KT 15SM OVC040 08/04 A3012 RMK SC8 SLP202

CYYG;2008-04-23 15:00;CYYG 231500Z 09004KT 15SM OVC038 09/04 A3011 RMK SC8 SLP198

CYYG;2008-04-23 16:00;CYYG 231600Z 01006KT 15SM OVC035 09/04 A3011 RMK SC8 SLP197

CYYG;2008-04-23 17:00;CYYG 231700Z 36008KT 15SM OVC038 07/03 A3011 RMK SC8 SLP196

CYYG;2008-04-23 18:00;CYYG 231800Z 02010KT 15SM OVC037 05/01 A3012 RMK SC8 SLP203

CYYG;2008-04-23 19:00;CYYG 231900Z 03011KT 15SM OVC035 05/M02 A3011 RMK SC8 SLP199

CYYG;2008-04-23 20:00;CYYG 232000Z 05011KT 15SM OVC034 04/M03 A3011 RMK SC8 SLP197

CYYG;2008-04-23 20:25;CYYG 232025Z 04009KT 15SM -SHRA OVC036 03/ RMK SC8

CYYG;2008-04-23 21:00;CYYG 232100Z 06008KT 15SM -SHRA BKN038 OVC069 03/M02 A3012 RMK SC6AC2 SLP202

CYYG;2008-04-23 21:23;CYYG 232123Z 05009KT 15SM SCT040 OVC065 03/ RMK SC3SC5

CYYG;2008-04-23 22:00;CYYG 232200Z 05009KT 15SM SCT030 OVC059 02/M03 A3012 RMK SC3SC5 SLP203

CYYG;2008-04-23 22:53;CYYG 232253Z 04010KT 15SM -SHRA SCT035 OVC054 02/ RMK SC3SC5

CYYG;2008-04-23 23:00;CYYG 232300Z 04008KT 15SM -SHRA SCT035 OVC055 02/M02 A3013 RMK SC3SC5 SLP206

CYYG;2008-04-24 00:00;CYYG 240000Z 05008KT 15SM FEW035 OVC051 01/M02 A3015 RMK SC2SC6 SLP211

CYYG;2008-04-24 01:00;CYYG 240100Z 05008KT 15SM OVC045 01/M03 A3015 RMK SC8 SLP212

CYYG;2008-04-24 02:00;CYYG 240200Z 07007KT 15SM SCT042 OVC048 01/M05 A3013 RMK SC3SC5 SLP206

CYYG;2008-04-24 03:00;CYYG 240300Z 08008KT 15SM OVC042 01/M05 A3013 RMK SC8 SLP205

CYYG;2008-04-24 04:00;CYYG 240400Z 09005KT 15SM BKN042 OVC058 01/M05 A3011 RMK SC7SC1 SLP199

CYYG;2008-04-24 04:05;CYYG 240405Z 08005KT 15SM -SHRA OVC042 01/ RMK SC8

CYYG;2008-04-24 05:00;CYYG 240500Z 04005KT 15SM -SHRA BKN042 OVC085 00/M04 A3011 RMK SC6AC2 SLP198

CYYG;2008-04-24 06:00;CYYG 240600Z 05006KT 15SM -SHRA OVC043 00/M04 A3010 RMK SC8 SLP195

CYYG;2008-04-24 07:00;CYYG 240700Z 08006KT 12SM -FZRA OVC041 M00/M02 A3009 RMK SC8 SLP190

CYYG;2008-04-24 08:00;CYYG 240800Z 06004KT 10SM -RA OVC040 00/M02 A3008 REFZRA RMK SC8 SLP188

CYYG;2008-04-24 09:00;CYYG 240900Z 11009KT 10SM -RA FEW040 OVC080 00/M01 A3005 RMK SC2AC6 SLP177

CYYG;2008-04-24 09:46;CYYG 240946Z 12006KT 15SM -RA FEW006 FEW040 OVC068 00/ RMK SF1SC2AC6

CYYG;2008-04-24 10:00;CYYG 241000Z 12008KT 15SM -RA FEW006 FEW040 OVC070 00/M01 A3005 RMK SF1SC2AC6 SLP179

CYYG;2008-04-24 11:00;CYYG 241100Z 10006KT 15SM BKN013 BKN026 OVC070 01/M01 A3006 RMK SC5SC2AC1 SLP181

CYYG;2008-04-24 12:00;CYYG 241200Z 10007KT 15SM FEW013 BKN021 OVC070 01/M01 A3005 RMK SC2SC5AC1 SLP177

CYYG;2008-04-24 12:54;CYYG 241254Z 10007KT 15SM -SHRA OVC021 01/ RMK SC8

CYYG;2008-04-24 13:00;CYYG 241300Z 10006KT 15SM -SHRA OVC023 01/M02 A3005 RMK SC8 SLP177

CYYG;2008-04-24 14:00;CYYG 241400Z 09006KT 8SM -SHRA OVC022 02/M01 A3004 RMK SC8 SLP176

CYYG;2008-04-24 15:00;CYYG 241500Z 09007KT 8SM -RA OVC021 02/M00 A3004 RMK SC8 SLP176

CYYG;2008-04-24 16:00;CYYG 241600Z 08007KT 8SM -RA OVC021 02/M00 A3003 RMK SC8 SLP171

CYYG;2008-04-24 17:00;CYYG 241700Z 09008KT 6SM -RA BR OVC021 02/M00 A3003 RMK SC8 SLP171

CYYG;2008-04-24 17:49;CYYG 241749Z 09007KT 5SM -RASN BR OVC020 02/ RMK SC8

CYYG;2008-04-24 18:00;CYYG 241800Z 09006KT 4SM -RASN BR OVC020 02/M00 A3003 RMK SC8 SLP171

CYYG;2008-04-24 18:11;CYYG 241811Z 08006KT 2SM -SN BR OVC021 01/ RMK SC8

CYYG;2008-04-24 19:00;CYYG 241900Z 07005KT 2SM -SN BR OVC022 01/M00 A3002 RMK SC8 SLP167

CYYG;2008-04-24 19:40;CYYG 241940Z 04005KT 1 1/2SM -SN BR FEW004 OVC018 00/ RMK SF2SC6

CYYG;2008-04-24 20:00;CYYG 242000Z 04005KT 1SM R03/5000FT/D -SN BR FEW004 OVC016 00/M00 A3002 RMK SF2SC6 SLP167

CYYG;2008-04-24 20:39;CYYG 242039Z 04009KT 5/8SM R03/3500FT/N -SN BR FEW002 OVC011 00/ RMK SF2SC6

CYYG;2008-04-24 21:00;CYYG 242100Z 05009KT 5/8SM R03/3500V5500FT/U -SN BR OVC005 M00/M01 A3002 RMK SF8 SLP167

CYYG;2008-04-24 21:30;CYYG 242130Z 04010KT 1SM R03/5500FT/N -SN BR OVC004 M00/ RMK SF8

CYYG;2008-04-24 22:00;CYYG 242200Z 04009KT 3/4SM R03/5500FT/D -SN BR BKN005 OVC021 M00/M01 A3003 RMK SF6SC2 /S01/ SLP170

CYYG;2008-04-24 23:00;CYYG 242300Z CCA 02009KT 1SM R03/5500FT/U -SN BR BKN004 OVC018 M00/M01 A3004 RMK SF7SC1 /S03/ SLP176

CYYG;2008-04-24 23:34;CYYG 242334Z 02010KT 1 1/2SM -SN BR BKN005 OVC020 M00/ RMK SF7SC1

CYYG;2008-04-25 00:00;CYYG 250000Z 02013KT 1SM R03/P6000FT/D -SN BR BKN005 OVC020 M00/M01 A3006 RMK SF7SC1 /S05/ SLP182

CYYG;2008-04-25 00:26;CYYG 250026Z 02011KT 2 1/2SM -SN BR BKN005 OVC020 M00/ RMK SF7SC1

CYYG;2008-04-25 01:00;CYYG 250100Z 02008KT 3SM -SN BR BKN005 OVC023 M00/M01 A3007 RMK SF7SC1 SLP185

CYYG;2008-04-25 01:22;CYYG 250122Z 02010KT 2SM R03/4500FT/N -SN BR BKN005 OVC023 M00/ RMK SF7SC1

CYYG;2008-04-25 02:00;CYYG 250200Z 02010KT 2SM -SN BR OVC005 M00/M01 A3007 RMK SF8 SLP184

CYYG;2008-04-25 03:00;CYYG 250300Z 03011KT 3SM -SN BR OVC005 M00/M01 A3006 RMK SF8 /S01/ SLP181

CYYG;2008-04-25 04:00;CYYG 250400Z 03010G15KT 3SM -SN BR OVC004 M00/M01 A3006 RMK SF8 SLP181

CYYG;2008-04-25 05:00;CYYG 250500Z 02011KT 6SM -SN BR SCT005 BKN011 OVC023 M01/M01 A3005 RMK SF3SC4SC1 SLP179

CYYG;2008-04-25 06:00;CYYG 250600Z 02012KT 6SM -SN BR FEW005 BKN011 OVC023 M01/M02 A3005 RMK SF2SC4SC2 SLP178

CYYG;2008-04-25 07:00;CYYG 250700Z 02010KT 5SM -SN BR FEW008 BKN014 OVC030 M01/M01 A3006 RMK SF2SC6SC1 SLP181

CYYG;2008-04-25 08:00;CYYG 250800Z 03009KT 6SM -SN BR BKN006 OVC014 M00/M01 A3006 RMK SF6SC2 SLP182

CYYG;2008-04-25 09:00;CYYG 250900Z 02008KT 8SM -SN OVC006 M00/M01 A3007 RMK SF8 PCPN VRY LGT SLP185

CYYG;2008-04-25 09:23;CYYG 250923Z 02010KT 10SM OVC009 M00/ RMK SF8

CYYG;2008-04-25 09:33;CYYG 250933Z 02009KT 12SM BKN011 OVC053 M00/ RMK SC6SC2

CYYG;2008-04-25 10:00;CYYG 251000Z 01010KT 12SM FEW010 OVC053 M00/M01 A3008 RMK SC2SC6 SLP187

CYYG;2008-04-25 11:00;CYYG 251100Z 02011KT 15SM FEW010 OVC052 M00/M02 A3009 RMK SF1SC7 SLP192

CYYG;2008-04-25 12:00;CYYG 251200Z 03012G18KT 15SM SCT011 OVC050 00/M01 A3009 RMK SF3SC5 SLP192

CYYG;2008-04-25 13:00;CYYG 251300Z 03014KT 15SM FEW011 BKN053 BKN130 01/M01 A3010 RMK SF2SC4AC2 SLP194

CYYG;2008-04-25 14:00;CYYG 251400Z 03013KT 15SM FEW011 SCT050 BKN130 BKN260 01/M02 A3010 RMK SF1SC2AC2CI1 SLP196

CYYG;2008-04-25 15:00;CYYG 251500Z 03013G18KT 15SM FEW050 SCT100 BKN260 02/M02 A3011 RMK SC1AC2CI1 SLP197

CYYG;2008-04-25 16:00;CYYG 251600Z 05016KT 15SM FEW050 FEW100 BKN260 03/M04 A3011 RMK SC1AC2CI2 SLP198

CYYG;2008-04-25 17:00;CYYG 251700Z 03014G19KT 15SM FEW050 BKN100 BKN260 04/M02 A3012 RMK SC1AC4CI1 SLP202

CYYG;2008-04-25 18:00;CYYG 251800Z 02015G20KT 15SM FEW050 BKN100 03/M04 A3013 RMK SC1AC6 SLP205

CYYG;2008-04-25 19:00;CYYG 251900Z 02015KT 15SM FEW087 BKN100 03/M03 A3014 RMK AC1AC6 SLP208

CYYG;2008-04-25 20:00;CYYG 252000Z 03014KT 15SM BKN077 BKN100 03/M03 A3014 RMK AC6AC2 SLP208

CYYG;2008-04-25 21:00;CYYG 252100Z 03013G18KT 15SM BKN077 BKN100 03/M04 A3014 RMK AC6AC1 SLP210

CYYG;2008-04-25 22:00;CYYG 252200Z 02013G18KT 15SM BKN080 02/M03 A3015 RMK AC6 SLP211

CYYG;2008-04-25 23:00;CYYG 252300Z 03011KT 15SM BKN089 01/M03 A3016 RMK AC6 SLP216

CYYG;2008-04-26 00:00;CYYG 260000Z 02010KT 15SM SCT089 00/M03 A3017 RMK AC4 SLP220

CYYG;2008-04-26 01:00;CYYG 260100Z 01008KT 15SM SCT089 M00/M03 A3019 RMK AC3 SLP225

CYYG;2008-04-26 02:00;CYYG 260200Z 01008KT 15SM FEW080 00/M02 A3020 RMK AC2 SLP227

CYYG;2008-04-26 03:00;CYYG 260300Z 02008KT 15SM FEW080 M00/M02 A3019 RMK AC2 SLP225

CYYG;2008-04-26 04:00;CYYG 260400Z 02007KT 15SM SKC M01/M03 A3019 RMK SLP226

CYYG;2008-04-26 05:00;CYYG 260500Z 02008KT 15SM SKC M00/M02 A3020 RMK SLP229

CYYG;2008-04-26 06:00;CYYG 260600Z 01008KT 15SM FEW080 M00/M02 A3020 RMK AC1 SLP229

CYYG;2008-04-26 07:00;CYYG 260700Z 01010KT 15SM FEW080 M00/M02 A3021 RMK AC1 SLP231

CYYG;2008-04-26 08:00;CYYG 260800Z 01008KT 15SM FEW080 00/M02 A3021 RMK AC1 SLP233

CYYG;2008-04-26 09:00;CYYG 260900Z 02009KT 15SM FEW080 M00/M02 A3022 RMK AC1 SLP235

CYYG;2008-04-26 10:00;CYYG 261000Z 04012KT 15SM FEW080 01/M01 A3023 RMK AC2 SLP237

CYYG;2008-04-26 11:00;CYYG 261100Z 04012KT 15SM FEW040 FEW080 02/M00 A3024 RMK SC1AC2 SLP243

CYYG;2008-04-26 12:00;CYYG 261200Z 04012G17KT 15SM FEW012 FEW040 SCT080 04/01 A3026 RMK SC1SC1AC1 SLP249

CYYG;2008-04-26 13:00;CYYG 261300Z 04013KT 15SM FEW010 FEW040 SCT080 05/02 A3027 RMK CF1SC1AC1 SLP252

CYYG;2008-04-26 14:00;CYYG 261400Z 04016G21KT 15SM FEW010 SCT080 06/03 A3029 RMK CF2AC1 SLP260

CYYG;2008-04-26 15:00;CYYG 261500Z 05013G21KT 15SM FEW010 FEW080 07/03 A3028 RMK CF1AC1 SLP257

CYYG;2008-04-26 16:00;CYYG 261600Z 04015G22KT 15SM FEW016 FEW080 07/03 A3030 RMK CF1AC1 SLP261

CYYG;2008-04-26 17:00;CYYG 261700Z 05019G25KT 15SM FEW016 FEW080 08/02 A3029 RMK CU1AC1 SLP260

CYYG;2008-04-26 18:00;CYYG 261800Z 06020G25KT 15SM FEW020 FEW080 07/01 A3029 RMK SC1AC1 SLP260

CYYG;2008-04-26 19:00;CYYG 261900Z 05017KT 15SM FEW020 FEW080 08/01 A3029 RMK SC1AC1 SLP258

CYYG;2008-04-26 20:00;CYYG 262000Z 05017KT 15SM FEW020 FEW080 07/01 A3029 RMK CF1AC1 SLP258

CYYG;2008-04-26 21:00;CYYG 262100Z 03014KT 15SM FEW080 06/01 A3028 RMK AC1 SLP257

CYYG;2008-04-26 22:00;CYYG 262200Z 03012KT 15SM FEW080 05/00 A3028 RMK AC1 SLP256

CYYG;2008-04-26 23:00;CYYG 262300Z 03008KT 15SM FEW080 03/M01 A3029 RMK AC1 SLP260

CYYG;2008-04-27 00:00;CYYG 270000Z 04006KT 15SM FEW080 01/M01 A3031 RMK AC0 SLP265

CYYG;2008-04-27 01:00;CYYG 270100Z 02005KT 15SM SKC M01/M02 A3033 RMK SLP272

CYYG;2008-04-27 02:00;CYYG 270200Z 01004KT 15SM SCT025 BKN120 00/M01 A3032 RMK SC4AC2 SLP270

CYYG;2008-04-27 03:00;CYYG 270300Z 02006KT 15SM FEW100 M00/M01 A3031 RMK AC2 SLP265

CYYG;2008-04-27 04:00;CYYG 270400Z 04007KT 15SM FEW100 00/M01 A3030 RMK AC1 SLP263

CYYG;2008-04-27 05:00;CYYG 270500Z 36004KT 15SM FEW030 FEW120 M00/M01 A3031 RMK SC1AC1 SLP264

CYYG;2008-04-27 06:00;CYYG 270600Z 01004KT 15SM SCT044 M00/M01 A3030 RMK SC3 SLP261

CYYG;2008-04-27 07:00;CYYG 270700Z 01004KT 15SM BKN049 00/M01 A3030 RMK SC5 SLP263

CYYG;2008-04-27 08:00;CYYG 270800Z 02005KT 15SM BKN044 M01/M02 A3030 RMK SC5 SLP262

CYYG;2008-04-27 09:00;CYYG 270900Z 36004KT 15SM BKN052 00/M01 A3030 RMK SC6 SLP261

CYYG;2008-04-27 10:00;CYYG 271000Z 02006KT 15SM BKN054 01/M01 A3030 RMK SC6 SLP263

CYYG;2008-04-27 11:00;CYYG 271100Z 04008KT 15SM SCT051 03/M01 A3031 RMK SC4 SLP267

CYYG;2008-04-27 12:00;CYYG 271200Z 05007KT 15SM SCT049 SCT300 05/M00 A3031 RMK SC3CI1 SLP266

CYYG;2008-04-27 13:00;CYYG 271300Z 04005KT 15SM FEW050 FEW300 07/M01 A3030 RMK SC1CI1 SLP263

CYYG;2008-04-27 14:00;CYYG 271400Z 03008KT 15SM FEW050 08/M01 A3029 RMK SC1 SLP259

CYYG;2008-04-27 15:00;CYYG 271500Z 06011KT 15SM FEW042 08/M02 A3028 RMK SC2 SLP257

CYYG;2008-04-27 16:00;CYYG 271600Z 04013KT 15SM FEW046 09/M03 A3027 RMK SC2 SLP251

CYYG;2008-04-27 17:00;CYYG 271700Z 05013KT 15SM BKN047 09/M03 A3027 RMK SC5 SLP251

CYYG;2008-04-27 18:00;CYYG 271800Z 01009KT 15SM BKN048 08/M00 A3027 RMK SC3 SLP253

CYYG;2008-04-27 19:00;CYYG 271900Z 04011KT 15SM FEW048 BKN300 08/M03 A3026 RMK SC1CI1 CONTRAILS SLP249

CYYG;2008-04-27 20:00;CYYG 272000Z 02010KT 15SM FEW048 BKN300 08/M05 A3027 RMK SC2CI1 SLP252

CYYG;2008-04-27 21:00;CYYG 272100Z 02009KT 15SM FEW048 BKN300 05/M04 A3027 RMK SC1CI2 SLP251

CYYG;2008-04-27 22:00;CYYG 272200Z 02009KT 15SM FEW048 BKN300 03/M02 A3025 RMK SC1CI2 SLP246

CYYG;2008-04-27 23:00;CYYG 272300Z 05010KT 15SM FEW050 BKN300 02/M01 A3025 RMK SC1CI2 SLP247

CYYG;2008-04-28 00:00;CYYG 280000Z 02006KT 15SM FEW080 BKN200 01/M01 A3026 RMK AC2CI3 SLP250

CYYG;2008-04-28 01:00;CYYG 280100Z 36005KT 15SM FEW080 BKN200 00/M01 A3027 RMK AC1CI4 SLP252

CYYG;2008-04-28 02:00;CYYG 280200Z 02006KT 15SM FEW100 SCT230 00/M01 A3025 RMK AC2CI1 SLP247

CYYG;2008-04-28 03:00;CYYG 280300Z 36004KT 15SM FEW100 M00/M02 A3024 RMK AC2 SLP243

CYYG;2008-04-28 04:00;CYYG 280400Z 02007KT 15SM FEW100 M01/M02 A3022 RMK AC1 SLP234

CYYG;2008-04-28 05:00;CYYG 280500Z 34003KT 15SM FEW130 M01/M01 A3022 RMK AC2 SLP234

CYYG;2008-04-28 06:00;CYYG 280600Z 34007KT 15SM SKC M01/M02 A3023 RMK SLP237

CYYG;2008-04-28 07:00;CYYG 280700Z 34007KT 15SM FEW120 00/M01 A3025 RMK AC1 SLP244

CYYG;2008-04-28 08:00;CYYG 280800Z 35008KT 15SM FEW120 00/M01 A3023 RMK AC1 SLP240

CYYG;2008-04-28 09:00;CYYG 280900Z 36010KT 15SM BKN030 01/00 A3025 RMK SC6 SLP245

CYYG;2008-04-28 10:00;CYYG 281000Z 36010KT 15SM SCT030 BKN250 02/00 A3026 RMK SC2CI2 SLP248

CYYG;2008-04-28 11:00;CYYG 281100Z 02009KT 15SM FEW005 FEW030 BKN320 03/01 A3025 RMK SF1SC1CI1 SLP247

CYYG;2008-04-28 12:00;CYYG 281200Z 02006KT 15SM FEW030 BKN320 05/02 A3025 RMK SC1CI1 SLP244

CYYG;2008-04-28 13:00;CYYG 281300Z 02008KT 15SM FEW007 FEW030 BKN320 07/02 A3025 RMK SF1SC1CI1 SLP244

CYYG;2008-04-28 14:00;CYYG 281400Z 03009KT 15SM FEW007 BKN020 08/03 A3024 RMK SF1SC7 SLP241

CYYG;2008-04-28 15:00;CYYG 281500Z 03009KT 15SM FEW008 SCT020 BKN320 09/05 A3022 RMK SF1SC4CI0 SLP236

CYYG;2008-04-28 16:00;CYYG 281600Z 02011KT 15SM SCT008 SCT020 BKN320 08/04 A3020 RMK SF3SC1CI0 SLP227

CYYG;2008-04-28 16:22;CYYG 281622Z 02009KT 15SM FEW008 BKN012 BKN320 08/ RMK SF1SC5CI0

CYYG;2008-04-28 17:00;CYYG 281700Z 01010KT 15SM FEW009 SCT035 BKN320 08/04 A3020 RMK SF2SC2CI0 SLP229

CYYG;2008-04-28 18:00;CYYG 281800Z 04011KT 15SM FEW009 FEW035 BKN320 08/05 A3018 RMK SF1SC1CI2 CONTRAILS SLP222

CYYG;2008-04-28 19:00;CYYG 281900Z 03009KT 15SM FEW009 FEW035 BKN320 09/05 A3018 RMK SF1SC1CI2 CONTRAILS SLP221

CYYG;2008-04-28 20:00;CYYG 282000Z 03009KT 15SM FEW009 FEW035 BKN320 08/05 A3018 RMK SF1SC1CI1 SLP222

CYYG;2008-04-28 21:00;CYYG 282100Z 05012KT 15SM FEW007 FEW035 BKN320 08/05 A3017 RMK SF1SC1CI0 SLP219

CYYG;2008-04-28 22:00;CYYG 282200Z 04008KT 15SM FEW007 FEW035 BKN320 06/04 A3016 RMK SF1SC1CI1 SLP214

CYYG;2008-04-28 22:34;CYYG 282234Z 02006KT 15SM BKN003 BKN320 05/ RMK SC5CI1 VIS N-NE 11/2

CYYG;2008-04-28 22:54;CYYG 282254Z 02007KT 3SM BR BKN002 OVC035 04/ RMK SF5SC1

CYYG;2008-04-28 23:00;CYYG 282300Z 01005KT 3SM BR OVC002 04/03 A3017 RMK SF8 VIS N-NE 11/2 SLP218

CYYG;2008-04-28 23:11;CYYG 282311Z 02007KT 3/4SM R03/4000VP6000FT/D BR VV001 04/ RMK FG8

CYYG;2008-04-29 00:00;CYYG 290000Z 04005KT 1/2SM R03/2600V5000FT/D FG VV001 03/02 A3017 RMK FG8 SLP219

CYYG;2008-04-29 00:42;CYYG 290042Z 00000KT 3/4SM R03/2600V5000FT/N BR BKN043 03/ RMK FG6SC1

CYYG;2008-04-29 01:00;CYYG 290100Z 00000KT 3SM BR BKN043 03/02 A3018 RMK FG3SC3 VID LWR N-NE SLP222

CYYG;2008-04-29 01:14;CYYG 290114Z 00000KT 12SM FEW002 BKN039 03/ RMK SF2SC4

CYYG;2008-04-29 02:00;CYYG 290200Z 00000KT 15SM FEW004 SCT039 03/02 A3016 RMK SF2SC2 SLP215

CYYG;2008-04-29 03:00;CYYG 290300Z 11002KT 15SM BKN033 04/03 A3014 RMK SC5 SLP208

CYYG;2008-04-29 04:00;CYYG 290400Z 13006KT 15SM SCT006 BKN016 05/04 A3012 RMK SF3SC4 SLP203

CYYG;2008-04-29 05:00;CYYG 290500Z 13007KT 15SM SCT006 OVC014 05/05 A3012 RMK SF3SC5 SLP203

CYYG;2008-04-29 05:45;CYYG 290545Z 14008KT 15SM BKN007 OVC015 06/ RMK SF6SC2

CYYG;2008-04-29 06:00;CYYG 290600Z 13006KT 15SM BKN007 OVC014 07/06 A3012 RMK SF6SC2 SLP199

CYYG;2008-04-29 07:00;CYYG 290700Z 13006KT 15SM BKN008 OVC018 07/06 A3010 RMK SF5SC3 SLP194

CYYG;2008-04-29 07:34;CYYG 290734Z 13007KT 6SM BR OVC003 07/ RMK SF8

CYYG;2008-04-29 08:00;CYYG 290800Z 14004KT 6SM BR OVC005 07/06 A3009 RMK SF8 SLP190

CYYG;2008-04-29 08:21;CYYG 290821Z 13006KT 6SM -DZ BR OVC008 07/ RMK SF8

CYYG;2008-04-29 09:00;CYYG 290900Z 12008KT 10SM -DZ OVC008 07/06 A3007 RMK SF8 SLP183

CYYG;2008-04-29 09:11;CYYG 290911Z 12007KT 12SM OVC011 07/ RMK SF8

CYYG;2008-04-29 10:00;CYYG 291000Z 13007KT 15SM OVC008 07/06 A3007 RMK SF8 SLP184

CYYG;2008-04-29 11:00;CYYG 291100Z 13009G15KT 15SM OVC007 08/07 A3007 RMK SF8 SLP183

CYYG;2008-04-29 12:00;CYYG 291200Z 14010KT 15SM OVC008 08/07 A3006 RMK SF8 SLP182

CYYG;2008-04-29 12:48;CYYG 291248Z 14013KT 15SM OVC010 09/ RMK SC8

CYYG;2008-04-29 13:00;CYYG 291300Z 13011KT 15SM OVC010 09/07 A3006 RMK SC8 SLP181

CYYG;2008-04-29 14:00;CYYG 291400Z 16012KT 15SM BKN012 BKN022 12/09 A3004 RMK SC5SC2 SLP175

CYYG;2008-04-29 14:07;CYYG 291407Z 16013KT 15SM SCT012 BKN023 12/ RMK SC3SC4

CYYG;2008-04-29 15:00;CYYG 291500Z 18011KT 15SM FEW012 BKN023 BKN140 13/09 A3002 RMK SC1SC4AC2 SLP168

CYYG;2008-04-29 16:00;CYYG 291600Z 14015KT 15SM BKN019 14/09 A3000 RMK SC7 SLP160

CYYG;2008-04-29 17:00;CYYG 291700Z 14015G20KT 15SM BKN019 BKN220 15/10 A2999 RMK SC6CI2 SLP156

CYYG;2008-04-29 18:00;CYYG 291800Z 14015G20KT 15SM BKN020 BKN220 15/09 A2997 RMK SC6CI1 SLP151

CYYG;2008-04-29 19:00;CYYG 291900Z 12011G16KT 15SM FEW020 BKN220 14/09 A2994 RMK SC2CI4 SLP139

CYYG;2008-04-29 19:43;CYYG 291943Z 13010G16KT 15SM BKN023 14/ RMK SC7

CYYG;2008-04-29 20:00;CYYG 292000Z 14011KT 15SM BKN023 BKN220 14/09 A2994 RMK SC7CI1 SLP139

CYYG;2008-04-29 21:00;CYYG 292100Z 13011G16KT 15SM OVC022 13/09 A2992 RMK SC8 SLP133

CYYG;2008-04-29 22:00;CYYG 292200Z 13011KT 15SM OVC024 12/08 A2991 RMK SC8 SLP129

CYYG;2008-04-29 23:00;CYYG 292300Z 14012G17KT 15SM OVC015 11/08 A2990 RMK SC8 SLP126

CYYG;2008-04-30 00:00;CYYG 300000Z 14009G15KT 15SM OVC014 10/08 A2989 RMK SC8 SLP124

CYYG;2008-04-30 01:00;CYYG 300100Z 13014G19KT 15SM OVC014 09/07 A2987 RMK SC8 SLP115

CYYG;2008-04-30 02:00;CYYG 300200Z 13014KT 15SM OVC013 08/06 A2986 RMK SC8 SLP113

CYYG;2008-04-30 03:00;CYYG 300300Z 12014KT 15SM SCT008 OVC014 07/05 A2983 RMK SF3SC5 SLP103

CYYG;2008-04-30 04:00;CYYG 300400Z 12016KT 15SM FEW008 OVC014 07/06 A2981 RMK SF2SC6 SLP096

CYYG;2008-04-30 05:00;CYYG 300500Z 14014KT 15SM BKN007 OVC014 07/05 A2981 RMK SF5SC3 SLP096

CYYG;2008-04-30 06:00;CYYG 300600Z 13011KT 15SM OVC008 07/05 A2979 RMK SF8 SLP088

CYYG;2008-04-30 07:00;CYYG 300700Z 13015KT 15SM OVC009 06/05 A2976 RMK SF8 SLP079

CYYG;2008-04-30 07:34;CYYG 300734Z 13017G22KT 15SM BKN010 OVC120 07/ RMK SF5AC3

CYYG;2008-04-30 08:00;CYYG 300800Z 13014G19KT 15SM BKN008 OVC013 07/06 A2975 RMK SF6SC2 SLP075

CYYG;2008-04-30 08:31;CYYG 300831Z 16012G17KT 15SM -DZ OVC008 07/ RMK SF8

CYYG;2008-04-30 09:00;CYYG 300900Z 14010KT 15SM -DZ OVC007 07/06 A2977 RMK SF8 SLP083

CYYG;2008-04-30 10:00;CYYG 301000Z 13011KT 12SM -DZ OVC005 06/06 A2978 RMK SF8 SLP086

CYYG;2008-04-30 10:06;CYYG 301006Z 13013KT 10SM -RA OVC004 07/ RMK SF8

CYYG;2008-04-30 11:00;CYYG 301100Z CCA 13012G20KT 12SM -SHRA OVC004 07/06 A2979 RMK SF8 SLP090

CYYG;2008-04-30 12:00;CYYG 301200Z 12014KT 10SM OVC004 06/05 A2980 RMK SF8 OCNL -SHRA SLP094

CYYG;2008-04-30 13:00;CYYG 301300Z 14009G15KT 3SM BR OVC003 07/06 A2983 RMK SF8 OCNL -SHRA SLP102

CYYG;2008-04-30 13:26;CYYG 301326Z 13010KT 1 1/2SM -DZ BR OVC003 07/ RMK SF8 OCNL -SHRA

CYYG;2008-04-30 13:40;CYYG 301340Z 13010KT 3SM -SHRADZ BR OVC003 07/ RMK SF8

CYYG;2008-04-30 14:00;CYYG 301400Z 13009KT 4SM -RADZ BR OVC003 07/07 A2983 RMK SF8 SLP103

CYYG;2008-04-30 14:21;CYYG 301421Z 13010G16KT 3SM -RADZ BR OVC004 08/ RMK SF8

CYYG;2008-04-30 15:00;CYYG 301500Z 14010KT 3SM -RADZ BR OVC005 08/07 A2984 RMK SF8 SLP106

CYYG;2008-04-30 15:33;CYYG 301533Z 14007KT 3SM -DZ BR OVC004 08/ RMK SF8

CYYG;2008-04-30 16:00;CYYG 301600Z 15009KT 3SM -DZ BR OVC003 08/08 A2985 RMK SF8 SLP108

CYYG;2008-04-30 16:45;CYYG 301645Z 13009KT 5SM BR OVC003 08/ RMK SF8

CYYG;2008-04-30 17:00;CYYG 301700Z 13008KT 5SM BR OVC003 08/07 A2985 RMK SF8 SLP110

CYYG;2008-04-30 17:43;CYYG 301743Z 13008KT 4SM -DZ BR OVC003 08/ RMK SF8

CYYG;2008-04-30 18:00;CYYG 301800Z 13008KT 3SM -RA BR BKN003 OVC008 08/07 A2985 RMK SF7SF1 SLP109

CYYG;2008-04-30 19:00;CYYG 301900Z 14005KT 3SM -RA BR OVC004 08/07 A2986 RMK SF8 CIG RAG SLP113

CYYG;2008-04-30 20:00;CYYG 302000Z 12006KT 4SM -RA BR OVC004 07/07 A2986 RMK SF8 CIG RAG SLP113

CYYG;2008-04-30 21:00;CYYG 302100Z 12006KT 3SM -RA BR OVC004 07/06 A2987 RMK SF8 SLP115

CYYG;2008-04-30 22:00;CYYG 302200Z 12004KT 2 1/2SM -RA BR OVC003 07/06 A2987 RMK SF8 SLP116

CYYG;2008-04-30 22:32;CYYG 302232Z 14004KT 1SM R03/P6000FT/D -RA BR OVC004 07/ RMK SF8

CYYG;2008-04-30 23:00;CYYG 302300Z 16003KT 1SM R03/P6000FT/N -RA BR BKN004 OVC019 07/06 A2989 RMK SF6SC2 SLP124

CYYG;2008-05-01 01:00;CYYG 010100Z 15002KT 1SM R03/P6000FT/N -RA BR OVC005 06/06 A2992 RMK SF8 SLP132

CYYG;2008-05-01 02:00;CYYG 010200Z 16002KT 1SM R03/P6000FT/D -RA BR OVC003 06/06 A2991 RMK SF8 SLP130

CYYG;2008-05-01 03:00;CYYG 010300Z 25004KT 2 1/2SM -RA BR OVC004 06/06 A2992 RMK SF8 SLP134

CYYG;2008-05-01 04:00;CYYG 010400Z 33005KT 5SM -RA BR BKN006 OVC029 06/05 A2991 RMK SF6SC2 SLP129

CYYG;2008-05-01 05:00;CYYG 010500Z 32007KT 6SM -RA BR OVC005 06/05 A2991 RMK SF8 SLP129

CYYG;2008-05-01 06:00;CYYG 010600Z 33008KT 6SM -RA BR OVC005 05/04 A2992 RMK SF8 SLP132

CYYG;2008-05-01 07:00;CYYG 010700Z 33008KT 6SM -RA BR OVC005 05/04 A2991 RMK SF8 SLP130

CYYG;2008-05-01 08:00;CYYG 010800Z 34007KT 6SM -RA BR OVC004 04/03 A2991 RMK SF8 SLP131

CYYG;2008-05-01 09:00;CYYG 010900Z 32005KT 3SM -RA BR OVC004 04/03 A2992 RMK SF8 SLP133

CYYG;2008-05-01 10:00;CYYG 011000Z 31007KT 2 1/2SM -RA BR OVC005 03/02 A2993 RMK SF8 SLP137

CYYG;2008-05-01 11:00;CYYG 011100Z 34007KT 2 1/2SM -RA BR OVC005 03/02 A2996 RMK SF8 SLP145

CYYG;2008-05-01 12:00;CYYG 011200Z 30006KT 3SM -RA BR OVC006 03/02 A2996 RMK SF8 SLP146

CYYG;2008-05-01 13:00;CYYG 011300Z 34009G18KT 3SM -RA BR OVC005 03/02 A2996 RMK SF8 SLP148

CYYG;2008-05-01 14:00;CYYG 011400Z 34011G16KT 2SM -RA BR OVC005 03/02 A2998 RMK SF8 SLP153

CYYG;2008-05-01 14:40;CYYG 011440Z 33014KT 1SM R03/P6000FT/U -RA BR OVC004 03/ RMK SF8

CYYG;2008-05-01 15:00;CYYG 011500Z 33013KT 1 1/2SM -RA BR OVC005 03/02 A2998 RMK SF8 SLP152

CYYG;2008-05-01 15:56;CYYG 011556Z 34013G20KT 2SM -DZ BR OVC006 03/ RMK SF8

CYYG;2008-05-01 16:00;CYYG 011600Z 34015G20KT 2SM -DZ BR OVC006 03/02 A2998 RMK SF8 SLP154

CYYG;2008-05-01 17:00;CYYG 011700Z 34016KT 2SM -DZ BR OVC006 03/02 A2998 RMK SF8 SLP155

CYYG;2008-05-01 18:00;CYYG 011800Z 34013G19KT 1SM R03/P6000FT/N -DZ BR OVC006 03/02 A2998 RMK SF8 SLP155

CYYG;2008-05-01 19:00;CYYG 011900Z 35011G18KT 1SM R03/P6000FT/U -DZ BR OVC005 03/02 A2998 RMK SF8 SLP154

CYYG;2008-05-01 20:00;CYYG 012000Z CCA 34013KT 2SM -RA BR OVC006 03/02 A2999 RMK SF8 SLP157

CYYG;2008-05-01 21:00;CYYG 012100Z 34010KT 3SM -RA BR OVC006 02/01 A3000 RMK SF8 SLP161

CYYG;2008-05-01 22:00;CYYG 012200Z 33010G15KT 3SM -RA BR OVC008 02/01 A3000 RMK SF8 SLP161

CYYG;2008-05-01 23:00;CYYG 012300Z 34009KT 3SM -DZ BR BKN005 OVC023 02/01 A3001 RMK SF7SC1 SLP165

CYYG;2008-05-01 23:37;CYYG 012337Z 32008KT 5SM -RA BR OVC007 02/ RMK SF8

CYYG;2008-05-02 00:00;CYYG 020000Z 33008KT 10SM -RA BKN006 OVC022 02/01 A3002 RMK SF6SC2 SLP169

CYYG;2008-05-02 00:22;CYYG 020022Z 32008KT 15SM -DZ BKN005 OVC023 02/ RMK SF6SC2

CYYG;2008-05-02 01:00;CYYG 020100Z 35008KT 15SM -DZ OVC005 02/01 A3003 RMK SF8 SLP171

CYYG;2008-05-02 01:24;CYYG 020124Z 34008KT 15SM -RA OVC005 02/ RMK SF8

CYYG;2008-05-02 02:00;CYYG 020200Z 32009KT 15SM -RA OVC005 02/01 A3004 RMK SF8 SLP174

CYYG;2008-05-02 03:00;CYYG 020300Z 33009KT 10SM -RA BKN005 OVC021 02/01 A3004 RMK SF6SC2 SLP175

CYYG;2008-05-02 04:00;CYYG 020400Z 34006KT 15SM -RA BKN005 BKN017 OVC043 02/01 A3004 RMK SF6SC2SC1 SLP176

CYYG;2008-05-02 05:00;CYYG 020500Z 34005KT 15SM -RA BKN004 OVC016 02/01 A3005 RMK SF6SC2 SLP177

CYYG;2008-05-02 06:00;CYYG 020600Z 33006KT 15SM -RA BKN004 OVC027 02/01 A3004 RMK SF6SC2 SLP175

CYYG;2008-05-02 07:00;CYYG 020700Z 33004KT 5SM -RA BR OVC003 02/02 A3005 RMK SF8 SLP178

CYYG;2008-05-02 08:00;CYYG 020800Z 33003KT 5SM -RA BR OVC003 02/02 A3006 RMK SF8 SLP181

CYYG;2008-05-02 09:00;CYYG 020900Z 34003KT 5SM -DZ BR BKN003 OVC020 02/02 A3007 RMK SF6SC2 SLP185

CYYG;2008-05-02 09:22;CYYG 020922Z 34003KT 2SM -DZ BR BKN003 BKN008 OVC017 03/ RMK SF5SF2SC2

CYYG;2008-05-02 09:51;CYYG 020951Z 34003KT 5SM BR BKN003 OVC027 03/ RMK SF6SC2

CYYG;2008-05-02 10:00;CYYG 021000Z 35003KT 5SM BR BKN003 OVC027 03/02 A3009 RMK SF7SC1 SLP191

CYYG;2008-05-02 11:00;CYYG 021100Z 35003KT 8SM BKN004 BKN016 OVC027 03/03 A3010 RMK SF6SC1SC1 SLP195

CYYG;2008-05-02 12:00;CYYG 021200Z 10003KT 8SM BKN006 OVC020 04/03 A3012 RMK SF6SC2 SLP200

CYYG;2008-05-02 12:17;CYYG 021217Z 10003KT 4SM -DZ BR OVC006 04/ RMK SF8

CYYG;2008-05-02 13:00;CYYG 021300Z 12005KT 5SM -DZ BR OVC007 05/04 A3013 RMK SF8 SLP204

CYYG;2008-05-02 14:00;CYYG 021400Z CCA 12003KT 8SM -DZ OVC008 06/04 A3014 RMK SF8 SLP207

CYYG;2008-05-02 15:00;CYYG 021500Z 14004KT 8SM -DZ BKN008 OVC012 06/04 A3015 RMK SF6SC2 SLP212

CYYG;2008-05-02 15:50;CYYG 021550Z 13007KT 8SM -SHRA OVC009 07/ RMK SF8

CYYG;2008-05-02 16:00;CYYG 021600Z 14006KT 8SM -SHRA OVC009 07/05 A3015 RMK SF8 SLP213

CYYG;2008-05-02 17:00;CYYG 021700Z 14005KT 6SM BR BKN008 OVC013 07/05 A3016 RMK SF6SC2 SLP215

CYYG;2008-05-02 18:00;CYYG 021800Z 13005KT 4SM BR BKN007 OVC012 07/06 A3017 RMK SF6SC2 SLP217

CYYG;2008-05-02 18:08;CYYG 021808Z 13005KT 4SM -DZ BR OVC008 07/ RMK SF8

CYYG;2008-05-02 19:00;CYYG 021900Z 15004KT 10SM -DZ OVC010 08/06 A3017 RMK SF8 SLP218

CYYG;2008-05-02 20:00;CYYG 022000Z 20004KT 10SM -DZ OVC010 07/05 A3018 RMK SF8 SLP222

CYYG;2008-05-02 20:06;CYYG 022006Z 21003KT 10SM OVC011 07/ RMK SF8

CYYG;2008-05-02 21:00;CYYG 022100Z 23003KT 10SM BKN010 OVC016 07/05 A3019 RMK SF6SC2 SLP224

CYYG;2008-05-02 22:00;CYYG 022200Z 00000KT 6SM BR OVC011 07/06 A3019 RMK SF8 SLP225

CYYG;2008-05-02 22:54;CYYG 022254Z 00000KT 5SM -DZ BR FEW007 OVC010 07/ RMK SF2SF6

CYYG;2008-05-02 23:00;CYYG 022300Z 00000KT 5SM -DZ BR BKN007 OVC010 07/05 A3020 RMK SF5SF3 VIS NW-NE 2 SLP228

CYYG;2008-05-02 23:47;CYYG 022347Z 00000KT 10SM FEW007 OVC012 07/ RMK SF2SC6

CYYG;2008-05-03 00:00;CYYG 030000Z 07002KT 15SM OVC010 06/06 A3021 RMK SC8 SLP232

CYYG;2008-05-03 00:19;CYYG 030019Z 00000KT 15SM BKN005 OVC010 06/ RMK SF5SC3

CYYG;2008-05-03 00:39;CYYG 030039Z 03003KT 10SM BKN003 OVC005 06/ RMK SF6SF2

CYYG;2008-05-03 01:00;CYYG 030100Z 35002KT 10SM FEW003 OVC013 06/05 A3023 RMK SF2SC6 SLP239

CYYG;2008-05-03 02:00;CYYG 030200Z 00000KT 15SM SCT015 OVC027 05/04 A3025 RMK SC3SC5 SLP244

CYYG;2008-05-03 03:00;CYYG 030300Z 00000KT 15SM BKN016 OVC022 04/04 A3024 RMK SC6SC2 SLP243

CYYG;2008-05-03 04:00;CYYG 030400Z 36002KT 15SM OVC016 04/04 A3024 RMK SC8 SLP242

CYYG;2008-05-03 05:00;CYYG 030500Z 35002KT 15SM OVC015 04/04 A3023 RMK SC8 SLP239

CYYG;2008-05-03 06:00;CYYG 030600Z 36003KT 15SM OVC015 04/04 A3023 RMK SC8 SLP238

CYYG;2008-05-03 07:00;CYYG 030700Z 35004KT 15SM OVC015 04/03 A3023 RMK SC8 SLP240

CYYG;2008-05-03 08:00;CYYG 030800Z 01003KT 15SM BKN015 03/02 A3023 RMK SC7 SLP239

CYYG;2008-05-03 08:38;CYYG 030838Z 34004KT 10SM FEW002 FEW015 02/ RMK SF1SC2 VIS NW-E 2 BR

CYYG;2008-05-03 08:52;CYYG 030852Z 36004KT 1/4SM R03/P6000FT/D FG FEW015 02/ RMK FG2SC1

CYYG;2008-05-03 09:00;CYYG 030900Z 35003KT 1/4SM R03/P6000FT/D FG FEW017 02/01 A3025 RMK FG2SC1 SLP244

CYYG;2008-05-03 10:00;CYYG 031000Z 01006KT 1/8SM R03/1000V1600FT/D FG SKC 02/01 A3026 RMK FG6 SLP248

CYYG;2008-05-03 10:08;CYYG 031008Z 02007KT 1/8SM R03/0900FT/N FG VV001 02/ RMK FG8

CYYG;2008-05-03 11:00;CYYG 031100Z 03006KT 3/8SM R03/1200V4000FT/U FG VV002 03/02 A3026 RMK FG8 SLP249

CYYG;2008-05-03 11:25;CYYG 031125Z 04005KT 2SM BR BKN003 03/ RMK SF7

CYYG;2008-05-03 11:35;CYYG 031135Z 04006KT 4SM BR BKN005 04/ RMK SF7

CYYG;2008-05-03 12:00;CYYG 031200Z 03006KT 12SM SCT006 05/04 A3026 RMK SF3 SLP249

CYYG;2008-05-03 13:00;CYYG 031300Z 05007KT 15SM FEW012 07/04 A3025 RMK SC1 SLP246

CYYG;2008-05-03 14:00;CYYG 031400Z 02005KT 15SM FEW015 08/04 A3026 RMK SC1 SLP250

CYYG;2008-05-03 15:00;CYYG 031500Z 34006KT 15SM FEW020 09/04 A3026 RMK SC1 SLP250

CYYG;2008-05-03 16:00;CYYG 031600Z 36008KT 15SM SKC 08/02 A3027 RMK SLP252

CYYG;2008-05-03 17:00;CYYG 031700Z 01007KT 15SM SKC 09/02 A3026 RMK SLP248

CYYG;2008-05-03 18:00;CYYG 031800Z 05008KT 15SM SKC 09/03 A3024 RMK SLP242

CYYG;2008-05-03 19:00;CYYG 031900Z 03008KT 15SM FEW010 09/02 A3024 RMK SC1 SLP241

CYYG;2008-05-03 20:00;CYYG 032000Z 04009KT 15SM FEW010 09/03 A3022 RMK SC1 SLP236

CYYG;2008-05-03 21:00;CYYG 032100Z 03010KT 15SM FEW010 07/01 A3022 RMK SC1 SLP235

CYYG;2008-05-03 22:00;CYYG 032200Z 01008KT 15SM FEW010 06/01 A3023 RMK SC1 SLP237

CYYG;2008-05-03 23:00;CYYG 032300Z 03009KT 15SM FEW002 04/02 A3023 RMK SF1 FG BANK NW-E VIS 2 SLP239

CYYG;2008-05-03 23:16;CYYG 032316Z 02007KT 2SM BR BKN002 03/ RMK SF5 VIS SE-W 15

CYYG;2008-05-03 23:38;CYYG 032338Z 03006KT 1/2SM R03/P6000FT/N FG OVC002 02/ RMK FG3SF5

CYYG;2008-05-04 00:00;CYYG 040000Z 02005KT 1/2SM R03/P6000FT/D FG VV002 02/01 A3024 RMK FG8 SLP241

CYYG;2008-05-04 01:00;CYYG 040100Z 02003KT 3/4SM R03/3000VP6000FT/D BR VV002 02/01 A3025 RMK FG8 SLP245

CYYG;2008-05-04 01:21;CYYG 040121Z 02005KT 1/4SM R03/1600V3000FT/D FG VV001 01/ RMK FG8

CYYG;2008-05-04 02:00;CYYG 040200Z 05005KT 1/2SM R03/1800V2800FT/D FG VV002 01/01 A3023 RMK FG8 SLP240

CYYG;2008-05-04 03:00;CYYG 040300Z 36003KT 1/4SM R03/2000FT/N FG VV001 01/00 A3023 RMK FG8 SLP240

CYYG;2008-05-04 04:00;CYYG 040400Z 01003KT 1/4SM R03/1600V3500FT/D FG VV001 00/M00 A3022 RMK FG8 SLP236

CYYG;2008-05-04 05:00;CYYG 040500Z 02003KT 1/4SM R03/1200FT/N FZFG VV001 M00/M01 A3022 RMK FG8 SLP235

CYYG;2008-05-04 06:00;CYYG 040600Z 00000KT 1/2SM R03/2200FT/N FZFG VV001 M01/M01 A3020 RMK FG8 RIME ON INDICATOR SLP230

CYYG;2008-05-04 06:42;CYYG 040642Z 04005KT 1SM R03/2000V5500FT/U BR SKC M02/ RMK FG3 RIME ON INDICATOR

CYYG;2008-05-04 07:00;CYYG 040700Z 02002KT 1/2SM R03/3000FT/N FZFG SKC M01/M02 A3020 RMK FG4 RIME ON INDICATOR SLP229

CYYG;2008-05-04 08:00;CYYG 040800Z 00000KT 1/4SM R03/1600FT/N FZFG SKC M01/M02 A3020 RMK FG5 RIME ON INDICATOR SLP227

CYYG;2008-05-04 08:38;CYYG 040838Z 00000KT 1SM R03/P6000FT/U BR SKC M02/ RMK FG2 RIME ON INDICATOR

CYYG;2008-05-04 09:00;CYYG 040900Z 00000KT 3SM R03/1200V2000FT/D BCFG SKC M02/M03 A3019 RMK VIS SE-SW 1/4 SLP224

CYYG;2008-05-04 10:00;CYYG 041000Z 00000KT 15SM BCFG SKC M01/M01 A3020 RMK VIS E-SW 1 SLP228

CYYG;2008-05-04 11:00;CYYG 041100Z 00000KT 15SM SKC 03/02 A3021 RMK FG BNK OVR RIVER SLP231

CYYG;2008-05-04 12:00;CYYG 041200Z 16003KT 15SM FEW005 05/02 A3020 RMK SF1 SLP230

CYYG;2008-05-04 13:00;CYYG 041300Z 23002KT 15SM SKC 08/03 A3020 RMK SLP229

CYYG;2008-05-04 14:00;CYYG 041400Z 17004KT 15SM FEW050 11/02 A3019 RMK SC1 SLP226

CYYG;2008-05-04 15:00;CYYG 041500Z 19002KT 15SM FEW050 12/01 A3018 RMK SC1 SLP222

CYYG;2008-05-04 16:00;CYYG 041600Z 23004KT 15SM FEW050 15/03 A3017 RMK SC1 SLP217

CYYG;2008-05-04 17:00;CYYG 041700Z 15004KT 15SM FEW050 15/M02 A3014 RMK SC1 SLP207

CYYG;2008-05-04 18:00;CYYG 041800Z 13004KT 15SM FEW050 17/M03 A3012 RMK SC1 SLP199

CYYG;2008-05-04 19:00;CYYG 041900Z 12004KT 15SM FEW050 18/01 A3010 RMK SC1 SLP194

CYYG;2008-05-04 20:00;CYYG 042000Z 03006KT 15SM FEW250 18/05 A3009 RMK CI1 SLP189

CYYG;2008-05-04 21:00;CYYG 042100Z 03006KT 15SM FEW250 17/05 A3007 RMK CI2 SLP185

CYYG;2008-05-04 22:00;CYYG 042200Z 04006KT 15SM FEW250 15/05 A3007 RMK CI2 SLP184

CYYG;2008-05-04 23:00;CYYG 042300Z 00000KT 15SM FEW080 SCT250 11/04 A3008 RMK AC2CI2 SLP186

CYYG;2008-05-05 00:00;CYYG 050000Z 21003KT 15SM FEW080 FEW250 09/04 A3009 RMK AC1CI2 SLP189

CYYG;2008-05-05 01:00;CYYG 050100Z 15004KT 15SM FEW250 08/02 A3009 RMK CI2 SLP189

CYYG;2008-05-05 02:00;CYYG 050200Z 17002KT 15SM FEW250 08/02 A3008 RMK CI2 SLP186

CYYG;2008-05-05 03:00;CYYG 050300Z 20006KT 15SM SCT180 07/02 A3007 RMK CI3 SLP185

CYYG;2008-05-05 04:00;CYYG 050400Z 20005KT 15SM BKN170 07/02 A3007 RMK AC5 SLP185

CYYG;2008-05-05 05:00;CYYG 050500Z 21006KT 15SM BKN160 08/03 A3006 RMK AC6 SLP181

CYYG;2008-05-05 06:00;CYYG 050600Z 20004KT 15SM BKN150 07/03 A3006 RMK AC6 SLP180

CYYG;2008-05-05 07:00;CYYG 050700Z 18004KT 15SM BKN140 07/03 A3004 RMK AC7 SLP173

CYYG;2008-05-05 08:00;CYYG 050800Z 17004KT 15SM BKN120 BKN150 07/03 A3003 RMK AC5AC2 SLP171

CYYG;2008-05-05 09:00;CYYG 050900Z 22006KT 15SM BKN110 07/03 A3004 RMK AC7 SLP172

CYYG;2008-05-05 10:00;CYYG 051000Z 27003KT 15SM BKN120 08/04 A3004 RMK AC7 SLP173

CYYG;2008-05-05 11:00;CYYG 051100Z 31002KT 15SM BKN110 08/05 A3005 RMK AC7 SLP177

CYYG;2008-05-05 12:00;CYYG 051200Z 33004KT 15SM OVC110 10/04 A3005 RMK AC8 SLP177

CYYG;2008-05-05 13:00;CYYG 051300Z 01006KT 15SM OVC110 12/03 A3005 RMK AC8 SLP177

CYYG;2008-05-05 14:00;CYYG 051400Z 36006KT 15SM OVC084 13/04 A3005 RMK AC8 SLP177

CYYG;2008-05-05 15:00;CYYG 051500Z 36005KT 15SM OVC070 12/05 A3005 RMK AC8 SLP176

CYYG;2008-05-05 16:00;CYYG 051600Z 05004KT 15SM OVC070 13/05 A3004 RMK AC8 SLP172

CYYG;2008-05-05 17:00;CYYG 051700Z 03006KT 15SM BKN066 14/06 A3003 RMK AC7 SLP169

CYYG;2008-05-05 18:00;CYYG 051800Z 09004KT 15SM BKN080 14/05 A3002 RMK AC6 SLP166

CYYG;2008-05-05 19:00;CYYG 051900Z 09005KT 15SM BKN080 15/06 A3000 RMK AC5 SLP159

CYYG;2008-05-05 20:00;CYYG 052000Z 05006KT 15SM BKN060 15/06 A2998 RMK SC6 SLP154

CYYG;2008-05-05 21:00;CYYG 052100Z 03009KT 15SM BKN060 12/05 A2997 RMK SC6 SLP151

CYYG;2008-05-05 22:00;CYYG 052200Z 01006KT 15SM FEW060 BKN110 12/05 A2997 RMK SC2AC3 SLP149

CYYG;2008-05-05 23:00;CYYG 052300Z 07005KT 15SM FEW060 BKN090 10/04 A2998 RMK SC2AC4 SLP152

CYYG;2008-05-06 00:00;CYYG 060000Z 03004KT 15SM FEW064 BKN100 08/04 A2998 RMK SC2AC4 SLP155

CYYG;2008-05-06 01:00;CYYG 060100Z 34002KT 15SM FEW065 BKN100 08/04 A3000 RMK SC2AC4 SLP159

CYYG;2008-05-06 02:00;CYYG 060200Z 12002KT 15SM SCT065 BKN100 08/04 A2999 RMK SC4AC2 SLP157

CYYG;2008-05-06 03:00;CYYG 060300Z 11002KT 15SM FEW050 BKN065 BKN100 08/04 A2998 RMK SC2SC4AC2 SLP154

CYYG;2008-05-06 04:00;CYYG 060400Z 13004KT 15SM BKN049 OVC068 08/05 A2998 RMK SC6AC2 SLP153

CYYG;2008-05-06 05:00;CYYG 060500Z 16005KT 15SM BKN046 OVC068 09/04 A2996 RMK SC6AC2 SLP148

CYYG;2008-05-06 06:00;CYYG 060600Z 00000KT 15SM BKN046 OVC080 09/04 A2996 RMK SC5AC3 SLP145

CYYG;2008-05-06 07:00;CYYG 060700Z 36003KT 15SM BKN046 OVC080 07/03 A2995 RMK SC5AC3 SLP143

CYYG;2008-05-06 08:00;CYYG 060800Z 01004KT 15SM SCT046 BKN074 06/03 A2995 RMK SC3AC3 SLP143

CYYG;2008-05-06 09:00;CYYG 060900Z 35004KT 15SM BKN056 BKN082 06/04 A2995 RMK SC5AC2 SLP142

CYYG;2008-05-06 10:00;CYYG 061000Z 00000KT 15SM BKN055 BKN084 08/04 A2995 RMK SC6AC2 SLP144

CYYG;2008-05-06 11:00;CYYG 061100Z 04002KT 15SM BKN052 10/05 A2996 RMK SC7 SLP145

CYYG;2008-05-06 12:00;CYYG 061200Z 09002KT 15SM BKN050 12/05 A2995 RMK SC7 SLP144

CYYG;2008-05-06 13:00;CYYG 061300Z 10003KT 15SM BKN050 13/05 A2995 RMK SC7 SLP143

CYYG;2008-05-06 14:00;CYYG 061400Z 09004KT 15SM FEW050 BKN067 15/05 A2994 RMK SC2AC5 SLP140

CYYG;2008-05-06 15:00;CYYG 061500Z 11004KT 15SM SCT070 BKN300 16/06 A2994 RMK AC2CI2 SLP139

CYYG;2008-05-06 16:00;CYYG 061600Z 04005KT 15SM SCT043 BKN300 16/07 A2992 RMK SC2CI2 SLP133

CYYG;2008-05-06 17:00;CYYG 061700Z 02007KT 15SM FEW060 SCT075 BKN300 17/07 A2991 RMK SC1AC1CI2 SLP129

CYYG;2008-05-06 18:00;CYYG 061800Z 04008KT 15SM FEW060 SCT300 17/08 A2990 RMK SC1CI1 SLP126

CYYG;2008-05-06 19:00;CYYG 061900Z 02008KT 15SM FEW060 BKN300 17/08 A2989 RMK SC1CI2 SLP123

CYYG;2008-05-06 20:00;CYYG 062000Z 02008KT 15SM FEW060 BKN300 16/07 A2988 RMK SC1CI2 SLP118

CYYG;2008-05-06 21:00;CYYG 062100Z 04008KT 15SM FEW060 SCT300 16/07 A2987 RMK SC1CI1 SLP114

CYYG;2008-05-06 22:00;CYYG 062200Z 02006KT 15SM FEW060 FEW300 16/07 A2985 RMK SC1CI1 SLP110

CYYG;2008-05-06 23:00;CYYG 062300Z 17002KT 15SM FEW060 BKN300 14/07 A2986 RMK SC2CI2 SLP113

CYYG;2008-05-07 00:00;CYYG 070000Z 00000KT 15SM FEW060 BKN300 11/06 A2987 RMK SC2CI2 SLP116

CYYG;2008-05-07 01:00;CYYG 070100Z 11004KT 15SM FEW048 BKN300 10/06 A2988 RMK SC2CI2 SLP118

CYYG;2008-05-07 02:00;CYYG 070200Z 11003KT 15SM FEW046 BKN300 08/05 A2986 RMK SC2CI2 SLP112

CYYG;2008-05-07 03:00;CYYG 070300Z 13006KT 15SM FEW046 BKN300 08/05 A2985 RMK SC2CI2 SLP109

CYYG;2008-05-07 04:00;CYYG 070400Z 13004KT 15SM FEW040 SCT300 08/05 A2984 RMK SC2CI1 SLP106

CYYG;2008-05-07 05:00;CYYG 070500Z 14002KT 15SM FEW046 SCT300 06/05 A2983 RMK SC2CI1 SLP101

CYYG;2008-05-07 06:00;CYYG 070600Z 18002KT 15SM FEW046 SCT300 06/04 A2981 RMK SC1CI1 SLP096

CYYG;2008-05-07 07:00;CYYG 070700Z 25002KT 15SM FEW046 SCT300 05/04 A2981 RMK SC1CI1 SLP096

CYYG;2008-05-07 08:00;CYYG 070800Z 21003KT 15SM SCT300 06/05 A2980 RMK CI2 SLP092

CYYG;2008-05-07 09:00;CYYG 070900Z 00000KT 15SM MIFG BKN280 05/04 A2980 RMK CI2 SLP091

CYYG;2008-05-07 09:52;CYYG 070952Z 18004KT 1SM R03/P6000FT/N BR OVC280 07/ RMK FG5CI2

CYYG;2008-05-07 10:00;CYYG 071000Z 20004KT 1/2SM R03/1100VP6000FT/D FG OVC280 07/06 A2980 RMK FG5CI2 VIS 1/4MILE S SLP092

CYYG;2008-05-07 11:00;CYYG 071100Z 20004KT 3/8SM R03/1800V4000FT/D FG VV002 07/07 A2980 RMK FG8 SLP092

CYYG;2008-05-07 12:00;CYYG 071200Z 22004KT 3/8SM R03/2000VP6000FT/D FG VV002 09/09 A2980 RMK FG8 SLP091

CYYG;2008-05-07 12:17;CYYG 071217Z 22003KT 2SM BR BKN002 09/ RMK FG2SF4

CYYG;2008-05-07 12:29;CYYG 071229Z 21004KT 4SM BR SCT003 10/ RMK SF3

CYYG;2008-05-07 13:00;CYYG 071300Z 22002KT 8SM FEW005 FEW300 11/09 A2978 RMK SF1CI2 SLP086

CYYG;2008-05-07 14:00;CYYG 071400Z 17005KT 15SM FEW025 FEW300 16/10 A2978 RMK CU1CI1 SLP085

CYYG;2008-05-07 15:00;CYYG 071500Z 17005KT 15SM FEW025 FEW300 17/09 A2977 RMK CU1CI1 SLP083

CYYG;2008-05-07 16:00;CYYG 071600Z 18005KT 15SM FEW040 FEW300 18/07 A2977 RMK CU1CI1 SLP080

CYYG;2008-05-07 17:00;CYYG 071700Z 17005KT 15SM FEW040 FEW300 19/07 A2975 RMK CU1CI1 SLP075

CYYG;2008-05-07 18:00;CYYG 071800Z 22003KT 15SM FEW040 SCT300 19/06 A2973 RMK CU2CI1 TCU WEST SLP069

CYYG;2008-05-07 19:00;CYYG 071900Z 14008KT 15SM FEW040 SCT300 17/09 A2972 RMK CU2CI1 TCU ASOCTD SLP065

CYYG;2008-05-07 20:00;CYYG 072000Z 34002KT 15SM FEW040 FEW300 19/06 A2971 RMK SC1CI1 SLP061

CYYG;2008-05-07 21:00;CYYG 072100Z 19006KT 15SM FEW040 SCT300 16/06 A2973 RMK SC2CI1 SLP067

CYYG;2008-05-07 22:00;CYYG 072200Z 30005KT 15SM SCT040 SCT300 16/07 A2974 RMK SC2CI1 SLP072

CYYG;2008-05-07 23:00;CYYG 072300Z 32002KT 15SM FEW040 BKN090 BKN300 14/05 A2975 RMK SC2AC2CI1 SLP076

CYYG;2008-05-08 00:00;CYYG 080000Z 00000KT 15SM FEW060 BKN090 BKN300 12/05 A2975 RMK SC2AC2CI1 SLP075

CYYG;2008-05-08 01:00;CYYG 080100Z 00000KT 15SM FEW060 SCT090 BKN300 09/05 A2975 RMK SC2AC2CI1 SLP075

CYYG;2008-05-08 02:00;CYYG 080200Z 36002KT 15SM SCT088 BKN300 08/05 A2974 RMK AC3CI1 SLP073

CYYG;2008-05-08 03:00;CYYG 080300Z 03004KT 15SM BKN090 OVC300 08/05 A2975 RMK AC5CI1 SLP076

CYYG;2008-05-08 04:00;CYYG 080400Z 13004KT 15SM SCT090 BKN300 08/05 A2975 RMK AC3CI1 SLP076

CYYG;2008-05-08 05:00;CYYG 080500Z 00000KT 15SM FEW090 BKN300 07/05 A2975 RMK AC2CI2 SLP076

CYYG;2008-05-08 06:00;CYYG 080600Z 00000KT 15SM FEW090 FEW300 06/05 A2974 RMK AC1CI1 SLP073

CYYG;2008-05-08 07:00;CYYG 080700Z 16002KT 15SM SKC 07/05 A2974 RMK SLP073

CYYG;2008-05-08 08:00;CYYG 080800Z 00000KT 15SM MIFG SKC 04/03 A2974 RMK SLP071

CYYG;2008-05-08 09:00;CYYG 080900Z 12002KT 15SM MIFG FEW090 FEW260 05/04 A2974 RMK AC1CI1 SLP072

CYYG;2008-05-08 10:00;CYYG 081000Z 15002KT 15SM MIFG FEW090 SCT260 08/06 A2974 RMK AC2CI1 SLP072

CYYG;2008-05-08 11:00;CYYG 081100Z 19007KT 15SM BKN150 10/07 A2974 RMK AC6 SLP072

CYYG;2008-05-08 12:00;CYYG 081200Z 19007KT 15SM BKN130 09/07 A2974 RMK AC7 SLP071

CYYG;2008-05-08 13:00;CYYG 081300Z 18006KT 15SM BKN100 11/07 A2973 RMK AC7 SLP067

CYYG;2008-05-08 13:53;CYYG 081353Z 20006KT 15SM -RA BKN071 OVC100 10/ RMK AC6AC2

CYYG;2008-05-08 14:00;CYYG 081400Z 22007KT 15SM -RA SCT056 OVC076 10/08 A2971 RMK SC3AC5 SLP063

CYYG;2008-05-08 15:00;CYYG 081500Z 16005KT 15SM -RA OVC068 12/08 A2969 RMK AC8 SLP054

CYYG;2008-05-08 15:50;CYYG 081550Z 15003KT 15SM OVC072 11/ RMK AC8

CYYG;2008-05-08 16:00;CYYG 081600Z 14004KT 15SM SCT062 OVC072 11/08 A2966 RMK SC3AC5 SLP045

CYYG;2008-05-08 16:47;CYYG 081647Z 16003KT 15SM -RA OVC061 12/ RMK SC8

CYYG;2008-05-08 17:00;CYYG 081700Z 11004KT 15SM -RA OVC061 12/08 A2964 RMK SC8 SLP037

CYYG;2008-05-08 18:00;CYYG 081800Z 16005KT 10SM -RA OVC056 12/09 A2962 RMK SC8 SLP030

CYYG;2008-05-08 19:00;CYYG 081900Z 17012KT 10SM -RA SCT053 OVC060 11/08 A2960 RERA RMK SC3SC5 SLP024

CYYG;2008-05-08 20:00;CYYG 082000Z 17011KT 5SM RA BR BKN050 OVC060 10/08 A2956 RMK SC5SC3 SLP012

CYYG;2008-05-08 21:00;CYYG 082100Z 16009G15KT 3SM RA BR OVC029 09/07 A2953 RMK SC8 SLP002

CYYG;2008-05-08 21:02;CYYG 082102Z 15012KT 1 1/2SM +RA BR OVC026 09/ RMK SC8

CYYG;2008-05-08 21:40;CYYG 082140Z 15016G21KT 3SM RA BR BKN015 OVC026 08/ RMK SC6SC2

CYYG;2008-05-08 22:00;CYYG 082200Z 17011KT 2SM RA BR BKN007 OVC012 08/07 A2949 RMK SF6SC2 /R14/ SLP986

CYYG;2008-05-08 22:16;CYYG 082216Z 16013KT 15SM -RA BKN007 OVC011 08/ RERA RMK SF5SC3

CYYG;2008-05-08 22:22;CYYG 082222Z 16012KT 15SM FEW007 OVC010 08/ RERA RMK SF2SF6

CYYG;2008-05-08 22:55;CYYG 082255Z 16012KT 10SM BKN006 OVC011 09/ RERA RMK SF6SC2

CYYG;2008-05-08 23:00;CYYG 082300Z CCA 16012KT 10SM BKN006 OVC011 09/08 A2949 RERA RMK SF7SC1 VIS NW-NE 2 SLP986

CYYG;2008-05-08 23:35;CYYG 082335Z 17010KT 4SM BR BKN004 OVC011 09/ RMK SF7SC1

CYYG;2008-05-08 23:45;CYYG 082345Z 17009KT 3SM -DZ BR BKN004 OVC010 09/ RMK SF6SF2

CYYG;2008-05-09 00:00;CYYG 090000Z 17008KT 2 1/2SM -DZ BR BKN004 OVC009 09/08 A2948 RMK SF6SF2 SLP983

CYYG;2008-05-09 00:35;CYYG 090035Z 19005KT 2 1/2SM -DZ BR OVC003 09/ RMK SF8

CYYG;2008-05-09 01:00;CYYG 090100Z 20006KT 2 1/2SM -DZ BR OVC003 09/08 A2949 RMK SF8 SLP988

CYYG;2008-05-09 01:13;CYYG 090113Z 22005KT 1 1/2SM -DZ BR OVC002 08/ RMK SF8

CYYG;2008-05-09 02:00;CYYG 090200Z 25004KT 1 1/2SM -DZ BR OVC005 08/08 A2950 RMK FG2SF6 SLP989

CYYG;2008-05-09 02:43;CYYG 090243Z 25003KT 2SM -DZ BR BKN002 OVC008 09/ RMK SF6SF2

CYYG;2008-05-09 03:00;CYYG 090300Z 27003KT 2 1/2SM -DZ BR BKN002 OVC008 09/09 A2949 RMK SF5SF3 SLP987

CYYG;2008-05-09 03:31;CYYG 090331Z 28007KT 4SM -DZ BR OVC005 09/ RMK SF8

CYYG;2008-05-09 04:00;CYYG 090400Z 30006KT 3SM -DZ BR OVC005 09/09 A2950 RMK SF8 SLP990

CYYG;2008-05-09 04:51;CYYG 090451Z 29008KT 10SM BKN008 OVC013 09/ RMK SF6SC2

CYYG;2008-05-09 05:00;CYYG 090500Z 28012KT 10SM BKN007 OVC013 09/08 A2952 RMK SF6SC2 SLP996

CYYG;2008-05-09 06:00;CYYG 090600Z 29006KT 6SM BR OVC005 09/08 A2951 RMK SF8 SLP993

CYYG;2008-05-09 06:47;CYYG 090647Z 28007KT 10SM SCT005 BKN025 OVC038 09/ RMK SF3SC4SC1

CYYG;2008-05-09 07:00;CYYG 090700Z 29007KT 10SM BKN007 OVC025 09/08 A2952 RMK SF6SC2 SLP997

CYYG;2008-05-09 07:33;CYYG 090733Z 30007KT 10SM SCT007 OVC012 10/ RMK SF3SC5

CYYG;2008-05-09 08:00;CYYG 090800Z 30008KT 10SM BKN007 OVC018 10/08 A2953 RMK SF6SC2 SLP000

CYYG;2008-05-09 08:19;CYYG 090819Z 32009G16KT 12SM FEW007 FEW021 BKN075 09/ RMK SF2SC1AC5

CYYG;2008-05-09 08:35;CYYG 090835Z 31010KT 15SM BKN010 OVC075 09/ RMK SC7AC1

CYYG;2008-05-09 09:00;CYYG 090900Z 31010KT 15SM OVC011 09/07 A2955 RMK SC8 SLP007

CYYG;2008-05-09 10:00;CYYG 091000Z 31011KT 15SM OVC014 09/07 A2958 RMK SC8 SLP016

CYYG;2008-05-09 11:00;CYYG 091100Z 31011G17KT 15SM OVC011 09/07 A2959 RMK SC8 SLP021

CYYG;2008-05-09 12:00;CYYG 091200Z 31011G16KT 15SM OVC012 09/07 A2962 RMK SC8 SLP032

CYYG;2008-05-09 13:00;CYYG 091300Z 32011G18KT 15SM OVC012 09/06 A2964 RMK SC8 SLP038

CYYG;2008-05-09 14:00;CYYG 091400Z 32012G20KT 15SM OVC017 09/06 A2966 RMK SC8 SLP046

CYYG;2008-05-09 15:00;CYYG 091500Z 33015G21KT 15SM OVC015 09/06 A2968 RMK SC8 SLP051

CYYG;2008-05-09 16:00;CYYG 091600Z 33015G22KT 15SM OVC017 09/06 A2969 RMK SC8 SLP056

CYYG;2008-05-09 17:00;CYYG 091700Z 33014G22KT 15SM OVC017 09/05 A2972 RMK SC8 SLP064

CYYG;2008-05-09 18:00;CYYG 091800Z 32013G18KT 15SM BKN016 09/06 A2974 RMK SC7 SLP070

CYYG;2008-05-09 19:00;CYYG 091900Z 33011G17KT 15SM BKN018 08/05 A2976 RMK SC7 SLP078

CYYG;2008-05-09 20:00;CYYG 092000Z 32013G19KT 15SM SCT018 BKN030 09/05 A2976 RMK SC4SC3 SLP078

CYYG;2008-05-09 21:00;CYYG 092100Z 31014G19KT 15SM SCT015 BKN030 08/04 A2978 RMK SC3SC4 SLP087

CYYG;2008-05-09 21:42;CYYG 092142Z 32014KT 15SM BKN010 BKN030 06/ RMK SC5SC2

CYYG;2008-05-09 22:00;CYYG 092200Z 33011G18KT 15SM BKN010 OVC030 06/04 A2980 RMK SC6SC2 SLP092

CYYG;2008-05-09 22:15;CYYG 092215Z 32010G16KT 15SM BKN008 OVC030 05/ RMK SC7SC1

CYYG;2008-05-09 23:00;CYYG 092300Z 33009KT 15SM OVC008 05/03 A2982 RMK SF8 SLP101

CYYG;2008-05-09 23:44;CYYG 092344Z 31011G16KT 15SM OVC006 05/ RMK SF8

CYYG;2008-05-10 00:00;CYYG 100000Z 34013KT 15SM OVC006 04/03 A2983 RMK SF8 SLP104

CYYG;2008-05-10 00:05;CYYG 100005Z 34012G19KT 10SM OVC004 04/ RMK SF8 VIS NW-NE 2

CYYG;2008-05-10 00:12;CYYG 100012Z 33013KT 2SM BR OVC003 04/ RMK SF8

CYYG;2008-05-10 00:20;CYYG 100020Z 33012KT 1SM R03/P6000FT/D -DZ BR VV002 04/ RMK FG8

CYYG;2008-05-10 01:00;CYYG 100100Z 35009G16KT 3/4SM R03/4500FT/N -DZ BR VV002 04/04 A2982 RMK FG8 SLP101

CYYG;2008-05-10 01:21;CYYG 100121Z 36011KT 1/2SM R03/3000FT/N -DZ FG VV002 04/ RMK FG8

CYYG;2008-05-10 02:00;CYYG 100200Z 35006KT 1/2SM R03/3000FT/N -DZ FG VV002 04/04 A2983 RMK FG8 SLP103

CYYG;2008-05-10 03:00;CYYG 100300Z 01008KT 1/2SM R03/2800VP6000FT/U -DZ FG VV002 04/04 A2982 RMK FG8 SLP100

CYYG;2008-05-10 03:43;CYYG 100343Z 36007KT 1SM R03/5500FT/U -DZ BR OVC002 04/ RMK FG4SF4

CYYG;2008-05-10 04:00;CYYG 100400Z 01008KT 1 1/2SM -DZ BR OVC003 04/04 A2982 RMK SF8 SLP101

CYYG;2008-05-10 05:00;CYYG 100500Z 05006KT 1/2SM R03/2200FT/U -DZ FG VV002 05/04 A2983 RMK FG8 SLP104

CYYG;2008-05-10 06:00;CYYG 100600Z 09008KT 1 1/2SM -DZ BR OVC003 05/04 A2984 RMK SF8 SLP107

CYYG;2008-05-10 07:00;CYYG 100700Z 09010KT 2 1/2SM -DZ BR OVC003 05/04 A2984 RMK SF8 SLP105

CYYG;2008-05-10 08:00;CYYG 100800Z 09009KT 2 1/2SM -DZ BR BKN003 OVC007 05/04 A2984 RMK SF6SF2 SLP105

CYYG;2008-05-10 09:00;CYYG 100900Z 10010KT 10SM -DZ OVC005 05/04 A2984 RMK SF8 SLP105

CYYG;2008-05-10 10:00;CYYG 101000Z 10009KT 6SM -DZ BR OVC003 05/04 A2985 RMK SF8 SLP111

CYYG;2008-05-10 11:00;CYYG 101100Z 11010KT 5SM -DZ BR OVC004 05/04 A2986 RMK ST8 SLP114

CYYG;2008-05-10 11:27;CYYG 101127Z 09008KT 6SM -DZ BR OVC006 05/ RMK SF8

CYYG;2008-05-10 12:00;CYYG 101200Z 09010KT 12SM -DZ OVC006 06/05 A2985 RMK SF8 SLP111

CYYG;2008-05-10 12:04;CYYG 101204Z 09011KT 15SM OVC007 06/ RMK SF8

CYYG;2008-05-10 13:00;CYYG 101300Z 09011G16KT 15SM OVC007 06/05 A2986 RMK SF8 SLP112

CYYG;2008-05-10 14:00;CYYG 101400Z 10011KT 15SM OVC009 06/04 A2987 RMK SC8 SLP115

CYYG;2008-05-10 14:14;CYYG 101414Z 10009G15KT 15SM OVC011 06/ RMK SC8

CYYG;2008-05-10 15:00;CYYG 101500Z 11012G17KT 15SM OVC015 07/04 A2986 RMK SC8 SLP113

CYYG;2008-05-10 16:00;CYYG 101600Z 11012G18KT 15SM BKN018 OVC037 08/03 A2985 RMK SC6SC2 SLP111

CYYG;2008-05-10 17:00;CYYG 101700Z 09016KT 15SM BKN018 OVC043 08/03 A2985 RMK SC7SC1 SLP108

CYYG;2008-05-10 18:00;CYYG 101800Z 09014G20KT 15SM OVC019 08/03 A2984 RMK SC8 SLP106

CYYG;2008-05-10 19:00;CYYG 101900Z 09012G19KT 15SM OVC022 08/03 A2984 RMK SC8 SLP105

CYYG;2008-05-10 20:00;CYYG 102000Z 08013KT 15SM OVC022 08/03 A2983 RMK SC8 SLP104

CYYG;2008-05-10 21:00;CYYG 102100Z 05012KT 15SM FEW010 OVC023 07/03 A2983 RMK SF1SC7 SLP103

CYYG;2008-05-10 22:00;CYYG 102200Z 05015KT 15SM FEW010 FEW023 OVC150 06/03 A2982 RMK SF1SC2AS6 SLP100

CYYG;2008-05-10 23:00;CYYG 102300Z 05011G18KT 15SM FEW010 FEW023 OVC150 05/03 A2982 RMK SF1SC2AS6 SLP101

CYYG;2008-05-11 00:00;CYYG 110000Z 05012KT 15SM FEW010 OVC130 05/03 A2984 RMK SF2AC6 SLP106

CYYG;2008-05-11 01:00;CYYG 110100Z 05012KT 15SM FEW010 OVC130 04/03 A2984 RMK SF1AC7 SLP107

CYYG;2008-05-11 02:00;CYYG 110200Z 05013KT 15SM FEW010 OVC130 04/02 A2984 RMK SF2AC6 SLP105

CYYG;2008-05-11 02:42;CYYG 110242Z 05014KT 15SM SCT009 OVC100 04/ RMK SC3AC5

CYYG;2008-05-11 03:00;CYYG 110300Z 04014KT 15SM BKN009 BKN100 04/02 A2983 RMK SC6AC2 SLP102

CYYG;2008-05-11 04:00;CYYG 110400Z 05016KT 15SM SCT009 BKN100 04/02 A2982 RMK SC4AC3 SLP099

CYYG;2008-05-11 05:00;CYYG 110500Z 05015G21KT 15SM FEW009 OVC070 04/02 A2981 RMK SC2AC6 SLP097

CYYG;2008-05-11 06:00;CYYG 110600Z 04019G24KT 15SM FEW010 OVC076 04/02 A2981 RMK SC1AC7 SLP095

CYYG;2008-05-11 07:00;CYYG 110700Z 05016G21KT 15SM FEW010 BKN037 OVC080 05/01 A2981 RMK SC1SC6AC2 SLP095

CYYG;2008-05-11 07:30;CYYG 110730Z 05017G24KT 15SM -SHRA OVC016 05/ RMK SC8

CYYG;2008-05-11 08:00;CYYG 110800Z 05020G28KT 15SM -SHRA OVC016 04/02 A2981 RMK SC8 SLP097

CYYG;2008-05-11 09:00;CYYG 110900Z 04016G26KT 12SM -SHRA OVC014 04/02 A2982 RMK SC8 SLP100

CYYG;2008-05-11 10:00;CYYG 111000Z 04015G20KT 12SM -SHRA OVC020 04/03 A2982 RMK SC8 SLP100

CYYG;2008-05-11 11:00;CYYG 111100Z 04019G26KT 15SM -SHRA FEW010 OVC065 05/03 A2983 RMK SC2SC6 SLP103

CYYG;2008-05-11 11:26;CYYG 111126Z 04020G29KT 15SM FEW012 BKN045 OVC200 05/ RMK SC2SC4AS2

CYYG;2008-05-11 12:00;CYYG 111200Z 05019G28KT 15SM FEW012 BKN060 OVC120 05/03 A2984 RMK SC2SC3AS3 SLP105

CYYG;2008-05-11 13:00;CYYG 111300Z 05022G31KT 12SM FEW018 BKN082 OVC140 06/03 A2983 RMK SC2AC4AS2 SLP102

CYYG;2008-05-11 14:00;CYYG 111400Z 05016G26KT 15SM FEW018 BKN090 OVC120 06/03 A2983 RMK SC2AC3AC2 SLP102

CYYG;2008-05-11 14:15;CYYG 111415Z 06020G28KT 15SM BKN014 OVC100 06/ RMK SC6AC2

CYYG;2008-05-11 15:00;CYYG 111500Z 05021G28KT 15SM SCT018 OVC090 06/03 A2983 RMK SC4AC4 SLP102

CYYG;2008-05-11 16:00;CYYG 111600Z 05021G29KT 15SM BKN016 OVC090 07/03 A2982 RMK SC6AC2 SLP100

CYYG;2008-05-11 16:47;CYYG 111647Z 04021G29KT 15SM -SHRA BKN016 OVC090 06/ RMK SC7AC1

CYYG;2008-05-11 17:00;CYYG 111700Z 04021G29KT 15SM -SHRA OVC016 06/02 A2983 RMK SC8 PCPN VERY LGT SLP103

CYYG;2008-05-11 17:25;CYYG 111725Z 04023G28KT 15SM SCT016 OVC023 06/ RMK SC3SC5

CYYG;2008-05-11 17:42;CYYG 111742Z 04025G31KT 15SM -SHRA BKN016 OVC023 06/ RMK SC5SC3

CYYG;2008-05-11 18:00;CYYG 111800Z 04020G28KT 15SM -SHRA FEW016 OVC025 06/02 A2985 RMK SC2SC6 SLP110

CYYG;2008-05-11 18:42;CYYG 111842Z 03018G24KT 8SM -SHRA BKN011 OVC023 05/ RMK SC6SC2

CYYG;2008-05-11 19:00;CYYG 111900Z 03021G28KT 10SM -SHRA BKN012 OVC023 05/04 A2985 RMK SC7SC1 SLP109

CYYG;2008-05-11 20:00;CYYG 112000Z 03020G26KT 15SM -SHRA FEW012 OVC065 06/03 A2985 RMK SC2SC6 SLP108

CYYG;2008-05-11 21:00;CYYG 112100Z 04020G28KT 15SM FEW015 OVC068 06/02 A2984 RMK SC2AC6 SLP107

CYYG;2008-05-11 22:00;CYYG 112200Z 04020G29KT 15SM VCSH FEW015 BKN069 OVC250 06/03 A2983 RMK SC2AC4CI2 SLP104

CYYG;2008-05-11 23:00;CYYG 112300Z 04020G29KT 15SM VCSH FEW015 BKN067 BKN250 06/02 A2985 RMK SC1AC6CI1 SLP108

CYYG;2008-05-12 00:00;CYYG 120000Z 03019G28KT 15SM FEW015 BKN090 BKN150 06/02 A2985 RMK SC1AC6AC1 SLP110

CYYG;2008-05-12 01:00;CYYG 120100Z 01010G18KT 15SM FEW015 BKN080 BKN160 05/03 A2986 RMK SC1AC6AC1 SLP114

CYYG;2008-05-12 01:28;CYYG 120128Z 02010KT 15SM FEW008 BKN075 BKN160 04/ RMK SF2AC5AC1

CYYG;2008-05-12 02:00;CYYG 120200Z 02015G21KT 15SM FEW008 BKN080 04/02 A2987 RMK SF2AC6 SLP115

CYYG;2008-05-12 03:00;CYYG 120300Z 03015KT 15SM FEW010 BKN032 04/02 A2986 RMK SF2SC6 SLP114

CYYG;2008-05-12 04:00;CYYG 120400Z 03015G20KT 15SM FEW010 BKN028 04/03 A2986 RMK SF1SC6 SLP114

CYYG;2008-05-12 05:00;CYYG 120500Z 02011G16KT 15SM SCT019 OVC062 04/02 A2986 RMK SC3SC5 SLP112

CYYG;2008-05-12 06:00;CYYG 120600Z 02015KT 15SM SCT010 BKN040 04/02 A2985 RMK SC3SC3 SLP110

CYYG;2008-05-12 07:00;CYYG 120700Z 03013G22KT 15SM FEW010 BKN033 04/02 A2985 RMK SC1SC6 SLP108

CYYG;2008-05-12 08:00;CYYG 120800Z 01012G21KT 15SM FEW010 BKN033 04/02 A2984 RMK SC1SC6 SLP107

CYYG;2008-05-12 09:00;CYYG 120900Z 03015KT 15SM FEW010 BKN030 04/02 A2984 RMK SC1SC6 SLP107

CYYG;2008-05-12 09:31;CYYG 120931Z 03017G22KT 15SM FEW008 BKN029 04/ RMK SF2SC6

CYYG;2008-05-12 10:00;CYYG 121000Z 03019G25KT 15SM SCT009 BKN030 04/02 A2985 RMK SC3SC2 SLP108

CYYG;2008-05-12 11:00;CYYG 121100Z 04017G27KT 15SM BKN012 05/02 A2984 RMK SC6 SLP105

CYYG;2008-05-12 12:00;CYYG 121200Z 05020G29KT 15SM BKN015 05/02 A2984 RMK SC6 SLP107

CYYG;2008-05-12 13:00;CYYG 121300Z 04020G27KT 15SM SCT015 07/02 A2987 RMK SC4 SLP118

CYYG;2008-05-12 14:00;CYYG 121400Z 03019G25KT 15SM SCT020 07/03 A2990 RMK SC3 SLP125

CYYG;2008-05-12 15:00;CYYG 121500Z 02018G25KT 15SM FEW020 08/02 A2991 RMK CF2 SLP129

CYYG;2008-05-12 16:00;CYYG 121600Z 01014G22KT 15SM FEW020 09/04 A2991 RMK CF2 SLP130

CYYG;2008-05-12 17:00;CYYG 121700Z 01017G25KT 15SM FEW020 08/03 A2990 RMK CF2 SLP125

CYYG;2008-05-12 18:00;CYYG 121800Z 01013G22KT 10SM SCT020 08/03 A2992 RMK SC3 HAZY SLP132

CYYG;2008-05-12 19:00;CYYG 121900Z 36013G19KT 10SM SCT020 07/03 A2993 RMK SC3 HAZY SLP137

CYYG;2008-05-12 20:00;CYYG 122000Z 01013G18KT 10SM SCT014 06/02 A2993 RMK SC4 HAZY SLP135

CYYG;2008-05-12 21:00;CYYG 122100Z 02015G20KT 15SM SCT012 05/02 A2994 RMK SC4 SLP139

CYYG;2008-05-12 22:00;CYYG 122200Z 03014KT 15SM SCT011 04/02 A2992 RMK SC3 SLP134

CYYG;2008-05-12 23:00;CYYG 122300Z 03012KT 15SM SCT008 BKN300 03/01 A2991 RMK SC3CI0 SLP129

CYYG;2008-05-13 00:00;CYYG 130000Z 03010KT 15SM SCT008 BKN300 03/01 A2993 RMK SC3CI0 SLP135

CYYG;2008-05-13 01:00;CYYG 130100Z 03009KT 15SM SCT010 03/01 A2994 RMK SC4 SLP139

CYYG;2008-05-13 02:00;CYYG 130200Z 01005KT 15SM FEW010 02/01 A2995 RMK SC2 SLP142

CYYG;2008-05-13 03:00;CYYG 130300Z 01007KT 15SM FEW010 02/01 A2995 RMK SC2 SLP142

CYYG;2008-05-13 04:00;CYYG 130400Z 02010KT 15SM FEW010 02/01 A2994 RMK SC1 SLP139

CYYG;2008-05-13 05:00;CYYG 130500Z 03009KT 15SM FEW010 02/01 A2993 RMK SC1 SLP138

CYYG;2008-05-13 06:00;CYYG 130600Z 03013KT 15SM FEW010 03/01 A2994 RMK SC1 SLP140

CYYG;2008-05-13 07:00;CYYG 130700Z 04005KT 15SM FEW010 03/01 A2994 RMK SC1 SLP139

CYYG;2008-05-13 08:00;CYYG 130800Z 02010KT 15SM FEW010 FEW300 02/00 A2994 RMK SC1CI1 SLP139

CYYG;2008-05-13 09:00;CYYG 130900Z 03013KT 15SM BKN300 03/M00 A2995 RMK CI2 SLP143

CYYG;2008-05-13 10:00;CYYG 131000Z 04014G22KT 15SM BKN300 04/00 A2997 RMK CI2 SLP151

CYYG;2008-05-13 11:00;CYYG 131100Z 04015G21KT 15SM BKN300 05/M00 A2999 RMK CI2 SLP159

CYYG;2008-05-13 12:00;CYYG 131200Z 05019KT 15SM BKN300 06/M01 A3001 RMK CI2 SLP163

CYYG;2008-05-13 13:00;CYYG 131300Z 03021KT 15SM BKN300 06/M00 A3001 RMK CI2 SLP166

CYYG;2008-05-13 14:00;CYYG 131400Z 04022G27KT 15SM SCT300 07/M01 A3003 RMK CI1 SLP170

CYYG;2008-05-13 15:00;CYYG 131500Z 03021G27KT 15SM FEW025 SCT300 08/00 A3001 RMK CF1CI2 SLP166

CYYG;2008-05-13 16:00;CYYG 131600Z 03021G27KT 15SM FEW025 BKN300 07/00 A3001 RMK SC1CI1 SLP166

CYYG;2008-05-13 17:00;CYYG 131700Z 02021KT 15SM FEW025 BKN300 07/01 A3001 RMK SC2CI1 SLP164

CYYG;2008-05-13 18:00;CYYG 131800Z 03019G25KT 15SM FEW025 BKN300 07/02 A3001 RMK SC1CI1 SLP163

CYYG;2008-05-13 19:00;CYYG 131900Z 03018G24KT 15SM FEW025 BKN300 06/01 A3001 RMK SC2CI1 SLP163

CYYG;2008-05-13 20:00;CYYG 132000Z 02016G24KT 15SM FEW015 BKN300 06/01 A3001 RMK SC2CI1 SLP165

CYYG;2008-05-13 21:00;CYYG 132100Z 04019KT 15SM FEW015 BKN250 05/M00 A3001 RMK SC1CI1 SLP164

CYYG;2008-05-13 22:00;CYYG 132200Z 04016G22KT 15SM SCT250 04/M00 A3001 RMK CI2 SLP165

CYYG;2008-05-13 23:00;CYYG 132300Z 02015G20KT 15SM BKN250 03/M00 A3001 RMK CI2 SLP166

CYYG;2008-05-14 00:00;CYYG 140000Z 03012KT 15SM BKN250 03/M00 A3002 RMK CI2 SLP167

CYYG;2008-05-14 01:00;CYYG 140100Z 01009KT 15SM FEW250 03/M00 A3003 RMK CI2 SLP170

CYYG;2008-05-14 02:00;CYYG 140200Z 02009KT 15SM FEW250 02/M00 A3003 RMK CI2 SLP172

CYYG;2008-05-14 03:00;CYYG 140300Z 01008KT 15SM FEW120 03/M00 A3005 RMK AC2 SLP177

CYYG;2008-05-14 04:00;CYYG 140400Z 02008KT 15SM SCT120 02/M00 A3004 RMK AC3 SLP175

CYYG;2008-05-14 05:00;CYYG 140500Z 04010KT 15SM SCT120 03/00 A3003 RMK AC3 SLP172

CYYG;2008-05-14 06:00;CYYG 140600Z 03009KT 15SM BKN110 02/00 A3003 RMK AC5 SLP170

CYYG;2008-05-14 07:00;CYYG 140700Z 04008KT 15SM BKN110 03/00 A3002 RMK AC5 SLP167

CYYG;2008-05-14 08:00;CYYG 140800Z 04007KT 15SM BKN110 02/01 A3003 RMK AC6 SLP170

CYYG;2008-05-14 09:00;CYYG 140900Z 03008KT 15SM BKN110 02/01 A3003 RMK AC6 SLP170

CYYG;2008-05-14 10:00;CYYG 141000Z 01009KT 15SM SCT110 BKN270 03/02 A3004 RMK AC4CI1 SLP173

CYYG;2008-05-14 11:00;CYYG 141100Z 04010KT 15SM FEW110 BKN270 04/02 A3005 RMK AC2CI2 SLP179

CYYG;2008-05-14 12:00;CYYG 141200Z 04015KT 15SM FEW110 BKN270 06/02 A3006 RMK AC1CI2 SLP182

CYYG;2008-05-14 13:00;CYYG 141300Z 04015KT 15SM FEW110 BKN270 07/01 A3008 RMK AC1CI2 SLP187

CYYG;2008-05-14 14:00;CYYG 141400Z 04015G21KT 15SM BKN270 07/01 A3007 RMK CI4 SLP184

CYYG;2008-05-14 15:00;CYYG 141500Z 04017G22KT 15SM BKN270 09/02 A3006 RMK CI2 SLP180

CYYG;2008-05-14 16:00;CYYG 141600Z 05018G26KT 15SM BKN270 09/02 A3006 RMK CI2 SLP181

CYYG;2008-05-14 17:00;CYYG 141700Z 04020G25KT 15SM FEW270 10/01 A3005 RMK CI1 SLP178

CYYG;2008-05-14 18:00;CYYG 141800Z 05020G26KT 15SM FEW110 FEW330 09/01 A3004 RMK AC1CI1 SLP172

CYYG;2008-05-14 19:00;CYYG 141900Z 04018KT 15SM FEW110 FEW330 09/00 A3003 RMK AC1CI1 SLP170

CYYG;2008-05-14 20:00;CYYG 142000Z 03017KT 15SM FEW110 FEW330 09/M00 A3003 RMK AC1CI1 SLP170

CYYG;2008-05-14 21:00;CYYG 142100Z 04016G24KT 15SM FEW110 FEW330 08/M00 A3002 RMK AC1CI1 SLP167

CYYG;2008-05-14 22:00;CYYG 142200Z 04014KT 15SM FEW110 FEW330 07/00 A3001 RMK AC1CI1 SLP164

CYYG;2008-05-14 23:00;CYYG 142300Z 03008KT 15SM FEW330 06/01 A3002 RMK CI0 SLP167

CYYG;2008-05-15 00:00;CYYG 150000Z 02007KT 15SM FEW330 04/01 A3002 RMK CI1 SLP168

CYYG;2008-05-15 01:00;CYYG 150100Z 01006KT 15SM FEW330 03/01 A3003 RMK CI1 SLP171

CYYG;2008-05-15 02:00;CYYG 150200Z 36005KT 15SM FEW120 SCT330 03/01 A3002 RMK AC2CI1 SLP167

CYYG;2008-05-15 03:00;CYYG 150300Z 01005KT 15SM FEW120 SCT330 03/01 A3001 RMK AC2CI1 SLP164

CYYG;2008-05-15 04:00;CYYG 150400Z 36005KT 15SM FEW120 02/01 A3001 RMK AC2 SLP164

CYYG;2008-05-15 05:00;CYYG 150500Z 36005KT 15SM FEW120 03/02 A3001 RMK AC2 SLP163

CYYG;2008-05-15 06:00;CYYG 150600Z 01004KT 15SM FEW120 02/01 A3000 RMK AC2 SLP161

CYYG;2008-05-15 07:00;CYYG 150700Z 01006KT 15SM FEW120 03/02 A2999 RMK AC2 SLP157

CYYG;2008-05-15 08:00;CYYG 150800Z 36006KT 15SM FEW120 03/01 A2998 RMK AC2 SLP153

CYYG;2008-05-15 09:00;CYYG 150900Z 36005KT 15SM SCT090 03/02 A2997 RMK AC3 SLP150

CYYG;2008-05-15 10:00;CYYG 151000Z 02006KT 15SM FEW090 04/03 A2997 RMK AC2 SLP149

CYYG;2008-05-15 11:00;CYYG 151100Z 02006KT 15SM FEW090 07/04 A2996 RMK AC1 SLP147

CYYG;2008-05-15 12:00;CYYG 151200Z 04010KT 15SM FEW090 09/03 A2996 RMK AC1 SLP146

CYYG;2008-05-15 13:00;CYYG 151300Z 06010G17KT 15SM FEW090 11/03 A2995 RMK AC1 SLP142

CYYG;2008-05-15 14:00;CYYG 151400Z 06009KT 15SM FEW090 11/02 A2995 RMK AC1 SLP144

CYYG;2008-05-15 15:00;CYYG 151500Z 02013G18KT 15SM FEW090 12/02 A2994 RMK AC1 SLP141

CYYG;2008-05-15 16:00;CYYG 151600Z 03012KT 15SM BKN035 11/02 A2993 RMK SC6 SLP138

CYYG;2008-05-15 17:00;CYYG 151700Z 01010G15KT 15SM BKN040 11/02 A2992 RMK SC7 SLP132

CYYG;2008-05-15 18:00;CYYG 151800Z 03012KT 15SM BKN044 10/02 A2990 RMK SC7 SLP128

CYYG;2008-05-15 19:00;CYYG 151900Z 03011KT 15SM BKN042 09/01 A2990 RMK SC7 SLP125

CYYG;2008-05-15 20:00;CYYG 152000Z 05011KT 15SM FEW008 BKN042 BKN072 08/05 A2987 RMK SF1SC4AC2 SLP117

CYYG;2008-05-15 21:00;CYYG 152100Z 04010KT 15SM FEW008 BKN035 BKN070 07/05 A2986 RMK SF1SC5AC2 SLP114

CYYG;2008-05-15 22:00;CYYG 152200Z 36007KT 15SM FEW008 BKN033 07/04 A2986 RMK SF1SC6 SLP113

CYYG;2008-05-15 23:00;CYYG 152300Z 01008KT 15SM SCT008 OVC031 06/04 A2986 RMK SF3SC5 SLP113

CYYG;2008-05-16 00:00;CYYG 160000Z 02006KT 15SM SCT004 OVC018 05/04 A2986 RMK SF4SC4 VIS LWR NW-NE SLP114

CYYG;2008-05-16 00:15;CYYG 160015Z 02007KT 10SM BKN003 OVC013 05/ RMK SF6SC2

CYYG;2008-05-16 01:00;CYYG 160100Z 02008KT 10SM BKN003 OVC013 05/04 A2987 RMK SF6SC2 SLP116

CYYG;2008-05-16 01:27;CYYG 160127Z 03006KT 10SM -RA BKN003 OVC017 05/ RMK SF6SC2

CYYG;2008-05-16 02:00;CYYG 160200Z 03006KT 10SM -RA BKN005 OVC022 05/04 A2986 RMK SF5SC3 SLP113

CYYG;2008-05-16 02:16;CYYG 160216Z 03007KT 10SM RA SCT005 OVC024 05/ RMK SF4SC4

CYYG;2008-05-16 03:00;CYYG 160300Z 03008KT 10SM RA SCT005 OVC025 05/04 A2983 RMK SF4SC4 SLP103

CYYG;2008-05-16 04:00;CYYG 160400Z 01005KT 10SM -RA BKN004 OVC015 05/04 A2981 RMK SF6SC2 RERA SLP096

CYYG;2008-05-16 05:00;CYYG 160500Z 02005KT 10SM -RA OVC004 05/04 A2979 RMK SF8 SLP088

CYYG;2008-05-16 06:00;CYYG 160600Z 01004KT 6SM -RA BR OVC004 05/05 A2977 RMK SF8 SLP084

CYYG;2008-05-16 06:16;CYYG 160616Z CCA 34003KT 6SM -DZ BR OVC003 05/ RMK SF8

CYYG;2008-05-16 07:00;CYYG 160700Z 01007KT 4SM -DZ BR OVC003 05/05 A2976 RMK SF8 SLP080

CYYG;2008-05-16 08:00;CYYG 160800Z 36005KT 6SM -DZ BR OVC003 05/05 A2976 RMK SF8 SLP078

CYYG;2008-05-16 09:00;CYYG 160900Z 36004KT 6SM -DZ BR OVC003 05/05 A2976 RMK SF8 SLP079

CYYG;2008-05-16 09:13;CYYG 160913Z 35005KT 3SM -DZ BR OVC005 05/ RMK SF8

CYYG;2008-05-16 09:33;CYYG 160933Z 36007KT 2SM -DZ BR OVC003 05/ RMK SF8

CYYG;2008-05-16 10:00;CYYG 161000Z 36007KT 1 1/2SM -DZ BR OVC002 05/05 A2975 RMK SF8 SLP077

CYYG;2008-05-16 10:49;CYYG 161049Z 01007KT 1SM R03/5000FT/D -DZ BR OVC002 06/ RMK SF8

CYYG;2008-05-16 11:00;CYYG 161100Z 36006KT 3/4SM R03/5500FT/D -DZ BR OVC002 06/05 A2976 RMK SF8 SLP078

CYYG;2008-05-16 12:00;CYYG 161200Z 01007KT 3/4SM R03/4500FT/N -DZ BR OVC002 06/06 A2975 RMK SF8 SLP075

CYYG;2008-05-16 12:41;CYYG 161241Z 36008KT 1SM R03/6000FT/U -DZ BR OVC003 07/ RMK SF8

CYYG;2008-05-16 13:00;CYYG 161300Z 01006KT 3/4SM R03/3500V5500FT/D -DZ BR OVC002 08/07 A2975 RMK SF8 SLP075

CYYG;2008-05-16 13:40;CYYG 161340Z 02009KT 1SM R03/4500VP6000FT/U -DZ BR OVC002 07/ RMK SF8

CYYG;2008-05-16 14:00;CYYG 161400Z 01006KT 2SM BR OVC003 08/08 A2975 RMK SF8 SLP075

CYYG;2008-05-16 14:15;CYYG 161415Z 02004KT 5SM BR OVC004 08/ RMK SF8

CYYG;2008-05-16 14:27;CYYG 161427Z 03008KT 12SM OVC004 08/ RMK SF8

CYYG;2008-05-16 15:00;CYYG 161500Z 01008KT 15SM OVC005 09/08 A2975 RMK SC8 SLP075

CYYG;2008-05-16 16:00;CYYG 161600Z 02010KT 15SM OVC007 09/08 A2974 RMK SC8 SLP072

CYYG;2008-05-16 16:40;CYYG 161640Z 01008KT 4SM BR OVC007 09/ RMK SC8

CYYG;2008-05-16 17:00;CYYG 161700Z 02008KT 6SM BR OVC007 09/08 A2973 RMK SC8 SLP069

CYYG;2008-05-16 17:26;CYYG 161726Z 36007KT 12SM OVC008 09/ RMK SC8

CYYG;2008-05-16 18:00;CYYG 161800Z 01009KT 15SM OVC008 09/07 A2973 RMK SC8 SLP068

CYYG;2008-05-16 19:00;CYYG 161900Z 36007KT 15SM FEW007 OVC012 10/07 A2972 RMK SC2SC6 SLP065

CYYG;2008-05-16 20:00;CYYG 162000Z 02007KT 15SM BKN014 10/07 A2970 RMK SC6 SLP058

CYYG;2008-05-16 21:00;CYYG 162100Z 31004KT 15SM BKN013 10/07 A2969 RMK SC6 SLP056

CYYG;2008-05-16 22:00;CYYG 162200Z 03002KT 15SM BKN015 10/07 A2969 RMK SC6 SLP056

CYYG;2008-05-16 23:00;CYYG 162300Z 00000KT 15SM FEW015 FEW120 BKN250 10/07 A2969 RMK SC1AC2CI2 SLP056

CYYG;2008-05-17 00:00;CYYG 170000Z 09003KT 15SM FEW120 BKN250 08/06 A2968 RMK AC1CI2 SLP053

CYYG;2008-05-17 01:00;CYYG 170100Z 04002KT 15SM FEW120 OVC230 06/05 A2970 RMK AC1CI6 SLP058

CYYG;2008-05-17 02:00;CYYG 170200Z 04003KT 15SM OVC210 06/05 A2969 RMK CI6 SLP057

CYYG;2008-05-17 02:26;CYYG 170226Z 03003KT 8SM MIFG SCT010 BKN210 04/ RMK SF2CI3

CYYG;2008-05-17 02:44;CYYG 170244Z 00000KT 1SM R03/P6000FT/D BR BKN002 OVC210 04/ RMK SF6CI2

CYYG;2008-05-17 03:00;CYYG 170300Z 04003KT 5/8SM R03/3000FT/D BR OVC007 04/03 A2969 RMK SF8 SLP055

CYYG;2008-05-17 04:00;CYYG 170400Z 00000KT 1 1/2SM BR MIFG BKN006 BKN250 04/03 A2967 RMK FG3SC2CI1 SLP049

CYYG;2008-05-17 05:00;CYYG 170500Z 36002KT 10SM MIFG BKN005 03/03 A2966 RMK SF6 SLP044

CYYG;2008-05-17 06:00;CYYG 170600Z 36005KT 5/8SM R03/2800FT/U BR VV002 03/03 A2963 RMK FG8 SLP036

CYYG;2008-05-17 07:00;CYYG 170700Z 04004KT 3/8SM R03/2200FT/N FG VV002 04/04 A2961 RMK FG8 SLP028

CYYG;2008-05-17 08:00;CYYG 170800Z 09002KT 1/4SM R03/1200FT/N FG VV001 05/04 A2960 RMK FG8 SLP026

CYYG;2008-05-17 09:00;CYYG 170900Z 09004KT 1/4SM R03/1200FT/N FG VV001 05/04 A2959 RMK FG8 SLP020

CYYG;2008-05-17 10:00;CYYG 171000Z 11004KT 1/2SM R03/2000V3500FT/D FG VV002 05/05 A2959 RMK FG8 SLP020

CYYG;2008-05-17 10:37;CYYG 171037Z 12003KT 3/8SM R03/1800FT/N FG VV001 06/ RMK FG8

CYYG;2008-05-17 11:00;CYYG 171100Z 09003KT 3/8SM R03/1400V2000FT/U FG VV001 06/06 A2958 RMK FG8 SLP016

CYYG;2008-05-17 11:24;CYYG 171124Z 07005KT 1SM R03/P6000FT/D BR OVC002 06/ RMK SF8

CYYG;2008-05-17 11:38;CYYG 171138Z 06006KT 2SM BR BKN002 OVC008 06/ RMK SF6SF2

CYYG;2008-05-17 12:00;CYYG 171200Z 07006KT 6SM BR BKN003 OVC007 06/06 A2955 RMK SF6SF2 SLP008

CYYG;2008-05-17 13:00;CYYG 171300Z 08006KT 10SM OVC004 07/06 A2953 RMK SF8 VIS NW 1 SLP002

CYYG;2008-05-17 14:00;CYYG 171400Z 06006KT 15SM BKN005 OVC009 08/07 A2951 RMK SF6SF2 SLP994

CYYG;2008-05-17 14:39;CYYG 171439Z 08007KT 15SM SCT005 OVC008 08/ RMK SF3SF5

CYYG;2008-05-17 15:00;CYYG 171500Z 03006KT 15SM SCT008 BKN120 09/08 A2948 RMK SF4AC2 SLP984

CYYG;2008-05-17 16:00;CYYG 171600Z 03009KT 15SM FEW008 BKN120 OVC200 09/06 A2944 RMK SF2AC4CI2 SLP970

CYYG;2008-05-17 17:00;CYYG 171700Z 03009KT 15SM FEW008 BKN110 OVC200 09/06 A2941 RMK SF1AC6CI2 SLP959

CYYG;2008-05-17 18:00;CYYG 171800Z 02010KT 15SM FEW008 BKN084 OVC200 07/05 A2937 RMK SF1AC6CI2 SLP948

CYYG;2008-05-17 18:34;CYYG 171834Z 03012KT 15SM -SHRA FEW008 OVC061 06/ RMK SF1SC7

CYYG;2008-05-17 19:00;CYYG 171900Z 02011KT 12SM -SHRA FEW008 OVC054 06/04 A2933 RMK SF1SC7 SLP935

CYYG;2008-05-17 20:00;CYYG 172000Z 04011KT 12SM -SHRA FEW008 OVC060 05/04 A2931 RMK SF2SC6 SLP925

CYYG;2008-05-17 20:53;CYYG 172053Z 04013KT 12SM -SHRA BKN005 OVC040 05/ RMK SF5SC3

CYYG;2008-05-17 21:00;CYYG 172100Z 03016KT 12SM -SHRA BKN005 OVC040 05/04 A2927 RMK SF5SC3 SLP913

CYYG;2008-05-17 22:00;CYYG 172200Z 04014KT 10SM -SHRA BKN005 OVC040 05/04 A2925 RMK SF6SC2 SLP908

CYYG;2008-05-17 23:00;CYYG 172300Z 04020G29KT 8SM -SHRA OVC005 05/04 A2917 RMK SF8 SLP881

CYYG;2008-05-18 00:00;CYYG 180000Z 03017G22KT 10SM -SHRA OVC004 05/04 A2920 RMK SF8 SLP889

CYYG;2008-05-18 01:00;CYYG 180100Z 03012G17KT 10SM -SHRA OVC005 05/04 A2921 RMK SF8 SLP892

CYYG;2008-05-18 02:00;CYYG 180200Z 02013G20KT 10SM -SHRA OVC005 05/04 A2918 RMK SF8 SLP882

CYYG;2008-05-18 03:00;CYYG 180300Z 36011G16KT 8SM -SHRA OVC005 05/05 A2917 RMK SF8 SLP879

CYYG;2008-05-18 04:00;CYYG 180400Z 35011G16KT 8SM -SHRA OVC004 05/05 A2916 RMK SF8 SLP875

CYYG;2008-05-18 05:00;CYYG 180500Z 34011G16KT 8SM -SHRA OVC004 05/05 A2916 RMK SF8 SLP876

CYYG;2008-05-18 06:00;CYYG 180600Z 33012G19KT 8SM -SHRA OVC004 05/05 A2916 RMK SF8 SLP877

CYYG;2008-05-18 07:00;CYYG 180700Z 32013G18KT 10SM -SHRA OVC005 06/05 A2917 RMK SF8 SLP880

CYYG;2008-05-18 07:47;CYYG 180747Z 31012G18KT 15SM OVC007 06/ RMK SF8

CYYG;2008-05-18 08:00;CYYG 180800Z 31009G16KT 15SM BKN007 OVC040 06/05 A2918 RMK SF7SC1 SLP884

CYYG;2008-05-18 08:50;CYYG 180850Z 29009KT 15SM FEW007 SCT040 BKN110 06/ RMK SF2SC2AC3

CYYG;2008-05-18 09:00;CYYG 180900Z 29010KT 15SM FEW007 SCT040 BKN110 06/05 A2919 RMK SF2SC2AC4 SLP887

CYYG;2008-05-18 09:42;CYYG 180942Z 27008KT 15SM BKN007 OVC110 07/ RMK SF6AC2

CYYG;2008-05-18 10:00;CYYG 181000Z 27009KT 15SM BKN007 OVC110 07/06 A2920 RMK SF7AC1 SLP891

CYYG;2008-05-18 10:31;CYYG 181031Z 27010G17KT 12SM -SHRA BKN007 OVC110 08/07 RMK SF7AC1

CYYG;2008-05-18 11:00;CYYG 181100Z 26011KT 15SM -SHRA OVC006 08/07 A2923 RMK SF8 SLP898

CYYG;2008-05-18 12:00;CYYG 181200Z 27009KT 15SM -SHRA OVC006 08/07 A2923 RMK SF8 SLP900

CYYG;2008-05-18 12:19;CYYG 181219Z 26010KT 15SM OVC007 09/ RMK SF8

CYYG;2008-05-18 13:00;CYYG 181300Z 25010KT 15SM BKN008 BKN022 09/08 A2923 RMK SF6SC2 SLP898

CYYG;2008-05-18 13:43;CYYG 181343Z 25013KT 15SM BKN012 BKN017 10/ RMK SC5SC2

CYYG;2008-05-18 14:00;CYYG 181400Z 25010G16KT 15SM BKN014 11/08 A2922 RMK SC7 SLP896

CYYG;2008-05-18 15:00;CYYG 181500Z 27008KT 15SM BKN015 12/09 A2923 RMK SC7 SLP897

CYYG;2008-05-18 16:00;CYYG 181600Z 25009KT 15SM BKN023 13/09 A2924 RMK SC7 SLP901

CYYG;2008-05-18 17:00;CYYG 181700Z 25008G15KT 15SM BKN026 15/09 A2924 RMK SC6 SLP903

CYYG;2008-05-18 18:00;CYYG 181800Z 29011G16KT 15SM BKN029 16/10 A2924 RMK SC5 SLP901

CYYG;2008-05-18 19:00;CYYG 181900Z 27006KT 15SM FEW030 SCT140 BKN280 17/11 A2925 RMK CU2AC2CI1 SLP904

CYYG;2008-05-18 20:00;CYYG 182000Z 25008KT 15SM BKN049 BKN280 16/09 A2928 RMK SC6CI1 SLP916

CYYG;2008-05-18 20:23;CYYG 182023Z 25003KT 15SM -SHRA FEW030 BKN052 OVC280 15/ RMK SC1SC6CI1

CYYG;2008-05-18 20:52;CYYG 182052Z 26010KT 15SM SCT050 BKN280 16/ RMK SC2CI1

CYYG;2008-05-18 21:00;CYYG 182100Z 26008KT 15SM SCT050 SCT280 16/10 A2930 RMK SC2CI1 SLP922

CYYG;2008-05-18 22:00;CYYG 182200Z 00000KT 15SM FEW050 14/09 A2932 RMK SC1 SLP930

CYYG;2008-05-18 23:00;CYYG 182300Z 17003KT 15SM FEW050 FEW250 14/09 A2935 RMK SC1CI0 SLP940

CYYG;2008-05-19 00:00;CYYG 190000Z 20005KT 15SM FEW045 SCT250 11/08 A2938 RMK SC1CI1 SLP949

CYYG;2008-05-19 01:00;CYYG 190100Z 22006KT 15SM FEW045 SCT250 12/07 A2940 RMK SC1CI1 SLP957

CYYG;2008-05-19 02:00;CYYG 190200Z 23009KT 15SM FEW045 SCT240 12/06 A2940 RMK SC1CI1 SLP957

CYYG;2008-05-19 03:00;CYYG 190300Z 20007KT 15SM FEW130 SCT230 11/06 A2941 RMK AC1CI1 SLP961

CYYG;2008-05-19 04:00;CYYG 190400Z 18006KT 15SM SCT130 BKN230 09/06 A2943 RMK AC3CI1 SLP966

CYYG;2008-05-19 05:00;CYYG 190500Z 18007KT 15SM BKN130 BKN230 19/06 A2942 RMK AC5CI2 SLP963

CYYG;2008-05-19 06:00;CYYG 190600Z CCA 18009KT 15SM OVC130 10/07 A2941 RMK AC8 SLP960

CYYG;2008-05-19 07:00;CYYG 190700Z CCA 19010KT 15SM OVC110 11/07 A2941 RMK AC8 SLP959

CYYG;2008-05-19 08:00;CYYG 190800Z 17007KT 15SM FEW080 BKN100 10/07 A2941 RMK AC2AC5 SLP960

CYYG;2008-05-19 08:29;CYYG 190829Z 18007KT 15SM -SHRA BKN073 09/ RMK AC7

CYYG;2008-05-19 09:00;CYYG 190900Z 17007KT 8SM -SHRA OVC076 09/07 A2942 RMK AC8 SLP961

CYYG;2008-05-19 10:00;CYYG 191000Z 14006KT 6SM -RA BR OVC071 09/08 A2939 RMK AC8 VIS LWR E SLP953

CYYG;2008-05-19 11:00;CYYG 191100Z 13010KT 6SM -RA BR OVC040 09/08 A2938 RMK SC8 SLP949

CYYG;2008-05-19 11:35;CYYG 191135Z 13003KT 6SM -RA BR FEW007 OVC024 09/ RMK SF1SC8

CYYG;2008-05-19 11:53;CYYG 191153Z 09003KT 6SM -RA BR OVC009 09/ RMK SF8

CYYG;2008-05-19 12:00;CYYG 191200Z 10005KT 6SM -RA BR OVC009 09/09 A2936 RMK SF8 SLP943

CYYG;2008-05-19 12:33;CYYG 191233Z 13007KT 5SM -RA BR OVC006 09/ RMK SF8

CYYG;2008-05-19 13:00;CYYG 191300Z 14011KT 3SM -RA BR OVC004 10/09 A2932 RMK SF8 SLP930

CYYG;2008-05-19 13:26;CYYG 191326Z 15012G17KT 2 1/2SM RA BR OVC004 10/ RMK SF8

CYYG;2008-05-19 14:00;CYYG 191400Z 15013KT 2SM +RA BR OVC003 10/09 A2930 RMK SF8 SLP924

CYYG;2008-05-19 15:00;CYYG 191500Z 16011KT 1 1/2SM RA BR BKN003 OVC008 10/10 A2928 RERA RMK SF7SF1 SLP917

CYYG;2008-05-19 15:45;CYYG 191545Z 17011KT 2 1/2SM -RA BR OVC002 11/ RERA RMK SF8

CYYG;2008-05-19 16:00;CYYG 191600Z 17011KT 2 1/2SM -RA BR OVC003 11/11 A2926 RERA RMK SF8 /R13/ SLP910

CYYG;2008-05-19 16:13;CYYG 191613Z 17009KT 2 1/2SM RA BR OVC002 11/ RMK SF8

CYYG;2008-05-19 17:00;CYYG 191700Z 17009KT 3SM -RA BR OVC003 12/12 A2925 RERA RMK SF8 SLP905

CYYG;2008-05-19 17:37;CYYG 191737Z 18008KT 2 1/2SM RA BR OVC002 12/ RMK SF8

CYYG;2008-05-19 18:00;CYYG 191800Z 19008KT 2 1/2SM -RA BR OVC002 12/11 A2924 RERA RMK SF8 SLP901

CYYG;2008-05-19 18:53;CYYG 191853Z 17009KT 8SM BKN002 BKN015 OVC050 12/ RMK SF6CU1SC2

CYYG;2008-05-19 19:00;CYYG 191900Z 18010KT 10SM BKN002 BKN025 OVC050 12/11 A2922 RMK SF6CU1SC2 SLP895

CYYG;2008-05-19 19:13;CYYG 191913Z 21008KT 15SM SCT003 SCT015 OVC045 12/ RMK SF3SC1SC4 CU ASOCTD

CYYG;2008-05-19 20:00;CYYG 192000Z 21008KT 15SM FEW004 BKN038 BKN250 13/11 A2920 RMK SF2SC4CI0 SLP889

CYYG;2008-05-19 21:00;CYYG 192100Z 20008KT 15SM FEW010 BKN020 BKN250 14/12 A2919 RMK SC2SC4CI0 TCU TOPS DIST S-SW SLP885

CYYG;2008-05-19 22:00;CYYG 192200Z CCA 19008KT 15SM FEW016 FEW030 SCT250 13/11 A2919 RMK SC2CU1CI0 TCU TOPS DIST S-SW SLP886

CYYG;2008-05-19 23:00;CYYG 192300Z 23005KT 15SM FEW016 FEW030 SCT250 12/10 A2920 RMK SC1SC1CI0 TCU ASOCTD SE-S SLP890

CYYG;2008-05-20 00:00;CYYG 200000Z CCA 25009KT 15SM FEW020 SCT250 09/03 A2921 RMK SC2CI1 CB EMBD DIST S SLP892

CYYG;2008-05-20 01:00;CYYG 200100Z 25008KT 15SM FEW024 SCT250 09/02 A2923 RMK SC2CI0 CB TOP DIST E SLP897

CYYG;2008-05-20 02:00;CYYG 200200Z 22008KT 15SM FEW024 FEW250 09/02 A2923 RMK SC1CI0 SLP897

CYYG;2008-05-20 03:00;CYYG 200300Z 21008KT 15SM FEW250 08/03 A2922 RMK CI0 SLP896

CYYG;2008-05-20 04:00;CYYG 200400Z 22006KT 15SM SCT220 07/03 A2923 RMK CI1 SLP898

CYYG;2008-05-20 05:00;CYYG 200500Z 22008KT 15SM FEW060 FEW130 BKN220 08/03 A2923 RMK SC1AC1CI1 SLP900

CYYG;2008-05-20 06:00;CYYG 200600Z 22012G17KT 15SM FEW050 FEW160 BKN220 07/03 A2924 RMK SC2AC1CI1 SLP903

CYYG;2008-05-20 07:00;CYYG 200700Z 23008KT 15SM FEW050 FEW160 SCT220 07/03 A2924 RMK SC1AC1CI0 SLP902

CYYG;2008-05-20 08:00;CYYG 200800Z 23009KT 15SM FEW054 SCT070 BKN230 07/04 A2924 RMK SC2AC1CI0 SLP903

CYYG;2008-05-20 09:00;CYYG 200900Z 22009KT 15SM SCT028 BKN052 BKN077 07/04 A2925 RMK SC3SC2AC2 SLP906

CYYG;2008-05-20 10:00;CYYG 201000Z 21010G15KT 15SM FEW024 SCT050 SCT110 BKN240 08/05 A2927 RMK SC2SC2AC1CI1 SLP911

CYYG;2008-05-20 11:00;CYYG 201100Z 21013KT 15SM SCT014 BKN032 BKN240 08/05 A2928 RMK SC2SC2CI2 SLP915

CYYG;2008-05-20 12:00;CYYG 201200Z 22014KT 15SM BKN015 08/05 A2929 RMK SC7 SLP920

CYYG;2008-05-20 12:26;CYYG 201226Z 23017KT 10SM -SHRA OVC013 08/ RMK SC8

CYYG;2008-05-20 13:00;CYYG 201300Z 23012G17KT 10SM -SHRA OVC011 08/06 A2931 RMK SC8 SLP925

CYYG;2008-05-20 13:37;CYYG 201337Z 23014KT 15SM BKN010 OVC018 08/ RMK SF6SC2

CYYG;2008-05-20 13:53;CYYG 201353Z 22014KT 15SM -SHRA OVC011 08/ RMK SF8

CYYG;2008-05-20 14:00;CYYG 201400Z 23013G18KT 15SM -SHRA BKN010 OVC014 08/06 A2932 RMK SF6SC2 SLP931

CYYG;2008-05-20 14:14;CYYG 201414Z 23013G18KT 15SM BKN011 OVC020 09/ RMK SF6SC2

CYYG;2008-05-20 15:00;CYYG 201500Z 23012KT 15SM BKN012 OVC024 09/06 A2935 RMK SF5SC3 SLP941

CYYG;2008-05-20 16:00;CYYG 201600Z 23013G20KT 15SM FEW014 BKN028 11/07 A2937 RMK SF2SC5 SLP946

CYYG;2008-05-20 17:00;CYYG 201700Z 23015G24KT 15SM BKN024 12/07 A2938 RMK SC6 SLP951

CYYG;2008-05-20 18:00;CYYG 201800Z 25014G21KT 15SM SCT030 BKN280 14/06 A2938 RMK CU3CI0 SLP951

CYYG;2008-05-20 19:00;CYYG 201900Z 24016G21KT 15SM SCT030 BKN280 14/06 A2940 RMK CU2CI1 SLP956

CYYG;2008-05-20 20:00;CYYG 202000Z 25020G26KT 15SM FEW030 BKN062 14/05 A2942 RMK SC2SC3 SLP963

CYYG;2008-05-20 21:00;CYYG 202100Z 24014G20KT 15SM FEW060 SCT280 13/04 A2942 RMK SC2CI1 SLP965

CYYG;2008-05-20 22:00;CYYG 202200Z 25013KT 15SM FEW040 FEW082 SCT280 13/04 A2944 RMK SC1AC2CI1 SLP970

CYYG;2008-05-20 23:00;CYYG 202300Z 25012G17KT 15SM FEW040 BKN082 BKN280 12/04 A2947 RMK SC1AC4CI1 SLP979

CYYG;2008-05-21 00:00;CYYG 210000Z 24008KT 15SM BKN080 BKN250 12/04 A2948 RMK AC6CI1 SLP984

CYYG;2008-05-21 01:00;CYYG 210100Z 23006KT 15SM BKN080 BKN130 10/03 A2950 RMK AC5AC2 SLP991

CYYG;2008-05-21 02:00;CYYG 210200Z 22004KT 15SM SCT080 SCT130 BKN250 09/03 A2951 RMK AC3AC1CI1 SLP994

CYYG;2008-05-21 03:00;CYYG 210300Z 23004KT 15SM FEW080 BKN180 09/03 A2951 RMK AC2AC2 SLP994

CYYG;2008-05-21 04:00;CYYG 210400Z 18005KT 15SM FEW110 BKN180 07/03 A2950 RMK AC1AC2 SLP990

CYYG;2008-05-21 05:00;CYYG 210500Z 19004KT 15SM FEW110 SCT180 07/04 A2949 RMK AC1AC2 SLP988

CYYG;2008-05-21 06:00;CYYG 210600Z 16005KT 15SM FEW200 06/04 A2947 RMK CI1 SLP981

CYYG;2008-05-21 07:00;CYYG 210700Z 17006KT 15SM FEW200 06/04 A2946 RMK CI1 SLP978

CYYG;2008-05-21 08:00;CYYG 210800Z 14005KT 15SM SCT120 BKN200 07/05 A2944 RMK AC3CI2 SLP972

CYYG;2008-05-21 09:00;CYYG 210900Z 11006KT 15SM BKN063 07/05 A2943 RMK SC7 SLP967

CYYG;2008-05-21 10:00;CYYG 211000Z 10005KT 12SM BKN045 OVC074 07/05 A2939 RMK SC6AC2 SLP955

CYYG;2008-05-21 10:14;CYYG 211014Z 12006KT 10SM -SHRA OVC042 07/ RMK SC8

CYYG;2008-05-21 11:00;CYYG 211100Z 11009KT 6SM RA BR OVC039 06/05 A2939 RMK SC8 SLP955

CYYG;2008-05-21 11:17;CYYG 211117Z 09007KT 8SM -RA OVC037 07/ RMK SC8

CYYG;2008-05-21 12:00;CYYG 211200Z CCA 11005KT 6SM -RA BR OVC035 07/06 A2941 RMK SC8 RERA SLP959

CYYG;2008-05-21 12:41;CYYG 211241Z 09007KT 6SM -RA BR FEW006 OVC035 07/ RMK SF2SC6

CYYG;2008-05-21 13:00;CYYG 211300Z 09008KT 6SM -RA BR BKN008 OVC035 07/06 A2938 RMK SF5SC3 SLP949

CYYG;2008-05-21 14:00;CYYG 211400Z 06012KT 6SM -RA BR BKN009 OVC035 08/07 A2935 RMK SF5SC3 SLP940

CYYG;2008-05-21 14:35;CYYG 211435Z 03013KT 10SM -RA BKN010 OVC038 08/ RMK SF6SC2

CYYG;2008-05-21 15:00;CYYG 211500Z 04018KT 10SM -RA BKN006 OVC024 07/06 A2932 RMK SF6SC2 SLP929

CYYG;2008-05-21 15:28;CYYG 211528Z 03018G26KT 5SM -RA BR OVC006 07/ RMK SF8

CYYG;2008-05-21 16:00;CYYG 211600Z 02016G24KT 2 1/2SM -RA BR OVC005 07/06 A2930 RMK SF8 SLP922

CYYG;2008-05-21 16:43;CYYG 211643Z 02017G24KT 1 1/2SM -RA BR OVC007 07/ RMK SF8

CYYG;2008-05-21 17:00;CYYG 211700Z 02019KT 1 1/2SM R03/5500FT/N -RA BR OVC005 07/06 A2928 RMK SF8 SLP918

CYYG;2008-05-21 18:00;CYYG 211800Z 03018KT 1 1/2SM -RA BR OVC007 06/06 A2928 RMK SF8 SLP915

CYYG;2008-05-21 18:42;CYYG 211842Z 02019G25KT 3SM -RA BR OVC005 06/ RMK SF8

CYYG;2008-05-21 19:00;CYYG 211900Z 02018G24KT 8SM -RA OVC005 06/05 A2925 RMK SF8 SLP908

CYYG;2008-05-21 20:00;CYYG 212000Z 01015G28KT 10SM -RA OVC004 06/05 A2927 RMK SF8 SLP913

CYYG;2008-05-21 20:40;CYYG 212040Z 36013G21KT 3SM -RA BR OVC004 06/ RMK SF8

CYYG;2008-05-21 21:00;CYYG 212100Z 35015G20KT 6SM -RA BR OVC007 06/06 A2930 RMK SF8 SLP923

CYYG;2008-05-21 21:20;CYYG 212120Z 34010G18KT 6SM -DZ BR OVC005 07/ RMK SF8

CYYG;2008-05-21 21:34;CYYG 212134Z 34014G19KT 3SM -DZ BR OVC004 07/ RMK SF8

CYYG;2008-05-21 22:00;CYYG 212200Z 35013G27KT 6SM -DZ BR OVC006 07/06 A2933 RMK SF8 SLP933

CYYG;2008-05-21 22:13;CYYG 212213Z 35012G20KT 12SM OVC008 07/ RMK SF8

CYYG;2008-05-21 23:00;CYYG 212300Z 34014G19KT 12SM BKN009 OVC028 07/06 A2936 RMK SF6SC2 SLP944

CYYG;2008-05-22 00:00;CYYG 220000Z 33014G20KT 12SM -SHRA BKN009 OVC032 07/06 A2939 RMK SF6SC2 SLP952

CYYG;2008-05-22 01:00;CYYG 220100Z 32010G15KT 15SM -SHRA BKN009 OVC040 07/06 A2941 RMK SF6SC2 SLP961

CYYG;2008-05-22 02:00;CYYG 220200Z 32008KT 12SM BKN007 OVC040 07/06 A2943 RMK SF6SC2 SLP967

CYYG;2008-05-22 03:00;CYYG 220300Z 29007KT 15SM BKN008 OVC040 07/06 A2945 RMK SF6SC2 SLP973

CYYG;2008-05-22 04:00;CYYG 220400Z 30007KT 15SM OVC009 07/06 A2947 RMK SF8 SLP979

CYYG;2008-05-22 05:00;CYYG 220500Z 29007KT 15SM OVC009 07/06 A2947 RMK SF8 SLP982

CYYG;2008-05-22 06:00;CYYG 220600Z 29004KT 15SM BKN009 BKN045 06/05 A2948 RMK SF5SC2 SLP983

CYYG;2008-05-22 06:13;CYYG 220613Z 25006KT 15SM SCT006 BKN045 06/ RMK SF4SC2

CYYG;2008-05-22 07:00;CYYG 220700Z 26007KT 15SM FEW006 SCT045 06/05 A2949 RMK SF2SC2 SLP986

CYYG;2008-05-22 08:00;CYYG 220800Z 24007KT 15SM FEW006 SCT045 05/05 A2950 RMK SF2SC2 SLP990

CYYG;2008-05-22 08:13;CYYG 220813Z 24006KT 3SM BR SCT002 BKN045 05/ RMK SF3SC2 VIS NW 1

CYYG;2008-05-22 08:18;CYYG 220818Z 24006KT 5/8SM R03/1600V5000FT/D BR VV001 05/ RMK FG8

CYYG;2008-05-22 08:23;CYYG 220823Z 24007KT 3/8SM R03/1200V2200FT/D FG VV001 05/ RMK FG8

CYYG;2008-05-22 08:30;CYYG 220830Z 25007KT 1/4SM R03/1200FT/N FG VV001 05/ RMK FG8

CYYG;2008-05-22 08:43;CYYG 220843Z 24006KT 1/2SM R03/1000V1800FT/N FG BKN100 BKN250 05/ RMK FG4AC1CI1

CYYG;2008-05-22 08:54;CYYG 220854Z 24006KT 1SM R03/1400V3000FT/U BR SCT100 BKN250 05/ RMK FG2AC1CI1

CYYG;2008-05-22 09:00;CYYG 220900Z 25005KT 15SM R03/1800VP6000FT/U SCT100 BKN250 05/05 A2951 RMK FG1AC1CI1 SLP993

CYYG;2008-05-22 10:00;CYYG 221000Z 23006KT 15SM FEW080 BKN250 07/06 A2952 RMK AC2CI1 SLP996

CYYG;2008-05-22 11:00;CYYG 221100Z 22005KT 15SM FEW006 SCT080 BKN250 08/07 A2952 RMK SF1AC2CI2 SLP998

CYYG;2008-05-22 12:00;CYYG 221200Z 21006KT 15SM SCT009 BKN090 BKN250 10/07 A2952 RMK SC4AC1CI2 SLP999

CYYG;2008-05-22 13:00;CYYG 221300Z 21006KT 15SM FEW009 BKN100 BKN250 10/08 A2952 RMK SC2AC3CI1 SLP998

CYYG;2008-05-22 14:00;CYYG 221400Z 24005KT 15SM FEW009 BKN100 BKN250 11/08 A2953 RMK SC2AC3CI1 SLP000

CYYG;2008-05-22 15:00;CYYG 221500Z 19005KT 15SM FEW011 FEW110 BKN270 12/09 A2953 RMK SC2AC1CI0 SLP000

CYYG;2008-05-22 16:00;CYYG 221600Z 16007KT 15SM FEW015 FEW110 SCT250 14/10 A2953 RMK SC1AC1CI2 SLP000

CYYG;2008-05-22 17:00;CYYG 221700Z 22005KT 15SM FEW025TCU FEW110 SCT200 16/10 A2952 RMK TCU1AC2CI1 SLP996

CYYG;2008-05-22 18:00;CYYG 221800Z 22004KT 15SM FEW025TCU FEW110 BKN200 17/09 A2950 RMK TCU1AC2CI1 SLP992

CYYG;2008-05-22 19:00;CYYG 221900Z 22006KT 15SM FEW030TCU SCT100 BKN200 18/09 A2949 RMK TCU1AC2CI0 SLP986

CYYG;2008-05-22 20:00;CYYG 222000Z 17012KT 15SM SCT030TCU BKN220 17/08 A2948 RMK TCU3CI2 SLP983

CYYG;2008-05-22 21:00;CYYG 222100Z 19007KT 15SM VCSH FEW040 FEW100TCU BKN130 16/08 A2948 RMK SC1TCU2AC3 SLP985

CYYG;2008-05-22 21:44;CYYG 222144Z 20008KT 15SM -SHRA BKN040 BKN100 15/ RMK SC5AC2 TCU EMBDD

CYYG;2008-05-22 22:00;CYYG 222200Z CCA 23008KT 10SM -SHRA BKN033 BKN058 BKN100 13/09 A2951 RMK SC5SC1AC2 TCU EMBDD SLP995

CYYG;2008-05-22 23:00;CYYG 222300Z 22005KT 15SM -SHRA FEW033 BKN060 BKN100 13/09 A2951 RMK SC2SC3AC2 TCU EMBDD SLP993

CYYG;2008-05-23 00:00;CYYG 230000Z 21005KT 15SM FEW030 SCT060 BKN100 13/07 A2949 RMK SC1SC2AC3 SLP987

CYYG;2008-05-23 01:00;CYYG 230100Z 16002KT 15SM FEW030 FEW060 BKN100 11/08 A2950 RMK SC1SC2AC4 SLP990

CYYG;2008-05-23 02:00;CYYG 230200Z 17006KT 15SM FEW060 BKN110 09/07 A2949 RMK SC2AC5 SLP987

CYYG;2008-05-23 03:00;CYYG 230300Z 20007KT 15SM SCT110 09/06 A2948 RMK AC3 SLP983

CYYG;2008-05-23 04:00;CYYG 230400Z 17004KT 15SM SCT110 08/06 A2947 RMK AC3 SLP982

CYYG;2008-05-23 05:00;CYYG 230500Z 16004KT 15SM SCT130 08/07 A2946 RMK AC3 SLP976

CYYG;2008-05-23 06:00;CYYG 230600Z 15005KT 15SM FEW120 SCT220 08/07 A2944 RMK AC2CI2 SLP972

CYYG;2008-05-23 07:00;CYYG 230700Z 17002KT 12SM SCT002 SCT120 OVC220 08/07 A2943 RMK SF3AC1CI4 SLP966

CYYG;2008-05-23 07:09;CYYG 230709Z 18002KT 8SM BKN002 BKN220 07/ RMK SF6CI2

CYYG;2008-05-23 08:00;CYYG 230800Z 15003KT 3SM BR SCT002 BKN150 OVC250 08/07 A2941 RMK SF3AC2CI2 SLP961

CYYG;2008-05-23 08:46;CYYG 230846Z 00000KT 2SM R03/5500FT/D BR FEW002 BKN150 OVC250 07/ RMK SF2AC2CI2

CYYG;2008-05-23 09:00;CYYG 230900Z 00000KT 1 1/2SM BR FEW002 BKN130 OVC250 07/06 A2941 RMK SF2AC3CI2 SLP961

CYYG;2008-05-23 09:23;CYYG 230923Z 12007KT 3/4SM R03/P6000FT/D BR OVC130 08/ RMK FG4AC4

CYYG;2008-05-23 09:34;CYYG 230934Z 13007KT 1/2SM R03/2000V4000FT/D FG VV002 08/ RMK FG8

CYYG;2008-05-23 09:46;CYYG 230946Z 13007KT 3/8SM R03/1400V2400FT/D FG VV001 08/ RMK FG8

CYYG;2008-05-23 10:00;CYYG 231000Z 12007KT 1/4SM R03/1200FT/N FG VV001 08/08 A2943 RMK FG8 SLP966

CYYG;2008-05-23 10:23;CYYG 231023Z 12007KT 3/4SM R03/P6000FT/N BR VV002 08/ RMK FG8

CYYG;2008-05-23 10:32;CYYG 231032Z 12007KT 2SM BR OVC002 08/ RMK SF8

CYYG;2008-05-23 10:42;CYYG 231042Z 13005KT 3SM BR BKN003 OVC010 08/ RMK SF6SF2

CYYG;2008-05-23 10:46;CYYG 231046Z 10005KT 3SM -RA BR OVC003 08/ RMK SF8

CYYG;2008-05-23 11:00;CYYG 231100Z 12005KT 3SM -RA BR BKN003 OVC032 09/08 A2944 RMK SF6SC2 SLP971

CYYG;2008-05-23 12:00;CYYG 231200Z 14005KT 15SM SCT005 OVC042 09/08 A2945 RMK SF3SC5 SLP974

CYYG;2008-05-23 12:43;CYYG 231243Z 14006KT 15SM -SHRA BKN009 OVC022 09/ RMK SF6SC2

CYYG;2008-05-23 13:00;CYYG 231300Z 16006KT 15SM -SHRA BKN012 OVC025 10/08 A2945 RMK SF6SC2 SLP973

CYYG;2008-05-23 13:41;CYYG 231341Z 16006KT 15SM SCT014 BKN048 10/ RMK SF3SC4

CYYG;2008-05-23 14:00;CYYG 231400Z 12003KT 15SM SCT013 BKN017 OVC050 10/07 A2945 RMK SF3SC2SC2 SLP973

CYYG;2008-05-23 15:00;CYYG 231500Z 11003KT 15SM SCT018 BKN045 11/07 A2944 RMK SC3SC4 SLP970

CYYG;2008-05-23 15:51;CYYG 231551Z 09003KT 15SM -SHRA OVC026 10/ RMK SC8

CYYG;2008-05-23 16:00;CYYG 231600Z 09002KT 15SM -SHRA OVC022 10/07 A2945 RMK SC8 SLP973

CYYG;2008-05-23 17:00;CYYG 231700Z 03009KT 15SM -SHRA SCT020 OVC047 10/07 A2945 RMK SC4SC4 SLP973

CYYG;2008-05-23 18:00;CYYG 231800Z 03010KT 10SM -SHRA SCT025 OVC045 10/08 A2946 RMK SC3SC5 SLP976

CYYG;2008-05-23 18:42;CYYG 231842Z 01010KT 8SM -SHRA OVC008 09/ RMK SF8

CYYG;2008-05-23 19:00;CYYG 231900Z 01010G17KT 8SM -SHRA BKN008 OVC016 09/08 A2947 RMK SF6SC2 SLP979

CYYG;2008-05-23 20:00;CYYG 232000Z 01011KT 4SM -SHRA BR OVC005 08/07 A2949 RMK SF8 SLP987

CYYG;2008-05-23 21:00;CYYG 232100Z 01011KT 4SM -SHRA BR OVC005 07/06 A2950 RMK SF8 SLP991

CYYG;2008-05-23 22:00;CYYG 232200Z 02010KT 5SM -SHRA BR OVC004 07/06 A2951 RMK SF8 SLP995

CYYG;2008-05-23 23:00;CYYG 232300Z 36010KT 3SM -SHRA BR OVC003 07/06 A2953 RMK SF8 SLP002

CYYG;2008-05-24 00:00;CYYG 240000Z 36009KT 6SM -SHRA BR OVC002 06/06 A2955 RMK SF8 SLP007

CYYG;2008-05-24 00:31;CYYG 240031Z 36008KT 6SM BR OVC003 06/ RMK SF8

CYYG;2008-05-24 01:00;CYYG 240100Z 36007G15KT 6SM BR OVC004 06/05 A2957 RMK SF8 SLP014

CYYG;2008-05-24 01:23;CYYG 240123Z 36011KT 8SM -DZ OVC006 06/ RMK SF8

CYYG;2008-05-24 02:00;CYYG 240200Z 36009KT 8SM -DZ OVC006 06/05 A2958 RMK SF8 SLP016

CYYG;2008-05-24 03:00;CYYG 240300Z 36006KT 8SM -DZ OVC008 06/05 A2958 RMK SF8 SLP017

CYYG;2008-05-24 04:00;CYYG 240400Z 35008KT 8SM -RA BKN006 OVC014 06/06 A2958 RMK SF6SC2 SLP018

CYYG;2008-05-24 05:00;CYYG 240500Z 36007KT 7SM -RA OVC005 06/06 A2958 RMK SF8 SLP018

CYYG;2008-05-24 06:00;CYYG 240600Z 34006KT 10SM -RA OVC006 06/06 A2958 RMK SF8 SLP017

CYYG;2008-05-24 06:11;CYYG 240611Z 34007KT 10SM -DZ BKN007 OVC020 06/ RMK SF6SC2

CYYG;2008-05-24 07:00;CYYG 240700Z 32005KT 10SM -DZ OVC009 06/06 A2958 RMK SF8 SLP018

CYYG;2008-05-24 08:00;CYYG 240800Z 31006KT 10SM -DZ OVC009 07/05 A2958 RMK SF8 SLP019

CYYG;2008-05-24 08:34;CYYG 240834Z 31007KT 3SM BR OVC008 06/ RMK SF8

CYYG;2008-05-24 08:43;CYYG 240843Z 31007KT 1 1/2SM BR OVC005 06/ RMK SF8

CYYG;2008-05-24 09:00;CYYG 240900Z 32008KT 1 1/2SM BR OVC004 06/06 A2959 RMK SF8 SLP022

CYYG;2008-05-24 10:00;CYYG 241000Z 31006KT 1 1/2SM R03/3500FT/N BR OVC005 07/06 A2960 RMK SF8 SLP026

CYYG;2008-05-24 10:47;CYYG 241047Z 31006KT 1 1/2SM -DZ BR OVC004 07/ RMK SF8

CYYG;2008-05-24 11:00;CYYG 241100Z 31006KT 1 1/2SM -DZ BR OVC004 07/06 A2962 RMK SF8 SLP032

CYYG;2008-05-24 11:45;CYYG 241145Z 32008KT 3SM -DZ BR BKN005 OVC010 07/ RMK SF5SC3

CYYG;2008-05-24 12:00;CYYG 241200Z 32008KT 6SM -DZ BR BKN006 OVC010 07/07 A2964 RMK SF7SC1 VIS N 2 SLP040

CYYG;2008-05-24 12:13;CYYG 241213Z 31008KT 2 1/2SM -DZ BR BKN005 OVC010 07/ RMK SF7SC1 VIS NW-N 1

CYYG;2008-05-24 13:00;CYYG 241300Z 34009KT 2SM -DZ BR OVC005 07/06 A2966 RMK SF8 SLP047

CYYG;2008-05-24 14:00;CYYG 241400Z 02010KT 2SM -DZ BR OVC005 07/06 A2968 RMK SF8 SLP052

CYYG;2008-05-24 14:42;CYYG 241442Z 36009KT 8SM BKN006 OVC012 07/ RMK SF6SC2

CYYG;2008-05-24 15:00;CYYG 241500Z 01010KT 12SM SCT006 OVC012 07/05 A2970 RMK SF4SC4 SLP059

CYYG;2008-05-24 16:00;CYYG 241600Z 35011KT 15SM FEW007 BKN014 BKN045 08/05 A2971 RMK SF2SC4SC1 SLP062

CYYG;2008-05-24 17:00;CYYG 241700Z 34011G19KT 15SM SCT018 BKN061 09/04 A2972 RMK SC4SC3 SLP067

CYYG;2008-05-24 18:00;CYYG 241800Z 36011G18KT 15SM FEW020 BKN064 09/02 A2973 RMK CF2SC4 SLP070

CYYG;2008-05-24 19:00;CYYG 241900Z 35009G15KT 15SM FEW022 SCT062 09/03 A2975 RMK CF1SC2 SLP075

CYYG;2008-05-24 20:00;CYYG 242000Z 01010G15KT 15SM FEW030 FEW060 SCT300 10/03 A2976 RMK CF1SC1CI1 SLP079

CYYG;2008-05-24 21:00;CYYG 242100Z 35009KT 15SM FEW030 FEW300 10/03 A2977 RMK SC1CI1 SLP083

CYYG;2008-05-24 22:00;CYYG 242200Z 02006KT 15SM FEW030 BKN046 BKN300 08/03 A2979 RMK CF1SC4CI1 SLP091

CYYG;2008-05-24 22:29;CYYG 242229Z 36006KT 15SM -SHRA FEW030 BKN040 08/ RMK CF1SC6

CYYG;2008-05-24 23:00;CYYG 242300Z 02005KT 15SM -SHRA FEW035 BKN043 07/03 A2981 RMK SC2SC5 SLP096

CYYG;2008-05-25 00:00;CYYG 250000Z 27002KT 15SM -SHRA OVC041 07/03 A2982 RMK SC8 SLP098

CYYG;2008-05-25 00:54;CYYG 250054Z 26003KT 15SM FEW060 OVC098 07/ RMK SC2AC6

CYYG;2008-05-25 01:00;CYYG 250100Z 25004KT 15SM FEW060 OVC098 07/03 A2983 RMK SC2AC6 SLP103

CYYG;2008-05-25 02:00;CYYG 250200Z 26004KT 15SM BKN050 OVC099 07/03 A2984 RMK SC6AC2 SLP107

CYYG;2008-05-25 03:00;CYYG 250300Z 25006KT 15SM BKN055 OVC110 07/04 A2984 RMK SC5AC3 SLP107

CYYG;2008-05-25 04:00;CYYG 250400Z 25006KT 15SM OVC110 07/04 A2984 RMK AC8 SLP107

CYYG;2008-05-25 05:00;CYYG 250500Z 25005KT 15SM OVC110 07/04 A2985 RMK AC8 SLP109

CYYG;2008-05-25 06:00;CYYG 250600Z 27006KT 15SM FEW060 OVC110 07/04 A2986 RMK SC2AC6 SLP112

CYYG;2008-05-25 07:00;CYYG 250700Z 27006KT 15SM SCT075 OVC120 07/04 A2986 RMK AC3AC4 SLP114

CYYG;2008-05-25 08:00;CYYG 250800Z 27005KT 15SM FEW075 SCT120 BKN250 07/05 A2987 RMK AC2AC2CI1 SLP115

CYYG;2008-05-25 09:00;CYYG 250900Z 27005KT 15SM FEW120 BKN220 07/05 A2987 RMK AC2CI2 SLP118

CYYG;2008-05-25 10:00;CYYG 251000Z 27005KT 15SM FEW120 BKN220 07/05 A2989 RMK AC2CI2 SLP123

CYYG;2008-05-25 11:00;CYYG 251100Z 30005KT 15SM FEW120 SCT250 09/07 A2990 RMK AC1CI2 SLP127

CYYG;2008-05-25 12:00;CYYG 251200Z 27004KT 15SM FEW120 FEW250 12/05 A2991 RMK AC1CI1 SLP131

CYYG;2008-05-25 13:00;CYYG 251300Z 31004KT 15SM FEW100 FEW250 13/04 A2991 RMK AC1CI1 SLP129

CYYG;2008-05-25 14:00;CYYG 251400Z 25006KT 15SM FEW040 SCT058 SCT250 14/02 A2991 RMK SC1SC1CI1 SLP131

CYYG;2008-05-25 15:00;CYYG 251500Z 03004KT 15SM FEW040 SCT090 SCT250 15/02 A2990 RMK SC2AC2CI0 SLP128

CYYG;2008-05-25 16:00;CYYG 251600Z 00000KT 15SM BKN098 14/06 A2990 RMK AC5 SLP128

CYYG;2008-05-25 17:00;CYYG 251700Z 20008KT 15SM BKN098 14/05 A2991 RMK AC6 SLP129

CYYG;2008-05-25 18:00;CYYG 251800Z 21006KT 15SM BKN098 15/07 A2990 RMK AC3 SLP128

CYYG;2008-05-25 19:00;CYYG 251900Z 20006KT 15SM BKN095 15/04 A2990 RMK AC3 SLP126

CYYG;2008-05-25 20:00;CYYG 252000Z 17009KT 15SM FEW095 SCT250 15/04 A2990 RMK AC2CI1 SLP125

CYYG;2008-05-25 21:00;CYYG 252100Z 19010KT 15SM FEW095 FEW250 15/01 A2989 RMK AC1CI1 SLP124

CYYG;2008-05-25 22:00;CYYG 252200Z 19005KT 15SM FEW095 FEW250 13/04 A2989 RMK AC1CI1 SLP123

CYYG;2008-05-25 23:00;CYYG 252300Z 18005KT 15SM FEW100 FEW300 13/04 A2990 RMK AC1CI0 SLP125

CYYG;2008-05-26 00:00;CYYG 260000Z 20004KT 15SM FEW300 11/04 A2990 RMK CI1 SLP127

CYYG;2008-05-26 01:00;CYYG 260100Z 19008KT 15SM FEW300 09/03 A2990 RMK CI1 SLP127

CYYG;2008-05-26 02:00;CYYG 260200Z 22007KT 15SM SKC 11/04 A2990 RMK SLP126

CYYG;2008-05-26 03:00;CYYG 260300Z 21008KT 15SM SKC 10/05 A2990 RMK SLP127

CYYG;2008-05-26 04:00;CYYG 260400Z 21011KT 15SM SKC 11/02 A2990 RMK SLP125

CYYG;2008-05-26 05:00;CYYG 260500Z 20008KT 15SM SKC 10/04 A2989 RMK SLP121

CYYG;2008-05-26 06:00;CYYG 260600Z 20008KT 15SM SKC 09/04 A2987 RMK SLP117

CYYG;2008-05-26 07:00;CYYG 260700Z 21010KT 15SM SCT200 10/03 A2986 RMK CI3 SLP113

CYYG;2008-05-26 08:00;CYYG 260800Z 23012KT 15SM BKN200 11/03 A2985 RMK CI3 SLP110

CYYG;2008-05-26 09:00;CYYG 260900Z 23011G16KT 15SM BKN170 12/03 A2986 RMK AC5 SLP111

CYYG;2008-05-26 10:00;CYYG 261000Z 24014G19KT 15SM BKN170 13/03 A2987 RMK AC6 SLP115

CYYG;2008-05-26 11:00;CYYG 261100Z 24013G20KT 15SM BKN170 14/04 A2987 RMK AC6 SLP117

CYYG;2008-05-26 12:00;CYYG 261200Z 24016G21KT 15SM FEW070 BKN160 14/03 A2987 RMK AC2AC6 ACC ASOCTD SLP116

CYYG;2008-05-26 13:00;CYYG 261300Z 24016G26KT 15SM FEW070 BKN140 OVC260 15/03 A2986 RMK AC2AC6CI1 SLP113

CYYG;2008-05-26 14:00;CYYG 261400Z 23014G19KT 15SM FEW070 BKN140 OVC260 15/04 A2987 RMK AC2AC6CI1 SLP114

CYYG;2008-05-26 15:00;CYYG 261500Z 22012G22KT 15SM FEW070 BKN140 OVC260 17/05 A2985 RMK AC1AC6CI1 SLP110

CYYG;2008-05-26 16:00;CYYG 261600Z 22019G27KT 15SM FEW080 BKN140 OVC260 20/06 A2984 RMK AC1AC6CI1 SLP106

CYYG;2008-05-26 17:00;CYYG 261700Z 21020G27KT 15SM FEW080 BKN160 OVC260 22/06 A2980 RMK AC1AC5CI2 SLP093

CYYG;2008-05-26 18:00;CYYG 261800Z 23017G24KT 15SM FEW080 BKN150 OVC260 20/06 A2980 RMK AC1AC6CI2 SLP093

CYYG;2008-05-26 19:00;CYYG 261900Z 23012G20KT 15SM FEW080 OVC150 19/07 A2982 RMK AC2AC6 SLP097

CYYG;2008-05-26 20:00;CYYG 262000Z 25013KT 15SM SCT090 OVC130 17/08 A2982 RMK AC3AC5 SLP099

CYYG;2008-05-26 21:00;CYYG 262100Z 25016G21KT 15SM FEW070 BKN140 OVC280 18/07 A2981 RMK AC2AC5CI1 SLP094

CYYG;2008-05-26 22:00;CYYG 262200Z 23012G17KT 15SM FEW080 BKN110 OVC280 17/06 A2981 RMK AC2AC5CI1 SLP094

CYYG;2008-05-26 23:00;CYYG 262300Z 23010G17KT 15SM BKN110 OVC280 16/07 A2982 RMK AC7CI0 SLP097

CYYG;2008-05-27 00:00;CYYG 270000Z 22007KT 15SM BKN110 OVC280 14/08 A2983 RMK AC6CI1 SLP101

CYYG;2008-05-27 01:00;CYYG 270100Z 21008KT 15SM BKN100 OVC280 14/08 A2985 RMK AC6CI1 SLP107

CYYG;2008-05-27 02:00;CYYG 270200Z 22004KT 15SM BKN098 OVC280 13/08 A2985 RMK AC6CI1 SLP107

CYYG;2008-05-27 03:00;CYYG 270300Z 19010KT 15SM BKN090 OVC110 13/07 A2983 RMK AC7AC1 SLP103

CYYG;2008-05-27 03:42;CYYG 270342Z 19016KT 15SM -SHRA OVC081 13/ RMK AC8

CYYG;2008-05-27 04:00;CYYG 270400Z 21013G18KT 15SM -SHRA OVC093 13/07 A2983 RMK AC8 SLP101

CYYG;2008-05-27 05:00;CYYG 270500Z 20015G20KT 15SM -SHRA OVC077 13/07 A2981 RMK AC8 SLP096

CYYG;2008-05-27 06:00;CYYG 270600Z 19013KT 15SM -SHRA OVC076 11/08 A2981 RMK AC8 SLP095

CYYG;2008-05-27 07:00;CYYG 270700Z 18015KT 15SM -SHRA OVC075 10/07 A2979 RMK AC8 SLP087

CYYG;2008-05-27 08:00;CYYG 270800Z 18014KT 15SM -SHRA OVC056 09/07 A2977 RMK SC8 SLP082

CYYG;2008-05-27 08:50;CYYG 270850Z 18013G18KT 15SM OVC064 10/ RMK SC8

CYYG;2008-05-27 09:00;CYYG 270900Z 18013G18KT 15SM OVC066 10/08 A2975 RMK AC8 SLP075

CYYG;2008-05-27 09:50;CYYG 270950Z 18018KT 12SM -SHRA BKN066 OVC100 10/ RMK SC6AC2

CYYG;2008-05-27 10:00;CYYG 271000Z 18017KT 12SM -SHRA BKN066 OVC100 10/08 A2973 RMK AC6AC2 SLP067

CYYG;2008-05-27 11:00;CYYG 271100Z 19015G21KT 15SM VCSH FEW020 SCT065 OVC160 11/09 A2972 RMK SC1SC3AC4 SLP065

CYYG;2008-05-27 12:00;CYYG 271200Z 19017G22KT 15SM SCT019 OVC100 12/10 A2969 RMK SC4AC4 SLP054

CYYG;2008-05-27 13:00;CYYG 271300Z 20012KT 12SM OVC018 12/10 A2968 RMK SC8 SLP052

CYYG;2008-05-27 14:00;CYYG 271400Z 20016KT 15SM OVC019 14/11 A2967 RMK SC8 SLP049

CYYG;2008-05-27 15:00;CYYG 271500Z 21015G24KT 15SM FEW019 SCT100 16/12 A2965 RMK SC2AC2 SLP042

CYYG;2008-05-27 16:00;CYYG 271600Z 22017G25KT 15SM FEW020 FEW050 SCT240 18/13 A2964 RMK SC1SC2CI0 SLP038

CYYG;2008-05-27 17:00;CYYG 271700Z CCA 22015G20KT 15SM FEW050 FEW250 20/13 A2964 RMK SC1CI1 MDT CU ASOCTD HAZE SLP038

CYYG;2008-05-27 18:00;CYYG 271800Z 23013G19KT 15SM BKN050 20/13 A2963 RMK SC6 HAZE SLP034

CYYG;2008-05-27 19:00;CYYG 271900Z 22013G19KT 15SM FEW075 FEW250 21/14 A2962 RMK AC1CI0 ACC ASOCTD SLP031

CYYG;2008-05-27 20:00;CYYG 272000Z 22012G19KT 15SM SCT110 21/14 A2961 RMK AC4 SLP027

CYYG;2008-05-27 21:00;CYYG 272100Z 22011KT 12SM VCSH FEW065 BKN100 19/13 A2960 RMK SC2AC6 SLP026

CYYG;2008-05-27 21:24;CYYG 272124Z 23012KT 10SM -SHRA FEW065 BKN098 18/ RMK SC2AC6

CYYG;2008-05-27 22:00;CYYG 272200Z 27011KT 10SM -SHRA FEW065 BKN092 17/13 A2963 RMK SC2AC6 SLP033

CYYG;2008-05-27 22:10;CYYG 272210Z 24018G30KT 5SM -SHRA BR FEW050 OVC075 16/ RMK SC2AC6

CYYG;2008-05-27 23:00;CYYG 272300Z 25015G22KT 4SM -SHRA BR SCT050 OVC096 15/13 A2964 RMK SC4AC4 SLP037

CYYG;2008-05-28 00:00;CYYG 280000Z 29011KT 4SM -SHRA BR BKN015 OVC050 14/12 A2968 RMK SC5SC3 SLP052

CYYG;2008-05-28 01:00;CYYG 280100Z 34008KT 5SM -SHRA BR OVC030 10/08 A2973 RMK SC8 SLP067

CYYG;2008-05-28 01:35;CYYG 280135Z 34009KT 12SM -SHRA OVC034 10/ RMK SC8

CYYG;2008-05-28 02:00;CYYG 280200Z 33009KT 15SM -SHRA OVC041 10/08 A2974 RMK SC8 SLP071

CYYG;2008-05-28 03:00;CYYG 280300Z 33005KT 15SM -SHRA BKN044 OVC098 10/07 A2972 RMK SC6AC2 SLP066

CYYG;2008-05-28 03:40;CYYG 280340Z 31009KT 15SM OVC052 10/ RMK SC8

CYYG;2008-05-28 04:00;CYYG 280400Z 31008KT 15SM OVC057 10/06 A2974 RMK SC8 SLP071

CYYG;2008-05-28 05:00;CYYG 280500Z 30007KT 15SM OVC064 10/06 A2974 RMK SC8 SLP073

CYYG;2008-05-28 06:00;CYYG 280600Z 32007KT 15SM BKN075 BKN110 09/04 A2974 RMK AC6AC1 SLP070

CYYG;2008-05-28 07:00;CYYG 280700Z 31009KT 15SM OVC058 OVC180 09/04 A2975 RMK SC6AC2 SLP076

CYYG;2008-05-28 08:00;CYYG 280800Z 29009KT 15SM SCT060 BKN190 09/04 A2977 RMK SC4AC2 SLP080

CYYG;2008-05-28 09:00;CYYG 280900Z 29010KT 15SM FEW060 SCT280 07/02 A2977 RMK SC2CI2 SLP083

CYYG;2008-05-28 10:00;CYYG 281000Z 29011KT 15SM FEW060 SCT280 07/02 A2979 RMK SC2CI2 SLP089

CYYG;2008-05-28 11:00;CYYG 281100Z 31013KT 15SM FEW060 FEW230 08/03 A2981 RMK SC1CI1 SLP096

CYYG;2008-05-28 12:00;CYYG 281200Z 31013G19KT 15SM FEW022 SCT230 08/03 A2983 RMK SC2CI1 SLP102

CYYG;2008-05-28 13:00;CYYG 281300Z 33012G20KT 15SM FEW025 SCT250 10/04 A2984 RMK SC2CI1 SLP105

CYYG;2008-05-28 14:00;CYYG 281400Z 32015G20KT 15SM FEW025 SCT250 11/03 A2985 RMK SC2CI1 SLP107

CYYG;2008-05-28 15:00;CYYG 281500Z 32013G21KT 15SM FEW035 SCT250 12/03 A2986 RMK SC2CI1 SLP112

CYYG;2008-05-28 16:00;CYYG 281600Z 32012G19KT 15SM SCT042 BKN250 12/03 A2987 RMK SC3CI1 SLP116

CYYG;2008-05-28 17:00;CYYG 281700Z 34011G16KT 15SM SCT050 BKN250 12/03 A2988 RMK SC3CI1 SLP120

CYYG;2008-05-28 18:00;CYYG 281800Z 33011G19KT 15SM SCT050 13/02 A2988 RMK SC3 SLP120

CYYG;2008-05-28 19:00;CYYG 281900Z 34012G20KT 15SM FEW050 14/03 A2988 RMK SC2 SLP120

CYYG;2008-05-28 20:00;CYYG 282000Z 32008KT 15SM FEW050 13/02 A2990 RMK SC2 SLP124

CYYG;2008-05-28 21:00;CYYG 282100Z 36008KT 15SM FEW060 14/02 A2989 RMK SC2 SLP124

CYYG;2008-05-28 22:00;CYYG 282200Z 34006KT 15SM FEW060 13/01 A2990 RMK SC2 SLP128

CYYG;2008-05-28 23:00;CYYG 282300Z 00000KT 15SM FEW050 12/01 A2991 RMK SC1 SLP130

CYYG;2008-05-29 00:00;CYYG 290000Z 17004KT 15SM FEW050 10/02 A2991 RMK SC1 SLP131

CYYG;2008-05-29 01:00;CYYG 290100Z 22006KT 15SM BKN080 10/02 A2993 RMK AC4 SLP136

CYYG;2008-05-29 02:00;CYYG 290200Z 21004KT 15SM BKN080 09/03 A2993 RMK AC4 SLP137

CYYG;2008-05-29 03:00;CYYG 290300Z 24004KT 15SM FEW090 SCT170 09/02 A2993 RMK AC2CI1 SLP135

CYYG;2008-05-29 04:00;CYYG 290400Z 25006KT 15SM FEW180 08/03 A2993 RMK CI2 SLP136

CYYG;2008-05-29 05:00;CYYG 290500Z 25006KT 15SM SKC 08/04 A2991 RMK SLP130

CYYG;2008-05-29 06:00;CYYG 290600Z 23006KT 15SM SKC 08/04 A2990 RMK SLP128

CYYG;2008-05-29 07:00;CYYG 290700Z 23008KT 15SM SKC 07/04 A2989 RMK SLP122

CYYG;2008-05-29 08:00;CYYG 290800Z 24006KT 15SM FEW100 08/03 A2987 RMK AC2 SLP117

CYYG;2008-05-29 09:00;CYYG 290900Z 23006KT 15SM FEW100 08/04 A2986 RMK AC2 SLP112

CYYG;2008-05-29 10:00;CYYG 291000Z 23011G16KT 15SM SCT110 10/03 A2985 RMK AC2 SLP109

CYYG;2008-05-29 11:00;CYYG 291100Z 23011G17KT 15SM SCT110 11/03 A2983 RMK AC3 SLP103

CYYG;2008-05-29 12:00;CYYG 291200Z 23013G18KT 15SM BKN067 11/03 A2982 RMK AC7 SLP098

CYYG;2008-05-29 13:00;CYYG 291300Z 23009KT 15SM FEW067 BKN078 12/04 A2979 RMK AC2AC6 SLP090

CYYG;2008-05-29 14:00;CYYG 291400Z 23011G17KT 15SM SCT078 BKN085 13/03 A2977 RMK AC3AC4 SLP081

CYYG;2008-05-29 15:00;CYYG 291500Z 23015G21KT 15SM BKN085 15/04 A2973 RMK AC6 SLP069

CYYG;2008-05-29 16:00;CYYG 291600Z 25012G19KT 15SM FEW020 BKN082 16/06 A2971 RMK SC1AC6 SLP063

CYYG;2008-05-29 17:00;CYYG 291700Z 26018G27KT 15SM -SHRA FEW020 BKN055 OVC100 15/03 A2971 WS RWY21 RMK SC1SC6AC2 SLP061

CYYG;2008-05-29 18:00;CYYG 291800Z 25020G26KT 15SM -SHRA BKN060 OVC080 14/03 A2969 RMK SC7AC1 SLP054

CYYG;2008-05-29 19:00;CYYG 291900Z CCA 24024G38KT 15SM VCSH FEW065 SCT110 BKN250 14/01 A2967 RMK SC2AC2CI1 SLP047

CYYG;2008-05-29 20:00;CYYG 292000Z 23020G33KT 15SM FEW070 SCT085 15/02 A2965 RMK AC2AC2 SLP040

CYYG;2008-05-29 20:54;CYYG 292054Z 31015G22KT 15SM -SHRA BKN050 BKN094 12/ RMK SC6AC2

CYYG;2008-05-29 21:00;CYYG 292100Z 31012G21KT 15SM -SHRA BKN046 BKN092 11/06 A2970 RMK SC5AC2 SLP059

CYYG;2008-05-29 22:00;CYYG 292200Z 26008KT 15SM SCT040 BKN080 11/08 A2971 RMK SC4AC3 OCNL -SHRA SLP061

CYYG;2008-05-29 22:38;CYYG 292238Z 28007KT 15SM FEW040 FEW080 RMK SC2AC1

CYYG;2008-05-29 23:00;CYYG 292300Z 30006KT 15SM FEW040 FEW100 11/08 A2975 RMK SC1AC2 SLP076

CYYG;2008-05-30 02:00;CYYG 300200Z 29006KT 15SM FEW100 08/01 A2982 RMK AC1 SLP100

CYYG;2008-05-30 03:00;CYYG 300300Z 27007KT 15SM SKC 08/00 A2984 RMK SLP104

CYYG;2008-05-30 04:00;CYYG 300400Z 28007KT 15SM SKC 07/00 A2984 RMK SLP105

CYYG;2008-05-30 05:00;CYYG 300500Z 27006KT 15SM SKC 07/00 A2984 RMK SLP106

CYYG;2008-05-30 06:00;CYYG 300600Z 27008KT 15SM SKC 07/01 A2985 RMK SLP108

CYYG;2008-05-30 07:00;CYYG 300700Z 27006KT 15SM SKC 06/01 A2985 RMK SLP111

CYYG;2008-05-30 08:00;CYYG 300800Z 29009KT 15SM SKC 06/01 A2988 RMK SLP120

CYYG;2008-05-30 09:00;CYYG 300900Z 29010KT 15SM SKC 07/01 A2988 RMK SLP121

CYYG;2008-05-30 10:00;CYYG 301000Z 29012G17KT 15SM SKC 08/02 A2992 RMK SLP133

CYYG;2008-05-30 11:00;CYYG 301100Z 30010G16KT 15SM SKC 09/03 A2993 RMK SLP138

CYYG;2008-05-30 12:00;CYYG 301200Z 32013G19KT 15SM SKC 10/02 A2996 RMK SLP146

CYYG;2008-05-30 13:00;CYYG 301300Z 30009KT 15SM FEW030 11/04 A2997 RMK CU1 SLP151

CYYG;2008-05-30 14:00;CYYG 301400Z 01007KT 15SM FEW032 11/03 A2998 RMK CU1 SLP154

CYYG;2008-05-30 15:00;CYYG 301500Z 32013KT 15SM FEW035 13/04 A2999 RMK CU1 SLP156

CYYG;2008-05-30 16:00;CYYG 301600Z 33007KT 15SM FEW038 14/06 A3000 RMK CU1 SLP159

CYYG;2008-05-30 17:00;CYYG 301700Z 01009KT 15SM FEW035 14/05 A3001 RMK CU1 SLP163

CYYG;2008-05-30 18:00;CYYG 301800Z 31007KT 15SM FEW040 14/04 A3001 RMK CU1 SLP165

CYYG;2008-05-30 19:00;CYYG 301900Z 36009KT 15SM FEW040 15/02 A3001 RMK SC1 SLP163

CYYG;2008-05-30 20:00;CYYG 302000Z 02004KT 15SM FEW055 15/02 A3001 RMK SC2 CU ASOCTD SLP164

CYYG;2008-05-30 21:00;CYYG 302100Z 09004KT 15SM FEW055 FEW240 15/02 A2999 RMK CF1CI1 SLP156

CYYG;2008-05-30 22:00;CYYG 302200Z 17010KT 15SM FEW240 14/02 A2998 RMK CI0 SLP154

CYYG;2008-05-30 23:00;CYYG 302300Z 17007KT 15SM FEW240 13/02 A3000 RMK CI0 SLP159

CYYG;2008-05-31 00:00;CYYG 310000Z 19005KT 15SM FEW240 10/03 A3000 RMK CI0 SLP161

CYYG;2008-05-31 01:00;CYYG 310100Z 20005KT 15SM FEW240 10/03 A3003 RMK CI0 SLP169

CYYG;2008-05-31 02:00;CYYG 310200Z 21006KT 15SM SKC 09/03 A3003 RMK SLP169

CYYG;2008-05-31 03:00;CYYG 310300Z 23009KT 15SM SKC 10/03 A3002 RMK SLP167

CYYG;2008-05-31 04:00;CYYG 310400Z 23007KT 15SM SKC 09/03 A3002 RMK SLP166

CYYG;2008-05-31 05:00;CYYG 310500Z 25008KT 15SM SKC 09/03 A3000 RMK SLP160

CYYG;2008-05-31 06:00;CYYG 310600Z 25009KT 15SM SKC 08/03 A3000 RMK SLP159

CYYG;2008-05-31 07:00;CYYG 310700Z 25007KT 15SM FEW250 08/03 A3001 RMK CI2 SLP162

CYYG;2008-05-31 08:00;CYYG 310800Z 25008KT 15SM SCT250 08/04 A3001 RMK CI2 SLP165

CYYG;2008-05-31 09:00;CYYG 310900Z 25008KT 15SM BKN210 08/04 A3001 RMK CI5 SLP164

CYYG;2008-05-31 10:00;CYYG 311000Z 23008KT 15SM FEW160 BKN210 09/05 A3002 RMK AC2CI4 SLP167

CYYG;2008-05-31 11:00;CYYG 311100Z 22007KT 15SM FEW160 BKN210 10/05 A3003 RMK AC2CI4 SLP169

CYYG;2008-05-31 12:00;CYYG 311200Z 23009KT 15SM BKN250 12/05 A3002 RMK CI6 SLP168

CYYG;2008-05-31 13:00;CYYG 311300Z 22008KT 15SM OVC230 15/06 A3001 RMK CI7 SLP164

CYYG;2008-05-31 14:00;CYYG 311400Z 22009KT 15SM OVC180 15/05 A3003 RMK AC8 SLP169

CYYG;2008-05-31 15:00;CYYG 311500Z 20009KT 15SM OVC180 14/03 A3001 RMK AC8 SLP165

CYYG;2008-05-31 16:00;CYYG 311600Z 19009KT 15SM SCT100 OVC180 15/05 A3001 RMK AC3AC5 SLP164

CYYG;2008-05-31 17:00;CYYG 311700Z 19010KT 15SM BKN070 OVC200 15/05 A3000 RMK AC6CI2 SLP161

CYYG;2008-05-31 17:01;CYYG 311701Z 19010KT 15SM -SHRA BKN070 OVC200 15/ RMK AC6CI2

CYYG;2008-05-31 17:44;CYYG 311744Z 21011KT 15SM FEW050 BKN120 OVC250 15/ RMK SC2AC3CI3

CYYG;2008-05-31 18:00;CYYG 311800Z 21012KT 15SM BKN100 OVC250 15/05 A3000 RMK AC6CI2 SLP160

CYYG;2008-05-31 19:00;CYYG 311900Z 22010KT 15SM -SHRA BKN056 OVC077 14/06 A3001 RMK SC6AC2 SLP165

CYYG;2008-05-31 19:54;CYYG 311954Z 20015KT 15SM SCT055 OVC070 13/ RMK SC3AC5

CYYG;2008-05-31 20:00;CYYG 312000Z 20013G18KT 15SM SCT055 OVC069 13/07 A2999 RMK SC3AC5 SLP158

CYYG;2008-05-31 20:06;CYYG 312006Z 20014KT 15SM -SHRA SCT050 OVC065 13/ RMK SC3AC5

CYYG;2008-05-31 21:00;CYYG 312100Z 15011KT 15SM -SHRA BKN050 OVC076 10/07 A2996 RMK SC6AC2 SLP146

CYYG;2008-05-31 22:00;CYYG 312200Z 15011G18KT 15SM -SHRA SCT050 OVC079 09/08 A2994 RMK SC4AC4 SLP141

CYYG;2008-05-31 23:00;CYYG 312300Z 15009KT 15SM -SHRA SCT050 OVC072 09/08 A2992 RMK SC3AC5 SLP132

CYYG;2008-06-01 01:00;CYYG 010100Z 15017G24KT 10SM -RA SCT040 OVC069 09/07 A2987 RMK SC3AC5 SLP115

CYYG;2008-06-01 02:00;CYYG 010200Z 15019G26KT 10SM -RA SCT040 OVC068 10/08 A2984 RMK SC3AC5 SLP107

CYYG;2008-06-01 03:00;CYYG 010300Z 14021G32KT 10SM -RA SCT035 OVC066 11/09 A2977 RMK SC3AC5 PRESFR SLP080

CYYG;2008-06-01 04:00;CYYG 010400Z 16018G27KT 10SM -RA SCT018 OVC046 11/10 A2974 RMK SC3SC5 SLP071

CYYG;2008-06-01 05:00;CYYG 010500Z 16020G27KT 10SM -RA BKN011 OVC024 11/10 A2966 RMK SF5SC3 PRESFR SLP044

CYYG;2008-06-01 06:00;CYYG 010600Z 17018KT 10SM -RA BKN008 OVC021 11/11 A2961 RMK SF6SC2 SLP027

CYYG;2008-06-01 06:21;CYYG 010621Z 17019G25KT 8SM -RA BKN005 OVC011 12/ RMK SF6SC2

CYYG;2008-06-01 07:00;CYYG 010700Z 18014G21KT 8SM -RA BKN005 OVC012 12/11 A2958 RMK SF6SC2 SLP017

CYYG;2008-06-01 08:00;CYYG 010800Z 19014KT 12SM -RA BKN007 OVC014 12/11 A2958 RMK SF6SC2 SLP016

CYYG;2008-06-01 08:33;CYYG 010833Z 20009KT 15SM SCT007 OVC014 12/ RMK SF3SC5

CYYG;2008-06-01 09:00;CYYG 010900Z 21009KT 15SM SCT007 OVC012 12/12 A2958 RMK SF3SC5 SLP017

CYYG;2008-06-01 09:33;CYYG 010933Z 21009KT 6SM BR OVC010 13/ RMK SF8

CYYG;2008-06-01 10:00;CYYG 011000Z 20011KT 6SM BR OVC008 13/12 A2957 RMK SF8 SLP013

CYYG;2008-06-01 10:30;CYYG 011030Z 22010KT 6SM BR OVC006 13/ RMK SF8

CYYG;2008-06-01 11:00;CYYG 011100Z 20009KT 15SM OVC007 14/13 A2958 RMK SF8 SLP017

CYYG;2008-06-01 12:00;CYYG 011200Z 19009KT 15SM FEW004 OVC008 14/13 A2958 RMK SF1SF8 SLP019

CYYG;2008-06-01 13:00;CYYG 011300Z 20009KT 15SM FEW004 OVC008 15/14 A2959 RMK SF1SF8 SLP022

CYYG;2008-06-01 13:48;CYYG 011348Z 20008KT 12SM -DZ OVC008 15/ RMK SF8

CYYG;2008-06-01 14:00;CYYG 011400Z 20009KT 12SM -DZ OVC008 15/14 A2959 RMK SF8 SLP022

CYYG;2008-06-01 14:36;CYYG 011436Z 21007KT 15SM OVC006 15/ RMK SF8

CYYG;2008-06-01 15:00;CYYG 011500Z 22009KT 12SM -DZ FEW004 OVC007 15/13 A2960 RMK SF1SF8 SLP025

CYYG;2008-06-01 15:48;CYYG 011548Z 22007KT 15SM BKN006 OVC010 15/ RMK SF6SC2

CYYG;2008-06-01 16:00;CYYG 011600Z 23007KT 15SM BKN006 OVC010 15/14 A2960 RMK SF7SC1 SLP025

CYYG;2008-06-01 17:00;CYYG 011700Z 24008KT 15SM BKN007 OVC011 16/14 A2960 RMK SF6SC2 SLP025

CYYG;2008-06-01 17:09;CYYG 011709Z 23008KT 15SM SCT007 OVC010 16/ RMK SF3SC5

CYYG;2008-06-01 18:00;CYYG 011800Z 22010KT 15SM BKN010 OVC016 17/15 A2960 RMK SC6SC2 SLP025

CYYG;2008-06-01 18:33;CYYG 011833Z 23010KT 15SM FEW013 BKN018 18/ RMK SC2SC5

CYYG;2008-06-01 19:00;CYYG 011900Z 23008KT 15SM SCT015 BKN024 18/15 A2960 RMK SC3SC4 CU ASOCTD SLP023

CYYG;2008-06-01 20:00;CYYG 012000Z 22007KT 15SM SCT020 SCT040 19/15 A2960 RMK CU3SC1 SLP024

CYYG;2008-06-01 21:00;CYYG 012100Z 22006KT 15SM FEW020 FEW040 FEW300 20/15 A2960 RMK CU1SC1CI0 SLP024

CYYG;2008-06-01 22:00;CYYG 012200Z 20006KT 15SM FEW020 FEW300 19/14 A2961 RMK CU1CI0 SLP026

CYYG;2008-06-01 23:00;CYYG 012300Z 19004KT 15SM FEW020 FEW110 SCT300 18/14 A2963 RMK SC1AC1CI1 SLP032

CYYG;2008-06-02 00:00;CYYG 020000Z 01002KT 15SM FEW038 SCT110 16/13 A2965 RMK SC2AC2 SLP040

CYYG;2008-06-02 01:00;CYYG 020100Z 36003KT 15SM FEW045 SCT110 15/13 A2965 RMK SC2AC2 SLP041

CYYG;2008-06-02 02:00;CYYG 020200Z 36005KT 15SM FEW250 13/12 A2965 RMK CI1 SLP042

CYYG;2008-06-02 03:00;CYYG 020300Z 00000KT 15SM MIFG SKC 12/11 A2965 RMK SLP041

CYYG;2008-06-02 04:00;CYYG 020400Z 10003KT 15SM MIFG FEW110 11/11 A2965 RMK AC1 SLP040

CYYG;2008-06-02 05:00;CYYG 020500Z 36003KT 5SM BR FEW033 11/11 A2963 RMK FG2SC1 SLP036

CYYG;2008-06-02 06:00;CYYG 020600Z 03004KT 3/4SM R03/P6000FT/D BR VV002 11/11 A2963 RMK FG8 SLP035

CYYG;2008-06-02 07:00;CYYG 020700Z 00000KT 1 1/4SM BR VV002 11/11 A2963 RMK FG8 SLP035

CYYG;2008-06-02 07:22;CYYG 020722Z 00000KT 3SM BR BKN002 OVC031 12/ RMK SF6SC2

CYYG;2008-06-02 08:00;CYYG 020800Z 09002KT 1/2SM R03/2600VP6000FT/D FG VV002 11/11 A2962 RMK FG8 SLP030

CYYG;2008-06-02 08:28;CYYG 020828Z 00000KT 3/8SM R03/1800FT/N FG VV001 11/ RMK FG8

CYYG;2008-06-02 08:37;CYYG 020837Z 29002KT 1/4SM R03/0800V1400FT/N FG VV001 11/ RMK FG8

CYYG;2008-06-02 09:00;CYYG 020900Z 24004KT 3/8SM R03/0900V2000FT/U FG VV001 11/11 A2963 RMK FG8 SLP036

CYYG;2008-06-02 09:48;CYYG 020948Z 26005KT 5/8SM R03/3500V5000FT/N BR VV002 12/ RMK FG8

CYYG;2008-06-02 10:00;CYYG 021000Z 25004KT 5/8SM R03/3500V5500FT/U BR VV002 12/12 A2964 RMK FG8 SLP037

CYYG;2008-06-02 10:20;CYYG 021020Z 23004KT 1 1/2SM BR OVC003 13/ RMK SF8

CYYG;2008-06-02 11:00;CYYG 021100Z 24004KT 1 1/2SM BR OVC002 13/13 A2964 RMK SF8 SLP038

CYYG;2008-06-02 12:00;CYYG 021200Z 21005KT 1 1/2SM BR OVC002 13/13 A2964 RMK SF8 SLP038

CYYG;2008-06-02 13:00;CYYG 021300Z 18003KT 2SM BR BKN003 OVC015 14/13 A2963 RMK SF6SC2 SLP036

CYYG;2008-06-02 13:33;CYYG 021333Z 22006KT 4SM BR SCT004 OVC015 14/ RMK SF3SC5

CYYG;2008-06-02 14:00;CYYG 021400Z 21007KT 6SM BR BKN006 OVC015 14/12 A2964 RMK SF6SC2 SLP039

CYYG;2008-06-02 15:00;CYYG 021500Z 23006KT 6SM BR OVC008 14/12 A2965 RMK SF8 SLP040

CYYG;2008-06-02 16:00;CYYG 021600Z 23009KT 2 1/2SM BR OVC006 13/12 A2966 RMK SF8 SLP045

CYYG;2008-06-02 16:25;CYYG 021625Z 25011KT 3/4SM R03/P6000FT/N BR OVC003 12/ RMK SF8

CYYG;2008-06-02 16:33;CYYG 021633Z 25008KT 3/4SM R03/P6000FT/D -RA BR OVC002 12/ RMK SF8

CYYG;2008-06-02 17:00;CYYG 021700Z 26007KT 1 1/2SM -DZ BR OVC003 13/12 A2967 RMK SF8 SLP049

CYYG;2008-06-02 17:36;CYYG 021736Z 31007KT 5SM BR OVC006 14/ RMK SF8

CYYG;2008-06-02 18:00;CYYG 021800Z 33006KT 5SM BR OVC004 13/12 A2969 RMK SF8 SLP054

CYYG;2008-06-02 19:00;CYYG 021900Z 33010KT 4SM BR OVC005 12/10 A2972 RMK SF8 SLP064

CYYG;2008-06-02 20:00;CYYG 022000Z 34009KT 5SM BR OVC004 11/10 A2974 RMK SF8 SLP071

CYYG;2008-06-02 21:00;CYYG 022100Z 33003KT 12SM BKN009 BKN200 12/10 A2975 RMK SF5CI2 SLP074

CYYG;2008-06-02 21:50;CYYG 022150Z 00000KT 15SM SCT009 BKN040 12/ RMK SF3SC3

CYYG;2008-06-02 22:00;CYYG 022200Z 01002KT 15SM FEW009 BKN045 BKN200 12/10 A2975 RMK SF2SC4CI0 SLP076

CYYG;2008-06-02 23:00;CYYG 022300Z 03003KT 15SM FEW030 BKN040 12/10 A2977 RMK SC2SC5 SLP083

CYYG;2008-06-03 00:00;CYYG 030000Z 01002KT 15SM FEW035 BKN050 12/10 A2979 RMK SC2SC5 SLP087

CYYG;2008-06-03 01:00;CYYG 030100Z 18003KT 15SM FEW040 SCT052 11/10 A2981 RMK SC1SC3 SLP094

CYYG;2008-06-03 02:00;CYYG 030200Z 20003KT 15SM BKN052 11/09 A2981 RMK SC6 SLP095

CYYG;2008-06-03 03:00;CYYG 030300Z 19004KT 15SM FEW055 BKN068 10/09 A2981 RMK SC2AC5 SLP096

CYYG;2008-06-03 04:00;CYYG 030400Z 21003KT 15SM BKN067 11/10 A2982 RMK AC6 SLP099

CYYG;2008-06-03 05:00;CYYG 030500Z 22006KT 15SM FEW070 10/09 A2983 RMK AC1 SLP103

CYYG;2008-06-03 06:00;CYYG 030600Z 21005KT 15SM FEW050 10/09 A2983 RMK SC1 SLP101

CYYG;2008-06-03 07:00;CYYG 030700Z 23004KT 15SM FEW050 09/08 A2984 RMK SC1 SLP104

CYYG;2008-06-03 08:00;CYYG 030800Z 25005KT 15SM MIFG FEW050 09/09 A2984 RMK SC1 SLP106

CYYG;2008-06-03 09:00;CYYG 030900Z 25005KT 15SM MIFG FEW050 09/09 A2986 RMK SC1 SLP114

CYYG;2008-06-03 10:00;CYYG 031000Z 25005KT 15SM FEW050 11/10 A2987 RMK SC1 SLP117

CYYG;2008-06-03 11:00;CYYG 031100Z 25005KT 15SM SKC 13/11 A2989 RMK SLP122

CYYG;2008-06-03 12:00;CYYG 031200Z 22007KT 15SM SKC 16/10 A2989 RMK SLP123

CYYG;2008-06-03 13:00;CYYG 031300Z 23009KT 15SM SKC 17/09 A2990 RMK SLP124

CYYG;2008-06-03 14:00;CYYG 031400Z 23008KT 15SM SKC 18/09 A2988 RMK SLP120

CYYG;2008-06-03 15:00;CYYG 031500Z 18011KT 15SM FEW030 18/10 A2989 RMK SC1 SLP121

CYYG;2008-06-03 16:00;CYYG 031600Z 19012KT 15SM FEW030 20/11 A2988 RMK SC1 SLP119

CYYG;2008-06-03 17:00;CYYG 031700Z 19010KT 15SM FEW030 FEW300 20/11 A2987 RMK SC1CI1 SLP117

CYYG;2008-06-03 18:00;CYYG 031800Z 20008KT 15SM FEW030 SCT300 21/11 A2986 RMK SC1CI1 SLP111

CYYG;2008-06-03 19:00;CYYG 031900Z 19009KT 15SM FEW030 SCT300 21/10 A2984 RMK SC1CI1 SLP104

CYYG;2008-06-03 20:00;CYYG 032000Z 18007KT 15SM FEW030 SCT100 BKN300 21/11 A2983 RMK SC2AC1CI2 SLP101

CYYG;2008-06-03 21:00;CYYG 032100Z 27005KT 15SM VCSH SCT050 BKN087 20/12 A2985 RMK SC3AC2 SLP109

CYYG;2008-06-03 21:17;CYYG 032117Z 27011G17KT 15SM -SHRA BKN052 19/ RMK SC6

CYYG;2008-06-03 22:00;CYYG 032200Z 29012G18KT 15SM -SHRA BKN048 OVC083 16/12 A2988 RMK SC6AC2 SLP120

CYYG;2008-06-03 23:00;CYYG 032300Z 30009KT 15SM -SHRA FEW048 OVC087 15/13 A2989 RMK SC2AC6 SLP123

CYYG;2008-06-04 00:00;CYYG 040000Z 34008KT 10SM -SHRA FEW010 OVC083 12/11 A2994 RMK SF1AC7 SLP138

CYYG;2008-06-04 01:00;CYYG 040100Z 02002KT 15SM -SHRA FEW011 BKN024 OVC083 11/10 A2996 RMK SC2SC5AC2 SLP146

CYYG;2008-06-04 02:00;CYYG 040200Z 13003KT 15SM -SHRA BKN024 OVC076 11/10 A2995 RMK SC6AC2 SLP143

CYYG;2008-06-04 02:49;CYYG 040249Z 00000KT 15SM OVC030 11/ RMK SC8

CYYG;2008-06-04 03:00;CYYG 040300Z 00000KT 15SM OVC031 11/10 A2996 RMK SC8 SLP144

CYYG;2008-06-04 04:00;CYYG 040400Z 21004KT 15SM BKN040 OVC130 11/10 A2996 RMK SC6AC2 SLP147

CYYG;2008-06-04 05:00;CYYG 040500Z 23002KT 15SM FEW040 SCT130 11/09 A2996 RMK SC2AC2 SLP146

CYYG;2008-06-04 06:00;CYYG 040600Z 22003KT 15SM FEW006 09/09 A2998 RMK SF2 SLP151

CYYG;2008-06-04 06:10;CYYG 040610Z 22002KT 15SM BKN005 10/ RMK SF6

CYYG;2008-06-04 07:00;CYYG 040700Z 25002KT 15SM OVC005 11/10 A2998 RMK SF8 SLP152

CYYG;2008-06-04 07:24;CYYG 040724Z 25005KT 15SM OVC004 12/ RMK SF8

CYYG;2008-06-04 08:00;CYYG 040800Z 24005KT 10SM OVC003 12/11 A2998 RMK SF8 SLP154

CYYG;2008-06-04 08:03;CYYG 040803Z 25006KT 2SM BR BKN002 BKN100 12/ RMK SF6AC1

CYYG;2008-06-04 08:12;CYYG 040812Z 24004KT 3SM BR FEW002 BKN200 BKN300 12/ RMK SF2CC2CI0

CYYG;2008-06-04 09:00;CYYG 040900Z 23005KT 10SM FEW002 FEW082 BKN120 BKN300 12/11 A3000 RMK SF2AC1AC2CI1 SLP160

CYYG;2008-06-04 09:02;CYYG 040902Z 23006KT 10SM BKN003 BKN120 12/ RMK ST5AC1

CYYG;2008-06-04 09:24;CYYG 040924Z 24004KT 10SM FEW003 BKN120 BKN300 12/ RMK ST2AC3CI1

CYYG;2008-06-04 09:49;CYYG 040949Z 25005KT 5SM -RA BR SCT003 BKN070 BKN300 12/ RMK ST3AC3CI1

CYYG;2008-06-04 10:00;CYYG 041000Z 24004KT 5SM -RA BR FEW003 BKN060 12/11 A3002 RMK SF2SC6 SLP167

CYYG;2008-06-04 11:00;CYYG 041100Z 24005KT 5SM -RA BR FEW003 FEW020 BKN070 12/12 A3004 RMK SF1SC1AC7 SLP171

CYYG;2008-06-04 11:48;CYYG 041148Z 27005KT 15SM FEW003 BKN078 OVC110 14/ RMK SF1AC5AC3

CYYG;2008-06-04 12:00;CYYG 041200Z 27006KT 15SM FEW004 BKN075 OVC110 14/11 A3003 RMK SF1AC5AC3 ACC ASOCTD SLP171

CYYG;2008-06-04 13:00;CYYG 041300Z 27002KT 15SM FEW004 FEW075 OVC100 16/09 A3002 RMK SF1ACC2AC6 SLP167

CYYG;2008-06-04 14:00;CYYG 041400Z 34003KT 15SM FEW005 FEW012 BKN070 14/11 A3003 RMK SF1CU1AC7 SLP169

CYYG;2008-06-04 14:21;CYYG 041421Z 33004KT 15SM -SHRA FEW005 BKN051 OVC070 14/ RMK SF1SC6AC2

CYYG;2008-06-04 15:00;CYYG 041500Z 00000KT 10SM -SHRA FEW010 OVC045 13/11 A3005 RMK CU1SC8 SLP177

CYYG;2008-06-04 16:00;CYYG 041600Z 29002KT 12SM -RA FEW010 OVC040 13/11 A3005 RMK CU1SC8 SLP177

CYYG;2008-06-04 16:54;CYYG 041654Z 01004KT 15SM -RA FEW005 OVC045 13/ RMK CU2SC6

CYYG;2008-06-04 17:00;CYYG 041700Z 01004KT 15SM -RA FEW005 FEW012 OVC045 13/12 A3005 RMK SF2CU1SC6 SLP177

CYYG;2008-06-04 18:00;CYYG 041800Z 02011KT 15SM -RA FEW005 BKN045 OVC100 12/10 A3005 RMK SF1SC6AC2 SLP177

CYYG;2008-06-04 18:25;CYYG 041825Z 02007KT 15SM OVC043 11/ RMK SC8

CYYG;2008-06-04 19:00;CYYG 041900Z 03006KT 15SM OVC041 11/09 A3006 RMK SC8 SLP180

CYYG;2008-06-04 20:00;CYYG 042000Z 04004KT 15SM OVC042 11/09 A3007 RMK SC8 SLP184

CYYG;2008-06-04 21:00;CYYG 042100Z 06004KT 15SM OVC042 11/09 A3007 RMK SC8 SLP183

CYYG;2008-06-04 22:00;CYYG 042200Z 10004KT 15SM OVC042 12/09 A3006 RMK SC8 SLP181

CYYG;2008-06-04 22:31;CYYG 042231Z 11003KT 15SM -SHRA OVC041 12/ RMK SC8

CYYG;2008-06-04 23:00;CYYG 042300Z 10002KT 15SM -RA OVC040 11/09 A3008 RMK SC8 SLP187

CYYG;2008-06-05 00:00;CYYG 050000Z 14003KT 15SM -RA BKN045 BKN078 11/10 A3008 RMK SC6AC2 SLP188

CYYG;2008-06-05 00:33;CYYG 050033Z 12003KT 15SM BKN046 11/ RMK SC7

CYYG;2008-06-05 00:50;CYYG 050050Z 15004KT 15SM -RA BKN046 11/ RMK SC7

CYYG;2008-06-05 01:00;CYYG 050100Z 15004KT 15SM -RA SCT043 BKN089 11/09 A3009 RMK SC4AC3 SLP191

CYYG;2008-06-05 02:00;CYYG 050200Z 03003KT 15SM BKN041 11/09 A3010 RMK SC7 SLP194

CYYG;2008-06-05 03:00;CYYG 050300Z 07003KT 15SM BKN042 BKN073 11/09 A3010 RMK SC5AC2 SLP194

CYYG;2008-06-05 04:00;CYYG 050400Z 05003KT 15SM BKN041 BKN080 BKN094 10/09 A3010 RMK SC5AC2AC1 SLP193

CYYG;2008-06-05 04:44;CYYG 050444Z 05005KT 15SM FEW004 SCT041 BKN089 10/ RMK SF2SC2AC3

CYYG;2008-06-05 05:00;CYYG 050500Z 04007KT 15SM BKN004 OVC059 10/09 A3011 RMK SF6SC2 SLP196

CYYG;2008-06-05 05:19;CYYG 050519Z 07007KT 15SM -RA FEW004 SCT042 OVC058 10/ RMK SF2SC2SC4

CYYG;2008-06-05 06:00;CYYG 050600Z 07006KT 15SM -RA FEW004 OVC047 10/08 A3011 RMK SF2SC6 SLP196

CYYG;2008-06-05 07:00;CYYG 050700Z 07004KT 15SM -RA OVC053 09/09 A3012 RMK SC8 SLP199

CYYG;2008-06-05 08:00;CYYG 050800Z 05005KT 15SM -RA BKN057 09/09 A3012 RMK SC7 SLP201

CYYG;2008-06-05 08:19;CYYG 050819Z 05006KT 15SM FEW005 BKN057 09/ RMK SF1SC6

CYYG;2008-06-05 09:00;CYYG 050900Z 05005KT 15SM BKN059 09/08 A3012 RMK SC7 SLP202

CYYG;2008-06-05 10:00;CYYG 051000Z 05006KT 15SM FEW042 BKN059 10/08 A3014 RMK SC2SC6 SLP209

CYYG;2008-06-05 11:00;CYYG 051100Z 06006KT 15SM FEW030 BKN060 BKN300 10/07 A3014 RMK SC1SC6CI1 SLP208

CYYG;2008-06-05 12:00;CYYG 051200Z 05008KT 15SM FEW030 BKN060 BKN300 12/08 A3015 RMK SC1SC6CI0 SLP210

CYYG;2008-06-05 13:00;CYYG 051300Z 04010KT 15SM FEW030 BKN080 BKN300 15/09 A3015 RMK SC1AC4CI1 SLP210

CYYG;2008-06-05 14:00;CYYG 051400Z 07008KT 15SM SCT080 BKN300 14/08 A3014 RMK AC3CI2 SLP207

CYYG;2008-06-05 15:00;CYYG 051500Z 08009KT 15SM SCT080 BKN300 16/08 A3013 RMK AC3CI2 SLP204

CYYG;2008-06-05 16:00;CYYG 051600Z 05013KT 15SM FEW030 SCT080 BKN300 15/06 A3014 RMK SC2AC2CI1 SLP209

CYYG;2008-06-05 17:00;CYYG 051700Z 03014G21KT 15SM FEW030 FEW080 BKN300 15/04 A3014 RMK SC2AC1CI2 SLP207

CYYG;2008-06-05 18:00;CYYG 051800Z 03012G17KT 15SM FEW030 FEW080 BKN300 14/04 A3017 RMK SC1AC1CI3 SLP216

CYYG;2008-06-05 19:00;CYYG 051900Z 04012KT 15SM FEW030 FEW080 BKN300 15/04 A3016 RMK SC1AC1CI2 SLP213

CYYG;2008-06-05 20:00;CYYG 052000Z 04012KT 15SM FEW080 BKN300 14/03 A3016 RMK AC2CI2 SLP215

CYYG;2008-06-05 21:00;CYYG 052100Z 03010G15KT 15SM FEW080 BKN300 14/04 A3017 RMK AC2CI2 SLP218

CYYG;2008-06-05 22:00;CYYG 052200Z 02008KT 15SM FEW080 BKN300 13/05 A3017 RMK AC1CI2 SLP219

CYYG;2008-06-05 23:00;CYYG 052300Z 04006KT 15SM SCT300 11/05 A3017 RMK CI1 SLP216

CYYG;2008-06-06 00:00;CYYG 060000Z 02005KT 15SM FEW300 09/05 A3017 RMK CI0 SLP219

CYYG;2008-06-06 01:00;CYYG 060100Z 01005KT 15SM FEW300 08/05 A3019 RMK CI0 SLP223

CYYG;2008-06-06 02:00;CYYG 060200Z 36004KT 15SM SKC 06/05 A3020 RMK SLP226

CYYG;2008-06-06 03:00;CYYG 060300Z 35004KT 15SM SKC 06/05 A3019 RMK SLP225

CYYG;2008-06-06 04:00;CYYG 060400Z 33005KT 15SM SKC 05/04 A3020 RMK SLP228

CYYG;2008-06-06 05:00;CYYG 060500Z 34004KT 15SM SKC 06/05 A3022 RMK SLP233

CYYG;2008-06-06 06:00;CYYG 060600Z 36005KT 15SM SKC 06/05 A3021 RMK SLP231

CYYG;2008-06-06 07:00;CYYG 060700Z 33004KT 15SM FEW300 06/05 A3021 RMK CI0 SLP231

CYYG;2008-06-06 08:00;CYYG 060800Z 01004KT 15SM MIFG FEW300 05/05 A3020 RMK CI0 SLP228

CYYG;2008-06-06 09:00;CYYG 060900Z 33004KT 15SM MIFG BKN300 06/06 A3023 RMK CI0 SLP237

CYYG;2008-06-06 10:00;CYYG 061000Z 32003KT 15SM BKN300 08/07 A3025 RMK CI1 SLP243

CYYG;2008-06-06 11:00;CYYG 061100Z 35003KT 15SM BKN300 11/07 A3025 RMK CI1 SLP245

CYYG;2008-06-06 12:00;CYYG 061200Z 05004KT 15SM BKN300 13/05 A3025 RMK CI2 CONTRAILS SLP246

CYYG;2008-06-06 13:00;CYYG 061300Z 03003KT 15SM BKN300 15/04 A3025 RMK CI2 SLP244

CYYG;2008-06-06 14:00;CYYG 061400Z 14002KT 15SM BKN300 15/05 A3025 RMK CI5 SLP244

CYYG;2008-06-06 15:00;CYYG 061500Z 00000KT 15SM BKN300 16/05 A3023 RMK CI5 SLP239

CYYG;2008-06-06 16:00;CYYG 061600Z 23008KT 15SM FEW035 BKN300 16/07 A3024 RMK CU1CI4 SLP240

CYYG;2008-06-06 17:00;CYYG 061700Z 25006KT 15SM FEW035 FEW140 BKN300 16/05 A3022 RMK SC1AC1CI5 SLP233

CYYG;2008-06-06 18:00;CYYG 061800Z 22005KT 15SM FEW040 FEW220 BKN300 17/04 A3021 RMK SC1CC1CI2 SLP231

CYYG;2008-06-06 19:00;CYYG 061900Z 18007KT 15SM FEW040 FEW220 BKN300 17/04 A3019 RMK SC1CC1CI2 SLP223

CYYG;2008-06-06 20:00;CYYG 062000Z 16005KT 15SM FEW040 FEW220 BKN300 17/04 A3016 RMK SC1CC1CI2 SLP215

CYYG;2008-06-06 21:00;CYYG 062100Z 18008KT 15SM BKN180 BKN300 16/04 A3014 RMK AC5CI1 SLP209

CYYG;2008-06-06 22:00;CYYG 062200Z 18007KT 15SM BKN150 15/04 A3012 RMK AC7 SLP202

CYYG;2008-06-06 23:00;CYYG 062300Z 18008KT 15SM BKN150 14/05 A3011 RMK AC7 SLP196

CYYG;2008-06-07 00:00;CYYG 070000Z 20006KT 15SM BKN100 14/06 A3009 RMK AC7 SLP191

CYYG;2008-06-07 01:00;CYYG 070100Z 20007KT 15SM OVC110 13/06 A3009 RMK AC8 SLP192

CYYG;2008-06-07 02:00;CYYG 070200Z 22007KT 15SM OVC100 14/06 A3008 RMK AC8 SLP186

CYYG;2008-06-07 02:15;CYYG 070215Z 23010KT 15SM -SHRA OVC100 14/ RMK AC8

CYYG;2008-06-07 03:00;CYYG 070300Z 23012G18KT 15SM -SHRA OVC100 13/03 A3006 RMK AC8 SLP181

CYYG;2008-06-07 04:00;CYYG 070400Z 23013G19KT 15SM -SHRA SCT050 OVC100 12/04 A3005 RMK SC4AC4 SLP177

CYYG;2008-06-07 05:00;CYYG 070500Z 24011KT 15SM -SHRA BKN037 OVC072 11/04 A3004 RMK SC5AC3 SLP173

CYYG;2008-06-07 06:00;CYYG 070600Z 23010KT 15SM OVC033 11/05 A3003 RMK SC8 SLP169

CYYG;2008-06-07 07:00;CYYG 070700Z 25009G15KT 15SM OVC023 11/05 A3001 RMK SC8 SLP164

CYYG;2008-06-07 08:00;CYYG 070800Z 24010KT 15SM FEW023 OVC055 11/04 A3000 RMK SC2SC6 SLP158

CYYG;2008-06-07 09:00;CYYG 070900Z 25013G18KT 15SM OVC048 11/05 A3000 RMK SC8 SLP159

CYYG;2008-06-07 10:00;CYYG 071000Z 25011KT 15SM BKN060 11/06 A2999 RMK SC7 SLP157

CYYG;2008-06-07 11:00;CYYG 071100Z 25011G18KT 15SM FEW060 BKN300 12/07 A2999 RMK SC2CI1 SLP157

CYYG;2008-06-07 12:00;CYYG 071200Z 25009KT 15SM FEW040 BKN300 14/08 A2999 RMK SC2CI2 SLP156

CYYG;2008-06-07 13:00;CYYG 071300Z 27007KT 15SM SCT038 BKN300 15/10 A2998 RMK SC3CI0 SLP152

CYYG;2008-06-07 14:00;CYYG 071400Z 29003KT 15SM FEW020 FEW040 BKN240 17/11 A2996 RMK SC1SC2CI0 SLP147

CYYG;2008-06-07 15:00;CYYG 071500Z 22005KT 15SM BKN026 BKN240 18/12 A2998 RMK SC5CI0 SLP152

CYYG;2008-06-07 16:00;CYYG 071600Z 23002KT 15SM SCT026 BKN240 20/13 A2996 RMK SC2CI2 SLP147

CYYG;2008-06-07 17:00;CYYG 071700Z 00000KT 15SM BKN027 19/13 A2995 RMK SC6 SLP142

CYYG;2008-06-07 18:00;CYYG 071800Z 19008KT 15SM BKN028 BKN240 19/12 A2995 RMK SC6CI0 SLP141

CYYG;2008-06-07 19:00;CYYG 071900Z 15007KT 15SM SCT030 BKN240 20/14 A2993 RMK SC3CC0 CU ASOCTD SLP137

CYYG;2008-06-07 20:00;CYYG 072000Z 14004KT 15SM FEW030 BKN150 BKN240 20/13 A2992 RMK CU2AC3CI0 SLP133

CYYG;2008-06-07 21:00;CYYG 072100Z 17004KT 15SM FEW040 BKN150 BKN240 19/13 A2990 RMK SC1AC5CI2 SLP126

CYYG;2008-06-07 22:00;CYYG 072200Z 18006KT 15SM FEW030 BKN130 18/13 A2989 RMK SC1AC6 SLP121

CYYG;2008-06-07 23:00;CYYG 072300Z 19004KT 15SM OVC120 17/13 A2990 RMK AC8 SLP124

CYYG;2008-06-08 00:00;CYYG 080000Z 15004KT 15SM BKN100 16/12 A2989 RMK AC7 SLP123

CYYG;2008-06-08 01:00;CYYG 080100Z 16004KT 15SM BKN076 16/12 A2990 RMK AC7 SLP125

CYYG;2008-06-08 02:00;CYYG 080200Z 18008KT 15SM BKN076 16/12 A2989 RMK AC7 SLP123

CYYG;2008-06-08 03:00;CYYG 080300Z 20007KT 15SM OVC059 15/12 A2987 RMK SC8 SLP117

CYYG;2008-06-08 04:00;CYYG 080400Z 22006KT 15SM OVC051 14/12 A2985 RMK SC8 SLP109

CYYG;2008-06-08 05:00;CYYG 080500Z 18005KT 15SM OVC029 14/12 A2983 RMK SC8 SLP103

CYYG;2008-06-08 06:00;CYYG 080600Z 18006KT 15SM OVC028 15/13 A2982 RMK SC8 SLP099

CYYG;2008-06-08 07:00;CYYG 080700Z 17006KT 15SM OVC025 14/12 A2980 RMK SC8 SLP092

CYYG;2008-06-08 08:00;CYYG 080800Z 18006KT 15SM OVC026 14/12 A2979 RMK SC8 SLP090

CYYG;2008-06-08 09:00;CYYG 080900Z 19006KT 8SM OVC014 14/12 A2979 RMK SC8 SLP088

CYYG;2008-06-08 10:00;CYYG 081000Z 19009KT 8SM OVC010 14/13 A2978 RMK SC8 SLP085

CYYG;2008-06-08 10:38;CYYG 081038Z 19010KT 10SM OVC008 14/ RMK SC8

CYYG;2008-06-08 11:00;CYYG 081100Z 19009KT 10SM OVC006 14/13 A2978 RMK SC8 SLP086

CYYG;2008-06-08 11:43;CYYG 081143Z 21008KT 1SM R03/P6000FT/N BR OVC004 14/ RMK SF8

CYYG;2008-06-08 12:00;CYYG 081200Z 20011KT 1SM R03/P6000FT/N BR OVC004 14/14 A2977 RMK SF8 SLP083

CYYG;2008-06-08 12:37;CYYG 081237Z 22010KT 3SM BR OVC003 15/ RMK SF8

CYYG;2008-06-08 13:00;CYYG 081300Z 20010KT 4SM BR OVC004 15/14 A2976 RMK SF8 SLP077

CYYG;2008-06-08 14:00;CYYG 081400Z 22011KT 6SM BR OVC004 16/14 A2974 RMK SF8 SLP070

CYYG;2008-06-08 14:37;CYYG 081437Z 23009G15KT 8SM OVC007 17/ RMK SF8

CYYG;2008-06-08 15:00;CYYG 081500Z 23009KT 8SM OVC007 17/15 A2973 RMK SF8 SLP069

CYYG;2008-06-08 16:00;CYYG 081600Z 23006KT 15SM OVC012 18/15 A2972 RMK SC8 SLP064

CYYG;2008-06-08 17:00;CYYG 081700Z 23008KT 15SM -SHRA FEW012 FEW040 OVC130 19/15 A2969 RMK SC1SC1AC6 SLP056

CYYG;2008-06-08 18:00;CYYG 081800Z 22004KT 15SM FEW020 OVC140 20/16 A2969 RMK SC2AC6 SLP054

CYYG;2008-06-08 19:00;CYYG 081900Z 08005KT 15SM OVC140 19/16 A2973 RMK AC8 SLP066

CYYG;2008-06-08 20:00;CYYG 082000Z 05006KT 15SM OVC140 19/17 A2975 RMK AC8 SLP073

CYYG;2008-06-08 20:26;CYYG 082026Z 07006KT 15SM -SHRA SCT040 BKN075 OVC110 18/ RMK SC3AC2AC3

CYYG;2008-06-08 21:00;CYYG 082100Z 17014KT 15SM -SHRA BKN041 OVC080 18/17 A2966 RMK SC6AC2 SLP046

CYYG;2008-06-08 22:00;CYYG 082200Z 19010KT 15SM -SHRA SCT040 BKN061 OVC080 18/16 A2965 RMK SC3SC2AC2 SLP040

CYYG;2008-06-08 23:00;CYYG 082300Z 18008G15KT 15SM -SHRA SCT040 BKN061 OVC080 16/14 A2966 RMK SC3SC2AC2 SLP043

CYYG;2008-06-09 00:00;CYYG 090000Z 18005KT 15SM FEW040 BKN100 BKN240 16/14 A2963 RMK SC2AC3CI1 SLP036

CYYG;2008-06-09 01:00;CYYG 090100Z 20005KT 15SM FEW100 BKN240 16/14 A2964 RMK AC2CI2 SLP037

CYYG;2008-06-09 02:00;CYYG 090200Z 26005KT 15SM BKN070 18/16 A2965 RMK AC6 SLP041

CYYG;2008-06-09 03:00;CYYG 090300Z 26002KT 15SM BKN070 BKN120 20/15 A2963 RMK AC5AC2 SLP032

CYYG;2008-06-09 04:00;CYYG 090400Z 32007KT 15SM BKN064 19/15 A2963 RMK SC6 SLP034

CYYG;2008-06-09 05:00;CYYG 090500Z 29007KT 15SM SCT060 18/14 A2963 RMK SC3 SLP035

CYYG;2008-06-09 06:00;CYYG 090600Z 25005KT 15SM FEW060 16/14 A2963 RMK SC2 SLP032

CYYG;2008-06-09 07:00;CYYG 090700Z 24004KT 15SM FEW060 15/13 A2963 RMK SC2 SLP033

CYYG;2008-06-09 08:00;CYYG 090800Z 31003KT 15SM OVC010 16/14 A2965 RMK SC8 SLP039

CYYG;2008-06-09 09:00;CYYG 090900Z 00000KT 15SM FEW010 16/15 A2965 RMK SC2 HAZY SLP040

CYYG;2008-06-09 10:00;CYYG 091000Z 00000KT 6SM HZ FEW010 17/16 A2966 RMK SC1 SLP043

CYYG;2008-06-09 10:45;CYYG 091045Z 34004KT 10SM BKN009 18/ RMK SC5

CYYG;2008-06-09 11:00;CYYG 091100Z 35003KT 15SM BKN007 19/17 A2969 RMK SF6 SLP052

CYYG;2008-06-09 11:22;CYYG 091122Z 34005KT 10SM OVC004 18/ RMK SF8

CYYG;2008-06-09 11:26;CYYG 091126Z 33009KT 2SM BR OVC002 17/ RMK SF8

CYYG;2008-06-09 11:39;CYYG 091139Z 34007KT 1SM R03/4000VP6000FT/D BR VV002 16/ RMK FG8

CYYG;2008-06-09 12:00;CYYG 091200Z 34007KT 1/2SM R03/1800VP6000FT/D FG VV002 16/15 A2971 RMK FG8 SLP061

CYYG;2008-06-09 12:16;CYYG 091216Z 34007KT 1/4SM R03/1600FT/N FG VV002 15/ RMK FG8

CYYG;2008-06-09 12:25;CYYG 091225Z 34007KT 1/2SM R03/1400V5500FT/U FG VV002 15/ RMK FG8

CYYG;2008-06-09 13:00;CYYG 091300Z 34007KT 3/4SM R03/3000VP6000FT/U BR VV002 14/14 A2974 RMK FG8 SLP070

CYYG;2008-06-09 14:00;CYYG 091400Z 36011G17KT 1SM R03/P6000FT/U BR VV002 14/13 A2976 RMK FG8 SLP079

CYYG;2008-06-09 14:34;CYYG 091434Z 01011KT 2SM BR VV003 14/ RMK FG8

CYYG;2008-06-09 15:00;CYYG 091500Z 02012G19KT 2SM BR OVC003 14/12 A2979 RMK FG3SF5 SLP087

CYYG;2008-06-09 15:07;CYYG 091507Z 02010G15KT 5SM BR OVC004 14/ RMK SF8

CYYG;2008-06-09 15:27;CYYG 091527Z 02011KT 15SM BKN007 16/ RMK SF7

CYYG;2008-06-09 16:00;CYYG 091600Z 01013G19KT 15SM BKN008 15/13 A2980 RMK SF7 SLP092

CYYG;2008-06-09 16:52;CYYG 091652Z 01013G20KT 15SM FEW008 SCT300 16/ RMK SF2CI1

CYYG;2008-06-09 17:00;CYYG 091700Z 01015G20KT 15SM FEW008 SCT300 16/12 A2981 RMK SF1CI1 SLP096

CYYG;2008-06-09 18:00;CYYG 091800Z 36012G18KT 15SM FEW008 SCT300 16/12 A2982 RMK SF1CI1 SLP099

CYYG;2008-06-09 19:00;CYYG 091900Z 02013KT 15SM FEW008 SCT300 15/12 A2985 RMK SF1CI1 SLP107

CYYG;2008-06-09 20:00;CYYG 092000Z 02013KT 15SM FEW008 SCT300 14/11 A2987 RMK SF1CI1 SLP115

CYYG;2008-06-09 21:00;CYYG 092100Z 36010KT 15SM SCT008 BKN300 14/11 A2988 RMK SF3CI1 SLP119

CYYG;2008-06-09 21:24;CYYG 092124Z 01008KT 15SM BKN007 12/ RMK SF7

CYYG;2008-06-09 21:42;CYYG 092142Z 02007KT 12SM OVC004 11/ RMK SF8 VIS 4 NW-NE

CYYG;2008-06-09 22:00;CYYG 092200Z 36008KT 3SM BR OVC002 11/10 A2991 RMK SF8 SLP130

CYYG;2008-06-09 23:00;CYYG 092300Z 01009KT 5SM BR OVC002 10/10 A2993 RMK ST8 SLP137

CYYG;2008-06-09 23:21;CYYG 092321Z 03014KT 1SM R03/P6000FT/N BR OVC002 10/ RMK ST8

CYYG;2008-06-10 00:00;CYYG 100000Z 02010KT 1 1/2SM BR OVC002 10/09 A2995 RMK ST8 SLP141

CYYG;2008-06-10 00:19;CYYG 100019Z 04010KT 7SM OVC003 10/ RMK ST8

CYYG;2008-06-10 00:51;CYYG 100051Z 04008KT 10SM OVC006 10/ RMK ST8

CYYG;2008-06-10 01:00;CYYG 100100Z 04006KT 10SM OVC006 10/09 A2995 RMK ST8 SLP142

CYYG;2008-06-10 02:00;CYYG 100200Z 05007KT 10SM OVC006 11/09 A2996 RMK ST8 SLP147

CYYG;2008-06-10 02:34;CYYG 100234Z 06006KT 15SM OVC005 10/ RMK SF8

CYYG;2008-06-10 03:00;CYYG 100300Z 07007KT 15SM OVC006 10/09 A2997 RMK SF8 SLP150

CYYG;2008-06-10 04:00;CYYG 100400Z 05004KT 15SM OVC008 10/09 A2997 RMK SF8 SLP150

CYYG;2008-06-10 04:37;CYYG 100437Z 08003KT 15SM SCT007 10/ RMK SF3

CYYG;2008-06-10 04:53;CYYG 100453Z 25002KT 15SM BKN007 10/ RMK SF6

CYYG;2008-06-10 05:00;CYYG 100500Z 26002KT 15SM BKN007 10/09 A2998 RMK SF7 SLP152

CYYG;2008-06-10 05:43;CYYG 100543Z 08003KT 15SM FEW007 OVC015 10/ RMK SF2SC6

CYYG;2008-06-10 06:00;CYYG 100600Z 09002KT 15SM FEW007 OVC015 10/10 A2998 RMK SF2SC6 SLP151

CYYG;2008-06-10 07:00;CYYG 100700Z 03002KT 15SM FEW007 OVC010 10/10 A2999 RMK SF2SC6 SLP157

CYYG;2008-06-10 07:28;CYYG 100728Z 07002KT 15SM OVC009 11/ RMK SC8

CYYG;2008-06-10 08:00;CYYG 100800Z 00000KT 10SM OVC009 11/10 A2999 RMK SC8 SLP155

CYYG;2008-06-10 08:21;CYYG 100821Z 00000KT 6SM BR OVC005 11/ RMK SF8

CYYG;2008-06-10 08:48;CYYG 100848Z 12002KT 3SM BR OVC004 11/ RMK SF8 FG BNK SE-SW VIS 1

CYYG;2008-06-10 09:00;CYYG 100900Z 10003KT 1SM R03/P6000FT/D BR OVC002 11/10 A3001 RMK SF8 VIS HIER NW-N SLP162

CYYG;2008-06-10 09:28;CYYG 100928Z 17006KT 1 1/2SM BR OVC003 10/ RMK SF8

CYYG;2008-06-10 09:52;CYYG 100952Z 16004KT 3SM -DZ BR OVC003 10/ RMK SF8

CYYG;2008-06-10 10:00;CYYG 101000Z 15004KT 4SM -DZ BR OVC003 10/10 A3003 RMK SF8 SLP169

CYYG;2008-06-10 11:00;CYYG 101100Z 16005KT 8SM -DZ OVC004 11/10 A3004 RMK SF8 SLP174

CYYG;2008-06-10 11:46;CYYG 101146Z 15006KT 15SM OVC005 11/ RMK SF8

CYYG;2008-06-10 12:00;CYYG 101200Z 14004KT 15SM OVC005 11/10 A3006 RMK SF8 SLP179

CYYG;2008-06-10 13:00;CYYG 101300Z 17005KT 15SM OVC005 11/10 A3006 RMK SF8 SLP181

CYYG;2008-06-10 14:00;CYYG 101400Z 15007KT 15SM OVC006 12/10 A3006 RMK SF8 VIS LWR W-N SLP181

CYYG;2008-06-10 15:00;CYYG 101500Z 17009KT 10SM OVC008 13/11 A3005 RMK SF8 SLP178

CYYG;2008-06-10 16:00;CYYG 101600Z 16007KT 12SM OVC009 13/11 A3005 RMK SF8 SLP177

CYYG;2008-06-10 17:00;CYYG 101700Z 16008KT 12SM BKN009 OVC013 13/11 A3004 RMK SF6SC2 SLP172

CYYG;2008-06-10 17:42;CYYG 101742Z 18007KT 15SM OVC012 15/ RMK SC8

CYYG;2008-06-10 18:00;CYYG 101800Z 17007KT 15SM BKN012 BKN070 15/12 A3002 RMK SC6AC2 SLP168

CYYG;2008-06-10 19:00;CYYG 101900Z 17006KT 15SM FEW012 BKN051 OVC080 16/13 A3002 RMK SC2SC4AC2 SLP166

CYYG;2008-06-10 20:00;CYYG 102000Z 15006KT 15SM FEW034 BKN050 OVC080 15/12 A3000 RMK SC2SC5AC2 SLP160

CYYG;2008-06-10 21:00;CYYG 102100Z 13005KT 15SM BKN048 OVC084 16/13 A2999 RMK SC6AC2 SLP156

CYYG;2008-06-10 22:00;CYYG 102200Z 15005KT 15SM BKN051 OVC084 17/13 A2998 RMK SC6AC2 SLP153

CYYG;2008-06-10 23:00;CYYG 102300Z 15005KT 15SM BKN051 17/13 A2998 RMK SC7 SLP152

CYYG;2008-06-11 00:00;CYYG 110000Z 15008KT 15SM FEW050 BKN065 14/11 A2998 RMK SC2SC6 SLP153

CYYG;2008-06-11 01:00;CYYG 110100Z 17008KT 15SM BKN071 15/11 A2998 RMK AC7 SLP153

CYYG;2008-06-11 02:00;CYYG 110200Z 19011KT 15SM FEW060 OVC075 14/11 A2998 RMK SC2AC6 SLP152

CYYG;2008-06-11 03:00;CYYG 110300Z 19010KT 15SM OVC067 14/10 A2998 RMK AC8 SLP151

CYYG;2008-06-11 04:00;CYYG 110400Z 20011KT 15SM OVC038 13/10 A2997 RMK SC8 SLP148

CYYG;2008-06-11 05:00;CYYG 110500Z 18010KT 15SM SCT038 OVC059 13/10 A2995 RMK SC3SC5 SLP142

CYYG;2008-06-11 06:00;CYYG 110600Z 17010KT 15SM OVC058 13/10 A2993 RMK SC8 SLP136

CYYG;2008-06-11 07:00;CYYG 110700Z 17011KT 15SM FEW055 BKN150 12/09 A2991 RMK SC2AC5 SLP130

CYYG;2008-06-11 08:00;CYYG 110800Z 19011KT 15SM BKN130 BKN180 12/09 A2993 RMK AC6AC2 SLP134

CYYG;2008-06-11 09:00;CYYG 110900Z 21007KT 15SM OVC046 12/10 A2995 RMK SC8 SLP142

CYYG;2008-06-11 09:39;CYYG 110939Z 18009KT 15SM TS BKN045 BKN110 12/ RMK SC6AC2 CB ASOCTD S-SW VIS SW 5

CYYG;2008-06-11 09:48;CYYG 110948Z 19008KT 15SM -TSRA BKN045 BKN110 12/ RMK SC6AC2 CB ASOCTD S-W MOVG NE

CYYG;2008-06-11 10:00;CYYG 111000Z 20007KT 15SM -TSRA FEW005 BKN031 BKN110 12/11 A2994 RMK SF1SC5AC2 CB ASOCTD S-SW MOVG NE ACC ASOCTD SLP140

CYYG;2008-06-11 10:09;CYYG 111009Z 23006KT 15SM -SHRA FEW005 FEW018 OVC030 13/ RETS RMK SF1SC2SC6 CB ASOCTD S MOVG NE

CYYG;2008-06-11 11:00;CYYG 111100Z 18010KT 6SM BR FEW003 FEW017 BKN084 12/11 A2991 RETSRA RMK SF1SC1ACC6 SLP129

CYYG;2008-06-11 11:27;CYYG 111127Z 18011KT 10SM BKN003 BKN045 13/ RMK SF6SC2

CYYG;2008-06-11 11:32;CYYG 111132Z 19011KT 10SM FEW003 BKN044 BKN300 13/ RMK SF2SC5CI1

CYYG;2008-06-11 12:00;CYYG 111200Z 19013KT 15SM FEW003 BKN032 BKN300 14/12 A2988 RMK SF1SC5CI1 SLP120

CYYG;2008-06-11 13:00;CYYG 111300Z 18017KT 15SM FEW003 BKN029 OVC300 14/11 A2985 RMK SF1SC6CI2 SLP109

CYYG;2008-06-11 14:00;CYYG 111400Z 18013G19KT 15SM BKN029 OVC110 14/11 A2985 RMK SC6AC2 SLP108

CYYG;2008-06-11 15:00;CYYG 111500Z 18013G19KT 15SM BKN021 OVC110 17/13 A2987 RMK SC6AC2 SLP114

CYYG;2008-06-11 16:00;CYYG 111600Z 21009KT 15SM OVC017 18/14 A2986 RMK SC8 SLP111

CYYG;2008-06-11 17:00;CYYG 111700Z 22014KT 15SM OVC016 19/15 A2984 RMK SC8 SLP104

CYYG;2008-06-11 18:00;CYYG 111800Z 21011KT 15SM OVC014 19/16 A2983 RMK SC8 SLP101

CYYG;2008-06-11 19:00;CYYG 111900Z 19010KT 15SM BKN014 20/16 A2981 RMK SC6 SLP094

CYYG;2008-06-11 20:00;CYYG 112000Z 19009G15KT 15SM FEW018 FEW250 20/16 A2980 RMK CF1CI1 SLP092

CYYG;2008-06-11 21:00;CYYG 112100Z 19011KT 15SM FEW018 FEW250 20/16 A2978 RMK CF1CI1 SLP084

CYYG;2008-06-11 22:00;CYYG 112200Z 18007KT 15SM FEW040 FEW250 20/16 A2979 RMK SC1CI1 SLP089

CYYG;2008-06-11 23:00;CYYG 112300Z 19008KT 15SM FEW050 FEW250 19/16 A2980 RMK SC1CI1 SLP092

CYYG;2008-06-12 00:00;CYYG 120000Z 20006KT 15SM FEW050 FEW250 16/14 A2980 RMK SC1CI1 SLP091

CYYG;2008-06-12 01:00;CYYG 120100Z 21006KT 15SM SCT050 17/14 A2980 RMK SC4 SLP093

CYYG;2008-06-12 01:42;CYYG 120142Z 27007KT 12SM -SHRA SCT052 BKN085 17/ RMK SC4AC2

CYYG;2008-06-12 02:00;CYYG 120200Z 26008KT 15SM -SHRA SCT052 BKN085 18/15 A2981 RMK SC4AC2 SLP096

CYYG;2008-06-12 02:17;CYYG 120217Z 26008KT 15SM FEW052 BKN120 17/ RMK SC2AC2

CYYG;2008-06-12 03:00;CYYG 120300Z 26005KT 15SM FEW050 SCT090 16/14 A2980 RMK SC2AC2 SLP091

CYYG;2008-06-12 04:00;CYYG 120400Z 26002KT 15SM FEW050 15/13 A2979 RMK SC2 SLP087

CYYG;2008-06-12 04:53;CYYG 120453Z 29008G15KT 15SM -SHRA SCT030 BKN085 15/ RMK SC3AC3

CYYG;2008-06-12 05:00;CYYG 120500Z 29007KT 15SM -SHRA BKN030 OVC082 15/14 A2979 RMK SC6AC2 SLP088

CYYG;2008-06-12 05:35;CYYG 120535Z 34005KT 15SM FEW030 BKN110 15/ RMK SC2AC3

CYYG;2008-06-12 06:00;CYYG 120600Z 34004KT 15SM FEW030 SCT078 14/14 A2977 RMK SC1AC3 SLP082

CYYG;2008-06-12 07:00;CYYG 120700Z 30008KT 15SM FEW010 FEW030 SCT080 15/14 A2979 RMK SC1SC1AC2 SLP088

CYYG;2008-06-12 08:00;CYYG 120800Z 30009KT 15SM FEW030 14/13 A2980 RMK SC2 SLP092

CYYG;2008-06-12 09:00;CYYG 120900Z 29009KT 15SM FEW030 14/13 A2982 RMK SC2 SLP099

CYYG;2008-06-12 10:00;CYYG 121000Z 31013KT 15SM SCT014 BKN056 15/13 A2985 RMK SC3SC2 SLP107

CYYG;2008-06-12 11:00;CYYG 121100Z 32013G19KT 15SM SCT014 BKN021 15/13 A2985 RMK SC4SC3 SLP110

CYYG;2008-06-12 12:00;CYYG 121200Z CCA 33015G20KT 15SM SCT017 SCT250 16/12 A2986 RMK SC3CI1 SLP111

CYYG;2008-06-12 13:00;CYYG 121300Z 32016G22KT 15SM FEW020 SCT035 SCT250 16/12 A2987 RMK SC2SC2CI1 SLP114

CYYG;2008-06-12 14:00;CYYG 121400Z 34019G24KT 15SM FEW025 FEW250 16/11 A2988 RMK SC2CI1 SLP118

CYYG;2008-06-12 15:00;CYYG 121500Z 33016G26KT 15SM BKN030 BKN250 17/10 A2990 RMK CU6CI1 SLP125

CYYG;2008-06-12 16:00;CYYG 121600Z 34013G25KT 15SM BKN030 17/10 A2990 RMK SC7 SLP127

CYYG;2008-06-12 17:00;CYYG 121700Z 33014G22KT 15SM BKN041 BKN100 16/08 A2992 RMK SC6AC1 SLP132

CYYG;2008-06-12 18:00;CYYG 121800Z 33019G25KT 15SM FEW040 FEW160 FEW250 18/08 A2992 RMK SC1AC1CI1 SLP131

CYYG;2008-06-12 19:00;CYYG 121900Z 01013G19KT 15SM FEW045 FEW160 FEW250 16/09 A2992 RMK SC1AC1CI1 SLP132

CYYG;2008-06-12 20:00;CYYG 122000Z 01014G22KT 15SM FEW045 FEW160 FEW250 16/07 A2993 RMK SC1AC1CI1 SLP137

CYYG;2008-06-12 21:00;CYYG 122100Z 35012G17KT 15SM FEW050 FEW160 FEW250 15/07 A2994 RMK SC1AC1CI0 SLP140

CYYG;2008-06-12 22:00;CYYG 122200Z 34010KT 15SM FEW045 BKN070 14/07 A2995 RMK SC1AC5 SLP143

CYYG;2008-06-12 23:00;CYYG 122300Z 33008KT 15SM FEW045 BKN070 14/07 A2996 RMK SC1AC6 SLP147

CYYG;2008-06-13 00:00;CYYG 130000Z 33008KT 15SM FEW045 BKN068 14/08 A2997 RMK SC1AC5 SLP148

CYYG;2008-06-13 01:00;CYYG 130100Z 32009KT 15SM BKN076 15/07 A2997 RMK AC6 SLP149

CYYG;2008-06-13 02:00;CYYG 130200Z 34009G17KT 15SM BKN080 15/07 A2997 RMK AC6 SLP148

CYYG;2008-06-13 03:00;CYYG 130300Z 32009G16KT 15SM BKN086 15/07 A2997 RMK AC6 SLP148

CYYG;2008-06-13 04:00;CYYG 130400Z 32010KT 15SM BKN089 15/05 A2996 RMK AC5 SLP145

CYYG;2008-06-13 05:00;CYYG 130500Z 33012G20KT 15SM SCT085 15/05 A2995 RMK AC3 SLP142

CYYG;2008-06-13 06:00;CYYG 130600Z 33010G15KT 15SM FEW080 14/07 A2995 RMK AC2 SLP141

CYYG;2008-06-13 07:00;CYYG 130700Z 34011KT 15SM FEW080 13/07 A2996 RMK AC2 SLP145

CYYG;2008-06-13 08:00;CYYG 130800Z 34012G18KT 15SM FEW080 13/06 A2997 RMK AC1 SLP148

CYYG;2008-06-13 09:00;CYYG 130900Z 35011G17KT 15SM FEW080 12/06 A2998 RMK AC1 SLP152

CYYG;2008-06-13 10:00;CYYG 131000Z 35012G22KT 15SM FEW080 FEW250 13/06 A2999 RMK AC1CI0 SLP157

CYYG;2008-06-13 11:00;CYYG 131100Z 36019G28KT 15SM FEW250 13/06 A3000 RMK CI1 SLP160

CYYG;2008-06-13 12:00;CYYG 131200Z 35015G28KT 15SM FEW025 FEW250 13/05 A3002 RMK CF1CI1 SLP165

CYYG;2008-06-13 13:00;CYYG 131300Z 36019G29KT 15SM FEW025 FEW250 13/05 A3003 RMK CF1CI1 SLP168

CYYG;2008-06-13 14:00;CYYG 131400Z 36019G29KT 15SM FEW025 FEW250 13/05 A3004 RMK CF1CI1 SLP173

CYYG;2008-06-13 15:00;CYYG 131500Z 36019G31KT 15SM FEW040 FEW220 13/06 A3006 RMK CF1CI1 SLP179

CYYG;2008-06-13 16:00;CYYG 131600Z 36021G33KT 15SM SCT036 BKN220 13/06 A3006 RMK SC4CI1 SLP179

CYYG;2008-06-13 17:00;CYYG 131700Z 01018G32KT 15SM BKN034 BKN090 13/06 A3007 RMK SC6AC2 SLP184

CYYG;2008-06-13 18:00;CYYG 131800Z 01020G31KT 15SM BKN038 BKN100 13/06 A3009 RMK SC6AC2 SLP189

CYYG;2008-06-13 19:00;CYYG 131900Z 01017G25KT 15SM BKN038 BKN100 12/05 A3009 RMK SC6AC1 SLP190

CYYG;2008-06-13 20:00;CYYG 132000Z 02015G20KT 15SM BKN037 BKN100 12/06 A3009 RMK SC6AC1 SLP191

CYYG;2008-06-13 21:00;CYYG 132100Z 36012G17KT 15SM BKN036 12/05 A3008 RMK SC7 SLP188

CYYG;2008-06-13 22:00;CYYG 132200Z 35011G16KT 15SM BKN040 12/05 A3008 RMK SC7 SLP188

CYYG;2008-06-13 23:00;CYYG 132300Z 36008KT 15SM FEW040 12/05 A3008 RMK SC2 SLP186

CYYG;2008-06-14 00:00;CYYG 140000Z 35008KT 15SM FEW040 11/05 A3007 RMK SC2 SLP184

CYYG;2008-06-14 01:00;CYYG 140100Z 36009KT 15SM FEW040 11/05 A3007 RMK SC2 SLP183

CYYG;2008-06-14 02:00;CYYG 140200Z 01010G15KT 15SM BKN066 12/06 A3006 RMK AC5 SLP181

CYYG;2008-06-14 03:00;CYYG 140300Z 01011KT 15SM SCT056 12/06 A3005 RMK SC3 SLP176

CYYG;2008-06-14 04:00;CYYG 140400Z 02009KT 15SM SCT043 11/06 A3005 RMK SC3 SLP177

CYYG;2008-06-14 05:00;CYYG 140500Z 02010G16KT 15SM BKN029 12/08 A3003 RMK SC5 SLP171

CYYG;2008-06-14 06:00;CYYG 140600Z 36011KT 15SM BKN034 12/04 A3002 RMK SC5 SLP166

CYYG;2008-06-14 07:00;CYYG 140700Z 01007G15KT 15SM BKN035 12/08 A3000 RMK SC5 SLP161

CYYG;2008-06-14 08:00;CYYG 140800Z 01013G19KT 15SM BKN033 12/08 A3000 RMK SC5 SLP161

CYYG;2008-06-14 09:00;CYYG 140900Z 02014KT 15SM FEW035 11/07 A3000 RMK SC2 SLP161

CYYG;2008-06-14 10:00;CYYG 141000Z 02018G25KT 15SM FEW035 12/07 A3000 RMK SC2 SLP160

CYYG;2008-06-14 11:00;CYYG 141100Z 02021KT 15SM FEW035 BKN120 12/07 A3000 RMK SC2AC2 SLP161

CYYG;2008-06-14 12:00;CYYG 141200Z 02017G29KT 15SM FEW020 SCT032 BKN100 12/07 A3002 RMK SC2SC2AC2 SLP166

CYYG;2008-06-14 12:24;CYYG 141224Z 02020G30KT 15SM SCT021 BKN030 BKN130 12/ RMK SC3SC3AC1

CYYG;2008-06-14 13:00;CYYG 141300Z 03023KT 15SM BKN021 BKN030 BKN130 12/07 A3002 RMK SC6SC1AC1 SLP166

CYYG;2008-06-14 14:00;CYYG 141400Z 04021G27KT 15SM BKN015 OVC030 11/07 A3000 RMK SC6SC2 SLP161

CYYG;2008-06-14 14:43;CYYG 141443Z 01015G22KT 3SM -SHRA BR BKN015 OVC022 10/ RMK SC6SC2

CYYG;2008-06-14 15:00;CYYG 141500Z 02018KT 3SM -SHRA BR BKN013 OVC022 10/08 A3001 RMK SC6SC2 SLP163

CYYG;2008-06-14 15:19;CYYG 141519Z 02016KT 2SM -DZ BR BKN005 OVC010 10/ RMK SF6SC2

CYYG;2008-06-14 16:00;CYYG 141600Z 02013G22KT 2 1/2SM -DZ BR BKN005 OVC010 10/09 A3001 RMK SF7SC1 SLP162

CYYG;2008-06-14 16:54;CYYG 141654Z 02014G20KT 6SM BR SCT005 OVC010 09/ RMK SF4SC4

CYYG;2008-06-14 17:00;CYYG 141700Z 02013G20KT 6SM BR SCT005 OVC010 10/08 A3001 RMK SF4SC4 SLP162

CYYG;2008-06-14 17:10;CYYG 141710Z 01013G19KT 2 1/2SM BR SCT005 OVC008 09/ RMK SF4SF4

CYYG;2008-06-14 18:00;CYYG 141800Z 01012G18KT 8SM FEW005 OVC008 10/08 A2999 RMK SF2SF6 SLP158

CYYG;2008-06-14 18:44;CYYG 141844Z 02015G20KT 12SM OVC011 10/ RMK SC8

CYYG;2008-06-14 19:00;CYYG 141900Z 02016KT 12SM OVC010 10/08 A2999 RMK SC8 SLP157

CYYG;2008-06-14 20:00;CYYG 142000Z 03014KT 15SM OVC010 10/08 A2998 RMK SC8 SLP152

CYYG;2008-06-14 21:00;CYYG 142100Z 01012G17KT 15SM OVC009 10/08 A2997 RMK SF8 SLP151

CYYG;2008-06-14 22:00;CYYG 142200Z 01011G18KT 15SM OVC006 09/08 A2997 RMK SF8 SLP149

CYYG;2008-06-14 23:00;CYYG 142300Z 03011KT 15SM OVC006 09/08 A2996 RMK SF8 SLP147

CYYG;2008-06-14 23:33;CYYG 142333Z 02008KT 3SM BR OVC006 09/ RMK SF8

CYYG;2008-06-15 00:00;CYYG 150000Z 03009KT 2 1/2SM BR OVC006 09/08 A2996 RMK SF8 SLP145

CYYG;2008-06-15 00:43;CYYG 150043Z 01007KT 2SM -DZ OVC005 09/ RMK SF8

CYYG;2008-06-15 01:00;CYYG 150100Z 02006KT 5SM -DZ BR OVC006 09/08 A2996 RMK SF8 SLP145

CYYG;2008-06-15 02:00;CYYG 150200Z 02007KT 8SM -DZ OVC006 10/09 A2995 RMK SF8 SLP143

CYYG;2008-06-15 02:38;CYYG 150238Z 04009KT 8SM OVC005 09/ RMK SF8

CYYG;2008-06-15 03:00;CYYG 150300Z 04008KT 8SM OVC004 09/09 A2994 RMK SF8 SLP140

CYYG;2008-06-15 04:00;CYYG 150400Z 36005KT 4SM BR OVC003 09/08 A2993 RMK SF8 SLP136

CYYG;2008-06-15 05:00;CYYG 150500Z 01005KT 4SM BR OVC003 09/09 A2992 RMK SF8 SLP133

CYYG;2008-06-15 06:00;CYYG 150600Z 36007KT 4SM BR OVC002 09/09 A2991 RMK SF8 SLP130

CYYG;2008-06-15 07:00;CYYG 150700Z 35006KT 3/4SM R03/4500VP6000FT/D BR VV002 09/09 A2990 RMK FG8 SLP127

CYYG;2008-06-15 08:00;CYYG 150800Z 34008KT 1/2SM R03/2200V3500FT/D FG VV002 09/09 A2990 RMK FG8 SLP125

CYYG;2008-06-15 09:00;CYYG 150900Z 01007KT 1/2SM R03/2200V4000FT/N FG VV001 09/09 A2989 RMK FG8 SLP124

CYYG;2008-06-15 10:00;CYYG 151000Z 33005KT 1/2SM R03/2200V5000FT/D FG VV001 09/09 A2990 RMK FG8 SLP126

CYYG;2008-06-15 10:52;CYYG 151052Z 35006KT 1 1/2SM BR OVC003 10/ RMK ST8

CYYG;2008-06-15 11:00;CYYG 151100Z 01005KT 2 1/2SM BR OVC003 10/09 A2990 RMK ST8 SLP126

CYYG;2008-06-15 11:18;CYYG 151118Z 02007KT 4SM BR OVC004 10/ RMK ST8

CYYG;2008-06-15 12:00;CYYG 151200Z 02009KT 6SM BR OVC005 10/10 A2989 RMK ST8 SLP124

CYYG;2008-06-15 13:00;CYYG 151300Z 02008KT 8SM OVC006 11/10 A2990 RMK ST8 SLP125

CYYG;2008-06-15 13:34;CYYG 151334Z 36008KT 12SM BKN007 12/ RMK SF7

CYYG;2008-06-15 14:00;CYYG 151400Z 03013KT 12SM BKN008 13/10 A2988 RMK SF7 SLP120

CYYG;2008-06-15 14:20;CYYG 151420Z 04012KT 15SM SCT009 BKN100 14/ RMK SF3AC2

CYYG;2008-06-15 15:00;CYYG 151500Z 05011KT 15SM FEW010 FEW015 SCT100 14/11 A2986 RMK SF1SC2AC1 SLP113

CYYG;2008-06-15 15:12;CYYG 151512Z 04011KT 15SM FEW010 BKN025 BKN100 14/ RMK CF1SC6AC1

CYYG;2008-06-15 16:00;CYYG 151600Z 02010G15KT 15SM FEW015 BKN026 15/11 A2986 RMK CF1SC6 SLP111

CYYG;2008-06-15 17:00;CYYG 151700Z 02009KT 15SM FEW015 BKN027 15/12 A2986 RMK SC1SC6 SLP111

CYYG;2008-06-15 18:00;CYYG 151800Z 36011KT 15SM FEW015 BKN032 14/11 A2985 RMK SC2SC6 SLP107

CYYG;2008-06-15 18:34;CYYG 151834Z 01011KT 15SM FEW009 BKN032 14/ RMK SF2SC6

CYYG;2008-06-15 19:00;CYYG 151900Z 36011KT 15SM FEW009 BKN032 BKN040 13/10 A2985 RMK SF2SC5SC1 SLP107

CYYG;2008-06-15 19:31;CYYG 151931Z 36011KT 15SM BKN008 OVC037 12/ RMK SF6SC2

CYYG;2008-06-15 20:00;CYYG 152000Z 36013G18KT 15SM OVC006 11/09 A2985 RMK SF8 SLP109

CYYG;2008-06-15 20:12;CYYG 152012Z 35011G18KT 15SM OVC005 11/ RMK SF8

CYYG;2008-06-15 21:00;CYYG 152100Z 36010KT 12SM OVC005 10/09 A2985 RMK SF8 SLP108

CYYG;2008-06-15 22:00;CYYG 152200Z 02011KT 10SM OVC005 11/09 A2985 RMK SF8 SLP108

CYYG;2008-06-15 23:00;CYYG 152300Z 01005KT 10SM OVC006 10/09 A2985 RMK SF8 SLP110

CYYG;2008-06-16 00:00;CYYG 160000Z 03008KT 10SM OVC004 10/09 A2985 RMK SF8 SLP108

CYYG;2008-06-16 01:00;CYYG 160100Z 02007KT 10SM OVC003 10/09 A2984 RMK SF8 SLP107

CYYG;2008-06-16 02:00;CYYG 160200Z 02006KT 8SM OVC004 10/09 A2984 RMK SF8 SLP106

CYYG;2008-06-16 03:00;CYYG 160300Z 01007KT 10SM OVC004 10/09 A2983 RMK SF8 SLP102

CYYG;2008-06-16 04:00;CYYG 160400Z 36004KT 10SM OVC004 10/09 A2982 RMK SF8 SLP100

CYYG;2008-06-16 04:34;CYYG 160434Z 36006KT 3SM BR OVC002 09/ RMK SF8

CYYG;2008-06-16 05:00;CYYG 160500Z 36005KT 1 1/2SM BR VV002 09/09 A2984 RMK FG8 SLP105

CYYG;2008-06-16 06:00;CYYG 160600Z 33005KT 3/4SM R03/4000FT/N BR VV002 09/09 A2984 RMK FG8 SLP105

CYYG;2008-06-16 07:00;CYYG 160700Z 36004KT 3SM BR OVC004 09/09 A2983 RMK SF8 SLP102

CYYG;2008-06-16 08:00;CYYG 160800Z 32004KT 6SM BR OVC005 10/09 A2983 RMK SF8 SLP102

CYYG;2008-06-16 09:00;CYYG 160900Z 36005KT 6SM BR OVC005 10/09 A2982 RMK SF8 SLP101

CYYG;2008-06-16 10:00;CYYG 161000Z 36005KT 8SM OVC004 10/09 A2983 RMK SF8 VIS LWR NW-NE SLP102

CYYG;2008-06-16 10:24;CYYG 161024Z 01007KT 5SM BR OVC003 10/ RMK SF8

CYYG;2008-06-16 11:00;CYYG 161100Z 36004KT 10SM OVC004 11/10 A2984 RMK ST8 SLP106

CYYG;2008-06-16 11:33;CYYG 161133Z 36005KT 10SM -DZ OVC006 11/ RMK ST8

CYYG;2008-06-16 12:00;CYYG 161200Z 02006KT 10SM -DZ BKN005 OVC015 11/10 A2985 RMK SF5SC3 SLP109

CYYG;2008-06-16 12:27;CYYG 161227Z 34005KT 10SM BKN004 BKN011 OVC016 11/ RMK SF5SC2SC2

CYYG;2008-06-16 13:00;CYYG 161300Z 36006KT 15SM BKN007 OVC013 12/10 A2985 RMK SF6SC2 SLP110

CYYG;2008-06-16 13:42;CYYG 161342Z 32005KT 15SM SCT007 OVC016 13/ RMK SF3SC5

CYYG;2008-06-16 14:00;CYYG 161400Z 32005KT 15SM SCT007 OVC013 13/11 A2985 RMK SF3SC5 SLP109

CYYG;2008-06-16 15:00;CYYG 161500Z 01005KT 15SM BKN009 14/11 A2985 RMK SC7 SLP110

CYYG;2008-06-16 15:42;CYYG 161542Z 02004KT 15SM BKN014 BKN030 OVC300 15/ RMK SC5SC2CI1

CYYG;2008-06-16 16:00;CYYG 161600Z 01004KT 15SM BKN015 BKN300 15/12 A2986 RMK SC6CI1 SLP111

CYYG;2008-06-16 17:00;CYYG 161700Z 00000KT 15SM OVC015 15/12 A2985 RMK SC8 SLP110

CYYG;2008-06-16 18:00;CYYG 161800Z 01003KT 15SM BKN016 BKN030 15/11 A2985 RMK SC6SC2 SLP109

CYYG;2008-06-16 19:00;CYYG 161900Z 02008KT 15SM SCT016 BKN027 15/11 A2985 RMK SC3SC4 SLP109

CYYG;2008-06-16 20:00;CYYG 162000Z 36005KT 15SM FEW016 BKN025 BKN300 15/12 A2986 RMK SC1SC4CI1 SLP111

CYYG;2008-06-16 21:00;CYYG 162100Z 03006KT 15SM FEW010 BKN024 BKN300 15/12 A2987 RMK SC1SC6CI0 SLP115

CYYG;2008-06-16 22:00;CYYG 162200Z 34005KT 15SM FEW010 BKN026 14/11 A2987 RMK SC1SC6 SLP116

CYYG;2008-06-16 23:00;CYYG 162300Z 03005KT 15SM FEW010 BKN025 12/10 A2988 RMK SC2SC5 SLP118

CYYG;2008-06-17 00:00;CYYG 170000Z 01003KT 15SM SCT010 BKN022 11/10 A2989 RMK SF3SC4 SLP122

CYYG;2008-06-17 01:00;CYYG 170100Z 03005KT 15SM BKN004 OVC022 11/10 A2989 RMK SF5SC3 SLP124

CYYG;2008-06-17 01:25;CYYG 170125Z 07004KT 10SM OVC002 11/ RMK SF8

CYYG;2008-06-17 01:42;CYYG 170142Z 07005KT 3SM BR OVC002 10/ RMK SF8

CYYG;2008-06-17 02:00;CYYG 170200Z 06003KT 1 1/2SM BR VV001 10/10 A2989 RMK FG8 SLP123

CYYG;2008-06-17 02:17;CYYG 170217Z 05002KT 3/4SM R03/4000VP6000FT/D BR VV001 10/ RMK FG8

CYYG;2008-06-17 03:00;CYYG 170300Z 09004KT 1/2SM R03/2200VP6000FT/D FG VV001 10/09 A2989 RMK FG8 SLP122

CYYG;2008-06-17 03:24;CYYG 170324Z 00000KT 1/4SM R03/1600FT/N FG VV001 09/ RMK FG8

CYYG;2008-06-17 04:00;CYYG 170400Z 07002KT 1 1/2SM BR VV001 09/09 A2988 RMK FG8 SLP118

CYYG;2008-06-17 04:33;CYYG 170433Z 00000KT 10SM BKN002 OVC019 09/ RMK SF6SC2

CYYG;2008-06-17 05:00;CYYG 170500Z 00000KT 5SM R03/2600VP6000FT/D BR OVC002 09/09 A2986 RMK SF8 SLP113

CYYG;2008-06-17 06:00;CYYG 170600Z 25003KT 5SM BR SCT002 OVC018 09/09 A2989 RMK SF3SC5 SLP121

CYYG;2008-06-17 07:00;CYYG 170700Z 00000KT 6SM BR SCT002 OVC019 10/10 A2987 RMK SF3SC5 SLP116

CYYG;2008-06-17 08:00;CYYG 170800Z 10002KT 4SM BR SCT002 OVC017 10/10 A2987 RMK SF4SC4 SLP114

CYYG;2008-06-17 08:37;CYYG 170837Z 33002KT 3SM BR OVC003 10/ RMK SF8

CYYG;2008-06-17 09:00;CYYG 170900Z 01002KT 1 1/2SM BR OVC002 10/09 A2987 RMK SF8 SLP116

CYYG;2008-06-17 10:00;CYYG 171000Z 10002KT 2SM BR OVC002 11/10 A2986 RMK SF8 SLP113

CYYG;2008-06-17 10:48;CYYG 171048Z 08003KT 5SM BR SCT002 OVC016 12/ RMK SF3SC5

CYYG;2008-06-17 11:00;CYYG 171100Z 08004KT 8SM SCT002 OVC016 12/11 A2986 RMK SF3SC5 SLP111

CYYG;2008-06-17 12:00;CYYG 171200Z 12004KT 15SM FEW007 OVC016 13/11 A2987 RMK SF2SC6 SLP114

CYYG;2008-06-17 13:00;CYYG 171300Z 14002KT 15SM FEW007 OVC014 14/11 A2985 RMK SF1SC7 SLP108

CYYG;2008-06-17 14:00;CYYG 171400Z 29002KT 15SM FEW007 OVC014 15/11 A2986 RMK SF1SC7 SLP111

CYYG;2008-06-17 15:00;CYYG 171500Z 14004KT 15SM FEW009 OVC017 15/12 A2985 RMK SF1SC7 SLP107

CYYG;2008-06-17 16:00;CYYG 171600Z 10005KT 15SM FEW010 BKN019 BKN300 16/12 A2984 RMK SF1SC6CI1 SLP106

CYYG;2008-06-17 17:00;CYYG 171700Z 07004KT 15SM FEW020 BKN140 BKN300 17/13 A2982 RMK SC2AC2CI1 SLP099

CYYG;2008-06-17 18:00;CYYG 171800Z 19003KT 15SM FEW020 BKN140 BKN220 18/13 A2982 RMK SC2AC2CI1 SLP099

CYYG;2008-06-17 19:00;CYYG 171900Z 09003KT 15SM SCT026 BKN140 BKN220 19/13 A2983 RMK SC3AC3CI1 SLP101

CYYG;2008-06-17 20:00;CYYG 172000Z 05006KT 15SM VCSH FEW027 BKN045 BKN300 17/13 A2981 RMK SC1SC6CI1 SLP096

CYYG;2008-06-17 21:00;CYYG 172100Z 07009KT 15SM FEW027 BKN040 OVC080 16/13 A2979 RMK SC1SC4AC3 SLP087

CYYG;2008-06-17 22:00;CYYG 172200Z 09007KT 15SM FEW027 SCT040 OVC100 16/13 A2979 RMK SC1SC2AC5 SLP087

CYYG;2008-06-17 22:26;CYYG 172226Z 12005KT 15SM -SHRA FEW027 SCT040 OVC098 16/ RMK SC1SC2AC5

CYYG;2008-06-17 23:00;CYYG 172300Z 21006KT 15SM BKN027 OVC080 15/12 A2982 RMK SC6AC2 OCNL -SHRA SLP100

CYYG;2008-06-17 23:40;CYYG 172340Z 14006KT 15SM BKN029 OVC055 14/ RMK SC6SC2

CYYG;2008-06-18 00:00;CYYG 180000Z 14004KT 15SM BKN030 OVC055 14/11 A2983 RMK SC6SC2 SLP101

CYYG;2008-06-18 01:00;CYYG 180100Z 12005KT 15SM BKN030 BKN050 OVC120 13/11 A2982 RMK SC5SC2AC2 SLP100

CYYG;2008-06-18 02:00;CYYG 180200Z 11005KT 15SM FEW030 BKN050 OVC100 13/11 A2983 RMK SC2SC4AC2 SLP102

CYYG;2008-06-18 03:00;CYYG 180300Z 12004KT 15SM BKN053 OVC110 12/11 A2983 RMK SC6AC1 SLP102

CYYG;2008-06-18 04:00;CYYG 180400Z 15004KT 15SM FEW050 BKN120 OVC200 12/11 A2982 RMK SC2AC4CI2 SLP100

CYYG;2008-06-18 05:00;CYYG 180500Z 11007KT 15SM BKN080 OVC200 12/11 A2982 RMK AC7CI1 SLP098

CYYG;2008-06-18 06:00;CYYG 180600Z 12006KT 15SM BKN080 BKN200 12/11 A2982 RMK AC6CI1 SLP098

CYYG;2008-06-18 07:00;CYYG 180700Z 14008KT 15SM BKN070 BKN120 12/11 A2981 RMK AC5AC2 SLP096

CYYG;2008-06-18 07:17;CYYG 180717Z 14007KT 15SM BKN006 OVC070 12/ RMK SF5AC3

CYYG;2008-06-18 07:48;CYYG 180748Z 15009KT 10SM OVC004 13/ RMK SF8

CYYG;2008-06-18 08:00;CYYG 180800Z 14010KT 10SM OVC005 12/11 A2982 RMK SF8 SLP097

CYYG;2008-06-18 09:00;CYYG 180900Z 13007KT 8SM BKN005 OVC120 12/11 A2982 RMK SF7AC1 SLP099

CYYG;2008-06-18 10:00;CYYG 181000Z 14008KT 12SM -SHRA OVC006 13/12 A2985 RMK SF8 SLP108

CYYG;2008-06-18 11:00;CYYG 181100Z 14008KT 15SM -SHRA BKN008 OVC050 13/12 A2985 RMK SF7SC1 SLP108

CYYG;2008-06-18 12:00;CYYG 181200Z 13006KT 15SM -SHRA BKN008 OVC100 14/12 A2985 RMK SF6AC2 SLP109

CYYG;2008-06-18 13:00;CYYG 181300Z 13003KT 15SM -SHRA SCT008 BKN020 OVC100 14/13 A2986 RMK SF4SC2AC2 SLP113

CYYG;2008-06-18 14:00;CYYG 181400Z 15008KT 15SM -SHRA OVC013 16/14 A2987 RMK SC8 SLP117

CYYG;2008-06-18 15:00;CYYG 181500Z 15010KT 15SM OVC014 17/14 A2988 RMK SC8 SLP118

CYYG;2008-06-18 16:00;CYYG 181600Z 13007KT 15SM OVC020 18/14 A2988 RMK SC8 SLP119

CYYG;2008-06-18 17:00;CYYG 181700Z 12009KT 15SM OVC016 17/14 A2989 RMK SC8 SLP122

CYYG;2008-06-18 18:00;CYYG 181800Z 13008KT 15SM OVC013 17/14 A2990 RMK SC8 SLP125

CYYG;2008-06-18 19:00;CYYG 181900Z 14011KT 15SM OVC012 16/13 A2991 RMK SC8 SLP129

CYYG;2008-06-18 19:17;CYYG 181917Z 14010KT 15SM TS OVC013 16/ RMK SC8 CB EMBD SW MOVG NE

CYYG;2008-06-18 19:29;CYYG 181929Z 16009KT 15SM -TSRA OVC012 16/ RMK SC8 CB EMBD S MOVG N

CYYG;2008-06-18 20:00;CYYG 182000Z 13007KT 12SM -TSRA BKN020 OVC030 15/14 A2992 RMK SC6SC2 CB EMBD SLP133

CYYG;2008-06-18 20:14;CYYG 182014Z 12007KT 12SM -SHRA SCT020 OVC050 15/ RMK SC3SC5

CYYG;2008-06-18 21:00;CYYG 182100Z 09009KT 12SM -SHRA SCT020 BKN050 OVC110 15/14 A2990 RMK SC3SC3AC2 SLP126

CYYG;2008-06-18 22:00;CYYG 182200Z 11007KT 12SM -SHRA FEW020 BKN080 OVC140 15/13 A2991 RMK SC2AC3AC2 SLP128

CYYG;2008-06-18 23:00;CYYG 182300Z 12011KT 15SM -SHRA FEW020 SCT080 BKN240 14/13 A2990 RMK SC2AC2CI2 CB DIST NE SLP124

CYYG;2008-06-19 00:00;CYYG 190000Z 12006KT 15SM VCSH FEW060 BKN110 BKN240 14/12 A2992 RMK SC2AC4CI1 CB DIST NW LTGCG SLP133

CYYG;2008-06-19 01:00;CYYG 190100Z 12010KT 15SM BKN024 BKN065 14/12 A2994 RMK SC6SC2 SLP140

CYYG;2008-06-19 01:36;CYYG 190136Z 12007KT 15SM -SHRA BKN024 OVC045 13/ RMK SC6SC2

CYYG;2008-06-19 02:00;CYYG 190200Z 11009KT 15SM -SHRA BKN035 BKN060 13/12 A2993 RMK SC5SC2 SLP134

CYYG;2008-06-19 02:40;CYYG 190240Z 11009KT 15SM FEW040 SCT076 13/ RMK SC2AC2

CYYG;2008-06-19 03:00;CYYG 190300Z 11010KT 15SM FEW040 SCT076 13/11 A2992 RMK SC2AC2 CB EMBDD DIST NW MOVG E LTGIC SLP133

CYYG;2008-06-19 04:00;CYYG 190400Z 13010KT 15SM FEW015 BKN057 13/11 A2994 RMK SC2SC5 SLP138

CYYG;2008-06-19 04:40;CYYG 190440Z 13011G17KT 12SM OVC010 13/ RMK SC8

CYYG;2008-06-19 05:00;CYYG 190500Z 12008KT 12SM OVC008 13/11 A2993 RMK SF8 SLP136

CYYG;2008-06-19 06:00;CYYG 190600Z 12007KT 12SM OVC008 13/11 A2993 RMK SF8 SLP134

CYYG;2008-06-19 06:43;CYYG 190643Z 12005KT 8SM OVC005 12/ RMK SF8

CYYG;2008-06-19 07:00;CYYG 190700Z 13006KT 8SM OVC005 12/11 A2993 RMK SF8 SLP135

CYYG;2008-06-19 08:00;CYYG 190800Z 14010KT 3SM BR OVC003 12/11 A2993 RMK SF8 SLP137

CYYG;2008-06-19 08:24;CYYG 190824Z 14010KT 1 1/2SM BR VV002 12/ RMK FG8

CYYG;2008-06-19 09:00;CYYG 190900Z 13006KT 1 1/2SM BR VV002 12/11 A2993 RMK FG8 SLP137

CYYG;2008-06-19 09:07;CYYG 190907Z 14007KT 5SM BR OVC002 12/ RMK SF8

CYYG;2008-06-19 10:00;CYYG 191000Z 14006KT 5SM BR OVC002 12/11 A2994 RMK SF8 SLP140

CYYG;2008-06-19 10:40;CYYG 191040Z 14009KT 12SM BKN003 OVC012 12/ RMK SF7SC1

CYYG;2008-06-19 11:00;CYYG 191100Z 15006KT 12SM OVC004 12/11 A2995 RMK SF8 SLP142

CYYG;2008-06-19 12:00;CYYG 191200Z 17005KT 12SM OVC005 13/12 A2997 RMK SC8 SLP148

CYYG;2008-06-19 13:00;CYYG 191300Z 13005KT 15SM OVC006 13/12 A2997 RMK SC8 SLP150

CYYG;2008-06-19 14:00;CYYG 191400Z 15007KT 15SM OVC008 14/12 A2998 RMK SC8 SLP151

CYYG;2008-06-19 15:00;CYYG 191500Z 18005KT 12SM OVC009 15/13 A2998 RMK SC8 SLP152

CYYG;2008-06-19 16:00;CYYG 191600Z 16006KT 15SM OVC009 15/13 A2998 RMK SC8 SLP154

CYYG;2008-06-19 17:00;CYYG 191700Z 16004KT 15SM BKN010 16/14 A2998 RMK SC7 SLP153

CYYG;2008-06-19 18:00;CYYG 191800Z 14004KT 15SM BKN015 18/14 A2998 RMK SC5 SLP152

CYYG;2008-06-19 18:25;CYYG 191825Z 17002KT 15SM SCT015 18/ RMK CU3

CYYG;2008-06-19 19:00;CYYG 191900Z 16004KT 15SM FEW018 19/14 A2997 RMK CU2 SLP149

CYYG;2008-06-19 20:00;CYYG 192000Z 18006KT 15SM FEW020 20/15 A2997 RMK CU2 SLP150

CYYG;2008-06-19 21:00;CYYG 192100Z 21004KT 15SM FEW020 FEW300 20/15 A2997 RMK CU2CC1 SLP149

CYYG;2008-06-19 22:00;CYYG 192200Z 15004KT 15SM FEW022 FEW300 20/14 A2997 RMK CU1CI1 SLP150

CYYG;2008-06-19 23:00;CYYG 192300Z 11009KT 15SM FEW022TCU FEW300 17/14 A2998 RMK TCU1CI1 TCU S SLP154

CYYG;2008-06-20 00:00;CYYG 200000Z 12006KT 15SM FEW005 FEW022TCU FEW300 14/13 A2999 RMK ST1TCU1CI1 TCU SE-S SLP157

CYYG;2008-06-20 01:00;CYYG 200100Z 12008KT 15SM FEW005 FEW300 13/12 A3001 RMK ST1CI1 SLP162

CYYG;2008-06-20 02:00;CYYG 200200Z 13007KT 15SM FEW030 FEW300 12/11 A3001 RMK SC1CI1 SLP162

CYYG;2008-06-20 02:18;CYYG 200218Z 13008KT 15SM FEW003 SCT300 12/ RMK SF2CI1

CYYG;2008-06-20 02:33;CYYG 200233Z 13007KT 10SM OVC003 12/ RMK SF8

CYYG;2008-06-20 03:00;CYYG 200300Z 14008KT 2SM BR OVC002 12/12 A3001 RMK SF8 SLP162

CYYG;2008-06-20 03:27;CYYG 200327Z 14009KT 3/4SM R03/6000FT/D BR VV001 12/ RMK FG8

CYYG;2008-06-20 04:00;CYYG 200400Z 14007KT 6SM BR OVC002 12/12 A3001 RMK SF8 SLP164

CYYG;2008-06-20 05:00;CYYG 200500Z 16008KT 2SM BR OVC002 13/13 A3002 RMK SF8 SLP166

CYYG;2008-06-20 06:00;CYYG 200600Z 16009KT 10SM OVC002 13/12 A3002 RMK SF8 SLP167

CYYG;2008-06-20 07:00;CYYG 200700Z 18007KT 15SM BKN003 OVC005 13/12 A3003 RMK SF6SF2 SLP169

CYYG;2008-06-20 08:00;CYYG 200800Z 18005KT 10SM OVC002 13/12 A3004 RMK ST8 SLP171

CYYG;2008-06-20 08:33;CYYG 200833Z 18006KT 10SM OVC004 13/ RMK ST8

CYYG;2008-06-20 09:00;CYYG 200900Z 18006KT 10SM OVC004 13/12 A3004 RMK ST8 SLP172

CYYG;2008-06-20 10:00;CYYG 201000Z 18005KT 10SM OVC004 13/12 A3004 RMK SF7 VIS W-N 2 SLP172

CYYG;2008-06-20 11:00;CYYG 201100Z 22005KT 10SM OVC004 13/12 A3004 RMK SF7 SLP173

CYYG;2008-06-20 12:00;CYYG 201200Z 20003KT 10SM BKN005 14/13 A3004 RMK SF5 SLP174

CYYG;2008-06-20 12:10;CYYG 201210Z 22003KT 10SM FEW005 15/ RMK SF2

CYYG;2008-06-20 13:00;CYYG 201300Z 19002KT 15SM FEW200 17/14 A3004 RMK CI1 SLP172

CYYG;2008-06-20 14:00;CYYG 201400Z 15005KT 15SM FEW030 FEW240 18/14 A3004 RMK CU1CI1 SLP172

CYYG;2008-06-20 15:00;CYYG 201500Z 15003KT 15SM FEW030 FEW240 20/15 A3004 RMK CU1CI1 SLP172

CYYG;2008-06-20 16:00;CYYG 201600Z 18004KT 15SM FEW030 FEW240 22/15 A3003 RMK CU2CI0 SLP170

CYYG;2008-06-20 17:00;CYYG 201700Z 05005KT 15SM FEW030 SCT230 20/14 A3004 RMK CU2CI1 SLP171

CYYG;2008-06-20 18:00;CYYG 201800Z 10004KT 15SM FEW034 SCT230 21/14 A3004 RMK CU2CI1 SLP171

CYYG;2008-06-20 19:00;CYYG 201900Z 08006KT 15SM FEW036 BKN240 22/14 A3003 RMK CU2CI1 SLP168

CYYG;2008-06-20 20:00;CYYG 202000Z 07007KT 15SM FEW030 SCT240 22/15 A3001 RMK SC1CI1 SLP162

CYYG;2008-06-20 21:00;CYYG 202100Z 05003KT 15SM FEW030 SCT240 22/15 A3000 RMK SC1CI1 SLP160

CYYG;2008-06-20 22:00;CYYG 202200Z 09006KT 15SM FEW030 SCT240 22/15 A3000 RMK SC1CI1 SLP158

CYYG;2008-06-20 23:00;CYYG 202300Z 18004KT 15SM FEW040TCU FEW100 FEW300 19/14 A3000 RMK TCU1AC1CI0 TCU SE-S SLP160

CYYG;2008-06-21 00:00;CYYG 210000Z 16002KT 15SM FEW040CB FEW091 SCT300 18/13 A3001 RMK CB1AC2CI0 CB TOP NW SLP162

CYYG;2008-06-21 01:00;CYYG 210100Z 14009KT 15SM FEW040TCU SCT094 BKN300 16/13 A3003 RMK TCU1AC2CI0 TCU NW SLP169

CYYG;2008-06-21 02:00;CYYG 210200Z 10004KT 15SM FEW100 14/12 A3003 RMK AC2 SLP169

CYYG;2008-06-21 03:00;CYYG 210300Z 14007KT 15SM FEW110 14/12 A3002 RMK AC2 SLP167

CYYG;2008-06-21 04:00;CYYG 210400Z 16004KT 15SM FEW110 13/12 A3002 RMK AC2 SLP165

CYYG;2008-06-21 05:00;CYYG 210500Z 19005KT 15SM FEW110 13/12 A3001 RMK AC2 SLP163

CYYG;2008-06-21 06:00;CYYG 210600Z 23006KT 15SM FEW090 SCT100 14/12 A3001 RMK AC2AC2 SLP163

CYYG;2008-06-21 07:00;CYYG 210700Z 25007KT 15SM FEW076 SCT110 13/11 A3001 RMK AC1AC2 SLP162

CYYG;2008-06-21 08:00;CYYG 210800Z 23003KT 15SM FEW083 BKN300 12/11 A3001 RMK ACC2CI0 SLP161

CYYG;2008-06-21 09:00;CYYG 210900Z 22003KT 15SM FEW010 FEW062TCU FEW083 BKN300 12/11 A3002 RMK SC1TCU1ACC1CI0 SH DIST E TCU NE-E SLP166

CYYG;2008-06-21 10:00;CYYG 211000Z 23003KT 15SM FEW010 FEW060TCU BKN300 13/12 A3002 RMK SC1TCU1CI1 SLP167

CYYG;2008-06-21 11:00;CYYG 211100Z 22005KT 15SM FEW010 FEW060 BKN300 14/12 A3004 RMK SC1SC1CI1 SLP172

CYYG;2008-06-21 12:00;CYYG 211200Z 19004KT 15SM FEW060 BKN300 15/12 A3004 RMK SC2CI1 SLP173

CYYG;2008-06-21 13:00;CYYG 211300Z 20008KT 15SM SCT120 BKN300 17/13 A3004 RMK AC4CI2 SLP172

CYYG;2008-06-21 14:00;CYYG 211400Z 22009KT 15SM BKN120 BKN300 18/13 A3004 RMK AC5CI2 SLP173

CYYG;2008-06-21 15:00;CYYG 211500Z 22006KT 15SM FEW030 BKN110 18/13 A3004 RMK CU1AC6 SLP174

CYYG;2008-06-21 15:49;CYYG 211549Z 22008KT 15SM -SHRA FEW030 BKN065 17/ RMK SC2AC5

CYYG;2008-06-21 16:00;CYYG 211600Z 23007KT 15SM -SHRA FEW030 BKN080 16/13 A3004 RMK SC2AC5 SLP171

CYYG;2008-06-21 16:08;CYYG 211608Z 23006KT 15SM FEW030 BKN082 16/ RMK SC2AC5

CYYG;2008-06-21 17:00;CYYG 211700Z 20005KT 15SM FEW030 BKN070 18/13 A3002 RMK SC2AC4 SLP167

CYYG;2008-06-21 18:00;CYYG 211800Z 19008KT 15SM FEW030 BKN065 18/13 A3001 RMK SC1AC6 SLP163

CYYG;2008-06-21 19:00;CYYG 211900Z 20006KT 15SM FEW030 SCT070 BKN130 20/13 A3001 RMK SC1AC3AC1 TCU S SLP161

CYYG;2008-06-21 20:00;CYYG 212000Z 19006KT 15SM FEW030 BKN110 20/13 A3000 RMK SC2AC4 TCU DIST S SLP158

CYYG;2008-06-21 21:00;CYYG 212100Z 20007KT 15SM FEW030 SCT110 BKN300 21/13 A2998 RMK SC2AC2CI1 CB DIST SW SLP153

CYYG;2008-06-21 22:00;CYYG 212200Z 19007KT 15SM FEW030 SCT110 BKN300 20/14 A2998 RMK SC2ACC2CI1 CB DIST SE SLP153

CYYG;2008-06-21 23:00;CYYG 212300Z 18006KT 15SM FEW030TCU SCT110 BKN300 19/14 A2999 RMK TCU2AC2CI1 SLP155

CYYG;2008-06-22 00:00;CYYG 220000Z 20005KT 15SM FEW034 FEW110 BKN300 17/13 A2999 RMK CU1AC2CI1 SLP155

CYYG;2008-06-22 01:00;CYYG 220100Z 21005KT 15SM FEW034 FEW110 BKN300 16/13 A3000 RMK CU1AC2CI1 SLP159

CYYG;2008-06-22 02:00;CYYG 220200Z 24004KT 15SM FEW100 SCT250 16/13 A3000 RMK AC2CI1 SLP160

CYYG;2008-06-22 03:00;CYYG 220300Z 24004KT 15SM FEW100 SCT250 15/13 A3001 RMK AC2CI1 SLP163

CYYG;2008-06-22 04:00;CYYG 220400Z 24006KT 15SM FEW100 SCT240 14/13 A3002 RMK AC2CI1 SLP165

CYYG;2008-06-22 05:00;CYYG 220500Z 25007KT 14SM SCT100 BKN240 14/12 A3003 RMK AC3CI1 SLP169

CYYG;2008-06-22 06:00;CYYG 220600Z 24006KT 15SM SCT100 BKN240 14/12 A3003 RMK AC3CI1 SLP170

CYYG;2008-06-22 07:00;CYYG 220700Z 23006KT 15SM BKN100 13/12 A3003 RMK AC4 SLP168

CYYG;2008-06-22 08:00;CYYG 220800Z 22005KT 15SM FEW100 BKN300 13/12 A3002 RMK AC2CI2 SLP166

CYYG;2008-06-22 09:00;CYYG 220900Z 23008KT 15SM FEW100 SCT300 13/12 A3003 RMK AC2CI1 SLP170

CYYG;2008-06-22 10:00;CYYG 221000Z 23007KT 12SM FEW004 BKN300 14/12 A3005 RMK SF2CI1 SLP175

CYYG;2008-06-22 10:45;CYYG 221045Z 20008KT 12SM BKN004 BKN300 14/ RMK SF5CI0

CYYG;2008-06-22 11:00;CYYG 221100Z 21007KT 12SM BKN004 BKN300 14/13 A3006 RMK SF5CI1 SLP179

CYYG;2008-06-22 11:24;CYYG 221124Z 21008KT 15SM SCT004 BKN300 15/ RMK SF3CI0

CYYG;2008-06-22 12:00;CYYG 221200Z 21009KT 15SM FEW004 BKN300 16/14 A3006 RMK SF2CI1 SLP181

CYYG;2008-06-22 13:00;CYYG 221300Z 20006KT 15SM FEW005 SCT300 17/14 A3007 RMK SF1CI1 SLP182

CYYG;2008-06-22 13:14;CYYG 221314Z 20006KT 15SM SCT300 17/ RMK CI2

CYYG;2008-06-22 14:00;CYYG 221400Z 20007KT 15SM SCT300 19/15 A3007 RMK CI2 SLP184

CYYG;2008-06-22 15:00;CYYG 221500Z 21008KT 15SM FEW030 SCT300 21/15 A3008 RMK CU1CI1 SLP186

CYYG;2008-06-22 16:00;CYYG 221600Z 21009KT 15SM FEW030 SCT300 22/15 A3008 RMK CU1CI1 SLP187

CYYG;2008-06-22 17:00;CYYG 221700Z 20005KT 15SM FEW030 SCT300 24/15 A3006 RMK CU1CI1 SLP180

CYYG;2008-06-22 18:00;CYYG 221800Z 21008KT 15SM FEW030 SCT300 24/15 A3005 RMK CU1CI1 SLP177

CYYG;2008-06-22 19:00;CYYG 221900Z 18010KT 15SM FEW030 SCT300 25/14 A3004 RMK CU1CI1 SLP172

CYYG;2008-06-22 20:00;CYYG 222000Z 18009KT 15SM FEW030 SCT300 25/14 A3003 RMK CU1CI1 SLP170

CYYG;2008-06-22 21:00;CYYG 222100Z 19007KT 15SM FEW030 BKN300 25/14 A3003 RMK CU1CI1 SLP168

CYYG;2008-06-22 22:00;CYYG 222200Z 20008KT 15SM FEW030 BKN300 24/14 A3003 RMK CU2CI1 TCU SW-SE SLP168

CYYG;2008-06-22 23:00;CYYG 222300Z 20012KT 15SM FEW050 BKN300 22/14 A3004 RMK CU2CI1 TCU S-SE SLP174

CYYG;2008-06-23 00:00;CYYG 230000Z 21007KT 15SM FEW050 BKN250 21/15 A3006 RMK SC1CI2 SLP179

CYYG;2008-06-23 01:00;CYYG 230100Z 21007KT 15SM FEW050 BKN250 20/15 A3006 RMK SC1CI2 SLP181

CYYG;2008-06-23 02:00;CYYG 230200Z 21008KT 15SM SCT250 19/16 A3008 RMK CI1 SLP185

CYYG;2008-06-23 03:00;CYYG 230300Z 21007KT 15SM SCT250 19/16 A3008 RMK CI2 SLP185

CYYG;2008-06-23 04:00;CYYG 230400Z 23007KT 15SM SCT250 18/15 A3007 RMK CI2 SLP184

CYYG;2008-06-23 05:00;CYYG 230500Z 23007KT 15SM SCT250 18/15 A3008 RMK CI2 SLP186

CYYG;2008-06-23 06:00;CYYG 230600Z 22007KT 15SM SCT240 17/15 A3009 RMK CI2 SLP189

CYYG;2008-06-23 07:00;CYYG 230700Z 21007KT 15SM BKN200 16/15 A3009 RMK CI3 SLP189

CYYG;2008-06-23 08:00;CYYG 230800Z 18007KT 10SM BKN012 OVC120 16/15 A3008 RMK SC6AC2 SLP185

CYYG;2008-06-23 09:00;CYYG 230900Z 18008KT 10SM BKN011 OVC120 17/15 A3008 RMK SC6AC1 SLP187

CYYG;2008-06-23 09:39;CYYG 230939Z 19007KT 8SM BKN009 BKN120 17/ RMK SC6AC2

CYYG;2008-06-23 09:53;CYYG 230953Z 19006KT 10SM SCT009 BKN120 17/ RMK SF4AC3

CYYG;2008-06-23 10:00;CYYG 231000Z 19007KT 10SM SCT009 BKN100 BKN250 17/15 A3009 RMK SF3AC3CI1 SLP191

CYYG;2008-06-23 11:00;CYYG 231100Z 20006KT 3SM -SHRA BR OVC100 17/16 A3010 RMK AC8 SLP192

CYYG;2008-06-23 12:00;CYYG 231200Z 20007KT 3SM BR OVC110 18/17 A3010 RMK AC8 SLP194

CYYG;2008-06-23 12:54;CYYG 231254Z 20007KT 6SM BR FEW010 BKN070 OVC140 20/ RMK SC2AC2AC2

CYYG;2008-06-23 13:00;CYYG 231300Z 21010KT 8SM SCT010 BKN070 OVC140 21/18 A3010 RMK SC3AC2AC2 SLP194

CYYG;2008-06-23 14:00;CYYG 231400Z 19010KT 12SM FEW015 OVC100 21/18 A3010 RMK SC2AC6 SLP193

CYYG;2008-06-23 15:00;CYYG 231500Z 18012KT 12SM FEW015 BKN098 OVC250 22/18 A3010 RMK SC2AC3CI2 SLP192

CYYG;2008-06-23 16:00;CYYG 231600Z 19010KT 12SM FEW020 BKN120 BKN250 22/18 A3008 RMK CU1AC4CI1 SLP186

CYYG;2008-06-23 17:00;CYYG 231700Z 19011KT 15SM FEW030 BKN120 BKN250 24/19 A3006 RMK CU2AC2CI1 SLP178

CYYG;2008-06-23 17:36;CYYG 231736Z 18008KT 10SM -SHRA FEW030TCU SCT082 BKN220 23/ RMK TCU2AC2CI1

CYYG;2008-06-23 18:00;CYYG 231800Z 18007KT 12SM FEW023TCU SCT120 BKN240 24/19 A3004 RMK TCU1AC2CI2 OCNL -SHRA SLP173

CYYG;2008-06-23 19:00;CYYG 231900Z 19011G16KT 12SM FEW030TCU BKN140 OVC250 26/19 A3002 RMK TCU2AC3CI2 OCNL -SHRA SLP166

CYYG;2008-06-23 20:00;CYYG 232000Z CCA 20008KT 15SM FEW030TCU BKN140 OVC250 22/17 A3001 RMK TCU2AC3CI2 CB EMBDD OCNL -SHRA LTGICCG APRX 10 N SLP161

CYYG;2008-06-23 20:45;CYYG 232045Z 18003KT 15SM FEW050 SCT077 BKN250 24/ RMK SC1AC2CI1 TCU ASOCTD

CYYG;2008-06-23 21:00;CYYG 232100Z 19005KT 15SM SCT050 BKN080 BKN250 25/18 A3000 RMK SC3AC2CI1 TCU ASOCTD SLP158

CYYG;2008-06-23 22:00;CYYG 232200Z 20008KT 15SM FEW045 FEW080 BKN250 24/17 A2999 RMK SC1AC1CI1 TCU DIST S SLP156

CYYG;2008-06-23 23:00;CYYG 232300Z 20010KT 15SM FEW045 FEW080 BKN250 22/16 A2998 RMK SC1AC1CI1 TCU W-NW SLP153

CYYG;2008-06-24 00:00;CYYG 240000Z 20008KT 15SM FEW045 FEW080 BKN250 21/16 A2998 RMK SC1AC1CI2 SLP152

CYYG;2008-06-24 01:00;CYYG 240100Z 20008KT 15SM FEW080 BKN250 21/16 A2998 RMK AC1CI2 SLP153

CYYG;2008-06-24 02:00;CYYG 240200Z 21007KT 15SM FEW080 BKN250 20/17 A2998 RMK AC1CI2 SLP152

CYYG;2008-06-24 03:00;CYYG 240300Z 19006KT 15SM FEW035 FEW080 BKN250 19/17 A2997 RMK SC2AC1CI2 SLP149

CYYG;2008-06-24 04:00;CYYG 240400Z 20009KT 15SM FEW015 SCT049 BKN240 19/17 A2996 RMK SC2SC2CI2 SLP145

CYYG;2008-06-24 05:00;CYYG 240500Z 19010KT 15SM BKN013 BKN040 18/17 A2994 RMK SC5SC2 SLP139

CYYG;2008-06-24 06:00;CYYG 240600Z 20010KT 15SM BKN010 BKN180 18/17 A2992 RMK SC6AC1 SLP131

CYYG;2008-06-24 07:00;CYYG 240700Z 20009KT 15SM BKN010 BKN180 18/17 A2989 RMK SC5AC2 SLP121

CYYG;2008-06-24 08:00;CYYG 240800Z 20010KT 3SM BR SCT010 BKN100 OVC180 18/17 A2988 RMK SC3AC3AC2 SLP119

CYYG;2008-06-24 08:15;CYYG 240815Z 20009KT 3SM -SHRA BR SCT010 OVC100 18/ RMK SC3AC5

CYYG;2008-06-24 09:00;CYYG 240900Z 20007KT 2SM -SHRA BR BKN004 OVC090 18/17 A2988 RMK SF6AC2 SLP117

CYYG;2008-06-24 09:50;CYYG 240950Z 21007KT 4SM -SHRA BR SCT004 BKN012 OVC090 18/ RMK SF4SC2AC2

CYYG;2008-06-24 10:00;CYYG 241000Z 20008KT 3SM -SHRA BR SCT004 BKN011 OVC090 18/17 A2987 RMK SF4SC2AC2 SLP114

CYYG;2008-06-24 10:32;CYYG 241032Z 19008KT 3SM -SHRA BR BKN004 OVC011 18/ RMK SF6SC2

CYYG;2008-06-24 11:00;CYYG 241100Z 19008KT 5SM -SHRA BR BKN004 BKN120 18/17 A2985 RMK SF5AC2 OCNL -SHRA SLP106

CYYG;2008-06-24 11:39;CYYG 241139Z 20009KT 6SM BR BKN004 OVC100 19/ RMK SF6AC2

CYYG;2008-06-24 12:00;CYYG 241200Z 20010KT 12SM OVC007 19/18 A2984 RMK SF8 SLP103

CYYG;2008-06-24 13:00;CYYG 241300Z 21007KT 15SM OVC007 19/17 A2984 RMK SF8 SLP103

CYYG;2008-06-24 14:00;CYYG 241400Z 25011KT 15SM BKN015 21/18 A2982 RMK SC7 SLP097

CYYG;2008-06-24 15:00;CYYG 241500Z 26010KT 15SM BKN018 22/18 A2981 RMK SC6 SLP093

CYYG;2008-06-24 16:00;CYYG 241600Z 26008KT 15SM BKN018 BKN300 22/17 A2979 RMK SC5CI2 SLP086

CYYG;2008-06-24 17:00;CYYG 241700Z 26008KT 15SM SCT021 BKN300 23/18 A2977 RMK SC3CI2 SLP080

CYYG;2008-06-24 18:00;CYYG 241800Z 25010KT 15SM BKN032 BKN300 23/18 A2976 RMK SC5CI2 SLP076

CYYG;2008-06-24 19:00;CYYG 241900Z 24007KT 15SM SCT030 BKN300 24/18 A2974 RMK SC2CI3 SLP071

CYYG;2008-06-24 20:00;CYYG 242000Z 24009KT 15SM FEW030 BKN300 24/18 A2973 RMK SC2CI4 SLP068

CYYG;2008-06-24 21:00;CYYG 242100Z 23009KT 15SM FEW030 BKN300 23/17 A2973 RMK CU1CI5 SLP068

CYYG;2008-06-24 22:00;CYYG 242200Z 25011KT 15SM FEW030 SCT300 23/17 A2973 RMK CU1CI2 SLP067

CYYG;2008-06-24 23:00;CYYG 242300Z 24009KT 15SM FEW030TCU SCT300 21/16 A2973 RMK TCU1CI2 CB TOP DIST E SLP068

CYYG;2008-06-25 00:00;CYYG 250000Z 26010KT 15SM FEW040 SCT230 20/15 A2974 RMK SC2CI1 TCU ASOCTD SLP072

CYYG;2008-06-25 01:00;CYYG 250100Z 27006KT 15SM FEW045 SCT100 19/15 A2975 RMK SC2AC2 ACC/TCU ASOCTD SLP074

CYYG;2008-06-25 02:00;CYYG 250200Z 27007KT 15SM FEW110 18/15 A2976 RMK AC2 SLP076

CYYG;2008-06-25 03:00;CYYG 250300Z 27007KT 15SM FEW110 17/14 A2974 RMK AC1 SLP072

CYYG;2008-06-25 04:00;CYYG 250400Z 27007KT 15SM FEW045 FEW110 SCT300 17/14 A2974 RMK SC1AC1CI0 SLP071

CYYG;2008-06-25 05:00;CYYG 250500Z 27007KT 15SM BKN100 17/14 A2974 RMK AC6 SLP071

CYYG;2008-06-25 06:00;CYYG 250600Z 29006KT 15SM BKN110 17/14 A2974 RMK AC5 SLP071

CYYG;2008-06-25 07:00;CYYG 250700Z 32009KT 15SM FEW070 FEW110 18/14 A2975 RMK ACC1AC2 SLP074

CYYG;2008-06-25 08:00;CYYG 250800Z 33006KT 15SM FEW070 FEW110 17/13 A2977 RMK ACC1AC1 SLP081

CYYG;2008-06-25 09:00;CYYG 250900Z 33006KT 15SM FEW080 FEW110 16/14 A2979 RMK ACC1AC1 CB TOP DIST E SLP086

CYYG;2008-06-25 10:00;CYYG 251000Z 33007KT 15SM FEW080 17/14 A2981 RMK AC1 SLP093

CYYG;2008-06-25 11:00;CYYG 251100Z 32009KT 15SM FEW080 18/14 A2983 RMK AC1 SLP100

CYYG;2008-06-25 12:00;CYYG 251200Z 33009KT 15SM FEW040 FEW080 19/13 A2983 RMK CU1AC1 SLP103

CYYG;2008-06-25 13:00;CYYG 251300Z 32010G15KT 15SM FEW040 FEW080 20/13 A2985 RMK CU1AC1 SLP109

CYYG;2008-06-25 14:00;CYYG 251400Z 33008G15KT 15SM FEW040 20/12 A2986 RMK CU1 SLP111

CYYG;2008-06-25 15:00;CYYG 251500Z 33011G17KT 15SM FEW040 FEW300 20/11 A2987 RMK CU1CI1 SLP114

CYYG;2008-06-25 16:00;CYYG 251600Z 30011G17KT 15SM FEW040 FEW300 22/10 A2985 RMK CU1CI1 SLP110

CYYG;2008-06-25 17:00;CYYG 251700Z 31010G19KT 15SM FEW040 FEW300 21/07 A2986 RMK CU1CI1 SLP111

CYYG;2008-06-25 18:00;CYYG 251800Z 31009G15KT 15SM FEW040 SCT300 22/09 A2985 RMK CU1CI1 SLP109

CYYG;2008-06-25 19:00;CYYG 251900Z 34011KT 15SM FEW040 BKN300 22/08 A2984 RMK CU1CI1 SLP106

CYYG;2008-06-25 20:00;CYYG 252000Z 30007KT 15SM FEW040 BKN300 22/10 A2984 RMK CU1CI2 SLP104

CYYG;2008-06-25 21:00;CYYG 252100Z 33005KT 15SM FEW040 BKN240 23/11 A2983 RMK CU1CI2 SLP102

CYYG;2008-06-25 22:00;CYYG 252200Z 32002KT 15SM FEW040 BKN240 23/11 A2983 RMK SC1CI1 SLP101

CYYG;2008-06-25 23:00;CYYG 252300Z 34003KT 15SM FEW040 BKN330 22/12 A2984 RMK SC1CI1 LN TCU TOPS DIST W-NW CONTRAILS SLP103

CYYG;2008-06-26 00:00;CYYG 260000Z 27002KT 15SM FEW080TCU BKN330 18/13 A2984 RMK TCU2CI1 CB DIST NW MOVG SE SLP105

CYYG;2008-06-26 00:54;CYYG 260054Z 29007KT 15SM -SHRA BKN070TCU 19/ RMK TCU6

CYYG;2008-06-26 01:00;CYYG 260100Z 29006KT 15SM -SHRA BKN070TCU 20/12 A2987 RMK TCU6 PRESRR SLP114

CYYG;2008-06-26 01:02;CYYG 260102Z 32013G18KT 15SM -SHRA BKN070TCU 20/ RMK TCU6 PRESRR

CYYG;2008-06-26 02:00;CYYG 260200Z 29009KT 15SM -SHRA OVC075 17/14 A2989 RMK AC8 TCU ASOCTD SLP121

CYYG;2008-06-26 02:25;CYYG 260225Z 24006KT 15SM VCSH BKN080 17/ RMK AC6

CYYG;2008-06-26 03:00;CYYG 260300Z 23005KT 15SM VCSH BKN090 OVC180 17/14 A2986 RMK AC6AC2 ACC ASOCTD SLP111

CYYG;2008-06-26 03:30;CYYG 260330Z CCA 27005KT 15SM -SHRA OVC090 17/ RMK AC8 TCU ASOCTD CB W OCNL LTGIC

CYYG;2008-06-26 04:00;CYYG 260400Z 25005KT 15SM BKN065TCU BKN110 17/14 A2985 RMK TCU5AC2 CB DIST SW MOVG SE OCNL LTGICCC SLP110

CYYG;2008-06-26 05:00;CYYG 260500Z 23007KT 15SM FEW060TCU BKN110 16/14 A2985 RMK TCU2AC5 SLP107

CYYG;2008-06-26 06:00;CYYG 260600Z 24005KT 15SM BKN100 16/14 A2983 RMK AC7 SLP101

CYYG;2008-06-26 07:00;CYYG 260700Z 23007KT 15SM BKN130 17/14 A2982 RMK AC7 SLP098

CYYG;2008-06-26 08:00;CYYG 260800Z 24005KT 15SM FEW040 BKN130 16/14 A2981 RMK SC1AC6 SLP096

CYYG;2008-06-26 09:00;CYYG 260900Z 24006KT 15SM SCT140 SCT300 16/13 A2981 RMK AC3CI0 SLP095

CYYG;2008-06-26 10:00;CYYG 261000Z 25008KT 15SM FEW140 FEW300 16/12 A2981 RMK AC1CI0 SLP095

CYYG;2008-06-26 11:00;CYYG 261100Z 25008KT 15SM FEW140 SCT300 18/13 A2981 RMK AC1CI1 SLP095

CYYG;2008-06-26 12:00;CYYG 261200Z 25009KT 15SM FEW140 BKN300 19/13 A2982 RMK AC1CI3 SLP098

CYYG;2008-06-26 13:00;CYYG 261300Z 26009KT 15SM BKN100 BKN300 18/13 A2982 RMK AC5CI2 SLP098

CYYG;2008-06-26 14:00;CYYG 261400Z 26009G15KT 15SM OVC087 18/13 A2982 RMK AC7 SLP098

CYYG;2008-06-26 14:03;CYYG 261403Z 27007KT 15SM -SHRA OVC085 18/ RMK AC8

CYYG;2008-06-26 15:00;CYYG 261500Z 25007KT 15SM VCSH OVC080 18/14 A2981 RMK AC8 SLP095

CYYG;2008-06-26 15:18;CYYG 261518Z 25009KT 10SM -SHRA BKN056 OVC080 18/ RMK SC5AC3

CYYG;2008-06-26 16:00;CYYG 261600Z 24006KT 15SM -SHRA OVC056 17/14 A2981 RMK SC8 SLP096

CYYG;2008-06-26 17:00;CYYG 261700Z 23006KT 15SM -SHRA SCT056 OVC088 18/15 A2979 RMK SC4AC4 SLP089

CYYG;2008-06-26 17:23;CYYG 261723Z 20007KT 15SM BKN080 OVC140 19/ RMK AC5AC3

CYYG;2008-06-26 18:00;CYYG 261800Z 21009KT 15SM SCT053 BKN077 OVC120 21/15 A2977 RMK SC3AC3AC2 SLP081

CYYG;2008-06-26 19:00;CYYG 261900Z 19007KT 15SM BKN049 BKN077 OVC120 20/14 A2977 RMK SC5AC2AC2 SLP081

CYYG;2008-06-26 20:00;CYYG 262000Z 25004KT 15SM BKN041 OVC100 20/15 A2977 RMK SC5AC3 SLP082

CYYG;2008-06-26 20:47;CYYG 262047Z 28003KT 15SM -SHRA BKN040 OVC100 20/ RMK SC6AC2

CYYG;2008-06-26 21:00;CYYG 262100Z 25004KT 15SM -SHRA SCT040 OVC098 20/16 A2978 RMK SC4AC4 SLP084

CYYG;2008-06-26 22:00;CYYG 262200Z 27004KT 15SM -SHRA SCT030 BKN054 OVC086 18/16 A2978 RMK SC3SC2AC2 SLP084

CYYG;2008-06-26 23:00;CYYG 262300Z 23005KT 12SM -SHRA SCT030 OVC100 18/16 A2979 RMK SC4AC4 SLP088

CYYG;2008-06-27 00:00;CYYG 270000Z 27003KT 12SM -SHRA FEW020 SCT040 OVC098 17/16 A2979 RMK SC1SC2AC5 SLP090

CYYG;2008-06-27 01:00;CYYG 270100Z 27003KT 12SM -SHRA FEW005 FEW030 OVC090 17/16 A2981 RMK SC1SC2AC6 SLP095

CYYG;2008-06-27 01:46;CYYG 270146Z 35002KT 12SM -SHRA BKN005 OVC090 17/ RMK SC5AC3

CYYG;2008-06-27 02:00;CYYG 270200Z 00000KT 12SM -SHRA FEW002 BKN005 OVC090 17/16 A2981 RMK SF1SC5AC2 SLP095

CYYG;2008-06-27 02:51;CYYG 270251Z 35002KT 12SM FEW002 BKN011 OVC090 16/ RMK SF1SC6AC2

CYYG;2008-06-27 03:00;CYYG 270300Z 36002KT 15SM FEW002 BKN011 OVC090 16/16 A2981 RMK SF1SC6AC2 SLP096

CYYG;2008-06-27 03:29;CYYG 270329Z 03003KT 12SM -SHRA FEW004 OVC013 16/ RMK SF1SC7

CYYG;2008-06-27 04:00;CYYG 270400Z 01003KT 12SM -SHRA FEW003 BKN011 OVC100 16/15 A2981 RMK SF2SC5AC2 SLP096

CYYG;2008-06-27 04:22;CYYG 270422Z 04003KT 5SM -SHRA BR BKN002 OVC011 16/ RMK SF6SC2

CYYG;2008-06-27 05:00;CYYG 270500Z 04004KT 3SM -SHRA BR OVC002 15/15 A2980 RMK SF8 SLP093

CYYG;2008-06-27 05:23;CYYG 270523Z 04003KT 5SM BR OVC003 15/ RMK SF8

CYYG;2008-06-27 06:00;CYYG 270600Z 04004KT 5SM BR OVC004 15/14 A2979 RMK SF8 SLP090

CYYG;2008-06-27 06:44;CYYG 270644Z 05005KT 6SM -SHRA BR OVC002 15/ RMK SF8

CYYG;2008-06-27 07:00;CYYG 270700Z 07005KT 5SM -SHRA BR OVC002 15/14 A2979 RMK SF8 SLP089

CYYG;2008-06-27 08:00;CYYG 270800Z 06006KT 5SM -SHRA BR OVC002 15/14 A2979 RMK SF8 SLP087

CYYG;2008-06-27 08:11;CYYG 270811Z 07007KT 3SM SHRA BKN002 OVC006 15/ RMK SF6SC2

CYYG;2008-06-27 08:25;CYYG 270825Z 07007KT 2SM -SHRA BR BKN002 OVC006 15/ RMK SF7SC1

CYYG;2008-06-27 09:00;CYYG 270900Z 07006KT 2 1/2SM -SHRA BR OVC003 15/14 A2978 RMK SF8 SLP085

CYYG;2008-06-27 10:00;CYYG 271000Z 07009KT 3SM -SHRA BR OVC003 15/14 A2977 RMK SF8 SLP082

CYYG;2008-06-27 11:00;CYYG 271100Z 08003KT 2 1/2SM SHRA BR OVC004 15/14 A2980 RMK SF8 SLP092

CYYG;2008-06-27 11:20;CYYG 271120Z 10004KT 2SM +SHRA BR FEW001 OVC003 15/ RMK SF1SF7

CYYG;2008-06-27 11:40;CYYG 271140Z 07005KT 1 1/2SM +SHRA BR BKN003 OVC045 15/ RMK SF5SC3

CYYG;2008-06-27 12:00;CYYG 271200Z 10005KT 1 1/2SM +SHRA BR BKN002 OVC005 15/14 A2978 RMK SF6SF2 /R11/ SLP086

CYYG;2008-06-27 12:26;CYYG 271226Z 00000KT 4SM SHRA BR OVC003 15/ RERA RMK SF8

CYYG;2008-06-27 13:00;CYYG 271300Z 02005KT 5SM -SHRA BR OVC003 15/14 A2979 RERA RMK SF8 SLP088

CYYG;2008-06-27 13:17;CYYG 271317Z 04005KT 5SM -SHRA BR FEW003 BKN006 OVC032 15/ RMK SF1SF7SC1

CYYG;2008-06-27 13:28;CYYG 271328Z 34002KT 5SM -SHRA BR OVC003 15/ RMK SF8

CYYG;2008-06-27 14:00;CYYG 271400Z 07005KT 10SM -SHRA BKN003 BKN008 OVC025 16/15 A2979 RMK SF6SF1SC1 SLP090

CYYG;2008-06-27 14:14;CYYG 271414Z 07005KT 12SM BKN004 OVC030 16/ RMK SF5SC3

CYYG;2008-06-27 14:48;CYYG 271448Z 09004KT 15SM BKN008 OVC028 17/ RMK SC7SC1

CYYG;2008-06-27 15:00;CYYG 271500Z 09005KT 15SM -SHRA BKN006 OVC028 17/16 A2980 RMK SF6SC2 SLP091

CYYG;2008-06-27 16:00;CYYG 271600Z 03007KT 15SM -SHRA BKN008 OVC020 18/16 A2979 RMK SF6SC2 OCNL -SHRA SLP088

CYYG;2008-06-27 16:10;CYYG 271610Z 01006KT 15SM VCSH BKN010 OVC018 17/ RMK SF7SC1

CYYG;2008-06-27 16:34;CYYG 271634Z 03010KT 15SM VCSH BKN006 OVC010 17/ RMK SF6SF2

CYYG;2008-06-27 17:00;CYYG 271700Z 02008KT 6SM BR OVC003 16/16 A2979 RMK SF8 SLP090

CYYG;2008-06-27 18:00;CYYG 271800Z 03006KT 12SM BKN004 OVC012 18/16 A2980 RMK SF7SC1 SLP091

CYYG;2008-06-27 18:31;CYYG 271831Z 01006KT 12SM FEW004 OVC010 17/ RMK SF2SC6

CYYG;2008-06-27 19:00;CYYG 271900Z 03009KT 12SM FEW004 SCT008 OVC012 17/16 A2982 RMK SF2SF2SC5 SLP099

CYYG;2008-06-27 20:00;CYYG 272000Z 04007KT 12SM FEW004 OVC014 17/15 A2983 RMK SF2SC6 SLP103

CYYG;2008-06-27 21:00;CYYG 272100Z 02006KT 10SM BKN004 OVC013 16/15 A2983 RMK SF5SC3 SLP102

CYYG;2008-06-27 22:00;CYYG 272200Z 04009KT 8SM BKN003 OVC012 15/14 A2985 RMK SF6SC2 SLP108

CYYG;2008-06-27 22:21;CYYG 272221Z 04011KT 4SM BR OVC002 15/ RMK SF8

CYYG;2008-06-27 23:00;CYYG 272300Z 04008KT 5SM BR OVC002 14/13 A2986 RMK SF8 SLP113

CYYG;2008-06-27 23:35;CYYG 272335Z 03011KT 2SM BR OVC003 14/ RMK SF8

CYYG;2008-06-28 00:00;CYYG 280000Z 02009KT 2SM BR OVC003 14/13 A2988 RMK SF8 CIG RAG SLP120

CYYG;2008-06-28 00:38;CYYG 280038Z 02009KT 2SM -DZ BR OVC002 13/ RMK SF8 CIG RAG

CYYG;2008-06-28 01:00;CYYG 280100Z 02008KT 3SM -DZ BR OVC003 13/12 A2991 RMK SF8 SLP128

CYYG;2008-06-28 02:00;CYYG 280200Z 02007KT 6SM -DZ BR OVC004 13/12 A2993 RMK SF8 SLP136

CYYG;2008-06-28 02:42;CYYG 280242Z 02005KT 6SM BR OVC004 13/ RMK SF8

CYYG;2008-06-28 03:00;CYYG 280300Z 02007KT 8SM OVC004 12/12 A2993 RMK SF8 SLP135

CYYG;2008-06-28 03:49;CYYG 280349Z 01005KT 8SM -DZ OVC005 12/ RMK SF8

CYYG;2008-06-28 04:00;CYYG 280400Z 01007KT 8SM -DZ OVC005 12/12 A2994 RMK SF8 SLP140

CYYG;2008-06-28 05:00;CYYG 280500Z 02007KT 8SM OVC005 12/11 A2994 RMK SF8 SLP140

CYYG;2008-06-28 06:00;CYYG 280600Z 02008KT 8SM OVC005 12/11 A2994 RMK SF8 SLP140

CYYG;2008-06-28 07:00;CYYG 280700Z 03009KT 8SM OVC006 12/11 A2995 RMK SF8 SLP141

CYYG;2008-06-28 08:00;CYYG 280800Z 03007KT 8SM OVC008 12/11 A2997 RMK SF8 SLP150

CYYG;2008-06-28 09:00;CYYG 280900Z 02005KT 12SM BKN009 OVC026 12/11 A2999 RMK SC7SC1 SLP157

CYYG;2008-06-28 10:00;CYYG 281000Z 04009KT 15SM BKN009 OVC028 13/11 A3000 RMK SC6SC2 SLP158

CYYG;2008-06-28 11:00;CYYG 281100Z 04009KT 15SM BKN009 BKN028 13/11 A3001 RMK SC6SC1 SLP164

CYYG;2008-06-28 12:00;CYYG 281200Z 03010G15KT 15SM BKN008 BKN100 14/11 A3002 RMK SC6AC1 SLP168

CYYG;2008-06-28 12:26;CYYG 281226Z 04009KT 15SM BKN010 14/ RMK SC7

CYYG;2008-06-28 13:00;CYYG 281300Z 04006KT 15SM BKN012 14/12 A3004 RMK SC7 SLP175

CYYG;2008-06-28 14:00;CYYG 281400Z 05009KT 15SM BKN011 14/11 A3005 RMK SC7 SLP176

CYYG;2008-06-28 15:00;CYYG 281500Z 03007KT 15SM BKN013 15/12 A3006 RMK SC7 SLP179

CYYG;2008-06-28 16:00;CYYG 281600Z 04007KT 15SM BKN013 15/11 A3005 RMK SC7 SLP178

CYYG;2008-06-28 17:00;CYYG 281700Z 05007KT 15SM BKN017 BKN300 16/11 A3006 RMK SC6CI0 SLP180

CYYG;2008-06-28 18:00;CYYG 281800Z 05005KT 15SM BKN017 BKN300 16/12 A3007 RMK SC5CI1 SLP183

CYYG;2008-06-28 19:00;CYYG 281900Z 04008KT 15SM SCT020 BKN300 16/12 A3006 RMK SC4CI1 SLP181

CYYG;2008-06-28 20:00;CYYG 282000Z 03010KT 15SM FEW017 FEW032 BKN300 16/12 A3008 RMK SC2SC1CS2 SLP186

CYYG;2008-06-28 21:00;CYYG 282100Z 05011KT 15SM FEW032 BKN300 16/11 A3008 RMK SC2CS1 SLP188

CYYG;2008-06-28 22:00;CYYG 282200Z 05012KT 15SM SCT026 BKN300 15/11 A3009 RMK SC4CS1 SLP191

CYYG;2008-06-28 23:00;CYYG 282300Z 04008KT 15SM SCT026 BKN300 13/11 A3010 RMK SC4CS1 SLP193

CYYG;2008-06-29 00:00;CYYG 290000Z 07007KT 15SM BKN029 OVC300 13/11 A3011 RMK SC7CS0 SLP197

CYYG;2008-06-29 01:00;CYYG 290100Z 06004KT 15SM BKN030 OVC300 13/11 A3012 RMK SC7CS0 SLP202

CYYG;2008-06-29 02:00;CYYG 290200Z 08005KT 15SM FEW010 BKN030 BKN300 12/11 A3012 RMK SC1SC4CI0 SLP200

CYYG;2008-06-29 03:00;CYYG 290300Z 09006KT 15SM FEW010 BKN160 12/11 A3011 RMK SC2AC4 SLP198

CYYG;2008-06-29 04:00;CYYG 290400Z 09004KT 15SM FEW010 BKN160 11/10 A3011 RMK SC2AC3 SLP198

CYYG;2008-06-29 05:00;CYYG 290500Z 09003KT 15SM FEW010 OVC140 11/10 A3012 RMK SC2AC6 SLP199

CYYG;2008-06-29 06:00;CYYG 290600Z 09003KT 15SM FEW010 OVC140 12/10 A3012 RMK SC1AC7 SLP199

CYYG;2008-06-29 06:10;CYYG 290610Z 09005KT 15SM -SHRA OVC100 12/ RMK AC8

CYYG;2008-06-29 07:00;CYYG 290700Z 07003KT 15SM -SHRA OVC100 11/10 A3010 RMK AC8 SLP194

CYYG;2008-06-29 08:00;CYYG 290800Z 12003KT 15SM FEW020 OVC100 12/11 A3009 RMK SC1AS7 SLP191

CYYG;2008-06-29 09:00;CYYG 290900Z 12005KT 15SM SCT009 OVC100 12/11 A3008 RMK SC4AS4 SLP187

CYYG;2008-06-29 09:10;CYYG 290910Z 13005KT 15SM OVC007 12/ RMK SC8

CYYG;2008-06-29 10:00;CYYG 291000Z 13006KT 15SM OVC006 13/12 A3008 RMK SF8 SLP188

CYYG;2008-06-29 10:49;CYYG 291049Z 13009KT 15SM SCT008 OVC120 13/ RMK SF3AC5

CYYG;2008-06-29 11:00;CYYG 291100Z 14009KT 15SM FEW008 BKN120 13/12 A3008 RMK SF2AC5 SLP188

CYYG;2008-06-29 12:00;CYYG 291200Z 13009KT 15SM FEW009 BKN051 OVC120 13/11 A3009 RMK SF2SC3AC2 SLP191

CYYG;2008-06-29 12:14;CYYG 291214Z 13012KT 15SM -RA SCT009 OVC052 13/ RMK SF3SC5

CYYG;2008-06-29 13:00;CYYG 291300Z 13010KT 15SM BKN009 OVC050 13/11 A3009 RMK SF5SC3 INTMT -RA SLP189

CYYG;2008-06-29 13:24;CYYG 291324Z 12014KT 15SM BKN009 OVC055 14/ RMK SF5SC3

CYYG;2008-06-29 13:36;CYYG 291336Z 11011G17KT 15SM SCT011 BKN042 OVC052 14/ RMK SF3SC2SC2

CYYG;2008-06-29 14:00;CYYG 291400Z 12009G16KT 15SM VCSH FEW012 OVC045 13/11 A3007 RMK SC2SC6 SH W-NW SLP183

CYYG;2008-06-29 14:16;CYYG 291416Z 13014KT 15SM -SHRA FEW012 OVC049 13/ RMK SC2SC6 VIS W-NW 5

CYYG;2008-06-29 15:00;CYYG 291500Z 13018KT 15SM -SHRA SCT012 OVC045 13/10 A3005 RMK SC3SC5 SLP177

CYYG;2008-06-29 15:17;CYYG 291517Z 13015G20KT 15SM -SHRA BKN012 OVC042 13/ RMK SC6SC2 VIS LWR W-NW

CYYG;2008-06-29 16:00;CYYG 291600Z 14013G20KT 15SM -SHRA BKN011 OVC027 13/11 A3004 RMK SF6SC2 SLP173

CYYG;2008-06-29 16:44;CYYG 291644Z CCA 13013G18KT 2SM RA BR BKN009 OVC019 13/ RMK SF6SC2

CYYG;2008-06-29 17:00;CYYG 291700Z 14011KT 2SM +RA BR BKN007 OVC028 12/12 A3002 RMK SF6SC2 SLP168

CYYG;2008-06-29 17:21;CYYG 291721Z 14009G15KT 5SM -RA BR BKN006 OVC013 12/ RERA RMK SF6SC2

CYYG;2008-06-29 18:00;CYYG 291800Z 13010KT 2SM RA BR BKN006 OVC012 12/12 A3001 RERA RMK SF6SF2 SLP162

CYYG;2008-06-29 19:00;CYYG 291900Z 12009KT 5SM -RA BR BKN005 OVC010 12/11 A2999 RERA RMK SF6SF2 SLP157

CYYG;2008-06-29 20:00;CYYG 292000Z 14011KT 5SM RA BR BKN005 OVC013 12/12 A2996 RMK SF6SC2 SLP147

CYYG;2008-06-29 21:00;CYYG 292100Z 16010G17KT 10SM -RA OVC008 13/12 A2997 RERA RMK SF8 /R12/ SLP149

CYYG;2008-06-29 21:29;CYYG 292129Z 15012KT 15SM OVC008 13/ RMK SF8

CYYG;2008-06-29 22:00;CYYG 292200Z 16011KT 15SM OVC008 13/12 A2995 RMK SF8 SLP144

CYYG;2008-06-29 23:00;CYYG 292300Z 14009KT 15SM OVC008 13/12 A2994 RMK SF8 SLP139

CYYG;2008-06-30 00:00;CYYG 300000Z 16009KT 5SM BR OVC007 13/12 A2994 RMK SF8 SLP138

CYYG;2008-06-30 01:00;CYYG 300100Z 16009KT 3SM -DZ BR OVC003 13/13 A2994 RMK SF8 SLP140

CYYG;2008-06-30 02:00;CYYG 300200Z 15008KT 6SM -DZ BR OVC007 13/13 A2993 RMK SF8 SLP136

CYYG;2008-06-30 03:00;CYYG 300300Z 16009KT 8SM -DZ BKN005 OVC008 14/13 A2990 RMK SF6SF2 SLP127

CYYG;2008-06-30 03:47;CYYG 300347Z 15006KT 8SM OVC005 14/ RMK SF8

CYYG;2008-06-30 04:00;CYYG 300400Z 16005KT 6SM BR OVC005 14/13 A2990 RMK SF8 SLP124

CYYG;2008-06-30 05:00;CYYG 300500Z 15006KT 6SM BR OVC006 14/13 A2987 RMK SF8 SLP116

CYYG;2008-06-30 06:00;CYYG 300600Z 15004KT 8SM OVC005 14/13 A2986 RMK SF8 SLP112

CYYG;2008-06-30 06:48;CYYG 300648Z 14002KT 1 1/2SM -DZ BR OVC003 14/ RMK SF8

CYYG;2008-06-30 07:00;CYYG 300700Z 13003KT 1SM -DZ BR OVC002 14/13 A2985 RMK SF8 SLP110

CYYG;2008-06-30 08:00;CYYG 300800Z 13003KT 3/8SM -DZ FG VV002 14/13 A2985 RMK FG8 SLP109

CYYG;2008-06-30 08:25;CYYG 300825Z 12007KT 1/4SM -TSRA FG VV002 14/ RMK FG8 CB EMBD

CYYG;2008-06-30 09:00;CYYG 300900Z 15007KT 1/4SM -SHRA FG VV002 14/13 A2983 RETS RMK FG8 SLP102

CYYG;2008-06-30 09:38;CYYG 300938Z 17010KT 1/4SM -TSRA FG VV002 14/ RMK FG8 CB EMBD

CYYG;2008-06-30 10:00;CYYG 301000Z 16006KT 1/4SM -TSRA FG VV002 14/14 A2983 RMK FG8 CB EMBD SLP101

CYYG;2008-06-30 10:05;CYYG 301005Z 17007KT 3/8SM -SHRA FG VV002 14/ RETS RMK FG8 CB VCNTY

CYYG;2008-06-30 10:20;CYYG 301020Z 18006KT 1/2SM FG VV002 15/ RETS RMK FG8

CYYG;2008-06-30 10:41;CYYG 301041Z 17011KT 3/4SM BR VV002 15/ RETS RMK FG8

CYYG;2008-06-30 10:48;CYYG 301048Z 18011KT 1SM -SHRA BR OVC002 15/ RETS RMK SF8

CYYG;2008-06-30 11:00;CYYG 301100Z 18009KT 1/2SM -SHRA FG VV002 15/15 A2983 RETS RMK FG8 SLP102

CYYG;2008-06-30 11:18;CYYG 301118Z 16005KT 2SM -SHRA BR OVC002 15/ RMK SF8

CYYG;2008-06-30 11:28;CYYG 301128Z 16007KT 2SM BR OVC002 16/ RMK SF8

CYYG;2008-06-30 12:00;CYYG 301200Z 16009KT 3SM BR OVC002 16/16 A2980 RMK SF8 SLP092

CYYG;2008-06-30 12:26;CYYG 301226Z 17012KT 10SM SCT003 OVC022 17/ RMK SF4SC3

CYYG;2008-06-30 12:47;CYYG 301247Z 18012KT 10SM BKN005 OVC011 17/ RMK SF5SF3

CYYG;2008-06-30 13:00;CYYG 301300Z 17012KT 10SM BKN006 BKN160 18/17 A2979 RMK SF6AC2 SLP089

CYYG;2008-06-30 13:07;CYYG 301307Z 17010G15KT 15SM FEW005 BKN130 OVC300 18/ RMK SF2AC3CI2

CYYG;2008-06-30 13:32;CYYG 301332Z 18010G15KT 15SM BKN007 BKN130 19/ RMK SF6AC1

CYYG;2008-06-30 14:00;CYYG 301400Z 18012KT 15SM SCT007 BKN130 20/18 A2978 RMK SF4AC3 SLP084

CYYG;2008-06-30 15:00;CYYG 301500Z 18016KT 10SM FEW007 BKN017 OVC130 22/19 A2976 RMK SF2SC5AC2 SLP079

CYYG;2008-06-30 16:00;CYYG 301600Z 19014G19KT 15SM FEW010 OVC018 21/19 A2977 RMK SF1SC7 SLP080

CYYG;2008-06-30 17:00;CYYG 301700Z 18010KT 15SM OVC018 22/19 A2975 RMK SC8 SLP075

CYYG;2008-06-30 18:00;CYYG 301800Z 22009KT 10SM OVC017 23/20 A2975 RMK SC8 SLP075

CYYG;2008-06-30 19:00;CYYG 301900Z 22008KT 10SM BKN023 BKN130 24/21 A2974 RMK SC5AC2 TCU E SLP071

CYYG;2008-06-30 20:00;CYYG 302000Z 20012G17KT 10SM FEW016 SCT130 BKN250 25/22 A2974 RMK CU1AC3CC2 SLP070

CYYG;2008-06-30 21:00;CYYG 302100Z 23009G16KT 12SM FEW020 SCT040TCU BKN075 26/21 A2974 RMK CF1TCU3AC3 TCU E-S SLP070

CYYG;2008-06-30 22:00;CYYG 302200Z 23008KT 15SM FEW032TCU FEW070 BKN140 24/20 A2974 RMK TCU2AC1AC4 TCU E-SE SLP070

CYYG;2008-06-30 23:00;CYYG 302300Z 22005KT 15SM FEW022 BKN190 23/20 A2974 RMK SC2CI5 SLP071

CYYG;2008-07-01 01:00;CYYG 010100Z 19009KT 10SM BKN120 OVC140 21/19 A2976 RMK AC6AC2 SLP076

CYYG;2008-07-01 02:00;CYYG 010200Z 19010KT 10SM BKN011 OVC080 20/19 A2977 RMK SC6AC2 SLP080

CYYG;2008-07-01 03:00;CYYG 010300Z 19009KT 10SM OVC012 20/18 A2977 RMK SC8 SLP080

CYYG;2008-07-01 04:00;CYYG 010400Z 22007KT 15SM OVC009 20/18 A2977 RMK SF8 SLP082

CYYG;2008-07-01 05:00;CYYG 010500Z 20006KT 15SM OVC009 20/18 A2977 RMK SF8 SLP079

CYYG;2008-07-01 06:00;CYYG 010600Z 18007KT 12SM OVC007 19/18 A2976 RMK SF8 SLP078

CYYG;2008-07-01 07:00;CYYG 010700Z 20009KT 12SM OVC008 19/18 A2976 RMK SF8 SLP078

CYYG;2008-07-01 08:00;CYYG 010800Z 20008KT 8SM OVC006 19/18 A2976 RMK SF8 SLP077

CYYG;2008-07-01 09:00;CYYG 010900Z 20006KT 8SM OVC006 19/18 A2977 RMK SF8 SLP081

CYYG;2008-07-01 10:00;CYYG 011000Z 21009KT 2SM BR OVC004 19/18 A2978 RMK SF8 SLP083

CYYG;2008-07-01 11:00;CYYG 011100Z 21010KT 2SM BR OVC003 19/18 A2979 RMK ST8 SLP086

CYYG;2008-07-01 11:38;CYYG 011138Z 22008KT 7SM OVC005 19/ RMK SF8

CYYG;2008-07-01 12:00;CYYG 011200Z 23009KT 7SM OVC004 19/18 A2980 RMK SF8 SLP092

CYYG;2008-07-01 12:43;CYYG 011243Z 23011KT 10SM OVC006 19/ RMK SF8

CYYG;2008-07-01 13:00;CYYG 011300Z 23008KT 10SM OVC006 20/18 A2981 RMK SF8 SLP093

CYYG;2008-07-01 14:00;CYYG 011400Z 24009G15KT 10SM OVC007 20/18 A2981 RMK SF8 SLP095

CYYG;2008-07-01 14:21;CYYG 011421Z 23009G16KT 12SM OVC008 21/ RMK SC8

CYYG;2008-07-01 15:00;CYYG 011500Z 23010G15KT 12SM OVC010 21/18 A2982 RMK SC8 SLP098

CYYG;2008-07-01 15:51;CYYG 011551Z 24011G16KT 10SM SCT012 SCT300 22/ RMK SC3CI0

CYYG;2008-07-01 16:00;CYYG 011600Z 25012KT 10SM SCT012 SCT300 23/19 A2982 RMK CU3CI0 SLP098

CYYG;2008-07-01 17:00;CYYG 011700Z 23010KT 12SM FEW020 FEW300 24/20 A2982 RMK CU1CI1 SLP099

CYYG;2008-07-01 18:00;CYYG 011800Z 23008KT 15SM FEW025 FEW300 25/18 A2983 RMK CU1CI0 TCU TOPS DIST S SLP100

CYYG;2008-07-01 19:00;CYYG 011900Z 22008KT 15SM FEW030TCU FEW300 26/17 A2983 RMK TCU1CI0 TCU E-S SLP100

CYYG;2008-07-01 20:00;CYYG 012000Z 23011KT 15SM FEW030TCU FEW300 26/18 A2983 RMK TCU1CI0 SLP101

CYYG;2008-07-01 21:00;CYYG 012100Z 25010KT 15SM FEW030 FEW060 FEW300 26/19 A2984 RMK CU1SC1CI1 TCU TOP DIST E SLP104

CYYG;2008-07-01 22:00;CYYG 012200Z 24008KT 15SM FEW030 FEW060 FEW300 25/19 A2985 RMK CF1SC1CI1 SLP109

CYYG;2008-07-01 23:00;CYYG 012300Z 22007KT 15SM FEW050 SCT300 24/18 A2987 RMK SC1CI1 TCU TOP DIST NW SLP113

CYYG;2008-07-02 00:00;CYYG 020000Z 27004KT 15SM FEW100 BKN300 22/19 A2989 RMK AC1CI2 SLP120

CYYG;2008-07-02 01:00;CYYG 020100Z 25007KT 15SM BKN110 21/17 A2991 RMK AC5 SLP128

CYYG;2008-07-02 02:00;CYYG 020200Z 25011KT 15SM SCT100 20/15 A2992 RMK AC2 SLP130

CYYG;2008-07-02 03:00;CYYG 020300Z 24007KT 15SM FEW100 19/15 A2993 RMK AC1 SLP136

CYYG;2008-07-02 04:00;CYYG 020400Z 24005KT 15SM FEW100 19/14 A2994 RMK AC1 SLP140

CYYG;2008-07-02 05:00;CYYG 020500Z 23006KT 15SM FEW090 18/14 A2995 RMK AC2 SLP141

CYYG;2008-07-02 06:00;CYYG 020600Z 25006KT 15SM FEW100 18/14 A2996 RMK AC2 SLP144

CYYG;2008-07-02 07:00;CYYG 020700Z 25005KT 15SM FEW100 18/15 A2996 RMK AC2 SLP144

CYYG;2008-07-02 08:00;CYYG 020800Z 23005KT 15SM FEW100 18/15 A2996 RMK AC2 SLP146

CYYG;2008-07-02 09:00;CYYG 020900Z 23005KT 15SM FEW100 SCT240 18/16 A2998 RMK AC2CI1 SLP151

CYYG;2008-07-02 10:00;CYYG 021000Z 23006KT 15SM FEW100 SCT260 19/16 A2998 RMK AC1CI1 SLP154

CYYG;2008-07-02 11:00;CYYG 021100Z 22006KT 15SM BKN260 20/16 A2999 RMK CI4 SLP157

CYYG;2008-07-02 12:00;CYYG 021200Z 20007KT 15SM FEW170 BKN260 20/17 A3000 RMK AC2CI2 SLP159

CYYG;2008-07-02 13:00;CYYG 021300Z 21006KT 15SM BKN170 BKN260 21/17 A3000 RMK AC5CI1 SLP159

CYYG;2008-07-02 14:00;CYYG 021400Z 20010KT 15SM FEW012 FEW170 BKN260 23/19 A2998 RMK CF1AC2CI0 SLP154

CYYG;2008-07-02 15:00;CYYG 021500Z 20009KT 15SM FEW012 FEW170 BKN260 24/19 A2998 RMK CF1AC2CI0 SLP153

CYYG;2008-07-02 16:00;CYYG 021600Z 18013KT 15SM FEW015 FEW170 BKN260 25/20 A2997 RMK CU1AC1CI1 SLP150

CYYG;2008-07-02 17:00;CYYG 021700Z 20009G15KT 15SM FEW015 SCT170 BKN260 26/21 A2998 RMK CU2AC2CI1 SLP151

CYYG;2008-07-02 18:00;CYYG 021800Z 23008KT 15SM FEW022 FEW170 BKN260 27/20 A2996 RMK CU1AC2CI1 SLP145

CYYG;2008-07-02 19:00;CYYG 021900Z 24010G15KT 15SM FEW030TCU BKN120 27/15 A2995 RMK TCU1AC6 TCU SE-S SLP142

CYYG;2008-07-02 20:00;CYYG 022000Z 22008G15KT 15SM FEW030TCU BKN120 27/19 A2995 RMK TCU2AC4 TCU SE-S SLP140

CYYG;2008-07-02 21:00;CYYG 022100Z 24007KT 15SM FEW030TCU BKN100 BKN260 27/19 A2993 RMK TCU2AC3CI0 TCU SE-S SLP135

CYYG;2008-07-02 22:00;CYYG 022200Z 19011KT 15SM FEW030TCU BKN140 BKN260 25/19 A2994 RMK TCU2AC3CI1 SLP139

CYYG;2008-07-02 23:00;CYYG 022300Z 21013KT 12SM VCSH FEW062 BKN075 OVC100 23/19 A2994 RMK SC2AC2AC3 TCU ASOCTD SLP138

CYYG;2008-07-02 23:14;CYYG 022314Z 22014G19KT 12SM -SHRA BKN060 OVC120 23/ RMK SC6AC2 TCU ASOCTD

CYYG;2008-07-03 00:00;CYYG 030000Z 22008KT 15SM FEW075 BKN140 OVC250 22/19 A2993 RMK AC2AC4CI1 SLP135

CYYG;2008-07-03 01:00;CYYG 030100Z 20009KT 15SM BKN130 OVC240 22/19 A2994 RMK AC5CI2 SLP139

CYYG;2008-07-03 02:00;CYYG 030200Z 20011KT 15SM BKN120 OVC220 21/19 A2993 RMK AC5CI2 SLP137

CYYG;2008-07-03 03:00;CYYG 030300Z 21010KT 15SM BKN120 OVC240 20/19 A2993 RMK AC6CI2 SLP135

CYYG;2008-07-03 04:00;CYYG 030400Z 20010KT 15SM FEW010 BKN100 OVC250 20/18 A2993 RMK SF1AC6CI1 SLP133

CYYG;2008-07-03 05:00;CYYG 030500Z 20008KT 12SM BKN010 OVC030 20/18 A2993 RMK SF6SC2 SLP133

CYYG;2008-07-03 05:29;CYYG 030529Z 21008KT 12SM OVC008 20/ RMK SF8

CYYG;2008-07-03 06:00;CYYG 030600Z 20010KT 12SM OVC008 20/18 A2990 RMK SF8 SLP126

CYYG;2008-07-03 07:00;CYYG 030700Z 20009KT 12SM OVC007 19/18 A2990 RMK SF8 SLP124

CYYG;2008-07-03 07:23;CYYG 030723Z 20009KT 12SM OVC005 19/ RMK SF8

CYYG;2008-07-03 08:00;CYYG 030800Z 20008KT 10SM OVC005 19/18 A2990 RMK SF8 SLP125

CYYG;2008-07-03 09:00;CYYG 030900Z 21007KT 12SM BKN005 OVC013 20/18 A2990 RMK SF6SC2 SLP125

CYYG;2008-07-03 09:22;CYYG 030922Z 21009KT 12SM BKN006 BKN020 OVC100 20/ RMK SF4SC3AC1

CYYG;2008-07-03 09:41;CYYG 030941Z 21009KT 12SM FEW010 SCT020 BKN100 20/ RMK SF2SC2AC2

CYYG;2008-07-03 10:00;CYYG 031000Z 22012KT 12SM BKN008 BKN100 20/18 A2991 RMK SF6AC2 SLP127

CYYG;2008-07-03 10:13;CYYG 031013Z 21012KT 12SM FEW008 SCT100 BKN250 19/ RMK SF2AC2CI0

CYYG;2008-07-03 11:00;CYYG 031100Z 21014KT 12SM FEW010 SCT100 20/17 A2990 RMK SC2AC2 SLP123

CYYG;2008-07-03 11:38;CYYG 031138Z 21011G18KT 12SM BKN012 BKN100 20/ RMK SC6AC2

CYYG;2008-07-03 12:00;CYYG 031200Z 22013KT 12SM BKN012 20/17 A2990 RMK SC7 SLP126

CYYG;2008-07-03 13:00;CYYG 031300Z 23012G17KT 12SM BKN013 BKN100 21/17 A2989 RMK SC6AC1 SLP121

CYYG;2008-07-03 14:00;CYYG 031400Z 22015G22KT 12SM BKN016 21/17 A2988 RMK SC5 SLP118

CYYG;2008-07-03 15:00;CYYG 031500Z 22017KT 12SM FEW020 BKN300 22/17 A2987 RMK CF1CI1 SLP114

CYYG;2008-07-03 16:00;CYYG 031600Z 22015G20KT 12SM FEW020 BKN300 23/17 A2987 RMK CF1CI2 SLP113

CYYG;2008-07-03 17:00;CYYG 031700Z 22016G25KT 15SM FEW025 BKN300 25/18 A2985 RMK CF1CI2 SLP109

CYYG;2008-07-03 18:00;CYYG 031800Z 23014KT 15SM BKN300 26/17 A2984 RMK CI2 SLP104

CYYG;2008-07-03 19:00;CYYG 031900Z 24015G22KT 15SM BKN300 26/16 A2982 RMK CI2 SLP099

CYYG;2008-07-03 20:00;CYYG 032000Z 24011G21KT 15SM BKN300 26/16 A2981 RMK CI2 SLP094

CYYG;2008-07-03 21:00;CYYG 032100Z 24013G21KT 15SM FEW030 BKN300 26/14 A2980 RMK CU1CI2 SLP092

CYYG;2008-07-03 22:00;CYYG 032200Z 25013G20KT 15SM FEW035 BKN300 25/13 A2980 RMK CU1CI2 SLP091

CYYG;2008-07-03 23:00;CYYG 032300Z 24011G16KT 15SM FEW035 FEW150 SCT300 23/13 A2981 RMK CU1AC1CI1 SLP093

CYYG;2008-07-04 00:00;CYYG 040000Z 23008KT 15SM FEW150 SCT250 22/13 A2981 RMK AC1CI1 SLP093

CYYG;2008-07-04 01:00;CYYG 040100Z 22014KT 15SM FEW150 FEW250 22/13 A2980 RMK AC1CI0 SLP092

CYYG;2008-07-04 02:00;CYYG 040200Z 20013KT 15SM FEW075 FEW250 21/13 A2981 RMK AC1CI0 SLP094

CYYG;2008-07-04 03:00;CYYG 040300Z 21009KT 15SM BKN050 21/14 A2982 RMK SC6 SLP099

CYYG;2008-07-04 04:00;CYYG 040400Z 23006G16KT 15SM BKN050 OVC090 20/15 A2984 RMK SC6AC2 SLP104

CYYG;2008-07-04 05:00;CYYG 040500Z 25012KT 12SM OVC070 19/16 A2985 RMK AC8 SLP108

CYYG;2008-07-04 06:00;CYYG 040600Z 25007KT 12SM BKN070 OVC120 18/15 A2984 RMK AC6AC2 SLP104

CYYG;2008-07-04 07:00;CYYG 040700Z 26009KT 12SM OVC069 17/16 A2988 RMK AC8 SLP118

CYYG;2008-07-04 07:28;CYYG 040728Z 27007KT 2SM -SHRA BKN070 OVC110 17/ RMK AC5AC3

CYYG;2008-07-04 08:00;CYYG 040800Z 27006KT 12SM -SHRA BKN080 BKN120 17/16 A2989 RMK AC5AC2 SLP122

CYYG;2008-07-04 08:34;CYYG 040834Z 27006KT 8SM FEW085 BKN120 BKN220 17/ RMK AC2AC2CI1

CYYG;2008-07-04 09:00;CYYG 040900Z 28006KT 10SM FEW080 FEW120 BKN220 17/15 A2992 RMK AC1AC1CI2 SLP131

CYYG;2008-07-04 10:00;CYYG 041000Z 30008KT 12SM FEW120 FEW220 BKN250 17/14 A2994 RMK AC1CC2CI1 SLP140

CYYG;2008-07-04 11:00;CYYG 041100Z 30008KT 15SM FEW030 FEW080 BKN250 18/13 A2997 RMK CF1AC1CI1 SLP148

CYYG;2008-07-04 12:00;CYYG 041200Z 32008KT 15SM FEW030 FEW080 BKN250 19/13 A2998 RMK CF1AC1CI1 SLP153

CYYG;2008-07-04 13:00;CYYG 041300Z 32006KT 15SM FEW030 FEW080 BKN250 19/13 A2999 RMK CF1AC1CI1 SLP156

CYYG;2008-07-04 14:00;CYYG 041400Z 28004KT 15SM FEW020 FEW080 BKN250 20/12 A3000 RMK CF1AC1CI1 SLP160

CYYG;2008-07-04 15:00;CYYG 041500Z 29002KT 15SM FEW040 FEW080 BKN250 21/13 A3000 RMK CF2AC1CI1 SLP160

CYYG;2008-07-04 16:00;CYYG 041600Z 03004KT 15SM FEW040 FEW080 BKN250 21/13 A3000 RMK CF2AC1CI1 SLP158

CYYG;2008-07-04 17:00;CYYG 041700Z 08004KT 15SM FEW038 BKN250 21/13 A3000 RMK CU2CI2 SLP159

CYYG;2008-07-04 18:00;CYYG 041800Z 03003KT 15SM FEW040 BKN250 22/13 A2999 RMK CU2CI2 SLP156

CYYG;2008-07-04 19:00;CYYG 041900Z 36004KT 15SM FEW040 BKN250 21/13 A2998 RMK CU1CI4 SLP153

CYYG;2008-07-04 20:00;CYYG 042000Z 04006KT 15SM FEW040 BKN250 21/13 A2998 RMK CU1CI2 SLP151

CYYG;2008-07-04 21:00;CYYG 042100Z 08004KT 15SM FEW040 FEW060 SCT250 21/13 A2997 RMK CU1SC1CI1 SLP149

CYYG;2008-07-04 22:00;CYYG 042200Z 12005KT 15SM FEW038 FEW060 SCT250 21/13 A2997 RMK CU1SC1CI1 SLP148

CYYG;2008-07-04 23:00;CYYG 042300Z 13003KT 15SM FEW050 FEW250 21/14 A2996 RMK CU1CI1 SLP147

CYYG;2008-07-05 00:00;CYYG 050000Z 17003KT 15SM FEW250 18/12 A2998 RMK CI1 SLP151

CYYG;2008-07-05 01:00;CYYG 050100Z 14006KT 15SM FEW250 16/14 A2999 RMK CI0 SLP157

CYYG;2008-07-05 02:00;CYYG 050200Z 16003KT 15SM SKC 15/14 A3000 RMK SLP159

CYYG;2008-07-05 03:00;CYYG 050300Z 20005KT 15SM SKC 15/14 A3000 RMK SLP159

CYYG;2008-07-05 04:00;CYYG 050400Z 22006KT 15SM SKC 16/14 A3000 RMK SLP159

CYYG;2008-07-05 05:00;CYYG 050500Z 23006KT 15SM SKC 15/12 A3001 RMK SLP161

CYYG;2008-07-05 06:00;CYYG 050600Z 23006KT 15SM SKC 15/11 A3001 RMK SLP163

CYYG;2008-07-05 07:00;CYYG 050700Z 28006KT 15SM FEW250 14/11 A3001 RMK CI1 SLP164

CYYG;2008-07-05 08:00;CYYG 050800Z 29002KT 15SM FEW250 13/11 A3002 RMK CI1 SLP166

CYYG;2008-07-05 09:00;CYYG 050900Z 26005KT 15SM FEW250 14/11 A3005 RMK CI1 SLP176

CYYG;2008-07-05 10:00;CYYG 051000Z 28005KT 15SM FEW250 15/13 A3006 RMK CI1 SLP180

CYYG;2008-07-05 11:00;CYYG 051100Z 27006KT 15SM FEW250 17/13 A3008 RMK CI1 SLP185

CYYG;2008-07-05 12:00;CYYG 051200Z 26004KT 15SM FEW250 19/14 A3009 RMK CI1 SLP188

CYYG;2008-07-05 13:00;CYYG 051300Z 22002KT 15SM FEW250 20/13 A3008 RMK CI1 SLP185

CYYG;2008-07-05 14:00;CYYG 051400Z 35002KT 15SM FEW300 21/12 A3008 RMK CI1 SLP185

CYYG;2008-07-05 15:00;CYYG 051500Z 19004KT 15SM FEW300 23/12 A3008 RMK CI1 SLP185

CYYG;2008-07-05 16:00;CYYG 051600Z 20009KT 15SM FEW030 FEW300 23/13 A3007 RMK CU0CI1 SLP183

CYYG;2008-07-05 17:00;CYYG 051700Z 19009KT 15SM FEW030 FEW300 23/11 A3007 RMK CU0CI1 SLP183

CYYG;2008-07-05 18:00;CYYG 051800Z 23004KT 15SM FEW300 24/11 A3005 RMK CI1 SLP177

CYYG;2008-07-05 19:00;CYYG 051900Z 26002KT 15SM FEW300 25/11 A3004 RMK CI1 SLP174

CYYG;2008-07-05 20:00;CYYG 052000Z 24005KT 15SM FEW300 26/12 A3004 RMK CI1 SLP172

CYYG;2008-07-05 21:00;CYYG 052100Z 21007KT 15SM FEW300 25/12 A3003 RMK CI1 SLP169

CYYG;2008-07-05 22:00;CYYG 052200Z 24004KT 15SM FEW030 FEW300 25/12 A3002 RMK SC0CI1 SLP167

CYYG;2008-07-05 23:00;CYYG 052300Z 17004KT 15SM FEW070 FEW300 23/12 A3002 RMK AC1CI0 SLP165

CYYG;2008-07-06 00:00;CYYG 060000Z 18007KT 15SM FEW070 SCT300 20/12 A3001 RMK AC1CI1 SLP161

CYYG;2008-07-06 01:00;CYYG 060100Z 17006KT 15SM FEW300 19/13 A3001 RMK CI1 SLP163

CYYG;2008-07-06 02:00;CYYG 060200Z 17007KT 15SM FEW300 18/12 A3001 RMK CI1 SLP163

CYYG;2008-07-06 03:00;CYYG 060300Z 22005KT 15SM FEW300 19/13 A3001 RMK CI1 SLP163

CYYG;2008-07-06 04:00;CYYG 060400Z 23005KT 15SM FEW300 18/12 A3001 RMK CI1 SLP163

CYYG;2008-07-06 05:00;CYYG 060500Z 22005KT 15SM FEW300 17/12 A3001 RMK CI1 SLP164

CYYG;2008-07-06 06:00;CYYG 060600Z 23007KT 15SM FEW048 SCT300 17/12 A3002 RMK SC2CI0 SLP166

CYYG;2008-07-06 07:00;CYYG 060700Z 24006KT 15SM FEW300 16/12 A3002 RMK CI1 SLP165

CYYG;2008-07-06 08:00;CYYG 060800Z 24007KT 15SM BKN300 16/13 A3002 RMK CI2 SLP165

CYYG;2008-07-06 09:00;CYYG 060900Z 23007KT 15SM FEW030TCU BKN300 16/13 A3002 RMK TCU1CI2 TCU DIST S SLP167

CYYG;2008-07-06 10:00;CYYG 061000Z 23008KT 15SM BKN300 17/14 A3002 RMK CI2 SLP167

CYYG;2008-07-06 11:00;CYYG 061100Z 23008KT 15SM BKN300 18/13 A3002 RMK CI2 SLP167

CYYG;2008-07-06 12:00;CYYG 061200Z 23008KT 15SM BKN300 20/14 A3003 RMK CI2 SLP169

CYYG;2008-07-06 13:00;CYYG 061300Z 26008KT 15SM BKN300 21/14 A3004 RMK CI2 SLP171

CYYG;2008-07-06 14:00;CYYG 061400Z 25010KT 15SM BKN300 22/15 A3003 RMK CI2 SLP168

CYYG;2008-07-06 15:00;CYYG 061500Z 23009KT 15SM BKN300 23/16 A3003 RMK CI2 SLP169

CYYG;2008-07-06 16:00;CYYG 061600Z 22006KT 15SM FEW030 BKN300 24/16 A3002 RMK CF1CI2 SLP167

CYYG;2008-07-06 17:00;CYYG 061700Z 27007KT 15SM FEW030 BKN300 25/15 A3002 RMK CF1CI2 SLP166

CYYG;2008-07-06 18:00;CYYG 061800Z 26009KT 15SM FEW030 BKN300 26/15 A3002 RMK CF0CI2 SLP165

CYYG;2008-07-06 19:00;CYYG 061900Z 27009KT 15SM BKN300 27/14 A3001 RMK CI2 SLP164

CYYG;2008-07-06 20:00;CYYG 062000Z 25009KT 15SM BKN300 27/14 A3001 RMK CI2 SLP162

CYYG;2008-07-06 21:00;CYYG 062100Z 28009KT 15SM BKN300 27/13 A3001 RMK CI2 SLP161

CYYG;2008-07-06 22:00;CYYG 062200Z 25007KT 15SM SCT300 25/14 A3001 RMK CI2 SLP163

CYYG;2008-07-06 23:00;CYYG 062300Z 26007KT 15SM FEW300 24/13 A3002 RMK CI1 SLP166

CYYG;2008-07-07 00:00;CYYG 070000Z 26005KT 15SM SCT300 22/12 A3001 RMK CI1 SLP164

CYYG;2008-07-07 01:00;CYYG 070100Z 24005KT 15SM SCT300 20/13 A3004 RMK CI1 SLP171

CYYG;2008-07-07 02:00;CYYG 070200Z 23009KT 15SM SCT300 20/12 A3003 RMK CI1 SLP168

CYYG;2008-07-07 03:00;CYYG 070300Z 23008KT 15SM SCT300 19/12 A3002 RMK CI1 SLP165

CYYG;2008-07-07 04:00;CYYG 070400Z 23006KT 15SM SCT300 19/12 A3001 RMK CI1 SLP164

CYYG;2008-07-07 05:00;CYYG 070500Z 22007KT 15SM SCT300 18/13 A3002 RMK CI1 SLP165

CYYG;2008-07-07 06:00;CYYG 070600Z 22007KT 15SM SCT300 17/13 A3002 RMK CI1 SLP165

CYYG;2008-07-07 07:00;CYYG 070700Z 23007KT 15SM SCT300 16/14 A3001 RMK CI1 SLP163

CYYG;2008-07-07 08:00;CYYG 070800Z 23007KT 15SM SCT300 16/14 A3001 RMK CI1 SLP161

CYYG;2008-07-07 09:00;CYYG 070900Z 23009KT 15SM SCT300 15/14 A3000 RMK CI2 SLP158

CYYG;2008-07-07 10:00;CYYG 071000Z 22009KT 15SM FEW160 BKN300 17/14 A3000 RMK AC1CI2 SLP160

CYYG;2008-07-07 11:00;CYYG 071100Z 23010KT 15SM FEW160 BKN300 18/14 A3001 RMK AC1CI2 SLP161

CYYG;2008-07-07 12:00;CYYG 071200Z 23009KT 15SM FEW160 BKN300 18/15 A3000 RMK AC1CI2 SLP159

CYYG;2008-07-07 13:00;CYYG 071300Z 23008KT 15SM FEW160 BKN300 21/17 A2998 RMK AC1CI2 SLP154

CYYG;2008-07-07 14:00;CYYG 071400Z 22007KT 15SM FEW160 SCT300 21/17 A2997 RMK AC1CI1 SLP148

CYYG;2008-07-07 15:00;CYYG 071500Z 20011KT 15SM SCT300 23/18 A2996 RMK CI2 SLP144

CYYG;2008-07-07 16:00;CYYG 071600Z 22012KT 15SM SCT300 24/18 A2995 RMK CI2 SLP142

CYYG;2008-07-07 17:00;CYYG 071700Z 22011KT 15SM SCT300 26/19 A2993 RMK CI2 SLP136

CYYG;2008-07-07 18:00;CYYG 071800Z 25012KT 15SM SCT300 26/19 A2992 RMK CI2 SLP130

CYYG;2008-07-07 19:00;CYYG 071900Z 23012KT 15SM SCT300 27/20 A2990 RMK CI2 SLP124

CYYG;2008-07-07 20:00;CYYG 072000Z 23011KT 15SM BKN300 27/20 A2989 RMK CI2 SLP120

CYYG;2008-07-07 21:00;CYYG 072100Z 25013G20KT 15SM BKN300 27/17 A2987 RMK CI2 SLP116

CYYG;2008-07-07 22:00;CYYG 072200Z 24012KT 15SM BKN300 26/17 A2987 RMK CI2 SLP113

CYYG;2008-07-07 23:00;CYYG 072300Z 25012G18KT 15SM BKN300 24/16 A2986 RMK CI3 SLP111

CYYG;2008-07-08 00:00;CYYG 080000Z 26011G16KT 15SM BKN300 22/16 A2987 RMK CI2 SLP114

CYYG;2008-07-08 01:00;CYYG 080100Z 25010KT 15SM BKN300 20/17 A2988 RMK CI2 SLP120

CYYG;2008-07-08 02:00;CYYG 080200Z 23006KT 15SM BKN300 20/17 A2989 RMK CI2 SLP121

CYYG;2008-07-08 03:00;CYYG 080300Z 24006KT 15SM BKN300 19/17 A2988 RMK CI2 SLP119

CYYG;2008-07-08 04:00;CYYG 080400Z 24008KT 15SM BKN300 19/17 A2988 RMK CI2 SLP117

CYYG;2008-07-08 05:00;CYYG 080500Z 24008KT 15SM BKN300 18/16 A2988 RMK CI2 SLP117

CYYG;2008-07-08 06:00;CYYG 080600Z 25009KT 15SM BKN240 18/16 A2987 RMK CI2 SLP113

CYYG;2008-07-08 07:00;CYYG 080700Z 25011KT 15SM BKN240 17/15 A2986 RMK CI2 SLP112

CYYG;2008-07-08 08:00;CYYG 080800Z 25011KT 15SM BKN230 17/15 A2987 RMK CI5 SLP113

CYYG;2008-07-08 09:00;CYYG 080900Z 25009KT 15SM BKN230 17/15 A2988 RMK CI2 SLP117

CYYG;2008-07-08 10:00;CYYG 081000Z 25007KT 15SM FEW210 BKN300 18/15 A2989 RMK CI1CI1 SLP120

CYYG;2008-07-08 11:00;CYYG 081100Z 25009KT 15SM FEW160 SCT300 20/16 A2990 RMK AC1CI1 SLP123

CYYG;2008-07-08 12:00;CYYG 081200Z 26008KT 15SM BKN300 22/18 A2989 RMK CI2 SLP122

CYYG;2008-07-08 13:00;CYYG 081300Z 25007KT 15SM BKN300 24/18 A2989 RMK CI2 SLP120

CYYG;2008-07-08 14:00;CYYG 081400Z 27004KT 15SM BKN300 26/19 A2989 RMK CI2 SLP121

CYYG;2008-07-08 15:00;CYYG 081500Z 23005KT 15SM BKN300 27/19 A2989 RMK CI1 SLP121

CYYG;2008-07-08 16:00;CYYG 081600Z 25010KT 15SM SCT050 BKN085 OVC200 28/14 A2976 RMK CU3AC2CI1 SLP078

CYYG;2008-07-08 17:00;CYYG 081700Z 22007KT 15SM FEW030 BKN300 27/19 A2986 RMK CU1CI2 SLP112

CYYG;2008-07-08 18:00;CYYG 081800Z 24006KT 15SM BKN300 28/19 A2986 RMK CI2 SLP110

CYYG;2008-07-08 19:00;CYYG 081900Z 27008KT 15SM FEW030 BKN300 29/20 A2985 RMK CU1CI2 SLP108

CYYG;2008-07-08 20:00;CYYG 082000Z 25009KT 15SM BKN300 29/19 A2984 RMK CI2 SLP105

CYYG;2008-07-08 21:00;CYYG 082100Z 25007KT 15SM BKN300 29/19 A2983 RMK CI2 SLP100

CYYG;2008-07-08 22:00;CYYG 082200Z 22007KT 15SM BKN300 28/18 A2982 RMK CI2 SLP097

CYYG;2008-07-08 23:00;CYYG 082300Z 21007KT 15SM BKN300 25/19 A2982 RMK CI2 SLP097

CYYG;2008-07-09 00:00;CYYG 090000Z 19004KT 15SM BKN300 22/18 A2981 RMK CI2 SLP095

CYYG;2008-07-09 01:00;CYYG 090100Z 21006KT 15SM BKN300 22/17 A2982 RMK CI2 SLP099

CYYG;2008-07-09 02:00;CYYG 090200Z 22009KT 15SM BKN300 23/19 A2982 RMK CI2 SLP098

CYYG;2008-07-09 03:00;CYYG 090300Z 23008KT 15SM BKN300 22/19 A2981 RMK CI2 SLP095

CYYG;2008-07-09 04:00;CYYG 090400Z 23009KT 15SM BKN300 22/19 A2981 RMK CI2 SLP094

CYYG;2008-07-09 05:00;CYYG 090500Z 23006KT 15SM BKN300 21/19 A2981 RMK CI2 SLP094

CYYG;2008-07-09 06:00;CYYG 090600Z 23007KT 15SM BKN300 20/19 A2980 RMK CI2 SLP090

CYYG;2008-07-09 07:00;CYYG 090700Z 24011KT 12SM SCT005 BKN300 21/19 A2979 RMK SF3CI1 SLP088

CYYG;2008-07-09 07:35;CYYG 090735Z 23011KT 10SM BKN005 20/ RMK SF6

CYYG;2008-07-09 08:00;CYYG 090800Z 23011KT 10SM OVC005 20/19 A2979 RMK SF8 SLP086

CYYG;2008-07-09 09:00;CYYG 090900Z 22009KT 3SM BR OVC007 21/19 A2978 RMK SF8 SLP084

CYYG;2008-07-09 10:00;CYYG 091000Z 21008KT 4SM BR OVC009 21/19 A2978 RMK SF8 SLP085

CYYG;2008-07-09 11:00;CYYG 091100Z 22011KT 4SM BR OVC007 22/20 A2979 RMK SF8 SLP086

CYYG;2008-07-09 12:00;CYYG 091200Z 22010G16KT 4SM BR OVC007 22/20 A2978 RMK SF8 SLP085

CYYG;2008-07-09 13:00;CYYG 091300Z 22012KT 4SM BR OVC009 22/20 A2978 RMK SF8 SLP084

CYYG;2008-07-09 13:31;CYYG 091331Z 22013KT 6SM BR OVC011 24/ RMK SF7

CYYG;2008-07-09 14:00;CYYG 091400Z 23012G17KT 6SM HZ BKN011 24/21 A2978 RMK SC7 SLP083

CYYG;2008-07-09 14:15;CYYG 091415Z 22013KT 6SM HZ SCT011 BKN300 25/ RMK SC3CI1

CYYG;2008-07-09 15:00;CYYG 091500Z 22013KT 6SM HZ SCT011 BKN300 25/21 A2977 RMK SC3CI1 SLP081

CYYG;2008-07-09 16:00;CYYG 091600Z 20014KT 6SM HZ FEW015 BKN300 27/22 A2976 RMK SC2CI2 SLP077

CYYG;2008-07-09 17:00;CYYG 091700Z 22009G15KT 8SM FEW025 BKN300 27/22 A2975 RMK SC2CI2 HAZY SLP074

CYYG;2008-07-09 18:00;CYYG 091800Z 20013KT 8SM FEW025 BKN300 27/22 A2974 RMK SC2CI2 HAZY SLP069

CYYG;2008-07-09 19:00;CYYG 091900Z 22013KT 8SM FEW025 BKN300 28/22 A2973 RMK SC1CI3 HAZY SLP066

CYYG;2008-07-09 20:00;CYYG 092000Z 23010G15KT 8SM FEW025 BKN300 28/21 A2972 RMK SC1CI2 HAZY SLP064

CYYG;2008-07-09 21:00;CYYG 092100Z 22009KT 10SM BKN300 28/22 A2971 RMK CI2 HAZY SLP061

CYYG;2008-07-09 22:00;CYYG 092200Z 23010G16KT 10SM BKN300 27/21 A2971 RMK CI2 HAZY SLP062

CYYG;2008-07-09 23:00;CYYG 092300Z 23010KT 12SM BKN300 26/20 A2972 RMK CI2 HAZY SLP064

CYYG;2008-07-10 00:00;CYYG 100000Z 26007KT 12SM BKN300 24/19 A2973 RMK CI2 HAZY SLP068

CYYG;2008-07-10 01:00;CYYG 100100Z 23008KT 15SM BKN300 22/18 A2973 RMK CI2 SLP068

CYYG;2008-07-10 02:00;CYYG 100200Z 23007KT 15SM BKN300 22/18 A2973 RMK CI2 SLP066

CYYG;2008-07-10 03:00;CYYG 100300Z 22006KT 15SM BKN300 21/18 A2972 RMK CI2 SLP064

CYYG;2008-07-10 04:00;CYYG 100400Z 19011KT 15SM BKN300 21/19 A2971 RMK CI2 SLP059

CYYG;2008-07-10 05:00;CYYG 100500Z 18012KT 15SM BKN300 21/19 A2970 RMK CI2 SLP056

CYYG;2008-07-10 06:00;CYYG 100600Z 19011G16KT 15SM FEW027 BKN300 21/19 A2970 RMK SC2CI2 SLP056

CYYG;2008-07-10 07:00;CYYG 100700Z 18015KT 15SM BKN023 21/18 A2968 RMK SC6 SLP051

CYYG;2008-07-10 08:00;CYYG 100800Z 19013KT 15SM SCT023 BKN300 20/18 A2967 RMK SC3CI1 SLP048

CYYG;2008-07-10 09:00;CYYG 100900Z 19010KT 12SM SCT010 BKN300 20/19 A2968 RMK SF3CI2 SLP050

CYYG;2008-07-10 10:00;CYYG 101000Z 20014G19KT 12SM FEW010 SCT018 BKN100 OVC300 21/19 A2967 RMK SF2SC2AC2CI1 SLP046

CYYG;2008-07-10 10:53;CYYG 101053Z 20015G22KT 12SM -SHRA OVC015 21/ RMK SF8

CYYG;2008-07-10 11:00;CYYG 101100Z 19014G20KT 12SM -SHRA OVC015 21/19 A2967 RMK SF8 SLP048

CYYG;2008-07-10 12:00;CYYG 101200Z 21012G20KT 12SM -SHRA FEW008 OVC013 21/19 A2968 RMK SF1SF7 PCPN VRY LGT SLP050

CYYG;2008-07-10 12:36;CYYG 101236Z 21013KT 12SM -SHRA OVC010 21/ RMK SF8 PCPN VRY LGT

CYYG;2008-07-10 13:00;CYYG 101300Z 22012G17KT 12SM -SHRA OVC008 21/19 A2968 RMK SF8 SLP050

CYYG;2008-07-10 14:00;CYYG 101400Z 23013G18KT 10SM -SHRA OVC009 21/19 A2969 RMK SF8 OCNL -SHRA SLP052

CYYG;2008-07-10 14:48;CYYG 101448Z 23012G22KT 12SM -SHRA OVC011 22/ RMK SF8

CYYG;2008-07-10 15:00;CYYG 101500Z 23012G22KT 12SM -SHRA OVC010 22/19 A2970 RMK SF8 OCNL -SHRA SLP057

CYYG;2008-07-10 15:20;CYYG 101520Z 23012G22KT 10SM OVC010 22/ RMK SF8

CYYG;2008-07-10 16:00;CYYG 101600Z 23013G20KT 10SM BKN014 OVC035 22/19 A2971 RMK SF6SC2 SLP061

CYYG;2008-07-10 16:11;CYYG 101611Z 23013G21KT 10SM -SHRA BKN011 OVC025 21/ RMK SF6SC2

CYYG;2008-07-10 17:00;CYYG 101700Z 23014G20KT 12SM -SHRA BKN009 OVC015 22/19 A2971 RMK SF6SC2 SLP060

CYYG;2008-07-10 17:31;CYYG 101731Z 24009G15KT 12SM BKN009 OVC019 22/ RMK SF6SC2

CYYG;2008-07-10 18:00;CYYG 101800Z 23010KT 12SM BKN009 OVC019 22/20 A2971 RMK SF5SC3 SLP062

CYYG;2008-07-10 18:40;CYYG 101840Z 23010G15KT 12SM SCT009 BKN016 OVC110 22/ RMK SF3SC2AC2

CYYG;2008-07-10 19:00;CYYG 101900Z 24010G15KT 12SM FEW009 BKN017 OVC110 22/19 A2971 RMK SF2SC4AC2 SLP061

CYYG;2008-07-10 19:16;CYYG 101916Z 22010G15KT 12SM -SHRA FEW009 BKN017 OVC072 22/ RMK SF2SC3AC3

CYYG;2008-07-10 20:00;CYYG 102000Z 21013G20KT 15SM -SHRA SCT006 BKN017 22/20 A2970 RMK SF4SC3 OCNL -SHRA SLP057

CYYG;2008-07-10 21:00;CYYG 102100Z 21013G18KT 15SM FEW007 BKN014 23/19 A2970 RMK SF2SC6 SLP058

CYYG;2008-07-10 22:00;CYYG 102200Z 20010KT 15SM FEW007 BKN017 22/20 A2971 RMK SF1SC6 SLP060

CYYG;2008-07-10 23:00;CYYG 102300Z 23008KT 15SM FEW012 SCT017 22/19 A2973 RMK CF1SC3 SLP067

CYYG;2008-07-10 23:50;CYYG 102350Z 24008G15KT 12SM FEW010 BKN014 21/ RMK SF1SC6 TCU TOPS DIST N

CYYG;2008-07-11 00:00;CYYG 110000Z 24008KT 12SM FEW010 SCT014 BKN300 21/19 A2974 RMK SF1SC2CI0 TCU TOPS DIST N SLP071

CYYG;2008-07-11 01:00;CYYG 110100Z 22007KT 6SM BR FEW010 SCT015 SCT120 21/19 A2976 RMK SF1SC3AC1 TCU TOPS DIST NW-N SLP077

CYYG;2008-07-11 02:00;CYYG 110200Z 23008KT 6SM BR FEW007 21/19 A2977 RMK SF1 SLP080

CYYG;2008-07-11 03:00;CYYG 110300Z 24008KT 8SM FEW075 20/18 A2978 RMK AC1 SLP083

CYYG;2008-07-11 04:00;CYYG 110400Z 24009KT 10SM FEW075 19/17 A2978 RMK AC1 SLP084

CYYG;2008-07-11 05:00;CYYG 110500Z 25008KT 10SM SKC 18/16 A2979 RMK SLP088

CYYG;2008-07-11 06:00;CYYG 110600Z 27006KT 10SM SKC 18/16 A2981 RMK SLP093

CYYG;2008-07-11 07:00;CYYG 110700Z 27006KT 12SM FEW250 18/15 A2982 RMK CI1 SLP098

CYYG;2008-07-11 08:00;CYYG 110800Z 25007KT 15SM FEW250 17/15 A2983 RMK CI1 SLP102

CYYG;2008-07-11 09:00;CYYG 110900Z 25006KT 15SM FEW030 FEW060 FEW250 16/14 A2985 RMK SC1SC1CI1 SLP110

CYYG;2008-07-11 10:00;CYYG 111000Z 26005KT 15SM FEW060 SCT330 17/15 A2987 RMK SC1CI1 SLP117

CYYG;2008-07-11 11:00;CYYG 111100Z 27008KT 15SM FEW060 SCT330 18/15 A2990 RMK SC1CI1 SLP124

CYYG;2008-07-11 12:00;CYYG 111200Z 27008KT 15SM FEW060 SCT310 19/15 A2991 RMK SC1CI1 SLP128

CYYG;2008-07-11 13:00;CYYG 111300Z 28009KT 15SM FEW045 SCT310 21/15 A2991 RMK SC2CI1 SLP130

CYYG;2008-07-11 14:00;CYYG 111400Z 29010KT 15SM FEW030 BKN310 21/15 A2991 RMK SC2CI1 SLP129

CYYG;2008-07-11 15:00;CYYG 111500Z 28010KT 15SM FEW030 BKN310 21/14 A2992 RMK SC2CI1 SLP133

CYYG;2008-07-11 16:00;CYYG 111600Z 28011KT 15SM FEW030 BKN280 22/14 A2993 RMK SC2CI1 SLP136

CYYG;2008-07-11 17:00;CYYG 111700Z 32009G17KT 15SM FEW030 BKN280 23/14 A2993 RMK SC2CI1 SLP137

CYYG;2008-07-11 18:00;CYYG 111800Z 28007G15KT 15SM FEW030 BKN280 22/13 A2994 RMK SC2CI2 SLP139

CYYG;2008-07-11 19:00;CYYG 111900Z 29009G16KT 15SM FEW030 BKN280 22/13 A2995 RMK SC1CI2 SLP141

CYYG;2008-07-11 20:00;CYYG 112000Z 36003KT 15SM FEW040 BKN190 BKN280 21/15 A2996 RMK CU1AC5CI1 SLP144

CYYG;2008-07-11 21:00;CYYG 112100Z 01004KT 15SM FEW040 BKN190 BKN280 20/14 A2998 RMK CU1AC5CI1 SLP152

CYYG;2008-07-11 22:00;CYYG 112200Z 02005KT 15SM FEW040 BKN190 BKN280 20/14 A2999 RMK CU1AC4CI2 SLP156

CYYG;2008-07-11 23:00;CYYG 112300Z 02004KT 15SM FEW040 FEW060 BKN200 19/14 A3000 RMK CU1SC1CS6 SLP160

CYYG;2008-07-12 00:00;CYYG 120000Z 09002KT 15SM FEW040 FEW060 BKN240 19/14 A3002 RMK CU1SC1CS6 SLP165

CYYG;2008-07-12 01:00;CYYG 120100Z 04002KT 15SM BKN240 16/14 A3004 RMK CS5 SLP172

CYYG;2008-07-12 02:00;CYYG 120200Z 20002KT 15SM BKN250 17/14 A3004 RMK CS5 SLP174

CYYG;2008-07-12 03:00;CYYG 120300Z 00000KT 15SM BKN250 16/13 A3004 RMK CS6 SLP174

CYYG;2008-07-12 04:00;CYYG 120400Z 00000KT 15SM SCT250 15/14 A3004 RMK CS2 SLP173

CYYG;2008-07-12 05:00;CYYG 120500Z 23002KT 15SM BKN250 14/14 A3004 RMK CI2 SLP172

CYYG;2008-07-12 06:00;CYYG 120600Z 00000KT 15SM SCT250 15/13 A3004 RMK CI1 AURBO SLP172

CYYG;2008-07-12 07:00;CYYG 120700Z 23002KT 15SM FEW250 14/13 A3004 RMK CI1 SLP174

CYYG;2008-07-12 08:00;CYYG 120800Z 24005KT 15SM MIFG FEW250 15/13 A3005 RMK CI1 SLP176

CYYG;2008-07-12 09:00;CYYG 120900Z 25006KT 15SM FEW070 FEW250 14/13 A3007 RMK AC1CI1 SLP182

CYYG;2008-07-12 10:00;CYYG 121000Z 25007KT 15SM FEW070 FEW250 16/14 A3006 RMK AC1CI1 SLP181

CYYG;2008-07-12 11:00;CYYG 121100Z 27005KT 15SM FEW070 18/15 A3008 RMK AC1 SLP186

CYYG;2008-07-12 12:00;CYYG 121200Z 29005KT 15SM FEW070 20/16 A3009 RMK AC0 SLP188

CYYG;2008-07-12 13:00;CYYG 121300Z 32004KT 15SM FEW030 21/14 A3009 RMK SC1 SLP188

CYYG;2008-07-12 14:00;CYYG 121400Z 33005KT 15SM FEW030 21/13 A3009 RMK SC2 SLP188

CYYG;2008-07-12 15:00;CYYG 121500Z 33008KT 15SM FEW035 22/12 A3008 RMK SC2 SLP185

CYYG;2008-07-12 16:00;CYYG 121600Z 32007KT 15SM SCT040 22/13 A3008 RMK SC3 SLP185

CYYG;2008-07-12 17:00;CYYG 121700Z 34006KT 15SM FEW040TCU 22/14 A3006 RMK TCU2 SLP181

CYYG;2008-07-12 18:00;CYYG 121800Z 36008KT 15SM FEW040 23/13 A3006 RMK SC2 TCU EMBDD SLP181

CYYG;2008-07-12 19:00;CYYG 121900Z 34009KT 15SM SCT045 21/11 A3008 RMK SC3 SLP186

CYYG;2008-07-12 20:00;CYYG 122000Z 36008KT 15SM FEW045 SCT260 22/12 A3009 RMK SC2CI1 SLP189

CYYG;2008-07-12 21:00;CYYG 122100Z 01005KT 15SM FEW045 BKN260 22/11 A3008 RMK SC1CI3 SLP187

CYYG;2008-07-12 22:00;CYYG 122200Z 02004KT 15SM FEW045 BKN260 21/12 A3008 RMK SC1CI3 SLP187

CYYG;2008-07-12 23:00;CYYG 122300Z 05003KT 15SM FEW045 SCT300 20/12 A3009 RMK SC1CI2 SLP188

CYYG;2008-07-13 00:00;CYYG 130000Z 10003KT 15SM FEW060 FEW300 19/13 A3009 RMK SC1CI1 SLP191

CYYG;2008-07-13 01:00;CYYG 130100Z 16002KT 15SM FEW060 FEW300 17/12 A3010 RMK SC1CI1 SLP193

CYYG;2008-07-13 02:00;CYYG 130200Z 18003KT 15SM FEW060 FEW300 15/11 A3011 RMK SC1CI1 SLP195

CYYG;2008-07-13 03:00;CYYG 130300Z 18002KT 15SM FEW060 FEW300 15/12 A3010 RMK SC1CI1 SLP192

CYYG;2008-07-13 04:00;CYYG 130400Z 18005KT 15SM FEW080 FEW300 16/13 A3009 RMK AC1CI1 SLP188

CYYG;2008-07-13 05:00;CYYG 130500Z 16004KT 15SM FEW300 16/14 A3008 RMK CI1 SLP185

CYYG;2008-07-13 06:00;CYYG 130600Z 21005KT 15SM SKC 16/14 A3007 RMK SLP182

CYYG;2008-07-13 07:00;CYYG 130700Z 16003KT 15SM SKC 15/14 A3006 RMK SLP181

CYYG;2008-07-13 08:00;CYYG 130800Z 18003KT 15SM MIFG FEW300 15/14 A3007 RMK CI1 SLP182

CYYG;2008-07-13 09:00;CYYG 130900Z 18004KT 15SM MIFG FEW300 14/13 A3007 RMK CI1 SLP184

CYYG;2008-07-13 10:00;CYYG 131000Z 19003KT 15SM FEW300 17/15 A3008 RMK CI1 SLP187

CYYG;2008-07-13 11:00;CYYG 131100Z 18007KT 15SM FEW300 19/14 A3008 RMK CI1 SLP187

CYYG;2008-07-13 12:00;CYYG 131200Z 20009KT 15SM FEW300 20/14 A3008 RMK CI1 SLP187

CYYG;2008-07-13 13:00;CYYG 131300Z 20008KT 15SM FEW160 FEW300 21/14 A3008 RMK AC1CI1 SLP185

CYYG;2008-07-13 14:00;CYYG 131400Z 18013KT 15SM FEW100 BKN300 22/12 A3006 RMK AC1CC1 SLP181

CYYG;2008-07-13 15:00;CYYG 131500Z 19016KT 15SM FEW100 FEW220 BKN300 23/13 A3003 RMK AC1CI1CC1 SLP169

CYYG;2008-07-13 16:00;CYYG 131600Z 19015G20KT 15SM SCT060 SCT220 BKN300 24/13 A3002 RMK SC3CC1CI0 SLP165

CYYG;2008-07-13 17:00;CYYG 131700Z 19015G21KT 15SM FEW068 SCT220 BKN300 25/14 A2999 RMK AC2CC2CI0 SLP156

CYYG;2008-07-13 18:00;CYYG 131800Z 19017KT 15SM FEW062 SCT220 BKN300 25/13 A2997 RMK SC2CC2CI1 SLP149

CYYG;2008-07-13 19:00;CYYG 131900Z 21014G19KT 15SM FEW068 SCT086 BKN300 25/14 A2996 RMK AC2AC2CI1 SLP146

CYYG;2008-07-13 20:00;CYYG 132000Z 21016KT 15SM FEW068 FEW090 BKN300 25/15 A2995 RMK AC1AC2CI1 SLP142

CYYG;2008-07-13 21:00;CYYG 132100Z 20016G24KT 15SM FEW060 FEW090 BKN300 25/15 A2995 RMK SC1AC2CI1 SLP142

CYYG;2008-07-13 22:00;CYYG 132200Z 19016KT 15SM FEW058 FEW090 BKN300 24/15 A2993 RMK SC1AC2CI1 SLP137

CYYG;2008-07-13 23:00;CYYG 132300Z 20018KT 15SM FEW060 FEW100 BKN300 23/14 A2995 RMK SC1AC2CI1 SLP141

CYYG;2008-07-14 00:00;CYYG 140000Z 20018G26KT 15SM FEW060 BKN100 BKN300 21/12 A2996 RMK SC1AC5CI0 SLP146

CYYG;2008-07-14 01:00;CYYG 140100Z 20015G20KT 15SM FEW100 SCT300 20/11 A2997 RMK AC2CI0 SLP149

CYYG;2008-07-14 02:00;CYYG 140200Z 19016G21KT 15SM FEW100 FEW180 SCT300 20/11 A2997 RMK AC1AC1CI0 SLP149

CYYG;2008-07-14 03:00;CYYG 140300Z 18015G21KT 15SM BKN160 19/12 A2996 RMK AC5 SLP146

CYYG;2008-07-14 04:00;CYYG 140400Z 18013G19KT 15SM BKN170 19/12 A2995 RMK AC5 SLP143

CYYG;2008-07-14 05:00;CYYG 140500Z 19016KT 15SM FEW170 18/13 A2995 RMK AC2 SLP142

CYYG;2008-07-14 06:00;CYYG 140600Z 19014KT 15SM FEW170 17/14 A2994 RMK AC2 SLP139

CYYG;2008-07-14 07:00;CYYG 140700Z 19010KT 15SM FEW160 17/14 A2994 RMK AC2 SLP138

CYYG;2008-07-14 08:00;CYYG 140800Z 19013KT 15SM FEW160 17/14 A2993 RMK AC1 SLP134

CYYG;2008-07-14 09:00;CYYG 140900Z 18013KT 15SM FEW010 FEW160 17/15 A2992 RMK SF1AC2 SLP132

CYYG;2008-07-14 09:31;CYYG 140931Z 18014G21KT 15SM BKN012 BKN160 18/ RMK SC5AC1

CYYG;2008-07-14 10:00;CYYG 141000Z 18013G18KT 15SM BKN012 18/16 A2993 RMK SC7 SLP135

CYYG;2008-07-14 10:10;CYYG 141010Z 18015KT 15SM BKN009 18/ RMK SC7

CYYG;2008-07-14 11:00;CYYG 141100Z 18015G20KT 15SM BKN009 BKN150 BKN250 19/16 A2992 RMK SF5AC1CI2 SLP131

CYYG;2008-07-14 11:45;CYYG 141145Z 19015KT 15SM BKN010 BKN150 BKN250 20/ RMK SF5AC1CI2

CYYG;2008-07-14 12:00;CYYG 141200Z 19014G21KT 15SM SCT013 BKN150 BKN250 20/17 A2992 RMK SC3AC2CI1 SLP133

CYYG;2008-07-14 13:00;CYYG 141300Z 18016KT 15SM FEW015 BKN072 BKN130 21/17 A2991 RMK SC2AC3AC2 SLP129

CYYG;2008-07-14 14:00;CYYG 141400Z 18016KT 12SM VCSH FEW018 BKN060 OVC160 21/18 A2990 RMK SC2SC5AC2 SLP124

CYYG;2008-07-14 14:16;CYYG 141416Z 17015KT 15SM -SHRA FEW018 BKN060 OVC160 21/ RMK SC2SC4AC2

CYYG;2008-07-14 15:00;CYYG 141500Z 17013G18KT 12SM -SHRA SCT030 BKN050 OVC140 21/18 A2987 RMK SC3SC2AC2 VIS W LWR SLP115

CYYG;2008-07-14 16:00;CYYG 141600Z 18015G21KT 15SM BKN030 BKN065 OVC120 23/20 A2984 RMK SC5SC2AC1 OCNL -SHRA SLP106

CYYG;2008-07-14 16:20;CYYG 141620Z 18017KT 3SM -SHRA BKN009 OVC030 22/ RMK SF6SC2

CYYG;2008-07-14 16:46;CYYG 141646Z 18013G18KT 5SM -SHRA SCT009 OVC026 23/ RMK SF3SC5

CYYG;2008-07-14 17:00;CYYG 141700Z 18015KT 10SM -SHRA SCT009 OVC022 23/20 A2983 RMK SF3SC5 SLP101

CYYG;2008-07-14 18:00;CYYG 141800Z 18013G19KT 15SM -SHRA BKN018 OVC035 22/20 A2983 RMK SC6SC2 SLP100

CYYG;2008-07-14 18:33;CYYG 141833Z 18016KT 3SM -SHRA BR BKN013 OVC025 22/ RMK SC6SC2

CYYG;2008-07-14 19:00;CYYG 141900Z 19016G26KT 8SM -SHRA FEW008 BKN045 OVC100 21/20 A2982 RERA RMK SF2SC5AC2 SLP098

CYYG;2008-07-14 20:00;CYYG 142000Z 16012KT 10SM BKN005 OVC049 21/21 A2980 RMK SF4SC4 OCNL -SHRA SLP092

CYYG;2008-07-14 20:50;CYYG 142050Z 17014KT 15SM BKN007 BKN015 BKN040 22/ RMK SF5SC2SC1 OCNLM -SHRA

CYYG;2008-07-14 21:00;CYYG 142100Z 17014KT 15SM BKN008 BKN013 23/21 A2979 RMK SF5SC2 SLP087

CYYG;2008-07-14 21:42;CYYG 142142Z 17014KT 15SM FEW008 OVC016 22/ RMK SF2SC6

CYYG;2008-07-14 22:00;CYYG 142200Z 18012G17KT 15SM VCSH FEW008 OVC016 22/21 A2978 RMK SF2SC6 SLP085

CYYG;2008-07-14 23:00;CYYG 142300Z 20009KT 15SM FEW008 BKN015 BKN160 21/20 A2979 RMK SF1SC4AC1 SLP089

CYYG;2008-07-15 00:00;CYYG 150000Z 21012KT 15SM FEW008 BKN015 BKN027 22/20 A2981 RMK SF1SC6SC1 SLP095

CYYG;2008-07-15 01:00;CYYG 150100Z 21012KT 15SM BKN015 OVC022 22/20 A2984 RMK SC6SC2 SLP105

CYYG;2008-07-15 02:00;CYYG 150200Z 20009KT 15SM FEW007 BKN015 OVC022 21/20 A2986 RMK SF1SC6SC1 SLP112

CYYG;2008-07-15 03:00;CYYG 150300Z 19003KT 15SM FEW008 BKN020 20/20 A2988 RMK SC2SC5 SLP118

CYYG;2008-07-15 04:00;CYYG 150400Z 21007KT 15SM FEW015 BKN021 21/20 A2989 RMK SC2SC5 SLP120

CYYG;2008-07-15 05:00;CYYG 150500Z 19009KT 15SM FEW010 BKN020 21/20 A2990 RMK SC2SC5 SLP123

CYYG;2008-07-15 06:00;CYYG 150600Z 22007KT 15SM FEW008 BKN020 21/19 A2991 RMK SC2SC6 SLP129

CYYG;2008-07-15 06:42;CYYG 150642Z 22007KT 15SM FEW007 BKN011 BKN170 21/ RMK SF2SC4AC1

CYYG;2008-07-15 07:00;CYYG 150700Z 22007KT 15SM -SHRA FEW008 BKN011 BKN170 20/19 A2993 RMK SF2SC4AC1 PCPN VRY LGT SLP134

CYYG;2008-07-15 07:40;CYYG 150740Z 21006KT 15SM FEW008 BKN014 BKN170 20/ RMK SF2SC4AC1

CYYG;2008-07-15 08:00;CYYG 150800Z 20006KT 15SM FEW008 BKN014 BKN140 20/19 A2993 RMK SF2SC4AC1 SLP134

CYYG;2008-07-15 09:00;CYYG 150900Z 21006KT 12SM BKN012 BKN075 20/19 A2995 RMK SC6AC1 SLP141

CYYG;2008-07-15 10:00;CYYG 151000Z 19006KT 12SM BKN009 OVC014 20/19 A2996 RMK SC7SC1 SLP147

CYYG;2008-07-15 10:44;CYYG 151044Z 19007KT 10SM -SHRA BKN008 OVC086 20/ RMK SF6AC2

CYYG;2008-07-15 11:00;CYYG 151100Z 21007KT 10SM -SHRA BKN008 OVC090 21/19 A2997 RMK SF7AC1 SLP150

CYYG;2008-07-15 11:08;CYYG 151108Z 20007KT 10SM -SHRA BKN006 OVC016 21/ RMK SF7SC1

CYYG;2008-07-15 12:00;CYYG 151200Z 20009KT 10SM -SHRA OVC006 21/19 A2998 RMK SF8 SLP154

CYYG;2008-07-15 12:39;CYYG 151239Z 21008KT 12SM BKN007 OVC012 21/ RMK SF7SC1

CYYG;2008-07-15 13:00;CYYG 151300Z 21010KT 12SM BKN007 OVC045 22/20 A2998 RMK SF7SC1 SLP154

CYYG;2008-07-15 13:35;CYYG 151335Z 20008KT 10SM -SHRA SCT008 OVC040 22/ RMK SF3SC5

CYYG;2008-07-15 13:51;CYYG 151351Z 22007KT 8SM -SHRA BKN007 OVC040 21/ RMK SF6SC2

CYYG;2008-07-15 14:00;CYYG 151400Z 21007KT 8SM -SHRA BKN007 OVC040 21/20 A2999 RMK SF6SC2 SLP157

CYYG;2008-07-15 14:23;CYYG 151423Z 19007KT 5SM -SHRA BR OVC006 21/ RMK SF8

CYYG;2008-07-15 14:42;CYYG 151442Z 19009KT 6SM -SHRA BR FEW005 OVC010 21/ RMK SF2SC6

CYYG;2008-07-15 15:00;CYYG 151500Z 21008KT 6SM BR FEW005 SCT010 BKN052 22/20 A3000 RMK SF2SC2SC2 SLP159

CYYG;2008-07-15 15:31;CYYG 151531Z 19008KT 8SM BKN007 BKN050 22/ RMK SF6SC2

CYYG;2008-07-15 16:00;CYYG 151600Z 22009KT 10SM BKN007 BKN050 BKN250 23/20 A3000 RMK SC6SC2CI1 SLP160

CYYG;2008-07-15 16:44;CYYG 151644Z 21008KT 15SM SCT008 BKN050 BKN250 23/ RMK SF3SC4CI1

CYYG;2008-07-15 17:00;CYYG 151700Z 20009KT 15SM SCT010 BKN055 BKN250 23/20 A3000 RMK SC4SC2CI1 SLP160

CYYG;2008-07-15 18:00;CYYG 151800Z 22008KT 15SM FEW012 BKN062 23/20 A3001 RMK SC2SC6 SLP161

CYYG;2008-07-15 19:00;CYYG 151900Z 22008KT 15SM FEW013 BKN075 BKN250 25/21 A3001 RMK SC1AC5CI2 SLP161

CYYG;2008-07-15 20:00;CYYG 152000Z 21010KT 15SM FEW020 FEW075 BKN250 25/20 A3001 RMK CU1AC1CI4 SLP161

CYYG;2008-07-15 21:00;CYYG 152100Z 21010KT 15SM FEW075 BKN250 25/20 A3002 RMK AC1CS5 SLP165

CYYG;2008-07-15 22:00;CYYG 152200Z 21007KT 15SM FEW150 BKN250 24/20 A3003 RMK AC2CS4 ACC ASOCTD SLP168

CYYG;2008-07-15 23:00;CYYG 152300Z 21007KT 15SM FEW150 BKN250 24/19 A3003 RMK AC2CI3 SLP170

CYYG;2008-07-16 00:00;CYYG 160000Z 24004KT 15SM SCT150 BKN250 22/19 A3006 RMK AC4CI2 SLP178

CYYG;2008-07-16 01:00;CYYG 160100Z 23005KT 15SM FEW150 BKN250 21/17 A3008 RMK AC2CI2 SLP187

CYYG;2008-07-16 02:00;CYYG 160200Z CCA 22005KT 15SM SCT150 BKN250 21/16 A3009 RMK AC3CI2 SLP189

CYYG;2008-07-16 03:00;CYYG 160300Z 24005KT 15SM SCT150 BKN250 20/15 A3009 RMK AC3CI1 SLP189

CYYG;2008-07-16 04:00;CYYG 160400Z 23008KT 15SM FEW150 SCT250 20/14 A3009 RMK AC2CI0 SLP191

CYYG;2008-07-16 05:00;CYYG 160500Z 24006KT 15SM FEW055 SCT150 19/14 A3009 RMK SC2AC2 SLP191

CYYG;2008-07-16 06:00;CYYG 160600Z 24006KT 15SM FEW060 19/14 A3010 RMK SC2 SLP194

CYYG;2008-07-16 07:00;CYYG 160700Z 25009KT 15SM FEW080 18/14 A3010 RMK AC2 SLP194

CYYG;2008-07-16 08:00;CYYG 160800Z 25008KT 15SM FEW080 18/14 A3011 RMK AC2 SLP197

CYYG;2008-07-16 09:00;CYYG 160900Z 25002KT 15SM FEW024 FEW080 16/14 A3013 RMK SF1AC1 SLP204

CYYG;2008-07-16 10:00;CYYG 161000Z 23003KT 15SM FEW080 18/15 A3014 RMK AC1 SLP207

CYYG;2008-07-16 11:00;CYYG 161100Z 22004KT 15SM FEW080 FEW300 20/15 A3016 RMK AC1CI1 SLP213

CYYG;2008-07-16 12:00;CYYG 161200Z 23002KT 15SM FEW080 FEW300 21/16 A3017 RMK AC1CI1 SLP215

CYYG;2008-07-16 13:00;CYYG 161300Z 22003KT 15SM FEW080 FEW300 23/17 A3016 RMK AC1CI1 SLP214

CYYG;2008-07-16 14:00;CYYG 161400Z 18004KT 15SM FEW090 FEW300 24/18 A3016 RMK AC1CI1 SLP213

CYYG;2008-07-16 15:00;CYYG 161500Z 17007KT 15SM FEW035 FEW300 26/17 A3016 RMK SC1CI0 SLP212

CYYG;2008-07-16 16:00;CYYG 161600Z 18007KT 15SM FEW040 FEW300 25/15 A3015 RMK SC1CI0 SLP211

CYYG;2008-07-16 17:00;CYYG 161700Z 19006KT 15SM FEW040 27/15 A3015 RMK SC1 SLP209

CYYG;2008-07-16 18:00;CYYG 161800Z 19005KT 15SM FEW040 FEW300 28/15 A3014 RMK CU1CI1 SLP205

CYYG;2008-07-16 19:00;CYYG 161900Z 19005KT 15SM FEW050 FEW300 28/15 A3013 RMK SC1CI1 SLP203

CYYG;2008-07-16 20:00;CYYG 162000Z 16005KT 15SM FEW050 FEW300 28/14 A3012 RMK SC1CI1 SLP200

CYYG;2008-07-16 21:00;CYYG 162100Z 21004KT 15SM FEW050 FEW300 28/15 A3012 RMK SC1CI1 SLP198

CYYG;2008-07-16 22:00;CYYG 162200Z 19006KT 15SM FEW050 FEW300 27/15 A3011 RMK SC1CI1 SLP195

CYYG;2008-07-16 23:00;CYYG 162300Z 17005KT 15SM FEW300 25/15 A3011 RMK CI1 SLP195

CYYG;2008-07-17 00:00;CYYG 170000Z 21004KT 15SM FEW300 23/16 A3011 RMK CI1 SLP196

CYYG;2008-07-17 01:00;CYYG 170100Z 22006KT 15SM FEW300 22/15 A3013 RMK CI1 SLP202

CYYG;2008-07-17 02:00;CYYG 170200Z 23004KT 15SM FEW300 21/16 A3012 RMK CI1 SLP201

CYYG;2008-07-17 03:00;CYYG 170300Z 25004KT 15SM FEW280 21/15 A3012 RMK CC2 SLP198

CYYG;2008-07-17 04:00;CYYG 170400Z 28004KT 15SM FEW280 20/14 A3010 RMK CC2 SLP194

CYYG;2008-07-17 05:00;CYYG 170500Z 20004KT 15SM FEW280 18/14 A3011 RMK CC2 SLP196

CYYG;2008-07-17 06:00;CYYG 170600Z 22004KT 15SM FEW280 19/13 A3010 RMK CC2 SLP194

CYYG;2008-07-17 07:00;CYYG 170700Z 21007KT 15SM FEW280 18/13 A3009 RMK CI2 SLP190

CYYG;2008-07-17 08:00;CYYG 170800Z 20007KT 15SM FEW280 18/14 A3009 RMK CI2 SLP189

CYYG;2008-07-17 09:00;CYYG 170900Z 22006KT 15SM SCT280 18/14 A3010 RMK CI2 SLP193

CYYG;2008-07-17 10:00;CYYG 171000Z 20005KT 15SM FEW120 BKN240 19/14 A3010 RMK AC2CI2 SLP194

CYYG;2008-07-17 11:00;CYYG 171100Z 25007KT 15SM SCT200 BKN300 20/14 A3012 RMK CC3CI1 SLP199

CYYG;2008-07-17 12:00;CYYG 171200Z 22005KT 15SM FEW050TCU FEW180 BKN300 20/14 A3011 RMK TCU1AC2CI0 TCU DIST NW SLP197

CYYG;2008-07-17 13:00;CYYG 171300Z 22005KT 15SM FEW050CB FEW180 FEW300 22/15 A3010 RMK CB1AC1CI0 CB DIST N SLP194

CYYG;2008-07-17 14:00;CYYG 171400Z 18009KT 15SM FEW050CB FEW100 23/15 A3009 RMK CB1AC1 CB DIST NE AND SE SLP189

CYYG;2008-07-17 15:00;CYYG 171500Z 20009KT 15SM FEW050CB FEW100 23/15 A3008 RMK CB1AC1 CB DIST SE SLP187

CYYG;2008-07-17 16:00;CYYG 171600Z 20012KT 15SM FEW100 FEW300 25/15 A3006 RMK AC1CI1 SLP179

CYYG;2008-07-17 17:00;CYYG 171700Z 20010KT 15SM FEW100 FEW300 27/15 A3004 RMK AC1CI1 SLP174

CYYG;2008-07-17 18:00;CYYG 171800Z 19010KT 15SM FEW100 FEW300 26/15 A3003 RMK AC1CI1 SLP169

CYYG;2008-07-17 19:00;CYYG 171900Z 18008KT 15SM FEW100 FEW300 27/17 A3002 RMK ACC1CI1 SLP166

CYYG;2008-07-17 20:00;CYYG 172000Z 20008KT 15SM SCT081 27/16 A3002 RMK ACC3 SLP165

CYYG;2008-07-17 21:00;CYYG 172100Z 22012KT 15SM FEW080 FEW300 28/15 A3000 RMK ACC1CI1 SLP159

CYYG;2008-07-17 22:00;CYYG 172200Z 25007KT 15SM FEW040TCU BKN078 BKN300 26/15 A3001 RMK TCU2ACC4CI1 TCU W SLP161

CYYG;2008-07-17 23:00;CYYG 172300Z 26005KT 15SM FEW040 BKN082 BKN280 25/15 A3001 RMK SC2ACC4CI2 SLP160

CYYG;2008-07-18 00:00;CYYG 180000Z 23005KT 15SM BKN084 BKN280 24/15 A3001 RMK AC5CI2 SLP162

CYYG;2008-07-18 01:00;CYYG 180100Z 19006KT 15SM BKN083 BKN280 22/15 A3002 RMK AC5CI2 SLP165

CYYG;2008-07-18 02:00;CYYG 180200Z 23006KT 15SM BKN083 BKN280 23/14 A3002 RMK AC5CI2 SLP165

CYYG;2008-07-18 03:00;CYYG 180300Z 22008KT 15SM BKN076 BKN280 22/14 A3002 RMK AC5CI2 SLP165

CYYG;2008-07-18 04:00;CYYG 180400Z 23010KT 15SM SCT075 BKN280 20/14 A3001 RMK AC4CI2 SLP161

CYYG;2008-07-18 05:00;CYYG 180500Z 25010KT 15SM SCT075 BKN280 19/14 A2999 RMK AC4CI2 SLP157

CYYG;2008-07-18 06:00;CYYG 180600Z 27006KT 15SM SCT075 BKN280 18/15 A2998 RMK AC3CI2 SLP153

CYYG;2008-07-18 07:00;CYYG 180700Z 25005KT 15SM FEW075 BKN180 18/16 A2998 RMK AC2AC3 SLP151

CYYG;2008-07-18 08:00;CYYG 180800Z 25007KT 15SM FEW075 BKN180 18/16 A2999 RMK AC2AC4 SLP156

CYYG;2008-07-18 09:00;CYYG 180900Z 27005KT 15SM FEW075 BKN140 17/15 A2999 RMK AC2AC6 SLP156

CYYG;2008-07-18 10:00;CYYG 181000Z 26003KT 15SM FEW075 BKN170 18/16 A3000 RMK AC2AC5 SLP158

CYYG;2008-07-18 11:00;CYYG 181100Z 26003KT 15SM FEW010 FEW060TCU SCT160 19/16 A3000 RMK SC1TCU1AC3 SLP160

CYYG;2008-07-18 12:00;CYYG 181200Z 27004KT 15SM FEW010 SCT065TCU BKN180 BKN300 22/17 A3001 RMK SC1TCU3AC2CI0 SLP160

CYYG;2008-07-18 13:00;CYYG 181300Z 31002KT 15SM FEW070 SCT090 BKN160 BKN300 23/17 A2999 RMK ACC2AC2AC2CI0 SLP156

CYYG;2008-07-18 14:00;CYYG 181400Z 02002KT 15SM FEW015 FEW060TCU BKN080 BKN300 23/16 A2999 RMK CF1TCU2AC6CI1 SLP155

CYYG;2008-07-18 15:00;CYYG 181500Z 01004KT 15SM FEW020 FEW070 BKN170 BKN300 23/16 A2999 RMK CU1ACC2AC5CI0 SLP157

CYYG;2008-07-18 16:00;CYYG 181600Z 06003KT 15SM FEW025 FEW120 BKN270 24/16 A2999 RMK CU1AC2CI2 TCU ASOCTD SLP155

CYYG;2008-07-18 17:00;CYYG 181700Z 17002KT 15SM FEW030 SCT120 BKN270 25/15 A2996 RMK CU2AC2CI1 TCU ASOCTD SLP146

CYYG;2008-07-18 18:00;CYYG 181800Z 33003KT 15SM SCT040 BKN110 BKN270 25/16 A2996 RMK CU3AC2CI1 SLP146

CYYG;2008-07-18 19:00;CYYG 181900Z 08006KT 15SM SCT040 BKN060 BKN140 24/17 A2995 RMK CU3SC2AC2 SLP143

CYYG;2008-07-18 20:00;CYYG 182000Z 00000KT 15SM FEW040 SCT082 BKN220 24/17 A2995 RMK CU1AC2CS4 TCU DIST SE-S SLP142

CYYG;2008-07-18 21:00;CYYG 182100Z 01003KT 15SM FEW040TCU SCT082 OVC180 22/16 A2995 RMK TCU1AC2AS5 TCU DIST SE-S SLP141

CYYG;2008-07-18 22:00;CYYG 182200Z 02004KT 15SM FEW090 BKN150 22/15 A2995 RMK AC2AS6 SLP142

CYYG;2008-07-18 23:00;CYYG 182300Z 09003KT 15SM SCT150 BKN220 21/16 A2994 RMK AS4CI3 SLP138

CYYG;2008-07-19 00:00;CYYG 190000Z 09003KT 15SM BKN100 BKN150 20/16 A2994 RMK AC5AS2 SLP138

CYYG;2008-07-19 00:54;CYYG 190054Z 15002KT 15SM -SHRA SCT070 OVC110 20/ RMK AC3AC5

CYYG;2008-07-19 01:00;CYYG 190100Z 14003KT 15SM -SHRA SCT070 OVC100 20/16 A2994 RMK AC3AC5 SLP139

CYYG;2008-07-19 01:12;CYYG 190112Z 16003KT 15SM BKN100 20/ RMK AC7

CYYG;2008-07-19 02:00;CYYG 190200Z 25003KT 15SM BKN091 20/17 A2994 RMK AC7 SLP139

CYYG;2008-07-19 02:40;CYYG 190240Z 24005KT 12SM -SHRA OVC077 20/ RMK AC8

CYYG;2008-07-19 03:00;CYYG 190300Z 25005KT 12SM -SHRA OVC061 20/17 A2994 RMK SC8 SLP138

CYYG;2008-07-19 04:00;CYYG 190400Z 29004KT 10SM -SHRA OVC064 19/17 A2993 RMK SC8 SLP137

CYYG;2008-07-19 05:00;CYYG 190500Z 34004KT 10SM -SHRA OVC057 17/16 A2991 RMK SC8 SLP130

CYYG;2008-07-19 06:00;CYYG 190600Z 00000KT 10SM -SHRA SCT023 OVC055 17/16 A2989 RMK SC4SC4 SLP122

CYYG;2008-07-19 06:23;CYYG 190623Z 00000KT 6SM -SHRA BR BKN018 OVC045 17/ RMK SC6SC2

CYYG;2008-07-19 06:48;CYYG 190648Z 14002KT 6SM RA BR BKN018 OVC030 17/ RMK SC6SC2

CYYG;2008-07-19 07:00;CYYG 190700Z 13002KT 6SM RA BR SCT018 OVC029 17/16 A2987 RMK SC4SC4 SLP116

CYYG;2008-07-19 08:00;CYYG 190800Z 12004KT 3SM -RA BR OVC015 17/16 A2985 RMK SC8 RERA SLP109

CYYG;2008-07-19 08:20;CYYG 190820Z 13004KT 4SM -RA BR SCT004 OVC012 17/ RMK SF3SC5

CYYG;2008-07-19 08:47;CYYG 190847Z 13002KT 4SM -RA BR BKN003 OVC011 17/ RMK SF6SC2

CYYG;2008-07-19 09:00;CYYG 190900Z 13004KT 4SM -RA BR BKN004 OVC013 17/16 A2985 RMK SF6SC2 SLP109

CYYG;2008-07-19 10:00;CYYG 191000Z 13002KT 4SM -RA BR BKN005 OVC014 17/16 A2985 RMK SF5SC3 SLP110

CYYG;2008-07-19 11:00;CYYG 191100Z 06002KT 4SM -RA BR BKN003 OVC009 17/16 A2985 RMK SF5SF3 SLP109

CYYG;2008-07-19 11:36;CYYG 191136Z 05004KT 10SM FEW003 OVC012 18/ RMK SF2SF6

CYYG;2008-07-19 12:00;CYYG 191200Z 01003KT 15SM BKN003 OVC009 18/17 A2985 RMK SF6SF2 SLP109

CYYG;2008-07-19 13:00;CYYG 191300Z 02003KT 15SM BKN005 OVC013 18/17 A2986 RMK SF5SC3 SLP111

CYYG;2008-07-19 13:27;CYYG 191327Z 04003KT 15SM SCT005 OVC011 18/ RMK SF4SF4

CYYG;2008-07-19 14:00;CYYG 191400Z 02002KT 15SM FEW005 OVC014 19/17 A2986 RMK SF2SC6 SLP112

CYYG;2008-07-19 14:16;CYYG 191416Z 34002KT 15SM -SHRA FEW005 BKN010 OVC017 19/ RMK SF2SF4SC2

CYYG;2008-07-19 15:00;CYYG 191500Z 04002KT 15SM SCT007 BKN014 BKN120 20/18 A2985 RMK SF4SC2AC2 SLP107

CYYG;2008-07-19 16:00;CYYG 191600Z 36004KT 15SM BKN012 20/18 A2986 RMK SC7 SLP110

CYYG;2008-07-19 17:00;CYYG 191700Z 36005KT 15SM BKN012TCU BKN032 21/17 A2986 RMK TCU5SC2 SLP111

CYYG;2008-07-19 18:00;CYYG 191800Z 03006KT 15SM BKN012 BKN038 21/18 A2986 RMK SC5SC2 TCU EMBD SLP112

CYYG;2008-07-19 18:02;CYYG 191802Z 02006KT 15SM -SHRA SCT012TCU OVC036 20/ RMK TCU3SC5

CYYG;2008-07-19 19:00;CYYG 191900Z 03005KT 15SM -SHRA FEW010 FEW020TCU OVC036 20/18 A2987 RMK CF1TCU2SC6 SLP116

CYYG;2008-07-19 20:00;CYYG 192000Z 05004KT 15SM FEW011 FEW020TCU BKN100 20/18 A2987 RMK CU1TCU1AC5 SLP116

CYYG;2008-07-19 21:00;CYYG 192100Z 08002KT 15SM FEW014 BKN098 21/17 A2987 RMK CU2AC4 TCU SE SLP115

CYYG;2008-07-19 22:00;CYYG 192200Z 08005KT 15SM FEW020TCU SCT098 21/17 A2987 RMK TCU2AC1 SLP116

CYYG;2008-07-19 23:00;CYYG 192300Z 08003KT 15SM FEW030TCU SCT110 20/17 A2988 RMK TCU2AC2 SLP120

CYYG;2008-07-20 00:00;CYYG 200000Z CCA 00000KT 15SM SCT015 BKN110 18/17 A2990 RMK SC3AC2 TCU EMBD SLP124

CYYG;2008-07-20 01:00;CYYG 200100Z 16003KT 15SM SCT015 BKN110 18/17 A2991 RMK SC3AC2 SLP129

CYYG;2008-07-20 02:00;CYYG 200200Z 20004KT 15SM FEW018 BKN130 18/17 A2992 RMK SC2AC2 SLP131

CYYG;2008-07-20 03:00;CYYG 200300Z 18003KT 15SM SCT120 17/17 A2992 RMK AC4 SLP131

CYYG;2008-07-20 04:00;CYYG 200400Z 18003KT 15SM SCT130 18/17 A2991 RMK AC4 SLP130

CYYG;2008-07-20 05:00;CYYG 200500Z 21005KT 15SM SCT120 17/16 A2993 RMK AC3 SLP135

CYYG;2008-07-20 06:00;CYYG 200600Z 18002KT 15SM SCT120 16/15 A2992 RMK AC3 SLP132

CYYG;2008-07-20 07:00;CYYG 200700Z 15004KT 15SM BKN083 16/15 A2992 RMK AC5 SLP132

CYYG;2008-07-20 08:00;CYYG 200800Z 00000KT 15SM BKN083 16/15 A2993 RMK AC6 SLP137

CYYG;2008-07-20 09:00;CYYG 200900Z 15002KT 15SM FEW100 BKN140 16/15 A2994 RMK AC2AC5 SLP140

CYYG;2008-07-20 10:00;CYYG 201000Z 13003KT 15SM FEW030TCU FEW110 BKN140 17/16 A2996 RMK TCU1AC2AC4 SLP144

CYYG;2008-07-20 11:00;CYYG 201100Z 14004KT 15SM FEW030 BKN110 BKN140 18/17 A2996 RMK CU1AC4AC2 SLP146

CYYG;2008-07-20 12:00;CYYG 201200Z 18006KT 15SM FEW030 BKN100 BKN140 20/17 A2996 RMK CU1AC4AC1 SLP147

CYYG;2008-07-20 13:00;CYYG 201300Z 20007KT 15SM FEW015 BKN100 BKN200 21/17 A2998 RMK CU2AC3CI1 SLP151

CYYG;2008-07-20 14:00;CYYG 201400Z 16007KT 15SM FEW015 BKN100 BKN200 22/16 A2998 RMK SC2AC4CI1 SLP151

CYYG;2008-07-20 15:00;CYYG 201500Z 18007KT 15SM FEW015 BKN100 BKN200 23/17 A2997 RMK SC2AC3CI2 SLP150

CYYG;2008-07-20 16:00;CYYG 201600Z 17010KT 15SM FEW015 BKN100 OVC200 23/16 A2997 RMK SC2AC4CI1 SLP148

CYYG;2008-07-20 17:00;CYYG 201700Z 16009KT 15SM FEW028 SCT110 BKN220 24/15 A2996 RMK CU2AC2CI2 SLP147

CYYG;2008-07-20 18:00;CYYG 201800Z 18007KT 15SM FEW030 SCT110 BKN230 24/17 A2996 RMK CU2AC2CI2 SLP145

CYYG;2008-07-20 19:00;CYYG 201900Z 17008KT 15SM FEW028 SCT110 OVC230 23/18 A2996 RMK CU2AC2CI2 SLP144

CYYG;2008-07-20 20:00;CYYG 202000Z 17007KT 15SM FEW030 SCT110 OVC230 23/18 A2996 RMK CU2AC2CI2 SLP144

CYYG;2008-07-20 21:00;CYYG 202100Z 18007KT 15SM BKN039 OVC230 23/18 A2994 RMK SC6CI2 SLP140

CYYG;2008-07-20 22:00;CYYG 202200Z 16010KT 15SM SCT037 OVC230 23/18 A2993 RMK SC4CS4 SLP135

CYYG;2008-07-20 23:00;CYYG 202300Z 14006KT 15SM FEW025 OVC040 22/18 A2993 RMK SC2SC6 SLP137

CYYG;2008-07-21 00:00;CYYG 210000Z 14006KT 15SM OVC025 21/18 A2994 RMK SC8 SLP138

CYYG;2008-07-21 01:00;CYYG 210100Z 14006KT 15SM BKN022 OVC040 21/18 A2994 RMK SC7SC1 SLP140

CYYG;2008-07-21 02:00;CYYG 210200Z 16008KT 15SM BKN018 OVC035 21/18 A2994 RMK SC7SC1 SLP139

CYYG;2008-07-21 03:00;CYYG 210300Z 17008KT 12SM OVC017 20/18 A2993 RMK SC8 SLP137

CYYG;2008-07-21 04:00;CYYG 210400Z 17009KT 12SM OVC014 20/18 A2992 RMK SC8 SLP131

CYYG;2008-07-21 05:00;CYYG 210500Z 18009KT 12SM FEW008 OVC013 19/18 A2992 RMK SF2SC6 SLP132

CYYG;2008-07-21 06:00;CYYG 210600Z 17007KT 10SM SCT008 OVC011 19/18 A2990 RMK SF3SC5 SLP124

CYYG;2008-07-21 07:00;CYYG 210700Z 17008KT 10SM OVC008 19/17 A2989 RMK SF8 SLP121

CYYG;2008-07-21 08:00;CYYG 210800Z 18008KT 10SM OVC008 19/17 A2989 RMK SF8 SLP121

CYYG;2008-07-21 08:37;CYYG 210837Z 19007KT 5SM -SHRA OVC007 19/ RMK SF8

CYYG;2008-07-21 09:00;CYYG 210900Z 17007KT 5SM -SHRA BR BKN008 OVC080 19/18 A2990 RMK SF6AC2 SLP123

CYYG;2008-07-21 10:00;CYYG 211000Z 15004KT 5SM -SHRA BR FEW008 SCT030 OVC090 18/18 A2989 RMK SF2SC2AC4 SLP122

CYYG;2008-07-21 10:14;CYYG 211014Z 15004KT 5SM -SHRA BR OVC005 19/ RMK SF8 CIG RAG

CYYG;2008-07-21 11:00;CYYG 211100Z 14005KT 6SM -SHRA BR OVC004 19/18 A2988 RMK SF8 SLP118

CYYG;2008-07-21 12:00;CYYG 211200Z 11003KT 5SM -SHRA BR BKN005 OVC065 19/18 A2987 RMK SF7SC1 SLP115

CYYG;2008-07-21 12:48;CYYG 211248Z 12006KT 6SM -SHRA BR SCT005 OVC065 18/ RMK SF4SC4

CYYG;2008-07-21 13:00;CYYG 211300Z 12004KT 6SM -SHRA BR SCT005 OVC068 18/18 A2985 RMK SF3AC5 SLP109

CYYG;2008-07-21 13:37;CYYG 211337Z 12004KT 6SM -SHRA BR BKN006 BKN030 OVC068 18/ RMK SF5SC2AC2

CYYG;2008-07-21 14:00;CYYG 211400Z 11004KT 4SM -SHRA BR BKN006 BKN030 OVC060 18/17 A2986 RMK SF5SC2SC2 SLP113

CYYG;2008-07-21 15:00;CYYG 211500Z 06008KT 2SM R03/4500VP6000FT/U -SHRA BR BKN006 OVC030 19/18 A2985 RMK SF6SC2 SLP108

CYYG;2008-07-21 16:00;CYYG 211600Z 09010KT 1 1/2SM -SHRA BR SCT006 OVC026 19/18 A2983 RMK SF4SC4 SLP102

CYYG;2008-07-21 16:28;CYYG 211628Z 12012G21KT 8SM -SHRA FEW006 BKN025 OVC057 19/ RMK SF2SC2SC3

CYYG;2008-07-21 17:00;CYYG 211700Z 10011KT 12SM -SHRA FEW006 BKN044 OVC070 20/19 A2981 RMK SF2SC3AC2 SLP096

CYYG;2008-07-21 17:50;CYYG 211750Z 10010G16KT 15SM FEW007 SCT015 OVC044 21/ RMK SF2SC2SC4

CYYG;2008-07-21 18:00;CYYG 211800Z 09011G16KT 15SM FEW008 BKN032 OVC050 20/18 A2983 RMK SF2SC4SC2 SLP101

CYYG;2008-07-21 19:00;CYYG 211900Z 08006KT 15SM FEW008 OVC030 20/18 A2984 RMK SF2SC6 SLP105

CYYG;2008-07-21 20:00;CYYG 212000Z 05007KT 15SM FEW009 OVC020 19/18 A2985 RMK SF2SC6 SLP108

CYYG;2008-07-21 21:00;CYYG 212100Z 07010KT 15SM FEW009 BKN015 OVC040 20/18 A2986 RMK SF2SC2SC3 SLP111

CYYG;2008-07-21 22:00;CYYG 212200Z 04008KT 15SM FEW009 BKN017 OVC070 19/18 A2986 RMK SF2SC4AC2 SLP112

CYYG;2008-07-21 22:51;CYYG 212251Z 04006KT 15SM -SHRA BKN008 BKN017 19/ RMK SF6SC2

CYYG;2008-07-21 23:00;CYYG 212300Z 06004KT 15SM -SHRA BKN007 BKN016 19/18 A2987 RMK SF6SC2 SLP114

CYYG;2008-07-21 23:22;CYYG 212322Z 03007KT 15SM VCSH BKN007 BKN017 19/ RMK SF6SC2

CYYG;2008-07-21 23:52;CYYG 212352Z 04005KT 10SM -SHRA SCT006 OVC015 19/ RMK SF4SC4

CYYG;2008-07-22 00:00;CYYG 220000Z 05004KT 10SM -SHRA SCT006 OVC015 19/18 A2989 RMK SF4SC4 SLP123

CYYG;2008-07-22 00:29;CYYG 220029Z 04004KT 15SM FEW007 BKN029 18/ RMK SF2SC5

CYYG;2008-07-22 01:00;CYYG 220100Z 02003KT 15SM BKN007 BKN018 18/17 A2989 RMK SF6SC2 SLP123

CYYG;2008-07-22 02:00;CYYG 220200Z 02004KT 15SM BKN007 BKN016 18/17 A2990 RMK SF6SC1 SLP125

CYYG;2008-07-22 02:04;CYYG 220204Z 01002KT 15SM FEW007 BKN016 18/ RMK SF2SC6

CYYG;2008-07-22 03:00;CYYG 220300Z 04007KT 15SM FEW010 OVC016 18/17 A2989 RMK SF2SC6 SLP121

CYYG;2008-07-22 03:46;CYYG 220346Z 01002KT 10SM -DZ BKN007 OVC011 18/ RMK SF6SF2

CYYG;2008-07-22 04:00;CYYG 220400Z 01004KT 10SM -DZ OVC008 18/17 A2991 RMK SF8 SLP130

CYYG;2008-07-22 05:00;CYYG 220500Z 04006KT 10SM -DZ BKN005 OVC015 17/17 A2990 RMK SF6SC2 SLP126

CYYG;2008-07-22 06:00;CYYG 220600Z 06004KT 10SM -DZ BKN004 OVC015 17/17 A2993 RMK SF6SC2 SLP135

CYYG;2008-07-22 07:00;CYYG 220700Z 04009KT 5SM -DZ BR BKN004 OVC016 17/16 A2992 RMK SF6SC2 SLP133

CYYG;2008-07-22 08:00;CYYG 220800Z 05009KT 10SM -DZ BKN005 OVC020 17/16 A2994 RMK SF6SC2 SLP139

CYYG;2008-07-22 09:00;CYYG 220900Z 06009KT 3SM -DZ BR BKN004 OVC013 17/16 A2996 RMK SF6SC2 SLP144

CYYG;2008-07-22 09:07;CYYG 220907Z 06007KT 10SM FEW004 BKN015 17/ RMK SF2SC5 VIS SE-SW 5

CYYG;2008-07-22 10:00;CYYG 221000Z 05007KT 15SM FEW008 BKN016 17/16 A2996 RMK SF1SC6 SLP144

CYYG;2008-07-22 11:00;CYYG 221100Z 06008KT 15SM FEW008 OVC016 18/16 A2997 RMK SF1SC8 SLP148

CYYG;2008-07-22 12:00;CYYG 221200Z 07008G15KT 15SM FEW009 BKN018 18/15 A2998 RMK SF1SC7 SLP154

CYYG;2008-07-22 13:00;CYYG 221300Z 05009KT 15SM FEW012 BKN018 19/15 A2998 RMK SF1SC7 SLP152

CYYG;2008-07-22 14:00;CYYG 221400Z 04013KT 15SM OVC015 19/16 A2998 RMK SC8 SLP153

CYYG;2008-07-22 15:00;CYYG 221500Z 07011KT 15SM OVC017 19/15 A3000 RMK SC8 SLP158

CYYG;2008-07-22 16:00;CYYG 221600Z 06011KT 15SM OVC017 20/16 A2999 RMK SC8 SLP155

CYYG;2008-07-22 17:00;CYYG 221700Z 05011G17KT 15SM OVC020 20/15 A2999 RMK SC8 SLP155

CYYG;2008-07-22 18:00;CYYG 221800Z 04015KT 15SM BKN019 BKN025 20/16 A2999 RMK CU5SC2 SLP155

CYYG;2008-07-22 19:00;CYYG 221900Z 05013G18KT 15SM BKN019 20/16 A2997 RMK SC7 SLP150

CYYG;2008-07-22 20:00;CYYG 222000Z 04013KT 15SM BKN016 19/15 A2998 RMK SC7 SLP152

CYYG;2008-07-22 21:00;CYYG 222100Z 05013KT 15SM BKN016 19/15 A2996 RMK SC7 SLP147

CYYG;2008-07-22 22:00;CYYG 222200Z 05010G15KT 15SM OVC017 19/15 A2996 RMK SC8 SLP147

CYYG;2008-07-22 22:29;CYYG 222229Z 05010KT 15SM OVC014 18/ RMK SC8

CYYG;2008-07-22 23:00;CYYG 222300Z 04012KT 15SM BKN010 18/16 A2996 RMK SC7 SLP147

CYYG;2008-07-22 23:19;CYYG 222319Z 05008KT 15SM BKN007 BKN017 18/ RMK SF6SC2

CYYG;2008-07-23 00:00;CYYG 230000Z 04008KT 15SM OVC008 18/16 A2997 RMK SF8 SLP149

CYYG;2008-07-23 00:04;CYYG 230004Z 04010KT 15SM FEW008 OVC014 18/ RMK SF2SC6

CYYG;2008-07-23 00:46;CYYG 230046Z 04008KT 15SM OVC009 18/ RMK SF8

CYYG;2008-07-23 01:00;CYYG 230100Z 03008KT 15SM OVC009 18/16 A2998 RMK SF8 SLP153

CYYG;2008-07-23 02:00;CYYG 230200Z 02010KT 15SM OVC008 17/16 A2999 RMK SF8 SLP155

CYYG;2008-07-23 02:04;CYYG 230204Z 02008KT 5SM -DZ BR OVC007 17/ RMK ST8

CYYG;2008-07-23 02:39;CYYG 230239Z 03010KT 6SM -DZ BR OVC004 17/ RMK ST8

CYYG;2008-07-23 03:00;CYYG 230300Z 04010KT 6SM -DZ BR BKN004 OVC012 17/17 A2998 RMK SF6SC2 SLP153

CYYG;2008-07-23 03:29;CYYG 230329Z 04008KT 15SM BKN004 OVC012 17/ RMK SF6SC2

CYYG;2008-07-23 03:49;CYYG 230349Z 04007KT 5SM -DZ BR OVC005 17/ RMK SF8

CYYG;2008-07-23 04:00;CYYG 230400Z 04007KT 5SM -DZ BR OVC005 17/17 A2998 RMK SF8 SLP153

CYYG;2008-07-23 05:00;CYYG 230500Z 04007KT 5SM -DZ BR BKN003 OVC007 17/17 A2999 RMK SF6SF2 SLP157

CYYG;2008-07-23 06:00;CYYG 230600Z 05008KT 10SM -DZ BKN003 BKN009 BKN028 17/17 A2998 RMK SF5SF1SC1 SLP153

CYYG;2008-07-23 06:24;CYYG 230624Z 05009KT 15SM BKN004 BKN008 BKN027 17/ RMK SF5SF2SC1

CYYG;2008-07-23 07:00;CYYG 230700Z 03007KT 15SM BKN006 BKN014 OVC024 17/17 A3000 RMK SF6SC2SC1 SLP159

CYYG;2008-07-23 07:38;CYYG 230738Z 02006KT 6SM -DZ BR OVC007 17/ RMK SF8

CYYG;2008-07-23 08:00;CYYG 230800Z 02008KT 5SM -DZ BR FEW006 OVC009 17/17 A3002 RMK SF2SF6 SLP167

CYYG;2008-07-23 09:00;CYYG 230900Z 02007KT 10SM -DZ OVC005 17/17 A3004 RMK SF8 SLP174

CYYG;2008-07-23 10:00;CYYG 231000Z 03008KT 10SM -DZ OVC005 18/17 A3005 RMK SF8 SLP175

CYYG;2008-07-23 10:40;CYYG 231040Z 05007KT 10SM OVC006 18/ RMK SF8

CYYG;2008-07-23 11:00;CYYG 231100Z 05005KT 10SM OVC006 18/17 A3007 RMK SF8 SLP184

CYYG;2008-07-23 11:32;CYYG 231132Z 04008KT 10SM -DZ OVC007 18/ RMK SF8 VIS LWR NW-NE

CYYG;2008-07-23 11:49;CYYG 231149Z 04007KT 2 1/2SM -DZ BR OVC007 18/ RMK SF8

CYYG;2008-07-23 12:00;CYYG 231200Z 05010KT 2SM -DZ BR OVC007 18/17 A3010 RMK SF8 SLP192

CYYG;2008-07-23 12:27;CYYG 231227Z 04008KT 15SM BKN007 OVC020 18/ RMK SF6SC2 VIS LWR NE-SE

CYYG;2008-07-23 13:00;CYYG 231300Z 04011KT 6SM -DZ BR BKN007 OVC021 18/17 A3012 RMK SF6SC2 SLP200

CYYG;2008-07-23 14:00;CYYG 231400Z 04012KT 12SM -DZ BKN008 OVC020 19/17 A3014 RMK SF6SC2 SLP205

CYYG;2008-07-23 14:18;CYYG 231418Z 04011G16KT 12SM BKN008 OVC020 19/ RMK SF6SC2

CYYG;2008-07-23 15:00;CYYG 231500Z 05012KT 15SM OVC011 20/17 A3015 RMK SC8 SLP209

CYYG;2008-07-23 15:40;CYYG 231540Z 06010KT 15SM OVC015 20/ RMK SC8

CYYG;2008-07-23 16:00;CYYG 231600Z 03012KT 15SM OVC015 21/17 A3015 RMK SC8 SLP210

CYYG;2008-07-23 17:00;CYYG 231700Z 05010KT 15SM BKN019 21/17 A3016 RMK SC7 SLP212

CYYG;2008-07-23 18:00;CYYG 231800Z 03009KT 15SM BKN019 BKN280 21/17 A3017 RMK SC6CI1 SLP216

CYYG;2008-07-23 19:00;CYYG 231900Z 03009KT 15SM BKN020 BKN280 22/17 A3018 RMK SC6CI1 SLP220

CYYG;2008-07-23 20:00;CYYG 232000Z 04009KT 15SM BKN023 BKN280 21/18 A3020 RMK SC6CI1 SLP225

CYYG;2008-07-23 21:00;CYYG 232100Z 03007KT 15SM BKN030 BKN280 21/17 A3020 RMK SC6CI1 SLP226

CYYG;2008-07-23 22:00;CYYG 232200Z 02006KT 15SM BKN034 BKN280 20/16 A3021 RMK SC6CI1 SLP229

CYYG;2008-07-23 23:00;CYYG 232300Z 05005KT 15SM FEW015 BKN035 BKN280 19/16 A3022 RMK SC1SC6CI1 SLP232

CYYG;2008-07-24 00:00;CYYG 240000Z 06002KT 15SM FEW015 BKN035 18/16 A3024 RMK SC1SC6 SLP239

CYYG;2008-07-24 01:00;CYYG 240100Z 07004KT 15SM BKN033 18/16 A3025 RMK SC7 SLP242

CYYG;2008-07-24 02:00;CYYG 240200Z 08005KT 15SM BKN030 18/16 A3024 RMK SC7 SLP240

CYYG;2008-07-24 03:00;CYYG 240300Z 00000KT 15SM OVC028 18/15 A3026 RMK SC8 SLP247

CYYG;2008-07-24 04:00;CYYG 240400Z 13002KT 15SM OVC025 18/16 A3026 RMK SC8 SLP248

CYYG;2008-07-24 05:00;CYYG 240500Z 14002KT 15SM FEW015 BKN024 17/16 A3027 RMK SC1SC4 SLP249

CYYG;2008-07-24 06:00;CYYG 240600Z 14003KT 15SM FEW015 FEW025 16/15 A3027 RMK SC1SC1 SLP249

CYYG;2008-07-24 07:00;CYYG 240700Z 00000KT 12SM FEW015 FEW110 15/15 A3028 RMK SC1AC1 SLP253

CYYG;2008-07-24 08:00;CYYG 240800Z 13003KT 12SM FEW015 FEW110 15/15 A3028 RMK SC2AC1 SLP253

CYYG;2008-07-24 09:00;CYYG 240900Z 13002KT 12SM MIFG FEW015 SCT090 BKN280 15/15 A3029 RMK SC2AC2CI0 SLP257

CYYG;2008-07-24 09:51;CYYG 240951Z 11004KT 12SM FEW009 BKN016 BKN030 17/ RMK SF2SC3SC2

CYYG;2008-07-24 10:00;CYYG 241000Z 12002KT 15SM BKN008 BKN028 17/17 A3030 RMK SF5SC2 SLP261

CYYG;2008-07-24 11:00;CYYG 241100Z 12005KT 15SM SCT005 SCT028 18/17 A3030 RMK SF4SC1 SLP260

CYYG;2008-07-24 11:36;CYYG 241136Z 14005KT 15SM BKN006 20/ RMK SF6

CYYG;2008-07-24 12:00;CYYG 241200Z 16006KT 15SM BKN008 BKN025 20/19 A3031 RMK SF5SC1 SLP263

CYYG;2008-07-24 12:30;CYYG 241230Z 18009KT 15SM SCT008 SCT040 BKN300 22/ RMK SF3SC1CI3

CYYG;2008-07-24 13:00;CYYG 241300Z 15007KT 15SM FEW009 OVC042 22/19 A3032 RMK SF2SC6 SLP268

CYYG;2008-07-24 14:00;CYYG 241400Z 15008KT 15SM FEW009 SCT016 OVC046 22/19 A3033 RMK SF1SC3SC4 SLP269

CYYG;2008-07-24 14:33;CYYG 241433Z 17010KT 15SM OVC013 22/ RMK SC8

CYYG;2008-07-24 15:00;CYYG 241500Z 14009KT 15SM BKN012 OVC027 23/20 A3032 RMK SC6SC0 SLP266

CYYG;2008-07-24 16:00;CYYG 241600Z 18009KT 15SM BKN012 OVC030 23/20 A3032 RMK SC6SC2 SLP266

CYYG;2008-07-24 17:00;CYYG 241700Z 16009KT 15SM SCT012 OVC050 24/21 A3030 RMK SC3SC3 SLP261

CYYG;2008-07-24 18:00;CYYG 241800Z 15011KT 15SM FEW012 SCT050 26/22 A3029 RMK SC1SC2 SLP257

CYYG;2008-07-24 19:00;CYYG 241900Z 18012KT 15SM FEW012 SCT050 27/22 A3028 RMK SC1SC2 HAZY SLP254

CYYG;2008-07-24 20:00;CYYG 242000Z 17011KT 15SM FEW012 FEW050 27/22 A3028 RMK SC1SC2 SLP254

CYYG;2008-07-24 21:00;CYYG 242100Z 17010G15KT 15SM FEW012 27/23 A3027 RMK SC2 SLP250

CYYG;2008-07-24 22:00;CYYG 242200Z 17010KT 15SM FEW015 27/22 A3028 RMK SC2 HAZY SLP252

CYYG;2008-07-24 23:00;CYYG 242300Z 18010KT 10SM FEW015 FEW260 25/22 A3029 RMK SC1CI1 HAZY SLP257

CYYG;2008-07-25 00:00;CYYG 250000Z 17006KT 10SM FEW020 FEW260 24/21 A3030 RMK SC2CI0 CB TOP W HAZY SLP261

CYYG;2008-07-25 01:00;CYYG 250100Z 18010KT 10SM FEW020 FEW260 23/21 A3031 RMK SC2CI0 CB TOP NW HAZY SLP264

CYYG;2008-07-25 02:00;CYYG 250200Z 18011KT 8SM FEW020 FEW260 23/21 A3031 RMK SC1CI0 HAZY SLP263

CYYG;2008-07-25 03:00;CYYG 250300Z 17009KT 10SM FEW015 23/21 A3031 RMK SC2 SLP262

CYYG;2008-07-25 04:00;CYYG 250400Z 18007KT 10SM SCT013 22/21 A3031 RMK SC3 SLP262

CYYG;2008-07-25 05:00;CYYG 250500Z 18011KT 10SM BKN011 22/21 A3029 RMK SC6 SLP256

CYYG;2008-07-25 06:00;CYYG 250600Z 18009KT 10SM FEW005 BKN010 22/21 A3028 RMK SF1SC5 SLP254

CYYG;2008-07-25 07:00;CYYG 250700Z 18006KT 10SM SCT004 BKN010 21/20 A3028 RMK SF3SC3 SLP253

CYYG;2008-07-25 08:00;CYYG 250800Z 16007KT 8SM SCT003 BKN010 21/20 A3028 RMK SF4SC3 SLP252

CYYG;2008-07-25 09:00;CYYG 250900Z 17006KT 8SM FEW003 SCT012 21/20 A3028 RMK SF2SC2 SLP253

CYYG;2008-07-25 10:00;CYYG 251000Z 18006KT 12SM FEW004 SCT010 22/21 A3029 RMK SF1SC3 SLP257

CYYG;2008-07-25 11:00;CYYG 251100Z 18009KT 15SM SCT005 BKN250 23/21 A3028 RMK SF4CI0 SLP254

CYYG;2008-07-25 11:05;CYYG 251105Z 19011KT 15SM BKN007 BKN250 23/ RMK SF7CI1

CYYG;2008-07-25 12:00;CYYG 251200Z CCA 18009KT 15SM BKN008 OVC018 24/21 A3028 RMK SF6SC2 SLP255

CYYG;2008-07-25 13:00;CYYG 251300Z 18008KT 15SM OVC008 24/22 A3028 RMK SF8 SLP253

CYYG;2008-07-25 13:50;CYYG 251350Z 19009G16KT 15SM BKN010 BKN250 25/ RMK SF6CI1

CYYG;2008-07-25 14:00;CYYG 251400Z CCA 19012G17KT 15SM BKN012 BKN250 25/22 A3027 RMK SC6CI1 TCU EMBD SLP249

CYYG;2008-07-25 15:00;CYYG 251500Z 20015G20KT 15SM FEW017 SCT200 27/22 A3026 RMK CU2CI2 TCU DIST S SLP246

CYYG;2008-07-25 16:00;CYYG 251600Z 20018KT 15SM FEW020TCU SCT200 27/21 A3024 RMK TCU1CI2 SLP240

CYYG;2008-07-25 17:00;CYYG 251700Z 20015KT 15SM FEW020TCU SCT250 28/21 A3022 RMK TCU1CI2 SLP232

CYYG;2008-07-25 18:00;CYYG 251800Z 20015KT 15SM FEW030TCU BKN200 28/21 A3019 RMK TCU1CI2 SLP224

CYYG;2008-07-25 19:00;CYYG 251900Z 19015KT 15SM FEW035 BKN200 29/21 A3018 RMK CU1CI2 TCU EMBD SLP219

CYYG;2008-07-25 20:00;CYYG 252000Z 19013G18KT 15SM FEW040 BKN200 28/21 A3017 RMK SC1CI2 SLP216

CYYG;2008-07-25 21:00;CYYG 252100Z 18012G19KT 15SM FEW040 FEW200 BKN250 28/20 A3015 RMK CU1CI1CI2 SLP211

CYYG;2008-07-25 22:00;CYYG 252200Z 19012G17KT 15SM FEW060 SCT160 BKN250 25/19 A3015 RMK SC2AC2CI2 CB DIST S SLP210

CYYG;2008-07-25 23:00;CYYG 252300Z 18013KT 15SM SCT050 BKN160 BKN250 25/19 A3014 RMK SC4AC2CI0 SLP207

CYYG;2008-07-26 00:00;CYYG 260000Z 18011KT 12SM BKN055 OVC160 24/19 A3014 RMK SC6AC1 HAZY SLP205

CYYG;2008-07-26 01:00;CYYG 260100Z 18012KT 15SM FEW030 BKN055 OVC130 23/20 A3014 RMK SC2SC3AC1 SLP208

CYYG;2008-07-26 02:00;CYYG 260200Z 18013KT 15SM BKN120 OVC220 23/20 A3013 RMK AC5CI1 SLP203

CYYG;2008-07-26 03:00;CYYG 260300Z 18013KT 15SM FEW030 OVC120 22/20 A3012 RMK SC2AC4 SLP199

CYYG;2008-07-26 03:51;CYYG 260351Z 18011G17KT 15SM -SHRA BKN007 OVC030 22/ RMK SF6SC2

CYYG;2008-07-26 04:00;CYYG 260400Z 18011G17KT 15SM -SHRA BKN007 OVC030 22/20 A3010 RMK SF6SC2 SLP194

CYYG;2008-07-26 05:00;CYYG 260500Z 18014G19KT 15SM -SHRA FEW007 OVC036 21/20 A3009 RMK SF2SC6 SLP190

CYYG;2008-07-26 06:00;CYYG 260600Z 17011KT 15SM -SHRA FEW030 OVC070 21/20 A3007 RMK SF2AC6 SLP182

CYYG;2008-07-26 07:00;CYYG 260700Z 17015KT 15SM -SHRA BKN011 OVC062 21/20 A3006 RMK SC5SC3 SLP177

CYYG;2008-07-26 08:00;CYYG 260800Z 17013KT 15SM -SHRA OVC010 21/20 A3004 RMK SF8 SLP171

CYYG;2008-07-26 08:34;CYYG 260834Z 17011KT 10SM BKN010 OVC016 21/ RMK SC6SC2

CYYG;2008-07-26 08:49;CYYG 260849Z 17009KT 10SM -SHRA FEW006 OVC010 21/ RMK SF2SC6

CYYG;2008-07-26 09:00;CYYG 260900Z 17011KT 10SM -SHRA FEW006 OVC010 21/20 A3004 RMK SF2SC6 SLP170

CYYG;2008-07-26 10:00;CYYG 261000Z 17011KT 10SM -SHRA OVC003 21/20 A3002 RMK SF8 SLP165

CYYG;2008-07-26 11:00;CYYG 261100Z 18009KT 8SM -SHRA BKN004 BKN009 OVC028 21/21 A3001 RMK SF6SF2SC1 SLP163

CYYG;2008-07-26 11:44;CYYG 261144Z 18009KT 12SM SCT004 OVC026 22/ RMK SF4SC4

CYYG;2008-07-26 12:00;CYYG 261200Z 17008KT 12SM FEW005 OVC027 22/21 A3001 RMK SF2SC6 SLP162

CYYG;2008-07-26 12:38;CYYG 261238Z 18010KT 8SM -SHRA BKN003 OVC030 22/ RMK SF5SC3

CYYG;2008-07-26 13:00;CYYG 261300Z 20012KT 12SM BKN004 BKN012 OVC030 22/21 A2999 RMK SF5SC2SC2 SLP156

CYYG;2008-07-26 13:52;CYYG 261352Z 21012KT 8SM -SHRA BKN009 OVC030 22/ RMK SF6SC2

CYYG;2008-07-26 14:00;CYYG 261400Z 22013KT 8SM -SHRA BKN009 OVC030 22/20 A2999 RMK SF6SC2 SLP155

CYYG;2008-07-26 14:23;CYYG 261423Z 22008KT 15SM SCT015 BKN025 23/ RMK SC3SC4

CYYG;2008-07-26 15:00;CYYG 261500Z 22009G16KT 15SM BKN017 BKN035 OVC200 24/20 A2997 RMK SC5SC2CI1 SLP149

CYYG;2008-07-26 16:00;CYYG 261600Z 22011KT 15SM BKN018TCU BKN300 24/19 A2996 RMK TCU5CI1 SLP145

CYYG;2008-07-26 16:24;CYYG 261624Z 22010G16KT 15SM -SHRA BKN018TCU BKN050 BKN250 24/ RMK TCU5SC2CI1

CYYG;2008-07-26 17:00;CYYG 261700Z 23012KT 15SM BKN018TCU BKN056 BKN250 24/20 A2996 RMK TCU5SC2CI1 OCNL -SHRA SLP144

CYYG;2008-07-26 17:32;CYYG 261732Z 23009G15KT 15SM VCSH SCT018TCU BKN040 BKN250 24/ RMK TCU3SC2CI1

CYYG;2008-07-26 18:00;CYYG 261800Z 25011KT 15SM VCSH SCT018TCU BKN040 BKN250 24/20 A2994 RMK TCU3SC2CI2 SLP139

CYYG;2008-07-26 19:00;CYYG 261900Z 23010KT 15SM FEW023TCU BKN300 24/19 A2994 RMK TCU2CI1 SLP138

CYYG;2008-07-26 20:00;CYYG 262000Z 23008KT 15SM FEW025 BKN240 25/19 A2993 RMK CU1CI2 SLP135

CYYG;2008-07-26 21:00;CYYG 262100Z 23008KT 15SM FEW025 SCT250 25/19 A2992 RMK CU1CI2 SLP132

CYYG;2008-07-26 22:00;CYYG 262200Z 23006KT 15SM FEW030 SCT240 25/19 A2991 RMK SC1CI2 CC ASOCTD SLP128

CYYG;2008-07-26 23:00;CYYG 262300Z 18007KT 15SM FEW030 BKN240 23/19 A2991 RMK SC1CI2 SLP128

CYYG;2008-07-27 00:00;CYYG 270000Z 21005KT 15SM BKN240 22/19 A2991 RMK CI2 SLP128

CYYG;2008-07-27 01:00;CYYG 270100Z 18004KT 15SM SCT240 21/18 A2992 RMK CI2 SLP130

CYYG;2008-07-27 02:00;CYYG 270200Z 22006KT 15SM FEW060 22/18 A2991 RMK SC2 SLP128

CYYG;2008-07-27 03:00;CYYG 270300Z 22006KT 15SM FEW055 21/18 A2991 RMK SC2 SLP128

CYYG;2008-07-27 04:00;CYYG 270400Z 23004KT 15SM SKC 19/16 A2991 RMK SLP129

CYYG;2008-07-27 05:00;CYYG 270500Z 22004KT 15SM SKC 19/16 A2990 RMK SLP126

CYYG;2008-07-27 06:00;CYYG 270600Z 23004KT 15SM BKN140 19/16 A2989 RMK AC5 SLP121

CYYG;2008-07-27 07:00;CYYG 270700Z 23004KT 15SM FEW140 18/16 A2988 RMK AC2 SLP118

CYYG;2008-07-27 08:00;CYYG 270800Z 20007KT 15SM FEW120 18/16 A2987 RMK AC2 SLP116

CYYG;2008-07-27 09:00;CYYG 270900Z 20005KT 15SM FEW120 18/16 A2988 RMK AC2 HAZY SLP118

CYYG;2008-07-27 10:00;CYYG 271000Z 20005KT 10SM BKN047 BKN120 19/18 A2989 RMK SC5AC1 HAZY SLP121

CYYG;2008-07-27 11:00;CYYG 271100Z 19007KT 15SM FEW047 FEW300 20/18 A2989 RMK SC1CI1 SLP122

CYYG;2008-07-27 12:00;CYYG 271200Z 19007KT 15SM FEW045 FEW300 22/18 A2989 RMK CU1CI1 SLP122

CYYG;2008-07-27 13:00;CYYG 271300Z 22008KT 15SM FEW300 23/19 A2989 RMK CI1 SLP121

CYYG;2008-07-27 14:00;CYYG 271400Z 21010KT 15SM FEW045 FEW300 24/17 A2989 RMK CU1CI1 SLP120

CYYG;2008-07-27 15:00;CYYG 271500Z 22010KT 15SM FEW045 FEW300 25/17 A2989 RMK CU1CI1 SLP120

CYYG;2008-07-27 16:00;CYYG 271600Z 19010KT 15SM FEW045 FEW300 24/17 A2988 RMK CU1CI1 SLP119

CYYG;2008-07-27 17:00;CYYG 271700Z 18011KT 15SM FEW040 FEW300 25/16 A2987 RMK CU1CI1 SLP114

CYYG;2008-07-27 18:00;CYYG 271800Z 19009KT 15SM FEW040TCU FEW300 26/16 A2987 RMK TCU1CI1 TCU DIST E SLP113

CYYG;2008-07-27 19:00;CYYG 271900Z 20011KT 15SM FEW300 26/17 A2985 RMK CI1 SLP109

CYYG;2008-07-27 20:00;CYYG 272000Z 18010KT 15SM FEW300 27/17 A2985 RMK CI0 SLP108

CYYG;2008-07-27 21:00;CYYG 272100Z 19009KT 15SM SCT066 26/17 A2985 RMK ACC3 SLP106

CYYG;2008-07-27 22:00;CYYG 272200Z 19007KT 15SM FEW060 FEW080 25/18 A2984 RMK SC1AC1 SLP105

CYYG;2008-07-27 23:00;CYYG 272300Z 21007KT 15SM FEW080 24/18 A2986 RMK AC1 SLP110

CYYG;2008-07-28 00:00;CYYG 280000Z 23005KT 15SM FEW080 23/18 A2988 RMK AC1 SLP117

CYYG;2008-07-28 01:00;CYYG 280100Z 22007KT 15SM FEW080 22/19 A2989 RMK AC1 SLP122

CYYG;2008-07-28 02:00;CYYG 280200Z 21004KT 15SM FEW040 21/18 A2990 RMK SC2 SLP124

CYYG;2008-07-28 03:00;CYYG 280300Z 22005KT 15SM FEW040 21/18 A2989 RMK SC2 SLP122

CYYG;2008-07-28 04:00;CYYG 280400Z 21005KT 15SM FEW040 21/19 A2989 RMK SC2 SLP122

CYYG;2008-07-28 05:00;CYYG 280500Z 23003KT 15SM FEW040 20/18 A2990 RMK SC1 SLP123

CYYG;2008-07-28 06:00;CYYG 280600Z 18005KT 15SM SKC 19/17 A2989 RMK SLP122

CYYG;2008-07-28 07:00;CYYG 280700Z 18004KT 15SM SKC 19/17 A2989 RMK SLP120

CYYG;2008-07-28 08:00;CYYG 280800Z 18006KT 15SM SKC 19/17 A2987 RMK SLP116

CYYG;2008-07-28 09:00;CYYG 280900Z 18007KT 15SM BKN250 19/17 A2988 RMK CI2 SLP117

CYYG;2008-07-28 10:00;CYYG 281000Z 18009KT 15SM BKN250 20/17 A2988 RMK CI2 SLP118

CYYG;2008-07-28 11:00;CYYG 281100Z 17008KT 15SM SCT110 BKN250 20/18 A2988 RMK AC3CI2 SLP118

CYYG;2008-07-28 12:00;CYYG 281200Z 18007KT 15SM SCT110 BKN260 21/17 A2987 RMK AC3CI2 SLP116

CYYG;2008-07-28 13:00;CYYG 281300Z 16006KT 15SM BKN100 BKN260 22/17 A2987 RMK AC5CI2 SLP114

CYYG;2008-07-28 13:33;CYYG 281333Z 18011KT 10SM -SHRA BKN070 OVC260 21/ RMK AC6CI2 VIS LWR S

CYYG;2008-07-28 14:00;CYYG 281400Z 17012KT 8SM -SHRA BKN063 OVC110 20/17 A2988 RMK SC5AC3 VIS LWR S SLP117

CYYG;2008-07-28 15:00;CYYG 281500Z 17008KT 10SM -SHRA FEW010 BKN043 OVC110 20/17 A2986 RMK SF1SC6AC2 SLP112

CYYG;2008-07-28 16:00;CYYG 281600Z 16008KT 15SM -SHRA FEW010 BKN045 BKN110 19/16 A2985 RMK SF1SC5AC2 SLP108

CYYG;2008-07-28 17:00;CYYG 281700Z 15008KT 15SM -SHRA SCT007 OVC045 18/17 A2983 RMK SF3SC5 SLP101

CYYG;2008-07-28 17:36;CYYG 281736Z 17006KT 15SM FEW007 SCT014 BKN045 21/ RMK SF2SC2SC3

CYYG;2008-07-28 18:00;CYYG 281800Z 19012KT 15SM FEW007 SCT014 BKN045 21/18 A2981 RMK SF2SC2SC2 SLP095

CYYG;2008-07-28 18:44;CYYG 281844Z 23009KT 15SM SCT014 BKN050 22/ RMK SC3SC2

CYYG;2008-07-28 19:00;CYYG 281900Z 19008KT 15SM FEW014 SCT050 22/18 A2980 RMK SC2SC2 SLP090

CYYG;2008-07-28 20:00;CYYG 282000Z 22006KT 15SM FEW050 SCT250 22/18 A2979 RMK SC2CI2 SLP089

CYYG;2008-07-28 21:00;CYYG 282100Z 19007KT 15SM FEW030 FEW250 23/18 A2979 RMK SC1CI1 SLP088

CYYG;2008-07-28 22:00;CYYG 282200Z 19007KT 15SM FEW030TCU FEW250 23/18 A2979 RMK TCU1CI0 SLP089

CYYG;2008-07-28 23:00;CYYG 282300Z 17004KT 15SM FEW030TCU FEW110 SCT280 22/19 A2979 RMK TCU1AC1CI0 SLP089

CYYG;2008-07-29 00:00;CYYG 290000Z 18006KT 15SM FEW030 FEW120 SCT280 20/18 A2981 RMK CU1AC1CI0 SLP093

CYYG;2008-07-29 01:00;CYYG 290100Z 23007KT 15SM FEW080 SCT280 21/17 A2981 RMK AC1CI0 SLP095

CYYG;2008-07-29 02:00;CYYG 290200Z 24006KT 15SM FEW080 SCT280 20/16 A2981 RMK AC1CI0 SLP094

CYYG;2008-07-29 03:00;CYYG 290300Z CCA 25006KT 15SM FEW040 19/16 A2981 RMK SC2 SLP094

CYYG;2008-07-29 04:00;CYYG 290400Z 25005KT 15SM FEW040 FEW080 19/16 A2980 RMK SC1AC1 SLP092

CYYG;2008-07-29 05:00;CYYG 290500Z 22006KT 15SM FEW090 19/16 A2980 RMK AC2 SLP092

CYYG;2008-07-29 06:00;CYYG 290600Z 26007KT 15SM FEW120 18/16 A2980 RMK AC1 SLP091

CYYG;2008-07-29 06:19;CYYG 290619Z 25009KT 15SM FEW008 18/ RMK SF1

CYYG;2008-07-29 06:34;CYYG 290634Z 24006KT 15SM BKN007 18/ RMK SF5

CYYG;2008-07-29 07:00;CYYG 290700Z 23007KT 10SM BKN007 18/17 A2979 RMK SF6 SLP088

CYYG;2008-07-29 08:00;CYYG 290800Z 23004KT 8SM FEW005 BKN008 18/17 A2979 RMK SF2SF6 SLP086

CYYG;2008-07-29 09:00;CYYG 290900Z 21007KT 10SM FEW006 BKN009 18/16 A2979 RMK SF2SF5 SLP086

CYYG;2008-07-29 09:24;CYYG 290924Z 23007KT 12SM FEW006 BKN011 18/ RMK SF2SC6

CYYG;2008-07-29 10:00;CYYG 291000Z 22005KT 12SM FEW006 OVC011 18/16 A2979 RMK SF2SC6 SLP086

CYYG;2008-07-29 11:00;CYYG 291100Z 23006KT 12SM FEW006 BKN011 19/16 A2978 RMK SF1SC6 SLP084

CYYG;2008-07-29 12:00;CYYG 291200Z 22006KT 12SM FEW007 OVC012 19/16 A2979 RMK SF1SC7 SLP087

CYYG;2008-07-29 13:00;CYYG 291300Z 23007KT 12SM OVC010 19/17 A2978 RMK SC8 SLP085

CYYG;2008-07-29 14:00;CYYG 291400Z 21005KT 12SM OVC011 20/17 A2977 RMK SC8 SLP080

CYYG;2008-07-29 15:00;CYYG 291500Z 19008KT 12SM BKN012 20/17 A2977 RMK SC6 SLP079

CYYG;2008-07-29 15:40;CYYG 291540Z 21007KT 12SM SCT012 21/ RMK SC4

CYYG;2008-07-29 16:00;CYYG 291600Z 21008KT 12SM FEW015 SCT180 22/18 A2975 RMK CF2CI1 SLP073

CYYG;2008-07-29 17:00;CYYG 291700Z 23007KT 15SM FEW015 SCT300 23/19 A2972 RMK CF1CI1 SLP064

CYYG;2008-07-29 18:00;CYYG 291800Z 18008KT 12SM FEW018 SCT300 24/19 A2971 RMK CF1CI1 SLP061

CYYG;2008-07-29 19:00;CYYG 291900Z 26005KT 15SM FEW020 FEW090 BKN300 25/18 A2970 RMK CF1AC2CI1 SLP058

CYYG;2008-07-29 20:00;CYYG 292000Z 26004KT 15SM FEW020 FEW090 BKN300 25/18 A2969 RMK CF1AC2CI1 SLP055

CYYG;2008-07-29 21:00;CYYG 292100Z 20005KT 15SM FEW020TCU SCT085 BKN300 24/19 A2969 RMK TCU2AC2CI1 SLP055

CYYG;2008-07-29 22:00;CYYG 292200Z 20004KT 15SM FEW020TCU SCT070 BKN300 23/19 A2969 RMK TCU2AC2CI2 SLP052

CYYG;2008-07-29 23:00;CYYG 292300Z 20006KT 15SM FEW020TCU SCT080 BKN300 23/19 A2969 RMK TCU2AC2CI2 SLP055

CYYG;2008-07-30 00:00;CYYG 300000Z 24005KT 15SM FEW028CB SCT080 BKN300 22/19 A2970 RMK CB2AC2CI2 LTNG DIST S SLP058

CYYG;2008-07-30 00:07;CYYG 300007Z 22004KT 15SM TS FEW028CB SCT080 BKN300 22/ RMK CB2AC2CI2

CYYG;2008-07-30 01:00;CYYG 300100Z 18004KT 15SM TS FEW028CB SCT100 OVC300 20/17 A2968 RMK CB1AC2CI2 LTNG E SLP051

CYYG;2008-07-30 01:23;CYYG 300123Z 22004KT 12SM FEW100 SCT160 OVC300 20/ RETS RMK AC2AC2CI2

CYYG;2008-07-30 02:00;CYYG 300200Z 27004KT 12SM SCT120 OVC300 20/18 A2969 RETS RMK AC3CI2 SLP053

CYYG;2008-07-30 03:00;CYYG 300300Z 26005KT 12SM FEW120 FEW300 19/17 A2969 RMK AC1CI0 LTNG DIST NE SLP055

CYYG;2008-07-30 04:00;CYYG 300400Z 25006KT 12SM BKN130 18/16 A2969 RMK AC5 LTNG DIST N-NE SLP053

CYYG;2008-07-30 05:00;CYYG 300500Z 25005KT 15SM BKN120 18/16 A2968 RMK AC6 SLP049

CYYG;2008-07-30 06:00;CYYG 300600Z 25004KT 12SM FEW012 BKN130 18/16 A2968 RMK SC1AC6 SLP049

CYYG;2008-07-30 06:41;CYYG 300641Z 25007KT 12SM FEW007 BKN130 BKN150 18/ RMK SF1AC6AC1

CYYG;2008-07-30 07:00;CYYG 300700Z 25006KT 12SM FEW007 SCT130 BKN150 18/16 A2967 RMK SF2AC2AC3 SLP048

CYYG;2008-07-30 08:00;CYYG 300800Z 27007KT 10SM SCT007 BKN140 17/16 A2968 RMK SF4AC3 SLP050

CYYG;2008-07-30 08:17;CYYG 300817Z 28004KT 10SM BKN006 BKN150 17/ RMK SF5AC2

CYYG;2008-07-30 09:00;CYYG 300900Z 28003KT 12SM FEW006 OVC009 17/17 A2969 RMK SF2SC6 SLP053

CYYG;2008-07-30 10:00;CYYG 301000Z 28006KT 12SM FEW005 BKN009 18/16 A2969 RMK SF2SC6 SLP055

CYYG;2008-07-30 11:00;CYYG 301100Z 26004KT 12SM BKN006 OVC010 18/17 A2971 RMK SF5SC3 SLP059

CYYG;2008-07-30 12:00;CYYG 301200Z 25002KT 12SM FEW006 OVC009 19/17 A2970 RMK SF2SF6 SLP058

CYYG;2008-07-30 13:00;CYYG 301300Z 29005KT 15SM BKN010 BKN022 20/18 A2970 RMK SC6SC2 TCU ASOCTD SLP056

CYYG;2008-07-30 14:00;CYYG 301400Z 29006KT 15SM SCT012 BKN025TCU 21/18 A2970 RMK SC4TCU2 SLP056

CYYG;2008-07-30 14:23;CYYG 301423Z 36003KT 15SM -SHRA SCT016 BKN025TCU 21/ RMK CU3TCU3

CYYG;2008-07-30 15:00;CYYG 301500Z 02006KT 15SM BKN016TCU 22/18 A2969 RMK TCU6 OCNL -SHRA SLP055

CYYG;2008-07-30 16:00;CYYG 301600Z 36007KT 10SM -SHRA BKN018TCU 22/18 A2969 RMK TCU6 VIS NW-NE 15 SLP055

CYYG;2008-07-30 17:00;CYYG 301700Z 27004KT 10SM -SHRA FEW008 BKN018TCU 21/19 A2969 RMK CF2TCU5 VIS NW-NE 15 SLP055

CYYG;2008-07-30 18:00;CYYG 301800Z 28003KT 12SM VCSH SCT024 BKN050TCU BKN250 22/18 A2970 RMK CU3TCU2CI1 CB ASOCTD SLP058

CYYG;2008-07-30 19:00;CYYG 301900Z CCA 01005KT 15SM VCSH SCT025 BKN050TCU 23/17 A2969 RMK CU3TCU2 CB ASOCTD SLP055

CYYG;2008-07-30 20:00;CYYG 302000Z 34005KT 15SM FEW025 SCT050 23/17 A2969 RMK CU2SC2 TCU ASOCTD CB DIST S SLP053

CYYG;2008-07-30 21:00;CYYG 302100Z 02007KT 15SM FEW025 FEW050 SCT250 22/18 A2970 RMK CU1SC1CI1 SLP056

CYYG;2008-07-30 22:00;CYYG 302200Z 36006KT 15SM FEW025 FEW050 FEW250 21/17 A2970 RMK CU1SC1CI0 SLP056

CYYG;2008-07-30 23:00;CYYG 302300Z 33003KT 15SM FEW030 FEW250 21/17 A2971 RMK CU1CI1 SLP059

CYYG;2008-07-31 00:00;CYYG 310000Z 36002KT 15SM FEW030 FEW250 19/17 A2971 RMK SC1CI1 SLP062

CYYG;2008-07-31 01:00;CYYG 310100Z 02003KT 15SM FEW250 17/17 A2972 RMK CI2 SLP064

CYYG;2008-07-31 02:00;CYYG 310200Z 34003KT 15SM FEW120 FEW250 16/15 A2973 RMK AC1CI2 SLP067

CYYG;2008-07-31 03:00;CYYG 310300Z 25004KT 15SM FEW120 FEW250 17/16 A2974 RMK AC1CI2 SLP071

CYYG;2008-07-31 04:00;CYYG 310400Z 36002KT 15SM FEW120 FEW250 15/14 A2973 RMK AC1CI2 SLP068

CYYG;2008-07-31 05:00;CYYG 310500Z 01002KT 15SM FEW120 FEW250 14/14 A2973 RMK AC2CI1 SLP066

CYYG;2008-07-31 06:00;CYYG 310600Z 00000KT 15SM MIFG FEW120 FEW250 15/15 A2972 RMK AC2CI1 SLP065

CYYG;2008-07-31 07:00;CYYG 310700Z 28002KT 15SM FEW250 15/14 A2973 RMK CI1 SLP066

CYYG;2008-07-31 08:00;CYYG 310800Z 00000KT 3/4SM R03/2200VP6000FT/D BR FEW250 14/14 A2973 RMK FG1CI1 TWR VIS 15 SLP068

CYYG;2008-07-31 08:40;CYYG 310840Z CCA 00000KT 15SM MIFG FEW020 FEW250 14/ RMK SC1CI2 VIS NW-N LWR

CYYG;2008-07-31 09:00;CYYG 310900Z CCA 00000KT 15SM MIFG FEW020 SCT250 14/14 A2974 RMK SC2CI2 VIS NW-N LWR SLP071

CYYG;2008-07-31 10:00;CYYG 311000Z 17002KT 15SM MIFG FEW130 BKN270 15/15 A2974 RMK AC2CI3 SLP072

CYYG;2008-07-31 11:00;CYYG 311100Z 00000KT 12SM FEW010 FEW130 BKN270 19/18 A2977 RMK SF1AC2CI2 SLP079

CYYG;2008-07-31 12:00;CYYG 311200Z 14004KT 15SM FEW010 FEW130 BKN250 21/18 A2976 RMK CU2AC1CI2 SLP078

CYYG;2008-07-31 13:00;CYYG 311300Z 08003KT 15SM SCT015 OVC200 21/18 A2976 RMK CU3CI4 SLP077

CYYG;2008-07-31 14:00;CYYG 311400Z 10005KT 15SM SCT015 BKN210 22/17 A2977 RMK CU3CI3 SLP079

CYYG;2008-07-31 15:00;CYYG 311500Z 12006KT 15SM SCT020 BKN200 23/17 A2976 RMK CU3CI3 SLP077

CYYG;2008-07-31 16:00;CYYG 311600Z 16004KT 15SM SCT025 BKN180 23/18 A2976 RMK CU3AC3 SLP077

CYYG;2008-07-31 17:00;CYYG 311700Z 13005KT 15SM SCT025 BKN160 24/19 A2975 RMK CU3AC3 SLP075

CYYG;2008-07-31 18:00;CYYG 311800Z 02006KT 15SM FEW025 BKN150 23/19 A2975 RMK CU2AC4 SLP073

CYYG;2008-07-31 19:00;CYYG 311900Z 08004KT 15SM SCT025 BKN170 24/19 A2974 RMK CU3AC3 SLP072

CYYG;2008-07-31 20:00;CYYG 312000Z 16006KT 15SM SCT025 BKN160 23/18 A2974 RMK CU3AC3 SLP069

CYYG;2008-07-31 21:00;CYYG 312100Z 16002KT 15SM FEW023TCU SCT160 BKN300 24/18 A2974 RMK TCU2AC2CI2 SLP069

CYYG;2008-07-31 22:00;CYYG 312200Z 11005KT 15SM FEW023TCU FEW160 BKN300 23/18 A2974 RMK TCU1AC2CI3 SLP069

CYYG;2008-07-31 23:00;CYYG 312300Z 12005KT 15SM FEW020 SCT130 BKN150 21/17 A2975 RMK SC1AC2AC3 SLP075

CYYG;2008-08-01 01:00;CYYG 010100Z 09006KT 15SM FEW100 BKN160 19/17 A2977 RMK AC1AC6 SLP080

CYYG;2008-08-01 02:00;CYYG 010200Z 07005KT 15SM BKN110 BKN210 19/17 A2977 RMK AC5CI2 SLP081

CYYG;2008-08-01 03:00;CYYG 010300Z 09004KT 15SM BKN160 18/17 A2977 RMK AC6 SLP079

CYYG;2008-08-01 04:00;CYYG 010400Z 02002KT 15SM BKN160 18/17 A2977 RMK AC7 SLP079

CYYG;2008-08-01 05:00;CYYG 010500Z 11003KT 15SM BKN160 18/17 A2975 RMK AC3 SLP075

CYYG;2008-08-01 06:00;CYYG 010600Z 11003KT 15SM FEW040 BKN100 18/17 A2975 RMK SC1AC2 SLP075

CYYG;2008-08-01 07:00;CYYG 010700Z 13004KT 15SM SCT080 BKN100 BKN170 18/17 A2975 RMK AC2AC1CI1 SLP075

CYYG;2008-08-01 08:00;CYYG 010800Z 15005KT 15SM BKN190 18/17 A2976 RMK CI5 SLP076

CYYG;2008-08-01 09:00;CYYG 010900Z 13005KT 8SM OVC130 18/17 A2977 RMK AC7 SLP082

CYYG;2008-08-01 10:00;CYYG 011000Z 12005KT 4SM BR BKN150 18/17 A2979 RMK AC6 SLP087

CYYG;2008-08-01 10:14;CYYG 011014Z 12006KT 4SM BR BKN006 OVC150 18/ RMK SF5AC2

CYYG;2008-08-01 11:00;CYYG 011100Z 14006KT 10SM BKN006 OVC068 19/17 A2980 RMK SF6AC2 SLP092

CYYG;2008-08-01 11:08;CYYG 011108Z 14006KT 10SM SCT006 OVC071 19/ RMK SF3AC5

CYYG;2008-08-01 12:00;CYYG 011200Z 13008KT 15SM FEW007 FEW057 OVC063 19/17 A2981 RMK SF1SC2SC6 SLP095

CYYG;2008-08-01 13:00;CYYG 011300Z 13006KT 15SM FEW007 FEW067 BKN081 20/17 A2981 RMK SF1AC2AC5 SLP094

CYYG;2008-08-01 14:00;CYYG 011400Z 12009KT 15SM FEW012 FEW069 BKN082 BKN300 21/17 A2980 RMK CF1AC1AC4CI1 SLP091

CYYG;2008-08-01 15:00;CYYG 011500Z 12012G17KT 15SM FEW015 BKN170 BKN300 22/17 A2980 RMK CU1AC4CI2 SLP091

CYYG;2008-08-01 16:00;CYYG 011600Z 12009G16KT 15SM FEW020 BKN170 BKN300 24/19 A2979 RMK CU2AC4CI1 SLP089

CYYG;2008-08-01 17:00;CYYG 011700Z 10013KT 15SM FEW020 FEW170 BKN300 23/18 A2979 RMK CU2AC1CI1 SLP088

CYYG;2008-08-01 18:00;CYYG 011800Z 12014G19KT 15SM FEW027 SCT130 BKN300 24/17 A2979 RMK CU2AC1CI1 SLP088

CYYG;2008-08-01 19:00;CYYG 011900Z 12010KT 15SM SCT028TCU BKN130 24/17 A2979 RMK TCU4AC2 SLP088

CYYG;2008-08-01 20:00;CYYG 012000Z 12012KT 15SM FEW026TCU BKN140 23/17 A2979 RMK TCU2AC6 SLP089

CYYG;2008-08-01 21:00;CYYG 012100Z 11010G16KT 15SM FEW026TCU BKN130 23/17 A2979 RMK TCU1AC6 SLP089

CYYG;2008-08-01 22:00;CYYG 012200Z 10008KT 15SM FEW026TCU BKN130 22/17 A2980 RMK TCU1AC6 TCU DIST W AND NE SLP090

CYYG;2008-08-01 23:00;CYYG 012300Z 10008KT 15SM BKN120 21/17 A2981 RMK AC6 SLP095

CYYG;2008-08-02 00:00;CYYG 020000Z 11008KT 15SM BKN110 20/17 A2983 RMK AC5 SLP100

CYYG;2008-08-02 01:00;CYYG 020100Z 10009KT 15SM FEW030 BKN110 20/17 A2984 RMK SC1AC5 SLP105

CYYG;2008-08-02 02:00;CYYG 020200Z 10006KT 15SM FEW018 BKN110 19/17 A2985 RMK SC1AC4 SLP106

CYYG;2008-08-02 03:00;CYYG 020300Z 11006KT 15SM FEW014 BKN023 18/17 A2985 RMK SC2SC2 SLP109

CYYG;2008-08-02 04:00;CYYG 020400Z 11007KT 15SM FEW020 18/16 A2985 RMK SC2 SLP107

CYYG;2008-08-02 05:00;CYYG 020500Z 10008KT 15SM FEW020 17/15 A2984 RMK SC2 SLP105

CYYG;2008-08-02 06:00;CYYG 020600Z 10006KT 15SM BKN023 17/15 A2985 RMK SC5 SLP109

CYYG;2008-08-02 07:00;CYYG 020700Z 10006KT 15SM SCT012 BKN023 18/16 A2985 RMK SC3SC3 SLP108

CYYG;2008-08-02 08:00;CYYG 020800Z 10007KT 15SM FEW013 BKN022 18/16 A2985 RMK SC2SC5 SLP106

CYYG;2008-08-02 09:00;CYYG 020900Z 10006KT 15SM OVC024 18/16 A2985 RMK SC8 SLP108

CYYG;2008-08-02 10:00;CYYG 021000Z 11006KT 15SM OVC018 18/15 A2986 RMK SC8 SLP112

CYYG;2008-08-02 11:00;CYYG 021100Z 11010KT 15SM BKN016 BKN100 OVC300 18/16 A2987 RMK SC6AC1CI1 SLP115

CYYG;2008-08-02 12:00;CYYG 021200Z CCA 11009G17KT 15SM BKN015 BKN052 19/16 A2987 RMK SC5SC2 SLP117

CYYG;2008-08-02 13:00;CYYG 021300Z 12012KT 15SM BKN017 OVC028 19/16 A2988 RMK SC6SC2 SLP118

CYYG;2008-08-02 14:00;CYYG 021400Z 11010G15KT 15SM VCSH OVC017 19/15 A2989 RMK SC8 VIS LWR SE-W SLP121

CYYG;2008-08-02 14:11;CYYG 021411Z 13012KT 8SM -SHRA OVC014 18/ RMK SC8

CYYG;2008-08-02 14:53;CYYG 021453Z 11009KT 5SM -SHRA BR FEW008 OVC012 18/ RMK SF1SC7

CYYG;2008-08-02 15:00;CYYG 021500Z 11009KT 3SM -SHRA BR FEW008 OVC012 18/16 A2990 RMK SF2SC6 SLP125

CYYG;2008-08-02 15:10;CYYG 021510Z 11008KT 3SM -SHRA BR BKN007 OVC011 18/ RMK SF5SC3

CYYG;2008-08-02 16:00;CYYG 021600Z 10010KT 6SM -RA BR OVC007 18/17 A2990 RMK SF8 SLP124

CYYG;2008-08-02 16:19;CYYG 021619Z 12012KT 15SM OVC007 18/ RMK SF8 VIS LWR NW-N

CYYG;2008-08-02 16:47;CYYG 021647Z 13009G17KT 3SM -SHRA BR OVC008 18/ RMK SF8 VIS NW-E 15

CYYG;2008-08-02 17:00;CYYG 021700Z 13011KT 2SM SHRA BR OVC008 18/17 A2990 RMK SF8 VIS NE-E 15 SLP124

CYYG;2008-08-02 17:31;CYYG 021731Z 12009KT 10SM -SHRA BKN004 OVC014 18/ RERA RMK SF6SC2

CYYG;2008-08-02 17:42;CYYG 021742Z CCA 12009KT 10SM -SHRA BKN004 OVC014 18/ RERA RMK SF6SC2

CYYG;2008-08-02 18:00;CYYG 021800Z 12011KT 15SM -SHRA BKN004 OVC008 18/17 A2990 RERA RMK SF6SF2 SLP124

CYYG;2008-08-02 18:18;CYYG 021818Z 13012KT 10SM -SHRA OVC007 18/ RMK SF8

CYYG;2008-08-02 19:00;CYYG 021900Z 12009KT 8SM -SHRA OVC008 19/18 A2989 RERA RMK SF8 SLP123

CYYG;2008-08-02 19:24;CYYG 021924Z 13010KT 2SM -SHRA BR OVC007 19/ RMK SF8 CIG RAG

CYYG;2008-08-02 19:34;CYYG 021934Z 13010G15KT 4SM -SHRA BR BKN004 OVC008 18/ RMK SF5SF3

CYYG;2008-08-02 20:00;CYYG 022000Z 12010KT 8SM -SHRA BKN005 OVC008 18/17 A2989 RMK SF6SF2 VIS LWR NW-NE SLP123

CYYG;2008-08-02 20:52;CYYG 022052Z 13012KT 10SM SCT006 OVC008 19/ RMK SF3SF5

CYYG;2008-08-02 21:00;CYYG 022100Z 13013KT 10SM FEW006 OVC008 19/17 A2990 RMK SF2SC6 SLP124

CYYG;2008-08-02 21:14;CYYG 022114Z 13009G16KT 6SM -DZ BR BKN006 OVC010 18/ RMK SF5SC3

CYYG;2008-08-02 21:53;CYYG 022153Z 12011KT 10SM OVC007 18/ RMK SF8

CYYG;2008-08-02 22:00;CYYG 022200Z 12010KT 10SM OVC007 18/17 A2990 RMK SF8 SLP126

CYYG;2008-08-02 22:21;CYYG 022221Z 13010KT 6SM -DZ BR OVC006 18/ RMK SF8 CIG RAG

CYYG;2008-08-02 22:54;CYYG 022254Z 12008G15KT 3SM -SHRA BR FEW003 BKN006 OVC011 18/ RMK SF2SF6SC1

CYYG;2008-08-02 23:00;CYYG 022300Z 12010G15KT 2 1/2SM -SHRA BR FEW003 OVC006 18/17 A2991 RMK SF2SF6 SLP129

CYYG;2008-08-03 00:00;CYYG 030000Z 12010KT 2 1/2SM -SHRA BR BKN006 OVC018 18/17 A2993 RMK SF6SC2 SLP134

CYYG;2008-08-03 01:00;CYYG 030100Z 12009G15KT 5SM -SHRA BR OVC006 17/16 A2993 RMK SF8 SLP137

CYYG;2008-08-03 02:00;CYYG 030200Z 13013KT 10SM -DZ OVC008 17/16 A2994 RMK SF8 SLP139

CYYG;2008-08-03 03:00;CYYG 030300Z 13012KT 12SM -DZ OVC007 17/16 A2994 RMK SF8 SLP139

CYYG;2008-08-03 03:31;CYYG 030331Z 13013KT 15SM OVC010 17/ RMK SF8

CYYG;2008-08-03 04:00;CYYG 030400Z 13012KT 12SM OVC010 17/16 A2995 RMK SF8 SLP142

CYYG;2008-08-03 05:00;CYYG 030500Z 12012KT 15SM OVC011 17/16 A2994 RMK SC8 SLP138

CYYG;2008-08-03 06:00;CYYG 030600Z 12010G15KT 15SM OVC011 17/16 A2993 RMK SC8 SLP136

CYYG;2008-08-03 07:00;CYYG 030700Z 12011G16KT 15SM OVC012 17/16 A2992 RMK SC8 SLP132

CYYG;2008-08-03 08:00;CYYG 030800Z 12012KT 15SM OVC012 17/16 A2992 RMK SC8 SLP133

CYYG;2008-08-03 08:55;CYYG 030855Z 13010G15KT 12SM -SHRA OVC009 17/ RMK SF8

CYYG;2008-08-03 09:00;CYYG 030900Z 12007KT 8SM -SHRA OVC007 17/16 A2993 RMK SF8 SLP136

CYYG;2008-08-03 10:00;CYYG 031000Z 13011KT 8SM -SHRA OVC007 17/16 A2993 RMK SF8 SLP137

CYYG;2008-08-03 10:09;CYYG 031009Z 12010G15KT 5SM RA BR BKN004 OVC008 17/ RMK SF5SF3

CYYG;2008-08-03 10:39;CYYG 031039Z 13010G15KT 3SM +RA BR SCT003 OVC005 17/ RMK SF3SF5

CYYG;2008-08-03 11:00;CYYG 031100Z 12013G18KT 5SM RA BR SCT003 OVC005 17/16 A2993 RERA RMK SF3SF5 SLP136

CYYG;2008-08-03 12:00;CYYG 031200Z 12012KT 3SM RA BR OVC005 17/17 A2994 RMK SF8 /R10/ SLP139

CYYG;2008-08-03 12:38;CYYG 031238Z 13009G15KT 2SM RA BR OVC003 17/ RERA RMK SF8

CYYG;2008-08-03 13:00;CYYG 031300Z 12010G17KT 3SM RA BR BKN003 OVC031 18/17 A2995 RERA RMK SF6SC2 /R18/ SLP141

CYYG;2008-08-03 13:08;CYYG 031308Z 12010G15KT 2SM RA BR FEW005 BKN007 OVC030 18/ RMK SF2SF4SC2

CYYG;2008-08-03 13:33;CYYG 031333Z 14006KT 3SM RA BR BKN004 OVC009 18/ RMK SF6SF2

CYYG;2008-08-03 14:00;CYYG 031400Z 12011KT 10SM -RA OVC003 18/17 A2994 RERA RMK SF8 VIS N-SE 3 SLP139

CYYG;2008-08-03 15:00;CYYG 031500Z 12011KT 10SM -RA BKN003 OVC008 18/18 A2994 RMK SF6SF2 SLP140

CYYG;2008-08-03 15:11;CYYG 031511Z 12012KT 10SM -DZ OVC005 18/ RMK SF8 VIS NE-SE 3

CYYG;2008-08-03 15:20;CYYG 031520Z 12010G15KT 2SM -DZ BR OVC004 18/ RMK SF8

CYYG;2008-08-03 15:23;CYYG 031523Z 11012KT 2SM RA BR BKN004 OVC009 18/ RMK SF6SF2

CYYG;2008-08-03 15:45;CYYG 031545Z 11009G16KT 3SM -RA BR BKN003 BKN008 OVC031 18/ RERA RMK SF5SF2SC2 VIS SW-NW 10

CYYG;2008-08-03 16:00;CYYG 031600Z 11011KT 5SM -RA BR BKN003 BKN008 OVC015 18/17 A2993 RERA RMK SF5SF2SC2 /R29/ SLP137

CYYG;2008-08-03 16:28;CYYG 031628Z 12012KT 10SM -RA SCT003 BKN006 OVC009 19/ RMK SF3SF3SF2

CYYG;2008-08-03 16:38;CYYG 031638Z 12011G16KT 15SM OVC007 19/ RMK SF8

CYYG;2008-08-03 17:00;CYYG 031700Z 12012KT 15SM OVC006 18/18 A2994 RMK SF8 SLP138

CYYG;2008-08-03 18:00;CYYG 031800Z 13014KT 15SM OVC007 19/18 A2993 RMK SF8 SLP136

CYYG;2008-08-03 19:00;CYYG 031900Z 13011G19KT 15SM OVC007 19/18 A2993 RMK SF8 SLP134

CYYG;2008-08-03 20:00;CYYG 032000Z 13013G19KT 15SM OVC009 19/17 A2993 RMK SF8 SLP134

CYYG;2008-08-03 21:00;CYYG 032100Z 12011G19KT 15SM BKN008 OVC024 19/17 A2992 RMK SF7SC1 SLP131

CYYG;2008-08-03 21:11;CYYG 032111Z 13019KT 15SM -SHRA OVC009 19/ RMK SF8

CYYG;2008-08-03 22:00;CYYG 032200Z 12016G21KT 15SM -SHRA OVC009 18/17 A2991 RMK SF8 SLP130

CYYG;2008-08-03 23:00;CYYG 032300Z 12016G21KT 10SM -SHRA OVC007 18/17 A2992 RMK SF8 SLP131

CYYG;2008-08-04 00:00;CYYG 040000Z 12012G18KT 10SM -SHRA OVC008 17/17 A2992 RMK SF8 SLP131

CYYG;2008-08-04 01:00;CYYG 040100Z 12014KT 10SM -SHRA OVC009 17/16 A2992 RMK SF8 SLP132

CYYG;2008-08-04 02:00;CYYG 040200Z 12011KT 10SM -RA OVC010 17/16 A2991 RMK SF8 SLP129

CYYG;2008-08-04 02:45;CYYG 040245Z 11010G18KT 8SM RA OVC008 17/ RMK SF8

CYYG;2008-08-04 03:00;CYYG 040300Z 11011G16KT 8SM RA OVC009 17/16 A2990 RMK SF8 SLP124

CYYG;2008-08-04 04:00;CYYG 040400Z 11013KT 8SM RA OVC009 17/16 A2988 RMK SF8 SLP120

CYYG;2008-08-04 05:00;CYYG 040500Z 10010KT 8SM -RA OVC008 17/16 A2987 RMK SF8 RERA SLP116

CYYG;2008-08-04 06:00;CYYG 040600Z 10012KT 8SM -RA OVC008 17/16 A2986 RMK SF8 SLP111

CYYG;2008-08-04 07:00;CYYG 040700Z 09013G19KT 10SM -RA OVC010 17/16 A2983 RMK SF8 SLP103

CYYG;2008-08-04 07:08;CYYG 040708Z 09014G19KT 10SM RA OVC012 17/ RMK SF8

CYYG;2008-08-04 08:00;CYYG 040800Z 09012G18KT 8SM RA OVC009 17/16 A2982 RMK SF8 SLP098

CYYG;2008-08-04 09:00;CYYG 040900Z 09014KT 5SM RA BR BKN010 OVC018 16/15 A2982 RMK SF7SC1 SLP097

CYYG;2008-08-04 09:22;CYYG 040922Z 08013KT 3SM RA BR OVC009 16/ RMK SF8

CYYG;2008-08-04 10:00;CYYG 041000Z 08012KT 2 1/2SM RA BR OVC009 16/15 A2981 RMK SF8 SLP096

CYYG;2008-08-04 10:15;CYYG 041015Z 07012KT 3SM -RA BR OVC007 16/ RMK SF8 RERA

CYYG;2008-08-04 11:00;CYYG 041100Z 09009KT 2 1/2SM RA BR OVC006 16/16 A2981 RMK SF8 /R25/ SLP096

CYYG;2008-08-04 11:44;CYYG 041144Z 08008KT 4SM -RA BR OVC007 16/ RERA RMK SF8

CYYG;2008-08-04 12:00;CYYG 041200Z 07009KT 4SM -RA BR OVC006 16/16 A2981 RERA RMK SF8 SLP096

CYYG;2008-08-04 12:54;CYYG 041254Z 08011KT 6SM -DZ BR BKN006 OVC011 17/ RMK SF6SC2 VIS HIER S

CYYG;2008-08-04 13:00;CYYG 041300Z 08009KT 6SM -DZ BR BKN006 OVC011 17/16 A2980 RMK SF6SC2 SLP092

CYYG;2008-08-04 14:00;CYYG 041400Z 09011KT 15SM -DZ BKN007 OVC014 18/17 A2980 RMK SF6SC2 SLP091

CYYG;2008-08-04 15:00;CYYG 041500Z 08009KT 15SM -DZ OVC009 19/17 A2979 RMK SF8 VIS LWR NW-N SLP088

CYYG;2008-08-04 16:00;CYYG 041600Z 03008KT 3SM -DZ BR OVC007 19/18 A2978 RMK SF8 SLP085

CYYG;2008-08-04 16:20;CYYG 041620Z 05006KT 2SM -DZ BR BKN005 OVC009 18/ RMK SF6SF2 VIS LWR SW

CYYG;2008-08-04 17:00;CYYG 041700Z 07009KT 2SM -DZ BR OVC005 19/18 A2977 RMK SF8 SLP083

CYYG;2008-08-04 17:18;CYYG 041718Z 08013KT 4SM -DZ BR FEW004 BKN008 OVC014 20/ RMK SF2SF6SC1 VIS LWR N

CYYG;2008-08-04 18:00;CYYG 041800Z 08009KT 3SM -DZ BR FEW004 BKN009 OVC014 20/18 A2977 RMK SF1SF6SC1 SLP082

CYYG;2008-08-04 19:00;CYYG 041900Z 06013KT 2SM -DZ BR BKN004 OVC009 18/17 A2977 RMK SF5SF3 SLP080

CYYG;2008-08-04 20:00;CYYG 042000Z 04011KT 2 1/2SM -DZ BR FEW003 OVC005 17/16 A2977 RMK SF2SF6 SLP080

CYYG;2008-08-04 21:00;CYYG 042100Z 04009KT 2SM -DZ BR FEW003 OVC005 16/16 A2978 RMK SF2SF6 SLP084

CYYG;2008-08-04 22:00;CYYG 042200Z 05010KT 2SM -DZ BR BKN003 OVC005 16/15 A2978 RMK SF6SF2 SLP085

CYYG;2008-08-04 23:00;CYYG 042300Z 03013KT 2SM -DZ BR OVC003 15/14 A2979 RMK SF8 SLP088

CYYG;2008-08-05 00:00;CYYG 050000Z 04011KT 5SM -DZ BR OVC005 14/14 A2979 RMK SF8 SLP088

CYYG;2008-08-05 01:00;CYYG 050100Z 03011KT 5SM -DZ BR OVC007 14/14 A2980 RMK SF8 SLP093

CYYG;2008-08-05 02:00;CYYG 050200Z 05015G20KT 6SM -DZ BR BKN006 OVC011 14/14 A2980 RMK SF6SC2 SLP093

CYYG;2008-08-05 03:00;CYYG 050300Z 06014G19KT 8SM -DZ BKN007 OVC014 14/14 A2981 RMK SF6SC2 SLP095

CYYG;2008-08-05 04:00;CYYG 050400Z 06013G19KT 8SM -DZ OVC006 14/13 A2981 RMK SF8 SLP095

CYYG;2008-08-05 05:00;CYYG 050500Z 05013G18KT 8SM -DZ OVC004 14/13 A2981 RMK SF8 SLP094

CYYG;2008-08-05 06:00;CYYG 050600Z 05017KT 8SM -RADZ OVC006 13/13 A2981 RMK SF8 SLP096

CYYG;2008-08-05 07:00;CYYG 050700Z 05015KT 10SM -DZ OVC006 13/13 A2982 RMK SF8 SLP098

CYYG;2008-08-05 08:00;CYYG 050800Z 05015G20KT 12SM OVC007 14/13 A2982 RMK SF8 SLP098

CYYG;2008-08-05 09:00;CYYG 050900Z 05012G18KT 12SM OVC007 13/13 A2984 RMK SF8 SLP104

CYYG;2008-08-05 09:46;CYYG 050946Z 05012KT 6SM BR OVC005 13/ RMK SF8

CYYG;2008-08-05 10:00;CYYG 051000Z 05015KT 6SM BR OVC006 13/12 A2985 RMK SF8 SLP107

CYYG;2008-08-05 10:45;CYYG 051045Z 05015G21KT 6SM -DZ BR OVC005 13/ RMK SF8

CYYG;2008-08-05 11:00;CYYG 051100Z 05015KT 6SM -DZ BR OVC005 13/13 A2985 RMK SF8 SLP108

CYYG;2008-08-05 11:52;CYYG 051152Z 05015KT 6SM -DZ BR OVC004 13/ RMK SF8

CYYG;2008-08-05 12:00;CYYG 051200Z 05017KT 3SM -DZ BR OVC004 13/12 A2987 RMK SF8 SLP115

CYYG;2008-08-05 12:22;CYYG 051222Z 05016G24KT 2SM -RA BR BKN004 OVC008 13/ RMK SF6SF2

CYYG;2008-08-05 13:00;CYYG 051300Z 04015G20KT 3SM -RA BR BKN004 OVC008 13/13 A2988 RMK SF6SF2 SLP120

CYYG;2008-08-05 14:00;CYYG 051400Z 04015G20KT 6SM -RA BR BKN004 BKN008 OVC025 14/13 A2989 RMK SF6SF2SC1 SLP121

CYYG;2008-08-05 14:55;CYYG 051455Z 04016G21KT 15SM SCT004 BKN008 OVC018 15/ RMK SF3SF2SC2

CYYG;2008-08-05 15:00;CYYG 051500Z 06015G21KT 15SM SCT005 BKN008 OVC020 14/13 A2989 RMK SF3SF2SC2 SLP123

CYYG;2008-08-05 16:00;CYYG 051600Z 05018KT 15SM SCT008 BKN022 OVC045 15/14 A2990 RMK SF4SC2SC2 SLP124

CYYG;2008-08-05 17:00;CYYG 051700Z 04015G22KT 15SM SCT008 BKN015 OVC040 15/14 A2990 RMK SF3SC3SC2 SLP127

CYYG;2008-08-05 17:48;CYYG 051748Z 04013G19KT 5SM -DZ BR BKN009 OVC020 14/ RMK SF6SC2 VIS LWR W

CYYG;2008-08-05 18:00;CYYG 051800Z 05013G18KT 2SM -DZ BR BKN007 OVC018 14/13 A2991 RMK SF6SC2 SLP129

CYYG;2008-08-05 18:44;CYYG 051844Z 04011G18KT 15SM BKN008 OVC018 15/ RMK SF5SC3

CYYG;2008-08-05 19:00;CYYG 051900Z 03012G17KT 15SM SCT008 OVC022 15/14 A2991 RMK SF4SC4 SLP128

CYYG;2008-08-05 20:00;CYYG 052000Z 03016KT 15SM FEW008 SCT025 BKN100 16/13 A2991 RMK SF1SC2AC2 SLP129

CYYG;2008-08-05 21:00;CYYG 052100Z 03015KT 15SM FEW008 SCT013 BKN099 17/13 A2991 RMK SF1SC2AC3 SLP130

CYYG;2008-08-05 22:00;CYYG 052200Z 02011G17KT 15SM FEW015 BKN026 BKN098 16/13 A2992 RMK SC2SC3AC2 SLP133

CYYG;2008-08-05 23:00;CYYG 052300Z 36006KT 15SM FEW018 BKN032 14/12 A2992 RMK SC1SC6 SLP133

CYYG;2008-08-05 23:41;CYYG 052341Z 36007KT 15SM FEW005 BKN027 14/ RMK SF2SC5

CYYG;2008-08-06 00:00;CYYG 060000Z 01006KT 15SM -SHRA SCT004 BKN025 14/13 A2993 RMK SF3SC4 VIS SW-W 3 SLP135

CYYG;2008-08-06 00:33;CYYG 060033Z 01005KT 15SM FEW004 BKN029 14/ RMK SF2SC6

CYYG;2008-08-06 01:00;CYYG 060100Z 35008KT 15SM BKN004 BKN017 BKN033 14/13 A2993 RMK SF5SC2SC1 SLP135

CYYG;2008-08-06 01:32;CYYG 060132Z 35008KT 15SM FEW004 SCT023 BKN039 14/ RMK SF2SC2SC4

CYYG;2008-08-06 02:00;CYYG 060200Z 36006KT 15SM FEW023 BKN039 14/13 A2992 RMK SC2SC5 SLP132

CYYG;2008-08-06 02:19;CYYG 060219Z 36007KT 5SM -SHRA BR BKN005 OVC025 14/ RMK SF5SC3

CYYG;2008-08-06 03:00;CYYG 060300Z 36009KT 15SM FEW005 SCT017 OVC053 13/13 A2991 RMK SF2SC2SC4 SLP129

CYYG;2008-08-06 03:25;CYYG 060325Z 36009KT 6SM -SHRA BR FEW011 OVC026 13/ RMK SF2SC6

CYYG;2008-08-06 04:00;CYYG 060400Z 35007KT 15SM FEW007 FEW012 FEW026 13/13 A2990 RMK SF1SC1SC1 SLP126

CYYG;2008-08-06 05:00;CYYG 060500Z 35008KT 15SM BKN025 BKN037 13/13 A2990 RMK SC5SC2 SLP124

CYYG;2008-08-06 06:00;CYYG 060600Z 35007KT 15SM FEW010 FEW040 13/13 A2989 RMK SF1SC2 SLP122

CYYG;2008-08-06 07:00;CYYG 060700Z 34008KT 15SM FEW022 BKN044 13/13 A2989 RMK SC2SC3 SLP121

CYYG;2008-08-06 07:15;CYYG 060715Z 35009KT 15SM BKN004 BKN009 BKN018 14/ RMK SF5SF1SC1

CYYG;2008-08-06 08:00;CYYG 060800Z 34009KT 15SM BKN004 BKN028 BKN034 14/13 A2988 RMK SF5SC2SC1 SLP119

CYYG;2008-08-06 08:42;CYYG 060842Z 34007KT 5SM -DZ BR BKN004 BKN020 14/ RMK SF6SC2 VIS NE-S 15

CYYG;2008-08-06 09:00;CYYG 060900Z 33008KT 10SM -DZ BKN003 OVC014 13/13 A2988 RMK SF7SC1 SLP119

CYYG;2008-08-06 09:48;CYYG 060948Z 34007KT 10SM -DZ SCT004 BKN027 14/ RMK SF3SC3

CYYG;2008-08-06 10:00;CYYG 061000Z 35007KT 10SM -DZ FEW005 SCT030 BKN041 14/13 A2989 RMK SF2SC2SC2 SLP121

CYYG;2008-08-06 10:14;CYYG 061014Z 35008KT 15SM FEW005 FEW030 SCT041 14/ RMK SF1SC2SC1

CYYG;2008-08-06 11:00;CYYG 061100Z 34008KT 15SM SCT005 BKN024 14/13 A2988 RMK SF3SC2 SLP120

CYYG;2008-08-06 11:10;CYYG 061110Z 23009KT 15SM BKN005 BKN020 14/ RMK SF6SC2

CYYG;2008-08-06 12:00;CYYG 061200Z 08008G17KT 10SM BKN006 15/14 A2988 RMK SF7 SLP119

CYYG;2008-08-06 13:00;CYYG 061300Z 02009G16KT 4SM BR OVC008 15/14 A2988 RMK SF8 SLP118

CYYG;2008-08-06 13:40;CYYG 061340Z 02009KT 5SM -SHRA BR BKN009 OVC034 16/ RMK SF6SC2

CYYG;2008-08-06 14:00;CYYG 061400Z 01012KT 5SM -SHRA BR OVC009 16/14 A2987 RMK SF8 SLP117

CYYG;2008-08-06 14:29;CYYG 061429Z 02014G19KT 10SM BKN011 16/ RMK SF7

CYYG;2008-08-06 15:00;CYYG 061500Z 01011G16KT 10SM -SHRA OVC010 16/14 A2987 RMK SF8 SLP114

CYYG;2008-08-06 16:00;CYYG 061600Z 04013G18KT 10SM -SHRA OVC009 16/14 A2987 RMK SF8 SLP114

CYYG;2008-08-06 16:04;CYYG 061604Z 04015KT 15SM SCT009 BKN027 17/ RMK SF3SC4

CYYG;2008-08-06 17:00;CYYG 061700Z 36010KT 10SM VCSH BKN012 OVC025 17/14 A2986 RMK SF6SC2 SLP111

CYYG;2008-08-06 18:00;CYYG 061800Z 02012G18KT 15SM SCT014 BKN024 17/14 A2985 RMK SC3SC4 SLP109

CYYG;2008-08-06 19:00;CYYG 061900Z 02014G19KT 15SM BKN018 16/13 A2985 RMK SC7 SLP109

CYYG;2008-08-06 20:00;CYYG 062000Z 02011G16KT 15SM BKN018 BKN024 BKN300 16/13 A2986 RMK SC5SC2CI0 SLP112

CYYG;2008-08-06 21:00;CYYG 062100Z 02008G15KT 15SM BKN021 15/13 A2986 RMK SC6 SLP113

CYYG;2008-08-06 22:00;CYYG 062200Z 02009KT 15SM FEW020 SCT300 15/12 A2986 RMK SC2CI2 SLP113

CYYG;2008-08-06 23:00;CYYG 062300Z 36003KT 15SM FEW012TCU SCT041 14/13 A2987 RMK TCU1SC2 TCU SE-S SLP116

CYYG;2008-08-07 00:00;CYYG 070000Z 36004KT 15SM FEW018 FEW041 FEW300 13/12 A2987 RMK SC1SC1CI0 SLP114

CYYG;2008-08-07 01:00;CYYG 070100Z 36004KT 15SM FEW041 FEW300 12/12 A2987 RMK SC1CI0 SLP115

CYYG;2008-08-07 02:00;CYYG 070200Z 03004KT 15SM FEW040 11/11 A2987 RMK SC2 SLP114

CYYG;2008-08-07 03:00;CYYG 070300Z 28003KT 15SM FEW004 BKN021 OVC063 12/12 A2987 RMK SF2SC5SC2 SLP114

CYYG;2008-08-07 04:00;CYYG 070400Z 31003KT 15SM FEW004 BKN023 OVC064 12/12 A2986 RMK SF1SC5SC2 SLP111

CYYG;2008-08-07 05:00;CYYG 070500Z 36002KT 15SM OVC033 12/12 A2985 RMK SC8 SLP110

CYYG;2008-08-07 06:00;CYYG 070600Z 35004KT 15SM FEW013 OVC031 12/12 A2985 RMK SC2SC6 SLP109

CYYG;2008-08-07 07:00;CYYG 070700Z 36003KT 15SM FEW025 BKN063 12/12 A2984 RMK SC2SC4 SLP106

CYYG;2008-08-07 07:18;CYYG 070718Z 36002KT 2SM BR BKN011 BKN063 12/ RMK SC5SC2

CYYG;2008-08-07 08:00;CYYG 070800Z 34003KT 15SM FEW015 FEW037 SCT066 12/11 A2985 RMK SC2SC1AC2 SLP107

CYYG;2008-08-07 08:42;CYYG 070842Z 35003KT 2SM BR FEW020 SCT053 BKN064 12/ RMK SC2SC2SC4 VIS SE-W 15

CYYG;2008-08-07 09:00;CYYG 070900Z 36004KT 15SM FEW005 SCT053 BKN064 12/12 A2985 RMK SF2SC2SC4 VIS NW-E 2 BR SLP108

CYYG;2008-08-07 09:24;CYYG 070924Z 01004KT 2SM BR BKN003 OVC064 13/ RMK SF6SC2

CYYG;2008-08-07 09:44;CYYG 070944Z 01004KT 3SM BR FEW002 BKN069 13/ RMK SF2AC5

CYYG;2008-08-07 10:00;CYYG 071000Z 01004KT 10SM FEW002 BKN067 13/13 A2985 RMK SF2AC6 VIS NW-NE 3 BR SLP109

CYYG;2008-08-07 11:00;CYYG 071100Z 03005KT 15SM SCT008 BKN020 14/14 A2986 RMK SF3SC4 SLP113

CYYG;2008-08-07 12:00;CYYG 071200Z 05006KT 15SM SCT007 BKN022 OVC070 15/14 A2987 RMK SF4SC3AC1 SLP115

CYYG;2008-08-07 13:00;CYYG 071300Z 04006KT 15SM FEW008 BKN017 BKN072 16/14 A2986 RMK SF2SC4AC1 SLP113

CYYG;2008-08-07 14:00;CYYG 071400Z 05009KT 15SM SCT014 BKN029 17/14 A2986 RMK SC3SC4 SLP113

CYYG;2008-08-07 15:00;CYYG 071500Z 04007KT 15SM FEW014 BKN024 BKN100 18/14 A2985 RMK SC2SC3AC1 SLP110

CYYG;2008-08-07 16:00;CYYG 071600Z 05004KT 15SM VCSH BKN030 BKN100 18/14 A2985 RMK SC6AC1 SLP110

CYYG;2008-08-07 17:00;CYYG 071700Z 10010G15KT 15SM -SHRA FEW008 BKN019 BKN100 17/14 A2986 RMK SF2SC4AC2 VIS NE-SE 2 SLP111

CYYG;2008-08-07 17:24;CYYG 071724Z 07006KT 2 1/2SM -SHRA BR BKN008 BKN017 OVC041 15/ RMK SF5SC2SC2 VIS HIER N

CYYG;2008-08-07 18:00;CYYG 071800Z 07005KT 2SM -SHRA BR FEW004 BKN016 OVC027 16/15 A2987 RMK SF2SC4SC2 SLP115

CYYG;2008-08-07 19:00;CYYG 071900Z 08006KT 8SM -SHRA FEW008 SCT034 OVC038 16/15 A2986 RMK SF2SC2SC3 VIS E 2 1/2 SLP113

CYYG;2008-08-07 20:00;CYYG 072000Z 05005KT 15SM VCSH FEW007 SCT016 BKN053 16/15 A2986 RMK SF1CU3SC3 VIS LWR E SLP112

CYYG;2008-08-07 21:00;CYYG 072100Z 07006KT 15SM FEW015 BKN054 17/15 A2985 RMK SC2SC5 SLP109

CYYG;2008-08-07 22:00;CYYG 072200Z 06006KT 15SM VCSH FEW017TCU BKN060 BKN080 17/15 A2985 RMK TCU2SC3AC2 SLP109

CYYG;2008-08-07 23:00;CYYG 072300Z 08004KT 15SM VCSH SCT018TCU BKN030 BKN080 16/14 A2986 RMK TCU3SC2AC2 SLP111

CYYG;2008-08-08 00:00;CYYG 080000Z 11004KT 15SM FEW013 BKN026 BKN070 16/14 A2986 RMK SC2SC3AC2 TCU ASOCTD SLP112

CYYG;2008-08-08 01:00;CYYG 080100Z 11004KT 15SM FEW013 BKN030 BKN080 15/14 A2987 RMK SC2SC3AC2 SLP114

CYYG;2008-08-08 02:00;CYYG 080200Z 06002KT 15SM SCT030 SCT080 13/13 A2986 RMK SC3AC1 SLP113

CYYG;2008-08-08 03:00;CYYG 080300Z 12003KT 15SM FEW030 FEW080 13/13 A2985 RMK SC2AC1 SLP110

CYYG;2008-08-08 04:00;CYYG 080400Z 15004KT 15SM SCT005 14/14 A2985 RMK SF4 SLP107

CYYG;2008-08-08 05:00;CYYG 080500Z 00000KT 15SM BKN007 14/13 A2984 RMK SF6 SLP106

CYYG;2008-08-08 06:00;CYYG 080600Z 00000KT 2SM BR OVC003 14/13 A2984 RMK SF8 SLP105

CYYG;2008-08-08 07:00;CYYG 080700Z 13004KT 3SM BR BKN003 OVC080 14/13 A2984 RMK SF6AC2 SLP105

CYYG;2008-08-08 07:09;CYYG 080709Z 13004KT 10SM SCT003 BKN011 BKN080 14/ RMK SF3SC2AC2

CYYG;2008-08-08 08:00;CYYG 080800Z 14004KT 15SM FEW003 SCT012 BKN082 14/14 A2984 RMK SF2SC2AC4 SLP105

CYYG;2008-08-08 09:00;CYYG 080900Z 15004KT 15SM FEW003 FEW015 BKN082 15/14 A2984 RMK SF2SC1AC5 SLP106

CYYG;2008-08-08 10:00;CYYG 081000Z 16005KT 15SM FEW005 SCT035 BKN077 15/14 A2985 RMK SF2SC2AC3 SLP107

CYYG;2008-08-08 10:55;CYYG 081055Z 17008KT 15SM BKN008 OVC036 15/ RMK SF5SC3

CYYG;2008-08-08 11:00;CYYG 081100Z 17006KT 15SM BKN007 OVC037 15/14 A2986 RMK SF5SC3 SLP111

CYYG;2008-08-08 12:00;CYYG 081200Z 18005KT 15SM BKN006 BKN035 16/14 A2985 RMK SF6SC2 SLP109

CYYG;2008-08-08 13:00;CYYG 081300Z 17008KT 15SM BKN008 BKN035 17/15 A2985 RMK SF5SC2 SLP109

CYYG;2008-08-08 13:26;CYYG 081326Z 18008KT 15SM SCT010 BKN260 17/ RMK SC4CI2

CYYG;2008-08-08 14:00;CYYG 081400Z 16008KT 15SM SCT013 BKN260 18/14 A2985 RMK SC4CI2 SLP108

CYYG;2008-08-08 15:00;CYYG 081500Z 17009KT 15SM SCT013 BKN260 19/15 A2984 RMK SC3CI3 SLP104

CYYG;2008-08-08 16:00;CYYG 081600Z 16009KT 15SM FEW024 BKN260 20/13 A2983 RMK CU2CI3 SLP103

CYYG;2008-08-08 17:00;CYYG 081700Z 18008KT 15SM FEW025 BKN260 20/14 A2983 RMK CU2CI3 SLP101

CYYG;2008-08-08 18:00;CYYG 081800Z 17005KT 15SM FEW025 BKN260 20/14 A2982 RMK CU2CI2 SLP098

CYYG;2008-08-08 19:00;CYYG 081900Z 18009KT 15SM FEW025 BKN260 21/14 A2979 RMK CU2CI2 SLP090

CYYG;2008-08-08 20:00;CYYG 082000Z 15008KT 15SM FEW028 SCT050 BKN260 21/14 A2979 RMK CU1SC3CI2 SLP088

CYYG;2008-08-08 21:00;CYYG 082100Z 14007KT 15SM FEW030 SCT054 BKN260 20/14 A2978 RMK CU1SC3CI2 SLP085

CYYG;2008-08-08 22:00;CYYG 082200Z 14008KT 15SM FEW030 SCT050 BKN065 BKN200 19/15 A2978 RMK CU1SC2SC2CI1 SLP084

CYYG;2008-08-08 23:00;CYYG 082300Z 14008KT 15SM SCT033 BKN130 19/14 A2977 RMK SC3AC4 SLP081

CYYG;2008-08-09 00:00;CYYG 090000Z 15006KT 15SM BKN130 18/14 A2978 RMK AC7 SLP086

CYYG;2008-08-09 01:00;CYYG 090100Z 15006KT 15SM OVC130 17/14 A2977 RMK AC8 SLP082

CYYG;2008-08-09 02:00;CYYG 090200Z 11002KT 15SM SCT060 BKN130 17/15 A2977 RMK SC3AC4 SLP082

CYYG;2008-08-09 02:10;CYYG 090210Z 13005KT 15SM -SHRA SCT034 BKN060 OVC130 17/ RMK SC3SC2AC2

CYYG;2008-08-09 03:00;CYYG 090300Z 12004KT 15SM -SHRA SCT030 BKN042 OVC130 16/15 A2977 RMK SC3SC2AC3 SLP080

CYYG;2008-08-09 04:00;CYYG 090400Z 12005KT 15SM -SHRA BKN042 OVC100 16/15 A2976 RMK SC5AC3 SLP078

CYYG;2008-08-09 04:45;CYYG 090445Z 11005KT 15SM FEW020 BKN040 BKN060 16/ RMK SC2SC2SC2

CYYG;2008-08-09 05:00;CYYG 090500Z 12006KT 15SM FEW020 BKN043 BKN120 16/15 A2975 RMK SC2SC3AC2 SLP076

CYYG;2008-08-09 06:00;CYYG 090600Z 11005KT 15SM SCT048 BKN075 16/15 A2974 RMK SC3AC3 SLP072

CYYG;2008-08-09 07:00;CYYG 090700Z 12008KT 15SM BKN009 OVC060 16/15 A2974 RMK SF6SC2 SLP070

CYYG;2008-08-09 08:00;CYYG 090800Z 11006KT 15SM BKN009 OVC077 16/15 A2972 RMK SF6AC2 SLP065

CYYG;2008-08-09 08:38;CYYG 090838Z 09006KT 10SM -SHRA OVC008 16/ RMK SF8

CYYG;2008-08-09 09:00;CYYG 090900Z 12004KT 5SM -SHRA BR OVC008 16/15 A2973 RMK SF8 SLP068

CYYG;2008-08-09 09:54;CYYG 090954Z 12007KT 1SM R03/4500VP6000FT/D -SHRA BR OVC006 16/ RMK SF8

CYYG;2008-08-09 10:00;CYYG 091000Z 12007KT 1SM R03/4500VP6000FT/U -SHRA BR OVC006 16/15 A2974 RMK SF8 SLP071

CYYG;2008-08-09 11:00;CYYG 091100Z 08009KT 2SM -SHRA BR BKN004 OVC010 16/15 A2976 RMK SF7SC1 SLP076

CYYG;2008-08-09 11:30;CYYG 091130Z 06005KT 2 1/2SM -DZ BR BKN004 OVC028 16/ RMK SF5SC3

CYYG;2008-08-09 12:00;CYYG 091200Z 06007KT 2 1/2SM -SHRA BR BKN004 OVC022 16/15 A2977 RMK SF5SC3 SLP080

CYYG;2008-08-09 13:00;CYYG 091300Z 07009KT 1SM R03/P6000FT/D -SHRA BR BKN004 OVC020 17/16 A2977 RMK SF5SC3 SLP083

CYYG;2008-08-09 14:00;CYYG 091400Z 08009KT 2SM -SHRA BR BKN005 OVC017 17/16 A2977 RMK SF6SC2 SLP083

CYYG;2008-08-09 14:30;CYYG 091430Z 10009KT 2 1/2SM -DZ BR BKN006 OVC017 18/ RMK SF6SC2

CYYG;2008-08-09 15:00;CYYG 091500Z 11010KT 3SM -DZ BR BKN006 OVC015 18/17 A2978 RMK SF6SC2 SLP084

CYYG;2008-08-09 15:36;CYYG 091536Z 12009KT 10SM -DZ BKN006 OVC014 18/ RMK SF7SC1

CYYG;2008-08-09 16:00;CYYG 091600Z 10007KT 12SM -DZ BKN005 OVC014 18/17 A2978 RMK SF7SC1 PCPN VRY LGT SLP086

CYYG;2008-08-09 16:34;CYYG 091634Z 13009KT 15SM OVC006 19/ RMK SC8

CYYG;2008-08-09 17:00;CYYG 091700Z 13005KT 15SM OVC008 20/18 A2978 RMK SC8 SLP086

CYYG;2008-08-09 18:00;CYYG 091800Z 11006KT 15SM BKN010 BKN018 20/18 A2978 RMK SC6SC2 SLP085

CYYG;2008-08-09 19:00;CYYG 091900Z 10006KT 15SM BKN013 BKN036 BKN200 22/19 A2978 RMK SC5SC2CI1 SLP086

CYYG;2008-08-09 20:00;CYYG 092000Z 03004KT 15SM SCT022 BKN120 BKN240 20/18 A2979 RMK SC3AC2CI1 SLP087

CYYG;2008-08-09 21:00;CYYG 092100Z 11004KT 15SM SCT022 BKN036 BKN240 22/17 A2979 RMK SC4SC1CI1 SLP089

CYYG;2008-08-09 22:00;CYYG 092200Z 11007KT 15SM FEW013 BKN026 BKN100 21/18 A2980 RMK SC1SC4AC1 SLP092

CYYG;2008-08-09 23:00;CYYG 092300Z 11004KT 15SM SCT026 BKN120 BKN240 19/17 A2983 RMK SC3AC3CI1 SLP100

CYYG;2008-08-10 00:00;CYYG 100000Z 13006KT 15SM FEW030TCU BKN068 BKN100 19/17 A2985 RMK TCU2AC3AC1 OCNL DIST LTGIC S SLP107

CYYG;2008-08-10 01:00;CYYG 100100Z 13005KT 15SM BKN012 BKN062 18/17 A2985 RMK SC6SC1 SLP110

CYYG;2008-08-10 01:43;CYYG 100143Z 12002KT 15SM BKN008 18/ RMK SF7

CYYG;2008-08-10 02:00;CYYG 100200Z 10002KT 15SM BKN007 18/17 A2986 RMK SF6 SLP111

CYYG;2008-08-10 03:00;CYYG 100300Z 12003KT 15SM BKN007 BKN064 18/17 A2986 RMK SF5SC2 SLP113

CYYG;2008-08-10 04:00;CYYG 100400Z 08002KT 10SM BKN002 OVC009 17/16 A2987 RMK SF6SF2 SLP114

CYYG;2008-08-10 05:00;CYYG 100500Z 09002KT 15SM OVC005 18/17 A2987 RMK SF8 SLP115

CYYG;2008-08-10 06:00;CYYG 100600Z 12003KT 15SM OVC003 18/17 A2987 RMK SF8 SLP116

CYYG;2008-08-10 07:00;CYYG 100700Z 14003KT 15SM BKN002 OVC008 18/17 A2987 RMK SF5SF3 SLP116

CYYG;2008-08-10 08:00;CYYG 100800Z 12003KT 15SM BKN003 OVC009 17/17 A2988 RMK SF6SF2 SLP120

CYYG;2008-08-10 08:53;CYYG 100853Z 13003KT 5SM BR FEW002 OVC018 18/ RMK SF2SC6

CYYG;2008-08-10 09:00;CYYG 100900Z 13003KT 5SM BR FEW002 OVC016 17/17 A2990 RMK SF2SC6 SLP126

CYYG;2008-08-10 10:00;CYYG 101000Z 00000KT 2SM BR FEW002 BKN019 17/17 A2991 RMK SF2SC5 VIS SE-W 5 SLP128

CYYG;2008-08-10 10:19;CYYG 101019Z 08003KT 1/2SM R03/P6000FT/N FG BKN016 18/ RMK FG4SC2

CYYG;2008-08-10 10:49;CYYG 101049Z 09002KT 2SM BR OVC003 18/ RMK SF8

CYYG;2008-08-10 11:00;CYYG 101100Z 00000KT 2SM BR OVC002 18/17 A2992 RMK SF8 SLP132

CYYG;2008-08-10 11:36;CYYG 101136Z 00000KT 8SM BKN004 BKN020 19/ RMK SF6SC2

CYYG;2008-08-10 12:00;CYYG 101200Z 00000KT 12SM BKN008 BKN014 19/17 A2994 RMK SF5SC2 SLP138

CYYG;2008-08-10 12:44;CYYG 101244Z 32003KT 15SM BKN010 BKN024 20/ RMK SC5SC2

CYYG;2008-08-10 13:00;CYYG 101300Z 01002KT 15SM BKN012 BKN020 20/17 A2994 RMK SC5SC2 SLP139

CYYG;2008-08-10 14:00;CYYG 101400Z 17006KT 15SM BKN012 BKN021 21/18 A2995 RMK SC6SC2 SLP141

CYYG;2008-08-10 15:00;CYYG 101500Z 17005KT 15SM VCSH BKN013 BKN021 22/18 A2996 RMK SC6SC2 SLP144

CYYG;2008-08-10 16:00;CYYG 101600Z 06006KT 15SM VCSH BKN013 BKN020 20/17 A2995 RMK SC6SC2 SLP143

CYYG;2008-08-10 16:42;CYYG 101642Z 03007KT 15SM VCSH SCT009 BKN014 19/ RMK SC4SC3

CYYG;2008-08-10 17:00;CYYG 101700Z 02005KT 15SM VCSH BKN009 BKN014 20/17 A2996 RMK SC5SC2 SLP146

CYYG;2008-08-10 17:10;CYYG 101710Z 02005KT 15SM VCSH SCT009 BKN014 20/ RMK SC4SC3

CYYG;2008-08-10 18:00;CYYG 101800Z 03005KT 15SM VCSH SCT009 BKN014 22/19 A2997 RMK SC4SC3 SLP148

CYYG;2008-08-10 19:00;CYYG 101900Z 06007KT 15SM FEW010 BKN019 21/18 A2996 RMK SC2SC5 SLP147

CYYG;2008-08-10 19:11;CYYG 101911Z 06007KT 15SM FEW015 BKN058 BKN280 21/ RMK SC1SC6CI1

CYYG;2008-08-10 20:00;CYYG 102000Z 06007KT 15SM FEW016 BKN060 BKN280 21/18 A2996 RMK SC2SC2CI1 SLP145

CYYG;2008-08-10 21:00;CYYG 102100Z 09007KT 15SM FEW016 BKN110 BKN280 21/18 A2996 RMK SC2AC3CI1 SLP145

CYYG;2008-08-10 22:00;CYYG 102200Z 09007KT 15SM SCT022 BKN110 BKN280 20/17 A2996 RMK SC4AC2CI1 SLP145

CYYG;2008-08-10 23:00;CYYG 102300Z 08005KT 15SM FEW040 SCT300 19/17 A2997 RMK SC2CI1 SLP148

CYYG;2008-08-11 00:00;CYYG 110000Z 11003KT 15SM BKN026 18/16 A2998 RMK SC6 SLP153

CYYG;2008-08-11 01:00;CYYG 110100Z 08003KT 15SM SCT029 17/16 A2999 RMK SC2 SLP155

CYYG;2008-08-11 02:00;CYYG 110200Z 12005KT 15SM SCT006 OVC019 17/17 A2999 RMK SF3SC5 SLP156

CYYG;2008-08-11 03:00;CYYG 110300Z 14007KT 15SM FEW008 BKN039 17/16 A2998 RMK SF2SC6 SLP153

CYYG;2008-08-11 04:00;CYYG 110400Z 16006KT 15SM SCT028 17/16 A2998 RMK SC2 SLP152

CYYG;2008-08-11 05:00;CYYG 110500Z 16006KT 15SM FEW030 SCT070 17/16 A2997 RMK SC1AC2 SLP150

CYYG;2008-08-11 06:00;CYYG 110600Z 14004KT 10SM SCT005 BKN065 17/16 A2997 RMK SF3SC3 SLP148

CYYG;2008-08-11 07:00;CYYG 110700Z 14005KT 10SM FEW007 BKN019 OVC034 17/16 A2996 RMK SF2SC5SC2 SLP147

CYYG;2008-08-11 08:00;CYYG 110800Z 17004KT 10SM FEW006 BKN017 OVC037 17/16 A2996 RMK SF2SC4SC2 SLP147

CYYG;2008-08-11 09:00;CYYG 110900Z 16004KT 10SM FEW006 SCT018 BKN043 17/16 A2996 RMK SF2SC2SC4 SLP145

CYYG;2008-08-11 10:00;CYYG 111000Z 15006KT 15SM FEW005 BKN049 17/16 A2996 RMK SF2SC6 SLP144

CYYG;2008-08-11 10:50;CYYG 111050Z 15005KT 12SM BKN006 BKN055 BKN087 18/ RMK SF4SC2AC2

CYYG;2008-08-11 11:00;CYYG 111100Z 15004KT 12SM BKN006 BKN055 OVC085 18/17 A2997 RMK SF5SC2AC2 SLP149

CYYG;2008-08-11 12:00;CYYG 111200Z 13005KT 12SM BKN008 BKN020 OVC090 18/17 A2998 RMK SF6SC2AC1 SLP151

CYYG;2008-08-11 13:00;CYYG 111300Z 11003KT 12SM BKN010 BKN027 BKN160 19/16 A2996 RMK SC6SC1AC1 SLP145

CYYG;2008-08-11 14:00;CYYG 111400Z 16007KT 15SM BKN011 BKN037 BKN060 19/16 A2996 RMK SC5SC2SC1 CU ASOCTD SLP146

CYYG;2008-08-11 15:00;CYYG 111500Z 14003KT 15SM BKN012 OVC060 19/16 A2996 RMK SC6SC2 MDT CU ASOCTD SLP144

CYYG;2008-08-11 16:00;CYYG 111600Z 15006KT 15SM SCT017 OVC050 20/17 A2995 RMK SC4SC4 SLP143

CYYG;2008-08-11 17:00;CYYG 111700Z 14005KT 15SM FEW018 BKN056 OVC250 22/16 A2993 RMK CU2SC3CI2 SLP136

CYYG;2008-08-11 18:00;CYYG 111800Z 18007KT 15SM FEW025 FEW060 BKN170 OVC250 22/16 A2991 RMK CU1SC2AC2CI2 SLP129

CYYG;2008-08-11 19:00;CYYG 111900Z 09005KT 15SM FEW025 SCT040 BKN240 21/16 A2991 RMK CU1SC2CI2 SLP128

CYYG;2008-08-11 20:00;CYYG 112000Z 18003KT 15SM SCT025 SCT060 OVC240 21/16 A2990 RMK SC3SC1CI3 SLP126

CYYG;2008-08-11 21:00;CYYG 112100Z 17005KT 15SM FEW025 BKN038 OVC240 21/16 A2990 RMK SC1SC4CI2 SLP124

CYYG;2008-08-11 22:00;CYYG 112200Z 16003KT 15SM FEW025 SCT050 BKN070 OVC240 20/15 A2988 RMK SC1SC2AC2CI2 SLP119

CYYG;2008-08-11 23:00;CYYG 112300Z 12003KT 15SM SCT040 BKN230 19/15 A2987 RMK SC2CI3 SLP117

CYYG;2008-08-12 00:00;CYYG 120000Z 12004KT 15SM BKN069 BKN240 18/15 A2987 RMK AC5CI2 SLP117

CYYG;2008-08-12 01:00;CYYG 120100Z 12004KT 15SM SCT054 BKN060 OVC069 18/15 A2987 RMK SC3SC2AC2 SLP117

CYYG;2008-08-12 02:00;CYYG 120200Z 13003KT 15SM SCT060 OVC150 17/16 A2986 RMK SC3AC5 SLP113

CYYG;2008-08-12 03:00;CYYG 120300Z 16006KT 15SM FEW020 SCT033 OVC120 17/15 A2986 RMK SC2SC2AC5 SLP112

CYYG;2008-08-12 04:00;CYYG 120400Z 14004KT 15SM FEW037 OVC130 17/16 A2984 RMK SC2AC6 SLP105

CYYG;2008-08-12 05:00;CYYG 120500Z 13003KT 15SM SCT032 OVC120 17/16 A2983 RMK SC4AC4 SLP102

CYYG;2008-08-12 06:00;CYYG 120600Z 14002KT 15SM SCT030 OVC140 17/16 A2982 RMK SC3AC5 SLP096

CYYG;2008-08-12 07:00;CYYG 120700Z 13002KT 15SM FEW030 BKN054 OVC140 17/16 A2981 RMK SC1SC4AC3 SLP094

CYYG;2008-08-12 08:00;CYYG 120800Z 14003KT 15SM SCT050 BKN140 OVC200 17/16 A2980 RMK SC3AC2CI2 SLP090

CYYG;2008-08-12 09:00;CYYG 120900Z 14002KT 15SM MIFG FEW008 BKN054 OVC120 16/15 A2979 RMK SF1SC5AC2 SLP088

CYYG;2008-08-12 10:00;CYYG 121000Z 14005KT 15SM FEW006 BKN053 BKN130 17/16 A2979 RMK SF2SC2AC2 SLP087

CYYG;2008-08-12 11:00;CYYG 121100Z 15006KT 15SM FEW006 SCT053 BKN110 17/16 A2977 RMK SF2SC2AC2 SLP083

CYYG;2008-08-12 12:00;CYYG 121200Z 16006KT 15SM SCT010 BKN110 18/16 A2978 RMK SF3AC3 SLP084

CYYG;2008-08-12 13:00;CYYG 121300Z 18007KT 15SM SCT010 BKN021 OVC110 18/16 A2978 RMK SF3SC3AC2 SLP084

CYYG;2008-08-12 13:50;CYYG 121350Z 14007KT 15SM BKN012 BKN040 OVC110 18/ RMK SC6SC1AC2

CYYG;2008-08-12 14:00;CYYG 121400Z 13006KT 15SM BKN012 BKN019 OVC110 18/15 A2977 RMK SC6SC2AC1 SLP080

CYYG;2008-08-12 15:00;CYYG 121500Z 13006KT 15SM SCT012 OVC022 18/15 A2976 RMK SC4SC4 SLP078

CYYG;2008-08-12 15:18;CYYG 121518Z 13005KT 12SM -SHRA SCT012 OVC021 18/ RMK SC3SC5

CYYG;2008-08-12 16:00;CYYG 121600Z 11005KT 12SM -SHRA FEW015 BKN040 OVC080 18/16 A2974 RMK SC2SC3AC3 SLP071

CYYG;2008-08-12 17:00;CYYG 121700Z 13005KT 15SM -SHRA SCT015 BKN040 OVC082 18/15 A2974 RMK SC3SC2AC3 SLP072

CYYG;2008-08-12 18:00;CYYG 121800Z 10007KT 15SM -SHRA SCT015 OVC085 18/16 A2972 RMK SC4AC4 SLP064

CYYG;2008-08-12 18:53;CYYG 121853Z 10006KT 15SM SCT012 OVC070 18/ RMK SC3AC5

CYYG;2008-08-12 19:00;CYYG 121900Z 12007KT 15SM SCT012 OVC070 18/16 A2970 RMK SC4AC4 SLP058

CYYG;2008-08-12 20:00;CYYG 122000Z 11005KT 15SM SCT012 OVC070 18/16 A2968 RMK SC3AC5 SLP050

CYYG;2008-08-12 21:00;CYYG 122100Z 12004KT 15SM FEW010 BKN057 18/16 A2966 RMK SC2SC6 SLP045

CYYG;2008-08-12 22:00;CYYG 122200Z 03004KT 15SM FEW010 BKN045 17/16 A2964 RMK SC1SC6 SLP038

CYYG;2008-08-12 23:00;CYYG 122300Z 02005KT 10SM FEW004 BKN040 BKN090 17/16 A2963 RMK SF2SC5AC1 SLP035

CYYG;2008-08-12 23:39;CYYG 122339Z 05007KT 8SM TS BKN038 BKN090 17/ RMK SC6AC1 CB ASOCTD S OCNL LTGICCG

CYYG;2008-08-13 00:00;CYYG 130000Z 06008KT 8SM TS FEW010 BKN040 OVC090 17/15 A2963 RMK SF1SC7AC1 CB ASOCTD S SLP035

CYYG;2008-08-13 00:10;CYYG 130010Z 07008KT 8SM FEW010 FEW031 OVC040 17/ RETS RMK SF1SC2SC6

CYYG;2008-08-13 00:37;CYYG 130037Z 05006KT 8SM -SHRA FEW010 FEW030 OVC040 17/ RETS RMK SF1SC2SC6

CYYG;2008-08-13 01:00;CYYG 130100Z 04007KT 8SM -SHRA FEW010 BKN025 OVC040 17/16 A2963 RETS RMK SF1SC6SC2 SLP032

CYYG;2008-08-13 01:47;CYYG 130147Z 03008KT 4SM -SHRA BR FEW005 SCT020 OVC038 17/ RMK SF1SC2SC5

CYYG;2008-08-13 01:55;CYYG 130155Z 04008KT 6SM -TSRA BR FEW007 BKN020 OVC038 17/ RMK SF2SC4SC2 CB ASOCTD SW OCNL LTGIC

CYYG;2008-08-13 02:00;CYYG 130200Z 04007KT 10SM -TSRA BKN007 BKN021 OVC038 17/16 A2961 RMK SF5SC2SC1 CB ASOCTD SW OCNL LTGIC SLP028

CYYG;2008-08-13 02:25;CYYG 130225Z 03006KT 10SM TS SCT007 BKN019 OVC045 17/ RMK SF3SC4SC1 CB ASOCTD SW LTL MOVMT OCNL LTGIC

CYYG;2008-08-13 02:45;CYYG 130245Z 04006KT 10SM FEW007 BKN020 OVC035 17/ RETS RMK SF2SC4SC2

CYYG;2008-08-13 03:00;CYYG 130300Z 02007KT 10SM FEW007 OVC020 17/16 A2960 RETS RMK SF2SC6 SLP024

CYYG;2008-08-13 03:31;CYYG 130331Z 04006KT 3SM -SHRA BR BKN004 OVC020 17/ RETS RMK SF6SC2

CYYG;2008-08-13 04:00;CYYG 130400Z 03006KT 2 1/2SM -SHRA BR BKN004 OVC019 17/16 A2959 RMK SF6SC2 SLP020

CYYG;2008-08-13 05:00;CYYG 130500Z 03007KT 4SM -SHRA BR SCT004 OVC018 17/16 A2957 RMK SF3SC5 SLP014

CYYG;2008-08-13 06:00;CYYG 130600Z 02006KT 10SM -SHRA FEW004 OVC019 17/16 A2957 RMK SF2SC6 CB ASOCTD DIST SW OCNL LTGIC SLP012

CYYG;2008-08-13 07:00;CYYG 130700Z 14003KT 3SM -SHRA BR BKN005 OVC019 17/16 A2957 RMK SF6SC2 SLP014

CYYG;2008-08-13 07:08;CYYG 130708Z 03013KT 2 1/2SM SHRA BR BKN004 OVC020 16/ RERA RMK SF6SC2

CYYG;2008-08-13 08:00;CYYG 130800Z 05009G17KT 6SM -SHRA BR OVC006 16/16 A2957 RERA RMK SF8 SLP013

CYYG;2008-08-13 08:40;CYYG 130840Z 02008KT 10SM -SHRA SCT006 BKN018 BKN100 16/ RMK SF3SC2AC2

CYYG;2008-08-13 09:00;CYYG 130900Z 02008KT 10SM -SHRA BKN005 BKN018 OVC100 16/16 A2958 RMK SF6SC1AC1 SLP017

CYYG;2008-08-13 10:00;CYYG 131000Z 36005KT 12SM -SHRA BKN006 BKN020 BKN055 16/16 A2960 RMK SF6SC1SC1 SLP025

CYYG;2008-08-13 10:26;CYYG 131026Z 36006KT 10SM -SHRA OVC004 16/ RMK SF8

CYYG;2008-08-13 10:42;CYYG 131042Z 36005KT 1SM R03/P6000FT/D -SHRA BR OVC004 16/ RMK SF8

CYYG;2008-08-13 11:00;CYYG 131100Z 36005KT 4SM -SHRA BR BKN005 OVC012 16/16 A2963 RMK SF6SC2 SLP032

CYYG;2008-08-13 11:52;CYYG 131152Z 35006KT 12SM -SHRA SCT005 SCT012 BKN030 17/ RMK SF3SC1SC3

CYYG;2008-08-13 12:00;CYYG 131200Z 35005KT 15SM -SHRA FEW005 SCT012 BKN030 17/16 A2965 RMK SF2SC2SC3 SLP040

CYYG;2008-08-13 12:44;CYYG 131244Z 34008KT 15SM SCT008 BKN024 BKN045 18/ RMK SF4SC2SC2

CYYG;2008-08-13 13:00;CYYG 131300Z 34009KT 15SM BKN011 BKN025 BKN045 17/15 A2968 RMK SC5SC2SC1 SLP049

CYYG;2008-08-13 13:20;CYYG 131320Z 31008KT 15SM BKN008 BKN025 17/ RMK SF5SC2

CYYG;2008-08-13 14:00;CYYG 131400Z 33007KT 15SM BKN008 OVC025 17/16 A2970 RMK SF5SC3 SLP056

CYYG;2008-08-13 14:28;CYYG 131428Z 31006KT 15SM SCT008 BKN030 BKN054 17/ RMK SF3SC2SC2

CYYG;2008-08-13 15:00;CYYG 131500Z 31008KT 15SM SCT014TCU BKN057 19/16 A2971 RMK TCU4SC2 SLP060

CYYG;2008-08-13 16:00;CYYG 131600Z 32006KT 15SM SCT017TCU BKN062 19/15 A2971 RMK TCU3SC4 SLP062

CYYG;2008-08-13 17:00;CYYG 131700Z 28007KT 15SM -SHRA SCT022TCU BKN054 20/15 A2972 RMK TCU4SC3 SLP065

CYYG;2008-08-13 18:00;CYYG 131800Z 32003KT 15SM -SHRA SCT020TCU BKN055 20/16 A2974 RMK TCU3SC3 SLP069

CYYG;2008-08-13 18:49;CYYG 131849Z 00000KT 15SM FEW020TCU BKN055 20/ RMK TCU2SC3

CYYG;2008-08-13 19:00;CYYG 131900Z 25004KT 15SM FEW024TCU BKN048 22/15 A2974 RMK TCU2SC3 SLP071

CYYG;2008-08-13 20:00;CYYG 132000Z 25008KT 15SM FEW024 BKN050 22/14 A2975 RMK CU2SC2 SLP074

CYYG;2008-08-13 21:00;CYYG 132100Z 25009KT 15SM FEW025 FEW070 BKN300 21/15 A2975 RMK CU1AC2CI1 SLP075

CYYG;2008-08-13 22:00;CYYG 132200Z 27006KT 15SM FEW025 FEW070 BKN300 20/15 A2977 RMK CU1AC1CI1 SLP082

CYYG;2008-08-13 23:00;CYYG 132300Z 24005KT 15SM FEW055 FEW080 19/16 A2979 RMK CU1AC2 SLP086

CYYG;2008-08-14 00:00;CYYG 140000Z 22005KT 15SM FEW050TCU FEW080 18/16 A2981 RMK TCU1AC2 TCU NW SLP096

CYYG;2008-08-14 01:00;CYYG 140100Z 22005KT 15SM FEW080 18/16 A2983 RMK AC1 SLP103

CYYG;2008-08-14 02:00;CYYG 140200Z 21003KT 15SM FEW050 17/16 A2985 RMK CU1 SLP107

CYYG;2008-08-14 03:00;CYYG 140300Z 24005KT 15SM FEW050 17/15 A2985 RMK CU1 SLP108

CYYG;2008-08-14 04:00;CYYG 140400Z 24004KT 15SM FEW050 FEW330 17/15 A2986 RMK SC1CI0 SLP111

CYYG;2008-08-14 05:00;CYYG 140500Z 24006KT 15SM FEW080 FEW330 17/14 A2986 RMK AC1CI1 SLP113

CYYG;2008-08-14 06:00;CYYG 140600Z 23007KT 15SM FEW080 FEW330 17/14 A2987 RMK AC1CI1 SLP114

CYYG;2008-08-14 07:00;CYYG 140700Z 23006KT 15SM FEW080 FEW330 16/14 A2987 RMK AC1CI1 SLP117

CYYG;2008-08-14 08:00;CYYG 140800Z 24005KT 15SM FEW030 FEW080 SCT330 15/14 A2987 RMK SC1AC1CI1 SLP117

CYYG;2008-08-14 09:00;CYYG 140900Z 23006KT 15SM FEW030 BKN240 BKN330 16/14 A2987 RMK SC1CC6CI0 SLP116

CYYG;2008-08-14 10:00;CYYG 141000Z 17003KT 15SM FEW080 BKN240 BKN330 16/14 A2989 RMK ACC1CC6CI0 SLP122

CYYG;2008-08-14 11:00;CYYG 141100Z 18004KT 15SM FEW080 BKN230 BKN330 17/15 A2990 RMK ACC1CC6CI0 SLP124

CYYG;2008-08-14 12:00;CYYG 141200Z 22007KT 15SM FEW080 SCT230 BKN330 19/15 A2990 RMK AC1CC3CI2 SLP126

CYYG;2008-08-14 13:00;CYYG 141300Z 23006KT 15SM BKN230 BKN330 20/15 A2990 RMK CC5CI2 WND ESTD SLP125

CYYG;2008-08-14 14:00;CYYG 141400Z 18004KT 15SM FEW100 BKN230 OVC330 20/16 A2990 RMK AC1CC4CI2 WND ESTD SLP124

CYYG;2008-08-14 15:00;CYYG 141500Z 20006KT 15SM FEW090 BKN260 OVC320 21/16 A2990 RMK AC1CC5CI2 SLP125

CYYG;2008-08-14 16:00;CYYG 141600Z 16005KT 15SM FEW020 OVC260 21/14 A2988 RMK CF1CS6 SLP119

CYYG;2008-08-14 17:00;CYYG 141700Z 17003KT 15SM FEW025 OVC220 21/14 A2986 RMK CF1CS6 SLP113

CYYG;2008-08-14 18:00;CYYG 141800Z 15003KT 15SM FEW025 OVC200 21/14 A2986 RMK CF1CS6 SLP111

CYYG;2008-08-14 19:00;CYYG 141900Z 16003KT 15SM FEW030 FEW090 OVC190 21/15 A2984 RMK CU1AC2AS5 SLP105

CYYG;2008-08-14 20:00;CYYG 142000Z 14003KT 15SM FEW045 FEW090 OVC160 21/16 A2982 RMK CU1AC2AS5 SLP099

CYYG;2008-08-14 21:00;CYYG 142100Z 09003KT 15SM BKN047 OVC130 20/15 A2981 RMK SC6AS2 SLP096

CYYG;2008-08-14 22:00;CYYG 142200Z 09004KT 15SM SCT025 BKN047 OVC110 19/15 A2980 RMK SC3SC3AC2 SLP091

CYYG;2008-08-14 23:00;CYYG 142300Z 13004KT 15SM -SHRA SCT012 BKN045 OVC110 18/16 A2979 RMK SC4SC2AC2 SLP089

CYYG;2008-08-15 00:00;CYYG 150000Z 17006KT 15SM -SHRA FEW012 BKN020 OVC110 17/15 A2979 RMK SC2SC6AC1 SLP088

CYYG;2008-08-15 01:00;CYYG 150100Z 12002KT 15SM FEW010 FEW055 OVC120 17/15 A2979 RMK SC1SC1AC6 SLP089

CYYG;2008-08-15 02:00;CYYG 150200Z 00000KT 15SM FEW055 SCT070 OVC120 16/14 A2979 RMK SC1AC2AC5 SLP087

CYYG;2008-08-15 02:55;CYYG 150255Z 02002KT 15SM -SHRA SCT060 OVC110 15/ RMK SC3AC5

CYYG;2008-08-15 03:00;CYYG 150300Z 01002KT 15SM -SHRA SCT060 OVC110 15/14 A2978 RMK SC3AC5 SLP084

CYYG;2008-08-15 03:35;CYYG 150335Z 34003KT 15SM FEW029 OVC060 15/ RMK SC2SC6

CYYG;2008-08-15 04:00;CYYG 150400Z 02002KT 15SM FEW025 BKN060 OVC120 15/14 A2975 RMK SC1SC5AC2 SLP076

CYYG;2008-08-15 05:00;CYYG 150500Z 32003KT 15SM FEW020 OVC150 15/14 A2976 RMK SC2AC6 SLP077

CYYG;2008-08-15 06:00;CYYG 150600Z 31004KT 15SM FEW020 BKN065 BKN150 16/14 A2976 RMK SC1SC6AC2 SLP076

CYYG;2008-08-15 07:00;CYYG 150700Z 29007KT 15SM FEW013 BKN020 16/14 A2976 RMK SC2SC6 SLP078

CYYG;2008-08-15 07:42;CYYG 150742Z 31007KT 15SM BKN007 OVC020 16/ RMK SF5SC3

CYYG;2008-08-15 08:00;CYYG 150800Z 32008KT 15SM BKN006 17/15 A2977 RMK SF6 SLP082

CYYG;2008-08-15 08:25;CYYG 150825Z 32006KT 10SM FEW006 FEW020 FEW150 16/ RMK SF1SC1AC1

CYYG;2008-08-15 09:00;CYYG 150900Z 33007KT 10SM FEW006 BKN016 16/15 A2980 RMK SF1SC6 SLP092

CYYG;2008-08-15 10:00;CYYG 151000Z 34007KT 15SM FEW016 BKN027 17/15 A2983 RMK SC2SC6 SLP101

CYYG;2008-08-15 11:00;CYYG 151100Z 30006KT 15SM FEW018 BKN030 18/16 A2987 RMK SC2SC5 SLP114

CYYG;2008-08-15 12:00;CYYG 151200Z 33009KT 15SM FEW020 BKN030 19/16 A2988 RMK SC2SC3 SLP120

CYYG;2008-08-15 13:00;CYYG 151300Z 34009G17KT 15SM SCT018 BKN032 19/14 A2990 RMK SC3SC4 SLP126

CYYG;2008-08-15 14:00;CYYG 151400Z 32008KT 15SM FEW020 BKN033 21/16 A2992 RMK CU2SC3 SLP131

CYYG;2008-08-15 15:00;CYYG 151500Z 34005KT 15SM SCT022 BKN035 22/16 A2993 RMK CU3SC2 SLP135

CYYG;2008-08-15 16:00;CYYG 151600Z 32006KT 15SM -SHRA BKN021 BKN050 BKN110 20/16 A2994 RMK SC5SC2AC1 SLP138

CYYG;2008-08-15 17:00;CYYG 151700Z 36005KT 15SM VCSH SCT018 BKN028 20/17 A2995 RMK SC3SC2 SLP141

CYYG;2008-08-15 18:00;CYYG 151800Z CCA 26008KT 15SM BKN035 22/15 A2995 RMK SC5 MDT CU ASOCTD SLP142

CYYG;2008-08-15 19:00;CYYG 151900Z 25009KT 15SM BKN035 BKN045 22/15 A2995 RMK CU5SC1 SLP143

CYYG;2008-08-15 20:00;CYYG 152000Z 25006KT 15SM SCT040 BKN280 22/15 A2995 RMK CU3CI0 SLP143

CYYG;2008-08-15 21:00;CYYG 152100Z 27005KT 15SM FEW030 SCT250 22/15 A2995 RMK CU2CI0 SLP143

CYYG;2008-08-15 22:00;CYYG 152200Z 25005KT 15SM FEW030TCU FEW060 SCT250 22/15 A2996 RMK TCU1SC1CI0 SLP147

CYYG;2008-08-15 23:00;CYYG 152300Z 23004KT 15SM FEW030TCU FEW060 BKN090 21/15 A2998 RMK TCU2SC1AC1 SLP152

CYYG;2008-08-16 00:00;CYYG 160000Z 21005KT 15SM FEW030TCU FEW060 BKN110 19/16 A3000 RMK TCU1SC1AC3 SLP158

CYYG;2008-08-16 01:00;CYYG 160100Z 22006KT 15SM FEW030 SCT110 19/16 A3001 RMK SC2AC2 SLP162

CYYG;2008-08-16 02:00;CYYG 160200Z 21006KT 15SM FEW030 FEW060 SCT110 18/16 A3001 RMK SC1SC1AC2 SLP163

CYYG;2008-08-16 03:00;CYYG 160300Z 23007KT 15SM FEW030 FEW060 SCT110 18/15 A3001 RMK SC1SC1AC2 SLP161

CYYG;2008-08-16 04:00;CYYG 160400Z 25006KT 15SM FEW030 SCT110 17/15 A3001 RMK SC1AC1 SLP161

CYYG;2008-08-16 05:00;CYYG 160500Z 25007KT 15SM FEW030 SCT110 17/15 A3000 RMK SC1AC1 SLP159

CYYG;2008-08-16 06:00;CYYG 160600Z 24005KT 15SM FEW030 SCT110 16/15 A2999 RMK SC1AC1 SLP156

CYYG;2008-08-16 07:00;CYYG 160700Z 25007KT 15SM FEW010 SCT110 16/15 A3000 RMK SC1AC2 SLP158

CYYG;2008-08-16 08:00;CYYG 160800Z 25007KT 15SM FEW006 FEW030 SCT120 16/15 A2999 RMK SF1SC1AC1 SLP156

CYYG;2008-08-16 09:00;CYYG 160900Z 23008KT 6SM BR FEW004 FEW030 SCT120 16/15 A3000 RMK SF1SC1AC2 SLP159

CYYG;2008-08-16 09:14;CYYG 160914Z 23009KT 4SM BR SCT004 BKN110 16/ RMK SF3AC2

CYYG;2008-08-16 09:31;CYYG 160931Z 23008KT 6SM BR BKN004 BKN110 16/ RMK SF6AC1

CYYG;2008-08-16 10:00;CYYG 161000Z 24008KT 6SM BR SCT004 BKN250 16/15 A3000 RMK SF4CI1 SLP158

CYYG;2008-08-16 10:46;CYYG 161046Z 20006KT 8SM OVC003 17/ RMK SF8

CYYG;2008-08-16 11:00;CYYG 161100Z 22007KT 4SM BR OVC003 17/16 A3001 RMK SF8 SLP161

CYYG;2008-08-16 12:00;CYYG 161200Z 20008KT 4SM BR OVC003 16/15 A3000 RMK SF8 SLP159

CYYG;2008-08-16 13:00;CYYG 161300Z 22006KT 5SM BR OVC004 17/16 A3000 RMK SF8 SLP160

CYYG;2008-08-16 14:00;CYYG 161400Z 22009KT 8SM BKN006 18/16 A3000 RMK SF7 SLP159

CYYG;2008-08-16 14:13;CYYG 161413Z 20010KT 10SM SCT008 BKN200 18/ RMK SF3CI4

CYYG;2008-08-16 15:00;CYYG 161500Z 20010KT 10SM FEW008 OVC220 19/16 A2998 RMK SF2CI6 SLP153

CYYG;2008-08-16 16:00;CYYG 161600Z 20009KT 15SM FEW010 BKN110 OVC220 20/17 A2996 RMK SF1AC5CI2 SLP146

CYYG;2008-08-16 17:00;CYYG 161700Z 19010KT 15SM FEW010 SCT080 OVC150 20/17 A2994 RMK SF1AC3AC4 SLP140

CYYG;2008-08-16 17:54;CYYG 161754Z 18009KT 10SM -SHRA SCT024 BKN044 OVC097 19/ RMK SC3SC2AC2

CYYG;2008-08-16 18:00;CYYG 161800Z 19010KT 10SM -SHRA SCT024 BKN044 OVC092 19/17 A2993 RMK SC3SC3AC2 SLP136

CYYG;2008-08-16 18:10;CYYG 161810Z 19008KT 3SM -SHRA BR FEW020 BKN044 OVC090 19/ RMK SC2SC4AC2

CYYG;2008-08-16 18:42;CYYG 161842Z 20008KT 1 1/2SM -SHRA BR BKN007 OVC015 19/ RMK SF6SC2

CYYG;2008-08-16 19:00;CYYG 161900Z 20006KT 1 1/2SM -SHRA BR BKN007 OVC012 19/18 A2991 RMK SF6SC2 SLP130

CYYG;2008-08-16 19:22;CYYG 161922Z 23005KT 1 1/2SM -SHRA BR BKN004 BKN013 OVC024 19/ RMK SF5SC2SC2

CYYG;2008-08-16 20:00;CYYG 162000Z 18005KT 2SM -SHRA BR BKN007 OVC032 19/18 A2990 RMK SF5SC3 SLP124

CYYG;2008-08-16 20:30;CYYG 162030Z 20004KT 2SM -SHRA BR BKN004 OVC028 19/ RMK SF6SC2 CIG RGD

CYYG;2008-08-16 21:00;CYYG 162100Z 19013KT 2SM -SHRA BR BKN005 OVC080 19/18 A2986 RMK SF5AC3 SLP112

CYYG;2008-08-16 22:00;CYYG 162200Z 19010G15KT 1 1/2SM -SHRA BR BKN008 BKN028 OVC051 18/17 A2985 RMK SF5SC2SC2 CIG RGD SLP107

CYYG;2008-08-16 23:00;CYYG 162300Z 21010KT 8SM -SHRA FEW008 BKN017 OVC110 19/17 A2983 RMK SF2SC4AC1 SLP103

CYYG;2008-08-16 23:42;CYYG 162342Z 21007KT 8SM FEW008 BKN017 OVC120 18/ RMK SF2SC3AC3

CYYG;2008-08-17 00:00;CYYG 170000Z 22009KT 8SM FEW008 BKN017 OVC120 18/17 A2982 RMK SF1SC4AC3 SLP100

CYYG;2008-08-17 01:00;CYYG 170100Z 20008KT 10SM FEW008 BKN017 BKN030 OVC120 19/18 A2982 RMK SF1SC4SC1AC2 SLP097

CYYG;2008-08-17 02:00;CYYG 170200Z 20008KT 10SM BKN015 BKN030 OVC120 19/18 A2980 RMK SC5SC2AC2 SLP091

CYYG;2008-08-17 02:33;CYYG 170233Z 21006KT 10SM BKN008 BKN017 OVC120 19/ RMK SC5SC2AC2

CYYG;2008-08-17 03:00;CYYG 170300Z 21005KT 12SM -SHRA BKN005 OVC017 19/18 A2979 RMK SF6SC2 SLP087

CYYG;2008-08-17 04:00;CYYG 170400Z 21009KT 12SM -SHRA BKN005 OVC012 19/18 A2977 RMK SC5SC3 SLP079

CYYG;2008-08-17 05:00;CYYG 170500Z 23005KT 12SM -SHRA OVC004 19/17 A2974 RMK SF8 SLP072

CYYG;2008-08-17 06:00;CYYG 170600Z 22006KT 15SM -SHRA BKN004 OVC020 18/17 A2972 RMK SF6SC2 SLP064

CYYG;2008-08-17 06:27;CYYG 170627Z 23006KT 15SM BKN005 OVC020 18/ RMK SF6SC2

CYYG;2008-08-17 07:00;CYYG 170700Z 25005KT 15SM BKN007 OVC020 18/17 A2970 RMK SF6SC2 SLP057

CYYG;2008-08-17 08:00;CYYG 170800Z 26007KT 15SM BKN008 BKN020 OVC053 17/15 A2968 RMK SF5SC2SC2 SLP049

CYYG;2008-08-17 08:25;CYYG 170825Z 24004KT 15SM FEW008 BKN019 OVC054 17/ RMK SF2SC3SC3

CYYG;2008-08-17 09:00;CYYG 170900Z 25006KT 10SM FEW008 OVC019 17/15 A2967 RMK SF2SC6 SLP046

CYYG;2008-08-17 09:42;CYYG 170942Z 25006KT 8SM FEW006 OVC012 17/ RMK SF2SC6

CYYG;2008-08-17 10:00;CYYG 171000Z 26006KT 8SM BKN009 OVC015 17/16 A2967 RMK SF6SC2 SLP047

CYYG;2008-08-17 11:00;CYYG 171100Z 25007KT 10SM OVC009 17/15 A2967 RMK SF8 SLP047

CYYG;2008-08-17 11:13;CYYG 171113Z 26007KT 10SM BKN012 17/ RMK SC7

CYYG;2008-08-17 11:29;CYYG 171129Z 25009KT 10SM FEW007 BKN013 17/ RMK SF2SC6

CYYG;2008-08-17 12:00;CYYG 171200Z 24008KT 15SM FEW009 BKN013 18/16 A2967 RMK SF1SC6 SLP046

CYYG;2008-08-17 12:15;CYYG 171215Z 25011KT 15SM BKN009 18/ RMK SC7

CYYG;2008-08-17 13:00;CYYG 171300Z 25012G18KT 15SM SCT010 BKN300 19/16 A2966 RMK SC4CI1 SLP044

CYYG;2008-08-17 13:40;CYYG 171340Z 24010G16KT 15SM BKN012 BKN100 BKN300 19/ RMK SC5AC1CI1

CYYG;2008-08-17 14:00;CYYG 171400Z 23012G17KT 15SM BKN012 BKN300 19/16 A2966 RMK SC5CI1 SLP043

CYYG;2008-08-17 15:00;CYYG 171500Z 23009G15KT 15SM FEW016 SCT120 BKN300 20/16 A2965 RMK CU2AC2CI0 SLP040

CYYG;2008-08-17 16:00;CYYG 171600Z 24009G20KT 15SM FEW018 FEW120 BKN300 21/17 A2965 RMK CU2AC1CI1 SLP040

CYYG;2008-08-17 17:00;CYYG 171700Z 24016G21KT 15SM FEW022 FEW120 FEW300 23/17 A2963 RMK CU1AC1CI1 SLP035

CYYG;2008-08-17 18:00;CYYG 171800Z 24011G16KT 15SM FEW028TCU FEW300 24/17 A2963 RMK TCU1CI1 TCU DIST NW SLP033

CYYG;2008-08-17 19:00;CYYG 171900Z 23015KT 15SM FEW045TCU SCT070 SCT300 24/16 A2963 RMK TCU2AC1CI1 TCU W-NE SLP034

CYYG;2008-08-17 20:00;CYYG 172000Z 26011G16KT 15SM VCSH BKN048TCU BKN081 BKN300 23/16 A2963 RMK TCU5AC2CI0 SH DIST W AND NE SLP034

CYYG;2008-08-17 20:33;CYYG 172033Z 26013G18KT 15SM SHRA BKN052TCU BKN077 22/ RMK TCU5AC2 VIS W-N 3

CYYG;2008-08-17 21:00;CYYG 172100Z 27009G20KT 15SM -SHRA SCT048TCU BKN094 19/17 A2965 RERA RMK TCU3AC2 VIS NE 21/2 SLP040

CYYG;2008-08-17 21:17;CYYG 172117Z 25011KT 15SM VCSH FEW040TCU SCT078 BKN300 20/ RERA RMK TCU2AC2CI2 SH E

CYYG;2008-08-17 22:00;CYYG 172200Z 26007KT 15SM FEW040TCU FEW078 BKN300 21/17 A2966 RMK TCU1AC1CI1 TCU NW-NE SLP042

CYYG;2008-08-17 23:00;CYYG 172300Z 25009KT 15SM VCSH SCT040 BKN110 BKN200 20/16 A2968 RMK SC4AC1CI0 SLP049

CYYG;2008-08-17 23:14;CYYG 172314Z CCA 32008KT 15SM -SHRA BKN038 BKN110 BKN200 20/ RMK SC5AC1CI1

CYYG;2008-08-17 23:49;CYYG 172349Z 29005KT 15SM BKN038 BKN049 BKN110 19/ RMK SC5SC1AC2

CYYG;2008-08-18 00:00;CYYG 180000Z 29005KT 15SM BKN038 BKN065 BKN110 19/17 A2973 RMK SC6SC1AC1 SLP066

CYYG;2008-08-18 01:00;CYYG 180100Z 34007KT 15SM FEW020 BKN040 BKN070 19/16 A2976 RMK SC1SC4AC2 SLP078

CYYG;2008-08-18 02:00;CYYG 180200Z 33003KT 15SM FEW020 SCT040 BKN062 16/13 A2979 RMK SC1SC3SC2 SLP087

CYYG;2008-08-18 03:00;CYYG 180300Z 25003KT 15SM SCT047 BKN062 17/12 A2980 RMK SC4SC2 SLP093

CYYG;2008-08-18 04:00;CYYG 180400Z 26004KT 15SM BKN061 17/13 A2982 RMK SC7 SLP100

CYYG;2008-08-18 05:00;CYYG 180500Z 29002KT 15SM SCT055 14/12 A2982 RMK SC4 SLP099

CYYG;2008-08-18 06:00;CYYG 180600Z 29003KT 15SM FEW050 14/11 A2983 RMK SC2 SLP101

CYYG;2008-08-18 07:00;CYYG 180700Z 29004KT 15SM FEW050 13/10 A2984 RMK SC2 SLP105

CYYG;2008-08-18 08:00;CYYG 180800Z 27005KT 15SM FEW050 12/10 A2986 RMK SC2 SLP111

CYYG;2008-08-18 09:00;CYYG 180900Z 27005KT 15SM FEW050 FEW280 12/09 A2988 RMK SC1CI1 SLP118

CYYG;2008-08-18 10:00;CYYG 181000Z 27004KT 15SM FEW050 SCT280 13/10 A2990 RMK SC1CI0 SLP124

CYYG;2008-08-18 11:00;CYYG 181100Z 24004KT 15SM BKN330 15/12 A2990 RMK CI1 SLP125

CYYG;2008-08-18 12:00;CYYG 181200Z 25007KT 15SM BKN330 17/12 A2990 RMK CI1 SLP127

CYYG;2008-08-18 13:00;CYYG 181300Z 24006KT 15SM FEW330 18/11 A2992 RMK CI1 SLP131

CYYG;2008-08-18 14:00;CYYG 181400Z 22007KT 15SM FEW330 20/11 A2992 RMK CI1 SLP132

CYYG;2008-08-18 15:00;CYYG 181500Z 22006KT 15SM SCT330 20/10 A2992 RMK CI1 SLP131

CYYG;2008-08-18 16:00;CYYG 181600Z 21008KT 15SM FEW100 SCT330 21/12 A2992 RMK AC1CI1 SLP131

CYYG;2008-08-18 17:00;CYYG 181700Z 24009G15KT 15SM FEW030 FEW100 SCT330 23/13 A2990 RMK CU1AC1CI1 SLP124

CYYG;2008-08-18 18:00;CYYG 181800Z 20010G15KT 15SM FEW030 FEW100 FEW330 23/14 A2989 RMK CU1AC1CI1 SLP122

CYYG;2008-08-18 19:00;CYYG 181900Z 20007KT 15SM FEW030 FEW330 24/14 A2987 RMK CU1CI1 SLP116

CYYG;2008-08-18 20:00;CYYG 182000Z 20008KT 15SM FEW030 FEW330 23/14 A2985 RMK CU1CI1 SLP110

CYYG;2008-08-18 21:00;CYYG 182100Z 19010KT 15SM FEW030 23/14 A2984 RMK CU1 SLP105

CYYG;2008-08-18 22:00;CYYG 182200Z 19011KT 15SM FEW030 FEW330 22/14 A2984 RMK CU1CI1 SLP105

CYYG;2008-08-18 23:00;CYYG 182300Z 18008KT 15SM FEW300 21/14 A2985 RMK CI1 SLP109

CYYG;2008-08-19 00:00;CYYG 190000Z 20005KT 15SM FEW300 20/14 A2985 RMK CI1 SLP110

CYYG;2008-08-19 01:00;CYYG 190100Z 18005KT 15SM FEW034 FEW300 19/14 A2984 RMK SC1CI0 SLP106

CYYG;2008-08-19 02:00;CYYG 190200Z 18010KT 15SM SCT036 20/16 A2982 RMK SC2 SLP098

CYYG;2008-08-19 03:00;CYYG 190300Z 19009KT 15SM SKC 19/17 A2981 RMK SLP093

CYYG;2008-08-19 04:00;CYYG 190400Z 20009KT 15SM SKC 19/17 A2981 RMK SLP094

CYYG;2008-08-19 05:00;CYYG 190500Z 21008KT 15SM SKC 19/17 A2980 RMK SLP092

CYYG;2008-08-19 06:00;CYYG 190600Z 20012KT 15SM SKC 19/16 A2979 RMK SLP087

CYYG;2008-08-19 07:00;CYYG 190700Z 21010G15KT 15SM SCT054 19/16 A2979 RMK SC2 SLP086

CYYG;2008-08-19 08:00;CYYG 190800Z 19011KT 15SM FEW055 18/16 A2978 RMK SC2 SLP084

CYYG;2008-08-19 09:00;CYYG 190900Z 19008KT 15SM FEW050 18/16 A2977 RMK SC1 SLP081

CYYG;2008-08-19 10:00;CYYG 191000Z 20010G15KT 15SM FEW050 FEW300 19/16 A2977 RMK SC1CI1 SLP081

CYYG;2008-08-19 11:00;CYYG 191100Z 25008G16KT 12SM BKN012 BKN300 19/16 A2979 RMK SC7CI0 SLP087

CYYG;2008-08-19 12:00;CYYG 191200Z 22014KT 12SM OVC011 19/16 A2979 RMK SC8 SLP088

CYYG;2008-08-19 12:37;CYYG 191237Z 21012KT 10SM OVC009 19/ RMK SC8

CYYG;2008-08-19 13:00;CYYG 191300Z 22011KT 12SM OVC010 19/17 A2979 RMK SC8 SLP088

CYYG;2008-08-19 14:00;CYYG 191400Z 23008KT 8SM BKN011 21/20 A2979 RMK SC7 CU ASOCTD SLP086

CYYG;2008-08-19 15:00;CYYG 191500Z 22010KT 8SM OVC011 20/19 A2978 RMK SC8 SLP085

CYYG;2008-08-19 15:40;CYYG 191540Z 22010KT 6SM -SHRA BR OVC010 20/ RMK SC8

CYYG;2008-08-19 15:56;CYYG 191556Z 23009KT 3SM -TSRA BR OVC010 19/ RMK SC8 CB EMBD

CYYG;2008-08-19 16:00;CYYG 191600Z 22011KT 2 1/2SM +TSRA BR OVC010 19/19 A2979 RMK SC8 CB EMBD SLP086

CYYG;2008-08-19 16:13;CYYG 191613Z 22007KT 2SM -TSRA BR OVC007 19/ RMK SC8 CB ASOCTD CIG RAG

CYYG;2008-08-19 17:00;CYYG 191700Z 21008KT 2SM -TSRA BR FEW003 BKN009 BKN063 19/19 A2975 RMK SF2SC6SC0 CB ASOCTD SLP075

CYYG;2008-08-19 17:17;CYYG 191717Z 21007KT 2 1/2SM -SHRA BR FEW003 BKN009 BKN074 19/ RMK SF2SC5AC1

CYYG;2008-08-19 18:00;CYYG 191800Z 22005KT 2 1/2SM -TSRA BR BKN009 OVC030 20/20 A2972 RMK SC5SC3 CB ASOCTD SLP064

CYYG;2008-08-19 18:11;CYYG 191811Z 25009KT 1SM R03/4500VP6000FT/D TSRA BR BKN009 OVC030 19/ RMK SC6SC2 CB ASOCTD

CYYG;2008-08-19 18:38;CYYG 191838Z 25006KT 3SM -TSRA BR FEW009 BKN030CB OVC080 19/ RERA RMK SF2CB3AC3 CB ALQDS OCNL LTGCG

CYYG;2008-08-19 19:00;CYYG 191900Z 23004KT 1 1/2SM R03/4000VP6000FT/D TSRA BR SCT009 BKN030CB OVC100 19/19 A2973 RERA RMK SF3CB2AC2 CB ALQDS SLP068

CYYG;2008-08-19 19:27;CYYG 191927Z 23007KT 2SM TSRA BR BKN005 BKN030CB OVC060 18/ RMK SF6CB2SC1 CB E-S

CYYG;2008-08-19 19:43;CYYG 191943Z 25006KT 7SM -SHRA SCT005 SCT030CB OVC060 18/ RETSRA RMK SF3CB1SC4 CB ASOCTD E

CYYG;2008-08-19 20:00;CYYG 192000Z 25005KT 12SM -SHRA FEW005 FEW030CB OVC045 18/18 A2972 RETSRA RMK SF2CB1SC6 CB E SLP064

CYYG;2008-08-19 20:08;CYYG 192008Z 25005KT 12SM VCSH FEW005 OVC045 18/ RMK SF2SC6 SHS S

CYYG;2008-08-19 20:19;CYYG 192019Z 23004KT 12SM -SHRA FEW006 OVC048 19/ RMK SF2SC6

CYYG;2008-08-19 21:00;CYYG 192100Z 25005KT 15SM -SHRA FEW006 OVC047 19/19 A2971 RMK SF2SC6 SLP060

CYYG;2008-08-19 21:53;CYYG 192153Z 20002KT 5SM -SHRA BR BKN005 OVC043 18/ RERA RMK SF5SC3

CYYG;2008-08-19 22:00;CYYG 192200Z 12002KT 5SM -SHRA BR BKN005 BKN011 OVC040 18/18 A2970 RERA RMK SF6SC2SC1 VIS LWR SW SLP057

CYYG;2008-08-19 22:18;CYYG 192218Z 33008KT 10SM -SHRA SCT005 SCT011 OVC020 18/ RERA RMK SF3SC1SC4

CYYG;2008-08-19 22:23;CYYG 192223Z 34009KT 8SM -TSRA FEW005 SCT011 OVC025 18/ RERA RMK SF2SC2SC4 CB ASOCTD SE OCNL LTGCG

CYYG;2008-08-19 22:49;CYYG 192249Z 32011G16KT 5SM SHRA BR FEW005 BKN013 OVC020 16/ RETS RMK SF2SC5SC1

CYYG;2008-08-19 23:00;CYYG 192300Z 28010G17KT 2SM SHRA BR BKN007 OVC018 16/16 A2973 RMK SF6SC2 RETS SLP066

CYYG;2008-08-19 23:35;CYYG 192335Z 34007KT 6SM -SHRA BR OVC006 16/ RETSRA RMK SF8

CYYG;2008-08-20 00:00;CYYG 200000Z 35006KT 6SM -SHRA BR FEW006 BKN008 OVC081 15/15 A2973 RERA RMK SF2SF4AC2 /R27/ SLP069

CYYG;2008-08-20 00:51;CYYG 200051Z 33005KT 10SM -SHRA FEW006 OVC086 15/ RMK SF2AC6

CYYG;2008-08-20 01:00;CYYG 200100Z 30004KT 10SM FEW006 OVC086 15/15 A2974 RMK SF2AC6 OCNL -SHRA SLP071

CYYG;2008-08-20 01:23;CYYG 200123Z 28004KT 8SM -SHRA BKN015 BKN030 OVC090 15/ RMK SC5SC2AC2

CYYG;2008-08-20 02:00;CYYG 200200Z 31004KT 8SM -SHRA FEW003 SCT009 OVC093 15/15 A2973 RERA RMK SF2SF2AC4 SLP067

CYYG;2008-08-20 03:00;CYYG 200300Z 26004KT 8SM -SHRA FEW022 OVC034 15/15 A2973 RMK SC2SC6 SLP067

CYYG;2008-08-20 03:44;CYYG 200344Z 36005KT 10SM OVC040 15/ RMK SC8

CYYG;2008-08-20 04:00;CYYG 200400Z 27006KT 10SM FEW045 BKN055 OVC120 15/15 A2973 RMK SC2SC5AC1 SLP067

CYYG;2008-08-20 05:00;CYYG 200500Z 28007KT 15SM FEW055 SCT140 14/13 A2972 RMK SC2AC2 SLP065

CYYG;2008-08-20 06:00;CYYG 200600Z 29008KT 15SM SCT058 13/13 A2971 RMK SC4 SLP062

CYYG;2008-08-20 07:00;CYYG 200700Z 28006KT 15SM SCT030 BKN058 13/12 A2971 RMK SC3SC2 SLP062

CYYG;2008-08-20 08:00;CYYG 200800Z 28007KT 15SM OVC028 13/13 A2971 RMK SC8 SLP060

CYYG;2008-08-20 08:56;CYYG 200856Z 27009KT 15SM -SHRA FEW020 BKN035 13/ RMK SC2SC5

CYYG;2008-08-20 09:00;CYYG 200900Z 28008KT 15SM -SHRA FEW020 BKN035 13/13 A2971 RMK SC2SC5 SLP061

CYYG;2008-08-20 09:29;CYYG 200929Z 27008KT 15SM VCSH FEW020 FEW040 SCT065 13/ RMK SC1SC2SC2

CYYG;2008-08-20 10:00;CYYG 201000Z 28008KT 15SM FEW025 BKN064 13/12 A2971 RMK SC2SC5 SLP062

CYYG;2008-08-20 11:00;CYYG 201100Z 29009KT 15SM FEW025 SCT062 14/12 A2973 RMK CU2SC2 SLP068

CYYG;2008-08-20 12:00;CYYG 201200Z 28012KT 15SM FEW019 BKN030 14/12 A2974 RMK CU2SC3 SLP072

CYYG;2008-08-20 13:00;CYYG 201300Z 30011G17KT 15SM SCT020 BKN042 15/12 A2974 RMK CU4SC3 SLP073

CYYG;2008-08-20 14:00;CYYG 201400Z CCA 31012G17KT 15SM VCSH BKN024 BKN040 15/10 A2976 RMK CU5SC2 SLP078

CYYG;2008-08-20 15:00;CYYG 201500Z 30012G18KT 15SM VCSH BKN025 BKN040 15/10 A2977 RMK CU6SC2 SLP081

CYYG;2008-08-20 16:00;CYYG 201600Z 29010G17KT 15SM VCSH FEW025 OVC043 14/09 A2978 RMK CU2SC6 SLP085

CYYG;2008-08-20 17:00;CYYG 201700Z 30013KT 15SM VCSH SCT028 OVC038 15/09 A2979 RMK CU3SC5 SHS ALQDS SLP090

CYYG;2008-08-20 17:20;CYYG 201720Z 31011G17KT 15SM -SHRA SCT028 OVC045 15/ RMK CU3SC5

CYYG;2008-08-20 18:00;CYYG 201800Z 31009G15KT 15SM -SHRA SCT030 OVC045 14/10 A2982 RMK CU3SC5 SLP097

CYYG;2008-08-20 18:23;CYYG 201823Z 30010G17KT 15SM VCSH FEW030 OVC045 15/ RMK CU2SC6 SHS ALQDS

CYYG;2008-08-20 19:00;CYYG 201900Z 31009G15KT 15SM VCSH FEW030 OVC041 14/09 A2983 RMK CU2SC6 SHS ALQDS SLP102

CYYG;2008-08-20 20:00;CYYG 202000Z 32008KT 15SM SCT030 BKN055 15/09 A2984 RMK CU3SC4 SHS DIST N-SE SLP106

CYYG;2008-08-20 21:00;CYYG 202100Z 31011G17KT 15SM BKN039 BKN070 15/08 A2985 RMK CU5AC2 SLP107

CYYG;2008-08-20 22:00;CYYG 202200Z 32007KT 15SM FEW039 BKN059 14/08 A2986 RMK CU2SC5 SLP113

CYYG;2008-08-20 23:00;CYYG 202300Z 27004KT 15SM SCT045 OVC065 14/09 A2988 RMK SC3SC5 SLP118

CYYG;2008-08-21 00:00;CYYG 210000Z 27005KT 15SM VCSH BKN055 OVC095 13/09 A2988 RMK SC6AC2 SLP120

CYYG;2008-08-21 00:26;CYYG 210026Z 36006KT 10SM -SHRA BKN035 OVC055 13/ RMK SC6SC2

CYYG;2008-08-21 01:00;CYYG 210100Z 26003KT 15SM OVC057 12/11 A2990 RMK SC8 SLP125

CYYG;2008-08-21 01:09;CYYG 210109Z 28002KT 12SM -SHRA BKN035 OVC057 12/ RMK SC5SC3

CYYG;2008-08-21 02:00;CYYG 210200Z 29006KT 15SM -SHRA SCT035 OVC049 13/10 A2990 RMK SC4SC4 SLP127

CYYG;2008-08-21 03:00;CYYG 210300Z 28007KT 15SM SCT057 OVC098 13/11 A2991 RMK SC3AC5 SLP128

CYYG;2008-08-21 04:00;CYYG 210400Z 28006KT 15SM SCT060 OVC110 13/10 A2991 RMK SC4AC3 SLP129

CYYG;2008-08-21 05:00;CYYG 210500Z 28007KT 15SM BKN049 OVC210 13/10 A2992 RMK SC6CI2 SLP133

CYYG;2008-08-21 06:00;CYYG 210600Z 28008KT 15SM SCT050 OVC084 13/10 A2994 RMK SC4AC4 SLP138

CYYG;2008-08-21 07:00;CYYG 210700Z 29007KT 15SM FEW110 OVC140 13/10 A2994 RMK AC2AC6 SLP140

CYYG;2008-08-21 08:00;CYYG 210800Z 28007KT 15SM BKN150 12/10 A2995 RMK AC6 SLP143

CYYG;2008-08-21 09:00;CYYG 210900Z 29008KT 15SM SCT150 13/10 A2997 RMK AC3 SLP148

CYYG;2008-08-21 10:00;CYYG 211000Z 28007KT 15SM FEW150 FEW250 12/10 A2998 RMK AC1CI0 SLP154

CYYG;2008-08-21 11:00;CYYG 211100Z 30011KT 15SM FEW250 14/11 A3001 RMK CI1 SLP161

CYYG;2008-08-21 12:00;CYYG 211200Z 31011KT 15SM FEW250 16/11 A3002 RMK CI1 SLP165

CYYG;2008-08-21 13:00;CYYG 211300Z 30008KT 15SM FEW250 18/12 A3003 RMK CI0 SLP170

CYYG;2008-08-21 14:00;CYYG 211400Z 32009KT 15SM FEW030 FEW250 19/11 A3005 RMK CU0CI0 SLP176

CYYG;2008-08-21 15:00;CYYG 211500Z 31007KT 15SM FEW030 20/12 A3005 RMK SC0 SLP176

CYYG;2008-08-21 16:00;CYYG 211600Z 33007KT 15SM FEW030 21/11 A3005 RMK CU0 SLP176

CYYG;2008-08-21 17:00;CYYG 211700Z 29011G17KT 15SM FEW030 FEW250 22/11 A3005 RMK CU1CI1 SLP176

CYYG;2008-08-21 18:00;CYYG 211800Z 29010G15KT 15SM FEW030 FEW250 22/12 A3006 RMK CU0CI0 SLP180

CYYG;2008-08-21 19:00;CYYG 211900Z 28009KT 15SM FEW030 FEW250 22/12 A3007 RMK CU0CI1 SLP182

CYYG;2008-08-21 20:00;CYYG 212000Z 29008KT 15SM FEW250 23/12 A3007 RMK CI1 SLP182

CYYG;2008-08-21 21:00;CYYG 212100Z 28006KT 15SM SCT300 22/12 A3008 RMK CC2 SLP185

CYYG;2008-08-21 22:00;CYYG 212200Z 26004KT 15SM FEW080 SCT300 22/12 A3009 RMK AC2CI0 SLP188

CYYG;2008-08-21 23:00;CYYG 212300Z 24004KT 15SM BKN075 BKN250 20/13 A3010 RMK AC5CI1 SLP193

CYYG;2008-08-22 00:00;CYYG 220000Z 21006KT 15SM BKN070 BKN250 19/14 A3012 RMK AC5CI0 SLP201

CYYG;2008-08-22 01:00;CYYG 220100Z 23006KT 15SM BKN063 19/14 A3014 RMK SC5 SLP205

CYYG;2008-08-22 02:00;CYYG 220200Z 22007KT 15SM SCT060 BKN072 19/15 A3014 RMK SC3AC3 SLP208

CYYG;2008-08-22 03:00;CYYG 220300Z 23010KT 15SM OVC065 18/15 A3015 RMK SC8 SLP211

CYYG;2008-08-22 04:00;CYYG 220400Z 25010KT 15SM OVC061 17/15 A3016 RMK SC8 SLP214

CYYG;2008-08-22 05:00;CYYG 220500Z 26007KT 15SM FEW060 16/14 A3017 RMK SC2 SLP218

CYYG;2008-08-22 06:00;CYYG 220600Z 26006KT 15SM SKC 16/14 A3018 RMK SLP221

CYYG;2008-08-22 07:00;CYYG 220700Z 27005KT 15SM SKC 16/14 A3020 RMK SLP227

CYYG;2008-08-22 08:00;CYYG 220800Z 27004KT 15SM SKC 15/14 A3022 RMK SLP232

CYYG;2008-08-22 09:00;CYYG 220900Z 25007KT 15SM FEW250 15/14 A3023 RMK CI0 SLP237

CYYG;2008-08-22 10:00;CYYG 221000Z 26005KT 15SM FEW250 15/14 A3025 RMK CI0 SLP244

CYYG;2008-08-22 11:00;CYYG 221100Z 27006KT 15SM FEW250 17/15 A3027 RMK CI0 SLP249

CYYG;2008-08-22 12:00;CYYG 221200Z 28003KT 15SM FEW250 20/15 A3028 RMK CI0 SLP253

CYYG;2008-08-22 13:00;CYYG 221300Z 20002KT 15SM FEW250 22/16 A3028 RMK CI0 SLP253

CYYG;2008-08-22 14:00;CYYG 221400Z 25004KT 15SM FEW250 23/18 A3029 RMK CI0 SLP257

CYYG;2008-08-22 15:00;CYYG 221500Z 25005KT 15SM FEW250 25/17 A3030 RMK CI0 SLP259

CYYG;2008-08-22 16:00;CYYG 221600Z 16007KT 15SM SKC 25/18 A3029 RMK SLP257

CYYG;2008-08-22 17:00;CYYG 221700Z 18008KT 15SM SKC 26/18 A3029 RMK SLP256

CYYG;2008-08-22 18:00;CYYG 221800Z 24005KT 15SM FEW030 27/20 A3029 RMK CU1 SLP256

CYYG;2008-08-22 19:00;CYYG 221900Z 24007KT 15SM SKC 27/15 A3028 RMK SLP255

CYYG;2008-08-22 20:00;CYYG 222000Z 24008KT 15SM SKC 27/16 A3028 RMK SLP254

CYYG;2008-08-22 21:00;CYYG 222100Z 24005KT 15SM FEW140 27/17 A3028 RMK AC1 SLP253

CYYG;2008-08-22 22:00;CYYG 222200Z 21005KT 15SM FEW140 23/17 A3028 RMK AC0 SLP252

CYYG;2008-08-22 23:00;CYYG 222300Z 21006KT 15SM FEW300 21/16 A3028 RMK CI1 SLP252

CYYG;2008-08-23 00:00;CYYG 230000Z CCA 23004KT 15SM FEW300 21/15 A3028 RMK CI1 SLP255

CYYG;2008-08-23 01:00;CYYG 230100Z 23005KT 15SM FEW300 19/16 A3029 RMK CI1 SLP256

CYYG;2008-08-23 02:00;CYYG 230200Z 22005KT 15SM FEW300 20/16 A3028 RMK CI1 SLP254

CYYG;2008-08-23 03:00;CYYG 230300Z 22006KT 15SM FEW300 19/16 A3028 RMK CI1 SLP255

CYYG;2008-08-23 04:00;CYYG 230400Z 21007KT 15SM FEW300 19/16 A3028 RMK CI1 SLP254

CYYG;2008-08-23 05:00;CYYG 230500Z 22007KT 15SM FEW300 18/16 A3028 RMK CI1 SLP253

CYYG;2008-08-23 06:00;CYYG 230600Z 21008KT 15SM FEW300 18/16 A3028 RMK CI1 SLP253

CYYG;2008-08-23 07:00;CYYG 230700Z 21008KT 15SM FEW300 18/15 A3028 RMK CI1 SLP253

CYYG;2008-08-23 08:00;CYYG 230800Z 23010KT 15SM FEW300 18/15 A3027 RMK CI1 SLP250

CYYG;2008-08-23 09:00;CYYG 230900Z 24008KT 15SM FEW300 17/15 A3027 RMK CI1 SLP251

CYYG;2008-08-23 10:00;CYYG 231000Z 24006KT 15SM FEW300 17/15 A3028 RMK CI1 SLP254

CYYG;2008-08-23 11:00;CYYG 231100Z 23007KT 15SM FEW300 18/16 A3030 RMK CI1 SLP259

CYYG;2008-08-23 12:00;CYYG 231200Z 22007KT 15SM FEW260 20/17 A3030 RMK CI1 SLP259

CYYG;2008-08-23 13:00;CYYG 231300Z 23007KT 15SM SCT260 22/17 A3029 RMK CI1 SLP258

CYYG;2008-08-23 14:00;CYYG 231400Z 25009KT 15SM SCT260 23/18 A3028 RMK CI2 SLP255

CYYG;2008-08-23 15:00;CYYG 231500Z 23008KT 15SM SCT260 25/19 A3026 RMK CI1 SLP247

CYYG;2008-08-23 16:00;CYYG 231600Z 23010KT 15SM SCT260 25/18 A3025 RMK CI1 SLP245

CYYG;2008-08-23 17:00;CYYG 231700Z 24010KT 15SM SCT260 26/19 A3024 RMK CI1 SLP240

CYYG;2008-08-23 18:00;CYYG 231800Z 23011KT 15SM FEW260 26/18 A3022 RMK CI1 SLP233

CYYG;2008-08-23 19:00;CYYG 231900Z 23011KT 15SM FEW260 26/18 A3021 RMK CI1 SLP230

CYYG;2008-08-23 20:00;CYYG 232000Z 24008KT 15SM FEW260 26/18 A3020 RMK CI1 SLP227

CYYG;2008-08-23 21:00;CYYG 232100Z 22009KT 15SM FEW260 25/17 A3020 RMK CI1 SLP227

CYYG;2008-08-23 22:00;CYYG 232200Z 22009KT 15SM FEW260 23/15 A3020 RMK CI1 SLP225

CYYG;2008-08-23 23:00;CYYG 232300Z 23009KT 15SM FEW300 21/15 A3020 RMK CI1 SLP225

CYYG;2008-08-24 00:00;CYYG 240000Z 23009KT 15SM FEW300 20/15 A3019 RMK CI1 SLP223

CYYG;2008-08-24 01:00;CYYG 240100Z 23009KT 15SM FEW300 19/15 A3020 RMK CI1 SLP225

CYYG;2008-08-24 02:00;CYYG 240200Z 23011KT 15SM FEW300 19/12 A3019 RMK CI1 SLP222

CYYG;2008-08-24 03:00;CYYG 240300Z 23011KT 15SM FEW300 18/12 A3017 RMK CI1 SLP217

CYYG;2008-08-24 04:00;CYYG 240400Z 23012KT 15SM FEW300 18/12 A3017 RMK CI1 SLP215

CYYG;2008-08-24 05:00;CYYG 240500Z 23010KT 15SM FEW300 17/12 A3015 RMK CI1 SLP210

CYYG;2008-08-24 06:00;CYYG 240600Z 23010G16KT 15SM FEW300 17/12 A3014 RMK CI1 SLP208

CYYG;2008-08-24 07:00;CYYG 240700Z 22009KT 15SM FEW300 16/13 A3014 RMK CI1 SLP205

CYYG;2008-08-24 08:00;CYYG 240800Z 23009KT 15SM FEW300 16/13 A3013 RMK CI1 SLP204

CYYG;2008-08-24 09:00;CYYG 240900Z 24008KT 15SM SCT300 16/14 A3013 RMK CI2 SLP204

CYYG;2008-08-24 10:00;CYYG 241000Z 22008KT 15SM BKN300 15/14 A3014 RMK CI2 SLP206

CYYG;2008-08-24 11:00;CYYG 241100Z 23009KT 15SM BKN300 16/14 A3015 RMK CI2 SLP210

CYYG;2008-08-24 12:00;CYYG 241200Z 23014KT 15SM BKN300 18/14 A3014 RMK CI2 SLP205

CYYG;2008-08-24 13:00;CYYG 241300Z 22011G16KT 15SM BKN300 19/14 A3013 RMK CI2 SLP202

CYYG;2008-08-24 14:00;CYYG 241400Z 23010G15KT 15SM BKN300 20/13 A3011 RMK CI2 SLP196

CYYG;2008-08-24 15:00;CYYG 241500Z 23010G15KT 15SM BKN300 21/14 A3010 RMK CI2 SLP193

CYYG;2008-08-24 16:00;CYYG 241600Z 23010G18KT 15SM BKN300 23/14 A3008 RMK CI2 CC ASOCTD SLP186

CYYG;2008-08-24 17:00;CYYG 241700Z 22013G19KT 15SM BKN300 24/12 A3004 RMK CI2 SLP174

CYYG;2008-08-24 18:00;CYYG 241800Z 19009KT 15SM BKN300 23/15 A3002 RMK CI1 SLP167

CYYG;2008-08-24 19:00;CYYG 241900Z 21014KT 15SM BKN300 24/13 A3001 RMK CI1 SLP161

CYYG;2008-08-24 20:00;CYYG 242000Z 21012G17KT 15SM FEW300 25/11 A2999 RMK CI1 SLP157

CYYG;2008-08-24 21:00;CYYG 242100Z 22009KT 15SM FEW300 24/14 A2996 RMK CI1 SLP147

CYYG;2008-08-24 22:00;CYYG 242200Z 22007KT 15SM FEW300 24/13 A2996 RMK CI1 SLP144

CYYG;2008-08-24 23:00;CYYG 242300Z 21011KT 15SM FEW150 FEW300 22/15 A2995 RMK AC1CI1 SLP143

CYYG;2008-08-25 00:00;CYYG 250000Z 23007KT 15SM FEW150 20/15 A2997 RMK AC1 SLP148

CYYG;2008-08-25 01:00;CYYG 250100Z 22008KT 15SM FEW150 20/15 A2997 RMK AC1 SLP148

CYYG;2008-08-25 02:00;CYYG 250200Z 22009KT 15SM FEW050 FEW150 20/15 A2996 RMK SC1AC1 SLP144

CYYG;2008-08-25 03:00;CYYG 250300Z 21007KT 15SM SCT047 SCT150 20/16 A2994 RMK SC3AC1 SLP138

CYYG;2008-08-25 04:00;CYYG 250400Z 21007KT 15SM SCT047 SCT150 19/17 A2994 RMK SC3AC1 SLP138

CYYG;2008-08-25 05:00;CYYG 250500Z 20007KT 15SM SCT011 BKN045 BKN150 19/18 A2990 RMK SC4SC2AC1 SLP123

CYYG;2008-08-25 06:00;CYYG 250600Z 18005KT 15SM BKN011 BKN045 19/17 A2988 RMK SC6SC2 SLP119

CYYG;2008-08-25 07:00;CYYG 250700Z 20006KT 15SM -SHRA OVC010 19/18 A2986 RMK SC8 SLP112

CYYG;2008-08-25 08:00;CYYG 250800Z 19009KT 12SM -SHRA OVC010 19/19 A2985 RMK SF8 SLP106

CYYG;2008-08-25 08:32;CYYG 250832Z 17008KT 10SM -SHRA SCT004 OVC008 19/ RMK SF3SF5

CYYG;2008-08-25 09:00;CYYG 250900Z 18008KT 10SM R03/4000VP6000FT/U -SHRA BKN004 OVC008 19/19 A2982 RMK SF6SF2 SLP099

CYYG;2008-08-25 09:38;CYYG 250938Z 19007KT 2SM -SHRA BR OVC003 19/ RMK SF8

CYYG;2008-08-25 10:00;CYYG 251000Z 19006KT 2SM -SHRA BR OVC003 19/19 A2982 RMK SF8 SLP096

CYYG;2008-08-25 10:12;CYYG 251012Z 19006KT 1SM R03/P6000FT/N -SHRA BR OVC002 19/ RMK SF8

CYYG;2008-08-25 11:00;CYYG 251100Z 18005KT 2SM -SHRA BR OVC002 20/19 A2981 RMK SF8 SLP094

CYYG;2008-08-25 11:29;CYYG 251129Z 17007KT 1 1/2SM -SHRA BR OVC002 20/ RMK SF8

CYYG;2008-08-25 12:00;CYYG 251200Z 17007KT 2SM -SHRA BR OVC002 20/20 A2979 RMK SF8 SLP089

CYYG;2008-08-25 13:00;CYYG 251300Z 17007KT 3SM -SHRA BR BKN002 OVC005 20/20 A2977 RERA RMK SF7SF1 SLP080

CYYG;2008-08-25 14:00;CYYG 251400Z 17009KT 2SM SHRA BR BKN002 OVC013 21/21 A2975 RMK SF7SC1 SLP073

CYYG;2008-08-25 14:23;CYYG 251423Z 20006KT 1 1/2SM R03/5500FT/N -SHRA BR BKN002 OVC006 21/ RERA RMK SF7SF1

CYYG;2008-08-25 15:00;CYYG 251500Z 22006KT 1 1/2SM -SHRA BR BKN002 OVC006 21/20 A2974 RERA RMK SF7SF1 SLP070

CYYG;2008-08-25 15:17;CYYG 251517Z 20005KT 6SM BR BKN003 OVC060 21/ RMK SF7SC1

CYYG;2008-08-25 15:40;CYYG 251540Z 22005KT 8SM -SHRA BKN005 OVC015 21/ RMK SF7SC1

CYYG;2008-08-25 16:00;CYYG 251600Z 22006KT 10SM -SHRA BKN005 OVC010 22/21 A2971 RMK SF7SC1 SLP061

CYYG;2008-08-25 16:14;CYYG 251614Z 24005KT 15SM BKN006 BKN018 BKN130 22/ RMK SF6SC1AC2

CYYG;2008-08-25 17:00;CYYG 251700Z 20006KT 15SM BKN007 BKN140 22/21 A2968 RMK SC6AC2 SLP050

CYYG;2008-08-25 17:40;CYYG 251740Z 21008KT 15SM BKN008 BKN100 23/ RMK SF5AC2

CYYG;2008-08-25 17:48;CYYG 251748Z 21008KT 15SM SCT009 BKN100 23/ RMK SF3AC4

CYYG;2008-08-25 18:00;CYYG 251800Z 21006KT 15SM FEW009 SCT080 BKN110 23/20 A2967 RMK SF2AC2AC4 SLP047

CYYG;2008-08-25 19:00;CYYG 251900Z 25010KT 15SM SCT013 BKN053 BKN110 24/20 A2967 RMK SC3SC2AC2 SLP048

CYYG;2008-08-25 20:00;CYYG 252000Z 25009G15KT 15SM FEW015 FEW040 BKN180 23/20 A2966 RMK SC2SC1AC4 SLP044

CYYG;2008-08-25 21:00;CYYG 252100Z 25011KT 15SM FEW018 FEW040 BKN180 23/16 A2966 RMK SC2SC1AC4 SLP042

CYYG;2008-08-25 22:00;CYYG 252200Z 25007KT 15SM FEW040 FEW130 BKN180 21/17 A2967 RMK SC1AC1AC7 SLP046

CYYG;2008-08-25 23:00;CYYG 252300Z 23008KT 15SM FEW040 SCT130 BKN200 20/17 A2967 RMK SC1AC2CI4 SLP047

CYYG;2008-08-26 00:00;CYYG 260000Z 24004KT 15SM FEW040 BKN100 BKN200 20/17 A2969 RMK SC2AC4CI2 SLP052

CYYG;2008-08-26 00:34;CYYG 260034Z 25008KT 15SM -SHRA FEW040 BKN083 OVC180 19/ RMK SC2AC5AC2

CYYG;2008-08-26 00:54;CYYG 260054Z 25008KT 10SM -TSRA FEW040CB BKN065 OVC110 19/ RMK CB2SC5AC2

CYYG;2008-08-26 01:00;CYYG 260100Z 24007KT 10SM -TSRA FEW030CB BKN059 OVC090 19/18 A2969 RMK CB2SC4AC2 SLP053

CYYG;2008-08-26 01:38;CYYG 260138Z 26010KT 8SM TSRA FEW008 BKN030CB OVC060 19/ RMK SF2CB3SC3

CYYG;2008-08-26 01:52;CYYG 260152Z 27010G15KT 6SM +TSRA BR BKN004 OVC025CB 18/ RMK SF5CB3

CYYG;2008-08-26 02:00;CYYG 260200Z 27010G15KT 6SM +TSRA BR BKN004 OVC025CB 19/18 A2969 RMK SF5CB3 SLP054

CYYG;2008-08-26 03:00;CYYG 260300Z 23005KT 10SM -TSRA BKN005 OVC020 19/18 A2970 RMK SF6SC2 RERA CB EMBDD SLP057

CYYG;2008-08-26 03:21;CYYG 260321Z 25004KT 10SM SHRA BKN005 OVC020 19/ RETS RMK SF6SC2

CYYG;2008-08-26 04:00;CYYG 260400Z 29005KT 10SM SHRA BKN004 OVC020 18/18 A2970 RETSRA RMK SF6SC2 SLP057

CYYG;2008-08-26 05:00;CYYG 260500Z 29006KT 15SM -SHRA SCT004 BKN020 OVC055 18/17 A2969 RERA RMK SF3SC2SC2 SLP054

CYYG;2008-08-26 06:00;CYYG 260600Z 28005KT 15SM -SHRA FEW004 BKN018 OVC052 17/16 A2970 RMK SF2SC3SC3 SLP057

CYYG;2008-08-26 07:00;CYYG 260700Z 34007KT 15SM -SHRA FEW004 BKN018 OVC050 16/15 A2970 RMK SF2SC3SC3 SLP056

CYYG;2008-08-26 08:00;CYYG 260800Z 30007KT 15SM -SHRA BKN014 OVC060 16/15 A2970 RMK SC6SC2 SLP058

CYYG;2008-08-26 09:00;CYYG 260900Z 31008KT 15SM -SHRA OVC014 15/14 A2971 RMK SC8 SLP062

CYYG;2008-08-26 09:20;CYYG 260920Z 31006KT 15SM OVC016 15/ RMK SC8

CYYG;2008-08-26 10:00;CYYG 261000Z 29007KT 15SM OVC016 15/13 A2974 RMK SC8 SLP072

CYYG;2008-08-26 11:00;CYYG 261100Z 29006KT 15SM OVC019 15/13 A2976 RMK SC8 SLP078

CYYG;2008-08-26 12:00;CYYG 261200Z 30006KT 15SM BKN033 BKN070 14/13 A2977 RMK SC6AC1 SLP081

CYYG;2008-08-26 13:00;CYYG 261300Z 32008KT 15SM FEW012 BKN033 BKN070 15/13 A2978 RMK SC2SC4AC1 SLP085

CYYG;2008-08-26 14:00;CYYG 261400Z 31006KT 15SM BKN019 16/13 A2979 RMK SC6 SLP089

CYYG;2008-08-26 15:00;CYYG 261500Z 30006KT 15SM BKN025 17/13 A2979 RMK SC6 SLP090

CYYG;2008-08-26 16:00;CYYG 261600Z 36006KT 15SM BKN022 17/13 A2979 RMK SC5 SLP090

CYYG;2008-08-26 17:00;CYYG 261700Z 02007KT 15SM BKN022 18/14 A2980 RMK SC5 SLP091

CYYG;2008-08-26 18:00;CYYG 261800Z 02009KT 15SM BKN022 BKN030 17/13 A2980 RMK SC5SC1 SLP092

CYYG;2008-08-26 19:00;CYYG 261900Z 02009KT 15SM SCT024 18/13 A2980 RMK SC4 TCU DIST S-SW SLP093

CYYG;2008-08-26 20:00;CYYG 262000Z 01008KT 15SM FEW023 SCT070 17/13 A2981 RMK CU2AC1 TCU DIST S-SW SLP095

CYYG;2008-08-26 21:00;CYYG 262100Z 36007KT 15SM FEW020 SCT120 17/12 A2982 RMK CU2AC2 SLP099

CYYG;2008-08-26 22:00;CYYG 262200Z 01005KT 15SM FEW020 SCT120 16/13 A2983 RMK CU2AC2 SLP101

CYYG;2008-08-26 23:00;CYYG 262300Z 36005KT 15SM FEW020 SCT055 BKN120 15/13 A2984 RMK CU1SC3AC2 SLP104

CYYG;2008-08-27 00:00;CYYG 270000Z 36005KT 15SM FEW045 BKN078 BKN130 15/14 A2985 RMK SC2AC3AC1 SLP110

CYYG;2008-08-27 01:00;CYYG 270100Z 36008KT 15SM FEW045 SCT078 BKN130 16/15 A2984 RMK SC2AC2AC3 SLP105

CYYG;2008-08-27 02:00;CYYG 270200Z 35005KT 15SM FEW080 BKN130 16/15 A2985 RMK AC2AC5 SLP107

CYYG;2008-08-27 03:00;CYYG 270300Z 36007KT 15SM SCT010 BKN080 OVC120 16/16 A2985 RMK SC3AC2AC3 SLP108

CYYG;2008-08-27 03:34;CYYG 270334Z 01012KT 15SM BKN010 OVC110 17/ RMK SF6AC2

CYYG;2008-08-27 04:00;CYYG 270400Z 01010G16KT 15SM BKN010 BKN060 OVC110 17/16 A2986 RMK SF5SC2AC2 SLP113

CYYG;2008-08-27 05:00;CYYG 270500Z 36010G16KT 15SM BKN010 BKN065 OVC110 17/15 A2986 RMK SF5SC2AC2 SLP112

CYYG;2008-08-27 06:00;CYYG 270600Z 01012G18KT 15SM SCT010 BKN055 OVC080 17/15 A2986 RMK SC3SC2AC2 SLP111

CYYG;2008-08-27 07:00;CYYG 270700Z 02013G18KT 15SM FEW010 BKN060 OVC090 17/14 A2985 RMK SC2SC4AC2 SLP110

CYYG;2008-08-27 08:00;CYYG 270800Z 01011G19KT 15SM FEW045 BKN070 OVC130 17/14 A2985 RMK SC2AC4AC2 SLP110

CYYG;2008-08-27 09:00;CYYG 270900Z 02014KT 15SM SCT070 BKN130 BKN300 17/14 A2985 RMK AC3AC2CI1 SLP110

CYYG;2008-08-27 10:00;CYYG 271000Z 01010G16KT 15SM FEW080 SCT150 17/14 A2987 RMK AC2AC2 SLP117

CYYG;2008-08-27 11:00;CYYG 271100Z 02014G20KT 15SM FEW080 SCT170 17/14 A2990 RMK AC2AC2 SLP124

CYYG;2008-08-27 12:00;CYYG 271200Z 02015G22KT 15SM FEW080 FEW250 18/14 A2991 RMK AC1CI2 SLP128

CYYG;2008-08-27 13:00;CYYG 271300Z 02016G22KT 15SM FEW080 FEW250 19/14 A2992 RMK AC1CI1 SLP131

CYYG;2008-08-27 14:00;CYYG 271400Z 02016KT 15SM FEW020 FEW160 SCT250 20/14 A2994 RMK CF1AC1CI1 SLP140

CYYG;2008-08-27 15:00;CYYG 271500Z 02015G22KT 15SM FEW020 FEW160 SCT250 20/15 A2994 RMK CF1AC1CI1 SLP138

CYYG;2008-08-27 16:00;CYYG 271600Z 02015G20KT 15SM FEW020 FEW160 SCT300 20/15 A2995 RMK CF1AC1CI1 SLP141

CYYG;2008-08-27 17:00;CYYG 271700Z 03014G21KT 15SM FEW025 FEW160 FEW300 21/16 A2995 RMK CU1AC1CI0 SLP141

CYYG;2008-08-27 18:00;CYYG 271800Z 36015KT 15SM FEW020 FEW160 FEW300 20/15 A2996 RMK CU1AC1CI0 SLP145

CYYG;2008-08-27 19:00;CYYG 271900Z 02017KT 15SM FEW020 FEW160 FEW300 20/14 A2997 RMK CU1AC1CI0 SLP149

CYYG;2008-08-27 20:00;CYYG 272000Z 01013G19KT 15SM FEW020 FEW160 FEW300 19/14 A2997 RMK CU1AC1CI0 SLP150

CYYG;2008-08-27 21:00;CYYG 272100Z 02013G18KT 15SM FEW160 FEW300 19/13 A2997 RMK AC1CI1 SLP150

CYYG;2008-08-27 22:00;CYYG 272200Z 02011KT 15SM FEW160 SCT300 17/13 A2998 RMK AC1CI0 SLP152

CYYG;2008-08-27 23:00;CYYG 272300Z 02007KT 15SM FEW160 BKN300 16/13 A2999 RMK AC1CI1 SLP157

CYYG;2008-08-28 00:00;CYYG 280000Z 03007KT 15SM FEW160 FEW300 15/13 A3001 RMK AC1CI0 SLP162

CYYG;2008-08-28 01:00;CYYG 280100Z 04009KT 15SM FEW290 16/13 A3002 RMK CI0 SLP166

CYYG;2008-08-28 02:00;CYYG 280200Z 03008KT 15SM FEW290 15/13 A3004 RMK CI0 SLP172

CYYG;2008-08-28 03:00;CYYG 280300Z 03008KT 15SM FEW290 15/13 A3005 RMK CI0 SLP175

CYYG;2008-08-28 04:00;CYYG 280400Z 03008KT 15SM SKC 14/12 A3006 RMK SLP178

CYYG;2008-08-28 05:00;CYYG 280500Z 02003KT 15SM SKC 14/12 A3008 RMK SLP186

CYYG;2008-08-28 06:00;CYYG 280600Z 03007KT 15SM SKC 15/12 A3008 RMK SLP187

CYYG;2008-08-28 07:00;CYYG 280700Z 03010KT 15SM SKC 15/12 A3008 RMK SLP187

CYYG;2008-08-28 08:00;CYYG 280800Z 02006KT 15SM SKC 15/13 A3007 RMK SLP183

CYYG;2008-08-28 09:00;CYYG 280900Z 04011KT 15SM FEW160 FEW280 16/14 A3008 RMK AC1CI0 SLP186

CYYG;2008-08-28 10:00;CYYG 281000Z 05009KT 15SM FEW050 FEW140 FEW280 17/15 A3010 RMK SC1AC1CI0 SLP193

CYYG;2008-08-28 11:00;CYYG 281100Z 05009KT 15SM FEW036 FEW047 18/15 A3012 RMK SC1SC1 SLP199

CYYG;2008-08-28 12:00;CYYG 281200Z 07010KT 15SM FEW036 FEW047 FEW300 20/16 A3012 RMK SC1SC1CI0 SLP201

CYYG;2008-08-28 13:00;CYYG 281300Z 09011KT 15SM FEW018 SCT300 21/17 A3014 RMK SC2CI1 SLP205

CYYG;2008-08-28 14:00;CYYG 281400Z 09010KT 15SM FEW018 BKN300 21/17 A3015 RMK SC2CI1 SLP210

CYYG;2008-08-28 15:00;CYYG 281500Z 10011KT 15SM FEW018 BKN300 21/17 A3015 RMK SC2CI3 SLP210

CYYG;2008-08-28 16:00;CYYG 281600Z 04008KT 15SM BKN017 BKN300 21/17 A3014 RMK SC6CI1 SLP207

CYYG;2008-08-28 17:00;CYYG 281700Z 05012KT 15SM BKN016 BKN300 20/16 A3015 RMK SC6CI2 SLP209

CYYG;2008-08-28 18:00;CYYG 281800Z 05011G16KT 15SM BKN018 BKN300 20/16 A3015 RMK SC6CI1 SLP210

CYYG;2008-08-28 19:00;CYYG 281900Z 04010G15KT 15SM BKN017 OVC300 21/16 A3014 RMK SC6CI2 SLP205

CYYG;2008-08-28 20:00;CYYG 282000Z 05013KT 15SM SCT013 OVC020 19/16 A3014 RMK SC3SC5 SLP207

CYYG;2008-08-28 21:00;CYYG 282100Z 05016KT 15SM SCT014 OVC022 18/15 A3013 RMK SC3SC5 SLP203

CYYG;2008-08-28 21:22;CYYG 282122Z 05013G18KT 15SM BKN013 OVC020 17/ RMK SC6SC2

CYYG;2008-08-28 22:00;CYYG 282200Z 05015KT 15SM BKN012 OVC020 17/15 A3014 RMK SC6SC2 SLP206

CYYG;2008-08-28 23:00;CYYG 282300Z 06014KT 15SM OVC012 17/15 A3014 RMK SC8 SLP207

CYYG;2008-08-29 00:00;CYYG 290000Z 05015KT 15SM BKN011 BKN070 OVC220 16/14 A3012 RMK SC5AC2CC2 SLP198

CYYG;2008-08-29 01:00;CYYG 290100Z 05014KT 15SM SCT012 BKN023 OVC210 16/14 A3010 RMK SC3SC3CC2 SLP194

CYYG;2008-08-29 02:00;CYYG 290200Z 06013G18KT 15SM SCT011 OVC140 17/12 A3010 RMK SC3AC5 SLP192

CYYG;2008-08-29 02:49;CYYG 290249Z 06019G25KT 10SM -RA SCT010 SCT032 OVC068 16/ RMK SC3SC1AC4

CYYG;2008-08-29 03:00;CYYG 290300Z 06014G22KT 10SM -RA SCT012 SCT030 OVC062 16/14 A3008 RMK SC3SC1SC4 SLP187

CYYG;2008-08-29 04:00;CYYG 290400Z 06012G18KT 8SM -RA FEW013 OVC024 16/15 A3007 RMK SF2SC6 SLP184

CYYG;2008-08-29 05:00;CYYG 290500Z 06016G22KT 6SM -RA BR SCT012 OVC029 15/14 A3006 RMK SC4SC4 SLP178

CYYG;2008-08-29 06:00;CYYG 290600Z 06011G17KT 8SM FEW010 OVC025 15/15 A3003 RMK SC2SC6 SLP170

CYYG;2008-08-29 06:21;CYYG 290621Z 05012G18KT 8SM FEW008 OVC017 15/ RMK SF2SC6

CYYG;2008-08-29 07:00;CYYG 290700Z 05011KT 10SM FEW008 OVC022 15/14 A3001 RMK SF1SC7 SLP163

CYYG;2008-08-29 08:00;CYYG 290800Z 05011KT 12SM FEW008 OVC019 15/14 A2999 RMK SF1SC7 SLP155

CYYG;2008-08-29 09:00;CYYG 290900Z 04010KT 12SM FEW009 OVC019 15/14 A2998 RMK SF2SC6 SLP153

CYYG;2008-08-29 10:00;CYYG 291000Z 06012KT 15SM FEW009 OVC019 16/14 A2999 RMK SF1SC7 SLP155

CYYG;2008-08-29 10:05;CYYG 291005Z 07011KT 15SM -SHRA FEW009 OVC018 16/ RMK SF2SC6

CYYG;2008-08-29 11:00;CYYG 291100Z 05009KT 12SM -SHRA FEW009 FEW018 OVC028 16/15 A2999 RMK SF1SC1SC6 SLP155

CYYG;2008-08-29 12:00;CYYG 291200Z 05009KT 12SM -DZ FEW009 BKN016 OVC025 16/15 A2998 RMK SF2SC4SC2 SLP151

CYYG;2008-08-29 12:32;CYYG 291232Z 07008KT 15SM FEW009 OVC012 17/ RMK SF1SC7

CYYG;2008-08-29 13:00;CYYG 291300Z 07008G15KT 15SM OVC012 17/15 A2997 RMK SC8 SLP150

CYYG;2008-08-29 14:00;CYYG 291400Z 07009KT 15SM OVC011 17/15 A2997 RMK SC8 SLP149

CYYG;2008-08-29 15:00;CYYG 291500Z 05008KT 15SM OVC013 19/16 A2995 RMK SC8 SLP143

CYYG;2008-08-29 16:00;CYYG 291600Z 09004KT 15SM OVC016 19/16 A2995 RMK SC8 SLP142

CYYG;2008-08-29 17:00;CYYG 291700Z 02008KT 15SM BKN015 BKN300 20/17 A2994 RMK SC6CI1 SLP140

CYYG;2008-08-29 18:00;CYYG 291800Z 03011KT 15SM FEW017 FEW110 SCT300 20/16 A2992 RMK SC2AC1CI1 SLP133

CYYG;2008-08-29 19:00;CYYG 291900Z 03009KT 15SM FEW014 SCT058 BKN300 20/16 A2991 RMK SC2SC2CI1 SLP129

CYYG;2008-08-29 20:00;CYYG 292000Z 04009KT 15SM FEW012 BKN020 BKN080 19/16 A2990 RMK CF1SC4AC2 SLP126

CYYG;2008-08-29 21:00;CYYG 292100Z 02009KT 15SM FEW011 FEW020 SCT090 BKN300 19/17 A2988 RMK SF1SC2AC1CI0 SLP120

CYYG;2008-08-29 21:54;CYYG 292154Z 01007KT 15SM SCT007 BKN024 BKN060 18/ RMK SF4SC2SC2

CYYG;2008-08-29 22:00;CYYG 292200Z 36006KT 15SM BKN006 BKN024 BKN060 18/16 A2988 RMK SF5SC2SC1 SLP118

CYYG;2008-08-29 22:16;CYYG 292216Z 36003KT 15SM SCT006 BKN024 BKN050 BKN300 17/ RMK SF3SC2SC1CI1

CYYG;2008-08-29 22:50;CYYG 292250Z 36006KT 10SM BKN006 OVC024 17/ RMK SF6SC2

CYYG;2008-08-29 23:00;CYYG 292300Z 36008KT 10SM OVC006 17/16 A2988 RMK SF8 SLP118

CYYG;2008-08-30 00:00;CYYG 300000Z 01007KT 10SM OVC005 17/16 A2989 RMK SF8 SLP121

CYYG;2008-08-30 00:49;CYYG 300049Z 34005KT 8SM OVC003 17/ RMK SF8

CYYG;2008-08-30 01:00;CYYG 300100Z 36005KT 10SM OVC004 17/16 A2988 RMK SF8 SLP118

CYYG;2008-08-30 02:00;CYYG 300200Z 36007KT 8SM OVC003 17/16 A2988 RMK SF8 SLP118

CYYG;2008-08-30 02:37;CYYG 300237Z 01007KT 1 1/2SM BR OVC002 17/ RMK SF8

CYYG;2008-08-30 03:00;CYYG 300300Z 36007KT 1SM R03/4500VP6000FT/U BR OVC002 16/16 A2987 RMK SF8 SLP115

CYYG;2008-08-30 04:00;CYYG 300400Z 35007KT 1SM R03/P6000FT/D BR OVC002 16/16 A2986 RMK SF8 SLP113

CYYG;2008-08-30 05:00;CYYG 300500Z 35008KT 1 1/2SM BR OVC003 16/16 A2986 RMK SF8 SLP112

CYYG;2008-08-30 06:00;CYYG 300600Z 34005KT 1 1/2SM BR OVC003 16/16 A2986 RMK SF8 SLP111

CYYG;2008-08-30 07:00;CYYG 300700Z 34006KT 2SM BR OVC002 16/16 A2986 RMK SF8 SLP113

CYYG;2008-08-30 07:18;CYYG 300718Z 35006KT 2SM -DZ BR OVC002 16/ RMK SF8

CYYG;2008-08-30 08:00;CYYG 300800Z 35006KT 2SM -DZ BR OVC003 17/17 A2986 RMK SF8 SLP113

CYYG;2008-08-30 09:00;CYYG 300900Z 35006KT 1 1/2SM R03/6000FT/U -DZ BR OVC003 16/16 A2988 RMK SF8 SLP118

CYYG;2008-08-30 10:00;CYYG 301000Z 36008KT 1SM R03/P6000FT/D -DZ BR OVC003 16/16 A2988 RMK SF8 SLP119

CYYG;2008-08-30 11:00;CYYG 301100Z 35008KT 1 1/2SM -DZ BR OVC003 16/16 A2990 RMK SF8 SLP127

CYYG;2008-08-30 11:24;CYYG 301124Z 34006KT 3SM -DZ BR OVC003 17/ RMK SF8 CIG RAG

CYYG;2008-08-30 12:00;CYYG 301200Z 34005KT 6SM -DZ BR BKN005 OVC012 16/16 A2992 RMK SF7SC1 CIG RAG SLP132

CYYG;2008-08-30 13:00;CYYG 301300Z 35003KT 15SM -DZ BKN007 OVC012 17/16 A2992 RMK SF6SC2 PCPN VRY LGT SLP131

CYYG;2008-08-30 14:00;CYYG 301400Z 32006KT 3SM -DZ BR BKN008 OVC013 17/17 A2993 RMK SF6SC2 CIG RAG SLP135

CYYG;2008-08-30 14:23;CYYG 301423Z 32008KT 1 1/2SM -DZ BR BKN006 OVC013 17/ RMK SF7SC1 CIG RAG

CYYG;2008-08-30 15:00;CYYG 301500Z 33005KT 2SM -DZ BR BKN007 OVC013 17/17 A2993 RMK SF6SC2 CIG RAG SLP134

CYYG;2008-08-30 15:34;CYYG 301534Z 33005KT 15SM BKN008 BKN013 OVC031 18/ RMK SF5SC2SC2

CYYG;2008-08-30 16:00;CYYG 301600Z 31005KT 15SM SCT008 BKN013 OVC028 18/16 A2992 RMK SF3SC2SC2 SLP131

CYYG;2008-08-30 17:00;CYYG 301700Z 28005KT 15SM FEW008 FEW013 BKN025 19/16 A2990 RMK SF1SC1SC6 SLP127

CYYG;2008-08-30 18:00;CYYG 301800Z 27006KT 15SM FEW017 BKN025 20/17 A2989 RMK SC2SC5 SLP123

CYYG;2008-08-30 19:00;CYYG 301900Z 27007KT 15SM BKN024 20/16 A2988 RMK SC6 SLP119

CYYG;2008-08-30 20:00;CYYG 302000Z 28007KT 15SM SCT024 BKN068 20/16 A2987 RMK SC3AC2 SLP117

CYYG;2008-08-30 21:00;CYYG 302100Z 27006KT 15SM FEW025 BKN072 20/16 A2987 RMK SC2AC5 SLP115

CYYG;2008-08-30 22:00;CYYG 302200Z 23004KT 15SM FEW025 BKN076 19/16 A2986 RMK SC1AC6 SLP113

CYYG;2008-08-30 23:00;CYYG 302300Z 23005KT 15SM BKN075 19/17 A2987 RMK AC7 SLP115

CYYG;2008-08-31 00:00;CYYG 310000Z 21005KT 15SM BKN077 19/17 A2987 RMK AC7 SLP115

CYYG;2008-08-31 01:00;CYYG 310100Z 23006KT 15SM SCT080 BKN140 18/17 A2987 RMK AC3AC4 SLP115

CYYG;2008-08-31 02:00;CYYG 310200Z 24005KT 15SM FEW080 BKN140 18/16 A2986 RMK AC2AC4 SLP112

CYYG;2008-08-31 03:00;CYYG 310300Z 25005KT 15SM BKN110 BKN140 17/16 A2985 RMK AC5AC2 SLP110

CYYG;2008-08-31 04:00;CYYG 310400Z 25007KT 15SM BKN079 OVC110 18/17 A2984 RMK AC6AC2 SLP106

CYYG;2008-08-31 05:00;CYYG 310500Z 25009KT 15SM SCT052 OVC070 18/17 A2983 RMK SC3AC5 SLP102

CYYG;2008-08-31 06:00;CYYG 310600Z 25006KT 10SM FEW045 BKN072 OVC110 18/17 A2983 RMK SC2AC3AC2 SLP101

CYYG;2008-08-31 07:00;CYYG 310700Z 24006KT 10SM FEW006 OVC025 17/17 A2983 RMK SF2SC6 SLP101

CYYG;2008-08-31 07:32;CYYG 310732Z 25007KT 7SM -SHRA FEW006 FEW025 OVC110 17/ RMK SF1SC2AC6

CYYG;2008-08-31 08:00;CYYG 310800Z 24006KT 7SM FEW006 BKN100 17/16 A2981 RMK SF1AC6 SLP096

CYYG;2008-08-31 09:00;CYYG 310900Z 25008KT 7SM FEW006 BKN080 BKN140 17/16 A2981 RMK SF1AC5AC2 SLP095

CYYG;2008-08-31 10:00;CYYG 311000Z 25006KT 7SM FEW006 BKN073 BKN140 17/17 A2981 RMK SF2AC3AC2 ACC ASOCTD SLP095

CYYG;2008-08-31 10:17;CYYG 311017Z 25007KT 7SM -SHRA FEW006 BKN075 17/ RMK SF2AC6 ACC ASOCTD

CYYG;2008-08-31 10:39;CYYG 311039Z 25007KT 6SM -SHRA BR BKN004 OVC075 17/ RMK SF6AC2

CYYG;2008-08-31 11:00;CYYG 311100Z 26005KT 6SM -SHRA BR BKN004 OVC075 17/17 A2981 RMK SF7AC1 SLP095

CYYG;2008-08-31 12:00;CYYG 311200Z 29008KT 10SM BKN005 OVC100 18/17 A2981 RMK SF7AC1 SLP095

CYYG;2008-08-31 12:37;CYYG 311237Z 29009KT 12SM BKN008 BKN110 19/ RMK SF6AC1

CYYG;2008-08-31 13:00;CYYG 311300Z 28007KT 12SM BKN009 BKN110 19/17 A2981 RMK SF6AC2 SLP094

CYYG;2008-08-31 13:26;CYYG 311326Z 31005KT 12SM BKN010 BKN100 20/ RMK SC5AC2

CYYG;2008-08-31 14:00;CYYG 311400Z 29004KT 15SM BKN016 BKN095 21/19 A2979 RMK SC5AC2 SLP088

CYYG;2008-08-31 15:00;CYYG 311500Z CCA 35007KT 15SM BKN018 BKN110 BKN230 21/18 A2977 RMK CU5AC2CI0 SLP081

CYYG;2008-08-31 16:00;CYYG 311600Z 01012KT 15SM -SHRA BKN018 BKN087 OVC250 19/16 A2977 RMK SC5AC2CI0 TCU ASOCTD SLP080

CYYG;2008-08-31 16:19;CYYG 311619Z 36007KT 15SM -TSRA BKN025 BKN060 BKN090 18/ RMK SC5SC1AC2 CB ASOCTD LTGCG DIST SW

CYYG;2008-08-31 17:00;CYYG 311700Z 36008KT 15SM -TSRA SCT007 BKN090 OVC250 17/16 A2975 RMK SF4AC3CI1 CB ASOCTD LTGIC S SLP074

CYYG;2008-08-31 17:15;CYYG 311715Z 35006KT 15SM -TSRA BKN007 OVC093 17/ RMK SF6AC2 CB ASOCTD OCNL LTGIC S

CYYG;2008-08-31 17:38;CYYG 311738Z 32007KT 15SM -SHRA BKN007 OVC100 17/ RETS RMK SF6AC2

CYYG;2008-08-31 17:55;CYYG 311755Z 32006KT 15SM -TSRA BKN009 BKN030 OVC100 17/ RMK SF7SC1AC1 CB ASOCTD LTG DIST S

CYYG;2008-08-31 18:00;CYYG 311800Z 32006KT 15SM -TSRA BKN009 BKN030 OVC100 17/16 A2977 RMK SF6SC1AC1 CB ASOCTD LTG DIST S SLP080

CYYG;2008-08-31 18:22;CYYG 311822Z 32006KT 15SM -SHRA FEW007 BKN013 OVC030 17/ RETS RMK SF1SC5SC2

CYYG;2008-08-31 19:00;CYYG 311900Z 34006KT 15SM -SHRA FEW007 BKN018 OVC032 17/16 A2977 RETS RMK SF1SC5SC2 SLP080

CYYG;2008-08-31 20:00;CYYG 312000Z 35006KT 15SM -SHRA FEW020 SCT030 OVC100 17/16 A2976 RMK SC2SC2AC4 SLP077

CYYG;2008-08-31 20:53;CYYG 312053Z 35006KT 15SM VCSH FEW020 FEW030 BKN097 17/ RMK SC1SC2AC5 LTGCG DIST SE-S

CYYG;2008-08-31 21:00;CYYG 312100Z 35007KT 15SM FEW020TCU BKN097 BKN230 17/16 A2975 RMK TCU1AC5CI2 SLP075

CYYG;2008-08-31 22:00;CYYG 312200Z 36005KT 15SM FEW020 SCT097 OVC230 17/16 A2974 RMK SC1AC2CI4 SLP072

CYYG;2008-08-31 23:00;CYYG 312300Z 36004KT 15SM FEW010 SCT016 BKN096 OVC230 16/15 A2976 RMK SF1SC3AC2CI1 SLP078

CYYG;2008-09-01 01:00;CYYG 010100Z 33005KT 15SM FEW010 BKN050 OVC130 16/15 A2976 RMK SF1SC6AC2 SLP078

CYYG;2008-09-01 02:00;CYYG 010200Z 31006KT 15SM SCT050 BKN130 16/14 A2975 RMK SC4AC1 SLP074

CYYG;2008-09-01 03:00;CYYG 010300Z 32009KT 15SM SCT050 BKN170 16/14 A2973 RMK SC4AC1 SLP067

CYYG;2008-09-01 04:00;CYYG 010400Z 32013G19KT 15SM -SHRA BKN029 17/13 A2972 RMK SC6 SLP065

CYYG;2008-09-01 05:00;CYYG 010500Z CCA 32015KT 12SM SHRA BKN022 OVC080 15/14 A2969 RMK SC6AC2 SLP055

CYYG;2008-09-01 05:38;CYYG 010538Z 31011G16KT 8SM RA SCT010 OVC030 15/ RMK SC3SC5

CYYG;2008-09-01 06:00;CYYG 010600Z 32010G16KT 8SM RA BKN010 OVC022 15/14 A2967 RMK SC5SC3 SLP048

CYYG;2008-09-01 06:08;CYYG 010608Z 31010G16KT 8SM RA OVC008 15/ RMK SF8

CYYG;2008-09-01 07:00;CYYG 010700Z 34017G22KT 8SM -RA OVC008 15/15 A2964 RMK SF8 CIG RAG SLP038

CYYG;2008-09-01 08:00;CYYG 010800Z 34021G28KT 8SM -RA OVC007 15/15 A2962 RMK SF8 CIG RAG SLP032

CYYG;2008-09-01 08:18;CYYG 010818Z 34018G29KT 2SM R03/2000VP6000FT/D -RA BR OVC007 15/ RMK SF8 CIG RAG

CYYG;2008-09-01 08:45;CYYG 010845Z 35020G31KT 2SM R03/2200VP6000FT/U -RA BR OVC006 15/ RMK SF8

CYYG;2008-09-01 09:00;CYYG 010900Z 34017G28KT 2SM -RA BR BKN006 OVC012 15/15 A2961 RMK SF7SC1 SLP027

CYYG;2008-09-01 09:14;CYYG 010914Z 35023G31KT 1 1/2SM -RA BR BKN006 OVC014 15/ RMK SF6SC2 RERA

CYYG;2008-09-01 10:00;CYYG 011000Z 01020G32KT 6SM -RA BR BKN006 OVC024 16/16 A2962 RMK SF6SC2 /R29/ RERA SLP030

CYYG;2008-09-01 11:00;CYYG 011100Z 02016G22KT 8SM -RA BKN008 OVC027 17/17 A2966 RMK SF5SC3 SLP043

CYYG;2008-09-01 12:00;CYYG 011200Z 02012G18KT 10SM -RA BKN007 OVC025 17/17 A2968 RMK SF7SC1 VIS LWR NW SLP052

CYYG;2008-09-01 13:00;CYYG 011300Z 02014G20KT 8SM -SHRA BKN008 BKN025 OVC040 17/16 A2971 RMK SF6SC2SC1 VIS LWR E SLP060

CYYG;2008-09-01 13:24;CYYG 011324Z 02013G18KT 4SM SHRA BR OVC005 17/ RMK SF8 VIS N 2

CYYG;2008-09-01 13:41;CYYG 011341Z 02012G20KT 6SM -SHRA BR BKN006 OVC025 17/ RERA RMK SF7SC1

CYYG;2008-09-01 14:00;CYYG 011400Z 01010G17KT 8SM -SHRA BKN006 OVC025 17/16 A2971 RERA RMK SF6SC2 SLP062

CYYG;2008-09-01 15:00;CYYG 011500Z 02016G21KT 10SM -SHRA BKN006 OVC018 17/16 A2974 RERA RMK SF7SC1 VIS LWR NW SLP072

CYYG;2008-09-01 16:00;CYYG 011600Z 02019G24KT 10SM BKN006 OVC066 18/17 A2975 RMK SF6AC2 SLP074

CYYG;2008-09-01 16:23;CYYG 011623Z 03017G26KT 10SM -SHRA OVC007 17/ RMK SF8

CYYG;2008-09-01 17:00;CYYG 011700Z 02016G26KT 10SM -SHRA OVC007 18/16 A2976 RMK SF8 SLP078

CYYG;2008-09-01 17:46;CYYG 011746Z 03016G24KT 12SM VCSH BKN008 OVC025 18/ RMK SF6SC2

CYYG;2008-09-01 18:00;CYYG 011800Z 03014G24KT 12SM VCSH BKN009 OVC025 18/16 A2978 RMK SF6SC2 SLP085

CYYG;2008-09-01 18:41;CYYG 011841Z 02014G20KT 10SM -SHRA BKN008 OVC020 17/ RMK SF7SC1

CYYG;2008-09-01 19:00;CYYG 011900Z 01012G18KT 12SM -SHRA OVC009 18/15 A2980 RMK SF8 VIS LWR W-NW SLP091

CYYG;2008-09-01 19:31;CYYG 011931Z 01010G18KT 15SM VCSH BKN009 BKN073 18/ RMK SF5AC2 VIS LWR NW

CYYG;2008-09-01 20:00;CYYG 012000Z 03015KT 15SM VCSH BKN009 BKN034 BKN074 17/15 A2980 RMK SF5SC2AC1 VIS LWR NW SLP093

CYYG;2008-09-01 21:00;CYYG 012100Z 04017KT 15SM VCSH BKN009 BKN023 BKN070 18/16 A2982 RMK SF5SC2AC1 VIS LWR N SLP097

CYYG;2008-09-01 21:12;CYYG 012112Z 04017G25KT 15SM VCSH SCT008 BKN023 BKN070 18/ RMK SF4SC2AC1 VIS LWR W-N

CYYG;2008-09-01 22:00;CYYG 012200Z 04014G21KT 15SM FEW008 BKN020 BKN070 17/16 A2983 RMK SF2SC3AC1 SLP102

CYYG;2008-09-01 23:00;CYYG 012300Z 06010G15KT 15SM FEW008 FEW020 SCT070 16/15 A2984 RMK SF1SC2AC1 SLP105

CYYG;2008-09-02 00:00;CYYG 020000Z 05012KT 15SM FEW020 FEW070 16/14 A2988 RMK SC2AC1 SLP120

CYYG;2008-09-02 01:00;CYYG 020100Z 04011KT 15SM FEW015 FEW070 16/14 A2991 RMK SC2AC1 SLP130

CYYG;2008-09-02 02:00;CYYG 020200Z 04008KT 15SM FEW015 FEW070 15/14 A2993 RMK SC2AC1 SLP137

CYYG;2008-09-02 03:00;CYYG 020300Z 02007KT 15SM FEW015 FEW070 15/14 A2994 RMK SC1AC1 SLP139

CYYG;2008-09-02 03:14;CYYG 020314Z 02006KT 15SM FEW009 FEW070 15/ RMK SF1AC2

CYYG;2008-09-02 04:00;CYYG 020400Z 04008KT 15SM FEW009 FEW070 15/15 A2995 RMK SF1AC2 SLP143

CYYG;2008-09-02 05:00;CYYG 020500Z 04007KT 15SM FEW009 FEW070 15/14 A2997 RMK SF1AC2 SLP150

CYYG;2008-09-02 06:00;CYYG 020600Z 05008KT 15SM FEW009 FEW025 SCT070 15/15 A2998 RMK SF1SC2AC1 SLP152

CYYG;2008-09-02 07:00;CYYG 020700Z 06007KT 15SM FEW020 15/14 A2998 RMK SC2 SLP152

CYYG;2008-09-02 08:00;CYYG 020800Z 06005KT 15SM FEW020 13/12 A2998 RMK SC1 SLP154

CYYG;2008-09-02 09:00;CYYG 020900Z 07005KT 15SM FEW020 FEW250 12/11 A3000 RMK SC1CI0 SLP158

CYYG;2008-09-02 10:00;CYYG 021000Z 05006KT 15SM FEW020 FEW080 FEW250 12/11 A3002 RMK SC1AC1CI0 SLP167

CYYG;2008-09-02 11:00;CYYG 021100Z 05007KT 15SM FEW020 FEW080 FEW250 15/14 A3003 RMK SC1AC1CI0 SLP169

CYYG;2008-09-02 12:00;CYYG 021200Z 07009KT 15SM FEW020 FEW080 FEW250 17/14 A3004 RMK SC1AC1CI0 SLP172

CYYG;2008-09-02 13:00;CYYG 021300Z 05009KT 15SM FEW020 FEW080 FEW250 18/14 A3005 RMK SC1AC1CI0 SLP177

CYYG;2008-09-02 14:00;CYYG 021400Z 06008KT 15SM FEW018 FEW080 SCT250 20/15 A3006 RMK SC1AC1CI1 SLP181

CYYG;2008-09-02 15:00;CYYG 021500Z 04011KT 15SM FEW018 FEW080 SCT250 20/16 A3007 RMK CF2AC1CI1 SLP182

CYYG;2008-09-02 16:00;CYYG 021600Z 02013KT 15SM FEW018 FEW080 SCT250 20/15 A3006 RMK CF1AC1CI1 SLP179

CYYG;2008-09-02 17:00;CYYG 021700Z 06012KT 15SM FEW020 FEW250 20/14 A3006 RMK CF1CI1 SLP179

CYYG;2008-09-02 18:00;CYYG 021800Z 03011KT 15SM FEW020 FEW120 SCT250 19/14 A3006 RMK CF1AC1CI1 SLP178

CYYG;2008-09-02 19:00;CYYG 021900Z 03010KT 15SM FEW020 FEW120 SCT250 20/15 A3005 RMK CF1AC1CI1 SLP176

CYYG;2008-09-02 20:00;CYYG 022000Z 02013KT 15SM FEW018 FEW120 SCT250 18/15 A3005 RMK CF1AC1CI1 SLP176

CYYG;2008-09-02 21:00;CYYG 022100Z 04011KT 15SM FEW018 FEW120 BKN250 18/15 A3004 RMK SC2AC1CI1 SLP172

CYYG;2008-09-02 22:00;CYYG 022200Z 05007KT 15SM FEW016 FEW120 BKN250 17/15 A3003 RMK SC1AC1CI2 SLP170

CYYG;2008-09-02 23:00;CYYG 022300Z 03006KT 15SM FEW010 FEW120 BKN250 15/15 A3003 RMK SC2AC1CI1 SLP170

CYYG;2008-09-03 00:00;CYYG 030000Z 01003KT 15SM SCT009 SCT120 15/15 A3005 RMK SC3AC1 SLP175

CYYG;2008-09-03 00:28;CYYG 030028Z 05006KT 15SM BKN009 16/ RMK SC6

CYYG;2008-09-03 01:00;CYYG 030100Z 03006KT 15SM OVC008 16/15 A3006 RMK SC8 SLP178

CYYG;2008-09-03 02:00;CYYG 030200Z 06005KT 15SM BKN009 15/15 A3005 RMK SC6 SLP175

CYYG;2008-09-03 03:00;CYYG 030300Z 03003KT 15SM SCT010 14/14 A3005 RMK SC4 SLP177

CYYG;2008-09-03 04:00;CYYG 030400Z 03003KT 15SM SCT010 13/13 A3005 RMK SC3 SLP176

CYYG;2008-09-03 05:00;CYYG 030500Z 07004KT 15SM BKN009 15/15 A3004 RMK SC6 SLP174

CYYG;2008-09-03 06:00;CYYG 030600Z 11003KT 15SM OVC008 15/15 A3004 RMK SC8 SLP171

CYYG;2008-09-03 07:00;CYYG 030700Z 12006KT 15SM OVC007 16/15 A3003 RMK SC8 SLP170

CYYG;2008-09-03 08:00;CYYG 030800Z 08003KT 15SM OVC006 16/15 A3004 RMK SC8 SLP172

CYYG;2008-09-03 09:00;CYYG 030900Z 00000KT 15SM OVC006 15/15 A3003 RMK SC8 SLP168

CYYG;2008-09-03 09:42;CYYG 030942Z 06005KT 10SM OVC004 15/ RMK SF8

CYYG;2008-09-03 10:00;CYYG 031000Z 05006KT 12SM OVC004 15/15 A3003 RMK SF8 SLP170

CYYG;2008-09-03 10:27;CYYG 031027Z 10005KT 12SM OVC009 15/ RMK SF8

CYYG;2008-09-03 11:00;CYYG 031100Z 11008KT 12SM BKN009 16/14 A3006 RMK SC6 SLP178

CYYG;2008-09-03 11:17;CYYG 031117Z 11006KT 12SM SCT009 BKN260 16/ RMK SC4CI0

CYYG;2008-09-03 12:00;CYYG 031200Z 10004KT 12SM FEW009 FEW060 BKN260 17/15 A3004 RMK SF2SC1CI0 SLP173

CYYG;2008-09-03 13:00;CYYG 031300Z 07007KT 15SM SCT012 SCT060 BKN260 18/16 A3004 RMK CF3SC1CI0 SLP172

CYYG;2008-09-03 14:00;CYYG 031400Z 09007KT 15SM FEW014 SCT060 BKN260 19/15 A3002 RMK CF2SC2CI1 SLP166

CYYG;2008-09-03 15:00;CYYG 031500Z 09007KT 15SM FEW060 BKN100 BKN200 20/17 A3001 RMK SC1AC4CI2 SLP162

CYYG;2008-09-03 15:26;CYYG 031526Z 13006KT 15SM -SHRA FEW045 FEW060 BKN100 BKN200 20/ RMK SC1SC1AC4CI2

CYYG;2008-09-03 16:00;CYYG 031600Z 10006KT 15SM VCSH FEW040 FEW055 BKN120 OVC240 20/15 A2998 RMK SC1SC2AC4CI1 SLP154

CYYG;2008-09-03 17:00;CYYG 031700Z 12008KT 15SM FEW045 BKN083 OVC240 19/14 A2998 RMK SC2AC4CI2 SLP154

CYYG;2008-09-03 17:22;CYYG 031722Z 12008KT 15SM -SHRA FEW034 BKN063 BKN086 OVC240 19/ RMK SC2SC2AC2CI1 VIS LWR E

CYYG;2008-09-03 17:29;CYYG 031729Z 11006KT 15SM -TSRA FEW030CB BKN063 BKN100 OVC240 18/ RMK CB1SC4AC2CI1 CB E / VIS E-SE 4

CYYG;2008-09-03 18:00;CYYG 031800Z 08008KT 10SM -TSRA FEW024CB BKN045 BKN091 OVC240 17/16 A2997 RERA RMK CB1SC4AC2CI1 CB NE VIS NE 4 SLP149

CYYG;2008-09-03 18:30;CYYG 031830Z 11005KT 15SM -SHRA FEW020 BKN110 OVC250 17/ RETS RMK SC2AC5CI2 ACC ASOCTD

CYYG;2008-09-03 19:00;CYYG 031900Z 12002KT 15SM -SHRA FEW010 FEW064 BKN110 OVC250 18/17 A2996 RETS RMK SF2SC1AC3CI2 SLP144

CYYG;2008-09-03 20:00;CYYG 032000Z 07006KT 15SM BKN014 BKN060 OVC100 19/17 A2995 RMK SC6SC2AC1 SLP141

CYYG;2008-09-03 21:00;CYYG 032100Z 07006KT 15SM -SHRA BKN012 OVC055 18/17 A2992 RMK SC6SC2 SLP132

CYYG;2008-09-03 21:45;CYYG 032145Z 09008KT 15SM VCSH FEW007 BKN012 OVC030 18/ RMK SF2SC4SC2

CYYG;2008-09-03 22:00;CYYG 032200Z 08006KT 15SM VCSH BKN006 BKN020 OVC035 18/17 A2991 RMK SF5SC2SC2 VIS LWR E SLP129

CYYG;2008-09-03 23:00;CYYG 032300Z 06008KT 15SM VCSH BKN006 OVC020 17/17 A2989 RMK SF5SC3 SLP123

CYYG;2008-09-04 00:00;CYYG 040000Z 05005KT 15SM BKN006 OVC013 17/17 A2988 RMK SF6SC2 SLP118

CYYG;2008-09-04 01:00;CYYG 040100Z 08009KT 15SM SCT006 OVC014 17/17 A2987 RMK SF4SC4 SLP115

CYYG;2008-09-04 01:11;CYYG 040111Z 08007KT 12SM BKN006 OVC013 18/ RMK SF5SC3

CYYG;2008-09-04 01:31;CYYG 040131Z 08006KT 10SM OVC004 17/ RMK SF8

CYYG;2008-09-04 01:49;CYYG 040149Z 08008KT 5SM -DZ BR OVC003 17/ RMK SF8

CYYG;2008-09-04 02:00;CYYG 040200Z 08006KT 5SM -DZ BR OVC003 17/17 A2985 RMK SF8 SLP109

CYYG;2008-09-04 03:00;CYYG 040300Z 09004KT 5SM -DZ BR OVC003 18/18 A2983 RMK SF8 SLP103

CYYG;2008-09-04 04:00;CYYG 040400Z 10004KT 5SM -DZ BR OVC003 18/18 A2980 RMK SF8 SLP092

CYYG;2008-09-04 05:00;CYYG 040500Z 11006KT 4SM -DZ BR OVC002 18/18 A2979 RMK SF8 SLP087

CYYG;2008-09-04 06:00;CYYG 040600Z 20002KT 10SM -RA BKN002 OVC013 17/17 A2977 RMK SF6SC2 SLP080

CYYG;2008-09-04 06:14;CYYG 040614Z 34002KT 10SM -RA SCT002 BKN015 OVC100 16/ RMK SF3SC2AC2

CYYG;2008-09-04 06:35;CYYG 040635Z 00000KT 15SM -DZ FEW002 BKN020 OVC110 16/ RMK SF2SC3AC2

CYYG;2008-09-04 07:00;CYYG 040700Z 00000KT 15SM -DZ FEW002 SCT020 OVC120 16/16 A2974 RMK SF1SC3AC4 SLP073

CYYG;2008-09-04 07:18;CYYG 040718Z 00000KT 15SM SCT015 OVC100 16/ RMK SC3AC5

CYYG;2008-09-04 07:32;CYYG 040732Z 00000KT 15SM SCT008 OVC100 16/ RMK SF3AC5

CYYG;2008-09-04 07:47;CYYG 040747Z 34003KT 12SM BKN007 OVC020 16/ RMK SF5SC3

CYYG;2008-09-04 08:00;CYYG 040800Z 32004KT 12SM BKN005 OVC021 16/16 A2975 RMK SF6SC2 SLP074

CYYG;2008-09-04 08:34;CYYG 040834Z 35003KT 15SM SCT005 OVC021 16/ RMK SF3SC5

CYYG;2008-09-04 09:00;CYYG 040900Z 34003KT 15SM FEW005 BKN025 BKN100 16/16 A2973 RMK SF2SC4AC2 SLP068

CYYG;2008-09-04 10:00;CYYG 041000Z 36003KT 15SM FEW005 OVC021 16/16 A2974 RMK SF2SC6 SLP071

CYYG;2008-09-04 11:00;CYYG 041100Z 00000KT 15SM FEW005 FEW021 BKN088 17/16 A2974 RMK SF1SC2AC5 SLP073

CYYG;2008-09-04 11:47;CYYG 041147Z 28006KT 15SM BKN006 BKN032 18/ RMK SF6SC1

CYYG;2008-09-04 12:00;CYYG 041200Z 31006KT 15SM BKN006 OVC032 17/17 A2976 RMK SF7SC1 SLP077

CYYG;2008-09-04 12:24;CYYG 041224Z 31006KT 15SM FEW006 SCT051 BKN098 18/ RMK SF2SC2AC2

CYYG;2008-09-04 12:40;CYYG 041240Z 32006KT 10SM -SHRA BKN006 BKN023 18/ RMK SF6SC2

CYYG;2008-09-04 13:00;CYYG 041300Z 30008KT 15SM -SHRA SCT006 BKN027 18/17 A2976 RMK SF4SC3 SLP078

CYYG;2008-09-04 13:14;CYYG 041314Z 31010G15KT 15SM -SHRA BKN007 18/ RMK SF7

CYYG;2008-09-04 14:00;CYYG 041400Z 30009G15KT 15SM -SHRA OVC008 18/17 A2977 RMK SF8 SLP080

CYYG;2008-09-04 14:50;CYYG 041450Z 31013G20KT 15SM BKN008 BKN035 18/ RMK SF6SC2

CYYG;2008-09-04 15:00;CYYG 041500Z 31011KT 15SM BKN008 BKN035 BKN100 18/17 A2979 RMK SF6SC1AC1 SLP087

CYYG;2008-09-04 15:42;CYYG 041542Z 31012KT 15SM BKN010 BKN040 19/ RMK SC6SC1

CYYG;2008-09-04 16:00;CYYG 041600Z 32010KT 15SM BKN013 19/17 A2979 RMK SC7 SLP090

CYYG;2008-09-04 17:00;CYYG 041700Z 29010G15KT 15SM FEW014 20/17 A2979 RMK SC2 SLP090

CYYG;2008-09-04 18:00;CYYG 041800Z 27007KT 15SM FEW015 FEW300 21/17 A2979 RMK CU1CI1 SLP086

CYYG;2008-09-04 19:00;CYYG 041900Z 27008KT 15SM FEW022 22/17 A2979 RMK CU1 SLP089

CYYG;2008-09-04 20:00;CYYG 042000Z 27009KT 15SM FEW033 23/16 A2981 RMK CU2 SLP094

CYYG;2008-09-04 21:00;CYYG 042100Z 25010KT 15SM FEW033 22/17 A2981 RMK CU1 SLP096

CYYG;2008-09-04 22:00;CYYG 042200Z 24008KT 15SM FEW035 FEW120 21/16 A2982 RMK SC1AC1 SLP098

CYYG;2008-09-04 23:00;CYYG 042300Z 25008KT 15SM FEW035 BKN120 20/15 A2983 RMK SC2AC2 SLP102

CYYG;2008-09-05 00:00;CYYG 050000Z 25006KT 15SM FEW035 SCT120 19/16 A2985 RMK SC2AC2 SLP109

CYYG;2008-09-05 01:00;CYYG 050100Z 26009KT 15SM BKN038 19/16 A2987 RMK SC5 SLP117

CYYG;2008-09-05 02:00;CYYG 050200Z 33011G16KT 15SM FEW022 BKN037 18/16 A2991 RMK SC2SC3 SLP130

CYYG;2008-09-05 03:00;CYYG 050300Z 32011KT 15SM FEW022 BKN037 18/13 A2994 RMK SC2SC3 SLP138

CYYG;2008-09-05 04:00;CYYG 050400Z 30010G15KT 15SM FEW020 BKN040 17/13 A2996 RMK SC2SC3 SLP147

CYYG;2008-09-05 05:00;CYYG 050500Z 31009KT 15SM FEW020 BKN035 17/13 A2998 RMK SC2SC3 SLP153

CYYG;2008-09-05 06:00;CYYG 050600Z 30005KT 15SM BKN023 17/14 A3001 RMK SC6 SLP161

CYYG;2008-09-05 07:00;CYYG 050700Z 31005KT 15SM OVC024 16/13 A3003 RMK SC8 SLP168

CYYG;2008-09-05 08:00;CYYG 050800Z 31005KT 15SM BKN026 OVC038 16/13 A3004 RMK SC6SC2 SLP171

CYYG;2008-09-05 09:00;CYYG 050900Z 32004KT 15SM SCT026 BKN041 14/12 A3004 RMK SC3SC2 SLP174

CYYG;2008-09-05 10:00;CYYG 051000Z 32004KT 15SM FEW026 FEW260 13/12 A3007 RMK SC2CI1 SLP182

CYYG;2008-09-05 11:00;CYYG 051100Z 31004KT 15SM FEW030 FEW100 FEW350 15/13 A3009 RMK SC1AC1CI0 SLP191

CYYG;2008-09-05 12:00;CYYG 051200Z 34007KT 15SM FEW010 FEW240 BKN350 16/14 A3012 RMK CF1CC1CI1 SLP198

CYYG;2008-09-05 13:00;CYYG 051300Z 34009KT 15SM FEW015 FEW240 BKN350 17/13 A3014 RMK CF1CC1CI1 SLP205

CYYG;2008-09-05 14:00;CYYG 051400Z 02004KT 15SM FEW020 FEW240 BKN350 18/13 A3014 RMK CU1CC1CI1 SLP208

CYYG;2008-09-05 15:00;CYYG 051500Z 34007KT 15SM FEW030 SCT350 18/12 A3016 RMK CU2CI1 SLP212

CYYG;2008-09-05 16:00;CYYG 051600Z 31005KT 15SM SCT035 BKN350 20/14 A3015 RMK CU3CI1 SLP209

CYYG;2008-09-05 17:00;CYYG 051700Z 09003KT 15SM FEW038 BKN350 21/14 A3014 RMK CU2CI1 SLP205

CYYG;2008-09-05 18:00;CYYG 051800Z 20010KT 15SM SCT034 BKN350 19/14 A3014 RMK CU3CI1 SLP206

CYYG;2008-09-05 19:00;CYYG 051900Z 21007KT 15SM FEW035 FEW150 BKN300 20/12 A3013 RMK SC2AC1CI2 SLP202

CYYG;2008-09-05 20:00;CYYG 052000Z 22005KT 15SM FEW035 BKN210 BKN300 19/11 A3012 RMK SC1CC5CI1 SLP201

CYYG;2008-09-05 21:00;CYYG 052100Z 14004KT 15SM FEW035 BKN210 BKN300 19/12 A3011 RMK SC1CC4CI2 SLP195

CYYG;2008-09-05 22:00;CYYG 052200Z 16003KT 15SM FEW220 BKN300 19/12 A3010 RMK CC2CI1 SLP193

CYYG;2008-09-05 23:00;CYYG 052300Z 16004KT 15SM FEW220 BKN300 17/13 A3011 RMK CC2CI1 SLP195

CYYG;2008-09-06 00:00;CYYG 060000Z 14004KT 15SM FEW040 BKN300 16/13 A3011 RMK SC2CI2 SLP196

CYYG;2008-09-06 01:00;CYYG 060100Z 15006KT 15SM FEW040 BKN082 16/13 A3011 RMK SC2AC6 SLP196

CYYG;2008-09-06 02:00;CYYG 060200Z 16005KT 15SM FEW040 BKN090 16/13 A3010 RMK SC2AC3 SLP193

CYYG;2008-09-06 03:00;CYYG 060300Z 17006KT 15SM FEW090 17/13 A3008 RMK AC2 SLP186

CYYG;2008-09-06 04:00;CYYG 060400Z 18007KT 15SM FEW080 17/15 A3006 RMK AC2 SLP181

CYYG;2008-09-06 05:00;CYYG 060500Z 19008KT 15SM FEW080 17/16 A3006 RMK AC1 SLP179

CYYG;2008-09-06 06:00;CYYG 060600Z 20009KT 15SM SKC 18/17 A3004 RMK SLP172

CYYG;2008-09-06 06:27;CYYG 060627Z 21011KT 15SM BKN008 18/ RMK SF4

CYYG;2008-09-06 07:00;CYYG 060700Z 22010KT 12SM OVC008 18/17 A3003 RMK SF8 SLP170

CYYG;2008-09-06 08:00;CYYG 060800Z 22008KT 10SM OVC007 19/18 A3002 RMK SF8 SLP166

CYYG;2008-09-06 08:54;CYYG 060854Z 21009KT 12SM SCT008 BKN250 18/ RMK SF3CI1

CYYG;2008-09-06 09:00;CYYG 060900Z 22008KT 12SM SCT008 BKN250 18/17 A3002 RMK SF3CI1 SLP165

CYYG;2008-09-06 10:00;CYYG 061000Z 22010G16KT 15SM BKN250 18/17 A3002 RMK CI3 SLP166

CYYG;2008-09-06 11:00;CYYG 061100Z 22010G16KT 15SM FEW030 BKN250 19/17 A3003 RMK SC1CI3 SLP168

CYYG;2008-09-06 12:00;CYYG 061200Z 23012G18KT 15SM FEW030 BKN250 19/16 A3003 RMK SC1CI2 SLP168

CYYG;2008-09-06 13:00;CYYG 061300Z 23013G26KT 15SM FEW012 BKN250 20/18 A3002 RMK SC1CI2 SLP167

CYYG;2008-09-06 14:00;CYYG 061400Z 22016G24KT 15SM FEW012 BKN250 22/18 A3002 RMK SC1CI2 SLP166

CYYG;2008-09-06 15:00;CYYG 061500Z 23016G24KT 15SM FEW015 BKN240 22/19 A3002 RMK SC1CI2 SLP165

CYYG;2008-09-06 16:00;CYYG 061600Z 23015G24KT 15SM FEW015 BKN240 24/19 A3000 RMK SC1CI2 SLP159

CYYG;2008-09-06 17:00;CYYG 061700Z 22015G20KT 15SM FEW015 FEW150 BKN240 24/18 A2999 RMK SC1AC2CI4 SLP156

CYYG;2008-09-06 18:00;CYYG 061800Z 22014G20KT 15SM FEW032 SCT150 BKN190 23/18 A2998 RMK SC1AC2CS4 SLP151

CYYG;2008-09-06 19:00;CYYG 061900Z 19013G20KT 15SM SCT032 BKN170 22/18 A2994 RMK SC3AC4 SLP139

CYYG;2008-09-06 20:00;CYYG 062000Z 21011G16KT 15SM SCT043 BKN170 22/19 A2996 RMK SC3AC4 SLP146

CYYG;2008-09-06 21:00;CYYG 062100Z 21010KT 15SM OVC021 22/19 A2996 RMK SC8 SLP144

CYYG;2008-09-06 22:00;CYYG 062200Z 19009KT 15SM BKN019 21/19 A2995 RMK SC7 SLP142

CYYG;2008-09-06 22:50;CYYG 062250Z 20013KT 15SM OVC015 21/ RMK SC8

CYYG;2008-09-06 23:00;CYYG 062300Z 20011KT 15SM OVC014 21/19 A2994 RMK SC8 SLP138

CYYG;2008-09-07 00:00;CYYG 070000Z 21012KT 15SM OVC014 21/20 A2995 RMK SC8 SLP141

CYYG;2008-09-07 01:00;CYYG 070100Z 20012KT 15SM OVC013 21/19 A2993 RMK SC8 SLP137

CYYG;2008-09-07 02:00;CYYG 070200Z 21010KT 15SM OVC011 21/19 A2992 RMK SC8 SLP132

CYYG;2008-09-07 03:00;CYYG 070300Z 19008KT 15SM OVC009 20/19 A2991 RMK SF8 SLP127

CYYG;2008-09-07 03:42;CYYG 070342Z 20006KT 10SM -SHRA OVC007 20/ RMK SF8

CYYG;2008-09-07 04:00;CYYG 070400Z 21007KT 8SM -SHRA OVC005 20/20 A2991 RMK SF8 SLP128

CYYG;2008-09-07 05:00;CYYG 070500Z 19005KT 8SM -SHRA SCT003 OVC005 20/20 A2986 RMK SF3SF5 SLP110

CYYG;2008-09-07 05:24;CYYG 070524Z 21008KT 5SM -SHRA BR OVC003 20/ RMK SF8

CYYG;2008-09-07 06:00;CYYG 070600Z 21006KT 5SM -SHRA BR BKN003 OVC007 20/20 A2985 RMK SF5SF3 SLP106

CYYG;2008-09-07 07:00;CYYG 070700Z 21006KT 5SM SHRA BR OVC003 20/20 A2986 RMK SF8 SLP111

CYYG;2008-09-07 07:44;CYYG 070744Z 23007KT 10SM -SHRA BKN005 OVC056 20/ RERA RMK SF6SC2

CYYG;2008-09-07 08:00;CYYG 070800Z 24005KT 10SM -SHRA SCT005 OVC056 20/20 A2985 RERA RMK SF3SC5 SLP107

CYYG;2008-09-07 09:00;CYYG 070900Z 00000KT 10SM -SHRA FEW020 OVC052 20/19 A2981 RMK SC2SC6 SLP093

CYYG;2008-09-07 09:46;CYYG 070946Z 17005KT 2 1/2SM SHRA BR FEW002 BKN024 OVC044 20/ RMK SF2SC3SC3

CYYG;2008-09-07 10:00;CYYG 071000Z 15003KT 1 1/2SM -SHRA BR BKN002 OVC007 19/19 A2980 RERA RMK SF6SF2 /R14/ SLP092

CYYG;2008-09-07 10:23;CYYG 071023Z 13004KT 5/8SM R03/2200VP6000FT/U -SHRA BR OVC003 19/ RERA RMK SF8

CYYG;2008-09-07 11:00;CYYG 071100Z 10004KT 3/4SM R03/P6000FT/N -SHRA BR OVC002 19/19 A2978 RMK SF8 SLP084

CYYG;2008-09-07 12:00;CYYG 071200Z 07008KT 1SM R03/P6000FT/N -SHRA BR OVC002 19/19 A2975 RMK SF8 SLP074

CYYG;2008-09-07 13:00;CYYG 071300Z 09015KT 1SM R03/P6000FT/U -SHRA BR BKN003 OVC019 20/19 A2971 RMK SF6SC2 RERA SLP060

CYYG;2008-09-07 13:35;CYYG 071335Z 09013KT 4SM -SHRA BR BKN003 OVC017 19/ RMK SF6SC2 RERA

CYYG;2008-09-07 13:37;CYYG 071337Z 09015KT 4SM -TSRA BR BKN003 OVC016CB 19/ RMK SF6CB2 RERA

CYYG;2008-09-07 13:46;CYYG 071346Z 09010G21KT 1 1/2SM -TSRA BR BKN003 OVC016CB 19/ RMK SF6CB2 RERA

CYYG;2008-09-07 14:00;CYYG 071400Z 07011G16KT 1 1/2SM -TSRA BR BKN004 OVC017CB 19/19 A2967 RMK SF6CB2 SLP048

CYYG;2008-09-07 14:48;CYYG 071448Z 04020KT 1 1/2SM SHRA BR BKN004 OVC020TCU 19/ RMK SF6TCU2 RETS

CYYG;2008-09-07 15:00;CYYG 071500Z 04017G25KT 2SM SHRA BR BKN005 OVC020TCU 19/19 A2961 RMK SF5TCU3 RETS/PRESFR/R23/ SLP028

CYYG;2008-09-07 15:15;CYYG 071515Z 05018KT 1SM R03/2800VP6000FT/D +SHRA BR BKN009 OVC023TCU 19/ RMK SF5TCU3

CYYG;2008-09-07 16:00;CYYG 071600Z 05024G31KT 1 1/2SM SHRA BR BKN009 OVC016TCU 19/18 A2953 RMK SF5TCU3 /R46/PRESFR/ SLP000

CYYG;2008-09-07 17:00;CYYG 071700Z 07013G29KT 1 1/2SM SHRA BR OVC008 19/19 A2951 RMK SF8 /RERA/ SLP993

CYYG;2008-09-07 18:00;CYYG 071800Z 04020G30KT 1 1/2SM R03/3500V6000FT/N SHRA BR OVC009 18/18 A2948 RMK SF8 SLP984

CYYG;2008-09-07 19:00;CYYG 071900Z 04020G27KT 1 1/2SM R03/6000FT/D -SHRA BR OVC008 19/18 A2951 RMK SF8 RERA SLP992

CYYG;2008-09-07 19:33;CYYG 071933Z 05020G25KT 3SM -SHRA BR OVC010 19/ RMK SF8

CYYG;2008-09-07 19:48;CYYG 071948Z 07025KT 8SM BKN010 19/ RMK SF6

CYYG;2008-09-07 20:00;CYYG 072000Z 05015G25KT 15SM SCT008 BKN066 19/19 A2951 RMK SF4AC1 SLP992

CYYG;2008-09-07 21:00;CYYG 072100Z 35013KT 10SM VCSH BKN009 19/18 A2957 RMK SF6 /PRESRR/ SLP013

CYYG;2008-09-07 22:00;CYYG 072200Z 33011G16KT 10SM VCSH OVC010 18/18 A2962 RMK SF8 SLP031

CYYG;2008-09-07 22:28;CYYG 072228Z 33010G16KT 10SM -DZ BKN004 OVC013 18/ RMK SF6SC2

CYYG;2008-09-07 23:00;CYYG 072300Z 33009KT 10SM BKN003 OVC013 18/18 A2966 RMK SF6SC2 SLP045

CYYG;2008-09-08 00:00;CYYG 080000Z 33009KT 15SM OVC003 18/18 A2969 RMK SF8 SLP055

CYYG;2008-09-08 01:00;CYYG 080100Z 31005KT 15SM BKN003 OVC019 18/18 A2974 RMK SF6SC2 SLP071

CYYG;2008-09-08 01:04;CYYG 080104Z 32004KT 15SM SCT003 OVC020 18/ RMK SF3SC5

CYYG;2008-09-08 01:12;CYYG 080112Z 33002KT 10SM -DZ SCT003 BKN018 OVC033 18/ RMK SF3SC2SC2

CYYG;2008-09-08 01:52;CYYG 080152Z 28003KT 15SM OVC002 18/ RMK SF8

CYYG;2008-09-08 02:00;CYYG 080200Z 29003KT 15SM BKN002 BKN046 OVC068 18/17 A2974 RMK SF6SC2AC1 SLP072

CYYG;2008-09-08 03:00;CYYG 080300Z 21004KT 15SM OVC003 18/18 A2974 RMK SF8 SLP069

CYYG;2008-09-08 03:18;CYYG 080318Z 23006KT 1 1/2SM BR OVC002 18/ RMK FG2SF6

CYYG;2008-09-08 04:00;CYYG 080400Z 24009KT 2SM BR OVC002 17/17 A2974 RMK SF8 SLP069

CYYG;2008-09-08 05:00;CYYG 080500Z 26008KT 3SM BR OVC003 17/17 A2973 RMK SF8 SLP067

CYYG;2008-09-08 06:00;CYYG 080600Z 25008KT 15SM BKN004 OVC028 17/17 A2974 RMK SF6SC2 SLP069

CYYG;2008-09-08 07:00;CYYG 080700Z 27007KT 15SM OVC007 17/16 A2974 RMK SF8 SLP069

CYYG;2008-09-08 08:00;CYYG 080800Z 28007G17KT 15SM BKN007 OVC013 17/16 A2974 RMK SF6SC2 SLP072

CYYG;2008-09-08 09:00;CYYG 080900Z 29005KT 15SM BKN007 BKN019 BKN043 16/16 A2976 RMK SF5SC2SC1 SLP078

CYYG;2008-09-08 09:15;CYYG 080915Z 27006KT 10SM -SHRA BKN006 16/ RMK SF7

CYYG;2008-09-08 09:39;CYYG 080939Z 27010G15KT 5SM -SHRA BR OVC005 16/ RMK SF8

CYYG;2008-09-08 10:00;CYYG 081000Z 26010KT 3SM -SHRA BR BKN005 16/15 A2978 RMK SF7 SLP084

CYYG;2008-09-08 10:06;CYYG 081006Z 27011KT 3SM -DZ BR OVC005 16/ RMK SF8

CYYG;2008-09-08 11:00;CYYG 081100Z 27010KT 6SM -DZ BR OVC008 16/15 A2979 RMK SF8 SLP090

CYYG;2008-09-08 12:00;CYYG 081200Z CCA 28009G15KT 10SM -DZ OVC008 16/15 A2982 RMK SF8 VIS NW-NE 3 SLP100

CYYG;2008-09-08 12:45;CYYG 081245Z 28014G19KT 12SM OVC008 16/ RMK SF8

CYYG;2008-09-08 13:00;CYYG 081300Z 28015G20KT 6SM BR OVC007 16/15 A2984 RMK SF8 SLP105

CYYG;2008-09-08 13:12;CYYG 081312Z 28011G18KT 8SM -DZ OVC007 16/ RMK SF8

CYYG;2008-09-08 14:00;CYYG 081400Z 28014G20KT 10SM -DZ OVC010 16/14 A2986 RMK SF8 SLP111

CYYG;2008-09-08 14:10;CYYG 081410Z 28013G21KT 15SM OVC014 16/ RMK SC8

CYYG;2008-09-08 15:00;CYYG 081500Z 29012G19KT 15SM OVC014 16/14 A2987 RMK SC8 SLP117

CYYG;2008-09-08 16:00;CYYG 081600Z 29011G17KT 15SM OVC014 16/14 A2988 RMK SC8 SLP119

CYYG;2008-09-08 16:33;CYYG 081633Z 30011G16KT 15SM OVC018 17/ RMK SC8

CYYG;2008-09-08 17:00;CYYG 081700Z 31011G21KT 15SM OVC022 17/14 A2989 RMK SC8 SLP121

CYYG;2008-09-08 18:00;CYYG 081800Z 30013G18KT 15SM BKN030 18/13 A2991 RMK SC6 SLP128

CYYG;2008-09-08 19:00;CYYG 081900Z 29012G17KT 15SM BKN034 19/13 A2992 RMK SC5 SLP133

CYYG;2008-09-08 20:00;CYYG 082000Z 31009G15KT 15SM SCT033 19/13 A2993 RMK SC4 SLP136

CYYG;2008-09-08 21:00;CYYG 082100Z 30006KT 15SM SCT036 19/13 A2995 RMK SC3 SLP141

CYYG;2008-09-08 22:00;CYYG 082200Z 27005KT 15SM SCT036 18/13 A2996 RMK SC3 SLP145

CYYG;2008-09-08 23:00;CYYG 082300Z 26004KT 15SM FEW036 FEW300 17/12 A2998 RMK SC1CI0 SLP153

CYYG;2008-09-09 00:00;CYYG 090000Z 26003KT 15SM FEW070 FEW300 16/13 A3001 RMK AC2CI0 SLP161

CYYG;2008-09-09 01:00;CYYG 090100Z 26005KT 15SM FEW067 15/13 A3002 RMK AC2 SLP167

CYYG;2008-09-09 02:00;CYYG 090200Z 26006KT 15SM SKC 15/14 A3003 RMK SLP170

CYYG;2008-09-09 03:00;CYYG 090300Z 23005KT 15SM SCT076 15/14 A3004 RMK AC3 SLP171

CYYG;2008-09-09 04:00;CYYG 090400Z 25005KT 15SM FEW076 14/14 A3004 RMK AC2 SLP171

CYYG;2008-09-09 05:00;CYYG 090500Z 26005KT 15SM SKC 14/14 A3004 RMK SLP173

CYYG;2008-09-09 06:00;CYYG 090600Z 25005KT 15SM SKC 14/13 A3004 RMK SLP171

CYYG;2008-09-09 07:00;CYYG 090700Z 24003KT 15SM SKC 14/13 A3005 RMK SLP176

CYYG;2008-09-09 08:00;CYYG 090800Z 20005KT 15SM FEW070 14/13 A3003 RMK AC1 SLP170

CYYG;2008-09-09 09:00;CYYG 090900Z 21004KT 15SM FEW054 SCT300 14/13 A3003 RMK SC1CI1 SLP170

CYYG;2008-09-09 10:00;CYYG 091000Z 22006KT 15SM BKN070 BKN100 OVC300 15/14 A3004 RMK AC5AC2CI0 SLP173

CYYG;2008-09-09 11:00;CYYG 091100Z 23008KT 15SM BKN060 BKN300 15/14 A3004 RMK SC5CI2 SLP174

CYYG;2008-09-09 12:00;CYYG 091200Z 25010KT 15SM FEW060 SCT085 BKN300 16/14 A3006 RMK SC1AC2CI0 SLP178

CYYG;2008-09-09 13:00;CYYG 091300Z 24009KT 15SM FEW015 BKN100 BKN300 17/14 A3005 RMK SC1AC5CI1 SLP176

CYYG;2008-09-09 14:00;CYYG 091400Z 21007KT 15SM FEW015 FEW070 FEW100 19/15 A3005 RMK SC1AC1AC2 SLP176

CYYG;2008-09-09 15:00;CYYG 091500Z 24007KT 15SM FEW070 FEW100 19/14 A3003 RMK AC1AC1 SLP168

CYYG;2008-09-09 16:00;CYYG 091600Z 20011KT 15SM FEW070 SCT260 21/14 A3001 RMK AC1CI1 SLP161

CYYG;2008-09-09 17:00;CYYG 091700Z 20013KT 15SM FEW025 FEW070 BKN260 22/15 A3002 RMK CU1AC2CI1 SLP165

CYYG;2008-09-09 18:00;CYYG 091800Z 21016KT 15SM FEW025 BKN070 BKN260 22/15 A2999 RMK CU2AC3CI2 SLP156

CYYG;2008-09-09 19:00;CYYG 091900Z 20014KT 15SM FEW040 BKN070 BKN260 22/15 A2996 RMK CU2AC3CI1 SLP146

CYYG;2008-09-09 20:00;CYYG 092000Z 20013G21KT 15SM SCT042 BKN070 BKN260 21/14 A2995 RMK CU3AC3CI1 SLP141

CYYG;2008-09-09 20:30;CYYG 092030Z 20019G25KT 15SM -SHRA FEW040 SCT070 OVC120 21/ RMK CU2AC2AC5

CYYG;2008-09-09 20:52;CYYG 092052Z 20018G25KT 15SM FEW040 BKN070 OVC110 20/ RMK SC2AC3AC3

CYYG;2008-09-09 21:00;CYYG 092100Z 20020G25KT 15SM FEW040 BKN070 OVC110 20/12 A2993 RMK SC2AC3AC3 SLP134

CYYG;2008-09-09 21:07;CYYG 092107Z 20016G26KT 15SM -SHRA FEW040 SCT070 OVC110 20/ RMK SC1AC3AC4

CYYG;2008-09-09 22:00;CYYG 092200Z 19020G26KT 15SM -SHRA BKN088 OVC110 19/11 A2990 RMK AC6AC2 SLP125

CYYG;2008-09-09 23:00;CYYG 092300Z 18016G22KT 15SM BKN078 OVC100 19/13 A2987 RMK AC6AC2 SLP116

CYYG;2008-09-09 23:38;CYYG 092338Z 18018KT 15SM -SHRA OVC070 18/ RMK AC8

CYYG;2008-09-10 00:00;CYYG 100000Z 18022KT 15SM -SHRA BKN070 OVC110 17/13 A2982 RMK AC6AC2 SLP100

CYYG;2008-09-10 01:00;CYYG 100100Z 19023G30KT 15SM -SHRA BKN058 OVC090 17/13 A2983 RMK SC6AC2 SLP101

CYYG;2008-09-10 01:25;CYYG 100125Z 19020G26KT 15SM FEW040 BKN062 OVC090 17/ RMK SC2SC5AC2

CYYG;2008-09-10 02:00;CYYG 100200Z 20017G22KT 15SM BKN036 BKN060 OVC090 17/14 A2980 RMK SC5SC2AC2 SLP093

CYYG;2008-09-10 03:00;CYYG 100300Z 20018G27KT 15SM OVC028 18/15 A2979 RMK SC8 SLP086

CYYG;2008-09-10 04:00;CYYG 100400Z CCA 22013G20KT 15SM -SHRA BKN010 OVC018 17/16 A2980 RMK SC5SC3 SLP090

CYYG;2008-09-10 05:00;CYYG 100500Z 22013KT 15SM -SHRA BKN008 OVC018 17/16 A2979 RMK SF6SC2 SLP086

CYYG;2008-09-10 06:00;CYYG 100600Z 24012KT 15SM -SHRA BKN008 OVC018 17/16 A2979 RMK SF6SC2 SLP088

CYYG;2008-09-10 07:00;CYYG 100700Z 26009KT 15SM BKN008 OVC020 17/15 A2980 RMK SF6SC2 SLP091

CYYG;2008-09-10 08:00;CYYG 100800Z 26008KT 15SM SCT008 BKN018 OVC050 16/15 A2982 RMK SF3SC3SC2 SLP097

CYYG;2008-09-10 09:00;CYYG 100900Z 31010KT 15SM FEW010 FEW040 BKN120 14/11 A2983 RMK SC2SC1AC2 SLP103

CYYG;2008-09-10 10:00;CYYG 101000Z 30005KT 15SM FEW015 FEW120 12/10 A2986 RMK SC1AC2 SLP112

CYYG;2008-09-10 11:00;CYYG 101100Z 28009KT 15SM FEW015 SCT120 SCT170 13/10 A2988 RMK SC1AC2AC1 SLP120

CYYG;2008-09-10 12:00;CYYG 101200Z 30006KT 15SM FEW020 FEW120 FEW170 13/11 A2988 RMK SC1AC1AC1 SLP120

CYYG;2008-09-10 13:00;CYYG 101300Z 31010G17KT 15SM BKN020 BKN120 14/11 A2989 RMK SC6AC1 SLP122

CYYG;2008-09-10 14:00;CYYG 101400Z 30010G16KT 15SM BKN022 15/10 A2991 RMK SC6 SLP128

CYYG;2008-09-10 15:00;CYYG 101500Z 30011G17KT 15SM BKN025 16/10 A2993 RMK SC6 SLP134

CYYG;2008-09-10 16:00;CYYG 101600Z 32013KT 15SM BKN030 15/10 A2993 RMK SC6 SLP136

CYYG;2008-09-10 17:00;CYYG 101700Z 32011G18KT 15SM BKN030 15/09 A2995 RMK SC5 SLP142

CYYG;2008-09-10 18:00;CYYG 101800Z 32012G19KT 15SM BKN030 15/10 A2996 RMK SC5 SLP147

CYYG;2008-09-10 19:00;CYYG 101900Z 34013G20KT 15SM BKN030 15/09 A2998 RMK SC5 SLP154

CYYG;2008-09-10 20:00;CYYG 102000Z 34010G17KT 15SM SCT032 BKN040 15/08 A3001 RMK SC3SC2 SLP163

CYYG;2008-09-10 21:00;CYYG 102100Z 32014G19KT 15SM SCT035 14/07 A3004 RMK SC4 SLP171

CYYG;2008-09-10 22:00;CYYG 102200Z 31011KT 15SM FEW035 FEW045 14/07 A3007 RMK SC2SC1 SLP183

CYYG;2008-09-10 23:00;CYYG 102300Z 30008KT 15SM FEW035 FEW050 12/07 A3010 RMK SC1SC2 SLP193

CYYG;2008-09-11 00:00;CYYG 110000Z 29007KT 15SM SCT060 12/07 A3012 RMK SC4 SLP202

CYYG;2008-09-11 01:00;CYYG 110100Z 29006KT 15SM FEW060 11/07 A3014 RMK SC2 SLP208

CYYG;2008-09-11 02:00;CYYG 110200Z 30006KT 15SM FEW055 11/07 A3016 RMK SC2 SLP213

CYYG;2008-09-11 03:00;CYYG 110300Z 31003KT 15SM SCT055 10/07 A3017 RMK SC3 SLP219

CYYG;2008-09-11 04:00;CYYG 110400Z 28007KT 15SM BKN054 10/07 A3020 RMK SC5 SLP227

CYYG;2008-09-11 05:00;CYYG 110500Z 27007KT 15SM SCT050 10/07 A3020 RMK SC3 SLP229

CYYG;2008-09-11 06:00;CYYG 110600Z 29007KT 15SM FEW050 10/07 A3022 RMK SC2 SLP235

CYYG;2008-09-11 07:00;CYYG 110700Z 30008KT 15SM FEW050 10/07 A3023 RMK SC2 SLP239

CYYG;2008-09-11 08:00;CYYG 110800Z 29008KT 15SM FEW050 10/07 A3024 RMK SC1 SLP241

CYYG;2008-09-11 09:00;CYYG 110900Z 32003KT 15SM FEW240 09/08 A3025 RMK CI1 SLP244

CYYG;2008-09-11 10:00;CYYG 111000Z 32003KT 15SM SCT240 09/08 A3027 RMK CI1 SLP251

CYYG;2008-09-11 11:00;CYYG 111100Z 30005KT 15SM FEW030 BKN240 11/09 A3028 RMK SC1CI1 SLP255

CYYG;2008-09-11 12:00;CYYG 111200Z 32006KT 15SM FEW030 SCT240 13/10 A3030 RMK SC1CI2 SLP260

CYYG;2008-09-11 13:00;CYYG 111300Z 32004KT 15SM FEW030 SCT240 15/11 A3031 RMK SC1CI1 SLP263

CYYG;2008-09-11 14:00;CYYG 111400Z 32006KT 15SM FEW030 BKN230 15/11 A3031 RMK SC1CC2 SLP266

CYYG;2008-09-11 15:00;CYYG 111500Z 26006KT 15SM FEW030 BKN230 16/10 A3031 RMK SC1CC2 SLP265

CYYG;2008-09-11 16:00;CYYG 111600Z 32006KT 15SM FEW035 BKN230 17/08 A3030 RMK SC1CC4 SLP262

CYYG;2008-09-11 17:00;CYYG 111700Z 25009KT 15SM FEW050 BKN230 17/08 A3030 RMK SC1CC4 SLP260

CYYG;2008-09-11 18:00;CYYG 111800Z 27007KT 15SM FEW050 BKN230 17/05 A3028 RMK SC1CI5 SLP256

CYYG;2008-09-11 19:00;CYYG 111900Z 29006KT 15SM FEW040 SCT230 17/04 A3028 RMK SC1CI1 SLP254

CYYG;2008-09-11 20:00;CYYG 112000Z 27008KT 15SM FEW035 FEW200 17/05 A3027 RMK SC1CI0 SLP251

CYYG;2008-09-11 21:00;CYYG 112100Z 29005KT 15SM FEW035 FEW200 17/04 A3026 RMK SC1CI0 SLP247

CYYG;2008-09-11 22:00;CYYG 112200Z 31004KT 15SM FEW035 FEW200 15/06 A3027 RMK SC1CI0 SLP250

CYYG;2008-09-11 23:00;CYYG 112300Z 24002KT 15SM SCT240 11/07 A3026 RMK CI1 SLP249

CYYG;2008-09-12 00:00;CYYG 120000Z 25002KT 15SM SCT240 09/07 A3027 RMK CI1 SLP252

CYYG;2008-09-12 01:00;CYYG 120100Z 24005KT 15SM FEW240 12/07 A3027 RMK CI1 SLP252

CYYG;2008-09-12 02:00;CYYG 120200Z 23004KT 15SM SCT240 12/08 A3026 RMK CI2 SLP248

CYYG;2008-09-12 03:00;CYYG 120300Z 22005KT 15SM BKN240 12/09 A3025 RMK CI2 SLP244

CYYG;2008-09-12 04:00;CYYG 120400Z 23004KT 15SM SCT240 11/09 A3024 RMK CI2 SLP241

CYYG;2008-09-12 05:00;CYYG 120500Z 24004KT 15SM SCT240 11/10 A3024 RMK CI1 SLP242

CYYG;2008-09-12 06:00;CYYG 120600Z 24005KT 15SM SKC 10/10 A3023 RMK SLP237

CYYG;2008-09-12 07:00;CYYG 120700Z 25006KT 15SM SKC 11/10 A3023 RMK SLP236

CYYG;2008-09-12 08:00;CYYG 120800Z 25004KT 15SM SKC 11/09 A3022 RMK SLP235

CYYG;2008-09-12 09:00;CYYG 120900Z 24005KT 15SM SCT250 11/10 A3022 RMK CI1 SLP233

CYYG;2008-09-12 10:00;CYYG 121000Z 25005KT 15SM BKN250 10/09 A3022 RMK CI1 SLP233

CYYG;2008-09-12 11:00;CYYG 121100Z 23004KT 15SM FEW020 BKN250 11/11 A3021 RMK SC1CI2 SLP231

CYYG;2008-09-12 12:00;CYYG 121200Z 23007KT 15SM FEW020 FEW200 BKN300 14/12 A3020 RMK CF1CI2CI1 CC ASOCTD SLP227

CYYG;2008-09-12 13:00;CYYG 121300Z 23008KT 15SM FEW020 FEW200 BKN300 15/11 A3019 RMK CF1CI2CI1 CC ASOCTD SLP223

CYYG;2008-09-12 14:00;CYYG 121400Z 25008KT 15SM FEW025 FEW200 BKN250 16/10 A3017 RMK CF1CI2CI0 SLP218

CYYG;2008-09-12 15:00;CYYG 121500Z 24010G16KT 15SM FEW025 BKN190 17/08 A3015 RMK SC1CI2 SLP211

CYYG;2008-09-12 16:00;CYYG 121600Z 20012KT 15SM FEW025 FEW180 OVC230 17/08 A3013 RMK CU1AC2CS5 SLP203

CYYG;2008-09-12 17:00;CYYG 121700Z 23008G15KT 15SM FEW025 OVC160 17/09 A3011 RMK SC1AS7 SLP198

CYYG;2008-09-12 18:00;CYYG 121800Z 22009KT 15SM FEW025 BKN150 OVC220 17/09 A3009 RMK SC1AS6CI2 SLP192

CYYG;2008-09-12 19:00;CYYG 121900Z 22011G17KT 15SM FEW038 OVC150 17/10 A3008 RMK SC1AS7 SLP187

CYYG;2008-09-12 20:00;CYYG 122000Z 25010G17KT 15SM FEW040 BKN150 OVC240 16/10 A3007 RMK SC1AC6CI2 SLP184

CYYG;2008-09-12 21:00;CYYG 122100Z 24007KT 15SM FEW040 OVC150 16/10 A3005 RMK SC1AS7 SLP178

CYYG;2008-09-12 22:00;CYYG 122200Z 23008KT 15SM BKN150 OVC220 16/10 A3004 RMK AC7CI1 SLP175

CYYG;2008-09-12 23:00;CYYG 122300Z 25009KT 15SM OVC150 15/11 A3005 RMK AC8 SLP176

CYYG;2008-09-13 00:00;CYYG 130000Z 23007KT 15SM SCT064 OVC140 15/10 A3004 RMK SC3AC5 SLP172

CYYG;2008-09-13 01:00;CYYG 130100Z 23009KT 15SM SCT029 SCT040 OVC140 15/11 A3003 RMK SC3SC1AC4 SLP169

CYYG;2008-09-13 02:00;CYYG 130200Z 21008KT 15SM SCT028 BKN042 OVC140 15/11 A3001 RMK SC3SC2AC3 SLP163

CYYG;2008-09-13 03:00;CYYG 130300Z 21009KT 15SM BKN025 BKN031 OVC043 15/12 A3001 RMK SC6SC1SC2 SLP161

CYYG;2008-09-13 04:00;CYYG 130400Z 21010KT 15SM BKN019 OVC030 15/12 A3000 RMK SC5SC3 SLP158

CYYG;2008-09-13 05:00;CYYG 130500Z 22008KT 15SM SCT022 OVC040 15/12 A2998 RMK SC3SC5 SLP154

CYYG;2008-09-13 06:00;CYYG 130600Z 23008KT 15SM OVC022 15/12 A2997 RMK SC8 SLP150

CYYG;2008-09-13 07:00;CYYG 130700Z 24009G15KT 15SM BKN020 OVC030 15/12 A2996 RMK SC6SC2 SLP146

CYYG;2008-09-13 08:00;CYYG 130800Z 23009KT 15SM OVC018 14/12 A2996 RMK SC8 SLP145

CYYG;2008-09-13 09:00;CYYG 130900Z 23008KT 15SM OVC018 14/13 A2996 RMK SC8 SLP145

CYYG;2008-09-13 10:00;CYYG 131000Z 23008KT 15SM OVC020 13/12 A2997 RMK SC8 SLP148

CYYG;2008-09-13 10:29;CYYG 131029Z 23005KT 12SM -SHRA OVC019 13/ RMK SC8

CYYG;2008-09-13 11:00;CYYG 131100Z 23006KT 15SM -RA OVC015 14/13 A2997 RMK SC8 SLP148

CYYG;2008-09-13 11:51;CYYG 131151Z 22005KT 15SM OVC010 14/ RMK SC8

CYYG;2008-09-13 12:00;CYYG 131200Z 22006KT 15SM OVC010 14/13 A2997 RMK SC8 SLP148

CYYG;2008-09-13 12:04;CYYG 131204Z 23006KT 15SM OVC009 14/ RMK SC8

CYYG;2008-09-13 12:30;CYYG 131230Z 25007KT 15SM SCT009 OVC012 14/ RMK SF3SC5

CYYG;2008-09-13 13:00;CYYG 131300Z 25007KT 15SM OVC010 14/13 A2997 RMK SC8 SLP149

CYYG;2008-09-13 14:00;CYYG 131400Z 25006KT 15SM OVC010 14/13 A2997 RMK SC8 SLP150

CYYG;2008-09-13 15:00;CYYG 131500Z 24007KT 15SM OVC009 14/13 A2996 RMK SC8 SLP146

CYYG;2008-09-13 16:00;CYYG 131600Z 23008KT 15SM OVC009 15/13 A2995 RMK SC8 SLP142

CYYG;2008-09-13 16:17;CYYG 131617Z 22007KT 15SM OVC010 15/ RMK SC8

CYYG;2008-09-13 17:00;CYYG 131700Z 24008KT 15SM OVC013 15/13 A2995 RMK SC8 SLP142

CYYG;2008-09-13 18:00;CYYG 131800Z 22008KT 15SM OVC012 15/13 A2995 RMK SC8 SLP141

CYYG;2008-09-13 19:00;CYYG 131900Z 23006KT 15SM OVC011 15/13 A2994 RMK SC8 SLP140

CYYG;2008-09-13 20:00;CYYG 132000Z 24005KT 15SM OVC013 16/14 A2995 RMK SC8 SLP141

CYYG;2008-09-13 21:00;CYYG 132100Z 23004KT 15SM SCT012 BKN017 BKN046 16/14 A2995 RMK SC3SC3SC1 SLP141

CYYG;2008-09-13 22:00;CYYG 132200Z 19003KT 15SM SCT012 OVC017 16/13 A2996 RMK SC3SC5 SLP144

CYYG;2008-09-13 23:00;CYYG 132300Z 18003KT 15SM OVC016 15/14 A2997 RMK SC8 SLP148

CYYG;2008-09-14 00:00;CYYG 140000Z 25002KT 15SM OVC018 16/14 A2998 RMK SC8 SLP153

CYYG;2008-09-14 01:00;CYYG 140100Z 23002KT 15SM OVC016 15/14 A2998 RMK SC8 SLP154

CYYG;2008-09-14 02:00;CYYG 140200Z 22003KT 15SM OVC015 15/14 A2998 RMK SC8 SLP151

CYYG;2008-09-14 03:00;CYYG 140300Z 22004KT 15SM OVC021 15/14 A2998 RMK SC8 SLP152

CYYG;2008-09-14 04:00;CYYG 140400Z 21004KT 15SM BKN020 14/14 A2996 RMK SC5 SLP147

CYYG;2008-09-14 05:00;CYYG 140500Z 22003KT 15SM BKN017 15/14 A2997 RMK SC6 SLP149

CYYG;2008-09-14 06:00;CYYG 140600Z 22003KT 15SM OVC015 15/14 A2996 RMK SC8 SLP146

CYYG;2008-09-14 07:00;CYYG 140700Z 23003KT 15SM OVC015 15/14 A2996 RMK SC8 SLP146

CYYG;2008-09-14 08:00;CYYG 140800Z 22004KT 15SM SCT006 OVC012 15/14 A2996 RMK SF3SC5 SLP145

CYYG;2008-09-14 09:00;CYYG 140900Z 23003KT 15SM FEW008 OVC015 15/14 A2995 RMK SF2SC6 SLP142

CYYG;2008-09-14 10:00;CYYG 141000Z 21004KT 15SM BKN012 OVC018 15/14 A2996 RMK SC6SC2 SLP146

CYYG;2008-09-14 10:43;CYYG 141043Z 20005KT 15SM FEW012 BKN033 15/ RMK SC2SC4

CYYG;2008-09-14 10:45;CYYG 141045Z 20005KT 15SM FEW008 SCT017 BKN033 15/ RMK SF2SC2SC3

CYYG;2008-09-14 11:00;CYYG 141100Z 19006KT 15SM FEW008 BKN013 BKN033 15/14 A2996 RMK SF2SC3SC2 SLP145

CYYG;2008-09-14 11:43;CYYG 141143Z 19007KT 15SM FEW007 BKN010 BKN033 16/ RMK SF1SC6SC1

CYYG;2008-09-14 12:00;CYYG 141200Z 18008KT 15SM FEW007 BKN010 OVC033 16/14 A2996 RMK SF1SC7SC1 SLP144

CYYG;2008-09-14 12:31;CYYG 141231Z 20008KT 15SM OVC009 16/ RMK SC8

CYYG;2008-09-14 13:00;CYYG 141300Z 19008KT 15SM BKN008 OVC012 16/15 A2996 RMK SC6SC2 SLP147

CYYG;2008-09-14 14:00;CYYG 141400Z 18010KT 15SM FEW007 OVC009 17/15 A2996 RMK SF1SC7 SLP145

CYYG;2008-09-14 15:00;CYYG 141500Z 18011KT 15SM OVC009 17/15 A2996 RMK SC8 SLP146

CYYG;2008-09-14 16:00;CYYG 141600Z 18010KT 15SM BKN009 OVC012 17/16 A2994 RMK SC5SC3 SLP140

CYYG;2008-09-14 17:00;CYYG 141700Z 18010G15KT 15SM BKN009 OVC012 18/16 A2994 RMK SC6SC2 SLP138

CYYG;2008-09-14 18:00;CYYG 141800Z 18013G18KT 15SM BKN009 OVC020 18/16 A2992 RMK SC5SC3 SLP131

CYYG;2008-09-14 19:00;CYYG 141900Z 18011G16KT 15SM FEW008 OVC039 17/16 A2990 RMK SF2SC6 SLP125

CYYG;2008-09-14 20:00;CYYG 142000Z 18011G17KT 15SM FEW017 OVC041 18/16 A2987 RMK CU2SC6 SLP116

CYYG;2008-09-14 21:00;CYYG 142100Z 18013KT 15SM FEW008 BKN033 OVC300 18/16 A2985 RMK SF1SC5CI2 SLP110

CYYG;2008-09-14 22:00;CYYG 142200Z 18013KT 15SM BKN038 BKN050 OVC300 18/16 A2985 RMK SC5SC2CI1 SLP107

CYYG;2008-09-14 23:00;CYYG 142300Z 18017KT 15SM FEW022 SCT050 OVC230 18/15 A2983 RMK SC2SC2CS4 SLP101

CYYG;2008-09-15 00:00;CYYG 150000Z 18018G23KT 15SM FEW010 BKN015 OVC240 17/15 A2982 RMK SC1SC6CS2 SLP099

CYYG;2008-09-15 01:00;CYYG 150100Z 18016G25KT 15SM FEW010 OVC019 17/16 A2981 RMK SC2SC6 SLP095

CYYG;2008-09-15 02:00;CYYG 150200Z 18017G22KT 15SM FEW008 OVC018 17/15 A2979 RMK SF1SC8 SLP087

CYYG;2008-09-15 03:00;CYYG 150300Z 18017KT 15SM OVC016 17/16 A2976 RMK SC8 SLP078

CYYG;2008-09-15 03:10;CYYG 150310Z 18018KT 15SM -SHRA OVC016 17/ RMK SC8

CYYG;2008-09-15 04:00;CYYG 150400Z 18019KT 15SM -SHRA OVC015 17/16 A2974 RMK SC8 SLP070

CYYG;2008-09-15 05:00;CYYG 150500Z 18014G21KT 12SM -SHRA OVC015 17/16 A2972 RMK SC8 SLP065

CYYG;2008-09-15 05:22;CYYG 150522Z 18015G22KT 12SM OVC014 17/ RMK SC8

CYYG;2008-09-15 05:33;CYYG 150533Z 18016G21KT 15SM -SHRA OVC013 17/ RMK SC8

CYYG;2008-09-15 06:00;CYYG 150600Z 18017KT 15SM SCT013 OVC038 17/16 A2969 RMK SC3SC5 SLP054

CYYG;2008-09-15 07:00;CYYG 150700Z 18016KT 15SM FEW015 OVC032 18/16 A2967 RMK SF2SC6 SLP047

CYYG;2008-09-15 08:00;CYYG 150800Z 18018KT 15SM FEW010 OVC026 18/17 A2964 RMK SF1SC7 SLP038

CYYG;2008-09-15 09:00;CYYG 150900Z 19019G24KT 15SM FEW010 SCT025 OVC037 18/17 A2962 RMK SF1SC2SC5 SLP030

CYYG;2008-09-15 10:00;CYYG 151000Z 18022G28KT 15SM OVC013 18/17 A2959 RMK SC8 SLP020

CYYG;2008-09-15 10:34;CYYG 151034Z 18020G29KT 15SM -SHRA OVC010 19/ RMK SC8

CYYG;2008-09-15 11:00;CYYG 151100Z 18022G27KT 15SM OVC011 19/17 A2958 RMK SC8 SLP018

CYYG;2008-09-15 12:00;CYYG 151200Z 18022G29KT 15SM OVC010 19/17 A2956 RMK SC8 SLP009

CYYG;2008-09-15 13:00;CYYG 151300Z 18022G31KT 15SM OVC011 20/18 A2952 RMK SC8 SLP998

CYYG;2008-09-15 14:00;CYYG 151400Z 18024G36KT 15SM OVC011 20/18 A2951 RMK SC8 SLP993

CYYG;2008-09-15 15:00;CYYG 151500Z 19027G34KT 12SM OVC010 21/19 A2947 RMK SC8 SLP981

CYYG;2008-09-15 16:00;CYYG 151600Z 19027G33KT 15SM OVC012 22/20 A2945 RMK SC8 SLP973

CYYG;2008-09-15 17:00;CYYG 151700Z 19024G32KT 15SM BKN010 OVC022 21/20 A2944 RMK SF5SC3 SLP968

CYYG;2008-09-15 18:00;CYYG 151800Z 20021G31KT 15SM SCT010 BKN020 OVC040 23/20 A2942 RMK SC3SC3SC2 SLP963

CYYG;2008-09-15 19:00;CYYG 151900Z 20021G27KT 15SM FEW010 BKN025 OVC040 23/20 A2942 RMK SC2SC4SC2 SLP962

CYYG;2008-09-15 20:00;CYYG 152000Z 21020G26KT 15SM FEW010 SCT025 23/20 A2941 RMK SC1SC2 SLP960

CYYG;2008-09-15 21:00;CYYG 152100Z 21016G21KT 15SM BKN024 BKN062 22/20 A2943 RMK SC5SC2 SLP966

CYYG;2008-09-15 22:00;CYYG 152200Z 25007KT 15SM OVC029 21/19 A2947 RMK SC8 SLP978

CYYG;2008-09-15 23:00;CYYG 152300Z 27013G19KT 15SM SCT018 BKN030 20/17 A2951 RMK SC3SC4 SLP994

CYYG;2008-09-16 00:00;CYYG 160000Z 31015KT 15SM FEW030 SCT075 SCT310 19/14 A2958 RMK SC2AC2CI0 PRESRR SLP016

CYYG;2008-09-16 01:00;CYYG 160100Z 32013G22KT 15SM FEW030 BKN310 17/13 A2963 RMK SC2CI1 SLP033

CYYG;2008-09-16 02:00;CYYG 160200Z 33013G20KT 15SM BKN021 16/12 A2968 RMK SC7 SLP049

CYYG;2008-09-16 03:00;CYYG 160300Z 32013G18KT 15SM BKN025 15/11 A2973 RMK SC7 SLP068

CYYG;2008-09-16 04:00;CYYG 160400Z 31013G19KT 15SM OVC025 14/11 A2978 RMK SC8 SLP083

CYYG;2008-09-16 04:26;CYYG 160426Z 32011G22KT 15SM -SHRA OVC025 14/ RMK SC8

CYYG;2008-09-16 04:47;CYYG 160447Z 32010G17KT 15SM OVC025 14/ RMK SC8

CYYG;2008-09-16 05:00;CYYG 160500Z 32009G15KT 15SM OVC025 14/11 A2981 RMK SC8 SLP093

CYYG;2008-09-16 06:00;CYYG 160600Z 34007KT 15SM FEW027 13/10 A2985 RMK SC2 SLP108

CYYG;2008-09-16 07:00;CYYG 160700Z 33006KT 15SM BKN022 13/10 A2988 RMK SC6 SLP120

CYYG;2008-09-16 08:00;CYYG 160800Z 34007KT 15SM BKN025 13/10 A2991 RMK SC6 SLP130

CYYG;2008-09-16 09:00;CYYG 160900Z 35009KT 15SM BKN025 13/09 A2994 RMK SC7 SLP140

CYYG;2008-09-16 10:00;CYYG 161000Z 36005KT 15SM BKN023 13/10 A2998 RMK SC7 SLP152

CYYG;2008-09-16 11:00;CYYG 161100Z 36006KT 15SM BKN024 13/09 A3001 RMK SC7 SLP164

CYYG;2008-09-16 12:00;CYYG 161200Z 01008KT 15SM BKN023 13/09 A3004 RMK SC7 SLP173

CYYG;2008-09-16 13:00;CYYG 161300Z 36008KT 15SM BKN022 13/09 A3007 RMK SC7 SLP182

CYYG;2008-09-16 14:00;CYYG 161400Z 01008KT 15SM OVC023 13/09 A3009 RMK SC8 SLP189

CYYG;2008-09-16 15:00;CYYG 161500Z 02010G16KT 15SM BKN024 14/10 A3010 RMK SC7 SLP195

CYYG;2008-09-16 16:00;CYYG 161600Z 35008KT 15SM BKN025 14/09 A3011 RMK SC7 SLP197

CYYG;2008-09-16 17:00;CYYG 161700Z 01009KT 15SM BKN026 14/09 A3012 RMK SC7 SLP201

CYYG;2008-09-16 18:00;CYYG 161800Z 05005KT 15SM BKN027 15/09 A3012 RMK SC7 SLP202

CYYG;2008-09-16 19:00;CYYG 161900Z 36003KT 15SM BKN030 13/08 A3013 RMK SC6 SLP204

CYYG;2008-09-16 20:00;CYYG 162000Z 36005KT 15SM BKN031 BKN120 13/09 A3014 RMK SC5AC1 SLP206

CYYG;2008-09-16 21:00;CYYG 162100Z 02007KT 15SM SCT031 BKN160 BKN230 13/08 A3014 RMK SC4AC2CI1 SLP209

CYYG;2008-09-16 22:00;CYYG 162200Z 04005KT 15SM FEW030 SCT160 BKN230 11/08 A3013 RMK SC2AC2CI1 SLP205

CYYG;2008-09-16 23:00;CYYG 162300Z 03003KT 15SM FEW030 SCT160 BKN220 10/08 A3014 RMK SC2AC2CI2 SLP208

CYYG;2008-09-17 00:00;CYYG 170000Z 06002KT 15SM FEW030 BKN210 10/08 A3015 RMK SC1CI4 SLP210

CYYG;2008-09-17 01:00;CYYG 170100Z 11003KT 15SM FEW030 BKN210 10/08 A3015 RMK SC1CI4 SLP211

CYYG;2008-09-17 02:00;CYYG 170200Z 13003KT 15SM FEW030 BKN220 11/09 A3016 RMK SC1CC5 SLP214

CYYG;2008-09-17 03:00;CYYG 170300Z 11002KT 15SM FEW045 BKN240 10/08 A3016 RMK SC2CC5 SLP215

CYYG;2008-09-17 04:00;CYYG 170400Z 16003KT 15SM SCT051 BKN240 09/08 A3015 RMK SC3CC3 SLP211

CYYG;2008-09-17 05:00;CYYG 170500Z 13005KT 15SM SCT038 BKN240 09/08 A3014 RMK SC3CC3 SLP208

CYYG;2008-09-17 06:00;CYYG 170600Z 11002KT 15SM SCT035 BKN210 07/07 A3013 RMK SC3CC3 SLP203

CYYG;2008-09-17 07:00;CYYG 170700Z 12003KT 15SM BKN046 09/09 A3011 RMK SC5 SLP198

CYYG;2008-09-17 08:00;CYYG 170800Z 16002KT 15SM BKN040 10/09 A3011 RMK SC6 SLP197

CYYG;2008-09-17 09:00;CYYG 170900Z 00000KT 15SM BKN040 09/09 A3011 RMK SC5 SLP196

CYYG;2008-09-17 10:00;CYYG 171000Z 22005KT 15SM BKN038 BKN048 12/11 A3010 RMK SC5SC2 SLP195

CYYG;2008-09-17 11:00;CYYG 171100Z 23004KT 15SM BKN039 12/11 A3009 RMK SC5 SLP192

CYYG;2008-09-17 12:00;CYYG 171200Z 23006KT 15SM BKN040 14/12 A3010 RMK SC6 SLP195

CYYG;2008-09-17 13:00;CYYG 171300Z 24007KT 15SM SCT040 15/12 A3010 RMK SC2 SLP193

CYYG;2008-09-17 14:00;CYYG 171400Z 21009KT 15SM FEW040 SCT300 16/11 A3009 RMK SC1CI1 SLP190

CYYG;2008-09-17 15:00;CYYG 171500Z 20010KT 15SM FEW020 SCT300 17/13 A3007 RMK SC0CI1 SLP185

CYYG;2008-09-17 16:00;CYYG 171600Z 20011KT 15SM FEW020 FEW300 17/12 A3006 RMK SC0CI1 SLP179

CYYG;2008-09-17 17:00;CYYG 171700Z 21010KT 15SM FEW030 SCT300 18/12 A3004 RMK CF2CI1 SLP174

CYYG;2008-09-17 18:00;CYYG 171800Z 20011KT 15SM FEW034 SCT300 19/12 A3002 RMK CF1CI1 SLP168

CYYG;2008-09-17 19:00;CYYG 171900Z 23012KT 15SM FEW038 SCT300 19/12 A3001 RMK CF2CI1 SLP165

CYYG;2008-09-17 20:00;CYYG 172000Z 24013KT 15SM FEW033 19/12 A3001 RMK CF2 SLP163

CYYG;2008-09-17 21:00;CYYG 172100Z 25010KT 15SM FEW030 FEW050 FEW300 18/11 A3000 RMK CF1SC1CI0 SLP159

CYYG;2008-09-17 22:00;CYYG 172200Z 25010KT 15SM FEW300 17/10 A3001 RMK CI1 SLP161

CYYG;2008-09-17 23:00;CYYG 172300Z 25010G15KT 15SM FEW300 15/09 A3000 RMK CI1 SLP158

CYYG;2008-09-18 00:00;CYYG 180000Z 25010KT 15SM FEW300 15/09 A3001 RMK CI1 SLP162

CYYG;2008-09-18 01:00;CYYG 180100Z 25009KT 15SM FEW300 14/10 A3001 RMK CI2 SLP163

CYYG;2008-09-18 02:00;CYYG 180200Z 25010KT 15SM FEW300 14/12 A3001 RMK CI2 SLP163

CYYG;2008-09-18 03:00;CYYG 180300Z 24007KT 15SM FEW300 13/12 A3001 RMK CI2 SLP163

CYYG;2008-09-18 03:33;CYYG 180333Z 23008KT 15SM FEW008 SCT300 13/ RMK SF2CI2

CYYG;2008-09-18 04:00;CYYG 180400Z 22006KT 15SM BKN008 13/12 A3000 RMK SF6 SLP159

CYYG;2008-09-18 05:00;CYYG 180500Z 22006KT 15SM OVC009 13/12 A3000 RMK SF8 SLP158

CYYG;2008-09-18 06:00;CYYG 180600Z 23010KT 15SM BKN010 BKN120 14/13 A2998 RMK SF6AC2 SLP152

CYYG;2008-09-18 07:00;CYYG 180700Z 23007KT 15SM BKN010 BKN074 13/12 A2997 RMK SC5AC1 SLP150

CYYG;2008-09-18 08:00;CYYG 180800Z 25007KT 15SM SCT009 BKN075 14/12 A2997 RMK SC3AC2 SLP148

CYYG;2008-09-18 09:00;CYYG 180900Z 23006KT 15SM FEW009 BKN074 14/12 A2998 RMK SC2AC3 SLP153

CYYG;2008-09-18 10:00;CYYG 181000Z 25005KT 15SM FEW010 OVC015 14/13 A2998 RMK SF1SC7 SLP153

CYYG;2008-09-18 11:00;CYYG 181100Z 27005KT 15SM SCT010 OVC019 14/13 A2999 RMK SF3SC5 SLP157

CYYG;2008-09-18 11:21;CYYG 181121Z 31009KT 15SM BKN009 OVC019 14/ RMK SC6SC2

CYYG;2008-09-18 11:46;CYYG 181146Z 33007KT 15SM FEW008 OVC017 13/ RMK SF2SC6

CYYG;2008-09-18 12:00;CYYG 181200Z 32008KT 15SM FEW008 OVC018 13/11 A3001 RMK SF2SC6 SLP164

CYYG;2008-09-18 12:24;CYYG 181224Z 31010G18KT 15SM -SHRA BKN011 OVC018 13/ RMK SF6SC2 VIS W-NE 2

CYYG;2008-09-18 12:35;CYYG 181235Z 35011G17KT 2 1/2SM -SHRA BR BKN007 OVC012 12/ RMK SF6SF2

CYYG;2008-09-18 13:00;CYYG 181300Z 35007G15KT 1 1/2SM -SHRA BR BKN005 OVC009 11/11 A3004 RMK SF6SF2 SLP173

CYYG;2008-09-18 13:24;CYYG 181324Z 36008KT 6SM -SHRA BR SCT004 OVC008 11/ RMK SF3SF5

CYYG;2008-09-18 14:00;CYYG 181400Z 36009KT 5SM -SHRA BR FEW004 SCT010 OVC025 10/10 A3007 RMK SF2SF2SC4 SLP184

CYYG;2008-09-18 15:00;CYYG 181500Z 35006KT 10SM -SHRA FEW010 BKN019 OVC038 10/09 A3009 RMK SF2SC5SC2 SLP189

CYYG;2008-09-18 15:51;CYYG 181551Z 35006KT 15SM BKN016 OVC040 11/ RMK SC6SC2

CYYG;2008-09-18 16:00;CYYG 181600Z 34006KT 15SM -SHRA BKN015 OVC040 11/10 A3010 RMK SC6SC2 SLP194

CYYG;2008-09-18 17:00;CYYG 181700Z 34008KT 15SM FEW015 BKN028 11/08 A3010 RMK CU1SC6 SLP194

CYYG;2008-09-18 18:00;CYYG 181800Z 35009KT 15SM FEW028 SCT042 BKN060 11/04 A3012 RMK CU1SC2SC2 SLP200

CYYG;2008-09-18 19:00;CYYG 181900Z 36012KT 15SM FEW043 FEW064 FEW300 12/02 A3013 RMK CU1SC1CI0 SLP203

CYYG;2008-09-18 20:00;CYYG 182000Z 35010G17KT 15SM FEW046 SCT300 12/03 A3014 RMK CU2CI0 SLP209

CYYG;2008-09-18 21:00;CYYG 182100Z 35006KT 15SM FEW046 SCT300 12/03 A3017 RMK CU2CI1 SLP217

CYYG;2008-09-18 22:00;CYYG 182200Z 34005KT 15SM FEW046 BKN063 10/04 A3019 RMK CU1SC5 SLP224

CYYG;2008-09-18 23:00;CYYG 182300Z 33005KT 15SM FEW045 BKN052 10/03 A3021 RMK SC2SC4 SLP230

CYYG;2008-09-19 00:00;CYYG 190000Z 33010G17KT 15SM FEW038 BKN063 10/04 A3024 RMK SC2SC4 SLP241

CYYG;2008-09-19 01:00;CYYG 190100Z 33010KT 15SM FEW042 BKN060 09/02 A3026 RMK SC2SC3 SLP249

CYYG;2008-09-19 02:00;CYYG 190200Z 33008KT 15SM FEW048 BKN060 09/00 A3030 RMK SC2SC3 SLP261

CYYG;2008-09-19 03:00;CYYG 190300Z 33004KT 15SM FEW040 SCT060 07/00 A3031 RMK SC2SC2 SLP266

CYYG;2008-09-19 04:00;CYYG 190400Z 29003KT 15SM BKN060 07/01 A3033 RMK SC5 SLP273

CYYG;2008-09-19 05:00;CYYG 190500Z 35006KT 15SM BKN060 08/01 A3034 RMK SC5 SLP276

CYYG;2008-09-19 06:00;CYYG 190600Z 34004KT 15SM BKN057 07/00 A3036 RMK SC5 SLP281

CYYG;2008-09-19 07:00;CYYG 190700Z 27005KT 15SM BKN056 06/01 A3038 RMK SC5 SLP288

CYYG;2008-09-19 08:00;CYYG 190800Z 27005KT 15SM SCT054 04/01 A3039 RMK SC4 SLP294

CYYG;2008-09-19 09:00;CYYG 190900Z 26004KT 15SM SCT052 04/01 A3041 RMK SC4 SLP300

CYYG;2008-09-19 10:00;CYYG 191000Z 30003KT 15SM FEW047 04/01 A3044 RMK CU2 SLP311

CYYG;2008-09-19 11:00;CYYG 191100Z 30004KT 15SM FEW047 06/03 A3047 RMK CU1 SLP319

CYYG;2008-09-19 12:00;CYYG 191200Z 32002KT 15SM FEW045 09/02 A3048 RMK CU1 SLP324

CYYG;2008-09-19 13:00;CYYG 191300Z 01005KT 15SM FEW040 11/01 A3049 RMK SC1 SLP327

CYYG;2008-09-19 14:00;CYYG 191400Z 00000KT 15SM FEW050 12/00 A3050 RMK SC1 SLP331

CYYG;2008-09-19 15:00;CYYG 191500Z 35003KT 15SM FEW050 12/01 A3051 RMK SC1 SLP334

CYYG;2008-09-19 16:00;CYYG 191600Z 28003KT 15SM FEW050 13/01 A3051 RMK SC1 SLP332

CYYG;2008-09-19 17:00;CYYG 191700Z 23011KT 15SM FEW050 13/03 A3050 RMK SC2 SLP330

CYYG;2008-09-19 18:00;CYYG 191800Z 19011KT 15SM FEW050 12/03 A3050 RMK SC2 SLP328

CYYG;2008-09-19 19:00;CYYG 191900Z 22009KT 15SM FEW049 13/02 A3049 RMK SC2 SLP327

CYYG;2008-09-19 20:00;CYYG 192000Z 21006KT 15SM FEW050 13/02 A3048 RMK SC1 SLP322

CYYG;2008-09-19 21:00;CYYG 192100Z 24004KT 15SM SKC 12/02 A3047 RMK SLP320

CYYG;2008-09-19 22:00;CYYG 192200Z 15005KT 15SM FEW300 11/02 A3046 RMK CI1 SLP316

CYYG;2008-09-19 23:00;CYYG 192300Z 18004KT 15SM FEW300 10/02 A3048 RMK CI1 SLP322

CYYG;2008-09-20 00:00;CYYG 200000Z 22003KT 15SM FEW300 10/03 A3048 RMK CI1 SLP322

CYYG;2008-09-20 01:00;CYYG 200100Z 20006KT 15SM FEW300 09/05 A3047 RMK CI1 SLP319

CYYG;2008-09-20 02:00;CYYG 200200Z 20008KT 15SM FEW300 10/05 A3046 RMK CI1 SLP315

CYYG;2008-09-20 03:00;CYYG 200300Z 22006KT 15SM FEW300 10/06 A3045 RMK CI2 SLP314

CYYG;2008-09-20 04:00;CYYG 200400Z 22009KT 15SM FEW300 10/05 A3044 RMK CI2 SLP311

CYYG;2008-09-20 05:00;CYYG 200500Z 22011KT 15SM SKC 10/04 A3044 RMK SLP308

CYYG;2008-09-20 06:00;CYYG 200600Z 22010KT 15SM SKC 10/05 A3044 RMK SLP309

CYYG;2008-09-20 07:00;CYYG 200700Z 22008KT 15SM SKC 10/05 A3043 RMK SLP307

CYYG;2008-09-20 08:00;CYYG 200800Z 22008KT 15SM FEW300 10/06 A3042 RMK CI2 SLP304

CYYG;2008-09-20 09:00;CYYG 200900Z 22008KT 15SM FEW300 10/07 A3041 RMK CI2 SLP301

CYYG;2008-09-20 10:00;CYYG 201000Z 22009KT 15SM FEW300 10/07 A3042 RMK CI2 SLP303

CYYG;2008-09-20 11:00;CYYG 201100Z 22009KT 15SM FEW020 FEW300 11/07 A3042 RMK CF1CI1 SLP302

CYYG;2008-09-20 12:00;CYYG 201200Z 22011G17KT 15SM FEW020 FEW300 12/08 A3040 RMK CF1CI1 SLP295

CYYG;2008-09-20 13:00;CYYG 201300Z 22012G19KT 15SM FEW022 FEW300 13/08 A3039 RMK CF1CI0 CONTRAILS SLP294

CYYG;2008-09-20 14:00;CYYG 201400Z CCA 21014G20KT 15SM FEW024 SCT300 14/08 A3037 RMK CF1CI1 CONTRAILS SLP285

CYYG;2008-09-20 15:00;CYYG 201500Z 21014G19KT 15SM FEW025 SCT300 14/09 A3034 RMK CF1CI1 CONTRAILS SLP276

CYYG;2008-09-20 16:00;CYYG 201600Z 21014G20KT 15SM FEW025 BKN300 16/09 A3032 RMK CF1CI1 CONTRAILS SLP269

CYYG;2008-09-20 17:00;CYYG 201700Z 20014G19KT 15SM BKN300 17/09 A3030 RMK CI1 SLP262

CYYG;2008-09-20 18:00;CYYG 201800Z 20014G20KT 15SM BKN300 17/09 A3027 RMK CI1 CONTRAILS SLP250

CYYG;2008-09-20 19:00;CYYG 201900Z 20015KT 15SM BKN300 17/09 A3024 RMK CI1 SLP241

CYYG;2008-09-20 20:00;CYYG 202000Z 20017KT 15SM BKN300 17/09 A3022 RMK CI1 SLP233

CYYG;2008-09-20 21:00;CYYG 202100Z 20015G20KT 15SM BKN300 17/11 A3020 RMK CI1 SLP229

CYYG;2008-09-20 22:00;CYYG 202200Z 19017KT 15SM BKN300 16/11 A3019 RMK CI2 SLP224

CYYG;2008-09-20 23:00;CYYG 202300Z 20015G20KT 15SM BKN300 15/11 A3019 RMK CI2 SLP223

CYYG;2008-09-21 00:00;CYYG 210000Z 20013G19KT 15SM BKN300 14/11 A3018 RMK CI2 SLP222

CYYG;2008-09-21 01:00;CYYG 210100Z 21013G20KT 15SM FEW300 13/10 A3017 RMK CI2 SLP216

CYYG;2008-09-21 02:00;CYYG 210200Z 22011G16KT 15SM FEW300 13/10 A3017 RMK CI2 SLP217

CYYG;2008-09-21 03:00;CYYG 210300Z 23009KT 15SM SCT016 SCT300 12/11 A3017 RMK SC3CI1 SLP216

CYYG;2008-09-21 03:27;CYYG 210327Z 23011KT 15SM BKN014 12/ RMK SC6

CYYG;2008-09-21 04:00;CYYG 210400Z 22012G18KT 15SM BKN014 13/11 A3016 RMK SC6 SLP215

CYYG;2008-09-21 05:00;CYYG 210500Z 23008KT 15SM BKN016 13/11 A3016 RMK SC7 SLP215

CYYG;2008-09-21 06:00;CYYG 210600Z 24008G15KT 15SM OVC019 13/11 A3015 RMK SC8 SLP212

CYYG;2008-09-21 07:00;CYYG 210700Z 23011KT 15SM OVC020 12/10 A3013 RMK SC8 SLP204

CYYG;2008-09-21 08:00;CYYG 210800Z 25007KT 15SM BKN018 11/09 A3012 RMK SC6 SLP201

CYYG;2008-09-21 09:00;CYYG 210900Z 21005KT 15SM SCT020 11/09 A3011 RMK SC4 SLP197

CYYG;2008-09-21 10:00;CYYG 211000Z 23007KT 15SM SCT020 BKN250 11/09 A3011 RMK SC3CI2 SLP197

CYYG;2008-09-21 11:00;CYYG 211100Z 25006KT 15SM FEW020 BKN300 11/10 A3012 RMK SC1CI1 SLP201

CYYG;2008-09-21 12:00;CYYG 211200Z 26007KT 15SM FEW020 SCT290 13/10 A3012 RMK CF1CI1 SLP202

CYYG;2008-09-21 13:00;CYYG 211300Z 28009KT 15SM FEW020 SCT290 13/10 A3013 RMK SC2CI1 SLP204

CYYG;2008-09-21 14:00;CYYG 211400Z 33006KT 15SM BKN018 BKN290 14/11 A3013 RMK SC5CI1 SLP204

CYYG;2008-09-21 15:00;CYYG 211500Z 35007KT 15SM BKN016 BKN050 BKN290 13/10 A3013 RMK SC6SC1CI1 SLP205

CYYG;2008-09-21 16:00;CYYG 211600Z 33006KT 15SM BKN014 BKN045 14/12 A3014 RMK SC6SC2 SLP206

CYYG;2008-09-21 17:00;CYYG 211700Z 36009KT 15SM SCT014 BKN021 OVC052 13/11 A3014 RMK SC3SC4SC1 SLP208

CYYG;2008-09-21 18:00;CYYG 211800Z 02009KT 15SM BKN014 OVC025 13/11 A3016 RMK SC6SC2 SLP214

CYYG;2008-09-21 19:00;CYYG 211900Z 01010KT 15SM FEW014 OVC020 13/09 A3017 RMK SC2SC6 SLP219

CYYG;2008-09-21 20:00;CYYG 212000Z 35010G15KT 15SM SCT018 OVC030 13/09 A3019 RMK SC3SC5 SLP225

CYYG;2008-09-21 21:00;CYYG 212100Z 36009KT 15SM FEW018 BKN036 12/09 A3021 RMK SC2SC5 SLP232

CYYG;2008-09-21 22:00;CYYG 212200Z 36004KT 15SM FEW015 BKN028 11/08 A3023 RMK SC2SC4 SLP239

CYYG;2008-09-21 23:00;CYYG 212300Z 36003KT 15SM FEW010 BKN025 09/07 A3026 RMK SF2SC3 SLP248

CYYG;2008-09-22 00:00;CYYG 220000Z 34003KT 15SM FEW010 BKN025 06/06 A3028 RMK SF2SC3 SLP255

CYYG;2008-09-22 01:00;CYYG 220100Z 33003KT 15SM FEW010 SCT025 05/05 A3029 RMK SF2SC2 SLP258

CYYG;2008-09-22 02:00;CYYG 220200Z 35003KT 15SM FEW010 SCT025 05/05 A3030 RMK SF1SC2 SLP261

CYYG;2008-09-22 03:00;CYYG 220300Z 30003KT 15SM FEW025 04/04 A3031 RMK SC2 SLP267

CYYG;2008-09-22 04:00;CYYG 220400Z 32005KT 15SM FEW025 04/04 A3031 RMK SC2 SLP267

CYYG;2008-09-22 05:00;CYYG 220500Z 32004KT 15SM FEW025 05/04 A3033 RMK SC2 SLP272

CYYG;2008-09-22 06:00;CYYG 220600Z 30003KT 15SM SCT030 03/03 A3033 RMK SC3 SLP272

CYYG;2008-09-22 07:00;CYYG 220700Z 31003KT 15SM FEW030 03/03 A3033 RMK SC2 SLP272

CYYG;2008-09-22 08:00;CYYG 220800Z 28004KT 15SM FEW030 04/04 A3033 RMK SC2 SLP274

CYYG;2008-09-22 09:00;CYYG 220900Z 28003KT 15SM SCT044 06/05 A3035 RMK SC4 SLP279

CYYG;2008-09-22 10:00;CYYG 221000Z 27004KT 15SM BKN042 07/05 A3037 RMK SC5 SLP286

CYYG;2008-09-22 11:00;CYYG 221100Z 28003KT 15SM SCT040 08/06 A3039 RMK SC4 SLP291

CYYG;2008-09-22 12:00;CYYG 221200Z 34002KT 15SM SCT053 10/08 A3039 RMK SC4 SLP293

CYYG;2008-09-22 13:00;CYYG 221300Z 00000KT 15SM SCT050 13/09 A3039 RMK SC4 SLP294

CYYG;2008-09-22 14:00;CYYG 221400Z 00000KT 15SM FEW030 BKN050 12/05 A3040 RMK SC2CU3 SLP295

CYYG;2008-09-22 15:00;CYYG 221500Z 01006KT 15SM BKN042 13/06 A3039 RMK SC5 SLP293

CYYG;2008-09-22 16:00;CYYG 221600Z 35009KT 15SM BKN042 BKN200 13/06 A3039 RMK CU5CC0 SLP294

CYYG;2008-09-22 17:00;CYYG 221700Z 36008KT 15SM BKN042 BKN200 13/07 A3039 RMK CU5CC0 SLP292

CYYG;2008-09-22 18:00;CYYG 221800Z 34008G15KT 15SM SCT040 BKN200 13/06 A3039 RMK CU4CC1 SLP293

CYYG;2008-09-22 19:00;CYYG 221900Z 35010G20KT 15SM FEW040 SCT170 12/04 A3040 RMK CU2AC2 SLP295

CYYG;2008-09-22 20:00;CYYG 222000Z 35009KT 15SM FEW040 SCT160 11/03 A3040 RMK CU2AC2 SLP296

CYYG;2008-09-22 21:00;CYYG 222100Z 34006KT 15SM FEW040 FEW160 11/03 A3041 RMK CU1AC1 SLP300

CYYG;2008-09-22 22:00;CYYG 222200Z 33005KT 15SM FEW040 09/03 A3042 RMK CU1 SLP304

CYYG;2008-09-22 23:00;CYYG 222300Z 33003KT 15SM SKC 06/03 A3044 RMK SLP308

CYYG;2008-09-23 00:00;CYYG 230000Z 32003KT 15SM SKC 05/02 A3045 RMK SLP312

CYYG;2008-09-23 01:00;CYYG 230100Z 32003KT 15SM SKC 03/02 A3044 RMK SLP310

CYYG;2008-09-23 02:00;CYYG 230200Z 29003KT 15SM SKC 04/02 A3044 RMK SLP311

CYYG;2008-09-23 03:00;CYYG 230300Z 29003KT 15SM SKC 03/01 A3045 RMK SLP312

CYYG;2008-09-23 04:00;CYYG 230400Z 28002KT 15SM SCT052 03/02 A3044 RMK SC4 SLP310

CYYG;2008-09-23 05:00;CYYG 230500Z 27006KT 15SM SCT050 05/02 A3044 RMK SC3 SLP311

CYYG;2008-09-23 06:00;CYYG 230600Z 27005KT 15SM SCT040 07/03 A3044 RMK SC4 SLP311

CYYG;2008-09-23 07:00;CYYG 230700Z 27005KT 15SM SCT055 06/02 A3044 RMK SC3 SLP308

CYYG;2008-09-23 08:00;CYYG 230800Z 29007KT 15SM SCT055 07/02 A3044 RMK SC3 SLP308

CYYG;2008-09-23 09:00;CYYG 230900Z 27006KT 15SM SCT055 05/02 A3044 RMK SC3 SLP310

CYYG;2008-09-23 10:00;CYYG 231000Z 31003KT 15SM VCSH FEW035 BKN055 06/04 A3045 RMK SC2SC3 SLP314

CYYG;2008-09-23 11:00;CYYG 231100Z 30005KT 15SM SCT040 06/04 A3045 RMK SC3 SLP314

CYYG;2008-09-23 12:00;CYYG 231200Z 29007KT 15SM FEW050 07/03 A3045 RMK SC2 SLP314

CYYG;2008-09-23 13:00;CYYG 231300Z 31011KT 15SM FEW054 10/01 A3046 RMK SC2 SLP317

CYYG;2008-09-23 14:00;CYYG 231400Z 29010G16KT 15SM FEW055 11/00 A3046 RMK SC2 SLP315

CYYG;2008-09-23 15:00;CYYG 231500Z 31009G17KT 15SM SCT052 11/01 A3045 RMK SC3 SLP312

CYYG;2008-09-23 16:00;CYYG 231600Z 31008KT 15SM SCT056 12/M01 A3043 RMK SC4 SLP307

CYYG;2008-09-23 17:00;CYYG 231700Z 33012KT 15SM BKN056 11/01 A3041 RMK SC4 SLP301

CYYG;2008-09-23 18:00;CYYG 231800Z 33010KT 15SM SCT050 12/01 A3040 RMK SC2 SLP296

CYYG;2008-09-23 19:00;CYYG 231900Z 35009G15KT 15SM SCT050 11/01 A3039 RMK SC2 SLP294

CYYG;2008-09-23 20:00;CYYG 232000Z 34006KT 15SM FEW050 11/M00 A3039 RMK SC2 SLP292

CYYG;2008-09-23 21:00;CYYG 232100Z 33004KT 15SM FEW050 10/M01 A3039 RMK SC2 SLP292

CYYG;2008-09-23 22:00;CYYG 232200Z 00000KT 15SM FEW050 09/M01 A3038 RMK SC1 SLP290

CYYG;2008-09-23 23:00;CYYG 232300Z 00000KT 15SM FEW050 06/00 A3039 RMK SC1 SLP291

CYYG;2008-09-24 00:00;CYYG 240000Z 20004KT 15SM SKC 06/M01 A3038 RMK SLP290

CYYG;2008-09-24 01:00;CYYG 240100Z 22005KT 15SM SKC 07/02 A3038 RMK SLP288

CYYG;2008-09-24 02:00;CYYG 240200Z 21005KT 15SM SCT100 08/02 A3036 RMK AC3 SLP284

CYYG;2008-09-24 03:00;CYYG 240300Z 23005KT 15SM BKN074 BKN110 08/03 A3035 RMK AC5AC2 SLP280

CYYG;2008-09-24 04:00;CYYG 240400Z 27003KT 15SM OVC067 08/05 A3036 RMK AC8 SLP281

CYYG;2008-09-24 04:24;CYYG 240424Z 23006KT 15SM -SHRA FEW060 BKN078 OVC100 08/ RMK SC2AC3AC2

CYYG;2008-09-24 04:49;CYYG 240449Z 22005KT 15SM FEW060 SCT086 08/ RMK SC2AC2

CYYG;2008-09-24 05:00;CYYG 240500Z 22004KT 15SM FEW060 SCT086 08/06 A3033 RMK SC2AC2 SLP273

CYYG;2008-09-24 06:00;CYYG 240600Z 26005KT 15SM BKN052 OVC100 09/06 A3032 RMK SC6AC2 SLP269

CYYG;2008-09-24 07:00;CYYG 240700Z 28005KT 15SM SCT090 08/06 A3032 RMK AC3 SLP268

CYYG;2008-09-24 08:00;CYYG 240800Z 28006KT 15SM FEW090 07/06 A3033 RMK AC2 SLP272

CYYG;2008-09-24 09:00;CYYG 240900Z 29004KT 15SM FEW090 07/05 A3034 RMK AC2 SLP276

CYYG;2008-09-24 10:00;CYYG 241000Z 06003KT 15SM FEW030 FEW090 04/04 A3036 RMK SC1AC1 SLP284

CYYG;2008-09-24 11:00;CYYG 241100Z 12002KT 15SM FEW030 06/05 A3038 RMK SC1 SLP289

CYYG;2008-09-24 12:00;CYYG 241200Z 14002KT 15SM FEW030 10/06 A3039 RMK SC2 SLP294

CYYG;2008-09-24 13:00;CYYG 241300Z 00000KT 15SM FEW030 11/06 A3041 RMK SC2 SLP299

CYYG;2008-09-24 14:00;CYYG 241400Z 36005KT 15SM SCT026 12/06 A3043 RMK SC3 SLP305

CYYG;2008-09-24 15:00;CYYG 241500Z 34009KT 15SM SCT030 13/06 A3042 RMK SC4 SLP302

CYYG;2008-09-24 16:00;CYYG 241600Z 34008KT 15SM SCT034 13/05 A3042 RMK SC4 SLP303

CYYG;2008-09-24 17:00;CYYG 241700Z 31009KT 15SM SCT038 14/05 A3041 RMK SC4 SLP299

CYYG;2008-09-24 18:00;CYYG 241800Z 36006KT 15SM SCT038 13/07 A3041 RMK SC3 SLP299

CYYG;2008-09-24 19:00;CYYG 241900Z 35008KT 15SM FEW035 13/06 A3040 RMK SC2 SLP296

CYYG;2008-09-24 20:00;CYYG 242000Z 36008KT 15SM FEW030 12/06 A3041 RMK SC1 SLP301

CYYG;2008-09-24 21:00;CYYG 242100Z 36008KT 15SM FEW030 11/05 A3042 RMK SC1 SLP304

CYYG;2008-09-24 22:00;CYYG 242200Z 36004KT 15SM FEW030 09/05 A3044 RMK SC1 SLP310

CYYG;2008-09-24 23:00;CYYG 242300Z 02004KT 15SM SKC 07/04 A3045 RMK SLP314

CYYG;2008-09-25 00:00;CYYG 250000Z 04004KT 15SM SKC 06/03 A3046 RMK SLP317

CYYG;2008-09-25 01:00;CYYG 250100Z 16002KT 15SM SKC 06/03 A3047 RMK SLP321

CYYG;2008-09-25 02:00;CYYG 250200Z 19003KT 15SM SKC 07/04 A3049 RMK SLP326

CYYG;2008-09-25 03:00;CYYG 250300Z 18005KT 15SM SKC 06/03 A3049 RMK SLP326

CYYG;2008-09-25 04:00;CYYG 250400Z 14003KT 15SM SKC 05/03 A3048 RMK SLP324

CYYG;2008-09-25 05:00;CYYG 250500Z 16002KT 15SM SKC 04/04 A3048 RMK SLP324

CYYG;2008-09-25 06:00;CYYG 250600Z 13003KT 15SM SKC 05/04 A3049 RMK SLP326

CYYG;2008-09-25 07:00;CYYG 250700Z 13003KT 15SM SKC 05/05 A3048 RMK SLP322

CYYG;2008-09-25 08:00;CYYG 250800Z 16004KT 15SM SKC 06/05 A3049 RMK SLP325

CYYG;2008-09-25 09:00;CYYG 250900Z 14005KT 15SM SKC 05/05 A3049 RMK SLP327

CYYG;2008-09-25 10:00;CYYG 251000Z 20009KT 15SM FEW059 FEW300 08/07 A3050 RMK SC2CI0 SLP329

CYYG;2008-09-25 11:00;CYYG 251100Z 20006KT 15SM FEW059 SCT300 10/09 A3052 RMK SC2CI1 SLP336

CYYG;2008-09-25 12:00;CYYG 251200Z 21009KT 15SM SCT300 12/08 A3051 RMK CI1 SLP333

CYYG;2008-09-25 13:00;CYYG 251300Z 21011KT 15SM SCT300 13/08 A3052 RMK CI1 SLP336

CYYG;2008-09-25 14:00;CYYG 251400Z 21009KT 15SM FEW300 15/09 A3052 RMK CI1 SLP337

CYYG;2008-09-25 15:00;CYYG 251500Z 22011KT 15SM FEW300 16/09 A3051 RMK CI1 SLP332

CYYG;2008-09-25 16:00;CYYG 251600Z 24011KT 15SM SKC 17/09 A3050 RMK SLP329

CYYG;2008-09-25 17:00;CYYG 251700Z 22010G16KT 15SM SKC 18/09 A3047 RMK SLP321

CYYG;2008-09-25 18:00;CYYG 251800Z 23015KT 15SM SKC 19/09 A3047 RMK SLP319

CYYG;2008-09-25 19:00;CYYG 251900Z 23013G19KT 15SM SKC 19/09 A3047 RMK SLP319

CYYG;2008-09-25 20:00;CYYG 252000Z 22011G17KT 15SM FEW280 19/09 A3047 RMK CI1 SLP318

CYYG;2008-09-25 21:00;CYYG 252100Z 24010KT 15SM BKN280 18/10 A3047 RMK CI2 SLP321

CYYG;2008-09-25 22:00;CYYG 252200Z 22008KT 15SM BKN280 16/11 A3047 RMK CI2 SLP321

CYYG;2008-09-25 23:00;CYYG 252300Z 23009KT 15SM BKN280 16/09 A3048 RMK CI2 SLP324

CYYG;2008-09-26 00:00;CYYG 260000Z 23010G17KT 15SM BKN280 15/07 A3050 RMK CI2 SLP328

CYYG;2008-09-26 01:00;CYYG 260100Z 23010KT 15SM BKN280 15/06 A3051 RMK CI2 SLP331

CYYG;2008-09-26 02:00;CYYG 260200Z 23010KT 15SM BKN280 14/06 A3050 RMK CI2 SLP328

CYYG;2008-09-26 03:00;CYYG 260300Z 23010KT 15SM SCT280 14/06 A3050 RMK CI1 SLP327

CYYG;2008-09-26 04:00;CYYG 260400Z 23011KT 15SM SKC 13/06 A3049 RMK SLP326

CYYG;2008-09-26 05:00;CYYG 260500Z 23009KT 15SM SKC 13/07 A3050 RMK SLP330

CYYG;2008-09-26 06:00;CYYG 260600Z 22006KT 15SM SKC 12/07 A3051 RMK SLP331

CYYG;2008-09-26 07:00;CYYG 260700Z 22006KT 15SM SKC 12/07 A3051 RMK SLP332

CYYG;2008-09-26 08:00;CYYG 260800Z 22003KT 15SM SKC 12/07 A3052 RMK SLP336

CYYG;2008-09-26 09:00;CYYG 260900Z 23008KT 15SM SKC 12/07 A3053 RMK SLP339

CYYG;2008-09-26 11:00;CYYG 261100Z 23009KT 15SM BKN280 12/10 A3055 RMK CI2 SLP346

CYYG;2008-09-26 12:00;CYYG 261200Z 24012KT 15SM BKN280 14/11 A3055 RMK CI5 SLP345

CYYG;2008-09-26 13:00;CYYG 261300Z 25012G19KT 15SM BKN280 14/11 A3055 RMK CI6 SLP347

CYYG;2008-09-26 14:00;CYYG 261400Z 24010G16KT 15SM BKN280 15/11 A3057 RMK CI6 SLP351

CYYG;2008-09-26 15:00;CYYG 261500Z 22011KT 15SM BKN280 16/09 A3056 RMK CI6 SLP349

CYYG;2008-09-26 16:00;CYYG 261600Z 22011KT 15SM BKN280 17/09 A3055 RMK CI6 SLP345

CYYG;2008-09-26 17:00;CYYG 261700Z 22011KT 15SM BKN280 17/08 A3053 RMK CI5 SLP340

CYYG;2008-09-26 18:00;CYYG 261800Z 20009KT 15SM BKN280 17/10 A3052 RMK CI5 SLP336

CYYG;2008-09-26 19:00;CYYG 261900Z 20010KT 15SM BKN280 18/09 A3051 RMK CI5 SLP331

CYYG;2008-09-26 20:00;CYYG 262000Z 20009KT 15SM BKN280 19/10 A3049 RMK CI5 SLP325

CYYG;2008-09-26 21:00;CYYG 262100Z 20007KT 15SM BKN280 18/10 A3049 RMK CI6 SLP325

CYYG;2008-09-26 22:00;CYYG 262200Z 20006KT 15SM BKN280 15/11 A3049 RMK CI6 SLP325

CYYG;2008-09-26 23:00;CYYG 262300Z 20005KT 15SM BKN280 14/11 A3049 RMK CI6 SLP325

CYYG;2008-09-27 00:00;CYYG 270000Z 23004KT 15SM BKN280 14/10 A3050 RMK CI6 SLP328

CYYG;2008-09-27 01:00;CYYG 270100Z 23006KT 15SM BKN280 14/11 A3050 RMK CI6 SLP330

CYYG;2008-09-27 02:00;CYYG 270200Z 22007KT 15SM BKN280 14/12 A3050 RMK CI6 SLP329

CYYG;2008-09-27 03:00;CYYG 270300Z 23006KT 15SM BKN240 14/12 A3049 RMK CI6 SLP326

CYYG;2008-09-27 04:00;CYYG 270400Z 22007KT 15SM BKN240 14/12 A3049 RMK CI6 SLP324

CYYG;2008-09-27 05:00;CYYG 270500Z 21007KT 15SM BKN240 13/12 A3047 RMK CI6 SLP320

CYYG;2008-09-27 06:00;CYYG 270600Z 21005KT 15SM BKN240 13/12 A3047 RMK CI6 SLP317

CYYG;2008-09-27 07:00;CYYG 270700Z 20004KT 15SM OVC210 13/12 A3047 RMK CI7 SLP317

CYYG;2008-09-27 08:00;CYYG 270800Z 17003KT 15SM OVC180 12/12 A3046 RMK AC7 SLP315

CYYG;2008-09-27 09:00;CYYG 270900Z 16003KT 15SM OVC140 13/13 A3046 RMK AC8 SLP314

CYYG;2008-09-27 10:00;CYYG 271000Z 18005KT 15SM OVC120 13/13 A3046 RMK AC8 SLP314

CYYG;2008-09-27 11:00;CYYG 271100Z 19008KT 15SM -SHRA SCT090 BKN120 OVC240 14/14 A3046 RMK AC3AC3CI2 SLP314

CYYG;2008-09-27 12:00;CYYG 271200Z 16006KT 15SM -SHRA SCT070 OVC096 15/14 A3045 RMK AC4AS4 SLP311

CYYG;2008-09-27 12:43;CYYG 271243Z 17005KT 15SM SCT070 BKN120 OVC250 16/ RMK AC4AC2CI2

CYYG;2008-09-27 13:00;CYYG 271300Z 18007KT 15SM SCT070 OVC120 16/14 A3045 RMK AC4AC4 SLP312

CYYG;2008-09-27 13:53;CYYG 271353Z 18008KT 15SM -SHRA FEW030 BKN070 OVC100 16/ RMK SC2AC4AC2

CYYG;2008-09-27 14:00;CYYG 271400Z 18008KT 15SM -SHRA FEW030 BKN070 OVC100 16/14 A3045 RMK SC2AC4AC2 SLP312

CYYG;2008-09-27 15:00;CYYG 271500Z 16008KT 15SM -SHRA FEW020 BKN070 OVC140 17/15 A3043 RMK SC2AC5AC2 SLP305

CYYG;2008-09-27 16:00;CYYG 271600Z 17008KT 15SM BKN110 OVC200 17/14 A3042 RMK AC6CI2 OCNL -SHRA SLP301

CYYG;2008-09-27 17:00;CYYG 271700Z 17011KT 15SM -RA FEW090 OVC110 18/14 A3039 RMK AC2AC6 -RA INTMT SLP292

CYYG;2008-09-27 18:00;CYYG 271800Z 15009KT 15SM -RA FEW035 SCT090 OVC120 18/15 A3037 RMK SC2AC2AC4 -RA INTMT SLP285

CYYG;2008-09-27 19:00;CYYG 271900Z CCA 14007KT 15SM -RA SCT100 OVC120 19/15 A3034 RMK AC4AC4 -RA INTMT SLP276

CYYG;2008-09-27 20:00;CYYG 272000Z 16009KT 5SM RA BKN030 OVC080 18/15 A3033 RMK SC6AC2 SLP270

CYYG;2008-09-27 21:00;CYYG 272100Z 15011KT 15SM -RA BKN050 OVC090 17/16 A3029 RERA RMK SC6AC2 SLP257

CYYG;2008-09-27 22:00;CYYG 272200Z 16014KT 15SM -RA SCT050 BKN090 OVC160 18/16 A3028 RMK SC4AC2AC2 SLP255

CYYG;2008-09-27 22:36;CYYG 272236Z 17016KT 15SM BKN045 BKN090 OVC160 18/ RMK SC6AC2AC1

CYYG;2008-09-27 23:00;CYYG 272300Z 17015KT 15SM BKN046 OVC180 18/15 A3028 RMK SC6CI2 SLP255

CYYG;2008-09-28 00:00;CYYG 280000Z 17014KT 15SM OVC040 17/16 A3028 RMK SC8 SLP256

CYYG;2008-09-28 00:42;CYYG 280042Z 17014KT 15SM -SHRA BKN042 OVC054 17/ RMK SC6SC2

CYYG;2008-09-28 01:00;CYYG 280100Z 18013KT 15SM -SHRA OVC046 17/16 A3028 RMK SC8 SLP253

CYYG;2008-09-28 02:00;CYYG 280200Z 18011G16KT 15SM -SHRA OVC037 17/16 A3026 RMK SC8 SLP249

CYYG;2008-09-28 02:53;CYYG 280253Z 18013G18KT 15SM SCT042 OVC100 17/ RMK SC3AC5

CYYG;2008-09-28 03:00;CYYG 280300Z 19013G19KT 15SM SCT060 OVC099 17/16 A3025 RMK SC3AC5 SLP246

CYYG;2008-09-28 04:00;CYYG 280400Z 19012KT 15SM BKN052 OVC061 17/16 A3025 RMK SC6SC2 SLP243

CYYG;2008-09-28 05:00;CYYG 280500Z 18009KT 15SM OVC050 17/16 A3024 RMK SC8 SLP240

CYYG;2008-09-28 06:00;CYYG 280600Z 18010KT 15SM OVC048 17/16 A3023 RMK SC8 SLP236

CYYG;2008-09-28 07:00;CYYG 280700Z 18011KT 15SM SCT046 OVC240 17/16 A3020 RMK SC4CI4 SLP228

CYYG;2008-09-28 08:00;CYYG 280800Z 17010KT 15SM SCT050 OVC210 16/16 A3019 RMK SC3CI5 SLP224

CYYG;2008-09-28 09:00;CYYG 280900Z 17012KT 15SM BKN220 16/15 A3019 RMK CI6 SLP223

CYYG;2008-09-28 10:00;CYYG 281000Z 17012KT 15SM BKN250 16/15 A3018 RMK CI6 SLP219

CYYG;2008-09-28 11:00;CYYG 281100Z 18007KT 15SM SCT120 BKN200 OVC250 16/15 A3019 RMK AC4CI2CI2 SLP222

CYYG;2008-09-28 12:00;CYYG 281200Z 18011KT 15SM SCT040 BKN160 OVC250 17/16 A3019 RMK SC4AC2CI2 SLP222

CYYG;2008-09-28 13:00;CYYG 281300Z 18011KT 15SM FEW050 BKN180 OVC240 18/16 A3017 RMK SC2AC3CI2 SLP217

CYYG;2008-09-28 14:00;CYYG 281400Z 17012KT 15SM BKN050 BKN160 OVC240 18/16 A3016 RMK SC6AC2CI1 SLP213

CYYG;2008-09-28 15:00;CYYG 281500Z 18013KT 15SM FEW050 BKN170 OVC220 19/16 A3014 RMK SC2AC4CI2 SLP208

CYYG;2008-09-28 16:00;CYYG 281600Z 17013KT 15SM SCT050 BKN170 OVC220 20/17 A3013 RMK SC3AC3CI2 SLP203

CYYG;2008-09-28 17:00;CYYG 281700Z 16010KT 15SM BKN043 OVC160 20/17 A3010 RMK SC6AC2 SLP194

CYYG;2008-09-28 18:00;CYYG 281800Z 15008KT 15SM SCT050 OVC210 20/17 A3007 RMK SC4CI3 SLP183

CYYG;2008-09-28 19:00;CYYG 281900Z 16009KT 15SM BKN050 BKN200 OVC250 21/16 A3006 RMK SC5CI2CI1 SLP178

CYYG;2008-09-28 20:00;CYYG 282000Z 16012G17KT 15SM FEW040 SCT055 OVC160 20/15 A3004 RMK SC2SC2AC4 SLP174

CYYG;2008-09-28 21:00;CYYG 282100Z 15007KT 15SM FEW050 BKN140 OVC210 19/15 A3002 RMK SC2AC4CI2 SLP167

CYYG;2008-09-28 22:00;CYYG 282200Z 14008KT 15SM FEW050 BKN140 OVC180 19/15 A2999 RMK SC2AC4AC2 SLP157

CYYG;2008-09-28 23:00;CYYG 282300Z 13007KT 15SM SCT030 OVC140 18/16 A2998 RMK SC3AC5 SLP151

CYYG;2008-09-28 23:36;CYYG 282336Z 10009KT 15SM -SHRA SCT022 BKN061 OVC140 18/ RMK SC3SC2AC2

CYYG;2008-09-29 00:00;CYYG 290000Z 11010KT 15SM -SHRA BKN021 OVC041 18/16 A2995 RMK SC5SC3 SLP141

CYYG;2008-09-29 01:00;CYYG 290100Z 10011G20KT 15SM -SHRA BKN026 OVC031 17/17 A2988 RMK SC5SC3 SLP120

CYYG;2008-09-29 02:00;CYYG 290200Z 10015G22KT 10SM -SHRA BKN008 BKN028 OVC043 17/16 A2981 RMK SF5SC2SC2 SLP096

CYYG;2008-09-29 03:00;CYYG 290300Z 11018G26KT 10SM -SHRA BKN009 OVC015 17/16 A2975 RMK SF6SC2 /PRESFR/ SLP075

CYYG;2008-09-29 04:00;CYYG 290400Z 12021G30KT 6SM -SHRA BR BKN009 OVC016 17/16 A2970 RMK SF6SC2 SLP057

CYYG;2008-09-29 05:00;CYYG 290500Z 14018G31KT 10SM -SHRA OVC011 18/17 A2965 RMK SF8 SLP040

CYYG;2008-09-29 06:00;CYYG 290600Z 14019G28KT 8SM -SHRA OVC008 17/17 A2960 RMK SF8 SLP024

CYYG;2008-09-29 07:00;CYYG 290700Z 14022G33KT 10SM -SHRA BKN012 OVC018 17/15 A2953 RMK SF6SC2 /PRESFR/ SLP000

CYYG;2008-09-29 08:00;CYYG 290800Z 15023G36KT 10SM -SHRA BKN008 OVC015 16/15 A2950 RMK SF5SC3 SLP990

CYYG;2008-09-29 08:30;CYYG 290830Z 15023G34KT 10SM OVC010 16/ RMK SF8

CYYG;2008-09-29 09:00;CYYG 290900Z 16025G30KT 8SM -SHRA OVC008 16/15 A2949 RMK SF8 SLP987

CYYG;2008-09-29 10:00;CYYG 291000Z 19025G31KT 2SM -SHRA BR BKN007 OVC026 15/15 A2951 RMK SF6SC2 SLP994

CYYG;2008-09-29 11:00;CYYG 291100Z 20023G28KT 2SM -SHRA BR OVC007 16/16 A2954 RMK SF8 SLP004

CYYG;2008-09-29 11:48;CYYG 291148Z 21018G24KT 3SM -RA BR OVC010 16/ RMK SF8

CYYG;2008-09-29 12:00;CYYG 291200Z 21022G28KT 3SM -RA BR OVC010 16/16 A2959 RMK SF8 SLP019

CYYG;2008-09-29 13:00;CYYG 291300Z 22017G25KT 3SM -RA BR SCT004 OVC010 16/16 A2963 RMK SF3SF5 SLP033

CYYG;2008-09-29 13:37;CYYG 291337Z 23015G21KT 3SM -RA BR OVC006 16/ RMK SF8

CYYG;2008-09-29 14:00;CYYG 291400Z 23016G24KT 3SM -RA BR OVC006 16/16 A2966 RMK SF8 SLP044

CYYG;2008-09-29 14:29;CYYG 291429Z 25014G21KT 5SM -DZ BR OVC006 16/ RMK SF8

CYYG;2008-09-29 14:41;CYYG 291441Z 25015G22KT 10SM -DZ OVC009 16/ RMK SF8

CYYG;2008-09-29 15:00;CYYG 291500Z 25014G22KT 12SM -DZ OVC008 16/15 A2969 RMK SF8 SLP053

CYYG;2008-09-29 15:19;CYYG 291519Z 25017G22KT 15SM OVC011 15/ RMK SC8

CYYG;2008-09-29 16:00;CYYG 291600Z 27015G24KT 15SM OVC010 15/14 A2971 RMK SC8 SLP063

CYYG;2008-09-29 17:00;CYYG 291700Z 26013G22KT 15SM BKN009 15/14 A2974 RMK SC7 SLP070

CYYG;2008-09-29 18:00;CYYG 291800Z 27012G17KT 15SM OVC012 15/14 A2976 RMK SC8 SLP077

CYYG;2008-09-29 18:10;CYYG 291810Z 27012KT 15SM -SHRA BKN012 15/ RMK SC7

CYYG;2008-09-29 19:00;CYYG 291900Z 29015G22KT 15SM -SHRA BKN014 15/13 A2977 RMK SC7 SLP083

CYYG;2008-09-29 19:44;CYYG 291944Z 30011G17KT 15SM -DZ BKN012 14/ RMK SC7 VIS LWR NW-E

CYYG;2008-09-29 20:00;CYYG 292000Z 31012G19KT 15SM -DZ OVC013 14/12 A2979 RMK SC8 SLP089

CYYG;2008-09-29 21:00;CYYG 292100Z 29009G15KT 15SM -DZ BKN016 14/12 A2981 RMK SC7 SLP096

CYYG;2008-09-29 21:43;CYYG 292143Z 31010KT 15SM OVC017 14/ RMK SC8

CYYG;2008-09-29 22:00;CYYG 292200Z 31009G18KT 15SM BKN015 14/12 A2983 RMK SC7 SLP101

CYYG;2008-09-29 23:00;CYYG 292300Z 30010KT 15SM OVC013 13/11 A2984 RMK SC8 SLP104

CYYG;2008-09-30 00:00;CYYG 300000Z 31006KT 15SM OVC013 13/12 A2985 RMK SC8 SLP109

CYYG;2008-09-30 00:14;CYYG 300014Z 31004KT 15SM -SHRA OVC010 12/ RMK SF8

CYYG;2008-09-30 01:00;CYYG 300100Z 30006KT 15SM -SHRA OVC011 12/12 A2985 RMK SF8 SLP110

CYYG;2008-09-30 02:00;CYYG 300200Z 31008KT 15SM -SHRA OVC009 12/12 A2985 RMK SF8 SLP109

CYYG;2008-09-30 03:00;CYYG 300300Z 31005KT 15SM -SHRA OVC009 12/11 A2985 RMK SF8 SLP108

CYYG;2008-09-30 04:00;CYYG 300400Z 29008KT 10SM -SHRA OVC009 11/11 A2985 RMK SF8 SLP109

CYYG;2008-09-30 05:00;CYYG 300500Z 29006KT 10SM -SHRA BKN008 OVC014 11/11 A2985 RMK SF6SC2 SLP110

CYYG;2008-09-30 06:00;CYYG 300600Z 29007KT 10SM -SHRA OVC010 11/11 A2985 RMK SF8 SLP109

CYYG;2008-09-30 07:00;CYYG 300700Z 29006KT 10SM -SHRA OVC007 11/11 A2985 RMK SF8 SLP109

CYYG;2008-09-30 08:00;CYYG 300800Z 29006KT 8SM -SHRA BKN007 OVC020 11/11 A2986 RMK SF6SC2 SLP111

CYYG;2008-09-30 08:46;CYYG 300846Z 29006KT 10SM -DZ BKN007 OVC018 11/ RMK SF5SC3

CYYG;2008-09-30 09:00;CYYG 300900Z 29005KT 10SM -DZ BKN007 OVC018 11/11 A2986 RMK SF5SC3 SLP112

CYYG;2008-09-30 09:21;CYYG 300921Z 29005KT 6SM -DZ BR BKN005 OVC011 11/ RMK SF5SF3

CYYG;2008-09-30 10:00;CYYG 301000Z 29006KT 5SM -DZ BR BKN005 OVC010 10/10 A2986 RMK SF6SF2 SLP113

CYYG;2008-09-30 10:40;CYYG 301040Z 28007KT 2SM -DZ BR OVC003 10/ RMK SF8

CYYG;2008-09-30 11:00;CYYG 301100Z 29008KT 3SM -DZ BR OVC005 10/10 A2987 RMK SF8 SLP116

CYYG;2008-09-30 11:47;CYYG 301147Z 31007KT 3SM -DZ BR SCT005 OVC012 11/ RMK SF4SF4

CYYG;2008-09-30 12:00;CYYG 301200Z 32009KT 2SM -DZ BR SCT003 BKN008 BKN120 11/11 A2987 RMK SF4SF2AC1 SLP117

CYYG;2008-09-30 13:00;CYYG 301300Z 32010G16KT 5SM -DZ BR BKN006 BKN029 12/11 A2988 RMK SF6SC2 SLP119

CYYG;2008-09-30 14:00;CYYG 301400Z 31009G17KT 3SM -DZ BR BKN006 BKN017 BKN028 12/11 A2989 RMK SF5SC2SC1 SLP121

CYYG;2008-09-30 15:00;CYYG 301500Z 32011KT 5SM -DZ BR BKN007 BKN029 12/11 A2988 RMK SF6SC2 SLP119

CYYG;2008-09-30 16:00;CYYG 301600Z 33011G16KT 10SM -DZ SCT009 BKN037 11/10 A2987 RMK SF3SC4 SLP115

CYYG;2008-09-30 16:39;CYYG 301639Z 34011G16KT 10SM -DZ BKN008 OVC027 11/ RMK SF6SC2

CYYG;2008-09-30 17:00;CYYG 301700Z 34012KT 5SM -DZ BR BKN007 OVC017 11/10 A2987 RMK SF6SC2 SLP116

CYYG;2008-09-30 18:00;CYYG 301800Z 34012KT 10SM -DZ BKN009 BKN027 12/10 A2986 RMK SF6SC2 SLP113

CYYG;2008-09-30 19:00;CYYG 301900Z 33010G16KT 10SM -DZ BKN007 BKN027 11/10 A2986 RMK SF5SC2 VIS NW-N 2 SLP113

CYYG;2008-09-30 20:00;CYYG 302000Z 32009KT 10SM -DZ BKN009 OVC019 11/10 A2987 RMK SF5SC3 VIS NW-E 3 SLP114

CYYG;2008-09-30 20:25;CYYG 302025Z 33010KT 15SM -DZ FEW007 SCT031 BKN250 11/ RMK SF2SC2CI0 VIS NW-E 3

CYYG;2008-09-30 20:39;CYYG 302039Z 33010KT 5SM -DZ BR BKN008 BKN130 10/ RMK SF5AC2 VIS SE 15

CYYG;2008-09-30 21:00;CYYG 302100Z 34006KT 5SM -DZ BR BKN009 10/10 A2986 RMK SF7 SLP114

CYYG;2008-09-30 22:00;CYYG 302200Z 32005KT 10SM -DZ BKN007 BKN028 10/09 A2986 RMK SF6SC2 SLP114

CYYG;2008-09-30 23:00;CYYG 302300Z 30003KT 10SM -DZ SCT007 OVC019 10/10 A2987 RMK SF4SC4 SLP117

CYYG;2008-10-01 01:00;CYYG 010100Z 29003KT 15SM BKN020 10/09 A2987 RMK SC7 SLP115

CYYG;2008-10-01 02:00;CYYG 010200Z 31003KT 12SM OVC013 10/09 A2987 RMK SC8 SLP116

CYYG;2008-10-01 02:25;CYYG 010225Z 26003KT 10SM -DZ FEW008 BKN017 OVC025 10/ RMK SF2SC3SC3

CYYG;2008-10-01 02:47;CYYG 010247Z 25005KT 15SM FEW008 BKN021 10/ RMK SF1SC5

CYYG;2008-10-01 03:00;CYYG 010300Z 27002KT 15SM FEW008 BKN023 09/09 A2987 RMK SF1SC6 SLP117

CYYG;2008-10-01 04:00;CYYG 010400Z 27003KT 15SM SCT020 09/08 A2985 RMK SC4 SLP110

CYYG;2008-10-01 05:00;CYYG 010500Z 26006KT 15SM FEW020 08/08 A2986 RMK SC2 SLP112

CYYG;2008-10-01 06:00;CYYG 010600Z 28005KT 15SM FEW020 07/07 A2985 RMK SC1 SLP108

CYYG;2008-10-01 07:00;CYYG 010700Z 27004KT 15SM FEW030 08/08 A2983 RMK SC2 SLP104

CYYG;2008-10-01 08:00;CYYG 010800Z 29004KT 15SM BKN026 09/08 A2982 RMK SC6 SLP101

CYYG;2008-10-01 09:00;CYYG 010900Z 27004KT 15SM BKN022 09/08 A2983 RMK SC6 SLP103

CYYG;2008-10-01 10:00;CYYG 011000Z 00000KT 15SM SCT021 BKN150 BKN280 08/08 A2983 RMK SC4AC2CI0 SLP103

CYYG;2008-10-01 11:00;CYYG 011100Z 27004KT 15SM SCT021 BKN150 BKN280 09/09 A2984 RMK SC4AC2CI0 SLP107

CYYG;2008-10-01 12:00;CYYG 011200Z 28005KT 15SM SCT021 BKN150 BKN280 11/10 A2984 RMK SC4AC2CI0 SLP106

CYYG;2008-10-01 13:00;CYYG 011300Z 31004KT 15SM SCT025 BKN150 BKN280 13/11 A2984 RMK SC4AC2CI0 SLP105

CYYG;2008-10-01 14:00;CYYG 011400Z 29006KT 15SM SCT025 BKN280 13/10 A2984 RMK SC4CI2 SLP104

CYYG;2008-10-01 15:00;CYYG 011500Z 27002KT 15SM BKN021 BKN280 14/09 A2982 RMK SC5CI2 SLP099

CYYG;2008-10-01 16:00;CYYG 011600Z 23007KT 15SM BKN022 OVC280 13/11 A2982 RMK SC6CI2 SLP098

CYYG;2008-10-01 17:00;CYYG 011700Z 27005KT 15SM BKN024 14/10 A2980 RMK SC7 SLP092

CYYG;2008-10-01 18:00;CYYG 011800Z 25007KT 15SM BKN021 13/10 A2979 RMK SC7 SLP090

CYYG;2008-10-01 19:00;CYYG 011900Z 25006KT 15SM BKN023 13/10 A2979 RMK SC7 SLP090

CYYG;2008-10-01 20:00;CYYG 012000Z 21004KT 15SM BKN025 BKN280 14/09 A2979 RMK SC5CI1 SLP089

CYYG;2008-10-01 21:00;CYYG 012100Z CCA 17005KT 15SM FEW025 SCT092 14/09 A2979 RMK SC2AC2 SLP087

CYYG;2008-10-01 22:00;CYYG 012200Z 15003KT 15SM FEW090 12/09 A2980 RMK AC2 SLP091

CYYG;2008-10-01 23:00;CYYG 012300Z 15003KT 15SM FEW090 10/08 A2979 RMK AC1 SLP088

CYYG;2008-10-02 00:00;CYYG 020000Z 18004KT 15SM FEW090 10/09 A2979 RMK AC1 SLP090

CYYG;2008-10-02 01:00;CYYG 020100Z 14005KT 15SM FEW090 09/08 A2979 RMK AC1 SLP087

CYYG;2008-10-02 02:00;CYYG 020200Z 15004KT 15SM FEW090 09/09 A2977 RMK AC1 SLP082

CYYG;2008-10-02 03:00;CYYG 020300Z 16004KT 15SM FEW030 09/09 A2977 RMK SC1 SLP081

CYYG;2008-10-02 04:00;CYYG 020400Z 18005KT 15SM FEW030 09/09 A2975 RMK SC1 SLP075

CYYG;2008-10-02 05:00;CYYG 020500Z 19005KT 15SM FEW025 10/09 A2974 RMK SC1 SLP073

CYYG;2008-10-02 06:00;CYYG 020600Z 21005KT 15SM SCT012 11/11 A2974 RMK SC4 SLP070

CYYG;2008-10-02 07:00;CYYG 020700Z 19005KT 15SM FEW012 10/09 A2972 RMK SC2 SLP066

CYYG;2008-10-02 08:00;CYYG 020800Z 16006KT 15SM FEW011 10/10 A2971 RMK SC2 SLP060

CYYG;2008-10-02 09:00;CYYG 020900Z 17008KT 15SM FEW010 10/10 A2969 RMK SC2 SLP056

CYYG;2008-10-02 10:00;CYYG 021000Z 16008KT 12SM BKN013 10/10 A2968 RMK SC5 SLP050

CYYG;2008-10-02 11:00;CYYG 021100Z 16010KT 15SM BKN014 12/11 A2967 RMK SC7 SLP047

CYYG;2008-10-02 12:00;CYYG 021200Z 17013G18KT 15SM OVC011 12/11 A2965 RMK SC8 SLP040

CYYG;2008-10-02 13:00;CYYG 021300Z 18015G20KT 15SM OVC009 12/11 A2964 RMK SC8 SLP039

CYYG;2008-10-02 14:00;CYYG 021400Z 15015G21KT 15SM OVC011 13/11 A2959 RMK SC8 SLP021

CYYG;2008-10-02 15:00;CYYG 021500Z 16015G21KT 15SM BKN013 OVC095 13/11 A2958 RMK SC6AC2 SLP017

CYYG;2008-10-02 15:03;CYYG 021503Z 16015G21KT 15SM -SHRA BKN013 OVC095 13/ RMK SC6AC2

CYYG;2008-10-02 16:00;CYYG 021600Z 16011G17KT 15SM -SHRA OVC013 14/12 A2955 RMK SC8 SLP007

CYYG;2008-10-02 17:00;CYYG 021700Z 15013G22KT 15SM -SHRA BKN013 OVC022 14/12 A2948 RMK SC5SC3 PRESFR SLP984

CYYG;2008-10-02 18:00;CYYG 021800Z 15018KT 15SM SCT015 BKN100 OVC120 15/12 A2942 RMK SC4AC2AC2 PRESFR OCNL -SHRA SLP962

CYYG;2008-10-02 19:00;CYYG 021900Z 16022G28KT 12SM -SHRA OVC012 15/13 A2937 RMK SC8 SLP947

CYYG;2008-10-02 19:11;CYYG 021911Z 15019G26KT 3SM SHRA BR BKN009 OVC015 15/ RMK SF7SC1

CYYG;2008-10-02 20:00;CYYG 022000Z 16017G28KT 10SM -SHRA BKN007 OVC015 14/14 A2934 RERA RMK SF7SC1 PRESFR SLP936

CYYG;2008-10-02 20:43;CYYG 022043Z 16017G26KT 5SM -SHRA BR FEW007 BKN036 OVC085 15/ RERA RMK SF2SC5AC1

CYYG;2008-10-02 20:50;CYYG 022050Z 16016G21KT 2 1/2SM +SHRA BR SCT007 BKN018 OVC037 15/ RMK SF3SC4SC1

CYYG;2008-10-02 21:00;CYYG 022100Z 16017G22KT 3SM SHRA BR FEW007 OVC020 15/14 A2931 RERA RMK SF2SC6 SLP927

CYYG;2008-10-02 21:17;CYYG 022117Z 20013G21KT 15SM -SHRA BKN008 OVC020 15/ RERA RMK SF6SC2

CYYG;2008-10-02 21:41;CYYG 022141Z 17016KT 15SM VCSH FEW008 SCT012 15/ RMK SF1SC2 TCU ASOCTD

CYYG;2008-10-02 22:00;CYYG 022200Z 18017G22KT 15SM VCSH FEW009 SCT022 BKN040 15/15 A2930 RMK SF2SC2SC2 TCU ASOCTD SLP923

CYYG;2008-10-02 22:08;CYYG 022208Z 19018G24KT 15SM -SHRA BKN010 BKN098 16/ RMK SC5AC2 TCU ASOCTD

CYYG;2008-10-02 23:00;CYYG 022300Z 24016G29KT 15SM -SHRA SCT012 BKN020 15/12 A2937 RMK SC3SC4 PRESRR SLP947

CYYG;2008-10-02 23:55;CYYG 022355Z 23019G27KT 15SM FEW012 BKN021 14/ RMK SC2SC6

CYYG;2008-10-03 00:00;CYYG 030000Z 22022G30KT 15SM FEW012 BKN021 14/11 A2939 RMK SC2SC6 SLP953

CYYG;2008-10-03 01:00;CYYG 030100Z 23016G26KT 15SM FEW014 BKN023 OVC051 14/11 A2943 RMK SC2SC6SC1 SLP966

CYYG;2008-10-03 02:00;CYYG 030200Z 24015G26KT 15SM FEW020 SCT040 13/10 A2947 RMK SC2SC2 SLP980

CYYG;2008-10-03 03:00;CYYG 030300Z 25011G21KT 15SM FEW020 SCT032 12/09 A2951 RMK SC1SC2 SLP995

CYYG;2008-10-03 04:00;CYYG 030400Z 25012G24KT 15SM BKN026 12/09 A2955 RMK SC5 SLP007

CYYG;2008-10-03 05:00;CYYG 030500Z 26012G21KT 15SM SCT025 11/07 A2958 RMK SC4 SLP017

CYYG;2008-10-03 06:00;CYYG 030600Z 25013KT 15SM FEW025 11/06 A2961 RMK SC2 SLP027

CYYG;2008-10-03 07:00;CYYG 030700Z 25011KT 15SM FEW025 10/06 A2963 RMK SC1 SLP036

CYYG;2008-10-03 08:00;CYYG 030800Z 24010G15KT 15SM FEW025 09/05 A2966 RMK SC1 SLP046

CYYG;2008-10-03 09:00;CYYG 030900Z 25010G16KT 15SM FEW025 09/04 A2971 RMK SC1 SLP060

CYYG;2008-10-03 10:00;CYYG 031000Z 25007KT 15SM FEW025 08/04 A2973 RMK SC1 SLP069

CYYG;2008-10-03 11:00;CYYG 031100Z 23008KT 15SM FEW025 08/04 A2977 RMK SC1 SLP080

CYYG;2008-10-03 12:00;CYYG 031200Z 24012G17KT 15SM FEW025 10/05 A2979 RMK SC1 SLP090

CYYG;2008-10-03 13:00;CYYG 031300Z 24011G16KT 15SM FEW025 11/04 A2981 RMK SC1 SLP096

CYYG;2008-10-03 14:00;CYYG 031400Z 22017G22KT 15SM FEW025 12/05 A2982 RMK SC1 SLP098

CYYG;2008-10-03 15:00;CYYG 031500Z 22016G22KT 15SM FEW025 12/05 A2981 RMK CF1 SLP095

CYYG;2008-10-03 16:00;CYYG 031600Z 22016G24KT 15SM FEW025 14/06 A2979 RMK CF1 SLP090

CYYG;2008-10-03 17:00;CYYG 031700Z 21018KT 15SM FEW044 FEW250 15/05 A2979 RMK CF1CI1 SLP089

CYYG;2008-10-03 18:00;CYYG 031800Z 22014G21KT 15SM FEW044 FEW250 16/07 A2978 RMK CF1CI1 SLP085

CYYG;2008-10-03 19:00;CYYG 031900Z 23015G27KT 15SM SCT060 SCT250 16/05 A2976 RMK SC3CI1 SLP077

CYYG;2008-10-03 20:00;CYYG 032000Z 22012G20KT 15SM SCT070 BKN250 16/06 A2972 RMK AC3CI1 SLP066

CYYG;2008-10-03 21:00;CYYG 032100Z 20013G18KT 15SM FEW050 SCT074 BKN250 15/08 A2970 RMK SC2AC2CI1 SLP059

CYYG;2008-10-03 22:00;CYYG 032200Z 20019G27KT 15SM BKN058 BKN080 15/08 A2968 RMK SC6AC2 SLP052

CYYG;2008-10-03 22:32;CYYG 032232Z 20018G25KT 15SM -SHRA FEW035 BKN055 BKN080 14/ RMK SC2SC4AC2

CYYG;2008-10-03 23:00;CYYG 032300Z 21019G24KT 15SM FEW035 BKN057 14/09 A2967 RMK SC2SC6 -SHRA SLP048

CYYG;2008-10-04 00:00;CYYG 040000Z 22013G20KT 12SM -SHRA FEW032 OVC050 13/10 A2966 RMK SC2SC6 SLP044

CYYG;2008-10-04 00:21;CYYG 040021Z 22016G37KT 12SM -TSRA BKN011 OVC048 09/ RMK SC5SC3 RERA

CYYG;2008-10-04 00:24;CYYG 040024Z CCA 22016G37KT 12SM -TSRA BKN011 OVC048 09/ RMK SC5SC3 CB ASOCTD RERA

CYYG;2008-10-04 00:48;CYYG 040048Z 23014G19KT 15SM -SHRA SCT035 OVC056 10/ RETSRA RMK SC3SC5

CYYG;2008-10-04 01:00;CYYG 040100Z 24011G18KT 15SM -SHRA BKN020 OVC050 11/10 A2966 RERA RMK SC5SC3 SLP046

CYYG;2008-10-04 02:00;CYYG 040200Z 25008KT 15SM -SHRA FEW012 SCT050 OVC120 09/08 A2969 RMK SC2SC2AC5 PCPN VRY LGT SLP056

CYYG;2008-10-04 03:00;CYYG 040300Z 26011G20KT 15SM SCT140 09/06 A2972 RMK AC3 SLP065

CYYG;2008-10-04 04:00;CYYG 040400Z 25012G18KT 15SM FEW140 09/06 A2973 RMK AC2 SLP069

CYYG;2008-10-04 05:00;CYYG 040500Z 27013G20KT 15SM SKC 09/04 A2975 RMK SLP075

CYYG;2008-10-04 06:00;CYYG 040600Z 26013G21KT 15SM SKC 08/03 A2976 RMK SLP079

CYYG;2008-10-04 07:00;CYYG 040700Z 25015KT 15SM SKC 09/03 A2977 RMK SLP080

CYYG;2008-10-04 08:00;CYYG 040800Z 26015G26KT 15SM SKC 09/03 A2977 RMK SLP080

CYYG;2008-10-04 09:00;CYYG 040900Z 26014G21KT 15SM SKC 08/03 A2978 RMK SLP086

CYYG;2008-10-04 10:00;CYYG 041000Z 25016KT 15SM BKN038 08/03 A2980 RMK SC6 SLP091

CYYG;2008-10-04 11:00;CYYG 041100Z 26017G22KT 15SM BKN029 08/03 A2982 RMK SC7 SLP099

CYYG;2008-10-04 12:00;CYYG 041200Z 26014G21KT 15SM BKN028 08/03 A2984 RMK SC7 SLP106

CYYG;2008-10-04 13:00;CYYG 041300Z 26013G20KT 15SM BKN027 09/04 A2985 RMK SC7 SLP110

CYYG;2008-10-04 14:00;CYYG 041400Z 25012G17KT 15SM BKN025 09/05 A2987 RMK SC7 SLP114

CYYG;2008-10-04 15:00;CYYG 041500Z 26012G19KT 15SM BKN027 10/05 A2987 RMK SC7 SLP117

CYYG;2008-10-04 16:00;CYYG 041600Z 26013G19KT 15SM BKN028 11/05 A2988 RMK SC6 SLP121

CYYG;2008-10-04 17:00;CYYG 041700Z 25016G22KT 15SM BKN030 12/06 A2988 RMK SC7 SLP121

CYYG;2008-10-04 18:00;CYYG 041800Z 26010G18KT 15SM BKN033 12/06 A2989 RMK SC7 SLP124

CYYG;2008-10-04 19:00;CYYG 041900Z 26012G18KT 15SM BKN033 BKN042 12/05 A2990 RMK SC6SC2 SLP128

CYYG;2008-10-04 20:00;CYYG 042000Z 27011G17KT 15SM BKN039 11/06 A2992 RMK SC7 SLP132

CYYG;2008-10-04 21:00;CYYG 042100Z 25011G16KT 15SM BKN040 11/05 A2992 RMK SC7 SLP134

CYYG;2008-10-04 22:00;CYYG 042200Z 26008KT 15SM BKN042 11/05 A2994 RMK SC7 SLP139

CYYG;2008-10-04 23:00;CYYG 042300Z 26006KT 15SM BKN035 11/06 A2995 RMK SC7 SLP143

CYYG;2008-10-05 00:00;CYYG 050000Z 26007KT 15SM FEW030 BKN042 11/06 A2996 RMK SC2SC6 SLP146

CYYG;2008-10-05 01:00;CYYG 050100Z 27007KT 15SM OVC048 10/06 A2997 RMK SC8 SLP149

CYYG;2008-10-05 02:00;CYYG 050200Z 26008KT 15SM BKN046 10/07 A2998 RMK SC7 SLP154

CYYG;2008-10-05 03:00;CYYG 050300Z 28009KT 15SM BKN043 10/07 A2999 RMK SC7 SLP156

CYYG;2008-10-05 04:00;CYYG 050400Z 28009G16KT 15SM BKN041 09/07 A3000 RMK SC7 SLP161

CYYG;2008-10-05 05:00;CYYG 050500Z 28009KT 15SM BKN041 09/07 A3001 RMK SC7 SLP165

CYYG;2008-10-05 06:00;CYYG 050600Z 29007KT 15SM BKN051 08/07 A3004 RMK SC7 SLP172

CYYG;2008-10-05 07:00;CYYG 050700Z 28007KT 15SM BKN047 09/07 A3005 RMK SC7 SLP177

CYYG;2008-10-05 08:00;CYYG 050800Z 27006KT 15SM FEW020 BKN047 08/06 A3006 RMK SC2SC5 SLP181

CYYG;2008-10-05 09:00;CYYG 050900Z 28007KT 15SM FEW020 SCT047 07/06 A3008 RMK SC2SC2 SLP187

CYYG;2008-10-05 10:00;CYYG 051000Z 28007KT 15SM FEW020 07/06 A3010 RMK SC2 SLP195

CYYG;2008-10-05 11:00;CYYG 051100Z 27007KT 15SM FEW020 07/06 A3013 RMK SC2 SLP203

CYYG;2008-10-05 12:00;CYYG 051200Z 29007KT 15SM BKN019 08/07 A3014 RMK SC5 SLP206

CYYG;2008-10-05 13:00;CYYG 051300Z 29009KT 15SM BKN015 09/06 A3015 RMK SC6 SLP211

CYYG;2008-10-05 14:00;CYYG 051400Z 31007KT 15SM BKN019 BKN250 10/06 A3017 RMK SC5CI0 SLP217

CYYG;2008-10-05 15:00;CYYG 051500Z 30009KT 15SM SCT023 BKN250 11/07 A3017 RMK SC4CI0 SLP216

CYYG;2008-10-05 16:00;CYYG 051600Z 29009KT 15SM FEW027 SCT250 12/06 A3016 RMK SC2CI0 SLP214

CYYG;2008-10-05 17:00;CYYG 051700Z 28010G15KT 15SM SCT027 12/06 A3015 RMK SC4 SLP212

CYYG;2008-10-05 18:00;CYYG 051800Z 29008KT 15SM SCT027 BKN039 11/06 A3015 RMK CU3SC2 SLP212

CYYG;2008-10-05 19:00;CYYG 051900Z 29010KT 15SM SCT030 12/05 A3016 RMK SC4 SLP214

CYYG;2008-10-05 20:00;CYYG 052000Z 29009KT 15SM FEW028 BKN047 BKN250 11/05 A3017 RMK CU2SC3CI0 SLP217

CYYG;2008-10-05 21:00;CYYG 052100Z 32002KT 15SM FEW028 SCT040 BKN250 10/06 A3017 RMK CU1SC2CI2 SLP219

CYYG;2008-10-05 22:00;CYYG 052200Z 36002KT 15SM FEW028 BKN059 BKN250 09/06 A3017 RMK CU1SC5CI2 SLP219

CYYG;2008-10-05 23:00;CYYG 052300Z 00000KT 15SM FEW019 BKN048 09/06 A3018 RMK SC2SC5 SLP221

CYYG;2008-10-05 23:38;CYYG 052338Z 23004KT 12SM -SHRA FEW018 OVC039 09/ RMK SC2SC6

CYYG;2008-10-06 00:00;CYYG 060000Z 24004KT 12SM -SHRA FEW018 OVC038 09/07 A3019 RMK SC2SC6 SLP225

CYYG;2008-10-06 01:00;CYYG 060100Z 27004KT 12SM -SHRA FEW018 OVC040 09/07 A3018 RMK SC2SC6 SLP222

CYYG;2008-10-06 01:26;CYYG 060126Z 27005KT 15SM FEW018 OVC040 09/ RMK SC2SC6

CYYG;2008-10-06 02:00;CYYG 060200Z 24004KT 15SM OVC045 08/07 A3018 RMK SC8 SLP222

CYYG;2008-10-06 03:00;CYYG 060300Z 28004KT 15SM OVC060 08/07 A3017 RMK SC8 SLP216

CYYG;2008-10-06 04:00;CYYG 060400Z 27005KT 15SM OVC068 08/07 A3017 RMK AC8 SLP217

CYYG;2008-10-06 05:00;CYYG 060500Z 23004KT 15SM OVC070 08/06 A3017 RMK AC8 SLP219

CYYG;2008-10-06 06:00;CYYG 060600Z 27005KT 15SM BKN075 07/05 A3017 RMK AC7 SLP216

CYYG;2008-10-06 07:00;CYYG 060700Z 28004KT 15SM BKN080 06/04 A3015 RMK AC7 SLP211

CYYG;2008-10-06 08:00;CYYG 060800Z 26005KT 15SM BKN080 06/04 A3015 RMK AC6 SLP212

CYYG;2008-10-06 09:00;CYYG 060900Z 28004KT 15SM SCT080 05/04 A3015 RMK AC4 SLP211

CYYG;2008-10-06 10:00;CYYG 061000Z 28005KT 15SM FEW030 SCT080 05/04 A3015 RMK SC1AC2 SLP211

CYYG;2008-10-06 11:00;CYYG 061100Z 26005KT 15SM FEW030TCU 06/04 A3016 RMK TCU2 TCU SE-SW SLP213

CYYG;2008-10-06 12:00;CYYG 061200Z 26005KT 15SM FEW030TCU FEW040 07/05 A3015 RMK TCU1SC1 TCU N-NE AND SE SLP212

CYYG;2008-10-06 13:00;CYYG 061300Z 29010KT 15SM FEW018 FEW040 08/05 A3015 RMK CF2SC1 SLP210

CYYG;2008-10-06 14:00;CYYG 061400Z 29011KT 15SM FEW018 FEW040 09/04 A3013 RMK CF1SC1 SLP205

CYYG;2008-10-06 15:00;CYYG 061500Z 30009KT 15SM FEW030 FEW100 11/03 A3013 RMK CU2AC1 SLP204

CYYG;2008-10-06 16:00;CYYG 061600Z 31010KT 15SM SCT036 SCT100 11/04 A3012 RMK CU3AC1 SLP200

CYYG;2008-10-06 17:00;CYYG 061700Z 26011G17KT 15SM FEW032TCU BKN073 11/03 A3010 RMK TCU2AC2 SLP193

CYYG;2008-10-06 18:00;CYYG 061800Z 29010G15KT 15SM FEW037TCU SCT077 10/02 A3009 RMK TCU2AC2 SLP191

CYYG;2008-10-06 19:00;CYYG 061900Z 29011KT 15SM FEW038 FEW077 11/03 A3009 RMK CU2AC1 SLP189

CYYG;2008-10-06 20:00;CYYG 062000Z 29010KT 15SM FEW038 FEW077 SCT250 10/02 A3009 RMK CU2AC1CI1 SLP189

CYYG;2008-10-06 21:00;CYYG 062100Z 31006KT 15SM FEW035 FEW060 SCT250 09/03 A3009 RMK CF1SC1CI1 SLP191

CYYG;2008-10-06 22:00;CYYG 062200Z 29004KT 15SM FEW035 FEW060 FEW250 07/03 A3009 RMK CF1SC1CI1 SLP190

CYYG;2008-10-06 23:00;CYYG 062300Z 29003KT 15SM FEW035 BKN060 06/03 A3009 RMK SC2SC2 SLP190

CYYG;2008-10-07 00:00;CYYG 070000Z 28005KT 15SM FEW035 BKN064 07/03 A3008 RMK SC2SC2 SLP188

CYYG;2008-10-07 01:00;CYYG 070100Z 30006KT 15SM SCT060 07/03 A3007 RMK SC4 SLP185

CYYG;2008-10-07 02:00;CYYG 070200Z 30007KT 15SM SCT060 07/03 A3006 RMK SC4 SLP181

CYYG;2008-10-07 03:00;CYYG 070300Z 30006KT 15SM SCT060 06/03 A3004 RMK SC4 SLP175

CYYG;2008-10-07 04:00;CYYG 070400Z 27007KT 15SM FEW028 SCT060 06/03 A3003 RMK SC2SC2 SLP171

CYYG;2008-10-07 05:00;CYYG 070500Z 27005KT 15SM FEW025 BKN088 06/04 A3002 RMK SC2AC4 SLP167

CYYG;2008-10-07 06:00;CYYG 070600Z 29007KT 15SM FEW025 BKN090 07/05 A3000 RMK SC2AC5 SLP160

CYYG;2008-10-07 07:00;CYYG 070700Z 29007KT 15SM FEW025 OVC100 07/05 A2998 RMK SC2AC6 SLP153

CYYG;2008-10-07 08:00;CYYG 070800Z 28007KT 15SM SCT030 OVC100 07/05 A2997 RMK SC4AC4 SLP150

CYYG;2008-10-07 09:00;CYYG 070900Z 29006KT 15SM FEW030 OVC050 07/05 A2997 RMK SC2SC6 SLP149

CYYG;2008-10-07 09:20;CYYG 070920Z 31005KT 10SM -SHRA OVC030 07/ RMK SC8

CYYG;2008-10-07 09:30;CYYG 070930Z 30004KT 12SM OVC038 07/ RMK SC8

CYYG;2008-10-07 10:00;CYYG 071000Z 31004KT 15SM BKN039 07/06 A2996 RMK SC7 SLP148

CYYG;2008-10-07 11:00;CYYG 071100Z 32004KT 15SM BKN034 BKN047 07/04 A2997 RMK SC5SC2 SLP150

CYYG;2008-10-07 11:28;CYYG 071128Z 34007KT 12SM -SHRA OVC033 08/ RMK SC8

CYYG;2008-10-07 12:00;CYYG 071200Z 35007KT 15SM -SHRA OVC030 07/05 A2998 RMK SC8 SLP153

CYYG;2008-10-07 13:00;CYYG 071300Z 35012KT 12SM -SHRA OVC028 07/05 A2998 RMK SC8 SLP153

CYYG;2008-10-07 14:00;CYYG 071400Z 35011G16KT 15SM SCT028 BKN056 08/05 A2997 RMK SC3SC3 SLP150

CYYG;2008-10-07 14:30;CYYG 071430Z 34015G20KT 15SM SHRA BKN023 BKN055 08/ RMK SC6SC2

CYYG;2008-10-07 15:00;CYYG 071500Z 33012G20KT 15SM -SHRA BKN022 BKN200 07/06 A2996 RMK SC6CI1 SLP148

CYYG;2008-10-07 15:42;CYYG 071542Z 36016KT 15SM BKN036 BKN057 BKN200 08/ RMK SC5SC2CI1

CYYG;2008-10-07 16:00;CYYG 071600Z 34015G22KT 15SM BKN025 BKN058 09/04 A2996 RMK SC5SC2 SLP145

CYYG;2008-10-07 16:45;CYYG 071645Z 34010G20KT 15SM -SHRA BKN022 BKN058 09/ RMK SC6SC2

CYYG;2008-10-07 17:00;CYYG 071700Z 35015G25KT 15SM -SHRA BKN020 BKN050 08/05 A2994 RMK SC5SC2 SLP140

CYYG;2008-10-07 18:00;CYYG 071800Z 35012G17KT 15SM -SHRA BKN020 BKN050 08/04 A2993 RMK SC5SC2 SLP137

CYYG;2008-10-07 19:00;CYYG 071900Z 34014G21KT 15SM BKN025 BKN048 09/04 A2993 RMK SC5SC2 SLP135

CYYG;2008-10-07 20:00;CYYG 072000Z 34009G17KT 15SM VCSH BKN028 BKN043 09/04 A2992 RMK SC5SC2 SLP132

CYYG;2008-10-07 21:00;CYYG 072100Z 33009KT 15SM VCSH FEW025 BKN044 08/04 A2992 RMK SC2SC5 SLP132

CYYG;2008-10-07 22:00;CYYG 072200Z 31009KT 15SM FEW025 BKN044 08/03 A2992 RMK SC2SC4 SLP134

CYYG;2008-10-07 23:00;CYYG 072300Z 29007KT 15SM FEW035 BKN044 08/04 A2993 RMK SC2SC6 SLP136

CYYG;2008-10-08 00:00;CYYG 080000Z 28006KT 15SM BKN040 07/04 A2992 RMK SC7 SLP133

CYYG;2008-10-08 01:00;CYYG 080100Z 28008KT 15SM SCT040 07/03 A2991 RMK SC4 SLP131

CYYG;2008-10-08 02:00;CYYG 080200Z 28007KT 15SM FEW040 SCT240 06/03 A2990 RMK SC2CI1 SLP127

CYYG;2008-10-08 03:00;CYYG 080300Z 28009KT 15SM BKN240 06/03 A2988 RMK CI5 SLP119

CYYG;2008-10-08 04:00;CYYG 080400Z 28009KT 15SM BKN240 06/03 A2986 RMK CI2 SLP113

CYYG;2008-10-08 05:00;CYYG 080500Z 28009KT 15SM BKN240 07/03 A2985 RMK CI6 SLP110

CYYG;2008-10-08 06:00;CYYG 080600Z 29011KT 15SM OVC240 07/04 A2983 RMK CI8 SLP103

CYYG;2008-10-08 07:00;CYYG 080700Z 29010G15KT 15SM SCT240 07/04 A2981 RMK CI4 SLP097

CYYG;2008-10-08 08:00;CYYG 080800Z 28009KT 15SM FEW240 06/04 A2982 RMK CI1 SLP100

CYYG;2008-10-08 09:00;CYYG 080900Z 29011KT 15SM FEW045 07/04 A2983 RMK SC2 SLP103

CYYG;2008-10-08 10:00;CYYG 081000Z 29011G16KT 15SM FEW035 BKN040 BKN240 06/04 A2985 RMK SC1SC4CI0 SLP108

CYYG;2008-10-08 11:00;CYYG 081100Z 29010KT 15SM FEW025 BKN040 BKN170 07/04 A2987 RMK SC1SC4AC1 SLP115

CYYG;2008-10-08 12:00;CYYG 081200Z 36014G20KT 15SM FEW038 BKN050 09/03 A2991 RMK SC1SC6 SLP129

CYYG;2008-10-08 13:00;CYYG 081300Z 35016G27KT 15SM FEW038 10/02 A2993 RMK SC2 SLP137

CYYG;2008-10-08 14:00;CYYG 081400Z 34013G25KT 15SM FEW040 10/02 A2995 RMK SC2 SLP144

CYYG;2008-10-08 15:00;CYYG 081500Z 34013G25KT 15SM FEW043 11/02 A2996 RMK SC2 SLP145

CYYG;2008-10-08 16:00;CYYG 081600Z 35010G20KT 15SM BKN042 11/02 A2997 RMK SC6 SLP151

CYYG;2008-10-08 17:00;CYYG 081700Z 36010G16KT 15SM FEW030 BKN040 10/04 A2998 RMK SC1SC4 SLP152

CYYG;2008-10-08 18:00;CYYG 081800Z 36009G15KT 15SM SCT040 10/03 A2998 RMK SC3 SLP153

CYYG;2008-10-08 19:00;CYYG 081900Z 34006KT 15SM FEW040 10/04 A2998 RMK SC1 SLP154

CYYG;2008-10-08 20:00;CYYG 082000Z 33003KT 15SM FEW040 10/03 A2998 RMK SC1 SLP153

CYYG;2008-10-08 21:00;CYYG 082100Z 11002KT 15SM FEW040 09/04 A2998 RMK SC1 SLP155

CYYG;2008-10-08 22:00;CYYG 082200Z 13004KT 15SM FEW040 08/03 A2998 RMK SC1 SLP155

CYYG;2008-10-08 23:00;CYYG 082300Z 16004KT 15SM FEW040 07/04 A2999 RMK SC1 SLP156

CYYG;2008-10-09 00:00;CYYG 090000Z 20007KT 15SM FEW120 FEW240 06/03 A2998 RMK AC1CI1 SLP155

CYYG;2008-10-09 01:00;CYYG 090100Z 19009KT 15SM BKN130 09/06 A2996 RMK AC5 SLP147

CYYG;2008-10-09 02:00;CYYG 090200Z 21007KT 15SM FEW120 BKN240 09/07 A2995 RMK AC2CI1 SLP143

CYYG;2008-10-09 03:00;CYYG 090300Z 22006KT 15SM FEW240 09/07 A2993 RMK CI1 SLP138

CYYG;2008-10-09 04:00;CYYG 090400Z 23007KT 15SM FEW240 09/08 A2992 RMK CI1 SLP134

CYYG;2008-10-09 05:00;CYYG 090500Z 23007KT 15SM FEW240 09/08 A2992 RMK CI1 SLP132

CYYG;2008-10-09 06:00;CYYG 090600Z 24005KT 15SM SKC 09/08 A2990 RMK SLP127

CYYG;2008-10-09 07:00;CYYG 090700Z 23008KT 15SM SKC 09/08 A2989 RMK SLP122

CYYG;2008-10-09 08:00;CYYG 090800Z 23007KT 15SM SKC 09/08 A2988 RMK SLP120

CYYG;2008-10-09 09:00;CYYG 090900Z 23008KT 15SM SKC 09/08 A2987 RMK SLP118

CYYG;2008-10-09 10:00;CYYG 091000Z 23007KT 15SM BKN250 09/08 A2987 RMK CI1 SLP117

CYYG;2008-10-09 11:00;CYYG 091100Z 23007KT 15SM BKN250 10/08 A2987 RMK CI2 SLP116

CYYG;2008-10-09 12:00;CYYG 091200Z 22007KT 15SM OVC250 11/09 A2986 RMK CS4 SLP113

CYYG;2008-10-09 13:00;CYYG 091300Z 23012KT 15SM BKN250 12/09 A2986 RMK CS4 SLP113

CYYG;2008-10-09 14:00;CYYG 091400Z 22009KT 15SM SCT200 OVC250 12/10 A2985 RMK CI2CS3 SLP108

CYYG;2008-10-09 15:00;CYYG 091500Z 22013KT 15SM OVC016 13/11 A2984 RMK SC7 SLP104

CYYG;2008-10-09 16:00;CYYG 091600Z 21012KT 15SM FEW013 OVC088 13/11 A2981 RMK SC2AC6 SLP095

CYYG;2008-10-09 16:17;CYYG 091617Z 21009KT 12SM -SHRA FEW013 OVC076 13/ RMK SC2AC6

CYYG;2008-10-09 17:00;CYYG 091700Z 19012KT 12SM -SHRA FEW010 SCT032 OVC075 12/12 A2977 RMK SF2SC2AC5 SLP083

CYYG;2008-10-09 17:09;CYYG 091709Z 19011G16KT 10SM -SHRA BKN007 OVC012 12/ RMK SF5SC3

CYYG;2008-10-09 18:00;CYYG 091800Z 20010G17KT 8SM -SHRA OVC007 12/12 A2975 RMK SF8 SLP075

CYYG;2008-10-09 19:00;CYYG 091900Z 19010G16KT 8SM -SHRA OVC007 12/12 A2972 RMK SF8 SLP066

CYYG;2008-10-09 20:00;CYYG 092000Z 18012KT 2 1/2SM -SHRA BR BKN006 OVC022 12/12 A2969 RMK SF6SC2 SLP056

CYYG;2008-10-09 21:00;CYYG 092100Z 17011KT 1 1/2SM -SHRA BR BKN007 OVC012 11/11 A2968 RMK SF6SF2 SLP051

CYYG;2008-10-09 21:25;CYYG 092125Z 18007KT 1SM R03/P6000FT/U -SHRA BR BKN003 OVC011 11/ RMK SF6SF2

CYYG;2008-10-09 22:00;CYYG 092200Z 18006KT 1SM R03/P6000FT/U -SHRA BR BKN003 OVC014 12/12 A2967 RMK SF6SF2 SLP049

CYYG;2008-10-09 23:00;CYYG 092300Z 23005KT 2 1/2SM -DZ BR OVC003 12/12 A2968 RMK SF8 SLP050

CYYG;2008-10-10 00:00;CYYG 100000Z 26008KT 3SM -DZ BR BKN004 OVC012 13/13 A2969 RMK SF6SC2 SLP053

CYYG;2008-10-10 00:39;CYYG 100039Z 27008G15KT 8SM BKN008 OVC012 13/ RMK SF6SC2

CYYG;2008-10-10 01:00;CYYG 100100Z 26009KT 8SM BKN008 OVC015 13/13 A2970 RMK SF7SC1 SLP058

CYYG;2008-10-10 02:00;CYYG 100200Z 26013KT 12SM BKN011 BKN025 13/12 A2971 RMK SC5SC2 SLP062

CYYG;2008-10-10 03:00;CYYG 100300Z 26010KT 12SM SCT008 BKN025 13/12 A2972 RMK SF3SC2 SLP064

CYYG;2008-10-10 03:24;CYYG 100324Z 25009KT 10SM BKN006 BKN082 13/ RMK SF5AC2

CYYG;2008-10-10 04:00;CYYG 100400Z 25008KT 12SM FEW006 BKN080 13/13 A2971 RMK SF2AC6 SLP060

CYYG;2008-10-10 05:00;CYYG 100500Z 26010KT 15SM FEW110 12/10 A2972 RMK AC2 SLP066

CYYG;2008-10-10 06:00;CYYG 100600Z 27009KT 15SM SKC 12/10 A2973 RMK SLP068

CYYG;2008-10-10 07:00;CYYG 100700Z 27008KT 15SM SKC 11/10 A2973 RMK SLP069

CYYG;2008-10-10 08:00;CYYG 100800Z 29007KT 15SM FEW110 SCT240 11/10 A2974 RMK AC2CI1 SLP070

CYYG;2008-10-10 09:00;CYYG 100900Z 27006KT 15SM SCT110 BKN240 11/10 A2975 RMK AC3CI1 SLP075

CYYG;2008-10-10 10:00;CYYG 101000Z 25007KT 15SM BKN095 11/10 A2976 RMK AC6 SLP078

CYYG;2008-10-10 11:00;CYYG 101100Z 26006KT 15SM BKN100 11/10 A2977 RMK AC3 SLP083

CYYG;2008-10-10 12:00;CYYG 101200Z 26007KT 15SM BKN085 12/11 A2979 RMK AC3 SLP090

CYYG;2008-10-10 13:00;CYYG 101300Z 28009KT 15SM BKN079 12/11 A2980 RMK AC5 SLP093

CYYG;2008-10-10 14:00;CYYG 101400Z 27010G16KT 15SM FEW017 SCT080 13/11 A2982 RMK SC1AC1 SLP097

CYYG;2008-10-10 15:00;CYYG 101500Z 28012KT 15SM BKN026 14/10 A2982 RMK SC3 SLP098

CYYG;2008-10-10 16:00;CYYG 101600Z 29012KT 15SM SCT030 15/10 A2982 RMK SC2 SLP098

CYYG;2008-10-10 17:00;CYYG 101700Z 28015G21KT 15SM BKN035 15/09 A2982 RMK SC3 SLP098

CYYG;2008-10-10 18:00;CYYG 101800Z 28011G16KT 15SM BKN056 15/09 A2982 RMK SC4 SLP100

CYYG;2008-10-10 19:00;CYYG 101900Z 29012G17KT 15SM BKN057 15/08 A2984 RMK SC3 SLP106

CYYG;2008-10-10 20:00;CYYG 102000Z 29015G25KT 15SM FEW050 FEW100 15/06 A2986 RMK SC1AC1 SLP111

CYYG;2008-10-10 21:00;CYYG 102100Z 29011G18KT 15SM BKN071 15/07 A2987 RMK AC2 SLP117

CYYG;2008-10-10 22:00;CYYG 102200Z 28009KT 15SM BKN076 13/07 A2990 RMK AC3 SLP127

CYYG;2008-10-10 23:00;CYYG 102300Z 28013KT 15SM BKN047 BKN080 BKN130 13/07 A2993 RMK SC5AC1AC1 SLP136

CYYG;2008-10-10 23:07;CYYG 102307Z 30011KT 15SM -SHRA BKN042 BKN062 13/ RMK SC5SC2

CYYG;2008-10-10 23:50;CYYG 102350Z 31009KT 15SM BKN043 13/ RMK SC6

CYYG;2008-10-10 23:53;CYYG 102353Z 30009KT 15SM -SHRA BKN043 13/ RMK SC6

CYYG;2008-10-11 00:00;CYYG 110000Z 31010KT 15SM -SHRA BKN042 13/08 A2996 RMK SC6 SLP145

CYYG;2008-10-11 00:23;CYYG 110023Z 30008KT 15SM BKN048 12/ RMK SC6

CYYG;2008-10-11 01:00;CYYG 110100Z 29007KT 15SM BKN043 12/08 A2997 RMK SC6 SLP151

CYYG;2008-10-11 02:00;CYYG 110200Z 30010KT 15SM BKN050 12/08 A2999 RMK SC7 SLP156

CYYG;2008-10-11 03:00;CYYG 110300Z 30009KT 15SM SCT040 BKN120 12/07 A3000 RMK SC3AC2 SLP159

CYYG;2008-10-11 04:00;CYYG 110400Z 29011KT 15SM FEW040 SCT120 12/07 A3000 RMK SC1AC2 SLP159

CYYG;2008-10-11 05:00;CYYG 110500Z 29008KT 15SM BKN110 11/08 A3001 RMK AC5 SLP163

CYYG;2008-10-11 06:00;CYYG 110600Z 29008KT 15SM FEW110 10/08 A3002 RMK AC2 SLP168

CYYG;2008-10-11 07:00;CYYG 110700Z 29008KT 15SM SKC 10/08 A3004 RMK SLP173

CYYG;2008-10-11 08:00;CYYG 110800Z 29008KT 15SM SKC 09/08 A3006 RMK SLP179

CYYG;2008-10-11 09:00;CYYG 110900Z 30009KT 15SM SKC 09/08 A3008 RMK SLP187

CYYG;2008-10-11 10:00;CYYG 111000Z 31008KT 15SM FEW080 09/08 A3010 RMK AC2 SLP193

CYYG;2008-10-11 11:00;CYYG 111100Z 31006KT 15SM FEW080 08/08 A3012 RMK AC2 SLP201

CYYG;2008-10-11 12:00;CYYG 111200Z 30006KT 15SM FEW012 FEW080 10/09 A3014 RMK CF1AC1 SLP208

CYYG;2008-10-11 13:00;CYYG 111300Z 33012KT 15SM SCT017 SCT080 12/10 A3016 RMK SC3AC1 SLP214

CYYG;2008-10-11 14:00;CYYG 111400Z 34009G16KT 15SM SCT017 13/09 A3018 RMK SC4 SLP220

CYYG;2008-10-11 15:00;CYYG 111500Z 33012KT 15SM BKN018 13/09 A3019 RMK SC5 SLP225

CYYG;2008-10-11 16:00;CYYG 111600Z 35008KT 15SM FEW020 13/09 A3020 RMK SC1 SLP228

CYYG;2008-10-11 17:00;CYYG 111700Z 35008KT 15SM FEW020 13/08 A3021 RMK SC2 SLP230

CYYG;2008-10-11 18:00;CYYG 111800Z 33009KT 15SM FEW020 12/08 A3022 RMK SC2 SLP233

CYYG;2008-10-11 19:00;CYYG 111900Z 35011KT 15SM FEW020 12/07 A3023 RMK SC2 SLP237

CYYG;2008-10-11 20:00;CYYG 112000Z 35009KT 15SM FEW020 11/07 A3024 RMK SC1 SLP241

CYYG;2008-10-11 21:00;CYYG 112100Z 36007KT 15SM FEW030 10/07 A3026 RMK SC1 SLP248

CYYG;2008-10-11 22:00;CYYG 112200Z 36004KT 15SM FEW070 08/08 A3028 RMK AC1 SLP254

CYYG;2008-10-11 23:00;CYYG 112300Z 36004KT 15SM FEW040 07/07 A3029 RMK SC1 SLP257

CYYG;2008-10-12 00:00;CYYG 120000Z 02004KT 15SM FEW040 06/06 A3030 RMK SC1 SLP261

CYYG;2008-10-12 01:00;CYYG 120100Z 34004KT 15SM SKC 05/05 A3030 RMK SLP263

CYYG;2008-10-12 02:00;CYYG 120200Z 34005KT 15SM SKC 05/05 A3032 RMK SLP268

CYYG;2008-10-12 03:00;CYYG 120300Z 33004KT 15SM SKC 04/04 A3032 RMK SLP270

CYYG;2008-10-12 04:00;CYYG 120400Z 34005KT 15SM SKC 04/04 A3033 RMK SLP271

CYYG;2008-10-12 05:00;CYYG 120500Z 34003KT 15SM SKC 04/04 A3033 RMK SLP272

CYYG;2008-10-12 06:00;CYYG 120600Z 32003KT 15SM SKC 04/04 A3033 RMK SLP274

CYYG;2008-10-12 07:00;CYYG 120700Z 32003KT 15SM MIFG SKC 03/02 A3033 RMK SLP274

CYYG;2008-10-12 08:00;CYYG 120800Z 34003KT 15SM MIFG SKC 01/01 A3034 RMK SLP277

CYYG;2008-10-12 09:00;CYYG 120900Z 30002KT 15SM MIFG SKC 03/03 A3035 RMK SLP278

CYYG;2008-10-12 10:00;CYYG 121000Z 00000KT 15SM MIFG FEW250 03/03 A3035 RMK CI1 SLP279

CYYG;2008-10-12 11:00;CYYG 121100Z 27006KT 5/8SM BCFG FEW020 05/05 A3037 RMK CU1 SLP287

CYYG;2008-10-12 11:22;CYYG 121122Z 27003KT 3SM BR BCFG FEW020 06/ RMK CU1

CYYG;2008-10-12 11:35;CYYG 121135Z 28004KT 1/2SM FG FEW020 07/ RMK CU1 VIS NW-E 6

CYYG;2008-10-12 11:45;CYYG 121145Z 28005KT 3SM BR BCFG FEW020 07/ RMK SC1

CYYG;2008-10-12 12:00;CYYG 121200Z 28004KT 3SM BR PRFG FEW010 08/08 A3039 RMK SC1 SLP291

CYYG;2008-10-12 12:15;CYYG 121215Z 28007KT 1/2SM FG SKC 07/ RMK FG6

CYYG;2008-10-12 12:28;CYYG 121228Z 27007KT 1/8SM FG VV001 07/ RMK FG8 SUN VISBL

CYYG;2008-10-12 13:00;CYYG 121300Z 30007KT 1/2SM FG OVC002 08/08 A3040 RMK FG2SF6 SUN VISBL SLP296

CYYG;2008-10-12 13:06;CYYG 121306Z 30007KT 10SM OVC004 08/ RMK SF8 VIS N-SE 3

CYYG;2008-10-12 13:38;CYYG 121338Z 31009KT 15SM OVC005 09/ RMK SF8

CYYG;2008-10-12 14:00;CYYG 121400Z 31008KT 15SM BKN006 09/09 A3040 RMK SF7 SLP296

CYYG;2008-10-12 14:27;CYYG 121427Z 32006KT 15SM BKN008 11/ RMK SF6

CYYG;2008-10-12 15:00;CYYG 121500Z 31006KT 15SM BKN010 BKN250 12/10 A3039 RMK SC5CS1 SLP291

CYYG;2008-10-12 15:13;CYYG 121513Z 31006KT 15SM SCT012 SCT250 12/ RMK SC3CS1

CYYG;2008-10-12 16:00;CYYG 121600Z 02003KT 15SM FEW020 BKN250 13/09 A3036 RMK SC2CS1 SLP282

CYYG;2008-10-12 17:00;CYYG 121700Z 34002KT 15SM SCT028 BKN250 13/08 A3033 RMK CU3CS2 SLP274

CYYG;2008-10-12 18:00;CYYG 121800Z 34004KT 15SM FEW020 SCT038 BKN290 13/09 A3034 RMK CU2SC2CS2 CONTRAILS SLP275

CYYG;2008-10-12 19:00;CYYG 121900Z 32003KT 15SM FEW025 BKN290 14/08 A3032 RMK SC2CI1 SLP270

CYYG;2008-10-12 20:00;CYYG 122000Z 32002KT 15SM FEW030 BKN290 14/09 A3031 RMK SC2CI1 SLP267

CYYG;2008-10-12 21:00;CYYG 122100Z 32002KT 15SM FEW030 BKN270 11/06 A3033 RMK SC1CS5 SLP271

CYYG;2008-10-12 22:00;CYYG 122200Z 35004KT 15SM BKN250 09/09 A3033 RMK CS6 SLP273

CYYG;2008-10-12 23:00;CYYG 122300Z 00000KT 15SM FEW160 OVC250 08/08 A3033 RMK AC2CS3 SLP273

CYYG;2008-10-13 00:00;CYYG 130000Z 00000KT 15SM FEW160 OVC250 06/06 A3032 RMK AC2CS3 SLP269

CYYG;2008-10-13 01:00;CYYG 130100Z 33002KT 10SM BCFG FEW160 SCT250 04/04 A3031 RMK AC1CI1 SLP264

CYYG;2008-10-13 02:00;CYYG 130200Z 24002KT 15SM FEW130 05/05 A3030 RMK AC2 SLP262

CYYG;2008-10-13 03:00;CYYG 130300Z 04003KT 15SM MIFG FEW150 05/05 A3027 RMK AC2 SLP251

CYYG;2008-10-13 04:00;CYYG 130400Z 00000KT 15SM MIFG BKN130 05/05 A3026 RMK AC5 SLP250

CYYG;2008-10-13 05:00;CYYG 130500Z 35003KT 15SM MIFG BKN100 BKN240 05/05 A3026 RMK AC6CI2 SLP249

CYYG;2008-10-13 06:00;CYYG 130600Z 00000KT 15SM MIFG BKN100 BKN240 06/05 A3024 RMK AC6CI1 SLP241

CYYG;2008-10-13 07:00;CYYG 130700Z 00000KT 15SM MIFG BKN098 06/06 A3022 RMK AC7 SLP234

CYYG;2008-10-13 08:00;CYYG 130800Z 31004KT 15SM -SHRA FEW012 SCT042 OVC074 08/08 A3021 RMK SC2SC2AC4 SLP232

CYYG;2008-10-13 09:00;CYYG 130900Z 31003KT 15SM -SHRA FEW014 BKN042 OVC070 07/07 A3021 RMK SC2SC5AC2 SLP231

CYYG;2008-10-13 10:00;CYYG 131000Z 35002KT 15SM -SHRA SCT014 BKN038 OVC070 07/07 A3022 RMK SC3SC4AC1 SLP233

CYYG;2008-10-13 11:00;CYYG 131100Z 35004KT 15SM -SHRA FEW012 SCT036 OVC064 08/08 A3023 RMK SC2SC2SC4 SLP239

CYYG;2008-10-13 11:34;CYYG 131134Z 36004KT 15SM BKN023 OVC055 08/ RMK SC6SC2

CYYG;2008-10-13 12:00;CYYG 131200Z 36005KT 15SM VCSH FEW015 BKN028 OVC075 08/08 A3024 RMK SC1SC5AC2 SLP242

CYYG;2008-10-13 13:00;CYYG 131300Z 36007KT 15SM VCSH FEW014 BKN030 OVC085 09/08 A3024 RMK SC2SC5AC2 SLP242

CYYG;2008-10-13 14:00;CYYG 131400Z 01013KT 15SM VCSH FEW014 BKN035 10/07 A3024 RMK CU2SC5 SLP243

CYYG;2008-10-13 15:00;CYYG 131500Z 02011G16KT 15SM SCT020 OVC035 10/07 A3024 RMK CU3SC5 SLP243

CYYG;2008-10-13 16:00;CYYG 131600Z 01011G22KT 15SM VCSH BKN016 OVC028 10/07 A3024 RMK SC6SC2 SLP243

CYYG;2008-10-13 17:00;CYYG 131700Z 01014G20KT 15SM BKN018 BKN035 11/07 A3024 RMK SC6SC1 SLP242

CYYG;2008-10-13 18:00;CYYG 131800Z 02011KT 15SM FEW018 BKN025 11/08 A3025 RMK CF1SC6 SLP244

CYYG;2008-10-13 19:00;CYYG 131900Z 02011G18KT 15SM BKN018 11/07 A3025 RMK CU6 SLP247

CYYG;2008-10-13 20:00;CYYG 132000Z 01010G21KT 15SM BKN020 10/07 A3026 RMK CU6 SLP250

CYYG;2008-10-13 21:00;CYYG 132100Z 02011KT 15SM BKN020 10/07 A3027 RMK CU5 SLP252

CYYG;2008-10-13 22:00;CYYG 132200Z 02006KT 15SM FEW020 08/06 A3029 RMK CU2 SLP258

CYYG;2008-10-13 23:00;CYYG 132300Z 02006KT 15SM SCT018 07/06 A3031 RMK CU3 SLP264

CYYG;2008-10-14 00:00;CYYG 140000Z 01004KT 15SM SCT020 BKN033 08/07 A3032 RMK CU3SC2 SLP270

CYYG;2008-10-14 01:00;CYYG 140100Z 03005KT 15SM FEW018 BKN035 07/06 A3031 RMK SC2SC2 SLP267

CYYG;2008-10-14 02:00;CYYG 140200Z 34004KT 15SM FEW018 SCT035 06/05 A3032 RMK SC2SC2 SLP269

CYYG;2008-10-14 03:00;CYYG 140300Z 36003KT 15SM BKN026 06/05 A3031 RMK SC5 SLP266

CYYG;2008-10-14 04:00;CYYG 140400Z 34004KT 15SM SCT026 04/04 A3030 RMK SC4 SLP263

CYYG;2008-10-14 06:00;CYYG 140600Z 33003KT 15SM SCT025 04/03 A3031 RMK SC3 SLP267

CYYG;2008-10-14 07:00;CYYG 140700Z 30003KT 15SM SCT025 03/03 A3030 RMK SC3 SLP263

CYYG;2008-10-14 08:00;CYYG 140800Z 00000KT 15SM FEW025 04/04 A3029 RMK SC2 SLP260

CYYG;2008-10-14 09:00;CYYG 140900Z 34004KT 15SM FEW025 SCT250 02/02 A3030 RMK SC2CI1 SLP261

CYYG;2008-10-14 10:00;CYYG 141000Z 32002KT 15SM FEW030 SCT250 03/03 A3029 RMK SC2CI0 SLP259

CYYG;2008-10-14 11:00;CYYG 141100Z 30002KT 15SM BKN032 BKN240 03/03 A3030 RMK SC5CI0 SLP261

CYYG;2008-10-14 12:00;CYYG 141200Z 28003KT 15SM FEW030 BKN250 06/06 A3029 RMK SC1CI1 SLP258

CYYG;2008-10-14 13:00;CYYG 141300Z 25003KT 15SM SCT020 BKN250 10/08 A3028 RMK SC4CI0 SLP257

CYYG;2008-10-14 14:00;CYYG 141400Z 19004KT 15SM SCT018 BKN250 11/08 A3027 RMK SC4CI0 SLP252

CYYG;2008-10-14 15:00;CYYG 141500Z 19006KT 15SM BKN018 BKN250 12/08 A3024 RMK SC5CI0 SLP241

CYYG;2008-10-14 16:00;CYYG 141600Z 20011KT 15SM BKN018 BKN250 12/08 A3021 RMK SC5CC0 SLP232

CYYG;2008-10-14 17:00;CYYG 141700Z 20009G15KT 15SM SCT020 SCT250 13/08 A3017 RMK SC3CC0 SLP219

CYYG;2008-10-14 18:00;CYYG 141800Z 21011KT 15SM FEW020 SCT250 12/08 A3014 RMK SC2CI0 SLP206

CYYG;2008-10-14 19:00;CYYG 141900Z 18013KT 15SM FEW020 SCT250 12/08 A3011 RMK SC1CI2 SLP196

CYYG;2008-10-14 20:00;CYYG 142000Z 22016KT 15SM FEW020 SCT250 13/06 A3007 RMK SC1CI1 SLP185

CYYG;2008-10-14 21:00;CYYG 142100Z 20011KT 15SM SCT250 12/07 A3005 RMK CI1 SLP177

CYYG;2008-10-14 22:00;CYYG 142200Z 20010KT 15SM FEW120 BKN250 12/07 A3004 RMK AC1CI1 SLP174

CYYG;2008-10-14 23:00;CYYG 142300Z 19015G21KT 15SM FEW250 12/07 A2999 RMK CI1 SLP158

CYYG;2008-10-15 00:00;CYYG 150000Z 19020G29KT 15SM SCT250 11/07 A2997 RMK CI2 SLP150

CYYG;2008-10-15 01:00;CYYG 150100Z 20018KT 15SM BKN220 11/07 A2997 RMK CI5 SLP151

CYYG;2008-10-15 02:00;CYYG 150200Z 20019G25KT 15SM OVC210 11/08 A2996 RMK CI8 SLP145

CYYG;2008-10-15 03:00;CYYG 150300Z 22019G24KT 15SM SCT020 BKN038 OVC230 11/08 A2996 RMK SC3SC2CI2 SLP145

CYYG;2008-10-15 04:00;CYYG 150400Z 23014G20KT 15SM OVC026 11/08 A2996 RMK SC8 SLP145

CYYG;2008-10-15 04:02;CYYG 150402Z 22014G19KT 15SM -SHRA OVC019 10/ RMK SC8

CYYG;2008-10-15 05:00;CYYG 150500Z 23013G19KT 15SM -SHRA OVC020 09/08 A2996 RMK SC8 SLP145

CYYG;2008-10-15 06:00;CYYG 150600Z 24012G18KT 15SM -SHRA OVC020 10/09 A2997 RMK SC8 SLP149

CYYG;2008-10-15 06:41;CYYG 150641Z 23015KT 15SM OVC014 10/ RMK SC8

CYYG;2008-10-15 07:00;CYYG 150700Z 24010KT 15SM OVC014 10/09 A2996 RMK SC8 SLP146

CYYG;2008-10-15 08:00;CYYG 150800Z 25010KT 15SM BKN016 OVC044 11/10 A2996 RMK SC6SC2 SLP146

CYYG;2008-10-15 09:00;CYYG 150900Z 26008KT 15SM FEW011 SCT040 11/10 A2998 RMK SC1SC2 SLP153

CYYG;2008-10-15 10:00;CYYG 151000Z 26007KT 15SM FEW014 FEW040 10/09 A2999 RMK SC1SC1 SLP156

CYYG;2008-10-15 11:00;CYYG 151100Z 27006KT 15SM FEW040 09/09 A3002 RMK SC1 SLP167

CYYG;2008-10-15 12:00;CYYG 151200Z 29008KT 15SM FEW013 10/08 A3004 RMK SC1 SLP174

CYYG;2008-10-15 13:00;CYYG 151300Z 29008G15KT 15SM FEW013 FEW260 11/08 A3006 RMK SC1CI1 SLP181

CYYG;2008-10-15 14:00;CYYG 151400Z 31006KT 15SM FEW020 BKN260 12/07 A3006 RMK CU1CI1 SLP180

CYYG;2008-10-15 15:00;CYYG 151500Z 28007KT 15SM SCT030 BKN260 12/06 A3007 RMK SC3CI2 SLP183

CYYG;2008-10-15 16:00;CYYG 151600Z 30005KT 15SM SCT030 BKN260 13/07 A3006 RMK SC3CI2 SLP182

CYYG;2008-10-15 17:00;CYYG 151700Z 35005KT 15SM BKN032 BKN220 13/08 A3006 RMK SC5CI1 SLP180

CYYG;2008-10-15 18:00;CYYG 151800Z 02008KT 15SM BKN032 BKN220 12/07 A3007 RMK SC5CI0 SLP184

CYYG;2008-10-15 19:00;CYYG 151900Z 00000KT 15SM SCT034 BKN220 13/08 A3007 RMK SC3CI1 SLP184

CYYG;2008-10-15 20:00;CYYG 152000Z 02005KT 15SM FEW033 BKN220 11/07 A3007 RMK SC1CC2 SLP184

CYYG;2008-10-15 21:00;CYYG 152100Z 05006KT 15SM FEW033 FEW220 BKN300 10/07 A3007 RMK SC1CC2CI1 SLP184

CYYG;2008-10-15 22:00;CYYG 152200Z 02004KT 15SM BKN230 08/06 A3007 RMK CI6 SLP185

CYYG;2008-10-15 23:00;CYYG 152300Z 09002KT 15SM BKN210 08/06 A3006 RMK CI5 SLP182

CYYG;2008-10-16 00:00;CYYG 160000Z 13003KT 15SM BKN210 07/06 A3008 RMK CI5 SLP187

CYYG;2008-10-16 01:00;CYYG 160100Z 00000KT 15SM BKN200 07/06 A3009 RMK CI6 SLP192

CYYG;2008-10-16 02:00;CYYG 160200Z 00000KT 15SM BKN210 07/07 A3009 RMK CI5 SLP191

CYYG;2008-10-16 03:00;CYYG 160300Z 16003KT 15SM BKN230 07/06 A3007 RMK CI4 SLP185

CYYG;2008-10-16 04:00;CYYG 160400Z 14004KT 15SM BKN230 06/06 A3006 RMK CI3 SLP182

CYYG;2008-10-16 05:00;CYYG 160500Z 13003KT 15SM BKN230 07/06 A3006 RMK CI4 SLP179

CYYG;2008-10-16 06:00;CYYG 160600Z 15004KT 15SM SCT230 07/07 A3004 RMK CI3 SLP175

CYYG;2008-10-16 07:00;CYYG 160700Z 14004KT 15SM SCT250 08/07 A3003 RMK CC2 SLP169

CYYG;2008-10-16 08:00;CYYG 160800Z 16003KT 15SM FEW040 SCT220 07/07 A3002 RMK SC1CC2 SLP166

CYYG;2008-10-16 09:00;CYYG 160900Z 20008KT 15SM FEW040 BKN190 10/09 A3001 RMK SC1CC5 SLP164

CYYG;2008-10-16 09:34;CYYG 160934Z 23006KT 10SM BKN009 OVC040 10/ RMK SF6SC2

CYYG;2008-10-16 10:00;CYYG 161000Z 22007KT 6SM BR BKN005 OVC009 10/09 A3002 RMK SF6SF2 SLP168

CYYG;2008-10-16 11:00;CYYG 161100Z 22004KT 6SM BR BKN006 OVC009 10/10 A3002 RMK SF6SF2 SLP167

CYYG;2008-10-16 11:29;CYYG 161129Z 19005KT 10SM BKN006 BKN012 10/ RMK SF5SC2

CYYG;2008-10-16 12:00;CYYG 161200Z 18008KT 15SM SCT006 BKN012 BKN130 10/10 A3001 RMK SF3SC2AC2 SLP162

CYYG;2008-10-16 13:00;CYYG 161300Z 20007KT 15SM BKN010 BKN130 11/10 A3000 RMK SF5AC2 SLP161

CYYG;2008-10-16 13:48;CYYG 161348Z 19010KT 15SM SCT012 BKN130 12/ RMK SF3AC4

CYYG;2008-10-16 14:00;CYYG 161400Z 22010KT 15SM FEW010 BKN200 12/10 A2999 RMK CU1CC6 SLP156

CYYG;2008-10-16 15:00;CYYG 161500Z 20010KT 15SM FEW012 BKN150 13/10 A2998 RMK CU1AC6 SLP154

CYYG;2008-10-16 16:00;CYYG 161600Z 22008KT 15SM FEW012 BKN180 BKN220 14/10 A2996 RMK CU2AC4CC2 SLP147

CYYG;2008-10-16 17:00;CYYG 161700Z 19007KT 15SM BKN150 OVC250 13/10 A2993 RMK AC6CI2 SLP135

CYYG;2008-10-16 18:00;CYYG 161800Z 20005KT 15SM BKN150 OVC250 14/10 A2991 RMK AC6CI2 SLP129

CYYG;2008-10-16 19:00;CYYG 161900Z 18007KT 15SM BKN110 OVC250 14/10 A2990 RMK AC6CI2 SLP125

CYYG;2008-10-16 20:00;CYYG 162000Z 21007KT 15SM OVC110 14/11 A2990 RMK AC8 SLP127

CYYG;2008-10-16 20:36;CYYG 162036Z 19008KT 10SM -RA BKN097 OVC110 13/ RMK AC5AC3

CYYG;2008-10-16 21:00;CYYG 162100Z 19008KT 10SM -RA BKN093 OVC120 13/12 A2988 RMK AC6AC2 SLP121

CYYG;2008-10-16 22:00;CYYG 162200Z 21005KT 10SM -RA BKN063 OVC090 13/12 A2987 RMK SC5AC3 SLP117

CYYG;2008-10-16 23:00;CYYG 162300Z 18002KT 8SM -RA BKN018 OVC070 12/12 A2987 RMK SC6AC2 SLP116

CYYG;2008-10-16 23:21;CYYG 162321Z 15002KT 7SM -RA OVC012 12/ RMK SC8

CYYG;2008-10-16 23:49;CYYG 162349Z 00000KT 7SM -RA BKN005 OVC012 12/ RMK SF5SC3

CYYG;2008-10-17 00:00;CYYG 170000Z 00000KT 7SM -RA BKN005 OVC012 12/12 A2985 RMK SF6SC2 SLP110

CYYG;2008-10-17 00:52;CYYG 170052Z 18005KT 2SM -RA BR BKN009 OVC038 13/ RMK SF6SC2

CYYG;2008-10-17 01:00;CYYG 170100Z 18004KT 2SM -RA BR BKN005 OVC009 13/12 A2984 RMK SF6SF2 SLP105

CYYG;2008-10-17 02:00;CYYG 170200Z 27002KT 3SM -RA BR OVC004 13/12 A2983 RMK SF8 SLP101

CYYG;2008-10-17 02:14;CYYG 170214Z 28004KT 5SM +RA BR SCT004 OVC007 13/ RMK SF3SF5

CYYG;2008-10-17 02:34;CYYG 170234Z 29004KT 4SM -RA BR FEW007 OVC025 13/ RERA RMK SF2SC6

CYYG;2008-10-17 03:00;CYYG 170300Z 26003KT 7SM -RA BKN007 OVC025 12/12 A2980 RERA RMK SF5SC3 SLP092

CYYG;2008-10-17 03:35;CYYG 170335Z 28003KT 10SM -RA FEW005 OVC042 12/ RMK SF2SC6

CYYG;2008-10-17 04:00;CYYG 170400Z 28003KT 7SM -RA SCT006 OVC050 12/11 A2979 RMK SF3SC5 SLP087

CYYG;2008-10-17 05:00;CYYG 170500Z 27003KT 2 1/2SM RA BR BKN004 OVC008 12/11 A2978 RMK SF6SF2 SLP086

CYYG;2008-10-17 06:00;CYYG 170600Z 31004KT 5SM -RA BR FEW008 OVC032 12/11 A2976 RERA RMK SF2SC6 SLP079

CYYG;2008-10-17 07:00;CYYG 170700Z 34006KT 6SM -RA BR FEW005 OVC012 11/10 A2976 RMK SF2SC6 SLP077

CYYG;2008-10-17 07:24;CYYG 170724Z 35007KT 3SM -RA BR OVC006 11/ RMK SF8

CYYG;2008-10-17 08:00;CYYG 170800Z 35005KT 3SM -RA BR OVC006 11/10 A2975 RMK SF8 SLP075

CYYG;2008-10-17 09:00;CYYG 170900Z 34008KT 6SM -DZ BR BKN007 OVC019 10/10 A2974 RMK SF6SC2 SLP073

CYYG;2008-10-17 09:47;CYYG 170947Z 36008KT 10SM FEW007 OVC014 10/ RMK SF2SC6

CYYG;2008-10-17 10:00;CYYG 171000Z 35006KT 12SM SCT007 OVC014 10/09 A2975 RMK SF3SC5 SLP075

CYYG;2008-10-17 11:00;CYYG 171100Z 34006KT 15SM SCT010 OVC016 10/10 A2976 RMK SF3SC5 SLP079

CYYG;2008-10-17 12:00;CYYG 171200Z 34008KT 15SM BKN012 BKN073 10/09 A2979 RMK SC6AC1 SLP088

CYYG;2008-10-17 13:00;CYYG 171300Z 34010G15KT 15SM BKN015 10/08 A2980 RMK SC7 SLP092

CYYG;2008-10-17 14:00;CYYG 171400Z 34013KT 15SM BKN015 10/08 A2981 RMK SC7 SLP094

CYYG;2008-10-17 15:00;CYYG 171500Z 33009G17KT 15SM OVC021 10/08 A2982 RMK SC8 SLP097

CYYG;2008-10-17 16:00;CYYG 171600Z 33013G18KT 15SM BKN018 10/07 A2982 RMK SC7 SLP097

CYYG;2008-10-17 17:00;CYYG 171700Z 34015KT 15SM BKN021 10/06 A2982 RMK SC7 SLP099

CYYG;2008-10-17 18:00;CYYG 171800Z 32012G19KT 15SM BKN020 BKN035 09/06 A2983 RMK CU5SC2 SLP102

CYYG;2008-10-17 19:00;CYYG 171900Z 32010G15KT 15SM FEW025 BKN033 09/05 A2985 RMK CU1SC6 SLP107

CYYG;2008-10-17 20:00;CYYG 172000Z 32010KT 15SM BKN026 09/05 A2986 RMK SC7 SLP112

CYYG;2008-10-17 21:00;CYYG 172100Z 33006KT 15SM SCT029 BKN250 09/05 A2987 RMK SC4CI0 SLP117

CYYG;2008-10-17 22:00;CYYG 172200Z 31005KT 15SM BKN033 08/05 A2990 RMK SC6 SLP128

CYYG;2008-10-17 23:00;CYYG 172300Z 31004KT 15SM FEW033 FEW300 07/04 A2992 RMK SC1CI1 SLP133

CYYG;2008-10-18 00:00;CYYG 180000Z 32007KT 15SM FEW033 SCT300 06/02 A2993 RMK SC1CI0 SLP138

CYYG;2008-10-18 01:00;CYYG 180100Z 31005KT 15SM FEW033 06/01 A2996 RMK SC1 SLP145

CYYG;2008-10-18 02:00;CYYG 180200Z 32007KT 15SM FEW030 06/02 A2996 RMK SC1 SLP145

CYYG;2008-10-18 03:00;CYYG 180300Z 33005KT 15SM FEW035 06/01 A2996 RMK SC1 SLP148

CYYG;2008-10-18 04:00;CYYG 180400Z 32005KT 15SM FEW035 05/01 A2999 RMK SC1 SLP156

CYYG;2008-10-18 05:00;CYYG 180500Z 31003KT 15SM FEW035 04/01 A2999 RMK SC1 SLP157

CYYG;2008-10-18 06:00;CYYG 180600Z 28003KT 15SM FEW035 03/00 A3000 RMK SC2 SLP159

CYYG;2008-10-18 07:00;CYYG 180700Z 27007KT 15SM FEW035 SCT300 03/01 A3001 RMK SC1CI2 SLP162

CYYG;2008-10-18 08:00;CYYG 180800Z 27006KT 15SM FEW035 SCT300 03/01 A3003 RMK SC1CI2 SLP169

CYYG;2008-10-18 09:00;CYYG 180900Z 27007KT 15SM FEW035 FEW300 03/00 A3004 RMK SC1CI1 SLP175

CYYG;2008-10-18 10:00;CYYG 181000Z 27006KT 15SM FEW035 FEW300 02/00 A3006 RMK CU1CI1 SLP179

CYYG;2008-10-18 11:00;CYYG 181100Z 28008KT 15SM FEW035 FEW220 02/01 A3008 RMK SC1CI1 SLP186

CYYG;2008-10-18 12:00;CYYG 181200Z 29010KT 15SM FEW025 FEW220 04/02 A3009 RMK SC1CI1 SLP191

CYYG;2008-10-18 13:00;CYYG 181300Z 29010KT 15SM FEW025 FEW250 06/02 A3010 RMK SC1CI1 SLP195

CYYG;2008-10-18 14:00;CYYG 181400Z 31010G15KT 15SM FEW025 SCT250 07/03 A3010 RMK SC2CI1 SLP194

CYYG;2008-10-18 15:00;CYYG 181500Z 32008KT 15SM BKN028 BKN250 08/02 A3012 RMK SC6CI1 SLP199

CYYG;2008-10-18 16:00;CYYG 181600Z 36008KT 15SM BKN030 BKN250 08/01 A3013 RMK SC6CI2 SLP205

CYYG;2008-10-18 17:00;CYYG 181700Z 33008KT 15SM BKN030 BKN048 BKN250 07/01 A3014 RMK SC5SC2CI1 SLP206

CYYG;2008-10-18 18:00;CYYG 181800Z 36005KT 15SM FEW030 SCT050 BKN220 07/01 A3015 RMK SC2SC2CI2 SLP212

CYYG;2008-10-18 19:00;CYYG 181900Z 34007KT 15SM FEW030 BKN048 BKN220 07/00 A3017 RMK SC2SC4CI2 SLP218

CYYG;2008-10-18 20:00;CYYG 182000Z 34007KT 15SM FEW030 BKN048 BKN220 07/01 A3019 RMK SC1SC4CI2 SLP224

CYYG;2008-10-18 21:00;CYYG 182100Z 32005KT 15SM SCT045 BKN220 05/00 A3021 RMK SC4CI2 SLP233

CYYG;2008-10-18 22:00;CYYG 182200Z 32003KT 15SM BKN045 04/M00 A3023 RMK SC6 SLP240

CYYG;2008-10-18 23:00;CYYG 182300Z 32002KT 15SM BKN041 04/00 A3025 RMK SC7 SLP246

CYYG;2008-10-19 00:00;CYYG 190000Z 32003KT 15SM SCT040 04/00 A3026 RMK SC3 SLP250

CYYG;2008-10-19 01:00;CYYG 190100Z 33002KT 15SM BKN045 04/00 A3028 RMK SC6 SLP254

CYYG;2008-10-19 02:00;CYYG 190200Z 00000KT 15SM SCT045 03/M01 A3028 RMK SC3 SLP256

CYYG;2008-10-19 03:00;CYYG 190300Z 28004KT 15SM BKN041 03/M00 A3029 RMK SC6 SLP259

CYYG;2008-10-19 04:00;CYYG 190400Z 00000KT 15SM BKN049 04/M00 A3030 RMK SC7 SLP261

CYYG;2008-10-19 05:00;CYYG 190500Z 00000KT 15SM BKN049 03/M00 A3030 RMK SC7 SLP261

CYYG;2008-10-19 06:00;CYYG 190600Z 28003KT 15SM BKN047 03/M01 A3031 RMK SC6 SLP266

CYYG;2008-10-19 07:00;CYYG 190700Z 00000KT 15SM BKN046 02/M01 A3032 RMK SC6 SLP268

CYYG;2008-10-19 08:00;CYYG 190800Z 33004KT 15SM FEW035 BKN054 02/00 A3033 RMK SC2SC6 SLP272

CYYG;2008-10-19 08:40;CYYG 190840Z 35005KT 10SM -SHRA OVC030 04/ RMK SC8

CYYG;2008-10-19 09:00;CYYG 190900Z 28002KT 10SM -SHRA OVC030 04/03 A3034 RMK SC8 SLP276

CYYG;2008-10-19 09:06;CYYG 190906Z 00000KT 15SM FEW030 BKN041 05/ RMK SC2SC5

CYYG;2008-10-19 10:00;CYYG 191000Z 34002KT 15SM BKN040 04/02 A3036 RMK SC6 SLP281

CYYG;2008-10-19 11:00;CYYG 191100Z 32005KT 15SM SCT038 01/01 A3038 RMK SC4 SLP290

CYYG;2008-10-19 12:00;CYYG 191200Z 31003KT 15SM FEW038 SCT046 BKN250 05/03 A3041 RMK SC1SC2CI1 SLP300

CYYG;2008-10-19 13:00;CYYG 191300Z 34006KT 15SM FEW038 SCT045 BKN250 07/01 A3041 RMK SC1SC3CI1 SLP298

CYYG;2008-10-19 14:00;CYYG 191400Z 03006KT 15SM SCT041 BKN200 08/M00 A3042 RMK SC3CI2 SLP303

CYYG;2008-10-19 15:00;CYYG 191500Z CCA 01008KT 15SM BKN040 BKN200 07/M00 A3042 RMK SC5CI2 SLP304

CYYG;2008-10-19 16:00;CYYG 191600Z 01007KT 15SM BKN038 BKN200 07/M00 A3043 RMK SC6CI1 SLP307

CYYG;2008-10-19 17:00;CYYG 191700Z 01006KT 15SM FEW040 BKN200 08/M01 A3041 RMK SC2CI2 SLP299

CYYG;2008-10-19 18:00;CYYG 191800Z 05008KT 15SM FEW040 BKN250 08/M00 A3041 RMK SC2CI2 SLP300

CYYG;2008-10-19 19:00;CYYG 191900Z 04007KT 15SM FEW038 BKN200 08/M00 A3039 RMK SC1CI2 SLP294

CYYG;2008-10-19 20:00;CYYG 192000Z 01006KT 15SM FEW038 BKN250 07/00 A3040 RMK SC1CI2 SLP297

CYYG;2008-10-19 21:00;CYYG 192100Z 03004KT 15SM FEW038 BKN250 05/M00 A3041 RMK SC1CI2 SLP299

CYYG;2008-10-19 22:00;CYYG 192200Z 02003KT 15SM FEW038 SCT250 03/M00 A3041 RMK SC1CI1 SLP300

CYYG;2008-10-19 23:00;CYYG 192300Z 36003KT 15SM FEW038 00/M01 A3041 RMK SC1 SLP301

CYYG;2008-10-20 00:00;CYYG 200000Z 01003KT 15SM FEW038 M01/M02 A3041 RMK SC1 SLP299

CYYG;2008-10-20 01:00;CYYG 200100Z 08002KT 15SM FEW038 M01/M02 A3041 RMK SC1 SLP299

CYYG;2008-10-20 02:00;CYYG 200200Z 04002KT 15SM FEW038 M02/M03 A3039 RMK SC1 SLP295

CYYG;2008-10-20 03:00;CYYG 200300Z 05002KT 15SM FEW038 M02/M03 A3038 RMK SC1 SLP291

CYYG;2008-10-20 04:00;CYYG 200400Z 00000KT 15SM SKC M01/M02 A3038 RMK SLP289

CYYG;2008-10-20 05:00;CYYG 200500Z 00000KT 15SM SKC M03/M03 A3038 RMK SLP290

CYYG;2008-10-20 06:00;CYYG 200600Z 00000KT 15SM SKC M03/M04 A3036 RMK SLP283

CYYG;2008-10-20 07:00;CYYG 200700Z 36003KT 15SM SKC M04/M04 A3034 RMK SLP276

CYYG;2008-10-20 08:00;CYYG 200800Z 02002KT 15SM SKC M02/M03 A3035 RMK SLP278

CYYG;2008-10-20 09:00;CYYG 200900Z 01004KT 15SM FEW030 M04/M05 A3033 RMK SC1 FROIN SLP273

CYYG;2008-10-20 10:00;CYYG 201000Z 36003KT 15SM FEW030 FEW250 M02/M03 A3032 RMK SC1CI0 SLP269

CYYG;2008-10-20 11:00;CYYG 201100Z 02005KT 15SM FEW030 FEW120 OVC250 M02/M03 A3031 RMK SC1AC2CI2 FROIN SLP265

CYYG;2008-10-20 12:00;CYYG 201200Z 08006KT 15SM FEW025 FEW120 OVC250 02/01 A3031 RMK SC2AC1CI2 SLP267

CYYG;2008-10-20 13:00;CYYG 201300Z 07007KT 15SM FEW025 FEW120 OVC250 06/03 A3028 RMK SC1AC2CI2 SLP257

CYYG;2008-10-20 14:00;CYYG 201400Z 07009KT 15SM FEW025 FEW120 OVC230 07/03 A3025 RMK SC1AC2CI2 SLP247

CYYG;2008-10-20 15:00;CYYG 201500Z 08009KT 15SM FEW025 OVC230 08/03 A3022 RMK SC1CI4 SLP234

CYYG;2008-10-20 16:00;CYYG 201600Z 09009KT 15SM FEW025 SCT160 OVC220 08/03 A3018 RMK SC1AC2CI3 SLP221

CYYG;2008-10-20 17:00;CYYG 201700Z 06009KT 15SM FEW025 BKN160 OVC200 09/03 A3015 RMK SC1AC5CI2 SLP211

CYYG;2008-10-20 18:00;CYYG 201800Z 04008KT 15SM FEW030 BKN160 OVC250 08/03 A3012 RMK SC1AC5CI2 SLP201

CYYG;2008-10-20 19:00;CYYG 201900Z 04010G15KT 15SM FEW035 BKN160 OVC240 08/04 A3009 RMK SC2AC4CI1 SLP193

CYYG;2008-10-20 20:00;CYYG 202000Z 03010KT 15SM FEW035 BKN050 OVC240 07/04 A3008 RMK SC1SC5CI2 SLP188

CYYG;2008-10-20 21:00;CYYG 202100Z 04009KT 15SM FEW035 BKN046 OVC240 07/04 A3006 RMK SC2SC5CI1 SLP182

CYYG;2008-10-20 22:00;CYYG 202200Z 03010KT 15SM BKN050 OVC240 07/05 A3004 RMK SC6CI1 SLP174

CYYG;2008-10-20 23:00;CYYG 202300Z 03010G15KT 15SM BKN050 BKN230 07/05 A3000 RMK SC6CI2 SLP162

CYYG;2008-10-21 00:00;CYYG 210000Z 36007KT 15SM FEW022 BKN048 BKN170 08/06 A2998 RMK SC1SC5AC2 SLP155

CYYG;2008-10-21 01:00;CYYG 210100Z 01007KT 15SM FEW020 BKN050 OVC100 08/06 A2998 RMK SC2SC4AC2 SLP152

CYYG;2008-10-21 02:00;CYYG 210200Z 02009KT 15SM FEW013 BKN063 OVC100 09/08 A2994 RMK SC2SC6AC1 SLP139

CYYG;2008-10-21 02:43;CYYG 210243Z 02009KT 15SM FEW009 SCT013 BKN060 09/ RMK SC1SC2SC4

CYYG;2008-10-21 03:00;CYYG 210300Z 03011KT 15SM SCT009 OVC015 09/08 A2990 RMK SC3SC5 SLP125

CYYG;2008-10-21 04:00;CYYG 210400Z 02012KT 15SM OVC010 09/08 A2985 RMK SC8 SLP111

CYYG;2008-10-21 05:00;CYYG 210500Z 03011KT 15SM OVC013 09/08 A2984 RMK SC8 SLP106

CYYG;2008-10-21 06:00;CYYG 210600Z 02013KT 15SM BKN013 OVC036 09/08 A2983 RMK SC6SC2 SLP102

CYYG;2008-10-21 07:00;CYYG 210700Z 04014KT 15SM OVC020 09/08 A2980 RMK SC8 SLP093

CYYG;2008-10-21 08:00;CYYG 210800Z 03014G20KT 15SM OVC018 09/08 A2981 RMK SC8 SLP095

CYYG;2008-10-21 09:00;CYYG 210900Z 02011G19KT 15SM OVC019 09/07 A2980 RMK SC8 SLP094

CYYG;2008-10-21 10:00;CYYG 211000Z 02013G20KT 15SM OVC022 08/07 A2980 RMK SC8 SLP093

CYYG;2008-10-21 11:00;CYYG 211100Z 01013KT 15SM BKN026 BKN260 08/05 A2980 RMK SC5CI1 SLP094

CYYG;2008-10-21 12:00;CYYG 211200Z 02015G21KT 15SM BKN025 BKN260 08/04 A2982 RMK SC6CI0 SLP100

CYYG;2008-10-21 13:00;CYYG 211300Z 36014G19KT 15SM BKN023 08/04 A2983 RMK SC7 SLP102

CYYG;2008-10-21 14:00;CYYG 211400Z 36012G20KT 15SM FEW023 SCT260 10/05 A2983 RMK SC2CI1 SLP104

CYYG;2008-10-21 15:00;CYYG 211500Z 36015G20KT 15SM FEW020 FEW260 09/05 A2984 RMK CU2CI0 SLP105

CYYG;2008-10-21 16:00;CYYG 211600Z 36015G20KT 15SM FEW022 FEW260 09/04 A2985 RMK CU2CI0 SLP108

CYYG;2008-10-21 17:00;CYYG 211700Z 01014G22KT 15SM SCT020 BKN260 09/05 A2984 RMK CU3CI0 SLP106

CYYG;2008-10-21 18:00;CYYG 211800Z 02014G22KT 15SM SCT020 BKN260 09/05 A2985 RMK CU3CI0 SLP111

CYYG;2008-10-21 19:00;CYYG 211900Z 02013G21KT 15SM BKN022 BKN260 09/05 A2987 RMK SC5CI1 SLP118

CYYG;2008-10-21 20:00;CYYG 212000Z 01009G18KT 15SM BKN019 08/05 A2990 RMK SC7 SLP126

CYYG;2008-10-21 21:00;CYYG 212100Z 02011G16KT 15SM BKN022 08/05 A2991 RMK SC7 SLP130

CYYG;2008-10-21 22:00;CYYG 212200Z 02011G17KT 15SM BKN024 08/04 A2993 RMK SC7 SLP137

CYYG;2008-10-21 23:00;CYYG 212300Z 03010G15KT 15SM BKN026 08/03 A2994 RMK SC7 SLP141

CYYG;2008-10-22 00:00;CYYG 220000Z 05010G16KT 15SM OVC025 08/03 A2996 RMK SC8 SLP148

CYYG;2008-10-22 01:00;CYYG 220100Z 05012G18KT 15SM BKN030 OVC110 07/02 A2998 RMK SC6AC2 SLP155

CYYG;2008-10-22 02:00;CYYG 220200Z 05013KT 15SM OVC031 07/02 A3001 RMK SC8 SLP162

CYYG;2008-10-22 03:00;CYYG 220300Z 05011G17KT 15SM OVC031 07/03 A3002 RMK SC8 SLP168

CYYG;2008-10-22 04:00;CYYG 220400Z 06010KT 15SM OVC031 07/03 A3003 RMK SC8 SLP171

CYYG;2008-10-22 05:00;CYYG 220500Z 07010KT 15SM -SHRA OVC030 06/04 A3004 RMK SC8 SLP174

CYYG;2008-10-22 06:00;CYYG 220600Z 06014KT 10SM -SHRA OVC031 06/04 A3004 RMK SC8 SLP175

CYYG;2008-10-22 07:00;CYYG 220700Z 06010G15KT 10SM -SHRA OVC037 06/05 A3004 RMK SC8 SLP174

CYYG;2008-10-22 08:00;CYYG 220800Z 07011G17KT 10SM -SHRA FEW009 OVC030 06/05 A3006 RMK SF2SC6 SLP180

CYYG;2008-10-22 08:19;CYYG 220819Z 05014G20KT 12SM FEW009 OVC019 06/ RMK SF2SC6

CYYG;2008-10-22 09:00;CYYG 220900Z 06010G15KT 12SM FEW009 OVC024 06/05 A3008 RMK SF2SC6 SLP186

CYYG;2008-10-22 09:12;CYYG 220912Z 06012G17KT 10SM -SHRA FEW009 OVC021 06/ RMK SF2SC6

CYYG;2008-10-22 10:00;CYYG 221000Z 06015KT 10SM -SHRA FEW010 OVC020 06/05 A3009 RMK SF2SC6 SLP191

CYYG;2008-10-22 10:45;CYYG 221045Z 06014G20KT 10SM -SHRA BKN010 OVC025 05/ RMK SF6SC2

CYYG;2008-10-22 11:00;CYYG 221100Z 05015KT 10SM -SHRA BKN011 OVC025 05/05 A3012 RMK SF7SC1 SLP201

CYYG;2008-10-22 11:48;CYYG 221148Z 06012G19KT 15SM -SHRA SCT010 OVC025 05/ RMK SF3SC5

CYYG;2008-10-22 12:00;CYYG 221200Z 06014G19KT 15SM -SHRA FEW010 BKN025 OVC060 05/04 A3015 RMK SF2SC5SC2 SLP212

CYYG;2008-10-22 13:00;CYYG 221300Z 05008KT 15SM -SHRA FEW010 SCT025 OVC070 05/04 A3018 RMK SF1SC2AC5 SLP223

CYYG;2008-10-22 14:00;CYYG 221400Z 06014KT 15SM VCSH FEW012 BKN022 OVC070 06/05 A3019 RMK SC1SC4AC3 SLP226

CYYG;2008-10-22 14:12;CYYG 221412Z 06011G16KT 15SM -SHRA FEW010 BKN022 OVC070 06/ RMK SF1SC6AC2

CYYG;2008-10-22 15:00;CYYG 221500Z 06012G17KT 15SM -SHRA FEW010 BKN019 OVC075 06/05 A3021 RMK SF1SC6AC2 SLP231

CYYG;2008-10-22 16:00;CYYG 221600Z 05016KT 15SM -SHRA OVC015 06/05 A3020 RMK SC8 SLP227

CYYG;2008-10-22 17:00;CYYG 221700Z 05013G22KT 15SM -SHRA BKN015 OVC055 06/05 A3020 RMK SC7SC1 SLP229

CYYG;2008-10-22 18:00;CYYG 221800Z 06018KT 15SM -SHRA BKN015 OVC030 05/04 A3022 RMK SC7SC1 SLP236

CYYG;2008-10-22 19:00;CYYG 221900Z 05013G19KT 12SM -SHRA OVC015 05/04 A3023 RMK SC8 SLP237

CYYG;2008-10-22 19:15;CYYG 221915Z 07014G19KT 12SM -SHRA OVC012 05/ RMK SC8

CYYG;2008-10-22 19:54;CYYG 221954Z 05018G28KT 15SM -SHRA FEW012 BKN022 05/ RMK SC2SC6

CYYG;2008-10-22 20:00;CYYG 222000Z 06018G27KT 15SM -SHRA FEW012 BKN022 05/02 A3024 RMK SC1SC6 SLP241

CYYG;2008-10-22 21:00;CYYG 222100Z 05018G26KT 15SM -SHRA BKN021 BKN070 04/03 A3025 RMK SC6AC1 SLP245

CYYG;2008-10-22 22:00;CYYG 222200Z 04022G27KT 15SM VCSH FEW019 BKN028 04/01 A3028 RMK SC2SC4 SLP254

CYYG;2008-10-22 23:00;CYYG 222300Z 05018G30KT 10SM -SHRA OVC027 04/01 A3029 RMK SC8 SLP259

CYYG;2008-10-23 00:00;CYYG 230000Z 04019G27KT 15SM -SHRA OVC030 04/M02 A3031 RMK SC8 SLP265

CYYG;2008-10-23 00:17;CYYG 230017Z 04021G26KT 15SM BKN035 04/ RMK SC6

CYYG;2008-10-23 01:00;CYYG 230100Z 03017G27KT 15SM BKN041 04/M01 A3032 RMK SC6 SLP270

CYYG;2008-10-23 02:00;CYYG 230200Z 02014G25KT 15SM BKN042 04/01 A3033 RMK SC7 SLP272

CYYG;2008-10-23 02:49;CYYG 230249Z 02018G24KT 10SM -SHRA FEW018 OVC036 03/ RMK SF2SC6

CYYG;2008-10-23 03:00;CYYG 230300Z 03018G27KT 10SM -SHRA FEW018 OVC038 04/M00 A3033 RMK SF1SC7 SLP272

CYYG;2008-10-23 04:00;CYYG 230400Z 02017G24KT 8SM -SHRA OVC037 03/00 A3034 RMK SC8 SLP277

CYYG;2008-10-23 05:00;CYYG 230500Z 01018G27KT 8SM -SHRA OVC038 02/01 A3035 RMK SC8 SLP279

CYYG;2008-10-23 06:00;CYYG 230600Z 02013G25KT 12SM -SHRA OVC040 03/00 A3036 RMK SC8 SLP283

CYYG;2008-10-23 06:43;CYYG 230643Z 01011G19KT 15SM OVC044 04/ RMK SC8

CYYG;2008-10-23 07:00;CYYG 230700Z 02016G21KT 15SM OVC042 04/M02 A3036 RMK SC8 SLP281

CYYG;2008-10-23 08:00;CYYG 230800Z 02018G26KT 15SM OVC039 04/M02 A3037 RMK SC8 SLP287

CYYG;2008-10-23 09:00;CYYG 230900Z 03011G20KT 15SM OVC037 03/M02 A3039 RMK SC8 SLP291

CYYG;2008-10-23 10:00;CYYG 231000Z 02013G20KT 15SM OVC042 04/M02 A3039 RMK SC8 SLP292

CYYG;2008-10-23 11:00;CYYG 231100Z 02012G17KT 15SM BKN038 03/M03 A3041 RMK SC7 SLP299

CYYG;2008-10-23 12:00;CYYG 231200Z 36012G20KT 15SM BKN037 04/M02 A3043 RMK SC7 SLP305

CYYG;2008-10-23 13:00;CYYG 231300Z 01010G16KT 15SM BKN033 04/M02 A3044 RMK SC5 SLP308

CYYG;2008-10-23 14:00;CYYG 231400Z 02014G19KT 15SM SCT033 05/M02 A3044 RMK SC4 SLP309

CYYG;2008-10-23 15:00;CYYG 231500Z 36013G19KT 15SM SCT033 05/M03 A3044 RMK SC3 SLP310

CYYG;2008-10-23 16:00;CYYG 231600Z 36013G20KT 15SM SCT032 06/M01 A3043 RMK SC3 SLP305

CYYG;2008-10-23 17:00;CYYG 231700Z 36010G20KT 15SM FEW032 06/M01 A3041 RMK SC2 SLP301

CYYG;2008-10-23 18:00;CYYG 231800Z 35012G18KT 15SM FEW030 06/M01 A3040 RMK SC2 SLP295

CYYG;2008-10-23 19:00;CYYG 231900Z 35011G18KT 15SM FEW025 05/00 A3040 RMK SC2 SLP295

CYYG;2008-10-23 20:00;CYYG 232000Z 34009G15KT 15SM BKN023 05/01 A3039 RMK SC6 SLP293

CYYG;2008-10-23 21:00;CYYG 232100Z 34006KT 15SM BKN022 04/00 A3038 RMK SC5 SLP290

CYYG;2008-10-23 22:00;CYYG 232200Z 29005KT 15SM FEW020 02/M00 A3038 RMK SC2 SLP289

CYYG;2008-10-23 23:00;CYYG 232300Z 27004KT 15SM FEW020 01/M01 A3038 RMK SC2 SLP288

CYYG;2008-10-24 00:00;CYYG 240000Z 28006KT 15SM SKC 01/M03 A3036 RMK SLP284

CYYG;2008-10-24 01:00;CYYG 240100Z 29006KT 15SM SKC M00/M03 A3036 RMK SLP283

CYYG;2008-10-24 02:00;CYYG 240200Z 30008KT 15SM SKC 02/M02 A3033 RMK SLP275

CYYG;2008-10-24 03:00;CYYG 240300Z 30007KT 15SM SKC 02/M01 A3031 RMK SLP265

CYYG;2008-10-24 04:00;CYYG 240400Z 30006KT 15SM SCT240 02/M00 A3030 RMK CI1 SLP261

CYYG;2008-10-24 05:00;CYYG 240500Z 29008KT 15SM BKN220 03/M00 A3028 RMK CI2 SLP256

CYYG;2008-10-24 06:00;CYYG 240600Z 30008KT 15SM SCT220 02/M01 A3028 RMK CI1 SLP255

CYYG;2008-10-24 07:00;CYYG 240700Z 30008KT 15SM FEW170 03/M01 A3026 RMK AC2 SLP250

CYYG;2008-10-24 08:00;CYYG 240800Z 29010KT 15SM FEW150 03/M01 A3027 RMK AC2 SLP252

CYYG;2008-10-24 09:00;CYYG 240900Z 27006KT 15SM BKN150 02/M01 A3027 RMK AC6 SLP252

CYYG;2008-10-24 10:00;CYYG 241000Z 26005KT 15SM SCT150 02/M01 A3026 RMK AC3 SLP250

CYYG;2008-10-24 11:00;CYYG 241100Z 29007KT 15SM FEW140 BKN310 03/M01 A3028 RMK AC2CI0 SLP256

CYYG;2008-10-24 12:00;CYYG 241200Z 31009KT 15SM FEW140 BKN310 04/M00 A3029 RMK AC1CI0 CONTRAILS SLP260

CYYG;2008-10-24 13:00;CYYG 241300Z 31013KT 15SM FEW010 FEW140 BKN310 05/M01 A3029 RMK SC1AC1CI0 CONTRAILS SLP260

CYYG;2008-10-24 14:00;CYYG 241400Z 31012KT 15SM FEW010 SCT310 07/M00 A3029 RMK SC1CI0 CONTRAILS SLP259

CYYG;2008-10-24 15:00;CYYG 241500Z 32010G16KT 15SM FEW310 08/00 A3028 RMK CI0 CONTRAILS SLP256

CYYG;2008-10-24 16:00;CYYG 241600Z 31008KT 15SM FEW015 FEW310 09/00 A3027 RMK SC1CI0 SLP252

CYYG;2008-10-24 17:00;CYYG 241700Z 32005KT 15SM FEW020 FEW310 10/02 A3026 RMK SC1CI0 SLP248

CYYG;2008-10-24 18:00;CYYG 241800Z 35005KT 15SM FEW020 FEW310 10/02 A3025 RMK SC1CI0 SLP245

CYYG;2008-10-24 19:00;CYYG 241900Z 36007KT 15SM FEW020 FEW310 10/02 A3025 RMK SC1CI0 SLP247

CYYG;2008-10-24 20:00;CYYG 242000Z 31008KT 15SM FEW020 FEW310 09/02 A3027 RMK SC1CI0 SLP251

CYYG;2008-10-24 21:00;CYYG 242100Z 29003KT 15SM FEW310 08/01 A3027 RMK CI0 SLP253

CYYG;2008-10-24 22:00;CYYG 242200Z 25002KT 15SM FEW310 06/01 A3029 RMK CI0 SLP258

CYYG;2008-10-24 23:00;CYYG 242300Z 28002KT 15SM FEW250 02/M00 A3029 RMK CI0 SLP259

CYYG;2008-10-25 00:00;CYYG 250000Z 19002KT 15SM SKC 04/M00 A3029 RMK SLP259

CYYG;2008-10-25 01:00;CYYG 250100Z 16003KT 15SM SKC 02/M01 A3030 RMK SLP261

CYYG;2008-10-25 02:00;CYYG 250200Z 21004KT 15SM SKC 06/01 A3031 RMK SLP265

CYYG;2008-10-25 03:00;CYYG 250300Z 23005KT 15SM SKC 05/03 A3032 RMK SLP269

CYYG;2008-10-25 04:00;CYYG 250400Z 27005KT 15SM SKC 04/01 A3032 RMK SLP269

CYYG;2008-10-25 05:00;CYYG 250500Z 26004KT 15SM SKC 04/01 A3031 RMK SLP266

CYYG;2008-10-25 06:00;CYYG 250600Z 26006KT 15SM SKC 05/02 A3031 RMK SLP266

CYYG;2008-10-25 07:00;CYYG 250700Z 25008KT 15SM SKC 04/01 A3032 RMK SLP268

CYYG;2008-10-25 08:00;CYYG 250800Z 25005KT 15SM SKC 04/01 A3032 RMK SLP269

CYYG;2008-10-25 09:00;CYYG 250900Z 23005KT 15SM SKC 04/M00 A3033 RMK SLP272

CYYG;2008-10-25 10:00;CYYG 251000Z 22004KT 15SM SKC 02/M01 A3032 RMK SLP268

CYYG;2008-10-25 11:00;CYYG 251100Z 23005KT 15SM SCT250 04/00 A3034 RMK CI1 SLP275

CYYG;2008-10-25 12:00;CYYG 251200Z 23006KT 15SM BKN250 05/02 A3036 RMK CI2 SLP284

CYYG;2008-10-25 13:00;CYYG 251300Z 21006KT 15SM BKN200 08/06 A3036 RMK CI2 SLP284

CYYG;2008-10-25 14:00;CYYG 251400Z 21008KT 15SM FEW020 BKN220 10/09 A3035 RMK SC0CI3 SLP278

CYYG;2008-10-25 15:00;CYYG 251500Z 22010KT 15SM BKN220 11/07 A3034 RMK CI3 SLP277

CYYG;2008-10-25 16:00;CYYG 251600Z 20007KT 15SM BKN220 12/06 A3034 RMK CI4 SLP276

CYYG;2008-10-25 17:00;CYYG 251700Z 18008KT 15SM BKN200 12/05 A3033 RMK CI4 SLP271

CYYG;2008-10-25 18:00;CYYG 251800Z 19007KT 15SM BKN200 12/06 A3032 RMK CS6 SLP269

CYYG;2008-10-25 19:00;CYYG 251900Z 19006KT 15SM OVC180 12/06 A3032 RMK CS7 SLP270

CYYG;2008-10-25 20:00;CYYG 252000Z 18006KT 15SM BKN170 12/06 A3031 RMK AS6 SLP267

CYYG;2008-10-25 21:00;CYYG 252100Z 19008KT 15SM BKN170 11/05 A3032 RMK AC4 SLP268

CYYG;2008-10-25 22:00;CYYG 252200Z 19008KT 15SM SCT170 09/04 A3032 RMK AS2 SLP269

CYYG;2008-10-25 23:00;CYYG 252300Z 16005KT 15SM FEW170 08/05 A3032 RMK AC2 SLP269

CYYG;2008-10-26 00:00;CYYG 260000Z 16006KT 15SM SKC 08/03 A3032 RMK SLP269

CYYG;2008-10-26 01:00;CYYG 260100Z 18009KT 15SM SKC 08/05 A3032 RMK SLP269

CYYG;2008-10-26 02:00;CYYG 260200Z 14007KT 15SM SKC 08/06 A3030 RMK SLP263

CYYG;2008-10-26 03:00;CYYG 260300Z 18012KT 15SM SKC 07/05 A3028 RMK SLP255

CYYG;2008-10-26 04:00;CYYG 260400Z 18009KT 15SM SKC 07/05 A3029 RMK SLP258

CYYG;2008-10-26 05:00;CYYG 260500Z 18009KT 15SM SKC 08/04 A3027 RMK SLP253

CYYG;2008-10-26 06:00;CYYG 260600Z 16007KT 15SM SCT190 06/05 A3026 RMK AC2 SLP247

CYYG;2008-10-26 07:00;CYYG 260700Z 16013G18KT 15SM FEW180 08/05 A3024 RMK AC2 SLP242

CYYG;2008-10-26 08:00;CYYG 260800Z 15010G15KT 15SM FEW240 08/06 A3025 RMK CI1 SLP246

CYYG;2008-10-26 09:00;CYYG 260900Z 16010KT 15SM FEW240 08/07 A3024 RMK CI1 SLP242

CYYG;2008-10-26 10:00;CYYG 261000Z 16012KT 15SM BKN280 08/07 A3024 RMK CI3 SLP242

CYYG;2008-10-26 11:00;CYYG 261100Z 15009KT 15SM BKN280 08/07 A3024 RMK CI5 SLP242

CYYG;2008-10-26 12:00;CYYG 261200Z 15011KT 15SM OVC280 10/08 A3025 RMK CI7 SLP243

CYYG;2008-10-26 13:00;CYYG 261300Z 16013KT 15SM FEW160 OVC240 10/08 A3023 RMK AC2CI6 SLP239

CYYG;2008-10-26 14:00;CYYG 261400Z 16017KT 15SM SCT160 OVC240 12/09 A3022 RMK AC3CI5 SLP235

CYYG;2008-10-26 15:00;CYYG 261500Z 16016G21KT 15SM BKN160 OVC240 12/09 A3021 RMK AC6CI2 SLP230

CYYG;2008-10-26 16:00;CYYG 261600Z 15014G20KT 15SM BKN160 OVC240 13/09 A3017 RMK AC6CI2 SLP219

CYYG;2008-10-26 17:00;CYYG 261700Z 16018KT 15SM BKN160 OVC240 15/10 A3015 RMK AC5CI3 SLP212

CYYG;2008-10-26 18:00;CYYG 261800Z 16018G24KT 15SM SCT035 OVC160 15/10 A3013 RMK SC4AC4 SLP205

CYYG;2008-10-26 19:00;CYYG 261900Z 17019G24KT 15SM FEW035 SCT160 OVC240 14/10 A3010 RMK SC2AC2CI2 SLP195

CYYG;2008-10-26 20:00;CYYG 262000Z 15021G30KT 15SM FEW035 SCT160 OVC240 14/09 A3007 RMK SC2AC2CI2 SLP184

CYYG;2008-10-26 21:00;CYYG 262100Z 16020G30KT 15SM BKN160 OVC240 13/10 A3006 RMK AC5CI3 SLP180

CYYG;2008-10-26 22:00;CYYG 262200Z CCB 15015G24KT 15SM BKN160 OVC230 13/10 A3009 RMK AC5CI3 SLP190

CYYG;2008-10-26 23:00;CYYG 262300Z 16019G27KT 15SM FEW023 BKN190 OVC240 12/09 A3007 RMK SC2AC4CI2 SLP185

CYYG;2008-10-26 23:34;CYYG 262334Z 14015G21KT 15SM -RA FEW023 BKN190 OVC240 12/ RMK SC2AC4CI2

CYYG;2008-10-26 23:51;CYYG 262351Z 14016G22KT 15SM FEW023 OVC230 12/ RMK SC2CI6

CYYG;2008-10-27 00:00;CYYG 270000Z 15017G22KT 15SM FEW023 OVC230 12/10 A3007 RMK SC2CI6 SLP183

CYYG;2008-10-27 00:39;CYYG 270039Z 14012G17KT 15SM -SHRA FEW023 BKN068 OVC140 12/ RMK SC2AC4AC2

CYYG;2008-10-27 01:00;CYYG 270100Z 15012G20KT 15SM -SHRA FEW019 BKN038 OVC068 12/11 A3006 RMK SC2SC4AC2 SLP181

CYYG;2008-10-27 01:42;CYYG 270142Z 15015G24KT 15SM FEW017 OVC049 13/ RMK SC2SC6

CYYG;2008-10-27 02:00;CYYG 270200Z 15017G24KT 15SM SCT016 OVC051 13/11 A3006 RMK SC3SC5 SLP179

CYYG;2008-10-27 03:00;CYYG 270300Z 15017G26KT 15SM FEW012 OVC058 13/12 A3003 RMK SC2SC6 SLP170

CYYG;2008-10-27 03:42;CYYG 270342Z 15017G24KT 15SM -SHRA FEW012 OVC049 13/ RMK SC2SC6

CYYG;2008-10-27 04:00;CYYG 270400Z 16017G24KT 15SM -SHRA OVC049 13/12 A3001 RMK SC8 SLP165

CYYG;2008-10-27 05:00;CYYG 270500Z 15016G24KT 15SM SCT041 OVC050 14/12 A3001 RMK SC3SC5 SLP164

CYYG;2008-10-27 05:04;CYYG 270504Z 16017G24KT 15SM -SHRA BKN039 OVC050 14/ RMK SC6SC2

CYYG;2008-10-27 06:00;CYYG 270600Z 16015G24KT 15SM -SHRA SCT023 BKN034 OVC043 14/12 A3000 RMK SC3SC3SC2 SLP158

CYYG;2008-10-27 06:23;CYYG 270623Z 16021G26KT 15SM FEW023 OVC040 14/ RMK SC2SC6

CYYG;2008-10-27 07:00;CYYG 270700Z 15019G24KT 15SM BKN036 OVC080 14/12 A2999 RMK SC6AC2 SLP155

CYYG;2008-10-27 08:00;CYYG 270800Z 16021G26KT 15SM OVC032 15/12 A2999 RMK SC8 SLP155

CYYG;2008-10-27 08:32;CYYG 270832Z 16020G25KT 15SM -SHRA FEW020 OVC039 15/ RMK SC2SC6

CYYG;2008-10-27 09:00;CYYG 270900Z 16016G24KT 15SM -SHRA OVC036 14/13 A2999 RERA RMK SC8 SLP155

CYYG;2008-10-27 10:00;CYYG 271000Z 16016G24KT 15SM -SHRA BKN025 15/13 A2999 RERA RMK SC7 SLP155

CYYG;2008-10-27 10:47;CYYG 271047Z 16015G20KT 12SM -SHRA OVC012 14/ RMK SC8

CYYG;2008-10-27 11:00;CYYG 271100Z 17015KT 15SM -SHRA OVC011 14/14 A3002 RMK SC8 RERA SLP165

CYYG;2008-10-27 11:16;CYYG 271116Z 17015G21KT 15SM -SHRA OVC009 14/ RMK SC8

CYYG;2008-10-27 12:00;CYYG 271200Z 16013KT 15SM -SHRA BKN009 OVC015 14/14 A3005 RMK SF5SC3 SLP176

CYYG;2008-10-27 12:39;CYYG 271239Z 16013KT 15SM SCT009 OVC020 14/ RMK SF4SC4

CYYG;2008-10-27 13:00;CYYG 271300Z 16015KT 15SM SCT009 OVC019 15/14 A3005 RMK SF3SC5 SLP178

CYYG;2008-10-27 14:00;CYYG 271400Z 17013KT 15SM VCSH SCT009 OVC014 15/15 A3007 RMK SF3SC5 SLP184

CYYG;2008-10-27 15:00;CYYG 271500Z 16016KT 15SM VCSH SCT009 OVC012 15/15 A3008 RMK SF3SC5 SLP187

CYYG;2008-10-27 15:38;CYYG 271538Z 16013KT 15SM FEW006 OVC010 15/ RMK SF2SC6

CYYG;2008-10-27 16:00;CYYG 271600Z 16013KT 15SM FEW006 OVC010 16/15 A3006 RMK SF2SC6 SLP182

CYYG;2008-10-27 17:00;CYYG 271700Z 15008G15KT 15SM FEW006 OVC011 16/16 A3006 RMK SF2SC6 SLP180

CYYG;2008-10-27 17:43;CYYG 271743Z 16010KT 8SM -DZ SCT006 OVC010 16/ RMK SF3SC5

CYYG;2008-10-27 18:00;CYYG 271800Z 15010KT 8SM -DZ SCT006 OVC010 16/16 A3006 RMK SF3SC5 SLP179

CYYG;2008-10-27 18:31;CYYG 271831Z 16011G16KT 6SM -DZ BKN005 OVC010 16/ RMK SF6SC2

CYYG;2008-10-27 18:40;CYYG 271840Z 15011KT 4SM -DZ BR OVC004 16/ RMK SF8

CYYG;2008-10-27 19:00;CYYG 271900Z 15010KT 6SM -DZ BR OVC005 16/16 A3006 RMK SF8 SLP179

CYYG;2008-10-27 19:25;CYYG 271925Z 15012KT 3SM -DZ BR OVC004 16/ RMK SF8

CYYG;2008-10-27 20:00;CYYG 272000Z 15012KT 6SM -DZ BR OVC004 16/16 A3005 RMK SF8 SLP177

CYYG;2008-10-27 20:19;CYYG 272019Z 15009G15KT 4SM -RA BR OVC004 16/ RMK SF8

CYYG;2008-10-27 20:37;CYYG 272037Z 16010KT 10SM -RA OVC007 16/ RMK SF8

CYYG;2008-10-27 21:00;CYYG 272100Z 16011KT 7SM -RA OVC005 16/16 A3005 RMK SF8 SLP177

CYYG;2008-10-27 21:20;CYYG 272120Z 16011G16KT 10SM -RA OVC007 15/ RMK SF8

CYYG;2008-10-27 21:41;CYYG 272141Z 15011G18KT 5SM -RA BR OVC004 15/ RMK SF8

CYYG;2008-10-27 22:00;CYYG 272200Z 16012KT 5SM -RA BR OVC003 15/15 A3006 RMK SF8 SLP178

CYYG;2008-10-27 22:41;CYYG 272241Z 16013G18KT 15SM -DZ OVC004 15/ RMK SF8

CYYG;2008-10-27 22:50;CYYG 272250Z 17013G19KT 10SM -RA OVC004 15/ RMK SF8

CYYG;2008-10-27 23:00;CYYG 272300Z 17013G19KT 10SM RA OVC004 15/15 A3006 RMK SF8 SLP180

CYYG;2008-10-27 23:44;CYYG 272344Z 15015G22KT 5SM SHRA BR OVC003 15/ RERA RMK SF8

CYYG;2008-10-28 00:00;CYYG 280000Z 16014G19KT 3SM R03/5000FT/D +SHRA BR BKN003 OVC007 15/15 A3005 RMK SF6SF2 SLP176

CYYG;2008-10-28 00:24;CYYG 280024Z 15014G20KT 15SM -SHRA BKN004 OVC007 15/ RERA RMK SF6SF2

CYYG;2008-10-28 01:00;CYYG 280100Z 16014G19KT 15SM OVC004 15/15 A3005 RERA RMK SF8 SLP177

CYYG;2008-10-28 01:40;CYYG 280140Z 16016G25KT 15SM OVC008 15/ RMK SF8

CYYG;2008-10-28 02:00;CYYG 280200Z 16014G19KT 15SM FEW005 OVC008 15/14 A3005 RMK SF2SF6 SLP176

CYYG;2008-10-28 03:00;CYYG 280300Z 16015G22KT 15SM FEW007 OVC010 14/14 A3003 RMK SF2SF6 SLP170

CYYG;2008-10-28 04:00;CYYG 280400Z 16016G21KT 15SM FEW007 OVC010 14/13 A3003 RMK SF2SF6 SLP170

CYYG;2008-10-28 05:00;CYYG 280500Z 15013G19KT 15SM BKN007 BKN011 OVC120 14/13 A3002 RMK SF5SC2AC2 SLP167

CYYG;2008-10-28 06:00;CYYG 280600Z 15015G20KT 15SM FEW008 BKN150 13/13 A3000 RMK SF2AC3 SLP158

CYYG;2008-10-28 06:39;CYYG 280639Z 14017G22KT 15SM BKN008 BKN150 13/ RMK SF6AC1

CYYG;2008-10-28 07:00;CYYG 280700Z 15019G28KT 15SM OVC008 13/13 A2996 RMK SF8 SLP146

CYYG;2008-10-28 08:00;CYYG 280800Z 15021G28KT 15SM OVC008 13/12 A2995 RMK SF8 SLP143

CYYG;2008-10-28 08:37;CYYG 280837Z 14016G21KT 15SM OVC010 12/ RMK SC8

CYYG;2008-10-28 09:00;CYYG 280900Z 14016G21KT 15SM OVC011 12/11 A2995 RMK SC8 SLP143

CYYG;2008-10-28 10:00;CYYG 281000Z 14015G21KT 15SM BKN012 11/11 A2993 RMK SC7 SLP134

CYYG;2008-10-28 11:00;CYYG 281100Z 14015G22KT 15SM VCSH OVC011 12/11 A2992 RMK SC8 SLP131

CYYG;2008-10-28 11:43;CYYG 281143Z 14015G22KT 15SM OVC009 12/ RMK SF8

CYYG;2008-10-28 12:00;CYYG 281200Z 14015G22KT 12SM OVC007 11/11 A2992 RMK SF8 SLP132

CYYG;2008-10-28 12:49;CYYG 281249Z 13015G21KT 15SM OVC006 11/ RMK SF8

CYYG;2008-10-28 13:00;CYYG 281300Z 14015KT 15SM OVC006 11/11 A2989 RMK SF8 SLP123

CYYG;2008-10-28 14:00;CYYG 281400Z 14014KT 15SM OVC009 12/11 A2987 RMK SF8 SLP117

CYYG;2008-10-28 14:15;CYYG 281415Z 14015G22KT 15SM OVC010 12/ RMK SF8

CYYG;2008-10-28 15:00;CYYG 281500Z 14017G25KT 15SM OVC011 13/11 A2984 RMK SC8 SLP105

CYYG;2008-10-28 16:00;CYYG 281600Z 14016G22KT 15SM BKN013 BKN050 BKN200 13/11 A2981 RMK SC7SC1CI1 SLP095

CYYG;2008-10-28 17:00;CYYG 281700Z 14019KT 15SM OVC013 14/12 A2978 RMK SC8 SLP085

CYYG;2008-10-28 18:00;CYYG 281800Z 14018G24KT 15SM OVC011 14/12 A2976 RMK SC8 SLP077

CYYG;2008-10-28 19:00;CYYG 281900Z 13017G25KT 15SM OVC010 14/12 A2973 RMK SC8 SLP068

CYYG;2008-10-28 19:02;CYYG 281902Z 14017G22KT 15SM -SHRA OVC010 14/ RMK SC8

CYYG;2008-10-28 19:29;CYYG 281929Z 13015G25KT 15SM -SHRA OVC009 14/ RMK SC8

CYYG;2008-10-28 20:00;CYYG 282000Z 13015G22KT 15SM -SHRA OVC008 13/13 A2970 RMK SF8 SLP057

CYYG;2008-10-28 21:00;CYYG 282100Z 15014G21KT 15SM -SHRA BKN008 OVC014 14/13 A2967 RMK SF7SC1 SLP047

CYYG;2008-10-28 21:17;CYYG 282117Z 13016G21KT 15SM OVC006 14/ RMK SF8

CYYG;2008-10-28 22:00;CYYG 282200Z 13015G21KT 15SM OVC008 14/14 A2963 RMK SF8 SLP036

CYYG;2008-10-28 22:12;CYYG 282212Z 13015G25KT 15SM -SHRA OVC008 14/ RMK SF8

CYYG;2008-10-28 23:00;CYYG 282300Z 14019G24KT 15SM -SHRA OVC008 14/13 A2961 RMK SF8 SLP028

CYYG;2008-10-29 00:00;CYYG 290000Z 14015G21KT 12SM -SHRA OVC006 14/14 A2959 RMK SF8 SLP020

CYYG;2008-10-29 00:12;CYYG 290012Z 14016G21KT 10SM -SHRA OVC005 14/ RMK SF8

CYYG;2008-10-29 00:21;CYYG 290021Z 14014G22KT 10SM -SHRA OVC004 14/14 RMK SF8

CYYG;2008-10-29 00:32;CYYG 290032Z 14014G20KT 8SM -SHRA OVC003 14/ RMK SF8

CYYG;2008-10-29 01:00;CYYG 290100Z 16012G17KT 10SM -SHRA OVC003 14/14 A2958 RMK SF8 SLP016

CYYG;2008-10-29 02:00;CYYG 290200Z 15014G19KT 12SM -SHRA OVC003 15/15 A2955 RMK SF8 SLP007

CYYG;2008-10-29 02:28;CYYG 290228Z 15013KT 15SM -SHRA BKN004 OVC008 16/ RMK SF6SF2

CYYG;2008-10-29 03:00;CYYG 290300Z 17014G19KT 15SM -SHRA BKN004 BKN020 OVC042 17/17 A2954 RMK SF5SC2SC2 SLP002

CYYG;2008-10-29 03:24;CYYG 290324Z 17013KT 15SM -SHRA SCT004 BKN016 OVC038 16/ RMK SF3SC3SC2

CYYG;2008-10-29 04:00;CYYG 290400Z 20016G25KT 15SM -SHRA SCT004 OVC020 15/15 A2955 RMK SF3SC5 SLP005

CYYG;2008-10-29 05:00;CYYG 290500Z 18012G17KT 15SM SCT004 OVC025 14/13 A2952 RMK SF3SC5 SLP998

CYYG;2008-10-29 06:00;CYYG 290600Z 17010KT 15SM FEW004 BKN035 OVC062 14/13 A2954 RMK SF2SC3SC3 SLP003

CYYG;2008-10-29 07:00;CYYG 290700Z 17012KT 15SM FEW004 SCT025 OVC055 14/13 A2953 RMK SC1SC2SC5 SLP000

CYYG;2008-10-29 08:00;CYYG 290800Z 16011KT 15SM FEW025 OVC047 14/12 A2954 RMK SC2SC6 SLP004

CYYG;2008-10-29 09:00;CYYG 290900Z 17011KT 15SM FEW025 BKN047 OVC150 13/12 A2952 RMK SC2SC4AC2 SLP999

CYYG;2008-10-29 10:00;CYYG 291000Z 18018KT 15SM FEW045 BKN150 13/10 A2952 RMK SC2AC2 SLP999

CYYG;2008-10-29 11:00;CYYG 291100Z 18018G25KT 15SM BKN150 12/10 A2953 RMK AC6 SLP002

CYYG;2008-10-29 12:00;CYYG 291200Z 18016G22KT 15SM BKN150 12/09 A2953 RMK AC6 VIRGA SLP001

CYYG;2008-10-29 13:00;CYYG 291300Z 19021G29KT 15SM FEW010 BKN150 BKN250 13/09 A2952 RMK SC1AC5CI0 SLP998

CYYG;2008-10-29 14:00;CYYG 291400Z 18021G27KT 15SM FEW012 BKN160 13/08 A2953 RMK SC2AC4 SLP000

CYYG;2008-10-29 15:00;CYYG 291500Z 20024G32KT 15SM FEW015 SCT170 13/06 A2953 RMK SC2AC2 SLP000

CYYG;2008-10-29 16:00;CYYG 291600Z 20023G30KT 15SM FEW025 FEW170 13/07 A2952 RMK SC2AC1 SLP995

CYYG;2008-10-29 17:00;CYYG 291700Z 21019G24KT 15SM BKN030 13/06 A2953 RMK SC6 CU ASOCTD SLP000

CYYG;2008-10-29 18:00;CYYG 291800Z 22014KT 15SM BKN035 BKN180 12/06 A2953 RMK SC6AC1 SLP002

CYYG;2008-10-29 19:00;CYYG 291900Z 21017KT 15SM SCT040 BKN180 BKN250 12/04 A2954 RMK SC3AC2CI1 SLP005

CYYG;2008-10-29 20:00;CYYG 292000Z 20016KT 15SM FEW040 FEW180 BKN250 11/04 A2957 RMK SC2AC1CI1 SLP013

CYYG;2008-10-29 21:00;CYYG 292100Z 21015KT 15SM FEW040 SCT180 10/04 A2958 RMK SC2AC2 SLP017

CYYG;2008-10-29 22:00;CYYG 292200Z 21013KT 15SM FEW040 FEW180 10/04 A2959 RMK SC2AC0 SLP022

CYYG;2008-10-29 23:00;CYYG 292300Z 22011G16KT 15SM BKN042 10/03 A2960 RMK SC6 SLP026

CYYG;2008-10-30 00:00;CYYG 300000Z 22011G18KT 15SM BKN044 BKN160 09/03 A2963 RMK SC6AC1 SLP034

CYYG;2008-10-30 01:00;CYYG 300100Z 22013G20KT 15SM SCT045 BKN140 09/01 A2965 RMK SC4AC2 SLP041

CYYG;2008-10-30 02:00;CYYG 300200Z 21015G21KT 15SM BKN050 BKN140 09/03 A2966 RMK SC6AC2 SLP045

CYYG;2008-10-30 03:00;CYYG 300300Z 22017G22KT 15SM BKN040 BKN140 08/03 A2967 RMK SC6AC2 SLP047

CYYG;2008-10-30 04:00;CYYG 300400Z 21019KT 15SM FEW036 BKN052 BKN160 08/02 A2968 RMK SC2SC5AC1 SLP050

CYYG;2008-10-30 05:00;CYYG 300500Z 22020G30KT 15SM BKN030 BKN060 07/01 A2969 RMK SC5SC2 SLP055

CYYG;2008-10-30 06:00;CYYG 300600Z 22021G26KT 15SM BKN026 07/02 A2971 RMK SC7 SLP062

CYYG;2008-10-30 07:00;CYYG 300700Z 22013G25KT 15SM OVC026 07/02 A2973 RMK SC8 SLP067

CYYG;2008-10-30 08:00;CYYG 300800Z 23017G22KT 15SM OVC027 06/01 A2975 RMK SC8 SLP076

CYYG;2008-10-30 08:14;CYYG 300814Z 25012G18KT 15SM -SHRA BKN021 OVC044 05/ RMK SC6SC2

CYYG;2008-10-30 09:00;CYYG 300900Z 23012G17KT 15SM -SHRA BKN021 OVC045 04/03 A2980 RMK SC6SC2 SLP094

CYYG;2008-10-30 09:48;CYYG 300948Z 23014KT 15SM SCT018 OVC045 04/ RMK SC3SC5

CYYG;2008-10-30 10:00;CYYG 301000Z 24011G17KT 15SM SCT018 OVC042 04/02 A2984 RMK SC3SC5 SLP107

CYYG;2008-10-30 11:00;CYYG 301100Z 23009KT 15SM BKN030 04/00 A2990 RMK SC5 SLP125

CYYG;2008-10-30 12:00;CYYG 301200Z 23010G15KT 15SM FEW030 SCT170 04/00 A2993 RMK SC2AC0 SLP138

CYYG;2008-10-30 13:00;CYYG 301300Z 24013G18KT 15SM FEW030 FEW170 05/M01 A2997 RMK SC2AC0 SLP149

CYYG;2008-10-30 14:00;CYYG 301400Z 24015G20KT 15SM FEW030 FEW170 06/M01 A3000 RMK SC2AC0 SLP161

CYYG;2008-10-30 15:00;CYYG 301500Z 25016G24KT 15SM FEW033 SCT170 06/M02 A3004 RMK SC2AC0 SLP173

CYYG;2008-10-30 16:00;CYYG 301600Z 25011G24KT 15SM BKN040 06/M01 A3005 RMK SC5 SLP178

CYYG;2008-10-30 17:00;CYYG 301700Z 23015KT 15SM BKN040 07/M01 A3006 RMK SC6 SLP180

CYYG;2008-10-30 18:00;CYYG 301800Z 24012G17KT 15SM BKN040 07/M01 A3008 RMK SC6 SLP186

CYYG;2008-10-30 19:00;CYYG 301900Z 24012KT 15SM BKN040 06/M01 A3012 RMK SC7 SLP202

CYYG;2008-10-30 20:00;CYYG 302000Z 25009KT 15SM BKN049 06/M01 A3013 RMK SC7 SLP205

CYYG;2008-10-30 21:00;CYYG 302100Z 26009KT 15SM BKN043 06/M01 A3016 RMK SC7 SLP215

CYYG;2008-10-30 22:00;CYYG 302200Z 29005KT 15SM BKN043 05/M01 A3019 RMK SC7 SLP224

CYYG;2008-10-30 23:00;CYYG 302300Z 31004KT 15SM BKN042 05/M00 A3020 RMK SC7 SLP227

CYYG;2008-10-31 00:00;CYYG 310000Z 29002KT 15SM OVC040 04/M01 A3020 RMK SC8 SLP228

CYYG;2008-10-31 01:00;CYYG 310100Z 27002KT 15SM OVC040 04/M00 A3021 RMK SC8 SLP232

CYYG;2008-10-31 02:00;CYYG 310200Z 00000KT 15SM OVC042 04/01 A3022 RMK SC8 SLP234

CYYG;2008-10-31 03:00;CYYG 310300Z 30003KT 15SM OVC039 04/01 A3021 RMK SC8 SLP231

CYYG;2008-10-31 04:00;CYYG 310400Z 32002KT 15SM OVC035 04/01 A3021 RMK SC8 SLP231

CYYG;2008-10-31 05:00;CYYG 310500Z 00000KT 15SM OVC037 04/01 A3021 RMK SC8 SLP231

CYYG;2008-10-31 06:00;CYYG 310600Z 32005KT 15SM OVC040 04/01 A3018 RMK SC8 SLP222

CYYG;2008-10-31 07:00;CYYG 310700Z 30005KT 15SM FEW022 OVC046 04/02 A3019 RMK SC2SC6 SLP226

CYYG;2008-10-31 07:47;CYYG 310747Z 29006KT 12SM -SHRA BKN022 OVC045 04/ RMK SC6SC2

CYYG;2008-10-31 08:00;CYYG 310800Z 32006KT 12SM -SHRA BKN020 OVC045 04/03 A3020 RMK SC6SC2 SLP230

CYYG;2008-10-31 09:00;CYYG 310900Z 31008KT 15SM -SHRA BKN020 OVC042 04/03 A3019 RMK SC5SC3 SLP226

CYYG;2008-10-31 10:00;CYYG 311000Z 28007KT 15SM -SHRA BKN024 OVC040 04/03 A3019 RMK SC6SC2 SLP224

CYYG;2008-10-31 11:00;CYYG 311100Z 30010KT 15SM -SHRA BKN031 04/02 A3018 RMK SC7 PCPN VRY LGT SLP223

CYYG;2008-10-31 11:39;CYYG 311139Z 29009KT 15SM VCSH BKN035 03/ RMK SC5

CYYG;2008-10-31 12:00;CYYG 311200Z 29009KT 15SM VCSH FEW035 FEW150 03/01 A3018 RMK SC2AC1 SLP221

CYYG;2008-10-31 13:00;CYYG 311300Z 30007KT 15SM BKN032 04/02 A3017 RMK SC5 SLP220

CYYG;2008-10-31 13:49;CYYG 311349Z 29012G17KT 15SM -SHRA BKN029 BKN150 05/ RMK SC6AC1

CYYG;2008-10-31 14:00;CYYG 311400Z 29009G18KT 15SM FEW025 BKN029 BKN150 05/03 A3013 RMK SC1SC4AC1 OCNL -SHRA SLP205

CYYG;2008-10-31 14:19;CYYG 311419Z 30010G15KT 15SM BKN014 BKN150 06/ RMK SC5AC1

CYYG;2008-10-31 15:00;CYYG 311500Z 29011G16KT 15SM VCSH OVC010 05/04 A3011 RMK SC8 SLP198

CYYG;2008-10-31 15:48;CYYG 311548Z 31013G18KT 15SM -SHRA OVC008 04/ RMK SF8

CYYG;2008-10-31 16:00;CYYG 311600Z 31011KT 15SM -SHRA BKN008 OVC012 04/03 A3008 RMK SF7SC1 SLP188

CYYG;2008-10-31 17:00;CYYG 311700Z 30007KT 15SM FEW012 OVC022 05/03 A3006 RMK SC2SC6 SLP180

CYYG;2008-10-31 18:00;CYYG 311800Z 29009KT 15SM BKN018 05/02 A3004 RMK SC7 SLP174

CYYG;2008-10-31 19:00;CYYG 311900Z 29008KT 15SM FEW022 SCT170 06/02 A3002 RMK SC2AC1 SLP169

CYYG;2008-10-31 20:00;CYYG 312000Z 25003KT 15SM FEW022 FEW170 SCT220 05/01 A3001 RMK SC1AC1CI1 SLP164

CYYG;2008-10-31 21:00;CYYG 312100Z 21004KT 15SM FEW025 FEW170 SCT200 05/00 A2998 RMK SC1AC1CI1 SLP155

CYYG;2008-10-31 22:00;CYYG 312200Z 22006KT 15SM SCT200 05/01 A2996 RMK CI1 SLP149

CYYG;2008-10-31 23:00;CYYG 312300Z 24008KT 15SM SCT240 05/02 A2996 RMK CI2 SLP146

CYYG;2008-11-01 01:00;CYYG 010100Z 25008KT 15SM SCT240 05/02 A2994 RMK CI2 SLP140

CYYG;2008-11-01 02:00;CYYG 010200Z 26012G17KT 15SM SCT240 06/02 A2993 RMK CI1 SLP136

CYYG;2008-11-01 03:00;CYYG 010300Z 25010KT 15SM BKN043 06/02 A2991 RMK SC6 SLP130

CYYG;2008-11-01 04:00;CYYG 010400Z 25011KT 15SM OVC041 07/01 A2990 RMK SC8 SLP126

CYYG;2008-11-01 05:00;CYYG 010500Z 28009G16KT 15SM OVC042 06/01 A2989 RMK SC8 SLP122

CYYG;2008-11-01 06:00;CYYG 010600Z 28008KT 15SM OVC033 06/02 A2989 RMK SC8 SLP123

CYYG;2008-11-01 07:00;CYYG 010700Z 27009KT 15SM SCT030 OVC052 06/03 A2989 RMK SC3SC5 SLP123

CYYG;2008-11-01 08:00;CYYG 010800Z 29009KT 15SM OVC050 06/03 A2989 RMK SC8 SLP122

CYYG;2008-11-01 09:00;CYYG 010900Z 28005KT 15SM OVC058 05/03 A2990 RMK SC8 SLP125

CYYG;2008-11-01 10:00;CYYG 011000Z 29011KT 15SM BKN044 06/01 A2991 RMK SC6 SLP130

CYYG;2008-11-01 11:00;CYYG 011100Z 30010G18KT 15SM SCT045 04/M02 A2994 RMK SC4 SLP140

CYYG;2008-11-01 12:00;CYYG 011200Z 30013G18KT 15SM FEW022 FEW040 04/M03 A2996 RMK SC1SC1 SLP147

CYYG;2008-11-01 13:00;CYYG 011300Z 30013G19KT 15SM FEW040 04/M02 A2997 RMK SC2 SLP151

CYYG;2008-11-01 14:00;CYYG 011400Z 30011G20KT 15SM FEW030 05/M03 A2998 RMK SC2 SLP153

CYYG;2008-11-01 15:00;CYYG 011500Z 30013KT 15SM SCT035 05/M04 A2999 RMK SC4 SLP156

CYYG;2008-11-01 16:00;CYYG 011600Z 29011G21KT 15SM BKN037 04/M03 A2999 RMK SC6 SLP157

CYYG;2008-11-01 17:00;CYYG 011700Z 29013G18KT 15SM BKN040 05/M04 A2999 RMK SC6 SLP157

CYYG;2008-11-01 18:00;CYYG 011800Z 28010G15KT 15SM BKN042 05/M04 A3000 RMK SC7 SLP159

CYYG;2008-11-01 19:00;CYYG 011900Z 30011KT 15SM BKN043 04/M04 A3001 RMK SC7 SLP163

CYYG;2008-11-01 20:00;CYYG 012000Z 31011G17KT 15SM FEW045 BKN059 04/M05 A3003 RMK SC2SC5 SH DIST NE-E SLP170

CYYG;2008-11-01 21:00;CYYG 012100Z 31011KT 15SM BKN048 04/M05 A3005 RMK SC6 SLP177

CYYG;2008-11-01 22:00;CYYG 012200Z 30006KT 15SM BKN060 03/M06 A3007 RMK SC6 SLP184

CYYG;2008-11-01 23:00;CYYG 012300Z 31008KT 15SM BKN051 03/M06 A3010 RMK SC7 SLP194

CYYG;2008-11-02 00:00;CYYG 020000Z 30009KT 15SM BKN054 02/M07 A3011 RMK SC6 SLP199

CYYG;2008-11-02 01:00;CYYG 020100Z 29008G15KT 15SM BKN055 02/M07 A3013 RMK SC5 SLP205

CYYG;2008-11-02 02:00;CYYG 020200Z 29008KT 15SM BKN050 02/M07 A3013 RMK SC6 SLP205

CYYG;2008-11-02 03:00;CYYG 020300Z 27006KT 15SM OVC050 02/M07 A3012 RMK SC8 SLP203

CYYG;2008-11-02 04:00;CYYG 020400Z 29006KT 15SM BKN052 02/M06 A3013 RMK SC7 SLP205

CYYG;2008-11-02 05:00;CYYG 020500Z 31007KT 15SM BKN053 02/M08 A3012 RMK SC7 SLP201

CYYG;2008-11-02 06:00;CYYG 020600Z 31006KT 15SM OVC053 01/M07 A3012 RMK SC8 SLP200

CYYG;2008-11-02 07:00;CYYG 020700Z 31006KT 15SM OVC052 01/M07 A3012 RMK SC8 SLP201

CYYG;2008-11-02 08:00;CYYG 020800Z 28005KT 15SM OVC052 00/M07 A3012 RMK SC8 SLP200

CYYG;2008-11-02 09:00;CYYG 020900Z 27005KT 15SM BKN056 M00/M07 A3012 RMK SC5 SLP201

CYYG;2008-11-02 10:00;CYYG 021000Z 29008KT 15SM SCT055 BKN076 M00/M07 A3013 RMK SC2AC2 SLP206

CYYG;2008-11-02 11:00;CYYG 021100Z 30010KT 15SM SCT070 BKN091 M00/M06 A3016 RMK AC2AC3 SLP215

CYYG;2008-11-02 12:00;CYYG 021200Z 30011G17KT 15SM VCSH FEW020TCU FEW094 M01/M05 A3019 RMK TCU2AC1 TCU NW-NE SLP225

CYYG;2008-11-02 12:07;CYYG 021207Z 31013G20KT 15SM -SHSN DRSN FEW020TCU SCT094 M01/ RMK TCU2AC1 TCU NW-E VIS NW-E 3

CYYG;2008-11-02 12:15;CYYG 021215Z 32017G26KT 1/2SM R03/P6000FT/N SHSN DRSN BKN019TCU M02/ RMK SN2TCU2 VIS SE-SW 5

CYYG;2008-11-02 12:18;CYYG 021218Z 32016G26KT 1/4SM R03/3500VP6000FT/D +SHSN DRSN VV005 M02/ RMK SN8

CYYG;2008-11-02 12:20;CYYG 021220Z 32017G26KT 1/2SM R03/3500VP6000FT/D SHSN DRSN VV009 M02/ RESN RMK SN8

CYYG;2008-11-02 12:28;CYYG 021228Z 31011G22KT 3SM R03/4500VP6000FT/U -SHSN BKN019TCU M02/ RESN RMK TCU6 VIS S-SW 15

CYYG;2008-11-02 12:35;CYYG 021235Z 32015G24KT 1/2SM R03/2000VP6000FT/D SHSN VV005 M02/ RESN RMK SN8

CYYG;2008-11-02 12:50;CYYG 021250Z 29015G20KT 10SM -SHSN SCT019TCU M02/ RESN RMK TCU4

CYYG;2008-11-02 13:00;CYYG 021300Z 29014G20KT 15SM -SHSN SCT019TCU M02/M03 A3021 RESN RMK TCU4 SLP231

CYYG;2008-11-02 13:32;CYYG 021332Z 31012G19KT 15SM VCSH FEW020TCU 01/ RMK TCU2 SH NE-E

CYYG;2008-11-02 13:46;CYYG 021346Z 32014G24KT 15SM -SHSN SCT020TCU 01/ RMK TCU3 VIS NW-E 5

CYYG;2008-11-02 13:53;CYYG 021353Z 34015G24KT 1 1/2SM -SHSN BKN026TCU M01/ RMK SN2TCU4 VIS SE-SW 5

CYYG;2008-11-02 14:00;CYYG 021400Z 35014G21KT 1 1/2SM -SHSN VV010 M01/M03 A3023 RMK SN8 SLP239

CYYG;2008-11-02 14:09;CYYG 021409Z 36009G22KT 15SM -SHSN BKN026TCU M01/ RMK TCU5 VIS N-E 3

CYYG;2008-11-02 14:44;CYYG 021444Z 31013G24KT 2SM -SHSN BKN038 M01/ RMK SC7

CYYG;2008-11-02 15:00;CYYG 021500Z 30011G18KT 15SM -SHSN BKN030TCU M01/M02 A3026 RMK TCU6 VIS E-SW 5 SLP250

CYYG;2008-11-02 16:00;CYYG 021600Z 31016G28KT 5SM -SHSN BKN022TCU M01/M04 A3028 RMK TCU6 VIS W-NW 15 SLP255

CYYG;2008-11-02 17:00;CYYG 021700Z 33018G28KT 15SM -SHSN FEW022 BKN045TCU 02/M07 A3029 RMK CU2TCU4 SLP259

CYYG;2008-11-02 18:00;CYYG 021800Z 31016G25KT 15SM -SHSN BKN049TCU 02/M05 A3031 RMK TCU6 SLP266

CYYG;2008-11-02 19:00;CYYG 021900Z 31015G26KT 15SM -SHSN SCT047TCU BKN080 02/M04 A3034 RMK TCU4AC1 SLP278

CYYG;2008-11-02 20:00;CYYG 022000Z 32013G28KT 15SM -SHSN SCT045TCU 02/M07 A3036 RMK TCU4 SLP283

CYYG;2008-11-02 21:00;CYYG 022100Z 31010G17KT 15SM -SHSN FEW061 01/M07 A3039 RMK SC2 SLP292

CYYG;2008-11-02 22:00;CYYG 022200Z 31010G33KT 10SM -SHSN BKN042 M00/M03 A3042 RMK SC5 SLP303

CYYG;2008-11-02 23:00;CYYG 022300Z 30009KT 10SM -SHSN BKN030 00/M03 A3045 RMK SC6 SLP313

CYYG;2008-11-02 23:30;CYYG 022330Z 28008KT 15SM FEW050 01/ RMK CU2

CYYG;2008-11-03 00:00;CYYG 030000Z 29011KT 15SM BKN062 01/M06 A3046 RMK SC6 SLP318

CYYG;2008-11-03 00:03;CYYG 030003Z 31015G21KT 2SM -SHGS BKN055 M00/ RMK SC7 TCU ASOCTD

CYYG;2008-11-03 00:21;CYYG 030021Z 31009G18KT 10SM -SHSN BKN060 M01/ RMK SC6 TCU ASOCTD

CYYG;2008-11-03 01:00;CYYG 030100Z 30005KT 12SM -SHSN OVC051 01/M04 A3048 RMK SC8 CU ASOCTD SLP325

CYYG;2008-11-03 02:00;CYYG 030200Z 29008KT 12SM -SHSN OVC053 01/M05 A3050 RMK SC8 CU ASOCTD SLP330

CYYG;2008-11-03 03:00;CYYG 030300Z 29008KT 15SM -SHSN BKN058 01/M06 A3050 RMK SC6 CU ASOCTD SLP329

CYYG;2008-11-03 04:00;CYYG 030400Z 27009KT 15SM BKN053 01/M06 A3050 RMK SC6 SLP332

CYYG;2008-11-03 05:00;CYYG 030500Z 28007KT 15SM FEW050 00/M06 A3051 RMK SC2 SLP333

CYYG;2008-11-03 06:00;CYYG 030600Z 25006KT 15SM FEW045 M01/M06 A3052 RMK SC2 SLP338

CYYG;2008-11-03 07:00;CYYG 030700Z 27006KT 15SM BKN043 M00/M06 A3052 RMK SC6 SLP339

CYYG;2008-11-03 08:00;CYYG 030800Z 27005KT 15SM FEW040 M01/M06 A3053 RMK SC1 SLP340

CYYG;2008-11-03 09:00;CYYG 030900Z 29004KT 15SM FEW040 M01/M06 A3052 RMK SC1 SLP339

CYYG;2008-11-03 10:00;CYYG 031000Z 26003KT 15SM FEW035 M01/M06 A3052 RMK SC1 SLP337

CYYG;2008-11-03 11:00;CYYG 031100Z 25005KT 15SM FEW035 BKN200 M01/M07 A3052 RMK SC1CI2 CONTRAILS SLP337

CYYG;2008-11-03 12:00;CYYG 031200Z 24004KT 15SM FEW035 BKN160 M00/M06 A3053 RMK SC1AC4 SLP341

CYYG;2008-11-03 13:00;CYYG 031300Z 24006KT 15SM BKN120 02/M05 A3052 RMK AC4 SLP337

CYYG;2008-11-03 14:00;CYYG 031400Z 24010G16KT 15SM BKN140 04/M05 A3049 RMK AC4 SLP328

CYYG;2008-11-03 15:00;CYYG 031500Z 23011G17KT 15SM BKN140 04/M03 A3047 RMK AC3 SLP321

CYYG;2008-11-03 16:00;CYYG 031600Z CCA 22012G18KT 15SM BKN140 05/M01 A3041 RMK AC3 PRESFR SLP301

CYYG;2008-11-03 17:00;CYYG 031700Z 24012KT 15SM FEW031 BKN160 06/M01 A3039 RMK SC2AC5 SLP295

CYYG;2008-11-03 18:00;CYYG 031800Z 23016G22KT 15SM FEW035 BKN160 BKN300 06/M02 A3035 RMK SC2AC2CI0 SLP280

CYYG;2008-11-03 19:00;CYYG 031900Z 23017G28KT 15SM BKN032 BKN160 07/00 A3032 RMK SC5AC2 SLP270

CYYG;2008-11-03 20:00;CYYG 032000Z 23015G25KT 15SM SCT032 BKN130 BKN300 07/00 A3030 RMK SC4AC2CI1 SLP263

CYYG;2008-11-03 21:00;CYYG 032100Z 24014G21KT 15SM BKN031 BKN130 07/02 A3029 RMK SC6AC2 SLP259

CYYG;2008-11-03 22:00;CYYG 032200Z 24013G19KT 15SM BKN028 BKN130 07/02 A3029 RMK SC6AC1 SLP259

CYYG;2008-11-03 23:00;CYYG 032300Z 25011KT 15SM BKN024 BKN110 07/03 A3028 RMK SC6AC2 SLP257

CYYG;2008-11-04 00:00;CYYG 040000Z 25011G19KT 15SM FEW025 BKN120 07/03 A3028 RMK SC2AC6 SLP257

CYYG;2008-11-04 01:00;CYYG 040100Z 26012G17KT 15SM BKN110 07/02 A3029 RMK AC7 SLP259

CYYG;2008-11-04 02:00;CYYG 040200Z 26010G17KT 15SM OVC100 07/02 A3029 RMK AC8 SLP259

CYYG;2008-11-04 03:00;CYYG 040300Z 27011KT 15SM OVC100 06/02 A3028 RMK AC8 SLP257

CYYG;2008-11-04 04:00;CYYG 040400Z 25009G15KT 15SM OVC095 06/02 A3028 RMK AC8 SLP255

CYYG;2008-11-04 05:00;CYYG 040500Z 27008KT 15SM BKN070 OVC095 06/02 A3028 RMK AC5AC3 SLP255

CYYG;2008-11-04 06:00;CYYG 040600Z 27006KT 15SM SCT080 OVC095 05/02 A3028 RMK AC3AC5 SLP255

CYYG;2008-11-04 07:00;CYYG 040700Z 27007KT 15SM BKN067 OVC090 05/02 A3028 RMK AC6AC2 SLP256

CYYG;2008-11-04 08:00;CYYG 040800Z 27007KT 15SM OVC055 06/02 A3028 RMK SC8 SLP256

CYYG;2008-11-04 09:00;CYYG 040900Z 27005KT 15SM OVC058 06/03 A3029 RMK SC8 SLP260

CYYG;2008-11-04 10:00;CYYG 041000Z 28004KT 15SM OVC060 05/03 A3029 RMK SC8 SLP260

CYYG;2008-11-04 11:00;CYYG 041100Z 28006KT 15SM BKN057 05/02 A3031 RMK SC7 SLP267

CYYG;2008-11-04 12:00;CYYG 041200Z 27007KT 15SM BKN061 06/02 A3033 RMK SC7 SLP274

CYYG;2008-11-04 13:00;CYYG 041300Z 30005KT 15SM OVC043 06/02 A3033 RMK SC8 SLP273

CYYG;2008-11-04 14:00;CYYG 041400Z 29005KT 15SM BKN039 OVC050 07/02 A3033 RMK SC7SC1 SLP273

CYYG;2008-11-04 15:00;CYYG 041500Z 29005KT 15SM OVC048 07/02 A3034 RMK SC8 SLP275

CYYG;2008-11-04 16:00;CYYG 041600Z 26006KT 15SM BKN050 BKN250 08/01 A3032 RMK SC6CI1 SLP268

CYYG;2008-11-04 17:00;CYYG 041700Z 24008KT 15SM FEW050 BKN240 09/02 A3030 RMK SC2CI2 SLP261

CYYG;2008-11-04 18:00;CYYG 041800Z 26006KT 15SM FEW050 BKN240 10/03 A3028 RMK SC1CI2 SLP257

CYYG;2008-11-04 19:00;CYYG 041900Z 25010KT 15SM FEW040 SCT240 09/01 A3029 RMK SC1CI1 SLP258

CYYG;2008-11-04 20:00;CYYG 042000Z 23006KT 15SM BKN064 BKN250 07/03 A3029 RMK SC5CI1 SLP260

CYYG;2008-11-04 21:00;CYYG 042100Z 23005KT 15SM BKN064 OVC250 07/03 A3028 RMK SC7CI0 SLP256

CYYG;2008-11-04 22:00;CYYG 042200Z 22005KT 15SM BKN030 OVC065 08/03 A3029 RMK SC6SC2 SLP258

CYYG;2008-11-04 23:00;CYYG 042300Z 20005KT 15SM FEW030 OVC069 07/04 A3029 RMK SC2AC6 SLP258

CYYG;2008-11-05 00:00;CYYG 050000Z 20006KT 15SM FEW030 OVC065 08/05 A3029 RMK SC1AC7 SLP258

CYYG;2008-11-05 01:00;CYYG 050100Z 19006KT 15SM FEW030 OVC067 08/06 A3028 RMK SC2AC6 SLP257

CYYG;2008-11-05 02:00;CYYG 050200Z 20005KT 15SM FEW030 OVC068 08/06 A3027 RMK SC1AC7 SLP253

CYYG;2008-11-05 03:00;CYYG 050300Z 22008KT 15SM OVC067 09/06 A3025 RMK AC8 SLP247

CYYG;2008-11-05 04:00;CYYG 050400Z 25007KT 15SM OVC063 09/07 A3025 RMK SC8 SLP246

CYYG;2008-11-05 05:00;CYYG 050500Z 22007KT 15SM OVC062 09/07 A3023 RMK SC8 SLP239

CYYG;2008-11-05 06:00;CYYG 050600Z 22009KT 15SM OVC060 10/08 A3022 RMK SC8 SLP235

CYYG;2008-11-05 07:00;CYYG 050700Z 22008KT 15SM OVC063 10/08 A3021 RMK SC8 SLP232

CYYG;2008-11-05 08:00;CYYG 050800Z 24010G15KT 15SM OVC060 10/08 A3021 RMK SC8 SLP231

CYYG;2008-11-05 08:44;CYYG 050844Z 24009KT 15SM FEW008 OVC056 09/ RMK SF2SC6

CYYG;2008-11-05 09:00;CYYG 050900Z 23012KT 15SM BKN007 OVC056 09/08 A3020 RMK SF6SC2 SLP230

CYYG;2008-11-05 09:31;CYYG 050931Z 23011G16KT 6SM BR OVC006 09/ RMK SF8

CYYG;2008-11-05 10:00;CYYG 051000Z 22011G16KT 6SM BR OVC006 09/08 A3019 RMK SF8 SLP225

CYYG;2008-11-05 11:00;CYYG 051100Z 24011G16KT 6SM BR OVC006 09/09 A3019 RMK SF8 SLP226

CYYG;2008-11-05 12:00;CYYG 051200Z 23010G15KT 6SM BR OVC007 09/09 A3020 RMK SF8 SLP226

CYYG;2008-11-05 13:00;CYYG 051300Z 24011KT 6SM BR OVC007 10/09 A3019 RMK SF8 SLP225

CYYG;2008-11-05 14:00;CYYG 051400Z 22011KT 8SM BKN008 OVC240 11/10 A3019 RMK SF6CI2 SLP224

CYYG;2008-11-05 14:36;CYYG 051436Z 23012G17KT 10SM SCT010 OVC240 12/ RMK SF3CI5

CYYG;2008-11-05 15:00;CYYG 051500Z 22011KT 10SM SCT012 OVC240 12/10 A3019 RMK SF3CI5 SLP225

CYYG;2008-11-05 16:00;CYYG 051600Z 23011KT 15SM OVC240 12/10 A3018 RMK CI8 SLP222

CYYG;2008-11-05 17:00;CYYG 051700Z 23011G16KT 15SM OVC230 13/11 A3017 RMK CI8 SLP219

CYYG;2008-11-05 18:00;CYYG 051800Z 23011G19KT 15SM OVC150 14/11 A3016 RMK AC8 SLP213

CYYG;2008-11-05 19:00;CYYG 051900Z 23012KT 15SM SCT150 BKN250 14/11 A3015 RMK AC3CI4 SLP212

CYYG;2008-11-05 20:00;CYYG 052000Z 23009G16KT 15SM FEW150 BKN230 14/11 A3016 RMK AC2CI5 SLP215

CYYG;2008-11-05 21:00;CYYG 052100Z 23012G17KT 15SM BKN200 14/10 A3017 RMK CI4 SLP216

CYYG;2008-11-05 22:00;CYYG 052200Z 23011KT 15SM SCT220 13/11 A3017 RMK CI2 SLP219

CYYG;2008-11-05 23:00;CYYG 052300Z 24011G18KT 15SM SCT240 14/12 A3017 RMK CI2 SLP218

CYYG;2008-11-06 00:00;CYYG 060000Z 24010G16KT 15SM SCT240 13/12 A3018 RMK CI2 SLP220

CYYG;2008-11-06 01:00;CYYG 060100Z 24010G16KT 15SM FEW240 13/12 A3018 RMK CI2 SLP222

CYYG;2008-11-06 02:00;CYYG 060200Z 24010G18KT 15SM FEW150 13/11 A3019 RMK AC2 SLP224

CYYG;2008-11-06 03:00;CYYG 060300Z 25015KT 15SM FEW150 13/11 A3019 RMK AC2 SLP223

CYYG;2008-11-06 04:00;CYYG 060400Z 25011G17KT 15SM SKC 12/11 A3019 RMK SLP225

CYYG;2008-11-06 05:00;CYYG 060500Z 24011G18KT 15SM SKC 12/11 A3019 RMK SLP225

CYYG;2008-11-06 06:00;CYYG 060600Z 24009G15KT 15SM SKC 12/11 A3020 RMK SLP227

CYYG;2008-11-06 07:00;CYYG 060700Z 24007KT 15SM SKC 12/11 A3020 RMK SLP228

CYYG;2008-11-06 08:00;CYYG 060800Z 25011KT 15SM SKC 12/11 A3020 RMK SLP228

CYYG;2008-11-06 09:00;CYYG 060900Z 22006KT 15SM SKC 11/11 A3021 RMK SLP232

CYYG;2008-11-06 10:00;CYYG 061000Z 22007KT 15SM FEW030 FEW200 11/10 A3021 RMK SC1CI2 SLP230

CYYG;2008-11-06 11:00;CYYG 061100Z 22008KT 15SM BKN140 11/10 A3021 RMK AC7 SLP232

CYYG;2008-11-06 12:00;CYYG 061200Z 22008KT 15SM BKN300 12/11 A3023 RMK CI6 SLP238

CYYG;2008-11-06 13:00;CYYG 061300Z 23007KT 15SM BKN300 14/12 A3023 RMK CI4 SLP239

CYYG;2008-11-06 14:00;CYYG 061400Z 24010KT 15SM BKN300 15/12 A3024 RMK CI3 SLP240

CYYG;2008-11-06 15:00;CYYG 061500Z 23007KT 15SM BKN300 15/13 A3023 RMK CI4 SLP238

CYYG;2008-11-06 16:00;CYYG 061600Z 22008KT 15SM BKN300 15/13 A3021 RMK CS4 SLP231

CYYG;2008-11-06 17:00;CYYG 061700Z 23009KT 15SM BKN300 18/13 A3019 RMK CS5 SLP223

CYYG;2008-11-06 18:00;CYYG 061800Z 22008KT 15SM FEW030 BKN300 17/13 A3017 RMK SC1CS3 SLP218

CYYG;2008-11-06 19:00;CYYG 061900Z 18008KT 15SM FEW030 BKN210 BKN300 15/12 A3017 RMK SC1CI4CS2 SLP218

CYYG;2008-11-06 20:00;CYYG 062000Z 20005KT 15SM FEW030 BKN210 BKN300 15/12 A3017 RMK SC1CI6CS1 SLP218

CYYG;2008-11-06 21:00;CYYG 062100Z 21005KT 15SM BKN170 BKN210 14/12 A3017 RMK AS6CI2 SLP219

CYYG;2008-11-06 22:00;CYYG 062200Z 21006KT 15SM BKN150 14/12 A3018 RMK AS7 SLP222

CYYG;2008-11-06 23:00;CYYG 062300Z 23004KT 15SM OVC170 14/13 A3019 RMK AS8 SLP224

CYYG;2008-11-07 00:00;CYYG 070000Z 22003KT 15SM FEW030 OVC150 14/13 A3020 RMK SC2AS6 SLP226

CYYG;2008-11-07 01:00;CYYG 070100Z 21003KT 15SM FEW030 OVC110 14/14 A3019 RMK SC2AS6 SLP223

CYYG;2008-11-07 02:00;CYYG 070200Z CCA 00000KT 15SM -SHRA FEW018 OVC090 13/13 A3019 RMK SC2AS6 SLP224

CYYG;2008-11-07 02:13;CYYG 070213Z 15002KT 15SM FEW007 SCT012 OVC090 13/ RMK SF2SC2AS4

CYYG;2008-11-07 03:00;CYYG 070300Z 16004KT 15SM -SHRA FEW007 SCT018 OVC100 13/13 A3016 RMK SF2SC2AS4 SLP215

CYYG;2008-11-07 03:18;CYYG 070318Z 18005KT 5SM -RA BR FEW007 BKN015 OVC100 13/ RMK SF2SC3AS3

CYYG;2008-11-07 04:00;CYYG 070400Z 23002KT 2SM R03/4500VP6000FT/D -RA BR OVC028 13/13 A3016 RMK FG2SC6 PCPN VRY LGT SLP214

CYYG;2008-11-07 04:17;CYYG 070417Z 00000KT 1/2SM R03/2000V3000FT/D -RA FG VV001 14/ RMK FG8

CYYG;2008-11-07 04:36;CYYG 070436Z 00000KT 1/4SM R03/1400V1800FT/N -RA FG VV001 13/ RMK FG8 PCPN VRY LGT

CYYG;2008-11-07 05:00;CYYG 070500Z 07002KT 1/4SM R03/1200FT/N FG VV001 13/13 A3015 RMK FG8 SLP210

CYYG;2008-11-07 06:00;CYYG 070600Z 00000KT 1/2SM R03/2200FT/D FG SCT019 OVC075 13/13 A3014 RMK FG2SC2AC4 SLP208

CYYG;2008-11-07 07:00;CYYG 070700Z 04002KT 1/4SM R03/1400FT/N FG VV001 13/13 A3014 RMK FG8 SLP206

CYYG;2008-11-07 08:00;CYYG 070800Z 13002KT 1/4SM R03/1200FT/N FG VV001 13/13 A3013 RMK FG8 SLP203

CYYG;2008-11-07 08:31;CYYG 070831Z 13003KT 3/4SM R03/2200V3500FT/U BR OVC016 13/ RMK FG4SC4

CYYG;2008-11-07 09:00;CYYG 070900Z 09002KT 2SM R03/4500VP6000FT/U BR OVC015 14/14 A3013 RMK SC8 SLP203

CYYG;2008-11-07 09:24;CYYG 070924Z 07004KT 4SM -SHRA BR OVC015 14/ RMK SC8

CYYG;2008-11-07 10:00;CYYG 071000Z 09003KT 5SM -SHRA BR OVC015 14/14 A3012 RMK SC8 SLP200

CYYG;2008-11-07 10:16;CYYG 071016Z 11003KT 15SM OVC012 14/ RMK SC8

CYYG;2008-11-07 11:00;CYYG 071100Z 09002KT 10SM OVC012 14/14 A3012 RMK SC8 SLP201

CYYG;2008-11-07 11:24;CYYG 071124Z 05003KT 8SM FEW003 OVC012 14/ RMK SF1SC7

CYYG;2008-11-07 11:34;CYYG 071134Z 05003KT 5SM BR BKN003 OVC012 14/ RMK SF6SC2 VIS W-NE 2

CYYG;2008-11-07 12:00;CYYG 071200Z 06004KT 2 1/2SM BR BKN004 OVC011 14/14 A3012 RMK SF6SC2 SLP201

CYYG;2008-11-07 13:00;CYYG 071300Z 09006KT 2SM BR OVC004 14/14 A3011 RMK SF8 SLP198

CYYG;2008-11-07 13:32;CYYG 071332Z 10006KT 1SM R03/P6000FT/D BR OVC003 14/ RMK SF8

CYYG;2008-11-07 13:51;CYYG 071351Z 11006KT 1 1/2SM BR OVC003 14/ RMK SF8

CYYG;2008-11-07 14:00;CYYG 071400Z 11006KT 1 1/2SM BR OVC003 14/14 A3010 RMK SF8 SLP193

CYYG;2008-11-07 14:27;CYYG 071427Z 11006KT 4SM BR SCT005 OVC010 14/ RMK SF4SF4

CYYG;2008-11-07 15:00;CYYG 071500Z 12006KT 6SM BR BKN009 OVC022 15/15 A3008 RMK SF6SC2 SLP187

CYYG;2008-11-07 16:00;CYYG 071600Z 11007KT 10SM SCT010 BKN022 OVC060 15/15 A3005 RMK SF3SC2SC2 SLP178

CYYG;2008-11-07 16:14;CYYG 071614Z 12006KT 8SM -SHRA BKN012 OVC020 15/ RMK SF6SC2

CYYG;2008-11-07 17:00;CYYG 071700Z 11009KT 8SM -SHRA BKN009 OVC042 16/15 A3002 RMK SF6SC2 SLP168

CYYG;2008-11-07 18:00;CYYG 071800Z 11008KT 6SM -SHRA BR BKN006 OVC032 15/15 A3001 RMK SF6SC2 SLP161

CYYG;2008-11-07 19:00;CYYG 071900Z 11007KT 5SM -SHRA BR BKN006 OVC021 15/15 A2999 RMK SF6SC2 SLP157

CYYG;2008-11-07 20:00;CYYG 072000Z 12006KT 5SM -SHRA BR BKN004 OVC012 14/14 A2999 RMK SF6SC2 SLP156

CYYG;2008-11-07 20:26;CYYG 072026Z 11007KT 1SM R03/P6000FT/N -SHRA BR OVC003 14/ RMK SF8

CYYG;2008-11-07 20:33;CYYG 072033Z 10007KT 3/4SM R03/P6000FT/N -SHRA BR OVC002 14/ RMK SF8

CYYG;2008-11-07 21:00;CYYG 072100Z 11006KT 1 1/2SM -SHRA BR OVC002 14/14 A2996 RMK SF8 SLP147

CYYG;2008-11-07 21:33;CYYG 072133Z 11006KT 3SM -SHRA BR OVC002 14/ RMK SF8

CYYG;2008-11-07 22:00;CYYG 072200Z 12007KT 5SM -SHRA BR BKN003 OVC033 14/14 A2995 RMK SF6SC2 SLP142

CYYG;2008-11-07 22:50;CYYG 072250Z 11009KT 6SM -RA BR BKN004 OVC039 14/ RMK SF6SC2

CYYG;2008-11-07 23:00;CYYG 072300Z 10008KT 6SM -RA BR BKN006 OVC038 14/14 A2993 RMK SF5SC3 SLP135

CYYG;2008-11-07 23:42;CYYG 072342Z 11008KT 4SM -RA BR BKN003 OVC011 14/ RMK SF6SF2

CYYG;2008-11-08 00:00;CYYG 080000Z 11007KT 3SM -RA BR OVC003 14/14 A2990 RMK SF8 SLP126

CYYG;2008-11-08 01:00;CYYG 080100Z 13010KT 3SM -RA BR OVC006 14/14 A2988 RMK SF8 SLP118

CYYG;2008-11-08 02:00;CYYG 080200Z 15012KT 8SM -RA OVC003 15/15 A2985 RMK SF8 SLP107

CYYG;2008-11-08 03:00;CYYG 080300Z 17013KT 8SM -RA OVC004 15/15 A2983 RMK SF8 SLP101

CYYG;2008-11-08 03:49;CYYG 080349Z 19010KT 10SM -RA SCT003 OVC009 14/ RMK SF4SF4

CYYG;2008-11-08 04:00;CYYG 080400Z 20011KT 8SM -RA SCT003 OVC008 14/14 A2983 RMK SF4SF4 SLP101

CYYG;2008-11-08 04:39;CYYG 080439Z 21008KT 6SM -RA BR OVC003 14/ RMK SF8

CYYG;2008-11-08 05:00;CYYG 080500Z 21006KT 6SM -DZ BR OVC003 14/14 A2982 RMK SF8 SLP100

CYYG;2008-11-08 06:00;CYYG 080600Z 22005KT 6SM -DZ BR OVC004 14/14 A2982 RMK SF8 SLP099

CYYG;2008-11-08 07:00;CYYG 080700Z 21005KT 3/4SM R03/3000VP6000FT/D -DZ BR VV002 14/14 A2981 RMK FG8 SLP096

CYYG;2008-11-08 08:00;CYYG 080800Z 24007KT 3/4SM R03/2200V3000FT/D -DZ BR VV002 13/13 A2981 RMK FG8 SLP096

CYYG;2008-11-08 09:00;CYYG 080900Z 27005KT 3/4SM R03/2200V3000FT/U -DZ BR VV002 11/11 A2982 RMK FG8 SLP100

CYYG;2008-11-08 10:00;CYYG 081000Z 29002KT 3/4SM R03/3000FT/N -DZ BR VV001 10/10 A2982 RMK FG8 SLP099

CYYG;2008-11-08 10:37;CYYG 081037Z 27003KT 1 1/2SM -DZ BR OVC006 10/ RMK SF8

CYYG;2008-11-08 11:00;CYYG 081100Z 24002KT 3SM -DZ BR BKN007 OVC020 10/10 A2981 RMK SF6SC2 SLP096

CYYG;2008-11-08 11:50;CYYG 081150Z 23003KT 12SM SCT007 OVC015 10/ RMK SF3SC5

CYYG;2008-11-08 12:00;CYYG 081200Z 25003KT 12SM SCT006 OVC014 10/10 A2982 RMK SF3SC5 SLP099

CYYG;2008-11-08 13:00;CYYG 081300Z 26004KT 8SM SCT005 OVC012 10/10 A2982 RMK SF4SC4 SLP099

CYYG;2008-11-08 13:44;CYYG 081344Z 27006KT 3SM BR BKN004 OVC013 11/ RMK SF6SC2

CYYG;2008-11-08 14:00;CYYG 081400Z 28007KT 3SM BR BKN004 OVC014 11/11 A2982 RMK SF6SC2 SLP099

CYYG;2008-11-08 15:00;CYYG 081500Z 00000KT 12SM BKN004 OVC012 12/12 A2982 RMK SF6SC2 SLP097

CYYG;2008-11-08 16:00;CYYG 081600Z 00000KT 15SM OVC005 13/13 A2979 RMK SF8 SLP089

CYYG;2008-11-08 17:00;CYYG 081700Z 32003KT 6SM BR OVC004 13/13 A2980 RMK SF8 SLP092

CYYG;2008-11-08 17:48;CYYG 081748Z 12005KT 1SM R03/3000VP6000FT/D BR OVC002 12/ RMK SF8

CYYG;2008-11-08 17:52;CYYG 081752Z 12004KT 1/2SM R03/3500FT/D FG VV002 12/ RMK FG8

CYYG;2008-11-08 18:00;CYYG 081800Z 13004KT 1/2SM R03/2200V3500FT/D FG VV002 12/12 A2978 RMK FG8 SLP086

CYYG;2008-11-08 19:00;CYYG 081900Z 18005KT 1/2SM R03/2200V3500FT/D FG VV002 12/12 A2979 RMK FG8 SLP087

CYYG;2008-11-08 19:35;CYYG 081935Z 15003KT 1SM R03/P6000FT/U BR OVC002 12/ RMK SF8

CYYG;2008-11-08 19:47;CYYG 081947Z 18003KT 3SM BR OVC003 12/ RMK SF8

CYYG;2008-11-08 20:00;CYYG 082000Z 18003KT 3SM BR OVC004 12/12 A2979 RMK SF8 SLP088

CYYG;2008-11-08 20:43;CYYG 082043Z 00000KT 1 1/2SM BR BKN004 OVC011 11/ RMK FG2SF5SC1

CYYG;2008-11-08 21:00;CYYG 082100Z CCA 00000KT 1 1/2SM -DZ BR OVC003 11/11 A2979 RMK FG2SF6 SLP089

CYYG;2008-11-08 22:00;CYYG 082200Z CCA 10003KT 2SM -DZ BR OVC004 11/11 A2979 RMK FG2SF6 SLP089

CYYG;2008-11-08 22:37;CYYG 082237Z 00000KT 6SM BR BKN005 OVC009 11/ RMK SF6SF2

CYYG;2008-11-08 23:00;CYYG 082300Z 11002KT 8SM OVC005 11/11 A2980 RMK SF8 SLP091

CYYG;2008-11-08 23:46;CYYG 082346Z 16002KT 5SM BR OVC002 10/ RMK SF8

CYYG;2008-11-09 00:00;CYYG 090000Z 16002KT 5SM BR OVC002 10/10 A2980 RMK SF8 SLP092

CYYG;2008-11-09 00:12;CYYG 090012Z 00000KT 1/2SM R03/2200V4000FT/D FG VV001 10/ RMK FG8

CYYG;2008-11-09 01:00;CYYG 090100Z 09003KT 1/2SM R03/2800FT/N FG VV001 10/10 A2979 RMK FG8 SLP087

CYYG;2008-11-09 02:00;CYYG 090200Z 00000KT 3/4SM R03/6000FT/D BR VV003 10/10 A2978 RMK FG8 SLP085

CYYG;2008-11-09 03:00;CYYG 090300Z 13003KT 3/4SM R03/3500V5000FT/D BR VV002 11/11 A2976 RMK FG8 SLP079

CYYG;2008-11-09 04:00;CYYG 090400Z 14004KT 3/4SM R03/2200V3000FT/U BR VV002 11/11 A2975 RMK FG8 SLP076

CYYG;2008-11-09 05:00;CYYG 090500Z 17003KT 3/4SM R03/2400FT/N BR VV002 11/11 A2974 RMK FG8 SLP072

CYYG;2008-11-09 06:00;CYYG 090600Z 17008KT 1/2SM R03/2000FT/N FG VV001 12/12 A2973 RMK FG8 SLP068

CYYG;2008-11-09 07:00;CYYG 090700Z 17005KT 1/4SM R03/1600FT/N FG VV001 13/13 A2972 RMK FG8 SLP065

CYYG;2008-11-09 08:00;CYYG 090800Z 14006KT 1/4SM R03/1600V2400FT/N FG VV001 13/13 A2970 RMK FG8 SLP059

CYYG;2008-11-09 09:00;CYYG 090900Z 14004KT 1/4SM R03/1600FT/N FG VV001 12/12 A2970 RMK FG8 SLP059

CYYG;2008-11-09 10:00;CYYG 091000Z 14006KT 1/4SM R03/1600FT/N FG VV001 12/12 A2969 RMK FG8 SLP054

CYYG;2008-11-09 11:00;CYYG 091100Z 17008KT 1/4SM R03/1800FT/N FG VV001 13/13 A2969 RMK FG8 SLP055

CYYG;2008-11-09 12:00;CYYG 091200Z 17007KT 1/4SM R03/1400FT/N FG VV001 13/13 A2970 RMK FG8 SLP058

CYYG;2008-11-09 12:30;CYYG 091230Z 16008KT 5/8SM R03/1800VP6000FT/U BR VV001 14/ RMK FG8

CYYG;2008-11-09 12:35;CYYG 091235Z 16008KT 1SM R03/4000VP6000FT/U BR OVC003 13/ RMK FG5SF3

CYYG;2008-11-09 12:48;CYYG 091248Z 17007KT 4SM BR SCT002 OVC006 14/ RMK SF4SF4

CYYG;2008-11-09 13:00;CYYG 091300Z 14006KT 6SM BR SCT003 OVC006 14/14 A2969 RMK SF3SC5 SLP053

CYYG;2008-11-09 13:44;CYYG 091344Z 16011KT 1SM R03/2600VP6000FT/D BR OVC003 14/ RMK FG3SF5

CYYG;2008-11-09 14:00;CYYG 091400Z 15008KT 1SM R03/3500VP6000FT/U BR OVC003 14/14 A2967 RMK FG3SF5 SLP049

CYYG;2008-11-09 14:39;CYYG 091439Z 16008KT 2SM BR OVC003 14/ RMK FG2SF6

CYYG;2008-11-09 15:00;CYYG 091500Z 15010G15KT 1 1/2SM BR OVC002 14/14 A2966 RMK FG3SF5 SLP044

CYYG;2008-11-09 15:51;CYYG 091551Z 16009KT 4SM BR BKN002 OVC005 14/ RMK SF6SF2

CYYG;2008-11-09 16:00;CYYG 091600Z 16010KT 4SM BR BKN003 OVC007 14/14 A2964 RMK SF6SF2 SLP039

CYYG;2008-11-09 16:30;CYYG 091630Z 16008KT 10SM SCT003 OVC013 15/ RMK SF4SC4

CYYG;2008-11-09 17:00;CYYG 091700Z 17010KT 15SM SCT004 BKN012 16/16 A2960 RMK SF3SC4 SLP024

CYYG;2008-11-09 17:41;CYYG 091741Z 16010KT 15SM FEW004 BKN017 BKN035 17/ RMK SF2SC3SC2

CYYG;2008-11-09 18:00;CYYG 091800Z 16011KT 15SM FEW004 BKN018 BKN035 17/16 A2958 RMK SF1SC4SC2 SLP017

CYYG;2008-11-09 18:41;CYYG 091841Z 18012G17KT 15SM FEW004 OVC014 16/ RMK SF2SC6

CYYG;2008-11-09 19:00;CYYG 091900Z 17010G15KT 15SM FEW004 OVC011 16/15 A2959 RMK SF1SC7 SLP020

CYYG;2008-11-09 19:47;CYYG 091947Z 17010G15KT 15SM SCT012 BKN020 16/ RMK SC4SC3

CYYG;2008-11-09 20:00;CYYG 092000Z 17010KT 15SM SCT012 BKN021 16/15 A2958 RMK SC3SC3 SLP019

CYYG;2008-11-09 21:00;CYYG 092100Z 18007KT 15SM SCT012 BKN025 BKN075 15/14 A2958 RMK SC3SC2AC2 SLP018

CYYG;2008-11-09 22:00;CYYG 092200Z 17011KT 15SM FEW011 BKN024 BKN070 15/13 A2958 RMK SC2SC4AC2 SLP016

CYYG;2008-11-09 23:00;CYYG 092300Z 19012KT 15SM SCT014 BKN035 BKN060 15/13 A2958 RMK SC3SC2SC2 SLP018

CYYG;2008-11-10 00:00;CYYG 100000Z 24010G17KT 12SM OVC007 14/14 A2959 RMK SF8 SLP020

CYYG;2008-11-10 01:00;CYYG 100100Z 23010G15KT 12SM BKN008 OVC015 13/12 A2960 RMK SF6SC2 SLP026

CYYG;2008-11-10 02:00;CYYG 100200Z 23009KT 12SM BKN008 OVC020 12/11 A2961 RMK SF6SC2 SLP029

CYYG;2008-11-10 03:00;CYYG 100300Z 24009G15KT 12SM FEW008 SCT015 OVC025 11/10 A2963 RMK SF2SC2SC4 SLP036

CYYG;2008-11-10 04:00;CYYG 100400Z 23010KT 12SM BKN012 OVC040 11/10 A2965 RMK SC7SC1 SLP042

CYYG;2008-11-10 05:00;CYYG 100500Z 23008KT 12SM FEW010 BKN017 OVC040 11/10 A2966 RMK SC2SC4SC2 SLP044

CYYG;2008-11-10 06:00;CYYG 100600Z 27012G18KT 12SM BKN012 OVC035 10/09 A2969 RMK SC6SC2 SLP054

CYYG;2008-11-10 07:00;CYYG 100700Z 27013KT 12SM OVC013 08/07 A2972 RMK SC8 SLP064

CYYG;2008-11-10 08:00;CYYG 100800Z 27008KT 15SM SCT012 OVC025 08/06 A2973 RMK SC4SC4 SLP068

CYYG;2008-11-10 09:00;CYYG 100900Z 25014KT 15SM BKN012 OVC021 08/05 A2976 RMK SC6SC2 SLP077

CYYG;2008-11-10 10:00;CYYG 101000Z 27011G18KT 15SM BKN013 OVC077 07/05 A2977 RMK SC6AC2 SLP083

CYYG;2008-11-10 11:00;CYYG 101100Z 25009KT 15SM FEW015 FEW075 FEW250 06/04 A2980 RMK SC1AC1CI0 SLP091

CYYG;2008-11-10 12:00;CYYG 101200Z 25010KT 15SM FEW015 FEW075 06/04 A2983 RMK SC1AC1 SLP103

CYYG;2008-11-10 13:00;CYYG 101300Z 25014KT 15SM FEW015 FEW075 07/04 A2985 RMK SC1AC2 SLP109

CYYG;2008-11-10 14:00;CYYG 101400Z 24012G18KT 15SM FEW015 FEW075 08/05 A2986 RMK SC1AC1 SLP113

CYYG;2008-11-10 15:00;CYYG 101500Z 25010KT 15SM FEW015 FEW075 09/04 A2986 RMK SC1AC2 SLP114

CYYG;2008-11-10 16:00;CYYG 101600Z 23010G15KT 15SM FEW015 BKN079 09/04 A2987 RMK SC1AC6 SLP115

CYYG;2008-11-10 17:00;CYYG 101700Z 25010KT 15SM FEW050 OVC060 09/04 A2986 RMK SC2SC6 SLP114

CYYG;2008-11-10 18:00;CYYG 101800Z 23007KT 15SM FEW040 BKN069 09/05 A2986 RMK SC2SC6 SLP113

CYYG;2008-11-10 19:00;CYYG 101900Z 23004KT 15SM BKN063 09/05 A2986 RMK SC6 SLP112

CYYG;2008-11-10 20:00;CYYG 102000Z 23003KT 15SM FEW030 BKN056 BKN090 09/05 A2986 RMK SC1SC6AC1 SLP114

CYYG;2008-11-10 21:00;CYYG 102100Z 20005KT 15SM BKN068 08/06 A2986 RMK SC6 SLP114

CYYG;2008-11-10 22:00;CYYG 102200Z 17004KT 15SM FEW035 BKN080 07/06 A2986 RMK SC2AC4 SLP113

CYYG;2008-11-10 23:00;CYYG 102300Z 18006KT 15SM BKN058 BKN110 08/07 A2986 RMK SC6AC1 SLP112

CYYG;2008-11-11 00:00;CYYG 110000Z 18005KT 15SM BKN055 BKN100 08/07 A2985 RMK SC6AC2 SLP109

CYYG;2008-11-11 01:00;CYYG 110100Z 18005KT 15SM SCT050 OVC110 07/07 A2985 RMK SC3AC5 SLP109

CYYG;2008-11-11 02:00;CYYG 110200Z 20006KT 15SM BKN050 OVC110 08/08 A2984 RMK SC6AC2 SLP106

CYYG;2008-11-11 03:00;CYYG 110300Z 19005KT 15SM SCT024 BKN070 OVC110 08/08 A2983 RMK SC3AC3AC2 SLP102

CYYG;2008-11-11 04:00;CYYG 110400Z 18006KT 15SM FEW012 SCT020 OVC035 08/08 A2982 RMK SC2SC2SC4 SLP100

CYYG;2008-11-11 05:00;CYYG 110500Z 22008KT 15SM FEW045 BKN058 OVC100 09/07 A2981 RMK SC2SC5AC2 SLP097

CYYG;2008-11-11 06:00;CYYG 110600Z 23007KT 15SM FEW020 SCT080 OVC095 08/07 A2980 RMK SC2AC2AC4 SLP093

CYYG;2008-11-11 07:00;CYYG 110700Z 23004KT 15SM FEW060 BKN094 07/06 A2979 RMK SC2AC2 SLP091

CYYG;2008-11-11 08:00;CYYG 110800Z 21005KT 15SM FEW025 SCT070 06/05 A2979 RMK SC2AC2 SLP088

CYYG;2008-11-11 09:00;CYYG 110900Z 23005KT 15SM SCT021 OVC035 06/04 A2979 RMK SC4SC4 SLP089

CYYG;2008-11-11 09:48;CYYG 110948Z 26007KT 15SM -SHRA OVC018 06/ RMK SC8

CYYG;2008-11-11 10:00;CYYG 111000Z 26008KT 15SM BKN015 OVC030 06/04 A2979 RMK SC6SC2 OCNL -SHRA SLP089

CYYG;2008-11-11 11:00;CYYG 111100Z 26017G22KT 15SM -SHRA OVC014 04/02 A2980 RMK SC8 SLP092

CYYG;2008-11-11 11:22;CYYG 111122Z 26009G18KT 15SM OVC014 03/ RMK SC8

CYYG;2008-11-11 12:00;CYYG 111200Z 25012G18KT 15SM OVC017 04/01 A2982 RMK SC8 SLP100

CYYG;2008-11-11 13:00;CYYG 111300Z 25014G21KT 15SM OVC017 04/01 A2982 RMK SC8 SLP100

CYYG;2008-11-11 14:00;CYYG 111400Z 25012G20KT 15SM OVC016 04/01 A2982 RMK SC8 SLP099

CYYG;2008-11-11 15:00;CYYG 111500Z 26017G25KT 15SM OVC019 04/01 A2982 RMK SC8 SLP100

CYYG;2008-11-11 16:00;CYYG 111600Z 25016G27KT 15SM -SHRA OVC020 04/01 A2982 RMK SC8 SLP098

CYYG;2008-11-11 16:08;CYYG 111608Z 25018G24KT 15SM -SHRASN BKN020 03/ RMK SC7

CYYG;2008-11-11 17:00;CYYG 111700Z 27012G20KT 15SM -SHRASN BKN018 04/02 A2982 RMK SC7 VIS LWR NW SLP098

CYYG;2008-11-11 18:00;CYYG 111800Z 26012G25KT 15SM -SHSN BKN018 BKN032 04/02 A2981 RMK SC5SC2 OCNL -SHRA SLP097

CYYG;2008-11-11 18:10;CYYG 111810Z 27016G22KT 15SM BKN018 BKN032 04/ RMK SC5SC2 OCNL -SHRA

CYYG;2008-11-11 18:28;CYYG 111828Z 28021G27KT 15SM -SHRASN BKN018 BKN027 04/ RMK SC5SC2 VIS LWR SW

CYYG;2008-11-11 19:00;CYYG 111900Z 28013G26KT 15SM BKN018 BKN027 04/02 A2983 RMK SC5SC2 OCNL -SHRA OCNL -SHSN SLP102

CYYG;2008-11-11 20:00;CYYG 112000Z 28016G21KT 15SM BKN017 OVC048 03/01 A2986 RMK SC6SC2 SLP114

CYYG;2008-11-11 21:00;CYYG 112100Z 29014G20KT 15SM BKN015 OVC020 03/02 A2989 RMK SC6SC2 SLP122

CYYG;2008-11-11 21:24;CYYG 112124Z 28013G18KT 15SM FEW009 BKN015 OVC020 03/ RMK SF2SC6SC1

CYYG;2008-11-11 22:00;CYYG 112200Z 29011G18KT 15SM BKN011 OVC048 03/02 A2992 RMK SC5SC3 SLP133

CYYG;2008-11-11 23:00;CYYG 112300Z 29012G17KT 12SM -SHRA BKN012 OVC053 03/02 A2994 RMK SC6SC2 SLP139

CYYG;2008-11-11 23:29;CYYG 112329Z 29013KT 12SM -SHRA FEW007 BKN012 OVC053 03/ RMK SF2SC5SC2

CYYG;2008-11-12 00:00;CYYG 120000Z 29012KT 15SM -DZ BKN008 BKN058 03/02 A2995 RMK SF5SC2 SLP145

CYYG;2008-11-12 00:27;CYYG 120027Z 29012G17KT 15SM -SHRA BKN007 OVC060 03/ RMK SF6SC2

CYYG;2008-11-12 01:00;CYYG 120100Z 29011G16KT 15SM -SHRA BKN007 BKN021 OVC064 03/02 A2997 RMK SF5SC2SC2 SLP151

CYYG;2008-11-12 02:00;CYYG 120200Z 30010G16KT 15SM -SHRA BKN009 OVC078 03/03 A2999 RMK SF6AC2 SLP157

CYYG;2008-11-12 03:00;CYYG 120300Z 29013KT 15SM -SHRA SCT009 BKN020 OVC032 03/02 A3001 RMK SF3SC2SC2 SLP163

CYYG;2008-11-12 03:22;CYYG 120322Z 29010G17KT 15SM FEW009 BKN020 03/ RMK SF2SC6

CYYG;2008-11-12 04:00;CYYG 120400Z 28011KT 15SM BKN019 03/02 A3003 RMK SC7 SLP170

CYYG;2008-11-12 05:00;CYYG 120500Z 29011KT 15SM FEW016 OVC026 03/02 A3004 RMK SC2SC6 SLP175

CYYG;2008-11-12 06:00;CYYG 120600Z 29010KT 15SM BKN019 OVC061 03/02 A3006 RMK SC6SC2 SLP180

CYYG;2008-11-12 07:00;CYYG 120700Z 29010KT 15SM SCT020 BKN063 03/02 A3007 RMK SC3SC3 SLP186

CYYG;2008-11-12 08:00;CYYG 120800Z 29011KT 15SM FEW020 03/01 A3008 RMK SC2 SLP187

CYYG;2008-11-12 09:00;CYYG 120900Z 29009KT 15SM FEW020 02/01 A3011 RMK SC2 SLP197

CYYG;2008-11-12 10:00;CYYG 121000Z 27007KT 15SM FEW025 02/01 A3012 RMK SC2 SLP202

CYYG;2008-11-12 11:00;CYYG 121100Z 29011KT 15SM BKN023 03/01 A3014 RMK SC5 SLP209

CYYG;2008-11-12 12:00;CYYG 121200Z 29008KT 15SM BKN023 03/02 A3017 RMK SC7 SLP220

CYYG;2008-11-12 13:00;CYYG 121300Z 30008KT 15SM BKN023 03/01 A3020 RMK SC7 SLP227

CYYG;2008-11-12 14:00;CYYG 121400Z 29012KT 15SM BKN020 03/01 A3021 RMK SC7 SLP232

CYYG;2008-11-12 15:00;CYYG 121500Z 29010KT 15SM BKN021 04/01 A3022 RMK SC7 SLP235

CYYG;2008-11-12 16:00;CYYG 121600Z 29011KT 15SM BKN022 04/M00 A3022 RMK SC7 SLP235

CYYG;2008-11-12 17:00;CYYG 121700Z 29011KT 15SM BKN022 05/M01 A3021 RMK SC6 SLP233

CYYG;2008-11-12 18:00;CYYG 121800Z 31008KT 15SM BKN025 05/M01 A3022 RMK SC5 SLP235

CYYG;2008-11-12 19:00;CYYG 121900Z 29014KT 15SM BKN025 05/M02 A3023 RMK SC5 SLP238

CYYG;2008-11-12 20:00;CYYG 122000Z 30010G15KT 15SM SCT025 03/M03 A3025 RMK SC4 SLP246

CYYG;2008-11-12 21:00;CYYG 122100Z 32002KT 15SM SCT025 01/M03 A3026 RMK SC4 SLP249

CYYG;2008-11-12 22:00;CYYG 122200Z 30003KT 15SM SCT028 01/M02 A3028 RMK SC4 SLP255

CYYG;2008-11-12 23:00;CYYG 122300Z 31005KT 15SM BKN032 02/M02 A3028 RMK SC6 SLP257

CYYG;2008-11-13 00:00;CYYG 130000Z 29004KT 15SM OVC034 02/M02 A3029 RMK SC8 SLP258

CYYG;2008-11-13 01:00;CYYG 130100Z 31004KT 15SM OVC033 02/M02 A3029 RMK SC8 SLP259

CYYG;2008-11-13 01:23;CYYG 130123Z 28003KT 15SM -SHSN BKN027 OVC032 02/ RMK SC6SC2

CYYG;2008-11-13 02:00;CYYG 130200Z 31006KT 15SM FEW025 OVC033 02/M02 A3030 RMK SC2SC6 SLP261

CYYG;2008-11-13 03:00;CYYG 130300Z 26005KT 15SM FEW025 OVC040 02/M03 A3029 RMK SC2SC6 SLP259

CYYG;2008-11-13 04:00;CYYG 130400Z 27006KT 15SM OVC040 02/M03 A3029 RMK SC8 SLP259

CYYG;2008-11-13 05:00;CYYG 130500Z 26005KT 15SM OVC041 02/M02 A3028 RMK SC8 SLP257

CYYG;2008-11-13 06:00;CYYG 130600Z 28008KT 15SM OVC043 03/M01 A3028 RMK SC8 SLP256

CYYG;2008-11-13 07:00;CYYG 130700Z 29007KT 15SM OVC042 03/M01 A3029 RMK SC8 SLP258

CYYG;2008-11-13 08:00;CYYG 130800Z 29008KT 15SM OVC042 03/M01 A3030 RMK SC8 SLP261

CYYG;2008-11-13 09:00;CYYG 130900Z 28008KT 15SM OVC041 03/M00 A3031 RMK SC8 SLP264

CYYG;2008-11-13 10:00;CYYG 131000Z 28005KT 15SM OVC042 03/00 A3031 RMK SC8 SLP266

CYYG;2008-11-13 11:00;CYYG 131100Z 32003KT 15SM FEW025 OVC043 03/01 A3033 RMK SC1SC7 SLP272

CYYG;2008-11-13 12:00;CYYG 131200Z 34004KT 15SM VCSH FEW015 OVC044 03/01 A3035 RMK CU1SC8 SHS N-E SLP279

CYYG;2008-11-13 13:00;CYYG 131300Z 31002KT 15SM VCSH FEW015 OVC042 03/01 A3036 RMK CU1SC8 SHS N-E SLP282

CYYG;2008-11-13 14:00;CYYG 131400Z 29005KT 15SM FEW015 BKN040 04/00 A3037 RMK CU1SC7 SHS N-E SLP287

CYYG;2008-11-13 15:00;CYYG 131500Z 29008KT 15SM FEW015 BKN038 04/M01 A3039 RMK CU1SC6 SLP293

CYYG;2008-11-13 16:00;CYYG 131600Z 29007KT 15SM FEW015 BKN040 05/M03 A3038 RMK CU1SC7 SLP290

CYYG;2008-11-13 17:00;CYYG 131700Z 29006KT 15SM FEW015 BKN042 05/M03 A3036 RMK CU1SC6 SLP284

CYYG;2008-11-13 18:00;CYYG 131800Z 31005KT 15SM FEW020 FEW040 SCT280 06/M04 A3036 RMK SC1SC2CI0 SLP282

CYYG;2008-11-13 19:00;CYYG 131900Z 07002KT 15SM FEW020 FEW040 SCT280 05/M03 A3036 RMK SC1SC2CI0 SLP281

CYYG;2008-11-13 20:00;CYYG 132000Z 27005KT 15SM BKN038 BKN280 05/M03 A3036 RMK SC6CI0 SLP282

CYYG;2008-11-13 21:00;CYYG 132100Z 26003KT 15SM SCT038 SCT280 03/M02 A3038 RMK SC3CI0 SLP288

CYYG;2008-11-13 22:00;CYYG 132200Z 00000KT 15SM FEW038 FEW280 01/M03 A3037 RMK SC1CI0 SLP287

CYYG;2008-11-13 23:00;CYYG 132300Z 14002KT 15SM FEW038 SCT280 M01/M04 A3038 RMK SC1CI0 FROIN SLP289

CYYG;2008-11-14 00:00;CYYG 140000Z 12004KT 15SM FEW038 BKN280 M00/M02 A3036 RMK SC1CI1 SLP282

CYYG;2008-11-14 01:00;CYYG 140100Z 13004KT 15SM FEW038 BKN280 00/M03 A3036 RMK SC1CI1 SLP282

CYYG;2008-11-14 02:00;CYYG 140200Z 00000KT 15SM BKN280 M00/M02 A3040 RMK CI1 SLP296

CYYG;2008-11-14 03:00;CYYG 140300Z 14004KT 15SM SCT280 01/M01 A3037 RMK CI1 SLP288

CYYG;2008-11-14 04:00;CYYG 140400Z 15006KT 15SM SCT280 02/M01 A3035 RMK CI1 SLP280

CYYG;2008-11-14 05:00;CYYG 140500Z 17006KT 15SM FEW180 BKN280 03/01 A3033 RMK AC1CI1 SLP275

CYYG;2008-11-14 06:00;CYYG 140600Z 18010KT 15SM FEW140 BKN280 04/00 A3033 RMK AC2CI1 SLP271

CYYG;2008-11-14 07:00;CYYG 140700Z 18010KT 15SM FEW140 BKN280 04/00 A3033 RMK AC2CI1 SLP271

CYYG;2008-11-14 08:00;CYYG 140800Z 19012KT 15SM BKN100 BKN280 05/M00 A3033 RMK AC5CI1 SLP273

CYYG;2008-11-14 09:00;CYYG 140900Z 18011KT 15SM OVC072 05/00 A3033 RMK AC8 SLP274

CYYG;2008-11-14 10:00;CYYG 141000Z 19011KT 15SM OVC070 05/01 A3033 RMK AC8 SLP273

CYYG;2008-11-14 10:23;CYYG 141023Z 17011KT 15SM -SHRA BKN070 OVC110 05/ RMK AC6AC2

CYYG;2008-11-14 11:00;CYYG 141100Z 18009KT 15SM SCT064 BKN082 OVC200 04/01 A3032 RMK SC3AC2CI2 SLP269

CYYG;2008-11-14 12:00;CYYG 141200Z 16008KT 15SM BKN077 BKN200 05/02 A3033 RMK AC6CI2 SLP274

CYYG;2008-11-14 13:00;CYYG 141300Z 17012KT 15SM BKN067 BKN200 06/03 A3031 RMK AC6CI2 SLP267

CYYG;2008-11-14 14:00;CYYG 141400Z 16011KT 15SM BKN066 BKN200 06/03 A3031 RMK AC6CI2 SLP267

CYYG;2008-11-14 15:00;CYYG 141500Z 16012KT 15SM FEW025 BKN050 BKN067 07/04 A3030 RMK SC1SC6AC2 SLP263

CYYG;2008-11-14 16:00;CYYG 141600Z 17015KT 15SM FEW025 SCT050 BKN130 08/04 A3028 RMK SC1SC3AC4 SLP256

CYYG;2008-11-14 17:00;CYYG 141700Z 16013G18KT 15SM FEW025 SCT050 BKN110 08/05 A3025 RMK SC1SC2AC4 SLP245

CYYG;2008-11-14 18:00;CYYG 141800Z 16013KT 15SM BKN068 BKN140 09/05 A3024 RMK AC5AC2 SLP243

CYYG;2008-11-14 19:00;CYYG 141900Z 17014G20KT 15SM BKN062 BKN220 09/05 A3021 RMK SC5CI2 SLP233

CYYG;2008-11-14 20:00;CYYG 142000Z 16015KT 15SM BKN062 BKN250 08/04 A3022 RMK SC5CI2 SLP236

CYYG;2008-11-14 21:00;CYYG 142100Z 17012KT 15SM SCT062 BKN260 08/05 A3023 RMK SC3CI4 SLP240

CYYG;2008-11-14 22:00;CYYG 142200Z 16011KT 15SM SCT017 BKN060 08/06 A3021 RMK SC4SC3 SLP232

CYYG;2008-11-14 22:46;CYYG 142246Z 16012KT 15SM BKN015 OVC060 08/ RMK SC6SC2

CYYG;2008-11-14 23:00;CYYG 142300Z 15011KT 15SM BKN017 OVC060 08/06 A3020 RMK SC6SC2 SLP229

CYYG;2008-11-15 00:00;CYYG 150000Z 15013G19KT 15SM OVC013 08/06 A3017 RMK SC8 SLP219

CYYG;2008-11-15 01:00;CYYG 150100Z 16012G17KT 15SM OVC014 08/07 A3016 RMK SC8 SLP216

CYYG;2008-11-15 02:00;CYYG 150200Z 15012G17KT 15SM OVC013 08/07 A3014 RMK SC8 SLP207

CYYG;2008-11-15 02:38;CYYG 150238Z 15014KT 15SM -SHRA OVC013 08/ RMK SC8

CYYG;2008-11-15 03:00;CYYG 150300Z 15013G18KT 12SM -SHRA OVC011 08/08 A3011 RMK SC8 SLP197

CYYG;2008-11-15 04:00;CYYG 150400Z 14011G16KT 15SM -SHRA OVC012 08/08 A3009 RMK SC8 SLP191

CYYG;2008-11-15 05:00;CYYG 150500Z 15013KT 15SM -SHRA OVC014 09/08 A3007 RMK SC8 SLP184

CYYG;2008-11-15 06:00;CYYG 150600Z 15012G17KT 12SM -SHRA OVC013 09/09 A3004 RMK SC8 SLP175

CYYG;2008-11-15 07:00;CYYG 150700Z 15010KT 12SM -SHRA OVC011 09/09 A3002 RMK SC8 SLP168

CYYG;2008-11-15 08:00;CYYG 150800Z 14011G16KT 6SM -SHRA BR OVC009 10/10 A3001 RMK SF8 SLP162

CYYG;2008-11-15 09:00;CYYG 150900Z 16013KT 2SM R03/4500VP6000FT/D -SHRA BR OVC005 10/10 A2999 RMK SF8 SLP156

CYYG;2008-11-15 10:00;CYYG 151000Z 15014KT 6SM -SHRA BR OVC005 10/10 A2994 RMK SF8 SLP139

CYYG;2008-11-15 11:00;CYYG 151100Z 17010KT 15SM BKN005 OVC010 10/10 A2996 RMK SF5SC3 SLP148

CYYG;2008-11-15 11:42;CYYG 151142Z 16011KT 10SM -SHRA BKN005 OVC012 10/ RMK SF5SC3 VIS LWR N

CYYG;2008-11-15 12:00;CYYG 151200Z 17008KT 12SM -SHRA FEW005 OVC010 10/10 A2997 RMK SF2SC6 VIS LWR N SLP149

CYYG;2008-11-15 12:20;CYYG 151220Z 14007KT 10SM -DZ OVC006 10/ RMK SF8

CYYG;2008-11-15 13:00;CYYG 151300Z 15008KT 15SM BKN007 OVC019 11/11 A2994 RMK SF7SC1 SLP140

CYYG;2008-11-15 13:49;CYYG 151349Z 16010KT 15SM SCT007 BKN019 11/ RMK SF3SC4

CYYG;2008-11-15 14:00;CYYG 151400Z 15009KT 15SM SCT006 BKN015 12/11 A2993 RMK SF4SC3 SLP135

CYYG;2008-11-15 15:00;CYYG 151500Z 17011KT 15SM FEW006 BKN014 BKN150 12/12 A2992 RMK SF2SC6AC1 SLP133

CYYG;2008-11-15 16:00;CYYG 151600Z 17008KT 15SM FEW006 FEW032 OVC120 12/11 A2990 RMK SF2SC1AC6 SLP128

CYYG;2008-11-15 17:00;CYYG 151700Z 19006KT 15SM FEW006 FEW032 OVC130 12/12 A2989 RMK SF1SC1AC6 SLP124

CYYG;2008-11-15 18:00;CYYG 151800Z 21006KT 15SM FEW006 SCT029 OVC140 13/12 A2989 RMK SF1SC3AC5 SLP123

CYYG;2008-11-15 19:00;CYYG 151900Z 17005KT 15SM FEW030 FEW140 OVC200 12/11 A2986 RMK SC1AC2CS6 SLP112

CYYG;2008-11-15 20:00;CYYG 152000Z 16006KT 15SM FEW005 SCT095 OVC200 12/12 A2984 RMK SF1AC3CS5 SLP107

CYYG;2008-11-15 21:00;CYYG 152100Z 18009KT 15SM FEW005 BKN052 OVC200 13/12 A2985 RMK SF1SC4CS3 SLP108

CYYG;2008-11-15 21:36;CYYG 152136Z 15007KT 6SM BR BKN003 OVC040 13/ RMK SF6SC2

CYYG;2008-11-15 21:40;CYYG 152140Z 16007KT 6SM -SHRA BR BKN003 OVC040 13/ RMK SF5SC3

CYYG;2008-11-15 22:00;CYYG 152200Z 16012KT 5SM -SHRA BR FEW003 OVC040 13/13 A2982 RMK SF2SC6 SLP098

CYYG;2008-11-15 22:21;CYYG 152221Z 16011KT 5SM -SHRA BR BKN003 OVC042 14/ RMK SF6SC2

CYYG;2008-11-15 23:00;CYYG 152300Z 16013KT 5SM -RA BR OVC003 14/13 A2980 RMK SF8 SLP093

CYYG;2008-11-16 00:00;CYYG 160000Z 17015KT 5SM -RA BR OVC003 14/14 A2979 RMK SF8 SLP087

CYYG;2008-11-16 01:00;CYYG 160100Z 18016KT 8SM -RA BKN004 OVC012 14/14 A2978 RMK SF6SC2 SLP085

CYYG;2008-11-16 02:00;CYYG 160200Z 17013KT 8SM -RA BKN003 OVC013 13/13 A2976 RMK SF6SC2 SLP078

CYYG;2008-11-16 03:00;CYYG 160300Z 17014KT 6SM -RA BR BKN003 OVC008 14/14 A2975 RMK SF6SF2 SLP074

CYYG;2008-11-16 04:00;CYYG 160400Z 19017KT 8SM -RA BKN004 OVC009 14/14 A2974 RMK SF5SF3 SLP071

CYYG;2008-11-16 05:00;CYYG 160500Z 18015KT 10SM -RA BKN007 OVC014 15/15 A2972 RMK SF5SC3 SLP066

CYYG;2008-11-16 05:44;CYYG 160544Z 18015KT 15SM SCT009 OVC016 16/ RMK SF3SC5

CYYG;2008-11-16 06:00;CYYG 160600Z 18015KT 15SM OVC018 16/16 A2972 RMK SC8 SLP064

CYYG;2008-11-16 07:00;CYYG 160700Z 18019G25KT 15SM SCT022 OVC130 17/16 A2969 RMK SC3AC5 SLP056

CYYG;2008-11-16 08:00;CYYG 160800Z 18016G21KT 15SM BKN021 OVC130 16/15 A2967 RMK SC5AC3 SLP049

CYYG;2008-11-16 09:00;CYYG 160900Z 19021G27KT 15SM BKN120 16/15 A2965 RMK AC6 SLP041

CYYG;2008-11-16 10:00;CYYG 161000Z 18018G25KT 15SM SCT018 BKN096 16/15 A2965 RMK SC3AC4 SLP040

CYYG;2008-11-16 11:00;CYYG 161100Z 18019G25KT 15SM BKN120 OVC130 16/15 A2964 RMK AC5AC2 SLP037

CYYG;2008-11-16 12:00;CYYG 161200Z 18019G25KT 15SM FEW006 BKN017 OVC120 16/15 A2962 RMK SF1SC4AC3 SLP032

CYYG;2008-11-16 12:30;CYYG 161230Z 17016G26KT 12SM FEW006 OVC012 17/ RMK SF1SC7

CYYG;2008-11-16 12:51;CYYG 161251Z 18020G30KT 12SM -SHRA OVC012 17/ RMK SC8

CYYG;2008-11-16 13:00;CYYG 161300Z 18020G26KT 12SM -SHRA OVC012 17/16 A2962 RMK SC8 SLP031

CYYG;2008-11-16 14:00;CYYG 161400Z 18021G27KT 15SM OVC016 17/16 A2959 RMK SC8 SLP021

CYYG;2008-11-16 15:00;CYYG 161500Z 18024G31KT 15SM BKN025 OVC042 17/15 A2957 RMK SC6SC2 SLP013

CYYG;2008-11-16 16:00;CYYG 161600Z 18024G32KT 15SM BKN026 OVC120 17/15 A2951 RMK SC5AC3 SLP994

CYYG;2008-11-16 16:30;CYYG 161630Z 18022G34KT 12SM -SHRA SCT026 OVC100 18/ RMK SC4AC4

CYYG;2008-11-16 17:00;CYYG 161700Z 18023G28KT 15SM -SHRA BKN024 OVC100 17/15 A2946 RMK SC6AC2 SLP977

CYYG;2008-11-16 18:00;CYYG 161800Z 18020G27KT 15SM -SHRA SCT030 OVC110 17/14 A2939 RMK SC3AC5 PRESFR SLP951

CYYG;2008-11-16 19:00;CYYG 161900Z 18025G31KT 15SM BKN023 OVC090 17/15 A2935 RMK SC7AC1 SLP939

CYYG;2008-11-16 19:19;CYYG 161919Z 18028G36KT 15SM -SHRA FEW023 BKN033 OVC090 18/ RMK SC2SC6AC1

CYYG;2008-11-16 20:00;CYYG 162000Z 17024G39KT 10SM -SHRA SCT020 OVC100 17/16 A2930 RMK SC3AS5 SLP922

CYYG;2008-11-16 21:00;CYYG 162100Z 17025G35KT 5SM SHRA BR BKN022 OVC100 16/15 A2925 RMK SC6AS2 SLP906

CYYG;2008-11-16 21:31;CYYG 162131Z 19024G32KT 3SM R03/2800VP6000FT/U SHRA BR FEW005 BKN011 OVC100 15/ RMK SF1SC6AS2

CYYG;2008-11-16 21:44;CYYG 162144Z 19022G30KT 3SM SHRA BR OVC005 16/ RMK SF8

CYYG;2008-11-16 22:00;CYYG 162200Z 20023G32KT 4SM R03/3000VP6000FT/U SHRA BR OVC005 16/16 A2926 RMK SF8 /R10/ CIG RAG SLP908

CYYG;2008-11-16 22:33;CYYG 162233Z 21014G22KT 6SM -SHRA BR FEW005 BKN023 OVC069 15/ RMK SF2SC5SC2 RERA

CYYG;2008-11-16 23:00;CYYG 162300Z 20016G22KT 10SM -SHRA FEW023 OVC080 14/14 A2927 RMK SC2AC6 SLP913

CYYG;2008-11-17 00:00;CYYG 170000Z 19021G26KT 10SM -SHRA SCT025 OVC091 13/12 A2927 RMK SC3AC5 SLP912

CYYG;2008-11-17 01:00;CYYG 170100Z 19022G34KT 10SM -SHRA OVC022 12/11 A2926 RMK SC8 SLP910

CYYG;2008-11-17 01:43;CYYG 170143Z 22020G34KT 15SM BKN036 10/ RMK SC6

CYYG;2008-11-17 02:00;CYYG 170200Z 22023G33KT 15SM SCT040 10/07 A2932 RMK SC4 SLP929

CYYG;2008-11-17 03:00;CYYG 170300Z 22024G35KT 15SM BKN036 09/05 A2938 RMK SC5 SLP948

CYYG;2008-11-17 04:00;CYYG 170400Z 22021G32KT 15SM BKN026 08/05 A2942 RMK SC6 SLP964

CYYG;2008-11-17 04:04;CYYG 170404Z 23017G33KT 15SM -SHRA OVC026 08/ RMK SC8

CYYG;2008-11-17 04:39;CYYG 170439Z 23014G25KT 15SM SCT023 BKN033 08/ RMK SC3SC3

CYYG;2008-11-17 05:00;CYYG 170500Z 23016G27KT 15SM SCT022 BKN038 07/05 A2948 RMK SC3SC3 SLP983

CYYG;2008-11-17 06:00;CYYG 170600Z 24015G25KT 15SM BKN028 07/02 A2953 RMK SC7 SLP002

CYYG;2008-11-17 07:00;CYYG 170700Z 24014G24KT 15SM BKN042 06/M01 A2958 RMK SC6 SLP018

CYYG;2008-11-17 08:00;CYYG 170800Z 25015G22KT 15SM BKN039 06/M01 A2960 RMK SC7 SLP026

CYYG;2008-11-17 09:00;CYYG 170900Z 24010G16KT 15SM OVC039 06/M00 A2964 RMK SC8 SLP038

CYYG;2008-11-17 10:00;CYYG 171000Z 23013KT 15SM BKN038 OVC056 06/M00 A2967 RMK SC5SC3 SLP047

CYYG;2008-11-17 11:00;CYYG 171100Z 24010KT 15SM BKN055 05/M01 A2969 RMK SC6 SLP055

CYYG;2008-11-17 12:00;CYYG 171200Z 24012KT 15SM BKN040 06/M01 A2972 RMK SC6 SH DIST SE-SW SLP065

CYYG;2008-11-17 13:00;CYYG 171300Z 24016G26KT 15SM FEW040 BKN060 06/M01 A2975 RMK CU2SC4 SH DIST E-SE SLP074

CYYG;2008-11-17 14:00;CYYG 171400Z 24017G22KT 15SM FEW025 FEW060 FEW071 06/M03 A2977 RMK CU1SC1AC1 SLP081

CYYG;2008-11-17 15:00;CYYG 171500Z 25012G25KT 15SM FEW025 FEW075 07/M03 A2978 RMK CU1AC1 SLP086

CYYG;2008-11-17 16:00;CYYG 171600Z 25018G31KT 15SM FEW030 FEW075 07/M04 A2976 RMK CU1AC1 SLP080

CYYG;2008-11-17 17:00;CYYG 171700Z 25018G28KT 15SM FEW030 FEW075 06/M05 A2978 RMK CU1AC1 SLP085

CYYG;2008-11-17 18:00;CYYG 171800Z 24017G26KT 15SM FEW052 07/M05 A2978 RMK CU2 SLP086

CYYG;2008-11-17 19:00;CYYG 171900Z 25017G25KT 15SM FEW049 07/M04 A2979 RMK CU2 SLP091

CYYG;2008-11-17 20:00;CYYG 172000Z 26014G19KT 15SM FEW049 06/M06 A2982 RMK CU1 SLP099

CYYG;2008-11-17 21:00;CYYG 172100Z 27004KT 15SM FEW049 FEW300 05/M05 A2985 RMK SC1CI1 SLP108

CYYG;2008-11-17 22:00;CYYG 172200Z 26003KT 15SM FEW049 04/M05 A2988 RMK SC1 SLP119

CYYG;2008-11-17 23:00;CYYG 172300Z 26005KT 15SM SKC 03/M05 A2991 RMK SLP129

CYYG;2008-11-18 00:00;CYYG 180000Z 27003KT 15SM SKC 02/M05 A2993 RMK SLP136

CYYG;2008-11-18 01:00;CYYG 180100Z 24003KT 15SM SCT054 03/M05 A2995 RMK SC3 SLP144

CYYG;2008-11-18 02:00;CYYG 180200Z 23004KT 15SM BKN058 03/M04 A2996 RMK SC6 SLP147

CYYG;2008-11-18 03:00;CYYG 180300Z 24003KT 15SM BKN060 03/M05 A2996 RMK SC6 SLP148

CYYG;2008-11-18 04:00;CYYG 180400Z 28003KT 15SM BKN070 02/M05 A2997 RMK AC4 SLP150

CYYG;2008-11-18 05:00;CYYG 180500Z 26008KT 15SM BKN065 02/M05 A2998 RMK SC3 SLP152

CYYG;2008-11-18 06:00;CYYG 180600Z 28004KT 15SM SCT240 02/M05 A2997 RMK CI2 SLP150

CYYG;2008-11-18 07:00;CYYG 180700Z 30002KT 15SM SCT210 00/M04 A2998 RMK CI2 SLP153

CYYG;2008-11-18 08:00;CYYG 180800Z 34003KT 15SM SCT200 M00/M04 A2997 RMK CI2 SLP150

CYYG;2008-11-18 09:00;CYYG 180900Z 35003KT 15SM SCT140 BKN190 M00/M04 A2998 RMK CI3CI3 SLP154

CYYG;2008-11-18 10:00;CYYG 181000Z 33004KT 15SM BKN180 M01/M04 A2999 RMK CI6 SLP157

CYYG;2008-11-18 11:00;CYYG 181100Z 01003KT 15SM BKN050 OVC200 M01/M04 A2999 RMK SC5CI2 SLP158

CYYG;2008-11-18 12:00;CYYG 181200Z 34003KT 15SM SCT050 BKN150 M01/M04 A3002 RMK SC3AC4 SLP168

CYYG;2008-11-18 13:00;CYYG 181300Z 01004KT 15SM SCT050 BKN140 01/M03 A3001 RMK SC3AC4 SLP164

CYYG;2008-11-18 14:00;CYYG 181400Z 36002KT 15SM BKN039 OVC140 02/M02 A3002 RMK SC6AC2 SLP168

CYYG;2008-11-18 15:00;CYYG 181500Z 36003KT 15SM BKN033 OVC130 03/M00 A3000 RMK SC6AC2 SLP161

CYYG;2008-11-18 15:04;CYYG 181504Z 35003KT 15SM -SHRA BKN033 OVC130 03/ RMK SC6AC2

CYYG;2008-11-18 15:24;CYYG 181524Z 29003KT 15SM -SHRASN OVC035 03/ RMK SC8

CYYG;2008-11-18 16:00;CYYG 181600Z 01004KT 15SM BKN033 OVC130 04/M01 A2999 RMK SC7AC1 SLP157

CYYG;2008-11-18 17:00;CYYG 181700Z 02005KT 15SM BKN031 OVC130 05/M00 A2997 RMK SC7AC1 SLP152

CYYG;2008-11-18 18:00;CYYG 181800Z 02008KT 15SM BKN032 OVC130 04/02 A2997 RMK SC7AC1 SLP152

CYYG;2008-11-18 19:00;CYYG 181900Z 01007KT 15SM SCT030 OVC060 02/01 A2998 RMK SC4SC4 SLP154

CYYG;2008-11-18 20:00;CYYG 182000Z 36007KT 15SM SCT035 OVC061 02/01 A2997 RMK SC4SC4 SLP151

CYYG;2008-11-18 21:00;CYYG 182100Z 36005KT 15SM SCT030 OVC059 02/01 A2997 RMK SC4SC4 SLP152

CYYG;2008-11-18 21:10;CYYG 182110Z 36006KT 12SM -SHSN SCT030 OVC059 02/ RMK SC4SC4

CYYG;2008-11-18 21:26;CYYG 182126Z 35005KT 12SM -SHRA BKN029 OVC058 03/ RMK SC6SC2

CYYG;2008-11-18 22:00;CYYG 182200Z 35004KT 12SM -SHRA BKN022 OVC055 02/01 A2997 RMK SC7SC1 SLP150

CYYG;2008-11-18 22:41;CYYG 182241Z 03010KT 15SM SCT022 OVC062 03/ RMK SC4SC4

CYYG;2008-11-18 23:00;CYYG 182300Z 03010KT 15SM SCT026 OVC065 03/01 A2994 RMK SC3SC5 SLP142

CYYG;2008-11-19 00:00;CYYG 190000Z 03011KT 12SM -SHRASN BKN018 OVC035 03/02 A2994 RMK SC6SC2 SLP140

CYYG;2008-11-19 01:00;CYYG 190100Z 02011KT 5SM -RASN BKN010 OVC015 02/02 A2993 RMK SC6SC2 SLP138

CYYG;2008-11-19 01:42;CYYG 190142Z 01011KT 5SM -RASN BKN007 OVC014 02/ RMK SF7SC1

CYYG;2008-11-19 02:00;CYYG 190200Z 02011KT 5SM -RA BR OVC007 03/02 A2993 RMK SF8 SLP137

CYYG;2008-11-19 03:00;CYYG 190300Z 02013KT 5SM -RA BR BKN007 OVC012 03/02 A2990 RMK SF6SC2 SLP127

CYYG;2008-11-19 04:00;CYYG 190400Z 02014KT 5SM -RA BR BKN007 OVC012 03/03 A2986 RMK SF6SC2 SLP114

CYYG;2008-11-19 05:00;CYYG 190500Z 02013G18KT 6SM -RA BR BKN007 OVC015 03/03 A2984 RMK SF6SC2 SLP107

CYYG;2008-11-19 06:00;CYYG 190600Z 03015KT 6SM -RA BR OVC007 04/03 A2984 RMK SF8 SLP106

CYYG;2008-11-19 07:00;CYYG 190700Z 03011G16KT 10SM -RA BKN007 OVC020 04/03 A2982 RMK SF6SC2 SLP098

CYYG;2008-11-19 08:00;CYYG 190800Z 02012G17KT 10SM -RA BKN007 OVC012 04/04 A2979 RMK SF5SC3 SLP088

CYYG;2008-11-19 09:00;CYYG 190900Z 03012KT 5SM -RA BR BKN007 OVC015 04/04 A2976 RMK SF7SC1 SLP080

CYYG;2008-11-19 10:00;CYYG 191000Z 04012KT 15SM BKN010 OVC018 05/04 A2973 RMK SC5SC3 SLP068

CYYG;2008-11-19 11:00;CYYG 191100Z 04012KT 15SM BKN011 OVC019 04/04 A2971 RMK SC7SC1 SLP064

CYYG;2008-11-19 12:00;CYYG 191200Z 03010KT 15SM OVC015 05/04 A2975 RMK SC8 SLP077

CYYG;2008-11-19 12:34;CYYG 191234Z 03015KT 5SM -SHRA BR BKN012 OVC019 05/ RMK SC6SC2

CYYG;2008-11-19 13:00;CYYG 191300Z 02016G22KT 8SM -SHRA BKN011 OVC020 04/04 A2971 RMK SC7SC1 SLP061

CYYG;2008-11-19 14:00;CYYG 191400Z 03019G24KT 8SM -SHRA BKN012 OVC025 04/03 A2969 RMK SC6SC2 SLP057

CYYG;2008-11-19 15:00;CYYG 191500Z 03023G28KT 10SM -SHRA OVC012 04/04 A2964 RMK SC8 SLP040

CYYG;2008-11-19 16:00;CYYG 191600Z 02019G26KT 10SM -SHRA BKN011 OVC020 04/03 A2960 RMK SC6SC2 SLP024

CYYG;2008-11-19 17:00;CYYG 191700Z 02018G32KT 10SM -SHRA BKN010 OVC020 04/04 A2954 RMK SC6SC2 SLP006

CYYG;2008-11-19 17:40;CYYG 191740Z 02024G31KT 4SM -SHRA BR OVC008 04/ RMK SF8

CYYG;2008-11-19 18:00;CYYG 191800Z 02024G33KT 3SM -SHRA BR OVC008 04/03 A2950 RMK SF8 SLP992

CYYG;2008-11-19 19:00;CYYG 191900Z 02023G33KT 3SM -SHRA BR OVC009 04/03 A2948 RMK SF8 SLP984

CYYG;2008-11-19 20:00;CYYG 192000Z 01015G29KT 3SM -SHRA BR OVC008 03/03 A2948 RMK SF8 SLP986

CYYG;2008-11-19 20:44;CYYG 192044Z 36024G32KT 3SM -RASN OVC006 02/ RMK SF8

CYYG;2008-11-19 21:00;CYYG 192100Z 36023G32KT 5SM -RASN BR OVC006 02/02 A2943 RMK SF8 SLP967

CYYG;2008-11-19 22:00;CYYG 192200Z 35018G31KT 4SM -RASN BR OVC005 01/01 A2944 RMK SF8 SLP970

CYYG;2008-11-19 23:00;CYYG 192300Z 35019G29KT 4SM -RASN BR OVC005 01/01 A2941 RMK SF8 SLP961

CYYG;2008-11-19 23:54;CYYG 192354Z 35020G25KT 2SM -SN BR OVC005 01/ RMK SF8

CYYG;2008-11-20 00:00;CYYG 200000Z 36020G30KT 2SM -SN BR OVC005 01/01 A2938 RMK SF8 SLP952

CYYG;2008-11-20 00:12;CYYG 200012Z 36028G40KT 3SM -SN BR OVC005 01/ RMK SF8

CYYG;2008-11-20 01:00;CYYG 200100Z 35022G35KT 4SM -SN BR OVC008 01/01 A2933 RMK SF8 SLP934

CYYG;2008-11-20 01:50;CYYG 200150Z 35020G27KT 1SM R03/5000FT/D -SN VV008 01/ RMK SN8

CYYG;2008-11-20 02:00;CYYG 200200Z 35019G28KT 3/4SM R03/3000V4500FT/N -SN VV006 01/01 A2933 RMK SN8 SLP936

CYYG;2008-11-20 02:13;CYYG 200213Z 35021G31KT 1 1/4SM R03/3500V6000FT/U -SN OVC006 01/ RMK SN6SF2

CYYG;2008-11-20 02:43;CYYG 200243Z 35020G30KT 2SM R03/4000VP6000FT/U -SN OVC007 01/ RMK SF8

CYYG;2008-11-20 03:00;CYYG 200300Z 34019G30KT 2SM -SN OVC007 01/01 A2933 RMK SF8 SLP932

CYYG;2008-11-20 04:00;CYYG 200400Z 34019G29KT 3SM -SN OVC007 01/01 A2932 RMK SF8 SLP930

CYYG;2008-11-20 04:44;CYYG 200444Z 34024G30KT 4SM -SN BKN010 OVC040 01/ RMK SC6SC2

CYYG;2008-11-20 05:00;CYYG 200500Z 33021G29KT 5SM -SN BKN010 OVC040 01/00 A2930 RMK SC6SC2 SLP924

CYYG;2008-11-20 06:00;CYYG 200600Z 32018G26KT 2SM -SN BKN010 OVC045 00/00 A2931 RMK SC6SC2 SLP928

CYYG;2008-11-20 06:24;CYYG 200624Z 32017G26KT 3SM R03/3000VP6000FT/D -SN BKN010 OVC042 00/ RMK SC6SC2 VIS VRB 1-5

CYYG;2008-11-20 07:00;CYYG 200700Z 32021G27KT 2SM R03/3500VP6000FT/N -SN OVC010 M00/M00 A2931 RMK SC8 VIS VRB 1-3 SLP927

CYYG;2008-11-20 08:00;CYYG 200800Z 30015G22KT 2SM -SN OVC008 M01/M01 A2934 RMK SF8 VIS VRBL 1-3 /S01/ SLP937

CYYG;2008-11-20 08:18;CYYG 200818Z 29014G21KT 4SM -SN BKN009 OVC028 M01/ RMK SC7SC1

CYYG;2008-11-20 09:00;CYYG 200900Z 29012G18KT 5SM -SN BKN010 OVC022 M01/M01 A2936 RMK SC6SC2 SLP943

CYYG;2008-11-20 10:00;CYYG 201000Z 29015G26KT 12SM -SN OVC010 M02/M02 A2937 RMK SC8 SLP949

CYYG;2008-11-20 10:22;CYYG 201022Z 29014G21KT 15SM BKN010 BKN028 M02/ RMK SC6SC2

CYYG;2008-11-20 11:00;CYYG 201100Z 28015G20KT 15SM OVC012 M02/M03 A2940 RMK SC8 SLP957

CYYG;2008-11-20 11:33;CYYG 201133Z 28012G18KT 15SM OVC015 M02/ RMK SC8

CYYG;2008-11-20 12:00;CYYG 201200Z 29014KT 15SM OVC020 M02/M04 A2944 RMK SC8 SLP972

CYYG;2008-11-20 13:00;CYYG 201300Z 28012G18KT 15SM OVC025 M02/M04 A2945 RMK SC8 SLP976

CYYG;2008-11-20 14:00;CYYG 201400Z 27010KT 15SM FEW015 OVC020 M02/M04 A2947 RMK SC2SC6 SLP981

CYYG;2008-11-20 15:00;CYYG 201500Z 26008KT 15SM SCT010 OVC016 M02/M04 A2948 RMK SC3SC5 SLP986

CYYG;2008-11-20 16:00;CYYG 201600Z 26014KT 15SM FEW010 OVC017 M02/M05 A2948 RMK SC2SC6 SLP984

CYYG;2008-11-20 17:00;CYYG 201700Z 25011KT 15SM BKN016 M02/M05 A2947 RMK SC7 SLP983

CYYG;2008-11-20 18:00;CYYG 201800Z 25010KT 15SM BKN015 M02/M04 A2947 RMK SC7 SLP983

CYYG;2008-11-20 19:00;CYYG 201900Z 24009KT 15SM BKN014 M01/M04 A2948 RMK SC7 SLP985

CYYG;2008-11-20 20:00;CYYG 202000Z 23011G16KT 15SM BKN016 M01/M04 A2950 RMK SC7 SLP992

CYYG;2008-11-20 21:00;CYYG 202100Z 24012KT 15SM OVC018 M01/M04 A2951 RMK SC8 SLP995

CYYG;2008-11-20 21:38;CYYG 202138Z 27008KT 15SM -SHSN OVC012 M02/ RMK SC8

CYYG;2008-11-20 22:00;CYYG 202200Z 27008KT 15SM -SHSN OVC016 M02/M04 A2952 RMK SC8 SLP000

CYYG;2008-11-20 23:00;CYYG 202300Z 27009KT 15SM -SHSN OVC020 M02/M06 A2954 RMK SC8 SLP005

CYYG;2008-11-21 00:00;CYYG 210000Z 27011KT 15SM -SHSN OVC028 M03/M07 A2956 RMK SC8 SLP013

CYYG;2008-11-21 00:47;CYYG 210047Z 27008G15KT 15SM OVC034 M03/ RMK SC8

CYYG;2008-11-21 01:00;CYYG 210100Z 27009G15KT 15SM OVC037 M03/M07 A2957 RMK SC8 SLP017

CYYG;2008-11-21 02:00;CYYG 210200Z 26007KT 15SM BKN036 OVC120 M04/M08 A2958 RMK SC6AC2 SLP019

CYYG;2008-11-21 03:00;CYYG 210300Z 25009KT 15SM BKN040 BKN120 M04/M09 A2959 RMK SC5AC2 SLP022

CYYG;2008-11-21 04:00;CYYG 210400Z 25009KT 15SM BKN040 M05/M09 A2960 RMK SC5 SLP027

CYYG;2008-11-21 05:00;CYYG 210500Z 25010KT 15SM SCT040 SCT150 M05/M09 A2959 RMK SC3AC1 SLP024

CYYG;2008-11-21 06:00;CYYG 210600Z 25010KT 15SM FEW040 M06/M10 A2961 RMK SC2 SLP031

CYYG;2008-11-21 07:00;CYYG 210700Z 25009KT 15SM FEW040 M06/M10 A2963 RMK SC2 SLP036

CYYG;2008-11-21 08:00;CYYG 210800Z 25009KT 15SM FEW040 M06/M10 A2964 RMK SC2 SLP041

CYYG;2008-11-21 09:00;CYYG 210900Z 26009KT 15SM FEW040 M06/M09 A2967 RMK SC2 SLP049

CYYG;2008-11-21 10:00;CYYG 211000Z 26008G15KT 15SM FEW040 M06/M09 A2969 RMK SC1 SLP057

CYYG;2008-11-21 11:00;CYYG 211100Z 27010KT 15SM FEW040 M06/M09 A2972 RMK SC2 SLP068

CYYG;2008-11-21 12:00;CYYG 211200Z 25007KT 15SM FEW038 M06/M09 A2977 RMK SC2 SLP082

CYYG;2008-11-21 13:00;CYYG 211300Z 25011KT 15SM FEW028 M05/M09 A2980 RMK SC2 SLP093

CYYG;2008-11-21 14:00;CYYG 211400Z 25013G20KT 15SM FEW028 M05/M10 A2982 RMK SC2 SLP102

CYYG;2008-11-21 15:00;CYYG 211500Z 25014G19KT 15SM FEW030 M04/M10 A2985 RMK CU2 SLP109

CYYG;2008-11-21 15:05;CYYG 211505Z 24014G21KT 15SM -SHSN SCT027 M04/ RMK CU4

CYYG;2008-11-21 16:00;CYYG 211600Z 25010G19KT 15SM -SHSN SCT022 M04/M10 A2986 RMK SC4 SLP115

CYYG;2008-11-21 17:00;CYYG 211700Z 24013G19KT 15SM SCT030 M03/M09 A2989 RMK SC4 SLP123

CYYG;2008-11-21 17:34;CYYG 211734Z 24014G22KT 15SM -SHSN SCT028 M03/ RMK SC4

CYYG;2008-11-21 18:00;CYYG 211800Z 25013G18KT 15SM -SHSN SCT030 M04/M09 A2993 RMK SC4 SLP138

CYYG;2008-11-21 19:00;CYYG 211900Z 26011KT 15SM -SHSN SCT030 M04/M08 A2996 RMK SC3 SLP147

CYYG;2008-11-21 20:00;CYYG 212000Z 27007KT 15SM FEW031 M04/M08 A2999 RMK SC2 SLP158

CYYG;2008-11-21 21:00;CYYG 212100Z 27004KT 15SM FEW033 M05/M08 A3003 RMK SC2 SLP172

CYYG;2008-11-21 22:00;CYYG 212200Z 28004KT 15SM BKN034 M04/M08 A3005 RMK SC6 SLP180

CYYG;2008-11-21 23:00;CYYG 212300Z 28003KT 15SM BKN034 M04/M08 A3009 RMK SC7 SLP191

CYYG;2008-11-22 00:00;CYYG 220000Z 31002KT 15SM BKN034 M04/M07 A3009 RMK SC7 SLP194

CYYG;2008-11-22 01:00;CYYG 220100Z 35004KT 15SM OVC037 M04/M08 A3010 RMK SC8 SLP196

CYYG;2008-11-22 02:00;CYYG 220200Z 09004KT 15SM BKN028 OVC041 M04/M08 A3011 RMK SC6SC2 SLP199

CYYG;2008-11-22 03:00;CYYG 220300Z 05003KT 15SM BKN040 BKN120 M05/M08 A3008 RMK SC6AC2 SLP189

CYYG;2008-11-22 04:00;CYYG 220400Z 04004KT 15SM BKN040 OVC090 M04/M07 A3004 RMK SC5AC3 SLP175

CYYG;2008-11-22 05:00;CYYG 220500Z 04009KT 15SM OVC053 M03/M06 A2996 RMK SC8 PRESFR SLP150

CYYG;2008-11-22 05:29;CYYG 220529Z 05011KT 12SM -SHSN OVC024 M02/ RMK SC8

CYYG;2008-11-22 05:45;CYYG 220545Z 05012KT 12SM -SHSN OVC009 M02/ RMK SC8

CYYG;2008-11-22 06:00;CYYG 220600Z 06014KT 3SM R03/6000FT/D -SN OVC005 M02/M04 A2992 RMK SC8 SLP135

CYYG;2008-11-22 06:10;CYYG 220610Z 06010G15KT 1SM R03/5000FT/N -SN OVC004 M02/ RMK SC8

CYYG;2008-11-22 06:36;CYYG 220636Z 05010KT 1/4SM R03/1000V3000FT/D +SN VV002 M02/ RMK SN8

CYYG;2008-11-22 07:00;CYYG 220700Z 04012KT 1/4SM R03/1400FT/N +SN VV002 M02/M02 A2987 RMK SN8 /S01/ SLP118

CYYG;2008-11-22 08:00;CYYG 220800Z CCA 04021KT 1/4SM R03/1100V1600FT/N SN +BLSN VV002 M01/M02 A2975 RESN RMK SN8 PRESFR SLP077

CYYG;2008-11-22 08:55;CYYG 220855Z 03028G38KT 1/4SM R03/0900FT/N +TSSN +BLSN VV002 M01/ RMK SN8 CB EMBD

CYYG;2008-11-22 09:00;CYYG 220900Z CCA 03032G38KT 1/8SM R03/0900FT/D TSSN +BLSN VV002 M01/M02 A2960 RESN RMK SN8 CB EMBD PRESFR /S06/ SLP025

CYYG;2008-11-22 09:18;CYYG 220918Z 04030G36KT 1/4SM R03/0900FT/N SN +BLSN VV002 M01/ RMK SN8 RETS

CYYG;2008-11-22 10:00;CYYG 221000Z 04034G44KT 1/4SM R03/0700V1000FT/N SN +BLSN VV003 M00/M00 A2941 RETS RMK SN8 PRESFR SLP962

CYYG;2008-11-22 10:23;CYYG 221023Z 03032G39KT 1/4SM R03/1400V2000FT/N SNPL +BLSN VV007 00/ RMK SN8 REBLSN

CYYG;2008-11-22 11:00;CYYG 221100Z CCA 02026G37KT 3SM R03/5500FT/U -PLSN OVC007 01/01 A2932 RMK SC8 PRESFR /S10/ SLP931

CYYG;2008-11-22 11:18;CYYG 221118Z 03026G34KT 2SM R03/2200V5000FT/D -RASN BR OVC010 01/ RMK SC8 CIG RAG

CYYG;2008-11-22 12:00;CYYG 221200Z 01015G22KT 4SM -RA BR BKN004 OVC007 02/02 A2916 RMK SF6SF2 PRESFR /S25/ SLP877

CYYG;2008-11-22 12:38;CYYG 221238Z 35011G19KT 1 1/2SM -RA BR OVC003 04/ RMK SF8

CYYG;2008-11-22 13:00;CYYG 221300Z 36007KT 1SM R03/P6000FT/N -RA BR OVC002 04/04 A2904 RMK SF8 PRESFR SLP837

CYYG;2008-11-22 13:34;CYYG 221334Z 21002KT 1/4SM R03/1600V3000FT/D -RA FG OVC002 03/ RMK SF8

CYYG;2008-11-22 13:54;CYYG 221354Z 22006KT 1/4SM R03/1400V2200FT/U FG OVC002 03/ RMK SF8

CYYG;2008-11-22 14:00;CYYG 221400Z 22007KT 1/4SM R03/1400V2200FT/D FG OVC002 03/03 A2902 RMK SF8 SLP828

CYYG;2008-11-22 14:15;CYYG 221415Z 22015KT 2SM R03/3000VP6000FT/U BR OVC002 03/ RMK SF8

CYYG;2008-11-22 14:27;CYYG 221427Z 24018KT 5SM BR OVC005 02/ RMK SF8

CYYG;2008-11-22 14:50;CYYG 221450Z 23025G34KT 3SM -SN OVC007 00/ RMK SF8

CYYG;2008-11-22 15:00;CYYG 221500Z 23023G34KT 2SM -SN OVC007 00/00 A2918 RMK SF8 PRESRR SLP883

CYYG;2008-11-22 15:43;CYYG 221543Z 27028G39KT 15SM BKN016 01/ RMK SC7

CYYG;2008-11-22 16:00;CYYG 221600Z 27022G36KT 3SM -SHSN OVC014 00/M01 A2929 RMK SC8 PRESRR SLP922

CYYG;2008-11-22 17:00;CYYG 221700Z 26018G29KT 5SM -SHSN BKN018 M01/M03 A2942 RMK SC7 PRESRR SLP965

CYYG;2008-11-22 17:11;CYYG 221711Z 27023G29KT 10SM VCSH BKN022 M01/ RMK SC7

CYYG;2008-11-22 18:00;CYYG 221800Z 27015G25KT 10SM VCSH BKN031 M01/M04 A2950 RMK SC7 PRESRR SLP991

CYYG;2008-11-22 18:09;CYYG 221809Z 29015G25KT 10SM -SHSN BKN023 M01/ RMK SC7

CYYG;2008-11-22 19:00;CYYG 221900Z 24011G18KT 4SM -SHSN OVC019 M01/M04 A2954 RMK SC8 SLP004

CYYG;2008-11-22 20:00;CYYG 222000Z 23011G16KT 4SM -SHSN SCT020 OVC036 M02/M04 A2957 RMK SC3SC5 SLP014

CYYG;2008-11-22 21:00;CYYG 222100Z 26014KT 10SM -SHSN SCT025 OVC046 M02/M05 A2959 RMK SC3SC5 SLP021

CYYG;2008-11-22 22:00;CYYG 222200Z 26009KT 10SM -SHSN BKN021 OVC042 M03/M04 A2961 RMK SC5SC3 SLP028

CYYG;2008-11-22 23:00;CYYG 222300Z 26011G17KT 8SM -SHSN OVC019 M03/M05 A2963 RMK SC8 SLP036

CYYG;2008-11-23 00:00;CYYG 230000Z 27011KT 10SM -SHSN OVC028 M04/M06 A2965 RMK SC8 SLP043

CYYG;2008-11-23 01:00;CYYG 230100Z 27012G18KT 10SM -SN BKN024 OVC061 M04/M06 A2966 RMK SC6SC2 SLP047

CYYG;2008-11-23 02:00;CYYG 230200Z 27012KT 10SM -SN OVC037 M05/M07 A2969 RMK SC8 SLP056

CYYG;2008-11-23 03:00;CYYG 230300Z 26013KT 10SM -SN FEW020 OVC036 M05/M07 A2971 RMK SC2SC6 SLP063

CYYG;2008-11-23 04:00;CYYG 230400Z 26010KT 8SM -SN BKN023 OVC086 M06/M08 A2973 RMK SC5AC3 SLP069

CYYG;2008-11-23 05:00;CYYG 230500Z 25010G17KT 15SM -SN FEW015 SCT080 M06/M10 A2973 RMK SC2AC2 SLP070

CYYG;2008-11-23 06:00;CYYG 230600Z 26010G18KT 15SM FEW015 SCT080 M06/M11 A2974 RMK SC2AC2 SLP072

CYYG;2008-11-23 07:00;CYYG 230700Z 25014KT 15SM SCT042 M06/M12 A2976 RMK SC3 SLP079

CYYG;2008-11-23 08:00;CYYG 230800Z 26011G24KT 15SM SCT040 M06/M11 A2977 RMK SC3 SLP083

CYYG;2008-11-23 09:00;CYYG 230900Z 25015G20KT 15SM FEW040 BKN150 M06/M12 A2979 RMK SC2AC4 SLP089

CYYG;2008-11-23 10:00;CYYG 231000Z 25013KT 15SM FEW040 SCT200 M06/M12 A2979 RMK SC2CI2 SLP092

CYYG;2008-11-23 11:00;CYYG 231100Z 26012G17KT 15SM FEW040 SCT200 M06/M12 A2981 RMK SC2CI1 SLP097

CYYG;2008-11-23 12:00;CYYG 231200Z 25012KT 15SM FEW020 FEW040 FEW250 M07/M12 A2984 RMK CU1SC1CI0 SLP106

CYYG;2008-11-23 13:00;CYYG 231300Z 25013G19KT 15SM DRSN FEW020 FEW040 SCT250 M06/M12 A2986 RMK SC2SC1CI0 SLP113

CYYG;2008-11-23 14:00;CYYG 231400Z 26011G18KT 15SM FEW030 FEW250 M06/M12 A2986 RMK SC1CI1 SLP115

CYYG;2008-11-23 15:00;CYYG 231500Z CCA 25016G21KT 15SM DRSN FEW025 FEW250 M05/M12 A2986 RMK SC1CI0 SLP115

CYYG;2008-11-23 16:00;CYYG 231600Z 25015G22KT 15SM FEW025 FEW250 M05/M12 A2986 RMK SC1CI1 SLP116

CYYG;2008-11-23 17:00;CYYG 231700Z 26013KT 15SM BKN032 M05/M12 A2987 RMK SC3 SLP118

CYYG;2008-11-23 18:00;CYYG 231800Z 25012G20KT 15SM VCSH SCT032 M05/M12 A2987 RMK SC3 SH NW-N SLP118

CYYG;2008-11-23 19:00;CYYG 231900Z 26010G19KT 15SM VCSH BKN038 M05/M11 A2989 RMK SC5 SLP125

CYYG;2008-11-23 20:00;CYYG 232000Z 26012G21KT 15SM BKN038 M05/M12 A2991 RMK SC7 SLP132

CYYG;2008-11-23 21:00;CYYG 232100Z 26010G16KT 15SM BKN038 M05/M12 A2994 RMK SC7 SH DIST W SLP141

CYYG;2008-11-23 22:00;CYYG 232200Z 26009G15KT 15SM BKN043 M05/M12 A2996 RMK SC6 SLP150

CYYG;2008-11-23 23:00;CYYG 232300Z 26010G16KT 15SM BKN048 M05/M12 A3000 RMK SC6 SLP163

CYYG;2008-11-24 00:00;CYYG 240000Z 26010G15KT 15SM SCT048 M05/M12 A3002 RMK SC4 SLP170

CYYG;2008-11-24 01:00;CYYG 240100Z 26009KT 15SM BKN060 M05/M12 A3004 RMK SC6 SLP177

CYYG;2008-11-24 02:00;CYYG 240200Z 26011KT 15SM BKN049 M05/M12 A3005 RMK SC6 SLP180

CYYG;2008-11-24 03:00;CYYG 240300Z 27010G16KT 15SM BKN048 M05/M11 A3006 RMK SC7 SLP184

CYYG;2008-11-24 04:00;CYYG 240400Z 25011KT 15SM OVC048 M04/M11 A3008 RMK SC8 SLP189

CYYG;2008-11-24 05:00;CYYG 240500Z 26010G15KT 15SM OVC046 M04/M11 A3009 RMK SC8 SLP192

CYYG;2008-11-24 06:00;CYYG 240600Z 27011G17KT 15SM OVC049 M05/M10 A3011 RMK SC8 SLP200

CYYG;2008-11-24 07:00;CYYG 240700Z 26008KT 15SM BKN048 BKN200 M05/M10 A3014 RMK SC6CI2 SLP209

CYYG;2008-11-24 08:00;CYYG 240800Z 26008KT 15SM SCT048 BKN200 M06/M10 A3016 RMK SC3CI3 SLP216

CYYG;2008-11-24 09:00;CYYG 240900Z 26003KT 15SM FEW048 SCT200 M07/M10 A3018 RMK SC2CI2 SLP224

CYYG;2008-11-24 10:00;CYYG 241000Z 27005KT 15SM SKC M07/M10 A3020 RMK SLP230

CYYG;2008-11-24 11:00;CYYG 241100Z 22005KT 15SM FEW020 M07/M10 A3023 RMK SC1 SLP240

CYYG;2008-11-24 12:00;CYYG 241200Z 25005KT 15SM FEW020 BKN280 M07/M10 A3026 RMK SC1CI1 SLP250

CYYG;2008-11-24 13:00;CYYG 241300Z 25006KT 15SM FEW020 BKN280 M06/M09 A3028 RMK SC1CI2 SLP258

CYYG;2008-11-24 14:00;CYYG 241400Z 27008KT 15SM FEW020 BKN240 M05/M09 A3030 RMK SC1CI2 SLP262

CYYG;2008-11-24 15:00;CYYG 241500Z 27008KT 15SM FEW020 BKN240 M05/M09 A3030 RMK SC1CI1 SLP262

CYYG;2008-11-24 16:00;CYYG 241600Z 27006KT 15SM FEW022 SCT240 M04/M09 A3030 RMK SC2CI1 SLP262

CYYG;2008-11-24 17:00;CYYG 241700Z 26008KT 15SM FEW025 M03/M09 A3029 RMK SC2 SLP261

CYYG;2008-11-24 18:00;CYYG 241800Z 25010KT 15SM FEW025 M03/M12 A3030 RMK SC2 SLP264

CYYG;2008-11-24 19:00;CYYG 241900Z 25007KT 15SM FEW025 M04/M10 A3031 RMK SC1 SLP268

CYYG;2008-11-24 20:00;CYYG 242000Z 26005KT 15SM FEW025 M04/M10 A3033 RMK SC1 SLP275

CYYG;2008-11-24 21:00;CYYG 242100Z 28003KT 15SM FEW025 M05/M09 A3035 RMK SC2 SLP282

CYYG;2008-11-24 22:00;CYYG 242200Z 32002KT 15SM FEW025 M09/M10 A3037 RMK SC1 SLP289

CYYG;2008-11-24 23:00;CYYG 242300Z 34003KT 15SM FEW025 M10/M11 A3039 RMK SC1 SLP293

CYYG;2008-11-25 00:00;CYYG 250000Z 30002KT 15SM FEW025 M11/M12 A3039 RMK SC1 SLP296

CYYG;2008-11-25 01:00;CYYG 250100Z 00000KT 15SM SKC M11/M12 A3040 RMK SLP297

CYYG;2008-11-25 02:00;CYYG 250200Z 26002KT 15SM SKC M12/M12 A3041 RMK SLP302

CYYG;2008-11-25 03:00;CYYG 250300Z 29004KT 15SM SKC M10/M11 A3042 RMK SLP305

CYYG;2008-11-25 04:00;CYYG 250400Z 30003KT 15SM SKC M10/M11 A3042 RMK SLP304

CYYG;2008-11-25 05:00;CYYG 250500Z 31004KT 15SM SKC M12/M13 A3042 RMK SLP306

CYYG;2008-11-25 06:00;CYYG 250600Z 00000KT 15SM SKC M02/M11 A3044 RMK SLP310

CYYG;2008-11-25 07:00;CYYG 250700Z 00000KT 15SM SKC M12/M12 A3045 RMK SLP314

CYYG;2008-11-25 08:00;CYYG 250800Z 00000KT 15SM SKC M13/M13 A3046 RMK SLP316

CYYG;2008-11-25 09:00;CYYG 250900Z 00000KT 15SM SKC M12/M12 A3046 RMK SLP319

CYYG;2008-11-25 10:00;CYYG 251000Z 00000KT 15SM SKC M13/M13 A3047 RMK SLP323

CYYG;2008-11-25 11:00;CYYG 251100Z 00000KT 15SM SCT300 M13/M13 A3049 RMK CI1 SLP329

CYYG;2008-11-25 12:00;CYYG 251200Z 00000KT 15SM VCFG FEW020 BKN300 M12/M12 A3051 RMK SC1CI1 SLP337

CYYG;2008-11-25 13:00;CYYG 251300Z 00000KT 15SM VCFG FEW020 BKN220 M09/M10 A3051 RMK SC1CI2 SLP336

CYYG;2008-11-25 14:00;CYYG 251400Z 12005KT 15SM FEW020 BKN250 M04/M08 A3050 RMK SC1CI2 CC ASOCTD SLP333

CYYG;2008-11-25 15:00;CYYG 251500Z 11004KT 15SM FEW020 BKN250 M03/M06 A3048 RMK SC1CI2 SLP326

CYYG;2008-11-25 16:00;CYYG 251600Z 15008KT 15SM FEW020 BKN250 M01/M05 A3047 RMK SC1CI3 CONTRAILS SLP323

CYYG;2008-11-25 17:00;CYYG 251700Z 12006KT 15SM FEW020 OVC250 M01/M06 A3048 RMK SC1CS6 SLP324

CYYG;2008-11-25 18:00;CYYG 251800Z 13008KT 15SM FEW020 FEW170 OVC250 M00/M06 A3048 RMK SC1AC2CS3 SLP323

CYYG;2008-11-25 19:00;CYYG 251900Z 13007KT 15SM FEW020 BKN250 00/M06 A3049 RMK SC1CS2 SLP326

CYYG;2008-11-25 20:00;CYYG 252000Z 10005KT 15SM FEW020 BKN250 M00/M06 A3048 RMK SC1CS2 SLP324

CYYG;2008-11-25 21:00;CYYG 252100Z 09005KT 15SM BKN250 M01/M06 A3048 RMK CI2 SLP326

CYYG;2008-11-25 22:00;CYYG 252200Z 09006KT 15SM BKN230 M02/M06 A3049 RMK CI4 SLP327

CYYG;2008-11-25 23:00;CYYG 252300Z 11006KT 15SM BKN220 M01/M05 A3048 RMK CI6 SLP326

CYYG;2008-11-26 00:00;CYYG 260000Z 12006KT 15SM BKN220 M02/M04 A3047 RMK CI6 SLP322

CYYG;2008-11-26 01:00;CYYG 260100Z 12010G15KT 15SM BKN220 M01/M04 A3045 RMK CI6 SLP314

CYYG;2008-11-26 02:00;CYYG 260200Z 13010KT 15SM BKN220 M00/M03 A3044 RMK CI4 SLP313

CYYG;2008-11-26 03:00;CYYG 260300Z 12009KT 15SM BKN220 M00/M03 A3044 RMK CI3 SLP309

CYYG;2008-11-26 04:00;CYYG 260400Z 13008KT 15SM BKN200 M00/M03 A3042 RMK CI2 SLP305

CYYG;2008-11-26 05:00;CYYG 260500Z 13010KT 15SM FEW022 BKN200 00/M02 A3041 RMK SC1CI2 SLP300

CYYG;2008-11-26 06:00;CYYG 260600Z 12011KT 15SM FEW022 BKN220 01/M02 A3039 RMK SC1CI3 SLP294

CYYG;2008-11-26 07:00;CYYG 260700Z 12013G18KT 15SM FEW022 BKN190 02/M02 A3038 RMK SC1AC5 SLP289

CYYG;2008-11-26 08:00;CYYG 260800Z 12011KT 15SM FEW025 BKN210 02/M01 A3035 RMK SC2CI5 SLP280

CYYG;2008-11-26 09:00;CYYG 260900Z 12015G20KT 15SM SCT030 OVC210 03/M00 A3034 RMK SC4CI3 SLP276

CYYG;2008-11-26 10:00;CYYG 261000Z 13012G17KT 15SM BKN030 OVC210 03/00 A3033 RMK SC6CI2 SLP272

CYYG;2008-11-26 11:00;CYYG 261100Z 14016G25KT 15SM OVC030 04/M00 A3033 RMK SC8 SLP272

CYYG;2008-11-26 12:00;CYYG 261200Z 13014G22KT 15SM OVC029 04/00 A3033 RMK SC8 SLP274

CYYG;2008-11-26 13:00;CYYG 261300Z 13016G22KT 15SM OVC024 04/00 A3032 RMK SC8 SLP269

CYYG;2008-11-26 14:00;CYYG 261400Z 14013G19KT 15SM OVC025 04/01 A3030 RMK SC8 SLP264

CYYG;2008-11-26 14:32;CYYG 261432Z 13016KT 10SM -SHRA OVC025 04/ RMK SC8

CYYG;2008-11-26 15:00;CYYG 261500Z 13014KT 12SM -SHRA OVC023 04/02 A3028 RMK SC8 SLP257

CYYG;2008-11-26 16:00;CYYG 261600Z 12011G16KT 15SM -SHRA OVC022 04/02 A3023 RMK SC8 SLP239

CYYG;2008-11-26 16:45;CYYG 261645Z 13014G20KT 15SM OVC025 05/ RMK SC8

CYYG;2008-11-26 17:00;CYYG 261700Z 12013G18KT 15SM OVC026 05/02 A3020 RMK SC8 SLP230

CYYG;2008-11-26 18:00;CYYG 261800Z 12014G19KT 15SM OVC027 05/02 A3017 RMK SC8 SLP220

CYYG;2008-11-26 19:00;CYYG 261900Z 12013KT 15SM OVC022 05/02 A3017 RMK SC8 SLP219

CYYG;2008-11-26 20:00;CYYG 262000Z 12015G20KT 15SM OVC018 05/03 A3016 RMK SC8 SLP215

CYYG;2008-11-26 21:00;CYYG 262100Z 12013G19KT 15SM OVC016 04/03 A3014 RMK SC8 SLP209

CYYG;2008-11-26 21:20;CYYG 262120Z 12014KT 12SM -SHRA OVC016 04/ RMK SC8

CYYG;2008-11-26 22:00;CYYG 262200Z 11011KT 12SM -SHRA BKN008 OVC015 04/04 A3012 RMK SC5SC3 CIG RAG SLP203

CYYG;2008-11-26 23:00;CYYG 262300Z CCA 11011KT 12SM -SHRA BKN007 OVC013 04/04 A3010 RMK SC5SC3 CIG RAG SLP195

CYYG;2008-11-27 00:00;CYYG 270000Z 11011KT 10SM -SHRA OVC008 04/04 A3008 RMK SF8 SLP189

CYYG;2008-11-27 01:00;CYYG 270100Z 10012G17KT 10SM -SHRA OVC010 04/04 A3005 RMK SF8 CIG RGD SLP178

CYYG;2008-11-27 02:00;CYYG 270200Z 10008KT 10SM -SHRA OVC009 04/04 A3003 RMK SF8 CIG RAG OCNL -SHRA SLP170

CYYG;2008-11-27 02:37;CYYG 270237Z 09007KT 8SM -SHRA BKN005 OVC008 04/ RMK SF6SF2 CIG RAG

CYYG;2008-11-27 03:00;CYYG 270300Z 07007KT 8SM -SHRA BKN005 OVC009 04/04 A2998 RMK SF6SF2 CIG RAG OCNL -SHRA SLP156

CYYG;2008-11-27 04:00;CYYG 270400Z 04005KT 5SM -SHRA BR OVC004 03/03 A2995 RMK SF8 CIG RAG SLP145

CYYG;2008-11-27 04:18;CYYG 270418Z 03006KT 4SM BR OVC004 03/ RMK SF8

CYYG;2008-11-27 04:47;CYYG 270447Z 03007KT 2SM BR OVC002 03/ RMK SF8

CYYG;2008-11-27 05:00;CYYG 270500Z 01004KT 1 1/2SM R03/4000FT/N BR OVC003 03/03 A2992 RMK SF8 SLP135

CYYG;2008-11-27 05:16;CYYG 270516Z 02004KT 3/4SM R03/3500V5000FT/D BR OVC002 03/ RMK SF8

CYYG;2008-11-27 05:26;CYYG 270526Z 01004KT 1/2SM R03/2800FT/D FG VV002 03/ RMK FG8

CYYG;2008-11-27 06:00;CYYG 270600Z 36004KT 3/8SM R03/2000FT/N FG VV002 03/03 A2990 RMK FG8 SLP128

CYYG;2008-11-27 07:00;CYYG 270700Z 34003KT 1/2SM R03/2000FT/N FG OVC003 03/03 A2989 RMK SF8 SLP123

CYYG;2008-11-27 08:00;CYYG 270800Z 28003KT 1/2SM R03/2400FT/N FG OVC003 03/03 A2989 RMK SF8 SLP122

CYYG;2008-11-27 09:00;CYYG 270900Z 30004KT 1/2SM R03/3000FT/N FG OVC002 03/03 A2988 RMK SF8 SLP120

CYYG;2008-11-27 09:41;CYYG 270941Z 34003KT 1 1/2SM R03/4000V6000FT/U BR BKN004 OVC036 03/ RMK SF6SC2

CYYG;2008-11-27 10:00;CYYG 271000Z 00000KT 2 1/2SM BR SCT005 BKN034 OVC093 03/03 A2988 RMK SF3SC2AC3 SLP120

CYYG;2008-11-27 10:09;CYYG 271009Z 25002KT 3/4SM R03/2400VP6000FT/D BR SCT004 OVC041 03/ RMK SF4SC4

CYYG;2008-11-27 10:18;CYYG 271018Z 00000KT 1/2SM R03/2200V3000FT/D FG BKN002 OVC028 03/ RMK SF6SC2

CYYG;2008-11-27 10:35;CYYG 271035Z 27002KT 2 1/2SM R03/3500FT/U BR SCT004 BKN025 OVC040 03/ RMK SF3SC2SC2

CYYG;2008-11-27 11:00;CYYG 271100Z 26003KT 2SM R03/3500FT/N BR MIFG SCT025 BKN043 03/03 A2989 RMK SC3SC3 SLP123

CYYG;2008-11-27 11:14;CYYG 271114Z 26005KT 1/2SM R03/2200FT/N FG BKN038 03/ RMK FG6SC2

CYYG;2008-11-27 12:00;CYYG 271200Z 27003KT 1/4SM R03/1200V2000FT/U FG SCT038 BKN250 03/03 A2991 RMK FG2SC2CI1 SLP130

CYYG;2008-11-27 12:29;CYYG 271229Z 26004KT 1/4SM R03/1400V2600FT/N FG VV002 03/ RMK FG8

CYYG;2008-11-27 13:00;CYYG 271300Z 27004KT 1/4SM R03/1100FT/N FG VV001 03/03 A2992 RMK FG8 SLP133

CYYG;2008-11-27 14:00;CYYG 271400Z 27006KT 1/4SM R03/1400FT/N FG VV001 03/03 A2992 RMK FG8 SLP135

CYYG;2008-11-27 14:16;CYYG 271416Z 30006KT 1/2SM R03/1600V2200FT/N FG VV002 03/ RMK FG8

CYYG;2008-11-27 15:00;CYYG 271500Z 28004KT 1/4SM R03/1600V2600FT/D FG VV002 04/04 A2992 RMK FG8 SLP133

CYYG;2008-11-27 15:06;CYYG 271506Z 30006KT 1/2SM R03/2600VP6000FT/U FG OVC003 03/ RMK FG4SF4

CYYG;2008-11-27 15:42;CYYG 271542Z 28005KT 3/4SM R03/P6000FT/U BR OVC003 04/ RMK FG4SF4

CYYG;2008-11-27 15:51;CYYG 271551Z 30006KT 8SM OVC003 03/ RMK SF8

CYYG;2008-11-27 16:00;CYYG 271600Z 31005KT 12SM OVC004 04/04 A2991 RMK SF8 SLP130

CYYG;2008-11-27 17:00;CYYG 271700Z 33005KT 15SM OVC005 04/04 A2991 RMK SC8 SLP129

CYYG;2008-11-27 18:00;CYYG 271800Z 27005KT 15SM OVC004 03/03 A2991 RMK ST8 VIS W-NE 2 SLP129

CYYG;2008-11-27 18:31;CYYG 271831Z 29005KT 2SM BR OVC003 03/ RMK ST8 VIS SE-W 10

CYYG;2008-11-27 19:00;CYYG 271900Z 26004KT 2SM BR OVC003 03/03 A2992 RMK ST8 SLP133

CYYG;2008-11-27 19:32;CYYG 271932Z 27004KT 1SM R03/P6000FT/N BR OVC003 02/ RMK ST8

CYYG;2008-11-27 20:00;CYYG 272000Z 29004KT 3/4SM R03/P6000FT/U BR OVC003 02/02 A2991 RMK ST8 SLP131

CYYG;2008-11-27 20:29;CYYG 272029Z 28004KT 1SM R03/6000FT/U BR OVC002 02/ RMK ST8

CYYG;2008-11-27 21:00;CYYG 272100Z 27004KT 1SM R03/P6000FT/N BR OVC002 01/01 A2992 RMK ST8 SLP135

CYYG;2008-11-27 22:00;CYYG 272200Z 28003KT 3/4SM R03/3500V5500FT/U BR OVC002 01/01 A2993 RMK ST8 SLP136

CYYG;2008-11-27 23:00;CYYG 272300Z 25003KT 1/2SM R03/2600FT/N FG VV002 00/00 A2994 RMK FG8 SLP140

CYYG;2008-11-28 00:00;CYYG 280000Z 26007KT 5/8SM R03/3500VP6000FT/U BR OVC002 00/00 A2994 RMK SF8 SLP140

CYYG;2008-11-28 01:00;CYYG 280100Z 28004KT 5/8SM R03/2800V5000FT/D BR OVC002 00/00 A2994 RMK SF8 SLP142

CYYG;2008-11-28 02:00;CYYG 280200Z 29004KT 1/2SM R03/2400FT/N FZFG OVC002 M00/M00 A2994 RMK SF8 SLP141

CYYG;2008-11-28 02:42;CYYG 280242Z 00000KT 1/4SM R03/1600V2200FT/N FZFG VV001 M00/ RMK FG8

CYYG;2008-11-28 03:00;CYYG 280300Z 23003KT 1/4SM R03/1800V3000FT/D FZFG VV001 M00/M00 A2994 RMK FG8 SLP141

CYYG;2008-11-28 04:00;CYYG 280400Z 21004KT 3/8SM R03/2400FT/D FG VV001 00/00 A2995 RMK FG8 SLP144

CYYG;2008-11-28 05:00;CYYG 280500Z 23006KT 1/4SM R03/1400FT/N FG VV001 01/01 A2995 RMK FG8 SLP145

CYYG;2008-11-28 06:00;CYYG 280600Z 16004KT 1/4SM R03/1100FT/N FG VV001 01/01 A2995 RMK FG8 SLP143

CYYG;2008-11-28 07:00;CYYG 280700Z 20007KT 1/4SM R03/1200FT/N FG VV001 01/01 A2996 RMK FG8 SLP148

CYYG;2008-11-28 08:00;CYYG 280800Z 18004KT 1/4SM R03/1600FT/N FG VV001 01/01 A2996 RMK FG8 SLP146

CYYG;2008-11-28 09:00;CYYG 280900Z 14004KT 1/8SM R03/1200FT/N FG VV001 01/01 A2995 RMK FG8 SLP145

CYYG;2008-11-28 10:00;CYYG 281000Z 13004KT 1/8SM R03/1200V1800FT/D FG VV001 01/01 A2994 RMK FG8 SLP142

CYYG;2008-11-28 11:00;CYYG 281100Z 14006KT 1/8SM R03/1400FT/N FZFG SKC M00/M00 A2996 RMK FG6 SLP146

CYYG;2008-11-28 11:25;CYYG 281125Z 14006KT 1SM R03/1200FT/N BR BKN043 M00/ RMK FG3SC4

CYYG;2008-11-28 11:35;CYYG 281135Z 14006KT 4SM R03/1600FT/N BR MIFG BKN046 00/ RMK SC7

CYYG;2008-11-28 12:00;CYYG 281200Z 15005KT 10SM R03/4500VP6000FT/U MIFG BKN045 00/00 A2997 RMK SC7 SLP150

CYYG;2008-11-28 13:00;CYYG 281300Z 12005KT 12SM BKN050 01/01 A2996 RMK SC7 VIS LWR E SLP148

CYYG;2008-11-28 14:00;CYYG 281400Z 13005KT 15SM BKN038 02/02 A2996 RMK SC7 VIS LWR NE SLP147

CYYG;2008-11-28 15:00;CYYG 281500Z 15007KT 15SM OVC041 04/03 A2995 RMK SC8 SLP144

CYYG;2008-11-28 16:00;CYYG 281600Z 17010KT 15SM OVC032 04/01 A2994 RMK SC8 SLP140

CYYG;2008-11-28 17:00;CYYG 281700Z 16007KT 15SM OVC035 04/02 A2992 RMK SC8 SLP135

CYYG;2008-11-28 18:00;CYYG 281800Z 18006KT 15SM OVC031 04/03 A2991 RMK SC8 SLP132

CYYG;2008-11-28 18:26;CYYG 281826Z 22004KT 10SM -DZ OVC019 04/ RMK SC8

CYYG;2008-11-28 19:00;CYYG 281900Z 20005KT 10SM -DZ OVC021 04/04 A2990 RMK SC8 VIS LWR N-NE SLP129

CYYG;2008-11-28 19:29;CYYG 281929Z 20007KT 5SM -DZ BR OVC019 04/ RMK SC8

CYYG;2008-11-28 20:00;CYYG 282000Z 17005KT 12SM -DZ OVC019 04/04 A2990 RMK SC8 SLP127

CYYG;2008-11-28 20:17;CYYG 282017Z 14004KT 3SM -DZ BR OVC014 04/ RMK SC8

CYYG;2008-11-28 21:00;CYYG 282100Z 17004KT 5SM -RA BR BKN013 OVC020 04/04 A2989 RMK SC7SC1 SLP124

CYYG;2008-11-28 22:00;CYYG 282200Z 17006KT 6SM -RA BR BKN015 OVC024 04/04 A2987 RMK SC7SC1 SLP117

CYYG;2008-11-28 23:00;CYYG 282300Z 14007KT 8SM -RA SCT015 OVC029 04/04 A2986 RMK SC4SC4 SLP113

CYYG;2008-11-29 00:00;CYYG 290000Z 15006KT 10SM -RA FEW003 BKN030 OVC120 04/04 A2983 RMK SF2SC4AC2 SLP104

CYYG;2008-11-29 00:09;CYYG 290009Z 14005KT 15SM FEW003 BKN030 OVC140 04/ RMK SF2SC5AC2

CYYG;2008-11-29 00:51;CYYG 290051Z 13008KT 10SM BKN002 OVC027 04/ RMK SF6SC2

CYYG;2008-11-29 01:00;CYYG 290100Z 13007KT 10SM BKN002 OVC027 04/04 A2979 RMK SF6SC2 SLP091

CYYG;2008-11-29 01:29;CYYG 290129Z 14006KT 15SM BKN005 OVC024 04/ RMK SF6SC2

CYYG;2008-11-29 02:00;CYYG 290200Z 16006KT 15SM FEW003 SCT018 04/04 A2979 RMK SF2SC1 SLP088

CYYG;2008-11-29 02:18;CYYG 290218Z 16007KT 10SM BKN003 BKN022 OVC031 04/ RMK SF6SC2SC1

CYYG;2008-11-29 03:00;CYYG 290300Z 16008KT 15SM FEW004 OVC027 04/04 A2979 RMK SF2SC6 SLP089

CYYG;2008-11-29 04:00;CYYG 290400Z 16007KT 15SM FEW004 SCT017 OVC025 04/04 A2977 RMK SF2SC2SC5 SLP082

CYYG;2008-11-29 04:36;CYYG 290436Z 14006KT 15SM OVC012 04/ RMK SC8

CYYG;2008-11-29 05:00;CYYG 290500Z 14006KT 15SM OVC010 04/04 A2974 RMK SC8 SLP072

CYYG;2008-11-29 06:00;CYYG 290600Z 13007KT 15SM FEW007 OVC011 05/05 A2971 RMK SF1SC7 SLP063

CYYG;2008-11-29 07:00;CYYG 290700Z 15009KT 15SM FEW008 BKN011 OVC045 06/05 A2969 RMK SF2SC5SC2 SLP054

CYYG;2008-11-29 07:30;CYYG 290730Z 15014KT 15SM -SHRA FEW009 OVC040 06/ RMK SF2SC6

CYYG;2008-11-29 07:56;CYYG 290756Z 15014KT 15SM FEW007 OVC037 06/ RMK SF2SC6

CYYG;2008-11-29 08:00;CYYG 290800Z 15014KT 15SM FEW007 OVC037 06/05 A2965 RMK SF2SC6 SLP042

CYYG;2008-11-29 08:07;CYYG 290807Z 16014G19KT 10SM -SHRA FEW008 OVC032 06/ RMK SF2SC6

CYYG;2008-11-29 08:35;CYYG 290835Z 16012G17KT 15SM FEW008 OVC033 06/ RMK SF2SC6

CYYG;2008-11-29 08:46;CYYG 290846Z 16012G18KT 10SM -SHRA OVC030 06/ RMK SC8

CYYG;2008-11-29 09:00;CYYG 290900Z 15010G17KT 10SM -SHRA BKN035 OVC059 06/06 A2963 RMK SC6SC2 SLP036

CYYG;2008-11-29 09:23;CYYG 290923Z 15013KT 15SM BKN033 OVC047 06/ RMK SC6SC2

CYYG;2008-11-29 10:00;CYYG 291000Z 16012G18KT 15SM BKN023 OVC060 06/06 A2962 RMK SC6SC2 SLP033

CYYG;2008-11-29 11:00;CYYG 291100Z 16011G16KT 15SM FEW005 OVC017 06/06 A2961 RMK SF2SC6 SLP028

CYYG;2008-11-29 12:00;CYYG 291200Z 17011KT 15SM FEW006 BKN013 07/06 A2961 RMK SF1SC6 SLP028

CYYG;2008-11-29 13:00;CYYG 291300Z 23012G19KT 15SM FEW007 BKN018 06/04 A2962 RMK SF1SC6 SLP031

CYYG;2008-11-29 14:00;CYYG 291400Z 23010G18KT 15SM FEW018 SCT035 05/03 A2963 RMK SC2SC2 SLP034

CYYG;2008-11-29 14:43;CYYG 291443Z 23012KT 15SM BKN014 OVC026 04/ RMK SC5SC3

CYYG;2008-11-29 15:00;CYYG 291500Z 23012G20KT 15SM BKN014 OVC028 04/02 A2962 RMK SC6SC2 SLP031

CYYG;2008-11-29 16:00;CYYG 291600Z 25012G19KT 15SM OVC012 03/01 A2962 RMK SC8 SLP031

CYYG;2008-11-29 16:26;CYYG 291626Z 25012KT 15SM OVC015 03/ RMK SC8

CYYG;2008-11-29 17:00;CYYG 291700Z 25014G19KT 15SM OVC015 04/02 A2962 RMK SC8 SLP032

CYYG;2008-11-29 18:00;CYYG 291800Z 25009G16KT 15SM OVC018 04/01 A2964 RMK SC8 SLP038

CYYG;2008-11-29 19:00;CYYG 291900Z 27013G18KT 15SM OVC022 03/M00 A2965 RMK SC8 SLP042

CYYG;2008-11-29 20:00;CYYG 292000Z 26009G26KT 15SM BKN023 03/M01 A2967 RMK SC7 G26 PST HR SLP050

CYYG;2008-11-29 21:00;CYYG 292100Z 27012G17KT 15SM BKN024 03/M01 A2969 RMK SC7 SLP057

CYYG;2008-11-29 22:00;CYYG 292200Z 27008KT 15SM BKN023 OVC030 03/M01 A2971 RMK SC6SC2 SLP063

CYYG;2008-11-29 23:00;CYYG 292300Z 28012G17KT 15SM FEW023 BKN032 02/M03 A2973 RMK SC1SC6 SLP068

CYYG;2008-11-30 00:00;CYYG 300000Z 27010G17KT 15SM OVC030 02/M02 A2973 RMK SC8 SLP070

CYYG;2008-11-30 01:00;CYYG 300100Z 28010KT 15SM OVC034 02/M02 A2975 RMK SC8 SLP075

CYYG;2008-11-30 02:00;CYYG 300200Z 27009KT 15SM OVC040 02/M01 A2975 RMK SC8 SLP077

CYYG;2008-11-30 03:00;CYYG 300300Z 26005KT 15SM OVC040 01/M01 A2977 RMK SC8 SLP083

CYYG;2008-11-30 04:00;CYYG 300400Z 27007KT 15SM SCT040 00/M01 A2978 RMK SC4 SLP087

CYYG;2008-11-30 05:00;CYYG 300500Z 26006KT 15SM FEW040 00/M01 A2980 RMK SC2 SLP092

CYYG;2008-11-30 06:00;CYYG 300600Z 25004KT 15SM FEW040 M01/M02 A2982 RMK SC2 SLP100

CYYG;2008-11-30 07:00;CYYG 300700Z 26006KT 15SM FEW040 M01/M02 A2983 RMK SC2 SLP105

CYYG;2008-11-30 08:00;CYYG 300800Z 25006KT 15SM SKC M01/M02 A2984 RMK SLP108

CYYG;2008-11-30 09:00;CYYG 300900Z 27005KT 15SM SKC M01/M03 A2987 RMK SLP116

CYYG;2008-11-30 10:00;CYYG 301000Z 25006KT 15SM SKC M02/M03 A2987 RMK SLP118

CYYG;2008-11-30 11:00;CYYG 301100Z 24005KT 15SM SCT051 M02/M02 A2989 RMK SC3 SLP124

CYYG;2008-11-30 12:00;CYYG 301200Z 28004KT 15SM FEW050 M01/M01 A2991 RMK SC2 FROIN SLP131

CYYG;2008-11-30 13:00;CYYG 301300Z 23004KT 15SM FEW050 FEW120 M00/M01 A2992 RMK SC1AC1 SLP134

CYYG;2008-11-30 13:29;CYYG 301329Z 25005KT 15SM SCT012 BKN050 01/ RMK SC4SC1

CYYG;2008-11-30 14:00;CYYG 301400Z 27008KT 15SM SCT012 SCT050 01/M01 A2993 RMK SC3SC1 SLP137

CYYG;2008-11-30 15:00;CYYG 301500Z 26007KT 15SM SCT015 SCT250 01/M02 A2995 RMK SC3CI1 SLP144

CYYG;2008-11-30 16:00;CYYG 301600Z 25011KT 15SM FEW017 BKN250 01/M03 A2997 RMK SC2CI2 SLP152

CYYG;2008-11-30 17:00;CYYG 301700Z 26010G15KT 15SM FEW020 BKN250 02/M03 A2998 RMK SC1CI2 SLP155

CYYG;2008-11-30 18:00;CYYG 301800Z 28008KT 15SM FEW020 BKN210 02/M03 A2998 RMK SC1CI2 SLP156

CYYG;2008-11-30 19:00;CYYG 301900Z 25007KT 15SM FEW020 FEW210 02/M05 A3001 RMK SC1CI1 SLP165

CYYG;2008-11-30 20:00;CYYG 302000Z 25005KT 15SM FEW020 FEW210 01/M04 A3004 RMK SC1CI1 SLP176

CYYG;2008-11-30 21:00;CYYG 302100Z 25003KT 15SM SCT250 00/M04 A3007 RMK CI1 SLP184

CYYG;2008-11-30 22:00;CYYG 302200Z 25002KT 15SM OVC270 00/M04 A3008 RMK CS8 SLP188

CYYG;2008-11-30 23:00;CYYG 302300Z 00000KT 15SM OVC240 M02/M04 A3009 RMK CS5 SLP191

CYYG;2008-12-01 01:00;CYYG 010100Z 00000KT 15SM OVC200 M02/M04 A3009 RMK CS6 SLP192

CYYG;2008-12-01 02:00;CYYG 010200Z 14002KT 15SM OVC200 M01/M04 A3012 RMK CS6 SLP200

CYYG;2008-12-01 03:00;CYYG 010300Z 13002KT 15SM OVC160 M01/M03 A3011 RMK AC6 SLP197

CYYG;2008-12-01 04:00;CYYG 010400Z 05002KT 15SM OVC130 M02/M03 A3009 RMK AC8 SLP191

CYYG;2008-12-01 05:00;CYYG 010500Z 10004KT 15SM OVC100 M01/M03 A3008 RMK AC8 SLP187

CYYG;2008-12-01 06:00;CYYG 010600Z 12004KT 15SM OVC072 00/M02 A3008 RMK AC8 SLP187

CYYG;2008-12-01 07:00;CYYG 010700Z 11004KT 15SM OVC045 00/M02 A3004 RMK SC8 SLP176

CYYG;2008-12-01 07:07;CYYG 010707Z 10005KT 15SM -SHRA OVC048 01/ RMK SC8

CYYG;2008-12-01 08:00;CYYG 010800Z 08006KT 15SM -SHRA OVC046 01/M01 A3000 RMK SC8 SLP162

CYYG;2008-12-01 09:00;CYYG 010900Z 10010KT 12SM -SHRA OVC046 01/00 A2996 RMK SC8 SLP147

CYYG;2008-12-01 10:00;CYYG 011000Z 11004KT 10SM -SHRA SCT004 BKN020 OVC032 02/02 A2992 RMK SF3SC2SC2 SLP135

CYYG;2008-12-01 10:24;CYYG 011024Z 06005KT 10SM -SHRA BKN005 OVC012 02/ RMK SF6SC2

CYYG;2008-12-01 11:00;CYYG 011100Z 06006KT 10SM -SHRA BKN005 OVC012 02/02 A2989 RMK SF5SC3 RERA SLP124

CYYG;2008-12-01 12:00;CYYG 011200Z 09010KT 6SM -SHRA BKN005 OVC010 03/03 A2984 RMK SF6SC2 SLP107

CYYG;2008-12-01 13:00;CYYG 011300Z 12011KT 4SM -SHRA BR BKN004 OVC010 04/04 A2977 RMK SF6SC2 CIG RAG PRESFR SLP083

CYYG;2008-12-01 14:00;CYYG 011400Z 13011KT 10SM -SHRA BKN006 OVC010 06/06 A2971 RMK SF5SC3 PRESFR SLP063

CYYG;2008-12-01 14:13;CYYG 011413Z 13011KT 2SM -SHRA BR BKN006 OVC010 06/ RMK SF6SC2

CYYG;2008-12-01 14:38;CYYG 011438Z 15010KT 12SM -SHRA OVC007 07/ RMK SC8

CYYG;2008-12-01 15:00;CYYG 011500Z 15010KT 12SM -SHRA OVC005 07/07 A2966 RMK SC8 PCPN VRY LGT SLP047

CYYG;2008-12-01 15:49;CYYG 011549Z 16013KT 4SM -SHRA BR OVC004 10/ RMK SF8

CYYG;2008-12-01 16:00;CYYG 011600Z 16013KT 5SM -SHRA BR OVC003 10/10 A2958 RMK SF8 PRESFR SLP017

CYYG;2008-12-01 16:30;CYYG 011630Z 17016KT 5SM -SHRA BR OVC002 11/ RMK SF8

CYYG;2008-12-01 17:00;CYYG 011700Z 17015KT 6SM -SHRA BR OVC003 12/12 A2953 RMK SF8 SLP001

CYYG;2008-12-01 17:26;CYYG 011726Z 19018KT 2 1/2SM -SHRA BR OVC002 12/ RMK SF8

CYYG;2008-12-01 18:00;CYYG 011800Z 19017G28KT 1/2SM R03/P6000FT/N -SHRA FG OVC002 12/12 A2954 RMK SF8 SLP003

CYYG;2008-12-01 18:31;CYYG 011831Z 18018G25KT 10SM -SHRA BKN002 OVC020 12/ RMK SC5SC3

CYYG;2008-12-01 19:00;CYYG 011900Z 19017G22KT 15SM SCT002 OVC017 12/12 A2954 RMK SF4SC4 SLP005

CYYG;2008-12-01 20:00;CYYG 012000Z 20016G22KT 15SM FEW002 BKN017 BKN170 13/13 A2956 RMK SF1SC4AC2 SLP012

CYYG;2008-12-01 21:00;CYYG 012100Z 20014G20KT 15SM BKN026 BKN170 13/13 A2959 RMK SC5AC1 SLP021

CYYG;2008-12-01 22:00;CYYG 012200Z 19014KT 15SM FEW010 SCT030 12/12 A2962 RMK SC1SC2 SLP031

CYYG;2008-12-01 23:00;CYYG 012300Z 19017KT 15SM SCT027 11/11 A2961 RMK SC4 SLP028

CYYG;2008-12-02 00:00;CYYG 020000Z 19015G20KT 15SM SCT050 11/11 A2962 RMK SC3 SLP030

CYYG;2008-12-02 01:00;CYYG 020100Z 20017KT 15SM SCT012 BKN062 12/12 A2963 RMK SC3SC2 SLP034

CYYG;2008-12-02 02:00;CYYG 020200Z 20013G19KT 15SM SCT050 BKN130 11/11 A2963 RMK SC3AC3 SLP033

CYYG;2008-12-02 03:00;CYYG 020300Z 20014KT 15SM SCT110 10/10 A2963 RMK AC3 SLP035

CYYG;2008-12-02 04:00;CYYG 020400Z 21016KT 15SM FEW030 SCT090 10/10 A2963 RMK SC1AC2 SLP034

CYYG;2008-12-02 05:00;CYYG 020500Z 24013G19KT 15SM SCT095 10/08 A2964 RMK AC2 SLP038

CYYG;2008-12-02 06:00;CYYG 020600Z 24011G17KT 15SM FEW100 09/05 A2968 RMK AC2 SLP050

CYYG;2008-12-02 07:00;CYYG 020700Z 21007KT 15SM FEW100 07/05 A2969 RMK AC2 SLP056

CYYG;2008-12-02 08:00;CYYG 020800Z 21010KT 15SM FEW100 07/04 A2969 RMK AC2 SLP056

CYYG;2008-12-02 09:00;CYYG 020900Z 22008KT 15SM FEW029 FEW100 07/04 A2972 RMK SC1AC1 SLP066

CYYG;2008-12-02 10:00;CYYG 021000Z 20010KT 15SM BKN032 06/04 A2973 RMK SC5 SLP067

CYYG;2008-12-02 11:00;CYYG 021100Z 21012KT 15SM SCT036 BKN040 06/05 A2974 RMK SC3SC3 SLP072

CYYG;2008-12-02 12:00;CYYG 021200Z 22015G20KT 15SM FEW027 BKN240 07/05 A2976 RMK CU1CI5 SLP077

CYYG;2008-12-02 13:00;CYYG 021300Z 22013G18KT 15SM BKN028 BKN230 08/05 A2978 RMK SC5CI2 SLP085

CYYG;2008-12-02 14:00;CYYG 021400Z 22014G20KT 15SM FEW028 BKN230 08/06 A2980 RMK SC2CI2 SLP092

CYYG;2008-12-02 14:52;CYYG 021452Z 23013G18KT 15SM -SHRA BKN023 BKN040 BKN230 08/ RMK SC6SC1CI1

CYYG;2008-12-02 15:00;CYYG 021500Z 23013G18KT 15SM -SHRA BKN023 BKN040 BKN230 08/05 A2981 RMK SC6SC1CI1 SLP095

CYYG;2008-12-02 16:00;CYYG 021600Z 23019G26KT 15SM FEW023 BKN230 08/05 A2980 RMK SC2CI2 SLP094

CYYG;2008-12-02 17:00;CYYG 021700Z 24018G26KT 15SM FEW023 BKN230 08/03 A2982 RMK SC1CI2 SLP099

CYYG;2008-12-02 18:00;CYYG 021800Z 25019G29KT 15SM FEW026 FEW230 08/02 A2984 RMK CU1CI1 SLP105

CYYG;2008-12-02 19:00;CYYG 021900Z 25017G22KT 15SM FEW026 FEW230 08/02 A2985 RMK CU1CI1 SLP110

CYYG;2008-12-02 20:00;CYYG 022000Z 24011G18KT 15SM FEW030 FEW230 07/01 A2988 RMK SC1CI1 SLP120

CYYG;2008-12-02 21:00;CYYG 022100Z 23009KT 15SM FEW030 FEW230 06/01 A2990 RMK CU1CI2 SLP125

CYYG;2008-12-02 22:00;CYYG 022200Z 23010G16KT 15SM FEW230 06/01 A2992 RMK CI2 SLP133

CYYG;2008-12-02 23:00;CYYG 022300Z 24009KT 15SM FEW230 05/01 A2995 RMK CI2 SLP144

CYYG;2008-12-03 00:00;CYYG 030000Z 23008KT 15SM SKC 05/01 A2998 RMK SLP153

CYYG;2008-12-03 01:00;CYYG 030100Z 23007KT 15SM SCT050 05/02 A3001 RMK SC3 SLP163

CYYG;2008-12-03 02:00;CYYG 030200Z 21005KT 15SM BKN060 04/01 A3001 RMK SC6 SLP164

CYYG;2008-12-03 03:00;CYYG 030300Z 21005KT 15SM SCT044 BKN058 04/02 A3003 RMK SC3SC2 SLP171

CYYG;2008-12-03 04:00;CYYG 030400Z 23005KT 15SM SCT056 03/01 A3005 RMK SC4 SLP178

CYYG;2008-12-03 05:00;CYYG 030500Z 24004KT 15SM SCT230 03/01 A3004 RMK CI3 SLP174

CYYG;2008-12-03 06:00;CYYG 030600Z 26005KT 15SM FEW230 02/M01 A3005 RMK CI1 SLP179

CYYG;2008-12-03 07:00;CYYG 030700Z 27003KT 15SM FEW200 02/M01 A3007 RMK CI2 SLP184

CYYG;2008-12-03 08:00;CYYG 030800Z 21004KT 15SM SCT150 BKN230 01/M01 A3007 RMK AC2CI3 SLP185

CYYG;2008-12-03 09:00;CYYG 030900Z 24003KT 15SM BKN150 BKN220 01/M01 A3009 RMK AC5CI2 SLP193

CYYG;2008-12-03 10:00;CYYG 031000Z 27004KT 15SM BKN150 01/M01 A3008 RMK AC4 SLP189

CYYG;2008-12-03 11:00;CYYG 031100Z 24005KT 15SM BKN140 01/M01 A3010 RMK AC3 SLP195

CYYG;2008-12-03 12:00;CYYG 031200Z 00000KT 15SM BKN110 00/M01 A3008 RMK AC6 SLP189

CYYG;2008-12-03 13:00;CYYG 031300Z 00000KT 15SM BKN120 01/M01 A3009 RMK AC6 SLP193

CYYG;2008-12-03 14:00;CYYG 031400Z 00000KT 15SM FEW030 SCT150 01/00 A3009 RMK SC1AC3 SLP191

CYYG;2008-12-03 15:00;CYYG 031500Z 32005KT 15SM FEW030 SCT190 02/M01 A3007 RMK SC1AC2 SLP184

CYYG;2008-12-03 16:00;CYYG 031600Z 28005KT 15SM FEW030 SCT190 04/M01 A3005 RMK SC1AC2 SLP179

CYYG;2008-12-03 17:00;CYYG 031700Z 31007KT 15SM FEW030 SCT190 04/M02 A3006 RMK SC2AC1 SLP180

CYYG;2008-12-03 18:00;CYYG 031800Z 28007KT 15SM FEW030 FEW190 04/M02 A3004 RMK SC2AC1 SLP174

CYYG;2008-12-03 19:00;CYYG 031900Z 32007KT 15SM FEW040 FEW100 04/M03 A3004 RMK CU1AC1 SLP176

CYYG;2008-12-03 20:00;CYYG 032000Z 29008KT 15SM FEW033 03/M04 A3006 RMK SC1 SLP181

CYYG;2008-12-03 20:05;CYYG 032005Z 29006KT 15SM FEW033 02/ RMK SC1

CYYG;2008-12-03 21:00;CYYG 032100Z 29004KT 15SM FEW033 01/M04 A3008 RMK SC1 SLP188

CYYG;2008-12-03 22:00;CYYG 032200Z 27004KT 15SM FEW030 M00/M04 A3010 RMK SC1 SLP196

CYYG;2008-12-03 23:00;CYYG 032300Z 27004KT 15SM SCT038 M00/M04 A3012 RMK SC3 SLP202

CYYG;2008-12-04 00:00;CYYG 040000Z 25003KT 15SM BKN036 M00/M04 A3013 RMK SC6 SLP206

CYYG;2008-12-04 01:00;CYYG 040100Z 25003KT 15SM SCT033 00/M03 A3013 RMK SC4 SLP204

CYYG;2008-12-04 02:00;CYYG 040200Z 27003KT 15SM FEW033 M01/M03 A3013 RMK SC1 FROIN SLP204

CYYG;2008-12-04 03:00;CYYG 040300Z 23004KT 15SM SKC M01/M03 A3012 RMK FROIN SLP200

CYYG;2008-12-04 04:00;CYYG 040400Z 27004KT 15SM SKC M01/M04 A3013 RMK FROIN SLP205

CYYG;2008-12-04 05:00;CYYG 040500Z 26003KT 15SM SKC M01/M04 A3013 RMK FROIN SLP204

CYYG;2008-12-04 06:00;CYYG 040600Z 21003KT 15SM SKC M01/M04 A3012 RMK FROIN SLP202

CYYG;2008-12-04 07:00;CYYG 040700Z 19005KT 15SM SKC M02/M04 A3012 RMK FROIN SLP203

CYYG;2008-12-04 08:00;CYYG 040800Z 21008KT 15SM SKC M00/M03 A3011 RMK FROIN SLP197

CYYG;2008-12-04 09:00;CYYG 040900Z 19009KT 15SM FEW023 01/M02 A3008 RMK SC2 SLP189

CYYG;2008-12-04 10:00;CYYG 041000Z 20009KT 15SM BKN023 01/M01 A3007 RMK SC6 SLP186

CYYG;2008-12-04 11:00;CYYG 041100Z 19012G17KT 15SM BKN022 02/M00 A3006 RMK SC7 SLP182

CYYG;2008-12-04 12:00;CYYG 041200Z 20011KT 15SM SCT023 BKN280 02/M00 A3005 RMK SC3CI2 SLP178

CYYG;2008-12-04 13:00;CYYG 041300Z 20015KT 15SM FEW023 BKN280 03/00 A3002 RMK SC2CI4 SLP169

CYYG;2008-12-04 14:00;CYYG 041400Z 19019G25KT 15SM FEW025 BKN190 05/02 A3000 RMK SC1AC4 SLP161

CYYG;2008-12-04 15:00;CYYG 041500Z 20022KT 15SM SCT190 BKN280 06/02 A2997 RMK AC3CI2 SLP151

CYYG;2008-12-04 16:00;CYYG 041600Z 21014G20KT 15SM SCT180 BKN280 06/02 A2993 RMK AC3CI2 SLP138

CYYG;2008-12-04 17:00;CYYG 041700Z 20018G24KT 15SM FEW180 BKN280 07/03 A2989 RMK AC2CI3 SLP125

CYYG;2008-12-04 18:00;CYYG 041800Z 21020G26KT 15SM FEW130 BKN230 08/02 A2986 RMK AC2CI2 SLP114

CYYG;2008-12-04 19:00;CYYG 041900Z 20015G20KT 15SM FEW130 BKN230 07/02 A2986 RMK AC2CI2 SLP112

CYYG;2008-12-04 20:00;CYYG 042000Z 20013KT 15SM FEW090 BKN210 08/03 A2986 RMK AC2CI1 SLP112

CYYG;2008-12-04 21:00;CYYG 042100Z 23011G16KT 15SM BKN054 BKN062 08/03 A2986 RMK SC5SC2 SLP114

CYYG;2008-12-04 21:37;CYYG 042137Z 24016G22KT 15SM -SHRA BKN035 OVC054 08/ RMK SC6SC2

CYYG;2008-12-04 22:00;CYYG 042200Z 25013G22KT 15SM -SHRA OVC032 08/03 A2986 RMK SC8 SLP112

CYYG;2008-12-04 22:19;CYYG 042219Z 25012G20KT 15SM OVC025 08/ RMK SC8

CYYG;2008-12-04 22:51;CYYG 042251Z 24015G20KT 15SM BKN014 OVC022 07/ RMK SC6SC2

CYYG;2008-12-04 23:00;CYYG 042300Z 24011G20KT 15SM BKN014 OVC022 07/05 A2985 RMK SC6SC2 SLP109

CYYG;2008-12-04 23:13;CYYG 042313Z 23015KT 10SM -SHRA OVC014 07/ RMK SC8

CYYG;2008-12-04 23:27;CYYG 042327Z 23010G21KT 10SM -DZ OVC011 07/ RMK SC8

CYYG;2008-12-05 00:00;CYYG 050000Z 23010G16KT 10SM OVC010 07/06 A2985 RMK SC8 SLP110

CYYG;2008-12-05 00:37;CYYG 050037Z 23012KT 10SM -SHRA BKN012 OVC026 07/ RMK SC5SC3

CYYG;2008-12-05 01:00;CYYG 050100Z 24009KT 10SM -SHRA BKN012 OVC055 07/06 A2985 RMK SC5SC3 SLP109

CYYG;2008-12-05 02:00;CYYG 050200Z 25007KT 10SM -SHRA BKN012 OVC026 07/07 A2986 RMK SC6SC2 SLP112

CYYG;2008-12-05 03:00;CYYG 050300Z 26008KT 6SM -SHRA BR BKN010 OVC025 07/06 A2986 RMK SC5SC3 SLP114

CYYG;2008-12-05 03:29;CYYG 050329Z 25007KT 6SM -SHRA BR FEW009 BKN025 OVC045 07/ RMK SC1SC5SC3

CYYG;2008-12-05 04:00;CYYG 050400Z 26006KT 6SM -SHRA BR SCT009 OVC020 07/06 A2986 RMK SC3SC5 SLP114

CYYG;2008-12-05 04:34;CYYG 050434Z 29006KT 15SM FEW010 OVC028 06/ RMK SC1SC7

CYYG;2008-12-05 05:00;CYYG 050500Z 27006KT 15SM FEW028 OVC050 06/04 A2985 RMK SC2SC6 SLP110

CYYG;2008-12-05 06:00;CYYG 050600Z 27006KT 15SM BKN018 OVC045 06/04 A2987 RMK SC5SC3 SLP117

CYYG;2008-12-05 07:00;CYYG 050700Z 26007KT 15SM FEW018 OVC053 05/03 A2988 RMK SC2SC6 SLP119

CYYG;2008-12-05 08:00;CYYG 050800Z 27006KT 15SM OVC055 04/02 A2988 RMK SC8 SLP119

CYYG;2008-12-05 09:00;CYYG 050900Z 26008KT 15SM OVC068 04/M00 A2989 RMK AC8 SLP123

CYYG;2008-12-05 10:00;CYYG 051000Z 27006KT 15SM OVC070 03/M01 A2989 RMK AC8 SLP123

CYYG;2008-12-05 11:00;CYYG 051100Z 27005KT 15SM BKN072 OVC082 03/M01 A2990 RMK AC5AC3 SLP125

CYYG;2008-12-05 12:00;CYYG 051200Z 25006KT 15SM BKN072 OVC120 03/M02 A2989 RMK AC6AC2 SLP124

CYYG;2008-12-05 13:00;CYYG 051300Z 28006KT 15SM FEW030 BKN071 OVC120 03/M02 A2989 RMK SC1AC6AC2 SLP124

CYYG;2008-12-05 13:42;CYYG 051342Z 27007KT 15SM FEW028 BKN070 OVC120 02/ RMK SC2AC4AC2

CYYG;2008-12-05 14:00;CYYG 051400Z 28010G15KT 15SM SCT028 BKN068 OVC120 02/M02 A2991 RMK SC3AC2AC2 SLP129

CYYG;2008-12-05 15:00;CYYG 051500Z 28009G15KT 15SM SCT024 BKN068 02/M02 A2991 RMK SC3AC4 SLP131

CYYG;2008-12-05 16:00;CYYG 051600Z 30009KT 15SM SCT025 BKN070 01/M03 A2992 RMK SC4AC3 SLP132

CYYG;2008-12-05 16:17;CYYG 051617Z 30010KT 15SM -SHSN BKN028 BKN072 02/ RMK SC6AC2

CYYG;2008-12-05 17:00;CYYG 051700Z 31008KT 15SM SCT021 BKN078 01/M03 A2991 RMK SC4AC2 SLP131

CYYG;2008-12-05 18:00;CYYG 051800Z 29007KT 15SM FEW024 SCT070 BKN260 01/M05 A2990 RMK SC2AC2CI1 SLP129

CYYG;2008-12-05 19:00;CYYG 051900Z 30012KT 15SM FEW025 SCT070 BKN260 M01/M07 A2993 RMK SC2AC2CI1 SLP137

CYYG;2008-12-05 20:00;CYYG 052000Z 30010G15KT 15SM FEW030 SCT070 BKN260 M01/M08 A2996 RMK SC2AC2CI1 SLP146

CYYG;2008-12-05 21:00;CYYG 052100Z 31010KT 15SM FEW040 BKN260 M02/M08 A2999 RMK SC2CI1 SLP157

CYYG;2008-12-05 22:00;CYYG 052200Z 32006KT 15SM FEW040 FEW260 M03/M09 A3001 RMK SC1CI0 SLP164

CYYG;2008-12-05 23:00;CYYG 052300Z 31008KT 15SM FEW038 SCT210 M03/M09 A3003 RMK SC2CI0 SLP172

CYYG;2008-12-06 00:00;CYYG 060000Z CCA 30008KT 15SM SCT040 BKN170 M03/M09 A3006 RMK SC3CI0 SLP182

CYYG;2008-12-06 01:00;CYYG 060100Z 30009KT 15SM BKN040 BKN190 M04/M11 A3008 RMK SC5CI0 SLP189

CYYG;2008-12-06 02:00;CYYG 060200Z 31006KT 15SM SCT040 BKN190 M04/M11 A3010 RMK SC4CI1 SLP196

CYYG;2008-12-06 03:00;CYYG 060300Z 30007KT 15SM BKN040 BKN190 M04/M10 A3011 RMK SC5CI1 SLP197

CYYG;2008-12-06 04:00;CYYG 060400Z 32004KT 15SM SCT040 M05/M11 A3012 RMK SC4 SLP203

CYYG;2008-12-06 05:00;CYYG 060500Z 31006KT 15SM SCT040 BKN180 M05/M11 A3013 RMK SC3AC4 SLP206

CYYG;2008-12-06 06:00;CYYG 060600Z 31005KT 15SM BKN038 M06/M11 A3015 RMK SC7 SLP214

CYYG;2008-12-06 07:00;CYYG 060700Z 31005KT 15SM SCT040 M06/M11 A3017 RMK SC3 SLP221

CYYG;2008-12-06 08:00;CYYG 060800Z 28004KT 15SM BKN028 OVC150 M07/M11 A3018 RMK SC5AC3 SLP223

CYYG;2008-12-06 08:07;CYYG 060807Z 28004KT 15SM -SHSN BKN028 OVC150 M07/ RMK SC5AC3

CYYG;2008-12-06 08:43;CYYG 060843Z 27004KT 15SM BKN028 BKN150 M07/ RMK SC5AC1

CYYG;2008-12-06 09:00;CYYG 060900Z 29004KT 15SM SCT028 M07/M11 A3020 RMK SC4 SLP229

CYYG;2008-12-06 10:00;CYYG 061000Z 30004KT 15SM FEW028 M07/M10 A3020 RMK SC2 SLP231

CYYG;2008-12-06 11:00;CYYG 061100Z 27004KT 15SM FEW028 M08/M10 A3023 RMK SC2 SLP239

CYYG;2008-12-06 12:00;CYYG 061200Z 27003KT 15SM FEW030 M08/M10 A3025 RMK SC1 SLP247

CYYG;2008-12-06 13:00;CYYG 061300Z 30003KT 15SM FEW030 M06/M10 A3026 RMK SC1 SLP250

CYYG;2008-12-06 14:00;CYYG 061400Z 27004KT 15SM FEW030 M05/M10 A3027 RMK SC1 SLP253

CYYG;2008-12-06 15:00;CYYG 061500Z 25005KT 15SM FEW030 M04/M09 A3027 RMK SC1 SLP252

CYYG;2008-12-06 16:00;CYYG 061600Z 24002KT 15SM FEW030 FEW250 M03/M09 A3025 RMK SC1CI0 SLP245

CYYG;2008-12-06 17:00;CYYG 061700Z 18003KT 15SM BKN250 M03/M10 A3024 RMK CI2 SLP242

CYYG;2008-12-06 18:00;CYYG 061800Z 16006KT 15SM BKN230 M03/M10 A3022 RMK CI5 SLP235

CYYG;2008-12-06 19:00;CYYG 061900Z 18007KT 15SM BKN220 M02/M11 A3023 RMK CI5 SLP239

CYYG;2008-12-06 20:00;CYYG 062000Z 18005KT 15SM FEW270 M04/M09 A3024 RMK CI1 SLP242

CYYG;2008-12-06 21:00;CYYG 062100Z 15005KT 15SM SCT270 M04/M10 A3023 RMK CI2 SLP238

CYYG;2008-12-06 22:00;CYYG 062200Z 14005KT 15SM SCT240 M04/M09 A3023 RMK CI2 SLP240

CYYG;2008-12-06 23:00;CYYG 062300Z 13004KT 15SM BKN230 M04/M08 A3023 RMK CI2 SLP239

CYYG;2008-12-07 00:00;CYYG 070000Z 12006KT 15SM BKN150 M04/M07 A3019 RMK AC6 SLP225

CYYG;2008-12-07 01:00;CYYG 070100Z 14004KT 15SM BKN150 M04/M09 A3020 RMK AC6 SLP229

CYYG;2008-12-07 02:00;CYYG 070200Z 14005KT 15SM BKN150 M03/M08 A3018 RMK AC6 SLP222

CYYG;2008-12-07 03:00;CYYG 070300Z 14007KT 15SM BKN130 M03/M08 A3015 RMK AC7 SLP214

CYYG;2008-12-07 04:00;CYYG 070400Z 15007KT 15SM OVC150 M02/M07 A3013 RMK AC8 SLP206

CYYG;2008-12-07 05:00;CYYG 070500Z 13006KT 15SM OVC160 M03/M07 A3009 RMK AC8 SLP192

CYYG;2008-12-07 06:00;CYYG 070600Z 13005KT 15SM OVC160 M03/M06 A3007 RMK AC8 SLP185

CYYG;2008-12-07 07:00;CYYG 070700Z 12004KT 15SM OVC150 M03/M07 A3005 RMK AC8 SLP178

CYYG;2008-12-07 08:00;CYYG 070800Z 11005KT 15SM OVC150 M04/M07 A3001 RMK AC8 SLP164

CYYG;2008-12-07 09:00;CYYG 070900Z 13007KT 15SM BKN150 M02/M05 A2997 RMK AC6 SLP151

CYYG;2008-12-07 10:00;CYYG 071000Z 13006KT 15SM FEW020 OVC120 M02/M04 A2994 RMK SC2AC6 SLP141

CYYG;2008-12-07 10:24;CYYG 071024Z 12005KT 15SM -SHSN FEW013 SCT030 OVC120 M02/ RMK SF1SC3AC4

CYYG;2008-12-07 11:00;CYYG 071100Z 13007KT 15SM -SHSN BKN020 OVC030 M01/M02 A2993 RMK SC5SC3 SLP136

CYYG;2008-12-07 11:38;CYYG 071138Z 13007KT 15SM BKN022 BKN030 M00/ RMK SC5SC2

CYYG;2008-12-07 12:00;CYYG 071200Z 13008KT 15SM BKN014 OVC023 00/M01 A2990 RMK SC6SC2 SLP128

CYYG;2008-12-07 13:00;CYYG 071300Z 13008KT 15SM OVC012 01/M00 A2985 RMK SC8 SLP111

CYYG;2008-12-07 14:00;CYYG 071400Z 14008KT 15SM OVC010 02/01 A2984 RMK SC8 SLP107

CYYG;2008-12-07 14:42;CYYG 071442Z 13011KT 15SM OVC008 03/ RMK ST8

CYYG;2008-12-07 15:00;CYYG 071500Z 14010KT 15SM OVC008 03/01 A2979 RMK ST8 SLP091

CYYG;2008-12-07 16:00;CYYG 071600Z 12008KT 15SM OVC008 03/02 A2970 RMK SF8 PRESFR SLP059

CYYG;2008-12-07 16:31;CYYG 071631Z 11008KT 15SM OVC006 03/ RMK ST8

CYYG;2008-12-07 16:52;CYYG 071652Z 11011KT 8SM -SHRA OVC005 03/ RMK ST8

CYYG;2008-12-07 17:00;CYYG 071700Z 11010G15KT 8SM -SHRA OVC005 03/02 A2962 RMK ST8 PRESFR SLP032

CYYG;2008-12-07 17:49;CYYG 071749Z 09009KT 4SM -SHRA BR OVC003 02/ RMK SF8

CYYG;2008-12-07 18:00;CYYG 071800Z 09010KT 8SM -RA OVC003 02/02 A2953 RMK SF8 PRESFR SLP001

CYYG;2008-12-07 19:00;CYYG 071900Z 08010KT 5SM -RA BR OVC003 03/03 A2946 RMK SF8 PRESFR SLP979

CYYG;2008-12-07 20:00;CYYG 072000Z 05010KT 5SM -RA BR BKN004 OVC007 02/02 A2938 RMK SF6SF2 PRESFR SLP952

CYYG;2008-12-07 21:00;CYYG 072100Z 04013KT 10SM RA BKN004 OVC008 02/02 A2930 RMK SF6SF2 PRESFR SLP925

CYYG;2008-12-07 21:44;CYYG 072144Z 04013G19KT 5SM -RASN OVC005 02/ RERA RMK SF8

CYYG;2008-12-07 21:54;CYYG 072154Z 04014KT 3SM -SN OVC005 02/ RERA RMK SF8

CYYG;2008-12-07 22:00;CYYG 072200Z 04016KT 3SM -SN OVC005 01/01 A2923 RERA RMK SF8 PRESFR SLP899

CYYG;2008-12-07 23:00;CYYG 072300Z 02012KT 2SM -SN OVC003 00/00 A2913 RMK SF8 PRESFR SLP866

CYYG;2008-12-08 00:00;CYYG 080000Z 36012G17KT 2SM -SN BKN003 OVC017 00/00 A2904 RMK SF5SC3 /S04/ SLP837

CYYG;2008-12-08 01:00;CYYG 080100Z 36014G25KT 1 1/2SM -SN BKN003 OVC014 00/00 A2900 RMK SF7SC1 SLP821

CYYG;2008-12-08 01:31;CYYG 080131Z 36014G20KT 3/4SM -SN OVC003 00/ RMK SF8

CYYG;2008-12-08 02:00;CYYG 080200Z 35014G20KT 3/4SM R03/3000FT/N -SN OVC003 00/00 A2899 RMK SF8 /S09/ SLP820

CYYG;2008-12-08 03:00;CYYG 080300Z 35010KT 3/4SM -SN OVC004 00/00 A2903 RMK SF8 R03/5000FT/U SLP831

CYYG;2008-12-08 03:10;CYYG 080310Z 34012G18KT 3SM -SN OVC005 00/ RMK SF8

CYYG;2008-12-08 04:00;CYYG 080400Z 32009KT 3SM -SN OVC004 00/00 A2907 RMK SF8 SLP847

CYYG;2008-12-08 05:00;CYYG 080500Z 31006KT 5SM -SN OVC006 00/00 A2911 RMK SF8 SLP858

CYYG;2008-12-08 06:00;CYYG 080600Z 31005KT 5SM -SN OVC006 00/00 A2914 RMK SF8 SLP869

CYYG;2008-12-08 07:00;CYYG 080700Z 32007KT 5SM -SN OVC006 00/00 A2916 RMK SF8 SLP876

CYYG;2008-12-08 08:00;CYYG 080800Z 32012KT 5SM -SN BKN007 OVC016 00/00 A2917 RMK SF7SC1 SLP879

CYYG;2008-12-08 09:00;CYYG 080900Z 31011G16KT 8SM -SN BKN009 OVC015 00/00 A2919 RMK SF6SC2 SLP885

CYYG;2008-12-08 10:00;CYYG 081000Z 30015G21KT 6SM -SN OVC010 M01/M01 A2923 RMK SF8 SLP901

CYYG;2008-12-08 11:00;CYYG 081100Z 30013G19KT 6SM -SN OVC011 M01/M02 A2928 RMK SC8 SLP918

CYYG;2008-12-08 12:00;CYYG 081200Z CCA 30013G22KT 2 1/2SM -SN OVC014 M03/M03 A2935 RMK SC8 PRESRR SLP940

CYYG;2008-12-08 13:00;CYYG 081300Z 29019G28KT 1 1/2SM R03/3500VP6000FT/U -SN BLSN OVC014 M05/M06 A2940 RMK SC8 SLP958

CYYG;2008-12-08 13:34;CYYG 081334Z 29018KT 2 1/2SM -SN BLSN OVC018 M06/ RMK SC8

CYYG;2008-12-08 14:00;CYYG 081400Z 29018G25KT 2SM -SN BLSN BKN013 OVC028 M07/M08 A2946 RMK SC6SC2 SLP977

CYYG;2008-12-08 15:00;CYYG 081500Z 29017G22KT 2SM -SN BLSN BKN017 OVC024 M07/M09 A2950 RMK SC6SC2 SLP992

CYYG;2008-12-08 16:00;CYYG 081600Z 29017KT 2SM -SN BLSN DS OVC018 M08/M10 A2953 RMK SC8 SLP002

CYYG;2008-12-08 17:00;CYYG 081700Z 29015G26KT 2SM -SN BLSN DS BKN012 OVC025 M09/M11 A2957 RMK SC5SC3 SLP015

CYYG;2008-12-08 17:33;CYYG 081733Z 29016G24KT 4SM -SHSN DS OVC024 M09/ RMK SC8

CYYG;2008-12-08 18:00;CYYG 081800Z 29017G24KT 3SM -SHSN BLSN DS SCT020 OVC029 M09/M11 A2961 RMK SC4SC4 SLP029

CYYG;2008-12-08 19:00;CYYG 081900Z CCA 28014G21KT 3SM -SHSN BLSN OVC032 M09/M11 A2966 RMK SC8 SLP046

CYYG;2008-12-08 20:00;CYYG 082000Z 28012G22KT 2 1/2SM -SHSN BLSN OVC033 M09/M10 A2972 RMK SC8 PRESRR SLP068

CYYG;2008-12-08 21:00;CYYG 082100Z 29012G18KT 2 1/2SM -SHSN BLSN BKN018 OVC027 M09/M11 A2978 RMK SC6SC2 PRESRR SLP088

CYYG;2008-12-08 22:00;CYYG 082200Z 29015G20KT 4SM -SHSN SCT014 OVC032 M09/M11 A2983 RMK SC4SC4 SLP105

CYYG;2008-12-08 23:00;CYYG 082300Z 29018G25KT 4SM -SHSN SCT019 OVC038 M09/M12 A2989 RMK SC3SC5 PRESRR SLP125

CYYG;2008-12-09 00:00;CYYG 090000Z 29015G22KT 5SM -SHSN FEW019 OVC039 M09/M12 A2995 RMK SC2SC6 SLP144

CYYG;2008-12-09 01:00;CYYG 090100Z 30016G22KT 6SM -SHSN OVC037 M09/M12 A3000 RMK SC8 SLP163

CYYG;2008-12-09 02:00;CYYG 090200Z 29016G21KT 4SM -SHSN SCT018 OVC038 M09/M12 A3006 RMK SC3SC5 SLP181

CYYG;2008-12-09 03:00;CYYG 090300Z 30010G18KT 8SM -SHSN SCT015 OVC038 M08/M11 A3011 RMK SC3SC5 SLP199

CYYG;2008-12-09 04:00;CYYG 090400Z 27011KT 12SM -SHSN OVC038 M09/M11 A3017 RMK SC8 PRESRR SLP221

CYYG;2008-12-09 05:00;CYYG 090500Z 28011KT 12SM -SHSN OVC034 M09/M11 A3023 RMK SC8 PRESRR SLP241

CYYG;2008-12-09 06:00;CYYG 090600Z 28011G16KT 12SM -SHSN OVC038 M09/M12 A3028 RMK SC8 SLP258

CYYG;2008-12-09 07:00;CYYG 090700Z 27011KT 12SM -SHSN OVC037 M09/M26 A3034 RMK SC8 PRESRR SLP278

CYYG;2008-12-09 08:00;CYYG 090800Z 28012KT 15SM -SHSN OVC036 M10/M13 A3039 RMK SC8 SLP293

CYYG;2008-12-09 09:00;CYYG 090900Z 29009KT 15SM -SHSN SCT036 M11/M13 A3041 RMK SC4 SLP300

CYYG;2008-12-09 09:25;CYYG 090925Z 28009KT 15SM FEW036 M11/ RMK SC2

CYYG;2008-12-09 10:00;CYYG 091000Z 29006KT 15SM FEW036 M11/M13 A3043 RMK SC2 SLP307

CYYG;2008-12-09 11:00;CYYG 091100Z 29010KT 15SM FEW030 M11/M13 A3045 RMK SC2 SLP316

CYYG;2008-12-09 12:00;CYYG 091200Z 26002KT 15SM FEW015 SCT220 M11/M12 A3050 RMK SC1CI0 SLP331

CYYG;2008-12-09 12:42;CYYG 091242Z 24004KT 15SM BKN012 BKN220 M11/ RMK SC6CI0

CYYG;2008-12-09 12:49;CYYG 091249Z 25004KT 15SM -SHSN BKN011 BKN220 M11/ RMK SC6CI0

CYYG;2008-12-09 13:00;CYYG 091300Z 25005KT 15SM -SHSN BKN009 BKN220 M11/M12 A3052 RMK SC6CI0 SLP339

CYYG;2008-12-09 13:37;CYYG 091337Z 26007KT 15SM SCT008 BKN220 M10/ RMK SF3CI1

CYYG;2008-12-09 14:00;CYYG 091400Z 25008KT 15SM FEW008 SCT220 M10/M12 A3054 RMK SF1CI1 SLP347

CYYG;2008-12-09 15:00;CYYG 091500Z 25005KT 15SM FEW010 BKN270 M09/M12 A3053 RMK SC1CS2 SLP341

CYYG;2008-12-09 16:00;CYYG 091600Z 23007KT 15SM FEW010 BKN270 M08/M12 A3051 RMK SC1CS2 SLP336

CYYG;2008-12-09 17:00;CYYG 091700Z 22007KT 15SM FEW010 BKN270 M06/M12 A3049 RMK SC1CS2 SLP328

CYYG;2008-12-09 18:00;CYYG 091800Z 23011KT 15SM FEW010 BKN270 M05/M11 A3048 RMK SC1CS2 SLP325

CYYG;2008-12-09 19:00;CYYG 091900Z 22010KT 15SM FEW016 SCT064 BKN096 BKN270 M04/M08 A3045 RMK SC1SC2AC2CI1 SLP316

CYYG;2008-12-09 20:00;CYYG 092000Z 20010KT 15SM FEW016 BKN070 M04/M09 A3044 RMK SC1AC6 SLP313

CYYG;2008-12-09 20:31;CYYG 092031Z 20010G17KT 3SM -SHSN OVC070 M04/ RMK SN3AC5

CYYG;2008-12-09 20:46;CYYG 092046Z 19013KT 1SM R03/P6000FT/D -SHSN VV010 M04/ RMK SN8

CYYG;2008-12-09 21:00;CYYG 092100Z 20012G17KT 3SM -SHSN OVC020 M04/M06 A3043 RMK SN5SC3 SLP308

CYYG;2008-12-09 21:17;CYYG 092117Z 19010G16KT 2SM -SHSN OVC012 M04/ RMK SN6SC2

CYYG;2008-12-09 21:45;CYYG 092145Z 18012G18KT 3SM -SHSN SCT010 OVC020 M04/ RMK SN2SC2SC4

CYYG;2008-12-09 22:00;CYYG 092200Z 18014G19KT 4SM -SHSN FEW010 BKN020 OVC041 M03/M04 A3041 RMK SC2SC3SC3 SLP301

CYYG;2008-12-09 23:00;CYYG 092300Z 19014KT 10SM -SN DRSN SCT010 BKN017 OVC035 M02/M04 A3038 RMK SC3SC4SC1 SLP292

CYYG;2008-12-10 00:00;CYYG 100000Z 18016KT 8SM -SN DRSN SCT010 OVC035 M01/M03 A3033 RMK SC3SC5 SLP273

CYYG;2008-12-10 00:44;CYYG 100044Z 18014G19KT 6SM -SN DRSN OVC009 M01/ RMK SF8

CYYG;2008-12-10 01:00;CYYG 100100Z 18019G26KT 5SM -SN DRSN BKN009 OVC025 00/M01 A3029 RMK SF7SC1 SLP261

CYYG;2008-12-10 02:00;CYYG 100200Z 19021G28KT 10SM -RA OVC012 01/01 A3024 RMK SC8 SLP245

CYYG;2008-12-10 03:00;CYYG 100300Z 19021G28KT 10SM -SHRA OVC010 02/01 A3020 RMK SC8 SLP229

CYYG;2008-12-10 04:00;CYYG 100400Z 19021G27KT 10SM -SHRA OVC010 03/02 A3015 RMK SC8 SLP212

CYYG;2008-12-10 05:00;CYYG 100500Z 19020G26KT 10SM BKN010 OVC027 03/03 A3010 RMK SC6SC2 OCNL -SHRA SLP197

CYYG;2008-12-10 05:24;CYYG 100524Z 19019G28KT 10SM SCT010 BKN014 OVC025 03/ RMK SC3SC2SC2

CYYG;2008-12-10 05:29;CYYG 100529Z 19021G26KT 10SM -SHRA SCT010 BKN015 OVC022 04/ RMK SC3SC2SC2

CYYG;2008-12-10 06:00;CYYG 100600Z 20015G21KT 8SM -RA FEW008 OVC013 04/04 A3008 RMK SF2SC6 SLP189

CYYG;2008-12-10 07:00;CYYG 100700Z 20017G22KT 10SM -RA OVC015 04/04 A3005 RMK SC8 SLP178

CYYG;2008-12-10 08:00;CYYG 100800Z 21014KT 8SM -RA FEW007 OVC011 05/05 A3001 RMK SF2SC6 SLP163

CYYG;2008-12-10 09:00;CYYG 100900Z 21018G24KT 8SM RA FEW008 OVC015 06/06 A2997 RMK SF2SC6 SLP151

CYYG;2008-12-10 10:00;CYYG 101000Z 21020G28KT 10SM -RA BKN017 OVC024 07/07 A2994 RERA RMK SC6SC2 SLP140

CYYG;2008-12-10 11:00;CYYG 101100Z 21017G24KT 8SM -RA OVC016 08/07 A2992 RMK SC8 SLP135

CYYG;2008-12-10 12:00;CYYG 101200Z 22023G31KT 8SM -RA OVC018 09/08 A2990 RMK SC8 SLP128

CYYG;2008-12-10 13:00;CYYG 101300Z 21020G32KT 12SM -RA FEW013 OVC018 09/08 A2988 RMK SF2SC6 SLP121

CYYG;2008-12-10 14:00;CYYG 101400Z 21023G30KT 12SM -RA FEW013 OVC030 10/08 A2986 RMK SF1SC7 SLP114

CYYG;2008-12-10 15:00;CYYG 101500Z 21026G34KT 12SM -SHRA BKN030 OVC050 11/09 A2981 RMK SC5SC3 SLP096

CYYG;2008-12-10 16:00;CYYG 101600Z 21031G39KT 15SM -SHRA SCT030 OVC060 11/10 A2975 RMK SC3SC5 PRESFR SLP075

CYYG;2008-12-10 17:00;CYYG 101700Z 21026G35KT 15SM -SHRA FEW030 OVC045 12/10 A2971 RMK SC2SC6 SLP064

CYYG;2008-12-10 18:00;CYYG 101800Z 22021G31KT 15SM -SHRA OVC028 12/10 A2970 RMK SC8 SLP060

CYYG;2008-12-10 18:21;CYYG 101821Z 22018G24KT 2 1/2SM -SHRA BR OVC025 12/ RMK SC8

CYYG;2008-12-10 19:00;CYYG 101900Z 22020G29KT 2 1/2SM -SHRA BR OVC019 11/11 A2970 RMK SC8 SLP059

CYYG;2008-12-10 19:53;CYYG 101953Z 22017G28KT 2SM -SHRA BR SCT006 OVC015 12/ RMK SF3SC5

CYYG;2008-12-10 20:00;CYYG 102000Z 22019G28KT 2SM -SHRA BR BKN006 OVC015 12/12 A2970 RMK SF5SC3 SLP059

CYYG;2008-12-10 21:00;CYYG 102100Z 32013G24KT 3SM SHRA BR BKN006 OVC020 09/09 A2977 RMK SF6SC2 PRESRR SLP083

CYYG;2008-12-10 21:40;CYYG 102140Z 30013G18KT 12SM -SHRA FEW005 OVC026 08/ RMK SF2SC6 RERA

CYYG;2008-12-10 22:00;CYYG 102200Z 30012G17KT 12SM -SHRA FEW005 OVC030 07/07 A2981 RMK SC1SC7 SLP096

CYYG;2008-12-10 23:00;CYYG 102300Z 31011KT 12SM -SHRA FEW010 OVC040 06/05 A2984 RMK SF2SC6 SLP107

CYYG;2008-12-11 00:00;CYYG 110000Z CCA 33009KT 12SM -RA SCT013 OVC047 03/03 A2990 RMK SC3SC5 PRESRR /R24/ SLP127

CYYG;2008-12-11 01:00;CYYG 110100Z 34009KT 10SM -RA BKN008 OVC013 01/01 A2995 RMK SF6SC2 SLP142

CYYG;2008-12-11 01:42;CYYG 110142Z 34007KT 12SM OVC009 01/ RMK SF8

CYYG;2008-12-11 02:00;CYYG 110200Z 35008KT 12SM OVC009 01/00 A2997 RMK SF8 SLP151

CYYG;2008-12-11 02:30;CYYG 110230Z 35007KT 12SM -SHRA FEW008 OVC014 00/ RMK SF2SC6 PCPN VRY LGT

CYYG;2008-12-11 03:00;CYYG 110300Z 36009KT 12SM FEW008 BKN017 OVC050 00/00 A2998 RMK SF2SC5SC2 OCNL -SHRA SLP155

CYYG;2008-12-11 03:28;CYYG 110328Z 36007KT 12SM -FZRA FEW007 BKN017 OVC057 00/ RMK SF2SC3SC3

CYYG;2008-12-11 03:42;CYYG 110342Z 35007KT 12SM -PLSN BKN017 OVC057 00/ RMK SC5SC3

CYYG;2008-12-11 04:00;CYYG 110400Z 35008KT 5SM -SN OVC017 00/M00 A3000 REFZRA RMK SC8 SLP160

CYYG;2008-12-11 04:38;CYYG 110438Z 36005KT 8SM -PLSN FEW012 OVC017 M00/ RMK SC2SC6

CYYG;2008-12-11 05:00;CYYG 110500Z 34006KT 8SM -SN OVC017 M00/M01 A3002 RMK SC8 SLP168

CYYG;2008-12-11 06:00;CYYG 110600Z 36004KT 12SM -SHSN BKN017 OVC065 M00/M01 A3004 RMK SC6SC2 SLP174

CYYG;2008-12-11 06:40;CYYG 110640Z 35004KT 15SM FEW020 BKN065 OVC130 M00/ RMK SC2SC4AC2

CYYG;2008-12-11 07:00;CYYG 110700Z 35005KT 15SM FEW020 BKN065 OVC120 M00/M01 A3005 RMK SC2SC6AC1 SLP176

CYYG;2008-12-11 07:43;CYYG 110743Z 35006KT 8SM -SN FEW008 OVC020 M00/ RMK SF2SC6

CYYG;2008-12-11 08:00;CYYG 110800Z 34007KT 3SM -SN BKN008 OVC013 M00/M01 A3007 RMK SF6SC2 SLP185

CYYG;2008-12-11 09:00;CYYG 110900Z 02007KT 6SM -SN BKN008 OVC014 M00/M01 A3011 RMK SC5SC3 SLP197

CYYG;2008-12-11 10:00;CYYG 111000Z 05009KT 12SM FEW010 OVC016 M01/M02 A3010 RMK SC2SC6 INTMT -SN SLP195

CYYG;2008-12-11 11:00;CYYG 111100Z 06008KT 12SM -SN OVC018 M01/M03 A3015 RMK SC8 SLP212

CYYG;2008-12-11 12:00;CYYG 111200Z 06007KT 15SM -SN OVC020 M01/M03 A3018 RMK SC8 SLP221

CYYG;2008-12-11 13:00;CYYG 111300Z 07005KT 15SM -SHSN OVC021 M01/M03 A3018 RMK SC8 SLP221

CYYG;2008-12-11 13:16;CYYG 111316Z 08004KT 15SM OVC022 M01/ RMK SC8

CYYG;2008-12-11 14:00;CYYG 111400Z 09004KT 15SM OVC020 M01/M03 A3020 RMK SC8 SLP229

CYYG;2008-12-11 15:00;CYYG 111500Z 08006KT 15SM OVC021 M01/M04 A3020 RMK SC8 SLP228

CYYG;2008-12-11 16:00;CYYG 111600Z 08008KT 15SM OVC023 M01/M04 A3020 RMK SC8 SLP229

CYYG;2008-12-11 16:16;CYYG 111616Z 08009KT 15SM -SHSN OVC025 M01/ RMK SC8

CYYG;2008-12-11 17:00;CYYG 111700Z 09010KT 15SM -SHSN OVC018 M01/M04 A3019 RMK SC8 SLP226

CYYG;2008-12-11 18:00;CYYG 111800Z 09007KT 15SM -SHSN BKN015 OVC032 M01/M03 A3019 RMK SC6SC2 SLP226

CYYG;2008-12-11 19:00;CYYG 111900Z 09007KT 15SM SCT017 BKN035 OVC075 M01/M04 A3020 RMK SC3SC2AC2 SLP230

CYYG;2008-12-11 20:00;CYYG 112000Z 09008KT 15SM SCT018 BKN060 OVC097 M01/M05 A3020 RMK SC3SC2AC3 SLP229

CYYG;2008-12-11 21:00;CYYG 112100Z 09009KT 15SM SCT017 BKN035 OVC059 M01/M05 A3023 RMK SC3SC2SC3 SLP239

CYYG;2008-12-11 21:12;CYYG 112112Z 09011KT 15SM -SHSN SCT035 OVC049 M01/ RMK SC3SC5

CYYG;2008-12-11 22:00;CYYG 112200Z 09010KT 15SM SCT028 BKN051 OVC071 M02/M04 A3022 RMK SC3SC2AC2 PCPN VRY LGT SLP235

CYYG;2008-12-11 23:00;CYYG 112300Z 08009KT 15SM OVC093 M02/M05 A3021 RMK AC8 SLP233

CYYG;2008-12-12 00:00;CYYG 120000Z 09009KT 15SM OVC130 M01/M05 A3019 RMK AC8 SLP227

CYYG;2008-12-12 01:00;CYYG 120100Z 09010KT 12SM -FZRA BKN048 OVC080 M01/M04 A3017 RMK SC5AC3 SLP221

CYYG;2008-12-12 02:00;CYYG 120200Z 08010KT 10SM -FZRA OVC043 M01/M03 A3016 RMK SC8 SLP217

CYYG;2008-12-12 02:53;CYYG 120253Z 06009KT 8SM -PL -FZRA SCT012 BKN018 OVC045 M01/ RMK SC3SC3SC2

CYYG;2008-12-12 03:00;CYYG 120300Z 07009KT 8SM -PL -FZRA BKN012 OVC040 M01/M02 A3016 RMK SC5SC3 SLP215

CYYG;2008-12-12 04:00;CYYG 120400Z 07013KT 8SM -PL -FZRA SCT012 OVC038 M01/M02 A3014 RMK SC3SC5 SLP210

CYYG;2008-12-12 05:00;CYYG 120500Z 08010G15KT 8SM -PL -FZRA SCT008 OVC040 M01/M01 A3010 RMK SF4SC4 SLP195

CYYG;2008-12-12 06:00;CYYG 120600Z 08011KT 8SM -FZRA BKN007 OVC027 M01/M01 A3006 RMK SF5SC3 SLP181

CYYG;2008-12-12 07:00;CYYG 120700Z 07010KT 8SM -FZRA BKN006 OVC030 M00/M01 A3004 RMK SF5SC3 SLP173

CYYG;2008-12-12 08:00;CYYG 120800Z 07010KT 8SM -FZRA BKN006 OVC027 M00/M01 A3000 RMK SF5SC3 SLP160

CYYG;2008-12-12 09:00;CYYG 120900Z 08010KT 8SM -FZRA BKN006 OVC027 M00/M00 A2993 RMK SF6SC2 SLP137

CYYG;2008-12-12 09:33;CYYG 120933Z 08009KT 6SM -FZRA BR OVC005 00/ RMK SF8

CYYG;2008-12-12 10:00;CYYG 121000Z 09010KT 5SM -FZRA BR OVC004 00/00 A2989 RMK SF8 SLP125

CYYG;2008-12-12 11:00;CYYG 121100Z 09008KT 5SM -FZRA BR OVC003 00/00 A2984 RMK SF8 SLP108

CYYG;2008-12-12 11:09;CYYG 121109Z 10005KT 5SM -FZDZ BR OVC003 00/ REFZRA RMK SF8

CYYG;2008-12-12 11:21;CYYG 121121Z 10008KT 2 1/2SM -FZDZ BR OVC002 00/ REFZRA RMK SF8

CYYG;2008-12-12 11:45;CYYG 121145Z 11007KT 3/4SM R03/P6000FT/D -FZDZ BR OVC002 00/ RMK SF8

CYYG;2008-12-12 12:00;CYYG 121200Z 11006KT 3/4SM R03/P6000FT/D -DZ BR OVC002 00/00 A2980 RMK SF8 SLP093

CYYG;2008-12-12 12:32;CYYG 121232Z 12005KT 1/4SM R03/2600V5500FT/D -DZ FG VV001 01/ RMK FG8

CYYG;2008-12-12 13:00;CYYG 121300Z 14006KT 1/4SM R03/1400V2200FT/N -DZ FG VV001 01/01 A2974 RMK FG8 SLP074

CYYG;2008-12-12 13:46;CYYG 121346Z 16012KT 0SM R03/1100FT/N -RA FG VV000 03/ RMK FG8

CYYG;2008-12-12 14:00;CYYG 121400Z 16014KT 0SM R03/1000FT/N -RA FG VV000 04/04 A2969 RMK FG8 SLP055

CYYG;2008-12-12 15:00;CYYG 121500Z 17013KT 0SM R03/1100FT/N -DZ FG VV000 07/07 A2966 RMK FG8 SLP044

CYYG;2008-12-12 15:13;CYYG 121513Z 18014KT 1/8SM R03/1000V1400FT/N -DZ FG OVC001 09/ RMK SF8

CYYG;2008-12-12 15:36;CYYG 121536Z 18014KT 2SM R03/3500VP6000FT/U -DZ BR BKN002 OVC012 10/ RMK SF6SC2

CYYG;2008-12-12 15:47;CYYG 121547Z 18017G25KT 5SM -SHRA BR BKN003 OVC014 12/ RMK SF6SC2

CYYG;2008-12-12 16:00;CYYG 121600Z 19019G24KT 5SM -SHRA BR BKN003 OVC015 12/12 A2961 RMK SF6SC2 SLP029

CYYG;2008-12-12 16:10;CYYG 121610Z 19018G24KT 10SM SCT004 OVC016 12/ RMK SF4SC4

CYYG;2008-12-12 17:00;CYYG 121700Z 19020G28KT 15SM SCT020 OVC220 14/13 A2957 RMK SC4CI4 SLP015

CYYG;2008-12-12 18:00;CYYG 121800Z 20024G32KT 15SM FEW020 OVC230 14/14 A2951 RMK SC2CI6 SLP995

CYYG;2008-12-12 19:00;CYYG 121900Z 19022G41KT 15SM OVC022 16/15 A2948 RMK SC8 SLP984

CYYG;2008-12-12 19:44;CYYG 121944Z 19018KT 5SM -SHRA BR OVC025 14/ RMK SC8

CYYG;2008-12-12 20:00;CYYG 122000Z 19024G32KT 1SM R03/3500VP6000FT/D SHRA BR BKN013 OVC025 15/15 A2947 RMK SC5SC3 SLP981

CYYG;2008-12-12 20:24;CYYG 122024Z 19021G27KT 4SM -SHRA BR OVC020 15/ RMK SC8

CYYG;2008-12-12 21:00;CYYG 122100Z 18020G28KT 3SM -SHRA BR BKN018 OVC025 14/14 A2945 RMK SC5SC3 SLP975

CYYG;2008-12-12 22:00;CYYG 122200Z 20026G35KT 10SM -SHRA SCT030 OVC100 15/14 A2943 RMK SC3AC5 SLP968

CYYG;2008-12-12 23:00;CYYG 122300Z 19026G34KT 15SM -SHRA SCT030 BKN070 OVC100 15/14 A2943 RMK SC3AC2AC2 SLP967

CYYG;2008-12-13 00:00;CYYG 130000Z 20021G26KT 15SM -SHRA BKN035 OVC100 14/14 A2942 RMK SC5AC3 SLP963

CYYG;2008-12-13 01:00;CYYG 130100Z 19022G27KT 12SM -SHRA SCT015 BKN028 OVC047 14/14 A2942 RMK SC3SC3SC2 SLP965

CYYG;2008-12-13 02:00;CYYG 130200Z 19017G24KT 10SM -SHRA SCT005 BKN015 OVC045 13/13 A2942 RMK SF3SC2SC2 SLP964

CYYG;2008-12-13 03:00;CYYG 130300Z 19017G24KT 15SM FEW003 SCT020 BKN090 12/12 A2942 RMK SF2SC1AC4 SLP962

CYYG;2008-12-13 04:00;CYYG 130400Z 26010G18KT 12SM -SHRA SCT005 BKN025 OVC090 12/12 A2945 RMK SF4SC2AC2 SLP975

CYYG;2008-12-13 04:12;CYYG 130412Z 25016G24KT 4SM -SHRA BKN008 OVC020 11/ RMK SF6SC2

CYYG;2008-12-13 05:00;CYYG 130500Z 31015KT 4SM -SHRA BR BKN007 OVC022 08/08 A2948 RMK SF6SC2 SLP985

CYYG;2008-12-13 06:00;CYYG 130600Z 30012KT 10SM -SHRA BKN007 OVC016 05/04 A2953 RMK SF5SC3 SLP000

CYYG;2008-12-13 07:00;CYYG 130700Z 29012KT 12SM -SHRA BKN007 OVC020 03/03 A2959 RMK SF6SC2 SLP020

CYYG;2008-12-13 08:00;CYYG 130800Z 31008G17KT 15SM -SHRA OVC007 02/02 A2963 RMK SF8 SLP033

CYYG;2008-12-13 09:00;CYYG 130900Z 34013KT 15SM -SHRA BKN007 OVC015 01/M00 A2968 RMK SF6SC2 SLP052

CYYG;2008-12-13 09:18;CYYG 130918Z 34012KT 15SM SCT007 OVC015 00/ RMK SF4SC4

CYYG;2008-12-13 10:00;CYYG 131000Z 31012G18KT 15SM SCT007 OVC018 M00/M02 A2972 RMK SF3SC5 SLP067

CYYG;2008-12-13 11:00;CYYG 131100Z 30010G20KT 15SM FEW007 OVC019 M01/M03 A2975 RMK SF2SC6 SLP076

CYYG;2008-12-13 12:00;CYYG 131200Z 31008KT 15SM FEW007 OVC020 M01/M03 A2979 RMK SF1SC7 SLP088

CYYG;2008-12-13 13:00;CYYG 131300Z 31010KT 15SM FEW007 OVC020 M01/M04 A2982 RMK SF1SC7 SLP099

CYYG;2008-12-13 14:00;CYYG 131400Z 30008KT 15SM OVC020 M01/M03 A2986 RMK SC8 SLP112

CYYG;2008-12-13 14:09;CYYG 131409Z 31009KT 15SM -SHSN OVC020 M01/ RMK SC8

CYYG;2008-12-13 14:53;CYYG 131453Z 31009KT 15SM -SG OVC020 M01/ RMK SC8

CYYG;2008-12-13 15:00;CYYG 131500Z 32011KT 12SM -SG OVC020 M01/M04 A2988 RMK SC8 SLP119

CYYG;2008-12-13 16:00;CYYG 131600Z 30010KT 12SM -SG OVC021 M02/M04 A2989 RMK SC8 SLP123

CYYG;2008-12-13 17:00;CYYG 131700Z 32009G15KT 12SM -SG OVC018 M02/M04 A2991 RMK SC8 SLP130

CYYG;2008-12-13 18:00;CYYG 131800Z 31011G16KT 12SM -SG OVC018 M04/M06 A2994 RMK SC8 SLP142

CYYG;2008-12-13 19:00;CYYG 131900Z 33009G17KT 15SM VCSH BKN020 M04/M07 A2997 RMK SC7 SLP150

CYYG;2008-12-13 19:33;CYYG 131933Z 33011G17KT 15SM -SHSN BKN020 M04/ RMK SC7

CYYG;2008-12-13 20:00;CYYG 132000Z 31011G16KT 15SM -SHSN BKN022 M05/M08 A2999 RMK SC7 SLP157

CYYG;2008-12-13 21:00;CYYG 132100Z 30011G16KT 15SM -SHSN BKN026 M05/M08 A3001 RMK SC6 SLP166

CYYG;2008-12-13 22:00;CYYG 132200Z 30011G16KT 15SM -SHSN BKN025 M06/M07 A3004 RMK SC7 SLP173

CYYG;2008-12-13 23:00;CYYG 132300Z 29011KT 15SM -SHSN DRSN SCT016 BKN028 M06/M08 A3007 RMK SC3SC4 SLP186

CYYG;2008-12-14 00:00;CYYG 140000Z 31012G19KT 10SM -SHSN DRSN SCT014 BKN022 M06/M08 A3010 RMK SC3SC4 SLP197

CYYG;2008-12-14 01:00;CYYG 140100Z 30012G17KT 8SM -SHSN DRSN BKN025 M07/M08 A3013 RMK SC7 SLP206

CYYG;2008-12-14 02:00;CYYG 140200Z 29013G18KT 8SM -SHSN DRSN BKN022 M08/M09 A3015 RMK SC7 SLP214

CYYG;2008-12-14 03:00;CYYG 140300Z 30011G16KT 10SM -SHSN DRSN BKN024 M08/M09 A3017 RMK SC7 SLP221

CYYG;2008-12-14 04:00;CYYG 140400Z 29011G16KT 5SM -SHSN DRSN OVC017 M07/M09 A3020 RMK SC8 SLP231

CYYG;2008-12-14 05:00;CYYG 140500Z 29010G15KT 3SM R03/4500VP6000FT/U -SHSN DRSN OVC018 M08/M08 A3024 RMK SC8 /S01/ SLP243

CYYG;2008-12-14 05:14;CYYG 140514Z 29010G15KT 2SM -SHSN DRSN OVC017 M08/ RMK SC8

CYYG;2008-12-14 06:00;CYYG 140600Z 31011G17KT 3SM -SHSN DRSN OVC017 M08/M10 A3027 RMK SC8 /S02/ SLP252

CYYG;2008-12-14 07:00;CYYG 140700Z 30010G15KT 5SM -SHSN DRSN BKN023 M08/M10 A3030 RMK SC7 SLP264

CYYG;2008-12-14 08:00;CYYG 140800Z 29011KT 8SM -SHSN BKN027 M09/M10 A3033 RMK SC7 SLP273

CYYG;2008-12-14 09:00;CYYG 140900Z 29011G17KT 6SM -SHSN DRSN OVC028 M08/M10 A3035 RMK SC8 SLP282

CYYG;2008-12-14 10:00;CYYG 141000Z 29010KT 6SM -SHSN OVC024 M09/M10 A3038 RMK SC8 SLP292

CYYG;2008-12-14 11:00;CYYG 141100Z 28009KT 6SM -SHSN OVC024 M09/M10 A3042 RMK SC8 SLP304

CYYG;2008-12-14 12:00;CYYG 141200Z 27012KT 12SM -SHSN BKN023 M09/M11 A3044 RMK SC7 SLP312

CYYG;2008-12-14 13:00;CYYG 141300Z 27010KT 12SM -SHSN BKN023 M09/M12 A3047 RMK SC6 SLP323

CYYG;2008-12-14 14:00;CYYG 141400Z 27009KT 15SM -SHSN BKN022 M09/M11 A3050 RMK SC7 SLP330

CYYG;2008-12-14 15:00;CYYG 141500Z 27009KT 15SM VCSH BKN021 M08/M11 A3050 RMK SC7 SLP333

CYYG;2008-12-14 16:00;CYYG 141600Z 25006KT 15SM FEW021 M08/M12 A3050 RMK SC1 SLP330

CYYG;2008-12-14 17:00;CYYG 141700Z 26006KT 15SM FEW020 M08/M11 A3049 RMK SC1 SLP329

CYYG;2008-12-14 18:00;CYYG 141800Z 25005KT 15SM FEW020 FEW280 M08/M11 A3050 RMK SC1CI1 SLP330

CYYG;2008-12-14 19:00;CYYG 141900Z 20009KT 15SM FEW020 BKN280 M07/M11 A3049 RMK SC1CI2 SLP328

CYYG;2008-12-14 20:00;CYYG 142000Z 21008KT 15SM FEW020 SCT140 BKN250 M07/M11 A3049 RMK SC1AS3CS2 SLP328

CYYG;2008-12-14 21:00;CYYG 142100Z 20009KT 15SM SCT140 BKN250 M06/M11 A3048 RMK AC3CS1 SLP324

CYYG;2008-12-14 22:00;CYYG 142200Z 20009KT 15SM SCT150 BKN250 M05/M09 A3047 RMK AC3CS1 SLP323

CYYG;2008-12-14 23:00;CYYG 142300Z 20014G19KT 15SM BKN140 OVC250 M04/M07 A3045 RMK AS6CS2 SLP315

CYYG;2008-12-15 00:00;CYYG 150000Z 21013G18KT 15SM FEW050 OVC090 M03/M07 A3044 RMK SC2AS6 SLP313

CYYG;2008-12-15 00:18;CYYG 150018Z 20012G17KT 15SM -SHSN BKN054 OVC090 M03/ RMK SC5AS3

CYYG;2008-12-15 01:00;CYYG 150100Z 20014KT 15SM -SHSN SCT054 OVC085 M02/M07 A3043 RMK SC4AC4 SLP307

CYYG;2008-12-15 02:00;CYYG 150200Z 20014G20KT 15SM -SHSN SCT050 OVC090 M02/M07 A3041 RMK SC3AC5 SLP301

CYYG;2008-12-15 02:48;CYYG 150248Z 21013KT 15SM SCT050 OVC080 M01/ RMK SC3AC5

CYYG;2008-12-15 03:00;CYYG 150300Z 21012KT 15SM FEW021 SCT050 OVC080 M01/M05 A3043 RMK SC1SC3AC4 SLP307

CYYG;2008-12-15 04:00;CYYG 150400Z 21011G18KT 15SM BKN022 OVC050 M01/M04 A3042 RMK SC6SC2 SLP305

CYYG;2008-12-15 05:00;CYYG 150500Z 21013G18KT 15SM OVC021 00/M03 A3040 RMK SC8 SLP299

CYYG;2008-12-15 06:00;CYYG 150600Z 21012G21KT 15SM OVC021 01/M01 A3040 RMK SC8 SLP297

CYYG;2008-12-15 07:00;CYYG 150700Z 21010G16KT 15SM OVC020 01/M00 A3040 RMK SC8 SLP298

CYYG;2008-12-15 08:00;CYYG 150800Z 20009KT 15SM OVC019 02/01 A3039 RMK SC8 SLP292

CYYG;2008-12-15 09:00;CYYG 150900Z 19008KT 15SM OVC017 02/01 A3037 RMK SC8 SLP288

CYYG;2008-12-15 10:00;CYYG 151000Z 20009KT 15SM OVC018 02/02 A3036 RMK SC8 SLP282

CYYG;2008-12-15 11:00;CYYG 151100Z 20009KT 15SM BKN018 OVC032 03/02 A3035 RMK SC6SC2 SLP279

CYYG;2008-12-15 12:00;CYYG 151200Z 19014KT 15SM BKN018 OVC030 04/03 A3033 RMK SC5SC3 SLP273

CYYG;2008-12-15 13:00;CYYG 151300Z 19014KT 15SM FEW018 BKN030 OVC080 04/04 A3031 RMK SC2SC3AC2 SLP268

CYYG;2008-12-15 14:00;CYYG 151400Z 20013KT 15SM BKN020 OVC120 05/04 A3030 RMK SC6AC2 SLP263

CYYG;2008-12-15 15:00;CYYG 151500Z 20013KT 15SM BKN020 OVC060 06/05 A3027 RMK SC6SC2 SLP252

CYYG;2008-12-15 16:00;CYYG 151600Z 20011KT 15SM BKN022 BKN110 BKN270 07/06 A3023 RMK SC6AC1CI1 SLP239

CYYG;2008-12-15 17:00;CYYG 151700Z 22014KT 15SM OVC020 08/07 A3020 RMK SC8 SLP228

CYYG;2008-12-15 18:00;CYYG 151800Z 20014KT 15SM OVC024 08/07 A3017 RMK SC8 SLP217

CYYG;2008-12-15 19:00;CYYG 151900Z 19014KT 15SM BKN024 OVC250 08/07 A3014 RMK SC7CS1 SLP208

CYYG;2008-12-15 20:00;CYYG 152000Z 21015G22KT 15SM OVC024 11/08 A3014 RMK SC8 SLP210

CYYG;2008-12-15 21:00;CYYG 152100Z 20016G21KT 15SM BKN027 OVC080 11/09 A3012 RMK SC7AC1 SLP203

CYYG;2008-12-15 22:00;CYYG 152200Z 21017G24KT 15SM BKN027 OVC060 11/08 A3010 RMK SC6SC2 SLP195

CYYG;2008-12-15 23:00;CYYG 152300Z 19015KT 15SM BKN030 BKN060 OVC100 11/08 A3008 RMK SC6SC1AC1 SLP189

CYYG;2008-12-16 00:00;CYYG 160000Z 20016G22KT 15SM BKN033 OVC100 11/09 A3006 RMK SC6AC2 SLP182

CYYG;2008-12-16 01:00;CYYG 160100Z 20019G26KT 15SM OVC031 12/09 A3003 RMK SC8 SLP169

CYYG;2008-12-16 02:00;CYYG 160200Z 20021G28KT 15SM OVC031 11/09 A3000 RMK SC8 SLP159

CYYG;2008-12-16 03:00;CYYG 160300Z 20017G26KT 15SM OVC031 11/08 A2998 RMK SC8 SLP153

CYYG;2008-12-16 04:00;CYYG 160400Z 21015G25KT 15SM OVC028 11/09 A2997 RMK SC8 SLP150

CYYG;2008-12-16 05:00;CYYG 160500Z 21015G20KT 15SM OVC026 11/09 A2995 RMK SC8 SLP142

CYYG;2008-12-16 05:34;CYYG 160534Z 21014G19KT 15SM -SHRA OVC022 11/ RMK SC8

CYYG;2008-12-16 06:00;CYYG 160600Z 20015G21KT 15SM -SHRA OVC021 10/09 A2993 RMK SC8 SLP136

CYYG;2008-12-16 07:00;CYYG 160700Z 21019G25KT 15SM -SHRA OVC019 11/10 A2993 RMK SC8 SLP135

CYYG;2008-12-16 08:00;CYYG 160800Z 22014G24KT 15SM -SHRA OVC019 12/11 A2993 RMK SC8 SLP137

CYYG;2008-12-16 09:00;CYYG 160900Z 24022G35KT 15SM -SHRA FEW014 OVC025 12/11 A2993 RMK SC2SC6 SLP135

CYYG;2008-12-16 10:00;CYYG 161000Z 29016G28KT 15SM -SHRA BKN013 OVC025 09/08 A2999 RMK SC5SC3 PRESRR SLP157

CYYG;2008-12-16 10:30;CYYG 161030Z 25013G25KT 15SM -SHRA SCT010 BKN025 OVC046 09/ RMK SF3SC2SC3

CYYG;2008-12-16 11:00;CYYG 161100Z 25014KT 15SM -SHRA FEW010 SCT025 OVC050 08/06 A3000 RMK SC2SC2SC5 SLP160

CYYG;2008-12-16 12:00;CYYG 161200Z 26011G19KT 15SM -SHRA FEW010 OVC075 07/01 A3006 RMK SC1AC7 SLP179

CYYG;2008-12-16 12:46;CYYG 161246Z 28020G25KT 15SM FEW010 OVC062 07/ RMK SF1SC7

CYYG;2008-12-16 13:00;CYYG 161300Z 27020G28KT 15SM FEW010 OVC067 07/M00 A3009 RMK SF1AC7 SLP192

CYYG;2008-12-16 14:00;CYYG 161400Z 28010G17KT 15SM FEW010 OVC088 06/00 A3013 RMK SF1AC7 SLP204

CYYG;2008-12-16 15:00;CYYG 161500Z 29016G21KT 15SM FEW010 OVC096 04/M04 A3017 RMK SC1AC7 SLP216

CYYG;2008-12-16 16:00;CYYG 161600Z 29016G21KT 15SM -SHSN FEW010 OVC072 04/M04 A3018 RMK SC1AC7 SLP222

CYYG;2008-12-16 16:43;CYYG 161643Z 29012G19KT 12SM -SHSN FEW010 OVC035 02/ RMK SF1SC7

CYYG;2008-12-16 17:00;CYYG 161700Z 29010G16KT 15SM -SHSN FEW010 OVC059 02/M03 A3021 RMK SF2SC6 SLP230

CYYG;2008-12-16 18:00;CYYG 161800Z 33010G19KT 15SM SCT043 OVC110 01/M04 A3023 RMK SC3AC5 SLP240

CYYG;2008-12-16 19:00;CYYG 161900Z 32009KT 15SM SCT041 OVC160 00/M07 A3028 RMK SC3AC5 SLP256

CYYG;2008-12-16 20:00;CYYG 162000Z 32008KT 15SM SCT041 OVC220 M01/M08 A3031 RMK SC3CS5 SLP265

CYYG;2008-12-16 21:00;CYYG 162100Z 32007KT 15SM SCT040 BKN200 M01/M10 A3032 RMK SC3CS3 SLP270

CYYG;2008-12-16 22:00;CYYG 162200Z 31011KT 15SM FEW040 SCT200 M02/M10 A3038 RMK SC2CS1 SLP288

CYYG;2008-12-16 23:00;CYYG 162300Z 31010G19KT 15SM FEW040 FEW240 M03/M11 A3041 RMK SC1CS0 SLP299

CYYG;2008-12-17 00:00;CYYG 170000Z 32012KT 15SM FEW040 FEW240 M04/M11 A3044 RMK SC1CS0 SLP310

CYYG;2008-12-17 01:00;CYYG 170100Z 32009KT 15SM FEW040 M04/M12 A3047 RMK SC2 SLP321

CYYG;2008-12-17 02:00;CYYG 170200Z 31011KT 15SM FEW040 FEW240 M04/M13 A3050 RMK SC1CS0 SLP331

CYYG;2008-12-17 03:00;CYYG 170300Z 32008KT 15SM FEW040 FEW240 M05/M13 A3050 RMK SC2CS0 SLP332

CYYG;2008-12-17 04:00;CYYG 170400Z 32006KT 15SM FEW240 M06/M13 A3051 RMK CI1 SLP333

CYYG;2008-12-17 05:00;CYYG 170500Z 32007KT 15SM FEW240 M06/M13 A3049 RMK CI1 SLP326

CYYG;2008-12-17 06:00;CYYG 170600Z 27005KT 15SM FEW240 M06/M12 A3050 RMK CI1 SLP332

CYYG;2008-12-17 07:00;CYYG 170700Z 25005KT 15SM OVC170 M06/M12 A3051 RMK AS8 MOON VISBL SLP334

CYYG;2008-12-17 08:00;CYYG 170800Z 32007KT 15SM OVC200 M06/M12 A3052 RMK CS8 HALO SLP336

CYYG;2008-12-17 09:00;CYYG 170900Z 30005KT 15SM OVC140 M07/M13 A3052 RMK AS8 SLP338

CYYG;2008-12-17 10:00;CYYG 171000Z 33007KT 15SM OVC120 M07/M13 A3049 RMK AS8 SLP328

CYYG;2008-12-17 11:00;CYYG 171100Z 33004KT 15SM OVC120 M07/M12 A3047 RMK AS8 SLP320

CYYG;2008-12-17 12:00;CYYG 171200Z 00000KT 15SM FEW040 OVC100 M06/M11 A3047 RMK SC1AS7 SLP321

CYYG;2008-12-17 13:00;CYYG 171300Z 04004KT 15SM BKN024 OVC038 M06/M10 A3046 RMK SC5SC3 SLP317

CYYG;2008-12-17 14:00;CYYG 171400Z 07004KT 15SM BKN024 OVC062 M05/M09 A3045 RMK SC5SC3 SLP315

CYYG;2008-12-17 15:00;CYYG 171500Z 11005KT 15SM BKN022 OVC031 M05/M10 A3041 RMK SC6SC2 SLP301

CYYG;2008-12-17 15:14;CYYG 171514Z 09005KT 10SM -SHSN OVC016 M05/ RMK SC8

CYYG;2008-12-17 15:26;CYYG 171526Z 12005KT 1SM R03/P6000FT/D -SHSN BKN007 OVC021 M05/ RMK SC6SC2

CYYG;2008-12-17 16:00;CYYG 171600Z 06002KT 15SM -SHSN SCT008 OVC040 M06/M07 A3037 RMK SC3SC5 SLP288

CYYG;2008-12-17 16:46;CYYG 171646Z 03008KT 2 1/2SM -SHSN OVC014 M05/ RMK SC8

CYYG;2008-12-17 17:00;CYYG 171700Z 05008KT 1 1/2SM -SHSN OVC009 M06/M07 A3029 RMK SC8 PRESFR SLP261

CYYG;2008-12-17 18:00;CYYG 171800Z 06009KT 3/4SM R03/3000V5500FT/D -SN VV005 M06/M07 A3023 RMK SN8 PRESFR /S01/ SLP240

CYYG;2008-12-17 18:40;CYYG 171840Z 07008KT 1SM R03/5500FT/N -SN VV006 M06/ RMK SN8

CYYG;2008-12-17 19:00;CYYG 171900Z 07008KT 3/4SM R03/3500V5000FT/U -SN VV005 M06/M06 A3017 RMK SN8 PRESFR SLP218

CYYG;2008-12-17 20:00;CYYG 172000Z 07008KT 1SM R03/P6000FT/D -SN VV007 M05/M06 A3013 RMK SN8 SLP205

CYYG;2008-12-17 20:23;CYYG 172023Z 07008KT 3/4SM R03/5500FT/D -SN VV005 M05/ RMK SN8 /S02/

CYYG;2008-12-17 21:00;CYYG 172100Z 05010KT 1SM R03/P6000FT/U -SN VV008 M05/M06 A3006 RMK SN8 PRESFR SLP182

CYYG;2008-12-17 22:00;CYYG 172200Z 06010KT 3/4SM R03/3500V4500FT/D -SN VV004 M04/M05 A3001 RMK SN8 /S05/ R03/3500V4500/D SLP164

CYYG;2008-12-17 22:38;CYYG 172238Z 06013KT 5SM -SN OVC014 M04/ RMK SC8

CYYG;2008-12-17 23:00;CYYG 172300Z 08016G22KT 5SM -SN OVC013 M04/M05 A2994 RMK SC8 PRESFR SLP141

CYYG;2008-12-17 23:39;CYYG 172339Z 07013KT 2SM -SN VV007 M04/ RMK SN8

CYYG;2008-12-18 00:00;CYYG 180000Z 07012KT 2SM -SN BKN009 OVC024 M03/M05 A2991 RMK SF6SC2 SLP131

CYYG;2008-12-18 00:20;CYYG 180020Z 07010G15KT 5SM -SN BKN014 OVC024 M03/ RMK SC6SC2

CYYG;2008-12-18 00:36;CYYG 180036Z 06011KT 1 1/2SM -SN BKN006 OVC025 M03/ RMK SF6SC2

CYYG;2008-12-18 01:00;CYYG 180100Z 06011KT 1 1/2SM -SN BKN008 OVC023 M03/M04 A2985 RMK SF6SC2 SLP112

CYYG;2008-12-18 02:00;CYYG 180200Z 05009KT 2 1/2SM -SN BKN012 OVC027 M02/M03 A2982 RMK SF6SC2 SLP100

CYYG;2008-12-18 03:00;CYYG 180300Z 02006KT 3SM -SN SCT020 OVC037 M02/M02 A2984 RMK SC4SC4 SLP107

CYYG;2008-12-18 04:00;CYYG 180400Z 34004KT 5SM -SN SCT010 OVC030 M02/M02 A2985 RMK SF3SC5 SLP112

CYYG;2008-12-18 05:00;CYYG 180500Z 34003KT 5SM -SN BKN008 OVC017 M01/M01 A2987 RMK SF6SC2 SLP118

CYYG;2008-12-18 06:00;CYYG 180600Z CCA 32003KT 15SM -SHSN SCT013 OVC034 M02/M02 A2989 RMK SC3SC5 PCPN VRY LGT SLP123

CYYG;2008-12-18 07:00;CYYG 180700Z 31005KT 15SM -SHSN SCT030 OVC049 M02/M02 A2992 RMK SC3SC5 PCPN VRY LGT SLP133

CYYG;2008-12-18 08:00;CYYG 180800Z 29005KT 15SM -SHSN BKN019 OVC031 M02/M02 A2993 RMK SC5SC3 PCPN VRY LGT SLP139

CYYG;2008-12-18 09:00;CYYG 180900Z 29008KT 15SM SCT020 OVC035 M02/M02 A2994 RMK SC3SC5 SLP140

CYYG;2008-12-18 10:00;CYYG 181000Z 29007KT 15SM SCT010 BKN019 OVC031 M02/M03 A2996 RMK SC3SC2SC2 SLP149

CYYG;2008-12-18 11:00;CYYG 181100Z 29010KT 15SM BKN010 OVC023 M03/M04 A2998 RMK SC6SC2 SLP156

CYYG;2008-12-18 11:39;CYYG 181139Z 29010KT 15SM BKN007 OVC023 M04/ RMK SC7SC1

CYYG;2008-12-18 12:00;CYYG 181200Z 30010G15KT 15SM SCT007 OVC031 M04/M06 A3001 RMK SF4SC4 SLP165

CYYG;2008-12-18 13:00;CYYG 181300Z 31011G16KT 15SM SCT007 OVC040 M04/M06 A3003 RMK SF3SC5 SLP173

CYYG;2008-12-18 13:49;CYYG 181349Z 29011G16KT 15SM BKN010 OVC040 M05/ RMK SC5SC3

CYYG;2008-12-18 14:00;CYYG 181400Z 29011KT 15SM BKN010 OVC040 M05/M06 A3005 RMK SC6SC2 SLP179

CYYG;2008-12-18 15:00;CYYG 181500Z 29013G19KT 15SM -SHSN OVC012 M06/M08 A3006 RMK SC8 PCPN VRY LGT SLP184

CYYG;2008-12-18 15:41;CYYG 181541Z 29014KT 15SM BKN013 M07/ RMK SC6

CYYG;2008-12-18 16:00;CYYG 181600Z 29014G19KT 15SM DRSN BKN014 M06/M09 A3005 RMK SC6 SLP180

CYYG;2008-12-18 16:41;CYYG 181641Z 28011G16KT 15SM DRSN SCT015 M07/ RMK SC4

CYYG;2008-12-18 17:00;CYYG 181700Z 29011G16KT 15SM DRSN SCT015 M07/M10 A3006 RMK SC4 SLP183

CYYG;2008-12-18 18:00;CYYG 181800Z 28009G15KT 15SM DRSN SCT015 M06/M10 A3007 RMK SC4 SLP187

CYYG;2008-12-18 19:00;CYYG 181900Z 29006KT 15SM DRSN BKN019 M06/M10 A3008 RMK SC6 SLP188

CYYG;2008-12-18 20:00;CYYG 182000Z 30005KT 15SM FEW020 M07/M11 A3008 RMK SC2 SLP188

CYYG;2008-12-18 21:00;CYYG 182100Z 27005KT 15SM FEW020 M08/M11 A3009 RMK SC2 SLP191

CYYG;2008-12-18 22:00;CYYG 182200Z 28006KT 15SM FEW020 M09/M11 A3009 RMK SC2 SLP192

CYYG;2008-12-18 23:00;CYYG 182300Z 25003KT 15SM SCT024 M08/M10 A3010 RMK SC4 SLP195

CYYG;2008-12-19 00:00;CYYG 190000Z 27005KT 15SM -SHSN BKN025 M07/M09 A3009 RMK SC6 SLP192

CYYG;2008-12-19 01:00;CYYG 190100Z 28005KT 15SM -SHSN BKN024 M06/M08 A3009 RMK SC4 SLP192

CYYG;2008-12-19 01:45;CYYG 190145Z 29005KT 15SM SCT025 M06/ RMK SC2

CYYG;2008-12-19 02:00;CYYG 190200Z 28005KT 15SM SCT025 M06/M10 A3006 RMK SC2 SLP184

CYYG;2008-12-19 03:00;CYYG 190300Z 26006KT 15SM BKN037 M06/M09 A3006 RMK SC5 SLP184

CYYG;2008-12-19 04:00;CYYG 190400Z 27009G18KT 15SM BKN032 M06/M09 A3005 RMK SC5 SLP179

CYYG;2008-12-19 04:03;CYYG 190403Z 27011G16KT 15SM -SHSN BKN032 M06/ RMK SC5

CYYG;2008-12-19 05:00;CYYG 190500Z 27010G15KT 15SM -SHSN BKN023 M06/M08 A3005 RMK SC6 SLP178

CYYG;2008-12-19 06:00;CYYG 190600Z 29012G19KT 15SM -SHSN BKN032 M07/M09 A3005 RMK SC6 SLP178

CYYG;2008-12-19 07:00;CYYG 190700Z 30013G21KT 15SM -SHSN BKN034 M08/M14 A3008 RMK SC6 SLP190

CYYG;2008-12-19 07:34;CYYG 190734Z 30011KT 15SM FEW035 FEW200 M09/ RMK SC1CI1

CYYG;2008-12-19 08:00;CYYG 190800Z 29009KT 15SM FEW040 FEW200 M09/M14 A3009 RMK SC1CI1 SLP192

CYYG;2008-12-19 09:00;CYYG 190900Z 31008KT 15SM FEW200 M10/M15 A3009 RMK CI1 SLP194

CYYG;2008-12-19 10:00;CYYG 191000Z 30007KT 15SM FEW200 M11/M14 A3009 RMK CI1 SLP193

CYYG;2008-12-19 10:27;CYYG 191027Z 31007KT 15SM -SHSN SCT018 SCT200 M11/ RMK SC3CI1

CYYG;2008-12-19 11:00;CYYG 191100Z 30009KT 15SM -SHSN SCT020 M11/M15 A3008 RMK SC3 SLP191

CYYG;2008-12-19 12:00;CYYG 191200Z 31013G19KT 15SM DRSN FEW015 FEW040 M11/M16 A3011 RMK SC1SC1 SLP201

CYYG;2008-12-19 13:00;CYYG 191300Z 30016G22KT 15SM DRSN VCSH FEW015 FEW040 M12/M16 A3016 RMK SC1SC2 SHS NW-NE SLP217

CYYG;2008-12-19 13:31;CYYG 191331Z 30017G22KT 15SM -SHSN DRSN SCT015 M12/ RMK SC3 VIS W-NE 4

CYYG;2008-12-19 14:00;CYYG 191400Z 31018G28KT 10SM -SHSN DRSN SCT015 M12/M16 A3018 RMK SC3 VIS NW-N 3 SLP225

CYYG;2008-12-19 14:48;CYYG 191448Z 31015KT 1 1/2SM -SHSN DRSN OVC016 M13/ RMK SC8

CYYG;2008-12-19 15:00;CYYG 191500Z 30015KT 1 1/2SM R03/4500VP6000FT/D -SHSN DRSN BKN016 M13/M16 A3020 RMK SC7 SLP231

CYYG;2008-12-19 15:38;CYYG 191538Z 29014G20KT 3SM -SHSN DRSN BKN016 M13/ RMK SC7 VIS VRB 1-5

CYYG;2008-12-19 16:00;CYYG 191600Z 30013KT 3SM R03/3500VP6000FT/U -SHSN DRSN BKN016 M13/M15 A3020 RMK SC6 VIS VRB 1-5 SLP232

CYYG;2008-12-19 17:00;CYYG 191700Z 29017KT 3SM -SHSN DRSN SCT016 M14/M16 A3020 RMK SC4 VIS VRB 1-5 SLP232

CYYG;2008-12-19 18:00;CYYG 191800Z 28016G22KT 10SM -SHSN DRSN BKN020 M14/M16 A3022 RMK SC6 VIS NW-NE 3 SLP238

CYYG;2008-12-19 19:00;CYYG 191900Z 29017KT 5SM -SHSN DRSN BKN020 M14/M16 A3023 RMK SC6 VIS NW-NE 2 SLP241

CYYG;2008-12-19 20:00;CYYG 192000Z 28011G17KT 10SM -SHSN DRSN FEW025 BKN250 M15/M17 A3024 RMK SC2CS2 VIS NW-NE 3 SLP245

CYYG;2008-12-19 21:00;CYYG 192100Z 29013G19KT 15SM DRSN FEW025 SCT250 M15/M19 A3025 RMK SC1CS2 SLP249

CYYG;2008-12-19 22:00;CYYG 192200Z 29011KT 15SM FEW030 SCT250 M15/M19 A3024 RMK SC1CS2 SLP243

CYYG;2008-12-19 22:36;CYYG 192236Z 29010KT 10SM -SHSN OVC025 M15/ RMK SC8

CYYG;2008-12-19 23:00;CYYG 192300Z CCA 28009KT 5SM -SHSN DRSN OVC025 M15/M18 A3024 RMK SC8 SLP243

CYYG;2008-12-19 23:42;CYYG 192342Z 30008KT 2SM -SHSN DRSN OVC025 M14/ RMK SN2SC6

CYYG;2008-12-20 00:00;CYYG 200000Z 28008G15KT 2 1/2SM -SHSN DRSN OVC022 M14/M16 A3022 RMK SC8 SLP238

CYYG;2008-12-20 00:34;CYYG 200034Z 30007KT 5SM -SHSN BKN024 OVC036 M14/ RMK SC6SC2

CYYG;2008-12-20 01:00;CYYG 200100Z 30007KT 6SM -SHSN SCT023 OVC037 M14/M15 A3023 RMK SC4SC4 SLP239

CYYG;2008-12-20 02:00;CYYG 200200Z 31004KT 8SM -SHSN FEW020 OVC036 M13/M14 A3021 RMK SC2SC6 SLP234

CYYG;2008-12-20 02:22;CYYG 200222Z 29004KT 15SM FEW020 BKN035 M13/ RMK SC2SC6

CYYG;2008-12-20 03:00;CYYG 200300Z 31003KT 15SM FEW020 SCT036 BKN160 M13/M14 A3019 RMK SC2SC2AC2 SLP227

CYYG;2008-12-20 03:49;CYYG 200349Z 34004KT 8SM -SHSN FEW020 OVC037 M12/ RMK SC2SC6

CYYG;2008-12-20 04:00;CYYG 200400Z 36005KT 5SM -SHSN FEW020 OVC036 M11/M14 A3017 RMK SC2SC6 SLP220

CYYG;2008-12-20 05:00;CYYG 200500Z 03008KT 4SM -SHSN FEW020 OVC038 M10/M13 A3014 RMK SC2SC6 SLP212

CYYG;2008-12-20 06:00;CYYG 200600Z 02008KT 8SM -SHSN OVC036 M10/M13 A3014 RMK SC8 SLP211

CYYG;2008-12-20 07:00;CYYG 200700Z 01006KT 12SM -SHSN OVC037 M09/M14 A3014 RMK SC8 SLP210

CYYG;2008-12-20 08:00;CYYG 200800Z 02008KT 10SM -SHSN OVC040 M09/M12 A3013 RMK SC8 SLP208

CYYG;2008-12-20 09:00;CYYG 200900Z 02010KT 10SM -SHSN BKN037 M09/M13 A3012 RMK SC7 SLP205

CYYG;2008-12-20 10:00;CYYG 201000Z 02011KT 8SM -SHSN OVC038 M09/M13 A3013 RMK SC8 SLP207

CYYG;2008-12-20 10:22;CYYG 201022Z 03014KT 2 1/2SM -SHSN DRSN OVC031 M09/ RMK SC8

CYYG;2008-12-20 10:31;CYYG 201031Z 03014KT 3/4SM R03/4000VP6000FT/D -SN DRSN VV008 M09/ RMK SN8

CYYG;2008-12-20 10:49;CYYG 201049Z 03011KT 8SM -SHSN DRSN OVC038 M09/ RMK SC8

CYYG;2008-12-20 11:00;CYYG 201100Z 04011KT 6SM -SHSN DRSN SCT027 OVC040 M09/M11 A3013 RMK SC3SC5 SLP207

CYYG;2008-12-20 12:00;CYYG 201200Z CCA 04009KT 10SM -SHSN FEW025 BKN044 M09/M14 A3014 RMK SC2SC6 /S01/ SLP210

CYYG;2008-12-20 13:00;CYYG 201300Z CCA 02012KT 10SM -SHSN DRSN FEW020 OVC033 M09/M13 A3015 RMK SC2SC6 VIS LWR N-NE SLP214

CYYG;2008-12-20 14:00;CYYG 201400Z 02010G17KT 10SM -SHSN DRSN FEW020 OVC031 M09/M12 A3016 RMK SC2SC6 VIS LWR NE SLP216

CYYG;2008-12-20 15:00;CYYG 201500Z 01010G16KT 12SM -SHSN DRSN FEW020 OVC032 M08/M12 A3015 RMK SC2SC6 SLP214

CYYG;2008-12-20 16:00;CYYG 201600Z 02008KT 10SM -SHSN OVC030 M08/M12 A3014 RMK SC8 SLP212

CYYG;2008-12-20 17:00;CYYG 201700Z 03009KT 3SM -SHSN DRSN OVC030 M08/M12 A3014 RMK SN2SC6 SLP209

CYYG;2008-12-20 18:00;CYYG 201800Z 36008KT 3SM -SHSN DRSN OVC028 M08/M11 A3015 RMK SN2SC6 SLP214

CYYG;2008-12-20 19:00;CYYG 201900Z 36006KT 6SM -SHSN OVC030 M08/M12 A3016 RMK SC8 SLP218

CYYG;2008-12-20 20:00;CYYG 202000Z 01007KT 6SM -SHSN OVC032 M09/M12 A3018 RMK SC8 VIS HIER W SLP225

CYYG;2008-12-20 21:00;CYYG 202100Z 36005KT 10SM -SHSN OVC035 M09/M13 A3019 RMK SC8 SLP228

CYYG;2008-12-20 23:00;CYYG 202300Z 01006KT 8SM -SHSN OVC035 M09/M13 A3021 RMK SC8 SLP234

CYYG;2008-12-21 00:00;CYYG 210000Z 36008KT 10SM -SHSN OVC037 M09/M14 A3022 RMK SC8 SLP237

CYYG;2008-12-21 01:00;CYYG 210100Z 02008KT 10SM -SHSN OVC032 M09/M13 A3023 RMK SC8 SLP239

CYYG;2008-12-21 02:00;CYYG 210200Z 03007KT 12SM -SHSN OVC034 M10/M14 A3023 RMK SC8 SLP240

CYYG;2008-12-21 03:00;CYYG 210300Z 36005KT 4SM -SHSN OVC027 M10/M12 A3023 RMK SC8 SLP240

CYYG;2008-12-21 04:00;CYYG 210400Z 35004KT 10SM -SHSN OVC032 M09/M13 A3023 RMK SC8 SLP240

CYYG;2008-12-21 05:00;CYYG 210500Z 32006KT 10SM -SHSN OVC036 M10/M14 A3022 RMK SC8 SLP237

CYYG;2008-12-21 06:00;CYYG 210600Z 29009KT 15SM -SHSN BKN037 M10/M13 A3023 RMK SC7 SLP239

CYYG;2008-12-21 07:00;CYYG 210700Z 29008KT 15SM -SHSN BKN039 M11/M14 A3023 RMK SC7 SLP242

CYYG;2008-12-21 08:00;CYYG 210800Z 29007KT 15SM -SHSN OVC037 M11/M14 A3023 RMK SC8 SLP242

CYYG;2008-12-21 09:00;CYYG 210900Z 29007KT 15SM -SHSN OVC038 M11/M16 A3023 RMK SC8 SLP242

CYYG;2008-12-21 10:00;CYYG 211000Z 29005KT 15SM -SHSN OVC036 M12/M16 A3023 RMK SC8 SLP240

CYYG;2008-12-21 11:00;CYYG 211100Z 32005KT 15SM -SHSN BKN037 M13/M17 A3024 RMK SC7 SLP243

CYYG;2008-12-21 11:25;CYYG 211125Z 32002KT 15SM VCSH BKN036 M14/ RMK SC6

CYYG;2008-12-21 12:00;CYYG 211200Z 29006KT 15SM FEW020 BKN037 M13/M17 A3025 RMK SC1SC5 SLP249

CYYG;2008-12-21 13:00;CYYG 211300Z 29007KT 15SM FEW020 BKN037 M12/M15 A3025 RMK SC1SC6 SLP246

CYYG;2008-12-21 14:00;CYYG 211400Z 30004KT 15SM FEW035 M12/M15 A3024 RMK SC2 SLP243

CYYG;2008-12-21 15:00;CYYG 211500Z 24005KT 15SM FEW035 M10/M15 A3023 RMK SC2 SLP242

CYYG;2008-12-21 16:00;CYYG 211600Z 25003KT 15SM FEW025 FEW050 BKN250 M09/M15 A3021 RMK SC1SC2CI1 SLP235

CYYG;2008-12-21 17:00;CYYG 211700Z 00000KT 15SM FEW025 BKN250 M09/M15 A3017 RMK SC1CI1 SLP219

CYYG;2008-12-21 18:00;CYYG 211800Z 10002KT 15SM FEW025 SCT250 M08/M14 A3012 RMK SC1CI1 SLP205

CYYG;2008-12-21 19:00;CYYG 211900Z 07003KT 15SM SCT025 OVC220 M09/M14 A3013 RMK SC3CS2 SLP208

CYYG;2008-12-21 20:00;CYYG 212000Z 10005KT 15SM BKN030 OVC200 M08/M13 A3013 RMK SC6CS2 SLP208

CYYG;2008-12-21 21:00;CYYG 212100Z CCA 06008KT 15SM SCT030 OVC170 M09/M13 A3005 RMK SC3AC5 PRESFR SLP179

CYYG;2008-12-21 22:00;CYYG 212200Z 08007KT 15SM BKN028 OVC140 M09/M12 A3001 RMK SC6AC2 SLP167

CYYG;2008-12-21 23:00;CYYG 212300Z 09009KT 15SM BKN028 OVC110 M08/M11 A2996 RMK SC6AC2 SLP150

CYYG;2008-12-21 23:23;CYYG 212323Z 09008KT 15SM -SHSN BKN022 OVC100 M08/ RMK SC6AC2

CYYG;2008-12-22 00:00;CYYG 220000Z 09009KT 15SM -SHSN OVC020 M08/M10 A2990 RMK SC8 PRESFR SLP129

CYYG;2008-12-22 01:00;CYYG 220100Z 10010G17KT 15SM -SHSN OVC019 M07/M10 A2981 RMK SC8 PRESFR SLP097

CYYG;2008-12-22 02:00;CYYG 220200Z 09013KT 15SM -SHSN OVC015 M06/M08 A2971 RMK SC8 PRESFR SLP063

CYYG;2008-12-22 03:00;CYYG 220300Z 10017G22KT 12SM -SHSN DRSN OVC015 M05/M07 A2961 RMK SC8 PRESFR SLP031

CYYG;2008-12-22 03:24;CYYG 220324Z 09021G26KT 1SM R03/P6000FT/D -SN BLSN VV007 M05/ RMK SN8

CYYG;2008-12-22 03:49;CYYG 220349Z 09021G30KT 1/2SM R03/2600V4000FT/D -SN BLSN VV003 M05/ RMK SN8

CYYG;2008-12-22 04:00;CYYG 220400Z 09018G28KT 1/2SM R03/3000FT/N -SN BLSN VV002 M05/M06 A2949 RMK SN8 PRESFR SLP990

CYYG;2008-12-22 05:00;CYYG 220500Z 09023G31KT 1/2SM R03/3000FT/D -SN BLSN VV002 M05/M05 A2934 RESN RMK SN8 RPESFR SLP940

CYYG;2008-12-22 06:00;CYYG 220600Z 08025G35KT 1/2SM R03/3500FT/N -SN BLSN VV002 M04/M05 A2915 RMK SN8 PRESFR SLP873

CYYG;2008-12-22 07:00;CYYG 220700Z 09030G43KT 1/2SM R03/1200V2400FT/D SN BLSN VV004 M04/M04 A2896 RMK SN8 SLP808

CYYG;2008-12-22 08:00;CYYG 220800Z 11023G36KT 1/2SM R03/3000V4500FT/D SN BLSN VV003 M02/M02 A2882 RMK SN8 PRESFR /S02/ SLP763

CYYG;2008-12-22 09:00;CYYG 220900Z 13021G35KT 1/2SM R03/3500FT/D SN BLSN VV004 M01/M01 A2874 RMK SN8 PRESFR /S04/ SLP735

CYYG;2008-12-22 09:27;CYYG 220927Z 16019G31KT 6SM -SN BKN004 OVC020 00/ RMK SC6SC2

CYYG;2008-12-22 09:28;CYYG 220928Z CCA 16019G31KT 6SM -SN BKN004 OVC020 00/ RMK SC6SC2 RESN

CYYG;2008-12-22 09:36;CYYG 220936Z 16020G27KT 10SM -SHRA SCT004 OVC040 01/ RMK SC4SC4 RESN

CYYG;2008-12-22 10:00;CYYG 221000Z 18021G30KT 10SM -SHSN DRSN BKN016 OVC040 00/M02 A2866 RESN RMK SC5SC3 PRESFR /S08/ SLP709

CYYG;2008-12-22 11:00;CYYG 221100Z CCA 22023G35KT 10SM -SHSN DRSN BKN015 OVC040 M02/M04 A2867 RMK SC5SC3 /S10/ SLP711

CYYG;2008-12-22 12:00;CYYG 221200Z 21026G33KT 10SM -SHSN OVC020 M04/M06 A2865 RMK SC8 DRSN SLP703

CYYG;2008-12-22 12:49;CYYG 221249Z 21033G44KT 2SM -SHSN BLSN OVC020 M04/ RMK SC8 DRSN

CYYG;2008-12-22 13:00;CYYG 221300Z 21032G44KT 1SM -SHSN BLSN OVC021 M04/M06 A2858 RMK SN4SC4 DRSN/PRESFR SLP682

CYYG;2008-12-22 13:52;CYYG 221352Z 21029G43KT 1/2SM SN BLSN VV005 M04/ RMK SN8 DRSN

CYYG;2008-12-22 14:00;CYYG 221400Z 22030G42KT 3/8SM SN BLSN VV005 M04/M04 A2856 RMK SN8 DRSN SLP673

CYYG;2008-12-22 14:34;CYYG 221434Z 23025G38KT 1 1/2SM -SN BLSN OVC011 M03/ RMK SF8 DRSN

CYYG;2008-12-22 15:00;CYYG 221500Z 23031G43KT 2SM -SN BLSN OVC018 M04/M04 A2858 RMK SC8 SLP680

CYYG;2008-12-22 15:37;CYYG 221537Z 25027G41KT 3/4SM -SN BLSN VV006 M03/ RMK SN8

CYYG;2008-12-22 16:00;CYYG 221600Z 26032G50KT 1/2SM SN BLSN VV004 M05/M05 A2861 RMK SN8 SLP689

CYYG;2008-12-22 17:00;CYYG 221700Z 28023G41KT 3/8SM SN BLSN VV004 M06/M06 A2878 RMK SN8 PRESRR SLP747

CYYG;2008-12-22 17:35;CYYG 221735Z 27025G39KT 1/8SM SN +BLSN VV003 M07/ RMK SN8

CYYG;2008-12-22 18:00;CYYG 221800Z 28024G38KT 1/8SM SN +BLSN VV003 M07/M07 A2891 RMK SN8 PRESRR SLP794

CYYG;2008-12-22 19:00;CYYG 221900Z CCA 29022G35KT 5/8SM -SN BLSN VV006 M07/M08 A2901 RMK SN8 PRESRR RESN REBLSN /S01/ SLP828

CYYG;2008-12-22 20:00;CYYG 222000Z 30021G32KT 1 1/2SM -SN BLSN BKN008 OVC024 M08/M09 A2910 RMK BLSN4SF2SC2 PRESRR SLP857

CYYG;2008-12-22 20:45;CYYG 222045Z 28014G25KT 2 1/2SM -SN DRSN SCT018 OVC047 M07/ RMK SF3SC5

CYYG;2008-12-22 21:00;CYYG 222100Z 29017G24KT 3SM -SN DRSN FEW018 OVC047 M07/M09 A2919 RMK SF2SC6 PRESRR SLP886

CYYG;2008-12-22 21:39;CYYG 222139Z 29020G27KT 2SM -SN DRSN BKN008 OVC031 M08/ RMK SF5SC3

CYYG;2008-12-22 22:00;CYYG 222200Z 29016G26KT 2SM -SN DRSN BKN007 OVC045 M08/M09 A2924 RMK SF5SC3 SLP905

CYYG;2008-12-22 22:24;CYYG 222224Z 29013G24KT 3SM -SN DRSN FEW008 OVC040 M08/ RMK SF2SC6

CYYG;2008-12-22 23:00;CYYG 222300Z 29021G29KT 5SM -SN DRSN SCT022 OVC040 M08/M10 A2931 RMK SC3SC5 PRESRR SLP927

CYYG;2008-12-23 00:00;CYYG 230000Z 29017G25KT 15SM -SHSN DRSN FEW022 OVC040 M09/M11 A2937 RMK SF2SC6 PRESRR SLP949

CYYG;2008-12-23 01:00;CYYG 230100Z 28015G20KT 4SM -SN DRSN BKN012 OVC020 M09/M11 A2944 RMK SC5SC3 PRESRR SLP973

CYYG;2008-12-23 02:00;CYYG 230200Z 29019G26KT 10SM -SN DRSN FEW012 OVC030 M09/M12 A2950 RMK SF1SC7 PRESRR SLP994

CYYG;2008-12-23 03:00;CYYG 230300Z 29024G33KT 10SM -SN DRSN OVC032 M09/M12 A2957 RMK SC8 PRESRR SLP017

CYYG;2008-12-23 04:00;CYYG 230400Z 29018G25KT 12SM -SN DRSN OVC035 M09/M12 A2963 RMK SC8 PRESRR SLP037

CYYG;2008-12-23 05:00;CYYG 230500Z 29016G27KT 15SM -SHSN DRSN OVC032 M09/M13 A2971 RMK SC8 PRESRR PCPN VRY LGT SLP062

CYYG;2008-12-23 06:00;CYYG 230600Z 29012G20KT 15SM -SHSN DRSN OVC031 M09/M13 A2977 RMK SC8 PRESRR PCPN VRY LGT SLP083

CYYG;2008-12-23 07:00;CYYG 230700Z 29016KT 15SM FEW030 M09/M14 A2984 RMK SC2 SLP109

CYYG;2008-12-23 08:00;CYYG 230800Z CCA 20014G22KT 15SM FEW030 M10/M15 A2991 RMK SC2 PRESRR SLP132

CYYG;2008-12-23 09:00;CYYG 230900Z 29017KT 15SM FEW030 M10/M14 A2996 RMK SC2 SLP148

CYYG;2008-12-23 10:00;CYYG 231000Z 29011G19KT 15SM FEW030 M11/M15 A3001 RMK SC2 SLP166

CYYG;2008-12-23 11:00;CYYG 231100Z 29013G21KT 15SM FEW030 M11/M16 A3007 RMK SC2 SLP185

CYYG;2008-12-23 12:00;CYYG 231200Z 29012KT 15SM FEW030 SCT250 M12/M16 A3012 RMK SC1CI1 SLP205

CYYG;2008-12-23 13:00;CYYG 231300Z 29014G19KT 15SM FEW030 SCT250 M12/M17 A3017 RMK SC1CI1 SLP222

CYYG;2008-12-23 14:00;CYYG 231400Z 29018G25KT 15SM FEW030 FEW250 M12/M17 A3021 RMK SC0CI1 SLP233

CYYG;2008-12-23 15:00;CYYG 231500Z 28016G24KT 15SM VCSH FEW020 SCT250 M12/M16 A3025 RMK SC2CI0 SLP247

CYYG;2008-12-23 16:00;CYYG 231600Z CCA 29014G21KT 15SM DRSN FEW025 FEW250 M12/M16 A3026 RMK SC1CI1 SLP252

CYYG;2008-12-23 17:00;CYYG 231700Z 29015G25KT 15SM FEW025 FEW250 M12/M17 A3026 RMK SC0CI1 SLP252

CYYG;2008-12-23 18:00;CYYG 231800Z 29021KT 15SM FEW025 M12/M17 A3029 RMK SC1 SLP261

CYYG;2008-12-23 19:00;CYYG 231900Z 29011G18KT 15SM FEW020 M11/M16 A3033 RMK SC1 SLP273

CYYG;2008-12-23 20:00;CYYG 232000Z 27010G17KT 15SM FEW020 M12/M16 A3036 RMK SC1 SLP286

CYYG;2008-12-23 21:00;CYYG 232100Z 29012KT 15SM FEW020 M12/M16 A3040 RMK SC1 SLP297

CYYG;2008-12-23 22:00;CYYG 232200Z 28009KT 15SM FEW220 M12/M16 A3041 RMK CI1 SLP303

CYYG;2008-12-23 23:00;CYYG 232300Z 29014G20KT 15SM FEW220 M12/M16 A3044 RMK CI1 SLP310

CYYG;2008-12-24 00:00;CYYG 240000Z 29011KT 15SM FEW220 M12/M16 A3048 RMK CI1 SLP326

CYYG;2008-12-24 01:00;CYYG 240100Z 27008KT 15SM FEW220 M12/M16 A3052 RMK CI1 SLP338

CYYG;2008-12-24 02:00;CYYG 240200Z 27004KT 15SM FEW220 M13/M16 A3052 RMK CI1 SLP341

CYYG;2008-12-24 03:00;CYYG 240300Z 28004KT 15SM FEW220 M13/M16 A3052 RMK CI2 SLP341

CYYG;2008-12-24 04:00;CYYG 240400Z 27007KT 15SM BKN110 M12/M15 A3052 RMK AC6 SLP341

CYYG;2008-12-24 05:00;CYYG 240500Z 24005KT 15SM BKN120 M12/M15 A3050 RMK AC6 SLP334

CYYG;2008-12-24 06:00;CYYG 240600Z 24006KT 15SM OVC130 M12/M15 A3050 RMK AC8 SLP332

CYYG;2008-12-24 07:00;CYYG 240700Z 23006KT 15SM OVC100 M10/M14 A3051 RMK AC8 SLP335

CYYG;2008-12-24 08:00;CYYG 240800Z 24003KT 15SM OVC088 M10/M14 A3050 RMK AC8 SLP331

CYYG;2008-12-24 09:00;CYYG 240900Z 14003KT 15SM OVC120 M10/M13 A3048 RMK AC8 SLP326

CYYG;2008-12-24 10:00;CYYG 241000Z 17005KT 15SM OVC087 M09/M12 A3045 RMK AC8 SLP317

CYYG;2008-12-24 10:46;CYYG 241046Z 18008KT 12SM -SHSN BKN020 OVC060 M07/ RMK SC5SC3

CYYG;2008-12-24 11:00;CYYG 241100Z 18008KT 12SM -SHSN SCT020 OVC040 M07/M10 A3043 RMK SC4SC4 SLP310

CYYG;2008-12-24 12:00;CYYG 241200Z 17012KT 15SM OVC029 M06/M07 A3040 RMK SC8 SLP299

CYYG;2008-12-24 12:41;CYYG 241241Z 17011KT 15SM -SN OVC025 M06/ RMK SC8

CYYG;2008-12-24 13:00;CYYG 241300Z 16012KT 3SM -SN OVC025 M06/M08 A3038 RMK SC8 SLP292

CYYG;2008-12-24 13:47;CYYG 241347Z 18012KT 2 1/2SM -SN DRSN OVC025 M05/ RMK SC8

CYYG;2008-12-24 14:00;CYYG 241400Z CCA 18015KT 2SM -SN DRSN OVC018 M04/M06 A3034 RMK SN2SC6 SLP278

CYYG;2008-12-24 14:15;CYYG 241415Z 19014KT 5SM -SN DRSN OVC018 M04/ RMK SC8

CYYG;2008-12-24 14:35;CYYG 241435Z 19013G18KT 2SM -SN DRSN OVC017 M03/ RMK SN2SC6

CYYG;2008-12-24 15:00;CYYG 241500Z 19014KT 1 1/2SM -SN DS BKN010 OVC023 M03/M04 A3029 RMK SN2SF4SC2 SLP261

CYYG;2008-12-24 15:16;CYYG 241516Z 19014KT 1SM R03/5000FT/D -SN DS OVC008 M03/ RMK SN2SF6

CYYG;2008-12-24 15:40;CYYG 241540Z 19015KT 2 1/2SM -SN BR OVC009 M02/ RMK SN2SF6

CYYG;2008-12-24 16:00;CYYG 241600Z 18016KT 3SM -SN DS BKN005 OVC009 M02/M02 A3023 RMK SF5SF3 PRESFR SLP239

CYYG;2008-12-24 16:25;CYYG 241625Z 19016KT 1 1/2SM -SN DRSN OVC005 M01/ RMK SN2SF6

CYYG;2008-12-24 17:00;CYYG 241700Z 19013KT 2SM -SN DRSN OVC004 M01/M01 A3019 RMK SN1SF7 SLP226

CYYG;2008-12-24 17:44;CYYG 241744Z 18013KT 5SM -SN DRSN BR BKN004 OVC015 M01/ RMK SF7SC1

CYYG;2008-12-24 18:00;CYYG 241800Z 18014KT 2 1/2SM -SN DRSN BR BKN004 OVC014 M01/M01 A3013 RMK SF7SC1 /S02/ SLP206

CYYG;2008-12-24 18:51;CYYG 241851Z 18010KT 5SM BR BKN003 OVC007 M00/ RMK SF6SF2

CYYG;2008-12-24 19:00;CYYG 241900Z 18012KT 8SM BKN003 OVC009 M00/M00 A3010 RMK SF7SF1 SLP197

CYYG;2008-12-24 19:23;CYYG 241923Z 18011KT 8SM -SN SCT003 OVC015 00/ RMK SF3SC5

CYYG;2008-12-24 19:41;CYYG 241941Z 20013KT 2 1/2SM -SN OVC014 01/ RMK SC8

CYYG;2008-12-24 20:00;CYYG 242000Z 20012KT 2 1/2SM -SN OVC010 01/00 A3008 RMK SC8 SLP190

CYYG;2008-12-24 20:24;CYYG 242024Z 20013KT 3SM -SN FEW004 OVC007 01/ RMK SF2SF6

CYYG;2008-12-24 21:00;CYYG 242100Z 23007KT 6SM -SN OVC006 01/01 A3007 RMK ST8 SLP186

CYYG;2008-12-24 21:36;CYYG 242136Z 24008KT 10SM OVC006 01/ RMK ST8

CYYG;2008-12-24 22:00;CYYG 242200Z 25005KT 12SM OVC004 01/01 A3006 RMK ST8 SLP183

CYYG;2008-12-24 22:34;CYYG 242234Z 23006KT 10SM FEW004 OVC015 01/ RMK SF2SC6

CYYG;2008-12-24 23:00;CYYG 242300Z 24005KT 10SM FEW007 OVC017 01/01 A3004 RMK SF2SC6 SLP177

CYYG;2008-12-25 00:00;CYYG 250000Z 24002KT 12SM FEW007 OVC016 01/00 A3003 RMK SF1SC7 SLP173

CYYG;2008-12-25 01:00;CYYG 250100Z 18004KT 10SM FEW007 BKN017 OVC087 00/00 A3001 RMK SF1SC4AC3 SLP167

CYYG;2008-12-25 01:32;CYYG 250132Z 17005KT 8SM -SN OVC015 00/ RMK SC8

CYYG;2008-12-25 02:00;CYYG 250200Z 16004KT 8SM -SN OVC014 00/00 A2998 RMK SC8 SLP155

CYYG;2008-12-25 03:00;CYYG 250300Z 17005KT 6SM -SN OVC011 00/00 A2992 RMK SC8 SLP135

CYYG;2008-12-25 03:13;CYYG 250313Z 16006KT 3SM -DZSN BR FEW002 OVC009 01/ RMK SF2SC6

CYYG;2008-12-25 03:33;CYYG 250333Z 16009KT 2SM -DZ BR BKN003 OVC009 01/ RMK SF5SC3

CYYG;2008-12-25 04:00;CYYG 250400Z 17010KT 2SM -DZ BR BKN002 OVC006 01/01 A2983 RMK SF6SF2 PRESFR SLP105

CYYG;2008-12-25 04:21;CYYG 250421Z 16010KT 2SM -RA BR BKN002 OVC006 01/ RMK SF7SF1

CYYG;2008-12-25 05:00;CYYG 250500Z 16012KT 2 1/2SM -RA BR OVC002 02/02 A2974 RMK SF8 SLP075

CYYG;2008-12-25 06:00;CYYG 250600Z 16015KT 3SM -RA BR OVC003 02/02 A2963 RMK SF8 PRESFR SLP036

CYYG;2008-12-25 07:00;CYYG 250700Z 17017KT 6SM -RA BR BKN003 OVC018 04/04 A2952 RMK SF5SC3 PRESFR SLP997

CYYG;2008-12-25 07:19;CYYG 250719Z 18020G28KT 8SM -RA SCT003 BKN019 OVC041 05/ RMK SF3SC3SC2

CYYG;2008-12-25 08:00;CYYG 250800Z 20026G31KT 8SM -RA FEW003 SCT016 OVC033 07/07 A2942 RMK SF2SC2SC4 PRESFR SLP963

CYYG;2008-12-25 09:00;CYYG 250900Z 20019G25KT 8SM -RA FEW004 BKN013 OVC035 07/07 A2936 RMK SF1SC4SC3 SLP943

CYYG;2008-12-25 10:00;CYYG 251000Z 21017G23KT 6SM RA BR FEW005 BKN013 OVC018 07/07 A2931 RMK SF1SC6SC2 SLP928

CYYG;2008-12-25 10:45;CYYG 251045Z 22011G17KT 4SM RA BR BKN003 OVC011 07/ RMK SF5SC3

CYYG;2008-12-25 11:00;CYYG 251100Z 22012KT 5SM RA BR BKN002 OVC012 07/07 A2929 RMK SF6SC2 /R10/ SLP920

CYYG;2008-12-25 11:47;CYYG 251147Z 29017G27KT 6SM -RA BR SCT003 OVC037 05/ RERA RMK SF4SC4

CYYG;2008-12-25 12:00;CYYG 251200Z CCA 29016G27KT 8SM -RA FEW004 OVC034 05/04 A2933 RERA RMK SF2SC6 SLP935

CYYG;2008-12-25 13:00;CYYG 251300Z 24010G15KT 10SM -RA FEW020 BKN035 05/03 A2933 RMK SC1SC6 SLP934

CYYG;2008-12-25 13:25;CYYG 251325Z 25009KT 15SM FEW035 BKN140 04/ RMK SC2AC5

CYYG;2008-12-25 14:00;CYYG 251400Z 25012KT 15SM VCSH BKN025 BKN060 04/03 A2935 RMK SC5SC2 CU ASOCTD SHS/VIRGA ALQDS SLP939

CYYG;2008-12-25 15:00;CYYG 251500Z 26018G28KT 15SM BKN060 05/M00 A2935 RMK SC7 SLP941

CYYG;2008-12-25 16:00;CYYG 251600Z 26017G31KT 15SM BKN040 BKN062 04/M01 A2937 RMK SC5SC2 SLP948

CYYG;2008-12-25 17:00;CYYG 251700Z 29027G36KT 15SM BKN047 04/M03 A2944 RMK SC7 PRESRR SLP969

CYYG;2008-12-25 18:00;CYYG 251800Z 29024G37KT 15SM BKN040 02/M05 A2954 RMK SC6 PRESRR SLP004

CYYG;2008-12-25 19:00;CYYG 251900Z 29016G28KT 15SM BKN042 01/M06 A2961 RMK SC6 PRESRR SLP030

CYYG;2008-12-25 20:00;CYYG 252000Z 29022G28KT 15SM SCT041 00/M07 A2971 RMK SC4 PRESRR SLP062

CYYG;2008-12-25 21:00;CYYG 252100Z 30015G28KT 15SM BKN047 M00/M08 A2979 RMK SC5 PRESRR SLP090

CYYG;2008-12-25 22:00;CYYG 252200Z 29020G30KT 15SM SCT046 M01/M09 A2985 RMK SC3 SLP109

CYYG;2008-12-25 23:00;CYYG 252300Z 30012G20KT 15SM BKN051 M02/M09 A2990 RMK SC5 SLP126

CYYG;2008-12-26 00:00;CYYG 260000Z 30012G22KT 15SM BKN040 M02/M09 A2996 RMK SC6 SLP146

CYYG;2008-12-26 01:00;CYYG 260100Z 31019G25KT 15SM SCT042 M04/M12 A3002 RMK SC4 PRESRR SLP167

CYYG;2008-12-26 02:00;CYYG 260200Z 31013G25KT 15SM SCT045 M05/M13 A3008 RMK SC3 PRESRR SLP187

CYYG;2008-12-26 03:00;CYYG 260300Z 30014G21KT 15SM BKN039 M06/M13 A3012 RMK SC6 SLP201

CYYG;2008-12-26 04:00;CYYG 260400Z 29019G25KT 15SM BKN034 M07/M13 A3016 RMK SC6 SLP216

CYYG;2008-12-26 05:00;CYYG 260500Z 29013G20KT 15SM BKN033 M08/M13 A3020 RMK SC6 SLP228

CYYG;2008-12-26 06:00;CYYG 260600Z 31015G21KT 15SM OVC028 M09/M14 A3025 RMK SC8 SLP246

CYYG;2008-12-26 07:00;CYYG 260700Z CCA 30014G20KT 15SM OVC027 M10/M14 A3029 RMK SC8 SLP259

CYYG;2008-12-26 08:00;CYYG 260800Z CCA 31012G18KT 15SM OVC026 M10/M15 A3032 RMK SC8 SLP269

CYYG;2008-12-26 09:00;CYYG 260900Z 31014KT 15SM OVC027 M11/M14 A3033 RMK SC8 SLP274

CYYG;2008-12-26 09:14;CYYG 260914Z 30013KT 12SM -SHSN OVC026 M11/ RMK SC8

CYYG;2008-12-26 10:00;CYYG 261000Z 31010G17KT 12SM -SHSN OVC027 M11/M14 A3036 RMK SC8 SLP285

CYYG;2008-12-26 11:00;CYYG 261100Z 30011G17KT 10SM -SHSN DRSN OVC025 M11/M13 A3040 RMK SC8 SLP297

CYYG;2008-12-26 12:00;CYYG 261200Z 30014KT 8SM -SHSN DRSN BKN026 M11/M14 A3044 RMK SC7 SLP312

CYYG;2008-12-26 13:00;CYYG 261300Z 29011G16KT 6SM -SHSN DRSN BKN028 M11/M13 A3047 RMK SC7 SLP322

CYYG;2008-12-26 14:00;CYYG 261400Z 31010G18KT 4SM -SHSN DRSN BKN027 M11/M13 A3050 RMK SC7 SLP332

CYYG;2008-12-26 15:00;CYYG 261500Z 29012KT 4SM -SHSN DRSN SCT020 M10/M13 A3049 RMK SC4 SLP329

CYYG;2008-12-26 16:00;CYYG 261600Z 30011G17KT 7SM -SHSN DRSN SCT020 M10/M14 A3051 RMK SC4 SLP334

CYYG;2008-12-26 17:00;CYYG 261700Z 30011G16KT 8SM -SHSN DRSN SCT015 M10/M13 A3052 RMK SC4 SLP337

CYYG;2008-12-26 18:00;CYYG 261800Z 32013KT 15SM -SHSN DRSN FEW017 M10/M14 A3052 RMK SC2 VIS NW-NE 5 SLP339

CYYG;2008-12-26 19:00;CYYG 261900Z 29012KT 15SM BKN021 M11/M14 A3054 RMK SC5 SLP346

CYYG;2008-12-26 20:00;CYYG 262000Z 31007KT 15SM BKN026 M11/M14 A3057 RMK SC6 SLP355

CYYG;2008-12-26 21:00;CYYG 262100Z 27008KT 15SM BKN024 M12/M15 A3058 RMK SC6 PCPN VRY LGT SLP360

CYYG;2008-12-26 22:00;CYYG 262200Z 26006KT 15SM -SHSN BKN023 M12/M16 A3059 RMK SC6 PCPN VRY LGT SLP362

CYYG;2008-12-26 22:44;CYYG 262244Z 28005KT 15SM FEW020 SCT220 M12/ RMK SC2CI1

CYYG;2008-12-26 23:00;CYYG 262300Z 27005KT 15SM FEW020 FEW200 SCT220 M13/M16 A3060 RMK SC1CI1CI1 SLP365

CYYG;2008-12-27 00:00;CYYG 270000Z 25004KT 15SM OVC180 M12/M17 A3060 RMK AC8 SLP366

CYYG;2008-12-27 01:00;CYYG 270100Z 27007KT 15SM FEW025 OVC180 M12/M17 A3061 RMK SC1AC7 SLP369

CYYG;2008-12-27 02:00;CYYG 270200Z 27007KT 15SM OVC180 M12/M17 A3061 RMK AC7 SLP369

CYYG;2008-12-27 03:00;CYYG 270300Z 28005KT 15SM FEW140 OVC160 M12/M17 A3062 RMK AC2AC6 SLP373

CYYG;2008-12-27 04:00;CYYG 270400Z 28005KT 15SM FEW140 SCT160 M12/M17 A3061 RMK AC2AC2 SLP369

CYYG;2008-12-27 05:00;CYYG 270500Z 32002KT 15SM BKN160 M12/M18 A3059 RMK AC5 SLP363

CYYG;2008-12-27 06:00;CYYG 270600Z 28003KT 15SM FEW150 M13/M17 A3061 RMK AC2 SLP370

CYYG;2008-12-27 07:00;CYYG 270700Z 24002KT 15SM FEW150 M13/M17 A3060 RMK AC1 SLP368

CYYG;2008-12-27 08:00;CYYG 270800Z 00000KT 15SM FEW180 M14/M17 A3061 RMK AC2 SLP370

CYYG;2008-12-27 09:00;CYYG 270900Z 00000KT 15SM FEW220 M13/M16 A3060 RMK CI2 SLP365

CYYG;2008-12-27 10:00;CYYG 271000Z 23002KT 15SM SCT120 M12/M16 A3059 RMK AC4 SLP364

CYYG;2008-12-27 11:00;CYYG 271100Z 00000KT 15SM FEW100 BKN120 BKN220 M11/M14 A3058 RMK AC2AC3CI1 SLP359

CYYG;2008-12-27 12:00;CYYG 271200Z 19002KT 15SM BKN110 BKN220 M11/M14 A3059 RMK AC6CI1 SLP364

CYYG;2008-12-27 13:00;CYYG 271300Z 15003KT 15SM BKN120 BKN220 M10/M14 A3058 RMK AC5CI1 SLP358

CYYG;2008-12-27 14:00;CYYG 271400Z 16005KT 15SM OVC100 M09/M14 A3058 RMK AC8 SLP361

CYYG;2008-12-27 15:00;CYYG 271500Z 21007KT 15SM OVC065 M07/M13 A3057 RMK SC8 SLP356

CYYG;2008-12-27 16:00;CYYG 271600Z 19009KT 15SM OVC040 M07/M14 A3055 RMK SC8 SLP349

CYYG;2008-12-27 16:51;CYYG 271651Z 18009KT 15SM -SHSN OVC080 M07/ RMK AC8

CYYG;2008-12-27 17:00;CYYG 271700Z 19009KT 15SM -SHSN OVC075 M07/M13 A3052 RMK AC8 SLP341

CYYG;2008-12-27 18:00;CYYG 271800Z 17009KT 15SM -SHSN OVC086 M07/M11 A3049 RMK AS8 SLP329

CYYG;2008-12-27 19:00;CYYG 271900Z 18008KT 15SM -SHSN OVC083 M06/M11 A3047 RMK AC8 SLP322

CYYG;2008-12-27 20:00;CYYG 272000Z 16008KT 15SM -SHSN OVC066 M06/M11 A3047 RMK AS8 PCPN VRY LGT SLP320

CYYG;2008-12-27 21:00;CYYG 272100Z 16011KT 15SM -SHSN OVC058 M05/M11 A3044 RMK SC8 SLP312

CYYG;2008-12-27 22:00;CYYG 272200Z 14010KT 15SM -SHSN OVC048 M05/M10 A3041 RMK SC8 PCPN VRY LGT SLP303

CYYG;2008-12-27 23:00;CYYG 272300Z 16013KT 15SM -SHSN BKN055 OVC069 M04/M09 A3039 RMK SC5AC3 PCPN VRY LGT SLP294

CYYG;2008-12-28 00:00;CYYG 280000Z 15012KT 15SM -SHSN BKN055 BKN067 OVC079 M04/M08 A3038 RMK SC5AC2AC2 PCPN VERY LGT SLP290

CYYG;2008-12-28 00:51;CYYG 280051Z 16012KT 3SM -SN BKN012 OVC030 M04/ RMK SC6SC2

CYYG;2008-12-28 01:00;CYYG 280100Z 16014KT 3SM -SN BKN012 OVC030 M04/M06 A3035 RMK SC6SC2 SLP280

CYYG;2008-12-28 02:00;CYYG 280200Z 15011G18KT 3SM -SN SCT009 OVC028 M03/M05 A3032 RMK SF3SC5 SLP272

CYYG;2008-12-28 03:00;CYYG 280300Z 15013KT 5SM -SN SCT007 OVC033 M03/M04 A3028 RMK SF4SC4 SLP257

CYYG;2008-12-28 03:21;CYYG 280321Z 15012G17KT 3SM -SN DRSN BKN007 OVC026 M03/ RMK SF6SC2

CYYG;2008-12-28 04:00;CYYG 280400Z 15015KT 3SM -SN DRSN OVC007 M02/M03 A3023 RMK SF8 SLP241

CYYG;2008-12-28 05:00;CYYG 280500Z CCA 15013KT 12SM -FZRA BKN006 OVC011 M02/M02 A3018 RMK SF7SC1 SLP224

CYYG;2008-12-28 06:00;CYYG 280600Z 15012G17KT 10SM -FZRA OVC007 M01/M01 A3015 RMK SF8 SLP212

CYYG;2008-12-28 07:00;CYYG 280700Z 15013KT 10SM -FZRA OVC007 M00/M01 A3011 RMK SF8 SLP199

CYYG;2008-12-28 08:00;CYYG 280800Z 15013KT 10SM -FZRA OVC007 00/M00 A3006 RMK SF8 SLP183

CYYG;2008-12-28 08:53;CYYG 280853Z 16010KT 10SM -RA OVC007 00/ REFZRA RMK SF8

CYYG;2008-12-28 09:00;CYYG 280900Z 15010KT 10SM -RA BKN005 OVC012 00/00 A3004 REFZRA RMK SF7SC1 SLP175

CYYG;2008-12-28 10:00;CYYG 281000Z 15010KT 5SM -RA BKN005 OVC010 01/01 A3001 RMK SF7SC1 SLP167

CYYG;2008-12-28 11:00;CYYG 281100Z 15013KT 8SM -RA BKN005 OVC010 01/01 A2998 RMK SF7SC1 SLP154

CYYG;2008-12-28 12:00;CYYG 281200Z 16012G17KT 4SM -RA OVC006 01/01 A2994 RMK SF8 SLP141

CYYG;2008-12-28 13:00;CYYG 281300Z 16015KT 2 1/2SM -RA BR OVC004 02/02 A2991 RMK SF8 RGD CIG SLP131

CYYG;2008-12-28 14:00;CYYG 281400Z 16015KT 2SM -RA BR OVC003 02/02 A2986 RMK SF8 CIG RGD SLP115

CYYG;2008-12-28 14:06;CYYG 281406Z 16016KT 5SM -SHRA BR OVC003 02/ RMK SF8 CIG RGD

CYYG;2008-12-28 14:53;CYYG 281453Z 17018KT 10SM OVC005 03/ RMK SF8 CIG RGD

CYYG;2008-12-28 15:00;CYYG 281500Z 17015G21KT 12SM OVC004 03/03 A2982 RMK SF8 CIG RGD SLP102

CYYG;2008-12-28 16:00;CYYG 281600Z 17013G18KT 10SM OVC003 03/03 A2978 RMK SF8 CIG RGD SLP087

CYYG;2008-12-28 16:50;CYYG 281650Z 17014KT 1SM R03/P6000FT/N BR OVC002 04/ RMK SF8 CIG RGD

CYYG;2008-12-28 17:00;CYYG 281700Z 17013KT 3/4SM R03/P6000FT/N BR OVC002 04/04 A2972 RMK SF8 CIG RGD/PRESFR SLP066

CYYG;2008-12-28 17:11;CYYG 281711Z 18011G16KT 1/2SM R03/P6000FT/N FG VV002 04/ RMK FG8

CYYG;2008-12-28 17:44;CYYG 281744Z 19012KT 3/8SM R03/3000FT/D FG VV002 05/ RMK FG8

CYYG;2008-12-28 18:00;CYYG 281800Z 19013KT 1/4SM R03/1400V2400FT/N FG VV001 04/04 A2972 RMK FG8 SLP067

CYYG;2008-12-28 18:08;CYYG 281808Z 19013KT 1/8SM R03/1400FT/N FG VV001 04/ RMK FG8

CYYG;2008-12-28 19:00;CYYG 281900Z 20014KT 1/4SM R03/2000FT/U FG VV002 05/05 A2968 RMK FG8 SLP053

CYYG;2008-12-28 19:45;CYYG 281945Z 20015KT 3/4SM R03/4500VP6000FT/U BR VV002 05/ RMK FG8

CYYG;2008-12-28 20:00;CYYG 282000Z 19016KT 3/4SM R03/P6000FT/D BR VV002 05/05 A2966 RMK FG8 CIG RAG SLP044

CYYG;2008-12-28 20:34;CYYG 282034Z 18015KT 2SM BR OVC003 05/ RMK SF8 CIG RAG

CYYG;2008-12-28 21:00;CYYG 282100Z 18013KT 2 1/2SM BR OVC003 05/05 A2963 RMK SF8 CIG RAG SLP036

CYYG;2008-12-28 21:25;CYYG 282125Z 19014G19KT 2SM BR OVC002 05/ RMK SF8

CYYG;2008-12-28 22:00;CYYG 282200Z 18014KT 1SM R03/4000VP6000FT/N BR OVC002 05/05 A2958 RMK SF8 CIG RAG SLP020

CYYG;2008-12-28 22:14;CYYG 282214Z 17011KT 1/2SM R03/2600VP6000FT/D FG VV002 04/ RMK FG8

CYYG;2008-12-28 22:45;CYYG 282245Z 19009KT 5SM BR BKN002 OVC008 04/ RMK SF5SC3 CIG RAG

CYYG;2008-12-28 23:00;CYYG 282300Z 19014KT 10SM FEW003 OVC007 05/05 A2955 RMK SF2SF6 SLP010

CYYG;2008-12-28 23:27;CYYG 282327Z 18013KT 8SM OVC003 06/ RMK SF8 CIG RAG

CYYG;2008-12-28 23:43;CYYG 282343Z 18013KT 4SM BR OVC002 06/ RMK SF8

CYYG;2008-12-29 00:00;CYYG 290000Z 18018KT 3SM -DZ BR OVC002 07/07 A2949 RMK SF8 PRESFR SLP988

CYYG;2008-12-29 00:38;CYYG 290038Z 19017G24KT 5/8SM R03/3500VP6000FT/D -DZ BR BKN002 OVC006 06/ RMK SF7SF1

CYYG;2008-12-29 01:00;CYYG 290100Z 19018KT 5/8SM R03/3500V6000FT/D -DZ BR OVC002 06/06 A2946 RMK SF8 SLP978

CYYG;2008-12-29 01:23;CYYG 290123Z 18016G21KT 2 1/2SM -DZ BR BKN002 OVC006 07/ RMK SF6SF2

CYYG;2008-12-29 02:00;CYYG 290200Z 18013KT 3/4SM R03/P6000FT/N -DZ BR OVC002 07/07 A2943 RMK SF8 SLP967

CYYG;2008-12-29 02:15;CYYG 290215Z 19012KT 1/2SM R03/2400VP6000FT/D -DZ FG VV002 06/ RMK FG8

CYYG;2008-12-29 02:45;CYYG 290245Z 21010KT 2 1/2SM R03/2600VP6000FT/U -DZ BR OVC002 07/ RMK SF8

CYYG;2008-12-29 03:00;CYYG 290300Z 21009KT 8SM FEW002 OVC006 08/08 A2940 RMK SF2SF6 SLP958

CYYG;2008-12-29 03:22;CYYG 290322Z 22006KT 6SM BR OVC004 08/ RMK SF8

CYYG;2008-12-29 04:00;CYYG 290400Z 25007KT 8SM BKN004 OVC015 08/08 A2939 RMK SF7SC1 SLP953

CYYG;2008-12-29 05:00;CYYG 290500Z 25010G19KT 8SM OVC004 08/08 A2940 RMK SF8 SLP956

CYYG;2008-12-29 06:00;CYYG 290600Z 27013G21KT 12SM FEW007 BKN015 OVC050 08/07 A2941 RMK SF2SC3SC2 SLP961

CYYG;2008-12-29 07:00;CYYG 290700Z 29017G24KT 15SM SCT030 OVC059 05/M02 A2946 RMK SC4SC4 SLP978

CYYG;2008-12-29 08:00;CYYG 290800Z 27013G18KT 15SM SCT055 04/M02 A2946 RMK SC3 SLP976

CYYG;2008-12-29 09:00;CYYG 290900Z 26016G21KT 15SM FEW050 04/M02 A2944 RMK SC1 SLP971

CYYG;2008-12-29 10:00;CYYG 291000Z 26011G16KT 15SM FEW050 04/M01 A2946 RMK SC1 SLP977

CYYG;2008-12-29 11:00;CYYG 291100Z 25013KT 15SM FEW050 03/M02 A2946 RMK SC1 SLP977

CYYG;2008-12-29 12:00;CYYG 291200Z 25010G16KT 15SM SCT050 03/M02 A2948 RMK SC2 SLP983

CYYG;2008-12-29 13:00;CYYG 291300Z 27013KT 15SM SCT050 03/M02 A2950 RMK SC2 SLP989

CYYG;2008-12-29 14:00;CYYG 291400Z 28013G22KT 15SM FEW050 04/M02 A2950 RMK SC1 SLP992

CYYG;2008-12-29 15:00;CYYG 291500Z 29021G29KT 15SM FEW050 04/M03 A2952 RMK SC1 SLP996

CYYG;2008-12-29 16:00;CYYG 291600Z 28014G22KT 15SM FEW050 FEW250 04/M03 A2951 RMK SC1CI1 SLP994

CYYG;2008-12-29 17:00;CYYG 291700Z 29013G18KT 15SM FEW050 SCT250 04/M03 A2951 RMK SC1CI1 SLP994

CYYG;2008-12-29 18:00;CYYG 291800Z 30013G20KT 15SM FEW050 SCT250 03/M04 A2951 RMK SC1CI1 SLP993

CYYG;2008-12-29 19:00;CYYG 291900Z 31011G17KT 15SM FEW050 SCT250 03/M05 A2952 RMK SC1CI1 SLP997

CYYG;2008-12-29 20:00;CYYG 292000Z 29011G19KT 15SM FEW050 SCT250 01/M07 A2955 RMK SC1CI1 SLP006

CYYG;2008-12-29 21:00;CYYG 292100Z 29012G17KT 15SM FEW250 01/M07 A2955 RMK CI2 SLP010

CYYG;2008-12-29 22:00;CYYG 292200Z 32006KT 15SM FEW250 M01/M07 A2954 RMK CI2 SLP005

CYYG;2008-12-29 23:00;CYYG 292300Z 33006KT 15SM FEW250 M01/M07 A2955 RMK CI2 SLP007

CYYG;2008-12-30 00:00;CYYG 300000Z 32006KT 15SM SCT200 M01/M07 A2955 RMK CI3 SLP010

CYYG;2008-12-30 01:00;CYYG 300100Z 34008KT 15SM FEW025 BKN180 M02/M23 A2954 RMK SC2AC4 SLP005

CYYG;2008-12-30 02:00;CYYG 300200Z 32008KT 15SM FEW025 BKN170 M02/M07 A2954 RMK SC2AC5 SLP006

CYYG;2008-12-30 03:00;CYYG 300300Z 34007KT 15SM FEW025 BKN170 M03/M06 A2953 RMK SC1AC6 SLP001

CYYG;2008-12-30 04:00;CYYG 300400Z 34007KT 15SM FEW023 OVC170 M03/M06 A2952 RMK SC2AC6 SLP998

CYYG;2008-12-30 05:00;CYYG 300500Z 34007KT 15SM BKN020 OVC170 M02/M06 A2951 RMK SC5AC3 SLP996

CYYG;2008-12-30 06:00;CYYG 300600Z 31004KT 15SM BKN018 OVC170 M03/M05 A2951 RMK SC6AC2 SLP994

CYYG;2008-12-30 07:00;CYYG 300700Z 31005KT 15SM OVC020 M02/M05 A2950 RMK SC8 SLP990

CYYG;2008-12-30 08:00;CYYG 300800Z CCA 31005KT 15SM -SHSN OVC022 M03/M05 A2949 RMK SC8 SLP988

CYYG;2008-12-30 09:00;CYYG 300900Z 33003KT 15SM -SHSN OVC025 M03/M05 A2948 RMK SC8 SLP985

CYYG;2008-12-30 10:00;CYYG 301000Z 35004KT 15SM -SHSN OVC026 M03/M05 A2947 RMK SC8 SLP982

CYYG;2008-12-30 11:00;CYYG 301100Z 00000KT 10SM -SHSN SCT012 OVC026 M03/M04 A2946 RMK SC3SC5 SLP979

CYYG;2008-12-30 12:00;CYYG 301200Z 30002KT 12SM -SHSN FEW012 OVC035 M03/M04 A2945 RMK SC2SC6 SLP975

CYYG;2008-12-30 12:38;CYYG 301238Z 34002KT 12SM FEW012 BKN035 M03/ RMK SC2SC5

CYYG;2008-12-30 13:00;CYYG 301300Z 36003KT 12SM BKN013 BKN035 M02/M05 A2945 RMK SC6SC2 SLP974

CYYG;2008-12-30 14:00;CYYG 301400Z 01004KT 15SM VCSH BKN013 BKN035 M02/M05 A2944 RMK SC6SC2 VIS NE-E 5 -SHSN SLP971

CYYG;2008-12-30 14:43;CYYG 301443Z 02008KT 15SM FEW013 BKN034 M02/ RMK SC2SC5

CYYG;2008-12-30 15:00;CYYG 301500Z 36008KT 15SM SCT013 BKN034 M02/M05 A2943 RMK SC3SC4 SLP969

CYYG;2008-12-30 16:00;CYYG 301600Z 36007KT 15SM VCSH SCT013 OVC034 M02/M05 A2941 RMK SC3SC5 SLP962

CYYG;2008-12-30 16:26;CYYG 301626Z 01009KT 12SM -SHSN BKN013 OVC035 M02/ RMK SC6SC2

CYYG;2008-12-30 17:00;CYYG 301700Z 01009KT 12SM -SHSN BKN013 OVC035 M03/M06 A2940 RMK SC6SC2 SLP959

CYYG;2008-12-30 17:06;CYYG 301706Z 01009KT 12SM -SG BKN015 OVC025 M03/ RMK SC6SC2

CYYG;2008-12-30 18:00;CYYG 301800Z 36010G16KT 12SM -SG OVC015 M03/M06 A2940 RMK SC8 SLP959

CYYG;2008-12-30 19:00;CYYG 301900Z 01010G18KT 12SM -SG OVC015 M03/M07 A2941 RMK SC8 SLP962

CYYG;2008-12-30 19:45;CYYG 301945Z 36008KT 15SM -SG OVC020 M03/ RMK SC8

CYYG;2008-12-30 20:00;CYYG 302000Z 01010G15KT 15SM -SG OVC022 M03/M07 A2942 RMK SC8 SLP966

CYYG;2008-12-30 20:47;CYYG 302047Z 01009G17KT 12SM -SHSN OVC021 M03/ RMK SC8

CYYG;2008-12-30 21:00;CYYG 302100Z 35009G16KT 15SM -SHSN OVC021 M03/M07 A2944 RMK SC8 SLP970

CYYG;2008-12-30 22:00;CYYG 302200Z 34009KT 7SM -SHSN OVC020 M04/M07 A2945 RMK SC8 SLP975

CYYG;2008-12-30 23:00;CYYG 302300Z 35009KT 7SM VCSH OVC020 M04/M07 A2946 RMK SC8 SLP979

CYYG;2008-12-30 23:18;CYYG 302318Z 34007KT 7SM -SHSN OVC020 M04/ RMK SC8

CYYG;2008-12-31 00:00;CYYG 310000Z 35011KT 15SM -SHSN OVC020 M03/M07 A2948 RMK SC8 SLP984

CYYG;2008-12-31 01:00;CYYG 310100Z 34010G18KT 15SM -SHSN OVC023 M03/M07 A2949 RMK SC8 SLP989

CYYG;2008-12-31 02:00;CYYG 310200Z 35011KT 15SM -SHSN OVC020 M03/M07 A2949 RMK SC8 SLP988

CYYG;2008-12-31 03:00;CYYG 310300Z 34007KT 15SM -SHSN OVC018 M03/M06 A2949 RMK SC8 SLP988

CYYG;2008-12-31 04:00;CYYG 310400Z 33011KT 15SM OVC022 M03/M07 A2950 RMK SC8 SLP990

CYYG;2008-12-31 05:00;CYYG 310500Z 33007KT 15SM -SHSN OVC023 M03/M07 A2950 RMK SC8 SLP992

CYYG;2008-12-31 06:00;CYYG 310600Z 32008KT 15SM OVC023 M03/M07 A2952 RMK SC8 SLP001

CYYG;2008-12-31 07:00;CYYG 310700Z 30006KT 15SM -SHSN OVC022 M04/M07 A2954 RMK SC8 SLP006

CYYG;2008-12-31 08:00;CYYG 310800Z 29007KT 15SM -SHSN OVC023 M04/M07 A2955 RMK SC8 SLP009

CYYG;2008-12-31 09:00;CYYG 310900Z 31009KT 10SM -SHSN OVC023 M04/M06 A2956 RMK SC8 SLP014

CYYG;2008-12-31 10:00;CYYG 311000Z 31010KT 15SM -SHSN FEW010 OVC023 M05/M06 A2957 RMK SC2SC6 SLP015

CYYG;2008-12-31 11:00;CYYG 311100Z 29007KT 12SM -SHSN FEW010 OVC023 M05/M07 A2958 RMK SC2SC6 SLP019

CYYG;2008-12-31 12:00;CYYG 311200Z 27007KT 12SM -SHSN FEW010 OVC020 M05/M07 A2959 RMK SC2SC6 SLP024

CYYG;2008-12-31 13:00;CYYG 311300Z 29006KT 6SM -SHSN FEW010 OVC025 M05/M07 A2960 RMK SC2SC6 SLP026

CYYG;2008-12-31 14:00;CYYG 311400Z 29007KT 15SM -SHSN FEW010 BKN030 M05/M07 A2961 RMK SC2SC6 SLP030

CYYG;2008-12-31 14:21;CYYG 311421Z 27007KT 15SM FEW010 BKN030 M05/ RMK SC1SC6

CYYG;2008-12-31 15:00;CYYG 311500Z 30007KT 15SM FEW020 BKN200 M04/M07 A2960 RMK SC2CI1 SLP025

CYYG;2008-12-31 16:00;CYYG 311600Z 28008KT 15SM BKN017 BKN030 BKN200 M04/M08 A2960 RMK SC5SC2CI0 SLP025

CYYG;2008-12-31 17:00;CYYG 311700Z 27006KT 15SM SCT020 SCT200 M04/M08 A2957 RMK SC3CI0 SLP017

CYYG;2008-12-31 18:00;CYYG 311800Z 27004KT 15SM BKN020 BKN200 M04/M09 A2956 RMK SC6CI0 SLP012

CYYG;2008-12-31 19:00;CYYG 311900Z 24004KT 15SM BKN024 OVC200 M04/M08 A2958 RMK SC7CI0 SLP018

CYYG;2008-12-31 20:00;CYYG 312000Z 00000KT 15SM BKN024 BKN200 M04/M09 A2957 RMK SC6CI0 SLP017

CYYG;2008-12-31 21:00;CYYG 312100Z 06002KT 15SM BKN021 BKN200 M05/M08 A2954 RMK SC6CI1 SLP006

CYYG;2008-12-31 21:40;CYYG 312140Z 09004KT 15SM -SHSN BKN023 M05/ RMK SC7

CYYG;2008-12-31 22:00;CYYG 312200Z 15003KT 15SM -SHSN OVC020 M05/M07 A2953 RMK SC8 SLP002

CYYG;2008-12-31 23:00;CYYG 312300Z 18002KT 15SM -SHSN OVC022 M05/M07 A2955 RMK SC8 SLP011

