CYYG;2009-01-01 01:00;CYYG 010100Z 02002KT 15SM -SHSN OVC036 M05/M07 A2951 RMK SC8 SLP996

CYYG;2009-01-01 02:00;CYYG 010200Z 02007KT 12SM -SHSN OVC037 M05/M07 A2947 RMK SC8 SLP982

CYYG;2009-01-01 03:00;CYYG 010300Z 01007KT 10SM -SN FEW018 OVC026 M05/M06 A2943 RMK SC1SC7 SLP969

CYYG;2009-01-01 03:19;CYYG 010319Z 02010KT 2 1/2SM -SN OVC017 M05/ RMK SC8

CYYG;2009-01-01 03:25;CYYG 010325Z 02010KT 1SM R03/4500VP6000FT/D -SN VV010 M05/ RMK SN8

CYYG;2009-01-01 03:43;CYYG 010343Z 01011KT 3/4SM R03/1600V4500FT/U -SN VV007 M05/ RMK SN8

CYYG;2009-01-01 04:00;CYYG 010400Z 01012G17KT 5/8SM R03/2200V4500FT/U -SN DRSN VV006 M05/M05 A2936 RMK SN8 PRESFR /S01/ SLP947

CYYG;2009-01-01 04:29;CYYG 010429Z 03014KT 1SM R03/P6000FT/U -SN DRSN OVC011 M04/ RMK SN3SC5

CYYG;2009-01-01 05:00;CYYG 010500Z 03018KT 3/4SM R03/2200V3000FT/N -SN DRSN OVC010 M04/M05 A2933 RMK SN7SC1 /S02/ SLP937

CYYG;2009-01-01 05:15;CYYG 010515Z 04015G21KT 5/8SM R03/2000V4000FT/N -SN DRSN VV006 M04/ RMK SN8

CYYG;2009-01-01 05:33;CYYG 010533Z 04017G25KT 1/2SM R03/1800V2800FT/D SN DRSN VV005 M04/ RMK SN8

CYYG;2009-01-01 06:00;CYYG 010600Z 03020G27KT 3/8SM R03/2400FT/N SN BLSN VV005 M04/M05 A2929 RMK BLSN8 /S03/ SLP920

CYYG;2009-01-01 06:37;CYYG 010637Z 03024G29KT 3/8SM R03/1600V2400FT/N SN BLSN VV004 M05/ RMK BLSN8

CYYG;2009-01-01 07:00;CYYG 010700Z 02019G27KT 1/2SM R03/2000FT/N -SN BLSN VV006 M04/M05 A2925 RMK BLSN8 /S02/ SLP906

CYYG;2009-01-01 07:05;CYYG 010705Z 02021G27KT 3/4SM R03/2000V4000FT/U -SN BLSN OVC020 M04/ RMK BLSN7SC1

CYYG;2009-01-01 08:00;CYYG 010800Z 04022G28KT 5/8SM R03/1800V3000FT/D -SN BLSN OVC015 M05/M05 A2921 RMK BLSN7SC1 /S04/ SLP894

CYYG;2009-01-01 08:48;CYYG 010848Z 03020G29KT 3/8SM SN BLSN VV004 M05/ RMK BLSN8

CYYG;2009-01-01 09:00;CYYG 010900Z 03018G26KT 3/8SM SN BLSN VV004 M05/M05 A2918 RMK BLSN8 /S06/ SLP885

CYYG;2009-01-01 10:00;CYYG 011000Z 02018G24KT 3/8SM SN BLSN VV003 M05/M05 A2917 RMK BLSN8 /S08/ SLP880

CYYG;2009-01-01 11:00;CYYG 011100Z 01016G24KT 1/4SM SN +BLSN VV003 M04/M04 A2914 RMK BLSN8 /S10/ SLP870

CYYG;2009-01-01 12:00;CYYG 011200Z 36017G30KT 1/4SM SN +BLSN VV004 M04/M04 A2911 RMK BLSN8 /S15/ SLP861

CYYG;2009-01-01 13:00;CYYG 011300Z 35022G35KT 1/4SM SN +BLSN VV002 M04/M04 A2908 RMK BLSN8 /S04/ SLP851

CYYG;2009-01-01 14:00;CYYG 011400Z 36025G39KT 1/4SM SN +BLSN VV002 M03/M03 A2906 RMK BLSN8 SLP844

CYYG;2009-01-01 15:00;CYYG 011500Z 35021G36KT 1/4SM SN +BLSN VV002 M03/M03 A2905 RMK BLSN8 SLP839

CYYG;2009-01-01 15:41;CYYG 011541Z 35028G40KT 1/4SM SN +BLSN VV001 M04/ RMK BLSN8

CYYG;2009-01-01 16:00;CYYG 011600Z 35025G40KT 1/4SM SN +BLSN VV001 M04/M04 A2902 RMK BLSN8 /S16/ SLP831

CYYG;2009-01-01 17:00;CYYG 011700Z 35024G37KT 3/8SM SN BLSN VV001 M05/M05 A2903 RMK BLSN8 /S03/ SLP834

CYYG;2009-01-01 18:00;CYYG 011800Z 34025G39KT 1/4SM SN +BLSN VV001 M05/M05 A2906 RMK BLSN8 /S21/ SLP842

CYYG;2009-01-01 19:00;CYYG 011900Z 34025G40KT 1/8SM SN +BLSN VV001 M05/M06 A2908 RMK BLSN8 /S02/ SLP851

CYYG;2009-01-01 20:00;CYYG 012000Z 33028G39KT 0SM SN +BLSN VV001 M06/M06 A2910 RMK BLSN8 /S02/ SLP858

CYYG;2009-01-01 21:00;CYYG 012100Z 33027G36KT 1/4SM -SN +BLSN VV001 M06/M06 A2914 RMK BLSN8 /S05/ SLP870

CYYG;2009-01-01 22:00;CYYG 012200Z 32023G38KT 1/4SM -SN +BLSN VV001 M06/M07 A2916 RMK BLSN8 SLP877

CYYG;2009-01-01 23:00;CYYG 012300Z CCA 32021G31KT 1/4SM -SN +BLSN VV001 M06/M07 A2918 RMK BLSN8 /S07/ SLP884

CYYG;2009-01-02 00:00;CYYG 020000Z 31027G37KT 1/4SM -SN +BLSN VV001 M07/M08 A2919 RMK BLSN8 SLP888

CYYG;2009-01-02 01:00;CYYG 020100Z 31021G32KT 1/4SM -SHSN +BLSN VV001 M07/M08 A2920 RMK BLSN8 SLP891

CYYG;2009-01-02 02:00;CYYG 020200Z 31022G32KT 1/4SM -SHSN +BLSN VV001 M07/M08 A2920 RMK BLSN8 SLP892

CYYG;2009-01-02 03:00;CYYG 020300Z 31027G36KT 1/4SM -SHSN +BLSN VV001 M07/M09 A2922 RMK BLSN8 SLP896

CYYG;2009-01-02 03:46;CYYG 020346Z 31019G28KT 3/8SM -SHSN BLSN VV002 M08/ REBLSN RMK BLSN8

CYYG;2009-01-02 04:00;CYYG 020400Z 31020G33KT 3/8SM -SHSN BLSN VV002 M08/M09 A2924 REBLSN RMK BLSN8 SLP905

CYYG;2009-01-02 05:00;CYYG 020500Z 30022G30KT 3/8SM -SHSN BLSN VV002 M09/M10 A2926 RMK BLSN8 SLP912

CYYG;2009-01-02 06:00;CYYG 020600Z 30023G31KT 3/8SM -SHSN BLSN VV002 M09/M11 A2929 RMK BLSN8 SLP921

CYYG;2009-01-02 07:00;CYYG 020700Z 30020G26KT 3/8SM -SHSN BLSN VV002 M10/M11 A2932 RMK BLSN8 SLP931

CYYG;2009-01-02 08:00;CYYG 020800Z 29019G27KT 1/4SM -SHSN +BLSN VV002 M11/M12 A2936 RMK BLSN8 SLP944

CYYG;2009-01-02 09:00;CYYG 020900Z 29018G25KT 1/4SM -SHSN +BLSN VV002 M11/M11 A2937 RMK BLSN8 SLP948

CYYG;2009-01-02 10:00;CYYG 021000Z 29019G26KT 3/8SM -SHSN BLSN VV002 M11/M12 A2939 RMK BLSN8 SLP954

CYYG;2009-01-02 10:49;CYYG 021049Z 29018G24KT 1/2SM -SHSN BLSN VV003 M11/ RMK BLSN8

CYYG;2009-01-02 11:00;CYYG 021100Z 29017G28KT 5/8SM -SHSN BLSN VV003 M11/M12 A2941 RMK BLSN8 SLP963

CYYG;2009-01-02 11:22;CYYG 021122Z 29020G25KT 1SM -SHSN BLSN OVC008 M11/ RMK BLSN7SC1

CYYG;2009-01-02 11:40;CYYG 021140Z 29017G25KT 2SM -SHSN BLSN OVC009 M11/ RMK BLSN5SC3

CYYG;2009-01-02 12:00;CYYG 021200Z 29019G25KT 2SM -SHSN BLSN OVC009 M11/M13 A2945 RMK BLSN5SC3 SLP975

CYYG;2009-01-02 12:46;CYYG 021246Z 29018G25KT 3SM -SHSN BLSN OVC009 M11/ RMK BLSN5SC3

CYYG;2009-01-02 13:00;CYYG 021300Z 29014G22KT 3SM -SHSN BLSN OVC010 M11/M13 A2947 RMK BLSN5SC3 SLP983

CYYG;2009-01-02 14:00;CYYG 021400Z CCA 29019G25KT 6SM -SHSN DRSN SCT015 OVC220 M11/M13 A2950 RMK SC3CI4 SLP992

CYYG;2009-01-02 14:42;CYYG 021442Z 29017G25KT 15SM DRSN FEW015 OVC250 M11/ RMK SC2CI5

CYYG;2009-01-02 15:00;CYYG 021500Z 29016G26KT 15SM DRSN FEW015 OVC250 M10/M13 A2951 RMK SC1CI6 SLP995

CYYG;2009-01-02 16:00;CYYG 021600Z 29011G18KT 6SM -SHSN DRSN SCT008 BKN020 OVC250 M10/M12 A2950 RMK SF3SC2CI2 SLP994

CYYG;2009-01-02 17:00;CYYG 021700Z 29015G22KT 5SM -SHSN DRSN FEW008 BKN012 OVC250 M10/M13 A2950 RMK SF2SC4CI2 SLP994

CYYG;2009-01-02 18:00;CYYG 021800Z 30010G17KT 3SM -SHSN DRSN FEW007 BKN012 OVC250 M11/M12 A2951 RMK SF2SC3CI2 VIS N 10 SLP995

CYYG;2009-01-02 19:00;CYYG 021900Z 29008KT 10SM -SHSN DRSN FEW007 SCT012 BKN025 M10/M14 A2953 RMK SF1SC2SC4 SLP003

CYYG;2009-01-02 20:00;CYYG 022000Z CCA 28008KT 15SM DRSN FEW012 BKN027 OVC250 M10/M13 A2954 RMK SC2SC4CI2 OCNL -SHSN SLP007

CYYG;2009-01-02 21:00;CYYG 022100Z 28006KT 15SM -SHSN SCT010 BKN027 OVC250 M10/M13 A2954 RMK SC3SC3CI1 SLP007

CYYG;2009-01-02 22:00;CYYG 022200Z 24002KT 12SM -SHSN FEW010 OVC040 M10/M13 A2954 RMK SC2SC6 SLP008

CYYG;2009-01-02 23:00;CYYG 022300Z 18002KT 12SM -SHSN SCT043 OVC100 M10/M13 A2955 RMK SC4AC4 SLP009

CYYG;2009-01-03 00:00;CYYG 030000Z 22004KT 15SM -SHSN FEW050 BKN089 OVC120 M09/M12 A2954 RMK SC2AC3AC2 PCPN VRY LGT SLP006

CYYG;2009-01-03 00:28;CYYG 030028Z 27008KT 15SM BKN097 M08/ RMK AC6

CYYG;2009-01-03 01:00;CYYG 030100Z 26008KT 15SM BKN098 M08/M14 A2953 RMK AC6 SLP003

CYYG;2009-01-03 02:00;CYYG 030200Z 26005KT 15SM BKN100 M09/M14 A2953 RMK AC4 SLP003

CYYG;2009-01-03 03:00;CYYG 030300Z 27006KT 15SM SCT110 M09/M15 A2952 RMK AC2 SLP000

CYYG;2009-01-03 04:00;CYYG 030400Z 28005KT 15SM SCT220 M10/M15 A2950 RMK CI3 SLP993

CYYG;2009-01-03 05:00;CYYG 030500Z 26004KT 15SM FEW160 BKN230 M10/M15 A2948 RMK AC2CI2 SLP987

CYYG;2009-01-03 06:00;CYYG 030600Z 23004KT 15SM OVC110 M09/M15 A2948 RMK AC8 SLP985

CYYG;2009-01-03 07:00;CYYG 030700Z 23004KT 15SM OVC140 M09/M13 A2947 RMK AC8 SLP983

CYYG;2009-01-03 08:00;CYYG 030800Z 22004KT 15SM BKN150 OVC220 M09/M15 A2945 RMK AC6CI2 SLP976

CYYG;2009-01-03 09:00;CYYG 030900Z 00000KT 15SM BKN200 M11/M15 A2944 RMK CI6 SLP973

CYYG;2009-01-03 10:00;CYYG 031000Z 27002KT 15SM SCT200 M12/M15 A2943 RMK CI2 SLP968

CYYG;2009-01-03 11:00;CYYG 031100Z 29005KT 15SM BKN078 M12/M15 A2940 RMK AC4 SLP960

CYYG;2009-01-03 12:00;CYYG 031200Z 24004KT 15SM SCT110 BKN220 M11/M14 A2942 RMK AC4CI1 SLP966

CYYG;2009-01-03 13:00;CYYG 031300Z 23003KT 15SM SCT110 BKN220 M11/M14 A2942 RMK AC4CI2 SLP965

CYYG;2009-01-03 14:00;CYYG 031400Z 28006KT 15SM SCT070 BKN220 M10/M14 A2942 RMK AC4CI2 SLP967

CYYG;2009-01-03 15:00;CYYG 031500Z 29006KT 15SM FEW070 SCT220 M10/M13 A2941 RMK AC2CI2 SLP961

CYYG;2009-01-03 16:00;CYYG 031600Z 30007KT 15SM FEW070 FEW220 M09/M13 A2939 RMK AC2CI1 SLP954

CYYG;2009-01-03 17:00;CYYG 031700Z 27007KT 15SM FEW030 FEW110 M09/M13 A2936 RMK SC1AC1 SLP945

CYYG;2009-01-03 18:00;CYYG 031800Z 28008KT 15SM FEW030 FEW110 M09/M13 A2933 RMK SC1AC1 SLP937

CYYG;2009-01-03 19:00;CYYG 031900Z 29012KT 15SM FEW023 M09/M13 A2934 RMK SC1 SLP939

CYYG;2009-01-03 20:00;CYYG 032000Z 28005KT 15SM FEW023 M09/M13 A2934 RMK SC1 SLP938

CYYG;2009-01-03 21:00;CYYG 032100Z 27004KT 15SM FEW023 FEW110 M10/M14 A2934 RMK SC1AC1 SLP939

CYYG;2009-01-03 21:41;CYYG 032141Z 27003KT 15SM -SHSN BKN032 M11/ RMK SC5

CYYG;2009-01-03 22:00;CYYG 032200Z 27004KT 15SM -SHSN BKN033 M10/M13 A2934 RMK SC5 SLP940

CYYG;2009-01-03 22:19;CYYG 032219Z 27005KT 15SM FEW033 M10/ RMK SC2

CYYG;2009-01-03 23:00;CYYG 032300Z 26006KT 15SM BKN032 M09/M14 A2934 RMK SC6 SLP938

CYYG;2009-01-04 00:00;CYYG 040000Z 27013G18KT 15SM BKN040 M09/M14 A2934 RMK SC6 SLP938

CYYG;2009-01-04 01:00;CYYG 040100Z 28012G18KT 15SM OVC041 M10/M14 A2933 RMK SC8 SLP935

CYYG;2009-01-04 02:00;CYYG 040200Z 28011G19KT 15SM OVC039 M10/M14 A2932 RMK SC8 SLP931

CYYG;2009-01-04 03:00;CYYG 040300Z 29014KT 15SM OVC039 M10/M15 A2931 RMK SC8 SLP927

CYYG;2009-01-04 04:00;CYYG 040400Z 28013G20KT 15SM SCT029 OVC049 M10/M14 A2929 RMK SC3SC5 SLP923

CYYG;2009-01-04 04:06;CYYG 040406Z 27010G17KT 15SM -SHSN BKN024 OVC046 M10/ RMK SC5SC3

CYYG;2009-01-04 04:30;CYYG 040430Z 27013KT 3SM -SHSN BKN010 OVC018 M11/ RMK SF6SC2

CYYG;2009-01-04 05:00;CYYG 040500Z 27013KT 3SM -SHSN BKN012 BKN016 OVC029 M11/M13 A2929 RMK SF5SC2SC1 SLP921

CYYG;2009-01-04 05:18;CYYG 040518Z 27010KT 1 1/2SM -SHSN BKN006 OVC016 M11/ RMK SF6SC2

CYYG;2009-01-04 06:00;CYYG 040600Z 25011KT 1 1/2SM -SHSN OVC007 M11/M13 A2928 RMK SF8 SLP918

CYYG;2009-01-04 07:00;CYYG 040700Z 26012KT 2 1/2SM -SHSN OVC009 M11/M12 A2928 RMK SF8 SLP919

CYYG;2009-01-04 08:00;CYYG 040800Z 27012KT 4SM -SHSN BKN011 OVC040 M10/M12 A2928 RMK SF6SC2 SLP918

CYYG;2009-01-04 09:00;CYYG 040900Z 27011G17KT 5SM -SHSN SCT010 OVC020 M09/M11 A2928 RMK SF3SC5 SLP919

CYYG;2009-01-04 10:00;CYYG 041000Z 28013KT 3SM -SHSN BKN010 OVC023 M09/M10 A2928 RMK SF6SC2 SLP920

CYYG;2009-01-04 11:00;CYYG 041100Z 29014G20KT 4SM -SHSN SCT011 BKN026 BKN057 OVC097 M08/M09 A2929 RMK SF3SC2SC1AC2 SLP921

CYYG;2009-01-04 12:00;CYYG 041200Z 28016G25KT 15SM -SHSN DRSN BKN028 BKN060 M06/M08 A2931 RMK SC5SC2 /S04/ SLP930

CYYG;2009-01-04 13:00;CYYG 041300Z 28015G20KT 15SM -SHSN DRSN FEW029 BKN036 BKN076 M06/M08 A2933 RMK SC2SC4AC2 SLP934

CYYG;2009-01-04 14:00;CYYG 041400Z 29014KT 15SM -SHSN DRSN FEW030 SCT036 BKN090 M05/M07 A2934 RMK SC2SC2AC3 SLP938

CYYG;2009-01-04 15:00;CYYG 041500Z 28017G26KT 4SM -SHSN DRSN SCT021 OVC031 M04/M06 A2935 RMK SC4SC4 SLP942

CYYG;2009-01-04 16:00;CYYG 041600Z 28015G22KT 12SM -SHSN DRSN SCT021 OVC045 M03/M06 A2936 RMK SC4SC4 SLP944

CYYG;2009-01-04 16:26;CYYG 041626Z 29016G22KT 2SM -SHSN DRSN BKN011 OVC022 M03/ RMK SC6SC2

CYYG;2009-01-04 16:38;CYYG 041638Z 29016G21KT 12SM -SHSN DRSN OVC029 M03/ RMK SC8

CYYG;2009-01-04 17:00;CYYG 041700Z 29015G25KT 12SM -SHSN DRSN BKN026 BKN036 M02/M05 A2936 RMK SC6SC1 SLP945

CYYG;2009-01-04 17:53;CYYG 041753Z 31015G25KT 3SM -SHSN DRSN OVC019 M01/ RMK SC8

CYYG;2009-01-04 18:00;CYYG 041800Z 31020G28KT 10SM -SHSN DRSN OVC016 M02/M04 A2938 RMK SC8 SLP952

CYYG;2009-01-04 18:33;CYYG 041833Z 30015G21KT 1 1/2SM -SHSN DRSN OVC020 M01/ RMK SN2SC6

CYYG;2009-01-04 18:46;CYYG 041846Z 32021G26KT 10SM -SHSN DRSN OVC012 M02/ RMK SC8 VIS E 3

CYYG;2009-01-04 19:00;CYYG 041900Z 33021G32KT 10SM -SHSN DRSN BKN012 OVC064 M02/M04 A2941 RMK SF6SC2 SLP962

CYYG;2009-01-04 19:22;CYYG 041922Z 32015G25KT 3SM DRSN -FZRA BR OVC015 M01/ RMK SC8

CYYG;2009-01-04 19:51;CYYG 041951Z 33019G26KT 1SM -SHSN DRSN OVC016 M02/ REFZRA RMK SN2SC6

CYYG;2009-01-04 20:00;CYYG 042000Z 34014G28KT 6SM -SHSN DRSN BKN016 OVC027 M02/M02 A2946 REFZRA RMK SC5SC3 SLP980

CYYG;2009-01-04 21:00;CYYG 042100Z 34017G24KT 15SM -SHSN DRSN OVC023 M01/M04 A2951 RMK SC8 SLP996

CYYG;2009-01-04 22:00;CYYG 042200Z 34014G20KT 15SM -SHSN DRSN OVC024 M01/M04 A2955 RMK SC8 SLP009

CYYG;2009-01-04 23:00;CYYG 042300Z 32011KT 15SM -SHSN DRSN FEW024 OVC055 M01/M04 A2957 RMK SC2SC6 SLP017

CYYG;2009-01-05 00:00;CYYG 050000Z 31012G17KT 15SM -SHSN DRSN FEW024 OVC044 M01/M05 A2960 RMK SC2SC6 SLP028

CYYG;2009-01-05 00:14;CYYG 050014Z 30010G15KT 15SM DRSN BKN041 M01/ RMK SC7

CYYG;2009-01-05 01:00;CYYG 050100Z 29009G15KT 15SM DRSN FEW041 BKN060 M01/M06 A2964 RMK SC2SC4 SLP039

CYYG;2009-01-05 02:00;CYYG 050200Z 29009G16KT 15SM DRSN FEW060 M02/M06 A2963 RMK SC2 SLP038

CYYG;2009-01-05 03:00;CYYG 050300Z 28011KT 15SM FEW060 M03/M05 A2964 RMK SC1 SLP040

CYYG;2009-01-05 04:00;CYYG 050400Z 28015KT 15SM BKN050 M03/M05 A2964 RMK SC6 SLP041

CYYG;2009-01-05 05:00;CYYG 050500Z 28010G17KT 15SM SCT050 M02/M05 A2964 RMK SC3 SLP041

CYYG;2009-01-05 06:00;CYYG 050600Z 27009KT 15SM FEW050 M03/M06 A2965 RMK SC1 SLP042

CYYG;2009-01-05 07:00;CYYG 050700Z 27010KT 15SM FEW050 M04/M06 A2966 RMK SC1 SLP047

CYYG;2009-01-05 08:00;CYYG 050800Z 28012KT 15SM FEW050 M04/M07 A2964 RMK SC1 SLP041

CYYG;2009-01-05 09:00;CYYG 050900Z 27008KT 15SM SKC M05/M07 A2965 RMK SLP042

CYYG;2009-01-05 10:00;CYYG 051000Z 26010KT 15SM SKC M06/M08 A2964 RMK SLP041

CYYG;2009-01-05 11:00;CYYG 051100Z 25009KT 15SM FEW020 FEW150 FEW270 M07/M09 A2964 RMK SC1AC1CI0 FROIN SLP041

CYYG;2009-01-05 12:00;CYYG 051200Z 27010KT 15SM FEW150 M07/M08 A2965 RMK AC1 SLP044

CYYG;2009-01-05 13:00;CYYG 051300Z 25010G15KT 15SM SCT250 M06/M09 A2965 RMK CI1 SLP042

CYYG;2009-01-05 14:00;CYYG 051400Z 26011KT 15SM SCT250 M05/M09 A2963 RMK CI1 SLP037

CYYG;2009-01-05 15:00;CYYG 051500Z 26012G17KT 15SM FEW150 BKN250 M03/M09 A2960 RMK AC1CI1 SLP027

CYYG;2009-01-05 16:00;CYYG 051600Z 25012G17KT 15SM SCT094 BKN250 M01/M09 A2958 RMK AC4CI1 SLP018

CYYG;2009-01-05 17:00;CYYG 051700Z 25012G17KT 15SM BKN080 M01/M06 A2956 RMK AC7 SLP013

CYYG;2009-01-05 17:48;CYYG 051748Z 24018KT 15SM -SHSN DRSN OVC071 M01/ RMK AC8

CYYG;2009-01-05 18:00;CYYG 051800Z 24015G24KT 3SM -SHSN DRSN SCT013 OVC024 M01/M04 A2955 RMK SC3SC5 SLP008

CYYG;2009-01-05 18:14;CYYG 051814Z 24009G17KT 2SM -SHSN DRSN BKN006 OVC020 M02/ RMK SF6SC2

CYYG;2009-01-05 19:00;CYYG 051900Z 24012G18KT 4SM -SHSN DRSN SCT006 OVC021 M02/M02 A2953 RMK SF4SC4 SLP003

CYYG;2009-01-05 20:00;CYYG 052000Z 22013KT 15SM -SHSN DRSN SCT007 BKN021 OVC055 M01/M02 A2950 RMK SF3SC2SC3 SLP992

CYYG;2009-01-05 21:00;CYYG 052100Z 22013KT 15SM -SHSN DRSN FEW007 SCT025 OVC046 M00/M02 A2949 RMK SF1SC2SC5 SLP988

CYYG;2009-01-05 22:00;CYYG 052200Z 25013G19KT 12SM -SHSN DRSN SCT009 BKN021 OVC041 M00/M02 A2948 RMK SC3SC2SC2 SLP984

CYYG;2009-01-05 23:00;CYYG 052300Z 27013G19KT 15SM -SHSN DRSN FEW009 BKN017 OVC055 M02/M05 A2949 RMK SF2SC3SC3 SLP988

CYYG;2009-01-06 00:00;CYYG 060000Z 27012G18KT 15SM DRSN BKN020 OVC045 M03/M06 A2950 RMK SC6SC2 /S01/ SLP992

CYYG;2009-01-06 01:00;CYYG 060100Z 26014G21KT 15SM DRSN BKN020 OVC045 M03/M06 A2951 RMK SC6SC2 SLP996

CYYG;2009-01-06 02:00;CYYG 060200Z 27017KT 15SM DRSN SCT023 OVC050 M03/M07 A2952 RMK SC3SC5 SLP001

CYYG;2009-01-06 03:00;CYYG 060300Z 27013G20KT 15SM DRSN FEW023 FEW050 M04/M08 A2954 RMK SC2SC1 SLP006

CYYG;2009-01-06 04:00;CYYG 060400Z 27014G24KT 15SM DRSN FEW023 M05/M08 A2955 RMK SC1 SLP009

CYYG;2009-01-06 05:00;CYYG 060500Z 27015KT 15SM FEW023 M05/M09 A2955 RMK SC1 SLP011

CYYG;2009-01-06 06:00;CYYG 060600Z 26009KT 15SM FEW023 M06/M10 A2958 RMK SC1 SLP018

CYYG;2009-01-06 07:00;CYYG 060700Z 26009KT 15SM FEW025 M07/M10 A2959 RMK SC2 SLP023

CYYG;2009-01-06 08:00;CYYG 060800Z 26009KT 15SM SCT030 M07/M10 A2960 RMK SC3 SLP028

CYYG;2009-01-06 09:00;CYYG 060900Z 27012KT 15SM SCT028 M07/M11 A2961 RMK SC4 SLP030

CYYG;2009-01-06 10:00;CYYG 061000Z 28014G21KT 15SM FEW028 M07/M12 A2962 RMK SC2 SLP033

CYYG;2009-01-06 11:00;CYYG 061100Z 27015G21KT 15SM FEW028 M07/M12 A2964 RMK SC1 SLP039

CYYG;2009-01-06 12:00;CYYG 061200Z 27016G25KT 15SM FEW030 M08/M13 A2966 RMK SC1 SLP046

CYYG;2009-01-06 13:00;CYYG 061300Z 28016G26KT 15SM FEW030 M08/M13 A2969 RMK SC1 SLP058

CYYG;2009-01-06 14:00;CYYG 061400Z 28014G27KT 15SM FEW030 M08/M13 A2971 RMK SC1 SLP064

CYYG;2009-01-06 15:00;CYYG 061500Z 28016G27KT 15SM DRSN FEW032 M07/M13 A2971 RMK SC1 SLP063

CYYG;2009-01-06 16:00;CYYG 061600Z CCA 27018G26KT 15SM DRSN FEW035 M07/M13 A2969 RMK SC1 SLP056

CYYG;2009-01-06 17:00;CYYG 061700Z 27018G28KT 15SM DRSN FEW040 M06/M14 A2966 RMK SC1 SLP047

CYYG;2009-01-06 18:00;CYYG 061800Z 28015G26KT 15SM DRSN FEW040 M06/M13 A2967 RMK SC2 SLP051

CYYG;2009-01-06 19:00;CYYG 061900Z 27016G23KT 15SM DRSN SCT040 M06/M14 A2969 RMK SC3 SLP056

CYYG;2009-01-06 20:00;CYYG 062000Z 27014G24KT 15SM DRSN SCT040 M06/M14 A2971 RMK SC3 SLP065

CYYG;2009-01-06 21:00;CYYG 062100Z 28013G18KT 15SM FEW040 M06/M14 A2973 RMK SC2 SLP070

CYYG;2009-01-06 22:00;CYYG 062200Z 27010KT 15SM FEW045 M07/M13 A2974 RMK SC2 SLP073

CYYG;2009-01-06 23:00;CYYG 062300Z 27008KT 15SM FEW045 M07/M14 A2975 RMK SC2 SLP078

CYYG;2009-01-07 00:00;CYYG 070000Z 28016G24KT 15SM FEW045 M07/M14 A2977 RMK SC2 SLP085

CYYG;2009-01-07 01:00;CYYG 070100Z 28016G25KT 15SM FEW030 M07/M15 A2978 RMK SC2 SLP087

CYYG;2009-01-07 02:00;CYYG 070200Z 28015G24KT 15SM FEW030 M08/M15 A2978 RMK SC2 SLP088

CYYG;2009-01-07 03:00;CYYG 070300Z 28015G22KT 15SM FEW030 M08/M15 A2980 RMK SC2 SLP095

CYYG;2009-01-07 04:00;CYYG 070400Z 29016G26KT 15SM SKC M09/M15 A2980 RMK SLP094

CYYG;2009-01-07 05:00;CYYG 070500Z 28014G24KT 15SM SKC M10/M16 A2980 RMK SLP094

CYYG;2009-01-07 06:00;CYYG 070600Z 28012G18KT 15SM SKC M10/M15 A2980 RMK SLP096

CYYG;2009-01-07 07:00;CYYG 070700Z 26013G19KT 15SM SKC M11/M16 A2982 RMK SLP101

CYYG;2009-01-07 08:00;CYYG 070800Z 27012G19KT 15SM FEW045 M11/M16 A2982 RMK SC2 SLP100

CYYG;2009-01-07 09:00;CYYG 070900Z 25009KT 15SM FEW040 M11/M16 A2981 RMK SC2 SLP098

CYYG;2009-01-07 10:00;CYYG 071000Z 25009KT 15SM FEW040 FEW240 M12/M15 A2981 RMK SC2CI1 SLP099

CYYG;2009-01-07 11:00;CYYG 071100Z 28007KT 15SM FEW040 BKN180 M11/M15 A2982 RMK SC2AC4 SLP100

CYYG;2009-01-07 12:00;CYYG 071200Z 26008KT 15SM BKN200 M11/M16 A2982 RMK CI6 SLP100

CYYG;2009-01-07 13:00;CYYG 071300Z 28009G15KT 15SM FEW030 BKN200 M12/M15 A2981 RMK SC1CC6 SLP099

CYYG;2009-01-07 14:00;CYYG 071400Z 26005KT 15SM FEW030 BKN200 M11/M15 A2980 RMK SC1CC6 SLP096

CYYG;2009-01-07 15:00;CYYG 071500Z 27004KT 15SM FEW030 SCT150 BKN200 M10/M14 A2980 RMK SC1AC2CC3 SLP094

CYYG;2009-01-07 16:00;CYYG 071600Z 24005KT 15SM BKN100 M10/M14 A2977 RMK AC6 SLP086

CYYG;2009-01-07 17:00;CYYG 071700Z 24004KT 15SM OVC120 M09/M14 A2976 RMK AC8 SLP081

CYYG;2009-01-07 18:00;CYYG 071800Z 00000KT 15SM OVC094 M09/M13 A2972 RMK AC8 SLP067

CYYG;2009-01-07 19:00;CYYG 071900Z 24002KT 15SM OVC072 M08/M13 A2971 RMK AC8 SLP066

CYYG;2009-01-07 20:00;CYYG 072000Z 15003KT 15SM BKN061 OVC080 M08/M13 A2967 RMK SC6AC2 SLP052

CYYG;2009-01-07 21:00;CYYG 072100Z 12004KT 15SM BKN055 OVC083 M08/M12 A2964 RMK SC6AC2 SLP042

CYYG;2009-01-07 21:49;CYYG 072149Z 10004KT 5SM -SHSN BKN010 OVC023 M08/ RMK SF6SC2

CYYG;2009-01-07 22:00;CYYG 072200Z 11004KT 2SM -SHSN BKN006 OVC018 M08/M11 A2962 RMK SF6SC2 SLP034

CYYG;2009-01-07 22:43;CYYG 072243Z 11007KT 1 1/2SM R03/6000FT/N -SHSN BKN005 OVC016 M09/ RMK SF6SC2

CYYG;2009-01-07 23:00;CYYG 072300Z 12007KT 1SM R03/P6000FT/D -SHSN BKN005 OVC018 M09/M09 A2957 RMK SF6SC2 SLP016

CYYG;2009-01-08 00:00;CYYG 080000Z 11008KT 1SM R03/5000FT/N -SHSN OVC005 M08/M09 A2951 RMK SN2SF6 PRESFR /S02/ SLP996

CYYG;2009-01-08 01:00;CYYG 080100Z 10007KT 1 1/2SM -SN OVC005 M08/M08 A2946 RMK SN2SF6 SLP979

CYYG;2009-01-08 01:29;CYYG 080129Z 10007KT 10SM -FZRA SCT005 OVC025 M07/ RMK SF4SC4

CYYG;2009-01-08 02:00;CYYG 080200Z 10009KT 10SM -FZRA FEW005 BKN025 OVC044 M06/M07 A2935 RMK SF2SC3SC3 PRESFR SLP941

CYYG;2009-01-08 02:47;CYYG 080247Z 09013KT 6SM -FZRA BR BKN006 OVC025 M05/ RMK SF6SC2

CYYG;2009-01-08 03:00;CYYG 080300Z 08010KT 6SM -FZRA BR OVC005 M05/M05 A2930 RMK SF8 SLP925

CYYG;2009-01-08 04:00;CYYG 080400Z 09010KT 8SM -FZRA OVC005 M04/M04 A2925 RMK SF8 SLP907

CYYG;2009-01-08 05:00;CYYG 080500Z 10008KT 8SM -FZRA OVC005 M03/M03 A2921 RMK SF8 SLP894

CYYG;2009-01-08 06:00;CYYG 080600Z 13012KT 10SM -FZRA OVC005 M02/M02 A2907 RMK SF8 SLP847

CYYG;2009-01-08 07:00;CYYG 080700Z 11007KT 10SM -FZRA OVC005 M01/M01 A2903 RMK SF8 SLP833

CYYG;2009-01-08 08:00;CYYG 080800Z 13010KT 12SM OVC004 01/01 A2892 RMK SF8 PRESFR SLP796

CYYG;2009-01-08 08:40;CYYG 080840Z 17011KT 3SM -SHRA BR OVC003 02/ RMK SF8

CYYG;2009-01-08 09:00;CYYG 080900Z 17019KT 3SM -SHRA BR OVC003 03/03 A2886 RMK SF8 PRESFR SLP776

CYYG;2009-01-08 10:00;CYYG 081000Z 17016G22KT 3SM -SHRA BR BKN003 OVC008 03/03 A2879 RMK SF6SF2 PRESFR SLP751

CYYG;2009-01-08 10:16;CYYG 081016Z 17019KT 5SM -SHRA BR BKN002 OVC008 04/ RMK SF6SF2

CYYG;2009-01-08 11:00;CYYG 081100Z 18018KT 6SM -SHRA BR BKN002 OVC008 04/04 A2874 RMK SF6SF2 SLP736

CYYG;2009-01-08 12:00;CYYG 081200Z 19021G27KT 5SM BR BKN004 OVC009 05/05 A2870 RMK SF6SF2 SLP721

CYYG;2009-01-08 12:20;CYYG 081220Z 19020G26KT 3SM -RA BR BKN004 OVC011 06/ RMK SF6SF2

CYYG;2009-01-08 12:52;CYYG 081252Z 20018G25KT 10SM -RA BKN003 BKN012 OVC024 06/ RMK SF6SF2SC1

CYYG;2009-01-08 13:00;CYYG 081300Z 20019G24KT 5SM -RA BR BKN003 BKN008 OVC022 06/06 A2870 RMK SF6SF2SC1 SLP720

CYYG;2009-01-08 13:26;CYYG 081326Z 22017G27KT 15SM -SHRA FEW003 BKN024 BKN043 06/ RMK SF2SC3SC2

CYYG;2009-01-08 13:48;CYYG 081348Z 23024G34KT 15SM VCSH FEW003 BKN018 05/ RMK SF2SC6 SH W-NE

CYYG;2009-01-08 14:00;CYYG 081400Z 24020G34KT 15SM -SHRA BKN015 04/03 A2875 RMK SC7 VIS W-N 3 SLP739

CYYG;2009-01-08 14:17;CYYG 081417Z 24019G31KT 5SM -SHRA BR BKN006 OVC013 03/ RERA RMK SF6SC2

CYYG;2009-01-08 14:24;CYYG 081424Z 24023G31KT 10SM -SHRA OVC007 02/ RERA RMK SF8

CYYG;2009-01-08 14:49;CYYG 081449Z 25023G29KT 5SM -SHSN OVC006 02/ RERA RMK SF8

CYYG;2009-01-08 15:00;CYYG 081500Z 25019G30KT 2SM -SHSN OVC006 01/01 A2884 RERA RMK SF8 PRESRR SLP768

CYYG;2009-01-08 15:49;CYYG 081549Z 25018G29KT 10SM -SHSN SCT006 BKN012 M00/ RMK SF4SC3 VIS LWR E-SE

CYYG;2009-01-08 16:00;CYYG 081600Z 26024G32KT 15SM -SHSN FEW009 BKN015 BKN040 M00/M03 A2890 RMK SF2SC3SC1 PRESRR SLP790

CYYG;2009-01-08 16:17;CYYG 081617Z 26017G30KT 15SM FEW015 SCT043 SCT100 M00/ RMK SC2SC2AC1

CYYG;2009-01-08 17:00;CYYG 081700Z 26014G26KT 15SM FEW020 SCT080 SCT140 M01/M04 A2894 RMK SC2AC2AC1 SLP802

CYYG;2009-01-08 18:00;CYYG 081800Z 25015G26KT 15SM FEW020 BKN052 M00/M04 A2898 RMK SC2SC6 SLP817

CYYG;2009-01-08 18:41;CYYG 081841Z 25015G22KT 15SM -SHSN FEW017 BKN054 M00/ RMK SC2SC6

CYYG;2009-01-08 19:00;CYYG 081900Z 23013G22KT 10SM -SHSN FEW017 BKN054 M00/M02 A2901 RMK CU1SC6 SLP827

CYYG;2009-01-08 20:00;CYYG 082000Z 24011G18KT 12SM -SHSN FEW015 OVC050 M01/M02 A2905 RMK CU2SC6 SLP839

CYYG;2009-01-08 21:00;CYYG 082100Z 25010G16KT 8SM -SHSN DRSN FEW010 BKN046 OVC050 M01/M02 A2908 RMK CU2SC3SC2 SLP849

CYYG;2009-01-08 21:23;CYYG 082123Z 24010KT 15SM -SHSN BKN008 OVC110 M01/ RMK SF6AC2

CYYG;2009-01-08 22:00;CYYG 082200Z 25010KT 15SM -SHSN SCT007 BKN015 OVC023 M01/M01 A2911 RMK SF4SC2SC2 SLP858

CYYG;2009-01-08 23:00;CYYG 082300Z 25015G22KT 15SM DRSN FEW015 FEW100 M01/M04 A2914 RMK SC1AC2 SLP869

CYYG;2009-01-09 00:00;CYYG 090000Z 26014G19KT 15SM DRSN FEW015 BKN070 M01/M06 A2917 RMK SC2AC2 SLP878

CYYG;2009-01-09 01:00;CYYG 090100Z 26013G19KT 15SM FEW020 BKN074 M02/M07 A2920 RMK SC2AC5 SLP891

CYYG;2009-01-09 02:00;CYYG 090200Z 28012KT 15SM SCT023 BKN074 M03/M07 A2923 RMK SC4AC2 SLP900

CYYG;2009-01-09 03:00;CYYG 090300Z 27005KT 15SM FEW024 SCT074 M04/M08 A2926 RMK SC2AC2 SLP910

CYYG;2009-01-09 04:00;CYYG 090400Z 26009KT 15SM FEW025 M05/M09 A2927 RMK SC2 SLP914

CYYG;2009-01-09 05:00;CYYG 090500Z 25006KT 15SM FEW030 M05/M10 A2929 RMK SC2 SLP921

CYYG;2009-01-09 06:00;CYYG 090600Z 26006KT 15SM SCT051 M06/M10 A2931 RMK SC4 SLP927

CYYG;2009-01-09 07:00;CYYG 090700Z 25005KT 15SM BKN053 M05/M09 A2933 RMK SC6 SLP935

CYYG;2009-01-09 08:00;CYYG 090800Z 28007KT 15SM BKN055 M06/M09 A2934 RMK SC6 SLP938

CYYG;2009-01-09 09:00;CYYG 090900Z 26005KT 15SM SCT060 M07/M10 A2936 RMK SC4 SLP944

CYYG;2009-01-09 10:00;CYYG 091000Z 27008KT 15SM FEW026 M08/M10 A2939 RMK SC2 SLP953

CYYG;2009-01-09 11:00;CYYG 091100Z 25006KT 15SM FEW026 M09/M12 A2942 RMK SC2 SLP963

CYYG;2009-01-09 12:00;CYYG 091200Z 25007KT 15SM FEW025 FEW250 M10/M12 A2944 RMK SC1CI0 SLP972

CYYG;2009-01-09 13:00;CYYG 091300Z 25008KT 15SM FEW030 FEW250 M10/M12 A2946 RMK SC1CI0 SLP980

CYYG;2009-01-09 14:00;CYYG 091400Z 27009KT 15SM FEW030 FEW250 M09/M11 A2948 RMK SC1CI1 SLP985

CYYG;2009-01-09 15:00;CYYG 091500Z 28009KT 15SM FEW030 FEW250 M08/M10 A2948 RMK SC1CI0 SLP986

CYYG;2009-01-09 16:00;CYYG 091600Z 29010KT 15SM FEW030 M07/M10 A2948 RMK SC2 SLP985

CYYG;2009-01-09 17:00;CYYG 091700Z 29005KT 15SM FEW025 FEW100 M07/M09 A2948 RMK SC2AC1 SLP985

CYYG;2009-01-09 18:00;CYYG 091800Z 29007KT 15SM SCT025 M06/M09 A2947 RMK SC2 SLP981

CYYG;2009-01-09 18:48;CYYG 091848Z 29009KT 15SM -SHSN BKN018 M06/ RMK SC6

CYYG;2009-01-09 19:00;CYYG 091900Z 31008KT 12SM -SHSN BKN016 M06/M09 A2948 RMK SC7 SLP987

CYYG;2009-01-09 19:43;CYYG 091943Z 29006KT 2 1/2SM -SHSN OVC014 M06/ RMK SC8

CYYG;2009-01-09 20:00;CYYG 092000Z 29007KT 2 1/2SM -SHSN OVC012 M06/M07 A2948 RMK SC8 SLP987

CYYG;2009-01-09 20:25;CYYG 092025Z 29006KT 5SM -SHSN BKN019 BKN039 M06/ RMK SC5SC2

CYYG;2009-01-09 21:00;CYYG 092100Z CCA 35008KT 3SM -SHSN BKN010 BKN050 M04/M05 A2952 RMK SC5SC2 SLP998

CYYG;2009-01-09 22:00;CYYG 092200Z 35008G17KT 4SM -SHSN OVC017 M04/M06 A2955 RMK SC8 /S01/ SLP009

CYYG;2009-01-09 23:00;CYYG 092300Z 34012KT 8SM -SHSN OVC020 M04/M08 A2958 RMK SC8 SLP018

CYYG;2009-01-10 00:00;CYYG 100000Z 33010G16KT 8SM -SHSN OVC024 M04/M06 A2960 RMK SC8 /S02/ SLP025

CYYG;2009-01-10 01:00;CYYG 100100Z 31011G16KT 10SM -SHSN DRSN OVC018 M04/M06 A2961 RMK SC8 SLP031

CYYG;2009-01-10 02:00;CYYG 100200Z 31008KT 10SM -SHSN DRSN OVC015 M05/M05 A2964 RMK SC8 SLP040

CYYG;2009-01-10 02:24;CYYG 100224Z 30010KT 3SM -SHSN DRSN OVC012 M05/ RMK SC8

CYYG;2009-01-10 03:00;CYYG 100300Z 29010KT 5SM -SHSN DRSN OVC014 M05/M06 A2966 RMK SC8 SLP045

CYYG;2009-01-10 04:00;CYYG 100400Z 30013KT 8SM -SHSN DRSN BKN014 OVC044 M05/M07 A2966 RMK SC6SC2 SLP048

CYYG;2009-01-10 04:22;CYYG 100422Z 31017G22KT 10SM -SHSN DRSN SCT014 OVC050 M05/ RMK SC3SC5

CYYG;2009-01-10 05:00;CYYG 100500Z 32014G19KT 10SM -SHSN DRSN SCT014 OVC050 M05/M07 A2969 RMK SC3SC5 SLP055

CYYG;2009-01-10 06:00;CYYG 100600Z 32013G19KT 12SM -SHSN DRSN SCT014 OVC048 M06/M08 A2971 RMK SC3SC5 SLP065

CYYG;2009-01-10 06:07;CYYG 100607Z 31013G19KT 15SM DRSN SCT014 OVC050 M06/ RMK SC3SC5

CYYG;2009-01-10 07:00;CYYG 100700Z 30012KT 15SM DRSN SCT014 OVC052 M07/M09 A2976 RMK SC3SC5 SLP079

CYYG;2009-01-10 08:00;CYYG 100800Z 31012KT 15SM DRSN FEW014 OVC053 M07/M09 A2978 RMK SC2SC6 SLP086

CYYG;2009-01-10 09:00;CYYG 100900Z 29010G16KT 15SM DRSN BKN016 OVC053 M07/M10 A2981 RMK SC5SC3 SLP096

CYYG;2009-01-10 10:00;CYYG 101000Z 28010KT 15SM BKN015 OVC055 M09/M10 A2984 RMK SC6SC2 SLP106

CYYG;2009-01-10 11:00;CYYG 101100Z 29014KT 15SM SCT015 BKN080 M09/M11 A2986 RMK SC3AC4 SLP113

CYYG;2009-01-10 12:00;CYYG 101200Z CCA 29012G17KT 15SM DRSN FEW015 SCT080 BKN096 M09/M11 A2989 RMK SC1AC2AC4 SLP126

CYYG;2009-01-10 13:00;CYYG 101300Z 29011KT 15SM DRSN BKN018 BKN095 M09/M11 A2993 RMK SC5AC2 SLP139

CYYG;2009-01-10 13:45;CYYG 101345Z 28008G15KT 15SM -SHSN DRSN BKN016 BKN095 M09/ RMK SC6AC2

CYYG;2009-01-10 14:00;CYYG 101400Z 28012KT 15SM -SHSN DRSN BKN016 BKN095 M09/M11 A2996 RMK SC6AC1 SLP147

CYYG;2009-01-10 15:00;CYYG 101500Z 29010G16KT 10SM -SHSN DRSN BKN016 M09/M12 A2998 RMK SC7 SLP154

CYYG;2009-01-10 16:00;CYYG 101600Z 29011KT 10SM -SHSN DRSN BKN019 M09/M13 A2998 RMK SC6 SLP156

CYYG;2009-01-10 17:00;CYYG 101700Z 29008KT 10SM -SHSN DRSN BKN019 BKN250 M09/M13 A2998 RMK SC5CI0 SLP155

CYYG;2009-01-10 18:00;CYYG 101800Z 27008KT 15SM SCT018 BKN250 M09/M13 A2998 RMK SC3CI0 SLP155

CYYG;2009-01-10 19:00;CYYG 101900Z 28008KT 15SM FEW020 M09/M13 A3000 RMK SC1 SLP161

CYYG;2009-01-10 20:00;CYYG 102000Z 28006KT 15SM FEW020 M09/M13 A3002 RMK SC1 SLP170

CYYG;2009-01-10 21:00;CYYG 102100Z 29003KT 15SM FEW020 M10/M13 A3004 RMK SC1 SLP174

CYYG;2009-01-10 22:00;CYYG 102200Z 24005KT 15SM FEW020 M10/M12 A3004 RMK SC1 SLP174

CYYG;2009-01-10 23:00;CYYG 102300Z 26003KT 15SM SCT021 M10/M13 A3005 RMK SC3 SLP178

CYYG;2009-01-11 00:00;CYYG 110000Z 28005KT 15SM SCT020 M10/M12 A3007 RMK SC3 SLP186

CYYG;2009-01-11 01:00;CYYG 110100Z 28008KT 15SM FEW020 M10/M13 A3007 RMK SC2 SLP187

CYYG;2009-01-11 02:00;CYYG 110200Z 29007KT 15SM FEW020 M11/M14 A3008 RMK SC2 SLP190

CYYG;2009-01-11 03:00;CYYG 110300Z 27008KT 15SM FEW020 M12/M15 A3010 RMK SC2 SLP196

CYYG;2009-01-11 04:00;CYYG 110400Z 27005KT 15SM FEW020 M13/M15 A3010 RMK SC1 SLP198

CYYG;2009-01-11 05:00;CYYG 110500Z 23003KT 15SM SKC M13/M15 A3012 RMK SLP205

CYYG;2009-01-11 06:00;CYYG 110600Z 25005KT 15SM FEW020 M13/M16 A3013 RMK SC2 SLP207

CYYG;2009-01-11 07:00;CYYG 110700Z 29003KT 15SM FEW025 M14/M16 A3014 RMK SC2 SLP209

CYYG;2009-01-11 08:00;CYYG 110800Z 28002KT 15SM FEW025 M15/M17 A3014 RMK SC1 SLP211

CYYG;2009-01-11 09:00;CYYG 110900Z 00000KT 15SM FEW025 M15/M17 A3012 RMK SC1 SLP205

CYYG;2009-01-11 10:00;CYYG 111000Z 29003KT 15SM SKC M15/M16 A3011 RMK SLP200

CYYG;2009-01-11 11:00;CYYG 111100Z 25004KT 15SM BKN250 M15/M16 A3010 RMK CI5 SLP198

CYYG;2009-01-11 12:00;CYYG 111200Z 00000KT 15SM BKN190 M15/M16 A3008 RMK AC7 SLP191

CYYG;2009-01-11 13:00;CYYG 111300Z 18003KT 15SM BKN200 M14/M16 A3006 RMK CI4 SLP183

CYYG;2009-01-11 14:00;CYYG 111400Z 17004KT 15SM BKN160 M13/M15 A3006 RMK AC6 SLP184

CYYG;2009-01-11 15:00;CYYG 111500Z 00000KT 15SM BKN140 M12/M14 A3004 RMK AC6 SLP176

CYYG;2009-01-11 16:00;CYYG 111600Z 18002KT 15SM OVC100 M11/M14 A3003 RMK AC7 SLP172

CYYG;2009-01-11 17:00;CYYG 111700Z 14002KT 15SM OVC080 M11/M14 A2996 RMK AS8 PRESFR SLP149

CYYG;2009-01-11 18:00;CYYG 111800Z 33003KT 15SM OVC048 M11/M14 A2994 RMK SC8 SLP143

CYYG;2009-01-11 18:28;CYYG 111828Z 01006KT 12SM -SHSN OVC035 M11/ RMK SC8

CYYG;2009-01-11 19:00;CYYG 111900Z 36006KT 10SM -SHSN OVC031 M11/M14 A2991 RMK SC8 SLP132

CYYG;2009-01-11 19:54;CYYG 111954Z 36005KT 2SM -SHSN DRSN OVC020 M10/ RMK SN4SC4

CYYG;2009-01-11 20:00;CYYG 112000Z 36005KT 1 1/2SM -SN DRSN VV014 M11/M12 A2990 RMK SN8 SLP129

CYYG;2009-01-11 21:00;CYYG 112100Z 36005KT 1 1/2SM -SN DRSN VV013 M10/M11 A2988 RMK SN8 SLP124

CYYG;2009-01-11 21:45;CYYG 112145Z 01004KT 1 1/2SM -SN OVC020 M09/ RMK SN7NS1

CYYG;2009-01-11 22:00;CYYG 112200Z 01005KT 2SM -SN OVC022 M09/M10 A2986 RMK SN6NS2 /S01/ SLP116

CYYG;2009-01-11 23:00;CYYG 112300Z 36004KT 4SM -SN FEW025 OVC050 M09/M10 A2984 RMK SC2NS6 SLP108

CYYG;2009-01-12 00:00;CYYG 120000Z 36006KT 8SM -SN FEW025 BKN040 BKN070 M08/M09 A2983 RMK SC2SC3AC2 SLP106

CYYG;2009-01-12 01:00;CYYG 120100Z 36005KT 8SM -SN BKN016 BKN100 M08/M08 A2984 RMK SC5AC2 SLP107

CYYG;2009-01-12 02:00;CYYG 120200Z 34004KT 8SM -SN BKN016 OVC130 M07/M08 A2983 RMK SC6AC2 SLP106

CYYG;2009-01-12 03:00;CYYG 120300Z 32007KT 8SM -SN SCT007 OVC013 M07/M07 A2984 RMK SF3SC5 SLP107

CYYG;2009-01-12 03:53;CYYG 120353Z 31008KT 8SM -SN OVC008 M07/ RMK SF8

CYYG;2009-01-12 04:00;CYYG 120400Z 31007KT 8SM -SN OVC008 M07/M08 A2985 RMK SF8 /S01/ SLP111

CYYG;2009-01-12 05:00;CYYG 120500Z 29005KT 10SM -SN BKN008 OVC020 M07/M08 A2986 RMK SF6SC2 SLP114

CYYG;2009-01-12 06:00;CYYG 120600Z 29008KT 10SM -SN BKN007 OVC020 M08/M09 A2986 RMK SF6SC2 /S02/ SLP116

CYYG;2009-01-12 07:00;CYYG 120700Z 30007KT 8SM -SN BKN007 OVC020 M08/M09 A2989 RMK SF5SC3 SLP125

CYYG;2009-01-12 07:46;CYYG 120746Z 30007KT 10SM -SN FEW007 OVC020 M08/M09 RMK SF2SC6

CYYG;2009-01-12 08:00;CYYG 120800Z 31007KT 10SM -SN OVC020 M09/M10 A2990 RMK SC8 SLP130

CYYG;2009-01-12 09:00;CYYG 120900Z 31006KT 10SM -SN OVC019 M09/M10 A2991 RMK SC8 SLP132

CYYG;2009-01-12 10:00;CYYG 121000Z 30005KT 12SM -SN OVC020 M09/M10 A2992 RMK SC8 SLP135

CYYG;2009-01-12 10:29;CYYG 121029Z 29007KT 12SM -SN SCT007 OVC018 M09/ RMK SF3SC5

CYYG;2009-01-12 11:00;CYYG 121100Z 29007KT 12SM -SN FEW007 OVC020 M09/M10 A2993 RMK SF2SC6 SLP138

CYYG;2009-01-12 12:00;CYYG 121200Z 32007KT 15SM -SN FEW007 OVC022 M09/M10 A2994 RMK SF2SC6 SLP143

CYYG;2009-01-12 13:00;CYYG 121300Z 31008KT 15SM -SHSN FEW007 OVC024 M08/M09 A2997 RMK SF1SC7 SLP151

CYYG;2009-01-12 14:00;CYYG 121400Z 32005KT 15SM -SHSN FEW007 OVC026 M08/M09 A2998 RMK SF1SC7 SLP154

CYYG;2009-01-12 15:00;CYYG 121500Z 29005KT 15SM -SHSN FEW007 OVC026 M08/M09 A2999 RMK SF1SC7 SLP158

CYYG;2009-01-12 16:00;CYYG 121600Z 31004KT 15SM -SHSN BKN009 OVC022 M06/M09 A2997 RMK SF6SC2 SLP152

CYYG;2009-01-12 17:00;CYYG 121700Z 31007KT 15SM -SHSN BKN009 OVC032 M08/M10 A2996 RMK SF5SC3 SLP149

CYYG;2009-01-12 18:00;CYYG 121800Z 31006KT 15SM -SHSN SCT009 OVC021 M09/M11 A2996 RMK SC3SC5 SLP150

CYYG;2009-01-12 19:00;CYYG 121900Z 33005KT 15SM -SHSN FEW009 OVC022 M08/M11 A2998 RMK SF1SC7 SLP155

CYYG;2009-01-12 20:00;CYYG 122000Z 33004KT 15SM -SHSN FEW009 OVC024 M08/M11 A3000 RMK SF1SC7 SLP162

CYYG;2009-01-12 20:52;CYYG 122052Z 32003KT 15SM FEW009 BKN027 M09/ RMK SF1SC6

CYYG;2009-01-12 21:00;CYYG 122100Z 29002KT 15SM FEW009 BKN030 M09/M11 A3002 RMK SF1SC6 SLP170

CYYG;2009-01-12 22:00;CYYG 122200Z 31004KT 15SM BKN030 M11/M13 A3004 RMK SC5 SLP176

CYYG;2009-01-12 23:00;CYYG 122300Z 27005KT 15SM SCT030 M12/M13 A3007 RMK SC3 SLP185

CYYG;2009-01-13 00:00;CYYG 130000Z 29007KT 15SM SKC M12/M14 A3009 RMK SLP194

CYYG;2009-01-13 01:00;CYYG 130100Z 29003KT 15SM SKC M13/M15 A3012 RMK SLP202

CYYG;2009-01-13 02:00;CYYG 130200Z 27004KT 15SM SKC M14/M16 A3013 RMK SLP206

CYYG;2009-01-13 03:00;CYYG 130300Z 27004KT 15SM SKC M14/M15 A3014 RMK SLP209

CYYG;2009-01-13 04:00;CYYG 130400Z 25005KT 15SM SKC M13/M14 A3015 RMK SLP215

CYYG;2009-01-13 05:00;CYYG 130500Z 24006KT 15SM SKC M13/M14 A3016 RMK SLP218

CYYG;2009-01-13 06:00;CYYG 130600Z 26005KT 15SM SKC M13/M14 A3018 RMK SLP224

CYYG;2009-01-13 07:00;CYYG 130700Z 24006KT 15SM SKC M14/M15 A3021 RMK SLP235

CYYG;2009-01-13 08:00;CYYG 130800Z 25005KT 15SM SKC M13/M14 A3022 RMK SLP238

CYYG;2009-01-13 09:00;CYYG 130900Z 25007KT 15SM SCT200 M12/M14 A3024 RMK CI2 SLP244

CYYG;2009-01-13 10:00;CYYG 131000Z 23004KT 15SM BKN200 M12/M14 A3023 RMK CI2 SLP241

CYYG;2009-01-13 11:00;CYYG 131100Z 22005KT 15SM OVC200 M12/M13 A3026 RMK CI4 SLP250

CYYG;2009-01-13 12:00;CYYG 131200Z 22006KT 15SM BKN200 M10/M12 A3028 RMK CI3 SLP259

CYYG;2009-01-13 13:00;CYYG 131300Z 21005KT 15SM BKN210 M10/M11 A3031 RMK CI4 SLP267

CYYG;2009-01-13 14:00;CYYG 131400Z 20006KT 15SM BKN200 M08/M10 A3031 RMK CI5 SLP269

CYYG;2009-01-13 15:00;CYYG 131500Z 20006KT 15SM BKN200 M07/M09 A3030 RMK CI3 SLP265

CYYG;2009-01-13 16:00;CYYG 131600Z 20009KT 15SM FEW200 M07/M09 A3029 RMK CI1 SLP260

CYYG;2009-01-13 17:00;CYYG 131700Z 20008KT 15SM FEW250 M05/M09 A3025 RMK CI1 SLP249

CYYG;2009-01-13 18:00;CYYG 131800Z 16007KT 15SM FEW250 M05/M08 A3023 RMK CI1 SLP242

CYYG;2009-01-13 19:00;CYYG 131900Z 17007KT 15SM SCT250 M05/M07 A3021 RMK CI2 SLP235

CYYG;2009-01-13 20:00;CYYG 132000Z 17010KT 15SM BKN230 M05/M08 A3021 RMK CI5 SLP233

CYYG;2009-01-13 21:00;CYYG 132100Z 18012KT 15SM SCT022 BKN210 M05/M08 A3019 RMK SC2CI3 SLP228

CYYG;2009-01-13 22:00;CYYG 132200Z 16009KT 15SM FEW020 BKN210 M05/M07 A3014 RMK SC2CI4 SLP210

CYYG;2009-01-13 23:00;CYYG 132300Z 16015KT 15SM FEW020 BKN200 M04/M06 A3011 RMK SC1CI4 SLP201

CYYG;2009-01-14 00:00;CYYG 140000Z 16016KT 15SM SCT035 OVC048 M04/M06 A3009 RMK SC4SC4 SLP194

CYYG;2009-01-14 01:00;CYYG 140100Z 16014G19KT 12SM OVC033 M03/M05 A3006 RMK SC8 SLP183

CYYG;2009-01-14 02:00;CYYG 140200Z 17020G25KT 12SM DRSN OVC040 M02/M04 A3001 RMK SC8 SLP165

CYYG;2009-01-14 03:00;CYYG 140300Z CCA 16016G22KT 12SM DRSN BKN032 OVC040 M02/M03 A2996 RMK SC6SC2 SLP150

CYYG;2009-01-14 04:00;CYYG 140400Z CCA 15014KT 10SM -SN DRSN OVC017 M01/M03 A2990 RMK SC8 SLP130

CYYG;2009-01-14 05:00;CYYG 140500Z CCA 16016KT 12SM DRSN BKN017 OVC028 M01/M02 A2984 RMK SC6SC2 PRESFR SLP107

CYYG;2009-01-14 05:22;CYYG 140522Z 16011G18KT 10SM DRSN FEW007 OVC017 M01/ RMK SF2SC6

CYYG;2009-01-14 05:49;CYYG 140549Z 15014KT 8SM -SN DRSN BKN006 OVC015 M00/ RMK SF5SC3

CYYG;2009-01-14 06:00;CYYG 140600Z 16014KT 8SM -SN DRSN BKN006 OVC015 M00/M01 A2977 RMK SF5SC3 PRESFR SLP082

CYYG;2009-01-14 06:47;CYYG 140647Z 15017G22KT 10SM DRSN FEW006 OVC015 01/ RMK SF2SC6

CYYG;2009-01-14 07:00;CYYG 140700Z 16015G20KT 8SM -SHSN DRSN FEW007 OVC015 01/00 A2971 RMK SF2SC6 SLP063

CYYG;2009-01-14 07:28;CYYG 140728Z 16014G19KT 10SM DRSN OVC006 01/ RMK SF8 OCNL -SHSN

CYYG;2009-01-14 08:00;CYYG 140800Z CCA 16015KT 10SM OVC005 01/01 A2963 RMK SF8 PRESFR SLP036

CYYG;2009-01-14 08:42;CYYG 140842Z 15014KT 10SM -SHRA FEW009 OVC030 02/ RMK SF2SC6

CYYG;2009-01-14 09:00;CYYG 140900Z 14018G24KT 10SM -SHRA FEW009 OVC025 02/01 A2955 RMK SF2SC6 PRESFR SLP007

CYYG;2009-01-14 09:48;CYYG 140948Z 13012KT 8SM -SHRASN OVC010 01/ RMK SC8

CYYG;2009-01-14 10:00;CYYG 141000Z 13012G17KT 5SM -SHRASN FEW004 OVC009 01/01 A2949 RMK SF2SF6 SLP988

CYYG;2009-01-14 10:08;CYYG 141008Z 13010KT 3SM -SN BKN003 OVC010 01/ RMK SF6SC2

CYYG;2009-01-14 10:18;CYYG 141018Z 13010KT 2SM -SN OVC002 00/ RMK SF8

CYYG;2009-01-14 11:00;CYYG 141100Z CCA 12007KT 3SM -SN BKN002 OVC011 00/00 A2942 RMK SF6SC2 PRESFR /S02/ SLP963

CYYG;2009-01-14 12:00;CYYG 141200Z 10008KT 3SM -SN OVC002 00/00 A2932 RMK SF8 SLP930

CYYG;2009-01-14 12:29;CYYG 141229Z 09003KT 5SM -SN BKN004 OVC019 00/ RMK SF6SC2

CYYG;2009-01-14 13:00;CYYG 141300Z 10003KT 8SM -SN BKN006 OVC023 00/00 A2926 RMK SF7SC1 PRESFR SLP911

CYYG;2009-01-14 13:54;CYYG 141354Z 00000KT 15SM VCFG SCT006 BKN028 OVC055 01/ RMK SF3SC3SC2

CYYG;2009-01-14 14:00;CYYG 141400Z 00000KT 8SM VCFG SCT006 BKN028 OVC055 01/01 A2922 RMK SF3SC3SC2 SLP897

CYYG;2009-01-14 14:20;CYYG 141420Z 27003KT 1SM R03/P6000FT/N BR BKN002 OVC026 01/ RMK SF6SC2

CYYG;2009-01-14 15:00;CYYG 141500Z 27003KT 3/4SM R03/P6000FT/N BR SCT004 OVC027 01/01 A2919 RMK SF3SC5 SLP888

CYYG;2009-01-14 15:16;CYYG 141516Z 26005KT 1 1/2SM -RA BR SCT005 OVC021 01/ RMK SF4SC4

CYYG;2009-01-14 15:47;CYYG 141547Z 25008KT 3SM -RA BR OVC003 01/ RMK SF8

CYYG;2009-01-14 16:00;CYYG 141600Z 25010KT 4SM -RA BR OVC003 01/01 A2918 RMK SF8 SLP884

CYYG;2009-01-14 16:06;CYYG 141606Z 25010G15KT 3SM -SN BKN004 OVC010 01/ RMK SF7SC1

CYYG;2009-01-14 17:00;CYYG 141700Z 29017G27KT 5SM -SN BKN006 OVC016 00/M01 A2920 RMK SF6SC2 SLP889

CYYG;2009-01-14 17:29;CYYG 141729Z 29014G25KT 1 1/2SM -SN OVC006 M00/ RMK SF8

CYYG;2009-01-14 17:44;CYYG 141744Z 29023G29KT 5SM -SN OVC007 M01/ RMK SF8

CYYG;2009-01-14 17:52;CYYG 141752Z 29022G31KT 15SM -SN SCT007 BKN020 OVC030 M01/ RMK SF3SC3SC2

CYYG;2009-01-14 18:00;CYYG 141800Z 30017G29KT 15SM -SN SCT007 OVC032 M02/M04 A2926 RMK SF3SC5 PRESRR SLP911

CYYG;2009-01-14 19:00;CYYG 141900Z 29013G26KT 12SM -SN FEW007 OVC018 M03/M05 A2932 RMK SF2SC6 PRESRR SLP931

CYYG;2009-01-14 19:54;CYYG 141954Z 28019G29KT 15SM DRSN BKN021 M05/ RMK SC7

CYYG;2009-01-14 20:00;CYYG 142000Z 28025G32KT 15SM DRSN BKN028 M06/M10 A2944 RMK SC6 PRESRR SLP970

CYYG;2009-01-14 21:00;CYYG 142100Z 28022G33KT 15SM FEW030 M08/M13 A2952 RMK SC2 PRESRR SLP000

CYYG;2009-01-14 22:00;CYYG 142200Z 29020G37KT 15SM FEW030 M10/M16 A2960 RMK SC2 PRESRR SLP025

CYYG;2009-01-14 23:00;CYYG 142300Z 29019G26KT 15SM FEW030 M11/M17 A2963 RMK SC1 SLP038

CYYG;2009-01-15 00:00;CYYG 150000Z 29017G26KT 15SM SKC M12/M18 A2973 RMK PRESRR SLP070

CYYG;2009-01-15 01:00;CYYG 150100Z 29016G25KT 15SM SKC M13/M20 A2979 RMK SLP089

CYYG;2009-01-15 02:00;CYYG 150200Z 28011G20KT 15SM FEW250 M14/M20 A2984 RMK CI0 SLP107

CYYG;2009-01-15 03:00;CYYG 150300Z 29011G20KT 15SM FEW250 M15/M21 A2987 RMK CI1 SLP120

CYYG;2009-01-15 04:00;CYYG 150400Z 29013G21KT 15SM OVC220 M15/M21 A2995 RMK CI6 PRESRR SLP144

CYYG;2009-01-15 05:00;CYYG 150500Z 28014KT 15SM BKN220 M16/M22 A2996 RMK CI2 SLP149

CYYG;2009-01-15 06:00;CYYG 150600Z 28010KT 15SM FEW220 M17/M22 A2998 RMK CI1 SLP156

CYYG;2009-01-15 07:00;CYYG 150700Z 28009G15KT 15SM SKC M17/M22 A3001 RMK SLP166

CYYG;2009-01-15 08:00;CYYG 150800Z 29010G15KT 15SM SKC M18/M23 A3004 RMK SLP174

CYYG;2009-01-15 09:00;CYYG 150900Z 29009G15KT 15SM SKC M18/M23 A3006 RMK SLP185

CYYG;2009-01-15 10:00;CYYG 151000Z 28009KT 15SM FEW110 FEW240 M19/M23 A3008 RMK AC2CI1 SLP191

CYYG;2009-01-15 11:00;CYYG 151100Z 27008KT 15SM BKN150 M19/M23 A3010 RMK AC2 SLP198

CYYG;2009-01-15 12:00;CYYG 151200Z 28006KT 15SM BKN150 M20/M24 A3013 RMK AC2 SLP207

CYYG;2009-01-15 13:00;CYYG 151300Z 29007KT 15SM FEW020 FEW150 BKN240 M20/M24 A3014 RMK SC1AC1CI1 SLP213

CYYG;2009-01-15 14:00;CYYG 151400Z 30010KT 15SM FEW020 BKN240 M19/M24 A3016 RMK SC1CI2 SLP217

CYYG;2009-01-15 15:00;CYYG 151500Z 29009KT 15SM FEW020 SCT240 M19/M25 A3017 RMK SC1CI1 SLP222

CYYG;2009-01-15 16:00;CYYG 151600Z 29009G15KT 15SM FEW020 FEW240 M18/M25 A3016 RMK SC2CI0 SLP219

CYYG;2009-01-15 17:00;CYYG 151700Z 27011G16KT 15SM FEW020 FEW240 M18/M27 A3016 RMK SC1CI1 SLP218

CYYG;2009-01-15 18:00;CYYG 151800Z 29013KT 15SM FEW020 FEW240 M18/M27 A3016 RMK SC1CI1 SLP217

CYYG;2009-01-15 19:00;CYYG 151900Z 28008KT 15SM FEW020 FEW240 M18/M26 A3016 RMK SC1CI1 SLP217

CYYG;2009-01-15 20:00;CYYG 152000Z 30006KT 15SM FEW020 FEW240 M18/M26 A3017 RMK SC1CI1 SLP220

CYYG;2009-01-15 21:00;CYYG 152100Z 29006KT 15SM FEW020 FEW240 M19/M26 A3018 RMK SC1CI1 SLP225

CYYG;2009-01-15 22:00;CYYG 152200Z 30004KT 15SM FEW020 FEW240 M20/M26 A3019 RMK SC1CI1 SLP229

CYYG;2009-01-15 23:00;CYYG 152300Z 31005KT 15SM FEW020 FEW240 M21/M27 A3021 RMK SC1CI1 SLP234

CYYG;2009-01-16 00:00;CYYG 160000Z 33007KT 15SM SKC M20/M27 A3020 RMK SLP232

CYYG;2009-01-16 01:00;CYYG 160100Z 31008KT 15SM SKC M20/M27 A3019 RMK SLP229

CYYG;2009-01-16 02:00;CYYG 160200Z 27005KT 15SM SKC M20/M27 A3020 RMK SLP233

CYYG;2009-01-16 02:24;CYYG 160224Z 27005KT 15SM -SHSN BKN031 M20/ RMK SC7

CYYG;2009-01-16 03:00;CYYG 160300Z 27005KT 15SM -SHSN FEW020 SCT031 M20/M26 A3022 RMK SC2SC2 SLP239

CYYG;2009-01-16 04:00;CYYG 160400Z 28006KT 15SM FEW020 M21/M27 A3023 RMK SC1 SLP242

CYYG;2009-01-16 05:00;CYYG 160500Z 29006KT 15SM SKC M21/M28 A3022 RMK SLP238

CYYG;2009-01-16 06:00;CYYG 160600Z 29006KT 15SM SKC M22/M28 A3021 RMK SLP234

CYYG;2009-01-16 07:00;CYYG 160700Z 28005KT 15SM SKC M23/M28 A3020 RMK SLP233

CYYG;2009-01-16 08:00;CYYG 160800Z 28007KT 15SM SKC M23/M28 A3020 RMK SLP232

CYYG;2009-01-16 09:00;CYYG 160900Z 29008KT 15SM SKC M23/M27 A3020 RMK SLP232

CYYG;2009-01-16 10:00;CYYG 161000Z 29008KT 15SM SKC M23/M28 A3020 RMK FROIN SLP233

CYYG;2009-01-16 11:00;CYYG 161100Z 28005KT 15SM FEW030 M23/M28 A3022 RMK SC1 FROIN SLP240

CYYG;2009-01-16 12:00;CYYG 161200Z 23004KT 15SM FEW030 M23/M28 A3025 RMK SC1 SLP248

CYYG;2009-01-16 13:00;CYYG 161300Z 27008KT 15SM FEW030 M22/M27 A3026 RMK SC1 SLP254

CYYG;2009-01-16 14:00;CYYG 161400Z 30008KT 15SM FEW014 M21/M27 A3028 RMK SC1 -SHSN OVR WTR SLP258

CYYG;2009-01-16 15:00;CYYG 161500Z 27010KT 15SM FEW015 M20/M27 A3028 RMK SC1 -SHSN OVR STRAITS SLP261

CYYG;2009-01-16 16:00;CYYG 161600Z 27008KT 15SM FEW015 M20/M27 A3025 RMK SC1 -SHSN OVR STRAITS SLP251

CYYG;2009-01-16 17:00;CYYG 161700Z 28009KT 15SM FEW015 M19/M26 A3024 RMK SC1 SLP246

CYYG;2009-01-16 18:00;CYYG 161800Z 26009KT 15SM FEW015 M19/M27 A3024 RMK SC1 SLP247

CYYG;2009-01-16 19:00;CYYG 161900Z 26006KT 15SM FEW015 M19/M27 A3023 RMK SC1 SLP244

CYYG;2009-01-16 20:00;CYYG 162000Z 27007KT 15SM FEW015 M19/M27 A3022 RMK SC1 SLP240

CYYG;2009-01-16 21:00;CYYG 162100Z 27002KT 15SM FEW015 M19/M27 A3021 RMK SC1 SLP237

CYYG;2009-01-16 22:00;CYYG 162200Z 00000KT 15SM SKC M20/M27 A3023 RMK SLP244

CYYG;2009-01-16 23:00;CYYG 162300Z 28003KT 15SM SKC M20/M27 A3025 RMK SLP250

CYYG;2009-01-17 00:00;CYYG 170000Z 26007KT 15SM SKC M20/M27 A3027 RMK SLP256

CYYG;2009-01-17 01:00;CYYG 170100Z 27009KT 15SM SKC M20/M26 A3028 RMK SLP258

CYYG;2009-01-17 02:00;CYYG 170200Z 26002KT 15SM SKC M20/M26 A3029 RMK SLP262

CYYG;2009-01-17 03:00;CYYG 170300Z 27004KT 15SM SKC M20/M27 A3029 RMK SLP262

CYYG;2009-01-17 04:00;CYYG 170400Z 28005KT 15SM SKC M20/M27 A3028 RMK SLP261

CYYG;2009-01-17 05:00;CYYG 170500Z 26007KT 15SM SKC M20/M27 A3028 RMK SLP261

CYYG;2009-01-17 06:00;CYYG 170600Z 28008KT 15SM SKC M20/M27 A3029 RMK SLP263

CYYG;2009-01-17 07:00;CYYG 170700Z 29008KT 15SM SKC M21/M27 A3031 RMK SLP268

CYYG;2009-01-17 08:00;CYYG 170800Z 29008KT 15SM SKC M22/M27 A3032 RMK SLP272

CYYG;2009-01-17 09:00;CYYG 170900Z 29007KT 15SM SKC M22/M29 A3034 RMK SLP279

CYYG;2009-01-17 10:00;CYYG 171000Z 29006KT 15SM SKC M23/M31 A3037 RMK SLP289

CYYG;2009-01-17 11:00;CYYG 171100Z 27005KT 15SM SKC M24/M30 A3037 RMK SLP291

CYYG;2009-01-17 12:00;CYYG 171200Z 27005KT 15SM FEW040 FEW200 M24/M31 A3039 RMK SC1CI0 SLP298

CYYG;2009-01-17 13:00;CYYG 171300Z 27006KT 15SM FEW040 FEW200 M24/M31 A3041 RMK SC1CI0 SLP304

CYYG;2009-01-17 14:00;CYYG 171400Z 27008KT 15SM FEW030 BKN230 M23/M31 A3040 RMK SC1CI1 SLP301

CYYG;2009-01-17 15:00;CYYG 171500Z 27007KT 15SM FEW030 SCT120 BKN230 M22/M29 A3039 RMK SC1AC0CI0 SLP298

CYYG;2009-01-17 16:00;CYYG 171600Z 31009KT 15SM FEW030 SCT120 BKN230 M22/M29 A3038 RMK SC1AC0CI1 SLP294

CYYG;2009-01-17 17:00;CYYG 171700Z 25012KT 15SM FEW030 BKN110 M21/M29 A3038 RMK SC1AC1 SLP292

CYYG;2009-01-17 18:00;CYYG 171800Z 27009KT 15SM FEW030 FEW110 M21/M29 A3036 RMK SC1AC0 SLP288

CYYG;2009-01-17 19:00;CYYG 171900Z 27010KT 15SM FEW030 M21/M28 A3038 RMK SC1 SLP292

CYYG;2009-01-17 20:00;CYYG 172000Z 25010G18KT 15SM FEW030 M20/M29 A3038 RMK SC1 SLP294

CYYG;2009-01-17 21:00;CYYG 172100Z 27007KT 15SM FEW030 M20/M29 A3040 RMK SC1 SLP299

CYYG;2009-01-17 22:00;CYYG 172200Z 26006KT 15SM FEW030 M20/M28 A3041 RMK SC1 SLP304

CYYG;2009-01-17 23:00;CYYG 172300Z 27005KT 15SM FEW030 M21/M28 A3044 RMK SC1 SLP313

CYYG;2009-01-18 00:00;CYYG 180000Z 27004KT 15SM FEW030 M21/M27 A3046 RMK SC1 SLP319

CYYG;2009-01-18 01:00;CYYG 180100Z 28004KT 15SM FEW030 M21/M27 A3045 RMK SC1 SLP318

CYYG;2009-01-18 02:00;CYYG 180200Z 27003KT 15SM SKC M21/M27 A3048 RMK SLP327

CYYG;2009-01-18 03:00;CYYG 180300Z 29004KT 15SM SKC M21/M27 A3050 RMK SLP332

CYYG;2009-01-18 04:00;CYYG 180400Z 29006KT 15SM SKC M21/M28 A3050 RMK SLP333

CYYG;2009-01-18 05:00;CYYG 180500Z 29005KT 15SM SKC M21/M28 A3051 RMK SLP336

CYYG;2009-01-18 06:00;CYYG 180600Z 29005KT 15SM SKC M22/M28 A3053 RMK SLP345

CYYG;2009-01-18 07:00;CYYG 180700Z 27004KT 15SM SKC M22/M28 A3054 RMK SLP348

CYYG;2009-01-18 08:00;CYYG 180800Z 24005KT 15SM SKC M22/M27 A3055 RMK SLP351

CYYG;2009-01-18 09:00;CYYG 180900Z 23004KT 15SM SKC M22/M27 A3056 RMK SLP354

CYYG;2009-01-18 10:00;CYYG 181000Z 25005KT 15SM SKC M22/M27 A3058 RMK SLP360

CYYG;2009-01-18 11:00;CYYG 181100Z 30002KT 15SM SKC M23/M28 A3057 RMK SLP358

CYYG;2009-01-18 12:00;CYYG 181200Z 24004KT 15SM FEW120 M21/M25 A3059 RMK AS1 SLP365

CYYG;2009-01-18 13:00;CYYG 181300Z 27004KT 15SM FEW120 M20/M25 A3060 RMK AC2 SLP366

CYYG;2009-01-18 14:00;CYYG 181400Z 24003KT 15SM BKN130 M20/M25 A3060 RMK AC4 SLP368

CYYG;2009-01-18 15:00;CYYG 181500Z 16002KT 15SM BKN090 M18/M24 A3058 RMK AS6 SLP361

CYYG;2009-01-18 16:00;CYYG 181600Z 17005KT 15SM OVC063 M17/M21 A3056 RMK AS8 SLP354

CYYG;2009-01-18 17:00;CYYG 181700Z 17003KT 15SM OVC070 M15/M22 A3053 RMK AS7 SLP343

CYYG;2009-01-18 18:00;CYYG 181800Z 11004KT 15SM OVC080 M15/M23 A3050 RMK AS8 SLP335

CYYG;2009-01-18 19:00;CYYG 181900Z 09005KT 15SM OVC040 M14/M22 A3049 RMK SC8 SLP329

CYYG;2009-01-18 19:34;CYYG 181934Z 11007KT 12SM -SHSN OVC022 M13/ RMK SC8

CYYG;2009-01-18 20:00;CYYG 182000Z 11007KT 12SM -SHSN OVC021 M13/M20 A3049 RMK SC8 SLP331

CYYG;2009-01-18 20:30;CYYG 182030Z 12007KT 3SM -SHSN BKN013 OVC033 M13/ RMK SC6SC2

CYYG;2009-01-18 21:00;CYYG 182100Z 10008KT 3SM -SHSN OVC014 M13/M17 A3049 RMK SC8 SLP329

CYYG;2009-01-18 21:36;CYYG 182136Z 10009KT 2SM -SHSN OVC013 M13/ RMK SC8

CYYG;2009-01-18 22:00;CYYG 182200Z 11008KT 2SM -SHSN VV009 M13/M15 A3045 RMK SN8 SLP318

CYYG;2009-01-18 22:20;CYYG 182220Z 10007KT 2SM -SHSN VV008 M13/ RMK SN8

CYYG;2009-01-18 23:00;CYYG 182300Z 10009KT 2SM -SN OVC012 M12/M13 A3041 RMK SC8 SLP304

CYYG;2009-01-19 00:00;CYYG 190000Z 12014KT 2 1/2SM -SN OVC012 M10/M11 A3036 RMK SC8 SLP284

CYYG;2009-01-19 00:48;CYYG 190048Z 11016G21KT 3/4SM R03/6000FT/D -SN BKN006 OVC016 M10/ RMK SF6SC2

CYYG;2009-01-19 01:00;CYYG 190100Z 11013G24KT 3/4SM R03/5000FT/D -SN OVC004 M10/M11 A3030 RMK SF8 SLP266

CYYG;2009-01-19 01:22;CYYG 190122Z 10016G22KT 3/4SM R03/3500FT/N -SN BLSN OVC003 M10/ RMK SF8

CYYG;2009-01-19 02:00;CYYG 190200Z 11017G24KT 3/4SM R03/4000FT/N -SN BLSN OVC004 M09/M10 A3022 RMK SF8 PRESFR SLP239

CYYG;2009-01-19 03:00;CYYG 190300Z 12022G32KT 2SM -SN BLSN BKN006 OVC031 M08/M09 A3016 RMK SF6SC2 PRESFR SLP217

CYYG;2009-01-19 04:00;CYYG 190400Z 12019G25KT 10SM -SN SCT010 OVC017 M07/M09 A3011 RMK SF3SC5 SLP199

CYYG;2009-01-19 05:00;CYYG 190500Z 13017KT 4SM -SN OVC011 M06/M07 A3005 RMK SF8 SLP181

CYYG;2009-01-19 06:00;CYYG 190600Z 13016G21KT 8SM -SN SCT010 OVC020 M04/M05 A2998 RMK SF3SC5 PRESFR SLP154

CYYG;2009-01-19 07:00;CYYG 190700Z 14015KT 10SM -SN SCT009 OVC018 M03/M04 A2989 RMK SF3SC5 PRESFR SLP126

CYYG;2009-01-19 07:46;CYYG 190746Z 13015G21KT 10SM BKN010 M01/ RMK SF7

CYYG;2009-01-19 08:00;CYYG 190800Z 13016G21KT 10SM BKN013 M01/M02 A2984 RMK SF7 SLP109

CYYG;2009-01-19 09:00;CYYG 190900Z 13016G24KT 10SM OVC008 00/M01 A2977 RMK SF8 PRESFR SLP085

CYYG;2009-01-19 09:38;CYYG 190938Z 14014G20KT 10SM -RA OVC009 01/ RMK SF8

CYYG;2009-01-19 10:00;CYYG 191000Z 14014KT 10SM -RA OVC008 01/00 A2972 RMK SF8 SLP067

CYYG;2009-01-19 11:00;CYYG 191100Z 15018KT 8SM -RA OVC004 03/02 A2964 RMK SF8 PRESFR SLP042

CYYG;2009-01-19 11:46;CYYG 191146Z 15013KT 3SM BR OVC003 03/ RMK SF8

CYYG;2009-01-19 12:00;CYYG 191200Z 14014G19KT 1/2SM R03/P6000FT/D FG OVC002 03/03 A2958 RMK FG5SF3 PRESFR SLP020

CYYG;2009-01-19 12:10;CYYG 191210Z 15016KT 1SM R03/P6000FT/U -RA BR OVC002 03/ RMK SF8

CYYG;2009-01-19 12:18;CYYG 191218Z 15015G20KT 5SM -RA BR OVC003 03/ RMK SF8

CYYG;2009-01-19 12:46;CYYG 191246Z 14013G20KT 15SM FEW003 BKN060 04/ RMK SF2SC5

CYYG;2009-01-19 13:00;CYYG 191300Z 14014KT 15SM FEW003 BKN054 04/04 A2948 RMK SF2SC6 PRESFR SLP987

CYYG;2009-01-19 13:34;CYYG 191334Z 13014G19KT 15SM BKN005 BKN033 04/ RMK SF5SC2

CYYG;2009-01-19 14:00;CYYG 191400Z 15013G20KT 15SM OVC004 04/04 A2940 RMK SF8 PRESFR SLP960

CYYG;2009-01-19 14:15;CYYG 191415Z 15014KT 10SM -DZ BKN005 OVC012 04/ RMK SF6SC2

CYYG;2009-01-19 14:42;CYYG 191442Z 16020KT 15SM OVC007 05/ RMK SF8

CYYG;2009-01-19 15:00;CYYG 191500Z 17019G25KT 15SM BKN005 OVC011 05/05 A2935 RMK SF5SF3 SLP942

CYYG;2009-01-19 15:18;CYYG 191518Z 18020G26KT 15SM SCT005 OVC009 05/ RMK SF4SF4

CYYG;2009-01-19 15:49;CYYG 191549Z 21016G22KT 15SM BKN004 OVC015 05/ RMK SF6SC2

CYYG;2009-01-19 16:00;CYYG 191600Z CCA 20017KT 15SM BKN005 OVC017 05/05 A2936 RMK SF6SC2 SLP945

CYYG;2009-01-19 16:41;CYYG 191641Z 20016G21KT 15SM SCT003 BKN012 05/ RMK SF3SC4

CYYG;2009-01-19 17:00;CYYG 191700Z 20017G22KT 15SM FEW003 BKN016 BKN024 06/05 A2936 RMK SF2SC3SC2 SLP944

CYYG;2009-01-19 18:00;CYYG 191800Z 20015KT 15SM BKN019 06/05 A2935 RMK SC7 SLP942

CYYG;2009-01-19 18:41;CYYG 191841Z 26012G18KT 15SM BKN011 OVC250 06/ RMK SC5CI2 WSHFT 1838

CYYG;2009-01-19 19:00;CYYG 191900Z 25012KT 15SM FEW008 BKN017 BKN250 05/04 A2939 RMK SF2SC3CI1 SLP953

CYYG;2009-01-19 19:20;CYYG 191920Z 25012G20KT 15SM BKN009 OVC019 04/ RMK SC6SC2

CYYG;2009-01-19 19:42;CYYG 191942Z 27014KT 15SM BKN006 02/ RMK ST7

CYYG;2009-01-19 20:00;CYYG 192000Z 28014G19KT 15SM BKN004 01/01 A2944 RMK ST7 PRESRR SLP973

CYYG;2009-01-19 20:25;CYYG 192025Z 27010G17KT 15SM FEW004 OVC010 00/ RMK SF2SC6

CYYG;2009-01-19 21:00;CYYG 192100Z 27009KT 15SM FEW011 OVC220 M01/M02 A2947 RMK SC2CI4 SLP982

CYYG;2009-01-19 21:25;CYYG 192125Z 28011G17KT 15SM BKN008 OVC220 M02/ RMK SF6CI2

CYYG;2009-01-19 22:00;CYYG 192200Z 29014G19KT 15SM OVC009 M02/M04 A2950 RMK SC8 SLP993

CYYG;2009-01-19 23:00;CYYG 192300Z 29012KT 15SM OVC009 M03/M04 A2954 RMK SC8 SLP005

CYYG;2009-01-20 00:00;CYYG 200000Z 29009KT 15SM OVC010 M02/M04 A2955 RMK SF8 SLP010

CYYG;2009-01-20 01:00;CYYG 200100Z 31005KT 15SM OVC010 M02/M04 A2955 RMK SF8 SLP009

CYYG;2009-01-20 02:00;CYYG 200200Z 31003KT 15SM OVC016 M03/M05 A2957 RMK SC8 SLP015

CYYG;2009-01-20 03:00;CYYG 200300Z 00000KT 15SM OVC020 M03/M05 A2957 RMK SC8 SLP015

CYYG;2009-01-20 04:00;CYYG 200400Z 33005KT 15SM OVC012 M03/M05 A2956 RMK SC8 SLP013

CYYG;2009-01-20 05:00;CYYG 200500Z 34002KT 15SM OVC018 M03/M06 A2955 RMK SC8 SLP008

CYYG;2009-01-20 06:00;CYYG 200600Z 00000KT 15SM OVC020 M03/M05 A2956 RMK SC8 SLP013

CYYG;2009-01-20 07:00;CYYG 200700Z 00000KT 15SM OVC014 M03/M05 A2957 RMK SC8 SLP016

CYYG;2009-01-20 08:00;CYYG 200800Z 31005KT 15SM OVC017 M04/M05 A2958 RMK SC8 SLP017

CYYG;2009-01-20 09:00;CYYG 200900Z 34003KT 15SM OVC015 M04/M05 A2956 RMK SC8 SLP011

CYYG;2009-01-20 10:00;CYYG 201000Z 35003KT 15SM OVC009 M04/M06 A2957 RMK SF8 SLP016

CYYG;2009-01-20 11:00;CYYG 201100Z 36005KT 10SM OVC007 M05/M06 A2959 RMK SF8 SLP023

CYYG;2009-01-20 11:27;CYYG 201127Z 36004KT 15SM -SHSN BKN007 OVC009 M05/ RMK SF6SF2

CYYG;2009-01-20 12:00;CYYG 201200Z 01005KT 10SM -SHSN OVC006 M05/M06 A2962 RMK SF8 SLP033

CYYG;2009-01-20 12:33;CYYG 201233Z 36004KT 8SM -SHSN OVC009 M06/ RMK SF8

CYYG;2009-01-20 13:00;CYYG 201300Z 01005KT 6SM -SHSN OVC010 M06/M07 A2961 RMK SF8 SLP030

CYYG;2009-01-20 13:21;CYYG 201321Z 03005KT 5SM -SN BKN005 OVC024 M06/ RMK SF6SC2

CYYG;2009-01-20 13:33;CYYG 201333Z 02005KT 10SM -SN FEW005 OVC020 M06/ RMK SF2SC6

CYYG;2009-01-20 14:00;CYYG 201400Z 36005KT 10SM -SN FEW006 OVC021 M05/M07 A2962 RMK SF2SC6 SLP033

CYYG;2009-01-20 15:00;CYYG 201500Z 02002KT 15SM -SN OVC010 M05/M07 A2963 RMK SC8 SLP035

CYYG;2009-01-20 15:36;CYYG 201536Z 04005KT 12SM -SN OVC012 M05/ RMK SC8

CYYG;2009-01-20 16:00;CYYG 201600Z 04003KT 12SM -SN OVC012 M05/M07 A2962 RMK SC8 SLP034

CYYG;2009-01-20 17:00;CYYG 201700Z 01003KT 8SM -SN OVC014 M05/M07 A2959 RMK SC8 SLP022

CYYG;2009-01-20 18:00;CYYG 201800Z 01004KT 4SM -SN OVC014 M05/M07 A2959 RMK SC8 SLP024

CYYG;2009-01-20 19:00;CYYG 201900Z 36006KT 4SM -SN OVC014 M06/M08 A2962 RMK SC8 SLP033

CYYG;2009-01-20 20:00;CYYG 202000Z 36006KT 4SM -SN OVC019 M07/M08 A2962 RMK SC8 SLP032

CYYG;2009-01-20 21:00;CYYG 202100Z 36006KT 15SM -SHSN OVC024 M08/M09 A2960 RMK SC8 SLP028

CYYG;2009-01-20 22:00;CYYG 202200Z 35004KT 15SM -SHSN OVC024 M07/M10 A2964 RMK SC8 SLP039

CYYG;2009-01-20 23:00;CYYG 202300Z 36005KT 15SM -SHSN OVC022 M07/M10 A2966 RMK SC8 SLP047

CYYG;2009-01-21 00:00;CYYG 210000Z 36005KT 15SM -SHSN FEW012 OVC025 M08/M10 A2965 RMK SC2SC6 SLP043

CYYG;2009-01-21 00:53;CYYG 210053Z 35003KT 15SM FEW012 SCT025 M10/ RMK SC1SC2

CYYG;2009-01-21 01:00;CYYG 210100Z 35003KT 15SM FEW012 FEW025 BKN220 M10/M12 A2964 RMK SC1SC1CI2 SLP041

CYYG;2009-01-21 02:00;CYYG 210200Z 34003KT 15SM FEW012 OVC200 M10/M12 A2965 RMK SC2CS6 SLP044

CYYG;2009-01-21 03:00;CYYG 210300Z 01004KT 15SM FEW012 BKN200 M10/M12 A2961 RMK SC1CS5 SLP029

CYYG;2009-01-21 03:19;CYYG 210319Z 36004KT 15SM -SHSN BKN015 BKN200 M10/ RMK SC6CS1

CYYG;2009-01-21 04:00;CYYG 210400Z 04005KT 15SM -SHSN BKN017 OVC200 M09/M11 A2964 RMK SC7CS1 SLP041

CYYG;2009-01-21 05:00;CYYG 210500Z 03006KT 15SM -SHSN OVC016 M09/M11 A2962 RMK SC8 SLP033

CYYG;2009-01-21 06:00;CYYG 210600Z 02003KT 6SM -SHSN OVC016 M09/M11 A2962 RMK SC8 SLP033

CYYG;2009-01-21 07:00;CYYG 210700Z 36005KT 6SM -SHSN OVC018 M09/M11 A2961 RMK SC8 SLP030

CYYG;2009-01-21 08:00;CYYG 210800Z 36004KT 8SM -SHSN BKN017 M10/M12 A2961 RMK SC6 SLP029

CYYG;2009-01-21 09:00;CYYG 210900Z 36004KT 15SM SCT027 M11/M13 A2960 RMK SC3 SLP026

CYYG;2009-01-21 10:00;CYYG 211000Z 34004KT 15SM FEW017 FEW250 M13/M14 A2961 RMK SC1CI0 SLP030

CYYG;2009-01-21 11:00;CYYG 211100Z 00000KT 15SM FEW017 FEW250 M12/M13 A2963 RMK SC1CI1 SLP038

CYYG;2009-01-21 12:00;CYYG 211200Z 00000KT 15SM FEW017 FEW250 M14/M15 A2964 RMK SC1CI1 SLP042

CYYG;2009-01-21 13:00;CYYG 211300Z 31003KT 15SM FEW250 M12/M13 A2964 RMK CI1 SLP041

CYYG;2009-01-21 14:00;CYYG 211400Z 31003KT 15SM FEW015 FEW250 M10/M12 A2965 RMK CF1CI1 SLP043

CYYG;2009-01-21 15:00;CYYG 211500Z 32005KT 15SM FEW012 FEW250 M09/M12 A2965 RMK CF1CI1 SLP043

CYYG;2009-01-21 16:00;CYYG 211600Z 32006KT 15SM FEW012 FEW250 M09/M13 A2963 RMK CF1CI1 SLP038

CYYG;2009-01-21 17:00;CYYG 211700Z 32003KT 15SM FEW012 FEW250 M08/M13 A2961 RMK CF1CI1 SLP032

CYYG;2009-01-21 18:00;CYYG 211800Z 32002KT 15SM FEW015 FEW250 M08/M13 A2961 RMK CF1CI1 SLP029

CYYG;2009-01-21 19:00;CYYG 211900Z 31004KT 15SM FEW015 FEW250 M08/M13 A2961 RMK CF1CI1 SLP029

CYYG;2009-01-21 20:00;CYYG 212000Z 28003KT 15SM FEW020 FEW250 M08/M13 A2961 RMK CF1CI1 SLP030

CYYG;2009-01-21 21:00;CYYG 212100Z 25003KT 15SM FEW020 SCT250 M09/M13 A2962 RMK SC1CI2 SLP034

CYYG;2009-01-21 22:00;CYYG 212200Z 25002KT 15SM SCT026 BKN250 M09/M13 A2963 RMK SC3CI1 SLP036

CYYG;2009-01-21 23:00;CYYG 212300Z 20004KT 15SM FEW026 SCT250 M10/M13 A2962 RMK SC2CI1 SLP035

CYYG;2009-01-22 00:00;CYYG 220000Z 22005KT 15SM FEW025 FEW250 M10/M12 A2962 RMK SC1CI0 SLP035

CYYG;2009-01-22 01:00;CYYG 220100Z 23003KT 15SM BKN017 M11/M12 A2963 RMK SC6 FROIN SLP037

CYYG;2009-01-22 02:00;CYYG 220200Z 24005KT 15SM FEW017 BKN200 M10/M11 A2962 RMK SC2CI3 FROIN SLP034

CYYG;2009-01-22 03:00;CYYG 220300Z 24005KT 15SM FEW017 BKN200 M10/M12 A2961 RMK SC1CI3 FROIN SLP031

CYYG;2009-01-22 04:00;CYYG 220400Z 24006KT 15SM FEW017 BKN140 M10/M12 A2959 RMK SC1AS2 FROIN SLP025

CYYG;2009-01-22 05:00;CYYG 220500Z 25006KT 15SM SCT100 M10/M13 A2959 RMK AS2 FROIN SLP024

CYYG;2009-01-22 06:00;CYYG 220600Z 25011G16KT 15SM SKC M10/M13 A2959 RMK SLP024

CYYG;2009-01-22 07:00;CYYG 220700Z 25006KT 15SM FEW200 M11/M14 A2960 RMK CI1 SLP027

CYYG;2009-01-22 08:00;CYYG 220800Z 25008KT 15SM FEW200 M11/M14 A2960 RMK CI1 SLP026

CYYG;2009-01-22 09:00;CYYG 220900Z 26008KT 15SM FEW200 M12/M14 A2960 RMK CI1 SLP026

CYYG;2009-01-22 10:00;CYYG 221000Z 25008KT 15SM SKC M12/M15 A2960 RMK SLP028

CYYG;2009-01-22 11:00;CYYG 221100Z 25009KT 15SM FEW017 M12/M15 A2961 RMK SC1 SLP030

CYYG;2009-01-22 12:00;CYYG 221200Z 26007KT 15SM BKN220 M12/M15 A2962 RMK CI2 SLP033

CYYG;2009-01-22 13:00;CYYG 221300Z 27009KT 15SM FEW066 BKN140 OVC220 M10/M13 A2960 RMK SC2AC2CI2 SLP028

CYYG;2009-01-22 14:00;CYYG 221400Z 25008G15KT 15SM FEW065 BKN170 OVC220 M09/M13 A2960 RMK SC2AC3CS2 SLP026

CYYG;2009-01-22 15:00;CYYG 221500Z 25010G18KT 15SM SCT074 BKN140 OVC220 M08/M12 A2959 RMK AC3AC2CS2 SLP024

CYYG;2009-01-22 15:19;CYYG 221519Z 24009G17KT 10SM -SHSN SCT020 BKN074 OVC140 M07/ RMK SC3AC2AC2

CYYG;2009-01-22 16:00;CYYG 221600Z 24011KT 12SM -SHSN SCT025 BKN075 OVC140 M07/M10 A2956 RMK SC3AC3AC2 SLP014

CYYG;2009-01-22 17:00;CYYG 221700Z 23008KT 15SM FEW020 BKN044 OVC140 M05/M09 A2953 RMK SC2SC5AC2 OCNL -SHSN SLP004

CYYG;2009-01-22 18:00;CYYG 221800Z 26009KT 15SM OVC035 M04/M10 A2952 RMK SC8 OCNL -SHSN SLP000

CYYG;2009-01-22 18:47;CYYG 221847Z 25010G17KT 3SM -SHSN DRSN OVC012 M05/ RMK SC8

CYYG;2009-01-22 19:00;CYYG 221900Z 25009G15KT 2SM -SN DRSN OVC010 M05/M07 A2952 RMK SC8 SLP001

CYYG;2009-01-22 19:17;CYYG 221917Z 25011KT 1 1/2SM -SN DRSN OVC009 M05/ RMK SF8

CYYG;2009-01-22 20:00;CYYG 222000Z 24010G15KT 6SM -SN DRSN BKN009 OVC021 M04/M06 A2952 RMK SF6SC2 SLP999

CYYG;2009-01-22 20:31;CYYG 222031Z 25012KT 15SM -SHSN DRSN FEW010 BKN025 OVC100 M04/ RMK SC2SC3AC2

CYYG;2009-01-22 21:00;CYYG 222100Z 25010KT 15SM FEW025 BKN095 M04/M06 A2953 RMK SC2AC5 SLP004

CYYG;2009-01-22 22:00;CYYG 222200Z 27012KT 15SM FEW025 BKN083 M04/M08 A2955 RMK SC2AC3 SLP010

CYYG;2009-01-22 23:00;CYYG 222300Z 27009KT 15SM FEW025 SCT083 M05/M08 A2955 RMK SC2AC2 SLP011

CYYG;2009-01-23 00:00;CYYG 230000Z 26005KT 15SM FEW025 FEW085 M05/M08 A2957 RMK SC1AC2 SLP016

CYYG;2009-01-23 00:25;CYYG 230025Z 27008KT 2SM -SHSN BKN025 M05/ RMK SC7 CU ASOCTD

CYYG;2009-01-23 00:45;CYYG 230045Z 25007KT 15SM FEW020 BKN042 M05/ RMK SC2SC5

CYYG;2009-01-23 01:00;CYYG 230100Z 25008KT 15SM FEW020 FEW040 BKN082 M05/M08 A2958 RMK SC1SC2AC4 SLP018

CYYG;2009-01-23 02:00;CYYG 230200Z 26015KT 15SM FEW020 BKN090 M04/M08 A2958 RMK SC1AC5 SLP018

CYYG;2009-01-23 02:54;CYYG 230254Z 25013G20KT 12SM -SHSN FEW030 OVC090 M03/ RMK SC2AC6

CYYG;2009-01-23 03:00;CYYG 230300Z 26014G22KT 10SM -SHSN SCT030 OVC090 M03/M07 A2958 RMK SC4AC4 SLP021

CYYG;2009-01-23 03:20;CYYG 230320Z 26017KT 2 1/2SM -SHSN BKN020 OVC090 M04/ RMK SC6AC2

CYYG;2009-01-23 03:29;CYYG 230329Z 27015G21KT 5/8SM R03/P6000FT/D -SHSN VV006 M04/ RMK SN8

CYYG;2009-01-23 03:33;CYYG 230333Z 26014G21KT 1/4SM R03/P6000FT/D +SHSN VV004 M04/ RMK SN8

CYYG;2009-01-23 03:43;CYYG 230343Z 28014G20KT 5/8SM R03/2200V4500FT/D -SHSN DRSN VV006 M04/ RESN RMK SN8

CYYG;2009-01-23 03:46;CYYG 230346Z 30021G30KT 1/8SM R03/2200V4500FT/U +SHSN DRSN VV002 M05/ RMK SN8 PRESRR

CYYG;2009-01-23 03:53;CYYG 230353Z 30013G29KT 1SM R03/1000VP6000FT/U -SHSN DRSN OVC010 M06/ RESN RMK SN3SC5 PRESRR

CYYG;2009-01-23 04:00;CYYG 230400Z 31014KT 5/8SM R03/3500VP6000FT/U -SN DRSN VV006 M06/M07 A2964 RESN RMK SN8 PRESRR /S01/ SLP039

CYYG;2009-01-23 04:14;CYYG 230414Z 31017G28KT 3SM R03/2600VP6000FT/U -SHSN DRSN BKN010 OVC021 M07/ RMK SC5SC3

CYYG;2009-01-23 04:53;CYYG 230453Z 31013G19KT 15SM DRSN FEW025 SCT040 M08/ RMK SC1SC2

CYYG;2009-01-23 05:00;CYYG 230500Z 30015KT 15SM DRSN FEW025 SCT040 M08/M13 A2971 RMK SC1SC2 PRESRR SLP063

CYYG;2009-01-23 05:47;CYYG 230547Z 32015G22KT 5SM -SHSN DRSN OVC026 M10/ RMK SC8

CYYG;2009-01-23 06:00;CYYG 230600Z 32022G27KT 7SM -SHSN DRSN OVC026 M12/M17 A2979 RMK SC8 SLP092

CYYG;2009-01-23 07:00;CYYG 230700Z 31011G21KT 10SM -SHSN DRSN BKN029 M13/M18 A2984 RMK SC7 SLP108

CYYG;2009-01-23 07:19;CYYG 230719Z 31016KT 15SM DRSN SCT025 M13/ RMK SC4

CYYG;2009-01-23 08:00;CYYG 230800Z 31011G16KT 15SM DRSN SCT025 M14/M20 A2988 RMK SC4 SLP122

CYYG;2009-01-23 09:00;CYYG 230900Z 31007KT 15SM DRSN FEW025 M15/M19 A2992 RMK SC2 SLP135

CYYG;2009-01-23 10:00;CYYG 231000Z 29008KT 15SM DRSN SKC M15/M19 A2996 RMK SLP147

CYYG;2009-01-23 11:00;CYYG 231100Z 31010G15KT 15SM DRSN FEW030 FEW250 M16/M20 A2998 RMK SC1CI0 SLP157

CYYG;2009-01-23 12:00;CYYG 231200Z 31010KT 15SM DRSN FEW030 FEW250 M16/M20 A3004 RMK SC1CI0 SLP176

CYYG;2009-01-23 13:00;CYYG 231300Z 30007KT 15SM FEW025 FEW250 M16/M21 A3007 RMK SC1CI0 SLP187

CYYG;2009-01-23 14:00;CYYG 231400Z 30011G16KT 15SM DRSN FEW025 FEW250 M15/M21 A3008 RMK SC1CI0 SLP191

CYYG;2009-01-23 15:00;CYYG 231500Z 29010KT 15SM FEW025 SCT250 M15/M22 A3010 RMK SC1CI1 SLP197

CYYG;2009-01-23 16:00;CYYG 231600Z 29005KT 15SM FEW025 SCT250 M15/M23 A3011 RMK SC1CI1 SLP199

CYYG;2009-01-23 17:00;CYYG 231700Z 29004KT 15SM FEW025 SCT250 M14/M24 A3009 RMK SC1CI1 SLP194

CYYG;2009-01-23 18:00;CYYG 231800Z 26007KT 15SM FEW025 SCT250 M14/M22 A3009 RMK SC1CI1 SLP193

CYYG;2009-01-23 19:00;CYYG 231900Z 27006KT 15SM SCT250 M14/M23 A3009 RMK CI2 SLP195

CYYG;2009-01-23 20:00;CYYG 232000Z 27004KT 15SM SCT250 M13/M23 A3009 RMK CI2 SLP193

CYYG;2009-01-23 21:00;CYYG 232100Z 00000KT 15SM FEW170 BKN250 M14/M22 A3009 RMK AC2CI2 SLP194

CYYG;2009-01-23 22:00;CYYG 232200Z 12003KT 15SM SCT170 OVC250 M14/M21 A3007 RMK AC4CI2 SLP188

CYYG;2009-01-23 23:00;CYYG 232300Z 15004KT 15SM BKN150 OVC250 M14/M20 A3006 RMK AC6CI1 SLP184

CYYG;2009-01-24 00:00;CYYG 240000Z 14007KT 15SM BKN130 OVC250 M13/M19 A3004 RMK AC6SC2 SLP176

CYYG;2009-01-24 01:00;CYYG 240100Z 16006KT 15SM OVC042 M13/M18 A3001 RMK SC8 SLP166

CYYG;2009-01-24 02:00;CYYG 240200Z 15006KT 15SM OVC050 M12/M17 A2998 RMK SC8 SLP156

CYYG;2009-01-24 03:00;CYYG 240300Z 15007KT 15SM OVC041 M11/M15 A2995 RMK SC8 SLP145

CYYG;2009-01-24 04:00;CYYG 240400Z 14009KT 15SM OVC033 M10/M10 A2990 RMK SC8 SLP131

CYYG;2009-01-24 04:43;CYYG 240443Z 15013KT 15SM -SHSN OVC025 M09/ RMK SC8

CYYG;2009-01-24 05:00;CYYG 240500Z 16014KT 15SM -SHSN OVC021 M09/M12 A2984 RMK SC8 SLP110

CYYG;2009-01-24 05:41;CYYG 240541Z 15014G20KT 12SM -SHSN DRSN BKN010 OVC023 M08/ RMK SC6SC2

CYYG;2009-01-24 06:00;CYYG 240600Z 16014G20KT 10SM -SHSN DRSN BKN012 OVC026 M08/M10 A2978 RMK SC6SC2 PRESFR SLP088

CYYG;2009-01-24 06:11;CYYG 240611Z 16017KT 10SM -SHSN DRSN BKN005 OVC016 M08/ RMK SC6SC2

CYYG;2009-01-24 06:29;CYYG 240629Z 16018KT 1SM R03/5500FT/N -SN DRSN VV005 M07/ RMK SN8

CYYG;2009-01-24 07:00;CYYG 240700Z 16014G21KT 10SM -SN DRSN OVC019 M07/M07 A2974 RMK SC8 SLP073

CYYG;2009-01-24 08:00;CYYG 240800Z 16016KT 12SM -SN OVC050 M05/M07 A2966 RMK SC8 PRESFR SLP048

CYYG;2009-01-24 09:00;CYYG 240900Z 17017G26KT 15SM DRSN BKN010 OVC048 M03/M04 A2958 RMK SC5SC3 PRESFR SLP020

CYYG;2009-01-24 10:00;CYYG 241000Z 17017KT 15SM DRSN BKN011 OVC024 M02/M03 A2952 RMK SC6SC2 PRESFR SLP998

CYYG;2009-01-24 11:00;CYYG 241100Z 17023G28KT 15SM FEW008 BKN021 OVC053 M00/M01 A2945 RMK SF2SC5SC2 PRESFR SLP976

CYYG;2009-01-24 11:19;CYYG 241119Z 17022G28KT 15SM DRSN -FZRA FEW008 BKN021 OVC053 M00/ RMK SF2SC5SC2

CYYG;2009-01-24 11:28;CYYG 241128Z 17025G30KT 12SM -SHRA DRSN FEW008 OVC023 00/ RMK SF1SC7

CYYG;2009-01-24 11:33;CYYG 241133Z CCA 17025G30KT 12SM -SHRA DRSN FEW008 OVC023 00/ RMK SF1SC7 REFZRA

CYYG;2009-01-24 12:00;CYYG 241200Z 18019G27KT 8SM -SHRA OVC020 00/M01 A2943 RMK SF8 REFZRA SLP970

CYYG;2009-01-24 13:00;CYYG 241300Z 18014KT 10SM -SHRA OVC012 01/M00 A2939 RMK SC8 SLP954

CYYG;2009-01-24 13:27;CYYG 241327Z 20011G16KT 2 1/2SM -SHRA BR OVC010 01/ RMK SF8

CYYG;2009-01-24 13:49;CYYG 241349Z 22012G17KT 1 1/2SM -SHRA BR OVC007 02/ RMK SF8

CYYG;2009-01-24 14:00;CYYG 241400Z 27014G20KT 2 1/2SM -SHRA BR OVC006 02/01 A2939 RMK SF8 SLP957

CYYG;2009-01-24 14:36;CYYG 241436Z 28015KT 2 1/2SM -SHSN BR OVC008 01/ RMK SF8

CYYG;2009-01-24 15:00;CYYG 241500Z 27010KT 4SM -SHSN BR BKN008 OVC018 01/00 A2940 RMK SF5SC3 SLP960

CYYG;2009-01-24 15:42;CYYG 241542Z 29018G24KT 15SM FEW012 SCT020 BKN055 M01/ RMK SF2SC2SC4

CYYG;2009-01-24 16:00;CYYG 241600Z 29018G24KT 15SM BKN021 OVC056 M01/M04 A2943 RMK SC5SC3 SLP969

CYYG;2009-01-24 16:13;CYYG 241613Z 28019G26KT 15SM -SHSN OVC019 M02/ RMK SC8

CYYG;2009-01-24 17:00;CYYG 241700Z 29014G21KT 15SM -SHSN OVC018 M03/M06 A2945 RMK SC8 SLP975

CYYG;2009-01-24 18:00;CYYG 241800Z 28016G24KT 15SM -SHSN BKN027 M03/M07 A2947 RMK SC6 SLP983

CYYG;2009-01-24 19:00;CYYG 241900Z 28015G22KT 15SM -SHSN SCT018 M05/M08 A2951 RMK SC4 SLP996

CYYG;2009-01-24 20:00;CYYG 242000Z 29017KT 15SM SCT026 M05/M11 A2955 RMK SC2 SLP008

CYYG;2009-01-24 21:00;CYYG 242100Z 27011G17KT 15SM FEW030 M07/M12 A2959 RMK SC2 SLP022

CYYG;2009-01-24 22:00;CYYG 242200Z 29017G24KT 15SM FEW034 M08/M14 A2962 RMK SC2 SLP034

CYYG;2009-01-24 23:00;CYYG 242300Z 29021G27KT 15SM FEW030 M10/M16 A2966 RMK SC2 SLP048

CYYG;2009-01-25 00:00;CYYG 250000Z 26016G22KT 15SM FEW030 M11/M17 A2970 RMK SC2 SLP060

CYYG;2009-01-25 01:00;CYYG 250100Z 29016G26KT 15SM SCT030 M13/M18 A2974 RMK SC3 SLP073

CYYG;2009-01-25 02:00;CYYG 250200Z 29016G22KT 15SM FEW030 M14/M19 A2977 RMK SC2 SLP085

CYYG;2009-01-25 03:00;CYYG 250300Z 28015G20KT 15SM FEW030 M15/M20 A2980 RMK SC2 SLP095

CYYG;2009-01-25 04:00;CYYG 250400Z 29015G22KT 15SM FEW030 M16/M21 A2984 RMK SC2 SLP108

CYYG;2009-01-25 05:00;CYYG 250500Z 29009G17KT 15SM FEW030 M16/M22 A2987 RMK SC1 SLP120

CYYG;2009-01-25 06:00;CYYG 250600Z 29014KT 15SM SKC M17/M22 A2990 RMK SLP129

CYYG;2009-01-25 07:00;CYYG 250700Z 29014G21KT 15SM SKC M17/M22 A2992 RMK SLP136

CYYG;2009-01-25 08:00;CYYG 250800Z 29017G22KT 15SM SKC M17/M23 A2996 RMK SLP147

CYYG;2009-01-25 09:00;CYYG 250900Z 29015G22KT 15SM SKC M18/M24 A2998 RMK SLP155

CYYG;2009-01-25 10:00;CYYG 251000Z 29009G16KT 15SM SKC M19/M25 A3000 RMK SLP162

CYYG;2009-01-25 11:00;CYYG 251100Z 28011G20KT 15SM FEW030 M19/M27 A3002 RMK SC1 SLP170

CYYG;2009-01-25 12:00;CYYG 251200Z 27009KT 15SM FEW030 M20/M26 A3004 RMK SC1 SLP178

CYYG;2009-01-25 13:00;CYYG 251300Z 25010G16KT 15SM FEW030 M19/M25 A3007 RMK SC1 SLP187

CYYG;2009-01-25 14:00;CYYG 251400Z 27011G19KT 15SM FEW030 M19/M26 A3008 RMK SC1 SLP189

CYYG;2009-01-25 15:00;CYYG 251500Z 26015KT 15SM FEW030 M19/M26 A3007 RMK CF1 SLP187

CYYG;2009-01-25 16:00;CYYG 251600Z 26014G19KT 15SM FEW030 M17/M25 A3005 RMK CF1 SLP181

CYYG;2009-01-25 17:00;CYYG 251700Z 25014KT 15SM FEW025 BKN039 M16/M23 A3004 RMK CF1SC2 SLP176

CYYG;2009-01-25 18:00;CYYG 251800Z 26014G20KT 15SM FEW025 FEW037 M14/M21 A3001 RMK CF1SC1 SLP166

CYYG;2009-01-25 19:00;CYYG 251900Z 27010G17KT 15SM FEW025 FEW037 M13/M21 A3002 RMK CF1SC1 SLP170

CYYG;2009-01-25 20:00;CYYG 252000Z 27011KT 15SM FEW025 FEW037 M12/M20 A3002 RMK SC1SC1 SLP171

CYYG;2009-01-25 21:00;CYYG 252100Z 28008KT 15SM FEW025 M12/M20 A3003 RMK SC1 SLP173

CYYG;2009-01-25 22:00;CYYG 252200Z 29005KT 15SM FEW025 SCT110 M13/M19 A3003 RMK SC1AC1 SLP174

CYYG;2009-01-25 23:00;CYYG 252300Z 31004KT 15SM FEW025 FEW110 M14/M20 A3004 RMK SC1AC1 SLP178

CYYG;2009-01-26 00:00;CYYG 260000Z 32007KT 15SM FEW020 SCT062 M14/M19 A3006 RMK SC2SC2 SLP183

CYYG;2009-01-26 00:34;CYYG 260034Z 33009KT 8SM -SHSN SCT024 BKN060 M13/ RMK SC3SC2

CYYG;2009-01-26 00:49;CYYG 260049Z 35010KT 5SM -SHSN DRSN BKN005 OVC017 M14/ RMK SF5SC3

CYYG;2009-01-26 01:00;CYYG 260100Z 34012KT 5SM -SHSN DRSN BKN008 OVC020 M14/M16 A3009 RMK SF6SC2 SLP196

CYYG;2009-01-26 02:00;CYYG 260200Z 34010KT 5SM -SHSN DRSN BKN008 OVC017 M15/M18 A3014 RMK SF6SC2 SLP212

CYYG;2009-01-26 03:00;CYYG 260300Z 32009KT 10SM -SHSN DRSN BKN010 OVC028 M16/M19 A3017 RMK SF6SC2 SLP221

CYYG;2009-01-26 03:15;CYYG 260315Z 31010KT 12SM -SHSN DRSN SCT010 OVC032 M17/ RMK SF3SC5

CYYG;2009-01-26 03:25;CYYG 260325Z 30010KT 15SM FEW010 SCT032 BKN075 M17/ RMK SF2SC2AC2

CYYG;2009-01-26 04:00;CYYG 260400Z 31009KT 15SM SCT032 BKN075 M18/M24 A3019 RMK SC3AC2 SLP228

CYYG;2009-01-26 05:00;CYYG 260500Z 31011G16KT 15SM SCT075 M19/M27 A3021 RMK AC3 SLP234

CYYG;2009-01-26 06:00;CYYG 260600Z 29007KT 15SM FEW075 M20/M28 A3023 RMK AC2 SLP242

CYYG;2009-01-26 07:00;CYYG 260700Z 29008KT 15SM FEW075 M21/M29 A3025 RMK AC1 SLP250

CYYG;2009-01-26 08:00;CYYG 260800Z 29008KT 15SM FEW075 M21/M29 A3026 RMK AC1 SLP253

CYYG;2009-01-26 09:00;CYYG 260900Z 29009KT 15SM SKC M22/M29 A3027 RMK SLP256

CYYG;2009-01-26 10:00;CYYG 261000Z 30007KT 15SM SKC M22/M30 A3028 RMK SLP258

CYYG;2009-01-26 11:00;CYYG 261100Z 28007KT 15SM FEW070 M23/M29 A3028 RMK AC1 SLP260

CYYG;2009-01-26 12:00;CYYG 261200Z 27006KT 15SM FEW030 M23/M29 A3031 RMK SC1 SLP270

CYYG;2009-01-26 13:00;CYYG 261300Z 29008KT 15SM FEW020 M23/M29 A3033 RMK SC1 SLP275

CYYG;2009-01-26 14:00;CYYG 261400Z 29008KT 15SM FEW020 M22/M29 A3034 RMK SC1 SLP280

CYYG;2009-01-26 15:00;CYYG 261500Z 30008KT 15SM FEW020 M21/M28 A3035 RMK SC1 SLP283

CYYG;2009-01-26 16:00;CYYG 261600Z 28007KT 15SM FEW020 M20/M29 A3033 RMK SC1 SLP277

CYYG;2009-01-26 17:00;CYYG 261700Z 29006KT 15SM FEW020 M20/M28 A3032 RMK SC1 SLP272

CYYG;2009-01-26 18:00;CYYG 261800Z 28005KT 15SM FEW020 M19/M28 A3031 RMK SC1 SLP268

CYYG;2009-01-26 19:00;CYYG 261900Z 29009KT 15SM FEW020 M19/M28 A3031 RMK SC1 SLP269

CYYG;2009-01-26 20:00;CYYG 262000Z 28009KT 15SM FEW020 M19/M28 A3032 RMK SC1 SLP272

CYYG;2009-01-26 21:00;CYYG 262100Z 29008KT 15SM FEW020 M19/M28 A3032 RMK SC1 SLP273

CYYG;2009-01-26 22:00;CYYG 262200Z 27003KT 15SM SKC M20/M27 A3032 RMK SLP272

CYYG;2009-01-26 23:00;CYYG 262300Z 29002KT 15SM SKC M21/M27 A3032 RMK SLP272

CYYG;2009-01-27 00:00;CYYG 270000Z 26003KT 15SM SKC M20/M27 A3031 RMK SLP269

CYYG;2009-01-27 01:00;CYYG 270100Z 27006KT 15SM SKC M20/M27 A3031 RMK SLP269

CYYG;2009-01-27 02:00;CYYG 270200Z 27006KT 15SM SKC M20/M26 A3031 RMK SLP271

CYYG;2009-01-27 03:00;CYYG 270300Z 27005KT 15SM FEW240 M20/M25 A3031 RMK CI0 SLP269

CYYG;2009-01-27 04:00;CYYG 270400Z 27006KT 15SM FEW240 M20/M25 A3031 RMK CI0 SLP270

CYYG;2009-01-27 05:00;CYYG 270500Z 25005KT 15SM SKC M20/M25 A3031 RMK SLP269

CYYG;2009-01-27 06:00;CYYG 270600Z 24004KT 15SM SKC M20/M25 A3031 RMK SLP268

CYYG;2009-01-27 07:00;CYYG 270700Z 24005KT 15SM SKC M20/M25 A3029 RMK SLP263

CYYG;2009-01-27 08:00;CYYG 270800Z 24005KT 15SM SKC M20/M26 A3027 RMK SLP257

CYYG;2009-01-27 09:00;CYYG 270900Z 26006KT 15SM FEW038 M19/M26 A3026 RMK SC1 SLP251

CYYG;2009-01-27 10:00;CYYG 271000Z 26005KT 15SM FEW038 M19/M26 A3024 RMK SC1 SLP245

CYYG;2009-01-27 11:00;CYYG 271100Z 27007KT 15SM FEW038 M19/M25 A3025 RMK SC1 SLP247

CYYG;2009-01-27 12:00;CYYG 271200Z 27007KT 15SM FEW040 M19/M24 A3025 RMK SC1 SLP251

CYYG;2009-01-27 13:00;CYYG 271300Z 28008KT 15SM FEW040 M18/M23 A3027 RMK SC1 SLP255

CYYG;2009-01-27 14:00;CYYG 271400Z 29008KT 15SM FEW020 M16/M22 A3028 RMK SC1 SLP259

CYYG;2009-01-27 15:00;CYYG 271500Z 32011KT 15SM FEW020 M16/M21 A3028 RMK SC1 SLP260

CYYG;2009-01-27 16:00;CYYG 271600Z 29007KT 15SM FEW020 M14/M21 A3027 RMK SC1 SLP254

CYYG;2009-01-27 17:00;CYYG 271700Z 29012KT 15SM FEW020 M14/M21 A3025 RMK SC1 SLP250

CYYG;2009-01-27 18:00;CYYG 271800Z 29012KT 15SM FEW020 M14/M21 A3025 RMK SC1 SLP248

CYYG;2009-01-27 19:00;CYYG 271900Z 29010G18KT 15SM DRSN FEW020 M14/M21 A3026 RMK SC1 SLP253

CYYG;2009-01-27 20:00;CYYG 272000Z 29012G17KT 15SM FEW022 M14/M21 A3028 RMK SC1 SLP259

CYYG;2009-01-27 21:00;CYYG 272100Z 29008KT 15SM FEW022 FEW040 M14/M21 A3028 RMK SC1SC1 SLP259

CYYG;2009-01-27 22:00;CYYG 272200Z 27003KT 15SM FEW022 FEW040 M15/M21 A3029 RMK SC1SC1 SLP263

CYYG;2009-01-27 23:00;CYYG 272300Z 25003KT 15SM SKC M15/M21 A3031 RMK SLP269

CYYG;2009-01-28 00:00;CYYG 280000Z 24007KT 15SM SKC M16/M21 A3032 RMK SLP273

CYYG;2009-01-28 01:00;CYYG 280100Z 27007KT 15SM SKC M16/M22 A3033 RMK SLP277

CYYG;2009-01-28 02:00;CYYG 280200Z 30009KT 15SM SKC M16/M23 A3035 RMK SLP281

CYYG;2009-01-28 03:00;CYYG 280300Z 30011KT 15SM SKC M16/M23 A3036 RMK SLP285

CYYG;2009-01-28 04:00;CYYG 280400Z 29008KT 15SM SKC M16/M24 A3038 RMK SLP291

CYYG;2009-01-28 05:00;CYYG 280500Z 30008KT 15SM SKC M17/M22 A3037 RMK SLP290

CYYG;2009-01-28 06:00;CYYG 280600Z 31008KT 15SM SKC M17/M22 A3038 RMK SLP291

CYYG;2009-01-28 07:00;CYYG 280700Z 29008KT 15SM SKC M17/M23 A3038 RMK SLP293

CYYG;2009-01-28 08:00;CYYG 280800Z 29008KT 15SM SKC M17/M23 A3038 RMK SLP291

CYYG;2009-01-28 09:00;CYYG 280900Z 25006KT 15SM SKC M18/M23 A3038 RMK SLP291

CYYG;2009-01-28 10:00;CYYG 281000Z 26005KT 15SM SKC M18/M22 A3040 RMK SLP300

CYYG;2009-01-28 11:00;CYYG 281100Z 25005KT 15SM FEW250 M18/M21 A3043 RMK CI1 SLP308

CYYG;2009-01-28 12:00;CYYG 281200Z 25006KT 15SM BKN250 M17/M22 A3044 RMK CI2 SLP311

CYYG;2009-01-28 13:00;CYYG 281300Z 25005KT 15SM BKN250 M16/M21 A3042 RMK CI4 SLP306

CYYG;2009-01-28 14:00;CYYG 281400Z 24006KT 15SM BKN250 M15/M20 A3041 RMK CI5 SLP303

CYYG;2009-01-28 15:00;CYYG 281500Z 25007KT 15SM BKN200 M14/M19 A3041 RMK CI6 SLP301

CYYG;2009-01-28 16:00;CYYG 281600Z 25007KT 15SM BKN180 M13/M19 A3040 RMK AC6 SLP299

CYYG;2009-01-28 17:00;CYYG 281700Z 25004KT 15SM BKN170 M12/M19 A3036 RMK AC6 SLP286

CYYG;2009-01-28 18:00;CYYG 281800Z 20005KT 15SM SCT140 OVC170 M11/M16 A3033 RMK AC3AS5 SLP276

CYYG;2009-01-28 19:00;CYYG 281900Z 20006KT 15SM SCT140 OVC170 M11/M16 A3033 RMK AC3AS5 SLP276

CYYG;2009-01-28 20:00;CYYG 282000Z 17007KT 15SM OVC120 M11/M14 A3030 RMK AS8 SLP265

CYYG;2009-01-28 21:00;CYYG 282100Z 17008KT 15SM OVC110 M11/M13 A3027 RMK AS8 SLP254

CYYG;2009-01-28 22:00;CYYG 282200Z 17009KT 15SM OVC072 M10/M12 A3024 RMK AS8 SLP244

CYYG;2009-01-28 23:00;CYYG 282300Z 16009KT 15SM OVC056 M09/M10 A3021 RMK SC8 SLP234

CYYG;2009-01-29 00:00;CYYG 290000Z CCA 14007KT 15SM OVC032 M09/M11 A3014 RMK SC8 PRESFR SLP211

CYYG;2009-01-29 00:35;CYYG 290035Z 14008KT 12SM -SN OVC025 M09/ RMK SC8

CYYG;2009-01-29 01:00;CYYG 290100Z CCA 13007KT 10SM -SN OVC018 M09/M11 A3008 RMK SC8 PRESFR SLP189

CYYG;2009-01-29 01:11;CYYG 290111Z 14010KT 2SM -SN VV007 M09/ RMK SN8

CYYG;2009-01-29 01:20;CYYG 290120Z 13009KT 3/4SM R03/P6000FT/D -SN VV004 M09/ RMK SN8

CYYG;2009-01-29 02:00;CYYG 290200Z 12009KT 1SM R03/P6000FT/D -SN VV005 M09/M09 A3000 RMK SN8 PRESFR /S02/ SLP162

CYYG;2009-01-29 03:00;CYYG 290300Z 11012G17KT 3/4SM R03/6000FT/D -SN DRSN VV005 M08/M08 A2986 RMK SN8 PRESFR /S04/ SLP116

CYYG;2009-01-29 03:48;CYYG 290348Z 11015G20KT 5/8SM R03/2800V4500FT/D -SN DRSN VV002 M07/ RMK SN8

CYYG;2009-01-29 04:00;CYYG 290400Z 11016G21KT 1/2SM R03/2600FT/N SN DRSN VV002 M07/M07 A2975 RMK SN8 PRESFR /S06/ SLP078

CYYG;2009-01-29 04:18;CYYG 290418Z 12017G22KT 5/8SM R03/2600FT/N -SN DRSN VV003 M07/ RESN RMK SN8

CYYG;2009-01-29 04:40;CYYG 290440Z 12019G26KT 3/4SM R03/1800V5000FT/U -PLSN DRSN VV006 M06/ RMK SN8

CYYG;2009-01-29 04:54;CYYG 290454Z 11021G28KT 3SM R03/3500VP6000FT/U -PLSN DRSN FEW005 OVC032 M06/ RMK SF2SC6

CYYG;2009-01-29 05:00;CYYG 290500Z 10022G30KT 3SM R03/4000VP6000FT/U -PL DRSN -FZRA SCT012 OVC028 M06/M06 A2957 RMK SF3SC5 PRESFR /S08/ SLP017

CYYG;2009-01-29 05:12;CYYG 290512Z 11020G30KT 5SM DRSN -FZRA SCT011 OVC024 M06/ RMK SF3SC5

CYYG;2009-01-29 05:23;CYYG 290523Z 12020G29KT 2 1/2SM -PL DRSN -FZRA SCT011 OVC023 M06/ RMK SC4SC4

CYYG;2009-01-29 06:00;CYYG 290600Z 11021G33KT 2 1/2SM -PL DRSN -FZRA SCT009 OVC025 M05/M05 A2947 RMK SC4SC4 PRESFR /S09/ SLP984

CYYG;2009-01-29 06:37;CYYG 290637Z 11021G28KT 1 1/2SM PL -FZRA OVC009 M04/ RMK SF8

CYYG;2009-01-29 07:00;CYYG 290700Z 11019G27KT 1 1/2SM -PL FZRA OVC009 M04/M04 A2923 REPL RMK SF8 SLP902

CYYG;2009-01-29 07:25;CYYG 290725Z 12019G25KT 5SM -FZDZ OVC009 M02/ RMK SF8 REFZRA

CYYG;2009-01-29 07:47;CYYG 290747Z 13021G28KT 8SM DRSN OVC010 M01/ REFZDZ RMK SF8

CYYG;2009-01-29 08:00;CYYG 290800Z 14022G37KT 8SM DRSN OVC010 M01/M01 A2910 RMK SF8 PRESFR SLP859

CYYG;2009-01-29 08:12;CYYG 290812Z 14020G34KT 6SM BLSN OVC009 M01/ RMK SC8

CYYG;2009-01-29 08:33;CYYG 290833Z 14021G32KT 6SM BLSN -FZRA OVC009 M00/ RMK SF8

CYYG;2009-01-29 08:38;CYYG 290838Z 14021G28KT 8SM -RA DRSN OVC009 00/ REFZRA RMK SF8

CYYG;2009-01-29 09:00;CYYG 290900Z 15025G32KT 8SM DRSN OVC009 01/01 A2896 REFZRA RMK SF8 INTMT -RA PRESFR SLP809

CYYG;2009-01-29 10:00;CYYG 291000Z 18019G28KT 12SM DRSN FEW004 BKN010 OVC035 03/03 A2889 RMK SF2SC3SC3 PRESFR SLP786

CYYG;2009-01-29 10:36;CYYG 291036Z 22020G34KT 10SM OVC016 04/ RMK SC8

CYYG;2009-01-29 11:00;CYYG 291100Z 22026G42KT 10SM FEW012 OVC020 03/01 A2886 RMK SC2SC6 SLP777

CYYG;2009-01-29 12:00;CYYG 291200Z 24031G44KT 15SM BKN025 M01/M04 A2896 RMK SC7 SLP811

CYYG;2009-01-29 13:00;CYYG 291300Z 25029G37KT 6SM BLSN OVC015 M04/M07 A2905 RMK SC8 PRESRR SLP841

CYYG;2009-01-29 14:00;CYYG 291400Z 26025G39KT 4SM BLSN OVC016 M05/M07 A2915 RMK SC8 PRESRR SLP874

CYYG;2009-01-29 14:40;CYYG 291440Z 27025G41KT 2 1/2SM -SHSN BLSN OVC016 M06/ RMK SC8

CYYG;2009-01-29 15:00;CYYG 291500Z 28022G44KT 2SM R03/4500VP6000FT/U -SHSN BLSN OVC016 M06/M07 A2924 RMK SC8 PRESRR SLP904

CYYG;2009-01-29 15:31;CYYG 291531Z 29025G37KT 1SM R03/3500V5500FT/D -SHSN BLSN OVC016 M06/ RMK SC8

CYYG;2009-01-29 16:00;CYYG 291600Z 29027G37KT 1SM R03/4000VP6000FT/N -SHSN BLSN OVC016 M05/M07 A2933 RMK SC8 PRESRR SLP934

CYYG;2009-01-29 16:29;CYYG 291629Z 29018G40KT 5SM -SHSN BLSN OVC018 M04/ RMK SC8

CYYG;2009-01-29 17:00;CYYG 291700Z 30020G32KT 10SM -SHSN OVC025 M04/M07 A2941 RMK SC7 PRESRR SLP962

CYYG;2009-01-29 17:19;CYYG 291719Z 29020G29KT 15SM OVC024 M04/ RMK SC8

CYYG;2009-01-29 18:00;CYYG 291800Z 30015G24KT 15SM BKN025 M03/M07 A2946 RMK SC7 SLP979

CYYG;2009-01-29 19:00;CYYG 291900Z 30019G27KT 15SM BKN025 M03/M08 A2952 RMK SC7 PRESRR SLP999

CYYG;2009-01-29 20:00;CYYG 292000Z 30010G20KT 15SM BKN027 M03/M08 A2958 RMK SC7 PRESRR SLP019

CYYG;2009-01-29 21:00;CYYG 292100Z 29011KT 15SM BKN030 M03/M07 A2961 RMK SC7 SLP028

CYYG;2009-01-29 22:00;CYYG 292200Z 32005KT 15SM BKN031 M03/M07 A2964 RMK SC7 SLP039

CYYG;2009-01-29 23:00;CYYG 292300Z 30003KT 15SM BKN030 M04/M07 A2966 RMK SC5 SLP044

CYYG;2009-01-30 00:00;CYYG 300000Z 26005KT 15SM SCT025 M04/M07 A2969 RMK SC3 SLP055

CYYG;2009-01-30 01:00;CYYG 300100Z 26006KT 15SM FEW025 M05/M08 A2971 RMK SC2 SLP063

CYYG;2009-01-30 02:00;CYYG 300200Z 27007KT 15SM SCT025 M06/M09 A2973 RMK SC3 SLP070

CYYG;2009-01-30 03:00;CYYG 300300Z 27005KT 15SM FEW025 M07/M09 A2974 RMK SC1 SLP073

CYYG;2009-01-30 04:00;CYYG 300400Z 27005KT 15SM SKC M08/M10 A2974 RMK SLP073

CYYG;2009-01-30 05:00;CYYG 300500Z 26004KT 15SM SKC M09/M10 A2974 RMK SLP072

CYYG;2009-01-30 06:00;CYYG 300600Z 26006KT 15SM BKN150 M09/M10 A2974 RMK AC5 SLP073

CYYG;2009-01-30 07:00;CYYG 300700Z 27006KT 15SM BKN130 M09/M10 A2975 RMK AC5 SLP078

CYYG;2009-01-30 08:00;CYYG 300800Z 26006KT 15SM SCT120 M09/M10 A2976 RMK AC3 SLP080

CYYG;2009-01-30 09:00;CYYG 300900Z 25005KT 15SM FEW120 M10/M11 A2977 RMK AC1 SLP082

CYYG;2009-01-30 10:00;CYYG 301000Z 25005KT 15SM SKC M11/M11 A2977 RMK SLP085

CYYG;2009-01-30 11:00;CYYG 301100Z 25006KT 15SM FEW250 M11/M11 A2978 RMK CI1 SLP087

CYYG;2009-01-30 12:00;CYYG 301200Z 26005KT 15SM FEW030 M11/M11 A2980 RMK SC1 SLP096

CYYG;2009-01-30 13:00;CYYG 301300Z 24005KT 15SM FEW030 M11/M11 A2981 RMK SC1 SLP099

CYYG;2009-01-30 14:00;CYYG 301400Z 25006KT 15SM FEW030 M10/M11 A2982 RMK SC1 SLP102

CYYG;2009-01-30 15:00;CYYG 301500Z 25008KT 15SM FEW030 M08/M11 A2982 RMK SC1 SLP103

CYYG;2009-01-30 16:00;CYYG 301600Z 25009KT 15SM FEW030 M07/M10 A2981 RMK SC1 SLP099

CYYG;2009-01-30 17:00;CYYG 301700Z 26010KT 15SM FEW030 M06/M11 A2981 RMK SC1 SLP098

CYYG;2009-01-30 18:00;CYYG 301800Z 27008KT 15SM FEW030 M06/M10 A2980 RMK SC1 SLP095

CYYG;2009-01-30 19:00;CYYG 301900Z 21008KT 15SM FEW030 M05/M09 A2982 RMK SC1 SLP100

CYYG;2009-01-30 20:00;CYYG 302000Z 25006KT 15SM FEW030 M05/M10 A2983 RMK SC1 SLP105

CYYG;2009-01-30 21:00;CYYG 302100Z 26003KT 15SM FEW030 M05/M10 A2983 RMK SC1 SLP105

CYYG;2009-01-30 22:00;CYYG 302200Z 21003KT 15SM FEW030 M06/M10 A2984 RMK SC1 SLP109

CYYG;2009-01-30 23:00;CYYG 302300Z 18005KT 15SM FEW030 M09/M11 A2986 RMK SC2 SLP116

CYYG;2009-01-31 00:00;CYYG 310000Z 16002KT 15SM FEW030 M08/M11 A2987 RMK SC2 SLP118

CYYG;2009-01-31 01:00;CYYG 310100Z 18003KT 15SM SKC M10/M11 A2986 RMK SLP116

CYYG;2009-01-31 02:00;CYYG 310200Z 17002KT 15SM BKN076 M10/M11 A2985 RMK AC6 SLP113

CYYG;2009-01-31 03:00;CYYG 310300Z 17003KT 15SM BKN074 M09/M10 A2985 RMK AC7 SLP110

CYYG;2009-01-31 04:00;CYYG 310400Z 19003KT 15SM OVC077 M09/M09 A2984 RMK AC8 SLP108

CYYG;2009-01-31 05:00;CYYG 310500Z 16003KT 15SM BKN079 M09/M10 A2983 RMK AC6 SLP105

CYYG;2009-01-31 06:00;CYYG 310600Z 16004KT 15SM FEW079 M10/M11 A2983 RMK AC2 SLP104

CYYG;2009-01-31 07:00;CYYG 310700Z 17005KT 15SM FEW023 M08/M09 A2982 RMK SC2 SLP103

CYYG;2009-01-31 08:00;CYYG 310800Z 16004KT 15SM FEW023 M09/M09 A2982 RMK SC2 SLP103

CYYG;2009-01-31 09:00;CYYG 310900Z 13004KT 15SM FEW023 M10/M10 A2981 RMK SC2 FROIN SLP097

CYYG;2009-01-31 10:00;CYYG 311000Z 14005KT 15SM FEW023 BKN110 M10/M11 A2978 RMK SC1AC5 FROIN SLP087

CYYG;2009-01-31 11:00;CYYG 311100Z 14005KT 15SM FEW079 FEW110 M09/M10 A2976 RMK AC2AC1 FROIN SLP080

CYYG;2009-01-31 12:00;CYYG 311200Z 12002KT 15SM FEW070 SCT110 M09/M10 A2974 RMK AC2AC2 SLP076

CYYG;2009-01-31 13:00;CYYG 311300Z 12004KT 15SM FEW070 BKN110 M08/M10 A2975 RMK AC2AC2 SLP079

CYYG;2009-01-31 14:00;CYYG 311400Z 15005KT 15SM BKN100 BKN250 M07/M09 A2975 RMK AC5CI0 SLP078

CYYG;2009-01-31 15:00;CYYG 311500Z 12004KT 15SM BKN070 BKN250 M06/M09 A2975 RMK AC5CI0 SLP077

CYYG;2009-01-31 16:00;CYYG 311600Z 15006KT 15SM OVC061 M03/M06 A2970 RMK SC8 OBS TAKEN +10 SLP060

CYYG;2009-01-31 17:00;CYYG 311700Z 14007KT 15SM BKN070 OVC250 M02/M06 A2967 RMK AC6CI2 SLP050

CYYG;2009-01-31 18:00;CYYG 311800Z 14009KT 15SM BKN075 OVC250 M01/M06 A2964 RMK AC7CI1 SLP041

CYYG;2009-01-31 19:00;CYYG 311900Z 15009G15KT 15SM SCT033 OVC074 M01/M05 A2963 RMK SC3AC5 SLP036

CYYG;2009-01-31 20:00;CYYG 312000Z 11007KT 15SM SCT035 BKN075 OVC250 M01/M05 A2960 RMK SC3AC2CI2 SLP028

CYYG;2009-01-31 21:00;CYYG 312100Z 12007KT 15SM FEW035 BKN080 OVC250 M02/M05 A2960 RMK SC2AC5CI1 SLP025

CYYG;2009-01-31 22:00;CYYG 312200Z 11005KT 15SM SCT038 OVC078 M02/M05 A2959 RMK SC4AC4 SLP024

CYYG;2009-01-31 23:00;CYYG 312300Z 12003KT 15SM BKN038 OVC071 M03/M05 A2958 RMK SC5AC3 SLP019

CYYG;2009-01-31 23:18;CYYG 312318Z 12005KT 12SM -SHSN BKN029 OVC060 M03/ RMK SC6SC2

CYYG;2009-02-01 01:00;CYYG 010100Z 00000KT 5SM -SN OVC025 M03/M03 A2955 RMK SC8 SLP011

CYYG;2009-02-01 01:29;CYYG 010129Z 00000KT 1 1/2SM -SN VV007 M03/ RMK SN8

CYYG;2009-02-01 02:00;CYYG 010200Z 00000KT 1 1/2SM -SN VV006 M03/M03 A2955 RMK SN8 /S01/ SLP010

CYYG;2009-02-01 02:18;CYYG 010218Z 00000KT 3SM -SN OVC008 M03/ RMK SF8

CYYG;2009-02-01 03:00;CYYG 010300Z 00000KT 1 1/2SM -SN VV006 M03/M03 A2955 RMK SN8 /S02/ SLP008

CYYG;2009-02-01 03:24;CYYG 010324Z 00000KT 10SM -SN OVC022 M03/ RMK SC8

CYYG;2009-02-01 03:35;CYYG 010335Z 00000KT 3SM -SN BKN009 OVC022 M03/ RMK SF6SC2

CYYG;2009-02-01 03:52;CYYG 010352Z 31003KT 2SM -SN BKN005 OVC009 M03/ RMK SF5SF3

CYYG;2009-02-01 04:00;CYYG 010400Z 31005KT 2SM R03/6000FT/D -SN SCT005 OVC013 M03/M03 A2955 RMK SF3SC5 SLP008

CYYG;2009-02-01 05:00;CYYG 010500Z 31008KT 5SM -SN FEW005 OVC015 M04/M05 A2955 RMK SF2SC6 /S03/ SLP008

CYYG;2009-02-01 06:00;CYYG 010600Z 31011KT 5SM -SN DRSN BKN015 OVC043 M05/M06 A2956 RMK SC6SC2 /S04/ SLP014

CYYG;2009-02-01 07:00;CYYG 010700Z 30011G16KT 3SM -SN DRSN FEW015 OVC050 M05/M06 A2958 RMK SC2SC6 SLP021

CYYG;2009-02-01 08:00;CYYG 010800Z 30012KT 5SM -SN DRSN OVC009 M06/M07 A2960 RMK SC8 SLP026

CYYG;2009-02-01 09:00;CYYG 010900Z 31012KT 15SM -SN DRSN OVC009 M07/M08 A2962 RMK SC8 SLP034

CYYG;2009-02-01 09:12;CYYG 010912Z 30011G16KT 15SM DRSN OVC009 M07/ RMK SC8

CYYG;2009-02-01 09:38;CYYG 010938Z 30011G17KT 15SM DRSN OVC011 M07/ RMK SC8

CYYG;2009-02-01 10:00;CYYG 011000Z 29013KT 15SM DRSN OVC013 M07/M08 A2965 RMK SC8 SLP042

CYYG;2009-02-01 10:38;CYYG 011038Z 31009G16KT 15SM -SHSN DRSN BKN010 OVC018 M07/ RMK SC6SC2

CYYG;2009-02-01 11:00;CYYG 011100Z 30012KT 15SM -SHSN DRSN BKN010 OVC020 M07/M08 A2969 RMK SC6SC2 SLP056

CYYG;2009-02-01 12:00;CYYG 011200Z 29011KT 15SM -SHSN DRSN BKN016 OVC020 M07/M09 A2974 RMK SC7SC1 SLP073

CYYG;2009-02-01 12:23;CYYG 011223Z 29013KT 15SM DRSN BKN015 OVC022 M08/ RMK SC6SC2

CYYG;2009-02-01 13:00;CYYG 011300Z 29012KT 15SM DRSN BKN018 M09/M10 A2977 RMK SC7 SLP085

CYYG;2009-02-01 14:00;CYYG 011400Z 29010KT 15SM DRSN OVC020 M09/M11 A2980 RMK SC8 SLP095

CYYG;2009-02-01 15:00;CYYG 011500Z 28011KT 15SM DRSN BKN020 M08/M11 A2982 RMK SC7 SLP100

CYYG;2009-02-01 16:00;CYYG 011600Z 27008KT 15SM DRSN BKN019 M08/M11 A2984 RMK SC6 SLP108

CYYG;2009-02-01 16:37;CYYG 011637Z 27010KT 15SM SCT020 M08/ RMK SC4

CYYG;2009-02-01 17:00;CYYG 011700Z 27010KT 15SM FEW020 M08/M11 A2986 RMK SC2 SLP113

CYYG;2009-02-01 18:00;CYYG 011800Z 25006KT 15SM FEW020 M08/M11 A2985 RMK SC0 SLP113

CYYG;2009-02-01 19:00;CYYG 011900Z 25008KT 15SM FEW140 M07/M11 A2987 RMK AC1 SLP119

CYYG;2009-02-01 20:00;CYYG 012000Z 24003KT 15SM FEW140 M06/M10 A2987 RMK AC2 SLP120

CYYG;2009-02-01 21:00;CYYG 012100Z 22004KT 15SM BKN085 BKN120 M06/M10 A2989 RMK AC6AC1 SLP125

CYYG;2009-02-01 22:00;CYYG 012200Z 23005KT 15SM OVC080 M06/M08 A2990 RMK AC8 SLP127

CYYG;2009-02-01 23:00;CYYG 012300Z 23009KT 15SM OVC077 M05/M11 A2990 RMK AC8 SLP128

CYYG;2009-02-02 00:00;CYYG 020000Z 22008KT 15SM OVC074 M05/M09 A2989 RMK AC8 SLP125

CYYG;2009-02-02 00:53;CYYG 020053Z 21007KT 15SM -SHSN BKN055 OVC074 M05/ RMK SC5AC3

CYYG;2009-02-02 01:00;CYYG 020100Z 20008KT 15SM -SHSN BKN055 OVC074 M05/M08 A2989 RMK SC6AC2 SLP124

CYYG;2009-02-02 02:00;CYYG 020200Z 18010KT 10SM -SHSN OVC026 M06/M07 A2987 RMK SC8 SLP120

CYYG;2009-02-02 03:00;CYYG 020300Z 18011KT 10SM -SHSN OVC022 M06/M07 A2987 RMK SC8 SLP118

CYYG;2009-02-02 04:00;CYYG 020400Z 17009KT 10SM -SHSN OVC022 M05/M06 A2986 RMK SC8 /S01/ SLP115

CYYG;2009-02-02 05:00;CYYG 020500Z 19006KT 15SM -SHSN OVC022 M05/M06 A2986 RMK SC8 SLP116

CYYG;2009-02-02 06:00;CYYG 020600Z 21007KT 15SM -SHSN BKN019 OVC042 M04/M06 A2987 RMK SC6SC2 SLP120

CYYG;2009-02-02 07:00;CYYG 020700Z 22007KT 15SM BKN015 M04/M06 A2989 RMK SC7 SLP126

CYYG;2009-02-02 08:00;CYYG 020800Z 22006KT 15SM BKN015 BKN180 M05/M06 A2990 RMK SC5AC2 SLP129

CYYG;2009-02-02 09:00;CYYG 020900Z 22004KT 15SM SCT015 BKN170 M06/M06 A2993 RMK SC3AC4 SLP139

CYYG;2009-02-02 10:00;CYYG 021000Z 22007KT 15SM FEW015 OVC170 M05/M05 A2994 RMK SC2AC6 SLP143

CYYG;2009-02-02 11:00;CYYG 021100Z 22007KT 15SM BKN170 M05/M05 A2996 RMK AC6 SLP147

CYYG;2009-02-02 12:00;CYYG 021200Z 20005KT 10SM FEW120 BKN200 M05/M05 A2997 RMK AC1CI2 FROIN SLP152

CYYG;2009-02-02 13:00;CYYG 021300Z 21006KT 15SM BKN200 M04/M05 A2998 RMK CI2 SLP157

CYYG;2009-02-02 14:00;CYYG 021400Z 20007KT 15SM OVC200 M03/M04 A2999 RMK CI3 SLP159

CYYG;2009-02-02 15:00;CYYG 021500Z 21009KT 15SM FEW120 BKN200 M02/M04 A2999 RMK AC1CI2 SLP160

CYYG;2009-02-02 16:00;CYYG 021600Z 21007KT 15SM SCT140 BKN200 M00/M03 A2999 RMK AC2CI2 SLP159

CYYG;2009-02-02 17:00;CYYG 021700Z 22005KT 15SM FEW140 BKN200 01/M02 A3000 RMK AC1CI2 SLP161

CYYG;2009-02-02 18:00;CYYG 021800Z 20005KT 15SM FEW140 SCT200 03/M02 A2999 RMK AC1CI1 SLP157

CYYG;2009-02-02 19:00;CYYG 021900Z 19008KT 15SM FEW140 BKN200 02/M01 A2998 RMK AC2CI2 SLP155

CYYG;2009-02-02 20:00;CYYG 022000Z 18006KT 15SM FEW110 BKN200 01/M02 A2998 RMK AC2CI2 SLP155

CYYG;2009-02-02 21:00;CYYG 022100Z 16005KT 15SM FEW080 BKN094 OVC200 01/M01 A2998 RMK AC2AC4CI2 SLP154

CYYG;2009-02-02 22:00;CYYG 022200Z 15005KT 12SM OVC073 01/M01 A2997 RMK AC8 SLP151

CYYG;2009-02-02 23:00;CYYG 022300Z 18006KT 10SM BKN060 OVC078 02/M01 A2997 RMK SC6AC2 SLP150

CYYG;2009-02-03 00:00;CYYG 030000Z 18009KT 15SM BKN056 OVC080 03/M01 A2995 RMK SC6AC2 SLP145

CYYG;2009-02-03 01:00;CYYG 030100Z 18008KT 15SM SCT027 OVC048 03/M01 A2995 RMK SC3SC5 SLP145

CYYG;2009-02-03 01:50;CYYG 030150Z 17005KT 15SM -SHRA SCT027 OVC044 03/ RMK SC3SC5

CYYG;2009-02-03 02:00;CYYG 030200Z 16006KT 15SM -SHRA FEW027 OVC044 03/M01 A2994 RMK SC2SC6 SLP142

CYYG;2009-02-03 02:42;CYYG 030242Z 17005KT 15SM FEW027 OVC042 02/ RMK SC2SC6

CYYG;2009-02-03 03:00;CYYG 030300Z 20005KT 15SM FEW025 OVC042 02/M01 A2995 RMK SC2SC6 SLP143

CYYG;2009-02-03 04:00;CYYG 030400Z 23002KT 15SM OVC044 01/M01 A2993 RMK SC8 SLP139

CYYG;2009-02-03 05:00;CYYG 030500Z 27004KT 15SM OVC048 02/M01 A2993 RMK SC8 SLP138

CYYG;2009-02-03 06:00;CYYG 030600Z 32005KT 15SM OVC046 02/M00 A2993 RMK SC8 SLP138

CYYG;2009-02-03 07:00;CYYG 030700Z 32006KT 15SM OVC050 02/M01 A2993 RMK SC8 SLP137

CYYG;2009-02-03 08:00;CYYG 030800Z 34010G15KT 15SM OVC052 M00/M04 A2997 RMK SC8 SLP150

CYYG;2009-02-03 09:00;CYYG 030900Z 35009KT 15SM OVC052 M01/M05 A2997 RMK SC8 SLP152

CYYG;2009-02-03 10:00;CYYG 031000Z 35008KT 15SM OVC052 M01/M05 A2998 RMK SC8 SLP154

CYYG;2009-02-03 11:00;CYYG 031100Z 36008G15KT 15SM OVC051 M02/M05 A2998 RMK SC8 SLP156

CYYG;2009-02-03 12:00;CYYG 031200Z 36010G16KT 15SM OVC050 M03/M07 A3000 RMK SC8 SLP161

CYYG;2009-02-03 13:00;CYYG 031300Z 36007KT 15SM OVC070 M03/M07 A3000 RMK AS8 SLP162

CYYG;2009-02-03 14:00;CYYG 031400Z 36008KT 15SM OVC055 M03/M07 A3001 RMK SC8 SLP163

CYYG;2009-02-03 15:00;CYYG 031500Z 36007KT 15SM OVC048 M04/M07 A3000 RMK SC8 SLP162

CYYG;2009-02-03 15:47;CYYG 031547Z 02008KT 15SM -SHSN BKN012 OVC050 M04/ RMK SC5SC3

CYYG;2009-02-03 16:00;CYYG 031600Z 01011KT 3SM -SHSN OVC012 M04/M07 A2998 RMK SC8 SLP156

CYYG;2009-02-03 16:22;CYYG 031622Z 01011KT 1SM R03/P6000FT/D -SN OVC008 M05/ RMK SC8

CYYG;2009-02-03 17:00;CYYG 031700Z 36008G15KT 1SM R03/5000FT/N -SN OVC009 M05/M06 A2992 RMK SC8 PRESFR SLP135

CYYG;2009-02-03 17:22;CYYG 031722Z 02008KT 3/4SM R03/3500V4500FT/D -SN OVC007 M05/ RMK SC8

CYYG;2009-02-03 18:00;CYYG 031800Z 02011KT 3/4SM R03/4500FT/N -SN OVC008 M05/M05 A2988 RMK SC8 /S02/ SLP121

CYYG;2009-02-03 19:00;CYYG 031900Z 04015KT 3/4SM R03/4000FT/N -SN OVC008 M05/M06 A2985 RMK SC8 SLP111

CYYG;2009-02-03 19:46;CYYG 031946Z 04016KT 5/8SM R03/3500FT/D -SN DRSN OVC005 M06/ RMK SF8

CYYG;2009-02-03 20:00;CYYG 032000Z 04015G20KT 5/8SM R03/3500FT/N -SN DRSN VV004 M06/M07 A2982 RMK SN8 /S02/ SLP101

CYYG;2009-02-03 21:00;CYYG 032100Z 04018G24KT 3/4SM R03/4500FT/N -SN DRSN VV006 M06/M07 A2977 RMK SN8 SLP082

CYYG;2009-02-03 22:00;CYYG 032200Z 04019G26KT 3/4SM R03/2800VP6000FT/D -SN DRSN VV004 M06/M07 A2972 RMK SN8 /S05/ SLP066

CYYG;2009-02-03 22:26;CYYG 032226Z 04019G25KT 1/2SM R03/3500VP6000FT/N -SN BLSN VV003 M07/ RMK SN8

CYYG;2009-02-03 23:00;CYYG 032300Z CCA 03025KT 1/2SM R03/2600V5500FT/N SN BLSN VV003 M07/M08 A2964 RMK SN8 PRESFR /S08/ SLP041

CYYG;2009-02-04 00:00;CYYG 040000Z CCA 03028G33KT 1/2SM R03/2400V4000FT/N SN BLSN VV002 M07/M08 A2954 RMK SN8 PRESFR/S11/ SLP005

CYYG;2009-02-04 01:00;CYYG 040100Z 02024G33KT 3/8SM R03/1600V2800FT/D SN BLSN VV002 M06/M06 A2945 RMK SN8 PRESFR SLP975

CYYG;2009-02-04 02:00;CYYG 040200Z 02029KT 1/4SM SN +BLSN VV001 M06/M07 A2936 RMK SN8 PRESFR SLP946

CYYG;2009-02-04 03:00;CYYG 040300Z 01024G37KT 1/4SM SN +BLSN VV001 M06/M06 A2928 RMK SN8 PRESFR SLP916

CYYG;2009-02-04 04:00;CYYG 040400Z 36022G32KT 3/8SM SN BLSN VV002 M06/M06 A2931 RMK SN8 /S04/ SLP928

CYYG;2009-02-04 05:00;CYYG 040500Z 35018G28KT 1/2SM SN BLSN OVC003 M06/M07 A2934 RMK SF8 SLP937

CYYG;2009-02-04 06:00;CYYG 040600Z 35021G31KT 1 1/2SM -SN BR BKN004 OVC012 M07/M08 A2938 RMK SF6SC2 SLP951

CYYG;2009-02-04 07:00;CYYG 040700Z 34021G33KT 2 1/2SM -SN BKN008 OVC012 M08/M09 A2940 RMK SF6SC2 SLP959

CYYG;2009-02-04 08:00;CYYG 040800Z 34018G26KT 4SM -SN BKN010 OVC032 M08/M08 A2947 RMK SF6SC2 PRESRR SLP984

CYYG;2009-02-04 09:00;CYYG 040900Z 34016G24KT 10SM -SN BKN010 OVC048 M07/M08 A2950 RMK SF5SC3 SLP994

CYYG;2009-02-04 10:00;CYYG 041000Z 34016G21KT 10SM -SN BKN011 OVC050 M07/M08 A2952 RMK SF5SC3 SLP001

CYYG;2009-02-04 11:00;CYYG 041100Z 34014G20KT 10SM BKN011 OVC052 M07/M08 A2955 RMK SF6SC2 SLP010

CYYG;2009-02-04 12:00;CYYG 041200Z 31010KT 10SM OVC011 M07/M08 A2963 RMK SF8 SLP035

CYYG;2009-02-04 12:44;CYYG 041244Z 29010KT 7SM -SHSN OVC012 M07/ RMK SC8

CYYG;2009-02-04 13:00;CYYG 041300Z 30010KT 3SM -SHSN OVC013 M07/M08 A2968 RMK SC8 SLP052

CYYG;2009-02-04 13:07;CYYG 041307Z 29007KT 2 1/2SM -SHSN DRSN OVC012 M07/ RMK SC8

CYYG;2009-02-04 14:00;CYYG 041400Z 31012KT 2 1/2SM -SHSN DRSN BKN015 BKN090 M07/M09 A2969 RMK SC5AC1 SLP058

CYYG;2009-02-04 14:24;CYYG 041424Z 32010KT 7SM -SHSN DRSN SCT015 SCT090 M07/ RMK SC3AC1

CYYG;2009-02-04 15:00;CYYG 041500Z 32007KT 6SM -SHSN DRSN SCT015 BKN090 M07/M08 A2972 RMK SC3AC4 SLP067

CYYG;2009-02-04 16:00;CYYG 041600Z 32008KT 12SM VCSH FEW015 BKN090 M07/M09 A2973 RMK SC2AC3 SLP071

CYYG;2009-02-04 16:51;CYYG 041651Z 31008KT 15SM -SHSN BKN016 BKN067 M07/ RMK SC6AC2

CYYG;2009-02-04 17:00;CYYG 041700Z 31009KT 15SM -SHSN BKN017 BKN067 M06/M09 A2975 RMK SC6AC2 SLP076

CYYG;2009-02-04 18:00;CYYG 041800Z 31006KT 3SM -SHSN BKN018 BKN067 M06/M09 A2977 RMK SC6AC1 /S04/ SLP084

CYYG;2009-02-04 19:00;CYYG 041900Z 29004KT 3SM -SHSN FEW014 OVC020 M06/M08 A2979 RMK SC2SC6 SLP091

CYYG;2009-02-04 20:00;CYYG 042000Z 26002KT 3SM -SHSN OVC014 M06/M08 A2981 RMK SC8 SLP098

CYYG;2009-02-04 20:22;CYYG 042022Z 28002KT 2SM -SHSN OVC008 M07/ RMK SF8

CYYG;2009-02-04 21:00;CYYG 042100Z 25006KT 3SM -SHSN SCT010 OVC020 M07/M08 A2983 RMK SC3SC5 SLP105

CYYG;2009-02-04 22:00;CYYG 042200Z 27003KT 15SM -SHSN FEW010 BKN088 M08/M08 A2987 RMK SC2AC6 SLP117

CYYG;2009-02-04 23:00;CYYG 042300Z 26002KT 15SM -SHSN FEW088 M08/M09 A2989 RMK AC2 SLP124

CYYG;2009-02-05 00:00;CYYG 050000Z 00000KT 15SM SCT041 M08/M09 A2990 RMK SC4 SLP127

CYYG;2009-02-05 00:28;CYYG 050028Z 18002KT 15SM -SHSN SCT011 BKN024 M09/ RMK SF3SC3

CYYG;2009-02-05 01:00;CYYG 050100Z 18002KT 15SM -SHSN FEW011 BKN032 M09/M09 A2991 RMK SF2SC6 SLP131

CYYG;2009-02-05 02:00;CYYG 050200Z 00000KT 10SM -SHSN OVC017 M10/M10 A2993 RMK SC8 SLP138

CYYG;2009-02-05 03:00;CYYG 050300Z 00000KT 10SM -SHSN SCT015 BKN031 M09/M09 A2991 RMK SC3SC4 SLP133

CYYG;2009-02-05 04:00;CYYG 050400Z 00000KT 15SM -SHSN BKN027 M11/M11 A2993 RMK SC6 SLP137

CYYG;2009-02-05 05:00;CYYG 050500Z 29003KT 15SM -SHSN OVC034 M10/M10 A2993 RMK SC8 SLP139

CYYG;2009-02-05 06:00;CYYG 050600Z 34006KT 10SM -SHSN OVC034 M10/M11 A2993 RMK SC8 /S01/ SLP138

CYYG;2009-02-05 07:00;CYYG 050700Z 35007KT 10SM -SHSN BKN034 BKN140 M11/M11 A2993 RMK SC5AC2 SLP137

CYYG;2009-02-05 08:00;CYYG 050800Z 35006KT 15SM FEW035 SCT130 M11/M12 A2993 RMK SC2AC2 SLP139

CYYG;2009-02-05 08:45;CYYG 050845Z 34007KT 15SM BKN140 M12/ RMK AC6

CYYG;2009-02-05 09:00;CYYG 050900Z 34006KT 15SM BKN140 M12/M12 A2990 RMK AC6 SLP128

CYYG;2009-02-05 10:00;CYYG 051000Z 35007KT 15SM FEW007 OVC130 M11/M12 A2990 RMK SF2AC5 SLP130

CYYG;2009-02-05 11:00;CYYG 051100Z 35009KT 15SM SCT008 OVC140 M11/M12 A2987 RMK SF3AC4 SLP120

CYYG;2009-02-05 12:00;CYYG 051200Z 34007KT 15SM BKN008 OVC130 M11/M12 A2989 RMK SF6AC2 SLP124

CYYG;2009-02-05 12:14;CYYG 051214Z 34009KT 15SM -SN OVC007 M11/ RMK SF8

CYYG;2009-02-05 13:00;CYYG 051300Z 35008KT 10SM -SN OVC007 M11/M12 A2987 RMK ST8 VIS W-NE 3 SLP118

CYYG;2009-02-05 14:00;CYYG 051400Z 36009KT 3SM -SN DRSN OVC010 M09/M10 A2987 RMK SC8 SLP120

CYYG;2009-02-05 15:00;CYYG 051500Z 01012KT 5SM -SN DRSN OVC010 M10/M12 A2987 RMK SC8 SLP119

CYYG;2009-02-05 15:14;CYYG 051514Z 01007G15KT 10SM -SN DRSN BKN012 OVC020 M10/ RMK SC7SC1

CYYG;2009-02-05 16:00;CYYG 051600Z 02013G20KT 3SM -SN DRSN OVC012 M10/M12 A2985 RMK SC8 SLP110

CYYG;2009-02-05 17:00;CYYG 051700Z 01014KT 10SM -SN DRSN BKN014 OVC033 M10/M13 A2983 RMK SC6SC2 SLP105

CYYG;2009-02-05 18:00;CYYG 051800Z 01013G20KT 15SM -SN DRSN BKN015 OVC033 M10/M13 A2984 RMK SC5SC3 SLP107

CYYG;2009-02-05 19:00;CYYG 051900Z 36012G19KT 15SM -SHSN DRSN OVC018 M11/M14 A2984 RMK SC8 SLP107

CYYG;2009-02-05 20:00;CYYG 052000Z 34014G20KT 12SM -SHSN DRSN OVC020 M11/M14 A2983 RMK SC8 SLP105

CYYG;2009-02-05 21:00;CYYG 052100Z 36011KT 8SM -SHSN DRSN OVC019 M11/M14 A2985 RMK SC8 SLP111

CYYG;2009-02-05 22:00;CYYG 052200Z 36007KT 8SM -SHSN DRSN OVC018 M11/M13 A2985 RMK SC8 SLP111

CYYG;2009-02-05 23:00;CYYG 052300Z 35009G16KT 10SM -SHSN DRSN OVC018 M11/M14 A2987 RMK SC8 SLP120

CYYG;2009-02-06 00:00;CYYG 060000Z 35007KT 10SM -SHSN OVC023 M12/M14 A2988 RMK SC8 SLP123

CYYG;2009-02-06 01:00;CYYG 060100Z 27006KT 15SM -SHSN OVC025 M11/M13 A2990 RMK SC8 PCPN VRY LGT SLP130

CYYG;2009-02-06 02:00;CYYG 060200Z 25005KT 15SM -SHSN OVC026 M12/M14 A2992 RMK SC8 SLP136

CYYG;2009-02-06 03:00;CYYG 060300Z 28008KT 15SM -SHSN OVC026 M12/M14 A2994 RMK SC8 PCPN VRY LGT SLP143

CYYG;2009-02-06 04:00;CYYG 060400Z 27007KT 15SM -SHSN OVC019 M12/M14 A2996 RMK SC8 PCPN VRY LGT SLP147

CYYG;2009-02-06 05:00;CYYG 060500Z 28008KT 15SM -SHSN BKN018 OVC044 M12/M15 A2996 RMK SC5SC3 PCPN VRY LGT SLP148

CYYG;2009-02-06 06:00;CYYG 060600Z 29008KT 15SM -SHSN OVC041 M13/M15 A2998 RMK SC7 SLP156

CYYG;2009-02-06 07:00;CYYG 060700Z 29009KT 15SM -SHSN OVC041 M14/M15 A2999 RMK SC7 SLP160

CYYG;2009-02-06 07:47;CYYG 060747Z 29010KT 15SM SCT040 M14/ RMK SC3

CYYG;2009-02-06 08:00;CYYG 060800Z 29008KT 15SM SCT040 M15/M16 A3000 RMK SC2 SLP164

CYYG;2009-02-06 09:00;CYYG 060900Z 29009KT 15SM FEW040 M15/M17 A3002 RMK SC2 SLP171

CYYG;2009-02-06 10:00;CYYG 061000Z 28008KT 15SM FEW040 M16/M18 A3004 RMK SC1 SLP176

CYYG;2009-02-06 11:00;CYYG 061100Z 28007KT 15SM FEW040 M17/M18 A3006 RMK SC1 SLP182

CYYG;2009-02-06 12:00;CYYG 061200Z 28007KT 15SM FEW030 FEW250 M17/M18 A3010 RMK SC1CI0 SLP196

CYYG;2009-02-06 13:00;CYYG 061300Z 28008KT 15SM FEW030 FEW250 M16/M17 A3013 RMK SC1CI1 SLP206

CYYG;2009-02-06 14:00;CYYG 061400Z 29009KT 15SM FEW030 FEW250 M14/M17 A3015 RMK SC1CI1 SLP214

CYYG;2009-02-06 15:00;CYYG 061500Z 29008KT 15SM FEW030 FEW250 M14/M16 A3015 RMK SC1CI1 SLP215

CYYG;2009-02-06 16:00;CYYG 061600Z 27006KT 15SM FEW030 SCT250 M13/M16 A3016 RMK SC1CI1 SLP216

CYYG;2009-02-06 17:00;CYYG 061700Z 25008KT 15SM FEW250 M12/M16 A3014 RMK CI1 SLP211

CYYG;2009-02-06 18:00;CYYG 061800Z 25009KT 15SM FEW250 M11/M16 A3013 RMK CI1 SLP206

CYYG;2009-02-06 19:00;CYYG 061900Z 25008KT 15SM FEW250 M10/M15 A3013 RMK CI1 SLP208

CYYG;2009-02-06 20:00;CYYG 062000Z 23008KT 15SM SKC M09/M14 A3012 RMK SLP205

CYYG;2009-02-06 21:00;CYYG 062100Z 23006KT 15SM SKC M09/M13 A3013 RMK SLP208

CYYG;2009-02-06 22:00;CYYG 062200Z 23005KT 15SM SKC M10/M14 A3014 RMK SLP209

CYYG;2009-02-06 23:00;CYYG 062300Z 25006KT 15SM SKC M10/M14 A3015 RMK SLP213

CYYG;2009-02-07 00:00;CYYG 070000Z 26008KT 15SM FEW020 M09/M11 A3017 RMK SC1 SLP219

CYYG;2009-02-07 01:00;CYYG 070100Z 27010G15KT 15SM SKC M10/M14 A3017 RMK SLP221

CYYG;2009-02-07 02:00;CYYG 070200Z 26008KT 15SM SKC M10/M14 A3018 RMK SLP223

CYYG;2009-02-07 03:00;CYYG 070300Z 27008KT 15SM SKC M11/M14 A3019 RMK SLP227

CYYG;2009-02-07 04:00;CYYG 070400Z 26006KT 15SM SKC M12/M15 A3020 RMK SLP230

CYYG;2009-02-07 05:00;CYYG 070500Z 25005KT 15SM SKC M13/M15 A3020 RMK SLP231

CYYG;2009-02-07 06:00;CYYG 070600Z 26006KT 15SM SKC M12/M16 A3021 RMK SLP235

CYYG;2009-02-07 07:00;CYYG 070700Z 27008KT 15SM SKC M12/M16 A3023 RMK SLP239

CYYG;2009-02-07 08:00;CYYG 070800Z 27007KT 15SM SKC M12/M16 A3023 RMK SLP239

CYYG;2009-02-07 09:00;CYYG 070900Z 29008KT 15SM SKC M12/M15 A3023 RMK SLP240

CYYG;2009-02-07 10:00;CYYG 071000Z 23006KT 15SM SKC M13/M16 A3024 RMK FROIN SLP243

CYYG;2009-02-07 11:00;CYYG 071100Z CCA 24005KT 15SM SKC M14/M16 A3024 RMK FROIN SLP245

CYYG;2009-02-07 12:00;CYYG 071200Z 25004KT 15SM FEW150 M13/M15 A3027 RMK AC1 SLP253

CYYG;2009-02-07 13:00;CYYG 071300Z 25008KT 15SM FEW150 M11/M14 A3027 RMK AC1 SLP254

CYYG;2009-02-07 14:00;CYYG 071400Z 25010KT 15SM FEW220 M09/M14 A3026 RMK CI1 SLP252

CYYG;2009-02-07 15:00;CYYG 071500Z 23006KT 15SM FEW250 M08/M12 A3025 RMK CI1 SLP248

CYYG;2009-02-07 16:00;CYYG 071600Z 23007KT 15SM SCT250 M07/M11 A3023 RMK CI1 SLP241

CYYG;2009-02-07 17:00;CYYG 071700Z 23009KT 15SM SCT250 M06/M10 A3019 RMK CI1 SLP226

CYYG;2009-02-07 18:00;CYYG 071800Z 23009KT 15SM SCT250 M04/M09 A3015 RMK CI1 SLP215

CYYG;2009-02-07 19:00;CYYG 071900Z 21009KT 15SM BKN250 M03/M08 A3014 RMK CI1 SLP210

CYYG;2009-02-07 20:00;CYYG 072000Z 20011KT 15SM BKN280 M03/M07 A3012 RMK CI2 SLP203

CYYG;2009-02-07 21:00;CYYG 072100Z 21008KT 15SM BKN280 M02/M07 A3009 RMK CI2 SLP192

CYYG;2009-02-07 22:00;CYYG 072200Z 22014KT 15SM BKN280 M02/M05 A3006 RMK CI2 SLP182

CYYG;2009-02-07 23:00;CYYG 072300Z 21013KT 15SM BKN200 M03/M06 A3003 RMK CI4 SLP173

CYYG;2009-02-08 00:00;CYYG 080000Z 21012KT 15SM FEW160 OVC240 M02/M06 A3000 RMK AC1CS3 HALO SLP163

CYYG;2009-02-08 01:00;CYYG 080100Z 20014G19KT 15SM OVC180 M02/M06 A2995 RMK AS8 MOON DIMLY VISBL SLP145

CYYG;2009-02-08 02:00;CYYG 080200Z 19017KT 15SM OVC180 M03/M05 A2990 RMK AS8 MOON DIMLY VISBL SLP127

CYYG;2009-02-08 03:00;CYYG 080300Z 20015G20KT 15SM OVC200 M02/M04 A2985 RMK CS8 HALO SLP112

CYYG;2009-02-08 04:00;CYYG 080400Z 20015KT 15SM SCT035 BKN055 OVC200 M02/M04 A2982 RMK SC3SC3CS2 SLP102

CYYG;2009-02-08 05:00;CYYG 080500Z 19016KT 12SM OVC038 M01/M03 A2976 RMK SC8 PRESFR SLP079

CYYG;2009-02-08 05:24;CYYG 080524Z 20016G21KT 10SM -PL -FZRA OVC042 M01/ RMK SC8

CYYG;2009-02-08 05:34;CYYG 080534Z 20015KT 2 1/2SM -PLSN -FZRA OVC040 M01/ RMK SC8

CYYG;2009-02-08 05:46;CYYG 080546Z 20015G20KT 5/8SM R03/P6000FT/D -SN VV008 M01/ REFZRA RMK SN8

CYYG;2009-02-08 06:00;CYYG 080600Z 20017KT 3/4SM R03/4500VP6000FT/D -SN DRSN VV008 M01/M01 A2971 REFZRA RMK SN8 /S01/ SLP065

CYYG;2009-02-08 06:33;CYYG 080633Z 20015G20KT 2SM BR BKN004 OVC017 M01/ RMK SF6SC2

CYYG;2009-02-08 06:51;CYYG 080651Z 20015KT 2SM -SN BR FEW004 OVC014 M01/ RMK SF2SC6

CYYG;2009-02-08 07:00;CYYG 080700Z 20013KT 2SM -SN -FZRA BR FEW004 OVC014 M01/M01 A2968 RMK SF2SC6 SLP053

CYYG;2009-02-08 07:30;CYYG 080730Z 20014KT 6SM BR OVC018 M00/ REFZRA RMK SC8

CYYG;2009-02-08 07:39;CYYG 080739Z 20015KT 6SM -RA BR OVC018 00/ REFZRA RMK SC8

CYYG;2009-02-08 08:00;CYYG 080800Z 20013KT 6SM BR OVC019 00/00 A2963 REFZRA RMK SC8 SLP038

CYYG;2009-02-08 09:00;CYYG 080900Z 21015KT 6SM BR OVC015 01/01 A2960 RMK SC8 SLP024

CYYG;2009-02-08 10:00;CYYG 081000Z 21014KT 6SM BR OVC016 02/02 A2956 RMK SC8 SLP011

CYYG;2009-02-08 11:00;CYYG 081100Z 20012KT 6SM BR OVC014 02/02 A2953 RMK SC8 SLP002

CYYG;2009-02-08 12:00;CYYG 081200Z 20011KT 10SM OVC014 02/02 A2952 RMK SC8 SLP998

CYYG;2009-02-08 12:22;CYYG 081222Z 20010KT 10SM -DZ OVC013 02/ RMK SC8

CYYG;2009-02-08 13:00;CYYG 081300Z 20010KT 8SM -DZ BKN012 OVC034 02/02 A2949 RMK SC7SC1 SLP989

CYYG;2009-02-08 14:00;CYYG 081400Z 20008KT 10SM -DZ BKN013 OVC035 02/02 A2947 RMK SC6SC2 SLP982

CYYG;2009-02-08 15:00;CYYG 081500Z 21006KT 10SM -DZ SCT013 OVC035 02/02 A2945 RMK SC4SC4 SLP975

CYYG;2009-02-08 16:00;CYYG 081600Z 22007KT 10SM -DZ FEW013 OVC034 03/02 A2942 RMK SC2SC6 SLP966

CYYG;2009-02-08 17:00;CYYG 081700Z 22007KT 10SM -RA FEW016 OVC030 03/03 A2940 RMK SC2SC6 SLP957

CYYG;2009-02-08 18:00;CYYG 081800Z 24006KT 6SM -RA BR FEW016 OVC028 03/03 A2938 RMK SC2SC6 SLP951

CYYG;2009-02-08 19:00;CYYG 081900Z 23006KT 6SM -RA BR OVC019 04/03 A2937 RMK SC8 SLP949

CYYG;2009-02-08 20:00;CYYG 082000Z 27009KT 8SM -RA BKN017 OVC025 03/03 A2937 RMK SC6SC2 SLP947

CYYG;2009-02-08 20:19;CYYG 082019Z 34011KT 5SM -RA BR BKN005 OVC022 02/ RMK SF6SC2

CYYG;2009-02-08 20:32;CYYG 082032Z 34008KT 3SM -SHRASN BR BKN005 OVC019 01/ RMK SF7SC1

CYYG;2009-02-08 20:46;CYYG 082046Z 34007KT 2 1/2SM -SHSN BKN005 OVC025 01/ RMK SF7SC1

CYYG;2009-02-08 21:00;CYYG 082100Z 33006KT 2 1/2SM -SHSN BKN005 OVC011 01/01 A2939 RMK SF7SC1 SLP955

CYYG;2009-02-08 21:15;CYYG 082115Z 33006KT 1 1/2SM -SHSN OVC004 01/ RMK SF8

CYYG;2009-02-08 22:00;CYYG 082200Z 34013G19KT 1 1/2SM -SHSN OVC006 M01/M01 A2943 RMK SF8 SLP967

CYYG;2009-02-08 22:20;CYYG 082220Z 33009G15KT 3/4SM R03/5500FT/D -SN VV004 M01/ RMK SN8

CYYG;2009-02-08 22:39;CYYG 082239Z 32009G15KT 2SM -SN BKN008 OVC020 M01/ RMK SF7SC1

CYYG;2009-02-08 23:00;CYYG 082300Z 30014G20KT 2SM -SN BKN008 OVC026 M01/M01 A2946 RMK SF7SC1 SLP977

CYYG;2009-02-09 00:00;CYYG 090000Z 31013G25KT 1 1/2SM -SN OVC008 M02/M02 A2950 RMK SF8 /S02/ SLP990

CYYG;2009-02-09 01:00;CYYG 090100Z 31013G18KT 1 1/2SM -SN OVC008 M03/M04 A2952 RMK SF8 SLP999

CYYG;2009-02-09 02:00;CYYG 090200Z 30013G18KT 15SM -SN FEW008 BKN020 OVC050 M03/M04 A2953 RMK SF2SC2SC3 SLP003

CYYG;2009-02-09 02:38;CYYG 090238Z 31020G26KT 3/4SM R03/4000VP6000FT/D -SN FEW002 OVC009 M04/ RMK SC2SF6

CYYG;2009-02-09 03:00;CYYG 090300Z 30015G24KT 1 1/2SM -SN BKN010 OVC020 M04/M05 A2956 RMK SF6SC2 /S01/ SLP011

CYYG;2009-02-09 04:00;CYYG 090400Z 31018G26KT 1SM R03/P6000FT/U -SN DRSN BKN009 OVC020 M07/M08 A2960 RMK SF6SC2 /S02/ SLP025

CYYG;2009-02-09 05:00;CYYG 090500Z 29018G28KT 1SM R03/P6000FT/U -SN DRSN OVC011 M08/M09 A2963 RMK SF8 SLP034

CYYG;2009-02-09 06:00;CYYG 090600Z 30013G24KT 1 1/2SM -SN DRSN OVC008 M09/M11 A2966 RMK SF8 SLP046

CYYG;2009-02-09 07:00;CYYG 090700Z 30019G26KT 1 1/2SM -SN DRSN OVC009 M10/M12 A2967 RMK SF8 CIG RAG SLP049

CYYG;2009-02-09 08:00;CYYG 090800Z 30018G27KT 2SM -SN DRSN SCT009 OVC020 M10/M11 A2968 RMK SF4SC4 SLP054

CYYG;2009-02-09 09:00;CYYG 090900Z CCA 30018G25KT 1SM R03/4000VP6000FT/D -SN DRSN OVC007 M10/M12 A2971 RMK SF8 /S01/ SLP063

CYYG;2009-02-09 10:00;CYYG 091000Z 31016G22KT 3/4SM R03/3000VP6000FT/D -SN DRSN BKN007 OVC023 M10/M11 A2974 RMK SF5SC3 SLP072

CYYG;2009-02-09 11:00;CYYG 091100Z 31012G20KT 4SM -SN DRSN OVC029 M10/M12 A2979 RMK SF8 SLP089

CYYG;2009-02-09 12:00;CYYG 091200Z 32017G29KT 10SM -SHSN DRSN OVC028 M10/M12 A2981 RMK SC8 /S02/ SLP099

CYYG;2009-02-09 13:00;CYYG 091300Z 31018G25KT 6SM -SHSN BLSN OVC029 M11/M13 A2985 RMK BLSN2SC6 SLP112

CYYG;2009-02-09 14:00;CYYG 091400Z 30015G20KT 12SM -SHSN DRSN OVC020 M11/M13 A2989 RMK SC8 SLP124

CYYG;2009-02-09 15:00;CYYG 091500Z 30014G21KT 10SM -SHSN DRSN OVC020 M12/M14 A2990 RMK SC8 SLP130

CYYG;2009-02-09 16:00;CYYG 091600Z 31016G22KT 15SM -SHSN DRSN OVC020 M12/M15 A2991 RMK SC8 SLP131

CYYG;2009-02-09 17:00;CYYG 091700Z 30015G20KT 15SM -SHSN DRSN OVC022 M12/M14 A2991 RMK SC8 SLP132

CYYG;2009-02-09 18:00;CYYG 091800Z 29019G25KT 15SM -SHSN DRSN OVC025 M11/M15 A2991 RMK SC8 SLP131

CYYG;2009-02-09 19:00;CYYG 091900Z 31017G26KT 15SM DRSN BKN033 M11/M16 A2992 RMK SC6 SLP136

CYYG;2009-02-09 20:00;CYYG 092000Z 31012G20KT 15SM DRSN SCT033 M11/M16 A2993 RMK SC3 SLP139

CYYG;2009-02-09 21:00;CYYG 092100Z 30011G18KT 15SM DRSN FEW035 M11/M17 A2994 RMK SC2 SLP142

CYYG;2009-02-09 22:00;CYYG 092200Z 30009KT 15SM FEW040 M11/M17 A2997 RMK SC2 SLP153

CYYG;2009-02-09 23:00;CYYG 092300Z 31010KT 15SM SCT042 M11/M18 A3000 RMK SC3 SLP163

CYYG;2009-02-10 00:00;CYYG 100000Z 32012G21KT 15SM DRSN BKN036 M11/M16 A3003 RMK SC6 SLP174

CYYG;2009-02-10 01:00;CYYG 100100Z 31014G25KT 15SM DRSN BKN033 M11/M16 A3004 RMK SC7 SLP178

CYYG;2009-02-10 01:18;CYYG 100118Z 31015G24KT 12SM -SHSN DRSN OVC033 M11/ RMK SC8

CYYG;2009-02-10 02:00;CYYG 100200Z 31016G21KT 10SM -SHSN DRSN OVC029 M11/M14 A3007 RMK SC8 SLP186

CYYG;2009-02-10 03:00;CYYG 100300Z 33016G26KT 12SM -SHSN DRSN OVC031 M11/M15 A3008 RMK SC8 SLP189

CYYG;2009-02-10 04:00;CYYG 100400Z 33016G21KT 12SM -SHSN DRSN OVC030 M11/M16 A3009 RMK SC8 SLP195

CYYG;2009-02-10 05:00;CYYG 100500Z 32014G21KT 15SM DRSN OVC032 M11/M16 A3011 RMK SC8 SLP200

CYYG;2009-02-10 06:00;CYYG 100600Z 31011G16KT 15SM DRSN OVC027 M12/M16 A3011 RMK SC8 SLP201

CYYG;2009-02-10 07:00;CYYG 100700Z 31015KT 15SM DRSN OVC027 M13/M16 A3011 RMK SC8 SLP199

CYYG;2009-02-10 08:00;CYYG 100800Z 29011G16KT 15SM DRSN OVC021 M13/M17 A3012 RMK SC8 SLP202

CYYG;2009-02-10 09:00;CYYG 100900Z 29010KT 15SM DRSN OVC022 M14/M17 A3013 RMK SC8 SLP207

CYYG;2009-02-10 10:00;CYYG 101000Z 28009KT 15SM BKN022 M15/M18 A3015 RMK SC5 SLP215

CYYG;2009-02-10 11:00;CYYG 101100Z 28009KT 15SM FEW022 M15/M18 A3017 RMK SC2 SLP222

CYYG;2009-02-10 12:00;CYYG 101200Z 29012KT 15SM FEW022 M15/M18 A3018 RMK SC1 SLP225

CYYG;2009-02-10 13:00;CYYG 101300Z 29014KT 15SM FEW020 M14/M18 A3019 RMK SC0 SLP227

CYYG;2009-02-10 14:00;CYYG 101400Z 29015G20KT 15SM DRSN FEW020 M13/M18 A3020 RMK SC1 SLP230

CYYG;2009-02-10 15:00;CYYG 101500Z 29012KT 15SM DRSN FEW020 FEW250 M13/M17 A3020 RMK SC1CI0 SLP231

CYYG;2009-02-10 16:00;CYYG 101600Z 29011KT 15SM FEW020 FEW250 M12/M16 A3018 RMK SC1CI0 SLP225

CYYG;2009-02-10 17:00;CYYG 101700Z 29010G15KT 15SM FEW020 FEW250 M11/M16 A3018 RMK SC0CI1 SLP224

CYYG;2009-02-10 18:00;CYYG 101800Z 29010KT 15SM FEW250 M10/M16 A3016 RMK CI1 SLP216

CYYG;2009-02-10 19:00;CYYG 101900Z 30009G16KT 15SM FEW250 M09/M17 A3015 RMK CI1 SLP213

CYYG;2009-02-10 20:00;CYYG 102000Z 29010KT 15SM SCT250 M08/M16 A3014 RMK CI2 SLP211

CYYG;2009-02-10 21:00;CYYG 102100Z 29005KT 15SM FEW030 FEW250 M09/M17 A3013 RMK SC1CI1 SLP208

CYYG;2009-02-10 22:00;CYYG 102200Z 00000KT 15SM FEW030 SCT250 M10/M17 A3012 RMK SC1CI1 SLP204

CYYG;2009-02-10 23:00;CYYG 102300Z 25005KT 15SM FEW030 SCT250 M10/M17 A3013 RMK SC1CI1 SLP208

CYYG;2009-02-11 00:00;CYYG 110000Z 26006KT 15SM SCT140 M10/M16 A3012 RMK AC2 SLP204

CYYG;2009-02-11 01:00;CYYG 110100Z 26005KT 15SM BKN130 M09/M16 A3012 RMK AS2 SLP203

CYYG;2009-02-11 02:00;CYYG 110200Z 26006KT 15SM BKN120 M09/M15 A3010 RMK AS2 SLP198

CYYG;2009-02-11 03:00;CYYG 110300Z 26006KT 15SM OVC110 M09/M15 A3010 RMK AS5 SLP198

CYYG;2009-02-11 04:00;CYYG 110400Z 27005KT 15SM SCT080 OVC120 M08/M14 A3010 RMK AC3AS5 SLP196

CYYG;2009-02-11 05:00;CYYG 110500Z 26005KT 15SM BKN070 OVC120 M08/M13 A3009 RMK AC6AS2 SLP193

CYYG;2009-02-11 06:00;CYYG 110600Z 28005KT 15SM FEW070 OVC120 M08/M13 A3008 RMK AC2AS6 SLP188

CYYG;2009-02-11 07:00;CYYG 110700Z 28004KT 15SM OVC078 M08/M12 A3004 RMK AC8 SLP176

CYYG;2009-02-11 08:00;CYYG 110800Z 25007KT 15SM SCT070 OVC088 M08/M10 A3004 RMK AC3AC5 SLP174

CYYG;2009-02-11 09:00;CYYG 110900Z 26005KT 15SM BKN059 OVC079 M08/M09 A3001 RMK SC6AC2 SLP167

CYYG;2009-02-11 09:18;CYYG 110918Z 25005KT 8SM -SHSN OVC060 M08/ RMK SC8

CYYG;2009-02-11 10:00;CYYG 111000Z 24007KT 8SM -SHSN OVC056 M08/M09 A3001 RMK SC8 SLP166

CYYG;2009-02-11 11:00;CYYG 111100Z 22004KT 10SM -SHSN SCT056 BKN080 OVC140 M08/M09 A2999 RMK SC3AC3AC2 SLP159

CYYG;2009-02-11 12:00;CYYG 111200Z 24004KT 15SM BKN044 BKN070 M08/M08 A2999 RMK SC5AC2 SLP159

CYYG;2009-02-11 13:00;CYYG 111300Z 22003KT 15SM BKN037 M07/M09 A2998 RMK SC7 SLP154

CYYG;2009-02-11 13:26;CYYG 111326Z 22005KT 15SM FEW008 OVC027 M07/ RMK SF1SC7

CYYG;2009-02-11 14:00;CYYG 111400Z 20004KT 15SM FEW008 OVC022 M07/M10 A2997 RMK SF1SC7 SLP151

CYYG;2009-02-11 15:00;CYYG 111500Z 17006KT 15SM OVC019 M06/M09 A2993 RMK SC8 SLP140

CYYG;2009-02-11 16:00;CYYG 111600Z 16006KT 15SM OVC015 M05/M09 A2993 RMK SC8 SLP137

CYYG;2009-02-11 16:49;CYYG 111649Z 18008KT 15SM OVC013 M05/ RMK SC8

CYYG;2009-02-11 17:00;CYYG 111700Z 17007KT 15SM OVC013 M05/M08 A2990 RMK ST8 SLP129

CYYG;2009-02-11 18:00;CYYG 111800Z 17008KT 15SM OVC013 M04/M08 A2985 RMK ST8 SLP111

CYYG;2009-02-11 19:00;CYYG 111900Z 17009KT 15SM OVC013 M04/M07 A2983 RMK ST8 SLP105

CYYG;2009-02-11 20:00;CYYG 112000Z 18013KT 15SM OVC011 M03/M06 A2981 RMK ST8 SLP098

CYYG;2009-02-11 21:00;CYYG 112100Z 19012KT 15SM OVC011 M02/M04 A2978 RMK ST8 SLP086

CYYG;2009-02-11 22:00;CYYG 112200Z 18012KT 15SM OVC010 M02/M03 A2975 RMK ST8 SLP076

CYYG;2009-02-11 22:06;CYYG 112206Z 18011KT 15SM OVC009 M02/ RMK ST8

CYYG;2009-02-11 23:00;CYYG 112300Z 21007KT 15SM OVC009 M02/M03 A2973 RMK ST8 SLP069

CYYG;2009-02-12 00:00;CYYG 120000Z 22011KT 15SM OVC007 M01/M02 A2971 RMK ST8 SLP062

CYYG;2009-02-12 01:00;CYYG 120100Z 22010KT 15SM OVC007 M01/M01 A2969 RMK ST8 SLP057

CYYG;2009-02-12 01:18;CYYG 120118Z 22011KT 10SM -FZDZ OVC007 M01/ RMK ST8

CYYG;2009-02-12 02:00;CYYG 120200Z 23010KT 8SM -DZ OVC005 00/00 A2967 RMK ST8 REFZDZ SLP051

CYYG;2009-02-12 03:00;CYYG 120300Z 22007KT 6SM -DZ BR OVC004 00/00 A2966 RMK ST8 SLP046

CYYG;2009-02-12 03:44;CYYG 120344Z 23008KT 5SM -DZ BR OVC003 00/ RMK ST8

CYYG;2009-02-12 04:00;CYYG 120400Z 23007KT 5SM -DZ BR OVC004 00/00 A2964 RMK ST8 SLP040

CYYG;2009-02-12 04:38;CYYG 120438Z 22008KT 3SM -DZ BR OVC003 00/ RMK SF8

CYYG;2009-02-12 05:00;CYYG 120500Z 23008KT 3SM -DZ BR OVC003 00/00 A2963 RMK SF8 SLP036

CYYG;2009-02-12 06:00;CYYG 120600Z 22006KT 6SM -DZ BR OVC003 00/00 A2961 RMK SF8 SLP029

CYYG;2009-02-12 07:00;CYYG 120700Z 22005KT 6SM -DZ BR OVC003 00/00 A2960 RMK SF8 SLP027

CYYG;2009-02-12 08:00;CYYG 120800Z 18002KT 6SM -DZ BR OVC003 00/00 A2957 RMK SF8 SLP017

CYYG;2009-02-12 08:34;CYYG 120834Z 18004KT 3SM -FZDZ BR OVC002 M01/ RMK SF8

CYYG;2009-02-12 09:00;CYYG 120900Z 16002KT 3/4SM R03/5500FT/D -FZDZ BR VV001 M01/M01 A2955 RMK FG8 SLP010

CYYG;2009-02-12 09:13;CYYG 120913Z 00000KT 1/2SM R03/2000V3000FT/D FZFG VV001 M01/ RMK FG8 REFZDZ

CYYG;2009-02-12 10:00;CYYG 121000Z 09003KT 1/2SM R03/1200FT/N FZFG VV001 M01/M01 A2952 RMK FG8 REFZDZ SLP000

CYYG;2009-02-12 10:09;CYYG 121009Z 12002KT 1/4SM R03/1600FT/N FZFG VV001 M01/ RMK FG8

CYYG;2009-02-12 11:00;CYYG 121100Z 13003KT 1/4SM R03/1400FT/N FZFG VV001 M01/M01 A2950 RMK FG8 SLP991

CYYG;2009-02-12 12:00;CYYG 121200Z 13004KT 1/4SM R03/1000FT/N FZFG VV001 M00/M00 A2947 RMK FG8 SLP981

CYYG;2009-02-12 12:30;CYYG 121230Z 11005KT 1/2SM R03/1800V5000FT/U FZFG VV002 M00/ RMK FG8

CYYG;2009-02-12 13:00;CYYG 121300Z 10005KT 1/2SM R03/1800V3500FT/D FZFG VV002 M00/M00 A2943 RMK FG8 SLP969

CYYG;2009-02-12 13:07;CYYG 121307Z 09006KT 1/4SM R03/1100V1800FT/D FG VV002 00/ RMK FG8

CYYG;2009-02-12 13:35;CYYG 121335Z 11007KT 3/8SM R03/1200V1800FT/N FG VV002 00/ RMK FG8

CYYG;2009-02-12 13:53;CYYG 121353Z 10008KT 1/2SM R03/2400V4000FT/U FG VV002 00/ RMK FG8

CYYG;2009-02-12 14:00;CYYG 121400Z 10008KT 1/2SM R03/3500V5000FT/U FG VV002 00/00 A2937 RMK FG8 SLP947

CYYG;2009-02-12 14:23;CYYG 121423Z 09009KT 3/4SM R03/5500FT/D -RA BR OVC002 00/ RMK SF8

CYYG;2009-02-12 15:00;CYYG 121500Z 10010KT 2SM -RA BR OVC003 01/01 A2929 RMK SF8 PRESFR SLP921

CYYG;2009-02-12 15:31;CYYG 121531Z 11008KT 4SM -RA BR BKN004 OVC012 01/ RMK SF6SC2

CYYG;2009-02-12 16:00;CYYG 121600Z 12010KT 3SM -RA BR BKN004 OVC012 02/02 A2924 RMK SF7SC1 SLP904

CYYG;2009-02-12 17:00;CYYG 121700Z 10009KT 3SM -RA BR OVC004 01/01 A2917 RMK SF8 PRESFR SLP879

CYYG;2009-02-12 18:00;CYYG 121800Z 09014KT 3SM -RA BR OVC004 01/01 A2910 RMK SF8 PRESFR SLP856

CYYG;2009-02-12 19:00;CYYG 121900Z 08016G21KT 4SM -RA BR OVC004 01/01 A2903 RMK SF8 PRESFR SLP832

CYYG;2009-02-12 20:00;CYYG 122000Z 08011G19KT 4SM -RA BR BKN004 OVC010 01/01 A2899 RMK SF6SC2 SLP819

CYYG;2009-02-12 21:00;CYYG 122100Z 04009KT 5SM -RA BR BKN003 OVC010 01/01 A2894 RERA RMK SF7SC1 SLP803

CYYG;2009-02-12 22:00;CYYG 122200Z 05008KT 3SM -RA BR OVC003 01/01 A2891 RERA RMK SF8 SLP792

CYYG;2009-02-12 23:00;CYYG 122300Z 04008KT 2 1/2SM BR OVC003 01/01 A2888 RMK SF8 SLP780

CYYG;2009-02-13 00:00;CYYG 130000Z 04010KT 2SM BR OVC002 00/00 A2885 RMK SF8 SLP772

CYYG;2009-02-13 00:14;CYYG 130014Z 04010KT 2SM -DZ BR OVC002 00/ RMK SF8

CYYG;2009-02-13 01:00;CYYG 130100Z 04010KT 4SM -DZ BR OVC002 00/00 A2883 RMK SF8 SLP766

CYYG;2009-02-13 02:00;CYYG 130200Z 03011KT 3SM -DZ BR OVC003 00/00 A2883 RMK SF8 SLP764

CYYG;2009-02-13 03:00;CYYG 130300Z 04013KT 3SM -DZ BR OVC003 00/00 A2881 RMK SF8 SLP759

CYYG;2009-02-13 03:07;CYYG 130307Z 04014KT 5SM -RASN BR OVC003 00/ RMK SF8

CYYG;2009-02-13 03:45;CYYG 130345Z 36010KT 5SM -SN OVC003 00/ RMK SF8

CYYG;2009-02-13 04:00;CYYG 130400Z 01014KT 5SM -SN OVC003 00/M00 A2882 RMK SF8 SLP763

CYYG;2009-02-13 05:00;CYYG 130500Z 02018G29KT 5SM -SN OVC005 M00/M00 A2884 RMK SF8 SLP769

CYYG;2009-02-13 06:00;CYYG 130600Z CCA 36018G26KT 5SM -SN OVC004 M01/M01 A2887 RMK SF8 /S02/ SLP778

CYYG;2009-02-13 07:00;CYYG 130700Z 36022G30KT 5SM -SN OVC005 M02/M02 A2890 RMK SC8 SLP790

CYYG;2009-02-13 07:20;CYYG 130720Z 36019G29KT 6SM -SN DRSN OVC008 M02/ RMK SF8

CYYG;2009-02-13 08:00;CYYG 130800Z 35017G29KT 5SM -SN DRSN OVC007 M02/M03 A2893 RMK SF8 SLP800

CYYG;2009-02-13 08:19;CYYG 130819Z 35019G27KT 2 1/2SM -SN DRSN OVC009 M03/ RMK SF8

CYYG;2009-02-13 09:00;CYYG 130900Z 35017G26KT 1SM R03/1600V5500FT/D -SN DRSN OVC009 M03/M03 A2898 RMK SF8 SLP815

CYYG;2009-02-13 09:33;CYYG 130933Z 34018G31KT 6SM -SN DRSN OVC009 M03/ RMK SF8

CYYG;2009-02-13 10:00;CYYG 131000Z 34021G36KT 6SM R03/4000VP6000FT/U -SN DRSN OVC010 M03/M04 A2902 RMK SF8 SLP830

CYYG;2009-02-13 10:46;CYYG 131046Z 34021G35KT 1SM R03/1200V1800FT/N -SN DRSN OVC010 M04/ RMK SF8

CYYG;2009-02-13 11:00;CYYG 131100Z 34023G34KT 1SM R03/1200V4000FT/N -SN DRSN OVC011 M04/M05 A2907 RMK SF8 SLP846

CYYG;2009-02-13 11:32;CYYG 131132Z 34018G31KT 6SM -SN DRSN OVC014 M04/ RMK SC8

CYYG;2009-02-13 12:00;CYYG 131200Z 33018G25KT 8SM -SHSN DRSN BKN011 OVC030 M04/M05 A2912 RMK SC7SC1 SLP865

CYYG;2009-02-13 13:00;CYYG 131300Z 33020G30KT 15SM -SHSN DRSN OVC012 M06/M08 A2917 RMK SC8 SLP879

CYYG;2009-02-13 14:00;CYYG 131400Z 32024G33KT 15SM -SHSN DRSN BKN012 OVC030 M08/M11 A2920 RMK SC7SC1 SLP890

CYYG;2009-02-13 15:00;CYYG 131500Z 32020G38KT 10SM -SHSN DRSN BKN015 OVC031 M10/M13 A2923 RMK SC6SC2 SLP899

CYYG;2009-02-13 15:40;CYYG 131540Z 32025G32KT 15SM -SHSN DRSN FEW015 OVC036 M11/ RMK SC2SC6

CYYG;2009-02-13 16:00;CYYG 131600Z 32020G32KT 15SM -SHSN DRSN FEW015 BKN036 M11/M14 A2925 RMK SC2SC6 SLP909

CYYG;2009-02-13 16:13;CYYG 131613Z 32022G32KT 15SM DRSN FEW020 BKN040 M11/ RMK SC2SC6

CYYG;2009-02-13 17:00;CYYG 131700Z 32015G33KT 15SM DRSN FEW022 FEW040 BKN250 M11/M15 A2926 RMK SC1SC2CI1 SLP911

CYYG;2009-02-13 18:00;CYYG 131800Z 31021G30KT 15SM DRSN FEW025 BKN250 M12/M16 A2927 RMK SC1CI1 SLP914

CYYG;2009-02-13 19:00;CYYG 131900Z CCA 31020G30KT 15SM DRSN FEW025 BKN250 M11/M17 A2929 RMK SC1CI2 SLP922

CYYG;2009-02-13 20:00;CYYG 132000Z 30018G24KT 15SM DRSN FEW030 BKN250 M11/M17 A2931 RMK SC1CI2 SLP928

CYYG;2009-02-13 21:00;CYYG 132100Z 30011G19KT 15SM FEW030 BKN250 M12/M16 A2933 RMK SC1CI3 SLP936

CYYG;2009-02-13 22:00;CYYG 132200Z 30012KT 15SM FEW030 SCT210 BKN280 M12/M17 A2935 RMK SC1CI2CI2 SLP941

CYYG;2009-02-13 23:00;CYYG 132300Z 30011G18KT 15SM BKN040 BKN210 M12/M16 A2936 RMK SC5CI0 SLP945

CYYG;2009-02-14 00:00;CYYG 140000Z 30018KT 15SM OVC035 M11/M16 A2936 RMK SC8 SLP946

CYYG;2009-02-14 01:00;CYYG 140100Z 29016G25KT 15SM BKN035 M12/M17 A2937 RMK SC6 SLP949

CYYG;2009-02-14 02:00;CYYG 140200Z 29011G16KT 15SM BKN036 M12/M17 A2937 RMK SC6 SLP949

CYYG;2009-02-14 03:00;CYYG 140300Z 28010G15KT 15SM BKN035 M12/M17 A2935 RMK SC5 SLP942

CYYG;2009-02-14 04:00;CYYG 140400Z 25009KT 15SM SCT035 M13/M16 A2935 RMK SC3 SLP942

CYYG;2009-02-14 05:00;CYYG 140500Z 26010KT 15SM FEW035 M13/M15 A2934 RMK SC2 SLP938

CYYG;2009-02-14 06:00;CYYG 140600Z 25010KT 15SM FEW035 M13/M15 A2932 RMK SC2 SLP932

CYYG;2009-02-14 07:00;CYYG 140700Z 25009KT 15SM FEW035 M12/M15 A2931 RMK SC2 SLP927

CYYG;2009-02-14 08:00;CYYG 140800Z 25010KT 15SM FEW035 M12/M15 A2929 RMK SC2 SLP921

CYYG;2009-02-14 09:00;CYYG 140900Z 25010KT 15SM FEW030 M11/M14 A2928 RMK SC1 SLP919

CYYG;2009-02-14 09:32;CYYG 140932Z 24008KT 15SM -SHSN FEW030 BKN064 M11/ RMK SC2SC3

CYYG;2009-02-14 10:00;CYYG 141000Z 25010KT 15SM FEW030 BKN070 M11/M14 A2928 RMK SC2AC3 SLP917

CYYG;2009-02-14 10:13;CYYG 141013Z 24008KT 15SM -SHSN FEW030 BKN060 M11/ RMK SC2SC4

CYYG;2009-02-14 11:00;CYYG 141100Z 25010G16KT 8SM -SHSN FEW030 BKN050 M10/M13 A2925 RMK SC2SC5 SLP910

CYYG;2009-02-14 11:27;CYYG 141127Z 25010G16KT 2 1/2SM -SHSN DRSN BKN010 OVC025 M10/ RMK SF6SC2

CYYG;2009-02-14 12:00;CYYG 141200Z 23010KT 2 1/2SM -SHSN DRSN OVC014 M10/M11 A2925 RMK SC8 SLP909

CYYG;2009-02-14 12:52;CYYG 141252Z 23008KT 1SM R03/2600V4000FT/U -SHSN DRSN OVC014 M09/ RMK SN2SC6

CYYG;2009-02-14 13:00;CYYG 141300Z 23008KT 1SM R03/3000V4500FT/U -SHSN DRSN OVC014 M09/M10 A2924 RMK SN2SC6 SLP906

CYYG;2009-02-14 14:00;CYYG 141400Z 23010G15KT 1SM R03/6000FT/N -SHSN DRSN OVC014 M09/M10 A2924 RMK SN2SC6 SLP904

CYYG;2009-02-14 15:00;CYYG 141500Z 22010KT 1SM R03/P6000FT/U -SN DRSN OVC014 M08/M09 A2923 RMK SN2SC6 SLP901

CYYG;2009-02-14 15:56;CYYG 141556Z 20010KT 1/2SM R03/3000VP6000FT/D SN DRSN VV005 M08/ RMK SN8

CYYG;2009-02-14 16:00;CYYG 141600Z 20010KT 1/2SM R03/3000V5000FT/D SN DRSN VV005 M08/M09 A2922 RMK SN8 SLP899

CYYG;2009-02-14 16:14;CYYG 141614Z 22010KT 3/4SM R03/3000VP6000FT/D -SN DRSN VV005 M08/ RMK SN8 RESN

CYYG;2009-02-14 16:22;CYYG 141622Z 22012KT 1SM R03/4000VP6000FT/U -SN DRSN BKN015 M08/ RMK SN3SC3 RESN

CYYG;2009-02-14 17:00;CYYG 141700Z CCA 27008KT 1 1/2SM -SN OVC015 M08/M08 A2922 RMK SN3SC5 /S02/ SLP898

CYYG;2009-02-14 17:15;CYYG 141715Z 24006KT 8SM -SN BKN014 BKN030 BKN098 M08/ RMK SC5SC2AC1

CYYG;2009-02-14 18:00;CYYG 141800Z 25005KT 3SM -SN OVC017 M08/M11 A2923 RMK SN2SC6 SLP902

CYYG;2009-02-14 19:00;CYYG 141900Z 28003KT 3SM -SN OVC020 M08/M11 A2925 RMK SN3SC5 SLP908

CYYG;2009-02-14 19:14;CYYG 141914Z 27002KT 2SM -SN OVC010 M08/ RMK SF8

CYYG;2009-02-14 20:00;CYYG 142000Z 03006KT 3SM -SN BKN020 M09/M11 A2928 RMK SN2SC6 SLP917

CYYG;2009-02-14 21:00;CYYG 142100Z 03007KT 12SM VCSH SCT020 M09/M12 A2931 RMK SC3 SLP927

CYYG;2009-02-14 22:00;CYYG 142200Z 02005KT 15SM FEW020 M11/M12 A2933 RMK SC2 SLP936

CYYG;2009-02-14 23:00;CYYG 142300Z 35004KT 15SM FEW020 M13/M13 A2936 RMK SC2 SLP946

CYYG;2009-02-15 00:00;CYYG 150000Z 33004KT 15SM SKC M13/M14 A2938 RMK FROIN SLP953

CYYG;2009-02-15 01:00;CYYG 150100Z 33004KT 15SM SKC M13/M14 A2940 RMK FROIN SLP959

CYYG;2009-02-15 02:00;CYYG 150200Z 32004KT 15SM SKC M13/M13 A2942 RMK FROIN SLP966

CYYG;2009-02-15 02:05;CYYG 150205Z 31004KT 15SM -SHSN FEW015 M13/ RMK SC2 FROIN

CYYG;2009-02-15 02:35;CYYG 150235Z 32004KT 15SM FEW015 M13/ RMK SC2 FROIN

CYYG;2009-02-15 03:00;CYYG 150300Z 31005KT 15SM FEW015 M13/M13 A2944 RMK SC2 FROIN SLP971

CYYG;2009-02-15 03:23;CYYG 150323Z 32003KT 10SM -SHSN SCT011 M12/ RMK SC4 FROIN

CYYG;2009-02-15 04:00;CYYG 150400Z 29006KT 15SM FEW012 M12/M12 A2945 RMK SC2 FROIN SLP977

CYYG;2009-02-15 05:00;CYYG 150500Z 28005KT 15SM FEW005 FEW012 M13/M13 A2946 RMK SF1SC1 FROIN SLP980

CYYG;2009-02-15 06:00;CYYG 150600Z 28006KT 15SM SKC M13/M13 A2947 RMK FROIN SLP981

CYYG;2009-02-15 07:00;CYYG 150700Z 27004KT 15SM -SHSN BKN024 M12/M13 A2947 RMK SC7 SLP982

CYYG;2009-02-15 08:00;CYYG 150800Z 27007KT 15SM -SHSN OVC015 M09/M10 A2947 RMK SC8 SLP981

CYYG;2009-02-15 09:00;CYYG 150900Z 30008KT 10SM -FZDZ FEW008 OVC016 M07/M08 A2947 RMK SF2SC6 SLP981

CYYG;2009-02-15 09:19;CYYG 150919Z 30009KT 15SM -FZDZ BKN007 OVC016 M07/ RMK ST6SC2

CYYG;2009-02-15 09:25;CYYG 150925Z 31010KT 15SM OVC006 M06/ REFZDZ RMK ST8

CYYG;2009-02-15 09:40;CYYG 150940Z 33010KT 10SM -SN OVC005 M05/ REFZDZ RMK ST8

CYYG;2009-02-15 09:48;CYYG 150948Z 34009KT 10SM -SN -FZDZ OVC005 M04/ RMK ST8

CYYG;2009-02-15 10:00;CYYG 151000Z 34009G15KT 10SM -SN -FZDZ OVC004 M04/M04 A2947 RMK ST8 SLP981

CYYG;2009-02-15 10:24;CYYG 151024Z 36014G19KT 10SM -FZDZ OVC004 M02/ RMK ST8

CYYG;2009-02-15 11:00;CYYG 151100Z 36014G22KT 5SM -FZDZ BR OVC005 M01/M01 A2949 RMK ST8 SLP989

CYYG;2009-02-15 11:16;CYYG 151116Z 36013G20KT 2SM -SN DRSN -FZDZ OVC004 M01/ RMK ST8

CYYG;2009-02-15 12:00;CYYG 151200Z CCA 36015G20KT 2SM -SN DRSN -FZDZ OVC006 M01/M02 A2953 RMK SF8 CIG RAG SLP003

CYYG;2009-02-15 12:27;CYYG 151227Z 36013G21KT 1 1/2SM -SN DRSN OVC005 M01/ RMK SF8

CYYG;2009-02-15 13:00;CYYG 151300Z 01013G18KT 1 1/2SM -SN DRSN OVC006 M01/M01 A2957 RMK SF8 SLP015

CYYG;2009-02-15 13:46;CYYG 151346Z 36012G18KT 3SM -SN DRSN OVC008 M01/ RMK SF8

CYYG;2009-02-15 14:00;CYYG 151400Z 36011G20KT 3SM -SN DRSN OVC007 M01/M01 A2959 RMK SF8 SLP023

CYYG;2009-02-15 15:00;CYYG 151500Z 36013G19KT 2 1/2SM -SN DRSN OVC009 M01/M01 A2962 RMK SF8 SLP032

CYYG;2009-02-15 15:35;CYYG 151535Z 36013G18KT 3SM -SN DRSN FEW009 OVC014 M01/ RMK SF2SC6

CYYG;2009-02-15 16:00;CYYG 151600Z 01012G19KT 3SM -SN DRSN FEW009 OVC012 M00/M01 A2963 RMK SF2SC6 SLP037

CYYG;2009-02-15 17:00;CYYG 151700Z 36011G16KT 12SM -SN DRSN OVC013 M00/M02 A2965 RMK SC8 SLP042

CYYG;2009-02-15 18:00;CYYG 151800Z 36013G24KT 2SM -SN DRSN OVC008 M00/M01 A2966 RMK SF8 SLP048

CYYG;2009-02-15 19:00;CYYG 151900Z 36013G18KT 2 1/2SM -SN DRSN OVC008 M01/M02 A2970 RMK SF8 SLP060

CYYG;2009-02-15 20:00;CYYG 152000Z 36011G19KT 6SM -SN DRSN OVC008 M01/M01 A2973 RMK SF8 SLP070

CYYG;2009-02-15 21:00;CYYG 152100Z 36012G17KT 4SM -SHSN DRSN OVC006 M01/M01 A2977 RMK SF8 SLP082

CYYG;2009-02-15 21:49;CYYG 152149Z 36011G16KT 6SM DRSN BR OVC010 M01/ RMK SF8

CYYG;2009-02-15 22:00;CYYG 152200Z 36011G16KT 6SM DRSN BR OVC015 M01/M02 A2979 RMK SF8 SLP091

CYYG;2009-02-15 23:00;CYYG 152300Z 01012G18KT 12SM -SHSN OVC015 M01/M03 A2982 RMK SF8 SLP099

CYYG;2009-02-15 23:29;CYYG 152329Z 01011G16KT 6SM -SHSN -FZDZ OVC018 M01/ RMK SF8

CYYG;2009-02-16 00:00;CYYG 160000Z 01013KT 5SM -SN DRSN -FZDZ FEW013 BKN018 OVC026 M01/M02 A2984 RMK SC2SC4SC2 SLP108

CYYG;2009-02-16 00:31;CYYG 160031Z 01012KT 3SM -SN DRSN OVC011 M01/ REFZDZ RMK SC8

CYYG;2009-02-16 01:00;CYYG 160100Z 01013G18KT 5SM -SN DRSN FEW009 OVC017 M01/M02 A2985 REFZDZ RMK SF2SC6 SLP112

CYYG;2009-02-16 01:21;CYYG 160121Z 01010G15KT 5SM -SN DRSN -FZDZ BKN013 OVC020 M01/ RMK SC6SC2

CYYG;2009-02-16 01:42;CYYG 160142Z 01009G15KT 10SM -SN DRSN OVC018 M01/ RMK SC8 REFZDZ

CYYG;2009-02-16 02:00;CYYG 160200Z 01011KT 15SM -SN DRSN OVC018 M01/M03 A2987 REFZDZ RMK SC8 SLP118

CYYG;2009-02-16 02:26;CYYG 160226Z 02013KT 15SM DRSN OVC019 M01/ RMK SC8

CYYG;2009-02-16 03:00;CYYG 160300Z 02017KT 15SM DRSN BKN022 OVC039 M01/M04 A2989 RMK SC6SC2 SLP123

CYYG;2009-02-16 03:52;CYYG 160352Z 02014G19KT 15SM -SN DRSN FEW022 BKN045 OVC056 M01/ RMK SC2SC4SC2

CYYG;2009-02-16 04:00;CYYG 160400Z 03013G18KT 15SM -SN DRSN FEW035 BKN045 OVC056 M01/M03 A2991 RMK SC2SC4SC2 SLP130

CYYG;2009-02-16 05:00;CYYG 160500Z 02009KT 15SM BKN049 OVC057 M02/M03 A2993 RMK SC6SC2 SLP136

CYYG;2009-02-16 06:00;CYYG 160600Z 03008KT 15SM -SN OVC058 M02/M03 A2994 RMK SC8 /S01/ SLP142

CYYG;2009-02-16 06:39;CYYG 160639Z 03006KT 15SM OVC062 M03/ RMK SC8

CYYG;2009-02-16 07:00;CYYG 160700Z 02006KT 15SM BKN064 M02/M04 A2996 RMK SC7 SLP147

CYYG;2009-02-16 08:00;CYYG 160800Z 36004KT 15SM FEW064 BKN250 M04/M04 A2997 RMK SC2CI1 SLP152

CYYG;2009-02-16 09:00;CYYG 160900Z 36004KT 15SM BKN055 M04/M04 A2999 RMK SC6 SLP158

CYYG;2009-02-16 09:48;CYYG 160948Z 36006KT 15SM -SN BKN056 M04/ RMK SC7

CYYG;2009-02-16 10:00;CYYG 161000Z 36005KT 15SM -SN BKN053 M04/M04 A3001 RMK SC7 SLP164

CYYG;2009-02-16 11:00;CYYG 161100Z 34004KT 15SM -SN BKN053 M04/M04 A3003 RMK SC7 SLP171

CYYG;2009-02-16 12:00;CYYG 161200Z 36004KT 15SM -SHSN FEW030 BKN051 M03/M04 A3006 RMK SC1SC7 SLP181

CYYG;2009-02-16 13:00;CYYG 161300Z 03007KT 15SM -SHSN FEW030 BKN051 M03/M05 A3007 RMK SC1SC6 SLP185

CYYG;2009-02-16 14:00;CYYG 161400Z 04005KT 15SM -SHSN FEW030 BKN051 M02/M05 A3008 RMK SC1SC6 SLP190

CYYG;2009-02-16 15:00;CYYG 161500Z 04002KT 15SM -SHSN FEW030 BKN051 M01/M04 A3009 RMK SC1SC6 SLP190

CYYG;2009-02-16 15:41;CYYG 161541Z 04007KT 15SM FEW022 BKN055 M01/ RMK SC1SC7

CYYG;2009-02-16 16:00;CYYG 161600Z 03004KT 15SM FEW022 BKN055 M01/M06 A3008 RMK SC1SC7 SLP189

CYYG;2009-02-16 17:00;CYYG 161700Z 07004KT 15SM FEW022 BKN058 BKN150 M01/M07 A3007 RMK SC2SC5AC1 SLP185

CYYG;2009-02-16 18:00;CYYG 161800Z 00000KT 15SM FEW022 BKN057 01/M06 A3006 RMK SC1SC7 SLP182

CYYG;2009-02-16 19:00;CYYG 161900Z 27002KT 15SM FEW025 BKN060 BKN270 01/M08 A3007 RMK SC1SC6CI1 SLP186

CYYG;2009-02-16 20:00;CYYG 162000Z 32003KT 15SM FEW025 BKN060 BKN270 M00/M08 A3009 RMK SC1SC6CI1 SLP190

CYYG;2009-02-16 21:00;CYYG 162100Z 04007KT 15SM FEW020 BKN060 BKN270 M02/M06 A3011 RMK SC1SC6CI0 SLP198

CYYG;2009-02-16 22:00;CYYG 162200Z 02004KT 15SM OVC060 M03/M06 A3012 RMK SC8 SLP203

CYYG;2009-02-16 23:00;CYYG 162300Z 32004KT 15SM FEW060 BKN200 M04/M07 A3012 RMK SC2CI2 SLP203

CYYG;2009-02-17 00:00;CYYG 170000Z 29002KT 15SM FEW060 SCT200 M05/M07 A3012 RMK SC2CI0 SLP204

CYYG;2009-02-17 01:00;CYYG 170100Z 07002KT 15SM FEW060 BKN200 M06/M08 A3014 RMK SC1CI1 SLP209

CYYG;2009-02-17 02:00;CYYG 170200Z 03002KT 15SM BKN067 M08/M09 A3014 RMK AC7 SLP209

CYYG;2009-02-17 03:00;CYYG 170300Z 33003KT 15SM BKN066 M07/M08 A3013 RMK AC7 SLP205

CYYG;2009-02-17 04:00;CYYG 170400Z 34003KT 15SM BKN070 M06/M07 A3013 RMK AC7 SLP205

CYYG;2009-02-17 05:00;CYYG 170500Z 03003KT 15SM BKN070 M06/M06 A3012 RMK AC7 SLP204

CYYG;2009-02-17 06:00;CYYG 170600Z 02003KT 15SM OVC070 M06/M06 A3012 RMK AC8 SLP201

CYYG;2009-02-17 07:00;CYYG 170700Z 36002KT 15SM FEW044 OVC069 M06/M06 A3013 RMK SC2AC6 SLP206

CYYG;2009-02-17 08:00;CYYG 170800Z 00000KT 15SM OVC063 M06/M06 A3014 RMK SC8 SLP209

CYYG;2009-02-17 09:00;CYYG 170900Z 02002KT 15SM OVC066 M06/M07 A3015 RMK AC8 FROIN SLP212

CYYG;2009-02-17 10:00;CYYG 171000Z 08002KT 15SM OVC066 M06/M06 A3015 RMK AC8 FROIN SLP213

CYYG;2009-02-17 11:00;CYYG 171100Z 00000KT 15SM BKN067 M06/M06 A3015 RMK AC7 SLP213

CYYG;2009-02-17 12:00;CYYG 171200Z 00000KT 15SM FEW030 BKN067 M07/M07 A3016 RMK SC1AC7 SLP217

CYYG;2009-02-17 13:00;CYYG 171300Z 07004KT 15SM BKN068 M05/M11 A3016 RMK AC7 SLP215

CYYG;2009-02-17 14:00;CYYG 171400Z 03006KT 15SM FEW020 BKN068 M05/M11 A3014 RMK SC1AC7 VIRGA SLP211

CYYG;2009-02-17 15:00;CYYG 171500Z 05007KT 15SM FEW050 BKN068 M04/M12 A3015 RMK SC1AC7 VIRGA SLP212

CYYG;2009-02-17 16:00;CYYG 171600Z 06007KT 15SM FEW050 BKN068 M03/M13 A3014 RMK SC1AC7 SLP209

CYYG;2009-02-17 17:00;CYYG 171700Z 09007KT 15SM FEW050 BKN069 M03/M10 A3014 RMK SC1AC7 VIRGA SLP208

CYYG;2009-02-17 18:00;CYYG 171800Z 03007KT 15SM BKN045 BKN070 BKN280 M03/M11 A3013 RMK SC5AC2CI1 SLP206

CYYG;2009-02-17 19:00;CYYG 171900Z 04007KT 15SM FEW045 BKN071 BKN280 M03/M11 A3012 RMK SC1AC5CI0 SLP201

CYYG;2009-02-17 20:00;CYYG 172000Z 05010KT 15SM FEW045 BKN072 BKN280 M04/M09 A3011 RMK SC1AC4CI1 SLP198

CYYG;2009-02-17 21:00;CYYG 172100Z 04009KT 15SM FEW045 SCT071 BKN280 M06/M09 A3011 RMK SC1AC2CI1 SLP198

CYYG;2009-02-17 22:00;CYYG 172200Z 04007KT 15SM FEW045 SCT070 M06/M09 A3009 RMK SC2AC2 SLP194

CYYG;2009-02-17 23:00;CYYG 172300Z 01005KT 15SM FEW045 FEW070 SCT280 M07/M09 A3009 RMK SC1AC2CI2 SLP194

CYYG;2009-02-18 00:00;CYYG 180000Z 01005KT 15SM FEW045 FEW070 SCT250 M08/M09 A3010 RMK SC1AC2CI2 SLP195

CYYG;2009-02-18 01:00;CYYG 180100Z 36006KT 15SM FEW070 SCT250 M09/M10 A3008 RMK AC2CI2 SLP190

CYYG;2009-02-18 02:00;CYYG 180200Z 01005KT 15SM FEW250 M10/M10 A3009 RMK CI2 SLP193

CYYG;2009-02-18 03:00;CYYG 180300Z 01006KT 15SM FEW250 M10/M11 A3008 RMK CI2 SLP190

CYYG;2009-02-18 04:00;CYYG 180400Z 01006KT 15SM SKC M10/M11 A3006 RMK SLP184

CYYG;2009-02-18 05:00;CYYG 180500Z 36006KT 15SM SKC M11/M19 A3005 RMK SLP180

CYYG;2009-02-18 06:00;CYYG 180600Z 36007KT 15SM SKC M10/M11 A3006 RMK SLP181

CYYG;2009-02-18 08:00;CYYG 180800Z 36006KT 15SM FEW012 M10/M10 A3003 RMK SC2 SLP173

CYYG;2009-02-18 09:00;CYYG 180900Z 35006KT 15SM FEW012 M10/M10 A3003 RMK SC2 SLP172

CYYG;2009-02-18 10:00;CYYG 181000Z 34007KT 15SM FEW012 M10/M11 A3003 RMK SC2 SLP171

CYYG;2009-02-18 11:00;CYYG 181100Z 34007KT 15SM FEW010 SCT250 M09/M10 A3004 RMK SC2CI2 SLP174

CYYG;2009-02-18 12:00;CYYG 181200Z 36009KT 15SM FEW050 BKN280 M08/M10 A3004 RMK SC2CI0 FROIN SLP176

CYYG;2009-02-18 13:00;CYYG 181300Z 36010G15KT 15SM FEW055 BKN250 M07/M11 A3004 RMK SC2CI2 SLP175

CYYG;2009-02-18 14:00;CYYG 181400Z 36015G20KT 15SM FEW055 BKN250 M06/M12 A3004 RMK SC2CI2 SLP174

CYYG;2009-02-18 15:00;CYYG 181500Z 36013G19KT 15SM FEW055 BKN250 M06/M11 A3003 RMK SC2CI2 SLP172

CYYG;2009-02-18 16:00;CYYG 181600Z CCA 01013G19KT 15SM DRSN FEW055 SCT250 M05/M11 A3002 RMK SC1CI2 SLP168

CYYG;2009-02-18 17:00;CYYG 181700Z 36015KT 15SM DRSN FEW055 SCT250 M05/M11 A2999 RMK SC1CI2 SLP160

CYYG;2009-02-18 18:00;CYYG 181800Z 36011G19KT 15SM DRSN FEW055 SCT250 M05/M11 A2998 RMK SC1CI2 SLP156

CYYG;2009-02-18 19:00;CYYG 181900Z 35012KT 15SM FEW030 SCT250 M05/M10 A2999 RMK SC1CI2 SLP160

CYYG;2009-02-18 20:00;CYYG 182000Z 34010KT 15SM FEW030 FEW250 M05/M10 A3002 RMK SC1CI1 SLP169

CYYG;2009-02-18 21:00;CYYG 182100Z 34008KT 15SM FEW010 FEW250 M05/M10 A3004 RMK SC1CI0 SLP175

CYYG;2009-02-18 22:00;CYYG 182200Z 34004KT 15SM FEW250 M06/M10 A3004 RMK CI0 SLP174

CYYG;2009-02-18 23:00;CYYG 182300Z 34003KT 15SM FEW250 M08/M10 A3003 RMK CI0 SLP171

CYYG;2009-02-19 00:00;CYYG 190000Z 36003KT 15SM FEW250 M10/M11 A3001 RMK CI0 SLP166

CYYG;2009-02-19 01:00;CYYG 190100Z 30004KT 15SM SKC M09/M10 A3001 RMK SLP166

CYYG;2009-02-19 02:00;CYYG 190200Z 29003KT 15SM SKC M10/M11 A3001 RMK SLP167

CYYG;2009-02-19 03:00;CYYG 190300Z 31004KT 15SM SKC M11/M12 A3001 RMK SLP167

CYYG;2009-02-19 04:00;CYYG 190400Z 28004KT 15SM SKC M12/M13 A3003 RMK SLP171

CYYG;2009-02-19 05:00;CYYG 190500Z 31002KT 15SM SKC M13/M14 A3002 RMK SLP170

CYYG;2009-02-19 06:00;CYYG 190600Z 34002KT 15SM SKC M15/M16 A3002 RMK SLP169

CYYG;2009-02-19 07:00;CYYG 190700Z 04003KT 15SM SKC M13/M14 A3001 RMK SLP166

CYYG;2009-02-19 08:00;CYYG 190800Z 02002KT 15SM SKC M14/M15 A2999 RMK SLP159

CYYG;2009-02-19 09:00;CYYG 190900Z 12002KT 15SM SKC M14/M15 A2998 RMK SLP155

CYYG;2009-02-19 10:00;CYYG 191000Z 08002KT 15SM BCFG SKC M14/M14 A2996 RMK SLP148

CYYG;2009-02-19 10:40;CYYG 191040Z 18002KT 3/4SM R03/2200V3000FT/D BR SCT160 BKN240 M13/ RMK FG2AC2CI2

CYYG;2009-02-19 11:00;CYYG 191100Z 14002KT 1/2SM R03/1600V3000FT/D FZFG BKN240 M13/M14 A2996 RMK FG6CI1 SLP148

CYYG;2009-02-19 11:23;CYYG 191123Z 18002KT 1/4SM R03/0800V1400FT/D FZFG BKN220 M13/ RMK FG6CI1

CYYG;2009-02-19 12:00;CYYG 191200Z 15002KT 3/8SM R03/1100V2400FT/N FZFG OVC220 M13/M13 A2996 RMK FG7CI1 SLP151

CYYG;2009-02-19 12:23;CYYG 191223Z 14003KT 1/4SM R03/1400FT/N FZFG VV002 M11/ RMK FG8

CYYG;2009-02-19 12:37;CYYG 191237Z 10004KT 1/2SM R03/1800V4500FT/U FZFG VV002 M11/ RMK FG8

CYYG;2009-02-19 13:00;CYYG 191300Z 10005KT 1 1/2SM R03/4500VP6000FT/U BR OVC200 M10/M10 A2994 RMK FG2CI5 SLP144

CYYG;2009-02-19 13:16;CYYG 191316Z 09004KT 3SM BR OVC200 M10/ RMK FG1CI4

CYYG;2009-02-19 13:40;CYYG 191340Z 11004KT 12SM FEW140 BKN200 M10/ RMK AC1CI4

CYYG;2009-02-19 14:00;CYYG 191400Z 15003KT 15SM SCT090 BKN200 M09/M09 A2994 RMK AC4CI2 SLP143

CYYG;2009-02-19 15:00;CYYG 191500Z 09003KT 15SM SCT090 OVC200 M07/M08 A2990 RMK AC3CI2 SLP128

CYYG;2009-02-19 16:00;CYYG 191600Z 11008KT 15SM SCT080 BKN200 M06/M08 A2986 RMK AC4CI3 SLP114

CYYG;2009-02-19 17:00;CYYG 191700Z 11014G19KT 15SM BKN080 OVC200 M04/M10 A2978 RMK AS6CI2 SLP088

CYYG;2009-02-19 18:00;CYYG 191800Z 11013KT 15SM OVC070 M04/M10 A2974 RMK AS8 SLP075

CYYG;2009-02-19 19:00;CYYG 191900Z CCA 11015KT 12SM -SN OVC030 M04/M10 A2969 RMK SC8 SLP058

CYYG;2009-02-19 19:55;CYYG 191955Z 10016G22KT 2 1/2SM -SN DRSN OVC011 M04/ RMK SC8

CYYG;2009-02-19 20:00;CYYG 192000Z 11017G22KT 1 1/2SM -SN DRSN OVC008 M05/M09 A2964 RMK SC8 SLP042

CYYG;2009-02-19 20:07;CYYG 192007Z 11018G24KT 3/8SM R03/2000VP6000FT/D SN DRSN VV005 M05/ RMK SN8

CYYG;2009-02-19 20:10;CYYG 192010Z 11018G24KT 1/2SM R03/2000V5000FT/N SN DRSN VV007 M05/ RMK SN8

CYYG;2009-02-19 20:31;CYYG 192031Z 12018G25KT 1/4SM R03/1400V2000FT/D SN +BLSN VV002 M06/ RMK SN8

CYYG;2009-02-19 21:00;CYYG 192100Z 11017G25KT 1/2SM R03/2600FT/U -SN BLSN VV005 M06/M06 A2963 RMK SN8 RESN SLP036

CYYG;2009-02-19 22:00;CYYG 192200Z 10018G25KT 1/2SM R03/3000V5000FT/D SN BLSN VV003 M05/M06 A2956 RMK SN8 PRESFR /S04/ SLP014

CYYG;2009-02-19 22:30;CYYG 192230Z 10018G24KT 2SM -SN DRSN BKN009 OVC017 M05/ RMK SC5SC3

CYYG;2009-02-19 23:00;CYYG 192300Z 10018G26KT 3SM -SN DRSN BKN009 OVC014 M05/M06 A2950 RMK SC6SC2 PRESFR RESN SLP993

CYYG;2009-02-20 00:00;CYYG 200000Z 11018KT 2 1/2SM -SN DRSN OVC012 M04/M05 A2945 RMK SN3SC5 SLP976

CYYG;2009-02-20 01:00;CYYG 200100Z 11018G25KT 2 1/2SM -SN DRSN OVC013 M03/M04 A2940 RMK SC8 SLP959

CYYG;2009-02-20 02:00;CYYG 200200Z 11014G19KT 3SM -SN DRSN OVC009 M02/M03 A2936 RMK SF8 SLP947

CYYG;2009-02-20 02:51;CYYG 200251Z 13013G18KT 4SM BR OVC009 M01/ RMK SF8

CYYG;2009-02-20 03:00;CYYG 200300Z 12014KT 4SM BR OVC008 M01/M02 A2931 RMK SF8 SLP928

CYYG;2009-02-20 04:00;CYYG 200400Z 14015G21KT 6SM BR OVC008 M00/M01 A2928 RMK SF8 SLP917

CYYG;2009-02-20 04:42;CYYG 200442Z 13015G20KT 2 1/2SM BR OVC004 00/ RMK SF8

CYYG;2009-02-20 04:47;CYYG 200447Z 13015G20KT 2 1/2SM -DZ BR OVC004 00/ RMK SF8

CYYG;2009-02-20 05:00;CYYG 200500Z 13013G19KT 2 1/2SM -DZ BR OVC004 00/00 A2925 RMK SF8 SLP909

CYYG;2009-02-20 06:00;CYYG 200600Z 14011KT 4SM BR OVC004 01/01 A2923 RMK SF8 SLP900

CYYG;2009-02-20 07:00;CYYG 200700Z 14005KT 6SM BR OVC006 01/00 A2922 RMK SF8 SLP897

CYYG;2009-02-20 08:00;CYYG 200800Z 13004KT 5SM BR OVC005 01/01 A2920 RMK SF8 SLP890

CYYG;2009-02-20 09:00;CYYG 200900Z 15006KT 4SM BR OVC003 01/01 A2919 RMK SF8 SLP888

CYYG;2009-02-20 10:00;CYYG 201000Z 16008KT 6SM BR BKN003 OVC013 01/01 A2919 RMK SF6SC2 SLP887

CYYG;2009-02-20 10:49;CYYG 201049Z 17008KT 3SM -DZ BR BKN004 OVC017 01/ RMK SF5SC3

CYYG;2009-02-20 11:00;CYYG 201100Z 18008KT 3SM -DZ BR BKN004 OVC007 01/01 A2920 RMK SF6SF2 SLP891

CYYG;2009-02-20 12:00;CYYG 201200Z 21009KT 15SM -DZ FEW004 OVC016 01/01 A2921 RMK SF2SC6 SLP893

CYYG;2009-02-20 12:09;CYYG 201209Z 21006KT 15SM BKN018 01/ RMK SC7

CYYG;2009-02-20 13:00;CYYG 201300Z 19010KT 15SM OVC015 01/01 A2922 RMK SC8 SLP896

CYYG;2009-02-20 14:00;CYYG 201400Z 16009KT 15SM -SHSN BKN008 OVC013 01/01 A2922 RMK SC6SC2 SLP897

CYYG;2009-02-20 14:07;CYYG 201407Z 18014KT 15SM -SHSN SCT008 BKN068 01/ RMK SF3AC4

CYYG;2009-02-20 15:00;CYYG 201500Z 18011G18KT 15SM FEW008 FEW015 SCT075 02/00 A2919 RMK SF1SC1AC2 SLP887

CYYG;2009-02-20 16:00;CYYG 201600Z 18016G25KT 15SM -SHSN BKN024 02/M00 A2918 RMK SC5 SLP884

CYYG;2009-02-20 17:00;CYYG 201700Z 20016G29KT 15SM -SHSN SCT017 BKN042 02/M02 A2918 RMK SC3SC4 SLP883

CYYG;2009-02-20 18:00;CYYG 201800Z 20017G24KT 15SM -SHSN FEW017 BKN042 02/M02 A2918 RMK SC1SC4 SLP883

CYYG;2009-02-20 19:00;CYYG 201900Z 24019G25KT 15SM -SHSN FEW019 BKN035 00/M03 A2922 RMK SC2SC4 SLP896

CYYG;2009-02-20 19:51;CYYG 201951Z 23023KT 15SM SCT027 OVC034 M01/ RMK SC3SC5

CYYG;2009-02-20 20:00;CYYG 202000Z 23018G27KT 15SM FEW019 OVC033 M01/M05 A2925 RMK SC2SC6 SLP907

CYYG;2009-02-20 20:23;CYYG 202023Z 25020G27KT 15SM FEW020 OVC030 M01/ WS RWY21 RMK SC2SC6

CYYG;2009-02-20 21:00;CYYG 202100Z 23016G26KT 15SM DRSN BKN024 M02/M05 A2928 RMK SC7 SLP919

CYYG;2009-02-20 22:00;CYYG 202200Z 23019G28KT 15SM FEW021 BKN034 M02/M07 A2930 RMK SC2SC4 SLP925

CYYG;2009-02-20 23:00;CYYG 202300Z 25012G19KT 15SM BKN029 M02/M06 A2933 RMK SC7 SLP936

CYYG;2009-02-21 00:00;CYYG 210000Z 23013KT 15SM FEW020 BKN092 M03/M06 A2935 RMK SC2AC5 SLP941

CYYG;2009-02-21 01:00;CYYG 210100Z 23013G21KT 15SM FEW020 BKN081 M03/M06 A2937 RMK SC2AC4 SLP948

CYYG;2009-02-21 02:00;CYYG 210200Z 23013KT 15SM FEW027 SCT074 M03/M06 A2939 RMK SC1AC2 SLP953

CYYG;2009-02-21 03:00;CYYG 210300Z 22009G15KT 15SM FEW022 BKN052 M03/M06 A2939 RMK SC1SC3 SLP955

CYYG;2009-02-21 04:00;CYYG 210400Z 23011KT 15SM BKN042 M04/M07 A2939 RMK SC5 SLP954

CYYG;2009-02-21 04:21;CYYG 210421Z 23011G17KT 15SM -SHSN BKN034 M04/ RMK SC5

CYYG;2009-02-21 05:00;CYYG 210500Z 22013G18KT 15SM -SHSN SCT036 BKN071 BKN130 M04/M07 A2940 RMK SC2AC2AC1 PCPN VRY LGT SLP959

CYYG;2009-02-21 06:00;CYYG 210600Z 23015KT 15SM -SHSN BKN021 BKN044 M05/M08 A2942 RMK SC5SC2 PCPN VRY LGT SLP965

CYYG;2009-02-21 07:00;CYYG 210700Z 23015G22KT 15SM -SHSN BKN022 M05/M09 A2944 RMK SC7 PCPN VRY LGT SLP971

CYYG;2009-02-21 08:00;CYYG 210800Z 24014G19KT 15SM -SHSN BKN021 BKN150 M06/M10 A2947 RMK SC5AC1 PCPN VRY LGT SLP982

CYYG;2009-02-21 09:00;CYYG 210900Z 23013G21KT 15SM -SHSN SCT020 BKN068 M07/M10 A2950 RMK SC3AC2 PCPN VRY LGT SLP992

CYYG;2009-02-21 09:31;CYYG 210931Z 23014G19KT 15SM SCT070 M07/ RMK AC2

CYYG;2009-02-21 10:00;CYYG 211000Z 23012G18KT 15SM SCT023 BKN068 M08/M11 A2952 RMK SC2AC3 SLP999

CYYG;2009-02-21 10:50;CYYG 211050Z 23014KT 15SM -SHSN SCT030 BKN099 M07/ RMK SC3AC2

CYYG;2009-02-21 11:00;CYYG 211100Z 24013G19KT 2 1/2SM -SHSN DRSN FEW017 BKN030 BKN099 M07/M10 A2954 RMK SC1SC3AC2 SLP006

CYYG;2009-02-21 11:40;CYYG 211140Z 25014G19KT 1 1/2SM -SHSN BKN013 OVC030 M07/ RMK SC6SC2

CYYG;2009-02-21 12:00;CYYG 211200Z CCA 25014G19KT 3SM -SHSN DRSN BKN014 OVC030 M07/M09 A2958 RMK SC6SC2 SLP021

CYYG;2009-02-21 12:46;CYYG 211246Z 24015G24KT 15SM DRSN FEW014 SCT066 BKN100 M07/ RMK SC1AC2AC1

CYYG;2009-02-21 13:00;CYYG 211300Z 25017G22KT 15SM DRSN FEW014 SCT066 BKN100 M06/M09 A2961 RMK CU1AC2AC1 SLP029

CYYG;2009-02-21 14:00;CYYG 211400Z 25013G22KT 15SM FEW017 FEW064 FEW100 M06/M09 A2963 RMK CF1SC1AC1 SLP038

CYYG;2009-02-21 15:00;CYYG 211500Z 25015G20KT 15SM FEW020 FEW064 BKN250 M05/M09 A2966 RMK CU1SC1CI1 SLP045

CYYG;2009-02-21 16:00;CYYG 211600Z 24011G17KT 15SM FEW022 BKN250 M04/M08 A2967 RMK CU1CI2 SLP049

CYYG;2009-02-21 17:00;CYYG 211700Z 26014G22KT 15SM SCT023 BKN250 M03/M07 A2968 RMK CU3CI1 SLP054

CYYG;2009-02-21 18:00;CYYG 211800Z 25012G20KT 15SM FEW023 FEW250 M02/M07 A2969 RMK CU2CI0 SLP058

CYYG;2009-02-21 19:00;CYYG 211900Z 25013G20KT 15SM BKN025 M02/M06 A2972 RMK SC6 SLP066

CYYG;2009-02-21 20:00;CYYG 212000Z 26011G16KT 15SM BKN032 M02/M06 A2976 RMK SC6 SLP081

CYYG;2009-02-21 21:00;CYYG 212100Z 25010KT 15SM BKN026 M02/M07 A2979 RMK SC7 SLP090

CYYG;2009-02-21 22:00;CYYG 212200Z 25009G17KT 15SM SCT025 OVC040 M02/M05 A2982 RMK SC3SC5 SLP102

CYYG;2009-02-21 22:51;CYYG 212251Z 27011G21KT 15SM -SHSN OVC037 M02/ RMK SC8

CYYG;2009-02-21 23:00;CYYG 212300Z 27010G21KT 15SM -SHSN OVC037 M02/M07 A2986 RMK SC8 SLP115

CYYG;2009-02-22 00:00;CYYG 220000Z 27013G18KT 15SM -SHSN OVC042 M02/M08 A2990 RMK SC8 PCPN VRY LGT SLP127

CYYG;2009-02-22 01:00;CYYG 220100Z 27016G22KT 15SM -SHSN OVC044 M02/M08 A2993 RMK SC8 PCPN VRY LGT SLP139

CYYG;2009-02-22 02:00;CYYG 220200Z 27015G21KT 15SM -SHSN OVC041 M03/M08 A2996 RMK SC8 PCPN VRY LGT SLP149

CYYG;2009-02-22 03:00;CYYG 220300Z 27016G24KT 15SM -SHSN OVC036 M03/M10 A3001 RMK SC8 SLP164

CYYG;2009-02-22 04:00;CYYG 220400Z 28016G21KT 15SM -SHSN OVC034 M03/M09 A3002 RMK SC8 PCPN VRY LGT SLP170

CYYG;2009-02-22 05:00;CYYG 220500Z 28011KT 15SM -SHSN OVC033 M04/M09 A3006 RMK SC8 PCPN VRY LGT SLP181

CYYG;2009-02-22 06:00;CYYG 220600Z 26014KT 15SM -SHSN BKN030 M05/M09 A3010 RMK SC7 PCPN VRY LGT SLP195

CYYG;2009-02-22 07:00;CYYG 220700Z 27013KT 15SM SCT040 M06/M10 A3012 RMK SC3 SLP203

CYYG;2009-02-22 08:00;CYYG 220800Z 28009G15KT 15SM SCT035 M07/M10 A3015 RMK SC2 SLP213

CYYG;2009-02-22 09:00;CYYG 220900Z 25008KT 15SM FEW035 M07/M11 A3019 RMK SC2 SLP225

CYYG;2009-02-22 10:00;CYYG 221000Z 26008KT 15SM FEW030 M08/M11 A3021 RMK SC2 SLP233

CYYG;2009-02-22 11:00;CYYG 221100Z 26007KT 15SM FEW130 M08/M11 A3024 RMK AS1 SLP244

CYYG;2009-02-22 12:00;CYYG 221200Z 25007KT 15SM FEW130 BKN250 M08/M11 A3028 RMK AS2CI2 SLP257

CYYG;2009-02-22 13:00;CYYG 221300Z 25008KT 15SM BKN200 M07/M11 A3030 RMK CI2 SLP264

CYYG;2009-02-22 14:00;CYYG 221400Z 27007KT 15SM BKN210 M06/M10 A3030 RMK CI5 SLP262

CYYG;2009-02-22 15:00;CYYG 221500Z 23005KT 15SM SCT100 OVC210 M05/M10 A3031 RMK AC3CI5 SLP265

CYYG;2009-02-22 16:00;CYYG 221600Z 21006KT 10SM FEW100 OVC210 M04/M09 A3031 RMK AC2CI3 SLP267

CYYG;2009-02-22 17:00;CYYG 221700Z 21006KT 15SM SCT140 OVC210 M04/M09 A3029 RMK AC4CI2 SLP260

CYYG;2009-02-22 18:00;CYYG 221800Z 18007KT 15SM FEW140 BKN210 M03/M08 A3028 RMK AC2CI5 SLP256

CYYG;2009-02-22 19:00;CYYG 221900Z 20007KT 15SM BKN210 M02/M09 A3025 RMK CI2 SLP245

CYYG;2009-02-22 20:00;CYYG 222000Z 14003KT 15SM FEW120 BKN220 M02/M08 A3024 RMK AC1CI2 SLP243

CYYG;2009-02-22 21:00;CYYG 222100Z 14003KT 15SM FEW120 BKN240 M02/M09 A3023 RMK AC1CI2 SLP241

CYYG;2009-02-22 22:00;CYYG 222200Z 17003KT 15SM FEW120 BKN240 M03/M09 A3024 RMK AC1CI2 SLP242

CYYG;2009-02-22 23:00;CYYG 222300Z 14004KT 15SM FEW120 BKN240 M03/M10 A3023 RMK AC1CI2 SLP238

CYYG;2009-02-23 00:00;CYYG 230000Z 11006KT 15SM OVC220 M03/M09 A3018 RMK CS8 PRESFR SLP224

CYYG;2009-02-23 01:00;CYYG 230100Z 10006KT 15SM OVC210 M04/M09 A3017 RMK CS8 SLP218

CYYG;2009-02-23 02:00;CYYG 230200Z 10005KT 15SM OVC170 M04/M08 A3012 RMK AS8 SLP202

CYYG;2009-02-23 03:00;CYYG 230300Z 12006KT 15SM OVC150 M04/M07 A3009 RMK AS8 SLP191

CYYG;2009-02-23 04:00;CYYG 230400Z 09007KT 15SM OVC110 M04/M06 A3001 RMK AS8 PRESFR SLP166

CYYG;2009-02-23 05:00;CYYG 230500Z 09010KT 15SM OVC085 M04/M06 A2995 RMK AS8 PRESFR SLP144

CYYG;2009-02-23 06:00;CYYG 230600Z 09014KT 15SM BKN051 OVC075 M02/M04 A2985 RMK SC6AS2 PRESFR SLP112

CYYG;2009-02-23 07:00;CYYG 230700Z 09019G27KT 15SM OVC041 M02/M05 A2972 RMK NS8 PRESFR SLP067

CYYG;2009-02-23 07:02;CYYG 230702Z 09020G27KT 15SM -SN OVC041 M02/ RMK NS8 PRESFR

CYYG;2009-02-23 07:24;CYYG 230724Z 09022KT 2 1/2SM -SN DRSN OVC019 M02/ RMK NS8 PRESFR

CYYG;2009-02-23 07:39;CYYG 230739Z 09019G29KT 1 1/2SM -SN DRSN OVC017 M03/ RMK SN2NS6 PRESFR

CYYG;2009-02-23 08:00;CYYG 230800Z 08022G27KT 5/8SM R03/4000VP6000FT/D -SN DRSN VV006 M03/M05 A2962 RMK SN8 PRESFR /S01/ SLP032

CYYG;2009-02-23 08:11;CYYG 230811Z 08021G28KT 1/2SM R03/4000FT/N SN DRSN VV005 M03/ RMK SN8 PRESFR

CYYG;2009-02-23 09:00;CYYG 230900Z 07024G34KT 1/2SM R03/1200V1800FT/N -SN BLSN VV005 M03/M03 A2947 RESN RMK SN8 PRESFR /S03/ SLP982

CYYG;2009-02-23 09:07;CYYG 230907Z 07025G30KT 1/8SM R03/1100V1600FT/N +SN +BLSN VV002 M03/ RMK SN8 PRESFR

CYYG;2009-02-23 10:00;CYYG 231000Z 07021KT 1/8SM R03/0800V1800FT/D +SN +BLSN VV002 M03/M03 A2941 RMK SN8 PRESFR /S07/ SLP961

CYYG;2009-02-23 10:22;CYYG 231022Z 07024G30KT 1/4SM R03/1100FT/N +SN +BLSN VV003 M02/ RMK SN8

CYYG;2009-02-23 10:40;CYYG 231040Z CCA 08021G28KT 3/8SM R03/1200V4000FT/U SN BLSN VV005 M02/ RESN RMK SN8 PRESFR

CYYG;2009-02-23 11:00;CYYG 231100Z 09020G31KT 3/8SM R03/4000FT/N SN BLSN VV005 M01/M02 A2933 RESN REBLSN RMK SN8 PRESFR /S12/ SLP935

CYYG;2009-02-23 11:09;CYYG 231109Z 09020G25KT 1/2SM R03/3500FT/N -SN BLSN OVC006 M02/ RESN RMK SN3SF5

CYYG;2009-02-23 11:23;CYYG 231123Z 09024G32KT 1SM R03/4000FT/N -SN BLSN OVC006 M01/ RESN RMK SN2SF6 PRESFR

CYYG;2009-02-23 11:50;CYYG 231150Z 09020G31KT 2SM R03/3500VP6000FT/U -SN BLSN OVC006 M01/ RMK SF8

CYYG;2009-02-23 12:00;CYYG 231200Z 10019G28KT 2SM R03/2200VP6000FT/U -SN BLSN BKN006 OVC032 M01/M01 A2925 RMK SF7NS1 PRESFR /S13/ SLP908

CYYG;2009-02-23 12:28;CYYG 231228Z 10020G29KT 6SM -RASN BLSN OVC007 M00/ RMK SF8

CYYG;2009-02-23 13:00;CYYG 231300Z 11018G28KT 10SM -RASN OVC005 01/00 A2921 RMK SF8 REBLSN SLP894

CYYG;2009-02-23 13:23;CYYG 231323Z 12012G19KT 15SM -RA OVC007 01/ RMK SF8

CYYG;2009-02-23 14:00;CYYG 231400Z 14014KT 12SM -RA OVC008 02/02 A2918 RMK SF8 SLP884

CYYG;2009-02-23 14:48;CYYG 231448Z 17017KT 15SM BKN010 OVC037 02/ RMK SF6SC2

CYYG;2009-02-23 15:00;CYYG 231500Z 17016KT 15SM SCT010 BKN026 02/00 A2915 RMK SF4SC3 SLP875

CYYG;2009-02-23 15:39;CYYG 231539Z 16017KT 2SM -SHSN BKN007 OVC018 01/ RMK SF6SC2

CYYG;2009-02-23 15:44;CYYG 231544Z 16015G21KT 10SM -SHSN SCT007 OVC022 01/ RMK SF4SC4

CYYG;2009-02-23 16:00;CYYG 231600Z 16013G18KT 8SM -SHSN SCT007 OVC022 01/00 A2912 RMK SF4SC4 SLP863

CYYG;2009-02-23 17:00;CYYG 231700Z 18014KT 8SM -SHSN SCT007 OVC022 01/M01 A2909 RMK SF4SC4 SLP854

CYYG;2009-02-23 18:00;CYYG 231800Z 17010KT 8SM -SHSN SCT006 OVC013 01/M00 A2906 RMK SF3SC5 SLP844

CYYG;2009-02-23 18:20;CYYG 231820Z 18011KT 3SM -SHSN OVC009 01/ RMK SF8

CYYG;2009-02-23 19:00;CYYG 231900Z 19010KT 2SM -SHSN OVC005 00/00 A2906 RMK SF8 SLP843

CYYG;2009-02-23 19:26;CYYG 231926Z 22013KT 1SM R03/4000V5500FT/D -SHSN OVC004 00/ RMK SN3SF5

CYYG;2009-02-23 19:42;CYYG 231942Z 22017G24KT 3/4SM R03/3500FT/N -SHSN OVC005 M00/ RMK SN3SF5

CYYG;2009-02-23 20:00;CYYG 232000Z 22019G24KT 2SM -SHSN BKN006 OVC011 M01/M01 A2909 RMK SN2SF4SC2 SLP851

CYYG;2009-02-23 20:47;CYYG 232047Z 22015KT 1SM R03/3000V4500FT/U -SHSN OVC006 M01/ RMK SN2SF6

CYYG;2009-02-23 21:00;CYYG 232100Z 23017KT 1SM R03/P6000FT/D -SHSN BKN006 OVC012 M01/M01 A2910 RMK SN2SF3SC2 SLP858

CYYG;2009-02-23 22:00;CYYG 232200Z 23012KT 2SM -SHSN OVC006 M01/M01 A2912 RMK SF8 SLP865

CYYG;2009-02-23 23:00;CYYG 232300Z 24014KT 3SM -SHSN BKN006 OVC011 M01/M01 A2915 RMK SF6SC2 SLP872

CYYG;2009-02-24 00:00;CYYG 240000Z 23011KT 2SM -SN DRSN OVC008 M01/M02 A2917 RMK SF8 /S01/ SLP879

CYYG;2009-02-24 00:36;CYYG 240036Z 30011KT 3SM -SN DRSN OVC007 M02/ RMK SF8

CYYG;2009-02-24 01:00;CYYG 240100Z 32010G16KT 3SM -SN BR OVC007 M02/M03 A2920 RMK SF8 SLP892

CYYG;2009-02-24 02:00;CYYG 240200Z 32017G25KT 5SM -SN DRSN BR OVC008 M04/M05 A2926 RMK SF8 PRESRR SLP912

CYYG;2009-02-24 02:27;CYYG 240227Z 31018G25KT 5SM -SN DRSN BR OVC010 M04/ RMK SC8

CYYG;2009-02-24 03:00;CYYG 240300Z 31020G30KT 5SM -SN DRSN BR OVC012 M05/M06 A2931 RMK SC8 SLP928

CYYG;2009-02-24 04:00;CYYG 240400Z 29017G28KT 4SM -SN DRSN OVC014 M05/M07 A2937 RMK SC8 PRESRR SLP947

CYYG;2009-02-24 05:00;CYYG 240500Z 29020G28KT 4SM -SN DRSN OVC018 M06/M07 A2940 RMK SC8 SLP958

CYYG;2009-02-24 05:29;CYYG 240529Z 29016G25KT 1 1/2SM -SN DRSN OVC014 M06/ RMK SC8

CYYG;2009-02-24 06:00;CYYG 240600Z 29020KT 2SM -SN DRSN BKN014 OVC020 M06/M07 A2943 RMK SC6SC2 /S03/ SLP969

CYYG;2009-02-24 07:00;CYYG 240700Z 29014G22KT 2 1/2SM -SN DRSN BKN014 OVC020 M06/M07 A2947 RMK SC6SC2 SLP981

CYYG;2009-02-24 08:00;CYYG 240800Z 28012G18KT 3SM -SN DRSN OVC016 M06/M07 A2951 RMK SC8 SLP994

CYYG;2009-02-24 08:36;CYYG 240836Z 30013G20KT 1 1/2SM -SN DRSN OVC016 M06/ RMK SC8

CYYG;2009-02-24 09:00;CYYG 240900Z 31013G18KT 1 1/2SM -SN DRSN OVC016 M06/M07 A2954 RMK SN2SC6 /S01/ SLP006

CYYG;2009-02-24 10:00;CYYG 241000Z 31013G19KT 1SM R03/P6000FT/N -SN DRSN VV010 M06/M08 A2958 RMK SN8 /S02/ SLP018

CYYG;2009-02-24 10:27;CYYG 241027Z 30012KT 1 1/2SM -SN DRSN OVC016 M06/ RMK SN2SC6

CYYG;2009-02-24 11:00;CYYG 241100Z 31013G21KT 1SM R03/P6000FT/D -SN DRSN VV010 M07/M08 A2960 RMK SN8 SLP027

CYYG;2009-02-24 11:23;CYYG 241123Z 30012G17KT 2SM -SN DRSN OVC015 M07/ RMK SC8

CYYG;2009-02-24 12:00;CYYG 241200Z 30012KT 2SM -SN DRSN OVC010 M07/M08 A2964 RMK SC8 /S03/ SLP040

CYYG;2009-02-24 13:00;CYYG 241300Z 29011G17KT 2 1/2SM -SN DRSN OVC013 M07/M08 A2967 RMK SC8 SLP050

CYYG;2009-02-24 13:25;CYYG 241325Z 31010G17KT 3SM -SN DRSN BKN014 OVC020 M06/ RMK SC6SC2

CYYG;2009-02-24 13:48;CYYG 241348Z 31013G18KT 2SM -SN DRSN SCT007 OVC011 M06/ RMK SF3SC5

CYYG;2009-02-24 14:00;CYYG 241400Z 31014KT 1 1/2SM -SN DRSN BKN009 OVC020 M06/M08 A2970 RMK SF6SC2 SLP060

CYYG;2009-02-24 14:17;CYYG 241417Z 31014G19KT 3SM -SN DRSN OVC017 M06/ RMK SC8

CYYG;2009-02-24 15:00;CYYG 241500Z 31012G20KT 3SM -SN DRSN BKN015 OVC021 M06/M08 A2972 RMK SF7SC1 /S01/ SLP068

CYYG;2009-02-24 16:00;CYYG 241600Z 31012G20KT 3SM -SN DRSN BKN015 OVC022 M05/M08 A2974 RMK SC6SC2 SLP075

CYYG;2009-02-24 17:00;CYYG 241700Z 31015G21KT 2SM -SN DRSN BKN012 OVC020 M06/M08 A2976 RMK SC6SC2 SLP080

CYYG;2009-02-24 17:44;CYYG 241744Z 32016G21KT 5SM -SN DRSN OVC018 M05/M08 RMK SC8

CYYG;2009-02-24 18:00;CYYG 241800Z 32014G19KT 8SM -SN DRSN OVC020 M05/M08 A2977 RMK SC8 /S03/ SLP085

CYYG;2009-02-24 19:00;CYYG 241900Z 32017KT 3SM -SHSN DRSN OVC020 M05/M08 A2980 RMK SC8 SLP093

CYYG;2009-02-24 20:00;CYYG 242000Z 30014G19KT 3SM -SHSN DRSN OVC020 M05/M09 A2983 RMK SC8 SLP103

CYYG;2009-02-24 21:00;CYYG 242100Z 31012KT 10SM -SHSN DRSN FEW025 OVC034 M05/M09 A2985 RMK SC2SC6 /S01/ SLP112

CYYG;2009-02-24 22:00;CYYG 242200Z 31010KT 15SM -SHSN DRSN BKN030 OVC050 M05/M09 A2987 RMK SC5SC3 SLP120

CYYG;2009-02-24 23:00;CYYG 242300Z 31011KT 15SM -SHSN DRSN OVC040 M04/M09 A2990 RMK SC8 SLP128

CYYG;2009-02-25 00:00;CYYG 250000Z 30008KT 15SM -SHSN DRSN OVC045 M04/M08 A2992 RMK SC8 SLP136

CYYG;2009-02-25 01:00;CYYG 250100Z 30011G16KT 15SM -SHSN DRSN OVC044 M04/M08 A2995 RMK SC8 SLP144

CYYG;2009-02-25 02:00;CYYG 250200Z 30010KT 15SM -SHSN DRSN OVC044 M04/M08 A2997 RMK SC8 SLP151

CYYG;2009-02-25 03:00;CYYG 250300Z 29010G15KT 15SM -SHSN OVC045 M04/M08 A2999 RMK SC8 SLP160

CYYG;2009-02-25 03:25;CYYG 250325Z 30010G15KT 15SM OVC045 M04/ RMK SC8

CYYG;2009-02-25 04:00;CYYG 250400Z 30009G16KT 15SM OVC045 M04/M08 A3002 RMK SC8 SLP169

CYYG;2009-02-25 05:00;CYYG 250500Z 30008KT 15SM SCT045 M06/M09 A3004 RMK SC3 SLP176

CYYG;2009-02-25 06:00;CYYG 250600Z 29010KT 15SM FEW040 M07/M09 A3007 RMK SC2 SLP185

CYYG;2009-02-25 07:00;CYYG 250700Z 29010KT 15SM FEW040 M07/M10 A3009 RMK SC2 SLP192

CYYG;2009-02-25 08:00;CYYG 250800Z 30009KT 15SM FEW040 M07/M10 A3011 RMK SC1 SLP199

CYYG;2009-02-25 09:00;CYYG 250900Z 32008KT 15SM FEW040 M08/M10 A3013 RMK SC1 SLP207

CYYG;2009-02-25 10:00;CYYG 251000Z 31008KT 15SM FEW040 M08/M10 A3016 RMK SC1 SLP216

CYYG;2009-02-25 11:00;CYYG 251100Z 31008KT 15SM FEW040 M08/M11 A3018 RMK SC1 SLP224

CYYG;2009-02-25 12:00;CYYG 251200Z 31008KT 15SM FEW250 M08/M11 A3022 RMK CI1 SLP236

CYYG;2009-02-25 13:00;CYYG 251300Z 31009KT 15SM FEW250 M06/M10 A3025 RMK CI1 SLP246

CYYG;2009-02-25 14:00;CYYG 251400Z 31009KT 15SM FEW250 M06/M10 A3027 RMK CI1 SLP254

CYYG;2009-02-25 15:00;CYYG 251500Z 27006KT 15SM FEW250 M05/M10 A3030 RMK CI1 SLP263

CYYG;2009-02-25 16:00;CYYG 251600Z 28007KT 15SM FEW250 M04/M10 A3031 RMK CI1 SLP267

CYYG;2009-02-25 17:00;CYYG 251700Z 28009KT 15SM FEW250 M03/M10 A3030 RMK CI1 SLP262

CYYG;2009-02-25 18:00;CYYG 251800Z 28005KT 15SM BKN250 M02/M10 A3029 RMK CI2 SLP260

CYYG;2009-02-25 19:00;CYYG 251900Z 27005KT 15SM BKN250 M02/M11 A3029 RMK CI2 SLP261

CYYG;2009-02-25 20:00;CYYG 252000Z 25006KT 15SM BKN250 M02/M09 A3031 RMK CI2 SLP265

CYYG;2009-02-25 21:00;CYYG 252100Z 27004KT 15SM SCT250 M03/M09 A3032 RMK CI1 SLP271

CYYG;2009-02-25 22:00;CYYG 252200Z 32002KT 15SM FEW250 M05/M10 A3034 RMK CI1 SLP276

CYYG;2009-02-25 23:00;CYYG 252300Z 00000KT 15SM FEW250 M06/M10 A3035 RMK CI0 SLP281

CYYG;2009-02-26 00:00;CYYG 260000Z 17002KT 15SM FEW250 M06/M09 A3035 RMK CI0 SLP282

CYYG;2009-02-26 01:00;CYYG 260100Z 19003KT 15SM FEW250 M06/M09 A3036 RMK CI0 SLP286

CYYG;2009-02-26 02:00;CYYG 260200Z 19005KT 15SM SKC M08/M10 A3037 RMK SLP287

CYYG;2009-02-26 03:00;CYYG 260300Z 21004KT 15SM SKC M07/M08 A3037 RMK SLP289

CYYG;2009-02-26 04:00;CYYG 260400Z 22005KT 15SM SKC M08/M09 A3038 RMK SLP291

CYYG;2009-02-26 05:00;CYYG 260500Z 21006KT 15SM SKC M08/M09 A3039 RMK FROIN SLP293

CYYG;2009-02-26 06:00;CYYG 260600Z 20005KT 15SM SKC M08/M09 A3039 RMK FROIN SLP294

CYYG;2009-02-26 07:00;CYYG 260700Z 22005KT 15SM SKC M08/M08 A3038 RMK SLP290

CYYG;2009-02-26 08:00;CYYG 260800Z 23006KT 15SM SKC M07/M09 A3038 RMK FROIN SLP290

CYYG;2009-02-26 09:00;CYYG 260900Z 22004KT 15SM BCFG SKC M08/M08 A3039 RMK SLP295

CYYG;2009-02-26 10:00;CYYG 261000Z 21003KT 15SM BCFG FEW030 M10/M11 A3041 RMK SC1 FROIN SLP300

CYYG;2009-02-26 10:32;CYYG 261032Z 21003KT 2SM BR BCFG FEW250 M09/ RMK CI1

CYYG;2009-02-26 11:00;CYYG 261100Z 21005KT 15SM BCFG FEW250 M08/M09 A3041 RMK CI1 SLP301

CYYG;2009-02-26 12:00;CYYG 261200Z 18004KT 15SM BCFG FEW250 M10/M10 A3042 RMK CI1 SLP305

CYYG;2009-02-26 13:00;CYYG 261300Z 18005KT 15SM FEW018 SCT250 M08/M08 A3042 RMK SC2CI0 SLP305

CYYG;2009-02-26 14:00;CYYG 261400Z 18006KT 15SM BKN250 M06/M06 A3042 RMK CI1 SLP305

CYYG;2009-02-26 15:00;CYYG 261500Z 19008KT 15SM BKN250 M04/M05 A3041 RMK CI1 SLP301

CYYG;2009-02-26 16:00;CYYG 261600Z 21007KT 15SM BKN250 M02/M05 A3040 RMK CI1 SLP297

CYYG;2009-02-26 17:00;CYYG 261700Z 20009KT 15SM FEW020 BKN250 M01/M04 A3038 RMK CU1CI2 SLP291

CYYG;2009-02-26 18:00;CYYG 261800Z 18011KT 15SM FEW020 BKN250 00/M04 A3036 RMK SC1CI2 SLP282

CYYG;2009-02-26 19:00;CYYG 261900Z 19010KT 15SM FEW020 BKN250 00/M04 A3035 RMK SC1CI1 SLP281

CYYG;2009-02-26 20:00;CYYG 262000Z 20009KT 15SM FEW020 SCT120 BKN250 01/M04 A3034 RMK CU1AC3CI1 SLP276

CYYG;2009-02-26 21:00;CYYG 262100Z 22006KT 15SM FEW120 BKN240 01/M04 A3034 RMK AC2CI2 SLP278

CYYG;2009-02-26 22:00;CYYG 262200Z 20006KT 15SM OVC073 00/M03 A3034 RMK AS8 SLP278

CYYG;2009-02-26 23:00;CYYG 262300Z 19006KT 15SM BKN067 OVC076 M00/M03 A3035 RMK AS6AS2 SLP281

CYYG;2009-02-27 00:00;CYYG 270000Z 19007KT 15SM FEW038 OVC088 M00/M04 A3035 RMK SC2AC6 SLP282

CYYG;2009-02-27 01:00;CYYG 270100Z 20010KT 15SM OVC043 M00/M03 A3035 RMK SC8 SLP281

CYYG;2009-02-27 02:00;CYYG 270200Z 21010KT 15SM OVC043 M00/M02 A3035 RMK SC8 SLP282

CYYG;2009-02-27 03:00;CYYG 270300Z 19007KT 15SM BKN043 M02/M04 A3035 RMK SC5 SLP281

CYYG;2009-02-27 04:00;CYYG 270400Z 18006KT 15SM BKN037 M01/M03 A3036 RMK SC6 SLP285

CYYG;2009-02-27 05:00;CYYG 270500Z 17004KT 15SM BKN024 OVC032 M01/M02 A3036 RMK SC6SC2 SLP285

CYYG;2009-02-27 06:00;CYYG 270600Z 18006KT 15SM BKN020 OVC034 M00/M02 A3035 RMK SC6SC2 SLP281

CYYG;2009-02-27 07:00;CYYG 270700Z 19007KT 15SM OVC020 M01/M02 A3034 RMK SC8 SLP277

CYYG;2009-02-27 08:00;CYYG 270800Z 19008KT 15SM BKN016 OVC049 M01/M02 A3034 RMK SC6SC2 SLP276

CYYG;2009-02-27 09:00;CYYG 270900Z 19008KT 15SM BKN016 OVC023 M00/M01 A3036 RMK SC5SC3 SLP282

CYYG;2009-02-27 10:00;CYYG 271000Z 18008KT 15SM BKN014 OVC043 M01/M02 A3036 RMK SC6SC2 SLP284

CYYG;2009-02-27 11:00;CYYG 271100Z 18008KT 15SM BKN014 OVC048 M00/M01 A3036 RMK SC6SC2 SLP282

CYYG;2009-02-27 12:00;CYYG 271200Z 17007KT 15SM BKN015 BKN050 M00/M01 A3036 RMK SC6SC2 SLP283

CYYG;2009-02-27 13:00;CYYG 271300Z 18007KT 15SM FEW015 SCT045 OVC062 M00/M02 A3034 RMK SC1SC2SC5 SLP278

CYYG;2009-02-27 14:00;CYYG 271400Z 17010KT 15SM SCT040 BKN062 01/M01 A3033 RMK SC2SC4 SLP272

CYYG;2009-02-27 15:00;CYYG 271500Z 18013KT 15SM FEW056 BKN250 02/M02 A3030 RMK SC2CI1 SLP263

CYYG;2009-02-27 16:00;CYYG 271600Z 19017KT 15SM BKN250 02/M01 A3029 RMK CI2 SLP260

CYYG;2009-02-27 17:00;CYYG 271700Z 19014G19KT 15SM FEW063 SCT120 OVC250 03/M01 A3026 RMK SC2AC2CI0 SLP250

CYYG;2009-02-27 18:00;CYYG 271800Z 18013KT 15SM FEW068 OVC230 03/M01 A3022 RMK AC2CI1 SLP234

CYYG;2009-02-27 19:00;CYYG 271900Z 18012G17KT 15SM FEW068 OVC230 04/M01 A3019 RMK AC2CI1 SLP226

CYYG;2009-02-27 20:00;CYYG 272000Z 18019G24KT 15SM FEW025 FEW068 OVC230 04/00 A3016 RMK SC1AC1CI1 SC TR SLP215

CYYG;2009-02-27 21:00;CYYG 272100Z 18021G26KT 15SM FEW030 BKN230 04/01 A3015 RMK SC1CI1 SLP212

CYYG;2009-02-27 22:00;CYYG 272200Z 18022G28KT 15SM FEW030 BKN230 04/01 A3012 RMK SC2CI0 SLP201

CYYG;2009-02-27 23:00;CYYG 272300Z 18017KT 15SM FEW025 BKN230 04/02 A3012 RMK SC2CI0 SLP200

CYYG;2009-02-28 00:00;CYYG 280000Z 19019KT 15SM FEW025 BKN230 04/01 A3009 RMK SC2CI2 SLP191

CYYG;2009-02-28 01:00;CYYG 280100Z 18012KT 15SM FEW025 SCT090 04/01 A3007 RMK SC2AC2 SLP185

CYYG;2009-02-28 02:00;CYYG 280200Z 20017G22KT 15SM SCT090 04/02 A3006 RMK AC3 SLP183

CYYG;2009-02-28 03:00;CYYG 280300Z 20019KT 15SM FEW090 04/02 A3005 RMK AC2 SLP177

CYYG;2009-02-28 04:00;CYYG 280400Z 19016KT 15SM FEW090 04/02 A3003 RMK AC2 SLP172

CYYG;2009-02-28 05:00;CYYG 280500Z 19020G26KT 15SM FEW090 SCT210 05/03 A3000 RMK AC2CI2 SLP162

CYYG;2009-02-28 06:00;CYYG 280600Z 19018G25KT 15SM SCT080 BKN210 04/03 A2998 RMK AC4CI2 SLP154

CYYG;2009-02-28 07:00;CYYG 280700Z 19015G20KT 15SM SCT080 BKN210 04/03 A2995 RMK AC4CI2 SLP145

CYYG;2009-02-28 08:00;CYYG 280800Z 19020KT 15SM SCT075 BKN210 04/03 A2992 RMK AC4CI2 SLP133

CYYG;2009-02-28 09:00;CYYG 280900Z 19019G24KT 15SM BKN057 05/04 A2990 RMK SC7 SLP126

CYYG;2009-02-28 09:08;CYYG 280908Z 20018G24KT 15SM -SHRA FEW020 OVC057 05/ RMK SC2SC6

CYYG;2009-02-28 10:00;CYYG 281000Z 19023G29KT 12SM -SHRA FEW020 OVC060 06/05 A2988 RMK SC2SC6 SLP120

CYYG;2009-02-28 11:00;CYYG 281100Z 19020G25KT 6SM -SHRA BR BKN040 OVC070 05/05 A2987 RMK SC5AC3 SLP116

CYYG;2009-02-28 12:00;CYYG 281200Z 19018KT 8SM -RA FEW006 BKN032 OVC070 05/05 A2987 RMK SF1SC5AC3 SLP116

CYYG;2009-02-28 12:33;CYYG 281233Z 18018KT 8SM -RA FEW006 BKN013 OVC070 05/ RMK SF1SC6AC2

CYYG;2009-02-28 13:00;CYYG 281300Z 18017KT 8SM -RA FEW003 BKN012 OVC054 05/05 A2986 RMK SF2SC4SC2 SLP112

CYYG;2009-02-28 13:38;CYYG 281338Z 19016KT 5SM -RA BR BKN003 OVC025 04/ RMK SF6SC2

CYYG;2009-02-28 14:00;CYYG 281400Z 19017KT 4SM -RA BR BKN003 OVC025 05/05 A2986 RMK SF5SC3 SLP112

CYYG;2009-02-28 14:32;CYYG 281432Z 20015KT 10SM SCT003 OVC022 05/ RMK SF4SC4

CYYG;2009-02-28 14:33;CYYG 281433Z CCA 20015KT 10SM -RA SCT003 OVC022 05/ RMK SF4SC4

CYYG;2009-02-28 15:00;CYYG 281500Z 20015KT 15SM -RA FEW003 OVC021 05/05 A2987 RMK SF2SC6 SLP115

CYYG;2009-02-28 15:22;CYYG 281522Z 23009KT 2SM -RADZ BR OVC005 05/ RMK SF8

CYYG;2009-02-28 15:31;CYYG 281531Z 24006KT 1 1/2SM R03/3500VP6000FT/N -RADZ BR OVC003 05/ RMK SF8

CYYG;2009-02-28 16:00;CYYG 281600Z 27006KT 2SM R03/2200VP6000FT/U -RADZ BR OVC003 06/06 A2989 RMK SF8 SLP122

CYYG;2009-02-28 16:13;CYYG 281613Z 33016KT 3SM -RADZ BR OVC004 01/ RMK SF8 WSHFT 1610 PRESRR

CYYG;2009-02-28 16:21;CYYG 281621Z 35012G18KT 3SM -FZRA BR OVC004 M00/ RMK SF8 PRESRR TEMP DROP OF 5.7 DEG IN 15 MINS

CYYG;2009-02-28 16:37;CYYG 281637Z 35013G18KT 3SM -FZRA BR BKN006 OVC012 M01/ RMK SF6SC2 PRESRR

CYYG;2009-02-28 17:00;CYYG 281700Z 35013KT 2 1/2SM -FZRA BR OVC006 M01/M01 A2993 RMK SF8 SLP137

CYYG;2009-02-28 17:25;CYYG 281725Z 34016G21KT 3SM -PL -FZRA BR OVC006 M02/ RMK SF8

CYYG;2009-02-28 17:34;CYYG 281734Z 34014G21KT 2SM -PLSN BR OVC006 M02/ REFZRA RMK SF8

CYYG;2009-02-28 18:00;CYYG 281800Z 01016G21KT 2SM R03/4500VP6000FT/U -SN BR OVC006 M02/M03 A2997 REFZRA RMK SF8 SLP151

CYYG;2009-02-28 18:34;CYYG 281834Z 01014G22KT 2 1/2SM -PL -FZRA BR BKN008 OVC023 M03/ RMK SF7SC1

CYYG;2009-02-28 19:00;CYYG 281900Z 36012G22KT 4SM -PL -FZRA BR BKN008 OVC025 M04/M05 A3001 RMK SF6SC2 SLP166

CYYG;2009-02-28 19:22;CYYG 281922Z 36010G21KT 3SM -SN BR BKN009 OVC029 M04/ REFZRA RMK SF6SC2

CYYG;2009-02-28 20:00;CYYG 282000Z 36012G18KT 3SM -SN BR SCT009 OVC030 M05/M06 A3008 REFZRA RMK SF3SC5 PRESRR SLP187

CYYG;2009-02-28 20:40;CYYG 282040Z 36014G19KT 2 1/2SM -SN DRSN BR BKN010 OVC029 M05/ RMK SC6SC2

CYYG;2009-02-28 21:00;CYYG 282100Z 36011G19KT 2 1/2SM -SN DRSN BR BKN010 OVC035 M06/M07 A3013 RMK SC6SC2 SLP205

CYYG;2009-02-28 21:16;CYYG 282116Z 36011G19KT 5SM -SN DRSN OVC010 M06/ RMK SC8

CYYG;2009-02-28 22:00;CYYG 282200Z 36012KT 8SM -SN BKN010 OVC035 M06/M08 A3017 RMK SC7SC1 SLP219

CYYG;2009-02-28 23:00;CYYG 282300Z 36012G18KT 10SM -SN DRSN BKN012 OVC043 M07/M09 A3022 RMK SC6SC2 SLP234

CYYG;2009-02-28 23:32;CYYG 282332Z 36012G17KT 15SM BKN011 OVC043 M07/ RMK SC6SC2

CYYG;2009-03-01 01:00;CYYG 010100Z 02012KT 15SM OVC017 M07/M10 A3028 RMK SC8 SLP256

CYYG;2009-03-01 02:00;CYYG 010200Z 01011G19KT 15SM OVC020 M08/M10 A3029 RMK SC8 SLP261

CYYG;2009-03-01 02:26;CYYG 010226Z 01011G16KT 12SM -SHSN OVC018 M08/ RMK SC8

CYYG;2009-03-01 03:00;CYYG 010300Z 01010KT 12SM -SHSN BKN022 M08/M11 A3030 RMK SC6 SLP262

CYYG;2009-03-01 04:00;CYYG 010400Z 01008KT 12SM -SHSN BKN018 M09/M11 A3030 RMK SC6 SLP263

CYYG;2009-03-01 04:14;CYYG 010414Z 01007KT 15SM BKN018 M09/ RMK SC6

CYYG;2009-03-01 05:00;CYYG 010500Z 01007KT 15SM BKN019 M09/M11 A3032 RMK SC7 SLP269

CYYG;2009-03-01 06:00;CYYG 010600Z 36007KT 15SM OVC021 M09/M11 A3033 RMK SC8 SLP276

CYYG;2009-03-01 06:14;CYYG 010614Z 01007KT 12SM -SHSN OVC021 M09/ RMK SC8

CYYG;2009-03-01 07:00;CYYG 010700Z 36006KT 10SM -SHSN OVC021 M09/M11 A3034 RMK SC8 SLP277

CYYG;2009-03-01 08:00;CYYG 010800Z 02007KT 15SM -SHSN OVC022 M09/M12 A3035 RMK SC8 SLP281

CYYG;2009-03-01 09:00;CYYG 010900Z 02008KT 15SM -SHSN BKN022 M09/M11 A3036 RMK SC7 SLP285

CYYG;2009-03-01 10:00;CYYG 011000Z 03010KT 15SM -SHSN OVC020 M10/M13 A3037 RMK SC8 SLP288

CYYG;2009-03-01 10:32;CYYG 011032Z 03010KT 15SM BKN022 M10/ RMK SC7

CYYG;2009-03-01 11:00;CYYG 011100Z 02010KT 15SM BKN021 M10/M13 A3037 RMK SC7 SLP288

CYYG;2009-03-01 11:37;CYYG 011137Z 02009KT 15SM -SHSN BKN019 BKN300 M10/ RMK SC6CI0

CYYG;2009-03-01 12:00;CYYG 011200Z 04008KT 15SM -SHSN BKN018 M10/M12 A3039 RMK SC7 VIS LWR NE-S SLP295

CYYG;2009-03-01 13:00;CYYG 011300Z 05011KT 12SM -SHSN BKN019 M09/M12 A3038 RMK SC7 VIS LWR N-NE SLP292

CYYG;2009-03-01 14:00;CYYG 011400Z 08011KT 12SM -SHSN BKN016 M10/M12 A3037 RMK SC7 VIS LWR NE SLP288

CYYG;2009-03-01 15:00;CYYG 011500Z 05008KT 15SM -SHSN BKN015 M09/M12 A3037 RMK SC7 SLP287

CYYG;2009-03-01 16:00;CYYG 011600Z 04009KT 15SM -SHSN BKN016 OVC180 M09/M12 A3035 RMK SC7AS1 SLP282

CYYG;2009-03-01 17:00;CYYG 011700Z 05011KT 15SM -SHSN BKN016 OVC180 M09/M11 A3031 RMK SC7AS1 SLP268

CYYG;2009-03-01 18:00;CYYG 011800Z 04011KT 15SM -SHSN BKN015 OVC150 M08/M11 A3031 RMK SC7AS1 SLP269

CYYG;2009-03-01 19:00;CYYG 011900Z 05011KT 15SM -SHSN BKN013 OVC150 M09/M11 A3028 RMK SC5AS3 SLP258

CYYG;2009-03-01 20:00;CYYG 012000Z 05012KT 15SM -SHSN BKN014 OVC150 M08/M10 A3026 RMK SC6AS2 SLP252

CYYG;2009-03-01 21:00;CYYG 012100Z 05013KT 15SM -SHSN OVC011 M08/M10 A3025 RMK SC8 SLP247

CYYG;2009-03-01 21:20;CYYG 012120Z 05011G17KT 2SM -SHSN DRSN OVC008 M08/ RMK SN2SF6

CYYG;2009-03-01 21:33;CYYG 012133Z 05010KT 1 1/2SM -SN DRSN VV008 M08/ RMK SN8

CYYG;2009-03-01 22:00;CYYG 012200Z 05010KT 1 1/2SM -SN DRSN VV008 M08/M09 A3023 RMK SN8 SLP240

CYYG;2009-03-01 22:33;CYYG 012233Z 06009KT 4SM -SN DRSN BKN010 OVC022 M08/ RMK SF6SC2

CYYG;2009-03-01 22:49;CYYG 012249Z 05009KT 5SM -SN DRSN SCT010 SCT022 OVC068 M08/ RMK SF3SC1AC4

CYYG;2009-03-01 23:00;CYYG 012300Z 04009KT 5SM -SN FEW010 OVC062 M07/M09 A3021 RMK SF2SC6 SLP235

CYYG;2009-03-02 00:00;CYYG 020000Z 05010KT 5SM -SN OVC017 M07/M08 A3018 RMK SC8 /S01/ SLP225

CYYG;2009-03-02 01:00;CYYG 020100Z 05009KT 5SM -SN BKN017 OVC034 M07/M07 A3017 RMK SC6SC2 SLP220

CYYG;2009-03-02 02:00;CYYG 020200Z 04011KT 3SM -SN SCT009 OVC020 M06/M07 A3013 RMK SF4SC4 SLP208

CYYG;2009-03-02 03:00;CYYG 020300Z 04011KT 3SM -SN SCT009 OVC020 M06/M07 A3013 RMK SF4SC4 SLP208

CYYG;2009-03-02 03:11;CYYG 020311Z 03012KT 6SM -SN -FZRA FEW012 BKN025 OVC033 M06/ RMK SC2SC4SC2

CYYG;2009-03-02 03:50;CYYG 020350Z 03011KT 6SM -SN -FZRA SCT006 OVC015 M05/ RMK SF3SC5

CYYG;2009-03-02 04:00;CYYG 020400Z 03010KT 6SM -SN -FZRA BKN006 OVC015 M05/M06 A3009 RMK SF5SC3 SLP195

CYYG;2009-03-02 04:26;CYYG 020426Z 02010KT 6SM -FZRA BKN006 OVC015 M05/ RMK SF6SC2

CYYG;2009-03-02 05:00;CYYG 020500Z 02010G15KT 6SM -FZRA BKN005 OVC014 M05/M06 A3009 RMK SF7SC1 SLP194

CYYG;2009-03-02 06:00;CYYG 020600Z 02013KT 5SM -FZRA OVC005 M05/M06 A3006 RMK SF8 SLP181

CYYG;2009-03-02 06:50;CYYG 020650Z 02011KT 8SM OVC004 M05/ REFZRA RMK SF8

CYYG;2009-03-02 07:00;CYYG 020700Z 02012KT 8SM OVC004 M05/M06 A3005 REFZRA RMK SF8 SLP178

CYYG;2009-03-02 08:00;CYYG 020800Z 02009G15KT 8SM OVC004 M05/M06 A3005 RMK SF8 SLP180

CYYG;2009-03-02 08:07;CYYG 020807Z 02011KT 6SM -FZDZ OVC004 M05/ RMK SF8

CYYG;2009-03-02 09:00;CYYG 020900Z 01006KT 6SM -FZDZ OVC004 M05/M05 A3005 RMK SF8 PCPN VERY LGT SLP180

CYYG;2009-03-02 09:21;CYYG 020921Z 02006KT 5SM -FZDZ OVC003 M04/ RMK SF8

CYYG;2009-03-02 09:40;CYYG 020940Z 02009KT 3SM -FZRA OVC003 M04/ REFZDZ RMK SF8

CYYG;2009-03-02 10:00;CYYG 021000Z 02010KT 3SM -FZRA OVC003 M04/M04 A3003 REFZDZ RMK SF8 SLP171

CYYG;2009-03-02 10:45;CYYG 021045Z 02008KT 2 1/2SM -FZDZ OVC003 M03/ REFZRA RMK SF8

CYYG;2009-03-02 11:00;CYYG 021100Z 03013KT 2 1/2SM -FZDZ OVC003 M03/M03 A3004 REFZRA RMK SF8 SLP174

CYYG;2009-03-02 12:00;CYYG 021200Z 05010KT 2 1/2SM -FZDZ OVC003 M03/M03 A3004 RMK SF8 SLP177

CYYG;2009-03-02 13:00;CYYG 021300Z 06009KT 3SM -FZDZ OVC004 M03/M03 A3004 RMK SF8 SLP176

CYYG;2009-03-02 13:31;CYYG 021331Z 06008KT 6SM -FZDZ OVC004 M02/ RMK SF8

CYYG;2009-03-02 14:00;CYYG 021400Z 06008KT 6SM -FZDZ OVC004 M02/M02 A3001 RMK SF8 SLP167

CYYG;2009-03-02 14:11;CYYG 021411Z 05010KT 5SM -FZRA OVC005 M02/ RMK SF8

CYYG;2009-03-02 15:00;CYYG 021500Z 04012KT 3SM -FZRA BR BKN004 OVC020 M02/M02 A3000 RMK SF7SC1 REFZDZ SLP161

CYYG;2009-03-02 16:00;CYYG 021600Z 07011KT 3SM -FZRA BR BKN006 OVC017 M02/M02 A2994 RMK SF7SC1 SLP143

CYYG;2009-03-02 17:00;CYYG 021700Z 02006KT 3SM -FZRA BR OVC005 M01/M01 A2993 RMK SF8 SLP139

CYYG;2009-03-02 17:27;CYYG 021727Z 04005KT 2 1/2SM R03/4000VP6000FT/U -FZRA BR BKN004 OVC020 M01/ RMK SF7SC1 WND EST DUE ICE ACCRETION

CYYG;2009-03-02 18:00;CYYG 021800Z CCA 04008KT 3SM -FZRA BR BKN005 OVC025 M01/M01 A2987 RMK SF6SC2 PRESFR WND EST DUE ICE ACCRETION /R13/ SLP117

CYYG;2009-03-02 18:25;CYYG 021825Z 06010KT 12SM -FZRA BKN005 OVC021 M01/ RMK SF5SC3 WND EST DUE ICE ACCRETION

CYYG;2009-03-02 19:00;CYYG 021900Z 06010KT 6SM -FZRA OVC005 M01/M01 A2986 RMK SF8 WND EST DUE ICE ACCRETION SLP114

CYYG;2009-03-02 19:20;CYYG 021920Z 06010KT 2 1/2SM -FZRA BR OVC005 M01/ RMK SF8 WND EST DUE ICE ACCRETION

CYYG;2009-03-02 20:00;CYYG 022000Z 06005KT 15SM -FZRA OVC005 M01/M01 A2986 RMK SF8 SLP113

CYYG;2009-03-02 20:33;CYYG 022033Z 06005KT 2SM -FZRA BR OVC004 M01/ RMK SF8 WND EST DUE ICE ACCRETION

CYYG;2009-03-02 21:00;CYYG 022100Z 06005KT 12SM -FZRA OVC003 M01/M01 A2982 RMK SF8 WND EST DUE ICE ACCRETION SLP100

CYYG;2009-03-02 22:00;CYYG 022200Z 09010KT 10SM -FZRA OVC004 M01/M01 A2979 RMK SF8 SLP090

CYYG;2009-03-02 23:00;CYYG 022300Z 04005KT 3SM -FZRA BR OVC002 M01/M01 A2978 RMK SF8 WND ESTD DUE ICE ACCRETION SLP086

CYYG;2009-03-03 00:00;CYYG 030000Z CCA 05010KT 5SM -FZRA BR OVC002 M00/M00 A2975 RMK SF8 WND EST DUE ICE ACCRETION SLP077

CYYG;2009-03-03 01:00;CYYG 030100Z 05010KT 8SM -FZRA BKN002 OVC006 M00/M00 A2969 RMK SF6SF2 WND ESTD DUE ICE ACCRETION SLP055

CYYG;2009-03-03 02:00;CYYG 030200Z CCA 05010KT 8SM RA OVC003 00/00 A2962 REFZRA RMK SF8 WND ESTD DUE ICE ACCRETION PRESFR SLP033

CYYG;2009-03-03 03:00;CYYG 030300Z 18015KT 8SM RA SCT003 OVC009 00/00 A2962 RMK SF4SF4 WND ESTD DUE ICE ACCRETION SLP032

CYYG;2009-03-03 04:00;CYYG 030400Z CCA 18015KT 8SM RA BKN012 OVC036 00/00 A2960 RMK SC5SC3 /R10/ WND ESTD DUE ICE ACCRETION SLP027

CYYG;2009-03-03 05:00;CYYG 030500Z 18010KT 6SM RA BR BKN008 OVC020 00/00 A2962 RMK SF5SC3 WND ESTD DUE ICE ACCRETION SLP031

CYYG;2009-03-03 05:49;CYYG 030549Z 18010KT 10SM -RA FEW002 BKN005 OVC070 00/ RERA RMK SF2SF4AC2 WND ESTD DUE ICE ACCRETION

CYYG;2009-03-03 06:00;CYYG 030600Z 18005KT 10SM -RA FEW002 SCT005 OVC068 00/00 A2959 RERA RMK SF1SF3AC4 WND ESTD DUE ICE ACCRETION SLP022

CYYG;2009-03-03 06:43;CYYG 030643Z 18005KT 8SM -RA BKN004 OVC010 00/ RMK SF5SF3 WND ESTD DUE ICE ACCRETION

CYYG;2009-03-03 07:00;CYYG 030700Z 18005KT 8SM -RA FEW004 OVC007 00/00 A2960 RMK SF2SF6 WND ESTD DUE ICE ACCRETION SLP024

CYYG;2009-03-03 07:28;CYYG 030728Z 18005KT 5/8SM -RA BR OVC005 00/ RMK FG6SF2 WND ESTD DUE ICE ACCRETION

CYYG;2009-03-03 08:00;CYYG 030800Z 18005KT 1 1/2SM -RA BR OVC004 00/00 A2956 RMK FG6SF2 WND ESTD DUE ICE ACCRETION SLP013

CYYG;2009-03-03 08:15;CYYG 030815Z 18005KT 3SM -RA BR OVC002 00/ RMK SF8 WND ESTD DUE ICE ACCRETION

CYYG;2009-03-03 09:00;CYYG 030900Z 18005KT 3/4SM -DZ BR OVC002 00/00 A2960 RMK SF8 WIND ESTD DUE ICE ACCRETION SLP026

CYYG;2009-03-03 09:40;CYYG 030940Z 27005KT 3SM BR OVC002 M00/ RMK SF8 WND ESTD DUE ICE ACCRETION

CYYG;2009-03-03 10:00;CYYG 031000Z 27010KT 3SM BR OVC003 M00/M00 A2963 RMK SF8 WND ESTD DUE ICE ACCRETION SLP037

CYYG;2009-03-03 10:30;CYYG 031030Z 27010KT 1 1/2SM -FZDZ BR OVC002 M01/ RMK SF8 WND ESTD DUE ICE ACCRETION

CYYG;2009-03-03 11:00;CYYG 031100Z CCA 27010KT 3SM -FZDZ BR BKN002 OVC006 M03/M03 A2970 RMK SF6SF2 WND ESTD DUE ICE ACCRETION PRESRR SLP060

CYYG;2009-03-03 12:00;CYYG 031200Z 27010KT 4SM -FZDZ BR BKN002 OVC006 M04/M05 A2974 RMK SF6SF2 WND ESTD DUE ICE ACCRETION SLP073

CYYG;2009-03-03 12:49;CYYG 031249Z 27010KT 4SM BR OVC005 M04/ REFZDZ RMK SF8 CIG RGD/WND ESTD DUE ICE ACCRETION

CYYG;2009-03-03 13:00;CYYG 031300Z 27010KT 6SM BR OVC005 M04/M05 A2977 REFZDZ RMK SF8 WND ESTD DUE ICE ACCRETION/CIG RGD SLP083

CYYG;2009-03-03 13:46;CYYG 031346Z 27010KT 6SM BR OVC006 M04/ REFZDZ RMK SF8 WND ESTD DUE ICE ACCRETION CIG RGD

CYYG;2009-03-03 14:00;CYYG 031400Z 27010KT 6SM BR OVC005 M04/M05 A2979 REFZDZ RMK SF8 WND EST DUE ICE ACCRETION VSBY S 4 CIG RGD SLP089

CYYG;2009-03-03 15:00;CYYG 031500Z 27010KT 3SM -FZDZ BR OVC005 M04/M05 A2980 RMK SF8 WND EST DUE ICE ACCRETION CIG RGD SLP094

CYYG;2009-03-03 15:37;CYYG 031537Z 27012KT 3SM -FZDZ BR OVC007 M05/ RMK SF8 WND EST DUE ICE ACCRETION CIG RGD

CYYG;2009-03-03 16:00;CYYG 031600Z 27012KT 3SM -FZDZ BR OVC006 M05/M05 A2981 RMK SF8 WND EST DUE ICE ACCRETION CIG RGD SLP098

CYYG;2009-03-03 16:44;CYYG 031644Z 27012KT 2 1/2SM -FZDZ BR OVC007 M05/ RMK SF8 WND EST DUE ICE ACCRETION CIG RAG

CYYG;2009-03-03 17:00;CYYG 031700Z 27012KT 2 1/2SM -FZDZ BR OVC008 M05/M06 A2982 RMK SF8 WND EST DUE ICE ACCRETION CIG RAG SLP102

CYYG;2009-03-03 18:00;CYYG 031800Z 27012KT 3SM -FZDZ BR OVC008 M05/M06 A2985 RMK SF8 WND EST DUE ICE ACCRETION CIG RAG SLP109

CYYG;2009-03-03 18:31;CYYG 031831Z 27012KT 3SM BR OVC007 M05/ REFZDZ RMK SF8 WND EST DUE ICE ACCRETION CIG RAG

CYYG;2009-03-03 19:00;CYYG 031900Z 32006KT 3SM BR OVC007 M05/M06 A2985 REFZDZ RMK SF8 CIG RAG SLP112

CYYG;2009-03-03 20:00;CYYG 032000Z 33006KT 3SM BR OVC007 M05/M06 A2987 RMK SF8 CIG RAG SLP117

CYYG;2009-03-03 20:16;CYYG 032016Z 33005KT 2 1/2SM -FZDZ BR OVC007 M05/ RMK SF8 CIG RAG

CYYG;2009-03-03 20:31;CYYG 032031Z 34004KT 2SM -FZDZ BR OVC007 M05/ RMK SF8 CIG RAG

CYYG;2009-03-03 21:00;CYYG 032100Z 32003KT 2SM -FZDZ BR OVC007 M05/M06 A2990 RMK SF8 CIG RAG SLP127

CYYG;2009-03-03 22:00;CYYG 032200Z 33004KT 2SM -FZDZ BR OVC005 M05/M06 A2990 RMK SF8 CIG RAG SLP129

CYYG;2009-03-03 23:00;CYYG 032300Z 00000KT 4SM -FZDZ BR BKN005 OVC010 M05/M06 A2993 RMK SF6SC2 CIG RAG SLP139

CYYG;2009-03-03 23:13;CYYG 032313Z 27002KT 4SM -SG BR BKN005 OVC010 M05/ RMK SF6SC2

CYYG;2009-03-03 23:44;CYYG 032344Z 00000KT 6SM -SN BR SCT010 OVC024 M05/ RMK SF4SC4

CYYG;2009-03-03 23:47;CYYG 032347Z 00000KT 6SM -SN BR SCT010 OVC024 M05/ REFZDZ RMK SF4SC4

CYYG;2009-03-04 00:00;CYYG 040000Z 23002KT 10SM -SN FEW004 BKN011 OVC018 M05/M05 A2995 REFZDZ RMK SF2SF4SC2 SLP146

CYYG;2009-03-04 00:20;CYYG 040020Z 24003KT 8SM -SN -FZDZ BKN006 OVC011 M05/ RMK SF5SF3

CYYG;2009-03-04 01:00;CYYG 040100Z 26005KT 10SM -SN -FZDZ SCT004 OVC027 M05/M05 A2996 RMK SF4SC4 SLP149

CYYG;2009-03-04 01:17;CYYG 040117Z 26004KT 8SM -SN FEW004 BKN038 M05/ REFZDZ RMK SF2SC6

CYYG;2009-03-04 02:00;CYYG 040200Z 25004KT 5SM -SN BKN010 OVC023 M05/M05 A2997 REFZDZ RMK SF5SC3 SLP153

CYYG;2009-03-04 03:00;CYYG 040300Z 31007KT 15SM -SN BKN009 OVC025 M05/M06 A2998 RMK SF6SC2 SLP156

CYYG;2009-03-04 03:40;CYYG 040340Z 30008KT 15SM -SN SCT008 OVC020 M06/ RMK SF3SC5

CYYG;2009-03-04 04:00;CYYG 040400Z 28004KT 15SM -SN FEW008 OVC020 M06/M08 A2998 RMK SF2SC6 SLP157

CYYG;2009-03-04 05:00;CYYG 040500Z 33008KT 10SM -SN BKN010 OVC023 M08/M09 A2999 RMK SC6SC2 SLP159

CYYG;2009-03-04 06:00;CYYG 040600Z 32010KT 15SM -SN FEW013 BKN023 OVC031 M09/M11 A3000 RMK SC2SC3SC2 SLP161

CYYG;2009-03-04 07:00;CYYG 040700Z 29005KT 15SM -SN FEW013 OVC036 M09/M11 A3000 RMK SC2SC6 SLP162

CYYG;2009-03-04 08:00;CYYG 040800Z 30008KT 15SM -SN OVC031 M09/M12 A2998 RMK SC8 SLP157

CYYG;2009-03-04 08:32;CYYG 040832Z 31008KT 15SM OVC030 M10/ RMK SC8

CYYG;2009-03-04 09:00;CYYG 040900Z 30005KT 15SM FEW032 M10/M13 A2999 RMK SC2 SLP159

CYYG;2009-03-04 10:00;CYYG 041000Z 27005KT 15SM FEW032 M11/M14 A3000 RMK SC1 SLP163

CYYG;2009-03-04 11:00;CYYG 041100Z 29007KT 15SM FEW032 M12/M14 A3000 RMK SC1 SLP161

CYYG;2009-03-04 12:00;CYYG 041200Z 29008KT 15SM FEW030 M12/M14 A3001 RMK SC1 SLP164

CYYG;2009-03-04 13:00;CYYG 041300Z 31009KT 15SM FEW030 M11/M13 A3003 RMK SC1 SLP171

CYYG;2009-03-04 14:00;CYYG 041400Z 32008KT 15SM FEW030 FEW200 M10/M13 A3002 RMK SC1CI1 SLP168

CYYG;2009-03-04 15:00;CYYG 041500Z 33007KT 15SM FEW030 M10/M13 A2999 RMK SC2 SLP160

CYYG;2009-03-04 16:00;CYYG 041600Z 32007KT 15SM SCT017 M09/M13 A2998 RMK SC4 SHSN W SLP154

CYYG;2009-03-04 16:52;CYYG 041652Z 29008KT 8SM -SHSN BKN020 M09/ RMK SC6 VSBY LWR W

CYYG;2009-03-04 17:00;CYYG 041700Z 29008KT 8SM -SHSN BKN019 M09/M12 A2996 RMK SC6 VSBY LWR W SLP148

CYYG;2009-03-04 18:00;CYYG 041800Z 26010KT 12SM -SHSN BKN025 M09/M12 A2994 RMK SC6 VSBY LWR NW-NE SLP142

CYYG;2009-03-04 19:00;CYYG 041900Z 28008KT 15SM BKN025 M09/M13 A2993 RMK SC6 SHSN NE AND W SLP138

CYYG;2009-03-04 20:00;CYYG 042000Z 27008KT 15SM VCSH BKN032 M09/M13 A2993 RMK SC6 SLP139

CYYG;2009-03-04 21:00;CYYG 042100Z 27009KT 15SM FEW025 BKN037 M08/M12 A2993 RMK SC2SC3 SHSN E AND W SLP138

CYYG;2009-03-04 22:00;CYYG 042200Z 25003KT 15SM SCT030 M09/M12 A2994 RMK SC4 SHSN S SLP142

CYYG;2009-03-04 23:00;CYYG 042300Z 24002KT 15SM BKN054 M09/M11 A2996 RMK SC5 SLP149

CYYG;2009-03-04 23:06;CYYG 042306Z 23002KT 12SM -SHSN BKN051 M09/ RMK SC6

CYYG;2009-03-05 00:00;CYYG 050000Z 25003KT 15SM -SHSN FEW040 BKN060 M08/M09 A2996 RMK SC2SC5 SLP150

CYYG;2009-03-05 01:00;CYYG 050100Z 29007KT 15SM -SHSN SCT062 M10/M12 A2999 RMK SC3 SLP158

CYYG;2009-03-05 02:00;CYYG 050200Z 26004KT 15SM -SHSN SCT061 M10/M12 A2999 RMK SC2 SLP158

CYYG;2009-03-05 02:45;CYYG 050245Z 24004KT 15SM FEW061 M11/ RMK SC2

CYYG;2009-03-05 03:00;CYYG 050300Z 24004KT 15SM FEW060 M11/M13 A2998 RMK SC2 SLP157

CYYG;2009-03-05 03:33;CYYG 050333Z 27006KT 10SM -SHSN SCT020 M11/ RMK SC4

CYYG;2009-03-05 04:00;CYYG 050400Z 27005KT 15SM -SHSN FEW018 M11/M14 A2998 RMK SC2 SLP155

CYYG;2009-03-05 05:00;CYYG 050500Z 28008KT 10SM -SHSN BKN020 M12/M14 A2998 RMK SC5 SLP156

CYYG;2009-03-05 06:00;CYYG 050600Z 27007KT 15SM FEW020 FEW040 M12/M15 A2998 RMK SC1SC1 SLP154

CYYG;2009-03-05 07:00;CYYG 050700Z 26009KT 15SM SKC M13/M16 A2996 RMK SLP150

CYYG;2009-03-05 08:00;CYYG 050800Z 27010G15KT 15SM SKC M13/M16 A2996 RMK FROIN SLP150

CYYG;2009-03-05 09:00;CYYG 050900Z 27011G16KT 15SM SKC M13/M16 A2997 RMK FROIN SLP153

CYYG;2009-03-05 10:00;CYYG 051000Z 26009KT 15SM FEW040 FEW250 M13/M16 A2998 RMK SC1CI1 FROIN SLP158

CYYG;2009-03-05 11:00;CYYG 051100Z 27010KT 15SM FEW030 SCT250 M13/M15 A3000 RMK SC1CI1 SLP163

CYYG;2009-03-05 11:25;CYYG 051125Z 27010KT 15SM -SHSN DRSN BKN056 M13/ RMK SC6

CYYG;2009-03-05 12:00;CYYG 051200Z 28011G17KT 15SM DRSN FEW020 BKN060 M12/M14 A3003 RMK SC1SC6 SLP172

CYYG;2009-03-05 13:00;CYYG 051300Z 29015KT 15SM DRSN VCSH FEW020 SCT060 M11/M13 A3005 RMK SC1SC2 SLP179

CYYG;2009-03-05 14:00;CYYG 051400Z 30011G18KT 15SM DRSN FEW020 SCT060 M09/M12 A3008 RMK SC2SC2 SLP189

CYYG;2009-03-05 15:00;CYYG 051500Z 31020G26KT 15SM DRSN BKN020 M09/M12 A3010 RMK SC6 SLP198

CYYG;2009-03-05 16:00;CYYG 051600Z 31017G24KT 15SM DRSN BKN022 M08/M13 A3012 RMK SC6 SLP205

CYYG;2009-03-05 17:00;CYYG 051700Z 31017G24KT 15SM BKN027 M08/M12 A3013 RMK SC6 SLP207

CYYG;2009-03-05 18:00;CYYG 051800Z 30015G21KT 15SM BKN044 M08/M12 A3014 RMK SC6 SLP212

CYYG;2009-03-05 19:00;CYYG 051900Z 29014G19KT 15SM FEW030 BKN210 M07/M12 A3016 RMK SC2CI2 SLP218

CYYG;2009-03-05 20:00;CYYG 052000Z 28011KT 15SM FEW030 BKN210 M06/M11 A3017 RMK SC1CI1 SLP222

CYYG;2009-03-05 21:00;CYYG 052100Z 27008KT 15SM FEW025 FEW035 M06/M11 A3019 RMK SC1SC1 SLP228

CYYG;2009-03-05 22:00;CYYG 052200Z 27007KT 15SM FEW025 FEW210 M06/M11 A3021 RMK SC1CI1 SC TR SLP234

CYYG;2009-03-05 23:00;CYYG 052300Z 27005KT 15SM FEW025 M07/M11 A3025 RMK SC1 SLP248

CYYG;2009-03-06 00:00;CYYG 060000Z 27003KT 15SM FEW025 M07/M11 A3028 RMK SC1 SLP257

CYYG;2009-03-06 01:00;CYYG 060100Z 31004KT 15SM FEW025 M09/M11 A3029 RMK SC1 SLP262

CYYG;2009-03-06 02:00;CYYG 060200Z 27004KT 15SM SKC M08/M11 A3031 RMK SLP267

CYYG;2009-03-06 03:00;CYYG 060300Z 30003KT 15SM SKC M10/M12 A3032 RMK SLP272

CYYG;2009-03-06 04:00;CYYG 060400Z 26003KT 15SM SKC M11/M12 A3033 RMK SLP273

CYYG;2009-03-06 05:00;CYYG 060500Z 16013KT 15SM SKC M09/M12 A3034 RMK SLP278

CYYG;2009-03-06 06:00;CYYG 060600Z 28004KT 15SM SKC M10/M13 A3034 RMK SLP279

CYYG;2009-03-06 07:00;CYYG 060700Z 28004KT 15SM SKC M10/M13 A3035 RMK SLP280

CYYG;2009-03-06 08:00;CYYG 060800Z 29004KT 15SM SKC M10/M13 A3036 RMK SLP283

CYYG;2009-03-06 09:00;CYYG 060900Z 29003KT 15SM SKC M12/M15 A3037 RMK SLP289

CYYG;2009-03-06 10:00;CYYG 061000Z 26004KT 15SM SKC M10/M13 A3038 RMK SLP292

CYYG;2009-03-06 11:00;CYYG 061100Z 26002KT 15SM SKC M12/M14 A3039 RMK SLP294

CYYG;2009-03-06 12:00;CYYG 061200Z CCA 16002KT 15SM BKN280 M10/M12 A3039 RMK CS2 SLP296

CYYG;2009-03-06 13:00;CYYG 061300Z 17002KT 15SM BKN200 M09/M11 A3038 RMK CS5 SLP292

CYYG;2009-03-06 14:00;CYYG 061400Z 14004KT 15SM BKN200 M07/M11 A3036 RMK CS6 SLP284

CYYG;2009-03-06 15:00;CYYG 061500Z 16007KT 15SM FEW120 BKN190 M05/M10 A3033 RMK AC1AS6 SHSN DIST NW SLP275

CYYG;2009-03-06 16:00;CYYG 061600Z 16008KT 15SM SCT120 OVC180 M04/M09 A3031 RMK AC3AS4 SLP266

CYYG;2009-03-06 17:00;CYYG 061700Z 17011KT 15SM FEW080 OVC100 M03/M09 A3028 RMK AC2AS6 SLP256

CYYG;2009-03-06 18:00;CYYG 061800Z 19013KT 3SM -SHSN OVC020 M02/M06 A3025 RMK SC8 SLP246

CYYG;2009-03-06 18:22;CYYG 061822Z 18012KT 2 1/2SM -SHSN OVC018 M03/ RMK SC8

CYYG;2009-03-06 19:00;CYYG 061900Z 18012G17KT 2 1/2SM -SN OVC015 M03/M04 A3022 RMK SC8 SLP235

CYYG;2009-03-06 19:15;CYYG 061915Z 17013KT 1 1/2SM -SN OVC010 M03/ RMK SN2SC6

CYYG;2009-03-06 19:34;CYYG 061934Z 17014KT 1SM R03/5000FT/U -SN OVC006 M03/ RMK SN2SF6

CYYG;2009-03-06 20:00;CYYG 062000Z 16016KT 1 1/2SM -SN OVC005 M02/M03 A3017 RMK SN2SF6 SLP221

CYYG;2009-03-06 20:37;CYYG 062037Z 16013KT 3/4SM R03/3500VP6000FT/D -SN OVC005 M02/ RMK SN3SF5

CYYG;2009-03-06 21:00;CYYG 062100Z 16012KT 3/4SM R03/4500FT/N -SN OVC005 M02/M02 A3015 RMK SN3SF5 SLP214

CYYG;2009-03-06 21:27;CYYG 062127Z 16013KT 5/8SM R03/3000FT/U -SN OVC005 M02/ RMK SN6SF2

CYYG;2009-03-06 22:00;CYYG 062200Z 16014KT 3/4SM R03/P6000FT/U -SN OVC005 M01/M02 A3011 RMK SN6SF2 SLP199

CYYG;2009-03-06 22:25;CYYG 062225Z 16016KT 5/8SM R03/4500VP6000FT/D -SN OVC004 M01/ RMK SN6SF2

CYYG;2009-03-06 23:00;CYYG 062300Z 16017KT 3/4SM R03/5500FT/N -PLSN OVC003 M01/M01 A3006 RMK SN6SF2 /S02/ SLP184

CYYG;2009-03-06 23:11;CYYG 062311Z 16018KT 1 1/2SM -PLSN OVC004 M01/ RMK SN5SF3

CYYG;2009-03-07 00:00;CYYG 070000Z 16017G22KT 2SM -SNPL OVC004 M01/M01 A3001 RMK SF8 /S03/ SLP165

CYYG;2009-03-07 01:00;CYYG 070100Z 17022G28KT 2SM -SNPL OVC003 M01/M01 A2995 RMK SF8 /S01/ PRESFR SLP144

CYYG;2009-03-07 01:36;CYYG 070136Z 17018G25KT 5SM -SN -FZRA BKN003 OVC016 M01/ RMK SF6SC2

CYYG;2009-03-07 01:54;CYYG 070154Z 17018KT 10SM -SN BKN005 OVC014 M00/ RMK SF5SC3

CYYG;2009-03-07 02:00;CYYG 070200Z 17019KT 10SM -SN SCT005 OVC014 M00/M00 A2989 RMK SF4SC4 SLP125

CYYG;2009-03-07 02:44;CYYG 070244Z 17018G24KT 12SM SCT005 OVC016 01/ RMK SF3SC5

CYYG;2009-03-07 03:00;CYYG 070300Z 17018G24KT 12SM SCT005 OVC015 01/00 A2981 RMK SF3SC5 PRESFR SLP098

CYYG;2009-03-07 03:41;CYYG 070341Z 18022G27KT 12SM OVC010 02/ RMK SF8

CYYG;2009-03-07 04:00;CYYG 070400Z 18023G29KT 12SM OVC009 02/02 A2974 RMK SF8 PRESFR SLP073

CYYG;2009-03-07 04:22;CYYG 070422Z 20020G27KT 10SM -SHRA OVC009 02/ RMK SF8

CYYG;2009-03-07 05:00;CYYG 070500Z 18014G20KT 5SM -SHRA BR OVC007 02/02 A2973 RMK SF8 SLP069

CYYG;2009-03-07 06:00;CYYG 070600Z 18014G20KT 5SM -SHRA BR SCT004 OVC009 02/02 A2966 RMK SF3SF5 RERA PRESFR SLP047

CYYG;2009-03-07 07:00;CYYG 070700Z 18009KT 12SM -SHRA SCT004 OVC008 02/02 A2963 RMK SF3SF5 SLP037

CYYG;2009-03-07 08:00;CYYG 070800Z 21010KT 12SM -SHRA BKN004 OVC008 03/03 A2960 RMK SF5SC3 SLP027

CYYG;2009-03-07 09:00;CYYG 070900Z 22010G15KT 12SM -SHRA BKN004 OVC008 03/03 A2960 RMK SF5SF3 SLP027

CYYG;2009-03-07 09:19;CYYG 070919Z 23010G15KT 12SM SCT004 OVC008 03/ RMK SF3SF5

CYYG;2009-03-07 10:00;CYYG 071000Z 23010G16KT 12SM FEW004 OVC007 03/02 A2962 RMK SF2SF6 SLP031

CYYG;2009-03-07 11:00;CYYG 071100Z 24007KT 12SM OVC007 03/02 A2963 RMK SF8 SLP034

CYYG;2009-03-07 12:00;CYYG 071200Z 25010KT 12SM BKN007 OVC025 03/02 A2965 RMK SF6SC2 SLP042

CYYG;2009-03-07 12:53;CYYG 071253Z 25009KT 12SM SCT008 BKN012 OVC040 03/ RMK SF3SC2SC2

CYYG;2009-03-07 13:00;CYYG 071300Z 27009KT 12SM FEW008 BKN012 OVC040 03/03 A2966 RMK SF2SC3SC2 SLP046

CYYG;2009-03-07 14:00;CYYG 071400Z 29016G21KT 15SM FEW012 BKN016 BKN110 05/03 A2969 RMK SC2SC3AC2 SLP055

CYYG;2009-03-07 15:00;CYYG 071500Z 29014G20KT 15SM BKN016 BKN110 05/02 A2971 RMK SC6AC1 SLP061

CYYG;2009-03-07 16:00;CYYG 071600Z 29018G26KT 15SM BKN020 BKN080 05/01 A2973 RMK SC5AC1 SLP068

CYYG;2009-03-07 17:00;CYYG 071700Z 30016G24KT 15SM FEW025 BKN052 OVC080 04/00 A2975 RMK SC2SC5AC2 SLP075

CYYG;2009-03-07 18:00;CYYG 071800Z 29017G22KT 15SM FEW028 SCT040 04/M01 A2978 RMK SC2SC2 SLP086

CYYG;2009-03-07 19:00;CYYG 071900Z 29012G17KT 15SM FEW030 BKN042 03/M03 A2980 RMK SC2SC6 SLP092

CYYG;2009-03-07 20:00;CYYG 072000Z 29008KT 15SM OVC036 03/M03 A2982 RMK SC8 SLP099

CYYG;2009-03-07 21:00;CYYG 072100Z 28004KT 15SM OVC038 03/M03 A2983 RMK SC8 SLP102

CYYG;2009-03-07 22:00;CYYG 072200Z 29008KT 15SM BKN038 03/M02 A2985 RMK SC7 SLP110

CYYG;2009-03-07 23:00;CYYG 072300Z 30005KT 15SM FEW035 SCT250 02/M02 A2988 RMK SC2CI1 SLP121

CYYG;2009-03-08 00:00;CYYG 080000Z 26004KT 15SM FEW035 01/M03 A2990 RMK SC2 SLP128

CYYG;2009-03-08 01:00;CYYG 080100Z 28005KT 15SM FEW035 00/M03 A2991 RMK SC1 SLP132

CYYG;2009-03-08 02:00;CYYG 080200Z 27004KT 15SM FEW035 M00/M04 A2991 RMK SC1 SLP132

CYYG;2009-03-08 03:00;CYYG 080300Z 27005KT 15SM FEW220 M00/M04 A2990 RMK CI2 SLP129

CYYG;2009-03-08 04:00;CYYG 080400Z 23002KT 15SM SCT190 M01/M04 A2992 RMK AC3 SLP133

CYYG;2009-03-08 05:00;CYYG 080500Z 00000KT 15SM FEW037 BKN140 M01/M04 A2990 RMK SC2AC3 SLP128

CYYG;2009-03-08 06:00;CYYG 080600Z 22003KT 15SM FEW035 BKN140 M01/M03 A2986 RMK SC2AC4 SLP114

CYYG;2009-03-08 07:00;CYYG 080700Z 22006KT 15SM FEW035 BKN120 M01/M03 A2986 RMK SC2AC5 SLP113

CYYG;2009-03-08 08:00;CYYG 080800Z 23006KT 15SM BKN120 M01/M03 A2986 RMK AC6 SLP113

CYYG;2009-03-08 09:00;CYYG 080900Z 23004KT 15SM FEW040 BKN076 M00/M03 A2985 RMK SC1AC6 SLP110

CYYG;2009-03-08 10:00;CYYG 081000Z 23004KT 15SM OVC042 M00/M03 A2982 RMK SC8 SLP101

CYYG;2009-03-08 10:21;CYYG 081021Z 23005KT 6SM -SN OVC025 00/ RMK SC8

CYYG;2009-03-08 11:00;CYYG 081100Z 22003KT 3SM -SN OVC030 M00/M02 A2982 RMK SC8 SLP100

CYYG;2009-03-08 12:00;CYYG 081200Z 25002KT 2 1/2SM -SN OVC025 M01/M01 A2980 RMK SC8 SLP093

CYYG;2009-03-08 12:25;CYYG 081225Z 24002KT 1SM R03/P6000FT/D -SN VV009 M01/ RMK SN8

CYYG;2009-03-08 13:00;CYYG 081300Z 23002KT 3/4SM R03/4500FT/N -SN VV008 M01/M01 A2979 RMK SN8 /S01/ SLP091

CYYG;2009-03-08 14:00;CYYG 081400Z 25003KT 1SM R03/5000FT/D -SN VV003 M00/M00 A2979 RMK SN8 SLP089

CYYG;2009-03-08 15:00;CYYG 081500Z 00000KT 1 1/2SM -SN VV004 01/00 A2974 RMK SN8 /S02/ SLP074

CYYG;2009-03-08 16:00;CYYG 081600Z 03002KT 2SM -SN BKN003 OVC012 01/00 A2971 RMK SF6SC2 SLP065

CYYG;2009-03-08 17:00;CYYG 081700Z 32009KT 2SM -SN FEW003 OVC007 01/00 A2969 RMK SF2SC6 SLP057

CYYG;2009-03-08 17:09;CYYG 081709Z 01004KT 3/4SM R03/6000FT/D -SN BKN003 OVC009 01/ RMK SN2SF4SF2

CYYG;2009-03-08 17:23;CYYG 081723Z 01006KT 2SM -SN BKN003 OVC007 01/ RMK SF6SF2

CYYG;2009-03-08 18:00;CYYG 081800Z 01006KT 3SM -SN BKN003 OVC005 00/00 A2967 RMK SF5SF3 SLP049

CYYG;2009-03-08 19:00;CYYG 081900Z 36005KT 3SM -SN OVC004 00/00 A2967 RMK SF8 SLP049

CYYG;2009-03-08 20:00;CYYG 082000Z 36006KT 5SM -SN BKN004 BKN010 M00/M01 A2968 RMK SF6SF2 SLP051

CYYG;2009-03-08 21:00;CYYG 082100Z 33003KT 5SM -SN OVC005 M00/M00 A2970 RMK SF8 SLP061

CYYG;2009-03-08 22:00;CYYG 082200Z 33004KT 5SM -SN FEW003 OVC018 M00/M01 A2973 RMK SF2SC6 SLP069

CYYG;2009-03-08 23:00;CYYG 082300Z 35002KT 4SM -SN FEW008 OVC013 M01/M01 A2974 RMK SF2SC6 SLP074

CYYG;2009-03-09 00:00;CYYG 090000Z 00000KT 4SM -SN BKN007 OVC011 M01/M01 A2975 RMK SF6SC2 SLP078

CYYG;2009-03-09 01:00;CYYG 090100Z 17002KT 3SM -SN OVC009 M01/M01 A2976 RMK SF8 SLP081

CYYG;2009-03-09 01:07;CYYG 090107Z 17002KT 1 1/2SM -SN BR OVC007 M01/ RMK SF8

CYYG;2009-03-09 01:36;CYYG 090136Z 14002KT 3/4SM R03/6000FT/N -SN BR OVC007 M01/ RMK SF8

CYYG;2009-03-09 02:00;CYYG 090200Z 20003KT 3/4SM R03/P6000FT/D -SN BR BKN004 OVC009 M00/M00 A2977 RMK SF6SF2 SLP085

CYYG;2009-03-09 03:00;CYYG 090300Z 24006KT 3/4SM R03/P6000FT/U -SN BR OVC006 M00/M00 A2978 RMK SF8 SLP086

CYYG;2009-03-09 03:27;CYYG 090327Z 31012KT 3SM -SN BR BKN007 OVC017 01/ RMK SF6SC2

CYYG;2009-03-09 03:36;CYYG 090336Z 32014G20KT 6SM BR SCT008 OVC020 01/ RMK SF3SC5

CYYG;2009-03-09 04:00;CYYG 090400Z 32016G22KT 5SM BR BKN012 OVC021 01/M01 A2980 RMK SF5SC3 SLP095

CYYG;2009-03-09 05:00;CYYG 090500Z 32016KT 10SM BKN018 00/M02 A2982 RMK SC6 SLP102

CYYG;2009-03-09 06:00;CYYG 090600Z 30013G19KT 10SM OVC009 M01/M02 A2984 RMK SF8 SLP106

CYYG;2009-03-09 06:43;CYYG 090643Z 33007KT 2 1/2SM -SN BR OVC004 M01/ RMK SF8

CYYG;2009-03-09 07:00;CYYG 090700Z 34008KT 4SM -SN BR OVC004 M01/M01 A2986 RMK SF8 SLP114

CYYG;2009-03-09 08:00;CYYG 090800Z 36013G20KT 4SM -SN OVC006 M02/M03 A2990 RMK SF8 SLP126

CYYG;2009-03-09 09:00;CYYG 090900Z 36012G21KT 5SM -SHSN SCT011 BKN026 M03/M04 A2994 RMK SF4SC2 SLP140

CYYG;2009-03-09 09:39;CYYG 090939Z 36012G18KT 15SM SCT025 M03/ RMK SC3

CYYG;2009-03-09 10:00;CYYG 091000Z 36011G16KT 15SM FEW030 M04/M05 A2997 RMK SC2 SLP151

CYYG;2009-03-09 11:00;CYYG 091100Z 36008KT 15SM FEW008 FEW030 M05/M06 A3000 RMK SF1SC1 SLP160

CYYG;2009-03-09 12:00;CYYG 091200Z 36015G20KT 15SM DRSN FEW030 FEW250 M05/M07 A3003 RMK SC1CI1 SLP171

CYYG;2009-03-09 13:00;CYYG 091300Z 36010G16KT 15SM DRSN FEW015 FEW250 M04/M07 A3006 RMK CU1CI1 SLP184

CYYG;2009-03-09 14:00;CYYG 091400Z 01012G17KT 15SM FEW020 FEW250 M04/M08 A3008 RMK CU1CI1 SLP190

CYYG;2009-03-09 15:00;CYYG 091500Z 36012G18KT 15SM FEW018 SCT250 M04/M08 A3011 RMK CU2CI1 SLP198

CYYG;2009-03-09 16:00;CYYG 091600Z 01011KT 15SM SCT018 BKN250 M04/M08 A3011 RMK CU3CI1 SLP198

CYYG;2009-03-09 17:00;CYYG 091700Z 36013KT 15SM SCT018 BKN250 M04/M08 A3011 RMK CU3CI1 SLP200

CYYG;2009-03-09 18:00;CYYG 091800Z 36010G16KT 15SM FEW019 BKN250 M04/M08 A3012 RMK CU2CI2 SLP202

CYYG;2009-03-09 19:00;CYYG 091900Z 36012KT 15SM SCT019 BKN250 M05/M08 A3011 RMK CU3CI2 SLP198

CYYG;2009-03-09 20:00;CYYG 092000Z 36009KT 15SM BKN018 BKN250 M05/M08 A3011 RMK CU5CI2 SLP200

CYYG;2009-03-09 21:00;CYYG 092100Z 01007KT 15SM BKN015 BKN250 M06/M08 A3012 RMK CU5CI1 SLP202

CYYG;2009-03-09 22:00;CYYG 092200Z 34003KT 15SM FEW013 BKN250 M06/M08 A3013 RMK SC2CI2 SLP206

CYYG;2009-03-09 23:00;CYYG 092300Z 36005KT 15SM FEW017 SCT250 M07/M09 A3014 RMK SC1CI1 SLP209

CYYG;2009-03-10 00:00;CYYG 100000Z 35005KT 15SM FEW250 M08/M09 A3015 RMK CI2 SLP214

CYYG;2009-03-10 01:00;CYYG 100100Z 34005KT 15SM FEW250 M08/M09 A3018 RMK CI2 SLP224

CYYG;2009-03-10 02:00;CYYG 100200Z 35005KT 15SM SCT250 M09/M10 A3020 RMK CI2 SLP229

CYYG;2009-03-10 03:00;CYYG 100300Z 34004KT 15SM FEW250 M09/M10 A3022 RMK CI2 SLP235

CYYG;2009-03-10 04:00;CYYG 100400Z 34005KT 15SM FEW250 M09/M10 A3023 RMK CI2 SLP239

CYYG;2009-03-10 05:00;CYYG 100500Z 35004KT 15SM FEW250 M10/M11 A3023 RMK CI1 SLP238

CYYG;2009-03-10 06:00;CYYG 100600Z 35006KT 15SM BKN200 M09/M10 A3022 RMK CI2 SLP237

CYYG;2009-03-10 07:00;CYYG 100700Z 36003KT 15SM BKN200 M09/M10 A3023 RMK CI3 SLP238

CYYG;2009-03-10 08:00;CYYG 100800Z 35005KT 15SM BKN190 M08/M10 A3023 RMK CI3 SLP241

CYYG;2009-03-10 09:00;CYYG 100900Z 34006KT 15SM BKN220 M08/M10 A3026 RMK CI2 SLP250

CYYG;2009-03-10 10:00;CYYG 101000Z 34006KT 15SM SCT150 BKN250 M07/M09 A3028 RMK AC2CI2 SLP256

CYYG;2009-03-10 11:00;CYYG 101100Z 34006KT 15SM BKN150 BKN250 M07/M08 A3030 RMK AC5CI2 SLP263

CYYG;2009-03-10 12:00;CYYG 101200Z 35005KT 15SM FEW150 BKN250 M06/M08 A3032 RMK AC1CS2 SLP270

CYYG;2009-03-10 13:00;CYYG 101300Z 36005KT 15SM FEW150 BKN250 M05/M07 A3033 RMK AC1CS2 SLP276

CYYG;2009-03-10 14:00;CYYG 101400Z 36006KT 15SM FEW150 SCT250 M05/M08 A3034 RMK AC1CI2 SLP279

CYYG;2009-03-10 15:00;CYYG 101500Z 36004KT 15SM FEW250 M03/M08 A3035 RMK CI1 SLP282

CYYG;2009-03-10 16:00;CYYG 101600Z 01009KT 15SM FEW250 M03/M09 A3036 RMK CI1 SLP285

CYYG;2009-03-10 17:00;CYYG 101700Z 36009KT 15SM SKC M03/M09 A3037 RMK SLP287

CYYG;2009-03-10 18:00;CYYG 101800Z 34008KT 15SM SKC M03/M09 A3038 RMK SLP292

CYYG;2009-03-10 19:00;CYYG 101900Z 03008KT 15SM SKC M03/M08 A3037 RMK SLP289

CYYG;2009-03-10 20:00;CYYG 102000Z 06003KT 15SM FEW230 M03/M09 A3035 RMK CI1 CI TR SLP282

CYYG;2009-03-10 21:00;CYYG 102100Z 00000KT 15SM FEW230 M02/M09 A3039 RMK CI1 SLP293

CYYG;2009-03-10 22:00;CYYG 102200Z 08002KT 15SM FEW230 M04/M10 A3037 RMK CI1 SLP288

CYYG;2009-03-10 23:00;CYYG 102300Z 15002KT 15SM FEW270 M04/M09 A3038 RMK CI1 SLP291

CYYG;2009-03-11 00:00;CYYG 110000Z 00000KT 15SM FEW270 M07/M10 A3039 RMK CI1 SLP295

CYYG;2009-03-11 01:00;CYYG 110100Z 00000KT 15SM FEW270 M06/M10 A3038 RMK CI1 FROIN SLP292

CYYG;2009-03-11 02:00;CYYG 110200Z 14003KT 15SM BKN200 M07/M10 A3038 RMK CI2 FROIN SLP291

CYYG;2009-03-11 03:00;CYYG 110300Z 17003KT 15SM BKN200 M07/M10 A3038 RMK CS2 FROIN HALO SLP291

CYYG;2009-03-11 04:00;CYYG 110400Z 20003KT 15SM SCT200 M08/M10 A3038 RMK CS2 FROIN SLP291

CYYG;2009-03-11 05:00;CYYG 110500Z 17005KT 15SM SCT200 M08/M10 A3036 RMK CI1 FROIN SLP286

CYYG;2009-03-11 06:00;CYYG 110600Z 19005KT 15SM FEW200 M08/M09 A3036 RMK CI0 FROIN SLP286

CYYG;2009-03-11 07:00;CYYG 110700Z 17004KT 15SM FEW200 M08/M08 A3036 RMK CI0 FROIN SLP284

CYYG;2009-03-11 08:00;CYYG 110800Z 18007KT 15SM SCT200 M08/M10 A3035 RMK CI1 FROIN SLP281

CYYG;2009-03-11 09:00;CYYG 110900Z 20005KT 15SM FEW170 M07/M10 A3035 RMK AC2 FROIN SLP279

CYYG;2009-03-11 10:00;CYYG 111000Z 18005KT 15SM FEW170 SCT270 M08/M10 A3034 RMK AC1CS2 FROIN SLP277

CYYG;2009-03-11 11:00;CYYG 111100Z 18005KT 15SM FEW170 BKN270 M07/M09 A3033 RMK AC1CS2 SLP275

CYYG;2009-03-11 12:00;CYYG 111200Z 16004KT 15SM SCT180 BKN270 M05/M08 A3032 RMK AC3CS2 SLP270

CYYG;2009-03-11 13:00;CYYG 111300Z 17007KT 15SM SCT170 BKN270 M04/M08 A3029 RMK AC3CS2 SLP262

CYYG;2009-03-11 14:00;CYYG 111400Z 19007KT 15SM SCT160 BKN270 M02/M06 A3028 RMK AC3CS2 SLP259

CYYG;2009-03-11 15:00;CYYG 111500Z 18008KT 15SM BKN150 OVC270 M02/M06 A3027 RMK AC6CS2 SLP252

CYYG;2009-03-11 16:00;CYYG 111600Z 17009KT 15SM BKN150 OVC270 M01/M05 A3024 RMK AC7CS1 SLP243

CYYG;2009-03-11 17:00;CYYG 111700Z 19015G20KT 15SM BKN130 OVC270 01/M06 A3019 RMK AC7CS1 SLP227

CYYG;2009-03-11 18:00;CYYG 111800Z 19011G16KT 15SM BKN070 OVC270 01/M04 A3016 RMK AC7CS1 SLP217

CYYG;2009-03-11 19:00;CYYG 111900Z 19018KT 15SM BKN045 OVC070 01/M04 A3014 RMK SC6AC2 SLP208

CYYG;2009-03-11 19:46;CYYG 111946Z 19019G27KT 3SM -SN BKN016 OVC040 01/ RMK SC5SC3

CYYG;2009-03-11 19:55;CYYG 111955Z 19020G27KT 1 1/2SM -SN BKN011 OVC040 00/ RMK SC7SC1

CYYG;2009-03-11 20:00;CYYG 112000Z 18018G27KT 1 1/2SM -SN OVC012 00/M04 A3011 RMK SC8 SLP200

CYYG;2009-03-11 20:03;CYYG 112003Z 19018G26KT 1SM R03/4000VP6000FT/D -SN SCT006 OVC017 M00/ RMK SF3SC5

CYYG;2009-03-11 20:44;CYYG 112044Z 18019G29KT 3/4SM R03/3500VP6000FT/D -SN DRSN OVC018 M01/ RMK SN5SC3

CYYG;2009-03-11 21:00;CYYG 112100Z 18016G26KT 1/2SM R03/3000FT/U SN DRSN OVC006 M01/M02 A3005 RMK SN6SF2 SLP179

CYYG;2009-03-11 21:18;CYYG 112118Z 18019G24KT 1 1/2SM R03/3000VP6000FT/U -SN DRSN OVC011 M01/ RMK SN6SF2

CYYG;2009-03-11 21:53;CYYG 112153Z 16019G24KT 2 1/2SM -SN DRSN SCT006 OVC040 M01/ RMK SN2SF2SC4

CYYG;2009-03-11 22:00;CYYG 112200Z 16017G24KT 3SM -SN DRSN FEW006 OVC015 M01/M02 A2998 RMK SF2SC6 PRESFR SLP157

CYYG;2009-03-11 22:39;CYYG 112239Z 17021G28KT 6SM DRSN -FZRA SCT005 OVC015 M01/ RMK SF3SC5

CYYG;2009-03-11 22:54;CYYG 112254Z 17023G28KT 8SM DRSN -FZRA BKN005 OVC013 M01/ RMK SF6SC2

CYYG;2009-03-11 23:00;CYYG 112300Z 17020G28KT 8SM DRSN -FZRA BKN005 OVC013 M01/M01 A2993 RMK SF7SC1 SLP139

CYYG;2009-03-12 00:00;CYYG 120000Z 16019G28KT 7SM -FZRA SCT005 OVC013 M00/M01 A2988 RMK SF3SC5 SLP120

CYYG;2009-03-12 00:24;CYYG 120024Z 17019G28KT 12SM -RA FEW005 OVC013 00/ REFZRA RMK SF1SC7

CYYG;2009-03-12 01:00;CYYG 120100Z 17018G24KT 15SM FEW007 OVC013 01/00 A2980 REFZRA RMK SF1SC7 PRESFR SLP095

CYYG;2009-03-12 01:28;CYYG 120128Z 18021KT 15SM -RA FEW007 SCT013 OVC016 01/ RMK SF1SC3SC5

CYYG;2009-03-12 02:00;CYYG 120200Z 18020G26KT 15SM -RA OVC014 03/01 A2976 RMK SC8 SLP080

CYYG;2009-03-12 02:43;CYYG 120243Z 19018G32KT 10SM -RA BKN007 OVC013 03/ RMK SF6SC2

CYYG;2009-03-12 03:00;CYYG 120300Z 19021G27KT 12SM -RA OVC007 03/02 A2972 RMK SF8 SLP067

CYYG;2009-03-12 04:00;CYYG 120400Z 19022G28KT 5SM -RA BR FEW006 OVC014 03/03 A2966 RMK SF2SC6 PRESFR SLP046

CYYG;2009-03-12 04:33;CYYG 120433Z 19022G31KT 5SM -DZ BR FEW005 OVC011 03/ RMK SF2SF6

CYYG;2009-03-12 05:00;CYYG 120500Z 19020G27KT 6SM -DZ BR SCT006 OVC010 04/03 A2963 RMK SF3SF5 SLP036

CYYG;2009-03-12 06:00;CYYG 120600Z 21011KT 8SM -DZ OVC006 04/03 A2964 RMK SF8 SLP038

CYYG;2009-03-12 07:00;CYYG 120700Z 23011G16KT 15SM OVC003 04/04 A2963 RMK SF8 SLP036

CYYG;2009-03-12 08:00;CYYG 120800Z 23009KT 15SM FEW004 SCT030 03/03 A2963 RMK SF1SC3 SLP036

CYYG;2009-03-12 09:00;CYYG 120900Z 28017G26KT 15SM FEW030 BKN045 03/M00 A2968 RMK SC2SC5 SLP051

CYYG;2009-03-12 10:00;CYYG 121000Z 28015G20KT 15SM FEW032 FEW045 01/M06 A2971 RMK SC1SC2 SLP064

CYYG;2009-03-12 11:00;CYYG 121100Z 29018G29KT 15SM FEW040 M01/M07 A2976 RMK SC2 SLP079

CYYG;2009-03-12 12:00;CYYG 121200Z 30019G31KT 15SM BKN030 M02/M07 A2982 RMK SC6 SLP100

CYYG;2009-03-12 13:00;CYYG 121300Z 29023G29KT 15SM VCSH BKN030 M03/M10 A2987 RMK SC6 DIST -SHSN S-W SLP117

CYYG;2009-03-12 13:32;CYYG 121332Z 31018G32KT 15SM FEW030 M04/ RMK SC2

CYYG;2009-03-12 14:00;CYYG 121400Z 29021G27KT 15SM FEW030 M04/M12 A2990 RMK SC2 SLP129

CYYG;2009-03-12 15:00;CYYG 121500Z 30021G30KT 15SM FEW030 M06/M16 A2994 RMK SC1 SLP140

CYYG;2009-03-12 16:00;CYYG 121600Z 28019G30KT 15SM FEW030 FEW250 M05/M14 A2995 RMK CF1CI1 SLP143

CYYG;2009-03-12 17:00;CYYG 121700Z 29015G32KT 15SM FEW030 FEW250 M05/M15 A2996 RMK SC1CI0 SLP147

CYYG;2009-03-12 18:00;CYYG 121800Z 28019G33KT 15SM FEW030 FEW250 M05/M15 A2997 RMK SC1CI0 SLP152

CYYG;2009-03-12 19:00;CYYG 121900Z 27020G25KT 15SM FEW030 FEW250 M05/M14 A3000 RMK SC1CI0 SLP161

CYYG;2009-03-12 20:00;CYYG 122000Z 29017G24KT 15SM FEW040 FEW250 M05/M15 A3001 RMK SC1CI0 SLP163

CYYG;2009-03-12 21:00;CYYG 122100Z 29017G22KT 15SM FEW040 FEW250 M05/M16 A3003 RMK SC1CI1 SLP170

CYYG;2009-03-12 22:00;CYYG 122200Z 28013G19KT 15SM FEW040 FEW250 M06/M17 A3004 RMK SC1CI1 SLP174

CYYG;2009-03-12 23:00;CYYG 122300Z 29009G15KT 15SM SKC M06/M17 A3007 RMK SLP184

CYYG;2009-03-13 00:00;CYYG 130000Z 29012KT 15SM SKC M07/M17 A3009 RMK SLP192

CYYG;2009-03-13 01:00;CYYG 130100Z 31015G20KT 15SM SKC M08/M18 A3012 RMK SLP201

CYYG;2009-03-13 02:00;CYYG 130200Z 30017G26KT 15SM FEW040 M09/M19 A3014 RMK SC1 SLP211

CYYG;2009-03-13 03:00;CYYG 130300Z 31016G22KT 15SM FEW040 M10/M19 A3018 RMK SC1 SLP223

CYYG;2009-03-13 04:00;CYYG 130400Z 31014G27KT 15SM FEW040 M11/M20 A3021 RMK SC1 SLP234

CYYG;2009-03-13 05:00;CYYG 130500Z 31016G22KT 15SM FEW040 M12/M21 A3024 RMK SC1 SLP243

CYYG;2009-03-13 06:00;CYYG 130600Z 31018G24KT 15SM FEW040 M13/M21 A3027 RMK SC1 SLP253

CYYG;2009-03-13 07:00;CYYG 130700Z 30015G24KT 15SM FEW040 M13/M21 A3028 RMK SC1 SLP256

CYYG;2009-03-13 08:00;CYYG 130800Z 29014KT 15SM FEW040 FEW280 M14/M21 A3030 RMK SC1CI1 SLP264

CYYG;2009-03-13 09:00;CYYG 130900Z 29014KT 15SM FEW040 SCT280 M14/M21 A3033 RMK SC1CI1 SLP273

CYYG;2009-03-13 10:00;CYYG 131000Z 29012G17KT 15SM FEW035 FEW280 M15/M21 A3034 RMK SC1CI0 SLP279

CYYG;2009-03-13 11:00;CYYG 131100Z 30010G15KT 15SM FEW035 M15/M21 A3037 RMK SC1 SLP287

CYYG;2009-03-13 12:00;CYYG 131200Z 29016KT 15SM FEW035 M15/M20 A3039 RMK SC1 SLP296

CYYG;2009-03-13 13:00;CYYG 131300Z 30015G24KT 15SM FEW030 M14/M21 A3040 RMK SC1 SLP299

CYYG;2009-03-13 14:00;CYYG 131400Z 30016G24KT 15SM FEW030 M13/M21 A3040 RMK SC1 SLP298

CYYG;2009-03-13 15:00;CYYG 131500Z 29014G20KT 15SM FEW030 M13/M21 A3040 RMK SC1 SLP299

CYYG;2009-03-13 16:00;CYYG 131600Z 29014G21KT 15SM FEW030 M12/M21 A3040 RMK SC0 SLP298

CYYG;2009-03-13 17:00;CYYG 131700Z 29016KT 15SM FEW030 M12/M21 A3038 RMK SC0 SLP291

CYYG;2009-03-13 18:00;CYYG 131800Z 27016KT 15SM SKC M11/M20 A3036 RMK SLP283

CYYG;2009-03-13 19:00;CYYG 131900Z 28014G21KT 15SM SKC M09/M20 A3035 RMK SLP281

CYYG;2009-03-13 20:00;CYYG 132000Z 26013G19KT 15SM SKC M08/M21 A3034 RMK SLP277

CYYG;2009-03-13 21:00;CYYG 132100Z 27012G17KT 15SM SKC M08/M20 A3033 RMK SLP276

CYYG;2009-03-13 22:00;CYYG 132200Z 27007KT 15SM SKC M08/M20 A3033 RMK SLP273

CYYG;2009-03-13 23:00;CYYG 132300Z 26006KT 15SM SKC M09/M20 A3033 RMK SLP275

CYYG;2009-03-14 00:00;CYYG 140000Z 26007KT 15SM SKC M09/M21 A3034 RMK SLP279

CYYG;2009-03-14 01:00;CYYG 140100Z 25007KT 15SM SKC M09/M20 A3034 RMK SLP278

CYYG;2009-03-14 02:00;CYYG 140200Z 24005KT 15SM SKC M09/M21 A3034 RMK SLP277

CYYG;2009-03-14 03:00;CYYG 140300Z 21004KT 15SM SKC M09/M18 A3033 RMK SLP276

CYYG;2009-03-14 04:00;CYYG 140400Z 22004KT 15SM SKC M09/M14 A3033 RMK SLP273

CYYG;2009-03-14 05:00;CYYG 140500Z 21005KT 15SM SKC M09/M14 A3032 RMK SLP272

CYYG;2009-03-14 06:00;CYYG 140600Z 21005KT 15SM SKC M09/M13 A3031 RMK SLP269

CYYG;2009-03-14 07:00;CYYG 140700Z 20006KT 15SM SKC M09/M11 A3029 RMK SLP260

CYYG;2009-03-14 08:00;CYYG 140800Z 22007KT 15SM FEW120 M08/M11 A3027 RMK AC2 SLP255

CYYG;2009-03-14 09:00;CYYG 140900Z 22007KT 15SM FEW120 M08/M11 A3025 RMK AC2 SLP249

CYYG;2009-03-14 10:00;CYYG 141000Z 21009KT 15SM FEW200 M08/M10 A3024 RMK CI1 SLP244

CYYG;2009-03-14 11:00;CYYG 141100Z 21006KT 15SM BKN040 M08/M10 A3024 RMK SC4 SLP243

CYYG;2009-03-14 12:00;CYYG 141200Z 22008KT 15SM BKN027 M06/M09 A3021 RMK SC5 SLP235

CYYG;2009-03-14 13:00;CYYG 141300Z 24009KT 15SM BKN026 M05/M08 A3020 RMK SC6 SLP231

CYYG;2009-03-14 14:00;CYYG 141400Z 23009KT 15SM SCT016 BKN027 M03/M06 A3018 RMK SC3SC3 SLP223

CYYG;2009-03-14 15:00;CYYG 141500Z 22011G17KT 15SM SCT017 BKN230 M02/M05 A3015 RMK SC4CI1 SHSN S SLP214

CYYG;2009-03-14 16:00;CYYG 141600Z 22014G20KT 15SM -SN BKN018 BKN230 M01/M04 A3012 RMK SC5CI1 SLP203

CYYG;2009-03-14 16:24;CYYG 141624Z 23013G18KT 15SM BKN031 BKN230 M01/ RMK SC6CI0

CYYG;2009-03-14 17:00;CYYG 141700Z 23011G22KT 15SM SCT020 BKN230 M00/M04 A3009 RMK CU4CI0 SLP192

CYYG;2009-03-14 18:00;CYYG 141800Z 22017G22KT 15SM FEW040 SCT230 01/M05 A3005 RMK CU2CI0 SLP180

CYYG;2009-03-14 19:00;CYYG 141900Z 22017KT 15SM FEW040 SCT230 02/M05 A3002 RMK CU1CI1 SLP170

CYYG;2009-03-14 20:00;CYYG 142000Z 23013G20KT 15SM FEW040 SCT230 02/M07 A3001 RMK CU1CI2 SLP167

CYYG;2009-03-14 21:00;CYYG 142100Z 25010G17KT 15SM FEW040 BKN230 02/M08 A3002 RMK CU1CI2 CU TR SLP168

CYYG;2009-03-14 22:00;CYYG 142200Z 25012G18KT 15SM SCT230 01/M09 A3002 RMK CI2 SLP168

CYYG;2009-03-14 23:00;CYYG 142300Z 25012G19KT 15SM SCT230 00/M10 A3003 RMK CI2 SLP173

CYYG;2009-03-15 00:00;CYYG 150000Z 25010G18KT 15SM FEW230 M00/M08 A3004 RMK CI2 SLP177

CYYG;2009-03-15 01:00;CYYG 150100Z 25010G18KT 15SM FEW240 M01/M06 A3005 RMK CI2 SLP179

CYYG;2009-03-15 02:00;CYYG 150200Z 25009KT 15SM FEW240 M01/M06 A3005 RMK CI2 SLP179

CYYG;2009-03-15 03:00;CYYG 150300Z 24008KT 15SM FEW240 M01/M06 A3004 RMK CI1 SLP176

CYYG;2009-03-15 04:00;CYYG 150400Z 25007KT 15SM SKC M01/M06 A3004 RMK SLP176

CYYG;2009-03-15 05:00;CYYG 150500Z 25007KT 15SM FEW240 M02/M06 A3004 RMK CI1 SLP175

CYYG;2009-03-15 06:00;CYYG 150600Z 25008KT 15SM SCT240 M01/M06 A3004 RMK CI3 SLP176

CYYG;2009-03-15 07:00;CYYG 150700Z 25007KT 15SM BKN240 M02/M06 A3004 RMK CI6 SLP174

CYYG;2009-03-15 08:00;CYYG 150800Z 27006KT 15SM BKN170 M02/M07 A3005 RMK AC7 SLP177

CYYG;2009-03-15 09:00;CYYG 150900Z 25005KT 15SM SCT090 BKN190 M02/M07 A3006 RMK AC4AS2 SLP180

CYYG;2009-03-15 10:00;CYYG 151000Z 27005KT 15SM SCT082 BKN170 M02/M07 A3006 RMK AC4AS3 SLP181

CYYG;2009-03-15 11:00;CYYG 151100Z 26005KT 15SM SCT088 BKN120 M02/M07 A3007 RMK AC2AS4 SLP186

CYYG;2009-03-15 12:00;CYYG 151200Z 36008KT 15SM BKN140 BKN250 M02/M06 A3011 RMK AC6CI1 SLP197

CYYG;2009-03-15 13:00;CYYG 151300Z 01008KT 15SM FEW030 BKN130 BKN250 M03/M07 A3012 RMK SC1AC5CI1 SLP201

CYYG;2009-03-15 14:00;CYYG 151400Z 01008KT 15SM FEW030 BKN048 BKN130 M03/M07 A3013 RMK SC1SC4AC2 SLP205

CYYG;2009-03-15 15:00;CYYG 151500Z 34008KT 15SM FEW030 BKN047 OVC130 M02/M09 A3014 RMK SC1SC5AC2 SLP208

CYYG;2009-03-15 16:00;CYYG 151600Z 35010KT 15SM FEW030 BKN040 BKN130 OVC230 M03/M08 A3015 RMK SC2SC4AC2CI0 SLP213

CYYG;2009-03-15 17:00;CYYG 151700Z 36008KT 15SM FEW030 BKN042 OVC130 M03/M09 A3015 RMK SC1SC5AC2 SLP214

CYYG;2009-03-15 18:00;CYYG 151800Z 33009KT 15SM FEW030 BKN041 OVC130 M04/M09 A3014 RMK SC1SC6AC2 SC TR SLP209

CYYG;2009-03-15 19:00;CYYG 151900Z 33010G15KT 15SM BKN042 M04/M09 A3014 RMK SC7 SLP211

CYYG;2009-03-15 20:00;CYYG 152000Z 34010KT 15SM SCT040 BKN085 M04/M11 A3015 RMK SC3AC2 SLP213

CYYG;2009-03-15 21:00;CYYG 152100Z 01010G15KT 15SM BKN084 BKN250 M05/M13 A3015 RMK AC3CI0 SLP214

CYYG;2009-03-15 22:00;CYYG 152200Z 36007KT 15SM BKN082 M06/M12 A3017 RMK AC4 SLP220

CYYG;2009-03-15 23:00;CYYG 152300Z 34002KT 15SM BKN047 BKN080 M06/M12 A3020 RMK SC5AC2 SLP229

CYYG;2009-03-16 00:00;CYYG 160000Z 33003KT 15SM BKN045 OVC070 M06/M11 A3021 RMK SC6AC2 SLP233

CYYG;2009-03-16 01:00;CYYG 160100Z 28002KT 15SM BKN049 BKN075 M06/M11 A3022 RMK SC5AC2 SLP236

CYYG;2009-03-16 02:00;CYYG 160200Z 35009KT 15SM SCT050 M06/M14 A3024 RMK SC4 SLP242

CYYG;2009-03-16 03:00;CYYG 160300Z 34008KT 15SM FEW050 M06/M14 A3025 RMK SC2 SLP248

CYYG;2009-03-16 04:00;CYYG 160400Z 01007KT 15SM FEW050 M08/M13 A3028 RMK SC2 SLP255

CYYG;2009-03-16 05:00;CYYG 160500Z 02003KT 15SM FEW050 M09/M14 A3029 RMK SC2 SLP260

CYYG;2009-03-16 06:00;CYYG 160600Z 33002KT 15SM SKC M11/M15 A3031 RMK SLP266

CYYG;2009-03-16 07:00;CYYG 160700Z 28005KT 15SM FEW040 M10/M15 A3031 RMK SC2 SLP266

CYYG;2009-03-16 08:00;CYYG 160800Z 30004KT 15SM FEW040 M11/M14 A3030 RMK SC1 SLP264

CYYG;2009-03-16 09:00;CYYG 160900Z 31004KT 15SM FEW040 M12/M15 A3031 RMK SC1 SLP266

CYYG;2009-03-16 10:00;CYYG 161000Z 31004KT 15SM FEW040 M12/M16 A3031 RMK SC1 SLP268

CYYG;2009-03-16 11:00;CYYG 161100Z 30005KT 15SM FEW040 M11/M15 A3033 RMK SC1 SLP274

CYYG;2009-03-16 12:00;CYYG 161200Z 32007KT 15SM FEW040 M09/M15 A3035 RMK SC1 SLP282

CYYG;2009-03-16 13:00;CYYG 161300Z 31008KT 15SM FEW040 M08/M13 A3036 RMK SC1 SLP285

CYYG;2009-03-16 14:00;CYYG 161400Z 33006KT 15SM FEW040 M07/M12 A3036 RMK SC1 SLP286

CYYG;2009-03-16 15:00;CYYG 161500Z 31007KT 15SM FEW040 M06/M12 A3036 RMK SC1 SC TR SLP285

CYYG;2009-03-16 16:00;CYYG 161600Z 31009KT 15SM FEW040 M05/M12 A3035 RMK SC1 SLP282

CYYG;2009-03-16 17:00;CYYG 161700Z 30008KT 15SM FEW040 M05/M11 A3034 RMK SC1 SLP278

CYYG;2009-03-16 18:00;CYYG 161800Z 34010KT 15SM FEW040 M04/M12 A3032 RMK SC1 SLP272

CYYG;2009-03-16 19:00;CYYG 161900Z 32010KT 15SM FEW040 M04/M11 A3032 RMK SC1 SC TR SLP270

CYYG;2009-03-16 20:00;CYYG 162000Z 33009KT 15SM FEW040 M04/M12 A3031 RMK SC1 SC TR SLP268

CYYG;2009-03-16 21:00;CYYG 162100Z 33006KT 15SM FEW040 M03/M11 A3029 RMK SC1 SC TR SLP262

CYYG;2009-03-16 22:00;CYYG 162200Z 31004KT 15SM SKC M03/M12 A3028 RMK SLP259

CYYG;2009-03-16 23:00;CYYG 162300Z 31003KT 15SM SKC M04/M12 A3028 RMK SLP259

CYYG;2009-03-17 00:00;CYYG 170000Z 02004KT 15SM SKC M07/M12 A3030 RMK SLP263

CYYG;2009-03-17 01:00;CYYG 170100Z 04005KT 15SM SKC M07/M10 A3032 RMK SLP271

CYYG;2009-03-17 02:00;CYYG 170200Z 05006KT 15SM SKC M08/M10 A3033 RMK SLP276

CYYG;2009-03-17 03:00;CYYG 170300Z 01004KT 15SM FEW015 M09/M10 A3033 RMK SF1 SLP276

CYYG;2009-03-17 04:00;CYYG 170400Z 00000KT 15SM FEW015 M09/M11 A3033 RMK SF1 SLP275

CYYG;2009-03-17 05:00;CYYG 170500Z 28003KT 15SM FEW015 M09/M10 A3033 RMK SF1 SLP276

CYYG;2009-03-17 06:00;CYYG 170600Z 27005KT 15SM FEW015 M09/M11 A3034 RMK SF1 SLP277

CYYG;2009-03-17 07:00;CYYG 170700Z 28004KT 15SM FEW015 M10/M11 A3033 RMK SF1 SLP273

CYYG;2009-03-17 08:00;CYYG 170800Z 27005KT 15SM SKC M09/M11 A3032 RMK SLP271

CYYG;2009-03-17 09:00;CYYG 170900Z 29003KT 15SM SKC M11/M12 A3032 RMK SLP270

CYYG;2009-03-17 10:00;CYYG 171000Z 32005KT 15SM FEW040 M10/M12 A3032 RMK SC1 SLP270

CYYG;2009-03-17 11:00;CYYG 171100Z 31005KT 15SM FEW040 FEW300 M10/M12 A3033 RMK SC1CI0 SLP274

CYYG;2009-03-17 12:00;CYYG 171200Z 28007KT 15SM FEW300 M08/M11 A3035 RMK CI0 SLP280

CYYG;2009-03-17 13:00;CYYG 171300Z 31006KT 15SM SKC M06/M09 A3035 RMK SLP281

CYYG;2009-03-17 13:06;CYYG 171306Z 31008KT 15SM FEW008 FEW040 M06/ RMK SF1SC1

CYYG;2009-03-17 14:00;CYYG 171400Z 32006KT 15SM FEW012 M05/M09 A3036 RMK CF1 SLP283

CYYG;2009-03-17 15:00;CYYG 171500Z 31005KT 15SM FEW015 M04/M09 A3035 RMK SC1 SLP280

CYYG;2009-03-17 16:00;CYYG 171600Z 34005KT 15SM FEW015 FEW300 M03/M09 A3033 RMK SC1CI1 SLP274

CYYG;2009-03-17 17:00;CYYG 171700Z 26002KT 15SM FEW015 SCT300 M02/M10 A3031 RMK SC1CI1 SLP268

CYYG;2009-03-17 18:00;CYYG 171800Z 00000KT 15SM FEW300 M01/M09 A3029 RMK CI1 SLP261

CYYG;2009-03-17 19:00;CYYG 171900Z 21005KT 15SM SCT300 M01/M08 A3028 RMK CI1 SLP256

CYYG;2009-03-17 20:00;CYYG 172000Z 19005KT 15SM BKN300 M01/M09 A3027 RMK CI2 SLP252

CYYG;2009-03-17 21:00;CYYG 172100Z 22004KT 15SM BKN300 M01/M10 A3026 RMK CI2 SLP250

CYYG;2009-03-17 22:00;CYYG 172200Z 17005KT 15SM BKN300 M03/M08 A3026 RMK CI2 SLP249

CYYG;2009-03-17 23:00;CYYG 172300Z 18005KT 15SM SCT300 M04/M09 A3025 RMK CI2 SLP248

CYYG;2009-03-18 00:00;CYYG 180000Z 17007KT 15SM FEW300 M05/M08 A3024 RMK CI1 SLP243

CYYG;2009-03-18 01:00;CYYG 180100Z 19008KT 15SM FEW250 M04/M09 A3023 RMK CI1 SLP238

CYYG;2009-03-18 02:00;CYYG 180200Z 21007KT 15SM SKC M04/M09 A3023 RMK SLP241

CYYG;2009-03-18 03:00;CYYG 180300Z 20006KT 15SM SKC M04/M09 A3023 RMK SLP238

CYYG;2009-03-18 04:00;CYYG 180400Z 21007KT 15SM SKC M04/M08 A3020 RMK SLP231

CYYG;2009-03-18 05:00;CYYG 180500Z 21006KT 15SM SKC M04/M09 A3021 RMK SLP233

CYYG;2009-03-18 06:00;CYYG 180600Z 22007KT 15SM SKC M04/M08 A3020 RMK SLP229

CYYG;2009-03-18 07:00;CYYG 180700Z 21007KT 15SM SKC M04/M08 A3018 RMK SLP222

CYYG;2009-03-18 08:00;CYYG 180800Z 20007KT 15SM SKC M04/M08 A3016 RMK SLP217

CYYG;2009-03-18 09:00;CYYG 180900Z 21007KT 15SM SKC M04/M07 A3017 RMK SLP218

CYYG;2009-03-18 10:00;CYYG 181000Z 21008KT 15SM FEW250 M04/M07 A3017 RMK CI1 SLP221

CYYG;2009-03-18 11:00;CYYG 181100Z 21008KT 15SM SCT300 M04/M06 A3017 RMK CI2 SLP218

CYYG;2009-03-18 12:00;CYYG 181200Z 20008KT 15SM FEW250 M03/M05 A3016 RMK CI1 SLP217

CYYG;2009-03-18 13:00;CYYG 181300Z 22010KT 15SM FEW250 M01/M04 A3015 RMK CI1 SLP214

CYYG;2009-03-18 14:00;CYYG 181400Z CCA 21012G17KT 15SM FEW250 01/M03 A3012 RMK CI1 SLP201

CYYG;2009-03-18 15:00;CYYG 181500Z CCA 21013G19KT 15SM FEW250 02/M02 A3011 RMK CI1 SLP197

CYYG;2009-03-18 16:00;CYYG 181600Z 21013G18KT 15SM BKN250 03/M03 A3008 RMK CI4 SLP188

CYYG;2009-03-18 17:00;CYYG 181700Z 20014KT 15SM OVC250 04/M04 A3004 RMK CI4 SLP175

CYYG;2009-03-18 18:00;CYYG 181800Z 20013KT 15SM OVC200 05/M04 A3003 RMK CI4 SLP170

CYYG;2009-03-18 19:00;CYYG 181900Z 20015KT 15SM OVC190 05/M04 A3000 RMK CI6 SLP160

CYYG;2009-03-18 20:00;CYYG 182000Z 20016KT 15SM OVC180 05/M03 A2998 RMK AS6 SLP155

CYYG;2009-03-18 21:00;CYYG 182100Z 20015KT 15SM OVC098 05/M03 A2997 RMK AS8 SLP150

CYYG;2009-03-18 22:00;CYYG 182200Z 20014G19KT 15SM OVC082 04/M03 A2997 RMK AS8 SLP150

CYYG;2009-03-18 23:00;CYYG 182300Z 20014G20KT 15SM BKN068 OVC110 03/M03 A2996 RMK AS6AC2 SLP149

CYYG;2009-03-19 00:00;CYYG 190000Z 20015KT 15SM OVC059 03/M03 A2997 RMK SC8 SLP151

CYYG;2009-03-19 01:00;CYYG 190100Z 20014KT 15SM OVC060 02/M03 A2996 RMK SC8 SLP148

CYYG;2009-03-19 01:07;CYYG 190107Z 20013G18KT 12SM -SHRA OVC058 02/ RMK SC8

CYYG;2009-03-19 01:26;CYYG 190126Z 20014KT 8SM -SHRASNGS OVC054 02/ RMK SC8

CYYG;2009-03-19 02:00;CYYG 190200Z 19012KT 15SM OVC050 02/M02 A2994 RMK SC8 OCNL -SHRA SLP141

CYYG;2009-03-19 02:11;CYYG 190211Z 20012KT 15SM OVC046 02/ RMK SC8

CYYG;2009-03-19 03:00;CYYG 190300Z 21013KT 15SM OVC041 02/M02 A2993 RMK SC8 SLP137

CYYG;2009-03-19 04:00;CYYG 190400Z 21010KT 15SM OVC037 02/M02 A2992 RMK SC8 SLP134

CYYG;2009-03-19 05:00;CYYG 190500Z 21011KT 15SM OVC036 02/M02 A2991 RMK SC8 SLP132

CYYG;2009-03-19 06:00;CYYG 190600Z 21010KT 15SM OVC040 02/M02 A2991 RMK SC8 SLP129

CYYG;2009-03-19 07:00;CYYG 190700Z 22010KT 15SM FEW045 OVC054 02/M02 A2989 RMK SC2SC6 SLP124

CYYG;2009-03-19 08:00;CYYG 190800Z 23010KT 15SM FEW045 OVC110 02/M01 A2987 RMK SC2AC6 SLP117

CYYG;2009-03-19 08:48;CYYG 190848Z 22009KT 15SM SCT013 OVC100 03/ RMK SC3AC5

CYYG;2009-03-19 09:00;CYYG 190900Z 22009KT 12SM BKN013 OVC100 03/M00 A2987 RMK SC5AC3 SLP116

CYYG;2009-03-19 10:00;CYYG 191000Z 22012KT 12SM OVC011 02/01 A2987 RMK SC8 SLP116

CYYG;2009-03-19 10:09;CYYG 191009Z 20013KT 12SM -SHRA BKN011 OVC029 02/ RMK SC6SC2

CYYG;2009-03-19 11:00;CYYG 191100Z 20010G15KT 15SM -SHRA BKN010 OVC080 02/01 A2985 RMK SC5AC3 SLP110

CYYG;2009-03-19 11:20;CYYG 191120Z 19010KT 15SM SCT010 OVC074 02/ RMK SC3AC5

CYYG;2009-03-19 12:00;CYYG 191200Z 22008KT 15SM SCT040 OVC044 03/02 A2986 RMK SC3SC5 SLP113

CYYG;2009-03-19 12:09;CYYG 191209Z 23006KT 15SM -SHRA SCT030 OVC043 03/ RMK SC3SC5

CYYG;2009-03-19 13:00;CYYG 191300Z 21010KT 15SM -SHRA OVC033 03/02 A2987 RMK SC8 SLP115

CYYG;2009-03-19 14:00;CYYG 191400Z 22008KT 4SM -SHRA BR OVC030 03/03 A2986 RMK SC8 SLP114

CYYG;2009-03-19 15:00;CYYG 191500Z 21010KT 5SM -SHRA BR FEW010 BKN034 OVC044 04/03 A2985 RMK SF2SC3SC2 PCPN OCNL SLP108

CYYG;2009-03-19 15:22;CYYG 191522Z 21011KT 8SM -SHRA SCT004 OVC038 04/ RMK SF4SC4

CYYG;2009-03-19 16:00;CYYG 191600Z 21011KT 8SM -SHRA FEW004 BKN034 OVC070 04/03 A2982 RMK SF2SC4AC2 PCPN OCNL SLP100

CYYG;2009-03-19 16:18;CYYG 191618Z 22009KT 10SM FEW007 OVC073 03/ RMK SF2AC6

CYYG;2009-03-19 17:00;CYYG 191700Z 21008KT 10SM BKN008 OVC080 04/03 A2981 RMK SF6AC2 SLP097

CYYG;2009-03-19 18:00;CYYG 191800Z 22010KT 15SM FEW010 OVC091 05/03 A2979 RMK SC2AC6 SLP091

CYYG;2009-03-19 19:00;CYYG 191900Z 23009KT 15SM OVC100 05/02 A2980 RMK AC8 SLP093

CYYG;2009-03-19 20:00;CYYG 192000Z 23009KT 15SM BKN096 05/02 A2980 RMK AC6 SLP093

CYYG;2009-03-19 21:00;CYYG 192100Z 25009KT 15SM BKN110 05/02 A2981 RMK AC6 SLP097

CYYG;2009-03-19 22:00;CYYG 192200Z 25008KT 15SM SCT100 BKN190 04/01 A2983 RMK AC3CI3 SLP103

CYYG;2009-03-19 23:00;CYYG 192300Z 36008KT 15SM BKN017 BKN052 03/M04 A2988 RMK SC6SC2 SLP121

CYYG;2009-03-19 23:09;CYYG 192309Z 01008KT 15SM FEW017 BKN024 02/ RMK SC2SC5

CYYG;2009-03-20 00:00;CYYG 200000Z 36011G19KT 15SM OVC032 01/M06 A2992 RMK SC8 SLP133

CYYG;2009-03-20 01:00;CYYG 200100Z 36010G15KT 15SM FEW036 BKN047 BKN077 M00/M06 A2996 RMK SC2SC4AC2 SLP148

CYYG;2009-03-20 02:00;CYYG 200200Z 34013G21KT 15SM BKN060 BKN092 M01/M06 A2999 RMK SC6AC2 SLP158

CYYG;2009-03-20 03:00;CYYG 200300Z 35013G22KT 15SM SCT070 BKN089 M02/M08 A3002 RMK AC3AC4 SLP169

CYYG;2009-03-20 04:00;CYYG 200400Z 35013G24KT 15SM FEW089 M03/M09 A3005 RMK AC2 SLP179

CYYG;2009-03-20 05:00;CYYG 200500Z 35015G20KT 15SM SKC M04/M11 A3008 RMK SLP189

CYYG;2009-03-20 06:00;CYYG 200600Z 34009G17KT 15SM SKC M05/M11 A3010 RMK SLP195

CYYG;2009-03-20 07:00;CYYG 200700Z 34007G15KT 15SM SKC M05/M11 A3012 RMK SLP202

CYYG;2009-03-20 08:00;CYYG 200800Z 34007KT 15SM FEW030 BKN240 M05/M11 A3014 RMK SC1CI4 SLP209

CYYG;2009-03-20 09:00;CYYG 200900Z 35005KT 15SM FEW240 M05/M11 A3016 RMK CI1 SLP215

CYYG;2009-03-20 10:00;CYYG 201000Z 33004KT 15SM FEW029 SCT240 M06/M11 A3019 RMK SC2CI1 SLP226

CYYG;2009-03-20 11:00;CYYG 201100Z 32004KT 15SM FEW030 BKN240 M06/M11 A3022 RMK SC2CI2 SLP234

CYYG;2009-03-20 12:00;CYYG 201200Z 32006KT 15SM FEW030 BKN240 M05/M11 A3024 RMK SC2CI2 SLP244

CYYG;2009-03-20 13:00;CYYG 201300Z 34010KT 15SM SCT028 BKN240 M05/M11 A3026 RMK SC3CI2 SLP251

CYYG;2009-03-20 14:00;CYYG 201400Z 34008KT 15SM FEW028 BKN240 M04/M11 A3028 RMK SC2CI3 SLP255

CYYG;2009-03-20 15:00;CYYG 201500Z 33008KT 15SM FEW028 BKN240 M04/M10 A3028 RMK SC2CI3 SLP256

CYYG;2009-03-20 16:00;CYYG 201600Z 35007KT 15SM FEW028 BKN240 M04/M10 A3029 RMK SC2CI2 SLP259

CYYG;2009-03-20 17:00;CYYG 201700Z 33005KT 15SM FEW028 BKN240 M04/M10 A3029 RMK SC2CI2 SLP261

CYYG;2009-03-20 18:00;CYYG 201800Z 33008KT 15SM FEW030 BKN250 M04/M09 A3029 RMK SC2CI2 SLP261

CYYG;2009-03-20 19:00;CYYG 201900Z 03007KT 15SM FEW027 BKN250 M04/M10 A3031 RMK SC2CI2 SLP266

CYYG;2009-03-20 20:00;CYYG 202000Z 03007KT 15SM FEW027 BKN250 M04/M10 A3031 RMK SC1CI2 SLP267

CYYG;2009-03-20 21:00;CYYG 202100Z 02005KT 15SM BKN240 M05/M10 A3031 RMK CI2 SLP268

CYYG;2009-03-20 22:00;CYYG 202200Z 02006KT 15SM BKN240 M05/M10 A3032 RMK CI2 SLP271

CYYG;2009-03-20 23:00;CYYG 202300Z 01003KT 15SM BKN240 M06/M10 A3034 RMK CI2 SLP276

CYYG;2009-03-21 00:00;CYYG 210000Z 00000KT 15SM BKN240 M06/M10 A3036 RMK CI2 SLP283

CYYG;2009-03-21 01:00;CYYG 210100Z 05002KT 15SM BKN220 M08/M10 A3036 RMK CI2 SLP285

CYYG;2009-03-21 02:00;CYYG 210200Z 10004KT 15SM BKN220 M07/M10 A3037 RMK CI2 SLP287

CYYG;2009-03-21 03:00;CYYG 210300Z 00000KT 15SM FEW220 M09/M11 A3037 RMK CI0 SLP289

CYYG;2009-03-21 04:00;CYYG 210400Z 08005KT 15SM BKN240 M08/M10 A3036 RMK CI2 SLP286

CYYG;2009-03-21 05:00;CYYG 210500Z 01002KT 15SM BKN240 M09/M11 A3038 RMK CI2 SLP291

CYYG;2009-03-21 06:00;CYYG 210600Z 03004KT 15SM BKN240 M10/M11 A3038 RMK CI2 SLP291

CYYG;2009-03-21 07:00;CYYG 210700Z 34005KT 15SM BKN240 M10/M11 A3038 RMK CI2 SLP290

CYYG;2009-03-21 08:00;CYYG 210800Z 34005KT 15SM BKN230 M08/M10 A3038 RMK CI2 FROIN SLP290

CYYG;2009-03-21 09:00;CYYG 210900Z 35004KT 15SM BKN230 M09/M10 A3039 RMK CI2 FROIN SLP293

CYYG;2009-03-21 10:00;CYYG 211000Z 34004KT 15SM FEW230 M09/M11 A3040 RMK CI1 FROIN SLP297

CYYG;2009-03-21 11:00;CYYG 211100Z 35004KT 15SM FEW030 FEW250 M09/M10 A3041 RMK SC1CI1 FROIN SLP301

CYYG;2009-03-21 12:00;CYYG 211200Z 01004KT 15SM FEW020 SCT250 M06/M09 A3043 RMK SC2CI2 SLP307

CYYG;2009-03-21 13:00;CYYG 211300Z 03006KT 15SM FEW020 FEW250 M04/M09 A3044 RMK SC1CI1 SLP310

CYYG;2009-03-21 14:00;CYYG 211400Z 05012KT 15SM FEW020 FEW250 M03/M09 A3044 RMK SC1CI1 SLP310

CYYG;2009-03-21 15:00;CYYG 211500Z 05012KT 15SM FEW020 SCT250 M03/M09 A3043 RMK SC2CI1 SLP309

CYYG;2009-03-21 16:00;CYYG 211600Z 06010KT 15SM FEW030 SCT250 M03/M08 A3042 RMK SC2CI1 SLP306

CYYG;2009-03-21 17:00;CYYG 211700Z 04008KT 15SM FEW030 SCT250 M02/M08 A3041 RMK SC2CI1 SLP302

CYYG;2009-03-21 18:00;CYYG 211800Z 01009G15KT 15SM SCT026 BKN250 M03/M08 A3040 RMK SC3CI1 SLP298

CYYG;2009-03-21 19:00;CYYG 211900Z 36009KT 15SM FEW026 SCT250 M03/M09 A3040 RMK SC2CI0 SLP298

CYYG;2009-03-21 20:00;CYYG 212000Z 01011KT 15SM FEW026 FEW250 M03/M09 A3039 RMK SC1CI0 SLP296

CYYG;2009-03-21 21:00;CYYG 212100Z 36010KT 15SM FEW026 FEW250 M03/M10 A3039 RMK SC1CI0 SC TR SLP294

CYYG;2009-03-21 22:00;CYYG 212200Z 36008KT 15SM FEW250 M04/M09 A3039 RMK CI1 SLP293

CYYG;2009-03-21 23:00;CYYG 212300Z 36005KT 15SM FEW250 M05/M10 A3039 RMK CI1 SLP293

CYYG;2009-03-22 00:00;CYYG 220000Z 34002KT 15SM SKC M06/M10 A3038 RMK SLP292

CYYG;2009-03-22 01:00;CYYG 220100Z 32004KT 15SM SKC M07/M09 A3037 RMK SLP289

CYYG;2009-03-22 02:00;CYYG 220200Z 31002KT 15SM SKC M08/M09 A3036 RMK SLP284

CYYG;2009-03-22 03:00;CYYG 220300Z 26002KT 15SM SKC M07/M09 A3034 RMK SLP279

CYYG;2009-03-22 04:00;CYYG 220400Z 26004KT 15SM SKC M08/M10 A3033 RMK SLP273

CYYG;2009-03-22 05:00;CYYG 220500Z 27003KT 15SM SKC M10/M11 A3031 RMK SLP266

CYYG;2009-03-22 06:00;CYYG 220600Z 00000KT 15SM SKC M10/M11 A3028 RMK SLP259

CYYG;2009-03-22 07:00;CYYG 220700Z 24005KT 15SM SKC M09/M10 A3027 RMK SLP253

CYYG;2009-03-22 08:00;CYYG 220800Z 21004KT 15SM SKC M07/M10 A3025 RMK SLP248

CYYG;2009-03-22 09:00;CYYG 220900Z 22006KT 15SM SKC M07/M09 A3023 RMK SLP241

CYYG;2009-03-22 10:00;CYYG 221000Z 21006KT 15SM SCT180 M07/M09 A3021 RMK AC1 SLP234

CYYG;2009-03-22 11:00;CYYG 221100Z 30006KT 15SM FEW160 BKN220 M06/M09 A3020 RMK AC2CI2 FROIN SLP228

CYYG;2009-03-22 12:00;CYYG 221200Z CCA 21008KT 15SM FEW160 BKN220 M04/M09 A3018 RMK AC2CI2 SLP224

CYYG;2009-03-22 13:00;CYYG 221300Z 21008KT 15SM FEW160 BKN220 M03/M07 A3017 RMK AC2CI2 SLP220

CYYG;2009-03-22 14:00;CYYG 221400Z 21009KT 15SM FEW110 SCT200 BKN300 M02/M06 A3016 RMK AC2CC2CI1 SLP216

CYYG;2009-03-22 15:00;CYYG 221500Z 21007KT 15SM FEW110 BKN140 OVC200 00/M05 A3014 RMK AC2AC3CI2 SLP209

CYYG;2009-03-22 16:00;CYYG 221600Z 22009KT 15SM SCT120 BKN200 01/M05 A3011 RMK AC4CI2 SLP200

CYYG;2009-03-22 17:00;CYYG 221700Z 24008KT 15SM FEW025 SCT090 OVC200 02/M03 A3009 RMK SC2AC2CI2 SLP191

CYYG;2009-03-22 18:00;CYYG 221800Z 24007KT 15SM FEW025 BKN090 OVC200 03/M03 A3006 RMK SC2AC3CI2 CC ASOCTD SLP183

CYYG;2009-03-22 19:00;CYYG 221900Z 19008KT 15SM SCT035 BKN110 OVC200 02/M03 A3005 RMK SC3AC3CI2 SLP179

CYYG;2009-03-22 20:00;CYYG 222000Z 18006KT 15SM FEW040 BKN110 OVC200 02/M04 A3003 RMK SC2AC4CI1 SLP173

CYYG;2009-03-22 21:00;CYYG 222100Z 20005KT 15SM VCSH FEW040 BKN060 OVC200 02/M04 A3002 RMK SC2SC3CI2 SLP168

CYYG;2009-03-22 22:00;CYYG 222200Z 30007KT 15SM VCSH FEW040 BKN060 OVC140 01/M02 A3002 RMK SC2SC4AC2 SLP169

CYYG;2009-03-22 22:53;CYYG 222253Z 00000KT 15SM -SHSN BKN038 OVC068 01/ RMK SC6AC2

CYYG;2009-03-22 23:00;CYYG 222300Z 20002KT 15SM -SHSN BKN038 OVC068 01/M01 A3004 RMK SC6AC2 SLP174

CYYG;2009-03-22 23:11;CYYG 222311Z 27003KT 15SM -SHSN BKN008 01/ RMK SF6

CYYG;2009-03-23 00:00;CYYG 230000Z 29003KT 10SM -SHSN FEW010 FEW067 M00/M01 A3004 RMK SF2AC1 SLP174

CYYG;2009-03-23 00:49;CYYG 230049Z 11003KT 15SM -SHSN FEW006 BKN028 M01/ RMK SF2SC6

CYYG;2009-03-23 01:00;CYYG 230100Z 11003KT 15SM -SHSN FEW005 BKN026 BKN039 M01/M01 A3004 RMK SF2SC5SC1 SLP173

CYYG;2009-03-23 01:09;CYYG 230109Z 11003KT 15SM -SHSN FEW005 BKN008 OVC022 M00/ RMK SF2SF5SC2

CYYG;2009-03-23 02:00;CYYG 230200Z 12003KT 6SM -SHSN OVC006 M01/M01 A3003 RMK SF8 SLP170

CYYG;2009-03-23 02:06;CYYG 230206Z 13002KT 2SM -SHSN OVC006 M01/ RMK SF8

CYYG;2009-03-23 02:21;CYYG 230221Z 11002KT 1SM R03/P6000FT/D -SHSN OVC004 M01/ RMK SF8

CYYG;2009-03-23 03:00;CYYG 230300Z 00000KT 2SM R03/6000FT/N -SHSN BKN003 OVC010 M01/M01 A3002 RMK SF6SF2 /S01/ SLP168

CYYG;2009-03-23 04:00;CYYG 230400Z 34004KT 3SM -SHSN FEW003 BKN013 OVC021 M01/M01 A3001 RMK SF2SC4SC2 SLP166

CYYG;2009-03-23 04:07;CYYG 230407Z 32012G17KT 1/2SM R03/3500VP6000FT/D SHSN DRSN BKN003 OVC012 M03/ RMK SN2SF3SC2

CYYG;2009-03-23 04:42;CYYG 230442Z 34014G19KT 3SM -SHSN DRSN FEW008 OVC036 M04/ RESN RMK SF2SC6

CYYG;2009-03-23 05:00;CYYG 230500Z 33015KT 6SM -SHSN DRSN FEW007 OVC034 M04/M05 A3004 RESN RMK SF2SC6 /S03/ SLP173

CYYG;2009-03-23 06:00;CYYG 230600Z 33011KT 15SM -SHSN DRSN FEW007 OVC032 M05/M06 A3004 RMK SF2SC6 /S04/ SLP174

CYYG;2009-03-23 06:51;CYYG 230651Z 33007KT 15SM OVC028 M05/ RMK SC8

CYYG;2009-03-23 07:00;CYYG 230700Z 33008KT 15SM OVC025 M05/M07 A3003 RMK SC8 SLP172

CYYG;2009-03-23 08:00;CYYG 230800Z 29004KT 15SM SCT028 BKN040 M05/M07 A3003 RMK SC3SC3 SLP172

CYYG;2009-03-23 08:46;CYYG 230846Z 33004KT 15SM BKN009 BKN038 M06/ RMK SF6SC2

CYYG;2009-03-23 09:00;CYYG 230900Z 31004KT 15SM BKN010 M06/M08 A3004 RMK SC7 SLP176

CYYG;2009-03-23 09:47;CYYG 230947Z 25005KT 15SM -SN OVC010 M06/ RMK ST8

CYYG;2009-03-23 10:00;CYYG 231000Z 26003KT 15SM -SN OVC010 M06/M08 A3006 RMK SC8 SLP180

CYYG;2009-03-23 10:34;CYYG 231034Z 24004KT 15SM OVC010 M06/ RMK SC8

CYYG;2009-03-23 11:00;CYYG 231100Z 27005KT 15SM OVC010 M05/M07 A3007 RMK SC8 SLP186

CYYG;2009-03-23 12:00;CYYG 231200Z 31005KT 15SM OVC011 M05/M08 A3009 RMK SC8 SLP191

CYYG;2009-03-23 13:00;CYYG 231300Z 31005KT 15SM BKN010 M04/M07 A3010 RMK SC6 SLP195

CYYG;2009-03-23 14:00;CYYG 231400Z 32005KT 15SM OVC011 M04/M07 A3010 RMK SC8 SLP195

CYYG;2009-03-23 15:00;CYYG 231500Z 32007KT 15SM BKN011 M03/M06 A3009 RMK SC7 SLP194

CYYG;2009-03-23 16:00;CYYG 231600Z 32006KT 15SM BKN012 BKN070 M03/M05 A3008 RMK SC6AC1 SLP189

CYYG;2009-03-23 17:00;CYYG 231700Z 34007KT 15SM BKN013 M02/M05 A3007 RMK SC7 SLP186

CYYG;2009-03-23 18:00;CYYG 231800Z 01009KT 15SM -SHSN OVC012 M02/M04 A3006 RMK SC8 SLP182

CYYG;2009-03-23 18:49;CYYG 231849Z 36008KT 3SM -SHSN OVC010 M02/ RMK SC8

CYYG;2009-03-23 19:00;CYYG 231900Z 36009KT 3SM -SHSN OVC010 M02/M03 A3005 RMK SC8 SLP180

CYYG;2009-03-23 19:13;CYYG 231913Z 01008KT 3SM -SHSN OVC009 M02/ RMK SC8

CYYG;2009-03-23 20:00;CYYG 232000Z 02009KT 2 1/2SM -SN BKN008 OVC013 M02/M03 A3005 RMK SC6SC2 SLP180

CYYG;2009-03-23 20:30;CYYG 232030Z 01009KT 1 1/2SM -SN BKN007 OVC023 M02/ RMK SC6SC2

CYYG;2009-03-23 21:00;CYYG 232100Z 02011KT 1SM R03/5500FT/D -SN BKN007 OVC022 M02/M03 A3004 RMK SF7SC1 /S01/ CIG RAG SLP177

CYYG;2009-03-23 21:22;CYYG 232122Z 03011KT 3/4SM R03/2800V5500FT/D -SN BKN006 OVC022 M02/ RMK SF7SC1

CYYG;2009-03-23 22:00;CYYG 232200Z 04010KT 3/4SM R03/P6000FT/D -SN OVC007 M02/M03 A3005 RMK SF8 /S02/ SLP180

CYYG;2009-03-23 23:00;CYYG 232300Z 03012KT 1SM R03/P6000FT/D -SN OVC005 M02/M03 A3004 RMK SF8 CIG RAG SLP177

CYYG;2009-03-23 23:48;CYYG 232348Z 05008KT 15SM FEW004 SCT032 BKN073 M02/ RMK SF2SC2AC3

CYYG;2009-03-24 00:00;CYYG 240000Z 05009KT 15SM SCT028 BKN058 BKN077 M02/M02 A3005 RMK SC3SC2AC2 SLP179

CYYG;2009-03-24 01:00;CYYG 240100Z 08015KT 15SM BKN033 OVC055 M01/M04 A3006 RMK SC6SC2 SLP181

CYYG;2009-03-24 01:14;CYYG 240114Z 09016G25KT 8SM -SHSN BKN024 OVC038 M02/ RMK SC6SC2

CYYG;2009-03-24 01:52;CYYG 240152Z 07014G22KT 1SM R03/P6000FT/D -SHSN BKN007 OVC020 M03/ RMK SF6SC2

CYYG;2009-03-24 02:00;CYYG 240200Z 06014G19KT 1 1/2SM -SHSN OVC008 M03/M04 A3007 RMK SF8 SLP187

CYYG;2009-03-24 02:44;CYYG 240244Z 03016KT 4SM -SHSN SCT008 BKN030 OVC049 M02/ RMK SF3SC2SC2

CYYG;2009-03-24 03:00;CYYG 240300Z 04017KT 8SM -SHSN FEW007 SCT032 OVC041 M02/M04 A3006 RMK SF2SC2SC4 SLP183

CYYG;2009-03-24 04:00;CYYG 240400Z 05016G24KT 4SM -SHSN SCT018 OVC023 M02/M04 A3006 RMK SC3SC5 SLP182

CYYG;2009-03-24 04:25;CYYG 240425Z 05018G30KT 1SM R03/2400V5000FT/D -SHSN BLSN BKN004 OVC013 M02/ RMK SF6SC2

CYYG;2009-03-24 05:00;CYYG 240500Z 05019G24KT 3/4SM R03/2800FT/N -SHSN BLSN BKN005 OVC017 M02/M03 A3005 RMK SF6SC2 SLP179

CYYG;2009-03-24 06:00;CYYG 240600Z 04018G24KT 4SM -SHSN SCT008 OVC025 M02/M04 A3006 RMK SF3SC5 PCPN VRY LGT /S02/ SLP180

CYYG;2009-03-24 07:00;CYYG 240700Z 05017G24KT 15SM -SHSN BKN042 OVC061 M02/M04 A3006 RMK SC6SC2 PCPN VRY LGT SLP182

CYYG;2009-03-24 08:00;CYYG 240800Z 05018G24KT 15SM SCT040 OVC060 M02/M04 A3007 RMK SC3SC5 SLP185

CYYG;2009-03-24 09:00;CYYG 240900Z 05017G26KT 15SM OVC072 M02/M04 A3009 RMK AC8 SLP191

CYYG;2009-03-24 09:21;CYYG 240921Z 05021G27KT 4SM -SHSN BLSN BKN030 OVC047 M02/ RMK SC6SC2

CYYG;2009-03-24 09:30;CYYG 240930Z 05024KT 2 1/2SM R03/3000VP6000FT/D -SHSN BLSN BKN010 OVC030 M03/ RMK SF5SC3

CYYG;2009-03-24 10:00;CYYG 241000Z 05019G29KT 2SM R03/2600V5500FT/D -SHSN BLSN OVC010 M03/M04 A3011 RMK SF8 SLP199

CYYG;2009-03-24 10:21;CYYG 241021Z 04021G28KT 3/4SM R03/1200V1800FT/N -SHSN BR OVC005 M03/ RMK SF8

CYYG;2009-03-24 11:00;CYYG 241100Z 05019G30KT 3/4SM R03/1600V2600FT/U -SHSN BLSN OVC007 M03/M04 A3016 RMK SF8 SLP217

CYYG;2009-03-24 11:48;CYYG 241148Z 05022G29KT 1/2SM R03/2000FT/D -SHSN BLSN OVC004 M03/ RMK SF8

CYYG;2009-03-24 12:00;CYYG 241200Z 05020G29KT 1/2SM R03/1600V2600FT/U -SHSN BLSN OVC004 M03/M04 A3020 RMK SF8 SLP228

CYYG;2009-03-24 12:31;CYYG 241231Z 05023G31KT 1/2SM R03/2200FT/U -SHSN BLSN OVC008 M03/ RMK SF8

CYYG;2009-03-24 13:00;CYYG 241300Z 05022G27KT 3/4SM R03/2600V6000FT/U -SHSN BLSN OVC010 M03/M03 A3022 RMK SF8 SLP237

CYYG;2009-03-24 13:48;CYYG 241348Z 05026G31KT 6SM R03/3500VP6000FT/U -SHSN BLSN OVC013 M03/ RMK SF8

CYYG;2009-03-24 14:00;CYYG 241400Z 05024G31KT 15SM -SHSN OVC014 M02/M04 A3024 RMK SC8 SLP244

CYYG;2009-03-24 15:00;CYYG 241500Z 05026G31KT 12SM DRSN BKN014 OVC029 M02/M04 A3028 RMK SC7SC1 SLP256

CYYG;2009-03-24 16:00;CYYG 241600Z 04023G32KT 12SM DRSN BKN015 OVC034 M02/M04 A3027 RMK SC6SC2 SLP253

CYYG;2009-03-24 17:00;CYYG 241700Z 04024G29KT 15SM DRSN BKN014 OVC034 M02/M05 A3029 RMK SC6SC2 SLP261

CYYG;2009-03-24 18:00;CYYG 241800Z 03026G33KT 12SM DRSN BKN016 OVC040 M03/M04 A3030 RMK SC7SC1 SLP264

CYYG;2009-03-24 18:33;CYYG 241833Z 03023G32KT 12SM -SHSN DRSN OVC015 M03/ RMK SC8

CYYG;2009-03-24 19:00;CYYG 241900Z 03020G30KT 12SM -SHSN DRSN OVC014 M03/M04 A3030 RMK SC8 SLP263

CYYG;2009-03-24 20:00;CYYG 242000Z 04023G28KT 12SM -SHSN DRSN OVC012 M03/M04 A3031 RMK SC8 SLP267

CYYG;2009-03-24 21:00;CYYG 242100Z 03021G32KT 12SM -SHSN DRSN OVC012 M03/M04 A3031 RMK SC8 SLP267

CYYG;2009-03-24 21:12;CYYG 242112Z 03023G32KT 12SM DRSN OVC012 M03/ RMK SC8

CYYG;2009-03-24 22:00;CYYG 242200Z 03023G30KT 12SM DRSN OVC012 M03/M05 A3032 RMK SC8 SLP269

CYYG;2009-03-24 23:00;CYYG 242300Z 02023G30KT 10SM DRSN OVC011 M03/M04 A3032 RMK SC8 SLP269

CYYG;2009-03-25 00:00;CYYG 250000Z 02022G34KT 10SM DRSN OVC012 M04/M05 A3032 RMK SC8 SLP270

CYYG;2009-03-25 01:00;CYYG 250100Z 02021G33KT 15SM DRSN BKN014 BKN034 M04/M06 A3031 RMK SC5SC2 SLP265

CYYG;2009-03-25 02:00;CYYG 250200Z 02024G29KT 15SM BKN017 M04/M06 A3030 RMK SC6 SLP263

CYYG;2009-03-25 03:00;CYYG 250300Z 02022G27KT 15SM DRSN BKN013 M04/M06 A3028 RMK SC6 SLP258

CYYG;2009-03-25 04:00;CYYG 250400Z 02021G31KT 15SM DRSN BKN016 M04/M06 A3027 RMK SC6 SLP252

CYYG;2009-03-25 05:00;CYYG 250500Z 02019G26KT 15SM DRSN BKN013 M03/M05 A3026 RMK SC7 SLP250

CYYG;2009-03-25 06:00;CYYG 250600Z 02019G28KT 15SM DRSN BKN013 M04/M05 A3025 RMK SC6 SLP246

CYYG;2009-03-25 07:00;CYYG 250700Z 03017G24KT 15SM BKN014 M04/M06 A3024 RMK SC4 SLP243

CYYG;2009-03-25 08:00;CYYG 250800Z 02018KT 15SM SCT016 M04/M06 A3023 RMK SC3 SLP241

CYYG;2009-03-25 09:00;CYYG 250900Z 02016G24KT 15SM SCT017 M04/M05 A3023 RMK SC3 SLP240

CYYG;2009-03-25 10:00;CYYG 251000Z 02018G24KT 15SM SCT012 M04/M06 A3023 RMK SF3 SLP240

CYYG;2009-03-25 11:00;CYYG 251100Z 02020G27KT 15SM BKN014 M04/M05 A3025 RMK SC6 SLP247

CYYG;2009-03-25 12:00;CYYG 251200Z 03023G28KT 15SM DRSN OVC014 M04/M06 A3026 RMK SC8 SLP249

CYYG;2009-03-25 13:00;CYYG 251300Z 03022G34KT 15SM DRSN OVC012 M04/M05 A3026 RMK SC8 SLP250

CYYG;2009-03-25 14:00;CYYG 251400Z 03024G31KT 15SM DRSN OVC014 M03/M06 A3027 RMK SC8 SLP254

CYYG;2009-03-25 15:00;CYYG 251500Z 02018G29KT 15SM DRSN OVC014 M03/M05 A3027 RMK SC8 SLP252

CYYG;2009-03-25 16:00;CYYG 251600Z 02021G30KT 15SM DRSN BKN014 OVC018 M03/M06 A3025 RMK SC7SC1 SLP245

CYYG;2009-03-25 17:00;CYYG 251700Z 02018G27KT 15SM DRSN OVC017 M03/M06 A3024 RMK SC8 SLP244

CYYG;2009-03-25 18:00;CYYG 251800Z 01019G26KT 15SM DRSN OVC018 M03/M06 A3022 RMK SC8 SLP237

CYYG;2009-03-25 19:00;CYYG 251900Z 02019G29KT 15SM DRSN OVC017 M03/M06 A3021 RMK SC8 SLP233

CYYG;2009-03-25 20:00;CYYG 252000Z 02021G30KT 15SM DRSN OVC018 M03/M06 A3020 RMK SC8 SLP228

CYYG;2009-03-25 21:00;CYYG 252100Z 03024G30KT 15SM DRSN OVC017 M04/M06 A3020 RMK SC8 SLP229

CYYG;2009-03-25 22:00;CYYG 252200Z 01017G28KT 15SM DRSN OVC014 M04/M06 A3019 RMK SC7 SLP226

CYYG;2009-03-25 23:00;CYYG 252300Z 03019G29KT 15SM DRSN OVC014 M04/M06 A3018 RMK SC8 SLP222

CYYG;2009-03-26 00:00;CYYG 260000Z 01012G20KT 15SM DRSN OVC013 M04/M06 A3018 RMK SC8 SLP222

CYYG;2009-03-26 01:00;CYYG 260100Z 01012G17KT 15SM DRSN OVC014 M04/M06 A3017 RMK SC8 SLP219

CYYG;2009-03-26 02:00;CYYG 260200Z 02015G21KT 15SM DRSN OVC013 M04/M06 A3016 RMK SC8 SLP217

CYYG;2009-03-26 02:39;CYYG 260239Z 02018G24KT 15SM DRSN OVC015 M04/ RMK SC8

CYYG;2009-03-26 03:00;CYYG 260300Z 02013G20KT 15SM DRSN OVC015 M04/M06 A3016 RMK SC8 SLP217

CYYG;2009-03-26 03:43;CYYG 260343Z 01011G19KT 15SM DRSN OVC014 M04/ RMK SC8

CYYG;2009-03-26 04:00;CYYG 260400Z 01011G17KT 15SM DRSN BKN014 M04/M06 A3014 RMK SC7 SLP210

CYYG;2009-03-26 04:32;CYYG 260432Z 01010G15KT 15SM DRSN FEW014 M05/ RMK SC2

CYYG;2009-03-26 05:00;CYYG 260500Z 01012KT 15SM DRSN FEW014 M05/M07 A3012 RMK SC1 SLP204

CYYG;2009-03-26 06:00;CYYG 260600Z 01010G17KT 15SM DRSN FEW015 M05/M07 A3013 RMK SC1 SLP205

CYYG;2009-03-26 07:00;CYYG 260700Z 36011G16KT 15SM DRSN FEW015 M05/M06 A3012 RMK SC1 SLP203

CYYG;2009-03-26 08:00;CYYG 260800Z 36012G18KT 15SM DRSN BKN015 M04/M06 A3012 RMK SC6 SLP201

CYYG;2009-03-26 08:45;CYYG 260845Z 36015G20KT 15SM DRSN OVC014 M04/ RMK SC8

CYYG;2009-03-26 09:00;CYYG 260900Z 36012G17KT 15SM DRSN OVC013 M04/M06 A3011 RMK SC8 SLP199

CYYG;2009-03-26 10:00;CYYG 261000Z 01010G15KT 15SM BKN013 M04/M06 A3011 RMK SC7 SLP198

CYYG;2009-03-26 11:00;CYYG 261100Z 01010G15KT 15SM BKN013 M04/M05 A3011 RMK SC7 SLP199

CYYG;2009-03-26 12:00;CYYG 261200Z 36010G16KT 15SM BKN013 M03/M05 A3011 RMK SC7 SLP198

CYYG;2009-03-26 13:00;CYYG 261300Z 02012G18KT 15SM BKN014 M02/M05 A3011 RMK SC7 SLP198

CYYG;2009-03-26 14:00;CYYG 261400Z 02014G21KT 15SM BKN014 M02/M04 A3009 RMK SC5 SLP194

CYYG;2009-03-26 15:00;CYYG 261500Z 03016G21KT 15SM BKN015 BKN240 M01/M04 A3009 RMK SC5CI1 SLP193

CYYG;2009-03-26 16:00;CYYG 261600Z 03015G21KT 15SM OVC015 M01/M04 A3007 RMK SC7 SLP186

CYYG;2009-03-26 17:00;CYYG 261700Z 03012G18KT 15SM OVC015 M01/M03 A3007 RMK SC7 SLP185

CYYG;2009-03-26 18:00;CYYG 261800Z 01009KT 15SM OVC015 M01/M03 A3007 RMK SC7 SLP185

CYYG;2009-03-26 19:00;CYYG 261900Z 34009KT 15SM OVC014 M01/M03 A3009 RMK SC8 SLP192

CYYG;2009-03-26 20:00;CYYG 262000Z 36010KT 15SM OVC012 M01/M03 A3009 RMK SC8 SLP191

CYYG;2009-03-26 20:53;CYYG 262053Z 02010G15KT 15SM OVC009 M02/ RMK SC8

CYYG;2009-03-26 21:00;CYYG 262100Z 02012KT 15SM OVC009 M02/M03 A3008 RMK SC8 SLP189

CYYG;2009-03-26 22:00;CYYG 262200Z 03013KT 15SM OVC009 M02/M03 A3006 RMK SC8 SLP181

CYYG;2009-03-26 23:00;CYYG 262300Z 03010KT 15SM OVC007 M02/M03 A3004 RMK SF8 SLP175

CYYG;2009-03-27 00:00;CYYG 270000Z 36005KT 15SM OVC006 M02/M03 A3004 RMK ST8 SLP176

CYYG;2009-03-27 01:00;CYYG 270100Z 03007KT 15SM OVC005 M03/M03 A3002 RMK ST8 SLP169

CYYG;2009-03-27 01:33;CYYG 270133Z 06007KT 15SM OVC004 M03/ RMK ST8

CYYG;2009-03-27 02:00;CYYG 270200Z 02007KT 8SM OVC004 M03/M03 A3003 RMK ST8 SLP171

CYYG;2009-03-27 03:00;CYYG 270300Z 36003KT 10SM OVC005 M03/M03 A3002 RMK ST8 SLP167

CYYG;2009-03-27 03:38;CYYG 270338Z 34003KT 5SM BR OVC003 M03/ RMK ST8

CYYG;2009-03-27 03:45;CYYG 270345Z 34004KT 3SM -SG BR OVC003 M03/ RMK ST8

CYYG;2009-03-27 04:00;CYYG 270400Z 32004KT 3SM -SG BR OVC003 M03/M03 A3001 RMK ST8 SLP163

CYYG;2009-03-27 04:15;CYYG 270415Z 34003KT 2SM BR OVC003 M03/ RMK ST8

CYYG;2009-03-27 04:26;CYYG 270426Z 36006KT 1SM R03/4500VP6000FT/D BR OVC002 M03/ RMK ST8

CYYG;2009-03-27 04:51;CYYG 270451Z 32003KT 3/4SM R03/2000VP6000FT/D BR OVC002 M03/ RMK FG4ST4

CYYG;2009-03-27 05:00;CYYG 270500Z 36005KT 5/8SM R03/1600V3500FT/U BR OVC002 M03/M03 A2999 RMK FG5ST3 SLP159

CYYG;2009-03-27 05:08;CYYG 270508Z 01003KT 1/4SM R03/1100V3500FT/D FZFG VV002 M03/ RMK FG8

CYYG;2009-03-27 05:53;CYYG 270553Z 02005KT 1/8SM R03/0700V1200FT/N FZFG VV001 M04/ RMK FG8 FROIN

CYYG;2009-03-27 06:00;CYYG 270600Z 02008KT 1/8SM R03/0700V1100FT/N FZFG VV001 M04/M04 A2998 RMK FG8 FROIN SLP155

CYYG;2009-03-27 06:16;CYYG 270616Z 03007KT 1/4SM R03/0900V1600FT/N FZFG VV002 M04/ RMK FG8 FROIN

CYYG;2009-03-27 07:00;CYYG 270700Z 31002KT 1SM R03/P6000FT/U BR OVC004 M04/M04 A2998 RMK ST8 SLP153

CYYG;2009-03-27 07:04;CYYG 270704Z 32003KT 2SM -SHSN BR OVC004 M04/ RMK ST8

CYYG;2009-03-27 07:14;CYYG 270714Z 32003KT 2 1/2SM -SHSN BR OVC005 M04/ RMK ST8

CYYG;2009-03-27 08:00;CYYG 270800Z 30003KT 1/4SM R03/2400V5000FT/D FZFG VV002 M04/M04 A2998 RMK FG8 SLP153

CYYG;2009-03-27 08:26;CYYG 270826Z 01003KT 1/8SM R03/1000FT/N FZFG VV001 M03/ RMK FG8 FROIN

CYYG;2009-03-27 09:00;CYYG 270900Z 06003KT 1/8SM R03/0900FT/N FZFG VV001 M03/M04 A2994 RMK FG8 SLP142

CYYG;2009-03-27 09:29;CYYG 270929Z 31002KT 1/4SM R03/0900V2400FT/N FZFG VV002 M04/ RMK FG8 FROIN

CYYG;2009-03-27 09:35;CYYG 270935Z 30005KT 3/8SM R03/1100V2400FT/N FZFG VV002 M04/ RMK FG8 FROIN

CYYG;2009-03-27 09:50;CYYG 270950Z 31004KT 1/4SM R03/1200V2600FT/N FZFG VV002 M04/ RMK FG8 FROIN

CYYG;2009-03-27 10:00;CYYG 271000Z 32002KT 1/4SM R03/1000V2200FT/D FZFG VV002 M04/M04 A2996 RMK FG8 FROIN SLP147

CYYG;2009-03-27 10:31;CYYG 271031Z 34002KT 3/8SM R03/1000V1600FT/N FZFG VV002 M04/ RMK FG8 FROIN

CYYG;2009-03-27 10:49;CYYG 271049Z 01002KT 1 1/2SM R03/2200VP6000FT/U -SHSN BR OVC003 M04/ RMK ST8

CYYG;2009-03-27 11:00;CYYG 271100Z 06004KT 1 1/2SM -SHSN BR OVC003 M04/M04 A2995 RMK ST8 SLP144

CYYG;2009-03-27 11:23;CYYG 271123Z 04002KT 1/2SM R03/1600V6000FT/D FZFG VV002 M04/ RMK FG8

CYYG;2009-03-27 12:00;CYYG 271200Z 27002KT 1/2SM R03/1800VP6000FT/U FZFG VV002 M04/M04 A2996 RMK FG8 SLP149

CYYG;2009-03-27 13:00;CYYG 271300Z 26002KT 1/2SM R03/2200V5000FT/D FZFG VV002 M04/M04 A2996 RMK FG8 SLP146

CYYG;2009-03-27 13:25;CYYG 271325Z 32003KT 1SM R03/4000VP6000FT/D BR OVC002 M03/ RMK ST8

CYYG;2009-03-27 14:00;CYYG 271400Z 35002KT 1 1/2SM BR OVC002 M03/M03 A2996 RMK ST8 SLP147

CYYG;2009-03-27 14:15;CYYG 271415Z 00000KT 6SM BR OVC004 M03/ RMK SF8

CYYG;2009-03-27 14:49;CYYG 271449Z 31002KT 10SM OVC006 M02/ RMK SF8

CYYG;2009-03-27 15:00;CYYG 271500Z 29004KT 12SM OVC005 M02/M02 A2996 RMK SF8 SLP149

CYYG;2009-03-27 16:00;CYYG 271600Z 00000KT 15SM BKN008 M01/M01 A2996 RMK SF7 SLP148

CYYG;2009-03-27 16:28;CYYG 271628Z 00000KT 15SM BKN010 BKN180 OVC250 M01/ RMK SC5AC2CI1

CYYG;2009-03-27 17:00;CYYG 271700Z 00000KT 15SM FEW010 SCT120 OVC160 M01/M02 A2994 RMK SC1AC2AC4 SLP141

CYYG;2009-03-27 18:00;CYYG 271800Z 00000KT 15SM FEW010 BKN130 OVC200 00/M01 A2993 RMK SC1AC6CI1 SLP137

CYYG;2009-03-27 19:00;CYYG 271900Z 18003KT 15SM BKN110 OVC220 01/M02 A2992 RMK AC7CI1 SLP134

CYYG;2009-03-27 20:00;CYYG 272000Z 24005KT 15SM OVC094 01/M02 A2993 RMK AC8 SLP139

CYYG;2009-03-27 21:00;CYYG 272100Z 23003KT 15SM FEW060 BKN085 OVC220 01/M01 A2993 RMK SC1AC6CI1 SLP138

CYYG;2009-03-27 22:00;CYYG 272200Z 18002KT 15SM OVC075 01/M01 A2993 RMK AC8 SLP136

CYYG;2009-03-27 23:00;CYYG 272300Z 23004KT 15SM BKN053 01/M02 A2996 RMK SC7 SLP146

CYYG;2009-03-28 00:00;CYYG 280000Z 21003KT 15SM BKN051 01/M02 A2996 RMK SC7 SLP149

CYYG;2009-03-28 01:00;CYYG 280100Z 20003KT 15SM BKN044 01/M01 A2997 RMK SC7 SLP151

CYYG;2009-03-28 02:00;CYYG 280200Z 22006KT 15SM OVC043 00/M02 A2997 RMK SC8 SLP150

CYYG;2009-03-28 03:00;CYYG 280300Z 24006KT 15SM BKN043 M01/M02 A2997 RMK SC6 SLP150

CYYG;2009-03-28 04:00;CYYG 280400Z 23005KT 15SM SCT043 M01/M02 A2996 RMK SC4 SLP149

CYYG;2009-03-28 05:00;CYYG 280500Z 21002KT 15SM SCT043 M02/M03 A2997 RMK SC3 SLP151

CYYG;2009-03-28 06:00;CYYG 280600Z 22003KT 15SM BKN033 M00/M02 A2998 RMK SC7 SLP156

CYYG;2009-03-28 07:00;CYYG 280700Z 25007KT 15SM BKN033 00/M02 A2998 RMK SC6 SLP153

CYYG;2009-03-28 08:00;CYYG 280800Z 27006KT 15SM BKN033 01/M01 A2997 RMK SC5 SLP152

CYYG;2009-03-28 09:00;CYYG 280900Z CCA 27007KT 15SM SCT033 01/M01 A2999 RMK SC3 FROIN SLP157

CYYG;2009-03-28 10:00;CYYG 281000Z 30006KT 15SM FEW080 01/M01 A3000 RMK AC1 SLP161

CYYG;2009-03-28 11:00;CYYG 281100Z 30004KT 15SM BKN300 01/M00 A3001 RMK CI2 SLP166

CYYG;2009-03-28 12:00;CYYG 281200Z 29004KT 15SM BKN230 02/00 A3004 RMK CI5 SLP174

CYYG;2009-03-28 13:00;CYYG 281300Z 27006KT 15SM OVC210 03/01 A3004 RMK CI6 SLP174

CYYG;2009-03-28 14:00;CYYG 281400Z 27005KT 15SM OVC200 04/01 A3004 RMK CI6 SLP176

CYYG;2009-03-28 15:00;CYYG 281500Z 26004KT 15SM BKN200 06/01 A3004 RMK CI5 SLP176

CYYG;2009-03-28 16:00;CYYG 281600Z 25005KT 15SM SCT160 BKN200 07/01 A3004 RMK AC2CI3 SLP176

CYYG;2009-03-28 17:00;CYYG 281700Z 27005KT 15SM BKN200 07/01 A3004 RMK CI5 SLP173

CYYG;2009-03-28 18:00;CYYG 281800Z 24006KT 15SM SCT140 BKN200 08/01 A3002 RMK AC2CI2 SLP167

CYYG;2009-03-28 19:00;CYYG 281900Z 22005KT 15SM FEW140 SCT200 09/02 A3001 RMK AC1CI2 SLP163

CYYG;2009-03-28 20:00;CYYG 282000Z 20006KT 15SM FEW200 09/01 A3000 RMK CI1 SLP162

CYYG;2009-03-28 21:00;CYYG 282100Z 21004KT 15SM FEW200 08/01 A2998 RMK CI1 SLP152

CYYG;2009-03-28 22:00;CYYG 282200Z 21005KT 15SM FEW200 07/01 A2998 RMK CI1 SLP153

CYYG;2009-03-28 23:00;CYYG 282300Z 22004KT 15SM FEW200 05/00 A2997 RMK CI1 SLP150

CYYG;2009-03-29 00:00;CYYG 290000Z 22007KT 15SM FEW200 04/00 A2999 RMK CI1 SLP158

CYYG;2009-03-29 01:00;CYYG 290100Z 23008KT 15SM FEW200 03/M00 A2999 RMK CI1 SLP159

CYYG;2009-03-29 02:00;CYYG 290200Z 23007KT 15SM FEW200 03/M00 A2998 RMK CI2 SLP154

CYYG;2009-03-29 03:00;CYYG 290300Z 23008KT 15SM FEW200 03/M00 A2998 RMK CI2 SLP154

CYYG;2009-03-29 04:00;CYYG 290400Z 22008KT 15SM SKC 02/M00 A2997 RMK SLP150

CYYG;2009-03-29 05:00;CYYG 290500Z 25004KT 15SM BKN096 02/00 A2998 RMK AC5 SLP152

CYYG;2009-03-29 06:00;CYYG 290600Z 27002KT 15SM BKN093 02/00 A2998 RMK AC6 SLP152

CYYG;2009-03-29 07:00;CYYG 290700Z 23004KT 15SM OVC091 02/00 A2996 RMK AC8 SLP146

CYYG;2009-03-29 08:00;CYYG 290800Z 00000KT 15SM BKN090 02/00 A2994 RMK AC6 SLP139

CYYG;2009-03-29 09:00;CYYG 290900Z 27002KT 15SM SCT090 00/M00 A2994 RMK AC3 SLP141

CYYG;2009-03-29 10:00;CYYG 291000Z 00000KT 15SM SCT084 00/M01 A2996 RMK AC3 SLP145

CYYG;2009-03-29 11:00;CYYG 291100Z 33002KT 15SM FEW085 SCT300 M00/M01 A2995 RMK AC1CI1 SLP143

CYYG;2009-03-29 12:00;CYYG 291200Z 23004KT 15SM FEW085 SCT300 02/00 A2997 RMK AC1CI1 SLP151

CYYG;2009-03-29 13:00;CYYG 291300Z 05002KT 15SM FEW085 FEW230 SCT300 05/02 A2997 RMK AC1CC1CI0 SLP151

CYYG;2009-03-29 14:00;CYYG 291400Z 15003KT 15SM FEW085 FEW230 SCT300 06/02 A2998 RMK AC1CC2CI0 SLP154

CYYG;2009-03-29 15:00;CYYG 291500Z 00000KT 15SM FEW085 BKN300 07/02 A2996 RMK AC1CI1 SLP147

CYYG;2009-03-29 16:00;CYYG 291600Z 03007KT 15SM FEW080 BKN300 07/02 A2995 RMK AC1CI1 SLP143

CYYG;2009-03-29 17:00;CYYG 291700Z 05005KT 15SM FEW300 08/02 A2993 RMK CI1 SLP138

CYYG;2009-03-29 18:00;CYYG 291800Z 04010KT 15SM FEW300 08/01 A2990 RMK CI1 SLP127

CYYG;2009-03-29 19:00;CYYG 291900Z 02009KT 15SM FEW300 07/02 A2992 RMK CI1 SLP132

CYYG;2009-03-29 20:00;CYYG 292000Z 02009KT 15SM BKN300 06/01 A2992 RMK CI1 SLP134

CYYG;2009-03-29 21:00;CYYG 292100Z 04010KT 15SM FEW160 BKN300 04/00 A2991 RMK AC1CI2 SLP131

CYYG;2009-03-29 22:00;CYYG 292200Z 05013KT 15SM BKN160 OVC220 03/M00 A2991 RMK AC6CI2 SLP132

CYYG;2009-03-29 23:00;CYYG 292300Z 05009KT 15SM BKN140 OVC220 02/M00 A2990 RMK AC7CI1 SLP127

CYYG;2009-03-30 00:00;CYYG 300000Z 05009KT 15SM BKN170 BKN220 02/M01 A2989 RMK AC6CI1 SLP124

CYYG;2009-03-30 01:00;CYYG 300100Z 05009KT 15SM OVC150 01/M01 A2990 RMK AC7 SLP126

CYYG;2009-03-30 02:00;CYYG 300200Z 06009KT 15SM BKN130 01/M01 A2989 RMK AC6 SLP123

CYYG;2009-03-30 03:00;CYYG 300300Z 07011KT 15SM OVC130 00/M01 A2987 RMK AC8 SLP115

CYYG;2009-03-30 04:00;CYYG 300400Z 07012KT 15SM OVC140 00/M01 A2986 RMK AC8 SLP112

CYYG;2009-03-30 05:00;CYYG 300500Z 07011KT 15SM OVC100 01/M01 A2985 RMK AC8 SLP108

CYYG;2009-03-30 06:00;CYYG 300600Z 07011KT 15SM OVC100 01/M01 A2982 RMK AC8 SLP100

CYYG;2009-03-30 07:00;CYYG 300700Z 07014KT 15SM OVC110 01/M01 A2977 RMK AC8 SLP084

CYYG;2009-03-30 08:00;CYYG 300800Z 07013KT 15SM OVC090 01/M01 A2974 RMK AC8 SLP074

CYYG;2009-03-30 09:00;CYYG 300900Z 07008KT 15SM OVC090 01/M02 A2976 RMK AC8 SLP079

CYYG;2009-03-30 10:00;CYYG 301000Z 10011KT 15SM OVC090 01/M01 A2973 RMK AC7 SLP068

CYYG;2009-03-30 11:00;CYYG 301100Z 11012KT 15SM OVC060 02/M01 A2971 RMK NS8 SLP062

CYYG;2009-03-30 12:00;CYYG 301200Z 10014G25KT 15SM FEW010 OVC045 01/M01 A2970 RMK SF1NS8 SLP058

CYYG;2009-03-30 12:37;CYYG 301237Z 11017KT 5SM -SN FEW012 OVC035 01/ RMK SF1NS7

CYYG;2009-03-30 12:44;CYYG 301244Z 10013G22KT 2 1/2SM -SN FEW012 VV020 01/ RMK SF2SN6

CYYG;2009-03-30 13:00;CYYG 301300Z 10018KT 1 1/2SM -SN VV012 01/M01 A2970 RMK SN8 SLP059

CYYG;2009-03-30 13:50;CYYG 301350Z 09014KT 3/4SM R03/3500V6000FT/D -SN OVC007 M00/ RMK SN6SF2

CYYG;2009-03-30 14:00;CYYG 301400Z 09013G18KT 3/4SM R03/4000FT/D -SN OVC007 M00/M00 A2969 RMK SN6SF2 SLP055

CYYG;2009-03-30 14:41;CYYG 301441Z 07016KT 1/2SM R03/2600FT/N SN VV005 M00/ RMK SN8

CYYG;2009-03-30 15:00;CYYG 301500Z 07015KT 1/2SM R03/3500FT/D SN VV005 M00/M00 A2966 RMK SN8 SLP046

CYYG;2009-03-30 15:06;CYYG 301506Z 07014G19KT 3/4SM R03/2800VP6000FT/U -SN OVC007 M00/ RMK SN6SF2

CYYG;2009-03-30 15:36;CYYG 301536Z 07014KT 1SM R03/P6000FT/U -SN OVC008 M00/ RMK SN5SF3

CYYG;2009-03-30 16:00;CYYG 301600Z 05009G16KT 5/8SM R03/3000V5000FT/D -SN OVC007 M01/M01 A2966 RESN RMK SN6SF2 /S02/ SLP044

CYYG;2009-03-30 16:06;CYYG 301606Z 05009KT 1/2SM R03/3000FT/N SN OVC007 M01/ RMK SN6SF2

CYYG;2009-03-30 17:00;CYYG 301700Z 06012KT 3/8SM R03/2200FT/U SN VV004 M01/M01 A2966 RMK SN8 /S03/ SLP044

CYYG;2009-03-30 17:16;CYYG 301716Z 06013KT 1/2SM R03/2000V2800FT/U SN VV005 M01/ RMK SN8

CYYG;2009-03-30 17:25;CYYG 301725Z 06013KT 3/8SM R03/1800V2600FT/D SN VV004 M01/ RMK SN8

CYYG;2009-03-30 17:34;CYYG 301734Z 06015KT 1/4SM R03/1200V1800FT/N +SN VV003 M01/ RMK SN8

CYYG;2009-03-30 17:52;CYYG 301752Z 06016KT 3/8SM R03/1800FT/N SN VV004 M01/ RESN RMK SN8

CYYG;2009-03-30 18:00;CYYG 301800Z 06016KT 3/8SM R03/1800FT/N SN VV004 M01/M01 A2960 RESN RMK SN8 /S05/ SLP026

CYYG;2009-03-30 18:21;CYYG 301821Z 06016G21KT 1/4SM R03/1100V2000FT/D +SN VV003 M01/ RMK SN8

CYYG;2009-03-30 19:00;CYYG 301900Z 05014G20KT 1/4SM R03/1100FT/N +SN DRSN VV003 M01/M01 A2958 RMK SN8 /S02/ SLP018

CYYG;2009-03-30 19:28;CYYG 301928Z 05016KT 3/8SM R03/1600FT/N SN DRSN VV004 M01/ RESN RMK SN8

CYYG;2009-03-30 19:43;CYYG 301943Z 05018G24KT 5/8SM R03/2200V3000FT/U -SN DRSN OVC006 M01/ RESN RMK SN6SF2

CYYG;2009-03-30 20:00;CYYG 302000Z 05020G26KT 2SM -SN DRSN OVC006 M01/M02 A2957 RESN RMK SF8 /S05/ SLP015

CYYG;2009-03-30 21:00;CYYG 302100Z 05018G24KT 1 1/2SM R03/6000FT/D -SN DRSN OVC006 M01/M02 A2958 RMK SN2SF6 /S06/ SLP017

CYYG;2009-03-30 22:00;CYYG 302200Z 05018G24KT 1 1/4SM R03/3500V5500FT/D -SN DRSN OVC006 M01/M02 A2956 RMK SN2SF6 SLP012

CYYG;2009-03-30 22:10;CYYG 302210Z 05018G24KT 3/4SM R03/3500FT/D -SN DRSN OVC006 M02/ RMK SN4SF4

CYYG;2009-03-30 22:23;CYYG 302223Z 05020G26KT 1/2SM R03/2600V3500FT/D SN DRSN VV005 M02/ RMK SN8

CYYG;2009-03-30 22:47;CYYG 302247Z 04020G27KT 3/4SM R03/5500FT/N -SN DRSN VV005 M02/ RMK SN8

CYYG;2009-03-30 23:00;CYYG 302300Z 05018G25KT 3/4SM R03/4500VP6000FT/N -SN DRSN VV006 M02/M02 A2958 RMK SN8 /S08/ SLP019

CYYG;2009-03-31 00:00;CYYG 310000Z 04022G28KT 1/2SM R03/2200FT/N -SN BLSN VV005 M02/M02 A2959 RMK SN8 /S08/ SLP022

CYYG;2009-03-31 01:00;CYYG 310100Z CCA 04022G27KT 1/4SM R03/2200FT/D -SN +BLSN VV004 M01/M02 A2959 RMK SN8 /S02/ SLP023

CYYG;2009-03-31 02:00;CYYG 310200Z 04024G30KT 1/4SM R03/2200FT/N -SN +BLSN VV005 M01/M02 A2959 RMK SN8 /S03/ SLP023

CYYG;2009-03-31 03:00;CYYG 310300Z 04023G30KT 1/4SM R03/2400FT/N -SN +BLSN VV006 M01/M01 A2960 RMK SN8 /S04/ SLP025

CYYG;2009-03-31 03:42;CYYG 310342Z 04023G33KT 3/4SM R03/2800FT/N -SN BLSN VV004 M01/ RMK SN8

CYYG;2009-03-31 04:00;CYYG 310400Z 04024G37KT 1SM R03/2800FT/U -SN BLSN VV008 M01/M01 A2960 RMK SN8 SLP025

CYYG;2009-03-31 04:31;CYYG 310431Z 04028G35KT 1 1/2SM R03/3500FT/N -SN BLSN OVC010 M01/ RMK SN6SC2

CYYG;2009-03-31 05:00;CYYG 310500Z 04026G36KT 1 1/2SM R03/3000V5000FT/D -SN BLSN OVC011 M01/M02 A2961 RMK SN6SC2 /S05/ SLP030

CYYG;2009-03-31 05:18;CYYG 310518Z 04028G37KT 1/2SM R03/2600FT/D -SN BLSN VV007 M01/ RMK SN8 /S05/

CYYG;2009-03-31 06:00;CYYG 310600Z 05027G37KT 1SM R03/3500FT/N -SN BLSN OVC011 M01/M02 A2964 RMK SN6SC2 /S05/ SLP039

CYYG;2009-03-31 07:00;CYYG 310700Z 04024G31KT 1 1/2SM R03/3500V5000FT/N -SN BLSN OVC012 M01/M02 A2966 RMK SN6SC2 SLP048

CYYG;2009-03-31 08:00;CYYG 310800Z 04022G28KT 1SM R03/3500FT/N -SN BLSN OVC011 M02/M02 A2969 RMK SN6SC2 SLP058

CYYG;2009-03-31 09:00;CYYG 310900Z 04025G30KT 1 1/2SM R03/3500FT/U -SN BLSN OVC013 M02/M02 A2973 RMK SN6SC2 SLP071

CYYG;2009-03-31 10:00;CYYG 311000Z 03023G28KT 1 1/2SM -SN BLSN OVC014 M02/M02 A2977 RMK SN6SC2 SLP084

CYYG;2009-03-31 10:26;CYYG 311026Z 03020G30KT 2SM -SN BLSN OVC015 M02/ RMK SN3SC5

CYYG;2009-03-31 11:00;CYYG 311100Z 03023G29KT 2SM -SN BLSN OVC015 M02/M03 A2982 RMK SN3SC5 SLP099

CYYG;2009-03-31 11:41;CYYG 311141Z 03024G29KT 1SM R03/5500FT/N -SN BLSN OVC009 M02/ RMK SN4SF4

CYYG;2009-03-31 12:00;CYYG 311200Z 02023G31KT 2SM -SN BLSN OVC009 M02/M02 A2987 RMK SN3SF5 PRESRR /S06/ SLP119

CYYG;2009-03-31 13:00;CYYG 311300Z 03021G28KT 2SM -SN BLSN OVC008 M01/M02 A2993 RMK SN3SF5 SLP136

CYYG;2009-03-31 13:38;CYYG 311338Z 02015G24KT 4SM -SN DRSN BKN010 OVC045 M01/ RMK SN2SF3SC3

CYYG;2009-03-31 14:00;CYYG 311400Z 02016G26KT 10SM -SN SCT010 BKN028 OVC064 M00/M02 A2996 RMK SC3SC2SC3 SLP149

CYYG;2009-03-31 15:00;CYYG 311500Z 03020G25KT 12SM -SN SCT012 BKN062 BKN200 M00/M02 A2999 RMK SC3SC2CI1 SLP157

CYYG;2009-03-31 16:00;CYYG 311600Z 03019G28KT 15SM -SN FEW015 SCT065 BKN140 00/M02 A3003 RMK SC2SC2AC3 SLP171

CYYG;2009-03-31 17:00;CYYG 311700Z 03020G26KT 15SM -SHSN FEW015 SCT040 BKN140 00/M02 A3004 RMK SC2SC2AC3 SLP176

CYYG;2009-03-31 18:00;CYYG 311800Z 02018KT 15SM FEW010 BKN040 00/M02 A3006 RMK SC1SC7 SLP182

CYYG;2009-03-31 19:00;CYYG 311900Z 02014G21KT 15SM FEW010 OVC036 00/M02 A3009 RMK SC1SC7 SLP191

CYYG;2009-03-31 20:00;CYYG 312000Z 02013G18KT 15SM SCT013 OVC033 M00/M02 A3012 RMK SC4SC4 SLP202

CYYG;2009-03-31 20:38;CYYG 312038Z 01013KT 15SM BKN011 OVC033 M01/ RMK SC6SC2

CYYG;2009-03-31 21:00;CYYG 312100Z 02010G19KT 15SM BKN012 OVC033 M01/M02 A3015 RMK SC6SC2 SLP213

CYYG;2009-03-31 22:00;CYYG 312200Z 01010G17KT 15SM BKN012 OVC033 M01/M02 A3017 RMK SC5SC3 SLP219

CYYG;2009-03-31 23:00;CYYG 312300Z 01009KT 12SM BKN009 OVC035 M01/M03 A3020 RMK SF5SC3 SLP231

CYYG;2009-03-31 23:32;CYYG 312332Z 01007KT 12SM SCT008 OVC034 M01/ RMK SF4SC4

CYYG;2009-04-01 01:00;CYYG 010100Z 36006KT 12SM SCT008 OVC033 M02/M03 A3024 RMK SF3SC5 SLP244

CYYG;2009-04-01 02:00;CYYG 010200Z 36006KT 12SM FEW008 FEW035 M03/M03 A3024 RMK SF1SC2 SLP244

CYYG;2009-04-01 03:00;CYYG 010300Z 36005KT 12SM FEW008 FEW035 FEW240 M03/M04 A3025 RMK SF1SC1CI1 SLP246

CYYG;2009-04-01 04:00;CYYG 010400Z 33003KT 12SM SCT240 M04/M05 A3025 RMK CI1 SLP246

CYYG;2009-04-01 05:00;CYYG 010500Z 35003KT 12SM FEW240 M04/M05 A3025 RMK CI1 SLP247

CYYG;2009-04-01 06:00;CYYG 010600Z 34003KT 15SM SKC M06/M06 A3024 RMK SLP242

CYYG;2009-04-01 07:00;CYYG 010700Z 34002KT 15SM SKC M06/M06 A3024 RMK SLP242

CYYG;2009-04-01 08:00;CYYG 010800Z 33004KT 10SM VCFG SKC M06/M07 A3026 RMK SLP249

CYYG;2009-04-01 09:00;CYYG 010900Z 35002KT 6SM BR FEW250 M07/M08 A3027 RMK CI1 FROIN SLP252

CYYG;2009-04-01 10:00;CYYG 011000Z 32002KT 15SM MIFG SCT250 M07/M07 A3028 RMK CI1 FROIN SLP257

CYYG;2009-04-01 11:00;CYYG 011100Z 32002KT 15SM SCT240 M06/M06 A3031 RMK CI1 SLP265

CYYG;2009-04-01 12:00;CYYG 011200Z 32002KT 15SM SCT250 M04/M04 A3032 RMK CI1 SLP270

CYYG;2009-04-01 13:00;CYYG 011300Z 29002KT 15SM FEW020 FEW250 M03/M03 A3033 RMK SC1CI1 SLP274

CYYG;2009-04-01 14:00;CYYG 011400Z 18004KT 15SM FEW012 SCT220 M01/M03 A3032 RMK SC1CI1 SLP271

CYYG;2009-04-01 15:00;CYYG 011500Z 26003KT 15SM FEW012 SCT220 M00/M04 A3033 RMK SC1CI1 SLP273

CYYG;2009-04-01 16:00;CYYG 011600Z 16003KT 15SM FEW012 BKN220 00/M05 A3031 RMK SC1CI1 SLP266

CYYG;2009-04-01 17:00;CYYG 011700Z 21006KT 15SM FEW016 BKN220 01/M03 A3029 RMK SC1CI1 SLP261

CYYG;2009-04-01 18:00;CYYG 011800Z 22007KT 15SM FEW016 BKN220 01/M04 A3028 RMK SC1CC2 SLP255

CYYG;2009-04-01 19:00;CYYG 011900Z 19005KT 15SM FEW016 BKN220 01/M05 A3025 RMK SC1CC2 SLP245

CYYG;2009-04-01 20:00;CYYG 012000Z 18005KT 15SM BKN220 01/M05 A3025 RMK CI2 SLP245

CYYG;2009-04-01 21:00;CYYG 012100Z 18004KT 15SM OVC220 01/M05 A3024 RMK CI3 SLP242

CYYG;2009-04-01 22:00;CYYG 012200Z 13003KT 15SM BKN220 00/M05 A3021 RMK CS3 SLP234

CYYG;2009-04-01 23:00;CYYG 012300Z 17007KT 15SM OVC220 M01/M06 A3020 RMK CI4 SLP231

CYYG;2009-04-02 00:00;CYYG 020000Z 18004KT 15SM OVC220 M01/M05 A3019 RMK CI4 SLP227

CYYG;2009-04-02 01:00;CYYG 020100Z 19006KT 15SM OVC200 M01/M04 A3020 RMK CS4 HALO SLP228

CYYG;2009-04-02 02:00;CYYG 020200Z 20009KT 15SM OVC200 M01/M03 A3017 RMK CS4 SLP220

CYYG;2009-04-02 03:00;CYYG 020300Z 20010KT 15SM OVC190 M01/M03 A3015 RMK CS6 SLP214

CYYG;2009-04-02 04:00;CYYG 020400Z 21008KT 15SM OVC150 00/M03 A3015 RMK AS6 SLP212

CYYG;2009-04-02 05:00;CYYG 020500Z 22008KT 15SM OVC110 00/M03 A3014 RMK AC8 SLP210

CYYG;2009-04-02 06:00;CYYG 020600Z 22010KT 15SM OVC110 00/M02 A3014 RMK AC8 SLP207

CYYG;2009-04-02 07:00;CYYG 020700Z 20009KT 15SM OVC130 M00/M01 A3012 RMK AC8 SLP203

CYYG;2009-04-02 08:00;CYYG 020800Z 22008KT 15SM SCT012 OVC100 M00/M01 A3012 RMK SC3AC5 SLP201

CYYG;2009-04-02 08:22;CYYG 020822Z 22008KT 12SM BKN010 OVC070 00/ RMK SC6AC2

CYYG;2009-04-02 09:00;CYYG 020900Z 22011KT 12SM BKN012 OVC070 01/M01 A3011 RMK SC7AC1 SLP197

CYYG;2009-04-02 10:00;CYYG 021000Z 22009KT 15SM BKN012 OVC100 00/M01 A3010 RMK SC7AC1 SLP196

CYYG;2009-04-02 11:00;CYYG 021100Z 21013KT 15SM OVC015 00/M01 A3010 RMK SC7 SLP195

CYYG;2009-04-02 11:20;CYYG 021120Z 21011KT 10SM -SHRA BKN015 OVC022 00/ RMK SC6SC2

CYYG;2009-04-02 12:00;CYYG 021200Z 21012KT 10SM -SHRA OVC013 01/M00 A3011 RMK SC8 SLP199

CYYG;2009-04-02 12:29;CYYG 021229Z 21012KT 15SM BKN020 OVC029 01/ RMK SC6SC2

CYYG;2009-04-02 13:00;CYYG 021300Z 22010G16KT 15SM BKN024 OVC029 02/M00 A3010 RMK SC5SC3 SLP195

CYYG;2009-04-02 13:51;CYYG 021351Z 22012KT 15SM BKN010 OVC022 02/ RMK SC5SC3

CYYG;2009-04-02 14:00;CYYG 021400Z 22011KT 15SM BKN010 OVC023 02/01 A3009 RMK SC6SC2 SLP192

CYYG;2009-04-02 15:00;CYYG 021500Z 22012G17KT 15SM OVC010 04/02 A3007 RMK SC7 SLP186

CYYG;2009-04-02 16:00;CYYG 021600Z 23013KT 15SM OVC013 04/02 A3005 RMK SC8 SLP179

CYYG;2009-04-02 17:00;CYYG 021700Z 23012KT 15SM BKN014 06/03 A3006 RMK SC6 SLP182

CYYG;2009-04-02 18:00;CYYG 021800Z 23009KT 15SM BKN016 06/03 A3005 RMK SC7 SLP177

CYYG;2009-04-02 19:00;CYYG 021900Z 21007KT 15SM BKN016 06/03 A3003 RMK SC7 SLP172

CYYG;2009-04-02 20:00;CYYG 022000Z 21008KT 15SM BKN026 06/04 A3002 RMK SC7 SLP169

CYYG;2009-04-02 21:00;CYYG 022100Z 22007KT 15SM BKN027 07/04 A3002 RMK SC7 SLP167

CYYG;2009-04-02 22:00;CYYG 022200Z 18006KT 15SM BKN027 05/03 A2999 RMK SC6 SLP158

CYYG;2009-04-02 23:00;CYYG 022300Z 20008KT 15SM OVC025 05/03 A3001 RMK SC8 SLP163

CYYG;2009-04-03 00:00;CYYG 030000Z 22006KT 15SM OVC019 05/03 A3003 RMK SC8 SLP170

CYYG;2009-04-03 01:00;CYYG 030100Z 22005KT 15SM OVC020 04/03 A3003 RMK SC8 SLP172

CYYG;2009-04-03 02:00;CYYG 030200Z 23006KT 10SM OVC011 05/05 A3005 RMK SC8 SLP177

CYYG;2009-04-03 02:13;CYYG 030213Z 23006KT 10SM OVC008 05/ RMK SF8

CYYG;2009-04-03 03:00;CYYG 030300Z 25007KT 10SM OVC005 05/05 A3004 RMK SF8 SLP173

CYYG;2009-04-03 03:30;CYYG 030330Z 24008KT 10SM OVC004 05/ RMK SF8

CYYG;2009-04-03 04:00;CYYG 030400Z 25010KT 8SM OVC004 05/05 A3005 RMK SF8 SLP178

CYYG;2009-04-03 04:37;CYYG 030437Z 25011G16KT 3/4SM R03/4500VP6000FT/D BR VV002 04/ RMK FG8

CYYG;2009-04-03 05:00;CYYG 030500Z 25011KT 1/2SM R03/2200FT/N FG VV001 04/04 A3006 RMK FG8 SLP182

CYYG;2009-04-03 06:00;CYYG 030600Z 24009KT 1/2SM R03/1200FT/N FG VV001 04/04 A3005 RMK FG8 SLP179

CYYG;2009-04-03 07:00;CYYG 030700Z 23005KT 1/4SM R03/1200FT/N FG VV001 03/03 A3005 RMK FG8 SLP178

CYYG;2009-04-03 08:00;CYYG 030800Z 23005KT 1/4SM R03/1400FT/N FG VV001 03/03 A3006 RMK FG8 SLP183

CYYG;2009-04-03 09:00;CYYG 030900Z 19004KT 1/4SM R03/1400FT/N FG VV001 02/02 A3007 RMK FG8 SLP185

CYYG;2009-04-03 10:00;CYYG 031000Z 20007KT 1/4SM R03/1200FT/N FG VV001 02/02 A3008 RMK FG8 SLP188

CYYG;2009-04-03 11:00;CYYG 031100Z 23005KT 1/8SM R03/0900FT/N FG VV001 03/03 A3008 RMK FG8 SLP188

CYYG;2009-04-03 12:00;CYYG 031200Z 20004KT 1/8SM R03/0600FT/N FG VV001 04/04 A3009 RMK FG8 SLP192

CYYG;2009-04-03 13:00;CYYG 031300Z 19008KT 1/8SM R03/0500V1000FT/N FG VV001 05/05 A3008 RMK FG8 SLP187

CYYG;2009-04-03 14:00;CYYG 031400Z 17010KT 1/8SM R03/0600FT/N FG VV001 05/05 A3007 RMK FG8 SLP186

CYYG;2009-04-03 14:32;CYYG 031432Z 17009KT 1/4SM R03/0500V1400FT/U FG VV002 06/ RMK FG8

CYYG;2009-04-03 15:00;CYYG 031500Z 15004KT 1/8SM R03/0700V1100FT/N FG VV001 06/06 A3004 RMK FG8 SLP174

CYYG;2009-04-03 15:14;CYYG 031514Z 14006KT 1SM R03/0400VP6000FT/U BR VV002 07/ RMK FG8

CYYG;2009-04-03 15:34;CYYG 031534Z 15007KT 12SM FEW003 BKN060 07/ RMK SF2SC6

CYYG;2009-04-03 16:00;CYYG 031600Z 15006KT 15SM BKN051 BKN063 08/08 A3004 RMK SC6SC2 SLP173

CYYG;2009-04-03 17:00;CYYG 031700Z 17009KT 15SM OVC025 10/08 A3004 RMK SC8 SLP172

CYYG;2009-04-03 18:00;CYYG 031800Z 18011KT 15SM FEW011 BKN016 OVC025 09/08 A3003 RMK SC2SC3SC2 SLP171

CYYG;2009-04-03 19:00;CYYG 031900Z 15007KT 15SM FEW020 BKN059 BKN200 10/09 A3000 RMK SC1SC4CI0 SLP161

CYYG;2009-04-03 20:00;CYYG 032000Z 13005KT 15SM SCT070 OVC150 11/09 A2996 RMK AS4AS4 SLP148

CYYG;2009-04-03 21:00;CYYG 032100Z 13006KT 15SM BKN020 OVC025 11/08 A2994 RMK SC6SC2 SLP139

CYYG;2009-04-03 22:00;CYYG 032200Z 14008KT 15SM BKN013 OVC025 10/07 A2992 RMK SC6SC2 SLP134

CYYG;2009-04-03 23:00;CYYG 032300Z 16009KT 10SM -RA FEW005 BKN010 OVC027 08/08 A2991 RMK SF2SC4SC2 SLP129

CYYG;2009-04-03 23:27;CYYG 032327Z 15008KT 12SM BKN004 OVC045 08/ RMK SF6SC2 MOON VISBL

CYYG;2009-04-03 23:47;CYYG 032347Z 15010KT 1/2SM R03/2200VP6000FT/D FG BKN003 OVC050 08/ RMK SF6SC2 TOWER VIS 10 FG 20FT THK

CYYG;2009-04-04 00:00;CYYG 040000Z 15010KT 3/8SM R03/1600V2800FT/D FG SCT003 OVC050 08/08 A2990 RMK SF3SC5 TOWER VIS 10 FG 20FT THK SLP125

CYYG;2009-04-04 00:11;CYYG 040011Z 15010KT 10SM R03/2000VP6000FT/U BCFG BKN004 OVC050 08/ RMK SF6SC2

CYYG;2009-04-04 00:40;CYYG 040040Z 14011KT 12SM FEW004 FEW058 OVC140 08/ RMK SF1SC1AS6 MOON VISBL

CYYG;2009-04-04 01:00;CYYG 040100Z 14008KT 12SM FEW004 BKN062 OVC120 08/08 A2988 RMK SF1SC5AS3 SLP119

CYYG;2009-04-04 02:00;CYYG 040200Z 14007KT 15SM FEW052 OVC085 07/07 A2985 RMK SC2AS6 SLP110

CYYG;2009-04-04 02:07;CYYG 040207Z 13007KT 15SM -RA OVC060 07/ RMK SC8

CYYG;2009-04-04 03:00;CYYG 040300Z 12011KT 10SM RA OVC075 07/07 A2979 RMK AS8 PRESFR SLP089

CYYG;2009-04-04 04:00;CYYG 040400Z 12013KT 8SM -RA BKN004 OVC013 06/06 A2973 RERA RMK SF6SC2 SLP070

CYYG;2009-04-04 05:00;CYYG 040500Z 13012G18KT 3SM -RA BR OVC004 06/06 A2968 RERA RMK SF8 SLP052

CYYG;2009-04-04 05:32;CYYG 040532Z 13012KT 2SM RA BR OVC002 06/ RMK SF8

CYYG;2009-04-04 06:00;CYYG 040600Z 13012KT 2SM RA BR BKN002 OVC005 07/07 A2963 RMK SF6SF2 SLP035

CYYG;2009-04-04 06:47;CYYG 040647Z 13014KT 5SM -RA BR BKN003 OVC017 07/ RERA RMK SF7SC1

CYYG;2009-04-04 07:00;CYYG 040700Z 13014G20KT 6SM -RA BR BKN003 OVC018 07/07 A2957 RERA RMK SF7SC1 PRESFR SLP015

CYYG;2009-04-04 08:00;CYYG 040800Z 13013G19KT 5SM -RA BR BKN003 OVC014 07/07 A2953 RERA RMK SF7SC1 SLP000

CYYG;2009-04-04 08:16;CYYG 040816Z 13014KT 2 1/2SM +RA BR OVC004 07/ RMK SF8

CYYG;2009-04-04 09:00;CYYG 040900Z 14013G19KT 5SM -RA BR BKN004 OVC015 08/08 A2948 RERA RMK SF7SC1 SLP985

CYYG;2009-04-04 09:38;CYYG 040938Z 14014G20KT 12SM -RA BKN007 OVC013 08/ RERA RMK SF7SC1

CYYG;2009-04-04 10:00;CYYG 041000Z 14017G22KT 15SM OVC009 08/08 A2945 RERA RMK SF8 SLP974

CYYG;2009-04-04 10:30;CYYG 041030Z 14018G26KT 15SM OVC011 08/ RMK SC8

CYYG;2009-04-04 11:00;CYYG 041100Z 15011G19KT 15SM OVC010 08/08 A2946 RMK SC8 SLP976

CYYG;2009-04-04 12:00;CYYG 041200Z 14011G17KT 15SM OVC007 08/08 A2946 RMK SC8 SLP977

CYYG;2009-04-04 12:39;CYYG 041239Z 14012KT 12SM OVC004 08/ RMK SF8

CYYG;2009-04-04 13:00;CYYG 041300Z 14011KT 10SM OVC004 08/08 A2945 RMK SF8 SLP973

CYYG;2009-04-04 14:00;CYYG 041400Z 10009KT 12SM OVC003 09/09 A2943 RMK SF8 SLP968

CYYG;2009-04-04 14:52;CYYG 041452Z 16010KT 10SM OVC004 10/ RMK SF8

CYYG;2009-04-04 15:00;CYYG 041500Z 16009KT 10SM OVC004 10/10 A2943 RMK SF8 SLP967

CYYG;2009-04-04 15:44;CYYG 041544Z 16009G15KT 10SM BKN005 OVC010 11/ RMK SF6SC1

CYYG;2009-04-04 16:00;CYYG 041600Z 16011KT 10SM BKN005 BKN010 BKN230 12/11 A2942 RMK SF6SC1CI0 SLP964

CYYG;2009-04-04 16:21;CYYG 041621Z 16012KT 10SM SCT005 SCT230 12/ RMK SF3CI0

CYYG;2009-04-04 17:00;CYYG 041700Z 16012KT 12SM FEW005 FEW230 13/12 A2941 RMK SF2CI1 SLP959

CYYG;2009-04-04 18:00;CYYG 041800Z 16006KT 15SM FEW100 FEW230 14/12 A2940 RMK AC2CI1 SLP957

CYYG;2009-04-04 19:00;CYYG 041900Z 15012KT 15SM FEW005 BKN100 14/12 A2938 RMK SF1AC5 SLP950

CYYG;2009-04-04 20:00;CYYG 042000Z 14010KT 15SM SCT017 OVC100 14/12 A2936 RMK SC3AC4 SLP944

CYYG;2009-04-04 20:15;CYYG 042015Z 13008KT 15SM BKN011 BKN100 14/ RMK SC6AC2

CYYG;2009-04-04 20:39;CYYG 042039Z 12007KT 15SM SCT015 OVC110 14/ RMK SC3AC4

CYYG;2009-04-04 21:00;CYYG 042100Z 13008KT 15SM SCT015 BKN120 13/12 A2934 RMK SC3AC4 SLP935

CYYG;2009-04-04 21:22;CYYG 042122Z 12011KT 15SM BKN012 OVC120 11/ RMK SC6AC2

CYYG;2009-04-04 21:46;CYYG 042146Z 13010KT 15SM BKN007 OVC120 11/ RMK SF6AC2

CYYG;2009-04-04 22:00;CYYG 042200Z 13011KT 15SM BKN007 OVC120 11/10 A2931 RMK SF7AC1 SLP927

CYYG;2009-04-04 22:12;CYYG 042212Z 13009KT 10SM -RA OVC006 10/ RMK SF8

CYYG;2009-04-04 22:41;CYYG 042241Z 14009KT 6SM -RA BR OVC004 09/ RMK SF8

CYYG;2009-04-04 22:49;CYYG 042249Z 15009KT 2SM R03/3000VP6000FT/D -RA BR OVC002 09/ RMK SF8

CYYG;2009-04-04 23:00;CYYG 042300Z 15010KT 3/4SM R03/2600V4000FT/N -RA BR OVC002 09/09 A2932 RMK SF8 SLP928

CYYG;2009-04-04 23:38;CYYG 042338Z 18013KT 3SM -RA BR BKN003 OVC070 08/ RMK SF5AC3

CYYG;2009-04-05 00:00;CYYG 050000Z 18016KT 10SM SCT003 OVC070 07/07 A2933 RMK SF3AC5 SLP935

CYYG;2009-04-05 01:00;CYYG 050100Z 18016KT 15SM FEW003 SCT070 05/04 A2935 RMK SF1AC3 SLP940

CYYG;2009-04-05 02:00;CYYG 050200Z 18017KT 15SM FEW070 05/03 A2935 RMK AC2 SLP940

CYYG;2009-04-05 03:00;CYYG 050300Z 18012G18KT 15SM FEW070 04/02 A2936 RMK AC2 SLP944

CYYG;2009-04-05 04:00;CYYG 050400Z 17013KT 15SM SKC 04/01 A2938 RMK SLP949

CYYG;2009-04-05 05:00;CYYG 050500Z 16013KT 15SM SKC 03/02 A2939 RMK SLP952

CYYG;2009-04-05 06:00;CYYG 050600Z 17013KT 15SM FEW015 03/02 A2939 RMK SC1 SLP953

CYYG;2009-04-05 07:00;CYYG 050700Z 17011KT 15SM FEW035 SCT180 03/02 A2939 RMK SC2AC2 SLP954

CYYG;2009-04-05 08:00;CYYG 050800Z 17012KT 15SM SCT010 BKN032 BKN070 03/02 A2939 RMK SC3SC2AC2 SLP955

CYYG;2009-04-05 09:00;CYYG 050900Z 17010KT 15SM FEW010 OVC027 03/02 A2940 RMK SC2SC6 SLP956

CYYG;2009-04-05 10:00;CYYG 051000Z 16009KT 15SM FEW010 OVC032 03/02 A2941 RMK SC2SC6 SLP960

CYYG;2009-04-05 10:41;CYYG 051041Z 17007KT 3SM -RA BR OVC015 03/ RMK SC8

CYYG;2009-04-05 11:00;CYYG 051100Z 16008KT 3SM -RA BR OVC012 03/03 A2944 RMK SC8 SLP971

CYYG;2009-04-05 12:00;CYYG 051200Z 17011KT 3SM -RA BR OVC016 03/03 A2944 RMK SC8 SLP972

CYYG;2009-04-05 13:00;CYYG 051300Z 16011KT 3SM -RA BR FEW005 OVC026 04/04 A2945 RMK SF2SC6 SLP973

CYYG;2009-04-05 14:00;CYYG 051400Z 16010G15KT 6SM BR SCT005 OVC020 04/04 A2944 RMK SF3SC5 SLP972

CYYG;2009-04-05 15:00;CYYG 051500Z 16010KT 10SM FEW005 BKN020 OVC055 05/04 A2944 RMK SF2SC4SC2 SLP972

CYYG;2009-04-05 16:00;CYYG 051600Z 16011KT 12SM FEW005 BKN020 OVC050 05/04 A2944 RMK SF2SC6SC1 SLP969

CYYG;2009-04-05 17:00;CYYG 051700Z 18009KT 12SM OVC016 04/03 A2944 RMK SC8 SLP969

CYYG;2009-04-05 18:00;CYYG 051800Z 19008KT 3SM BR BKN006 OVC015 04/03 A2943 RMK SF6SC2 SLP969

CYYG;2009-04-05 18:47;CYYG 051847Z 17007KT 10SM -RA BKN010 OVC015 04/ RMK SF6SC2

CYYG;2009-04-05 19:00;CYYG 051900Z 16006KT 10SM -RA OVC010 04/03 A2943 RMK SF8 SLP969

CYYG;2009-04-05 20:00;CYYG 052000Z 17006KT 12SM FEW008 OVC011 04/03 A2944 RMK SF2SF6 SLP972

CYYG;2009-04-05 20:36;CYYG 052036Z 18006KT 12SM OVC009 04/ RMK SF8

CYYG;2009-04-05 21:00;CYYG 052100Z 18007KT 12SM OVC009 04/03 A2944 RMK SF8 SLP972

CYYG;2009-04-05 22:00;CYYG 052200Z 25003KT 12SM OVC009 04/03 A2946 RMK SF8 SLP978

CYYG;2009-04-05 23:00;CYYG 052300Z 23003KT 12SM OVC011 03/03 A2947 RMK SC8 SLP983

CYYG;2009-04-06 00:00;CYYG 060000Z 24002KT 15SM SCT011 OVC031 03/03 A2949 RMK SC3SC5 SLP989

CYYG;2009-04-06 01:00;CYYG 060100Z 26002KT 15SM FEW011 SCT030 OVC072 02/02 A2950 RMK SC1SC3AC4 SLP991

CYYG;2009-04-06 02:00;CYYG 060200Z 31002KT 15SM BKN015 BKN030 OVC070 02/02 A2951 RMK SC5SC2AC2 SLP994

CYYG;2009-04-06 02:39;CYYG 060239Z 32003KT 15SM OVC012 03/ RMK SC8

CYYG;2009-04-06 03:00;CYYG 060300Z 32003KT 15SM OVC013 03/03 A2951 RMK SC8 SLP995

CYYG;2009-04-06 04:00;CYYG 060400Z 32003KT 6SM BR FEW002 OVC011 03/02 A2952 RMK SF2SC6 SLP999

CYYG;2009-04-06 04:10;CYYG 060410Z 32004KT 3SM BR BKN002 OVC008 02/ RMK SF5SF3

CYYG;2009-04-06 04:45;CYYG 060445Z 32003KT 1SM R03/2800FT/N BR VV002 02/ RMK FG8

CYYG;2009-04-06 05:00;CYYG 060500Z 31004KT 5/8SM R03/3000FT/N BR VV002 02/02 A2954 RMK FG8 SLP004

CYYG;2009-04-06 06:00;CYYG 060600Z 31006KT 5/8SM R03/4000FT/N BR BKN002 OVC010 02/02 A2956 RMK SF6SF2 SLP012

CYYG;2009-04-06 07:00;CYYG 060700Z 29007KT 5/8SM R03/3500V4500FT/N BR OVC002 01/01 A2958 RMK SF8 SLP019

CYYG;2009-04-06 08:00;CYYG 060800Z 30007KT 5/8SM R03/3500FT/N BR OVC002 01/01 A2960 RMK SF8 SLP027

CYYG;2009-04-06 09:00;CYYG 060900Z 30008KT 5/8SM R03/3500FT/D BR OVC002 01/01 A2963 RMK SF8 SLP035

CYYG;2009-04-06 10:00;CYYG 061000Z 32007KT 5/8SM R03/3000FT/N BR OVC002 01/01 A2965 RMK FG5SF3 SLP041

CYYG;2009-04-06 10:21;CYYG 061021Z 32010KT 3/4SM R03/4000FT/U BR OVC002 01/ RMK FG3SF5

CYYG;2009-04-06 10:24;CYYG 061024Z 33009KT 3/4SM R03/4500FT/N -DZ BR OVC002 00/ RMK FG3SF5

CYYG;2009-04-06 11:00;CYYG 061100Z 31007KT 2SM -DZ BR OVC003 00/00 A2969 RMK ST8 SLP055

CYYG;2009-04-06 11:11;CYYG 061111Z 29008KT 3SM -DZ BR OVC004 00/ RMK ST8

CYYG;2009-04-06 12:00;CYYG 061200Z 29009KT 7SM -DZ OVC003 01/01 A2971 RMK ST8 SLP063

CYYG;2009-04-06 12:54;CYYG 061254Z 31008KT 15SM BKN006 01/ RMK SF7

CYYG;2009-04-06 13:00;CYYG 061300Z 31008KT 15SM BKN006 01/01 A2973 RMK SF7 SLP069

CYYG;2009-04-06 13:39;CYYG 061339Z 31010KT 15SM OVC007 02/ RMK SF8 SUN OCNL VISBL

CYYG;2009-04-06 14:00;CYYG 061400Z 31011KT 15SM OVC008 02/01 A2975 RMK SF8 SUN OCNL VISBL SLP076

CYYG;2009-04-06 14:06;CYYG 061406Z 32011KT 15SM BKN010 OVC025 02/ RMK SC7SC1

CYYG;2009-04-06 14:37;CYYG 061437Z 32011KT 15SM OVC009 02/ RMK SC8

CYYG;2009-04-06 15:00;CYYG 061500Z 31011G16KT 15SM OVC009 02/01 A2977 RMK SC8 SLP083

CYYG;2009-04-06 15:36;CYYG 061536Z 31010KT 15SM BKN011 03/ RMK SC7

CYYG;2009-04-06 16:00;CYYG 061600Z 31012KT 15SM OVC011 02/M00 A2979 RMK SC8 SLP091

CYYG;2009-04-06 17:00;CYYG 061700Z 33011KT 15SM OVC014 03/00 A2980 RMK SC8 SLP094

CYYG;2009-04-06 18:00;CYYG 061800Z 32010G15KT 15SM BKN013 02/M00 A2982 RMK SC7 SLP102

CYYG;2009-04-06 19:00;CYYG 061900Z 33008KT 15SM OVC010 01/M01 A2985 RMK SC8 SLP109

CYYG;2009-04-06 19:26;CYYG 061926Z 33007KT 15SM OVC009 01/ RMK SC8

CYYG;2009-04-06 20:00;CYYG 062000Z 36008KT 15SM OVC009 01/M01 A2983 RMK SF8 SLP105

CYYG;2009-04-06 21:00;CYYG 062100Z 34006KT 15SM OVC007 00/M01 A2983 RMK SF8 SLP105

CYYG;2009-04-06 21:51;CYYG 062151Z 36003KT 15SM OVC006 00/ RMK SF8

CYYG;2009-04-06 22:00;CYYG 062200Z 34003KT 15SM BKN006 OVC020 00/M01 A2988 RMK SF7SC1 SLP120

CYYG;2009-04-06 23:00;CYYG 062300Z 34004KT 15SM BKN008 OVC020 M00/M01 A2989 RMK SF7SC1 SLP123

CYYG;2009-04-07 00:00;CYYG 070000Z 00000KT 15SM BKN007 OVC015 M00/M01 A2992 RMK SF6SC2 SLP134

CYYG;2009-04-07 01:00;CYYG 070100Z 00000KT 15SM BKN007 OVC017 M01/M01 A2992 RMK SF6SC2 SLP134

CYYG;2009-04-07 02:00;CYYG 070200Z 05005KT 15SM SCT003 OVC006 M01/M01 A2988 RMK SF4SF4 SLP121

CYYG;2009-04-07 02:30;CYYG 070230Z 13002KT 10SM BKN003 OVC012 M01/ RMK SF6SC2

CYYG;2009-04-07 03:00;CYYG 070300Z 07004KT 4SM BR BKN002 OVC011 M01/M01 A2987 RMK SF6SC2 SLP118

CYYG;2009-04-07 04:00;CYYG 070400Z 09005KT 3SM BR BKN002 OVC010 M01/M01 A2986 RMK SF6SC2 SLP114

CYYG;2009-04-07 05:00;CYYG 070500Z 11006KT 6SM BR OVC003 M01/M01 A2985 RMK SF8 SLP109

CYYG;2009-04-07 06:00;CYYG 070600Z 12008KT 6SM BR OVC004 00/00 A2985 RMK SF8 SLP109

CYYG;2009-04-07 07:00;CYYG 070700Z 11008KT 10SM OVC005 00/M00 A2980 RMK SF8 SLP093

CYYG;2009-04-07 08:00;CYYG 070800Z 11009KT 12SM OVC005 00/00 A2977 RMK SF8 SLP082

CYYG;2009-04-07 08:10;CYYG 070810Z 12011KT 10SM -RA BKN005 OVC068 01/ RMK SF6AC2

CYYG;2009-04-07 08:16;CYYG 070816Z 12012KT 10SM -RA SCT005 BKN032 OVC070 01/ RMK SF3SC2AC3

CYYG;2009-04-07 09:00;CYYG 070900Z 10014G19KT 10SM -RA SCT006 BKN032 OVC060 01/01 A2971 RMK SF3SC2SC2 SLP063

CYYG;2009-04-07 09:22;CYYG 070922Z 11017KT 10SM -RA BKN005 OVC060 01/ RMK SF6SC2

CYYG;2009-04-07 10:00;CYYG 071000Z 12016KT 8SM RA BKN005 OVC021 01/01 A2969 RMK SF6SC2 SLP057

CYYG;2009-04-07 10:37;CYYG 071037Z 11019KT 10SM -RA SCT006 BKN021 OVC058 02/ RMK SF3SC2SC2

CYYG;2009-04-07 11:00;CYYG 071100Z 11016G24KT 12SM -RA SCT005 BKN021 OVC058 02/02 A2966 RMK SF4SC2SC2 SLP044

CYYG;2009-04-07 11:30;CYYG 071130Z 12017G25KT 15SM -SHRA BKN008 BKN016 OVC040 02/ RMK SF5SC2SC2

CYYG;2009-04-07 12:00;CYYG 071200Z 13019G24KT 15SM -SHRA BKN007 BKN011 OVC040 02/02 A2962 RMK SF5SC2SC2 SLP033

CYYG;2009-04-07 13:00;CYYG 071300Z 13015G24KT 15SM -SHRA BKN007 OVC011 03/03 A2959 RMK SC7SC1 PCPN VRY LGT SLP023

CYYG;2009-04-07 13:20;CYYG 071320Z 13018G25KT 15SM OVC006 03/ RMK SC8

CYYG;2009-04-07 13:25;CYYG 071325Z CCA 13018G25KT 15SM -SHRA OVC007 03/ RMK SC8

CYYG;2009-04-07 14:00;CYYG 071400Z 13019G30KT 15SM -SHRA OVC006 04/04 A2954 RMK SF8 SLP004

CYYG;2009-04-07 14:42;CYYG 071442Z 13017G28KT 8SM -SHRA OVC004 04/ RMK SF8

CYYG;2009-04-07 15:00;CYYG 071500Z 13018G25KT 6SM -SHRA BR OVC004 04/04 A2952 RMK SF8 SLP000

CYYG;2009-04-07 16:00;CYYG 071600Z 14025G31KT 10SM -SHRA OVC005 06/06 A2947 RMK SF8 SLP983

CYYG;2009-04-07 16:05;CYYG 071605Z 14023G29KT 2SM -SHRA BR OVC004 05/ RMK SF8

CYYG;2009-04-07 17:00;CYYG 071700Z 14019G29KT 12SM -SHRA BKN007 OVC020 06/06 A2944 RMK SF6SC2 SLP971

CYYG;2009-04-07 17:45;CYYG 071745Z 13015G20KT 12SM -SHRA BKN005 OVC012 06/ RMK SF6SC2

CYYG;2009-04-07 18:00;CYYG 071800Z 13017KT 12SM -SHRA BKN006 OVC012 06/06 A2942 RMK SF6SC2 SLP966

CYYG;2009-04-07 19:00;CYYG 071900Z 15015G20KT 12SM -SHRA OVC004 08/08 A2941 RMK SF8 SLP960

CYYG;2009-04-07 19:43;CYYG 071943Z 15011G16KT 4SM -SHRA BR OVC004 09/ RMK SF8 VIS N 1

CYYG;2009-04-07 19:52;CYYG 071952Z 14013KT 3/4SM R03/3000VP6000FT/D -SHRA BR OVC003 08/ RMK SF8

CYYG;2009-04-07 20:00;CYYG 072000Z 15014G19KT 2SM R03/3000VP6000FT/U -SHRA BR OVC002 09/09 A2939 RMK SF8 SLP955

CYYG;2009-04-07 20:11;CYYG 072011Z 16013G18KT 8SM -SHRA OVC004 09/ RMK SF8

CYYG;2009-04-07 21:00;CYYG 072100Z 16017G24KT 12SM -SHRA BKN004 OVC010 11/11 A2939 RMK SF5SC3 SLP952

CYYG;2009-04-07 22:00;CYYG 072200Z 17015G21KT 2 1/2SM BR BKN003 OVC012 10/10 A2941 RMK SF6SC2 SLP959

CYYG;2009-04-07 23:00;CYYG 072300Z 17014G19KT 2 1/2SM BR SCT003 BKN077 09/09 A2942 RMK SF3AC4 SLP964

CYYG;2009-04-08 00:00;CYYG 080000Z 16011KT 4SM BR BKN077 08/08 A2944 RMK AC6 SLP972

CYYG;2009-04-08 01:00;CYYG 080100Z 18014KT 10SM SCT080 BKN200 08/08 A2946 RMK AC3CI2 SLP976

CYYG;2009-04-08 02:00;CYYG 080200Z 18011KT 15SM BKN160 BKN200 07/07 A2947 RMK AC5CI1 SLP982

CYYG;2009-04-08 03:00;CYYG 080300Z 17011KT 15SM BKN088 BKN200 07/07 A2948 RMK AC5CI2 SLP983

CYYG;2009-04-08 04:00;CYYG 080400Z 15008KT 15SM SCT060 BKN140 06/06 A2946 RMK SC3AC3 SLP976

CYYG;2009-04-08 05:00;CYYG 080500Z 18010KT 15SM OVC110 06/05 A2945 RMK AC7 SLP975

CYYG;2009-04-08 06:00;CYYG 080600Z 17007KT 15SM BKN052 OVC082 05/04 A2944 RMK SC6AC2 SLP972

CYYG;2009-04-08 07:00;CYYG 080700Z 18006KT 15SM BKN053 OVC086 05/04 A2941 RMK SC6AC2 SLP961

CYYG;2009-04-08 07:24;CYYG 080724Z 18008KT 15SM -SHRA OVC054 05/ RMK SC8

CYYG;2009-04-08 08:00;CYYG 080800Z 17005KT 15SM -SHRA OVC055 05/04 A2940 RMK SC8 SLP958

CYYG;2009-04-08 09:00;CYYG 080900Z 20007KT 15SM FEW022 SCT053 BKN096 04/03 A2941 RMK SC2SC2AC3 SLP959

CYYG;2009-04-08 10:00;CYYG 081000Z 19007KT 15SM SCT082 BKN093 04/03 A2939 RMK AC2AC4 SLP953

CYYG;2009-04-08 11:00;CYYG 081100Z 22005KT 15SM FEW082 BKN110 05/03 A2944 RMK AC2AS4 SLP969

CYYG;2009-04-08 12:00;CYYG 081200Z 25007KT 15SM BKN086 BKN110 05/02 A2946 RMK AC6AS1 SLP976

CYYG;2009-04-08 13:00;CYYG 081300Z 22013G18KT 15SM BKN021 05/02 A2949 RMK SC7 SLP986

CYYG;2009-04-08 14:00;CYYG 081400Z 22010KT 15SM BKN023 BKN041 06/03 A2950 RMK SC6SC2 SLP989

CYYG;2009-04-08 15:00;CYYG 081500Z 23015G20KT 15SM FEW021 BKN033 06/01 A2951 RMK SC2SC5 SLP993

CYYG;2009-04-08 16:00;CYYG 081600Z 22016G21KT 15SM FEW021 BKN037 06/01 A2951 RMK SC1SC5 SLP995

CYYG;2009-04-08 17:00;CYYG 081700Z 24015G22KT 15SM BKN041 07/01 A2952 RMK SC5 SLP998

CYYG;2009-04-08 18:00;CYYG 081800Z 22018KT 15SM SCT041 07/M00 A2953 RMK SC3 SLP001

CYYG;2009-04-08 19:00;CYYG 081900Z 24018G27KT 15SM FEW041 07/M01 A2956 RMK SC2 SLP010

CYYG;2009-04-08 20:00;CYYG 082000Z 25017KT 15SM BKN057 07/M02 A2957 RMK SC5 SLP013

CYYG;2009-04-08 21:00;CYYG 082100Z 25017G22KT 15SM FEW060 06/M03 A2956 RMK SC2 SLP013

CYYG;2009-04-08 22:00;CYYG 082200Z 25013G21KT 15SM SCT061 05/M04 A2958 RMK SC4 SLP018

CYYG;2009-04-08 23:00;CYYG 082300Z 26009KT 15SM FEW060 04/M03 A2960 RMK SC2 SLP025

CYYG;2009-04-09 00:00;CYYG 090000Z 26010KT 15SM FEW043 03/M03 A2962 RMK SC2 SLP032

CYYG;2009-04-09 01:00;CYYG 090100Z 25010KT 15SM SCT037 03/M02 A2965 RMK SC3 SLP042

CYYG;2009-04-09 02:00;CYYG 090200Z 23010KT 15SM BKN040 03/M01 A2967 RMK SC6 SLP048

CYYG;2009-04-09 03:00;CYYG 090300Z 21008KT 15SM BKN054 02/M01 A2968 RMK SC6 SLP052

CYYG;2009-04-09 04:00;CYYG 090400Z 21010G16KT 15SM OVC051 02/M02 A2969 RMK SC7 SLP055

CYYG;2009-04-09 05:00;CYYG 090500Z 21010KT 15SM OVC054 02/M02 A2971 RMK SC7 SLP061

CYYG;2009-04-09 06:00;CYYG 090600Z 20010G15KT 15SM BKN055 02/M02 A2971 RMK SC7 SLP063

CYYG;2009-04-09 07:00;CYYG 090700Z 20013KT 15SM BKN054 02/M01 A2973 RMK SC7 SLP068

CYYG;2009-04-09 08:00;CYYG 090800Z 21009KT 15SM BKN058 01/M01 A2974 RMK SC7 SLP071

CYYG;2009-04-09 09:00;CYYG 090900Z 20007KT 15SM OVC071 01/M01 A2974 RMK AC7 SLP074

CYYG;2009-04-09 10:00;CYYG 091000Z 21013KT 15SM OVC062 02/M00 A2976 RMK SC7 SLP080

CYYG;2009-04-09 11:00;CYYG 091100Z 21013KT 15SM BKN065 02/00 A2979 RMK SC7 SLP091

CYYG;2009-04-09 12:00;CYYG 091200Z 20010G15KT 15SM OVC070 03/01 A2980 RMK AC8 SLP093

CYYG;2009-04-09 13:00;CYYG 091300Z 21010G15KT 15SM FEW020 BKN068 04/01 A2980 RMK CU1AC6 SLP094

CYYG;2009-04-09 14:00;CYYG 091400Z 19017KT 15SM FEW015 BKN072 05/01 A2980 RMK CU2AC4 SLP092

CYYG;2009-04-09 15:00;CYYG 091500Z 18015G21KT 15SM FEW015 BKN072 07/02 A2980 RMK CF1AC5 SLP093

CYYG;2009-04-09 16:00;CYYG 091600Z CCA 19010G15KT 15SM BKN066 06/00 A2979 RMK CU7 SHRA W SLP089

CYYG;2009-04-09 17:00;CYYG 091700Z 23018KT 15SM BKN049 06/00 A2980 RMK SC7 SHRA W SLP092

CYYG;2009-04-09 17:18;CYYG 091718Z 21014G22KT 15SM -SHRA BKN052 BKN070 05/ RMK SC5AC2

CYYG;2009-04-09 17:27;CYYG 091727Z 21017KT 15SM SCT050 BKN075 06/ RMK SC4AC2

CYYG;2009-04-09 18:00;CYYG 091800Z 22014G21KT 15SM FEW030 SCT050 SCT070 BKN230 08/01 A2979 RMK CF1SC2AC1CI0 SLP090

CYYG;2009-04-09 19:00;CYYG 091900Z 22012G18KT 15SM FEW050 SCT070 BKN230 08/M02 A2979 RMK SC2AC1CI1 SLP088

CYYG;2009-04-09 20:00;CYYG 092000Z 23011KT 15SM FEW050 SCT070 BKN230 08/M03 A2979 RMK SC2AC2CI2 SLP088

CYYG;2009-04-09 21:00;CYYG 092100Z 23011G16KT 15SM FEW050 FEW070 BKN230 08/M03 A2978 RMK SC1AC2CI1 SLP085

CYYG;2009-04-09 22:00;CYYG 092200Z 24009G16KT 15SM FEW050 FEW070 SCT230 08/M03 A2980 RMK SC1AC1CI0 SLP092

CYYG;2009-04-09 23:00;CYYG 092300Z 25009KT 15SM FEW050 06/M03 A2981 RMK SC1 SLP097

CYYG;2009-04-10 00:00;CYYG 100000Z 25009KT 15SM FEW050 05/M03 A2983 RMK SC1 SLP104

CYYG;2009-04-10 01:00;CYYG 100100Z 22007KT 15SM FEW050 04/M03 A2985 RMK SC1 SLP111

CYYG;2009-04-10 02:00;CYYG 100200Z 22005KT 15SM SKC 03/M03 A2987 RMK SLP115

CYYG;2009-04-10 03:00;CYYG 100300Z 21005KT 15SM FEW050 03/M02 A2987 RMK SC1 SLP117

CYYG;2009-04-10 04:00;CYYG 100400Z 24004KT 15SM FEW050 02/M02 A2986 RMK SC1 SLP114

CYYG;2009-04-10 05:00;CYYG 100500Z 20006KT 15SM BKN087 01/M02 A2986 RMK AC3 SLP114

CYYG;2009-04-10 06:00;CYYG 100600Z 21006KT 15SM BKN086 02/M02 A2987 RMK AC4 SLP116

CYYG;2009-04-10 07:00;CYYG 100700Z 22005KT 15SM BKN094 02/M02 A2987 RMK AC6 SLP117

CYYG;2009-04-10 08:00;CYYG 100800Z 24005KT 15SM BKN096 01/M01 A2987 RMK AC6 SLP118

CYYG;2009-04-10 09:00;CYYG 100900Z 22005KT 15SM BKN099 01/M00 A2988 RMK AC6 SLP121

CYYG;2009-04-10 10:00;CYYG 101000Z 25007KT 15SM SCT048 OVC098 01/01 A2990 RMK SC4AC3 SLP127

CYYG;2009-04-10 11:00;CYYG 101100Z 00000KT 10SM FEW048 BKN090 02/01 A2993 RMK SC2AC2 SLP138

CYYG;2009-04-10 12:00;CYYG 101200Z 27007KT 15SM FEW045 04/02 A2994 RMK SC2 SLP140

CYYG;2009-04-10 13:00;CYYG 101300Z 28007KT 15SM FEW040 FEW240 07/M01 A2995 RMK SC1CC1 SC TR SLP144

CYYG;2009-04-10 14:00;CYYG 101400Z 27011KT 15SM FEW040 08/M04 A2996 RMK SC1 SLP145

CYYG;2009-04-10 15:00;CYYG 101500Z 30010KT 15SM FEW040 FEW240 08/M03 A2996 RMK CF1CI1 SLP146

CYYG;2009-04-10 16:00;CYYG 101600Z 30010G15KT 15SM FEW050 FEW240 09/M02 A2996 RMK CU1CI1 SLP145

CYYG;2009-04-10 17:00;CYYG 101700Z 32006KT 15SM FEW035 FEW240 10/M01 A2996 RMK CU2CI1 SLP147

CYYG;2009-04-10 18:00;CYYG 101800Z 02006KT 15SM SCT050 SCT070 BKN240 07/M00 A2996 RMK CU3AC1CI2 SLP147

CYYG;2009-04-10 19:00;CYYG 101900Z 04005KT 15SM SCT050 BKN070 BKN240 07/M01 A2996 RMK CU3AC2CI0 SLP147

CYYG;2009-04-10 20:00;CYYG 102000Z 03006KT 15SM BKN045 BKN070 07/M01 A2998 RMK CU5AC2 VIRGA W SLP152

CYYG;2009-04-10 21:00;CYYG 102100Z 24002KT 15SM FEW050 BKN080 BKN240 08/M01 A2995 RMK CU2AC3CI0 SLP144

CYYG;2009-04-10 22:00;CYYG 102200Z 31006KT 15SM BKN034 BKN080 BKN240 07/M00 A2996 RMK SC5AC2CI0 SLP147

CYYG;2009-04-10 23:00;CYYG 102300Z 28003KT 15SM SCT040 BKN069 OVC240 06/00 A2997 RMK SC3AC4CI0 SLP151

CYYG;2009-04-11 00:00;CYYG 110000Z 36003KT 15SM BKN048 BKN075 03/M03 A3001 RMK SC5AC2 SLP166

CYYG;2009-04-11 01:00;CYYG 110100Z 35004KT 15SM BKN045 BKN080 02/M02 A3003 RMK SC5AC2 SLP170

CYYG;2009-04-11 02:00;CYYG 110200Z 00000KT 15SM BKN044 BKN075 02/M03 A3004 RMK SC6AC2 SLP173

CYYG;2009-04-11 03:00;CYYG 110300Z 36003KT 15SM SCT044 BKN068 M00/M04 A3003 RMK SC3AC3 SLP170

CYYG;2009-04-11 04:00;CYYG 110400Z 01002KT 15SM FEW044 BKN063 M00/M03 A3003 RMK SC2SC4 SLP170

CYYG;2009-04-11 05:00;CYYG 110500Z 00000KT 15SM BKN055 M01/M03 A3004 RMK SC6 SLP174

CYYG;2009-04-11 06:00;CYYG 110600Z 26003KT 15SM SCT055 M02/M04 A3004 RMK SC4 SLP173

CYYG;2009-04-11 07:00;CYYG 110700Z 25004KT 15SM FEW055 M01/M04 A3004 RMK SC2 SLP174

CYYG;2009-04-11 08:00;CYYG 110800Z 00000KT 15SM FEW055 M02/M04 A3004 RMK SC2 SLP174

CYYG;2009-04-11 09:00;CYYG 110900Z 00000KT 15SM FEW055 BKN250 M02/M04 A3004 RMK SC1CI3 SLP174

CYYG;2009-04-11 10:00;CYYG 111000Z 00000KT 15SM BKN220 M01/M03 A3005 RMK CI6 SLP178

CYYG;2009-04-11 11:00;CYYG 111100Z 21003KT 15SM BKN220 M00/M02 A3008 RMK CI6 SLP188

CYYG;2009-04-11 12:00;CYYG 111200Z 23002KT 15SM SCT160 OVC200 02/M02 A3009 RMK AC3CS4 SLP190

CYYG;2009-04-11 13:00;CYYG 111300Z 22003KT 15SM SCT140 OVC200 03/M03 A3009 RMK AC4CS3 SLP191

CYYG;2009-04-11 14:00;CYYG 111400Z 00000KT 15SM FEW085 BKN120 OVC200 05/M03 A3009 RMK AC1AC6CI1 SLP190

CYYG;2009-04-11 15:00;CYYG 111500Z 17006KT 15SM SCT052 OVC110 05/M04 A3008 RMK SC3AC5 SLP188

CYYG;2009-04-11 16:00;CYYG 111600Z 19002KT 15SM SCT040 OVC056 06/M04 A3006 RMK SC4SC4 SLP183

CYYG;2009-04-11 17:00;CYYG 111700Z 00000KT 15SM BKN035 OVC056 07/M03 A3005 RMK SC7SC1 SLP178

CYYG;2009-04-11 18:00;CYYG 111800Z 01004KT 15SM OVC034 07/M02 A3004 RMK SC8 SLP174

CYYG;2009-04-11 19:00;CYYG 111900Z 05007KT 15SM VCSH OVC026 05/M02 A3002 RMK SC8 SLP168

CYYG;2009-04-11 20:00;CYYG 112000Z 03006KT 15SM VCSH OVC023 05/M02 A3001 RMK SC8 SLP164

CYYG;2009-04-11 21:00;CYYG 112100Z 04007KT 15SM VCSH OVC016 03/M03 A2998 RMK SC8 SLP156

CYYG;2009-04-11 22:00;CYYG 112200Z 02006KT 15SM SCT015 OVC020 02/M02 A2998 RMK SC3SC5 SLP154

CYYG;2009-04-11 23:00;CYYG 112300Z 03006KT 15SM SCT015 OVC025 01/M01 A2997 RMK SC4SC4 SLP151

CYYG;2009-04-12 00:00;CYYG 120000Z 07005KT 15SM BKN013 OVC025 02/02 A2996 RMK SC6SC2 SLP147

CYYG;2009-04-12 00:09;CYYG 120009Z 07004KT 12SM -RA BKN010 OVC025 02/ RMK SC6SC2

CYYG;2009-04-12 01:00;CYYG 120100Z 03006KT 10SM -RA BKN008 OVC022 02/01 A2994 RMK SF6SC2 SLP141

CYYG;2009-04-12 02:00;CYYG 120200Z 06006KT 8SM -RA SCT002 OVC006 02/02 A2991 RMK SF3SF5 SLP131

CYYG;2009-04-12 03:00;CYYG 120300Z 06009KT 10SM -RA FEW003 OVC006 03/02 A2987 RMK SF2SF6 SLP118

CYYG;2009-04-12 04:00;CYYG 120400Z 04010KT 10SM -RA SCT003 OVC006 01/01 A2985 RMK SF4SF4 SLP108

CYYG;2009-04-12 04:08;CYYG 120408Z 05009KT 8SM -RASN SCT003 OVC006 01/ RMK SF4SF4

CYYG;2009-04-12 04:50;CYYG 120450Z 04009KT 5SM -RASN BKN003 OVC006 01/ RMK SF6SF2

CYYG;2009-04-12 05:00;CYYG 120500Z 04011KT 3SM -SN BKN003 OVC006 00/00 A2982 RMK SF6SF2 SLP100

CYYG;2009-04-12 06:00;CYYG 120600Z 04014KT 1SM R03/5000FT/D -SN OVC003 00/00 A2977 RMK SF8 /S01/ SLP081

CYYG;2009-04-12 06:48;CYYG 120648Z 04016G22KT 3SM R03/3500VP6000FT/U -SN OVC004 00/ RMK SF8

CYYG;2009-04-12 07:00;CYYG 120700Z 04019G24KT 10SM -SN OVC004 00/00 A2968 RMK SF8 PRESFR /S01/ SLP052

CYYG;2009-04-12 07:12;CYYG 120712Z 05017G24KT 8SM -SN OVC003 00/ RMK SF8

CYYG;2009-04-12 08:00;CYYG 120800Z 05014G20KT 10SM -RA OVC003 00/00 A2965 RMK SF8 SLP042

CYYG;2009-04-12 09:00;CYYG 120900Z 04015KT 8SM RA OVC003 00/00 A2960 RMK SF8 RERA SLP025

CYYG;2009-04-12 10:00;CYYG 121000Z 02013G19KT 4SM -RA BR OVC003 00/00 A2955 RMK SF8 RERA SLP008

CYYG;2009-04-12 11:00;CYYG 121100Z 04012G18KT 2 1/2SM -RADZ BR OVC003 00/00 A2953 RMK SF8 SLP003

CYYG;2009-04-12 12:00;CYYG 121200Z 04009G16KT 2SM -RADZ BR OVC003 00/00 A2951 RMK SF8 SLP995

CYYG;2009-04-12 12:42;CYYG 121242Z 04013G19KT 1 1/4SM -RADZ BR OVC002 00/ RMK SF8

CYYG;2009-04-12 13:00;CYYG 121300Z 04015KT 1 1/4SM -RADZ BR OVC002 00/00 A2947 RMK SF8 SLP983

CYYG;2009-04-12 13:19;CYYG 121319Z 04013G18KT 3/4SM R03/4500FT/N -RADZ BR VV002 00/ RMK FG8

CYYG;2009-04-12 13:30;CYYG 121330Z 03011KT 1/2SM R03/2600V4000FT/D -DZ FG VV002 00/ RMK FG8

CYYG;2009-04-12 14:00;CYYG 121400Z 02008KT 3/8SM R03/1600V2400FT/N -DZ FG VV001 00/00 A2946 RMK FG8 SLP979

CYYG;2009-04-12 14:50;CYYG 121450Z 36005KT 1/4SM R03/1200FT/N FG VV001 00/ RMK FG8

CYYG;2009-04-12 15:00;CYYG 121500Z 02009KT 1/4SM R03/1100FT/N FG VV001 00/00 A2945 RMK FG8 SLP974

CYYG;2009-04-12 16:00;CYYG 121600Z 36008KT 1/4SM R03/1100FT/N FG VV001 00/00 A2942 RMK FG8 SLP966

CYYG;2009-04-12 17:00;CYYG 121700Z 36012KT 1/4SM R03/1000V1800FT/N FG VV001 00/00 A2939 RMK FG8 SLP956

CYYG;2009-04-12 18:00;CYYG 121800Z 36011KT 1/4SM R03/1200V2200FT/D FG VV001 00/00 A2939 RMK FG8 SLP954

CYYG;2009-04-12 19:00;CYYG 121900Z 35009G16KT 3/8SM R03/1600FT/N FG VV001 00/00 A2936 RMK FG8 SLP943

CYYG;2009-04-12 19:11;CYYG 121911Z 34009KT 1/2SM R03/2000FT/N -FZDZ FZFG VV002 M00/ RMK FG8

CYYG;2009-04-12 19:27;CYYG 121927Z 33013KT 5/8SM R03/3000FT/U -DZ BR VV002 00/ REFZDZ RMK FG8

CYYG;2009-04-12 19:52;CYYG 121952Z 35009G15KT 3/4SM R03/3500V5000FT/D -DZ BR VV002 00/ RMK FG8

CYYG;2009-04-12 20:00;CYYG 122000Z 34010G18KT 3/4SM R03/5000FT/U -FZDZ BR VV002 M00/M00 A2935 RMK FG8 SLP940

CYYG;2009-04-12 20:18;CYYG 122018Z 34009KT 3/4SM R03/5000FT/D -FZRA BR VV002 M00/ REFZDZ RMK FG8

CYYG;2009-04-12 21:00;CYYG 122100Z CCA 33011KT 1 1/2SM -FZRA BR OVC003 M00/M00 A2935 RMK SF8 REFZDZ SLP941

CYYG;2009-04-12 21:20;CYYG 122120Z 33009KT 2SM -FZRA BR OVC004 M00/M00 RMK SF8

CYYG;2009-04-12 22:00;CYYG 122200Z 33009KT 2SM BR OVC004 M00/M00 A2933 REFZRA RMK SF8 SLP936

CYYG;2009-04-12 23:00;CYYG 122300Z 31010KT 2SM BR OVC003 M00/M00 A2934 RMK SF8 SLP938

CYYG;2009-04-12 23:32;CYYG 122332Z 29008KT 2SM -FZDZ BR OVC003 M00/ RMK SF8

CYYG;2009-04-13 00:00;CYYG 130000Z 29009KT 2SM -FZDZ BR OVC004 M00/M00 A2934 RMK SF8 SLP939

CYYG;2009-04-13 01:00;CYYG 130100Z 28010KT 3SM -FZDZ BR OVC004 M00/M00 A2934 RMK SF8 SLP937

CYYG;2009-04-13 02:00;CYYG 130200Z 27007KT 3SM -FZDZ BR SCT003 OVC008 M00/M00 A2933 RMK SF3SF5 SLP933

CYYG;2009-04-13 03:00;CYYG 130300Z 25009KT 4SM -FZDZ BR OVC005 M00/M00 A2932 RMK SF8 SLP932

CYYG;2009-04-13 04:00;CYYG 130400Z 25011KT 4SM -FZDZ BR BKN004 OVC010 M00/M00 A2932 RMK SF6SC2 SLP931

CYYG;2009-04-13 04:17;CYYG 130417Z 25010KT 4SM -SHSN BKN005 OVC013 M00/ RMK SF6SC2

CYYG;2009-04-13 05:00;CYYG 130500Z 23010KT 3SM -SHSN BKN005 OVC013 M01/M01 A2932 RMK SF6SC2 SLP931

CYYG;2009-04-13 05:32;CYYG 130532Z 24009KT 6SM -SHSN SCT005 OVC029 M01/ RMK SF4SC4

CYYG;2009-04-13 06:00;CYYG 130600Z 23011KT 8SM -SHSN SCT005 OVC029 M00/M00 A2933 RMK SF4SC4 SLP933

CYYG;2009-04-13 07:00;CYYG 130700Z 24012G17KT 10SM -SHSN FEW005 OVC024 M00/M00 A2933 RMK SF2SC6 SLP934

CYYG;2009-04-13 08:00;CYYG 130800Z 24013G18KT 1SM R03/P6000FT/D -SHSN SCT004 OVC012 M00/M00 A2933 RMK SF3SC5 SLP935

CYYG;2009-04-13 09:00;CYYG 130900Z 24013G24KT 2SM -SHSN SCT008 OVC014 M00/M00 A2934 RMK SF3SC5 /S01/ SLP939

CYYG;2009-04-13 10:00;CYYG 131000Z 23016KT 2 1/2SM -SHSN BKN009 OVC014 M00/M00 A2936 RMK SF6SC2 SLP945

CYYG;2009-04-13 11:00;CYYG 131100Z 24013G19KT 2SM -SHSN BR OVC010 M00/M00 A2939 RMK SF8 SLP955

CYYG;2009-04-13 12:00;CYYG 131200Z 23013G24KT 1 1/2SM -SHSN BR BKN007 OVC020 M01/M01 A2940 RMK SF7SC1 SLP957

CYYG;2009-04-13 13:00;CYYG 131300Z 23011G18KT 1SM R03/4000VP6000FT/U -SHSN BR OVC008 M00/M00 A2940 RMK SF8 SLP958

CYYG;2009-04-13 14:00;CYYG 131400Z 25011KT 1SM R03/2600V5000FT/N -SHSN BR OVC010 M00/M00 A2942 RMK SF8 SLP965

CYYG;2009-04-13 15:00;CYYG 131500Z 24013KT 1 1/2SM R03/4000VP6000FT/U -SHSN BR OVC011 M00/M00 A2944 RMK SF8 SLP973

CYYG;2009-04-13 15:36;CYYG 131536Z 25013G18KT 3SM -SHSN BR BKN011 OVC019 00/ RMK SF6SC2

CYYG;2009-04-13 16:00;CYYG 131600Z 25014KT 4SM -SHSN BR OVC015 01/M01 A2946 RMK SC8 SLP977

CYYG;2009-04-13 17:00;CYYG 131700Z 25014G19KT 8SM -SHSN OVC013 01/M01 A2948 RMK SF8 PCPN VRY LGT SLP984

CYYG;2009-04-13 18:00;CYYG 131800Z 24014KT 15SM -SHSN BKN013 OVC020 01/M00 A2950 RMK SC6SC2 SLP990

CYYG;2009-04-13 19:00;CYYG 131900Z 25013KT 6SM -SHSN BKN015 OVC020 01/M01 A2952 RMK SC6SC2 SLP997

CYYG;2009-04-13 20:00;CYYG 132000Z 27010G16KT 4SM -SHSN BR OVC017 01/M00 A2953 RMK SC8 PCPN VRY LGT SLP003

CYYG;2009-04-13 20:48;CYYG 132048Z 25015KT 1SM R03/P6000FT/N -SHSN BKN009 OVC014 M00/ RMK SF6SC2

CYYG;2009-04-13 21:00;CYYG 132100Z 25012G18KT 1SM R03/P6000FT/N -SHSN BKN009 OVC015 00/M00 A2954 RMK SF6SC2 SLP006

CYYG;2009-04-13 21:42;CYYG 132142Z 26010G16KT 1 1/2SM -SHSN BKN009 OVC020 00/ RMK SF7SC1

CYYG;2009-04-13 22:00;CYYG 132200Z 26014KT 4SM -SHSN BKN011 OVC017 00/M00 A2956 RMK SF5SC3 SLP011

CYYG;2009-04-13 22:18;CYYG 132218Z 27014KT 12SM BKN018 00/ RMK SC6

CYYG;2009-04-13 23:00;CYYG 132300Z 26013G22KT 15SM BKN018 BKN025 01/M01 A2956 RMK SC5SC2 SLP013

CYYG;2009-04-13 23:29;CYYG 132329Z 27012G24KT 12SM -SHSN BKN015 OVC030 01/ RMK SC6SC2

CYYG;2009-04-14 00:00;CYYG 140000Z 28014G19KT 2SM -SHSN BKN007 OVC016 M00/M00 A2958 RMK SF6SC2 SLP019

CYYG;2009-04-14 00:24;CYYG 140024Z 28013G21KT 12SM -SHSN FEW007 OVC012 00/ RMK SF2SC6

CYYG;2009-04-14 01:00;CYYG 140100Z 29015G22KT 12SM -SHSN FEW010 OVC019 00/M01 A2960 RMK SC2SC6 SLP026

CYYG;2009-04-14 02:00;CYYG 140200Z 29016G24KT 12SM -SHSN SCT015 OVC034 M00/M01 A2963 RMK SC3SC5 SLP034

CYYG;2009-04-14 02:23;CYYG 140223Z 29015G24KT 8SM -SHSN FEW009 BKN015 OVC034 M00/ RMK SF1SC6SC2

CYYG;2009-04-14 03:00;CYYG 140300Z 29017G22KT 12SM -SHSN FEW009 OVC014 M00/M01 A2964 RMK SF1SC7 SLP040

CYYG;2009-04-14 04:00;CYYG 140400Z 30016G21KT 15SM -SHSN FEW009 OVC014 M00/M01 A2966 RMK SF1SC7 SLP047

CYYG;2009-04-14 05:00;CYYG 140500Z 30011G17KT 8SM -SHSN FEW009 OVC014 M00/M01 A2969 RMK SF2SC6 /S01/ SLP054

CYYG;2009-04-14 06:00;CYYG 140600Z 30008KT 10SM -SHSN SCT008 OVC012 M00/M00 A2969 RMK SF4SC4 SLP057

CYYG;2009-04-14 06:06;CYYG 140606Z 29009KT 5SM -SHSN BKN004 OVC010 M00/ RMK SF6SC2

CYYG;2009-04-14 07:00;CYYG 140700Z 31009KT 12SM -SHSN BKN009 OVC020 M00/M01 A2972 RMK SC6SC2 SLP065

CYYG;2009-04-14 07:35;CYYG 140735Z 30012KT 12SM -SHSN BKN010 OVC025 M01/ RMK SC5SC3

CYYG;2009-04-14 08:00;CYYG 140800Z 30011G16KT 10SM -SHSN SCT007 OVC015 M01/M01 A2974 RMK SF3SC5 SLP073

CYYG;2009-04-14 08:21;CYYG 140821Z 30011KT 1 1/2SM -SHSN OVC006 M01/ RMK SF8

CYYG;2009-04-14 08:45;CYYG 140845Z 30010G15KT 8SM -SHSN SCT006 OVC030 M01/ RMK SF4SC4

CYYG;2009-04-14 09:00;CYYG 140900Z CCA 31011G16KT 6SM -SHSN SCT009 OVC030 M01/M01 A2976 RMK SF4SC4 /S02/ SLP080

CYYG;2009-04-14 10:00;CYYG 141000Z 30010G17KT 12SM -SHSN FEW006 OVC012 M01/M02 A2978 RMK SF1SC7 SLP086

CYYG;2009-04-14 10:43;CYYG 141043Z 31012KT 15SM FEW012 BKN033 M00/ RMK SC1SC6

CYYG;2009-04-14 11:00;CYYG 141100Z 32013G18KT 15SM FEW018 BKN032 M01/M02 A2980 RMK SC2SC6 SLP093

CYYG;2009-04-14 12:00;CYYG 141200Z 31011KT 15SM BKN032 BKN044 M00/M02 A2981 RMK SC6SC2 SLP098

CYYG;2009-04-14 13:00;CYYG 141300Z 32013G19KT 15SM BKN027 00/M02 A2983 RMK SC7 SLP104

CYYG;2009-04-14 14:00;CYYG 141400Z 32014G20KT 15SM BKN028 01/M02 A2985 RMK SC6 SLP112

CYYG;2009-04-14 15:00;CYYG 141500Z 30012KT 15SM SCT018 BKN029 01/M01 A2987 RMK SC3SC4 SLP119

CYYG;2009-04-14 16:00;CYYG 141600Z 32014KT 15SM BKN026 01/M02 A2988 RMK SC6 SLP122

CYYG;2009-04-14 17:00;CYYG 141700Z 32011G18KT 15SM BKN025 01/M03 A2990 RMK SC7 SLP129

CYYG;2009-04-14 18:00;CYYG 141800Z 33009KT 15SM BKN027 01/M03 A2991 RMK SC7 SLP131

CYYG;2009-04-14 19:00;CYYG 141900Z 32009G16KT 15SM BKN029 01/M03 A2991 RMK SC6 SLP132

CYYG;2009-04-14 20:00;CYYG 142000Z 31008KT 15SM BKN029 01/M04 A2993 RMK SC7 SLP139

CYYG;2009-04-14 21:00;CYYG 142100Z 32006KT 15SM FEW030 BKN044 02/M03 A2993 RMK SC2SC3 SLP136

CYYG;2009-04-14 22:00;CYYG 142200Z 31008KT 15SM SCT035 02/M03 A2994 RMK SC2 SLP142

CYYG;2009-04-14 23:00;CYYG 142300Z 27005KT 15SM SCT035 01/M03 A2996 RMK SC3 SLP146

CYYG;2009-04-15 00:00;CYYG 150000Z 26006KT 15SM SCT035 01/M04 A2998 RMK SC3 SLP154

CYYG;2009-04-15 01:00;CYYG 150100Z 25006KT 15SM FEW035 SCT050 M01/M03 A3000 RMK SC2SC2 SLP160

CYYG;2009-04-15 02:00;CYYG 150200Z 27006KT 15SM FEW035 BKN061 M00/M03 A3000 RMK SC2SC3 SLP161

CYYG;2009-04-15 03:00;CYYG 150300Z 27006KT 15SM OVC061 00/M03 A3000 RMK SC8 SLP161

CYYG;2009-04-15 04:00;CYYG 150400Z 28007KT 15SM BKN060 M00/M03 A3000 RMK SC6 SLP161

CYYG;2009-04-15 05:00;CYYG 150500Z 28007KT 15SM SCT060 M00/M04 A3001 RMK SC4 SLP163

CYYG;2009-04-15 06:00;CYYG 150600Z 28006KT 15SM SCT060 M01/M04 A3001 RMK SC3 SLP164

CYYG;2009-04-15 07:00;CYYG 150700Z 28007KT 15SM SCT060 M01/M04 A3001 RMK SC3 SLP166

CYYG;2009-04-15 08:00;CYYG 150800Z 27006KT 15SM FEW060 M01/M05 A3003 RMK SC2 SLP171

CYYG;2009-04-15 09:00;CYYG 150900Z 29007KT 15SM FEW230 M02/M05 A3004 RMK CI0 SLP173

CYYG;2009-04-15 10:00;CYYG 151000Z 30006KT 15SM SKC M01/M05 A3005 RMK SLP179

CYYG;2009-04-15 11:00;CYYG 151100Z 31007KT 15SM SKC M00/M04 A3008 RMK SLP188

CYYG;2009-04-15 12:00;CYYG 151200Z 33007KT 15SM SKC 01/M04 A3009 RMK SLP192

CYYG;2009-04-15 13:00;CYYG 151300Z 34013G18KT 15SM FEW040 02/M08 A3010 RMK CF1 CF TR OBS TAKEN +07 SLP195

CYYG;2009-04-15 14:00;CYYG 151400Z 33014KT 15SM FEW040 02/M06 A3011 RMK CF1 CF TR SLP199

CYYG;2009-04-15 15:00;CYYG 151500Z 34010G17KT 15SM FEW040 03/M06 A3012 RMK CF1 SLP200

CYYG;2009-04-15 16:00;CYYG 151600Z 35013G18KT 15SM FEW032 02/M06 A3012 RMK CF2 SLP202

CYYG;2009-04-15 17:00;CYYG 151700Z 33014KT 15SM FEW035 02/M06 A3012 RMK CF2 OBS TAKEN +07 SLP203

CYYG;2009-04-15 18:00;CYYG 151800Z 34012KT 15SM FEW035 02/M08 A3012 RMK CF1 SLP203

CYYG;2009-04-15 19:00;CYYG 151900Z 33012G17KT 15SM SKC 03/M07 A3012 RMK SLP202

CYYG;2009-04-15 20:00;CYYG 152000Z 36010G18KT 15SM SKC 03/M07 A3012 RMK SLP202

CYYG;2009-04-15 21:00;CYYG 152100Z 35008KT 15SM SKC 03/M07 A3012 RMK SLP201

CYYG;2009-04-15 22:00;CYYG 152200Z 03010KT 15SM SKC 01/M05 A3013 RMK SLP206

CYYG;2009-04-15 23:00;CYYG 152300Z 36003KT 15SM SKC M01/M05 A3015 RMK SLP211

CYYG;2009-04-16 00:00;CYYG 160000Z 29003KT 15SM SKC M01/M06 A3017 RMK SLP217

CYYG;2009-04-16 01:00;CYYG 160100Z 31005KT 15SM SKC 02/M07 A3017 RMK SLP220

CYYG;2009-04-16 02:00;CYYG 160200Z 30005KT 15SM SKC M01/M07 A3018 RMK SLP221

CYYG;2009-04-16 03:00;CYYG 160300Z 34005KT 15SM SKC M02/M07 A3017 RMK SLP218

CYYG;2009-04-16 04:00;CYYG 160400Z 34005KT 15SM SKC M01/M07 A3016 RMK SLP216

CYYG;2009-04-16 05:00;CYYG 160500Z 34007KT 15SM SKC M00/M07 A3017 RMK SLP218

CYYG;2009-04-16 06:00;CYYG 160600Z 35010KT 15SM SKC M01/M05 A3017 RMK SLP219

CYYG;2009-04-16 07:00;CYYG 160700Z 36009KT 15SM SKC M01/M04 A3017 RMK SLP219

CYYG;2009-04-16 08:00;CYYG 160800Z 36011KT 15SM SKC M01/M05 A3018 RMK SLP222

CYYG;2009-04-16 09:00;CYYG 160900Z 36007G15KT 15SM SKC M02/M06 A3019 RMK SLP226

CYYG;2009-04-16 11:00;CYYG 161100Z 36012G19KT 15SM FEW025 M01/M07 A3025 RMK SC2 SLP245

CYYG;2009-04-16 12:00;CYYG 161200Z 01012G19KT 15SM FEW028 M01/M08 A3026 RMK SC2 SLP250

CYYG;2009-04-16 13:00;CYYG 161300Z 35012G19KT 15SM SCT027 M01/M07 A3028 RMK SC3 SLP255

CYYG;2009-04-16 14:00;CYYG 161400Z 36015G24KT 15SM FEW027 M01/M09 A3028 RMK SC2 SLP257

CYYG;2009-04-16 15:00;CYYG 161500Z 01012G18KT 15SM FEW029 00/M07 A3028 RMK SC2 SLP255

CYYG;2009-04-16 16:00;CYYG 161600Z 35013G21KT 15SM FEW030 SCT240 M00/M08 A3027 RMK SC2CS0 SLP253

CYYG;2009-04-16 17:00;CYYG 161700Z 35013G20KT 15SM SCT028 SCT240 01/M06 A3026 RMK SC3CS0 SLP251

CYYG;2009-04-16 18:00;CYYG 161800Z 34013G20KT 15SM FEW028 SCT240 M00/M07 A3025 RMK SC2CS0 SLP248

CYYG;2009-04-16 19:00;CYYG 161900Z 35012G18KT 15SM FEW030 00/M08 A3025 RMK CF2 SLP246

CYYG;2009-04-16 20:00;CYYG 162000Z 35010KT 15SM FEW030 M00/M08 A3023 RMK CF1 CF TR SLP240

CYYG;2009-04-16 21:00;CYYG 162100Z 35008KT 15SM FEW280 M01/M08 A3020 RMK CI1 SLP231

CYYG;2009-04-16 22:00;CYYG 162200Z 02009KT 15SM FEW280 M02/M07 A3020 RMK CI2 SLP228

CYYG;2009-04-16 23:00;CYYG 162300Z 01005KT 15SM FEW280 M03/M08 A3019 RMK CI2 SLP227

CYYG;2009-04-17 00:00;CYYG 170000Z 34003KT 15SM FEW280 M04/M08 A3020 RMK CI2 SLP229

CYYG;2009-04-17 01:00;CYYG 170100Z 35003KT 15SM FEW280 M04/M08 A3019 RMK CI2 SLP226

CYYG;2009-04-17 02:00;CYYG 170200Z 33002KT 15SM FEW280 M05/M07 A3017 RMK CI2 SLP220

CYYG;2009-04-17 03:00;CYYG 170300Z 25007KT 15SM FEW280 M05/M07 A3016 RMK CI2 SLP216

CYYG;2009-04-17 04:00;CYYG 170400Z 24006KT 15SM FEW280 M05/M08 A3014 RMK CI2 SLP210

CYYG;2009-04-17 05:00;CYYG 170500Z 25008KT 15SM FEW280 M04/M09 A3012 RMK CI2 SLP203

CYYG;2009-04-17 06:00;CYYG 170600Z 25009KT 15SM FEW280 M03/M07 A3009 RMK CI2 SLP193

CYYG;2009-04-17 07:00;CYYG 170700Z 25008KT 15SM FEW280 M03/M06 A3007 RMK CI2 SLP186

CYYG;2009-04-17 08:00;CYYG 170800Z 26007KT 15SM FEW280 M03/M06 A3005 RMK CI2 SLP179

CYYG;2009-04-17 09:00;CYYG 170900Z 27007KT 15SM FEW280 M03/M07 A3004 RMK CI1 SLP173

CYYG;2009-04-17 10:00;CYYG 171000Z 28006KT 15SM FEW280 M03/M07 A3002 RMK CI2 FROIN SLP169

CYYG;2009-04-17 11:00;CYYG 171100Z 31006KT 15SM BKN220 00/M05 A3002 RMK CI3 FROIN SLP168

CYYG;2009-04-17 12:00;CYYG 171200Z 31007KT 15SM OVC220 01/M05 A3000 RMK CI5 SLP162

CYYG;2009-04-17 13:00;CYYG 171300Z 32008KT 15SM OVC220 03/M08 A2999 RMK CI4 SLP157

CYYG;2009-04-17 14:00;CYYG 171400Z 33010KT 15SM OVC220 04/M09 A2997 RMK CI4 SLP151

CYYG;2009-04-17 15:00;CYYG 171500Z 31012KT 15SM FEW050 OVC220 05/M10 A2995 RMK SC1CI5 SC TR SLP144

CYYG;2009-04-17 16:00;CYYG 171600Z 30009KT 15SM FEW050 OVC220 05/M08 A2993 RMK SC1CI6 SLP136

CYYG;2009-04-17 17:00;CYYG 171700Z 34008KT 15SM SCT060 OVC220 06/M07 A2990 RMK SC3CI3 SLP126

CYYG;2009-04-17 18:00;CYYG 171800Z 29007KT 15SM SCT052 OVC220 06/M06 A2987 RMK SC3CI3 SLP116

CYYG;2009-04-17 19:00;CYYG 171900Z 34006KT 15SM BKN041 OVC220 06/M06 A2983 RMK SC5CI2 SLP105

CYYG;2009-04-17 20:00;CYYG 172000Z 31011KT 15SM BKN043 OVC220 06/M04 A2982 RMK SC6CI2 SHSN W-SW SLP102

CYYG;2009-04-17 20:14;CYYG 172014Z 25013KT 12SM -SHSN BKN040 OVC220 04/ RMK SC6CI2

CYYG;2009-04-17 21:00;CYYG 172100Z 29008KT 3SM -SHRA BR OVC013 03/01 A2981 RMK SC8 SLP098

CYYG;2009-04-17 21:52;CYYG 172152Z 27003KT 6SM -RASN FEW006 OVC015 02/ RMK SF2SC6

CYYG;2009-04-17 22:00;CYYG 172200Z 28003KT 6SM -RASN FEW005 OVC015 02/01 A2980 RMK SF2SC6 SLP094

CYYG;2009-04-17 22:36;CYYG 172236Z 00000KT 3SM -RASN BR OVC004 01/ RMK SF8

CYYG;2009-04-17 23:00;CYYG 172300Z 19002KT 1 1/2SM -RASN BR BKN004 OVC011 01/01 A2979 RMK SF6SC2 SLP090

CYYG;2009-04-17 23:49;CYYG 172349Z 16003KT 3/4SM R03/6000FT/N -SN BR BKN003 OVC010 00/ RMK SF6SC2

CYYG;2009-04-18 00:00;CYYG 180000Z 17003KT 1SM R03/P6000FT/U -SN BR OVC003 00/00 A2979 RMK SF8 SLP089

CYYG;2009-04-18 01:00;CYYG 180100Z 18002KT 1 1/2SM -SN BR FEW004 BKN014 OVC021 00/00 A2977 RMK SF2SC4SC2 SLP084

CYYG;2009-04-18 02:00;CYYG 180200Z 00000KT 2SM -RASN BR SCT012 OVC022 00/00 A2977 RMK SC4SC4 SLP082

CYYG;2009-04-18 03:00;CYYG 180300Z 00000KT 3/4SM R03/3000VP6000FT/D BR OVC009 00/00 A2975 RMK SF8 SLP077

CYYG;2009-04-18 04:00;CYYG 180400Z 04005KT 1SM R03/P6000FT/N BR OVC023 00/00 A2975 RMK FG5SC3 SLP077

CYYG;2009-04-18 04:51;CYYG 180451Z 06004KT 10SM OVC026 00/ RMK SC8

CYYG;2009-04-18 05:00;CYYG 180500Z 11002KT 10SM BKN024 00/00 A2976 RMK SC6 SLP078

CYYG;2009-04-18 06:00;CYYG 180600Z 09002KT 15SM SCT025 M01/M01 A2975 RMK SC3 SLP076

CYYG;2009-04-18 06:29;CYYG 180629Z 01003KT 1/4SM R03/0900V2200FT/D FZFG VV001 M01/ RMK FG8

CYYG;2009-04-18 07:00;CYYG 180700Z 33002KT 1/4SM R03/1200FT/N FZFG VV001 M01/M01 A2976 RMK FG8 SLP078

CYYG;2009-04-18 08:00;CYYG 180800Z 32005KT 1/4SM R03/2000FT/N FZFG VV001 M01/M01 A2977 RMK FG8 SLP081

CYYG;2009-04-18 08:20;CYYG 180820Z 34005KT 1 1/2SM R03/3000VP6000FT/U BR OVC002 M01/ RMK SF8

CYYG;2009-04-18 09:00;CYYG 180900Z 33007KT 4SM BR BKN006 M01/M01 A2979 RMK SF7 SLP089

CYYG;2009-04-18 09:39;CYYG 180939Z 34006KT 10SM VCFG SCT007 M02/ RMK SF3

CYYG;2009-04-18 10:00;CYYG 181000Z 34004KT 15SM FEW010 M02/M02 A2980 RMK SF2 SLP094

CYYG;2009-04-18 10:49;CYYG 181049Z 33006KT 15SM BKN007 M01/ RMK SF6

CYYG;2009-04-18 11:00;CYYG 181100Z 34007KT 15SM FEW007 BKN012 M01/M02 A2983 RMK SF2SC3 SLP104

CYYG;2009-04-18 12:00;CYYG 181200Z 01010KT 15SM FEW007 SCT012 M02/M04 A2986 RMK SF1SC2 SLP115

CYYG;2009-04-18 13:00;CYYG 181300Z 36010G16KT 15SM SCT018 M02/M04 A2988 RMK SC4 SLP122

CYYG;2009-04-18 14:00;CYYG 181400Z 35012G17KT 15SM SCT019 M01/M03 A2990 RMK SC4 SLP127

CYYG;2009-04-18 15:00;CYYG 181500Z 36012G17KT 15SM SCT019 M01/M05 A2990 RMK SC4 SLP129

CYYG;2009-04-18 16:00;CYYG 181600Z 35012KT 15SM BKN022 M00/M04 A2991 RMK SC5 SLP132

CYYG;2009-04-18 17:00;CYYG 181700Z 35011G16KT 15SM BKN022 00/M05 A2993 RMK SC7 SLP136

CYYG;2009-04-18 18:00;CYYG 181800Z 01010KT 15SM BKN023 M00/M05 A2994 RMK SC7 SLP140

CYYG;2009-04-18 19:00;CYYG 181900Z 36011KT 15SM BKN023 M01/M06 A2996 RMK SC7 SLP146

CYYG;2009-04-18 20:00;CYYG 182000Z 34008KT 15SM BKN023 M00/M05 A2997 RMK SC6 SLP150

CYYG;2009-04-18 21:00;CYYG 182100Z 02006KT 15SM FEW022 M00/M05 A2996 RMK SC2 SLP149

CYYG;2009-04-18 22:00;CYYG 182200Z 02005KT 15SM FEW022 M00/M06 A2997 RMK SC1 SLP151

CYYG;2009-04-18 23:00;CYYG 182300Z 35002KT 15SM SKC M02/M06 A2998 RMK SLP155

CYYG;2009-04-19 00:00;CYYG 190000Z 02003KT 15SM SKC M03/M06 A2998 RMK SLP154

CYYG;2009-04-19 01:00;CYYG 190100Z 29002KT 15SM SKC M03/M06 A2999 RMK SLP159

CYYG;2009-04-19 02:00;CYYG 190200Z 29002KT 15SM SKC M04/M06 A3000 RMK SLP161

CYYG;2009-04-19 03:00;CYYG 190300Z 00000KT 15SM SKC M04/M06 A3000 RMK SLP160

CYYG;2009-04-19 04:00;CYYG 190400Z 00000KT 15SM SKC M06/M06 A2999 RMK SLP158

CYYG;2009-04-19 05:00;CYYG 190500Z 27003KT 15SM SKC M05/M06 A3000 RMK SLP162

CYYG;2009-04-19 06:00;CYYG 190600Z 27004KT 15SM SKC M04/M06 A3001 RMK SLP163

CYYG;2009-04-19 07:00;CYYG 190700Z 27005KT 15SM SKC M04/M06 A3001 RMK SLP164

CYYG;2009-04-19 08:00;CYYG 190800Z 30003KT 15SM SCT100 M04/M06 A3002 RMK AC4 SLP167

CYYG;2009-04-19 09:00;CYYG 190900Z 29002KT 15SM SCT058 BKN089 M03/M05 A3003 RMK SC3AC4 SLP170

CYYG;2009-04-19 10:00;CYYG 191000Z 32003KT 15SM OVC049 M02/M05 A3005 RMK SC7 SLP179

CYYG;2009-04-19 11:00;CYYG 191100Z 32002KT 15SM OVC031 M01/M04 A3008 RMK SC8 SLP188

CYYG;2009-04-19 11:36;CYYG 191136Z 36005KT 15SM -SHSN BKN023 OVC040 00/ RMK SC5SC3

CYYG;2009-04-19 12:00;CYYG 191200Z 34003KT 15SM BKN030 BKN065 00/M02 A3009 RMK SC5SC1 SLP192

CYYG;2009-04-19 13:00;CYYG 191300Z 33011KT 15SM FEW020 BKN067 02/M04 A3010 RMK SC2SC4 SLP194

CYYG;2009-04-19 14:00;CYYG 191400Z 02012G17KT 15SM SCT018 BKN100 02/M02 A3011 RMK SC3AC1 SLP198

CYYG;2009-04-19 15:00;CYYG 191500Z 36010G15KT 15SM FEW020 SCT090 04/M04 A3012 RMK SC1AC3 SLP203

CYYG;2009-04-19 16:00;CYYG 191600Z 01011G16KT 15SM FEW020 SCT079 02/M04 A3013 RMK SC1AC3 SLP205

CYYG;2009-04-19 17:00;CYYG 191700Z 02010G16KT 15SM FEW020 SCT066 02/M06 A3014 RMK SC1AC2 SLP209

CYYG;2009-04-19 18:00;CYYG 191800Z 01012G17KT 15SM FEW020 FEW065 02/M06 A3016 RMK SC1SC1 SLP215

CYYG;2009-04-19 19:00;CYYG 191900Z 02012G17KT 15SM FEW020 FEW065 01/M08 A3016 RMK SC1SC1 SLP215

CYYG;2009-04-19 20:00;CYYG 192000Z 01009G15KT 15SM FEW020 01/M09 A3016 RMK SC1 SLP217

CYYG;2009-04-19 21:00;CYYG 192100Z 36007KT 15SM FEW020 01/M12 A3016 RMK SC1 SLP215

CYYG;2009-04-19 22:00;CYYG 192200Z 02004KT 15SM FEW020 00/M12 A3016 RMK SC1 SLP216

CYYG;2009-04-19 23:00;CYYG 192300Z 35002KT 15SM FEW300 M01/M14 A3017 RMK CI0 SLP221

CYYG;2009-04-20 00:00;CYYG 200000Z 00000KT 15SM FEW300 M03/M09 A3019 RMK CI0 SLP226

CYYG;2009-04-20 01:00;CYYG 200100Z 00000KT 15SM SKC M04/M10 A3020 RMK SLP228

CYYG;2009-04-20 02:00;CYYG 200200Z 19002KT 15SM SKC M02/M13 A3020 RMK SLP229

CYYG;2009-04-20 03:00;CYYG 200300Z 28002KT 15SM SKC M06/M09 A3021 RMK SLP233

CYYG;2009-04-20 04:00;CYYG 200400Z 27005KT 15SM SKC M03/M10 A3022 RMK SLP237

CYYG;2009-04-20 05:00;CYYG 200500Z 27004KT 15SM SKC M04/M11 A3022 RMK SLP235

CYYG;2009-04-20 06:00;CYYG 200600Z 27005KT 15SM SKC M03/M10 A3021 RMK SLP234

CYYG;2009-04-20 07:00;CYYG 200700Z 26007KT 15SM SKC M03/M08 A3022 RMK SLP237

CYYG;2009-04-20 08:00;CYYG 200800Z 26007KT 15SM SKC M02/M07 A3023 RMK SLP240

CYYG;2009-04-20 09:00;CYYG 200900Z 26007KT 15SM SKC M02/M08 A3024 RMK SLP243

CYYG;2009-04-20 10:00;CYYG 201000Z 25007KT 15SM SKC M02/M07 A3025 RMK SLP248

CYYG;2009-04-20 11:00;CYYG 201100Z 27008KT 15SM SKC 00/M08 A3028 RMK SLP257

CYYG;2009-04-20 12:00;CYYG 201200Z 28006KT 15SM SKC 03/M06 A3029 RMK SLP261

CYYG;2009-04-20 13:00;CYYG 201300Z 29006KT 15SM SKC 04/M06 A3031 RMK SLP266

CYYG;2009-04-20 14:00;CYYG 201400Z 34008KT 15SM SKC 05/M04 A3033 RMK SLP272

CYYG;2009-04-20 15:00;CYYG 201500Z 31011KT 15SM SKC 05/M06 A3033 RMK SLP275

CYYG;2009-04-20 16:00;CYYG 201600Z 36010KT 15SM SKC 05/M04 A3034 RMK SLP276

CYYG;2009-04-20 17:00;CYYG 201700Z 01009KT 15SM FEW030 06/M08 A3034 RMK SC1 SLP277

CYYG;2009-04-20 18:00;CYYG 201800Z 01008KT 15SM SKC 06/M07 A3034 RMK SLP278

CYYG;2009-04-20 19:00;CYYG 201900Z 01009KT 15SM SKC 06/M07 A3035 RMK SLP279

CYYG;2009-04-20 20:00;CYYG 202000Z 01009KT 15SM SKC 06/M06 A3035 RMK SLP281

CYYG;2009-04-20 21:00;CYYG 202100Z 01007KT 15SM SKC 05/M06 A3034 RMK SLP278

CYYG;2009-04-20 22:00;CYYG 202200Z 04004KT 15SM SKC 04/M07 A3035 RMK SLP279

CYYG;2009-04-20 23:00;CYYG 202300Z 13004KT 15SM FEW310 03/M07 A3036 RMK CI0 SLP283

CYYG;2009-04-21 00:00;CYYG 210000Z 10004KT 15SM FEW310 01/M08 A3037 RMK CI1 SLP287

CYYG;2009-04-21 01:00;CYYG 210100Z 17003KT 15SM SKC 01/M08 A3039 RMK SLP292

CYYG;2009-04-21 02:00;CYYG 210200Z 18005KT 15SM SKC M00/M06 A3041 RMK SLP299

CYYG;2009-04-21 03:00;CYYG 210300Z 18008KT 15SM SKC M00/M05 A3041 RMK SLP299

CYYG;2009-04-21 04:00;CYYG 210400Z 15006KT 15SM SKC M01/M06 A3041 RMK SLP299

CYYG;2009-04-21 05:00;CYYG 210500Z 16005KT 15SM SKC M01/M06 A3040 RMK SLP297

CYYG;2009-04-21 06:00;CYYG 210600Z 17003KT 15SM SKC M01/M06 A3039 RMK SLP294

CYYG;2009-04-21 07:00;CYYG 210700Z 19004KT 15SM SKC M00/M06 A3040 RMK SLP297

CYYG;2009-04-21 08:00;CYYG 210800Z 16004KT 15SM SCT300 M01/M05 A3041 RMK CI1 SLP300

CYYG;2009-04-21 09:00;CYYG 210900Z 14004KT 15SM BKN240 M01/M04 A3039 RMK CS6 SLP294

CYYG;2009-04-21 10:00;CYYG 211000Z 17003KT 15SM BKN220 BKN300 M00/M04 A3041 RMK CS6CI1 SLP299

CYYG;2009-04-21 11:00;CYYG 211100Z 16004KT 15SM BKN220 BKN300 02/M03 A3043 RMK CS5CI1 SLP306

CYYG;2009-04-21 12:00;CYYG 211200Z 16006KT 15SM BKN220 BKN300 04/M02 A3043 RMK CS5CI1 SLP306

CYYG;2009-04-21 13:00;CYYG 211300Z 17005KT 15SM FEW140 BKN210 BKN280 07/M02 A3044 RMK AC2CS5CI0 SLP311

CYYG;2009-04-21 14:00;CYYG 211400Z 16007KT 15SM FEW140 BKN210 BKN280 08/M02 A3044 RMK AC2CS5CI0 SLP310

CYYG;2009-04-21 15:00;CYYG 211500Z 15009KT 15SM BKN230 BKN280 10/M03 A3042 RMK CS5CI2 SLP303

CYYG;2009-04-21 16:00;CYYG 211600Z 16009KT 15SM BKN230 BKN280 10/M03 A3040 RMK CS5CI2 SLP297

CYYG;2009-04-21 17:00;CYYG 211700Z 17013KT 15SM BKN220 BKN280 11/M02 A3038 RMK CS5CI2 SLP290

CYYG;2009-04-21 18:00;CYYG 211800Z 16014G20KT 15SM BKN220 BKN280 12/M03 A3037 RMK CS5CI2 SLP286

CYYG;2009-04-21 19:00;CYYG 211900Z 17015G21KT 15SM BKN085 OVC220 10/M05 A3036 RMK AC6CS2 SLP282

CYYG;2009-04-21 19:45;CYYG 211945Z 18016KT 12SM -SHRA BKN069 OVC082 08/ RMK AC7AC1

CYYG;2009-04-21 20:00;CYYG 212000Z 19014KT 12SM -SHRA SCT052 OVC068 06/M01 A3038 RMK SC4AC4 SLP290

CYYG;2009-04-21 21:00;CYYG 212100Z 17014KT 12SM -SHRA SCT050 OVC065 04/M02 A3036 RMK SC4SC4 SLP284

CYYG;2009-04-21 22:00;CYYG 212200Z 15013G21KT 10SM -SHRA SCT050 OVC065 04/00 A3033 RMK SC4SC4 SLP273

CYYG;2009-04-21 23:00;CYYG 212300Z 22014G19KT 8SM -SHRA FEW009 OVC042 03/02 A3030 RMK SF2SC6 SLP263

CYYG;2009-04-22 00:00;CYYG 220000Z 15012G20KT 10SM -SHRA FEW009 OVC032 04/03 A3030 RMK SF2SC6 SLP261

CYYG;2009-04-22 01:00;CYYG 220100Z 15017KT 15SM FEW012 OVC032 04/03 A3027 RMK SC2SC6 SLP252

CYYG;2009-04-22 02:00;CYYG 220200Z 15014G21KT 15SM SCT010 OVC020 05/04 A3025 RMK SC4SC4 SLP244

CYYG;2009-04-22 02:17;CYYG 220217Z 15015KT 15SM BKN008 OVC020 05/ RMK SF6SC2

CYYG;2009-04-22 03:00;CYYG 220300Z 16016KT 15SM OVC006 06/05 A3024 RMK SF8 SLP241

CYYG;2009-04-22 04:00;CYYG 220400Z 15015KT 15SM OVC005 06/06 A3020 RMK SF8 SLP230

CYYG;2009-04-22 05:00;CYYG 220500Z 15013G18KT 3SM BR OVC004 07/07 A3015 RMK SF8 SLP213

CYYG;2009-04-22 06:00;CYYG 220600Z 15013G18KT 3SM BR OVC004 07/07 A3012 RMK SF8 SLP201

CYYG;2009-04-22 06:49;CYYG 220649Z 16014G20KT 3SM BR OVC002 08/ RMK SF8

CYYG;2009-04-22 07:00;CYYG 220700Z 16014G20KT 4SM BR OVC002 08/08 A3009 RMK SF8 SLP192

CYYG;2009-04-22 08:00;CYYG 220800Z 16017G26KT 4SM BR OVC002 09/09 A3006 RMK SF8 SLP180

CYYG;2009-04-22 09:00;CYYG 220900Z 16018G26KT 4SM BR OVC002 09/09 A3004 RMK SF8 SLP172

CYYG;2009-04-22 10:00;CYYG 221000Z 17019G26KT 4SM BR BKN002 OVC015 10/10 A3004 RMK SF6SC2 SLP172

CYYG;2009-04-22 10:30;CYYG 221030Z 17017G25KT 6SM BR SCT003 OVC011 11/ RMK SF3SC5

CYYG;2009-04-22 11:00;CYYG 221100Z 16017KT 8SM SCT004 OVC011 12/11 A3005 RMK SF3SC5 SLP176

CYYG;2009-04-22 11:46;CYYG 221146Z 17017KT 8SM -SHRA FEW004 OVC015 12/ RMK SF2SC6

CYYG;2009-04-22 12:00;CYYG 221200Z 17014G19KT 8SM -SHRA FEW005 OVC012 12/12 A3004 RMK SF2SC6 SLP175

CYYG;2009-04-22 13:00;CYYG 221300Z 18017KT 10SM OVC013 12/11 A3003 RMK SC8 OCNL -SHRA SLP171

CYYG;2009-04-22 14:00;CYYG 221400Z 17020G25KT 10SM -SHRA BKN014 OVC020 12/12 A3001 RMK SC6SC2 SLP164

CYYG;2009-04-22 15:00;CYYG 221500Z 18018G24KT 8SM -SHRA BKN015 OVC044 13/12 A3000 RMK SC6SC2 SLP161

CYYG;2009-04-22 16:00;CYYG 221600Z 18018G24KT 12SM -SHRA SCT015 OVC021 13/12 A2999 RMK SC4SC4 SLP157

CYYG;2009-04-22 17:00;CYYG 221700Z 18020G25KT 8SM -SHRA FEW005 SCT015 OVC020 13/12 A2999 RMK SF1SC3SC5 SLP156

CYYG;2009-04-22 18:00;CYYG 221800Z 17018G26KT 8SM -SHRA SCT020 OVC068 13/13 A2996 RMK SC3AC5 SLP147

CYYG;2009-04-22 19:00;CYYG 221900Z 18022G29KT 15SM -SHRA FEW015 SCT020 OVC026 13/12 A2994 RMK SC2SC2SC4 SLP141

CYYG;2009-04-22 20:00;CYYG 222000Z 18021G26KT 8SM -SHRA SCT014 OVC019 12/12 A2993 RMK SC4SC4 SLP138

CYYG;2009-04-22 21:00;CYYG 222100Z 18017G22KT 10SM -SHRA BKN014 OVC049 12/12 A2993 RMK SC6SC2 SLP135

CYYG;2009-04-22 22:00;CYYG 222200Z 18014KT 10SM -SHRA SCT015 OVC076 12/12 A2989 RMK SC3AC5 SLP123

CYYG;2009-04-22 23:00;CYYG 222300Z 17013G22KT 10SM -SHRA BKN018 OVC045 12/12 A2988 RMK SC6SC2 SLP121

CYYG;2009-04-23 00:00;CYYG 230000Z 16018KT 10SM -SHRA BKN016 OVC080 12/11 A2986 RMK SC6AC2 SLP113

CYYG;2009-04-23 00:27;CYYG 230027Z 17016G22KT 10SM -SHRA FEW005 BKN012 OVC020 12/ RMK SF2SC4SC2

CYYG;2009-04-23 01:00;CYYG 230100Z 16017G22KT 10SM RA SCT005 BKN012 OVC024 12/12 A2985 RMK SF3SC3SC2 SLP108

CYYG;2009-04-23 02:00;CYYG 230200Z 16018G28KT 12SM -RA FEW005 BKN015 OVC030 12/12 A2980 RMK SF2SC4SC2 RERA SLP091

CYYG;2009-04-23 03:00;CYYG 230300Z 17020G26KT 15SM -RA FEW005 BKN017 OVC030 12/12 A2977 RMK SF2SC5SC2 SLP081

CYYG;2009-04-23 03:46;CYYG 230346Z 17017G24KT 15SM BKN017 OVC032 12/ RMK SC6SC2

CYYG;2009-04-23 04:00;CYYG 230400Z 16017KT 15SM OVC018 12/12 A2976 RMK SC8 SLP077

CYYG;2009-04-23 04:11;CYYG 230411Z 17017G22KT 15SM -RA OVC018 12/ RMK SC8

CYYG;2009-04-23 05:00;CYYG 230500Z 17017KT 12SM -RA OVC020 12/11 A2971 RMK SC8 SLP062

CYYG;2009-04-23 06:00;CYYG 230600Z 15013G18KT 15SM -RA OVC020 12/12 A2966 RMK SC8 SLP043

CYYG;2009-04-23 07:00;CYYG 230700Z 15015KT 15SM OVC016 12/12 A2960 RMK SC8 SLP023

CYYG;2009-04-23 08:00;CYYG 230800Z 16015G21KT 15SM -RA OVC016 12/12 A2956 RMK SC8 SLP011

CYYG;2009-04-23 09:00;CYYG 230900Z 16017KT 15SM -SHRA OVC015 12/11 A2953 RMK SC8 SLP000

CYYG;2009-04-23 10:00;CYYG 231000Z 18015G21KT 15SM -SHRA BKN012 OVC052 11/11 A2952 RMK SC5SC3 SLP998

CYYG;2009-04-23 10:43;CYYG 231043Z 18013G19KT 15SM -SHRA SCT012 OVC062 10/ RMK SC3SC5

CYYG;2009-04-23 11:00;CYYG 231100Z 16011G16KT 15SM -SHRA FEW012 OVC051 10/10 A2953 RMK SC2SC6 SLP000

CYYG;2009-04-23 12:00;CYYG 231200Z 15012G17KT 15SM FEW012 BKN090 11/10 A2948 RMK SF1AS6 SLP985

CYYG;2009-04-23 13:00;CYYG 231300Z 17017G25KT 15SM BKN025 BKN062 11/10 A2947 RMK SC5SC2 SLP980

CYYG;2009-04-23 14:00;CYYG 231400Z 20023G34KT 15SM BKN025 BKN040 10/08 A2948 RMK SC5SC2 SLP983

CYYG;2009-04-23 15:00;CYYG 231500Z 19027G34KT 15SM BKN029 BKN040 09/05 A2945 RMK SC6SC2 SLP974

CYYG;2009-04-23 15:44;CYYG 231544Z 19026G34KT 15SM -SHRA BKN026 OVC040 08/ RMK SC6SC2

CYYG;2009-04-23 16:00;CYYG 231600Z 20025G31KT 15SM -SHRA BKN024 OVC036 08/05 A2947 RMK SC7SC1 SLP982

CYYG;2009-04-23 16:25;CYYG 231625Z 20026G32KT 15SM BKN025 OVC036 08/ RMK SC7SC1

CYYG;2009-04-23 17:00;CYYG 231700Z 20024G30KT 15SM BKN025 OVC036 08/05 A2948 RMK SC7SC1 SLP985

CYYG;2009-04-23 18:00;CYYG 231800Z 21022G30KT 15SM OVC028 08/04 A2950 RMK SC8 SLP992

CYYG;2009-04-23 19:00;CYYG 231900Z 20023G29KT 15SM FEW028 BKN041 10/05 A2949 RMK SC1SC6 SLP988

CYYG;2009-04-23 20:00;CYYG 232000Z 20021G30KT 15SM SCT041 BKN090 11/05 A2947 RMK SC4AC2 SLP981

CYYG;2009-04-23 21:00;CYYG 232100Z 22021G27KT 15SM FEW040 SCT200 11/02 A2946 RMK SC2CI1 SLP977

CYYG;2009-04-23 22:00;CYYG 232200Z 21020G30KT 15SM BKN062 10/01 A2948 RMK SC6 SLP983

CYYG;2009-04-23 23:00;CYYG 232300Z 22018G25KT 15SM BKN051 09/02 A2951 RMK SC7 SLP993

CYYG;2009-04-23 23:47;CYYG 232347Z 23019G29KT 15SM -SHRA OVC040 08/ RMK SC8

CYYG;2009-04-24 00:00;CYYG 240000Z 22018G31KT 15SM -SHRA OVC032 08/03 A2952 RMK SC8 SLP998

CYYG;2009-04-24 01:00;CYYG 240100Z 22018G27KT 15SM -SHRA OVC028 08/04 A2954 RMK SC8 SLP003

CYYG;2009-04-24 02:00;CYYG 240200Z 22015G26KT 15SM -SHRA OVC019 06/05 A2955 RMK SC8 SLP009

CYYG;2009-04-24 03:00;CYYG 240300Z 22016G26KT 15SM -SHRA OVC022 07/04 A2957 RMK SC8 SLP014

CYYG;2009-04-24 03:35;CYYG 240335Z 22018KT 15SM BKN020 OVC038 06/ RMK SC6SC2

CYYG;2009-04-24 04:00;CYYG 240400Z CCA 22016G24KT 15SM SCT020 OVC035 06/04 A2959 RMK SC4SC4 SLP020

CYYG;2009-04-24 05:00;CYYG 240500Z 23016G25KT 15SM -SHRA BKN020 OVC035 06/04 A2959 RMK SC6SC2 SLP022

CYYG;2009-04-24 06:00;CYYG 240600Z 23014G24KT 15SM -SHRA OVC022 05/04 A2962 RMK SC8 SLP030

CYYG;2009-04-24 07:00;CYYG 240700Z 24017KT 10SM -SHRA OVC017 05/04 A2964 RMK SC8 SLP038

CYYG;2009-04-24 08:00;CYYG 240800Z 25014G20KT 10SM -SHRA BKN020 OVC065 05/04 A2966 RMK SC6SC2 SLP046

CYYG;2009-04-24 08:40;CYYG 240840Z 25014G25KT 15SM SCT020 OVC065 05/ RMK SC3SC5

CYYG;2009-04-24 09:00;CYYG 240900Z 26014G21KT 15SM FEW020 SCT038 BKN068 06/03 A2970 RMK SC2SC2AC4 SLP057

CYYG;2009-04-24 10:00;CYYG 241000Z 26010G19KT 15SM FEW020 SCT034 BKN070 06/02 A2974 RMK SC1SC3AC3 SLP072

CYYG;2009-04-24 11:00;CYYG 241100Z 27012G25KT 15SM FEW020 SCT035 06/02 A2980 RMK SC1SC3 PRESRR SLP093

CYYG;2009-04-24 12:00;CYYG 241200Z 27014G24KT 15SM FEW022 BKN033 06/02 A2983 RMK SC1SC6 SLP104

CYYG;2009-04-24 13:00;CYYG 241300Z 28014G25KT 15SM FEW022 BKN035 07/03 A2987 RMK SC2SC6 SLP118

CYYG;2009-04-24 14:00;CYYG 241400Z 30015G20KT 15SM BKN029 08/02 A2991 RMK SC7 SLP129

CYYG;2009-04-24 15:00;CYYG 241500Z 29016G22KT 15SM FEW028 BKN038 10/02 A2993 RMK SC1SC6 SLP135

CYYG;2009-04-24 16:00;CYYG 241600Z 31014G20KT 15SM FEW028 BKN039 09/01 A2996 RMK SC1SC6 SLP146

CYYG;2009-04-24 17:00;CYYG 241700Z 33012G20KT 15SM BKN042 10/01 A2998 RMK SC6 SLP153

CYYG;2009-04-24 18:00;CYYG 241800Z 34010G15KT 15SM BKN040 11/02 A3001 RMK SC6 SLP162

CYYG;2009-04-24 19:00;CYYG 241900Z 35014G20KT 15SM BKN041 10/02 A3003 RMK SC6 SLP170

CYYG;2009-04-24 20:00;CYYG 242000Z 36008KT 15SM SCT038 11/02 A3005 RMK SC4 SLP176

CYYG;2009-04-24 21:00;CYYG 242100Z 01007KT 15SM FEW040 11/02 A3004 RMK SC2 SLP174

CYYG;2009-04-24 22:00;CYYG 242200Z 02004KT 15SM FEW040 10/02 A3005 RMK SC1 SLP177

CYYG;2009-04-24 23:00;CYYG 242300Z 01003KT 15SM FEW200 09/02 A3008 RMK CI1 SLP187

CYYG;2009-04-25 00:00;CYYG 250000Z 23004KT 15SM FEW220 07/02 A3012 RMK CI1 SLP202

CYYG;2009-04-25 01:00;CYYG 250100Z 18005KT 15SM FEW220 06/02 A3014 RMK CI0 SLP208

CYYG;2009-04-25 02:00;CYYG 250200Z 21005KT 15SM FEW220 06/02 A3014 RMK CI0 SLP208

CYYG;2009-04-25 03:00;CYYG 250300Z 22006KT 15SM SKC 06/02 A3017 RMK SLP217

CYYG;2009-04-25 04:00;CYYG 250400Z 22007KT 15SM SKC 06/02 A3018 RMK SLP221

CYYG;2009-04-25 05:00;CYYG 250500Z 22007KT 15SM SKC 05/02 A3018 RMK SLP220

CYYG;2009-04-25 06:00;CYYG 250600Z 22006KT 15SM SKC 05/02 A3019 RMK SLP224

CYYG;2009-04-25 07:00;CYYG 250700Z 22007KT 15SM SKC 04/02 A3018 RMK SLP223

CYYG;2009-04-25 08:00;CYYG 250800Z 23006KT 15SM SKC 04/02 A3018 RMK SLP223

CYYG;2009-04-25 09:00;CYYG 250900Z 21006KT 15SM FEW280 04/02 A3019 RMK CI0 SLP224

CYYG;2009-04-25 10:00;CYYG 251000Z 19004KT 15SM FEW280 04/02 A3020 RMK CI0 SLP227

CYYG;2009-04-25 11:00;CYYG 251100Z 20006KT 15SM FEW280 08/03 A3022 RMK CI0 SLP236

CYYG;2009-04-25 12:00;CYYG 251200Z 21008KT 15SM FEW280 10/03 A3024 RMK CI0 SLP241

CYYG;2009-04-25 13:00;CYYG 251300Z 20009KT 15SM FEW280 12/03 A3025 RMK CI0 SLP247

CYYG;2009-04-25 14:00;CYYG 251400Z 21009KT 15SM FEW280 14/03 A3026 RMK CI0 SLP249

CYYG;2009-04-25 15:00;CYYG 251500Z 21008KT 15SM FEW280 16/03 A3025 RMK CI0 CONTRAILS SLP243

CYYG;2009-04-25 16:00;CYYG 251600Z 20011KT 15SM FEW280 18/03 A3021 RMK CI0 SLP232

CYYG;2009-04-25 17:00;CYYG 251700Z 20012KT 15SM FEW280 19/02 A3019 RMK CI0 SLP225

CYYG;2009-04-25 18:00;CYYG 251800Z 30013KT 15SM SCT280 20/03 A3017 RMK CI0 SLP216

CYYG;2009-04-25 19:00;CYYG 251900Z 19013KT 15SM FEW280 21/03 A3014 RMK CI1 SLP206

CYYG;2009-04-25 20:00;CYYG 252000Z 21010G15KT 15SM FEW280 21/04 A3013 RMK CI0 SLP205

CYYG;2009-04-25 21:00;CYYG 252100Z 20011KT 15SM SKC 22/05 A3010 RMK SLP195

CYYG;2009-04-25 22:00;CYYG 252200Z 20009KT 15SM FEW280 18/04 A3009 RMK CI0 SLP191

CYYG;2009-04-25 23:00;CYYG 252300Z 22007KT 15SM FEW070 FEW120 FEW280 16/04 A3009 RMK AC1AC1CI1 SLP189

CYYG;2009-04-26 00:00;CYYG 260000Z 20011KT 15SM FEW090 FEW280 15/02 A3009 RMK AC1CI0 SLP189

CYYG;2009-04-26 01:00;CYYG 260100Z 21008KT 15SM BKN085 14/02 A3010 RMK AC6 SLP194

CYYG;2009-04-26 02:00;CYYG 260200Z 22009KT 15SM BKN086 OVC120 13/08 A3009 RMK AC6AC2 SLP189

CYYG;2009-04-26 03:00;CYYG 260300Z 19010KT 15SM SCT085 11/07 A3006 RMK AC3 SLP179

CYYG;2009-04-26 04:00;CYYG 260400Z 19012KT 15SM FEW020 SCT085 11/03 A3004 RMK SC2AC2 SLP172

CYYG;2009-04-26 05:00;CYYG 260500Z 19013KT 15SM OVC018 11/06 A3003 RMK SC8 SLP170

CYYG;2009-04-26 06:00;CYYG 260600Z 19012KT 15SM OVC017 11/08 A3000 RMK SC8 SLP160

CYYG;2009-04-26 07:00;CYYG 260700Z 21013KT 15SM FEW018 11/08 A2998 RMK SC2 SLP152

CYYG;2009-04-26 08:00;CYYG 260800Z 21014KT 15SM FEW018 11/08 A2994 RMK SC2 SLP140

CYYG;2009-04-26 09:00;CYYG 260900Z 20009KT 15SM SCT120 BKN300 10/08 A2993 RMK AC3CI0 ACC ASOCTD VIRGA SLP134

CYYG;2009-04-26 10:00;CYYG 261000Z 22007KT 15SM -SHRA BKN084 BKN160 10/09 A2994 RMK ACC6AC2 SLP140

CYYG;2009-04-26 10:05;CYYG 261005Z 21008KT 15SM -TSRA BKN083 BKN160 10/ RMK ACC6AC2 CB ASOCTD NW MOVG E

CYYG;2009-04-26 10:20;CYYG 261020Z 19010KT 15SM -SHRA BKN083 BKN160 10/ RETS RMK ACC6AC2 CB NE MOVG E

CYYG;2009-04-26 11:00;CYYG 261100Z 20009KT 15SM BKN085 BKN160 10/09 A2996 RMK ACC6AC2 SLP144

CYYG;2009-04-26 11:15;CYYG 261115Z 21013KT 15SM BKN090 BKN160 11/ RMK AC5AC2

CYYG;2009-04-26 12:00;CYYG 261200Z 22012KT 15SM SCT100 BKN160 12/10 A2995 RMK AC3AC2 SLP143

CYYG;2009-04-26 13:00;CYYG 261300Z 24009G15KT 15SM SCT065 BKN160 14/11 A2999 RMK SC3AC2 SLP155

CYYG;2009-04-26 14:00;CYYG 261400Z 30016KT 15SM BKN059 OVC160 15/11 A3003 RMK SC6AC2 SLP168

CYYG;2009-04-26 15:00;CYYG 261500Z 33017G31KT 15SM -SHRA FEW020 BKN053 OVC160 12/08 A3008 RMK SC2SC4AC2 SLP186

CYYG;2009-04-26 15:46;CYYG 261546Z 36016G28KT 15SM FEW015 BKN023 OVC057 09/ RMK SF1SC5SC2

CYYG;2009-04-26 16:00;CYYG 261600Z 36014G22KT 15SM FEW015 BKN025 OVC057 09/06 A3013 RMK SF1SC5SC2 SLP203

CYYG;2009-04-26 17:00;CYYG 261700Z 02015G20KT 15SM BKN033 OVC060 09/04 A3017 RMK SC6SC2 SLP217

CYYG;2009-04-26 18:00;CYYG 261800Z 36016G24KT 15SM SCT033 BKN250 09/01 A3020 RMK SC3CI2 SLP229

CYYG;2009-04-26 19:00;CYYG 261900Z 01013G22KT 15SM FEW030 BKN250 09/01 A3023 RMK SC1CI3 SLP239

CYYG;2009-04-26 20:00;CYYG 262000Z 02017G25KT 15SM BKN250 08/M03 A3026 RMK CI3 SLP248

CYYG;2009-04-26 21:00;CYYG 262100Z 01015G22KT 15SM BKN250 07/M04 A3027 RMK CI3 SLP251

CYYG;2009-04-26 22:00;CYYG 262200Z 01016G26KT 15SM BKN250 06/M05 A3029 RMK CI2 SLP258

CYYG;2009-04-26 23:00;CYYG 262300Z 03015G20KT 15SM FEW150 SCT300 04/M05 A3032 RMK AC1CI1 SLP269

CYYG;2009-04-27 00:00;CYYG 270000Z 03014KT 15SM FEW150 FEW300 04/M05 A3035 RMK AC1CI1 SLP279

CYYG;2009-04-27 01:00;CYYG 270100Z 01012KT 15SM FEW300 05/M06 A3039 RMK CI1 SLP291

CYYG;2009-04-27 02:00;CYYG 270200Z 03011KT 15SM FEW300 04/M06 A3039 RMK CI1 SLP293

CYYG;2009-04-27 03:00;CYYG 270300Z 02010G15KT 15SM FEW120 FEW300 04/M06 A3041 RMK AC1CI0 SLP300

CYYG;2009-04-27 04:00;CYYG 270400Z 02010KT 15SM FEW120 03/M05 A3042 RMK AC1 SLP303

CYYG;2009-04-27 05:00;CYYG 270500Z 03009KT 15SM SKC 02/M05 A3042 RMK SLP304

CYYG;2009-04-27 06:00;CYYG 270600Z 02004KT 15SM SKC 01/M04 A3042 RMK SLP303

CYYG;2009-04-27 07:00;CYYG 270700Z 36005KT 15SM SKC 00/M05 A3043 RMK SLP305

CYYG;2009-04-27 08:00;CYYG 270800Z 34002KT 15SM SCT300 M00/M04 A3044 RMK CI1 SLP309

CYYG;2009-04-27 09:00;CYYG 270900Z 31003KT 15SM BKN300 M03/M05 A3046 RMK CI2 FROIN SLP318

CYYG;2009-04-27 10:00;CYYG 271000Z 33004KT 15SM BKN300 00/M04 A3049 RMK CI2 SLP328

CYYG;2009-04-27 11:00;CYYG 271100Z 33003KT 15SM BKN300 03/M02 A3052 RMK CI2 SLP336

CYYG;2009-04-27 12:00;CYYG 271200Z 24002KT 15SM FEW140 OVC280 05/M02 A3052 RMK AC1CI5 SLP337

CYYG;2009-04-27 13:00;CYYG 271300Z 19006KT 15SM FEW140 OVC280 06/M04 A3050 RMK AC2CI5 SLP330

CYYG;2009-04-27 14:00;CYYG 271400Z 21007KT 15SM FEW160 BKN280 07/M02 A3051 RMK AC2CI4 SLP333

CYYG;2009-04-27 15:00;CYYG 271500Z 21008KT 15SM FEW160 BKN280 09/M03 A3051 RMK AC1CI4 SLP334

CYYG;2009-04-27 16:00;CYYG 271600Z 23002KT 15SM FEW160 BKN280 10/M06 A3050 RMK AC1CI3 SLP331

CYYG;2009-04-27 17:00;CYYG 271700Z 19010KT 15SM FEW090 BKN280 11/M05 A3047 RMK AC2CI2 SLP319

CYYG;2009-04-27 18:00;CYYG 271800Z 22010KT 15SM SCT090 BKN280 11/M07 A3044 RMK AC3CI3 SLP308

CYYG;2009-04-27 19:00;CYYG 271900Z 26006KT 15SM BKN067 BKN280 12/M05 A3040 RMK AC5CI2 SLP297

CYYG;2009-04-27 20:00;CYYG 272000Z 19008KT 15SM BKN062 OVC250 11/M03 A3035 RMK SC6CI2 SLP278

CYYG;2009-04-27 21:00;CYYG 272100Z 18010KT 15SM BKN058 OVC140 10/M04 A3032 RMK SC6AC2 SLP269

CYYG;2009-04-27 22:00;CYYG 272200Z 18007KT 15SM OVC049 08/M04 A3030 RMK SC8 SLP263

CYYG;2009-04-27 23:00;CYYG 272300Z 20008KT 15SM BKN045 OVC100 08/M02 A3027 RMK SC6AC2 SLP253

CYYG;2009-04-28 00:00;CYYG 280000Z 21017KT 15SM FEW045 OVC120 09/M02 A3024 RMK SC2AC6 SLP242

CYYG;2009-04-28 01:00;CYYG 280100Z 21014KT 15SM FEW090 OVC140 09/M03 A3023 RMK AC2AC6 SLP239

CYYG;2009-04-28 02:00;CYYG 280200Z 20013KT 15SM SCT120 08/M03 A3020 RMK AC3 SLP229

CYYG;2009-04-28 03:00;CYYG 280300Z 21016KT 15SM FEW120 SCT230 07/M02 A3016 RMK AC2CI1 SLP213

CYYG;2009-04-28 04:00;CYYG 280400Z 22013G19KT 15SM BKN230 07/M01 A3013 RMK CI2 SLP204

CYYG;2009-04-28 05:00;CYYG 280500Z 23014KT 15SM SCT018 BKN230 08/M01 A3011 RMK SC3CI0 SLP196

CYYG;2009-04-28 06:00;CYYG 280600Z 23015G32KT 15SM OVC016 09/02 A3007 RMK SC8 SLP183

CYYG;2009-04-28 06:51;CYYG 280651Z 22012G18KT 15SM OVC014 09/ RMK SC8

CYYG;2009-04-28 07:00;CYYG 280700Z 22014KT 15SM OVC014 09/05 A3004 RMK SC8 SLP174

CYYG;2009-04-28 08:00;CYYG 280800Z 23011G18KT 15SM OVC011 10/08 A3001 RMK SC8 SLP164

CYYG;2009-04-28 08:54;CYYG 280854Z 23016G26KT 15SM OVC008 11/ RMK SF8

CYYG;2009-04-28 09:00;CYYG 280900Z 23014G21KT 15SM OVC007 11/10 A2998 RMK SF8 SLP155

CYYG;2009-04-28 09:22;CYYG 280922Z 24015G24KT 15SM OVC006 11/ RMK SF8

CYYG;2009-04-28 10:00;CYYG 281000Z 23012G20KT 12SM OVC005 11/10 A2997 RMK SF8 SLP150

CYYG;2009-04-28 11:00;CYYG 281100Z 22011G17KT 12SM OVC005 11/10 A2998 RMK SF8 SLP153

CYYG;2009-04-28 11:43;CYYG 281143Z 23010G19KT 12SM SCT008 BKN300 12/ RMK SF3CI1

CYYG;2009-04-28 12:00;CYYG 281200Z 23012G17KT 12SM FEW008 BKN300 13/11 A2996 RMK SF2CI2 SLP147

CYYG;2009-04-28 13:00;CYYG 281300Z 25014G22KT 15SM BKN300 15/11 A2994 RMK CI3 SLP140

CYYG;2009-04-28 14:00;CYYG 281400Z 25015G20KT 15SM FEW160 BKN300 17/11 A2993 RMK AC1CI2 SLP138

CYYG;2009-04-28 15:00;CYYG 281500Z 25015G20KT 15SM FEW160 BKN240 18/11 A2992 RMK AC1CI2 SLP133

CYYG;2009-04-28 16:00;CYYG 281600Z 26015G20KT 15SM FEW160 BKN240 20/11 A2990 RMK AC1CI2 SLP126

CYYG;2009-04-28 17:00;CYYG 281700Z 25015G21KT 15SM FEW160 BKN240 22/12 A2987 RMK AC1CI2 SLP114

CYYG;2009-04-28 18:00;CYYG 281800Z 25014G20KT 15SM FEW150 BKN220 23/12 A2985 RMK AC1CI3 SLP110

CYYG;2009-04-28 19:00;CYYG 281900Z 25013G20KT 15SM FEW060 BKN220 23/12 A2983 RMK SC1CI3 SLP103

CYYG;2009-04-28 20:00;CYYG 282000Z 27011G16KT 15SM FEW060 BKN220 24/12 A2981 RMK SC2CI2 SLP096

CYYG;2009-04-28 21:00;CYYG 282100Z 27010G16KT 15SM VCSH SCT072 BKN096 BKN160 OVC220 22/12 A2978 RMK AC3AC2AC1CI2 SLP084

CYYG;2009-04-28 21:36;CYYG 282136Z 28010KT 12SM -SHRA FEW050 BKN067 OVC160 20/ RMK SC1SC6AC2

CYYG;2009-04-28 22:00;CYYG 282200Z 28011G18KT 10SM -SHRA BKN060 OVC100 18/14 A2981 RMK SC6AC2 SLP096

CYYG;2009-04-28 23:00;CYYG 282300Z 31012KT 12SM -SHRA OVC080 17/14 A2980 RMK AC8 SLP092

CYYG;2009-04-29 00:00;CYYG 290000Z 30015G22KT 8SM -SHRA FEW010 SCT030 OVC086 17/16 A2982 RMK SF1SC3AC4 RERA SLP098

CYYG;2009-04-29 01:00;CYYG 290100Z 34014G21KT 12SM -SHRA FEW010 OVC079 13/12 A2986 RMK SF2AC6 SLP111

CYYG;2009-04-29 02:00;CYYG 290200Z 34011G17KT 10SM -SHRA FEW006 SCT020 OVC050 12/11 A2990 RMK SF2SC2SC4 SLP127

CYYG;2009-04-29 03:00;CYYG 290300Z 32016G28KT 12SM -SHRA FEW010 OVC033 08/04 A2993 RMK SF1SC7 SLP137

CYYG;2009-04-29 03:36;CYYG 290336Z 31019G29KT 15SM FEW040 SCT097 07/ RMK SC1AC2

CYYG;2009-04-29 04:00;CYYG 290400Z 32017G27KT 15SM FEW100 BKN150 07/01 A2996 RMK AC2AC5 SLP145

CYYG;2009-04-29 05:00;CYYG 290500Z 32013G26KT 15SM FEW100 BKN150 06/M00 A2998 RMK AC2AC5 SLP151

CYYG;2009-04-29 06:00;CYYG 290600Z 32018G28KT 15SM FEW100 06/M01 A3000 RMK AC2 SLP160

CYYG;2009-04-29 07:00;CYYG 290700Z 32018G28KT 15SM SKC 05/M02 A3003 RMK SLP170

CYYG;2009-04-29 08:00;CYYG 290800Z 31013G22KT 15SM FEW040 04/M02 A3006 RMK SC1 SLP179

CYYG;2009-04-29 09:00;CYYG 290900Z 32016G24KT 15SM FEW040 04/M03 A3009 RMK SC1 SLP189

CYYG;2009-04-29 10:00;CYYG 291000Z 32015G24KT 15SM FEW040 03/M03 A3013 RMK SC1 SLP203

CYYG;2009-04-29 11:00;CYYG 291100Z 31016G27KT 15SM FEW040 04/M04 A3018 RMK SC1 SLP221

CYYG;2009-04-29 12:00;CYYG 291200Z 31016G25KT 15SM FEW040 04/M04 A3020 RMK SC1 SLP226

CYYG;2009-04-29 13:00;CYYG 291300Z 31017G25KT 15SM FEW040 FEW150 FEW250 04/M04 A3021 RMK SC1AC1CI0 SLP231

CYYG;2009-04-29 14:00;CYYG 291400Z 34018G25KT 15SM SCT038 SCT150 BKN250 04/M05 A3023 RMK CU3AC1CI0 SLP238

CYYG;2009-04-29 15:00;CYYG 291500Z 34012G25KT 15SM FEW040 FEW250 05/M05 A3024 RMK CU1CI0 SLP243

CYYG;2009-04-29 16:00;CYYG 291600Z 34014G24KT 15SM FEW040 06/M06 A3024 RMK CU1 SLP243

CYYG;2009-04-29 17:00;CYYG 291700Z 34014G21KT 15SM FEW040 07/M05 A3024 RMK CF1 SLP241

CYYG;2009-04-29 18:00;CYYG 291800Z 34014G20KT 15SM FEW040 07/M05 A3023 RMK CF1 SLP239

CYYG;2009-04-29 19:00;CYYG 291900Z 34013G18KT 15SM FEW040 07/M05 A3023 RMK CF1 SLP239

CYYG;2009-04-29 20:00;CYYG 292000Z 35010KT 15SM FEW040 07/M05 A3024 RMK CF1 SLP242

CYYG;2009-04-29 21:00;CYYG 292100Z 34011G17KT 15SM FEW040 06/M06 A3023 RMK CF1 SLP240

CYYG;2009-04-29 22:00;CYYG 292200Z 34013G21KT 15SM FEW040 06/M06 A3025 RMK SC1 SLP246

CYYG;2009-04-29 23:00;CYYG 292300Z 34008KT 15SM FEW040 05/M05 A3027 RMK SC1 SLP252

CYYG;2009-04-30 00:00;CYYG 300000Z 31004KT 15SM FEW040 03/M05 A3029 RMK SC1 SLP258

CYYG;2009-04-30 01:00;CYYG 300100Z 26005KT 15SM SKC 04/M05 A3030 RMK SLP262

CYYG;2009-04-30 02:00;CYYG 300200Z 25005KT 15SM SKC 03/M05 A3030 RMK SLP261

CYYG;2009-04-30 03:00;CYYG 300300Z 23005KT 15SM SKC 02/M05 A3030 RMK SLP261

CYYG;2009-04-30 04:00;CYYG 300400Z 25006KT 15SM SKC 02/M04 A3029 RMK SLP260

CYYG;2009-04-30 05:00;CYYG 300500Z 25007KT 15SM FEW070 03/M02 A3028 RMK AC2 SLP257

CYYG;2009-04-30 06:00;CYYG 300600Z 26006KT 15SM BKN066 03/M03 A3028 RMK SC6 SLP256

CYYG;2009-04-30 07:00;CYYG 300700Z 27006KT 15SM SCT066 03/M04 A3028 RMK SC3 SLP256

CYYG;2009-04-30 08:00;CYYG 300800Z 27006KT 15SM SCT066 02/M04 A3029 RMK SC3 SLP259

CYYG;2009-04-30 09:00;CYYG 300900Z 27007KT 15SM FEW060 02/M04 A3030 RMK SC1 SLP263

CYYG;2009-04-30 10:00;CYYG 301000Z 27006KT 15SM FEW060 03/M03 A3031 RMK SC0 SLP266

CYYG;2009-04-30 11:00;CYYG 301100Z 31010KT 15SM FEW060 05/M02 A3034 RMK SC0 SLP277

CYYG;2009-04-30 12:00;CYYG 301200Z 31009KT 15SM FEW060 06/M03 A3035 RMK SC1 SLP279

CYYG;2009-04-30 13:00;CYYG 301300Z 34007KT 15SM FEW060 07/M04 A3033 RMK SC1 SLP273

CYYG;2009-04-30 14:00;CYYG 301400Z 28013KT 15SM FEW060 08/M04 A3033 RMK SC0 SLP272

CYYG;2009-04-30 15:00;CYYG 301500Z 01008KT 15SM FEW050 08/M03 A3032 RMK SC0 SLP269

CYYG;2009-04-30 16:00;CYYG 301600Z 35010KT 15SM FEW050 FEW300 08/M03 A3031 RMK SC0CI1 SLP267

CYYG;2009-04-30 17:00;CYYG 301700Z 36006G15KT 15SM FEW050 SCT300 09/M02 A3030 RMK SC1CI1 SLP263

CYYG;2009-04-30 18:00;CYYG 301800Z 02007KT 15SM FEW050 SCT300 09/M03 A3028 RMK SC1CI1 SLP257

CYYG;2009-04-30 19:00;CYYG 301900Z 04006KT 15SM FEW050 SCT300 10/M02 A3027 RMK SC1CI1 SLP251

CYYG;2009-04-30 20:00;CYYG 302000Z 03006KT 15SM SCT200 10/M03 A3026 RMK CI2 SLP248

CYYG;2009-04-30 21:00;CYYG 302100Z 06008KT 15SM FEW200 09/M04 A3025 RMK CI1 SLP247

CYYG;2009-04-30 22:00;CYYG 302200Z 08005KT 15SM SCT250 08/M05 A3026 RMK CI2 SLP248

CYYG;2009-04-30 23:00;CYYG 302300Z 10003KT 15SM SCT250 08/M04 A3026 RMK CI1 SLP248

CYYG;2009-05-01 01:00;CYYG 010100Z 16005KT 15SM FEW250 04/M02 A3027 RMK CI1 SLP252

CYYG;2009-05-01 02:00;CYYG 010200Z 15005KT 15SM SKC 03/M02 A3025 RMK SLP246

CYYG;2009-05-01 03:00;CYYG 010300Z 16005KT 15SM SKC 02/M02 A3023 RMK SLP240

CYYG;2009-05-01 04:00;CYYG 010400Z 19008KT 15SM BKN240 05/01 A3021 RMK CI5 SLP233

CYYG;2009-05-01 05:00;CYYG 010500Z 22008KT 15SM BKN160 06/01 A3020 RMK AC5 SLP230

CYYG;2009-05-01 06:00;CYYG 010600Z 21008KT 15SM BKN120 07/01 A3018 RMK AC6 SLP221

CYYG;2009-05-01 07:00;CYYG 010700Z 21011KT 15SM BKN120 07/M02 A3016 RMK AC6 SLP215

CYYG;2009-05-01 08:00;CYYG 010800Z 20009KT 15SM BKN120 06/M01 A3015 RMK AC5 SLP211

CYYG;2009-05-01 09:00;CYYG 010900Z 18010KT 15SM BKN140 06/M01 A3013 RMK AC5 SLP204

CYYG;2009-05-01 10:00;CYYG 011000Z 18011KT 15SM BKN140 07/00 A3011 RMK AC6 SLP197

CYYG;2009-05-01 11:00;CYYG 011100Z 18014KT 15SM BKN092 07/01 A3009 RMK AC7 SLP190

CYYG;2009-05-01 11:53;CYYG 011153Z 19018G24KT 15SM -SHRA OVC074 08/ RMK AC8

CYYG;2009-05-01 12:00;CYYG 011200Z 19020G25KT 15SM -SHRA OVC074 08/02 A3005 RMK AC8 SLP178

CYYG;2009-05-01 13:00;CYYG 011300Z 17018KT 15SM -SHRA BKN062 OVC084 08/03 A2999 RMK SC6AC2 PCPN VRY LGT/PRESFR SLP157

CYYG;2009-05-01 14:00;CYYG 011400Z 18021G26KT 12SM -SHRA FEW048 BKN065 OVC084 09/05 A2993 RMK SC2SC5AC2 PRESFR SLP136

CYYG;2009-05-01 15:00;CYYG 011500Z 18018G26KT 12SM -SHRA BKN036 OVC080 09/07 A2987 RMK SC6AC2 PRESFR SLP116

CYYG;2009-05-01 16:00;CYYG 011600Z 19017G35KT 15SM -SHRA OVC027 09/08 A2979 RMK SC8 /PRESFR/ SLP091

CYYG;2009-05-01 16:39;CYYG 011639Z 18023G32KT 12SM -SHRA OVC014 10/ RMK SC8

CYYG;2009-05-01 17:00;CYYG 011700Z 19016G36KT 12SM -SHRA OVC013 10/09 A2974 RMK SC8 PRESFR/PCPN VRY LGT SLP071

CYYG;2009-05-01 18:00;CYYG 011800Z 19026G32KT 15SM OVC011 10/09 A2971 RMK SC8 SLP061

CYYG;2009-05-01 18:50;CYYG 011850Z 20017G26KT 4SM -SHRA BR OVC013 11/ RMK SC8

CYYG;2009-05-01 19:00;CYYG 011900Z 20021G28KT 3SM -SHRA BR OVC013 11/10 A2969 RMK SC8 SLP055

CYYG;2009-05-01 19:46;CYYG 011946Z 20021KT 12SM OVC020 11/ RMK SC8

CYYG;2009-05-01 20:00;CYYG 012000Z 20018G24KT 12SM OVC019 11/10 A2967 RMK SC8 SLP048

CYYG;2009-05-01 21:00;CYYG 012100Z 21017KT 15SM OVC013 11/10 A2966 RMK SC8 SLP046

CYYG;2009-05-01 21:27;CYYG 012127Z 21016KT 4SM -SHRA OVC011 11/ RMK SC8

CYYG;2009-05-01 21:50;CYYG 012150Z 21013G19KT 3SM -SHRA BR OVC008 11/ RMK SF8

CYYG;2009-05-01 22:00;CYYG 012200Z 20014KT 3SM -SHRA BR OVC008 11/11 A2967 RMK SF8 SLP047

CYYG;2009-05-01 22:48;CYYG 012248Z 21011G17KT 4SM -SHRA BR OVC004 11/ RMK SF8

CYYG;2009-05-01 23:00;CYYG 012300Z 22012KT 5SM -SHRA BR OVC004 11/11 A2969 RMK SF8 SLP055

CYYG;2009-05-02 00:00;CYYG 020000Z 23008KT 6SM -DZ BR OVC003 11/11 A2970 RMK SF8 SLP058

CYYG;2009-05-02 00:37;CYYG 020037Z 21011KT 6SM -DZ BR OVC004 11/ RMK SF8

CYYG;2009-05-02 01:00;CYYG 020100Z 23007KT 5SM -DZ BR OVC004 10/10 A2969 RMK SF8 SLP056

CYYG;2009-05-02 01:27;CYYG 020127Z 20008KT 2SM -DZ BR OVC003 10/ RMK SF8

CYYG;2009-05-02 01:47;CYYG 020147Z 21008KT 5SM -DZ BR FEW002 OVC004 11/ RMK SF2SF6

CYYG;2009-05-02 02:00;CYYG 020200Z 23011KT 6SM -DZ BR FEW002 OVC005 12/12 A2968 RMK SF2SF6 SLP050

CYYG;2009-05-02 03:00;CYYG 020300Z 22012G17KT 6SM -DZ BR FEW002 OVC004 12/12 A2966 RMK SF1SF7 SLP043

CYYG;2009-05-02 04:00;CYYG 020400Z 23014G21KT 6SM -DZ BR OVC005 13/12 A2964 RMK SF8 SLP039

CYYG;2009-05-02 05:00;CYYG 020500Z 23015G24KT 8SM -DZ OVC006 13/12 A2963 RMK SF8 SLP035

CYYG;2009-05-02 06:00;CYYG 020600Z 22016G22KT 8SM OVC005 13/12 A2962 RMK SF8 SLP032

CYYG;2009-05-02 07:00;CYYG 020700Z 23013KT 8SM OVC005 13/12 A2962 RMK SF8 SLP031

CYYG;2009-05-02 07:20;CYYG 020720Z 22012G18KT 6SM BR OVC004 13/ RMK SF8

CYYG;2009-05-02 08:00;CYYG 020800Z 22009G15KT 6SM BR OVC005 12/12 A2961 RMK SF8 SLP027

CYYG;2009-05-02 09:00;CYYG 020900Z 22012G17KT 6SM BR OVC005 13/13 A2958 RMK SF8 SLP019

CYYG;2009-05-02 10:00;CYYG 021000Z 25010KT 6SM BR OVC005 13/12 A2960 RMK SF8 SLP023

CYYG;2009-05-02 10:18;CYYG 021018Z 27006KT 2 1/2SM BR FEW002 OVC004 12/ RMK SF2SF6

CYYG;2009-05-02 10:28;CYYG 021028Z 27006KT 2SM R03/4500VP6000FT/D -SHRA BR BKN003 OVC008 12/ RMK SF7SC1

CYYG;2009-05-02 11:00;CYYG 021100Z 26009G16KT 3SM -SHRA BR BKN004 OVC008 11/11 A2963 RMK SF7SC1 SLP036

CYYG;2009-05-02 12:00;CYYG 021200Z 25008KT 3SM -SHRA BR OVC005 11/11 A2964 RMK SF8 SLP039

CYYG;2009-05-02 13:00;CYYG 021300Z 24008KT 3SM -SHRA BR OVC004 10/10 A2966 RMK SF8 SLP045

CYYG;2009-05-02 13:43;CYYG 021343Z 26007KT 4SM -SHRA BR BKN005 OVC018 10/ RMK SF7SC1

CYYG;2009-05-02 14:00;CYYG 021400Z 25007KT 4SM -SHRA BR BKN006 OVC018 10/10 A2968 RMK SF7SC1 SLP051

CYYG;2009-05-02 15:00;CYYG 021500Z 26010KT 4SM -SHRA BR BKN006 OVC018 10/09 A2969 RMK SF7SC1 SLP056

CYYG;2009-05-02 15:16;CYYG 021516Z 25007KT 10SM -SHRA SCT006 BKN013 OVC025 10/ RMK SF3SC4SC1

CYYG;2009-05-02 15:33;CYYG 021533Z 25006KT 10SM FEW007 BKN013 BKN028 10/ RMK SF2SC4SC1

CYYG;2009-05-02 16:00;CYYG 021600Z 25008KT 12SM FEW007 BKN013 BKN028 12/11 A2970 RMK SF2SC3SC2 SLP058

CYYG;2009-05-02 17:00;CYYG 021700Z 26009KT 15SM BKN015 BKN140 BKN230 13/10 A2971 RMK CU6AC1CI0 CF ASOCTD SLP062

CYYG;2009-05-02 18:00;CYYG 021800Z 25009KT 15SM SCT015 BKN230 15/10 A2972 RMK CU4CI2 SLP064

CYYG;2009-05-02 19:00;CYYG 021900Z 26008KT 15SM SCT015 BKN067 BKN230 14/08 A2975 RMK CU3AC2CI2 SLP074

CYYG;2009-05-02 20:00;CYYG 022000Z 02005KT 15SM SCT020 BKN058 BKN230 13/09 A2975 RMK CU3SC2CS2 SHRA W SLP076

CYYG;2009-05-02 21:00;CYYG 022100Z 04004KT 15SM SCT033 BKN070 OVC230 11/08 A2977 RMK CU4AC1CS3 SHRA W-N SLP082

CYYG;2009-05-02 22:00;CYYG 022200Z 02005KT 15SM BKN030 BKN051 OVC230 09/07 A2979 RMK CU5SC2CS1 SHRA W-NE TCU ASOCTD SLP090

CYYG;2009-05-02 23:00;CYYG 022300Z 08002KT 15SM BKN032 OVC054 09/07 A2981 RMK CU6SC2 SHRA W-NE/TCU ASOCTD SLP095

CYYG;2009-05-02 23:25;CYYG 022325Z 13002KT 12SM -SHRA OVC029 09/ RMK SC8

CYYG;2009-05-03 00:00;CYYG 030000Z 05006KT 12SM -SHRA BKN019 OVC033 08/08 A2984 RMK SC6SC2 SLP105

CYYG;2009-05-03 01:00;CYYG 030100Z 04007KT 15SM -SHRA BKN014 07/07 A2987 RMK SC7 SLP115

CYYG;2009-05-03 02:00;CYYG 030200Z 02008KT 15SM -SHRA FEW004 OVC013 06/06 A2989 RMK SF2SC6 SLP123

CYYG;2009-05-03 03:00;CYYG 030300Z CCA 07005KT 15SM -SHRA OVC020 06/06 A2990 RMK SC8 SLP128

CYYG;2009-05-03 04:00;CYYG 030400Z 08004KT 15SM -SHRA BKN023 BKN086 06/05 A2991 RMK SC5AC2 SLP131

CYYG;2009-05-03 04:53;CYYG 030453Z 09003KT 15SM BKN022 05/ RMK SC6

CYYG;2009-05-03 05:00;CYYG 030500Z 00000KT 15SM BKN023 04/04 A2993 RMK SC6 SLP135

CYYG;2009-05-03 06:00;CYYG 030600Z 13003KT 15SM FEW025 05/04 A2993 RMK SC1 SLP136

CYYG;2009-05-03 07:00;CYYG 030700Z 17006KT 15SM SKC 04/03 A2995 RMK SLP142

CYYG;2009-05-03 08:00;CYYG 030800Z 19007KT 15SM FEW030 04/03 A2997 RMK SC1 SLP149

CYYG;2009-05-03 09:00;CYYG 030900Z 19006KT 15SM FEW010 FEW030 03/03 A2997 RMK SF1SC1 SLP149

CYYG;2009-05-03 10:00;CYYG 031000Z 17004KT 15SM VCFG FEW030 04/04 A2999 RMK SC1 SLP156

CYYG;2009-05-03 11:00;CYYG 031100Z 19007KT 15SM FEW055 08/06 A3001 RMK SC1 SLP163

CYYG;2009-05-03 12:00;CYYG 031200Z 19010KT 15SM FEW055 FEW350 09/05 A3001 RMK SC1CS1 SLP165

CYYG;2009-05-03 13:00;CYYG 031300Z 20012G17KT 15SM FEW020 FEW350 11/06 A3001 RMK CF1CS1 SLP165

CYYG;2009-05-03 14:00;CYYG 031400Z 22009KT 15SM FEW020 BKN350 13/07 A3001 RMK CU1CS2 SLP165

CYYG;2009-05-03 15:00;CYYG 031500Z 20011KT 15SM FEW025 BKN350 14/04 A3000 RMK CU1CS3 SLP160

CYYG;2009-05-03 16:00;CYYG 031600Z 20011KT 15SM FEW030 BKN350 15/03 A2999 RMK CU1CS6 SLP156

CYYG;2009-05-03 17:00;CYYG 031700Z 18014KT 15SM FEW030 BKN350 16/03 A2998 RMK CU1CS3 SLP154

CYYG;2009-05-03 18:00;CYYG 031800Z 16009G15KT 15SM FEW030 BKN350 16/02 A2997 RMK CU1CS2 SLP151

CYYG;2009-05-03 19:00;CYYG 031900Z 18010KT 15SM FEW030 OVC350 16/03 A2996 RMK CU1CS7 SLP146

CYYG;2009-05-03 20:00;CYYG 032000Z 18009KT 15SM FEW050 OVC300 16/03 A2996 RMK SC1CS8 SLP145

CYYG;2009-05-03 21:00;CYYG 032100Z 18008KT 15SM FEW050 OVC280 15/04 A2996 RMK SC1CS8 SLP145

CYYG;2009-05-03 22:00;CYYG 032200Z 25005KT 15SM FEW050 OVC280 14/04 A2996 RMK SC1CS7 SLP145

CYYG;2009-05-03 23:00;CYYG 032300Z 16006KT 15SM FEW050 BKN160 OVC210 11/04 A2996 RMK SC1AS6CI1 SLP147

CYYG;2009-05-04 00:00;CYYG 040000Z 19005KT 15SM FEW050 BKN160 OVC210 11/04 A2996 RMK SC1AS6CI1 SLP148

CYYG;2009-05-04 01:00;CYYG 040100Z 22004KT 15SM FEW050 BKN160 OVC230 10/05 A2998 RMK SC1AS5CI2 SLP152

CYYG;2009-05-04 02:00;CYYG 040200Z 23004KT 15SM FEW050 SCT160 OVC240 10/06 A2998 RMK SC1AS3CI3 SLP155

CYYG;2009-05-04 03:00;CYYG 040300Z 23006KT 15SM FEW160 OVC240 10/06 A2998 RMK AS2CI4 SLP153

CYYG;2009-05-04 04:00;CYYG 040400Z 22006KT 15SM BKN240 09/06 A2998 RMK CI4 SLP152

CYYG;2009-05-04 05:00;CYYG 040500Z 23006KT 15SM BKN240 09/07 A2997 RMK CI5 SLP151

CYYG;2009-05-04 06:00;CYYG 040600Z 24006KT 15SM BKN240 08/07 A2997 RMK CI6 SLP150

CYYG;2009-05-04 07:00;CYYG 040700Z 24009KT 15SM BKN240 09/08 A2997 RMK CI6 SLP150

CYYG;2009-05-04 08:00;CYYG 040800Z 22006KT 15SM FEW009 BKN240 08/07 A2998 RMK SF1CI3 SLP153

CYYG;2009-05-04 09:00;CYYG 040900Z 23007KT 15SM FEW160 BKN240 07/07 A2998 RMK AC1CI2 SLP153

CYYG;2009-05-04 10:00;CYYG 041000Z 23008KT 15SM SCT250 08/07 A2999 RMK CI2 SLP156

CYYG;2009-05-04 11:00;CYYG 041100Z 23011KT 15SM FEW250 09/07 A3000 RMK CI1 SLP160

CYYG;2009-05-04 12:00;CYYG 041200Z 23011KT 15SM FEW250 11/07 A3000 RMK CI0 SLP160

CYYG;2009-05-04 13:00;CYYG 041300Z 22014KT 15SM FEW250 13/07 A3000 RMK CI1 SLP160

CYYG;2009-05-04 14:00;CYYG 041400Z 22012G17KT 15SM FEW250 15/07 A3000 RMK CI1 SLP161

CYYG;2009-05-04 15:00;CYYG 041500Z 23015KT 15SM FEW250 16/07 A3000 RMK CC1 SLP159

CYYG;2009-05-04 16:00;CYYG 041600Z 23013G19KT 15SM FEW040 FEW200 17/07 A2998 RMK SC1CC0 SLP155

CYYG;2009-05-04 17:00;CYYG 041700Z 22014G22KT 15SM FEW040 FEW200 19/07 A2996 RMK SC1CI0 SLP147

CYYG;2009-05-04 18:00;CYYG 041800Z 24013G22KT 15SM FEW040 FEW098 FEW200 19/05 A2996 RMK SC1AC1CI0 SLP144

CYYG;2009-05-04 19:00;CYYG 041900Z 24015KT 15SM FEW090 SCT200 19/05 A2997 RMK AC2CI1 SLP148

CYYG;2009-05-04 20:00;CYYG 042000Z 26013G20KT 15SM SCT075 BKN200 18/06 A2998 RMK AC4CI1 SLP151

CYYG;2009-05-04 21:00;CYYG 042100Z 26014G21KT 15SM BKN080 BKN200 16/05 A2999 RMK AC5CI0 SLP156

CYYG;2009-05-04 22:00;CYYG 042200Z 26011KT 15SM BKN077 16/06 A3001 RMK AC5 SLP163

CYYG;2009-05-04 23:00;CYYG 042300Z 30007KT 15SM BKN070 OVC250 14/07 A3005 RMK AC5CI1 SLP176

CYYG;2009-05-05 00:00;CYYG 050000Z 02006KT 15SM VCSH SCT070 BKN090 BKN250 10/05 A3009 RMK AC4AC2CI0 SLP191

CYYG;2009-05-05 01:00;CYYG 050100Z 36003KT 15SM SCT080 BKN095 09/05 A3013 RMK AC4AC2 SLP205

CYYG;2009-05-05 02:00;CYYG 050200Z 36004KT 15SM SCT090 08/03 A3017 RMK AC3 SLP216

CYYG;2009-05-05 03:00;CYYG 050300Z 35005KT 15SM FEW090 BKN240 08/00 A3017 RMK AC2CI2 SLP219

CYYG;2009-05-05 04:00;CYYG 050400Z 36006KT 15SM SCT240 08/M02 A3021 RMK CI2 SLP232

CYYG;2009-05-05 05:00;CYYG 050500Z 05012KT 15SM SCT240 06/01 A3027 RMK CI2 SLP250

CYYG;2009-05-05 06:00;CYYG 050600Z 06009KT 15SM SCT250 05/M02 A3028 RMK CI2 SLP253

CYYG;2009-05-05 07:00;CYYG 050700Z 06006KT 15SM FEW250 04/M03 A3030 RMK CI1 SLP262

CYYG;2009-05-05 08:00;CYYG 050800Z 04006KT 15SM SCT250 03/M04 A3033 RMK CI1 SLP273

CYYG;2009-05-05 09:00;CYYG 050900Z 03006KT 15SM SCT250 02/M03 A3035 RMK CI2 SLP280

CYYG;2009-05-05 10:00;CYYG 051000Z 00000KT 15SM BKN250 04/M01 A3039 RMK CI2 SLP294

CYYG;2009-05-05 11:00;CYYG 051100Z 07005KT 15SM BKN250 06/M03 A3043 RMK CI2 SLP305

CYYG;2009-05-05 12:00;CYYG 051200Z 05007KT 15SM BKN250 08/M02 A3044 RMK CI3 SLP308

CYYG;2009-05-05 13:00;CYYG 051300Z 05008KT 15SM BKN250 09/M02 A3044 RMK CI4 SLP311

CYYG;2009-05-05 14:00;CYYG 051400Z 05007KT 15SM BKN240 10/M02 A3047 RMK CI3 SLP319

CYYG;2009-05-05 15:00;CYYG 051500Z 03008KT 15SM BKN250 11/M02 A3047 RMK CI3 SLP319

CYYG;2009-05-05 16:00;CYYG 051600Z 04010KT 15SM BKN240 11/M02 A3046 RMK CI3 SLP316

CYYG;2009-05-05 17:00;CYYG 051700Z 03010KT 15SM BKN250 11/M03 A3045 RMK CI2 SLP314

CYYG;2009-05-05 18:00;CYYG 051800Z 03009KT 15SM BKN250 11/M04 A3045 RMK CI3 SLP312

CYYG;2009-05-05 19:00;CYYG 051900Z 02008KT 15SM BKN230 11/M02 A3044 RMK CI4 SLP309

CYYG;2009-05-05 20:00;CYYG 052000Z 02008KT 15SM BKN210 09/M01 A3042 RMK CI4 SLP304

CYYG;2009-05-05 21:00;CYYG 052100Z 03007KT 15SM BKN200 09/M01 A3041 RMK CI5 SLP300

CYYG;2009-05-05 22:00;CYYG 052200Z 07004KT 15SM BKN160 09/M00 A3040 RMK AC6 SLP296

CYYG;2009-05-05 23:00;CYYG 052300Z 11009KT 15SM OVC150 08/M03 A3040 RMK AC8 SLP296

CYYG;2009-05-06 00:00;CYYG 060000Z 11006KT 10SM OVC130 06/M05 A3039 RMK FU2AC6 VIS S-E 2 FU SLP293

CYYG;2009-05-06 01:00;CYYG 060100Z 11008KT 15SM OVC120 06/M05 A3039 RMK AC8 SLP294

CYYG;2009-05-06 02:00;CYYG 060200Z 13006KT 15SM OVC085 06/M02 A3039 RMK AC8 SLP294

CYYG;2009-05-06 02:23;CYYG 060223Z 15005KT 15SM -SHRA OVC052 06/ RMK SC8

CYYG;2009-05-06 03:00;CYYG 060300Z 17004KT 12SM -SHRA OVC047 05/03 A3039 RMK SC8 SLP293

CYYG;2009-05-06 04:00;CYYG 060400Z 14005KT 12SM -SHRA BKN050 OVC070 05/04 A3038 RMK SC6AC2 SLP289

CYYG;2009-05-06 05:00;CYYG 060500Z 13007KT 15SM -SHRA BKN054 OVC088 04/03 A3035 RMK SC6AC2 SLP278

CYYG;2009-05-06 06:00;CYYG 060600Z 12008KT 15SM -SHRA SCT050 OVC062 04/03 A3032 RMK SC4SC4 SLP268

CYYG;2009-05-06 07:00;CYYG 060700Z 12010KT 12SM -SHRA FEW026 OVC047 04/03 A3030 RMK SC2SC6 SLP261

CYYG;2009-05-06 07:25;CYYG 060725Z 11009KT 10SM -SHRA BKN005 OVC031 04/ RMK SF5SC3

CYYG;2009-05-06 08:00;CYYG 060800Z 12010G16KT 12SM -SHRA BKN005 OVC020 04/03 A3027 RMK SF6SC2 SLP253

CYYG;2009-05-06 08:25;CYYG 060825Z 10009KT 12SM -DZ OVC005 04/ RMK SF8

CYYG;2009-05-06 09:00;CYYG 060900Z 11009KT 15SM BKN006 OVC030 04/03 A3025 RMK SF7SC1 INTMT -DZ SLP246

CYYG;2009-05-06 09:53;CYYG 060953Z 10011G16KT 12SM BKN005 OVC024 04/ RMK SF6SC2

CYYG;2009-05-06 10:00;CYYG 061000Z 10011G16KT 12SM BKN005 OVC024 04/04 A3022 RMK SF6SC2 SLP235

CYYG;2009-05-06 10:23;CYYG 061023Z 10011KT 12SM -DZ BKN005 OVC020 05/ RMK SF6SC2

CYYG;2009-05-06 11:00;CYYG 061100Z 12007KT 15SM -DZ OVC006 05/05 A3023 RMK SF8 PCPN VRY LGT SLP239

CYYG;2009-05-06 12:00;CYYG 061200Z 11008KT 15SM -DZ OVC005 05/05 A3022 RMK SF8 SLP235

CYYG;2009-05-06 13:00;CYYG 061300Z 11010KT 6SM -RA BR OVC005 06/06 A3018 RMK SF8 SLP222

CYYG;2009-05-06 14:00;CYYG 061400Z 12011G16KT 3SM -RA BR OVC004 06/06 A3014 RMK SF8 SLP209

CYYG;2009-05-06 15:00;CYYG 061500Z 13010KT 6SM -RA BR OVC006 07/07 A3011 RMK SF8 SLP199

CYYG;2009-05-06 16:00;CYYG 061600Z 14010KT 3SM -RA BR OVC005 08/08 A3006 RMK SF8 SLP182

CYYG;2009-05-06 16:44;CYYG 061644Z 16008KT 2SM -RA BR OVC003 08/ RMK SF8

CYYG;2009-05-06 17:00;CYYG 061700Z 17010KT 2SM -RA BR OVC003 09/09 A3004 RMK SF8 SLP173

CYYG;2009-05-06 18:00;CYYG 061800Z 16010G15KT 4SM -RA BR OVC005 09/09 A3001 RMK SF8 SLP164

CYYG;2009-05-06 19:00;CYYG 061900Z 16009KT 10SM -DZ OVC004 10/10 A2996 RMK SF8 PRESFR SLP145

CYYG;2009-05-06 19:26;CYYG 061926Z 17010KT 15SM BKN003 OVC007 10/ RMK SF7SF1

CYYG;2009-05-06 20:00;CYYG 062000Z 17014KT 15SM BKN007 BKN120 12/12 A2992 RMK SF5AC2 SLP132

CYYG;2009-05-06 20:14;CYYG 062014Z 18011KT 15SM BKN013 BKN120 12/ RMK SC6AC1

CYYG;2009-05-06 20:38;CYYG 062038Z 17010KT 10SM -RA OVC010 11/ RMK SC8

CYYG;2009-05-06 21:00;CYYG 062100Z 16007KT 15SM -RA BKN008 OVC025 12/12 A2989 RMK SF7SC1 PCPN VRY LGT SLP124

CYYG;2009-05-06 21:22;CYYG 062122Z 18010KT 3SM -DZ BR OVC003 12/ RMK SF8

CYYG;2009-05-06 22:00;CYYG 062200Z 20008KT 1 1/2SM -DZ BR OVC003 12/12 A2988 RMK SF8 SLP119

CYYG;2009-05-06 22:39;CYYG 062239Z 20005KT 1SM R03/6000FT/D -DZ BR OVC002 11/ RMK SF8

CYYG;2009-05-06 23:00;CYYG 062300Z 19006KT 3/4SM R03/5500FT/N -DZ BR OVC002 11/11 A2986 RMK FG2ST6 SLP113

CYYG;2009-05-06 23:23;CYYG 062323Z 21005KT 1/2SM R03/3000FT/D -DZ FG VV002 11/ RMK FG8

CYYG;2009-05-07 00:00;CYYG 070000Z 25004KT 1/4SM R03/1200V2000FT/N -DZ FG VV002 11/11 A2987 RMK FG8 SLP116

CYYG;2009-05-07 00:13;CYYG 070013Z 27006KT 1 1/2SM R03/4000VP6000FT/U -DZ BR BKN002 OVC008 12/ RMK SF7SF1

CYYG;2009-05-07 00:22;CYYG 070022Z 28006KT 2SM -DZ BR FEW002 BKN005 OVC014 12/ RMK SF2SF6SC1

CYYG;2009-05-07 01:00;CYYG 070100Z 31009KT 2SM R03/4500VP6000FT/U -DZ BR BKN004 OVC010 09/09 A2990 RMK SF6SC2 SLP128

CYYG;2009-05-07 01:47;CYYG 070147Z 29010G16KT 15SM BKN004 OVC032 09/ RMK SF6SC2

CYYG;2009-05-07 02:00;CYYG 070200Z 30014KT 15SM BKN007 OVC015 08/08 A2993 RMK SF7SC1 SLP135

CYYG;2009-05-07 03:00;CYYG 070300Z 29014G19KT 15SM BKN009 OVC028 06/05 A2994 RMK SF6SC2 SLP140

CYYG;2009-05-07 04:00;CYYG 070400Z 30012G18KT 15SM BKN008 06/05 A2997 RMK SF6 SLP149

CYYG;2009-05-07 05:00;CYYG 070500Z 30013G18KT 15SM OVC007 06/05 A2997 RMK SF8 SLP150

CYYG;2009-05-07 06:00;CYYG 070600Z 31010G16KT 15SM BKN007 OVC025 05/05 A2998 RMK SF7SC1 SLP153

CYYG;2009-05-07 07:00;CYYG 070700Z 33014G21KT 15SM OVC007 04/03 A3000 RMK SF8 SLP159

CYYG;2009-05-07 08:00;CYYG 070800Z 32009G15KT 15SM OVC006 04/04 A3002 RMK SF8 SLP166

CYYG;2009-05-07 09:00;CYYG 070900Z 31008KT 15SM OVC006 04/04 A3004 RMK SF8 VIS SE-W 6 SLP174

CYYG;2009-05-07 10:00;CYYG 071000Z 32007KT 15SM BKN007 OVC016 04/03 A3006 RMK SF6SC2 SLP182

CYYG;2009-05-07 10:10;CYYG 071010Z 31006KT 15SM SCT007 OVC016 04/ RMK SF3SC5

CYYG;2009-05-07 11:00;CYYG 071100Z 31005KT 15SM SCT007 OVC019 05/04 A3007 RMK SF3SC5 SLP183

CYYG;2009-05-07 12:00;CYYG 071200Z 35005KT 15SM BKN010 OVC020 06/04 A3007 RMK SC6SC2 SLP185

CYYG;2009-05-07 13:00;CYYG 071300Z 01005KT 15SM BKN010 OVC020 06/05 A3006 RMK SC7SC1 SLP180

CYYG;2009-05-07 13:38;CYYG 071338Z 02003KT 15SM OVC009 06/ RMK SC8

CYYG;2009-05-07 14:00;CYYG 071400Z 30002KT 15SM OVC009 06/05 A3006 RMK SC8 SLP181

CYYG;2009-05-07 14:26;CYYG 071426Z 00000KT 15SM -RA OVC009 07/ RMK SC8

CYYG;2009-05-07 15:00;CYYG 071500Z 17002KT 15SM -RA BKN009 OVC100 08/06 A3005 RMK SC6AS2 SLP177

CYYG;2009-05-07 15:44;CYYG 071544Z 10006KT 15SM -RA BKN011 OVC100 07/ RMK SC7AS1

CYYG;2009-05-07 16:00;CYYG 071600Z 11006KT 15SM -RA OVC010 07/06 A3001 RMK SC8 SLP164

CYYG;2009-05-07 16:19;CYYG 071619Z 12003KT 15SM -RA OVC009 07/ RMK SC8

CYYG;2009-05-07 17:00;CYYG 071700Z 05004KT 15SM -RA SCT006 OVC011 08/07 A3002 RMK SF3SC5 SLP168

CYYG;2009-05-07 17:16;CYYG 071716Z 06003KT 10SM -RA BKN007 OVC011 08/ RMK SF5SC3

CYYG;2009-05-07 18:00;CYYG 071800Z 08003KT 10SM -RA BKN007 OVC010 08/07 A3001 RMK SF5SC3 VIS SE-SW 4 SLP163

CYYG;2009-05-07 18:18;CYYG 071818Z 10009KT 6SM -RA BR BKN005 OVC011 08/ RMK SF6SC2

CYYG;2009-05-07 19:00;CYYG 071900Z 16007KT 15SM -RA OVC005 07/07 A2996 RMK SF8 SLP146

CYYG;2009-05-07 19:06;CYYG 071906Z 16008KT 15SM BKN005 OVC011 07/ RMK SF6SC2

CYYG;2009-05-07 19:10;CYYG 071910Z 16008KT 15SM -RA BKN005 OVC012 07/ RMK SF6SC2

CYYG;2009-05-07 20:00;CYYG 072000Z 12008KT 5SM RA BR BKN005 OVC068 07/07 A2994 RMK SF6AS2 SLP139

CYYG;2009-05-07 20:04;CYYG 072004Z 12008KT 10SM -RA SCT005 OVC048 07/ RERA RMK SF3SC5

CYYG;2009-05-07 20:10;CYYG 072010Z 11010KT 10SM -RA BKN004 OVC050 07/ RMK SF6SC2

CYYG;2009-05-07 20:19;CYYG 072019Z 11012KT 10SM -RA SCT003 BKN048 OVC066 07/ RMK SF3SC3AC2

CYYG;2009-05-07 20:33;CYYG 072033Z 11011G16KT 15SM FEW003 BKN042 OVC052 07/ RMK SF2SC4SC2

CYYG;2009-05-07 21:00;CYYG 072100Z 11010KT 15SM FEW005 OVC036 07/07 A2989 RMK SF2SC6 SLP124

CYYG;2009-05-07 21:13;CYYG 072113Z 10010KT 10SM -RA BKN007 BKN013 OVC034 07/ RMK SF5SC2SC2

CYYG;2009-05-07 21:46;CYYG 072146Z 36004KT 3SM RA BR BKN004 OVC008 06/ RMK SF6SF2

CYYG;2009-05-07 22:00;CYYG 072200Z 07005KT 2SM RA BR BKN005 OVC013 06/06 A2994 RMK SF6SC2 SLP139

CYYG;2009-05-07 22:29;CYYG 072229Z 08006KT 3SM -DZ BR SCT003 OVC017 06/ RERA RMK SF3SC5

CYYG;2009-05-07 22:43;CYYG 072243Z 09009KT 2SM -DZ BR BKN002 OVC011 06/ RMK SF6SF2

CYYG;2009-05-07 23:00;CYYG 072300Z CCA 09010KT 2SM -DZ BR OVC002 06/06 A2991 RERA RMK SF8 SLP130

CYYG;2009-05-08 00:00;CYYG 080000Z 10009KT 2 1/2SM -DZ BR BKN002 OVC011 06/06 A2990 RMK SF7SC1 SLP126

CYYG;2009-05-08 01:00;CYYG 080100Z 11008KT 6SM -DZ BR OVC003 06/06 A2989 RMK SF8 SLP123

CYYG;2009-05-08 01:31;CYYG 080131Z 11009KT 6SM -SHRADZ BR OVC004 06/ RMK SF8

CYYG;2009-05-08 02:00;CYYG 080200Z 12007KT 3SM -SHRADZ BR OVC003 06/06 A2987 RMK SF8 SLP118

CYYG;2009-05-08 03:00;CYYG 080300Z 13009KT 3SM -DZ BR OVC003 06/06 A2984 RMK SF8 SLP106

CYYG;2009-05-08 03:52;CYYG 080352Z 12007KT 2 1/2SM -SHRADZ BR OVC002 06/ RMK SF8

CYYG;2009-05-08 04:00;CYYG 080400Z 13008KT 2 1/2SM -SHRADZ BR OVC002 06/06 A2982 RMK SF8 SLP098

CYYG;2009-05-08 04:15;CYYG 080415Z 13007KT 1SM R03/P6000FT/N -SHRA BR OVC002 06/ RMK FG2SF6

CYYG;2009-05-08 05:00;CYYG 080500Z 14007KT 2 1/2SM -SHRA BR OVC002 06/06 A2977 RMK SF8 SLP084

CYYG;2009-05-08 06:00;CYYG 080600Z 14006KT 2SM -RA BR OVC002 07/07 A2975 RMK SF8 SLP077

CYYG;2009-05-08 07:00;CYYG 080700Z 15007KT 2SM -RA BR OVC002 07/07 A2973 RMK SF8 SLP069

CYYG;2009-05-08 08:00;CYYG 080800Z 17005KT 2SM -RA BR OVC002 08/08 A2971 RMK SF8 SLP061

CYYG;2009-05-08 08:22;CYYG 080822Z 16004KT 1SM R03/P6000FT/N -RA BR BKN002 OVC008 08/ RMK SF7SF1

CYYG;2009-05-08 09:00;CYYG 080900Z 16006KT 1 1/2SM BR BKN002 OVC010 09/09 A2968 RMK SF7SC1 SLP050

CYYG;2009-05-08 09:09;CYYG 080909Z 15005KT 1 1/2SM -RA BR BKN002 OVC010 09/ RMK SF7SC1

CYYG;2009-05-08 09:49;CYYG 080949Z 16006KT 2 1/2SM -RA BR BKN005 OVC025 10/ RMK SF5SC3

CYYG;2009-05-08 10:00;CYYG 081000Z 17007KT 5SM -DZ BR SCT005 OVC016 10/10 A2967 RMK SF3SC5 SLP048

CYYG;2009-05-08 10:08;CYYG 081008Z 16007KT 10SM SCT005 BKN015 BKN040 10/ RMK SF3SC2SC2

CYYG;2009-05-08 10:17;CYYG 081017Z 17008KT 10SM OVC002 10/ RMK SF8

CYYG;2009-05-08 10:37;CYYG 081037Z 18009KT 10SM BKN002 BKN070 11/ RMK SF6AC2

CYYG;2009-05-08 10:53;CYYG 081053Z 17007KT 5SM -RA BR OVC002 11/ RMK SF8

CYYG;2009-05-08 11:00;CYYG 081100Z 16006KT 1 1/2SM -RA BR BKN002 OVC006 11/11 A2964 RMK SF6SF2 SLP039

CYYG;2009-05-08 11:23;CYYG 081123Z 18009KT 5SM -SHRA BR OVC003 11/ RMK SF8

CYYG;2009-05-08 12:00;CYYG 081200Z 20010KT 5SM -SHRA BR OVC003 11/11 A2964 RMK SF8 SLP039

CYYG;2009-05-08 12:29;CYYG 081229Z 19009KT 3SM -DZ BR OVC002 11/ RMK ST8

CYYG;2009-05-08 12:36;CYYG 081236Z 19009KT 1 1/2SM -DZ BR OVC002 11/ RMK ST8

CYYG;2009-05-08 13:00;CYYG 081300Z 20008KT 1SM R03/P6000FT/D -DZ BR BKN002 OVC005 12/12 A2963 RMK SF6SF2 SLP036

CYYG;2009-05-08 14:00;CYYG 081400Z 24007KT 2SM -DZ BR FEW002 BKN004 OVC012 13/13 A2963 RMK SF2SF4SC2 SLP036

CYYG;2009-05-08 14:33;CYYG 081433Z 25011G17KT 10SM -DZ BKN006 OVC015 13/ RMK SF6SC2

CYYG;2009-05-08 15:00;CYYG 081500Z 25014G20KT 15SM BKN006 OVC017 13/13 A2964 RMK SF6SC2 SLP037

CYYG;2009-05-08 16:00;CYYG 081600Z 25010KT 15SM BKN007 OVC011 13/12 A2963 RMK SF6SF2 SLP035

CYYG;2009-05-08 17:00;CYYG 081700Z 25009KT 15SM OVC007 12/12 A2964 RMK SF8 SLP039

CYYG;2009-05-08 18:00;CYYG 081800Z 27008KT 15SM OVC005 12/11 A2966 RMK SF8 SLP045

CYYG;2009-05-08 19:00;CYYG 081900Z 34007KT 15SM BKN003 OVC018 09/08 A2966 RMK SF6SC2 VIS NW-NE 2 SLP044

CYYG;2009-05-08 20:00;CYYG 082000Z 35007KT 15SM SCT003 OVC007 08/08 A2967 RMK SF3SF5 SLP049

CYYG;2009-05-08 20:41;CYYG 082041Z 34007KT 15SM BKN005 OVC012 07/ RMK SF6SC2

CYYG;2009-05-08 21:00;CYYG 082100Z 34009KT 15SM BKN005 OVC012 07/06 A2969 RMK SF7SC1 SLP056

CYYG;2009-05-08 22:00;CYYG 082200Z 32009KT 15SM OVC006 07/06 A2971 RMK SF8 SLP062

CYYG;2009-05-08 23:00;CYYG 082300Z 31005KT 15SM BKN009 OVC031 07/06 A2974 RMK SC6SC2 SLP072

CYYG;2009-05-09 00:00;CYYG 090000Z 34003KT 15SM FEW009 SCT018 OVC032 07/06 A2974 RMK SF1SC3SC4 SLP073

CYYG;2009-05-09 01:00;CYYG 090100Z 00000KT 15SM FEW012 OVC035 07/07 A2975 RMK SF2SC6 SLP075

CYYG;2009-05-09 02:00;CYYG 090200Z 18002KT 15SM FEW012 OVC039 07/07 A2974 RMK SF2SC6 SLP073

CYYG;2009-05-09 03:00;CYYG 090300Z 22006KT 15SM FEW004 BKN039 07/07 A2974 RMK SF1SC4 SLP071

CYYG;2009-05-09 03:18;CYYG 090318Z 23007KT 8SM OVC003 08/ RMK SF8

CYYG;2009-05-09 03:32;CYYG 090332Z 25007KT 2 1/2SM BR OVC003 08/ RMK SF8

CYYG;2009-05-09 03:48;CYYG 090348Z 25006KT 3/4SM R03/3500VP6000FT/D BR VV002 08/ RMK FG8

CYYG;2009-05-09 04:00;CYYG 090400Z 25006KT 1SM R03/3500VP6000FT/U BR VV002 08/08 A2975 RMK FG8 SLP076

CYYG;2009-05-09 04:24;CYYG 090424Z 25007KT 3/8SM R03/2000FT/N FG VV002 08/ RMK FG8

CYYG;2009-05-09 05:00;CYYG 090500Z 25007KT 3/8SM R03/1800FT/N FG VV002 08/08 A2974 RMK FG8 SLP072

CYYG;2009-05-09 06:00;CYYG 090600Z 22005KT 1/2SM R03/1800V4000FT/U FG VV002 08/08 A2975 RMK FG8 SLP076

CYYG;2009-05-09 07:00;CYYG 090700Z 22005KT 3/8SM R03/1800V2800FT/D FG VV002 07/07 A2973 RMK FG8 SLP069

CYYG;2009-05-09 08:00;CYYG 090800Z 21006KT 3/8SM R03/2200FT/D FG VV002 07/07 A2973 RMK FG8 SLP067

CYYG;2009-05-09 09:00;CYYG 090900Z 17005KT 1/4SM R03/1400FT/N FG VV002 07/07 A2972 RMK FG8 SLP067

CYYG;2009-05-09 09:30;CYYG 090930Z 18005KT 1/2SM R03/1100V2600FT/U FG BKN060 07/ RMK FG6SC1

CYYG;2009-05-09 09:41;CYYG 090941Z 19006KT 3SM R03/3500VP6000FT/U BR BKN080 08/ RMK FG3AC4

CYYG;2009-05-09 10:00;CYYG 091000Z CCA 18007KT 12SM FEW005 FEW041 SCT080 08/08 A2973 RMK SF1SC2AC2 SLP068

CYYG;2009-05-09 11:00;CYYG 091100Z 23009KT 15SM FEW006 09/09 A2973 RMK SF1 SLP070

CYYG;2009-05-09 12:00;CYYG 091200Z 24008KT 15SM FEW007 FEW250 11/11 A2973 RMK SF1CI1 SLP069

CYYG;2009-05-09 13:00;CYYG 091300Z 27008KT 15SM FEW013 FEW080 FEW250 14/11 A2973 RMK CU1AC1CI0 SLP067

CYYG;2009-05-09 14:00;CYYG 091400Z 26007KT 15SM FEW015 SCT180 BKN250 15/12 A2972 RMK CU1AC3CI0 SLP066

CYYG;2009-05-09 15:00;CYYG 091500Z 27007KT 15SM FEW015 FEW180 FEW250 17/12 A2972 RMK CU1AC1CI0 SLP066

CYYG;2009-05-09 16:00;CYYG 091600Z 30004KT 15SM FEW030 FEW100 SCT250 19/12 A2972 RMK CU1AC2CI0 SLP066

CYYG;2009-05-09 17:00;CYYG 091700Z 22012KT 15SM FEW034 SCT095 BKN250 20/13 A2972 RMK CU1AC2CI1 SLP065

CYYG;2009-05-09 18:00;CYYG 091800Z 24010KT 15SM FEW034 SCT160 BKN250 19/12 A2972 RMK CU1AC2CS0 SLP064

CYYG;2009-05-09 19:00;CYYG 091900Z 24005KT 15SM FEW040 SCT120 BKN250 20/10 A2970 RMK CU1AC3CS0 SLP058

CYYG;2009-05-09 20:00;CYYG 092000Z 19007KT 15SM FEW040 BKN120 BKN250 17/12 A2969 RMK CU1AC5CS0 SLP053

CYYG;2009-05-09 21:00;CYYG 092100Z 19005KT 15SM FEW050 BKN110 OVC250 16/13 A2968 RMK SC2AC5CI2 SH DIST SW SLP051

CYYG;2009-05-09 21:16;CYYG 092116Z 19008KT 15SM -SHRA BKN070 BKN110 OVC250 15/ RMK AC5AC2CI2 VIS LWR SE-SW

CYYG;2009-05-09 22:00;CYYG 092200Z 15006KT 15SM -SHRA BKN077 OVC250 14/13 A2966 RMK AC6CI2 VIS LWR SE-SW SLP044

CYYG;2009-05-09 22:14;CYYG 092214Z 15005KT 15SM -SHRA FEW003 FEW042 BKN083 OVC250 13/ RMK SF1SC2AC4CI2 VIS SE-SW 4

CYYG;2009-05-09 22:39;CYYG 092239Z 16006KT 3SM -SHRA BR BKN003 OVC042 13/ RMK SF7SC1 VIS NW-NE 15

CYYG;2009-05-09 22:49;CYYG 092249Z 17008KT 2SM BR OVC002 13/ RMK SF8

CYYG;2009-05-09 23:00;CYYG 092300Z 17010KT 1SM R03/P6000FT/N BR VV002 13/13 A2965 RMK FG8 SLP041

CYYG;2009-05-09 23:23;CYYG 092323Z 15005KT 3SM -SHRA BR OVC003 13/ RMK SF8

CYYG;2009-05-09 23:51;CYYG 092351Z 14006KT 12SM -SHRA SCT003 OVC061 13/ RMK SF4SC4

CYYG;2009-05-10 00:00;CYYG 100000Z 14006KT 15SM -SHRA FEW003 BKN062 OVC082 13/13 A2962 RMK SF2SC6AC1 SLP032

CYYG;2009-05-10 00:47;CYYG 100047Z 13006KT 15SM FEW003 BKN022 OVC110 13/ RMK SF1SC6AC2

CYYG;2009-05-10 01:00;CYYG 100100Z 15005KT 15SM FEW003 BKN021 OVC110 13/12 A2961 RMK SF1SC6AC1 SLP027

CYYG;2009-05-10 02:00;CYYG 100200Z 15009KT 12SM -SHRA SCT021 OVC067 14/12 A2958 RMK SC4AC4 SLP018

CYYG;2009-05-10 03:00;CYYG 100300Z 14008KT 15SM -SHRA FEW021 OVC044 13/12 A2955 RMK SC1SC7 SLP008

CYYG;2009-05-10 04:00;CYYG 100400Z 15012KT 15SM -SHRA SCT017 OVC038 13/12 A2952 RMK SC3SC5 SLP996

CYYG;2009-05-10 05:00;CYYG 100500Z 15010KT 10SM -SHRA SCT017 OVC038 12/12 A2947 RMK SC3SC5 SLP978

CYYG;2009-05-10 06:00;CYYG 100600Z 16011KT 10SM -SHRA SCT014 OVC030 11/11 A2943 RMK SC3SC5 SLP966

CYYG;2009-05-10 07:00;CYYG 100700Z 13008KT 12SM -SHRA OVC008 11/11 A2936 RMK SF8 SLP941

CYYG;2009-05-10 07:43;CYYG 100743Z 14008KT 10SM SHRA OVC005 11/ RMK SF8

CYYG;2009-05-10 08:00;CYYG 100800Z 13010G17KT 8SM R03/4500VP6000FT/U SHRA BKN005 OVC012 11/11 A2928 RMK SF5SC3 RERA PRESFR SLP917

CYYG;2009-05-10 08:36;CYYG 100836Z 11006KT 3SM -SHRA OVC010 11/ RMK SF8 RERA

CYYG;2009-05-10 09:00;CYYG 100900Z 14006KT 2 1/2SM -SHRA BR OVC003 11/11 A2927 RMK SF8 RERA /R10/ SLP912

CYYG;2009-05-10 09:15;CYYG 100915Z 13007KT 1SM R03/P6000FT/D -SHRA BR OVC003 11/ RMK SF8

CYYG;2009-05-10 10:00;CYYG 101000Z 17004KT 1/2SM R03/2600VP6000FT/D -SHRA FG VV002 11/11 A2924 RMK FG8 SLP902

CYYG;2009-05-10 10:13;CYYG 101013Z 17005KT 1 1/2SM -DZ BR VV002 11/ RMK FG8

CYYG;2009-05-10 11:00;CYYG 101100Z 21007KT 1 1/2SM -DZ BR VV002 11/11 A2923 RMK FG8 SLP897

CYYG;2009-05-10 12:00;CYYG 101200Z 22008KT 1 1/2SM -DZ BR VV002 12/12 A2922 RMK FG8 SLP894

CYYG;2009-05-10 13:00;CYYG 101300Z 24007KT 1 1/2SM -DZ BR VV002 12/12 A2920 RMK FG8 SLP888

CYYG;2009-05-10 14:00;CYYG 101400Z 25007KT 5SM -DZ BR OVC003 12/12 A2918 RMK ST8 VIS E-SW 2 SLP883

CYYG;2009-05-10 14:29;CYYG 101429Z 25008KT 15SM OVC003 12/ RMK SF8 VIS E-SW 5

CYYG;2009-05-10 14:54;CYYG 101454Z 26010KT 10SM -RA OVC005 12/ RMK SF8

CYYG;2009-05-10 15:00;CYYG 101500Z 25010KT 5SM -RA BR OVC004 12/12 A2916 RMK SF8 VIS SW-W 10 SLP876

CYYG;2009-05-10 15:13;CYYG 101513Z 25009KT 10SM OVC004 12/ RMK SF8 VIS LWR E-SW

CYYG;2009-05-10 15:21;CYYG 101521Z 27013G18KT 10SM -RA OVC004 12/ RMK SF8 VIS LWR SE-SW

CYYG;2009-05-10 16:00;CYYG 101600Z 26012G18KT 5SM -RA BR OVC004 10/10 A2916 RMK SF8 VIS NW-NE 2 SLP874

CYYG;2009-05-10 16:41;CYYG 101641Z 29014KT 3SM -RA BR OVC002 10/ RMK SF8

CYYG;2009-05-10 17:00;CYYG 101700Z 29012G18KT 10SM -RA SCT002 OVC004 09/09 A2915 RMK SF3SF5 SLP872

CYYG;2009-05-10 17:18;CYYG 101718Z 28014G20KT 15SM BKN005 OVC020 09/ RMK SF5SC3

CYYG;2009-05-10 17:47;CYYG 101747Z 28013G20KT 15SM SCT005 OVC046 07/ RMK SF3SC5

CYYG;2009-05-10 18:00;CYYG 101800Z 27012G17KT 15SM SCT009 BKN054 07/06 A2915 RMK SF3SC4 SLP871

CYYG;2009-05-10 18:04;CYYG 101804Z 27011G19KT 15SM -SHRA SCT009 OVC060 07/ RMK SF3SC5

CYYG;2009-05-10 18:25;CYYG 101825Z 28010G16KT 15SM -SHRA OVC008 07/ RMK SF8

CYYG;2009-05-10 19:00;CYYG 101900Z 29011G18KT 15SM -SHRA OVC005 07/07 A2916 RMK SF8 SLP874

CYYG;2009-05-10 19:16;CYYG 101916Z 33017G22KT 1SM R03/P6000FT/N BR OVC002 06/ RMK SF8 VIS SE-S 15

CYYG;2009-05-10 19:21;CYYG 101921Z 32015G22KT 1/2SM R03/3500VP6000FT/D FG VV002 05/ RMK FG8

CYYG;2009-05-10 19:36;CYYG 101936Z 34016G22KT 2SM BR OVC002 04/ RMK SF8

CYYG;2009-05-10 19:44;CYYG 101944Z 35017G24KT 2SM -SHRA BR SCT002 OVC004 04/ RMK SF3SF5

CYYG;2009-05-10 20:00;CYYG 102000Z 35016G25KT 2SM -SHRA BR OVC005 04/04 A2922 RMK SF8 PRESRR SLP894

CYYG;2009-05-10 21:00;CYYG 102100Z 36018G31KT 2SM -SHRA BR OVC005 03/03 A2929 RMK SF8 PRESRR SLP921

CYYG;2009-05-10 21:17;CYYG 102117Z 35020G32KT 5SM -SHRA BR OVC005 03/ RMK SF8

CYYG;2009-05-10 21:31;CYYG 102131Z 35019G31KT 1 1/2SM R03/4000VP6000FT/D -SHRA BR OVC005 03/ RMK SF8

CYYG;2009-05-10 22:00;CYYG 102200Z 35021G29KT 2SM -SHRA BR OVC005 03/02 A2937 RMK SF8 PRESRR SLP948

CYYG;2009-05-10 22:17;CYYG 102217Z 36016G30KT 5SM -SHRA BR OVC006 02/ RMK SF8

CYYG;2009-05-10 23:00;CYYG 102300Z 35020G28KT 2 1/2SM -SHRA BR OVC006 02/02 A2946 RMK SF8 SLP977

CYYG;2009-05-11 00:00;CYYG 110000Z 35017G26KT 3SM -SHRA BR OVC008 02/02 A2952 RMK SF8 /PRESRR/ SLP999

CYYG;2009-05-11 01:00;CYYG 110100Z 36019G27KT 4SM -SHRA BR BKN008 OVC014 02/01 A2958 RMK SF6SC2 /PRESRR/ SLP019

CYYG;2009-05-11 01:48;CYYG 110148Z 36017G26KT 10SM -SHRA SCT011 OVC032 02/ RMK SF4SC4

CYYG;2009-05-11 02:00;CYYG 110200Z 34017G26KT 10SM -SHRA SCT010 BKN021 OVC031 02/01 A2963 RMK SF3SC2SC3 SLP034

CYYG;2009-05-11 02:49;CYYG 110249Z 36012G20KT 15SM FEW012 BKN026 02/ RMK SF2SC5

CYYG;2009-05-11 03:00;CYYG 110300Z 35011G20KT 15SM SCT011 OVC022 02/01 A2967 RMK SF3SC5 SLP049

CYYG;2009-05-11 03:07;CYYG 110307Z 35013G21KT 8SM -SHRA OVC012 02/ RMK SF8

CYYG;2009-05-11 03:47;CYYG 110347Z 36013G21KT 15SM OVC016 02/ RMK SC8

CYYG;2009-05-11 04:00;CYYG 110400Z 35012G18KT 15SM OVC016 02/00 A2970 RMK SC8 SLP060

CYYG;2009-05-11 05:00;CYYG 110500Z 35008G16KT 15SM OVC016 03/01 A2974 RMK SC8 SLP071

CYYG;2009-05-11 06:00;CYYG 110600Z 34008KT 15SM OVC018 03/02 A2977 RMK SC8 SLP083

CYYG;2009-05-11 07:00;CYYG 110700Z 35007KT 15SM OVC032 03/01 A2978 RMK SC8 SLP087

CYYG;2009-05-11 08:00;CYYG 110800Z 36006KT 15SM SCT022 BKN039 02/01 A2979 RMK SC2SC2 SLP089

CYYG;2009-05-11 09:00;CYYG 110900Z 30002KT 15SM FEW026 BKN036 02/00 A2983 RMK SC1SC4 SLP102

CYYG;2009-05-11 10:00;CYYG 111000Z 36002KT 15SM BKN038 03/01 A2985 RMK SC6 SLP108

CYYG;2009-05-11 11:00;CYYG 111100Z 00000KT 15SM OVC024 04/01 A2988 RMK SC8 SLP120

CYYG;2009-05-11 12:00;CYYG 111200Z 22003KT 12SM -DZ OVC015 03/02 A2991 RMK SC8 SLP130

CYYG;2009-05-11 12:43;CYYG 111243Z 22005KT 12SM OVC011 04/ RMK SC8

CYYG;2009-05-11 13:00;CYYG 111300Z 20004KT 12SM OVC015 04/02 A2992 RMK SC8 SLP134

CYYG;2009-05-11 13:51;CYYG 111351Z 21007KT 12SM -DZ OVC011 05/ RMK SC8 BR

CYYG;2009-05-11 14:00;CYYG 111400Z 21006KT 12SM -DZ OVC011 05/03 A2993 RMK SC8 BR SLP138

CYYG;2009-05-11 14:32;CYYG 111432Z 22007KT 15SM OVC009 06/ RMK SC8

CYYG;2009-05-11 15:00;CYYG 111500Z 22006KT 15SM OVC009 06/04 A2993 RMK SC8 SLP137

CYYG;2009-05-11 15:45;CYYG 111545Z 25009KT 12SM -RA OVC010 07/ RMK SC7 BR

CYYG;2009-05-11 16:00;CYYG 111600Z 25007KT 12SM -RA OVC010 07/04 A2994 RMK SC7 CU ASOCTD VSBY 3 NW-NE SLP140

CYYG;2009-05-11 16:50;CYYG 111650Z 36008KT 15SM BKN010 BKN028 BKN230 06/ RMK SC5CU1CI2 SHRA VCNTY

CYYG;2009-05-11 17:00;CYYG 111700Z 36006KT 15SM SCT010 BKN028 BKN230 07/06 A2996 RMK SC3CU2CI1 SHRA VCNTY SLP145

CYYG;2009-05-11 18:00;CYYG 111800Z 01007KT 15SM BKN021 BKN230 08/04 A2996 RMK CU5CI1 SLP148

CYYG;2009-05-11 19:00;CYYG 111900Z 03008KT 15SM SCT024 BKN230 08/04 A2997 RMK CU3CI2 SLP151

CYYG;2009-05-11 20:00;CYYG 112000Z 03010KT 15SM SCT026 BKN230 08/03 A2999 RMK CU3CI2 SLP157

CYYG;2009-05-11 21:00;CYYG 112100Z 01007KT 15SM FEW026 OVC230 08/02 A3000 RMK CU2CI2 SLP160

CYYG;2009-05-11 22:00;CYYG 112200Z 01006KT 15SM FEW026 OVC230 07/00 A3001 RMK CU1CI2 SLP164

CYYG;2009-05-11 23:00;CYYG 112300Z 05004KT 15SM FEW038 BKN250 06/01 A3002 RMK CU1CI2 SLP168

CYYG;2009-05-12 00:00;CYYG 120000Z 12003KT 15SM BKN250 04/00 A3003 RMK CI3 SLP172

CYYG;2009-05-12 01:00;CYYG 120100Z 09002KT 15SM FEW043 BKN250 04/01 A3005 RMK SC2CI1 SLP178

CYYG;2009-05-12 02:00;CYYG 120200Z 00000KT 15SM BKN037 04/01 A3006 RMK SC6 SLP183

CYYG;2009-05-12 03:00;CYYG 120300Z 16002KT 15SM BKN036 BKN200 05/02 A3007 RMK SC5CI2 SLP185

CYYG;2009-05-12 04:00;CYYG 120400Z 16003KT 15SM OVC036 05/03 A3006 RMK SC8 SLP183

CYYG;2009-05-12 05:00;CYYG 120500Z 18007KT 15SM BKN032 OVC076 06/05 A3006 RMK SC6AC2 SLP181

CYYG;2009-05-12 06:00;CYYG 120600Z 01002KT 15SM OVC035 05/04 A3006 RMK SC8 SLP181

CYYG;2009-05-12 07:00;CYYG 120700Z 14004KT 15SM OVC046 04/03 A3007 RMK SC8 SLP183

CYYG;2009-05-12 08:00;CYYG 120800Z 00000KT 15SM BKN050 04/04 A3009 RMK SC6 SLP189

CYYG;2009-05-12 09:00;CYYG 120900Z 10002KT 15SM SCT052 BKN085 04/03 A3010 RMK SC3AC3 SLP194

CYYG;2009-05-12 10:00;CYYG 121000Z 00000KT 15SM BKN050 04/03 A3012 RMK SC3 SLP200

CYYG;2009-05-12 11:00;CYYG 121100Z 15004KT 15SM BKN050 06/04 A3014 RMK SC5 SLP210

CYYG;2009-05-12 12:00;CYYG 121200Z 12002KT 15SM SCT050 08/05 A3015 RMK SC4 SLP213

CYYG;2009-05-12 13:00;CYYG 121300Z 10004KT 15SM FEW021 FEW050 SCT240 10/05 A3016 RMK CU2SC1CI1 SLP216

CYYG;2009-05-12 14:00;CYYG 121400Z 04009KT 15SM FEW028 SCT240 11/05 A3016 RMK CU2CI2 SLP216

CYYG;2009-05-12 15:00;CYYG 121500Z 04009KT 15SM FEW028 SCT240 11/02 A3017 RMK CU2CI2 SLP216

CYYG;2009-05-12 16:00;CYYG 121600Z 01009KT 15SM FEW028 SCT240 12/01 A3016 RMK CU1CI2 SLP213

CYYG;2009-05-12 17:00;CYYG 121700Z 03009KT 15SM FEW030 BKN250 12/02 A3016 RMK CU1CI2 SLP213

CYYG;2009-05-12 18:00;CYYG 121800Z 02010KT 15SM FEW030 BKN250 12/01 A3016 RMK CU1CI2 SLP214

CYYG;2009-05-12 19:00;CYYG 121900Z 03010KT 15SM FEW030 OVC250 12/M02 A3016 RMK CU1CI2 SLP215

CYYG;2009-05-12 20:00;CYYG 122000Z 02010KT 15SM FEW030 BKN250 11/M04 A3017 RMK CU1CI2 SLP218

CYYG;2009-05-12 21:00;CYYG 122100Z 02009KT 15SM FEW030 BKN250 11/M04 A3018 RMK CU1CI2 SLP222

CYYG;2009-05-12 22:00;CYYG 122200Z 04007KT 15SM FEW030 SCT250 10/M03 A3019 RMK SC1CI1 SLP224

CYYG;2009-05-12 23:00;CYYG 122300Z 02005KT 15SM SCT250 08/M03 A3020 RMK CI2 SLP228

CYYG;2009-05-13 00:00;CYYG 130000Z 01002KT 15SM FEW250 06/M02 A3021 RMK CI1 SLP233

CYYG;2009-05-13 01:00;CYYG 130100Z 14004KT 15SM FEW250 07/M01 A3022 RMK CI1 SLP236

CYYG;2009-05-13 02:00;CYYG 130200Z 20004KT 15SM SKC 06/01 A3024 RMK SLP241

CYYG;2009-05-13 03:00;CYYG 130300Z 22004KT 15SM SKC 06/03 A3024 RMK SLP242

CYYG;2009-05-13 04:00;CYYG 130400Z 23004KT 15SM FEW250 04/02 A3025 RMK CI1 SLP245

CYYG;2009-05-13 05:00;CYYG 130500Z 21004KT 15SM SKC 05/02 A3025 RMK SLP247

CYYG;2009-05-13 06:00;CYYG 130600Z 17005KT 15SM SKC 03/01 A3025 RMK SLP245

CYYG;2009-05-13 07:00;CYYG 130700Z 25003KT 15SM SKC 04/02 A3026 RMK SLP250

CYYG;2009-05-13 08:00;CYYG 130800Z 34003KT 15SM SKC 03/M01 A3028 RMK SLP255

CYYG;2009-05-13 09:00;CYYG 130900Z 22003KT 15SM FEW250 04/00 A3028 RMK CI0 SLP257

CYYG;2009-05-13 10:00;CYYG 131000Z 22002KT 15SM FEW250 05/04 A3031 RMK CI0 SLP265

CYYG;2009-05-13 11:00;CYYG 131100Z 24004KT 15SM FEW250 07/05 A3033 RMK CI0 SLP271

CYYG;2009-05-13 12:00;CYYG 131200Z 22005KT 15SM FEW250 11/06 A3033 RMK CI0 SLP274

CYYG;2009-05-13 13:00;CYYG 131300Z 20005KT 15SM FEW250 12/07 A3034 RMK CI0 SLP277

CYYG;2009-05-13 14:00;CYYG 131400Z 20009KT 15SM FEW250 14/08 A3034 RMK CI1 SLP277

CYYG;2009-05-13 15:00;CYYG 131500Z 20009KT 15SM FEW250 15/08 A3034 RMK CI1 SLP276

CYYG;2009-05-13 16:00;CYYG 131600Z 21008KT 15SM FEW050 FEW250 17/07 A3034 RMK CU1CI0 SLP275

CYYG;2009-05-13 17:00;CYYG 131700Z 27010KT 15SM FEW050 FEW250 18/04 A3033 RMK CU1CI0 SLP274

CYYG;2009-05-13 18:00;CYYG 131800Z 33007KT 15SM FEW050 FEW250 19/00 A3033 RMK CU1CI0 SLP273

CYYG;2009-05-13 19:00;CYYG 131900Z 01006KT 15SM FEW050 FEW250 18/00 A3033 RMK SC1CI0 SLP273

CYYG;2009-05-13 20:00;CYYG 132000Z 04006KT 15SM FEW050 FEW250 19/01 A3033 RMK SC1CI0 SLP272

CYYG;2009-05-13 21:00;CYYG 132100Z 32004KT 15SM FEW050 FEW250 19/00 A3033 RMK SC1CI0 SLP271

CYYG;2009-05-13 22:00;CYYG 132200Z 12006KT 15SM FEW250 18/01 A3033 RMK CI0 SLP272

CYYG;2009-05-13 23:00;CYYG 132300Z 16003KT 15SM FEW250 16/01 A3035 RMK CI1 SLP277

CYYG;2009-05-14 00:00;CYYG 140000Z 22007KT 15SM SKC 13/04 A3037 RMK SLP284

CYYG;2009-05-14 01:00;CYYG 140100Z 23004KT 15SM SKC 12/02 A3039 RMK SLP292

CYYG;2009-05-14 02:00;CYYG 140200Z 25005KT 15SM SKC 12/M00 A3039 RMK SLP293

CYYG;2009-05-14 03:00;CYYG 140300Z 22006KT 15SM SKC 12/M01 A3041 RMK SLP298

CYYG;2009-05-14 04:00;CYYG 140400Z 24007KT 15SM SKC 11/01 A3041 RMK SLP298

CYYG;2009-05-14 05:00;CYYG 140500Z 25009KT 15SM SKC 10/01 A3042 RMK SLP301

CYYG;2009-05-14 06:00;CYYG 140600Z 24007KT 15SM SKC 08/03 A3042 RMK SLP303

CYYG;2009-05-14 07:00;CYYG 140700Z 23007KT 15SM SKC 08/03 A3042 RMK SLP303

CYYG;2009-05-14 08:00;CYYG 140800Z 22007KT 15SM FEW250 07/04 A3043 RMK CI1 SLP304

CYYG;2009-05-14 09:00;CYYG 140900Z 21007KT 15SM FEW250 07/04 A3044 RMK CI1 SLP309

CYYG;2009-05-14 10:00;CYYG 141000Z 22007KT 15SM FEW250 08/05 A3047 RMK CI0 SLP319

CYYG;2009-05-14 11:00;CYYG 141100Z 21007KT 15SM FEW250 11/06 A3047 RMK CI0 SLP320

CYYG;2009-05-14 12:00;CYYG 141200Z 20007KT 15SM SKC 12/06 A3048 RMK SLP322

CYYG;2009-05-14 13:00;CYYG 141300Z 22010KT 15SM SKC 14/05 A3047 RMK SLP321

CYYG;2009-05-14 14:00;CYYG 141400Z 26014G19KT 15SM SKC 16/03 A3046 RMK SLP317

CYYG;2009-05-14 15:00;CYYG 141500Z 23011G18KT 15SM FEW280 17/13 A3044 RMK CI0 SLP308

CYYG;2009-05-14 16:00;CYYG 141600Z 19015G20KT 15SM FEW280 18/05 A3041 RMK CI1 SLP300

CYYG;2009-05-14 17:00;CYYG 141700Z 20015G20KT 15SM SCT280 18/05 A3038 RMK CI1 SLP289

CYYG;2009-05-14 18:00;CYYG 141800Z 20018G26KT 15SM BKN280 20/04 A3035 RMK CI2 SLP277

CYYG;2009-05-14 19:00;CYYG 141900Z 20021G30KT 15SM BKN280 20/02 A3033 RMK CI2 SLP271

CYYG;2009-05-14 20:00;CYYG 142000Z 20025G32KT 15SM BKN280 19/00 A3031 RMK CI2 SLP263

CYYG;2009-05-14 21:00;CYYG 142100Z 20020G30KT 15SM BKN280 17/00 A3029 RMK CI2 SLP257

CYYG;2009-05-14 22:00;CYYG 142200Z 20023G31KT 15SM BKN280 16/M01 A3028 RMK CI3 SLP253

CYYG;2009-05-14 23:00;CYYG 142300Z 20022G29KT 15SM FEW200 OVC280 14/M03 A3027 RMK CI2CI2 SLP251

CYYG;2009-05-15 00:00;CYYG 150000Z 20018G25KT 15SM FEW200 OVC280 12/M02 A3028 RMK CI2CI2 SLP254

CYYG;2009-05-15 01:00;CYYG 150100Z 20018KT 15SM FEW200 OVC280 11/00 A3030 RMK CI2CI2 SLP260

CYYG;2009-05-15 02:00;CYYG 150200Z 21019G24KT 15SM SCT150 OVC160 11/01 A3030 RMK AC4AC4 SLP262

CYYG;2009-05-15 03:00;CYYG 150300Z 20019G25KT 15SM BKN120 OVC160 10/02 A3028 RMK AC6AC2 SLP255

CYYG;2009-05-15 03:33;CYYG 150333Z 20016G26KT 15SM -SHRA OVC072 10/ RMK AC8

CYYG;2009-05-15 04:00;CYYG 150400Z 20015G24KT 12SM -SHRA OVC070 10/05 A3027 RMK AC8 SLP251

CYYG;2009-05-15 05:00;CYYG 150500Z 20018KT 12SM -SHRA FEW030 BKN075 OVC090 09/06 A3026 RMK SC2AC2AC3 SLP248

CYYG;2009-05-15 06:00;CYYG 150600Z 20015KT 12SM -SHRA FEW060 OVC080 09/06 A3025 RMK SC2AC6 SLP243

CYYG;2009-05-15 07:00;CYYG 150700Z 20015G20KT 12SM -SHRA OVC075 10/06 A3024 RMK AC8 SLP240

CYYG;2009-05-15 08:00;CYYG 150800Z 20016KT 15SM -SHRA OVC074 10/07 A3022 RMK AC8 SLP235

CYYG;2009-05-15 08:27;CYYG 150827Z 21016G21KT 15SM BKN071 OVC120 11/ RMK AC6AC2

CYYG;2009-05-15 09:00;CYYG 150900Z 20016G21KT 15SM BKN070 OVC120 11/08 A3022 RMK AC6AC2 SLP234

CYYG;2009-05-15 10:00;CYYG 151000Z 20015G20KT 15SM BKN060 BKN080 11/08 A3022 RMK SC6AC2 SLP235

CYYG;2009-05-15 11:00;CYYG 151100Z 20017G22KT 15SM SCT028 BKN060 BKN120 12/09 A3021 RMK SC4SC2AC2 SLP232

CYYG;2009-05-15 12:00;CYYG 151200Z 20015KT 15SM FEW030 BKN069 BKN120 12/09 A3022 RMK SC2AC4AC2 SLP233

CYYG;2009-05-15 13:00;CYYG 151300Z 21016G22KT 15SM FEW029 BKN072 14/10 A3021 RMK SC2AC5 SLP230

CYYG;2009-05-15 14:00;CYYG 151400Z 22019G25KT 15SM BKN030 OVC070 15/10 A3020 RMK SC7AC1 SLP227

CYYG;2009-05-15 15:00;CYYG 151500Z 24019G27KT 15SM OVC019 14/11 A3021 RMK SC8 SLP230

CYYG;2009-05-15 16:00;CYYG 151600Z 22021G27KT 15SM OVC023 15/11 A3020 RMK SC7 SLP226

CYYG;2009-05-15 17:00;CYYG 151700Z 22016G21KT 15SM OVC021 15/11 A3020 RMK SC7 SLP226

CYYG;2009-05-15 18:00;CYYG 151800Z 23016G24KT 15SM BKN017 BKN240 17/13 A3019 RMK SC6CI1 SLP223

CYYG;2009-05-15 19:00;CYYG 151900Z 23013G26KT 15SM BKN016 16/13 A3019 RMK SC7 SLP223

CYYG;2009-05-15 20:00;CYYG 152000Z 22023G30KT 15SM SCT016 BKN240 16/12 A3017 RMK SC3CI2 SLP218

CYYG;2009-05-15 21:00;CYYG 152100Z 22013G19KT 15SM FEW016 BKN240 17/13 A3017 RMK SC2CI3 SLP217

CYYG;2009-05-15 22:00;CYYG 152200Z 23012G17KT 15SM FEW016 BKN240 16/12 A3017 RMK SC2CI2 SLP217

CYYG;2009-05-15 23:00;CYYG 152300Z 21012G17KT 15SM FEW020 SCT120 OVC240 14/11 A3018 RMK SC2AC2CI2 SLP222

CYYG;2009-05-16 00:00;CYYG 160000Z 23010G17KT 15SM SCT019 OVC089 14/12 A3019 RMK SC4AC4 SLP223

CYYG;2009-05-16 01:00;CYYG 160100Z 26009KT 15SM BKN018 OVC076 13/12 A3022 RMK SC5AC3 SLP233

CYYG;2009-05-16 02:00;CYYG 160200Z 29009KT 15SM OVC008 13/12 A3024 RMK SC8 SLP242

CYYG;2009-05-16 03:00;CYYG 160300Z 29008KT 15SM OVC007 12/11 A3025 RMK SC8 SLP246

CYYG;2009-05-16 04:00;CYYG 160400Z 28006KT 15SM BKN007 10/10 A3024 RMK SC5 SLP242

CYYG;2009-05-16 05:00;CYYG 160500Z 33005KT 15SM FEW007 09/08 A3024 RMK SC2 SLP241

CYYG;2009-05-16 06:00;CYYG 160600Z 20005KT 15SM FEW007 07/05 A3026 RMK SC2 SLP249

CYYG;2009-05-16 07:00;CYYG 160700Z 04006KT 15SM FEW007 06/04 A3026 RMK SC2 SLP249

CYYG;2009-05-16 08:00;CYYG 160800Z 09005KT 15SM FEW007 05/01 A3028 RMK SC2 SLP254

CYYG;2009-05-16 09:00;CYYG 160900Z 07005KT 15SM FEW040 05/00 A3030 RMK SC1 SLP261

CYYG;2009-05-16 10:00;CYYG 161000Z 09007KT 15SM FEW030 07/01 A3030 RMK SC1 SLP262

CYYG;2009-05-16 11:00;CYYG 161100Z 09008KT 15SM FEW250 09/02 A3032 RMK CI1 SLP268

CYYG;2009-05-16 12:00;CYYG 161200Z 08010KT 15SM FEW250 11/01 A3033 RMK CI2 SLP270

CYYG;2009-05-16 13:00;CYYG 161300Z 09007KT 15SM FEW250 13/01 A3032 RMK CI2 SLP269

CYYG;2009-05-16 14:00;CYYG 161400Z 11004KT 15SM SCT250 14/01 A3032 RMK CI2 SLP268

CYYG;2009-05-16 15:00;CYYG 161500Z 08008KT 15SM BKN250 15/03 A3029 RMK CI2 OBS TAKEN +10 SLP259

CYYG;2009-05-16 16:00;CYYG 161600Z 05010KT 15SM OVC250 14/02 A3028 RMK CI3 SLP255

CYYG;2009-05-16 17:00;CYYG 161700Z 04010KT 15SM OVC250 15/02 A3027 RMK CI3 SLP251

CYYG;2009-05-16 18:00;CYYG 161800Z 02008KT 15SM FEW030 OVC250 15/04 A3025 RMK SC1CI2 SC TR SLP245

CYYG;2009-05-16 19:00;CYYG 161900Z 02007KT 15SM FEW030 OVC250 15/03 A3023 RMK SC1CI3 SC TR SLP236

CYYG;2009-05-16 20:00;CYYG 162000Z 02005KT 15SM FEW030 OVC250 14/05 A3020 RMK SC1CI4 SC TR SLP228

CYYG;2009-05-16 21:00;CYYG 162100Z 05004KT 15SM FEW030 OVC250 15/06 A3018 RMK SC1CI5 OBS TAKEN +11 SLP221

CYYG;2009-05-16 22:00;CYYG 162200Z 12011KT 15SM FEW040 OVC250 13/06 A3017 RMK SC1CS6 SLP217

CYYG;2009-05-16 23:00;CYYG 162300Z 11010KT 15SM FEW040 OVC250 12/05 A3017 RMK SC1CS7 SLP218

CYYG;2009-05-17 00:00;CYYG 170000Z 12009KT 15SM FEW040 OVC240 10/06 A3016 RMK SC1CS7 SLP213

CYYG;2009-05-17 01:00;CYYG 170100Z 12008KT 15SM SCT031 OVC240 09/07 A3016 RMK SC3CS5 SLP214

CYYG;2009-05-17 02:00;CYYG 170200Z 13007KT 15SM FEW030 OVC240 09/08 A3014 RMK SC2CS6 SLP206

CYYG;2009-05-17 03:00;CYYG 170300Z 14007KT 15SM FEW030 OVC190 10/09 A3012 RMK SC2AS6 SLP200

CYYG;2009-05-17 04:00;CYYG 170400Z 17011KT 15SM FEW030 OVC170 11/11 A3011 RMK SC2AS6 SLP196

CYYG;2009-05-17 05:00;CYYG 170500Z 17011KT 15SM OVC009 11/11 A3010 RMK SC8 SLP194

CYYG;2009-05-17 06:00;CYYG 170600Z 11014KT 15SM OVC009 11/11 A3007 RMK SC8 SLP185

CYYG;2009-05-17 07:00;CYYG 170700Z 18012KT 12SM -SHRA BKN005 OVC009 12/11 A3006 RMK SF6SC2 SLP181

CYYG;2009-05-17 08:00;CYYG 170800Z 17011KT 15SM OVC009 12/12 A3004 RMK SC8 SLP174

CYYG;2009-05-17 08:37;CYYG 170837Z 16014KT 15SM FEW005 OVC009 12/ RMK SF1SC7

CYYG;2009-05-17 09:00;CYYG 170900Z 16015KT 15SM FEW005 OVC009 12/11 A3002 RMK SF1SC7 SLP167

CYYG;2009-05-17 10:00;CYYG 171000Z 17013G18KT 15SM OVC009 12/12 A3001 RMK SC8 SLP164

CYYG;2009-05-17 11:00;CYYG 171100Z 18017KT 15SM OVC009 12/12 A3000 RMK SC8 SLP160

CYYG;2009-05-17 12:00;CYYG 171200Z 18016KT 15SM OVC008 13/12 A2999 RMK SC8 SLP158

CYYG;2009-05-17 13:00;CYYG 171300Z 18020G27KT 15SM SCT008 BKN014 OVC230 14/12 A2998 RMK SC4SC3CI1 SLP154

CYYG;2009-05-17 14:00;CYYG 171400Z 18022G28KT 15SM SCT009 BKN014 OVC230 15/13 A2997 RMK SC3SC4CI0 SLP149

CYYG;2009-05-17 14:27;CYYG 171427Z 19024G31KT 15SM SCT014 BKN053 BKN110 16/ RMK SC3SC2AC2

CYYG;2009-05-17 15:00;CYYG 171500Z 19024G29KT 15SM -SHRA SCT014 BKN051 BKN110 15/13 A2996 RMK SC3SC3AC1 SLP147

CYYG;2009-05-17 15:17;CYYG 171517Z 18021G31KT 15SM SCT014 BKN050 BKN110 15/ RMK SC4SC2AC1

CYYG;2009-05-17 16:00;CYYG 171600Z 19022G32KT 15SM BKN014 BKN050 BKN100 15/12 A2994 RMK SC6SC1AC1 SLP140

CYYG;2009-05-17 16:31;CYYG 171631Z 19020G25KT 15SM -SHRA BKN010 BKN100 14/ RMK SC6AC2

CYYG;2009-05-17 17:00;CYYG 171700Z 19020G26KT 15SM -SHRA SCT010 BKN054 BKN096 15/13 A2992 RMK SC3SC2AC2 SLP134

CYYG;2009-05-17 18:00;CYYG 171800Z 19021G26KT 15SM FEW010 BKN046 OVC090 14/12 A2991 RMK SF2SC5AC1 SLP130

CYYG;2009-05-17 18:23;CYYG 171823Z 19018G24KT 15SM -SHRA FEW010 BKN040 OVC090 15/ RMK SF1SC6AC1

CYYG;2009-05-17 19:00;CYYG 171900Z 18019G25KT 15SM -SHRA FEW010 BKN041 OVC090 14/13 A2991 RMK SF1SC6AC1 SLP128

CYYG;2009-05-17 20:00;CYYG 172000Z 19016G22KT 15SM -SHRA FEW013 BKN040 BKN064 OVC090 14/13 A2990 RMK SF1SC4SC2AC1 SLP126

CYYG;2009-05-17 20:30;CYYG 172030Z 19017G25KT 12SM -SHRA BKN010 OVC040 14/ RMK SF5SC3

CYYG;2009-05-17 21:00;CYYG 172100Z 18017G24KT 12SM -SHRA BKN008 OVC040 14/13 A2989 RMK SF6SC2 SLP123

CYYG;2009-05-17 22:00;CYYG 172200Z 18018KT 12SM -SHRA BKN008 OVC041 14/14 A2990 RMK SF6SC2 SLP124

CYYG;2009-05-17 22:18;CYYG 172218Z 18016G21KT 15SM BKN008 BKN029 OVC040 14/ RMK SF5SC2SC1

CYYG;2009-05-17 22:41;CYYG 172241Z 18017G24KT 15SM -SHRA SCT008 OVC031 15/ RMK SF4SC4

CYYG;2009-05-17 23:00;CYYG 172300Z 18016G24KT 10SM -SHRA FEW008 BKN014 OVC030 15/14 A2990 RMK SF2SC3SC2 BR SLP127

CYYG;2009-05-18 00:00;CYYG 180000Z 18012G17KT 6SM -SHRA BR FEW004 OVC010 14/14 A2992 RMK SF1SC7 SLP133

CYYG;2009-05-18 00:43;CYYG 180043Z 20012G17KT 6SM -SHRA BR OVC005 13/ RMK SF8

CYYG;2009-05-18 01:00;CYYG 180100Z 21008KT 2SM R03/3500VP6000FT/N -SHRA BR OVC003 13/13 A2995 RMK SF8 SLP143

CYYG;2009-05-18 01:35;CYYG 180135Z 18006KT 1SM R03/3500V5500FT/D -SHRA BR BKN003 OVC010 13/ RMK SF5SC3

CYYG;2009-05-18 02:00;CYYG 180200Z 20005KT 1SM R03/4500VP6000FT/U -SHRA BR SCT002 OVC013 13/13 A2995 RMK SF3SC5 SLP143

CYYG;2009-05-18 03:00;CYYG 180300Z 22005KT 1 1/2SM -SHRA BR OVC004 13/13 A2996 RMK SF8 SLP146

CYYG;2009-05-18 04:00;CYYG 180400Z 31007KT 2SM -SHRA BR BKN004 OVC020 12/12 A2998 RMK SF5SC3 SLP151

CYYG;2009-05-18 05:00;CYYG 180500Z 31007KT 2SM -SHRA BR BKN004 OVC020 11/10 A2999 RMK SF6SC2 SLP157

CYYG;2009-05-18 05:47;CYYG 180547Z 30003KT 5SM -SHRA BR FEW004 OVC028 10/ RMK SF2SC6 RERA

CYYG;2009-05-18 06:00;CYYG 180600Z 31003KT 10SM -SHRA FEW004 OVC028 10/10 A3000 RMK SF1SC7 RERA /R14/ SLP161

CYYG;2009-05-18 07:00;CYYG 180700Z 32003KT 12SM -SHRA BKN020 OVC030 10/10 A3001 RMK SC5SC3 SLP165

CYYG;2009-05-18 08:00;CYYG 180800Z 00000KT 15SM -SHRA OVC050 10/10 A3003 RMK SC8 SLP171

CYYG;2009-05-18 08:25;CYYG 180825Z 33007KT 3SM -SHRA BR OVC019 09/ RMK SC8

CYYG;2009-05-18 09:00;CYYG 180900Z 34003KT 12SM -SHRA FEW019 OVC033 09/08 A3006 RMK SC2SC6 SLP180

CYYG;2009-05-18 09:07;CYYG 180907Z 36002KT 2 1/2SM -SHRA BR FEW019 OVC033 09/ RMK SC2SC6

CYYG;2009-05-18 09:32;CYYG 180932Z 35004KT 2 1/2SM -SHRA BR FEW003 OVC010 09/ RMK SF1SF7 CIG VRB 8-12

CYYG;2009-05-18 10:00;CYYG 181000Z 36004KT 12SM -SHRA FEW008 OVC043 08/08 A3008 RMK SF1SC7 SLP187

CYYG;2009-05-18 11:00;CYYG 181100Z 03009KT 12SM -SHRA BKN006 OVC045 07/07 A3011 RMK SF5SC3 SLP196

CYYG;2009-05-18 12:00;CYYG 181200Z 04010KT 4SM -SHRA BR OVC006 06/05 A3014 RMK SF8 SLP207

CYYG;2009-05-18 13:00;CYYG 181300Z 04012KT 15SM -SHRA OVC005 06/06 A3013 RMK SF8 SLP205

CYYG;2009-05-18 13:48;CYYG 181348Z 05011KT 15SM OVC008 07/ RMK SF8

CYYG;2009-05-18 14:00;CYYG 181400Z 05012KT 15SM OVC008 07/05 A3014 RMK SF8 SLP207

CYYG;2009-05-18 15:00;CYYG 181500Z 02010KT 15SM OVC012 08/05 A3016 RMK SC8 SLP215

CYYG;2009-05-18 16:00;CYYG 181600Z 02011G16KT 15SM OVC014 07/04 A3016 RMK SC8 SLP215

CYYG;2009-05-18 17:00;CYYG 181700Z 02014KT 15SM OVC016 07/02 A3018 RMK SC8 SLP220

CYYG;2009-05-18 18:00;CYYG 181800Z 05013G18KT 15SM SCT016 OVC070 07/01 A3018 RMK SC3AC5 SLP220

CYYG;2009-05-18 19:00;CYYG 181900Z 02007KT 15SM FEW016 OVC067 06/02 A3019 RMK SC2AC6 SLP224

CYYG;2009-05-18 20:00;CYYG 182000Z 02011G16KT 15SM FEW016 OVC064 06/01 A3020 RMK SC2SC6 SLP226

CYYG;2009-05-18 21:00;CYYG 182100Z 04010G16KT 15SM OVC056 05/01 A3021 RMK SC8 SLP232

CYYG;2009-05-18 22:00;CYYG 182200Z 02008KT 15SM OVC039 05/02 A3023 RMK SC8 SLP238

CYYG;2009-05-18 22:14;CYYG 182214Z 03011KT 12SM -SHRA BKN039 OVC061 05/ RMK SC6SC2

CYYG;2009-05-18 23:00;CYYG 182300Z 05006KT 15SM -SHRA BKN044 OVC060 04/03 A3024 RMK SC6SC2 SLP241

CYYG;2009-05-19 00:00;CYYG 190000Z 04005KT 15SM -SHRA FEW035 OVC042 04/03 A3025 RMK SC2SC6 SLP246

CYYG;2009-05-19 01:00;CYYG 190100Z 02005KT 15SM -SHRA FEW035 OVC049 04/03 A3027 RMK SC2SC6 SLP251

CYYG;2009-05-19 02:00;CYYG 190200Z 03007KT 10SM -SHRA FEW025 OVC040 04/03 A3027 RMK SC2SC6 SLP253

CYYG;2009-05-19 02:22;CYYG 190222Z 03008KT 10SM -SHRA SCT009 BKN025 OVC040 04/ RMK SF3SC2SC2

CYYG;2009-05-19 03:00;CYYG 190300Z 03009KT 8SM -SHRA SCT005 OVC011 03/03 A3027 RMK SF4SC4 SLP251

CYYG;2009-05-19 04:00;CYYG 190400Z 03006KT 8SM -SHRA BKN005 OVC011 03/03 A3027 RMK SF6SC2 SLP252

CYYG;2009-05-19 05:00;CYYG 190500Z 04005KT 8SM -SHRA OVC005 03/03 A3026 RMK SF8 SLP249

CYYG;2009-05-19 06:00;CYYG 190600Z 03006KT 8SM -SHRA OVC005 04/03 A3026 RMK SF8 SLP250

CYYG;2009-05-19 07:00;CYYG 190700Z 02007KT 12SM -SHRA BKN005 OVC010 04/04 A3026 RMK SF5SF3 SLP249

CYYG;2009-05-19 08:00;CYYG 190800Z 36007KT 5SM -SHRA BR BKN005 BKN008 OVC020 04/03 A3027 RMK SF5SF2SC2 SLP251

CYYG;2009-05-19 09:00;CYYG 190900Z 01005KT 6SM -SHRA BR BKN005 BKN020 OVC033 04/03 A3028 RMK SF5SC2SC2 SLP255

CYYG;2009-05-19 09:24;CYYG 190924Z 36005KT 10SM -SHRA SCT005 OVC035 04/ RMK SF4SC4

CYYG;2009-05-19 10:00;CYYG 191000Z 01004KT 8SM -SHRA BKN005 OVC035 04/04 A3028 RMK SF6SC2 SLP257

CYYG;2009-05-19 11:00;CYYG 191100Z 01006KT 10SM -SHRA BKN005 OVC035 04/04 A3031 RMK SF6SC2 SLP264

CYYG;2009-05-19 12:00;CYYG 191200Z 02006KT 10SM -RA BKN004 BKN011 OVC033 04/04 A3031 RMK SF5SF2SC2 SLP267

CYYG;2009-05-19 12:23;CYYG 191223Z 02005KT 15SM -RA SCT004 BKN008 OVC033 04/ RMK SF3SF3SC2

CYYG;2009-05-19 13:00;CYYG 191300Z 35005KT 15SM -RA BKN006 OVC035 05/04 A3031 RMK SF7SC1 SLP267

CYYG;2009-05-19 13:44;CYYG 191344Z 35006KT 15SM OVC007 05/ RMK SF8

CYYG;2009-05-19 14:00;CYYG 191400Z 01006KT 15SM OVC007 05/05 A3032 RMK SF8 SLP269

CYYG;2009-05-19 15:00;CYYG 191500Z 02003KT 15SM OVC008 06/05 A3031 RMK SF8 SLP266

CYYG;2009-05-19 15:17;CYYG 191517Z 36004KT 15SM OVC010 07/ RMK SF8

CYYG;2009-05-19 16:00;CYYG 191600Z 34002KT 15SM SCT010 OVC016 08/05 A3030 RMK SF3SC5 SLP262

CYYG;2009-05-19 17:00;CYYG 191700Z 08003KT 15SM BKN018 08/05 A3029 RMK SC7 SLP258

CYYG;2009-05-19 18:00;CYYG 191800Z 20006KT 15SM FEW013 BKN021 08/06 A3028 RMK SC2SC6 SLP257

CYYG;2009-05-19 19:00;CYYG 191900Z 19010KT 15SM FEW013 SCT025 BKN250 10/06 A3026 RMK SC1SC2CI1 SLP248

CYYG;2009-05-19 20:00;CYYG 192000Z 20011KT 15SM FEW025 BKN250 11/06 A3024 RMK SC1CI1 SLP243

CYYG;2009-05-19 21:00;CYYG 192100Z 20010KT 15SM FEW025 SCT250 11/06 A3024 RMK SC1CI1 SLP241

CYYG;2009-05-19 22:00;CYYG 192200Z 20010KT 15SM SCT250 09/06 A3022 RMK CI1 SLP236

CYYG;2009-05-19 23:00;CYYG 192300Z 18006KT 15SM SCT250 09/06 A3022 RMK CI2 SLP235

CYYG;2009-05-20 00:00;CYYG 200000Z 18008KT 15SM FEW250 08/06 A3022 RMK CI1 SLP235

CYYG;2009-05-20 01:00;CYYG 200100Z 20008KT 15SM FEW250 08/07 A3022 RMK CI1 SLP234

CYYG;2009-05-20 02:00;CYYG 200200Z 21008KT 15SM FEW250 08/06 A3019 RMK CI1 SLP226

CYYG;2009-05-20 03:00;CYYG 200300Z 23008KT 15SM FEW250 08/06 A3020 RMK CI1 SLP229

CYYG;2009-05-20 04:00;CYYG 200400Z 23012G17KT 15SM BKN120 BKN240 08/03 A3019 RMK AC5CI1 SLP225

CYYG;2009-05-20 05:00;CYYG 200500Z 23012G18KT 15SM BKN110 OVC220 08/02 A3018 RMK AC6CI0 SLP221

CYYG;2009-05-20 06:00;CYYG 200600Z 23010G15KT 15SM OVC090 09/02 A3017 RMK AC8 SLP216

CYYG;2009-05-20 07:00;CYYG 200700Z 23008KT 15SM OVC094 09/03 A3016 RMK AC8 SLP213

CYYG;2009-05-20 08:00;CYYG 200800Z 23008KT 15SM OVC087 09/03 A3014 RMK AC8 SLP208

CYYG;2009-05-20 09:00;CYYG 200900Z 24008KT 15SM BKN079 BKN095 OVC250 09/03 A3015 RMK AC6AC2CI0 SLP210

CYYG;2009-05-20 10:00;CYYG 201000Z 28007KT 15SM BKN080 BKN110 BKN250 09/04 A3018 RMK AC6AC1CI0 SLP220

CYYG;2009-05-20 11:00;CYYG 201100Z 32012KT 15SM FEW030 FEW080 BKN250 10/05 A3021 RMK CF1AC2CI2 SLP232

CYYG;2009-05-20 12:00;CYYG 201200Z 33016G22KT 15SM FEW025 FEW040 SCT080 BKN200 09/04 A3024 RMK CF1SC2AC2CI2 SLP243

CYYG;2009-05-20 13:00;CYYG 201300Z 35012G17KT 15SM FEW022 SCT044 BKN082 BKN200 09/04 A3026 RMK CF2SC2AC2CI2 SLP250

CYYG;2009-05-20 14:00;CYYG 201400Z 35013G19KT 15SM FEW024 FEW048 BKN250 09/01 A3028 RMK CU1SC1CI2 SLP254

CYYG;2009-05-20 15:00;CYYG 201500Z 35010KT 15SM FEW028 BKN250 10/03 A3027 RMK CU1CI2 SLP252

CYYG;2009-05-20 16:00;CYYG 201600Z 36009KT 15SM FEW028 BKN250 09/02 A3028 RMK CU1CI2 SLP257

CYYG;2009-05-20 17:00;CYYG 201700Z 01010G15KT 15SM FEW028 BKN250 11/02 A3027 RMK CF1CI2 SLP253

CYYG;2009-05-20 18:00;CYYG 201800Z 36007KT 15SM FEW030 BKN250 10/02 A3027 RMK CF1CI2 SLP250

CYYG;2009-05-20 19:00;CYYG 201900Z 06006KT 15SM FEW030 BKN250 10/00 A3025 RMK CF1CI3 SLP244

CYYG;2009-05-20 20:00;CYYG 202000Z 07009KT 15SM FEW030 BKN250 09/00 A3024 RMK CU1CS2 SLP240

CYYG;2009-05-20 21:00;CYYG 202100Z 09005KT 15SM FEW030 BKN250 10/00 A3023 RMK CU1CS2 SLP238

CYYG;2009-05-20 22:00;CYYG 202200Z 11004KT 15SM FEW030 SCT250 11/02 A3022 RMK CU1CI1 SLP233

CYYG;2009-05-20 23:00;CYYG 202300Z 19006KT 15SM SCT250 09/04 A3020 RMK CI2 SLP229

CYYG;2009-05-21 00:00;CYYG 210000Z 19006KT 15SM FEW130 BKN250 08/04 A3023 RMK FU1AC2CI0 SLP240

CYYG;2009-05-21 01:00;CYYG 210100Z 14004KT 15SM FEW120 BKN250 07/04 A3024 RMK AC2CI1 SLP243

CYYG;2009-05-21 02:00;CYYG 210200Z 13004KT 15SM FEW090 SCT250 05/03 A3023 RMK AC2CI1 SLP240

CYYG;2009-05-21 03:00;CYYG 210300Z 11005KT 15SM OVC090 06/03 A3022 RMK AC8 SLP234

CYYG;2009-05-21 04:00;CYYG 210400Z 00000KT 15SM OVC072 06/03 A3024 RMK AC8 SLP241

CYYG;2009-05-21 05:00;CYYG 210500Z 11005KT 15SM BKN065 OVC075 07/03 A3019 RMK SC6AC2 SLP226

CYYG;2009-05-21 06:00;CYYG 210600Z 14003KT 15SM OVC062 07/04 A3019 RMK SC8 SLP224

CYYG;2009-05-21 07:00;CYYG 210700Z 11005KT 15SM BKN050 OVC070 07/05 A3017 RMK SC6AC2 SLP219

CYYG;2009-05-21 08:00;CYYG 210800Z 13004KT 15SM OVC060 07/05 A3015 RMK SC8 SLP212

CYYG;2009-05-21 09:00;CYYG 210900Z 13004KT 15SM OVC077 07/06 A3014 RMK AC8 SLP208

CYYG;2009-05-21 10:00;CYYG 211000Z 13006KT 15SM FEW070 BKN085 OVC250 08/06 A3012 RMK AC2AC3CI1 SLP200

CYYG;2009-05-21 11:00;CYYG 211100Z 18008KT 15SM BKN087 11/07 A3009 RMK AC5 SLP191

CYYG;2009-05-21 12:00;CYYG 211200Z 20012KT 15SM FEW096 13/07 A3006 RMK AC2 SLP182

CYYG;2009-05-21 13:00;CYYG 211300Z 22011G16KT 15SM FEW100 15/08 A3004 RMK AC1 SLP172

CYYG;2009-05-21 14:00;CYYG 211400Z 20011KT 15SM FEW100 17/09 A3001 RMK AC1 SLP163

CYYG;2009-05-21 15:00;CYYG 211500Z 22015KT 15SM FEW100 20/09 A2998 RMK AC1 SLP151

CYYG;2009-05-21 16:00;CYYG 211600Z 22013KT 15SM FEW100 FEW230 23/11 A2993 RMK AC1CI1 SLP136

CYYG;2009-05-21 17:00;CYYG 211700Z 22016G21KT 15SM SCT250 24/11 A2989 RMK CI2 SLP123

CYYG;2009-05-21 18:00;CYYG 211800Z 23017KT 15SM BKN300 26/11 A2987 RMK CI2 SLP114

CYYG;2009-05-21 19:00;CYYG 211900Z 25017G25KT 15SM BKN300 27/10 A2984 RMK CI2 SLP105

CYYG;2009-05-21 20:00;CYYG 212000Z 25016G26KT 15SM BKN300 27/10 A2983 RMK CI2 SLP101

CYYG;2009-05-21 21:00;CYYG 212100Z 24018G25KT 15SM BKN300 25/10 A2980 RMK CI2 SLP093

CYYG;2009-05-21 22:00;CYYG 212200Z 25014G21KT 15SM BKN300 24/09 A2979 RMK CI2 SLP088

CYYG;2009-05-21 23:00;CYYG 212300Z 25013G21KT 15SM BKN300 23/08 A2979 RMK CI2 SLP087

CYYG;2009-05-22 00:00;CYYG 220000Z 24015KT 15SM BKN300 21/07 A2979 RMK CI2 SLP087

CYYG;2009-05-22 01:00;CYYG 220100Z 23012G19KT 15SM BKN300 20/08 A2979 RMK CI2 SLP090

CYYG;2009-05-22 02:00;CYYG 220200Z 23009KT 15SM SCT300 19/09 A2978 RMK CI2 SLP086

CYYG;2009-05-22 03:00;CYYG 220300Z 23009G15KT 15SM SCT300 18/09 A2977 RMK CI2 SLP082

CYYG;2009-05-22 04:00;CYYG 220400Z 23008KT 15SM SCT300 17/09 A2975 RMK CI1 SLP074

CYYG;2009-05-22 05:00;CYYG 220500Z 25013KT 15SM FEW300 17/09 A2975 RMK CI0 SLP073

CYYG;2009-05-22 06:00;CYYG 220600Z 23009KT 15SM SKC 16/08 A2974 RMK SLP070

CYYG;2009-05-22 07:00;CYYG 220700Z 25011G16KT 15SM SKC 14/08 A2973 RMK SLP067

CYYG;2009-05-22 08:00;CYYG 220800Z 25012KT 15SM FEW260 14/07 A2973 RMK CI1 SLP068

CYYG;2009-05-22 09:00;CYYG 220900Z 25015KT 15SM FEW260 14/08 A2976 RMK CI1 SLP076

CYYG;2009-05-22 10:00;CYYG 221000Z 25013G18KT 15SM SCT260 14/08 A2978 RMK CI2 SLP083

CYYG;2009-05-22 11:00;CYYG 221100Z 28004KT 15SM SCT260 16/10 A2982 RMK CI2 SLP097

CYYG;2009-05-22 12:00;CYYG 221200Z 28006KT 15SM BKN260 20/12 A2984 RMK CI2 SLP104

CYYG;2009-05-22 13:00;CYYG 221300Z 32008KT 15SM SCT300 21/11 A2985 RMK CI1 SLP106

CYYG;2009-05-22 14:00;CYYG 221400Z 01006KT 15SM SCT300 22/13 A2985 RMK CI1 SLP109

CYYG;2009-05-22 15:00;CYYG 221500Z 03015KT 15SM FEW120 BKN280 18/12 A2986 RMK AC1CI3 SLP113

CYYG;2009-05-22 16:00;CYYG 221600Z 04012KT 15SM BKN071 BKN280 16/10 A2988 RMK AC5CI2 SLP118

CYYG;2009-05-22 17:00;CYYG 221700Z 04011KT 15SM BKN073 BKN280 12/06 A2988 RMK AC6CI2 SLP120

CYYG;2009-05-22 18:00;CYYG 221800Z 04011KT 15SM BKN065 OVC280 12/06 A2990 RMK SC6CI2 SLP127

CYYG;2009-05-22 19:00;CYYG 221900Z 05009KT 15SM SCT065 BKN280 13/06 A2991 RMK SC4CI2 SLP129

CYYG;2009-05-22 20:00;CYYG 222000Z 03010KT 15SM BKN065 BKN280 14/07 A2993 RMK SC5CI2 SLP136

CYYG;2009-05-22 21:00;CYYG 222100Z 06010KT 15SM SCT065 BKN130 BKN280 13/05 A2996 RMK SC3AC2CI1 SLP145

CYYG;2009-05-22 22:00;CYYG 222200Z 07009KT 15SM SCT065 BKN130 BKN280 12/04 A2998 RMK SC3AC2CI1 SLP151

CYYG;2009-05-22 23:00;CYYG 222300Z 06005KT 15SM FEW060 BKN130 BKN280 11/04 A3001 RMK SC2AC4CI0 SLP164

CYYG;2009-05-23 00:00;CYYG 230000Z 09006KT 15SM FEW060 BKN110 BKN280 09/03 A3004 RMK SC1AC4CI0 SLP171

CYYG;2009-05-23 01:00;CYYG 230100Z 11002KT 15SM FEW060 SCT110 08/02 A3004 RMK SC1AC2 SLP174

CYYG;2009-05-23 02:00;CYYG 230200Z 08003KT 15SM FEW110 07/02 A3007 RMK AC2 SLP183

CYYG;2009-05-23 03:00;CYYG 230300Z 16002KT 15SM FEW110 06/02 A3008 RMK AC2 SLP188

CYYG;2009-05-23 04:00;CYYG 230400Z 20005KT 15SM SCT090 08/03 A3009 RMK AC3 SLP189

CYYG;2009-05-23 05:00;CYYG 230500Z 21006KT 15SM BKN093 08/05 A3009 RMK AC6 SLP192

CYYG;2009-05-23 06:00;CYYG 230600Z 26004KT 15SM BKN090 07/04 A3012 RMK AC3 SLP201

CYYG;2009-05-23 07:00;CYYG 230700Z 27005KT 15SM SCT090 07/04 A3014 RMK AC2 SLP206

CYYG;2009-05-23 08:00;CYYG 230800Z 29008KT 15SM SCT077 07/04 A3016 RMK AC3 SLP213

CYYG;2009-05-23 09:00;CYYG 230900Z 32008KT 15SM SCT077 07/03 A3017 RMK AC3 SLP219

CYYG;2009-05-23 10:00;CYYG 231000Z 33008KT 15SM FEW070 SCT260 08/04 A3019 RMK AC2CI1 SLP225

CYYG;2009-05-23 11:00;CYYG 231100Z 34009G16KT 15SM FEW070 FEW260 09/03 A3022 RMK AC1CI1 SLP233

CYYG;2009-05-23 12:00;CYYG 231200Z 34011G19KT 15SM FEW020 FEW070 FEW330 09/01 A3024 RMK CU1AC1CI1 SLP241

CYYG;2009-05-23 13:00;CYYG 231300Z 34006KT 15SM FEW030 FEW070 FEW330 09/04 A3025 RMK CU1AC1CI1 SLP245

CYYG;2009-05-23 14:00;CYYG 231400Z 01008KT 15SM FEW030 FEW330 10/01 A3026 RMK CU1CI1 SLP248

CYYG;2009-05-23 15:00;CYYG 231500Z 33008KT 15SM FEW040 FEW330 11/02 A3026 RMK CU1CI1 SLP250

CYYG;2009-05-23 16:00;CYYG 231600Z 34005KT 15SM FEW040 FEW330 11/03 A3026 RMK CU1CI1 SLP248

CYYG;2009-05-23 17:00;CYYG 231700Z 08002KT 15SM FEW045 SCT330 12/03 A3023 RMK CF1CI1 SLP239

CYYG;2009-05-23 18:00;CYYG 231800Z 16010KT 15SM FEW045 BKN300 12/03 A3023 RMK CU1CS5 SLP236

CYYG;2009-05-23 19:00;CYYG 231900Z 14009KT 15SM BKN300 12/02 A3022 RMK CS6 SLP234

CYYG;2009-05-23 20:00;CYYG 232000Z 12005KT 15SM BKN300 12/02 A3021 RMK CI6 SLP231

CYYG;2009-05-23 21:00;CYYG 232100Z 09009KT 15SM FEW150 BKN230 11/04 A3019 RMK AC1CS6 SLP225

CYYG;2009-05-23 22:00;CYYG 232200Z 12007KT 15SM FEW150 BKN230 11/03 A3019 RMK AC1CS6 SLP223

CYYG;2009-05-23 23:00;CYYG 232300Z 15006KT 15SM FEW150 BKN230 10/03 A3019 RMK AC1CS5 SLP223

CYYG;2009-05-24 00:00;CYYG 240000Z 14006KT 15SM FEW160 BKN230 08/03 A3018 RMK AC2CS4 SLP221

CYYG;2009-05-24 01:00;CYYG 240100Z 16006KT 15SM FEW160 BKN230 07/02 A3018 RMK AC2CS4 SLP221

CYYG;2009-05-24 02:00;CYYG 240200Z 15005KT 15SM FEW150 BKN230 06/02 A3018 RMK AC2CS4 SLP220

CYYG;2009-05-24 03:00;CYYG 240300Z 13005KT 15SM SCT160 BKN230 06/02 A3016 RMK AC3CI3 SLP214

CYYG;2009-05-24 04:00;CYYG 240400Z 11002KT 15SM BKN130 OVC230 06/03 A3014 RMK AC5CS2 SLP207

CYYG;2009-05-24 05:00;CYYG 240500Z 15004KT 15SM BKN120 OVC230 07/03 A3013 RMK AC6CI2 SLP203

CYYG;2009-05-24 06:00;CYYG 240600Z 19007KT 15SM OVC130 08/06 A3010 RMK AC8 SLP195

CYYG;2009-05-24 07:00;CYYG 240700Z 20008KT 15SM OVC120 09/06 A3009 RMK AC8 SLP192

CYYG;2009-05-24 08:00;CYYG 240800Z 22006KT 15SM BKN120 09/06 A3009 RMK AC6 SLP189

CYYG;2009-05-24 09:00;CYYG 240900Z 20007KT 15SM BKN120 08/06 A3008 RMK AC6 SLP186

CYYG;2009-05-24 10:00;CYYG 241000Z 19008KT 15SM BKN120 09/06 A3007 RMK AC6 SLP184

CYYG;2009-05-24 11:00;CYYG 241100Z 20009KT 15SM FEW070 BKN110 BKN120 11/06 A3006 RMK AC1AC4AC2 SLP179

CYYG;2009-05-24 12:00;CYYG 241200Z 18008KT 15SM BKN110 11/06 A3005 RMK AC6 SLP176

CYYG;2009-05-24 13:00;CYYG 241300Z 18010KT 15SM FEW110 FEW250 13/08 A3002 RMK AC2CI0 SLP166

CYYG;2009-05-24 14:00;CYYG 241400Z 20009G16KT 15SM FEW110 15/09 A3000 RMK AC2 SLP160

CYYG;2009-05-24 15:00;CYYG 241500Z 21013KT 15SM SCT120 16/08 A2997 RMK AC4 SLP150

CYYG;2009-05-24 16:00;CYYG 241600Z 19015G21KT 15SM FEW070 SCT120 16/08 A2995 RMK AC1AC2 SLP142

CYYG;2009-05-24 17:00;CYYG 241700Z 19012G18KT 15SM BKN057 15/08 A2992 RMK SC6 TCU ASOCTD SLP133

CYYG;2009-05-24 18:00;CYYG 241800Z 18018G25KT 15SM BKN048 BKN073 17/08 A2988 RMK SC6AC1 SLP120

CYYG;2009-05-24 19:00;CYYG 241900Z 20016KT 15SM -SHRA OVC039 15/09 A2987 RMK SC8 SLP115

CYYG;2009-05-24 20:00;CYYG 242000Z 21012KT 15SM -SHRA BKN035 14/11 A2984 RMK SC7 SLP104

CYYG;2009-05-24 20:29;CYYG 242029Z 20016KT 15SM SCT038 BKN120 14/ RMK SC4AC2

CYYG;2009-05-24 21:00;CYYG 242100Z 20016G21KT 15SM FEW020 SCT120 14/11 A2980 RMK CU2AC2 TCU DIST E-S SLP091

CYYG;2009-05-24 22:00;CYYG 242200Z 20012KT 15SM BKN016 13/11 A2978 RMK SC7 SLP085

CYYG;2009-05-24 23:00;CYYG 242300Z 21011KT 15SM BKN020 12/11 A2978 RMK SC6 SLP084

CYYG;2009-05-25 00:00;CYYG 250000Z 23011KT 15SM SCT020 12/11 A2978 RMK SC4 SLP086

CYYG;2009-05-25 01:00;CYYG 250100Z 25011G16KT 15SM FEW020 BKN110 12/11 A2979 RMK SC2AC2 SLP089

CYYG;2009-05-25 02:00;CYYG 250200Z 26008KT 15SM FEW020 BKN110 11/10 A2979 RMK SC2AC3 SLP090

CYYG;2009-05-25 03:00;CYYG 250300Z 26008KT 15SM FEW008 SCT110 10/10 A2981 RMK SF1AC3 SLP094

CYYG;2009-05-25 04:00;CYYG 250400Z 32010G15KT 15SM SCT008 BKN110 10/10 A2983 RMK SF4AC2 SLP102

CYYG;2009-05-25 05:00;CYYG 250500Z 33006KT 15SM SCT008 BKN110 07/07 A2985 RMK SF3AC2 SLP107

CYYG;2009-05-25 06:00;CYYG 250600Z 31005KT 15SM FEW008 SCT110 06/06 A2985 RMK SF2AC2 SLP109

CYYG;2009-05-25 07:00;CYYG 250700Z 25004KT 15SM FEW110 06/05 A2985 RMK AC2 SLP109

CYYG;2009-05-25 08:00;CYYG 250800Z 29006KT 15SM SKC 07/06 A2985 RMK SLP107

CYYG;2009-05-25 09:00;CYYG 250900Z 25006KT 15SM FEW220 07/06 A2985 RMK CI1 SLP109

CYYG;2009-05-25 10:00;CYYG 251000Z 26007KT 15SM FEW015 08/07 A2987 RMK SC1 SLP115

CYYG;2009-05-25 11:00;CYYG 251100Z 27008KT 15SM FEW015 FEW300 10/09 A2987 RMK CF1CI1 SLP115

CYYG;2009-05-25 12:00;CYYG 251200Z 26006KT 15SM FEW015 FEW300 12/08 A2986 RMK CU1CI1 SLP112

CYYG;2009-05-25 13:00;CYYG 251300Z 25008KT 15SM FEW025 13/08 A2985 RMK CF1 SLP107

CYYG;2009-05-25 14:00;CYYG 251400Z 26010G15KT 15SM FEW030 FEW100 14/06 A2985 RMK CU1AC1 SLP107

CYYG;2009-05-25 15:00;CYYG 251500Z 26011G16KT 15SM FEW050 SCT098 BKN250 15/06 A2983 RMK CU1AC2CC1 SLP101

CYYG;2009-05-25 16:00;CYYG 251600Z 29014G19KT 15SM VCSH BKN059TCU BKN090 15/03 A2982 RMK TCU5AC2 SLP098

CYYG;2009-05-25 16:09;CYYG 251609Z 30012G19KT 15SM -SHRA BKN059TCU BKN090 14/ RMK TCU6AC2

CYYG;2009-05-25 17:00;CYYG 251700Z 30020G30KT 15SM -SHRA OVC059 13/03 A2981 RMK SC8 TCU ASOCTD OBS TAKEN +10 SLP096

CYYG;2009-05-25 18:00;CYYG 251800Z 30011G21KT 15SM -SHRA BKN053TCU BKN090 12/05 A2980 RMK TCU5AC2 SLP093

CYYG;2009-05-25 19:00;CYYG 251900Z 28022G34KT 5SM -SHRA BR OVC040 10/06 A2982 RMK SC8 TCU ASOCTD SLP098

CYYG;2009-05-25 20:00;CYYG 252000Z 27012KT 15SM -SHRA FEW040TCU BKN095 10/07 A2978 RMK TCU2AC4 SLP086

CYYG;2009-05-25 20:38;CYYG 252038Z 34011G30KT 15SM -SHRA SCT026TCU 10/ RERA RMK TCU4 WSHFT 2038

CYYG;2009-05-25 21:00;CYYG 252100Z 35014G20KT 15SM FEW026TCU FEW100 SCT250 10/07 A2980 RERA RMK TCU1AC1CI1 SH DIST E-SW SLP094

CYYG;2009-05-25 22:00;CYYG 252200Z 35012G24KT 15SM FEW026TCU FEW100 FEW250 08/02 A2983 RMK TCU1AC1CI0 SLP103

CYYG;2009-05-25 23:00;CYYG 252300Z 35012G17KT 15SM FEW030 FEW120 08/02 A2986 RMK SC1AC0 SLP113

CYYG;2009-05-26 00:00;CYYG 260000Z 32011G16KT 15SM FEW030 07/01 A2987 RMK SC1 SLP115

CYYG;2009-05-26 01:00;CYYG 260100Z 32010G16KT 15SM BKN047 07/02 A2988 RMK SC5 SLP121

CYYG;2009-05-26 02:00;CYYG 260200Z 34012G19KT 15SM FEW030 BKN052 08/04 A2990 RMK SC2SC3 SLP127

CYYG;2009-05-26 03:00;CYYG 260300Z 34012G20KT 15SM SCT040 BKN074 07/03 A2992 RMK SC2AC3 SLP132

CYYG;2009-05-26 04:00;CYYG 260400Z 35013G20KT 15SM SCT042 BKN062 06/01 A2994 RMK SC2SC4 SLP141

CYYG;2009-05-26 05:00;CYYG 260500Z 34012G20KT 15SM BKN042 06/03 A2997 RMK SC4 SLP149

CYYG;2009-05-26 06:00;CYYG 260600Z 34009KT 15SM FEW040 06/04 A2998 RMK SC1 SLP154

CYYG;2009-05-26 07:00;CYYG 260700Z 34012G18KT 15SM FEW040 06/03 A2999 RMK SC2 SLP157

CYYG;2009-05-26 08:00;CYYG 260800Z 33011G16KT 15SM SCT022 06/03 A3004 RMK SC2 SLP174

CYYG;2009-05-26 09:00;CYYG 260900Z 32009KT 15SM SCT024 06/03 A3006 RMK SC2 SLP182

CYYG;2009-05-26 10:00;CYYG 261000Z 33014G19KT 15SM SCT024 07/03 A3009 RMK SC2 SLP192

CYYG;2009-05-26 11:00;CYYG 261100Z 33014G25KT 15SM SCT022 07/01 A3014 RMK SC4 SLP206

CYYG;2009-05-26 12:00;CYYG 261200Z 34013G22KT 15SM SCT025 07/02 A3014 RMK SC3 SLP209

CYYG;2009-05-26 13:00;CYYG 261300Z 33015G25KT 15SM BKN030 07/01 A3016 RMK SC5 SLP214

CYYG;2009-05-26 14:00;CYYG 261400Z 34013G20KT 15SM BKN030 07/00 A3017 RMK SC6 SLP216

CYYG;2009-05-26 15:00;CYYG 261500Z 34015G21KT 15SM BKN032 07/00 A3017 RMK SC5 SLP220

CYYG;2009-05-26 16:00;CYYG 261600Z 34011G20KT 15SM SCT035 08/00 A3017 RMK SC4 SLP219

CYYG;2009-05-26 17:00;CYYG 261700Z 33016KT 15SM SCT040 09/M01 A3016 RMK SC4 SLP216

CYYG;2009-05-26 18:00;CYYG 261800Z 35013KT 15SM FEW040 FEW200 09/M01 A3016 RMK SC1CI1 SLP215

CYYG;2009-05-26 19:00;CYYG 261900Z 35011G16KT 15SM FEW045 FEW200 09/M01 A3015 RMK SC1CI1 SLP212

CYYG;2009-05-26 20:00;CYYG 262000Z 34011KT 15SM FEW030 SCT250 09/M01 A3015 RMK SC1CI1 SLP212

CYYG;2009-05-26 21:00;CYYG 262100Z 36008KT 15SM FEW030 SCT250 09/M02 A3014 RMK SC1CI1 SLP209

CYYG;2009-05-26 22:00;CYYG 262200Z 34005KT 15SM FEW030 SCT250 08/M02 A3015 RMK SC1CI1 SLP211

CYYG;2009-05-26 23:00;CYYG 262300Z 32002KT 15SM FEW030 BKN300 08/M01 A3016 RMK SC1CI2 SLP214

CYYG;2009-05-27 00:00;CYYG 270000Z 05003KT 15SM FEW030 SCT300 06/M01 A3017 RMK SC1CI1 SLP220

CYYG;2009-05-27 01:00;CYYG 270100Z 07007KT 15SM FEW300 04/01 A3019 RMK CI1 SLP226

CYYG;2009-05-27 02:00;CYYG 270200Z 09004KT 15SM SKC 03/00 A3021 RMK SLP231

CYYG;2009-05-27 03:00;CYYG 270300Z 07002KT 15SM SKC 02/00 A3021 RMK SLP233

CYYG;2009-05-27 04:00;CYYG 270400Z 00000KT 15SM SKC 02/00 A3022 RMK SLP234

CYYG;2009-05-27 05:00;CYYG 270500Z 24002KT 15SM SKC 01/00 A3021 RMK SLP232

CYYG;2009-05-27 06:00;CYYG 270600Z 25004KT 15SM SKC 02/00 A3021 RMK SLP233

CYYG;2009-05-27 07:00;CYYG 270700Z 23006KT 15SM SKC 03/01 A3020 RMK SLP230

CYYG;2009-05-27 08:00;CYYG 270800Z 25007KT 15SM FEW250 02/M01 A3021 RMK CI1 SLP231

CYYG;2009-05-27 09:00;CYYG 270900Z 26005KT 15SM BKN220 04/00 A3021 RMK CI2 SLP232

CYYG;2009-05-27 10:00;CYYG 271000Z 25005KT 15SM BKN210 05/01 A3023 RMK CI4 SLP240

CYYG;2009-05-27 11:00;CYYG 271100Z 25006KT 15SM FEW130 BKN210 07/04 A3024 RMK AC2CI2 CC ASOCTD SLP242

CYYG;2009-05-27 12:00;CYYG 271200Z 27004KT 15SM FEW130 BKN210 09/01 A3024 RMK AC2CI2 SLP241

CYYG;2009-05-27 13:00;CYYG 271300Z 25003KT 15SM FEW030 FEW130 BKN210 10/01 A3023 RMK SC1AC2CS3 SC TR SLP239

CYYG;2009-05-27 14:00;CYYG 271400Z 34004KT 15SM FEW030 FEW130 BKN210 11/M00 A3022 RMK SC1AC1CS6 SC AC TR SLP234

CYYG;2009-05-27 15:00;CYYG 271500Z 17007KT 15SM FEW036 FEW130 BKN210 13/02 A3020 RMK CF1AC1CS5 AC TR SLP230

CYYG;2009-05-27 16:00;CYYG 271600Z 21009KT 15SM FEW040 OVC210 12/04 A3019 RMK CF2CS4 OBS TAKEN +12 SLP224

CYYG;2009-05-27 17:00;CYYG 271700Z 19011KT 15SM FEW040 FEW130 OVC210 13/03 A3018 RMK CF1AS2CS6 SLP223

CYYG;2009-05-27 18:00;CYYG 271800Z 19011KT 15SM FEW040 SCT130 OVC210 12/03 A3017 RMK CF1AS2CS5 SLP219

CYYG;2009-05-27 19:00;CYYG 271900Z 33004KT 15SM BKN090 OVC210 13/02 A3017 RMK AS6CS2 SLP218

CYYG;2009-05-27 20:00;CYYG 272000Z 01002KT 15SM BKN080 OVC210 13/02 A3015 RMK AS6CS2 SLP213

CYYG;2009-05-27 21:00;CYYG 272100Z 01002KT 15SM SCT080 BKN130 OVC210 13/03 A3013 RMK AC3AS3CS2 SLP205

CYYG;2009-05-27 22:00;CYYG 272200Z 09003KT 15SM BKN070 OVC130 12/03 A3011 RMK AC6AS2 SLP198

CYYG;2009-05-27 23:00;CYYG 272300Z 14004KT 15SM BKN080 OVC130 12/04 A3010 RMK AC6AS2 SLP195

CYYG;2009-05-28 00:00;CYYG 280000Z 15006KT 15SM BKN080 OVC130 10/03 A3009 RMK AC6AS2 SLP192

CYYG;2009-05-28 01:00;CYYG 280100Z 14004KT 15SM OVC085 09/04 A3009 RMK AC8 SLP191

CYYG;2009-05-28 02:00;CYYG 280200Z 16004KT 15SM OVC058 09/04 A3009 RMK SC8 SLP191

CYYG;2009-05-28 02:28;CYYG 280228Z 21007KT 15SM -SHRA OVC060 10/ RMK SC8

CYYG;2009-05-28 03:00;CYYG 280300Z 25007KT 15SM -SHRA OVC060 09/07 A3009 RMK SC8 SLP192

CYYG;2009-05-28 04:00;CYYG 280400Z 26004KT 15SM -SHRA OVC055 08/08 A3009 RMK SC8 SLP189

CYYG;2009-05-28 05:00;CYYG 280500Z 25004KT 12SM -SHRA FEW006 OVC041 08/08 A3007 RMK SF2SC6 SLP183

CYYG;2009-05-28 06:00;CYYG 280600Z 24003KT 15SM -SHRA FEW006 OVC036 08/08 A3006 RMK SF2SC6 SLP182

CYYG;2009-05-28 07:00;CYYG 280700Z 27003KT 6SM BR FEW002 OVC019 08/08 A3007 RMK SF2SC6 SLP185

CYYG;2009-05-28 07:18;CYYG 280718Z 25003KT 6SM -RA BR SCT003 OVC020 08/ RMK SF3SC5

CYYG;2009-05-28 08:00;CYYG 280800Z 24003KT 6SM -RA BR BKN004 OVC019 07/07 A3007 RMK SF5SC3 SLP184

CYYG;2009-05-28 08:48;CYYG 280848Z 22005KT 10SM OVC005 07/ RMK SF8

CYYG;2009-05-28 09:00;CYYG 280900Z 21006KT 10SM OVC007 07/07 A3007 RMK SF8 SLP183

CYYG;2009-05-28 10:00;CYYG 281000Z 23003KT 10SM OVC005 07/07 A3008 RMK SF8 SLP187

CYYG;2009-05-28 11:00;CYYG 281100Z 23005KT 15SM OVC005 08/08 A3008 RMK SF8 SLP188

CYYG;2009-05-28 11:43;CYYG 281143Z 26003KT 15SM OVC007 08/ RMK SF8

CYYG;2009-05-28 12:00;CYYG 281200Z 00000KT 15SM OVC010 08/08 A3009 RMK SC8 SLP192

CYYG;2009-05-28 13:00;CYYG 281300Z 18004KT 15SM BKN011 BKN045 BKN310 10/08 A3009 RMK SC6SC1CI0 SLP192

CYYG;2009-05-28 14:00;CYYG 281400Z 20006KT 15SM BKN017 BKN045 BKN280 11/08 A3010 RMK SC5SC1CI1 SLP194

CYYG;2009-05-28 15:00;CYYG 281500Z 21006KT 15SM BKN018 BKN033 OVC280 11/07 A3010 RMK SC5SC2CI1 SLP193

CYYG;2009-05-28 16:00;CYYG 281600Z 22008KT 15SM FEW018 BKN028 OVC280 11/08 A3010 RMK SC2SC5CI1 SLP193

CYYG;2009-05-28 17:00;CYYG 281700Z 23002KT 15SM FEW030 BKN040 BKN280 12/08 A3009 RMK SC2SC3CI1 SLP191

CYYG;2009-05-28 18:00;CYYG 281800Z 11004KT 15SM BKN030 BKN040 BKN280 13/08 A3009 RMK CU5SC1CI1 SLP191

CYYG;2009-05-28 19:00;CYYG 281900Z 24002KT 15SM BKN032 BKN280 13/08 A3009 RMK SC6CI0 CU ASOCTD SLP189

CYYG;2009-05-28 20:00;CYYG 282000Z 19002KT 15SM SCT033 BKN280 13/08 A3009 RMK SC4CI1 SLP189

CYYG;2009-05-28 21:00;CYYG 282100Z 16005KT 15SM FEW033 BKN280 13/07 A3008 RMK SC2CI2 CU ASOCTD SLP187

CYYG;2009-05-28 22:00;CYYG 282200Z 18006KT 15SM FEW030 BKN280 12/07 A3009 RMK SC2CI1 CU ASOCTD SLP190

CYYG;2009-05-28 23:00;CYYG 282300Z 16003KT 15SM FEW030 BKN280 11/07 A3010 RMK SC2CI1 SLP193

CYYG;2009-05-29 00:00;CYYG 290000Z 13002KT 15SM FEW030 BKN280 10/07 A3009 RMK SC2CI1 SLP190

CYYG;2009-05-29 01:00;CYYG 290100Z 13005KT 15SM BKN280 08/07 A3011 RMK CI2 SLP197

CYYG;2009-05-29 02:00;CYYG 290200Z 15005KT 15SM BKN280 08/06 A3010 RMK CI2 SLP195

CYYG;2009-05-29 03:00;CYYG 290300Z 14003KT 15SM BKN280 08/05 A3010 RMK CI2 SLP194

CYYG;2009-05-29 04:00;CYYG 290400Z 15003KT 15SM BKN280 07/05 A3011 RMK CI3 SLP197

CYYG;2009-05-29 05:00;CYYG 290500Z 16004KT 15SM BKN280 07/06 A3009 RMK CI3 SLP192

CYYG;2009-05-29 06:00;CYYG 290600Z 16003KT 15SM FEW280 07/06 A3009 RMK CI2 SLP190

CYYG;2009-05-29 07:00;CYYG 290700Z 17004KT 15SM FEW280 06/06 A3008 RMK CI2 SLP188

CYYG;2009-05-29 08:00;CYYG 290800Z 17005KT 15SM FEW280 06/05 A3008 RMK CI2 SLP187

CYYG;2009-05-29 09:00;CYYG 290900Z 15006KT 15SM BKN280 06/05 A3007 RMK CI3 SLP183

CYYG;2009-05-29 10:00;CYYG 291000Z 16008KT 15SM FEW280 BKN330 07/05 A3006 RMK CI2CC2 SLP182

CYYG;2009-05-29 11:00;CYYG 291100Z 15012KT 15SM FEW180 BKN240 09/05 A3006 RMK AC2CI2 SLP179

CYYG;2009-05-29 12:00;CYYG 291200Z 16013KT 15SM SCT180 BKN240 10/05 A3004 RMK AC4CI1 SLP174

CYYG;2009-05-29 13:00;CYYG 291300Z 16016G21KT 15SM SCT170 BKN220 12/06 A3000 RMK AC4CI2 SLP161

CYYG;2009-05-29 14:00;CYYG 291400Z 17018G24KT 15SM FEW110 BKN160 BKN210 13/06 A2999 RMK AC2AC3CI2 SLP156

CYYG;2009-05-29 15:00;CYYG 291500Z CCA 16015KT 15SM -SHRA FEW070 BKN120 BKN200 13/06 A2997 RMK AC2AC3CI2 SLP150

CYYG;2009-05-29 15:54;CYYG 291554Z 16015G20KT 15SM VCSH FEW070 OVC110 14/ RMK AC2AC6

CYYG;2009-05-29 16:00;CYYG 291600Z 16013G19KT 15SM VCSH FEW070 OVC110 14/07 A2994 RMK AC2AC6 SLP140

CYYG;2009-05-29 17:00;CYYG 291700Z 16019KT 15SM BKN034 OVC082 15/06 A2991 RMK SC5AC3 SLP131

CYYG;2009-05-29 18:00;CYYG 291800Z 17017G22KT 15SM OVC032 15/07 A2990 RMK SC8 SLP128

CYYG;2009-05-29 19:00;CYYG 291900Z 17018G26KT 15SM OVC030 14/08 A2989 RMK SC8 SLP122

CYYG;2009-05-29 20:00;CYYG 292000Z 16017G22KT 15SM OVC025 14/07 A2985 RMK SC8 SLP109

CYYG;2009-05-29 21:00;CYYG 292100Z 17016G24KT 15SM OVC022 14/10 A2984 RMK SC8 SLP107

CYYG;2009-05-29 21:51;CYYG 292151Z 17016G21KT 15SM -SHRA OVC016 13/ RMK SC8

CYYG;2009-05-29 22:00;CYYG 292200Z 16015G21KT 15SM -SHRA OVC016 13/10 A2984 RMK SC8 SLP105

CYYG;2009-05-29 22:46;CYYG 292246Z 16016G22KT 15SM OVC014 12/ RMK SC8

CYYG;2009-05-29 23:00;CYYG 292300Z 16016KT 15SM OVC013 12/10 A2983 RMK SC8 SLP102

CYYG;2009-05-30 00:00;CYYG 300000Z 16017KT 15SM OVC013 12/10 A2981 RMK SC8 SLP095

CYYG;2009-05-30 01:00;CYYG 300100Z 15014G20KT 15SM OVC013 11/10 A2980 RMK SC8 SLP092

CYYG;2009-05-30 01:22;CYYG 300122Z 16015KT 15SM BKN008 OVC012 11/ RMK SF5SC3

CYYG;2009-05-30 02:00;CYYG 300200Z 16015KT 15SM BKN008 OVC012 11/10 A2978 RMK SF5SC3 SLP085

CYYG;2009-05-30 02:16;CYYG 300216Z 17018KT 15SM -SHRA BKN008 OVC012 11/ RMK SF6SC2

CYYG;2009-05-30 03:00;CYYG 300300Z 15013G18KT 15SM -SHRA SCT007 OVC011 11/11 A2975 RMK SF3SC5 SLP075

CYYG;2009-05-30 04:00;CYYG 300400Z 16013KT 15SM -SHRA BKN006 OVC010 11/11 A2974 RMK SF6SF2 SLP071

CYYG;2009-05-30 05:00;CYYG 300500Z 16013G19KT 10SM -SHRA BKN004 OVC010 11/11 A2970 RMK SF6SF2 SLP057

CYYG;2009-05-30 06:00;CYYG 300600Z 16013KT 5SM -SHRA BR OVC003 11/11 A2969 RMK SF8 SLP053

CYYG;2009-05-30 06:38;CYYG 300638Z 16011KT 15SM -DZ OVC006 11/ RERA RMK SF8

CYYG;2009-05-30 06:53;CYYG 300653Z 16012KT 15SM BKN006 OVC010 11/ RERA RMK SF6SF2

CYYG;2009-05-30 07:00;CYYG 300700Z 16011G16KT 15SM BKN006 OVC010 11/11 A2966 RERA RMK SF6SF2 SLP044

CYYG;2009-05-30 08:00;CYYG 300800Z 16009KT 15SM OVC004 11/11 A2966 RMK SF8 SLP045

CYYG;2009-05-30 08:26;CYYG 300826Z 17008KT 5SM -DZ BR BKN004 OVC008 11/ RMK SF6SF2

CYYG;2009-05-30 08:42;CYYG 300842Z 16006KT 2SM -DZ BR OVC004 11/ RMK SF8

CYYG;2009-05-30 09:00;CYYG 300900Z 17008KT 3SM -DZ BR BKN003 OVC006 11/11 A2966 RMK SF6SF2 VIS SE-SW 10 SLP044

CYYG;2009-05-30 10:00;CYYG 301000Z 18006KT 3SM -DZ BR OVC004 11/11 A2966 RMK SF8 SLP045

CYYG;2009-05-30 11:00;CYYG 301100Z 18007KT 2SM -DZ BR OVC004 12/12 A2965 RMK SF8 OCNL -DZ SLP040

CYYG;2009-05-30 11:20;CYYG 301120Z 18007KT 3SM BR OVC003 12/ RMK SF8

CYYG;2009-05-30 12:00;CYYG 301200Z 21008KT 3SM BR OVC003 13/13 A2965 RMK SF8 SLP041

CYYG;2009-05-30 13:00;CYYG 301300Z 20005KT 8SM BKN006 OVC024 14/14 A2963 RMK SF6SC2 SLP036

CYYG;2009-05-30 14:00;CYYG 301400Z 17009KT 10SM OVC006 14/13 A2963 RMK SF8 SLP034

CYYG;2009-05-30 14:47;CYYG 301447Z 19008KT 15SM SCT006 OVC032 15/ RMK SF3SC4

CYYG;2009-05-30 15:00;CYYG 301500Z 19010KT 15SM SCT007 BKN020 OVC032 15/13 A2963 RMK SF3SC2SC2 SLP034

CYYG;2009-05-30 16:00;CYYG 301600Z 16006KT 10SM SCT008 BKN016 OVC022 15/14 A2961 RMK SF3SC3SC2 SLP029

CYYG;2009-05-30 17:00;CYYG 301700Z 18006KT 15SM SCT010 BKN018 17/15 A2961 RMK SF3SC4 SLP027

CYYG;2009-05-30 18:00;CYYG 301800Z 18007KT 15SM BKN022 BKN049 19/17 A2959 RMK SC6SC2 SLP021

CYYG;2009-05-30 19:00;CYYG 301900Z 18005KT 15SM OVC023 20/18 A2958 RMK SC7 SLP016

CYYG;2009-05-30 20:00;CYYG 302000Z 19007KT 15SM OVC020 19/17 A2957 RMK SC8 SLP013

CYYG;2009-05-30 21:00;CYYG 302100Z 20006KT 15SM FEW020 BKN110 19/17 A2956 RMK SC2AC6 SLP009

CYYG;2009-05-30 22:00;CYYG 302200Z 22005KT 15SM SCT016 BKN100 18/16 A2957 RMK SC3AC4 SLP012

CYYG;2009-05-30 22:36;CYYG 302236Z 23003KT 15SM BKN014 BKN019 BKN100 17/ RMK SC5SC2AC1

CYYG;2009-05-30 23:00;CYYG 302300Z 23003KT 15SM SCT014 BKN019 BKN100 17/16 A2957 RMK SC4SC1AC2 SLP013

CYYG;2009-05-31 00:00;CYYG 310000Z 23002KT 15SM BKN013 BKN028 17/16 A2958 RMK SC6SC2 SH DIST SW-W SLP019

CYYG;2009-05-31 00:14;CYYG 310014Z 22002KT 5SM -SHRA BR BKN011 17/ RMK SC7 VIS NW-N 15

CYYG;2009-05-31 00:33;CYYG 310033Z 16003KT 5SM -DZ BR OVC009 16/ RMK SF8

CYYG;2009-05-31 00:50;CYYG 310050Z 24003KT 3SM -DZ BR OVC005 16/ RMK ST8

CYYG;2009-05-31 01:00;CYYG 310100Z 23002KT 5SM -DZ BR SCT002 OVC006 16/16 A2960 RMK SF3SF5 SLP025

CYYG;2009-05-31 01:17;CYYG 310117Z 23005KT 5SM BR SCT002 BKN005 OVC022 16/ RMK SF3SF3SC2

CYYG;2009-05-31 02:00;CYYG 310200Z 25003KT 15SM FEW002 SCT015 BKN046 BKN110 16/16 A2960 RMK SF2SC2SC2AC1 SLP024

CYYG;2009-05-31 03:00;CYYG 310300Z 23005KT 15SM FEW011 BKN038 15/15 A2960 RMK SC1SC6 SLP026

CYYG;2009-05-31 03:16;CYYG 310316Z 23008KT 15SM BKN006 OVC039 15/ RMK SF6SC2

CYYG;2009-05-31 04:00;CYYG 310400Z 24008KT 15SM BKN005 OVC035 15/15 A2961 RMK SF6SC2 SLP027

CYYG;2009-05-31 05:00;CYYG 310500Z 25009KT 15SM FEW005 OVC011 14/13 A2962 RMK SF2SC6 SLP030

CYYG;2009-05-31 06:00;CYYG 310600Z 26007KT 15SM BKN004 OVC016 12/12 A2963 RMK SF5SC3 SLP036

CYYG;2009-05-31 07:00;CYYG 310700Z 24003KT 15SM FEW004 OVC013 12/12 A2965 RMK SF2SC6 SLP041

CYYG;2009-05-31 08:00;CYYG 310800Z 25005KT 15SM BKN004 BKN019 12/12 A2967 RMK SF6SC2 SLP047

CYYG;2009-05-31 09:00;CYYG 310900Z 26006KT 15SM BKN005 BKN009 12/12 A2969 RMK SF5SF2 SLP053

CYYG;2009-05-31 09:29;CYYG 310929Z 25005KT 15SM SCT003 12/ RMK SF3

CYYG;2009-05-31 10:00;CYYG 311000Z 25006KT 15SM FEW006 12/12 A2971 RMK SF2 SLP061

CYYG;2009-05-31 11:00;CYYG 311100Z 26008KT 15SM SCT011 13/12 A2973 RMK SF3 VSBY 3BR S SLP068

CYYG;2009-05-31 12:00;CYYG 311200Z 24006KT 15SM FEW010 14/12 A2975 RMK SF1 SLP074

CYYG;2009-05-31 13:00;CYYG 311300Z 22007KT 15SM FEW010 15/13 A2976 RMK SF1 SLP079

CYYG;2009-05-31 14:00;CYYG 311400Z 22004KT 15SM FEW014 16/13 A2976 RMK CU1 SLP077

CYYG;2009-05-31 15:00;CYYG 311500Z 25008KT 15SM FEW015 18/10 A2977 RMK CU1 SLP080

CYYG;2009-05-31 16:00;CYYG 311600Z 24008KT 15SM FEW020 18/08 A2976 RMK CU0 SLP078

CYYG;2009-05-31 17:00;CYYG 311700Z 23010KT 15SM FEW020 19/08 A2976 RMK CU1 SLP077

CYYG;2009-05-31 18:00;CYYG 311800Z 23005KT 15SM FEW035 FEW220 20/10 A2975 RMK CU1CI1 SLP075

CYYG;2009-05-31 19:00;CYYG 311900Z 17010KT 15SM FEW035 FEW230 20/09 A2974 RMK CU1CI0 SLP073

CYYG;2009-05-31 20:00;CYYG 312000Z 18009KT 15SM FEW030 FEW250 21/09 A2973 RMK CU1CI0 SLP068

CYYG;2009-05-31 21:00;CYYG 312100Z 15008KT 15SM FEW030 SCT250 21/11 A2971 RMK SC1CI1 SLP061

CYYG;2009-05-31 22:00;CYYG 312200Z 17009KT 15SM FEW030 BKN250 20/10 A2971 RMK SC1CI2 SLP060

CYYG;2009-05-31 23:00;CYYG 312300Z 17011G17KT 15SM FEW070 BKN300 19/09 A2972 RMK AC1CI2 SLP064

CYYG;2009-06-01 01:00;CYYG 010100Z 17008KT 15SM BKN300 16/10 A2974 RMK CI2 SLP070

CYYG;2009-06-01 02:00;CYYG 010200Z 16008KT 15SM BKN300 15/10 A2972 RMK CI2 SLP065

CYYG;2009-06-01 03:00;CYYG 010300Z 17009KT 15SM FEW140 BKN160 BKN300 15/10 A2969 RMK AC2AC4CI1 SLP055

CYYG;2009-06-01 04:00;CYYG 010400Z 18011KT 15SM BKN130 14/10 A2966 RMK AC7 SLP043

CYYG;2009-06-01 05:00;CYYG 010500Z 17014KT 15SM OVC110 13/11 A2964 RMK AC8 SLP037

CYYG;2009-06-01 05:31;CYYG 010531Z 18014KT 10SM -SHRA BKN032 OVC110 12/ RMK SC5AC3

CYYG;2009-06-01 06:00;CYYG 010600Z 17013G20KT 10SM -SHRA BKN020 OVC045 12/11 A2963 RMK SC6SC2 SLP034

CYYG;2009-06-01 07:00;CYYG 010700Z 17012G18KT 15SM -SHRA OVC007 12/12 A2960 RMK SF8 SLP024

CYYG;2009-06-01 08:00;CYYG 010800Z 18017KT 10SM SHRA OVC003 11/11 A2960 RMK SF8 SLP023

CYYG;2009-06-01 08:23;CYYG 010823Z 21012G17KT 15SM -SHRA FEW003 OVC054 12/ RERA RMK SF2SC6

CYYG;2009-06-01 09:00;CYYG 010900Z 16008KT 15SM -SHRA FEW015 BKN063 11/11 A2957 RERA RMK SC1SC6 VIS NE-E 5 SLP012

CYYG;2009-06-01 09:19;CYYG 010919Z 17007KT 15SM VCSH FEW015 FEW063TCU 11/ RMK SC1TCU2 SH NE-E

CYYG;2009-06-01 10:00;CYYG 011000Z 19015KT 15SM BKN030 11/10 A2957 RMK SC6 SLP012

CYYG;2009-06-01 11:00;CYYG 011100Z 23020G32KT 15SM BKN019 BKN099 09/07 A2958 RMK SC6AC2 SLP017

CYYG;2009-06-01 11:30;CYYG 011130Z 23019G26KT 8SM -SHRA SCT020 BKN031 BKN046 09/ RMK SC3SC2SC2

CYYG;2009-06-01 12:00;CYYG 011200Z 22016G22KT 4SM -SHRA BR SCT020 OVC031 08/07 A2960 RMK SC4SC4 SLP026

CYYG;2009-06-01 13:00;CYYG 011300Z 23015G26KT 15SM -SHRA OVC020 09/08 A2961 RMK SC8 SLP027

CYYG;2009-06-01 14:00;CYYG 011400Z 23023G32KT 15SM -SHRA BKN023 10/07 A2960 RMK SC7 PCPN VRY LGT/OCNL SLP026

CYYG;2009-06-01 14:19;CYYG 011419Z 25021G31KT 15SM BKN023 11/ RMK SC7

CYYG;2009-06-01 15:00;CYYG 011500Z 24024G31KT 15SM BKN028 11/06 A2961 RMK SC5 SLP028

CYYG;2009-06-01 16:00;CYYG 011600Z 24023G35KT 15SM SCT030 BKN087 11/04 A2962 RMK SC2AC2 SLP030

CYYG;2009-06-01 17:00;CYYG 011700Z 23020G34KT 15SM FEW030 BKN052 BKN091 12/04 A2963 RMK SC2SC3AC1 SLP033

CYYG;2009-06-01 17:24;CYYG 011724Z 25023G32KT 8SM -SHRA BKN034 OVC041 12/ RMK SC6SC2

CYYG;2009-06-01 18:00;CYYG 011800Z 25018G27KT 8SM -SHRA OVC038 11/07 A2965 RMK SC8 SLP040

CYYG;2009-06-01 19:00;CYYG 011900Z 25018G26KT 15SM -SHRA BKN051 11/06 A2965 RMK SC7 SLP040

CYYG;2009-06-01 20:00;CYYG 012000Z 25013G28KT 15SM -SHRA BKN055 BKN088 13/07 A2966 RMK SC6AC2 SLP045

CYYG;2009-06-01 21:00;CYYG 012100Z 25017G24KT 15SM -SHRA OVC053 13/08 A2968 RMK SC7 OCNL -SHRA SLP050

CYYG;2009-06-01 21:53;CYYG 012153Z 25012G20KT 15SM BKN053 13/ RMK SC6

CYYG;2009-06-01 22:00;CYYG 012200Z 25011G20KT 15SM BKN055 13/08 A2970 RMK SC6 SLP057

CYYG;2009-06-01 23:00;CYYG 012300Z 25013G18KT 15SM BKN050 BKN280 13/08 A2973 RMK SC7CI1 SLP067

CYYG;2009-06-02 00:00;CYYG 020000Z 25011KT 15SM FEW065 SCT330 11/08 A2976 RMK SC2CI0 SLP077

CYYG;2009-06-02 01:00;CYYG 020100Z 24014KT 15SM BKN078 BKN330 11/08 A2978 RMK AC6CI0 SLP086

CYYG;2009-06-02 02:00;CYYG 020200Z 25013KT 15SM BKN073 BKN330 11/08 A2979 RMK AC6CI0 SLP087

CYYG;2009-06-02 03:00;CYYG 020300Z 25011G17KT 15SM OVC073 12/07 A2979 RMK AC8 SLP088

CYYG;2009-06-02 04:00;CYYG 020400Z 25011G16KT 15SM OVC076 12/08 A2979 RMK AC8 SLP088

CYYG;2009-06-02 05:00;CYYG 020500Z 26011KT 15SM FEW075 OVC160 13/07 A2977 RMK AC2AC6 SLP080

CYYG;2009-06-02 06:00;CYYG 020600Z 24008KT 15SM OVC140 12/08 A2977 RMK AC8 SLP083

CYYG;2009-06-02 07:00;CYYG 020700Z 24008KT 15SM OVC120 11/08 A2977 RMK AC8 SLP080

CYYG;2009-06-02 08:00;CYYG 020800Z 25009G15KT 15SM OVC120 10/08 A2977 RMK AC8 SLP081

CYYG;2009-06-02 09:00;CYYG 020900Z 25008KT 15SM FEW040 OVC100 10/08 A2977 RMK CU1AC7 VIRGA SLP083

CYYG;2009-06-02 09:20;CYYG 020920Z 26007KT 15SM -SHRA FEW063 OVC090 11/ RMK CU2AC6

CYYG;2009-06-02 10:00;CYYG 021000Z 26008KT 15SM OVC080 11/07 A2978 RMK AC8 SLP086

CYYG;2009-06-02 11:00;CYYG 021100Z 27010KT 15SM SCT066 BKN080 12/08 A2978 RMK AC3AC4 SLP085

CYYG;2009-06-02 12:00;CYYG 021200Z 27007KT 15SM BKN062 BKN080 13/08 A2978 RMK SC5AC2 SLP086

CYYG;2009-06-02 13:00;CYYG 021300Z 25014G19KT 15SM FEW060 SCT080 BKN230 13/07 A2977 RMK CF2AC1CI1 SLP080

CYYG;2009-06-02 14:00;CYYG 021400Z 26012G18KT 15SM FEW040 BKN230 14/08 A2977 RMK CU2CI2 SLP083

CYYG;2009-06-02 15:00;CYYG 021500Z 27010G20KT 15SM FEW047 SCT080 BKN240 15/07 A2977 RMK CU2AC1CI2 SLP080

CYYG;2009-06-02 16:00;CYYG 021600Z 24011G16KT 15SM FEW040 SCT240 16/08 A2976 RMK CU2CI2 SLP079

CYYG;2009-06-02 17:00;CYYG 021700Z 23015KT 15SM FEW040 SCT240 17/08 A2975 RMK CU2CI2 SLP074

CYYG;2009-06-02 18:00;CYYG 021800Z 22013KT 15SM BKN040 BKN240 16/08 A2975 RMK SC5CI1 SLP074

CYYG;2009-06-02 19:00;CYYG 021900Z 26009G18KT 15SM SCT040 BKN070 17/09 A2975 RMK SC3AC3 SLP074

CYYG;2009-06-02 20:00;CYYG 022000Z 24009G16KT 15SM FEW040 BKN090 17/08 A2975 RMK SC2AC4 SLP075

CYYG;2009-06-02 21:00;CYYG 022100Z 25010KT 15SM FEW040 BKN080 17/08 A2976 RMK SC2AC4 SLP078

CYYG;2009-06-02 22:00;CYYG 022200Z 25010G15KT 15SM FEW040 BKN075 15/09 A2977 RMK SC2AC5 SLP082

CYYG;2009-06-02 23:00;CYYG 022300Z 26005KT 15SM FEW065 BKN110 15/10 A2978 RMK CU1AC5 SLP086

CYYG;2009-06-03 00:00;CYYG 030000Z 27004KT 15SM SCT100 13/10 A2981 RMK AC3 SLP095

CYYG;2009-06-03 01:00;CYYG 030100Z 25006KT 15SM FEW080 BKN100 12/10 A2984 RMK AC2AC2 SLP104

CYYG;2009-06-03 02:00;CYYG 030200Z 36003KT 15SM FEW085 10/08 A2986 RMK AC1 SLP113

CYYG;2009-06-03 03:00;CYYG 030300Z 34003KT 15SM FEW085 08/08 A2987 RMK AC1 SLP116

CYYG;2009-06-03 04:00;CYYG 030400Z 25005KT 15SM FEW085 09/08 A2987 RMK AC1 SLP115

CYYG;2009-06-03 05:00;CYYG 030500Z 25006KT 15SM FEW085 09/07 A2988 RMK AC1 SLP118

CYYG;2009-06-03 06:00;CYYG 030600Z 24006KT 15SM SKC 09/06 A2988 RMK SLP119

CYYG;2009-06-03 07:00;CYYG 030700Z 25005KT 15SM SKC 09/06 A2987 RMK SLP117

CYYG;2009-06-03 08:00;CYYG 030800Z 24006KT 15SM FEW150 08/06 A2988 RMK AC1 SLP118

CYYG;2009-06-03 09:00;CYYG 030900Z 24006KT 15SM FEW080 FEW150 08/08 A2989 RMK AC1AC2 SLP121

CYYG;2009-06-03 10:00;CYYG 031000Z 25006KT 15SM FEW080 BKN180 10/09 A2989 RMK AC1AC7 SLP122

CYYG;2009-06-03 11:00;CYYG 031100Z 25005KT 15SM BKN160 BKN300 11/08 A2990 RMK AC6CI0 SLP127

CYYG;2009-06-03 12:00;CYYG 031200Z 25005KT 15SM BKN150 BKN300 12/08 A2991 RMK AC6CI0 SLP129

CYYG;2009-06-03 13:00;CYYG 031300Z 27004KT 15SM SCT150 BKN300 14/08 A2991 RMK AC4CI1 SLP128

CYYG;2009-06-03 14:00;CYYG 031400Z 28005KT 15SM FEW030 FEW150 FEW210 16/07 A2990 RMK CU1AC1CI1 SLP126

CYYG;2009-06-03 15:00;CYYG 031500Z 18003KT 15SM FEW080 FEW210 17/09 A2990 RMK AC1CI1 SLP124

CYYG;2009-06-03 16:00;CYYG 031600Z 24008G16KT 15SM FEW050 SCT078 18/05 A2988 RMK SC1AC3 SLP119

CYYG;2009-06-03 17:00;CYYG 031700Z 27008KT 15SM FEW088 18/05 A2987 RMK AC2 SLP115

CYYG;2009-06-03 18:00;CYYG 031800Z 27012KT 15SM FEW085 18/06 A2985 RMK AC2 SLP108

CYYG;2009-06-03 19:00;CYYG 031900Z 25011G17KT 15SM FEW060 FEW300 19/07 A2983 RMK CU2CI1 SLP103

CYYG;2009-06-03 20:00;CYYG 032000Z 26010G17KT 15SM FEW058TCU FEW300 19/06 A2983 RMK TCU2CI1 SLP102

CYYG;2009-06-03 21:00;CYYG 032100Z 25011G17KT 15SM FEW058 19/07 A2983 RMK CU2 SLP101

CYYG;2009-06-03 22:00;CYYG 032200Z 25008G16KT 15SM FEW058 FEW300 18/07 A2983 RMK CU1CI1 SLP103

CYYG;2009-06-03 23:00;CYYG 032300Z 26009KT 15SM FEW060 FEW080 FEW300 17/08 A2985 RMK CU1AC2CI0 SLP109

CYYG;2009-06-04 00:00;CYYG 040000Z 26009KT 15SM FEW082 SCT270 15/07 A2987 RMK AC2CI0 SLP114

CYYG;2009-06-04 01:00;CYYG 040100Z 25008KT 15SM BKN085 BKN270 14/08 A2988 RMK AC5CI0 SLP120

CYYG;2009-06-04 02:00;CYYG 040200Z 25005KT 15SM FEW080 SCT100 BKN270 13/08 A2989 RMK CU1AC2CI0 SLP122

CYYG;2009-06-04 03:00;CYYG 040300Z 25007KT 15SM BKN100 13/08 A2989 RMK AC6 SLP123

CYYG;2009-06-04 04:00;CYYG 040400Z 26006KT 15SM FEW100 FEW270 12/08 A2989 RMK AC1CI0 SLP122

CYYG;2009-06-04 05:00;CYYG 040500Z 27004KT 15SM FEW100 SCT270 10/08 A2990 RMK AC1CI1 SLP127

CYYG;2009-06-04 06:00;CYYG 040600Z 28003KT 15SM FEW100 SCT270 08/06 A2990 RMK AC1CI1 SLP124

CYYG;2009-06-04 07:00;CYYG 040700Z 00000KT 15SM SCT090 08/08 A2990 RMK AC4 SLP126

CYYG;2009-06-04 08:00;CYYG 040800Z 00000KT 15SM FEW090 BKN270 06/06 A2991 RMK AC2CI2 SLP130

CYYG;2009-06-04 09:00;CYYG 040900Z 23005KT 15SM BKN099 BKN270 09/08 A2993 RMK AC5CI1 SLP135

CYYG;2009-06-04 10:00;CYYG 041000Z 27003KT 15SM SCT100 BKN270 11/09 A2994 RMK AC3CI1 SLP138

CYYG;2009-06-04 11:00;CYYG 041100Z 23005KT 15SM FEW090 FEW270 13/09 A2993 RMK AC1CI0 SLP137

CYYG;2009-06-04 12:00;CYYG 041200Z 17004KT 15SM FEW090 FEW270 16/08 A2993 RMK AC1CI1 SLP136

CYYG;2009-06-04 13:00;CYYG 041300Z 17007KT 15SM FEW090 FEW270 17/04 A2994 RMK AC1CI1 SLP139

CYYG;2009-06-04 14:00;CYYG 041400Z CCA 18007KT 15SM FEW050 FEW090 FEW270 17/06 A2993 RMK CU1AC1CI0 SLP134

CYYG;2009-06-04 15:00;CYYG 041500Z 20009KT 15SM FEW050 FEW090 FEW270 18/10 A2992 RMK CU1AC1CI0 SLP131

CYYG;2009-06-04 16:00;CYYG 041600Z 24010KT 15SM FEW050 BKN270 19/05 A2990 RMK CU1CI1 SLP125

CYYG;2009-06-04 17:00;CYYG 041700Z 27010G16KT 15SM FEW100 BKN270 20/06 A2989 RMK AC2CI1 SLP123

CYYG;2009-06-04 18:00;CYYG 041800Z 27011G16KT 15SM FEW050 BKN270 20/06 A2989 RMK CU2CI1 SLP121

CYYG;2009-06-04 19:00;CYYG 041900Z 25009KT 15SM FEW068 BKN270 21/07 A2988 RMK ACC2CI2 SH DIST W SLP119

CYYG;2009-06-04 19:36;CYYG 041936Z 25021G27KT 15SM -SHRA BKN068TCU BKN270 18/ RMK TCU5CI2

CYYG;2009-06-04 20:00;CYYG 042000Z 27009KT 15SM -SHRA SCT068TCU BKN270 18/07 A2990 RMK TCU3CI1 SLP124

CYYG;2009-06-04 20:11;CYYG 042011Z 25008KT 15SM VCSH SCT068TCU BKN270 19/ RMK TCU3CI1 SH N-E

CYYG;2009-06-04 21:00;CYYG 042100Z 25008KT 15SM SCT073 BKN270 19/08 A2989 RMK ACC3CI1 SLP123

CYYG;2009-06-04 22:00;CYYG 042200Z 01007KT 15SM FEW058 FEW073 SCT270 16/09 A2991 RMK CU1ACC1CI1 SLP129

CYYG;2009-06-04 23:00;CYYG 042300Z 36008KT 15SM FEW060 FEW080 SCT250 14/07 A2993 RMK SC1AC2CI1 SLP137

CYYG;2009-06-05 00:00;CYYG 050000Z 07003KT 15SM FEW100 FEW250 11/06 A2996 RMK AC1CI1 SLP146

CYYG;2009-06-05 01:00;CYYG 050100Z 35004KT 15SM FEW100 FEW250 08/06 A2998 RMK AC1CI1 SLP154

CYYG;2009-06-05 02:00;CYYG 050200Z 36003KT 15SM FEW220 08/06 A2999 RMK CI1 SLP157

CYYG;2009-06-05 03:00;CYYG 050300Z 00000KT 15SM FEW250 07/06 A3000 RMK CI1 SLP161

CYYG;2009-06-05 04:00;CYYG 050400Z 00000KT 15SM SKC 07/06 A3001 RMK SLP164

CYYG;2009-06-05 05:00;CYYG 050500Z 36002KT 15SM SKC 04/03 A3001 RMK SLP165

CYYG;2009-06-05 06:00;CYYG 050600Z 09002KT 15SM SKC 05/05 A3002 RMK SLP167

CYYG;2009-06-05 07:00;CYYG 050700Z 15003KT 15SM FEW250 07/07 A3002 RMK CI1 SLP167

CYYG;2009-06-05 08:00;CYYG 050800Z 18003KT 15SM MIFG FEW250 08/08 A3002 RMK CI1 SLP166

CYYG;2009-06-05 09:00;CYYG 050900Z 17003KT 15SM MIFG FEW250 07/07 A3003 RMK CI1 SLP169

CYYG;2009-06-05 10:00;CYYG 051000Z 20005KT 15SM FEW250 09/08 A3004 RMK CI1 SLP175

CYYG;2009-06-05 11:00;CYYG 051100Z 20006KT 15SM FEW250 12/08 A3005 RMK CI1 SLP176

CYYG;2009-06-05 12:00;CYYG 051200Z 20009KT 15SM FEW250 14/06 A3005 RMK CI1 SLP178

CYYG;2009-06-05 13:00;CYYG 051300Z 19010KT 15SM FEW250 15/05 A3005 RMK CI1 SLP177

CYYG;2009-06-05 14:00;CYYG 051400Z 21011KT 15SM FEW250 17/07 A3005 RMK CI1 SLP176

CYYG;2009-06-05 15:00;CYYG 051500Z 22009KT 15SM FEW030 FEW250 19/08 A3005 RMK CF1CI1 SLP176

CYYG;2009-06-05 16:00;CYYG 051600Z 19013KT 15SM FEW250 20/07 A3004 RMK CI1 SLP173

CYYG;2009-06-05 17:00;CYYG 051700Z 19011G17KT 15SM FEW040 FEW100 FEW250 21/07 A3003 RMK CU1AC1CI1 SLP170

CYYG;2009-06-05 18:00;CYYG 051800Z 22015KT 15SM FEW040 SCT250 22/08 A3002 RMK CU1CI1 SLP166

CYYG;2009-06-05 19:00;CYYG 051900Z 23015KT 15SM FEW030 SCT250 22/08 A3001 RMK CU1CI1 SLP164

CYYG;2009-06-05 20:00;CYYG 052000Z 24009G16KT 15SM FEW025 BKN250 22/09 A3001 RMK SC1CI2 SLP164

CYYG;2009-06-05 21:00;CYYG 052100Z 25012G18KT 15SM BKN250 21/09 A3000 RMK CI3 SLP160

CYYG;2009-06-05 22:00;CYYG 052200Z 25010G16KT 15SM BKN250 20/09 A3001 RMK CI4 SLP161

CYYG;2009-06-05 23:00;CYYG 052300Z 24010KT 15SM FEW200 OVC250 18/09 A3001 RMK CS2CI2 SLP163

CYYG;2009-06-06 00:00;CYYG 060000Z 23006KT 15SM OVC250 17/08 A3001 RMK CI4 SLP163

CYYG;2009-06-06 01:00;CYYG 060100Z 22006KT 15SM OVC250 16/10 A3001 RMK CI4 SLP164

CYYG;2009-06-06 02:00;CYYG 060200Z 22006KT 15SM BKN250 15/11 A3001 RMK CI3 SLP162

CYYG;2009-06-06 03:00;CYYG 060300Z 21006KT 15SM BKN250 14/11 A3001 RMK CI3 SLP163

CYYG;2009-06-06 04:00;CYYG 060400Z 21006KT 15SM OVC250 14/11 A3001 RMK CI6 SLP163

CYYG;2009-06-06 05:00;CYYG 060500Z 21005KT 15SM OVC240 14/11 A3001 RMK CI6 SLP163

CYYG;2009-06-06 06:00;CYYG 060600Z 18006KT 15SM OVC220 13/11 A3000 RMK CI8 SLP159

CYYG;2009-06-06 07:00;CYYG 060700Z 18004KT 15SM OVC210 12/11 A2999 RMK CI8 SLP155

CYYG;2009-06-06 08:00;CYYG 060800Z 18005KT 15SM OVC210 12/11 A2998 RMK CI6 SLP152

CYYG;2009-06-06 09:00;CYYG 060900Z 19006KT 15SM OVC220 12/10 A2997 RMK CI7 SLP150

CYYG;2009-06-06 10:00;CYYG 061000Z 17006KT 15SM OVC200 13/09 A2996 RMK CS7 SLP146

CYYG;2009-06-06 11:00;CYYG 061100Z 18006KT 15SM OVC180 13/09 A2995 RMK CS8 SLP143

CYYG;2009-06-06 12:00;CYYG 061200Z 15004KT 15SM OVC200 14/09 A2994 RMK CS8 SLP138

CYYG;2009-06-06 13:00;CYYG 061300Z 16003KT 15SM BKN170 14/10 A2993 RMK AS7 SLP135

CYYG;2009-06-06 14:00;CYYG 061400Z 16006KT 15SM FEW150 BKN250 15/10 A2993 RMK AS2CI2 SLP135

CYYG;2009-06-06 15:00;CYYG 061500Z 18006KT 15SM FEW200 17/11 A2992 RMK CI2 SLP131

CYYG;2009-06-06 16:00;CYYG 061600Z 18004KT 15SM FEW200 17/11 A2989 RMK CI2 SLP123

CYYG;2009-06-06 17:00;CYYG 061700Z 18005KT 15SM FEW025 FEW200 18/11 A2987 RMK SC1CI0 SLP114

CYYG;2009-06-06 18:00;CYYG 061800Z 19006KT 15SM FEW025 FEW200 18/11 A2985 RMK SC1CI1 SLP110

CYYG;2009-06-06 19:00;CYYG 061900Z 18007KT 15SM FEW025 SCT130 18/11 A2985 RMK SC1AC2 SLP107

CYYG;2009-06-06 20:00;CYYG 062000Z 19009KT 15SM FEW025 BKN120 17/11 A2984 RMK SC1AC4 SLP106

CYYG;2009-06-06 21:00;CYYG 062100Z 20013KT 15SM FEW025 SCT120 16/11 A2984 RMK SC1AC2 SLP105

CYYG;2009-06-06 22:00;CYYG 062200Z 19011KT 15SM FEW025 FEW120 15/11 A2983 RMK SC1AC1 SLP103

CYYG;2009-06-06 23:00;CYYG 062300Z 19008KT 15SM FEW025 FEW110 SCT230 14/10 A2985 RMK SC1AC2CI0 SLP109

CYYG;2009-06-07 00:00;CYYG 070000Z 17007KT 15SM FEW020 FEW110 13/10 A2984 RMK SC1AC2 SLP105

CYYG;2009-06-07 01:00;CYYG 070100Z 17008KT 15SM FEW110 13/11 A2982 RMK AC2 SLP099

CYYG;2009-06-07 02:00;CYYG 070200Z 19008KT 15SM FEW092 13/11 A2982 RMK AC2 SLP099

CYYG;2009-06-07 03:00;CYYG 070300Z 16014KT 15SM BKN095 14/10 A2981 RMK AC6 SLP096

CYYG;2009-06-07 04:00;CYYG 070400Z 18010KT 15SM BKN084 14/11 A2982 RMK AC7 SLP099

CYYG;2009-06-07 05:00;CYYG 070500Z 20009KT 15SM BKN024 OVC080 14/11 A2982 RMK SC6AC2 SLP100

CYYG;2009-06-07 05:13;CYYG 070513Z 22013KT 15SM -SHRA OVC021 13/ RMK SC8

CYYG;2009-06-07 06:00;CYYG 070600Z 23006KT 15SM -SHRA SCT020 OVC061 12/12 A2982 RMK SC3SC5 SLP100

CYYG;2009-06-07 06:55;CYYG 070655Z 20008KT 15SM FEW020 BKN130 12/ RMK SC2AC4

CYYG;2009-06-07 07:00;CYYG 070700Z 21009KT 15SM FEW020 BKN130 12/12 A2981 RMK SC2AC4 SLP095

CYYG;2009-06-07 08:00;CYYG 070800Z 23007KT 15SM FEW020 SCT130 11/11 A2982 RMK SC1AC2 SLP097

CYYG;2009-06-07 09:00;CYYG 070900Z 21005KT 15SM FEW020 FEW130 SCT240 11/11 A2982 RMK SC1AC1CI2 SLP097

CYYG;2009-06-07 09:28;CYYG 070928Z 22008KT 15SM BKN007 BKN240 12/ RMK SF5CI1

CYYG;2009-06-07 10:00;CYYG 071000Z 22009KT 15SM BKN007 12/12 A2981 RMK SF6 SLP094

CYYG;2009-06-07 10:08;CYYG 071008Z 22009KT 15SM BKN005 12/ RMK SF6

CYYG;2009-06-07 11:00;CYYG 071100Z 24008KT 15SM OVC005 12/12 A2982 RMK SF8 SLP098

CYYG;2009-06-07 12:00;CYYG 071200Z 25009KT 15SM BKN008 13/12 A2983 RMK SF7 SLP101

CYYG;2009-06-07 12:49;CYYG 071249Z 26005KT 15SM BKN011 14/ RMK SC7

CYYG;2009-06-07 13:00;CYYG 071300Z 27009KT 15SM BKN012 14/12 A2982 RMK SC7 SLP100

CYYG;2009-06-07 13:29;CYYG 071329Z 25005KT 15SM BKN015 15/ RMK SC7

CYYG;2009-06-07 14:00;CYYG 071400Z 25006KT 15SM BKN019 15/12 A2982 RMK SC6 SLP097

CYYG;2009-06-07 15:00;CYYG 071500Z 28008KT 15SM SCT025 17/12 A2981 RMK SC4 SLP094

CYYG;2009-06-07 16:00;CYYG 071600Z 28013KT 15SM FEW030 SCT290 17/09 A2980 RMK SC2CI1 SLP093

CYYG;2009-06-07 17:00;CYYG 071700Z 28012G17KT 15SM FEW030 FEW054 SCT290 18/09 A2980 RMK SC2SC1CI1 SLP091

CYYG;2009-06-07 18:00;CYYG 071800Z 02009KT 15SM SCT039 SCT290 16/08 A2980 RMK SC3CI1 SLP091

CYYG;2009-06-07 19:00;CYYG 071900Z 04005KT 15SM SCT039 BKN290 17/08 A2979 RMK SC3CI2 SLP089

CYYG;2009-06-07 20:00;CYYG 072000Z 04006KT 15SM FEW039 BKN070 17/08 A2979 RMK SC2AC3 SLP089

CYYG;2009-06-07 21:00;CYYG 072100Z 04006KT 15SM FEW039 BKN100 16/08 A2979 RMK SC2AC3 SLP089

CYYG;2009-06-07 21:41;CYYG 072141Z 10002KT 15SM -SHRA BKN050 16/ RMK SC6

CYYG;2009-06-07 22:00;CYYG 072200Z 35004KT 15SM VCSH BKN073 15/11 A2980 RMK AC6 SLP092

CYYG;2009-06-07 23:00;CYYG 072300Z 02008KT 15SM SCT070 BKN250 13/07 A2982 RMK AC3CI2 SLP100

CYYG;2009-06-08 00:00;CYYG 080000Z 03005KT 15SM SCT095 BKN250 11/06 A2984 RMK AC4CI1 SLP104

CYYG;2009-06-08 01:00;CYYG 080100Z 01004KT 15SM BKN091 10/07 A2986 RMK AC6 SLP113

CYYG;2009-06-08 02:00;CYYG 080200Z 36002KT 15SM BKN085 09/07 A2987 RMK AC6 SLP116

CYYG;2009-06-08 03:00;CYYG 080300Z 22003KT 15SM BKN080 BKN240 09/07 A2987 RMK AC6CI0 SLP116

CYYG;2009-06-08 04:00;CYYG 080400Z 24005KT 15SM OVC079 09/07 A2986 RMK AC6 SLP111

CYYG;2009-06-08 05:00;CYYG 080500Z 28005KT 15SM BKN067 OVC240 08/06 A2986 RMK AC6CI0 SLP112

CYYG;2009-06-08 06:00;CYYG 080600Z 27006KT 15SM SCT059 09/06 A2986 RMK SC4 SLP112

CYYG;2009-06-08 07:00;CYYG 080700Z 27006KT 15SM FEW059 08/05 A2986 RMK SC1 SLP112

CYYG;2009-06-08 08:00;CYYG 080800Z 27006KT 15SM FEW059 FEW240 08/05 A2986 RMK SC1CI0 SLP111

CYYG;2009-06-08 09:00;CYYG 080900Z 25007KT 15SM FEW059 FEW240 08/06 A2986 RMK SC1CI0 SC TR SLP111

CYYG;2009-06-08 10:00;CYYG 081000Z 27006KT 15SM FEW059 FEW240 10/06 A2986 RMK SC1CI0 SC TR SLP112

CYYG;2009-06-08 11:00;CYYG 081100Z 27006KT 15SM FEW060 13/09 A2986 RMK SC1 SLP112

CYYG;2009-06-08 12:00;CYYG 081200Z 29009KT 15SM FEW060 14/07 A2985 RMK SC1 SLP110

CYYG;2009-06-08 13:00;CYYG 081300Z 28006KT 15SM FEW045 BKN075 15/06 A2985 RMK CU2AC4 SLP110

CYYG;2009-06-08 14:00;CYYG 081400Z 29009KT 15SM FEW045 BKN075 15/07 A2985 RMK CU2AC4 SLP108

CYYG;2009-06-08 15:00;CYYG 081500Z 35008KT 15SM BKN050 BKN075 14/08 A2985 RMK CU5AC2 SLP110

CYYG;2009-06-08 16:00;CYYG 081600Z 36009KT 15SM SCT055 BKN080 13/08 A2986 RMK CU3AC4 SHS E SLP111

CYYG;2009-06-08 17:00;CYYG 081700Z 36011KT 15SM SCT055 BKN080 13/07 A2987 RMK CU3AC3 SLP115

CYYG;2009-06-08 18:00;CYYG 081800Z 36008G15KT 15SM -SHRA FEW050 BKN075 12/07 A2989 RMK CU2AC5 SLP122

CYYG;2009-06-08 18:31;CYYG 081831Z 35011G17KT 15SM FEW050 BKN077 12/ RMK CU2AC6

CYYG;2009-06-08 19:00;CYYG 081900Z 35010G19KT 15SM FEW050 BKN077 13/05 A2990 RMK CU2AC6 SLP125

CYYG;2009-06-08 20:00;CYYG 082000Z 34013KT 15SM FEW045 FEW060 SCT150 13/05 A2990 RMK CU1SC1AC2 SLP125

CYYG;2009-06-08 21:00;CYYG 082100Z 36009G16KT 15SM FEW045 FEW060 FEW150 13/04 A2991 RMK CU1SC1AC1 SLP131

CYYG;2009-06-08 22:00;CYYG 082200Z 36009KT 15SM FEW045 FEW150 12/04 A2993 RMK CU1AC1 SLP136

CYYG;2009-06-08 23:00;CYYG 082300Z 34005KT 15SM FEW045 FEW150 12/05 A2994 RMK CU1AC1 SLP139

CYYG;2009-06-09 00:00;CYYG 090000Z 35004KT 15SM FEW060 09/06 A2995 RMK SC1 SLP143

CYYG;2009-06-09 01:00;CYYG 090100Z 30002KT 15SM FEW060 08/06 A2997 RMK SC1 SLP149

CYYG;2009-06-09 02:00;CYYG 090200Z 32004KT 15SM FEW060 05/04 A2998 RMK SC1 SLP155

CYYG;2009-06-09 03:00;CYYG 090300Z 28003KT 15SM FEW055 SCT076 07/07 A2998 RMK SC2AC2 SLP154

CYYG;2009-06-09 04:00;CYYG 090400Z 27004KT 15SM FEW055 BKN076 08/07 A2998 RMK SC2AC3 SLP153

CYYG;2009-06-09 05:00;CYYG 090500Z 26005KT 15SM SCT055 BKN077 09/07 A2998 RMK SC3AC2 SLP155

CYYG;2009-06-09 06:00;CYYG 090600Z 28004KT 15SM SCT053 BKN077 08/07 A3000 RMK SC3AC3 SLP159

CYYG;2009-06-09 07:00;CYYG 090700Z 32002KT 15SM SCT053 BKN075 06/05 A3001 RMK SC3AC2 SLP162

CYYG;2009-06-09 08:00;CYYG 090800Z 33004KT 15SM FEW070 04/04 A3002 RMK AC2 SLP166

CYYG;2009-06-09 09:00;CYYG 090900Z 34004KT 15SM FEW070 06/05 A3003 RMK AC1 SLP170

CYYG;2009-06-09 10:00;CYYG 091000Z 36004KT 15SM FEW015 09/08 A3005 RMK SC1 SLP177

CYYG;2009-06-09 11:00;CYYG 091100Z 04008KT 15SM SCT018 11/08 A3007 RMK SC4 SLP185

CYYG;2009-06-09 11:11;CYYG 091111Z 03010KT 15SM BKN015 10/ RMK SC6

CYYG;2009-06-09 11:48;CYYG 091148Z 04013KT 15SM BKN013 10/ RMK SC6

CYYG;2009-06-09 12:00;CYYG 091200Z 04011G16KT 15SM BKN015 10/08 A3009 RMK SC6 SLP191

CYYG;2009-06-09 13:00;CYYG 091300Z 05010G15KT 15SM FEW015 BKN029 11/07 A3012 RMK CF2SC5 SLP200

CYYG;2009-06-09 14:00;CYYG 091400Z 05013KT 15SM FEW015 BKN030 11/05 A3013 RMK CU2SC5 SLP203

CYYG;2009-06-09 15:00;CYYG 091500Z 05013KT 15SM FEW015 BKN045 11/07 A3014 RMK CU2SC6 SLP206

CYYG;2009-06-09 16:00;CYYG 091600Z 05011G18KT 15SM FEW015 BKN050 12/07 A3015 RMK CU2SC5 SLP212

CYYG;2009-06-09 17:00;CYYG 091700Z 06012KT 15SM SCT050 BKN300 12/06 A3017 RMK SC3CI2 SLP218

CYYG;2009-06-09 18:00;CYYG 091800Z 04013KT 15SM FEW022 FEW050 BKN300 12/06 A3016 RMK CU1SC1CI2 SLP215

CYYG;2009-06-09 19:00;CYYG 091900Z 05013KT 15SM FEW020 BKN300 11/06 A3017 RMK CU2CI2 SLP218

CYYG;2009-06-09 20:00;CYYG 092000Z 06013KT 15SM FEW020 BKN300 10/06 A3017 RMK CU2CI2 SLP217

CYYG;2009-06-09 21:00;CYYG 092100Z 02009KT 15SM BKN018 BKN300 09/06 A3018 RMK SC5CI2 SLP221

CYYG;2009-06-09 22:00;CYYG 092200Z 04007KT 15SM BKN019 BKN300 09/06 A3020 RMK SC6CI1 SLP228

CYYG;2009-06-09 23:00;CYYG 092300Z 07007KT 15SM BKN017 08/06 A3020 RMK SC7 SLP230

CYYG;2009-06-10 00:00;CYYG 100000Z 07009KT 15SM OVC017 08/05 A3019 RMK SC8 SLP224

CYYG;2009-06-10 01:00;CYYG 100100Z 06006KT 15SM BKN017 OVC210 07/05 A3019 RMK SC6CI2 SLP223

CYYG;2009-06-10 02:00;CYYG 100200Z 07006KT 15SM SCT017 OVC200 06/05 A3019 RMK SC3CI4 SLP223

CYYG;2009-06-10 03:00;CYYG 100300Z 07005KT 15SM FEW017 OVC200 06/05 A3019 RMK SC2CI5 SLP224

CYYG;2009-06-10 04:00;CYYG 100400Z 13003KT 15SM FEW017 OVC190 06/05 A3019 RMK SC2CI6 SLP225

CYYG;2009-06-10 05:00;CYYG 100500Z 12002KT 15SM OVC160 06/05 A3020 RMK AC6 SLP229

CYYG;2009-06-10 06:00;CYYG 100600Z 10003KT 15SM OVC160 06/05 A3020 RMK AC6 SLP227

CYYG;2009-06-10 07:00;CYYG 100700Z 07003KT 15SM OVC160 06/06 A3019 RMK AC8 SLP223

CYYG;2009-06-10 08:00;CYYG 100800Z 09003KT 15SM OVC130 06/05 A3019 RMK AC7 SLP225

CYYG;2009-06-10 09:00;CYYG 100900Z 12003KT 15SM OVC130 06/06 A3019 RMK AC7 SLP225

CYYG;2009-06-10 10:00;CYYG 101000Z 11004KT 15SM FEW012 OVC110 07/06 A3019 RMK SC1AC6 SLP225

CYYG;2009-06-10 11:00;CYYG 101100Z 12005KT 15SM FEW011 BKN014 OVC110 08/07 A3019 RMK SC2SC5AC2 SLP224

CYYG;2009-06-10 11:43;CYYG 101143Z 15005KT 15SM SCT009 BKN015 OVC110 09/ RMK SF4SC3AC1

CYYG;2009-06-10 12:00;CYYG 101200Z 15007KT 15SM BKN009 BKN015 OVC110 09/08 A3018 RMK SF5SC2AC2 SLP221

CYYG;2009-06-10 13:00;CYYG 101300Z 15007KT 15SM FEW009 BKN015 OVC110 10/08 A3019 RMK SF1SC5AC2 SLP223

CYYG;2009-06-10 14:00;CYYG 101400Z 20006KT 15SM SCT015 BKN052 OVC120 11/08 A3019 RMK SC3SC3AC2 SLP225

CYYG;2009-06-10 15:00;CYYG 101500Z 18005KT 15SM BKN017 OVC051 11/08 A3020 RMK SC6SC2 SLP228

CYYG;2009-06-10 16:00;CYYG 101600Z 18007KT 15SM BKN018 OVC051 12/08 A3019 RMK SC6SC2 SLP225

CYYG;2009-06-10 17:00;CYYG 101700Z 18006KT 15SM SCT020 BKN050 OVC085 12/08 A3019 RMK SC3SC2AC2 SLP223

CYYG;2009-06-10 18:00;CYYG 101800Z 17008KT 15SM FEW020 SCT050 OVC083 13/08 A3018 RMK SC2SC2AC4 SLP221

CYYG;2009-06-10 19:00;CYYG 101900Z 17007KT 15SM FEW024 OVC078 13/08 A3017 RMK SC2AC6 SLP218

CYYG;2009-06-10 20:00;CYYG 102000Z 18006KT 15SM FEW025 BKN035 OVC078 13/08 A3017 RMK SC2SC4AC2 SLP217

CYYG;2009-06-10 21:00;CYYG 102100Z 18006KT 15SM VCSH FEW025 BKN035 OVC080 13/07 A3017 RMK SC1SC6AC1 SLP216

CYYG;2009-06-10 22:00;CYYG 102200Z 16005KT 15SM FEW035 OVC041 13/08 A3017 RMK SC2SC6 SLP218

CYYG;2009-06-10 23:00;CYYG 102300Z 15006KT 15SM BKN037 OVC062 13/08 A3018 RMK SC5SC3 SLP221

CYYG;2009-06-11 00:00;CYYG 110000Z 15008KT 15SM SCT037 BKN062 OVC080 12/08 A3018 RMK SC3SC2AC2 SLP221

CYYG;2009-06-11 01:00;CYYG 110100Z 15011G16KT 15SM FEW035 BKN090 OVC120 11/07 A3019 RMK SC2AC3AC2 SLP223

CYYG;2009-06-11 02:00;CYYG 110200Z 17013KT 15SM BKN085 OVC120 11/07 A3020 RMK AC6AC2 SLP226

CYYG;2009-06-11 03:00;CYYG 110300Z 16014KT 15SM BKN075 OVC110 10/06 A3018 RMK AC6AC2 SLP220

CYYG;2009-06-11 04:00;CYYG 110400Z 17012KT 15SM SCT075 OVC110 10/07 A3017 RMK AC3AC5 SLP219

CYYG;2009-06-11 05:00;CYYG 110500Z 17010KT 15SM SCT016 SCT075 OVC110 10/07 A3017 RMK SC3AC1AC4 SLP219

CYYG;2009-06-11 06:00;CYYG 110600Z 16009KT 15SM SCT016 BKN060 OVC100 10/08 A3016 RMK SC4SC2AC2 SLP214

CYYG;2009-06-11 07:00;CYYG 110700Z 15008KT 15SM BKN012 BKN050 OVC090 10/08 A3016 RMK SC5SC2AC2 SLP215

CYYG;2009-06-11 08:00;CYYG 110800Z 15007KT 15SM OVC011 10/09 A3015 RMK SC8 SLP210

CYYG;2009-06-11 09:00;CYYG 110900Z 14009KT 15SM OVC010 10/09 A3015 RMK SC8 SLP211

CYYG;2009-06-11 09:33;CYYG 110933Z 13007KT 4SM BR OVC008 09/ RMK SF8

CYYG;2009-06-11 09:45;CYYG 110945Z 13007KT 2SM -DZ BR FEW005 OVC008 09/ RMK SF2SF6

CYYG;2009-06-11 10:00;CYYG 111000Z 13008KT 2SM -DZ BR OVC005 09/09 A3014 RMK SF8 SLP208

CYYG;2009-06-11 10:32;CYYG 111032Z 14007KT 2 1/2SM -DZ BR BKN003 OVC008 09/ RMK SF6SF2

CYYG;2009-06-11 11:00;CYYG 111100Z 12008KT 6SM -DZ BR BKN003 BKN006 OVC020 09/09 A3013 RMK SF6SF1SC1 SLP203

CYYG;2009-06-11 11:42;CYYG 111142Z 13009KT 12SM FEW003 SCT007 OVC020 10/ RMK SF2SF2SC5 INTMT -DZ

CYYG;2009-06-11 12:00;CYYG 111200Z 13007KT 15SM SCT008 OVC020 10/10 A3011 RMK SF3SC5 SLP198

CYYG;2009-06-11 12:51;CYYG 111251Z 14011KT 15SM -SHRA SCT009 OVC022 11/ RMK SF3SC5

CYYG;2009-06-11 13:00;CYYG 111300Z 15011G16KT 15SM -SHRA BKN009 OVC020 11/10 A3010 RMK SF5SC3 SLP193

CYYG;2009-06-11 13:45;CYYG 111345Z 15011KT 2 1/2SM -SHRA BR BKN010 OVC027 11/ RMK SC6SC2

CYYG;2009-06-11 14:00;CYYG 111400Z 15012KT 10SM -SHRA SCT010 OVC023 11/11 A3009 RMK SF3SC5 SLP191

CYYG;2009-06-11 15:00;CYYG 111500Z 15010G15KT 8SM -SHRA FEW012 OVC021 12/12 A3007 RMK SF2SC6 SLP183

CYYG;2009-06-11 16:00;CYYG 111600Z 15011KT 12SM -SHRA FEW012 OVC020 13/13 A3005 RMK CU1SC7 SLP177

CYYG;2009-06-11 17:00;CYYG 111700Z 16015KT 15SM -SHRA FEW015 OVC020 14/13 A3003 RMK CU1SC7 SLP170

CYYG;2009-06-11 18:00;CYYG 111800Z 17013G18KT 15SM -SHRA OVC018 14/14 A3003 RMK SC8 SLP169

CYYG;2009-06-11 18:46;CYYG 111846Z 17013KT 15SM OVC018 15/ RMK SC8

CYYG;2009-06-11 19:00;CYYG 111900Z 17012KT 15SM OVC018 15/14 A3002 RMK SC8 SLP167

CYYG;2009-06-11 20:00;CYYG 112000Z 18011KT 15SM OVC016 15/14 A3001 RMK SC8 SLP163

CYYG;2009-06-11 20:26;CYYG 112026Z 18012G17KT 15SM OVC014 15/ RMK SC8

CYYG;2009-06-11 21:00;CYYG 112100Z 18013KT 15SM OVC012 15/14 A3001 RMK SC8 SLP162

CYYG;2009-06-11 22:00;CYYG 112200Z 18011KT 15SM OVC011 15/14 A3000 RMK SC8 SLP161

CYYG;2009-06-11 23:00;CYYG 112300Z 17009KT 15SM OVC014 15/15 A3000 RMK SC8 SLP160

CYYG;2009-06-12 00:00;CYYG 120000Z 16010KT 15SM OVC014 15/14 A2999 RMK SC8 SLP156

CYYG;2009-06-12 01:00;CYYG 120100Z 17008KT 15SM OVC010 14/14 A3000 RMK SC8 SLP160

CYYG;2009-06-12 01:16;CYYG 120116Z 17011KT 10SM -SHRA OVC010 14/ RMK SF8

CYYG;2009-06-12 02:00;CYYG 120200Z 18009KT 10SM -SHRA OVC006 14/14 A3000 RMK SF8 SLP160

CYYG;2009-06-12 03:00;CYYG 120300Z 17010KT 8SM -SHRA OVC008 14/14 A2998 RMK SF8 SLP155

CYYG;2009-06-12 03:31;CYYG 120331Z 18007KT 10SM -DZ OVC009 14/ RMK SF8

CYYG;2009-06-12 04:00;CYYG 120400Z 17006KT 10SM -DZ OVC009 14/14 A2999 RMK SF8 SLP157

CYYG;2009-06-12 05:00;CYYG 120500Z 16008KT 10SM -DZ OVC010 14/14 A2998 RMK SF8 SLP152

CYYG;2009-06-12 06:00;CYYG 120600Z 18008KT 10SM -DZ OVC006 14/14 A2996 RMK SF8 SLP147

CYYG;2009-06-12 07:00;CYYG 120700Z 19006KT 6SM -DZ BR OVC005 14/14 A2996 RMK SF8 SLP145

CYYG;2009-06-12 08:00;CYYG 120800Z 17006KT 5SM -DZ BR OVC004 14/14 A2994 RMK SF8 SLP140

CYYG;2009-06-12 08:50;CYYG 120850Z 17005KT 5SM RA BR OVC003 14/ RMK SF8

CYYG;2009-06-12 09:00;CYYG 120900Z 17005KT 5SM RA BR BKN003 OVC011 14/14 A2993 RMK SF7SC1 SLP135

CYYG;2009-06-12 09:19;CYYG 120919Z 18006KT 5SM -RA BR OVC008 15/ RMK SF8 RERA

CYYG;2009-06-12 09:39;CYYG 120939Z 17007KT 1 1/2SM -DZ BR OVC002 15/ RMK SF8 RERA

CYYG;2009-06-12 10:00;CYYG 121000Z 16005KT 1SM R03/P6000FT/N -DZ BR OVC002 15/15 A2992 RMK SF8 RERA SLP132

CYYG;2009-06-12 11:00;CYYG 121100Z 18006KT 1SM R03/P6000FT/N BR OVC002 15/15 A2991 RMK SF8 SLP128

CYYG;2009-06-12 11:28;CYYG 121128Z 16008KT 1 1/2SM -DZ BR OVC002 15/ RMK SF8

CYYG;2009-06-12 12:00;CYYG 121200Z 16008KT 6SM -DZ BR BKN002 OVC007 15/15 A2989 RMK SF7SF1 SLP123

CYYG;2009-06-12 13:00;CYYG 121300Z 18009KT 3SM -DZ BR OVC002 16/16 A2987 RMK SF8 SLP117

CYYG;2009-06-12 13:32;CYYG 121332Z 17009KT 1 1/2SM -DZ BR OVC002 16/ RMK SF8

CYYG;2009-06-12 13:51;CYYG 121351Z 18009KT 3SM BR BKN002 OVC007 16/ RMK SF7SF1

CYYG;2009-06-12 14:00;CYYG 121400Z 18010KT 3SM BR BKN002 OVC007 16/16 A2985 RMK SF7SF1 SLP109

CYYG;2009-06-12 14:46;CYYG 121446Z 18010KT 3SM -DZ BR BKN004 OVC010 16/ RMK SF6SC2

CYYG;2009-06-12 15:00;CYYG 121500Z 18010KT 3SM -DZ BR BKN003 OVC010 16/16 A2984 RMK SF7SC1 SLP105

CYYG;2009-06-12 15:14;CYYG 121514Z 17010KT 3SM -RA BR BKN002 OVC009 16/ RMK SF7SC1

CYYG;2009-06-12 16:00;CYYG 121600Z 18011KT 3SM -RA BR BKN003 OVC027 17/17 A2981 RMK SF6SC2 SLP095

CYYG;2009-06-12 17:00;CYYG 121700Z 17007KT 1SM R03/4000VP6000FT/U RA BR OVC002 17/17 A2978 RMK SF8 SLP084

CYYG;2009-06-12 18:00;CYYG 121800Z 20008KT 1 1/2SM -RA BR OVC002 17/17 A2976 RMK SF8 RERA /R23/ SLP078

CYYG;2009-06-12 19:00;CYYG 121900Z 20008KT 1 1/2SM R03/2800VP6000FT/U RA BR BKN002 OVC011 17/17 A2974 RMK SF7SC1 RERA SLP070

CYYG;2009-06-12 20:00;CYYG 122000Z 19012KT 2SM RA BR BKN002 OVC011 17/17 A2972 RMK SF6SC2 SLP064

CYYG;2009-06-12 21:00;CYYG 122100Z 18008KT 2SM -RA BR BKN002 OVC010 18/18 A2969 RMK SF7SC1 /R10/ SLP055

CYYG;2009-06-12 21:21;CYYG 122121Z 17008KT 1SM R03/3500VP6000FT/D +RA BR OVC002 18/ RMK SF8

CYYG;2009-06-12 22:00;CYYG 122200Z 17012KT 1 1/2SM RA BR OVC002 18/18 A2966 RMK SF8 /R20/ SLP046

CYYG;2009-06-12 23:00;CYYG 122300Z 16011KT 3SM RA BR OVC003 17/17 A2963 RMK SF8 SLP034

CYYG;2009-06-13 00:00;CYYG 130000Z 17010G15KT 3SM RA BR BKN003 OVC012 17/17 A2959 RMK SF6SF2 /R31/ SLP021

CYYG;2009-06-13 00:36;CYYG 130036Z 18013G18KT 15SM -RA FEW003 BKN009 OVC017 17/ RERA RMK SF2SF2SC3

CYYG;2009-06-13 01:00;CYYG 130100Z 21008KT 5SM -DZ BR BKN005 OVC009 16/16 A2960 RERA RMK SF6SF2 SLP023

CYYG;2009-06-13 01:28;CYYG 130128Z 24006KT 5SM -DZ BR BKN002 OVC006 16/ RMK SF6SF2

CYYG;2009-06-13 02:00;CYYG 130200Z 32006KT 10SM -DZ BKN003 OVC007 16/16 A2961 RMK SF6SF2 SLP026

CYYG;2009-06-13 02:46;CYYG 130246Z 35008KT 3SM -RA BR OVC003 14/ RMK SF8

CYYG;2009-06-13 03:00;CYYG 130300Z 34012KT 6SM -RA BR OVC003 14/14 A2964 RMK SF8 SLP038

CYYG;2009-06-13 03:43;CYYG 130343Z 35013G19KT 1 1/2SM BR OVC002 12/ RMK SF8

CYYG;2009-06-13 04:00;CYYG 130400Z 35012G21KT 5SM BR OVC002 11/11 A2968 RMK SF8 SLP052

CYYG;2009-06-13 05:00;CYYG 130500Z 36011G17KT 10SM OVC003 11/11 A2972 RMK SF8 SLP064

CYYG;2009-06-13 05:33;CYYG 130533Z 36011G18KT 1 1/2SM BR OVC002 11/ RMK SF8

CYYG;2009-06-13 05:52;CYYG 130552Z 36008G15KT 3/4SM R03/4000VP6000FT/D BR VV002 10/ RMK FG8

CYYG;2009-06-13 06:00;CYYG 130600Z 35011KT 3/4SM R03/4500FT/N BR VV002 10/10 A2975 RMK FG8 SLP076

CYYG;2009-06-13 07:00;CYYG 130700Z 35009KT 3SM BR OVC002 10/10 A2977 RMK SF8 SLP080

CYYG;2009-06-13 07:52;CYYG 130752Z 35010KT 1SM R03/P6000FT/D BR OVC002 10/ RMK SF8

CYYG;2009-06-13 08:00;CYYG 130800Z 36011G16KT 1SM R03/P6000FT/D BR OVC002 10/10 A2979 RMK SF8 SLP087

CYYG;2009-06-13 08:20;CYYG 130820Z 35007KT 1SM R03/P6000FT/U -DZ BR OVC002 10/ RMK SF8

CYYG;2009-06-13 09:00;CYYG 130900Z 35008KT 2SM -DZ BR OVC003 10/10 A2981 RMK SF8 SLP094

CYYG;2009-06-13 10:00;CYYG 131000Z 36009G15KT 3SM -DZ BR OVC003 10/10 A2982 RMK SF8 SLP099

CYYG;2009-06-13 11:00;CYYG 131100Z 36010G17KT 2SM -DZ BR OVC003 10/10 A2984 RMK SF8 SLP106

CYYG;2009-06-13 11:43;CYYG 131143Z 36007KT 3SM -DZ BR OVC003 10/ RMK SF8

CYYG;2009-06-13 12:00;CYYG 131200Z 36010KT 2SM -DZ BR OVC003 10/10 A2986 RMK SF8 SLP111

CYYG;2009-06-13 12:36;CYYG 131236Z 36011KT 3SM -DZ BR OVC004 10/ RMK SF8

CYYG;2009-06-13 12:50;CYYG 131250Z 36010KT 8SM OVC004 10/ RMK SF8

CYYG;2009-06-13 13:00;CYYG 131300Z 02007KT 10SM OVC004 10/10 A2986 RMK SF8 SLP113

CYYG;2009-06-13 13:19;CYYG 131319Z 36008KT 12SM OVC006 11/ RMK SF8

CYYG;2009-06-13 14:00;CYYG 131400Z 01007KT 15SM OVC007 11/11 A2989 RMK SF8 SLP121

CYYG;2009-06-13 14:46;CYYG 131446Z 36007KT 15SM OVC009 12/ RMK SF8

CYYG;2009-06-13 15:00;CYYG 131500Z 35007KT 15SM OVC009 12/11 A2990 RMK SF8 SLP124

CYYG;2009-06-13 15:30;CYYG 131530Z 36008KT 15SM OVC010 12/ RMK SC8

CYYG;2009-06-13 16:00;CYYG 131600Z 33006KT 15SM OVC010 13/12 A2989 RMK SC8 SLP122

CYYG;2009-06-13 17:00;CYYG 131700Z 33008KT 15SM BKN013 13/11 A2989 RMK SC7 SLP123

CYYG;2009-06-13 18:00;CYYG 131800Z 03006KT 15SM BKN014 14/12 A2990 RMK SC6 SLP125

CYYG;2009-06-13 19:00;CYYG 131900Z 04006KT 15SM BKN018 BKN250 14/11 A2989 RMK SC5CI1 SLP123

CYYG;2009-06-13 20:00;CYYG 132000Z 05003KT 15SM FEW019 BKN250 15/12 A2989 RMK SC1CI2 SLP123

CYYG;2009-06-13 21:00;CYYG 132100Z 02004KT 15SM FEW020 FEW050 BKN250 15/12 A2989 RMK SC1SC1CI2 SLP122

CYYG;2009-06-13 22:00;CYYG 132200Z 01004KT 15SM FEW020 FEW050 BKN250 15/11 A2990 RMK SC1SC1CI2 SLP124

CYYG;2009-06-13 23:00;CYYG 132300Z 06004KT 15SM FEW050 BKN250 14/12 A2990 RMK SC2CI2 SLP127

CYYG;2009-06-14 00:00;CYYG 140000Z 11003KT 15SM FEW050 BKN250 12/11 A2992 RMK SC2CI2 SLP133

CYYG;2009-06-14 01:00;CYYG 140100Z 09002KT 15SM FEW050 BKN250 11/11 A2994 RMK SC2CI2 SLP139

CYYG;2009-06-14 02:00;CYYG 140200Z 10002KT 15SM SCT250 09/09 A2995 RMK CI4 SLP142

CYYG;2009-06-14 02:23;CYYG 140223Z 00000KT 15SM FEW005 SCT250 09/ RMK SF1CI3 SF OVR STRAITS

CYYG;2009-06-14 02:41;CYYG 140241Z 15004KT 15SM SCT003 BKN250 10/ RMK SF3CI2

CYYG;2009-06-14 03:00;CYYG 140300Z 18004KT 15SM BKN004 BKN250 11/11 A2996 RMK SF5CI1 SLP145

CYYG;2009-06-14 04:00;CYYG 140400Z 23003KT 12SM BKN008 BKN100 11/11 A2996 RMK SF6AC1 SLP145

CYYG;2009-06-14 05:00;CYYG 140500Z 16002KT 10SM OVC003 11/11 A2996 RMK SF8 SLP145

CYYG;2009-06-14 05:38;CYYG 140538Z 19003KT 3/4SM R03/4500VP6000FT/D BR VV001 11/ RMK FG8

CYYG;2009-06-14 05:48;CYYG 140548Z 20003KT 1/2SM R03/2200V4500FT/D FG VV001 11/ RMK FG8

CYYG;2009-06-14 06:00;CYYG 140600Z 18002KT 1/2SM R03/2000V3500FT/D FG VV001 11/11 A2997 RMK FG8 SLP149

CYYG;2009-06-14 07:00;CYYG 140700Z 16003KT 1/2SM R03/2000FT/N FG VV001 10/10 A2997 RMK FG8 SLP151

CYYG;2009-06-14 08:00;CYYG 140800Z 14003KT 1/8SM R03/1100FT/N FG VV001 10/10 A2999 RMK FG8 SLP156

CYYG;2009-06-14 09:00;CYYG 140900Z 10005KT 1/8SM R03/1000FT/N FG VV001 10/10 A3000 RMK FG8 SLP159

CYYG;2009-06-14 09:31;CYYG 140931Z 13004KT 1/4SM R03/0800V1200FT/N FG VV001 10/ RMK FG8

CYYG;2009-06-14 10:00;CYYG 141000Z 14004KT 1/4SM R03/1100V1600FT/N FG VV001 10/10 A3001 RMK FG8 SLP162

CYYG;2009-06-14 10:48;CYYG 141048Z 13005KT 1/2SM R03/1400V5500FT/U FG VV001 10/ RMK FG8

CYYG;2009-06-14 11:00;CYYG 141100Z 14006KT 3/4SM R03/P6000FT/D BR OVC002 10/10 A3003 RMK FG5SF3 SLP171

CYYG;2009-06-14 11:21;CYYG 141121Z 14004KT 1SM R03/P6000FT/N BR OVC002 10/ RMK FG3SF5

CYYG;2009-06-14 11:34;CYYG 141134Z 13004KT 2SM BR OVC002 10/ RMK FG2SF6

CYYG;2009-06-14 11:54;CYYG 141154Z 13004KT 3SM BR OVC002 11/ RMK SF8

CYYG;2009-06-14 12:00;CYYG 141200Z 13003KT 5SM BR OVC003 11/11 A3004 RMK SF8 SLP175

CYYG;2009-06-14 12:52;CYYG 141252Z 13004KT 15SM SCT004 BKN160 12/ RMK SF3AC3

CYYG;2009-06-14 13:00;CYYG 141300Z 11003KT 15SM FEW004 SCT160 BKN250 13/13 A3004 RMK SF2AC2CI2 SLP175

CYYG;2009-06-14 14:00;CYYG 141400Z 12004KT 15SM FEW006 BKN250 16/13 A3004 RMK SF1CI3 SLP175

CYYG;2009-06-14 15:00;CYYG 141500Z 09004KT 15SM FEW010 BKN250 18/13 A3005 RMK SF1CI3 SLP176

CYYG;2009-06-14 16:00;CYYG 141600Z 16008KT 15SM FEW022 BKN250 19/14 A3006 RMK SC2CI2 SLP178

CYYG;2009-06-14 17:00;CYYG 141700Z 00000KT 15SM FEW022 SCT045TCU BKN220 18/14 A3005 RMK SC2TCU2CI2 SLP175

CYYG;2009-06-14 18:00;CYYG 141800Z 36006KT 15SM FEW022 FEW038TCU BKN220 17/14 A3005 RMK SC1TCU2CI3 SLP176

CYYG;2009-06-14 19:00;CYYG 141900Z 02007KT 15SM FEW030TCU BKN220 16/13 A3005 RMK TCU1CI5 SLP176

CYYG;2009-06-14 20:00;CYYG 142000Z 02006KT 15SM FEW030TCU BKN220 16/13 A3005 RMK TCU1CI6 SLP176

CYYG;2009-06-14 21:00;CYYG 142100Z 01006KT 15SM FEW030 BKN210 14/13 A3006 RMK SC1CI6 SLP179

CYYG;2009-06-14 22:00;CYYG 142200Z 03005KT 15SM FEW030 BKN210 14/13 A3006 RMK SC1CI6 SLP180

CYYG;2009-06-14 23:00;CYYG 142300Z 03004KT 15SM FEW030 FEW160 BKN210 14/12 A3007 RMK CU1AC1CI5 SLP183

CYYG;2009-06-15 00:00;CYYG 150000Z 09003KT 15SM FEW030 FEW160 BKN210 13/12 A3008 RMK SC1AC1CI5 SLP186

CYYG;2009-06-15 01:00;CYYG 150100Z 08003KT 15SM FEW160 BKN200 13/12 A3010 RMK AC2CI4 SLP193

CYYG;2009-06-15 02:00;CYYG 150200Z 10003KT 15SM FEW160 BKN220 12/10 A3010 RMK AC2CI4 SLP193

CYYG;2009-06-15 03:00;CYYG 150300Z 10004KT 15SM FEW160 BKN220 11/10 A3010 RMK AC2CI4 SLP193

CYYG;2009-06-15 04:00;CYYG 150400Z 11002KT 15SM FEW160 BKN220 11/10 A3010 RMK AC2CI4 SLP195

CYYG;2009-06-15 05:00;CYYG 150500Z 13005KT 15SM FEW160 BKN220 10/10 A3010 RMK AC2CI4 SLP195

CYYG;2009-06-15 06:00;CYYG 150600Z 00000KT 15SM BKN220 10/10 A3011 RMK CI4 SLP197

CYYG;2009-06-15 07:00;CYYG 150700Z 13002KT 15SM BKN220 09/09 A3010 RMK CI4 SLP194

CYYG;2009-06-15 08:00;CYYG 150800Z 12003KT 15SM FEW070 BKN230 10/10 A3011 RMK ACC1CI3 ACC E SLP196

CYYG;2009-06-15 09:00;CYYG 150900Z 10004KT 15SM FEW070 BKN230 10/10 A3011 RMK ACC1CI3 ACC E SLP198

CYYG;2009-06-15 10:00;CYYG 151000Z 13006KT 15SM FEW012 FEW070 BKN230 11/11 A3013 RMK CF1ACC1CI3 SLP204

CYYG;2009-06-15 11:00;CYYG 151100Z 12006KT 15SM FEW012 FEW070 BKN230 13/11 A3014 RMK CF1ACC1CI2 SLP206

CYYG;2009-06-15 12:00;CYYG 151200Z 17006KT 15SM FEW014 FEW070 BKN230 15/11 A3015 RMK CF1AC1CI2 SLP210

CYYG;2009-06-15 13:00;CYYG 151300Z 17007KT 15SM FEW016 FEW090 BKN240 16/10 A3016 RMK SC1AC1CI2 CU ASOCTD SLP214

CYYG;2009-06-15 14:00;CYYG 151400Z 15009KT 15SM FEW016 FEW090 BKN240 17/08 A3017 RMK SC1AC1CI2 AC TR SLP216

CYYG;2009-06-15 15:00;CYYG 151500Z 16007KT 15SM FEW020 SCT240 18/08 A3017 RMK SC1CI1 SLP218

CYYG;2009-06-15 16:00;CYYG 151600Z 16002KT 15SM FEW020 SCT250 18/09 A3017 RMK SC1CI1 SLP217

CYYG;2009-06-15 17:00;CYYG 151700Z 16005KT 15SM FEW024 SCT250 19/10 A3016 RMK SC2CI1 SLP214

CYYG;2009-06-15 18:00;CYYG 151800Z CCA 19004KT 15SM FEW028 SCT250 20/10 A3015 RMK SC2CI1 CU ASOCTD SLP212

CYYG;2009-06-15 19:00;CYYG 151900Z 14003KT 15SM FEW030 FEW250 20/10 A3015 RMK SC2CI0 TCU ASOCTD W SLP210

CYYG;2009-06-15 20:00;CYYG 152000Z 20003KT 15SM FEW030 FEW250 20/10 A3014 RMK SC2CI0 TCU ASOCTD S-W SLP209

CYYG;2009-06-15 21:00;CYYG 152100Z 18004KT 15SM FEW030TCU FEW250 20/10 A3014 RMK TCU1CI0 CB TOP DSNT W SLP209

CYYG;2009-06-15 22:00;CYYG 152200Z 13007KT 15SM FEW030TCU FEW250 20/09 A3015 RMK TCU1CI0 CB TOP DIST W SLP212

CYYG;2009-06-15 23:00;CYYG 152300Z 12008KT 15SM FEW030TCU FEW250 17/10 A3017 RMK TCU1CI0 CB TOP DIST W TCU DIST SW-W SLP217

CYYG;2009-06-16 00:00;CYYG 160000Z 12004KT 15SM FEW070 FEW250 14/10 A3018 RMK ACC1CI0 CB TOP DIST WNW SLP222

CYYG;2009-06-16 01:00;CYYG 160100Z 12006KT 15SM FEW070 FEW250 13/09 A3020 RMK AC1CI0 SLP226

CYYG;2009-06-16 02:00;CYYG 160200Z 13005KT 15SM FEW250 12/09 A3020 RMK CI1 SLP229

CYYG;2009-06-16 03:00;CYYG 160300Z 15004KT 15SM FEW250 11/10 A3021 RMK CI1 SLP230

CYYG;2009-06-16 04:00;CYYG 160400Z 18004KT 15SM SKC 11/10 A3021 RMK SLP230

CYYG;2009-06-16 05:00;CYYG 160500Z 18006KT 15SM SKC 11/09 A3021 RMK SLP232

CYYG;2009-06-16 06:00;CYYG 160600Z 17006KT 15SM SKC 11/08 A3022 RMK SLP233

CYYG;2009-06-16 07:00;CYYG 160700Z 17006KT 15SM SKC 10/08 A3021 RMK SLP232

CYYG;2009-06-16 08:00;CYYG 160800Z 16005KT 15SM FEW250 10/07 A3021 RMK CI0 SLP232

CYYG;2009-06-16 09:00;CYYG 160900Z 17005KT 15SM FEW070 FEW250 10/07 A3023 RMK AC1CI0 SLP237

CYYG;2009-06-16 10:00;CYYG 161000Z 18005KT 15SM FEW250 12/08 A3023 RMK CI0 SLP239

CYYG;2009-06-16 11:00;CYYG 161100Z 18007KT 15SM FEW250 13/07 A3024 RMK CI0 SLP241

CYYG;2009-06-16 12:00;CYYG 161200Z 20009KT 15SM FEW250 14/07 A3025 RMK CI0 SLP244

CYYG;2009-06-16 13:00;CYYG 161300Z 19007KT 15SM FEW250 15/09 A3025 RMK CI1 SLP243

CYYG;2009-06-16 14:00;CYYG 161400Z 19005KT 15SM FEW015 FEW250 16/09 A3025 RMK CF1CI1 SLP243

CYYG;2009-06-16 15:00;CYYG 161500Z 17004KT 15SM FEW015 FEW250 17/09 A3024 RMK CF1CI1 SLP240

CYYG;2009-06-16 16:00;CYYG 161600Z 20006KT 15SM FEW015 FEW250 18/10 A3023 RMK CF1CI1 SLP239

CYYG;2009-06-16 17:00;CYYG 161700Z 19007KT 15SM FEW020 FEW250 19/11 A3023 RMK CU1CI1 SLP236

CYYG;2009-06-16 18:00;CYYG 161800Z 19004KT 15SM FEW020 FEW250 19/10 A3022 RMK CU1CI1 SLP233

CYYG;2009-06-16 19:00;CYYG 161900Z 21007KT 15SM FEW025 FEW250 20/11 A3021 RMK CU1CI1 SLP230

CYYG;2009-06-16 20:00;CYYG 162000Z 18005KT 15SM FEW025 FEW250 19/10 A3020 RMK CU1CI1 SLP226

CYYG;2009-06-16 21:00;CYYG 162100Z 18006KT 15SM FEW025 FEW250 18/10 A3019 RMK CU1CI1 SLP224

CYYG;2009-06-16 22:00;CYYG 162200Z 18006KT 15SM FEW025 FEW250 18/09 A3018 RMK CU1CI1 SLP222

CYYG;2009-06-16 23:00;CYYG 162300Z 20005KT 15SM FEW040 FEW250 17/06 A3019 RMK SC1CI1 CB TOP DIST W SLP224

CYYG;2009-06-17 00:00;CYYG 170000Z 20004KT 15SM FEW100 FEW250 16/06 A3019 RMK AC1CI1 SLP225

CYYG;2009-06-17 01:00;CYYG 170100Z 14005KT 15SM FEW100 FEW250 14/08 A3021 RMK AC1CI1 SLP230

CYYG;2009-06-17 02:00;CYYG 170200Z 14005KT 15SM FEW100 FEW250 12/08 A3020 RMK AC1CI1 SLP227

CYYG;2009-06-17 03:00;CYYG 170300Z 18007KT 15SM FEW100 FEW250 12/10 A3020 RMK AC1CI1 SLP227

CYYG;2009-06-17 04:00;CYYG 170400Z 19007KT 15SM FEW100 FEW250 13/11 A3020 RMK AC1CI1 SLP226

CYYG;2009-06-17 05:00;CYYG 170500Z 21006KT 15SM FEW100 FEW250 12/08 A3019 RMK AC1CI1 SLP225

CYYG;2009-06-17 06:00;CYYG 170600Z 21007KT 15SM SKC 12/08 A3018 RMK SLP221

CYYG;2009-06-17 07:00;CYYG 170700Z 21008KT 15SM SKC 11/07 A3018 RMK SLP220

CYYG;2009-06-17 08:00;CYYG 170800Z 20007KT 15SM FEW300 10/06 A3018 RMK CI1 SLP221

CYYG;2009-06-17 09:00;CYYG 170900Z 19008KT 15SM FEW080 FEW300 11/05 A3018 RMK ACC1CI1 ACC DIST W-NW SLP221

CYYG;2009-06-17 10:00;CYYG 171000Z 21008KT 15SM FEW080 FEW300 12/05 A3019 RMK ACC1CI1 ACC DIST W-N SLP224

CYYG;2009-06-17 11:00;CYYG 171100Z 21010KT 15SM FEW050 14/04 A3020 RMK CU1 SLP226

CYYG;2009-06-17 12:00;CYYG 171200Z 22011KT 15SM FEW050 15/04 A3019 RMK CU1 SLP224

CYYG;2009-06-17 13:00;CYYG 171300Z 21011KT 15SM FEW050 FEW250 16/06 A3018 RMK CU1CI0 SLP221

CYYG;2009-06-17 14:00;CYYG 171400Z 19011KT 15SM FEW250 17/07 A3017 RMK CI0 OBS TAKEN +09 SLP218

CYYG;2009-06-17 15:00;CYYG 171500Z 18012KT 15SM FEW080 FEW250 18/09 A3016 RMK AC1CI0 AC TR SLP215

CYYG;2009-06-17 16:00;CYYG 171600Z 18012KT 15SM FEW250 20/09 A3015 RMK CI0 SLP212

CYYG;2009-06-17 17:00;CYYG 171700Z 19012KT 15SM FEW050 FEW250 21/09 A3013 RMK CU1CI0 SLP203

CYYG;2009-06-17 18:00;CYYG 171800Z 20010KT 15SM FEW050 FEW250 22/11 A3011 RMK CU1CI0 CU TR SLP195

CYYG;2009-06-17 19:00;CYYG 171900Z 19011KT 15SM FEW050 SCT250 23/11 A3009 RMK CU1CI0 SLP190

CYYG;2009-06-17 20:00;CYYG 172000Z 18009KT 15SM FEW050 SCT250 23/12 A3007 RMK CU1CI1 SLP183

CYYG;2009-06-17 21:00;CYYG 172100Z 18008KT 15SM FEW050 SCT250 23/12 A3006 RMK CU1CI2 CU TR CB TOP W SLP178

CYYG;2009-06-17 22:00;CYYG 172200Z 19006KT 15SM FEW050 SCT250 22/12 A3006 RMK CU1CI2 SLP178

CYYG;2009-06-17 23:00;CYYG 172300Z 18009KT 15SM FEW050TCU FEW090 BKN250 20/11 A3006 RMK TCU1AC1CI2 TCU DIST W SLP179

CYYG;2009-06-18 00:00;CYYG 180000Z 21007KT 15SM FEW050 FEW090 BKN250 19/12 A3007 RMK CU1AC1CI2 CB TOP DIST SW MOVG SE SLP182

CYYG;2009-06-18 01:00;CYYG 180100Z 20007KT 15SM FEW090 SCT210 18/14 A3008 RMK ACC1CI1 SLP185

CYYG;2009-06-18 02:00;CYYG 180200Z 22011KT 15SM SCT100 17/09 A3007 RMK AC3 ACC ASOCTD SLP184

CYYG;2009-06-18 03:00;CYYG 180300Z 21011KT 15SM FEW080 SCT120 16/09 A3007 RMK ACC2AC2 SLP183

CYYG;2009-06-18 04:00;CYYG 180400Z 22012KT 15SM FEW085 BKN130 16/09 A3006 RMK ACC2AC6 SLP178

CYYG;2009-06-18 04:40;CYYG 180440Z 22010KT 15SM -SHRA SCT080 OVC100 15/ RMK ACC3AC5

CYYG;2009-06-18 05:00;CYYG 180500Z 21008KT 15SM -SHRA BKN080 OVC100 14/10 A3005 RMK ACC6AC2 SLP177

CYYG;2009-06-18 05:23;CYYG 180523Z 19010KT 15SM BKN085 OVC100 14/ RMK AC6AC2 ACC ASOCTD

CYYG;2009-06-18 06:00;CYYG 180600Z 20010KT 15SM BKN085 OVC120 15/09 A3004 RMK AC6AC2 ACC ASOCTD SLP174

CYYG;2009-06-18 07:00;CYYG 180700Z 21010KT 15SM OVC120 14/09 A3004 RMK AC8 SLP171

CYYG;2009-06-18 08:00;CYYG 180800Z 21008KT 15SM FEW110 14/10 A3004 RMK AC2 SLP171

CYYG;2009-06-18 09:00;CYYG 180900Z 20011KT 15SM SCT110 14/09 A3004 RMK AC3 ACC ASOCTD SLP173

CYYG;2009-06-18 10:00;CYYG 181000Z 22008KT 15SM FEW110 15/10 A3004 RMK AC2 ACC ASOCTD SLP173

CYYG;2009-06-18 11:00;CYYG 181100Z 23009KT 15SM FEW110 16/11 A3005 RMK AC2 ACC ASOCTD SLP176

CYYG;2009-06-18 12:00;CYYG 181200Z 23009KT 15SM FEW110 18/11 A3006 RMK AC1 SLP178

CYYG;2009-06-18 13:00;CYYG 181300Z 23009KT 15SM FEW110 FEW230 20/13 A3004 RMK AC1CI0 AC TR SLP174

CYYG;2009-06-18 14:00;CYYG 181400Z 23009KT 15SM FEW230 21/13 A3004 RMK CI0 SLP172

CYYG;2009-06-18 15:00;CYYG 181500Z 24009KT 15SM FEW230 23/13 A3004 RMK CI0 SLP172

CYYG;2009-06-18 16:00;CYYG 181600Z 25010G16KT 15SM FEW230 24/13 A3003 RMK CI0 SLP168

CYYG;2009-06-18 17:00;CYYG 181700Z 23013KT 15SM FEW230 24/11 A3001 RMK CI0 SLP163

CYYG;2009-06-18 18:00;CYYG 181800Z 25008G15KT 15SM FEW040 FEW230 25/12 A3000 RMK CF1CI1 CF TR SLP158

CYYG;2009-06-18 19:00;CYYG 181900Z 25015G20KT 15SM FEW040 FEW230 25/10 A2999 RMK SC1CI0 SLP156

CYYG;2009-06-18 20:00;CYYG 182000Z 25012G17KT 15SM FEW040 FEW230 24/10 A2998 RMK CF1CI1 CF TR SLP154

CYYG;2009-06-18 21:00;CYYG 182100Z 24011G19KT 15SM FEW040 FEW230 24/07 A2997 RMK CF1CI0 SLP148

CYYG;2009-06-18 22:00;CYYG 182200Z 23014KT 15SM FEW230 22/06 A2997 RMK CI0 SLP149

CYYG;2009-06-18 23:00;CYYG 182300Z 24014G19KT 15SM FEW330 20/06 A2998 RMK CI1 SLP152

CYYG;2009-06-19 00:00;CYYG 190000Z 24012KT 15SM FEW330 18/09 A2998 RMK CI1 SLP154

CYYG;2009-06-19 01:00;CYYG 190100Z 25010G16KT 15SM FEW330 16/11 A2999 RMK CI1 SLP156

CYYG;2009-06-19 02:00;CYYG 190200Z 25012G18KT 15SM FEW330 16/12 A2999 RMK CI1 SLP157

CYYG;2009-06-19 03:00;CYYG 190300Z 25009KT 15SM FEW330 15/12 A2999 RMK CI1 SLP156

CYYG;2009-06-19 04:00;CYYG 190400Z 25009G15KT 15SM FEW330 15/11 A2999 RMK CI1 SLP157

CYYG;2009-06-19 05:00;CYYG 190500Z 25011KT 15SM SCT330 15/11 A3000 RMK CI1 SLP159

CYYG;2009-06-19 06:00;CYYG 190600Z 25012KT 15SM SCT330 14/10 A3001 RMK CI1 SLP161

CYYG;2009-06-19 07:00;CYYG 190700Z 26010G15KT 15SM SCT330 14/11 A3001 RMK CI1 SLP162

CYYG;2009-06-19 08:00;CYYG 190800Z 25007KT 15SM SCT240 BKN330 14/11 A3002 RMK CI2CI1 SLP165

CYYG;2009-06-19 09:00;CYYG 190900Z 24007KT 15SM BKN240 14/11 A3002 RMK CI6 SLP165

CYYG;2009-06-19 10:00;CYYG 191000Z 24009KT 15SM FEW150 BKN240 14/11 A3003 RMK AC1CI6 CC ASOCTD SLP170

CYYG;2009-06-19 11:00;CYYG 191100Z 24007KT 15SM BKN160 15/11 A3005 RMK AS7 SLP175

CYYG;2009-06-19 12:00;CYYG 191200Z 23007KT 15SM BKN160 16/11 A3005 RMK AS7 SLP177

CYYG;2009-06-19 13:00;CYYG 191300Z 26010KT 15SM BKN160 BKN230 19/08 A3005 RMK AS6CI1 SLP176

CYYG;2009-06-19 14:00;CYYG 191400Z 25008KT 15SM BKN150 19/09 A3005 RMK AS7 SLP176

CYYG;2009-06-19 15:00;CYYG 191500Z 22010KT 15SM BKN160 20/10 A3005 RMK AS6 SLP176

CYYG;2009-06-19 16:00;CYYG 191600Z 22006KT 15SM BKN150 21/12 A3004 RMK AS6 SLP171

CYYG;2009-06-19 17:00;CYYG 191700Z 21010KT 15SM BKN160 22/11 A3003 RMK AS6 SLP169

CYYG;2009-06-19 18:00;CYYG 191800Z 18011KT 15SM FEW040 BKN160 BKN230 22/10 A3002 RMK CF1AS5CI0 SLP165

CYYG;2009-06-19 19:00;CYYG 191900Z 20012KT 15SM FEW040 BKN170 BKN230 23/11 A3001 RMK CF1AS4CI0 SLP162

CYYG;2009-06-19 20:00;CYYG 192000Z 19008KT 15SM FEW040 BKN170 BKN230 23/12 A3000 RMK CF1AS5CI0 SLP159

CYYG;2009-06-19 21:00;CYYG 192100Z 21008KT 15SM FEW040 SCT170 BKN220 22/13 A2999 RMK SC1AC3CS2 SLP157

CYYG;2009-06-19 22:00;CYYG 192200Z 21011KT 15SM FEW040 SCT170 BKN220 22/12 A2999 RMK SC1AC3CS2 SLP156

CYYG;2009-06-19 23:00;CYYG 192300Z 20013KT 15SM FEW040 SCT160 BKN220 21/12 A3000 RMK SC1AC3CS2 CC ASOCTD SLP159

CYYG;2009-06-20 00:00;CYYG 200000Z 20009KT 15SM FEW045 SCT160 BKN240 19/13 A3001 RMK SC1AC2CI2 CC ASOCTD SLP162

CYYG;2009-06-20 01:00;CYYG 200100Z 19009G15KT 15SM FEW045 FEW170 BKN260 18/14 A3002 RMK SC1AC2CI2 SC TR SLP166

CYYG;2009-06-20 02:00;CYYG 200200Z 19011KT 15SM FEW170 BKN260 17/13 A3002 RMK AC2CI2 SLP167

CYYG;2009-06-20 03:00;CYYG 200300Z 18010KT 15SM BKN150 OVC260 16/13 A3002 RMK AC5CI1 SLP167

CYYG;2009-06-20 04:00;CYYG 200400Z 18009KT 15SM SCT100 OVC150 16/12 A3002 RMK AC3AC5 SLP167

CYYG;2009-06-20 05:00;CYYG 200500Z 18009KT 15SM OVC110 16/13 A3001 RMK AC8 SLP163

CYYG;2009-06-20 06:00;CYYG 200600Z 16006KT 15SM OVC110 16/14 A3000 RMK AC8 SLP158

CYYG;2009-06-20 07:00;CYYG 200700Z 17006KT 15SM OVC110 16/14 A2999 RMK AC8 SLP156

CYYG;2009-06-20 08:00;CYYG 200800Z 15005KT 15SM OVC120 16/14 A2999 RMK AC8 SLP156

CYYG;2009-06-20 09:00;CYYG 200900Z 16009KT 15SM BKN120 BKN300 16/14 A2998 RMK AC7CI1 SLP154

CYYG;2009-06-20 10:00;CYYG 201000Z 16010KT 15SM BKN120 BKN150 BKN300 17/14 A2999 RMK AC6AC2CI1 SLP156

CYYG;2009-06-20 11:00;CYYG 201100Z 16010KT 15SM FEW130 BKN170 BKN300 17/14 A2999 RMK AC2AC4CI2 SLP156

CYYG;2009-06-20 12:00;CYYG 201200Z 15011KT 15SM FEW130 BKN160 BKN300 19/15 A2998 RMK AC2AC3CI1 SLP152

CYYG;2009-06-20 13:00;CYYG 201300Z 16013G18KT 15SM FEW030 FEW130 SCT160 BKN300 21/15 A2997 RMK SC1AC2AC1CI1 SLP148

CYYG;2009-06-20 14:00;CYYG 201400Z 14012G18KT 15SM FEW030 FEW130 BKN170 BKN300 20/15 A2995 RMK SC1AC2AC3CI1 SLP143

CYYG;2009-06-20 15:00;CYYG 201500Z 15015KT 15SM FEW030 BKN140 BKN300 21/16 A2996 RMK CU1AC5CI1 SLP144

CYYG;2009-06-20 16:00;CYYG 201600Z 15016KT 15SM FEW025 SCT090 OVC300 23/17 A2993 RMK CU1AC2CI1 SLP134

CYYG;2009-06-20 17:00;CYYG 201700Z 15013G18KT 15SM FEW040 SCT100 OVC210 23/17 A2991 RMK SC2AC2CI3 SLP128

CYYG;2009-06-20 18:00;CYYG 201800Z 17014G19KT 15SM FEW036 SCT100 OVC200 24/17 A2990 RMK CU2AC2CI4 SLP125

CYYG;2009-06-20 19:00;CYYG 201900Z 15013G18KT 15SM SCT040 OVC120 23/17 A2990 RMK SC3AC5 SLP124

CYYG;2009-06-20 19:11;CYYG 201911Z 15011G17KT 15SM -SHRA BKN037TCU OVC120 22/ RMK TCU5AC3

CYYG;2009-06-20 20:00;CYYG 202000Z 15016KT 15SM -SHRA FEW037TCU BKN075 OVC120 22/17 A2990 RMK TCU1AC5AC2 SLP124

CYYG;2009-06-20 21:00;CYYG 202100Z 14010G15KT 15SM FEW020 SCT037 BKN064 OVC110 22/17 A2989 RMK CU1SC2SC2AC2 SLP123

CYYG;2009-06-20 22:00;CYYG 202200Z 14011KT 15SM FEW070 OVC098 21/17 A2990 RMK AC1AC7 SLP124

CYYG;2009-06-20 23:00;CYYG 202300Z 12009KT 12SM VCSH SCT050 BKN100 OVC130 20/17 A2990 RMK SC4AC2AC2 SLP124

CYYG;2009-06-21 00:00;CYYG 210000Z 12010KT 15SM BKN100 OVC140 19/16 A2989 RMK AC6AC2 SLP123

CYYG;2009-06-21 00:54;CYYG 210054Z 12010KT 15SM -SHRA BKN100 OVC120 18/ RMK AC6AC2

CYYG;2009-06-21 01:00;CYYG 210100Z 12010KT 15SM -SHRA BKN100 OVC120 18/16 A2989 RMK AC6AC2 SLP123

CYYG;2009-06-21 02:00;CYYG 210200Z 11008KT 12SM -SHRA OVC074 17/16 A2990 RMK AC8 SLP124

CYYG;2009-06-21 03:00;CYYG 210300Z 12010KT 12SM FEW020 BKN060 OVC094 16/15 A2989 RMK SC2SC4AC2 OCNL -SHRA SLP122

CYYG;2009-06-21 03:51;CYYG 210351Z 11009KT 12SM FEW055 OVC100 15/ RMK SC2AC6

CYYG;2009-06-21 04:00;CYYG 210400Z 11009KT 12SM FEW055 SCT080 OVC100 15/15 A2988 RMK SC2AC2AC4 SLP118

CYYG;2009-06-21 05:00;CYYG 210500Z 10011KT 12SM FEW055 SCT080 OVC110 15/14 A2986 RMK SC2AC2AC4 SLP113

CYYG;2009-06-21 06:00;CYYG 210600Z 11009KT 12SM FEW055 OVC100 15/14 A2986 RMK SC2AC6 SLP111

CYYG;2009-06-21 07:00;CYYG 210700Z 11008KT 12SM FEW005 SCT065 OVC110 15/15 A2984 RMK SF2SC2AC5 SLP105

CYYG;2009-06-21 07:26;CYYG 210726Z 11011KT 12SM BKN006 OVC110 15/ RMK SF5AC3

CYYG;2009-06-21 08:00;CYYG 210800Z 11011KT 12SM SCT006 OVC110 15/15 A2982 RMK SF4AC4 SLP100

CYYG;2009-06-21 09:00;CYYG 210900Z 11010KT 10SM BKN006 OVC110 15/15 A2983 RMK SF6AC2 SLP102

CYYG;2009-06-21 10:00;CYYG 211000Z 10010G15KT 12SM BKN008 OVC120 16/15 A2982 RMK SF7AC1 SLP099

CYYG;2009-06-21 11:00;CYYG 211100Z 10013G18KT 15SM OVC009 16/15 A2984 RMK SF8 SLP104

CYYG;2009-06-21 12:00;CYYG 211200Z 10010G16KT 15SM OVC010 17/16 A2984 RMK SF8 SLP106

CYYG;2009-06-21 12:50;CYYG 211250Z 09014G20KT 15SM BKN016 BKN120 18/ RMK SC6AC1

CYYG;2009-06-21 13:00;CYYG 211300Z 10009G18KT 15SM BKN018 BKN120 18/16 A2984 RMK SC6AC1 SLP105

CYYG;2009-06-21 14:00;CYYG 211400Z 08017KT 15SM OVC021 18/15 A2983 RMK SC8 SLP102

CYYG;2009-06-21 14:19;CYYG 211419Z 08014G20KT 15SM -RA OVC021 18/ RMK SC8

CYYG;2009-06-21 15:00;CYYG 211500Z 09016G22KT 15SM -RA OVC017 18/16 A2983 RMK SC8 SLP101

CYYG;2009-06-21 16:00;CYYG 211600Z 09016G26KT 10SM -RA OVC017 18/16 A2982 RMK SC8 RERA SLP100

CYYG;2009-06-21 17:00;CYYG 211700Z 10015G28KT 15SM -SHRA BKN018 OVC038 19/16 A2981 RMK SC7SC1 SLP096

CYYG;2009-06-21 18:00;CYYG 211800Z 09017G25KT 15SM OVC017 19/16 A2982 RMK SC8 SLP097

CYYG;2009-06-21 19:00;CYYG 211900Z 10017G22KT 15SM OVC017 19/16 A2982 RMK SC8 SLP097

CYYG;2009-06-21 19:32;CYYG 211932Z 10016G24KT 15SM -SHRA OVC017 19/ RMK SC8

CYYG;2009-06-21 20:00;CYYG 212000Z 10016G25KT 15SM -SHRA BKN014 OVC022 18/16 A2982 RMK SC6SC2 VIS LWR SE-SW SLP098

CYYG;2009-06-21 21:00;CYYG 212100Z 09013G24KT 15SM -SHRA BKN013 OVC024 17/16 A2981 RMK SC6SC2 SLP095

CYYG;2009-06-21 22:00;CYYG 212200Z 09015G25KT 15SM -SHRA BKN014 OVC025 17/15 A2982 RMK SC6SC2 SLP097

CYYG;2009-06-21 23:00;CYYG 212300Z 07012G17KT 15SM -SHRA BKN014 OVC022 16/15 A2982 RMK SC6SC2 SLP099

CYYG;2009-06-22 00:00;CYYG 220000Z 05011KT 15SM -SHRA FEW015 BKN018 OVC099 14/14 A2982 RMK CF1SC6AC2 SLP098

CYYG;2009-06-22 00:30;CYYG 220030Z 05012KT 15SM FEW015 SCT025 OVC090 14/ RMK CF1SC2AC4

CYYG;2009-06-22 01:00;CYYG 220100Z 05013KT 15SM SCT023 OVC090 14/14 A2983 RMK SC4AC3 SLP103

CYYG;2009-06-22 01:39;CYYG 220139Z 06010KT 12SM -SHRA FEW011 BKN015 OVC070 14/ RMK SC2SC6AC1

CYYG;2009-06-22 02:00;CYYG 220200Z 06010KT 10SM -SHRA FEW011 BKN021 OVC040 14/14 A2983 RMK SC2SC5SC1 SLP103

CYYG;2009-06-22 03:00;CYYG 220300Z 05013KT 10SM -SHRA FEW011 OVC029 14/14 A2982 RMK SC2SC6 SLP097

CYYG;2009-06-22 03:53;CYYG 220353Z 05015KT 10SM OVC024 14/ RMK SC8

CYYG;2009-06-22 04:00;CYYG 220400Z 05013G18KT 12SM OVC024 14/13 A2981 RMK SC8 SLP094

CYYG;2009-06-22 05:00;CYYG 220500Z 05011KT 12SM OVC025 14/13 A2979 RMK SC8 SLP090

CYYG;2009-06-22 06:00;CYYG 220600Z 05012KT 12SM OVC024 14/13 A2978 RMK SC8 SLP084

CYYG;2009-06-22 07:00;CYYG 220700Z 05011KT 12SM OVC025 14/13 A2977 RMK SC8 SLP081

CYYG;2009-06-22 08:00;CYYG 220800Z 05014KT 10SM OVC019 14/13 A2977 RMK SC8 SLP081

CYYG;2009-06-22 08:35;CYYG 220835Z 05015KT 10SM SCT006 OVC016 14/ RMK SF3SC5

CYYG;2009-06-22 08:54;CYYG 220854Z 06015KT 8SM -DZ BKN006 OVC016 14/ RMK SF6SC2

CYYG;2009-06-22 09:00;CYYG 220900Z 05015KT 8SM -DZ BKN006 OVC016 14/13 A2976 RMK SF7SC1 SLP079

CYYG;2009-06-22 10:00;CYYG 221000Z 06012G17KT 10SM BKN008 OVC020 14/13 A2978 RMK SF5SC3 INTMT -DZ SLP084

CYYG;2009-06-22 10:48;CYYG 221048Z 07012G18KT 15SM BKN009 OVC014 15/ RMK SF5SC3

CYYG;2009-06-22 11:00;CYYG 221100Z 07012G17KT 15SM BKN010 OVC014 14/14 A2979 RMK SF5SC3 SLP088

CYYG;2009-06-22 12:00;CYYG 221200Z 06010G15KT 15SM BKN010 OVC016 15/14 A2979 RMK SC5SC3 SLP087

CYYG;2009-06-22 12:06;CYYG 221206Z 07011KT 15SM -SHRA BKN009 OVC016 15/ RMK SC5SC3 VIS LWR S

CYYG;2009-06-22 12:48;CYYG 221248Z 07009G15KT 12SM -SHRA FEW009 OVC012 15/ RMK SF1SC7

CYYG;2009-06-22 13:00;CYYG 221300Z 06011KT 12SM -SHRA OVC011 15/14 A2979 RMK SC8 SLP088

CYYG;2009-06-22 13:32;CYYG 221332Z 06012KT 12SM -SHRA FEW008 OVC010 15/ RMK SF1SC7

CYYG;2009-06-22 14:00;CYYG 221400Z 07011KT 10SM -SHRA SCT005 OVC015 15/14 A2979 RMK SF4SC4 SLP088

CYYG;2009-06-22 14:38;CYYG 221438Z 07011KT 12SM -SHRA BKN008 OVC015 15/ RMK SF5SC3

CYYG;2009-06-22 15:00;CYYG 221500Z 06012KT 12SM -SHRA FEW006 BKN010 OVC015 15/14 A2978 RMK SF2SC6SC1 SLP086

CYYG;2009-06-22 16:00;CYYG 221600Z 06012KT 15SM -SHRA BKN009 OVC015 15/14 A2979 RMK SF6SC2 SLP087

CYYG;2009-06-22 17:00;CYYG 221700Z 05011KT 12SM -SHRA BKN008 OVC014 15/14 A2978 RMK SF5SC3 SLP084

CYYG;2009-06-22 17:38;CYYG 221738Z 06010KT 2 1/2SM -SHRA BKN008 OVC029 15/ RMK SF5SC3

CYYG;2009-06-22 18:00;CYYG 221800Z 06009KT 2 1/2SM -SHRA SCT006 OVC025 14/14 A2977 RMK SF4SC4 RERA SLP082

CYYG;2009-06-22 18:28;CYYG 221828Z 03009KT 1SM R03/3500VP6000FT/D SHRA BR SCT006 OVC029 14/ RMK SF3SC5

CYYG;2009-06-22 19:00;CYYG 221900Z 05007KT 12SM -SHRA SCT006 OVC013 14/14 A2977 RMK SF4SC4 RERA /R11/ SLP083

CYYG;2009-06-22 19:15;CYYG 221915Z 04007KT 12SM -SHRA OVC008 14/ RMK SF8

CYYG;2009-06-22 19:42;CYYG 221942Z 04008KT 6SM BR FEW003 OVC007 14/ RMK SF2SF6

CYYG;2009-06-22 20:00;CYYG 222000Z 04008KT 6SM BR OVC004 14/14 A2977 RMK SF8 VIS LWR W-NE SLP082

CYYG;2009-06-22 20:41;CYYG 222041Z 04007KT 6SM -SHRA BR OVC004 14/ RMK SF8 CIG RAG VIS LWR W-NE

CYYG;2009-06-22 21:00;CYYG 222100Z 04008KT 8SM -SHRA BKN004 OVC009 14/14 A2976 RMK SF5SF3 SLP079

CYYG;2009-06-22 21:33;CYYG 222133Z 02007KT 10SM BKN004 OVC009 13/ RMK SF5SF3

CYYG;2009-06-22 22:00;CYYG 222200Z 03007KT 12SM SCT004 OVC008 13/13 A2976 RMK SF4SF4 SLP079

CYYG;2009-06-22 23:00;CYYG 222300Z 04007KT 12SM SCT004 OVC009 13/13 A2977 RMK SF3SF5 SLP080

CYYG;2009-06-23 00:00;CYYG 230000Z 01006KT 15SM FEW004 OVC009 13/13 A2976 RMK SF2SF6 SLP077

CYYG;2009-06-23 01:00;CYYG 230100Z 01006KT 10SM FEW003 OVC007 12/12 A2978 RMK SF2SF6 SLP084

CYYG;2009-06-23 02:00;CYYG 230200Z 03010KT 10SM SCT002 OVC006 12/12 A2977 RMK SF3SF5 SLP083

CYYG;2009-06-23 02:53;CYYG 230253Z 04008KT 6SM -DZ BR BKN003 OVC006 12/ RMK SF5SF3

CYYG;2009-06-23 03:00;CYYG 230300Z 04009KT 5SM -DZ BR BKN003 OVC006 12/12 A2977 RMK SF5SF3 SLP080

CYYG;2009-06-23 04:00;CYYG 230400Z 04009KT 6SM -DZ BR BKN003 OVC007 12/12 A2976 RMK SF5SF3 SLP079

CYYG;2009-06-23 04:19;CYYG 230419Z 04009KT 8SM BKN003 OVC007 12/ RMK SF5SF3

CYYG;2009-06-23 05:00;CYYG 230500Z 04008KT 4SM BR OVC003 12/12 A2975 RMK SF8 SLP074

CYYG;2009-06-23 06:00;CYYG 230600Z 05008KT 5SM BR OVC003 13/13 A2975 RMK SF8 SLP075

CYYG;2009-06-23 07:00;CYYG 230700Z 06006KT 15SM BKN003 OVC008 13/13 A2974 RMK SF6SF2 SLP072

CYYG;2009-06-23 07:38;CYYG 230738Z 09007KT 10SM -SHRA SCT003 OVC012 13/ RMK SF3SC5

CYYG;2009-06-23 08:00;CYYG 230800Z 06007KT 10SM -SHRA FEW003 BKN012 OVC025 13/13 A2974 RMK SF2SC4SC2 SLP070

CYYG;2009-06-23 08:43;CYYG 230843Z 07005KT 10SM -SHRA BKN003 BKN020 OVC045 14/ RMK SF5SC2SC2

CYYG;2009-06-23 09:00;CYYG 230900Z 07007KT 12SM -SHRA BKN003 OVC020 14/14 A2974 RMK SF6SC2 SLP070

CYYG;2009-06-23 10:00;CYYG 231000Z 08003KT 12SM -SHRA BKN004 OVC090 14/14 A2975 RMK SF6AC2 SLP074

CYYG;2009-06-23 11:00;CYYG 231100Z 36003KT 12SM -SHRA BKN004 OVC090 15/15 A2975 RMK SF7AC1 SUN OCNL VISBL SLP074

CYYG;2009-06-23 11:36;CYYG 231136Z 34007KT 6SM BR OVC004 14/ RMK SF8 VIS NW-NE 11/2

CYYG;2009-06-23 12:00;CYYG 231200Z 36008KT 5SM BR OVC003 13/13 A2977 RMK SF8 SLP082

CYYG;2009-06-23 13:00;CYYG 231300Z 02009KT 5SM BR OVC003 13/13 A2978 RMK SF8 SLP086

CYYG;2009-06-23 13:31;CYYG 231331Z 02008KT 2SM BR OVC003 13/ RMK SF8

CYYG;2009-06-23 14:00;CYYG 231400Z 03010KT 2SM BR OVC003 13/13 A2980 RMK SF8 SLP092

CYYG;2009-06-23 14:36;CYYG 231436Z 02009KT 5SM BR OVC003 14/ RMK SF8

CYYG;2009-06-23 15:00;CYYG 231500Z 01007KT 6SM BR BKN004 OVC008 16/16 A2980 RMK SF7SC1 SUN OCNL VISBL SLP091

CYYG;2009-06-23 15:49;CYYG 231549Z 03007KT 8SM OVC005 16/ RMK ST8

CYYG;2009-06-23 16:00;CYYG 231600Z 02007KT 8SM OVC005 16/16 A2981 RMK ST8 SLP095

CYYG;2009-06-23 16:42;CYYG 231642Z 03010KT 8SM BKN006 BKN150 OVC250 17/ RMK SF5AC2CI0

CYYG;2009-06-23 17:00;CYYG 231700Z 02008KT 8SM BKN005 BKN150 BKN250 17/16 A2982 RMK SF5AC2CI0 SLP097

CYYG;2009-06-23 17:11;CYYG 231711Z 02008KT 10SM SCT004 BKN140 BKN250 18/ RMK SF3AC2CI1

CYYG;2009-06-23 17:35;CYYG 231735Z 03006KT 12SM BKN007 BKN250 19/ RMK SF6CI2

CYYG;2009-06-23 18:00;CYYG 231800Z 05008KT 15SM BKN007 BKN250 19/18 A2983 RMK SF7CI1 SLP103

CYYG;2009-06-23 19:00;CYYG 231900Z 04007KT 15SM OVC008 18/17 A2984 RMK SF8 SLP106

CYYG;2009-06-23 20:00;CYYG 232000Z 02007KT 15SM SCT008 BKN068 BKN250 18/18 A2985 RMK SF3AC2CI1 SLP107

CYYG;2009-06-23 21:00;CYYG 232100Z 01009KT 15SM FEW008 BKN070 18/17 A2984 RMK SF1AC6 SLP105

CYYG;2009-06-23 21:34;CYYG 232134Z 36006KT 15SM FEW004 BKN012 BKN070 17/ RMK SF1SC5AC1 VIS NW-NE 3

CYYG;2009-06-23 22:00;CYYG 232200Z 01006KT 12SM VCFG SCT004 BKN011 15/15 A2986 RMK SF3SC4 F BNK NW-NE VIS 11/2 SLP111

CYYG;2009-06-23 22:05;CYYG 232205Z 36007KT 10SM VCFG BKN003 OVC011 15/ RMK SF6SC2 FG BNK NW-NE VIS 11/2

CYYG;2009-06-23 23:00;CYYG 232300Z 01006KT 8SM VCFG BKN003 OVC013 14/14 A2987 RMK SF6SC2 FG BNK NW-NE VIS 2 SLP116

CYYG;2009-06-24 00:00;CYYG 240000Z 04004KT 8SM BKN004 OVC010 13/13 A2988 RMK SF5SC3 SLP118

CYYG;2009-06-24 01:00;CYYG 240100Z 02004KT 10SM BKN004 OVC008 13/13 A2990 RMK SF6SF2 SLP124

CYYG;2009-06-24 02:00;CYYG 240200Z 36004KT 2SM R03/5000FT/U -SHRA BR BKN004 OVC010 13/13 A2990 RMK SF5SF3 SLP125

CYYG;2009-06-24 02:20;CYYG 240220Z 36003KT 1 1/2SM -SHRA BR BKN003 OVC007 13/ RMK FG2SF4SF2

CYYG;2009-06-24 02:34;CYYG 240234Z 36002KT 1SM R03/P6000FT/D -SHRA BR OVC002 13/ RMK FG2SF6

CYYG;2009-06-24 03:00;CYYG 240300Z 02003KT 1SM R03/P6000FT/D -SHRA BR BKN002 OVC007 13/13 A2990 RMK SF6SF2 SLP126

CYYG;2009-06-24 03:10;CYYG 240310Z 01003KT 1SM R03/P6000FT/U BR BKN002 OVC007 13/ RMK SF6SF2

CYYG;2009-06-24 04:00;CYYG 240400Z 35002KT 1SM R03/P6000FT/N BR VV002 13/13 A2991 RMK FG8 SLP130

CYYG;2009-06-24 05:00;CYYG 240500Z 36002KT 3/4SM R03/3000V6000FT/D BR VV002 14/14 A2991 RMK FG8 SLP128

CYYG;2009-06-24 06:00;CYYG 240600Z 36002KT 5/8SM R03/2800FT/N BR VV002 14/14 A2991 RMK FG8 SLP128

CYYG;2009-06-24 06:14;CYYG 240614Z 01002KT 1/2SM R03/2600FT/N FG VV002 14/ RMK FG8

CYYG;2009-06-24 07:00;CYYG 240700Z 00000KT 1/2SM R03/2200V3000FT/N FG VV002 14/14 A2991 RMK FG8 SLP128

CYYG;2009-06-24 08:00;CYYG 240800Z 00000KT 3/8SM R03/2200FT/N FG VV001 14/14 A2992 RMK FG8 SLP132

CYYG;2009-06-24 09:00;CYYG 240900Z 04002KT 3/8SM R03/1800FT/N FG VV001 14/14 A2993 RMK FG8 SLP135

CYYG;2009-06-24 09:32;CYYG 240932Z 01002KT 1/4SM R03/1400FT/N FG VV001 14/ RMK FG8

CYYG;2009-06-24 10:00;CYYG 241000Z 02002KT 1/8SM R03/0900FT/N FG VV001 14/14 A2993 RMK FG8 SLP135

CYYG;2009-06-24 10:28;CYYG 241028Z 02002KT 1/4SM R03/1000V1600FT/N FG VV001 15/ RMK FG8

CYYG;2009-06-24 11:00;CYYG 241100Z 02003KT 1/8SM R03/0700V1600FT/D FG VV001 15/15 A2993 RMK FG8 SLP137

CYYG;2009-06-24 11:34;CYYG 241134Z 02005KT 1/4SM R03/1000FT/N FG VV001 15/ RMK FG8

CYYG;2009-06-24 11:49;CYYG 241149Z 02004KT 1/2SM R03/2600VP6000FT/N FG OVC002 16/ RMK FG3ST5

CYYG;2009-06-24 12:00;CYYG 241200Z 02004KT 1/2SM R03/2600VP6000FT/D FG OVC002 16/16 A2994 RMK FG3ST5 SLP139

CYYG;2009-06-24 12:31;CYYG 241231Z 03002KT 1 1/2SM BR OVC003 17/ RMK ST8

CYYG;2009-06-24 12:55;CYYG 241255Z 03003KT 2 1/2SM BR BKN003 OVC006 17/ RMK SF6SF2 VIS NW-NE 11/2

CYYG;2009-06-24 13:00;CYYG 241300Z 03003KT 2 1/2SM BR BKN003 OVC006 17/17 A2994 RMK SF6SF2 VIS NW-NE 11/2 SLP138

CYYG;2009-06-24 13:16;CYYG 241316Z 07002KT 4SM BR BKN003 OVC007 17/ RMK SF6SF2

CYYG;2009-06-24 13:44;CYYG 241344Z 02003KT 6SM BR FEW003 BKN007 OVC033 18/ RMK SF2SF4SC2

CYYG;2009-06-24 14:00;CYYG 241400Z 06002KT 8SM FEW003 BKN007 OVC033 18/18 A2995 RMK SF1SF5SC2 SLP141

CYYG;2009-06-24 15:00;CYYG 241500Z 00000KT 8SM OVC008 20/20 A2994 RMK SF8 SLP140

CYYG;2009-06-24 16:00;CYYG 241600Z 07004KT 10SM OVC009 22/21 A2993 RMK SC8 SLP136

CYYG;2009-06-24 16:33;CYYG 241633Z 04004KT 10SM BKN011 OVC030 22/ RMK SC7SC1

CYYG;2009-06-24 17:00;CYYG 241700Z 07005KT 10SM BKN014 BKN030 BKN150 23/21 A2992 RMK SC5SC2AC1 SLP131

CYYG;2009-06-24 18:00;CYYG 241800Z 07006KT 12SM BKN015 BKN030 BKN280 24/21 A2990 RMK SC5SC1CI0 TCU ASOCTD SLP125

CYYG;2009-06-24 19:00;CYYG 241900Z 08004KT 15SM SCT015 BKN280 25/22 A2989 RMK CU4CI2 TCU ASOCTD SLP123

CYYG;2009-06-24 20:00;CYYG 242000Z 03006KT 15SM FEW018 BKN120 24/22 A2988 RMK CU2AC5 SLP119

CYYG;2009-06-24 21:00;CYYG 242100Z 07006KT 12SM FEW018 BKN110 23/21 A2987 RMK CU2AC5 TCU ASOCTD NE-E SLP116

CYYG;2009-06-24 22:00;CYYG 242200Z CCA 11002KT 12SM SCT020 SCT045 BKN120 BKN200 24/23 A2987 RMK CU3SC1AC2CI1 TCU ASOCTD NE-E SLP114

CYYG;2009-06-24 23:00;CYYG 242300Z 04004KT 15SM SCT020 SCT120 BKN200 23/21 A2986 RMK CU3AC1CI2 TCU ASOCTD E MIFG W-N-E SLP111

CYYG;2009-06-25 00:00;CYYG 250000Z 35004KT 6SM BR FEW020 SCT120 BKN210 17/16 A2986 RMK SC2AC1CI2 SLP113

CYYG;2009-06-25 00:24;CYYG 250024Z 36005KT 2SM BR BKN045 BKN120 OVC210 16/ RMK SC5AC1CI2 VIS NW-NE 1

CYYG;2009-06-25 01:00;CYYG 250100Z 36003KT 2SM BR BKN050 OVC210 16/16 A2987 RMK SC6CI1 SLP117

CYYG;2009-06-25 01:31;CYYG 250131Z 01004KT 3SM BR BKN050 OVC210 16/ RMK SC6CI1

CYYG;2009-06-25 02:00;CYYG 250200Z 00000KT 3SM BR OVC050 16/16 A2986 RMK SC8 SLP113

CYYG;2009-06-25 03:00;CYYG 250300Z 00000KT 3SM BR SCT018 OVC061 16/16 A2985 RMK SC3SC5 SLP109

CYYG;2009-06-25 04:00;CYYG 250400Z 17003KT 3SM BR BKN028 OVC060 17/17 A2984 RMK SC6SC2 SLP106

CYYG;2009-06-25 05:00;CYYG 250500Z 20004KT 10SM BKN039 18/18 A2983 RMK SC6 BR SLP103

CYYG;2009-06-25 05:25;CYYG 250525Z 19003KT 2SM BR SCT001 BKN040 18/ RMK ST4SC2

CYYG;2009-06-25 05:43;CYYG 250543Z 21003KT 1/2SM R03/2000VP6000FT/D FG OVC006 18/ RMK FG3ST5

CYYG;2009-06-25 06:00;CYYG 250600Z 20004KT 1/4SM R03/1600FT/N FG OVC005 17/17 A2983 RMK FG4ST4 SLP100

CYYG;2009-06-25 07:00;CYYG 250700Z 18004KT 1/8SM R03/0800FT/N FG VV001 19/19 A2982 RMK FG8 SLP096

CYYG;2009-06-25 07:37;CYYG 250737Z 21004KT 1/4SM R03/1800V2800FT/U FG OVC004 18/ RMK FG4ST4

CYYG;2009-06-25 08:00;CYYG 250800Z 20003KT 1/4SM R03/2200V4500FT/U FG OVC005 18/18 A2981 RMK FG3ST5 SLP094

CYYG;2009-06-25 08:10;CYYG 250810Z 18003KT 3/4SM R03/P6000FT/U BR OVC006 19/ RMK ST8

CYYG;2009-06-25 08:39;CYYG 250839Z 18003KT 1SM R03/P6000FT/N BR OVC006 19/ RMK ST8

CYYG;2009-06-25 09:00;CYYG 250900Z 21004KT 1/2SM R03/P6000FT/D FG VV002 19/19 A2981 RMK FG8 SLP095

CYYG;2009-06-25 09:25;CYYG 250925Z 23003KT 1/4SM R03/3000V4500FT/U FG VV004 19/ RMK FG8

CYYG;2009-06-25 10:00;CYYG 251000Z 21004KT 1/2SM R03/P6000FT/U FG VV004 19/19 A2982 RMK FG8 SLP097

CYYG;2009-06-25 10:08;CYYG 251008Z 21005KT 1/4SM R03/5000FT/D FG VV002 20/ RMK FG8

CYYG;2009-06-25 11:00;CYYG 251100Z 21006KT 3/4SM R03/3000VP6000FT/D BR VV002 20/20 A2982 RMK FG8 SLP099

CYYG;2009-06-25 12:00;CYYG 251200Z 23005KT 1SM R03/P6000FT/N BR OVC002 20/20 A2982 RMK SF8 SLP099

CYYG;2009-06-25 12:21;CYYG 251221Z 24006KT 2SM BR OVC003 20/ RMK SF8

CYYG;2009-06-25 12:47;CYYG 251247Z 20006KT 15SM OVC004 21/ RMK SF8 VIS E-SW 3

CYYG;2009-06-25 13:00;CYYG 251300Z 21006KT 15SM OVC005 21/21 A2980 RMK SF8 VIS E-SW 3 SLP092

CYYG;2009-06-25 14:00;CYYG 251400Z 19005KT 15SM OVC006 22/21 A2979 RMK SF8 SLP090

CYYG;2009-06-25 15:00;CYYG 251500Z 25006KT 12SM OVC008 22/21 A2979 RMK SC8 SLP087

CYYG;2009-06-25 16:00;CYYG 251600Z 22006KT 15SM BKN009 BKN019 23/22 A2978 RMK SC6SC2 SLP085

CYYG;2009-06-25 16:26;CYYG 251626Z 26006KT 15SM SCT010 SCT300 24/ RMK SC3CI1

CYYG;2009-06-25 17:00;CYYG 251700Z 23005KT 15SM SCT015 25/22 A2977 RMK SC4 SLP080

CYYG;2009-06-25 18:00;CYYG 251800Z 20008KT 15SM FEW016TCU SCT300 25/22 A2975 RMK TCU2CI1 SLP075

CYYG;2009-06-25 19:00;CYYG 251900Z 21006KT 15SM FEW018TCU FEW030CB SCT300 26/21 A2974 RMK TCU2CB1CI0 CB DIST E-S SLP072

CYYG;2009-06-25 20:00;CYYG 252000Z 20008KT 15SM FEW020TCU FEW030CB SCT300 26/20 A2972 RMK TCU1CB1CI1 CB DIST SE-S SLP065

CYYG;2009-06-25 21:00;CYYG 252100Z 20004KT 15SM FEW030CB BKN300 26/20 A2972 RMK CB1CI2 CB DIST SE-S SLP064

CYYG;2009-06-25 22:00;CYYG 252200Z 15005KT 15SM FEW030CB BKN300 25/20 A2971 RMK CB1CI2 CB DIST S-SW SLP062

CYYG;2009-06-25 23:00;CYYG 252300Z 18006KT 15SM FEW010 FEW030CB BKN300 25/20 A2971 RMK CF1CB2CI2 CF TR SHRA S-SE SLP060

CYYG;2009-06-26 00:00;CYYG 260000Z 18010KT 15SM FEW025 BKN036CB BKN300 22/19 A2973 RMK CF2CB2CI1 LTGICCG E-SE SHRA E-S SLP066

CYYG;2009-06-26 01:00;CYYG 260100Z 18012KT 15SM SCT036CB BKN160 BKN300 21/19 A2974 RMK CB3AC2CI1 SLP071

CYYG;2009-06-26 02:00;CYYG 260200Z 23007KT 15SM FEW030 BKN160 20/19 A2972 RMK CU2AC4 SLP063

CYYG;2009-06-26 03:00;CYYG 260300Z 20005KT 15SM SCT160 BKN210 20/18 A2972 RMK AC4CI2 SLP064

CYYG;2009-06-26 04:00;CYYG 260400Z 20007KT 15SM FEW020 20/18 A2973 RMK SC2 SLP068

CYYG;2009-06-26 04:49;CYYG 260449Z 20006KT 15SM OVC009 20/ RMK SF8

CYYG;2009-06-26 05:00;CYYG 260500Z 20006KT 15SM OVC009 20/18 A2972 RMK SF8 SLP065

CYYG;2009-06-26 05:39;CYYG 260539Z 22007KT 15SM OVC006 20/ RMK SF8

CYYG;2009-06-26 06:00;CYYG 260600Z 23007KT 15SM OVC006 20/18 A2973 RMK SF8 SLP066

CYYG;2009-06-26 07:00;CYYG 260700Z 22007KT 15SM OVC007 19/18 A2972 RMK SF8 SLP065

CYYG;2009-06-26 07:37;CYYG 260737Z 19005KT 15SM OVC010 19/ RMK SF8

CYYG;2009-06-26 08:00;CYYG 260800Z 19005KT 15SM OVC010 19/18 A2972 RMK SC8 SLP063

CYYG;2009-06-26 09:00;CYYG 260900Z 21006KT 10SM BKN009 OVC230 19/18 A2972 RMK SC7CI0 BR SLP065

CYYG;2009-06-26 09:42;CYYG 260942Z 21006KT 10SM BKN006 OVC230 19/ RMK SC7CI0 BR

CYYG;2009-06-26 10:00;CYYG 261000Z 21008KT 10SM OVC005 19/18 A2973 RMK SF7 BR SLP066

CYYG;2009-06-26 11:00;CYYG 261100Z 20008KT 6SM BR BKN004 OVC007 19/18 A2973 RMK SF6SF2 VIS S 3 SLP068

CYYG;2009-06-26 11:23;CYYG 261123Z 21010KT 8SM BKN005 OVC035 19/ RMK SF7SC1

CYYG;2009-06-26 12:00;CYYG 261200Z 22008KT 15SM OVC006 19/18 A2974 RMK SF8 SLP072

CYYG;2009-06-26 12:20;CYYG 261220Z 21010KT 15SM BKN010 OVC035 20/ RMK SF7SC1

CYYG;2009-06-26 13:00;CYYG 261300Z 20010KT 15SM BKN012 BKN035 21/18 A2973 RMK SC6SC1 SLP068

CYYG;2009-06-26 14:00;CYYG 261400Z 20006KT 15SM SCT013 BKN300 22/18 A2973 RMK SC4CI1 SLP066

CYYG;2009-06-26 15:00;CYYG 261500Z 19005KT 15SM FEW015 SCT300 22/18 A2972 RMK SC2CI1 SLP064

CYYG;2009-06-26 16:00;CYYG 261600Z 18010KT 15SM FEW018 FEW150 23/18 A2973 RMK SC2AC1 SLP066

CYYG;2009-06-26 17:00;CYYG 261700Z 19013KT 15SM SCT021 SCT150 23/18 A2973 RMK SC3AC1 SLP067

CYYG;2009-06-26 18:00;CYYG 261800Z CCA 22008KT 15SM FEW025 BKN038 23/18 A2973 RMK CU2SC5 MDT CU ASOCTD SLP067

CYYG;2009-06-26 19:00;CYYG 261900Z 22007KT 15SM FEW025 BKN045 BKN300 24/18 A2972 RMK CU2SC3CI1 CB DIST E SLP065

CYYG;2009-06-26 20:00;CYYG 262000Z 21008KT 15SM FEW030 FEW045 BKN300 24/17 A2972 RMK SC1SC1CI2 MDT CU ASOCTD SLP065

CYYG;2009-06-26 21:00;CYYG 262100Z 22008KT 15SM FEW030 FEW045 BKN250 24/17 A2971 RMK SC1SC1CI1 SLP061

CYYG;2009-06-26 22:00;CYYG 262200Z 22005KT 15SM FEW030TCU BKN250 24/17 A2972 RMK TCU1CI1 SLP064

CYYG;2009-06-26 23:00;CYYG 262300Z 21004KT 15SM FEW030TCU SCT250 23/17 A2973 RMK TCU1CI1 SLP068

CYYG;2009-06-27 00:00;CYYG 270000Z 14004KT 15SM FEW030TCU SCT250 21/17 A2974 RMK TCU1CI1 SLP071

CYYG;2009-06-27 01:00;CYYG 270100Z 15003KT 15SM SCT250 20/17 A2975 RMK CI1 SLP075

CYYG;2009-06-27 02:00;CYYG 270200Z 16004KT 15SM FEW033 FEW250 20/17 A2976 RMK SC1CI1 SLP078

CYYG;2009-06-27 03:00;CYYG 270300Z 22003KT 15SM FEW030 FEW250 19/17 A2977 RMK SC1CI1 SLP079

CYYG;2009-06-27 04:00;CYYG 270400Z 18002KT 15SM FEW230 19/17 A2977 RMK CI1 SLP079

CYYG;2009-06-27 05:00;CYYG 270500Z 15004KT 15SM FEW230 18/17 A2977 RMK CI1 SLP082

CYYG;2009-06-27 06:00;CYYG 270600Z 19003KT 15SM BKN060 18/17 A2978 RMK SC6 SLP083

CYYG;2009-06-27 07:00;CYYG 270700Z 18003KT 15SM BKN058 19/18 A2978 RMK SC6 SLP085

CYYG;2009-06-27 08:00;CYYG 270800Z 14003KT 15SM BKN059 18/18 A2979 RMK SC7 SLP087

CYYG;2009-06-27 09:00;CYYG 270900Z 19005KT 5SM BR FEW002 SCT031 BKN058 18/18 A2981 RMK SF1SC2SC4 SLP093

CYYG;2009-06-27 09:42;CYYG 270942Z 17005KT 5SM BR BKN002 BKN030 18/ RMK SF6SC2

CYYG;2009-06-27 10:00;CYYG 271000Z 18004KT 5SM BR BKN003 OVC028 19/18 A2982 RMK SF6SC2 SLP098

CYYG;2009-06-27 11:00;CYYG 271100Z 18003KT 10SM BKN005 BKN028 20/18 A2984 RMK SF6SC2 SLP105

CYYG;2009-06-27 12:00;CYYG 271200Z 18004KT 10SM BKN005 BKN028 20/18 A2985 RMK SF6SC1 VIS LWR E-SE SLP109

CYYG;2009-06-27 13:00;CYYG 271300Z 22006KT 15SM OVC007 20/18 A2985 RMK SF8 SLP109

CYYG;2009-06-27 14:00;CYYG 271400Z 15005KT 15SM OVC009 21/19 A2985 RMK SF8 SLP107

CYYG;2009-06-27 15:00;CYYG 271500Z 15005KT 15SM FEW007 OVC010 22/20 A2985 RMK SF1SC7 SLP107

CYYG;2009-06-27 16:00;CYYG 271600Z 14005KT 15SM BKN012 BKN030 BKN240 23/20 A2985 RMK SC5SC2CI0 SLP107

CYYG;2009-06-27 17:00;CYYG 271700Z 18004KT 15SM SCT018 BKN240 25/20 A2985 RMK CU3CI4 SLP107

CYYG;2009-06-27 18:00;CYYG 271800Z 17005KT 15SM FEW021 BKN200 25/19 A2985 RMK CU2CI2 SLP107

CYYG;2009-06-27 19:00;CYYG 271900Z 20004KT 15SM FEW021 BKN200 25/18 A2985 RMK CU2CI1 SLP108

CYYG;2009-06-27 20:00;CYYG 272000Z 14003KT 15SM FEW035TCU FEW210 BKN300 25/16 A2986 RMK TCU1CC2CI2 SLP110

CYYG;2009-06-27 21:00;CYYG 272100Z 15005KT 15SM FEW030TCU SCT130 BKN300 25/17 A2985 RMK TCU2AC2CI0 SLP109

CYYG;2009-06-27 22:00;CYYG 272200Z 12009KT 15SM FEW030 SCT130 BKN300 24/19 A2986 RMK CU1AC3CI0 SLP111

CYYG;2009-06-27 23:00;CYYG 272300Z 12006KT 15SM FEW030 SCT140 BKN280 23/19 A2987 RMK CU1AC1CI2 SLP116

CYYG;2009-06-28 00:00;CYYG 280000Z 10006KT 15SM SCT047 BKN140 21/18 A2989 RMK SC3AC2 SLP121

CYYG;2009-06-28 01:00;CYYG 280100Z 10008KT 15SM BKN048 20/18 A2990 RMK SC6 SLP125

CYYG;2009-06-28 02:00;CYYG 280200Z 11004KT 15SM BKN052 20/18 A2990 RMK SC6 SLP125

CYYG;2009-06-28 03:00;CYYG 280300Z 11006KT 15SM BKN053 19/18 A2990 RMK SC7 SLP124

CYYG;2009-06-28 04:00;CYYG 280400Z 15004KT 15SM BKN054 19/17 A2989 RMK SC6 SLP122

CYYG;2009-06-28 05:00;CYYG 280500Z 17006KT 15SM BKN050 19/17 A2989 RMK SC4 SLP123

CYYG;2009-06-28 06:00;CYYG 280600Z 15005KT 15SM BKN029 19/17 A2989 RMK SC4 SLP122

CYYG;2009-06-28 07:00;CYYG 280700Z 15005KT 15SM SCT032 BKN054 18/17 A2989 RMK SC2SC2 SLP122

CYYG;2009-06-28 08:00;CYYG 280800Z 13004KT 15SM BKN056 18/17 A2990 RMK SC6 SLP126

CYYG;2009-06-28 09:00;CYYG 280900Z 14007KT 15SM BKN056 17/16 A2991 RMK SC6 SLP129

CYYG;2009-06-28 10:00;CYYG 281000Z 13006KT 15SM BKN058 17/16 A2992 RMK SC6 SLP130

CYYG;2009-06-28 11:00;CYYG 281100Z 16008KT 15SM FEW010 OVC062 19/17 A2993 RMK SF1SC6 SLP133

CYYG;2009-06-28 12:00;CYYG 281200Z 14005KT 15SM SCT009 OVC063 20/17 A2993 RMK SF3SC4 SLP136

CYYG;2009-06-28 13:00;CYYG 281300Z 15006KT 15SM BKN010 OVC063 20/18 A2993 RMK SF5SC3 SLP135

CYYG;2009-06-28 14:00;CYYG 281400Z 11009KT 15SM BKN012 OVC062 22/18 A2991 RMK SF5SC3 SLP129

CYYG;2009-06-28 15:00;CYYG 281500Z 12011G16KT 15SM BKN014 OVC060 21/18 A2990 RMK SC6SC2 SLP127

CYYG;2009-06-28 16:00;CYYG 281600Z 13013KT 15SM OVC016 22/18 A2990 RMK SC8 SLP124

CYYG;2009-06-28 17:00;CYYG 281700Z 13012G18KT 15SM BKN020 OVC250 22/17 A2989 RMK SC7CI0 SLP123

CYYG;2009-06-28 18:00;CYYG 281800Z 11010G16KT 15SM OVC020 21/17 A2988 RMK SC7 SLP119

CYYG;2009-06-28 19:00;CYYG 281900Z 12012KT 15SM BKN018 OVC230 21/17 A2988 RMK SC7CI0 SLP118

CYYG;2009-06-28 20:00;CYYG 282000Z 11014KT 15SM BKN018 OVC060 20/16 A2987 RMK SC7SC1 SLP116

CYYG;2009-06-28 21:00;CYYG 282100Z 12014KT 15SM OVC016 19/16 A2985 RMK SC8 SLP108

CYYG;2009-06-28 22:00;CYYG 282200Z 11013G19KT 15SM OVC014 18/15 A2985 RMK SC8 SLP107

CYYG;2009-06-28 23:00;CYYG 282300Z 11011KT 15SM OVC013 18/15 A2984 RMK SC8 SLP106

CYYG;2009-06-29 00:00;CYYG 290000Z 11011G16KT 15SM OVC010 16/15 A2984 RMK SC8 SLP106

CYYG;2009-06-29 00:23;CYYG 290023Z 10011KT 15SM OVC007 16/ RMK SC8

CYYG;2009-06-29 01:00;CYYG 290100Z 11011KT 15SM OVC009 16/15 A2985 RMK SC8 SLP109

CYYG;2009-06-29 02:00;CYYG 290200Z 11011G17KT 15SM BKN010 OVC022 16/14 A2985 RMK SC6SC2 SLP107

CYYG;2009-06-29 03:00;CYYG 290300Z 12013KT 15SM OVC009 15/14 A2982 RMK SC8 SLP100

CYYG;2009-06-29 04:00;CYYG 290400Z 11010G17KT 15SM OVC006 15/14 A2981 RMK SF8 SLP094

CYYG;2009-06-29 05:00;CYYG 290500Z 12012KT 10SM OVC005 15/14 A2979 RMK SF8 SLP090

CYYG;2009-06-29 06:00;CYYG 290600Z 11011KT 10SM OVC005 15/14 A2978 RMK SF8 SLP084

CYYG;2009-06-29 07:00;CYYG 290700Z 10010KT 10SM OVC005 15/14 A2976 RMK SF8 SLP079

CYYG;2009-06-29 08:00;CYYG 290800Z 10012KT 10SM OVC006 15/14 A2976 RMK SF8 SLP077

CYYG;2009-06-29 09:00;CYYG 290900Z 09013KT 15SM OVC005 15/14 A2974 RMK SF8 SLP073

CYYG;2009-06-29 10:00;CYYG 291000Z 09011G18KT 15SM OVC007 15/14 A2974 RMK SF8 SLP071

CYYG;2009-06-29 10:13;CYYG 291013Z 10012G18KT 15SM -SHRA OVC007 16/ RMK SF8

CYYG;2009-06-29 11:00;CYYG 291100Z 10011G20KT 15SM -SHRA OVC007 16/15 A2974 RMK SF8 SLP072

CYYG;2009-06-29 12:00;CYYG 291200Z 10012KT 8SM -SHRA OVC006 16/15 A2974 RMK SF8 SLP070

CYYG;2009-06-29 13:00;CYYG 291300Z 10015KT 15SM -SHRA OVC006 16/15 A2972 RMK SF8 SLP066

CYYG;2009-06-29 13:50;CYYG 291350Z 10015G22KT 15SM OVC007 17/ RMK SF8

CYYG;2009-06-29 14:00;CYYG 291400Z 11014G22KT 15SM OVC008 17/16 A2971 RMK SC8 SLP061

CYYG;2009-06-29 15:00;CYYG 291500Z 12017KT 15SM OVC008 18/16 A2970 RMK SC8 SLP058

CYYG;2009-06-29 15:40;CYYG 291540Z 10015G20KT 15SM -SHRA OVC010 18/ RMK SC8

CYYG;2009-06-29 16:00;CYYG 291600Z 11018G26KT 3SM -SHRA BR OVC010 18/16 A2969 RMK SC8 SLP056

CYYG;2009-06-29 16:22;CYYG 291622Z 11012G21KT 2SM -SHRA OVC009 17/ RMK SC8

CYYG;2009-06-29 17:00;CYYG 291700Z 11015G21KT 3SM R03/4000VP6000FT/D -SHRA BR OVC008 17/16 A2969 RMK SC8 SLP055

CYYG;2009-06-29 18:00;CYYG 291800Z 11012G17KT 12SM -SHRA OVC009 17/16 A2969 RMK SC8 SLP056

CYYG;2009-06-29 18:48;CYYG 291848Z 12015G22KT 15SM OVC009 17/ RMK SC8

CYYG;2009-06-29 19:00;CYYG 291900Z 12016G22KT 15SM OVC009 17/16 A2969 RMK SC8 SLP054

CYYG;2009-06-29 19:24;CYYG 291924Z 11012KT 12SM -SHRA OVC007 17/ RMK SC8 VIS LWR S

CYYG;2009-06-29 20:00;CYYG 292000Z 12012G17KT 15SM -SHRA OVC009 17/16 A2969 RMK SC8 VIS LWR S-SW SLP054

CYYG;2009-06-29 21:00;CYYG 292100Z 11011G17KT 15SM -SHRA OVC009 17/16 A2968 RMK SC8 SLP051

CYYG;2009-06-29 22:00;CYYG 292200Z 10013KT 15SM -SHRA OVC009 17/16 A2967 RMK SC8 SLP049

CYYG;2009-06-29 22:18;CYYG 292218Z 11013KT 15SM OVC009 17/ RMK SC8

CYYG;2009-06-29 23:00;CYYG 292300Z 12013G20KT 15SM OVC010 17/15 A2968 RMK SC8 SLP050

CYYG;2009-06-30 00:00;CYYG 300000Z 11010KT 15SM OVC010 16/15 A2968 RMK SC8 SLP051

CYYG;2009-06-30 01:00;CYYG 300100Z 11009G15KT 15SM OVC010 16/15 A2969 RMK SC8 SLP054

CYYG;2009-06-30 02:00;CYYG 300200Z 12013KT 15SM OVC009 15/14 A2969 RMK SC8 SLP053

CYYG;2009-06-30 03:00;CYYG 300300Z 12008KT 15SM OVC009 15/14 A2969 RMK SC8 SLP054

CYYG;2009-06-30 03:14;CYYG 300314Z 13006KT 3SM BR OVC009 15/ RMK SF8

CYYG;2009-06-30 03:18;CYYG 300318Z 13006KT 3SM -SHRA BR OVC008 15/ RMK SF8

CYYG;2009-06-30 04:00;CYYG 300400Z 12008KT 10SM -DZ OVC007 15/14 A2968 RMK SF8 SLP050

CYYG;2009-06-30 05:00;CYYG 300500Z 13007KT 12SM -DZ OVC006 15/14 A2968 RMK SF8 SLP050

CYYG;2009-06-30 06:00;CYYG 300600Z 13007KT 12SM -DZ OVC007 15/15 A2968 RMK SF8 SLP051

CYYG;2009-06-30 07:00;CYYG 300700Z 12007KT 8SM -DZ OVC005 15/15 A2968 RMK SF8 SLP050

CYYG;2009-06-30 08:00;CYYG 300800Z 12006KT 10SM -DZ OVC006 15/15 A2969 RMK SF8 SLP054

CYYG;2009-06-30 09:00;CYYG 300900Z 12006KT 10SM -DZ OVC005 15/15 A2969 RMK SF8 SLP056

CYYG;2009-06-30 10:00;CYYG 301000Z 12010KT 10SM -DZ OVC005 15/15 A2971 RMK SF8 SLP060

CYYG;2009-06-30 10:06;CYYG 301006Z 12010KT 15SM OVC006 15/ RMK SF8

CYYG;2009-06-30 11:00;CYYG 301100Z 13007KT 15SM OVC005 16/15 A2972 RMK SF8 SLP065

CYYG;2009-06-30 12:00;CYYG 301200Z 12007KT 15SM OVC006 16/15 A2973 RMK SF8 SLP068

CYYG;2009-06-30 13:00;CYYG 301300Z 11007KT 15SM OVC009 17/16 A2973 RMK SF8 SLP067

CYYG;2009-06-30 14:00;CYYG 301400Z 12009KT 15SM BKN009 OVC022 18/16 A2975 RMK SF6SC1 SLP074

CYYG;2009-06-30 14:20;CYYG 301420Z 12009KT 15SM BKN011 OVC020 19/ RMK SF6SC1

CYYG;2009-06-30 15:00;CYYG 301500Z 11009KT 15SM OVC011 18/16 A2977 RMK SF8 SLP080

CYYG;2009-06-30 16:00;CYYG 301600Z 10009KT 15SM BKN010 OVC020 18/15 A2976 RMK SF7SC1 SLP079

CYYG;2009-06-30 17:00;CYYG 301700Z 11008KT 15SM BKN010 OVC034 18/16 A2977 RMK SF7SC1 SLP080

CYYG;2009-06-30 18:00;CYYG 301800Z 11010KT 15SM BKN013 OVC021 19/16 A2978 RMK SC6SC1 SLP085

CYYG;2009-06-30 19:00;CYYG 301900Z CCA 11008KT 15SM BKN013 OVC020 18/16 A2979 RMK SC6SC2 SHRA N SLP089

CYYG;2009-06-30 20:00;CYYG 302000Z 12011KT 15SM OVC010 17/15 A2980 RMK SC8 SHRA NE-E SLP092

CYYG;2009-06-30 20:10;CYYG 302010Z 11009KT 12SM -DZ BKN010 OVC018 16/ RMK SC6SC2

CYYG;2009-06-30 20:25;CYYG 302025Z 12009KT 3SM -DZ BR BKN009 OVC017 16/ RMK SF7SC1 VIS HHR S-W

CYYG;2009-06-30 20:39;CYYG 302039Z 10008KT 4SM -DZ BR BKN006 OVC016 16/ RMK SF7SC1

CYYG;2009-06-30 21:00;CYYG 302100Z 12009KT 4SM -DZ BR BKN006 OVC016 16/15 A2980 RMK SF7SC1 SLP093

CYYG;2009-06-30 21:23;CYYG 302123Z 11006KT 2SM -DZ BR OVC005 15/ RMK SF8

CYYG;2009-06-30 21:51;CYYG 302151Z 09007KT 2SM -SHRA BR FEW003 OVC006 15/ RMK SF2SF6

CYYG;2009-06-30 22:00;CYYG 302200Z 09008KT 2 1/2SM -SHRA BR FEW003 BKN006 OVC014 15/15 A2981 RMK SF2SF6SC1 SLP096

CYYG;2009-06-30 22:51;CYYG 302251Z 10007KT 3SM -DZ BR BKN004 OVC007 15/ RMK SF6SF2

CYYG;2009-06-30 23:00;CYYG 302300Z 12009KT 3SM -DZ BR BKN004 OVC007 15/15 A2982 RMK SF5SF3 VIS SE-SW 8 SLP099

CYYG;2009-06-30 23:29;CYYG 302329Z 12008KT 15SM BKN005 OVC013 15/ RMK SF6SC2 VIS LWR W-NE

CYYG;2009-07-01 01:00;CYYG 010100Z 11006KT 15SM BKN004 BKN020 BKN044 15/14 A2985 RMK SF5SC2SC1 SLP110

CYYG;2009-07-01 02:00;CYYG 010200Z 13007KT 15SM OVC007 15/14 A2987 RMK SF8 SLP114

CYYG;2009-07-01 03:00;CYYG 010300Z 13007KT 15SM BKN009 BKN025 OVC043 15/14 A2987 RMK SF5SC2SC2 SLP116

CYYG;2009-07-01 04:00;CYYG 010400Z 12009KT 15SM OVC005 14/13 A2987 RMK SF8 SLP116

CYYG;2009-07-01 05:00;CYYG 010500Z 10007KT 15SM OVC007 14/13 A2988 RMK SF8 SLP120

CYYG;2009-07-01 06:00;CYYG 010600Z 12008KT 15SM OVC008 14/13 A2989 RMK SF8 SLP121

CYYG;2009-07-01 07:00;CYYG 010700Z 12008KT 15SM BKN007 OVC012 14/13 A2989 RMK SF6SC2 SLP121

CYYG;2009-07-01 07:47;CYYG 010747Z 12008KT 3SM SHRA BR OVC009 14/ RMK SF8

CYYG;2009-07-01 08:00;CYYG 010800Z 11008KT 15SM -SHRA OVC008 14/13 A2990 RERA RMK SF8 SLP126

CYYG;2009-07-01 08:50;CYYG 010850Z 11007KT 15SM BKN008 14/ RMK SF7

CYYG;2009-07-01 09:00;CYYG 010900Z 11007KT 15SM BKN008 14/13 A2991 RMK SF7 SLP128

CYYG;2009-07-01 09:41;CYYG 010941Z 11006KT 15SM -SHRA OVC009 14/ RMK SF8 VIS N-E 3

CYYG;2009-07-01 10:00;CYYG 011000Z 11008KT 15SM -SHRA BKN008 BKN014 OVC022 14/13 A2992 RMK SF5SC2SC2 VIS NW-E 3 SLP132

CYYG;2009-07-01 10:18;CYYG 011018Z 13008KT 15SM BKN007 14/ RMK SF7 SH DIST NW-N

CYYG;2009-07-01 11:00;CYYG 011100Z 13008KT 15SM OVC008 14/13 A2994 RMK SF8 SLP139

CYYG;2009-07-01 12:00;CYYG 011200Z 13011KT 15SM OVC009 15/13 A2994 RMK SF8 SLP140

CYYG;2009-07-01 13:00;CYYG 011300Z 12010KT 15SM BKN009 OVC014 15/14 A2995 RMK SF7SC1 SLP142

CYYG;2009-07-01 14:00;CYYG 011400Z 11011KT 15SM BKN009 OVC018 16/14 A2996 RMK SF6SC1 SLP144

CYYG;2009-07-01 14:30;CYYG 011430Z 10014KT 15SM BKN010 OVC022 16/ RMK SC6SC2

CYYG;2009-07-01 15:00;CYYG 011500Z 10011KT 15SM BKN012 BKN025 OVC045 17/14 A2996 RMK SC6SC2SC1 SLP146

CYYG;2009-07-01 16:00;CYYG 011600Z 13011KT 15SM BKN013 OVC025 18/14 A2997 RMK SC6SC2 SLP149

CYYG;2009-07-01 17:00;CYYG 011700Z 12009KT 15SM SCT015 OVC028 18/15 A2998 RMK SC3SC5 SLP151

CYYG;2009-07-01 18:00;CYYG 011800Z 12011KT 15SM BKN013 BKN028 BKN057 17/14 A2998 RMK SC5SC2SC1 SLP151

CYYG;2009-07-01 19:00;CYYG 011900Z 12013KT 15SM BKN014 OVC028 18/14 A2998 RMK SC6SC1 SLP154

CYYG;2009-07-01 20:00;CYYG 012000Z 11012KT 15SM FEW014 SCT018 BKN060 18/15 A2998 RMK SC2SC2SC2 SLP151

CYYG;2009-07-01 20:35;CYYG 012035Z 10013KT 15SM BKN009 BKN028 BKN060 17/ RMK SF5SC1SC2

CYYG;2009-07-01 21:00;CYYG 012100Z 11011KT 15SM BKN008 BKN014 BKN050 17/15 A2997 RMK SF5SC2SC1 SLP149

CYYG;2009-07-01 21:20;CYYG 012120Z 11009KT 15SM FEW010 BKN020 BKN075 17/ RMK SC2SC4AC1

CYYG;2009-07-01 22:00;CYYG 012200Z 11011KT 15SM SCT011 BKN015 BKN075 17/14 A2998 RMK SC4SC2AC1 SLP154

CYYG;2009-07-01 23:00;CYYG 012300Z 13010KT 15SM BKN011 BKN022 16/14 A3000 RMK SC6SC2 SLP158

CYYG;2009-07-02 00:00;CYYG 020000Z 11009KT 15SM BKN010 BKN021 BKN056 15/13 A3000 RMK SC5SC1SC2 SLP160

CYYG;2009-07-02 00:12;CYYG 020012Z 13008KT 15SM BKN009 BKN021 OVC057 15/ RMK SC6SC2SC1

CYYG;2009-07-02 00:34;CYYG 020034Z 13009KT 15SM SCT008 BKN016 OVC067 15/ RMK SF3SC2AC2

CYYG;2009-07-02 01:00;CYYG 020100Z 13008KT 15SM FEW009 BKN016 OVC067 15/13 A3001 RMK SF2SC3AC2 SLP163

CYYG;2009-07-02 02:00;CYYG 020200Z 13009KT 15SM BKN009 BKN017 BKN042 OVC070 15/13 A3002 RMK SF5SC1SC1AC2 SLP167

CYYG;2009-07-02 02:37;CYYG 020237Z 12009KT 15SM SCT009 BKN015 OVC075 15/ RMK SF3SC3AC2

CYYG;2009-07-02 03:00;CYYG 020300Z 12009KT 15SM SCT009 BKN015 OVC075 14/13 A3001 RMK SF3SC3AC2 SLP164

CYYG;2009-07-02 03:39;CYYG 020339Z 13005KT 15SM BKN008 OVC016 14/ RMK SF6SC2

CYYG;2009-07-02 04:00;CYYG 020400Z 12008KT 15SM BKN008 BKN013 OVC017 14/13 A3001 RMK SF6SC2SC1 SLP162

CYYG;2009-07-02 05:00;CYYG 020500Z 12007KT 15SM BKN008 BKN014 OVC078 14/13 A3001 RMK SF5SC2AC2 SLP163

CYYG;2009-07-02 06:00;CYYG 020600Z 13010KT 15SM BKN008 OVC012 14/13 A3001 RMK SF6SC2 SLP163

CYYG;2009-07-02 07:00;CYYG 020700Z 12006KT 15SM SCT007 BKN012 OVC017 14/13 A3001 RMK SF3SC2SC2 SLP164

CYYG;2009-07-02 08:00;CYYG 020800Z 12008KT 15SM FEW007 BKN015 14/13 A3001 RMK SF2SC5 SLP164

CYYG;2009-07-02 08:46;CYYG 020846Z 13008KT 15SM BKN007 BKN012 14/ RMK SF6SC2

CYYG;2009-07-02 09:00;CYYG 020900Z 14006KT 15SM BKN007 BKN012 14/13 A3002 RMK SF5SC2 SLP167

CYYG;2009-07-02 10:00;CYYG 021000Z 13008KT 15SM FEW007 BKN010 BKN015 14/13 A3002 RMK SF2SC3SC2 SLP166

CYYG;2009-07-02 11:00;CYYG 021100Z 13006KT 15SM BKN008 OVC012 15/13 A3004 RMK SF6SC2 SLP171

CYYG;2009-07-02 12:00;CYYG 021200Z 14007KT 15SM OVC010 15/14 A3004 RMK SF7 SLP172

CYYG;2009-07-02 13:00;CYYG 021300Z 14009KT 15SM OVC010 16/14 A3003 RMK SF8 SLP170

CYYG;2009-07-02 14:00;CYYG 021400Z 14009KT 15SM VCSH BKN010 OVC021 16/15 A3003 RMK SF6SC2 VSBY S 2-SHRA SLP169

CYYG;2009-07-02 14:22;CYYG 021422Z 14010KT 2SM -SHRA OVC007 16/ RMK SF8

CYYG;2009-07-02 14:52;CYYG 021452Z 14008KT 8SM OVC009 16/ RMK SF8

CYYG;2009-07-02 15:00;CYYG 021500Z 14008KT 8SM OVC008 16/16 A3002 RMK SF8 SLP167

CYYG;2009-07-02 16:00;CYYG 021600Z 14006KT 15SM OVC009 17/15 A3003 RMK SF8 SLP168

CYYG;2009-07-02 16:39;CYYG 021639Z 14006KT 15SM OVC010 17/ RMK SF8

CYYG;2009-07-02 17:00;CYYG 021700Z 11006KT 15SM OVC011 17/15 A3002 RMK SC8 SLP166

CYYG;2009-07-02 18:00;CYYG 021800Z 11005KT 15SM OVC013 18/15 A3002 RMK SC8 SLP166

CYYG;2009-07-02 19:00;CYYG 021900Z 16005KT 15SM BKN016 19/16 A3001 RMK SC7 SLP161

CYYG;2009-07-02 20:00;CYYG 022000Z 18006KT 15SM BKN018 BKN035 20/16 A3000 RMK SC6SC2 SLP159

CYYG;2009-07-02 21:00;CYYG 022100Z 16004KT 15SM SCT016 BKN026 20/16 A2999 RMK SC3SC4 SLP156

CYYG;2009-07-02 22:00;CYYG 022200Z 12007KT 15SM FEW014 OVC021 19/16 A2999 RMK SC2SC6 SLP155

CYYG;2009-07-02 23:00;CYYG 022300Z 13005KT 15SM OVC011 18/16 A2998 RMK SC8 SLP154

CYYG;2009-07-02 23:13;CYYG 022313Z 13005KT 10SM -DZ OVC013 18/ RMK SC8

CYYG;2009-07-03 00:00;CYYG 030000Z 14005KT 3SM -DZ BR OVC009 17/16 A2999 RMK SC8 SLP157

CYYG;2009-07-03 01:00;CYYG 030100Z 14006KT 6SM -DZ BR OVC006 17/16 A3000 RMK SC8 SLP159

CYYG;2009-07-03 02:00;CYYG 030200Z 15005KT 10SM SCT005 OVC016 17/16 A3000 RMK SC4SC4 SLP159

CYYG;2009-07-03 03:00;CYYG 030300Z 16008KT 15SM BKN007 BKN012 OVC020 17/16 A2999 RMK SC5SC2SC2 SLP157

CYYG;2009-07-03 04:00;CYYG 030400Z 17008KT 15SM BKN007 OVC012 16/16 A2998 RMK SC5SC3 SLP151

CYYG;2009-07-03 05:00;CYYG 030500Z 16006KT 15SM BKN007 OVC012 16/15 A2997 RMK SC6SC2 SLP149

CYYG;2009-07-03 06:00;CYYG 030600Z 19010KT 15SM OVC007 16/15 A2998 RMK SC8 SLP154

CYYG;2009-07-03 07:00;CYYG 030700Z 18007KT 8SM OVC004 15/15 A2998 RMK SC8 SLP151

CYYG;2009-07-03 08:00;CYYG 030800Z 18008KT 2SM BR OVC002 15/15 A2997 RMK SF8 SLP150

CYYG;2009-07-03 08:34;CYYG 030834Z 17008KT 1SM R03/P6000FT/N BR OVC002 15/ RMK SF8

CYYG;2009-07-03 09:00;CYYG 030900Z 17008KT 3/4SM R03/4000V5500FT/D BR OVC002 15/15 A2997 RMK SF8 SLP150

CYYG;2009-07-03 09:27;CYYG 030927Z 18009KT 1/2SM R03/3000VP6000FT/D FG VV002 15/ RMK FG8

CYYG;2009-07-03 10:00;CYYG 031000Z 16007KT 1/2SM R03/3500FT/U FG VV002 15/15 A2997 RMK FG8 SLP149

CYYG;2009-07-03 11:00;CYYG 031100Z 16008KT 1/2SM R03/P6000FT/U FG VV002 15/15 A2997 RMK FG8 SLP150

CYYG;2009-07-03 11:22;CYYG 031122Z 16008KT 1SM R03/P6000FT/U BR VV002 15/ RMK FG8

CYYG;2009-07-03 11:27;CYYG 031127Z 16007KT 3SM BR OVC004 15/ RMK SF8

CYYG;2009-07-03 12:00;CYYG 031200Z 18008KT 6SM BR BKN004 OVC011 16/16 A2998 RMK SF7SC1 SLP152

CYYG;2009-07-03 13:00;CYYG 031300Z 18007KT 6SM BR BKN006 BKN016 OVC033 17/16 A2997 RMK SF6SC2SC1 SLP149

CYYG;2009-07-03 14:00;CYYG 031400Z 14007KT 8SM BKN009 BKN035 19/17 A2995 RMK SF6SC2 SLP143

CYYG;2009-07-03 14:46;CYYG 031446Z 16008KT 10SM SCT010 BKN210 21/ RMK CU3CC1

CYYG;2009-07-03 15:00;CYYG 031500Z 18009KT 10SM BKN011 BKN210 21/18 A2995 RMK CU5CC1 SLP142

CYYG;2009-07-03 15:44;CYYG 031544Z 16011KT 10SM BKN016 BKN032 OVC210 22/ RMK CU5SC2CC1

CYYG;2009-07-03 16:00;CYYG 031600Z 17011KT 10SM SCT018 BKN030 BKN200 22/18 A2993 RMK CU3SC2CC1 MDT CU ASOCTD SLP136

CYYG;2009-07-03 17:00;CYYG 031700Z 14010G15KT 10SM FEW018 BKN025 BKN040 23/19 A2991 RMK CU2SC3SC2 SLP130

CYYG;2009-07-03 18:00;CYYG 031800Z 13010G16KT 15SM BKN016 OVC035 22/19 A2989 RMK SC6SC2 TCU EMBD SLP121

CYYG;2009-07-03 19:00;CYYG 031900Z 14010KT 15SM OVC015 21/18 A2989 RMK SC8 TCU EMBDD SLP121

CYYG;2009-07-03 20:00;CYYG 032000Z 15013KT 15SM VCSH BKN014 OVC050 21/18 A2987 RMK SC6SC2 CB ASOCTD SLP114

CYYG;2009-07-03 20:14;CYYG 032014Z 15011G17KT 15SM VCSH OVC014 21/ RMK SC8 CB ASOCTD S-W LTGCG

CYYG;2009-07-03 20:18;CYYG 032018Z 15010G17KT 15SM TS VCSH OVC013 21/ RMK SC8 CB ASOCTD S-W LTGCG

CYYG;2009-07-03 20:52;CYYG 032052Z 15011G16KT 15SM -TSRA BKN011CB 20/ RMK CB7 LTGCG ALL QUADS

CYYG;2009-07-03 21:00;CYYG 032100Z 16009G16KT 10SM -TSRA OVC011CB 20/18 A2986 RMK CB8 VIS S 2 LTGCGCC ALQDS SLP111

CYYG;2009-07-03 21:03;CYYG 032103Z 19012G17KT 3/4SM R03/3000VP6000FT/D +TSRA BKN006 OVC012CB 19/ RMK SF5CB3 LTGCG ALQDS

CYYG;2009-07-03 21:23;CYYG 032123Z 14006KT 12SM -TSRA SCT007 BKN015CB 19/ RERA RMK SF3CB4 LTGCG N-SE

CYYG;2009-07-03 21:56;CYYG 032156Z 14009KT 15SM VCSH FEW006 OVC011 19/ RETSRA RMK SF2SC6 CB ASOCTD LTGCG DIST E

CYYG;2009-07-03 22:00;CYYG 032200Z 14009KT 15SM VCSH FEW006 OVC010 19/18 A2987 RETSRA RMK SF2SC6 CB ASOCTD LTGCG DIST E SLP114

CYYG;2009-07-03 23:00;CYYG 032300Z 15011KT 15SM FEW006 SCT013 BKN028CB 19/18 A2984 RMK SF2SC2CB2 CB DIST NE-E SLP106

CYYG;2009-07-04 00:00;CYYG 040000Z 16009KT 15SM FEW005 BKN009 BKN028CB 18/17 A2985 RMK SF1SF4CB2 SLP110

CYYG;2009-07-04 01:00;CYYG 040100Z 15007KT 15SM FEW005 SCT013 BKN130 18/18 A2987 RMK SF1SC3AC2 SLP114

CYYG;2009-07-04 02:00;CYYG 040200Z 17009KT 15SM FEW005 FEW013 BKN130 18/17 A2986 RMK SF2SC1AC4 SLP111

CYYG;2009-07-04 03:00;CYYG 040300Z 18007KT 15SM FEW005 BKN010 BKN130 18/18 A2985 RMK SF1SC4AC2 SLP109

CYYG;2009-07-04 04:00;CYYG 040400Z 17008KT 15SM OVC005 18/18 A2984 RMK SF8 SLP105

CYYG;2009-07-04 05:00;CYYG 040500Z 18008KT 15SM BKN003 OVC009 18/17 A2983 RMK SF6SC2 SLP102

CYYG;2009-07-04 06:00;CYYG 040600Z 18005KT 15SM OVC005 18/17 A2983 RMK SF8 SLP101

CYYG;2009-07-04 07:00;CYYG 040700Z 19006KT 15SM OVC006 17/17 A2982 RMK SF8 SLP097

CYYG;2009-07-04 07:51;CYYG 040751Z 15004KT 3SM BR OVC003 17/ RMK SF8

CYYG;2009-07-04 08:00;CYYG 040800Z 14004KT 2 1/2SM BR OVC003 17/17 A2979 RMK SF8 SLP088

CYYG;2009-07-04 09:00;CYYG 040900Z 09002KT 2 1/2SM BR OVC006 17/17 A2977 RMK SF8 SLP082

CYYG;2009-07-04 10:00;CYYG 041000Z 16002KT 2 1/2SM BR OVC006 17/17 A2978 RMK SF8 SLP085

CYYG;2009-07-04 10:17;CYYG 041017Z 16005KT 2SM -SHRA BR OVC006 17/ RMK SF8

CYYG;2009-07-04 11:00;CYYG 041100Z 16005KT 2SM BR OVC006 18/17 A2981 RMK SF8 SLP093

CYYG;2009-07-04 11:47;CYYG 041147Z 13003KT 2SM BR BKN003 OVC010 18/ RMK SF7SC1

CYYG;2009-07-04 12:00;CYYG 041200Z 15005KT 2SM BR BKN003 OVC010 18/18 A2978 RMK SF7SC1 SLP086

CYYG;2009-07-04 12:30;CYYG 041230Z 15007KT 2 1/2SM BR BKN004 OVC010 19/ RMK SF7SC1

CYYG;2009-07-04 12:44;CYYG 041244Z 17005KT 3SM BR SCT004 BKN020 OVC082 19/ RMK SF3SC3AC1

CYYG;2009-07-04 13:00;CYYG 041300Z 15005KT 3SM BR SCT004 BKN011 BKN080 21/19 A2977 RMK SF3SC2AC2 SLP083

CYYG;2009-07-04 14:00;CYYG 041400Z 20010KT 4SM BR SCT010 OVC012 21/18 A2976 RMK CF4CU4 SLP078

CYYG;2009-07-04 14:33;CYYG 041433Z 18008KT 3SM -SHRA BR BKN007 OVC012 20/ RMK CF6CU2

CYYG;2009-07-04 15:00;CYYG 041500Z 17006KT 3SM -SHRA BR BKN007 BKN012 OVC080 20/18 A2976 RMK CF5CU2AC1 SLP076

CYYG;2009-07-04 15:39;CYYG 041539Z 23003KT 3SM -SHRA BR BKN006 BKN021 OVC080 20/ RMK CF5CU2AC1

CYYG;2009-07-04 16:00;CYYG 041600Z 20007KT 3SM BR BKN006 OVC011 20/18 A2975 RMK CF6CU2 SLP075

CYYG;2009-07-04 16:25;CYYG 041625Z 15007KT 3SM -SHRA BR BKN004 OVC011 19/ RMK CF7CU1

CYYG;2009-07-04 17:00;CYYG 041700Z 15005KT 3SM -SHRA BR BKN008 BKN011 OVC040 19/19 A2972 RMK CF6CU2SC1 SLP063

CYYG;2009-07-04 17:16;CYYG 041716Z 16008KT 6SM BR BKN006 OVC011 20/ RMK CF6CU2

CYYG;2009-07-04 18:00;CYYG 041800Z 17008KT 10SM BKN008 BKN010 OVC040 20/19 A2971 RMK CF6CU1SC2 SLP059

CYYG;2009-07-04 18:36;CYYG 041836Z 17009KT 12SM SCT008 OVC022 20/ RMK CF4CU4

CYYG;2009-07-04 19:00;CYYG 041900Z 15008KT 12SM SCT008 BKN018 OVC080 21/18 A2969 RMK CF3CU4AC1 SLP054

CYYG;2009-07-04 19:48;CYYG 041948Z 14010G15KT 12SM BKN013 OVC020 21/ RMK SC6CU2

CYYG;2009-07-04 20:00;CYYG 042000Z 14012KT 12SM BKN013 OVC020 21/18 A2967 RMK SC6CU2 SLP048

CYYG;2009-07-04 21:00;CYYG 042100Z 16011G16KT 12SM -SHRA BKN013 OVC097 19/17 A2966 RMK SC6AC2 OBS TAKEN +09 SLP042

CYYG;2009-07-04 21:27;CYYG 042127Z 17010KT 10SM -TSRA BKN013 OVC097 19/ RMK CU6AC1 CB EMBDD

CYYG;2009-07-04 22:00;CYYG 042200Z CCA 18007KT 3SM TSRA BKN023 OVC037 18/17 A2966 RMK CU7CU1 CB EMBDD LTGICCG W VIS W 2 SLP044

CYYG;2009-07-04 22:38;CYYG 042238Z 15007KT 10SM -TSRA FEW006 OVC020CB 18/ RERA RMK SF1CB8 CB MOVG NNE OCNL LTGCG

CYYG;2009-07-04 23:00;CYYG 042300Z 14006KT 4SM +TSRA FEW006 OVC021CB 18/17 A2965 RMK SF1CB8 CB OVHD MOVG NNE OCNL LTGCG /R14/ SLP041

CYYG;2009-07-04 23:19;CYYG 042319Z 11003KT 15SM -TSRA FEW006 OVC018 18/ RERA RMK SF1SC8 CB ASOCTD NE MOVG NE

CYYG;2009-07-04 23:28;CYYG 042328Z 12002KT 15SM -SHRA FEW006 OVC012 18/ RETSRA RMK SF1SC8 CB MOVD NE

CYYG;2009-07-05 00:00;CYYG 050000Z 13004KT 15SM BKN006 OVC012 18/18 A2964 RETSRA RMK SF6SC2 SLP037

CYYG;2009-07-05 01:00;CYYG 050100Z 14008KT 15SM BKN005 OVC017 18/17 A2963 RMK SF5SC3 SLP034

CYYG;2009-07-05 01:10;CYYG 050110Z 14007KT 15SM FEW005 OVC016 18/ RMK SF2SC6 CB DIST E OCNL LTGIC

CYYG;2009-07-05 02:00;CYYG 050200Z 14006KT 15SM FEW005 OVC013 18/17 A2962 RMK SF1SC7 SLP029

CYYG;2009-07-05 03:00;CYYG 050300Z 15004KT 15SM FEW005 OVC013 17/17 A2960 RMK SF1SC7 SLP024

CYYG;2009-07-05 03:54;CYYG 050354Z 15004KT 15SM BKN004 OVC008 17/ RMK SF5SF3

CYYG;2009-07-05 04:00;CYYG 050400Z 14004KT 15SM SCT004 OVC008 17/17 A2958 RMK SF3SF5 SLP018

CYYG;2009-07-05 05:00;CYYG 050500Z 14004KT 10SM -SHRA FEW004 OVC009 17/17 A2956 RMK SF2SF6 SLP010

CYYG;2009-07-05 05:46;CYYG 050546Z 17005KT 6SM BR BKN003 OVC007 17/ RMK SF6SF2

CYYG;2009-07-05 06:00;CYYG 050600Z 17005KT 6SM BR BKN003 OVC007 17/17 A2955 RMK SF6SF2 SLP008

CYYG;2009-07-05 07:00;CYYG 050700Z 20007KT 6SM BR OVC003 17/17 A2954 RMK SF8 SLP004

CYYG;2009-07-05 07:53;CYYG 050753Z 18008KT 2 1/2SM BR OVC003 17/ RMK SF8

CYYG;2009-07-05 08:00;CYYG 050800Z 18006KT 2 1/2SM BR OVC003 17/17 A2953 RMK SF8 SLP000

CYYG;2009-07-05 08:35;CYYG 050835Z 19007KT 2 1/2SM -SHRA BR OVC003 17/ RMK SF8

CYYG;2009-07-05 08:49;CYYG 050849Z 25014G20KT 5SM SHRA BR SCT003 OVC012TCU 16/ RMK SF3TCU5 WSHFT 0840

CYYG;2009-07-05 09:00;CYYG 050900Z 25012G20KT 3SM -SHRA BR FEW003 BKN012TCU OVC060 16/15 A2953 RERA RMK SF2TCU4SC2 SLP000

CYYG;2009-07-05 09:22;CYYG 050922Z 23006KT 3SM TSRA BR FEW003 SCT012TCU BKN080 16/ RMK SF1TCU3ACC4 CB ASOCTD E OCNL LTGCG

CYYG;2009-07-05 09:42;CYYG 050942Z 21006KT 15SM -SHRA FEW003 SCT020 OVC080 16/ RETSRA RMK SF1SC3ACC4 CB MOVD NE

CYYG;2009-07-05 10:00;CYYG 051000Z 21009KT 15SM -SHRA OVC008 16/15 A2952 RETSRA RMK SC8 SLP997

CYYG;2009-07-05 10:13;CYYG 051013Z 24007KT 15SM FEW008 OVC012 16/ RMK SF2SC6

CYYG;2009-07-05 10:27;CYYG 051027Z 20005KT 15SM -SHRA BKN006 16/ RMK SF7

CYYG;2009-07-05 11:00;CYYG 051100Z 22006KT 15SM -SHRA BKN006 16/15 A2954 RMK SF7 SLP003

CYYG;2009-07-05 12:00;CYYG 051200Z 26011G17KT 15SM -SHRA BKN006 15/15 A2952 RMK SF7 SLP996

CYYG;2009-07-05 12:29;CYYG 051229Z 22006KT 15SM BKN005 BKN009 BKN020 16/ RMK SF5SF2SC1

CYYG;2009-07-05 13:00;CYYG 051300Z 24009KT 15SM -SHRA FEW005 BKN008 16/15 A2955 RMK SF2SF6 VIS LWR W SLP005

CYYG;2009-07-05 13:10;CYYG 051310Z 23008KT 5SM -DZ BR OVC007 16/ RMK SF8 VIS E-SE 10

CYYG;2009-07-05 13:54;CYYG 051354Z 24007KT 10SM -DZ OVC004 16/ RMK SF8

CYYG;2009-07-05 14:00;CYYG 051400Z 25007KT 10SM -DZ BKN004 OVC006 16/15 A2953 RMK SF6SF2 SLP000

CYYG;2009-07-05 15:00;CYYG 051500Z 23007KT 15SM -DZ OVC006 16/15 A2954 RMK SF8 SLP003

CYYG;2009-07-05 15:35;CYYG 051535Z 24009KT 5SM -SHRA BR OVC007 16/ RMK SF8 VIS NE-S 15

CYYG;2009-07-05 16:00;CYYG 051600Z 25006KT 10SM -SHRA OVC006 16/16 A2954 RMK SF8 VIS SW-N 5 SLP003

CYYG;2009-07-05 16:43;CYYG 051643Z 26007KT 10SM OVC006 17/ RMK SF8 SHRA ALL QUADS

CYYG;2009-07-05 17:00;CYYG 051700Z 27009KT 10SM OVC006 17/16 A2953 RMK SF8 SHRA S AND W SLP001

CYYG;2009-07-05 17:29;CYYG 051729Z 24008KT 15SM OVC008 18/ RMK SF8 SHRA W

CYYG;2009-07-05 18:00;CYYG 051800Z 25005KT 15SM BKN009 18/16 A2952 RMK SF7 SLP998

CYYG;2009-07-05 18:28;CYYG 051828Z 26008KT 15SM SCT013 BKN085 19/ RMK CU4AC1

CYYG;2009-07-05 18:47;CYYG 051847Z 26006KT 15SM BKN013TCU BKN085 19/ RMK TCU5AC2

CYYG;2009-07-05 19:00;CYYG 051900Z 25004KT 15SM BKN013TCU BKN085 19/17 A2952 RMK TCU6AC1 SLP998

CYYG;2009-07-05 19:40;CYYG 051940Z 28011G16KT 15SM -SHRA BKN015TCU BKN085 19/ RMK TCU6AC1 VIS N 3

CYYG;2009-07-05 20:00;CYYG 052000Z 28006KT 15SM -SHRA BKN015TCU BKN045 18/17 A2953 RERA RMK TCU6SC2 VIS LWR NW-N AND E SLP001

CYYG;2009-07-05 21:00;CYYG 052100Z 31005KT 15SM -SHRA SCT010 BKN018TCU BKN085 18/17 A2953 RERA RMK SF3TCU2AC2 VIS LWR N AND E-SE SLP001

CYYG;2009-07-05 21:17;CYYG 052117Z 28007KT 15SM VCSH FEW010TCU BKN038 19/ RMK TCU2SC4 SH W AND E-SE

CYYG;2009-07-05 21:44;CYYG 052144Z 25008KT 15SM -SHRA SCT010TCU BKN042 BKN085 18/ RMK TCU4SC2AC1

CYYG;2009-07-05 22:00;CYYG 052200Z 25006KT 15SM -SHRA SCT010TCU BKN068 18/17 A2955 RMK TCU3AC3 SLP005

CYYG;2009-07-05 22:20;CYYG 052220Z 32007KT 3SM +SHRA BR BKN005TCU BKN068 17/ RMK TCU6AC2

CYYG;2009-07-05 22:42;CYYG 052242Z 33007KT 8SM -SHRA BKN003 OVC006TCU 16/ RERA RMK SF5TCU3 VIS NW-NE 1

CYYG;2009-07-05 23:00;CYYG 052300Z 32006KT 15SM OVC005 16/15 A2958 RMK ST8 SLP015

CYYG;2009-07-06 00:00;CYYG 060000Z 34007KT 15SM OVC006 16/15 A2959 RMK SF8 SLP019

CYYG;2009-07-06 00:22;CYYG 060022Z 33007KT 5SM -DZ BR OVC006 16/ RMK SF8

CYYG;2009-07-06 00:29;CYYG 060029Z 34009KT 2 1/2SM -DZ BR OVC005 15/ RMK SF8

CYYG;2009-07-06 00:37;CYYG 060037Z 33010KT 1 1/2SM -DZ BR OVC003 15/ RMK SF8

CYYG;2009-07-06 00:50;CYYG 060050Z 32008KT 1SM R03/P6000FT/N -DZ BR OVC002 15/ RMK SF8

CYYG;2009-07-06 01:00;CYYG 060100Z 33008KT 1 1/2SM -DZ BR OVC002 15/14 A2962 RMK SF8 SLP029

CYYG;2009-07-06 01:41;CYYG 060141Z 34008KT 5SM BR SCT003 OVC008 15/ RMK SF3SF5

CYYG;2009-07-06 02:00;CYYG 060200Z 34006KT 3SM -DZ BR SCT006 OVC010 15/15 A2962 RMK SF4SC4 SLP031

CYYG;2009-07-06 02:18;CYYG 060218Z 34006KT 2 1/2SM -DZ BR BKN006 OVC010 15/ RMK SF6SC2

CYYG;2009-07-06 02:30;CYYG 060230Z 35008KT 2 1/2SM -DZ BR OVC004 14/ RMK SF8

CYYG;2009-07-06 03:00;CYYG 060300Z 35009KT 2SM -DZ BR OVC003 14/14 A2963 RMK SF8 SLP036

CYYG;2009-07-06 04:00;CYYG 060400Z 35006KT 2SM -DZ BR OVC004 13/13 A2965 RMK SF8 SLP042

CYYG;2009-07-06 05:00;CYYG 060500Z 36008KT 2SM -DZ BR OVC004 13/13 A2966 RMK SF8 SLP046

CYYG;2009-07-06 06:00;CYYG 060600Z 01007KT 2SM -DZ BR BKN004 OVC012 12/12 A2967 RMK SF7SC1 SLP049

CYYG;2009-07-06 07:00;CYYG 060700Z 02010KT 3SM -DZ BR BKN006 OVC012 12/11 A2968 RMK SF6SC2 SLP052

CYYG;2009-07-06 08:00;CYYG 060800Z 01006KT 15SM FEW006 OVC030 12/12 A2969 RMK SF2SC6 SLP055

CYYG;2009-07-06 08:18;CYYG 060818Z 36005KT 12SM -DZ OVC009 12/ RMK SF8

CYYG;2009-07-06 09:00;CYYG 060900Z 36003KT 12SM -DZ BKN006 BKN030 11/11 A2971 RMK SF5SC2 SLP062

CYYG;2009-07-06 09:22;CYYG 060922Z 32003KT 15SM FEW006 BKN018 12/ RMK SF2SC6

CYYG;2009-07-06 09:51;CYYG 060951Z 33005KT 15SM -SHRA FEW006 BKN012 BKN018 12/ RMK SF1CU5SC1 VIS NW-NE 3

CYYG;2009-07-06 10:00;CYYG 061000Z 35006KT 7SM -SHRA FEW006 BKN010 BKN018 12/11 A2973 RMK SF2CU5SC1 SLP068

CYYG;2009-07-06 11:00;CYYG 061100Z 36006KT 10SM -SHRA SCT008 BKN015 BKN042 12/12 A2975 RMK SF3CU2SC1 SLP074

CYYG;2009-07-06 12:00;CYYG 061200Z 35011G16KT 8SM -SHRA BKN010TCU 12/12 A2977 RMK TCU6 VIS SE-SW 3 SLP080

CYYG;2009-07-06 13:00;CYYG 061300Z 01013KT 7SM -SHRA BKN012TCU BKN025 12/11 A2977 RMK TCU6SC2 SLP083

CYYG;2009-07-06 13:42;CYYG 061342Z 01013G18KT 15SM BKN015 14/ RMK SC7 SH DIST W-NW

CYYG;2009-07-06 14:00;CYYG 061400Z 01012G17KT 15SM BKN020 14/10 A2977 RMK SC6 SH DIST W SLP083

CYYG;2009-07-06 15:00;CYYG 061500Z 01014G19KT 15SM BKN018 13/09 A2979 RMK SC6 SLP087

CYYG;2009-07-06 16:00;CYYG 061600Z 36013G19KT 15SM BKN020 13/09 A2980 RMK SC6 SLP091

CYYG;2009-07-06 16:31;CYYG 061631Z 01012G19KT 15SM -SHRA BKN020 13/ RMK SC7

CYYG;2009-07-06 17:00;CYYG 061700Z 02011G17KT 15SM -SHRA BKN018 14/10 A2981 RMK SC7 SLP094

CYYG;2009-07-06 18:00;CYYG 061800Z 01012G20KT 15SM OVC019 13/09 A2982 RMK SC8 SH DIST E SLP098

CYYG;2009-07-06 18:19;CYYG 061819Z 01013G18KT 15SM -SHRA BKN019 13/ RMK SC7

CYYG;2009-07-06 19:00;CYYG 061900Z 01011G16KT 15SM -SHRA BKN018 13/09 A2983 RMK SC7 SLP102

CYYG;2009-07-06 20:00;CYYG 062000Z 36011G17KT 10SM -SHRA BKN020 12/09 A2984 RMK SC7 SLP106

CYYG;2009-07-06 20:50;CYYG 062050Z 36009G19KT 10SM -SHRA SCT008 BKN015 10/ RMK SF3SC4

CYYG;2009-07-06 21:00;CYYG 062100Z 02009G15KT 10SM -SHRA BKN010 BKN024TCU BKN300 10/09 A2984 RMK SF5TCU2CI0 VIS NW-E 3 SLP106

CYYG;2009-07-06 22:00;CYYG 062200Z 01010G16KT 10SM -SHRA BKN010TCU BKN038 11/10 A2984 RMK TCU5SC1 SLP105

CYYG;2009-07-06 23:00;CYYG 062300Z 02012KT 15SM -SHRA OVC014 10/09 A2986 RMK SC8 TCU ASOCTD SLP111

CYYG;2009-07-07 00:00;CYYG 070000Z 01006KT 15SM -SHRA BKN014 OVC028 10/09 A2988 RMK SC7SC1 SLP120

CYYG;2009-07-07 00:28;CYYG 070028Z 03011KT 3SM -SHRA BR OVC013 09/ RMK SC8

CYYG;2009-07-07 01:00;CYYG 070100Z 02007KT 3SM -SHRA BR OVC012 09/09 A2990 RMK SC8 SLP126

CYYG;2009-07-07 01:20;CYYG 070120Z 03010KT 8SM -SHRA BKN019 BKN034 09/ RMK SC5SC2

CYYG;2009-07-07 02:00;CYYG 070200Z 01008KT 8SM -SHRA FEW017 OVC026 09/09 A2989 RMK SC2SC6 SLP124

CYYG;2009-07-07 02:47;CYYG 070247Z 02008KT 12SM SCT012 OVC022 09/ RMK SC4SC4

CYYG;2009-07-07 03:00;CYYG 070300Z 01008KT 12SM SCT014 OVC020 10/09 A2989 RMK SC3SC5 SLP122

CYYG;2009-07-07 04:00;CYYG 070400Z 02010KT 12SM OVC020 10/08 A2988 RMK SC8 SLP119

CYYG;2009-07-07 05:00;CYYG 070500Z 01006KT 15SM OVC020 10/08 A2989 RMK SC8 SLP123

CYYG;2009-07-07 06:00;CYYG 070600Z 02007KT 12SM OVC018 10/08 A2988 RMK SC8 SLP120

CYYG;2009-07-07 07:00;CYYG 070700Z 03008KT 15SM OVC020 10/08 A2989 RMK SC8 SLP123

CYYG;2009-07-07 08:00;CYYG 070800Z 04007KT 12SM OVC020 10/08 A2990 RMK SC8 SLP124

CYYG;2009-07-07 09:00;CYYG 070900Z 05004KT 15SM OVC018 10/09 A2990 RMK SC8 SLP126

CYYG;2009-07-07 09:20;CYYG 070920Z 04009KT 6SM -DZ BR BKN011 OVC021 10/ RMK SC7SC1

CYYG;2009-07-07 10:00;CYYG 071000Z 05008KT 5SM -DZ BR FEW007 BKN012 OVC030 10/10 A2991 RMK SF2SC5SC1 SLP130

CYYG;2009-07-07 10:42;CYYG 071042Z CCA 05008KT 10SM -DZ BKN008 OVC033 11/ RMK SF6SC2

CYYG;2009-07-07 11:00;CYYG 071100Z 04009KT 5SM -DZ BR BKN009 BKN014 OVC034 11/10 A2993 RMK SF6SC2SC1 SLP136

CYYG;2009-07-07 11:34;CYYG 071134Z 05008KT 15SM -DZ FEW009 BKN019 11/ RMK SF2SC6

CYYG;2009-07-07 12:00;CYYG 071200Z 05012KT 15SM -DZ BKN016 11/09 A2994 RMK SC7 SLP139

CYYG;2009-07-07 12:09;CYYG 071209Z 05012KT 15SM BKN018 12/ RMK SC7

CYYG;2009-07-07 13:00;CYYG 071300Z 05011KT 15SM BKN020 BKN300 12/09 A2994 RMK SC6CI0 SLP141

CYYG;2009-07-07 14:00;CYYG 071400Z 04014KT 15SM SCT025 BKN300 13/08 A2994 RMK CU3CI0 SLP141

CYYG;2009-07-07 15:00;CYYG 071500Z 04012KT 15SM FEW025 SCT300 14/08 A2995 RMK SC2CI1 SLP143

CYYG;2009-07-07 16:00;CYYG 071600Z 06009G16KT 15SM FEW028 SCT300 14/08 A2996 RMK SC2CI1 SLP147

CYYG;2009-07-07 17:00;CYYG 071700Z 04010KT 15SM FEW029 SCT300 14/08 A2996 RMK SC2CI1 SLP148

CYYG;2009-07-07 18:00;CYYG 071800Z 04013KT 15SM FEW029 FEW300 14/07 A2996 RMK SC1CI1 SLP145

CYYG;2009-07-07 19:00;CYYG 071900Z 03013KT 15SM FEW030 FEW300 14/06 A2995 RMK SC1CI1 SLP143

CYYG;2009-07-07 20:00;CYYG 072000Z 05008G15KT 15SM FEW030 FEW300 14/06 A2996 RMK SC1CI1 SLP145

CYYG;2009-07-07 21:00;CYYG 072100Z 05011KT 15SM FEW030 BKN300 13/06 A2995 RMK SC1CI1 SLP142

CYYG;2009-07-07 22:00;CYYG 072200Z 05008KT 15SM FEW030 SCT300 13/07 A2995 RMK SC1CI1 SLP143

CYYG;2009-07-07 23:00;CYYG 072300Z 06007KT 15SM FEW030 FEW300 12/07 A2996 RMK SC1CI1 SLP146

CYYG;2009-07-08 00:00;CYYG 080000Z 06003KT 15SM FEW030 FEW300 10/07 A2996 RMK SC1CI1 SLP148

CYYG;2009-07-08 01:00;CYYG 080100Z CCA 08003KT 15SM FEW030 FEW300 09/07 A2997 RMK SC1CI1 SLP151

CYYG;2009-07-08 02:00;CYYG 080200Z 00000KT 15SM FEW300 08/07 A2997 RMK CI1 SLP151

CYYG;2009-07-08 03:00;CYYG 080300Z 00000KT 15SM FEW250 07/07 A2998 RMK CI0 SLP153

CYYG;2009-07-08 04:00;CYYG 080400Z 00000KT 15SM FEW250 06/05 A2998 RMK CI0 SLP154

CYYG;2009-07-08 05:00;CYYG 080500Z 00000KT 15SM FEW250 05/04 A2998 RMK CI0 SLP153

CYYG;2009-07-08 06:00;CYYG 080600Z 35003KT 15SM FEW210 04/04 A2998 RMK CI1 SLP154

CYYG;2009-07-08 07:00;CYYG 080700Z 00000KT 15SM SCT200 05/04 A2998 RMK CI2 SLP155

CYYG;2009-07-08 08:00;CYYG 080800Z 36002KT 15SM MIFG FEW030 FEW200 04/04 A2998 RMK SC1CI1 SLP154

CYYG;2009-07-08 09:00;CYYG 080900Z 36003KT 15SM MIFG FEW030 FEW180 BKN250 04/03 A2998 RMK SC1AC1CI1 SLP154

CYYG;2009-07-08 10:00;CYYG 081000Z 00000KT 15SM MIFG FEW030 FEW180 SCT250 08/08 A2999 RMK SC1AC1CI1 SLP157

CYYG;2009-07-08 11:00;CYYG 081100Z 00000KT 15SM FEW030 FEW180 SCT250 12/07 A3000 RMK SC1AC1CI0 SLP161

CYYG;2009-07-08 12:00;CYYG 081200Z 11003KT 15SM FEW030 BKN300 13/08 A3001 RMK CU1CI1 SLP163

CYYG;2009-07-08 13:00;CYYG 081300Z 14002KT 15SM FEW020 BKN300 13/08 A3002 RMK CU2CI1 SLP167

CYYG;2009-07-08 14:00;CYYG 081400Z 04002KT 15SM FEW030 BKN300 14/08 A3003 RMK CU2CI1 SLP169

CYYG;2009-07-08 15:00;CYYG 081500Z 07005KT 15SM FEW030 BKN300 14/09 A3002 RMK CU2CI1 SLP167

CYYG;2009-07-08 16:00;CYYG 081600Z 03007KT 15SM FEW032 BKN300 15/09 A3002 RMK CU2CI1 SLP167

CYYG;2009-07-08 17:00;CYYG 081700Z 05004KT 15SM SCT036 BKN300 16/09 A3002 RMK CU3CI1 SLP168

CYYG;2009-07-08 18:00;CYYG 081800Z 02006KT 15SM SCT037 BKN300 15/08 A3002 RMK CU3CI1 SLP168

CYYG;2009-07-08 19:00;CYYG 081900Z 07007KT 15SM FEW037 SCT300 16/09 A3003 RMK CU2CI1 SLP169

CYYG;2009-07-08 20:00;CYYG 082000Z 04006KT 15SM FEW038 SCT300 16/09 A3003 RMK SC2CI1 SLP171

CYYG;2009-07-08 21:00;CYYG 082100Z 02008KT 15SM FEW038 FEW300 16/09 A3003 RMK SC2CI1 SLP171

CYYG;2009-07-08 22:00;CYYG 082200Z 03008KT 15SM FEW038 FEW300 15/08 A3004 RMK SC2CI1 SLP172

CYYG;2009-07-08 23:00;CYYG 082300Z 04006KT 15SM FEW038 SCT300 14/07 A3005 RMK SC2CI2 SLP176

CYYG;2009-07-09 00:00;CYYG 090000Z 03003KT 15SM FEW037 SCT300 12/08 A3006 RMK SC2CI1 SLP180

CYYG;2009-07-09 01:00;CYYG 090100Z 07004KT 15SM FEW037 FEW300 10/07 A3007 RMK SC2CI0 SLP184

CYYG;2009-07-09 02:00;CYYG 090200Z 12004KT 15SM FEW037 FEW200 11/08 A3008 RMK SC1CI0 SLP187

CYYG;2009-07-09 03:00;CYYG 090300Z 00000KT 15SM FEW100 09/07 A3009 RMK AC1 SLP190

CYYG;2009-07-09 04:00;CYYG 090400Z 00000KT 15SM FEW100 08/07 A3009 RMK AC1 SLP191

CYYG;2009-07-09 05:00;CYYG 090500Z 00000KT 15SM SKC 06/06 A3010 RMK SLP193

CYYG;2009-07-09 06:00;CYYG 090600Z 29002KT 15SM SKC 06/05 A3011 RMK SLP197

CYYG;2009-07-09 07:00;CYYG 090700Z 35002KT 15SM SKC 05/05 A3012 RMK SLP199

CYYG;2009-07-09 08:00;CYYG 090800Z 17002KT 15SM MIFG FEW230 08/08 A3012 RMK CI1 SLP201

CYYG;2009-07-09 09:00;CYYG 090900Z 00000KT 15SM R03/2800VP6000FT/U MIFG FEW240 05/05 A3014 RMK CI1 SLP206

CYYG;2009-07-09 10:00;CYYG 091000Z 00000KT 15SM MIFG FEW240 08/08 A3014 RMK CC1 SLP209

CYYG;2009-07-09 11:00;CYYG 091100Z 00000KT 15SM FEW240 14/12 A3016 RMK CC1 SLP213

CYYG;2009-07-09 12:00;CYYG 091200Z 29002KT 15SM FEW022 15/10 A3017 RMK CU1 SLP218

CYYG;2009-07-09 13:00;CYYG 091300Z 15002KT 15SM FEW022 16/09 A3017 RMK CU1 SLP219

CYYG;2009-07-09 14:00;CYYG 091400Z 21003KT 15SM FEW020 17/09 A3017 RMK CU1 SLP219

CYYG;2009-07-09 15:00;CYYG 091500Z 22005KT 15SM FEW020 18/09 A3018 RMK CU1 SLP222

CYYG;2009-07-09 16:00;CYYG 091600Z 20007KT 15SM FEW020 19/08 A3017 RMK CU1 SLP219

CYYG;2009-07-09 17:00;CYYG 091700Z 22007KT 15SM FEW020 19/07 A3017 RMK CU1 SLP219

CYYG;2009-07-09 18:00;CYYG 091800Z 23005KT 15SM FEW030 20/07 A3018 RMK CU1 SLP220

CYYG;2009-07-09 19:00;CYYG 091900Z 24006KT 15SM FEW030 20/06 A3019 RMK CU1 SLP223

CYYG;2009-07-09 20:00;CYYG 092000Z 21007KT 15SM FEW030 20/07 A3018 RMK CU1 SLP220

CYYG;2009-07-09 21:00;CYYG 092100Z 22004KT 15SM FEW030 21/05 A3017 RMK CU1 SLP219

CYYG;2009-07-09 22:00;CYYG 092200Z 20006KT 15SM FEW030 20/04 A3017 RMK CU1 SLP219

CYYG;2009-07-09 23:00;CYYG 092300Z 21005KT 15SM FEW030 19/03 A3018 RMK SC1 SC TR SLP222

CYYG;2009-07-10 00:00;CYYG 100000Z 22003KT 15SM FEW240 18/03 A3018 RMK CI1 SLP222

CYYG;2009-07-10 01:00;CYYG 100100Z 18006KT 15SM FEW240 15/05 A3019 RMK CI1 SLP225

CYYG;2009-07-10 02:00;CYYG 100200Z 18005KT 15SM SKC 14/10 A3020 RMK SLP226

CYYG;2009-07-10 03:00;CYYG 100300Z 22006KT 15SM SKC 15/11 A3020 RMK SLP229

CYYG;2009-07-10 04:00;CYYG 100400Z 23005KT 15SM SKC 14/11 A3020 RMK SLP229

CYYG;2009-07-10 05:00;CYYG 100500Z 24005KT 15SM FEW100 14/12 A3021 RMK AC2 SLP230

CYYG;2009-07-10 06:00;CYYG 100600Z 23006KT 15SM FEW100 14/11 A3021 RMK AC1 SLP232

CYYG;2009-07-10 07:00;CYYG 100700Z 22008KT 15SM FEW100 14/11 A3022 RMK AC1 SLP234

CYYG;2009-07-10 08:00;CYYG 100800Z 20005KT 15SM FEW100 13/11 A3022 RMK AC2 SLP234

CYYG;2009-07-10 09:00;CYYG 100900Z 22008KT 15SM FEW098 SCT250 14/11 A3022 RMK AC2CI0 SLP234

CYYG;2009-07-10 10:00;CYYG 101000Z 22008KT 15SM FEW098 15/11 A3023 RMK AC2 SLP235

CYYG;2009-07-10 11:00;CYYG 101100Z 23008KT 15SM FEW250 17/11 A3023 RMK CI0 SLP237

CYYG;2009-07-10 12:00;CYYG 101200Z 23007KT 15SM FEW250 19/11 A3023 RMK CI0 SLP238

CYYG;2009-07-10 13:00;CYYG 101300Z 25012KT 15SM FEW250 20/11 A3023 RMK CI0 SLP236

CYYG;2009-07-10 14:00;CYYG 101400Z 24007KT 15SM FEW250 21/13 A3023 RMK CI1 SLP236

CYYG;2009-07-10 15:00;CYYG 101500Z 24009KT 15SM FEW250 22/14 A3022 RMK CI1 SLP234

CYYG;2009-07-10 16:00;CYYG 101600Z 25008KT 15SM FEW250 23/13 A3021 RMK CI1 SLP230

CYYG;2009-07-10 17:00;CYYG 101700Z 25010KT 15SM FEW250 24/13 A3020 RMK CI1 SLP225

CYYG;2009-07-10 18:00;CYYG 101800Z 25010G15KT 15SM FEW045 FEW250 25/13 A3019 RMK CU1CI1 SLP222

CYYG;2009-07-10 19:00;CYYG 101900Z 27007KT 15SM FEW045 FEW250 26/13 A3018 RMK CU1CI1 SLP220

CYYG;2009-07-10 20:00;CYYG 102000Z 25008KT 15SM FEW045 FEW250 26/12 A3017 RMK CU1CI1 SLP217

CYYG;2009-07-10 21:00;CYYG 102100Z 25008KT 15SM FEW045 SCT250 26/12 A3018 RMK CU1CI1 SLP219

CYYG;2009-07-10 22:00;CYYG 102200Z 25008KT 15SM FEW045 FEW250 25/12 A3017 RMK CU1CI1 SLP218

CYYG;2009-07-10 23:00;CYYG 102300Z 26006KT 15SM FEW045 FEW250 23/14 A3018 RMK CU1CI1 SLP219

CYYG;2009-07-11 00:00;CYYG 110000Z 25007KT 15SM FEW250 21/12 A3017 RMK CI1 SLP218

CYYG;2009-07-11 01:00;CYYG 110100Z 24006KT 15SM FEW250 20/12 A3019 RMK CI1 SLP222

CYYG;2009-07-11 02:00;CYYG 110200Z 22006KT 15SM FEW250 19/13 A3019 RMK CI1 SLP224

CYYG;2009-07-11 03:00;CYYG 110300Z 22008KT 15SM FEW250 18/12 A3020 RMK CI1 SLP226

CYYG;2009-07-11 04:00;CYYG 110400Z 23009KT 15SM FEW250 17/12 A3020 RMK CI1 SLP225

CYYG;2009-07-11 05:00;CYYG 110500Z 24007KT 15SM SKC 16/11 A3020 RMK SLP226

CYYG;2009-07-11 06:00;CYYG 110600Z 23008KT 15SM SKC 15/11 A3020 RMK SLP228

CYYG;2009-07-11 07:00;CYYG 110700Z 22005KT 15SM SKC 15/11 A3020 RMK SLP226

CYYG;2009-07-11 08:00;CYYG 110800Z 23006KT 15SM SKC 14/11 A3019 RMK SLP223

CYYG;2009-07-11 09:00;CYYG 110900Z 23008KT 15SM SCT250 15/11 A3019 RMK CI1 SLP222

CYYG;2009-07-11 10:00;CYYG 111000Z 22007KT 15SM FEW040 SCT250 15/12 A3020 RMK CF1CI1 SLP225

CYYG;2009-07-11 11:00;CYYG 111100Z 23006KT 15SM FEW086 17/12 A3020 RMK AC2 SLP226

CYYG;2009-07-11 12:00;CYYG 111200Z 22006KT 15SM FEW300 19/12 A3020 RMK CI0 SLP226

CYYG;2009-07-11 13:00;CYYG 111300Z 22007KT 15SM FEW300 21/12 A3019 RMK CI0 CONTRAILS SLP224

CYYG;2009-07-11 14:00;CYYG 111400Z 21006KT 15SM FEW300 22/14 A3019 RMK CI0 SLP222

CYYG;2009-07-11 15:00;CYYG 111500Z 24007KT 15SM FEW300 22/13 A3018 RMK CI0 SLP221

CYYG;2009-07-11 16:00;CYYG 111600Z 22007KT 15SM FEW300 23/12 A3017 RMK CI0 SLP216

CYYG;2009-07-11 17:00;CYYG 111700Z 24008KT 15SM FEW030 FEW300 24/10 A3015 RMK CF1CI0 SLP211

CYYG;2009-07-11 18:00;CYYG 111800Z 22010KT 15SM FEW035 FEW300 25/11 A3013 RMK CU1CI0 SLP203

CYYG;2009-07-11 19:00;CYYG 111900Z 19010KT 15SM FEW040 FEW300 25/12 A3011 RMK CU1CI0 SLP197

CYYG;2009-07-11 20:00;CYYG 112000Z 20009KT 15SM FEW040 FEW300 25/12 A3009 RMK SC1CI0 SLP188

CYYG;2009-07-11 21:00;CYYG 112100Z 19008KT 15SM FEW080 FEW300 25/12 A3007 RMK AC2CI0 SLP184

CYYG;2009-07-11 22:00;CYYG 112200Z 19011G16KT 15SM FEW070 FEW300 24/12 A3006 RMK AC1CI0 SLP180

CYYG;2009-07-11 23:00;CYYG 112300Z 20009KT 15SM FEW070 FEW300 22/13 A3007 RMK AC1CI0 SLP183

CYYG;2009-07-12 00:00;CYYG 120000Z 22011KT 15SM FEW250 21/11 A3008 RMK CI1 SLP186

CYYG;2009-07-12 01:00;CYYG 120100Z 20012KT 15SM FEW250 19/12 A3009 RMK CI1 SLP188

CYYG;2009-07-12 02:00;CYYG 120200Z 18015KT 15SM FEW250 18/11 A3006 RMK CI1 SLP181

CYYG;2009-07-12 03:00;CYYG 120300Z 20012KT 15SM SKC 16/13 A3006 RMK SLP180

CYYG;2009-07-12 04:00;CYYG 120400Z 20010KT 15SM SKC 16/13 A3006 RMK SLP178

CYYG;2009-07-12 05:00;CYYG 120500Z 21011KT 15SM SKC 15/11 A3005 RMK SLP175

CYYG;2009-07-12 06:00;CYYG 120600Z 20010G15KT 15SM SKC 15/10 A3003 RMK SLP169

CYYG;2009-07-12 07:00;CYYG 120700Z 20010G16KT 15SM FEW022 14/12 A3001 RMK SC1 SLP164

CYYG;2009-07-12 08:00;CYYG 120800Z 18012KT 15SM FEW024 FEW250 15/13 A3000 RMK SC1CI1 SLP160

CYYG;2009-07-12 09:00;CYYG 120900Z 18014KT 15SM FEW010 SCT250 15/14 A2999 RMK SF1CI1 SLP155

CYYG;2009-07-12 10:00;CYYG 121000Z 19018KT 15SM FEW010 SCT250 16/14 A2998 RMK SF1CI1 SLP151

CYYG;2009-07-12 11:00;CYYG 121100Z 18015G22KT 15SM FEW030 BKN250 17/14 A2997 RMK SF2CI1 SLP150

CYYG;2009-07-12 12:00;CYYG 121200Z 18014G20KT 15SM BKN018 17/14 A2997 RMK SC7 SLP148

CYYG;2009-07-12 13:00;CYYG 121300Z 19013G20KT 15SM BKN020 18/16 A2996 RMK SC7 SLP144

CYYG;2009-07-12 14:00;CYYG 121400Z 19015G20KT 15SM FEW018 BKN083 OVC250 20/16 A2994 RMK SC2AC5CI0 SLP139

CYYG;2009-07-12 15:00;CYYG 121500Z 18016G26KT 15SM FEW018 BKN083 OVC250 22/17 A2993 RMK SC2AC5CI0 SLP134

CYYG;2009-07-12 16:00;CYYG 121600Z 19020G27KT 15SM FEW012 BKN083 OVC250 20/17 A2992 RMK SC2AC3CI2 SLP132

CYYG;2009-07-12 17:00;CYYG 121700Z 19016G22KT 15SM FEW012 SCT083 OVC250 21/18 A2992 RMK SC2AC2CS4 SLP131

CYYG;2009-07-12 18:00;CYYG 121800Z 19012G17KT 15SM FEW012 OVC120 20/17 A2990 RMK SC2AC6 SLP126

CYYG;2009-07-12 18:40;CYYG 121840Z 19012G17KT 15SM -SHRA BKN037 OVC120 20/ RMK SC6AC2

CYYG;2009-07-12 19:00;CYYG 121900Z 23010G15KT 15SM -SHRA FEW012 BKN030 OVC120 19/15 A2990 RMK SF1SC4AC3 SLP125

CYYG;2009-07-12 19:21;CYYG 121921Z 23008KT 15SM FEW012 SCT030 OVC069 20/ RMK SF1SC2AC5

CYYG;2009-07-12 20:00;CYYG 122000Z 20008KT 15SM FEW012 BKN054 OVC120 20/15 A2990 RMK SF1SC6AC2 SLP126

CYYG;2009-07-12 20:27;CYYG 122027Z 19012G17KT 15SM -SHRA FEW012 BKN058 OVC110 20/ RMK SF1SC6AC2

CYYG;2009-07-12 21:00;CYYG 122100Z 21012G18KT 15SM -SHRA FEW012 BKN034 OVC110 19/15 A2990 RMK SF1SC6AC2 SLP125

CYYG;2009-07-12 21:16;CYYG 122116Z 19011G16KT 15SM BKN032 BKN110 19/ RMK SC6AC2

CYYG;2009-07-12 22:00;CYYG 122200Z 18010KT 15SM BKN020 19/16 A2990 RMK SC7 SLP124

CYYG;2009-07-12 23:00;CYYG 122300Z 19010G15KT 15SM BKN030 19/17 A2990 RMK SC5 SLP126

CYYG;2009-07-13 00:00;CYYG 130000Z 20010KT 15SM FEW030 SCT300 19/16 A2990 RMK SC2CI1 SLP127

CYYG;2009-07-13 01:00;CYYG 130100Z 18011KT 15SM FEW030 SCT300 18/16 A2991 RMK SC1CI1 SLP129

CYYG;2009-07-13 02:00;CYYG 130200Z 18006KT 15SM FEW030 SCT300 17/16 A2990 RMK SC1CI1 SLP127

CYYG;2009-07-13 03:00;CYYG 130300Z 18008KT 15SM FEW037 FEW300 17/16 A2990 RMK SC1CI1 SLP124

CYYG;2009-07-13 04:00;CYYG 130400Z 18011KT 15SM SCT033 BKN300 17/16 A2990 RMK SC3CI1 SLP124

CYYG;2009-07-13 05:00;CYYG 130500Z 18008KT 15SM BKN030 BKN300 17/16 A2989 RMK SC5CI1 SLP122

CYYG;2009-07-13 06:00;CYYG 130600Z 19007KT 15SM FEW012 BKN035 17/16 A2987 RMK SC1SC6 SLP116

CYYG;2009-07-13 07:00;CYYG 130700Z 18007KT 15SM SCT010 OVC035 17/16 A2985 RMK SC4SC4 SLP108

CYYG;2009-07-13 08:00;CYYG 130800Z 16008KT 15SM BKN008 OVC035 17/16 A2983 RMK SF6SC2 SLP102

CYYG;2009-07-13 09:00;CYYG 130900Z 13007KT 15SM OVC007 17/17 A2980 RMK SF8 SLP092

CYYG;2009-07-13 09:17;CYYG 130917Z 17006KT 10SM -SHRA BKN007 BKN060 17/ RMK SF6SC1

CYYG;2009-07-13 09:39;CYYG 130939Z 16011KT 2SM SHRA BR BKN005 OVC025 17/ RMK SF7SC1

CYYG;2009-07-13 09:55;CYYG 130955Z 15010KT 10SM -SHRA BKN005 BKN025 17/ RMK SF6SC2

CYYG;2009-07-13 10:00;CYYG 131000Z 13008KT 12SM -SHRA BKN005 BKN025 BKN065 17/17 A2978 RMK SF5SC2SC1 SLP084

CYYG;2009-07-13 11:00;CYYG 131100Z 17010KT 15SM -SHRA BKN005 OVC015 18/17 A2977 RMK SF7SC1 SLP080

CYYG;2009-07-13 12:00;CYYG 131200Z 19010KT 12SM -SHRA OVC005 18/17 A2975 RMK SF8 SLP075

CYYG;2009-07-13 13:00;CYYG 131300Z 20008KT 12SM -SHRA FEW003 OVC006 18/17 A2974 RMK SF1SF7 SLP072

CYYG;2009-07-13 14:00;CYYG 131400Z CCA 21008KT 15SM VCSH BKN006 BKN250 20/19 A2973 RMK SF7CI0 SLP066

CYYG;2009-07-13 14:50;CYYG 131450Z 19011KT 15SM FEW006 BKN019 BKN085 20/ RMK SF1SC6AC0 TCU ASOCTD

CYYG;2009-07-13 15:00;CYYG 131500Z 19012KT 15SM FEW006 BKN016 BKN032 BKN085 20/18 A2972 RMK SF2SC3SC2AC1 TCU ASOCTD SLP063

CYYG;2009-07-13 16:00;CYYG 131600Z CCA 20012KT 15SM FEW006 BKN013 BKN037 21/19 A2970 RMK SF2SC3SC2 TCU ASOCTD SLP058

CYYG;2009-07-13 17:00;CYYG 131700Z CCA 19008KT 15SM FEW006 BKN013 BKN043 21/19 A2969 RMK SF1SC4SC2 TCU ASOCTD SLP053

CYYG;2009-07-13 18:00;CYYG 131800Z 18007KT 15SM FEW012 BKN024 22/19 A2968 RMK CF2SC5 TCU ASOCTD E SLP051

CYYG;2009-07-13 19:00;CYYG 131900Z 24007KT 15SM FEW012 BKN027 22/17 A2968 RMK CF2SC4 SLP049

CYYG;2009-07-13 20:00;CYYG 132000Z 22006KT 15SM FEW020 SCT030CB SCT052 22/17 A2969 RMK CU2CB2CU1 SLP052

CYYG;2009-07-13 21:00;CYYG 132100Z 23007KT 15SM FEW020 SCT030CB SCT052 23/15 A2969 RMK CF2CB2CU1 SLP053

CYYG;2009-07-13 22:00;CYYG 132200Z 02004KT 15SM FEW030CB SCT050 BKN280 21/17 A2970 RMK CB2SC2CI1 CB NE-SE MOVG NE SLP056

CYYG;2009-07-13 23:00;CYYG 132300Z 11003KT 15SM FEW030CB SCT050 BKN280 20/17 A2970 RMK CB2SC2CI2 SLP058

CYYG;2009-07-14 00:00;CYYG 140000Z 20005KT 15SM BKN040 BKN280 19/17 A2974 RMK SC5CI2 CB NE-SE SLP071

CYYG;2009-07-14 01:00;CYYG 140100Z 25007KT 15SM BKN040 BKN280 18/16 A2977 RMK SC5CI1 SLP079

CYYG;2009-07-14 02:00;CYYG 140200Z 26006KT 15SM BKN050 BKN280 16/15 A2979 RMK SC5CI1 SLP088

CYYG;2009-07-14 03:00;CYYG 140300Z 25005KT 15SM BKN045 15/14 A2981 RMK SC5 SLP096

CYYG;2009-07-14 04:00;CYYG 140400Z 24005KT 15SM SCT045 15/14 A2983 RMK SC4 SLP101

CYYG;2009-07-14 05:00;CYYG 140500Z 23006KT 15SM SCT045 15/13 A2983 RMK SC4 SLP102

CYYG;2009-07-14 06:00;CYYG 140600Z 24004KT 15SM FEW045 14/13 A2984 RMK SC2 SLP105

CYYG;2009-07-14 07:00;CYYG 140700Z 23006KT 15SM FEW045 13/13 A2985 RMK SC1 SLP108

CYYG;2009-07-14 08:00;CYYG 140800Z 23005KT 15SM FEW045 13/13 A2986 RMK SC1 SLP113

CYYG;2009-07-14 09:00;CYYG 140900Z 23004KT 15SM FEW050 14/13 A2987 RMK SC1 SLP116

CYYG;2009-07-14 10:00;CYYG 141000Z 22007KT 15SM FEW280 15/13 A2988 RMK CI1 SLP118

CYYG;2009-07-14 11:00;CYYG 141100Z 23008KT 15SM FEW040 16/13 A2989 RMK SC1 SLP121

CYYG;2009-07-14 12:00;CYYG 141200Z 24010KT 15SM FEW040 FEW280 17/13 A2990 RMK SC1CI1 SLP124

CYYG;2009-07-14 13:00;CYYG 141300Z 22011KT 15SM FEW040 SCT280 17/13 A2989 RMK SC1CI2 SLP122

CYYG;2009-07-14 14:00;CYYG 141400Z 23010KT 15SM FEW020 FEW040 SCT280 19/13 A2990 RMK CF1SC1CI1 SLP125

CYYG;2009-07-14 15:00;CYYG 141500Z 22009KT 15SM SCT031 SCT120 BKN250 19/13 A2989 RMK SC3AC1CI2 SLP121

CYYG;2009-07-14 16:00;CYYG 141600Z 23007KT 15SM FEW030 FEW120 SCT250 20/14 A2989 RMK CU2AC1CI1 SLP121

CYYG;2009-07-14 17:00;CYYG 141700Z 22013KT 15SM SCT030 SCT120 BKN250 20/14 A2987 RMK CU3AC1CI0 SLP116

CYYG;2009-07-14 18:00;CYYG 141800Z 23018KT 15SM FEW040 SCT110 BKN250 21/12 A2987 RMK CU2AC1CI1 CC ASOCTD SLP114

CYYG;2009-07-14 19:00;CYYG 141900Z 25017G24KT 15SM FEW040 SCT250 21/08 A2987 RMK CU2CI1 SLP114

CYYG;2009-07-14 20:00;CYYG 142000Z 25015KT 15SM FEW040 SCT250 21/10 A2987 RMK CU2CI0 SLP115

CYYG;2009-07-14 21:00;CYYG 142100Z 26011G16KT 15SM FEW040 SCT280 21/09 A2987 RMK CU2CI1 CB TOPS DIST SE-W SLP114

CYYG;2009-07-14 22:00;CYYG 142200Z CCA 25008KT 15SM FEW040 BKN280 20/09 A2987 RMK CU2CI2 CB TOPS DIST SE-SW SLP114

CYYG;2009-07-14 23:00;CYYG 142300Z 26009KT 15SM FEW040 BKN230 18/09 A2988 RMK CU2CI3 SLP120

CYYG;2009-07-15 00:00;CYYG 150000Z 26008KT 15SM FEW040 BKN230 17/09 A2989 RMK SC2CI2 SLP123

CYYG;2009-07-15 01:00;CYYG 150100Z 25008KT 15SM FEW040 BKN100 17/10 A2991 RMK SC2AC3 SLP129

CYYG;2009-07-15 02:00;CYYG 150200Z 26005KT 15SM FEW040 BKN090 15/10 A2991 RMK SC2AC3 SLP128

CYYG;2009-07-15 03:00;CYYG 150300Z 25006KT 15SM FEW030 BKN090 14/11 A2990 RMK SC2AC4 SLP127

CYYG;2009-07-15 04:00;CYYG 150400Z 25006KT 15SM FEW030 BKN090 14/11 A2990 RMK SC2AC4 SLP124

CYYG;2009-07-15 05:00;CYYG 150500Z 25007KT 15SM BKN090 14/11 A2989 RMK AC6 SLP122

CYYG;2009-07-15 06:00;CYYG 150600Z 26006KT 15SM FEW090 13/11 A2988 RMK AC2 SLP119

CYYG;2009-07-15 07:00;CYYG 150700Z 25006KT 15SM FEW090 12/11 A2988 RMK AC1 SLP119

CYYG;2009-07-15 08:00;CYYG 150800Z 27006KT 15SM FEW090 13/11 A2988 RMK AC2 SLP118

CYYG;2009-07-15 09:00;CYYG 150900Z 24007KT 15SM FEW090 12/11 A2989 RMK AC1 SLP122

CYYG;2009-07-15 10:00;CYYG 151000Z 26007KT 15SM FEW270 13/12 A2989 RMK CI0 SLP122

CYYG;2009-07-15 11:00;CYYG 151100Z 26006KT 15SM FEW012 FEW090 SCT330 15/13 A2990 RMK CF1AC1CI1 SLP125

CYYG;2009-07-15 12:00;CYYG 151200Z 26007KT 15SM FEW012 BKN330 17/14 A2990 RMK CF1CI1 CONTRAILS SLP126

CYYG;2009-07-15 13:00;CYYG 151300Z 25005KT 15SM FEW015 BKN330 18/14 A2989 RMK CU1CI1 SLP122

CYYG;2009-07-15 14:00;CYYG 151400Z 27006KT 15SM FEW031 BKN330 19/12 A2988 RMK CU2CI1 SLP120

CYYG;2009-07-15 15:00;CYYG 151500Z 25006KT 15SM SCT031 BKN330 20/12 A2987 RMK CU3CI0 SLP117

CYYG;2009-07-15 16:00;CYYG 151600Z 27009G16KT 15SM SCT040 BKN330 21/12 A2987 RMK CU3CI0 TCU ASOCTD SHS DIST E SLP117

CYYG;2009-07-15 17:00;CYYG 151700Z 28011G18KT 15SM FEW045 BKN330 21/10 A2987 RMK CU2CI0 TCU ASOCTD SHS DIST E SLP115

CYYG;2009-07-15 18:00;CYYG 151800Z 29009G17KT 15SM FEW045 BKN330 21/11 A2986 RMK CU1CI1 SLP111

CYYG;2009-07-15 19:00;CYYG 151900Z 29008KT 15SM FEW045 BKN330 22/10 A2985 RMK CU2CI1 SLP107

CYYG;2009-07-15 20:00;CYYG 152000Z 29009KT 15SM FEW045 BKN330 22/09 A2985 RMK CU2CI1 SLP107

CYYG;2009-07-15 21:00;CYYG 152100Z 29009KT 15SM FEW045 FEW120 BKN330 22/10 A2983 RMK CU2AC1CI1 SLP103

CYYG;2009-07-15 22:00;CYYG 152200Z 25009KT 15SM FEW045 FEW120 SCT330 21/11 A2983 RMK CU1AC1CI1 SLP102

CYYG;2009-07-15 23:00;CYYG 152300Z 27008KT 15SM FEW045 FEW120 FEW330 20/12 A2985 RMK CU1AC1CI0 SLP107

CYYG;2009-07-16 00:00;CYYG 160000Z 25005KT 15SM FEW040 FEW120 SCT330 18/12 A2985 RMK CU2AC1CI0 SLP108

CYYG;2009-07-16 01:00;CYYG 160100Z 24005KT 15SM FEW040 FEW120 SCT330 16/12 A2985 RMK SC2AC1CI0 SLP108

CYYG;2009-07-16 02:00;CYYG 160200Z 24006KT 15SM FEW040 SCT100 17/13 A2985 RMK SC2AC2 SLP107

CYYG;2009-07-16 02:27;CYYG 160227Z 36004KT 15SM -SHRA FEW030 BKN070 16/ RMK SC2AC6

CYYG;2009-07-16 03:00;CYYG 160300Z 23004KT 15SM -SHRA FEW020 OVC097 16/14 A2985 RMK SC1AC7 SLP107

CYYG;2009-07-16 03:18;CYYG 160318Z 24006KT 15SM FEW020 BKN070 16/ RMK SC1AC6

CYYG;2009-07-16 04:00;CYYG 160400Z 27008KT 15SM FEW020 BKN074 16/13 A2984 RMK SC1AC6 SLP104

CYYG;2009-07-16 05:00;CYYG 160500Z 27006KT 15SM FEW020 BKN070 16/13 A2983 RMK SC1AC6 SLP102

CYYG;2009-07-16 06:00;CYYG 160600Z 26006KT 15SM FEW020 BKN070 15/13 A2983 RMK SC1AC5 SLP102

CYYG;2009-07-16 07:00;CYYG 160700Z 25007KT 15SM FEW020 SCT070 14/12 A2982 RMK SC1AC2 SLP100

CYYG;2009-07-16 08:00;CYYG 160800Z 28006KT 15SM FEW020 13/12 A2983 RMK SC1 SLP101

CYYG;2009-07-16 09:00;CYYG 160900Z 27006KT 15SM FEW020 SCT082 BKN250 13/13 A2985 RMK SC1AC3CI1 SLP107

CYYG;2009-07-16 10:00;CYYG 161000Z 27004KT 15SM FEW082 BKN250 15/13 A2985 RMK AC1CI1 SLP107

CYYG;2009-07-16 11:00;CYYG 161100Z 24007KT 15SM FEW080 BKN300 16/14 A2986 RMK AC1CI6 SLP111

CYYG;2009-07-16 12:00;CYYG 161200Z 26007KT 15SM FEW016 FEW080 BKN300 17/13 A2986 RMK CF1AC1CI5 SLP112

CYYG;2009-07-16 13:00;CYYG 161300Z 27010KT 15SM FEW018 FEW080 BKN300 18/12 A2986 RMK CF1AC1CI5 SLP113

CYYG;2009-07-16 14:00;CYYG 161400Z 24008KT 15SM FEW022 SCT055 SCT080 BKN300 19/12 A2986 RMK CU2SC2AC1CI2 SLP113

CYYG;2009-07-16 15:00;CYYG 161500Z 23008KT 15SM FEW026 SCT060 BKN300 19/12 A2986 RMK CU2SC2CI2 SLP111

CYYG;2009-07-16 16:00;CYYG 161600Z 27007KT 15SM FEW040 BKN300 20/12 A2985 RMK CU2CI2 SLP110

CYYG;2009-07-16 17:00;CYYG 161700Z 25011G16KT 15SM SCT040 BKN300 20/10 A2985 RMK CU3CI2 SLP109

CYYG;2009-07-16 18:00;CYYG 161800Z 23012KT 15SM FEW040 BKN300 19/11 A2985 RMK CU2CI3 SLP110

CYYG;2009-07-16 19:00;CYYG 161900Z 25013KT 15SM FEW040 BKN300 21/12 A2985 RMK CU2CI2 SLP109

CYYG;2009-07-16 20:00;CYYG 162000Z 25008G15KT 15SM FEW040 SCT060 BKN200 21/10 A2985 RMK CU2SC2CI2 SLP110

CYYG;2009-07-16 21:00;CYYG 162100Z 25008KT 15SM FEW040 BKN150 BKN300 21/11 A2985 RMK CU1AC6CI1 SLP107

CYYG;2009-07-16 22:00;CYYG 162200Z 25011G16KT 15SM FEW040 BKN140 BKN300 20/13 A2986 RMK CU1AC6CI0 SLP111

CYYG;2009-07-16 23:00;CYYG 162300Z 23007KT 15SM FEW040 FEW150 SCT300 19/12 A2986 RMK SC1AC2CI0 SLP112

CYYG;2009-07-17 00:00;CYYG 170000Z 24002KT 15SM FEW130 BKN160 BKN300 18/12 A2987 RMK AC2AC3CI1 SLP115

CYYG;2009-07-17 01:00;CYYG 170100Z 20004KT 15SM BKN100 BKN120 18/13 A2988 RMK AC5AC2 SLP120

CYYG;2009-07-17 02:00;CYYG 170200Z 21006KT 15SM BKN078 OVC100 18/12 A2989 RMK AC6AC2 SLP121

CYYG;2009-07-17 03:00;CYYG 170300Z 21004KT 15SM BKN059 OVC082 18/12 A2989 RMK SC5AC3 SLP121

CYYG;2009-07-17 04:00;CYYG 170400Z 21005KT 15SM FEW059 OVC074 18/11 A2987 RMK SC2AC6 SLP117

CYYG;2009-07-17 04:53;CYYG 170453Z 16004KT 15SM -SHRA OVC038 17/ RMK SC8

CYYG;2009-07-17 05:00;CYYG 170500Z 17004KT 15SM -SHRA OVC038 17/14 A2988 RMK SC8 SLP119

CYYG;2009-07-17 06:00;CYYG 170600Z 16007KT 15SM FEW019 SCT038 BKN058 OVC074 16/15 A2987 RMK SC2SC2SC2AC2 SLP115

CYYG;2009-07-17 06:40;CYYG 170640Z 18009KT 15SM -SHRA FEW006 SCT020 OVC034 17/ RMK SF2SC2SC4

CYYG;2009-07-17 07:00;CYYG 170700Z 19008KT 15SM -SHRA BKN006 OVC035 17/16 A2987 RMK SF5SC3 SLP115

CYYG;2009-07-17 07:43;CYYG 170743Z 18008KT 5SM -SHRA BR BKN003 OVC045 17/ RERA RMK SF5SC3

CYYG;2009-07-17 08:00;CYYG 170800Z 19008KT 5SM -SHRA BR SCT003 BKN026 OVC033 17/17 A2986 RERA RMK SF3SC2SC2 SLP113

CYYG;2009-07-17 08:45;CYYG 170845Z 18014G19KT 1 1/2SM +SHRA BR SCT005 OVC024TCU 17/ RMK SF3TCU5

CYYG;2009-07-17 09:00;CYYG 170900Z 18013G18KT 2SM SHRA BR BKN005 OVC024TCU 17/16 A2987 RMK SF6TCU2 SLP116

CYYG;2009-07-17 10:00;CYYG 171000Z 18011KT 6SM -SHRA BR FEW003 OVC028 17/16 A2988 RERA RMK SF2SC6 /R16/ SLP118

CYYG;2009-07-17 11:00;CYYG 171100Z CCA 18010G16KT 15SM FEW030 SCT110 BKN150 17/16 A2989 RMK SC2AC2AC2 OCNL -SHRA SLP121

CYYG;2009-07-17 11:27;CYYG 171127Z 19011KT 15SM FEW020 SCT037 BKN150 18/ RMK SC2SC2AC2

CYYG;2009-07-17 12:00;CYYG 171200Z 20013KT 15SM VCSH FEW030 SCT090 BKN150 19/17 A2990 RMK SC2AC2AC2 ACC ASOCTD SLP126

CYYG;2009-07-17 12:26;CYYG 171226Z 19013KT 12SM FEW009 BKN014 OVC090 19/ RMK SF2SC4AC2

CYYG;2009-07-17 13:00;CYYG 171300Z 19012G18KT 12SM SCT010 BKN075 20/18 A2990 RMK SC4AC2 SLP124

CYYG;2009-07-17 13:06;CYYG 171306Z 20012KT 10SM -SHRA BKN010 BKN075 19/ RMK SC6AC1

CYYG;2009-07-17 14:00;CYYG 171400Z 19011KT 15SM FEW010 BKN040 OVC080 19/17 A2990 RMK SC2SC5AC1 SLP126

CYYG;2009-07-17 15:00;CYYG 171500Z 19014KT 15SM FEW012 OVC040 20/18 A2990 RMK SC1SC7 SLP125

CYYG;2009-07-17 16:00;CYYG 171600Z 20008KT 15SM FEW012 OVC031 20/18 A2989 RMK SC1SC7 SLP123

CYYG;2009-07-17 17:00;CYYG 171700Z 20012KT 15SM OVC025 21/17 A2990 RMK SC8 SLP125

CYYG;2009-07-17 18:00;CYYG 171800Z 19007KT 15SM OVC026 21/17 A2990 RMK SC8 SLP126

CYYG;2009-07-17 19:00;CYYG 171900Z 20009KT 15SM OVC024 21/18 A2990 RMK SC8 SLP125

CYYG;2009-07-17 20:00;CYYG 172000Z 20008KT 15SM OVC022 21/18 A2990 RMK SC8 SLP126

CYYG;2009-07-17 21:00;CYYG 172100Z 21010KT 15SM OVC022 22/18 A2990 RMK SC8 SLP124

CYYG;2009-07-17 22:00;CYYG 172200Z 18009KT 15SM BKN022 OVC030 21/18 A2990 RMK SC6SC2 SLP125

CYYG;2009-07-17 23:00;CYYG 172300Z 18008KT 15SM OVC023 21/18 A2991 RMK SC8 SLP129

CYYG;2009-07-18 00:00;CYYG 180000Z 19006KT 15SM OVC024 21/18 A2993 RMK SC8 SLP135

CYYG;2009-07-18 01:00;CYYG 180100Z 19011KT 15SM BKN028 20/18 A2994 RMK SC7 SLP138

CYYG;2009-07-18 02:00;CYYG 180200Z 18007KT 15SM SCT023 19/18 A2994 RMK SC3 SLP140

CYYG;2009-07-18 03:00;CYYG 180300Z 19006KT 15SM FEW023 19/18 A2994 RMK SC2 SLP139

CYYG;2009-07-18 04:00;CYYG 180400Z 17004KT 15SM SCT011 18/17 A2994 RMK SC2 SLP140

CYYG;2009-07-18 05:00;CYYG 180500Z 15003KT 15SM SCT009 BKN110 18/17 A2994 RMK SF3AC2 OCNL DIST LTGIC SW SLP139

CYYG;2009-07-18 06:00;CYYG 180600Z 16003KT 15SM BKN009 BKN019 OVC040 19/18 A2994 RMK SF5SC2SC2 OCNL DIST LTGIC S SLP138

CYYG;2009-07-18 07:00;CYYG 180700Z 17005KT 15SM OVC007 19/18 A2993 RMK SF8 SLP135

CYYG;2009-07-18 08:00;CYYG 180800Z 19006KT 15SM OVC006 19/19 A2994 RMK SF8 SLP139

CYYG;2009-07-18 09:00;CYYG 180900Z 17006KT 5SM BR OVC007 19/19 A2994 RMK ST8 SLP139

CYYG;2009-07-18 09:12;CYYG 180912Z 18008KT 5SM BR OVC005 19/ RMK ST8

CYYG;2009-07-18 10:00;CYYG 181000Z 17006KT 8SM OVC006 19/19 A2994 RMK ST8 SLP138

CYYG;2009-07-18 11:00;CYYG 181100Z 17005KT 10SM OVC005 20/19 A2994 RMK SF8 SLP140

CYYG;2009-07-18 12:00;CYYG 181200Z 18007KT 12SM OVC006 20/19 A2995 RMK SF8 SLP143

CYYG;2009-07-18 12:51;CYYG 181251Z 18009KT 12SM BKN006 OVC150 20/ RMK SF5AC3

CYYG;2009-07-18 13:00;CYYG 181300Z 17009KT 12SM BKN006 OVC150 20/19 A2995 RMK SF5AC3 SLP143

CYYG;2009-07-18 14:00;CYYG 181400Z 16007KT 12SM BKN007 OVC150 21/20 A2996 RMK SF6AC2 SLP145

CYYG;2009-07-18 15:00;CYYG 181500Z 17009KT 12SM BKN007 OVC014 21/20 A2995 RMK SF5SC3 SLP143

CYYG;2009-07-18 15:38;CYYG 181538Z 16009KT 15SM SCT008 OVC015 22/ RMK SC3SC5

CYYG;2009-07-18 16:00;CYYG 181600Z 16007KT 15SM FEW008 OVC015 22/20 A2994 RMK SF2SC6 SLP139

CYYG;2009-07-18 17:00;CYYG 181700Z 16010KT 15SM FEW008 OVC028 23/21 A2993 RMK SF2SC6 SLP134

CYYG;2009-07-18 18:00;CYYG 181800Z 16009G15KT 15SM FEW008 BKN015 OVC021 23/21 A2991 RMK SF1SC6SC2 SLP129

CYYG;2009-07-18 19:00;CYYG 181900Z 16012KT 15SM BKN014 OVC021 23/21 A2990 RMK SC6SC2 SLP125

CYYG;2009-07-18 20:00;CYYG 182000Z 16010KT 15SM BKN020 OVC100 23/21 A2988 RMK SC5AC3 SLP120

CYYG;2009-07-18 21:00;CYYG 182100Z 18011G17KT 15SM BKN012 OVC026 23/21 A2988 RMK SC6SC2 SLP118

CYYG;2009-07-18 22:00;CYYG 182200Z 17011KT 15SM SCT012 OVC052 22/20 A2987 RMK SC4SC4 SLP114

CYYG;2009-07-18 22:42;CYYG 182242Z 16011KT 5SM -RA BR SCT018 OVC040 21/ RMK SC3SC5

CYYG;2009-07-18 23:00;CYYG 182300Z 16010KT 12SM -SHRA BKN020 OVC042 21/20 A2985 RMK SC6SC2 SLP109

CYYG;2009-07-18 23:50;CYYG 182350Z 15012KT 15SM OVC020 21/ RMK SC8

CYYG;2009-07-19 00:00;CYYG 190000Z 15012KT 15SM OVC020 21/19 A2983 RMK SC8 SLP102

CYYG;2009-07-19 01:00;CYYG 190100Z 15014G22KT 15SM OVC011 20/19 A2983 RMK SC8 SLP102

CYYG;2009-07-19 02:00;CYYG 190200Z 16015G21KT 15SM OVC010 20/19 A2982 RMK SC8 SLP099

CYYG;2009-07-19 02:16;CYYG 190216Z 17015KT 10SM OVC010 20/ RMK SF8

CYYG;2009-07-19 03:00;CYYG 190300Z 17013KT 10SM OVC007 20/19 A2982 RMK SF8 SLP097

CYYG;2009-07-19 04:00;CYYG 190400Z 18008KT 10SM OVC006 20/19 A2982 RMK SF8 SLP097

CYYG;2009-07-19 05:00;CYYG 190500Z 19010KT 10SM OVC006 19/19 A2980 RMK SF8 SLP092

CYYG;2009-07-19 06:00;CYYG 190600Z 19008KT 10SM OVC006 19/19 A2981 RMK SF8 SLP093

CYYG;2009-07-19 07:00;CYYG 190700Z 21008KT 10SM OVC007 20/20 A2981 RMK SF8 SLP094

CYYG;2009-07-19 08:00;CYYG 190800Z 24009KT 15SM BKN008 OVC014 20/19 A2982 RMK SF6SC2 SLP098

CYYG;2009-07-19 09:00;CYYG 190900Z 25009KT 15SM SCT008 OVC012 19/18 A2982 RMK SF4SC4 SLP098

CYYG;2009-07-19 10:00;CYYG 191000Z 24007KT 15SM OVC012 19/18 A2983 RMK SC8 SLP102

CYYG;2009-07-19 11:00;CYYG 191100Z 23007KT 15SM FEW008 BKN019 BKN120 20/18 A2985 RMK CF1SC6AC1 SLP106

CYYG;2009-07-19 11:30;CYYG 191130Z 24010KT 15SM BKN009 OVC020 20/ RMK SF6SC2

CYYG;2009-07-19 12:00;CYYG 191200Z 24009KT 15SM BKN008 BKN020 20/19 A2986 RMK SF6SC1 SLP111

CYYG;2009-07-19 13:00;CYYG 191300Z 24013KT 10SM OVC005 18/17 A2987 RMK SF8 SLP116

CYYG;2009-07-19 13:15;CYYG 191315Z 25008KT 10SM OVC004 19/ RMK SF8

CYYG;2009-07-19 14:00;CYYG 191400Z 24011KT 15SM BKN007 OVC020 20/18 A2988 RMK SF7SC1 SLP117

CYYG;2009-07-19 14:14;CYYG 191414Z 25011KT 15SM BKN010 OVC020 21/ RMK SF6SC1

CYYG;2009-07-19 15:00;CYYG 191500Z 25010G16KT 15SM BKN015 22/19 A2987 RMK SC6 SLP116

CYYG;2009-07-19 16:00;CYYG 191600Z 26009KT 15SM SCT017 BKN210 23/20 A2987 RMK SC3CI0 SLP114

CYYG;2009-07-19 17:00;CYYG 191700Z 25011KT 15SM SCT018 BKN210 24/20 A2986 RMK CU3CI0 SLP111

CYYG;2009-07-19 18:00;CYYG 191800Z 25011G19KT 15SM SCT021 BKN140 BKN210 25/20 A2986 RMK CU3AC2CI0 SLP111

CYYG;2009-07-19 19:00;CYYG 191900Z 23011G16KT 15SM FEW020 BKN100 24/19 A2986 RMK CU2AC5 SLP111

CYYG;2009-07-19 20:00;CYYG 192000Z 23011G17KT 15SM FEW020 BKN094 24/20 A2986 RMK CU2AC4 SLP112

CYYG;2009-07-19 21:00;CYYG 192100Z 24013KT 15SM FEW020 FEW090 25/20 A2987 RMK CU2AC1 HZ SLP115

CYYG;2009-07-19 22:00;CYYG 192200Z 26013KT 15SM FEW020 SCT090 23/18 A2989 RMK CU2AC2 SLP122

CYYG;2009-07-19 23:00;CYYG 192300Z 25013KT 15SM FEW020 SCT085 21/17 A2991 RMK CU2AC2 TCU E SLP127

CYYG;2009-07-20 00:00;CYYG 200000Z 25011KT 15SM FEW025 FEW090 20/17 A2994 RMK CU0AC1 SLP139

CYYG;2009-07-20 01:00;CYYG 200100Z 25011KT 15SM FEW090 20/17 A2997 RMK AC1 SLP150

CYYG;2009-07-20 02:00;CYYG 200200Z 25009G15KT 15SM FEW100 19/16 A2999 RMK AC1 SLP156

CYYG;2009-07-20 03:00;CYYG 200300Z 25007KT 15SM SKC 18/16 A3000 RMK SLP159

CYYG;2009-07-20 04:00;CYYG 200400Z 27008KT 15SM SKC 17/15 A3001 RMK SLP163

CYYG;2009-07-20 05:00;CYYG 200500Z 25006KT 15SM SKC 16/15 A3003 RMK SLP169

CYYG;2009-07-20 06:00;CYYG 200600Z 25007KT 15SM SKC 16/15 A3004 RMK SLP172

CYYG;2009-07-20 07:00;CYYG 200700Z 24005KT 15SM SKC 15/15 A3005 RMK SLP175

CYYG;2009-07-20 08:00;CYYG 200800Z 25007KT 15SM SKC 16/14 A3006 RMK SLP179

CYYG;2009-07-20 09:00;CYYG 200900Z 25006KT 15SM SKC 15/14 A3007 RMK SLP184

CYYG;2009-07-20 10:00;CYYG 201000Z 24005KT 15SM SKC 16/14 A3009 RMK SLP190

CYYG;2009-07-20 11:00;CYYG 201100Z 25008KT 15SM FEW280 18/15 A3011 RMK CI0 SLP197

CYYG;2009-07-20 12:00;CYYG 201200Z 25009KT 15SM FEW280 19/15 A3012 RMK CI0 SLP200

CYYG;2009-07-20 13:00;CYYG 201300Z 26007KT 15SM FEW280 21/16 A3012 RMK CI0 SLP201

CYYG;2009-07-20 14:00;CYYG 201400Z 26008KT 15SM FEW030 FEW280 22/17 A3013 RMK CU1CI1 SLP203

CYYG;2009-07-20 15:00;CYYG 201500Z 25011KT 15SM FEW030 FEW280 23/17 A3014 RMK CU1CI0 SLP206

CYYG;2009-07-20 16:00;CYYG 201600Z 24011KT 15SM FEW030 23/16 A3014 RMK CU2 SLP207

CYYG;2009-07-20 17:00;CYYG 201700Z 25009G15KT 15SM FEW030 24/17 A3014 RMK CU2 SLP207

CYYG;2009-07-20 18:00;CYYG 201800Z 23009KT 15SM FEW030 25/16 A3015 RMK CU2 SLP209

CYYG;2009-07-20 19:00;CYYG 201900Z 23009KT 15SM FEW030 25/17 A3015 RMK CU2 SLP210

CYYG;2009-07-20 20:00;CYYG 202000Z 24010KT 15SM FEW030 25/16 A3016 RMK CU2 SLP213

CYYG;2009-07-20 21:00;CYYG 202100Z 25007KT 15SM FEW030 FEW300 25/15 A3016 RMK CU2CI1 SLP213

CYYG;2009-07-20 22:00;CYYG 202200Z 25006KT 15SM FEW030 SCT300 25/16 A3016 RMK CU2CI2 SLP214

CYYG;2009-07-20 23:00;CYYG 202300Z 26006KT 15SM FEW030 BKN250 23/16 A3017 RMK CF1CI2 SLP218

CYYG;2009-07-21 00:00;CYYG 210000Z 25005KT 15SM FEW030 BKN250 21/16 A3020 RMK SC1CI2 SLP225

CYYG;2009-07-21 01:00;CYYG 210100Z 25006KT 15SM SCT250 20/15 A3022 RMK CI2 SLP233

CYYG;2009-07-21 02:00;CYYG 210200Z 22006KT 15SM FEW075 SCT250 20/15 A3023 RMK AC1CI2 SLP237

CYYG;2009-07-21 03:00;CYYG 210300Z 24005KT 15SM FEW075 SCT250 20/15 A3024 RMK AC1CI2 SLP240

CYYG;2009-07-21 04:00;CYYG 210400Z 26007KT 15SM SCT210 19/15 A3024 RMK CI2 SLP240

CYYG;2009-07-21 05:00;CYYG 210500Z 25007KT 15SM BKN210 18/15 A3025 RMK CI5 SLP242

CYYG;2009-07-21 06:00;CYYG 210600Z 27007KT 15SM BKN190 19/15 A3024 RMK AC6 SLP241

CYYG;2009-07-21 07:00;CYYG 210700Z 27004KT 15SM BKN190 19/15 A3025 RMK AC7 SLP244

CYYG;2009-07-21 08:00;CYYG 210800Z 33002KT 15SM BKN150 18/15 A3025 RMK AC7 SLP245

CYYG;2009-07-21 09:00;CYYG 210900Z 33002KT 15SM BKN160 18/15 A3026 RMK AC7 SLP247

CYYG;2009-07-21 10:00;CYYG 211000Z 00000KT 15SM BKN150 18/16 A3026 RMK AC7 SLP248

CYYG;2009-07-21 11:00;CYYG 211100Z 00000KT 15SM BKN130 19/16 A3028 RMK AC7 SLP253

CYYG;2009-07-21 12:00;CYYG 211200Z 00000KT 15SM BKN100 20/17 A3031 RMK AC7 SLP262

CYYG;2009-07-21 13:00;CYYG 211300Z 20005KT 15SM BKN100 BKN150 20/16 A3031 RMK AC6AC2 SLP265

CYYG;2009-07-21 14:00;CYYG 211400Z 14003KT 15SM BKN110 BKN150 21/17 A3031 RMK AC6AC2 SLP265

CYYG;2009-07-21 15:00;CYYG 211500Z 16005KT 15SM BKN110 OVC150 22/16 A3030 RMK AC6AC2 SLP261

CYYG;2009-07-21 16:00;CYYG 211600Z 20004KT 15SM FEW040 BKN120 OVC230 22/17 A3030 RMK CU1AC6CI1 CU TR SLP261

CYYG;2009-07-21 17:00;CYYG 211700Z 16008KT 15SM FEW040 BKN130 OVC230 23/16 A3030 RMK CU1AC6CI1 SLP259

CYYG;2009-07-21 18:00;CYYG 211800Z 20005KT 15SM FEW040 FEW100 BKN150 BKN230 23/16 A3029 RMK CU1AC2AC4CI0 CU TR SLP257

CYYG;2009-07-21 19:00;CYYG 211900Z 20006KT 15SM FEW040 FEW100 BKN150 BKN230 23/15 A3028 RMK CU1AC2AC4CI0 CU TR SLP255

CYYG;2009-07-21 20:00;CYYG 212000Z 17006KT 15SM FEW100 OVC140 22/16 A3028 RMK AC2AC5 SLP254

CYYG;2009-07-21 21:00;CYYG 212100Z 18008KT 15SM SCT100 BKN140 22/16 A3027 RMK AC3AC4 SLP251

CYYG;2009-07-21 22:00;CYYG 212200Z 18008KT 15SM FEW100 BKN140 22/16 A3027 RMK AC2AC5 SLP251

CYYG;2009-07-21 23:00;CYYG 212300Z 18006KT 15SM BKN110 21/16 A3028 RMK AC7 SLP253

CYYG;2009-07-22 00:00;CYYG 220000Z 18006KT 15SM OVC110 20/16 A3028 RMK AC8 SLP253

CYYG;2009-07-22 01:00;CYYG 220100Z 15005KT 15SM OVC092 20/17 A3028 RMK AC8 SLP255

CYYG;2009-07-22 02:00;CYYG 220200Z 14003KT 15SM OVC088 19/17 A3028 RMK AC8 SLP254

CYYG;2009-07-22 03:00;CYYG 220300Z 15003KT 15SM OVC089 19/17 A3027 RMK AC8 SLP251

CYYG;2009-07-22 04:00;CYYG 220400Z 17004KT 15SM OVC090 19/18 A3027 RMK AC8 SLP249

CYYG;2009-07-22 05:00;CYYG 220500Z 18004KT 15SM FEW020 OVC089 19/17 A3027 RMK SC1AC7 SLP250

CYYG;2009-07-22 06:00;CYYG 220600Z 16003KT 15SM -SHRA FEW020 OVC075 18/17 A3027 RMK SC1AC7 SLP249

CYYG;2009-07-22 07:00;CYYG 220700Z 12005KT 15SM -SHRA FEW020 OVC064 18/17 A3024 RMK SC1SC7 SLP241

CYYG;2009-07-22 08:00;CYYG 220800Z 11007KT 10SM -SHRA FEW008 OVC054 17/17 A3023 RMK SF1SC7 SLP237

CYYG;2009-07-22 09:00;CYYG 220900Z 12007KT 3SM -SHRA BR SCT005 OVC047 17/16 A3022 RMK SF4SC4 RERA SLP233

CYYG;2009-07-22 09:13;CYYG 220913Z 16003KT 3SM -SHRA BR BKN004 OVC040 17/ RMK SF6SC2

CYYG;2009-07-22 10:00;CYYG 221000Z 07006KT 2SM RA BR BKN003 BKN011 OVC030 17/17 A3020 RMK SF6SC2SC1 SLP228

CYYG;2009-07-22 10:16;CYYG 221016Z 12006KT 3SM -RA BR BKN003 OVC009 17/ RMK SF6SF2 RERA

CYYG;2009-07-22 11:00;CYYG 221100Z 11011KT 3SM -RA BR BKN003 OVC018 17/17 A3018 RERA RMK SF5SC3 /R15/ SLP221

CYYG;2009-07-22 11:35;CYYG 221135Z 13013KT 6SM -DZ BR SCT003 BKN006 OVC010 17/ RMK SF3SF2SF2

CYYG;2009-07-22 11:52;CYYG 221152Z 12012G18KT 10SM -RA BKN004 OVC016 17/ RMK SF6SC2

CYYG;2009-07-22 12:00;CYYG 221200Z 11011KT 10SM -RA BKN004 OVC017 17/17 A3017 RMK SF6SC2 SLP218

CYYG;2009-07-22 13:00;CYYG 221300Z 11008KT 15SM -RA OVC006 18/17 A3017 RMK SF8 VIS LWR NW-E SLP215

CYYG;2009-07-22 13:28;CYYG 221328Z 10007KT 2SM -RA BR OVC006 18/ RMK SF8

CYYG;2009-07-22 14:00;CYYG 221400Z 09007KT 2SM -RA BR FEW003 OVC007 18/18 A3016 RMK SF2SF6 SLP214

CYYG;2009-07-22 15:00;CYYG 221500Z 10008KT 2 1/2SM -RA BR SCT003 OVC006 18/17 A3014 RMK SF3SF5 SLP206

CYYG;2009-07-22 15:21;CYYG 221521Z 10010KT 4SM -RA BR FEW003 OVC008 18/ RMK SF2SF6

CYYG;2009-07-22 16:00;CYYG 221600Z 11007KT 10SM -RA OVC004 18/18 A3012 RMK SF8 SLP198

CYYG;2009-07-22 16:13;CYYG 221613Z 11005KT 15SM OVC004 18/ RMK SF8

CYYG;2009-07-22 16:32;CYYG 221632Z 13005KT 2SM BR OVC004 18/ RMK SF8

CYYG;2009-07-22 16:40;CYYG 221640Z 14005KT 2SM -DZ BR OVC005 19/ RMK ST8

CYYG;2009-07-22 17:00;CYYG 221700Z 15006KT 2SM -DZ BR FEW002 OVC004 19/19 A3011 RMK SF2ST6 SLP196

CYYG;2009-07-22 17:52;CYYG 221752Z 19006KT 3SM SHRA BR OVC004 20/ RMK SF8

CYYG;2009-07-22 18:00;CYYG 221800Z 18006KT 2SM +SHRA BR OVC004 20/19 A3009 RMK SF8 SLP189

CYYG;2009-07-22 18:07;CYYG 221807Z 18006KT 6SM -SHRA BR OVC004 20/ RERA RMK SF8 VIS LWR W-NE

CYYG;2009-07-22 18:50;CYYG 221850Z 20005KT 15SM BKN004 21/ RERA RMK SF7

CYYG;2009-07-22 19:00;CYYG 221900Z 20005KT 15SM BKN004 21/21 A3006 RERA RMK SF7 SLP180

CYYG;2009-07-22 20:00;CYYG 222000Z 19006KT 15SM BKN007 BKN023 BKN300 23/21 A3005 RMK SF5SC1CI1 SLP175

CYYG;2009-07-22 20:34;CYYG 222034Z 18005KT 15SM -SHRA SCT007 BKN022 BKN053 22/ RMK SF3SC2SC2 CB TOP DIST S

CYYG;2009-07-22 20:50;CYYG 222050Z 17006KT 15SM TS VCSH SCT007 BKN020CB BKN039 22/ RMK SF3CB2SC2 CB ASOCTD N-S

CYYG;2009-07-22 21:00;CYYG 222100Z 18006KT 15SM -TSRA FEW006 BKN032CB BKN300 22/21 A3002 RMK SF2CB4CI2 CB ASOCTD N AND DIST SE SLP167

CYYG;2009-07-22 22:00;CYYG 222200Z 36006KT 15SM VCSH FEW006 BKN022 20/17 A3003 RETS RMK SF2SC6 CB EMBDD DIST SE SLP168

CYYG;2009-07-22 23:00;CYYG 222300Z 20003KT 15SM VCSH FEW008 BKN014 BKN035 21/19 A3003 RMK SF1SC5SC2 CB TOP DIST E SLP168

CYYG;2009-07-23 00:00;CYYG 230000Z 36003KT 10SM OVC008 19/18 A3003 RMK SF8 VIS 4 W SLP168

CYYG;2009-07-23 00:14;CYYG 230014Z 02008KT 5SM BR BKN003 OVC009 18/ RMK SF5SF3

CYYG;2009-07-23 00:23;CYYG 230023Z 02009KT 3SM -TSRA BKN004CB OVC008 18/ RMK CB6SF2

CYYG;2009-07-23 01:00;CYYG 230100Z 07004KT 5SM -TSRA SCT005 OVC011 18/18 A3002 RMK SF4SF4 CB EMBDD SLP167

CYYG;2009-07-23 01:14;CYYG 230114Z 00000KT 8SM SCT003 OVC009 18/ RETS RMK SF4SF4

CYYG;2009-07-23 01:29;CYYG 230129Z 13003KT 4SM BR BKN003 OVC008 18/ RMK SF6SF2

CYYG;2009-07-23 02:00;CYYG 230200Z 35003KT 6SM BR OVC003 18/18 A3003 RMK SF8 SLP168

CYYG;2009-07-23 02:41;CYYG 230241Z 33004KT 1 1/2SM BR OVC002 17/ RMK SF8

CYYG;2009-07-23 03:00;CYYG 230300Z 32004KT 1 1/2SM BR OVC002 18/18 A3003 RMK SF8 SLP169

CYYG;2009-07-23 04:00;CYYG 230400Z 35005KT 1 1/2SM BR OVC002 17/17 A3002 RMK SF8 SLP167

CYYG;2009-07-23 04:35;CYYG 230435Z 01009KT 3SM -DZ BR OVC004 17/ RMK SF8

CYYG;2009-07-23 05:00;CYYG 230500Z 03012KT 3SM -DZ BR OVC005 16/16 A3004 RMK SF8 SLP173

CYYG;2009-07-23 06:00;CYYG 230600Z 04013KT 4SM -DZ BR OVC005 16/16 A3004 RMK SF8 SLP173

CYYG;2009-07-23 07:00;CYYG 230700Z 04013G19KT 6SM -DZ BR OVC006 16/15 A3005 RMK SF8 SLP177

CYYG;2009-07-23 08:00;CYYG 230800Z 04014KT 10SM -DZ BKN008 OVC014 16/15 A3007 RMK SF6SC2 SLP182

CYYG;2009-07-23 09:00;CYYG 230900Z 03010G17KT 8SM -DZ OVC008 16/15 A3009 RMK SF8 SLP190

CYYG;2009-07-23 09:52;CYYG 230952Z 03012KT 10SM BKN009 OVC024 16/ RMK SF5SC3

CYYG;2009-07-23 10:00;CYYG 231000Z 03011KT 10SM BKN010 BKN021 16/15 A3011 RMK SF5SC2 SLP196

CYYG;2009-07-23 11:00;CYYG 231100Z 03012KT 12SM -DZ FEW006 BKN010 OVC020 16/15 A3012 RMK SF2SC4SC2 SLP201

CYYG;2009-07-23 11:28;CYYG 231128Z 04014KT 15SM FEW008 SCT011 BKN020 17/ RMK SF1SC3SC3

CYYG;2009-07-23 12:00;CYYG 231200Z 03015KT 15SM FEW008 OVC018 17/15 A3014 RMK SF2SC6 SLP208

CYYG;2009-07-23 13:00;CYYG 231300Z 04014G21KT 15SM FEW008 OVC020 17/15 A3016 RMK SF2SC6 SLP213

CYYG;2009-07-23 14:00;CYYG 231400Z 04017KT 15SM FEW008 BKN020 18/15 A3017 RMK SF1SC6 SLP215

CYYG;2009-07-23 15:00;CYYG 231500Z 05013KT 15SM BKN018 19/15 A3017 RMK SC7 SLP215

CYYG;2009-07-23 16:00;CYYG 231600Z 05010G15KT 15SM BKN018 BKN280 19/16 A3016 RMK SC6CI1 SLP214

CYYG;2009-07-23 17:00;CYYG 231700Z 04011G16KT 15SM SCT018 BKN280 20/16 A3017 RMK SC3CI1 SLP215

CYYG;2009-07-23 18:00;CYYG 231800Z 04011G16KT 15SM FEW018 BKN280 20/16 A3016 RMK SC2CI2 SLP214

CYYG;2009-07-23 19:00;CYYG 231900Z 03010KT 15SM FEW020 BKN280 20/16 A3016 RMK CU2CI2 SLP212

CYYG;2009-07-23 20:00;CYYG 232000Z 03010KT 15SM FEW020 BKN280 19/15 A3017 RMK CU1CI2 SLP216

CYYG;2009-07-23 21:00;CYYG 232100Z 03010KT 15SM FEW020 BKN280 19/15 A3016 RMK CU1CI2 SLP214

CYYG;2009-07-23 22:00;CYYG 232200Z 04010KT 15SM FEW020 BKN280 18/15 A3016 RMK CU1CI2 SLP212

CYYG;2009-07-23 23:00;CYYG 232300Z 04006KT 15SM SCT012 OVC280 17/15 A3017 RMK SC2CI3 SLP216

CYYG;2009-07-24 00:00;CYYG 240000Z 01003KT 15SM FEW010 OVC280 15/15 A3018 RMK SC1CI2 SLP220

CYYG;2009-07-24 01:00;CYYG 240100Z 00000KT 15SM FEW010 BKN280 15/15 A3019 RMK SC1CI2 SLP224

CYYG;2009-07-24 02:00;CYYG 240200Z 08003KT 15SM FEW010 SCT250 14/14 A3018 RMK SC1CI1 SLP221

CYYG;2009-07-24 03:00;CYYG 240300Z 09004KT 15SM FEW250 14/14 A3017 RMK CI1 SLP215

CYYG;2009-07-24 04:00;CYYG 240400Z 00000KT 12SM FEW250 13/13 A3017 RMK CI1 SLP215

CYYG;2009-07-24 05:00;CYYG 240500Z 02002KT 10SM MIFG FEW250 13/12 A3016 RMK CI1 SLP213

CYYG;2009-07-24 06:00;CYYG 240600Z 05002KT 15SM MIFG SKC 11/11 A3016 RMK SLP214

CYYG;2009-07-24 06:29;CYYG 240629Z 09002KT 12SM MIFG BKN003 12/ RMK SF6

CYYG;2009-07-24 07:00;CYYG 240700Z 13007KT 1/2SM R03/2200V4500FT/D FG VV001 15/15 A3016 RMK FG8 SLP213

CYYG;2009-07-24 07:54;CYYG 240754Z 15003KT 3/4SM R03/3500VP6000FT/U BR OVC005 15/ RMK FG2SF6

CYYG;2009-07-24 08:00;CYYG 240800Z 15003KT 5SM R03/4500VP6000FT/U BR BKN006 15/15 A3015 RMK SF7 SLP211

CYYG;2009-07-24 09:00;CYYG 240900Z 16005KT 10SM OVC008 15/15 A3015 RMK SF7 SLP210

CYYG;2009-07-24 10:00;CYYG 241000Z 16007KT 12SM BKN006 OVC250 15/15 A3015 RMK SF7CI1 SLP209

CYYG;2009-07-24 11:00;CYYG 241100Z 14007KT 15SM BKN006 BKN250 15/14 A3015 RMK SF5CI2 SLP211

CYYG;2009-07-24 11:31;CYYG 241131Z 17007KT 15SM SCT009 BKN250 16/ RMK SF3CI2

CYYG;2009-07-24 12:00;CYYG 241200Z 17010KT 15SM BKN009 BKN260 16/14 A3015 RMK SF5CI2 SLP211

CYYG;2009-07-24 13:00;CYYG 241300Z 13009KT 15SM SCT010 BKN260 17/14 A3014 RMK SF2CI3 SLP208

CYYG;2009-07-24 14:00;CYYG 241400Z 14008KT 15SM FEW010 BKN260 18/15 A3013 RMK SF2CI4 SLP205

CYYG;2009-07-24 15:00;CYYG 241500Z 13006KT 15SM FEW015 OVC250 19/14 A3013 RMK SC1CI6 SLP203

CYYG;2009-07-24 16:00;CYYG 241600Z 18009KT 15SM FEW020 BKN250 19/14 A3013 RMK SC1CI6 SLP204

CYYG;2009-07-24 17:00;CYYG 241700Z 15009KT 15SM FEW020 OVC250 18/14 A3013 RMK SC1CI6 SLP203

CYYG;2009-07-24 18:00;CYYG 241800Z 13007KT 15SM FEW020 SCT110 OVC250 18/14 A3011 RMK SC2AC2CI4 SLP197

CYYG;2009-07-24 19:00;CYYG 241900Z 13009KT 15SM FEW020 SCT110 OVC250 18/14 A3011 RMK SC1AC2CI5 SLP196

CYYG;2009-07-24 19:34;CYYG 241934Z 12010KT 15SM -SHRA FEW020 BKN085 OVC250 18/ RMK SC2AC3CI3

CYYG;2009-07-24 20:00;CYYG 242000Z 13002KT 15SM -SHRA FEW020 BKN082 OVC250 17/15 A3009 RMK SC2AC3CI3 PCPN VRY LGT SLP192

CYYG;2009-07-24 21:00;CYYG 242100Z 13008KT 15SM -SHRA BKN012 BKN020 OVC078 16/15 A3008 RMK SF5SC1AC2 SLP187

CYYG;2009-07-24 21:49;CYYG 242149Z 11009G15KT 10SM -SHRA BKN009 OVC050 16/ RMK SF5SC3

CYYG;2009-07-24 22:00;CYYG 242200Z 11011KT 10SM -SHRA BKN009 OVC050 15/15 A3006 RMK SF6SC2 SLP179

CYYG;2009-07-24 23:00;CYYG 242300Z 12011G16KT 10SM -SHRA BKN008 OVC037 15/15 A3005 RMK SF6SC2 SLP177

CYYG;2009-07-25 00:00;CYYG 250000Z 11010KT 10SM -SHRA BKN008 OVC030 15/14 A3006 RMK SF6SC2 SLP181

CYYG;2009-07-25 01:00;CYYG 250100Z 11010G15KT 10SM -SHRA OVC007 15/14 A3006 RMK SF8 SLP179

CYYG;2009-07-25 02:00;CYYG 250200Z 11013G20KT 10SM BKN007 OVC013 15/15 A3004 RMK SF6SC2 SLP172

CYYG;2009-07-25 02:32;CYYG 250232Z 13014G19KT 10SM -RA BKN007 OVC011 15/ RMK SF6SC2

CYYG;2009-07-25 03:00;CYYG 250300Z 12012G18KT 10SM -RA BKN006 OVC012 15/15 A3002 RMK SF7SC1 SLP167

CYYG;2009-07-25 04:00;CYYG 250400Z 12012KT 10SM -RA BKN007 OVC011 15/15 A3002 RMK SF7SC1 SLP166

CYYG;2009-07-25 05:00;CYYG 250500Z 10018KT 6SM -RA BR OVC005 15/15 A2998 RMK SF8 SLP152

CYYG;2009-07-25 05:36;CYYG 250536Z 11017G28KT 10SM OVC009 15/ RMK SF8

CYYG;2009-07-25 06:00;CYYG 250600Z 11021G28KT 10SM -RA BKN007 OVC030 16/15 A2995 RMK SF7SC1 SLP143

CYYG;2009-07-25 07:00;CYYG 250700Z 11020G27KT 12SM BKN008 OVC012 15/15 A2993 RMK SF7SC1 SLP135

CYYG;2009-07-25 07:31;CYYG 250731Z 11017G27KT 10SM -RA OVC007 15/ RMK SF8

CYYG;2009-07-25 08:00;CYYG 250800Z 11017G28KT 10SM -RA OVC008 16/15 A2991 RMK SF8 SLP130

CYYG;2009-07-25 08:20;CYYG 250820Z 12018G29KT 12SM OVC008 16/ RMK SF8

CYYG;2009-07-25 08:46;CYYG 250846Z 11018G29KT 6SM -RA BR OVC008 16/ RMK SF8

CYYG;2009-07-25 09:00;CYYG 250900Z 11020G28KT 6SM -RA BR OVC007 16/15 A2990 RMK SF8 SLP124

CYYG;2009-07-25 09:42;CYYG 250942Z 12022G27KT 10SM OVC007 16/ RMK SF8

CYYG;2009-07-25 10:00;CYYG 251000Z 12019G30KT 15SM OVC007 16/15 A2987 RMK SF8 SLP116

CYYG;2009-07-25 11:00;CYYG 251100Z 13019G26KT 15SM OVC007 15/15 A2987 RMK SF8 SLP116

CYYG;2009-07-25 11:19;CYYG 251119Z 13019G25KT 1/2SM R03/P6000FT/N -RA FG OVC006 16/ RMK SF8

CYYG;2009-07-25 12:00;CYYG 251200Z 13014G19KT 2SM -RA BR OVC006 16/15 A2988 RMK SF8 SLP118

CYYG;2009-07-25 13:00;CYYG 251300Z 16010G15KT 2SM -RA BR OVC004 17/17 A2988 RMK SF8 SLP118

CYYG;2009-07-25 14:00;CYYG 251400Z 18011KT 5SM -RA BR BKN006 OVC024 17/17 A2989 RMK SF5SC3 SLP121

CYYG;2009-07-25 14:14;CYYG 251414Z 19012KT 15SM -RA SCT007 BKN014 OVC023 17/ RMK SF3SC3SC2

CYYG;2009-07-25 14:28;CYYG 251428Z 20016KT 15SM FEW008 BKN020 OVC026 17/ RMK SF2SC3SC2

CYYG;2009-07-25 14:41;CYYG 251441Z 20013KT 2 1/2SM -SHRA BR BKN010 OVC026 17/ RMK SF6SC2

CYYG;2009-07-25 15:00;CYYG 251500Z 19015KT 8SM -SHRA SCT010 OVC024 17/17 A2990 RMK SF3SC5 SLP126

CYYG;2009-07-25 15:26;CYYG 251526Z 19014KT 10SM BKN016 OVC030 18/ RMK SC6SC2

CYYG;2009-07-25 15:38;CYYG 251538Z 19015KT 3SM BR OVC014 17/ RMK SC8

CYYG;2009-07-25 16:00;CYYG 251600Z 19013KT 10SM FEW005 OVC014 17/17 A2990 RMK SF2SC6 SLP126

CYYG;2009-07-25 17:00;CYYG 251700Z 18012G17KT 15SM FEW006 OVC018 18/17 A2989 RMK SF2SC6 SLP122

CYYG;2009-07-25 18:00;CYYG 251800Z 20012KT 15SM FEW010 OVC020 18/17 A2990 RMK SF2SC6 SLP125

CYYG;2009-07-25 19:00;CYYG 251900Z 21010KT 15SM FEW013 BKN021 20/17 A2990 RMK SC2SC6 SLP126

CYYG;2009-07-25 20:00;CYYG 252000Z 23015KT 15SM BKN029 20/16 A2991 RMK SC5 SLP128

CYYG;2009-07-25 21:00;CYYG 252100Z 22013G20KT 15SM SCT030 SCT280 21/16 A2991 RMK SC3CI1 SLP130

CYYG;2009-07-25 22:00;CYYG 252200Z CCA 22011G18KT 15SM FEW030 SCT280 20/16 A2992 RMK SC2CI1 SLP131

CYYG;2009-07-25 23:00;CYYG 252300Z 25008KT 15SM SCT040 SCT280 20/16 A2992 RMK SC3CI1 SLP132

CYYG;2009-07-26 00:00;CYYG 260000Z 25005KT 15SM BKN040 18/16 A2993 RMK SC5 SLP136

CYYG;2009-07-26 01:00;CYYG 260100Z 25008KT 15SM BKN054 18/16 A2994 RMK SC7 SLP140

CYYG;2009-07-26 02:00;CYYG 260200Z 22006KT 15SM OVC045 18/16 A2996 RMK SC8 SLP144

CYYG;2009-07-26 03:00;CYYG 260300Z 23005KT 15SM OVC036 18/17 A2996 RMK SC8 SLP144

CYYG;2009-07-26 03:38;CYYG 260338Z 24008KT 15SM SCT008 OVC014 17/ RMK SF3SC5

CYYG;2009-07-26 04:00;CYYG 260400Z 23010G15KT 15SM BKN008 OVC011 17/16 A2996 RMK SF5SC3 SLP147

CYYG;2009-07-26 05:00;CYYG 260500Z 24008G16KT 15SM OVC007 17/16 A2996 RMK SF8 SLP147

CYYG;2009-07-26 06:00;CYYG 260600Z 24007KT 15SM OVC007 17/16 A2997 RMK SF8 SLP148

CYYG;2009-07-26 07:00;CYYG 260700Z 25011G16KT 15SM OVC008 17/16 A2997 RMK SF8 SLP150

CYYG;2009-07-26 08:00;CYYG 260800Z 25009G15KT 15SM OVC007 17/16 A2998 RMK SF8 SLP153

CYYG;2009-07-26 09:00;CYYG 260900Z 24010KT 15SM OVC007 17/16 A2999 RMK SF8 SLP155

CYYG;2009-07-26 09:15;CYYG 260915Z 24008KT 15SM OVC006 17/ RMK SF8

CYYG;2009-07-26 10:00;CYYG 261000Z 25009KT 15SM OVC005 16/16 A3000 RMK SF8 SLP159

CYYG;2009-07-26 11:00;CYYG 261100Z 26009KT 15SM BKN005 17/16 A3001 RMK SF7 SLP163

CYYG;2009-07-26 12:00;CYYG 261200Z 26008KT 15SM BKN005 17/16 A3002 RMK SF7 SLP165

CYYG;2009-07-26 13:00;CYYG 261300Z 24006KT 15SM BKN005 17/16 A3002 RMK SF7 SLP166

CYYG;2009-07-26 13:07;CYYG 261307Z 22008KT 15SM BKN007 17/ RMK SF7

CYYG;2009-07-26 13:52;CYYG 261352Z 23009KT 15SM FEW007 BKN010 18/ RMK SF2SC6

CYYG;2009-07-26 14:00;CYYG 261400Z 22007KT 15SM FEW007 BKN010 19/16 A3002 RMK SF2SC6 SLP167

CYYG;2009-07-26 15:00;CYYG 261500Z CCA 24006KT 15SM BKN010 BKN300 19/17 A3003 RMK SC6CI0 SLP168

CYYG;2009-07-26 15:37;CYYG 261537Z 27010KT 15SM SCT011 SCT300 20/ RMK SC3CI1

CYYG;2009-07-26 16:00;CYYG 261600Z 21009KT 15SM FEW012 BKN300 20/17 A3003 RMK CF2CI0 SLP170

CYYG;2009-07-26 17:00;CYYG 261700Z 24008KT 15SM FEW015 FEW040 BKN300 22/18 A3004 RMK CF2SC1CI0 SLP171

CYYG;2009-07-26 18:00;CYYG 261800Z 27012G17KT 15SM FEW018 FEW040 BKN300 23/19 A3003 RMK CU1SC1CI1 SLP169

CYYG;2009-07-26 19:00;CYYG 261900Z 27006KT 15SM FEW025 FEW040 BKN300 25/20 A3003 RMK CU1SC1CI1 SLP168

CYYG;2009-07-26 20:00;CYYG 262000Z 27008KT 15SM FEW024 FEW040 BKN300 25/19 A3003 RMK CU1SC1CI1 SLP168

CYYG;2009-07-26 21:00;CYYG 262100Z 28009KT 15SM FEW028 FEW120 OVC300 25/19 A3003 RMK CU2AC1CI2 SLP168

CYYG;2009-07-26 22:00;CYYG 262200Z 03003KT 15SM FEW028 FEW120 BKN300 23/20 A3002 RMK CU2AC1CI2 SLP167

CYYG;2009-07-26 23:00;CYYG 262300Z 05004KT 15SM FEW028 FEW120 BKN240 20/18 A3004 RMK CU1AC1CI2 SLP173

CYYG;2009-07-27 00:00;CYYG 270000Z 03003KT 15SM FEW050 FEW120 BKN240 18/17 A3005 RMK SC1AC1CI2 SLP176

CYYG;2009-07-27 01:00;CYYG 270100Z 00000KT 15SM FEW050 SCT130 BKN240 18/17 A3006 RMK SC1AC2CI2 SLP180

CYYG;2009-07-27 02:00;CYYG 270200Z 13004KT 15SM BKN090 BKN240 19/18 A3007 RMK AC5CI2 SLP182

CYYG;2009-07-27 03:00;CYYG 270300Z 13003KT 15SM FEW040 BKN086 OVC240 18/18 A3006 RMK SC2AC5CI2 SLP180

CYYG;2009-07-27 04:00;CYYG 270400Z 14002KT 15SM FEW040 OVC075 18/18 A3006 RMK SC2AC6 SLP180

CYYG;2009-07-27 04:19;CYYG 270419Z 16003KT 15SM -SHRA FEW040 BKN075 OVC100 18/ RMK SC2AC5AC2

CYYG;2009-07-27 05:00;CYYG 270500Z 14002KT 15SM -SHRA FEW040 BKN075 OVC100 18/18 A3005 RMK SC2AC5AC2 SLP177

CYYG;2009-07-27 06:00;CYYG 270600Z 14005KT 15SM -SHRA FEW040 BKN075 OVC100 18/18 A3005 RMK SC1AC6AC2 SLP175

CYYG;2009-07-27 07:00;CYYG 270700Z 19008KT 15SM BKN075 OVC150 18/17 A3006 RMK AC6AC2 SLP178

CYYG;2009-07-27 08:00;CYYG 270800Z 18005KT 15SM FEW005 SCT075 BKN150 17/17 A3005 RMK SF2AC2AC2 SLP176

CYYG;2009-07-27 08:38;CYYG 270838Z 19005KT 10SM BKN003 18/ RMK SF7

CYYG;2009-07-27 09:00;CYYG 270900Z 19006KT 10SM BKN004 BKN150 BKN250 17/17 A3005 RMK SF5AC1CI1 SLP176

CYYG;2009-07-27 09:32;CYYG 270932Z 18007KT 10SM SCT004 OVC008 18/ RMK SF3SF4

CYYG;2009-07-27 10:00;CYYG 271000Z 17006KT 12SM SCT004 OVC008 19/19 A3005 RMK SF3SF5 SLP176

CYYG;2009-07-27 10:38;CYYG 271038Z 17008KT 10SM BKN004 BKN015 19/ RMK SF6SC1

CYYG;2009-07-27 11:00;CYYG 271100Z 19009KT 10SM BKN003 OVC016 20/19 A3005 RMK SF6SC2 SLP176

CYYG;2009-07-27 12:00;CYYG 271200Z 19009KT 8SM OVC003 20/20 A3004 RMK SF8 SLP174

CYYG;2009-07-27 13:00;CYYG 271300Z 19012KT 10SM OVC004 21/13 A3004 RMK SF8 SLP174

CYYG;2009-07-27 13:16;CYYG 271316Z 19010KT 10SM SCT004 OVC007 21/ RMK SF4SF4

CYYG;2009-07-27 13:28;CYYG 271328Z 19011KT 12SM SCT005 BKN250 22/ RMK SF3CI1

CYYG;2009-07-27 14:00;CYYG 271400Z 19011KT 15SM BKN007 BKN012 BKN250 23/21 A3004 RMK SF5SC1CI2 SLP171

CYYG;2009-07-27 14:18;CYYG 271418Z 18010KT 15SM FEW007 BKN015 23/ RMK SF2SC5

CYYG;2009-07-27 15:00;CYYG 271500Z 18012KT 15SM BKN013 24/22 A3002 RMK SC7 SLP166

CYYG;2009-07-27 16:00;CYYG 271600Z 18013KT 15SM FEW013 SCT300 25/22 A3000 RMK CU2CI1 SLP160

CYYG;2009-07-27 17:00;CYYG 271700Z 19013KT 12SM FEW016 SCT120 BKN300 26/23 A2999 RMK CU2AC2CI1 SLP156

CYYG;2009-07-27 18:00;CYYG 271800Z 20011G17KT 15SM FEW020 SCT100 BKN300 26/22 A2998 RMK CU2AC2CI2 SLP151

CYYG;2009-07-27 18:31;CYYG 271831Z 19011KT 15SM TS FEW038TCU SCT050CB BKN220 25/ RMK TCU2CB2CI4 CB DIST W-NW

CYYG;2009-07-27 19:00;CYYG 271900Z 20009KT 15SM TS BKN029TCU OVC220 25/21 A2997 RMK TCU5CI3 CB EMBDD NW-N MOVG NE SLP149

CYYG;2009-07-27 19:12;CYYG 271912Z 20012KT 8SM TSRA FEW017 BKN030CB OVC220 25/ RMK SC2CB4CI2 CB OVHD MOVG NE / LTGCG

CYYG;2009-07-27 19:36;CYYG 271936Z 21005KT 15SM SCT034TCU BKN220 25/ RETSRA RMK TCU3CI3 CB MOVD E

CYYG;2009-07-27 20:00;CYYG 272000Z 19008KT 15SM FEW034TCU BKN220 26/23 A2996 RETSRA RMK TCU2CI2 SLP144

CYYG;2009-07-27 21:00;CYYG 272100Z 18009KT 15SM FEW030TCU SCT100 BKN220 26/22 A2994 RMK TCU2AC2CI0 CB DIST S SLP138

CYYG;2009-07-27 22:00;CYYG 272200Z 20011KT 15SM BKN040TCU BKN160 BKN220 24/21 A2993 RMK TCU5AC1CI1 CB DIST W SLP137

CYYG;2009-07-27 22:17;CYYG 272217Z 20009KT 15SM -SHRA BKN035TCU BKN220 23/ RMK TCU5CI2

CYYG;2009-07-27 23:00;CYYG 272300Z 22005KT 15SM -TSRA SCT038CB BKN120 OVC250 22/21 A2993 RMK CB3AC2CI2 SLP136

CYYG;2009-07-28 00:00;CYYG 280000Z 20008KT 15SM FEW035CB BKN110 OVC250 22/21 A2992 RMK CB2AC2CI2 CB NW-N LTGCG SLP132

CYYG;2009-07-28 00:52;CYYG 280052Z 18009KT 15SM FEW035TCU BKN110 OVC250 22/ RETSRA RMK TCU2AC4CI2

CYYG;2009-07-28 01:00;CYYG 280100Z 18008KT 15SM FEW036TCU BKN100 OVC250 22/21 A2992 RETSRA RMK TCU2AC4CI2 SLP133

CYYG;2009-07-28 02:00;CYYG 280200Z 18011KT 15SM FEW030 BKN098 OVC250 21/20 A2991 RMK SC2AC4CI2 SLP129

CYYG;2009-07-28 03:00;CYYG 280300Z 18013KT 15SM FEW030 BKN090 OVC250 21/20 A2989 RMK SC2AC5CI1 SLP121

CYYG;2009-07-28 04:00;CYYG 280400Z 19011KT 15SM FEW030 BKN110 BKN250 21/20 A2988 RMK SC1AC5CI1 SLP117

CYYG;2009-07-28 05:00;CYYG 280500Z 21013KT 15SM SCT110 BKN150 21/20 A2986 RMK AC3AC3 SLP111

CYYG;2009-07-28 06:00;CYYG 280600Z 22008KT 15SM SCT015 BKN130 20/19 A2985 RMK SC3AC4 SLP107

CYYG;2009-07-28 06:16;CYYG 280616Z 22008KT 15SM BKN013 BKN130 OVC240 20/ RMK SC5AC2CI2

CYYG;2009-07-28 07:00;CYYG 280700Z 22010G16KT 15SM OVC012 20/19 A2985 RMK SC8 SLP107

CYYG;2009-07-28 07:49;CYYG 280749Z 24008KT 12SM OVC008 20/ RMK SF8

CYYG;2009-07-28 08:00;CYYG 280800Z 23007KT 12SM OVC008 20/19 A2985 RMK SF8 SLP106

CYYG;2009-07-28 09:00;CYYG 280900Z 26012G17KT 12SM OVC007 20/19 A2985 RMK SF8 SLP106

CYYG;2009-07-28 09:28;CYYG 280928Z 25011G18KT 12SM OVC005 19/ RMK SF8

CYYG;2009-07-28 10:00;CYYG 281000Z 25012G17KT 12SM OVC004 19/18 A2986 RMK SF8 SLP111

CYYG;2009-07-28 10:46;CYYG 281046Z 25011G20KT 5SM BR OVC003 18/ RMK SF8

CYYG;2009-07-28 11:00;CYYG 281100Z 25013G19KT 5SM BR OVC003 18/18 A2988 RMK SF8 SLP117

CYYG;2009-07-28 11:47;CYYG 281147Z 24010G16KT 8SM BKN004 19/ RMK SF7

CYYG;2009-07-28 12:00;CYYG 281200Z 23009KT 8SM BKN004 19/18 A2987 RMK SF7 SLP115

CYYG;2009-07-28 12:18;CYYG 281218Z 24010G15KT 10SM BKN005 19/ RMK SF7

CYYG;2009-07-28 13:00;CYYG 281300Z 23011KT 12SM BKN006 19/18 A2987 RMK SF7 SLP115

CYYG;2009-07-28 13:33;CYYG 281333Z 23012KT 12SM BKN007 BKN100 20/ RMK SF6AC1

CYYG;2009-07-28 14:00;CYYG 281400Z 25010G16KT 15SM SCT007 SCT100 21/19 A2987 RMK CF4AC1 SLP114

CYYG;2009-07-28 15:00;CYYG 281500Z 24011KT 15SM FEW010 SCT300 23/19 A2986 RMK CF2CI0 SLP110

CYYG;2009-07-28 16:00;CYYG 281600Z 26008KT 15SM FEW015 SCT300 24/20 A2985 RMK CU1CI1 TCU BLDG DIST SSW SLP106

CYYG;2009-07-28 17:00;CYYG 281700Z 23008KT 15SM FEW020TCU SCT300 25/19 A2983 RMK TCU1CI0 TCU SW SLP100

CYYG;2009-07-28 18:00;CYYG 281800Z 25009KT 15SM FEW025 FEW300 26/20 A2982 RMK CU1CI1 SLP098

CYYG;2009-07-28 19:00;CYYG 281900Z 25010KT 15SM FEW025TCU FEW300 26/18 A2982 RMK TCU1CI1 TCU NW-NE SLP096

CYYG;2009-07-28 20:00;CYYG 282000Z 25011KT 15SM FEW025 FEW300 26/18 A2982 RMK CU1CI1 SLP096

CYYG;2009-07-28 21:00;CYYG 282100Z 27010G15KT 15SM FEW028 FEW080 BKN300 26/18 A2982 RMK CU2AC1CI1 TCU ASOCTD S-SW SLP097

CYYG;2009-07-28 22:00;CYYG 282200Z 25009KT 15SM FEW030 FEW080 FEW300 25/18 A2981 RMK CU1AC1CI1 SLP095

CYYG;2009-07-28 23:00;CYYG 282300Z 25006KT 15SM FEW075 FEW300 24/18 A2982 RMK AC1CI1 SLP098

CYYG;2009-07-29 00:00;CYYG 290000Z 25008KT 15SM SCT300 22/17 A2983 RMK CI2 SLP100

CYYG;2009-07-29 01:00;CYYG 290100Z 25009KT 15SM SCT300 21/16 A2984 RMK CI2 SLP105

CYYG;2009-07-29 02:00;CYYG 290200Z 25009KT 15SM SCT300 20/16 A2985 RMK CI2 SLP109

CYYG;2009-07-29 03:00;CYYG 290300Z 26007KT 15SM SCT300 19/17 A2986 RMK CI2 SLP111

CYYG;2009-07-29 04:00;CYYG 290400Z 25007KT 15SM FEW300 19/17 A2987 RMK CI1 SLP114

CYYG;2009-07-29 05:00;CYYG 290500Z 25006KT 15SM FEW300 19/17 A2987 RMK CI1 SLP114

CYYG;2009-07-29 06:00;CYYG 290600Z 26006KT 15SM FEW300 18/17 A2987 RMK CI1 SLP114

CYYG;2009-07-29 07:00;CYYG 290700Z 25006KT 15SM FEW300 18/17 A2987 RMK CI1 SLP116

CYYG;2009-07-29 08:00;CYYG 290800Z 25008KT 15SM SCT300 18/17 A2987 RMK CI1 SLP115

CYYG;2009-07-29 09:00;CYYG 290900Z 25008KT 15SM SCT300 18/16 A2989 RMK CI1 SLP120

CYYG;2009-07-29 10:00;CYYG 291000Z 25008KT 15SM SCT300 18/17 A2990 RMK CI1 SLP125

CYYG;2009-07-29 11:00;CYYG 291100Z 24009KT 15SM SCT300 19/17 A2991 RMK CI1 SLP127

CYYG;2009-07-29 12:00;CYYG 291200Z 23007KT 15SM FEW260 BKN300 22/19 A2992 RMK CC2CI1 SLP130

CYYG;2009-07-29 13:00;CYYG 291300Z 24006KT 15SM BKN250 23/19 A2991 RMK CI2 SLP129

CYYG;2009-07-29 14:00;CYYG 291400Z 22006KT 15SM BKN250 24/19 A2992 RMK CI2 SLP132

CYYG;2009-07-29 15:00;CYYG 291500Z 22009KT 15SM BKN250 25/20 A2992 RMK CI3 SLP131

CYYG;2009-07-29 16:00;CYYG 291600Z 20011KT 15SM BKN250 26/20 A2992 RMK CI4 SLP130

CYYG;2009-07-29 17:00;CYYG 291700Z 22010G15KT 15SM BKN240 27/20 A2991 RMK CI4 SLP129

CYYG;2009-07-29 18:00;CYYG 291800Z 22009KT 15SM BKN240 28/21 A2991 RMK CI2 SLP127

CYYG;2009-07-29 19:00;CYYG 291900Z 22009KT 15SM BKN250 28/20 A2990 RMK CI2 SLP126

CYYG;2009-07-29 20:00;CYYG 292000Z 21010KT 15SM BKN250 28/20 A2990 RMK CI3 SLP124

CYYG;2009-07-29 21:00;CYYG 292100Z 24007KT 15SM BKN250 27/20 A2989 RMK CI3 SLP121

CYYG;2009-07-29 22:00;CYYG 292200Z 22006KT 15SM BKN220 27/20 A2988 RMK CI4 SLP117

CYYG;2009-07-29 23:00;CYYG 292300Z 25007KT 15SM BKN250 25/19 A2989 RMK CI4 SLP120

CYYG;2009-07-30 00:00;CYYG 300000Z 20006KT 15SM BKN250 23/19 A2991 RMK CI4 SLP128

CYYG;2009-07-30 01:00;CYYG 300100Z 22004KT 15SM FEW120 BKN250 23/19 A2991 RMK AC2CI5 SLP128

CYYG;2009-07-30 02:00;CYYG 300200Z 24004KT 15SM FEW120 SCT250 22/19 A2990 RMK AC1CI3 SLP126

CYYG;2009-07-30 03:00;CYYG 300300Z 21008KT 15SM FEW120 SCT250 22/20 A2990 RMK AC1CI3 SLP124

CYYG;2009-07-30 04:00;CYYG 300400Z 19008KT 15SM FEW120 SCT250 22/20 A2990 RMK AC1CI2 SLP123

CYYG;2009-07-30 05:00;CYYG 300500Z 19011KT 15SM FEW120 SCT250 21/20 A2989 RMK AC1CI2 SLP120

CYYG;2009-07-30 06:00;CYYG 300600Z 19010KT 15SM SCT190 20/20 A2988 RMK AC4 SLP117

CYYG;2009-07-30 07:00;CYYG 300700Z 18012KT 15SM BKN190 21/20 A2986 RMK AC6 SLP110

CYYG;2009-07-30 08:00;CYYG 300800Z 18011KT 15SM SCT020 BKN190 21/20 A2985 RMK SC4AC3 SLP109

CYYG;2009-07-30 08:09;CYYG 300809Z 18012KT 15SM FEW008 BKN020 OVC190 21/ RMK SF2SC4AC2

CYYG;2009-07-30 09:00;CYYG 300900Z 18012KT 15SM FEW011 BKN021 BKN190 21/20 A2984 RMK SF2SC2AC2 SLP104

CYYG;2009-07-30 09:11;CYYG 300911Z 18011KT 15SM BKN008 OVC190 21/ RMK SF6AC2

CYYG;2009-07-30 10:00;CYYG 301000Z 19015KT 15SM OVC010 21/20 A2984 RMK SF8 SLP104

CYYG;2009-07-30 10:36;CYYG 301036Z 18013G18KT 12SM OVC006 21/ RMK SF8

CYYG;2009-07-30 11:00;CYYG 301100Z 18014G19KT 12SM OVC007 21/20 A2983 RMK SF7 SLP101

CYYG;2009-07-30 12:00;CYYG 301200Z 20011G19KT 15SM BKN009 22/20 A2983 RMK SF7 SLP101

CYYG;2009-07-30 13:00;CYYG 301300Z 20017KT 15SM BKN009 BKN020 23/21 A2983 RMK SF5SC2 SLP102

CYYG;2009-07-30 13:12;CYYG 301312Z 21017G22KT 15SM SCT010 BKN022 23/ RMK SF3SC3

CYYG;2009-07-30 14:00;CYYG 301400Z 18017KT 15SM FEW010 BKN200 24/21 A2982 RMK SF2CI3 SLP099

CYYG;2009-07-30 15:00;CYYG 301500Z 19016KT 15SM FEW015 BKN200 24/21 A2980 RMK SC1CI4 SLP092

CYYG;2009-07-30 15:24;CYYG 301524Z 19015G20KT 15SM -SHRA FEW015 SCT100 BKN210 24/ RMK SC2AC2CI3

CYYG;2009-07-30 16:00;CYYG 301600Z 20014G19KT 15SM FEW020 BKN150 24/21 A2979 RMK SC2AC6 SLP086

CYYG;2009-07-30 17:00;CYYG 301700Z 19013KT 15SM OVC140 24/21 A2977 RMK AC8 SLP079

CYYG;2009-07-30 18:00;CYYG 301800Z 19015KT 15SM BKN038 OVC140 24/21 A2975 RMK SC5AC3 SLP074

CYYG;2009-07-30 18:04;CYYG 301804Z 19012G18KT 15SM -SHRA BKN034 OVC140 24/ RMK SC6AC2

CYYG;2009-07-30 18:43;CYYG 301843Z 20012G17KT 2 1/2SM -SHRA BR BKN028 OVC035 23/ RMK SC5SC3

CYYG;2009-07-30 19:00;CYYG 301900Z 21011G16KT 3SM -SHRA BR BKN024 OVC040 23/22 A2975 RMK SC6SC2 SLP075

CYYG;2009-07-30 20:00;CYYG 302000Z 20014KT 3SM -SHRA BR SCT018 OVC024 23/22 A2972 RMK SC4SC4 SLP065

CYYG;2009-07-30 20:05;CYYG 302005Z 20009G16KT 2SM -SHRA BR BKN004 OVC018 22/ RMK SF5SC3 CIG RAG

CYYG;2009-07-30 21:00;CYYG 302100Z 25009KT 2 1/2SM R03/2600VP6000FT/D SHRA BR FEW003 BKN007 OVC020 22/22 A2971 RERA RMK SF2SF5SC2 SLP059

CYYG;2009-07-30 21:24;CYYG 302124Z 26011G18KT 8SM FEW004 BKN009 BKN038 22/ RERA RMK SF2SF4SC2

CYYG;2009-07-30 22:00;CYYG 302200Z 25012G17KT 15SM FEW004 BKN013 BKN040 21/20 A2972 RERA RMK SF1SC5SC2 SLP064

CYYG;2009-07-30 22:29;CYYG 302229Z 25012KT 15SM BKN008 OVC015 21/ RMK SF7SC1

CYYG;2009-07-30 23:00;CYYG 302300Z 25010G15KT 15SM VCSH OVC010 20/20 A2974 RMK SF8 SLP071

CYYG;2009-07-30 23:16;CYYG 302316Z 26011KT 8SM -DZ OVC010 20/ RMK SF8

CYYG;2009-07-31 00:00;CYYG 310000Z 26009KT 8SM -DZ OVC008 20/19 A2977 RMK SF8 SLP080

CYYG;2009-07-31 00:28;CYYG 310028Z 25008KT 10SM OVC008 20/ RMK SF8

CYYG;2009-07-31 01:00;CYYG 310100Z 25007KT 15SM BKN010 OVC027 19/19 A2978 RMK SF5SC3 SLP084

CYYG;2009-07-31 01:26;CYYG 310126Z 23006KT 10SM OVC004 19/ RMK SF8

CYYG;2009-07-31 02:00;CYYG 310200Z 24007KT 10SM OVC003 19/19 A2979 RMK SF8 SLP087

CYYG;2009-07-31 03:00;CYYG 310300Z 22006KT 12SM OVC005 19/19 A2979 RMK SF8 SLP086

CYYG;2009-07-31 03:15;CYYG 310315Z 23006KT 4SM BR OVC002 19/ RMK SF8

CYYG;2009-07-31 04:00;CYYG 310400Z 25006KT 4SM BR OVC002 19/19 A2980 RMK SF8 SLP092

CYYG;2009-07-31 05:00;CYYG 310500Z 25009KT 3/4SM R03/5500FT/D BR VV002 19/19 A2982 RMK FG8 SLP099

CYYG;2009-07-31 05:27;CYYG 310527Z 25010KT 1/2SM R03/2600FT/N FG VV001 18/ RMK FG8

CYYG;2009-07-31 06:00;CYYG 310600Z 25006KT 1/2SM R03/3000FT/N FG VV001 18/18 A2982 RMK FG8 SLP097

CYYG;2009-07-31 07:00;CYYG 310700Z 25008KT 1/2SM R03/3000FT/D FG VV001 18/18 A2984 RMK FG8 SLP104

CYYG;2009-07-31 08:00;CYYG 310800Z 25008KT 1/2SM R03/2800V5500FT/U FG VV001 18/18 A2984 RMK FG8 SLP103

CYYG;2009-07-31 09:00;CYYG 310900Z 24008KT 1/2SM R03/3000FT/U FG VV001 18/18 A2985 RMK FG8 SLP106

CYYG;2009-07-31 10:00;CYYG 311000Z 24006KT 1/2SM R03/5000FT/U FG VV001 19/19 A2986 RMK FG8 SLP112

CYYG;2009-07-31 10:09;CYYG 311009Z 22007KT 3/4SM R03/P6000FT/U BR OVC002 19/ RMK SF8

CYYG;2009-07-31 11:00;CYYG 311100Z 22006KT 1 1/2SM BR OVC003 19/19 A2986 RMK SF8 SLP111

CYYG;2009-07-31 11:26;CYYG 311126Z 23007KT 3SM BR OVC003 20/ RMK SF8

CYYG;2009-07-31 12:00;CYYG 311200Z 23008KT 5SM BR BKN005 20/20 A2986 RMK SF6 SLP113

CYYG;2009-07-31 12:10;CYYG 311210Z 23008KT 8SM BKN007 20/ RMK SF6

CYYG;2009-07-31 12:46;CYYG 311246Z 24008KT 10SM SCT007 BKN250 22/ RMK SF3CI1

CYYG;2009-07-31 13:00;CYYG 311300Z 24009KT 12SM SCT008 BKN250 22/20 A2987 RMK SF2CI2 SLP115

CYYG;2009-07-31 14:00;CYYG 311400Z 22009KT 15SM FEW020 SCT130 BKN250 23/20 A2987 RMK SC1AC1CI2 SLP116

CYYG;2009-07-31 15:00;CYYG 311500Z 22009KT 15SM FEW020 BKN250 25/21 A2988 RMK CU1CI2 SLP118

CYYG;2009-07-31 16:00;CYYG 311600Z 23010KT 15SM SCT200 BKN300 25/20 A2987 RMK CI2CI2 SLP116

CYYG;2009-07-31 17:00;CYYG 311700Z 20011KT 15SM SCT200 BKN300 27/20 A2987 RMK CI2CI2 SLP113

CYYG;2009-07-31 18:00;CYYG 311800Z 19010KT 15SM FEW040 BKN300 27/22 A2986 RMK CU2CI3 SLP112

CYYG;2009-07-31 19:00;CYYG 311900Z 21008KT 15SM FEW030 FEW120 BKN300 28/21 A2985 RMK CU1AC1CI2 SLP107

CYYG;2009-07-31 20:00;CYYG 312000Z 25010G15KT 15SM FEW032 FEW070 BKN300 27/20 A2985 RMK CU2AC1CI2 TCU ASOCTD NE SLP108

CYYG;2009-07-31 21:00;CYYG 312100Z 26010KT 15SM FEW030 SCT070 BKN300 26/19 A2985 RMK CU2AC1CI2 SLP108

CYYG;2009-07-31 22:00;CYYG 312200Z 27014KT 15SM SCT042 BKN190 25/19 A2985 RMK CU3CI2 SLP109

CYYG;2009-07-31 23:00;CYYG 312300Z 25010G15KT 15SM SCT040 BKN180 23/17 A2985 RMK SC3AC4 SLP109

CYYG;2009-08-01 01:00;CYYG 010100Z 26010G16KT 15SM FEW040 OVC120 23/15 A2988 RMK SC2AC6 SLP118

CYYG;2009-08-01 01:47;CYYG 010147Z 26007KT 15SM -SHRA FEW040 OVC100 21/ RMK SC2AC6

CYYG;2009-08-01 02:00;CYYG 010200Z 25006KT 15SM -SHRA FEW040 OVC100 21/17 A2989 RMK SC2AC6 SLP120

CYYG;2009-08-01 03:00;CYYG 010300Z 25007KT 15SM -SHRA FEW030 OVC090 20/18 A2988 RMK SC2AC6 SLP117

CYYG;2009-08-01 04:00;CYYG 010400Z 27004KT 12SM -RA FEW018 OVC060 19/19 A2985 RMK SC2SC6 SLP109

CYYG;2009-08-01 05:00;CYYG 010500Z 00000KT 10SM -RA FEW018 OVC053 19/18 A2984 RMK SC2SC6 SLP104

CYYG;2009-08-01 06:00;CYYG 010600Z 09003KT 10SM RA FEW015 OVC047 17/16 A2982 RMK SF2SC6 SLP097

CYYG;2009-08-01 06:21;CYYG 010621Z 00000KT 8SM +RA SCT012 OVC028 16/ RMK SF4SC4

CYYG;2009-08-01 07:00;CYYG 010700Z 07006KT 8SM +RA SCT012 OVC028 16/16 A2980 RMK SF4SC4 SLP091

CYYG;2009-08-01 07:40;CYYG 010740Z 00000KT 8SM RA FEW008 OVC012 17/ RMK SF2SF6 RERA

CYYG;2009-08-01 08:00;CYYG 010800Z 05002KT 8SM RA FEW008 OVC020 17/17 A2979 RMK SF2SC6 RERA SLP088

CYYG;2009-08-01 08:23;CYYG 010823Z 01003KT 10SM -RA FEW005 OVC016 17/ RMK SF2SC6 RERA

CYYG;2009-08-01 08:30;CYYG 010830Z 02003KT 5SM -RA BR BKN004 OVC016 17/ RMK SF6SC2 RERA

CYYG;2009-08-01 09:00;CYYG 010900Z 01004KT 1 1/2SM -RA BR OVC003 17/17 A2980 RMK SF8 SLP091

CYYG;2009-08-01 09:29;CYYG 010929Z 02003KT 5SM -RA BR OVC005 17/ RMK SF8

CYYG;2009-08-01 09:47;CYYG 010947Z 03006KT 6SM -DZ BR OVC004 18/ RMK SF8

CYYG;2009-08-01 10:00;CYYG 011000Z 02004KT 8SM -DZ OVC004 18/18 A2980 RMK SF8 SLP092

CYYG;2009-08-01 10:37;CYYG 011037Z 02003KT 15SM BKN004 BKN014 OVC075 18/ RMK SF6SC1AC2

CYYG;2009-08-01 11:00;CYYG 011100Z 36004KT 15SM BKN004 OVC023 18/18 A2983 RMK SF6SC2 SLP101

CYYG;2009-08-01 11:50;CYYG 011150Z 34003KT 15SM FEW004 SCT008 BKN093 19/ RMK SF2SF2AC3

CYYG;2009-08-01 12:00;CYYG 011200Z 35004KT 15SM FEW004 SCT008 BKN093 19/18 A2983 RMK SF2SF2AC3 SLP102

CYYG;2009-08-01 12:05;CYYG 011205Z 34006KT 15SM BKN008 BKN093 19/ RMK SF6AC1

CYYG;2009-08-01 13:00;CYYG 011300Z 34005KT 15SM BKN007 19/18 A2986 RMK SF7 SLP110

CYYG;2009-08-01 13:36;CYYG 011336Z 31005KT 15SM SCT008 BKN300 20/ RMK SF3CI1

CYYG;2009-08-01 14:00;CYYG 011400Z 34005KT 15SM SCT012 BKN300 21/18 A2987 RMK CU3CI1 SLP113

CYYG;2009-08-01 15:00;CYYG 011500Z 31003KT 15SM SCT018 BKN300 23/19 A2988 RMK CU3CI1 SLP118

CYYG;2009-08-01 16:00;CYYG 011600Z 29006KT 15SM SCT023 BKN300 24/19 A2989 RMK CU3CI1 SLP121

CYYG;2009-08-01 17:00;CYYG 011700Z 29008KT 15SM FEW026 SCT300 24/18 A2989 RMK CU2CI0 SLP122

CYYG;2009-08-01 18:00;CYYG 011800Z 31008KT 15SM FEW027 FEW300 25/19 A2990 RMK CU2CI0 SLP125

CYYG;2009-08-01 19:00;CYYG 011900Z 30007KT 15SM FEW027TCU FEW300 25/17 A2991 RMK TCU2CI0 TCU DIST SW-W SLP128

CYYG;2009-08-01 20:00;CYYG 012000Z 30004KT 15SM FEW035TCU 26/18 A2992 RMK TCU1 TCU SW-W SLP133

CYYG;2009-08-01 21:00;CYYG 012100Z 30006KT 15SM FEW035TCU 25/18 A2993 RMK TCU1 TCU SW-W SLP134

CYYG;2009-08-01 22:00;CYYG 012200Z 27005KT 15SM FEW035 FEW060 25/18 A2994 RMK CU1SC1 SLP140

CYYG;2009-08-01 23:00;CYYG 012300Z 24005KT 15SM FEW032 FEW060 23/18 A2996 RMK CU1SC2 TCU ASOCTD SE SLP146

CYYG;2009-08-02 00:00;CYYG 020000Z 25007KT 15SM FEW030 FEW060 22/18 A2999 RMK CU1SC1 SLP155

CYYG;2009-08-02 01:00;CYYG 020100Z 25007KT 15SM FEW060 21/18 A3001 RMK SC1 SLP162

CYYG;2009-08-02 02:00;CYYG 020200Z 25008KT 15SM FEW070 20/18 A3002 RMK AC2 SLP166

CYYG;2009-08-02 03:00;CYYG 020300Z 25006KT 15SM FEW070 20/18 A3004 RMK AC2 SLP171

CYYG;2009-08-02 04:00;CYYG 020400Z 25007KT 15SM FEW070 19/17 A3005 RMK AC1 SLP175

CYYG;2009-08-02 05:00;CYYG 020500Z 27005KT 15SM SKC 18/17 A3006 RMK SLP178

CYYG;2009-08-02 06:00;CYYG 020600Z 26005KT 15SM SKC 18/17 A3006 RMK SLP179

CYYG;2009-08-02 07:00;CYYG 020700Z 26004KT 15SM SKC 18/16 A3007 RMK SLP182

CYYG;2009-08-02 08:00;CYYG 020800Z 27004KT 15SM SKC 17/16 A3007 RMK SLP183

CYYG;2009-08-02 09:00;CYYG 020900Z 26004KT 15SM MIFG FEW260 17/16 A3008 RMK CI1 SLP186

CYYG;2009-08-02 10:00;CYYG 021000Z 00000KT 15SM FEW260 18/17 A3009 RMK CI1 SLP191

CYYG;2009-08-02 11:00;CYYG 021100Z 23002KT 15SM BKN300 19/17 A3010 RMK CI2 SLP194

CYYG;2009-08-02 12:00;CYYG 021200Z 19004KT 15SM SCT300 21/18 A3010 RMK CI2 SLP194

CYYG;2009-08-02 13:00;CYYG 021300Z 18004KT 15SM BKN300 23/19 A3010 RMK CI2 SLP194

CYYG;2009-08-02 14:00;CYYG 021400Z 20007KT 15SM FEW025 BKN300 24/19 A3010 RMK CU1CI3 SLP193

CYYG;2009-08-02 15:00;CYYG 021500Z 19005KT 15SM FEW030TCU BKN300 25/19 A3011 RMK TCU1CI2 TCU SW SLP195

CYYG;2009-08-02 16:00;CYYG 021600Z 18006KT 15SM FEW035TCU FEW170 BKN230 26/18 A3009 RMK TCU1AC1CI2 SLP191

CYYG;2009-08-02 17:00;CYYG 021700Z 19005KT 15SM FEW035 FEW075 BKN220 27/18 A3008 RMK CU1AC2CI2 SLP186

CYYG;2009-08-02 18:00;CYYG 021800Z 20006KT 15SM FEW035TCU SCT072 BKN300 27/18 A3007 RMK TCU1AC2CI2 SLP182

CYYG;2009-08-02 19:00;CYYG 021900Z 17009KT 15SM FEW040TCU FEW070 SCT200 BKN300 27/19 A3006 RMK TCU1AC2CI2CI1 SLP178

CYYG;2009-08-02 20:00;CYYG 022000Z 17008KT 15SM FEW040TCU FEW070 BKN300 27/16 A3005 RMK TCU1AC1CI1 SLP175

CYYG;2009-08-02 21:00;CYYG 022100Z 18005KT 15SM FEW040TCU SCT080 BKN300 27/17 A3004 RMK TCU1AC2CI1 SLP171

CYYG;2009-08-02 22:00;CYYG 022200Z CCA 16005KT 15SM SCT050 SCT080 BKN300 26/18 A3002 RMK SC3AC1CI0 TCU EMBDD SLP166

CYYG;2009-08-02 23:00;CYYG 022300Z 15005KT 15SM SCT056 SCT080 BKN300 24/18 A3003 RMK CU3AC1CI2 SLP168

CYYG;2009-08-03 00:00;CYYG 030000Z 16006KT 15SM FEW050 SCT080 BKN300 22/17 A3003 RMK CU2AC1CI2 SLP169

CYYG;2009-08-03 01:00;CYYG 030100Z 17007KT 15SM FEW050 SCT080 BKN300 21/17 A3003 RMK CU1AC2CI1 SLP170

CYYG;2009-08-03 02:00;CYYG 030200Z 18006KT 15SM SCT120 SCT300 21/17 A3003 RMK AC2CI0 SLP168

CYYG;2009-08-03 03:00;CYYG 030300Z 17009KT 15SM SCT120 SCT300 21/18 A3001 RMK AC2CI0 SLP162

CYYG;2009-08-03 04:00;CYYG 030400Z 19015KT 15SM SCT120 BKN230 20/18 A3001 RMK AC2CI1 SLP162

CYYG;2009-08-03 04:29;CYYG 030429Z 20013G18KT 15SM FEW008 BKN150 BKN230 19/ RMK SF2AC2CI2

CYYG;2009-08-03 05:00;CYYG 030500Z 18010G16KT 15SM SCT010 BKN150 18/17 A3000 RMK SF4AC3 SLP159

CYYG;2009-08-03 06:00;CYYG 030600Z 18011KT 15SM SCT010 BKN150 OVC230 18/16 A2998 RMK SF3AC3CI2 SLP153

CYYG;2009-08-03 07:00;CYYG 030700Z 17010KT 15SM SCT010 OVC140 18/17 A2996 RMK SF3AC5 SLP146

CYYG;2009-08-03 08:00;CYYG 030800Z 14007KT 15SM -SHRA BKN011 OVC140 18/17 A2994 RMK SF6AC2 SLP138

CYYG;2009-08-03 08:38;CYYG 030838Z 12007KT 10SM -SHRA OVC007 18/ RMK SF8

CYYG;2009-08-03 09:00;CYYG 030900Z 13006KT 6SM -SHRA BR OVC005 18/18 A2993 RMK SF8 OBS TAKEN +08 SLP133

CYYG;2009-08-03 09:25;CYYG 030925Z 13007KT 2SM -SHRA BR OVC007 18/ RMK SF8

CYYG;2009-08-03 10:00;CYYG 031000Z 13007KT 3SM -SHRA BR OVC005 18/18 A2991 RMK SF8 SLP129

CYYG;2009-08-03 10:18;CYYG 031018Z 32005KT 1SM R03/P6000FT/N SHRA BR OVC005 18/ RMK SF8

CYYG;2009-08-03 11:00;CYYG 031100Z 00000KT 2SM -SHRA BR BKN006 OVC025 19/19 A2991 RERA RMK SF7SC1 SLP129

CYYG;2009-08-03 11:42;CYYG 031142Z 15004KT 5SM BR BKN003 OVC006 20/ RMK SF5SF3 OCNL -SHRA

CYYG;2009-08-03 12:00;CYYG 031200Z 13004KT 8SM BKN003 OVC007 20/20 A2990 RMK SF6SF2 SLP124

CYYG;2009-08-03 13:00;CYYG 031300Z 16006KT 15SM BKN004 OVC009 21/20 A2988 RMK SF6SF2 SLP119

CYYG;2009-08-03 14:00;CYYG 031400Z 20008KT 15SM BKN008 OVC015 23/21 A2987 RMK SF6SC2 SLP116

CYYG;2009-08-03 15:00;CYYG 031500Z 20009KT 15SM BKN010 OVC015 23/21 A2987 RMK SC7SC1 CIG RAG SLP115

CYYG;2009-08-03 16:00;CYYG 031600Z 22007KT 15SM SCT008 OVC013 23/21 A2987 RMK SF3SC5 SLP114

CYYG;2009-08-03 17:00;CYYG 031700Z 22007KT 15SM FEW010 OVC013 23/21 A2987 RMK SF2SC6 SLP114

CYYG;2009-08-03 18:00;CYYG 031800Z 25010KT 15SM BKN015 OVC025 24/21 A2986 RMK SC6SC2 SLP112

CYYG;2009-08-03 19:00;CYYG 031900Z 25010G16KT 15SM BKN016 BKN070 OVC250 25/21 A2987 RMK SC6AC1CI1 SLP113

CYYG;2009-08-03 20:00;CYYG 032000Z 27009KT 15SM BKN018TCU BKN250 25/21 A2988 RMK TCU6CI1 SLP118

CYYG;2009-08-03 21:00;CYYG 032100Z 28007KT 15SM BKN018TCU BKN250 25/21 A2988 RMK TCU5CI1 SLP118

CYYG;2009-08-03 22:00;CYYG 032200Z CCA 28006KT 15SM BKN022 BKN250 23/20 A2990 RMK SC6CI1 TCU ASOCTD SLP124

CYYG;2009-08-03 23:00;CYYG 032300Z 27004KT 15SM SCT023 BKN300 23/19 A2991 RMK SC3CI1 TCU DIST E-S SLP127

CYYG;2009-08-04 00:00;CYYG 040000Z 30004KT 15SM FEW023 FEW300 21/19 A2993 RMK SC1CI0 SLP134

CYYG;2009-08-04 01:00;CYYG 040100Z 25003KT 15SM FEW300 21/19 A2995 RMK CI1 SLP143

CYYG;2009-08-04 02:00;CYYG 040200Z 24006KT 15SM FEW300 20/19 A2996 RMK CI1 SLP144

CYYG;2009-08-04 03:00;CYYG 040300Z 25008KT 15SM FEW300 19/18 A2996 RMK CI0 SLP147

CYYG;2009-08-04 04:00;CYYG 040400Z 25005KT 15SM SKC 19/18 A2996 RMK SLP147

CYYG;2009-08-04 05:00;CYYG 040500Z 25009KT 15SM SKC 19/18 A2996 RMK SLP146

CYYG;2009-08-04 06:00;CYYG 040600Z 25006KT 15SM SKC 19/18 A2996 RMK SLP147

CYYG;2009-08-04 07:00;CYYG 040700Z 23005KT 15SM SKC 18/18 A2997 RMK SLP150

CYYG;2009-08-04 08:00;CYYG 040800Z 23006KT 15SM SKC 18/17 A2999 RMK SLP155

CYYG;2009-08-04 09:00;CYYG 040900Z 23003KT 15SM MIFG FEW300 17/17 A2999 RMK CI1 SLP156

CYYG;2009-08-04 10:00;CYYG 041000Z 23002KT 15SM FEW008 FEW300 18/17 A3000 RMK SF1CI1 SLP159

CYYG;2009-08-04 11:00;CYYG 041100Z 23004KT 15SM FEW015 FEW300 19/18 A3002 RMK SC0CI1 SLP165

CYYG;2009-08-04 12:00;CYYG 041200Z 24004KT 15SM FEW300 20/18 A3001 RMK CI1 SLP164

CYYG;2009-08-04 13:00;CYYG 041300Z 22004KT 15SM FEW300 22/18 A3001 RMK CI1 SLP164

CYYG;2009-08-04 14:00;CYYG 041400Z 23004KT 15SM FEW300 23/20 A3000 RMK CI1 SLP159

CYYG;2009-08-04 15:00;CYYG 041500Z 20007KT 15SM FEW300 24/18 A2999 RMK CI1 SLP157

CYYG;2009-08-04 16:00;CYYG 041600Z 20009KT 15SM SCT300 25/16 A2998 RMK CI2 SLP153

CYYG;2009-08-04 17:00;CYYG 041700Z 23007KT 15SM SCT300 25/16 A2997 RMK CI2 SLP149

CYYG;2009-08-04 18:00;CYYG 041800Z 19007KT 15SM FEW300 26/16 A2996 RMK CI1 SLP143

CYYG;2009-08-04 19:00;CYYG 041900Z 18007KT 15SM FEW300 26/15 A2994 RMK CI2 SLP138

CYYG;2009-08-04 20:00;CYYG 042000Z 19007KT 15SM FEW300 26/16 A2993 RMK CI2 SLP134

CYYG;2009-08-04 21:00;CYYG 042100Z 18007KT 15SM SCT300 26/16 A2992 RMK CI2 SLP131

CYYG;2009-08-04 22:00;CYYG 042200Z CCA 18007KT 15SM BKN300 25/17 A2991 RMK CI2 SLP129

CYYG;2009-08-04 23:00;CYYG 042300Z 19008KT 15SM FEW070 BKN300 23/18 A2991 RMK AC2CI2 SLP128

CYYG;2009-08-05 00:00;CYYG 050000Z 18007KT 15SM FEW044 BKN300 22/17 A2991 RMK SC2CI2 SLP129

CYYG;2009-08-05 01:00;CYYG 050100Z 18007KT 15SM FEW032 BKN300 22/18 A2990 RMK SC2CI2 SLP126

CYYG;2009-08-05 02:00;CYYG 050200Z 21004KT 15SM FEW038 BKN300 21/19 A2991 RMK SC2CI2 SLP127

CYYG;2009-08-05 03:00;CYYG 050300Z 22006KT 15SM FEW038 BKN300 21/17 A2989 RMK SC1CS2 SLP122

CYYG;2009-08-05 04:00;CYYG 050400Z 21004KT 15SM BKN300 20/17 A2988 RMK CS2 SLP119

CYYG;2009-08-05 05:00;CYYG 050500Z 22004KT 15SM FEW300 19/16 A2988 RMK CI1 SLP118

CYYG;2009-08-05 06:00;CYYG 050600Z 23005KT 15SM FEW300 19/16 A2986 RMK CI1 SLP111

CYYG;2009-08-05 07:00;CYYG 050700Z 22003KT 15SM FEW300 19/17 A2985 RMK CI1 SLP109

CYYG;2009-08-05 08:00;CYYG 050800Z 18004KT 15SM FEW300 17/16 A2984 RMK CI1 SLP104

CYYG;2009-08-05 09:00;CYYG 050900Z 18005KT 15SM FEW300 17/17 A2983 RMK CI1 SLP100

CYYG;2009-08-05 10:00;CYYG 051000Z 20008KT 15SM FEW300 19/17 A2983 RMK CI0 SLP102

CYYG;2009-08-05 11:00;CYYG 051100Z 22011KT 15SM SCT300 20/17 A2984 RMK CI1 SLP104

CYYG;2009-08-05 12:00;CYYG 051200Z 21011G17KT 15SM SCT300 20/17 A2984 RMK CI2 SLP105

CYYG;2009-08-05 13:00;CYYG 051300Z 19014KT 15SM FEW020 SCT200 BKN300 21/18 A2982 RMK SC1CI1CI2 SLP098

CYYG;2009-08-05 14:00;CYYG 051400Z 21013KT 15SM FEW020 SCT160 BKN300 22/18 A2982 RMK SC1AC2CI2 SLP097

CYYG;2009-08-05 15:00;CYYG 051500Z 20015KT 15SM FEW015 SCT200 BKN300 23/19 A2982 RMK CF1CI2CI2 SLP096

CYYG;2009-08-05 16:00;CYYG 051600Z 22013KT 15SM FEW160 BKN300 24/19 A2980 RMK AC1CI2 SLP091

CYYG;2009-08-05 17:00;CYYG 051700Z 21009G18KT 15SM FEW015 BKN300 25/10 A2978 RMK CF1CI2 SLP085

CYYG;2009-08-05 18:00;CYYG 051800Z 24014KT 15SM BKN300 25/20 A2977 RMK CI3 SLP082

CYYG;2009-08-05 19:00;CYYG 051900Z 23009KT 12SM FEW020 OVC300 26/20 A2977 RMK CF1CI5 HZ CF TR SLP080

CYYG;2009-08-05 20:00;CYYG 052000Z 27008KT 10SM OVC300 25/21 A2977 RMK CI5 HZ SLP079

CYYG;2009-08-05 21:00;CYYG 052100Z 23010G17KT 10SM OVC300 26/21 A2976 RMK CI5 HZ SLP076

CYYG;2009-08-05 22:00;CYYG 052200Z 23010KT 10SM BKN300 24/21 A2976 RMK CI3 HZ SLP077

CYYG;2009-08-05 23:00;CYYG 052300Z 25007KT 8SM OVC300 22/20 A2977 RMK CI3 SLP082

CYYG;2009-08-06 00:00;CYYG 060000Z 26009KT 8SM SCT100 OVC300 21/20 A2979 RMK AC3CI2 SLP086

CYYG;2009-08-06 00:52;CYYG 060052Z 24007KT 8SM FEW005 FEW100 BKN300 20/ RMK SF2AC1CI0

CYYG;2009-08-06 01:00;CYYG 060100Z 24007KT 8SM FEW005 FEW100 BKN300 20/20 A2979 RMK SF2AC1CI0 SLP088

CYYG;2009-08-06 01:03;CYYG 060103Z 23007KT 8SM BKN005 BKN300 20/ RMK SF6CI0

CYYG;2009-08-06 01:29;CYYG 060129Z 24006KT 8SM SCT005 BKN120 20/ RMK SF2AC2

CYYG;2009-08-06 02:00;CYYG 060200Z 23008KT 10SM BKN005 BKN110 20/20 A2979 RMK SF2AC1 SLP087

CYYG;2009-08-06 02:29;CYYG 060229Z 25009KT 10SM BKN010 BKN110 21/ RMK SF5AC2

CYYG;2009-08-06 02:48;CYYG 060248Z 25008KT 10SM BKN007 OVC110 21/ RMK SF6AC2

CYYG;2009-08-06 03:00;CYYG 060300Z 25009KT 10SM BKN006 20/20 A2979 RMK SF7 SLP088

CYYG;2009-08-06 04:00;CYYG 060400Z 25010KT 10SM OVC007 20/19 A2979 RMK SF8 SLP089

CYYG;2009-08-06 05:00;CYYG 060500Z 26008KT 15SM BKN005 20/19 A2979 RMK SF7 SLP088

CYYG;2009-08-06 06:00;CYYG 060600Z 26006KT 15SM FEW005 19/18 A2979 RMK SF2 SLP087

CYYG;2009-08-06 07:00;CYYG 060700Z 26006KT 15SM FEW005 FEW300 18/18 A2979 RMK SF1CI1 SLP088

CYYG;2009-08-06 08:00;CYYG 060800Z 26005KT 15SM BKN066 18/17 A2980 RMK AC5 SLP092

CYYG;2009-08-06 09:00;CYYG 060900Z 25005KT 5SM BR FEW066 SCT300 18/17 A2981 RMK AC2CI1 SLP095

CYYG;2009-08-06 10:00;CYYG 061000Z 25005KT 8SM FEW066 FEW300 17/17 A2983 RMK AC1CI1 SLP102

CYYG;2009-08-06 11:00;CYYG 061100Z 27006KT 10SM FEW300 19/17 A2985 RMK CI2 HZ SLP107

CYYG;2009-08-06 12:00;CYYG 061200Z 25004KT 15SM FEW300 20/17 A2986 RMK CI2 SLP110

CYYG;2009-08-06 13:00;CYYG 061300Z 27004KT 15SM SCT300 22/16 A2985 RMK CI2 SLP107

CYYG;2009-08-06 14:00;CYYG 061400Z 27003KT 15SM FEW030 SCT300 23/16 A2986 RMK CU1CI2 SLP110

CYYG;2009-08-06 15:00;CYYG 061500Z 23008KT 15SM FEW030 SCT300 24/16 A2986 RMK CU2CI1 SLP110

CYYG;2009-08-06 16:00;CYYG 061600Z 24009KT 15SM FEW030 FEW300 24/14 A2985 RMK CU1CI1 SLP108

CYYG;2009-08-06 17:00;CYYG 061700Z 24008KT 15SM FEW030 FEW300 24/13 A2984 RMK CU1CI1 SLP105

CYYG;2009-08-06 18:00;CYYG 061800Z 26009KT 15SM FEW030 FEW300 25/13 A2983 RMK CU1CI1 SLP102

CYYG;2009-08-06 19:00;CYYG 061900Z 29008KT 15SM FEW030 FEW300 25/15 A2983 RMK CU1CI1 SLP100

CYYG;2009-08-06 20:00;CYYG 062000Z 30007KT 15SM FEW040 FEW300 25/13 A2982 RMK CU1CI1 SLP099

CYYG;2009-08-06 21:00;CYYG 062100Z 31006KT 15SM FEW060 SCT300 24/15 A2982 RMK SC1CI2 SLP098

CYYG;2009-08-06 22:00;CYYG 062200Z 31003KT 15SM FEW060 BKN300 23/15 A2982 RMK SC1CI2 SLP098

CYYG;2009-08-06 23:00;CYYG 062300Z 00000KT 15SM FEW060 SCT170 BKN300 22/15 A2983 RMK SC2AC2CI2 SLP102

CYYG;2009-08-07 00:00;CYYG 070000Z 00000KT 15SM FEW060 SCT170 BKN300 20/15 A2985 RMK SC2AC2CI1 SLP106

CYYG;2009-08-07 01:00;CYYG 070100Z 25004KT 15SM FEW060 SCT170 BKN300 20/15 A2986 RMK SC2AC2CI1 SLP110

CYYG;2009-08-07 02:00;CYYG 070200Z 22004KT 15SM FEW060 SCT170 BKN300 19/15 A2986 RMK SC2AC2CI1 SLP111

CYYG;2009-08-07 03:00;CYYG 070300Z 24004KT 15SM SCT300 18/15 A2987 RMK CI1 SLP113

CYYG;2009-08-07 04:00;CYYG 070400Z 27006KT 15SM BKN300 18/15 A2986 RMK CI2 SLP110

CYYG;2009-08-07 05:00;CYYG 070500Z 27005KT 15SM BKN240 18/15 A2984 RMK CI3 SLP105

CYYG;2009-08-07 06:00;CYYG 070600Z 27005KT 15SM BKN240 17/15 A2984 RMK CI3 SLP104

CYYG;2009-08-07 07:00;CYYG 070700Z 24006KT 15SM BKN240 17/15 A2984 RMK CI3 SLP103

CYYG;2009-08-07 08:00;CYYG 070800Z 24006KT 15SM BKN240 16/14 A2984 RMK CI4 SLP103

CYYG;2009-08-07 09:00;CYYG 070900Z 25006KT 15SM FEW170 BKN240 17/14 A2984 RMK AC2CS3 SLP103

CYYG;2009-08-07 10:00;CYYG 071000Z 25005KT 15SM SCT170 OVC240 17/15 A2984 RMK AC3CS4 SLP105

CYYG;2009-08-07 11:00;CYYG 071100Z 24003KT 15SM FEW170 OVC240 17/15 A2984 RMK AC2CS5 SLP104

CYYG;2009-08-07 12:00;CYYG 071200Z 23003KT 15SM FEW170 OVC260 19/16 A2984 RMK AC2CI5 SLP106

CYYG;2009-08-07 13:00;CYYG 071300Z 22002KT 15SM FEW170 OVC260 20/17 A2982 RMK AC2CS2 SLP100

CYYG;2009-08-07 14:00;CYYG 071400Z 22002KT 15SM FEW120 OVC260 21/16 A2982 RMK AC2CS3 SLP100

CYYG;2009-08-07 15:00;CYYG 071500Z 21002KT 15SM FEW025 FEW064 SCT120 OVC260 23/17 A2982 RMK CU1SC2AC2CI1 SLP098

CYYG;2009-08-07 16:00;CYYG 071600Z 19006KT 15SM FEW030TCU BKN076 BKN260 23/17 A2981 RMK TCU1AC4CI2 SLP093

CYYG;2009-08-07 17:00;CYYG 071700Z 23005KT 15SM FEW030TCU SCT072 BKN260 24/16 A2979 RMK TCU1AC3CI2 SLP087

CYYG;2009-08-07 18:00;CYYG 071800Z 34007KT 15SM SCT037TCU SCT062 BKN260 23/18 A2977 RMK TCU3SC1CI1 SH DIST NW-N SLP081

CYYG;2009-08-07 19:00;CYYG 071900Z 36011KT 15SM SCT035TCU BKN062 BKN140 21/17 A2977 RMK TCU4SC2AC2 CB EMBDD N SH DIST NW-N SLP079

CYYG;2009-08-07 19:11;CYYG 071911Z 36011G16KT 15SM -SHRA SCT034TCU BKN047TCU BKN260 20/ RMK TCU3TCU2CI2 VIS N-NE 3

CYYG;2009-08-07 19:28;CYYG 071928Z 36006KT 15SM -TSRA SCT047CB BKN063 BKN260 18/ RERA RMK CB3SC2CI2 VIS LWR NE-E

CYYG;2009-08-07 19:48;CYYG 071948Z 36005KT 15SM TS SCT040CB BKN059 BKN260 18/ RERA RMK CB3SC2CI2 OCNL LTGCG ESE

CYYG;2009-08-07 20:00;CYYG 072000Z 01004KT 15SM TS SCT040TCU BKN060 BKN260 18/17 A2977 RERA RMK TCU3SC2CI2 CB EMBDD E SLP082

CYYG;2009-08-07 20:10;CYYG 072010Z 01004KT 15SM BKN038TCU BKN260 18/ RETS RMK TCU6CI2 CB MOVD E SH DIST W-NW AND E

CYYG;2009-08-07 20:28;CYYG 072028Z 36005KT 15SM -SHRA BKN036TCU 18/ RETS RMK TCU7

CYYG;2009-08-07 21:00;CYYG 072100Z 06006KT 15SM -SHRA FEW010 BKN036TCU BKN078 18/17 A2978 RETSRA RMK SF1TCU5AC2 SLP084

CYYG;2009-08-07 21:43;CYYG 072143Z 03004KT 15SM FEW013 FEW036TCU BKN120 19/ RMK SC1TCU2AC4 TCU E

CYYG;2009-08-07 22:00;CYYG 072200Z 07002KT 15SM FEW013 BKN098 19/17 A2977 RMK SC1AC6 TCU EMBDD E SLP081

CYYG;2009-08-07 23:00;CYYG 072300Z 10002KT 15SM FEW013 FEW090 BKN120 18/17 A2977 RMK SC1AC2AC4 SLP082

CYYG;2009-08-08 00:00;CYYG 080000Z CCA 00000KT 15SM FEW013 BKN088 BKN120 18/17 A2979 RMK SC2AC4AC2 CB ASOCTD LTG DIST W SLP087

CYYG;2009-08-08 01:00;CYYG 080100Z 33004KT 15SM FEW013 SCT057 BKN120 16/16 A2979 RMK SC2SC2AC3 CB ASOCTD LTGICCG DIST SW-NW SLP087

CYYG;2009-08-08 01:23;CYYG 080123Z 23003KT 15SM TS FEW015 BKN040CB BKN090 17/ RMK SC2CB3AC2 LGTICCG SW-NW

CYYG;2009-08-08 01:26;CYYG 080126Z 23015G24KT 15SM -TSRA FEW008 BKN040CB OVC090 17/ RMK SF2CB4AC2 LTGICCG

CYYG;2009-08-08 01:37;CYYG 080137Z 29017G25KT 3SM +TSRA OVC010CB 14/ RMK CB8 LTGICCG ALL QUADS

CYYG;2009-08-08 02:00;CYYG 080200Z 30010G19KT 5SM TSRA FEW010 BKN030CB OVC070 14/13 A2978 RERA RMK SC2CB5AC2 LTGICCG ALL QUADS SLP085

CYYG;2009-08-08 02:35;CYYG 080235Z 36006KT 10SM SHRA BKN030CB OVC090 14/ RETSRA RMK CB5AC3 LTG DIST N-E

CYYG;2009-08-08 03:00;CYYG 080300Z 35005KT 10SM -SHRA FEW020 OVC090 15/14 A2979 RETSRA RMK SC2AC6 LTG DIST NE SLP088

CYYG;2009-08-08 03:44;CYYG 080344Z 31005KT 10SM FEW015 BKN100 BKN160 15/ RMK SC2AC4AC2 OCNL LTG DIST E

CYYG;2009-08-08 04:00;CYYG 080400Z 34005KT 12SM SCT015 BKN100 BKN160 15/14 A2979 RMK SC4AC2AC2 SLP087

CYYG;2009-08-08 05:00;CYYG 080500Z 35004KT 15SM BKN015 OVC073 15/14 A2981 RMK SC5AC2 LTG DIST S SLP095

CYYG;2009-08-08 05:31;CYYG 080531Z 35003KT 10SM -SHRA BKN013 OVC040 15/ RMK SC6SC2 CB ASOCTD LTG DIST S

CYYG;2009-08-08 06:00;CYYG 080600Z 01006KT 10SM -SHRA OVC016 15/14 A2981 RERA RMK SC8 /R12/ CB ASOCTD LTG DIST S-W SLP094

CYYG;2009-08-08 06:18;CYYG 080618Z 01007KT 10SM SCT016 BKN029 OVC076 14/ RERA RMK SC4SC2AC2 CB ASOCTD LTG DIST SW

CYYG;2009-08-08 07:00;CYYG 080700Z 33003KT 8SM -SHRA FEW016 BKN026 OVC050 14/14 A2983 RMK SC2SC5SC2 CB ASOCTD LTG DIST S SLP102

CYYG;2009-08-08 08:00;CYYG 080800Z 35004KT 12SM -SHRA FEW020 BKN064 OVC080 14/13 A2986 RMK SC2SC6AC1 ISOL LTG DIST SE SLP111

CYYG;2009-08-08 09:00;CYYG 080900Z 02003KT 15SM -SHRA FEW040 SCT060 OVC097 13/13 A2986 RMK SC2SC2AC4 SLP112

CYYG;2009-08-08 10:00;CYYG 081000Z 28006KT 15SM VCSH FEW040 SCT070 BKN140 14/13 A2988 RMK SC2AC2AC2 TCU EMBDD SLP120

CYYG;2009-08-08 11:00;CYYG 081100Z 28007KT 15SM FEW040TCU FEW070 SCT220 15/14 A2988 RMK TCU1AC1CI2 SLP118

CYYG;2009-08-08 12:00;CYYG 081200Z 30010KT 15SM FEW040TCU FEW070 SCT250 17/15 A2989 RMK TCU1AC1CI1 SLP123

CYYG;2009-08-08 13:00;CYYG 081300Z 32011G16KT 15SM FEW028 SCT078 18/14 A2991 RMK CU2AC1 TCU ASOCTD E SLP128

CYYG;2009-08-08 14:00;CYYG 081400Z 33012G20KT 15SM SCT028 BKN078 18/13 A2993 RMK CU4AC1 SLP135

CYYG;2009-08-08 15:00;CYYG 081500Z 32012G19KT 15SM SCT030 18/12 A2994 RMK CU4 SLP139

CYYG;2009-08-08 16:00;CYYG 081600Z 31013G18KT 15SM SCT032 BKN240 19/12 A2994 RMK CU4CI1 SLP139

CYYG;2009-08-08 17:00;CYYG 081700Z 32011G16KT 15SM BKN036 BKN240 18/11 A2995 RMK CU5CI0 SLP142

CYYG;2009-08-08 18:00;CYYG 081800Z CCA 33014G20KT 15SM SCT040 19/10 A2996 RMK CU4 SLP147

CYYG;2009-08-08 19:00;CYYG 081900Z 33011G19KT 15SM FEW042 SCT240 19/10 A2998 RMK CU2CI1 SLP152

CYYG;2009-08-08 20:00;CYYG 082000Z 32011G17KT 15SM FEW042 SCT250 20/10 A2998 RMK CU2CI1 SLP153

CYYG;2009-08-08 21:00;CYYG 082100Z 33008KT 15SM FEW038 SCT056 SCT250 18/11 A2998 RMK CU1SC2CI0 SLP153

CYYG;2009-08-08 22:00;CYYG 082200Z 32008KT 15SM FEW036 FEW060 SCT250 19/10 A2998 RMK CU1SC1CI1 SLP154

CYYG;2009-08-08 23:00;CYYG 082300Z 30004KT 15SM FEW035 FEW070 FEW250 18/11 A2999 RMK CU1AC1CI0 SLP155

CYYG;2009-08-09 00:00;CYYG 090000Z 25006KT 15SM FEW060 FEW250 16/11 A3000 RMK SC1CI0 SLP159

CYYG;2009-08-09 01:00;CYYG 090100Z 26006KT 15SM SKC 16/11 A3002 RMK SLP166

CYYG;2009-08-09 02:00;CYYG 090200Z 27006KT 15SM SKC 15/10 A3002 RMK SLP167

CYYG;2009-08-09 03:00;CYYG 090300Z 27007KT 15SM SKC 15/11 A3004 RMK SLP172

CYYG;2009-08-09 04:00;CYYG 090400Z 27005KT 15SM FEW070 14/12 A3004 RMK AC1 SLP171

CYYG;2009-08-09 05:00;CYYG 090500Z 27006KT 15SM BKN088 14/12 A3004 RMK AC6 SLP171

CYYG;2009-08-09 06:00;CYYG 090600Z 27006KT 15SM FEW088 15/13 A3004 RMK AC2 SLP171

CYYG;2009-08-09 07:00;CYYG 090700Z 27005KT 15SM FEW085 14/11 A3004 RMK AC1 SLP172

CYYG;2009-08-09 08:00;CYYG 090800Z 27006KT 15SM FEW085 13/11 A3004 RMK AC1 SLP172

CYYG;2009-08-09 09:00;CYYG 090900Z 27007KT 15SM FEW150 FEW250 14/11 A3005 RMK AC1CI0 SLP177

CYYG;2009-08-09 10:00;CYYG 091000Z 28006KT 15SM FEW150 FEW250 14/12 A3006 RMK AC1CI0 SLP180

CYYG;2009-08-09 11:00;CYYG 091100Z 28006KT 15SM FEW250 16/13 A3006 RMK CI0 SLP180

CYYG;2009-08-09 12:00;CYYG 091200Z 28006KT 15SM FEW250 18/14 A3007 RMK CI0 SLP184

CYYG;2009-08-09 13:00;CYYG 091300Z 29006KT 15SM SCT250 19/13 A3007 RMK CI1 SLP184

CYYG;2009-08-09 14:00;CYYG 091400Z 29006KT 15SM SCT250 21/14 A3007 RMK CI1 SLP183

CYYG;2009-08-09 15:00;CYYG 091500Z 26008KT 15SM FEW032 FEW250 22/15 A3007 RMK CU1CI0 SLP182

CYYG;2009-08-09 16:00;CYYG 091600Z 29011KT 15SM FEW030 FEW250 22/11 A3006 RMK CU1CI0 SLP180

CYYG;2009-08-09 17:00;CYYG 091700Z 27010G15KT 15SM FEW030 FEW250 23/10 A3005 RMK CU1CI0 SLP177

CYYG;2009-08-09 18:00;CYYG 091800Z 29008KT 15SM FEW030 23/10 A3004 RMK CU1 SLP172

CYYG;2009-08-09 19:00;CYYG 091900Z 28007KT 15SM FEW030 FEW200 23/10 A3002 RMK CU1CI0 SLP167

CYYG;2009-08-09 20:00;CYYG 092000Z 23009KT 15SM FEW030 SCT200 23/11 A3001 RMK CU1CI0 SLP164

CYYG;2009-08-09 21:00;CYYG 092100Z 23006KT 15SM FEW030 FEW150 BKN200 22/11 A3001 RMK CU1AC1CI0 SLP161

CYYG;2009-08-09 22:00;CYYG 092200Z 26005KT 15SM FEW030 FEW140 BKN200 22/12 A3000 RMK CU1AC1CI1 SLP160

CYYG;2009-08-09 23:00;CYYG 092300Z 24005KT 15SM FEW030 FEW140 BKN200 20/13 A3000 RMK CU1AC2CI2 SLP158

CYYG;2009-08-10 00:00;CYYG 100000Z 23003KT 15SM FEW140 BKN200 19/12 A3001 RMK AC2CI2 SLP161

CYYG;2009-08-10 01:00;CYYG 100100Z 25003KT 15SM FEW140 BKN240 17/12 A3000 RMK AC1CI2 SLP160

CYYG;2009-08-10 02:00;CYYG 100200Z 24005KT 15SM BKN240 17/11 A2999 RMK CI2 SLP157

CYYG;2009-08-10 03:00;CYYG 100300Z 24007KT 15SM FEW140 BKN230 17/12 A2999 RMK AC2CI2 SLP155

CYYG;2009-08-10 04:00;CYYG 100400Z 23007KT 15SM SCT140 BKN200 17/13 A2998 RMK AC3CI2 SLP152

CYYG;2009-08-10 05:00;CYYG 100500Z 23007KT 15SM -RA BKN110 OVC200 17/13 A2996 RMK AC6CI2 SLP147

CYYG;2009-08-10 05:49;CYYG 100549Z 23008KT 15SM BKN120 OVC200 17/ RMK AC6CI2

CYYG;2009-08-10 06:00;CYYG 100600Z 24009KT 15SM -SHRA OVC110 16/14 A2995 RMK AC8 SLP143

CYYG;2009-08-10 07:00;CYYG 100700Z 23006KT 15SM -SHRA FEW050 OVC100 16/15 A2994 RMK SC2AC6 SLP140

CYYG;2009-08-10 08:00;CYYG 100800Z 23007KT 15SM FEW050 OVC100 16/14 A2993 RMK SC2AC6 SLP137

CYYG;2009-08-10 09:00;CYYG 100900Z 24008KT 15SM OVC083 16/13 A2994 RMK AC8 SLP139

CYYG;2009-08-10 10:00;CYYG 101000Z 23004KT 15SM FEW040 OVC076 16/12 A2994 RMK SC1AC7 SLP140

CYYG;2009-08-10 11:00;CYYG 101100Z 23010KT 15SM FEW040 OVC067 16/12 A2994 RMK SC1AC7 SLP139

CYYG;2009-08-10 12:00;CYYG 101200Z 22014KT 15SM FEW040 OVC058 15/11 A2993 RMK SC1SC7 SLP135

CYYG;2009-08-10 13:00;CYYG 101300Z 21010G18KT 15SM FEW040 OVC055 15/11 A2991 RMK SC1SC7 SLP128

CYYG;2009-08-10 14:00;CYYG 101400Z 19014KT 15SM OVC035 16/12 A2989 RMK SC8 SLP122

CYYG;2009-08-10 14:15;CYYG 101415Z 19012G20KT 3SM -SHRA BR SCT018 OVC026 16/ RMK SC3SC5

CYYG;2009-08-10 14:36;CYYG 101436Z 18013KT 1 1/2SM -SHRA BR BKN008 OVC016 15/ RMK SF6SC2

CYYG;2009-08-10 14:53;CYYG 101453Z 18012G17KT 1SM R03/P6000FT/D -SHRA BR BKN004 OVC008 14/ RMK SF5SF3

CYYG;2009-08-10 15:00;CYYG 101500Z 18012G18KT 1SM R03/P6000FT/U -SHRA BR BKN005 OVC009 14/14 A2987 RMK SF5SF3 SLP115

CYYG;2009-08-10 15:37;CYYG 101537Z 18014KT 3SM -SHRA BR OVC004 14/ RMK SF8

CYYG;2009-08-10 16:00;CYYG 101600Z 18011KT 4SM -SHRA BR OVC004 14/14 A2984 RMK SF8 SLP106

CYYG;2009-08-10 16:41;CYYG 101641Z 19009KT 5SM -SHRA BR OVC007 16/ RMK SF8

CYYG;2009-08-10 17:00;CYYG 101700Z 20010G15KT 5SM -SHRA BR OVC009 16/15 A2983 RMK SF8 SLP101

CYYG;2009-08-10 17:32;CYYG 101732Z 19013KT 10SM OVC010 16/ RMK SF8

CYYG;2009-08-10 18:00;CYYG 101800Z 21012KT 15SM OVC010 17/16 A2981 RMK SC8 SLP095

CYYG;2009-08-10 19:00;CYYG 101900Z 21011KT 15SM OVC010 18/17 A2978 RMK SC8 SLP085

CYYG;2009-08-10 20:00;CYYG 102000Z 22009KT 15SM OVC009 18/17 A2977 RMK SF8 SLP082

CYYG;2009-08-10 21:00;CYYG 102100Z 24005KT 12SM -RA OVC010 18/17 A2977 RMK SF8 SLP082

CYYG;2009-08-10 22:00;CYYG 102200Z 24004KT 5SM -RA BR OVC011 18/17 A2976 RMK SF8 SLP078

CYYG;2009-08-10 22:13;CYYG 102213Z 24004KT 5SM -RA BR BKN006 OVC012 18/ RMK SF5SF3

CYYG;2009-08-10 22:38;CYYG 102238Z 28004KT 5SM BR BKN005 OVC012 18/ RMK SF7SF1

CYYG;2009-08-10 23:00;CYYG 102300Z 25003KT 5SM BR OVC006 18/17 A2976 RMK SF8 SLP078

CYYG;2009-08-11 00:00;CYYG 110000Z 28003KT 5SM BR OVC004 18/17 A2977 RMK SF8 SLP080

CYYG;2009-08-11 00:34;CYYG 110034Z 24002KT 6SM BR SCT004 OVC026 18/ RMK SF3SC5

CYYG;2009-08-11 01:00;CYYG 110100Z 00000KT 6SM BR SCT004 BKN011 OVC022 18/17 A2977 RMK SF3SC3SC2 SLP080

CYYG;2009-08-11 01:26;CYYG 110126Z 00000KT 6SM BR FEW004 BKN009 OVC023 18/ RMK SF2SF5SC1

CYYG;2009-08-11 02:00;CYYG 110200Z 00000KT 6SM BR SCT009 OVC013 17/17 A2976 RMK SF3SF4 SLP079

CYYG;2009-08-11 03:00;CYYG 110300Z 26002KT 6SM BR BKN008 OVC012 18/17 A2976 RMK SF6SF2 SLP078

CYYG;2009-08-11 04:00;CYYG 110400Z 27003KT 10SM FEW008 OVC011 17/17 A2977 RMK SF2SF6 SLP080

CYYG;2009-08-11 05:00;CYYG 110500Z 25002KT 3SM BR BKN010 17/17 A2976 RMK SF6 SLP079

CYYG;2009-08-11 06:00;CYYG 110600Z 26002KT 1SM R03/4000VP6000FT/U BR FEW010 BKN060 16/16 A2977 RMK SF2SC3 SLP080

CYYG;2009-08-11 07:00;CYYG 110700Z 31003KT 10SM MIFG OVC057 16/16 A2977 RMK SC7 SLP082

CYYG;2009-08-11 08:00;CYYG 110800Z 35002KT 15SM OVC058 16/16 A2977 RMK SC8 SLP081

CYYG;2009-08-11 09:00;CYYG 110900Z 32003KT 10SM FEW008 BKN030 OVC080 16/16 A2977 RMK SF2SC4AC1 SLP082

CYYG;2009-08-11 09:10;CYYG 110910Z 00000KT 10SM BKN008 OVC020 17/ RMK SF6SC2

CYYG;2009-08-11 09:30;CYYG 110930Z 32003KT 10SM BKN005 OVC016 17/ RMK SF6SC2

CYYG;2009-08-11 10:00;CYYG 111000Z 35002KT 10SM BKN005 BKN013 BKN220 17/17 A2979 RMK SF5SC2CI1 SLP087

CYYG;2009-08-11 11:00;CYYG 111100Z 04007KT 15SM FEW005 BKN044 BKN300 17/17 A2980 RMK SF2SC5CI0 SLP092

CYYG;2009-08-11 12:00;CYYG 111200Z 02008KT 15SM SCT011 BKN060 BKN300 19/17 A2982 RMK SC4SC2CI0 SLP097

CYYG;2009-08-11 12:39;CYYG 111239Z 03009KT 15SM BKN012 BKN060 BKN300 19/ RMK SC6SC1CI0

CYYG;2009-08-11 13:00;CYYG 111300Z 02008KT 15SM BKN013 BKN060 BKN300 19/17 A2984 RMK SC6SC1CI0 SLP104

CYYG;2009-08-11 14:00;CYYG 111400Z 02007KT 15SM OVC017 18/16 A2985 RMK SC8 SLP108

CYYG;2009-08-11 15:00;CYYG 111500Z 02008KT 15SM OVC019 18/16 A2985 RMK SC8 SLP109

CYYG;2009-08-11 16:00;CYYG 111600Z 03006KT 15SM BKN019 19/15 A2986 RMK SC7 SLP111

CYYG;2009-08-11 17:00;CYYG 111700Z 35006KT 15SM BKN022 BKN300 20/15 A2987 RMK SC7CI0 SLP114

CYYG;2009-08-11 18:00;CYYG 111800Z 01009KT 15SM BKN020 BKN300 19/15 A2987 RMK SC6CI0 SLP115

CYYG;2009-08-11 19:00;CYYG 111900Z 03010KT 15SM BKN020 19/15 A2987 RMK SC7 SLP116

CYYG;2009-08-11 20:00;CYYG 112000Z 04007KT 15SM OVC018 19/15 A2988 RMK SC8 SLP119

CYYG;2009-08-11 21:00;CYYG 112100Z 02007KT 15SM SCT018 BKN300 18/15 A2988 RMK SC3CI1 SLP119

CYYG;2009-08-11 22:00;CYYG 112200Z 04007KT 15SM FEW018 BKN300 18/15 A2989 RMK SC2CI1 SLP122

CYYG;2009-08-11 23:00;CYYG 112300Z 03003KT 15SM FEW015 BKN240 16/15 A2990 RMK SC1CI3 SLP125

CYYG;2009-08-12 00:00;CYYG 120000Z 01002KT 15SM BKN240 15/15 A2992 RMK CI6 SLP132

CYYG;2009-08-12 01:00;CYYG 120100Z 02002KT 15SM BKN240 15/14 A2993 RMK CI6 SLP137

CYYG;2009-08-12 02:00;CYYG 120200Z 00000KT 15SM BKN230 14/14 A2994 RMK CI6 SLP138

CYYG;2009-08-12 03:00;CYYG 120300Z 03004KT 15SM BKN240 14/14 A2995 RMK CI6 SLP142

CYYG;2009-08-12 04:00;CYYG 120400Z 02003KT 15SM BKN190 14/14 A2995 RMK AC7 SLP143

CYYG;2009-08-12 05:00;CYYG 120500Z 01003KT 15SM OVC140 14/14 A2996 RMK AC7 SLP144

CYYG;2009-08-12 06:00;CYYG 120600Z 01002KT 15SM BKN170 14/14 A2996 RMK AC6 SLP146

CYYG;2009-08-12 07:00;CYYG 120700Z 00000KT 15SM BKN210 14/14 A2997 RMK CI6 SLP149

CYYG;2009-08-12 08:00;CYYG 120800Z 00000KT 15SM BKN220 13/13 A2999 RMK CI5 SLP155

CYYG;2009-08-12 09:00;CYYG 120900Z 06003KT 15SM R03/2800VP6000FT/U MIFG FEW160 SCT240 11/11 A3000 RMK AC1CI2 SLP158

CYYG;2009-08-12 10:00;CYYG 121000Z 02004KT 15SM MIFG FEW140 FEW250 11/11 A3001 RMK AC1CI1 SLP163

CYYG;2009-08-12 11:00;CYYG 121100Z 03004KT 15SM FEW020 FEW140 16/15 A3004 RMK SC1AC1 SLP171

CYYG;2009-08-12 12:00;CYYG 121200Z 06007KT 15SM FEW011 FEW140 18/16 A3006 RMK CU2AC1 SLP179

CYYG;2009-08-12 13:00;CYYG 121300Z 05006KT 15SM FEW012 FEW140 FEW300 19/15 A3006 RMK CU2AC1CI0 SLP181

CYYG;2009-08-12 14:00;CYYG 121400Z 05007KT 15SM FEW026 FEW300 20/15 A3007 RMK CU1CI1 SLP184

CYYG;2009-08-12 15:00;CYYG 121500Z 05007KT 15SM FEW025 FEW300 21/14 A3007 RMK CU1CI1 SLP184

CYYG;2009-08-12 16:00;CYYG 121600Z 04007KT 15SM FEW025 FEW300 21/14 A3007 RMK CU1CI0 SLP183

CYYG;2009-08-12 17:00;CYYG 121700Z 04006KT 15SM FEW025 FEW300 22/14 A3007 RMK CU1CI1 SLP184

CYYG;2009-08-12 18:00;CYYG 121800Z 05003KT 15SM FEW030 FEW300 22/12 A3007 RMK CU1CI0 SLP184

CYYG;2009-08-12 19:00;CYYG 121900Z 04008KT 15SM FEW030 FEW300 22/13 A3009 RMK SC1CI0 SLP188

CYYG;2009-08-12 20:00;CYYG 122000Z 04008KT 15SM FEW030 FEW300 21/13 A3009 RMK SC1CI0 SLP189

CYYG;2009-08-12 21:00;CYYG 122100Z 03008KT 15SM FEW030 FEW300 21/14 A3009 RMK SC1CI0 SLP189

CYYG;2009-08-12 22:00;CYYG 122200Z 03005KT 15SM FEW030 FEW300 20/14 A3009 RMK SC1CI0 SLP191

CYYG;2009-08-12 23:00;CYYG 122300Z 03003KT 15SM FEW030 FEW300 18/14 A3011 RMK SC1CI0 SLP195

CYYG;2009-08-13 00:00;CYYG 130000Z 07003KT 15SM FEW030 FEW300 16/13 A3012 RMK SC1CI0 SLP200

CYYG;2009-08-13 01:00;CYYG 130100Z 10002KT 15SM FEW030 FEW240 16/13 A3013 RMK SC1CI0 SLP202

CYYG;2009-08-13 02:00;CYYG 130200Z 11002KT 15SM FEW030 FEW240 15/13 A3013 RMK SC1CI0 SLP202

CYYG;2009-08-13 03:00;CYYG 130300Z 00000KT 15SM FEW030 15/13 A3014 RMK SC1 SLP207

CYYG;2009-08-13 04:00;CYYG 130400Z 00000KT 15SM FEW030 13/13 A3015 RMK SC1 SLP210

CYYG;2009-08-13 05:00;CYYG 130500Z 00000KT 15SM FEW030 13/13 A3015 RMK SC1 SLP210

CYYG;2009-08-13 06:00;CYYG 130600Z 00000KT 15SM FEW030 13/13 A3014 RMK SC1 SLP208

CYYG;2009-08-13 07:00;CYYG 130700Z 00000KT 15SM FEW030 12/12 A3014 RMK SC1 SLP208

CYYG;2009-08-13 08:00;CYYG 130800Z 00000KT 15SM FEW030 12/12 A3015 RMK SC1 SLP210

CYYG;2009-08-13 09:00;CYYG 130900Z 18002KT 15SM MIFG FEW030 13/13 A3016 RMK SC1 SLP214

CYYG;2009-08-13 10:00;CYYG 131000Z 00000KT 15SM FEW030 13/13 A3017 RMK SC1 SLP217

CYYG;2009-08-13 11:00;CYYG 131100Z 16003KT 15SM FEW050 FEW100 FEW270 16/16 A3018 RMK CU1AC1CS1 SLP220

CYYG;2009-08-13 12:00;CYYG 131200Z 19007KT 15SM FEW010 FEW100 FEW270 19/16 A3019 RMK CF1AC1CS1 SLP222

CYYG;2009-08-13 13:00;CYYG 131300Z 18004KT 15SM FEW100 FEW270 20/16 A3018 RMK AC1CS1 SLP221

CYYG;2009-08-13 14:00;CYYG 131400Z 21007KT 15SM SCT270 21/16 A3019 RMK CI1 SLP222

CYYG;2009-08-13 15:00;CYYG 131500Z 18008KT 15SM FEW020 SCT270 22/17 A3017 RMK CF1CI1 SLP218

CYYG;2009-08-13 16:00;CYYG 131600Z 19005KT 15SM FEW025 SCT270 23/16 A3017 RMK CU1CI2 SLP215

CYYG;2009-08-13 17:00;CYYG 131700Z 18008KT 15SM FEW030 BKN270 23/16 A3017 RMK CU1CI2 SLP215

CYYG;2009-08-13 18:00;CYYG 131800Z 18007KT 15SM FEW030 BKN270 23/15 A3015 RMK CU1CI2 SLP211

CYYG;2009-08-13 19:00;CYYG 131900Z 19009KT 15SM FEW040 BKN270 23/14 A3015 RMK CU1CI2 SLP211

CYYG;2009-08-13 20:00;CYYG 132000Z 20008KT 15SM FEW040TCU BKN270 23/14 A3014 RMK TCU1CI2 TCU DIST S-SW SLP208

CYYG;2009-08-13 21:00;CYYG 132100Z 19005KT 15SM FEW040TCU BKN270 23/15 A3014 RMK TCU1CS5 TCU DIST S-SW SLP205

CYYG;2009-08-13 22:00;CYYG 132200Z 17005KT 15SM FEW040 BKN270 22/15 A3012 RMK CU1CS6 SLP201

CYYG;2009-08-13 23:00;CYYG 132300Z 19004KT 15SM BKN300 21/15 A3012 RMK CS6 SLP199

CYYG;2009-08-14 00:00;CYYG 140000Z 20005KT 15SM BKN300 20/14 A3012 RMK CS6 SLP198

CYYG;2009-08-14 01:00;CYYG 140100Z 20006KT 15SM BKN250 19/16 A3012 RMK CI6 SLP199

CYYG;2009-08-14 02:00;CYYG 140200Z 21006KT 15SM BKN210 19/17 A3011 RMK CI6 SLP196

CYYG;2009-08-14 03:00;CYYG 140300Z 25004KT 15SM BKN220 19/18 A3010 RMK CI6 SLP194

CYYG;2009-08-14 04:00;CYYG 140400Z 23004KT 15SM BKN240 19/17 A3010 RMK CI6 SLP193

CYYG;2009-08-14 05:00;CYYG 140500Z 23004KT 15SM SCT230 19/17 A3009 RMK CI2 SLP190

CYYG;2009-08-14 06:00;CYYG 140600Z 22004KT 15SM FEW230 18/17 A3008 RMK CI2 SLP187

CYYG;2009-08-14 07:00;CYYG 140700Z 23003KT 15SM FEW240 17/16 A3008 RMK CI2 SLP187

CYYG;2009-08-14 08:00;CYYG 140800Z 23005KT 15SM FEW240 17/15 A3008 RMK CI2 SLP186

CYYG;2009-08-14 09:00;CYYG 140900Z 22006KT 15SM FEW240 17/15 A3008 RMK CI1 SLP186

CYYG;2009-08-14 10:00;CYYG 141000Z 23007KT 15SM FEW250 17/15 A3008 RMK CI1 SLP185

CYYG;2009-08-14 11:00;CYYG 141100Z 23007KT 15SM FEW250 18/16 A3007 RMK CI1 SLP182

CYYG;2009-08-14 12:00;CYYG 141200Z 25011KT 15SM FEW250 20/16 A3006 RMK CI1 SLP181

CYYG;2009-08-14 13:00;CYYG 141300Z 26007KT 15SM SKC 21/16 A3006 RMK SLP178

CYYG;2009-08-14 14:00;CYYG 141400Z 23007KT 15SM SKC 23/17 A3006 RMK SLP181

CYYG;2009-08-14 15:00;CYYG 141500Z 24008KT 15SM FEW250 24/18 A3005 RMK CI1 SLP177

CYYG;2009-08-14 16:00;CYYG 141600Z 22005KT 15SM SKC 25/17 A3004 RMK SLP172

CYYG;2009-08-14 17:00;CYYG 141700Z 24009KT 15SM SKC 25/18 A3003 RMK SLP169

CYYG;2009-08-14 18:00;CYYG 141800Z 24008KT 15SM SKC 26/19 A3001 RMK SLP164

CYYG;2009-08-14 19:00;CYYG 141900Z 26010KT 15SM FEW030 26/19 A3001 RMK SC1 SLP163

CYYG;2009-08-14 20:00;CYYG 142000Z 25009KT 15SM FEW030 26/19 A3001 RMK SC1 SLP163

CYYG;2009-08-14 21:00;CYYG 142100Z 25008KT 15SM FEW030 26/18 A3001 RMK SC1 SLP161

CYYG;2009-08-14 22:00;CYYG 142200Z 23010KT 15SM FEW250 25/18 A3000 RMK CI1 SLP158

CYYG;2009-08-14 23:00;CYYG 142300Z 26006KT 15SM FEW250 24/17 A3001 RMK CI1 SLP163

CYYG;2009-08-15 00:00;CYYG 150000Z 23007KT 15SM FEW250 23/17 A3002 RMK CI1 SLP167

CYYG;2009-08-15 01:00;CYYG 150100Z 23007KT 15SM FEW250 22/18 A3004 RMK CI1 SLP172

CYYG;2009-08-15 02:00;CYYG 150200Z 24008KT 15SM FEW250 21/18 A3003 RMK CI1 SLP170

CYYG;2009-08-15 03:00;CYYG 150300Z 24009KT 15SM FEW250 20/17 A3003 RMK CI1 SLP168

CYYG;2009-08-15 04:00;CYYG 150400Z 24008KT 15SM SKC 20/17 A3001 RMK SLP164

CYYG;2009-08-15 05:00;CYYG 150500Z 25009KT 15SM SKC 20/17 A3001 RMK SLP161

CYYG;2009-08-15 06:00;CYYG 150600Z 25008KT 15SM SKC 19/17 A3000 RMK SLP160

CYYG;2009-08-15 07:00;CYYG 150700Z 27009KT 15SM SKC 20/17 A3001 RMK SLP161

CYYG;2009-08-15 08:00;CYYG 150800Z 28005KT 15SM SKC 19/17 A3001 RMK SLP164

CYYG;2009-08-15 09:00;CYYG 150900Z 26002KT 15SM FEW300 18/17 A3003 RMK CI1 SLP168

CYYG;2009-08-15 10:00;CYYG 151000Z 25005KT 15SM BKN300 19/17 A3004 RMK CS2 SLP172

CYYG;2009-08-15 11:00;CYYG 151100Z 28006KT 15SM BKN300 21/18 A3004 RMK CI2 SLP172

CYYG;2009-08-15 12:00;CYYG 151200Z 25004KT 15SM BKN300 23/19 A3004 RMK CI2 SLP173

CYYG;2009-08-15 13:00;CYYG 151300Z 25007KT 15SM SCT300 24/19 A3004 RMK CI2 SLP171

CYYG;2009-08-15 14:00;CYYG 151400Z 24010KT 15SM BKN300 26/19 A3004 RMK CI3 SLP172

CYYG;2009-08-15 15:00;CYYG 151500Z 24008KT 15SM BKN300 28/19 A3003 RMK CI2 SLP169

CYYG;2009-08-15 16:00;CYYG 151600Z 23009KT 15SM FEW300 29/19 A3002 RMK CI0 SLP164

CYYG;2009-08-15 17:00;CYYG 151700Z 23011G16KT 15SM FEW040 SCT300 29/19 A3001 RMK CU1CI2 CU TR SLP163

CYYG;2009-08-15 18:00;CYYG 151800Z 25013G20KT 15SM FEW040 FEW300 30/19 A3001 RMK CU1CI0 SLP161

CYYG;2009-08-15 19:00;CYYG 151900Z 24013G20KT 15SM FEW300 30/19 A3000 RMK CI0 SLP158

CYYG;2009-08-15 20:00;CYYG 152000Z 23012G17KT 15SM FEW300 30/20 A2997 RMK CI0 SLP148

CYYG;2009-08-15 21:00;CYYG 152100Z 24011G17KT 15SM FEW300 29/20 A2996 RMK CI2 SLP145

CYYG;2009-08-15 22:00;CYYG 152200Z 25009KT 15SM SCT300 28/19 A2995 RMK CI2 SLP142

CYYG;2009-08-15 23:00;CYYG 152300Z 25010KT 15SM BKN300 25/19 A2998 RMK CI4 SLP150

CYYG;2009-08-16 00:00;CYYG 160000Z 25011G16KT 15SM BKN300 24/18 A2999 RMK CI4 SLP154

CYYG;2009-08-16 01:00;CYYG 160100Z 25009KT 15SM BKN300 23/19 A3000 RMK CI4 SLP158

CYYG;2009-08-16 02:00;CYYG 160200Z 25009KT 15SM SCT300 22/18 A3001 RMK CI3 SLP161

CYYG;2009-08-16 03:00;CYYG 160300Z 25007KT 15SM SCT300 21/18 A3000 RMK CI3 SLP158

CYYG;2009-08-16 04:00;CYYG 160400Z 25007KT 15SM SCT300 21/18 A2999 RMK CI3 SLP156

CYYG;2009-08-16 05:00;CYYG 160500Z 26010KT 15SM FEW300 21/18 A2999 RMK CI2 SLP155

CYYG;2009-08-16 06:00;CYYG 160600Z 25008KT 15SM FEW300 20/18 A2998 RMK CI2 SLP151

CYYG;2009-08-16 07:00;CYYG 160700Z 26008KT 15SM FEW300 20/18 A2997 RMK CI2 SLP149

CYYG;2009-08-16 08:00;CYYG 160800Z 27008KT 15SM FEW300 20/17 A2998 RMK CI2 SLP151

CYYG;2009-08-16 09:00;CYYG 160900Z 27006KT 15SM FEW300 19/17 A2999 RMK CI2 SLP155

CYYG;2009-08-16 10:00;CYYG 161000Z 28004KT 15SM BKN300 19/18 A3001 RMK CC3 SLP162

CYYG;2009-08-16 11:00;CYYG 161100Z 32006KT 15SM FEW080 BKN300 21/18 A3004 RMK AC1CI2 SLP171

CYYG;2009-08-16 12:00;CYYG 161200Z 01007KT 15SM FEW012 FEW240 BKN300 22/19 A3006 RMK CF1CC2CI1 SLP180

CYYG;2009-08-16 13:00;CYYG 161300Z 03011KT 15SM FEW015 FEW240 BKN300 23/18 A3008 RMK SC1CC2CI1 SLP185

CYYG;2009-08-16 14:00;CYYG 161400Z 02011KT 15SM FEW020 FEW240 BKN300 23/18 A3009 RMK CU1CC1CI2 SLP191

CYYG;2009-08-16 15:00;CYYG 161500Z 34007KT 15SM FEW025 BKN300 23/19 A3009 RMK CU1CI2 SLP191

CYYG;2009-08-16 16:00;CYYG 161600Z 01008KT 15SM FEW025 OVC300 24/19 A3009 RMK CU1CI2 SLP190

CYYG;2009-08-16 17:00;CYYG 161700Z 34007KT 15SM FEW025 FEW150 OVC300 23/19 A3009 RMK CU1AC1CI2 SLP190

CYYG;2009-08-16 18:00;CYYG 161800Z 01006KT 15SM FEW025 FEW150 OVC300 23/19 A3010 RMK CU1AC1CI2 SLP192

CYYG;2009-08-16 19:00;CYYG 161900Z 36006KT 15SM FEW025 FEW150 OVC300 23/19 A3011 RMK CU1AC1CI2 SLP195

CYYG;2009-08-16 20:00;CYYG 162000Z 02006KT 15SM FEW025 FEW150 BKN300 22/18 A3011 RMK CU1AC1CS5 SLP195

CYYG;2009-08-16 21:00;CYYG 162100Z 03006KT 15SM FEW025 FEW150 BKN300 22/18 A3010 RMK CU1AC1CS6 SLP193

CYYG;2009-08-16 22:00;CYYG 162200Z 01004KT 15SM FEW025 FEW150 BKN300 21/17 A3010 RMK CU1AC1CS6 SLP194

CYYG;2009-08-16 23:00;CYYG 162300Z 09003KT 15SM FEW025 SCT120 BKN240 20/18 A3011 RMK CU1AC2CS2 SLP196

CYYG;2009-08-17 00:00;CYYG 170000Z 14002KT 15SM FEW025 BKN120 20/18 A3012 RMK CU2AC6 SLP198

CYYG;2009-08-17 01:00;CYYG 170100Z 14002KT 15SM FEW025 BKN110 20/18 A3012 RMK SC2AC5 SLP199

CYYG;2009-08-17 02:00;CYYG 170200Z 15003KT 15SM SCT054 BKN120 19/17 A3012 RMK SC3AC4 SLP198

CYYG;2009-08-17 03:00;CYYG 170300Z 16003KT 15SM FEW054 BKN120 20/18 A3010 RMK SC2AC5 SLP194

CYYG;2009-08-17 04:00;CYYG 170400Z 17006KT 15SM SCT040 BKN094 20/19 A3009 RMK SC4AC3 SLP190

CYYG;2009-08-17 05:00;CYYG 170500Z 16002KT 15SM SCT040 BKN100 20/19 A3008 RMK SC3AC4 SLP185

CYYG;2009-08-17 06:00;CYYG 170600Z 17003KT 15SM SCT040 BKN090 20/19 A3007 RMK SC3AC4 SLP183

CYYG;2009-08-17 07:00;CYYG 170700Z 18006KT 15SM SCT045 BKN090 20/19 A3006 RMK SC3AC4 SLP180

CYYG;2009-08-17 08:00;CYYG 170800Z 24005KT 15SM SCT045 BKN090 20/19 A3006 RMK SC3AC4 SLP181

CYYG;2009-08-17 08:10;CYYG 170810Z 00000KT 10SM -SHRA FEW017 OVC040 20/ RMK SC2SC6

CYYG;2009-08-17 08:15;CYYG 170815Z 00000KT 6SM SHRA BR FEW017 OVC032 20/ RMK SC2SC6

CYYG;2009-08-17 08:36;CYYG 170836Z 18003KT 10SM -SHRA FEW017 OVC044 20/ RMK SC2SC6 RERA

CYYG;2009-08-17 08:50;CYYG 170850Z 24002KT 8SM +SHRA OVC026 20/ RMK SC8 RERA TCU EMBDD

CYYG;2009-08-17 09:00;CYYG 170900Z 23003KT 10SM -SHRA BKN032 OVC090 20/19 A3007 RMK SC6AC2 RERA SLP182

CYYG;2009-08-17 09:29;CYYG 170929Z 24007KT 15SM BKN035 20/ RMK SC7

CYYG;2009-08-17 10:00;CYYG 171000Z 24003KT 15SM BKN035 BKN120 20/19 A3007 RMK SC6AC2 SLP182

CYYG;2009-08-17 11:00;CYYG 171100Z 25005KT 4SM BR FEW006 BKN045 BKN120 OVC280 20/20 A3008 RMK SF1SC4AC2CI0 SLP186

CYYG;2009-08-17 12:00;CYYG 171200Z 24005KT 6SM HZ FEW008 SCT036 BKN090 BKN280 21/20 A3008 RMK SF1SC2AC2CI1 SLP185

CYYG;2009-08-17 13:00;CYYG 171300Z 26004KT 8SM FEW009 SCT038 SCT090 BKN280 23/21 A3008 RMK SF2SC2AC1CI1 HAZY SLP185

CYYG;2009-08-17 14:00;CYYG 171400Z 00000KT 8SM FEW012 BKN280 24/21 A3007 RMK CF2CI2 HAZY SLP182

CYYG;2009-08-17 15:00;CYYG 171500Z 00000KT 10SM SCT016 25/21 A3007 RMK CU4 HAZY SLP184

CYYG;2009-08-17 16:00;CYYG 171600Z 00000KT 10SM BKN020 26/22 A3006 RMK CU5 HAZY SLP179

CYYG;2009-08-17 17:00;CYYG 171700Z 20004KT 12SM BKN022 BKN060 27/23 A3005 RMK CU5SC1 TCU ASOCTD SLP175

CYYG;2009-08-17 18:00;CYYG 171800Z 17007KT 12SM SCT024 SCT060 27/22 A3003 RMK CU3SC1 TCU ASOCTD N SLP168

CYYG;2009-08-17 19:00;CYYG 171900Z 22005KT 12SM FEW028 28/22 A3001 RMK CU2 SLP163

CYYG;2009-08-17 20:00;CYYG 172000Z 24007KT 12SM FEW030 29/21 A3000 RMK CU2 SLP159

CYYG;2009-08-17 21:00;CYYG 172100Z CCA 23005KT 10SM FEW034 SCT055 28/21 A2999 RMK CU2SC2 HAZY SLP156

CYYG;2009-08-17 22:00;CYYG 172200Z 20005KT 10SM BKN044 BKN080 26/22 A2998 RMK SC5AC1 HAZY TCU ASOCTD E SLP153

CYYG;2009-08-17 23:00;CYYG 172300Z 21005KT 15SM BKN048TCU 24/21 A2999 RMK TCU6 HAZY SLP154

CYYG;2009-08-18 00:00;CYYG 180000Z 23008KT 10SM BKN047TCU 25/20 A2998 RMK TCU6 HAZY SLP153

CYYG;2009-08-18 01:00;CYYG 180100Z 22006KT 15SM FEW047 23/21 A2999 RMK SC2 SLP154

CYYG;2009-08-18 02:00;CYYG 180200Z 24006KT 15SM FEW045 23/20 A2998 RMK SC2 SLP151

CYYG;2009-08-18 03:00;CYYG 180300Z 24008KT 15SM FEW045 22/19 A2996 RMK SC2 SLP143

CYYG;2009-08-18 04:00;CYYG 180400Z 24007KT 10SM SKC 21/19 A2995 RMK SLP141

CYYG;2009-08-18 05:00;CYYG 180500Z 25017G24KT 10SM SKC 21/19 A2995 RMK SLP140

CYYG;2009-08-18 06:00;CYYG 180600Z 25014G20KT 10SM SKC 20/19 A2994 RMK SLP137

CYYG;2009-08-18 07:00;CYYG 180700Z 24008G26KT 10SM SKC 20/19 A2993 RMK SLP135

CYYG;2009-08-18 08:00;CYYG 180800Z 23015KT 15SM SKC 20/19 A2992 RMK WND ESTD SLP130

CYYG;2009-08-18 09:00;CYYG 180900Z 23015KT 5SM BR SKC 20/19 A2992 RMK WND ESTD SLP130

CYYG;2009-08-18 10:00;CYYG 181000Z 25010KT 3SM HZ FEW160 20/19 A2992 RMK AC1 SLP132

CYYG;2009-08-18 11:00;CYYG 181100Z 23012KT 5SM HZ BKN045 BKN090 21/19 A2993 RMK HZ1SC4ACC2 CU ASOCTD WND ESTD SLP133

CYYG;2009-08-18 12:00;CYYG 181200Z 25013G22KT 5SM HZ BKN060 22/20 A2992 RMK HZ1SC5 CU ASOCTD SLP131

CYYG;2009-08-18 13:00;CYYG 181300Z 27010KT 7SM BKN058 23/20 A2992 RMK SC6 CU ASOCTD WND ESTD SLP131

CYYG;2009-08-18 14:00;CYYG 181400Z 25010G16KT 8SM FEW060 24/21 A2991 RMK SC1 HAZY SLP129

CYYG;2009-08-18 15:00;CYYG 181500Z 25012G22KT 8SM BKN079 25/21 A2991 RMK AC5 HAZY SLP127

CYYG;2009-08-18 16:00;CYYG 181600Z 24006KT 8SM FEW080 27/22 A2989 RMK AC2 HAZY SLP122

CYYG;2009-08-18 17:00;CYYG 181700Z 23007KT 8SM FEW025 FEW080 28/23 A2988 RMK CU1AC1 HAZY WND ESTD SLP119

CYYG;2009-08-18 18:00;CYYG 181800Z 23007KT 8SM FEW025 28/22 A2987 RMK CU1 HAZY WND ESTD SLP116

CYYG;2009-08-18 19:00;CYYG 181900Z 23007KT 8SM FEW025 28/23 A2987 RMK CU1 HAXY WND ESTD SLP113

CYYG;2009-08-18 20:00;CYYG 182000Z 26008KT 8SM FEW025 FEW075 29/22 A2986 RMK CU1AC2 HAZY SLP110

CYYG;2009-08-18 21:00;CYYG 182100Z 25007KT 10SM FEW025TCU FEW075 29/22 A2984 RMK TCU1ACC1 HAZY SLP105

CYYG;2009-08-18 22:00;CYYG 182200Z 26005KT 12SM FEW025CB FEW075 27/22 A2984 RMK CB2AC1 CB W MOVG E SLP103

CYYG;2009-08-18 23:00;CYYG 182300Z 24007KT 15SM FEW070TCU SCT081 26/21 A2983 RMK TCU1ACC3 SLP102

CYYG;2009-08-19 00:00;CYYG 190000Z 23005KT 15SM FEW069 25/21 A2985 RMK ACC2 SLP106

CYYG;2009-08-19 01:00;CYYG 190100Z 23009KT 15SM FEW069 24/21 A2985 RMK ACC2 SLP108

CYYG;2009-08-19 02:00;CYYG 190200Z 24009KT 15SM SKC 24/18 A2985 RMK SLP106

CYYG;2009-08-19 03:00;CYYG 190300Z 24009KT 15SM SKC 23/18 A2983 RMK SLP101

CYYG;2009-08-19 04:00;CYYG 190400Z 24009KT 15SM SKC 23/18 A2982 RMK SLP096

CYYG;2009-08-19 05:00;CYYG 190500Z 24010KT 15SM SKC 23/19 A2981 RMK SLP095

CYYG;2009-08-19 06:00;CYYG 190600Z 23007KT 15SM SKC 22/19 A2980 RMK SLP092

CYYG;2009-08-19 07:00;CYYG 190700Z 23007KT 15SM SKC 22/19 A2979 RMK SLP089

CYYG;2009-08-19 08:00;CYYG 190800Z 25004KT 15SM SKC 21/19 A2979 RMK SLP086

CYYG;2009-08-19 09:00;CYYG 190900Z 27006KT 10SM FEW160 21/19 A2979 RMK AC2 SLP088

CYYG;2009-08-19 10:00;CYYG 191000Z 25009KT 10SM FEW130 FEW150 SCT170 BKN300 22/19 A2979 RMK AC2AC1AC2CI0 SLP089

CYYG;2009-08-19 11:00;CYYG 191100Z 24009G15KT 8SM BKN130 BKN300 22/19 A2980 RMK AC5CI1 SLP092

CYYG;2009-08-19 12:00;CYYG 191200Z 24011KT 8SM BKN150 22/19 A2980 RMK AC6 SLP092

CYYG;2009-08-19 13:00;CYYG 191300Z 24008KT 8SM BKN130 24/20 A2981 RMK AC6 HZ SLP093

CYYG;2009-08-19 14:00;CYYG 191400Z 24010KT 6SM HZ BKN130 26/20 A2979 RMK AC6 SLP088

CYYG;2009-08-19 15:00;CYYG 191500Z 23010KT 6SM HZ BKN140 26/20 A2978 RMK AC6 SLP084

CYYG;2009-08-19 16:00;CYYG 191600Z 23011G17KT 15SM BKN150 27/20 A2977 RMK AC6 SLP081

CYYG;2009-08-19 17:00;CYYG 191700Z 26011G19KT 15SM BKN140 28/22 A2977 RMK AC6 SLP080

CYYG;2009-08-19 18:00;CYYG 191800Z 25012KT 8SM OVC120 26/21 A2977 RMK AC7 SLP080

CYYG;2009-08-19 19:00;CYYG 191900Z 24008KT 10SM OVC120 26/21 A2976 RMK AC6 SLP078

CYYG;2009-08-19 20:00;CYYG 192000Z 25009KT 10SM OVC120 27/21 A2977 RMK AC6 SLP080

CYYG;2009-08-19 21:00;CYYG 192100Z 25009KT 12SM SCT080 BKN120 25/20 A2977 RMK AC3AC3 SLP080

CYYG;2009-08-19 22:00;CYYG 192200Z 27006KT 12SM BKN110 25/21 A2976 RMK AC6 SLP077

CYYG;2009-08-19 23:00;CYYG 192300Z 25007KT 15SM BKN090 24/20 A2977 RMK AC5 SLP081

CYYG;2009-08-20 00:00;CYYG 200000Z 24006KT 15SM BKN092 23/20 A2979 RMK AC5 SLP087

CYYG;2009-08-20 01:00;CYYG 200100Z 25008KT 15SM BKN090 22/19 A2980 RMK AC5 SLP091

CYYG;2009-08-20 02:00;CYYG 200200Z 25008KT 15SM SCT090 22/19 A2979 RMK AC4 SLP088

CYYG;2009-08-20 03:00;CYYG 200300Z 25009KT 12SM FEW079 SCT240 21/19 A2979 RMK AC2CI1 SLP089

CYYG;2009-08-20 04:00;CYYG 200400Z 25008KT 15SM FEW079 BKN190 21/19 A2981 RMK AC2CI4 SLP094

CYYG;2009-08-20 05:00;CYYG 200500Z 27007KT 12SM FEW079 BKN170 21/19 A2982 RMK AC2AC4 SLP097

CYYG;2009-08-20 06:00;CYYG 200600Z 27008KT 15SM FEW079 BKN170 20/18 A2983 RMK AC2AC4 SLP101

CYYG;2009-08-20 07:00;CYYG 200700Z 27007KT 15SM FEW079 FEW170 19/18 A2985 RMK AC2AC1 SLP106

CYYG;2009-08-20 08:00;CYYG 200800Z 28007KT 15SM SCT070 19/17 A2986 RMK AC3 SLP110

CYYG;2009-08-20 09:00;CYYG 200900Z 27004KT 15SM SCT070 18/17 A2988 RMK AC3 SLP117

CYYG;2009-08-20 10:00;CYYG 201000Z 30006KT 15SM FEW070 BKN250 19/18 A2990 RMK AC1CI2 SLP124

CYYG;2009-08-20 11:00;CYYG 201100Z 30006KT 15SM FEW070 BKN250 20/18 A2990 RMK AC1CI3 SLP126

CYYG;2009-08-20 12:00;CYYG 201200Z 28005KT 15SM BKN200 21/19 A2993 RMK CI4 SLP133

CYYG;2009-08-20 13:00;CYYG 201300Z 31005KT 15SM FEW030 BKN200 21/18 A2994 RMK CF1CI4 SLP137

CYYG;2009-08-20 14:00;CYYG 201400Z 28007KT 15SM FEW030 BKN200 23/18 A2994 RMK CF2CC3 SLP139

CYYG;2009-08-20 15:00;CYYG 201500Z 32004KT 15SM FEW025 BKN200 24/17 A2994 RMK CU2CC4 SLP139

CYYG;2009-08-20 16:00;CYYG 201600Z 32005KT 15SM SCT040 BKN200 25/17 A2993 RMK CU2CI3 SLP136

CYYG;2009-08-20 17:00;CYYG 201700Z 28007KT 15SM FEW040 FEW120 BKN200 25/15 A2995 RMK CU2AC1CI2 SLP142

CYYG;2009-08-20 18:00;CYYG 201800Z 27007KT 15SM FEW040 BKN200 25/13 A2995 RMK CU1CI3 SLP141

CYYG;2009-08-20 19:00;CYYG 201900Z 27008KT 15SM FEW040 BKN200 25/14 A2996 RMK CU1CI3 SLP143

CYYG;2009-08-20 20:00;CYYG 202000Z 02008KT 15SM FEW040 BKN200 24/16 A2995 RMK CF1CI3 CF TR SLP142

CYYG;2009-08-20 21:00;CYYG 202100Z 04006KT 15SM FEW100 BKN230 23/16 A2996 RMK AC1CI3 SLP146

CYYG;2009-08-20 22:00;CYYG 202200Z 07006KT 15SM FEW065 BKN230 22/16 A2997 RMK SC2CI2 SLP150

CYYG;2009-08-20 23:00;CYYG 202300Z 13003KT 15SM FEW020 BKN068 BKN230 21/15 A2997 RMK SC2SC4CI0 SLP150

CYYG;2009-08-21 00:00;CYYG 210000Z 16002KT 15SM FEW015 SCT060 BKN200 20/16 A2998 RMK SC1SC2CI2 SLP152

CYYG;2009-08-21 01:00;CYYG 210100Z 08002KT 15SM FEW015 FEW060 BKN180 19/15 A3001 RMK SC1SC2AC4 SLP162

CYYG;2009-08-21 02:00;CYYG 210200Z 09004KT 15SM BKN064 BKN170 19/16 A3002 RMK SC5AC2 SLP165

CYYG;2009-08-21 03:00;CYYG 210300Z 07003KT 15SM BKN060 BKN170 18/16 A3002 RMK SC6AC2 SLP166

CYYG;2009-08-21 04:00;CYYG 210400Z 11004KT 15SM FEW060 BKN130 18/16 A3002 RMK SC2AC3 SLP166

CYYG;2009-08-21 05:00;CYYG 210500Z 11004KT 15SM FEW060 BKN120 18/16 A3003 RMK SC1AC5 SLP169

CYYG;2009-08-21 06:00;CYYG 210600Z 14003KT 15SM FEW060 BKN100 18/16 A3002 RMK SC1AC4 SLP167

CYYG;2009-08-21 07:00;CYYG 210700Z 15003KT 15SM BKN100 BKN180 18/16 A3003 RMK AC5AC1 SLP169

CYYG;2009-08-21 08:00;CYYG 210800Z 18004KT 15SM BKN095 18/17 A3004 RMK AC6 SLP172

CYYG;2009-08-21 09:00;CYYG 210900Z 22005KT 15SM SCT095 BKN140 20/18 A3004 RMK AC3AC4 SLP172

CYYG;2009-08-21 10:00;CYYG 211000Z 21005KT 15SM FEW090 BKN160 20/16 A3005 RMK AC2AC4 SLP176

CYYG;2009-08-21 11:00;CYYG 211100Z 22005KT 15SM FEW070 BKN100 21/18 A3006 RMK AC2AC4 SLP180

CYYG;2009-08-21 12:00;CYYG 211200Z 20005KT 15SM FEW070 BKN110 22/17 A3007 RMK AC1AC6 SLP183

CYYG;2009-08-21 13:00;CYYG 211300Z 18006KT 15SM BKN120 22/17 A3007 RMK AC7 SLP182

CYYG;2009-08-21 14:00;CYYG 211400Z 22006KT 15SM SCT120 24/18 A3007 RMK AC4 SLP182

CYYG;2009-08-21 15:00;CYYG 211500Z 19007KT 15SM SCT120 SCT250 25/17 A3006 RMK AC3CI1 SLP179

CYYG;2009-08-21 16:00;CYYG 211600Z 19008KT 15SM FEW062 BKN120 25/17 A3005 RMK SC2AC4 SLP175

CYYG;2009-08-21 17:00;CYYG 211700Z 15005KT 15SM BKN061 OVC120 25/17 A3004 RMK SC6AC2 SLP172

CYYG;2009-08-21 18:00;CYYG 211800Z 17007KT 15SM BKN061 BKN120 OVC290 26/16 A3002 RMK SC5AC2CI1 SLP167

CYYG;2009-08-21 19:00;CYYG 211900Z 15007KT 15SM SCT060 BKN150 BKN290 27/18 A3001 RMK SC3AC2CI2 SLP162

CYYG;2009-08-21 20:00;CYYG 212000Z 16007KT 15SM SCT150 BKN300 27/20 A3000 RMK AC3CI1 SLP158

CYYG;2009-08-21 21:00;CYYG 212100Z 16008KT 15SM FEW150 BKN300 28/19 A2997 RMK AC2CI1 SLP149

CYYG;2009-08-21 22:00;CYYG 212200Z 13006KT 15SM BKN057 BKN150 26/18 A2997 RMK SC6AC2 SLP148

CYYG;2009-08-21 23:00;CYYG 212300Z 15004KT 15SM BKN055 BKN070 25/18 A2999 RMK SC6AC2 SLP155

CYYG;2009-08-22 00:00;CYYG 220000Z 18011KT 15SM SCT045 OVC073 25/20 A3000 RMK SC3AC5 SLP159

CYYG;2009-08-22 01:00;CYYG 220100Z 18013KT 10SM OVC070 24/21 A3001 RMK AC8 SLP160

CYYG;2009-08-22 02:00;CYYG 220200Z 18011KT 10SM BKN045 OVC080 23/21 A3001 RMK SC5AC3 SLP162

CYYG;2009-08-22 03:00;CYYG 220300Z 18010KT 10SM BKN064 BKN100 OVC240 22/21 A3000 RMK SC6AC1CI0 SLP159

CYYG;2009-08-22 03:11;CYYG 220311Z 18010KT 10SM -SHRA BKN045 OVC100 22/ RMK SC6AC2

CYYG;2009-08-22 03:27;CYYG 220327Z 18009KT 10SM BKN040 22/ RMK SC7

CYYG;2009-08-22 03:54;CYYG 220354Z 18011KT 7SM FEW008 SCT040 BKN068 22/ RMK SF2SC2AC3

CYYG;2009-08-22 04:00;CYYG 220400Z 18011KT 7SM FEW008 SCT040 BKN068 22/21 A2999 RMK SF2SC2AC3 SLP156

CYYG;2009-08-22 05:00;CYYG 220500Z 18012KT 7SM FEW004 BKN075 21/21 A2998 RMK SF2AC6 SLP150

CYYG;2009-08-22 06:00;CYYG 220600Z 19013KT 7SM FEW004 SCT075 OVC220 21/21 A2996 RMK SF2AC2CI2 SLP145

CYYG;2009-08-22 07:00;CYYG 220700Z 18009KT 7SM FEW004 22/21 A2995 RMK SF1 SLP140

CYYG;2009-08-22 08:00;CYYG 220800Z 20010KT 10SM BKN013 OVC020 22/21 A2994 RMK SC6SC2 SLP137

CYYG;2009-08-22 09:00;CYYG 220900Z 20010G15KT 12SM OVC014 23/21 A2995 RMK SC8 SLP140

CYYG;2009-08-22 09:38;CYYG 220938Z 20013KT 12SM BKN017 BKN100 23/ RMK SC6AC1

CYYG;2009-08-22 10:00;CYYG 221000Z 21010G15KT 15SM BKN016 BKN100 23/22 A2995 RMK SC7AC1 SLP140

CYYG;2009-08-22 11:00;CYYG 221100Z 21012KT 15SM BKN015 23/22 A2995 RMK SC7 SLP142

CYYG;2009-08-22 12:00;CYYG 221200Z 22011G16KT 15SM BKN014 24/22 A2996 RMK SC7 SLP146

CYYG;2009-08-22 13:00;CYYG 221300Z 22012G18KT 15SM BKN014 24/23 A2997 RMK SC7 SLP147

CYYG;2009-08-22 14:00;CYYG 221400Z 23013KT 15SM BKN014 25/22 A2997 RMK SC7 SLP147

CYYG;2009-08-22 15:00;CYYG 221500Z 23017G24KT 15SM BKN015 26/22 A2997 RMK SC5 SLP148

CYYG;2009-08-22 16:00;CYYG 221600Z 24012G19KT 15SM SCT018 BKN036 27/23 A2996 RMK SC3SC2 SLP145

CYYG;2009-08-22 17:00;CYYG 221700Z 23014KT 15SM SCT020 BKN034 27/23 A2996 RMK SC2SC2 SLP144

CYYG;2009-08-22 18:00;CYYG 221800Z 26014KT 15SM FEW020 FEW040 28/23 A2994 RMK SC1SC1 SLP138

CYYG;2009-08-22 19:00;CYYG 221900Z 26012G19KT 15SM FEW025 28/23 A2993 RMK CF1 SLP136

CYYG;2009-08-22 20:00;CYYG 222000Z 26009G15KT 15SM FEW025 28/23 A2993 RMK CU1 SLP136

CYYG;2009-08-22 21:00;CYYG 222100Z 26012KT 15SM FEW025 FEW250 27/22 A2993 RMK CU1CI1 SLP134

CYYG;2009-08-22 22:00;CYYG 222200Z 25011G17KT 15SM FEW030 FEW250 26/22 A2993 RMK SC1CI1 SLP136

CYYG;2009-08-22 23:00;CYYG 222300Z 25009G15KT 15SM FEW040 FEW100 FEW290 25/22 A2993 RMK SC1AC1CI1 CB TOPS DIST NW-N SLP135

CYYG;2009-08-23 00:00;CYYG 230000Z 26007KT 15SM FEW040 FEW100 FEW290 24/22 A2994 RMK SC1AC1CI1 CB TOPS DIST NW-N SLP139

CYYG;2009-08-23 01:00;CYYG 230100Z 25005KT 15SM FEW040 FEW100 FEW290 23/22 A2995 RMK SC1AC1CI1 CB TOPS DIST NW-N OCNL LTGIC SLP142

CYYG;2009-08-23 02:00;CYYG 230200Z 23007KT 15SM FEW008 FEW160 FEW290 23/22 A2996 RMK SF1AC1CI1 SLP146

CYYG;2009-08-23 03:00;CYYG 230300Z 22007KT 15SM BKN180 23/22 A2997 RMK AC5 SLP148

CYYG;2009-08-23 04:00;CYYG 230400Z 19006KT 12SM FEW005 OVC180 23/22 A2997 RMK SF2AC6 SLP148

CYYG;2009-08-23 05:00;CYYG 230500Z 20005KT 15SM FEW005 OVC180 23/22 A2995 RMK SF1AC8 SLP140

CYYG;2009-08-23 06:00;CYYG 230600Z 20008KT 15SM OVC180 22/21 A2992 RMK AC8 SLP132

CYYG;2009-08-23 07:00;CYYG 230700Z 21005KT 15SM OVC230 22/21 A2993 RMK CS8 SLP133

CYYG;2009-08-23 08:00;CYYG 230800Z 18005KT 15SM OVC250 21/20 A2992 RMK CS8 SLP131

CYYG;2009-08-23 09:00;CYYG 230900Z 14003KT 15SM OVC250 21/20 A2990 RMK CS8 SLP124

CYYG;2009-08-23 10:00;CYYG 231000Z 13004KT 12SM FEW070 SCT085 OVC250 22/21 A2987 RMK AC1AC2CS5 SLP116

CYYG;2009-08-23 10:46;CYYG 231046Z 11006KT 15SM VCSH FEW004 BKN022 OVC044 22/ RMK SF2SC3SC3

CYYG;2009-08-23 10:51;CYYG 231051Z 11005KT 8SM -RA FEW007 BKN022 OVC029 22/ RMK SF2SC4SC2 VIS LWR S

CYYG;2009-08-23 11:00;CYYG 231100Z 10005KT 3SM R03/3500VP6000FT/D RA BR FEW007 BKN017 OVC032 22/22 A2986 RMK SF2SC5SC1 SLP110

CYYG;2009-08-23 11:12;CYYG 231112Z 10003KT 5SM RA BR BKN002 OVC017 22/ RMK SF5SC3

CYYG;2009-08-23 11:26;CYYG 231126Z 09006KT 5SM RA BR BKN005 OVC012 22/ RMK SF6SC2

CYYG;2009-08-23 11:33;CYYG 231133Z 09005KT 5SM -RA BR OVC003 22/ RMK SF8 RERA

CYYG;2009-08-23 12:00;CYYG 231200Z 09006KT 3SM -RA BR OVC004 23/23 A2982 RMK SF8 RERA SLP097

CYYG;2009-08-23 13:00;CYYG 231300Z 09009KT 6SM -RA BR OVC006 23/23 A2978 RMK SF8 VIS HIER SE-SW SLP083

CYYG;2009-08-23 13:08;CYYG 231308Z 09009KT 10SM BKN004 OVC008 23/ RMK SF5SF3

CYYG;2009-08-23 14:00;CYYG 231400Z 08012KT 10SM OVC007 24/23 A2973 RMK SF8 SLP067

CYYG;2009-08-23 15:00;CYYG 231500Z 07011G16KT 10SM OVC005 23/23 A2969 RMK SF8 SLP054

CYYG;2009-08-23 15:24;CYYG 231524Z 07012KT 7SM -RA OVC005 23/ RMK SF8

CYYG;2009-08-23 16:00;CYYG 231600Z 06012KT 5SM -RA BR OVC004 23/23 A2962 RMK SF8 PRESFR SLP030

CYYG;2009-08-23 16:16;CYYG 231616Z 05013KT 5SM RA BR OVC005 26/ RMK SF8

CYYG;2009-08-23 17:00;CYYG 231700Z CCA 08014KT 4SM RA BR BKN005 OVC010 23/23 A2955 RERA RMK SF6SF2 PRESFR SLP006

CYYG;2009-08-23 17:28;CYYG 231728Z 08016G24KT 2SM +RA BR BKN006 OVC013 22/ RMK SF6SC2

CYYG;2009-08-23 18:00;CYYG 231800Z CCA 04020G27KT 4SM RA BR BKN006 OVC022 22/22 A2948 RERA RMK SF7SC1 PRESFR /R14/ SLP982

CYYG;2009-08-23 18:39;CYYG 231839Z 04022G35KT 6SM -RA BR FEW006 OVC076 21/ RERA RMK SF2AC6

CYYG;2009-08-23 18:46;CYYG 231846Z 03020G31KT 5SM -RA BR BKN005 BKN011 OVC076 21/ RERA RMK SF6SF2AC1

CYYG;2009-08-23 19:00;CYYG 231900Z 04023G32KT 3SM RA BR BKN005 OVC011 21/21 A2943 RMK SF6SF2 SLP965

CYYG;2009-08-23 20:00;CYYG 232000Z CCA 04026G35KT 10SM -RA BKN005 BKN011 OVC280 22/22 A2941 RMK SF6SC2CI1 RERA CORRECTED WND DIR SLP960

CYYG;2009-08-23 20:22;CYYG 232022Z 02020G29KT 10SM -DZ OVC005 22/ RMK SF8

CYYG;2009-08-23 20:38;CYYG 232038Z 02024G32KT 10SM BKN005 OVC017 21/ RMK SF6SC2

CYYG;2009-08-23 21:00;CYYG 232100Z CCA 36016G27KT 10SM BKN007 OVC025 22/22 A2948 RMK SF6SC2 PRESRR SLP982

CYYG;2009-08-23 21:16;CYYG 232116Z 35021G28KT 2SM -RA BR OVC004 21/ RMK SF8

CYYG;2009-08-23 22:00;CYYG 232200Z 36018G26KT 3SM -RA BR OVC002 20/20 A2957 RMK SF8 PRESRR SLP014

CYYG;2009-08-23 22:06;CYYG 232206Z 35019G28KT 3SM -DZ BR OVC004 20/ RMK SF8

CYYG;2009-08-23 22:42;CYYG 232242Z 34015G27KT 6SM -DZ BR OVC008 19/ RMK SF8

CYYG;2009-08-23 23:00;CYYG 232300Z 35016G26KT 6SM -DZ BR OVC009 19/19 A2968 RMK SF8 PRESRR SLP049

CYYG;2009-08-23 23:25;CYYG 232325Z 35020G28KT 3SM -SHRA BR OVC009 19/ RMK SF8

CYYG;2009-08-24 00:00;CYYG 240000Z 34013G28KT 8SM -SHRA BKN009 BKN017 OVC034 18/18 A2977 RMK SF5SC2SC2 PRESRR SLP080

CYYG;2009-08-24 00:50;CYYG 240050Z 35011G17KT 10SM FEW015 SCT040 BKN090 18/ RMK SC2SC2AC3

CYYG;2009-08-24 01:00;CYYG 240100Z 33014KT 10SM FEW015 SCT040 BKN090 18/17 A2982 RMK SC2SC2AC3 SLP098

CYYG;2009-08-24 02:00;CYYG 240200Z 34009G17KT 15SM SCT100 17/15 A2984 RMK AC3 SLP105

CYYG;2009-08-24 03:00;CYYG 240300Z 35004KT 15SM FEW100 16/15 A2989 RMK AC1 SLP122

CYYG;2009-08-24 04:00;CYYG 240400Z 33005KT 15SM FEW100 16/15 A2990 RMK AC1 SLP125

CYYG;2009-08-24 05:00;CYYG 240500Z 32002KT 15SM FEW120 16/14 A2992 RMK AC1 SLP132

CYYG;2009-08-24 06:00;CYYG 240600Z 27004KT 15SM FEW240 15/14 A2995 RMK CI1 SLP142

CYYG;2009-08-24 07:00;CYYG 240700Z 28004KT 15SM BKN160 15/14 A2996 RMK AC6 SLP147

CYYG;2009-08-24 08:00;CYYG 240800Z 30004KT 15SM OVC120 16/13 A2997 RMK AC8 SLP150

CYYG;2009-08-24 08:20;CYYG 240820Z 30003KT 15SM -SHRA OVC120 16/ RMK AC8

CYYG;2009-08-24 08:44;CYYG 240844Z 31002KT 15SM BKN120 15/ RMK AC7

CYYG;2009-08-24 09:00;CYYG 240900Z 28003KT 15SM BKN120 16/13 A2998 RMK AC7 SLP153

CYYG;2009-08-24 09:11;CYYG 240911Z 28002KT 15SM -SHRA OVC130 16/ RMK AC8

CYYG;2009-08-24 10:00;CYYG 241000Z 23004KT 15SM -SHRA BKN040 OVC130 16/14 A3001 RMK SC6AC2 SLP162

CYYG;2009-08-24 10:18;CYYG 241018Z 26003KT 15SM SCT040 OVC130 16/ RMK SC4AC4

CYYG;2009-08-24 11:00;CYYG 241100Z 24004KT 15SM -SHRA FEW010 BKN044 OVC130 16/15 A3002 RMK SC1SC6AC2 SLP166

CYYG;2009-08-24 11:45;CYYG 241145Z 26005KT 15SM BKN049 OVC130 17/ RMK SC6AS2

CYYG;2009-08-24 12:00;CYYG 241200Z 26003KT 15SM BKN037 BKN050 OVC130 17/15 A3003 RMK SC5SC2AS2 SLP169

CYYG;2009-08-24 12:26;CYYG 241226Z 00000KT 15SM -RA FEW037 BKN050 OVC130 18/ RMK SC2SC3AS2

CYYG;2009-08-24 13:00;CYYG 241300Z 35003KT 12SM -RA FEW005 FEW037 FEW050 OVC110 18/15 A3002 RMK SF1SC1SC1AC6 SLP166

CYYG;2009-08-24 14:00;CYYG 241400Z 03002KT 10SM -RA FEW005 SCT037 OVC110 18/15 A3001 RMK SF1SC2AC5 SLP164

CYYG;2009-08-24 14:06;CYYG 241406Z 03002KT 15SM FEW005 FEW037 OVC110 18/ RMK SF1SC2AC6

CYYG;2009-08-24 15:00;CYYG 241500Z 10002KT 15SM FEW010 BKN073 OVC110 18/15 A3002 RMK SC1AC6AC2 SLP166

CYYG;2009-08-24 15:02;CYYG 241502Z 14002KT 12SM -RA FEW010 BKN073 OVC110 18/ RMK SC1AC6AC2

CYYG;2009-08-24 16:00;CYYG 241600Z 16004KT 15SM -RA FEW020 OVC074 18/15 A3002 RMK SC1AC7 SLP166

CYYG;2009-08-24 17:00;CYYG 241700Z 17004KT 10SM -SHRA FEW011 SCT050 OVC070 18/15 A3001 RMK SC1SC2AC5 SLP164

CYYG;2009-08-24 17:12;CYYG 241712Z 19004KT 10SM -SHRA BKN010 OVC070 18/ RMK SC5AC3

CYYG;2009-08-24 18:00;CYYG 241800Z 17005KT 10SM -SHRA BKN008 OVC068 17/16 A3000 RMK SC6AC2 SLP160

CYYG;2009-08-24 19:00;CYYG 241900Z 20002KT 15SM -SHRA SCT006 BKN009 OVC053 18/17 A2999 RMK SF3SC3SC2 SLP157

CYYG;2009-08-24 20:00;CYYG 242000Z 14003KT 15SM -SHRA OVC007 17/16 A2999 RMK SF8 SLP156

CYYG;2009-08-24 21:00;CYYG 242100Z 21002KT 15SM OVC007 17/17 A2998 RMK SF8 SLP154

CYYG;2009-08-24 21:48;CYYG 242148Z 22003KT 15SM OVC005 17/ RMK SF8

CYYG;2009-08-24 22:00;CYYG 242200Z 25003KT 15SM OVC005 17/16 A3000 RMK SF8 SLP159

CYYG;2009-08-24 22:39;CYYG 242239Z 00000KT 15SM -DZ OVC007 17/ RMK SF8

CYYG;2009-08-24 23:00;CYYG 242300Z 22002KT 15SM -DZ OVC006 17/16 A3000 RMK SF8 SLP159

CYYG;2009-08-25 00:00;CYYG 250000Z 32003KT 8SM FEW003 OVC008 17/16 A3001 RMK SF2SF6 SLP161

CYYG;2009-08-25 00:40;CYYG 250040Z 32003KT 8SM -DZ FEW003 OVC008 16/ RMK SF2SC6

CYYG;2009-08-25 01:00;CYYG 250100Z 00000KT 8SM -DZ FEW003 OVC008 17/17 A3001 RMK SF2SF6 SLP163

CYYG;2009-08-25 02:00;CYYG 250200Z 00000KT 10SM BKN008 BKN015 OVC030 17/17 A3000 RMK SF5SC2SC2 INTMT -DZ SLP160

CYYG;2009-08-25 03:00;CYYG 250300Z 00000KT 10SM -DZ SCT005 BKN014 OVC040 17/17 A3000 RMK SF3SC2SC2 SLP159

CYYG;2009-08-25 04:00;CYYG 250400Z 34002KT 8SM -DZ FEW005 OVC009 17/17 A3002 RMK SF2SF6 SLP165

CYYG;2009-08-25 05:00;CYYG 250500Z 36002KT 8SM -DZ FEW003 BKN007 OVC014 17/16 A3002 RMK SF2SF6SC1 SLP167

CYYG;2009-08-25 06:00;CYYG 250600Z 00000KT 15SM FEW007 BKN015 16/16 A3003 RMK SF1SC5 SLP168

CYYG;2009-08-25 07:00;CYYG 250700Z 00000KT 15SM MIFG SKC 14/14 A3003 RMK SLP170

CYYG;2009-08-25 08:00;CYYG 250800Z 30003KT 15SM MIFG SKC 13/13 A3004 RMK SLP172

CYYG;2009-08-25 09:00;CYYG 250900Z CCA 32002KT 15SM MIFG FEW015 SCT085 12/12 A3005 RMK SC1AC3 SLP175

CYYG;2009-08-25 10:00;CYYG 251000Z 26002KT 15SM MIFG FEW015 BKN075 15/15 A3006 RMK SC2AC5 SLP179

CYYG;2009-08-25 11:00;CYYG 251100Z 27002KT 15SM FEW015 FEW075 16/16 A3007 RMK SC1AC1 SLP184

CYYG;2009-08-25 12:00;CYYG 251200Z 28004KT 15SM FEW015 SCT026 BKN075 18/17 A3009 RMK SF1SC3AC2 SLP188

CYYG;2009-08-25 12:21;CYYG 251221Z 27004KT 15SM BKN012 BKN025 BKN063 19/ RMK SF5SC1SC1

CYYG;2009-08-25 13:00;CYYG 251300Z 27003KT 15SM BKN015 BKN030 BKN060 19/16 A3009 RMK SF5SC1SC1 SLP190

CYYG;2009-08-25 14:00;CYYG 251400Z 02003KT 15SM FEW015 BKN025 BKN037 19/16 A3009 RMK SF1SC6SC1 SLP191

CYYG;2009-08-25 15:00;CYYG 251500Z 00000KT 15SM BKN020 BKN030 20/16 A3008 RMK SC5SC1 SLP187

CYYG;2009-08-25 16:00;CYYG 251600Z 00000KT 15SM BKN023 BKN031 21/16 A3007 RMK SC5SC1 SLP184

CYYG;2009-08-25 17:00;CYYG 251700Z 16005KT 15SM BKN021TCU 20/16 A3006 RMK TCU5 SH DIST W SLP178

CYYG;2009-08-25 17:13;CYYG 251713Z 19006KT 15SM -SHRA FEW020TCU BKN053 20/ RMK TCU2SC2

CYYG;2009-08-25 18:00;CYYG 251800Z 18006KT 15SM FEW020TCU BKN060 20/17 A3005 RMK TCU2SC2 SLP175

CYYG;2009-08-25 19:00;CYYG 251900Z 21008KT 15SM FEW020TCU FEW050 FEW300 22/16 A3004 RMK TCU1SC1CI1 SLP174

CYYG;2009-08-25 20:00;CYYG 252000Z 17005KT 15SM FEW025TCU FEW300 22/15 A3004 RMK TCU1CI0 SLP171

CYYG;2009-08-25 21:00;CYYG 252100Z 16004KT 15SM FEW030TCU SCT300 22/14 A3002 RMK TCU1CI1 SLP167

CYYG;2009-08-25 22:00;CYYG 252200Z 16003KT 15SM FEW030 SCT300 21/14 A3001 RMK SC1CI0 SLP162

CYYG;2009-08-25 23:00;CYYG 252300Z 18003KT 15SM FEW030 SCT300 20/14 A3001 RMK SC1CI1 SLP163

CYYG;2009-08-26 00:00;CYYG 260000Z 19004KT 15SM FEW030 FEW080 SCT300 18/14 A3001 RMK SC1AC1CI1 SLP164

CYYG;2009-08-26 01:00;CYYG 260100Z 16005KT 15SM SCT075 18/16 A3001 RMK AC2 SLP162

CYYG;2009-08-26 02:00;CYYG 260200Z 16004KT 15SM FEW075 17/16 A2999 RMK AC1 SLP157

CYYG;2009-08-26 03:00;CYYG 260300Z 19009KT 15SM FEW013 SCT075 19/18 A2998 RMK SC2AC1 SLP152

CYYG;2009-08-26 04:00;CYYG 260400Z 21006KT 8SM BKN007 19/18 A2996 RMK SF6 SLP146

CYYG;2009-08-26 05:00;CYYG 260500Z 22008KT 15SM SCT010 BKN220 18/16 A2994 RMK SF2CI3 SLP140

CYYG;2009-08-26 06:00;CYYG 260600Z 22007KT 15SM BKN160 18/15 A2992 RMK AC6 SLP133

CYYG;2009-08-26 07:00;CYYG 260700Z 22009KT 15SM BKN200 18/15 A2990 RMK CI6 SLP127

CYYG;2009-08-26 08:00;CYYG 260800Z 22010KT 15SM BKN200 18/15 A2989 RMK CI6 SLP121

CYYG;2009-08-26 09:00;CYYG 260900Z 22011KT 15SM SCT200 17/15 A2987 RMK CI3 SLP116

CYYG;2009-08-26 09:16;CYYG 260916Z 22011KT 15SM BKN013 BKN200 17/ RMK SC5CI1

CYYG;2009-08-26 10:00;CYYG 261000Z 22011G16KT 15SM BKN009 17/16 A2987 RMK SC7 SLP115

CYYG;2009-08-26 11:00;CYYG 261100Z 22013KT 15SM OVC010 18/17 A2986 RMK SC8 SLP111

CYYG;2009-08-26 12:00;CYYG 261200Z 21016G21KT 15SM OVC011 18/16 A2984 RMK SC8 SLP105

CYYG;2009-08-26 13:00;CYYG 261300Z 21013G20KT 15SM OVC012 19/17 A2982 RMK SC8 SLP097

CYYG;2009-08-26 14:00;CYYG 261400Z 21016G26KT 15SM OVC016 20/17 A2978 RMK SC8 SLP085

CYYG;2009-08-26 15:00;CYYG 261500Z 21014G21KT 15SM OVC016 21/18 A2975 RMK SC8 SLP075

CYYG;2009-08-26 16:00;CYYG 261600Z 22020G25KT 15SM BKN020 BKN280 21/18 A2972 RMK SC6CC1 SLP064

CYYG;2009-08-26 17:00;CYYG 261700Z 23013G21KT 15SM SCT020 BKN190 22/18 A2969 RMK SC4AC3 SLP055

CYYG;2009-08-26 18:00;CYYG 261800Z 24010G20KT 15SM SCT020 BKN150 22/18 A2967 RMK SC3AC4 SLP047

CYYG;2009-08-26 19:00;CYYG 261900Z 23011G17KT 15SM SCT020 BKN150 22/19 A2966 RMK SC3AC4 SLP042

CYYG;2009-08-26 20:00;CYYG 262000Z 23016G24KT 15SM FEW020 BKN170 23/18 A2965 RMK SC2AC6 SLP039

CYYG;2009-08-26 21:00;CYYG 262100Z 24013G21KT 15SM FEW030 BKN160 23/16 A2964 RMK SC2AC6 SLP036

CYYG;2009-08-26 22:00;CYYG 262200Z 24012G20KT 15SM SCT160 BKN280 21/17 A2963 RMK AC4CI2 SLP034

CYYG;2009-08-26 23:00;CYYG 262300Z 24014G21KT 15SM SCT160 BKN300 21/17 A2963 RMK AC2CI3 SLP034

CYYG;2009-08-27 00:00;CYYG 270000Z 24009G16KT 15SM SCT160 BKN300 20/17 A2964 RMK AC2CC2 SLP036

CYYG;2009-08-27 01:00;CYYG 270100Z 25009KT 15SM SCT120 BKN300 20/17 A2965 RMK AC2CI2 SLP039

CYYG;2009-08-27 02:00;CYYG 270200Z 35011G16KT 15SM SCT018 BKN030 18/14 A2969 RMK SC3SC4 SLP052

CYYG;2009-08-27 03:00;CYYG 270300Z 32013G18KT 15SM FEW040 BKN072 17/11 A2971 RMK SC2AC3 SLP062

CYYG;2009-08-27 04:00;CYYG 270400Z 30011G16KT 15SM BKN081 15/09 A2975 RMK AC4 SLP073

CYYG;2009-08-27 05:00;CYYG 270500Z 29007KT 15SM FEW080 14/08 A2975 RMK AC1 SLP075

CYYG;2009-08-27 06:00;CYYG 270600Z 25005KT 15SM FEW080 12/08 A2976 RMK AC1 SLP077

CYYG;2009-08-27 07:00;CYYG 270700Z 27005KT 15SM SKC 11/08 A2976 RMK SLP079

CYYG;2009-08-27 08:00;CYYG 270800Z 27005KT 15SM SKC 11/08 A2977 RMK SLP083

CYYG;2009-08-27 09:00;CYYG 270900Z 30007KT 15SM FEW080 11/08 A2977 RMK AC1 SLP082

CYYG;2009-08-27 10:00;CYYG 271000Z 28006KT 15SM FEW030 FEW080 11/08 A2979 RMK SC1AC0 SLP089

CYYG;2009-08-27 11:00;CYYG 271100Z 28008KT 15SM FEW020 13/08 A2980 RMK SC1 SLP091

CYYG;2009-08-27 12:00;CYYG 271200Z 29014G20KT 15SM FEW025 14/08 A2980 RMK SC1 SLP093

CYYG;2009-08-27 13:00;CYYG 271300Z 28012G20KT 15SM FEW030 15/08 A2982 RMK SC2 SLP097

CYYG;2009-08-27 14:00;CYYG 271400Z 28012G19KT 15SM FEW030 15/08 A2982 RMK SC2 SLP100

CYYG;2009-08-27 15:00;CYYG 271500Z 28013G18KT 15SM FEW033 16/09 A2983 RMK SC2 SLP103

CYYG;2009-08-27 16:00;CYYG 271600Z 29012G17KT 15SM SCT035 16/08 A2984 RMK SC3 SLP106

CYYG;2009-08-27 17:00;CYYG 271700Z 28014G19KT 15SM SCT035 16/07 A2985 RMK SC3 SLP108

CYYG;2009-08-27 18:00;CYYG 271800Z 27017G22KT 15SM BKN045 BKN330 17/07 A2985 RMK CU6CI1 SLP109

CYYG;2009-08-27 19:00;CYYG 271900Z 29013KT 15SM BKN050 BKN330 17/06 A2987 RMK CU6CI0 SLP114

CYYG;2009-08-27 20:00;CYYG 272000Z 31015G21KT 15SM SCT060 17/06 A2989 RMK CU3 SLP123

CYYG;2009-08-27 21:00;CYYG 272100Z 29013G19KT 15SM FEW060 17/05 A2990 RMK CU2 SLP126

CYYG;2009-08-27 22:00;CYYG 272200Z 30009KT 15SM FEW065 16/05 A2992 RMK CU2 SLP132

CYYG;2009-08-27 23:00;CYYG 272300Z 29005KT 15SM SCT062 14/05 A2994 RMK CU3 SLP139

CYYG;2009-08-28 00:00;CYYG 280000Z 29006KT 15SM FEW060 13/05 A2997 RMK SC1 SLP148

CYYG;2009-08-28 01:00;CYYG 280100Z 29006KT 15SM SKC 12/05 A3000 RMK SLP158

CYYG;2009-08-28 02:00;CYYG 280200Z 30006KT 15SM SKC 12/05 A3000 RMK SLP159

CYYG;2009-08-28 03:00;CYYG 280300Z 29007KT 15SM SKC 11/05 A3001 RMK SLP164

CYYG;2009-08-28 04:00;CYYG 280400Z 29007KT 15SM SKC 11/05 A3001 RMK SLP165

CYYG;2009-08-28 05:00;CYYG 280500Z 28008KT 15SM SKC 11/05 A3002 RMK SLP166

CYYG;2009-08-28 06:00;CYYG 280600Z 28008KT 15SM SKC 10/06 A3002 RMK SLP167

CYYG;2009-08-28 07:00;CYYG 280700Z 28007KT 15SM SKC 11/06 A3002 RMK SLP166

CYYG;2009-08-28 08:00;CYYG 280800Z 30009KT 15SM FEW220 11/07 A3002 RMK CI2 SLP168

CYYG;2009-08-28 09:00;CYYG 280900Z 29008KT 15SM FEW220 11/07 A3003 RMK CI2 SLP169

CYYG;2009-08-28 10:00;CYYG 281000Z 28007KT 15SM FEW030 FEW160 10/08 A3005 RMK SC1AC1 SLP176

CYYG;2009-08-28 11:00;CYYG 281100Z 28009KT 15SM FEW020 FEW250 12/08 A3007 RMK CU1CI0 SLP183

CYYG;2009-08-28 12:00;CYYG 281200Z 28009KT 15SM FEW020 FEW250 13/09 A3008 RMK CU1CI0 SLP186

CYYG;2009-08-28 13:00;CYYG 281300Z 29011KT 15SM FEW023 FEW250 14/08 A3009 RMK CU2CI0 SLP191

CYYG;2009-08-28 14:00;CYYG 281400Z 29010G18KT 15SM FEW028 SCT250 15/07 A3010 RMK CU2CI0 SLP193

CYYG;2009-08-28 15:00;CYYG 281500Z 31011G18KT 15SM FEW045 16/07 A3010 RMK CU2 SLP195

CYYG;2009-08-28 16:00;CYYG 281600Z 31012KT 15SM FEW047 17/07 A3011 RMK CU2 SLP196

CYYG;2009-08-28 17:00;CYYG 281700Z 32010G15KT 15SM FEW048 17/06 A3011 RMK CU2 SLP198

CYYG;2009-08-28 18:00;CYYG 281800Z 29011G16KT 15SM FEW049 17/06 A3012 RMK CU2 SLP200

CYYG;2009-08-28 19:00;CYYG 281900Z 34006KT 15SM FEW049 17/07 A3013 RMK CU2 SLP203

CYYG;2009-08-28 20:00;CYYG 282000Z 31011KT 15SM FEW057 FEW300 17/06 A3014 RMK CU2CI0 SLP207

CYYG;2009-08-28 21:00;CYYG 282100Z 29010KT 15SM FEW057 FEW300 17/06 A3014 RMK CU1CI0 SLP209

CYYG;2009-08-28 22:00;CYYG 282200Z 31007KT 15SM FEW057 FEW300 16/06 A3016 RMK SC1CI1 SLP214

CYYG;2009-08-28 23:00;CYYG 282300Z 36003KT 15SM FEW057 FEW300 13/09 A3018 RMK SC1CI1 SLP222

CYYG;2009-08-29 00:00;CYYG 290000Z 00000KT 15SM FEW057 FEW300 11/09 A3020 RMK SC1CI1 SLP228

CYYG;2009-08-29 01:00;CYYG 290100Z 00000KT 15SM FEW300 10/08 A3022 RMK CI1 SLP234

CYYG;2009-08-29 02:00;CYYG 290200Z 28002KT 15SM FEW300 08/08 A3023 RMK CI1 SLP236

CYYG;2009-08-29 03:00;CYYG 290300Z 23005KT 15SM FEW300 11/08 A3022 RMK CI1 SLP235

CYYG;2009-08-29 04:00;CYYG 290400Z 00000KT 15SM FEW300 07/07 A3023 RMK CI1 SLP238

CYYG;2009-08-29 05:00;CYYG 290500Z 27002KT 15SM SKC 07/07 A3023 RMK SLP239

CYYG;2009-08-29 06:00;CYYG 290600Z 00000KT 15SM SKC 07/07 A3025 RMK SLP243

CYYG;2009-08-29 07:00;CYYG 290700Z 27002KT 15SM SKC 07/06 A3025 RMK SLP246

CYYG;2009-08-29 08:00;CYYG 290800Z 00000KT 15SM SKC 07/06 A3026 RMK SLP248

CYYG;2009-08-29 09:00;CYYG 290900Z 00000KT 15SM SKC 06/06 A3026 RMK SLP249

CYYG;2009-08-29 10:00;CYYG 291000Z 00000KT 15SM FEW015 SCT250 07/07 A3027 RMK SC1CI2 SLP251

CYYG;2009-08-29 11:00;CYYG 291100Z 00000KT 15SM FEW020 BKN200 11/10 A3028 RMK CU1CS5 SLP254

CYYG;2009-08-29 12:00;CYYG 291200Z 12002KT 15SM FEW020 BKN150 OVC200 14/13 A3029 RMK CU1AS5CS2 SLP257

CYYG;2009-08-29 13:00;CYYG 291300Z 13003KT 15SM FEW025 BKN150 OVC200 16/12 A3028 RMK CU1AS6CS2 SLP256

CYYG;2009-08-29 14:00;CYYG 291400Z 13004KT 15SM FEW025 OVC130 16/11 A3028 RMK CU1AC7 SLP256

CYYG;2009-08-29 15:00;CYYG 291500Z 16004KT 15SM FEW030 OVC110 16/11 A3029 RMK CU1AS7 SLP259

CYYG;2009-08-29 15:52;CYYG 291552Z 16005KT 15SM -RA FEW030 OVC080 16/ RMK CU1AS7

CYYG;2009-08-29 16:00;CYYG 291600Z 16006KT 15SM -RA FEW030 OVC080 16/12 A3030 RMK CU1AS7 SLP260

CYYG;2009-08-29 17:00;CYYG 291700Z 17005KT 15SM -RA FEW018 OVC091 16/13 A3030 RMK CU1AS7 SLP260

CYYG;2009-08-29 18:00;CYYG 291800Z 21008KT 15SM -RA FEW024 OVC090 16/11 A3030 RMK CU2AS6 SLP261

CYYG;2009-08-29 19:00;CYYG 291900Z 21005KT 15SM -RA FEW024 OVC084 15/10 A3029 RMK CU1AS7 SLP259

CYYG;2009-08-29 20:00;CYYG 292000Z 18002KT 15SM -RA FEW025 OVC074 15/10 A3027 RMK CU1AS7 SLP250

CYYG;2009-08-29 21:00;CYYG 292100Z 11006KT 8SM -RA FEW020 BKN038 OVC070 13/11 A3024 RMK CU1SC4AS3 SLP242

CYYG;2009-08-29 22:00;CYYG 292200Z 10008KT 6SM -RA BR FEW015 OVC069 12/11 A3021 RMK CU2AS6 SLP232

CYYG;2009-08-29 23:00;CYYG 292300Z 09009KT 5SM -RA BR FEW015 OVC056 11/10 A3019 RMK CU1SC7 SLP225

CYYG;2009-08-29 23:32;CYYG 292332Z 10008KT 5SM RA BR FEW007 SCT015 OVC056 11/ RMK SF2SC2SC5

CYYG;2009-08-29 23:50;CYYG 292350Z 10005KT 4SM RA BR FEW004 BKN008 OVC030 11/ RMK SF2SF5SC2

CYYG;2009-08-30 00:00;CYYG 300000Z 12004KT 4SM RA BR FEW003 OVC007 11/11 A3020 RMK SF2SF6 /R10/ SLP226

CYYG;2009-08-30 00:23;CYYG 300023Z 14014KT 6SM RA BR FEW003 BKN008 OVC024 12/ RMK SF2SF5SC1

CYYG;2009-08-30 01:00;CYYG 300100Z 13011G17KT 6SM RA BR FEW004 BKN009 OVC029 12/11 A3017 RMK SF2SF4SC2 SLP218

CYYG;2009-08-30 02:00;CYYG 300200Z 10011KT 8SM RA FEW004 BKN009 OVC032 11/11 A3013 RMK SF2SF3SC3 /R11/ SLP203

CYYG;2009-08-30 02:19;CYYG 300219Z 11013G20KT 3SM R03/4500VP6000FT/D +RA BR FEW004 BKN008 OVC025 11/ RMK SF2SF5SC1

CYYG;2009-08-30 02:34;CYYG 300234Z 10013G18KT 5SM RA BR FEW003 BKN009 OVC039 11/ RERA RMK SF2SF5SC2

CYYG;2009-08-30 03:00;CYYG 300300Z 10013G18KT 4SM +RA BR FEW003 BKN008 OVC030 12/12 A3004 RMK SF2SF6SC1 PRESFR SLP174

CYYG;2009-08-30 04:00;CYYG 300400Z 09013G19KT 3SM +RA BR SCT003 OVC008 12/12 A2999 RMK SF3SF5 /R29/ SLP157

CYYG;2009-08-30 05:00;CYYG 300500Z 11017G24KT 3SM R03/4500VP6000FT/U +RA BR SCT005 BKN009 OVC020 13/13 A2990 RMK SF3SF3SC2 /R48/ SLP127

CYYG;2009-08-30 06:00;CYYG 300600Z 11015G26KT 3SM +RA BR SCT005 BKN009 OVC020 14/14 A2982 RMK SF3SF3SC2 /R60/ PRESFR SLP097

CYYG;2009-08-30 07:00;CYYG 300700Z 12016G25KT 3SM +RA BR BKN006 OVC010 14/14 A2967 RMK SF6SC2 /R10/ PRESFR SLP049

CYYG;2009-08-30 08:00;CYYG 300800Z 12015G25KT 3SM R03/3500V5500FT/D +RA BR BKN005 OVC011 16/16 A2960 RMK SF6SC2 /R24/ PRESFR SLP025

CYYG;2009-08-30 08:38;CYYG 300838Z 15010G15KT 3SM RA BR OVC004 17/ RMK SF8 RERA

CYYG;2009-08-30 09:00;CYYG 300900Z 17015G20KT 2SM RA BR OVC004 19/19 A2955 RERA RMK SF8 SLP007

CYYG;2009-08-30 09:53;CYYG 300953Z 20007KT 8SM -RA SCT004 OVC028 19/ RERA RMK SF4SC4

CYYG;2009-08-30 10:00;CYYG 301000Z 20005KT 15SM -RA SCT004 BKN028 19/19 A2955 RERA RMK SF3SC4 /R37/ SLP008

CYYG;2009-08-30 11:00;CYYG 301100Z 24013G18KT 15SM BKN009 19/18 A2957 RMK SF6 SLP013

CYYG;2009-08-30 11:25;CYYG 301125Z 26010G17KT 15SM OVC007 17/ RMK SF8

CYYG;2009-08-30 11:56;CYYG 301156Z 25010G15KT 4SM -DZ BR OVC004 16/ RMK SF8

CYYG;2009-08-30 12:00;CYYG 301200Z 25011G16KT 3SM -DZ BR OVC003 16/16 A2960 RMK SF8 SLP025

CYYG;2009-08-30 12:31;CYYG 301231Z 27011KT 15SM OVC007 17/ RMK SF8

CYYG;2009-08-30 13:00;CYYG 301300Z 27013G21KT 15SM OVC008 18/17 A2963 RMK SC8 SLP034

CYYG;2009-08-30 14:00;CYYG 301400Z 30011G19KT 15SM BKN009 18/16 A2967 RMK SC7 SLP049

CYYG;2009-08-30 14:24;CYYG 301424Z 29016G21KT 15SM BKN013 BKN019 18/ RMK SC5SC1

CYYG;2009-08-30 15:00;CYYG 301500Z 28014G20KT 15SM BKN016 19/16 A2972 RMK SC6 SLP064

CYYG;2009-08-30 16:00;CYYG 301600Z 29017G22KT 15SM BKN018 19/16 A2975 RMK SC7 SLP074

CYYG;2009-08-30 17:00;CYYG 301700Z 27011G16KT 15SM BKN015 18/16 A2977 RMK SC7 SLP081

CYYG;2009-08-30 18:00;CYYG 301800Z 29010G15KT 15SM OVC014 17/15 A2979 RMK SC8 SLP090

CYYG;2009-08-30 19:00;CYYG 301900Z 29010KT 15SM OVC017 17/15 A2983 RMK SC8 SLP102

CYYG;2009-08-30 20:00;CYYG 302000Z 30008KT 15SM OVC015 17/15 A2985 RMK SC8 SLP108

CYYG;2009-08-30 21:00;CYYG 302100Z 29006KT 15SM -DZ OVC014 16/14 A2987 RMK SC8 SLP114

CYYG;2009-08-30 22:00;CYYG 302200Z 31006KT 15SM OVC019 16/14 A2989 RMK SC8 SLP121

CYYG;2009-08-30 22:41;CYYG 302241Z 31005KT 15SM FEW005 BKN019 16/ RMK SF1SC6

CYYG;2009-08-30 23:00;CYYG 302300Z 35004KT 15SM FEW005 BKN019 15/14 A2989 RMK SF1SC6 SLP122

CYYG;2009-08-31 00:00;CYYG 310000Z 00000KT 15SM -DZ FEW005 OVC017 15/14 A2991 RMK SF1SC7 SLP129

CYYG;2009-08-31 00:53;CYYG 310053Z 00000KT 15SM FEW004 SCT015 OVC021 15/ RMK SF1SC2SC5

CYYG;2009-08-31 01:00;CYYG 310100Z 00000KT 15SM FEW004 SCT015 OVC021 15/14 A2991 RMK SF1SC2SC5 SLP130

CYYG;2009-08-31 02:00;CYYG 310200Z 00000KT 15SM OVC021 15/14 A2991 RMK SC8 SLP128

CYYG;2009-08-31 02:04;CYYG 310204Z 15003KT 15SM -SHRA OVC019 15/ RMK SC8

CYYG;2009-08-31 03:00;CYYG 310300Z 17003KT 15SM SCT009 OVC017 15/15 A2989 RMK SC3SC5 SLP123

CYYG;2009-08-31 03:44;CYYG 310344Z 15002KT 15SM BKN008 OVC017 15/ RMK SF6SC2

CYYG;2009-08-31 03:54;CYYG 310354Z 00000KT 15SM -SHRA OVC008 15/ RMK SF8

CYYG;2009-08-31 04:00;CYYG 310400Z 00000KT 15SM -SHRA OVC008 15/15 A2989 RMK SF8 SLP123

CYYG;2009-08-31 05:00;CYYG 310500Z 28002KT 15SM OVC006 15/15 A2990 RMK SF8 SLP127

CYYG;2009-08-31 05:09;CYYG 310509Z 20003KT 15SM -SHRA OVC006 15/ RMK SF8

CYYG;2009-08-31 06:00;CYYG 310600Z 18005KT 15SM FEW006 FEW015 OVC086 15/15 A2988 RMK SF1SC1AC6 SLP119

CYYG;2009-08-31 06:17;CYYG 310617Z 23005KT 15SM FEW006 BKN011 OVC086 16/ RMK SF1SC6AC2

CYYG;2009-08-31 07:00;CYYG 310700Z 23003KT 15SM FEW005 BKN012 OVC090 15/15 A2988 RMK SF2SC5AC2 SLP119

CYYG;2009-08-31 08:00;CYYG 310800Z 25006KT 15SM OVC009 15/14 A2988 RMK SF8 SLP120

CYYG;2009-08-31 08:48;CYYG 310848Z 23005KT 15SM OVC006 15/ RMK SF8

CYYG;2009-08-31 09:00;CYYG 310900Z 23006KT 15SM OVC006 15/14 A2987 RMK SF8 SLP116

CYYG;2009-08-31 10:00;CYYG 311000Z 23007KT 15SM FEW006 BKN008 15/14 A2987 RMK SF2SC6 SLP115

CYYG;2009-08-31 11:00;CYYG 311100Z 22006KT 15SM BKN006 15/14 A2988 RMK SF7 SLP118

CYYG;2009-08-31 12:00;CYYG 311200Z 23011KT 15SM OVC007 15/14 A2988 RMK SF8 SLP120

CYYG;2009-08-31 12:35;CYYG 311235Z 25009G15KT 15SM OVC010 16/ RMK SC8

CYYG;2009-08-31 13:00;CYYG 311300Z 23012KT 15SM OVC008 16/15 A2988 RMK SC8 SLP119

CYYG;2009-08-31 13:54;CYYG 311354Z 24008KT 15SM BKN005 OVC010 16/ RMK SC7SC1

CYYG;2009-08-31 14:00;CYYG 311400Z 24011KT 15SM BKN005 OVC010 16/15 A2988 RMK SC7SC1 SLP120

CYYG;2009-08-31 14:29;CYYG 311429Z 24008KT 15SM SCT005 OVC010 16/ RMK SC3SC5 SHRA E

CYYG;2009-08-31 15:00;CYYG 311500Z 25009KT 15SM FEW005 OVC009 16/15 A2989 RMK SC2SC6 SLP121

CYYG;2009-08-31 16:00;CYYG 311600Z 24010KT 15SM FEW005 BKN011 OVC020 17/15 A2989 RMK SC2SC6SC1 SLP122

CYYG;2009-08-31 17:00;CYYG 311700Z 23013KT 15SM SCT015 BKN020 18/15 A2989 RMK SC4SC3 CU ASOCTD SLP123

CYYG;2009-08-31 18:00;CYYG 311800Z 25012KT 15SM SCT018 BKN027 19/15 A2990 RMK SC3CU3 SLP124

CYYG;2009-08-31 19:00;CYYG 311900Z 25010KT 15SM BKN025 BKN230 20/15 A2988 RMK CU5CI0 SLP119

CYYG;2009-08-31 20:00;CYYG 312000Z 24009KT 15SM BKN030 BKN050 BKN230 20/15 A2988 RMK CU5SC1CI0 SLP120

CYYG;2009-08-31 21:00;CYYG 312100Z 24011KT 15SM SCT030 SCT050 BKN230 20/15 A2989 RMK CU3SC1CI2 CC ASOCTD SLP122

CYYG;2009-08-31 21:38;CYYG 312138Z 27011KT 15SM -SHRA BKN030 BKN059 BKN230 18/ RMK SC5SC2CI1

CYYG;2009-08-31 22:00;CYYG 312200Z 28007KT 15SM BKN031 BKN059 BKN230 18/15 A2991 RMK CU5SC2CI1 SLP129

CYYG;2009-08-31 23:00;CYYG 312300Z 31009G16KT 15SM BKN038 BKN230 17/12 A2993 RMK SC5CI1 SLP136

CYYG;2009-09-01 01:00;CYYG 010100Z 28007KT 15SM FEW050 SCT250 14/10 A3000 RMK SC1CI1 SLP158

CYYG;2009-09-01 02:00;CYYG 010200Z 28005KT 15SM FEW250 12/09 A3001 RMK CI1 SLP162

CYYG;2009-09-01 03:00;CYYG 010300Z 28005KT 15SM SCT047 BKN250 12/09 A3001 RMK SC2CI2 SLP164

CYYG;2009-09-01 04:00;CYYG 010400Z 25004KT 15SM FEW250 11/09 A3002 RMK CI1 SLP166

CYYG;2009-09-01 05:00;CYYG 010500Z 28005KT 15SM FEW250 10/08 A3002 RMK CI1 SLP167

CYYG;2009-09-01 06:00;CYYG 010600Z 27006KT 15SM FEW250 10/08 A3002 RMK CI1 SLP166

CYYG;2009-09-01 07:00;CYYG 010700Z 27006KT 15SM FEW250 10/08 A3003 RMK CI1 SLP169

CYYG;2009-09-01 08:00;CYYG 010800Z 28009KT 15SM SKC 10/09 A3004 RMK SLP172

CYYG;2009-09-01 09:00;CYYG 010900Z 28007KT 15SM SCT250 10/09 A3005 RMK CI2 SLP176

CYYG;2009-09-01 10:00;CYYG 011000Z 28008KT 15SM FEW030 SCT250 10/09 A3007 RMK SC1CI1 SLP183

CYYG;2009-09-01 11:00;CYYG 011100Z 29007KT 15SM FEW020 BKN250 12/10 A3009 RMK SC1CI1 SLP191

CYYG;2009-09-01 12:00;CYYG 011200Z 29008G15KT 15SM FEW020 BKN250 14/11 A3011 RMK SC1CI1 SLP197

CYYG;2009-09-01 13:00;CYYG 011300Z 32010G15KT 15SM BKN020 BKN250 15/11 A3012 RMK SC5CI0 G21 PST HR SLP202

CYYG;2009-09-01 14:00;CYYG 011400Z 33011G18KT 15SM FEW025 SCT250 15/10 A3013 RMK SC2CI1 SLP204

CYYG;2009-09-01 15:00;CYYG 011500Z 34011G16KT 15SM FEW028 FEW250 16/10 A3014 RMK CU1CI1 SLP209

CYYG;2009-09-01 16:00;CYYG 011600Z 34009KT 15SM FEW015 FEW030 FEW250 17/09 A3014 RMK CF1CU1CI1 SLP209

CYYG;2009-09-01 17:00;CYYG 011700Z 35010G16KT 15SM FEW030 FEW250 17/07 A3016 RMK CU1CI1 SLP213

CYYG;2009-09-01 18:00;CYYG 011800Z 35008KT 15SM FEW030 FEW250 17/09 A3016 RMK CU1CI1 SLP215

CYYG;2009-09-01 19:00;CYYG 011900Z 33009KT 15SM FEW030 FEW250 17/08 A3017 RMK CF1CI1 SLP219

CYYG;2009-09-01 20:00;CYYG 012000Z 35006KT 15SM FEW030 FEW250 17/05 A3018 RMK CF1CI1 SLP221

CYYG;2009-09-01 21:00;CYYG 012100Z 36004KT 15SM FEW030 FEW250 17/07 A3018 RMK CF1CI1 SLP221

CYYG;2009-09-01 22:00;CYYG 012200Z 02003KT 15SM FEW250 15/08 A3019 RMK CI1 SLP223

CYYG;2009-09-01 23:00;CYYG 012300Z 17002KT 15SM FEW250 15/08 A3020 RMK CI1 SLP226

CYYG;2009-09-02 00:00;CYYG 020000Z 15002KT 15SM FEW250 12/08 A3021 RMK CI1 SLP231

CYYG;2009-09-02 01:00;CYYG 020100Z 00000KT 15SM SKC 10/08 A3022 RMK SLP233

CYYG;2009-09-02 02:00;CYYG 020200Z 22003KT 15SM SKC 13/08 A3022 RMK SLP235

CYYG;2009-09-02 03:00;CYYG 020300Z 22005KT 15SM SKC 13/10 A3023 RMK SLP236

CYYG;2009-09-02 04:00;CYYG 020400Z 22005KT 15SM SKC 13/10 A3023 RMK SLP236

CYYG;2009-09-02 05:00;CYYG 020500Z 21005KT 15SM SKC 13/10 A3022 RMK SLP235

CYYG;2009-09-02 06:00;CYYG 020600Z 21006KT 15SM FEW077 13/10 A3021 RMK AC2 SLP232

CYYG;2009-09-02 07:00;CYYG 020700Z 22005KT 15SM FEW077 13/11 A3021 RMK AC1 SLP232

CYYG;2009-09-02 08:00;CYYG 020800Z 23005KT 15SM FEW077 13/11 A3021 RMK AC1 SLP230

CYYG;2009-09-02 09:00;CYYG 020900Z 23005KT 15SM FEW077 12/11 A3021 RMK AC1 SLP231

CYYG;2009-09-02 10:00;CYYG 021000Z 25007KT 15SM FEW077 13/12 A3021 RMK AC1 SLP232

CYYG;2009-09-02 11:00;CYYG 021100Z 25006KT 15SM FEW300 14/13 A3023 RMK CI1 SLP237

CYYG;2009-09-02 12:00;CYYG 021200Z 25008KT 15SM FEW300 16/13 A3023 RMK CI1 SLP237

CYYG;2009-09-02 13:00;CYYG 021300Z 27005KT 15SM SCT300 18/13 A3023 RMK CI1 WND ESTD SLP237

CYYG;2009-09-02 14:00;CYYG 021400Z 23008KT 15SM FEW300 19/13 A3023 RMK CI1 SLP237

CYYG;2009-09-02 15:00;CYYG 021500Z 25010KT 15SM FEW300 20/12 A3022 RMK CI1 SLP234

CYYG;2009-09-02 16:00;CYYG 021600Z 23011G17KT 15SM SCT300 21/11 A3020 RMK CI1 SLP228

CYYG;2009-09-02 17:00;CYYG 021700Z 24010G18KT 15SM BKN300 22/11 A3019 RMK CI1 SLP225

CYYG;2009-09-02 18:00;CYYG 021800Z 23013G20KT 15SM BKN300 22/10 A3018 RMK CI2 SLP219

CYYG;2009-09-02 19:00;CYYG 021900Z 25012KT 15SM BKN300 23/11 A3016 RMK CI2 SLP214

CYYG;2009-09-02 20:00;CYYG 022000Z 24011G18KT 15SM BKN300 22/11 A3016 RMK CI2 SLP212

CYYG;2009-09-02 21:00;CYYG 022100Z 23010G16KT 15SM BKN300 21/12 A3014 RMK CI2 SLP207

CYYG;2009-09-02 22:00;CYYG 022200Z 23010KT 15SM BKN300 20/11 A3014 RMK CI2 SLP205

CYYG;2009-09-02 23:00;CYYG 022300Z 23008KT 15SM FEW150 SCT300 19/12 A3014 RMK AC1CI0 SLP205

CYYG;2009-09-03 00:00;CYYG 030000Z 23012G17KT 15SM FEW150 SCT300 18/10 A3014 RMK AC1CI0 SLP205

CYYG;2009-09-03 01:00;CYYG 030100Z 23011KT 15SM FEW150 17/10 A3014 RMK AC1 SLP205

CYYG;2009-09-03 02:00;CYYG 030200Z 23009KT 15SM FEW150 16/10 A3014 RMK AC2 SLP206

CYYG;2009-09-03 03:00;CYYG 030300Z 23011KT 15SM FEW150 16/10 A3013 RMK AC1 SLP202

CYYG;2009-09-03 04:00;CYYG 030400Z 23009G16KT 15SM SKC 16/11 A3011 RMK SLP197

CYYG;2009-09-03 05:00;CYYG 030500Z 23008KT 15SM SKC 15/11 A3011 RMK SLP195

CYYG;2009-09-03 06:00;CYYG 030600Z 23010G16KT 15SM SKC 15/11 A3009 RMK SLP190

CYYG;2009-09-03 07:00;CYYG 030700Z 23009KT 15SM SKC 15/12 A3009 RMK SLP188

CYYG;2009-09-03 08:00;CYYG 030800Z 23007KT 15SM SKC 15/12 A3009 RMK SLP188

CYYG;2009-09-03 09:00;CYYG 030900Z 23010KT 15SM FEW230 15/13 A3008 RMK CI1 SLP185

CYYG;2009-09-03 10:00;CYYG 031000Z 23010KT 15SM FEW230 15/13 A3007 RMK CI0 SLP183

CYYG;2009-09-03 11:00;CYYG 031100Z 24012KT 15SM FEW015 FEW300 15/13 A3007 RMK SC1CI0 SLP183

CYYG;2009-09-03 11:35;CYYG 031135Z 25010G16KT 15SM FEW007 16/ RMK SF1

CYYG;2009-09-03 12:00;CYYG 031200Z 24010KT 15SM FEW007 17/14 A3006 RMK SF1 SLP178

CYYG;2009-09-03 13:00;CYYG 031300Z 24014G19KT 15SM FEW011 18/14 A3006 RMK CF1 SLP178

CYYG;2009-09-03 14:00;CYYG 031400Z 24011G17KT 15SM FEW013 19/15 A3005 RMK CF1 SLP176

CYYG;2009-09-03 15:00;CYYG 031500Z 25013KT 15SM FEW015 20/15 A3004 RMK CF1 SLP174

CYYG;2009-09-03 16:00;CYYG 031600Z 25014KT 15SM SKC 21/15 A3003 RMK SLP169

CYYG;2009-09-03 17:00;CYYG 031700Z 25015KT 15SM FEW020 22/15 A3001 RMK CF1 SLP163

CYYG;2009-09-03 18:00;CYYG 031800Z 25014G22KT 15SM FEW300 23/15 A2999 RMK CI0 SLP155

CYYG;2009-09-03 19:00;CYYG 031900Z 23013G22KT 15SM FEW300 23/15 A2997 RMK CI1 SLP150

CYYG;2009-09-03 20:00;CYYG 032000Z 24011G18KT 15SM FEW300 23/16 A2997 RMK CI1 SLP148

CYYG;2009-09-03 21:00;CYYG 032100Z 25013G18KT 15SM SCT300 22/15 A2996 RMK CI1 SLP146

CYYG;2009-09-03 22:00;CYYG 032200Z 24011KT 15SM SCT300 21/15 A2997 RMK CI1 SLP148

CYYG;2009-09-03 23:00;CYYG 032300Z 25007KT 15SM SCT300 19/14 A2997 RMK CI2 SLP149

CYYG;2009-09-04 00:00;CYYG 040000Z 25013KT 15SM FEW300 19/13 A2998 RMK CI1 SLP152

CYYG;2009-09-04 01:00;CYYG 040100Z 24010G15KT 15SM SKC 18/14 A2998 RMK SLP153

CYYG;2009-09-04 02:00;CYYG 040200Z 24008G15KT 15SM SKC 17/14 A2998 RMK SLP153

CYYG;2009-09-04 03:00;CYYG 040300Z 24007KT 15SM SKC 16/14 A2997 RMK SLP150

CYYG;2009-09-04 04:00;CYYG 040400Z 24006KT 15SM SKC 16/14 A2997 RMK SLP149

CYYG;2009-09-04 05:00;CYYG 040500Z 25006KT 15SM SKC 16/14 A2996 RMK SLP146

CYYG;2009-09-04 06:00;CYYG 040600Z 25007KT 15SM SKC 16/14 A2995 RMK SLP141

CYYG;2009-09-04 07:00;CYYG 040700Z 24008KT 15SM SKC 15/14 A2995 RMK SLP141

CYYG;2009-09-04 08:00;CYYG 040800Z 25009KT 15SM SKC 15/14 A2994 RMK SLP139

CYYG;2009-09-04 09:00;CYYG 040900Z 24008KT 15SM FEW300 15/14 A2993 RMK CI0 SLP137

CYYG;2009-09-04 10:00;CYYG 041000Z 25008KT 15SM FEW020 FEW240 15/14 A2994 RMK SF1CI0 SLP138

CYYG;2009-09-04 11:00;CYYG 041100Z 25008KT 15SM FEW020 FEW250 16/15 A2994 RMK SF1CI0 SLP138

CYYG;2009-09-04 12:00;CYYG 041200Z 25009KT 15SM FEW010 FEW250 17/15 A2995 RMK SF1CI1 SLP142

CYYG;2009-09-04 13:00;CYYG 041300Z 24007KT 15SM FEW015 FEW250 18/15 A2994 RMK SC1CI1 SLP139

CYYG;2009-09-04 14:00;CYYG 041400Z 26009KT 15SM FEW015 FEW250 20/15 A2994 RMK SC1CI1 SLP138

CYYG;2009-09-04 15:00;CYYG 041500Z 29010KT 15SM FEW015 FEW250 21/16 A2993 RMK SC1CI1 SLP137

CYYG;2009-09-04 16:00;CYYG 041600Z 26007KT 15SM FEW015 FEW250 23/17 A2993 RMK SC1CI1 SLP135

CYYG;2009-09-04 17:00;CYYG 041700Z 26008KT 15SM FEW025 FEW250 23/16 A2992 RMK SC1CI1 SLP133

CYYG;2009-09-04 18:00;CYYG 041800Z 27008KT 15SM FEW035 SCT250 23/15 A2993 RMK CU2CI0 SLP134

CYYG;2009-09-04 19:00;CYYG 041900Z 35006KT 15SM FEW040 SCT250 23/16 A2992 RMK CU2CI0 SLP133

CYYG;2009-09-04 20:00;CYYG 042000Z 36002KT 15SM FEW040 SCT250 22/16 A2993 RMK CU2CI0 SLP134

CYYG;2009-09-04 21:00;CYYG 042100Z 33002KT 15SM FEW040 SCT250 23/15 A2993 RMK SC2CI0 SLP136

CYYG;2009-09-04 22:00;CYYG 042200Z 01003KT 15SM FEW040 FEW070 SCT250 20/15 A2994 RMK SC1ACC2CI0 SLP138

CYYG;2009-09-04 23:00;CYYG 042300Z 13002KT 15SM FEW030 BKN070 18/14 A2994 RMK SC2AC2 SLP140

CYYG;2009-09-05 00:00;CYYG 050000Z 00000KT 15SM FEW030 BKN080 17/15 A2996 RMK SC2AC3 SLP145

CYYG;2009-09-05 01:00;CYYG 050100Z 33002KT 15SM FEW030 SCT070 16/14 A2997 RMK SC1AC2 SLP149

CYYG;2009-09-05 02:00;CYYG 050200Z 01007KT 15SM FEW010 BKN030 BKN080 17/15 A2999 RMK SF1SC4AC2 SLP156

CYYG;2009-09-05 02:16;CYYG 050216Z 05009KT 15SM FEW005 BKN030 BKN080 17/ RMK SF2SC5AC1

CYYG;2009-09-05 03:00;CYYG 050300Z 04008KT 15SM FEW006 BKN030 BKN080 16/15 A3000 RMK SF2SC4AC1 SLP159

CYYG;2009-09-05 04:00;CYYG 050400Z 04008KT 15SM FEW007 BKN030 BKN080 15/12 A3001 RMK SF1SC4AC1 SLP161

CYYG;2009-09-05 05:00;CYYG 050500Z 05006KT 15SM FEW007 SCT030 13/11 A3001 RMK SF1SC2 SLP161

CYYG;2009-09-05 06:00;CYYG 050600Z 04005KT 15SM FEW007 SCT030 12/10 A3000 RMK SF2SC2 SLP159

CYYG;2009-09-05 07:00;CYYG 050700Z 36004KT 15SM SKC 12/09 A3000 RMK SLP159

CYYG;2009-09-05 08:00;CYYG 050800Z 36003KT 15SM SKC 09/09 A3001 RMK SLP163

CYYG;2009-09-05 09:00;CYYG 050900Z 34005KT 15SM FEW240 09/08 A3002 RMK CI0 SLP165

CYYG;2009-09-05 10:00;CYYG 051000Z 36004KT 15SM FEW240 10/09 A3002 RMK CI0 SLP167

CYYG;2009-09-05 11:00;CYYG 051100Z 34004KT 15SM FEW100 FEW240 13/10 A3004 RMK AC1CI0 AC TR TCU TOPS NW SLP171

CYYG;2009-09-05 12:00;CYYG 051200Z 01006KT 15SM FEW020 FEW240 16/11 A3004 RMK CU1CI0 CU TR SLP173

CYYG;2009-09-05 13:00;CYYG 051300Z 36008KT 15SM FEW020 17/11 A3005 RMK CU1 SLP176

CYYG;2009-09-05 14:00;CYYG 051400Z 34008KT 15SM FEW020 17/10 A3006 RMK CU1 OBS TAKEN +10 SLP180

CYYG;2009-09-05 15:00;CYYG 051500Z 34008KT 15SM FEW030 18/10 A3006 RMK CU2 SLP179

CYYG;2009-09-05 16:00;CYYG 051600Z 34007KT 15SM FEW030 SCT040 19/09 A3006 RMK CU2SC1 SLP178

CYYG;2009-09-05 17:00;CYYG 051700Z 35009KT 15SM FEW030 SCT046 18/07 A3006 RMK CU1SC3 SLP178

CYYG;2009-09-05 18:00;CYYG 051800Z 02008KT 15SM FEW030 BKN049 17/10 A3005 RMK CU1SC4 SLP177

CYYG;2009-09-05 19:00;CYYG 051900Z 35008KT 15SM FEW030 SCT049 18/10 A3005 RMK CU1SC2 SLP175

CYYG;2009-09-05 20:00;CYYG 052000Z 36008KT 15SM FEW030 FEW050 17/09 A3005 RMK CU1SC2 SLP176

CYYG;2009-09-05 21:00;CYYG 052100Z 36007KT 15SM FEW030 SCT050 16/10 A3005 RMK CU1SC2 SLP178

CYYG;2009-09-05 22:00;CYYG 052200Z 01005KT 15SM FEW030 FEW050 15/11 A3005 RMK CU1SC2 SLP178

CYYG;2009-09-05 23:00;CYYG 052300Z 00000KT 15SM FEW030 SCT070 13/11 A3007 RMK SC1AC2 SLP184

CYYG;2009-09-06 00:00;CYYG 060000Z 00000KT 15SM FEW030 BKN080 13/11 A3009 RMK SC2AC5 SLP189

CYYG;2009-09-06 01:00;CYYG 060100Z 34003KT 15SM FEW030 BKN082 13/11 A3010 RMK SC2AC5 SLP194

CYYG;2009-09-06 02:00;CYYG 060200Z 31003KT 15SM FEW030 BKN068 13/11 A3011 RMK SC2AC5 SLP196

CYYG;2009-09-06 03:00;CYYG 060300Z 30005KT 15SM FEW030 BKN073 12/11 A3012 RMK SC1AC6 SLP199

CYYG;2009-09-06 03:27;CYYG 060327Z 30005KT 15SM -SHRA BKN022 OVC060 12/ RMK SC6SC2

CYYG;2009-09-06 04:00;CYYG 060400Z 31004KT 15SM -SHRA BKN022 OVC060 12/11 A3012 RMK SC6SC2 SLP201

CYYG;2009-09-06 05:00;CYYG 060500Z 01005KT 15SM -SHRA BKN022 OVC060 12/10 A3013 RMK SC5SC3 SLP204

CYYG;2009-09-06 06:00;CYYG 060600Z 35004KT 15SM SCT022 OVC100 12/10 A3014 RMK SC3AC5 SLP209

CYYG;2009-09-06 07:00;CYYG 060700Z 34006KT 15SM BKN022 BKN080 12/10 A3016 RMK SC5AC2 SLP213

CYYG;2009-09-06 08:00;CYYG 060800Z 35006KT 15SM FEW020 BKN054 12/09 A3018 RMK SC2SC6 SLP222

CYYG;2009-09-06 09:00;CYYG 060900Z 35006KT 15SM FEW020 SCT054 12/09 A3020 RMK SC2SC2 SLP229

CYYG;2009-09-06 10:00;CYYG 061000Z 35005KT 15SM SCT022 12/09 A3023 RMK CU4 SLP237

CYYG;2009-09-06 11:00;CYYG 061100Z 36010KT 15SM SCT022 13/08 A3025 RMK CU4 SLP246

CYYG;2009-09-06 12:00;CYYG 061200Z 35009KT 15SM SCT020 14/10 A3027 RMK CU3 SLP252

CYYG;2009-09-06 13:00;CYYG 061300Z 01014G20KT 15SM BKN026 14/08 A3030 RMK CU6 SLP262

CYYG;2009-09-06 14:00;CYYG 061400Z 01011G21KT 15SM BKN025 15/09 A3033 RMK CU5 SLP270

CYYG;2009-09-06 15:00;CYYG 061500Z 01013G20KT 15SM BKN025 15/09 A3034 RMK CU5 SLP276

CYYG;2009-09-06 16:00;CYYG 061600Z 03015KT 15SM SCT025 16/06 A3036 RMK SC4 SLP281

CYYG;2009-09-06 17:00;CYYG 061700Z 02012G17KT 15SM SCT025 15/05 A3037 RMK SC3 SLP285

CYYG;2009-09-06 18:00;CYYG 061800Z 03012KT 15SM FEW040 15/05 A3038 RMK SC2 SLP289

CYYG;2009-09-06 19:00;CYYG 061900Z 02009KT 15SM FEW040 14/05 A3038 RMK SC2 SLP288

CYYG;2009-09-06 20:00;CYYG 062000Z 34006KT 15SM FEW040 14/05 A3038 RMK CU1 SLP289

CYYG;2009-09-06 21:00;CYYG 062100Z 33005KT 15SM SKC 13/04 A3038 RMK SLP289

CYYG;2009-09-06 22:00;CYYG 062200Z 34004KT 15SM SKC 12/04 A3037 RMK SLP284

CYYG;2009-09-06 23:00;CYYG 062300Z 27003KT 15SM SKC 11/04 A3038 RMK SLP288

CYYG;2009-09-07 00:00;CYYG 070000Z 27003KT 15SM SKC 09/05 A3039 RMK SLP290

CYYG;2009-09-07 01:00;CYYG 070100Z 24002KT 15SM SKC 08/04 A3038 RMK SLP287

CYYG;2009-09-07 02:00;CYYG 070200Z 23003KT 15SM SKC 09/05 A3036 RMK SLP283

CYYG;2009-09-07 03:00;CYYG 070300Z 23005KT 15SM SKC 08/06 A3036 RMK SLP281

CYYG;2009-09-07 04:00;CYYG 070400Z 21004KT 15SM SKC 08/06 A3035 RMK SLP277

CYYG;2009-09-07 05:00;CYYG 070500Z 23005KT 15SM SKC 08/06 A3034 RMK SLP276

CYYG;2009-09-07 06:00;CYYG 070600Z 23005KT 15SM SKC 09/07 A3033 RMK SLP272

CYYG;2009-09-07 07:00;CYYG 070700Z 24005KT 15SM SKC 09/07 A3031 RMK SLP266

CYYG;2009-09-07 08:00;CYYG 070800Z 25006KT 15SM SKC 11/09 A3031 RMK SLP265

CYYG;2009-09-07 09:00;CYYG 070900Z 25005KT 15SM SKC 11/09 A3031 RMK SLP263

CYYG;2009-09-07 10:00;CYYG 071000Z 25006KT 15SM SKC 11/09 A3030 RMK SLP260

CYYG;2009-09-07 11:00;CYYG 071100Z 24007KT 15SM SKC 13/10 A3028 RMK SLP256

CYYG;2009-09-07 12:00;CYYG 071200Z 25007KT 15SM FEW280 15/11 A3028 RMK CI0 SLP253

CYYG;2009-09-07 13:00;CYYG 071300Z 25013KT 15SM FEW030 FEW280 16/09 A3025 RMK CU1CI0 SLP246

CYYG;2009-09-07 14:00;CYYG 071400Z 25013KT 15SM FEW030 FEW280 16/09 A3023 RMK CU1CI1 SLP239

CYYG;2009-09-07 15:00;CYYG 071500Z 25011G24KT 15SM FEW030 SCT280 17/09 A3021 RMK CU1CI2 SLP232

CYYG;2009-09-07 16:00;CYYG 071600Z 23016G28KT 15SM FEW030 SCT280 18/07 A3019 RMK CU1CI2 SLP224

CYYG;2009-09-07 17:00;CYYG 071700Z 25014G22KT 15SM FEW030 SCT280 19/07 A3017 RMK CU1CI2 SLP218

CYYG;2009-09-07 18:00;CYYG 071800Z 25018G27KT 15SM FEW030 SCT280 18/06 A3015 RMK CU1CI2 SLP211

CYYG;2009-09-07 19:00;CYYG 071900Z 23015G28KT 15SM FEW030 SCT280 19/05 A3012 RMK CU1CI2 SLP202

CYYG;2009-09-07 20:00;CYYG 072000Z 25016G22KT 15SM SCT280 18/05 A3011 RMK CI2 SLP198

CYYG;2009-09-07 21:00;CYYG 072100Z 24014G22KT 15SM SCT280 18/08 A3009 RMK CI2 SLP192

CYYG;2009-09-07 22:00;CYYG 072200Z 25013G19KT 15SM SCT280 17/07 A3009 RMK CI2 SLP190

CYYG;2009-09-07 23:00;CYYG 072300Z 25012G17KT 15SM BKN280 15/05 A3009 RMK CI2 SLP189

CYYG;2009-09-08 00:00;CYYG 080000Z CCA 24011G16KT 15SM SCT250 14/06 A3009 RMK CI2 SLP189

CYYG;2009-09-08 01:00;CYYG 080100Z 23011G16KT 15SM FEW250 14/08 A3007 RMK CI1 SLP184

CYYG;2009-09-08 02:00;CYYG 080200Z 24010G15KT 15SM FEW250 13/10 A3007 RMK CI1 SLP183

CYYG;2009-09-08 03:00;CYYG 080300Z 24008KT 15SM FEW250 13/11 A3005 RMK CI1 SLP177

CYYG;2009-09-08 04:00;CYYG 080400Z 25014KT 15SM SKC 13/12 A3004 RMK SLP174

CYYG;2009-09-08 05:00;CYYG 080500Z 24010G15KT 15SM SKC 13/12 A3004 RMK SLP172

CYYG;2009-09-08 06:00;CYYG 080600Z 24009KT 15SM FEW040 13/12 A3003 RMK SC1 SLP168

CYYG;2009-09-08 07:00;CYYG 080700Z 24007KT 15SM FEW010 FEW040 13/12 A3002 RMK SF1SC2 SLP166

CYYG;2009-09-08 08:00;CYYG 080800Z 24008KT 15SM FEW010 FEW040 FEW120 13/12 A3001 RMK SF1SC1AC1 SLP161

CYYG;2009-09-08 09:00;CYYG 080900Z 25009KT 15SM FEW010 FEW120 SCT250 13/12 A3000 RMK SC1AC2CI0 SLP160

CYYG;2009-09-08 10:00;CYYG 081000Z 26009KT 15SM FEW010 FEW120 FEW250 13/13 A3000 RMK SC1AC2CI0 SLP159

CYYG;2009-09-08 11:00;CYYG 081100Z 26010KT 15SM FEW010 FEW100 FEW120 14/13 A3000 RMK SC1AC1AC1 SLP159

CYYG;2009-09-08 12:00;CYYG 081200Z 27011G17KT 15SM FEW010 BKN100 BKN150 16/14 A3001 RMK SC2AC3AC1 SLP162

CYYG;2009-09-08 12:54;CYYG 081254Z 27009KT 15SM -SHRA FEW010 FEW063 BKN074 16/ RMK SC1SC2AC4

CYYG;2009-09-08 13:00;CYYG 081300Z 27009KT 15SM -SHRA FEW010 FEW063 BKN074 16/13 A3001 RMK SC1SC2AC4 SLP161

CYYG;2009-09-08 13:41;CYYG 081341Z 27007KT 15SM FEW010 BKN042 BKN063 16/ RMK SC1SC4SC2

CYYG;2009-09-08 14:00;CYYG 081400Z 25006KT 15SM FEW010 BKN047 BKN072 16/14 A2999 RMK SC1SC4AC2 SLP157

CYYG;2009-09-08 15:00;CYYG 081500Z 22006KT 15SM FEW013 SCT040 BKN054 18/14 A2999 RMK SC2SC2SC3 SLP157

CYYG;2009-09-08 16:00;CYYG 081600Z 30009KT 15SM SCT018 BKN058 BKN079 20/15 A2998 RMK CU3SC2AC1 SLP153

CYYG;2009-09-08 17:00;CYYG 081700Z 29007KT 15SM FEW025 SCT062 BKN076 20/15 A2998 RMK CU2SC1AC2 SLP152

CYYG;2009-09-08 18:00;CYYG 081800Z 31009KT 15SM FEW030 SCT064 BKN250 21/14 A2997 RMK CU2SC2CI0 SLP150

CYYG;2009-09-08 19:00;CYYG 081900Z 33009KT 15SM BKN035 BKN056 BKN190 19/14 A2997 RMK SC5SC1AC1 SLP149

CYYG;2009-09-08 20:00;CYYG 082000Z 34010G15KT 15SM FEW035 BKN180 19/13 A2997 RMK SC1AC5 SLP148

CYYG;2009-09-08 21:00;CYYG 082100Z 35009G15KT 15SM FEW010 FEW035 SCT180 18/14 A2998 RMK SF1SC1AC2 SLP151

CYYG;2009-09-08 22:00;CYYG 082200Z 36006KT 15SM FEW010 FEW035 FEW180 16/14 A2998 RMK SF1SC1AC1 SLP154

CYYG;2009-09-08 23:00;CYYG 082300Z 02003KT 15SM FEW010 FEW035 FEW250 14/13 A3001 RMK SF1SC1CI0 SLP162

CYYG;2009-09-09 00:00;CYYG 090000Z 02004KT 15SM FEW035 FEW250 12/11 A3002 RMK SC1CI1 SLP167

CYYG;2009-09-09 01:00;CYYG 090100Z 34003KT 15SM SKC 11/10 A3004 RMK SLP173

CYYG;2009-09-09 02:00;CYYG 090200Z 01004KT 15SM SKC 10/09 A3006 RMK SLP178

CYYG;2009-09-09 03:00;CYYG 090300Z 36004KT 15SM SKC 10/09 A3006 RMK SLP182

CYYG;2009-09-09 04:00;CYYG 090400Z 33003KT 15SM SKC 09/09 A3007 RMK SLP183

CYYG;2009-09-09 05:00;CYYG 090500Z 32004KT 15SM SKC 09/08 A3008 RMK SLP186

CYYG;2009-09-09 06:00;CYYG 090600Z 32004KT 15SM SKC 09/09 A3008 RMK SLP186

CYYG;2009-09-09 07:00;CYYG 090700Z 32005KT 15SM SKC 10/09 A3008 RMK SLP187

CYYG;2009-09-09 08:00;CYYG 090800Z 32005KT 15SM SKC 10/09 A3009 RMK SLP191

CYYG;2009-09-09 09:00;CYYG 090900Z 34004KT 15SM FEW040 10/09 A3011 RMK SC1 SLP197

CYYG;2009-09-09 10:00;CYYG 091000Z 02004KT 15SM FEW040 FEW250 10/07 A3013 RMK SC1CI1 SLP203

CYYG;2009-09-09 11:00;CYYG 091100Z 01004KT 15SM FEW040 FEW250 12/07 A3015 RMK SC1CI1 SLP210

CYYG;2009-09-09 12:00;CYYG 091200Z 01009KT 15SM FEW020 FEW250 14/08 A3017 RMK CU1CI1 SLP216

CYYG;2009-09-09 13:00;CYYG 091300Z 01010G19KT 15SM FEW020 FEW250 14/08 A3018 RMK CU1CI1 SLP220

CYYG;2009-09-09 14:00;CYYG 091400Z 02015G20KT 15SM FEW039 14/06 A3019 RMK CU2 SLP225

CYYG;2009-09-09 15:00;CYYG 091500Z 02013G21KT 15SM SCT039 14/06 A3022 RMK CU3 SLP234

CYYG;2009-09-09 16:00;CYYG 091600Z 02016KT 15SM SCT041 14/05 A3023 RMK CU4 SLP236

CYYG;2009-09-09 17:00;CYYG 091700Z 02012G17KT 15SM SCT039 14/06 A3023 RMK CU3 SLP238

CYYG;2009-09-09 18:00;CYYG 091800Z 36011G16KT 15SM FEW038 14/06 A3025 RMK CU2 SLP244

CYYG;2009-09-09 19:00;CYYG 091900Z 01010G17KT 15SM FEW038 14/06 A3026 RMK CU2 SLP249

CYYG;2009-09-09 20:00;CYYG 092000Z 36011G18KT 15SM SCT040 13/04 A3028 RMK CU3 SLP255

CYYG;2009-09-09 21:00;CYYG 092100Z 01012KT 15SM FEW040 13/04 A3030 RMK CU2 SLP262

CYYG;2009-09-09 22:00;CYYG 092200Z 01007KT 15SM FEW040 11/04 A3033 RMK CU2 SLP270

CYYG;2009-09-09 23:00;CYYG 092300Z 35004KT 15SM FEW040 09/04 A3035 RMK SC2 SLP277

CYYG;2009-09-10 00:00;CYYG 100000Z 01003KT 15SM FEW040 08/04 A3036 RMK SC1 SLP283

CYYG;2009-09-10 01:00;CYYG 100100Z 02003KT 15SM FEW040 09/05 A3038 RMK SC2 SLP289

CYYG;2009-09-10 02:00;CYYG 100200Z 01003KT 15SM FEW040 08/05 A3039 RMK SC2 SLP292

CYYG;2009-09-10 03:00;CYYG 100300Z 32002KT 15SM FEW030 06/05 A3040 RMK SC2 SLP295

CYYG;2009-09-10 04:00;CYYG 100400Z 31003KT 15SM FEW035 05/04 A3041 RMK SC2 SLP300

CYYG;2009-09-10 05:00;CYYG 100500Z 28002KT 15SM FEW035 05/04 A3042 RMK SC1 SLP304

CYYG;2009-09-10 06:00;CYYG 100600Z 31003KT 15SM SKC 05/04 A3044 RMK SLP309

CYYG;2009-09-10 07:00;CYYG 100700Z 32004KT 15SM SKC 05/04 A3045 RMK SLP313

CYYG;2009-09-10 08:00;CYYG 100800Z 27004KT 15SM SKC 06/04 A3046 RMK SLP316

CYYG;2009-09-10 09:00;CYYG 100900Z 29004KT 15SM FEW040 FEW250 07/05 A3047 RMK SC1CI1 SLP319

CYYG;2009-09-10 10:00;CYYG 101000Z 30004KT 15SM FEW040 SCT250 07/05 A3048 RMK SC1CI1 SLP323

CYYG;2009-09-10 11:00;CYYG 101100Z 32004KT 15SM FEW040 FEW250 08/06 A3050 RMK SC1CI0 SLP328

CYYG;2009-09-10 12:00;CYYG 101200Z 30004KT 15SM FEW040 12/08 A3051 RMK SC1 SLP333

CYYG;2009-09-10 13:00;CYYG 101300Z 30009KT 15SM FEW040 14/08 A3053 RMK SC1 SLP339

CYYG;2009-09-10 14:00;CYYG 101400Z 33008KT 15SM SCT037 15/08 A3053 RMK SC4 SLP341

CYYG;2009-09-10 15:00;CYYG 101500Z 31007KT 15SM SCT038 15/08 A3052 RMK SC2 SLP338

CYYG;2009-09-10 16:00;CYYG 101600Z 30005KT 15SM FEW038 16/08 A3052 RMK CU2 SLP335

CYYG;2009-09-10 17:00;CYYG 101700Z 29006KT 15SM FEW038 17/07 A3051 RMK CU2 SLP333

CYYG;2009-09-10 18:00;CYYG 101800Z 29007KT 15SM FEW035 17/08 A3050 RMK SC1 SLP331

CYYG;2009-09-10 19:00;CYYG 101900Z 26008KT 15SM FEW035 17/05 A3049 RMK SC1 SLP327

CYYG;2009-09-10 20:00;CYYG 102000Z 24006KT 15SM FEW300 16/07 A3047 RMK CI0 SLP321

CYYG;2009-09-10 21:00;CYYG 102100Z 27005KT 15SM FEW300 16/07 A3047 RMK CI0 SLP319

CYYG;2009-09-10 22:00;CYYG 102200Z 23005KT 15SM FEW300 15/07 A3047 RMK CI1 SLP318

CYYG;2009-09-10 23:00;CYYG 102300Z 21003KT 15SM SKC 14/08 A3047 RMK SLP319

CYYG;2009-09-11 00:00;CYYG 110000Z 22004KT 15SM SKC 12/08 A3047 RMK SLP320

CYYG;2009-09-11 01:00;CYYG 110100Z 21003KT 15SM SKC 11/08 A3047 RMK SLP319

CYYG;2009-09-11 02:00;CYYG 110200Z 23004KT 15SM SKC 11/08 A3046 RMK SLP317

CYYG;2009-09-11 03:00;CYYG 110300Z 23005KT 15SM SKC 10/08 A3045 RMK SLP311

CYYG;2009-09-11 04:00;CYYG 110400Z 24006KT 15SM SKC 10/08 A3044 RMK SLP307

CYYG;2009-09-11 05:00;CYYG 110500Z 25008KT 15SM SKC 11/07 A3044 RMK SLP307

CYYG;2009-09-11 06:00;CYYG 110600Z 26008KT 15SM SKC 11/08 A3043 RMK SLP304

CYYG;2009-09-11 07:00;CYYG 110700Z 25009KT 15SM SKC 11/08 A3042 RMK SLP301

CYYG;2009-09-11 08:00;CYYG 110800Z 25009KT 15SM SKC 11/08 A3040 RMK SLP296

CYYG;2009-09-11 09:00;CYYG 110900Z 25009KT 15SM SCT300 10/06 A3041 RMK CI1 SLP297

CYYG;2009-09-11 10:00;CYYG 111000Z 25009KT 15SM BKN300 10/05 A3040 RMK CI2 CONTRAILS SLP296

CYYG;2009-09-11 11:00;CYYG 111100Z 25009KT 15SM FEW300 11/05 A3041 RMK CI1 SLP299

CYYG;2009-09-11 12:00;CYYG 111200Z 25013KT 15SM SCT300 12/05 A3039 RMK CI2 SLP292

CYYG;2009-09-11 13:00;CYYG 111300Z 25011KT 15SM FEW300 14/08 A3037 RMK CI1 SLP285

CYYG;2009-09-11 14:00;CYYG 111400Z 25011G16KT 15SM SCT300 15/08 A3036 RMK CI2 SLP281

CYYG;2009-09-11 15:00;CYYG 111500Z 25007G16KT 15SM BKN300 16/09 A3034 RMK CI2 SLP275

CYYG;2009-09-11 16:00;CYYG 111600Z 25013KT 15SM BKN300 17/09 A3031 RMK CI2 SLP266

CYYG;2009-09-11 17:00;CYYG 111700Z 24013KT 15SM BKN300 19/10 A3029 RMK CI2 SLP259

CYYG;2009-09-11 18:00;CYYG 111800Z 23011G16KT 15SM BKN300 19/07 A3028 RMK CI3 SLP254

CYYG;2009-09-11 19:00;CYYG 111900Z 26012G17KT 15SM BKN300 19/05 A3026 RMK CI3 SLP248

CYYG;2009-09-11 20:00;CYYG 112000Z 25011KT 15SM BKN300 19/06 A3025 RMK CI4 SLP246

CYYG;2009-09-11 21:00;CYYG 112100Z 24009G15KT 15SM BKN300 18/07 A3024 RMK CI5 SLP241

CYYG;2009-09-11 22:00;CYYG 112200Z 25010KT 15SM BKN240 16/06 A3023 RMK CS5 SLP239

CYYG;2009-09-11 23:00;CYYG 112300Z 25006KT 15SM BKN300 14/06 A3023 RMK CI2 SLP237

CYYG;2009-09-12 00:00;CYYG 120000Z 24006KT 15SM BKN300 13/06 A3023 RMK CI2 SLP238

CYYG;2009-09-12 01:00;CYYG 120100Z 25009KT 15SM BKN300 13/07 A3022 RMK CI2 SLP234

CYYG;2009-09-12 02:00;CYYG 120200Z 25010KT 15SM BKN300 12/09 A3021 RMK CI2 SLP230

CYYG;2009-09-12 03:00;CYYG 120300Z 25008KT 15SM BKN300 12/10 A3020 RMK CI2 SLP226

CYYG;2009-09-12 04:00;CYYG 120400Z 24007KT 15SM BKN300 13/11 A3019 RMK CI2 SLP223

CYYG;2009-09-12 05:00;CYYG 120500Z 25009KT 15SM BKN300 13/10 A3017 RMK CI2 SLP216

CYYG;2009-09-12 06:00;CYYG 120600Z 25010KT 15SM BKN300 12/10 A3015 RMK CI2 SLP211

CYYG;2009-09-12 07:00;CYYG 120700Z 25010KT 15SM BKN300 12/10 A3013 RMK CI2 SLP205

CYYG;2009-09-12 08:00;CYYG 120800Z 25011KT 15SM BKN300 12/10 A3012 RMK CI2 SLP202

CYYG;2009-09-12 09:00;CYYG 120900Z 26009KT 15SM BKN300 12/09 A3012 RMK CI2 SLP200

CYYG;2009-09-12 10:00;CYYG 121000Z 24008KT 15SM BKN330 12/09 A3012 RMK CI2 SLP202

CYYG;2009-09-12 11:00;CYYG 121100Z 25009KT 15SM BKN330 13/10 A3012 RMK CI2 SLP200

CYYG;2009-09-12 12:00;CYYG 121200Z 24004KT 15SM BKN330 14/11 A3012 RMK CI2 SLP200

CYYG;2009-09-12 13:00;CYYG 121300Z 23005KT 15SM BKN330 16/12 A3012 RMK CI2 SLP200

CYYG;2009-09-12 14:00;CYYG 121400Z 23008KT 15SM BKN330 18/13 A3010 RMK CI2 SLP193

CYYG;2009-09-12 15:00;CYYG 121500Z 23005KT 15SM BKN330 20/14 A3008 RMK CI1 SLP187

CYYG;2009-09-12 16:00;CYYG 121600Z 22007KT 15SM FEW030 BKN330 22/14 A3006 RMK SC1CI1 SLP180

CYYG;2009-09-12 17:00;CYYG 121700Z 22008KT 15SM FEW030 BKN330 22/15 A3004 RMK SC1CI1 SLP172

CYYG;2009-09-12 18:00;CYYG 121800Z 24008KT 15SM FEW030 BKN330 22/11 A3003 RMK CU1CI1 SLP168

CYYG;2009-09-12 19:00;CYYG 121900Z 24007KT 15SM FEW030 BKN330 23/13 A3002 RMK SC1CI1 SLP165

CYYG;2009-09-12 20:00;CYYG 122000Z 26005KT 15SM FEW035 BKN330 22/10 A3001 RMK SC1CI1 SLP161

CYYG;2009-09-12 21:00;CYYG 122100Z 22005KT 15SM FEW035 SCT330 22/09 A3001 RMK SC1CC2 SLP161

CYYG;2009-09-12 22:00;CYYG 122200Z 19007KT 15SM FEW200 SCT330 19/13 A3000 RMK CC2CI0 SLP158

CYYG;2009-09-12 23:00;CYYG 122300Z 22003KT 15SM FEW200 17/14 A3000 RMK CC2 SLP158

CYYG;2009-09-13 00:00;CYYG 130000Z 23003KT 15SM FEW200 17/13 A2998 RMK CC2 SLP154

CYYG;2009-09-13 01:00;CYYG 130100Z 22004KT 15SM FEW200 16/13 A2997 RMK CC2 SLP150

CYYG;2009-09-13 02:00;CYYG 130200Z 21006KT 15SM FEW240 16/13 A2997 RMK CC2 SLP149

CYYG;2009-09-13 03:00;CYYG 130300Z 21005KT 15SM FEW240 16/13 A2996 RMK CI2 SLP144

CYYG;2009-09-13 04:00;CYYG 130400Z 20005KT 15SM FEW240 15/13 A2995 RMK CI2 SLP141

CYYG;2009-09-13 05:00;CYYG 130500Z 21005KT 15SM FEW210 15/13 A2993 RMK CI2 SLP135

CYYG;2009-09-13 06:00;CYYG 130600Z 21004KT 15SM FEW210 16/14 A2991 RMK CI2 SLP130

CYYG;2009-09-13 07:00;CYYG 130700Z 23004KT 15SM FEW018 SCT210 16/14 A2990 RMK SC2CI1 SLP126

CYYG;2009-09-13 08:00;CYYG 130800Z 21004KT 15SM SCT020 16/15 A2989 RMK SC4 SLP121

CYYG;2009-09-13 09:00;CYYG 130900Z 20004KT 15SM SCT020 BKN035 16/15 A2988 RMK SC4SC2 SLP119

CYYG;2009-09-13 09:48;CYYG 130948Z 21008KT 3SM -SHRA BR BKN013 OVC030 16/ RMK SC6SC2

CYYG;2009-09-13 10:00;CYYG 131000Z 22008KT 3SM -SHRA BR SCT006 OVC012 16/15 A2987 RMK SF3SC5 SLP116

CYYG;2009-09-13 10:11;CYYG 131011Z 21009KT 3SM -SHRA BR BKN004 OVC009 16/ RMK SF5SF3

CYYG;2009-09-13 11:00;CYYG 131100Z 22005KT 5SM -DZ BR BKN004 OVC030 16/16 A2986 RMK SF7SC1 SLP113

CYYG;2009-09-13 11:09;CYYG 131109Z 21007KT 2 1/2SM -DZ BR BKN003 OVC012 16/ RMK SF7SC1

CYYG;2009-09-13 11:20;CYYG 131120Z 21006KT 2SM -SHRA BR BKN003 OVC012 16/ RMK SF7SC1

CYYG;2009-09-13 12:00;CYYG 131200Z 20007KT 2 1/2SM -SHRA BR OVC003 16/16 A2985 RMK SF8 SLP110

CYYG;2009-09-13 12:29;CYYG 131229Z 20009KT 3SM -DZ BR BKN003 OVC005 16/ RMK SF6SF2

CYYG;2009-09-13 12:54;CYYG 131254Z 20009KT 2SM -SHRA BR OVC003 16/ RMK SF8

CYYG;2009-09-13 13:00;CYYG 131300Z 20010KT 2SM -SHRA BR OVC003 16/16 A2985 RMK SF8 SLP108

CYYG;2009-09-13 13:14;CYYG 131314Z 20012G17KT 2 1/2SM -DZ BR OVC003 16/ RMK SF8

CYYG;2009-09-13 13:26;CYYG 131326Z 20011G17KT 2 1/2SM -SHRA BR OVC004 16/ RMK SF8

CYYG;2009-09-13 14:00;CYYG 131400Z 19011G16KT 2 1/2SM -SHRA BR OVC003 16/16 A2984 RMK SF8 SLP105

CYYG;2009-09-13 15:00;CYYG 131500Z 19011KT 2SM -SHRA BR OVC003 17/16 A2982 RMK SF8 SLP099

CYYG;2009-09-13 15:33;CYYG 131533Z 19013KT 2 1/2SM -SHRA BR SCT003 BKN005 OVC020 16/ RMK SF3SF4SC1

CYYG;2009-09-13 15:51;CYYG 131551Z 18011G16KT 3SM -SHRA BR BKN004 OVC020 16/ RMK SF6SC2 CIG RAG

CYYG;2009-09-13 16:00;CYYG 131600Z 18011KT 4SM -SHRA BR BKN004 OVC020 16/16 A2981 RMK SF6SC2 SLP096

CYYG;2009-09-13 16:36;CYYG 131636Z 20013KT 4SM -SHRA BR SCT004 OVC020 16/ RMK SF3SC5

CYYG;2009-09-13 17:00;CYYG 131700Z 20010KT 4SM -SHRA BR FEW005 BKN020 OVC060 17/16 A2979 RMK SF2SC4SC2 SLP090

CYYG;2009-09-13 18:00;CYYG 131800Z 21011G17KT 12SM -SHRA FEW006 OVC035 17/16 A2978 RMK SF1SC7 PCPN VRY LGT SLP084

CYYG;2009-09-13 18:32;CYYG 131832Z 21011G16KT 15SM FEW006 FEW030 OVC040 17/ RMK SF1SC1SC6

CYYG;2009-09-13 19:00;CYYG 131900Z 21009KT 15SM FEW008 FEW030 BKN045 17/16 A2975 RMK SF1SC2SC6 SLP074

CYYG;2009-09-13 20:00;CYYG 132000Z 20010G15KT 15SM FEW008 FEW030 BKN060 18/16 A2973 RMK SF1SC1SC6 SLP068

CYYG;2009-09-13 20:26;CYYG 132026Z 18009KT 15SM -SHRA FEW008 FEW030 BKN050 18/ RMK SF1SC2SC6

CYYG;2009-09-13 21:00;CYYG 132100Z 18009KT 15SM FEW005 FEW050 BKN100 17/17 A2971 RMK SF1SC2AC6 SLP062

CYYG;2009-09-13 21:30;CYYG 132130Z 18007KT 15SM -SHRA FEW005 BKN040 BKN100 17/ RMK SF1SC5AC2

CYYG;2009-09-13 22:00;CYYG 132200Z 18007KT 15SM SCT040 BKN100 17/16 A2970 RMK SC3AC4 SLP059

CYYG;2009-09-13 23:00;CYYG 132300Z 17009KT 15SM SCT035 BKN120 17/16 A2968 RMK SC3AC4 SLP051

CYYG;2009-09-14 00:00;CYYG 140000Z 19004KT 15SM SCT034 OVC120 17/16 A2968 RMK SC3AC5 SLP050

CYYG;2009-09-14 01:00;CYYG 140100Z 17005KT 15SM BKN034 OVC120 17/16 A2966 RMK SC5AC3 SLP044

CYYG;2009-09-14 01:20;CYYG 140120Z 16006KT 10SM -SHRA FEW009 OVC036 17/ RMK SF2SC6

CYYG;2009-09-14 02:00;CYYG 140200Z 18004KT 15SM -SHRA FEW009 BKN027 OVC080 17/16 A2964 RMK SF2SC5AC2 SLP039

CYYG;2009-09-14 03:00;CYYG 140300Z 18004KT 15SM SCT008 OVC020 17/16 A2962 RMK SF4SC4 SLP030

CYYG;2009-09-14 04:00;CYYG 140400Z 22002KT 15SM BKN005 OVC020 17/17 A2960 RMK SF5SC3 SLP022

CYYG;2009-09-14 05:00;CYYG 140500Z 27002KT 10SM BKN004 OVC020 16/16 A2958 RMK SF6SC2 SLP015

CYYG;2009-09-14 05:34;CYYG 140534Z 31002KT 2SM BR OVC003 16/ RMK SF8

CYYG;2009-09-14 06:00;CYYG 140600Z 33004KT 5SM BR BKN003 OVC012 16/16 A2955 RMK SF6SC2 SLP008

CYYG;2009-09-14 06:22;CYYG 140622Z 34005KT 10SM -SHRA SCT003 BKN012 OVC064 15/ RMK SF3SC2SC3

CYYG;2009-09-14 07:00;CYYG 140700Z 32007KT 8SM -SHRA SCT003 BKN015 OVC064 15/15 A2954 RMK SF3SC3SC2 SLP004

CYYG;2009-09-14 08:00;CYYG 140800Z 30011KT 10SM -SHRA BKN006 OVC020 14/14 A2954 RMK SF6SC2 SLP002

CYYG;2009-09-14 08:41;CYYG 140841Z 31010KT 4SM -SHRA BR BKN005 OVC015 14/ RMK SF6SC2

CYYG;2009-09-14 09:00;CYYG 140900Z 35010G15KT 5SM -SHRA BR BKN005 OVC013 13/13 A2955 RMK SF6SC2 SLP007

CYYG;2009-09-14 10:00;CYYG 141000Z 34011KT 10SM -SHRA BKN006 OVC014 12/12 A2957 RMK SF6SC2 SLP013

CYYG;2009-09-14 10:36;CYYG 141036Z 35009G16KT 2SM -DZ BR BKN005 OVC011 12/ RMK SF6SF2

CYYG;2009-09-14 10:48;CYYG 141048Z 34009G15KT 15SM SCT005 OVC010 12/ RMK SF3SC5 VIS LWR E-S

CYYG;2009-09-14 11:00;CYYG 141100Z 34008KT 10SM FEW005 OVC010 12/11 A2958 RMK SF2SC6 SLP018

CYYG;2009-09-14 11:29;CYYG 141129Z 34009KT 15SM BKN009 12/ RMK SC7

CYYG;2009-09-14 11:42;CYYG 141142Z 34008KT 15SM SCT009 BKN033 12/ RMK SF4SC3

CYYG;2009-09-14 12:00;CYYG 141200Z 34008KT 15SM FEW009 BKN033 12/11 A2959 RMK SF2SC5 VIS LWR W SLP022

CYYG;2009-09-14 12:14;CYYG 141214Z 33011KT 2SM -DZ BR BKN009 OVC033 12/ RMK SF6SC2 VIS SE 5

CYYG;2009-09-14 12:25;CYYG 141225Z 34007KT 5SM -DZ BR BKN005 BKN036 12/ RMK SF5SC2 VIS E-SE 2

CYYG;2009-09-14 13:00;CYYG 141300Z 31009KT 15SM SCT005 BKN025 12/12 A2960 RMK SF4SC3 VIS NE-S 3 SLP026

CYYG;2009-09-14 14:00;CYYG 141400Z 32008G16KT 15SM BKN019 BKN033 13/10 A2961 RMK SC6SC2 SLP027

CYYG;2009-09-14 14:14;CYYG 141414Z 32009KT 15SM -SHRA BKN016 BKN033 12/ RMK SC5SC2

CYYG;2009-09-14 15:00;CYYG 141500Z 31010KT 15SM FEW012 OVC025 12/10 A2963 RMK CU2SC6 SLP033

CYYG;2009-09-14 16:00;CYYG 141600Z 30010G17KT 15SM FEW018 BKN024 13/09 A2963 RMK SC2SC5 SLP036

CYYG;2009-09-14 17:00;CYYG 141700Z 29009G16KT 15SM FEW018 BKN023 13/09 A2964 RMK SC2SC6 SLP038

CYYG;2009-09-14 18:00;CYYG 141800Z 30008G16KT 15SM BKN023 BKN037 14/08 A2964 RMK SC5SC2 SLP037

CYYG;2009-09-14 19:00;CYYG 141900Z 27009KT 15SM BKN028 BKN300 15/09 A2963 RMK SC5CI1 SLP035

CYYG;2009-09-14 20:00;CYYG 142000Z 28009KT 15SM FEW031 FEW300 15/09 A2963 RMK CU2CI0 SLP034

CYYG;2009-09-14 21:00;CYYG 142100Z 28007KT 15SM FEW040 FEW300 16/09 A2964 RMK SC1CI0 SLP038

CYYG;2009-09-14 22:00;CYYG 142200Z 27004KT 15SM FEW040 FEW300 15/09 A2965 RMK SC1CI0 SLP042

CYYG;2009-09-14 23:00;CYYG 142300Z 25003KT 15SM FEW050 14/08 A2966 RMK SC2 SLP046

CYYG;2009-09-15 00:00;CYYG 150000Z 26004KT 15SM FEW050 13/08 A2968 RMK SC1 SLP051

CYYG;2009-09-15 01:00;CYYG 150100Z 26006KT 15SM FEW050 12/08 A2969 RMK SC1 SLP053

CYYG;2009-09-15 02:00;CYYG 150200Z 25007KT 15SM FEW050 12/09 A2969 RMK SC1 SLP055

CYYG;2009-09-15 03:00;CYYG 150300Z 26005KT 15SM SKC 12/10 A2970 RMK SLP059

CYYG;2009-09-15 04:00;CYYG 150400Z 27003KT 15SM FEW062 11/10 A2970 RMK SC2 SLP059

CYYG;2009-09-15 05:00;CYYG 150500Z 23003KT 15SM SCT072 11/10 A2971 RMK AC2 SLP061

CYYG;2009-09-15 06:00;CYYG 150600Z 23003KT 15SM SCT074 11/10 A2971 RMK AC2 SLP060

CYYG;2009-09-15 07:00;CYYG 150700Z 24004KT 15SM FEW040 FEW075 11/10 A2971 RMK SC1AC1 SLP061

CYYG;2009-09-15 08:00;CYYG 150800Z 23003KT 15SM SCT092 12/11 A2971 RMK AC2 SLP060

CYYG;2009-09-15 09:00;CYYG 150900Z 24003KT 15SM BKN088 12/11 A2972 RMK AC3 SLP064

CYYG;2009-09-15 10:00;CYYG 151000Z 25003KT 15SM SCT090 12/11 A2974 RMK AC2 SLP070

CYYG;2009-09-15 11:00;CYYG 151100Z 25003KT 15SM FEW050 SCT095 12/12 A2974 RMK SC2AC2 SLP072

CYYG;2009-09-15 12:00;CYYG 151200Z 28005KT 15SM BKN016 BKN090 14/13 A2976 RMK SC6AC1 SLP077

CYYG;2009-09-15 13:00;CYYG 151300Z 29009KT 15SM BKN015 BKN090 15/12 A2976 RMK SC6AC1 TCU ASOCTD SLP079

CYYG;2009-09-15 14:00;CYYG 151400Z 31007KT 15SM BKN017 15/12 A2977 RMK SC7 SLP083

CYYG;2009-09-15 15:00;CYYG 151500Z 33012KT 15SM BKN019 BKN040 15/11 A2980 RMK SC6SC2 SLP092

CYYG;2009-09-15 16:00;CYYG 151600Z 34009G15KT 15SM SCT020 SCT090 BKN200 15/11 A2980 RMK SC3AC1CC2 SLP092

CYYG;2009-09-15 17:00;CYYG 151700Z 36009KT 15SM SCT029 SCT090 BKN200 15/09 A2982 RMK SC3AC1CI1 SLP100

CYYG;2009-09-15 18:00;CYYG 151800Z 36009G15KT 15SM FEW029 FEW090 BKN190 14/07 A2985 RMK SC1AC1CS5 SLP107

CYYG;2009-09-15 19:00;CYYG 151900Z 34010G15KT 15SM FEW029 FEW090 BKN180 13/08 A2987 RMK SC1AC1CS5 SLP116

CYYG;2009-09-15 20:00;CYYG 152000Z 01010G16KT 15SM FEW022 SCT090 BKN190 12/08 A2990 RMK SC2AC2CS2 SLP124

CYYG;2009-09-15 21:00;CYYG 152100Z 36009KT 15SM FEW025 FEW090 BKN220 12/07 A2992 RMK SC2AC1CI2 SLP131

CYYG;2009-09-15 22:00;CYYG 152200Z 01006KT 15SM BKN031 11/07 A2996 RMK SC5 SLP144

CYYG;2009-09-15 23:00;CYYG 152300Z 36009KT 15SM SCT023 BKN033 10/07 A2998 RMK SC3SC3 SLP152

CYYG;2009-09-16 00:00;CYYG 160000Z 34005KT 15SM BKN036 10/07 A3002 RMK SC4 SLP168

CYYG;2009-09-16 00:14;CYYG 160014Z 36008KT 10SM -SHRA SCT018 BKN025 10/ RMK SC3SC3

CYYG;2009-09-16 00:50;CYYG 160050Z 36005KT 15SM SCT022 BKN036 09/ RMK SC3SC2

CYYG;2009-09-16 01:00;CYYG 160100Z 01008KT 15SM FEW023 BKN035 09/08 A3004 RMK SC2SC2 SLP174

CYYG;2009-09-16 02:00;CYYG 160200Z 36005KT 15SM -SHRA SCT012 BKN024 09/08 A3006 RMK SC3SC3 SLP181

CYYG;2009-09-16 03:00;CYYG 160300Z 34007KT 5SM -SHRA BR OVC018 09/08 A3008 RMK SC8 SLP186

CYYG;2009-09-16 04:00;CYYG 160400Z 36002KT 10SM -SHRA OVC024 09/08 A3011 RMK SC8 SHRA VRY LGT SLP196

CYYG;2009-09-16 05:00;CYYG 160500Z 36004KT 15SM SCT026 BKN050 08/07 A3012 RMK SC2SC2 SLP201

CYYG;2009-09-16 05:09;CYYG 160509Z 03004KT 15SM -SHRA BKN023 BKN047 08/ RMK SC5SC1

CYYG;2009-09-16 06:00;CYYG 160600Z 36004KT 15SM -SHRA BKN024 08/07 A3013 RMK SC4 SLP204

CYYG;2009-09-16 07:00;CYYG 160700Z 02003KT 15SM -SHRA BKN021 08/07 A3014 RMK SC5 PCPN OCNL SLP208

CYYG;2009-09-16 08:00;CYYG 160800Z 02007KT 4SM -SHRA BR OVC017 08/08 A3016 RMK SC8 SLP213

CYYG;2009-09-16 09:00;CYYG 160900Z 36003KT 6SM -SHRA BR BKN021 08/07 A3019 RMK SC6 SLP225

CYYG;2009-09-16 10:00;CYYG 161000Z 33002KT 10SM -SHRA BKN026 08/07 A3022 RMK SC6 SLP235

CYYG;2009-09-16 11:00;CYYG 161100Z 30004KT 15SM -SHRA BKN026 BKN038 09/08 A3025 RMK SC5SC2 SLP245

CYYG;2009-09-16 12:00;CYYG 161200Z 33005KT 15SM -SHRA BKN025 BKN220 10/08 A3027 RMK SC6CI1 SLP251

CYYG;2009-09-16 12:45;CYYG 161245Z 33007KT 15SM VCSH BKN025 BKN220 11/ RMK SC6CI1

CYYG;2009-09-16 13:00;CYYG 161300Z 34008KT 15SM VCSH BKN025 BKN220 11/08 A3029 RMK SC6CI2 SLP259

CYYG;2009-09-16 13:17;CYYG 161317Z 02013KT 15SM -SHRA BKN015 BKN030 BKN220 10/ RMK SC5SC2CI1 VIS N 6

CYYG;2009-09-16 14:00;CYYG 161400Z 36007KT 15SM BKN022 10/09 A3031 RMK SC7 OCNL -SHRA SLP266

CYYG;2009-09-16 15:00;CYYG 161500Z 02012KT 15SM -SHRA OVC025 11/07 A3033 RMK SC8 SLP272

CYYG;2009-09-16 15:29;CYYG 161529Z 01011KT 15SM VCSH OVC025 11/ RMK SC8

CYYG;2009-09-16 16:00;CYYG 161600Z 01009KT 15SM BKN029 11/07 A3034 RMK SC7 SLP276

CYYG;2009-09-16 17:00;CYYG 161700Z 02011KT 15SM BKN030 12/07 A3034 RMK SC7 SLP277

CYYG;2009-09-16 18:00;CYYG 161800Z 36010KT 15SM VCSH OVC030 11/05 A3035 RMK SC8 SLP280

CYYG;2009-09-16 19:00;CYYG 161900Z 35005KT 15SM BKN036 12/05 A3036 RMK SC7 SLP281

CYYG;2009-09-16 20:00;CYYG 162000Z 02008KT 15SM BKN035 11/05 A3036 RMK SC7 SLP284

CYYG;2009-09-16 21:00;CYYG 162100Z 36006KT 15SM BKN035 10/04 A3037 RMK SC7 SLP286

CYYG;2009-09-16 22:00;CYYG 162200Z 01003KT 15SM BKN035 09/04 A3038 RMK SC6 SLP290

CYYG;2009-09-16 23:00;CYYG 162300Z 34002KT 15SM FEW033 08/05 A3039 RMK SC2 SLP292

CYYG;2009-09-17 00:00;CYYG 170000Z 32003KT 15SM FEW033 05/04 A3039 RMK SC1 SLP294

CYYG;2009-09-17 01:00;CYYG 170100Z 25002KT 15SM SKC 05/03 A3039 RMK SLP293

CYYG;2009-09-17 02:00;CYYG 170200Z 27004KT 15SM SKC 04/03 A3039 RMK SLP292

CYYG;2009-09-17 03:00;CYYG 170300Z 27004KT 15SM SKC 04/02 A3038 RMK SLP290

CYYG;2009-09-17 04:00;CYYG 170400Z 26004KT 15SM SKC 04/02 A3039 RMK SLP291

CYYG;2009-09-17 05:00;CYYG 170500Z 27003KT 15SM SKC 03/02 A3038 RMK SLP289

CYYG;2009-09-17 06:00;CYYG 170600Z 25002KT 15SM SKC 01/01 A3038 RMK SLP288

CYYG;2009-09-17 07:00;CYYG 170700Z 26003KT 15SM SKC 02/01 A3036 RMK SLP284

CYYG;2009-09-17 08:00;CYYG 170800Z 25004KT 15SM SKC 03/02 A3036 RMK SLP283

CYYG;2009-09-17 09:00;CYYG 170900Z 26005KT 15SM FEW020 06/04 A3035 RMK SC1 SLP279

CYYG;2009-09-17 10:00;CYYG 171000Z 25004KT 15SM FEW020 07/03 A3035 RMK SC1 SLP279

CYYG;2009-09-17 11:00;CYYG 171100Z 26004KT 15SM FEW020 08/05 A3036 RMK SC1 SLP281

CYYG;2009-09-17 12:00;CYYG 171200Z 27003KT 15SM FEW020 10/07 A3035 RMK SC1 SLP279

CYYG;2009-09-17 13:00;CYYG 171300Z 26004KT 15SM FEW020 FEW310 11/08 A3035 RMK SC1CI1 SLP278

CYYG;2009-09-17 14:00;CYYG 171400Z 21003KT 15SM FEW020 FEW310 13/06 A3034 RMK SC1CI0 SLP276

CYYG;2009-09-17 15:00;CYYG 171500Z 16006KT 15SM FEW020 FEW310 14/06 A3032 RMK SC1CI1 SLP268

CYYG;2009-09-17 16:00;CYYG 171600Z 16008KT 15SM FEW020 FEW310 14/06 A3030 RMK SC1CI1 SLP261

CYYG;2009-09-17 17:00;CYYG 171700Z 18009KT 15SM FEW020 SCT310 15/06 A3027 RMK SC1CI1 SLP253

CYYG;2009-09-17 18:00;CYYG 171800Z 23003KT 15SM FEW020 BKN290 14/06 A3023 RMK SC1CI3 SLP239

CYYG;2009-09-17 19:00;CYYG 171900Z 19006KT 15SM FEW025 BKN290 14/04 A3020 RMK SC1CI3 SLP229

CYYG;2009-09-17 20:00;CYYG 172000Z 19006KT 15SM FEW025 FEW170 BKN290 14/04 A3017 RMK SC1AC2CI4 SLP218

CYYG;2009-09-17 21:00;CYYG 172100Z 18004KT 15SM FEW025 FEW170 BKN290 14/04 A3014 RMK SC1AC1CI5 SLP208

CYYG;2009-09-17 22:00;CYYG 172200Z 18005KT 15SM FEW025 FEW170 BKN290 12/05 A3012 RMK SC1AC1CS5 SLP202

CYYG;2009-09-17 23:00;CYYG 172300Z 00000KT 15SM BKN230 10/07 A3009 RMK CS3 SLP191

CYYG;2009-09-18 00:00;CYYG 180000Z 14004KT 15SM BKN160 OVC230 11/08 A3008 RMK AC5CS2 SLP187

CYYG;2009-09-18 01:00;CYYG 180100Z 09002KT 15SM BKN150 OVC230 11/07 A3004 RMK AC6CS2 SLP173

CYYG;2009-09-18 02:00;CYYG 180200Z 00000KT 15SM OVC130 09/08 A3001 RMK AC8 SLP163

CYYG;2009-09-18 03:00;CYYG 180300Z 14004KT 15SM BKN130 OVC210 11/09 A2998 RMK AC6CI2 SLP153

CYYG;2009-09-18 04:00;CYYG 180400Z 18006KT 15SM OVC120 12/10 A2994 RMK AC8 SLP141

CYYG;2009-09-18 05:00;CYYG 180500Z 21005KT 15SM FEW016 OVC110 12/10 A2992 RMK SC1AC7 SLP133

CYYG;2009-09-18 06:00;CYYG 180600Z 21002KT 15SM SCT110 OVC130 12/10 A2989 RMK AC4AC4 SLP121

CYYG;2009-09-18 07:00;CYYG 180700Z 29005KT 15SM FEW110 FEW130 FEW240 09/08 A2984 RMK AC1AC1CI1 SLP106

CYYG;2009-09-18 08:00;CYYG 180800Z 27004KT 15SM SKC 08/06 A2981 RMK SLP095

CYYG;2009-09-18 09:00;CYYG 180900Z 27005KT 15SM FEW110 07/05 A2979 RMK AC2 SLP088

CYYG;2009-09-18 10:00;CYYG 181000Z 27005KT 15SM FEW020 FEW110 06/05 A2977 RMK SC1AC1 SLP081

CYYG;2009-09-18 11:00;CYYG 181100Z 26004KT 15SM FEW020 FEW110 08/07 A2976 RMK SC1AC1 SLP078

CYYG;2009-09-18 12:00;CYYG 181200Z 25008KT 15SM FEW020 FEW110 10/09 A2975 RMK SC1AC1 SLP074

CYYG;2009-09-18 13:00;CYYG 181300Z 22008KT 15SM FEW020 FEW110 13/10 A2972 RMK SC1AC1 SLP066

CYYG;2009-09-18 14:00;CYYG 181400Z 24008KT 15SM FEW020 FEW220 14/10 A2971 RMK SC1CI1 SLP063

CYYG;2009-09-18 15:00;CYYG 181500Z 26009KT 15SM FEW036 FEW200 16/11 A2969 RMK CF1CI1 SLP054

CYYG;2009-09-18 16:00;CYYG 181600Z 24014G21KT 15SM FEW030 SCT120 17/11 A2966 RMK CU2AC2 SLP046

CYYG;2009-09-18 17:00;CYYG 181700Z 24019G26KT 15SM SCT040 BKN120 18/10 A2964 RMK CU4AC1 SLP038

CYYG;2009-09-18 18:00;CYYG 181800Z 25015G21KT 15SM SCT036 BKN130 18/10 A2962 RMK CU4AC2 SLP030

CYYG;2009-09-18 19:00;CYYG 181900Z 26010G16KT 15SM SCT036 BKN060 BKN130 17/11 A2960 RMK CU3SC2AC2 SLP023

CYYG;2009-09-18 20:00;CYYG 182000Z 25008KT 15SM -SHRA FEW035 BKN049 16/11 A2958 RMK CU2SC5 SLP019

CYYG;2009-09-18 21:00;CYYG 182100Z 25013G21KT 12SM -SHRA SCT038 OVC060 15/12 A2958 RMK SC4SC4 SLP016

CYYG;2009-09-18 22:00;CYYG 182200Z 25010G16KT 12SM -SHRA FEW015 BKN035 OVC060 14/13 A2958 RMK SC2SC3SC3 SLP016

CYYG;2009-09-18 23:00;CYYG 182300Z 25012G17KT 15SM BKN016 BKN025 14/12 A2958 RMK SC5SC2 SLP017

CYYG;2009-09-18 23:39;CYYG 182339Z 24012G18KT 15SM -SHRA BKN014 BKN026 14/ RMK SC5SC2

CYYG;2009-09-19 00:00;CYYG 190000Z 24012G18KT 15SM -SHRA BKN014 BKN026 14/12 A2958 RMK SC5SC2 SLP018

CYYG;2009-09-19 00:34;CYYG 190034Z 29014G24KT 15SM SCT013 BKN030 BKN110 13/ RMK SC3SC2AC2

CYYG;2009-09-19 01:00;CYYG 190100Z 29013G18KT 15SM FEW013 SCT028 BKN100 12/09 A2961 RMK SC2SC2AC3 SLP028

CYYG;2009-09-19 02:00;CYYG 190200Z 29011KT 15SM FEW025 FEW066 11/08 A2964 RMK SC1AC2 SLP037

CYYG;2009-09-19 03:00;CYYG 190300Z 29010G15KT 15SM BKN059 11/08 A2964 RMK SC6 SLP039

CYYG;2009-09-19 04:00;CYYG 190400Z 30008KT 15SM FEW055 10/06 A2965 RMK SC2 SLP041

CYYG;2009-09-19 05:00;CYYG 190500Z 30007KT 15SM FEW052 09/06 A2964 RMK SC2 SLP037

CYYG;2009-09-19 06:00;CYYG 190600Z 29008KT 15SM FEW042 09/06 A2964 RMK SC2 SLP037

CYYG;2009-09-19 07:00;CYYG 190700Z 28007KT 15SM FEW038 BKN170 08/05 A2964 RMK SC2AC4 SLP038

CYYG;2009-09-19 08:00;CYYG 190800Z 29007KT 15SM FEW038 BKN180 08/05 A2964 RMK SC2AC4 SLP038

CYYG;2009-09-19 09:00;CYYG 190900Z 29009KT 15SM BKN033 08/05 A2965 RMK SC5 SLP041

CYYG;2009-09-19 10:00;CYYG 191000Z 28008KT 15SM BKN028 BKN180 08/05 A2966 RMK SC6AC1 SLP043

CYYG;2009-09-19 11:00;CYYG 191100Z 28008KT 15SM FEW024 BKN035 BKN100 08/06 A2967 RMK CU2SC3AC2 SHS NE SLP047

CYYG;2009-09-19 12:00;CYYG 191200Z 29012KT 15SM VCSH SCT018 BKN035 BKN080 09/07 A2968 RMK SC3SC2AC2 SHS NW-E SLP050

CYYG;2009-09-19 12:05;CYYG 191205Z 28011G16KT 15SM -SHRA SCT018 BKN035 BKN080 09/ RMK SC3SC2AC2

CYYG;2009-09-19 12:21;CYYG 191221Z 29012G17KT 15SM -SHRA BKN017 OVC040 09/ RMK SC6SC2 VIS N-E 7

CYYG;2009-09-19 13:00;CYYG 191300Z 29011G16KT 15SM -SHRA SCT017 BKN040 09/08 A2969 RERA RMK SC3SC4 VIS N-SE 4 SLP053

CYYG;2009-09-19 14:00;CYYG 191400Z 30010G15KT 12SM -SHRA BKN024 OVC040 10/09 A2971 RMK SC6SC2 SLP062

CYYG;2009-09-19 15:00;CYYG 191500Z 32013G25KT 15SM -SHRA BKN022 10/09 A2973 RMK SC7 CU ASOCTD SLP068

CYYG;2009-09-19 16:00;CYYG 191600Z 34013G19KT 12SM -SHRA BKN022 11/09 A2976 RMK SC7 CU ASOCTD SLP077

CYYG;2009-09-19 17:00;CYYG 191700Z 33014G22KT 15SM -SHRA OVC022 10/08 A2979 RMK SC8 CU ASOCTD SLP087

CYYG;2009-09-19 18:00;CYYG 191800Z 33015G20KT 15SM -SHRA OVC025 10/07 A2982 RMK SC8 CU ASOCTD SLP098

CYYG;2009-09-19 18:25;CYYG 191825Z 32015G24KT 15SM OVC025 11/ RMK SC8 SHS NE-SE

CYYG;2009-09-19 18:52;CYYG 191852Z 32010G20KT 15SM -SHRA SCT027 OVC040 11/ RMK SC3SC5

CYYG;2009-09-19 19:00;CYYG 191900Z 32012G20KT 15SM -SHRA SCT027 OVC040 11/07 A2983 RMK SC3SC5 SLP104

CYYG;2009-09-19 20:00;CYYG 192000Z 32013G19KT 8SM -SHRA FEW025 OVC035 10/08 A2987 RMK SC2SC6 SLP115

CYYG;2009-09-19 21:00;CYYG 192100Z 33013G19KT 5SM -SHRA BR BKN022 OVC035 09/08 A2990 RMK SC6SC2 SLP128

CYYG;2009-09-19 22:00;CYYG 192200Z 34013G18KT 5SM -SHRA BR OVC026 10/08 A2993 RMK SC8 VIS NW-NE 15 SLP138

CYYG;2009-09-19 23:00;CYYG 192300Z 32009G15KT 10SM -SHRA BKN026 10/08 A2996 RMK SC7 SLP148

CYYG;2009-09-19 23:29;CYYG 192329Z 34009G15KT 15SM FEW026 BKN033 11/ RMK SC2SC5

CYYG;2009-09-20 00:00;CYYG 200000Z 34013G18KT 15SM BKN031 BKN049 11/07 A3000 RMK SC5SC2 SLP161

CYYG;2009-09-20 01:00;CYYG 200100Z 32007G15KT 15SM BKN033 11/07 A3002 RMK SC7 SLP168

CYYG;2009-09-20 02:00;CYYG 200200Z 32008KT 15SM BKN030 BKN050 11/07 A3004 RMK SC5SC2 SLP173

CYYG;2009-09-20 03:00;CYYG 200300Z 31006KT 15SM FEW034 BKN047 11/07 A3005 RMK SC2SC6 SLP177

CYYG;2009-09-20 04:00;CYYG 200400Z 28006KT 15SM BKN032 BKN049 09/07 A3007 RMK SC5SC2 SLP183

CYYG;2009-09-20 05:00;CYYG 200500Z 27006KT 15SM BKN032 09/06 A3009 RMK SC5 SLP190

CYYG;2009-09-20 06:00;CYYG 200600Z 27006KT 15SM BKN033 08/06 A3011 RMK SC5 SLP196

CYYG;2009-09-20 07:00;CYYG 200700Z 27006KT 15SM FEW033 07/05 A3011 RMK SC2 SLP198

CYYG;2009-09-20 08:00;CYYG 200800Z 27006KT 15SM FEW033 08/06 A3011 RMK SC2 SLP197

CYYG;2009-09-20 09:00;CYYG 200900Z 28007KT 15SM FEW033 FEW130 07/06 A3013 RMK SC1AC2 SLP203

CYYG;2009-09-20 10:00;CYYG 201000Z 27006KT 15SM FEW020 FEW130 SCT170 BKN240 07/06 A3014 RMK SC1AC2AC1CC2 SLP207

CYYG;2009-09-20 11:00;CYYG 201100Z 26005KT 15SM FEW020 BKN120 BKN300 08/06 A3015 RMK SC1AC4CC1 SLP211

CYYG;2009-09-20 12:00;CYYG 201200Z 23006KT 15SM BKN082 09/08 A3014 RMK AC6 SLP207

CYYG;2009-09-20 13:00;CYYG 201300Z 26007KT 15SM BKN100 10/08 A3015 RMK AC3 SLP210

CYYG;2009-09-20 14:00;CYYG 201400Z 26008KT 15SM BKN120 12/06 A3014 RMK AC3 SLP209

CYYG;2009-09-20 15:00;CYYG 201500Z 26009G16KT 15SM FEW120 SCT300 13/06 A3013 RMK AC2CI1 SLP204

CYYG;2009-09-20 16:00;CYYG 201600Z 27010G15KT 15SM FEW120 SCT300 15/06 A3012 RMK AC2CI1 SLP200

CYYG;2009-09-20 17:00;CYYG 201700Z 25015KT 15SM SCT120 BKN300 15/06 A3009 RMK AC2CI1 SLP192

CYYG;2009-09-20 18:00;CYYG 201800Z 27013G19KT 15SM BKN120 16/05 A3008 RMK AC3 SLP188

CYYG;2009-09-20 19:00;CYYG 201900Z 24012KT 15SM BKN100 15/07 A3007 RMK AC3 SLP184

CYYG;2009-09-20 20:00;CYYG 202000Z 25012KT 15SM SCT100 BKN300 15/08 A3007 RMK AC2CI2 SLP184

CYYG;2009-09-20 21:00;CYYG 202100Z 26008KT 15SM FEW100 BKN300 15/09 A3008 RMK AC1CI2 SLP186

CYYG;2009-09-20 22:00;CYYG 202200Z 25007KT 15SM FEW100 SCT300 14/09 A3008 RMK AC1CI2 SLP187

CYYG;2009-09-20 23:00;CYYG 202300Z 26006KT 15SM FEW060 FEW100 SCT300 12/10 A3009 RMK SC1AC1CI0 SLP192

CYYG;2009-09-21 00:00;CYYG 210000Z 24006KT 15SM FEW060 FEW100 11/10 A3011 RMK SC1AC1 SLP197

CYYG;2009-09-21 01:00;CYYG 210100Z 25008KT 15SM BKN060 12/11 A3012 RMK SC5 SLP201

CYYG;2009-09-21 02:00;CYYG 210200Z 26008KT 15SM BKN061 12/10 A3013 RMK SC5 SLP203

CYYG;2009-09-21 03:00;CYYG 210300Z 27007KT 15SM BKN059 12/10 A3014 RMK SC7 SLP209

CYYG;2009-09-21 04:00;CYYG 210400Z 27006KT 15SM BKN058 12/10 A3015 RMK SC7 SLP212

CYYG;2009-09-21 05:00;CYYG 210500Z 29006KT 15SM BKN058 12/10 A3016 RMK SC6 SLP215

CYYG;2009-09-21 06:00;CYYG 210600Z 31003KT 15SM SCT057 11/09 A3017 RMK SC4 SLP218

CYYG;2009-09-21 07:00;CYYG 210700Z 31003KT 15SM SCT054 10/10 A3017 RMK SC3 SLP218

CYYG;2009-09-21 08:00;CYYG 210800Z 31005KT 15SM FEW052 10/09 A3019 RMK SC2 SLP223

CYYG;2009-09-21 09:00;CYYG 210900Z 27002KT 15SM FEW052 09/09 A3021 RMK SC2 SLP230

CYYG;2009-09-21 10:00;CYYG 211000Z 28002KT 15SM FEW050 FEW200 08/08 A3023 RMK SC1CI0 SLP237

CYYG;2009-09-21 11:00;CYYG 211100Z 30002KT 15SM FEW050 BKN250 10/10 A3025 RMK SC1CI2 SLP244

CYYG;2009-09-21 12:00;CYYG 211200Z 27003KT 15SM FEW050 SCT250 13/12 A3027 RMK SC1CI1 SLP252

CYYG;2009-09-21 13:00;CYYG 211300Z 00000KT 15SM SCT250 16/09 A3029 RMK CI1 SLP259

CYYG;2009-09-21 14:00;CYYG 211400Z 00000KT 15SM FEW250 17/08 A3029 RMK CI1 SLP257

CYYG;2009-09-21 15:00;CYYG 211500Z 33004KT 15SM FEW050 FEW250 18/09 A3029 RMK SC1CI1 SLP258

CYYG;2009-09-21 16:00;CYYG 211600Z 24006KT 15SM FEW030 FEW250 19/11 A3028 RMK SC0CI1 SLP256

CYYG;2009-09-21 17:00;CYYG 211700Z 22009KT 15SM FEW030 FEW250 18/11 A3028 RMK SC1CI1 SLP253

CYYG;2009-09-21 18:00;CYYG 211800Z 20010KT 15SM FEW030 FEW250 19/11 A3027 RMK SC0CI1 SLP252

CYYG;2009-09-21 19:00;CYYG 211900Z 19012KT 15SM FEW030 FEW250 18/10 A3028 RMK SC1CI1 SLP253

CYYG;2009-09-21 20:00;CYYG 212000Z 23004KT 15SM FEW250 19/10 A3028 RMK CI1 SLP253

CYYG;2009-09-21 21:00;CYYG 212100Z 19005KT 15SM FEW250 18/11 A3028 RMK CI1 SLP253

CYYG;2009-09-21 22:00;CYYG 212200Z 16004KT 15SM FEW250 16/10 A3027 RMK CI1 SLP252

CYYG;2009-09-21 23:00;CYYG 212300Z 18004KT 15SM FEW250 14/09 A3028 RMK CI1 SLP254

CYYG;2009-09-22 00:00;CYYG 220000Z 19005KT 15SM FEW250 13/10 A3028 RMK CI1 SLP256

CYYG;2009-09-22 01:00;CYYG 220100Z 21005KT 15SM SKC 13/10 A3028 RMK SLP256

CYYG;2009-09-22 02:00;CYYG 220200Z 18002KT 15SM SKC 12/12 A3028 RMK SLP256

CYYG;2009-09-22 03:00;CYYG 220300Z 18002KT 15SM SKC 11/11 A3028 RMK SLP255

CYYG;2009-09-22 04:00;CYYG 220400Z 21006KT 15SM SKC 12/12 A3028 RMK SLP253

CYYG;2009-09-22 05:00;CYYG 220500Z 22006KT 15SM SKC 12/12 A3026 RMK SLP249

CYYG;2009-09-22 06:00;CYYG 220600Z 23004KT 15SM SKC 12/12 A3027 RMK SLP250

CYYG;2009-09-22 07:00;CYYG 220700Z 22006KT 15SM SKC 12/11 A3025 RMK SLP245

CYYG;2009-09-22 08:00;CYYG 220800Z 24006KT 15SM SKC 11/10 A3026 RMK SLP247

CYYG;2009-09-22 09:00;CYYG 220900Z 23005KT 15SM FEW080 10/10 A3026 RMK AC1 SLP247

CYYG;2009-09-22 10:00;CYYG 221000Z 22006KT 15SM FEW200 11/11 A3025 RMK CI0 SLP245

CYYG;2009-09-22 11:00;CYYG 221100Z 20005KT 15SM FEW250 12/12 A3025 RMK CI0 SLP246

CYYG;2009-09-22 12:00;CYYG 221200Z 22011KT 15SM SKC 14/12 A3024 RMK SLP242

CYYG;2009-09-22 13:00;CYYG 221300Z 22010KT 15SM SKC 15/11 A3024 RMK SLP242

CYYG;2009-09-22 14:00;CYYG 221400Z 23010KT 15SM SKC 17/11 A3023 RMK SLP238

CYYG;2009-09-22 15:00;CYYG 221500Z 22010G15KT 15SM SKC 18/12 A3022 RMK SLP233

CYYG;2009-09-22 16:00;CYYG 221600Z 23010G17KT 15SM FEW250 20/10 A3021 RMK CI0 SLP230

CYYG;2009-09-22 17:00;CYYG 221700Z 23013KT 15SM FEW250 21/10 A3018 RMK CI0 SLP222

CYYG;2009-09-22 18:00;CYYG 221800Z 22015G20KT 15SM FEW250 21/09 A3017 RMK CI1 SLP216

CYYG;2009-09-22 19:00;CYYG 221900Z 22016G22KT 15SM FEW250 21/09 A3015 RMK CI2 SLP209

CYYG;2009-09-22 20:00;CYYG 222000Z 23012G19KT 15SM SCT250 20/11 A3014 RMK CI3 SLP207

CYYG;2009-09-22 21:00;CYYG 222100Z 22012KT 15SM BKN250 18/12 A3013 RMK CI3 SLP204

CYYG;2009-09-22 22:00;CYYG 222200Z 22011KT 15SM BKN250 17/13 A3012 RMK CI5 SLP202

CYYG;2009-09-22 23:00;CYYG 222300Z 24009KT 15SM BKN200 16/12 A3014 RMK CC6 SLP207

CYYG;2009-09-23 00:00;CYYG 230000Z 23012G17KT 15SM FEW250 16/12 A3013 RMK CI2 SLP205

CYYG;2009-09-23 01:00;CYYG 230100Z 23011G18KT 15SM FEW250 14/12 A3012 RMK CI2 SLP201

CYYG;2009-09-23 02:00;CYYG 230200Z 23012KT 15SM SCT200 13/12 A3012 RMK CI3 SLP201

CYYG;2009-09-23 02:33;CYYG 230233Z 23012G19KT 15SM SCT009 SCT250 12/ RMK SF3CI1

CYYG;2009-09-23 03:00;CYYG 230300Z 22011KT 15SM BKN008 13/13 A3011 RMK SF6 SLP196

CYYG;2009-09-23 04:00;CYYG 230400Z 23012KT 12SM BKN009 15/13 A3008 RMK SF7 WND EST. VIA CYHZ FIC SLP188

CYYG;2009-09-23 05:00;CYYG 230500Z 23014KT 12SM OVC008 16/14 A3009 RMK SF8 WND EST VIA CYHZ VIC SLP190

CYYG;2009-09-23 06:00;CYYG 230600Z 23012KT 12SM OVC008 16/14 A3008 RMK SF8 WND EST VIA CYHZ FIC SLP187

CYYG;2009-09-23 07:00;CYYG 230700Z 23013G19KT 10SM OVC006 16/15 A3007 RMK SF8 SLP184

CYYG;2009-09-23 08:00;CYYG 230800Z 22013KT 15SM OVC006 16/15 A3007 RMK SF8 SLP184

CYYG;2009-09-23 09:00;CYYG 230900Z 22010KT 12SM OVC008 16/14 A3007 RMK SF8 SLP183

CYYG;2009-09-23 10:00;CYYG 231000Z 23010G16KT 10SM OVC009 16/15 A3007 RMK SF8 CIG RAG SLP183

CYYG;2009-09-23 11:00;CYYG 231100Z 23012G19KT 12SM OVC007 16/15 A3007 RMK SF8 SLP184

CYYG;2009-09-23 12:00;CYYG 231200Z 23012KT 12SM OVC006 17/16 A3007 RMK SF8 SLP184

CYYG;2009-09-23 13:00;CYYG 231300Z 23013G19KT 12SM OVC008 18/16 A3007 RMK SF8 SLP183

CYYG;2009-09-23 14:00;CYYG 231400Z 23012G18KT 15SM OVC008 18/17 A3006 RMK SF8 SLP178

CYYG;2009-09-23 14:20;CYYG 231420Z 23014G19KT 15SM BKN012 19/ RMK SF7

CYYG;2009-09-23 15:00;CYYG 231500Z 23014G24KT 15SM BKN014 BKN250 20/15 A3004 RMK SC5CI0 SLP171

CYYG;2009-09-23 15:41;CYYG 231541Z 23014G25KT 15SM FEW015 SCT150 BKN250 20/ RMK SC2AC2CI1

CYYG;2009-09-23 16:00;CYYG 231600Z 23015G21KT 15SM FEW015 SCT150 BKN250 20/18 A3000 RMK SC2AC2CI1 SLP160

CYYG;2009-09-23 17:00;CYYG 231700Z 23016G28KT 15SM FEW015 SCT150 BKN250 20/17 A2998 RMK SC2AC2CI1 SLP152

CYYG;2009-09-23 18:00;CYYG 231800Z 23012G25KT 15SM FEW017 SCT110 BKN250 20/17 A2995 RMK SC2AC2CI2 SLP142

CYYG;2009-09-23 19:00;CYYG 231900Z 22012G18KT 15SM FEW030 SCT110 BKN250 22/18 A2993 RMK SC2AC2CI2 SLP136

CYYG;2009-09-23 20:00;CYYG 232000Z 21010G16KT 15SM FEW034 BKN150 BKN250 21/18 A2991 RMK SC2AC2CI2 SLP128

CYYG;2009-09-23 21:00;CYYG 232100Z 22012G18KT 15SM FEW032 BKN130 BKN250 20/17 A2988 RMK SC2AC2CI2 SLP119

CYYG;2009-09-23 22:00;CYYG 232200Z 22010G17KT 15SM FEW032 BKN130 BKN250 20/17 A2986 RMK SC2AC2CI2 SLP113

CYYG;2009-09-23 23:00;CYYG 232300Z 23014G20KT 15SM SCT032 BKN130 20/17 A2985 RMK SC3AC2 SLP109

CYYG;2009-09-24 00:00;CYYG 240000Z 23016G21KT 15SM FEW032 SCT130 BKN230 19/17 A2984 RMK SC2AC1CI2 SLP106

CYYG;2009-09-24 01:00;CYYG 240100Z 22013G21KT 15SM BKN018 BKN090 17/17 A2982 RMK SC6AC1 SLP099

CYYG;2009-09-24 02:00;CYYG 240200Z 22014G20KT 15SM BKN018 BKN190 18/17 A2980 RMK SC6AC1 SLP093

CYYG;2009-09-24 03:00;CYYG 240300Z 23013G18KT 15SM SCT018 BKN120 17/16 A2979 RMK SC4AC2 SLP090

CYYG;2009-09-24 03:53;CYYG 240353Z 23012G20KT 15SM -SHRA BKN016 OVC130 17/ RMK SC6AC2

CYYG;2009-09-24 04:00;CYYG 240400Z 23010G18KT 15SM -SHRA BKN016 OVC130 17/17 A2978 RMK SC5AC3 SLP086

CYYG;2009-09-24 05:00;CYYG 240500Z 26012G17KT 15SM -SHRA OVC010 17/17 A2980 RMK SC8 PCPN VRY LGT SLP091

CYYG;2009-09-24 06:00;CYYG 240600Z 26009G15KT 15SM -SHRA OVC010 17/17 A2980 RMK SC8 SLP091

CYYG;2009-09-24 06:53;CYYG 240653Z 26008KT 15SM OVC005 16/ RMK SF8

CYYG;2009-09-24 07:00;CYYG 240700Z 27007KT 15SM OVC005 16/16 A2979 RMK SF8 SLP088

CYYG;2009-09-24 07:28;CYYG 240728Z 30007KT 10SM -SHRA OVC005 16/ RMK SF8

CYYG;2009-09-24 08:00;CYYG 240800Z 01007KT 10SM -SHRA OVC008 15/15 A2980 RMK SF8 SLP092

CYYG;2009-09-24 09:00;CYYG 240900Z 36008KT 10SM -SHRA BKN006 OVC011 14/14 A2980 RMK SF5SC3 SLP091

CYYG;2009-09-24 10:00;CYYG 241000Z 02006KT 8SM -SHRA BKN006 OVC022 14/14 A2979 RMK SF6SC2 SLP088

CYYG;2009-09-24 10:26;CYYG 241026Z 35004KT 3SM -SHRA BR BKN002 BKN007 OVC021 14/ RMK SF5SF2SC2

CYYG;2009-09-24 11:00;CYYG 241100Z 03009KT 3SM -SHRA BR BKN003 BKN010 OVC025 14/14 A2981 RMK SF5SF2SC2 SLP094

CYYG;2009-09-24 12:00;CYYG 241200Z 03008KT 5SM -SHRA BR BKN004 BKN010 OVC029 13/13 A2982 RMK SF6SF2SC1 SLP098

CYYG;2009-09-24 13:00;CYYG 241300Z 03008KT 6SM -SHRA BR BKN004 BKN011 OVC035 13/13 A2983 RMK SF6SF1SC2 SLP101

CYYG;2009-09-24 14:00;CYYG 241400Z 01003KT 3SM -SHRA BR BKN004 BKN016 OVC028 14/13 A2985 RMK SF6SC2SC1 VIS W-N 10 SLP107

CYYG;2009-09-24 14:20;CYYG 241420Z 03007KT 15SM BKN005 OVC016 14/ RMK SF6SC2

CYYG;2009-09-24 15:00;CYYG 241500Z 03005KT 15SM BKN008 BKN063 15/14 A2984 RMK SF6SC1 SLP105

CYYG;2009-09-24 15:48;CYYG 241548Z 03004KT 15SM FEW008 BKN018 15/ RMK SF2SC5

CYYG;2009-09-24 16:00;CYYG 241600Z 36003KT 15SM FEW010 BKN018 BKN069 15/14 A2985 RMK SF2SC3AC2 SLP107

CYYG;2009-09-24 17:00;CYYG 241700Z 31003KT 15SM BKN014 BKN067 BKN300 16/14 A2985 RMK SC5AC2CI0 SLP107

CYYG;2009-09-24 18:00;CYYG 241800Z 01004KT 15SM BKN015 BKN055 BKN300 19/15 A2985 RMK SC5SC1CI0 SLP107

CYYG;2009-09-24 19:00;CYYG 241900Z 33008KT 15SM SCT015TCU BKN056 BKN300 16/14 A2986 RMK TCU3SC2CI0 SLP113

CYYG;2009-09-24 20:00;CYYG 242000Z 34009KT 15SM FEW017 SCT056 15/14 A2987 RMK CU2SC1 SLP116

CYYG;2009-09-24 21:00;CYYG 242100Z 32007G15KT 15SM BKN017TCU 15/13 A2988 RMK TCU6 SLP120

CYYG;2009-09-24 22:00;CYYG 242200Z 36004KT 15SM BKN010TCU 14/13 A2990 RMK TCU5 SLP127

CYYG;2009-09-24 23:00;CYYG 242300Z 36003KT 15SM BKN015TCU 13/12 A2993 RMK TCU6 SLP135

CYYG;2009-09-25 00:00;CYYG 250000Z 36005KT 15SM BKN011TCU 12/12 A2994 RMK TCU5 CF ASOCTD SLP140

CYYG;2009-09-25 01:00;CYYG 250100Z 05006KT 15SM BKN021 12/10 A2996 RMK CU5 SLP144

CYYG;2009-09-25 02:00;CYYG 250200Z 02007KT 15SM SCT025 11/09 A2996 RMK CU4 SLP145

CYYG;2009-09-25 03:00;CYYG 250300Z 03006KT 15SM FEW025 11/08 A2996 RMK CU2 SLP145

CYYG;2009-09-25 04:00;CYYG 250400Z 04007KT 15SM FEW025 10/08 A2996 RMK CU1 SLP145

CYYG;2009-09-25 05:00;CYYG 250500Z 03002KT 15SM SKC 10/08 A2995 RMK SLP143

CYYG;2009-09-25 06:00;CYYG 250600Z 01002KT 15SM FEW018 10/08 A2995 RMK SC2 SLP143

CYYG;2009-09-25 07:00;CYYG 250700Z 34002KT 15SM FEW019 10/08 A2994 RMK SC2 SLP138

CYYG;2009-09-25 08:00;CYYG 250800Z 33002KT 15SM BKN017 10/08 A2996 RMK SC5 SLP144

CYYG;2009-09-25 09:00;CYYG 250900Z 36003KT 15SM BKN013 10/09 A2996 RMK SC6 SLP148

CYYG;2009-09-25 10:00;CYYG 251000Z 01004KT 15SM SCT015 BKN100 10/09 A2997 RMK CU3AC4 SLP151

CYYG;2009-09-25 11:00;CYYG 251100Z 02003KT 15SM SCT031 BKN095 10/09 A2998 RMK SC2AC4 SLP154

CYYG;2009-09-25 12:00;CYYG 251200Z 02006KT 15SM FEW026 BKN062 BKN200 11/09 A2999 RMK SC2SC2CI2 SLP157

CYYG;2009-09-25 12:27;CYYG 251227Z 02007KT 15SM -SHRA SCT022 BKN052 BKN200 10/ RMK SC2SC2CI2

CYYG;2009-09-25 13:00;CYYG 251300Z 04013KT 15SM -SHRA FEW020 SCT050 BKN097 OVC200 12/09 A3000 RMK SC2SC2AC2CI2 SLP159

CYYG;2009-09-25 13:03;CYYG 251303Z 04013KT 15SM FEW020 SCT050 BKN097 OVC200 12/ RMK SC2SC2AC2CI2

CYYG;2009-09-25 13:38;CYYG 251338Z 05011KT 15SM -SHRA FEW020 BKN051 OVC100 10/ RMK SC2SC3AC2

CYYG;2009-09-25 14:00;CYYG 251400Z 03013G18KT 15SM -SHRA SCT020 BKN026 OVC050 14/09 A3001 RMK SC3SC2SC2 SLP163

CYYG;2009-09-25 15:00;CYYG 251500Z 04018KT 15SM -SHRA OVC029 13/10 A3001 RMK SC7 SLP165

CYYG;2009-09-25 15:31;CYYG 251531Z 03020G27KT 15SM SCT024 BKN046 13/ RMK SC3SC4

CYYG;2009-09-25 16:00;CYYG 251600Z 02018G25KT 15SM BKN037 14/07 A3003 RMK SC6 SLP171

CYYG;2009-09-25 17:00;CYYG 251700Z 02019G25KT 15SM BKN031 BKN150 13/09 A3005 RMK SC5AC2 SLP177

CYYG;2009-09-25 18:00;CYYG 251800Z 02017G26KT 15SM BKN024TCU BKN160 14/10 A3005 RMK TCU5AC2 SH DIST NE-E SLP176

CYYG;2009-09-25 18:13;CYYG 251813Z 02020G27KT 10SM -SHRA OVC026 14/ RMK SC8

CYYG;2009-09-25 19:00;CYYG 251900Z 04016KT 15SM BKN023 13/10 A3008 RMK SC7 SLP186

CYYG;2009-09-25 19:25;CYYG 251925Z 03020KT 15SM BKN025 13/ RMK SC6

CYYG;2009-09-25 20:00;CYYG 252000Z 04022G27KT 15SM BKN026 BKN052 12/06 A3011 RMK SC5SC2 SLP196

CYYG;2009-09-25 20:27;CYYG 252027Z 02020G25KT 15SM -SHRA BKN025 BKN044 12/ RMK SC5SC1

CYYG;2009-09-25 21:00;CYYG 252100Z 02018G26KT 10SM -SHRA SCT025 BKN037 11/09 A3013 RMK SC3SC3 SLP205

CYYG;2009-09-25 22:00;CYYG 252200Z 03015G22KT 15SM -SHRA BKN024 10/08 A3017 RMK SC7 TCU EMBDD SLP218

CYYG;2009-09-25 22:33;CYYG 252233Z 04011G17KT 15SM OVC025 10/ RMK SC8

CYYG;2009-09-25 23:00;CYYG 252300Z 01013G19KT 15SM OVC023 10/07 A3020 RMK SC8 SLP229

CYYG;2009-09-25 23:16;CYYG 252316Z 02010G20KT 10SM -SHRA OVC023 10/ RMK SC8

CYYG;2009-09-26 00:00;CYYG 260000Z 02014G19KT 15SM BKN028 10/07 A3023 RMK SC6 SLP236

CYYG;2009-09-26 01:00;CYYG 260100Z 02008G16KT 10SM -SHRA OVC028 08/07 A3024 RMK SC8 SLP240

CYYG;2009-09-26 01:27;CYYG 260127Z 01011G20KT 10SM OVC028 08/ RMK SC7

CYYG;2009-09-26 02:00;CYYG 260200Z 01009G17KT 15SM BKN034 09/05 A3025 RMK SC6 SLP244

CYYG;2009-09-26 03:00;CYYG 260300Z 36007KT 15SM BKN034 09/04 A3025 RMK SC6 SLP245

CYYG;2009-09-26 04:00;CYYG 260400Z 01005KT 15SM BKN039 09/04 A3025 RMK SC6 SLP246

CYYG;2009-09-26 05:00;CYYG 260500Z 36006KT 15SM BKN045 09/05 A3025 RMK SC6 SLP246

CYYG;2009-09-26 06:00;CYYG 260600Z 35005KT 15SM BKN031 09/05 A3026 RMK SC7 SLP248

CYYG;2009-09-26 07:00;CYYG 260700Z 03004KT 15SM OVC026 10/08 A3025 RMK SC8 SLP246

CYYG;2009-09-26 08:00;CYYG 260800Z 35006KT 15SM -SHRA OVC024 07/06 A3025 RMK SC8 SLP246

CYYG;2009-09-26 08:22;CYYG 260822Z 36003KT 15SM OVC024 07/ RMK SC8

CYYG;2009-09-26 09:00;CYYG 260900Z 30004KT 15SM BKN028 08/05 A3026 RMK SC7 SLP249

CYYG;2009-09-26 10:00;CYYG 261000Z 30003KT 15SM BKN043 09/04 A3027 RMK SC6 SHRA E SLP251

CYYG;2009-09-26 11:00;CYYG 261100Z 29003KT 15SM BKN039 10/04 A3028 RMK SC6 SLP253

CYYG;2009-09-26 12:00;CYYG 261200Z 29006KT 15SM FEW039 SCT300 10/06 A3028 RMK SC2CI1 SLP254

CYYG;2009-09-26 13:00;CYYG 261300Z 30007KT 15SM FEW040 BKN300 11/05 A3028 RMK SC1CI1 SLP253

CYYG;2009-09-26 14:00;CYYG 261400Z 28006KT 15SM FEW028 FEW300 11/05 A3026 RMK SC2CI0 SLP247

CYYG;2009-09-26 15:00;CYYG 261500Z 29010KT 15SM FEW030 FEW300 12/04 A3024 RMK SC1CI1 SLP242

CYYG;2009-09-26 16:00;CYYG 261600Z 30008KT 15SM FEW032 SCT300 12/03 A3022 RMK SC1CI1 SLP233

CYYG;2009-09-26 17:00;CYYG 261700Z 31009G15KT 15SM FEW030 FEW300 11/05 A3020 RMK SC1CI0 SLP227

CYYG;2009-09-26 18:00;CYYG 261800Z 27009KT 15SM FEW030 FEW300 13/04 A3016 RMK SC1CI0 SLP215

CYYG;2009-09-26 19:00;CYYG 261900Z 25009KT 15SM FEW030 FEW300 13/03 A3013 RMK SC1CI0 SLP204

CYYG;2009-09-26 20:00;CYYG 262000Z 25007KT 15SM FEW300 12/08 A3012 RMK CI1 SLP200

CYYG;2009-09-26 21:00;CYYG 262100Z 25007KT 15SM FEW300 13/03 A3011 RMK CI1 SLP197

CYYG;2009-09-26 22:00;CYYG 262200Z 23003KT 15SM FEW300 11/03 A3009 RMK CI0 SLP190

CYYG;2009-09-26 23:00;CYYG 262300Z 25005KT 15SM FEW250 12/06 A3009 RMK CI1 SLP190

CYYG;2009-09-27 00:00;CYYG 270000Z 25009KT 15SM SKC 13/07 A3009 RMK SLP192

CYYG;2009-09-27 02:00;CYYG 270200Z 23005KT 15SM FEW250 12/07 A3007 RMK CI0 SLP183

CYYG;2009-09-27 03:00;CYYG 270300Z 25008KT 15SM FEW250 12/07 A3005 RMK CI0 SLP177

CYYG;2009-09-27 04:00;CYYG 270400Z 24006KT 15SM SKC 11/07 A3004 RMK SLP174

CYYG;2009-09-27 05:00;CYYG 270500Z 22005KT 15SM SKC 11/07 A3004 RMK SLP174

CYYG;2009-09-27 06:00;CYYG 270600Z 24005KT 15SM SKC 09/08 A3002 RMK SLP167

CYYG;2009-09-27 07:00;CYYG 270700Z 25005KT 15SM SKC 09/07 A3001 RMK SLP163

CYYG;2009-09-27 08:00;CYYG 270800Z 24006KT 15SM SKC 09/08 A3000 RMK SLP160

CYYG;2009-09-27 09:00;CYYG 270900Z 24004KT 15SM FEW250 09/07 A3000 RMK CI0 SLP160

CYYG;2009-09-27 10:00;CYYG 271000Z 25010KT 15SM FEW030 FEW120 BKN250 10/06 A2999 RMK SC1AC2CI2 SLP158

CYYG;2009-09-27 11:00;CYYG 271100Z 24010G17KT 15SM FEW030 SCT120 BKN220 10/06 A2998 RMK SC1AC3CI3 SLP155

CYYG;2009-09-27 12:00;CYYG 271200Z 25012KT 15SM FEW020 SCT120 BKN210 10/07 A3000 RMK SC2AC2CI3 SLP159

CYYG;2009-09-27 13:00;CYYG 271300Z 25012KT 15SM BKN017 OVC120 11/09 A3001 RMK SC6AC2 SLP163

CYYG;2009-09-27 14:00;CYYG 271400Z 23012G18KT 15SM SCT017 OVC190 12/10 A3000 RMK SC4AC4 SLP160

CYYG;2009-09-27 15:00;CYYG 271500Z 23014KT 15SM SCT017 OVC200 13/10 A3000 RMK SC3CI4 SLP159

CYYG;2009-09-27 16:00;CYYG 271600Z 23009G18KT 15SM BKN023 OVC200 13/10 A2998 RMK SC6CI2 SLP155

CYYG;2009-09-27 17:00;CYYG 271700Z 23013G19KT 15SM BKN023 OVC220 14/09 A2997 RMK SF6CI2 SLP149

CYYG;2009-09-27 18:00;CYYG 271800Z 22013G18KT 15SM SCT023 OVC220 15/10 A2996 RMK SC4CI4 SLP145

CYYG;2009-09-27 19:00;CYYG 271900Z 20012KT 15SM SCT023 BKN140 OVC220 15/10 A2993 RMK SC3AC2CI2 SLP138

CYYG;2009-09-27 20:00;CYYG 272000Z 22011G19KT 15SM FEW023 BKN140 OVC220 14/08 A2994 RMK SC2AC4CI2 SLP139

CYYG;2009-09-27 21:00;CYYG 272100Z 21010KT 15SM FEW025 BKN100 OVC220 13/09 A2995 RMK SC2AC4CI2 SLP143

CYYG;2009-09-27 22:00;CYYG 272200Z 22011KT 15SM FEW025 BKN120 OVC220 12/09 A2995 RMK SC2AC5CI1 SLP143

CYYG;2009-09-27 23:00;CYYG 272300Z 21010KT 15SM BKN086 OVC130 14/08 A2995 RMK AC6AC2 SLP142

CYYG;2009-09-28 00:00;CYYG 280000Z 20006KT 15SM OVC087 14/11 A2994 RMK AC8 SLP141

CYYG;2009-09-28 01:00;CYYG 280100Z 19009KT 15SM FEW085 OVC120 15/11 A2993 RMK AC2AC6 SLP137

CYYG;2009-09-28 02:00;CYYG 280200Z 17007KT 15SM FEW085 OVC110 14/11 A2991 RMK AC2AC6 SLP131

CYYG;2009-09-28 03:00;CYYG 280300Z 15005KT 15SM SCT090 OVC240 15/12 A2990 RMK AC4CI4 SLP125

CYYG;2009-09-28 04:00;CYYG 280400Z 15007KT 15SM FEW090 OVC240 15/12 A2987 RMK AC2CI6 SLP114

CYYG;2009-09-28 05:00;CYYG 280500Z 13007KT 15SM OVC220 14/12 A2985 RMK CI8 SLP109

CYYG;2009-09-28 06:00;CYYG 280600Z 15008KT 15SM OVC210 14/13 A2983 RMK CI8 SLP102

CYYG;2009-09-28 07:00;CYYG 280700Z 15008KT 15SM BKN055 OVC070 15/13 A2980 RMK SC6AC2 SLP093

CYYG;2009-09-28 07:17;CYYG 280717Z 15010G15KT 12SM -RA OVC043 15/ RMK SC8

CYYG;2009-09-28 08:00;CYYG 280800Z 14009KT 12SM -RA FEW035 OVC050 16/14 A2978 RMK SC2SC6 SLP084

CYYG;2009-09-28 09:00;CYYG 280900Z 13014KT 8SM -RA FEW015 OVC030 16/15 A2976 RMK SC2SC6 SLP078

CYYG;2009-09-28 10:00;CYYG 281000Z 13013G18KT 8SM -RA BKN012 OVC026 16/15 A2971 RMK SC5SC3 SLP061

CYYG;2009-09-28 10:51;CYYG 281051Z 14013G19KT 3SM RA BR BKN007 OVC025 15/ RMK SF6SC2

CYYG;2009-09-28 11:00;CYYG 281100Z 14013KT 3SM RA BR BKN007 OVC025 15/15 A2969 RMK SF6SC2 SLP054

CYYG;2009-09-28 12:00;CYYG 281200Z 13014G20KT 4SM RA BR BKN007 OVC030 15/15 A2966 RMK SF7NS1 SLP046

CYYG;2009-09-28 13:00;CYYG 281300Z 13015G22KT 4SM -RA BR BKN006 OVC015 16/15 A2962 RERA RMK SF7NS1 SLP032

CYYG;2009-09-28 13:25;CYYG 281325Z 14017KT 2SM R03/4500VP6000FT/D +RA BR OVC006 15/ RMK SF8

CYYG;2009-09-28 14:00;CYYG 281400Z 14017KT 2 1/2SM -RA BR OVC007 16/15 A2958 RERA RMK SF8 SLP019

CYYG;2009-09-28 14:19;CYYG 281419Z 13016G22KT 7SM -RA OVC006 16/ RMK SF8

CYYG;2009-09-28 15:00;CYYG 281500Z 14013KT 7SM -RADZ OVC006 16/16 A2956 RMK SF8 SLP009

CYYG;2009-09-28 15:41;CYYG 281541Z 16013KT 2SM +RA BR OVC006 16/ RMK SF8

CYYG;2009-09-28 16:00;CYYG 281600Z 12010KT 6SM -RA BR OVC004 17/17 A2953 RMK SF8 RERA SLP000

CYYG;2009-09-28 16:38;CYYG 281638Z 13007KT 2SM R03/3500VP6000FT/D RA BR OVC003 17/ RMK SF8

CYYG;2009-09-28 17:00;CYYG 281700Z 13007KT 1 1/2SM R03/3500VP6000FT/D +RA BR OVC003 17/17 A2950 RMK SF8 SLP990

CYYG;2009-09-28 17:16;CYYG 281716Z 14006KT 8SM -RA OVC003 17/ RERA RMK SF8

CYYG;2009-09-28 17:53;CYYG 281753Z 18009KT 15SM OVC005 19/ RERA RMK SF8

CYYG;2009-09-28 18:00;CYYG 281800Z 18009KT 15SM OVC005 19/18 A2948 RERA RMK SF8 SLP984

CYYG;2009-09-28 19:00;CYYG 281900Z 19010KT 15SM SCT005 SCT030 20/18 A2948 RMK SF3SC1 SLP982

CYYG;2009-09-28 20:00;CYYG 282000Z 19009KT 15SM SCT007 SCT030 20/18 A2948 RMK SF3SC1 SLP983

CYYG;2009-09-28 21:00;CYYG 282100Z 22007KT 15SM SCT025 20/18 A2951 RMK CU3 SLP993

CYYG;2009-09-28 22:00;CYYG 282200Z 26003KT 15SM FEW038 19/18 A2953 RMK CU2 SLP000

CYYG;2009-09-28 22:27;CYYG 282227Z 25007KT 15SM FEW008 SCT038 17/ RMK SF2CU2

CYYG;2009-09-28 23:00;CYYG 282300Z 24006KT 15SM FEW008 SCT022 BKN040 17/16 A2957 RMK SF2SC2SC2 SLP012

CYYG;2009-09-28 23:50;CYYG 282350Z 24007KT 10SM BKN003 BKN040 17/ RMK SF6SC2

CYYG;2009-09-29 00:00;CYYG 290000Z 23004KT 10SM OVC003 16/16 A2959 RMK SF8 SLP021

CYYG;2009-09-29 01:00;CYYG 290100Z 22007KT 15SM BKN003 BKN030 16/16 A2961 RMK SF5SC2 SLP028

CYYG;2009-09-29 01:10;CYYG 290110Z 22008KT 15SM FEW003 BKN030 16/ RMK SF2SC2

CYYG;2009-09-29 02:00;CYYG 290200Z 23006KT 15SM SCT009 BKN018 16/16 A2964 RMK SF4SC2 SLP037

CYYG;2009-09-29 03:00;CYYG 290300Z 24008KT 15SM FEW007 BKN015 16/15 A2965 RMK SF2SC5 SLP041

CYYG;2009-09-29 03:43;CYYG 290343Z 23007KT 15SM BKN012 15/ RMK SC6

CYYG;2009-09-29 04:00;CYYG 290400Z 23006KT 15SM BKN012 15/15 A2965 RMK SF6 SLP042

CYYG;2009-09-29 05:00;CYYG 290500Z 20007KT 15SM BKN012 14/14 A2968 RMK SC5 SLP050

CYYG;2009-09-29 06:00;CYYG 290600Z 20006KT 15SM SCT012 14/14 A2968 RMK SC3 SLP052

CYYG;2009-09-29 07:00;CYYG 290700Z 19006KT 15SM SCT012 14/13 A2968 RMK SC3 SLP050

CYYG;2009-09-29 08:00;CYYG 290800Z 16006KT 15SM SKC 15/15 A2968 RMK SLP051

CYYG;2009-09-29 09:00;CYYG 290900Z 16007KT 15SM FEW009 14/14 A2969 RMK SF2 SLP054

CYYG;2009-09-29 09:33;CYYG 290933Z 16007KT 15SM BKN008 14/ RMK SF6

CYYG;2009-09-29 10:00;CYYG 291000Z 17011KT 15SM BKN007 BKN250 14/14 A2968 RMK SF6CI1 SLP050

CYYG;2009-09-29 10:55;CYYG 291055Z 17010KT 15SM FEW007 BKN250 15/ RMK SF2CI2

CYYG;2009-09-29 11:00;CYYG 291100Z 17009KT 15SM FEW007 BKN250 14/14 A2968 RMK SF2CI1 SLP051

CYYG;2009-09-29 11:34;CYYG 291134Z 18014KT 15SM BKN006 BKN250 15/ RMK SF5CI1

CYYG;2009-09-29 12:00;CYYG 291200Z 18012KT 10SM OVC006 15/14 A2967 RMK SF8 SLP049

CYYG;2009-09-29 13:00;CYYG 291300Z 18012G17KT 15SM BKN007 15/15 A2970 RMK SF7 SLP058

CYYG;2009-09-29 13:47;CYYG 291347Z 16011KT 15SM SCT007 BKN250 16/ RMK SF3CI0

CYYG;2009-09-29 14:00;CYYG 291400Z 15011KT 15SM FEW007 BKN250 16/14 A2967 RMK SF2CI1 SLP047

CYYG;2009-09-29 15:00;CYYG 291500Z 16012G17KT 15SM FEW007 BKN250 17/13 A2963 RMK SF1CI2 SLP035

CYYG;2009-09-29 16:00;CYYG 291600Z 16016KT 15SM BKN024 BKN250 19/14 A2962 RMK SC6CI1 SLP029

CYYG;2009-09-29 17:00;CYYG 291700Z 15018G25KT 15SM FEW024 FEW120 BKN250 19/14 A2959 RMK SC1AC2CI3 SLP021

CYYG;2009-09-29 18:00;CYYG 291800Z 15017G25KT 15SM FEW024 SCT120 BKN250 19/14 A2956 RMK SC1AC3CI2 SLP011

CYYG;2009-09-29 19:00;CYYG 291900Z 15017G27KT 15SM FEW020 FEW045 SCT090 BKN190 20/16 A2955 RMK CU1SC1AC2AC4 SLP005

CYYG;2009-09-29 20:00;CYYG 292000Z 15018KT 15SM FEW025 BKN070 BKN090 19/16 A2951 RMK SC2AC3AC2 SLP992

CYYG;2009-09-29 20:43;CYYG 292043Z 15020G28KT 15SM -SHRA BKN027 BKN060 BKN090 20/ RMK SC5SC2AC1

CYYG;2009-09-29 21:00;CYYG 292100Z 15018G25KT 15SM -SHRA BKN022 BKN060 20/17 A2948 RMK SC6SC2 VIS LWR SW-NW SLP983

CYYG;2009-09-29 21:26;CYYG 292126Z 16017G26KT 10SM -SHRA BKN012 BKN038 BKN060 20/ RMK SC5SC2SC1

CYYG;2009-09-29 22:00;CYYG 292200Z 18014G21KT 10SM SHRA FEW012 BKN018 19/17 A2949 RMK SF2SC6 TCU EMBDD SLP985

CYYG;2009-09-29 22:05;CYYG 292205Z 22015KT 2SM +SHRA BR BKN010 OVC018 19/ RMK SF6SC2

CYYG;2009-09-29 22:20;CYYG 292220Z 25010KT 10SM -SHRA SCT010 OVC020 17/ RERA RMK SF3SC5

CYYG;2009-09-29 23:00;CYYG 292300Z 26004KT 10SM -SHRA FEW010 OVC027 17/15 A2952 RERA RMK SF1SC7 SLP997

CYYG;2009-09-29 23:24;CYYG 292324Z 23004KT 12SM FEW010 OVC027 17/ RMK SF1SC7

CYYG;2009-09-30 00:00;CYYG 300000Z 21005KT 12SM FEW012 OVC027 16/15 A2955 RMK SC1SC7 SLP007

CYYG;2009-09-30 01:00;CYYG 300100Z 24007KT 12SM FEW010 OVC030 15/13 A2957 RMK SC2SC6 SLP014

CYYG;2009-09-30 01:28;CYYG 300128Z 24010KT 12SM BKN009 OVC038 14/ RMK SF5SC3

CYYG;2009-09-30 02:00;CYYG 300200Z 22008KT 15SM SCT009 BKN038 14/12 A2960 RMK SF3SC2 SLP023

CYYG;2009-09-30 03:00;CYYG 300300Z 21009KT 15SM FEW012 SCT040 14/12 A2962 RMK SC2SC2 SLP031

CYYG;2009-09-30 04:00;CYYG 300400Z 22010G15KT 15SM FEW012 FEW040 13/10 A2962 RMK SC1SC1 SLP030

CYYG;2009-09-30 05:00;CYYG 300500Z 21007KT 15SM SKC 13/10 A2964 RMK SLP038

CYYG;2009-09-30 06:00;CYYG 300600Z 21008KT 15SM SKC 13/10 A2965 RMK SLP041

CYYG;2009-09-30 07:00;CYYG 300700Z 20006KT 15SM SKC 12/10 A2966 RMK SLP044

CYYG;2009-09-30 08:00;CYYG 300800Z 19008KT 15SM FEW012 12/10 A2966 RMK SC1 SLP046

CYYG;2009-09-30 09:00;CYYG 300900Z 20006KT 15SM FEW012 12/10 A2968 RMK SC2 SLP052

CYYG;2009-09-30 09:37;CYYG 300937Z 19011KT 15SM BKN011 13/ RMK SC6

CYYG;2009-09-30 10:00;CYYG 301000Z 19011KT 15SM BKN011 13/11 A2970 RMK SC7 SLP057

CYYG;2009-09-30 11:00;CYYG 301100Z 20013G18KT 15SM BKN010 13/10 A2972 RMK SC7 SLP064

CYYG;2009-09-30 12:00;CYYG 301200Z 20010KT 15SM BKN011 13/11 A2974 RMK SC7 SLP070

CYYG;2009-09-30 12:36;CYYG 301236Z 19008KT 15SM BKN009 14/ RMK SC7

CYYG;2009-09-30 13:00;CYYG 301300Z 18012G18KT 15SM BKN010 14/11 A2974 RMK SC7 SLP073

CYYG;2009-09-30 14:00;CYYG 301400Z 20010G15KT 15SM BKN011 15/12 A2974 RMK SC5 SLP073

CYYG;2009-09-30 14:29;CYYG 301429Z 19012KT 15SM FEW012 16/ RMK SC2

CYYG;2009-09-30 15:00;CYYG 301500Z 19010G15KT 15SM FEW014 17/13 A2974 RMK CU1 SLP073

CYYG;2009-09-30 16:00;CYYG 301600Z 21013G18KT 15SM FEW015 18/13 A2975 RMK CU2 SLP075

CYYG;2009-09-30 17:00;CYYG 301700Z 20012KT 15SM FEW027 19/13 A2974 RMK CU2 SLP073

CYYG;2009-09-30 18:00;CYYG 301800Z 19012KT 15SM FEW032 19/13 A2975 RMK CU2 SLP074

CYYG;2009-09-30 19:00;CYYG 301900Z 21007KT 15SM BKN041 18/12 A2975 RMK SC6 SLP075

CYYG;2009-09-30 20:00;CYYG 302000Z 21007KT 15SM FEW038 SCT057 19/12 A2975 RMK CU1SC2 SLP076

CYYG;2009-09-30 21:00;CYYG 302100Z 19006KT 15SM FEW038 FEW055 BKN069 18/12 A2977 RMK CU1SC2AC4 SLP080

CYYG;2009-09-30 22:00;CYYG 302200Z 15004KT 15SM FEW035 BKN044 BKN070 17/12 A2977 RMK SC2SC4AC2 SLP082

CYYG;2009-09-30 23:00;CYYG 302300Z 16006KT 15SM SCT045 BKN074 16/12 A2979 RMK SC3AC2 SLP087

CYYG;2009-10-01 01:00;CYYG 010100Z 16007KT 15SM FEW045 SCT075 15/12 A2979 RMK SC1AC3 SLP090

CYYG;2009-10-01 02:00;CYYG 010200Z 18009KT 15SM FEW045 FEW075 15/12 A2980 RMK SC1AC2 SLP092

CYYG;2009-10-01 02:28;CYYG 010228Z 18011KT 15SM -SHRA SCT045 BKN075 16/ RMK SC3AC2

CYYG;2009-10-01 03:00;CYYG 010300Z 18011KT 15SM FEW045 BKN064 BKN140 15/13 A2979 RMK SC2SC3AC2 SLP090

CYYG;2009-10-01 04:00;CYYG 010400Z 18007KT 15SM FEW064 BKN140 15/13 A2979 RMK SC2AC4 SLP089

CYYG;2009-10-01 04:49;CYYG 010449Z 17008KT 15SM -SHRA FEW050 OVC080 15/ RMK SC2AC6

CYYG;2009-10-01 05:00;CYYG 010500Z 18008KT 15SM -SHRA SCT044 OVC080 15/13 A2980 RMK SC3AC5 SLP093

CYYG;2009-10-01 06:00;CYYG 010600Z 17006KT 15SM -SHRA BKN041 OVC080 15/13 A2980 RMK SC5AC3 SLP092

CYYG;2009-10-01 07:00;CYYG 010700Z 16008KT 15SM SCT015 BKN031 OVC060 15/13 A2980 RMK SC3SC2SC2 SLP092

CYYG;2009-10-01 08:00;CYYG 010800Z 16018KT 12SM -SHRA SCT006 OVC020 15/13 A2980 RMK SF4SC4 SLP091

CYYG;2009-10-01 09:00;CYYG 010900Z 15007KT 15SM -SHRA SCT006 OVC032 15/13 A2980 RMK SF3SC5 SLP092

CYYG;2009-10-01 09:46;CYYG 010946Z 16005KT 15SM FEW006 BKN042 14/ RMK SF2SC6

CYYG;2009-10-01 10:00;CYYG 011000Z 15004KT 15SM BKN037 BKN061 14/13 A2981 RMK SC5SC2 SLP095

CYYG;2009-10-01 11:00;CYYG 011100Z 15007KT 15SM BKN037 BKN075 14/12 A2982 RMK SC5AC1 SLP097

CYYG;2009-10-01 12:00;CYYG 011200Z 14006KT 15SM FEW020 BKN045 BKN098 15/12 A2983 RMK SC1SC5AC2 SLP103

CYYG;2009-10-01 13:00;CYYG 011300Z 16007KT 15SM FEW020 BKN036 BKN098 16/13 A2983 RMK SC2SC3AC2 SLP103

CYYG;2009-10-01 14:00;CYYG 011400Z 16010KT 15SM FEW011 SCT025 BKN100 17/14 A2983 RMK SF2SC2AC1 SLP101

CYYG;2009-10-01 15:00;CYYG 011500Z 17009KT 15SM SCT011 BKN025 BKN100 17/14 A2983 RMK SC3SC2AC1 SLP102

CYYG;2009-10-01 16:00;CYYG 011600Z 17009KT 15SM SCT011 SCT036 BKN062 17/13 A2984 RMK SC3SC1AC2 SLP105

CYYG;2009-10-01 17:00;CYYG 011700Z 19010KT 15SM SCT017 BKN060 17/13 A2982 RMK CU4SC1 SLP100

CYYG;2009-10-01 18:00;CYYG 011800Z 23010KT 15SM SCT017 BKN060 18/13 A2983 RMK CU4SC1 SLP102

CYYG;2009-10-01 19:00;CYYG 011900Z 25007KT 15SM FEW020TCU SCT040 18/12 A2984 RMK TCU2SC2 TCU NE-E SLP105

CYYG;2009-10-01 20:00;CYYG 012000Z 27008KT 15SM FEW020TCU SCT038 16/11 A2985 RMK TCU2SC2 TCU NE-SE SLP109

CYYG;2009-10-01 21:00;CYYG 012100Z 27007KT 15SM FEW018TCU BKN028 14/09 A2987 RMK TCU2SC6 SLP115

CYYG;2009-10-01 22:00;CYYG 012200Z 27008KT 15SM BKN029 13/08 A2989 RMK SC6 SLP123

CYYG;2009-10-01 23:00;CYYG 012300Z 27009KT 15SM BKN035 12/05 A2992 RMK SC7 SLP131

CYYG;2009-10-02 00:00;CYYG 020000Z 26005KT 15SM BKN044 11/05 A2993 RMK SC6 SLP134

CYYG;2009-10-02 01:00;CYYG 020100Z 25005KT 15SM SCT042 11/05 A2994 RMK SC2 SLP138

CYYG;2009-10-02 02:00;CYYG 020200Z 26006KT 15SM BKN043 10/06 A2994 RMK SC4 SLP140

CYYG;2009-10-02 03:00;CYYG 020300Z 25003KT 15SM BKN041 10/06 A2995 RMK SC6 SLP143

CYYG;2009-10-02 04:00;CYYG 020400Z 25003KT 15SM BKN040 10/06 A2996 RMK SC6 SLP145

CYYG;2009-10-02 05:00;CYYG 020500Z 24002KT 15SM FEW040 09/06 A2996 RMK SC2 SLP147

CYYG;2009-10-02 06:00;CYYG 020600Z 00000KT 15SM FEW040 06/05 A2996 RMK SC2 SLP147

CYYG;2009-10-02 07:00;CYYG 020700Z 00000KT 15SM FEW040 06/05 A2997 RMK SC1 SLP149

CYYG;2009-10-02 08:00;CYYG 020800Z 24003KT 15SM SCT042 09/06 A2998 RMK SC3 SLP155

CYYG;2009-10-02 09:00;CYYG 020900Z 26002KT 15SM BKN039 09/06 A2999 RMK SC6 SLP156

CYYG;2009-10-02 10:00;CYYG 021000Z 22002KT 15SM SCT016 BKN038 09/06 A2999 RMK SC3SC4 SLP156

CYYG;2009-10-02 11:00;CYYG 021100Z 27002KT 15SM FEW016 BKN036 10/07 A2999 RMK SC2SC4 SLP157

CYYG;2009-10-02 12:00;CYYG 021200Z 25004KT 15SM FEW016 BKN038 11/07 A3000 RMK SC1SC5 SLP160

CYYG;2009-10-02 13:00;CYYG 021300Z 23008KT 15SM FEW023 BKN039 12/06 A3001 RMK CF1CU6 SLP162

CYYG;2009-10-02 14:00;CYYG 021400Z 21011KT 15SM BKN038 12/05 A3001 RMK CU7 SLP165

CYYG;2009-10-02 15:00;CYYG 021500Z 21009KT 15SM BKN046 BKN120 12/05 A3001 RMK CU7AC1 AC TR SLP165

CYYG;2009-10-02 16:00;CYYG 021600Z 25007KT 15SM BKN052 BKN120 12/06 A3002 RMK CU7AC1 AC TR SLP167

CYYG;2009-10-02 17:00;CYYG 021700Z 25006KT 15SM BKN058 12/05 A3001 RMK CU7 SHRA W SLP164

CYYG;2009-10-02 18:00;CYYG 021800Z 27004KT 15SM BKN039 BKN058 12/05 A3002 RMK CU6CU2 SHRA W SLP167

CYYG;2009-10-02 18:12;CYYG 021812Z 25002KT 5SM -SHRA BKN035 BKN058 11/ RMK CU6CU1 VSBY LWR SW-S

CYYG;2009-10-02 19:00;CYYG 021900Z 25003KT 15SM -SHRA BKN041 OVC058 11/07 A3002 RMK CU6CU2 VSBY LWR E SLP167

CYYG;2009-10-02 19:14;CYYG 021914Z 21002KT 15SM BKN038 OVC058 11/ RMK CU6CU2 SHRA E

CYYG;2009-10-02 20:00;CYYG 022000Z 26004KT 15SM SCT038 BKN050 BKN080 11/07 A3002 RMK CU3CU2AC2 SLP166

CYYG;2009-10-02 21:00;CYYG 022100Z 24005KT 15SM BKN030 BKN081 12/07 A3002 RMK CU5AC2 SHRA E SLP166

CYYG;2009-10-02 22:00;CYYG 022200Z 22003KT 15SM BKN033 BKN080 11/07 A3004 RMK CU6AC2 SHRA N AND W SLP172

CYYG;2009-10-02 23:00;CYYG 022300Z 00000KT 15SM FEW020 BKN058 11/08 A3004 RMK CU2SC5 SLP174

CYYG;2009-10-03 00:00;CYYG 030000Z 27003KT 15SM FEW022 BKN052 10/08 A3005 RMK CU2SC4 SLP177

CYYG;2009-10-03 01:00;CYYG 030100Z 27006KT 15SM BKN047 10/07 A3006 RMK SC6 SLP182

CYYG;2009-10-03 02:00;CYYG 030200Z 27005KT 15SM OVC048 10/07 A3008 RMK SC8 SLP186

CYYG;2009-10-03 03:00;CYYG 030300Z 28005KT 15SM SCT042 OVC052 10/08 A3008 RMK SC3SC5 SLP188

CYYG;2009-10-03 04:00;CYYG 030400Z 26006KT 15SM OVC049 10/07 A3009 RMK SC8 SLP189

CYYG;2009-10-03 05:00;CYYG 030500Z 27004KT 15SM OVC050 10/07 A3010 RMK SC8 SLP193

CYYG;2009-10-03 06:00;CYYG 030600Z 28005KT 15SM BKN047 10/07 A3011 RMK SC7 SLP197

CYYG;2009-10-03 07:00;CYYG 030700Z 29005KT 15SM BKN048 10/07 A3011 RMK SC7 SLP198

CYYG;2009-10-03 08:00;CYYG 030800Z 27003KT 15SM BKN047 10/07 A3012 RMK SC7 SLP201

CYYG;2009-10-03 09:00;CYYG 030900Z 28004KT 15SM BKN047 09/07 A3013 RMK SC7 SLP205

CYYG;2009-10-03 10:00;CYYG 031000Z 27004KT 15SM FEW020 BKN044 09/06 A3014 RMK CU1SC4 SLP206

CYYG;2009-10-03 11:00;CYYG 031100Z 29005KT 15SM FEW020 SCT045 09/06 A3016 RMK CU1SC4 SLP214

CYYG;2009-10-03 12:00;CYYG 031200Z 31006KT 15SM FEW020 FEW045 FEW150 11/05 A3017 RMK CU1SC1AC1 VIRGA SLP219

CYYG;2009-10-03 13:00;CYYG 031300Z 30008KT 15SM FEW020 FEW045 FEW250 12/05 A3019 RMK CU1SC1CI1 SLP224

CYYG;2009-10-03 14:00;CYYG 031400Z 26005KT 15SM FEW025 13/04 A3019 RMK SC2 SLP225

CYYG;2009-10-03 15:00;CYYG 031500Z 28006KT 15SM BKN032 12/05 A3020 RMK SC6 SLP228

CYYG;2009-10-03 16:00;CYYG 031600Z 27007KT 15SM SCT033 13/05 A3020 RMK SC3 SLP227

CYYG;2009-10-03 17:00;CYYG 031700Z 00000KT 15SM FEW035 14/05 A3019 RMK SC2 SLP223

CYYG;2009-10-03 18:00;CYYG 031800Z 00000KT 15SM FEW035 14/05 A3019 RMK SC1 SLP225

CYYG;2009-10-03 19:00;CYYG 031900Z 02004KT 15SM FEW035 FEW250 15/06 A3019 RMK SC1CI0 SLP225

CYYG;2009-10-03 20:00;CYYG 032000Z 35002KT 15SM FEW035 FEW140 FEW250 14/06 A3020 RMK SC1AC1CI0 SLP228

CYYG;2009-10-03 21:00;CYYG 032100Z 03004KT 15SM FEW035 FEW140 FEW250 12/06 A3020 RMK SC1AC1CI0 SLP229

CYYG;2009-10-03 22:00;CYYG 032200Z 07002KT 15SM FEW035 FEW140 FEW250 10/06 A3022 RMK SC1AC1CI0 SLP235

CYYG;2009-10-03 23:00;CYYG 032300Z 07003KT 15SM FEW035 SCT140 08/05 A3023 RMK SC1AC2 SLP237

CYYG;2009-10-04 00:00;CYYG 040000Z 06007KT 15SM FEW035 SCT140 BKN250 09/06 A3021 RMK SC1AC2CI2 SLP232

CYYG;2009-10-04 01:00;CYYG 040100Z 09004KT 15SM FEW035 BKN140 BKN250 09/06 A3020 RMK SC1AC4CI2 SLP227

CYYG;2009-10-04 02:00;CYYG 040200Z 10004KT 15SM FEW035 BKN140 BKN250 09/05 A3021 RMK SC1AC5CI1 SLP231

CYYG;2009-10-04 03:00;CYYG 040300Z 10003KT 15SM FEW035 BKN130 09/06 A3021 RMK SC1AC6 SLP230

CYYG;2009-10-04 04:00;CYYG 040400Z 14003KT 15SM BKN120 09/06 A3021 RMK AC7 SLP231

CYYG;2009-10-04 05:00;CYYG 040500Z 10006KT 15SM OVC120 10/06 A3021 RMK AC8 SLP231

CYYG;2009-10-04 06:00;CYYG 040600Z 09003KT 15SM BKN120 OVC210 10/07 A3021 RMK AC6CI2 SLP230

CYYG;2009-10-04 07:00;CYYG 040700Z 10004KT 15SM SCT072 OVC120 10/08 A3018 RMK AC3AC5 SLP222

CYYG;2009-10-04 08:00;CYYG 040800Z 10006KT 15SM BKN070 OVC120 11/08 A3017 RMK AC6AC2 SLP218

CYYG;2009-10-04 09:00;CYYG 040900Z 10005KT 15SM BKN055 OVC070 11/08 A3016 RMK SC5AC3 SLP215

CYYG;2009-10-04 10:00;CYYG 041000Z 09005KT 15SM BKN055 BKN120 11/08 A3015 RMK SC5AC2 SLP211

CYYG;2009-10-04 11:00;CYYG 041100Z 13006KT 15SM SCT055 BKN073 OVC160 11/08 A3016 RMK SC3AC2AC2 SLP213

CYYG;2009-10-04 12:00;CYYG 041200Z 13009KT 15SM FEW055 SCT073 OVC140 12/09 A3014 RMK SC1AC2AC5 SLP207

CYYG;2009-10-04 13:00;CYYG 041300Z 12009KT 15SM FEW020 SCT073 OVC120 12/09 A3012 RMK SC1AC2AC5 SLP199

CYYG;2009-10-04 14:00;CYYG 041400Z 11008KT 15SM FEW015 OVC100 13/09 A3010 RMK SC1AC7 SLP195

CYYG;2009-10-04 15:00;CYYG 041500Z 14008KT 15SM FEW015 OVC120 14/10 A3010 RMK SC1AC7 SLP193

CYYG;2009-10-04 16:00;CYYG 041600Z 12007KT 15SM FEW015 OVC120 14/10 A3008 RMK SC1AC7 SLP186

CYYG;2009-10-04 17:00;CYYG 041700Z 12008KT 15SM FEW025 BKN040 OVC110 14/10 A3005 RMK SC2SC4AC2 SLP177

CYYG;2009-10-04 17:33;CYYG 041733Z 12011KT 15SM -RA BKN026 OVC100 14/ RMK SC6AS2

CYYG;2009-10-04 18:00;CYYG 041800Z 11011KT 15SM -RA BKN022 OVC100 14/10 A3003 RMK SC6AS2 SLP171

CYYG;2009-10-04 19:00;CYYG 041900Z 11009KT 10SM -RA FEW010 OVC019 13/11 A3001 RMK SC2SC6 SLP163

CYYG;2009-10-04 19:19;CYYG 041919Z 11011KT 8SM -RA SCT008 OVC018 13/ RMK SF4SC4

CYYG;2009-10-04 19:52;CYYG 041952Z 12011KT 8SM -RA BKN008 OVC018 13/ RMK SF6SC2

CYYG;2009-10-04 20:00;CYYG 042000Z 12013KT 7SM -RA BKN008 OVC017 13/11 A2998 RMK SF6SC2 SLP153

CYYG;2009-10-04 21:00;CYYG 042100Z 12014G20KT 7SM -RA BKN008 OVC017 13/11 A2996 RMK SF6SC2 SLP148

CYYG;2009-10-04 22:00;CYYG 042200Z 12013G18KT 5SM RA BKN006 OVC020 12/10 A2995 RMK SF6SC2 SLP143

CYYG;2009-10-04 23:00;CYYG 042300Z 11011KT 8SM RA FEW003 BKN006 OVC020 12/11 A2992 RMK SF2SF5SC2 SLP133

CYYG;2009-10-05 00:00;CYYG 050000Z 13014G20KT 15SM -RA BKN004 OVC012 12/11 A2990 RERA RMK SF6SF2 /R12/ SLP126

CYYG;2009-10-05 00:42;CYYG 050042Z 13012G17KT 10SM -RA FEW004 OVC006 12/ RERA RMK SF2SF6

CYYG;2009-10-05 01:00;CYYG 050100Z 12012G17KT 15SM -RA OVC006 12/11 A2988 RERA RMK SF8 SLP120

CYYG;2009-10-05 01:28;CYYG 050128Z 12013KT 15SM -RA BKN004 OVC007 12/ RMK SF6SF2

CYYG;2009-10-05 02:00;CYYG 050200Z 13014KT 15SM -RA SCT004 OVC007 12/11 A2986 RERA RMK SF3SF5 SLP111

CYYG;2009-10-05 03:00;CYYG 050300Z 13011G17KT 10SM -RA BKN006 OVC014 12/11 A2984 RMK SF6SC2 SLP105

CYYG;2009-10-05 04:00;CYYG 050400Z 12015KT 10SM RA BKN004 OVC010 12/11 A2980 RMK SF6SF2 /R10/ SLP093

CYYG;2009-10-05 05:00;CYYG 050500Z 13010G16KT 15SM -RA OVC007 12/11 A2978 RERA RMK SF8 SLP086

CYYG;2009-10-05 06:00;CYYG 050600Z 12011G16KT 10SM RA BKN006 OVC023 12/11 A2976 RMK SF6SC2 SLP078

CYYG;2009-10-05 07:00;CYYG 050700Z 13014G20KT 15SM -RA BKN007 BKN033 OVC048 12/10 A2972 RERA RMK SF5SC2SC2 SLP066

CYYG;2009-10-05 08:00;CYYG 050800Z 13012G17KT 15SM -RA OVC008 12/10 A2970 RMK SF8 SLP058

CYYG;2009-10-05 09:00;CYYG 050900Z 13008KT 10SM RA OVC008 12/10 A2969 RMK SF8 SLP054

CYYG;2009-10-05 10:00;CYYG 051000Z 16008KT 10SM RA BKN008 OVC017 12/10 A2970 RMK SF6SC2 SLP057

CYYG;2009-10-05 10:45;CYYG 051045Z 13008KT 10SM -RA BKN010 OVC022 12/ RMK SF6SC2 RERA

CYYG;2009-10-05 11:00;CYYG 051100Z 13009KT 10SM -RA BKN011 OVC030 12/10 A2967 RMK SF7SC1 RERA SLP049

CYYG;2009-10-05 12:00;CYYG 051200Z 14006KT 10SM -RA BKN011 OVC020 12/11 A2967 RMK SF7SC1 SLP048

CYYG;2009-10-05 12:31;CYYG 051231Z 14006KT 10SM -RA BKN008 OVC018 12/ RMK SF7SC1

CYYG;2009-10-05 13:00;CYYG 051300Z 15006KT 10SM -RA BKN011 OVC016 12/11 A2967 RMK SF7SC1 SLP048

CYYG;2009-10-05 14:00;CYYG 051400Z 17005KT 10SM -RA BKN008 OVC016 13/11 A2966 RMK SF7SC1 SLP044

CYYG;2009-10-05 14:14;CYYG 051414Z 17005KT 5SM -RA BR OVC007 13/ RMK SF8

CYYG;2009-10-05 14:26;CYYG 051426Z 17006KT 3SM -RA BR OVC004 13/ RMK SF8

CYYG;2009-10-05 15:00;CYYG 051500Z 17006KT 3SM -RA BR OVC005 13/12 A2964 RMK SF8 SLP038

CYYG;2009-10-05 16:00;CYYG 051600Z 19006KT 3SM -RA BR OVC007 13/12 A2962 RMK SF8 SLP031

CYYG;2009-10-05 17:00;CYYG 051700Z 17006KT 3SM -RA BR OVC004 13/12 A2961 RMK SF8 SLP027

CYYG;2009-10-05 17:46;CYYG 051746Z 18008KT 3SM -DZ BR OVC005 13/ RMK SF8

CYYG;2009-10-05 18:00;CYYG 051800Z 16008KT 3SM -DZ BR OVC005 13/12 A2958 RMK SF8 SLP017

CYYG;2009-10-05 18:45;CYYG 051845Z 16006KT 1 1/2SM R03/4000VP6000FT/D -DZ BR OVC003 13/ RMK SF8

CYYG;2009-10-05 19:00;CYYG 051900Z 15005KT 3SM -RA BR OVC005 13/12 A2957 RMK SF8 SLP013

CYYG;2009-10-05 20:00;CYYG 052000Z 17005KT 4SM -RA BR OVC004 13/12 A2955 RMK SF8 SLP009

CYYG;2009-10-05 20:07;CYYG 052007Z 24005KT 10SM -DZ OVC006 13/ RMK SF8

CYYG;2009-10-05 20:21;CYYG 052021Z 28009KT 15SM OVC010 14/ RMK SF8

CYYG;2009-10-05 21:00;CYYG 052100Z 28008KT 15SM BKN010 OVC030 13/12 A2955 RMK SF6SC2 SLP009

CYYG;2009-10-05 22:00;CYYG 052200Z 27004KT 15SM BKN010 BKN022 OVC040 13/11 A2955 RMK SF5SC2SC2 SLP008

CYYG;2009-10-05 23:00;CYYG 052300Z 27006KT 15SM BKN013 OVC042 13/11 A2956 RMK SC5SC3 SLP011

CYYG;2009-10-05 23:40;CYYG 052340Z 28006KT 10SM -SHRA FEW011 BKN016 OVC023 12/ RMK SF2SC4SC2

CYYG;2009-10-06 00:00;CYYG 060000Z 28005KT 15SM -SHRA BKN013 OVC024 12/11 A2956 RMK SC5SC3 SLP012

CYYG;2009-10-06 00:31;CYYG 060031Z 28004KT 15SM -DZ BKN012 OVC027 RMK SC5SC3

CYYG;2009-10-06 01:00;CYYG 060100Z 26004KT 15SM -DZ BKN008 OVC032 12/11 A2956 RMK SF6SC2 SLP011

CYYG;2009-10-06 01:03;CYYG 060103Z 25003KT 15SM SCT008 BKN022 OVC038 12/ RMK SF3SC2SC2

CYYG;2009-10-06 02:00;CYYG 060200Z 25006KT 15SM FEW022 BKN035 12/10 A2955 RMK SC2SC6 SLP009

CYYG;2009-10-06 03:00;CYYG 060300Z 25008KT 15SM FEW018 BKN041 12/09 A2955 RMK SC2SC5 SLP007

CYYG;2009-10-06 04:00;CYYG 060400Z 25008KT 15SM BKN036 11/09 A2953 RMK SC7 SLP002

CYYG;2009-10-06 05:00;CYYG 060500Z 25009KT 15SM BKN018 BKN036 11/09 A2953 RMK SC5SC2 SLP001

CYYG;2009-10-06 06:00;CYYG 060600Z 25006KT 15SM FEW013 OVC029 11/09 A2952 RMK SC2SC6 SLP998

CYYG;2009-10-06 07:00;CYYG 060700Z 25007KT 15SM OVC019 11/08 A2952 RMK SC8 SLP996

CYYG;2009-10-06 08:00;CYYG 060800Z 27010G15KT 15SM OVC018 10/07 A2952 RMK SC8 SLP999

CYYG;2009-10-06 09:00;CYYG 060900Z 28009G15KT 15SM OVC018 10/07 A2953 RMK SC8 SLP000

CYYG;2009-10-06 10:00;CYYG 061000Z 28011KT 15SM OVC017 10/06 A2954 RMK SC8 SLP003

CYYG;2009-10-06 11:00;CYYG 061100Z 28011G18KT 15SM OVC018 10/06 A2955 RMK SC8 SLP009

CYYG;2009-10-06 12:00;CYYG 061200Z 29011G19KT 15SM OVC016 10/06 A2957 RMK SC8 SLP013

CYYG;2009-10-06 13:00;CYYG 061300Z 29012G19KT 15SM BKN016 10/07 A2957 RMK SC7 SLP015

CYYG;2009-10-06 14:00;CYYG 061400Z 29012G18KT 15SM OVC016 10/07 A2958 RMK SC8 SLP016

CYYG;2009-10-06 15:00;CYYG 061500Z 28014G20KT 15SM OVC016 10/06 A2958 RMK SC8 SLP018

CYYG;2009-10-06 16:00;CYYG 061600Z 28012G19KT 15SM OVC018 11/06 A2958 RMK SC8 SLP019

CYYG;2009-10-06 17:00;CYYG 061700Z 29014G19KT 15SM OVC019 10/06 A2958 RMK SC8 SLP018

CYYG;2009-10-06 17:42;CYYG 061742Z 29010G19KT 15SM -SHRA OVC020 10/ RMK SC8

CYYG;2009-10-06 18:00;CYYG 061800Z 30009KT 15SM -SHRA BKN020 OVC045 10/07 A2960 RMK SC7SC1 SLP023

CYYG;2009-10-06 19:00;CYYG 061900Z 31014KT 15SM -SHRA OVC016 10/07 A2961 RMK SC8 SLP029

CYYG;2009-10-06 19:40;CYYG 061940Z 30008KT 15SM BKN018 OVC080 10/ RMK SC6AC2

CYYG;2009-10-06 20:00;CYYG 062000Z 30008G15KT 15SM BKN021 OVC080 10/07 A2962 RMK SC6AC2 SLP031

CYYG;2009-10-06 21:00;CYYG 062100Z 29007KT 15SM SCT020 BKN053 BKN080 10/07 A2964 RMK SC3SC2AC2 SLP037

CYYG;2009-10-06 22:00;CYYG 062200Z 27005KT 15SM SCT020 BKN045 BKN080 10/06 A2965 RMK SC3SC2AC2 SLP042

CYYG;2009-10-06 23:00;CYYG 062300Z 25006KT 15SM FEW020 BKN045 BKN080 09/07 A2966 RMK SC2SC2AC1 SLP046

CYYG;2009-10-07 00:00;CYYG 070000Z 27004KT 15SM FEW020 BKN050 10/07 A2967 RMK SC2SC5 SLP049

CYYG;2009-10-07 01:00;CYYG 070100Z 23005KT 15SM FEW020 BKN050 10/07 A2968 RMK SC2SC5 SLP050

CYYG;2009-10-07 02:00;CYYG 070200Z 25004KT 15SM FEW020 BKN050 10/07 A2967 RMK SC2SC5 SLP048

CYYG;2009-10-07 03:00;CYYG 070300Z 25006KT 15SM FEW020 BKN050 10/07 A2967 RMK SC2SC5 SLP049

CYYG;2009-10-07 04:00;CYYG 070400Z 27004KT 15SM FEW020 OVC050 09/07 A2969 RMK SC2SC6 SLP053

CYYG;2009-10-07 05:00;CYYG 070500Z 25006KT 15SM FEW020 BKN050 09/07 A2969 RMK SC2SC3 SLP056

CYYG;2009-10-07 06:00;CYYG 070600Z 25007KT 15SM FEW020 BKN050 08/07 A2969 RMK SC2SC4 SLP056

CYYG;2009-10-07 07:00;CYYG 070700Z 25007KT 15SM FEW020 BKN050 09/08 A2969 RMK SC2SC3 SLP055

CYYG;2009-10-07 08:00;CYYG 070800Z 26005KT 15SM SCT020 09/07 A2969 RMK SC3 SLP056

CYYG;2009-10-07 09:00;CYYG 070900Z 23004KT 15SM FEW020 08/06 A2970 RMK SC2 SLP057

CYYG;2009-10-07 10:00;CYYG 071000Z 23006KT 15SM SCT008 SCT020 08/06 A2971 RMK SC3SC1 SLP061

CYYG;2009-10-07 10:14;CYYG 071014Z 25006KT 15SM BKN009 BKN020 08/ RMK SC5SC0

CYYG;2009-10-07 11:00;CYYG 071100Z 25005KT 15SM BKN009 09/07 A2971 RMK SF7 SLP062

CYYG;2009-10-07 11:24;CYYG 071124Z 27005KT 15SM FEW008 FEW020 SCT250 09/ RMK SF2SC1CI1

CYYG;2009-10-07 12:00;CYYG 071200Z 26006KT 15SM FEW008 FEW020 BKN250 10/08 A2970 RMK SF1SC1CI2 SLP059

CYYG;2009-10-07 13:00;CYYG 071300Z 24008KT 15SM FEW012 FEW150 BKN250 12/09 A2970 RMK SC2AC1CI2 SLP058

CYYG;2009-10-07 14:00;CYYG 071400Z 23008KT 15SM FEW015 SCT150 BKN250 13/09 A2967 RMK SC2AC2CI1 SLP047

CYYG;2009-10-07 15:00;CYYG 071500Z 18008KT 15SM FEW015 BKN140 BKN250 13/09 A2963 RMK SC2AC4CI1 SLP035

CYYG;2009-10-07 16:00;CYYG 071600Z 21008KT 15SM SCT018 BKN130 OVC250 13/09 A2963 RMK SC3AC2CI2 SLP033

CYYG;2009-10-07 17:00;CYYG 071700Z 19010KT 15SM FEW018 BKN110 OVC250 13/09 A2961 RMK SC2AC5CI1 SLP027

CYYG;2009-10-07 18:00;CYYG 071800Z 17006KT 15SM FEW020 BKN077 OVC250 13/08 A2958 RMK SC2AC5CI2 SLP017

CYYG;2009-10-07 18:52;CYYG 071852Z 19006KT 15SM -RA FEW020 BKN040 OVC120 12/ RMK SC2SC5AC2

CYYG;2009-10-07 19:00;CYYG 071900Z 18006KT 12SM -RA FEW020 BKN040 OVC120 12/08 A2955 RMK SC2SC5AC2 SLP006

CYYG;2009-10-07 20:00;CYYG 072000Z 18004KT 6SM -RA BR FEW012 OVC038 11/09 A2953 RMK SC2SC6 SLP002

CYYG;2009-10-07 21:00;CYYG 072100Z 12004KT 5SM -RA BR FEW012 OVC040 10/08 A2951 RMK SC2SC6 SLP994

CYYG;2009-10-07 22:00;CYYG 072200Z CCA 09008KT 6SM -RA BR FEW012 OVC050 09/07 A2944 RMK SC1SC7 PRESFR SLP972

CYYG;2009-10-07 23:00;CYYG 072300Z 08014KT 12SM -RA FEW012 OVC084 09/07 A2936 RMK SC1AC7 PRESFR SLP942

CYYG;2009-10-08 00:00;CYYG 080000Z 09013KT 8SM -RA FEW012 OVC064 09/07 A2934 RMK SC1SC7 SLP937

CYYG;2009-10-08 01:00;CYYG 080100Z 08014KT 15SM -RA FEW022 OVC060 09/07 A2928 RMK SC2SC6 SLP918

CYYG;2009-10-08 01:25;CYYG 080125Z 08012G18KT 8SM -RA OVC008 09/ RMK SC8

CYYG;2009-10-08 02:00;CYYG 080200Z 07013G19KT 12SM -RA OVC010 10/08 A2925 RMK SC8 SLP908

CYYG;2009-10-08 03:00;CYYG 080300Z 07012G17KT 12SM -RA OVC007 10/09 A2923 RMK SC8 SLP898

CYYG;2009-10-08 04:00;CYYG 080400Z 06012G18KT 8SM RA OVC008 10/08 A2921 RMK SC8 SLP893

CYYG;2009-10-08 05:00;CYYG 080500Z 06016KT 8SM -RA OVC010 10/08 A2923 RMK SC8 RERA /R13/ SLP899

CYYG;2009-10-08 06:00;CYYG 080600Z 05016G21KT 8SM RA OVC008 10/09 A2924 RMK SC8 SLP901

CYYG;2009-10-08 07:00;CYYG 080700Z 05012G19KT 8SM RA BKN008 OVC045 11/09 A2924 RMK SC5SC3 SLP901

CYYG;2009-10-08 08:00;CYYG 080800Z 04015G26KT 8SM RA FEW008 OVC047 10/09 A2925 RMK SC2SC6 /R10/ SLP906

CYYG;2009-10-08 09:00;CYYG 080900Z 04016G22KT 8SM RA SCT009 BKN014 OVC040 11/09 A2927 RMK SC3SC2SC3 SLP912

CYYG;2009-10-08 10:00;CYYG 081000Z 05016G22KT 8SM -RA FEW010 BKN030 OVC080 11/09 A2931 RMK SC2SC5AC2 SLP924

CYYG;2009-10-08 11:00;CYYG 081100Z 04019G29KT 5SM -RA BR SCT008 BKN015 OVC025 11/08 A2935 RMK SF3SC2SC2 SLP938

CYYG;2009-10-08 12:00;CYYG 081200Z 03018G25KT 8SM -RA SCT009 OVC016 10/08 A2940 RMK SF3SC5 SLP957

CYYG;2009-10-08 12:32;CYYG 081232Z 03017G27KT 2 1/2SM -RA BR SCT007 OVC014 10/ RMK SF4SC4

CYYG;2009-10-08 12:50;CYYG 081250Z 04017G26KT 5SM -RA BR BKN008 OVC016 10/ RMK SF5SC3

CYYG;2009-10-08 13:00;CYYG 081300Z 03014G24KT 6SM -RA BR SCT009 BKN015 OVC031 10/08 A2945 RMK SF4SC2SC2 SLP974

CYYG;2009-10-08 14:00;CYYG 081400Z 02014G21KT 8SM -SHRA BKN014 OVC051 11/08 A2949 RMK SC5SC3 SLP988

CYYG;2009-10-08 14:49;CYYG 081449Z 02015G20KT 15SM BKN021 OVC070 11/ RMK SC5AC3

CYYG;2009-10-08 15:00;CYYG 081500Z 01012G20KT 15SM SCT020 BKN031 OVC070 11/08 A2952 RMK SC3SC2AC3 SLP996

CYYG;2009-10-08 16:00;CYYG 081600Z 02013G21KT 15SM FEW020 OVC049 11/07 A2954 RMK SC2SC6 SLP005

CYYG;2009-10-08 17:00;CYYG 081700Z 01013G18KT 15SM FEW019 OVC042 11/07 A2956 RMK SC2SC6 SLP011

CYYG;2009-10-08 17:06;CYYG 081706Z 36009G17KT 15SM -SHRA SCT022 OVC050 11/ RMK SC3SC5

CYYG;2009-10-08 18:00;CYYG 081800Z 36011G17KT 15SM -SHRA SCT018 OVC042 11/08 A2959 RMK SC3SC5 SLP020

CYYG;2009-10-08 19:00;CYYG 081900Z 35007G15KT 15SM -SHRA OVC020 10/09 A2962 RMK SC8 SLP031

CYYG;2009-10-08 20:00;CYYG 082000Z 01010G20KT 15SM -SHRA SCT006 BKN032 OVC070 10/08 A2963 RMK SF3SC3AC2 SLP036

CYYG;2009-10-08 21:00;CYYG 082100Z 02018KT 10SM -SHRA FEW008 BKN016 OVC090 10/07 A2967 RMK SF2SC5AC1 VIS LWR NW-E SLP048

CYYG;2009-10-08 21:33;CYYG 082133Z 02009KT 4SM -SHRA BR BKN008 OVC030 09/ RMK SF6SC2 VIS NW 10

CYYG;2009-10-08 22:00;CYYG 082200Z 01009KT 6SM -SHRA BR SCT009 BKN014 OVC030 09/07 A2971 RMK SF3SC2SC2 SLP060

CYYG;2009-10-08 23:00;CYYG 082300Z 01010KT 12SM -SHRA FEW009 BKN014 OVC030 09/07 A2976 RMK SF2SC5SC2 SLP077

CYYG;2009-10-09 00:00;CYYG 090000Z 36010G16KT 12SM -SHRA FEW009 SCT015 OVC029 09/06 A2980 RMK SF2SC2SC5 SLP094

CYYG;2009-10-09 00:29;CYYG 090029Z 36009G16KT 12SM FEW009 SCT013 OVC027 09/ RMK SF1SC2SC5

CYYG;2009-10-09 01:00;CYYG 090100Z 35009G18KT 6SM BR FEW008 OVC020 09/06 A2983 RMK SF2SC6 SLP102

CYYG;2009-10-09 02:00;CYYG 090200Z 36009KT 12SM FEW009 OVC025 09/05 A2983 RMK SF2SC6 SLP104

CYYG;2009-10-09 03:00;CYYG 090300Z 36009KT 15SM BKN020 08/05 A2982 RMK SC6 SLP099

CYYG;2009-10-09 04:00;CYYG 090400Z 36008KT 15SM BKN027 08/05 A2983 RMK SC7 SLP104

CYYG;2009-10-09 05:00;CYYG 090500Z 36007KT 15SM BKN023 08/04 A2983 RMK SC6 SLP104

CYYG;2009-10-09 06:00;CYYG 090600Z 35005KT 15SM BKN026 08/04 A2985 RMK SC7 SLP111

CYYG;2009-10-09 07:00;CYYG 090700Z 33004KT 15SM BKN024 08/04 A2987 RMK SC7 SLP115

CYYG;2009-10-09 07:08;CYYG 090708Z 32008KT 10SM -SHRA BKN023 08/ RMK SC7

CYYG;2009-10-09 08:00;CYYG 090800Z 30006KT 15SM -SHRA SCT020 BKN044 07/05 A2987 RMK SC3SC4 SLP117

CYYG;2009-10-09 08:44;CYYG 090844Z 32003KT 15SM SCT013 BKN042 06/ RMK SC3SC3

CYYG;2009-10-09 09:00;CYYG 090900Z 31004KT 15SM FEW013 SCT042 06/04 A2987 RMK SC2SC2 SLP118

CYYG;2009-10-09 10:00;CYYG 091000Z 30004KT 15SM FEW020 FEW040 BKN300 06/04 A2989 RMK SC2SC1CI1 SLP124

CYYG;2009-10-09 10:32;CYYG 091032Z 35003KT 15SM -SHRA BKN010 BKN021 BKN300 07/ RMK SC5SC1CI0

CYYG;2009-10-09 11:00;CYYG 091100Z 34003KT 15SM FEW010 BKN023 BKN300 07/06 A2989 RMK SC2SC3CI1 SHRA SE SLP123

CYYG;2009-10-09 11:10;CYYG 091110Z CCA 31004KT 15SM -SHRA FEW010 BKN021 BKN300 08/ RMK SC2SC3CI1

CYYG;2009-10-09 12:00;CYYG 091200Z 31004KT 15SM -SHRA FEW012 BKN025 BKN300 08/06 A2990 RMK SC2SC3CI1 SLP125

CYYG;2009-10-09 12:40;CYYG 091240Z CCA 35005KT 15SM SCT015 BKN020 OVC300 09/ RMK SC3SC3CI1 SHRA NE-SE

CYYG;2009-10-09 13:00;CYYG 091300Z 36005KT 15SM SCT012 BKN024 OVC300 09/07 A2991 RMK SC3SC3CI1 SHRA SE SLP130

CYYG;2009-10-09 14:00;CYYG 091400Z 35006KT 15SM BKN017 BKN300 10/06 A2993 RMK SC6CI1 SHRA SW AND SE SLP135

CYYG;2009-10-09 15:00;CYYG 091500Z 32007KT 15SM BKN020 OVC300 11/05 A2992 RMK CU7CI0 SLP132

CYYG;2009-10-09 16:00;CYYG 091600Z 34005KT 15SM FEW025 BKN038 BKN300 11/06 A2992 RMK CF1CU6CI0 SLP132

CYYG;2009-10-09 17:00;CYYG 091700Z 34004KT 15SM FEW025 BKN040 BKN300 11/07 A2990 RMK CF2CU4CI0 SLP128

CYYG;2009-10-09 18:00;CYYG 091800Z 29004KT 15SM BKN030 OVC300 11/07 A2987 RMK CU7CI0 SLP118

CYYG;2009-10-09 19:00;CYYG 091900Z 32004KT 15SM BKN028 OVC120 11/06 A2988 RMK CU6AS2 SLP120

CYYG;2009-10-09 20:00;CYYG 092000Z 00000KT 15SM BKN022 OVC140 11/07 A2990 RMK CU5AS3 SLP125

CYYG;2009-10-09 21:00;CYYG 092100Z 28002KT 15SM SCT020 OVC100 10/06 A2990 RMK CU3AC5 SLP128

CYYG;2009-10-09 22:00;CYYG 092200Z 23002KT 15SM FEW020 OVC110 10/06 A2989 RMK CU2AC6 SLP122

CYYG;2009-10-09 23:00;CYYG 092300Z 18002KT 15SM BKN110 OVC220 09/06 A2987 RMK AS6CS2 SLP118

CYYG;2009-10-10 00:00;CYYG 100000Z 22002KT 15SM BKN170 OVC220 10/06 A2988 RMK AC7CS1 SLP119

CYYG;2009-10-10 01:00;CYYG 100100Z 22003KT 15SM SCT170 OVC240 09/06 A2985 RMK AC3CS2 SLP110

CYYG;2009-10-10 02:00;CYYG 100200Z 23003KT 15SM OVC140 09/07 A2986 RMK AS8 SLP113

CYYG;2009-10-10 03:00;CYYG 100300Z 20003KT 15SM OVC100 09/07 A2983 RMK AS8 SLP102

CYYG;2009-10-10 04:00;CYYG 100400Z 22002KT 15SM FEW015 BKN062 OVC110 10/08 A2982 RMK SC1SC6AS2 SLP098

CYYG;2009-10-10 04:16;CYYG 100416Z 22003KT 15SM -SHRA FEW015 OVC062 10/ RMK SC1SC8

CYYG;2009-10-10 05:00;CYYG 100500Z 19003KT 8SM -RA FEW015 OVC062 10/08 A2981 RMK SC1SC8 SLP096

CYYG;2009-10-10 06:00;CYYG 100600Z 17003KT 8SM -RA BKN015 OVC050 09/08 A2978 RMK SC6SC2 SLP086

CYYG;2009-10-10 07:00;CYYG 100700Z 17004KT 8SM -RA FEW015 FEW050 OVC087 10/08 A2976 RMK SC1SC2AS6 SLP077

CYYG;2009-10-10 08:00;CYYG 100800Z 19006KT 8SM -RA OVC050 10/08 A2975 RMK SC8 SLP074

CYYG;2009-10-10 09:00;CYYG 100900Z 20006KT 8SM -RA FEW020 OVC039 10/07 A2974 RMK SC1SC7 SLP072

CYYG;2009-10-10 10:00;CYYG 101000Z 19007KT 8SM -RA FEW020 OVC035 09/07 A2972 RMK SC2SC6 SLP064

CYYG;2009-10-10 11:00;CYYG 101100Z 16005KT 10SM -RA FEW007 BKN015 OVC047 09/08 A2970 RMK SF1SC5SC2 SLP057

CYYG;2009-10-10 12:00;CYYG 101200Z 16009KT 10SM -RA FEW007 BKN016 OVC040 09/08 A2969 RMK SF1SC6SC2 SLP053

CYYG;2009-10-10 13:00;CYYG 101300Z 14008KT 10SM -RA FEW007 OVC013 09/08 A2965 RMK SF2SC6 SLP040

CYYG;2009-10-10 13:26;CYYG 101326Z 14010KT 8SM -RA BKN007 OVC015 09/ RMK SF6SC2

CYYG;2009-10-10 14:00;CYYG 101400Z 14011KT 8SM -RA BKN007 OVC016 10/08 A2961 RMK SF6SC2 SLP028

CYYG;2009-10-10 15:00;CYYG 101500Z 14010G15KT 15SM -RA OVC006 10/09 A2957 RMK SF8 SLP014

CYYG;2009-10-10 15:47;CYYG 101547Z 15008KT 2SM -RA BR OVC008 10/ RMK SF8

CYYG;2009-10-10 16:00;CYYG 101600Z 16008KT 2SM -RA BR OVC007 10/09 A2955 RMK SF8 SLP009

CYYG;2009-10-10 16:08;CYYG 101608Z 15008KT 2SM -RA BR BKN005 OVC008 10/ RMK SF6SF2

CYYG;2009-10-10 16:28;CYYG 101628Z 14009KT 2SM -RA BR BKN003 OVC009 10/ RMK SF6SF2

CYYG;2009-10-10 16:31;CYYG 101631Z 14009KT 2SM -DZ BR BKN003 OVC013 10/ RMK SF6SC2

CYYG;2009-10-10 17:00;CYYG 101700Z 13006KT 3SM -DZ BR BKN003 OVC007 10/09 A2952 RMK SF6SF2 SLP998

CYYG;2009-10-10 18:00;CYYG 101800Z 11003KT 2SM -DZ BR BKN002 OVC008 11/10 A2950 RMK SF6SF2 SLP992

CYYG;2009-10-10 19:00;CYYG 101900Z 13002KT 3SM -DZ BR BKN002 OVC008 11/10 A2950 RMK SF6SF2 SLP989

CYYG;2009-10-10 20:00;CYYG 102000Z 00000KT 2SM -DZ BR BKN003 OVC006 11/10 A2950 RMK SF6SF2 SLP990

CYYG;2009-10-10 21:00;CYYG 102100Z 26003KT 2SM -DZ BR BKN002 OVC007 11/10 A2950 RMK SF6SF2 SLP992

CYYG;2009-10-10 21:31;CYYG 102131Z 27007KT 5SM -DZ BR BKN004 OVC010 11/ RMK SF6SF2

CYYG;2009-10-10 22:00;CYYG 102200Z 29009KT 5SM -DZ BR OVC004 11/10 A2952 RMK SF8 SLP998

CYYG;2009-10-10 22:45;CYYG 102245Z 31013G18KT 5SM -SHRA BR OVC006 11/ RMK SF8

CYYG;2009-10-10 23:00;CYYG 102300Z 31011G17KT 10SM BKN006 OVC010 11/09 A2956 RMK SF6SF2 SLP012

CYYG;2009-10-10 23:14;CYYG 102314Z 31014G27KT 6SM -SHRA BR BKN006 OVC010 10/ RMK SF6SF2

CYYG;2009-10-10 23:33;CYYG 102333Z 32017G25KT 10SM BKN006 OVC011 09/ RMK SF6SF2

CYYG;2009-10-11 00:00;CYYG 110000Z 32020G26KT 10SM SCT006 OVC011 09/07 A2961 RMK SF3SF5 SLP027

CYYG;2009-10-11 01:00;CYYG 110100Z 31016G25KT 15SM OVC014 08/05 A2965 RMK SC8 SLP042

CYYG;2009-10-11 02:00;CYYG 110200Z 31016G21KT 15SM OVC025 08/04 A2969 RMK SC8 SLP055

CYYG;2009-10-11 03:00;CYYG 110300Z 30015G21KT 15SM BKN030 07/03 A2973 RMK SC6 SLP069

CYYG;2009-10-11 04:00;CYYG 110400Z 30008G15KT 15SM BKN045 06/02 A2975 RMK SC6 SLP075

CYYG;2009-10-11 05:00;CYYG 110500Z 31012G19KT 15SM BKN035 06/01 A2977 RMK SC6 SLP082

CYYG;2009-10-11 06:00;CYYG 110600Z 30010KT 15SM SCT030 05/01 A2978 RMK SC4 SLP086

CYYG;2009-10-11 07:00;CYYG 110700Z 29012G18KT 15SM SCT030 05/01 A2979 RMK SC4 SLP091

CYYG;2009-10-11 08:00;CYYG 110800Z 29010KT 15SM FEW030 04/01 A2984 RMK SC2 SLP105

CYYG;2009-10-11 09:00;CYYG 110900Z 29010KT 15SM FEW030 04/00 A2986 RMK SC2 SLP113

CYYG;2009-10-11 10:00;CYYG 111000Z 30008KT 15SM FEW030 04/M00 A2987 RMK SC2 SLP117

CYYG;2009-10-11 11:00;CYYG 111100Z 28008KT 15SM FEW030 04/M00 A2990 RMK SC1 SLP127

CYYG;2009-10-11 12:00;CYYG 111200Z 29010KT 15SM FEW030 05/00 A2992 RMK SC1 SLP134

CYYG;2009-10-11 13:00;CYYG 111300Z 27014KT 15SM FEW030 07/01 A2993 RMK CF1 SLP137

CYYG;2009-10-11 14:00;CYYG 111400Z 28013G18KT 15SM FEW025 FEW080 07/00 A2994 RMK CU1AC1 SLP141

CYYG;2009-10-11 15:00;CYYG 111500Z 28009G15KT 15SM FEW030 FEW100 09/00 A2993 RMK CU1AC1 SLP138

CYYG;2009-10-11 16:00;CYYG 111600Z 26010G16KT 15SM FEW030 FEW100 09/M00 A2992 RMK CU1AC1 SLP134

CYYG;2009-10-11 17:00;CYYG 111700Z 27011G17KT 15SM FEW100 10/M02 A2990 RMK AC1 SLP127

CYYG;2009-10-11 18:00;CYYG 111800Z CCA 27010G16KT 15SM FEW096 11/M01 A2989 RMK AC1 SLP123

CYYG;2009-10-11 19:00;CYYG 111900Z 23011G16KT 15SM SCT100 10/M00 A2987 RMK AC4 SLP117

CYYG;2009-10-11 20:00;CYYG 112000Z 24009G15KT 15SM FEW098 BKN110 10/01 A2987 RMK AC2AC4 SLP115

CYYG;2009-10-11 21:00;CYYG 112100Z 24009G15KT 15SM SCT100 10/01 A2985 RMK AC3 SLP111

CYYG;2009-10-11 22:00;CYYG 112200Z 24008KT 15SM FEW100 09/02 A2985 RMK AC2 SLP111

CYYG;2009-10-11 23:00;CYYG 112300Z 23008KT 15SM SCT090 08/02 A2985 RMK AC3 SLP110

CYYG;2009-10-12 00:00;CYYG 120000Z 25011KT 15SM -SHRA OVC053 09/04 A2982 RMK CU8 SLP101

CYYG;2009-10-12 00:29;CYYG 120029Z 26008KT 15SM SCT020 OVC082 08/ RMK CU3AC5

CYYG;2009-10-12 01:00;CYYG 120100Z 26008KT 15SM BKN095 07/04 A2983 RMK AC5 SLP102

CYYG;2009-10-12 02:00;CYYG 120200Z 26006KT 15SM BKN099 07/04 A2983 RMK AC6 SLP104

CYYG;2009-10-12 03:00;CYYG 120300Z 27006KT 15SM BKN093 06/03 A2983 RMK AC6 SLP102

CYYG;2009-10-12 04:00;CYYG 120400Z 29011G16KT 15SM SCT090 05/M03 A2983 RMK AC4 SLP104

CYYG;2009-10-12 05:00;CYYG 120500Z 29012G19KT 15SM FEW090 04/M03 A2984 RMK AC2 SLP107

CYYG;2009-10-12 06:00;CYYG 120600Z 29015G22KT 15SM SKC 04/M03 A2985 RMK SLP111

CYYG;2009-10-12 07:00;CYYG 120700Z 29014G24KT 15SM SCT039 04/M02 A2989 RMK SC4 SLP123

CYYG;2009-10-12 08:00;CYYG 120800Z 29011G16KT 15SM BKN036 04/M02 A2991 RMK SC6 SLP131

CYYG;2009-10-12 09:00;CYYG 120900Z 28010G18KT 15SM SCT033 03/M02 A2993 RMK SC4 SLP138

CYYG;2009-10-12 10:00;CYYG 121000Z 28011G24KT 15SM BKN047 04/M02 A2996 RMK SC6 SLP147

CYYG;2009-10-12 11:00;CYYG 121100Z 28011G18KT 15SM BKN049 04/M01 A2999 RMK SC7 SLP158

CYYG;2009-10-12 12:00;CYYG 121200Z CCA 28014G19KT 15SM BKN036 BKN048 05/M00 A3004 RMK SC5SC2 SLP174

CYYG;2009-10-12 13:00;CYYG 121300Z 28013G21KT 15SM SCT028 BKN043 06/01 A3006 RMK SC2SC1 SLP181

CYYG;2009-10-12 14:00;CYYG 121400Z 28014G22KT 15SM BKN028 07/01 A3007 RMK SC6 SLP183

CYYG;2009-10-12 15:00;CYYG 121500Z 30012G17KT 15SM BKN028 08/01 A3008 RMK SC6 SLP188

CYYG;2009-10-12 16:00;CYYG 121600Z 29012KT 15SM BKN032 08/00 A3008 RMK SC6 SLP188

CYYG;2009-10-12 17:00;CYYG 121700Z 29012G18KT 15SM BKN036 09/00 A3008 RMK SC4 SLP186

CYYG;2009-10-12 18:00;CYYG 121800Z 27017KT 15SM SCT035 08/M00 A3008 RMK SC3 SLP186

CYYG;2009-10-12 19:00;CYYG 121900Z 28014G19KT 15SM SCT047 09/M01 A3008 RMK SC2 SLP188

CYYG;2009-10-12 20:00;CYYG 122000Z 28009G16KT 15SM SCT060 08/M01 A3010 RMK SC2 SLP193

CYYG;2009-10-12 21:00;CYYG 122100Z 30009G15KT 15SM SCT052 08/M01 A3010 RMK SC2 SLP195

CYYG;2009-10-12 22:00;CYYG 122200Z 29008KT 15SM FEW050 07/M02 A3012 RMK SC2 SLP202

CYYG;2009-10-12 23:00;CYYG 122300Z 27006KT 15SM FEW050 05/M02 A3014 RMK SC2 SLP209

CYYG;2009-10-13 00:00;CYYG 130000Z 29007KT 15SM FEW050 05/M02 A3014 RMK SC1 SLP208

CYYG;2009-10-13 01:00;CYYG 130100Z 27006KT 15SM FEW050 04/M02 A3015 RMK SC1 SLP211

CYYG;2009-10-13 02:00;CYYG 130200Z 27007KT 15SM SKC 04/M01 A3015 RMK SLP212

CYYG;2009-10-13 03:00;CYYG 130300Z 27006KT 15SM SKC 04/M02 A3014 RMK SLP210

CYYG;2009-10-13 04:00;CYYG 130400Z 27005KT 15SM SKC 04/M02 A3013 RMK SLP206

CYYG;2009-10-13 05:00;CYYG 130500Z 27006KT 15SM SKC 04/M01 A3013 RMK SLP204

CYYG;2009-10-13 06:00;CYYG 130600Z 27005KT 15SM SKC 03/M01 A3013 RMK SLP206

CYYG;2009-10-13 07:00;CYYG 130700Z 27006KT 15SM SKC 02/M02 A3013 RMK SLP205

CYYG;2009-10-13 08:00;CYYG 130800Z 27005KT 15SM SKC 03/M03 A3013 RMK SLP204

CYYG;2009-10-13 09:00;CYYG 130900Z 25006KT 15SM SCT065 BKN140 OVC240 04/M03 A3011 RMK SC3AC3CI1 FROIN SLP199

CYYG;2009-10-13 10:00;CYYG 131000Z 26004KT 15SM FEW065 OVC130 03/M01 A3011 RMK SC2AS6 FROIN SLP198

CYYG;2009-10-13 11:00;CYYG 131100Z 25006KT 15SM FEW060 BKN150 04/M01 A3010 RMK SC2AS5 SLP194

CYYG;2009-10-13 12:00;CYYG 131200Z 27006KT 15SM FEW060 OVC120 05/01 A3010 RMK SC1AS7 SLP195

CYYG;2009-10-13 13:00;CYYG 131300Z 27005KT 15SM FEW030 OVC110 06/02 A3008 RMK SC1AS7 SLP188

CYYG;2009-10-13 14:00;CYYG 131400Z 28008KT 15SM FEW030 OVC110 06/02 A3006 RMK SC1AS7 SLP183

CYYG;2009-10-13 15:00;CYYG 131500Z 23008KT 15SM FEW030 OVC090 08/01 A3004 RMK SC2AS6 SLP173

CYYG;2009-10-13 16:00;CYYG 131600Z 27009KT 15SM FEW030 BKN094 08/M00 A3001 RMK SC2AS6 SLP163

CYYG;2009-10-13 17:00;CYYG 131700Z 27008KT 15SM SCT041 OVC100 08/M01 A2998 RMK SC3AS5 SLP155

CYYG;2009-10-13 18:00;CYYG 131800Z 29004KT 15SM OVC041 07/M01 A2996 RMK SC8 SLP147

CYYG;2009-10-13 19:00;CYYG 131900Z 29006KT 15SM BKN042 OVC047 07/M01 A2995 RMK SC6SC2 SLP143

CYYG;2009-10-13 20:00;CYYG 132000Z 00000KT 15SM OVC033 06/M01 A2993 RMK SC8 SLP137

CYYG;2009-10-13 20:31;CYYG 132031Z 33002KT 15SM -SHRA BKN020 OVC036 06/ RMK SC5SC3

CYYG;2009-10-13 21:00;CYYG 132100Z 03005KT 15SM -SHRA BKN022 OVC038 05/00 A2992 RMK SC6SC2 SLP133

CYYG;2009-10-13 22:00;CYYG 132200Z 01003KT 15SM -SHRA OVC028 04/00 A2990 RMK SC8 SLP127

CYYG;2009-10-13 23:00;CYYG 132300Z 02003KT 15SM -SHRA FEW015 OVC026 04/01 A2989 RMK SC2SC6 SLP124

CYYG;2009-10-14 00:00;CYYG 140000Z 01005KT 15SM -SHRA SCT026 OVC057 04/01 A2987 RMK SC3SC5 SLP116

CYYG;2009-10-14 01:00;CYYG 140100Z 02004KT 15SM -SHRA OVC056 04/01 A2985 RMK SC8 SLP109

CYYG;2009-10-14 02:00;CYYG 140200Z 01003KT 15SM -SHRA FEW030 OVC060 04/01 A2984 RMK SC2SC6 SLP105

CYYG;2009-10-14 03:00;CYYG 140300Z 35004KT 15SM -SHRA BKN030 BKN063 OVC140 04/01 A2982 RMK SC5SC2AC2 SLP100

CYYG;2009-10-14 04:00;CYYG 140400Z 01008KT 15SM BKN048 OVC070 04/M00 A2980 RMK SC7AC1 SLP094

CYYG;2009-10-14 04:20;CYYG 140420Z 02009G21KT 15SM -SHRA OVC048 04/ RMK SC8

CYYG;2009-10-14 05:00;CYYG 140500Z 36006KT 15SM -SHRA OVC045 04/M01 A2980 RMK SC8 SLP093

CYYG;2009-10-14 05:38;CYYG 140538Z 02008KT 15SM SCT050 OVC100 04/ RMK SC4AC4

CYYG;2009-10-14 06:00;CYYG 140600Z 36005KT 15SM SCT050 OVC100 04/M01 A2979 RMK SC3AC5 SLP089

CYYG;2009-10-14 06:36;CYYG 140636Z 33011G17KT 15SM -SHRA OVC033 04/ RMK SC8

CYYG;2009-10-14 07:00;CYYG 140700Z 32008KT 15SM FEW033 BKN055 04/M00 A2978 RMK SC2SC5 OCNL -SHRA SLP087

CYYG;2009-10-14 07:28;CYYG 140728Z 29008KT 15SM FEW033 OVC055 03/ RMK SC2SC6

CYYG;2009-10-14 08:00;CYYG 140800Z 29008KT 15SM FEW050 BKN090 03/M00 A2978 RMK SC2AC4 SLP087

CYYG;2009-10-14 09:00;CYYG 140900Z 30011KT 15SM SCT060 03/M00 A2978 RMK SC4 SLP086

CYYG;2009-10-14 09:21;CYYG 140921Z 31014G21KT 8SM -SHRA BKN012 OVC021 03/ RMK SC6SC2

CYYG;2009-10-14 09:25;CYYG 140925Z 31011G21KT 8SM -RASN OVC012 03/ RMK SC8

CYYG;2009-10-14 10:00;CYYG 141000Z 32004KT 15SM SCT012 BKN050 02/M00 A2978 RMK SC3SC3 SLP086

CYYG;2009-10-14 11:00;CYYG 141100Z 34011G17KT 15SM BKN038 04/M01 A2978 RMK CU5 TCU ASOCTD SHS ALQDS SLP087

CYYG;2009-10-14 11:12;CYYG 141112Z 33010G16KT 15SM -SHRASN BKN038 04/ RMK CU6 TCU ASOCTD

CYYG;2009-10-14 11:40;CYYG 141140Z 31009KT 15SM SCT035 04/ RMK CU3 TCU ASOCTD SHS ALQDS

CYYG;2009-10-14 12:00;CYYG 141200Z 35015G21KT 15SM SCT020 BKN035 04/00 A2980 RMK SC3CU3 TCU ASOCTD SHS ALQDS SLP094

CYYG;2009-10-14 12:43;CYYG 141243Z 31011KT 15SM -SHRAGS BKN030 04/ RMK CU7 TCU ASOCTD

CYYG;2009-10-14 13:00;CYYG 141300Z 31014KT 15SM -SHRASN BKN025 03/00 A2980 RMK CU6 TCU ASOCTD SLP094

CYYG;2009-10-14 14:00;CYYG 141400Z 36008KT 15SM -SHRA BKN025 05/02 A2981 RMK CU5 TCU ASOCTD SLP095

CYYG;2009-10-14 14:28;CYYG 141428Z 32020G29KT 15SM -SHRASN BKN025 04/ RMK CU6 TCU ASOCTD VIS W-N 3

CYYG;2009-10-14 15:00;CYYG 141500Z 35010G20KT 15SM -SHRASN BKN025 05/01 A2982 RMK CU6 SLP098

CYYG;2009-10-14 15:46;CYYG 141546Z 34014G24KT 15SM FEW025 BKN040 07/ RMK CU2CU3

CYYG;2009-10-14 16:00;CYYG 141600Z 33014G25KT 15SM BKN040 BKN070 08/M01 A2981 RMK CU5AC1 SLP097

CYYG;2009-10-14 17:00;CYYG 141700Z 34014G25KT 15SM -SHGS BKN035 06/M01 A2982 RMK CU6 TCU ASOCTD SLP100

CYYG;2009-10-14 17:13;CYYG 141713Z 33017G26KT 15SM BKN035 06/ RMK CU6 TCU ASOCTD

CYYG;2009-10-14 18:00;CYYG 141800Z 33017G24KT 15SM BKN035 06/M03 A2983 RMK CU6 TCU ASOCTD SHS ALQDS SLP103

CYYG;2009-10-14 18:19;CYYG 141819Z 32013G25KT 15SM -SHRAGS BKN035 06/ RMK CU6 TCU ASOCTD

CYYG;2009-10-14 19:00;CYYG 141900Z 31015G24KT 15SM -SHRASN BKN038 04/M01 A2986 RMK CU7 TCU ASOCTD SLP113

CYYG;2009-10-14 20:00;CYYG 142000Z 01010G17KT 15SM -SHRASN BKN035 03/M00 A2987 RMK CU6 TCU ASOCTD SLP115

CYYG;2009-10-14 21:00;CYYG 142100Z 36010G15KT 15SM -SHRASN FEW015 BKN035TCU 04/00 A2987 RMK SF2TCU3 VIS N-SE 2 SLP118

CYYG;2009-10-14 22:00;CYYG 142200Z 34006KT 15SM -SHRASN FEW015 BKN040TCU 02/M01 A2989 RMK SC2TCU5 VIS N-SE 4 SLP123

CYYG;2009-10-14 22:13;CYYG 142213Z 33006KT 15SM -SHRAGS FEW015 BKN035TCU 02/ RMK SF2TCU6

CYYG;2009-10-14 23:00;CYYG 142300Z 28005KT 15SM -SHRA FEW015 BKN040 03/M00 A2990 RMK SC2SC6 SLP126

CYYG;2009-10-15 00:00;CYYG 150000Z 29012KT 15SM FEW015 BKN035 03/M02 A2991 RMK SC1SC4 SLP130

CYYG;2009-10-15 01:00;CYYG 150100Z 29010KT 15SM FEW035 BKN062 03/M02 A2991 RMK SC2SC2 SLP129

CYYG;2009-10-15 02:00;CYYG 150200Z 27007KT 15SM FEW040 BKN065 03/M02 A2992 RMK SC2SC4 SLP133

CYYG;2009-10-15 03:00;CYYG 150300Z 28010KT 15SM FEW042 BKN074 03/M02 A2991 RMK SC2AC5 SLP129

CYYG;2009-10-15 04:00;CYYG 150400Z 29012G18KT 15SM FEW042 BKN068 04/M02 A2992 RMK SC2AC4 SLP133

CYYG;2009-10-15 05:00;CYYG 150500Z 29010KT 15SM FEW042 BKN068 03/M02 A2993 RMK SC2AC4 SLP136

CYYG;2009-10-15 06:00;CYYG 150600Z 29009G16KT 15SM FEW042 SCT070 02/M03 A2993 RMK SC1AC3 SLP138

CYYG;2009-10-15 07:00;CYYG 150700Z 29011KT 15SM FEW070 02/M03 A2993 RMK AC2 SLP137

CYYG;2009-10-15 08:00;CYYG 150800Z 28008KT 15SM FEW070 01/M03 A2993 RMK AC2 SLP138

CYYG;2009-10-15 09:00;CYYG 150900Z 27007KT 15SM FEW070 00/M03 A2994 RMK AC1 SLP141

CYYG;2009-10-15 10:00;CYYG 151000Z 27006KT 15SM FEW020 M00/M04 A2995 RMK SC1 SLP144

CYYG;2009-10-15 11:00;CYYG 151100Z 27010KT 15SM FEW020TCU 00/M03 A2997 RMK TCU2 TCU N-E AND SE-SW SLP152

CYYG;2009-10-15 12:00;CYYG 151200Z 28010KT 15SM FEW020 FEW250 02/M02 A2999 RMK SC2CI1 SLP157

CYYG;2009-10-15 13:00;CYYG 151300Z 28009KT 15SM FEW015 04/M00 A3001 RMK SC2 TCU DIST SE-S SLP163

CYYG;2009-10-15 14:00;CYYG 151400Z 27009KT 15SM FEW019 04/M00 A3001 RMK CU2 CB TOPS DIST N-NE SLP163

CYYG;2009-10-15 15:00;CYYG 151500Z 28011G16KT 15SM FEW025 FEW250 06/M00 A3001 RMK CU2CI1 SLP163

CYYG;2009-10-15 16:00;CYYG 151600Z 27010G19KT 15SM FEW030 SCT250 05/M02 A3000 RMK CU2CI0 SLP161

CYYG;2009-10-15 17:00;CYYG 151700Z 29011G16KT 15SM SCT037 07/M02 A3000 RMK CU3 SLP160

CYYG;2009-10-15 18:00;CYYG 151800Z 29011G16KT 15SM FEW033 06/M02 A3000 RMK CU2 SH DIST N-NE SLP162

CYYG;2009-10-15 19:00;CYYG 151900Z 29009KT 15SM FEW033 05/M03 A3001 RMK CU2 SH DIST N-NE SLP164

CYYG;2009-10-15 20:00;CYYG 152000Z 29007KT 15SM FEW033 06/M03 A3002 RMK CU2 SH DIST N-NE SLP169

CYYG;2009-10-15 21:00;CYYG 152100Z 28006KT 15SM FEW043 04/M03 A3004 RMK CU2 SH DIST NE-E SLP176

CYYG;2009-10-15 22:00;CYYG 152200Z 27004KT 15SM FEW040 03/M04 A3006 RMK SC2 TCU NE-E SH DIST NE-E SLP181

CYYG;2009-10-15 23:00;CYYG 152300Z 28005KT 15SM FEW040 02/M04 A3008 RMK SC2 SLP188

CYYG;2009-10-16 00:00;CYYG 160000Z 33003KT 15SM FEW040 01/M04 A3009 RMK SC1 SLP192

CYYG;2009-10-16 01:00;CYYG 160100Z 29003KT 15SM FEW080 01/M05 A3010 RMK AC2 SLP195

CYYG;2009-10-16 02:00;CYYG 160200Z 27005KT 15SM FEW080 01/M05 A3012 RMK AC2 SLP200

CYYG;2009-10-16 03:00;CYYG 160300Z 28005KT 15SM FEW080 01/M05 A3012 RMK AC1 SLP203

CYYG;2009-10-16 04:00;CYYG 160400Z 00000KT 15SM SCT072 M00/M05 A3014 RMK AC3 SLP209

CYYG;2009-10-16 05:00;CYYG 160500Z 00000KT 15SM BKN068 M01/M04 A3016 RMK AC5 SLP214

CYYG;2009-10-16 06:00;CYYG 160600Z 00000KT 15SM BKN068 M01/M05 A3016 RMK AC5 SLP216

CYYG;2009-10-16 07:00;CYYG 160700Z 00000KT 15SM BKN068 M01/M05 A3017 RMK AC5 SLP218

CYYG;2009-10-16 08:00;CYYG 160800Z 00000KT 15SM BKN068 M02/M05 A3017 RMK AC5 SLP217

CYYG;2009-10-16 09:00;CYYG 160900Z 01003KT 15SM SCT068 M04/M06 A3015 RMK AC3 SLP211

CYYG;2009-10-16 10:00;CYYG 161000Z 07003KT 15SM SCT068 BKN260 M03/M06 A3015 RMK AC3CI1 SLP211

CYYG;2009-10-16 11:00;CYYG 161100Z 07002KT 15SM FEW020 SCT070 BKN260 M03/M05 A3015 RMK SC1AC3CI1 SLP211

CYYG;2009-10-16 12:00;CYYG 161200Z 13003KT 15SM FEW020 BKN070 BKN260 M00/M04 A3016 RMK SC2AC3CI2 SLP216

CYYG;2009-10-16 13:00;CYYG 161300Z 08006KT 15SM FEW020 SCT070 OVC260 04/M01 A3015 RMK CU2AC2CI2 SHRA NE SLP212

CYYG;2009-10-16 14:00;CYYG 161400Z 08008KT 15SM FEW020 BKN150 OVC200 05/M01 A3013 RMK CU2AC2CC2 SHRA NW SLP205

CYYG;2009-10-16 15:00;CYYG 161500Z 08014G20KT 15SM FEW020 SCT080 BKN150 OVC200 07/M02 A3011 RMK CU2AC2AC2CI2 SHRA E SLP197

CYYG;2009-10-16 16:00;CYYG 161600Z 08015KT 15SM FEW020 BKN054 OVC200 07/00 A3008 RMK CU2SC3CI2 VIRGA N SLP188

CYYG;2009-10-16 17:00;CYYG 161700Z 05012KT 15SM FEW030 BKN054 OVC200 07/01 A3007 RMK CU2SC3CI2 SHRA NW-NE SLP185

CYYG;2009-10-16 18:00;CYYG 161800Z 07015KT 15SM SCT050 BKN150 OVC200 07/M03 A3003 RMK SC3AC2CS3 SLP172

CYYG;2009-10-16 19:00;CYYG 161900Z 06013G22KT 15SM SCT033 BKN120 OVC200 07/M00 A3002 RMK SC4AS2CS2 SHRA N SLP169

CYYG;2009-10-16 20:00;CYYG 162000Z 05011KT 15SM FEW033 OVC068 06/M00 A3000 RMK SC2AC6 SLP160

CYYG;2009-10-16 20:28;CYYG 162028Z 06015KT 15SM -SHRA BKN038 OVC070 06/ RMK SC6AC2

CYYG;2009-10-16 21:00;CYYG 162100Z 07019G25KT 10SM -SHRA BKN028 OVC070 06/M00 A2998 RMK SC6AC2 SLP156

CYYG;2009-10-16 22:00;CYYG 162200Z 05011KT 15SM OVC028 04/02 A2999 RMK SC8 SLP158

CYYG;2009-10-16 22:45;CYYG 162245Z 04007KT 12SM -SHRA OVC023 05/ RMK SC8

CYYG;2009-10-16 23:00;CYYG 162300Z 06009KT 12SM -SHRA OVC021 05/02 A3000 RMK SC8 SLP162

CYYG;2009-10-17 00:00;CYYG 170000Z 05011KT 12SM -SHRA OVC019 05/03 A3000 RMK SC8 SLP160

CYYG;2009-10-17 01:00;CYYG 170100Z 07012G22KT 15SM -SHRA OVC017 05/03 A2999 RMK SC8 SLP159

CYYG;2009-10-17 02:00;CYYG 170200Z 05011KT 15SM -SHRA OVC017 05/03 A2999 RMK SC8 SLP157

CYYG;2009-10-17 03:00;CYYG 170300Z 05013KT 15SM -SHRA OVC018 05/03 A2998 RMK SC8 SLP152

CYYG;2009-10-17 04:00;CYYG 170400Z 05012KT 15SM BKN018 OVC078 06/03 A2998 RMK SC6AC2 SLP155

CYYG;2009-10-17 05:00;CYYG 170500Z 03013KT 15SM -SHRA SCT018 BKN028 OVC078 06/02 A2998 RMK SC3SC3AC2 SLP155

CYYG;2009-10-17 06:00;CYYG 170600Z 02013KT 15SM -SHRA BKN020 OVC075 06/02 A3000 RMK SC6AC2 SLP160

CYYG;2009-10-17 07:00;CYYG 170700Z 02014G20KT 15SM -SHRA BKN020 OVC040 06/02 A3000 RMK SC6SC2 SLP161

CYYG;2009-10-17 08:00;CYYG 170800Z 01012G17KT 15SM -SHRA OVC022 06/02 A3002 RMK SC8 SLP168

CYYG;2009-10-17 09:00;CYYG 170900Z 02011G16KT 15SM -SHRA BKN025 OVC082 06/02 A3004 RMK SC6AC2 SLP175

CYYG;2009-10-17 09:54;CYYG 170954Z 01009KT 15SM SCT025 BKN080 06/ RMK SC4AC2

CYYG;2009-10-17 10:00;CYYG 171000Z 02010KT 15SM SCT025 BKN080 06/01 A3006 RMK SC4AC2 SLP180

CYYG;2009-10-17 11:00;CYYG 171100Z 01007KT 15SM FEW025 BKN043 06/01 A3007 RMK SC2SC3 SLP185

CYYG;2009-10-17 11:45;CYYG 171145Z 01011G16KT 15SM -SHRA FEW028 BKN043 BKN200 06/ RMK SC1SC4CI1

CYYG;2009-10-17 12:00;CYYG 171200Z 36008KT 15SM -SHRA BKN030 BKN200 06/01 A3009 RMK SC5CI2 SLP193

CYYG;2009-10-17 12:26;CYYG 171226Z 01011G16KT 15SM VCSH SCT028 BKN040 BKN160 07/ RMK SC3SC2AC1

CYYG;2009-10-17 12:28;CYYG 171228Z CCA 01011G16KT 15SM -SHRA SCT028 BKN040 BKN160 07/ RMK SC3SC2AC1

CYYG;2009-10-17 13:00;CYYG 171300Z 03007KT 15SM -SHRA BKN029 06/03 A3013 RMK SC7 SLP205

CYYG;2009-10-17 14:00;CYYG 171400Z 36013KT 15SM VCSH BKN028 08/02 A3012 RMK SC5 SLP203

CYYG;2009-10-17 14:10;CYYG 171410Z 03014G20KT 15SM -SHRA BKN030 07/ RMK SC6

CYYG;2009-10-17 15:00;CYYG 171500Z 03011G16KT 15SM -SHRA BKN029 06/03 A3014 RMK SC7 SLP207

CYYG;2009-10-17 15:40;CYYG 171540Z 02014G19KT 15SM BKN029 BKN038 07/ RMK SC5SC2

CYYG;2009-10-17 16:00;CYYG 171600Z 04016G21KT 15SM BKN026 BKN040 08/02 A3012 RMK SC5SC1 SLP202

CYYG;2009-10-17 16:53;CYYG 171653Z 04016KT 15SM -SHRA BKN033 07/ RMK CU7

CYYG;2009-10-17 17:00;CYYG 171700Z 04018KT 15SM -SHRA BKN033 06/01 A3013 RMK CU7 SLP204

CYYG;2009-10-17 17:34;CYYG 171734Z 36013G18KT 15SM VCSH BKN034 BKN100 08/ RMK CU6AC1

CYYG;2009-10-17 18:00;CYYG 171800Z 03007G20KT 15SM -SHRA BKN025 06/02 A3016 RMK CU7 SLP216

CYYG;2009-10-17 19:00;CYYG 171900Z 05011KT 15SM -SHRA BKN029 06/01 A3016 RMK SC7 SLP214

CYYG;2009-10-17 20:00;CYYG 172000Z 01008KT 15SM -SHRA BKN030 06/01 A3016 RMK SC7 SLP214

CYYG;2009-10-17 21:00;CYYG 172100Z 02007KT 15SM VCSH BKN035 BKN160 05/01 A3017 RMK SC5AC0 SLP218

CYYG;2009-10-17 22:00;CYYG 172200Z 36004KT 15SM SCT035 04/M01 A3019 RMK SC4 SLP226

CYYG;2009-10-17 23:00;CYYG 172300Z 02006KT 15SM FEW025 BKN034 04/M00 A3020 RMK SC1SC5 SLP229

CYYG;2009-10-18 00:00;CYYG 180000Z 02005KT 15SM BKN036 05/M00 A3021 RMK SC5 SLP231

CYYG;2009-10-18 01:00;CYYG 180100Z 01004KT 15SM FEW030 BKN045 04/M00 A3022 RMK SC2SC4 SLP234

CYYG;2009-10-18 02:00;CYYG 180200Z 36004KT 15SM FEW030 BKN043 04/01 A3023 RMK SC1SC6 SLP237

CYYG;2009-10-18 03:00;CYYG 180300Z 05005KT 15SM FEW032 BKN046 04/00 A3024 RMK SC1SC4 SLP243

CYYG;2009-10-18 04:00;CYYG 180400Z 01003KT 15SM FEW034 BKN041 04/01 A3026 RMK SC1SC5 SLP248

CYYG;2009-10-18 04:54;CYYG 180454Z 07004KT 15SM -SHRA BKN032 OVC048 04/ RMK SC5SC3

CYYG;2009-10-18 05:00;CYYG 180500Z 07004KT 15SM -SHRA BKN032 OVC048 04/01 A3026 RMK SC5SC3 SLP249

CYYG;2009-10-18 05:34;CYYG 180534Z 06006KT 15SM FEW030 BKN041 04/ RMK SC2SC5

CYYG;2009-10-18 06:00;CYYG 180600Z 05004KT 15SM FEW030 BKN043 04/00 A3025 RMK SC2SC5 SLP246

CYYG;2009-10-18 07:00;CYYG 180700Z 36002KT 15SM BKN039 04/01 A3024 RMK SC7 SLP243

CYYG;2009-10-18 08:00;CYYG 180800Z 02005KT 15SM BKN038 04/M00 A3026 RMK SC7 SLP249

CYYG;2009-10-18 09:00;CYYG 180900Z 02004KT 15SM BKN036 03/M01 A3028 RMK SC5 SLP254

CYYG;2009-10-18 10:00;CYYG 181000Z 02004KT 15SM SCT038 03/M02 A3028 RMK SC3 SLP255

CYYG;2009-10-18 11:00;CYYG 181100Z 03002KT 15SM BKN042 BKN250 03/M02 A3030 RMK SC6CI1 SLP263

CYYG;2009-10-18 12:00;CYYG 181200Z 04007KT 15SM FEW040 SCT250 06/01 A3031 RMK SC2CI1 SLP265

CYYG;2009-10-18 13:00;CYYG 181300Z 05011KT 15SM FEW040 SCT250 07/M00 A3031 RMK SC2CI2 SLP267

CYYG;2009-10-18 14:00;CYYG 181400Z 05010KT 15SM BKN040 BKN250 08/01 A3031 RMK SC5CI1 SLP265

CYYG;2009-10-18 15:00;CYYG 181500Z 06010KT 15SM BKN035 BKN250 08/02 A3031 RMK SC5CI2 SLP265

CYYG;2009-10-18 16:00;CYYG 181600Z 07009G16KT 15SM OVC038 08/03 A3031 RMK SC8 SLP266

CYYG;2009-10-18 17:00;CYYG 181700Z 05011KT 15SM FEW025 BKN035 OVC250 08/02 A3030 RMK SC2SC4CI2 SLP263

CYYG;2009-10-18 18:00;CYYG 181800Z 06010G16KT 15SM FEW025 BKN048 OVC220 08/03 A3028 RMK SC2SC3CI2 SLP254

CYYG;2009-10-18 19:00;CYYG 181900Z 05012KT 15SM SCT017 OVC034 08/04 A3026 RMK SC3SC5 SLP249

CYYG;2009-10-18 20:00;CYYG 182000Z 07011KT 15SM FEW017 BKN026 OVC038 08/03 A3024 RMK SC2SC5SC2 SLP243

CYYG;2009-10-18 21:00;CYYG 182100Z 07008KT 15SM FEW030 OVC040 08/04 A3024 RMK SC2SC6 SLP243

CYYG;2009-10-18 22:00;CYYG 182200Z 07009KT 15SM OVC035 07/04 A3023 RMK SC8 SLP238

CYYG;2009-10-18 22:49;CYYG 182249Z 07007KT 12SM -DZ OVC029 07/ RMK SC8

CYYG;2009-10-18 23:00;CYYG 182300Z 08006KT 12SM -DZ SCT012 OVC028 07/05 A3021 RMK SF3SC5 SLP233

CYYG;2009-10-19 00:00;CYYG 190000Z 08007KT 12SM -DZ SCT012 OVC025 07/05 A3018 RMK SF3SC5 SLP221

CYYG;2009-10-19 01:00;CYYG 190100Z 08005KT 12SM -DZ BKN014 OVC025 07/05 A3019 RMK SF5SC3 SLP226

CYYG;2009-10-19 02:00;CYYG 190200Z 09009KT 12SM -DZ BKN014 OVC025 07/03 A3017 RMK SF6SC2 SLP219

CYYG;2009-10-19 03:00;CYYG 190300Z 07008KT 12SM -DZ BKN014 OVC030 06/03 A3014 RMK SF5SC3 SLP209

CYYG;2009-10-19 04:00;CYYG 190400Z 06012G19KT 12SM -DZ SCT014 OVC030 06/03 A3007 RMK SF3SC5 PRESFR SLP185

CYYG;2009-10-19 04:40;CYYG 190440Z 05015G20KT 7SM -RA BKN014 OVC025 05/ RMK SF6SC2

CYYG;2009-10-19 05:00;CYYG 190500Z 06012G19KT 8SM -RA BKN018 OVC026 05/03 A3006 RMK SF6SC2 SLP182

CYYG;2009-10-19 06:00;CYYG 190600Z 08016KT 8SM -RA BKN018 OVC025 05/02 A3003 RMK SF6SC2 SLP171

CYYG;2009-10-19 06:18;CYYG 190618Z 05012G18KT 8SM RA BKN014 OVC026 05/ RMK SF7SC1

CYYG;2009-10-19 07:00;CYYG 190700Z 05015KT 8SM RA BKN014 OVC025 04/02 A3004 RMK SF6SC2 SLP174

CYYG;2009-10-19 07:49;CYYG 190749Z 05017G22KT 12SM -RA BKN018 OVC026 04/ RMK SF6SC2 RERA

CYYG;2009-10-19 08:00;CYYG 190800Z 05015G22KT 12SM -RA BKN021 OVC051 04/03 A2998 RMK SC6SC2 PRESFR RERA SLP152

CYYG;2009-10-19 08:14;CYYG 190814Z 05018KT 8SM RA FEW008 OVC021 05/ RMK SF2SC6

CYYG;2009-10-19 09:00;CYYG 190900Z 05017KT 8SM RA BKN007 OVC020 05/03 A2995 RMK SF5SC3 SLP143

CYYG;2009-10-19 09:26;CYYG 190926Z 06017G24KT 10SM -RA SCT007 OVC021 05/ RMK SF4SC4 RERA

CYYG;2009-10-19 10:00;CYYG 191000Z 06020G27KT 10SM -RA BKN009 OVC021 05/04 A2990 RMK SF5SC3 RERA SLP127

CYYG;2009-10-19 11:00;CYYG 191100Z 05015G29KT 7SM -RA BKN008 OVC015 06/06 A2989 RMK SF7SC1 SLP124

CYYG;2009-10-19 11:50;CYYG 191150Z 05017G28KT 15SM BKN008 OVC035 06/ RMK SF7SC1

CYYG;2009-10-19 12:00;CYYG 191200Z 05018G24KT 15SM BKN009 OVC035 07/06 A2987 RMK SF7SC1 G31 PST HR SLP117

CYYG;2009-10-19 12:18;CYYG 191218Z 05019G29KT 12SM -DZ BKN009 OVC033 07/ RMK SF6SC2

CYYG;2009-10-19 13:00;CYYG 191300Z 05024G31KT 3SM -DZ BR OVC010 07/06 A2987 RMK SF8 SLP115

CYYG;2009-10-19 14:00;CYYG 191400Z 05018G32KT 3SM -DZ BR OVC007 07/07 A2988 RMK SF8 SLP119

CYYG;2009-10-19 14:36;CYYG 191436Z 05020G29KT 5SM -DZ BR SCT007 OVC045 07/ RMK SF3SC5

CYYG;2009-10-19 15:00;CYYG 191500Z 07020G25KT 15SM -DZ FEW007 OVC045 07/07 A2987 RMK SF2SC6 SLP116

CYYG;2009-10-19 15:16;CYYG 191516Z 05018G26KT 15SM FEW009 OVC045 07/ RMK SF2SC6

CYYG;2009-10-19 15:54;CYYG 191554Z 04020G26KT 15SM BKN011 OVC032 08/ RMK SC7SC1

CYYG;2009-10-19 16:00;CYYG 191600Z 05017G26KT 15SM OVC011 08/08 A2986 RMK SC8 SLP113

CYYG;2009-10-19 16:19;CYYG 191619Z 03017G24KT 10SM -DZ OVC011 08/ RMK SF8

CYYG;2009-10-19 16:49;CYYG 191649Z 03015G21KT 2SM -DZ BR OVC008 07/ RMK SF8

CYYG;2009-10-19 17:00;CYYG 191700Z 03016G21KT 2SM R03/5000FT/U -DZ BR OVC007 07/07 A2988 RMK SF8 SLP120

CYYG;2009-10-19 18:00;CYYG 191800Z 02016G26KT 5SM -DZ BR OVC008 07/07 A2987 RMK SF8 SLP116

CYYG;2009-10-19 19:00;CYYG 191900Z 02018G27KT 1 1/2SM R03/4500VP6000FT/N -DZ BR OVC007 06/06 A2989 RMK SF8 SLP123

CYYG;2009-10-19 19:04;CYYG 191904Z 02017G24KT 1 1/2SM R03/5500FT/U -SHRA BR OVC007 06/ RMK SF8

CYYG;2009-10-19 20:00;CYYG 192000Z 03016G21KT 6SM -SHRA BR OVC007 06/06 A2993 RMK SF8 SLP135

CYYG;2009-10-19 20:40;CYYG 192040Z 02011G18KT 15SM -SHRA FEW007 OVC010 06/ RMK SF1SC7

CYYG;2009-10-19 21:00;CYYG 192100Z 03014G19KT 15SM -SHRA FEW007 OVC010 06/06 A2993 RMK SF1SC7 SLP136

CYYG;2009-10-19 21:27;CYYG 192127Z 02011G17KT 15SM OVC012 06/ RMK SC8

CYYG;2009-10-19 22:00;CYYG 192200Z 02009KT 15SM OVC013 06/06 A2996 RMK SC8 SLP145

CYYG;2009-10-19 23:00;CYYG 192300Z 02009KT 15SM BKN018 OVC024 06/06 A2996 RMK SC6SC2 SLP147

CYYG;2009-10-20 00:00;CYYG 200000Z 36008KT 15SM OVC020 06/06 A2997 RMK SC8 SLP149

CYYG;2009-10-20 00:18;CYYG 200018Z 03012KT 5SM -SHRA BKN013 OVC021 06/ RMK SF5SC3

CYYG;2009-10-20 01:00;CYYG 200100Z 01008KT 8SM -SHRA SCT015 OVC022 06/06 A2997 RMK SC3SC5 SLP151

CYYG;2009-10-20 02:00;CYYG 200200Z 01008KT 8SM -SHRA FEW009 BKN018 OVC023 05/05 A2998 RMK SF2SC3SC2 SLP152

CYYG;2009-10-20 02:44;CYYG 200244Z 36005KT 15SM OVC023 06/ RMK SC8

CYYG;2009-10-20 03:00;CYYG 200300Z 01005KT 15SM OVC017 06/06 A2999 RMK SC8 SLP157

CYYG;2009-10-20 04:00;CYYG 200400Z 02007KT 15SM OVC018 06/06 A3000 RMK SC8 SLP160

CYYG;2009-10-20 05:00;CYYG 200500Z 01009KT 15SM OVC017 06/06 A3001 RMK SC8 SLP163

CYYG;2009-10-20 06:00;CYYG 200600Z 36003KT 15SM OVC018 05/05 A3001 RMK SC8 SLP162

CYYG;2009-10-20 07:00;CYYG 200700Z 36007KT 15SM OVC020 06/06 A3001 RMK SC8 SLP163

CYYG;2009-10-20 08:00;CYYG 200800Z 36005KT 15SM OVC021 06/06 A3001 RMK SC8 SLP164

CYYG;2009-10-20 09:00;CYYG 200900Z 03008KT 15SM OVC023 06/06 A3002 RMK SC8 SLP167

CYYG;2009-10-20 10:00;CYYG 201000Z 36003KT 15SM OVC026 06/06 A3003 RMK SC8 SLP169

CYYG;2009-10-20 11:00;CYYG 201100Z 00000KT 15SM OVC027 06/02 A3002 RMK SC8 SLP168

CYYG;2009-10-20 12:00;CYYG 201200Z 29003KT 15SM BKN027 07/02 A3003 RMK SC7 SLP170

CYYG;2009-10-20 13:00;CYYG 201300Z 02007KT 15SM BKN027 07/02 A3003 RMK SC6 SLP170

CYYG;2009-10-20 14:00;CYYG 201400Z 35003KT 15SM SCT027 08/02 A3003 RMK SC3 SLP170

CYYG;2009-10-20 15:00;CYYG 201500Z 29004KT 15SM SCT029 08/02 A3001 RMK SC3 SLP165

CYYG;2009-10-20 16:00;CYYG 201600Z 31004KT 15SM FEW030 SCT150 09/02 A3000 RMK SC2AC1 SLP161

CYYG;2009-10-20 17:00;CYYG 201700Z 28004KT 15SM FEW032 SCT150 10/02 A2999 RMK SC2AC2 SLP157

CYYG;2009-10-20 18:00;CYYG 201800Z 30003KT 15SM FEW035 BKN087 BKN240 09/02 A2998 RMK SC2AC3CI1 SLP154

CYYG;2009-10-20 19:00;CYYG 201900Z 30006KT 15SM FEW035 BKN085 BKN170 08/02 A2998 RMK SC1AC5AC2 SLP155

CYYG;2009-10-20 20:00;CYYG 202000Z 27003KT 15SM FEW035 BKN084 OVC170 08/01 A2998 RMK SC1AC6AC1 SLP153

CYYG;2009-10-20 21:00;CYYG 202100Z 20004KT 15SM FEW030 OVC069 08/03 A2998 RMK SC1AC7 SLP152

CYYG;2009-10-20 22:00;CYYG 202200Z 20004KT 15SM OVC068 07/03 A2997 RMK AC8 SLP149

CYYG;2009-10-20 23:00;CYYG 202300Z 20005KT 15SM BKN044 OVC055 07/04 A2996 RMK SC5SC3 SLP147

CYYG;2009-10-21 00:00;CYYG 210000Z 23005KT 15SM OVC042 08/04 A2995 RMK SC8 SLP143

CYYG;2009-10-21 01:00;CYYG 210100Z 23006KT 15SM OVC043 08/04 A2994 RMK SC8 SLP141

CYYG;2009-10-21 02:00;CYYG 210200Z 25006KT 15SM FEW043 BKN075 08/05 A2993 RMK SC2AC6 SLP138

CYYG;2009-10-21 03:00;CYYG 210300Z 27006KT 15SM BKN048 BKN075 08/05 A2993 RMK SC5AC2 SLP136

CYYG;2009-10-21 04:00;CYYG 210400Z 28007KT 15SM FEW038 OVC045 08/05 A2992 RMK SC2SC6 SLP134

CYYG;2009-10-21 05:00;CYYG 210500Z 28009KT 15SM OVC031 08/05 A2993 RMK SC8 SLP135

CYYG;2009-10-21 06:00;CYYG 210600Z 27006KT 15SM BKN035 OVC063 08/04 A2993 RMK SC6SC2 SLP135

CYYG;2009-10-21 07:00;CYYG 210700Z 27006KT 15SM FEW028 FEW058 07/04 A2993 RMK SC1SC2 SLP135

CYYG;2009-10-21 08:00;CYYG 210800Z 29008KT 15SM SCT055 07/04 A2993 RMK SC3 SLP136

CYYG;2009-10-21 09:00;CYYG 210900Z 28007KT 15SM FEW046 06/04 A2994 RMK SC2 SLP141

CYYG;2009-10-21 10:00;CYYG 211000Z 29008KT 15SM FEW019 SCT047 06/04 A2996 RMK SC2SC2 SLP147

CYYG;2009-10-21 11:00;CYYG 211100Z 28008KT 15SM FEW020 BKN034 06/04 A2997 RMK SC1SC6 SLP151

CYYG;2009-10-21 12:00;CYYG 211200Z 30009KT 15SM BKN028 BKN240 06/04 A2998 RMK SC5CI1 SLP153

CYYG;2009-10-21 13:00;CYYG 211300Z 32010G15KT 15SM BKN031 BKN120 BKN240 08/04 A2998 RMK SC5AC1CI1 SLP153

CYYG;2009-10-21 14:00;CYYG 211400Z 33013KT 15SM BKN025 BKN110 08/03 A2999 RMK CU6AC1 SLP157

CYYG;2009-10-21 15:00;CYYG 211500Z 31011KT 15SM BKN029 08/03 A2999 RMK CU7 SLP157

CYYG;2009-10-21 16:00;CYYG 211600Z 31011G16KT 15SM BKN029 09/03 A2999 RMK CU6 SLP156

CYYG;2009-10-21 17:00;CYYG 211700Z 32012G18KT 15SM BKN033 09/02 A2999 RMK CU6 SLP157

CYYG;2009-10-21 18:00;CYYG 211800Z 33012G18KT 15SM SCT029 BKN240 09/02 A3000 RMK CU4CI1 SLP159

CYYG;2009-10-21 19:00;CYYG 211900Z 30013KT 15SM SCT031 SCT240 09/03 A3000 RMK CU3CI1 SLP161

CYYG;2009-10-21 20:00;CYYG 212000Z 33008G18KT 15SM FEW025 BKN240 08/01 A3001 RMK CU2CI1 SLP165

CYYG;2009-10-21 21:00;CYYG 212100Z 33007KT 15SM FEW025 SCT240 07/M00 A3002 RMK CU2CI1 SLP166

CYYG;2009-10-21 22:00;CYYG 212200Z 31006KT 15SM FEW025 FEW240 05/01 A3003 RMK CU2CI1 SLP169

CYYG;2009-10-21 23:00;CYYG 212300Z 31006KT 15SM FEW043 04/M01 A3005 RMK CU2 SLP176

CYYG;2009-10-22 00:00;CYYG 220000Z 31005KT 15SM FEW020 03/M01 A3005 RMK SC2 SLP177

CYYG;2009-10-22 01:00;CYYG 220100Z 32010KT 15SM FEW020 05/01 A3007 RMK SC2 SLP184

CYYG;2009-10-22 02:00;CYYG 220200Z 31008KT 15SM FEW023 04/01 A3006 RMK CU2 SLP180

CYYG;2009-10-22 03:00;CYYG 220300Z 31007KT 15SM BKN030 05/01 A3005 RMK SC5 SLP176

CYYG;2009-10-22 04:00;CYYG 220400Z 32007KT 10SM -SHRA BKN023 05/01 A3005 RMK SC6 SLP176

CYYG;2009-10-22 05:00;CYYG 220500Z 30006KT 15SM -SHRA BKN030 04/01 A3005 RMK SC6 SLP178

CYYG;2009-10-22 05:37;CYYG 220537Z 29006KT 15SM SCT030 03/ RMK SC4

CYYG;2009-10-22 06:00;CYYG 220600Z 28004KT 15SM FEW038 02/M00 A3006 RMK SC2 SLP183

CYYG;2009-10-22 07:00;CYYG 220700Z 28005KT 15SM FEW032 02/M00 A3006 RMK SC2 SLP181

CYYG;2009-10-22 08:00;CYYG 220800Z 28007KT 15SM FEW028 02/M00 A3006 RMK SC2 SLP182

CYYG;2009-10-22 09:00;CYYG 220900Z 29006KT 15SM SCT028 03/M00 A3006 RMK SC4 SLP182

CYYG;2009-10-22 10:00;CYYG 221000Z 29004KT 15SM BKN028 BKN041 BKN250 03/00 A3007 RMK SC5SC2CI1 SLP185

CYYG;2009-10-22 10:32;CYYG 221032Z 29006KT 15SM -SHRA BKN031 OVC250 03/ RMK SC6CI2

CYYG;2009-10-22 11:00;CYYG 221100Z 30005KT 15SM BKN031 BKN140 OVC250 03/01 A3007 RMK SC5AS2CI1 SLP186

CYYG;2009-10-22 11:37;CYYG 221137Z 29006KT 15SM -SHRA BKN033 BKN140 OVC250 04/ RMK SC5AS2CI1

CYYG;2009-10-22 12:00;CYYG 221200Z 28006KT 15SM BKN040 BKN140 OVC250 04/02 A3008 RMK SC5AS1CI1 SLP189

CYYG;2009-10-22 13:00;CYYG 221300Z 29008KT 15SM BKN045 BKN130 OVC250 06/02 A3009 RMK SC5AS1CI1 SLP191

CYYG;2009-10-22 14:00;CYYG 221400Z 29008KT 15SM BKN044 BKN130 BKN200 06/02 A3009 RMK CU5AC1CI1 SLP191

CYYG;2009-10-22 15:00;CYYG 221500Z 29006KT 15SM FEW022 BKN052 OVC140 07/02 A3006 RMK CU2SC2AS2 VIRGA NE SLP182

CYYG;2009-10-22 16:00;CYYG 221600Z 28002KT 15SM BKN024 OVC140 07/01 A3004 RMK CU6AS2 SHRA NW VIRGA NE SLP174

CYYG;2009-10-22 17:00;CYYG 221700Z 35004KT 15SM BKN027 OVC140 06/02 A3003 RMK CU7AS1 SHRA N SLP171

CYYG;2009-10-22 18:00;CYYG 221800Z 01003KT 15SM BKN044 OVC140 06/01 A3001 RMK CU6AS2 SLP165

CYYG;2009-10-22 18:30;CYYG 221830Z 00000KT 15SM -SHRA BKN026 OVC140 06/ RMK CU7AS1

CYYG;2009-10-22 19:00;CYYG 221900Z 00000KT 10SM -SHRA OVC028 06/01 A3000 RMK CU8 SLP162

CYYG;2009-10-22 19:35;CYYG 221935Z 00000KT 15SM VCSH OVC023 05/ RMK CU8

CYYG;2009-10-22 20:00;CYYG 222000Z 12002KT 15SM -SHRA OVC020 05/03 A2998 RMK CU8 VIS LWR E SLP154

CYYG;2009-10-22 21:00;CYYG 222100Z 06004KT 15SM -SHRA SCT015 OVC049 04/03 A2994 RMK CU3SC5 SLP141

CYYG;2009-10-22 21:33;CYYG 222133Z 07006KT 15SM SCT015 OVC039 04/ RMK CU3SC5

CYYG;2009-10-22 22:00;CYYG 222200Z 07006KT 15SM FEW015 OVC036 04/03 A2991 RMK CU2SC6 SLP131

CYYG;2009-10-22 22:29;CYYG 222229Z 08007KT 15SM -SHRA FEW015 OVC024 04/ RMK SC2SC6

CYYG;2009-10-22 23:00;CYYG 222300Z 10008KT 15SM -SHRA SCT019 OVC025 04/03 A2986 RMK SC3SC5 SLP113

CYYG;2009-10-22 23:36;CYYG 222336Z 09008KT 12SM -SHRA FEW007 OVC015 04/ RMK SF2SC6

CYYG;2009-10-23 00:00;CYYG 230000Z 09007KT 8SM -SHRA SCT006 OVC014 04/03 A2982 RMK SF3SC5 SLP099

CYYG;2009-10-23 01:00;CYYG 230100Z 10008KT 10SM -SHRA FEW006 OVC015 04/02 A2978 RMK SF2SC6 SLP086

CYYG;2009-10-23 02:00;CYYG 230200Z 09010KT 8SM -SHRA FEW009 OVC015 04/02 A2975 RMK SF2SC6 SLP077

CYYG;2009-10-23 03:00;CYYG 230300Z 07010KT 8SM RA FEW007 OVC015 03/01 A2970 RMK SF2SC6 SLP060

CYYG;2009-10-23 03:38;CYYG 230338Z 05010KT 6SM -SN OVC003 01/ RMK SF8

CYYG;2009-10-23 04:00;CYYG 230400Z 04011KT 6SM -SN SCT003 OVC026 01/M01 A2966 RMK SF3SC5 RERA /R10/ SLP045

CYYG;2009-10-23 04:47;CYYG 230447Z 03013KT 1SM R03/P6000FT/D -SN OVC004 01/ RMK SF8

CYYG;2009-10-23 05:00;CYYG 230500Z 03014KT 1SM R03/3500VP6000FT/D -SN OVC005 01/M01 A2965 RMK SF8 SLP041

CYYG;2009-10-23 05:22;CYYG 230522Z 04015KT 3SM -SN FEW005 OVC013 01/ RMK SF2SC6

CYYG;2009-10-23 06:00;CYYG 230600Z 04012KT 4SM -SN FEW005 OVC015 01/M00 A2966 RMK SF2SC6 SLP046

CYYG;2009-10-23 06:13;CYYG 230613Z 04013KT 5SM -SHRASN OVC010 02/ RMK SF8

CYYG;2009-10-23 06:33;CYYG 230633Z 03020G25KT 10SM -SHRA OVC008 02/ RMK SF8

CYYG;2009-10-23 07:00;CYYG 230700Z 02017G24KT 12SM -SHRA OVC007 02/00 A2968 RMK SF8 SLP051

CYYG;2009-10-23 08:00;CYYG 230800Z 02018G26KT 15SM -SHRA OVC009 03/01 A2974 RMK SF8 PRESRR SLP074

CYYG;2009-10-23 09:00;CYYG 230900Z 02012G19KT 15SM -SHRA OVC015 04/01 A2978 RMK SC8 SLP086

CYYG;2009-10-23 10:00;CYYG 231000Z 01014G24KT 15SM -SHRA BKN015 OVC040 04/01 A2983 RMK SC6SC2 SLP104

CYYG;2009-10-23 11:00;CYYG 231100Z 01011G18KT 15SM -SHRA BKN015 04/01 A2989 RMK SC7 SLP122

CYYG;2009-10-23 11:49;CYYG 231149Z 36014G19KT 15SM -SHRAGS BKN015 04/ RMK SC7

CYYG;2009-10-23 12:00;CYYG 231200Z 36010G17KT 15SM -SHRA BKN015 04/02 A2995 RMK SC6 PRESRR SLP143

CYYG;2009-10-23 13:00;CYYG 231300Z 36019G25KT 15SM -SHRA BKN017 BKN050 05/02 A3000 RMK SC6SC2 SLP160

CYYG;2009-10-23 14:00;CYYG 231400Z 01017G28KT 15SM FEW017 OVC025 04/M01 A3004 RMK SC2SC6 OCNL -SHRA SLP175

CYYG;2009-10-23 15:00;CYYG 231500Z 36017G26KT 15SM -SHRA OVC025 04/M01 A3007 RMK SC8 SLP186

CYYG;2009-10-23 15:39;CYYG 231539Z 33012G19KT 15SM -SHRASN OVC023 03/ RMK SC8

CYYG;2009-10-23 16:00;CYYG 231600Z 34014G22KT 15SM OVC020 03/M00 A3011 RMK SC8 OCNL -SHRASN SLP197

CYYG;2009-10-23 16:34;CYYG 231634Z 33012G20KT 15SM VCSH OVC025 04/ RMK SC8

CYYG;2009-10-23 17:00;CYYG 231700Z 35012G17KT 15SM VCSH OVC025 03/M02 A3013 RMK SC8 SLP205

CYYG;2009-10-23 18:00;CYYG 231800Z 34016G22KT 15SM VCSH OVC025 03/M02 A3013 RMK SC8 SLP206

CYYG;2009-10-23 19:00;CYYG 231900Z 35009G18KT 15SM VCSH OVC030 03/M03 A3017 RMK SC8 SLP219

CYYG;2009-10-23 20:00;CYYG 232000Z 35012G21KT 15SM VCSH BKN030 03/M04 A3020 RMK SC7 SLP227

CYYG;2009-10-23 21:00;CYYG 232100Z 36009KT 15SM OVC030 03/M04 A3022 RMK SC8 SLP234

CYYG;2009-10-23 22:00;CYYG 232200Z 35007KT 15SM OVC032 03/M04 A3023 RMK SC8 SLP238

CYYG;2009-10-23 23:00;CYYG 232300Z 36007KT 15SM OVC034 03/M04 A3025 RMK SC8 SLP245

CYYG;2009-10-24 00:00;CYYG 240000Z 36007KT 15SM OVC031 03/M04 A3027 RMK SC8 SLP251

CYYG;2009-10-24 01:00;CYYG 240100Z 36009KT 15SM OVC032 03/M03 A3028 RMK SC8 SLP256

CYYG;2009-10-24 02:00;CYYG 240200Z 36005KT 15SM OVC032 03/M03 A3030 RMK SC8 SLP262

CYYG;2009-10-24 03:00;CYYG 240300Z 36005KT 15SM OVC034 03/M03 A3031 RMK SC8 SLP264

CYYG;2009-10-24 04:00;CYYG 240400Z 02004KT 15SM OVC036 03/M03 A3032 RMK SC8 SLP268

CYYG;2009-10-24 05:00;CYYG 240500Z 27003KT 15SM OVC034 03/M03 A3033 RMK SC8 SLP271

CYYG;2009-10-24 06:00;CYYG 240600Z 28003KT 15SM OVC035 03/M02 A3033 RMK SC8 SLP274

CYYG;2009-10-24 07:00;CYYG 240700Z 27002KT 15SM OVC034 02/M01 A3032 RMK SC8 SLP270

CYYG;2009-10-24 08:00;CYYG 240800Z 28002KT 15SM OVC034 02/M02 A3031 RMK SC8 SLP266

CYYG;2009-10-24 09:00;CYYG 240900Z 01002KT 15SM OVC034 02/M02 A3032 RMK SC8 SLP268

CYYG;2009-10-24 10:00;CYYG 241000Z 25003KT 15SM BKN034 01/M03 A3031 RMK SC7 SLP267

CYYG;2009-10-24 11:00;CYYG 241100Z 26002KT 15SM BKN032 BKN200 02/M03 A3032 RMK SC6CI1 SLP269

CYYG;2009-10-24 12:00;CYYG 241200Z 00000KT 15SM SCT032 BKN200 OVC250 03/M01 A3034 RMK SC3CS3CI1 SLP277

CYYG;2009-10-24 13:00;CYYG 241300Z 00000KT 15SM FEW035 OVC120 04/M01 A3036 RMK SC2AS6 SLP281

CYYG;2009-10-24 14:00;CYYG 241400Z 14004KT 15SM BKN032 OVC100 05/M02 A3033 RMK SC6AS2 SLP271

CYYG;2009-10-24 15:00;CYYG 241500Z 16006KT 15SM BKN032 OVC080 05/M01 A3032 RMK SC6AS2 SLP268

CYYG;2009-10-24 16:00;CYYG 241600Z 17008KT 15SM BKN026 OVC075 05/M01 A3031 RMK SC6AC2 SLP265

CYYG;2009-10-24 17:00;CYYG 241700Z 16011KT 15SM SCT025 OVC063 05/M01 A3028 RMK SC3SC5 SLP255

CYYG;2009-10-24 17:33;CYYG 241733Z 15012KT 15SM -RA SCT025 OVC060 05/ RMK SC3SC5

CYYG;2009-10-24 18:00;CYYG 241800Z 15010KT 15SM -RA FEW025 BKN060 OVC070 04/00 A3025 RMK SC2SC5AC2 SLP246

CYYG;2009-10-24 19:00;CYYG 241900Z 14009G17KT 15SM -RA FEW025 BKN060 OVC075 05/M00 A3023 RMK SC1SC6AC1 -RA INTMT SLP238

CYYG;2009-10-24 20:00;CYYG 242000Z 14011KT 15SM FEW025 OVC045 05/01 A3018 RMK SC1SC7 INTMT -RA SLP221

CYYG;2009-10-24 21:00;CYYG 242100Z 15013G18KT 15SM -RA FEW025 OVC038 05/01 A3016 RMK SC2SC6 SLP214

CYYG;2009-10-24 22:00;CYYG 242200Z 15012G19KT 10SM -RA BKN017 OVC042 04/03 A3014 RMK SC6SC2 SLP208

CYYG;2009-10-24 22:36;CYYG 242236Z 15015G21KT 6SM -RA BR SCT007 OVC032 04/ RMK SF3NS5

CYYG;2009-10-24 23:00;CYYG 242300Z 14014G20KT 5SM -RA BR SCT007 OVC028 04/03 A3010 RMK SF3NS5 SLP194

CYYG;2009-10-25 00:00;CYYG 250000Z 16015G22KT 5SM RA BR SCT007 OVC021 05/03 A3009 RMK SF3NS5 SLP191

CYYG;2009-10-25 01:00;CYYG 250100Z 16018G25KT 6SM -RA BR SCT009 OVC012 06/04 A3005 RERA RMK SF4NS4 SLP177

CYYG;2009-10-25 01:48;CYYG 250148Z 16017KT 6SM -RA BR OVC008 06/ RMK SF8

CYYG;2009-10-25 02:00;CYYG 250200Z 16017G24KT 6SM -RA BR OVC008 07/06 A3000 RMK SF8 SLP162

CYYG;2009-10-25 02:19;CYYG 250219Z 16017G22KT 6SM -RA BR BKN006 OVC009 07/ RMK SF6SF2

CYYG;2009-10-25 03:00;CYYG 250300Z 16020KT 6SM -RA BR BKN006 OVC012 08/07 A2996 RMK SF7SC1 SLP145

CYYG;2009-10-25 04:00;CYYG 250400Z 16023G30KT 8SM -RA OVC007 09/08 A2991 RMK SF8 SLP130

CYYG;2009-10-25 05:00;CYYG 250500Z 17023G31KT 5SM -RA BR BKN007 OVC012 09/09 A2988 RMK SF6SC2 SLP119

CYYG;2009-10-25 05:23;CYYG 250523Z 16020G30KT 2 1/2SM RA BR BKN006 OVC020 10/ RMK SF6SC2

CYYG;2009-10-25 06:00;CYYG 250600Z 16018G24KT 2 1/2SM RA BR OVC005 10/10 A2984 RMK SF8 /R12/ SLP107

CYYG;2009-10-25 07:00;CYYG 250700Z 15015G24KT 2 1/2SM -RA BR BKN005 OVC010 11/11 A2980 RERA RMK SF6SC2 SLP093

CYYG;2009-10-25 08:00;CYYG 250800Z 16013G18KT 4SM -RA BR BKN005 OVC010 13/12 A2974 RERA RMK SF5SC3 PRESFR SLP073

CYYG;2009-10-25 09:00;CYYG 250900Z 16015G20KT 2 1/2SM -RA BR BKN004 OVC008 13/13 A2969 RMK SF6SF2 /R10/ SLP053

CYYG;2009-10-25 10:00;CYYG 251000Z 18018G24KT 2 1/2SM -RA BR BKN004 OVC012 15/15 A2965 RMK SF7SC1 SLP042

CYYG;2009-10-25 11:00;CYYG 251100Z 18021G29KT 12SM -RA FEW004 OVC020 16/15 A2957 RMK SF2SC6 RERA PRESFR SLP015

CYYG;2009-10-25 12:00;CYYG 251200Z 20019G29KT 12SM -RA FEW004 OVC020 16/15 A2958 RMK SF2SC6 SLP019

CYYG;2009-10-25 12:07;CYYG 251207Z 20020G26KT 2SM -RA FEW004 OVC020 16/ RMK SF1SC7

CYYG;2009-10-25 12:34;CYYG 251234Z 20023G30KT 1SM R03/P6000FT/D RA BR OVC019 16/ RMK SC8

CYYG;2009-10-25 13:00;CYYG 251300Z 23014G24KT 1SM R03/2600VP6000FT/U RA BR OVC020 16/16 A2960 RMK SC8 SLP024

CYYG;2009-10-25 13:08;CYYG 251308Z 26021G29KT 15SM -RA FEW008 SCT020 OVC046 16/ RMK SF2SC2SC5

CYYG;2009-10-25 14:00;CYYG 251400Z 29007KT 15SM BKN049 14/11 A2967 RMK SC7 PRESRR SLP047

CYYG;2009-10-25 15:00;CYYG 251500Z 29011G16KT 15SM SCT052 SCT074 14/10 A2970 RMK SC3AC1 SLP057

CYYG;2009-10-25 16:00;CYYG 251600Z 29015G20KT 15SM FEW025 SCT060 15/11 A2972 RMK SC2SC2 SLP065

CYYG;2009-10-25 17:00;CYYG 251700Z 28011G16KT 15SM SCT023 16/11 A2974 RMK SC3 SLP071

CYYG;2009-10-25 18:00;CYYG 251800Z 28015G22KT 15SM FEW030 15/08 A2974 RMK SC2 SLP073

CYYG;2009-10-25 19:00;CYYG 251900Z 27012KT 15SM FEW030 14/08 A2976 RMK SC1 SLP077

CYYG;2009-10-25 20:00;CYYG 252000Z 29009G15KT 15SM FEW030 14/07 A2976 RMK SC1 SLP079

CYYG;2009-10-25 21:00;CYYG 252100Z 28007KT 15SM BKN040 12/06 A2977 RMK SC5 SLP083

CYYG;2009-10-25 22:00;CYYG 252200Z 30009KT 15SM BKN040 12/06 A2980 RMK SC6 SLP091

CYYG;2009-10-25 23:00;CYYG 252300Z 29008KT 15SM BKN040 10/05 A2981 RMK SC5 SLP095

CYYG;2009-10-26 00:00;CYYG 260000Z 29008KT 15SM FEW040 09/05 A2982 RMK SC2 SLP100

CYYG;2009-10-26 01:00;CYYG 260100Z 27006KT 15SM FEW040 08/03 A2984 RMK SC1 SLP105

CYYG;2009-10-26 02:00;CYYG 260200Z 28006KT 15SM BKN042 08/04 A2985 RMK SC6 SLP107

CYYG;2009-10-26 03:00;CYYG 260300Z 28009G17KT 15SM FEW040 08/02 A2985 RMK SC2 SLP109

CYYG;2009-10-26 04:00;CYYG 260400Z 28010G16KT 15SM FEW040 07/02 A2986 RMK SC1 SLP111

CYYG;2009-10-26 05:00;CYYG 260500Z 28008KT 15SM FEW040 06/01 A2987 RMK SC2 SLP114

CYYG;2009-10-26 06:00;CYYG 260600Z 27006KT 15SM SCT040 05/00 A2988 RMK SC3 SLP120

CYYG;2009-10-26 07:00;CYYG 260700Z 29010KT 15SM BKN040 06/00 A2989 RMK SC7 SLP123

CYYG;2009-10-26 08:00;CYYG 260800Z 29008KT 15SM FEW028 OVC045 05/00 A2991 RMK SC2SC6 SLP130

CYYG;2009-10-26 09:00;CYYG 260900Z 28011KT 15SM FEW045 04/M02 A2993 RMK SC2 SLP135

CYYG;2009-10-26 10:00;CYYG 261000Z 27010G15KT 15SM FEW045 04/M02 A2994 RMK SC1 SLP141

CYYG;2009-10-26 11:00;CYYG 261100Z 28011KT 15SM FEW028 FEW044 04/M03 A2996 RMK CU1SC2 SLP145

CYYG;2009-10-26 12:00;CYYG 261200Z 29014G21KT 15SM FEW028 FEW040 05/M02 A2998 RMK CU1SC1 SLP155

CYYG;2009-10-26 13:00;CYYG 261300Z 29015G20KT 15SM FEW030 BKN040 06/M02 A3000 RMK CU1SC5 SLP160

CYYG;2009-10-26 14:00;CYYG 261400Z 31019G25KT 15SM BKN036 06/M02 A3001 RMK SC7 SLP163

CYYG;2009-10-26 15:00;CYYG 261500Z 31016G26KT 15SM BKN038 06/M02 A3003 RMK SC7 SLP169

CYYG;2009-10-26 16:00;CYYG 261600Z 30016G29KT 15SM BKN039 07/M02 A3003 RMK SC7 SLP170

CYYG;2009-10-26 17:00;CYYG 261700Z 32018G25KT 15SM BKN040 07/M02 A3004 RMK SC6 SLP175

CYYG;2009-10-26 18:00;CYYG 261800Z 31013G25KT 15SM BKN040 06/M02 A3007 RMK SC7 SLP184

CYYG;2009-10-26 19:00;CYYG 261900Z 32014G25KT 15SM SCT042 08/M02 A3008 RMK SC3 SLP187

CYYG;2009-10-26 20:00;CYYG 262000Z 32013G22KT 15SM FEW043 07/M03 A3011 RMK SC2 SLP197

CYYG;2009-10-26 21:00;CYYG 262100Z 32009G20KT 15SM FEW038 05/M03 A3013 RMK SC2 SLP204

CYYG;2009-10-26 22:00;CYYG 262200Z 32008G15KT 15SM FEW038 04/M03 A3016 RMK SC2 SLP216

CYYG;2009-10-26 23:00;CYYG 262300Z 32009KT 15SM FEW040 04/M04 A3017 RMK SC1 SLP220

CYYG;2009-10-27 00:00;CYYG 270000Z 33014G22KT 15SM SKC 04/M05 A3020 RMK SLP227

CYYG;2009-10-27 01:00;CYYG 270100Z 32010G16KT 15SM SKC 04/M05 A3022 RMK SLP234

CYYG;2009-10-27 02:00;CYYG 270200Z 31014G19KT 15SM FEW042 03/M05 A3023 RMK SC2 SLP237

CYYG;2009-10-27 03:00;CYYG 270300Z 32008KT 15SM FEW039 03/M05 A3024 RMK SC2 SLP243

CYYG;2009-10-27 04:00;CYYG 270400Z 33007KT 15SM FEW040 02/M06 A3025 RMK SC2 SLP244

CYYG;2009-10-27 05:00;CYYG 270500Z 34009KT 15SM FEW040 03/M06 A3027 RMK SC1 SLP251

CYYG;2009-10-27 06:00;CYYG 270600Z 33007G15KT 15SM FEW037 03/M05 A3027 RMK SC2 SLP252

CYYG;2009-10-27 07:00;CYYG 270700Z 34006KT 15SM FEW037 02/M05 A3029 RMK SC2 SLP258

CYYG;2009-10-27 08:00;CYYG 270800Z 34008KT 15SM FEW037 02/M06 A3029 RMK SC1 SLP259

CYYG;2009-10-27 09:00;CYYG 270900Z 33007KT 15SM SKC 01/M06 A3032 RMK SLP268

CYYG;2009-10-27 10:00;CYYG 271000Z 34006KT 15SM FEW040 01/M06 A3032 RMK SC1 SLP269

CYYG;2009-10-27 11:00;CYYG 271100Z 34005KT 15SM FEW035 01/M05 A3033 RMK SC1 SLP271

CYYG;2009-10-27 12:00;CYYG 271200Z 36007KT 15SM FEW035 FEW300 03/M04 A3034 RMK SC1CI0 SLP276

CYYG;2009-10-27 13:00;CYYG 271300Z 36009G16KT 15SM FEW030 BKN300 04/M05 A3033 RMK SC1CI2 SLP274

CYYG;2009-10-27 14:00;CYYG 271400Z 36011G16KT 15SM FEW030 SCT300 04/M05 A3035 RMK SC1CI2 SLP278

CYYG;2009-10-27 15:00;CYYG 271500Z 36008KT 15SM FEW030 BKN300 04/M04 A3035 RMK SC2CI2 SLP279

CYYG;2009-10-27 16:00;CYYG 271600Z 36009KT 15SM FEW030 OVC200 04/M04 A3033 RMK SC2CI5 SLP271

CYYG;2009-10-27 17:00;CYYG 271700Z 32007KT 15SM FEW030 BKN094 OVC300 04/M04 A3032 RMK SC2AC4CI2 SLP268

CYYG;2009-10-27 18:00;CYYG 271800Z 34005KT 15SM FEW030 OVC087 04/M05 A3030 RMK SC2AC6 SLP263

CYYG;2009-10-27 19:00;CYYG 271900Z 34007KT 15SM FEW030 OVC070 03/M05 A3030 RMK SC1AC7 SLP261

CYYG;2009-10-27 20:00;CYYG 272000Z 36005KT 15SM SCT060 OVC140 03/M05 A3028 RMK SC3AC5 SLP254

CYYG;2009-10-27 21:00;CYYG 272100Z 35003KT 15SM BKN069 BKN140 03/M04 A3028 RMK AC6AC2 SLP257

CYYG;2009-10-27 22:00;CYYG 272200Z 00000KT 15SM BKN073 03/M04 A3027 RMK AC7 SLP251

CYYG;2009-10-27 23:00;CYYG 272300Z 27002KT 15SM OVC078 02/M03 A3025 RMK AC8 SLP247

CYYG;2009-10-28 00:00;CYYG 280000Z 30002KT 15SM SCT080 OVC130 02/M03 A3025 RMK AC3AC5 SLP246

CYYG;2009-10-28 01:00;CYYG 280100Z 28003KT 15SM OVC096 02/M03 A3025 RMK AC7 SLP247

CYYG;2009-10-28 02:00;CYYG 280200Z 28004KT 15SM FEW020 OVC120 01/M03 A3028 RMK SC1AC7 SLP254

CYYG;2009-10-28 03:00;CYYG 280300Z 00000KT 15SM OVC120 01/M03 A3025 RMK AC7 SLP247

CYYG;2009-10-28 04:00;CYYG 280400Z 30003KT 15SM OVC100 01/M03 A3025 RMK AC8 SLP247

CYYG;2009-10-28 05:00;CYYG 280500Z 33003KT 15SM OVC100 01/M03 A3025 RMK AC8 SLP247

CYYG;2009-10-28 06:00;CYYG 280600Z 33002KT 15SM BKN022 OVC100 01/M02 A3025 RMK SC5AC3 SLP245

CYYG;2009-10-28 07:00;CYYG 280700Z 01002KT 15SM BKN019 OVC100 01/M01 A3023 RMK SC6AC2 SLP237

CYYG;2009-10-28 08:00;CYYG 280800Z 00000KT 15SM BKN020 02/M01 A3020 RMK SC6 SLP230

CYYG;2009-10-28 09:00;CYYG 280900Z 31003KT 15SM BKN020 02/M01 A3023 RMK SC6 SLP237

CYYG;2009-10-28 10:00;CYYG 281000Z 01004KT 15SM OVC022 03/M00 A3022 RMK SC8 SLP235

CYYG;2009-10-28 11:00;CYYG 281100Z 36003KT 15SM BKN022 03/M01 A3024 RMK SC7 SLP242

CYYG;2009-10-28 12:00;CYYG 281200Z 36003KT 15SM BKN023 04/M01 A3025 RMK SC7 SH DIST SW-NW SLP244

CYYG;2009-10-28 13:00;CYYG 281300Z 35006KT 15SM BKN028 04/M01 A3026 RMK SC6 SLP250

CYYG;2009-10-28 14:00;CYYG 281400Z 34006KT 15SM FEW027 FEW300 05/M02 A3026 RMK SC2CI1 SLP250

CYYG;2009-10-28 15:00;CYYG 281500Z 35008KT 15SM FEW030 SCT300 05/M03 A3025 RMK CU1CS1 SLP244

CYYG;2009-10-28 16:00;CYYG 281600Z 01008KT 15SM FEW030 BKN300 06/M04 A3023 RMK CU1CS1 SLP240

CYYG;2009-10-28 17:00;CYYG 281700Z 02010KT 15SM FEW030 BKN300 06/M04 A3023 RMK SC1CS2 SLP237

CYYG;2009-10-28 18:00;CYYG 281800Z 36010KT 15SM FEW030 BKN300 06/M04 A3021 RMK SC1CS2 SLP231

CYYG;2009-10-28 19:00;CYYG 281900Z 02011KT 15SM BKN250 05/M04 A3020 RMK CS4 SLP230

CYYG;2009-10-28 20:00;CYYG 282000Z 03011KT 15SM BKN250 04/M05 A3019 RMK CS3 SLP225

CYYG;2009-10-28 21:00;CYYG 282100Z 02006KT 15SM BKN250 03/M05 A3019 RMK CS3 SLP225

CYYG;2009-10-28 22:00;CYYG 282200Z 35003KT 15SM BKN250 02/M05 A3021 RMK CS3 SLP232

CYYG;2009-10-28 23:00;CYYG 282300Z 01005KT 15SM SCT250 01/M05 A3022 RMK CS2 SLP235

CYYG;2009-10-29 00:00;CYYG 290000Z 01006KT 15SM BKN250 01/M05 A3022 RMK CS3 SLP235

CYYG;2009-10-29 01:00;CYYG 290100Z 01007KT 15SM BKN250 02/M04 A3022 RMK CS4 SLP235

CYYG;2009-10-29 02:00;CYYG 290200Z 02007KT 15SM BKN250 00/M04 A3022 RMK CS4 SLP236

CYYG;2009-10-29 03:00;CYYG 290300Z 02005KT 15SM BKN240 01/M04 A3020 RMK CS4 SLP228

CYYG;2009-10-29 04:00;CYYG 290400Z 01005KT 15SM BKN240 01/M04 A3019 RMK CS2 SLP224

CYYG;2009-10-29 05:00;CYYG 290500Z 36003KT 15SM FEW025 BKN240 00/M04 A3019 RMK SC2CS2 SLP226

CYYG;2009-10-29 06:00;CYYG 290600Z 02006KT 15SM FEW022 BKN240 00/M04 A3020 RMK SC2CI1 SLP228

CYYG;2009-10-29 07:00;CYYG 290700Z 01004KT 15SM FEW020 SCT240 00/M04 A3020 RMK SC2CI1 SLP230

CYYG;2009-10-29 08:00;CYYG 290800Z 02004KT 15SM FEW020 FEW240 00/M04 A3020 RMK SC1CI0 SLP230

CYYG;2009-10-29 09:00;CYYG 290900Z 36004KT 15SM FEW240 M00/M04 A3022 RMK CI1 SLP234

CYYG;2009-10-29 10:00;CYYG 291000Z 36006KT 15SM FEW240 01/M04 A3022 RMK CI1 SLP234

CYYG;2009-10-29 11:00;CYYG 291100Z 36004KT 15SM SCT240 01/M03 A3022 RMK CI2 SLP236

CYYG;2009-10-29 12:00;CYYG 291200Z 01006KT 15SM SCT240 03/M03 A3024 RMK CI2 SLP242

CYYG;2009-10-29 13:00;CYYG 291300Z 02012KT 15SM BKN250 04/M03 A3026 RMK CI2 SLP249

CYYG;2009-10-29 14:00;CYYG 291400Z 03011KT 15SM SCT027 BKN250 05/M01 A3027 RMK SC2CI1 SLP252

CYYG;2009-10-29 15:00;CYYG 291500Z 36013KT 15SM FEW024 SCT250 04/M02 A3026 RMK SC2CI1 SLP249

CYYG;2009-10-29 16:00;CYYG 291600Z 03013KT 15SM SCT024 BKN250 05/M01 A3025 RMK SC2CI2 SLP247

CYYG;2009-10-29 17:00;CYYG 291700Z 02010G15KT 15SM BKN023 05/M01 A3024 RMK SC5 SLP243

CYYG;2009-10-29 18:00;CYYG 291800Z 01010G16KT 15SM BKN025 04/M02 A3024 RMK SC6 SLP243

CYYG;2009-10-29 19:00;CYYG 291900Z 01007KT 15SM BKN024 04/M02 A3025 RMK SC6 SLP244

CYYG;2009-10-29 20:00;CYYG 292000Z 34006KT 15SM BKN024 BKN300 04/M02 A3025 RMK SC5CI1 SLP247

CYYG;2009-10-29 21:00;CYYG 292100Z 35005KT 15SM SCT025 BKN300 03/M02 A3025 RMK SC2CI1 SLP246

CYYG;2009-10-29 22:00;CYYG 292200Z 35002KT 15SM SCT020 BKN300 02/M03 A3025 RMK SC2CI1 SLP244

CYYG;2009-10-29 23:00;CYYG 292300Z 34003KT 15SM FEW180 BKN250 01/M03 A3026 RMK AC2CI2 SLP249

CYYG;2009-10-30 00:00;CYYG 300000Z 32003KT 15SM BKN200 00/M03 A3028 RMK CI2 SLP254

CYYG;2009-10-30 01:00;CYYG 300100Z 29003KT 15SM BKN200 M00/M04 A3027 RMK CI2 SLP251

CYYG;2009-10-30 02:00;CYYG 300200Z 30002KT 15SM FEW220 M01/M04 A3026 RMK CI1 SLP249

CYYG;2009-10-30 03:00;CYYG 300300Z 32005KT 15SM FEW220 M02/M05 A3027 RMK CI1 SLP253

CYYG;2009-10-30 04:00;CYYG 300400Z 30003KT 15SM FEW220 M02/M05 A3028 RMK CI1 SLP255

CYYG;2009-10-30 05:00;CYYG 300500Z 30003KT 15SM FEW220 M01/M04 A3028 RMK CI1 SLP255

CYYG;2009-10-30 06:00;CYYG 300600Z 30004KT 15SM FEW220 M01/M04 A3027 RMK CI1 SLP253

CYYG;2009-10-30 07:00;CYYG 300700Z 29004KT 15SM FEW220 M01/M04 A3026 RMK CI1 SLP249

CYYG;2009-10-30 08:00;CYYG 300800Z 30005KT 15SM SKC M02/M05 A3027 RMK SLP252

CYYG;2009-10-30 09:00;CYYG 300900Z 29003KT 15SM SKC M01/M04 A3027 RMK SLP254

CYYG;2009-10-30 10:00;CYYG 301000Z CCA 27002KT 15SM FEW025 M01/M04 A3026 RMK SC1 FROIN SLP249

CYYG;2009-10-30 11:00;CYYG 301100Z 26004KT 15SM FEW015 FEW080 FEW220 M01/M05 A3028 RMK CU1AC1CI1 FROIN SLP255

CYYG;2009-10-30 12:00;CYYG 301200Z 27002KT 15SM FEW015 FEW220 01/M02 A3029 RMK CU1CI1 SLP259

CYYG;2009-10-30 13:00;CYYG 301300Z 25004KT 15SM FEW015 FEW220 04/01 A3029 RMK SC1CI0 SLP260

CYYG;2009-10-30 14:00;CYYG 301400Z 26005KT 15SM FEW015 FEW220 05/00 A3030 RMK SC1CI1 SLP263

CYYG;2009-10-30 15:00;CYYG 301500Z 27004KT 15SM FEW015 FEW220 07/M01 A3031 RMK SC1CI1 SLP265

CYYG;2009-10-30 16:00;CYYG 301600Z 25006KT 15SM FEW150 FEW220 BKN310 08/M04 A3029 RMK AC1CI1CI0 SLP258

CYYG;2009-10-30 17:00;CYYG 301700Z 23006KT 15SM FEW150 FEW220 BKN310 09/M04 A3026 RMK AC1CI1CI0 SLP250

CYYG;2009-10-30 18:00;CYYG 301800Z 32005KT 15SM FEW150 BKN310 09/M05 A3027 RMK AC2CI0 SLP253

CYYG;2009-10-30 19:00;CYYG 301900Z 24004KT 15SM SCT200 BKN310 09/M05 A3025 RMK CC3CI0 SLP244

CYYG;2009-10-30 20:00;CYYG 302000Z 21008KT 15SM FEW200 BKN310 08/M04 A3024 RMK CC2CI0 SLP241

CYYG;2009-10-30 21:00;CYYG 302100Z 20004KT 15SM FEW200 BKN310 06/M04 A3025 RMK CC1CI1 SLP244

CYYG;2009-10-30 22:00;CYYG 302200Z 17004KT 15SM BKN310 05/M02 A3023 RMK CS2 SLP237

CYYG;2009-10-30 23:00;CYYG 302300Z 17005KT 15SM FEW180 BKN310 04/M01 A3022 RMK AC1CS2 SLP235

CYYG;2009-10-31 00:00;CYYG 310000Z 16005KT 15SM FEW170 BKN310 04/M01 A3020 RMK AC2CS2 SLP228

CYYG;2009-10-31 01:00;CYYG 310100Z 20006KT 15SM BKN160 BKN310 05/01 A3020 RMK AC6CS2 SLP227

CYYG;2009-10-31 02:00;CYYG 310200Z 21009KT 15SM BKN150 07/02 A3019 RMK AC7 SLP224

CYYG;2009-10-31 03:00;CYYG 310300Z 21010KT 15SM OVC160 07/01 A3018 RMK AC8 SLP222

CYYG;2009-10-31 04:00;CYYG 310400Z 21013KT 15SM OVC120 07/01 A3016 RMK AC8 SLP215

CYYG;2009-10-31 05:00;CYYG 310500Z 20012KT 15SM OVC110 06/01 A3013 RMK AC8 SLP206

CYYG;2009-10-31 06:00;CYYG 310600Z 20014KT 15SM OVC110 07/02 A3010 RMK AC8 SLP194

CYYG;2009-10-31 07:00;CYYG 310700Z 20014G20KT 15SM OVC120 07/03 A3006 RMK AC8 SLP180

CYYG;2009-10-31 08:00;CYYG 310800Z 21015KT 15SM OVC120 07/02 A3005 RMK AC8 SLP176

CYYG;2009-10-31 09:00;CYYG 310900Z 22016G22KT 15SM OVC100 08/03 A3006 RMK AC8 SLP180

CYYG;2009-10-31 10:00;CYYG 311000Z 20015G21KT 15SM BKN090 OVC140 08/03 A3001 RMK AC6AC2 SLP162

CYYG;2009-10-31 11:00;CYYG 311100Z 21013G20KT 15SM FEW080 BKN170 08/04 A3001 RMK AC2AC6 SLP165

CYYG;2009-10-31 12:00;CYYG 311200Z 19014G21KT 15SM FEW100 BKN140 OVC250 08/04 A2997 RMK AC2AC3CI2 SLP151

CYYG;2009-10-31 13:00;CYYG 311300Z 18017KT 15SM BKN090 BKN130 OVC250 09/06 A2996 RMK AC5AC2CI2 SLP145

CYYG;2009-10-31 14:00;CYYG 311400Z 19014G19KT 15SM BKN091 BKN130 OVC250 10/08 A2993 RMK AC5AC2CI2 SLP136

CYYG;2009-10-31 15:00;CYYG 311500Z 19016G22KT 15SM FEW080 OVC250 12/08 A2988 RMK AC2CI4 SLP121

CYYG;2009-10-31 16:00;CYYG 311600Z 21022G29KT 15SM FEW080 SCT130 BKN270 14/09 A2985 RMK AC1AC2CI3 SLP108

CYYG;2009-10-31 17:00;CYYG 311700Z 21018G24KT 15SM BKN023 14/09 A2982 RMK SC7 SLP100

CYYG;2009-10-31 18:00;CYYG 311800Z 20018G24KT 15SM OVC023 15/11 A2979 RMK SC8 SLP090

CYYG;2009-10-31 19:00;CYYG 311900Z 21019G26KT 15SM OVC028 16/11 A2978 RMK SC8 SLP084

CYYG;2009-10-31 20:00;CYYG 312000Z 21020G25KT 15SM BKN027 16/11 A2977 RMK SC7 SLP081

CYYG;2009-10-31 21:00;CYYG 312100Z 20019G26KT 15SM BKN028 BKN300 15/11 A2975 RMK SC6CI0 SLP074

CYYG;2009-10-31 22:00;CYYG 312200Z 20023G31KT 15SM BKN033 BKN300 16/12 A2973 RMK SC6CI0 SLP068

CYYG;2009-10-31 23:00;CYYG 312300Z 19016G25KT 15SM FEW038 15/12 A2974 RMK SC2 SLP070

CYYG;2009-11-01 01:00;CYYG 010100Z 20016G22KT 15SM FEW027 BKN051 15/12 A2971 RMK SC2SC3 SLP061

CYYG;2009-11-01 02:00;CYYG 010200Z 20015G20KT 15SM SCT030 BKN050 16/13 A2971 RMK SC3SC3 SLP060

CYYG;2009-11-01 03:00;CYYG 010300Z 19012G17KT 15SM BKN027 BKN050 16/13 A2970 RMK SC5SC2 SLP057

CYYG;2009-11-01 04:00;CYYG 010400Z 19016KT 15SM BKN027 OVC050 16/13 A2969 RMK SC6SC2 SLP053

CYYG;2009-11-01 05:00;CYYG 010500Z 21015G25KT 15SM OVC030 16/13 A2968 RMK SC8 SLP051

CYYG;2009-11-01 06:00;CYYG 010600Z 23013G18KT 15SM OVC020 16/14 A2970 RMK SC8 SLP058

CYYG;2009-11-01 06:11;CYYG 010611Z 26010G20KT 10SM -SHRA SCT006 OVC016 16/ RMK SF3SC5

CYYG;2009-11-01 07:00;CYYG 010700Z 28010G16KT 15SM -SHRA SCT006 OVC016 12/10 A2974 RMK SF3SC5 SLP071

CYYG;2009-11-01 08:00;CYYG 010800Z 27010KT 15SM -SHRA FEW006 OVC025 11/09 A2974 RMK SF2SC6 SLP071

CYYG;2009-11-01 09:00;CYYG 010900Z 26009KT 12SM -SHRA FEW006 OVC025 11/09 A2974 RMK SF2SC6 SLP073

CYYG;2009-11-01 10:00;CYYG 011000Z 24007KT 15SM -SHRA OVC030 11/09 A2975 RMK SC8 SLP075

CYYG;2009-11-01 11:00;CYYG 011100Z 25008KT 12SM -SHRA BKN030 OVC048 11/09 A2977 RMK SC6SC2 SLP083

CYYG;2009-11-01 12:00;CYYG 011200Z 25008G16KT 12SM -SHRA FEW020 OVC057 10/08 A2979 RMK SC2SC6 SLP090

CYYG;2009-11-01 13:00;CYYG 011300Z 25010G15KT 12SM -SHRA SCT036 OVC052 10/08 A2981 RMK SC3SC5 SLP096

CYYG;2009-11-01 14:00;CYYG 011400Z 25013KT 15SM -SHRA SCT050 OVC100 10/07 A2986 RMK SC3AC5 SLP111

CYYG;2009-11-01 15:00;CYYG 011500Z 26009G16KT 15SM -SHRA FEW020 SCT050 OVC110 10/08 A2984 RMK SF2SC2AC5 SLP105

CYYG;2009-11-01 15:11;CYYG 011511Z 25011KT 15SM SCT015 SCT050 OVC110 10/ RMK SF3SC1AC4

CYYG;2009-11-01 16:00;CYYG 011600Z 26009KT 15SM SCT022 OVC130 11/07 A2984 RMK SF3AC5 SLP104

CYYG;2009-11-01 17:00;CYYG 011700Z 27009KT 15SM FEW020 BKN100 10/06 A2986 RMK SF1AC6 SLP113

CYYG;2009-11-01 18:00;CYYG 011800Z 26008KT 15SM FEW020 BKN120 10/05 A2987 RMK SF1AC6 SLP115

CYYG;2009-11-01 19:00;CYYG 011900Z 27009KT 15SM FEW030 SCT120 BKN210 10/06 A2991 RMK CU1AC3CI2 CU TR SLP129

CYYG;2009-11-01 20:00;CYYG 012000Z 26008KT 15SM FEW030 FEW120 BKN210 10/05 A2994 RMK CU1AC2CI2 CU TR SLP140

CYYG;2009-11-01 21:00;CYYG 012100Z 25004KT 15SM FEW120 BKN210 08/05 A2998 RMK AC2CI2 SLP153

CYYG;2009-11-01 22:00;CYYG 012200Z 24005KT 15SM FEW120 SCT210 07/05 A3001 RMK AC1CI2 SLP165

CYYG;2009-11-01 23:00;CYYG 012300Z 24004KT 15SM FEW250 07/04 A3005 RMK CI2 SLP178

CYYG;2009-11-02 00:00;CYYG 020000Z 28004KT 15SM FEW060 06/04 A3009 RMK SC1 SLP190

CYYG;2009-11-02 01:00;CYYG 020100Z 33004KT 15SM FEW060 06/02 A3013 RMK SC2 SLP203

CYYG;2009-11-02 02:00;CYYG 020200Z 34008KT 15SM FEW031 FEW054 06/01 A3016 RMK SC1SC1 SLP213

CYYG;2009-11-02 03:00;CYYG 020300Z 33005KT 15SM FEW050 06/M00 A3017 RMK SC1 SLP219

CYYG;2009-11-02 04:00;CYYG 020400Z 32002KT 15SM FEW050 05/M01 A3020 RMK SC1 SLP227

CYYG;2009-11-02 05:00;CYYG 020500Z 32003KT 15SM FEW035 04/M01 A3022 RMK SC1 SLP233

CYYG;2009-11-02 06:00;CYYG 020600Z 33004KT 15SM SKC 02/M02 A3023 RMK SLP239

CYYG;2009-11-02 07:00;CYYG 020700Z 32005KT 15SM SKC 02/M02 A3025 RMK SLP244

CYYG;2009-11-02 08:00;CYYG 020800Z CCA 33003KT 15SM SKC 02/M01 A3029 RMK SLP259

CYYG;2009-11-02 09:00;CYYG 020900Z CCA 00000KT 15SM SCT036 01/M01 A3030 RMK SC2 SLP263

CYYG;2009-11-02 10:00;CYYG 021000Z 02003KT 15SM BKN040 01/M01 A3031 RMK SC6 SLP264

CYYG;2009-11-02 11:00;CYYG 021100Z 06004KT 15SM BKN037 03/M00 A3033 RMK SC6 SLP273

CYYG;2009-11-02 12:00;CYYG 021200Z 04007KT 15SM BKN036 05/00 A3036 RMK SC6 SLP283

CYYG;2009-11-02 13:00;CYYG 021300Z 03011KT 15SM FEW036 FEW120 06/00 A3038 RMK SC2AC0 SLP288

CYYG;2009-11-02 14:00;CYYG 021400Z 05012KT 15SM FEW030 07/M00 A3038 RMK SC2 SLP288

CYYG;2009-11-02 15:00;CYYG 021500Z 05011KT 15SM SCT030 07/M00 A3039 RMK SC4 SLP292

CYYG;2009-11-02 16:00;CYYG 021600Z 03010G15KT 15SM SCT030 07/00 A3038 RMK SC4 SLP290

CYYG;2009-11-02 17:00;CYYG 021700Z 05010KT 15SM FEW030 FEW120 07/M01 A3038 RMK SC2AC0 SLP288

CYYG;2009-11-02 18:00;CYYG 021800Z 04010KT 15SM FEW030 08/00 A3037 RMK SC1 SLP287

CYYG;2009-11-02 19:00;CYYG 021900Z 04012KT 15SM FEW030 07/M00 A3036 RMK SC1 SLP283

CYYG;2009-11-02 20:00;CYYG 022000Z 04009KT 15SM FEW030 06/M01 A3036 RMK SC1 SLP282

CYYG;2009-11-02 21:00;CYYG 022100Z 05008KT 15SM FEW030 04/M01 A3036 RMK SC1 SLP281

CYYG;2009-11-02 22:00;CYYG 022200Z 07006KT 15SM FEW030 03/M02 A3036 RMK SC1 SLP281

CYYG;2009-11-02 23:00;CYYG 022300Z 07004KT 15SM SKC 02/M02 A3034 RMK SLP277

CYYG;2009-11-03 00:00;CYYG 030000Z 07004KT 15SM SKC 01/M02 A3034 RMK SLP277

CYYG;2009-11-03 01:00;CYYG 030100Z 07004KT 15SM FEW300 00/M02 A3033 RMK CI1 SLP274

CYYG;2009-11-03 02:00;CYYG 030200Z 03005KT 15SM SCT250 01/M02 A3029 RMK CI2 SLP258

CYYG;2009-11-03 03:00;CYYG 030300Z 11005KT 15SM SCT023 BKN250 03/M00 A3028 RMK SC3CI2 SLP254

CYYG;2009-11-03 04:00;CYYG 030400Z 14005KT 15SM OVC140 03/00 A3026 RMK AS7 SLP248

CYYG;2009-11-03 05:00;CYYG 030500Z 11003KT 15SM OVC130 03/00 A3023 RMK AS7 SLP240

CYYG;2009-11-03 06:00;CYYG 030600Z 09003KT 15SM FEW022 BKN130 02/M00 A3020 RMK SC1AS2 SLP229

CYYG;2009-11-03 07:00;CYYG 030700Z 00000KT 15SM FEW020 FEW130 00/M02 A3019 RMK SC1AC1 SLP224

CYYG;2009-11-03 08:00;CYYG 030800Z 08002KT 15SM BKN023 01/M01 A3016 RMK SC6 SLP214

CYYG;2009-11-03 09:00;CYYG 030900Z 36003KT 15SM OVC024 02/M00 A3014 RMK SC7 SLP207

CYYG;2009-11-03 10:00;CYYG 031000Z 01004KT 15SM OVC021 03/01 A3012 RMK SC7 SLP200

CYYG;2009-11-03 11:00;CYYG 031100Z 02004KT 15SM OVC013 03/01 A3009 RMK SC8 SLP191

CYYG;2009-11-03 12:00;CYYG 031200Z 04005KT 5SM -RA BR OVC010 04/03 A3008 RMK ST8 SLP187

CYYG;2009-11-03 12:15;CYYG 031215Z 04006KT 5SM -RA BR OVC007 04/ RMK ST8 VIS LWR S

CYYG;2009-11-03 12:33;CYYG 031233Z 04004KT 5SM -DZ BR OVC008 04/ RMK ST8 VIS LWR S

CYYG;2009-11-03 12:50;CYYG 031250Z 05005KT 2SM -DZ BR SCT003 OVC008 04/ RMK SF3ST5

CYYG;2009-11-03 13:00;CYYG 031300Z 04006KT 2SM -DZ BR SCT003 OVC007 05/04 A3006 RMK SF3ST5 SLP180

CYYG;2009-11-03 13:17;CYYG 031317Z 05005KT 2SM -DZ BR OVC003 05/ RMK SF8

CYYG;2009-11-03 14:00;CYYG 031400Z 07007KT 2SM -DZ BR OVC003 06/05 A3001 RMK SF8 SLP164

CYYG;2009-11-03 14:24;CYYG 031424Z 07007KT 3SM -DZ BR OVC004 06/ RMK SF8

CYYG;2009-11-03 14:40;CYYG 031440Z 07006KT 3SM -RA BR BKN004 OVC009 06/ RMK SF6ST2

CYYG;2009-11-03 15:00;CYYG 031500Z 07007KT 2SM -RA BR BKN006 OVC009 06/05 A2998 RMK SF6ST2 SLP154

CYYG;2009-11-03 15:35;CYYG 031535Z 07006KT 5SM -RA BR BKN003 OVC006 06/ RMK SF7ST1

CYYG;2009-11-03 16:00;CYYG 031600Z 04006KT 5SM -RA BR BKN003 OVC006 07/05 A2994 RMK SF6ST2 SLP141

CYYG;2009-11-03 17:00;CYYG 031700Z 06005KT 3SM -RA BR BKN005 OVC010 06/05 A2991 RMK SF7ST1 SLP131

CYYG;2009-11-03 18:00;CYYG 031800Z 06006KT 3SM -RA BR BKN004 BKN008 OVC033 07/05 A2986 RMK SF6ST1SC1 SLP112

CYYG;2009-11-03 19:00;CYYG 031900Z 04009KT 4SM -RA BR BKN006 OVC033 06/05 A2982 RMK SF5SC3 SLP101

CYYG;2009-11-03 20:00;CYYG 032000Z 02005KT 3SM -RA BR BKN007 OVC020 06/05 A2982 RMK SF6SC2 SLP098

CYYG;2009-11-03 21:00;CYYG 032100Z 01006KT 6SM -RA BR OVC006 06/05 A2979 RMK SF8 SLP091

CYYG;2009-11-03 22:00;CYYG 032200Z 01005KT 6SM -RA BR BKN007 OVC015 06/05 A2978 RMK SF6SC2 SLP087

CYYG;2009-11-03 22:42;CYYG 032242Z 35005KT 8SM -SHRA SCT006 OVC011 06/ RMK SF4SC4

CYYG;2009-11-03 23:00;CYYG 032300Z 36006KT 8SM -SHRA SCT006 OVC011 06/05 A2978 RMK SF3SC5 SLP087

CYYG;2009-11-03 23:34;CYYG 032334Z 33004KT 8SM -DZ OVC005 06/ RMK SF8

CYYG;2009-11-04 00:00;CYYG 040000Z 33004KT 8SM -DZ OVC006 06/05 A2978 RMK SF8 SLP085

CYYG;2009-11-04 01:00;CYYG 040100Z 32005KT 8SM -DZ BKN006 OVC021 06/05 A2977 RMK SF6SC2 SLP083

CYYG;2009-11-04 01:33;CYYG 040133Z 31008KT 6SM -RA BR OVC005 06/ RMK SF8

CYYG;2009-11-04 02:00;CYYG 040200Z 31007KT 10SM BKN007 OVC012 06/05 A2978 RMK SF6SC2 SLP086

CYYG;2009-11-04 02:33;CYYG 040233Z 30007KT 15SM SCT007 OVC031 05/ RMK SF4SC4

CYYG;2009-11-04 03:00;CYYG 040300Z 29007KT 15SM SCT007 OVC030 05/04 A2979 RMK SF3SC5 SLP088

CYYG;2009-11-04 04:00;CYYG 040400Z 29005KT 15SM FEW007 BKN030 05/03 A2979 RMK SF2SC5 SLP090

CYYG;2009-11-04 05:00;CYYG 040500Z 28006KT 15SM SCT030 03/02 A2980 RMK SC4 SLP094

CYYG;2009-11-04 06:00;CYYG 040600Z 25005KT 15SM SCT030 03/02 A2979 RMK SC3 SLP091

CYYG;2009-11-04 07:00;CYYG 040700Z 25005KT 15SM BKN035 04/02 A2979 RMK SC5 SLP091

CYYG;2009-11-04 08:00;CYYG 040800Z 24005KT 15SM BKN034 04/02 A2979 RMK SC6 SLP090

CYYG;2009-11-04 09:00;CYYG 040900Z 24004KT 15SM BKN034 BKN061 05/02 A2979 RMK SC5SC2 SLP089

CYYG;2009-11-04 10:00;CYYG 041000Z 27004KT 15SM FEW031 BKN062 04/02 A2980 RMK SC2SC4 SLP092

CYYG;2009-11-04 11:00;CYYG 041100Z 27006KT 15SM BKN029 BKN060 04/02 A2981 RMK SC5SC2 SLP097

CYYG;2009-11-04 12:00;CYYG 041200Z 29008KT 15SM SCT032 BKN075 05/03 A2984 RMK SC3AC4 SLP107

CYYG;2009-11-04 13:00;CYYG 041300Z 30010KT 15SM VCSH SCT032 BKN080 05/02 A2987 RMK SC3AC3 SLP117

CYYG;2009-11-04 14:00;CYYG 041400Z 29011G20KT 15SM SCT026 BKN090 06/02 A2989 RMK SC4AC2 SLP123

CYYG;2009-11-04 15:00;CYYG 041500Z 29017KT 15SM BKN025 BKN038 05/00 A2992 RMK SC5SC2 SLP133

CYYG;2009-11-04 16:00;CYYG 041600Z 31015G21KT 15SM BKN030 06/M01 A2993 RMK SC7 SLP135

CYYG;2009-11-04 17:00;CYYG 041700Z 31014G21KT 15SM BKN038 05/M03 A2994 RMK SC7 SLP140

CYYG;2009-11-04 18:00;CYYG 041800Z 30009KT 15SM BKN037 05/M03 A2996 RMK SC7 SLP148

CYYG;2009-11-04 19:00;CYYG 041900Z 29011G20KT 15SM BKN045 05/M04 A2999 RMK SC7 SLP158

CYYG;2009-11-04 20:00;CYYG 042000Z 29009G17KT 15SM BKN051 05/M04 A3001 RMK SC6 SLP164

CYYG;2009-11-04 21:00;CYYG 042100Z 29008KT 15SM FEW053 04/M05 A3004 RMK SC2 SLP176

CYYG;2009-11-04 22:00;CYYG 042200Z 28006KT 15SM FEW050 03/M05 A3007 RMK SC1 SLP184

CYYG;2009-11-04 22:40;CYYG 042240Z 28006KT 15SM FEW050 02/ RMK SC1

CYYG;2009-11-04 23:00;CYYG 042300Z 28007KT 15SM FEW050 02/M06 A3010 RMK SC1 SLP194

CYYG;2009-11-05 00:00;CYYG 050000Z 28006KT 15SM FEW050 02/M06 A3012 RMK SC2 SLP201

CYYG;2009-11-05 01:00;CYYG 050100Z 27005KT 15SM FEW050 01/M06 A3015 RMK SC2 SLP211

CYYG;2009-11-05 02:00;CYYG 050200Z 27006KT 15SM FEW050 01/M06 A3017 RMK SC2 SLP220

CYYG;2009-11-05 03:00;CYYG 050300Z 27005KT 15SM FEW050 00/M07 A3019 RMK SC2 SLP225

CYYG;2009-11-05 04:00;CYYG 050400Z 30008KT 15SM FEW050 01/M07 A3020 RMK SC2 SLP227

CYYG;2009-11-05 05:00;CYYG 050500Z 29007KT 15SM FEW050 01/M07 A3022 RMK SC2 SLP234

CYYG;2009-11-05 06:00;CYYG 050600Z 28004KT 15SM SKC M01/M08 A3023 RMK SLP240

CYYG;2009-11-05 07:00;CYYG 050700Z 30004KT 15SM SKC M01/M07 A3025 RMK SLP244

CYYG;2009-11-05 08:00;CYYG 050800Z 26005KT 15SM FEW220 M01/M08 A3026 RMK CI1 SLP248

CYYG;2009-11-05 09:00;CYYG 050900Z 27004KT 15SM FEW220 M01/M08 A3027 RMK CI1 SLP252

CYYG;2009-11-05 10:00;CYYG 051000Z 27006KT 15SM FEW130 M02/M08 A3029 RMK AC2 SLP259

CYYG;2009-11-05 11:00;CYYG 051100Z 29003KT 15SM FEW025 BKN130 M01/M07 A3031 RMK SC1AC6 SLP264

CYYG;2009-11-05 12:00;CYYG 051200Z 32004KT 15SM FEW025 BKN140 BKN300 M01/M07 A3031 RMK SC1AS6CI1 SLP268

CYYG;2009-11-05 13:00;CYYG 051300Z 31007KT 15SM FEW025 SCT140 BKN300 01/M06 A3033 RMK SC1AS2CI2 SLP272

CYYG;2009-11-05 14:00;CYYG 051400Z 31005KT 15SM FEW025 FEW080 BKN140 BKN300 02/M07 A3033 RMK SC1AC1AS2CI1 SLP273

CYYG;2009-11-05 15:00;CYYG 051500Z 31004KT 15SM FEW025 FEW080 BKN140 02/M06 A3033 RMK SC1AC1AS6 SLP273

CYYG;2009-11-05 16:00;CYYG 051600Z 32004KT 15SM FEW025 FEW050 OVC090 03/M06 A3031 RMK SC1SC2AS6 SLP267

CYYG;2009-11-05 17:00;CYYG 051700Z 23002KT 15SM FEW025 FEW050 OVC090 03/M06 A3030 RMK SC1SC1AS6 SLP263

CYYG;2009-11-05 18:00;CYYG 051800Z 09003KT 15SM FEW025 FEW045 OVC080 03/M06 A3028 RMK SC1SC1AS6 SLP257

CYYG;2009-11-05 19:00;CYYG 051900Z 13004KT 15SM FEW025 FEW080 BKN250 03/M06 A3027 RMK SC1AC2CI3 SLP254

CYYG;2009-11-05 20:00;CYYG 052000Z 09003KT 15SM FEW025 SCT100 BKN250 03/M06 A3028 RMK SC1AS2CI1 SLP256

CYYG;2009-11-05 21:00;CYYG 052100Z 04006KT 15SM FEW025 FEW050 FEW100 M00/M06 A3027 RMK SC1SC1AS1 SLP252

CYYG;2009-11-05 22:00;CYYG 052200Z 06005KT 15SM FEW025 FEW110 M00/M05 A3026 RMK SC1AC1 SLP249

CYYG;2009-11-05 23:00;CYYG 052300Z 08007KT 15SM FEW025 FEW110 M00/M05 A3024 RMK SC1AS1 SLP244

CYYG;2009-11-06 00:00;CYYG 060000Z 06008KT 15SM FEW025 BKN240 00/M05 A3020 RMK SC1CI1 SLP230

CYYG;2009-11-06 01:00;CYYG 060100Z 06006KT 15SM SCT055 OVC210 M00/M04 A3018 RMK SC3CI2 SLP224

CYYG;2009-11-06 02:00;CYYG 060200Z 06007KT 15SM SCT060 BKN150 OVC210 01/M04 A3017 RMK SC3AC2CI2 SLP218

CYYG;2009-11-06 03:00;CYYG 060300Z 04006KT 15SM FEW060 OVC120 01/M03 A3012 RMK SC2AC6 SLP201

CYYG;2009-11-06 04:00;CYYG 060400Z 06005KT 15SM OVC100 02/M03 A3010 RMK AS8 SLP194

CYYG;2009-11-06 05:00;CYYG 060500Z 07006KT 15SM OVC080 02/M03 A3006 RMK AS8 SLP183

CYYG;2009-11-06 06:00;CYYG 060600Z 05008KT 15SM OVC082 03/M02 A3000 RMK AS8 PRESFR SLP162

CYYG;2009-11-06 07:00;CYYG 060700Z 05011KT 15SM FEW025 OVC068 03/M02 A2996 RMK SC2AS6 SLP147

CYYG;2009-11-06 08:00;CYYG 060800Z 05008KT 15SM BKN025 OVC058 04/M01 A2993 RMK SC5SC3 SLP136

CYYG;2009-11-06 09:00;CYYG 060900Z 04013G18KT 15SM -RA FEW028 OVC046 04/M02 A2987 RMK SC2SC6 SLP119

CYYG;2009-11-06 10:00;CYYG 061000Z 05016G26KT 15SM -RA BKN023 OVC045 03/M00 A2985 RMK SC6SC2 SLP110

CYYG;2009-11-06 10:52;CYYG 061052Z 04019KT 6SM -RA BR BKN007 OVC017 02/ RMK SF5SC3

CYYG;2009-11-06 11:00;CYYG 061100Z 04017KT 5SM -RA BR BKN007 OVC017 02/M00 A2985 RMK SF6SC2 SLP109

CYYG;2009-11-06 12:00;CYYG 061200Z 03021G27KT 5SM -RA BR BKN009 OVC016 03/00 A2983 RMK SF7SC1 SLP105

CYYG;2009-11-06 12:30;CYYG 061230Z 04021G26KT 3SM -SHRASN OVC008 02/ RMK SF8

CYYG;2009-11-06 13:00;CYYG 061300Z 03022G30KT 5SM -SHRASN BKN008 OVC020 02/00 A2979 RMK SF7SC1 SLP092

CYYG;2009-11-06 14:00;CYYG 061400Z 02017G29KT 5SM -SHRASN BKN008 OVC013 03/01 A2976 RMK SF7SC1 SLP081

CYYG;2009-11-06 15:00;CYYG 061500Z 02020G29KT 10SM -SHRA BKN010 OVC017 03/01 A2975 RMK SF6SC2 SLP076

CYYG;2009-11-06 15:35;CYYG 061535Z 02021G29KT 5SM -SHRASN OVC008 03/ RMK SF8

CYYG;2009-11-06 16:00;CYYG 061600Z 02022G32KT 5SM -SHRASN OVC008 03/01 A2973 RMK SF8 SLP069

CYYG;2009-11-06 17:00;CYYG 061700Z 02019G29KT 5SM -SHRASN OVC008 02/M00 A2971 RMK SF8 SLP063

CYYG;2009-11-06 18:00;CYYG 061800Z 02021G34KT 3SM -SHRASN OVC009 02/M00 A2971 RMK SF8 SLP061

CYYG;2009-11-06 19:00;CYYG 061900Z 02023G31KT 2SM -SHRASN BR OVC007 02/M01 A2971 RMK SF8 SLP062

CYYG;2009-11-06 19:35;CYYG 061935Z 01021G29KT 5SM -SHRASN BR BKN007 OVC018 02/ RMK SF6SC2

CYYG;2009-11-06 20:00;CYYG 062000Z 36021G31KT 5SM -SHRASN BR BKN008 OVC016 02/M01 A2972 RMK SF7SC1 SLP067

CYYG;2009-11-06 20:35;CYYG 062035Z 36021G33KT 10SM -SHRASN SCT008 OVC015 02/ RMK SF3SC5 VIS LWR NW-N

CYYG;2009-11-06 20:42;CYYG 062042Z 36021G33KT 2SM -SHRASN SCT008 OVC015 02/ RMK SF3SC5

CYYG;2009-11-06 21:00;CYYG 062100Z 35019G28KT 2SM -SHRASN BR BKN008 OVC015 01/M01 A2975 RMK SF6SC2 SLP075

CYYG;2009-11-06 21:23;CYYG 062123Z 35017G34KT 2SM -SHSN BR BKN008 OVC013 01/ RMK SF6SC2

CYYG;2009-11-06 22:00;CYYG 062200Z 36022G31KT 3SM -SHSN SCT008 OVC019 01/M03 A2977 RMK SF3SC5 SLP082

CYYG;2009-11-06 23:00;CYYG 062300Z 36021G30KT 10SM -SHSN SCT019 OVC033 01/M04 A2979 RMK SC3SC5 SLP088

CYYG;2009-11-07 00:00;CYYG 070000Z 36019G33KT 15SM BKN036 OVC056 02/M05 A2980 RMK SC5SC3 SLP093

CYYG;2009-11-07 00:11;CYYG 070011Z 36021G31KT 15SM -SHSN OVC033 02/ RMK SC8

CYYG;2009-11-07 01:00;CYYG 070100Z 35018G30KT 15SM -SHSN OVC031 02/M05 A2982 RMK SC8 SLP100

CYYG;2009-11-07 01:40;CYYG 070140Z 34014G30KT 15SM OVC032 02/ RMK SC8

CYYG;2009-11-07 02:00;CYYG 070200Z 36018G28KT 15SM OVC036 02/M06 A2983 RMK SC8 SLP104

CYYG;2009-11-07 03:00;CYYG 070300Z 34011G24KT 15SM BKN031 02/M05 A2985 RMK SC7 SLP111

CYYG;2009-11-07 03:11;CYYG 070311Z 34014G25KT 15SM -SHSN BKN030 02/ RMK SC7

CYYG;2009-11-07 04:00;CYYG 070400Z 35015G22KT 15SM -SHSN BKN033 02/M05 A2986 RMK SC7 SLP112

CYYG;2009-11-07 05:00;CYYG 070500Z 35016G26KT 15SM -SHSN OVC035 03/M05 A2987 RMK SC8 SLP118

CYYG;2009-11-07 06:00;CYYG 070600Z 35013G27KT 15SM -SHSN OVC037 02/M06 A2990 RMK SC8 SLP127

CYYG;2009-11-07 07:00;CYYG 070700Z 35015G26KT 15SM OVC042 02/M06 A2992 RMK SC8 SLP133

CYYG;2009-11-07 07:49;CYYG 070749Z 36011G21KT 15SM -SHSN OVC038 02/ RMK SC8

CYYG;2009-11-07 08:00;CYYG 070800Z 36013G21KT 15SM -SHSN OVC038 02/M06 A2994 RMK SC8 SLP141

CYYG;2009-11-07 09:00;CYYG 070900Z 35010G19KT 15SM OVC037 02/M06 A2996 RMK SC8 SLP149

CYYG;2009-11-07 09:08;CYYG 070908Z 35015G21KT 15SM -SHSN OVC037 02/ RMK SC8

CYYG;2009-11-07 10:00;CYYG 071000Z 33008G16KT 15SM -SHSN OVC036 02/M05 A2998 RMK SC8 SLP156

CYYG;2009-11-07 11:00;CYYG 071100Z 31013KT 15SM -SN DRSN OVC035 02/M05 A3002 RMK SC8 SLP167

CYYG;2009-11-07 11:42;CYYG 071142Z 32010G19KT 15SM OVC041 02/ RMK SC8

CYYG;2009-11-07 12:00;CYYG 071200Z 32012G17KT 15SM OVC040 02/M06 A3005 RMK SC8 SLP179

CYYG;2009-11-07 12:48;CYYG 071248Z 33015KT 15SM OVC036 02/ RMK SC8

CYYG;2009-11-07 13:00;CYYG 071300Z 32012G20KT 15SM -SHSN OVC037 02/M06 A3008 RMK SC8 SLP187

CYYG;2009-11-07 13:52;CYYG 071352Z 31013KT 15SM OVC038 02/ RMK SC8

CYYG;2009-11-07 14:00;CYYG 071400Z 31015KT 15SM OVC041 02/M07 A3009 RMK SC8 SLP192

CYYG;2009-11-07 15:00;CYYG 071500Z 32014G19KT 15SM OVC039 02/M07 A3010 RMK SC8 SLP194

CYYG;2009-11-07 16:00;CYYG 071600Z 32012KT 15SM OVC037 02/M06 A3010 RMK SC8 SLP194

CYYG;2009-11-07 17:00;CYYG 071700Z 31014KT 15SM OVC034 01/M07 A3010 RMK SC8 SLP194

CYYG;2009-11-07 18:00;CYYG 071800Z 30010KT 15SM BKN035 01/M07 A3010 RMK SC7 SLP194

CYYG;2009-11-07 19:00;CYYG 071900Z 28013KT 15SM BKN037 02/M07 A3011 RMK SC6 SLP198

CYYG;2009-11-07 20:00;CYYG 072000Z 33006KT 15SM SCT036 00/M08 A3013 RMK SC3 SLP204

CYYG;2009-11-07 21:00;CYYG 072100Z 30005KT 15SM SCT033 00/M07 A3014 RMK SC2 SLP207

CYYG;2009-11-07 22:00;CYYG 072200Z 28002KT 15SM FEW030 M01/M08 A3014 RMK SC1 SLP210

CYYG;2009-11-07 23:00;CYYG 072300Z 23003KT 15SM FEW030 M01/M08 A3016 RMK SC1 SLP214

CYYG;2009-11-08 00:00;CYYG 080000Z 23002KT 15SM SKC M03/M08 A3017 RMK SLP220

CYYG;2009-11-08 01:00;CYYG 080100Z 17003KT 15SM SKC M03/M08 A3017 RMK SLP218

CYYG;2009-11-08 02:00;CYYG 080200Z 14004KT 15SM FEW310 M03/M07 A3016 RMK CI0 FROIN SLP217

CYYG;2009-11-08 03:00;CYYG 080300Z 16003KT 15SM BKN310 M03/M07 A3015 RMK CI1 FROIN SLP211

CYYG;2009-11-08 04:00;CYYG 080400Z 21005KT 15SM BKN310 M01/M06 A3015 RMK CI1 SLP211

CYYG;2009-11-08 05:00;CYYG 080500Z 20008KT 15SM FEW120 BKN310 01/M04 A3013 RMK AC2CI0 SLP205

CYYG;2009-11-08 06:00;CYYG 080600Z 20010KT 15SM BKN072 OVC120 02/M01 A3012 RMK AC6AC2 SLP200

CYYG;2009-11-08 07:00;CYYG 080700Z 20012KT 15SM SCT070 BKN160 03/M01 A3011 RMK AC3AC4 SLP197

CYYG;2009-11-08 08:00;CYYG 080800Z 20012G19KT 15SM OVC081 03/M01 A3008 RMK AC8 SLP189

CYYG;2009-11-08 09:00;CYYG 080900Z 20017KT 15SM OVC085 04/00 A3006 RMK AC8 SLP180

CYYG;2009-11-08 10:00;CYYG 081000Z 20012KT 15SM OVC076 04/01 A3004 RMK AC8 SLP175

CYYG;2009-11-08 10:04;CYYG 081004Z 20014G20KT 15SM -SHRA OVC076 04/ RMK AC8

CYYG;2009-11-08 10:29;CYYG 081029Z 21015G20KT 15SM BKN075 OVC110 04/ RMK AC6AC2

CYYG;2009-11-08 11:00;CYYG 081100Z 20017G22KT 15SM FEW040 BKN078 OVC110 05/01 A3002 RMK SC1AC6AC2 SLP167

CYYG;2009-11-08 12:00;CYYG 081200Z 20014G19KT 15SM FEW025 SCT080 BKN140 OVC250 05/02 A3001 RMK SC1AC2AC2CI2 SLP166

CYYG;2009-11-08 13:00;CYYG 081300Z 21016G21KT 15SM FEW019 SCT080 BKN130 06/03 A3001 RMK SC2AC2AC3 SLP164

CYYG;2009-11-08 13:35;CYYG 081335Z 21018G24KT 15SM -SHRA BKN023 OVC090 07/ RMK SC6AC2

CYYG;2009-11-08 14:00;CYYG 081400Z 21017G24KT 15SM -SHRA OVC021 07/03 A3000 RMK SC8 SLP160

CYYG;2009-11-08 15:00;CYYG 081500Z 22013KT 15SM -SHRA OVC017 07/04 A2999 RMK SC8 SLP157

CYYG;2009-11-08 16:00;CYYG 081600Z 23009G16KT 15SM -SHRA OVC015 07/05 A2997 RMK SC8 SLP150

CYYG;2009-11-08 17:00;CYYG 081700Z 22011G17KT 15SM OVC015 08/06 A2995 RMK SC8 SLP144

CYYG;2009-11-08 18:00;CYYG 081800Z 23009G15KT 15SM BKN016 OVC057 08/06 A2994 RMK SC6SC2 SLP140

CYYG;2009-11-08 19:00;CYYG 081900Z 24008KT 15SM SCT020 BKN049 09/07 A2995 RMK SC3SC4 SLP143

CYYG;2009-11-08 20:00;CYYG 082000Z 25009KT 15SM FEW045 10/07 A2997 RMK SC2 SLP151

CYYG;2009-11-08 21:00;CYYG 082100Z 27004KT 15SM FEW040 FEW300 08/05 A3000 RMK SC1CI1 SLP159

CYYG;2009-11-08 22:00;CYYG 082200Z 26006KT 15SM SKC 08/04 A3001 RMK SLP163

CYYG;2009-11-08 23:00;CYYG 082300Z 25006KT 15SM SKC 07/03 A3002 RMK SLP167

CYYG;2009-11-09 00:00;CYYG 090000Z 25007KT 15SM SKC 06/04 A3004 RMK SLP175

CYYG;2009-11-09 01:00;CYYG 090100Z 24006KT 15SM SKC 06/03 A3006 RMK SLP181

CYYG;2009-11-09 02:00;CYYG 090200Z 25008KT 15SM SKC 06/03 A3007 RMK SLP185

CYYG;2009-11-09 03:00;CYYG 090300Z 28009KT 15SM SKC 08/02 A3009 RMK SLP189

CYYG;2009-11-09 04:00;CYYG 090400Z 28011G16KT 15SM SKC 08/01 A3010 RMK SLP193

CYYG;2009-11-09 05:00;CYYG 090500Z 28010G17KT 15SM SKC 08/00 A3011 RMK SLP197

CYYG;2009-11-09 06:00;CYYG 090600Z 28011G16KT 15SM SKC 07/M01 A3012 RMK SLP200

CYYG;2009-11-09 07:00;CYYG 090700Z 28013G18KT 15SM SKC 08/M01 A3014 RMK SLP208

CYYG;2009-11-09 08:00;CYYG 090800Z 26010KT 15SM SKC 07/M01 A3017 RMK SLP216

CYYG;2009-11-09 09:00;CYYG 090900Z 26006KT 15SM SKC 06/M01 A3018 RMK SLP222

CYYG;2009-11-09 10:00;CYYG 091000Z 27009KT 15SM SKC 06/M01 A3019 RMK SLP225

CYYG;2009-11-09 11:00;CYYG 091100Z 27010KT 15SM SKC 06/M02 A3020 RMK SLP230

CYYG;2009-11-09 12:00;CYYG 091200Z 27014G19KT 15SM FEW220 07/M01 A3022 RMK CI1 SLP236

CYYG;2009-11-09 13:00;CYYG 091300Z 27010G15KT 15SM BKN190 09/M01 A3023 RMK AC5 SLP238

CYYG;2009-11-09 14:00;CYYG 091400Z 28014G19KT 15SM BKN150 10/M01 A3022 RMK AC6 SLP236

CYYG;2009-11-09 15:00;CYYG 091500Z 27012KT 15SM BKN140 11/M01 A3023 RMK AC6 SLP236

CYYG;2009-11-09 16:00;CYYG 091600Z 27011G16KT 15SM BKN110 10/M01 A3022 RMK AC7 SLP234

CYYG;2009-11-09 17:00;CYYG 091700Z 27009KT 15SM BKN120 12/M01 A3020 RMK AC7 SLP229

CYYG;2009-11-09 18:00;CYYG 091800Z 25010KT 15SM BKN130 13/M00 A3019 RMK AC7 SLP225

CYYG;2009-11-09 19:00;CYYG 091900Z 24010KT 15SM BKN140 13/01 A3019 RMK AC6 SLP224

CYYG;2009-11-09 20:00;CYYG 092000Z 26009KT 15SM BKN140 BKN220 12/01 A3019 RMK AC5CI2 SLP223

CYYG;2009-11-09 21:00;CYYG 092100Z 25008KT 15SM BKN140 BKN220 11/01 A3017 RMK AC5CI2 SLP219

CYYG;2009-11-09 22:00;CYYG 092200Z 25008KT 15SM BKN140 BKN220 11/M00 A3016 RMK AC5CI2 SLP215

CYYG;2009-11-09 23:00;CYYG 092300Z 25011KT 15SM FEW080 BKN140 11/M02 A3015 RMK AC2AC4 SLP212

CYYG;2009-11-10 00:00;CYYG 100000Z 23008KT 15SM SCT080 BKN210 10/M01 A3012 RMK AC3CI2 SLP201

CYYG;2009-11-10 02:00;CYYG 100200Z 21008KT 15SM FEW075 BKN210 09/M01 A3006 RMK AC2CI1 SLP179

CYYG;2009-11-10 03:00;CYYG 100300Z 21010KT 15SM FEW075 OVC170 08/02 A3003 RMK AC1AC7 SLP170

CYYG;2009-11-10 04:00;CYYG 100400Z 22006KT 15SM BKN068 OVC170 10/02 A3001 RMK AC6AC2 SLP164

CYYG;2009-11-10 05:00;CYYG 100500Z 21009KT 15SM SCT068 OVC160 10/03 A2998 RMK AC3AC5 SLP152

CYYG;2009-11-10 06:00;CYYG 100600Z 23009KT 15SM BKN070 OVC160 10/06 A2996 RMK AC6AC2 SLP146

CYYG;2009-11-10 07:00;CYYG 100700Z 22009KT 15SM OVC060 11/07 A2996 RMK SC8 SLP145

CYYG;2009-11-10 08:00;CYYG 100800Z 24007KT 15SM OVC052 11/07 A2996 RMK SC8 SLP146

CYYG;2009-11-10 09:00;CYYG 100900Z 25009KT 15SM FEW065 BKN180 11/07 A2996 RMK SC2AC5 SLP147

CYYG;2009-11-10 10:00;CYYG 101000Z 26007KT 15SM SCT070 OVC180 11/07 A2997 RMK AC3AC5 SLP151

CYYG;2009-11-10 11:00;CYYG 101100Z 27008KT 15SM FEW070 BKN180 10/06 A2997 RMK AC1AS5 SLP151

CYYG;2009-11-10 12:00;CYYG 101200Z 27008KT 15SM BKN170 OVC240 11/07 A2998 RMK AC6CI1 SLP154

CYYG;2009-11-10 13:00;CYYG 101300Z 28010G16KT 15SM FEW170 BKN200 13/07 A3000 RMK AC2CI2 SLP161

CYYG;2009-11-10 14:00;CYYG 101400Z 30014G19KT 15SM FEW170 BKN220 14/07 A3001 RMK AC2CI2 SLP164

CYYG;2009-11-10 15:00;CYYG 101500Z 33016G22KT 15SM SCT040 BKN200 13/05 A3004 RMK SC3CI2 SLP174

CYYG;2009-11-10 16:00;CYYG 101600Z 33014G21KT 15SM SCT040 BKN200 11/04 A3004 RMK SC3CI2 SLP175

CYYG;2009-11-10 17:00;CYYG 101700Z 32015KT 15SM FEW035 BKN200 11/03 A3006 RMK SC2CI3 SLP181

CYYG;2009-11-10 18:00;CYYG 101800Z 32016G26KT 15SM FEW035 BKN200 10/02 A3007 RMK SC2CI3 SLP185

CYYG;2009-11-10 19:00;CYYG 101900Z 33011G20KT 15SM FEW030 BKN220 09/03 A3009 RMK SC1CI4 SLP190

CYYG;2009-11-10 20:00;CYYG 102000Z 34008KT 15SM FEW030 FEW220 BKN300 07/03 A3010 RMK SC1CI2CI2 SLP195

CYYG;2009-11-10 21:00;CYYG 102100Z 34006KT 15SM FEW030 FEW220 BKN300 06/02 A3013 RMK SC1CI2CI1 SLP203

CYYG;2009-11-10 22:00;CYYG 102200Z 34005KT 15SM FEW030 BKN300 04/02 A3014 RMK SC1CI2 SLP208

CYYG;2009-11-10 23:00;CYYG 102300Z 31004KT 15SM FEW030 BKN300 04/02 A3016 RMK SC1CI1 SLP213

CYYG;2009-11-11 00:00;CYYG 110000Z 28004KT 15SM FEW030 BKN240 04/02 A3016 RMK SC1CI1 SLP213

CYYG;2009-11-11 01:00;CYYG 110100Z 26006KT 15SM BKN240 04/02 A3017 RMK CI2 SLP216

CYYG;2009-11-11 02:00;CYYG 110200Z 26007KT 15SM BKN240 04/01 A3016 RMK CI2 SLP214

CYYG;2009-11-11 03:00;CYYG 110300Z 27007KT 15SM OVC240 04/01 A3016 RMK CS6 SLP213

CYYG;2009-11-11 04:00;CYYG 110400Z 27005KT 15SM OVC270 04/01 A3016 RMK CS6 SLP215

CYYG;2009-11-11 05:00;CYYG 110500Z 27008KT 15SM BKN270 04/01 A3016 RMK CI2 SLP214

CYYG;2009-11-11 06:00;CYYG 110600Z 28009KT 15SM BKN270 04/01 A3016 RMK CI2 SLP216

CYYG;2009-11-11 07:00;CYYG 110700Z 28007KT 15SM SCT270 04/01 A3018 RMK CS2 SLP221

CYYG;2009-11-11 08:00;CYYG 110800Z 29007KT 15SM SCT270 04/00 A3019 RMK CS2 SLP226

CYYG;2009-11-11 09:00;CYYG 110900Z 30009KT 15SM FEW270 04/00 A3020 RMK CI1 SLP230

CYYG;2009-11-11 10:00;CYYG 111000Z 31005KT 15SM SCT270 04/01 A3022 RMK CI1 SLP236

CYYG;2009-11-11 11:00;CYYG 111100Z 36009KT 15SM BKN020 OVC270 06/02 A3024 RMK SC7CI0 SLP243

CYYG;2009-11-11 12:00;CYYG 111200Z 36011G17KT 15SM SCT020 BKN030 BKN270 06/M00 A3028 RMK SC3SC2CI1 SH DIST SE SLP255

CYYG;2009-11-11 13:00;CYYG 111300Z 36008KT 15SM BKN031 BKN270 06/M01 A3030 RMK SC6CI1 SLP263

CYYG;2009-11-11 14:00;CYYG 111400Z 36011G18KT 15SM SCT030 BKN270 06/M00 A3031 RMK SC3CI1 SLP267

CYYG;2009-11-11 15:00;CYYG 111500Z 35009G15KT 15SM BKN028 07/M01 A3033 RMK SC5 SLP271

CYYG;2009-11-11 16:00;CYYG 111600Z 35011G16KT 15SM SCT030 SCT270 07/M02 A3033 RMK SC3CI1 SLP272

CYYG;2009-11-11 17:00;CYYG 111700Z 36012KT 15SM BKN041 07/M03 A3033 RMK SC6 SH DIST N SLP273

CYYG;2009-11-11 18:00;CYYG 111800Z 01007G15KT 15SM BKN044 06/M00 A3034 RMK SC6 SH DIST N-NW SLP276

CYYG;2009-11-11 19:00;CYYG 111900Z 31011KT 15SM FEW027 SCT038 07/M00 A3034 RMK CU2SC2 SH DIST SE SLP276

CYYG;2009-11-11 20:00;CYYG 112000Z 33006KT 15SM FEW028 FEW040 05/M01 A3035 RMK CU1SC1 SLP280

CYYG;2009-11-11 21:00;CYYG 112100Z 30004KT 15SM FEW040 FEW300 03/M02 A3036 RMK SC1CI0 SLP282

CYYG;2009-11-11 22:00;CYYG 112200Z 28003KT 15SM FEW040 FEW300 02/M03 A3036 RMK SC1CI0 SLP284

CYYG;2009-11-11 23:00;CYYG 112300Z 26005KT 15SM SKC 03/M03 A3037 RMK SLP285

CYYG;2009-11-12 00:00;CYYG 120000Z 25004KT 15SM SKC 02/M04 A3037 RMK SLP285

CYYG;2009-11-12 01:00;CYYG 120100Z 25005KT 15SM SKC 01/M04 A3037 RMK SLP286

CYYG;2009-11-12 02:00;CYYG 120200Z 25005KT 15SM SKC 01/M05 A3037 RMK SLP287

CYYG;2009-11-12 03:00;CYYG 120300Z 25007KT 15SM SKC 02/M02 A3036 RMK SLP284

CYYG;2009-11-12 04:00;CYYG 120400Z 26006KT 15SM SKC 02/M03 A3036 RMK SLP281

CYYG;2009-11-12 05:00;CYYG 120500Z 25006KT 15SM SKC 01/M03 A3035 RMK SLP280

CYYG;2009-11-12 06:00;CYYG 120600Z 27004KT 15SM SKC 01/M03 A3034 RMK SLP277

CYYG;2009-11-12 07:00;CYYG 120700Z 25003KT 15SM SKC 01/M03 A3034 RMK SLP276

CYYG;2009-11-12 08:00;CYYG 120800Z 28004KT 15SM SKC M01/M03 A3033 RMK SLP274

CYYG;2009-11-12 09:00;CYYG 120900Z 25006KT 15SM SKC 00/M02 A3034 RMK SLP277

CYYG;2009-11-12 10:00;CYYG 121000Z 25009KT 15SM SKC 01/M02 A3033 RMK SLP273

CYYG;2009-11-12 11:00;CYYG 121100Z 24008KT 15SM FEW230 00/M02 A3034 RMK CI1 SLP276

CYYG;2009-11-12 12:00;CYYG 121200Z 25008KT 15SM FEW300 01/M02 A3033 RMK CI1 SLP275

CYYG;2009-11-12 13:00;CYYG 121300Z 24007KT 15SM FEW300 03/M00 A3033 RMK CI1 SLP275

CYYG;2009-11-12 14:00;CYYG 121400Z 24008KT 15SM SCT300 04/M00 A3034 RMK CI2 SLP277

CYYG;2009-11-12 15:00;CYYG 121500Z 25009KT 15SM SCT300 06/M01 A3033 RMK CI2 SLP273

CYYG;2009-11-12 16:00;CYYG 121600Z 25010KT 15SM SCT300 08/M02 A3031 RMK CI2 SLP267

CYYG;2009-11-12 17:00;CYYG 121700Z 24009KT 15SM BKN300 09/M01 A3027 RMK CI2 SLP253

CYYG;2009-11-12 18:00;CYYG 121800Z 25009G16KT 15SM BKN300 09/M01 A3027 RMK CI2 SLP253

CYYG;2009-11-12 19:00;CYYG 121900Z 25009G15KT 15SM SCT300 10/M03 A3026 RMK CI2 SLP249

CYYG;2009-11-12 20:00;CYYG 122000Z 24010KT 15SM BKN300 09/M03 A3025 RMK CI2 SLP247

CYYG;2009-11-12 21:00;CYYG 122100Z 23009KT 15SM SCT300 08/M04 A3025 RMK CI2 SLP246

CYYG;2009-11-12 22:00;CYYG 122200Z 24009KT 15SM SCT300 06/M02 A3026 RMK CI2 SLP248

CYYG;2009-11-12 23:00;CYYG 122300Z 27006KT 15SM SCT300 05/00 A3028 RMK CI2 SLP255

CYYG;2009-11-13 00:00;CYYG 130000Z 26007KT 15SM SKC 04/M01 A3028 RMK SLP255

CYYG;2009-11-13 01:00;CYYG 130100Z 25008KT 15SM FEW220 04/M01 A3028 RMK CI2 SLP255

CYYG;2009-11-13 02:00;CYYG 130200Z 27004KT 15SM FEW220 03/M03 A3028 RMK CI2 SLP256

CYYG;2009-11-13 03:00;CYYG 130300Z 27007KT 15SM SKC 03/M03 A3027 RMK SLP252

CYYG;2009-11-13 04:00;CYYG 130400Z 26008KT 15SM SKC 03/M04 A3028 RMK SLP255

CYYG;2009-11-13 05:00;CYYG 130500Z 26007KT 15SM SKC 03/M04 A3027 RMK SLP251

CYYG;2009-11-13 06:00;CYYG 130600Z 24009KT 15SM SKC 01/M04 A3028 RMK SLP257

CYYG;2009-11-13 07:00;CYYG 130700Z 27008KT 15SM SKC 03/M03 A3029 RMK SLP259

CYYG;2009-11-13 08:00;CYYG 130800Z 27007KT 15SM SKC 02/M03 A3028 RMK SLP257

CYYG;2009-11-13 09:00;CYYG 130900Z 30005KT 15SM SKC 01/M03 A3030 RMK SLP262

CYYG;2009-11-13 10:00;CYYG 131000Z 32004KT 15SM SKC 01/M03 A3031 RMK FROIN SLP267

CYYG;2009-11-13 11:00;CYYG 131100Z 32004KT 15SM FEW300 01/M03 A3033 RMK CI1 SLP273

CYYG;2009-11-13 12:00;CYYG 131200Z 34004KT 15SM FEW300 00/M04 A3034 RMK CI1 SLP278

CYYG;2009-11-13 13:00;CYYG 131300Z 00000KT 15SM FEW300 04/M00 A3036 RMK CI1 SLP283

CYYG;2009-11-13 14:00;CYYG 131400Z 03006KT 15SM FEW300 06/01 A3038 RMK CI1 SLP289

CYYG;2009-11-13 15:00;CYYG 131500Z 03006KT 15SM FEW300 08/02 A3038 RMK CI2 SLP290

CYYG;2009-11-13 16:00;CYYG 131600Z 00000KT 15SM SCT300 09/02 A3038 RMK CI2 SLP290

CYYG;2009-11-13 17:00;CYYG 131700Z 11003KT 15SM SCT300 10/02 A3037 RMK CI2 SLP285

CYYG;2009-11-13 18:00;CYYG 131800Z 00000KT 15SM SCT300 10/02 A3036 RMK CI2 SLP283

CYYG;2009-11-13 19:00;CYYG 131900Z 05004KT 15SM SCT300 09/03 A3036 RMK CI2 SLP284

CYYG;2009-11-13 20:00;CYYG 132000Z 02002KT 15SM BKN300 07/01 A3037 RMK CI2 SLP286

CYYG;2009-11-13 21:00;CYYG 132100Z 09002KT 15SM FEW300 04/00 A3038 RMK CI2 SLP291

CYYG;2009-11-13 22:00;CYYG 132200Z 00000KT 15SM FEW300 02/M01 A3041 RMK CI1 SLP301

CYYG;2009-11-13 23:00;CYYG 132300Z 09002KT 15SM FEW300 M00/M03 A3041 RMK CI1 SLP301

CYYG;2009-11-14 00:00;CYYG 140000Z 06002KT 15SM SKC M00/M02 A3041 RMK SLP300

CYYG;2009-11-14 01:00;CYYG 140100Z 13003KT 15SM SKC 02/M01 A3041 RMK SLP301

CYYG;2009-11-14 02:00;CYYG 140200Z 16004KT 15SM SKC 02/00 A3041 RMK SLP302

CYYG;2009-11-14 03:00;CYYG 140300Z 15002KT 15SM SKC 01/M01 A3041 RMK SLP300

CYYG;2009-11-14 04:00;CYYG 140400Z 14003KT 15SM SKC 02/01 A3041 RMK SLP299

CYYG;2009-11-14 05:00;CYYG 140500Z 16003KT 15SM SKC 03/01 A3041 RMK SLP299

CYYG;2009-11-14 06:00;CYYG 140600Z 17003KT 15SM SKC 02/01 A3042 RMK SLP302

CYYG;2009-11-14 07:00;CYYG 140700Z 18002KT 15SM SKC 02/01 A3042 RMK SLP303

CYYG;2009-11-14 08:00;CYYG 140800Z 17002KT 15SM SKC 01/M01 A3041 RMK FROIN SLP301

CYYG;2009-11-14 09:00;CYYG 140900Z 16004KT 15SM R03/2000VP6000FT/U MIFG SKC M00/M02 A3042 RMK SLP305

CYYG;2009-11-14 10:00;CYYG 141000Z 17005KT 15SM MIFG SKC 01/M00 A3042 RMK SLP305

CYYG;2009-11-14 11:00;CYYG 141100Z 17005KT 15SM FEW250 01/M00 A3044 RMK CI0 SLP310

CYYG;2009-11-14 12:00;CYYG 141200Z 16005KT 15SM FEW250 02/01 A3045 RMK CI1 SLP314

CYYG;2009-11-14 13:00;CYYG 141300Z 17006KT 15SM SCT250 04/03 A3045 RMK CI2 SLP314

CYYG;2009-11-14 14:00;CYYG 141400Z 17007KT 15SM SCT250 07/05 A3044 RMK CI2 SLP312

CYYG;2009-11-14 15:00;CYYG 141500Z 16010KT 15SM BKN250 07/03 A3044 RMK CI2 SLP311

CYYG;2009-11-14 16:00;CYYG 141600Z 17010KT 15SM BKN250 08/04 A3042 RMK CI2 SLP302

CYYG;2009-11-14 17:00;CYYG 141700Z 17011KT 15SM BKN250 09/03 A3039 RMK CI2 SLP294

CYYG;2009-11-14 18:00;CYYG 141800Z 16011KT 15SM BKN300 10/02 A3036 RMK CI2 SLP284

CYYG;2009-11-14 19:00;CYYG 141900Z 16007KT 15SM BKN300 09/02 A3035 RMK CI3 SLP278

CYYG;2009-11-14 20:00;CYYG 142000Z 14006KT 15SM SCT210 BKN300 08/01 A3034 RMK CC2CI2 SLP276

CYYG;2009-11-14 21:00;CYYG 142100Z 15005KT 15SM BKN240 07/01 A3036 RMK CI2 SLP281

CYYG;2009-11-14 22:00;CYYG 142200Z 15006KT 15SM SCT230 06/01 A3034 RMK CI2 SLP276

CYYG;2009-11-14 23:00;CYYG 142300Z 17010KT 15SM BKN240 07/01 A3034 RMK CI2 SLP277

CYYG;2009-11-15 00:00;CYYG 150000Z 17009KT 15SM OVC180 07/03 A3034 RMK AC8 SLP275

CYYG;2009-11-15 01:00;CYYG 150100Z 17012KT 15SM OVC180 06/04 A3033 RMK AC8 SLP271

CYYG;2009-11-15 01:36;CYYG 150136Z 17011KT 15SM SCT009 OVC180 07/ RMK SF4AC4

CYYG;2009-11-15 02:00;CYYG 150200Z 17009KT 15SM OVC009 07/04 A3031 RMK SF8 SLP266

CYYG;2009-11-15 03:00;CYYG 150300Z 16006KT 15SM OVC009 07/05 A3030 RMK SF8 SLP261

CYYG;2009-11-15 04:00;CYYG 150400Z 16007KT 15SM FEW009 SCT025 07/06 A3028 RMK SF2SC2 SLP257

CYYG;2009-11-15 05:00;CYYG 150500Z 15007KT 15SM FEW030 OVC210 06/05 A3027 RMK SC2CI6 SLP252

CYYG;2009-11-15 06:00;CYYG 150600Z 14008KT 15SM FEW020 BKN033 OVC160 07/06 A3024 RMK SC2SC3AC3 SLP243

CYYG;2009-11-15 07:00;CYYG 150700Z 13006KT 15SM OVC034 08/07 A3022 RMK SC8 SLP235

CYYG;2009-11-15 08:00;CYYG 150800Z 12005KT 15SM BKN034 OVC150 08/06 A3021 RMK SC5AC3 SLP231

CYYG;2009-11-15 09:00;CYYG 150900Z 12006KT 15SM FEW035 OVC150 08/07 A3019 RMK SC1AC7 SLP225

CYYG;2009-11-15 10:00;CYYG 151000Z 12005KT 15SM BKN150 OVC240 08/06 A3016 RMK AC6CI2 SLP216

CYYG;2009-11-15 11:00;CYYG 151100Z 13005KT 15SM BKN140 OVC240 09/07 A3014 RMK AC6CI2 SLP208

CYYG;2009-11-15 12:00;CYYG 151200Z 14006KT 15SM BKN040 OVC140 09/08 A3012 RMK SC6AC2 SLP202

CYYG;2009-11-15 13:00;CYYG 151300Z 14006KT 12SM OVC030 10/09 A3010 RMK SC8 SLP193

CYYG;2009-11-15 13:36;CYYG 151336Z 15011KT 12SM -SHRA SCT025 OVC035 11/ RMK SC4SC4

CYYG;2009-11-15 14:00;CYYG 151400Z 16012KT 15SM -SHRA SCT020 OVC040 11/10 A3006 RMK SC3SC5 SLP180

CYYG;2009-11-15 14:28;CYYG 151428Z 16013KT 15SM FEW020 OVC040 12/ RMK SC2SC6

CYYG;2009-11-15 15:00;CYYG 151500Z 15012G18KT 15SM OVC013 13/11 A3001 RMK SC8 SLP165

CYYG;2009-11-15 15:38;CYYG 151538Z 16015KT 12SM -SHRA OVC010 13/ RMK SC8

CYYG;2009-11-15 16:00;CYYG 151600Z 16014G20KT 10SM -SHRA OVC012 13/11 A2996 RMK SC8 PRESFR SLP145

CYYG;2009-11-15 17:00;CYYG 151700Z 16014KT 15SM FEW008 OVC014 13/12 A2990 RMK SF1SC8 OCNL -SHRA PRESFR SLP125

CYYG;2009-11-15 18:00;CYYG 151800Z 17015KT 15SM FEW008 OVC014 14/12 A2986 RMK SF1SC7 SLP113

CYYG;2009-11-15 19:00;CYYG 151900Z 18013KT 15SM FEW008 OVC012 13/12 A2984 RMK SF1SC7 SLP107

CYYG;2009-11-15 19:20;CYYG 151920Z 17011KT 2 1/2SM -SHRA BR OVC010 13/ RMK SF8 VIS E-SW 10

CYYG;2009-11-15 19:25;CYYG 151925Z 29018KT 1 1/2SM +SHRA BR FEW004 OVC008 13/ RMK SF2SF6 WSHFT 1922 PRESRR

CYYG;2009-11-15 19:50;CYYG 151950Z 21006KT 2SM +SHRA BR FEW004 SCT008 OVC018 14/ RMK SF2SF2SC5 PRES UNSTDY

CYYG;2009-11-15 20:00;CYYG 152000Z 17008KT 1SM R03/3500VP6000FT/U +SHRA BR FEW004 SCT008 OVC018 14/13 A2984 RMK SF2SF2SC5 PRES UNSTDY /R10/ PST 45 MINS SLP106

CYYG;2009-11-15 20:08;CYYG 152008Z 18010KT 3SM R03/4000VP6000FT/U SHRA BR FEW004 OVC020 14/ RERA RMK SF2SC6

CYYG;2009-11-15 20:45;CYYG 152045Z 17010KT 5SM -SHRA BR SCT002 OVC035 14/ RERA RMK SF3SC5 VIS NE-S 2

CYYG;2009-11-15 21:00;CYYG 152100Z 17009KT 5SM -SHRA BR BKN001 BKN035 OVC100 14/13 A2979 RERA RMK SF2SC4AS1 SLP089

CYYG;2009-11-15 21:24;CYYG 152124Z 17009KT 2SM +RA BR BKN002 OVC035 14/ RMK SF6SC2

CYYG;2009-11-15 21:36;CYYG 152136Z 20009KT 2 1/2SM RA BR SCT002 OVC016 14/ RERA RMK SF3SC5

CYYG;2009-11-15 22:00;CYYG 152200Z 20008KT 2 1/2SM -RA BR BKN003 OVC016 14/14 A2978 RERA RMK SF6SC2 SLP086

CYYG;2009-11-15 22:15;CYYG 152215Z 22006KT 2SM -RA BR OVC002 14/ RMK SF8

CYYG;2009-11-15 22:28;CYYG 152228Z 21007KT 3/4SM R03/4500VP6000FT/D BR VV002 14/ RMK FG8

CYYG;2009-11-15 22:41;CYYG 152241Z 23005KT 1/2SM R03/4000VP6000FT/U FG VV002 14/ RMK FG8

CYYG;2009-11-15 23:00;CYYG 152300Z 20008KT 3/8SM R03/3500FT/N FG VV002 14/13 A2975 RMK FG8 SLP076

CYYG;2009-11-15 23:20;CYYG 152320Z 20009KT 1/2SM R03/P6000FT/N FG VV002 14/ RMK FG8

CYYG;2009-11-15 23:43;CYYG 152343Z 22007KT 1/2SM R03/3000V4500FT/D -DZ FG VV002 14/ RMK FG8

CYYG;2009-11-16 00:00;CYYG 160000Z 22006KT 5/8SM R03/3000V5000FT/U -DZ BR VV002 14/13 A2976 RMK FG8 SLP078

CYYG;2009-11-16 00:54;CYYG 160054Z 25008KT 2SM -DZ BR BKN003 OVC006 14/ RMK SF6SF2

CYYG;2009-11-16 01:00;CYYG 160100Z 25008KT 2SM -DZ BR BKN003 OVC006 15/14 A2974 RMK SF5SF3 SLP073

CYYG;2009-11-16 02:00;CYYG 160200Z 26006KT 3SM -DZ BR BKN003 OVC010 14/14 A2973 RMK SF5SF3 SLP068

CYYG;2009-11-16 03:00;CYYG 160300Z 25005KT 1SM -DZ BR VV002 14/14 A2971 RMK FG8 SLP061

CYYG;2009-11-16 03:13;CYYG 160313Z 26005KT 5/8SM R03/2600V4000FT/U -DZ BR VV002 14/ RMK FG8

CYYG;2009-11-16 03:42;CYYG 160342Z 28007KT 1SM R03/4000VP6000FT/U -DZ BR OVC002 14/ RMK FG3SF5

CYYG;2009-11-16 04:00;CYYG 160400Z 25004KT 1SM R03/P6000FT/D -DZ BR OVC003 14/13 A2971 RMK SF8 SLP060

CYYG;2009-11-16 05:00;CYYG 160500Z 25007KT 1SM R03/2800V4500FT/U -DZ BR OVC002 13/13 A2971 RMK SF8 SLP061

CYYG;2009-11-16 06:00;CYYG 160600Z 26008KT 1SM R03/P6000FT/N -DZ BR OVC002 13/12 A2970 RMK SF8 SLP059

CYYG;2009-11-16 07:00;CYYG 160700Z 27008KT 1SM R03/P6000FT/N -DZ BR OVC002 12/12 A2970 RMK SF8 SLP057

CYYG;2009-11-16 08:00;CYYG 160800Z 27006KT 3SM -DZ BR BKN002 OVC007 12/11 A2969 RMK SF5SF3 SLP054

CYYG;2009-11-16 09:00;CYYG 160900Z 26007KT 6SM -DZ BR SCT002 OVC006 12/11 A2968 RMK SF3SF5 SLP051

CYYG;2009-11-16 10:00;CYYG 161000Z 26005KT 15SM FEW002 BKN006 OVC011 12/11 A2969 RMK SF2SF4SC2 SLP053

CYYG;2009-11-16 11:00;CYYG 161100Z 26009G15KT 15SM OVC007 12/10 A2968 RMK SF8 SLP051

CYYG;2009-11-16 12:00;CYYG 161200Z 28010KT 15SM SCT008 BKN180 11/10 A2966 RMK SF4AC3 SLP046

CYYG;2009-11-16 13:00;CYYG 161300Z 27009KT 15SM SCT007 BKN180 11/10 A2966 RMK SF3AC4 SLP044

CYYG;2009-11-16 14:00;CYYG 161400Z 28007KT 15SM FEW007 BKN150 12/10 A2965 RMK SF2AC5 SLP042

CYYG;2009-11-16 15:00;CYYG 161500Z 27014G19KT 15SM SCT013 BKN180 12/10 A2965 RMK SC3AC3 SLP041

CYYG;2009-11-16 16:00;CYYG 161600Z 29013G19KT 15SM BKN015 BKN180 11/08 A2964 RMK SC5AC2 SLP037

CYYG;2009-11-16 16:43;CYYG 161643Z 28014KT 15SM SCT015 BKN180 11/ RMK SC4AC2

CYYG;2009-11-16 17:00;CYYG 161700Z 29016KT 15SM SCT020 BKN180 12/07 A2964 RMK SC4AC2 SLP037

CYYG;2009-11-16 18:00;CYYG 161800Z 29018G24KT 15SM FEW025 SCT180 BKN250 11/05 A2965 RMK SC2AC2CI2 SLP041

CYYG;2009-11-16 19:00;CYYG 161900Z 31013G25KT 15SM SCT023 BKN250 09/05 A2967 RMK SC4CI2 SLP047

CYYG;2009-11-16 20:00;CYYG 162000Z 30013G19KT 15SM SCT028 BKN250 08/02 A2968 RMK SC4CI2 SLP052

CYYG;2009-11-16 21:00;CYYG 162100Z 29014KT 15SM SCT037 07/M01 A2971 RMK SC4 SLP063

CYYG;2009-11-16 22:00;CYYG 162200Z 29011KT 15SM SCT035 06/M01 A2973 RMK SC3 SLP067

CYYG;2009-11-16 23:00;CYYG 162300Z 30009G15KT 15SM SCT035 05/M02 A2974 RMK SC3 SLP072

CYYG;2009-11-17 00:00;CYYG 170000Z 28011G16KT 15SM FEW035 05/M02 A2974 RMK SC2 SLP072

CYYG;2009-11-17 01:00;CYYG 170100Z 29012G18KT 15SM FEW035 04/M02 A2975 RMK SC2 SLP075

CYYG;2009-11-17 02:00;CYYG 170200Z 29010G15KT 15SM SKC 04/M02 A2976 RMK SLP080

CYYG;2009-11-17 03:00;CYYG 170300Z 29014KT 15SM SCT034 04/M02 A2978 RMK SC3 SLP085

CYYG;2009-11-17 04:00;CYYG 170400Z 29013G18KT 15SM BKN034 05/M01 A2979 RMK SC6 SLP090

CYYG;2009-11-17 05:00;CYYG 170500Z 30007KT 15SM BKN034 05/M01 A2982 RMK SC7 SLP098

CYYG;2009-11-17 06:00;CYYG 170600Z 29010KT 15SM BKN034 04/M01 A2984 RMK SC7 SLP105

CYYG;2009-11-17 07:00;CYYG 170700Z 30010KT 15SM BKN045 04/M02 A2985 RMK SC6 SLP111

CYYG;2009-11-17 08:00;CYYG 170800Z 31012G19KT 15SM BKN042 04/M02 A2987 RMK SC6 SLP116

CYYG;2009-11-17 08:19;CYYG 170819Z 32010G19KT 15SM -SHRA BKN020 OVC040 03/ RMK SC5SC3

CYYG;2009-11-17 09:00;CYYG 170900Z 34010G17KT 15SM -SHRA SCT012 BKN022 OVC044 03/M01 A2991 RMK SC3SC2SC2 SLP130

CYYG;2009-11-17 10:00;CYYG 171000Z 34012G19KT 15SM -SHRA FEW012 OVC032 03/M03 A2994 RMK SC2SC6 SLP140

CYYG;2009-11-17 11:00;CYYG 171100Z 35013G19KT 12SM -SHRA BKN019 OVC036 03/M02 A2998 RMK SC5SC3 SLP153

CYYG;2009-11-17 12:00;CYYG 171200Z 35014G20KT 15SM OVC033 03/M01 A3001 RMK SC7 SHRA ALL QUADS SLP166

CYYG;2009-11-17 12:10;CYYG 171210Z 35016G25KT 15SM -SHRA FEW030 OVC043 03/ RMK SC2SC5

CYYG;2009-11-17 12:45;CYYG 171245Z 35014G24KT 12SM -SHRASN FEW030 OVC047 03/ RMK SC2SC6

CYYG;2009-11-17 13:00;CYYG 171300Z 35014G21KT 15SM -SHRASN FEW030 OVC046 03/M01 A3005 RMK SC2SC6 SLP179

CYYG;2009-11-17 14:00;CYYG 171400Z 35013G19KT 15SM -SHRA FEW025 OVC030 04/M02 A3009 RMK SC2SC6 SLP191

CYYG;2009-11-17 14:35;CYYG 171435Z 35010G20KT 15SM OVC028 04/ RMK SC8 SHRA E-SW

CYYG;2009-11-17 15:00;CYYG 171500Z 35014G21KT 15SM BKN028 OVC040 04/M03 A3012 RMK SC7SC1 SHRA E-SW SLP201

CYYG;2009-11-17 15:30;CYYG 171530Z 36014G20KT 10SM -SHRASN OVC021 03/ RMK SC8

CYYG;2009-11-17 16:00;CYYG 171600Z 35008G19KT 10SM -SHRASN OVC028 03/M02 A3014 RMK SC8 SLP210

CYYG;2009-11-17 16:38;CYYG 171638Z 34010G18KT 15SM OVC029 04/ RMK SC8 SHRA W-S-E

CYYG;2009-11-17 16:51;CYYG 171651Z 35011G16KT 12SM -SHRASN OVC028 04/ RMK SC8

CYYG;2009-11-17 17:00;CYYG 171700Z 36010G15KT 12SM -SHRASN OVC027 03/M03 A3016 RMK SC8 SLP216

CYYG;2009-11-17 18:00;CYYG 171800Z 35012KT 12SM -SHRASN OVC029 04/M03 A3017 RMK SC8 SLP218

CYYG;2009-11-17 18:52;CYYG 171852Z 35013KT 15SM OVC032 03/ RMK SC8

CYYG;2009-11-17 19:00;CYYG 171900Z 35013KT 15SM OVC032 03/M03 A3020 RMK SC7 SLP228

CYYG;2009-11-17 20:00;CYYG 172000Z 35009G15KT 15SM BKN031 03/M03 A3022 RMK SC7 SLP235

CYYG;2009-11-17 21:00;CYYG 172100Z 34008KT 15SM BKN033 03/M03 A3024 RMK SC7 SLP242

CYYG;2009-11-17 22:00;CYYG 172200Z 34006KT 15SM BKN033 03/M04 A3026 RMK SC7 SLP250

CYYG;2009-11-17 23:00;CYYG 172300Z 34005KT 15SM BKN033 03/M03 A3028 RMK SC7 SLP254

CYYG;2009-11-18 00:00;CYYG 180000Z 34003KT 15SM FEW035 02/M04 A3030 RMK SC2 SLP262

CYYG;2009-11-18 01:00;CYYG 180100Z 28003KT 15SM BKN031 01/M04 A3031 RMK SC4 SLP266

CYYG;2009-11-18 02:00;CYYG 180200Z 30003KT 15SM BKN027 00/M03 A3033 RMK SC6 SLP272

CYYG;2009-11-18 03:00;CYYG 180300Z 30003KT 15SM BKN026 01/M03 A3033 RMK SC7 SLP271

CYYG;2009-11-18 04:00;CYYG 180400Z 31003KT 15SM SCT025 00/M03 A3033 RMK SC2 SLP271

CYYG;2009-11-18 05:00;CYYG 180500Z 29002KT 15SM SCT025 M01/M04 A3033 RMK SC2 SLP273

CYYG;2009-11-18 06:00;CYYG 180600Z 28002KT 15SM FEW023 M01/M04 A3033 RMK SC2 SLP275

CYYG;2009-11-18 07:00;CYYG 180700Z 27003KT 15SM FEW022 M01/M04 A3034 RMK SC2 SLP276

CYYG;2009-11-18 08:00;CYYG 180800Z 26004KT 15SM FEW020 M00/M04 A3034 RMK SC2 SLP277

CYYG;2009-11-18 09:00;CYYG 180900Z 24005KT 15SM FEW020 M01/M04 A3034 RMK SC1 SLP277

CYYG;2009-11-18 10:00;CYYG 181000Z 25005KT 15SM SKC M01/M04 A3033 RMK SLP273

CYYG;2009-11-18 11:00;CYYG 181100Z 25008KT 15SM FEW020 FEW300 M02/M04 A3033 RMK SC1CI1 FROIN SLP274

CYYG;2009-11-18 12:00;CYYG 181200Z 27007KT 15SM FEW020 FEW300 M01/M03 A3033 RMK SC1CI1 SC TR FROIN SLP275

CYYG;2009-11-18 13:00;CYYG 181300Z 25007KT 15SM FEW120 SCT300 01/M03 A3033 RMK AC1CI2 AC TR SLP272

CYYG;2009-11-18 14:00;CYYG 181400Z 25009KT 15SM FEW240 BKN300 03/M02 A3031 RMK CC1CI2 SLP266

CYYG;2009-11-18 15:00;CYYG 181500Z 26010KT 15SM BKN300 05/M03 A3029 RMK CI2 SLP260

CYYG;2009-11-18 16:00;CYYG 181600Z 26011G17KT 15SM BKN270 07/M02 A3026 RMK CI3 SLP250

CYYG;2009-11-18 17:00;CYYG 181700Z 25013G21KT 15SM BKN230 08/M02 A3023 RMK CI3 CC ASOCTD SLP240

CYYG;2009-11-18 18:00;CYYG 181800Z 25012KT 15SM BKN230 08/M01 A3020 RMK CI3 SLP230

CYYG;2009-11-18 19:00;CYYG 181900Z 25012KT 15SM SCT230 08/M00 A3019 RMK CI2 SLP224

CYYG;2009-11-18 20:00;CYYG 182000Z 25011G16KT 15SM FEW230 08/00 A3017 RMK CI2 SLP218

CYYG;2009-11-18 21:00;CYYG 182100Z 25012G18KT 15SM FEW230 07/00 A3016 RMK CI2 SLP216

CYYG;2009-11-18 22:00;CYYG 182200Z 26012G17KT 15SM FEW230 06/01 A3016 RMK CI2 SLP214

CYYG;2009-11-18 23:00;CYYG 182300Z 26010G15KT 15SM FEW230 06/01 A3015 RMK CI2 SLP213

CYYG;2009-11-19 00:00;CYYG 190000Z 26013KT 15SM FEW250 07/M02 A3015 RMK CI2 SLP213

CYYG;2009-11-19 01:00;CYYG 190100Z 27012G19KT 15SM FEW250 06/M02 A3014 RMK CI2 SLP210

CYYG;2009-11-19 02:00;CYYG 190200Z 27015G20KT 15SM SKC 07/M03 A3014 RMK SLP207

CYYG;2009-11-19 03:00;CYYG 190300Z 28012KT 15SM SKC 07/M03 A3014 RMK SLP207

CYYG;2009-11-19 04:00;CYYG 190400Z 28011G16KT 15SM SKC 07/M03 A3014 RMK SLP208

CYYG;2009-11-19 05:00;CYYG 190500Z 28013KT 15SM SKC 07/M04 A3014 RMK SLP210

CYYG;2009-11-19 06:00;CYYG 190600Z 29015KT 15SM SKC 07/M04 A3015 RMK SLP211

CYYG;2009-11-19 07:00;CYYG 190700Z 29012KT 15SM SKC 07/M04 A3015 RMK SLP211

CYYG;2009-11-19 08:00;CYYG 190800Z 29013KT 15SM SKC 06/M04 A3015 RMK SLP211

CYYG;2009-11-19 09:00;CYYG 190900Z 29008KT 15SM FEW200 05/M05 A3017 RMK CI2 SLP217

CYYG;2009-11-19 10:00;CYYG 191000Z 29011KT 15SM SKC 06/M05 A3018 RMK SLP223

CYYG;2009-11-19 11:00;CYYG 191100Z 31009KT 15SM SKC 05/M05 A3020 RMK SLP227

CYYG;2009-11-19 12:00;CYYG 191200Z 31007KT 15SM SKC 05/M04 A3023 RMK SLP238

CYYG;2009-11-19 13:00;CYYG 191300Z 27006KT 15SM SKC 06/M03 A3025 RMK SLP245

CYYG;2009-11-19 14:00;CYYG 191400Z 29008KT 15SM SKC 08/M03 A3026 RMK SLP248

CYYG;2009-11-19 15:00;CYYG 191500Z 31008KT 15SM SKC 09/M03 A3026 RMK SLP249

CYYG;2009-11-19 16:00;CYYG 191600Z 33005KT 15SM SKC 10/M04 A3025 RMK SLP244

CYYG;2009-11-19 17:00;CYYG 191700Z 36008KT 15SM SKC 10/M05 A3024 RMK SLP241

CYYG;2009-11-19 18:00;CYYG 191800Z 36004KT 15SM SKC 09/M04 A3025 RMK SLP245

CYYG;2009-11-19 19:00;CYYG 191900Z 02006KT 15SM SKC 09/M03 A3025 RMK SLP245

CYYG;2009-11-19 20:00;CYYG 192000Z 00000KT 15SM SKC 08/M03 A3025 RMK CONTRAILS SLP246

CYYG;2009-11-19 21:00;CYYG 192100Z 00000KT 15SM SKC 05/M02 A3026 RMK SLP250

CYYG;2009-11-19 21:33;CYYG 192133Z 05002KT 15SM SKC 02/

CYYG;2009-11-19 22:00;CYYG 192200Z 07003KT 15SM SKC 01/M03 A3026 RMK SLP250

CYYG;2009-11-19 23:00;CYYG 192300Z 09003KT 15SM SKC 02/M04 A3025 RMK SLP245

CYYG;2009-11-20 00:00;CYYG 200000Z 13006KT 15SM SKC 03/M02 A3025 RMK SLP247

CYYG;2009-11-20 01:00;CYYG 200100Z 13005KT 15SM SKC 02/M02 A3025 RMK SLP247

CYYG;2009-11-20 02:00;CYYG 200200Z 16006KT 15SM SKC 01/M02 A3026 RMK SLP249

CYYG;2009-11-20 03:00;CYYG 200300Z 15006KT 15SM SKC 02/M00 A3025 RMK SLP244

CYYG;2009-11-20 04:00;CYYG 200400Z 18006KT 15SM SKC 01/M01 A3024 RMK SLP243

CYYG;2009-11-20 05:00;CYYG 200500Z 15006KT 15SM SKC 02/M01 A3022 RMK SLP236

CYYG;2009-11-20 06:00;CYYG 200600Z 15006KT 15SM SKC 02/M01 A3022 RMK SLP235

CYYG;2009-11-20 07:00;CYYG 200700Z 17006KT 15SM SKC 01/M01 A3021 RMK SLP231

CYYG;2009-11-20 08:00;CYYG 200800Z 21007KT 15SM SKC 03/01 A3019 RMK SLP226

CYYG;2009-11-20 09:00;CYYG 200900Z CCA 20007KT 15SM SKC 02/M00 A3017 RMK FROIN SLP220

CYYG;2009-11-20 10:00;CYYG 201000Z 22008KT 15SM SKC 03/00 A3016 RMK SLP214

CYYG;2009-11-20 11:00;CYYG 201100Z 24006KT 15SM BKN300 02/M01 A3016 RMK CI4 SLP214

CYYG;2009-11-20 11:39;CYYG 201139Z 24005KT 15SM FEW007 FEW120 BKN300 03/ RMK SF2AC1CI2

CYYG;2009-11-20 12:00;CYYG 201200Z 23006KT 15SM BKN006 OVC300 03/01 A3016 RMK SF7CI1 SLP214

CYYG;2009-11-20 12:25;CYYG 201225Z 22008KT 15SM FEW006 SCT300 05/ RMK SF2CI2

CYYG;2009-11-20 13:00;CYYG 201300Z 23005KT 15SM FEW006 FEW300 05/04 A3014 RMK SF2CI0 SLP208

CYYG;2009-11-20 14:00;CYYG 201400Z 22011KT 15SM FEW003 FEW170 07/04 A3012 RMK SF2AC1 SLP202

CYYG;2009-11-20 14:10;CYYG 201410Z 22010KT 15SM BKN003 07/ RMK SF6

CYYG;2009-11-20 14:25;CYYG 201425Z 22008KT 2SM BR OVC003 06/ RMK SF8

CYYG;2009-11-20 15:00;CYYG 201500Z 22006KT 1SM R03/P6000FT/D BR OVC002 07/06 A3011 RMK FG2SF6 SLP198

CYYG;2009-11-20 15:09;CYYG 201509Z 23006KT 5/8SM R03/4000VP6000FT/D BR VV002 07/ RMK FG8

CYYG;2009-11-20 15:25;CYYG 201525Z 22006KT 1 1/2SM BR OVC002 07/ RMK SF8

CYYG;2009-11-20 16:00;CYYG 201600Z 21006KT 2SM BR OVC003 08/07 A3008 RMK SF8 SLP187

CYYG;2009-11-20 16:10;CYYG 201610Z 20009KT 10SM SCT003 BKN040 BKN150 09/ RMK SF3SC3AC1

CYYG;2009-11-20 17:00;CYYG 201700Z 20007KT 15SM FEW006 SCT038 BKN150 09/07 A3005 RMK SF1SC3AC2 SLP177

CYYG;2009-11-20 18:00;CYYG 201800Z 18009KT 15SM FEW038 FEW150 10/07 A3002 RMK SC1AC2 SLP166

CYYG;2009-11-20 19:00;CYYG 201900Z 18011KT 15SM FEW038 FEW150 BKN300 11/07 A2999 RMK SC1AC1CI1 SLP158

CYYG;2009-11-20 20:00;CYYG 202000Z 17009KT 15SM FEW068 BKN300 10/07 A2997 RMK AC2CI2 SLP151

CYYG;2009-11-20 21:00;CYYG 202100Z 18009KT 15SM BKN060 BKN080 10/07 A2995 RMK SC6AC1 SLP144

CYYG;2009-11-20 22:00;CYYG 202200Z 17012KT 15SM OVC055 11/07 A2992 RMK SC8 SLP133

CYYG;2009-11-20 22:46;CYYG 202246Z 17012KT 12SM -SHRA SCT020 OVC045 11/ RMK SC3SC5

CYYG;2009-11-20 23:00;CYYG 202300Z 16012KT 10SM -SHRA FEW020 OVC042 10/07 A2987 RMK SC2SC6 SLP115

CYYG;2009-11-21 00:00;CYYG 210000Z 16010KT 8SM -SHRA SCT020 OVC040 09/07 A2982 RMK SC3SC5 SLP100

CYYG;2009-11-21 01:00;CYYG 210100Z 16012KT 8SM -SHRA SCT020 OVC030 09/07 A2977 RMK SC4SC4 SLP084

CYYG;2009-11-21 01:24;CYYG 210124Z 16015KT 6SM RA BR SCT020 OVC035 09/ RMK SC4SC4

CYYG;2009-11-21 02:00;CYYG 210200Z 16016G21KT 6SM RA BR SCT020 OVC038 09/08 A2970 RMK SC4SC4 RERA PRESFR SLP059

CYYG;2009-11-21 02:21;CYYG 210221Z 16017KT 6SM -RA BR BKN011 OVC020 09/ RMK SC6SC2

CYYG;2009-11-21 03:00;CYYG 210300Z 17016KT 6SM -RA BR SCT003 OVC011 10/09 A2964 RMK SF3SC5 SLP039

CYYG;2009-11-21 03:18;CYYG 210318Z 18016KT 6SM RA BR OVC003 11/ RMK SF8

CYYG;2009-11-21 04:00;CYYG 210400Z 14013KT 6SM -RA BR OVC002 11/10 A2961 RMK SF8 RERA SLP027

CYYG;2009-11-21 05:00;CYYG 210500Z 21011KT 10SM -RA BKN005 OVC020 12/11 A2959 RMK SF5SC3 RERA SLP021

CYYG;2009-11-21 05:28;CYYG 210528Z 22015G21KT 15SM FEW005 BKN022 12/ RMK SF2SC4

CYYG;2009-11-21 06:00;CYYG 210600Z 25015G21KT 15SM FEW009 BKN022 11/09 A2960 RMK SF2SC4 SLP024

CYYG;2009-11-21 07:00;CYYG 210700Z 26013G21KT 15SM SCT025 08/05 A2962 RMK SC3 SLP031

CYYG;2009-11-21 08:00;CYYG 210800Z 25010G18KT 15SM FEW025 07/04 A2963 RMK SC2 SLP033

CYYG;2009-11-21 09:00;CYYG 210900Z 23011G18KT 15SM FEW025 07/04 A2960 RMK SC2 SLP023

CYYG;2009-11-21 10:00;CYYG 211000Z 24013G20KT 15SM FEW020 07/04 A2960 RMK SC2 SLP023

CYYG;2009-11-21 11:00;CYYG 211100Z 24011G19KT 15SM SCT028 07/04 A2961 RMK SC3 SLP028

CYYG;2009-11-21 12:00;CYYG 211200Z 25013G21KT 15SM BKN025 07/03 A2963 RMK SC6 SLP035

CYYG;2009-11-21 13:00;CYYG 211300Z 25014G24KT 15SM OVC023 07/03 A2965 RMK SC8 SLP041

CYYG;2009-11-21 14:00;CYYG 211400Z 26012G19KT 15SM BKN025 08/04 A2966 RMK SC7 SLP044

CYYG;2009-11-21 15:00;CYYG 211500Z 27014G22KT 15SM BKN026 09/05 A2968 RMK SC6 SLP050

CYYG;2009-11-21 16:00;CYYG 211600Z 27016G22KT 15SM OVC025 09/04 A2969 RMK SC8 SLP053

CYYG;2009-11-21 17:00;CYYG 211700Z 28015G21KT 15SM OVC025 09/04 A2971 RMK SC8 SLP060

CYYG;2009-11-21 18:00;CYYG 211800Z 28011KT 15SM OVC024 09/04 A2974 RMK SC8 SLP070

CYYG;2009-11-21 19:00;CYYG 211900Z 27008KT 15SM OVC025 09/04 A2977 RMK SC8 SLP080

CYYG;2009-11-21 20:00;CYYG 212000Z 28007KT 15SM OVC028 09/04 A2979 RMK SC8 SLP088

CYYG;2009-11-21 21:00;CYYG 212100Z 29007KT 15SM OVC032 09/04 A2981 RMK SC8 SLP097

CYYG;2009-11-21 22:00;CYYG 212200Z 30008KT 15SM OVC032 09/04 A2985 RMK SC8 SLP108

CYYG;2009-11-21 23:00;CYYG 212300Z 31009KT 15SM OVC030 09/03 A2988 RMK SC8 SLP119

CYYG;2009-11-22 00:00;CYYG 220000Z 32009KT 15SM OVC030 08/03 A2992 RMK SC8 SLP132

CYYG;2009-11-22 01:00;CYYG 220100Z 32008KT 15SM OVC028 08/03 A2993 RMK SC8 SLP137

CYYG;2009-11-22 02:00;CYYG 220200Z 32009KT 15SM OVC028 07/02 A2995 RMK SC8 SLP144

CYYG;2009-11-22 03:00;CYYG 220300Z 32008KT 15SM OVC031 07/01 A2997 RMK SC8 SLP149

CYYG;2009-11-22 04:00;CYYG 220400Z 32005KT 15SM OVC038 06/00 A2999 RMK SC8 SLP157

CYYG;2009-11-22 05:00;CYYG 220500Z 31008KT 15SM OVC038 06/00 A3001 RMK SC8 SLP162

CYYG;2009-11-22 06:00;CYYG 220600Z 34005KT 15SM BKN038 05/M00 A3003 RMK SC7 SLP171

CYYG;2009-11-22 07:00;CYYG 220700Z 32010G15KT 15SM OVC040 06/01 A3006 RMK SC8 SLP181

CYYG;2009-11-22 08:00;CYYG 220800Z 33008KT 15SM OVC045 05/00 A3009 RMK SC8 SLP189

CYYG;2009-11-22 09:00;CYYG 220900Z 33009KT 15SM OVC045 05/00 A3012 RMK SC8 SLP200

CYYG;2009-11-22 10:00;CYYG 221000Z 33007KT 15SM SCT022 BKN048 05/00 A3014 RMK SC3SC4 SLP210

CYYG;2009-11-22 11:00;CYYG 221100Z 34007KT 15SM FEW022 BKN037 05/M00 A3018 RMK SC2SC5 SLP223

CYYG;2009-11-22 12:00;CYYG 221200Z 36009KT 15SM BKN031 OVC120 05/M01 A3023 RMK SC6AC2 SLP237

CYYG;2009-11-22 13:00;CYYG 221300Z 36011KT 15SM BKN033 BKN120 05/M01 A3026 RMK SC6AC2 SLP248

CYYG;2009-11-22 14:00;CYYG 221400Z 36010KT 15SM BKN037 BKN120 05/M02 A3029 RMK SC6AC1 SLP260

CYYG;2009-11-22 14:47;CYYG 221447Z 35014KT 15SM -SHRA BKN042 BKN120 04/ RMK CU6AC1

CYYG;2009-11-22 15:00;CYYG 221500Z CCA 35009KT 15SM -SHRA FEW021 BKN040 04/M00 A3033 RMK CF1CU6 SLP271

CYYG;2009-11-22 15:18;CYYG 221518Z 01011KT 15SM FEW026 BKN040 05/ RMK CF2CU6 SHRA N-W-SE

CYYG;2009-11-22 16:00;CYYG 221600Z 36011G17KT 15SM FEW030 BKN041 BKN120 05/M02 A3033 RMK CF1CU6AC1 SHRA ALL QUADS SLP274

CYYG;2009-11-22 16:14;CYYG 221614Z 36014G19KT 15SM -SHRA FEW027 BKN042 BKN120 04/ RMK CF2CU5AC1

CYYG;2009-11-22 16:40;CYYG 221640Z 01014KT 15SM FEW027 BKN039 BKN120 04/ RMK CF1CU5AC2 SHRA W-S

CYYG;2009-11-22 17:00;CYYG 221700Z 36013G18KT 15SM FEW027 BKN039 BKN120 04/M03 A3036 RMK CF1CU5AC1 SHRA W-S SLP281

CYYG;2009-11-22 18:00;CYYG 221800Z 01010G17KT 15SM FEW027 SCT040 04/M04 A3037 RMK CF1SC2 SLP286

CYYG;2009-11-22 19:00;CYYG 221900Z 01011KT 15SM FEW030 FEW040 04/M04 A3040 RMK CF1SC2 SLP296

CYYG;2009-11-22 20:00;CYYG 222000Z 01007KT 15SM FEW040 02/M05 A3044 RMK SC2 SLP308

CYYG;2009-11-22 21:00;CYYG 222100Z 01009G15KT 15SM FEW030 02/M05 A3046 RMK SC2 SLP316

CYYG;2009-11-22 22:00;CYYG 222200Z 02007KT 15SM BKN029 01/M05 A3049 RMK SC6 SLP326

CYYG;2009-11-22 23:00;CYYG 222300Z 02008KT 15SM SCT030 01/M05 A3051 RMK SC4 SLP334

CYYG;2009-11-23 00:00;CYYG 230000Z 03006KT 15SM FEW030 M01/M05 A3053 RMK SC2 SLP341

CYYG;2009-11-23 01:00;CYYG 230100Z 04002KT 15SM FEW030 M01/M05 A3054 RMK SC2 SLP345

CYYG;2009-11-23 02:00;CYYG 230200Z 00000KT 15SM FEW030 M03/M06 A3055 RMK SC1 SLP348

CYYG;2009-11-23 03:00;CYYG 230300Z 00000KT 15SM FEW030 M03/M06 A3057 RMK SC1 SLP353

CYYG;2009-11-23 04:00;CYYG 230400Z 00000KT 15SM SKC M03/M06 A3058 RMK SLP358

CYYG;2009-11-23 05:00;CYYG 230500Z 00000KT 15SM SKC M03/M06 A3058 RMK FROIN SLP359

CYYG;2009-11-23 06:00;CYYG 230600Z CCA 28003KT 15SM SKC M04/M06 A3059 RMK FROIN SLP362

CYYG;2009-11-23 07:00;CYYG 230700Z 24003KT 15SM SKC M03/M06 A3059 RMK FROIN SLP362

CYYG;2009-11-23 08:00;CYYG 230800Z 28002KT 15SM SKC M05/M07 A3061 RMK FROIN SLP367

CYYG;2009-11-23 09:00;CYYG 230900Z 27003KT 15SM SKC M06/M08 A3062 RMK SLP373

CYYG;2009-11-23 10:00;CYYG 231000Z 26002KT 15SM SKC M05/M07 A3062 RMK FROIN SLP373

CYYG;2009-11-23 11:00;CYYG 231100Z 00000KT 15SM SKC M06/M08 A3065 RMK FROIN SLP381

CYYG;2009-11-23 12:00;CYYG 231200Z 00000KT 15SM FEW030 M04/M07 A3067 RMK SC1 SLP388

CYYG;2009-11-23 13:00;CYYG 231300Z 00000KT 15SM FEW030 M01/M03 A3066 RMK SC1 SLP387

CYYG;2009-11-23 14:00;CYYG 231400Z 18002KT 15SM BKN020 02/M01 A3067 RMK SC6 SLP390

CYYG;2009-11-23 15:00;CYYG 231500Z 23005KT 15SM BKN019 03/M01 A3067 RMK SC6 SLP390

CYYG;2009-11-23 16:00;CYYG 231600Z 23003KT 15SM SCT019 04/M01 A3064 RMK SC2 SLP379

CYYG;2009-11-23 17:00;CYYG 231700Z 19006KT 15SM FEW025 04/M02 A3061 RMK SC1 SLP369

CYYG;2009-11-23 18:00;CYYG 231800Z 20006KT 15SM FEW025 04/M02 A3060 RMK SC1 SLP364

CYYG;2009-11-23 19:00;CYYG 231900Z 28008KT 15SM FEW025 04/M02 A3059 RMK SC1 SLP362

CYYG;2009-11-23 20:00;CYYG 232000Z 20005KT 15SM FEW300 03/M03 A3058 RMK CI1 SLP357

CYYG;2009-11-23 21:00;CYYG 232100Z 20005KT 15SM FEW300 01/M03 A3058 RMK CI1 SLP360

CYYG;2009-11-23 22:00;CYYG 232200Z 20005KT 15SM FEW300 01/M03 A3058 RMK CI1 SLP359

CYYG;2009-11-23 23:00;CYYG 232300Z 18003KT 15SM FEW300 00/M03 A3058 RMK CI1 SLP357

CYYG;2009-11-24 00:00;CYYG 240000Z 21005KT 15SM SKC 01/M02 A3057 RMK SLP353

CYYG;2009-11-24 01:00;CYYG 240100Z 21005KT 15SM SKC 01/M02 A3056 RMK SLP350

CYYG;2009-11-24 02:00;CYYG 240200Z 22004KT 15SM FEW020 01/M02 A3055 RMK SC2 SLP349

CYYG;2009-11-24 03:00;CYYG 240300Z 21006KT 15SM BKN020 02/M01 A3053 RMK SC6 SLP341

CYYG;2009-11-24 04:00;CYYG 240400Z 21005KT 15SM BKN020 02/M01 A3052 RMK SC5 SLP337

CYYG;2009-11-24 05:00;CYYG 240500Z 23003KT 15SM BKN022 02/M01 A3050 RMK SC6 FROIN SLP332

CYYG;2009-11-24 06:00;CYYG 240600Z 23003KT 15SM BKN020 03/M00 A3049 RMK SC6 SLP328

CYYG;2009-11-24 07:00;CYYG 240700Z 18004KT 15SM BKN019 03/M00 A3048 RMK SC7 SLP324

CYYG;2009-11-24 08:00;CYYG 240800Z 20003KT 15SM OVC020 02/M00 A3048 RMK SC8 SLP324

CYYG;2009-11-24 09:00;CYYG 240900Z 18002KT 15SM BKN022 02/M00 A3047 RMK SC7 SLP320

CYYG;2009-11-24 10:00;CYYG 241000Z 11002KT 15SM BKN020 02/M00 A3045 RMK SC7 SLP314

CYYG;2009-11-24 11:00;CYYG 241100Z 14003KT 15SM SCT020 BKN140 02/M01 A3044 RMK SC3AC2 SLP312

CYYG;2009-11-24 12:00;CYYG 241200Z 17007KT 15SM FEW020 BKN130 OVC220 03/01 A3044 RMK SC2AC3CI2 SLP311

CYYG;2009-11-24 13:00;CYYG 241300Z 17006KT 15SM SCT028 BKN120 OVC200 04/02 A3044 RMK SC3AC2CI2 SLP311

CYYG;2009-11-24 14:00;CYYG 241400Z 17005KT 15SM BKN029 OVC120 05/02 A3044 RMK SC6AC2 SLP310

CYYG;2009-11-24 15:00;CYYG 241500Z 20002KT 15SM OVC020 06/03 A3042 RMK SC8 SLP303

CYYG;2009-11-24 16:00;CYYG 241600Z 16003KT 15SM OVC019 06/03 A3039 RMK SC8 SLP292

CYYG;2009-11-24 17:00;CYYG 241700Z 00000KT 15SM OVC020 06/03 A3037 RMK SC8 SLP287

CYYG;2009-11-24 18:00;CYYG 241800Z 14004KT 15SM FEW018 BKN039 OVC250 07/04 A3035 RMK SC2SC5CI1 SLP279

CYYG;2009-11-24 19:00;CYYG 241900Z 13003KT 15SM BKN016 BKN180 07/04 A3034 RMK SC6AC2 SLP275

CYYG;2009-11-24 20:00;CYYG 242000Z 15002KT 15SM BKN014 07/04 A3033 RMK SC7 SLP271

CYYG;2009-11-24 21:00;CYYG 242100Z 08003KT 15SM OVC012 07/04 A3032 RMK SC8 SLP268

CYYG;2009-11-24 22:00;CYYG 242200Z 10005KT 15SM BKN017 OVC027 07/04 A3031 RMK SC5SC3 SLP266

CYYG;2009-11-24 22:41;CYYG 242241Z 10003KT 15SM -SHRA BKN020 OVC034 06/ RMK SC5SC3

CYYG;2009-11-24 23:00;CYYG 242300Z 10003KT 15SM -SHRA BKN022 OVC034 06/04 A3030 RMK SC5SC3 SLP262

CYYG;2009-11-25 00:00;CYYG 250000Z 07004KT 12SM -SHRA FEW022 BKN040 OVC060 06/04 A3030 RMK SC2SC3SC3 SLP262

CYYG;2009-11-25 01:00;CYYG 250100Z 01003KT 15SM -SHRA FEW040 OVC060 06/04 A3029 RMK SC2SC6 PCPN VRY LGT SLP259

CYYG;2009-11-25 02:00;CYYG 250200Z 05003KT 15SM -SHRA FEW040 OVC060 06/05 A3028 RMK SC2SC6 PCPN VRY LGT SLP256

CYYG;2009-11-25 03:00;CYYG 250300Z 05003KT 15SM -SHRA FEW040 OVC070 06/05 A3027 RMK SC2SC6 PCPN VRY LGT SLP252

CYYG;2009-11-25 04:00;CYYG 250400Z 03004KT 15SM -SHRA FEW040 OVC070 06/05 A3025 RMK SC1AC7 SLP247

CYYG;2009-11-25 05:00;CYYG 250500Z 07004KT 15SM -SHRA OVC070 06/05 A3023 RMK AC8 SLP237

CYYG;2009-11-25 06:00;CYYG 250600Z 04003KT 15SM -SHRA OVC063 06/05 A3023 RMK SC8 SLP238

CYYG;2009-11-25 07:00;CYYG 250700Z 09004KT 15SM SCT070 OVC100 07/06 A3021 RMK AC3AC5 SLP231

CYYG;2009-11-25 08:00;CYYG 250800Z 04004KT 15SM OVC100 05/05 A3020 RMK AC8 SLP230

CYYG;2009-11-25 08:26;CYYG 250826Z 07004KT 8SM -DZ FEW050 OVC120 06/ RMK SC2AC6

CYYG;2009-11-25 09:00;CYYG 250900Z 07004KT 6SM BR BKN003 OVC050 07/06 A3020 RMK SF5SC3 SLP228

CYYG;2009-11-25 09:40;CYYG 250940Z 07005KT 2SM BR OVC002 07/ RMK SF8

CYYG;2009-11-25 10:00;CYYG 251000Z 08005KT 2SM BR OVC002 07/06 A3020 RMK SF8 SLP227

CYYG;2009-11-25 10:44;CYYG 251044Z 07006KT 3SM BR OVC003 07/ RMK SF8

CYYG;2009-11-25 11:00;CYYG 251100Z 08005KT 4SM BR OVC003 07/06 A3019 RMK SF8 SLP226

CYYG;2009-11-25 12:00;CYYG 251200Z 07005KT 8SM OVC005 07/07 A3020 RMK SF8 SLP227

CYYG;2009-11-25 12:16;CYYG 251216Z 07005KT 15SM SCT005 BKN110 07/ RMK SF4AC3

CYYG;2009-11-25 12:48;CYYG 251248Z 07006KT 15SM BKN006 BKN110 08/ RMK SF5AC2

CYYG;2009-11-25 13:00;CYYG 251300Z 06006KT 15SM BKN007 BKN110 08/07 A3019 RMK SF5AC2 SLP224

CYYG;2009-11-25 13:38;CYYG 251338Z 06006KT 15SM SCT007 BKN040 BKN110 09/ RMK SF3SC2AC2

CYYG;2009-11-25 14:00;CYYG 251400Z 06007KT 15SM FEW007 BKN041 BKN110 09/08 A3019 RMK SF2SC2AC2 SLP225

CYYG;2009-11-25 15:00;CYYG 251500Z 06006KT 15SM SCT011 BKN052 10/09 A3017 RMK SC4SC2 SLP217

CYYG;2009-11-25 15:16;CYYG 251516Z 06007KT 15SM BKN011 BKN050 10/ RMK SC6SC2

CYYG;2009-11-25 16:00;CYYG 251600Z 09010KT 15SM VCSH BKN010 OVC043 11/09 A3014 RMK SF6SC1 SLP208

CYYG;2009-11-25 16:48;CYYG 251648Z 03009KT 10SM -DZ OVC012 10/ RMK SF7

CYYG;2009-11-25 17:00;CYYG 251700Z 04007KT 12SM -DZ OVC011 10/08 A3011 RMK SC8 SLP198

CYYG;2009-11-25 18:00;CYYG 251800Z 05008KT 10SM -DZ OVC010 11/09 A3009 RMK SF8 SLP192

CYYG;2009-11-25 18:27;CYYG 251827Z 03008KT 10SM -DZ OVC007 10/ RMK SF8

CYYG;2009-11-25 19:00;CYYG 251900Z 03007KT 15SM -DZ OVC007 10/09 A3009 RMK SF8 SLP189

CYYG;2009-11-25 19:05;CYYG 251905Z 05008KT 2 1/2SM -DZ BR OVC008 10/ RMK SF8

CYYG;2009-11-25 20:00;CYYG 252000Z 04007KT 1SM R03/4500VP6000FT/D -DZ BR OVC002 09/09 A3008 RMK SF8 SLP186

CYYG;2009-11-25 20:40;CYYG 252040Z 05008KT 3/4SM R03/4500FT/D -RA BR OVC002 09/ RMK SF8

CYYG;2009-11-25 21:00;CYYG 252100Z 05009KT 1SM R03/4500VP6000FT/D -RA BR OVC003 09/08 A3005 RMK SF8 SLP177

CYYG;2009-11-25 21:09;CYYG 252109Z 05009KT 3SM R03/5500FT/U -RA BR OVC004 09/ RMK SF8

CYYG;2009-11-25 21:33;CYYG 252133Z 05007KT 5SM -RA BR OVC002 09/ RMK SF8

CYYG;2009-11-25 22:00;CYYG 252200Z 07006KT 5SM R03/5500FT/U -RA BR OVC003 09/08 A3005 RMK SF8 SLP178

CYYG;2009-11-25 22:49;CYYG 252249Z 10010KT 7SM -RA OVC006 10/ RMK SF8

CYYG;2009-11-25 23:00;CYYG 252300Z 10009KT 10SM -RA OVC005 10/09 A3002 RMK SF8 SLP168

CYYG;2009-11-25 23:19;CYYG 252319Z 11007KT 10SM -DZ OVC006 10/ RMK SF8

CYYG;2009-11-25 23:53;CYYG 252353Z 10009KT 5SM -DZ BR OVC003 10/ RMK SF8

CYYG;2009-11-26 00:00;CYYG 260000Z 10007KT 5SM -DZ BR OVC003 10/09 A3001 RMK SF8 SLP163

CYYG;2009-11-26 01:00;CYYG 260100Z 10006KT 5SM -DZ BR OVC004 10/09 A3001 RMK SF8 SLP162

CYYG;2009-11-26 01:19;CYYG 260119Z 10009KT 1SM R03/P6000FT/N BR OVC003 10/ RMK SF8

CYYG;2009-11-26 01:32;CYYG 260132Z 11008KT 2 1/2SM BR OVC003 10/ RMK SF8

CYYG;2009-11-26 02:00;CYYG 260200Z 11008KT 5SM BR OVC004 10/09 A2996 RMK SF8 SLP148

CYYG;2009-11-26 03:00;CYYG 260300Z 12010KT 5SM BR OVC004 10/09 A2994 RMK ST8 SLP139

CYYG;2009-11-26 03:23;CYYG 260323Z 12007KT 2SM BR OVC002 09/ RMK ST8

CYYG;2009-11-26 04:00;CYYG 260400Z 12007KT 2SM BR OVC003 09/09 A2992 RMK ST8 SLP133

CYYG;2009-11-26 04:04;CYYG 260404Z 12006KT 3/4SM R03/4500VP6000FT/D -DZ BR OVC002 09/ RMK FG2ST6

CYYG;2009-11-26 04:16;CYYG 260416Z 12005KT 1/2SM R03/2800V5000FT/D -DZ FG VV002 09/ RMK FG8

CYYG;2009-11-26 04:24;CYYG 260424Z 11006KT 1/4SM R03/1600V3000FT/D -DZ FG VV002 09/ RMK FG8

CYYG;2009-11-26 05:00;CYYG 260500Z 11004KT 1/4SM R03/3000V4500FT/N -DZ FG VV002 09/09 A2990 RMK FG8 SLP127

CYYG;2009-11-26 05:39;CYYG 260539Z 10005KT 1/2SM R03/2200V3000FT/D -DZ FG VV002 09/ RMK FG8

CYYG;2009-11-26 06:00;CYYG 260600Z 10004KT 1/4SM R03/1000V1400FT/N -DZ FG VV002 09/09 A2987 RMK FG8 SLP115

CYYG;2009-11-26 06:20;CYYG 260620Z 11004KT 1/8SM R03/1000FT/N -DZ FG VV001 09/ RMK FG8

CYYG;2009-11-26 07:00;CYYG 260700Z 13003KT 1/8SM R03/0900FT/N -DZ FG VV001 09/09 A2985 RMK FG8 SLP110

CYYG;2009-11-26 08:00;CYYG 260800Z 23003KT 1/8SM R03/1000FT/N -DZ FG VV001 09/09 A2985 RMK FG8 SLP109

CYYG;2009-11-26 09:00;CYYG 260900Z 21007KT 1/8SM R03/1100V1600FT/N -DZ FG VV001 09/09 A2985 RMK FG8 SLP110

CYYG;2009-11-26 09:34;CYYG 260934Z 21007KT 1/4SM R03/1400FT/N -DZ FG OVC006 09/ RMK FG7SF1

CYYG;2009-11-26 10:00;CYYG 261000Z 22006KT 1/4SM R03/1400V2400FT/U -DZ FG VV002 09/08 A2984 RMK FG8 SLP107

CYYG;2009-11-26 10:26;CYYG 261026Z 22007KT 1/4SM R03/1200V2000FT/U FG VV002 09/ RMK FG8

CYYG;2009-11-26 10:48;CYYG 261048Z 25007KT 3/4SM R03/1100VP6000FT/U BR OVC005 09/ RMK FG2SF6

CYYG;2009-11-26 11:00;CYYG 261100Z 25008KT 2SM BR FEW002 OVC006 09/08 A2986 RMK SF2SF6 SLP112

CYYG;2009-11-26 11:15;CYYG 261115Z 23008KT 3SM BR BKN003 OVC007 09/ RMK SF6SF2

CYYG;2009-11-26 12:00;CYYG 261200Z 23009KT 1SM R03/P6000FT/N BR OVC002 09/08 A2989 RMK SF8 SLP123

CYYG;2009-11-26 12:53;CYYG 261253Z 24009KT 1/2SM R03/2000V3000FT/N FG VV002 09/ RMK FG8

CYYG;2009-11-26 13:00;CYYG 261300Z 24008KT 1/2SM R03/2000V5500FT/U FG VV002 09/08 A2991 RMK FG8 SLP130

CYYG;2009-11-26 13:13;CYYG 261313Z 25007KT 2SM BR OVC002 09/ RMK SF8

CYYG;2009-11-26 13:26;CYYG 261326Z 25009KT 10SM OVC002 09/ RMK SF8

CYYG;2009-11-26 13:48;CYYG 261348Z 24006KT 15SM BKN005 OVC011 09/ RMK SF6SC2

CYYG;2009-11-26 14:00;CYYG 261400Z 24007KT 15SM BKN006 OVC011 09/08 A2991 RMK SF6SC2 SLP129

CYYG;2009-11-26 15:00;CYYG 261500Z 27011G17KT 15SM OVC006 09/08 A2993 RMK SF8 SLP135

CYYG;2009-11-26 16:00;CYYG 261600Z 27009KT 15SM OVC008 09/08 A2992 RMK SF8 SLP133

CYYG;2009-11-26 17:00;CYYG 261700Z 25008KT 15SM BKN008 OVC050 09/08 A2991 RMK SF7SC1 SLP130

CYYG;2009-11-26 18:00;CYYG 261800Z 25006KT 15SM OVC007 09/08 A2991 RMK SF8 SLP130

CYYG;2009-11-26 19:00;CYYG 261900Z 25005KT 15SM BKN008 OVC065 09/08 A2993 RMK SF7SC1 SLP135

CYYG;2009-11-26 20:00;CYYG 262000Z 26003KT 15SM OVC008 09/07 A2993 RMK SF8 SLP138

CYYG;2009-11-26 21:00;CYYG 262100Z 20004KT 15SM OVC007 09/08 A2994 RMK SF8 SLP139

CYYG;2009-11-26 22:00;CYYG 262200Z 25004KT 15SM OVC006 09/08 A2993 RMK SF8 SLP137

CYYG;2009-11-26 23:00;CYYG 262300Z 36003KT 15SM OVC005 08/07 A2993 RMK SF8 SLP135

CYYG;2009-11-26 23:25;CYYG 262325Z 01003KT 15SM BKN004 OVC050 08/ RMK SF6SC2

CYYG;2009-11-27 00:00;CYYG 270000Z 04003KT 15SM OVC004 08/07 A2992 RMK ST8 SLP133

CYYG;2009-11-27 00:18;CYYG 270018Z 03007KT 10SM OVC003 07/ RMK ST8

CYYG;2009-11-27 00:28;CYYG 270028Z 05007KT 3SM BR OVC002 07/ RMK ST8

CYYG;2009-11-27 00:49;CYYG 270049Z 05007KT 3/4SM R03/3500VP6000FT/D BR VV002 07/ RMK FG8

CYYG;2009-11-27 01:00;CYYG 270100Z 04007KT 1/2SM R03/2400V4000FT/D FG VV002 07/06 A2992 RMK FG8 SLP133

CYYG;2009-11-27 01:23;CYYG 270123Z 04009KT 1/4SM R03/1200V2000FT/D FG VV002 07/ RMK FG8

CYYG;2009-11-27 01:49;CYYG 270149Z 03008KT 1/8SM R03/1100FT/N FG VV002 07/ RMK FG8

CYYG;2009-11-27 02:00;CYYG 270200Z 04005KT 1/8SM R03/1000FT/N FG VV002 07/06 A2991 RMK FG8 SLP130

CYYG;2009-11-27 02:20;CYYG 270220Z 04008KT 1/4SM R03/1400V2000FT/N FG VV002 06/ RMK FG8

CYYG;2009-11-27 02:27;CYYG 270227Z 03009KT 3/8SM R03/2000FT/N -SHRA FG VV002 06/ RMK FG8

CYYG;2009-11-27 03:00;CYYG 270300Z 05006KT 3/4SM R03/2400V4500FT/U -SHRA BR OVC002 06/05 A2990 RMK FG4SF4 SLP125

CYYG;2009-11-27 03:12;CYYG 270312Z 06007KT 1SM R03/P6000FT/N -SHRA BR OVC002 06/ RMK FG2SF6

CYYG;2009-11-27 03:44;CYYG 270344Z 05006KT 1/2SM R03/2800V5500FT/U FG VV002 06/ RMK FG8

CYYG;2009-11-27 04:00;CYYG 270400Z 05009KT 1/2SM R03/2400VP6000FT/D FG VV002 06/05 A2986 RMK FG8 SLP114

CYYG;2009-11-27 04:52;CYYG 270452Z 05005KT 2SM BR OVC003 06/ RMK SF8

CYYG;2009-11-27 05:00;CYYG 270500Z 05006KT 3SM BR OVC003 06/05 A2985 RMK SF8 SLP109

CYYG;2009-11-27 05:13;CYYG 270513Z 06007KT 4SM -SHRA BR OVC003 06/ RMK SF8

CYYG;2009-11-27 06:00;CYYG 270600Z 03009KT 2SM -SHRA BR OVC002 06/05 A2982 RMK SF8 SLP100

CYYG;2009-11-27 07:00;CYYG 270700Z 04009G15KT 2 1/2SM -RA BR OVC003 06/05 A2980 RMK SF8 SLP094

CYYG;2009-11-27 08:00;CYYG 270800Z 05011KT 2 1/2SM -RA BR OVC003 06/05 A2977 RMK SF8 SLP083

CYYG;2009-11-27 09:00;CYYG 270900Z 04009KT 4SM -RA BR OVC003 06/04 A2974 RMK SF8 SLP074

CYYG;2009-11-27 10:00;CYYG 271000Z 04012KT 5SM -RA BR BKN004 OVC012 06/04 A2970 RMK SF7NS1 SLP060

CYYG;2009-11-27 11:00;CYYG 271100Z 05015KT 2 1/2SM -RA BR BKN004 OVC015 06/05 A2968 RMK SF7NS1 SLP051

CYYG;2009-11-27 12:00;CYYG 271200Z 04012KT 1 1/2SM -RA BR OVC004 06/05 A2966 RMK SF8 SLP045

CYYG;2009-11-27 13:00;CYYG 271300Z 05004KT 1SM R03/P6000FT/D -RA BR OVC006 07/06 A2963 RMK SF8 SLP036

CYYG;2009-11-27 14:00;CYYG 271400Z 05009KT 3SM -RA BR OVC004 07/06 A2958 RMK SF8 SLP019

CYYG;2009-11-27 14:19;CYYG 271419Z 05009KT 3/4SM R03/P6000FT/N -DZ BR OVC002 07/ RMK SF8

CYYG;2009-11-27 15:00;CYYG 271500Z 07010KT 3/4SM R03/P6000FT/N -DZ BR OVC002 08/07 A2949 RMK SF8 PRESFR SLP987

CYYG;2009-11-27 15:17;CYYG 271517Z 02004KT 1/2SM R03/P6000FT/N -DZ FG OVC002 08/ RMK SF8

CYYG;2009-11-27 16:00;CYYG 271600Z 01005KT 1/2SM R03/P6000FT/U -DZ FG OVC003 08/07 A2946 RMK SF8 SLP977

CYYG;2009-11-27 16:40;CYYG 271640Z 05004KT 1SM R03/6000FT/U -DZ BR OVC004 08/ RMK SF8

CYYG;2009-11-27 17:00;CYYG 271700Z 03005KT 3/4SM R03/5500FT/N -DZ BR OVC002 09/08 A2941 RMK SF8 SLP959

CYYG;2009-11-27 18:00;CYYG 271800Z 10006KT 1 1/2SM -DZ BR OVC002 09/09 A2935 RMK SF8 SLP941

CYYG;2009-11-27 18:07;CYYG 271807Z 09006KT 3/4SM R03/P6000FT/U -DZ BR OVC002 09/ RMK SF8

CYYG;2009-11-27 19:00;CYYG 271900Z 10005KT 2 1/2SM -DZ BR OVC002 10/09 A2931 RMK SF8 SLP926

CYYG;2009-11-27 19:52;CYYG 271952Z 11008KT 1/2SM R03/P6000FT/N -DZ FG OVC002 10/ RMK SF8

CYYG;2009-11-27 20:00;CYYG 272000Z 11008KT 1/2SM R03/P6000FT/N -DZ FG VV002 10/10 A2926 RMK FG8 SLP909

CYYG;2009-11-27 21:00;CYYG 272100Z 13008KT 1/2SM R03/4500FT/D -DZ FG VV002 11/11 A2923 RMK FG8 SLP899

CYYG;2009-11-27 21:22;CYYG 272122Z 13006KT 2SM BR BKN002 OVC006 12/ RMK SF6SF2

CYYG;2009-11-27 21:53;CYYG 272153Z 12006KT 2SM -RA BR OVC002 13/ RMK SF8

CYYG;2009-11-27 22:00;CYYG 272200Z 13006KT 2SM -RA BR OVC002 13/13 A2919 RMK SF8 SLP886

CYYG;2009-11-27 22:46;CYYG 272246Z 11011KT 4SM -SHRA BR OVC003 14/ RMK SF8

CYYG;2009-11-27 23:00;CYYG 272300Z 12011G19KT 5SM -SHRA BR OVC004 14/14 A2911 RMK SF8 /PRESFR/ SLP858

CYYG;2009-11-28 00:00;CYYG 280000Z 15006KT 5SM -SHRA BR OVC006 14/14 A2906 RMK SF8 SLP842

CYYG;2009-11-28 00:39;CYYG 280039Z 11007KT 5SM BR OVC008 14/ RMK SF8

CYYG;2009-11-28 01:00;CYYG 280100Z 12008KT 15SM BKN008 OVC015 14/13 A2902 RMK SF6SC2 SLP828

CYYG;2009-11-28 02:00;CYYG 280200Z 12008KT 15SM BKN008 OVC016 14/13 A2899 RMK SF6SC2 SLP817

CYYG;2009-11-28 03:00;CYYG 280300Z 13009KT 15SM SCT008 OVC013 14/13 A2894 RMK SF3SC5 SLP801

CYYG;2009-11-28 03:29;CYYG 280329Z 15016KT 5SM -SHRA BR BKN008 OVC013 15/ RMK SF7SC1

CYYG;2009-11-28 04:00;CYYG 280400Z 15015G21KT 5SM -SHRA BR OVC006 14/14 A2891 RMK SF8 SLP792

CYYG;2009-11-28 04:37;CYYG 280437Z 17014KT 15SM SCT006 13/ RMK SF4

CYYG;2009-11-28 05:00;CYYG 280500Z 17012KT 15SM SCT006 13/12 A2891 RMK SF4 SLP791

CYYG;2009-11-28 06:00;CYYG 280600Z 16007KT 15SM OVC015 13/12 A2890 RMK SC7 SLP789

CYYG;2009-11-28 07:00;CYYG 280700Z 15008KT 15SM OVC012 12/11 A2888 RMK SC7 SLP781

CYYG;2009-11-28 08:00;CYYG 280800Z 15010KT 15SM SCT012 12/11 A2886 RMK SC3 SLP773

CYYG;2009-11-28 09:00;CYYG 280900Z 16012KT 15SM FEW012 12/11 A2884 RMK SC2 SLP765

CYYG;2009-11-28 10:00;CYYG 281000Z 16014KT 15SM BKN019 12/11 A2883 RMK SC6 SLP764

CYYG;2009-11-28 11:00;CYYG 281100Z 18014KT 15SM BKN028 12/10 A2885 RMK SC7 SLP771

CYYG;2009-11-28 12:00;CYYG 281200Z 19014KT 15SM BKN025 10/08 A2886 RMK SC6 SLP774

CYYG;2009-11-28 13:00;CYYG 281300Z 19013G20KT 15SM FEW025 10/07 A2888 RMK SC2 SLP781

CYYG;2009-11-28 14:00;CYYG 281400Z 18021KT 15SM BKN025 09/06 A2890 RMK SC6 SLP787

CYYG;2009-11-28 15:00;CYYG 281500Z 18016G21KT 15SM FEW025 SCT300 10/06 A2890 RMK SC2CI1 SLP785

CYYG;2009-11-28 16:00;CYYG 281600Z 18019G24KT 15SM FEW015 SCT300 10/05 A2889 RMK SC2CI1 SLP782

CYYG;2009-11-28 17:00;CYYG 281700Z 18014G21KT 15SM FEW030 SCT300 10/05 A2887 RMK SC2CI1 SLP776

CYYG;2009-11-28 18:00;CYYG 281800Z 21012KT 15SM SCT020 BKN042 09/05 A2889 RMK SC2SC2 SLP784

CYYG;2009-11-28 18:16;CYYG 281816Z 20010KT 15SM -SHRA BKN030 08/ RMK SC6

CYYG;2009-11-28 19:00;CYYG 281900Z 19006KT 15SM -SHRA BKN031 08/06 A2890 RMK SC5 SLP786

CYYG;2009-11-28 20:00;CYYG 282000Z 18011G16KT 15SM -SHRA BKN032 08/04 A2890 RMK SC6 PCPN OCNL SLP789

CYYG;2009-11-28 21:00;CYYG 282100Z 20006KT 15SM SCT030 BKN076 07/04 A2891 RMK SC2AC3 SLP792

CYYG;2009-11-28 22:00;CYYG 282200Z 18007KT 15SM SCT054 BKN074 08/05 A2892 RMK SC3AC3 SLP795

CYYG;2009-11-28 23:00;CYYG 282300Z 18008KT 15SM SCT028 BKN054 07/05 A2893 RMK SC3SC3 SLP797

CYYG;2009-11-29 00:00;CYYG 290000Z 21007KT 15SM BKN029 OVC073 07/05 A2894 RMK SC6AC2 SLP800

CYYG;2009-11-29 01:00;CYYG 290100Z 26006KT 15SM FEW015 OVC024 07/04 A2896 RMK SC2SC6 SLP806

CYYG;2009-11-29 01:44;CYYG 290144Z 29017G22KT 15SM BKN008 OVC014 06/ RMK SF6SC2

CYYG;2009-11-29 02:00;CYYG 290200Z 29013G20KT 15SM BKN007 OVC015 05/04 A2897 RMK SF6SC2 SLP812

CYYG;2009-11-29 03:00;CYYG 290300Z 29016G25KT 15SM BKN008 OVC014 04/02 A2901 RMK SF7SC1 SLP826

CYYG;2009-11-29 03:14;CYYG 290314Z 29017KT 15SM -SHRA BKN008 OVC013 04/ RMK SF7SC1

CYYG;2009-11-29 03:44;CYYG 290344Z 29016G21KT 15SM BKN007 OVC012 03/ RMK SF7SC1

CYYG;2009-11-29 04:00;CYYG 290400Z 29017KT 15SM BKN007 OVC012 03/01 A2904 RMK SF6SC2 SLP835

CYYG;2009-11-29 04:50;CYYG 290450Z 29015KT 15SM -SHRA SCT007 OVC011 03/ RMK SF3SC5

CYYG;2009-11-29 05:00;CYYG 290500Z 28014G19KT 15SM -SHRA SCT007 OVC011 03/01 A2907 RMK SF3SC5 SLP845

CYYG;2009-11-29 06:00;CYYG 290600Z 28015G21KT 15SM -SHRA OVC012 03/00 A2912 RMK SC8 SLP861

CYYG;2009-11-29 07:00;CYYG 290700Z 29016G24KT 15SM -SHRA OVC014 02/00 A2915 RMK SC8 SLP874

CYYG;2009-11-29 08:00;CYYG 290800Z 29017G27KT 15SM -SHRA OVC014 03/M00 A2920 RMK SC8 SLP889

CYYG;2009-11-29 09:00;CYYG 290900Z 29017KT 15SM -SHRA BKN019 OVC031 03/M00 A2924 RMK SC6SC2 SLP902

CYYG;2009-11-29 09:42;CYYG 290942Z 29015G24KT 15SM SCT028 OVC034 03/ RMK SC3SC5

CYYG;2009-11-29 10:00;CYYG 291000Z 28014G21KT 15SM SCT024 OVC033 03/M01 A2929 RMK SC3SC5 SLP920

CYYG;2009-11-29 11:00;CYYG 291100Z 28017G25KT 15SM BKN035 03/M02 A2933 RMK SC7 SLP933

CYYG;2009-11-29 12:00;CYYG 291200Z 29017G24KT 15SM -SHRA OVC033 03/M03 A2937 RMK SC8 SLP948

CYYG;2009-11-29 12:29;CYYG 291229Z 28017G25KT 15SM -SHGS OVC029 03/ RMK SC8

CYYG;2009-11-29 12:50;CYYG 291250Z 29017G22KT 15SM OVC028 03/ RMK SC8

CYYG;2009-11-29 13:00;CYYG 291300Z 28018G27KT 15SM OVC029 03/M03 A2940 RMK SC8 SLP958

CYYG;2009-11-29 14:00;CYYG 291400Z 29019G24KT 15SM OVC028 03/M03 A2943 RMK SC8 SLP966

CYYG;2009-11-29 15:00;CYYG 291500Z 29020G28KT 15SM OVC030 03/M04 A2944 RMK SC8 SLP972

CYYG;2009-11-29 16:00;CYYG 291600Z 29017G24KT 15SM OVC033 03/M04 A2944 RMK SC8 SLP973

CYYG;2009-11-29 17:00;CYYG 291700Z 28017G22KT 15SM OVC036 03/M03 A2945 RMK SC8 SLP976

CYYG;2009-11-29 18:00;CYYG 291800Z 28015G22KT 15SM OVC036 04/M04 A2947 RMK SC8 SLP981

CYYG;2009-11-29 19:00;CYYG 291900Z 28018G25KT 15SM BKN036 04/M04 A2950 RMK SC7 SLP992

CYYG;2009-11-29 20:00;CYYG 292000Z 27017G25KT 15SM SCT040 03/M05 A2952 RMK SC3 SLP999

CYYG;2009-11-29 21:00;CYYG 292100Z 27015G20KT 15SM FEW040 03/M05 A2955 RMK SC2 SLP009

CYYG;2009-11-29 22:00;CYYG 292200Z 27019G26KT 15SM FEW040 03/M05 A2957 RMK SC2 SLP015

CYYG;2009-11-29 23:00;CYYG 292300Z 27017G26KT 15SM FEW040 03/M05 A2960 RMK SC2 SLP027

CYYG;2009-11-30 00:00;CYYG 300000Z 27013G19KT 15SM FEW040 02/M05 A2964 RMK SC2 SLP038

CYYG;2009-11-30 01:00;CYYG 300100Z 27009G16KT 15SM FEW040 02/M05 A2966 RMK SC2 SLP044

CYYG;2009-11-30 02:00;CYYG 300200Z 28012G19KT 15SM FEW040 02/M05 A2967 RMK SC1 SLP048

CYYG;2009-11-30 03:00;CYYG 300300Z 28011KT 15SM SKC 01/M05 A2968 RMK SLP052

CYYG;2009-11-30 04:00;CYYG 300400Z 27009KT 15SM SKC 01/M05 A2970 RMK SLP059

CYYG;2009-11-30 05:00;CYYG 300500Z 25009KT 15SM SKC 00/M05 A2971 RMK SLP063

CYYG;2009-11-30 06:00;CYYG 300600Z 26009KT 15SM SKC M00/M05 A2971 RMK SLP064

CYYG;2009-11-30 07:00;CYYG 300700Z 26007KT 15SM SKC M00/M05 A2973 RMK SLP068

CYYG;2009-11-30 08:00;CYYG 300800Z 25007KT 15SM SKC M00/M05 A2973 RMK SLP069

CYYG;2009-11-30 09:00;CYYG 300900Z 25006KT 15SM FEW230 M01/M05 A2974 RMK CI2 SLP071

CYYG;2009-11-30 10:00;CYYG 301000Z 23003KT 15SM SKC M01/M05 A2974 RMK SLP072

CYYG;2009-11-30 11:00;CYYG 301100Z 18002KT 15SM SCT042 BKN230 M01/M05 A2973 RMK SC3CI2 SLP068

CYYG;2009-11-30 12:00;CYYG 301200Z 20004KT 15SM OVC040 01/M03 A2972 RMK SC8 SLP067

CYYG;2009-11-30 13:00;CYYG 301300Z 18003KT 15SM OVC035 02/M02 A2971 RMK SC8 SLP063

CYYG;2009-11-30 14:00;CYYG 301400Z 19005KT 15SM OVC029 03/M02 A2971 RMK SC8 SLP063

CYYG;2009-11-30 14:17;CYYG 301417Z 18004KT 15SM -SHRA OVC037 03/ RMK SC8

CYYG;2009-11-30 14:31;CYYG 301431Z 16006KT 15SM -SHRASN BKN037 OVC058 03/ RMK SC5SC3

CYYG;2009-11-30 15:00;CYYG 301500Z 15008KT 15SM -SHRASN BKN021 OVC058 03/M00 A2968 RMK SC7SC1 SLP051

CYYG;2009-11-30 16:00;CYYG 301600Z 12007KT 15SM -SHRA OVC016 03/00 A2961 RMK SC8 PRESFR SLP030

CYYG;2009-11-30 16:20;CYYG 301620Z 11007KT 12SM -SHRA OVC013 03/ RMK SC8

CYYG;2009-11-30 17:00;CYYG 301700Z 11007KT 12SM -SHRA OVC012 03/01 A2955 RMK SC8 PRESFR SLP009

CYYG;2009-11-30 18:00;CYYG 301800Z 12006KT 12SM -SHRA OVC012 04/03 A2951 RMK SC8 SLP994

CYYG;2009-11-30 19:00;CYYG 301900Z 15006KT 12SM -SHRA OVC013 06/05 A2947 RMK SC8 SLP980

CYYG;2009-11-30 19:36;CYYG 301936Z 15008KT 12SM -SHRA OVC017 07/ RMK SC8

CYYG;2009-11-30 20:00;CYYG 302000Z 17007KT 12SM -SHRA OVC020 08/07 A2945 RMK SC8 SLP974

CYYG;2009-11-30 20:40;CYYG 302040Z 18009KT 12SM OVC022 09/ RMK SC8

CYYG;2009-11-30 21:00;CYYG 302100Z 20007KT 12SM OVC018 09/08 A2944 RMK SC8 SLP970

CYYG;2009-11-30 21:10;CYYG 302110Z 21008KT 10SM -SHRA OVC020 10/ RMK SC8

CYYG;2009-11-30 22:00;CYYG 302200Z 22005KT 10SM -SHRA OVC022 09/09 A2943 RMK SC8 SLP966

CYYG;2009-11-30 22:17;CYYG 302217Z 23006KT 10SM -SHRA OVC013 09/ RMK SC8

CYYG;2009-11-30 23:00;CYYG 302300Z 21005KT 10SM -SHRA BKN013 OVC025 09/08 A2943 RMK SC6SC2 SLP967

CYYG;2009-12-01 01:00;CYYG 010100Z 28007KT 15SM -SHRA FEW005 BKN012 OVC025 07/06 A2944 RMK SF2SC3SC3 SLP972

CYYG;2009-12-01 02:00;CYYG 010200Z 29006KT 15SM FEW006 SCT012 OVC030 06/04 A2947 RMK SF2SC2SC5 SLP980

CYYG;2009-12-01 03:00;CYYG 010300Z 32007KT 15SM -SHRA SCT006 OVC030 05/03 A2947 RMK SF4SC4 SLP980

CYYG;2009-12-01 03:29;CYYG 010329Z 32011KT 15SM BKN006 OVC030 04/ RMK SF6SC2

CYYG;2009-12-01 04:00;CYYG 010400Z 33011KT 15SM OVC005 04/02 A2949 RMK SF8 SLP987

CYYG;2009-12-01 05:00;CYYG 010500Z 34008KT 15SM OVC006 03/01 A2949 RMK SF8 SLP989

CYYG;2009-12-01 06:00;CYYG 010600Z 33007KT 15SM BKN006 OVC016 03/01 A2952 RMK SF6SC2 SLP997

CYYG;2009-12-01 07:00;CYYG 010700Z 33005KT 15SM BKN006 OVC015 03/01 A2952 RMK SF5SC3 SLP000

CYYG;2009-12-01 08:00;CYYG 010800Z 34005KT 15SM SCT006 OVC016 03/00 A2954 RMK SF3SC5 SLP004

CYYG;2009-12-01 09:00;CYYG 010900Z 35006KT 15SM SCT006 OVC016 02/00 A2953 RMK SF4SC4 SLP001

CYYG;2009-12-01 10:00;CYYG 011000Z CCA 35008KT 15SM -SHRA SCT006 OVC017 02/00 A2955 RMK SF4SC4 SLP007

CYYG;2009-12-01 11:00;CYYG 011100Z 01009KT 15SM -SHRA SCT006 BKN017 OVC035 02/M00 A2954 RMK SF3SC2SC3 SLP003

CYYG;2009-12-01 11:48;CYYG 011148Z 36008KT 15SM SCT006 BKN020 OVC038 02/ RMK SF3SC2SC3

CYYG;2009-12-01 12:00;CYYG 011200Z 36010KT 15SM FEW006 BKN025 OVC035 02/M01 A2955 RMK SF2SC3SC2 SLP007

CYYG;2009-12-01 13:00;CYYG 011300Z 36008KT 15SM -SHSN BKN010 OVC032 02/M01 A2956 RMK CU5SC3 VIS N-E 2 SLP011

CYYG;2009-12-01 14:00;CYYG 011400Z 02008KT 15SM -SHSN BKN012 OVC032 01/M01 A2958 RMK CU5SC3 VIS N-E 2 SLP018

CYYG;2009-12-01 14:18;CYYG 011418Z 36006KT 15SM -SHSN BKN018 BKN028 OVC040 02/ RMK SC5SC2SC1

CYYG;2009-12-01 14:53;CYYG 011453Z 34009KT 2 1/2SM -SHSN SCT008 OVC016 01/ RMK SF4SC4

CYYG;2009-12-01 15:00;CYYG 011500Z 33008KT 10SM -SHSN SCT008 BKN014 OVC030 01/M01 A2957 RMK SF3SC3SC2 VIS ME 2 SLP015

CYYG;2009-12-01 16:00;CYYG 011600Z 35008KT 15SM -SHSN FEW008 SCT015 OVC031 01/M01 A2957 RMK SF2SC2SC4 SLP014

CYYG;2009-12-01 17:00;CYYG 011700Z 36007G15KT 15SM VCSH FEW010 SCT020 OVC028 02/M02 A2955 RMK CU2SC2SC4 SLP009

CYYG;2009-12-01 18:00;CYYG 011800Z 35009KT 15SM VCSH OVC028 02/M03 A2956 RMK SC8 SLP012

CYYG;2009-12-01 18:32;CYYG 011832Z 34008KT 15SM -SHSN OVC025 02/ RMK SC8 VIS NW-N 21/2

CYYG;2009-12-01 18:42;CYYG 011842Z 33010G19KT 1SM R03/P6000FT/N -SHSN OVC025 01/ RMK SN3SC5

CYYG;2009-12-01 18:49;CYYG 011849Z 34011G17KT 10SM -SHSN OVC025 01/ RMK SC8 VIS E-SW 3

CYYG;2009-12-01 19:00;CYYG 011900Z 33012KT 15SM VCSH FEW020 OVC031 01/M02 A2957 RMK CU2SC6 VIS S-W 6 SLP014

CYYG;2009-12-01 19:45;CYYG 011945Z 34012G20KT 2 1/2SM -SHSN BKN010 OVC030 01/ RMK CU6SC2 VIS N-E 1

CYYG;2009-12-01 20:00;CYYG 012000Z 32013KT 2 1/2SM -SHSN BKN010 OVC030 01/M02 A2959 RMK CU6SC2 SLP022

CYYG;2009-12-01 20:12;CYYG 012012Z 32013G18KT 5/8SM R03/P6000FT/D -SHSN VV007 M00/ RMK SN8

CYYG;2009-12-01 20:21;CYYG 012021Z 31012G17KT 2SM R03/3500VP6000FT/U -SHSN BKN008 OVC030 M00/ RMK SN2CU4SC2

CYYG;2009-12-01 20:50;CYYG 012050Z 30012G18KT 1SM R03/P6000FT/U -SHSN BKN008 OVC030 M00/ RMK SN4CU2SC2 VIS VRB 3/4-3

CYYG;2009-12-01 21:00;CYYG 012100Z 30011G18KT 1SM R03/P6000FT/U -SHSN OVC008 M01/M03 A2962 RMK SN5SF3 VIS VRB 3/4-3 SLP031

CYYG;2009-12-01 22:00;CYYG 012200Z 30014G20KT 3SM -SHSN BKN008 OVC025 M01/M04 A2965 RMK CU5SC3 /S01/ SLP043

CYYG;2009-12-01 22:26;CYYG 012226Z 30015G20KT 7SM -SHSN FEW008 OVC035 M01/ RMK CU2SC6

CYYG;2009-12-01 23:00;CYYG 012300Z 30013G19KT 7SM -SHSN FEW008 OVC031 M01/M05 A2968 RMK CU2SC6 SLP051

CYYG;2009-12-02 00:00;CYYG 020000Z 29015KT 15SM -SHSN FEW010 OVC029 M01/M06 A2971 RMK CU2SC6 /S02/ SLP061

CYYG;2009-12-02 01:00;CYYG 020100Z 29018G24KT 15SM -SHSN OVC026 M02/M07 A2973 RMK SC8 SLP069

CYYG;2009-12-02 02:00;CYYG 020200Z 29013G18KT 15SM -SHSN OVC026 M02/M07 A2975 RMK SC8 SLP076

CYYG;2009-12-02 03:00;CYYG 020300Z 29013G18KT 15SM -SHSN OVC026 M02/M07 A2978 RMK SC8 SLP086

CYYG;2009-12-02 04:00;CYYG 020400Z 29014G21KT 15SM -SHSN OVC022 M02/M07 A2980 RMK SC8 SLP094

CYYG;2009-12-02 05:00;CYYG 020500Z 29008KT 15SM BKN022 M03/M08 A2982 RMK SC6 SLP102

CYYG;2009-12-02 06:00;CYYG 020600Z 29012KT 15SM SCT022 M03/M07 A2985 RMK SC4 SLP110

CYYG;2009-12-02 07:00;CYYG 020700Z 29009KT 15SM SCT022 M03/M07 A2986 RMK SC3 SLP114

CYYG;2009-12-02 08:00;CYYG 020800Z 26007KT 15SM FEW022 M02/M06 A2988 RMK SC2 SLP120

CYYG;2009-12-02 09:00;CYYG 020900Z 27006KT 15SM SCT017 M02/M05 A2989 RMK SC3 SLP125

CYYG;2009-12-02 10:00;CYYG 021000Z 26006KT 15SM SCT015 M02/M05 A2990 RMK SC4 SLP127

CYYG;2009-12-02 11:00;CYYG 021100Z 26004KT 15SM FEW015 M02/M05 A2991 RMK SC2 SLP132

CYYG;2009-12-02 12:00;CYYG 021200Z 27010KT 15SM FEW013 M01/M04 A2994 RMK SC2 SLP140

CYYG;2009-12-02 13:00;CYYG 021300Z 26009KT 15SM FEW015 M00/M03 A2995 RMK SC2 SLP145

CYYG;2009-12-02 14:00;CYYG 021400Z 26011G19KT 15SM FEW015 BKN053 01/M03 A2997 RMK SC2SC3 SLP151

CYYG;2009-12-02 15:00;CYYG 021500Z 27014G20KT 15SM FEW017 FEW053 01/M03 A2997 RMK CU2SC1 SLP152

CYYG;2009-12-02 16:00;CYYG 021600Z 28012G21KT 15SM FEW022 SCT060 02/M03 A2996 RMK CU2SC2 SLP147

CYYG;2009-12-02 17:00;CYYG 021700Z 29012G19KT 15SM SCT022 02/M03 A2996 RMK CU3 SLP148

CYYG;2009-12-02 18:00;CYYG 021800Z 27013G19KT 15SM SCT025 03/M03 A2996 RMK CU4 SLP148

CYYG;2009-12-02 19:00;CYYG 021900Z 28012G19KT 15SM BKN031 02/M05 A2998 RMK SC6 SLP156

CYYG;2009-12-02 20:00;CYYG 022000Z 28012G19KT 15SM SCT037 02/M05 A2999 RMK SC4 SLP159

CYYG;2009-12-02 21:00;CYYG 022100Z 27009KT 15SM SCT036 SCT300 01/M05 A3001 RMK SC3CI0 SLP166

CYYG;2009-12-02 22:00;CYYG 022200Z 27008KT 15SM SCT036 SCT300 01/M06 A3003 RMK SC3CI0 SLP170

CYYG;2009-12-02 23:00;CYYG 022300Z 27009KT 15SM FEW036 01/M05 A3003 RMK SC1 SLP172

CYYG;2009-12-03 00:00;CYYG 030000Z 28007KT 15SM FEW035 01/M04 A3004 RMK SC1 SLP175

CYYG;2009-12-03 01:00;CYYG 030100Z 27009KT 15SM FEW035 01/M04 A3004 RMK SC1 SLP175

CYYG;2009-12-03 02:00;CYYG 030200Z 25006KT 15SM SKC 01/M04 A3005 RMK SLP177

CYYG;2009-12-03 03:00;CYYG 030300Z 25006KT 15SM SKC 00/M04 A3004 RMK SLP176

CYYG;2009-12-03 04:00;CYYG 030400Z 25006KT 15SM SKC 00/M04 A3005 RMK SLP177

CYYG;2009-12-03 05:00;CYYG 030500Z 23005KT 15SM SKC M00/M04 A3003 RMK SLP172

CYYG;2009-12-03 06:00;CYYG 030600Z 22004KT 15SM SKC 01/M03 A3002 RMK SLP168

CYYG;2009-12-03 07:00;CYYG 030700Z 21005KT 15SM SKC 00/M03 A3003 RMK SLP170

CYYG;2009-12-03 08:00;CYYG 030800Z 19004KT 15SM SKC 01/M02 A3000 RMK SLP160

CYYG;2009-12-03 09:00;CYYG 030900Z 17003KT 15SM SKC 00/M02 A2998 RMK SLP155

CYYG;2009-12-03 10:00;CYYG 031000Z 18005KT 15SM SKC 01/M01 A2996 RMK SLP146

CYYG;2009-12-03 11:00;CYYG 031100Z 19005KT 15SM SKC 02/00 A2996 RMK SLP147

CYYG;2009-12-03 11:33;CYYG 031133Z 18004KT 10SM BKN014 OVC021 03/ RMK SC5SC3

CYYG;2009-12-03 12:00;CYYG 031200Z 16004KT 15SM FEW014 BKN036 OVC120 03/02 A2994 RMK SC2SC4AC2 SLP141

CYYG;2009-12-03 12:05;CYYG 031205Z 16005KT 15SM BKN012 OVC036 03/ RMK SC6SC2

CYYG;2009-12-03 13:00;CYYG 031300Z 17004KT 15SM OVC013 04/03 A2994 RMK SC8 SLP141

CYYG;2009-12-03 14:00;CYYG 031400Z 16007KT 15SM BKN009 OVC024 05/03 A2991 RMK SC6SC2 SLP132

CYYG;2009-12-03 14:12;CYYG 031412Z 14006KT 15SM FEW009 OVC011 05/ RMK SC2SC6

CYYG;2009-12-03 14:46;CYYG 031446Z 14007KT 10SM FEW009 BKN049 OVC100 05/ RMK SC2SC4AS2

CYYG;2009-12-03 15:00;CYYG 031500Z 16008KT 10SM FEW014 BKN029 OVC100 05/04 A2986 RMK SC2SC3AS2 SLP112

CYYG;2009-12-03 15:09;CYYG 031509Z 17010KT 10SM -RA FEW014 OVC026 06/ RMK SC2SC6 VIS SE-W 5

CYYG;2009-12-03 16:00;CYYG 031600Z 14007KT 3SM RA BR SCT003 OVC009 06/05 A2979 RMK SF3SF5 PRESFR SLP089

CYYG;2009-12-03 16:26;CYYG 031626Z 14008KT 2SM RA BR SCT002 OVC007 05/ RMK SF4SF4 PRESFR

CYYG;2009-12-03 16:34;CYYG 031634Z 13008KT 2SM RA BR BKN003 OVC012 05/ RMK SF6SC2

CYYG;2009-12-03 16:42;CYYG 031642Z 13008KT 1SM R03/P6000FT/N RA BR BKN003 OVC012 06/ RMK SF6SF2

CYYG;2009-12-03 16:48;CYYG 031648Z 13007KT 2SM RA BR BKN002 OVC009 06/ RMK SF6SF2

CYYG;2009-12-03 17:00;CYYG 031700Z 11007KT 2SM RA BR BKN002 OVC008 06/05 A2969 RMK SF6SF2 PRESFR SLP056

CYYG;2009-12-03 17:27;CYYG 031727Z 13007KT 1SM R03/P6000FT/D RA BR BKN002 OVC007 06/ RMK SF6SF2

CYYG;2009-12-03 18:00;CYYG 031800Z 11012G18KT 2SM RA BR OVC002 06/05 A2958 RMK SF8 PRESFR /R11/ SLP019

CYYG;2009-12-03 18:45;CYYG 031845Z 11016KT 2SM +RA BR FEW002 OVC004 07/ RMK SF2SF6

CYYG;2009-12-03 19:00;CYYG 031900Z 10019G24KT 8SM -RA BKN003 BKN008 OVC025 06/06 A2950 RERA RMK SF6SF2SC1 PRESFR SLP993

CYYG;2009-12-03 19:46;CYYG 031946Z 12021KT 3SM RA BR FEW003 OVC007 07/ RMK SF2SF6

CYYG;2009-12-03 20:00;CYYG 032000Z 11017G30KT 3SM RA BR OVC005 07/06 A2944 RERA RMK SF8 PRESFR /R11/ SLP970

CYYG;2009-12-03 21:00;CYYG 032100Z 12021G28KT 10SM -RA BKN004 OVC020 08/07 A2935 RERA RMK SF6SC2 PRESFR SLP940

CYYG;2009-12-03 21:26;CYYG 032126Z 14013G18KT 15SM BKN007 OVC017 08/ RMK SF6SC2

CYYG;2009-12-03 21:50;CYYG 032150Z 12024G30KT 15SM -RA BKN004 OVC027 08/ RMK SF6SC2

CYYG;2009-12-03 22:00;CYYG 032200Z 14015G30KT 15SM -RA BKN005 BKN025 OVC045 08/08 A2929 RMK SF5SC2SC2 PRESFR SLP920

CYYG;2009-12-03 23:00;CYYG 032300Z 17007KT 6SM -RA BR BKN004 OVC011 10/09 A2929 RMK SF6SF2 SLP919

CYYG;2009-12-04 00:00;CYYG 040000Z 20006KT 8SM BKN008 OVC011 11/10 A2928 RMK SF5SF3 SLP916

CYYG;2009-12-04 01:00;CYYG 040100Z 24012KT 10SM BKN007 OVC018 12/11 A2928 RMK SF5SC3 SLP918

CYYG;2009-12-04 02:00;CYYG 040200Z 26018G24KT 15SM SCT008 OVC018 11/09 A2931 RMK SF4SC4 SLP927

CYYG;2009-12-04 03:00;CYYG 040300Z 26018G29KT 15SM BKN014 08/06 A2934 RMK SC6 SLP936

CYYG;2009-12-04 03:39;CYYG 040339Z 26015G26KT 10SM BKN005 OVC012 06/ RMK SF6SC2

CYYG;2009-12-04 04:00;CYYG 040400Z 27018KT 4SM BR OVC005 06/05 A2939 RMK SF8 SLP953

CYYG;2009-12-04 05:00;CYYG 040500Z 29017KT 4SM BR OVC004 05/05 A2943 RMK SF8 SLP968

CYYG;2009-12-04 06:00;CYYG 040600Z 31012G20KT 6SM BR OVC004 05/04 A2951 RMK SF8 /PRESRR/ SLP994

CYYG;2009-12-04 07:00;CYYG 040700Z 33012G18KT 4SM BR OVC004 04/03 A2958 RMK SF8 /PRESRR/ SLP017

CYYG;2009-12-04 07:18;CYYG 040718Z 34008G16KT 3SM -RA BR OVC006 04/ RMK SF8

CYYG;2009-12-04 08:00;CYYG 040800Z 34009KT 3SM -RA BR OVC008 04/02 A2963 RMK SF8 SLP036

CYYG;2009-12-04 09:00;CYYG 040900Z 34008KT 3SM -RA BR OVC005 04/02 A2967 RMK SF8 SLP049

CYYG;2009-12-04 10:00;CYYG 041000Z 35010KT 3SM -RA BR OVC005 04/02 A2972 RMK SF8 SLP067

CYYG;2009-12-04 11:00;CYYG 041100Z 35007KT 3SM -RA BR OVC004 03/02 A2978 RMK SF8 SLP086

CYYG;2009-12-04 11:49;CYYG 041149Z 01009KT 12SM -RA OVC007 03/ RMK SF8

CYYG;2009-12-04 12:00;CYYG 041200Z 36007KT 12SM -RA OVC006 03/02 A2982 RMK SF8 SLP100

CYYG;2009-12-04 12:26;CYYG 041226Z 35005KT 3SM -RA BR OVC005 03/ RMK SF8

CYYG;2009-12-04 13:00;CYYG 041300Z 01004KT 12SM -SHRA OVC008 03/02 A2985 RMK SF8 SLP111

CYYG;2009-12-04 13:36;CYYG 041336Z 34006KT 6SM -DZ BR OVC007 03/ RMK SF8

CYYG;2009-12-04 14:00;CYYG 041400Z 33004KT 12SM OVC009 04/02 A2991 RMK SF8 PRESRR SLP131

CYYG;2009-12-04 14:16;CYYG 041416Z 33004KT 12SM OVC011 04/ RMK SF8

CYYG;2009-12-04 15:00;CYYG 041500Z 32006KT 15SM OVC010 04/02 A2994 RMK SF8 SLP140

CYYG;2009-12-04 16:00;CYYG 041600Z 35005KT 15SM OVC010 04/02 A2994 RMK SC8 SLP139

CYYG;2009-12-04 17:00;CYYG 041700Z 33004KT 15SM OVC012 04/01 A2996 RMK SC8 SLP148

CYYG;2009-12-04 18:00;CYYG 041800Z 34003KT 15SM OVC013 04/01 A2999 RMK SC8 SLP159

CYYG;2009-12-04 19:00;CYYG 041900Z 32005KT 15SM OVC014 04/01 A3003 RMK SC8 SLP171

CYYG;2009-12-04 20:00;CYYG 042000Z 28004KT 15SM OVC013 04/01 A3006 RMK SC8 SLP180

CYYG;2009-12-04 21:00;CYYG 042100Z 32002KT 15SM OVC016 04/01 A3008 RMK SC8 SLP189

CYYG;2009-12-04 22:00;CYYG 042200Z 27002KT 15SM OVC016 03/02 A3010 RMK SC8 SLP194

CYYG;2009-12-04 23:00;CYYG 042300Z 00000KT 15SM OVC017 04/01 A3010 RMK SC8 SLP196

CYYG;2009-12-05 00:00;CYYG 050000Z 23003KT 15SM OVC018 04/01 A3013 RMK SC8 SLP205

CYYG;2009-12-05 01:00;CYYG 050100Z 22004KT 15SM OVC018 04/01 A3015 RMK SC8 SLP211

CYYG;2009-12-05 02:00;CYYG 050200Z 20004KT 15SM OVC028 04/01 A3015 RMK SC8 SLP213

CYYG;2009-12-05 03:00;CYYG 050300Z 20004KT 15SM OVC030 04/02 A3015 RMK SC8 SLP213

CYYG;2009-12-05 04:00;CYYG 050400Z 22003KT 15SM BKN033 03/01 A3017 RMK SC6 SLP217

CYYG;2009-12-05 05:00;CYYG 050500Z 24003KT 15SM FEW035 03/01 A3017 RMK SC2 SLP217

CYYG;2009-12-05 06:00;CYYG 050600Z 24004KT 15SM FEW035 02/01 A3018 RMK SC2 SLP222

CYYG;2009-12-05 07:00;CYYG 050700Z 25004KT 15SM FEW035 02/00 A3020 RMK SC1 SLP230

CYYG;2009-12-05 08:00;CYYG 050800Z 25005KT 15SM FEW035 02/01 A3020 RMK SC1 SLP228

CYYG;2009-12-05 09:00;CYYG 050900Z 24004KT 15SM FEW150 02/00 A3018 RMK AC1 SLP222

CYYG;2009-12-05 10:00;CYYG 051000Z CCA 21005KT 15SM FEW160 02/00 A3019 RMK AC2 FROIN SLP224

CYYG;2009-12-05 11:00;CYYG 051100Z 21006KT 15SM BKN120 02/00 A3019 RMK AC5 FROIN SLP226

CYYG;2009-12-05 12:00;CYYG 051200Z 22006KT 15SM FEW062 BKN160 OVC250 02/00 A3019 RMK SC2AS4CS2 SLP225

CYYG;2009-12-05 13:00;CYYG 051300Z 20005KT 15SM FEW062 OVC160 03/02 A3018 RMK SC2AS6 SUN DIMLY VISBL SLP222

CYYG;2009-12-05 14:00;CYYG 051400Z 22007KT 15SM FEW015 BKN055 OVC160 04/03 A3020 RMK SC1SC7AS1 SLP228

CYYG;2009-12-05 15:00;CYYG 051500Z 22008KT 15SM FEW010 BKN051 OVC150 05/03 A3019 RMK SC1SC7AS1 SLP224

CYYG;2009-12-05 16:00;CYYG 051600Z CCA 25004KT 15SM FEW010 SCT050 OVC120 05/03 A3016 RMK SC1SC3AS5 SUN DIMLY VISBL SLP216

CYYG;2009-12-05 17:00;CYYG 051700Z 24004KT 15SM FEW010 BKN045 BKN058 OVC120 05/02 A3013 RMK SC1SC6SC1AS1 SLP205

CYYG;2009-12-05 18:00;CYYG 051800Z 30002KT 15SM FEW010 SCT045 BKN055 OVC120 06/03 A3010 RMK SC1SC3SC3AS1 SLP196

CYYG;2009-12-05 19:00;CYYG 051900Z 36002KT 15SM FEW012 FEW045 BKN060 OVC120 05/03 A3009 RMK SC1SC2SC3AS3 SLP192

CYYG;2009-12-05 20:00;CYYG 052000Z 02004KT 15SM FEW015 FEW040 OVC062 04/02 A3009 RMK SC1SC2SC6 SLP190

CYYG;2009-12-05 21:00;CYYG 052100Z 02003KT 15SM FEW015 BKN037 OVC055 04/02 A3008 RMK SC1SC5SC3 SLP189

CYYG;2009-12-05 21:29;CYYG 052129Z 01003KT 15SM -SHRA FEW015 BKN037 OVC050 04/ RMK SC1SC6SC2

CYYG;2009-12-05 22:00;CYYG 052200Z 04002KT 10SM -RA FEW010 OVC035 04/02 A3009 RMK SF2SC6 SLP191

CYYG;2009-12-05 23:00;CYYG 052300Z 13003KT 10SM -RA FEW010 OVC040 04/01 A3006 RMK SF2SC6 SLP182

CYYG;2009-12-06 00:00;CYYG 060000Z 02002KT 10SM -RA FEW010 OVC021 03/02 A3005 RMK SF2SC6 SLP177

CYYG;2009-12-06 01:00;CYYG 060100Z 05006KT 10SM -RA OVC013 03/01 A3000 RMK SF8 SLP160

CYYG;2009-12-06 01:40;CYYG 060140Z 04008KT 10SM -RA BKN015 OVC022 03/ RMK SF6SC2

CYYG;2009-12-06 02:00;CYYG 060200Z 05009KT 10SM -RA BKN010 OVC018 03/01 A2995 RMK SF6SC2 SLP143

CYYG;2009-12-06 03:00;CYYG 060300Z 05011KT 10SM -RA OVC008 02/01 A2993 RMK SF8 SLP137

CYYG;2009-12-06 04:00;CYYG 060400Z 06012KT 8SM -RA OVC006 02/00 A2988 RMK SF8 SLP120

CYYG;2009-12-06 05:00;CYYG 060500Z 06008KT 8SM -RASN OVC006 02/00 A2984 RMK SF8 SLP106

CYYG;2009-12-06 06:00;CYYG 060600Z CCA 05012KT 8SM -RASN OVC006 02/00 A2978 RMK SF8 PRESFR SLP085

CYYG;2009-12-06 07:00;CYYG 060700Z 06014KT 6SM -RASN OVC005 02/M00 A2975 RMK SF8 SLP075

CYYG;2009-12-06 08:00;CYYG 060800Z 05014G19KT 6SM -RASN OVC006 01/M00 A2972 RMK SF8 SLP065

CYYG;2009-12-06 09:00;CYYG 060900Z 05020KT 6SM -RASN OVC006 01/M01 A2969 RMK SF8 SLP055

CYYG;2009-12-06 09:20;CYYG 060920Z 04023G30KT 4SM R03/4500VP6000FT/D -SN OVC004 01/ RMK SF8

CYYG;2009-12-06 10:00;CYYG 061000Z 04021G31KT 1 1/2SM R03/4000FT/N -SN OVC005 00/M01 A2965 RMK SF8 SLP041

CYYG;2009-12-06 11:00;CYYG 061100Z 04023G33KT 3/4SM R03/2800FT/U -SN BLSN BKN005 OVC014 00/M02 A2963 RMK SF7SC1 SLP036

CYYG;2009-12-06 12:00;CYYG 061200Z 04024G30KT 1/2SM R03/2400V3500FT/U -SN FG BKN005 OVC012 00/M02 A2958 RMK SN2SF6NS1 /S02/ SLP017

CYYG;2009-12-06 13:00;CYYG 061300Z 03020G28KT 1/2SM R03/2400V3500FT/D -SN FG BKN005 OVC012 00/M01 A2958 RMK SN2SF5NS1 SLP019

CYYG;2009-12-06 13:36;CYYG 061336Z 03025G32KT 1/2SM R03/2000V3000FT/D -SN DRSN FZFG BKN005 OVC012 M00/ RMK SN2SF5NS1

CYYG;2009-12-06 14:00;CYYG 061400Z 03022G31KT 1/2SM R03/1800V2800FT/U -SN DRSN FZFG BKN005 OVC012 M01/M02 A2957 RMK SN2SF5NS1 /S02/ SLP016

CYYG;2009-12-06 14:42;CYYG 061442Z 03023G28KT 5/8SM R03/1400V2800FT/U -SN DRSN BR OVC005 M01/ RMK SN2SF6

CYYG;2009-12-06 15:00;CYYG 061500Z 02018G27KT 5/8SM R03/1400V4000FT/U -SN DRSN BR BKN006 OVC012 M01/M02 A2961 RMK SN2SF6NS1 /S03/ SLP030

CYYG;2009-12-06 15:24;CYYG 061524Z 01018KT 3/8SM R03/2400V3500FT/N SN DRSN VV006 M01/ RMK SN8

CYYG;2009-12-06 16:00;CYYG 061600Z 02022KT 5/8SM R03/1400V2600FT/N -SN DRSN OVC006 M01/M03 A2960 RESN RMK SN2SF6 /S06/ SLP027

CYYG;2009-12-06 17:00;CYYG 061700Z 01012G24KT 5/8SM R03/3500V5000FT/N -SN DRSN OVC006 M01/M03 A2964 RMK SN2SF6 /S08/ SLP038

CYYG;2009-12-06 18:00;CYYG 061800Z 36014G20KT 1SM R03/1800VP6000FT/D -SN DRSN OVC006 M01/M03 A2967 RMK SN3SF5 VIS VRB 5/8-11/2 /S09/ SLP049

CYYG;2009-12-06 19:00;CYYG 061900Z 36016G21KT 1 1/2SM R03/2400VP6000FT/U -SN DRSN OVC006 M01/M03 A2971 RMK SF8 SLP064

CYYG;2009-12-06 19:21;CYYG 061921Z 35010G19KT 5SM -SN DRSN OVC006 M02/ RMK SF8 SUN VISBL

CYYG;2009-12-06 19:27;CYYG 061927Z 36013G19KT 5SM -SHSN DRSN SCT006 BKN022 M02/ RMK SF3SC4

CYYG;2009-12-06 20:00;CYYG 062000Z 35010G15KT 15SM FEW020 BKN035 M01/M04 A2975 RMK SC2SC6 SLP076

CYYG;2009-12-06 21:00;CYYG 062100Z 33009KT 12SM FEW020 OVC035 M01/M05 A2981 RMK SC1SC7 PRESRR SLP098

CYYG;2009-12-06 21:28;CYYG 062128Z 32011KT 7SM -SHSN FEW025 OVC040 M01/ RMK SC2SC6

CYYG;2009-12-06 22:00;CYYG 062200Z 29009KT 2 1/2SM -SHSN BKN027 OVC050 M02/M05 A2983 RMK SC6SC2 SLP103

CYYG;2009-12-06 22:18;CYYG 062218Z 31015KT 1 1/4SM -SN OVC022 M02/ RMK SC8

CYYG;2009-12-06 23:00;CYYG 062300Z 29008KT 5SM -SN FEW018 OVC040 M02/M04 A2985 RMK SC2SC6 SLP112

CYYG;2009-12-07 00:00;CYYG 070000Z 29013KT 8SM -SN FEW018 OVC040 M02/M05 A2988 RMK SC2SC6 SLP120

CYYG;2009-12-07 01:00;CYYG 070100Z 29009G15KT 10SM -SN BKN045 M03/M07 A2990 RMK SC6 SLP126

CYYG;2009-12-07 01:12;CYYG 070112Z 29010G15KT 15SM BKN045 BKN100 M03/ RMK SC5AC2

CYYG;2009-12-07 02:00;CYYG 070200Z 29010KT 15SM BKN045 BKN100 M04/M08 A2990 RMK SC5AC1 SLP129

CYYG;2009-12-07 03:00;CYYG 070300Z 28011KT 15SM FEW045 SCT100 M04/M08 A2993 RMK SC2AC2 SLP139

CYYG;2009-12-07 04:00;CYYG 070400Z 27006KT 15SM SCT036 SCT100 M05/M08 A2995 RMK SC3AC1 SLP145

CYYG;2009-12-07 05:00;CYYG 070500Z 27008KT 15SM FEW036 SCT100 M05/M09 A2995 RMK SC2AC1 SLP145

CYYG;2009-12-07 06:00;CYYG 070600Z 26004KT 15SM FEW036 SCT100 M04/M08 A2997 RMK SC2AC2 SLP151

CYYG;2009-12-07 07:00;CYYG 070700Z 27007KT 15SM BKN037 M04/M07 A2998 RMK SC6 SLP154

CYYG;2009-12-07 08:00;CYYG 070800Z 29011KT 15SM SCT037 M03/M07 A2998 RMK SC4 SLP156

CYYG;2009-12-07 09:00;CYYG 070900Z 28011KT 15SM SCT037 M03/M07 A3000 RMK SC3 SLP162

CYYG;2009-12-07 10:00;CYYG 071000Z 29011G16KT 15SM FEW035 M03/M07 A3002 RMK SC2 SLP168

CYYG;2009-12-07 11:00;CYYG 071100Z 28011G16KT 15SM FEW035 M03/M07 A3004 RMK SC2 SLP174

CYYG;2009-12-07 12:00;CYYG 071200Z 29011KT 15SM FEW035 M04/M08 A3006 RMK SC1 SLP183

CYYG;2009-12-07 13:00;CYYG 071300Z 28012G19KT 15SM FEW035 M04/M08 A3008 RMK SC1 SLP188

CYYG;2009-12-07 14:00;CYYG 071400Z 28012G17KT 15SM FEW015 M04/M08 A3010 RMK SC1 SLP195

CYYG;2009-12-07 15:00;CYYG 071500Z 28014G19KT 15SM FEW015 M03/M08 A3009 RMK SC1 SLP194

CYYG;2009-12-07 16:00;CYYG 071600Z 28014G19KT 15SM FEW015 M03/M08 A3009 RMK SC1 SLP193

CYYG;2009-12-07 17:00;CYYG 071700Z 27010G19KT 15SM FEW015 M03/M08 A3008 RMK SC1 SLP189

CYYG;2009-12-07 18:00;CYYG 071800Z 27012G18KT 15SM FEW020 M03/M08 A3006 RMK SC1 SLP184

CYYG;2009-12-07 19:00;CYYG 071900Z 28009KT 15SM FEW020 FEW250 M03/M08 A3009 RMK SC2CI1 SLP193

CYYG;2009-12-07 20:00;CYYG 072000Z 25010KT 15SM SCT027 SCT250 M03/M08 A3009 RMK SC3CI1 SLP192

CYYG;2009-12-07 21:00;CYYG 072100Z 26012KT 15SM BKN027 M03/M08 A3009 RMK SC6 SLP192

CYYG;2009-12-07 22:00;CYYG 072200Z 27006KT 15SM BKN028 M04/M08 A3009 RMK SC6 SLP194

CYYG;2009-12-07 23:00;CYYG 072300Z 25005KT 15SM FEW027 M04/M08 A3010 RMK SC2 SLP196

CYYG;2009-12-08 00:00;CYYG 080000Z 23004KT 15SM FEW027 FEW190 M05/M08 A3010 RMK SC1AC1 SLP196

CYYG;2009-12-08 01:00;CYYG 080100Z 25004KT 15SM SKC M05/M08 A3009 RMK SLP194

CYYG;2009-12-08 02:00;CYYG 080200Z 22003KT 15SM SKC M06/M09 A3009 RMK SLP193

CYYG;2009-12-08 03:00;CYYG 080300Z 27007KT 15SM SKC M06/M10 A3008 RMK SLP190

CYYG;2009-12-08 04:00;CYYG 080400Z 28007KT 15SM FEW025 SCT200 M06/M10 A3007 RMK SC1CI0 SLP187

CYYG;2009-12-08 05:00;CYYG 080500Z 26006KT 15SM FEW025 FEW160 M06/M10 A3006 RMK SC1AC1 SLP182

CYYG;2009-12-08 06:00;CYYG 080600Z 28006KT 15SM FEW025 FEW160 M06/M10 A3005 RMK SC1AC1 SLP178

CYYG;2009-12-08 07:00;CYYG 080700Z 24005KT 15SM SKC M06/M10 A3004 RMK SLP177

CYYG;2009-12-08 08:00;CYYG 080800Z 22004KT 15SM BKN240 M07/M10 A3004 RMK CI2 SLP175

CYYG;2009-12-08 09:00;CYYG 080900Z 31007KT 15SM BKN180 M06/M10 A3003 RMK AS2 FROIN SLP172

CYYG;2009-12-08 10:00;CYYG 081000Z 27005KT 15SM BKN170 M06/M11 A3003 RMK AS5 FROIN SLP173

CYYG;2009-12-08 11:00;CYYG 081100Z 28004KT 15SM SCT160 M08/M12 A3004 RMK AC3 FROIN SLP177

CYYG;2009-12-08 12:00;CYYG 081200Z 27007KT 15SM FEW020 SCT160 BKN230 M07/M11 A3005 RMK SC1AC2CI1 SLP179

CYYG;2009-12-08 13:00;CYYG 081300Z 27008KT 15SM FEW020 SCT140 SCT230 M07/M10 A3006 RMK SC1AC2CI1 SLP181

CYYG;2009-12-08 14:00;CYYG 081400Z 29009KT 15SM FEW020 FEW140 SCT230 M05/M09 A3006 RMK SC2AC1CI1 SLP184

CYYG;2009-12-08 15:00;CYYG 081500Z 28008KT 15SM FEW020 FEW230 M04/M08 A3006 RMK SC2CI1 CI TR SLP183

CYYG;2009-12-08 16:00;CYYG 081600Z 29008KT 15SM FEW020 FEW140 M04/M07 A3005 RMK SC2AC1 AC TR SLP179

CYYG;2009-12-08 17:00;CYYG 081700Z 29009G15KT 15SM FEW015 FEW030 M03/M07 A3004 RMK SF1SC2 SLP175

CYYG;2009-12-08 18:00;CYYG 081800Z 28011KT 15SM FEW025 SCT140 M04/M08 A3005 RMK SC2AC1 SHSN W-NE SLP178

CYYG;2009-12-08 19:00;CYYG 081900Z 29007KT 15SM VCSH SCT027 M04/M07 A3006 RMK SC4 SLP184

CYYG;2009-12-08 20:00;CYYG 082000Z 29009KT 15SM FEW027 M04/M09 A3009 RMK SC2 SLP193

CYYG;2009-12-08 21:00;CYYG 082100Z 30007KT 15SM BKN019 M05/M09 A3011 RMK SC6 SLP198

CYYG;2009-12-08 22:00;CYYG 082200Z 29008KT 15SM BKN026 M06/M09 A3012 RMK SC7 SLP203

CYYG;2009-12-08 23:00;CYYG 082300Z 30009KT 15SM BKN037 M05/M10 A3013 RMK SC7 SLP205

CYYG;2009-12-08 23:10;CYYG 082310Z 29009KT 15SM -SHSN BKN037 M05/ RMK SC7

CYYG;2009-12-09 00:00;CYYG 090000Z 29011G16KT 15SM -SHSN BKN038 M05/M09 A3014 RMK SC6 SLP211

CYYG;2009-12-09 01:00;CYYG 090100Z 29014G19KT 15SM -SHSN BKN035 M05/M11 A3016 RMK SC7 SLP216

CYYG;2009-12-09 02:00;CYYG 090200Z 29014G19KT 15SM -SHSN OVC033 M05/M11 A3017 RMK SC8 SLP218

CYYG;2009-12-09 03:00;CYYG 090300Z 29011KT 15SM -SHSN OVC032 M06/M11 A3016 RMK SC8 SLP216

CYYG;2009-12-09 04:00;CYYG 090400Z 27010KT 15SM -SHSN OVC033 M06/M11 A3016 RMK SC8 SLP215

CYYG;2009-12-09 05:00;CYYG 090500Z 27011KT 15SM -SHSN OVC037 M06/M11 A3017 RMK SC8 SLP219

CYYG;2009-12-09 06:00;CYYG 090600Z 28013G18KT 15SM -SHSN BKN040 M06/M10 A3018 RMK SC7 SLP223

CYYG;2009-12-09 07:00;CYYG 090700Z 29011G18KT 15SM -SHSN BKN047 M06/M10 A3020 RMK SC7 SLP228

CYYG;2009-12-09 08:00;CYYG 090800Z CCA 27010G15KT 15SM -SHSN DRSN BKN047 M06/M10 A3021 RMK SC7 SLP232

CYYG;2009-12-09 09:00;CYYG 090900Z 28012G17KT 15SM -SHSN DRSN OVC043 M06/M10 A3023 RMK SC8 SLP239

CYYG;2009-12-09 10:00;CYYG 091000Z 29013KT 15SM -SHSN DRSN OVC045 M06/M10 A3024 RMK SC8 SLP243

CYYG;2009-12-09 11:00;CYYG 091100Z 29013KT 15SM -SHSN DRSN FEW045 FEW250 M07/M10 A3025 RMK SC2CI0 SLP245

CYYG;2009-12-09 12:00;CYYG 091200Z 29011KT 12SM -SHSN DRSN FEW015 BKN031 BKN250 M07/M10 A3025 RMK SC1SC4CI0 SLP247

CYYG;2009-12-09 13:00;CYYG 091300Z 29009KT 12SM -SHSN DRSN FEW015 BKN038 OVC250 M06/M09 A3025 RMK SC1SC6CI1 SLP248

CYYG;2009-12-09 14:00;CYYG 091400Z 27008KT 10SM -SHSN FEW015 OVC036 M05/M08 A3028 RMK SC1SC7 SLP257

CYYG;2009-12-09 15:00;CYYG 091500Z 27009KT 15SM -SHSN FEW015 OVC039 M04/M08 A3027 RMK SC1SC7 SLP252

CYYG;2009-12-09 16:00;CYYG 091600Z 26006KT 15SM -SHSN FEW015 OVC034 M03/M08 A3024 RMK SC1SC8 SC TR SLP244

CYYG;2009-12-09 17:00;CYYG 091700Z 28005KT 15SM -SHSN FEW015 OVC037 M03/M08 A3022 RMK SC1SC8 SLP236

CYYG;2009-12-09 18:00;CYYG 091800Z 32003KT 15SM FEW015 OVC035 M03/M08 A3017 RMK SC1SC8 SC TR SLP220

CYYG;2009-12-09 19:00;CYYG 091900Z 35002KT 15SM OVC032 M03/M07 A3015 RMK SC8 SLP214

CYYG;2009-12-09 20:00;CYYG 092000Z 13003KT 15SM OVC029 M03/M07 A3011 RMK SC8 SLP200

CYYG;2009-12-09 21:00;CYYG 092100Z 12003KT 15SM BKN030 OVC110 M03/M07 A3011 RMK SC6AC2 SLP198

CYYG;2009-12-09 22:00;CYYG 092200Z 11006KT 15SM BKN028 OVC110 M03/M07 A3006 RMK SC7AC1 SLP184

CYYG;2009-12-09 23:00;CYYG 092300Z 12007KT 15SM OVC029 M03/M07 A3004 RMK SC8 SLP177

CYYG;2009-12-10 00:00;CYYG 100000Z 12008KT 15SM OVC027 M03/M06 A2999 RMK SC8 SLP159

CYYG;2009-12-10 00:20;CYYG 100020Z 13010KT 12SM -SN OVC025 M03/ RMK SC8

CYYG;2009-12-10 00:47;CYYG 100047Z 12011KT 6SM -SN OVC014 M03/ RMK SC8

CYYG;2009-12-10 01:00;CYYG 100100Z 11013KT 6SM -SN OVC010 M02/M06 A2990 RMK SC8 PRESFR SLP130

CYYG;2009-12-10 01:39;CYYG 100139Z 12015KT 3SM -SN OVC008 M02/ RMK SF8

CYYG;2009-12-10 02:00;CYYG 100200Z 11014G20KT 2SM -SN OVC005 M02/M04 A2981 RMK SF8 PRESFR SLP098

CYYG;2009-12-10 03:00;CYYG 100300Z 12019G24KT 2SM -SN OVC006 M01/M03 A2970 RMK SF8 SLP061

CYYG;2009-12-10 03:39;CYYG 100339Z 12018G29KT 5SM -SN DRSN OVC010 M01/ RMK SF8

CYYG;2009-12-10 04:00;CYYG 100400Z 12025G32KT 6SM -SN DRSN OVC009 M01/M03 A2962 RMK SF8 PRESFR SLP033

CYYG;2009-12-10 04:09;CYYG 100409Z 12024G32KT 6SM -PLSN DRSN OVC010 M01/ RMK SF8

CYYG;2009-12-10 04:25;CYYG 100425Z 13020G32KT 10SM -PL DRSN OVC015 M00/ RMK SF8

CYYG;2009-12-10 04:40;CYYG 100440Z 13027G32KT 10SM -RASN DRSN BKN012 OVC025 M00/ RMK SF6SC2

CYYG;2009-12-10 05:00;CYYG 100500Z 13023G30KT 10SM -RASN DRSN OVC012 M00/M02 A2950 RMK SF8 SLP992

CYYG;2009-12-10 05:14;CYYG 100514Z 12022G28KT 12SM -RA DRSN OVC012 00/ RMK SF8

CYYG;2009-12-10 06:00;CYYG 100600Z 12022G37KT 10SM -RA DRSN OVC015 01/M02 A2939 RMK SF8 PRESFR SLP953

CYYG;2009-12-10 06:17;CYYG 100617Z 14023G30KT 12SM DRSN OVC015 01/ RMK SC8

CYYG;2009-12-10 06:25;CYYG 100625Z 14023G30KT 8SM -PL DRSN OVC017 01/ RMK SC8

CYYG;2009-12-10 07:00;CYYG 100700Z 13020G26KT 8SM -RA OVC011 01/M01 A2934 RMK SC8 SLP937

CYYG;2009-12-10 08:00;CYYG 100800Z 14013G21KT 15SM OVC012 01/00 A2924 RMK SC8 PRESFR SLP905

CYYG;2009-12-10 08:50;CYYG 100850Z 16014G24KT 10SM -RA OVC015 02/ RMK SC8

CYYG;2009-12-10 09:00;CYYG 100900Z 15018G24KT 10SM -RA OVC013 02/01 A2920 RMK SC8 SLP889

CYYG;2009-12-10 09:39;CYYG 100939Z 15013G22KT 12SM OVC013 03/ RMK SC8

CYYG;2009-12-10 10:00;CYYG 101000Z 18014G19KT 12SM OVC010 03/02 A2916 RMK SC8 SLP876

CYYG;2009-12-10 10:41;CYYG 101041Z 15012KT 12SM BKN014 OVC031 04/ RMK SC7SC1

CYYG;2009-12-10 11:00;CYYG 101100Z 16013G20KT 12SM BKN015 OVC025 04/03 A2913 RMK SC6SC2 SLP867

CYYG;2009-12-10 12:00;CYYG 101200Z 18015KT 15SM OVC017 05/04 A2913 RMK SC8 SLP866

CYYG;2009-12-10 13:00;CYYG 101300Z 21011KT 15SM OVC017 05/04 A2911 RMK SC8 SLP859

CYYG;2009-12-10 14:00;CYYG 101400Z 20013KT 15SM OVC016 05/03 A2910 RMK SC8 SLP855

CYYG;2009-12-10 14:28;CYYG 101428Z 21016KT 12SM -SHRA OVC014 05/ RMK SC8

CYYG;2009-12-10 15:00;CYYG 101500Z 24007KT 15SM -SHRA OVC011 04/03 A2911 RMK SC8 SLP858

CYYG;2009-12-10 15:40;CYYG 101540Z 24012G17KT 15SM OVC012 04/ RMK SC8

CYYG;2009-12-10 16:00;CYYG 101600Z 24018G24KT 15SM OVC013 04/01 A2909 RMK SC8 SLP851

CYYG;2009-12-10 17:00;CYYG 101700Z 24016G24KT 15SM BKN013 OVC026 03/M00 A2908 RMK SC6SC2 SLP848

CYYG;2009-12-10 18:00;CYYG 101800Z 24013G19KT 15SM BKN018 BKN063 03/M00 A2909 RMK SC5SC2 SLP854

CYYG;2009-12-10 19:00;CYYG 101900Z 25019G27KT 15SM SCT018 BKN065 BKN095 03/M01 A2911 RMK SC4SC2AC1 SLP860

CYYG;2009-12-10 20:00;CYYG 102000Z 24015KT 15SM FEW020 SCT095 02/M02 A2913 RMK SC2AC2 SLP867

CYYG;2009-12-10 21:00;CYYG 102100Z 26010G20KT 15SM FEW020 FEW090 02/M02 A2915 RMK SC1AC2 SLP872

CYYG;2009-12-10 22:00;CYYG 102200Z 26014G21KT 15SM FEW025 SCT090 02/M03 A2917 RMK SC2AC2 SLP881

CYYG;2009-12-10 23:00;CYYG 102300Z 25014G19KT 15SM FEW020 SCT075 02/M03 A2918 RMK SC2AC2 SLP882

CYYG;2009-12-11 00:00;CYYG 110000Z 26012KT 15SM FEW020 BKN077 01/M03 A2918 RMK SC2AC4 SLP883

CYYG;2009-12-11 01:00;CYYG 110100Z 25011G16KT 15SM FEW020 BKN079 02/M03 A2917 RMK SC2AC5 SLP880

CYYG;2009-12-11 02:00;CYYG 110200Z 26013G18KT 15SM FEW020 BKN080 01/M05 A2917 RMK SC1AC5 SLP878

CYYG;2009-12-11 03:00;CYYG 110300Z 26013G19KT 15SM FEW027 BKN082 01/M04 A2916 RMK SC2AC6 SLP876

CYYG;2009-12-11 04:00;CYYG 110400Z 27018G28KT 15SM SCT027 OVC082 01/M06 A2915 RMK SC4AC4 SLP874

CYYG;2009-12-11 05:00;CYYG 110500Z 26015G21KT 15SM SCT027 BKN082 M00/M07 A2916 RMK SC3AC3 SLP875

CYYG;2009-12-11 06:00;CYYG 110600Z 26015G24KT 15SM SCT030 BKN082 M01/M08 A2916 RMK SC3AC2 SLP875

CYYG;2009-12-11 07:00;CYYG 110700Z 26021G31KT 15SM BKN042 M01/M09 A2915 RMK SC6 SLP873

CYYG;2009-12-11 08:00;CYYG 110800Z 27019G29KT 15SM BKN042 M02/M09 A2915 RMK SC6 SLP871

CYYG;2009-12-11 09:00;CYYG 110900Z 26021G28KT 15SM BKN035 M02/M09 A2916 RMK SC7 SLP877

CYYG;2009-12-11 10:00;CYYG 111000Z 26019G27KT 15SM BKN035 M03/M10 A2917 RMK SC7 SLP880

CYYG;2009-12-11 11:00;CYYG 111100Z 28017G28KT 15SM -SHSN BKN035 M03/M10 A2919 RMK SC7 SLP885

CYYG;2009-12-11 12:00;CYYG 111200Z 27017G33KT 15SM -SHSN BKN035 M04/M11 A2921 RMK SC7 SLP895

CYYG;2009-12-11 13:00;CYYG 111300Z 27021G32KT 15SM -SHSN BKN030 M05/M12 A2924 RMK SC7 SLP905

CYYG;2009-12-11 14:00;CYYG 111400Z 28021G33KT 15SM -SHSN OVC035 M05/M12 A2926 RMK SC8 SLP910

CYYG;2009-12-11 15:00;CYYG 111500Z 27020G34KT 15SM -SHSN OVC035 M05/M12 A2925 RMK SC8 SLP909

CYYG;2009-12-11 16:00;CYYG 111600Z 27022G31KT 15SM -SHSN OVC035 M05/M12 A2925 RMK SC8 VIS LWR NE SLP907

CYYG;2009-12-11 17:00;CYYG 111700Z 28021G30KT 15SM -SHSN OVC032 M05/M12 A2925 RMK SC8 VIS LWR N-E SLP906

CYYG;2009-12-11 18:00;CYYG 111800Z 28018G32KT 15SM -SHSN OVC032 M05/M12 A2925 RMK SC8 VIS LWR N-E SLP907

CYYG;2009-12-11 19:00;CYYG 111900Z 28019G31KT 15SM -SHSN OVC032 M05/M12 A2926 RMK SC8 SLP911

CYYG;2009-12-11 20:00;CYYG 112000Z 27022G29KT 15SM -SHSN DRSN OVC037 M05/M12 A2929 RMK SC8 VIS LWR N-E SLP921

CYYG;2009-12-11 21:00;CYYG 112100Z 28024G29KT 15SM -SHSN DRSN OVC040 M06/M12 A2932 RMK SC8 SLP931

CYYG;2009-12-11 22:00;CYYG 112200Z 28018G31KT 15SM -SHSN DRSN OVC040 M06/M12 A2933 RMK SC8 SLP935

CYYG;2009-12-11 23:00;CYYG 112300Z 28021G31KT 15SM -SHSN OVC040 M06/M12 A2936 RMK SC8 SLP943

CYYG;2009-12-12 00:00;CYYG 120000Z 29022G34KT 10SM -SHSN BKN032 M06/M12 A2938 RMK SC7 CU ASOCTD SLP950

CYYG;2009-12-12 01:00;CYYG 120100Z 28020G36KT 7SM -SHSN OVC030 M06/M12 A2939 RMK SC8 SLP955

CYYG;2009-12-12 02:00;CYYG 120200Z 28023G31KT 10SM -SHSN OVC030 M06/M13 A2941 RMK SC8 SLP960

CYYG;2009-12-12 03:00;CYYG 120300Z 28025G37KT 10SM -SHSN OVC030 M07/M13 A2942 RMK SC8 SLP967

CYYG;2009-12-12 04:00;CYYG 120400Z 28020G27KT 10SM -SHSN OVC030 M06/M13 A2944 RMK SC8 SLP971

CYYG;2009-12-12 05:00;CYYG 120500Z 28024G35KT 10SM -SHSN OVC030 M07/M13 A2945 RMK SC8 SLP976

CYYG;2009-12-12 06:00;CYYG 120600Z 28014G24KT 6SM -SHSN SCT025 OVC042 M07/M13 A2947 RMK SC3SC5 SLP984

CYYG;2009-12-12 07:00;CYYG 120700Z 29018G27KT 6SM -SHSN SCT022 OVC040 M08/M12 A2949 RMK SC3SC5 SLP990

CYYG;2009-12-12 08:00;CYYG 120800Z 29018G29KT 6SM -SHSN SCT022 OVC044 M08/M13 A2952 RMK SC3SC5 SLP001

CYYG;2009-12-12 09:00;CYYG 120900Z 29019G31KT 10SM -SHSN SCT022 OVC044 M08/M14 A2955 RMK SC3SC5 SLP011

CYYG;2009-12-12 10:00;CYYG 121000Z 30024G30KT 10SM -SHSN FEW018 OVC038 M08/M14 A2959 RMK SC2SC6 SLP023

CYYG;2009-12-12 11:00;CYYG 121100Z 29022G28KT 6SM -SHSN FEW018 OVC042 M08/M14 A2961 RMK SC2SC6 SLP030

CYYG;2009-12-12 12:00;CYYG 121200Z 30019G27KT 10SM -SHSN FEW018 OVC034 M08/M14 A2965 RMK SC2SC6 SLP044

CYYG;2009-12-12 13:00;CYYG 121300Z 29015G28KT 15SM FEW018 BKN036 M08/M14 A2969 RMK SC2SC5 SLP057

CYYG;2009-12-12 14:00;CYYG 121400Z 29020G29KT 15SM -SHSN FEW018 BKN034 M08/M14 A2971 RMK SC2SC4 SLP065

CYYG;2009-12-12 15:00;CYYG 121500Z 29016G31KT 15SM BKN028 M08/M14 A2972 RMK SC6 SLP068

CYYG;2009-12-12 16:00;CYYG 121600Z 29016G28KT 15SM BKN028 M08/M13 A2972 RMK SC6 SLP068

CYYG;2009-12-12 17:00;CYYG 121700Z 29025G30KT 15SM -SHSN BKN027 M08/M13 A2973 RMK SC7 VIS LWR N-E SLP070

CYYG;2009-12-12 18:00;CYYG 121800Z 30022G31KT 15SM -SHSN SCT030 BKN250 M07/M14 A2975 RMK SC3CI1 SLP078

CYYG;2009-12-12 19:00;CYYG 121900Z 29018G29KT 15SM VCSH SCT030 BKN250 M07/M15 A2978 RMK SC3CI1 SLP088

CYYG;2009-12-12 20:00;CYYG 122000Z 29025G32KT 15SM FEW030 SCT250 M07/M15 A2981 RMK SC2CI1 SLP099

CYYG;2009-12-12 21:00;CYYG 122100Z 29020G30KT 15SM FEW030 FEW250 M08/M16 A2985 RMK SC2CI1 SLP110

CYYG;2009-12-12 22:00;CYYG 122200Z 29022G33KT 15SM FEW030 M08/M16 A2987 RMK SC2 SLP118

CYYG;2009-12-12 23:00;CYYG 122300Z 29025G38KT 15SM FEW030 M09/M16 A2989 RMK SC1 SLP125

CYYG;2009-12-13 00:00;CYYG 130000Z 29017G30KT 15SM FEW030 M09/M17 A2993 RMK SC1 GST 38 PST HR SLP137

CYYG;2009-12-13 01:00;CYYG 130100Z 30025G31KT 15SM FEW030 M09/M17 A2995 RMK SC1 SLP145

CYYG;2009-12-13 02:00;CYYG 130200Z 30022G35KT 15SM FEW030 M09/M17 A2998 RMK SC1 GST 37 PST HR SLP156

CYYG;2009-12-13 03:00;CYYG 130300Z 30026G37KT 15SM FEW030 M10/M17 A3001 RMK SC1 SLP166

CYYG;2009-12-13 04:00;CYYG 130400Z 30016G26KT 15SM FEW030 M10/M17 A3004 RMK SC1 SLP175

CYYG;2009-12-13 05:00;CYYG 130500Z 30019G29KT 15SM FEW030 M10/M17 A3006 RMK SC1 SLP184

CYYG;2009-12-13 06:00;CYYG 130600Z 29016G24KT 15SM FEW030 M10/M17 A3010 RMK SC1 SLP195

CYYG;2009-12-13 07:00;CYYG 130700Z 29014G24KT 15SM FEW030 M10/M17 A3012 RMK SC1 SLP202

CYYG;2009-12-13 08:00;CYYG 130800Z 29018G29KT 15SM FEW030 M10/M17 A3014 RMK SC1 SLP211

CYYG;2009-12-13 09:00;CYYG 130900Z 29019G29KT 15SM FEW030 M10/M17 A3016 RMK SC1 SLP218

CYYG;2009-12-13 10:00;CYYG 131000Z 28018G24KT 15SM FEW030 M10/M17 A3021 RMK SC1 SLP233

CYYG;2009-12-13 11:00;CYYG 131100Z 28010G20KT 15SM FEW030 M10/M17 A3023 RMK SC1 SLP242

CYYG;2009-12-13 12:00;CYYG 131200Z 29011G16KT 15SM FEW025 M10/M16 A3026 RMK SC1 SLP251

CYYG;2009-12-13 13:00;CYYG 131300Z 29013G18KT 15SM FEW025 M09/M15 A3027 RMK SC1 SLP254

CYYG;2009-12-13 14:00;CYYG 131400Z 29012G19KT 15SM FEW025 M07/M13 A3028 RMK SC1 SH DIST NE-E SLP258

CYYG;2009-12-13 15:00;CYYG 131500Z 30014G27KT 15SM FEW025 M06/M13 A3028 RMK CU2 SLP258

CYYG;2009-12-13 16:00;CYYG 131600Z 31014G20KT 15SM FEW025 M05/M12 A3026 RMK SC2 SLP250

CYYG;2009-12-13 17:00;CYYG 131700Z 29015KT 15SM FEW027 M05/M11 A3025 RMK SC1 SLP247

CYYG;2009-12-13 18:00;CYYG 131800Z 30011G17KT 15SM FEW027 M04/M11 A3024 RMK SC1 SLP245

CYYG;2009-12-13 19:00;CYYG 131900Z 31006KT 15SM FEW027 M04/M10 A3021 RMK SC1 SLP235

CYYG;2009-12-13 20:00;CYYG 132000Z 19003KT 15SM FEW027 FEW300 M05/M10 A3019 RMK SC1CI1 SLP226

CYYG;2009-12-13 21:00;CYYG 132100Z 22003KT 15SM FEW027 FEW300 M05/M11 A3018 RMK SC1CI1 SLP222

CYYG;2009-12-13 22:00;CYYG 132200Z 18004KT 15SM FEW027 SCT300 M06/M11 A3015 RMK SC1CI1 SLP213

CYYG;2009-12-13 23:00;CYYG 132300Z 18006KT 15SM SCT300 M07/M11 A3013 RMK CI1 SLP206

CYYG;2009-12-14 00:00;CYYG 140000Z 13005KT 15SM SKC M06/M10 A3009 RMK SLP194

CYYG;2009-12-14 01:00;CYYG 140100Z 16006KT 15SM OVC140 M04/M07 A3006 RMK AC8 SLP183

CYYG;2009-12-14 02:00;CYYG 140200Z 18012KT 15SM OVC120 M01/M05 A3004 RMK AC8 SLP175

CYYG;2009-12-14 02:39;CYYG 140239Z 18012KT 10SM -SHSN BKN015 OVC100 M01/ RMK SC5AC3

CYYG;2009-12-14 02:51;CYYG 140251Z 18012KT 2SM -SHSN DRSN OVC010 M01/ RMK SC8

CYYG;2009-12-14 03:00;CYYG 140300Z 18012KT 2SM -SHSN DRSN OVC010 M01/M04 A3001 RMK SC8 SLP166

CYYG;2009-12-14 03:19;CYYG 140319Z 19013KT 3/4SM R03/2800VP6000FT/D -SHSN DRSN VV005 M01/ RMK SN8

CYYG;2009-12-14 04:00;CYYG 140400Z 18013KT 1SM R03/P6000FT/N -SHSN DRSN VV004 M01/M02 A2997 RMK SN8 SLP153

CYYG;2009-12-14 04:21;CYYG 140421Z 18014KT 3/4SM R03/2200VP6000FT/D -SHSN DRSN VV004 M01/ RMK SN8

CYYG;2009-12-14 05:00;CYYG 140500Z 18013G18KT 3/4SM R03/3000V5000FT/N -SHSN DRSN VV004 M00/M01 A2995 RMK SN8 SLP144

CYYG;2009-12-14 06:00;CYYG 140600Z 17015KT 3/4SM R03/P6000FT/D -SHSN DRSN VV003 00/M01 A2990 RMK SN8 SLP129

CYYG;2009-12-14 07:00;CYYG 140700Z 17014KT 1SM R03/P6000FT/N -SHSN DRSN VV003 00/M01 A2989 RMK SN8 SLP123

CYYG;2009-12-14 08:00;CYYG 140800Z 17011KT 2SM -SHSN DRSN SCT005 OVC011 00/M00 A2987 RMK SN2SF3SC3 SLP119

CYYG;2009-12-14 08:24;CYYG 140824Z 18012KT 3SM -RASN BR SCT008 OVC014 01/ RMK SF3SC5

CYYG;2009-12-14 09:00;CYYG 140900Z 18010KT 3SM -RASN BR FEW008 OVC012 01/M00 A2988 RMK SF2SC6 0.7 SLP120

CYYG;2009-12-14 09:23;CYYG 140923Z 18008KT 2SM -RASN BR BKN007 OVC012 01/ RMK SF5SC3

CYYG;2009-12-14 10:00;CYYG 141000Z 18008KT 5SM -RASN BR FEW007 BKN014 OVC022 01/M00 A2987 RMK SF2SC4SC2 SLP117

CYYG;2009-12-14 10:34;CYYG 141034Z 18007KT 3SM -RA BR BKN010 OVC020 01/ RMK SF6SC2

CYYG;2009-12-14 11:00;CYYG 141100Z 17005KT 3SM -RA BR FEW003 OVC012 01/00 A2988 RMK SF2SF6 SLP120

CYYG;2009-12-14 12:00;CYYG 141200Z 16003KT 15SM OVC012 01/01 A2990 RMK SC8 SLP129

CYYG;2009-12-14 12:37;CYYG 141237Z 23002KT 3SM BR BKN012 OVC017 01/ RMK SC6SC2

CYYG;2009-12-14 13:00;CYYG 141300Z 20004KT 2 1/2SM BR BKN011 OVC016 01/01 A2993 RMK SF6SC2 SLP139

CYYG;2009-12-14 13:30;CYYG 141330Z 23003KT 1 1/2SM BR OVC009 01/ RMK SF8

CYYG;2009-12-14 13:53;CYYG 141353Z 28003KT 3/4SM R03/P6000FT/N -DZ BR OVC009 01/ RMK SF8

CYYG;2009-12-14 14:00;CYYG 141400Z 27004KT 1SM R03/P6000FT/N -DZ BR SCT003 OVC008 02/01 A2995 RMK SF3SF5 SLP145

CYYG;2009-12-14 14:18;CYYG 141418Z 30004KT 3SM BR OVC006 02/ RMK SF8

CYYG;2009-12-14 14:52;CYYG 141452Z 33005KT 10SM SCT007 BKN016 OVC022 02/ RMK SF3SC2SC2

CYYG;2009-12-14 15:00;CYYG 141500Z 33006KT 10SM FEW008 BKN015 OVC023 02/01 A2996 RMK SF2SC3SC2 SLP149

CYYG;2009-12-14 15:15;CYYG 141515Z 33008KT 10SM BKN005 OVC022 02/ RMK SF6SC2

CYYG;2009-12-14 15:23;CYYG 141523Z 33008KT 10SM -SHSN BKN006 OVC010 01/ RMK SF5SC3

CYYG;2009-12-14 16:00;CYYG 141600Z 33007KT 10SM -SHSN OVC013 01/M01 A2998 RMK SC7 PCPN VRY LGT SLP154

CYYG;2009-12-14 17:00;CYYG 141700Z 32007KT 15SM -SHSN OVC021 01/M01 A3000 RMK SC8 SLP160

CYYG;2009-12-14 17:41;CYYG 141741Z 33007KT 15SM BKN022 01/ RMK SC7

CYYG;2009-12-14 18:00;CYYG 141800Z 34005KT 15SM FEW010 BKN022 BKN300 01/M02 A3001 RMK SC1SC4CI1 SLP166

CYYG;2009-12-14 19:00;CYYG 141900Z 33005KT 15SM SCT033 BKN300 01/M03 A3002 RMK SC2CI1 SLP169

CYYG;2009-12-14 20:00;CYYG 142000Z 34002KT 15SM SCT035 BKN300 00/M03 A3005 RMK SC2CI1 SLP177

CYYG;2009-12-14 21:00;CYYG 142100Z 34003KT 15SM FEW018 BKN300 M01/M04 A3009 RMK SC2CI1 SLP190

CYYG;2009-12-14 22:00;CYYG 142200Z 33002KT 15SM FEW016 M01/M04 A3010 RMK SC2 SLP194

CYYG;2009-12-14 23:00;CYYG 142300Z 31002KT 15SM FEW240 M03/M05 A3011 RMK CI1 SLP198

CYYG;2009-12-15 00:00;CYYG 150000Z 00000KT 15SM FEW240 M04/M06 A3011 RMK CI1 SLP200

CYYG;2009-12-15 01:00;CYYG 150100Z 34002KT 15SM FEW210 M06/M08 A3011 RMK CI2 SLP199

CYYG;2009-12-15 02:00;CYYG 150200Z 00000KT 15SM FEW210 M05/M07 A3011 RMK CI2 SLP200

CYYG;2009-12-15 03:00;CYYG 150300Z 33003KT 15SM FEW210 M06/M09 A3013 RMK CI2 SLP205

CYYG;2009-12-15 04:00;CYYG 150400Z 31003KT 15SM FEW140 SCT210 M05/M07 A3011 RMK AC2CI1 SLP200

CYYG;2009-12-15 05:00;CYYG 150500Z 00000KT 15SM OVC120 M05/M06 A3009 RMK AS8 SLP194

CYYG;2009-12-15 06:00;CYYG 150600Z 09002KT 15SM OVC130 M03/M05 A3008 RMK AS8 SLP189

CYYG;2009-12-15 07:00;CYYG 150700Z 07006KT 15SM OVC100 M02/M04 A3006 RMK AS8 SLP181

CYYG;2009-12-15 08:00;CYYG 150800Z 29002KT 15SM BKN024 OVC100 M02/M04 A3008 RMK SC6AS2 SLP187

CYYG;2009-12-15 09:00;CYYG 150900Z 00000KT 15SM OVC020 M03/M05 A3005 RMK SC8 SLP178

CYYG;2009-12-15 10:00;CYYG 151000Z 03003KT 15SM OVC021 M02/M04 A3004 RMK SC8 SLP175

CYYG;2009-12-15 11:00;CYYG 151100Z 36004KT 15SM BKN014 OVC020 M01/M03 A3003 RMK SC6SC2 SLP172

CYYG;2009-12-15 12:00;CYYG 151200Z 07006KT 12SM BKN012 OVC018 M00/M02 A2999 RMK SC6SC2 SLP157

CYYG;2009-12-15 13:00;CYYG 151300Z 06006KT 8SM OVC010 00/M01 A2998 RMK SF8 SLP154

CYYG;2009-12-15 13:24;CYYG 151324Z 02005KT 3SM -RA BR OVC008 00/ RMK SF8

CYYG;2009-12-15 13:46;CYYG 151346Z 02005KT 1 1/2SM -RA BR OVC005 00/ RMK SF8

CYYG;2009-12-15 14:00;CYYG 151400Z 02007KT 1 1/2SM -RA BR OVC005 00/M01 A2997 RMK SF8 SLP152

CYYG;2009-12-15 15:00;CYYG 151500Z 03010KT 1 1/2SM -DZ BR OVC003 01/M00 A2993 RMK SF8 SLP137

CYYG;2009-12-15 16:00;CYYG 151600Z 02006KT 2SM -DZ BR BKN003 OVC010 01/00 A2989 RMK SF6SC2 SLP125

CYYG;2009-12-15 17:00;CYYG 151700Z 36005KT 1SM R03/P6000FT/N -DZ BR BKN002 OVC008 01/01 A2988 RMK SF6SF2 SLP120

CYYG;2009-12-15 18:00;CYYG 151800Z 03006KT 1SM R03/P6000FT/U -DZ BR BKN002 OVC008 01/01 A2985 RMK SF6SF2 SLP110

CYYG;2009-12-15 18:46;CYYG 151846Z 03004KT 1/2SM R03/2800VP6000FT/D FG OVC002 01/ RMK SF8

CYYG;2009-12-15 19:00;CYYG 151900Z 04003KT 3/4SM R03/4500VP6000FT/U BR OVC002 01/01 A2984 RMK SF8 SLP106

CYYG;2009-12-15 20:00;CYYG 152000Z 35002KT 1/2SM R03/2200FT/U FG VV002 02/01 A2984 RMK FG8 SLP106

CYYG;2009-12-15 21:00;CYYG 152100Z 32002KT 1/2SM R03/2000V2800FT/N FG VV002 01/01 A2982 RMK FG8 SLP102

CYYG;2009-12-15 21:22;CYYG 152122Z 27002KT 1/4SM R03/2600FT/N FG VV002 01/ RMK FG8

CYYG;2009-12-15 22:00;CYYG 152200Z 26002KT 1/8SM R03/2000FT/N FG VV002 01/01 A2982 RMK FG8 SLP100

CYYG;2009-12-15 23:00;CYYG 152300Z 00000KT 3/8SM R03/2600FT/U FG VV004 01/01 A2981 RMK FG8 SLP098

CYYG;2009-12-15 23:40;CYYG 152340Z 00000KT 1/2SM R03/2600FT/N FG VV002 01/ RMK FG8

CYYG;2009-12-16 00:00;CYYG 160000Z 00000KT 1/2SM R03/3500FT/U FG VV002 01/00 A2978 RMK FG8 SLP087

CYYG;2009-12-16 00:29;CYYG 160029Z 22003KT 3/8SM R03/2000FT/D FG VV002 01/ RMK FG8

CYYG;2009-12-16 01:00;CYYG 160100Z 22004KT 1/4SM R03/1400FT/N FG VV001 01/00 A2979 RMK FG8 SLP092

CYYG;2009-12-16 02:00;CYYG 160200Z 18004KT 1/4SM R03/1200FT/N FG VV001 01/00 A2977 RMK FG8 SLP084

CYYG;2009-12-16 03:00;CYYG 160300Z 18002KT 1/4SM R03/1600FT/N FG VV001 01/00 A2975 RMK FG8 SLP077

CYYG;2009-12-16 04:00;CYYG 160400Z 11003KT 1/4SM R03/1200V1800FT/N FG VV001 01/00 A2973 RMK FG8 SLP068

CYYG;2009-12-16 04:18;CYYG 160418Z 12003KT 3/8SM R03/1400V2000FT/U -RA FG BKN002 OVC007 01/ RMK SF6SF2

CYYG;2009-12-16 05:00;CYYG 160500Z 13005KT 1/4SM R03/1600FT/N FG VV002 01/00 A2969 RMK FG8 SLP057

CYYG;2009-12-16 06:00;CYYG 160600Z 14005KT 3/8SM R03/1800FT/N FG VV002 01/00 A2967 RMK FG8 SLP048

CYYG;2009-12-16 07:00;CYYG 160700Z 14004KT 3/8SM R03/1600FT/N FG VV002 01/01 A2963 RMK FG8 SLP036

CYYG;2009-12-16 08:00;CYYG 160800Z 15004KT 3/8SM R03/2000FT/N FG VV002 02/01 A2960 RMK FG8 SLP024

CYYG;2009-12-16 08:17;CYYG 160817Z 17005KT 1/2SM R03/2400FT/N -RA FG OVC032 01/ RMK FG7SC1

CYYG;2009-12-16 09:00;CYYG 160900Z 19002KT 5/8SM R03/3000V4500FT/U -RA BR VV002 02/01 A2957 RMK FG8 SLP016

CYYG;2009-12-16 10:00;CYYG 161000Z 23003KT 1/2SM R03/2200FT/N -RA FG VV002 02/01 A2956 RMK FG8 SLP013

CYYG;2009-12-16 10:11;CYYG 161011Z 25005KT 2SM R03/2600VP6000FT/U -RA BR BKN002 OVC007 02/ RMK SF6SF2

CYYG;2009-12-16 10:25;CYYG 161025Z 28009G15KT 1 1/2SM -RASN BR OVC004 01/ RMK SF8

CYYG;2009-12-16 11:00;CYYG 161100Z 29007KT 2 1/2SM -SN OVC004 00/00 A2955 RMK SF8 SLP008

CYYG;2009-12-16 12:00;CYYG 161200Z 28008KT 1SM R03/P6000FT/U -SN OVC005 00/00 A2954 RMK SF8 SLP006

CYYG;2009-12-16 13:00;CYYG 161300Z 28012G17KT 3/4SM R03/P6000FT/N -SN OVC005 00/M01 A2952 RMK SF8 SLP999

CYYG;2009-12-16 14:00;CYYG 161400Z 28009KT 1 1/2SM -SN OVC004 00/M01 A2951 RMK SF8 SLP995

CYYG;2009-12-16 14:51;CYYG 161451Z 30009KT 3SM -SN OVC004 01/ RMK SF8

CYYG;2009-12-16 15:00;CYYG 161500Z 31009KT 12SM -SN OVC006 00/M01 A2950 RMK SF8 SLP990

CYYG;2009-12-16 15:18;CYYG 161518Z 31011KT 1 1/2SM -SN OVC006 00/ RMK SF8

CYYG;2009-12-16 15:32;CYYG 161532Z 31012G17KT 3/4SM R03/P6000FT/D -SN OVC006 00/ RMK SF8

CYYG;2009-12-16 16:00;CYYG 161600Z 32008KT 3/4SM R03/5500FT/D -SN OVC006 00/M01 A2948 RMK SF8 SLP986

CYYG;2009-12-16 17:00;CYYG 161700Z 31012G17KT 3/4SM R03/3500VP6000FT/U -SN OVC006 M01/M02 A2947 RMK SF8 /S02/ SLP981

CYYG;2009-12-16 18:00;CYYG 161800Z 29013G20KT 3/4SM R03/6000FT/U -SN OVC008 M03/M05 A2949 RMK SF8 SLP987

CYYG;2009-12-16 19:00;CYYG 161900Z 29016G22KT 1 1/2SM -SN OVC008 M04/M07 A2951 RMK SF8 SLP996

CYYG;2009-12-16 20:00;CYYG 162000Z 29017G25KT 3SM -SN BKN008 OVC017 M05/M09 A2954 RMK SF6SC2 SLP005

CYYG;2009-12-16 21:00;CYYG 162100Z 29016G24KT 7SM -SN BKN010 OVC017 M06/M09 A2957 RMK SF6SC2 SLP014

CYYG;2009-12-16 21:24;CYYG 162124Z 29015G22KT 10SM -SN BKN014 OVC019 M06/ RMK SF6SC2

CYYG;2009-12-16 22:00;CYYG 162200Z 28013G19KT 8SM -SN BKN011 OVC017 M06/M09 A2958 RMK SF5SC3 SLP017

CYYG;2009-12-16 23:00;CYYG 162300Z 28014G21KT 10SM -SN BKN014 OVC021 M07/M11 A2957 RMK SF5SC3 SLP016

CYYG;2009-12-17 00:00;CYYG 170000Z 29015G22KT 6SM -SN DRSN BKN014 OVC035 M08/M12 A2958 RMK SC7SC1 SLP019

CYYG;2009-12-17 01:00;CYYG 170100Z 29010G16KT 6SM -SN DRSN OVC016 M10/M13 A2960 RMK SC8 /S01/ SLP025

CYYG;2009-12-17 02:00;CYYG 170200Z 28010G16KT 5SM -SN DRSN OVC014 M10/M14 A2961 RMK SC8 SLP029

CYYG;2009-12-17 03:00;CYYG 170300Z 28007KT 5SM -SN FEW008 OVC016 M11/M15 A2961 RMK SF2SC6 SLP031

CYYG;2009-12-17 04:00;CYYG 170400Z CCA 28008G15KT 10SM -SN DRSN OVC020 M12/M16 A2961 RMK SC8 /S03/ SLP031

CYYG;2009-12-17 04:38;CYYG 170438Z 28010G16KT 2 1/2SM -SN DRSN OVC014 M13/ RMK SC8

CYYG;2009-12-17 05:00;CYYG 170500Z 28010KT 2SM -SN DRSN OVC014 M13/M16 A2961 RMK SC8 SLP029

CYYG;2009-12-17 06:00;CYYG 170600Z 28008G16KT 6SM -SN DRSN OVC021 M14/M17 A2960 RMK SC8 /S04/ SLP027

CYYG;2009-12-17 07:00;CYYG 170700Z 27011G17KT 8SM -SN DRSN OVC020 M14/M18 A2959 RMK SC8 SLP024

CYYG;2009-12-17 08:00;CYYG 170800Z 28013G19KT 5SM -SN DRSN OVC022 M14/M18 A2961 RMK SC8 /S01/ SLP029

CYYG;2009-12-17 09:00;CYYG 170900Z 28012G18KT 5SM -SN DRSN OVC021 M15/M19 A2961 RMK SC8 SLP032

CYYG;2009-12-17 10:00;CYYG 171000Z 28013KT 3SM -SN DRSN OVC021 M15/M19 A2962 RMK SC8 /S02/ SLP035

CYYG;2009-12-17 10:19;CYYG 171019Z 28007KT 1 1/2SM -SN DRSN VV009 M15/ RMK SN8

CYYG;2009-12-17 11:00;CYYG 171100Z 30009KT 1 1/2SM -SN DRSN VV016 M15/M19 A2963 RMK SN8 /S03/ SLP036

CYYG;2009-12-17 11:08;CYYG 171108Z 29009KT 1 1/4SM -SN DRSN OVC011 M15/ RMK SN6SC2

CYYG;2009-12-17 12:00;CYYG 171200Z 28010G15KT 2SM -SHSN DRSN BKN030 M15/M20 A2963 RMK SC7 SLP039

CYYG;2009-12-17 13:00;CYYG 171300Z 27011KT 2 1/2SM -SHSN DRSN FEW010 BKN030 M15/M19 A2964 RMK SC2SC6 SLP042

CYYG;2009-12-17 14:00;CYYG 171400Z 28009G16KT 2 1/2SM -SHSN DRSN FEW015 BKN027 M15/M19 A2965 RMK SC2SC5 SLP044

CYYG;2009-12-17 15:00;CYYG 171500Z 29007KT 8SM -SHSN FEW020 BKN037 M14/M19 A2965 RMK SC2SC2 VSBY S 3/PCPN VRY LGT SLP045

CYYG;2009-12-17 15:49;CYYG 171549Z 29011KT 10SM BKN035 M14/ RMK SC2 VSBY S 3SHSN

CYYG;2009-12-17 16:00;CYYG 171600Z 28011G16KT 10SM DRSN VCSH FEW015 SCT035 M14/M19 A2965 RMK CF1SC2 VSBY LWR S-W SLP043

CYYG;2009-12-17 17:00;CYYG 171700Z 29010G17KT 12SM DRSN FEW015 BKN035 M14/M18 A2964 RMK CF1SC5 SLP041

CYYG;2009-12-17 18:00;CYYG 171800Z 28009KT 15SM DRSN FEW015 SCT035 M13/M18 A2964 RMK CF1SC4 SLP041

CYYG;2009-12-17 19:00;CYYG 171900Z 27010KT 15SM DRSN FEW015 BKN045 M13/M17 A2965 RMK CF1SC5 SLP045

CYYG;2009-12-17 20:00;CYYG 172000Z 28007KT 15SM DRSN FEW015 SCT050 M13/M17 A2967 RMK CF1SC4 SLP052

CYYG;2009-12-17 21:00;CYYG 172100Z 27009KT 15SM SCT055 M13/M17 A2969 RMK SC4 SLP058

CYYG;2009-12-17 22:00;CYYG 172200Z 29011KT 15SM BKN058 M13/M17 A2970 RMK SC6 SLP061

CYYG;2009-12-17 23:00;CYYG 172300Z 29013G19KT 15SM DRSN SCT058 M13/M17 A2971 RMK SC3 SLP065

CYYG;2009-12-18 00:00;CYYG 180000Z 29012G19KT 15SM BKN067 M13/M17 A2972 RMK SC5 SLP069

CYYG;2009-12-18 01:00;CYYG 180100Z 29014KT 15SM BKN047 BKN067 M13/M17 A2973 RMK SC5AC2 SLP071

CYYG;2009-12-18 01:40;CYYG 180140Z 29015G20KT 15SM -SHSN FEW040 OVC068 M13/ RMK SC2AC6

CYYG;2009-12-18 02:00;CYYG 180200Z 29015G20KT 15SM -SHSN DRSN FEW040 OVC068 M13/M17 A2973 RMK SC2AC6 SLP071

CYYG;2009-12-18 03:00;CYYG 180300Z 29015G24KT 15SM -SHSN DRSN OVC067 M13/M17 A2973 RMK AC8 SLP071

CYYG;2009-12-18 03:20;CYYG 180320Z 29016KT 15SM DRSN OVC067 M13/ RMK AC8

CYYG;2009-12-18 04:00;CYYG 180400Z 28014G20KT 15SM DRSN OVC064 M13/M17 A2972 RMK SC8 SLP068

CYYG;2009-12-18 05:00;CYYG 180500Z 29015G20KT 15SM OVC063 M13/M17 A2971 RMK SC8 SLP066

CYYG;2009-12-18 06:00;CYYG 180600Z 29015G20KT 15SM OVC067 M13/M16 A2972 RMK AC8 SLP069

CYYG;2009-12-18 07:00;CYYG 180700Z 29014KT 15SM OVC068 M12/M16 A2973 RMK AC8 SLP071

CYYG;2009-12-18 08:00;CYYG 180800Z 29013G18KT 15SM OVC068 M12/M15 A2973 RMK AC8 SLP071

CYYG;2009-12-18 09:00;CYYG 180900Z 29013G19KT 15SM OVC068 M11/M14 A2972 RMK AC8 SLP069

CYYG;2009-12-18 10:00;CYYG 181000Z 29013G18KT 15SM OVC066 M11/M14 A2971 RMK AC8 SLP066

CYYG;2009-12-18 10:18;CYYG 181018Z 29013KT 15SM -SHSN OVC064 M11/ RMK SC8

CYYG;2009-12-18 11:00;CYYG 181100Z 29015KT 15SM -SHSN OVC063 M10/M14 A2971 RMK SC8 SLP065

CYYG;2009-12-18 12:00;CYYG 181200Z 29014G19KT 15SM -SHSN DRSN FEW015 OVC043 M10/M14 A2972 RMK SC1SC7 VIS LWR N-E SLP068

CYYG;2009-12-18 13:00;CYYG 181300Z 29013G19KT 15SM -SN DRSN FEW015 OVC040 M10/M13 A2971 RMK SC1SC7 VIS LWR NW-E SLP066

CYYG;2009-12-18 14:00;CYYG 181400Z 28013G19KT 3SM -SN DRSN BKN019 OVC040 M10/M13 A2971 RMK SC5SC3 SLP064

CYYG;2009-12-18 15:00;CYYG 181500Z 28013G22KT 5SM -SN DRSN SCT027 BKN047 BKN068 M09/M12 A2968 RMK SC3SC2AC2 SLP055

CYYG;2009-12-18 15:21;CYYG 181521Z 28016G22KT 2SM -SN DRSN BKN025 OVC047 M09/ RMK SC5SC3

CYYG;2009-12-18 15:45;CYYG 181545Z 29014G19KT 5SM -SN DRSN SCT025 OVC045 M09/ RMK SC3SC5

CYYG;2009-12-18 16:00;CYYG 181600Z 29016G21KT 3SM -SN DRSN SCT025 OVC040 M09/M12 A2966 RMK SC3SC5 VIS HIER SW-W SLP049

CYYG;2009-12-18 17:00;CYYG 181700Z 29016G25KT 10SM -SN DRSN OVC046 M09/M12 A2964 RMK SC8 SLP042

CYYG;2009-12-18 18:00;CYYG 181800Z 29015G22KT 10SM -SN DRSN FEW020 OVC050 M08/M12 A2964 RMK SC1SC7 SLP042

CYYG;2009-12-18 19:00;CYYG 181900Z 28013G21KT 15SM -SN DRSN FEW020 BKN059 M08/M13 A2965 RMK SC1SC6 SLP043

CYYG;2009-12-18 20:00;CYYG 182000Z 29012G18KT 15SM -SN DRSN FEW035 BKN050 M09/M14 A2965 RMK SC2SC5 VIS S-W 5 SLP043

CYYG;2009-12-18 21:00;CYYG 182100Z 29012G17KT 10SM -SN DRSN BKN035 M09/M13 A2965 RMK SC7 SLP045

CYYG;2009-12-18 22:00;CYYG 182200Z 29010KT 15SM -SHSN OVC035 M09/M14 A2965 RMK SC8 VIS LWR SW-W SLP043

CYYG;2009-12-18 23:00;CYYG 182300Z 27012KT 15SM -SHSN DRSN OVC033 M09/M14 A2964 RMK SC8 SLP041

CYYG;2009-12-19 00:00;CYYG 190000Z 27009KT 15SM -SHSN DRSN OVC030 M10/M14 A2963 RMK SC8 SLP039

CYYG;2009-12-19 01:00;CYYG 190100Z 26010KT 15SM -SHSN OVC030 M10/M14 A2963 RMK SC8 SLP038

CYYG;2009-12-19 02:00;CYYG 190200Z 25012KT 15SM -SHSN OVC026 M10/M14 A2963 RMK SC8 SLP038

CYYG;2009-12-19 03:00;CYYG 190300Z 26005KT 15SM -SHSN OVC025 M10/M14 A2965 RMK SC8 SLP045

CYYG;2009-12-19 04:00;CYYG 190400Z 25006KT 15SM -SHSN OVC027 M11/M14 A2965 RMK SC8 SLP043

CYYG;2009-12-19 05:00;CYYG 190500Z 26006KT 15SM -SHSN BKN027 OVC044 M10/M15 A2965 RMK SC6SC2 SLP044

CYYG;2009-12-19 06:00;CYYG 190600Z 26007KT 15SM -SHSN SCT025 OVC045 M10/M15 A2967 RMK SC4SC4 SLP051

CYYG;2009-12-19 07:00;CYYG 190700Z 25007KT 15SM -SHSN FEW025 OVC047 M10/M14 A2969 RMK SC2SC6 SLP058

CYYG;2009-12-19 08:00;CYYG 190800Z 25009KT 15SM -SHSN FEW025 OVC047 M10/M14 A2970 RMK SC2SC6 SLP061

CYYG;2009-12-19 09:00;CYYG 190900Z 25007KT 15SM -SHSN FEW025 OVC047 M11/M14 A2970 RMK SC2SC6 SLP062

CYYG;2009-12-19 10:00;CYYG 191000Z 25006KT 15SM -SHSN OVC041 M11/M15 A2973 RMK SC8 SLP070

CYYG;2009-12-19 11:00;CYYG 191100Z 25006KT 15SM -SHSN OVC033 M11/M14 A2975 RMK SC8 SLP078

CYYG;2009-12-19 11:51;CYYG 191151Z 27005KT 15SM FEW015 SCT033 SCT210 M11/ RMK SC1SC2CI0

CYYG;2009-12-19 12:00;CYYG 191200Z 27005KT 15SM FEW015 SCT033 SCT210 M11/M15 A2977 RMK SC1SC2CI0 SLP084

CYYG;2009-12-19 13:00;CYYG 191300Z 24004KT 15SM FEW015 FEW030 SCT210 M11/M15 A2977 RMK SC1SC2CC0 SC TR SLP086

CYYG;2009-12-19 14:00;CYYG 191400Z 27003KT 15SM FEW030 SCT120 M11/M14 A2977 RMK SC2AC2 SLP085

CYYG;2009-12-19 15:00;CYYG 191500Z 24004KT 15SM FEW020 SCT120 M09/M14 A2979 RMK SC1AC2 SLP092

CYYG;2009-12-19 16:00;CYYG 191600Z 25005KT 15SM FEW020 SCT120 M09/M13 A2978 RMK SC1AC2 SLP088

CYYG;2009-12-19 17:00;CYYG 191700Z 27005KT 15SM FEW030 FEW120 M08/M13 A2977 RMK SC2AC1 SLP085

CYYG;2009-12-19 18:00;CYYG 191800Z 28005KT 15SM FEW030 FEW120 M08/M13 A2978 RMK SC2AC1 VIRGA SW SLP087

CYYG;2009-12-19 19:00;CYYG 191900Z 28005KT 15SM FEW030 FEW120 M08/M13 A2978 RMK SC2AC1 AC TR SLP087

CYYG;2009-12-19 20:00;CYYG 192000Z 31004KT 15SM FEW030 FEW120 M09/M13 A2979 RMK SC1AC1 SLP092

CYYG;2009-12-19 21:00;CYYG 192100Z 31003KT 15SM FEW030 M10/M14 A2979 RMK SC2 SLP091

CYYG;2009-12-19 22:00;CYYG 192200Z 28005KT 15SM FEW030 M10/M14 A2978 RMK SC2 SLP088

CYYG;2009-12-19 23:00;CYYG 192300Z 29006KT 15SM SCT029 M10/M13 A2979 RMK SC3 SLP091

CYYG;2009-12-19 23:20;CYYG 192320Z 29006KT 15SM -SHSN BKN030 M10/ RMK SC6

CYYG;2009-12-20 00:00;CYYG 200000Z 30004KT 15SM -SHSN OVC030 M09/M12 A2979 RMK SC8 SLP090

CYYG;2009-12-20 01:00;CYYG 200100Z 31003KT 15SM -SHSN OVC030 M08/M11 A2978 RMK SC8 SLP089

CYYG;2009-12-20 02:00;CYYG 200200Z 31004KT 15SM -SHSN OVC029 M07/M11 A2977 RMK SC8 SLP084

CYYG;2009-12-20 03:00;CYYG 200300Z 31004KT 15SM -SHSN OVC026 M07/M10 A2975 RMK SC8 SLP079

CYYG;2009-12-20 04:00;CYYG 200400Z 29004KT 15SM -SHSN OVC022 M07/M10 A2974 RMK SC8 SLP076

CYYG;2009-12-20 05:00;CYYG 200500Z 28004KT 15SM -SHSN OVC024 M07/M09 A2972 RMK SC8 SLP068

CYYG;2009-12-20 06:00;CYYG 200600Z 27005KT 15SM -SHSN OVC022 M07/M09 A2971 RMK SC8 SLP066

CYYG;2009-12-20 07:00;CYYG 200700Z 29002KT 15SM -SHSN OVC022 M06/M09 A2971 RMK SC8 SLP063

CYYG;2009-12-20 08:00;CYYG 200800Z 27004KT 15SM -SHSN OVC022 M06/M09 A2969 RMK SC8 SLP059

CYYG;2009-12-20 09:00;CYYG 200900Z 34002KT 15SM -SHSN OVC023 M06/M09 A2966 RMK SC8 SLP048

CYYG;2009-12-20 10:00;CYYG 201000Z 04006KT 15SM OVC021 M05/M08 A2963 RMK SC8 SLP036

CYYG;2009-12-20 11:00;CYYG 201100Z 07002KT 15SM OVC023 M04/M07 A2963 RMK SC8 SLP038

CYYG;2009-12-20 12:00;CYYG 201200Z 00000KT 15SM OVC021 M04/M07 A2963 RMK SC8 SLP037

CYYG;2009-12-20 13:00;CYYG 201300Z 00000KT 15SM OVC021 M04/M07 A2960 RMK SC8 SLP028

CYYG;2009-12-20 14:00;CYYG 201400Z 02005KT 15SM OVC021 M03/M06 A2958 RMK SC8 SLP020

CYYG;2009-12-20 15:00;CYYG 201500Z 03012KT 15SM OVC019 M02/M06 A2952 RMK SC8 PRESFR SLP998

CYYG;2009-12-20 16:00;CYYG 201600Z 04013KT 15SM OVC019 M02/M06 A2948 RMK SC8 SLP985

CYYG;2009-12-20 17:00;CYYG 201700Z 04009G16KT 15SM OVC019 M01/M05 A2944 RMK SC8 SLP973

CYYG;2009-12-20 18:00;CYYG 201800Z 05011KT 15SM OVC020 M01/M05 A2942 RMK SC8 SLP966

CYYG;2009-12-20 19:00;CYYG 201900Z 04013KT 15SM OVC017 M01/M04 A2937 RMK SC8 SLP949

CYYG;2009-12-20 19:08;CYYG 201908Z 04011G17KT 15SM -SHSN OVC014 M01/ RMK SC8

CYYG;2009-12-20 20:00;CYYG 202000Z 05008G18KT 15SM -SHSN FEW007 OVC015 M01/M03 A2939 RMK SF2SC6 VIS SE-SW 2 SLP954

CYYG;2009-12-20 21:00;CYYG 202100Z 04006KT 12SM -SHSN FEW007 OVC019 M01/M03 A2939 RMK SF1SC7 SLP953

CYYG;2009-12-20 22:00;CYYG 202200Z 02016KT 8SM -SHSN FEW007 BKN022 OVC030 M01/M03 A2932 RMK SF1SC6SC1 SLP932

CYYG;2009-12-20 23:00;CYYG 202300Z 03015KT 4SM -SHSN SCT007 OVC020 M01/M03 A2929 RMK SF3SC5 SLP920

CYYG;2009-12-21 00:00;CYYG 210000Z 06010G16KT 6SM -SHSN OVC011 M01/M04 A2930 RMK SF8 SLP923

CYYG;2009-12-21 01:00;CYYG 210100Z 02009KT 6SM -SHSN SCT010 OVC018 M01/M03 A2927 RMK SF4SC4 SLP915

CYYG;2009-12-21 01:39;CYYG 210139Z 02009KT 10SM OVC017 M01/ RMK SC8

CYYG;2009-12-21 02:00;CYYG 210200Z 03011KT 10SM -SHSN OVC020 M01/M03 A2924 RMK SC8 SLP904

CYYG;2009-12-21 02:47;CYYG 210247Z 03013G18KT 3SM -SHSN BKN008 OVC024 M00/ RMK SF6SC2

CYYG;2009-12-21 03:00;CYYG 210300Z 03010KT 4SM -SHSN BKN007 OVC020 M00/M02 A2922 RMK SF5SC3 SLP896

CYYG;2009-12-21 04:00;CYYG 210400Z 02011KT 3SM -SHSN OVC006 M00/M01 A2919 RMK SF8 SLP888

CYYG;2009-12-21 05:00;CYYG 210500Z 02008KT 3SM R03/5000FT/U -SHSN OVC004 01/00 A2917 RMK SF8 SLP881

CYYG;2009-12-21 06:00;CYYG 210600Z 02010G15KT 2 1/2SM R03/5000FT/D -SHSN OVC004 01/00 A2917 RMK SF8 SLP878

CYYG;2009-12-21 07:00;CYYG 210700Z 36007KT 2SM R03/6000FT/N -SHSN OVC004 01/01 A2917 RMK SF8 SLP879

CYYG;2009-12-21 07:41;CYYG 210741Z 36007KT 1 1/2SM -SHRASN OVC003 01/ RMK SF8

CYYG;2009-12-21 08:00;CYYG 210800Z 36009KT 2 1/2SM -SHRASN OVC003 01/00 A2915 RMK SF8 SLP874

CYYG;2009-12-21 09:00;CYYG 210900Z 35008KT 2 1/2SM -SHRASN OVC003 01/00 A2915 RMK SF8 SLP874

CYYG;2009-12-21 10:00;CYYG 211000Z 35009KT 3SM -SHRA BR OVC003 01/00 A2915 RMK SF8 SLP874

CYYG;2009-12-21 11:00;CYYG 211100Z 35010KT 1 1/2SM -SHRA BR OVC003 01/01 A2915 RMK SF8 SLP874

CYYG;2009-12-21 11:21;CYYG 211121Z 36007KT 1 1/2SM -DZ BR OVC003 01/ RMK SF8

CYYG;2009-12-21 12:00;CYYG 211200Z 36008KT 1SM R03/P6000FT/D -DZ BR OVC003 01/01 A2917 RMK SF8 SLP880

CYYG;2009-12-21 12:38;CYYG 211238Z 35009KT 5/8SM R03/3000V4500FT/D -DZ BR OVC002 01/ RMK SF8

CYYG;2009-12-21 13:00;CYYG 211300Z 36008KT 5/8SM R03/3000FT/N -DZ BR OVC002 01/01 A2918 RMK SF8 SLP884

CYYG;2009-12-21 14:00;CYYG 211400Z 36008KT 3/4SM R03/4000V5500FT/N -DZ BR OVC003 02/01 A2919 RMK SF8 SLP886

CYYG;2009-12-21 15:00;CYYG 211500Z 36007KT 1SM R03/5000FT/U -DZ BR OVC003 02/01 A2920 RMK SF8 SLP888

CYYG;2009-12-21 16:00;CYYG 211600Z 01007KT 3/4SM R03/P6000FT/D -DZ BR OVC003 02/02 A2919 RMK SF8 SLP885

CYYG;2009-12-21 17:00;CYYG 211700Z 02009KT 1 1/4SM -DZ BR OVC003 02/01 A2918 RMK SF8 SLP884

CYYG;2009-12-21 18:00;CYYG 211800Z 02010KT 1SM R03/P6000FT/D -DZ BR OVC003 02/01 A2920 RMK SF8 SLP889

CYYG;2009-12-21 18:45;CYYG 211845Z 02010KT 6SM -DZ BR OVC006 02/ RMK SF8

CYYG;2009-12-21 19:00;CYYG 211900Z 02009KT 8SM -DZ OVC006 02/01 A2922 RMK SF8 SLP897

CYYG;2009-12-21 19:15;CYYG 211915Z 03010KT 2SM -DZ BR OVC004 02/ RMK SF8

CYYG;2009-12-21 19:26;CYYG 211926Z 03010KT 6SM -DZ BR BKN004 OVC020 02/ RMK SF6SC2

CYYG;2009-12-21 19:44;CYYG 211944Z 03010KT 12SM FEW004 OVC026 02/ RMK SF2SC6

CYYG;2009-12-21 20:00;CYYG 212000Z 03010KT 15SM BKN008 OVC026 02/01 A2924 RMK SF6SC2 SLP904

CYYG;2009-12-21 20:54;CYYG 212054Z 02010KT 10SM -SHRA OVC003 02/ RMK SF8

CYYG;2009-12-21 21:00;CYYG 212100Z 02011KT 10SM -SHRA OVC003 02/01 A2926 RMK SF8 SLP909

CYYG;2009-12-21 22:00;CYYG 212200Z 36009KT 12SM -SHRA BKN004 OVC010 02/01 A2927 RMK SF7SF1 SLP913

CYYG;2009-12-21 22:22;CYYG 212222Z 36010G15KT 12SM BKN004 OVC008 02/ RMK SF6SF2

CYYG;2009-12-21 22:43;CYYG 212243Z 01009KT 3SM BR OVC003 02/ RMK SF8

CYYG;2009-12-21 23:00;CYYG 212300Z 36009KT 3/4SM R03/P6000FT/U -SHRA BR OVC002 02/01 A2929 RMK SF8 SLP921

CYYG;2009-12-21 23:30;CYYG 212330Z 36012KT 7SM -SHRASN OVC004 01/ RMK SF8

CYYG;2009-12-22 00:00;CYYG 220000Z 01010KT 7SM -SHRASN OVC004 01/01 A2931 RMK SF8 SLP926

CYYG;2009-12-22 01:00;CYYG 220100Z 36009G16KT 8SM -SHRA OVC006 01/01 A2930 RMK SF8 SLP925

CYYG;2009-12-22 01:21;CYYG 220121Z 01010KT 10SM BKN006 OVC013 01/ RMK SF7SC1

CYYG;2009-12-22 02:00;CYYG 220200Z 36009G15KT 12SM BKN008 OVC020 01/00 A2931 RMK SF6SC2 SLP927

CYYG;2009-12-22 03:00;CYYG 220300Z 36011G16KT 12SM OVC011 01/M00 A2933 RMK SF8 SLP934

CYYG;2009-12-22 04:00;CYYG 220400Z 36012G17KT 15SM BKN012 OVC022 02/M00 A2932 RMK SF7SC1 SLP932

CYYG;2009-12-22 05:00;CYYG 220500Z 01011G16KT 6SM BR OVC009 01/00 A2933 RMK SF8 SLP935

CYYG;2009-12-22 06:00;CYYG 220600Z 36010G17KT 6SM -RA BR OVC006 01/00 A2935 RMK SF8 SLP941

CYYG;2009-12-22 07:00;CYYG 220700Z 36010G15KT 5SM -RA BR OVC004 01/01 A2937 RMK SF8 SLP947

CYYG;2009-12-22 08:00;CYYG 220800Z 35011KT 6SM R03/6000FT/D -RA BR BKN004 OVC011 02/01 A2937 RMK SF7SC1 SLP949

CYYG;2009-12-22 09:00;CYYG 220900Z 01009KT 4SM R03/4500VP6000FT/D -RA BR OVC002 02/01 A2939 RMK SF8 SLP956

CYYG;2009-12-22 10:00;CYYG 221000Z 36004KT 6SM -RA BR OVC004 02/01 A2942 RMK SF8 SLP964

CYYG;2009-12-22 11:00;CYYG 221100Z 36008KT 3SM -RA BR OVC003 02/01 A2944 RMK SF8 SLP973

CYYG;2009-12-22 12:00;CYYG 221200Z 04015KT 2 1/2SM -RA BR OVC004 03/02 A2947 RMK SF8 SLP982

CYYG;2009-12-22 12:37;CYYG 221237Z 03016KT 3SM -RA BR OVC005 03/ RMK SF8

CYYG;2009-12-22 13:00;CYYG 221300Z 03015KT 2SM -RA BR OVC004 03/02 A2950 RMK SF8 SLP991

CYYG;2009-12-22 13:17;CYYG 221317Z 03014G20KT 2SM -DZ BR OVC004 03/ RMK SF8

CYYG;2009-12-22 14:00;CYYG 221400Z 03013G20KT 3SM -DZ BR OVC005 03/02 A2952 RMK SF8 SLP000

CYYG;2009-12-22 14:19;CYYG 221419Z 02013KT 6SM -DZ BR BKN006 OVC029 03/ RMK SF6SC2

CYYG;2009-12-22 14:36;CYYG 221436Z 03015KT 6SM BR SCT004 OVC030 03/ RMK SF4SC4

CYYG;2009-12-22 15:00;CYYG 221500Z 03014KT 6SM BR SCT004 OVC030 03/02 A2954 RMK SF4SC4 SLP005

CYYG;2009-12-22 16:00;CYYG 221600Z 04014G19KT 6SM BR SCT008 OVC030 03/02 A2955 RMK SF4SC4 SLP007

CYYG;2009-12-22 16:10;CYYG 221610Z 04015G20KT 6SM BR BKN007 OVC032 03/ RMK SF5SC3

CYYG;2009-12-22 17:00;CYYG 221700Z 04014G19KT 8SM BKN009 OVC032 03/02 A2957 RMK SF6SC2 SLP014

CYYG;2009-12-22 18:00;CYYG 221800Z 04016G21KT 8SM BKN008 OVC026 03/02 A2959 RMK SF5SC3 SLP021

CYYG;2009-12-22 18:27;CYYG 221827Z 04014G21KT 8SM -SHRA BKN007 OVC025 03/ RMK SF7SC1

CYYG;2009-12-22 19:00;CYYG 221900Z 04013G18KT 8SM -SHRA BKN007 OVC025 03/02 A2962 RMK SF7SC1 SLP032

CYYG;2009-12-22 20:00;CYYG 222000Z 04013KT 6SM -SHRA BR BKN007 OVC013 03/01 A2964 RMK SF5SC3 SLP040

CYYG;2009-12-22 20:25;CYYG 222025Z 04012KT 6SM BR BKN009 OVC017 03/ RMK SF6SC2

CYYG;2009-12-22 21:00;CYYG 222100Z 03008KT 3SM -SHRA BR SCT009 SCT017 OVC032 03/02 A2968 RMK SF3SC1SC4 SLP051

CYYG;2009-12-22 21:48;CYYG 222148Z 02006KT 8SM -SHRA FEW009 OVC034 02/ RMK SF2SC6

CYYG;2009-12-22 22:00;CYYG 222200Z 02007KT 8SM -SHRA SCT009 OVC035 03/02 A2970 RMK SF3SC5 SLP060

CYYG;2009-12-22 23:00;CYYG 222300Z 02009KT 6SM -SHRA BR FEW009 OVC043 03/02 A2972 RMK SF2SC6 SLP066

CYYG;2009-12-23 00:00;CYYG 230000Z 03010KT 6SM -SHRA BR FEW009 OVC040 03/02 A2974 RMK SF2SC6 SLP072

CYYG;2009-12-23 00:05;CYYG 230005Z 03012KT 10SM FEW010 OVC040 03/ RMK SF2SC6

CYYG;2009-12-23 01:00;CYYG 230100Z 05010KT 10SM FEW010 OVC025 03/02 A2975 RMK SF2SC6 SLP077

CYYG;2009-12-23 02:00;CYYG 230200Z 05010KT 10SM OVC027 03/01 A2976 RMK SC8 SLP080

CYYG;2009-12-23 03:00;CYYG 230300Z 05010G15KT 10SM OVC039 03/01 A2978 RMK SC8 SLP086

CYYG;2009-12-23 04:00;CYYG 230400Z 06012KT 10SM OVC042 03/01 A2978 RMK SC8 SLP087

CYYG;2009-12-23 05:00;CYYG 230500Z 05011G16KT 12SM OVC042 03/01 A2980 RMK SC8 SLP093

CYYG;2009-12-23 06:00;CYYG 230600Z 07011G16KT 10SM SCT006 OVC040 03/02 A2981 RMK SF3SC5 SLP096

CYYG;2009-12-23 07:00;CYYG 230700Z 06014KT 10SM SCT006 OVC032 03/01 A2982 RMK SF3SC5 SLP099

CYYG;2009-12-23 08:00;CYYG 230800Z 06012KT 10SM BKN006 OVC032 03/02 A2982 RMK SF6SC2 SLP101

CYYG;2009-12-23 09:00;CYYG 230900Z 05010KT 15SM BKN007 OVC025 03/01 A2983 RMK SF6SC2 SLP102

CYYG;2009-12-23 10:00;CYYG 231000Z 06013KT 10SM OVC007 03/01 A2983 RMK SF8 SLP102

CYYG;2009-12-23 10:10;CYYG 231010Z 07012KT 6SM -DZ BR OVC005 03/ RMK SF8

CYYG;2009-12-23 11:00;CYYG 231100Z 07012KT 6SM -DZ BR OVC005 03/01 A2984 RMK SF8 SLP106

CYYG;2009-12-23 12:00;CYYG 231200Z 07008KT 10SM -DZ OVC005 03/02 A2985 RMK SF8 SLP111

CYYG;2009-12-23 13:00;CYYG 231300Z 07009KT 10SM -DZ BKN005 OVC025 03/02 A2987 RMK SF6SC2 SLP117

CYYG;2009-12-23 14:00;CYYG 231400Z 07008KT 6SM -DZ BR BKN005 OVC024 03/02 A2989 RMK SF5SC3 SLP122

CYYG;2009-12-23 15:00;CYYG 231500Z 07008KT 6SM -DZ BR BKN005 OVC020 04/03 A2989 RMK SF6SC2 SLP122

CYYG;2009-12-23 16:00;CYYG 231600Z 06007KT 4SM -DZ BR OVC006 04/03 A2988 RMK SF8 SLP119

CYYG;2009-12-23 17:00;CYYG 231700Z 07007KT 3SM -DZ BR OVC005 04/03 A2987 RMK SF8 SLP118

CYYG;2009-12-23 18:00;CYYG 231800Z 07009KT 3SM -DZ BR BKN005 OVC018 04/03 A2987 RMK SF5SC3 SLP117

CYYG;2009-12-23 19:00;CYYG 231900Z 06009KT 6SM -DZ BR BKN006 OVC016 03/02 A2989 RMK SF6SC2 SLP122

CYYG;2009-12-23 19:23;CYYG 231923Z 06008KT 6SM -DZ BR BKN008 OVC016 04/ RMK SF6SC2

CYYG;2009-12-23 20:00;CYYG 232000Z 07008KT 6SM -DZ BR BKN008 OVC016 03/02 A2990 RMK SF6SC2 SLP125

CYYG;2009-12-23 20:30;CYYG 232030Z 07008KT 6SM -RA BR BKN008 OVC017 03/ RMK SF6SC2

CYYG;2009-12-23 21:00;CYYG 232100Z 07009KT 12SM -RA BKN008 OVC017 03/02 A2991 RMK SF5SC3 SLP132

CYYG;2009-12-23 22:00;CYYG 232200Z 06007KT 12SM -RA SCT008 BKN017 OVC035 03/02 A2992 RMK SF3SC3SC2 SLP135

CYYG;2009-12-23 23:00;CYYG 232300Z 04008KT 15SM -SHRA FEW008 SCT017 OVC050 03/02 A2994 RMK SF2SC2SC5 SLP142

CYYG;2009-12-23 23:50;CYYG 232350Z 04009KT 15SM OVC052 03/ RMK SC7

CYYG;2009-12-24 00:00;CYYG 240000Z 04009KT 15SM OVC052 03/01 A2996 RMK SC7 SLP146

CYYG;2009-12-24 00:44;CYYG 240044Z 05011KT 15SM -RA OVC053 03/ RMK SC8

CYYG;2009-12-24 01:00;CYYG 240100Z 05010KT 15SM -RA OVC049 03/01 A2997 RMK SC8 SLP152

CYYG;2009-12-24 01:36;CYYG 240136Z 06010KT 15SM OVC043 03/ RMK SC8

CYYG;2009-12-24 02:00;CYYG 240200Z 05010KT 15SM OVC050 03/01 A2998 RMK SC8 SLP156

CYYG;2009-12-24 03:00;CYYG 240300Z 05011KT 15SM OVC044 03/01 A3000 RMK SC8 SLP160

CYYG;2009-12-24 04:00;CYYG 240400Z 06012KT 15SM BKN038 03/01 A3001 RMK SC6 SLP164

CYYG;2009-12-24 04:51;CYYG 240451Z 06013KT 15SM FEW008 BKN046 03/ RMK SF2SC4

CYYG;2009-12-24 05:00;CYYG 240500Z 06013KT 15SM FEW008 BKN046 03/01 A3002 RMK SF2SC4 SLP168

CYYG;2009-12-24 06:00;CYYG 240600Z 05011G16KT 15SM FEW007 OVC045 02/00 A3004 RMK SF2SC6 SLP173

CYYG;2009-12-24 07:00;CYYG 240700Z 04014KT 15SM BKN008 BKN021 OVC046 02/00 A3005 RMK SF6SC1SC2 SLP179

CYYG;2009-12-24 08:00;CYYG 240800Z 04018G25KT 15SM BKN008 OVC044 02/M00 A3006 RMK SF5SC3 SLP182

CYYG;2009-12-24 09:00;CYYG 240900Z 04014G20KT 15SM BKN007 OVC038 02/M00 A3009 RMK SF6SC2 SLP190

CYYG;2009-12-24 10:00;CYYG 241000Z 03014G20KT 15SM BKN007 OVC017 01/M00 A3011 RMK SF6SC2 SLP198

CYYG;2009-12-24 11:00;CYYG 241100Z 04016G21KT 15SM BKN009 BKN036 01/M01 A3014 RMK SF6SC2 SLP207

CYYG;2009-12-24 12:00;CYYG 241200Z 04012G20KT 15SM SCT010 BKN035 BKN120 01/M01 A3017 RMK SF4SC2AC1 SLP218

CYYG;2009-12-24 13:00;CYYG 241300Z 04014KT 15SM SCT011 BKN030 BKN120 01/M01 A3019 RMK SF3SC2AC1 SLP226

CYYG;2009-12-24 13:24;CYYG 241324Z 03014G19KT 15SM BKN012 BKN120 01/ RMK SF5AC1

CYYG;2009-12-24 14:00;CYYG 241400Z 02015KT 15SM BKN013 01/M01 A3022 RMK SC7 SLP234

CYYG;2009-12-24 14:51;CYYG 241451Z 03019KT 15SM -SHSN SCT009 BKN013 01/ RMK SF3SC4 VIS E 3

CYYG;2009-12-24 15:00;CYYG 241500Z 04016G21KT 6SM -SHSN SCT009 BKN018 BKN210 01/M01 A3023 RMK SF3SC3CI1 SLP239

CYYG;2009-12-24 16:00;CYYG 241600Z 02014G22KT 12SM -SHSN SCT012 BKN022 BKN210 01/M02 A3023 RMK SF4SC2CI1 VIS LWR E SW SLP238

CYYG;2009-12-24 17:00;CYYG 241700Z 02015KT 10SM -SHSN SCT012 BKN020 01/M02 A3023 RMK SF3SC4 SLP238

CYYG;2009-12-24 18:00;CYYG 241800Z 02015KT 2SM R03/3500VP6000FT/N -SHSN SCT009 OVC015 M00/M02 A3023 RMK SF4SC3 SLP239

CYYG;2009-12-24 18:49;CYYG 241849Z 36013G18KT 15SM FEW009 OVC022 M00/ RMK SF2SC5 SHSN W-S-E

CYYG;2009-12-24 19:00;CYYG 241900Z 02014G19KT 15SM FEW009 OVC019 M00/M04 A3025 RMK SF2SC6 SHSN W AND E SLP245

CYYG;2009-12-24 19:21;CYYG 241921Z 01009G17KT 12SM -SHSN FEW009 BKN021 M00/ RMK SF2SC5

CYYG;2009-12-24 20:00;CYYG 242000Z 02011G18KT 10SM -SHSN SCT009 BKN015 M01/M03 A3026 RMK SF3SC4 VIS W 2 SLP250

CYYG;2009-12-24 21:00;CYYG 242100Z 01009G16KT 6SM -SHSN FEW009 BKN018 OVC027 M01/M03 A3029 RMK SF1SC6SC1 SLP259

CYYG;2009-12-24 22:00;CYYG 242200Z 01007KT 6SM -SHSN BKN012 OVC016 M01/M03 A3030 RMK SC6SC2 SLP264

CYYG;2009-12-24 22:54;CYYG 242254Z 01012KT 15SM OVC017 M01/ RMK SC8

CYYG;2009-12-24 23:00;CYYG 242300Z 01010G16KT 12SM -SHSN OVC016 M01/M05 A3032 RMK SC8 SLP270

CYYG;2009-12-25 00:00;CYYG 250000Z 35009KT 3SM -SHSN BKN014 OVC021 M02/M04 A3033 RMK SC6SC2 SLP275

CYYG;2009-12-25 01:00;CYYG 250100Z 36009G15KT 15SM -SHSN FEW006 OVC015 M02/M05 A3034 RMK SF2SC6 SLP276

CYYG;2009-12-25 02:00;CYYG 250200Z 01008G16KT 10SM -SHSN BKN009 OVC022 M02/M04 A3033 RMK SF6SC2 SLP274

CYYG;2009-12-25 03:00;CYYG 250300Z 01007KT 15SM -SHSN FEW004 OVC017 M02/M04 A3032 RMK SF2SC6 SLP271

CYYG;2009-12-25 04:00;CYYG 250400Z 02011KT 15SM -SHSN FEW013 OVC018 M02/M05 A3031 RMK SC2SC6 SLP267

CYYG;2009-12-25 05:00;CYYG 250500Z 02009KT 15SM OVC013 M02/M06 A3032 RMK SC8 SLP270

CYYG;2009-12-25 05:44;CYYG 250544Z 36007KT 15SM -SHSN OVC017 M02/ RMK SC8

CYYG;2009-12-25 06:00;CYYG 250600Z 36007KT 15SM -SHSN OVC017 M02/M05 A3033 RMK SC8 SLP275

CYYG;2009-12-25 07:00;CYYG 250700Z 36009KT 10SM -SHSN OVC014 M02/M05 A3035 RMK SC8 SLP280

CYYG;2009-12-25 08:00;CYYG 250800Z 02011KT 15SM -SHSN OVC015 M02/M06 A3036 RMK SC8 SLP284

CYYG;2009-12-25 09:00;CYYG 250900Z 36009KT 15SM -SHSN OVC014 M02/M06 A3036 RMK SC8 SLP285

CYYG;2009-12-25 10:00;CYYG 251000Z 36005KT 10SM -SHSN OVC014 M02/M05 A3037 RMK SC8 SLP288

CYYG;2009-12-25 11:00;CYYG 251100Z 01007KT 10SM -SHSN BKN008 OVC020 M02/M05 A3038 RMK SF6SC2 SLP291

CYYG;2009-12-25 12:00;CYYG 251200Z 01005KT 15SM -SHSN OVC014 M02/M05 A3040 RMK SC8 SLP297

CYYG;2009-12-25 13:00;CYYG 251300Z 02010KT 15SM -SHSN OVC013 M02/M05 A3041 RMK SC8 SLP300

CYYG;2009-12-25 13:33;CYYG 251333Z 01008KT 15SM VCSH OVC017 M01/ RMK SC7

CYYG;2009-12-25 14:00;CYYG 251400Z 36008KT 15SM VCSH OVC016 M01/M05 A3042 RMK SC7 SLP303

CYYG;2009-12-25 14:13;CYYG 251413Z 36007KT 15SM -SHSN OVC014 M01/ RMK SC7 VIS N 2

CYYG;2009-12-25 15:00;CYYG 251500Z 01008KT 6SM -SHSN OVC017 M01/M04 A3042 RMK SC7 SLP303

CYYG;2009-12-25 16:00;CYYG 251600Z 36008KT 15SM VCSH OVC017 M01/M04 A3042 RMK SC7 SLP303

CYYG;2009-12-25 17:00;CYYG 251700Z 36011KT 15SM VCSH BKN019 BKN230 M01/M05 A3041 RMK SC6CI1 SLP300

CYYG;2009-12-25 18:00;CYYG 251800Z 03011G16KT 15SM BKN018 M01/M05 A3041 RMK SC6 SLP301

CYYG;2009-12-25 19:00;CYYG 251900Z 02011KT 15SM BKN019 M01/M05 A3042 RMK SC6 SLP304

CYYG;2009-12-25 19:19;CYYG 251919Z 02010KT 10SM -SHSN BKN019 M01/ RMK SC7

CYYG;2009-12-25 20:00;CYYG 252000Z 01007KT 8SM -SHSN OVC018 M02/M04 A3044 RMK SC8 SLP311

CYYG;2009-12-25 20:18;CYYG 252018Z 01008KT 1 1/2SM -SHSN OVC011 M02/ RMK SF8

CYYG;2009-12-25 21:00;CYYG 252100Z 01006KT 1 1/2SM -SHSN OVC016 M02/M04 A3045 RMK SF8 SLP315

CYYG;2009-12-25 21:44;CYYG 252144Z 36008KT 8SM VCSH OVC011 M02/ RMK SF8

CYYG;2009-12-25 22:00;CYYG 252200Z 35008KT 10SM VCSH OVC014 M02/M05 A3047 RMK SF8 SLP320

CYYG;2009-12-25 23:00;CYYG 252300Z 02008KT 10SM VCSH OVC015 M01/M05 A3048 RMK SF8 OBS TAKEN +38 SLP324

CYYG;2009-12-25 23:14;CYYG 252314Z 36005KT 3SM -SHSN OVC011 M02/ RMK SF8

CYYG;2009-12-26 00:00;CYYG 260000Z 02008KT 3SM -SHSN OVC007 M02/M03 A3049 RMK SF8 /S01/ SLP326

CYYG;2009-12-26 00:48;CYYG 260048Z 01010G15KT 15SM -SHSN FEW007 OVC019 M02/ RMK SF2SC6

CYYG;2009-12-26 01:00;CYYG 260100Z 01008G15KT 15SM FEW007 OVC017 M02/M05 A3049 RMK SF2SC6 SLP328

CYYG;2009-12-26 01:03;CYYG 260103Z 02011KT 15SM -SHSN FEW007 OVC017 M02/ RMK SF2SC6

CYYG;2009-12-26 02:00;CYYG 260200Z 01008KT 10SM -SHSN FEW003 BKN017 OVC026 M02/M04 A3050 RMK SF1SC5SC2 SLP331

CYYG;2009-12-26 03:00;CYYG 260300Z 03010KT 10SM -SHSN FEW004 BKN015 M02/M05 A3051 RMK SF1SC6 SLP334

CYYG;2009-12-26 04:00;CYYG 260400Z 02004KT 15SM -SHSN FEW004 BKN012 M02/M04 A3052 RMK SF2SC6 VIS SW-W 3 SLP338

CYYG;2009-12-26 05:00;CYYG 260500Z 01006KT 3SM -SHSN OVC012 M02/M04 A3053 RMK SC8 SLP341

CYYG;2009-12-26 06:00;CYYG 260600Z 03007KT 6SM -SHSN OVC013 M02/M03 A3053 RMK SC8 /S01/ SLP340

CYYG;2009-12-26 07:00;CYYG 260700Z 04009KT 15SM -SHSN OVC018 M01/M04 A3052 RMK SC8 SLP339

CYYG;2009-12-26 08:00;CYYG 260800Z 01007KT 15SM -SHSN OVC018 M01/M05 A3055 RMK SC8 SLP347

CYYG;2009-12-26 09:00;CYYG 260900Z 36003KT 15SM -SHSN OVC019 M01/M04 A3056 RMK SC8 SLP350

CYYG;2009-12-26 10:00;CYYG 261000Z 04011KT 15SM -SHSN OVC018 M01/M05 A3055 RMK SC8 SLP349

CYYG;2009-12-26 10:30;CYYG 261030Z 03010KT 15SM OVC019 M01/ RMK SC8

CYYG;2009-12-26 11:00;CYYG 261100Z 01005KT 15SM OVC019 M01/M05 A3058 RMK SC8 SLP357

CYYG;2009-12-26 11:51;CYYG 261151Z 03011KT 1 1/2SM -SHSN OVC012 M01/ RMK SF8

CYYG;2009-12-26 12:00;CYYG 261200Z 04010KT 2SM -SHSN OVC012 M02/M04 A3058 RMK SF8 SLP358

CYYG;2009-12-26 12:16;CYYG 261216Z 03008KT 4SM -SHSN BKN011 OVC021 M01/ RMK SF6SC2

CYYG;2009-12-26 13:00;CYYG 261300Z CCA 04008KT 8SM -SHSN OVC017 M01/M04 A3060 RMK SC8 PCPN VRY LGT SLP365

CYYG;2009-12-26 13:13;CYYG 261313Z 04007KT 10SM VCSH OVC016 M01/ RMK SC8

CYYG;2009-12-26 14:00;CYYG 261400Z 06007KT 15SM OVC018 M01/M05 A3061 RMK SC8 SLP368

CYYG;2009-12-26 15:00;CYYG 261500Z 05007KT 15SM OVC018 M01/M05 A3060 RMK SC8 SLP365

CYYG;2009-12-26 16:00;CYYG 261600Z 05007KT 15SM OVC018 M01/M05 A3058 RMK SC8 SLP358

CYYG;2009-12-26 17:00;CYYG 261700Z 04004KT 15SM OVC019 M01/M05 A3057 RMK SC8 SLP355

CYYG;2009-12-26 18:00;CYYG 261800Z 02005KT 15SM OVC018 M01/M05 A3056 RMK SC8 SLP352

CYYG;2009-12-26 19:00;CYYG 261900Z 03005KT 15SM OVC019 M01/M05 A3057 RMK SC8 SLP355

CYYG;2009-12-26 20:00;CYYG 262000Z 01003KT 15SM OVC020 M01/M05 A3057 RMK SC8 SLP355

CYYG;2009-12-26 21:00;CYYG 262100Z 03004KT 15SM OVC022 M01/M04 A3058 RMK SC8 SLP359

CYYG;2009-12-26 22:00;CYYG 262200Z 00000KT 15SM OVC018 M01/M05 A3058 RMK SC8 SLP357

CYYG;2009-12-26 23:00;CYYG 262300Z 04002KT 15SM OVC018 M01/M05 A3058 RMK SC8 SLP356

CYYG;2009-12-27 00:00;CYYG 270000Z 09002KT 15SM OVC018 M01/M05 A3057 RMK SC8 SLP355

CYYG;2009-12-27 01:00;CYYG 270100Z 00000KT 15SM OVC018 M01/M05 A3057 RMK SC8 SLP354

CYYG;2009-12-27 02:00;CYYG 270200Z 00000KT 15SM OVC018 M01/M05 A3056 RMK SC8 SLP351

CYYG;2009-12-27 03:00;CYYG 270300Z 14002KT 15SM -SHSN OVC015 M01/M04 A3055 RMK SC8 PCPN VERY LGT SLP346

CYYG;2009-12-27 04:00;CYYG 270400Z 15003KT 15SM OVC014 M02/M05 A3053 RMK SC8 OCNL -SHSN SLP341

CYYG;2009-12-27 04:30;CYYG 270430Z 17004KT 15SM OVC013 M02/ RMK SC8

CYYG;2009-12-27 05:00;CYYG 270500Z 19004KT 15SM OVC012 M02/M04 A3053 RMK SC8 SLP340

CYYG;2009-12-27 06:00;CYYG 270600Z 19004KT 15SM OVC013 M02/M05 A3053 RMK SC8 SLP340

CYYG;2009-12-27 07:00;CYYG 270700Z 21003KT 15SM OVC013 M02/M04 A3051 RMK SC8 SLP335

CYYG;2009-12-27 07:10;CYYG 270710Z 20004KT 15SM -SHSN OVC012 M02/M04 RMK SC8

CYYG;2009-12-27 08:00;CYYG 270800Z 20005KT 15SM OVC013 M02/M04 A3050 RMK SC8 OCNL -SHSN SLP331

CYYG;2009-12-27 09:00;CYYG 270900Z 23005KT 15SM OVC013 M02/M05 A3048 RMK SC8 OCNL -SHSN SLP325

CYYG;2009-12-27 09:11;CYYG 270911Z 23005KT 15SM OVC014 M02/ RMK SC8

CYYG;2009-12-27 10:00;CYYG 271000Z 23005KT 15SM OVC012 M02/M06 A3047 RMK SC8 SLP322

CYYG;2009-12-27 11:00;CYYG 271100Z 21006KT 15SM OVC012 M02/M06 A3046 RMK SC8 SLP316

CYYG;2009-12-27 12:00;CYYG 271200Z 19006KT 15SM OVC012 M02/M06 A3043 RMK SC8 SLP307

CYYG;2009-12-27 13:00;CYYG 271300Z 17007KT 15SM OVC013 M02/M06 A3042 RMK SC8 SLP305

CYYG;2009-12-27 14:00;CYYG 271400Z 20010KT 15SM OVC013 M02/M05 A3043 RMK SC8 SLP308

CYYG;2009-12-27 15:00;CYYG 271500Z 17005KT 15SM OVC014 M01/M05 A3040 RMK SC8 SLP296

CYYG;2009-12-27 16:00;CYYG 271600Z 15007KT 15SM OVC015 M01/M04 A3036 RMK SC8 SLP283

CYYG;2009-12-27 17:00;CYYG 271700Z 15008KT 15SM OVC017 M00/M04 A3029 RMK SC8 PRESFR SLP259

CYYG;2009-12-27 18:00;CYYG 271800Z 16008KT 15SM SCT018 BKN250 00/M03 A3026 RMK SC4CI3 SLP250

CYYG;2009-12-27 19:00;CYYG 271900Z 16009KT 15SM SCT018 BKN250 01/M03 A3024 RMK SC3CI4 SLP244

CYYG;2009-12-27 20:00;CYYG 272000Z 16009G15KT 15SM FEW018 BKN047 OVC220 01/M03 A3022 RMK SC2SC4CI2 SLP236

CYYG;2009-12-27 21:00;CYYG 272100Z 15011KT 15SM FEW018 BKN031 OVC220 01/M02 A3018 RMK SC2SC4CI2 SLP222

CYYG;2009-12-27 22:00;CYYG 272200Z 14009KT 15SM OVC030 01/M02 A3014 RMK SC8 SLP208

CYYG;2009-12-27 23:00;CYYG 272300Z 14011G16KT 15SM OVC027 01/M01 A3012 RMK SC8 SLP202

CYYG;2009-12-28 00:00;CYYG 280000Z 15010KT 15SM SCT010 OVC028 01/M01 A3006 RMK SC4SC4 SLP183

CYYG;2009-12-28 00:43;CYYG 280043Z 16010G17KT 8SM -SHRA OVC010 02/ RMK SC8

CYYG;2009-12-28 01:00;CYYG 280100Z 15013G18KT 8SM -SHRA OVC010 02/00 A3001 RMK SC8 SLP165

CYYG;2009-12-28 02:00;CYYG 280200Z CCA 15016G21KT 10SM -SHRA SCT008 OVC076 02/01 A2994 RMK SF3AC5 PRESFR SLP140

CYYG;2009-12-28 03:00;CYYG 280300Z 15017G22KT 10SM -SHRA BKN010 OVC075 03/02 A2989 RMK SC7AC1 SLP123

CYYG;2009-12-28 04:00;CYYG 280400Z CCA 14020G28KT 8SM -SHRA OVC010 04/02 A2981 RMK SC8 PRESFR SLP096

CYYG;2009-12-28 05:00;CYYG 280500Z 15023G31KT 10SM -SHRA FEW007 OVC012 04/04 A2973 RMK SF2SC6 PRESFR SLP070

CYYG;2009-12-28 06:00;CYYG 280600Z 16018G24KT 10SM -SHRA OVC010 05/04 A2970 RMK SC8 SLP060

CYYG;2009-12-28 06:39;CYYG 280639Z 16020G27KT 12SM SCT006 OVC013 05/ RMK SF4SC4

CYYG;2009-12-28 07:00;CYYG 280700Z 16020G28KT 12SM SCT006 OVC013 06/05 A2966 RMK SF4SC4 SLP047

CYYG;2009-12-28 08:00;CYYG 280800Z 17015G21KT 12SM FEW006 OVC011 06/05 A2961 RMK SF2SC6 SLP029

CYYG;2009-12-28 09:00;CYYG 280900Z 18013KT 12SM OVC009 06/05 A2960 RMK SF8 SLP024

CYYG;2009-12-28 09:26;CYYG 280926Z 17013KT 10SM BKN003 OVC007 06/ RMK SF5SF3

CYYG;2009-12-28 09:45;CYYG 280945Z 18011KT 2SM BR VV002 06/ RMK FG8

CYYG;2009-12-28 10:00;CYYG 281000Z 18008KT 1 1/2SM BR VV002 06/05 A2959 RMK FG8 SLP021

CYYG;2009-12-28 10:43;CYYG 281043Z 20006KT 15SM FEW002 OVC020 06/ RMK SF2SC6

CYYG;2009-12-28 11:00;CYYG 281100Z 20007KT 15SM FEW002 OVC020 06/05 A2957 RMK SF2SC6 SLP016

CYYG;2009-12-28 12:00;CYYG 281200Z 22011G17KT 15SM FEW005 OVC021 06/04 A2958 RMK SF2SC6 SLP018

CYYG;2009-12-28 13:00;CYYG 281300Z 22010KT 15SM FEW006 OVC021 06/03 A2958 RMK SF2SC6 SLP017

CYYG;2009-12-28 14:00;CYYG 281400Z 22010G15KT 15SM FEW006 BKN022 06/03 A2958 RMK SF1SC6 SLP019

CYYG;2009-12-28 15:00;CYYG 281500Z 21009KT 15SM FEW006 OVC022 06/03 A2957 RMK SF1SC7 SLP016

CYYG;2009-12-28 16:00;CYYG 281600Z 22010KT 15SM BKN013 OVC028 06/03 A2954 RMK SC5SC3 SLP006

CYYG;2009-12-28 17:00;CYYG 281700Z 25012G17KT 15SM BKN013 OVC021 05/03 A2952 RMK SC6SC2 SLP998

CYYG;2009-12-28 17:16;CYYG 281716Z 24010G16KT 15SM BKN009 BKN020 05/ RMK SC6SC2

CYYG;2009-12-28 17:48;CYYG 281748Z 27008KT 15SM FEW010 BKN019 05/ RMK SF2SC4

CYYG;2009-12-28 18:00;CYYG 281800Z 26008KT 15SM FEW010 BKN018 BKN250 05/03 A2951 RMK SF2SC3CI1 SLP993

CYYG;2009-12-28 19:00;CYYG 281900Z 25009KT 15SM FEW014 FEW300 05/02 A2951 RMK CU1CI0 SLP993

CYYG;2009-12-28 20:00;CYYG 282000Z 25007KT 15SM FEW014 FEW040 SCT300 04/M00 A2952 RMK SC1SC1CI0 SLP996

CYYG;2009-12-28 21:00;CYYG 282100Z 26004KT 15SM FEW040 FEW160 BKN300 03/M01 A2952 RMK SC1AC1CI0 SLP999

CYYG;2009-12-28 22:00;CYYG 282200Z 28005KT 15SM FEW040 FEW160 BKN300 02/M01 A2951 RMK SC1AC1CI0 SLP995

CYYG;2009-12-28 23:00;CYYG 282300Z 16002KT 15SM SCT140 BKN300 M00/M02 A2950 RMK AC3CI0 SLP993

CYYG;2009-12-29 00:00;CYYG 290000Z 12002KT 15SM SCT140 BKN300 M01/M02 A2948 RMK AC3CI0 SLP985

CYYG;2009-12-29 01:00;CYYG 290100Z 00000KT 15SM BKN150 M02/M03 A2946 RMK AC6 SLP978

CYYG;2009-12-29 02:00;CYYG 290200Z 00000KT 15SM BKN160 M01/M03 A2942 RMK AC7 SLP964

CYYG;2009-12-29 03:00;CYYG 290300Z 00000KT 15SM BKN052 OVC160 M01/M02 A2942 RMK SC7AC1 SLP963

CYYG;2009-12-29 03:47;CYYG 290347Z 01002KT 6SM -SHSN BKN012 OVC030 M00/ RMK SC6SC2

CYYG;2009-12-29 04:00;CYYG 290400Z 10003KT 2SM -SHSN FEW007 OVC016 M00/M01 A2939 RMK SF2SC6 SLP953

CYYG;2009-12-29 04:16;CYYG 290416Z 10005KT 1/2SM R03/4500VP6000FT/D SHSN OVC012 00/ RMK SN3SC5

CYYG;2009-12-29 04:41;CYYG 290441Z 05004KT 3/4SM R03/P6000FT/U -SHSN OVC016 00/ RMK SN3SC5

CYYG;2009-12-29 05:00;CYYG 290500Z 03005KT 1SM R03/P6000FT/U -SHSN SCT007 OVC016 00/M01 A2930 RMK SF3SC5 /S02/ SLP925

CYYG;2009-12-29 05:26;CYYG 290526Z 09007KT 1 1/2SM -SHSN OVC002 00/ RMK SF8

CYYG;2009-12-29 06:00;CYYG 290600Z 08007KT 1 1/2SM -SHSN OVC001 00/M01 A2928 RMK SF8 SLP915

CYYG;2009-12-29 06:31;CYYG 290631Z 06007KT 2SM -SHSN OVC002 00/ RMK SF8

CYYG;2009-12-29 07:00;CYYG 290700Z 06009KT 2SM -SHSN SCT007 OVC012 01/M01 A2923 RMK SF4SC4 SLP898

CYYG;2009-12-29 07:22;CYYG 290722Z 06010KT 2SM -SHSN BKN005 OVC012 01/ RMK SF6SC2

CYYG;2009-12-29 08:00;CYYG 290800Z 06006KT 2SM -SHSN OVC002 01/M00 A2918 RMK SF8 /S01/ SLP883

CYYG;2009-12-29 08:34;CYYG 290834Z 07008KT 3SM -SHSN BKN002 OVC006 00/ RMK SF6SF2

CYYG;2009-12-29 09:00;CYYG 290900Z 05007KT 3SM -SHSN OVC003 00/M01 A2912 RMK SF8 SLP864

CYYG;2009-12-29 09:42;CYYG 290942Z 06006KT 3SM -RASN BR OVC003 01/ RMK SF8

CYYG;2009-12-29 10:00;CYYG 291000Z 07005KT 3SM -RA BR OVC004 01/M00 A2909 RMK SF8 SLP851

CYYG;2009-12-29 10:11;CYYG 291011Z 07004KT 3SM BR OVC004 01/ RMK SF8

CYYG;2009-12-29 11:00;CYYG 291100Z 16008KT 6SM BR OVC005 02/01 A2905 RMK SF8 SLP840

CYYG;2009-12-29 11:51;CYYG 291151Z 17010KT 10SM -DZ FEW005 OVC009 02/ RMK SF2SF6

CYYG;2009-12-29 12:00;CYYG 291200Z 18014KT 10SM -DZ FEW004 OVC008 02/01 A2904 RMK SF2SF6 VIS NW-NE 5 /S02/ SLP834

CYYG;2009-12-29 12:39;CYYG 291239Z 18011KT 10SM -RASN SCT006 OVC009 01/ RMK SF3SF5 VIS LWR NW-NE

CYYG;2009-12-29 12:46;CYYG 291246Z 18012KT 10SM -SN OVC008 01/ RMK SF8 VIS NW-NE 5

CYYG;2009-12-29 13:00;CYYG 291300Z 18010G15KT 10SM -SN BKN006 OVC008 01/M00 A2902 RMK SF5SF3 VIS NW-NE 5 SLP828

CYYG;2009-12-29 13:39;CYYG 291339Z 19010KT 10SM -SN OVC004 01/ RMK SF8 VIS LWR E

CYYG;2009-12-29 14:00;CYYG 291400Z 20012KT 10SM -SN OVC004 01/M01 A2900 RMK ST8 VIS LWR E SLP821

CYYG;2009-12-29 15:00;CYYG 291500Z 21012KT 2SM -SN OVC003 00/M01 A2897 RMK ST8 SLP813

CYYG;2009-12-29 15:06;CYYG 291506Z 21011KT 2SM BR OVC002 00/ RMK ST8

CYYG;2009-12-29 15:17;CYYG 291517Z 22012KT 3/4SM R03/4500VP6000FT/D BR VV002 00/ RMK FG8

CYYG;2009-12-29 15:25;CYYG 291525Z 21013KT 1 1/2SM BR OVC002 00/ RMK ST8

CYYG;2009-12-29 15:49;CYYG 291549Z 20011KT 2SM -SN BR OVC002 00/ RMK ST8

CYYG;2009-12-29 16:00;CYYG 291600Z 19011KT 1 1/2SM -SN BR OVC002 00/M01 A2893 RMK ST8 SLP800

CYYG;2009-12-29 16:44;CYYG 291644Z 22007KT 2SM -SN BR OVC003 01/ RMK SF8

CYYG;2009-12-29 17:00;CYYG 291700Z 23007KT 3SM -SN BR OVC003 01/M00 A2890 RMK SF8 SLP788

CYYG;2009-12-29 18:00;CYYG 291800Z 27010G17KT 3SM -SN BR OVC004 00/M00 A2887 RMK SF8 SLP779

CYYG;2009-12-29 19:00;CYYG 291900Z 32018G30KT 2SM -SN BR BKN004 OVC008 00/M01 A2889 RMK SF6SF2 SLP786

CYYG;2009-12-29 19:27;CYYG 291927Z 33025G35KT 1SM R03/5500FT/N -SN BR BKN005 OVC010 00/ RMK SF6SF2

CYYG;2009-12-29 20:00;CYYG 292000Z 32029G41KT 3/4SM R03/3000V5000FT/D -SN BR BKN005 OVC010 M00/M02 A2895 RMK SF6SF2 SLP804

CYYG;2009-12-29 21:00;CYYG 292100Z 32020G31KT 1/2SM R03/2000V3000FT/N -SN BLSN BKN005 OVC015 M01/M02 A2898 RMK SF6SC2 SLP815

CYYG;2009-12-29 21:38;CYYG 292138Z 31023G37KT 2SM -SHSN BLSN OVC008 M02/ RMK SF8

CYYG;2009-12-29 22:00;CYYG 292200Z 31027G33KT 3SM -SHSN BLSN OVC010 M02/M04 A2902 RMK SF8 SLP830

CYYG;2009-12-29 22:35;CYYG 292235Z 31023G37KT 1/2SM R03/1400V2200FT/N -SHSN BLSN OVC012 M04/ RMK BLSN2SC6

CYYG;2009-12-29 23:00;CYYG 292300Z 30021G32KT 1/2SM R03/1800V3500FT/N -SHSN BLSN OVC011 M04/M06 A2909 RMK BLSN3SC5 PRESRR SLP851

CYYG;2009-12-30 00:00;CYYG 300000Z 29020G32KT 3/4SM R03/4500VP6000FT/U -SHSN BLSN OVC009 M06/M09 A2915 RMK BLSN3SF5 PRESRR SLP873

CYYG;2009-12-30 01:00;CYYG 300100Z 30022G31KT 1/2SM R03/3000V4500FT/U -SHSN BLSN OVC005 M07/M10 A2920 RMK BLSN5SF3 SLP889

CYYG;2009-12-30 02:00;CYYG 300200Z 29020G26KT 3/4SM R03/P6000FT/U -SHSN BLSN BKN008 OVC016 M09/M12 A2924 RMK BLSN4SF3SC1 SLP904

CYYG;2009-12-30 03:00;CYYG 300300Z 29018G30KT 3/4SM R03/4000VP6000FT/U -SHSN BLSN OVC008 M09/M12 A2928 RMK BLSN5SF3 SLP917

CYYG;2009-12-30 04:00;CYYG 300400Z 30019G29KT 3/4SM R03/P6000FT/D -SHSN BLSN OVC007 M10/M13 A2931 RMK BLSN5SF3 SLP927

CYYG;2009-12-30 04:48;CYYG 300448Z 30020G27KT 1 1/2SM -SHSN BLSN OVC011 M10/ RMK BLSN3SC5

CYYG;2009-12-30 05:00;CYYG 300500Z 30019G27KT 1SM R03/P6000FT/U -SHSN BLSN OVC011 M10/M14 A2935 RMK BLSN3SC5 SLP940

CYYG;2009-12-30 06:00;CYYG 300600Z 30019G31KT 1 1/2SM -SHSN BLSN OVC012 M11/M15 A2941 RMK BLSN3SC4 PRESRR SLP962

CYYG;2009-12-30 07:00;CYYG 300700Z 30019G29KT 2SM -SHSN BLSN OVC013 M11/M15 A2946 RMK BLSN3SC4 SLP979

CYYG;2009-12-30 08:00;CYYG 300800Z 29018G26KT 2SM -SHSN BLSN SCT013 OVC030 M11/M15 A2950 RMK BLSN2SC2SC3 SLP992

CYYG;2009-12-30 09:00;CYYG 300900Z 30018G28KT 2SM -SHSN BLSN SCT013 OVC030 M12/M16 A2954 RMK BLSN2SC2SC4 SLP007

CYYG;2009-12-30 09:27;CYYG 300927Z 30020G33KT 3SM -SHSN BLSN OVC029 M12/ RMK BLSN2SC6

CYYG;2009-12-30 10:00;CYYG 301000Z 29018G29KT 3SM -SHSN BLSN OVC029 M12/M16 A2958 RMK BLSN2SC6 SLP021

CYYG;2009-12-30 10:20;CYYG 301020Z 30017G29KT 2SM -SHSN BLSN OVC031 M12/ RMK BLSN2SC6

CYYG;2009-12-30 11:00;CYYG 301100Z 30018G28KT 1 1/2SM -SHSN BLSN SCT010 OVC025 M12/M15 A2963 RMK BLSN2SC2SC4 SLP037

CYYG;2009-12-30 11:21;CYYG 301121Z 30019G26KT 1SM R03/P6000FT/N -SHSN BLSN BKN009 OVC020 M12/ RMK BLSN2SC2SC3

CYYG;2009-12-30 12:00;CYYG 301200Z 31021G31KT 3/4SM R03/3000V6000FT/D -SHSN BLSN BKN009 OVC022 M11/M15 A2968 RMK BLSN2SC3SC2 SLP055

CYYG;2009-12-30 13:00;CYYG 301300Z 31017G28KT 3/4SM R03/2000V4000FT/U -SHSN BLSN BKN009 OVC021 M11/M14 A2971 RMK BLSN3SC2SC2 SLP066

CYYG;2009-12-30 14:00;CYYG 301400Z 30018G27KT 3/4SM R03/2000V6000FT/U -SHSN BLSN BKN009 OVC027 M11/M14 A2976 RMK BLSN2SC2SC3 SLP080

CYYG;2009-12-30 15:00;CYYG 301500Z 30016G25KT 1SM R03/2800VP6000FT/D -SHSN BLSN BKN009 OVC030 M11/M14 A2979 RMK BLSN2SC2SC3 SLP092

CYYG;2009-12-30 16:00;CYYG 301600Z 30019G28KT 1 1/2SM R03/3500VP6000FT/N -SHSN BLSN SCT009 OVC029 M11/M15 A2982 RMK BLSN2SC2SC4 SLP103

CYYG;2009-12-30 17:00;CYYG 301700Z 30016G28KT 2SM -SHSN BLSN OVC032 M11/M15 A2985 RMK SC8 SLP110

CYYG;2009-12-30 17:23;CYYG 301723Z 30015G20KT 5SM -SHSN BLSN OVC032 M11/ RMK SC8 VIS NW-NE 2

CYYG;2009-12-30 18:00;CYYG 301800Z 29019G25KT 3SM -SHSN DRSN BKN032 M11/M15 A2987 RMK SC7 VIS S-W 10 SLP119

CYYG;2009-12-30 19:00;CYYG 301900Z 30016G24KT 10SM -SHSN DRSN BKN031 M11/M16 A2990 RMK SC6 VIS NW-E 4 SLP128

CYYG;2009-12-30 20:00;CYYG 302000Z 31018G25KT 15SM -SHSN DRSN BKN031 M11/M16 A2994 RMK SC6 VIS LWR NW-E SLP141

CYYG;2009-12-30 21:00;CYYG 302100Z 29013G22KT 15SM -SHSN DRSN BKN028 M11/M16 A2997 RMK SC7 SLP154

CYYG;2009-12-30 22:00;CYYG 302200Z 30018KT 15SM -SHSN DRSN BKN026 M11/M16 A3000 RMK SC7 SLP162

CYYG;2009-12-30 23:00;CYYG 302300Z 29014G21KT 15SM -SHSN DRSN BKN027 M11/M16 A3004 RMK SC7 SLP175

CYYG;2009-12-31 00:00;CYYG 310000Z 29012G21KT 15SM -SHSN DRSN OVC025 M12/M17 A3006 RMK SC7 SLP184

CYYG;2009-12-31 01:00;CYYG 310100Z 28016KT 3SM -SHSN DRSN OVC026 M12/M16 A3009 RMK SC8 SLP193

CYYG;2009-12-31 02:00;CYYG 310200Z 28013KT 3SM -SHSN DRSN OVC027 M12/M16 A3011 RMK SC8 SLP201

CYYG;2009-12-31 03:00;CYYG 310300Z 28013G18KT 3SM -SHSN DRSN OVC027 M12/M16 A3013 RMK SC8 SLP208

CYYG;2009-12-31 04:00;CYYG 310400Z 29012G20KT 10SM -SHSN DRSN OVC024 M12/M16 A3014 RMK SC8 SLP212

CYYG;2009-12-31 05:00;CYYG 310500Z 28012G17KT 15SM -SHSN DRSN OVC025 M12/M16 A3016 RMK SC8 SLP217

CYYG;2009-12-31 06:00;CYYG 310600Z 29012KT 15SM -SHSN DRSN OVC024 M12/M16 A3017 RMK SC7 SLP219

CYYG;2009-12-31 07:00;CYYG 310700Z 29012KT 10SM -SHSN DRSN OVC021 M12/M16 A3019 RMK SC7 SLP227

CYYG;2009-12-31 08:00;CYYG 310800Z 27010KT 10SM -SHSN DRSN OVC020 M12/M16 A3021 RMK SC7 SLP235

CYYG;2009-12-31 09:00;CYYG 310900Z 27009KT 10SM -SHSN OVC021 M12/M15 A3023 RMK SC8 SLP242

CYYG;2009-12-31 10:00;CYYG 311000Z 25009KT 6SM -SHSN OVC021 M12/M15 A3025 RMK SC8 SLP249

CYYG;2009-12-31 11:00;CYYG 311100Z 26010KT 3SM -SHSN OVC023 M11/M15 A3028 RMK SC8 SLP256

CYYG;2009-12-31 12:00;CYYG 311200Z 28008KT 12SM -SHSN OVC023 M11/M14 A3029 RMK SC8 SLP261

CYYG;2009-12-31 13:00;CYYG 311300Z 28007KT 15SM -SHSN OVC022 M11/M14 A3031 RMK SC8 SLP266

CYYG;2009-12-31 14:00;CYYG 311400Z 29005KT 15SM -SHSN BKN020 M10/M14 A3030 RMK SC7 SLP265

CYYG;2009-12-31 15:00;CYYG 311500Z 26003KT 15SM -SHSN OVC018 M09/M13 A3031 RMK SC8 SLP269

CYYG;2009-12-31 16:00;CYYG 311600Z 22006KT 10SM -SHSN OVC018 M09/M12 A3032 RMK SC8 SLP271

CYYG;2009-12-31 17:00;CYYG 311700Z 27007KT 10SM -SHSN OVC020 M08/M12 A3032 RMK SC8 SLP270

CYYG;2009-12-31 18:00;CYYG 311800Z 27005KT 15SM -SHSN BKN020 M08/M12 A3032 RMK SC6 SLP270

CYYG;2009-12-31 19:00;CYYG 311900Z 30003KT 15SM FEW020 FEW090 SCT200 M08/M12 A3032 RMK SC1AC2CI0 SLP271

CYYG;2009-12-31 20:00;CYYG 312000Z 33003KT 15SM FEW020 FEW200 M08/M12 A3030 RMK SC1CI1 SLP264

CYYG;2009-12-31 21:00;CYYG 312100Z 32003KT 15SM FEW020 BKN140 M10/M13 A3033 RMK SC2AC1 SLP273

CYYG;2009-12-31 22:00;CYYG 312200Z 32002KT 15SM FEW020 FEW140 M11/M15 A3031 RMK SC1AC1 SLP269

CYYG;2009-12-31 23:00;CYYG 312300Z 28003KT 15SM FEW020 FEW100 M11/M14 A3031 RMK SC1AC1 SLP268

